94908KDBQ DBQ20021104204010711/04/02 20:40:31  5-MIN KDBQ 050240Z AUTO 00000KT 6SM BR CLR M03/M04 A3005 960 88 -900 000/00 RMK AO2 TSNO
94908KDBQ DBQ20021104204510711/04/02 20:45:31  5-MIN KDBQ 050245Z AUTO 00000KT 6SM BR CLR M03/M04 A3005 960 88 -900 000/00 RMK AO2 TSNO
94908KDBQ DBQ20021104205013011/04/02 20:50:31  5-MIN KDBQ 050250Z AUTO 00000KT 5SM BR CLR M03/M04 A3005 960 88 -900 000/00 RMK AO2 SLP187 T10281044 50001 TSNO
94908KDBQ DBQ20021104205513011/04/02 20:55:31  5-MIN KDBQ 050255Z AUTO 00000KT 5SM BR CLR M03/M05 A3004 970 85 -900 000/00 RMK AO2 SLP186 T10281050 58012 TSNO
94908KDBQ DBQ20021104210010711/04/02 21:00:31  5-MIN KDBQ 050300Z AUTO 00000KT 5SM BR CLR M03/M04 A3004 970 88 -900 000/00 RMK AO2 TSNO
94908KDBQ DBQ20021104210510811/04/02 21:05:31  5-MIN KDBQ 050305Z AUTO 00000KT 5SM BR CLR M03/M05 A3004 970 88 -1000 000/00 RMK AO2 TSNO
94908KDBQ DBQ20021104211010711/04/02 21:10:31  5-MIN KDBQ 050310Z AUTO 00000KT 6SM BR CLR M03/M04 A3004 970 88 -900 000/00 RMK AO2 TSNO
94908KDBQ DBQ20021104211510711/04/02 21:15:31  5-MIN KDBQ 050315Z AUTO 00000KT 6SM BR CLR M02/M04 A3004 970 85 -800 000/00 RMK AO2 TSNO
94908KDBQ DBQ20021104212010711/04/02 21:20:31  5-MIN KDBQ 050320Z AUTO 00000KT 6SM BR CLR M02/M04 A3004 970 85 -800 000/00 RMK AO2 TSNO
94908KDBQ DBQ20021104212510711/04/02 21:25:31  5-MIN KDBQ 050325Z AUTO 00000KT 6SM BR CLR M03/M04 A3004 970 88 -900 000/00 RMK AO2 TSNO
94908KDBQ DBQ20021104213010711/04/02 21:30:31  5-MIN KDBQ 050330Z AUTO 00000KT 6SM BR CLR M03/M04 A3003 970 88 -900 000/00 RMK AO2 TSNO
94908KDBQ DBQ20021104213510711/04/02 21:35:31  5-MIN KDBQ 050335Z AUTO 08004KT 6SM HZ CLR M01/M04 A3003 980 81 -700 080/04 RMK AO2 TSNO
94908KDBQ DBQ20021104214010411/04/02 21:40:31  5-MIN KDBQ 050340Z AUTO 08003KT 7SM CLR M01/M04 A3003 970 78 -600 080/03 RMK AO2 TSNO
94908KDBQ DBQ20021104214510411/04/02 21:45:31  5-MIN KDBQ 050345Z AUTO 00000KT 7SM CLR M02/M04 A3003 980 85 -700 000/00 RMK AO2 TSNO
94908KDBQ DBQ20021104215012411/04/02 21:50:31  5-MIN KDBQ 050350Z AUTO 00000KT 6SM BR CLR M02/M04 A3003 980 85 -700 000/00 RMK AO2 SLP182 T10171039 TSNO
94908KDBQ DBQ20021104215512411/04/02 21:55:31  5-MIN KDBQ 050355Z AUTO 06003KT 6SM BR CLR M02/M04 A3003 980 85 -700 060/03 RMK AO2 SLP182 T10171039 TSNO
94908KDBQ DBQ20021104220010711/04/02 22:00:31  5-MIN KDBQ 050400Z AUTO 08003KT 6SM BR CLR M02/M04 A3003 980 85 -700 080/03 RMK AO2 TSNO
94908KDBQ DBQ20021104220510711/04/02 22:05:31  5-MIN KDBQ 050405Z AUTO 06005KT 6SM BR CLR M02/M04 A3002 990 88 -800 060/05 RMK AO2 TSNO
94908KDBQ DBQ20021104221010711/04/02 22:10:31  5-MIN KDBQ 050410Z AUTO 07006KT 6SM BR CLR M02/M04 A3002 990 85 -700 070/06 RMK AO2 TSNO
94908KDBQ DBQ20021104221510711/04/02 22:15:31  5-MIN KDBQ 050415Z AUTO 09005KT 6SM HZ CLR M01/M03 A3002 990 81 -600 080/05 RMK AO2 TSNO
94908KDBQ DBQ20021104222010711/04/02 22:20:31  5-MIN KDBQ 050420Z AUTO 09004KT 6SM BR CLR M01/M03 A3003 980 85 -700 090/04 RMK AO2 TSNO
94908KDBQ DBQ20021104222510711/04/02 22:25:31  5-MIN KDBQ 050425Z AUTO 00000KT 6SM BR CLR M02/M04 A3003 970 85 -700 000/00 RMK AO2 TSNO
94908KDBQ DBQ20021104223010711/04/02 22:30:31  5-MIN KDBQ 050430Z AUTO 00000KT 6SM HZ CLR M01/M04 A3004 970 81 -700 000/00 RMK AO2 TSNO
94908KDBQ DBQ20021104223510711/04/02 22:35:31  5-MIN KDBQ 050435Z AUTO 00000KT 6SM BR CLR M02/M04 A3003 970 85 -700 000/00 RMK AO2 TSNO
94908KDBQ DBQ20021104224010711/04/02 22:40:31  5-MIN KDBQ 050440Z AUTO 00000KT 6SM BR CLR M02/M04 A3003 980 85 -700 000/00 RMK AO2 TSNO
94908KDBQ DBQ20021104224510711/04/02 22:45:31  5-MIN KDBQ 050445Z AUTO 00000KT 6SM HZ CLR M01/M04 A3003 980 81 -700 000/00 RMK AO2 TSNO
94908KDBQ DBQ20021104225012411/04/02 22:50:31  5-MIN KDBQ 050450Z AUTO 11003KT 6SM HZ CLR M01/M04 A3002 980 78 -600 110/03 RMK AO2 SLP179 T10061039 TSNO
94908KDBQ DBQ20021104225512411/04/02 22:55:31  5-MIN KDBQ 050455Z AUTO 08003KT 6SM HZ CLR M01/M04 A3001 990 78 -600 080/03 RMK AO2 SLP176 T10061039 TSNO
94908KDBQ DBQ20021104230010711/04/02 23:00:31  5-MIN KDBQ 050500Z AUTO 05003KT 6SM BR CLR M02/M04 A3001 990 85 -700 050/03 RMK AO2 TSNO
94908KDBQ DBQ20021104230510711/04/02 23:05:31  5-MIN KDBQ 050505Z AUTO 00000KT 6SM BR CLR M02/M04 A3001 990 85 -800 000/00 RMK AO2 TSNO
94908KDBQ DBQ20021104231010711/04/02 23:10:31  5-MIN KDBQ 050510Z AUTO 08003KT 6SM HZ CLR M01/M04 A3002 980 81 -700 080/03 RMK AO2 TSNO
94908KDBQ DBQ20021104231510711/04/02 23:15:31  5-MIN KDBQ 050515Z AUTO 10003KT 6SM HZ CLR M01/M04 A3002 990 81 -700 100/03 RMK AO2 TSNO
94908KDBQ DBQ20021104232010711/04/02 23:20:31  5-MIN KDBQ 050520Z AUTO 00000KT 6SM HZ CLR M01/M04 A3002 990 78 -600 000/00 RMK AO2 TSNO
94908KDBQ DBQ20021104232510711/04/02 23:25:31  5-MIN KDBQ 050525Z AUTO 11003KT 6SM BR CLR M01/M03 A3002 990 85 -700 110/03 RMK AO2 TSNO
94908KDBQ DBQ20021104233010711/04/02 23:30:31  5-MIN KDBQ 050530Z AUTO 11004KT 6SM HZ CLR M01/M03 A3001 990 81 -600 110/04 RMK AO2 TSNO
94908KDBQ DBQ20021104233511011/04/02 23:35:31  5-MIN KDBQ 050535Z AUTO 12003KT 6SM HZ FEW110 M01/M03 A3002 990 81 -600 120/03 RMK AO2 TSNO
94908KDBQ DBQ20021104234010911/04/02 23:40:31  5-MIN KDBQ 050540Z AUTO 16003KT 6SM HZ FEW110 00/M03 A3003 980 81 -500 160/03 RMK AO2 TSNO
94908KDBQ DBQ20021104234511011/04/02 23:45:31  5-MIN KDBQ 050545Z AUTO 19003KT 6SM HZ FEW110 M01/M03 A3003 970 81 -600 190/03 RMK AO2 TSNO
94908KDBQ DBQ20021104235015511/04/02 23:50:31  5-MIN KDBQ 050550Z AUTO 00000KT 6SM BR FEW110 M01/M03 A3003 980 88 -700 000/00 RMK AO2 SLP180 T10111028 10000 21033 400281033 58012 TSNO
94908KDBQ DBQ20021104235515511/04/02 23:55:31  5-MIN KDBQ 050555Z AUTO 00000KT 5SM BR FEW110 M01/M03 A3002 990 88 -700 000/00 RMK AO2 SLP177 T10111028 10000 21033 400281033 55007 TSNO
94908KDBQ DBQ20021105000011011/05/02 00:00:31  5-MIN KDBQ 050600Z AUTO 12004KT 6SM BR FEW110 M01/M03 A3002 990 85 -600 120/04 RMK AO2 TSNO
94908KDBQ DBQ20021105000510911/05/02 00:05:31  5-MIN KDBQ 050605Z AUTO 13004KT 6SM HZ FEW110 00/M03 A3002 990 81 -500 130/04 RMK AO2 TSNO
94908KDBQ DBQ20021105001010611/05/02 00:10:31  5-MIN KDBQ 050610Z AUTO 13005KT 6SM HZ CLR 00/M03 A3001 990 81 -500 130/05 RMK AO2 TSNO
94908KDBQ DBQ20021105001510611/05/02 00:15:31  5-MIN KDBQ 050615Z AUTO 14004KT 6SM HZ CLR 00/M03 A3001 990 81 -500 140/04 RMK AO2 TSNO
94908KDBQ DBQ20021105002010911/05/02 00:20:31  5-MIN KDBQ 050620Z AUTO 16003KT 6SM HZ FEW120 00/M03 A3002 990 81 -500 150/03 RMK AO2 TSNO
94908KDBQ DBQ20021105002510911/05/02 00:25:31  5-MIN KDBQ 050625Z AUTO 17003KT 6SM HZ SCT110 00/M03 A3002 990 81 -500 170/03 RMK AO2 TSNO
94908KDBQ DBQ20021105003010611/05/02 00:30:31  5-MIN KDBQ 050630Z AUTO 17003KT 7SM SCT110 00/M03 A3002 990 81 -500 160/03 RMK AO2 TSNO
94908KDBQ DBQ20021105003511011/05/02 00:35:31  5-MIN KDBQ 050635Z AUTO 00000KT 6SM BR SCT110 M01/M03 A3001 990 85 -600 000/00 RMK AO2 TSNO
94908KDBQ DBQ20021105004010911/05/02 00:40:31  5-MIN KDBQ 050640Z AUTO 00000KT 6SM HZ FEW110 00/M03 A3001 990 81 -500 000/00 RMK AO2 TSNO
94908KDBQ DBQ20021105004511011/05/02 00:45:31  5-MIN KDBQ 050645Z AUTO 12003KT 6SM HZ SCT110 00/M03 A3001 1000 81 -500 120/03 RMK AO2 TSNO
94908KDBQ DBQ20021105005012711/05/02 00:50:31  5-MIN KDBQ 050650Z AUTO 13005KT 6SM HZ SCT110 00/M03 A3001 1000 81 -500 130/05 RMK AO2 SLP173 T00001028 TSNO
94908KDBQ DBQ20021105005512711/05/02 00:55:31  5-MIN KDBQ 050655Z AUTO 13005KT 6SM HZ SCT110 00/M03 A3001 1000 81 -500 130/05 RMK AO2 SLP173 T00001028 TSNO
94908KDBQ DBQ20021105010011011/05/02 01:00:31  5-MIN KDBQ 050700Z AUTO 13005KT 6SM HZ SCT110 00/M03 A3000 1000 81 -500 130/05 RMK AO2 TSNO
94908KDBQ DBQ20021105010510711/05/02 01:05:31  5-MIN KDBQ 050705Z AUTO 13006KT 7SM SCT110 00/M03 A3000 1010 81 -500 120/06 RMK AO2 TSNO
94908KDBQ DBQ20021105011010711/05/02 01:10:31  5-MIN KDBQ 050710Z AUTO 14005KT 7SM BKN100 00/M03 A3000 1010 81 -500 140/05 RMK AO2 TSNO
94908KDBQ DBQ20021105011510711/05/02 01:15:31  5-MIN KDBQ 050715Z AUTO 13005KT 7SM BKN100 00/M03 A2999 1010 81 -500 130/05 RMK AO2 TSNO
94908KDBQ DBQ20021105012010711/05/02 01:20:31  5-MIN KDBQ 050720Z AUTO 15005KT 7SM BKN110 00/M03 A3000 1010 81 -500 140/05 RMK AO2 TSNO
94908KDBQ DBQ20021105012510711/05/02 01:25:31  5-MIN KDBQ 050725Z AUTO 15004KT 7SM BKN110 00/M02 A3000 1010 85 -500 150/04 RMK AO2 TSNO
94908KDBQ DBQ20021105013010711/05/02 01:30:31  5-MIN KDBQ 050730Z AUTO 14005KT 7SM OVC110 00/M02 A2999 1010 85 -500 140/05 RMK AO2 TSNO
94908KDBQ DBQ20021105013511711/05/02 01:35:31  5-MIN KDBQ 050735Z AUTO 14006KT 6SM BR BKN100 OVC120 00/M02 A2999 1020 85 -500 140/06 RMK AO2 TSNO
94908KDBQ DBQ20021105014011711/05/02 01:40:31  5-MIN KDBQ 050740Z AUTO 14007KT 6SM BR BKN100 BKN120 00/M02 A2999 1020 85 -500 140/07 RMK AO2 TSNO
94908KDBQ DBQ20021105014511011/05/02 01:45:31  5-MIN KDBQ 050745Z AUTO 13006KT 6SM BR BKN110 00/M02 A2998 1020 85 -500 130/06 RMK AO2 TSNO
94908KDBQ DBQ20021105015012711/05/02 01:50:31  5-MIN KDBQ 050750Z AUTO 13006KT 6SM BR BKN100 00/M02 A2998 1020 85 -500 130/06 RMK AO2 SLP163 T00001022 TSNO
94908KDBQ DBQ20021105015512711/05/02 01:55:31  5-MIN KDBQ 050755Z AUTO 13006KT 6SM BR BKN100 00/M02 A2998 1030 85 -500 130/06 RMK AO2 SLP161 T00001022 TSNO
94908KDBQ DBQ20021105020011011/05/02 02:00:31  5-MIN KDBQ 050800Z AUTO 11004KT 6SM HZ BKN110 01/M02 A2997 1030 82 -400 110/04 RMK AO2 TSNO
94908KDBQ DBQ20021105020510711/05/02 02:05:31  5-MIN KDBQ 050805Z AUTO 12004KT 7SM BKN110 01/M02 A2997 1030 82 -400 120/04 RMK AO2 TSNO
94908KDBQ DBQ20021105021011011/05/02 02:10:31  5-MIN KDBQ 050810Z AUTO 14005KT 6SM BR BKN110 00/M02 A2998 1020 85 -500 140/05 RMK AO2 TSNO
94908KDBQ DBQ20021105021511011/05/02 02:15:31  5-MIN KDBQ 050815Z AUTO 13005KT 6SM BR BKN110 00/M02 A2998 1030 85 -500 130/05 RMK AO2 TSNO
94908KDBQ DBQ20021105022011011/05/02 02:20:31  5-MIN KDBQ 050820Z AUTO 12005KT 6SM BR BKN110 00/M02 A2997 1030 85 -500 120/05 RMK AO2 TSNO
94908KDBQ DBQ20021105022511011/05/02 02:25:31  5-MIN KDBQ 050825Z AUTO 11005KT 6SM BR BKN110 00/M02 A2997 1040 85 -500 110/05 RMK AO2 TSNO
94908KDBQ DBQ20021105023011011/05/02 02:30:31  5-MIN KDBQ 050830Z AUTO 11005KT 6SM BR BKN110 00/M02 A2996 1040 85 -400 110/05 RMK AO2 TSNO
94908KDBQ DBQ20021105023511711/05/02 02:35:31  5-MIN KDBQ 050835Z AUTO 10005KT 6SM BR BKN110 00/M02 A2995 1050 85 -400 100/05 RMK AO2 PRESFR TSNO
94908KDBQ DBQ20021105024011011/05/02 02:40:31  5-MIN KDBQ 050840Z AUTO 07004KT 6SM BR BKN100 00/M02 A2995 1050 85 -400 070/04 RMK AO2 TSNO
94908KDBQ DBQ20021105024511011/05/02 02:45:31  5-MIN KDBQ 050845Z AUTO 01004KT 6SM BR BKN110 00/M02 A2996 1040 85 -400 010/04 RMK AO2 TSNO
94908KDBQ DBQ20021105025013411/05/02 02:50:31  5-MIN KDBQ 050850Z AUTO 34006KT 6SM BR BKN110 M01/M02 A2996 1040 88 -500 340/06 RMK AO2 SLP156 T10061022 55007 TSNO
94908KDBQ DBQ20021105025513411/05/02 02:55:31  5-MIN KDBQ 050855Z AUTO 32004KT 6SM BR OVC110 M01/M02 A2996 1040 88 -500 320/04 RMK AO2 SLP156 T10061022 58019 TSNO
94908KDBQ DBQ20021105030011111/05/02 03:00:31  5-MIN KDBQ 050900Z AUTO 33005KT 5SM BR BKN110 M01/M02 A2996 1040 88 -500 330/05 RMK AO2 TSNO
94908KDBQ DBQ20021105030511111/05/02 03:05:31  5-MIN KDBQ 050905Z AUTO 31003KT 5SM BR BKN110 M01/M02 A2997 1030 92 -600 310/03 RMK AO2 TSNO
94908KDBQ DBQ20021105031011111/05/02 03:10:31  5-MIN KDBQ 050910Z AUTO 32003KT 5SM BR BKN110 M01/M02 A2996 1040 92 -600 320/03 RMK AO2 TSNO
94908KDBQ DBQ20021105031511111/05/02 03:15:31  5-MIN KDBQ 050915Z AUTO 00000KT 5SM BR BKN110 M01/M02 A2996 1050 92 -600 000/00 RMK AO2 TSNO
94908KDBQ DBQ20021105032011811/05/02 03:20:31  5-MIN KDBQ 050920Z AUTO 09004KT 5SM BR BKN100 M01/M02 A2994 1060 88 -500 090/04 RMK AO2 PRESFR TSNO
94908KDBQ DBQ20021105032511111/05/02 03:25:31  5-MIN KDBQ 050925Z AUTO 11006KT 5SM BR BKN100 M01/M02 A2994 1060 88 -500 110/06 RMK AO2 TSNO
94908KDBQ DBQ20021105033011111/05/02 03:30:31  5-MIN KDBQ 050930Z AUTO 11004KT 5SM BR BKN100 M01/M02 A2994 1060 88 -500 100/04 RMK AO2 TSNO
94908KDBQ DBQ20021105033511111/05/02 03:35:31  5-MIN KDBQ 050935Z AUTO 00000KT 5SM BR BKN100 M01/M02 A2994 1060 88 -500 000/00 RMK AO2 TSNO
94908KDBQ DBQ20021105034011011/05/02 03:40:31  5-MIN KDBQ 050940Z AUTO 10003KT 5SM BR BKN100 00/M02 A2994 1060 85 -400 100/03 RMK AO2 TSNO
94908KDBQ DBQ20021105034511011/05/02 03:45:31  5-MIN KDBQ 050945Z AUTO 10004KT 5SM BR BKN095 00/M02 A2993 1070 85 -400 100/04 RMK AO2 TSNO
94908KDBQ DBQ20021105035012711/05/02 03:50:31  5-MIN KDBQ 050950Z AUTO 08004KT 5SM BR BKN090 00/M02 A2993 1070 85 -400 080/04 RMK AO2 SLP145 T00001022 TSNO
94908KDBQ DBQ20021105035512711/05/02 03:55:31  5-MIN KDBQ 050955Z AUTO 05003KT 6SM BR BKN090 00/M02 A2993 1070 85 -400 050/03 RMK AO2 SLP146 T00001022 TSNO
94908KDBQ DBQ20021105040011711/05/02 04:00:31  5-MIN KDBQ 051000Z AUTO 00000KT 5SM BR FEW025 BKN090 00/M02 A2993 1070 88 -400 000/00 RMK AO2 TSNO
94908KDBQ DBQ20021105040511711/05/02 04:05:31  5-MIN KDBQ 051005Z AUTO 00000KT 5SM BR SCT025 BKN090 00/M02 A2993 1070 85 -400 000/00 RMK AO2 TSNO
94908KDBQ DBQ20021105041011811/05/02 04:10:31  5-MIN KDBQ 051010Z AUTO 11004KT 5SM BR SCT025 OVC085 M01/M02 A2992 1070 88 -500 110/04 RMK AO2 TSNO
94908KDBQ DBQ20021105041511711/05/02 04:15:31  5-MIN KDBQ 051015Z AUTO 10006KT 5SM BR FEW025 OVC080 00/M02 A2991 1080 88 -400 100/06 RMK AO2 TSNO
94908KDBQ DBQ20021105042012411/05/02 04:20:31  5-MIN KDBQ 051020Z AUTO 10005KT 5SM BR FEW025 OVC075 00/M02 A2991 1090 88 -400 090/05 RMK AO2 PRESFR TSNO
94908KDBQ DBQ20021105042511711/05/02 04:25:31  5-MIN KDBQ 051025Z AUTO 09005KT 5SM BR FEW025 OVC070 00/M02 A2990 1100 88 -400 090/05 RMK AO2 TSNO
94908KDBQ DBQ20021105043011711/05/02 04:30:31  5-MIN KDBQ 051030Z AUTO 10004KT 5SM BR FEW025 BKN075 00/M02 A2991 1090 88 -400 100/04 RMK AO2 TSNO
94908KDBQ DBQ20021105043511711/05/02 04:35:31  5-MIN KDBQ 051035Z AUTO 10003KT 5SM BR BKN075 BKN090 00/M02 A2991 1090 88 -400 100/03 RMK AO2 TSNO
94908KDBQ DBQ20021105044011711/05/02 04:40:31  5-MIN KDBQ 051040Z AUTO 11004KT 5SM BR BKN075 BKN095 00/M02 A2991 1090 85 -400 110/04 RMK AO2 TSNO
94908KDBQ DBQ20021105044512411/05/02 04:45:31  5-MIN KDBQ 051045Z AUTO 00000KT 5SM BR FEW025 SCT070 BKN095 00/M02 A2991 1090 85 -400 000/00 RMK AO2 TSNO
94908KDBQ DBQ20021105045014111/05/02 04:50:31  5-MIN KDBQ 051050Z AUTO 10003KT 5SM BR FEW025 SCT075 BKN090 00/M02 A2991 1090 88 -400 100/03 RMK AO2 SLP138 T00001017 TSNO
94908KDBQ DBQ20021105045512711/05/02 04:55:31  5-MIN KDBQ 051055Z AUTO 10003KT 5SM BR BKN090 00/M02 A2991 1090 88 -400 100/03 RMK AO2 SLP139 T00001017 TSNO
94908KDBQ DBQ20021105050011011/05/02 05:00:31  5-MIN KDBQ 051100Z AUTO 10004KT 5SM BR BKN090 00/M02 A2990 1100 88 -400 100/04 RMK AO2 TSNO
94908KDBQ DBQ20021105050511011/05/02 05:05:31  5-MIN KDBQ 051105Z AUTO 11004KT 5SM BR OVC090 00/M02 A2990 1090 88 -400 110/04 RMK AO2 TSNO
94908KDBQ DBQ20021105051011011/05/02 05:10:31  5-MIN KDBQ 051110Z AUTO 12005KT 5SM BR OVC085 00/M02 A2991 1090 88 -400 120/05 RMK AO2 TSNO
94908KDBQ DBQ20021105051511711/05/02 05:15:31  5-MIN KDBQ 051115Z AUTO 10003KT 5SM BR BKN080 OVC090 00/M02 A2990 1090 88 -400 100/03 RMK AO2 TSNO
94908KDBQ DBQ20021105052011711/05/02 05:20:31  5-MIN KDBQ 051120Z AUTO 10004KT 5SM BR BKN080 OVC090 00/M02 A2990 1100 88 -400 100/04 RMK AO2 TSNO
94908KDBQ DBQ20021105052511011/05/02 05:25:31  5-MIN KDBQ 051125Z AUTO 09004KT 5SM BR OVC080 00/M02 A2989 1110 88 -400 090/04 RMK AO2 TSNO
94908KDBQ DBQ20021105053011011/05/02 05:30:31  5-MIN KDBQ 051130Z AUTO 10005KT 5SM BR OVC075 00/M02 A2989 1110 88 -400 100/05 RMK AO2 TSNO
94908KDBQ DBQ20021105053511711/05/02 05:35:31  5-MIN KDBQ 051135Z AUTO 08004KT 5SM BR BKN075 OVC085 00/M02 A2988 1110 88 -400 080/04 RMK AO2 TSNO
94908KDBQ DBQ20021105054011711/05/02 05:40:31  5-MIN KDBQ 051140Z AUTO 09004KT 5SM BR BKN070 OVC085 01/M02 A2988 1120 85 -300 090/04 RMK AO2 TSNO
94908KDBQ DBQ20021105054511011/05/02 05:45:31  5-MIN KDBQ 051145Z AUTO 05004KT 5SM BR OVC070 00/M02 A2988 1120 88 -300 050/04 RMK AO2 TSNO
94908KDBQ DBQ20021105055014511/05/02 05:50:31  5-MIN KDBQ 051150Z AUTO 04003KT 5SM BR OVC070 00/M01 A2987 1120 92 -300 040/03 RMK AO2 SLP129 T00001011 10006 21011 58019 TSNO
94908KDBQ DBQ20021105055513511/05/02 05:55:31  5-MIN KDBQ 051155Z 04003KT 5SM BR OVC070 00/M02 A2987 1120 88 -300 040/03 RMK AO2 SLP129 T00001017 10006 21011 58028
94908KDBQ DBQ20021105060010011/05/02 06:00:31  5-MIN KDBQ 051200Z 08003KT 5SM BR OVC065 00/M02 A2987 1120 88 -300 080/03 RMK AO2
94908KDBQ DBQ20021105060510011/05/02 06:05:31  5-MIN KDBQ 051205Z 10003KT 5SM BR BKN065 00/M02 A2987 1120 88 -300 100/03 RMK AO2
94908KDBQ DBQ20021105061010711/05/02 06:10:31  5-MIN KDBQ 051210Z 00000KT 5SM BR BKN065 BKN080 00/M02 A2987 1120 88 -300 000/00 RMK AO2
94908KDBQ DBQ20021105061510711/05/02 06:15:31  5-MIN KDBQ 051215Z 13003KT 5SM BR SCT070 BKN085 00/M02 A2988 1120 88 -400 130/03 RMK AO2
94908KDBQ DBQ20021105062011411/05/02 06:20:31  5-MIN KDBQ 051220Z 12003KT 5SM BR FEW029 SCT065 BKN085 00/M02 A2988 1120 88 -400 120/03 RMK AO2
94908KDBQ DBQ20021105062511411/05/02 06:25:31  5-MIN KDBQ 051225Z 00000KT 5SM BR FEW029 SCT060 BKN090 00/M02 A2987 1120 88 -300 000/00 RMK AO2
94908KDBQ DBQ20021105063010711/05/02 06:30:31  5-MIN KDBQ 051230Z 09005KT 5SM BR FEW029 BKN090 01/M02 A2986 1140 85 -300 090/05 RMK AO2
94908KDBQ DBQ20021105063511411/05/02 06:35:31  5-MIN KDBQ 051235Z 09005KT 5SM BR FEW029 BKN090 OVC110 00/M01 A2986 1140 92 -300 090/05 RMK AO2
94908KDBQ DBQ20021105064011411/05/02 06:40:31  5-MIN KDBQ 051240Z 09005KT 5SM BR FEW029 BKN090 OVC110 01/M01 A2985 1140 89 -300 090/05 RMK AO2
94908KDBQ DBQ20021105064510711/05/02 06:45:31  5-MIN KDBQ 051245Z 10003KT 5SM BR FEW029 BKN100 01/M01 A2986 1140 89 -300 090/03 RMK AO2
94908KDBQ DBQ20021105065012411/05/02 06:50:31  5-MIN KDBQ 051250Z 09003KT 4SM BR FEW075 OVC095 01/M01 A2986 1140 89 -300 090/03 RMK AO2 SLP123 T00061011
94908KDBQ DBQ20021105065512411/05/02 06:55:31  5-MIN KDBQ 051255Z 09004KT 4SM BR SCT080 OVC100 01/M01 A2985 1140 89 -200 080/04 RMK AO2 SLP121 T00061011
94908KDBQ DBQ20021105070011411/05/02 07:00:31  5-MIN KDBQ 051300Z 10004KT 3SM BR FEW055 BKN090 OVC110 01/M01 A2985 1140 89 -200 100/04 RMK AO2
94908KDBQ DBQ20021105070511411/05/02 07:05:31  5-MIN KDBQ 051305Z 11003KT 3SM BR SCT055 BKN090 OVC110 01/M01 A2985 1140 89 -300 110/03 RMK AO2
94908KDBQ DBQ20021105071010711/05/02 07:10:31  5-MIN KDBQ 051310Z 11003KT 3SM BR FEW055 OVC085 01/M01 A2986 1140 89 -300 110/03 RMK AO2
94908KDBQ DBQ20021105071510711/05/02 07:15:31  5-MIN KDBQ 051315Z 11004KT 3SM BR FEW055 BKN085 01/M01 A2986 1130 89 -300 110/04 RMK AO2
94908KDBQ DBQ20021105072010711/05/02 07:20:31  5-MIN KDBQ 051320Z 13004KT 3SM BR FEW050 BKN085 01/M01 A2986 1130 89 -300 130/04 RMK AO2
94908KDBQ DBQ20021105072510711/05/02 07:25:31  5-MIN KDBQ 051325Z 13004KT 3SM BR FEW050 OVC085 01/M01 A2986 1130 89 -300 130/04 RMK AO2
94908KDBQ DBQ20021105073010011/05/02 07:30:31  5-MIN KDBQ 051330Z 12006KT 3SM BR OVC080 01/M01 A2986 1140 89 -300 120/06 RMK AO2
94908KDBQ DBQ20021105073510011/05/02 07:35:31  5-MIN KDBQ 051335Z 11004KT 3SM BR OVC080 01/M01 A2985 1150 89 -200 110/04 RMK AO2
94908KDBQ DBQ20021105074010011/05/02 07:40:31  5-MIN KDBQ 051340Z 11005KT 3SM BR OVC080 01/M01 A2985 1150 89 -200 110/05 RMK AO2
94908KDBQ DBQ20021105074510011/05/02 07:45:31  5-MIN KDBQ 051345Z 12004KT 3SM BR OVC080 01/M01 A2985 1150 89 -200 120/04 RMK AO2
94908KDBQ DBQ20021105075012111/05/02 07:50:31  5-MIN KDBQ 051350Z 11004KT 2 1/2SM BR OVC080 01/M01 A2984 1150 92 -200 110/04 RMK AO2 SLP119 T00061006
94908KDBQ DBQ20021105075511711/05/02 07:55:31  5-MIN KDBQ 051355Z 11004KT 3SM BR OVC080 01/M01 A2985 1150 92 -200 110/04 RMK AO2 SLP120 T00061006
94908KDBQ DBQ20021105080010011/05/02 08:00:31  5-MIN KDBQ 051400Z 12004KT 3SM BR OVC080 01/M01 A2985 1140 92 -200 120/04 RMK AO2
94908KDBQ DBQ20021105080510011/05/02 08:05:31  5-MIN KDBQ 051405Z 00000KT 3SM BR OVC080 01/M01 A2985 1140 92 -300 000/00 RMK AO2
94908KDBQ DBQ20021105081010011/05/02 08:10:31  5-MIN KDBQ 051410Z 13003KT 3SM BR OVC080 01/M01 A2985 1140 92 -200 130/03 RMK AO2
94908KDBQ DBQ20021105081510011/05/02 08:15:31  5-MIN KDBQ 051415Z 00000KT 3SM BR OVC080 01/M01 A2986 1140 92 -300 000/00 RMK AO2
94908KDBQ DBQ20021105082010011/05/02 08:20:31  5-MIN KDBQ 051420Z 17003KT 3SM BR OVC080 01/M01 A2985 1140 92 -300 170/03 RMK AO2
94908KDBQ DBQ20021105082510011/05/02 08:25:31  5-MIN KDBQ 051425Z 00000KT 3SM BR OVC080 01/M01 A2985 1150 92 -200 000/00 RMK AO2
94908KDBQ DBQ20021105083010711/05/02 08:30:31  5-MIN KDBQ 051430Z 12003KT 3SM BR FEW047 OVC080 01/M01 A2984 1150 92 -200 120/03 RMK AO2
94908KDBQ DBQ20021105083511411/05/02 08:35:31  5-MIN KDBQ 051435Z 00000KT 3SM BR SCT045 OVC080 01/M01 A2983 1160 92 -200 000/00 RMK AO2 PRESFR
94908KDBQ DBQ20021105084013311/05/02 08:40:31  5-MIN KDBQ 051440Z 12003KT 2 1/2SM UP BR BKN043 OVC080 01/M01 A2983 1160 92 -200 120/03 RMK AO2 UPB39 PRESFR P0000
94908KDBQ DBQ20021105084513111/05/02 08:45:31  5-MIN KDBQ 051445Z 14003KT 2SM -SN BR BKN043 OVC080 01/M01 A2983 1160 92 -200 140/03 RMK AO2 UPB39E42SNB42 P0000
94908KDBQ DBQ20021105085016011/05/02 08:50:31  5-MIN KDBQ 051450Z 10003KT 2SM -SN BR BKN041 OVC080 01/M01 A2983 1170 92 -200 100/03 RMK AO2 UPB39E42SNB42 SLP112 P0000 60000 T00061006 58028
94908KDBQ DBQ20021105085515811/05/02 08:55:31  5-MIN KDBQ 051455Z 12004KT 2SM UP BR BKN039 OVC046 01/00 A2983 1170 92 -200 120/04 RMK AO2 UPB39SNB42E55 SLP112 P0000 60000 T00110000 56016
94908KDBQ DBQ20021105090011311/05/02 09:00:31  5-MIN KDBQ 051500Z 12004KT 2SM BR OVC041 01/00 A2982 1170 92 -100 120/04 RMK AO2 UPE1457 P0000
94908KDBQ DBQ20021105090511311/05/02 09:05:31  5-MIN KDBQ 051505Z 12006KT 2SM BR OVC041 01/00 A2982 1170 92 -200 120/06 RMK AO2 UPE1457 P0000
94908KDBQ DBQ20021105091011311/05/02 09:10:31  5-MIN KDBQ 051510Z 12005KT 2SM BR OVC041 01/00 A2982 1170 92 -100 110/05 RMK AO2 UPE1457 P0000
94908KDBQ DBQ20021105091511311/05/02 09:15:31  5-MIN KDBQ 051515Z 12004KT 2SM BR OVC041 01/00 A2982 1170 92 -100 110/04 RMK AO2 UPE1457 P0000
94908KDBQ DBQ20021105092011311/05/02 09:20:31  5-MIN KDBQ 051520Z 10005KT 2SM BR OVC041 01/01 A2982 1170 96 -100 100/05 RMK AO2 UPE1457 P0000
94908KDBQ DBQ20021105092511311/05/02 09:25:31  5-MIN KDBQ 051525Z 10005KT 2SM BR OVC041 01/01 A2981 1180 96 -100 100/05 RMK AO2 UPE1457 P0000
94908KDBQ DBQ20021105093011311/05/02 09:30:31  5-MIN KDBQ 051530Z 10005KT 2SM BR OVC039 01/01 A2981 1180 96 -100 100/05 RMK AO2 UPE1457 P0000
94908KDBQ DBQ20021105093511911/05/02 09:35:31  5-MIN KDBQ 051535Z 09005KT 2SM UP BR OVC039 02/01 A2981 1180 92 -100 090/05 RMK AO2 UPE1457B32 P0000
94908KDBQ DBQ20021105094011911/05/02 09:40:31  5-MIN KDBQ 051540Z 08004KT 2SM UP BR OVC039 02/01 A2980 1190 92 -100 080/04 RMK AO2 UPE1457B32 P0000
94908KDBQ DBQ20021105094511911/05/02 09:45:31  5-MIN KDBQ 051545Z 07004KT 2SM BR BKN039 02/01 A2980 1190 92 -100 060/04 RMK AO2 UPE1457B32E45 P0000
94908KDBQ DBQ20021105095014311/05/02 09:50:31  5-MIN KDBQ 051550Z 05003KT 2SM BR FEW006 BKN039 02/01 A2981 1180 96 -100 050/03 RMK AO2 UPE1457B32E45 SLP104 P0000 T00170011
94908KDBQ DBQ20021105095514311/05/02 09:55:31  5-MIN KDBQ 051555Z 02004KT 2SM BR BKN006 BKN039 02/01 A2981 1180 92 -100 020/04 RMK AO2 UPE1457B32E45 SLP105 P0000 T00170006
94908KDBQ DBQ20021105100010611/05/02 10:00:31  5-MIN KDBQ 051600Z 00000KT 2SM BR BKN006 BKN039 02/01 A2981 1180 92 -100 000/00 RMK AO2
94908KDBQ DBQ20021105100510311/05/02 10:05:31  5-MIN KDBQ 051605Z 00000KT 2SM BR BKN006 BKN039 02/01 A2981 1180 89 0 000/00 RMK AO2
94908KDBQ DBQ20021105101009611/05/02 10:10:31  5-MIN KDBQ 051610Z 00000KT 2SM BR BKN006 02/01 A2981 1180 92 0 000/00 RMK AO2
94908KDBQ DBQ20021105101509911/05/02 10:15:31  5-MIN KDBQ 051615Z 00000KT 2SM BR OVC006 02/01 A2981 1180 92 -100 000/00 RMK AO2
94908KDBQ DBQ20021105102009611/05/02 10:20:31  5-MIN KDBQ 051620Z 00000KT 2SM BR OVC006 02/01 A2981 1180 89 0 000/00 RMK AO2
94908KDBQ DBQ20021105102509611/05/02 10:25:31  5-MIN KDBQ 051625Z 00000KT 2SM BR OVC006 02/01 A2980 1190 92 0 000/00 RMK AO2
94908KDBQ DBQ20021105103009611/05/02 10:30:31  5-MIN KDBQ 051630Z 12003KT 2SM BR OVC006 02/01 A2980 1190 92 0 120/03 RMK AO2
94908KDBQ DBQ20021105103509611/05/02 10:35:31  5-MIN KDBQ 051635Z 11003KT 2SM BR OVC006 02/01 A2980 1190 92 0 110/03 RMK AO2
94908KDBQ DBQ20021105104010011/05/02 10:40:31  5-MIN KDBQ 051640Z 10003KT 1 3/4SM BR OVC006 02/01 A2980 1190 92 0 100/03 RMK AO2
94908KDBQ DBQ20021105104510011/05/02 10:45:31  5-MIN KDBQ 051645Z 11003KT 1 3/4SM BR OVC006 02/01 A2980 1190 92 0 110/03 RMK AO2
94908KDBQ DBQ20021105105011711/05/02 10:50:31  5-MIN KDBQ 051650Z 13003KT 1 3/4SM BR OVC006 02/01 A2980 1190 92 0 130/03 RMK AO2 SLP100 T00220011
94908KDBQ DBQ20021105105511711/05/02 10:55:31  5-MIN KDBQ 051655Z 13003KT 1 3/4SM BR OVC006 02/01 A2980 1190 92 0 120/03 RMK AO2 SLP100 T00220011
94908KDBQ DBQ20021105110011711/05/02 11:00:31  5-MIN KDBQ 051700Z 00000KT 1 3/4SM UP BR OVC006 02/01 A2979 1200 92 0 000/00 RMK AO2 UPB1659 P0000
94908KDBQ DBQ20021105110511711/05/02 11:05:31  5-MIN KDBQ 051705Z 00000KT 1 3/4SM UP BR OVC006 02/01 A2979 1200 92 0 000/00 RMK AO2 UPB1659 P0000
94908KDBQ DBQ20021105111011711/05/02 11:10:31  5-MIN KDBQ 051710Z 00000KT 1 3/4SM UP BR OVC006 02/01 A2979 1200 92 0 000/00 RMK AO2 UPB1659 P0000
94908KDBQ DBQ20021105111511711/05/02 11:15:31  5-MIN KDBQ 051715Z 00000KT 1 3/4SM UP BR OVC006 02/01 A2979 1200 92 0 000/00 RMK AO2 UPB1659 P0000
94908KDBQ DBQ20021105112011711/05/02 11:20:31  5-MIN KDBQ 051720Z 00000KT 1 3/4SM UP BR OVC006 02/01 A2979 1200 92 0 000/00 RMK AO2 UPB1659 P0000
94908KDBQ DBQ20021105112511711/05/02 11:25:31  5-MIN KDBQ 051725Z 00000KT 1 3/4SM UP BR OVC006 02/01 A2978 1200 92 0 000/00 RMK AO2 UPB1659 P0000
94908KDBQ DBQ20021105113011711/05/02 11:30:31  5-MIN KDBQ 051730Z 00000KT 1 3/4SM UP BR OVC006 02/01 A2978 1210 92 0 000/00 RMK AO2 UPB1659 P0000
94908KDBQ DBQ20021105113511711/05/02 11:35:31  5-MIN KDBQ 051735Z 00000KT 1 3/4SM UP BR OVC006 02/02 A2978 1210 96 0 000/00 RMK AO2 UPB1659 P0000
94908KDBQ DBQ20021105114011911/05/02 11:40:31  5-MIN KDBQ 051740Z 00000KT 1 3/4SM BR OVC006 03/01 A2978 1210 89 100 000/00 RMK AO2 UPB1659E40 P0000
94908KDBQ DBQ20021105114511711/05/02 11:45:31  5-MIN KDBQ 051745Z 00000KT 1 3/4SM BR OVC006 02/02 A2977 1220 96 0 000/00 RMK AO2 UPB1659E40 P0000
94908KDBQ DBQ20021105115016011/05/02 11:50:31  5-MIN KDBQ 051750Z 00000KT 1 3/4SM BR OVC006 03/02 A2977 1220 92 100 000/00 RMK AO2 UPB1659E40 SLP090 P0000 60000 T00280017 10028 20000 56016
94908KDBQ DBQ20021105115516011/05/02 11:55:31  5-MIN KDBQ 051755Z 00000KT 1 3/4SM UP BR OVC006 03/01 A2977 1220 89 100 000/00 RMK AO2 UPB1659 SLP090 P0000 60000 T00280011 10028 20000 58020
94908KDBQ DBQ20021105120011111/05/02 12:00:31  5-MIN KDBQ 051800Z 00000KT 1 3/4SM UP BR OVC006 03/02 A2976 1220 92 100 000/00 RMK AO2 P0000
94908KDBQ DBQ20021105120511111/05/02 12:05:31  5-MIN KDBQ 051805Z 00000KT 1 3/4SM UP BR OVC006 03/02 A2976 1230 92 100 000/00 RMK AO2 P0000
94908KDBQ DBQ20021105121011111/05/02 12:10:31  5-MIN KDBQ 051810Z 00000KT 1 3/4SM UP BR OVC006 03/02 A2976 1230 92 100 000/00 RMK AO2 P0000
94908KDBQ DBQ20021105121511411/05/02 12:15:31  5-MIN KDBQ 051815Z 00000KT 1 3/4SM BR OVC006 03/02 A2976 1230 92 100 000/00 RMK AO2 UPE11 P0000
94908KDBQ DBQ20021105122011411/05/02 12:20:31  5-MIN KDBQ 051820Z 00000KT 1 3/4SM BR OVC006 03/02 A2976 1230 92 100 000/00 RMK AO2 UPE11 P0000
94908KDBQ DBQ20021105122511411/05/02 12:25:31  5-MIN KDBQ 051825Z 00000KT 1 3/4SM BR OVC006 03/02 A2975 1230 92 100 000/00 RMK AO2 UPE11 P0000
94908KDBQ DBQ20021105123011411/05/02 12:30:31  5-MIN KDBQ 051830Z 05003KT 1 3/4SM BR OVC006 03/02 A2975 1240 92 100 050/03 RMK AO2 UPE11 P0000
94908KDBQ DBQ20021105123511011/05/02 12:35:31  5-MIN KDBQ 051835Z 04003KT 2SM BR OVC006 03/02 A2975 1240 92 100 030/03 RMK AO2 UPE11 P0000
94908KDBQ DBQ20021105124011011/05/02 12:40:31  5-MIN KDBQ 051840Z 04003KT 2SM BR OVC006 03/02 A2974 1240 92 100 040/03 RMK AO2 UPE11 P0000
94908KDBQ DBQ20021105124511011/05/02 12:45:31  5-MIN KDBQ 051845Z 03004KT 2SM BR OVC006 03/02 A2974 1240 92 100 030/04 RMK AO2 UPE11 P0000
94908KDBQ DBQ20021105125014511/05/02 12:50:31  5-MIN KDBQ 051850Z 03004KT 2SM UP BR OVC006 03/02 A2974 1250 92 100 030/04 RMK AO2 UPE11B48 CIG 005V010 SLP080 P0000 T00280017
94908KDBQ DBQ20021105125514511/05/02 12:55:31  5-MIN KDBQ 051855Z 04004KT 2SM UP BR OVC006 03/02 A2974 1250 92 100 040/04 RMK AO2 UPE11B48 CIG 005V010 SLP080 P0000 T00280017
94908KDBQ DBQ20021105130011911/05/02 13:00:31  5-MIN KDBQ 051900Z 05003KT 2SM UP BR OVC006 03/02 A2973 1250 92 100 050/03 RMK AO2 CIG 005V010 P0000
94908KDBQ DBQ20021105130510711/05/02 13:05:31  5-MIN KDBQ 051905Z 02004KT 2SM UP BR OVC006 03/02 A2973 1250 92 100 020/04 RMK AO2 P0000
94908KDBQ DBQ20021105131011911/05/02 13:10:31  5-MIN KDBQ 051910Z 02004KT 2SM UP BR OVC008 03/02 A2973 1250 92 100 020/04 RMK AO2 CIG 006V011 P0000
94908KDBQ DBQ20021105131512211/05/02 13:15:31  5-MIN KDBQ 051915Z 02003KT 2SM BR OVC008 03/02 A2973 1250 92 100 020/03 RMK AO2 UPE14 CIG 006V012 P0000
94908KDBQ DBQ20021105132012211/05/02 13:20:31  5-MIN KDBQ 051920Z 02004KT 2SM BR OVC008 03/02 A2973 1250 92 100 020/04 RMK AO2 UPE14 CIG 006V012 P0000
94908KDBQ DBQ20021105132512211/05/02 13:25:31  5-MIN KDBQ 051925Z 01005KT 2SM BR OVC008 03/02 A2973 1260 92 100 010/05 RMK AO2 UPE14 CIG 006V012 P0000
94908KDBQ DBQ20021105133012111/05/02 13:30:31  5-MIN KDBQ 051930Z 36004KT 1 3/4SM BR BKN008 OVC011 03/02 A2973 1260 92 100 360/04 RMK AO2 UPE14 P0000
94908KDBQ DBQ20021105133511711/05/02 13:35:31  5-MIN KDBQ 051935Z 35003KT 2SM BR BKN008 OVC011 03/02 A2973 1260 92 100 350/03 RMK AO2 UPE14 P0000
94908KDBQ DBQ20021105134011711/05/02 13:40:31  5-MIN KDBQ 051940Z 03004KT 2SM BR BKN008 OVC011 03/02 A2972 1260 92 100 030/04 RMK AO2 UPE14 P0000
94908KDBQ DBQ20021105134512111/05/02 13:45:31  5-MIN KDBQ 051945Z 03004KT 1 3/4SM BR BKN008 OVC011 03/02 A2972 1260 92 100 030/04 RMK AO2 UPE14 P0000
94908KDBQ DBQ20021105135014311/05/02 13:50:31  5-MIN KDBQ 051950Z 04005KT 1 3/4SM BR OVC008 03/02 A2972 1260 92 100 030/05 RMK AO2 UPE14 CIG 006V013 SLP074 P0000 T00280017
94908KDBQ DBQ20021105135514311/05/02 13:55:31  5-MIN KDBQ 051955Z 03004KT 1 3/4SM BR OVC008 03/02 A2972 1270 92 100 030/04 RMK AO2 UPE14 CIG 006V013 SLP074 P0000 T00280017
94908KDBQ DBQ20021105140011411/05/02 14:00:31  5-MIN KDBQ 052000Z 03005KT 1 1/2SM BR OVC008 03/02 A2972 1260 92 100 030/05 RMK AO2 CIG 006V013
94908KDBQ DBQ20021105140511411/05/02 14:05:31  5-MIN KDBQ 052005Z 03004KT 1 1/2SM BR OVC008 03/02 A2972 1260 92 100 030/04 RMK AO2 CIG 006V013
94908KDBQ DBQ20021105141011411/05/02 14:10:31  5-MIN KDBQ 052010Z 02005KT 1 1/2SM BR OVC008 03/02 A2972 1270 92 100 020/05 RMK AO2 CIG 006V012
94908KDBQ DBQ20021105141511411/05/02 14:15:31  5-MIN KDBQ 052015Z 02004KT 1 1/2SM BR OVC008 03/02 A2972 1270 92 100 020/04 RMK AO2 CIG 006V012
94908KDBQ DBQ20021105142011411/05/02 14:20:31  5-MIN KDBQ 052020Z 02005KT 1 1/2SM BR OVC008 03/02 A2972 1270 96 100 020/05 RMK AO2 CIG 006V012
94908KDBQ DBQ20021105142511411/05/02 14:25:31  5-MIN KDBQ 052025Z 02004KT 1 1/2SM BR OVC008 03/02 A2972 1270 92 100 020/04 RMK AO2 CIG 006V012
94908KDBQ DBQ20021105143011411/05/02 14:30:31  5-MIN KDBQ 052030Z 02005KT 1 1/4SM BR OVC008 03/02 A2972 1270 92 100 020/05 RMK AO2 CIG 006V011
94908KDBQ DBQ20021105143511411/05/02 14:35:31  5-MIN KDBQ 052035Z 01005KT 1 1/4SM BR OVC008 03/02 A2972 1260 92 100 010/05 RMK AO2 CIG 006V011
94908KDBQ DBQ20021105144011411/05/02 14:40:31  5-MIN KDBQ 052040Z 33006KT 1 1/4SM BR OVC008 03/02 A2972 1260 92 100 330/06 RMK AO2 CIG 006V010
94908KDBQ DBQ20021105144511411/05/02 14:45:31  5-MIN KDBQ 052045Z 32006KT 1 1/4SM BR OVC006 03/02 A2972 1260 92 100 320/06 RMK AO2 CIG 006V010
94908KDBQ DBQ20021105145014311/05/02 14:50:31  5-MIN KDBQ 052050Z 33005KT 1 1/4SM BR OVC006 03/02 A2972 1260 92 100 330/05 RMK AO2 CIG 006V009 SLP076 60000 T00280017 58020
94908KDBQ DBQ20021105145513111/05/02 14:55:31  5-MIN KDBQ 052055Z 33005KT 1 1/4SM BR OVC006 03/02 A2973 1260 96 100 320/05 RMK AO2 SLP076 60000 T00280022 55013
94908KDBQ DBQ20021105150010211/05/02 15:00:31  5-MIN KDBQ 052100Z 33005KT 1 1/4SM BR OVC006 03/02 A2973 1260 92 100 330/05 RMK AO2
94908KDBQ DBQ20021105150510211/05/02 15:05:31  5-MIN KDBQ 052105Z 33006KT 1 1/4SM BR OVC006 03/02 A2973 1250 92 100 330/06 RMK AO2
94908KDBQ DBQ20021105151010211/05/02 15:10:31  5-MIN KDBQ 052110Z 33005KT 1 1/4SM BR OVC006 03/02 A2973 1250 92 100 330/05 RMK AO2
94908KDBQ DBQ20021105151510211/05/02 15:15:31  5-MIN KDBQ 052115Z 32005KT 1 1/2SM BR OVC006 03/02 A2974 1250 92 100 320/05 RMK AO2
94908KDBQ DBQ20021105152010211/05/02 15:20:31  5-MIN KDBQ 052120Z 32006KT 1 1/2SM BR OVC006 03/02 A2974 1250 92 100 320/06 RMK AO2
94908KDBQ DBQ20021105152511411/05/02 15:25:31  5-MIN KDBQ 052125Z 34006KT 1 1/2SM BR OVC006 03/02 A2974 1250 96 100 340/06 RMK AO2 CIG 005V009
94908KDBQ DBQ20021105153010211/05/02 15:30:31  5-MIN KDBQ 052130Z 35006KT 1 1/4SM BR OVC006 03/02 A2974 1250 96 100 350/06 RMK AO2
94908KDBQ DBQ20021105153511411/05/02 15:35:31  5-MIN KDBQ 052135Z 33007KT 1 1/4SM BR OVC006 03/02 A2974 1250 96 100 330/07 RMK AO2 CIG 005V009
94908KDBQ DBQ20021105154011011/05/02 15:40:31  5-MIN KDBQ 052140Z 34007KT 1SM BR OVC006 03/02 A2974 1250 96 100 340/07 RMK AO2 CIG 005V009
94908KDBQ DBQ20021105154511411/05/02 15:45:31  5-MIN KDBQ 052145Z 34007KT 1 1/4SM BR OVC006 03/02 A2974 1240 92 100 340/07 RMK AO2 CIG 005V008
94908KDBQ DBQ20021105155013111/05/02 15:50:31  5-MIN KDBQ 052150Z 34006KT 1 1/4SM BR OVC006 03/02 A2975 1240 92 100 340/06 RMK AO2 CIG 005V009 SLP083 T00280017
94908KDBQ DBQ20021105155513111/05/02 15:55:31  5-MIN KDBQ 052155Z 34006KT 1 1/4SM BR OVC006 03/02 A2975 1240 92 100 340/06 RMK AO2 CIG 005V011 SLP084 T00280017
94908KDBQ DBQ20021105160011411/05/02 16:00:31  5-MIN KDBQ 052200Z 33007KT 1 1/2SM BR OVC008 03/02 A2975 1230 92 100 330/07 RMK AO2 CIG 005V011
94908KDBQ DBQ20021105160510911/05/02 16:05:31  5-MIN KDBQ 052205Z 32008KT 1 1/2SM BR BKN006 OVC010 03/02 A2976 1230 92 100 320/08 RMK AO2
94908KDBQ DBQ20021105161011211/05/02 16:10:31  5-MIN KDBQ 052210Z 32009KT 1 3/4SM BR OVC006 02/02 A2976 1230 96 0 320/09 RMK AO2 CIG 005V009
94908KDBQ DBQ20021105161510811/05/02 16:15:31  5-MIN KDBQ 052215Z 33008KT 2SM BR OVC006 02/02 A2976 1230 96 0 330/08 RMK AO2 CIG 005V009
94908KDBQ DBQ20021105162010811/05/02 16:20:31  5-MIN KDBQ 052220Z 33008KT 2SM BR OVC006 02/02 A2976 1230 96 0 330/08 RMK AO2 CIG 005V009
94908KDBQ DBQ20021105162511211/05/02 16:25:31  5-MIN KDBQ 052225Z 33008KT 2 1/2SM BR OVC006 02/02 A2976 1230 96 0 330/08 RMK AO2 CIG 005V010
94908KDBQ DBQ20021105163010011/05/02 16:30:31  5-MIN KDBQ 052230Z 32006KT 2 1/2SM BR OVC006 02/01 A2976 1230 92 0 320/06 RMK AO2
94908KDBQ DBQ20021105163511211/05/02 16:35:31  5-MIN KDBQ 052235Z 31006KT 2 1/2SM BR OVC006 02/01 A2976 1230 92 0 310/06 RMK AO2 CIG 006V011
94908KDBQ DBQ20021105164012611/05/02 16:40:31  5-MIN KDBQ 052240Z 32005KT 2 1/2SM BR BKN006 BKN014 OVC020 02/02 A2976 1230 96 0 320/05 RMK AO2 CIG 006V011
94908KDBQ DBQ20021105164512611/05/02 16:45:31  5-MIN KDBQ 052245Z 32005KT 2 1/2SM BR BKN006 BKN014 OVC020 02/01 A2976 1230 92 0 320/05 RMK AO2 CIG 006V011
94908KDBQ DBQ20021105165013111/05/02 16:50:31  5-MIN KDBQ 052250Z 33005KT 2 1/2SM BR SCT006 SCT014 OVC020 02/01 A2976 1230 92 0 330/05 RMK AO2 SLP087 T00220011
94908KDBQ DBQ20021105165513111/05/02 16:55:31  5-MIN KDBQ 052255Z 33004KT 2 1/2SM BR FEW006 SCT014 OVC020 02/02 A2976 1230 96 0 330/04 RMK AO2 SLP087 T00220017
94908KDBQ DBQ20021105170011411/05/02 17:00:31  5-MIN KDBQ 052300Z 34004KT 2 1/2SM BR FEW008 BKN020 OVC026 02/01 A2975 1230 92 0 340/04 RMK AO2
94908KDBQ DBQ20021105170511011/05/02 17:05:31  5-MIN KDBQ 052305Z 33005KT 3SM BR FEW008 BKN020 OVC055 02/01 A2976 1230 92 0 330/05 RMK AO2
94908KDBQ DBQ20021105171011011/05/02 17:10:31  5-MIN KDBQ 052310Z 32005KT 3SM BR FEW008 BKN021 OVC055 02/01 A2976 1230 92 0 320/05 RMK AO2
94908KDBQ DBQ20021105171511011/05/02 17:15:31  5-MIN KDBQ 052315Z 32005KT 4SM BR SCT008 BKN021 OVC055 02/01 A2976 1230 92 0 320/05 RMK AO2
94908KDBQ DBQ20021105172011011/05/02 17:20:31  5-MIN KDBQ 052320Z 32005KT 4SM BR BKN008 BKN021 OVC055 02/02 A2976 1230 96 0 320/05 RMK AO2
94908KDBQ DBQ20021105172511011/05/02 17:25:31  5-MIN KDBQ 052325Z 32006KT 3SM BR BKN008 BKN026 OVC055 02/02 A2976 1230 96 0 320/06 RMK AO2
94908KDBQ DBQ20021105173010311/05/02 17:30:31  5-MIN KDBQ 052330Z 32006KT 3SM BR BKN006 OVC055 02/01 A2976 1230 92 0 320/06 RMK AO2
94908KDBQ DBQ20021105173509611/05/02 17:35:31  5-MIN KDBQ 052335Z 33007KT 3SM BR OVC006 02/01 A2976 1230 92 0 330/07 RMK AO2
94908KDBQ DBQ20021105174009611/05/02 17:40:31  5-MIN KDBQ 052340Z 32007KT 3SM BR OVC006 02/02 A2976 1230 96 0 320/07 RMK AO2
94908KDBQ DBQ20021105174509611/05/02 17:45:31  5-MIN KDBQ 052345Z 32008KT 3SM BR OVC006 02/02 A2976 1230 96 0 320/08 RMK AO2
94908KDBQ DBQ20021105175013711/05/02 17:50:31  5-MIN KDBQ 052350Z 33007KT 3SM BR OVC006 02/01 A2976 1230 92 0 330/07 RMK AO2 SLP088 60000 T00220011 10028 20022 55013
94908KDBQ DBQ20021105175513711/05/02 17:55:31  5-MIN KDBQ 052355Z 32008KT 3SM BR OVC006 02/01 A2976 1230 92 0 320/08 RMK AO2 SLP088 60000 T00220011 10028 20022 51012
94908KDBQ DBQ20021105180009611/05/02 18:00:31  5-MIN KDBQ 060000Z 32008KT 3SM BR OVC006 02/01 A2976 1220 96 0 320/08 RMK AO2
94908KDBQ DBQ20021105180510811/05/02 18:05:31  5-MIN KDBQ 060005Z 31007KT 4SM BR OVC006 02/01 A2976 1220 96 0 310/07 RMK AO2 CIG 005V009
94908KDBQ DBQ20021105181010811/05/02 18:10:31  5-MIN KDBQ 060010Z 30008KT 4SM BR OVC006 02/01 A2976 1220 92 0 300/08 RMK AO2 CIG 005V009
94908KDBQ DBQ20021105181509611/05/02 18:15:31  5-MIN KDBQ 060015Z 30007KT 5SM BR OVC006 02/01 A2977 1220 92 0 300/07 RMK AO2
94908KDBQ DBQ20021105182009611/05/02 18:20:31  5-MIN KDBQ 060020Z 31007KT 5SM BR OVC006 02/01 A2977 1220 92 0 310/07 RMK AO2
94908KDBQ DBQ20021105182509611/05/02 18:25:31  5-MIN KDBQ 060025Z 32011KT 5SM BR OVC006 02/01 A2977 1220 92 0 320/11 RMK AO2
94908KDBQ DBQ20021105183009611/05/02 18:30:31  5-MIN KDBQ 060030Z 30008KT 5SM BR OVC006 02/01 A2977 1220 92 0 300/08 RMK AO2
94908KDBQ DBQ20021105183509611/05/02 18:35:31  5-MIN KDBQ 060035Z 30010KT 5SM BR OVC006 02/01 A2977 1220 92 0 300/10 RMK AO2
94908KDBQ DBQ20021105184009611/05/02 18:40:31  5-MIN KDBQ 060040Z 31008KT 5SM BR OVC008 02/01 A2977 1220 92 0 310/08 RMK AO2
94908KDBQ DBQ20021105184509611/05/02 18:45:31  5-MIN KDBQ 060045Z 31008KT 5SM BR OVC008 02/01 A2977 1220 92 0 310/08 RMK AO2
94908KDBQ DBQ20021105185011311/05/02 18:50:31  5-MIN KDBQ 060050Z 32007KT 5SM BR OVC008 02/01 A2977 1210 92 0 320/07 RMK AO2 SLP092 T00170006
94908KDBQ DBQ20021105185511311/05/02 18:55:31  5-MIN KDBQ 060055Z 32009KT 4SM BR OVC008 02/01 A2978 1210 92 0 320/09 RMK AO2 SLP094 T00170006
94908KDBQ DBQ20021105190009611/05/02 19:00:31  5-MIN KDBQ 060100Z 32008KT 4SM BR OVC008 02/01 A2978 1210 92 0 320/08 RMK AO2
94908KDBQ DBQ20021105190509611/05/02 19:05:31  5-MIN KDBQ 060105Z 32009KT 4SM BR OVC008 02/01 A2979 1200 92 0 320/09 RMK AO2
94908KDBQ DBQ20021105191009611/05/02 19:10:31  5-MIN KDBQ 060110Z 32008KT 4SM BR OVC008 02/01 A2979 1200 92 0 320/08 RMK AO2
94908KDBQ DBQ20021105191509611/05/02 19:15:31  5-MIN KDBQ 060115Z 31010KT 4SM BR OVC008 02/01 A2979 1200 92 0 310/10 RMK AO2
94908KDBQ DBQ20021105192009611/05/02 19:20:31  5-MIN KDBQ 060120Z 32009KT 4SM BR OVC008 02/01 A2979 1200 92 0 320/09 RMK AO2
94908KDBQ DBQ20021105192509611/05/02 19:25:31  5-MIN KDBQ 060125Z 32007KT 4SM BR OVC010 02/00 A2979 1200 89 0 320/07 RMK AO2
94908KDBQ DBQ20021105193009911/05/02 19:30:31  5-MIN KDBQ 060130Z 32009KT 4SM BR OVC010 01/00 A2979 1200 92 -100 320/09 RMK AO2
94908KDBQ DBQ20021105193509611/05/02 19:35:31  5-MIN KDBQ 060135Z 32010KT 4SM BR OVC010 02/00 A2979 1200 89 0 320/10 RMK AO2
94908KDBQ DBQ20021105194009911/05/02 19:40:31  5-MIN KDBQ 060140Z 31010KT 4SM BR OVC010 01/00 A2979 1200 92 -100 310/10 RMK AO2
94908KDBQ DBQ20021105194509911/05/02 19:45:31  5-MIN KDBQ 060145Z 33011KT 4SM BR OVC010 01/01 A2980 1190 96 -100 330/11 RMK AO2
94908KDBQ DBQ20021105195011311/05/02 19:50:31  5-MIN KDBQ 060150Z 32011KT 4SM BR OVC010 02/00 A2980 1190 89 0 320/11 RMK AO2 SLP100 T00170000
94908KDBQ DBQ20021105195511611/05/02 19:55:31  5-MIN KDBQ 060155Z 32010KT 4SM BR OVC010 02/00 A2980 1190 89 -100 320/10 RMK AO2 SLP101 T00170000
94908KDBQ DBQ20021105200012111/05/02 20:00:31  5-MIN KDBQ 060200Z AUTO 32010KT 4SM BR OVC010 01/00 A2980 1190 92 -100 320/10 RMK AO2 CIG 008V013 TSNO
94908KDBQ DBQ20021105200512111/05/02 20:05:31  5-MIN KDBQ 060205Z AUTO 33008KT 4SM BR OVC010 01/00 A2980 1190 92 -100 330/08 RMK AO2 CIG 008V013 TSNO
94908KDBQ DBQ20021105201010911/05/02 20:10:31  5-MIN KDBQ 060210Z AUTO 33009KT 4SM BR BKN008 01/00 A2980 1190 92 -100 330/09 RMK AO2 TSNO
94908KDBQ DBQ20021105201511011/05/02 20:15:31  5-MIN KDBQ 060215Z AUTO 33008KT 4SM BR BKN008 01/M01 A2980 1190 92 -200 330/08 RMK AO2 TSNO
94908KDBQ DBQ20021105202011011/05/02 20:20:31  5-MIN KDBQ 060220Z AUTO 33008KT 4SM BR SCT008 01/M01 A2980 1190 92 -200 330/08 RMK AO2 TSNO
94908KDBQ DBQ20021105202511011/05/02 20:25:31  5-MIN KDBQ 060225Z AUTO 33008KT 4SM BR SCT008 00/M01 A2980 1190 96 -300 330/08 RMK AO2 TSNO
94908KDBQ DBQ20021105203011711/05/02 20:30:31  5-MIN KDBQ 060230Z AUTO 33008KT 4SM BR SCT008 SCT027 01/M01 A2981 1180 92 -200 330/08 RMK AO2 TSNO
94908KDBQ DBQ20021105203511611/05/02 20:35:31  5-MIN KDBQ 060235Z AUTO 34006KT 4SM BR SCT008 BKN027 01/00 A2980 1190 96 -200 330/06 RMK AO2 TSNO
94908KDBQ DBQ20021105204011611/05/02 20:40:31  5-MIN KDBQ 060240Z AUTO 33007KT 4SM BR BKN008 BKN027 01/00 A2980 1190 92 -100 320/07 RMK AO2 TSNO
94908KDBQ DBQ20021105204511611/05/02 20:45:31  5-MIN KDBQ 060245Z AUTO 33007KT 4SM BR BKN008 BKN027 01/01 A2980 1190 96 -100 330/07 RMK AO2 TSNO
94908KDBQ DBQ20021105205013911/05/02 20:50:31  5-MIN KDBQ 060250Z AUTO 33009KT 4SM BR BKN008 OVC027 01/01 A2981 1190 96 -100 330/09 RMK AO2 SLP103 T00110006 51012 TSNO
94908KDBQ DBQ20021105205513211/05/02 20:55:31  5-MIN KDBQ 060255Z AUTO 33008KT 4SM BR OVC008 01/01 A2980 1190 96 -100 330/08 RMK AO2 SLP103 T00110006 51014 TSNO
94908KDBQ DBQ20021105210010911/05/02 21:00:31  5-MIN KDBQ 060300Z AUTO 33009KT 4SM BR OVC008 01/01 A2980 1190 96 -100 330/09 RMK AO2 TSNO
94908KDBQ DBQ20021105210510911/05/02 21:05:31  5-MIN KDBQ 060305Z AUTO 33008KT 4SM BR OVC008 01/01 A2980 1190 96 -100 330/08 RMK AO2 TSNO
94908KDBQ DBQ20021105211010911/05/02 21:10:31  5-MIN KDBQ 060310Z AUTO 34007KT 4SM BR OVC008 01/01 A2980 1190 96 -100 340/07 RMK AO2 TSNO
94908KDBQ DBQ20021105211512111/05/02 21:15:31  5-MIN KDBQ 060315Z AUTO 34008KT 4SM BR OVC008 01/01 A2980 1190 96 -100 340/08 RMK AO2 CIG 007V010 TSNO
94908KDBQ DBQ20021105212010911/05/02 21:20:31  5-MIN KDBQ 060320Z AUTO 34007KT 4SM BR OVC008 01/01 A2980 1190 96 -100 340/07 RMK AO2 TSNO
94908KDBQ DBQ20021105212510911/05/02 21:25:31  5-MIN KDBQ 060325Z AUTO 35007KT 4SM BR OVC008 01/01 A2981 1180 96 -100 340/07 RMK AO2 TSNO
94908KDBQ DBQ20021105213010911/05/02 21:30:31  5-MIN KDBQ 060330Z AUTO 34007KT 4SM BR OVC008 01/01 A2981 1180 96 -100 340/07 RMK AO2 TSNO
94908KDBQ DBQ20021105213512111/05/02 21:35:31  5-MIN KDBQ 060335Z AUTO 33007KT 4SM BR OVC008 01/01 A2980 1190 96 -100 330/07 RMK AO2 CIG 007V013 TSNO
94908KDBQ DBQ20021105214012111/05/02 21:40:31  5-MIN KDBQ 060340Z AUTO 32006KT 4SM BR OVC010 01/01 A2980 1190 96 -100 320/06 RMK AO2 CIG 007V013 TSNO
94908KDBQ DBQ20021105214510911/05/02 21:45:31  5-MIN KDBQ 060345Z AUTO 31006KT 4SM BR OVC010 01/01 A2981 1180 96 -100 310/06 RMK AO2 TSNO
94908KDBQ DBQ20021105215012611/05/02 21:50:31  5-MIN KDBQ 060350Z AUTO 32006KT 4SM BR OVC010 01/01 A2981 1180 96 -100 320/06 RMK AO2 SLP105 T00110006 TSNO
94908KDBQ DBQ20021105215512611/05/02 21:55:31  5-MIN KDBQ 060355Z AUTO 31007KT 4SM BR OVC012 02/01 A2981 1180 92 -100 310/07 RMK AO2 SLP105 T00170006 TSNO
94908KDBQ DBQ20021105220010911/05/02 22:00:31  5-MIN KDBQ 060400Z AUTO 32008KT 4SM BR OVC012 02/01 A2981 1180 92 -100 320/08 RMK AO2 TSNO
94908KDBQ DBQ20021105220510911/05/02 22:05:31  5-MIN KDBQ 060405Z AUTO 32008KT 5SM BR OVC012 02/01 A2981 1180 92 -100 320/08 RMK AO2 TSNO
94908KDBQ DBQ20021105221010911/05/02 22:10:31  5-MIN KDBQ 060410Z AUTO 32009KT 5SM BR OVC012 02/01 A2981 1180 92 -100 320/09 RMK AO2 TSNO
94908KDBQ DBQ20021105221510911/05/02 22:15:31  5-MIN KDBQ 060415Z AUTO 32010KT 5SM BR OVC012 02/01 A2982 1180 92 -100 320/10 RMK AO2 TSNO
94908KDBQ DBQ20021105222010911/05/02 22:20:31  5-MIN KDBQ 060420Z AUTO 32009KT 5SM BR OVC014 02/01 A2982 1170 92 -100 320/09 RMK AO2 TSNO
94908KDBQ DBQ20021105222510911/05/02 22:25:31  5-MIN KDBQ 060425Z AUTO 33008KT 5SM BR OVC014 02/01 A2982 1170 92 -100 320/08 RMK AO2 TSNO
94908KDBQ DBQ20021105223010911/05/02 22:30:31  5-MIN KDBQ 060430Z AUTO 32007KT 5SM BR OVC016 02/01 A2982 1170 92 -100 320/07 RMK AO2 TSNO
94908KDBQ DBQ20021105223510911/05/02 22:35:31  5-MIN KDBQ 060435Z AUTO 31007KT 5SM BR OVC016 02/01 A2982 1170 92 -100 310/07 RMK AO2 TSNO
94908KDBQ DBQ20021105224010911/05/02 22:40:31  5-MIN KDBQ 060440Z AUTO 31007KT 5SM BR OVC016 02/01 A2982 1170 92 -100 310/07 RMK AO2 TSNO
94908KDBQ DBQ20021105224510911/05/02 22:45:31  5-MIN KDBQ 060445Z AUTO 31008KT 5SM BR OVC018 02/01 A2983 1170 92 -100 310/08 RMK AO2 TSNO
94908KDBQ DBQ20021105225012311/05/02 22:50:31  5-MIN KDBQ 060450Z AUTO 32007KT 5SM BR OVC018 02/01 A2983 1170 89 0 320/07 RMK AO2 SLP109 T00220006 TSNO
94908KDBQ DBQ20021105225513011/05/02 22:55:31  5-MIN KDBQ 060455Z AUTO 32008KT 5SM BR FEW010 OVC018 02/01 A2983 1160 92 0 320/08 RMK AO2 SLP110 T00220011 TSNO
94908KDBQ DBQ20021105230011311/05/02 23:00:31  5-MIN KDBQ 060500Z AUTO 33008KT 5SM BR FEW010 OVC018 02/01 A2983 1160 92 0 330/08 RMK AO2 TSNO
94908KDBQ DBQ20021105230511311/05/02 23:05:31  5-MIN KDBQ 060505Z AUTO 32007KT 5SM BR FEW010 OVC018 02/01 A2983 1160 92 0 320/07 RMK AO2 TSNO
94908KDBQ DBQ20021105231011311/05/02 23:10:31  5-MIN KDBQ 060510Z AUTO 33007KT 5SM BR FEW010 OVC018 02/01 A2983 1160 92 0 330/07 RMK AO2 TSNO
94908KDBQ DBQ20021105231511311/05/02 23:15:31  5-MIN KDBQ 060515Z AUTO 32006KT 5SM BR FEW010 OVC018 02/01 A2983 1160 92 0 310/06 RMK AO2 TSNO
94908KDBQ DBQ20021105232011311/05/02 23:20:31  5-MIN KDBQ 060520Z AUTO 29006KT 4SM BR FEW010 OVC018 02/01 A2983 1160 92 0 290/06 RMK AO2 TSNO
94908KDBQ DBQ20021105232512011/05/02 23:25:31  5-MIN KDBQ 060525Z AUTO 30007KT 4SM BR FEW010 BKN018 OVC023 02/01 A2983 1160 92 0 300/07 RMK AO2 TSNO
94908KDBQ DBQ20021105233012011/05/02 23:30:31  5-MIN KDBQ 060530Z AUTO 29006KT 5SM BR FEW010 SCT018 OVC023 02/01 A2983 1160 92 0 290/06 RMK AO2 TSNO
94908KDBQ DBQ20021105233511311/05/02 23:35:31  5-MIN KDBQ 060535Z AUTO 28005KT 5SM BR FEW008 OVC021 02/01 A2983 1160 89 0 280/05 RMK AO2 TSNO
94908KDBQ DBQ20021105234011311/05/02 23:40:31  5-MIN KDBQ 060540Z AUTO 28005KT 5SM BR FEW008 OVC021 02/01 A2983 1160 89 0 280/05 RMK AO2 TSNO
94908KDBQ DBQ20021105234510611/05/02 23:45:31  5-MIN KDBQ 060545Z AUTO 28007KT 5SM BR OVC021 02/01 A2984 1160 92 0 280/07 RMK AO2 TSNO
94908KDBQ DBQ20021105235015111/05/02 23:50:31  5-MIN KDBQ 060550Z AUTO 29008KT 5SM BR OVC021 02/01 A2984 1160 92 0 290/08 RMK AO2 SLP113 T00220011 10022 20000 400281011 51014 TSNO
94908KDBQ DBQ20021105235515111/05/02 23:55:31  5-MIN KDBQ 060555Z AUTO 29006KT 5SM BR OVC021 02/01 A2984 1150 92 0 290/06 RMK AO2 SLP114 T00220011 10022 20000 400281011 53012 TSNO
94908KDBQ DBQ20021106000010611/06/02 00:00:31  5-MIN KDBQ 060600Z AUTO 29006KT 5SM BR OVC021 02/01 A2984 1150 92 0 290/06 RMK AO2 TSNO
94908KDBQ DBQ20021106000510611/06/02 00:05:31  5-MIN KDBQ 060605Z AUTO 29005KT 4SM BR OVC021 02/01 A2985 1150 92 0 290/05 RMK AO2 TSNO
94908KDBQ DBQ20021106001010611/06/02 00:10:31  5-MIN KDBQ 060610Z AUTO 29006KT 4SM BR OVC021 02/01 A2985 1150 92 0 290/06 RMK AO2 TSNO
94908KDBQ DBQ20021106001510611/06/02 00:15:31  5-MIN KDBQ 060615Z AUTO 29007KT 4SM BR OVC021 02/01 A2985 1140 92 0 290/07 RMK AO2 TSNO
94908KDBQ DBQ20021106002010611/06/02 00:20:31  5-MIN KDBQ 060620Z AUTO 29008KT 4SM BR OVC021 02/01 A2985 1150 92 0 290/08 RMK AO2 TSNO
94908KDBQ DBQ20021106002510611/06/02 00:25:31  5-MIN KDBQ 060625Z AUTO 29007KT 4SM BR OVC021 02/01 A2985 1150 92 0 290/07 RMK AO2 TSNO
94908KDBQ DBQ20021106003010611/06/02 00:30:31  5-MIN KDBQ 060630Z AUTO 28007KT 4SM BR OVC021 02/01 A2985 1150 92 0 280/07 RMK AO2 TSNO
94908KDBQ DBQ20021106003510611/06/02 00:35:31  5-MIN KDBQ 060635Z AUTO 28005KT 4SM BR OVC021 02/01 A2985 1150 92 0 280/05 RMK AO2 TSNO
94908KDBQ DBQ20021106004010611/06/02 00:40:31  5-MIN KDBQ 060640Z AUTO 28006KT 4SM BR OVC021 02/01 A2985 1150 92 0 280/06 RMK AO2 TSNO
94908KDBQ DBQ20021106004510611/06/02 00:45:31  5-MIN KDBQ 060645Z AUTO 28006KT 5SM BR OVC021 02/01 A2985 1140 92 0 280/06 RMK AO2 TSNO
94908KDBQ DBQ20021106005012311/06/02 00:50:31  5-MIN KDBQ 060650Z AUTO 29006KT 5SM BR OVC021 02/01 A2985 1140 92 0 280/06 RMK AO2 SLP118 T00220011 TSNO
94908KDBQ DBQ20021106005512311/06/02 00:55:31  5-MIN KDBQ 060655Z AUTO 28007KT 5SM BR OVC021 02/01 A2985 1140 92 0 280/07 RMK AO2 SLP119 T00220011 TSNO
94908KDBQ DBQ20021106010010611/06/02 01:00:31  5-MIN KDBQ 060700Z AUTO 29007KT 5SM BR OVC021 02/01 A2985 1140 92 0 290/07 RMK AO2 TSNO
94908KDBQ DBQ20021106010510611/06/02 01:05:31  5-MIN KDBQ 060705Z AUTO 30006KT 5SM BR OVC021 02/01 A2986 1140 92 0 290/06 RMK AO2 TSNO
94908KDBQ DBQ20021106011010911/06/02 01:10:31  5-MIN KDBQ 060710Z AUTO 30007KT 5SM BR OVC021 02/01 A2986 1130 92 -100 300/07 RMK AO2 TSNO
94908KDBQ DBQ20021106011511611/06/02 01:15:31  5-MIN KDBQ 060715Z AUTO 30006KT 5SM BR FEW009 OVC021 02/01 A2986 1130 92 -100 300/06 RMK AO2 TSNO
94908KDBQ DBQ20021106012011611/06/02 01:20:31  5-MIN KDBQ 060720Z AUTO 29008KT 5SM BR SCT009 OVC021 02/01 A2986 1130 92 -100 290/08 RMK AO2 TSNO
94908KDBQ DBQ20021106012511611/06/02 01:25:31  5-MIN KDBQ 060725Z AUTO 30007KT 5SM BR BKN009 OVC021 02/01 A2986 1130 92 -100 290/07 RMK AO2 TSNO
94908KDBQ DBQ20021106013011611/06/02 01:30:31  5-MIN KDBQ 060730Z AUTO 29007KT 4SM BR BKN009 OVC021 02/01 A2986 1130 92 -100 290/07 RMK AO2 TSNO
94908KDBQ DBQ20021106013511611/06/02 01:35:31  5-MIN KDBQ 060735Z AUTO 30007KT 4SM BR BKN007 OVC021 02/01 A2986 1130 92 -100 290/07 RMK AO2 TSNO
94908KDBQ DBQ20021106014011611/06/02 01:40:31  5-MIN KDBQ 060740Z AUTO 29007KT 4SM BR BKN007 OVC021 02/01 A2986 1130 92 -100 290/07 RMK AO2 TSNO
94908KDBQ DBQ20021106014510911/06/02 01:45:31  5-MIN KDBQ 060745Z AUTO 30008KT 4SM BR OVC007 02/01 A2986 1130 92 -100 300/08 RMK AO2 TSNO
94908KDBQ DBQ20021106015013311/06/02 01:50:31  5-MIN KDBQ 060750Z AUTO 30009KT 4SM BR BKN007 OVC020 02/01 A2987 1130 92 -100 300/09 RMK AO2 SLP123 T00220011 TSNO
94908KDBQ DBQ20021106015513311/06/02 01:55:31  5-MIN KDBQ 060755Z AUTO 30008KT 4SM BR BKN007 OVC018 02/02 A2987 1130 96 -100 300/08 RMK AO2 SLP123 T00220017 TSNO
94908KDBQ DBQ20021106020011611/06/02 02:00:31  5-MIN KDBQ 060800Z AUTO 30007KT 4SM BR SCT007 OVC018 02/02 A2987 1130 96 -100 300/07 RMK AO2 TSNO
94908KDBQ DBQ20021106020511611/06/02 02:05:31  5-MIN KDBQ 060805Z AUTO 30007KT 4SM BR SCT007 OVC016 02/02 A2986 1130 96 -100 290/07 RMK AO2 TSNO
94908KDBQ DBQ20021106021011611/06/02 02:10:31  5-MIN KDBQ 060810Z AUTO 30008KT 4SM BR SCT007 OVC016 02/02 A2986 1130 96 -100 290/08 RMK AO2 TSNO
94908KDBQ DBQ20021106021511611/06/02 02:15:31  5-MIN KDBQ 060815Z AUTO 29007KT 4SM BR FEW007 OVC016 02/02 A2986 1130 96 -100 290/07 RMK AO2 TSNO
94908KDBQ DBQ20021106022012311/06/02 02:20:31  5-MIN KDBQ 060820Z AUTO 30007KT 4SM BR FEW010 BKN016 OVC021 02/02 A2987 1130 96 -100 300/07 RMK AO2 TSNO
94908KDBQ DBQ20021106022512311/06/02 02:25:31  5-MIN KDBQ 060825Z AUTO 30006KT 4SM BR FEW007 BKN016 OVC021 02/02 A2987 1130 96 -100 300/06 RMK AO2 TSNO
94908KDBQ DBQ20021106023012311/06/02 02:30:31  5-MIN KDBQ 060830Z AUTO 30006KT 4SM BR FEW007 BKN013 OVC019 02/02 A2987 1130 96 -100 300/06 RMK AO2 TSNO
94908KDBQ DBQ20021106023511611/06/02 02:35:31  5-MIN KDBQ 060835Z AUTO 30007KT 4SM BR BKN012 OVC018 02/02 A2987 1130 96 -100 290/07 RMK AO2 TSNO
94908KDBQ DBQ20021106024011611/06/02 02:40:31  5-MIN KDBQ 060840Z AUTO 30009KT 4SM BR BKN010 OVC018 02/02 A2987 1120 96 -100 300/09 RMK AO2 TSNO
94908KDBQ DBQ20021106024512811/06/02 02:45:31  5-MIN KDBQ 060845Z AUTO 29007KT 4SM BR BKN010 OVC016 02/02 A2987 1120 96 -100 290/07 RMK AO2 CIG 006V014 TSNO
94908KDBQ DBQ20021106025014411/06/02 02:50:31  5-MIN KDBQ 060850Z AUTO 29007KT 4SM BR OVC010 02/02 A2987 1130 96 -100 290/07 RMK AO2 CIG 006V015 SLP124 T00220017 53012 TSNO
94908KDBQ DBQ20021106025515111/06/02 02:55:31  5-MIN KDBQ 060855Z AUTO 29007KT 4SM BR BKN010 OVC024 02/02 A2987 1130 96 -100 290/07 RMK AO2 CIG 006V013 SLP124 T00220017 51009 TSNO
94908KDBQ DBQ20021106030012811/06/02 03:00:31  5-MIN KDBQ 060900Z AUTO 29006KT 4SM BR BKN010 OVC026 02/02 A2987 1130 96 -100 290/06 RMK AO2 CIG 007V013 TSNO
94908KDBQ DBQ20021106030512811/06/02 03:05:31  5-MIN KDBQ 060905Z AUTO 28005KT 4SM BR BKN010 OVC026 02/02 A2987 1130 96 -100 280/05 RMK AO2 CIG 007V013 TSNO
94908KDBQ DBQ20021106031012311/06/02 03:10:31  5-MIN KDBQ 060910Z AUTO 28005KT 4SM BR SCT008 BKN012 OVC026 02/02 A2987 1130 96 -100 280/05 RMK AO2 TSNO
94908KDBQ DBQ20021106031512811/06/02 03:15:31  5-MIN KDBQ 060915Z AUTO 28005KT 4SM BR BKN008 OVC026 02/02 A2987 1130 96 -100 280/05 RMK AO2 CIG 006V012 TSNO
94908KDBQ DBQ20021106032012311/06/02 03:20:31  5-MIN KDBQ 060920Z AUTO 28005KT 4SM BR SCT008 SCT012 OVC026 02/02 A2987 1130 96 -100 280/05 RMK AO2 TSNO
94908KDBQ DBQ20021106032512811/06/02 03:25:31  5-MIN KDBQ 060925Z AUTO 28006KT 4SM BR BKN008 OVC026 02/02 A2987 1120 96 -100 280/06 RMK AO2 CIG 006V012 TSNO
94908KDBQ DBQ20021106033012811/06/02 03:30:31  5-MIN KDBQ 060930Z AUTO 28007KT 4SM BR BKN008 OVC026 02/02 A2987 1120 96 -100 280/07 RMK AO2 CIG 006V012 TSNO
94908KDBQ DBQ20021106033513511/06/02 03:35:31  5-MIN KDBQ 060935Z AUTO 28007KT 5SM BR BKN008 BKN012 OVC026 02/02 A2987 1120 96 -100 280/07 RMK AO2 CIG 006V011 TSNO
94908KDBQ DBQ20021106034012811/06/02 03:40:31  5-MIN KDBQ 060940Z AUTO 28008KT 5SM BR BKN008 OVC026 02/02 A2987 1120 96 -100 280/08 RMK AO2 CIG 006V013 TSNO
94908KDBQ DBQ20021106034512811/06/02 03:45:31  5-MIN KDBQ 060945Z AUTO 28007KT 5SM BR BKN008 OVC026 02/02 A2988 1120 96 -100 280/07 RMK AO2 CIG 006V013 TSNO
94908KDBQ DBQ20021106035014511/06/02 03:50:31  5-MIN KDBQ 060950Z AUTO 28008KT 5SM BR BKN008 OVC012 02/02 A2988 1120 96 -100 280/08 RMK AO2 CIG 006V010 SLP127 T00220017 TSNO
94908KDBQ DBQ20021106035515211/06/02 03:55:31  5-MIN KDBQ 060955Z AUTO 28008KT 5SM BR BKN008 BKN012 OVC025 02/02 A2988 1120 96 -100 280/08 RMK AO2 CIG 006V010 SLP127 T00220017 TSNO
94908KDBQ DBQ20021106040013511/06/02 04:00:31  5-MIN KDBQ 061000Z AUTO 29010KT 5SM BR BKN008 BKN012 OVC025 02/02 A2988 1110 96 -100 290/10 RMK AO2 CIG 006V010 TSNO
94908KDBQ DBQ20021106040512811/06/02 04:05:31  5-MIN KDBQ 061005Z AUTO 29009KT 5SM BR BKN008 OVC025 02/02 A2989 1110 96 -100 280/09 RMK AO2 CIG 006V011 TSNO
94908KDBQ DBQ20021106041012811/06/02 04:10:31  5-MIN KDBQ 061010Z AUTO 29011KT 5SM BR BKN008 OVC025 02/02 A2989 1110 96 -100 290/11 RMK AO2 CIG 006V010 TSNO
94908KDBQ DBQ20021106041511611/06/02 04:15:31  5-MIN KDBQ 061015Z AUTO 29010KT 5SM BR SCT008 OVC025 02/02 A2989 1110 96 -100 290/10 RMK AO2 TSNO
94908KDBQ DBQ20021106042011611/06/02 04:20:31  5-MIN KDBQ 061020Z AUTO 29010KT 5SM BR FEW008 OVC025 02/01 A2989 1110 92 -100 290/10 RMK AO2 TSNO
94908KDBQ DBQ20021106042511611/06/02 04:25:31  5-MIN KDBQ 061025Z AUTO 29011KT 5SM BR FEW008 OVC025 02/01 A2989 1100 92 -100 290/11 RMK AO2 TSNO
94908KDBQ DBQ20021106043011611/06/02 04:30:31  5-MIN KDBQ 061030Z AUTO 28011KT 5SM BR FEW010 OVC025 02/01 A2989 1100 92 -100 280/11 RMK AO2 TSNO
94908KDBQ DBQ20021106043511611/06/02 04:35:31  5-MIN KDBQ 061035Z AUTO 29010KT 5SM BR FEW010 OVC025 02/01 A2990 1100 92 -100 280/10 RMK AO2 TSNO
94908KDBQ DBQ20021106044011611/06/02 04:40:31  5-MIN KDBQ 061040Z AUTO 28010KT 5SM BR FEW010 OVC025 02/01 A2990 1100 92 -100 280/10 RMK AO2 TSNO
94908KDBQ DBQ20021106044511611/06/02 04:45:31  5-MIN KDBQ 061045Z AUTO 29011KT 5SM BR FEW010 OVC025 02/01 A2990 1100 92 -100 290/11 RMK AO2 TSNO
94908KDBQ DBQ20021106045013311/06/02 04:50:31  5-MIN KDBQ 061050Z AUTO 29011KT 5SM BR FEW010 OVC025 02/01 A2990 1090 92 -100 290/11 RMK AO2 SLP135 T00220011 TSNO
94908KDBQ DBQ20021106045513311/06/02 04:55:31  5-MIN KDBQ 061055Z AUTO 29012KT 5SM BR FEW010 OVC025 02/01 A2990 1100 92 -100 290/12 RMK AO2 SLP135 T00220011 TSNO
94908KDBQ DBQ20021106050011611/06/02 05:00:31  5-MIN KDBQ 061100Z AUTO 29011KT 5SM BR FEW010 OVC025 02/01 A2990 1100 92 -100 290/11 RMK AO2 TSNO
94908KDBQ DBQ20021106050511611/06/02 05:05:31  5-MIN KDBQ 061105Z AUTO 29010KT 5SM BR FEW010 OVC025 02/01 A2991 1090 92 -100 280/10 RMK AO2 TSNO
94908KDBQ DBQ20021106051010911/06/02 05:10:31  5-MIN KDBQ 061110Z AUTO 29010KT 5SM BR OVC023 02/01 A2990 1090 92 -100 290/10 RMK AO2 TSNO
94908KDBQ DBQ20021106051510911/06/02 05:15:31  5-MIN KDBQ 061115Z AUTO 29009KT 6SM BR OVC023 02/01 A2991 1090 92 -100 290/09 RMK AO2 TSNO
94908KDBQ DBQ20021106052010911/06/02 05:20:31  5-MIN KDBQ 061120Z AUTO 29008KT 6SM BR OVC021 02/01 A2991 1090 92 -100 280/08 RMK AO2 TSNO
94908KDBQ DBQ20021106052510911/06/02 05:25:31  5-MIN KDBQ 061125Z AUTO 28009KT 6SM BR OVC021 02/01 A2990 1090 92 -100 280/09 RMK AO2 TSNO
94908KDBQ DBQ20021106053010911/06/02 05:30:31  5-MIN KDBQ 061130Z AUTO 28008KT 6SM BR OVC019 02/01 A2991 1090 92 -100 280/08 RMK AO2 TSNO
94908KDBQ DBQ20021106053510911/06/02 05:35:31  5-MIN KDBQ 061135Z AUTO 28010KT 6SM BR OVC019 02/01 A2991 1090 92 -100 280/10 RMK AO2 TSNO
94908KDBQ DBQ20021106054010611/06/02 05:40:31  5-MIN KDBQ 061140Z AUTO 28009KT 6SM BR OVC017 03/01 A2991 1090 85 0 280/09 RMK AO2 TSNO
94908KDBQ DBQ20021106054510611/06/02 05:45:31  5-MIN KDBQ 061145Z AUTO 28009KT 6SM BR OVC017 03/01 A2991 1090 89 0 280/09 RMK AO2 TSNO
94908KDBQ DBQ20021106055014411/06/02 05:50:31  5-MIN KDBQ 061150Z AUTO 29008KT 6SM BR OVC017 02/01 A2991 1090 92 -100 290/08 RMK AO2 SLP139 T00220011 10028 20022 51009 TSNO
94908KDBQ DBQ20021106055513111/06/02 05:55:31  5-MIN KDBQ 061155Z 28008KT 6SM BR OVC017 03/01 A2991 1090 89 0 280/08 RMK AO2 SLP138 T00280011 10028 20022 51014
94908KDBQ DBQ20021106060009611/06/02 06:00:31  5-MIN KDBQ 061200Z 28008KT 6SM BR OVC017 03/01 A2991 1090 89 0 280/08 RMK AO2
94908KDBQ DBQ20021106060509611/06/02 06:05:31  5-MIN KDBQ 061205Z 28009KT 6SM BR OVC017 03/01 A2991 1090 89 0 280/09 RMK AO2
94908KDBQ DBQ20021106061009611/06/02 06:10:31  5-MIN KDBQ 061210Z 28009KT 6SM BR OVC017 03/01 A2992 1080 89 0 280/09 RMK AO2
94908KDBQ DBQ20021106061509611/06/02 06:15:31  5-MIN KDBQ 061215Z 28008KT 6SM BR OVC017 03/01 A2992 1080 89 0 280/08 RMK AO2
94908KDBQ DBQ20021106062009911/06/02 06:20:31  5-MIN KDBQ 061220Z 29010KT 6SM BR OVC017 03/01 A2992 1070 89 -100 290/10 RMK AO2
94908KDBQ DBQ20021106062509911/06/02 06:25:31  5-MIN KDBQ 061225Z 28010KT 6SM BR OVC017 03/01 A2992 1070 89 -100 280/10 RMK AO2
94908KDBQ DBQ20021106063010611/06/02 06:30:31  5-MIN KDBQ 061230Z 29010KT 6SM BR BKN014 OVC019 03/01 A2993 1070 89 -100 290/10 RMK AO2
94908KDBQ DBQ20021106063510611/06/02 06:35:31  5-MIN KDBQ 061235Z 29010KT 6SM BR BKN014 OVC019 03/01 A2993 1070 89 -100 290/10 RMK AO2
94908KDBQ DBQ20021106064009911/06/02 06:40:31  5-MIN KDBQ 061240Z 28012KT 6SM BR OVC014 03/01 A2993 1060 89 -100 280/12 RMK AO2
94908KDBQ DBQ20021106064509911/06/02 06:45:31  5-MIN KDBQ 061245Z 30011KT 6SM BR OVC012 03/01 A2994 1060 89 -100 300/11 RMK AO2
94908KDBQ DBQ20021106065011311/06/02 06:50:31  5-MIN KDBQ 061250Z 30017KT 7SM OVC012 02/01 A2994 1060 89 -100 300/17 RMK AO2 SLP147 T00220006
94908KDBQ DBQ20021106065511311/06/02 06:55:31  5-MIN KDBQ 061255Z 28010KT 7SM OVC010 02/01 A2993 1070 92 -100 280/10 RMK AO2 SLP145 T00220011
94908KDBQ DBQ20021106070009611/06/02 07:00:31  5-MIN KDBQ 061300Z 29013KT 7SM OVC010 02/01 A2993 1070 89 -100 290/13 RMK AO2
94908KDBQ DBQ20021106070510511/06/02 07:05:31  5-MIN KDBQ 061305Z 28011G18KT 6SM BR OVC010 02/01 A2993 1070 89 -100 280/11G18 RMK AO2
94908KDBQ DBQ20021106071009911/06/02 07:10:31  5-MIN KDBQ 061310Z 29012KT 5SM BR OVC010 02/01 A2994 1060 92 -200 290/12 RMK AO2
94908KDBQ DBQ20021106071509911/06/02 07:15:31  5-MIN KDBQ 061315Z 28013KT 5SM BR OVC010 02/00 A2993 1070 89 -200 270/13 RMK AO2
94908KDBQ DBQ20021106072009911/06/02 07:20:31  5-MIN KDBQ 061320Z 28014KT 5SM BR OVC010 02/00 A2994 1060 89 -200 280/14 RMK AO2
94908KDBQ DBQ20021106072511811/06/02 07:25:31  5-MIN KDBQ 061325Z 28012KT 5SM BR BKN010 OVC015 02/00 A2994 1060 89 -200 270/12 RMK AO2 CIG 009V013
94908KDBQ DBQ20021106073010611/06/02 07:30:31  5-MIN KDBQ 061330Z 28014KT 5SM BR BKN010 OVC015 02/00 A2994 1060 89 -200 280/14 RMK AO2
94908KDBQ DBQ20021106073510611/06/02 07:35:31  5-MIN KDBQ 061335Z 27013KT 5SM BR BKN010 OVC015 02/00 A2995 1060 89 -200 270/13 RMK AO2
94908KDBQ DBQ20021106074010011/06/02 07:40:31  5-MIN KDBQ 061340Z 27014KT 5SM BR OVC010 01/M01 A2995 1050 89 -300 270/14 RMK AO2
94908KDBQ DBQ20021106074510011/06/02 07:45:31  5-MIN KDBQ 061345Z 27012KT 4SM BR OVC010 01/M01 A2995 1050 89 -300 260/12 RMK AO2
94908KDBQ DBQ20021106075012911/06/02 07:50:31  5-MIN KDBQ 061350Z 27014KT 4SM BR OVC010 01/M01 A2996 1050 89 -300 270/14 RMK AO2 CIG 009V014 SLP155 T00111006
94908KDBQ DBQ20021106075511711/06/02 07:55:31  5-MIN KDBQ 061355Z 26013KT 4SM BR OVC010 01/M01 A2996 1040 89 -300 260/13 RMK AO2 SLP156 T00111006
94908KDBQ DBQ20021106080011211/06/02 08:00:31  5-MIN KDBQ 061400Z 26012KT 4SM BR OVC010 01/M01 A2996 1040 89 -300 260/12 RMK AO2 CIG 009V012
94908KDBQ DBQ20021106080510011/06/02 08:05:31  5-MIN KDBQ 061405Z 26011KT 4SM BR OVC010 01/M01 A2996 1040 89 -300 260/11 RMK AO2
94908KDBQ DBQ20021106081010011/06/02 08:10:31  5-MIN KDBQ 061410Z 27012KT 4SM BR OVC010 01/M01 A2996 1040 89 -300 270/12 RMK AO2
94908KDBQ DBQ20021106081510011/06/02 08:15:31  5-MIN KDBQ 061415Z 27011KT 4SM BR OVC010 01/M01 A2996 1040 89 -300 270/11 RMK AO2
94908KDBQ DBQ20021106082010011/06/02 08:20:31  5-MIN KDBQ 061420Z 26011KT 4SM BR OVC010 01/M01 A2997 1030 89 -300 260/11 RMK AO2
94908KDBQ DBQ20021106082510011/06/02 08:25:31  5-MIN KDBQ 061425Z 27009KT 4SM BR OVC010 01/M01 A2997 1030 89 -300 270/09 RMK AO2
94908KDBQ DBQ20021106083010011/06/02 08:30:31  5-MIN KDBQ 061430Z 27010KT 4SM BR OVC010 01/M01 A2997 1030 92 -400 270/10 RMK AO2
94908KDBQ DBQ20021106083510011/06/02 08:35:31  5-MIN KDBQ 061435Z 28009KT 4SM BR OVC010 01/M01 A2998 1030 89 -300 270/09 RMK AO2
94908KDBQ DBQ20021106084011211/06/02 08:40:31  5-MIN KDBQ 061440Z 27010KT 4SM BR OVC010 01/M01 A2998 1030 89 -300 270/10 RMK AO2 CIG 008V013
94908KDBQ DBQ20021106084511911/06/02 08:45:31  5-MIN KDBQ 061445Z 28011KT 4SM BR BKN010 OVC014 01/M01 A2998 1020 85 -300 280/11 RMK AO2 CIG 008V012
94908KDBQ DBQ20021106085012311/06/02 08:50:31  5-MIN KDBQ 061450Z 27010KT 4SM BR OVC012 01/M01 A2998 1020 85 -300 270/10 RMK AO2 SLP163 T00111011 51014
94908KDBQ DBQ20021106085512311/06/02 08:55:31  5-MIN KDBQ 061455Z 27008KT 5SM BR OVC012 01/M01 A2998 1020 89 -300 270/08 RMK AO2 SLP164 T00111006 53023
94908KDBQ DBQ20021106090010611/06/02 09:00:31  5-MIN KDBQ 061500Z 28012G16KT 5SM BR OVC012 01/M01 A2998 1020 89 -300 280/12G16 RMK AO2
94908KDBQ DBQ20021106090510011/06/02 09:05:31  5-MIN KDBQ 061505Z 27013KT 5SM BR OVC012 01/M01 A2999 1020 85 -300 270/13 RMK AO2
94908KDBQ DBQ20021106091010011/06/02 09:10:31  5-MIN KDBQ 061510Z 28013KT 5SM BR OVC012 01/M01 A2999 1020 85 -300 280/13 RMK AO2
94908KDBQ DBQ20021106091510011/06/02 09:15:31  5-MIN KDBQ 061515Z 28012KT 5SM BR OVC012 01/M01 A2999 1020 85 -300 280/12 RMK AO2
94908KDBQ DBQ20021106092010011/06/02 09:20:31  5-MIN KDBQ 061520Z 29013KT 5SM BR OVC012 01/M01 A2999 1010 85 -300 290/13 RMK AO2
94908KDBQ DBQ20021106092510011/06/02 09:25:31  5-MIN KDBQ 061525Z 28012KT 5SM BR OVC012 01/M01 A2999 1010 85 -300 280/12 RMK AO2
94908KDBQ DBQ20021106093010011/06/02 09:30:31  5-MIN KDBQ 061530Z 29014KT 5SM BR OVC012 01/M01 A2999 1010 85 -300 290/14 RMK AO2
94908KDBQ DBQ20021106093510011/06/02 09:35:31  5-MIN KDBQ 061535Z 27014KT 5SM BR OVC012 01/M01 A3000 1010 85 -400 270/14 RMK AO2
94908KDBQ DBQ20021106094010011/06/02 09:40:31  5-MIN KDBQ 061540Z 28014KT 5SM BR OVC012 01/M01 A3001 1000 85 -400 280/14 RMK AO2
94908KDBQ DBQ20021106094510011/06/02 09:45:31  5-MIN KDBQ 061545Z 29015KT 5SM BR OVC012 01/M01 A3001 1000 85 -400 290/15 RMK AO2
94908KDBQ DBQ20021106095011711/06/02 09:50:31  5-MIN KDBQ 061550Z 28015KT 5SM BR OVC012 01/M01 A3001 1000 85 -400 280/15 RMK AO2 SLP172 T00111011
94908KDBQ DBQ20021106095511711/06/02 09:55:31  5-MIN KDBQ 061555Z 28015KT 6SM BR OVC012 01/M01 A3001 1000 85 -400 270/15 RMK AO2 SLP172 T00111011
94908KDBQ DBQ20021106100010011/06/02 10:00:31  5-MIN KDBQ 061600Z 28016KT 6SM BR OVC012 01/M01 A3001 1000 85 -400 280/16 RMK AO2
94908KDBQ DBQ20021106100509911/06/02 10:05:31  5-MIN KDBQ 061605Z 29014KT 6SM BR OVC012 01/M01 A3001 990 85 -400 290/14 RMK AO2
94908KDBQ DBQ20021106101009911/06/02 10:10:31  5-MIN KDBQ 061610Z 29014KT 6SM BR OVC012 01/M01 A3001 990 85 -400 290/14 RMK AO2
94908KDBQ DBQ20021106101509911/06/02 10:15:31  5-MIN KDBQ 061615Z 28015KT 5SM BR OVC012 01/M01 A3002 990 85 -400 270/15 RMK AO2
94908KDBQ DBQ20021106102009911/06/02 10:20:31  5-MIN KDBQ 061620Z 27014KT 5SM BR OVC012 01/M01 A3001 990 85 -400 270/14 RMK AO2
94908KDBQ DBQ20021106102509911/06/02 10:25:31  5-MIN KDBQ 061625Z 27015KT 5SM HZ OVC012 02/M01 A3002 990 82 -300 270/15 RMK AO2
94908KDBQ DBQ20021106103009911/06/02 10:30:31  5-MIN KDBQ 061630Z 27015KT 5SM HZ OVC012 02/M01 A3002 990 82 -300 270/15 RMK AO2
94908KDBQ DBQ20021106103509911/06/02 10:35:31  5-MIN KDBQ 061635Z 27013KT 5SM HZ OVC012 02/M01 A3002 990 82 -300 270/13 RMK AO2
94908KDBQ DBQ20021106104010511/06/02 10:40:31  5-MIN KDBQ 061640Z 28017G21KT 5SM BR OVC012 02/M01 A3002 990 85 -300 280/17G21 RMK AO2
94908KDBQ DBQ20021106104510511/06/02 10:45:31  5-MIN KDBQ 061645Z 28016G21KT 5SM HZ OVC012 02/M01 A3002 990 82 -300 280/16G21 RMK AO2
94908KDBQ DBQ20021106105011611/06/02 10:50:31  5-MIN KDBQ 061650Z 28015KT 6SM HZ OVC012 02/M01 A3001 990 78 -200 280/15 RMK AO2 SLP173 T00221011
94908KDBQ DBQ20021106105511611/06/02 10:55:31  5-MIN KDBQ 061655Z 27011KT 6SM HZ OVC012 02/M01 A3001 990 82 -200 270/11 RMK AO2 SLP173 T00221006
94908KDBQ DBQ20021106110009911/06/02 11:00:31  5-MIN KDBQ 061700Z 27012KT 6SM HZ OVC014 02/M01 A3001 990 82 -200 260/12 RMK AO2
94908KDBQ DBQ20021106110509911/06/02 11:05:31  5-MIN KDBQ 061705Z 26014KT 6SM HZ OVC014 02/M01 A3002 990 82 -200 260/14 RMK AO2
94908KDBQ DBQ20021106111009911/06/02 11:10:31  5-MIN KDBQ 061710Z 27015KT 6SM HZ OVC014 02/M01 A3002 990 82 -200 270/15 RMK AO2
94908KDBQ DBQ20021106111509911/06/02 11:15:31  5-MIN KDBQ 061715Z 27015KT 6SM HZ OVC014 02/M01 A3002 990 82 -200 270/15 RMK AO2
94908KDBQ DBQ20021106112009911/06/02 11:20:31  5-MIN KDBQ 061720Z 28015KT 6SM HZ OVC014 02/M01 A3002 990 82 -200 280/15 RMK AO2
94908KDBQ DBQ20021106112509911/06/02 11:25:31  5-MIN KDBQ 061725Z 28013KT 6SM HZ OVC014 02/M01 A3002 990 82 -200 280/13 RMK AO2
94908KDBQ DBQ20021106113009711/06/02 11:30:31  5-MIN KDBQ 061730Z 29013KT 7SM OVC014 03/M01 A3001 1000 79 -200 290/13 RMK AO2
94908KDBQ DBQ20021106113509711/06/02 11:35:31  5-MIN KDBQ 061735Z 28014KT 7SM OVC014 03/M01 A3001 1000 79 -200 280/14 RMK AO2
94908KDBQ DBQ20021106114010211/06/02 11:40:31  5-MIN KDBQ 061740Z 28012G19KT 7SM OVC014 03/00 A3001 1000 82 -200 270/12G19 RMK AO2
94908KDBQ DBQ20021106114509611/06/02 11:45:31  5-MIN KDBQ 061745Z 29013KT 7SM OVC014 03/00 A3001 1000 79 -100 280/13 RMK AO2
94908KDBQ DBQ20021106115013211/06/02 11:50:31  5-MIN KDBQ 061750Z 28012KT 7SM OVC014 03/M01 A3000 1000 79 -200 280/12 RMK AO2 SLP170 T00281006 10033 20006 53023
94908KDBQ DBQ20021106115513211/06/02 11:55:31  5-MIN KDBQ 061755Z 27012KT 7SM OVC016 03/M01 A3000 1000 79 -100 270/12 RMK AO2 SLP169 T00281006 10033 20006 50006
94908KDBQ DBQ20021106120009711/06/02 12:00:31  5-MIN KDBQ 061800Z 27012KT 7SM BKN016 03/M01 A3000 1010 76 -100 270/12 RMK AO2
94908KDBQ DBQ20021106120509311/06/02 12:05:31  5-MIN KDBQ 061805Z 28011KT 7SM BKN016 04/00 A3000 1010 76 0 280/11 RMK AO2
94908KDBQ DBQ20021106121009311/06/02 12:10:31  5-MIN KDBQ 061810Z 26014KT 8SM SCT016 04/00 A2999 1010 76 0 260/14 RMK AO2
94908KDBQ DBQ20021106121509311/06/02 12:15:31  5-MIN KDBQ 061815Z 27012KT 8SM SCT016 04/00 A2999 1010 76 0 270/12 RMK AO2
94908KDBQ DBQ20021106122009311/06/02 12:20:31  5-MIN KDBQ 061820Z 28010KT 8SM SCT016 04/00 A2999 1010 73 0 280/10 RMK AO2
94908KDBQ DBQ20021106122509511/06/02 12:25:31  5-MIN KDBQ 061825Z 27012KT 9SM SCT016 05/01 A2999 1010 73 100 270/12 RMK AO2
94908KDBQ DBQ20021106123009311/06/02 12:30:31  5-MIN KDBQ 061830Z 27012KT 9SM SCT016 04/00 A2999 1010 73 0 270/12 RMK AO2
94908KDBQ DBQ20021106123509511/06/02 12:35:31  5-MIN KDBQ 061835Z 26016KT 9SM SCT016 05/01 A2999 1010 73 100 260/16 RMK AO2
94908KDBQ DBQ20021106124009511/06/02 12:40:31  5-MIN KDBQ 061840Z 28013KT 9SM SCT016 05/00 A2999 1020 70 100 280/13 RMK AO2
94908KDBQ DBQ20021106124510111/06/02 12:45:31  5-MIN KDBQ 061845Z 28011G18KT 9SM SCT016 05/00 A2999 1020 70 100 280/11G18 RMK AO2
94908KDBQ DBQ20021106125011211/06/02 12:50:31  5-MIN KDBQ 061850Z 27011KT 9SM SCT016 06/01 A2999 1010 70 200 270/11 RMK AO2 SLP164 T00560006
94908KDBQ DBQ20021106125510911/06/02 12:55:31  5-MIN KDBQ 061855Z 26011KT 9SM CLR 06/01 A2999 1020 70 200 260/11 RMK AO2 SLP163 T00560006
94908KDBQ DBQ20021106130009211/06/02 13:00:31  5-MIN KDBQ 061900Z 27011KT 9SM CLR 06/01 A2999 1020 70 200 270/11 RMK AO2
94908KDBQ DBQ20021106130509211/06/02 13:05:31  5-MIN KDBQ 061905Z 25012KT 9SM CLR 06/01 A2999 1020 70 200 250/12 RMK AO2
94908KDBQ DBQ20021106131009211/06/02 13:10:31  5-MIN KDBQ 061910Z 28011KT 9SM CLR 06/01 A2999 1010 67 200 270/11 RMK AO2
94908KDBQ DBQ20021106131509211/06/02 13:15:31  5-MIN KDBQ 061915Z 28011KT 9SM CLR 06/01 A2999 1020 67 200 280/11 RMK AO2
94908KDBQ DBQ20021106132009211/06/02 13:20:31  5-MIN KDBQ 061920Z 27009KT 9SM CLR 06/01 A2998 1020 67 200 270/09 RMK AO2
94908KDBQ DBQ20021106132509211/06/02 13:25:31  5-MIN KDBQ 061925Z 26009KT 9SM CLR 06/01 A2998 1020 67 200 260/09 RMK AO2
94908KDBQ DBQ20021106133009211/06/02 13:30:31  5-MIN KDBQ 061930Z 25009KT 9SM CLR 06/01 A2998 1020 67 200 250/09 RMK AO2
94908KDBQ DBQ20021106133509211/06/02 13:35:31  5-MIN KDBQ 061935Z 27011KT 9SM CLR 07/01 A2998 1020 65 300 270/11 RMK AO2
94908KDBQ DBQ20021106134009811/06/02 13:40:31  5-MIN KDBQ 061940Z 25012G16KT 9SM CLR 07/01 A2998 1020 65 300 250/12G16 RMK AO2
94908KDBQ DBQ20021106134509811/06/02 13:45:31  5-MIN KDBQ 061945Z 24009G16KT 9SM CLR 06/01 A2998 1020 67 200 240/09G16 RMK AO2
94908KDBQ DBQ20021106135010911/06/02 13:50:31  5-MIN KDBQ 061950Z 26010KT 9SM CLR 07/01 A2998 1030 65 400 260/10 RMK AO2 SLP159 T00720011
94908KDBQ DBQ20021106135510911/06/02 13:55:31  5-MIN KDBQ 061955Z 25012KT 9SM CLR 07/01 A2998 1020 67 300 250/12 RMK AO2 SLP161 T00670011
94908KDBQ DBQ20021106140009211/06/02 14:00:31  5-MIN KDBQ 062000Z 24012KT 8SM CLR 07/01 A2997 1030 67 300 240/12 RMK AO2
94908KDBQ DBQ20021106140509211/06/02 14:05:31  5-MIN KDBQ 062005Z 25012KT 8SM CLR 07/01 A2997 1030 65 300 240/12 RMK AO2
94908KDBQ DBQ20021106141009211/06/02 14:10:31  5-MIN KDBQ 062010Z 27011KT 8SM CLR 07/01 A2997 1030 65 300 270/11 RMK AO2
94908KDBQ DBQ20021106141509211/06/02 14:15:31  5-MIN KDBQ 062015Z 26011KT 8SM CLR 07/01 A2997 1030 67 300 250/11 RMK AO2
94908KDBQ DBQ20021106142009211/06/02 14:20:31  5-MIN KDBQ 062020Z 23011KT 8SM CLR 07/01 A2997 1030 65 300 230/11 RMK AO2
94908KDBQ DBQ20021106142509211/06/02 14:25:31  5-MIN KDBQ 062025Z 27011KT 8SM CLR 07/01 A2997 1030 62 400 270/11 RMK AO2
94908KDBQ DBQ20021106143009211/06/02 14:30:31  5-MIN KDBQ 062030Z 26011KT 8SM CLR 07/01 A2997 1030 62 400 260/11 RMK AO2
94908KDBQ DBQ20021106143509211/06/02 14:35:31  5-MIN KDBQ 062035Z 26011KT 8SM CLR 07/01 A2997 1030 62 400 260/11 RMK AO2
94908KDBQ DBQ20021106144009211/06/02 14:40:31  5-MIN KDBQ 062040Z 25011KT 8SM CLR 07/01 A2997 1030 65 400 250/11 RMK AO2
94908KDBQ DBQ20021106144509211/06/02 14:45:31  5-MIN KDBQ 062045Z 24013KT 8SM CLR 07/01 A2997 1030 65 400 240/13 RMK AO2
94908KDBQ DBQ20021106145011511/06/02 14:50:31  5-MIN KDBQ 062050Z 24011KT 7SM CLR 07/01 A2997 1030 65 400 240/11 RMK AO2 SLP156 T00720011 50006
94908KDBQ DBQ20021106145511511/06/02 14:55:31  5-MIN KDBQ 062055Z 25010KT 7SM CLR 07/01 A2997 1040 65 400 250/10 RMK AO2 SLP155 T00720011 56012
94908KDBQ DBQ20021106150009211/06/02 15:00:31  5-MIN KDBQ 062100Z 25011KT 7SM CLR 07/01 A2998 1030 65 400 250/11 RMK AO2
94908KDBQ DBQ20021106150509211/06/02 15:05:31  5-MIN KDBQ 062105Z 25012KT 7SM CLR 07/01 A2998 1020 65 400 250/12 RMK AO2
94908KDBQ DBQ20021106151009211/06/02 15:10:31  5-MIN KDBQ 062110Z 25012KT 7SM CLR 07/01 A2998 1020 65 400 250/12 RMK AO2
94908KDBQ DBQ20021106151509811/06/02 15:15:31  5-MIN KDBQ 062115Z 27014G17KT 7SM CLR 07/01 A2998 1020 65 400 270/14G17 RMK AO2
94908KDBQ DBQ20021106152009811/06/02 15:20:31  5-MIN KDBQ 062120Z 25010G17KT 7SM CLR 07/01 A2998 1020 65 400 250/10G17 RMK AO2
94908KDBQ DBQ20021106152509211/06/02 15:25:31  5-MIN KDBQ 062125Z 26011KT 7SM CLR 07/01 A2999 1010 65 400 260/11 RMK AO2
94908KDBQ DBQ20021106153009211/06/02 15:30:31  5-MIN KDBQ 062130Z 26011KT 7SM CLR 07/01 A2999 1010 65 400 260/11 RMK AO2
94908KDBQ DBQ20021106153509211/06/02 15:35:31  5-MIN KDBQ 062135Z 25010KT 7SM CLR 07/01 A2999 1010 65 400 250/10 RMK AO2
94908KDBQ DBQ20021106154009211/06/02 15:40:31  5-MIN KDBQ 062140Z 26009KT 7SM CLR 07/01 A3000 1010 65 400 260/09 RMK AO2
94908KDBQ DBQ20021106154509211/06/02 15:45:31  5-MIN KDBQ 062145Z 27009KT 7SM CLR 07/01 A3000 1010 65 400 270/09 RMK AO2
94908KDBQ DBQ20021106155010911/06/02 15:50:31  5-MIN KDBQ 062150Z 26010KT 7SM CLR 07/01 A3000 1010 65 400 260/10 RMK AO2 SLP167 T00720011
94908KDBQ DBQ20021106155510911/06/02 15:55:31  5-MIN KDBQ 062155Z 27010KT 7SM CLR 07/01 A3000 1000 65 300 260/10 RMK AO2 SLP167 T00720011
94908KDBQ DBQ20021106160009211/06/02 16:00:31  5-MIN KDBQ 062200Z 26009KT 7SM CLR 07/01 A3000 1000 67 300 260/09 RMK AO2
94908KDBQ DBQ20021106160509211/06/02 16:05:31  5-MIN KDBQ 062205Z 26009KT 7SM CLR 07/01 A3000 1000 67 300 260/09 RMK AO2
94908KDBQ DBQ20021106161009211/06/02 16:10:31  5-MIN KDBQ 062210Z 25008KT 7SM CLR 07/01 A3000 1000 67 300 240/08 RMK AO2
94908KDBQ DBQ20021106161509211/06/02 16:15:31  5-MIN KDBQ 062215Z 25006KT 7SM CLR 07/01 A3000 1000 67 300 250/06 RMK AO2
94908KDBQ DBQ20021106162009211/06/02 16:20:31  5-MIN KDBQ 062220Z 25006KT 7SM CLR 06/01 A3000 1000 70 200 250/06 RMK AO2
94908KDBQ DBQ20021106162509211/06/02 16:25:31  5-MIN KDBQ 062225Z 24006KT 7SM CLR 06/01 A3000 1000 73 100 240/06 RMK AO2
94908KDBQ DBQ20021106163009211/06/02 16:30:31  5-MIN KDBQ 062230Z 24006KT 7SM CLR 06/01 A3001 1000 73 100 240/06 RMK AO2
94908KDBQ DBQ20021106163509211/06/02 16:35:31  5-MIN KDBQ 062235Z 24007KT 7SM CLR 05/01 A3001 1000 76 100 240/07 RMK AO2
94908KDBQ DBQ20021106164009211/06/02 16:40:31  5-MIN KDBQ 062240Z 23005KT 7SM CLR 05/01 A3001 1000 76 100 230/05 RMK AO2
94908KDBQ DBQ20021106164509511/06/02 16:45:31  5-MIN KDBQ 062245Z 23005KT 6SM HZ CLR 05/01 A3001 1000 76 100 230/05 RMK AO2
94908KDBQ DBQ20021106165011211/06/02 16:50:31  5-MIN KDBQ 062250Z 23005KT 6SM HZ CLR 05/01 A3001 1000 76 100 230/05 RMK AO2 SLP170 T00500011
94908KDBQ DBQ20021106165511011/06/02 16:55:31  5-MIN KDBQ 062255Z 22005KT 6SM HZ CLR 04/01 A3000 1000 79 0 220/05 RMK AO2 SLP169 T00440011
94908KDBQ DBQ20021106170009311/06/02 17:00:31  5-MIN KDBQ 062300Z 21005KT 6SM HZ CLR 04/01 A3000 1000 76 0 210/05 RMK AO2
94908KDBQ DBQ20021106170509611/06/02 17:05:31  5-MIN KDBQ 062305Z 20005KT 6SM HZ CLR 03/01 A3000 1010 82 -100 200/05 RMK AO2
94908KDBQ DBQ20021106171009311/06/02 17:10:31  5-MIN KDBQ 062310Z 20006KT 7SM CLR 03/01 A3000 1000 82 -100 200/06 RMK AO2
94908KDBQ DBQ20021106171509311/06/02 17:15:31  5-MIN KDBQ 062315Z 21006KT 7SM CLR 03/01 A3001 1000 82 -100 210/06 RMK AO2
94908KDBQ DBQ20021106172009311/06/02 17:20:31  5-MIN KDBQ 062320Z 21004KT 7SM CLR 03/00 A3000 1000 82 -200 210/04 RMK AO2
94908KDBQ DBQ20021106172509311/06/02 17:25:31  5-MIN KDBQ 062325Z 21004KT 7SM CLR 03/01 A3001 1000 82 -100 210/04 RMK AO2
94908KDBQ DBQ20021106173009311/06/02 17:30:31  5-MIN KDBQ 062330Z 22005KT 7SM CLR 03/00 A3001 1000 82 -200 220/05 RMK AO2
94908KDBQ DBQ20021106173509311/06/02 17:35:31  5-MIN KDBQ 062335Z 21006KT 7SM CLR 02/00 A3001 1000 85 -200 210/06 RMK AO2
94908KDBQ DBQ20021106174009311/06/02 17:40:31  5-MIN KDBQ 062340Z 21005KT 7SM CLR 02/00 A3001 1000 85 -200 210/05 RMK AO2
94908KDBQ DBQ20021106174509211/06/02 17:45:31  5-MIN KDBQ 062345Z 21005KT 7SM CLR 02/00 A3001 990 85 -200 210/05 RMK AO2
94908KDBQ DBQ20021106175012711/06/02 17:50:31  5-MIN KDBQ 062350Z 22006KT 7SM CLR 03/00 A3001 990 82 -200 220/06 RMK AO2 SLP173 T00280000 10072 20022 56012
94908KDBQ DBQ20021106175512711/06/02 17:55:31  5-MIN KDBQ 062355Z 23006KT 7SM CLR 02/00 A3002 990 85 -200 230/06 RMK AO2 SLP174 T00220000 10072 20022 51017
94908KDBQ DBQ20021106180009211/06/02 18:00:31  5-MIN KDBQ 070000Z 24006KT 7SM CLR 02/00 A3002 990 85 -200 240/06 RMK AO2
94908KDBQ DBQ20021106180509211/06/02 18:05:31  5-MIN KDBQ 070005Z 25006KT 7SM CLR 02/00 A3002 980 85 -200 250/06 RMK AO2
94908KDBQ DBQ20021106181009211/06/02 18:10:31  5-MIN KDBQ 070010Z 25007KT 7SM CLR 02/00 A3003 980 85 -200 250/07 RMK AO2
94908KDBQ DBQ20021106181509211/06/02 18:15:31  5-MIN KDBQ 070015Z 25008KT 7SM CLR 03/01 A3003 980 82 -100 250/08 RMK AO2
94908KDBQ DBQ20021106182009211/06/02 18:20:31  5-MIN KDBQ 070020Z 25007KT 7SM CLR 03/01 A3003 980 85 -200 250/07 RMK AO2
94908KDBQ DBQ20021106182509211/06/02 18:25:31  5-MIN KDBQ 070025Z 25007KT 7SM CLR 03/01 A3003 980 85 -200 250/07 RMK AO2
94908KDBQ DBQ20021106183009211/06/02 18:30:31  5-MIN KDBQ 070030Z 26008KT 7SM CLR 03/01 A3003 970 85 -200 260/08 RMK AO2
94908KDBQ DBQ20021106183509211/06/02 18:35:31  5-MIN KDBQ 070035Z 26008KT 7SM CLR 03/01 A3004 970 82 -100 260/08 RMK AO2
94908KDBQ DBQ20021106184009211/06/02 18:40:31  5-MIN KDBQ 070040Z 26008KT 8SM CLR 03/01 A3004 970 82 -100 260/08 RMK AO2
94908KDBQ DBQ20021106184509211/06/02 18:45:31  5-MIN KDBQ 070045Z 27008KT 8SM CLR 03/01 A3004 970 82 -100 270/08 RMK AO2
94908KDBQ DBQ20021106185010911/06/02 18:50:31  5-MIN KDBQ 070050Z 27008KT 8SM CLR 03/01 A3005 960 82 -100 270/08 RMK AO2 SLP185 T00330006
94908KDBQ DBQ20021106185510911/06/02 18:55:31  5-MIN KDBQ 070055Z 27008KT 8SM CLR 03/01 A3005 960 82 -100 270/08 RMK AO2 SLP184 T00330006
94908KDBQ DBQ20021106190009211/06/02 19:00:31  5-MIN KDBQ 070100Z 27007KT 8SM CLR 03/01 A3004 960 82 -100 270/07 RMK AO2
94908KDBQ DBQ20021106190509211/06/02 19:05:31  5-MIN KDBQ 070105Z 28007KT 8SM CLR 03/01 A3004 970 82 -100 280/07 RMK AO2
94908KDBQ DBQ20021106191009211/06/02 19:10:31  5-MIN KDBQ 070110Z 28006KT 8SM CLR 03/01 A3004 970 82 -100 280/06 RMK AO2
94908KDBQ DBQ20021106191509211/06/02 19:15:31  5-MIN KDBQ 070115Z 28006KT 8SM CLR 03/01 A3004 960 82 -100 280/06 RMK AO2
94908KDBQ DBQ20021106192009211/06/02 19:20:31  5-MIN KDBQ 070120Z 28006KT 8SM CLR 03/01 A3004 960 82 -100 280/06 RMK AO2
94908KDBQ DBQ20021106192509211/06/02 19:25:31  5-MIN KDBQ 070125Z 28007KT 8SM CLR 03/01 A3005 960 82 -100 280/07 RMK AO2
94908KDBQ DBQ20021106193009211/06/02 19:30:31  5-MIN KDBQ 070130Z 29008KT 8SM CLR 03/01 A3005 960 82 -100 290/08 RMK AO2
94908KDBQ DBQ20021106193509211/06/02 19:35:31  5-MIN KDBQ 070135Z 29008KT 9SM CLR 03/01 A3005 960 82 -100 290/08 RMK AO2
94908KDBQ DBQ20021106194009211/06/02 19:40:31  5-MIN KDBQ 070140Z 29008KT 9SM CLR 03/01 A3005 960 82 -100 290/08 RMK AO2
94908KDBQ DBQ20021106194509211/06/02 19:45:31  5-MIN KDBQ 070145Z 29008KT 9SM CLR 03/01 A3005 960 82 -100 290/08 RMK AO2
94908KDBQ DBQ20021106195010911/06/02 19:50:31  5-MIN KDBQ 070150Z 29008KT 9SM CLR 03/01 A3005 960 82 -100 290/08 RMK AO2 SLP185 T00330006
94908KDBQ DBQ20021106195510911/06/02 19:55:31  5-MIN KDBQ 070155Z 29007KT 9SM CLR 03/01 A3005 960 82 -100 290/07 RMK AO2 SLP186 T00330006
94908KDBQ DBQ20021106200009211/06/02 20:00:31  5-MIN KDBQ 070200Z 29007KT 9SM CLR 03/01 A3005 960 82 -100 290/07 RMK AO2
94908KDBQ DBQ20021106200510211/06/02 20:05:31  5-MIN KDBQ 070205Z AUTO 29007KT 9SM CLR 03/01 A3005 960 82 -100 290/07 RMK AO2 TSNO
94908KDBQ DBQ20021106201010211/06/02 20:10:31  5-MIN KDBQ 070210Z AUTO 29007KT 9SM CLR 03/01 A3006 950 85 -200 290/07 RMK AO2 TSNO
94908KDBQ DBQ20021106201510211/06/02 20:15:31  5-MIN KDBQ 070215Z AUTO 29008KT 9SM CLR 03/00 A3006 950 82 -200 290/08 RMK AO2 TSNO
94908KDBQ DBQ20021106202010211/06/02 20:20:31  5-MIN KDBQ 070220Z AUTO 29007KT 9SM CLR 03/00 A3006 950 82 -200 290/07 RMK AO2 TSNO
94908KDBQ DBQ20021106202510211/06/02 20:25:31  5-MIN KDBQ 070225Z AUTO 29008KT 9SM CLR 03/00 A3006 950 82 -200 290/08 RMK AO2 TSNO
94908KDBQ DBQ20021106203010211/06/02 20:30:31  5-MIN KDBQ 070230Z AUTO 29008KT 9SM CLR 03/00 A3006 950 82 -200 290/08 RMK AO2 TSNO
94908KDBQ DBQ20021106203510211/06/02 20:35:31  5-MIN KDBQ 070235Z AUTO 29008KT 9SM CLR 03/00 A3007 940 82 -200 290/08 RMK AO2 TSNO
94908KDBQ DBQ20021106204010211/06/02 20:40:31  5-MIN KDBQ 070240Z AUTO 30009KT 9SM CLR 03/00 A3007 940 82 -200 300/09 RMK AO2 TSNO
94908KDBQ DBQ20021106204510211/06/02 20:45:31  5-MIN KDBQ 070245Z AUTO 31008KT 9SM CLR 03/00 A3007 940 79 -200 310/08 RMK AO2 TSNO
94908KDBQ DBQ20021106205012611/06/02 20:50:31  5-MIN KDBQ 070250Z AUTO 31009KT 10SM CLR 03/00 A3008 930 79 -200 310/09 RMK AO2 SLP195 T00330000 51017 TSNO
94908KDBQ DBQ20021106205512611/06/02 20:55:31  5-MIN KDBQ 070255Z AUTO 31009KT 10SM CLR 03/00 A3008 930 79 -200 310/09 RMK AO2 SLP195 T00330000 51020 TSNO
94908KDBQ DBQ20021106210010311/06/02 21:00:31  5-MIN KDBQ 070300Z AUTO 31010KT 10SM CLR 04/00 A3008 940 76 -100 310/10 RMK AO2 TSNO
94908KDBQ DBQ20021106210510311/06/02 21:05:31  5-MIN KDBQ 070305Z AUTO 31008KT 10SM CLR 03/00 A3007 940 79 -200 310/08 RMK AO2 TSNO
94908KDBQ DBQ20021106211010311/06/02 21:10:31  5-MIN KDBQ 070310Z AUTO 32008KT 10SM CLR 03/00 A3007 940 82 -200 320/08 RMK AO2 TSNO
94908KDBQ DBQ20021106211510311/06/02 21:15:31  5-MIN KDBQ 070315Z AUTO 32007KT 10SM CLR 03/00 A3007 940 82 -200 320/07 RMK AO2 TSNO
94908KDBQ DBQ20021106212010411/06/02 21:20:31  5-MIN KDBQ 070320Z AUTO 32008KT 10SM CLR 03/M01 A3007 940 79 -200 320/08 RMK AO2 TSNO
94908KDBQ DBQ20021106212510311/06/02 21:25:31  5-MIN KDBQ 070325Z AUTO 32007KT 9SM CLR 03/M01 A3007 940 79 -200 320/07 RMK AO2 TSNO
94908KDBQ DBQ20021106213010311/06/02 21:30:31  5-MIN KDBQ 070330Z AUTO 32008KT 9SM CLR 03/M01 A3007 940 79 -200 320/08 RMK AO2 TSNO
94908KDBQ DBQ20021106213510311/06/02 21:35:31  5-MIN KDBQ 070335Z AUTO 32008KT 9SM CLR 02/M01 A3007 940 82 -300 320/08 RMK AO2 TSNO
94908KDBQ DBQ20021106214010311/06/02 21:40:31  5-MIN KDBQ 070340Z AUTO 31008KT 9SM CLR 02/M01 A3008 940 82 -300 310/08 RMK AO2 TSNO
94908KDBQ DBQ20021106214510311/06/02 21:45:31  5-MIN KDBQ 070345Z AUTO 30008KT 9SM CLR 02/M01 A3008 930 82 -300 300/08 RMK AO2 TSNO
94908KDBQ DBQ20021106215012011/06/02 21:50:31  5-MIN KDBQ 070350Z AUTO 30007KT 9SM CLR 02/M01 A3008 930 85 -400 300/07 RMK AO2 SLP196 T00171006 TSNO
94908KDBQ DBQ20021106215512011/06/02 21:55:31  5-MIN KDBQ 070355Z AUTO 30007KT 9SM CLR 02/M01 A3008 930 85 -400 300/07 RMK AO2 SLP197 T00171006 TSNO
94908KDBQ DBQ20021106220010311/06/02 22:00:31  5-MIN KDBQ 070400Z AUTO 31008KT 9SM CLR 01/M01 A3009 930 85 -500 310/08 RMK AO2 TSNO
94908KDBQ DBQ20021106220510311/06/02 22:05:31  5-MIN KDBQ 070405Z AUTO 32008KT 8SM CLR 02/M01 A3009 920 82 -400 310/08 RMK AO2 TSNO
94908KDBQ DBQ20021106221010311/06/02 22:10:31  5-MIN KDBQ 070410Z AUTO 32008KT 8SM CLR 02/M01 A3009 920 85 -400 320/08 RMK AO2 TSNO
94908KDBQ DBQ20021106221510311/06/02 22:15:31  5-MIN KDBQ 070415Z AUTO 32009KT 8SM CLR 02/M01 A3009 920 82 -300 320/09 RMK AO2 TSNO
94908KDBQ DBQ20021106222010311/06/02 22:20:31  5-MIN KDBQ 070420Z AUTO 33009KT 8SM CLR 02/M01 A3009 920 82 -300 330/09 RMK AO2 TSNO
94908KDBQ DBQ20021106222510311/06/02 22:25:31  5-MIN KDBQ 070425Z AUTO 33009KT 8SM CLR 02/M01 A3009 920 82 -300 330/09 RMK AO2 TSNO
94908KDBQ DBQ20021106223010311/06/02 22:30:31  5-MIN KDBQ 070430Z AUTO 33010KT 8SM CLR 02/M01 A3009 920 82 -300 330/10 RMK AO2 TSNO
94908KDBQ DBQ20021106223510311/06/02 22:35:31  5-MIN KDBQ 070435Z AUTO 33009KT 8SM CLR 02/M01 A3009 920 82 -300 330/09 RMK AO2 TSNO
94908KDBQ DBQ20021106224010311/06/02 22:40:31  5-MIN KDBQ 070440Z AUTO 33009KT 8SM CLR 02/M01 A3010 920 82 -300 330/09 RMK AO2 TSNO
94908KDBQ DBQ20021106224510311/06/02 22:45:31  5-MIN KDBQ 070445Z AUTO 33009KT 8SM CLR 02/M01 A3010 920 85 -400 330/09 RMK AO2 TSNO
94908KDBQ DBQ20021106225012011/06/02 22:50:31  5-MIN KDBQ 070450Z AUTO 34009KT 7SM CLR 02/M01 A3010 920 85 -400 330/09 RMK AO2 SLP202 T00171006 TSNO
94908KDBQ DBQ20021106225512011/06/02 22:55:31  5-MIN KDBQ 070455Z AUTO 33009KT 7SM CLR 02/M01 A3010 910 85 -400 330/09 RMK AO2 SLP202 T00171006 TSNO
94908KDBQ DBQ20021106230010311/06/02 23:00:31  5-MIN KDBQ 070500Z AUTO 33009KT 7SM CLR 02/M01 A3010 910 82 -300 330/09 RMK AO2 TSNO
94908KDBQ DBQ20021106230510311/06/02 23:05:31  5-MIN KDBQ 070505Z AUTO 33009KT 7SM CLR 02/M01 A3010 910 85 -400 330/09 RMK AO2 TSNO
94908KDBQ DBQ20021106231010311/06/02 23:10:31  5-MIN KDBQ 070510Z AUTO 33009KT 7SM CLR 02/M01 A3010 910 85 -400 330/09 RMK AO2 TSNO
94908KDBQ DBQ20021106231510311/06/02 23:15:31  5-MIN KDBQ 070515Z AUTO 33009KT 7SM CLR 02/M01 A3010 910 85 -400 330/09 RMK AO2 TSNO
94908KDBQ DBQ20021106232010311/06/02 23:20:31  5-MIN KDBQ 070520Z AUTO 33009KT 7SM CLR 02/M01 A3010 910 85 -400 330/09 RMK AO2 TSNO
94908KDBQ DBQ20021106232510311/06/02 23:25:31  5-MIN KDBQ 070525Z AUTO 33008KT 7SM CLR 02/M01 A3010 910 85 -400 330/08 RMK AO2 TSNO
94908KDBQ DBQ20021106233010311/06/02 23:30:31  5-MIN KDBQ 070530Z AUTO 34007KT 7SM CLR 01/M01 A3010 910 89 -500 330/07 RMK AO2 TSNO
94908KDBQ DBQ20021106233510611/06/02 23:35:31  5-MIN KDBQ 070535Z AUTO 33006KT 6SM BR CLR 01/M01 A3011 910 89 -500 330/06 RMK AO2 TSNO
94908KDBQ DBQ20021106234010611/06/02 23:40:31  5-MIN KDBQ 070540Z AUTO 35003KT 6SM BR CLR 01/M01 A3011 910 89 -500 350/03 RMK AO2 TSNO
94908KDBQ DBQ20021106234510611/06/02 23:45:31  5-MIN KDBQ 070545Z AUTO 33006KT 6SM BR CLR 01/M01 A3011 900 89 -500 330/06 RMK AO2 TSNO
94908KDBQ DBQ20021106235015211/06/02 23:50:31  5-MIN KDBQ 070550Z AUTO 33007KT 6SM BR CLR M01/M02 A3011 900 92 -700 330/07 RMK AO2 SLP207 T10061017 10039 21006 400721006 51020 TSNO
94908KDBQ DBQ20021106235515111/06/02 23:55:31  5-MIN KDBQ 070555Z AUTO 33006KT 6SM BR CLR 00/M01 A3011 910 92 -600 330/06 RMK AO2 SLP207 T00001011 10039 21006 400721006 53010 TSNO
94908KDBQ DBQ20021107000010611/07/02 00:00:31  5-MIN KDBQ 070600Z AUTO 34005KT 6SM BR CLR 00/M02 A3011 900 88 -600 330/05 RMK AO2 TSNO
94908KDBQ DBQ20021107000510611/07/02 00:05:31  5-MIN KDBQ 070605Z AUTO 34005KT 6SM BR CLR 00/M01 A3011 900 92 -600 340/05 RMK AO2 TSNO
94908KDBQ DBQ20021107001010611/07/02 00:10:31  5-MIN KDBQ 070610Z AUTO 33006KT 6SM BR CLR 01/M01 A3011 900 89 -600 330/06 RMK AO2 TSNO
94908KDBQ DBQ20021107001510611/07/02 00:15:31  5-MIN KDBQ 070615Z AUTO 35004KT 6SM BR CLR 01/M01 A3011 900 89 -600 350/04 RMK AO2 TSNO
94908KDBQ DBQ20021107002010611/07/02 00:20:31  5-MIN KDBQ 070620Z AUTO 36004KT 6SM BR CLR 01/M01 A3011 900 85 -500 360/04 RMK AO2 TSNO
94908KDBQ DBQ20021107002510611/07/02 00:25:31  5-MIN KDBQ 070625Z AUTO 01003KT 6SM BR CLR 02/M01 A3011 910 85 -400 010/03 RMK AO2 TSNO
94908KDBQ DBQ20021107003010611/07/02 00:30:31  5-MIN KDBQ 070630Z AUTO 00000KT 6SM BR CLR 01/M01 A3011 910 89 -500 000/00 RMK AO2 TSNO
94908KDBQ DBQ20021107003510711/07/02 00:35:31  5-MIN KDBQ 070635Z AUTO 00000KT 6SM BR CLR M01/M02 A3011 910 92 -700 000/00 RMK AO2 TSNO
94908KDBQ DBQ20021107004010711/07/02 00:40:31  5-MIN KDBQ 070640Z AUTO 00000KT 5SM BR CLR M01/M02 A3011 910 92 -700 000/00 RMK AO2 TSNO
94908KDBQ DBQ20021107004510611/07/02 00:45:31  5-MIN KDBQ 070645Z AUTO 00000KT 5SM BR CLR 00/M02 A3011 910 88 -600 000/00 RMK AO2 TSNO
94908KDBQ DBQ20021107005012411/07/02 00:50:31  5-MIN KDBQ 070650Z AUTO 00000KT 5SM BR CLR M01/M02 A3011 910 88 -700 000/00 RMK AO2 SLP205 T10061022 TSNO
94908KDBQ DBQ20021107005512411/07/02 00:55:31  5-MIN KDBQ 070655Z AUTO 00000KT 5SM BR CLR M01/M02 A3011 900 92 -800 000/00 RMK AO2 SLP206 T10111022 TSNO
94908KDBQ DBQ20021107010010711/07/02 01:00:31  5-MIN KDBQ 070700Z AUTO 00000KT 5SM BR CLR M01/M03 A3011 900 88 -800 000/00 RMK AO2 TSNO
94908KDBQ DBQ20021107010510711/07/02 01:05:31  5-MIN KDBQ 070705Z AUTO 00000KT 4SM BR CLR M02/M03 A3011 900 92 -800 000/00 RMK AO2 TSNO
94908KDBQ DBQ20021107011010711/07/02 01:10:31  5-MIN KDBQ 070710Z AUTO 00000KT 4SM BR CLR M02/M02 A3011 900 96 -800 000/00 RMK AO2 TSNO
94908KDBQ DBQ20021107011510711/07/02 01:15:31  5-MIN KDBQ 070715Z AUTO 00000KT 4SM BR CLR M02/M03 A3011 900 92 -800 000/00 RMK AO2 TSNO
94908KDBQ DBQ20021107012010711/07/02 01:20:31  5-MIN KDBQ 070720Z AUTO 00000KT 4SM BR CLR M02/M03 A3011 900 92 -800 000/00 RMK AO2 TSNO
94908KDBQ DBQ20021107012510711/07/02 01:25:31  5-MIN KDBQ 070725Z AUTO 00000KT 4SM BR CLR M01/M02 A3011 900 92 -800 000/00 RMK AO2 TSNO
94908KDBQ DBQ20021107013010711/07/02 01:30:31  5-MIN KDBQ 070730Z AUTO 00000KT 4SM BR CLR M02/M03 A3011 900 92 -800 000/00 RMK AO2 TSNO
94908KDBQ DBQ20021107013510711/07/02 01:35:31  5-MIN KDBQ 070735Z AUTO 00000KT 4SM BR CLR M02/M03 A3011 900 92 -800 000/00 RMK AO2 TSNO
94908KDBQ DBQ20021107014010711/07/02 01:40:31  5-MIN KDBQ 070740Z AUTO 00000KT 4SM BR CLR M02/M03 A3011 900 92 -800 000/00 RMK AO2 TSNO
94908KDBQ DBQ20021107014510711/07/02 01:45:31  5-MIN KDBQ 070745Z AUTO 00000KT 4SM BR CLR M02/M03 A3011 900 92 -800 000/00 RMK AO2 TSNO
94908KDBQ DBQ20021107015012411/07/02 01:50:31  5-MIN KDBQ 070750Z AUTO 00000KT 4SM BR CLR M02/M03 A3010 910 92 -800 000/00 RMK AO2 SLP204 T10171028 TSNO
94908KDBQ DBQ20021107015512411/07/02 01:55:31  5-MIN KDBQ 070755Z AUTO 00000KT 4SM BR CLR M02/M02 A3010 910 96 -800 000/00 RMK AO2 SLP203 T10171022 TSNO
94908KDBQ DBQ20021107020010811/07/02 02:00:31  5-MIN KDBQ 070800Z AUTO 17003KT 4SM BR CLR M03/M04 A3010 910 92 -1000 160/03 RMK AO2 TSNO
94908KDBQ DBQ20021107020510811/07/02 02:05:31  5-MIN KDBQ 070805Z AUTO 19004KT 4SM BR CLR M03/M04 A3010 920 92 -1000 190/04 RMK AO2 TSNO
94908KDBQ DBQ20021107021010811/07/02 02:10:31  5-MIN KDBQ 070810Z AUTO 21004KT 4SM BR CLR M03/M04 A3010 910 92 -1000 210/04 RMK AO2 TSNO
94908KDBQ DBQ20021107021510811/07/02 02:15:31  5-MIN KDBQ 070815Z AUTO 23004KT 4SM BR CLR M03/M04 A3010 910 92 -1000 230/04 RMK AO2 TSNO
94908KDBQ DBQ20021107022010811/07/02 02:20:31  5-MIN KDBQ 070820Z AUTO 23004KT 4SM BR CLR M03/M04 A3011 910 92 -1000 230/04 RMK AO2 TSNO
94908KDBQ DBQ20021107022510811/07/02 02:25:31  5-MIN KDBQ 070825Z AUTO 22003KT 4SM BR CLR M03/M04 A3011 910 92 -1000 210/03 RMK AO2 TSNO
94908KDBQ DBQ20021107023010811/07/02 02:30:31  5-MIN KDBQ 070830Z AUTO 21004KT 4SM BR CLR M03/M04 A3010 910 92 -1000 210/04 RMK AO2 TSNO
94908KDBQ DBQ20021107023510811/07/02 02:35:31  5-MIN KDBQ 070835Z AUTO 20004KT 4SM BR CLR M03/M04 A3010 910 92 -1000 200/04 RMK AO2 TSNO
94908KDBQ DBQ20021107024010811/07/02 02:40:31  5-MIN KDBQ 070840Z AUTO 21003KT 3SM BR CLR M03/M04 A3010 910 92 -1000 200/03 RMK AO2 TSNO
94908KDBQ DBQ20021107024510811/07/02 02:45:31  5-MIN KDBQ 070845Z AUTO 00000KT 3SM BR CLR M03/M04 A3010 910 92 -1000 000/00 RMK AO2 TSNO
94908KDBQ DBQ20021107025013111/07/02 02:50:31  5-MIN KDBQ 070850Z AUTO 00000KT 3SM BR CLR M03/M03 A3010 910 96 -1000 000/00 RMK AO2 SLP203 T10281033 53010 TSNO
94908KDBQ DBQ20021107025513011/07/02 02:55:31  5-MIN KDBQ 070855Z AUTO 18003KT 3SM BR CLR M02/M03 A3010 920 92 -900 180/03 RMK AO2 SLP201 T10221033 58004 TSNO
94908KDBQ DBQ20021107030010711/07/02 03:00:31  5-MIN KDBQ 070900Z AUTO 17003KT 3SM BR CLR M03/M03 A3009 920 96 -900 170/03 RMK AO2 TSNO
94908KDBQ DBQ20021107030510811/07/02 03:05:31  5-MIN KDBQ 070905Z AUTO 18003KT 3SM BR CLR M03/M04 A3009 920 96 -1000 180/03 RMK AO2 TSNO
94908KDBQ DBQ20021107031010811/07/02 03:10:31  5-MIN KDBQ 070910Z AUTO 19003KT 3SM BR CLR M03/M04 A3009 920 92 -1000 190/03 RMK AO2 TSNO
94908KDBQ DBQ20021107031510711/07/02 03:15:31  5-MIN KDBQ 070915Z AUTO 00000KT 3SM BR CLR M03/M04 A3009 920 92 -900 000/00 RMK AO2 TSNO
94908KDBQ DBQ20021107032010811/07/02 03:20:31  5-MIN KDBQ 070920Z AUTO 00000KT 3SM BR CLR M04/M05 A3009 920 92 -1100 000/00 RMK AO2 TSNO
94908KDBQ DBQ20021107032510811/07/02 03:25:31  5-MIN KDBQ 070925Z AUTO 19003KT 3SM BR CLR M03/M04 A3009 920 92 -1000 190/03 RMK AO2 TSNO
94908KDBQ DBQ20021107033010811/07/02 03:30:31  5-MIN KDBQ 070930Z AUTO 22003KT 3SM BR CLR M03/M04 A3010 920 92 -1000 220/03 RMK AO2 TSNO
94908KDBQ DBQ20021107033510811/07/02 03:35:31  5-MIN KDBQ 070935Z AUTO 22003KT 3SM BR CLR M03/M04 A3010 920 92 -1000 220/03 RMK AO2 TSNO
94908KDBQ DBQ20021107034010811/07/02 03:40:31  5-MIN KDBQ 070940Z AUTO 00000KT 3SM BR CLR M04/M04 A3009 920 96 -1100 000/00 RMK AO2 TSNO
94908KDBQ DBQ20021107034510711/07/02 03:45:31  5-MIN KDBQ 070945Z AUTO 00000KT 3SM BR CLR M03/M04 A3009 920 92 -900 000/00 RMK AO2 TSNO
94908KDBQ DBQ20021107035012511/07/02 03:50:31  5-MIN KDBQ 070950Z AUTO 00000KT 3SM BR CLR M03/M04 A3009 920 96 -1000 000/00 RMK AO2 SLP199 T10331039 TSNO
94908KDBQ DBQ20021107035512511/07/02 03:55:31  5-MIN KDBQ 070955Z AUTO 00000KT 3SM BR CLR M03/M04 A3009 920 92 -1000 000/00 RMK AO2 SLP199 T10331044 TSNO
94908KDBQ DBQ20021107040010811/07/02 04:00:31  5-MIN KDBQ 071000Z AUTO 00000KT 3SM BR CLR M04/M05 A3009 920 92 -1100 000/00 RMK AO2 TSNO
94908KDBQ DBQ20021107040510811/07/02 04:05:31  5-MIN KDBQ 071005Z AUTO 00000KT 3SM BR CLR M04/M05 A3009 920 92 -1100 000/00 RMK AO2 TSNO
94908KDBQ DBQ20021107041010811/07/02 04:10:31  5-MIN KDBQ 071010Z AUTO 00000KT 4SM BR CLR M03/M04 A3009 920 92 -1000 000/00 RMK AO2 TSNO
94908KDBQ DBQ20021107041510811/07/02 04:15:31  5-MIN KDBQ 071015Z AUTO 00000KT 3SM BR CLR M03/M04 A3009 930 92 -1000 000/00 RMK AO2 TSNO
94908KDBQ DBQ20021107042010811/07/02 04:20:31  5-MIN KDBQ 071020Z AUTO 00000KT 3SM BR CLR M03/M04 A3008 930 96 -1000 000/00 RMK AO2 TSNO
94908KDBQ DBQ20021107042510811/07/02 04:25:31  5-MIN KDBQ 071025Z AUTO 19003KT 4SM BR CLR M04/M04 A3008 930 96 -1100 190/03 RMK AO2 TSNO
94908KDBQ DBQ20021107043010811/07/02 04:30:31  5-MIN KDBQ 071030Z AUTO 00000KT 4SM BR CLR M04/M05 A3008 930 92 -1100 000/00 RMK AO2 TSNO
94908KDBQ DBQ20021107043510811/07/02 04:35:31  5-MIN KDBQ 071035Z AUTO 00000KT 4SM BR CLR M04/M05 A3008 930 92 -1100 000/00 RMK AO2 TSNO
94908KDBQ DBQ20021107044010811/07/02 04:40:31  5-MIN KDBQ 071040Z AUTO 00000KT 4SM BR CLR M03/M04 A3008 930 92 -1000 000/00 RMK AO2 TSNO
94908KDBQ DBQ20021107044510811/07/02 04:45:31  5-MIN KDBQ 071045Z AUTO 00000KT 4SM BR CLR M04/M05 A3008 930 92 -1100 000/00 RMK AO2 TSNO
94908KDBQ DBQ20021107045012511/07/02 04:50:31  5-MIN KDBQ 071050Z AUTO 00000KT 4SM BR CLR M04/M05 A3008 930 92 -1100 000/00 RMK AO2 SLP197 T10391050 TSNO
94908KDBQ DBQ20021107045512511/07/02 04:55:31  5-MIN KDBQ 071055Z AUTO 00000KT 4SM BR CLR M04/M05 A3008 930 96 -1100 000/00 RMK AO2 SLP198 T10441050 TSNO
94908KDBQ DBQ20021107050010811/07/02 05:00:31  5-MIN KDBQ 071100Z AUTO 00000KT 4SM BR CLR M04/M05 A3007 940 92 -1100 000/00 RMK AO2 TSNO
94908KDBQ DBQ20021107050510811/07/02 05:05:31  5-MIN KDBQ 071105Z AUTO 00000KT 4SM BR CLR M03/M04 A3008 930 92 -1000 000/00 RMK AO2 TSNO
94908KDBQ DBQ20021107051010811/07/02 05:10:31  5-MIN KDBQ 071110Z AUTO 00000KT 4SM BR CLR M03/M04 A3007 940 96 -1000 000/00 RMK AO2 TSNO
94908KDBQ DBQ20021107051510711/07/02 05:15:31  5-MIN KDBQ 071115Z AUTO 17004KT 4SM BR CLR M03/M04 A3007 940 92 -900 160/04 RMK AO2 TSNO
94908KDBQ DBQ20021107052010711/07/02 05:20:31  5-MIN KDBQ 071120Z AUTO 16005KT 4SM BR CLR M03/M04 A3007 940 92 -900 160/05 RMK AO2 TSNO
94908KDBQ DBQ20021107052510811/07/02 05:25:31  5-MIN KDBQ 071125Z AUTO 16006KT 4SM BR CLR M04/M05 A3007 940 92 -1100 160/06 RMK AO2 TSNO
94908KDBQ DBQ20021107053010811/07/02 05:30:31  5-MIN KDBQ 071130Z AUTO 18006KT 4SM BR CLR M04/M05 A3007 940 92 -1100 170/06 RMK AO2 TSNO
94908KDBQ DBQ20021107053510811/07/02 05:35:31  5-MIN KDBQ 071135Z AUTO 18006KT 4SM BR CLR M03/M04 A3006 950 92 -1000 180/06 RMK AO2 TSNO
94908KDBQ DBQ20021107054010711/07/02 05:40:31  5-MIN KDBQ 071140Z AUTO 19007KT 4SM BR CLR M03/M04 A3006 950 88 -900 190/07 RMK AO2 TSNO
94908KDBQ DBQ20021107054510711/07/02 05:45:31  5-MIN KDBQ 071145Z AUTO 18006KT 4SM BR CLR M03/M04 A3006 950 92 -900 180/06 RMK AO2 TSNO
94908KDBQ DBQ20021107055013211/07/02 05:50:31  5-MIN KDBQ 071150Z 18007KT 4SM BR CLR M02/M03 A3005 950 92 -800 180/07 RMK AO2 SLP189 T10221033 10017 21044 58004
94908KDBQ DBQ20021107055513211/07/02 05:55:31  5-MIN KDBQ 071155Z 18007KT 4SM BR CLR M02/M03 A3005 960 92 -800 180/07 RMK AO2 SLP188 T10171028 10017 21044 58015
94908KDBQ DBQ20021107060009711/07/02 06:00:31  5-MIN KDBQ 071200Z 17008KT 3SM BR CLR M01/M02 A3005 960 92 -700 170/08 RMK AO2
94908KDBQ DBQ20021107060509711/07/02 06:05:31  5-MIN KDBQ 071205Z 17007KT 4SM BR CLR M01/M02 A3004 960 92 -700 170/07 RMK AO2
94908KDBQ DBQ20021107061009711/07/02 06:10:31  5-MIN KDBQ 071210Z 17007KT 4SM BR CLR M01/M02 A3004 970 92 -700 170/07 RMK AO2
94908KDBQ DBQ20021107061509711/07/02 06:15:31  5-MIN KDBQ 071215Z 18007KT 4SM BR CLR M01/M02 A3004 970 92 -700 180/07 RMK AO2
94908KDBQ DBQ20021107062009711/07/02 06:20:31  5-MIN KDBQ 071220Z 17008KT 4SM BR CLR M01/M02 A3004 970 92 -700 170/08 RMK AO2
94908KDBQ DBQ20021107062509711/07/02 06:25:31  5-MIN KDBQ 071225Z 17008KT 4SM BR CLR M01/M02 A3004 970 92 -700 170/08 RMK AO2
94908KDBQ DBQ20021107063009711/07/02 06:30:31  5-MIN KDBQ 071230Z 18009KT 4SM BR CLR M01/M02 A3003 980 96 -700 180/09 RMK AO2
94908KDBQ DBQ20021107063509711/07/02 06:35:31  5-MIN KDBQ 071235Z 18010KT 4SM BR CLR M01/M02 A3003 980 92 -600 180/10 RMK AO2
94908KDBQ DBQ20021107064009711/07/02 06:40:31  5-MIN KDBQ 071240Z 17011KT 3SM BR CLR M01/M01 A3003 980 96 -600 170/11 RMK AO2
94908KDBQ DBQ20021107064509611/07/02 06:45:31  5-MIN KDBQ 071245Z 17010KT 3SM BR CLR 00/M01 A3002 980 92 -500 170/10 RMK AO2
94908KDBQ DBQ20021107065011711/07/02 06:50:31  5-MIN KDBQ 071250Z 17010KT 2 1/2SM BR CLR 00/M01 A3002 980 92 -500 170/10 RMK AO2 SLP177 T00001011
94908KDBQ DBQ20021107065511311/07/02 06:55:31  5-MIN KDBQ 071255Z 17012KT 3SM BR CLR 00/M01 A3002 990 92 -500 160/12 RMK AO2 SLP175 T00001011
94908KDBQ DBQ20021107070009611/07/02 07:00:31  5-MIN KDBQ 071300Z 18011KT 3SM BR CLR 00/M01 A3002 990 92 -500 180/11 RMK AO2
94908KDBQ DBQ20021107070509611/07/02 07:05:31  5-MIN KDBQ 071305Z 18011KT 3SM BR CLR 00/M01 A3001 990 92 -500 180/11 RMK AO2
94908KDBQ DBQ20021107071009611/07/02 07:10:31  5-MIN KDBQ 071310Z 18010KT 3SM BR CLR 00/M01 A3001 990 92 -500 180/10 RMK AO2
94908KDBQ DBQ20021107071509611/07/02 07:15:31  5-MIN KDBQ 071315Z 18011KT 3SM BR CLR 01/M01 A3001 990 89 -400 180/11 RMK AO2
94908KDBQ DBQ20021107072009611/07/02 07:20:31  5-MIN KDBQ 071320Z 19010KT 3SM BR CLR 01/M01 A3002 990 89 -400 190/10 RMK AO2
94908KDBQ DBQ20021107072509611/07/02 07:25:31  5-MIN KDBQ 071325Z 18011KT 3SM BR CLR 01/M01 A3002 980 89 -400 180/11 RMK AO2
94908KDBQ DBQ20021107073009611/07/02 07:30:31  5-MIN KDBQ 071330Z 18010KT 3SM BR CLR 01/M01 A3002 980 89 -500 180/10 RMK AO2
94908KDBQ DBQ20021107073509611/07/02 07:35:31  5-MIN KDBQ 071335Z 18011KT 3SM BR CLR 01/M01 A3003 980 89 -500 180/11 RMK AO2
94908KDBQ DBQ20021107074009611/07/02 07:40:31  5-MIN KDBQ 071340Z 19007KT 3SM BR CLR 01/M01 A3003 980 89 -500 190/07 RMK AO2
94908KDBQ DBQ20021107074509611/07/02 07:45:31  5-MIN KDBQ 071345Z 19009KT 3SM BR CLR 01/M01 A3003 980 92 -500 190/09 RMK AO2
94908KDBQ DBQ20021107075011311/07/02 07:50:31  5-MIN KDBQ 071350Z 18009KT 3SM BR CLR 01/M01 A3003 980 92 -500 180/09 RMK AO2 SLP178 T00061006
94908KDBQ DBQ20021107075511311/07/02 07:55:31  5-MIN KDBQ 071355Z 18010KT 3SM BR CLR 01/M01 A3003 980 89 -400 180/10 RMK AO2 SLP177 T00111006
94908KDBQ DBQ20021107080009611/07/02 08:00:31  5-MIN KDBQ 071400Z 18010KT 3SM BR CLR 01/M01 A3002 980 89 -400 180/10 RMK AO2
94908KDBQ DBQ20021107080509511/07/02 08:05:31  5-MIN KDBQ 071405Z 18011KT 3SM BR CLR 01/00 A3002 980 92 -400 180/11 RMK AO2
94908KDBQ DBQ20021107081009511/07/02 08:10:31  5-MIN KDBQ 071410Z 18011KT 3SM BR CLR 01/00 A3002 980 92 -400 180/11 RMK AO2
94908KDBQ DBQ20021107081509511/07/02 08:15:31  5-MIN KDBQ 071415Z 18011KT 3SM BR CLR 02/00 A3002 990 89 -300 180/11 RMK AO2
94908KDBQ DBQ20021107082009511/07/02 08:20:31  5-MIN KDBQ 071420Z 18010KT 3SM BR CLR 02/00 A3002 990 89 -300 180/10 RMK AO2
94908KDBQ DBQ20021107082509511/07/02 08:25:31  5-MIN KDBQ 071425Z 18014KT 3SM BR CLR 02/01 A3002 980 92 -300 180/14 RMK AO2
94908KDBQ DBQ20021107083009511/07/02 08:30:31  5-MIN KDBQ 071430Z 18011KT 3SM BR CLR 02/01 A3002 980 89 -200 180/11 RMK AO2
94908KDBQ DBQ20021107083509511/07/02 08:35:31  5-MIN KDBQ 071435Z 18012KT 3SM BR CLR 02/01 A3002 990 89 -200 180/12 RMK AO2
94908KDBQ DBQ20021107084009511/07/02 08:40:31  5-MIN KDBQ 071440Z 18014KT 4SM BR CLR 02/01 A3002 990 89 -200 180/14 RMK AO2
94908KDBQ DBQ20021107084509511/07/02 08:45:31  5-MIN KDBQ 071445Z 18012KT 4SM BR CLR 02/01 A3002 990 89 -200 180/12 RMK AO2
94908KDBQ DBQ20021107085011811/07/02 08:50:31  5-MIN KDBQ 071450Z 18014KT 4SM BR CLR 02/01 A3002 990 89 -200 180/14 RMK AO2 SLP174 T00220006 58015
94908KDBQ DBQ20021107085511811/07/02 08:55:31  5-MIN KDBQ 071455Z 18013KT 4SM BR CLR 03/01 A3001 990 85 -200 180/13 RMK AO2 SLP172 T00280006 56013
94908KDBQ DBQ20021107090009611/07/02 09:00:31  5-MIN KDBQ 071500Z 18013KT 4SM BR CLR 03/01 A3001 1000 89 -200 180/13 RMK AO2
94908KDBQ DBQ20021107090509611/07/02 09:05:31  5-MIN KDBQ 071505Z 18012KT 4SM BR CLR 03/01 A3001 1000 85 -100 180/12 RMK AO2
94908KDBQ DBQ20021107091009611/07/02 09:10:31  5-MIN KDBQ 071510Z 19013KT 4SM BR CLR 03/01 A3001 1000 85 -100 190/13 RMK AO2
94908KDBQ DBQ20021107091509611/07/02 09:15:31  5-MIN KDBQ 071515Z 18012KT 4SM BR CLR 03/01 A3001 1000 85 -100 180/12 RMK AO2
94908KDBQ DBQ20021107092009311/07/02 09:20:31  5-MIN KDBQ 071520Z 18014KT 4SM HZ CLR 04/01 A3001 1000 82 0 180/14 RMK AO2
94908KDBQ DBQ20021107092509311/07/02 09:25:31  5-MIN KDBQ 071525Z 19013KT 5SM HZ CLR 04/01 A3001 1000 82 0 190/13 RMK AO2
94908KDBQ DBQ20021107093009311/07/02 09:30:31  5-MIN KDBQ 071530Z 19015KT 5SM HZ CLR 04/02 A3000 1000 82 0 190/15 RMK AO2
94908KDBQ DBQ20021107093509311/07/02 09:35:31  5-MIN KDBQ 071535Z 19015KT 5SM HZ CLR 04/01 A3000 1000 79 0 190/15 RMK AO2
94908KDBQ DBQ20021107094009511/07/02 09:40:31  5-MIN KDBQ 071540Z 18014KT 5SM HZ CLR 05/01 A3000 1010 76 100 180/14 RMK AO2
94908KDBQ DBQ20021107094509511/07/02 09:45:31  5-MIN KDBQ 071545Z 18013KT 6SM HZ CLR 06/02 A3000 1000 76 100 180/13 RMK AO2
94908KDBQ DBQ20021107095011211/07/02 09:50:31  5-MIN KDBQ 071550Z 19013KT 6SM HZ CLR 06/02 A3000 1000 76 100 190/13 RMK AO2 SLP168 T00560017
94908KDBQ DBQ20021107095511211/07/02 09:55:31  5-MIN KDBQ 071555Z 19014KT 6SM HZ CLR 06/02 A3000 1010 76 100 190/14 RMK AO2 SLP167 T00560017
94908KDBQ DBQ20021107100009511/07/02 10:00:31  5-MIN KDBQ 071600Z 19014KT 6SM HZ CLR 06/02 A3000 1010 73 200 190/14 RMK AO2
94908KDBQ DBQ20021107100509511/07/02 10:05:31  5-MIN KDBQ 071605Z 20013KT 6SM HZ CLR 06/02 A3000 1010 73 200 200/13 RMK AO2
94908KDBQ DBQ20021107101009211/07/02 10:10:31  5-MIN KDBQ 071610Z 20015KT 7SM CLR 07/02 A2999 1010 73 300 200/15 RMK AO2
94908KDBQ DBQ20021107101509211/07/02 10:15:31  5-MIN KDBQ 071615Z 20014KT 7SM CLR 07/02 A2999 1010 70 300 200/14 RMK AO2
94908KDBQ DBQ20021107102009211/07/02 10:20:31  5-MIN KDBQ 071620Z 19015KT 7SM CLR 07/02 A2999 1020 70 400 190/15 RMK AO2
94908KDBQ DBQ20021107102509211/07/02 10:25:31  5-MIN KDBQ 071625Z 20015KT 7SM CLR 08/02 A2998 1020 65 400 190/15 RMK AO2
94908KDBQ DBQ20021107103009211/07/02 10:30:31  5-MIN KDBQ 071630Z 19015KT 8SM CLR 08/02 A2998 1020 65 400 190/15 RMK AO2
94908KDBQ DBQ20021107103509211/07/02 10:35:31  5-MIN KDBQ 071635Z 20016KT 8SM CLR 08/02 A2998 1020 65 500 200/16 RMK AO2
94908KDBQ DBQ20021107104009211/07/02 10:40:31  5-MIN KDBQ 071640Z 20015KT 9SM CLR 08/02 A2998 1020 65 500 200/15 RMK AO2
94908KDBQ DBQ20021107104509211/07/02 10:45:31  5-MIN KDBQ 071645Z 20015KT 9SM CLR 09/02 A2998 1030 63 600 200/15 RMK AO2
94908KDBQ DBQ20021107105011511/07/02 10:50:31  5-MIN KDBQ 071650Z 20018G22KT 9SM CLR 09/02 A2997 1030 63 600 200/18G22 RMK AO2 SLP157 T00890022
94908KDBQ DBQ20021107105510911/07/02 10:55:31  5-MIN KDBQ 071655Z 20017KT 9SM CLR 09/02 A2997 1030 63 600 200/17 RMK AO2 SLP156 T00890022
94908KDBQ DBQ20021107110009311/07/02 11:00:31  5-MIN KDBQ 071700Z 21017KT 10SM CLR 09/02 A2997 1040 60 700 210/17 RMK AO2
94908KDBQ DBQ20021107110509311/07/02 11:05:31  5-MIN KDBQ 071705Z 21016KT 10SM CLR 09/02 A2996 1040 60 700 200/16 RMK AO2
94908KDBQ DBQ20021107111009311/07/02 11:10:31  5-MIN KDBQ 071710Z 20018KT 10SM CLR 10/02 A2996 1040 58 700 200/18 RMK AO2
94908KDBQ DBQ20021107111509911/07/02 11:15:31  5-MIN KDBQ 071715Z 20014G21KT 10SM CLR 10/02 A2996 1040 58 700 200/14G21 RMK AO2
94908KDBQ DBQ20021107112009311/07/02 11:20:31  5-MIN KDBQ 071720Z 20015KT 10SM CLR 10/03 A2996 1050 60 700 200/15 RMK AO2
94908KDBQ DBQ20021107112509311/07/02 11:25:31  5-MIN KDBQ 071725Z 19014KT 10SM CLR 11/02 A2996 1050 56 800 190/14 RMK AO2
94908KDBQ DBQ20021107113009311/07/02 11:30:31  5-MIN KDBQ 071730Z 20015KT 10SM CLR 11/03 A2995 1050 58 800 200/15 RMK AO2
94908KDBQ DBQ20021107113509311/07/02 11:35:31  5-MIN KDBQ 071735Z 20016KT 10SM CLR 11/02 A2995 1050 56 800 200/16 RMK AO2
94908KDBQ DBQ20021107114009311/07/02 11:40:31  5-MIN KDBQ 071740Z 19015KT 10SM CLR 11/02 A2994 1060 54 900 190/15 RMK AO2
94908KDBQ DBQ20021107114509311/07/02 11:45:31  5-MIN KDBQ 071745Z 20016KT 10SM CLR 11/02 A2994 1060 54 900 200/16 RMK AO2
94908KDBQ DBQ20021107115012911/07/02 11:50:31  5-MIN KDBQ 071750Z 19016KT 10SM CLR 12/03 A2993 1070 56 1000 190/16 RMK AO2 SLP143 T01170033 10117 21017 56013
94908KDBQ DBQ20021107115512911/07/02 11:55:31  5-MIN KDBQ 071755Z 20016KT 10SM CLR 12/03 A2993 1070 54 1000 190/16 RMK AO2 SLP141 T01170028 10117 21017 58028
94908KDBQ DBQ20021107120010111/07/02 12:00:31  5-MIN KDBQ 071800Z 20017KT 10SM CLR 12/02 A2992 1080 52 1000 200/17 RMK AO2 PRESFR
94908KDBQ DBQ20021107120509411/07/02 12:05:31  5-MIN KDBQ 071805Z 20015KT 10SM CLR 12/03 A2992 1080 52 1000 200/15 RMK AO2
94908KDBQ DBQ20021107121010111/07/02 12:10:31  5-MIN KDBQ 071810Z 20016KT 10SM CLR 12/03 A2991 1090 52 1100 200/16 RMK AO2 PRESFR
94908KDBQ DBQ20021107121509411/07/02 12:15:31  5-MIN KDBQ 071815Z 20016KT 10SM CLR 13/03 A2991 1090 50 1100 200/16 RMK AO2
94908KDBQ DBQ20021107122010111/07/02 12:20:31  5-MIN KDBQ 071820Z 21017KT 10SM CLR 13/03 A2990 1100 50 1100 210/17 RMK AO2 PRESFR
94908KDBQ DBQ20021107122509411/07/02 12:25:31  5-MIN KDBQ 071825Z 19017KT 10SM CLR 13/03 A2989 1100 50 1100 190/17 RMK AO2
94908KDBQ DBQ20021107123009411/07/02 12:30:31  5-MIN KDBQ 071830Z 20017KT 10SM CLR 13/03 A2989 1110 48 1200 200/17 RMK AO2
94908KDBQ DBQ20021107123510111/07/02 12:35:31  5-MIN KDBQ 071835Z 21016KT 10SM CLR 13/03 A2988 1120 48 1200 210/16 RMK AO2 PRESFR
94908KDBQ DBQ20021107124009411/07/02 12:40:31  5-MIN KDBQ 071840Z 20016KT 10SM CLR 13/03 A2988 1120 48 1200 200/16 RMK AO2
94908KDBQ DBQ20021107124510011/07/02 12:45:31  5-MIN KDBQ 071845Z 20016G22KT 10SM CLR 14/03 A2987 1120 47 1300 200/16G22 RMK AO2
94908KDBQ DBQ20021107125011111/07/02 12:50:31  5-MIN KDBQ 071850Z 21018KT 10SM CLR 14/03 A2987 1130 47 1300 200/18 RMK AO2 SLP120 T01390028
94908KDBQ DBQ20021107125511111/07/02 12:55:31  5-MIN KDBQ 071855Z 21016KT 10SM CLR 14/03 A2986 1130 47 1300 200/16 RMK AO2 SLP118 T01390028
94908KDBQ DBQ20021107130009411/07/02 13:00:31  5-MIN KDBQ 071900Z 20018KT 10SM CLR 14/03 A2986 1140 47 1300 200/18 RMK AO2
94908KDBQ DBQ20021107130509411/07/02 13:05:31  5-MIN KDBQ 071905Z 20017KT 10SM CLR 14/03 A2985 1140 45 1400 200/17 RMK AO2
94908KDBQ DBQ20021107131009411/07/02 13:10:31  5-MIN KDBQ 071910Z 21018KT 10SM CLR 14/02 A2985 1140 43 1400 210/18 RMK AO2
94908KDBQ DBQ20021107131509411/07/02 13:15:31  5-MIN KDBQ 071915Z 21017KT 10SM CLR 14/03 A2985 1150 45 1400 210/17 RMK AO2
94908KDBQ DBQ20021107132009411/07/02 13:20:31  5-MIN KDBQ 071920Z 21016KT 10SM CLR 14/02 A2984 1150 43 1400 210/16 RMK AO2
94908KDBQ DBQ20021107132510011/07/02 13:25:31  5-MIN KDBQ 071925Z 20016G22KT 10SM CLR 15/02 A2984 1150 42 1500 200/16G22 RMK AO2
94908KDBQ DBQ20021107133010011/07/02 13:30:31  5-MIN KDBQ 071930Z 21018G24KT 10SM CLR 15/02 A2983 1160 42 1500 200/18G24 RMK AO2
94908KDBQ DBQ20021107133510011/07/02 13:35:31  5-MIN KDBQ 071935Z 21016G24KT 10SM CLR 15/02 A2983 1160 42 1500 210/16G24 RMK AO2
94908KDBQ DBQ20021107134010011/07/02 13:40:31  5-MIN KDBQ 071940Z 20017G23KT 10SM CLR 15/02 A2983 1160 42 1500 200/17G23 RMK AO2
94908KDBQ DBQ20021107134509411/07/02 13:45:31  5-MIN KDBQ 071945Z 20019KT 10SM CLR 15/02 A2983 1170 42 1500 200/19 RMK AO2
94908KDBQ DBQ20021107135011111/07/02 13:50:31  5-MIN KDBQ 071950Z 20018KT 10SM CLR 15/02 A2982 1170 42 1500 200/18 RMK AO2 SLP104 T01500022
94908KDBQ DBQ20021107135511111/07/02 13:55:31  5-MIN KDBQ 071955Z 20017KT 10SM CLR 15/02 A2982 1170 42 1500 200/17 RMK AO2 SLP103 T01500022
94908KDBQ DBQ20021107140009411/07/02 14:00:31  5-MIN KDBQ 072000Z 20018KT 10SM CLR 15/02 A2981 1180 42 1500 200/18 RMK AO2
94908KDBQ DBQ20021107140510011/07/02 14:05:31  5-MIN KDBQ 072005Z 21018G22KT 10SM CLR 16/02 A2981 1180 40 1600 210/18G22 RMK AO2
94908KDBQ DBQ20021107141010011/07/02 14:10:31  5-MIN KDBQ 072010Z 21016G23KT 10SM CLR 16/02 A2980 1190 40 1600 210/16G23 RMK AO2
94908KDBQ DBQ20021107141510011/07/02 14:15:31  5-MIN KDBQ 072015Z 20018G23KT 10SM CLR 16/02 A2980 1190 40 1600 200/18G23 RMK AO2
94908KDBQ DBQ20021107142010011/07/02 14:20:31  5-MIN KDBQ 072020Z 20018G22KT 10SM CLR 16/02 A2980 1190 40 1600 200/18G22 RMK AO2
94908KDBQ DBQ20021107142509411/07/02 14:25:31  5-MIN KDBQ 072025Z 20020KT 10SM CLR 16/02 A2980 1190 40 1600 200/20 RMK AO2
94908KDBQ DBQ20021107143009411/07/02 14:30:31  5-MIN KDBQ 072030Z 20019KT 10SM CLR 16/02 A2979 1200 40 1600 200/19 RMK AO2
94908KDBQ DBQ20021107143509411/07/02 14:35:31  5-MIN KDBQ 072035Z 20019KT 10SM CLR 16/02 A2979 1200 40 1600 200/19 RMK AO2
94908KDBQ DBQ20021107144010011/07/02 14:40:31  5-MIN KDBQ 072040Z 20018G24KT 10SM CLR 16/02 A2979 1200 40 1600 200/18G24 RMK AO2
94908KDBQ DBQ20021107144509411/07/02 14:45:31  5-MIN KDBQ 072045Z 20019KT 10SM CLR 16/03 A2979 1200 42 1600 200/19 RMK AO2
94908KDBQ DBQ20021107145014111/07/02 14:50:31  5-MIN KDBQ 072050Z 20019G26KT 10SM CLR 16/03 A2978 1210 42 1600 200/19G26 RMK AO2 PK WND 21026/2049 SLP091 T01560028 58028
94908KDBQ DBQ20021107145514111/07/02 14:55:31  5-MIN KDBQ 072055Z 20018G26KT 10SM CLR 16/03 A2978 1210 42 1600 200/18G26 RMK AO2 PK WND 21026/2049 SLP091 T01560028 56047
94908KDBQ DBQ20021107150009411/07/02 15:00:31  5-MIN KDBQ 072100Z 21018KT 10SM CLR 16/03 A2978 1210 42 1600 210/18 RMK AO2
94908KDBQ DBQ20021107150510011/07/02 15:05:31  5-MIN KDBQ 072105Z 20020G24KT 10SM CLR 16/03 A2977 1210 42 1600 200/20G24 RMK AO2
94908KDBQ DBQ20021107151010011/07/02 15:10:31  5-MIN KDBQ 072110Z 20018G24KT 10SM CLR 16/03 A2977 1220 42 1600 200/18G24 RMK AO2
94908KDBQ DBQ20021107151510011/07/02 15:15:31  5-MIN KDBQ 072115Z 20018G24KT 10SM CLR 16/03 A2977 1220 42 1600 200/18G24 RMK AO2
94908KDBQ DBQ20021107152010011/07/02 15:20:31  5-MIN KDBQ 072120Z 20015G23KT 10SM CLR 16/03 A2977 1220 42 1600 200/15G23 RMK AO2
94908KDBQ DBQ20021107152509411/07/02 15:25:31  5-MIN KDBQ 072125Z 20015KT 10SM CLR 16/03 A2977 1220 42 1600 200/15 RMK AO2
94908KDBQ DBQ20021107153010011/07/02 15:30:31  5-MIN KDBQ 072130Z 20020G23KT 10SM CLR 16/03 A2976 1230 42 1600 200/20G23 RMK AO2
94908KDBQ DBQ20021107153509411/07/02 15:35:31  5-MIN KDBQ 072135Z 20016KT 10SM CLR 16/03 A2976 1230 42 1600 200/16 RMK AO2
94908KDBQ DBQ20021107154009411/07/02 15:40:31  5-MIN KDBQ 072140Z 20019KT 10SM CLR 16/03 A2976 1230 42 1600 200/19 RMK AO2
94908KDBQ DBQ20021107154509411/07/02 15:45:31  5-MIN KDBQ 072145Z 20018KT 10SM CLR 15/03 A2976 1230 43 1600 200/18 RMK AO2
94908KDBQ DBQ20021107155011111/07/02 15:50:31  5-MIN KDBQ 072150Z 20016KT 10SM CLR 15/03 A2976 1230 43 1600 200/16 RMK AO2 SLP084 T01500028
94908KDBQ DBQ20021107155511111/07/02 15:55:31  5-MIN KDBQ 072155Z 20017KT 10SM CLR 15/03 A2975 1230 43 1600 200/17 RMK AO2 SLP082 T01500028
94908KDBQ DBQ20021107160009411/07/02 16:00:31  5-MIN KDBQ 072200Z 20017KT 10SM CLR 15/03 A2976 1230 43 1600 200/17 RMK AO2
94908KDBQ DBQ20021107160509411/07/02 16:05:31  5-MIN KDBQ 072205Z 20017KT 10SM CLR 15/03 A2975 1230 43 1600 200/17 RMK AO2
94908KDBQ DBQ20021107161009411/07/02 16:10:31  5-MIN KDBQ 072210Z 20015KT 10SM CLR 14/03 A2975 1230 45 1500 200/15 RMK AO2
94908KDBQ DBQ20021107161509411/07/02 16:15:31  5-MIN KDBQ 072215Z 20014KT 10SM CLR 14/03 A2975 1240 45 1500 200/14 RMK AO2
94908KDBQ DBQ20021107162009411/07/02 16:20:31  5-MIN KDBQ 072220Z 20015KT 10SM CLR 14/03 A2975 1240 47 1400 190/15 RMK AO2
94908KDBQ DBQ20021107162509411/07/02 16:25:31  5-MIN KDBQ 072225Z 20016KT 10SM CLR 14/03 A2975 1240 47 1400 200/16 RMK AO2
94908KDBQ DBQ20021107163009411/07/02 16:30:31  5-MIN KDBQ 072230Z 19016KT 10SM CLR 14/03 A2974 1240 47 1400 190/16 RMK AO2
94908KDBQ DBQ20021107163509411/07/02 16:35:31  5-MIN KDBQ 072235Z 19014KT 10SM CLR 14/03 A2974 1240 47 1400 190/14 RMK AO2
94908KDBQ DBQ20021107164009411/07/02 16:40:31  5-MIN KDBQ 072240Z 19012KT 10SM CLR 13/03 A2974 1240 48 1400 190/12 RMK AO2
94908KDBQ DBQ20021107164509411/07/02 16:45:31  5-MIN KDBQ 072245Z 19012KT 10SM CLR 13/03 A2974 1240 48 1400 190/12 RMK AO2
94908KDBQ DBQ20021107165011111/07/02 16:50:31  5-MIN KDBQ 072250Z 19013KT 10SM CLR 13/03 A2974 1250 50 1300 190/13 RMK AO2 SLP079 T01280028
94908KDBQ DBQ20021107165511111/07/02 16:55:31  5-MIN KDBQ 072255Z 19014KT 10SM CLR 13/03 A2974 1250 50 1300 190/14 RMK AO2 SLP077 T01280028
94908KDBQ DBQ20021107170009411/07/02 17:00:31  5-MIN KDBQ 072300Z 19014KT 10SM CLR 13/03 A2973 1250 50 1300 190/14 RMK AO2
94908KDBQ DBQ20021107170509411/07/02 17:05:31  5-MIN KDBQ 072305Z 19013KT 10SM CLR 13/03 A2973 1250 50 1300 190/13 RMK AO2
94908KDBQ DBQ20021107171009411/07/02 17:10:31  5-MIN KDBQ 072310Z 18012KT 10SM CLR 12/02 A2973 1260 50 1300 180/12 RMK AO2
94908KDBQ DBQ20021107171509411/07/02 17:15:31  5-MIN KDBQ 072315Z 18013KT 10SM CLR 12/03 A2973 1260 52 1300 180/13 RMK AO2
94908KDBQ DBQ20021107172009411/07/02 17:20:31  5-MIN KDBQ 072320Z 18013KT 10SM CLR 12/03 A2973 1260 52 1300 180/13 RMK AO2
94908KDBQ DBQ20021107172509411/07/02 17:25:31  5-MIN KDBQ 072325Z 18013KT 10SM CLR 12/03 A2973 1260 52 1300 180/13 RMK AO2
94908KDBQ DBQ20021107173009411/07/02 17:30:31  5-MIN KDBQ 072330Z 18013KT 10SM CLR 12/03 A2973 1260 54 1200 180/13 RMK AO2
94908KDBQ DBQ20021107173509411/07/02 17:35:31  5-MIN KDBQ 072335Z 18013KT 10SM CLR 12/03 A2973 1260 56 1200 180/13 RMK AO2
94908KDBQ DBQ20021107174009411/07/02 17:40:31  5-MIN KDBQ 072340Z 18014KT 10SM CLR 12/03 A2972 1260 56 1200 180/14 RMK AO2
94908KDBQ DBQ20021107174509411/07/02 17:45:31  5-MIN KDBQ 072345Z 18014KT 10SM CLR 12/03 A2972 1260 56 1200 180/14 RMK AO2
94908KDBQ DBQ20021107175012911/07/02 17:50:31  5-MIN KDBQ 072350Z 19014KT 10SM CLR 12/03 A2972 1260 56 1200 180/14 RMK AO2 SLP071 T01170033 10156 20117 56047
94908KDBQ DBQ20021107175512911/07/02 17:55:31  5-MIN KDBQ 072355Z 19015KT 10SM CLR 12/03 A2972 1270 56 1200 190/15 RMK AO2 SLP070 T01170033 10156 20117 56021
94908KDBQ DBQ20021107180009411/07/02 18:00:31  5-MIN KDBQ 080000Z 19015KT 10SM CLR 12/03 A2972 1270 56 1200 190/15 RMK AO2
94908KDBQ DBQ20021107180509411/07/02 18:05:31  5-MIN KDBQ 080005Z 19016KT 10SM CLR 12/03 A2972 1270 56 1200 190/16 RMK AO2
94908KDBQ DBQ20021107181009411/07/02 18:10:31  5-MIN KDBQ 080010Z 19016KT 10SM CLR 12/03 A2971 1270 56 1200 180/16 RMK AO2
94908KDBQ DBQ20021107181509411/07/02 18:15:31  5-MIN KDBQ 080015Z 19014KT 10SM CLR 12/03 A2971 1270 54 1200 190/14 RMK AO2
94908KDBQ DBQ20021107182009411/07/02 18:20:31  5-MIN KDBQ 080020Z 19015KT 10SM CLR 12/03 A2972 1270 54 1200 190/15 RMK AO2
94908KDBQ DBQ20021107182509411/07/02 18:25:31  5-MIN KDBQ 080025Z 19016KT 10SM CLR 12/03 A2972 1270 54 1200 190/16 RMK AO2
94908KDBQ DBQ20021107183009411/07/02 18:30:31  5-MIN KDBQ 080030Z 19016KT 10SM CLR 11/03 A2972 1270 56 1100 190/16 RMK AO2
94908KDBQ DBQ20021107183509411/07/02 18:35:31  5-MIN KDBQ 080035Z 20014KT 10SM CLR 11/03 A2972 1260 56 1100 190/14 RMK AO2
94908KDBQ DBQ20021107184009411/07/02 18:40:31  5-MIN KDBQ 080040Z 20014KT 10SM CLR 11/03 A2972 1260 56 1100 190/14 RMK AO2
94908KDBQ DBQ20021107184509411/07/02 18:45:31  5-MIN KDBQ 080045Z 20013KT 10SM CLR 11/03 A2973 1260 58 1100 200/13 RMK AO2
94908KDBQ DBQ20021107185011111/07/02 18:50:31  5-MIN KDBQ 080050Z 20013KT 10SM CLR 11/03 A2973 1260 58 1100 200/13 RMK AO2 SLP072 T01060028
94908KDBQ DBQ20021107185511111/07/02 18:55:31  5-MIN KDBQ 080055Z 20013KT 10SM CLR 11/03 A2972 1260 58 1100 190/13 RMK AO2 SLP071 T01060028
94908KDBQ DBQ20021107190009411/07/02 19:00:31  5-MIN KDBQ 080100Z 19013KT 10SM CLR 11/03 A2972 1260 58 1100 190/13 RMK AO2
94908KDBQ DBQ20021107190509411/07/02 19:05:31  5-MIN KDBQ 080105Z 19013KT 10SM CLR 10/03 A2972 1260 60 1000 190/13 RMK AO2
94908KDBQ DBQ20021107191009411/07/02 19:10:31  5-MIN KDBQ 080110Z 19012KT 10SM CLR 10/03 A2972 1260 63 1000 190/12 RMK AO2
94908KDBQ DBQ20021107191509411/07/02 19:15:31  5-MIN KDBQ 080115Z 19012KT 10SM CLR 10/03 A2972 1260 63 1000 190/12 RMK AO2
94908KDBQ DBQ20021107192009411/07/02 19:20:31  5-MIN KDBQ 080120Z 19012KT 10SM CLR 10/03 A2972 1260 63 1000 190/12 RMK AO2
94908KDBQ DBQ20021107192509411/07/02 19:25:31  5-MIN KDBQ 080125Z 19012KT 10SM CLR 10/03 A2972 1260 63 1000 190/12 RMK AO2
94908KDBQ DBQ20021107193009411/07/02 19:30:31  5-MIN KDBQ 080130Z 19012KT 10SM CLR 10/03 A2972 1270 63 1000 190/12 RMK AO2
94908KDBQ DBQ20021107193509411/07/02 19:35:31  5-MIN KDBQ 080135Z 19011KT 10SM CLR 10/03 A2972 1270 63 1000 190/11 RMK AO2
94908KDBQ DBQ20021107194009411/07/02 19:40:31  5-MIN KDBQ 080140Z 19012KT 10SM CLR 10/03 A2972 1270 63 1000 190/12 RMK AO2
94908KDBQ DBQ20021107194509411/07/02 19:45:31  5-MIN KDBQ 080145Z 19011KT 10SM CLR 10/03 A2971 1270 63 1000 190/11 RMK AO2
94908KDBQ DBQ20021107195011111/07/02 19:50:31  5-MIN KDBQ 080150Z 19011KT 10SM CLR 10/03 A2971 1270 63 1000 190/11 RMK AO2 SLP067 T01000033
94908KDBQ DBQ20021107195512111/07/02 19:55:31  5-MIN KDBQ 080155Z AUTO 19012KT 10SM CLR 11/04 A2971 1270 63 1100 190/12 RMK AO2 SLP067 T01060039 TSNO
94908KDBQ DBQ20021107200010411/07/02 20:00:31  5-MIN KDBQ 080200Z AUTO 19012KT 10SM CLR 11/04 A2971 1280 63 1100 190/12 RMK AO2 TSNO
94908KDBQ DBQ20021107200510411/07/02 20:05:31  5-MIN KDBQ 080205Z AUTO 19012KT 10SM CLR 11/04 A2970 1280 63 1100 190/12 RMK AO2 TSNO
94908KDBQ DBQ20021107201010411/07/02 20:10:31  5-MIN KDBQ 080210Z AUTO 19012KT 10SM CLR 11/04 A2970 1280 63 1100 190/12 RMK AO2 TSNO
94908KDBQ DBQ20021107201510411/07/02 20:15:31  5-MIN KDBQ 080215Z AUTO 19013KT 10SM CLR 11/04 A2970 1290 63 1100 190/13 RMK AO2 TSNO
94908KDBQ DBQ20021107202010411/07/02 20:20:31  5-MIN KDBQ 080220Z AUTO 19013KT 10SM CLR 11/04 A2969 1290 63 1100 190/13 RMK AO2 TSNO
94908KDBQ DBQ20021107202510411/07/02 20:25:31  5-MIN KDBQ 080225Z AUTO 19013KT 10SM CLR 11/04 A2970 1290 61 1200 190/13 RMK AO2 TSNO
94908KDBQ DBQ20021107203010411/07/02 20:30:31  5-MIN KDBQ 080230Z AUTO 20014KT 10SM CLR 11/04 A2969 1290 61 1200 190/14 RMK AO2 TSNO
94908KDBQ DBQ20021107203510411/07/02 20:35:31  5-MIN KDBQ 080235Z AUTO 20014KT 10SM CLR 11/04 A2969 1290 61 1200 190/14 RMK AO2 TSNO
94908KDBQ DBQ20021107204010411/07/02 20:40:31  5-MIN KDBQ 080240Z AUTO 20012KT 10SM CLR 11/04 A2969 1290 61 1200 200/12 RMK AO2 TSNO
94908KDBQ DBQ20021107204510411/07/02 20:45:31  5-MIN KDBQ 080245Z AUTO 20013KT 10SM CLR 11/04 A2969 1290 61 1200 200/13 RMK AO2 TSNO
94908KDBQ DBQ20021107205012711/07/02 20:50:31  5-MIN KDBQ 080250Z AUTO 20013KT 10SM CLR 11/04 A2969 1290 61 1200 200/13 RMK AO2 SLP061 T01110039 56021 TSNO
94908KDBQ DBQ20021107205512711/07/02 20:55:31  5-MIN KDBQ 080255Z AUTO 20012KT 10SM CLR 11/04 A2970 1290 63 1100 200/12 RMK AO2 SLP062 T01060039 58007 TSNO
94908KDBQ DBQ20021107210010411/07/02 21:00:31  5-MIN KDBQ 080300Z AUTO 20013KT 10SM CLR 11/04 A2969 1290 61 1200 200/13 RMK AO2 TSNO
94908KDBQ DBQ20021107210510411/07/02 21:05:31  5-MIN KDBQ 080305Z AUTO 20013KT 10SM CLR 11/04 A2969 1290 61 1200 190/13 RMK AO2 TSNO
94908KDBQ DBQ20021107211010411/07/02 21:10:31  5-MIN KDBQ 080310Z AUTO 19013KT 10SM CLR 11/04 A2968 1300 61 1200 190/13 RMK AO2 TSNO
94908KDBQ DBQ20021107211510411/07/02 21:15:31  5-MIN KDBQ 080315Z AUTO 19014KT 10SM CLR 11/04 A2968 1300 63 1100 190/14 RMK AO2 TSNO
94908KDBQ DBQ20021107212010411/07/02 21:20:31  5-MIN KDBQ 080320Z AUTO 19014KT 10SM CLR 11/04 A2968 1300 63 1100 190/14 RMK AO2 TSNO
94908KDBQ DBQ20021107212510411/07/02 21:25:31  5-MIN KDBQ 080325Z AUTO 19014KT 10SM CLR 11/04 A2968 1310 63 1100 190/14 RMK AO2 TSNO
94908KDBQ DBQ20021107213010411/07/02 21:30:31  5-MIN KDBQ 080330Z AUTO 20012KT 10SM CLR 11/04 A2968 1310 63 1100 200/12 RMK AO2 TSNO
94908KDBQ DBQ20021107213510411/07/02 21:35:31  5-MIN KDBQ 080335Z AUTO 20013KT 10SM CLR 11/04 A2968 1310 63 1100 200/13 RMK AO2 TSNO
94908KDBQ DBQ20021107214010411/07/02 21:40:31  5-MIN KDBQ 080340Z AUTO 20013KT 10SM CLR 10/04 A2968 1310 65 1100 200/13 RMK AO2 TSNO
94908KDBQ DBQ20021107214510411/07/02 21:45:31  5-MIN KDBQ 080345Z AUTO 20012KT 10SM CLR 10/04 A2967 1310 65 1100 200/12 RMK AO2 TSNO
94908KDBQ DBQ20021107215012111/07/02 21:50:31  5-MIN KDBQ 080350Z AUTO 20012KT 10SM CLR 10/04 A2967 1310 65 1100 200/12 RMK AO2 SLP053 T01000039 TSNO
94908KDBQ DBQ20021107215512111/07/02 21:55:31  5-MIN KDBQ 080355Z AUTO 20012KT 10SM CLR 10/04 A2967 1310 65 1100 200/12 RMK AO2 SLP052 T01000039 TSNO
94908KDBQ DBQ20021107220010411/07/02 22:00:31  5-MIN KDBQ 080400Z AUTO 20012KT 10SM CLR 10/04 A2967 1310 65 1100 200/12 RMK AO2 TSNO
94908KDBQ DBQ20021107220510411/07/02 22:05:31  5-MIN KDBQ 080405Z AUTO 20012KT 10SM CLR 09/04 A2967 1310 68 1000 200/12 RMK AO2 TSNO
94908KDBQ DBQ20021107221010411/07/02 22:10:31  5-MIN KDBQ 080410Z AUTO 20012KT 10SM CLR 09/04 A2967 1310 68 1000 200/12 RMK AO2 TSNO
94908KDBQ DBQ20021107221510411/07/02 22:15:31  5-MIN KDBQ 080415Z AUTO 19012KT 10SM CLR 09/04 A2967 1320 68 1000 190/12 RMK AO2 TSNO
94908KDBQ DBQ20021107222010411/07/02 22:20:31  5-MIN KDBQ 080420Z AUTO 20011KT 10SM CLR 09/04 A2967 1310 68 1000 200/11 RMK AO2 TSNO
94908KDBQ DBQ20021107222510411/07/02 22:25:31  5-MIN KDBQ 080425Z AUTO 20012KT 10SM CLR 09/04 A2967 1310 68 1000 200/12 RMK AO2 TSNO
94908KDBQ DBQ20021107223010411/07/02 22:30:31  5-MIN KDBQ 080430Z AUTO 20011KT 10SM CLR 09/04 A2967 1310 71 1000 200/11 RMK AO2 TSNO
94908KDBQ DBQ20021107223510411/07/02 22:35:31  5-MIN KDBQ 080435Z AUTO 20013KT 10SM CLR 09/04 A2967 1310 71 1000 200/13 RMK AO2 TSNO
94908KDBQ DBQ20021107224010411/07/02 22:40:31  5-MIN KDBQ 080440Z AUTO 20012KT 10SM CLR 09/03 A2966 1320 65 1000 200/12 RMK AO2 TSNO
94908KDBQ DBQ20021107224510411/07/02 22:45:31  5-MIN KDBQ 080445Z AUTO 20012KT 10SM CLR 09/03 A2966 1320 65 1000 200/12 RMK AO2 TSNO
94908KDBQ DBQ20021107225012111/07/02 22:50:31  5-MIN KDBQ 080450Z AUTO 20013KT 10SM CLR 09/03 A2966 1320 65 1000 200/13 RMK AO2 SLP048 T00940033 TSNO
94908KDBQ DBQ20021107225512111/07/02 22:55:31  5-MIN KDBQ 080455Z AUTO 20013KT 10SM CLR 09/03 A2966 1320 65 1000 200/13 RMK AO2 SLP046 T00940033 TSNO
94908KDBQ DBQ20021107230010411/07/02 23:00:31  5-MIN KDBQ 080500Z AUTO 20013KT 10SM CLR 09/03 A2966 1320 65 1000 200/13 RMK AO2 TSNO
94908KDBQ DBQ20021107230510411/07/02 23:05:31  5-MIN KDBQ 080505Z AUTO 20013KT 10SM CLR 09/03 A2965 1330 65 1000 200/13 RMK AO2 TSNO
94908KDBQ DBQ20021107231010411/07/02 23:10:31  5-MIN KDBQ 080510Z AUTO 20013KT 10SM CLR 09/03 A2965 1330 65 1000 200/13 RMK AO2 TSNO
94908KDBQ DBQ20021107231510411/07/02 23:15:31  5-MIN KDBQ 080515Z AUTO 20014KT 10SM CLR 09/03 A2965 1330 65 1000 200/14 RMK AO2 TSNO
94908KDBQ DBQ20021107232010411/07/02 23:20:31  5-MIN KDBQ 080520Z AUTO 20013KT 10SM CLR 09/04 A2965 1330 68 1000 200/13 RMK AO2 TSNO
94908KDBQ DBQ20021107232510411/07/02 23:25:31  5-MIN KDBQ 080525Z AUTO 20012KT 10SM CLR 09/04 A2965 1330 68 1000 200/12 RMK AO2 TSNO
94908KDBQ DBQ20021107233010411/07/02 23:30:31  5-MIN KDBQ 080530Z AUTO 20012KT 10SM CLR 09/03 A2965 1330 65 1000 200/12 RMK AO2 TSNO
94908KDBQ DBQ20021107233510411/07/02 23:35:31  5-MIN KDBQ 080535Z AUTO 20013KT 10SM CLR 09/03 A2965 1330 65 1000 200/13 RMK AO2 TSNO
94908KDBQ DBQ20021107234010411/07/02 23:40:31  5-MIN KDBQ 080540Z AUTO 20012KT 10SM CLR 09/04 A2965 1330 68 1000 200/12 RMK AO2 TSNO
94908KDBQ DBQ20021107234510411/07/02 23:45:31  5-MIN KDBQ 080545Z AUTO 21012KT 10SM CLR 09/04 A2965 1330 68 1000 210/12 RMK AO2 TSNO
94908KDBQ DBQ20021107235014911/07/02 23:50:31  5-MIN KDBQ 080550Z AUTO 21013KT 10SM CLR 10/04 A2965 1330 65 1100 210/13 RMK AO2 SLP043 T01000039 10117 20089 401561044 58007 TSNO
94908KDBQ DBQ20021107235514911/07/02 23:55:31  5-MIN KDBQ 080555Z AUTO 21014KT 10SM CLR 10/04 A2965 1330 65 1100 210/14 RMK AO2 SLP042 T01000039 10117 20089 401561044 56016 TSNO
94908KDBQ DBQ20021108000010411/08/02 00:00:31  5-MIN KDBQ 080600Z AUTO 21014KT 10SM CLR 10/04 A2965 1330 65 1100 210/14 RMK AO2 TSNO
94908KDBQ DBQ20021108000510411/08/02 00:05:31  5-MIN KDBQ 080605Z AUTO 21014KT 10SM CLR 10/04 A2964 1330 65 1100 210/14 RMK AO2 TSNO
94908KDBQ DBQ20021108001010411/08/02 00:10:31  5-MIN KDBQ 080610Z AUTO 21014KT 10SM CLR 10/04 A2964 1340 65 1100 210/14 RMK AO2 TSNO
94908KDBQ DBQ20021108001510411/08/02 00:15:31  5-MIN KDBQ 080615Z AUTO 21013KT 10SM CLR 10/04 A2964 1330 65 1100 210/13 RMK AO2 TSNO
94908KDBQ DBQ20021108002010411/08/02 00:20:31  5-MIN KDBQ 080620Z AUTO 21012KT 10SM CLR 09/03 A2964 1340 65 1000 210/12 RMK AO2 TSNO
94908KDBQ DBQ20021108002510411/08/02 00:25:31  5-MIN KDBQ 080625Z AUTO 21013KT 10SM CLR 09/03 A2964 1340 65 1000 210/13 RMK AO2 TSNO
94908KDBQ DBQ20021108003010411/08/02 00:30:31  5-MIN KDBQ 080630Z AUTO 20013KT 10SM CLR 09/03 A2965 1330 65 1000 200/13 RMK AO2 TSNO
94908KDBQ DBQ20021108003510411/08/02 00:35:31  5-MIN KDBQ 080635Z AUTO 20013KT 10SM CLR 09/03 A2964 1340 65 1000 200/13 RMK AO2 TSNO
94908KDBQ DBQ20021108004010411/08/02 00:40:31  5-MIN KDBQ 080640Z AUTO 20013KT 10SM CLR 09/03 A2964 1340 68 1000 200/13 RMK AO2 TSNO
94908KDBQ DBQ20021108004510411/08/02 00:45:31  5-MIN KDBQ 080645Z AUTO 20013KT 10SM CLR 09/03 A2964 1340 68 1000 200/13 RMK AO2 TSNO
94908KDBQ DBQ20021108005012111/08/02 00:50:31  5-MIN KDBQ 080650Z AUTO 20013KT 10SM CLR 09/03 A2964 1340 68 1000 200/13 RMK AO2 SLP038 T00890033 TSNO
94908KDBQ DBQ20021108005512111/08/02 00:55:31  5-MIN KDBQ 080655Z AUTO 20012KT 10SM CLR 09/03 A2964 1340 68 1000 200/12 RMK AO2 SLP038 T00890033 TSNO
94908KDBQ DBQ20021108010010311/08/02 01:00:31  5-MIN KDBQ 080700Z AUTO 20013KT 10SM CLR 08/03 A2964 1340 70 900 200/13 RMK AO2 TSNO
94908KDBQ DBQ20021108010510311/08/02 01:05:31  5-MIN KDBQ 080705Z AUTO 20013KT 10SM CLR 08/03 A2964 1340 70 900 200/13 RMK AO2 TSNO
94908KDBQ DBQ20021108011010311/08/02 01:10:31  5-MIN KDBQ 080710Z AUTO 20012KT 10SM CLR 08/03 A2964 1340 70 900 200/12 RMK AO2 TSNO
94908KDBQ DBQ20021108011510311/08/02 01:15:31  5-MIN KDBQ 080715Z AUTO 20013KT 10SM CLR 08/03 A2964 1340 70 900 200/13 RMK AO2 TSNO
94908KDBQ DBQ20021108012010311/08/02 01:20:31  5-MIN KDBQ 080720Z AUTO 20013KT 10SM CLR 08/03 A2964 1340 70 900 200/13 RMK AO2 TSNO
94908KDBQ DBQ20021108012510311/08/02 01:25:31  5-MIN KDBQ 080725Z AUTO 20013KT 10SM CLR 08/03 A2964 1340 70 900 200/13 RMK AO2 TSNO
94908KDBQ DBQ20021108013010311/08/02 01:30:31  5-MIN KDBQ 080730Z AUTO 20013KT 10SM CLR 08/03 A2964 1340 70 900 200/13 RMK AO2 TSNO
94908KDBQ DBQ20021108013510411/08/02 01:35:31  5-MIN KDBQ 080735Z AUTO 20013KT 10SM CLR 09/03 A2964 1340 68 1000 200/13 RMK AO2 TSNO
94908KDBQ DBQ20021108014010411/08/02 01:40:31  5-MIN KDBQ 080740Z AUTO 20014KT 10SM CLR 09/03 A2964 1340 68 1000 200/14 RMK AO2 TSNO
94908KDBQ DBQ20021108014510411/08/02 01:45:31  5-MIN KDBQ 080745Z AUTO 20013KT 10SM CLR 09/03 A2964 1340 68 1000 200/13 RMK AO2 TSNO
94908KDBQ DBQ20021108015012111/08/02 01:50:31  5-MIN KDBQ 080750Z AUTO 20013KT 10SM CLR 09/03 A2964 1340 68 1000 200/13 RMK AO2 SLP037 T00890033 TSNO
94908KDBQ DBQ20021108015512111/08/02 01:55:31  5-MIN KDBQ 080755Z AUTO 20014KT 10SM CLR 09/03 A2963 1340 68 1000 200/14 RMK AO2 SLP036 T00890033 TSNO
94908KDBQ DBQ20021108020010411/08/02 02:00:31  5-MIN KDBQ 080800Z AUTO 20014KT 10SM CLR 09/03 A2963 1340 68 1000 200/14 RMK AO2 TSNO
94908KDBQ DBQ20021108020510411/08/02 02:05:31  5-MIN KDBQ 080805Z AUTO 21014KT 10SM CLR 09/03 A2963 1340 65 1000 210/14 RMK AO2 TSNO
94908KDBQ DBQ20021108021010411/08/02 02:10:31  5-MIN KDBQ 080810Z AUTO 21014KT 10SM CLR 09/03 A2963 1340 65 1000 210/14 RMK AO2 TSNO
94908KDBQ DBQ20021108021510411/08/02 02:15:31  5-MIN KDBQ 080815Z AUTO 21014KT 10SM CLR 09/03 A2963 1340 65 1000 210/14 RMK AO2 TSNO
94908KDBQ DBQ20021108022010411/08/02 02:20:31  5-MIN KDBQ 080820Z AUTO 21015KT 10SM CLR 10/03 A2963 1350 63 1100 210/15 RMK AO2 TSNO
94908KDBQ DBQ20021108022510411/08/02 02:25:31  5-MIN KDBQ 080825Z AUTO 21015KT 10SM CLR 09/03 A2963 1350 65 1000 210/15 RMK AO2 TSNO
94908KDBQ DBQ20021108023010411/08/02 02:30:31  5-MIN KDBQ 080830Z AUTO 21016KT 10SM CLR 10/03 A2963 1350 63 1100 210/16 RMK AO2 TSNO
94908KDBQ DBQ20021108023510411/08/02 02:35:31  5-MIN KDBQ 080835Z AUTO 21015KT 10SM CLR 10/03 A2963 1350 63 1100 210/15 RMK AO2 TSNO
94908KDBQ DBQ20021108024010411/08/02 02:40:31  5-MIN KDBQ 080840Z AUTO 21016KT 10SM CLR 10/03 A2963 1350 63 1100 210/16 RMK AO2 TSNO
94908KDBQ DBQ20021108024510411/08/02 02:45:31  5-MIN KDBQ 080845Z AUTO 21015KT 10SM CLR 10/03 A2963 1350 63 1100 210/15 RMK AO2 TSNO
94908KDBQ DBQ20021108025013311/08/02 02:50:31  5-MIN KDBQ 080850Z AUTO 21015G20KT 10SM CLR 10/03 A2962 1350 63 1100 210/15G20 RMK AO2 SLP033 T01000033 56016 TSNO
94908KDBQ DBQ20021108025513311/08/02 02:55:31  5-MIN KDBQ 080855Z AUTO 21015G20KT 10SM CLR 10/03 A2962 1360 63 1100 210/15G20 RMK AO2 SLP032 T01000033 58008 TSNO
94908KDBQ DBQ20021108030010411/08/02 03:00:31  5-MIN KDBQ 080900Z AUTO 21013KT 10SM CLR 10/03 A2962 1360 63 1100 210/13 RMK AO2 TSNO
94908KDBQ DBQ20021108030510411/08/02 03:05:31  5-MIN KDBQ 080905Z AUTO 21015KT 10SM CLR 10/03 A2962 1360 63 1100 210/15 RMK AO2 TSNO
94908KDBQ DBQ20021108031010411/08/02 03:10:31  5-MIN KDBQ 080910Z AUTO 21014KT 10SM CLR 10/03 A2962 1360 63 1100 210/14 RMK AO2 TSNO
94908KDBQ DBQ20021108031510411/08/02 03:15:31  5-MIN KDBQ 080915Z AUTO 21015KT 10SM CLR 10/03 A2962 1360 63 1100 210/15 RMK AO2 TSNO
94908KDBQ DBQ20021108032010411/08/02 03:20:31  5-MIN KDBQ 080920Z AUTO 21013KT 10SM CLR 10/03 A2962 1360 63 1100 210/13 RMK AO2 TSNO
94908KDBQ DBQ20021108032510411/08/02 03:25:31  5-MIN KDBQ 080925Z AUTO 21013KT 10SM CLR 10/03 A2961 1360 63 1100 210/13 RMK AO2 TSNO
94908KDBQ DBQ20021108033010411/08/02 03:30:31  5-MIN KDBQ 080930Z AUTO 21014KT 10SM CLR 10/03 A2961 1360 63 1100 210/14 RMK AO2 TSNO
94908KDBQ DBQ20021108033510411/08/02 03:35:31  5-MIN KDBQ 080935Z AUTO 22014KT 10SM CLR 10/03 A2961 1360 63 1100 210/14 RMK AO2 TSNO
94908KDBQ DBQ20021108034010411/08/02 03:40:31  5-MIN KDBQ 080940Z AUTO 21014KT 10SM CLR 10/03 A2961 1360 63 1100 210/14 RMK AO2 TSNO
94908KDBQ DBQ20021108034510411/08/02 03:45:31  5-MIN KDBQ 080945Z AUTO 22016KT 10SM CLR 10/03 A2961 1360 63 1100 210/16 RMK AO2 TSNO
94908KDBQ DBQ20021108035012111/08/02 03:50:31  5-MIN KDBQ 080950Z AUTO 22014KT 10SM CLR 10/03 A2961 1370 63 1100 210/14 RMK AO2 SLP028 T01000033 TSNO
94908KDBQ DBQ20021108035512111/08/02 03:55:31  5-MIN KDBQ 080955Z AUTO 22013KT 10SM CLR 09/03 A2961 1370 65 1100 220/13 RMK AO2 SLP028 T00940033 TSNO
94908KDBQ DBQ20021108040010411/08/02 04:00:31  5-MIN KDBQ 081000Z AUTO 21014KT 10SM CLR 09/03 A2961 1360 65 1100 210/14 RMK AO2 TSNO
94908KDBQ DBQ20021108040510411/08/02 04:05:31  5-MIN KDBQ 081005Z AUTO 22012KT 10SM CLR 09/03 A2961 1360 65 1100 210/12 RMK AO2 TSNO
94908KDBQ DBQ20021108041010411/08/02 04:10:31  5-MIN KDBQ 081010Z AUTO 21014KT 10SM CLR 09/03 A2961 1360 65 1100 210/14 RMK AO2 TSNO
94908KDBQ DBQ20021108041510411/08/02 04:15:31  5-MIN KDBQ 081015Z AUTO 21014KT 10SM CLR 09/03 A2961 1370 65 1100 210/14 RMK AO2 TSNO
94908KDBQ DBQ20021108042010411/08/02 04:20:31  5-MIN KDBQ 081020Z AUTO 21013KT 10SM CLR 09/03 A2961 1370 65 1100 210/13 RMK AO2 TSNO
94908KDBQ DBQ20021108042510411/08/02 04:25:31  5-MIN KDBQ 081025Z AUTO 22012KT 10SM CLR 09/04 A2961 1370 68 1100 220/12 RMK AO2 TSNO
94908KDBQ DBQ20021108043010411/08/02 04:30:31  5-MIN KDBQ 081030Z AUTO 22013KT 10SM CLR 09/04 A2961 1370 68 1100 220/13 RMK AO2 TSNO
94908KDBQ DBQ20021108043510411/08/02 04:35:31  5-MIN KDBQ 081035Z AUTO 22013KT 10SM CLR 09/04 A2961 1370 68 1100 220/13 RMK AO2 TSNO
94908KDBQ DBQ20021108044010411/08/02 04:40:31  5-MIN KDBQ 081040Z AUTO 22013KT 10SM CLR 09/04 A2961 1370 68 1100 220/13 RMK AO2 TSNO
94908KDBQ DBQ20021108044510411/08/02 04:45:31  5-MIN KDBQ 081045Z AUTO 22013KT 10SM CLR 09/04 A2961 1370 68 1100 220/13 RMK AO2 TSNO
94908KDBQ DBQ20021108045012111/08/02 04:50:31  5-MIN KDBQ 081050Z AUTO 22012KT 10SM CLR 09/04 A2961 1370 71 1000 210/12 RMK AO2 SLP028 T00890039 TSNO
94908KDBQ DBQ20021108045512111/08/02 04:55:31  5-MIN KDBQ 081055Z AUTO 22012KT 10SM CLR 09/04 A2961 1370 71 1000 220/12 RMK AO2 SLP029 T00890039 TSNO
94908KDBQ DBQ20021108050010411/08/02 05:00:31  5-MIN KDBQ 081100Z AUTO 22012KT 10SM CLR 09/04 A2961 1370 71 1000 220/12 RMK AO2 TSNO
94908KDBQ DBQ20021108050510411/08/02 05:05:31  5-MIN KDBQ 081105Z AUTO 22011KT 10SM CLR 09/04 A2961 1360 71 1000 220/11 RMK AO2 TSNO
94908KDBQ DBQ20021108051010411/08/02 05:10:31  5-MIN KDBQ 081110Z AUTO 22011KT 10SM CLR 09/04 A2961 1370 71 1000 210/11 RMK AO2 TSNO
94908KDBQ DBQ20021108051510411/08/02 05:15:31  5-MIN KDBQ 081115Z AUTO 21010KT 10SM CLR 09/04 A2961 1370 71 1000 210/10 RMK AO2 TSNO
94908KDBQ DBQ20021108052010411/08/02 05:20:31  5-MIN KDBQ 081120Z AUTO 21012KT 10SM CLR 09/04 A2961 1370 71 1000 210/12 RMK AO2 TSNO
94908KDBQ DBQ20021108052510411/08/02 05:25:31  5-MIN KDBQ 081125Z AUTO 21013KT 10SM CLR 09/04 A2961 1370 71 1000 210/13 RMK AO2 TSNO
94908KDBQ DBQ20021108053010411/08/02 05:30:31  5-MIN KDBQ 081130Z AUTO 21012KT 10SM CLR 09/04 A2961 1370 71 1000 210/12 RMK AO2 TSNO
94908KDBQ DBQ20021108053510411/08/02 05:35:31  5-MIN KDBQ 081135Z AUTO 21013KT 10SM CLR 09/04 A2961 1370 71 1000 210/13 RMK AO2 TSNO
94908KDBQ DBQ20021108054010411/08/02 05:40:31  5-MIN KDBQ 081140Z AUTO 21012KT 10SM CLR 09/04 A2961 1370 71 1000 200/12 RMK AO2 TSNO
94908KDBQ DBQ20021108054510411/08/02 05:45:31  5-MIN KDBQ 081145Z AUTO 20013KT 10SM CLR 09/04 A2961 1370 71 1000 200/13 RMK AO2 TSNO
94908KDBQ DBQ20021108055013811/08/02 05:50:31  5-MIN KDBQ 081150Z AUTO 21013KT 10SM CLR 08/04 A2961 1370 73 900 200/13 RMK AO2 SLP029 T00830039 10100 20083 58008 TSNO
94908KDBQ DBQ20021108055512911/08/02 05:55:31  5-MIN KDBQ 081155Z 21013KT 10SM CLR 09/04 A2961 1370 71 1000 210/13 RMK AO2 SLP028 T00890039 10100 20083 56005
94908KDBQ DBQ20021108060009311/08/02 06:00:31  5-MIN KDBQ 081200Z 20012KT 10SM CLR 08/04 A2960 1370 73 900 200/12 RMK AO2
94908KDBQ DBQ20021108060509311/08/02 06:05:31  5-MIN KDBQ 081205Z 20012KT 10SM CLR 08/04 A2960 1370 73 900 200/12 RMK AO2
94908KDBQ DBQ20021108061009311/08/02 06:10:31  5-MIN KDBQ 081210Z 20012KT 10SM CLR 08/04 A2961 1370 73 900 200/12 RMK AO2
94908KDBQ DBQ20021108061509311/08/02 06:15:31  5-MIN KDBQ 081215Z 20011KT 10SM CLR 08/04 A2961 1370 73 900 200/11 RMK AO2
94908KDBQ DBQ20021108062009311/08/02 06:20:31  5-MIN KDBQ 081220Z 20011KT 10SM CLR 08/04 A2961 1370 76 900 200/11 RMK AO2
94908KDBQ DBQ20021108062509311/08/02 06:25:31  5-MIN KDBQ 081225Z 20011KT 10SM CLR 08/03 A2961 1370 73 900 200/11 RMK AO2
94908KDBQ DBQ20021108063009311/08/02 06:30:31  5-MIN KDBQ 081230Z 20011KT 10SM CLR 08/03 A2961 1370 73 900 200/11 RMK AO2
94908KDBQ DBQ20021108063509311/08/02 06:35:31  5-MIN KDBQ 081235Z 20011KT 10SM CLR 08/03 A2961 1370 73 900 190/11 RMK AO2
94908KDBQ DBQ20021108064009311/08/02 06:40:31  5-MIN KDBQ 081240Z 20012KT 10SM CLR 08/03 A2961 1370 73 900 200/12 RMK AO2
94908KDBQ DBQ20021108064509311/08/02 06:45:31  5-MIN KDBQ 081245Z 20010KT 10SM CLR 07/03 A2961 1370 76 800 200/10 RMK AO2
94908KDBQ DBQ20021108065011011/08/02 06:50:31  5-MIN KDBQ 081250Z 20011KT 10SM CLR 07/03 A2961 1370 76 800 200/11 RMK AO2 SLP029 T00720033
94908KDBQ DBQ20021108065511011/08/02 06:55:31  5-MIN KDBQ 081255Z 20012KT 10SM CLR 08/03 A2961 1370 73 900 200/12 RMK AO2 SLP028 T00780033
94908KDBQ DBQ20021108070009311/08/02 07:00:31  5-MIN KDBQ 081300Z 20011KT 10SM CLR 08/04 A2961 1370 76 900 200/11 RMK AO2
94908KDBQ DBQ20021108070509311/08/02 07:05:31  5-MIN KDBQ 081305Z 20010KT 10SM CLR 08/04 A2961 1370 76 900 200/10 RMK AO2
94908KDBQ DBQ20021108071009311/08/02 07:10:31  5-MIN KDBQ 081310Z 20010KT 10SM CLR 08/04 A2961 1370 73 900 200/10 RMK AO2
94908KDBQ DBQ20021108071509311/08/02 07:15:31  5-MIN KDBQ 081315Z 20011KT 10SM CLR 08/04 A2961 1370 73 900 200/11 RMK AO2
94908KDBQ DBQ20021108072009311/08/02 07:20:31  5-MIN KDBQ 081320Z 20010KT 10SM CLR 08/04 A2961 1370 73 900 200/10 RMK AO2
94908KDBQ DBQ20021108072509311/08/02 07:25:31  5-MIN KDBQ 081325Z 20010KT 10SM CLR 08/04 A2961 1370 73 900 200/10 RMK AO2
94908KDBQ DBQ20021108073009311/08/02 07:30:31  5-MIN KDBQ 081330Z 20011KT 10SM CLR 08/04 A2961 1370 73 900 200/11 RMK AO2
94908KDBQ DBQ20021108073509411/08/02 07:35:31  5-MIN KDBQ 081335Z 20012KT 10SM CLR 09/04 A2961 1360 71 1000 200/12 RMK AO2
94908KDBQ DBQ20021108074009411/08/02 07:40:31  5-MIN KDBQ 081340Z 20013KT 10SM CLR 09/04 A2961 1360 71 1000 200/13 RMK AO2
94908KDBQ DBQ20021108074509411/08/02 07:45:31  5-MIN KDBQ 081345Z 20012KT 10SM CLR 09/04 A2961 1360 71 1000 200/12 RMK AO2
94908KDBQ DBQ20021108075011111/08/02 07:50:31  5-MIN KDBQ 081350Z 21013KT 10SM CLR 09/04 A2961 1360 68 1100 210/13 RMK AO2 SLP031 T00940039
94908KDBQ DBQ20021108075511111/08/02 07:55:31  5-MIN KDBQ 081355Z 21014KT 10SM CLR 09/04 A2962 1360 68 1100 210/14 RMK AO2 SLP032 T00940039
94908KDBQ DBQ20021108080009411/08/02 08:00:31  5-MIN KDBQ 081400Z 21012KT 10SM CLR 10/04 A2962 1360 65 1100 210/12 RMK AO2
94908KDBQ DBQ20021108080509411/08/02 08:05:31  5-MIN KDBQ 081405Z 21015KT 10SM CLR 10/04 A2962 1360 65 1100 210/15 RMK AO2
94908KDBQ DBQ20021108081009411/08/02 08:10:31  5-MIN KDBQ 081410Z 22013KT 10SM CLR 10/04 A2962 1360 65 1100 210/13 RMK AO2
94908KDBQ DBQ20021108081509411/08/02 08:15:31  5-MIN KDBQ 081415Z 22013KT 10SM CLR 10/04 A2962 1360 65 1100 220/13 RMK AO2
94908KDBQ DBQ20021108082009411/08/02 08:20:31  5-MIN KDBQ 081420Z 22013KT 10SM CLR 10/04 A2962 1360 65 1100 220/13 RMK AO2
94908KDBQ DBQ20021108082509411/08/02 08:25:31  5-MIN KDBQ 081425Z 22013KT 10SM CLR 10/04 A2963 1350 68 1100 220/13 RMK AO2
94908KDBQ DBQ20021108083009411/08/02 08:30:31  5-MIN KDBQ 081430Z 22013KT 10SM CLR 11/04 A2962 1360 66 1200 220/13 RMK AO2
94908KDBQ DBQ20021108083509411/08/02 08:35:31  5-MIN KDBQ 081435Z 22013KT 10SM CLR 11/04 A2962 1360 66 1200 220/13 RMK AO2
94908KDBQ DBQ20021108084009411/08/02 08:40:31  5-MIN KDBQ 081440Z 21014KT 10SM CLR 11/04 A2962 1350 66 1200 210/14 RMK AO2
94908KDBQ DBQ20021108084509411/08/02 08:45:31  5-MIN KDBQ 081445Z 21015KT 10SM CLR 10/04 A2963 1350 68 1100 210/15 RMK AO2
94908KDBQ DBQ20021108085011711/08/02 08:50:31  5-MIN KDBQ 081450Z 21015KT 10SM CLR 11/04 A2963 1350 66 1200 210/15 RMK AO2 SLP035 T01060044 56005
94908KDBQ DBQ20021108085511711/08/02 08:55:31  5-MIN KDBQ 081455Z 21016KT 10SM CLR 11/04 A2963 1350 66 1200 210/16 RMK AO2 SLP035 T01060044 53007
94908KDBQ DBQ20021108090009411/08/02 09:00:31  5-MIN KDBQ 081500Z 22015KT 10SM CLR 11/04 A2963 1350 66 1200 220/15 RMK AO2
94908KDBQ DBQ20021108090509411/08/02 09:05:31  5-MIN KDBQ 081505Z 22017KT 10SM CLR 11/04 A2963 1350 63 1200 220/17 RMK AO2
94908KDBQ DBQ20021108091009411/08/02 09:10:31  5-MIN KDBQ 081510Z 22014KT 10SM CLR 12/04 A2963 1350 61 1300 220/14 RMK AO2
94908KDBQ DBQ20021108091509411/08/02 09:15:31  5-MIN KDBQ 081515Z 21014KT 10SM CLR 12/04 A2962 1360 61 1300 210/14 RMK AO2
94908KDBQ DBQ20021108092010011/08/02 09:20:31  5-MIN KDBQ 081520Z 21014G21KT 10SM CLR 12/04 A2963 1350 61 1300 210/14G21 RMK AO2
94908KDBQ DBQ20021108092510011/08/02 09:25:31  5-MIN KDBQ 081525Z 21017G22KT 10SM CLR 12/04 A2963 1350 61 1300 210/17G22 RMK AO2
94908KDBQ DBQ20021108093010011/08/02 09:30:31  5-MIN KDBQ 081530Z 21014G22KT 10SM CLR 12/04 A2963 1340 61 1300 210/14G22 RMK AO2
94908KDBQ DBQ20021108093509411/08/02 09:35:31  5-MIN KDBQ 081535Z 22015KT 10SM CLR 12/04 A2964 1340 61 1300 220/15 RMK AO2
94908KDBQ DBQ20021108094009411/08/02 09:40:31  5-MIN KDBQ 081540Z 21017KT 10SM CLR 12/04 A2964 1340 59 1400 210/17 RMK AO2
94908KDBQ DBQ20021108094509411/08/02 09:45:31  5-MIN KDBQ 081545Z 21014KT 10SM CLR 12/05 A2964 1340 61 1400 210/14 RMK AO2
94908KDBQ DBQ20021108095011111/08/02 09:50:31  5-MIN KDBQ 081550Z 22013KT 10SM CLR 13/05 A2964 1340 59 1400 220/13 RMK AO2 SLP037 T01280050
94908KDBQ DBQ20021108095511111/08/02 09:55:31  5-MIN KDBQ 081555Z 21014KT 10SM CLR 13/05 A2964 1340 59 1400 210/14 RMK AO2 SLP037 T01280050
94908KDBQ DBQ20021108100009411/08/02 10:00:31  5-MIN KDBQ 081600Z 21015KT 10SM CLR 12/04 A2963 1340 59 1400 210/15 RMK AO2
94908KDBQ DBQ20021108100509411/08/02 10:05:31  5-MIN KDBQ 081605Z 21016KT 10SM CLR 12/04 A2963 1340 59 1400 200/16 RMK AO2
94908KDBQ DBQ20021108101009411/08/02 10:10:31  5-MIN KDBQ 081610Z 21012KT 10SM CLR 12/04 A2963 1350 59 1400 210/12 RMK AO2
94908KDBQ DBQ20021108101509411/08/02 10:15:31  5-MIN KDBQ 081615Z 20014KT 10SM CLR 12/05 A2963 1340 61 1400 200/14 RMK AO2
94908KDBQ DBQ20021108102009411/08/02 10:20:31  5-MIN KDBQ 081620Z 21013KT 10SM CLR 12/04 A2963 1340 59 1400 210/13 RMK AO2
94908KDBQ DBQ20021108102509411/08/02 10:25:31  5-MIN KDBQ 081625Z 21013KT 10SM CLR 12/05 A2963 1340 61 1400 210/13 RMK AO2
94908KDBQ DBQ20021108103009411/08/02 10:30:31  5-MIN KDBQ 081630Z 21015KT 10SM CLR 12/05 A2963 1350 61 1400 200/15 RMK AO2
94908KDBQ DBQ20021108103509411/08/02 10:35:31  5-MIN KDBQ 081635Z 21014KT 10SM CLR 12/04 A2963 1350 61 1300 210/14 RMK AO2
94908KDBQ DBQ20021108104009411/08/02 10:40:31  5-MIN KDBQ 081640Z 21012KT 10SM CLR 12/05 A2963 1350 61 1400 210/12 RMK AO2
94908KDBQ DBQ20021108104509411/08/02 10:45:31  5-MIN KDBQ 081645Z 21011KT 10SM CLR 12/05 A2962 1360 61 1400 210/11 RMK AO2
94908KDBQ DBQ20021108105011111/08/02 10:50:31  5-MIN KDBQ 081650Z 21013KT 10SM CLR 13/05 A2962 1350 59 1400 210/13 RMK AO2 SLP033 T01280050
94908KDBQ DBQ20021108105511111/08/02 10:55:31  5-MIN KDBQ 081655Z 21013KT 10SM CLR 13/05 A2962 1360 59 1500 210/13 RMK AO2 SLP032 T01280050
94908KDBQ DBQ20021108110010011/08/02 11:00:31  5-MIN KDBQ 081700Z 21014G19KT 10SM CLR 13/05 A2962 1360 59 1500 210/14G19 RMK AO2
94908KDBQ DBQ20021108110510011/08/02 11:05:31  5-MIN KDBQ 081705Z 22011G19KT 10SM CLR 13/05 A2961 1360 59 1500 220/11G19 RMK AO2
94908KDBQ DBQ20021108111009411/08/02 11:10:31  5-MIN KDBQ 081710Z 21011KT 10SM CLR 13/05 A2961 1360 57 1500 210/11 RMK AO2
94908KDBQ DBQ20021108111509411/08/02 11:15:31  5-MIN KDBQ 081715Z 21010KT 10SM CLR 13/05 A2961 1370 59 1500 210/10 RMK AO2
94908KDBQ DBQ20021108112009411/08/02 11:20:31  5-MIN KDBQ 081720Z 22010KT 10SM CLR 13/05 A2961 1370 59 1500 220/10 RMK AO2
94908KDBQ DBQ20021108112509411/08/02 11:25:31  5-MIN KDBQ 081725Z 21009KT 10SM CLR 13/06 A2960 1370 61 1500 210/09 RMK AO2
94908KDBQ DBQ20021108113009411/08/02 11:30:31  5-MIN KDBQ 081730Z 23011KT 10SM CLR 13/06 A2960 1380 59 1500 220/11 RMK AO2
94908KDBQ DBQ20021108113509411/08/02 11:35:31  5-MIN KDBQ 081735Z 22011KT 10SM CLR 14/06 A2959 1380 57 1600 220/11 RMK AO2
94908KDBQ DBQ20021108114009411/08/02 11:40:31  5-MIN KDBQ 081740Z 22013KT 10SM CLR 14/06 A2959 1390 55 1700 220/13 RMK AO2
94908KDBQ DBQ20021108114509411/08/02 11:45:31  5-MIN KDBQ 081745Z 20012KT 10SM CLR 14/06 A2959 1390 55 1700 200/12 RMK AO2
94908KDBQ DBQ20021108115012911/08/02 11:50:31  5-MIN KDBQ 081750Z 22014KT 10SM CLR 14/06 A2958 1390 55 1700 220/14 RMK AO2 SLP019 T01440056 10144 20072 53007
94908KDBQ DBQ20021108115512911/08/02 11:55:31  5-MIN KDBQ 081755Z 22012KT 10SM CLR 15/05 A2958 1390 51 1800 220/12 RMK AO2 SLP018 T01500050 10150 20072 58016
94908KDBQ DBQ20021108120009411/08/02 12:00:31  5-MIN KDBQ 081800Z 23013KT 10SM CLR 15/06 A2958 1390 53 1800 230/13 RMK AO2
94908KDBQ DBQ20021108120509411/08/02 12:05:31  5-MIN KDBQ 081805Z 21011KT 10SM CLR 15/06 A2958 1400 53 1800 210/11 RMK AO2
94908KDBQ DBQ20021108121009411/08/02 12:10:31  5-MIN KDBQ 081810Z 23013KT 10SM CLR 16/06 A2958 1400 53 1800 230/13 RMK AO2
94908KDBQ DBQ20021108121509411/08/02 12:15:31  5-MIN KDBQ 081815Z 21013KT 10SM CLR 16/06 A2958 1400 51 1800 210/13 RMK AO2
94908KDBQ DBQ20021108122009411/08/02 12:20:31  5-MIN KDBQ 081820Z 19012KT 10SM CLR 16/06 A2957 1400 51 1800 190/12 RMK AO2
94908KDBQ DBQ20021108122509411/08/02 12:25:31  5-MIN KDBQ 081825Z 20012KT 10SM CLR 16/06 A2957 1400 51 1800 190/12 RMK AO2
94908KDBQ DBQ20021108123009411/08/02 12:30:31  5-MIN KDBQ 081830Z 18013KT 10SM CLR 15/06 A2957 1400 53 1800 180/13 RMK AO2
94908KDBQ DBQ20021108123509411/08/02 12:35:31  5-MIN KDBQ 081835Z 19013KT 10SM CLR 15/06 A2957 1400 53 1800 190/13 RMK AO2
94908KDBQ DBQ20021108124009411/08/02 12:40:31  5-MIN KDBQ 081840Z 21014KT 10SM CLR 15/06 A2957 1410 53 1800 200/14 RMK AO2
94908KDBQ DBQ20021108124509411/08/02 12:45:31  5-MIN KDBQ 081845Z 19013KT 10SM CLR 15/06 A2957 1410 53 1800 190/13 RMK AO2
94908KDBQ DBQ20021108125011111/08/02 12:50:31  5-MIN KDBQ 081850Z 19014KT 10SM CLR 15/06 A2957 1410 53 1800 190/14 RMK AO2 SLP013 T01500056
94908KDBQ DBQ20021108125511111/08/02 12:55:31  5-MIN KDBQ 081855Z 20014KT 10SM CLR 15/06 A2957 1410 53 1800 200/14 RMK AO2 SLP013 T01500056
94908KDBQ DBQ20021108130009411/08/02 13:00:31  5-MIN KDBQ 081900Z 21012KT 10SM CLR 15/06 A2957 1410 53 1800 210/12 RMK AO2
94908KDBQ DBQ20021108130509411/08/02 13:05:31  5-MIN KDBQ 081905Z 20012KT 10SM CLR 15/06 A2956 1410 53 1800 200/12 RMK AO2
94908KDBQ DBQ20021108131009411/08/02 13:10:31  5-MIN KDBQ 081910Z 21012KT 10SM CLR 15/06 A2956 1420 53 1800 200/12 RMK AO2
94908KDBQ DBQ20021108131509411/08/02 13:15:31  5-MIN KDBQ 081915Z 21010KT 10SM CLR 15/06 A2956 1420 53 1800 200/10 RMK AO2
94908KDBQ DBQ20021108132009411/08/02 13:20:31  5-MIN KDBQ 081920Z 20011KT 10SM CLR 15/06 A2955 1420 53 1800 190/11 RMK AO2
94908KDBQ DBQ20021108132509411/08/02 13:25:31  5-MIN KDBQ 081925Z 20012KT 10SM CLR 15/06 A2955 1420 53 1800 200/12 RMK AO2
94908KDBQ DBQ20021108133009411/08/02 13:30:31  5-MIN KDBQ 081930Z 19010KT 10SM CLR 15/06 A2955 1420 53 1800 190/10 RMK AO2
94908KDBQ DBQ20021108133509411/08/02 13:35:31  5-MIN KDBQ 081935Z 18011KT 10SM CLR 15/06 A2955 1430 53 1800 180/11 RMK AO2
94908KDBQ DBQ20021108134009411/08/02 13:40:31  5-MIN KDBQ 081940Z 19010KT 10SM CLR 16/06 A2954 1430 51 1900 190/10 RMK AO2
94908KDBQ DBQ20021108134509411/08/02 13:45:31  5-MIN KDBQ 081945Z 19010KT 10SM CLR 16/06 A2954 1430 51 1900 180/10 RMK AO2
94908KDBQ DBQ20021108135011111/08/02 13:50:31  5-MIN KDBQ 081950Z 19011KT 10SM CLR 16/06 A2954 1430 51 1900 190/11 RMK AO2 SLP005 T01560056
94908KDBQ DBQ20021108135511111/08/02 13:55:31  5-MIN KDBQ 081955Z 19012KT 10SM CLR 16/06 A2954 1430 51 1900 190/12 RMK AO2 SLP005 T01610061
94908KDBQ DBQ20021108140009411/08/02 14:00:31  5-MIN KDBQ 082000Z 19014KT 10SM CLR 16/06 A2954 1430 49 1900 190/14 RMK AO2
94908KDBQ DBQ20021108140509411/08/02 14:05:31  5-MIN KDBQ 082005Z 19014KT 10SM CLR 16/06 A2955 1430 51 1900 190/14 RMK AO2
94908KDBQ DBQ20021108141009411/08/02 14:10:31  5-MIN KDBQ 082010Z 20010KT 10SM CLR 16/06 A2955 1430 53 1900 200/10 RMK AO2
94908KDBQ DBQ20021108141509411/08/02 14:15:31  5-MIN KDBQ 082015Z 20008KT 10SM CLR 15/06 A2954 1430 53 1800 200/08 RMK AO2
94908KDBQ DBQ20021108142009411/08/02 14:20:31  5-MIN KDBQ 082020Z 18009KT 10SM CLR 16/06 A2954 1430 53 1900 180/09 RMK AO2
94908KDBQ DBQ20021108142509411/08/02 14:25:31  5-MIN KDBQ 082025Z 20007KT 10SM CLR 16/06 A2953 1440 51 1900 190/07 RMK AO2
94908KDBQ DBQ20021108143009411/08/02 14:30:31  5-MIN KDBQ 082030Z 19007KT 10SM CLR 16/06 A2953 1440 51 1900 180/07 RMK AO2
94908KDBQ DBQ20021108143509411/08/02 14:35:31  5-MIN KDBQ 082035Z 18008KT 10SM CLR 16/06 A2953 1440 51 1900 180/08 RMK AO2
94908KDBQ DBQ20021108144009411/08/02 14:40:31  5-MIN KDBQ 082040Z 19012KT 10SM CLR 17/06 A2952 1450 47 2000 190/12 RMK AO2
94908KDBQ DBQ20021108144509411/08/02 14:45:31  5-MIN KDBQ 082045Z 18012KT 10SM CLR 17/06 A2952 1450 47 2000 170/12 RMK AO2
94908KDBQ DBQ20021108145011711/08/02 14:50:31  5-MIN KDBQ 082050Z 18011KT 10SM CLR 17/06 A2953 1440 46 2100 180/11 RMK AO2 SLP998 T01720056 58016
94908KDBQ DBQ20021108145511711/08/02 14:55:31  5-MIN KDBQ 082055Z 19014KT 10SM CLR 17/06 A2953 1440 46 2100 190/14 RMK AO2 SLP999 T01720056 58018
94908KDBQ DBQ20021108150009411/08/02 15:00:31  5-MIN KDBQ 082100Z 18011KT 10SM CLR 17/06 A2952 1450 46 2100 180/11 RMK AO2
94908KDBQ DBQ20021108150509411/08/02 15:05:31  5-MIN KDBQ 082105Z 18013KT 10SM CLR 17/06 A2953 1450 46 2100 180/13 RMK AO2
94908KDBQ DBQ20021108151009411/08/02 15:10:31  5-MIN KDBQ 082110Z 18011KT 10SM CLR 17/06 A2952 1450 47 2000 180/11 RMK AO2
94908KDBQ DBQ20021108151509411/08/02 15:15:31  5-MIN KDBQ 082115Z 17011KT 10SM CLR 16/06 A2952 1450 49 2000 170/11 RMK AO2
94908KDBQ DBQ20021108152009411/08/02 15:20:31  5-MIN KDBQ 082120Z 17012KT 10SM CLR 16/06 A2952 1450 49 2000 170/12 RMK AO2
94908KDBQ DBQ20021108152509411/08/02 15:25:31  5-MIN KDBQ 082125Z 18015KT 10SM CLR 16/06 A2952 1450 51 1900 180/15 RMK AO2
94908KDBQ DBQ20021108153009411/08/02 15:30:31  5-MIN KDBQ 082130Z 19010KT 10SM CLR 16/05 A2952 1450 49 1900 180/10 RMK AO2
94908KDBQ DBQ20021108153509411/08/02 15:35:31  5-MIN KDBQ 082135Z 19010KT 10SM CLR 15/06 A2953 1440 53 1800 190/10 RMK AO2
94908KDBQ DBQ20021108154009411/08/02 15:40:31  5-MIN KDBQ 082140Z 19009KT 10SM CLR 14/06 A2953 1440 55 1800 190/09 RMK AO2
94908KDBQ DBQ20021108154509411/08/02 15:45:31  5-MIN KDBQ 082145Z 18008KT 10SM CLR 14/06 A2953 1440 55 1800 180/08 RMK AO2
94908KDBQ DBQ20021108155011111/08/02 15:50:31  5-MIN KDBQ 082150Z 17007KT 10SM CLR 14/06 A2953 1440 55 1800 170/07 RMK AO2 SLP000 T01440056
94908KDBQ DBQ20021108155511111/08/02 15:55:31  5-MIN KDBQ 082155Z 16006KT 10SM CLR 14/06 A2953 1450 55 1800 160/06 RMK AO2 SLP999 T01440056
94908KDBQ DBQ20021108160009411/08/02 16:00:31  5-MIN KDBQ 082200Z 15006KT 10SM CLR 14/06 A2952 1450 57 1700 150/06 RMK AO2
94908KDBQ DBQ20021108160509411/08/02 16:05:31  5-MIN KDBQ 082205Z 16008KT 10SM CLR 14/06 A2952 1450 57 1700 150/08 RMK AO2
94908KDBQ DBQ20021108161009411/08/02 16:10:31  5-MIN KDBQ 082210Z 16008KT 10SM CLR 14/06 A2952 1450 57 1700 160/08 RMK AO2
94908KDBQ DBQ20021108161509411/08/02 16:15:31  5-MIN KDBQ 082215Z 17009KT 10SM CLR 14/06 A2952 1450 57 1700 160/09 RMK AO2
94908KDBQ DBQ20021108162009411/08/02 16:20:31  5-MIN KDBQ 082220Z 17009KT 10SM CLR 14/06 A2952 1450 57 1700 160/09 RMK AO2
94908KDBQ DBQ20021108162509411/08/02 16:25:31  5-MIN KDBQ 082225Z 17009KT 10SM CLR 14/06 A2952 1450 57 1700 170/09 RMK AO2
94908KDBQ DBQ20021108163009411/08/02 16:30:31  5-MIN KDBQ 082230Z 18010KT 10SM CLR 14/06 A2953 1450 55 1800 180/10 RMK AO2
94908KDBQ DBQ20021108163509411/08/02 16:35:31  5-MIN KDBQ 082235Z 18010KT 10SM CLR 14/06 A2953 1450 57 1700 180/10 RMK AO2
94908KDBQ DBQ20021108164009411/08/02 16:40:31  5-MIN KDBQ 082240Z 18010KT 10SM CLR 14/06 A2953 1440 57 1700 180/10 RMK AO2
94908KDBQ DBQ20021108164509411/08/02 16:45:31  5-MIN KDBQ 082245Z 18009KT 10SM CLR 14/06 A2953 1450 57 1700 180/09 RMK AO2
94908KDBQ DBQ20021108165011111/08/02 16:50:31  5-MIN KDBQ 082250Z 18008KT 10SM CLR 14/06 A2953 1440 57 1700 180/08 RMK AO2 SLP000 T01390056
94908KDBQ DBQ20021108165511111/08/02 16:55:31  5-MIN KDBQ 082255Z 18007KT 10SM CLR 13/06 A2953 1440 59 1600 180/07 RMK AO2 SLP001 T01330056
94908KDBQ DBQ20021108170009411/08/02 17:00:31  5-MIN KDBQ 082300Z 18007KT 10SM CLR 13/05 A2953 1440 57 1600 180/07 RMK AO2
94908KDBQ DBQ20021108170509411/08/02 17:05:31  5-MIN KDBQ 082305Z 18007KT 10SM CLR 13/05 A2953 1440 59 1600 180/07 RMK AO2
94908KDBQ DBQ20021108171009411/08/02 17:10:31  5-MIN KDBQ 082310Z 18006KT 10SM CLR 13/05 A2953 1440 59 1600 170/06 RMK AO2
94908KDBQ DBQ20021108171509411/08/02 17:15:31  5-MIN KDBQ 082315Z 18007KT 10SM CLR 13/05 A2953 1440 59 1600 180/07 RMK AO2
94908KDBQ DBQ20021108172009411/08/02 17:20:31  5-MIN KDBQ 082320Z 18008KT 10SM CLR 12/05 A2953 1440 61 1500 180/08 RMK AO2
94908KDBQ DBQ20021108172509411/08/02 17:25:31  5-MIN KDBQ 082325Z 18008KT 10SM CLR 12/05 A2953 1440 61 1500 180/08 RMK AO2
94908KDBQ DBQ20021108173009411/08/02 17:30:31  5-MIN KDBQ 082330Z 18008KT 10SM CLR 12/05 A2953 1440 61 1500 170/08 RMK AO2
94908KDBQ DBQ20021108173509411/08/02 17:35:31  5-MIN KDBQ 082335Z 17008KT 10SM CLR 12/05 A2953 1450 61 1500 170/08 RMK AO2
94908KDBQ DBQ20021108174009411/08/02 17:40:31  5-MIN KDBQ 082340Z 17008KT 10SM CLR 12/05 A2952 1450 63 1400 170/08 RMK AO2
94908KDBQ DBQ20021108174509411/08/02 17:45:31  5-MIN KDBQ 082345Z 16009KT 10SM CLR 12/05 A2952 1450 63 1400 160/09 RMK AO2
94908KDBQ DBQ20021108175012911/08/02 17:50:31  5-MIN KDBQ 082350Z 16009KT 10SM CLR 12/05 A2952 1450 63 1400 160/09 RMK AO2 SLP000 T01170050 10172 20117 58018
94908KDBQ DBQ20021108175512911/08/02 17:55:31  5-MIN KDBQ 082355Z 16010KT 10SM CLR 12/05 A2952 1450 63 1400 160/10 RMK AO2 SLP998 T01170050 10172 20117 58002
94908KDBQ DBQ20021108180009411/08/02 18:00:31  5-MIN KDBQ 090000Z 16010KT 10SM CLR 12/05 A2952 1450 63 1400 160/10 RMK AO2
94908KDBQ DBQ20021108180509411/08/02 18:05:31  5-MIN KDBQ 090005Z 16010KT 10SM CLR 12/05 A2952 1450 63 1400 160/10 RMK AO2
94908KDBQ DBQ20021108181009411/08/02 18:10:31  5-MIN KDBQ 090010Z 16011KT 10SM CLR 12/05 A2952 1450 63 1400 160/11 RMK AO2
94908KDBQ DBQ20021108181509411/08/02 18:15:31  5-MIN KDBQ 090015Z 16010KT 10SM CLR 12/05 A2952 1450 63 1400 160/10 RMK AO2
94908KDBQ DBQ20021108182009411/08/02 18:20:31  5-MIN KDBQ 090020Z 16010KT 10SM CLR 12/05 A2952 1450 63 1400 160/10 RMK AO2
94908KDBQ DBQ20021108182509411/08/02 18:25:31  5-MIN KDBQ 090025Z 16010KT 10SM CLR 12/05 A2952 1450 61 1500 160/10 RMK AO2
94908KDBQ DBQ20021108183009411/08/02 18:30:31  5-MIN KDBQ 090030Z 15010KT 10SM CLR 12/05 A2952 1450 63 1400 150/10 RMK AO2
94908KDBQ DBQ20021108183509411/08/02 18:35:31  5-MIN KDBQ 090035Z 15011KT 10SM CLR 12/05 A2952 1450 63 1400 150/11 RMK AO2
94908KDBQ DBQ20021108184009411/08/02 18:40:31  5-MIN KDBQ 090040Z 15010KT 10SM CLR 12/05 A2952 1450 61 1500 150/10 RMK AO2
94908KDBQ DBQ20021108184509411/08/02 18:45:31  5-MIN KDBQ 090045Z 16009KT 10SM CLR 12/05 A2952 1450 61 1500 160/09 RMK AO2
94908KDBQ DBQ20021108185011111/08/02 18:50:31  5-MIN KDBQ 090050Z 16009KT 10SM CLR 12/05 A2953 1450 63 1400 160/09 RMK AO2 SLP001 T01170050
94908KDBQ DBQ20021108185511111/08/02 18:55:31  5-MIN KDBQ 090055Z 16009KT 10SM CLR 12/05 A2953 1440 63 1400 160/09 RMK AO2 SLP002 T01170050
94908KDBQ DBQ20021108190009411/08/02 19:00:31  5-MIN KDBQ 090100Z 16007KT 10SM CLR 11/05 A2953 1440 66 1400 160/07 RMK AO2
94908KDBQ DBQ20021108190509411/08/02 19:05:31  5-MIN KDBQ 090105Z 15009KT 10SM CLR 11/05 A2953 1440 66 1400 150/09 RMK AO2
94908KDBQ DBQ20021108191009411/08/02 19:10:31  5-MIN KDBQ 090110Z 15010KT 10SM CLR 11/05 A2953 1440 66 1400 150/10 RMK AO2
94908KDBQ DBQ20021108191509411/08/02 19:15:31  5-MIN KDBQ 090115Z 16009KT 10SM CLR 11/05 A2953 1440 66 1400 160/09 RMK AO2
94908KDBQ DBQ20021108192009411/08/02 19:20:31  5-MIN KDBQ 090120Z 16008KT 10SM CLR 11/05 A2953 1440 66 1400 160/08 RMK AO2
94908KDBQ DBQ20021108192509411/08/02 19:25:31  5-MIN KDBQ 090125Z 16007KT 10SM CLR 11/05 A2954 1440 66 1400 160/07 RMK AO2
94908KDBQ DBQ20021108193009411/08/02 19:30:31  5-MIN KDBQ 090130Z 16006KT 10SM CLR 11/05 A2953 1440 68 1300 160/06 RMK AO2
94908KDBQ DBQ20021108193509411/08/02 19:35:31  5-MIN KDBQ 090135Z 16006KT 10SM CLR 10/05 A2953 1440 71 1200 160/06 RMK AO2
94908KDBQ DBQ20021108194009411/08/02 19:40:31  5-MIN KDBQ 090140Z 16005KT 10SM CLR 10/05 A2953 1440 71 1200 160/05 RMK AO2
94908KDBQ DBQ20021108194509411/08/02 19:45:31  5-MIN KDBQ 090145Z 16004KT 10SM CLR 10/05 A2953 1440 71 1200 160/04 RMK AO2
94908KDBQ DBQ20021108195011111/08/02 19:50:31  5-MIN KDBQ 090150Z 00000KT 10SM CLR 10/05 A2953 1440 71 1200 000/00 RMK AO2 SLP004 T01000050
94908KDBQ DBQ20021108195511111/08/02 19:55:31  5-MIN KDBQ 090155Z 00000KT 10SM CLR 09/05 A2953 1440 74 1200 000/00 RMK AO2 SLP004 T00940050
94908KDBQ DBQ20021108200010411/08/02 20:00:31  5-MIN KDBQ 090200Z AUTO 22003KT 10SM CLR 10/05 A2953 1440 71 1200 220/03 RMK AO2 TSNO
94908KDBQ DBQ20021108200510411/08/02 20:05:31  5-MIN KDBQ 090205Z AUTO 19004KT 10SM CLR 11/05 A2953 1440 66 1400 180/04 RMK AO2 TSNO
94908KDBQ DBQ20021108201010411/08/02 20:10:31  5-MIN KDBQ 090210Z AUTO 17003KT 10SM CLR 11/05 A2953 1440 66 1400 170/03 RMK AO2 TSNO
94908KDBQ DBQ20021108201510411/08/02 20:15:31  5-MIN KDBQ 090215Z AUTO 17004KT 10SM CLR 11/05 A2953 1440 66 1400 170/04 RMK AO2 TSNO
94908KDBQ DBQ20021108202010411/08/02 20:20:31  5-MIN KDBQ 090220Z AUTO 18005KT 10SM CLR 11/04 A2953 1440 66 1300 170/05 RMK AO2 TSNO
94908KDBQ DBQ20021108202510711/08/02 20:25:31  5-MIN KDBQ 090225Z AUTO 19004KT 10SM FEW065 10/04 A2953 1440 68 1200 190/04 RMK AO2 TSNO
94908KDBQ DBQ20021108203010711/08/02 20:30:31  5-MIN KDBQ 090230Z AUTO 17004KT 10SM SCT065 10/04 A2953 1440 68 1200 170/04 RMK AO2 TSNO
94908KDBQ DBQ20021108203510711/08/02 20:35:31  5-MIN KDBQ 090235Z AUTO 17004KT 10SM BKN065 10/04 A2953 1440 68 1200 170/04 RMK AO2 TSNO
94908KDBQ DBQ20021108204010711/08/02 20:40:31  5-MIN KDBQ 090240Z AUTO 19003KT 10SM BKN065 10/04 A2953 1440 68 1200 190/03 RMK AO2 TSNO
94908KDBQ DBQ20021108204510711/08/02 20:45:31  5-MIN KDBQ 090245Z AUTO 21004KT 10SM BKN065 09/04 A2953 1440 71 1200 210/04 RMK AO2 TSNO
94908KDBQ DBQ20021108205013011/08/02 20:50:31  5-MIN KDBQ 090250Z AUTO 21004KT 10SM SCT065 09/04 A2953 1450 71 1200 210/04 RMK AO2 SLP001 T00940044 58002 TSNO
94908KDBQ DBQ20021108205513011/08/02 20:55:31  5-MIN KDBQ 090255Z AUTO 19004KT 10SM SCT065 10/04 A2953 1440 68 1200 190/04 RMK AO2 SLP000 T01000044 50002 TSNO
94908KDBQ DBQ20021108210010711/08/02 21:00:31  5-MIN KDBQ 090300Z AUTO 18005KT 10SM FEW065 10/04 A2953 1440 68 1200 180/05 RMK AO2 TSNO
94908KDBQ DBQ20021108210510711/08/02 21:05:31  5-MIN KDBQ 090305Z AUTO 19005KT 10SM FEW065 09/04 A2953 1440 71 1200 190/05 RMK AO2 TSNO
94908KDBQ DBQ20021108211010711/08/02 21:10:31  5-MIN KDBQ 090310Z AUTO 18006KT 10SM FEW065 09/04 A2953 1440 71 1200 180/06 RMK AO2 TSNO
94908KDBQ DBQ20021108211510711/08/02 21:15:31  5-MIN KDBQ 090315Z AUTO 18005KT 10SM SCT065 10/04 A2953 1440 68 1200 180/05 RMK AO2 TSNO
94908KDBQ DBQ20021108212010711/08/02 21:20:31  5-MIN KDBQ 090320Z AUTO 17005KT 10SM SCT065 09/04 A2953 1440 71 1200 170/05 RMK AO2 TSNO
94908KDBQ DBQ20021108212510711/08/02 21:25:31  5-MIN KDBQ 090325Z AUTO 17005KT 10SM SCT065 09/04 A2953 1450 73 1100 170/05 RMK AO2 TSNO
94908KDBQ DBQ20021108213010711/08/02 21:30:31  5-MIN KDBQ 090330Z AUTO 17006KT 10SM SCT065 08/04 A2952 1450 73 1000 170/06 RMK AO2 TSNO
94908KDBQ DBQ20021108213510711/08/02 21:35:31  5-MIN KDBQ 090335Z AUTO 17005KT 10SM SCT065 08/04 A2952 1450 76 1000 170/05 RMK AO2 TSNO
94908KDBQ DBQ20021108214010711/08/02 21:40:31  5-MIN KDBQ 090340Z AUTO 17005KT 10SM FEW065 08/04 A2952 1450 73 1000 170/05 RMK AO2 TSNO
94908KDBQ DBQ20021108214510711/08/02 21:45:31  5-MIN KDBQ 090345Z AUTO 17005KT 10SM FEW065 08/04 A2952 1460 76 1000 170/05 RMK AO2 TSNO
94908KDBQ DBQ20021108215012111/08/02 21:50:31  5-MIN KDBQ 090350Z AUTO 16006KT 10SM CLR 09/04 A2951 1460 71 1100 160/06 RMK AO2 SLP995 T00890039 TSNO
94908KDBQ DBQ20021108215512111/08/02 21:55:31  5-MIN KDBQ 090355Z AUTO 16006KT 10SM CLR 09/04 A2951 1460 71 1100 160/06 RMK AO2 SLP995 T00890039 TSNO
94908KDBQ DBQ20021108220010411/08/02 22:00:31  5-MIN KDBQ 090400Z AUTO 17006KT 10SM CLR 08/04 A2951 1460 73 1000 160/06 RMK AO2 TSNO
94908KDBQ DBQ20021108220510411/08/02 22:05:31  5-MIN KDBQ 090405Z AUTO 17005KT 10SM CLR 08/04 A2951 1460 76 1000 170/05 RMK AO2 TSNO
94908KDBQ DBQ20021108221010411/08/02 22:10:31  5-MIN KDBQ 090410Z AUTO 17005KT 10SM CLR 08/04 A2951 1460 76 1000 170/05 RMK AO2 TSNO
94908KDBQ DBQ20021108221510411/08/02 22:15:31  5-MIN KDBQ 090415Z AUTO 18005KT 10SM CLR 08/04 A2951 1460 73 1000 180/05 RMK AO2 TSNO
94908KDBQ DBQ20021108222010411/08/02 22:20:31  5-MIN KDBQ 090420Z AUTO 18005KT 10SM CLR 08/04 A2951 1460 76 1000 180/05 RMK AO2 TSNO
94908KDBQ DBQ20021108222510411/08/02 22:25:31  5-MIN KDBQ 090425Z AUTO 18006KT 10SM CLR 08/03 A2951 1460 73 1000 180/06 RMK AO2 TSNO
94908KDBQ DBQ20021108223010411/08/02 22:30:31  5-MIN KDBQ 090430Z AUTO 17007KT 10SM CLR 08/03 A2951 1460 73 1000 170/07 RMK AO2 TSNO
94908KDBQ DBQ20021108223510411/08/02 22:35:31  5-MIN KDBQ 090435Z AUTO 17007KT 10SM CLR 08/03 A2951 1460 73 1000 170/07 RMK AO2 TSNO
94908KDBQ DBQ20021108224010311/08/02 22:40:31  5-MIN KDBQ 090440Z AUTO 18006KT 10SM CLR 07/03 A2951 1460 76 900 180/06 RMK AO2 TSNO
94908KDBQ DBQ20021108224510411/08/02 22:45:31  5-MIN KDBQ 090445Z AUTO 18006KT 10SM CLR 08/03 A2951 1460 73 1000 180/06 RMK AO2 TSNO
94908KDBQ DBQ20021108225012111/08/02 22:50:31  5-MIN KDBQ 090450Z AUTO 18006KT 10SM CLR 08/03 A2951 1460 73 1000 180/06 RMK AO2 SLP994 T00780033 TSNO
94908KDBQ DBQ20021108225512111/08/02 22:55:31  5-MIN KDBQ 090455Z AUTO 18006KT 10SM CLR 08/03 A2951 1460 73 1000 180/06 RMK AO2 SLP994 T00780033 TSNO
94908KDBQ DBQ20021108230010411/08/02 23:00:31  5-MIN KDBQ 090500Z AUTO 18006KT 10SM CLR 08/03 A2951 1460 73 1000 180/06 RMK AO2 TSNO
94908KDBQ DBQ20021108230510411/08/02 23:05:31  5-MIN KDBQ 090505Z AUTO 18006KT 10SM CLR 08/03 A2951 1460 73 1000 180/06 RMK AO2 TSNO
94908KDBQ DBQ20021108231010411/08/02 23:10:31  5-MIN KDBQ 090510Z AUTO 18006KT 10SM CLR 08/03 A2951 1460 70 1000 180/06 RMK AO2 TSNO
94908KDBQ DBQ20021108231510411/08/02 23:15:31  5-MIN KDBQ 090515Z AUTO 18005KT 10SM CLR 08/03 A2951 1460 70 1000 180/05 RMK AO2 TSNO
94908KDBQ DBQ20021108232010411/08/02 23:20:31  5-MIN KDBQ 090520Z AUTO 18006KT 10SM CLR 08/03 A2950 1460 70 1000 180/06 RMK AO2 TSNO
94908KDBQ DBQ20021108232510311/08/02 23:25:31  5-MIN KDBQ 090525Z AUTO 18006KT 10SM CLR 07/03 A2950 1470 73 900 180/06 RMK AO2 TSNO
94908KDBQ DBQ20021108233010411/08/02 23:30:31  5-MIN KDBQ 090530Z AUTO 18005KT 10SM CLR 08/03 A2950 1470 70 1000 180/05 RMK AO2 TSNO
94908KDBQ DBQ20021108233510411/08/02 23:35:31  5-MIN KDBQ 090535Z AUTO 18006KT 10SM CLR 08/03 A2950 1470 70 1000 180/06 RMK AO2 TSNO
94908KDBQ DBQ20021108234010311/08/02 23:40:31  5-MIN KDBQ 090540Z AUTO 18005KT 10SM CLR 07/03 A2950 1470 73 900 180/05 RMK AO2 TSNO
94908KDBQ DBQ20021108234510311/08/02 23:45:31  5-MIN KDBQ 090545Z AUTO 18005KT 10SM CLR 07/03 A2950 1470 73 900 180/05 RMK AO2 TSNO
94908KDBQ DBQ20021108235014811/08/02 23:50:31  5-MIN KDBQ 090550Z AUTO 18006KT 10SM CLR 07/03 A2951 1460 76 900 180/06 RMK AO2 SLP993 T00670028 10122 20067 401720067 50002 TSNO
94908KDBQ DBQ20021108235514811/08/02 23:55:31  5-MIN KDBQ 090555Z AUTO 18006KT 10SM CLR 07/03 A2950 1470 76 900 180/06 RMK AO2 SLP992 T00670028 10122 20067 401720067 56008 TSNO
94908KDBQ DBQ20021109000010311/09/02 00:00:31  5-MIN KDBQ 090600Z AUTO 18007KT 10SM CLR 07/03 A2950 1470 73 900 180/07 RMK AO2 TSNO
94908KDBQ DBQ20021109000510311/09/02 00:05:31  5-MIN KDBQ 090605Z AUTO 18007KT 10SM CLR 07/03 A2950 1470 73 900 180/07 RMK AO2 TSNO
94908KDBQ DBQ20021109001010311/09/02 00:10:31  5-MIN KDBQ 090610Z AUTO 19007KT 10SM CLR 07/03 A2950 1470 73 900 180/07 RMK AO2 TSNO
94908KDBQ DBQ20021109001510311/09/02 00:15:31  5-MIN KDBQ 090615Z AUTO 18006KT 10SM CLR 07/03 A2951 1460 73 900 180/06 RMK AO2 TSNO
94908KDBQ DBQ20021109002010311/09/02 00:20:31  5-MIN KDBQ 090620Z AUTO 18005KT 10SM CLR 07/03 A2950 1470 73 900 180/05 RMK AO2 TSNO
94908KDBQ DBQ20021109002510311/09/02 00:25:31  5-MIN KDBQ 090625Z AUTO 19006KT 10SM CLR 07/03 A2950 1470 73 900 190/06 RMK AO2 TSNO
94908KDBQ DBQ20021109003010311/09/02 00:30:31  5-MIN KDBQ 090630Z AUTO 19006KT 10SM CLR 07/03 A2950 1470 73 900 190/06 RMK AO2 TSNO
94908KDBQ DBQ20021109003510311/09/02 00:35:31  5-MIN KDBQ 090635Z AUTO 19006KT 10SM CLR 07/03 A2950 1470 73 900 190/06 RMK AO2 TSNO
94908KDBQ DBQ20021109004010311/09/02 00:40:31  5-MIN KDBQ 090640Z AUTO 20007KT 10SM CLR 07/03 A2950 1470 73 900 200/07 RMK AO2 TSNO
94908KDBQ DBQ20021109004510311/09/02 00:45:31  5-MIN KDBQ 090645Z AUTO 20007KT 10SM CLR 07/03 A2950 1470 73 900 200/07 RMK AO2 TSNO
94908KDBQ DBQ20021109005012011/09/02 00:50:31  5-MIN KDBQ 090650Z AUTO 21006KT 10SM CLR 07/03 A2950 1470 76 900 200/06 RMK AO2 SLP991 T00670028 TSNO
94908KDBQ DBQ20021109005512011/09/02 00:55:31  5-MIN KDBQ 090655Z AUTO 20006KT 10SM CLR 07/03 A2950 1470 73 900 190/06 RMK AO2 SLP991 T00720028 TSNO
94908KDBQ DBQ20021109010010311/09/02 01:00:31  5-MIN KDBQ 090700Z AUTO 19006KT 10SM CLR 07/03 A2950 1470 73 900 190/06 RMK AO2 TSNO
94908KDBQ DBQ20021109010510311/09/02 01:05:31  5-MIN KDBQ 090705Z AUTO 19005KT 10SM CLR 07/03 A2949 1480 73 900 190/05 RMK AO2 TSNO
94908KDBQ DBQ20021109011010311/09/02 01:10:31  5-MIN KDBQ 090710Z AUTO 18007KT 10SM CLR 07/03 A2950 1470 76 900 180/07 RMK AO2 TSNO
94908KDBQ DBQ20021109011510311/09/02 01:15:31  5-MIN KDBQ 090715Z AUTO 17008KT 10SM CLR 07/03 A2950 1470 76 900 170/08 RMK AO2 TSNO
94908KDBQ DBQ20021109012010311/09/02 01:20:31  5-MIN KDBQ 090720Z AUTO 18008KT 10SM CLR 07/03 A2949 1470 73 900 180/08 RMK AO2 TSNO
94908KDBQ DBQ20021109012510311/09/02 01:25:31  5-MIN KDBQ 090725Z AUTO 18009KT 10SM CLR 07/03 A2949 1470 73 900 180/09 RMK AO2 TSNO
94908KDBQ DBQ20021109013010311/09/02 01:30:31  5-MIN KDBQ 090730Z AUTO 18009KT 10SM CLR 07/03 A2949 1480 73 900 180/09 RMK AO2 TSNO
94908KDBQ DBQ20021109013510311/09/02 01:35:31  5-MIN KDBQ 090735Z AUTO 19008KT 10SM CLR 07/03 A2949 1480 76 900 190/08 RMK AO2 TSNO
94908KDBQ DBQ20021109014010311/09/02 01:40:31  5-MIN KDBQ 090740Z AUTO 19009KT 10SM CLR 07/03 A2949 1480 76 900 190/09 RMK AO2 TSNO
94908KDBQ DBQ20021109014510311/09/02 01:45:31  5-MIN KDBQ 090745Z AUTO 18008KT 10SM CLR 07/03 A2949 1480 76 900 180/08 RMK AO2 TSNO
94908KDBQ DBQ20021109015012011/09/02 01:50:31  5-MIN KDBQ 090750Z AUTO 19007KT 10SM CLR 07/03 A2949 1480 79 900 190/07 RMK AO2 SLP988 T00670033 TSNO
94908KDBQ DBQ20021109015512011/09/02 01:55:31  5-MIN KDBQ 090755Z AUTO 19006KT 10SM CLR 06/03 A2949 1480 79 800 180/06 RMK AO2 SLP988 T00610028 TSNO
94908KDBQ DBQ20021109020010311/09/02 02:00:31  5-MIN KDBQ 090800Z AUTO 18007KT 10SM CLR 06/03 A2949 1480 79 800 180/07 RMK AO2 TSNO
94908KDBQ DBQ20021109020510311/09/02 02:05:31  5-MIN KDBQ 090805Z AUTO 18008KT 10SM CLR 07/03 A2949 1480 79 900 180/08 RMK AO2 TSNO
94908KDBQ DBQ20021109021010311/09/02 02:10:31  5-MIN KDBQ 090810Z AUTO 18009KT 10SM CLR 07/03 A2949 1480 79 900 180/09 RMK AO2 TSNO
94908KDBQ DBQ20021109021510311/09/02 02:15:31  5-MIN KDBQ 090815Z AUTO 18008KT 10SM CLR 07/03 A2949 1480 79 900 180/08 RMK AO2 TSNO
94908KDBQ DBQ20021109022010311/09/02 02:20:31  5-MIN KDBQ 090820Z AUTO 18007KT 10SM CLR 07/03 A2949 1480 79 900 180/07 RMK AO2 TSNO
94908KDBQ DBQ20021109022510311/09/02 02:25:31  5-MIN KDBQ 090825Z AUTO 19008KT 10SM CLR 06/03 A2949 1480 82 800 180/08 RMK AO2 TSNO
94908KDBQ DBQ20021109023010311/09/02 02:30:31  5-MIN KDBQ 090830Z AUTO 19008KT 10SM CLR 07/03 A2949 1480 79 900 190/08 RMK AO2 TSNO
94908KDBQ DBQ20021109023510311/09/02 02:35:31  5-MIN KDBQ 090835Z AUTO 18010KT 10SM CLR 07/03 A2948 1480 79 900 180/10 RMK AO2 TSNO
94908KDBQ DBQ20021109024010311/09/02 02:40:31  5-MIN KDBQ 090840Z AUTO 19009KT 10SM CLR 07/03 A2949 1480 79 900 190/09 RMK AO2 TSNO
94908KDBQ DBQ20021109024510311/09/02 02:45:31  5-MIN KDBQ 090845Z AUTO 18009KT 10SM CLR 07/03 A2949 1480 79 900 180/09 RMK AO2 TSNO
94908KDBQ DBQ20021109025012611/09/02 02:50:31  5-MIN KDBQ 090850Z AUTO 18008KT 10SM CLR 07/04 A2948 1490 82 900 180/08 RMK AO2 SLP984 T00670039 56008 TSNO
94908KDBQ DBQ20021109025512611/09/02 02:55:31  5-MIN KDBQ 090855Z AUTO 18009KT 10SM CLR 07/03 A2948 1490 79 900 180/09 RMK AO2 SLP984 T00670033 58007 TSNO
94908KDBQ DBQ20021109030010311/09/02 03:00:31  5-MIN KDBQ 090900Z AUTO 19009KT 10SM CLR 07/04 A2948 1490 82 900 190/09 RMK AO2 TSNO
94908KDBQ DBQ20021109030510311/09/02 03:05:31  5-MIN KDBQ 090905Z AUTO 18009KT 10SM CLR 07/04 A2948 1490 82 900 180/09 RMK AO2 TSNO
94908KDBQ DBQ20021109031010311/09/02 03:10:31  5-MIN KDBQ 090910Z AUTO 19008KT 10SM CLR 07/04 A2947 1490 82 900 180/08 RMK AO2 TSNO
94908KDBQ DBQ20021109031510311/09/02 03:15:31  5-MIN KDBQ 090915Z AUTO 19008KT 10SM CLR 07/04 A2947 1500 82 900 190/08 RMK AO2 TSNO
94908KDBQ DBQ20021109032010311/09/02 03:20:31  5-MIN KDBQ 090920Z AUTO 19008KT 10SM CLR 06/04 A2947 1500 86 800 180/08 RMK AO2 TSNO
94908KDBQ DBQ20021109032510311/09/02 03:25:31  5-MIN KDBQ 090925Z AUTO 18009KT 10SM CLR 07/04 A2947 1500 82 900 180/09 RMK AO2 TSNO
94908KDBQ DBQ20021109033010311/09/02 03:30:31  5-MIN KDBQ 090930Z AUTO 19008KT 10SM CLR 07/04 A2947 1500 82 900 190/08 RMK AO2 TSNO
94908KDBQ DBQ20021109033510311/09/02 03:35:31  5-MIN KDBQ 090935Z AUTO 19009KT 10SM CLR 06/04 A2947 1500 86 800 190/09 RMK AO2 TSNO
94908KDBQ DBQ20021109034010311/09/02 03:40:31  5-MIN KDBQ 090940Z AUTO 19009KT 10SM CLR 06/04 A2946 1500 86 800 190/09 RMK AO2 TSNO
94908KDBQ DBQ20021109034510311/09/02 03:45:31  5-MIN KDBQ 090945Z AUTO 19010KT 10SM CLR 06/04 A2947 1500 86 800 190/10 RMK AO2 TSNO
94908KDBQ DBQ20021109035012011/09/02 03:50:31  5-MIN KDBQ 090950Z AUTO 19009KT 10SM CLR 07/04 A2947 1500 86 900 190/09 RMK AO2 SLP980 T00670044 TSNO
94908KDBQ DBQ20021109035512011/09/02 03:55:31  5-MIN KDBQ 090955Z AUTO 19009KT 10SM CLR 06/04 A2947 1500 86 800 190/09 RMK AO2 SLP981 T00610039 TSNO
94908KDBQ DBQ20021109040010311/09/02 04:00:31  5-MIN KDBQ 091000Z AUTO 19010KT 10SM CLR 06/04 A2947 1500 89 800 190/10 RMK AO2 TSNO
94908KDBQ DBQ20021109040510311/09/02 04:05:31  5-MIN KDBQ 091005Z AUTO 19009KT 10SM CLR 07/04 A2947 1500 86 900 190/09 RMK AO2 TSNO
94908KDBQ DBQ20021109041010311/09/02 04:10:31  5-MIN KDBQ 091010Z AUTO 19010KT 10SM CLR 07/04 A2947 1500 86 900 190/10 RMK AO2 TSNO
94908KDBQ DBQ20021109041510411/09/02 04:15:31  5-MIN KDBQ 091015Z AUTO 19010KT 10SM CLR 07/05 A2947 1500 86 1000 190/10 RMK AO2 TSNO
94908KDBQ DBQ20021109042010411/09/02 04:20:31  5-MIN KDBQ 091020Z AUTO 19009KT 10SM CLR 07/05 A2947 1500 86 1000 190/09 RMK AO2 TSNO
94908KDBQ DBQ20021109042510411/09/02 04:25:31  5-MIN KDBQ 091025Z AUTO 19009KT 10SM CLR 07/05 A2946 1500 86 1000 190/09 RMK AO2 TSNO
94908KDBQ DBQ20021109043010411/09/02 04:30:31  5-MIN KDBQ 091030Z AUTO 18010KT 10SM CLR 07/05 A2946 1500 86 1000 180/10 RMK AO2 TSNO
94908KDBQ DBQ20021109043510411/09/02 04:35:31  5-MIN KDBQ 091035Z AUTO 19009KT 10SM CLR 07/05 A2946 1500 86 1000 180/09 RMK AO2 TSNO
94908KDBQ DBQ20021109044010411/09/02 04:40:31  5-MIN KDBQ 091040Z AUTO 19010KT 10SM CLR 07/05 A2946 1500 86 1000 190/10 RMK AO2 TSNO
94908KDBQ DBQ20021109044510411/09/02 04:45:31  5-MIN KDBQ 091045Z AUTO 19010KT 10SM CLR 08/06 A2947 1500 86 1000 190/10 RMK AO2 TSNO
94908KDBQ DBQ20021109045012111/09/02 04:50:31  5-MIN KDBQ 091050Z AUTO 18009KT 10SM CLR 08/06 A2946 1500 86 1000 180/09 RMK AO2 SLP979 T00780056 TSNO
94908KDBQ DBQ20021109045512111/09/02 04:55:31  5-MIN KDBQ 091055Z AUTO 18010KT 10SM CLR 08/06 A2946 1500 86 1000 180/10 RMK AO2 SLP979 T00780056 TSNO
94908KDBQ DBQ20021109050010411/09/02 05:00:31  5-MIN KDBQ 091100Z AUTO 19009KT 10SM CLR 08/06 A2947 1500 86 1000 190/09 RMK AO2 TSNO
94908KDBQ DBQ20021109050510411/09/02 05:05:31  5-MIN KDBQ 091105Z AUTO 19008KT 10SM CLR 07/05 A2947 1500 86 1000 190/08 RMK AO2 TSNO
94908KDBQ DBQ20021109051010411/09/02 05:10:31  5-MIN KDBQ 091110Z AUTO 19008KT 10SM CLR 07/05 A2947 1500 86 1000 180/08 RMK AO2 TSNO
94908KDBQ DBQ20021109051510311/09/02 05:15:31  5-MIN KDBQ 091115Z AUTO 18009KT 10SM CLR 07/05 A2946 1500 89 900 180/09 RMK AO2 TSNO
94908KDBQ DBQ20021109052010411/09/02 05:20:31  5-MIN KDBQ 091120Z AUTO 18009KT 10SM CLR 07/05 A2947 1500 86 1000 180/09 RMK AO2 TSNO
94908KDBQ DBQ20021109052510411/09/02 05:25:31  5-MIN KDBQ 091125Z AUTO 18010KT 10SM CLR 07/06 A2946 1500 89 1000 180/10 RMK AO2 TSNO
94908KDBQ DBQ20021109053010411/09/02 05:30:31  5-MIN KDBQ 091130Z AUTO 18010KT 10SM CLR 07/06 A2946 1500 89 1000 180/10 RMK AO2 TSNO
94908KDBQ DBQ20021109053510411/09/02 05:35:31  5-MIN KDBQ 091135Z AUTO 18010KT 10SM CLR 07/06 A2946 1500 89 1000 180/10 RMK AO2 TSNO
94908KDBQ DBQ20021109054010411/09/02 05:40:31  5-MIN KDBQ 091140Z AUTO 19011KT 10SM CLR 07/06 A2946 1500 89 1000 180/11 RMK AO2 TSNO
94908KDBQ DBQ20021109054510411/09/02 05:45:31  5-MIN KDBQ 091145Z AUTO 19011KT 10SM CLR 08/06 A2946 1510 86 1000 180/11 RMK AO2 TSNO
94908KDBQ DBQ20021109055012911/09/02 05:50:31  5-MIN KDBQ 091150Z 18012KT 10SM CLR 08/06 A2946 1510 86 1000 180/12 RMK AO2 SLP978 T00780056 10078 20061 58007
94908KDBQ DBQ20021109055512911/09/02 05:55:31  5-MIN KDBQ 091155Z 18012KT 10SM CLR 08/06 A2946 1510 86 1000 180/12 RMK AO2 SLP978 T00780056 10078 20061 56007
94908KDBQ DBQ20021109060009411/09/02 06:00:31  5-MIN KDBQ 091200Z 19010KT 10SM CLR 08/06 A2946 1510 86 1000 180/10 RMK AO2
94908KDBQ DBQ20021109060509411/09/02 06:05:31  5-MIN KDBQ 091205Z 18012KT 10SM CLR 08/06 A2946 1510 86 1000 180/12 RMK AO2
94908KDBQ DBQ20021109061009411/09/02 06:10:31  5-MIN KDBQ 091210Z 18011KT 10SM CLR 08/06 A2945 1510 86 1000 180/11 RMK AO2
94908KDBQ DBQ20021109061509411/09/02 06:15:31  5-MIN KDBQ 091215Z 18011KT 10SM CLR 08/06 A2945 1510 86 1000 180/11 RMK AO2
94908KDBQ DBQ20021109062009411/09/02 06:20:31  5-MIN KDBQ 091220Z 18011KT 10SM CLR 07/06 A2945 1510 89 1000 180/11 RMK AO2
94908KDBQ DBQ20021109062509411/09/02 06:25:31  5-MIN KDBQ 091225Z 18011KT 10SM CLR 07/06 A2946 1510 89 1000 180/11 RMK AO2
94908KDBQ DBQ20021109063009411/09/02 06:30:31  5-MIN KDBQ 091230Z 18010KT 10SM CLR 07/06 A2945 1510 89 1000 180/10 RMK AO2
94908KDBQ DBQ20021109063509411/09/02 06:35:31  5-MIN KDBQ 091235Z 19010KT 10SM CLR 07/06 A2946 1510 89 1000 180/10 RMK AO2
94908KDBQ DBQ20021109064009411/09/02 06:40:31  5-MIN KDBQ 091240Z 19010KT 10SM CLR 07/06 A2946 1500 89 1000 190/10 RMK AO2
94908KDBQ DBQ20021109064509411/09/02 06:45:31  5-MIN KDBQ 091245Z 19009KT 10SM CLR 07/06 A2947 1500 89 1000 190/09 RMK AO2
94908KDBQ DBQ20021109065011111/09/02 06:50:31  5-MIN KDBQ 091250Z 18009KT 10SM CLR 07/06 A2947 1500 89 1000 180/09 RMK AO2 SLP980 T00720056
94908KDBQ DBQ20021109065511111/09/02 06:55:31  5-MIN KDBQ 091255Z 18009KT 10SM CLR 07/06 A2946 1510 93 1000 180/09 RMK AO2 SLP979 T00720061
94908KDBQ DBQ20021109070009411/09/02 07:00:31  5-MIN KDBQ 091300Z 18010KT 10SM CLR 07/06 A2946 1510 93 1000 180/10 RMK AO2
94908KDBQ DBQ20021109070509411/09/02 07:05:31  5-MIN KDBQ 091305Z 18010KT 10SM CLR 07/06 A2946 1500 93 1000 180/10 RMK AO2
94908KDBQ DBQ20021109071009411/09/02 07:10:31  5-MIN KDBQ 091310Z 18010KT 10SM CLR 07/06 A2946 1500 93 1000 180/10 RMK AO2
94908KDBQ DBQ20021109071509411/09/02 07:15:31  5-MIN KDBQ 091315Z 18010KT 10SM CLR 07/06 A2946 1500 93 1000 180/10 RMK AO2
94908KDBQ DBQ20021109072009411/09/02 07:20:31  5-MIN KDBQ 091320Z 18011KT 10SM CLR 08/06 A2946 1510 89 1000 180/11 RMK AO2
94908KDBQ DBQ20021109072509411/09/02 07:25:31  5-MIN KDBQ 091325Z 18011KT 10SM CLR 08/07 A2946 1510 93 1000 180/11 RMK AO2
94908KDBQ DBQ20021109073009411/09/02 07:30:31  5-MIN KDBQ 091330Z 19010KT 10SM CLR 08/07 A2946 1500 89 1100 180/10 RMK AO2
94908KDBQ DBQ20021109073509411/09/02 07:35:31  5-MIN KDBQ 091335Z 19011KT 10SM CLR 08/07 A2946 1500 89 1100 190/11 RMK AO2
94908KDBQ DBQ20021109074009411/09/02 07:40:31  5-MIN KDBQ 091340Z 19011KT 10SM CLR 08/07 A2947 1500 93 1100 190/11 RMK AO2
94908KDBQ DBQ20021109074509411/09/02 07:45:31  5-MIN KDBQ 091345Z 19012KT 10SM CLR 09/07 A2947 1500 89 1200 190/12 RMK AO2
94908KDBQ DBQ20021109075011111/09/02 07:50:31  5-MIN KDBQ 091350Z 19011KT 10SM CLR 09/07 A2947 1500 89 1200 190/11 RMK AO2 SLP981 T00890072
94908KDBQ DBQ20021109075511111/09/02 07:55:31  5-MIN KDBQ 091355Z 19012KT 10SM CLR 09/07 A2947 1500 89 1200 190/12 RMK AO2 SLP981 T00890072
94908KDBQ DBQ20021109080009411/09/02 08:00:31  5-MIN KDBQ 091400Z 19012KT 10SM CLR 09/08 A2947 1500 89 1200 190/12 RMK AO2
94908KDBQ DBQ20021109080509411/09/02 08:05:31  5-MIN KDBQ 091405Z 19013KT 10SM CLR 09/08 A2947 1500 89 1200 190/13 RMK AO2
94908KDBQ DBQ20021109081009411/09/02 08:10:31  5-MIN KDBQ 091410Z 19013KT 10SM CLR 09/08 A2947 1500 89 1200 190/13 RMK AO2
94908KDBQ DBQ20021109081509411/09/02 08:15:31  5-MIN KDBQ 091415Z 19012KT 10SM CLR 10/08 A2947 1500 86 1300 190/12 RMK AO2
94908KDBQ DBQ20021109082009411/09/02 08:20:31  5-MIN KDBQ 091420Z 19012KT 10SM CLR 10/08 A2947 1490 89 1300 190/12 RMK AO2
94908KDBQ DBQ20021109082509411/09/02 08:25:31  5-MIN KDBQ 091425Z 19013KT 10SM CLR 10/08 A2947 1490 89 1300 190/13 RMK AO2
94908KDBQ DBQ20021109083009411/09/02 08:30:31  5-MIN KDBQ 091430Z 19011KT 10SM CLR 11/08 A2948 1490 86 1400 190/11 RMK AO2
94908KDBQ DBQ20021109083509411/09/02 08:35:31  5-MIN KDBQ 091435Z 19013KT 10SM CLR 11/08 A2948 1490 86 1400 190/13 RMK AO2
94908KDBQ DBQ20021109084009411/09/02 08:40:31  5-MIN KDBQ 091440Z 19013KT 10SM CLR 11/09 A2948 1490 86 1400 190/13 RMK AO2
94908KDBQ DBQ20021109084509411/09/02 08:45:31  5-MIN KDBQ 091445Z 19014KT 10SM CLR 11/09 A2947 1490 86 1400 190/14 RMK AO2
94908KDBQ DBQ20021109085011711/09/02 08:50:31  5-MIN KDBQ 091450Z 19014KT 10SM CLR 12/09 A2947 1500 86 1500 190/14 RMK AO2 SLP982 T01170094 56007
94908KDBQ DBQ20021109085511711/09/02 08:55:31  5-MIN KDBQ 091455Z 19014KT 10SM CLR 12/09 A2947 1500 83 1500 190/14 RMK AO2 SLP982 T01170089 53004
94908KDBQ DBQ20021109090009411/09/02 09:00:31  5-MIN KDBQ 091500Z 19014KT 10SM CLR 12/09 A2947 1500 83 1500 190/14 RMK AO2
94908KDBQ DBQ20021109090509411/09/02 09:05:31  5-MIN KDBQ 091505Z 19014KT 10SM CLR 12/09 A2947 1500 86 1500 190/14 RMK AO2
94908KDBQ DBQ20021109091009411/09/02 09:10:31  5-MIN KDBQ 091510Z 19013KT 10SM CLR 12/09 A2947 1500 86 1500 190/13 RMK AO2
94908KDBQ DBQ20021109091509411/09/02 09:15:31  5-MIN KDBQ 091515Z 19014KT 10SM CLR 12/09 A2947 1500 86 1500 190/14 RMK AO2
94908KDBQ DBQ20021109092009411/09/02 09:20:31  5-MIN KDBQ 091520Z 19014KT 10SM CLR 12/09 A2947 1500 86 1500 190/14 RMK AO2
94908KDBQ DBQ20021109092509411/09/02 09:25:31  5-MIN KDBQ 091525Z 19014KT 10SM CLR 12/09 A2947 1500 86 1500 190/14 RMK AO2
94908KDBQ DBQ20021109093009411/09/02 09:30:31  5-MIN KDBQ 091530Z 19014KT 10SM CLR 12/09 A2947 1490 86 1500 190/14 RMK AO2
94908KDBQ DBQ20021109093509411/09/02 09:35:31  5-MIN KDBQ 091535Z 20014KT 10SM CLR 12/09 A2947 1500 83 1600 200/14 RMK AO2
94908KDBQ DBQ20021109094009411/09/02 09:40:31  5-MIN KDBQ 091540Z 19012KT 10SM CLR 12/09 A2947 1490 83 1600 190/12 RMK AO2
94908KDBQ DBQ20021109094509411/09/02 09:45:31  5-MIN KDBQ 091545Z 19012KT 10SM CLR 12/09 A2948 1490 83 1600 190/12 RMK AO2
94908KDBQ DBQ20021109095011111/09/02 09:50:31  5-MIN KDBQ 091550Z 20012KT 10SM CLR 13/10 A2948 1490 83 1600 200/12 RMK AO2 SLP983 T01280100
94908KDBQ DBQ20021109095511111/09/02 09:55:31  5-MIN KDBQ 091555Z 19014KT 10SM CLR 13/10 A2947 1490 83 1600 190/14 RMK AO2 SLP982 T01280100
94908KDBQ DBQ20021109100009411/09/02 10:00:31  5-MIN KDBQ 091600Z 20012KT 10SM CLR 13/10 A2947 1490 83 1600 200/12 RMK AO2
94908KDBQ DBQ20021109100509411/09/02 10:05:31  5-MIN KDBQ 091605Z 20013KT 10SM CLR 13/10 A2947 1500 83 1600 200/13 RMK AO2
94908KDBQ DBQ20021109101009411/09/02 10:10:31  5-MIN KDBQ 091610Z 19011KT 10SM CLR 13/10 A2947 1500 80 1700 190/11 RMK AO2
94908KDBQ DBQ20021109101509411/09/02 10:15:31  5-MIN KDBQ 091615Z 20013KT 10SM CLR 13/10 A2946 1500 80 1700 190/13 RMK AO2
94908KDBQ DBQ20021109102009411/09/02 10:20:31  5-MIN KDBQ 091620Z 20016KT 10SM CLR 14/11 A2946 1510 80 1800 190/16 RMK AO2
94908KDBQ DBQ20021109102509411/09/02 10:25:31  5-MIN KDBQ 091625Z 19015KT 10SM CLR 14/11 A2946 1510 77 1800 190/15 RMK AO2
94908KDBQ DBQ20021109103009411/09/02 10:30:31  5-MIN KDBQ 091630Z 19014KT 10SM CLR 14/11 A2946 1510 77 1800 190/14 RMK AO2
94908KDBQ DBQ20021109103509411/09/02 10:35:31  5-MIN KDBQ 091635Z 18014KT 10SM CLR 14/11 A2945 1520 77 1800 180/14 RMK AO2
94908KDBQ DBQ20021109104009411/09/02 10:40:31  5-MIN KDBQ 091640Z 19016KT 10SM CLR 14/11 A2945 1520 77 1800 190/16 RMK AO2
94908KDBQ DBQ20021109104509411/09/02 10:45:31  5-MIN KDBQ 091645Z 19017KT 10SM CLR 14/11 A2944 1530 77 1900 190/17 RMK AO2
94908KDBQ DBQ20021109105011111/09/02 10:50:31  5-MIN KDBQ 091650Z 19016KT 10SM CLR 14/11 A2944 1520 77 1900 190/16 RMK AO2 SLP972 T01440106
94908KDBQ DBQ20021109105511111/09/02 10:55:31  5-MIN KDBQ 091655Z 20015KT 10SM CLR 14/11 A2945 1520 77 1800 190/15 RMK AO2 SLP974 T01440106
94908KDBQ DBQ20021109110009411/09/02 11:00:31  5-MIN KDBQ 091700Z 19017KT 10SM CLR 14/11 A2944 1530 77 1900 180/17 RMK AO2
94908KDBQ DBQ20021109110509411/09/02 11:05:31  5-MIN KDBQ 091705Z 19016KT 10SM CLR 15/11 A2944 1530 74 1900 190/16 RMK AO2
94908KDBQ DBQ20021109111009411/09/02 11:10:31  5-MIN KDBQ 091710Z 19015KT 10SM CLR 15/11 A2944 1530 74 1900 190/15 RMK AO2
94908KDBQ DBQ20021109111509411/09/02 11:15:31  5-MIN KDBQ 091715Z 19015KT 10SM CLR 15/11 A2944 1530 74 1900 190/15 RMK AO2
94908KDBQ DBQ20021109112009411/09/02 11:20:31  5-MIN KDBQ 091720Z 19014KT 10SM CLR 16/11 A2943 1530 74 2000 190/14 RMK AO2
94908KDBQ DBQ20021109112509411/09/02 11:25:31  5-MIN KDBQ 091725Z 20013KT 10SM CLR 15/11 A2943 1530 74 1900 200/13 RMK AO2
94908KDBQ DBQ20021109113009411/09/02 11:30:31  5-MIN KDBQ 091730Z 20014KT 10SM CLR 16/11 A2943 1540 72 2100 200/14 RMK AO2
94908KDBQ DBQ20021109113509411/09/02 11:35:31  5-MIN KDBQ 091735Z 20014KT 10SM CLR 16/11 A2942 1540 72 2100 200/14 RMK AO2
94908KDBQ DBQ20021109114009411/09/02 11:40:31  5-MIN KDBQ 091740Z 20013KT 10SM CLR 16/11 A2942 1540 74 2000 200/13 RMK AO2
94908KDBQ DBQ20021109114509411/09/02 11:45:31  5-MIN KDBQ 091745Z 19014KT 10SM CLR 16/11 A2942 1550 74 2000 190/14 RMK AO2
94908KDBQ DBQ20021109115012911/09/02 11:50:31  5-MIN KDBQ 091750Z 19012KT 10SM CLR 16/11 A2942 1540 74 2000 190/12 RMK AO2 SLP964 T01560111 10161 20072 53004
94908KDBQ DBQ20021109115512911/09/02 11:55:31  5-MIN KDBQ 091755Z 20015KT 10SM CLR 16/12 A2942 1540 75 2100 190/15 RMK AO2 SLP964 T01610117 10161 20072 58016
94908KDBQ DBQ20021109120009411/09/02 12:00:31  5-MIN KDBQ 091800Z 19015KT 10SM CLR 16/11 A2942 1550 74 2000 190/15 RMK AO2
94908KDBQ DBQ20021109120509411/09/02 12:05:31  5-MIN KDBQ 091805Z 19014KT 10SM CLR 16/11 A2942 1550 72 2100 190/14 RMK AO2
94908KDBQ DBQ20021109121009411/09/02 12:10:31  5-MIN KDBQ 091810Z 19012KT 10SM CLR 16/11 A2941 1550 74 2000 190/12 RMK AO2
94908KDBQ DBQ20021109121509411/09/02 12:15:31  5-MIN KDBQ 091815Z 18013KT 10SM CLR 16/11 A2941 1560 72 2100 180/13 RMK AO2
94908KDBQ DBQ20021109122009411/09/02 12:20:31  5-MIN KDBQ 091820Z 19012KT 10SM CLR 16/11 A2940 1560 72 2100 190/12 RMK AO2
94908KDBQ DBQ20021109122509411/09/02 12:25:31  5-MIN KDBQ 091825Z 19011KT 10SM CLR 16/11 A2940 1560 72 2100 190/11 RMK AO2
94908KDBQ DBQ20021109123009411/09/02 12:30:31  5-MIN KDBQ 091830Z 18013KT 10SM CLR 16/11 A2940 1560 72 2100 180/13 RMK AO2
94908KDBQ DBQ20021109123509411/09/02 12:35:31  5-MIN KDBQ 091835Z 18011KT 10SM CLR 16/11 A2940 1560 72 2100 180/11 RMK AO2
94908KDBQ DBQ20021109124009411/09/02 12:40:31  5-MIN KDBQ 091840Z 20015KT 10SM CLR 16/12 A2940 1560 75 2100 190/15 RMK AO2
94908KDBQ DBQ20021109124509411/09/02 12:45:31  5-MIN KDBQ 091845Z 20013KT 10SM CLR 16/12 A2940 1560 75 2100 190/13 RMK AO2
94908KDBQ DBQ20021109125011111/09/02 12:50:31  5-MIN KDBQ 091850Z 19012KT 10SM CLR 17/12 A2939 1570 72 2200 190/12 RMK AO2 SLP954 T01670117
94908KDBQ DBQ20021109125511111/09/02 12:55:31  5-MIN KDBQ 091855Z 19015KT 10SM CLR 17/12 A2939 1580 72 2200 180/15 RMK AO2 SLP952 T01670117
94908KDBQ DBQ20021109130009411/09/02 13:00:31  5-MIN KDBQ 091900Z 18015KT 10SM CLR 17/12 A2938 1580 72 2200 180/15 RMK AO2
94908KDBQ DBQ20021109130509411/09/02 13:05:31  5-MIN KDBQ 091905Z 17014KT 10SM CLR 17/12 A2938 1580 69 2200 170/14 RMK AO2
94908KDBQ DBQ20021109131009411/09/02 13:10:31  5-MIN KDBQ 091910Z 18013KT 10SM CLR 17/12 A2938 1580 69 2200 180/13 RMK AO2
94908KDBQ DBQ20021109131510011/09/02 13:15:31  5-MIN KDBQ 091915Z 19013G18KT 10SM CLR 17/12 A2938 1590 69 2300 190/13G18 RMK AO2
94908KDBQ DBQ20021109132009411/09/02 13:20:31  5-MIN KDBQ 091920Z 19013KT 10SM CLR 17/12 A2937 1590 72 2200 190/13 RMK AO2
94908KDBQ DBQ20021109132509411/09/02 13:25:31  5-MIN KDBQ 091925Z 17012KT 10SM CLR 17/12 A2937 1590 72 2200 170/12 RMK AO2
94908KDBQ DBQ20021109133009411/09/02 13:30:31  5-MIN KDBQ 091930Z 17013KT 10SM CLR 17/12 A2937 1590 69 2300 170/13 RMK AO2
94908KDBQ DBQ20021109133509411/09/02 13:35:31  5-MIN KDBQ 091935Z 16013KT 10SM CLR 17/12 A2937 1590 69 2300 160/13 RMK AO2
94908KDBQ DBQ20021109134009411/09/02 13:40:31  5-MIN KDBQ 091940Z 17016KT 10SM CLR 17/12 A2937 1600 69 2300 170/16 RMK AO2
94908KDBQ DBQ20021109134510011/09/02 13:45:31  5-MIN KDBQ 091945Z 16016G21KT 10SM CLR 17/12 A2936 1600 72 2200 160/16G21 RMK AO2
94908KDBQ DBQ20021109135011711/09/02 13:50:31  5-MIN KDBQ 091950Z 17013G21KT 10SM CLR 17/12 A2936 1600 72 2200 170/13G21 RMK AO2 SLP942 T01670117
94908KDBQ DBQ20021109135511111/09/02 13:55:31  5-MIN KDBQ 091955Z 16011KT 10SM CLR 17/12 A2936 1600 72 2200 160/11 RMK AO2 SLP941 T01670117
94908KDBQ DBQ20021109140009411/09/02 14:00:31  5-MIN KDBQ 092000Z 17014KT 10SM CLR 17/12 A2935 1610 72 2200 170/14 RMK AO2
94908KDBQ DBQ20021109140509411/09/02 14:05:31  5-MIN KDBQ 092005Z 16011KT 10SM CLR 17/12 A2935 1610 69 2300 160/11 RMK AO2
94908KDBQ DBQ20021109141009411/09/02 14:10:31  5-MIN KDBQ 092010Z 17012KT 10SM CLR 17/12 A2935 1610 72 2200 160/12 RMK AO2
94908KDBQ DBQ20021109141509411/09/02 14:15:31  5-MIN KDBQ 092015Z 16013KT 10SM CLR 17/12 A2934 1620 69 2300 160/13 RMK AO2
94908KDBQ DBQ20021109142009411/09/02 14:20:31  5-MIN KDBQ 092020Z 16013KT 10SM CLR 17/12 A2934 1620 69 2300 160/13 RMK AO2
94908KDBQ DBQ20021109142509411/09/02 14:25:31  5-MIN KDBQ 092025Z 16012KT 10SM CLR 17/12 A2934 1620 69 2300 160/12 RMK AO2
94908KDBQ DBQ20021109143009411/09/02 14:30:31  5-MIN KDBQ 092030Z 16011KT 10SM CLR 17/12 A2934 1620 69 2300 160/11 RMK AO2
94908KDBQ DBQ20021109143510311/09/02 14:35:31  5-MIN KDBQ 092035Z 16014G19KT 10SM FEW026 17/12 A2934 1620 69 2300 160/14G19 RMK AO2
94908KDBQ DBQ20021109144010311/09/02 14:40:31  5-MIN KDBQ 092040Z 16011G19KT 10SM FEW026 17/12 A2934 1620 69 2300 160/11G19 RMK AO2
94908KDBQ DBQ20021109144510011/09/02 14:45:31  5-MIN KDBQ 092045Z 17015G18KT 10SM CLR 17/12 A2934 1620 69 2300 170/15G18 RMK AO2
94908KDBQ DBQ20021109145012011/09/02 14:50:31  5-MIN KDBQ 092050Z 17013KT 10SM FEW026 17/12 A2934 1620 69 2300 160/13 RMK AO2 SLP935 T01720117 58016
94908KDBQ DBQ20021109145512011/09/02 14:55:31  5-MIN KDBQ 092055Z 16013KT 10SM FEW026 17/12 A2934 1620 69 2300 160/13 RMK AO2 SLP934 T01720117 56028
94908KDBQ DBQ20021109150009711/09/02 15:00:31  5-MIN KDBQ 092100Z 16014KT 10SM SCT028 17/12 A2934 1620 72 2200 160/14 RMK AO2
94908KDBQ DBQ20021109150509711/09/02 15:05:31  5-MIN KDBQ 092105Z 16012KT 10SM BKN028 17/12 A2934 1620 72 2200 160/12 RMK AO2
94908KDBQ DBQ20021109151009711/09/02 15:10:31  5-MIN KDBQ 092110Z 16013KT 10SM BKN028 17/12 A2934 1620 72 2200 160/13 RMK AO2
94908KDBQ DBQ20021109151509711/09/02 15:15:31  5-MIN KDBQ 092115Z 16013KT 10SM BKN028 17/12 A2934 1620 72 2200 160/13 RMK AO2
94908KDBQ DBQ20021109152009711/09/02 15:20:31  5-MIN KDBQ 092120Z 16015KT 10SM BKN028 17/12 A2934 1620 72 2200 160/15 RMK AO2
94908KDBQ DBQ20021109152509711/09/02 15:25:31  5-MIN KDBQ 092125Z 16013KT 10SM OVC030 17/12 A2934 1620 72 2200 160/13 RMK AO2
94908KDBQ DBQ20021109153010411/09/02 15:30:31  5-MIN KDBQ 092130Z 16014KT 10SM BKN028 OVC034 17/12 A2934 1620 72 2200 160/14 RMK AO2
94908KDBQ DBQ20021109153510411/09/02 15:35:31  5-MIN KDBQ 092135Z 16012KT 10SM BKN030 OVC034 17/12 A2934 1620 72 2200 160/12 RMK AO2
94908KDBQ DBQ20021109154010411/09/02 15:40:31  5-MIN KDBQ 092140Z 16012KT 10SM SCT028 OVC035 17/12 A2933 1630 72 2200 160/12 RMK AO2
94908KDBQ DBQ20021109154510411/09/02 15:45:31  5-MIN KDBQ 092145Z 16011KT 10SM FEW028 OVC037 17/12 A2933 1630 72 2200 160/11 RMK AO2
94908KDBQ DBQ20021109155012011/09/02 15:50:31  5-MIN KDBQ 092150Z 16011KT 9SM SCT030 OVC038 17/12 A2933 1630 72 2200 160/11 RMK AO2 SLP933 T01670117
94908KDBQ DBQ20021109155512011/09/02 15:55:31  5-MIN KDBQ 092155Z 16011KT 9SM SCT028 OVC035 17/12 A2933 1630 72 2200 160/11 RMK AO2 SLP933 T01670117
94908KDBQ DBQ20021109160010311/09/02 16:00:31  5-MIN KDBQ 092200Z 16011KT 9SM FEW028 OVC037 16/12 A2933 1630 75 2200 160/11 RMK AO2
94908KDBQ DBQ20021109160510311/09/02 16:05:31  5-MIN KDBQ 092205Z 16009KT 9SM FEW029 OVC038 16/12 A2933 1630 77 2200 160/09 RMK AO2
94908KDBQ DBQ20021109161010311/09/02 16:10:31  5-MIN KDBQ 092210Z 16010KT 9SM SCT029 OVC038 16/12 A2933 1630 77 2200 160/10 RMK AO2
94908KDBQ DBQ20021109161510311/09/02 16:15:31  5-MIN KDBQ 092215Z 16012KT 9SM BKN030 OVC038 16/12 A2933 1630 77 2200 160/12 RMK AO2
94908KDBQ DBQ20021109162010311/09/02 16:20:31  5-MIN KDBQ 092220Z 16011KT 9SM BKN030 OVC038 16/12 A2932 1640 77 2200 160/11 RMK AO2
94908KDBQ DBQ20021109162510311/09/02 16:25:31  5-MIN KDBQ 092225Z 16012KT 9SM BKN030 OVC038 16/12 A2932 1640 77 2200 150/12 RMK AO2
94908KDBQ DBQ20021109163010311/09/02 16:30:31  5-MIN KDBQ 092230Z 16011KT 9SM BKN030 OVC038 16/12 A2932 1640 77 2200 160/11 RMK AO2
94908KDBQ DBQ20021109163510311/09/02 16:35:31  5-MIN KDBQ 092235Z 16009KT 9SM BKN030 OVC038 16/12 A2932 1630 77 2200 160/09 RMK AO2
94908KDBQ DBQ20021109164010311/09/02 16:40:31  5-MIN KDBQ 092240Z 16010KT 9SM BKN030 OVC038 16/12 A2933 1630 77 2200 160/10 RMK AO2
94908KDBQ DBQ20021109164509611/09/02 16:45:31  5-MIN KDBQ 092245Z 16010KT 9SM OVC042 16/12 A2932 1640 80 2100 160/10 RMK AO2
94908KDBQ DBQ20021109165011311/09/02 16:50:31  5-MIN KDBQ 092250Z 17009KT 9SM OVC042 16/12 A2932 1630 77 2100 170/09 RMK AO2 SLP930 T01560117
94908KDBQ DBQ20021109165512011/09/02 16:55:31  5-MIN KDBQ 092255Z 17009KT 9SM FEW032 OVC042 16/12 A2932 1630 77 2100 170/09 RMK AO2 SLP930 T01560117
94908KDBQ DBQ20021109170010311/09/02 17:00:31  5-MIN KDBQ 092300Z 16009KT 9SM FEW029 OVC042 16/12 A2932 1640 77 2100 160/09 RMK AO2
94908KDBQ DBQ20021109170510311/09/02 17:05:31  5-MIN KDBQ 092305Z 17008KT 9SM SCT030 OVC042 16/12 A2932 1630 77 2100 170/08 RMK AO2
94908KDBQ DBQ20021109171011011/09/02 17:10:31  5-MIN KDBQ 092310Z 16008KT 9SM SCT030 BKN036 OVC044 16/12 A2933 1630 77 2100 160/08 RMK AO2
94908KDBQ DBQ20021109171511011/09/02 17:15:31  5-MIN KDBQ 092315Z 16007KT 9SM SCT030 BKN037 OVC046 16/12 A2933 1630 77 2100 160/07 RMK AO2
94908KDBQ DBQ20021109172010311/09/02 17:20:31  5-MIN KDBQ 092320Z 17007KT 9SM BKN032 OVC044 15/12 A2933 1630 80 2000 160/07 RMK AO2
94908KDBQ DBQ20021109172510311/09/02 17:25:31  5-MIN KDBQ 092325Z 16007KT 9SM BKN033 OVC046 15/12 A2933 1630 80 2000 160/07 RMK AO2
94908KDBQ DBQ20021109173011011/09/02 17:30:31  5-MIN KDBQ 092330Z 16007KT 9SM FEW029 BKN035 OVC046 15/12 A2933 1630 80 2000 160/07 RMK AO2
94908KDBQ DBQ20021109173510311/09/02 17:35:31  5-MIN KDBQ 092335Z 16007KT 9SM SCT032 OVC046 15/12 A2933 1630 80 2000 160/07 RMK AO2
94908KDBQ DBQ20021109174011011/09/02 17:40:31  5-MIN KDBQ 092340Z 16007KT 9SM SCT032 BKN040 OVC055 15/12 A2933 1630 80 2000 160/07 RMK AO2
94908KDBQ DBQ20021109174511011/09/02 17:45:31  5-MIN KDBQ 092345Z 16007KT 9SM SCT033 BKN044 OVC055 15/12 A2933 1630 80 2000 160/07 RMK AO2
94908KDBQ DBQ20021109175014511/09/02 17:50:31  5-MIN KDBQ 092350Z 16008KT 9SM FEW033 BKN047 OVC055 15/12 A2933 1630 80 2000 160/08 RMK AO2 SLP932 T01500117 10172 20150 56028
94908KDBQ DBQ20021109175514511/09/02 17:55:31  5-MIN KDBQ 092355Z 15007KT 9SM SCT033 BKN044 OVC055 15/12 A2933 1630 80 2100 150/07 RMK AO2 SLP931 T01500117 10172 20150 55003
94908KDBQ DBQ20021109180011011/09/02 18:00:31  5-MIN KDBQ 100000Z 15009KT 9SM FEW033 BKN050 OVC055 15/12 A2932 1640 80 2100 150/09 RMK AO2
94908KDBQ DBQ20021109180511011/09/02 18:05:31  5-MIN KDBQ 100005Z 16008KT 9SM FEW033 BKN045 OVC055 15/12 A2933 1630 80 2100 160/08 RMK AO2
94908KDBQ DBQ20021109181011011/09/02 18:10:31  5-MIN KDBQ 100010Z 16008KT 9SM FEW032 SCT039 OVC055 15/12 A2932 1630 80 2100 160/08 RMK AO2
94908KDBQ DBQ20021109181511011/09/02 18:15:31  5-MIN KDBQ 100015Z 16009KT 9SM FEW029 SCT049 OVC060 15/12 A2932 1630 80 2100 150/09 RMK AO2
94908KDBQ DBQ20021109182011011/09/02 18:20:31  5-MIN KDBQ 100020Z 15009KT 9SM FEW033 SCT044 OVC055 15/12 A2932 1630 83 2100 150/09 RMK AO2
94908KDBQ DBQ20021109182510311/09/02 18:25:31  5-MIN KDBQ 100025Z 15009KT 8SM FEW033 OVC055 15/12 A2932 1640 83 2100 150/09 RMK AO2
94908KDBQ DBQ20021109183010311/09/02 18:30:31  5-MIN KDBQ 100030Z 15009KT 8SM FEW029 OVC055 15/12 A2932 1640 83 2100 150/09 RMK AO2
94908KDBQ DBQ20021109183510311/09/02 18:35:31  5-MIN KDBQ 100035Z 15007KT 8SM FEW037 OVC055 15/12 A2932 1640 83 2100 150/07 RMK AO2
94908KDBQ DBQ20021109184010311/09/02 18:40:31  5-MIN KDBQ 100040Z 15008KT 8SM FEW035 OVC060 15/12 A2932 1640 83 2100 150/08 RMK AO2
94908KDBQ DBQ20021109184509611/09/02 18:45:31  5-MIN KDBQ 100045Z 15008KT 8SM OVC060 15/12 A2932 1630 83 2100 150/08 RMK AO2
94908KDBQ DBQ20021109185012011/09/02 18:50:31  5-MIN KDBQ 100050Z 15009KT 8SM FEW043 OVC060 15/12 A2932 1640 83 2100 150/09 RMK AO2 SLP931 T01500122
94908KDBQ DBQ20021109185512011/09/02 18:55:31  5-MIN KDBQ 100055Z 15010KT 8SM FEW042 OVC060 15/12 A2932 1640 83 2100 150/10 RMK AO2 SLP930 T01500122
94908KDBQ DBQ20021109190010311/09/02 19:00:31  5-MIN KDBQ 100100Z 15010KT 8SM FEW045 OVC060 15/12 A2932 1640 83 2100 150/10 RMK AO2
94908KDBQ DBQ20021109190510311/09/02 19:05:31  5-MIN KDBQ 100105Z 15010KT 8SM FEW035 OVC060 15/12 A2932 1640 83 2100 140/10 RMK AO2
94908KDBQ DBQ20021109191010311/09/02 19:10:31  5-MIN KDBQ 100110Z 15009KT 8SM FEW035 OVC060 15/12 A2932 1640 83 2100 150/09 RMK AO2
94908KDBQ DBQ20021109191510311/09/02 19:15:31  5-MIN KDBQ 100115Z 15012KT 8SM FEW042 OVC060 15/12 A2932 1640 83 2100 150/12 RMK AO2
94908KDBQ DBQ20021109192010311/09/02 19:20:31  5-MIN KDBQ 100120Z 15012KT 7SM FEW040 OVC065 15/12 A2931 1650 83 2100 150/12 RMK AO2
94908KDBQ DBQ20021109192510311/09/02 19:25:31  5-MIN KDBQ 100125Z 15012KT 7SM FEW040 OVC065 15/12 A2931 1650 83 2100 150/12 RMK AO2
94908KDBQ DBQ20021109193010311/09/02 19:30:31  5-MIN KDBQ 100130Z 15011KT 7SM FEW037 OVC065 15/12 A2931 1650 83 2100 150/11 RMK AO2
94908KDBQ DBQ20021109193510311/09/02 19:35:31  5-MIN KDBQ 100135Z 15010KT 7SM FEW040 OVC070 14/12 A2931 1650 86 2000 150/10 RMK AO2
94908KDBQ DBQ20021109194010311/09/02 19:40:31  5-MIN KDBQ 100140Z 15010KT 7SM FEW038 OVC070 14/12 A2931 1650 86 2000 150/10 RMK AO2
94908KDBQ DBQ20021109194510311/09/02 19:45:31  5-MIN KDBQ 100145Z 15011KT 7SM FEW038 OVC070 14/12 A2930 1650 86 2000 150/11 RMK AO2
94908KDBQ DBQ20021109195012311/09/02 19:50:31  5-MIN KDBQ 100150Z AUTO 15012KT 7SM BKN070 14/12 A2930 1660 86 2000 150/12 RMK AO2 SLP922 T01440122 TSNO
94908KDBQ DBQ20021109195512611/09/02 19:55:31  5-MIN KDBQ 100155Z AUTO 15011KT 6SM BR BKN075 14/12 A2930 1660 86 2000 150/11 RMK AO2 SLP922 T01440122 TSNO
94908KDBQ DBQ20021109200010911/09/02 20:00:31  5-MIN KDBQ 100200Z AUTO 15010KT 6SM BR BKN075 14/12 A2930 1660 86 2000 150/10 RMK AO2 TSNO
94908KDBQ DBQ20021109200510911/09/02 20:05:31  5-MIN KDBQ 100205Z AUTO 15011KT 6SM BR BKN070 14/12 A2930 1660 86 2000 150/11 RMK AO2 TSNO
94908KDBQ DBQ20021109201011611/09/02 20:10:31  5-MIN KDBQ 100210Z AUTO 15010KT 6SM BR FEW038 BKN075 14/12 A2930 1660 86 2000 150/10 RMK AO2 TSNO
94908KDBQ DBQ20021109201512311/09/02 20:15:31  5-MIN KDBQ 100215Z AUTO 15009KT 6SM BR SCT034 SCT060 BKN075 14/12 A2930 1660 86 2000 150/09 RMK AO2 TSNO
94908KDBQ DBQ20021109202012311/09/02 20:20:31  5-MIN KDBQ 100220Z AUTO 15009KT 6SM BR SCT034 SCT055 OVC070 14/12 A2930 1660 86 2000 150/09 RMK AO2 TSNO
94908KDBQ DBQ20021109202512311/09/02 20:25:31  5-MIN KDBQ 100225Z AUTO 15010KT 6SM BR FEW034 BKN055 OVC070 14/12 A2929 1660 86 2000 150/10 RMK AO2 TSNO
94908KDBQ DBQ20021109203012311/09/02 20:30:31  5-MIN KDBQ 100230Z AUTO 15011KT 6SM BR BKN038 BKN050 OVC070 14/12 A2929 1660 86 2000 150/11 RMK AO2 TSNO
94908KDBQ DBQ20021109203512311/09/02 20:35:31  5-MIN KDBQ 100235Z AUTO 15012KT 6SM BR BKN038 BKN050 OVC075 14/12 A2929 1660 86 2000 150/12 RMK AO2 TSNO
94908KDBQ DBQ20021109204012311/09/02 20:40:31  5-MIN KDBQ 100240Z AUTO 15011KT 6SM BR FEW036 SCT043 BKN070 14/12 A2930 1660 90 2000 150/11 RMK AO2 TSNO
94908KDBQ DBQ20021109204511611/09/02 20:45:31  5-MIN KDBQ 100245Z AUTO 15010KT 6SM BR SCT041 BKN075 14/12 A2929 1660 90 2000 150/10 RMK AO2 TSNO
94908KDBQ DBQ20021109205013911/09/02 20:50:31  5-MIN KDBQ 100250Z AUTO 15011KT 6SM BR SCT041 OVC075 14/12 A2929 1660 90 2000 150/11 RMK AO2 SLP920 T01390122 55003 TSNO
94908KDBQ DBQ20021109205514611/09/02 20:55:31  5-MIN KDBQ 100255Z AUTO 15012KT 6SM BR FEW036 SCT043 OVC075 14/12 A2929 1660 90 2000 150/12 RMK AO2 SLP920 T01390122 58011 TSNO
94908KDBQ DBQ20021109210011611/09/02 21:00:31  5-MIN KDBQ 100300Z AUTO 15010KT 6SM BR FEW036 OVC075 14/12 A2929 1670 90 2000 150/10 RMK AO2 TSNO
94908KDBQ DBQ20021109210511611/09/02 21:05:31  5-MIN KDBQ 100305Z AUTO 15010KT 6SM BR FEW040 OVC075 14/12 A2929 1670 90 2000 150/10 RMK AO2 TSNO
94908KDBQ DBQ20021109211011611/09/02 21:10:31  5-MIN KDBQ 100310Z AUTO 15011KT 6SM BR FEW043 OVC075 14/12 A2929 1670 90 2000 150/11 RMK AO2 TSNO
94908KDBQ DBQ20021109211511611/09/02 21:15:31  5-MIN KDBQ 100315Z AUTO 15012KT 6SM BR FEW043 OVC070 14/12 A2929 1670 90 2000 150/12 RMK AO2 TSNO
94908KDBQ DBQ20021109212011611/09/02 21:20:31  5-MIN KDBQ 100320Z AUTO 15012KT 6SM BR FEW043 OVC070 14/12 A2928 1670 90 2000 150/12 RMK AO2 TSNO
94908KDBQ DBQ20021109212510911/09/02 21:25:31  5-MIN KDBQ 100325Z AUTO 15011KT 6SM BR OVC070 14/12 A2928 1670 90 2000 150/11 RMK AO2 TSNO
94908KDBQ DBQ20021109213010911/09/02 21:30:31  5-MIN KDBQ 100330Z AUTO 15011KT 6SM BR OVC070 14/12 A2928 1670 90 2000 150/11 RMK AO2 TSNO
94908KDBQ DBQ20021109213511611/09/02 21:35:31  5-MIN KDBQ 100335Z AUTO 16011KT 6SM BR FEW041 OVC070 14/12 A2928 1670 90 2000 160/11 RMK AO2 TSNO
94908KDBQ DBQ20021109214011611/09/02 21:40:31  5-MIN KDBQ 100340Z AUTO 15013KT 6SM BR FEW041 OVC070 14/12 A2928 1680 90 2000 150/13 RMK AO2 TSNO
94908KDBQ DBQ20021109214511611/09/02 21:45:31  5-MIN KDBQ 100345Z AUTO 16012KT 6SM BR FEW041 OVC075 14/12 A2928 1680 90 2000 160/12 RMK AO2 TSNO
94908KDBQ DBQ20021109215013311/09/02 21:50:31  5-MIN KDBQ 100350Z AUTO 15012KT 6SM BR FEW041 OVC075 14/12 A2928 1680 90 2000 150/12 RMK AO2 SLP913 T01390122 TSNO
94908KDBQ DBQ20021109215513311/09/02 21:55:31  5-MIN KDBQ 100355Z AUTO 16011KT 6SM BR FEW041 OVC075 14/12 A2928 1680 90 2000 160/11 RMK AO2 SLP913 T01390122 TSNO
94908KDBQ DBQ20021109220011611/09/02 22:00:31  5-MIN KDBQ 100400Z AUTO 16010KT 6SM BR FEW041 OVC070 14/12 A2928 1680 90 2000 160/10 RMK AO2 TSNO
94908KDBQ DBQ20021109220510911/09/02 22:05:31  5-MIN KDBQ 100405Z AUTO 17009KT 6SM BR OVC070 14/12 A2928 1680 90 2000 170/09 RMK AO2 TSNO
94908KDBQ DBQ20021109221010911/09/02 22:10:31  5-MIN KDBQ 100410Z AUTO 19013KT 6SM BR OVC070 14/12 A2927 1680 86 2000 190/13 RMK AO2 TSNO
94908KDBQ DBQ20021109221511311/09/02 22:15:31  5-MIN KDBQ 100415Z AUTO 18010KT 7SM FEW050 OVC070 14/12 A2927 1680 86 2000 180/10 RMK AO2 TSNO
94908KDBQ DBQ20021109222011311/09/02 22:20:31  5-MIN KDBQ 100420Z AUTO 19008KT 7SM FEW050 OVC070 14/12 A2927 1680 86 2000 190/08 RMK AO2 TSNO
94908KDBQ DBQ20021109222510611/09/02 22:25:31  5-MIN KDBQ 100425Z AUTO 17010KT 7SM OVC070 14/12 A2927 1680 86 2100 170/10 RMK AO2 TSNO
94908KDBQ DBQ20021109223010611/09/02 22:30:31  5-MIN KDBQ 100430Z AUTO 17009KT 7SM OVC070 14/12 A2927 1690 86 2100 170/09 RMK AO2 TSNO
94908KDBQ DBQ20021109223510611/09/02 22:35:31  5-MIN KDBQ 100435Z AUTO 19009KT 7SM OVC070 14/12 A2927 1690 86 2100 180/09 RMK AO2 TSNO
94908KDBQ DBQ20021109224010611/09/02 22:40:31  5-MIN KDBQ 100440Z AUTO 19007KT 7SM OVC070 14/12 A2927 1690 86 2100 190/07 RMK AO2 TSNO
94908KDBQ DBQ20021109224510611/09/02 22:45:31  5-MIN KDBQ 100445Z AUTO 20007KT 7SM OVC070 14/12 A2927 1690 90 2000 200/07 RMK AO2 TSNO
94908KDBQ DBQ20021109225012311/09/02 22:50:31  5-MIN KDBQ 100450Z AUTO 20007KT 7SM OVC070 14/12 A2926 1690 86 2000 200/07 RMK AO2 SLP908 T01390117 TSNO
94908KDBQ DBQ20021109225512611/09/02 22:55:31  5-MIN KDBQ 100455Z AUTO 19007KT 6SM BR BKN070 13/12 A2926 1690 89 1900 190/07 RMK AO2 SLP909 T01330117 TSNO
94908KDBQ DBQ20021109230010911/09/02 23:00:31  5-MIN KDBQ 100500Z AUTO 19008KT 6SM BR BKN070 13/12 A2926 1690 89 1900 190/08 RMK AO2 TSNO
94908KDBQ DBQ20021109230510911/09/02 23:05:31  5-MIN KDBQ 100505Z AUTO 18009KT 6SM BR BKN065 13/12 A2926 1690 89 1900 180/09 RMK AO2 TSNO
94908KDBQ DBQ20021109231010911/09/02 23:10:31  5-MIN KDBQ 100510Z AUTO 18008KT 6SM BR SCT065 13/12 A2926 1690 89 1900 180/08 RMK AO2 TSNO
94908KDBQ DBQ20021109231510911/09/02 23:15:31  5-MIN KDBQ 100515Z AUTO 17008KT 6SM BR FEW065 13/12 A2926 1700 93 1900 170/08 RMK AO2 TSNO
94908KDBQ DBQ20021109232010911/09/02 23:20:31  5-MIN KDBQ 100520Z AUTO 18007KT 6SM BR FEW065 13/12 A2926 1700 93 1900 180/07 RMK AO2 TSNO
94908KDBQ DBQ20021109232510911/09/02 23:25:31  5-MIN KDBQ 100525Z AUTO 18007KT 6SM BR FEW065 13/11 A2926 1700 89 1900 180/07 RMK AO2 TSNO
94908KDBQ DBQ20021109233010911/09/02 23:30:31  5-MIN KDBQ 100530Z AUTO 19006KT 6SM BR FEW065 12/11 A2926 1700 93 1800 190/06 RMK AO2 TSNO
94908KDBQ DBQ20021109233510611/09/02 23:35:31  5-MIN KDBQ 100535Z AUTO 19007KT 6SM BR CLR 12/11 A2926 1700 93 1800 190/07 RMK AO2 TSNO
94908KDBQ DBQ20021109234010911/09/02 23:40:31  5-MIN KDBQ 100540Z AUTO 18006KT 5SM BR FEW060 12/11 A2926 1700 93 1700 180/06 RMK AO2 TSNO
94908KDBQ DBQ20021109234510911/09/02 23:45:31  5-MIN KDBQ 100545Z AUTO 19005KT 5SM BR FEW060 12/11 A2925 1700 93 1700 190/05 RMK AO2 TSNO
94908KDBQ DBQ20021109235015111/09/02 23:50:31  5-MIN KDBQ 100550Z AUTO 20004KT 5SM BR CLR 11/11 A2925 1700 96 1700 200/04 RMK AO2 SLP905 T01110106 10150 20111 401720061 58011 TSNO
94908KDBQ DBQ20021109235515111/09/02 23:55:31  5-MIN KDBQ 100555Z AUTO 17005KT 5SM BR CLR 11/11 A2925 1710 96 1700 170/05 RMK AO2 SLP903 T01110106 10150 20111 401720061 57015 TSNO
94908KDBQ DBQ20021110000010611/10/02 00:00:31  5-MIN KDBQ 100600Z AUTO 17005KT 5SM BR CLR 11/10 A2925 1710 93 1700 170/05 RMK AO2 TSNO
94908KDBQ DBQ20021110000510611/10/02 00:05:31  5-MIN KDBQ 100605Z AUTO 17007KT 5SM BR CLR 11/10 A2925 1710 96 1600 170/07 RMK AO2 TSNO
94908KDBQ DBQ20021110001010611/10/02 00:10:31  5-MIN KDBQ 100610Z AUTO 18007KT 5SM BR CLR 11/11 A2925 1710 96 1700 180/07 RMK AO2 TSNO
94908KDBQ DBQ20021110001510611/10/02 00:15:31  5-MIN KDBQ 100615Z AUTO 19006KT 5SM BR CLR 11/11 A2924 1710 96 1700 190/06 RMK AO2 TSNO
94908KDBQ DBQ20021110002010611/10/02 00:20:31  5-MIN KDBQ 100620Z AUTO 19006KT 5SM BR CLR 11/11 A2924 1710 96 1700 180/06 RMK AO2 TSNO
94908KDBQ DBQ20021110002510611/10/02 00:25:31  5-MIN KDBQ 100625Z AUTO 19005KT 5SM BR CLR 11/11 A2924 1710 96 1700 190/05 RMK AO2 TSNO
94908KDBQ DBQ20021110003010611/10/02 00:30:31  5-MIN KDBQ 100630Z AUTO 20006KT 5SM BR CLR 11/10 A2925 1710 96 1600 200/06 RMK AO2 TSNO
94908KDBQ DBQ20021110003510611/10/02 00:35:31  5-MIN KDBQ 100635Z AUTO 20005KT 5SM BR CLR 12/11 A2925 1710 96 1800 200/05 RMK AO2 TSNO
94908KDBQ DBQ20021110004010611/10/02 00:40:31  5-MIN KDBQ 100640Z AUTO 19006KT 5SM BR CLR 11/11 A2924 1710 96 1700 190/06 RMK AO2 TSNO
94908KDBQ DBQ20021110004510711/10/02 00:45:31  5-MIN KDBQ 100645Z AUTO 19006KT 5SM BR CLR 11/11 A2925 1710 100 1600 190/06 RMK AO2 TSNO
94908KDBQ DBQ20021110005012611/10/02 00:50:31  5-MIN KDBQ 100650Z AUTO 19006KT 4SM BR FEW043 11/10 A2925 1710 96 1600 190/06 RMK AO2 SLP903 T01060100 TSNO
94908KDBQ DBQ20021110005512711/10/02 00:55:31  5-MIN KDBQ 100655Z AUTO 19007KT 4SM BR SCT043 11/11 A2925 1710 100 1600 190/07 RMK AO2 SLP903 T01060106 TSNO
94908KDBQ DBQ20021110010011011/10/02 01:00:31  5-MIN KDBQ 100700Z AUTO 19007KT 4SM BR BKN043 11/11 A2925 1710 100 1600 190/07 RMK AO2 TSNO
94908KDBQ DBQ20021110010510911/10/02 01:05:31  5-MIN KDBQ 100705Z AUTO 19007KT 4SM BR BKN043 11/11 A2924 1710 96 1700 190/07 RMK AO2 TSNO
94908KDBQ DBQ20021110011010911/10/02 01:10:31  5-MIN KDBQ 100710Z AUTO 19007KT 4SM BR SCT043 11/11 A2924 1710 96 1700 190/07 RMK AO2 TSNO
94908KDBQ DBQ20021110011510911/10/02 01:15:31  5-MIN KDBQ 100715Z AUTO 20007KT 4SM BR SCT043 11/11 A2924 1720 96 1700 200/07 RMK AO2 TSNO
94908KDBQ DBQ20021110012010911/10/02 01:20:31  5-MIN KDBQ 100720Z AUTO 20007KT 4SM BR SCT043 11/11 A2924 1720 96 1700 200/07 RMK AO2 TSNO
94908KDBQ DBQ20021110012510911/10/02 01:25:31  5-MIN KDBQ 100725Z AUTO 20006KT 4SM BR FEW045 11/11 A2923 1720 96 1700 200/06 RMK AO2 TSNO
94908KDBQ DBQ20021110013010611/10/02 01:30:31  5-MIN KDBQ 100730Z AUTO 19004KT 4SM BR CLR 11/10 A2923 1730 96 1600 190/04 RMK AO2 TSNO
94908KDBQ DBQ20021110013510611/10/02 01:35:31  5-MIN KDBQ 100735Z AUTO 18005KT 4SM BR CLR 11/11 A2922 1730 96 1700 180/05 RMK AO2 TSNO
94908KDBQ DBQ20021110014010611/10/02 01:40:31  5-MIN KDBQ 100740Z AUTO 18005KT 4SM BR CLR 11/11 A2922 1730 96 1700 180/05 RMK AO2 TSNO
94908KDBQ DBQ20021110014510611/10/02 01:45:31  5-MIN KDBQ 100745Z AUTO 21004KT 4SM BR CLR 11/10 A2922 1730 96 1700 200/04 RMK AO2 TSNO
94908KDBQ DBQ20021110015012411/10/02 01:50:31  5-MIN KDBQ 100750Z AUTO 19005KT 3SM BR CLR 11/11 A2922 1740 100 1700 190/05 RMK AO2 SLP893 T01060106 TSNO
94908KDBQ DBQ20021110015512311/10/02 01:55:31  5-MIN KDBQ 100755Z AUTO 19005KT 3SM BR CLR 11/10 A2922 1730 96 1700 190/05 RMK AO2 SLP893 T01060100 TSNO
94908KDBQ DBQ20021110020010711/10/02 02:00:31  5-MIN KDBQ 100800Z AUTO 19006KT 3SM BR CLR 10/10 A2922 1730 100 1600 190/06 RMK AO2 TSNO
94908KDBQ DBQ20021110020510711/10/02 02:05:31  5-MIN KDBQ 100805Z AUTO 19007KT 3SM BR CLR 10/10 A2922 1730 100 1600 190/07 RMK AO2 TSNO
94908KDBQ DBQ20021110021010611/10/02 02:10:31  5-MIN KDBQ 100810Z AUTO 19006KT 3SM BR CLR 10/09 A2922 1730 96 1600 190/06 RMK AO2 TSNO
94908KDBQ DBQ20021110021510711/10/02 02:15:31  5-MIN KDBQ 100815Z AUTO 19005KT 3SM BR CLR 10/10 A2922 1730 100 1600 190/05 RMK AO2 TSNO
94908KDBQ DBQ20021110022011111/10/02 02:20:31  5-MIN KDBQ 100820Z AUTO 17005KT 2 1/2SM BR CLR 10/10 A2921 1740 100 1600 170/05 RMK AO2 TSNO
94908KDBQ DBQ20021110022511111/10/02 02:25:31  5-MIN KDBQ 100825Z AUTO 19006KT 2 1/2SM BR CLR 10/10 A2922 1740 100 1600 190/06 RMK AO2 TSNO
94908KDBQ DBQ20021110023011111/10/02 02:30:31  5-MIN KDBQ 100830Z AUTO 20004KT 2 1/2SM BR CLR 10/10 A2922 1730 100 1600 200/04 RMK AO2 TSNO
94908KDBQ DBQ20021110023510711/10/02 02:35:31  5-MIN KDBQ 100835Z AUTO 20006KT 2SM BR CLR 09/09 A2923 1730 100 1500 200/06 RMK AO2 TSNO
94908KDBQ DBQ20021110024010911/10/02 02:40:31  5-MIN KDBQ 100840Z AUTO 20006KT 3/4SM BR CLR 09/09 A2923 1730 100 1400 200/06 RMK AO2 TSNO
94908KDBQ DBQ20021110024510911/10/02 02:45:31  5-MIN KDBQ 100845Z AUTO 18006KT 3/4SM BR CLR 09/09 A2922 1730 100 1400 180/06 RMK AO2 TSNO
94908KDBQ DBQ20021110025013411/10/02 02:50:31  5-MIN KDBQ 100850Z AUTO 19006KT 1 1/2SM BR CLR 09/09 A2923 1720 100 1500 190/06 RMK AO2 SLP897 T00940094 57015 TSNO
94908KDBQ DBQ20021110025513411/10/02 02:55:31  5-MIN KDBQ 100855Z AUTO 20006KT 1 3/4SM BR CLR 09/09 A2923 1720 100 1400 200/06 RMK AO2 SLP899 T00890089 55004 TSNO
94908KDBQ DBQ20021110030010711/10/02 03:00:31  5-MIN KDBQ 100900Z AUTO 20006KT 1SM BR CLR 08/08 A2923 1720 100 1400 200/06 RMK AO2 TSNO
94908KDBQ DBQ20021110030510711/10/02 03:05:31  5-MIN KDBQ 100905Z AUTO 21006KT 1SM BR CLR 09/09 A2923 1720 100 1400 200/06 RMK AO2 TSNO
94908KDBQ DBQ20021110031010711/10/02 03:10:31  5-MIN KDBQ 100910Z AUTO 21005KT 1SM BR CLR 08/08 A2924 1720 100 1400 210/05 RMK AO2 TSNO
94908KDBQ DBQ20021110031511111/10/02 03:15:31  5-MIN KDBQ 100915Z AUTO 22006KT 1/4SM FG VV001 08/08 A2924 1710 100 1300 220/06 RMK AO2 TSNO
94908KDBQ DBQ20021110032011111/10/02 03:20:31  5-MIN KDBQ 100920Z AUTO 22005KT 1/4SM FG VV001 08/08 A2924 1710 100 1300 220/05 RMK AO2 TSNO
94908KDBQ DBQ20021110032511111/10/02 03:25:31  5-MIN KDBQ 100925Z AUTO 19004KT 1/4SM FG VV001 09/09 A2924 1710 100 1400 190/04 RMK AO2 TSNO
94908KDBQ DBQ20021110033011111/10/02 03:30:31  5-MIN KDBQ 100930Z AUTO 21004KT 1/4SM FG VV001 08/08 A2924 1710 100 1400 210/04 RMK AO2 TSNO
94908KDBQ DBQ20021110033511911/10/02 03:35:31  5-MIN KDBQ 100935Z AUTO 23006KT 1/4SM FG BKN001 BKN008 08/08 A2925 1700 100 1300 230/06 RMK AO2 TSNO
94908KDBQ DBQ20021110034011911/10/02 03:40:31  5-MIN KDBQ 100940Z AUTO 23005KT 1/4SM FG BKN001 OVC008 08/08 A2925 1700 100 1300 230/05 RMK AO2 TSNO
94908KDBQ DBQ20021110034511211/10/02 03:45:31  5-MIN KDBQ 100945Z AUTO 22005KT M1/4SM FG VV001 08/08 A2926 1700 100 1300 220/05 RMK AO2 TSNO
94908KDBQ DBQ20021110035012911/10/02 03:50:31  5-MIN KDBQ 100950Z AUTO 22004KT M1/4SM FG VV001 08/08 A2926 1700 100 1300 210/04 RMK AO2 SLP907 T00780078 TSNO
94908KDBQ DBQ20021110035512811/10/02 03:55:31  5-MIN KDBQ 100955Z AUTO 20003KT 1/4SM FG VV001 08/08 A2925 1700 100 1300 200/03 RMK AO2 SLP906 T00830083 TSNO
94908KDBQ DBQ20021110040011911/10/02 04:00:31  5-MIN KDBQ 101000Z AUTO 20003KT 1/4SM FG BKN001 OVC008 08/08 A2925 1700 100 1300 200/03 RMK AO2 TSNO
94908KDBQ DBQ20021110040511911/10/02 04:05:31  5-MIN KDBQ 101005Z AUTO 19004KT 1/4SM FG BKN001 OVC008 08/08 A2925 1710 100 1300 190/04 RMK AO2 TSNO
94908KDBQ DBQ20021110041011911/10/02 04:10:31  5-MIN KDBQ 101010Z AUTO 19003KT 1/4SM FG BKN001 OVC008 08/08 A2924 1710 100 1400 190/03 RMK AO2 TSNO
94908KDBQ DBQ20021110041511911/10/02 04:15:31  5-MIN KDBQ 101015Z AUTO 00000KT 1/4SM FG BKN001 OVC008 08/08 A2924 1710 100 1400 000/00 RMK AO2 TSNO
94908KDBQ DBQ20021110042011911/10/02 04:20:31  5-MIN KDBQ 101020Z AUTO 20003KT 1/4SM FG BKN001 OVC008 08/08 A2924 1710 100 1400 200/03 RMK AO2 TSNO
94908KDBQ DBQ20021110042511911/10/02 04:25:31  5-MIN KDBQ 101025Z AUTO 20004KT 1/4SM FG BKN001 OVC008 08/08 A2925 1710 100 1400 200/04 RMK AO2 TSNO
94908KDBQ DBQ20021110043012011/10/02 04:30:31  5-MIN KDBQ 101030Z AUTO 21003KT M1/4SM FG BKN001 OVC008 08/08 A2926 1700 100 1300 210/03 RMK AO2 TSNO
94908KDBQ DBQ20021110043511211/10/02 04:35:31  5-MIN KDBQ 101035Z AUTO 00000KT M1/4SM FG VV001 08/08 A2926 1700 100 1300 000/00 RMK AO2 TSNO
94908KDBQ DBQ20021110044011111/10/02 04:40:31  5-MIN KDBQ 101040Z AUTO 19003KT 1/4SM FG VV001 08/08 A2926 1700 100 1300 180/03 RMK AO2 TSNO
94908KDBQ DBQ20021110044511111/10/02 04:45:31  5-MIN KDBQ 101045Z AUTO 18004KT 1/4SM FG VV001 08/08 A2926 1690 100 1300 180/04 RMK AO2 TSNO
94908KDBQ DBQ20021110045012811/10/02 04:50:31  5-MIN KDBQ 101050Z AUTO 00000KT 1/4SM FG VV001 08/08 A2926 1690 100 1300 000/00 RMK AO2 SLP910 T00780078 TSNO
94908KDBQ DBQ20021110045512811/10/02 04:55:31  5-MIN KDBQ 101055Z AUTO 00000KT 1/4SM FG VV001 08/08 A2926 1690 100 1300 000/00 RMK AO2 SLP910 T00780078 TSNO
94908KDBQ DBQ20021110050011711/10/02 05:00:31  5-MIN KDBQ 101100Z AUTO 23003KT 1/4SM FG VV001 08/08 A2926 1690 100 1300 230/03 RMK AO2 P0001 TSNO
94908KDBQ DBQ20021110050511711/10/02 05:05:31  5-MIN KDBQ 101105Z AUTO 21003KT 1/4SM FG VV001 08/08 A2926 1700 100 1300 210/03 RMK AO2 P0001 TSNO
94908KDBQ DBQ20021110051011711/10/02 05:10:31  5-MIN KDBQ 101110Z AUTO 19003KT 1/4SM FG VV001 08/08 A2926 1700 100 1300 190/03 RMK AO2 P0001 TSNO
94908KDBQ DBQ20021110051511711/10/02 05:15:31  5-MIN KDBQ 101115Z AUTO VRB03KT 1/4SM FG VV001 08/08 A2925 1700 100 1300 VRB/03 RMK AO2 P0001 TSNO
94908KDBQ DBQ20021110052011711/10/02 05:20:31  5-MIN KDBQ 101120Z AUTO 23004KT 1/2SM FG VV001 08/08 A2926 1700 100 1300 230/04 RMK AO2 P0001 TSNO
94908KDBQ DBQ20021110052511711/10/02 05:25:31  5-MIN KDBQ 101125Z AUTO VRB03KT 3/4SM BR VV001 09/09 A2925 1700 100 1400 VRB/03 RMK AO2 P0001 TSNO
94908KDBQ DBQ20021110053011611/10/02 05:30:31  5-MIN KDBQ 101130Z AUTO 26003KT 2SM BR SCT001 09/09 A2926 1700 100 1400 260/03 RMK AO2 P0001 TSNO
94908KDBQ DBQ20021110053512011/10/02 05:35:31  5-MIN KDBQ 101135Z AUTO 26005KT 2 1/2SM BR FEW001 09/09 A2927 1690 100 1400 260/05 RMK AO2 P0001 TSNO
94908KDBQ DBQ20021110054011611/10/02 05:40:31  5-MIN KDBQ 101140Z AUTO 24005KT 3SM BR FEW001 09/09 A2928 1680 100 1400 230/05 RMK AO2 P0001 TSNO
94908KDBQ DBQ20021110054511311/10/02 05:45:31  5-MIN KDBQ 101145Z AUTO 23004KT 2SM BR CLR 08/08 A2928 1680 100 1300 230/04 RMK AO2 P0001 TSNO
94908KDBQ DBQ20021110055016411/10/02 05:50:31  5-MIN KDBQ 101150Z AUTO VRB03KT 1 3/4SM BR CLR 09/09 A2928 1680 100 1400 VRB/03 RMK AO2 SLP915 P0001 60001 70001 T00890089 10117 20078 55004 TSNO
94908KDBQ DBQ20021110055515011/10/02 05:55:31  5-MIN KDBQ 101155Z 21003KT 2SM BR CLR 09/09 A2928 1680 100 1400 210/03 RMK AO2 SLP915 P0001 60001 70001 T00890089 10117 20078 51015
94908KDBQ DBQ20021110060009711/10/02 06:00:31  5-MIN KDBQ 101200Z 19004KT 2SM BR CLR 08/08 A2928 1670 100 1300 190/04 RMK AO2
94908KDBQ DBQ20021110060510111/10/02 06:05:31  5-MIN KDBQ 101205Z 19004KT 1 3/4SM BR CLR 08/08 A2928 1680 100 1300 180/04 RMK AO2
94908KDBQ DBQ20021110061010111/10/02 06:10:31  5-MIN KDBQ 101210Z 20005KT 1 3/4SM BR CLR 08/08 A2927 1680 100 1300 200/05 RMK AO2
94908KDBQ DBQ20021110061510111/10/02 06:15:31  5-MIN KDBQ 101215Z 18005KT 1 3/4SM BR CLR 08/08 A2926 1690 100 1300 180/05 RMK AO2
94908KDBQ DBQ20021110062010111/10/02 06:20:31  5-MIN KDBQ 101220Z 21005KT 1 1/2SM BR CLR 08/08 A2927 1680 100 1300 210/05 RMK AO2
94908KDBQ DBQ20021110062510111/10/02 06:25:31  5-MIN KDBQ 101225Z 24004KT 3/4SM BR VV001 08/08 A2928 1680 100 1300 240/04 RMK AO2
94908KDBQ DBQ20021110063010111/10/02 06:30:31  5-MIN KDBQ 101230Z 00000KT 1/4SM FG VV001 07/07 A2927 1690 100 1200 000/00 RMK AO2
94908KDBQ DBQ20021110063510911/10/02 06:35:31  5-MIN KDBQ 101235Z 00000KT 1/4SM FG BKN001 BKN008 07/07 A2927 1690 100 1200 000/00 RMK AO2
94908KDBQ DBQ20021110064010111/10/02 06:40:31  5-MIN KDBQ 101240Z 24003KT 1/4SM FG VV001 07/07 A2927 1690 100 1200 240/03 RMK AO2
94908KDBQ DBQ20021110064510111/10/02 06:45:31  5-MIN KDBQ 101245Z 24005KT 1/4SM FG VV001 07/07 A2927 1680 100 1200 240/05 RMK AO2
94908KDBQ DBQ20021110065011811/10/02 06:50:31  5-MIN KDBQ 101250Z 24006KT 1/4SM FG VV001 07/07 A2928 1680 100 1200 240/06 RMK AO2 SLP916 T00720072
94908KDBQ DBQ20021110065511811/10/02 06:55:31  5-MIN KDBQ 101255Z 25005KT 1/4SM FG VV001 07/07 A2928 1680 100 1200 250/05 RMK AO2 SLP915 T00720072
94908KDBQ DBQ20021110070010111/10/02 07:00:31  5-MIN KDBQ 101300Z 26005KT 1/4SM FG VV001 07/07 A2928 1680 100 1200 260/05 RMK AO2
94908KDBQ DBQ20021110070510911/10/02 07:05:31  5-MIN KDBQ 101305Z 25005KT 1/4SM FG BKN001 OVC028 08/08 A2928 1670 100 1200 240/05 RMK AO2
94908KDBQ DBQ20021110071010911/10/02 07:10:31  5-MIN KDBQ 101310Z 24005KT 1/4SM FG BKN001 OVC028 07/07 A2929 1660 100 1200 240/05 RMK AO2
94908KDBQ DBQ20021110071511711/10/02 07:15:31  5-MIN KDBQ 101315Z 23004KT M1/4SM FG BKN001 OVC028 08/08 A2930 1660 100 1200 230/04 RMK AO2 PRESRR
94908KDBQ DBQ20021110072010911/10/02 07:20:31  5-MIN KDBQ 101320Z 00000KT 1/4SM FG BKN001 OVC028 08/08 A2930 1660 100 1200 000/00 RMK AO2
94908KDBQ DBQ20021110072510911/10/02 07:25:31  5-MIN KDBQ 101325Z 00000KT 1/4SM FG BKN001 OVC028 08/08 A2929 1670 100 1300 000/00 RMK AO2
94908KDBQ DBQ20021110073010911/10/02 07:30:31  5-MIN KDBQ 101330Z 28003KT 1/2SM FG SCT001 BKN028 08/08 A2929 1670 100 1300 280/03 RMK AO2
94908KDBQ DBQ20021110073510811/10/02 07:35:31  5-MIN KDBQ 101335Z 27005KT 3/4SM BR FEW001 SCT028 09/08 A2930 1660 96 1400 270/05 RMK AO2
94908KDBQ DBQ20021110074011111/10/02 07:40:31  5-MIN KDBQ 101340Z 25005KT 1 1/2SM BR FEW003 SCT026 09/09 A2931 1650 100 1300 250/05 RMK AO2
94908KDBQ DBQ20021110074510411/10/02 07:45:31  5-MIN KDBQ 101345Z 24004KT 1 3/4SM BR FEW003 09/09 A2931 1650 100 1300 240/04 RMK AO2
94908KDBQ DBQ20021110075012111/10/02 07:50:31  5-MIN KDBQ 101350Z 23004KT 1 3/4SM BR FEW003 09/09 A2931 1650 100 1300 230/04 RMK AO2 SLP926 T00890089
94908KDBQ DBQ20021110075511811/10/02 07:55:31  5-MIN KDBQ 101355Z 22005KT 1 1/2SM BR CLR 09/09 A2931 1650 100 1300 220/05 RMK AO2 SLP925 T00890089
94908KDBQ DBQ20021110080010111/10/02 08:00:31  5-MIN KDBQ 101400Z 23006KT 1 1/2SM BR CLR 09/09 A2932 1640 100 1300 230/06 RMK AO2
94908KDBQ DBQ20021110080510111/10/02 08:05:31  5-MIN KDBQ 101405Z 23004KT 1 3/4SM BR CLR 09/09 A2932 1640 100 1300 230/04 RMK AO2
94908KDBQ DBQ20021110081010111/10/02 08:10:31  5-MIN KDBQ 101410Z 24004KT 1 3/4SM BR CLR 09/09 A2932 1640 100 1300 240/04 RMK AO2
94908KDBQ DBQ20021110081510111/10/02 08:15:31  5-MIN KDBQ 101415Z 25004KT 1 1/2SM BR CLR 09/09 A2931 1640 100 1300 250/04 RMK AO2
94908KDBQ DBQ20021110082010111/10/02 08:20:31  5-MIN KDBQ 101420Z 26006KT 1 1/2SM BR CLR 09/09 A2932 1640 100 1300 260/06 RMK AO2
94908KDBQ DBQ20021110082510111/10/02 08:25:31  5-MIN KDBQ 101425Z 29007KT 1 1/2SM BR CLR 09/09 A2931 1650 100 1400 290/07 RMK AO2
94908KDBQ DBQ20021110083010111/10/02 08:30:31  5-MIN KDBQ 101430Z 30006KT 1 3/4SM BR CLR 10/10 A2931 1650 100 1500 300/06 RMK AO2
94908KDBQ DBQ20021110083510111/10/02 08:35:31  5-MIN KDBQ 101435Z 28008KT 1 3/4SM BR CLR 10/10 A2931 1640 100 1500 280/08 RMK AO2
94908KDBQ DBQ20021110084009711/10/02 08:40:31  5-MIN KDBQ 101440Z 28008KT 2SM BR CLR 10/10 A2932 1640 100 1500 280/08 RMK AO2
94908KDBQ DBQ20021110084509711/10/02 08:45:31  5-MIN KDBQ 101445Z 28009KT 2SM BR CLR 10/10 A2933 1630 100 1500 280/09 RMK AO2
94908KDBQ DBQ20021110085012011/10/02 08:50:31  5-MIN KDBQ 101450Z 28010KT 2SM BR CLR 10/10 A2933 1630 100 1500 280/10 RMK AO2 SLP934 T01000100 51015
94908KDBQ DBQ20021110085512011/10/02 08:55:31  5-MIN KDBQ 101455Z 29010KT 2SM BR CLR 10/10 A2933 1630 100 1500 290/10 RMK AO2 SLP934 T01000100 53018
94908KDBQ DBQ20021110090009711/10/02 09:00:31  5-MIN KDBQ 101500Z 29009KT 2SM BR CLR 10/10 A2933 1630 100 1500 280/09 RMK AO2
94908KDBQ DBQ20021110090509911/10/02 09:05:31  5-MIN KDBQ 101505Z 29008KT 2SM BR FEW005 11/10 A2934 1620 96 1500 290/08 RMK AO2
94908KDBQ DBQ20021110091009911/10/02 09:10:31  5-MIN KDBQ 101510Z 29008KT 2SM BR FEW005 11/10 A2934 1620 96 1500 280/08 RMK AO2
94908KDBQ DBQ20021110091509611/10/02 09:15:31  5-MIN KDBQ 101515Z 28008KT 2SM BR CLR 11/10 A2934 1620 96 1500 280/08 RMK AO2
94908KDBQ DBQ20021110092009611/10/02 09:20:31  5-MIN KDBQ 101520Z 29009KT 2SM BR CLR 11/10 A2935 1610 96 1500 290/09 RMK AO2
94908KDBQ DBQ20021110092509611/10/02 09:25:31  5-MIN KDBQ 101525Z 28008KT 2SM BR CLR 11/10 A2934 1620 96 1500 280/08 RMK AO2
94908KDBQ DBQ20021110093009611/10/02 09:30:31  5-MIN KDBQ 101530Z 28009KT 2SM BR CLR 11/10 A2935 1610 96 1500 280/09 RMK AO2
94908KDBQ DBQ20021110093509911/10/02 09:35:31  5-MIN KDBQ 101535Z 27010KT 2SM BR FEW006 11/10 A2936 1600 96 1500 270/10 RMK AO2
94908KDBQ DBQ20021110094009911/10/02 09:40:31  5-MIN KDBQ 101540Z 28009KT 2SM BR FEW006 11/10 A2936 1600 96 1500 280/09 RMK AO2
94908KDBQ DBQ20021110094510311/10/02 09:45:31  5-MIN KDBQ 101545Z 28008KT 2 1/2SM BR FEW006 11/10 A2936 1600 96 1500 270/08 RMK AO2
94908KDBQ DBQ20021110095012011/10/02 09:50:31  5-MIN KDBQ 101550Z 28008KT 2 1/2SM BR FEW006 11/10 A2936 1600 96 1500 280/08 RMK AO2 SLP944 T01060100
94908KDBQ DBQ20021110095512011/10/02 09:55:31  5-MIN KDBQ 101555Z 29009KT 2 1/2SM BR FEW006 11/10 A2937 1590 96 1500 290/09 RMK AO2 SLP945 T01060100
94908KDBQ DBQ20021110100010311/10/02 10:00:31  5-MIN KDBQ 101600Z 28010KT 2 1/2SM BR FEW006 11/10 A2937 1590 96 1500 280/10 RMK AO2
94908KDBQ DBQ20021110100509611/10/02 10:05:31  5-MIN KDBQ 101605Z 29010KT 3SM BR CLR 11/10 A2937 1590 96 1500 290/10 RMK AO2
94908KDBQ DBQ20021110101009611/10/02 10:10:31  5-MIN KDBQ 101610Z 28011KT 3SM BR CLR 11/10 A2938 1580 96 1500 280/11 RMK AO2
94908KDBQ DBQ20021110101509611/10/02 10:15:31  5-MIN KDBQ 101615Z 28010KT 3SM BR CLR 11/09 A2938 1580 93 1500 280/10 RMK AO2
94908KDBQ DBQ20021110102009611/10/02 10:20:31  5-MIN KDBQ 101620Z 28009KT 3SM BR CLR 11/09 A2938 1580 93 1500 280/09 RMK AO2
94908KDBQ DBQ20021110102509611/10/02 10:25:31  5-MIN KDBQ 101625Z 27011KT 3SM BR CLR 11/09 A2938 1580 93 1500 270/11 RMK AO2
94908KDBQ DBQ20021110103009611/10/02 10:30:31  5-MIN KDBQ 101630Z 28009KT 3SM BR CLR 11/09 A2938 1580 93 1500 280/09 RMK AO2
94908KDBQ DBQ20021110103509611/10/02 10:35:31  5-MIN KDBQ 101635Z 27009KT 3SM BR CLR 11/09 A2938 1580 93 1500 270/09 RMK AO2
94908KDBQ DBQ20021110104009611/10/02 10:40:31  5-MIN KDBQ 101640Z 28009KT 3SM BR CLR 11/10 A2938 1580 93 1500 280/09 RMK AO2
94908KDBQ DBQ20021110104509611/10/02 10:45:31  5-MIN KDBQ 101645Z 28010KT 4SM BR CLR 12/10 A2938 1580 89 1600 280/10 RMK AO2
94908KDBQ DBQ20021110105011311/10/02 10:50:31  5-MIN KDBQ 101650Z 28011KT 4SM BR CLR 12/09 A2939 1580 86 1600 280/11 RMK AO2 SLP952 T01170094
94908KDBQ DBQ20021110105511311/10/02 10:55:31  5-MIN KDBQ 101655Z 28010KT 4SM BR CLR 12/10 A2939 1570 89 1600 280/10 RMK AO2 SLP952 T01170100
94908KDBQ DBQ20021110110009611/10/02 11:00:31  5-MIN KDBQ 101700Z 27011KT 5SM BR CLR 12/10 A2939 1570 89 1600 260/11 RMK AO2
94908KDBQ DBQ20021110110509611/10/02 11:05:31  5-MIN KDBQ 101705Z 27011KT 5SM HZ CLR 12/09 A2939 1570 83 1700 270/11 RMK AO2
94908KDBQ DBQ20021110111009611/10/02 11:10:31  5-MIN KDBQ 101710Z 27010KT 6SM HZ CLR 12/09 A2939 1580 83 1700 270/10 RMK AO2
94908KDBQ DBQ20021110111509611/10/02 11:15:31  5-MIN KDBQ 101715Z 28009KT 6SM HZ CLR 12/09 A2939 1570 80 1700 280/09 RMK AO2
94908KDBQ DBQ20021110112009611/10/02 11:20:31  5-MIN KDBQ 101720Z 27010KT 6SM HZ CLR 13/09 A2939 1570 80 1700 270/10 RMK AO2
94908KDBQ DBQ20021110112509311/10/02 11:25:31  5-MIN KDBQ 101725Z 29012KT 7SM CLR 12/09 A2939 1570 80 1600 290/12 RMK AO2
94908KDBQ DBQ20021110113009311/10/02 11:30:31  5-MIN KDBQ 101730Z 28011KT 7SM CLR 13/09 A2939 1580 77 1700 280/11 RMK AO2
94908KDBQ DBQ20021110113509311/10/02 11:35:31  5-MIN KDBQ 101735Z 28010KT 8SM CLR 13/09 A2939 1580 77 1700 280/10 RMK AO2
94908KDBQ DBQ20021110114009311/10/02 11:40:31  5-MIN KDBQ 101740Z 29010KT 8SM CLR 12/08 A2939 1580 77 1700 290/10 RMK AO2
94908KDBQ DBQ20021110114509311/10/02 11:45:31  5-MIN KDBQ 101745Z 29009KT 9SM CLR 13/08 A2939 1570 71 1800 290/09 RMK AO2
94908KDBQ DBQ20021110115012911/10/02 11:50:31  5-MIN KDBQ 101750Z 28011KT 10SM CLR 13/08 A2939 1570 71 1800 280/11 RMK AO2 SLP954 T01330083 10133 20067 53018
94908KDBQ DBQ20021110115512911/10/02 11:55:31  5-MIN KDBQ 101755Z 29010KT 10SM CLR 13/08 A2939 1570 71 1800 290/10 RMK AO2 SLP953 T01330083 10133 20067 51019
94908KDBQ DBQ20021110120009411/10/02 12:00:31  5-MIN KDBQ 101800Z 30012KT 10SM CLR 13/08 A2939 1570 71 1700 300/12 RMK AO2
94908KDBQ DBQ20021110120509411/10/02 12:05:31  5-MIN KDBQ 101805Z 29013KT 10SM CLR 13/07 A2939 1580 69 1700 290/13 RMK AO2
94908KDBQ DBQ20021110121009411/10/02 12:10:31  5-MIN KDBQ 101810Z 29010KT 10SM CLR 13/08 A2938 1580 69 1800 290/10 RMK AO2
94908KDBQ DBQ20021110121509411/10/02 12:15:31  5-MIN KDBQ 101815Z 29012KT 10SM CLR 13/08 A2938 1580 69 1800 290/12 RMK AO2
94908KDBQ DBQ20021110122009411/10/02 12:20:31  5-MIN KDBQ 101820Z 28013KT 10SM CLR 13/08 A2938 1580 69 1800 280/13 RMK AO2
94908KDBQ DBQ20021110122509411/10/02 12:25:31  5-MIN KDBQ 101825Z 30012KT 10SM CLR 13/07 A2938 1580 66 1800 300/12 RMK AO2
94908KDBQ DBQ20021110123009411/10/02 12:30:31  5-MIN KDBQ 101830Z 29011KT 10SM CLR 14/08 A2938 1580 66 1900 290/11 RMK AO2
94908KDBQ DBQ20021110123509411/10/02 12:35:31  5-MIN KDBQ 101835Z 28012KT 10SM CLR 14/08 A2938 1590 66 1900 280/12 RMK AO2
94908KDBQ DBQ20021110124009411/10/02 12:40:31  5-MIN KDBQ 101840Z 29013KT 10SM CLR 14/07 A2937 1590 64 1900 290/13 RMK AO2
94908KDBQ DBQ20021110124509411/10/02 12:45:31  5-MIN KDBQ 101845Z 31011KT 10SM CLR 14/07 A2938 1590 64 1900 310/11 RMK AO2
94908KDBQ DBQ20021110125011111/10/02 12:50:31  5-MIN KDBQ 101850Z 28011KT 10SM CLR 14/07 A2937 1590 64 1900 280/11 RMK AO2 SLP947 T01390072
94908KDBQ DBQ20021110125511111/10/02 12:55:31  5-MIN KDBQ 101855Z 29011KT 10SM CLR 14/07 A2938 1590 64 1900 280/11 RMK AO2 SLP948 T01390072
94908KDBQ DBQ20021110130009411/10/02 13:00:31  5-MIN KDBQ 101900Z 29011KT 10SM CLR 14/07 A2938 1580 64 1900 290/11 RMK AO2
94908KDBQ DBQ20021110130509411/10/02 13:05:31  5-MIN KDBQ 101905Z 29010KT 10SM CLR 14/07 A2938 1580 61 1900 290/10 RMK AO2
94908KDBQ DBQ20021110131009411/10/02 13:10:31  5-MIN KDBQ 101910Z 28008KT 10SM CLR 14/07 A2938 1580 61 1900 280/08 RMK AO2
94908KDBQ DBQ20021110131509411/10/02 13:15:31  5-MIN KDBQ 101915Z 30009KT 10SM CLR 14/06 A2938 1580 59 1900 300/09 RMK AO2
94908KDBQ DBQ20021110132009411/10/02 13:20:31  5-MIN KDBQ 101920Z 30010KT 10SM CLR 14/06 A2939 1580 59 1900 300/10 RMK AO2
94908KDBQ DBQ20021110132509411/10/02 13:25:31  5-MIN KDBQ 101925Z 29009KT 10SM CLR 14/07 A2939 1580 59 1900 290/09 RMK AO2
94908KDBQ DBQ20021110133009411/10/02 13:30:31  5-MIN KDBQ 101930Z 27011KT 10SM CLR 14/06 A2939 1570 57 1900 270/11 RMK AO2
94908KDBQ DBQ20021110133509411/10/02 13:35:31  5-MIN KDBQ 101935Z 29009KT 10SM CLR 14/06 A2939 1570 57 1800 290/09 RMK AO2
94908KDBQ DBQ20021110134009411/10/02 13:40:31  5-MIN KDBQ 101940Z 27010KT 10SM CLR 14/06 A2939 1570 59 1800 270/10 RMK AO2
94908KDBQ DBQ20021110134509411/10/02 13:45:31  5-MIN KDBQ 101945Z 27013KT 10SM CLR 14/06 A2939 1570 59 1800 270/13 RMK AO2
94908KDBQ DBQ20021110135011111/10/02 13:50:31  5-MIN KDBQ 101950Z 28011KT 10SM CLR 14/06 A2939 1580 59 1900 280/11 RMK AO2 SLP951 T01390061
94908KDBQ DBQ20021110135511111/10/02 13:55:31  5-MIN KDBQ 101955Z 27011KT 10SM CLR 14/07 A2939 1570 59 1900 270/11 RMK AO2 SLP952 T01440067
94908KDBQ DBQ20021110140009411/10/02 14:00:31  5-MIN KDBQ 102000Z 27012KT 10SM CLR 14/06 A2939 1570 59 1800 270/12 RMK AO2
94908KDBQ DBQ20021110140509411/10/02 14:05:31  5-MIN KDBQ 102005Z 27012KT 10SM CLR 14/07 A2939 1580 61 1900 270/12 RMK AO2
94908KDBQ DBQ20021110141010011/10/02 14:10:31  5-MIN KDBQ 102010Z 25014G18KT 10SM CLR 14/07 A2939 1580 64 1900 250/14G18 RMK AO2
94908KDBQ DBQ20021110141509411/10/02 14:15:31  5-MIN KDBQ 102015Z 26014KT 10SM CLR 14/07 A2939 1580 64 1900 260/14 RMK AO2
94908KDBQ DBQ20021110142009411/10/02 14:20:31  5-MIN KDBQ 102020Z 27011KT 10SM CLR 13/07 A2938 1580 64 1800 270/11 RMK AO2
94908KDBQ DBQ20021110142509411/10/02 14:25:31  5-MIN KDBQ 102025Z 28014KT 10SM CLR 13/07 A2939 1580 64 1800 280/14 RMK AO2
94908KDBQ DBQ20021110143009411/10/02 14:30:31  5-MIN KDBQ 102030Z 26013KT 10SM CLR 13/07 A2939 1580 64 1800 260/13 RMK AO2
94908KDBQ DBQ20021110143509411/10/02 14:35:31  5-MIN KDBQ 102035Z 26013KT 10SM CLR 13/07 A2939 1570 64 1800 260/13 RMK AO2
94908KDBQ DBQ20021110144009411/10/02 14:40:31  5-MIN KDBQ 102040Z 26010KT 10SM CLR 13/07 A2939 1570 66 1700 260/10 RMK AO2
94908KDBQ DBQ20021110144509411/10/02 14:45:31  5-MIN KDBQ 102045Z 26012KT 10SM CLR 13/06 A2939 1570 63 1700 260/12 RMK AO2
94908KDBQ DBQ20021110145011711/10/02 14:50:31  5-MIN KDBQ 102050Z 26013KT 10SM CLR 13/06 A2939 1570 63 1700 260/13 RMK AO2 SLP955 T01280061 51019
94908KDBQ DBQ20021110145511711/10/02 14:55:31  5-MIN KDBQ 102055Z 26011KT 10SM CLR 13/06 A2940 1560 63 1700 260/11 RMK AO2 SLP958 T01280061 53003
94908KDBQ DBQ20021110150009411/10/02 15:00:31  5-MIN KDBQ 102100Z 26012KT 10SM CLR 12/06 A2941 1560 63 1600 260/12 RMK AO2
94908KDBQ DBQ20021110150509411/10/02 15:05:31  5-MIN KDBQ 102105Z 26015KT 10SM CLR 12/06 A2941 1560 63 1600 260/15 RMK AO2
94908KDBQ DBQ20021110151009411/10/02 15:10:31  5-MIN KDBQ 102110Z 25013KT 10SM CLR 12/06 A2941 1550 63 1600 250/13 RMK AO2
94908KDBQ DBQ20021110151509411/10/02 15:15:31  5-MIN KDBQ 102115Z 27013KT 10SM CLR 12/05 A2941 1550 61 1600 270/13 RMK AO2
94908KDBQ DBQ20021110152009411/10/02 15:20:31  5-MIN KDBQ 102120Z 26013KT 10SM CLR 12/05 A2941 1550 61 1600 260/13 RMK AO2
94908KDBQ DBQ20021110152509411/10/02 15:25:31  5-MIN KDBQ 102125Z 27014KT 10SM CLR 12/05 A2942 1550 61 1600 260/14 RMK AO2
94908KDBQ DBQ20021110153009411/10/02 15:30:31  5-MIN KDBQ 102130Z 26015KT 10SM CLR 12/05 A2942 1550 61 1600 260/15 RMK AO2
94908KDBQ DBQ20021110153509411/10/02 15:35:31  5-MIN KDBQ 102135Z 26016KT 10SM CLR 12/04 A2942 1540 61 1500 260/16 RMK AO2
94908KDBQ DBQ20021110154009411/10/02 15:40:31  5-MIN KDBQ 102140Z 26015KT 10SM CLR 12/04 A2943 1540 61 1500 260/15 RMK AO2
94908KDBQ DBQ20021110154509411/10/02 15:45:31  5-MIN KDBQ 102145Z 28016KT 10SM CLR 11/04 A2943 1540 63 1500 280/16 RMK AO2
94908KDBQ DBQ20021110155011111/10/02 15:50:31  5-MIN KDBQ 102150Z 28016KT 10SM CLR 11/04 A2943 1530 63 1400 280/16 RMK AO2 SLP970 T01060039
94908KDBQ DBQ20021110155511111/10/02 15:55:31  5-MIN KDBQ 102155Z 27012KT 10SM CLR 11/04 A2944 1530 63 1400 270/12 RMK AO2 SLP971 T01060039
94908KDBQ DBQ20021110160010011/10/02 16:00:31  5-MIN KDBQ 102200Z 27014G19KT 10SM CLR 11/04 A2944 1530 63 1400 270/14G19 RMK AO2
94908KDBQ DBQ20021110160509411/10/02 16:05:31  5-MIN KDBQ 102205Z 27015KT 10SM CLR 10/03 A2944 1520 63 1300 270/15 RMK AO2
94908KDBQ DBQ20021110161009411/10/02 16:10:31  5-MIN KDBQ 102210Z 27017KT 10SM CLR 10/03 A2945 1520 63 1300 270/17 RMK AO2
94908KDBQ DBQ20021110161510011/10/02 16:15:31  5-MIN KDBQ 102215Z 27018G23KT 10SM CLR 09/03 A2945 1510 63 1200 270/18G23 RMK AO2
94908KDBQ DBQ20021110162010011/10/02 16:20:31  5-MIN KDBQ 102220Z 28018G24KT 10SM CLR 08/02 A2946 1510 65 1100 270/18G24 RMK AO2
94908KDBQ DBQ20021110162510011/10/02 16:25:31  5-MIN KDBQ 102225Z 28018G24KT 10SM CLR 08/02 A2946 1510 65 1000 280/18G24 RMK AO2
94908KDBQ DBQ20021110163009411/10/02 16:30:31  5-MIN KDBQ 102230Z 27019KT 10SM CLR 07/02 A2946 1510 68 1000 270/19 RMK AO2
94908KDBQ DBQ20021110163509411/10/02 16:35:31  5-MIN KDBQ 102235Z 28018KT 10SM CLR 07/02 A2946 1500 68 1000 280/18 RMK AO2
94908KDBQ DBQ20021110164009311/10/02 16:40:31  5-MIN KDBQ 102240Z 27018KT 10SM CLR 07/01 A2946 1500 67 900 270/18 RMK AO2
94908KDBQ DBQ20021110164509911/10/02 16:45:31  5-MIN KDBQ 102245Z 28018G23KT 10SM CLR 06/01 A2947 1500 70 800 280/18G23 RMK AO2
94908KDBQ DBQ20021110165011611/10/02 16:50:31  5-MIN KDBQ 102250Z 27018G24KT 10SM CLR 06/01 A2947 1500 70 800 270/18G24 RMK AO2 SLP986 T00560006
94908KDBQ DBQ20021110165511511/10/02 16:55:31  5-MIN KDBQ 102255Z 27018G24KT 9SM CLR 05/00 A2948 1490 70 700 270/18G24 RMK AO2 SLP987 T00500000
94908KDBQ DBQ20021110170009211/10/02 17:00:31  5-MIN KDBQ 102300Z 27019KT 9SM CLR 05/00 A2948 1490 70 700 270/19 RMK AO2
94908KDBQ DBQ20021110170510011/10/02 17:05:31  5-MIN KDBQ 102305Z 27015KT 10SM CLR 04/00 A2949 1480 73 600 270/15 RMK AO2 PRESRR
94908KDBQ DBQ20021110171009911/10/02 17:10:31  5-MIN KDBQ 102310Z 27014G19KT 10SM CLR 04/00 A2949 1480 73 600 270/14G19 RMK AO2
94908KDBQ DBQ20021110171509911/10/02 17:15:31  5-MIN KDBQ 102315Z 27014G19KT 10SM CLR 04/00 A2949 1480 73 600 270/14G19 RMK AO2
94908KDBQ DBQ20021110172009311/10/02 17:20:31  5-MIN KDBQ 102320Z 27014KT 10SM CLR 04/00 A2949 1480 76 500 270/14 RMK AO2
94908KDBQ DBQ20021110172509311/10/02 17:25:31  5-MIN KDBQ 102325Z 27014KT 10SM CLR 04/00 A2949 1480 76 500 270/14 RMK AO2
94908KDBQ DBQ20021110173009911/10/02 17:30:31  5-MIN KDBQ 102330Z 26015G20KT 10SM CLR 03/00 A2950 1470 79 500 260/15G20 RMK AO2
94908KDBQ DBQ20021110173509911/10/02 17:35:31  5-MIN KDBQ 102335Z 27016G20KT 10SM CLR 03/00 A2950 1470 79 500 270/16G20 RMK AO2
94908KDBQ DBQ20021110174009411/10/02 17:40:31  5-MIN KDBQ 102340Z 27016KT 10SM CLR 03/M01 A2950 1470 76 500 270/16 RMK AO2
94908KDBQ DBQ20021110174509311/10/02 17:45:31  5-MIN KDBQ 102345Z 27014KT 9SM CLR 03/M01 A2950 1470 76 500 270/14 RMK AO2
94908KDBQ DBQ20021110175013411/10/02 17:50:31  5-MIN KDBQ 102350Z 27017G22KT 9SM CLR 03/M01 A2950 1470 79 400 270/17G22 RMK AO2 SLP995 T00281006 10144 20028 53003
94908KDBQ DBQ20021110175513411/10/02 17:55:31  5-MIN KDBQ 102355Z 27015G22KT 9SM CLR 03/M01 A2951 1460 79 400 270/15G22 RMK AO2 SLP997 T00281006 10144 20028 51034
94908KDBQ DBQ20021110180009311/10/02 18:00:31  5-MIN KDBQ 110000Z 26014KT 9SM CLR 03/M01 A2951 1460 79 400 260/14 RMK AO2
94908KDBQ DBQ20021110180509311/10/02 18:05:31  5-MIN KDBQ 110005Z 27012KT 9SM CLR 03/M01 A2951 1460 79 400 270/12 RMK AO2
94908KDBQ DBQ20021110181009311/10/02 18:10:31  5-MIN KDBQ 110010Z 27014KT 9SM CLR 03/M01 A2951 1460 79 400 270/14 RMK AO2
94908KDBQ DBQ20021110181509311/10/02 18:15:31  5-MIN KDBQ 110015Z 27014KT 9SM CLR 03/M01 A2951 1460 75 400 270/14 RMK AO2
94908KDBQ DBQ20021110182009311/10/02 18:20:31  5-MIN KDBQ 110020Z 27012KT 9SM CLR 03/M01 A2951 1460 79 400 270/12 RMK AO2
94908KDBQ DBQ20021110182509311/10/02 18:25:31  5-MIN KDBQ 110025Z 27013KT 9SM CLR 03/M01 A2952 1460 79 400 270/13 RMK AO2
94908KDBQ DBQ20021110183009311/10/02 18:30:31  5-MIN KDBQ 110030Z 27012KT 9SM CLR 03/M01 A2952 1450 79 400 270/12 RMK AO2
94908KDBQ DBQ20021110183509311/10/02 18:35:31  5-MIN KDBQ 110035Z 27012KT 9SM CLR 02/M01 A2952 1450 82 300 260/12 RMK AO2
94908KDBQ DBQ20021110184009311/10/02 18:40:31  5-MIN KDBQ 110040Z 27011KT 9SM CLR 02/M01 A2952 1450 82 300 270/11 RMK AO2
94908KDBQ DBQ20021110184509311/10/02 18:45:31  5-MIN KDBQ 110045Z 27009KT 9SM CLR 02/M01 A2952 1450 82 300 260/09 RMK AO2
94908KDBQ DBQ20021110185011011/10/02 18:50:31  5-MIN KDBQ 110050Z 26010KT 8SM CLR 02/M01 A2952 1450 82 300 260/10 RMK AO2 SLP001 T00221006
94908KDBQ DBQ20021110185511011/10/02 18:55:31  5-MIN KDBQ 110055Z 26014KT 8SM CLR 02/M01 A2952 1450 82 300 260/14 RMK AO2 SLP002 T00221006
94908KDBQ DBQ20021110190009311/10/02 19:00:31  5-MIN KDBQ 110100Z 26013KT 8SM CLR 03/M01 A2952 1450 79 400 260/13 RMK AO2
94908KDBQ DBQ20021110190509311/10/02 19:05:31  5-MIN KDBQ 110105Z 26014KT 9SM CLR 03/M01 A2952 1450 79 400 260/14 RMK AO2
94908KDBQ DBQ20021110191009911/10/02 19:10:31  5-MIN KDBQ 110110Z 26015G20KT 9SM CLR 03/M01 A2952 1450 79 400 260/15G20 RMK AO2
94908KDBQ DBQ20021110191509911/10/02 19:15:31  5-MIN KDBQ 110115Z 27011G20KT 9SM CLR 03/M01 A2953 1440 79 400 270/11G20 RMK AO2
94908KDBQ DBQ20021110192009311/10/02 19:20:31  5-MIN KDBQ 110120Z 27011KT 9SM CLR 03/M01 A2953 1440 79 400 270/11 RMK AO2
94908KDBQ DBQ20021110192509611/10/02 19:25:31  5-MIN KDBQ 110125Z 26011KT 9SM FEW032 03/M01 A2953 1440 79 300 260/11 RMK AO2
94908KDBQ DBQ20021110193009611/10/02 19:30:31  5-MIN KDBQ 110130Z 27015KT 9SM FEW032 03/M01 A2953 1440 79 300 270/15 RMK AO2
94908KDBQ DBQ20021110193509611/10/02 19:35:31  5-MIN KDBQ 110135Z 27013KT 9SM SCT032 03/M01 A2953 1440 79 300 270/13 RMK AO2
94908KDBQ DBQ20021110194010211/10/02 19:40:31  5-MIN KDBQ 110140Z 27013G21KT 9SM BKN032 03/M01 A2953 1440 79 300 270/13G21 RMK AO2
94908KDBQ DBQ20021110194510311/10/02 19:45:31  5-MIN KDBQ 110145Z 27013G21KT 10SM BKN030 03/M01 A2953 1440 79 300 270/13G21 RMK AO2
94908KDBQ DBQ20021110195012411/10/02 19:50:31  5-MIN KDBQ 110150Z AUTO 27013KT 10SM OVC030 03/M01 A2954 1440 79 300 270/13 RMK AO2 SLP007 T00281006 TSNO
94908KDBQ DBQ20021110195512411/10/02 19:55:31  5-MIN KDBQ 110155Z AUTO 27014KT 10SM OVC030 03/M01 A2954 1430 79 300 270/14 RMK AO2 SLP008 T00281006 TSNO
94908KDBQ DBQ20021110200010711/10/02 20:00:31  5-MIN KDBQ 110200Z AUTO 27011KT 10SM OVC030 03/M01 A2954 1430 79 300 270/11 RMK AO2 TSNO
94908KDBQ DBQ20021110200511311/10/02 20:05:31  5-MIN KDBQ 110205Z AUTO 27015G20KT 10SM OVC030 03/M01 A2954 1430 76 400 260/15G20 RMK AO2 TSNO
94908KDBQ DBQ20021110201011311/10/02 20:10:31  5-MIN KDBQ 110210Z AUTO 27015G20KT 10SM OVC030 03/M01 A2954 1430 76 400 270/15G20 RMK AO2 TSNO
94908KDBQ DBQ20021110201510611/10/02 20:15:31  5-MIN KDBQ 110215Z AUTO 27011KT 10SM OVC030 03/00 A2954 1430 79 400 270/11 RMK AO2 TSNO
94908KDBQ DBQ20021110202010611/10/02 20:20:31  5-MIN KDBQ 110220Z AUTO 27011KT 10SM OVC030 03/00 A2954 1430 79 400 270/11 RMK AO2 TSNO
94908KDBQ DBQ20021110202510611/10/02 20:25:31  5-MIN KDBQ 110225Z AUTO 27014KT 10SM OVC030 03/00 A2954 1430 79 400 270/14 RMK AO2 TSNO
94908KDBQ DBQ20021110203010611/10/02 20:30:31  5-MIN KDBQ 110230Z AUTO 27012KT 10SM OVC030 03/00 A2954 1430 79 400 270/12 RMK AO2 TSNO
94908KDBQ DBQ20021110203511211/10/02 20:35:31  5-MIN KDBQ 110235Z AUTO 28016G20KT 10SM OVC030 03/00 A2955 1430 79 400 270/16G20 RMK AO2 TSNO
94908KDBQ DBQ20021110204011211/10/02 20:40:31  5-MIN KDBQ 110240Z AUTO 28016G22KT 10SM OVC030 03/00 A2955 1420 79 400 280/16G22 RMK AO2 TSNO
94908KDBQ DBQ20021110204511211/10/02 20:45:31  5-MIN KDBQ 110245Z AUTO 27015G22KT 10SM OVC028 03/00 A2955 1420 82 300 270/15G22 RMK AO2 TSNO
94908KDBQ DBQ20021110205012911/10/02 20:50:31  5-MIN KDBQ 110250Z AUTO 27014KT 10SM OVC028 03/00 A2955 1420 82 300 270/14 RMK AO2 SLP012 T00280000 51034 TSNO
94908KDBQ DBQ20021110205512911/10/02 20:55:31  5-MIN KDBQ 110255Z AUTO 28013KT 10SM OVC028 03/00 A2955 1420 82 300 280/13 RMK AO2 SLP013 T00280000 53015 TSNO
94908KDBQ DBQ20021110210010611/10/02 21:00:31  5-MIN KDBQ 110300Z AUTO 28015KT 10SM OVC028 03/00 A2955 1420 82 300 270/15 RMK AO2 TSNO
94908KDBQ DBQ20021110210510611/10/02 21:05:31  5-MIN KDBQ 110305Z AUTO 27015KT 10SM OVC028 03/00 A2955 1420 82 300 270/15 RMK AO2 TSNO
94908KDBQ DBQ20021110211010611/10/02 21:10:31  5-MIN KDBQ 110310Z AUTO 27016KT 10SM OVC028 03/00 A2955 1420 82 300 270/16 RMK AO2 TSNO
94908KDBQ DBQ20021110211510611/10/02 21:15:31  5-MIN KDBQ 110315Z AUTO 27015KT 10SM OVC028 03/00 A2956 1420 82 300 270/15 RMK AO2 TSNO
94908KDBQ DBQ20021110212010611/10/02 21:20:31  5-MIN KDBQ 110320Z AUTO 27015KT 10SM OVC028 03/00 A2956 1410 82 300 270/15 RMK AO2 TSNO
94908KDBQ DBQ20021110212510611/10/02 21:25:31  5-MIN KDBQ 110325Z AUTO 28016KT 10SM OVC028 03/00 A2956 1410 82 300 280/16 RMK AO2 TSNO
94908KDBQ DBQ20021110213010611/10/02 21:30:31  5-MIN KDBQ 110330Z AUTO 27013KT 10SM OVC028 03/00 A2956 1410 82 300 270/13 RMK AO2 TSNO
94908KDBQ DBQ20021110213511211/10/02 21:35:31  5-MIN KDBQ 110335Z AUTO 27016G20KT 10SM OVC030 03/00 A2956 1410 82 300 270/16G20 RMK AO2 TSNO
94908KDBQ DBQ20021110214011211/10/02 21:40:31  5-MIN KDBQ 110340Z AUTO 27014G20KT 10SM OVC030 03/00 A2956 1410 82 300 270/14G20 RMK AO2 TSNO
94908KDBQ DBQ20021110214510611/10/02 21:45:31  5-MIN KDBQ 110345Z AUTO 27015KT 10SM OVC030 03/00 A2956 1410 82 300 270/15 RMK AO2 TSNO
94908KDBQ DBQ20021110215012311/10/02 21:50:31  5-MIN KDBQ 110350Z AUTO 27011KT 10SM OVC030 03/00 A2956 1410 82 300 270/11 RMK AO2 SLP017 T00280000 TSNO
94908KDBQ DBQ20021110215512311/10/02 21:55:31  5-MIN KDBQ 110355Z AUTO 27012KT 10SM OVC030 03/00 A2956 1410 82 300 270/12 RMK AO2 SLP017 T00280000 TSNO
94908KDBQ DBQ20021110220010611/10/02 22:00:31  5-MIN KDBQ 110400Z AUTO 27014KT 10SM OVC028 03/00 A2957 1410 82 300 270/14 RMK AO2 TSNO
94908KDBQ DBQ20021110220510611/10/02 22:05:31  5-MIN KDBQ 110405Z AUTO 27014KT 10SM OVC028 03/00 A2956 1410 82 300 270/14 RMK AO2 TSNO
94908KDBQ DBQ20021110221010611/10/02 22:10:31  5-MIN KDBQ 110410Z AUTO 27013KT 10SM OVC028 03/00 A2957 1410 82 300 270/13 RMK AO2 TSNO
94908KDBQ DBQ20021110221510611/10/02 22:15:31  5-MIN KDBQ 110415Z AUTO 27012KT 10SM OVC028 03/00 A2956 1410 82 300 270/12 RMK AO2 TSNO
94908KDBQ DBQ20021110222010611/10/02 22:20:31  5-MIN KDBQ 110420Z AUTO 26013KT 10SM OVC028 03/00 A2957 1410 82 300 260/13 RMK AO2 TSNO
94908KDBQ DBQ20021110222510611/10/02 22:25:31  5-MIN KDBQ 110425Z AUTO 26013KT 10SM OVC028 03/00 A2957 1410 82 300 260/13 RMK AO2 TSNO
94908KDBQ DBQ20021110223010611/10/02 22:30:31  5-MIN KDBQ 110430Z AUTO 26014KT 10SM OVC028 03/01 A2957 1410 85 300 260/14 RMK AO2 TSNO
94908KDBQ DBQ20021110223510611/10/02 22:35:31  5-MIN KDBQ 110435Z AUTO 27012KT 10SM OVC028 03/01 A2957 1400 85 300 270/12 RMK AO2 TSNO
94908KDBQ DBQ20021110224010611/10/02 22:40:31  5-MIN KDBQ 110440Z AUTO 27013KT 10SM OVC028 03/00 A2957 1400 82 300 270/13 RMK AO2 TSNO
94908KDBQ DBQ20021110224510611/10/02 22:45:31  5-MIN KDBQ 110445Z AUTO 27013KT 10SM OVC028 03/00 A2957 1400 82 300 270/13 RMK AO2 TSNO
94908KDBQ DBQ20021110225012311/10/02 22:50:31  5-MIN KDBQ 110450Z AUTO 27013KT 10SM OVC028 02/00 A2957 1400 85 200 270/13 RMK AO2 SLP018 T00220000 TSNO
94908KDBQ DBQ20021110225512411/10/02 22:55:31  5-MIN KDBQ 110455Z AUTO 27014KT 10SM OVC028 02/M01 A2957 1400 82 200 270/14 RMK AO2 SLP018 T00221006 TSNO
94908KDBQ DBQ20021110230010711/10/02 23:00:31  5-MIN KDBQ 110500Z AUTO 27011KT 10SM OVC028 02/M01 A2957 1400 82 200 270/11 RMK AO2 TSNO
94908KDBQ DBQ20021110230510611/10/02 23:05:31  5-MIN KDBQ 110505Z AUTO 27013KT 10SM OVC028 02/00 A2957 1400 85 200 270/13 RMK AO2 TSNO
94908KDBQ DBQ20021110231010611/10/02 23:10:31  5-MIN KDBQ 110510Z AUTO 27013KT 10SM OVC028 02/00 A2957 1400 85 200 270/13 RMK AO2 TSNO
94908KDBQ DBQ20021110231511311/10/02 23:15:31  5-MIN KDBQ 110515Z AUTO 27013KT 10SM FEW015 OVC028 02/00 A2957 1400 85 200 270/13 RMK AO2 TSNO
94908KDBQ DBQ20021110232011411/10/02 23:20:31  5-MIN KDBQ 110520Z AUTO 26013KT 10SM FEW015 OVC028 02/M01 A2957 1400 82 200 260/13 RMK AO2 TSNO
94908KDBQ DBQ20021110232510711/10/02 23:25:31  5-MIN KDBQ 110525Z AUTO 27014KT 10SM OVC028 02/M01 A2957 1400 82 200 260/14 RMK AO2 TSNO
94908KDBQ DBQ20021110233010711/10/02 23:30:31  5-MIN KDBQ 110530Z AUTO 26014KT 10SM OVC028 02/M01 A2957 1400 82 200 260/14 RMK AO2 TSNO
94908KDBQ DBQ20021110233511411/10/02 23:35:31  5-MIN KDBQ 110535Z AUTO 27012KT 10SM FEW015 OVC026 02/M01 A2957 1400 82 200 270/12 RMK AO2 TSNO
94908KDBQ DBQ20021110234011411/10/02 23:40:31  5-MIN KDBQ 110540Z AUTO 27015KT 10SM FEW015 OVC026 02/M01 A2958 1400 82 200 270/15 RMK AO2 TSNO
94908KDBQ DBQ20021110234511411/10/02 23:45:31  5-MIN KDBQ 110545Z AUTO 26012KT 10SM FEW015 OVC026 02/M01 A2958 1390 82 200 260/12 RMK AO2 TSNO
94908KDBQ DBQ20021110235015911/10/02 23:50:31  5-MIN KDBQ 110550Z AUTO 28012KT 10SM FEW015 OVC026 02/M01 A2958 1390 82 200 280/12 RMK AO2 SLP022 T00221006 10033 20022 401440022 53015 TSNO
94908KDBQ DBQ20021110235515911/10/02 23:55:31  5-MIN KDBQ 110555Z AUTO 27015KT 10SM FEW015 OVC026 02/M01 A2958 1390 82 200 270/15 RMK AO2 SLP022 T00221006 10033 20022 401440022 51010 TSNO
94908KDBQ DBQ20021111000011411/11/02 00:00:31  5-MIN KDBQ 110600Z AUTO 26012KT 10SM FEW015 OVC026 02/M01 A2958 1390 78 200 260/12 RMK AO2 TSNO
94908KDBQ DBQ20021111000511411/11/02 00:05:31  5-MIN KDBQ 110605Z AUTO 28013KT 10SM FEW015 OVC026 02/M01 A2959 1390 82 100 280/13 RMK AO2 TSNO
94908KDBQ DBQ20021111001010711/11/02 00:10:31  5-MIN KDBQ 110610Z AUTO 27012KT 10SM OVC026 02/M01 A2959 1380 85 100 270/12 RMK AO2 TSNO
94908KDBQ DBQ20021111001510711/11/02 00:15:31  5-MIN KDBQ 110615Z AUTO 27011KT 10SM OVC026 02/M01 A2959 1380 85 100 270/11 RMK AO2 TSNO
94908KDBQ DBQ20021111002010711/11/02 00:20:31  5-MIN KDBQ 110620Z AUTO 26012KT 10SM OVC026 02/M01 A2960 1380 85 100 260/12 RMK AO2 TSNO
94908KDBQ DBQ20021111002510711/11/02 00:25:31  5-MIN KDBQ 110625Z AUTO 27013KT 10SM OVC026 02/M01 A2960 1380 82 100 270/13 RMK AO2 TSNO
94908KDBQ DBQ20021111003010711/11/02 00:30:31  5-MIN KDBQ 110630Z AUTO 27012KT 10SM OVC024 02/M01 A2960 1380 85 100 270/12 RMK AO2 TSNO
94908KDBQ DBQ20021111003510711/11/02 00:35:31  5-MIN KDBQ 110635Z AUTO 26008KT 10SM OVC024 02/M01 A2960 1380 85 100 260/08 RMK AO2 TSNO
94908KDBQ DBQ20021111004010711/11/02 00:40:31  5-MIN KDBQ 110640Z AUTO 26011KT 10SM OVC024 02/M01 A2960 1380 85 100 260/11 RMK AO2 TSNO
94908KDBQ DBQ20021111004510711/11/02 00:45:31  5-MIN KDBQ 110645Z AUTO 26010KT 10SM OVC024 02/M01 A2960 1380 85 100 260/10 RMK AO2 TSNO
94908KDBQ DBQ20021111005012411/11/02 00:50:31  5-MIN KDBQ 110650Z AUTO 27010KT 10SM OVC024 02/M01 A2960 1370 85 100 270/10 RMK AO2 SLP029 T00171006 TSNO
94908KDBQ DBQ20021111005512411/11/02 00:55:31  5-MIN KDBQ 110655Z AUTO 27009KT 10SM OVC024 02/M01 A2960 1370 85 100 270/09 RMK AO2 SLP029 T00171006 TSNO
94908KDBQ DBQ20021111010010711/11/02 01:00:31  5-MIN KDBQ 110700Z AUTO 27009KT 10SM OVC024 02/M01 A2960 1370 85 100 270/09 RMK AO2 TSNO
94908KDBQ DBQ20021111010510711/11/02 01:05:31  5-MIN KDBQ 110705Z AUTO 27011KT 10SM OVC024 02/M01 A2961 1370 85 100 260/11 RMK AO2 TSNO
94908KDBQ DBQ20021111011010711/11/02 01:10:31  5-MIN KDBQ 110710Z AUTO 27009KT 10SM OVC024 02/M01 A2961 1370 85 100 270/09 RMK AO2 TSNO
94908KDBQ DBQ20021111011511411/11/02 01:15:31  5-MIN KDBQ 110715Z AUTO 27010KT 10SM FEW013 OVC024 02/M01 A2961 1370 85 100 270/10 RMK AO2 TSNO
94908KDBQ DBQ20021111012011411/11/02 01:20:31  5-MIN KDBQ 110720Z AUTO 27012KT 10SM FEW013 OVC024 02/M01 A2961 1370 85 100 270/12 RMK AO2 TSNO
94908KDBQ DBQ20021111012511411/11/02 01:25:31  5-MIN KDBQ 110725Z AUTO 27008KT 10SM FEW013 OVC024 02/M01 A2961 1360 85 100 270/08 RMK AO2 TSNO
94908KDBQ DBQ20021111013011411/11/02 01:30:31  5-MIN KDBQ 110730Z AUTO 26010KT 10SM FEW013 OVC024 02/M01 A2961 1360 85 100 260/10 RMK AO2 TSNO
94908KDBQ DBQ20021111013511411/11/02 01:35:31  5-MIN KDBQ 110735Z AUTO 27010KT 10SM FEW013 OVC024 02/M01 A2962 1360 85 100 270/10 RMK AO2 TSNO
94908KDBQ DBQ20021111014011411/11/02 01:40:31  5-MIN KDBQ 110740Z AUTO 27011KT 10SM FEW013 OVC024 02/M01 A2962 1360 82 100 270/11 RMK AO2 TSNO
94908KDBQ DBQ20021111014510711/11/02 01:45:31  5-MIN KDBQ 110745Z AUTO 27012KT 10SM OVC024 02/M01 A2962 1360 82 100 270/12 RMK AO2 TSNO
94908KDBQ DBQ20021111015012211/11/02 01:50:31  5-MIN KDBQ 110750Z AUTO 27010KT 10SM OVC024 01/M01 A2963 1350 85 0 270/10 RMK AO2 SLP037 T00111011 TSNO
94908KDBQ DBQ20021111015512211/11/02 01:55:31  5-MIN KDBQ 110755Z AUTO 26011KT 10SM OVC022 01/M01 A2963 1350 85 0 260/11 RMK AO2 SLP038 T00111011 TSNO
94908KDBQ DBQ20021111020010511/11/02 02:00:31  5-MIN KDBQ 110800Z AUTO 27010KT 10SM OVC022 01/M01 A2963 1350 85 0 260/10 RMK AO2 TSNO
94908KDBQ DBQ20021111020510511/11/02 02:05:31  5-MIN KDBQ 110805Z AUTO 27011KT 10SM OVC022 01/M01 A2963 1350 85 0 270/11 RMK AO2 TSNO
94908KDBQ DBQ20021111021011211/11/02 02:10:31  5-MIN KDBQ 110810Z AUTO 27011KT 10SM FEW013 OVC022 01/M01 A2964 1340 89 0 270/11 RMK AO2 TSNO
94908KDBQ DBQ20021111021511111/11/02 02:15:31  5-MIN KDBQ 110815Z AUTO 27010KT 8SM SCT013 OVC020 01/M01 A2964 1340 89 0 270/10 RMK AO2 TSNO
94908KDBQ DBQ20021111022011411/11/02 02:20:31  5-MIN KDBQ 110820Z AUTO 27011KT 6SM BR BKN013 OVC020 01/M01 A2964 1340 89 0 270/11 RMK AO2 TSNO
94908KDBQ DBQ20021111022511311/11/02 02:25:31  5-MIN KDBQ 110825Z AUTO 27010KT 6SM BR BKN013 OVC022 01/00 A2964 1340 92 0 270/10 RMK AO2 TSNO
94908KDBQ DBQ20021111023011311/11/02 02:30:31  5-MIN KDBQ 110830Z AUTO 27008KT 5SM BR BKN011 OVC022 01/00 A2965 1330 92 0 270/08 RMK AO2 TSNO
94908KDBQ DBQ20021111023510611/11/02 02:35:31  5-MIN KDBQ 110835Z AUTO 27007KT 5SM BR OVC011 01/00 A2965 1330 92 0 270/07 RMK AO2 TSNO
94908KDBQ DBQ20021111024012511/11/02 02:40:31  5-MIN KDBQ 110840Z AUTO 27007KT 5SM BR BKN011 OVC021 01/00 A2965 1330 92 0 270/07 RMK AO2 CIG 006V014 TSNO
94908KDBQ DBQ20021111024512511/11/02 02:45:31  5-MIN KDBQ 110845Z AUTO 26008KT 5SM BR BKN011 OVC021 01/00 A2965 1330 92 0 260/08 RMK AO2 CIG 006V014 TSNO
94908KDBQ DBQ20021111025014111/11/02 02:50:31  5-MIN KDBQ 110850Z AUTO 27007KT 4SM BR OVC008 01/00 A2965 1330 92 0 270/07 RMK AO2 CIG 005V012 SLP045 T00110000 51010 TSNO
94908KDBQ DBQ20021111025514111/11/02 02:55:31  5-MIN KDBQ 110855Z AUTO 27008KT 3SM BR OVC008 01/01 A2965 1330 96 0 260/08 RMK AO2 CIG 005V012 SLP046 T00110006 53023 TSNO
94908KDBQ DBQ20021111030011911/11/02 03:00:31  5-MIN KDBQ 110900Z AUTO 27008KT 3SM BR OVC008 01/01 A2965 1330 100 0 270/08 RMK AO2 CIG 005V011 TSNO
94908KDBQ DBQ20021111030511911/11/02 03:05:31  5-MIN KDBQ 110905Z AUTO 26007KT 3SM BR OVC008 01/01 A2965 1330 100 0 260/07 RMK AO2 CIG 005V011 TSNO
94908KDBQ DBQ20021111031013311/11/02 03:10:31  5-MIN KDBQ 110910Z AUTO 26008KT 3SM UP BR OVC008 01/01 A2965 1330 96 0 260/08 RMK AO2 UPB08 CIG 005V010 P0000 TSNO
94908KDBQ DBQ20021111031513411/11/02 03:15:31  5-MIN KDBQ 110915Z AUTO 26007KT 3SM UP BR OVC006 01/01 A2965 1330 100 0 260/07 RMK AO2 UPB08 CIG 004V010 P0000 TSNO
94908KDBQ DBQ20021111032013411/11/02 03:20:31  5-MIN KDBQ 110920Z AUTO 26008KT 3SM UP BR OVC006 01/01 A2965 1330 100 0 260/08 RMK AO2 UPB08 CIG 004V010 P0000 TSNO
94908KDBQ DBQ20021111032513411/11/02 03:25:31  5-MIN KDBQ 110925Z AUTO 26007KT 3SM UP BR OVC006 01/01 A2965 1330 100 0 260/07 RMK AO2 UPB08 CIG 004V009 P0000 TSNO
94908KDBQ DBQ20021111033014311/11/02 03:30:31  5-MIN KDBQ 110930Z AUTO 26007KT 3SM -SN BR OVC006 01/01 A2966 1320 100 0 260/07 RMK AO2 UPB08E29SNB29 CIG 003V009 P0000 TSNO
94908KDBQ DBQ20021111033514311/11/02 03:35:31  5-MIN KDBQ 110935Z AUTO 27007KT 3SM -SN BR OVC006 01/01 A2966 1320 100 0 260/07 RMK AO2 UPB08E29SNB29 CIG 003V009 P0000 TSNO
94908KDBQ DBQ20021111034014211/11/02 03:40:31  5-MIN KDBQ 110940Z AUTO 27007KT 3SM -SN BR OVC006 01/00 A2966 1320 96 0 270/07 RMK AO2 UPB08E29SNB29 CIG 003V009 P0000 TSNO
94908KDBQ DBQ20021111034514211/11/02 03:45:31  5-MIN KDBQ 110945Z AUTO 27008KT 3SM -SN BR OVC006 01/00 A2966 1320 96 0 270/08 RMK AO2 UPB08E29SNB29 CIG 003V009 P0000 TSNO
94908KDBQ DBQ20021111035016511/11/02 03:50:31  5-MIN KDBQ 110950Z AUTO 27009KT 3SM UP BR OVC006 01/01 A2966 1320 100 0 270/09 RMK AO2 UPB08E29B48SNB29E48 CIG 003V009 SLP051 P0000 T00060006 TSNO
94908KDBQ DBQ20021111035516511/11/02 03:55:31  5-MIN KDBQ 110955Z AUTO 27008KT 3SM UP BR OVC004 01/01 A2967 1310 100 0 270/08 RMK AO2 UPB08E29B48SNB29E48 CIG 003V009 SLP052 P0000 T00060006 TSNO
94908KDBQ DBQ20021111040012811/11/02 04:00:31  5-MIN KDBQ 111000Z AUTO 28008KT 3SM UP BR OVC004 01/01 A2967 1310 100 0 280/08 RMK AO2 CIG 004V009 P0000 TSNO
94908KDBQ DBQ20021111040512811/11/02 04:05:31  5-MIN KDBQ 111005Z AUTO 27007KT 3SM UP BR OVC004 01/01 A2967 1310 100 0 270/07 RMK AO2 CIG 004V009 P0001 TSNO
94908KDBQ DBQ20021111041011911/11/02 04:10:31  5-MIN KDBQ 111010Z AUTO 27009KT 3SM BR OVC004 01/01 A2968 1300 100 0 270/09 RMK AO2 UPE09 P0001 TSNO
94908KDBQ DBQ20021111041513011/11/02 04:15:31  5-MIN KDBQ 111015Z AUTO 26009KT 4SM BR OVC004 01/01 A2968 1300 96 0 260/09 RMK AO2 UPE09 CIG 004V008 P0001 TSNO
94908KDBQ DBQ20021111042013011/11/02 04:20:31  5-MIN KDBQ 111020Z AUTO 27009KT 5SM BR OVC004 01/01 A2968 1300 96 0 270/09 RMK AO2 UPE09 CIG 004V008 P0001 TSNO
94908KDBQ DBQ20021111042513011/11/02 04:25:31  5-MIN KDBQ 111025Z AUTO 27009KT 5SM BR OVC004 01/01 A2969 1300 96 0 260/09 RMK AO2 UPE09 CIG 004V008 P0001 TSNO
94908KDBQ DBQ20021111043013011/11/02 04:30:31  5-MIN KDBQ 111030Z AUTO 26008KT 6SM BR OVC004 01/01 A2969 1290 96 0 260/08 RMK AO2 UPE09 CIG 004V008 P0001 TSNO
94908KDBQ DBQ20021111043513411/11/02 04:35:31  5-MIN KDBQ 111035Z AUTO 26009KT 7SM BKN006 OVC010 01/01 A2969 1290 96 0 260/09 RMK AO2 UPE09 CIG 004V009 P0001 TSNO
94908KDBQ DBQ20021111044013411/11/02 04:40:31  5-MIN KDBQ 111040Z AUTO 26008KT 7SM BKN006 OVC010 01/01 A2969 1290 96 0 260/08 RMK AO2 UPE09 CIG 004V009 P0001 TSNO
94908KDBQ DBQ20021111044514611/11/02 04:45:31  5-MIN KDBQ 111045Z AUTO 27008KT 6SM -SN BR BKN006 OVC010 01/01 A2969 1290 96 0 270/08 RMK AO2 UPE09SNB43 CIG 004V009 P0001 TSNO
94908KDBQ DBQ20021111045016011/11/02 04:50:31  5-MIN KDBQ 111050Z AUTO 27007KT 4SM -SN BR OVC006 01/01 A2970 1290 100 -100 270/07 RMK AO2 UPE09SNB43 CIG 004V009 SLP064 P0001 T00060006 TSNO
94908KDBQ DBQ20021111045516011/11/02 04:55:31  5-MIN KDBQ 111055Z AUTO 27007KT 4SM -SN BR OVC006 01/01 A2970 1280 100 -100 270/07 RMK AO2 UPE09SNB43 CIG 004V009 SLP066 P0001 T00060006 TSNO
94908KDBQ DBQ20021111050013211/11/02 05:00:31  5-MIN KDBQ 111100Z AUTO 27006KT 5SM -SN BR OVC006 01/01 A2970 1280 100 -100 270/06 RMK AO2 CIG 004V009 P0000 TSNO
94908KDBQ DBQ20021111050513211/11/02 05:05:31  5-MIN KDBQ 111105Z AUTO 27007KT 5SM -SN BR OVC006 01/01 A2971 1280 100 -100 270/07 RMK AO2 CIG 004V008 P0000 TSNO
94908KDBQ DBQ20021111051012811/11/02 05:10:31  5-MIN KDBQ 111110Z AUTO 28006KT 5SM -SN BR OVC006 01/01 A2971 1280 96 0 280/06 RMK AO2 CIG 004V008 P0000 TSNO
94908KDBQ DBQ20021111051512811/11/02 05:15:31  5-MIN KDBQ 111115Z AUTO 28006KT 5SM -SN BR OVC006 01/01 A2971 1270 96 0 280/06 RMK AO2 CIG 004V008 P0000 TSNO
94908KDBQ DBQ20021111052012811/11/02 05:20:31  5-MIN KDBQ 111120Z AUTO 27006KT 6SM -SN BR OVC006 01/01 A2971 1270 96 0 270/06 RMK AO2 CIG 004V008 P0000 TSNO
94908KDBQ DBQ20021111052512511/11/02 05:25:31  5-MIN KDBQ 111125Z AUTO 28008KT 7SM -SN OVC006 01/01 A2971 1270 96 0 280/08 RMK AO2 CIG 004V008 P0000 TSNO
94908KDBQ DBQ20021111053012911/11/02 05:30:31  5-MIN KDBQ 111130Z AUTO 29007KT 6SM -SN BR OVC006 01/01 A2971 1270 100 0 290/07 RMK AO2 CIG 004V008 P0000 TSNO
94908KDBQ DBQ20021111053513911/11/02 05:35:31  5-MIN KDBQ 111135Z AUTO 29007KT 6SM UP BR OVC006 01/01 A2972 1270 100 0 290/07 RMK AO2 UPB32SNE32 CIG 004V008 P0000 TSNO
94908KDBQ DBQ20021111054013911/11/02 05:40:31  5-MIN KDBQ 111140Z AUTO 30007KT 5SM -SN BR OVC006 02/01 A2972 1260 96 0 300/07 RMK AO2 UPB32E40SNE32B38E39B40 P0000 TSNO
94908KDBQ DBQ20021111054515211/11/02 05:45:31  5-MIN KDBQ 111145Z AUTO 30007KT 5SM -SN BR OVC006 01/01 A2972 1260 100 0 300/07 RMK AO2 UPB32E40SNE32B38E39B40 CIG 004V009 P0001 TSNO
94908KDBQ DBQ20021111055018411/11/02 05:50:31  5-MIN KDBQ 111150Z 31007KT 5SM -RA BR OVC006 02/01 A2973 1260 96 0 310/07 RMK AO2 UPB32E40RAB50SNE32B38E39B40E50 SLP075 P0001 60002 70002 T00170011 10022 20006 53023
94908KDBQ DBQ20021111055518411/11/02 05:55:31  5-MIN KDBQ 111155Z 33007KT 6SM -RA BR OVC006 02/01 A2973 1260 96 0 330/07 RMK AO2 UPB32E40RAB50SNE32B38E39B40E50 SLP076 P0001 60002 70002 T00170011 10022 20006 53025
94908KDBQ DBQ20021111060010311/11/02 06:00:31  5-MIN KDBQ 111200Z 34008KT 7SM -RA OVC006 02/01 A2973 1250 96 0 340/08 RMK AO2 P0000
94908KDBQ DBQ20021111060510411/11/02 06:05:31  5-MIN KDBQ 111205Z 35007KT 7SM -RA OVC006 02/02 A2973 1250 100 0 340/07 RMK AO2 P0000
94908KDBQ DBQ20021111061010311/11/02 06:10:31  5-MIN KDBQ 111210Z 34008KT 7SM -RA OVC006 02/02 A2974 1250 96 0 340/08 RMK AO2 P0000
94908KDBQ DBQ20021111061510311/11/02 06:15:31  5-MIN KDBQ 111215Z 34009KT 7SM -RA OVC006 02/02 A2974 1250 96 0 340/09 RMK AO2 P0000
94908KDBQ DBQ20021111062011511/11/02 06:20:31  5-MIN KDBQ 111220Z 33009KT 7SM -RA OVC006 02/02 A2974 1240 96 0 330/09 RMK AO2 CIG 004V008 P0000
94908KDBQ DBQ20021111062511511/11/02 06:25:31  5-MIN KDBQ 111225Z 34009KT 7SM -RA OVC006 02/02 A2974 1240 96 0 340/09 RMK AO2 CIG 004V008 P0000
94908KDBQ DBQ20021111063011511/11/02 06:30:31  5-MIN KDBQ 111230Z 34011KT 7SM -RA OVC006 02/02 A2975 1240 96 0 340/11 RMK AO2 CIG 004V008 P0001
94908KDBQ DBQ20021111063511511/11/02 06:35:31  5-MIN KDBQ 111235Z 34009KT 7SM -RA OVC006 02/02 A2975 1230 96 0 340/09 RMK AO2 CIG 004V008 P0001
94908KDBQ DBQ20021111064011511/11/02 06:40:31  5-MIN KDBQ 111240Z 34009KT 7SM -RA OVC006 02/02 A2976 1230 96 0 340/09 RMK AO2 CIG 004V008 P0001
94908KDBQ DBQ20021111064511511/11/02 06:45:31  5-MIN KDBQ 111245Z 34010KT 8SM -RA OVC006 02/02 A2976 1220 96 0 340/10 RMK AO2 CIG 004V008 P0001
94908KDBQ DBQ20021111065013911/11/02 06:50:31  5-MIN KDBQ 111250Z 35008KT 8SM -RA BKN006 OVC015 02/02 A2976 1220 96 0 350/08 RMK AO2 CIG 004V008 SLP088 P0001 T00220017
94908KDBQ DBQ20021111065513711/11/02 06:55:31  5-MIN KDBQ 111255Z 36008KT 9SM UP SCT006 OVC015 02/02 A2977 1220 96 0 350/08 RMK AO2 RAE53UPB53 SLP089 P0001 T00220017
94908KDBQ DBQ20021111070010911/11/02 07:00:31  5-MIN KDBQ 111300Z 35008KT 9SM UP BKN006 OVC015 02/02 A2977 1220 96 0 350/08 RMK AO2 P0000
94908KDBQ DBQ20021111070510911/11/02 07:05:31  5-MIN KDBQ 111305Z 35008KT 9SM UP BKN006 OVC015 02/02 A2978 1210 96 0 350/08 RMK AO2 P0000
94908KDBQ DBQ20021111071011211/11/02 07:10:31  5-MIN KDBQ 111310Z 35007KT 9SM BKN006 OVC015 02/02 A2978 1210 96 0 350/07 RMK AO2 UPE07 P0000
94908KDBQ DBQ20021111071511211/11/02 07:15:31  5-MIN KDBQ 111315Z 36007KT 8SM BKN006 OVC015 02/02 A2978 1200 96 0 360/07 RMK AO2 UPE07 P0000
94908KDBQ DBQ20021111072011211/11/02 07:20:31  5-MIN KDBQ 111320Z 36007KT 8SM BKN006 OVC015 02/02 A2979 1200 96 0 360/07 RMK AO2 UPE07 P0000
94908KDBQ DBQ20021111072511211/11/02 07:25:31  5-MIN KDBQ 111325Z 01007KT 8SM BKN006 OVC015 02/02 A2979 1200 96 0 010/07 RMK AO2 UPE07 P0000
94908KDBQ DBQ20021111073011211/11/02 07:30:31  5-MIN KDBQ 111330Z 36007KT 9SM BKN006 OVC015 02/02 A2980 1190 96 0 360/07 RMK AO2 UPE07 P0000
94908KDBQ DBQ20021111073511211/11/02 07:35:31  5-MIN KDBQ 111335Z 36007KT 9SM BKN006 OVC015 02/02 A2980 1190 96 0 360/07 RMK AO2 UPE07 P0000
94908KDBQ DBQ20021111074011311/11/02 07:40:31  5-MIN KDBQ 111340Z 01006KT 8SM BKN006 OVC015 02/02 A2980 1190 100 0 360/06 RMK AO2 UPE07 P0000
94908KDBQ DBQ20021111074512511/11/02 07:45:31  5-MIN KDBQ 111345Z 01006KT 8SM BKN006 OVC017 02/02 A2981 1180 100 0 010/06 RMK AO2 UPE07 CIG 004V009 P0000
94908KDBQ DBQ20021111075014211/11/02 07:50:31  5-MIN KDBQ 111350Z 36005KT 8SM BKN006 OVC017 02/02 A2981 1180 100 0 360/05 RMK AO2 UPE07 CIG 003V009 SLP105 P0000 T00220022
94908KDBQ DBQ20021111075513411/11/02 07:55:31  5-MIN KDBQ 111355Z 01006KT 7SM OVC006 03/02 A2982 1180 96 0 010/06 RMK AO2 UPE07 CIG 003V009 SLP106 P0000 T00280022
94908KDBQ DBQ20021111080011911/11/02 08:00:31  5-MIN KDBQ 111400Z 36005KT 7SM BKN006 BKN022 OVC033 03/02 A2982 1170 96 0 360/05 RMK AO2 CIG 003V009
94908KDBQ DBQ20021111080512211/11/02 08:05:31  5-MIN KDBQ 111405Z 35005KT 6SM BR BKN006 BKN022 OVC033 03/02 A2982 1170 96 0 350/05 RMK AO2 CIG 003V009
94908KDBQ DBQ20021111081010311/11/02 08:10:31  5-MIN KDBQ 111410Z 34006KT 6SM BR BKN006 OVC022 03/02 A2983 1160 96 0 340/06 RMK AO2
94908KDBQ DBQ20021111081510311/11/02 08:15:31  5-MIN KDBQ 111415Z 35005KT 6SM BR BKN006 OVC022 03/02 A2983 1160 96 0 350/05 RMK AO2
94908KDBQ DBQ20021111082010411/11/02 08:20:31  5-MIN KDBQ 111420Z 35005KT 6SM BR BKN006 OVC022 03/03 A2984 1160 100 0 350/05 RMK AO2
94908KDBQ DBQ20021111082510411/11/02 08:25:31  5-MIN KDBQ 111425Z 34006KT 6SM BR BKN006 OVC022 03/03 A2984 1150 100 0 340/06 RMK AO2
94908KDBQ DBQ20021111083011111/11/02 08:30:31  5-MIN KDBQ 111430Z 34007KT 6SM BR BKN008 BKN022 OVC028 03/03 A2984 1150 100 0 340/07 RMK AO2
94908KDBQ DBQ20021111083510711/11/02 08:35:31  5-MIN KDBQ 111435Z 34006KT 7SM FEW015 BKN026 OVC041 03/03 A2985 1150 96 0 340/06 RMK AO2
94908KDBQ DBQ20021111084010711/11/02 08:40:31  5-MIN KDBQ 111440Z 34007KT 7SM FEW015 BKN028 OVC041 03/03 A2985 1140 96 0 340/07 RMK AO2
94908KDBQ DBQ20021111084510711/11/02 08:45:31  5-MIN KDBQ 111445Z 35007KT 8SM FEW015 BKN028 OVC041 03/03 A2985 1140 96 0 350/07 RMK AO2
94908KDBQ DBQ20021111085012911/11/02 08:50:31  5-MIN KDBQ 111450Z 34007KT 8SM BKN030 OVC041 03/03 A2986 1140 96 0 340/07 RMK AO2 SLP118 60001 T00330028 53025
94908KDBQ DBQ20021111085512911/11/02 08:55:31  5-MIN KDBQ 111455Z 35006KT 9SM BKN024 OVC041 03/03 A2986 1140 96 0 350/06 RMK AO2 SLP119 60001 T00330028 53043
94908KDBQ DBQ20021111090010911/11/02 09:00:31  5-MIN KDBQ 111500Z 36006KT 9SM FEW009 SCT015 OVC030 04/03 A2986 1130 96 100 360/06 RMK AO2
94908KDBQ DBQ20021111090510711/11/02 09:05:31  5-MIN KDBQ 111505Z 35006KT 9SM BKN009 BKN015 OVC033 03/03 A2986 1130 96 0 350/06 RMK AO2
94908KDBQ DBQ20021111091010711/11/02 09:10:31  5-MIN KDBQ 111510Z 36008KT 9SM BKN009 BKN015 OVC033 03/03 A2987 1130 96 0 360/08 RMK AO2
94908KDBQ DBQ20021111091510911/11/02 09:15:31  5-MIN KDBQ 111515Z 35006KT 9SM BKN009 BKN013 OVC030 04/03 A2987 1130 96 100 350/06 RMK AO2
94908KDBQ DBQ20021111092010911/11/02 09:20:31  5-MIN KDBQ 111520Z 35008KT 9SM SCT006 BKN009 OVC027 04/03 A2987 1120 96 100 350/08 RMK AO2
94908KDBQ DBQ20021111092511011/11/02 09:25:31  5-MIN KDBQ 111525Z 35009KT 10SM FEW006 BKN012 OVC023 04/03 A2987 1120 92 100 350/09 RMK AO2
94908KDBQ DBQ20021111093012611/11/02 09:30:31  5-MIN KDBQ 111530Z 35009KT 330V030 10SM FEW006 BKN009 OVC023 04/03 A2988 1120 92 100 350/09 330V030 RMK AO2
94908KDBQ DBQ20021111093511011/11/02 09:35:31  5-MIN KDBQ 111535Z 35010KT 10SM FEW006 BKN009 OVC023 04/02 A2988 1110 89 100 350/10 RMK AO2
94908KDBQ DBQ20021111094011011/11/02 09:40:31  5-MIN KDBQ 111540Z 35009KT 10SM FEW006 BKN009 OVC023 04/02 A2989 1110 89 100 350/09 RMK AO2
94908KDBQ DBQ20021111094511011/11/02 09:45:31  5-MIN KDBQ 111545Z 35009KT 10SM FEW006 BKN009 OVC023 04/02 A2989 1110 89 100 350/09 RMK AO2
94908KDBQ DBQ20021111095012011/11/02 09:50:31  5-MIN KDBQ 111550Z 35009KT 10SM FEW014 OVC021 04/02 A2989 1100 89 100 350/09 RMK AO2 SLP132 T00390022
94908KDBQ DBQ20021111095512011/11/02 09:55:31  5-MIN KDBQ 111555Z 35010KT 10SM FEW014 OVC021 04/02 A2990 1100 89 100 350/10 RMK AO2 SLP133 T00390022
94908KDBQ DBQ20021111100010311/11/02 10:00:31  5-MIN KDBQ 111600Z 35009KT 10SM FEW014 OVC021 04/02 A2990 1100 89 100 350/09 RMK AO2
94908KDBQ DBQ20021111100509611/11/02 10:05:31  5-MIN KDBQ 111605Z 35010KT 10SM OVC021 04/02 A2990 1090 89 100 350/10 RMK AO2
94908KDBQ DBQ20021111101009411/11/02 10:10:31  5-MIN KDBQ 111610Z 34008KT 10SM OVC021 04/02 A2991 1090 85 0 340/08 RMK AO2
94908KDBQ DBQ20021111101509411/11/02 10:15:31  5-MIN KDBQ 111615Z 34008KT 10SM OVC019 04/02 A2991 1080 89 0 340/08 RMK AO2
94908KDBQ DBQ20021111102009411/11/02 10:20:31  5-MIN KDBQ 111620Z 34007KT 10SM OVC019 04/02 A2992 1080 89 0 340/07 RMK AO2
94908KDBQ DBQ20021111102509411/11/02 10:25:31  5-MIN KDBQ 111625Z 35006KT 10SM OVC019 04/02 A2992 1080 89 0 350/06 RMK AO2
94908KDBQ DBQ20021111103009411/11/02 10:30:31  5-MIN KDBQ 111630Z 34007KT 10SM OVC017 04/02 A2992 1080 85 0 340/07 RMK AO2
94908KDBQ DBQ20021111103509411/11/02 10:35:31  5-MIN KDBQ 111635Z 34007KT 10SM OVC017 04/02 A2993 1070 85 0 340/07 RMK AO2
94908KDBQ DBQ20021111104009411/11/02 10:40:31  5-MIN KDBQ 111640Z 35006KT 10SM OVC017 04/02 A2993 1070 89 0 350/06 RMK AO2
94908KDBQ DBQ20021111104509411/11/02 10:45:31  5-MIN KDBQ 111645Z 34007KT 10SM OVC017 04/02 A2993 1070 89 0 340/07 RMK AO2
94908KDBQ DBQ20021111105011111/11/02 10:50:31  5-MIN KDBQ 111650Z 34008KT 10SM OVC017 04/02 A2993 1070 85 0 340/08 RMK AO2 SLP145 T00390017
94908KDBQ DBQ20021111105511111/11/02 10:55:31  5-MIN KDBQ 111655Z 34010KT 10SM OVC017 04/02 A2994 1060 85 0 340/10 RMK AO2 SLP146 T00390017
94908KDBQ DBQ20021111110009411/11/02 11:00:31  5-MIN KDBQ 111700Z 34009KT 10SM OVC017 04/02 A2994 1060 85 0 340/09 RMK AO2
94908KDBQ DBQ20021111110509411/11/02 11:05:31  5-MIN KDBQ 111705Z 34009KT 10SM OVC017 04/01 A2994 1060 82 0 340/09 RMK AO2
94908KDBQ DBQ20021111111009411/11/02 11:10:31  5-MIN KDBQ 111710Z 33008KT 10SM OVC019 04/01 A2994 1060 82 0 330/08 RMK AO2
94908KDBQ DBQ20021111111509411/11/02 11:15:31  5-MIN KDBQ 111715Z 34007KT 10SM OVC019 04/01 A2994 1060 82 0 340/07 RMK AO2
94908KDBQ DBQ20021111112009411/11/02 11:20:31  5-MIN KDBQ 111720Z 34007KT 10SM OVC019 04/02 A2994 1060 85 0 340/07 RMK AO2
94908KDBQ DBQ20021111112509411/11/02 11:25:31  5-MIN KDBQ 111725Z 34007KT 10SM OVC019 04/02 A2994 1060 85 0 340/07 RMK AO2
94908KDBQ DBQ20021111113009411/11/02 11:30:31  5-MIN KDBQ 111730Z 34006KT 10SM OVC019 04/01 A2994 1060 82 0 340/06 RMK AO2
94908KDBQ DBQ20021111113509411/11/02 11:35:31  5-MIN KDBQ 111735Z 31007KT 10SM OVC019 04/02 A2995 1050 85 0 310/07 RMK AO2
94908KDBQ DBQ20021111114009411/11/02 11:40:31  5-MIN KDBQ 111740Z 33008KT 10SM OVC019 04/01 A2995 1050 82 0 330/08 RMK AO2
94908KDBQ DBQ20021111114509411/11/02 11:45:31  5-MIN KDBQ 111745Z 32008KT 10SM OVC019 03/01 A2995 1050 85 0 320/08 RMK AO2
94908KDBQ DBQ20021111115013511/11/02 11:50:31  5-MIN KDBQ 111750Z 32008KT 10SM OVC017 03/01 A2995 1050 85 0 320/08 RMK AO2 SLP152 60001 T00330011 10039 20017 53043
94908KDBQ DBQ20021111115513511/11/02 11:55:31  5-MIN KDBQ 111755Z 33008KT 10SM OVC017 04/01 A2996 1050 82 0 330/08 RMK AO2 SLP152 60001 T00390011 10039 20017 51031
94908KDBQ DBQ20021111120009411/11/02 12:00:31  5-MIN KDBQ 111800Z 33006KT 10SM OVC017 04/01 A2996 1040 79 0 330/06 RMK AO2
94908KDBQ DBQ20021111120509411/11/02 12:05:31  5-MIN KDBQ 111805Z 31009KT 10SM OVC019 04/01 A2996 1040 79 0 310/09 RMK AO2
94908KDBQ DBQ20021111121009411/11/02 12:10:31  5-MIN KDBQ 111810Z 33008KT 10SM OVC021 04/01 A2996 1040 82 0 330/08 RMK AO2
94908KDBQ DBQ20021111121509411/11/02 12:15:31  5-MIN KDBQ 111815Z 32010KT 10SM OVC021 04/01 A2996 1040 79 0 320/10 RMK AO2
94908KDBQ DBQ20021111122009411/11/02 12:20:31  5-MIN KDBQ 111820Z 33008KT 10SM OVC021 03/01 A2996 1040 82 0 330/08 RMK AO2
94908KDBQ DBQ20021111122509411/11/02 12:25:31  5-MIN KDBQ 111825Z 32007KT 10SM OVC021 03/01 A2997 1040 82 0 320/07 RMK AO2
94908KDBQ DBQ20021111123009411/11/02 12:30:31  5-MIN KDBQ 111830Z 31008KT 10SM OVC021 03/01 A2997 1030 82 0 310/08 RMK AO2
94908KDBQ DBQ20021111123509411/11/02 12:35:31  5-MIN KDBQ 111835Z 31008KT 10SM OVC021 03/01 A2997 1030 82 0 310/08 RMK AO2
94908KDBQ DBQ20021111124009411/11/02 12:40:31  5-MIN KDBQ 111840Z 33008KT 10SM OVC021 03/00 A2997 1030 79 0 330/08 RMK AO2
94908KDBQ DBQ20021111124509411/11/02 12:45:31  5-MIN KDBQ 111845Z 32008KT 10SM OVC021 03/00 A2997 1030 79 0 320/08 RMK AO2
94908KDBQ DBQ20021111125011111/11/02 12:50:31  5-MIN KDBQ 111850Z 32009KT 10SM OVC021 03/00 A2998 1030 79 0 320/09 RMK AO2 SLP161 T00330000
94908KDBQ DBQ20021111125511411/11/02 12:55:31  5-MIN KDBQ 111855Z 31009KT 10SM OVC021 03/00 A2998 1020 79 -100 310/09 RMK AO2 SLP162 T00330000
94908KDBQ DBQ20021111130009711/11/02 13:00:31  5-MIN KDBQ 111900Z 32009KT 10SM OVC019 03/00 A2998 1020 79 -100 320/09 RMK AO2
94908KDBQ DBQ20021111130509711/11/02 13:05:31  5-MIN KDBQ 111905Z 33008KT 10SM OVC019 03/00 A2998 1020 79 -100 320/08 RMK AO2
94908KDBQ DBQ20021111131009711/11/02 13:10:31  5-MIN KDBQ 111910Z 33008KT 10SM OVC019 03/00 A2999 1020 79 -100 320/08 RMK AO2
94908KDBQ DBQ20021111131509711/11/02 13:15:31  5-MIN KDBQ 111915Z 32009KT 10SM OVC019 03/00 A2999 1010 79 -100 320/09 RMK AO2
94908KDBQ DBQ20021111132009711/11/02 13:20:31  5-MIN KDBQ 111920Z 31009KT 10SM OVC019 03/00 A2999 1010 79 -100 310/09 RMK AO2
94908KDBQ DBQ20021111132509711/11/02 13:25:31  5-MIN KDBQ 111925Z 31008KT 10SM OVC019 03/00 A2999 1010 79 -100 310/08 RMK AO2
94908KDBQ DBQ20021111133009711/11/02 13:30:31  5-MIN KDBQ 111930Z 30008KT 10SM OVC019 03/00 A3000 1010 79 -100 300/08 RMK AO2
94908KDBQ DBQ20021111133509711/11/02 13:35:31  5-MIN KDBQ 111935Z 29009KT 10SM OVC019 03/00 A3000 1000 79 -100 290/09 RMK AO2
94908KDBQ DBQ20021111134009711/11/02 13:40:31  5-MIN KDBQ 111940Z 29009KT 10SM OVC019 03/00 A3000 1000 79 -100 290/09 RMK AO2
94908KDBQ DBQ20021111134509711/11/02 13:45:31  5-MIN KDBQ 111945Z 29008KT 10SM OVC019 03/00 A3001 1000 79 -100 290/08 RMK AO2
94908KDBQ DBQ20021111135011411/11/02 13:50:31  5-MIN KDBQ 111950Z 30008KT 10SM OVC019 03/00 A3001 1000 82 -200 300/08 RMK AO2 SLP172 T00280000
94908KDBQ DBQ20021111135511311/11/02 13:55:31  5-MIN KDBQ 111955Z 28008KT 9SM OVC019 03/00 A3001 1000 82 -200 280/08 RMK AO2 SLP172 T00280000
94908KDBQ DBQ20021111140009511/11/02 14:00:31  5-MIN KDBQ 112000Z 29007KT 9SM OVC019 03/00 A3001 990 82 -200 280/07 RMK AO2
94908KDBQ DBQ20021111140509511/11/02 14:05:31  5-MIN KDBQ 112005Z 32007KT 9SM OVC019 03/00 A3001 990 82 -200 320/07 RMK AO2
94908KDBQ DBQ20021111141009611/11/02 14:10:31  5-MIN KDBQ 112010Z 32006KT 10SM OVC019 03/00 A3002 990 82 -200 320/06 RMK AO2
94908KDBQ DBQ20021111141509611/11/02 14:15:31  5-MIN KDBQ 112015Z 31005KT 10SM OVC019 03/00 A3002 990 79 -100 310/05 RMK AO2
94908KDBQ DBQ20021111142009611/11/02 14:20:31  5-MIN KDBQ 112020Z 29008KT 10SM OVC019 03/00 A3002 980 79 -100 280/08 RMK AO2
94908KDBQ DBQ20021111142509611/11/02 14:25:31  5-MIN KDBQ 112025Z 30009KT 10SM OVC019 03/00 A3003 980 82 -200 300/09 RMK AO2
94908KDBQ DBQ20021111143009611/11/02 14:30:31  5-MIN KDBQ 112030Z 29007KT 10SM OVC019 03/00 A3003 980 82 -200 290/07 RMK AO2
94908KDBQ DBQ20021111143509611/11/02 14:35:31  5-MIN KDBQ 112035Z 29008KT 10SM OVC019 03/00 A3003 980 82 -200 290/08 RMK AO2
94908KDBQ DBQ20021111144009611/11/02 14:40:31  5-MIN KDBQ 112040Z 27006KT 10SM OVC019 03/00 A3003 980 82 -200 270/06 RMK AO2
94908KDBQ DBQ20021111144509511/11/02 14:45:31  5-MIN KDBQ 112045Z 28006KT 9SM OVC019 03/00 A3003 970 82 -200 280/06 RMK AO2
94908KDBQ DBQ20021111145011911/11/02 14:50:31  5-MIN KDBQ 112050Z 30007KT 10SM OVC019 03/00 A3004 970 82 -200 300/07 RMK AO2 SLP181 T00280000 51031
94908KDBQ DBQ20021111145512011/11/02 14:55:31  5-MIN KDBQ 112055Z 31004KT 10SM OVC019 03/M01 A3004 970 79 -200 310/04 RMK AO2 SLP182 T00281006 53027
94908KDBQ DBQ20021111150009611/11/02 15:00:31  5-MIN KDBQ 112100Z 30004KT 10SM OVC019 03/00 A3004 970 82 -200 300/04 RMK AO2
94908KDBQ DBQ20021111150509711/11/02 15:05:31  5-MIN KDBQ 112105Z 30004KT 10SM OVC019 03/M01 A3004 960 79 -200 290/04 RMK AO2
94908KDBQ DBQ20021111151009611/11/02 15:10:31  5-MIN KDBQ 112110Z 30005KT 10SM OVC019 03/00 A3005 960 82 -200 300/05 RMK AO2
94908KDBQ DBQ20021111151509611/11/02 15:15:31  5-MIN KDBQ 112115Z 32005KT 10SM OVC019 03/00 A3005 960 82 -200 320/05 RMK AO2
94908KDBQ DBQ20021111152009611/11/02 15:20:31  5-MIN KDBQ 112120Z 32006KT 10SM OVC019 03/00 A3005 960 82 -200 320/06 RMK AO2
94908KDBQ DBQ20021111152509611/11/02 15:25:31  5-MIN KDBQ 112125Z 32006KT 10SM OVC019 03/00 A3006 950 82 -200 320/06 RMK AO2
94908KDBQ DBQ20021111153009511/11/02 15:30:31  5-MIN KDBQ 112130Z 29006KT 9SM OVC019 03/00 A3006 950 82 -200 290/06 RMK AO2
94908KDBQ DBQ20021111153510211/11/02 15:35:31  5-MIN KDBQ 112135Z 29005KT 8SM BKN019 OVC023 03/01 A3006 950 85 -200 290/05 RMK AO2
94908KDBQ DBQ20021111154010211/11/02 15:40:31  5-MIN KDBQ 112140Z 30007KT 8SM BKN019 OVC023 03/01 A3007 940 85 -200 290/07 RMK AO2
94908KDBQ DBQ20021111154510211/11/02 15:45:31  5-MIN KDBQ 112145Z 31006KT 9SM SCT019 OVC023 03/01 A3007 940 85 -200 300/06 RMK AO2
94908KDBQ DBQ20021111155011911/11/02 15:50:31  5-MIN KDBQ 112150Z 32006KT 9SM SCT018 OVC023 03/01 A3007 940 85 -200 320/06 RMK AO2 SLP193 T00280006
94908KDBQ DBQ20021111155511911/11/02 15:55:31  5-MIN KDBQ 112155Z 33007KT 9SM FEW018 OVC023 03/01 A3007 940 85 -200 330/07 RMK AO2 SLP193 T00280006
94908KDBQ DBQ20021111160009511/11/02 16:00:31  5-MIN KDBQ 112200Z 32005KT 9SM OVC023 03/01 A3007 940 85 -200 320/05 RMK AO2
94908KDBQ DBQ20021111160509511/11/02 16:05:31  5-MIN KDBQ 112205Z 34004KT 9SM OVC023 03/01 A3007 940 85 -200 340/04 RMK AO2
94908KDBQ DBQ20021111161009511/11/02 16:10:31  5-MIN KDBQ 112210Z 35004KT 9SM OVC021 03/01 A3007 940 85 -200 350/04 RMK AO2
94908KDBQ DBQ20021111161510211/11/02 16:15:31  5-MIN KDBQ 112215Z 33004KT 8SM SCT015 OVC021 03/01 A3007 940 85 -200 330/04 RMK AO2
94908KDBQ DBQ20021111162010211/11/02 16:20:31  5-MIN KDBQ 112220Z 32004KT 8SM SCT015 OVC021 03/01 A3007 940 85 -200 320/04 RMK AO2
94908KDBQ DBQ20021111162510211/11/02 16:25:31  5-MIN KDBQ 112225Z 34003KT 8SM SCT015 OVC021 03/01 A3008 930 85 -200 330/03 RMK AO2
94908KDBQ DBQ20021111163010211/11/02 16:30:31  5-MIN KDBQ 112230Z 00000KT 9SM SCT015 OVC021 03/01 A3008 930 85 -200 000/00 RMK AO2
94908KDBQ DBQ20021111163510211/11/02 16:35:31  5-MIN KDBQ 112235Z 33004KT 9SM SCT015 OVC021 02/01 A3008 930 92 -300 330/04 RMK AO2
94908KDBQ DBQ20021111164010211/11/02 16:40:31  5-MIN KDBQ 112240Z 31005KT 9SM FEW015 OVC021 03/01 A3009 930 85 -200 310/05 RMK AO2
94908KDBQ DBQ20021111164510311/11/02 16:45:31  5-MIN KDBQ 112245Z 32004KT 10SM FEW015 OVC021 02/01 A3009 920 89 -300 320/04 RMK AO2
94908KDBQ DBQ20021111165012011/11/02 16:50:31  5-MIN KDBQ 112250Z 32004KT 10SM FEW015 OVC021 02/01 A3009 920 89 -300 320/04 RMK AO2 SLP200 T00220006
94908KDBQ DBQ20021111165512011/11/02 16:55:31  5-MIN KDBQ 112255Z 32003KT 10SM FEW015 OVC023 02/01 A3009 920 89 -300 320/03 RMK AO2 SLP200 T00220006
94908KDBQ DBQ20021111170009611/11/02 17:00:31  5-MIN KDBQ 112300Z 32005KT 10SM OVC023 02/00 A3009 920 85 -300 320/05 RMK AO2
94908KDBQ DBQ20021111170509611/11/02 17:05:31  5-MIN KDBQ 112305Z 32006KT 10SM OVC023 02/00 A3009 920 85 -300 320/06 RMK AO2
94908KDBQ DBQ20021111171009611/11/02 17:10:31  5-MIN KDBQ 112310Z 32005KT 10SM OVC023 02/00 A3009 920 85 -300 320/05 RMK AO2
94908KDBQ DBQ20021111171509611/11/02 17:15:31  5-MIN KDBQ 112315Z 31006KT 10SM OVC023 02/00 A3010 920 85 -300 310/06 RMK AO2
94908KDBQ DBQ20021111172009611/11/02 17:20:31  5-MIN KDBQ 112320Z 32007KT 10SM OVC023 02/00 A3010 920 85 -300 320/07 RMK AO2
94908KDBQ DBQ20021111172509611/11/02 17:25:31  5-MIN KDBQ 112325Z 32007KT 10SM OVC025 02/00 A3010 910 85 -300 320/07 RMK AO2
94908KDBQ DBQ20021111173009711/11/02 17:30:31  5-MIN KDBQ 112330Z 33008KT 10SM OVC025 02/M01 A3010 910 82 -300 330/08 RMK AO2
94908KDBQ DBQ20021111173509711/11/02 17:35:31  5-MIN KDBQ 112335Z 34007KT 10SM OVC027 02/M01 A3010 910 82 -300 340/07 RMK AO2
94908KDBQ DBQ20021111174009711/11/02 17:40:31  5-MIN KDBQ 112340Z 34007KT 10SM OVC027 02/M01 A3010 910 82 -300 330/07 RMK AO2
94908KDBQ DBQ20021111174509711/11/02 17:45:31  5-MIN KDBQ 112345Z 33005KT 10SM OVC027 02/M01 A3011 910 82 -300 330/05 RMK AO2
94908KDBQ DBQ20021111175013211/11/02 17:50:31  5-MIN KDBQ 112350Z 32005KT 10SM OVC027 02/M01 A3011 900 82 -300 320/05 RMK AO2 SLP206 T00221006 10039 20022 53027
94908KDBQ DBQ20021111175513211/11/02 17:55:31  5-MIN KDBQ 112355Z 31004KT 10SM OVC027 02/M01 A3011 900 82 -300 310/04 RMK AO2 SLP207 T00221006 10039 20022 51024
94908KDBQ DBQ20021111180010411/11/02 18:00:31  5-MIN KDBQ 120000Z 30004KT 10SM BKN023 OVC028 02/M01 A3011 900 82 -300 300/04 RMK AO2
94908KDBQ DBQ20021111180509711/11/02 18:05:31  5-MIN KDBQ 120005Z 29005KT 10SM OVC023 02/M01 A3011 900 82 -300 290/05 RMK AO2
94908KDBQ DBQ20021111181009711/11/02 18:10:31  5-MIN KDBQ 120010Z 30006KT 10SM OVC023 02/M01 A3012 900 82 -300 290/06 RMK AO2
94908KDBQ DBQ20021111181509711/11/02 18:15:31  5-MIN KDBQ 120015Z 30006KT 10SM OVC023 02/M01 A3012 900 82 -300 300/06 RMK AO2
94908KDBQ DBQ20021111182009711/11/02 18:20:31  5-MIN KDBQ 120020Z 31005KT 10SM OVC023 02/M01 A3012 890 82 -400 310/05 RMK AO2
94908KDBQ DBQ20021111182509711/11/02 18:25:31  5-MIN KDBQ 120025Z 30005KT 10SM OVC023 02/M01 A3012 890 82 -400 300/05 RMK AO2
94908KDBQ DBQ20021111183009711/11/02 18:30:31  5-MIN KDBQ 120030Z 30006KT 10SM OVC023 02/M01 A3012 890 82 -400 300/06 RMK AO2
94908KDBQ DBQ20021111183509711/11/02 18:35:31  5-MIN KDBQ 120035Z 30005KT 10SM OVC023 02/M01 A3013 890 82 -400 300/05 RMK AO2
94908KDBQ DBQ20021111184009711/11/02 18:40:31  5-MIN KDBQ 120040Z 31007KT 10SM OVC023 02/M01 A3013 890 82 -400 310/07 RMK AO2
94908KDBQ DBQ20021111184509711/11/02 18:45:31  5-MIN KDBQ 120045Z 29007KT 10SM OVC023 02/M01 A3013 890 78 -400 290/07 RMK AO2
94908KDBQ DBQ20021111185011411/11/02 18:50:31  5-MIN KDBQ 120050Z 29008KT 10SM OVC023 02/M01 A3013 880 78 -400 290/08 RMK AO2 SLP213 T00221011
94908KDBQ DBQ20021111185511411/11/02 18:55:31  5-MIN KDBQ 120055Z 29007KT 10SM OVC021 02/M02 A3013 880 75 -400 290/07 RMK AO2 SLP214 T00221017
94908KDBQ DBQ20021111190009711/11/02 19:00:31  5-MIN KDBQ 120100Z 27006KT 10SM OVC021 02/M01 A3013 880 78 -400 270/06 RMK AO2
94908KDBQ DBQ20021111190509711/11/02 19:05:31  5-MIN KDBQ 120105Z 27008KT 10SM OVC021 02/M01 A3014 880 78 -400 270/08 RMK AO2
94908KDBQ DBQ20021111191009711/11/02 19:10:31  5-MIN KDBQ 120110Z 26008KT 10SM OVC021 02/M02 A3014 880 75 -400 260/08 RMK AO2
94908KDBQ DBQ20021111191509711/11/02 19:15:31  5-MIN KDBQ 120115Z 28008KT 10SM OVC021 02/M02 A3014 870 75 -400 280/08 RMK AO2
94908KDBQ DBQ20021111192009711/11/02 19:20:31  5-MIN KDBQ 120120Z 29006KT 10SM OVC021 02/M02 A3014 870 75 -400 290/06 RMK AO2
94908KDBQ DBQ20021111192509711/11/02 19:25:31  5-MIN KDBQ 120125Z 29005KT 10SM OVC021 02/M01 A3014 870 78 -400 290/05 RMK AO2
94908KDBQ DBQ20021111193009711/11/02 19:30:31  5-MIN KDBQ 120130Z 30005KT 10SM OVC021 02/M01 A3014 870 78 -400 300/05 RMK AO2
94908KDBQ DBQ20021111193509711/11/02 19:35:31  5-MIN KDBQ 120135Z 29006KT 10SM OVC021 02/M01 A3014 870 78 -400 290/06 RMK AO2
94908KDBQ DBQ20021111194009711/11/02 19:40:31  5-MIN KDBQ 120140Z 30004KT 10SM OVC021 02/M01 A3014 870 82 -400 300/04 RMK AO2
94908KDBQ DBQ20021111194509711/11/02 19:45:31  5-MIN KDBQ 120145Z 30007KT 10SM OVC021 02/M02 A3015 870 75 -400 300/07 RMK AO2
94908KDBQ DBQ20021111195011411/11/02 19:50:31  5-MIN KDBQ 120150Z 29005KT 10SM OVC021 02/M02 A3015 870 75 -400 290/05 RMK AO2 SLP220 T00221017
94908KDBQ DBQ20021111195511411/11/02 19:55:31  5-MIN KDBQ 120155Z 29006KT 10SM OVC021 02/M02 A3015 870 75 -400 290/06 RMK AO2 SLP220 T00221017
94908KDBQ DBQ20021111200010711/11/02 20:00:31  5-MIN KDBQ 120200Z AUTO 30006KT 10SM OVC021 02/M02 A3015 860 75 -400 300/06 RMK AO2 TSNO
94908KDBQ DBQ20021111200510711/11/02 20:05:31  5-MIN KDBQ 120205Z AUTO 30006KT 10SM OVC021 02/M02 A3015 860 72 -400 300/06 RMK AO2 TSNO
94908KDBQ DBQ20021111201010711/11/02 20:10:31  5-MIN KDBQ 120210Z AUTO 29006KT 10SM OVC021 02/M02 A3015 860 78 -500 290/06 RMK AO2 TSNO
94908KDBQ DBQ20021111201510711/11/02 20:15:31  5-MIN KDBQ 120215Z AUTO 27006KT 10SM OVC021 02/M02 A3016 860 78 -500 270/06 RMK AO2 TSNO
94908KDBQ DBQ20021111202010711/11/02 20:20:31  5-MIN KDBQ 120220Z AUTO 29006KT 10SM OVC021 02/M02 A3016 860 78 -500 290/06 RMK AO2 TSNO
94908KDBQ DBQ20021111202510711/11/02 20:25:31  5-MIN KDBQ 120225Z AUTO 28006KT 10SM OVC021 02/M02 A3016 860 78 -500 280/06 RMK AO2 TSNO
94908KDBQ DBQ20021111203010711/11/02 20:30:31  5-MIN KDBQ 120230Z AUTO 27007KT 10SM OVC021 02/M01 A3016 860 82 -500 270/07 RMK AO2 TSNO
94908KDBQ DBQ20021111203510711/11/02 20:35:31  5-MIN KDBQ 120235Z AUTO 29006KT 10SM OVC021 02/M01 A3016 860 82 -500 280/06 RMK AO2 TSNO
94908KDBQ DBQ20021111204010711/11/02 20:40:31  5-MIN KDBQ 120240Z AUTO 27005KT 10SM OVC021 02/M01 A3016 860 82 -500 270/05 RMK AO2 TSNO
94908KDBQ DBQ20021111204510711/11/02 20:45:31  5-MIN KDBQ 120245Z AUTO 27008KT 10SM OVC021 02/M01 A3016 850 82 -500 270/08 RMK AO2 TSNO
94908KDBQ DBQ20021111205013011/11/02 20:50:31  5-MIN KDBQ 120250Z AUTO 28008KT 10SM OVC021 02/M01 A3017 850 82 -500 280/08 RMK AO2 SLP225 T00171011 51024 TSNO
94908KDBQ DBQ20021111205513011/11/02 20:55:31  5-MIN KDBQ 120255Z AUTO 27008KT 10SM OVC021 02/M01 A3017 850 82 -500 270/08 RMK AO2 SLP225 T00171011 51018 TSNO
94908KDBQ DBQ20021111210010711/11/02 21:00:31  5-MIN KDBQ 120300Z AUTO 27006KT 10SM OVC021 02/M01 A3017 850 82 -500 270/06 RMK AO2 TSNO
94908KDBQ DBQ20021111210510711/11/02 21:05:31  5-MIN KDBQ 120305Z AUTO 26007KT 10SM OVC021 02/M01 A3017 850 82 -500 260/07 RMK AO2 TSNO
94908KDBQ DBQ20021111211010711/11/02 21:10:31  5-MIN KDBQ 120310Z AUTO 28006KT 10SM OVC021 02/M01 A3017 850 82 -500 270/06 RMK AO2 TSNO
94908KDBQ DBQ20021111211510711/11/02 21:15:31  5-MIN KDBQ 120315Z AUTO 28006KT 10SM OVC021 02/M01 A3017 850 82 -500 280/06 RMK AO2 TSNO
94908KDBQ DBQ20021111212010711/11/02 21:20:31  5-MIN KDBQ 120320Z AUTO 27006KT 10SM OVC021 02/M01 A3017 840 82 -500 270/06 RMK AO2 TSNO
94908KDBQ DBQ20021111212510711/11/02 21:25:31  5-MIN KDBQ 120325Z AUTO 28005KT 10SM OVC021 01/M02 A3017 850 82 -600 280/05 RMK AO2 TSNO
94908KDBQ DBQ20021111213010711/11/02 21:30:31  5-MIN KDBQ 120330Z AUTO 28007KT 10SM OVC021 01/M02 A3017 850 82 -600 280/07 RMK AO2 TSNO
94908KDBQ DBQ20021111213510711/11/02 21:35:31  5-MIN KDBQ 120335Z AUTO 28006KT 10SM OVC021 01/M02 A3017 840 82 -600 280/06 RMK AO2 TSNO
94908KDBQ DBQ20021111214010711/11/02 21:40:31  5-MIN KDBQ 120340Z AUTO 27007KT 10SM OVC021 01/M02 A3017 840 82 -600 270/07 RMK AO2 TSNO
94908KDBQ DBQ20021111214510711/11/02 21:45:31  5-MIN KDBQ 120345Z AUTO 27007KT 10SM OVC021 01/M02 A3018 840 78 -600 270/07 RMK AO2 TSNO
94908KDBQ DBQ20021111215012411/11/02 21:50:31  5-MIN KDBQ 120350Z AUTO 28008KT 10SM OVC021 01/M02 A3018 840 82 -600 280/08 RMK AO2 SLP229 T00111017 TSNO
94908KDBQ DBQ20021111215512411/11/02 21:55:31  5-MIN KDBQ 120355Z AUTO 28006KT 10SM OVC021 01/M02 A3018 840 78 -600 280/06 RMK AO2 SLP229 T00111022 TSNO
94908KDBQ DBQ20021111220010711/11/02 22:00:31  5-MIN KDBQ 120400Z AUTO 30008KT 10SM OVC021 01/M02 A3018 840 78 -600 300/08 RMK AO2 TSNO
94908KDBQ DBQ20021111220510711/11/02 22:05:31  5-MIN KDBQ 120405Z AUTO 29007KT 10SM OVC021 01/M02 A3018 840 78 -600 290/07 RMK AO2 TSNO
94908KDBQ DBQ20021111221010711/11/02 22:10:31  5-MIN KDBQ 120410Z AUTO 28006KT 10SM OVC019 01/M02 A3018 840 78 -600 280/06 RMK AO2 TSNO
94908KDBQ DBQ20021111221510711/11/02 22:15:31  5-MIN KDBQ 120415Z AUTO 28006KT 10SM OVC019 01/M02 A3018 840 78 -600 270/06 RMK AO2 TSNO
94908KDBQ DBQ20021111222010711/11/02 22:20:31  5-MIN KDBQ 120420Z AUTO 29006KT 10SM OVC019 01/M02 A3018 840 78 -600 290/06 RMK AO2 TSNO
94908KDBQ DBQ20021111222510711/11/02 22:25:31  5-MIN KDBQ 120425Z AUTO 27005KT 10SM OVC019 01/M02 A3018 840 78 -600 270/05 RMK AO2 TSNO
94908KDBQ DBQ20021111223010711/11/02 22:30:31  5-MIN KDBQ 120430Z AUTO 27006KT 10SM OVC019 01/M02 A3018 840 82 -600 270/06 RMK AO2 TSNO
94908KDBQ DBQ20021111223510711/11/02 22:35:31  5-MIN KDBQ 120435Z AUTO 27007KT 10SM OVC019 01/M02 A3018 840 82 -600 270/07 RMK AO2 TSNO
94908KDBQ DBQ20021111224010711/11/02 22:40:31  5-MIN KDBQ 120440Z AUTO 28005KT 10SM OVC019 01/M03 A3018 840 75 -600 280/05 RMK AO2 TSNO
94908KDBQ DBQ20021111224510711/11/02 22:45:31  5-MIN KDBQ 120445Z AUTO 28006KT 10SM OVC019 01/M03 A3018 830 75 -600 280/06 RMK AO2 TSNO
94908KDBQ DBQ20021111225012411/11/02 22:50:31  5-MIN KDBQ 120450Z AUTO 28006KT 10SM OVC019 01/M03 A3019 830 78 -600 280/06 RMK AO2 SLP232 T00061028 TSNO
94908KDBQ DBQ20021111225512411/11/02 22:55:31  5-MIN KDBQ 120455Z AUTO 26008KT 10SM OVC019 01/M03 A3019 830 78 -600 260/08 RMK AO2 SLP233 T00061028 TSNO
94908KDBQ DBQ20021111230010711/11/02 23:00:31  5-MIN KDBQ 120500Z AUTO 27008KT 10SM OVC019 01/M03 A3019 830 78 -600 270/08 RMK AO2 TSNO
94908KDBQ DBQ20021111230510711/11/02 23:05:31  5-MIN KDBQ 120505Z AUTO 26008KT 10SM OVC019 01/M03 A3019 830 78 -600 260/08 RMK AO2 TSNO
94908KDBQ DBQ20021111231010711/11/02 23:10:31  5-MIN KDBQ 120510Z AUTO 27008KT 10SM OVC019 01/M03 A3019 830 78 -600 270/08 RMK AO2 TSNO
94908KDBQ DBQ20021111231510711/11/02 23:15:31  5-MIN KDBQ 120515Z AUTO 29007KT 10SM OVC019 01/M03 A3019 830 75 -600 290/07 RMK AO2 TSNO
94908KDBQ DBQ20021111232010711/11/02 23:20:31  5-MIN KDBQ 120520Z AUTO 29008KT 10SM OVC019 01/M03 A3019 830 78 -600 280/08 RMK AO2 TSNO
94908KDBQ DBQ20021111232510711/11/02 23:25:31  5-MIN KDBQ 120525Z AUTO 29009KT 10SM OVC019 01/M03 A3019 830 78 -600 290/09 RMK AO2 TSNO
94908KDBQ DBQ20021111233010711/11/02 23:30:31  5-MIN KDBQ 120530Z AUTO 28008KT 10SM OVC019 01/M03 A3019 830 78 -600 280/08 RMK AO2 TSNO
94908KDBQ DBQ20021111233510711/11/02 23:35:31  5-MIN KDBQ 120535Z AUTO 28007KT 10SM OVC019 01/M03 A3019 830 78 -600 280/07 RMK AO2 TSNO
94908KDBQ DBQ20021111234010711/11/02 23:40:31  5-MIN KDBQ 120540Z AUTO 29007KT 10SM OVC019 01/M03 A3020 820 78 -600 290/07 RMK AO2 TSNO
94908KDBQ DBQ20021111234510711/11/02 23:45:31  5-MIN KDBQ 120545Z AUTO 28007KT 10SM OVC019 01/M03 A3020 820 78 -600 280/07 RMK AO2 TSNO
94908KDBQ DBQ20021111235015211/11/02 23:50:31  5-MIN KDBQ 120550Z AUTO 28007KT 10SM OVC019 01/M03 A3020 820 75 -600 280/07 RMK AO2 SLP236 T00061033 10022 20006 400390006 51018 TSNO
94908KDBQ DBQ20021111235515211/11/02 23:55:31  5-MIN KDBQ 120555Z AUTO 28006KT 10SM OVC019 00/M03 A3020 820 78 -700 280/06 RMK AO2 SLP235 T00001033 10022 20000 400390000 51010 TSNO
94908KDBQ DBQ20021112000010711/12/02 00:00:31  5-MIN KDBQ 120600Z AUTO 29008KT 10SM OVC019 00/M03 A3020 820 81 -700 290/08 RMK AO2 TSNO
94908KDBQ DBQ20021112000510711/12/02 00:05:31  5-MIN KDBQ 120605Z AUTO 30005KT 10SM OVC019 00/M03 A3020 820 78 -700 300/05 RMK AO2 TSNO
94908KDBQ DBQ20021112001010711/12/02 00:10:31  5-MIN KDBQ 120610Z AUTO 26005KT 10SM OVC019 00/M03 A3020 820 78 -700 260/05 RMK AO2 TSNO
94908KDBQ DBQ20021112001510711/12/02 00:15:31  5-MIN KDBQ 120615Z AUTO 28005KT 10SM OVC019 00/M03 A3020 820 78 -700 280/05 RMK AO2 TSNO
94908KDBQ DBQ20021112002010711/12/02 00:20:31  5-MIN KDBQ 120620Z AUTO 27004KT 10SM OVC019 00/M03 A3020 820 78 -700 270/04 RMK AO2 TSNO
94908KDBQ DBQ20021112002510711/12/02 00:25:31  5-MIN KDBQ 120625Z AUTO 27005KT 10SM OVC019 00/M03 A3019 830 78 -700 270/05 RMK AO2 TSNO
94908KDBQ DBQ20021112003010711/12/02 00:30:31  5-MIN KDBQ 120630Z AUTO 27006KT 10SM OVC017 00/M03 A3020 820 81 -700 260/06 RMK AO2 TSNO
94908KDBQ DBQ20021112003510711/12/02 00:35:31  5-MIN KDBQ 120635Z AUTO 27007KT 10SM OVC017 00/M03 A3020 820 78 -700 270/07 RMK AO2 TSNO
94908KDBQ DBQ20021112004010611/12/02 00:40:31  5-MIN KDBQ 120640Z AUTO 28006KT 9SM OVC017 00/M03 A3020 820 81 -700 280/06 RMK AO2 TSNO
94908KDBQ DBQ20021112004510611/12/02 00:45:31  5-MIN KDBQ 120645Z AUTO 28008KT 9SM OVC017 00/M03 A3020 820 78 -700 280/08 RMK AO2 TSNO
94908KDBQ DBQ20021112005012311/12/02 00:50:31  5-MIN KDBQ 120650Z AUTO 28004KT 9SM OVC017 00/M03 A3020 820 78 -700 280/04 RMK AO2 SLP237 T00001033 TSNO
94908KDBQ DBQ20021112005512311/12/02 00:55:31  5-MIN KDBQ 120655Z AUTO 26004KT 9SM OVC017 00/M03 A3020 820 78 -700 260/04 RMK AO2 SLP237 T00001033 TSNO
94908KDBQ DBQ20021112010010611/12/02 01:00:31  5-MIN KDBQ 120700Z AUTO 28008KT 9SM OVC017 00/M03 A3020 820 78 -700 270/08 RMK AO2 TSNO
94908KDBQ DBQ20021112010510611/12/02 01:05:31  5-MIN KDBQ 120705Z AUTO 31004KT 9SM OVC017 00/M03 A3020 820 78 -700 300/04 RMK AO2 TSNO
94908KDBQ DBQ20021112011010611/12/02 01:10:31  5-MIN KDBQ 120710Z AUTO 27003KT 9SM OVC017 00/M03 A3020 820 78 -700 270/03 RMK AO2 TSNO
94908KDBQ DBQ20021112011510611/12/02 01:15:31  5-MIN KDBQ 120715Z AUTO 28007KT 9SM OVC017 00/M03 A3020 820 78 -700 270/07 RMK AO2 TSNO
94908KDBQ DBQ20021112012010611/12/02 01:20:31  5-MIN KDBQ 120720Z AUTO 28005KT 9SM OVC017 00/M03 A3020 820 78 -700 280/05 RMK AO2 TSNO
94908KDBQ DBQ20021112012510611/12/02 01:25:31  5-MIN KDBQ 120725Z AUTO 28007KT 9SM OVC017 00/M03 A3020 820 78 -700 270/07 RMK AO2 TSNO
94908KDBQ DBQ20021112013010611/12/02 01:30:31  5-MIN KDBQ 120730Z AUTO 30006KT 9SM OVC017 00/M03 A3020 820 78 -700 300/06 RMK AO2 TSNO
94908KDBQ DBQ20021112013510611/12/02 01:35:31  5-MIN KDBQ 120735Z AUTO 30005KT 9SM OVC017 00/M03 A3020 820 78 -700 300/05 RMK AO2 TSNO
94908KDBQ DBQ20021112014010611/12/02 01:40:31  5-MIN KDBQ 120740Z AUTO 29006KT 9SM OVC017 00/M03 A3020 820 78 -700 290/06 RMK AO2 TSNO
94908KDBQ DBQ20021112014510611/12/02 01:45:31  5-MIN KDBQ 120745Z AUTO 28006KT 9SM OVC017 00/M03 A3021 820 78 -700 270/06 RMK AO2 TSNO
94908KDBQ DBQ20021112015012311/12/02 01:50:31  5-MIN KDBQ 120750Z AUTO 27007KT 9SM OVC017 00/M03 A3021 820 78 -700 270/07 RMK AO2 SLP240 T00001033 TSNO
94908KDBQ DBQ20021112015512311/12/02 01:55:31  5-MIN KDBQ 120755Z AUTO 29005KT 9SM OVC017 00/M03 A3021 810 78 -700 290/05 RMK AO2 SLP241 T00001033 TSNO
94908KDBQ DBQ20021112020010611/12/02 02:00:31  5-MIN KDBQ 120800Z AUTO VRB06KT 8SM OVC017 00/M03 A3021 810 78 -700 VRB/06 RMK AO2 TSNO
94908KDBQ DBQ20021112020510611/12/02 02:05:31  5-MIN KDBQ 120805Z AUTO 32009KT 8SM OVC017 00/M03 A3021 810 78 -700 320/09 RMK AO2 TSNO
94908KDBQ DBQ20021112021010611/12/02 02:10:31  5-MIN KDBQ 120810Z AUTO 33005KT 8SM OVC017 00/M04 A3021 810 75 -700 330/05 RMK AO2 TSNO
94908KDBQ DBQ20021112021510611/12/02 02:15:31  5-MIN KDBQ 120815Z AUTO 31006KT 8SM OVC017 00/M03 A3021 810 78 -700 310/06 RMK AO2 TSNO
94908KDBQ DBQ20021112022010611/12/02 02:20:31  5-MIN KDBQ 120820Z AUTO 30005KT 8SM OVC017 00/M03 A3021 810 78 -700 300/05 RMK AO2 TSNO
94908KDBQ DBQ20021112022510611/12/02 02:25:31  5-MIN KDBQ 120825Z AUTO 29008KT 8SM OVC017 00/M03 A3022 810 78 -700 290/08 RMK AO2 TSNO
94908KDBQ DBQ20021112023010611/12/02 02:30:31  5-MIN KDBQ 120830Z AUTO 00000KT 8SM OVC017 00/M03 A3022 800 78 -700 000/00 RMK AO2 TSNO
94908KDBQ DBQ20021112023510611/12/02 02:35:31  5-MIN KDBQ 120835Z AUTO 28004KT 8SM OVC017 00/M03 A3022 810 78 -700 280/04 RMK AO2 TSNO
94908KDBQ DBQ20021112024010611/12/02 02:40:31  5-MIN KDBQ 120840Z AUTO 29006KT 8SM OVC017 00/M03 A3022 810 78 -700 290/06 RMK AO2 TSNO
94908KDBQ DBQ20021112024510611/12/02 02:45:31  5-MIN KDBQ 120845Z AUTO 28006KT 8SM OVC017 00/M03 A3022 800 78 -700 280/06 RMK AO2 TSNO
94908KDBQ DBQ20021112025012911/12/02 02:50:31  5-MIN KDBQ 120850Z AUTO 27006KT 8SM OVC017 00/M04 A3022 800 75 -700 270/06 RMK AO2 SLP244 T00001039 51010 TSNO
94908KDBQ DBQ20021112025512911/12/02 02:55:31  5-MIN KDBQ 120855Z AUTO 28003KT 8SM OVC017 00/M04 A3022 800 75 -700 280/03 RMK AO2 SLP244 T00001039 53007 TSNO
94908KDBQ DBQ20021112030010611/12/02 03:00:31  5-MIN KDBQ 120900Z AUTO 28005KT 8SM OVC019 00/M04 A3022 800 75 -700 280/05 RMK AO2 TSNO
94908KDBQ DBQ20021112030510611/12/02 03:05:31  5-MIN KDBQ 120905Z AUTO 29004KT 8SM OVC019 00/M04 A3022 800 75 -700 290/04 RMK AO2 TSNO
94908KDBQ DBQ20021112031010611/12/02 03:10:31  5-MIN KDBQ 120910Z AUTO 33004KT 8SM OVC019 00/M04 A3022 800 75 -700 330/04 RMK AO2 TSNO
94908KDBQ DBQ20021112031510611/12/02 03:15:31  5-MIN KDBQ 120915Z AUTO 33004KT 8SM OVC019 00/M04 A3022 800 75 -700 330/04 RMK AO2 TSNO
94908KDBQ DBQ20021112032010611/12/02 03:20:31  5-MIN KDBQ 120920Z AUTO 34003KT 8SM OVC019 00/M04 A3022 800 75 -700 340/03 RMK AO2 TSNO
94908KDBQ DBQ20021112032510611/12/02 03:25:31  5-MIN KDBQ 120925Z AUTO 32003KT 8SM OVC019 00/M03 A3022 800 78 -700 320/03 RMK AO2 TSNO
94908KDBQ DBQ20021112033010611/12/02 03:30:31  5-MIN KDBQ 120930Z AUTO 31003KT 8SM OVC019 00/M03 A3022 800 78 -700 310/03 RMK AO2 TSNO
94908KDBQ DBQ20021112033510611/12/02 03:35:31  5-MIN KDBQ 120935Z AUTO 29003KT 8SM OVC019 00/M04 A3022 800 75 -700 290/03 RMK AO2 TSNO
94908KDBQ DBQ20021112034010611/12/02 03:40:31  5-MIN KDBQ 120940Z AUTO 00000KT 8SM OVC019 00/M03 A3022 800 78 -700 000/00 RMK AO2 TSNO
94908KDBQ DBQ20021112034510611/12/02 03:45:31  5-MIN KDBQ 120945Z AUTO 00000KT 8SM OVC019 00/M03 A3023 800 78 -800 000/00 RMK AO2 TSNO
94908KDBQ DBQ20021112035012311/12/02 03:50:31  5-MIN KDBQ 120950Z AUTO 00000KT 8SM OVC019 00/M04 A3022 800 75 -700 000/00 RMK AO2 SLP246 T00001039 TSNO
94908KDBQ DBQ20021112035512311/12/02 03:55:31  5-MIN KDBQ 120955Z AUTO 00000KT 8SM OVC019 00/M04 A3022 800 75 -700 000/00 RMK AO2 SLP246 T00001039 TSNO
94908KDBQ DBQ20021112040010611/12/02 04:00:31  5-MIN KDBQ 121000Z AUTO 25005KT 8SM OVC019 00/M03 A3022 800 78 -700 250/05 RMK AO2 TSNO
94908KDBQ DBQ20021112040510611/12/02 04:05:31  5-MIN KDBQ 121005Z AUTO 25006KT 8SM OVC019 00/M03 A3023 800 78 -800 250/06 RMK AO2 TSNO
94908KDBQ DBQ20021112041010611/12/02 04:10:31  5-MIN KDBQ 121010Z AUTO 26005KT 8SM OVC019 00/M03 A3023 800 78 -800 260/05 RMK AO2 TSNO
94908KDBQ DBQ20021112041510611/12/02 04:15:31  5-MIN KDBQ 121015Z AUTO 25006KT 8SM OVC019 00/M03 A3023 800 81 -800 250/06 RMK AO2 TSNO
94908KDBQ DBQ20021112042010611/12/02 04:20:31  5-MIN KDBQ 121020Z AUTO 25006KT 8SM OVC019 00/M03 A3023 800 78 -800 250/06 RMK AO2 TSNO
94908KDBQ DBQ20021112042510611/12/02 04:25:31  5-MIN KDBQ 121025Z AUTO 25006KT 8SM OVC019 00/M03 A3023 790 78 -800 250/06 RMK AO2 TSNO
94908KDBQ DBQ20021112043010611/12/02 04:30:31  5-MIN KDBQ 121030Z AUTO 26007KT 8SM OVC019 00/M03 A3023 790 78 -800 260/07 RMK AO2 TSNO
94908KDBQ DBQ20021112043510611/12/02 04:35:31  5-MIN KDBQ 121035Z AUTO 26007KT 8SM OVC019 00/M03 A3023 790 78 -800 260/07 RMK AO2 TSNO
94908KDBQ DBQ20021112044010611/12/02 04:40:31  5-MIN KDBQ 121040Z AUTO 27007KT 8SM OVC019 00/M04 A3023 790 75 -800 270/07 RMK AO2 TSNO
94908KDBQ DBQ20021112044510611/12/02 04:45:31  5-MIN KDBQ 121045Z AUTO 27008KT 8SM OVC021 00/M04 A3023 790 75 -800 270/08 RMK AO2 TSNO
94908KDBQ DBQ20021112045012411/12/02 04:50:31  5-MIN KDBQ 121050Z AUTO 27007KT 9SM OVC021 M01/M04 A3023 790 78 -800 270/07 RMK AO2 SLP248 T10061039 TSNO
94908KDBQ DBQ20021112045512411/12/02 04:55:31  5-MIN KDBQ 121055Z AUTO 26008KT 9SM OVC021 M01/M04 A3023 790 78 -800 260/08 RMK AO2 SLP248 T10061039 TSNO
94908KDBQ DBQ20021112050010711/12/02 05:00:31  5-MIN KDBQ 121100Z AUTO 25006KT 9SM OVC021 M01/M05 A3023 790 72 -800 250/06 RMK AO2 TSNO
94908KDBQ DBQ20021112050510711/12/02 05:05:31  5-MIN KDBQ 121105Z AUTO 28004KT 9SM OVC021 M01/M04 A3023 790 75 -800 280/04 RMK AO2 TSNO
94908KDBQ DBQ20021112051010711/12/02 05:10:31  5-MIN KDBQ 121110Z AUTO 28003KT 9SM OVC021 M01/M04 A3023 790 75 -800 280/03 RMK AO2 TSNO
94908KDBQ DBQ20021112051510711/12/02 05:15:31  5-MIN KDBQ 121115Z AUTO 28004KT 9SM OVC021 M01/M04 A3023 790 75 -800 280/04 RMK AO2 TSNO
94908KDBQ DBQ20021112052010711/12/02 05:20:31  5-MIN KDBQ 121120Z AUTO 27003KT 9SM OVC021 M01/M04 A3023 790 78 -900 270/03 RMK AO2 TSNO
94908KDBQ DBQ20021112052510711/12/02 05:25:31  5-MIN KDBQ 121125Z AUTO 28004KT 9SM OVC021 M01/M04 A3023 790 78 -900 280/04 RMK AO2 TSNO
94908KDBQ DBQ20021112053010711/12/02 05:30:31  5-MIN KDBQ 121130Z AUTO 27004KT 9SM OVC021 M01/M04 A3023 790 81 -900 270/04 RMK AO2 TSNO
94908KDBQ DBQ20021112053510711/12/02 05:35:31  5-MIN KDBQ 121135Z AUTO 27004KT 9SM OVC021 M01/M04 A3023 790 81 -900 270/04 RMK AO2 TSNO
94908KDBQ DBQ20021112054010711/12/02 05:40:31  5-MIN KDBQ 121140Z AUTO 27004KT 9SM BKN021 M01/M04 A3023 790 81 -900 270/04 RMK AO2 TSNO
94908KDBQ DBQ20021112054510711/12/02 05:45:31  5-MIN KDBQ 121145Z AUTO 26005KT 9SM BKN021 M01/M04 A3023 790 81 -900 260/05 RMK AO2 TSNO
94908KDBQ DBQ20021112055014811/12/02 05:50:31  5-MIN KDBQ 121150Z AUTO 27006KT 9SM BKN021 M01/M04 A3023 790 81 -900 270/06 RMK AO2 SLP250 70001 T10111039 10000 21011 53007 TSNO
94908KDBQ DBQ20021112055514011/12/02 05:55:31  5-MIN KDBQ 121155Z 26006KT 10SM BKN021 M02/M04 A3023 790 85 -1000 260/06 RMK AO2 SLP250 70001 T10171039 10000 21017 51005
94908KDBQ DBQ20021112060009911/12/02 06:00:31  5-MIN KDBQ 121200Z 27007KT 10SM BKN021 M02/M04 A3023 790 85 -1000 270/07 RMK AO2
94908KDBQ DBQ20021112060509911/12/02 06:05:31  5-MIN KDBQ 121205Z 27008KT 10SM BKN021 M02/M04 A3023 790 81 -1000 270/08 RMK AO2
94908KDBQ DBQ20021112061009911/12/02 06:10:31  5-MIN KDBQ 121210Z 27008KT 10SM BKN021 M02/M04 A3023 790 85 -1000 270/08 RMK AO2
94908KDBQ DBQ20021112061509911/12/02 06:15:31  5-MIN KDBQ 121215Z 27007KT 10SM BKN021 M02/M04 A3024 790 85 -1000 270/07 RMK AO2
94908KDBQ DBQ20021112062009911/12/02 06:20:31  5-MIN KDBQ 121220Z 27007KT 10SM BKN021 M02/M04 A3024 790 85 -1000 270/07 RMK AO2
94908KDBQ DBQ20021112062509911/12/02 06:25:31  5-MIN KDBQ 121225Z 27008KT 10SM BKN021 M02/M04 A3024 790 85 -1000 270/08 RMK AO2
94908KDBQ DBQ20021112063009811/12/02 06:30:31  5-MIN KDBQ 121230Z 27008KT 9SM BKN021 M02/M04 A3024 790 85 -1000 270/08 RMK AO2
94908KDBQ DBQ20021112063509811/12/02 06:35:31  5-MIN KDBQ 121235Z 28008KT 9SM BKN021 M02/M04 A3024 790 85 -1000 280/08 RMK AO2
94908KDBQ DBQ20021112064009811/12/02 06:40:31  5-MIN KDBQ 121240Z 28008KT 8SM BKN021 M02/M04 A3024 790 85 -1000 280/08 RMK AO2
94908KDBQ DBQ20021112064509511/12/02 06:45:31  5-MIN KDBQ 121245Z 27007KT 8SM CLR M02/M04 A3023 790 85 -1000 270/07 RMK AO2
94908KDBQ DBQ20021112065011211/12/02 06:50:31  5-MIN KDBQ 121250Z 27008KT 8SM CLR M03/M04 A3024 790 88 -1100 270/08 RMK AO2 SLP251 T10281044
94908KDBQ DBQ20021112065511211/12/02 06:55:31  5-MIN KDBQ 121255Z 27007KT 8SM CLR M03/M04 A3024 790 88 -1100 270/07 RMK AO2 SLP251 T10281044
94908KDBQ DBQ20021112070009511/12/02 07:00:31  5-MIN KDBQ 121300Z 27006KT 7SM CLR M03/M05 A3024 790 85 -1100 270/06 RMK AO2
94908KDBQ DBQ20021112070509811/12/02 07:05:31  5-MIN KDBQ 121305Z 26005KT 6SM BR CLR M03/M05 A3024 790 85 -1100 260/05 RMK AO2
94908KDBQ DBQ20021112071009811/12/02 07:10:31  5-MIN KDBQ 121310Z 26006KT 6SM BR CLR M03/M05 A3024 790 88 -1200 260/06 RMK AO2
94908KDBQ DBQ20021112071509811/12/02 07:15:31  5-MIN KDBQ 121315Z 27006KT 6SM BR CLR M03/M05 A3023 790 85 -1100 270/06 RMK AO2
94908KDBQ DBQ20021112072009811/12/02 07:20:31  5-MIN KDBQ 121320Z 27006KT 6SM BR CLR M03/M05 A3023 790 85 -1100 270/06 RMK AO2
94908KDBQ DBQ20021112072509811/12/02 07:25:31  5-MIN KDBQ 121325Z 27006KT 6SM BR CLR M03/M05 A3024 790 85 -1100 270/06 RMK AO2
94908KDBQ DBQ20021112073009811/12/02 07:30:31  5-MIN KDBQ 121330Z 27006KT 5SM BR CLR M03/M04 A3024 790 88 -1100 270/06 RMK AO2
94908KDBQ DBQ20021112073509811/12/02 07:35:31  5-MIN KDBQ 121335Z 27005KT 5SM BR CLR M03/M04 A3024 790 88 -1100 270/05 RMK AO2
94908KDBQ DBQ20021112074009811/12/02 07:40:31  5-MIN KDBQ 121340Z 27005KT 5SM BR CLR M03/M04 A3024 790 88 -1100 270/05 RMK AO2
94908KDBQ DBQ20021112074509811/12/02 07:45:31  5-MIN KDBQ 121345Z 26006KT 5SM BR CLR M03/M04 A3024 790 88 -1100 260/06 RMK AO2
94908KDBQ DBQ20021112075011511/12/02 07:50:31  5-MIN KDBQ 121350Z 26006KT 5SM BR CLR M02/M04 A3024 790 85 -1000 260/06 RMK AO2 SLP252 T10221044
94908KDBQ DBQ20021112075511511/12/02 07:55:31  5-MIN KDBQ 121355Z 26006KT 5SM BR CLR M02/M04 A3024 790 85 -1000 260/06 RMK AO2 SLP252 T10221044
94908KDBQ DBQ20021112080009811/12/02 08:00:31  5-MIN KDBQ 121400Z 26006KT 5SM BR CLR M02/M04 A3024 790 85 -1000 250/06 RMK AO2
94908KDBQ DBQ20021112080509811/12/02 08:05:31  5-MIN KDBQ 121405Z 26006KT 5SM BR CLR M02/M04 A3024 790 85 -1000 260/06 RMK AO2
94908KDBQ DBQ20021112081009811/12/02 08:10:31  5-MIN KDBQ 121410Z 26006KT 5SM BR CLR M02/M04 A3024 790 85 -1000 260/06 RMK AO2
94908KDBQ DBQ20021112081509811/12/02 08:15:31  5-MIN KDBQ 121415Z 26007KT 6SM BR CLR M02/M04 A3024 780 85 -1000 260/07 RMK AO2
94908KDBQ DBQ20021112082009811/12/02 08:20:31  5-MIN KDBQ 121420Z 25007KT 6SM HZ CLR M02/M04 A3024 780 81 -1000 250/07 RMK AO2
94908KDBQ DBQ20021112082509511/12/02 08:25:31  5-MIN KDBQ 121425Z 25007KT 7SM CLR M02/M04 A3024 780 81 -1000 250/07 RMK AO2
94908KDBQ DBQ20021112083009511/12/02 08:30:31  5-MIN KDBQ 121430Z 26007KT 7SM CLR M02/M04 A3024 790 81 -1000 250/07 RMK AO2
94908KDBQ DBQ20021112083509511/12/02 08:35:31  5-MIN KDBQ 121435Z 25007KT 7SM CLR M02/M04 A3024 790 81 -1000 250/07 RMK AO2
94908KDBQ DBQ20021112084009511/12/02 08:40:31  5-MIN KDBQ 121440Z 25007KT 8SM CLR M02/M04 A3024 790 81 -1000 250/07 RMK AO2
94908KDBQ DBQ20021112084509411/12/02 08:45:31  5-MIN KDBQ 121445Z 26010KT 8SM CLR M01/M04 A3024 790 78 -900 260/10 RMK AO2
94908KDBQ DBQ20021112085011711/12/02 08:50:31  5-MIN KDBQ 121450Z 26010KT 8SM CLR M01/M04 A3024 790 78 -900 260/10 RMK AO2 SLP252 T10111044 51005
94908KDBQ DBQ20021112085511711/12/02 08:55:31  5-MIN KDBQ 121455Z 26010KT 8SM CLR M01/M04 A3023 790 78 -900 260/10 RMK AO2 SLP251 T10111044 50000
94908KDBQ DBQ20021112090009411/12/02 09:00:31  5-MIN KDBQ 121500Z 27008KT 8SM CLR M01/M04 A3023 790 78 -800 270/08 RMK AO2
94908KDBQ DBQ20021112090509411/12/02 09:05:31  5-MIN KDBQ 121505Z 25009KT 8SM CLR M01/M04 A3023 790 78 -800 250/09 RMK AO2
94908KDBQ DBQ20021112091009411/12/02 09:10:31  5-MIN KDBQ 121510Z 25012KT 8SM CLR M01/M04 A3023 790 75 -800 250/12 RMK AO2
94908KDBQ DBQ20021112091509411/12/02 09:15:31  5-MIN KDBQ 121515Z 26010KT 8SM CLR M01/M04 A3023 800 78 -800 260/10 RMK AO2
94908KDBQ DBQ20021112092009311/12/02 09:20:31  5-MIN KDBQ 121520Z 26009KT 8SM CLR 00/M04 A3023 800 75 -800 260/09 RMK AO2
94908KDBQ DBQ20021112092509311/12/02 09:25:31  5-MIN KDBQ 121525Z 25010KT 8SM CLR 00/M04 A3023 800 75 -800 250/10 RMK AO2
94908KDBQ DBQ20021112093009311/12/02 09:30:31  5-MIN KDBQ 121530Z 24011KT 9SM CLR 00/M04 A3023 800 75 -800 240/11 RMK AO2
94908KDBQ DBQ20021112093509311/12/02 09:35:31  5-MIN KDBQ 121535Z 24010KT 9SM CLR 00/M04 A3023 800 75 -800 240/10 RMK AO2
94908KDBQ DBQ20021112094009311/12/02 09:40:31  5-MIN KDBQ 121540Z 24011KT 9SM CLR 00/M03 A3023 800 78 -800 240/11 RMK AO2
94908KDBQ DBQ20021112094509411/12/02 09:45:31  5-MIN KDBQ 121545Z 25012KT 10SM CLR 01/M04 A3023 800 72 -700 250/12 RMK AO2
94908KDBQ DBQ20021112095011111/12/02 09:50:31  5-MIN KDBQ 121550Z 25011KT 10SM CLR 01/M04 A3022 800 72 -700 250/11 RMK AO2 SLP246 T00061039
94908KDBQ DBQ20021112095511111/12/02 09:55:31  5-MIN KDBQ 121555Z 26010KT 10SM CLR 01/M04 A3022 800 72 -700 260/10 RMK AO2 SLP246 T00061039
94908KDBQ DBQ20021112100009411/12/02 10:00:31  5-MIN KDBQ 121600Z 25009KT 10SM CLR 01/M03 A3022 800 72 -600 250/09 RMK AO2
94908KDBQ DBQ20021112100509411/12/02 10:05:31  5-MIN KDBQ 121605Z 26009KT 10SM CLR 01/M04 A3022 800 66 -600 260/09 RMK AO2
94908KDBQ DBQ20021112101009411/12/02 10:10:31  5-MIN KDBQ 121610Z 23009KT 10SM CLR 01/M04 A3022 800 66 -600 230/09 RMK AO2
94908KDBQ DBQ20021112101509411/12/02 10:15:31  5-MIN KDBQ 121615Z 24008KT 10SM CLR 02/M04 A3022 800 66 -500 240/08 RMK AO2
94908KDBQ DBQ20021112102009411/12/02 10:20:31  5-MIN KDBQ 121620Z 23009KT 10SM CLR 02/M04 A3022 800 66 -500 230/09 RMK AO2
94908KDBQ DBQ20021112102509411/12/02 10:25:31  5-MIN KDBQ 121625Z 24009KT 10SM CLR 02/M04 A3022 800 64 -500 240/09 RMK AO2
94908KDBQ DBQ20021112103009411/12/02 10:30:31  5-MIN KDBQ 121630Z 24008KT 10SM CLR 02/M04 A3022 810 64 -500 240/08 RMK AO2
94908KDBQ DBQ20021112103509411/12/02 10:35:31  5-MIN KDBQ 121635Z 24011KT 10SM CLR 02/M04 A3022 810 61 -500 240/11 RMK AO2
94908KDBQ DBQ20021112104009411/12/02 10:40:31  5-MIN KDBQ 121640Z 22012KT 10SM CLR 02/M04 A3021 810 61 -500 220/12 RMK AO2
94908KDBQ DBQ20021112104509411/12/02 10:45:31  5-MIN KDBQ 121645Z 22010KT 10SM CLR 02/M04 A3021 810 61 -500 220/10 RMK AO2
94908KDBQ DBQ20021112105011111/12/02 10:50:31  5-MIN KDBQ 121650Z 25009KT 10SM CLR 02/M04 A3021 810 61 -500 250/09 RMK AO2 SLP240 T00221044
94908KDBQ DBQ20021112105511111/12/02 10:55:31  5-MIN KDBQ 121655Z 21008KT 10SM CLR 03/M03 A3020 820 64 -400 210/08 RMK AO2 SLP238 T00281033
94908KDBQ DBQ20021112110009411/12/02 11:00:31  5-MIN KDBQ 121700Z 23010KT 10SM CLR 03/M03 A3020 820 64 -400 230/10 RMK AO2
94908KDBQ DBQ20021112110509411/12/02 11:05:31  5-MIN KDBQ 121705Z 23011KT 10SM CLR 03/M03 A3020 820 64 -400 230/11 RMK AO2
94908KDBQ DBQ20021112111009411/12/02 11:10:31  5-MIN KDBQ 121710Z 22011KT 10SM CLR 03/M04 A3019 830 59 -300 220/11 RMK AO2
94908KDBQ DBQ20021112111509411/12/02 11:15:31  5-MIN KDBQ 121715Z 24010KT 10SM CLR 03/M03 A3019 830 61 -300 240/10 RMK AO2
94908KDBQ DBQ20021112112009411/12/02 11:20:31  5-MIN KDBQ 121720Z 24011KT 10SM CLR 03/M03 A3019 830 61 -300 240/11 RMK AO2
94908KDBQ DBQ20021112112509411/12/02 11:25:31  5-MIN KDBQ 121725Z 23011KT 10SM CLR 03/M03 A3019 830 61 -300 230/11 RMK AO2
94908KDBQ DBQ20021112113009411/12/02 11:30:31  5-MIN KDBQ 121730Z 24010KT 10SM CLR 03/M03 A3018 840 64 -300 240/10 RMK AO2
94908KDBQ DBQ20021112113509411/12/02 11:35:31  5-MIN KDBQ 121735Z 24014KT 10SM CLR 04/M03 A3018 840 62 -200 230/14 RMK AO2
94908KDBQ DBQ20021112114009411/12/02 11:40:31  5-MIN KDBQ 121740Z 25011KT 10SM CLR 04/M03 A3018 840 59 -200 250/11 RMK AO2
94908KDBQ DBQ20021112114509411/12/02 11:45:31  5-MIN KDBQ 121745Z 23014KT 10SM CLR 04/M02 A3018 840 62 -100 230/14 RMK AO2
94908KDBQ DBQ20021112115012911/12/02 11:50:31  5-MIN KDBQ 121750Z 24011KT 10SM CLR 04/M03 A3018 840 59 -100 240/11 RMK AO2 SLP229 T00441028 10044 21033 50000
94908KDBQ DBQ20021112115512911/12/02 11:55:31  5-MIN KDBQ 121755Z 23012KT 10SM CLR 04/M03 A3018 840 59 -100 230/12 RMK AO2 SLP229 T00441028 10044 21033 58019
94908KDBQ DBQ20021112120009411/12/02 12:00:31  5-MIN KDBQ 121800Z 25012KT 10SM CLR 04/M03 A3017 840 59 -100 240/12 RMK AO2
94908KDBQ DBQ20021112120509411/12/02 12:05:31  5-MIN KDBQ 121805Z 23013KT 10SM CLR 05/M03 A3017 850 57 -100 230/13 RMK AO2
94908KDBQ DBQ20021112121009111/12/02 12:10:31  5-MIN KDBQ 121810Z 23013KT 10SM CLR 06/M02 A3017 850 57 0 230/13 RMK AO2
94908KDBQ DBQ20021112121509411/12/02 12:15:31  5-MIN KDBQ 121815Z 24013KT 10SM CLR 05/M02 A3016 860 59 -100 240/13 RMK AO2
94908KDBQ DBQ20021112122009111/12/02 12:20:31  5-MIN KDBQ 121820Z 25014KT 10SM CLR 06/M02 A3016 860 57 0 250/14 RMK AO2
94908KDBQ DBQ20021112122509111/12/02 12:25:31  5-MIN KDBQ 121825Z 25012KT 10SM CLR 06/M02 A3016 860 57 0 240/12 RMK AO2
94908KDBQ DBQ20021112123009711/12/02 12:30:31  5-MIN KDBQ 121830Z 25013G18KT 10SM CLR 06/M02 A3016 860 57 0 250/13G18 RMK AO2
94908KDBQ DBQ20021112123509111/12/02 12:35:31  5-MIN KDBQ 121835Z 25012KT 10SM CLR 06/M02 A3016 860 57 0 250/12 RMK AO2
94908KDBQ DBQ20021112124009111/12/02 12:40:31  5-MIN KDBQ 121840Z 23013KT 10SM CLR 06/M02 A3015 860 57 0 230/13 RMK AO2
94908KDBQ DBQ20021112124509111/12/02 12:45:31  5-MIN KDBQ 121845Z 25012KT 10SM CLR 06/M02 A3015 860 57 0 250/12 RMK AO2
94908KDBQ DBQ20021112125010811/12/02 12:50:31  5-MIN KDBQ 121850Z 26014KT 10SM CLR 06/M02 A3015 870 57 0 260/14 RMK AO2 SLP218 T00611017
94908KDBQ DBQ20021112125511011/12/02 12:55:31  5-MIN KDBQ 121855Z 25012KT 10SM CLR 06/M02 A3014 870 57 100 250/12 RMK AO2 SLP217 T00611017
94908KDBQ DBQ20021112130009311/12/02 13:00:31  5-MIN KDBQ 121900Z 24013KT 10SM CLR 06/M01 A3014 870 60 100 240/13 RMK AO2
94908KDBQ DBQ20021112130509311/12/02 13:05:31  5-MIN KDBQ 121905Z 25011KT 10SM CLR 06/M01 A3014 870 60 100 250/11 RMK AO2
94908KDBQ DBQ20021112131009311/12/02 13:10:31  5-MIN KDBQ 121910Z 24013KT 10SM CLR 06/M01 A3014 880 60 100 240/13 RMK AO2
94908KDBQ DBQ20021112131509311/12/02 13:15:31  5-MIN KDBQ 121915Z 24011KT 10SM CLR 06/M01 A3014 880 60 100 240/11 RMK AO2
94908KDBQ DBQ20021112132009311/12/02 13:20:31  5-MIN KDBQ 121920Z 25014KT 10SM CLR 07/M01 A3013 880 57 100 250/14 RMK AO2
94908KDBQ DBQ20021112132509311/12/02 13:25:31  5-MIN KDBQ 121925Z 25010KT 10SM CLR 07/M01 A3013 880 57 100 250/10 RMK AO2
94908KDBQ DBQ20021112133009311/12/02 13:30:31  5-MIN KDBQ 121930Z 23012KT 10SM CLR 07/M01 A3013 880 57 100 230/12 RMK AO2
94908KDBQ DBQ20021112133509311/12/02 13:35:31  5-MIN KDBQ 121935Z 24011KT 10SM CLR 07/M01 A3012 890 57 100 240/11 RMK AO2
94908KDBQ DBQ20021112134009311/12/02 13:40:31  5-MIN KDBQ 121940Z 23013KT 10SM CLR 07/M01 A3012 890 57 100 230/13 RMK AO2
94908KDBQ DBQ20021112134509311/12/02 13:45:31  5-MIN KDBQ 121945Z 23013KT 10SM CLR 07/M01 A3012 890 57 100 230/13 RMK AO2
94908KDBQ DBQ20021112135011011/12/02 13:50:31  5-MIN KDBQ 121950Z 22012KT 10SM CLR 07/M01 A3012 900 57 100 220/12 RMK AO2 SLP207 T00671011
94908KDBQ DBQ20021112135511011/12/02 13:55:31  5-MIN KDBQ 121955Z 25011KT 10SM CLR 07/M01 A3012 900 57 200 250/11 RMK AO2 SLP208 T00721006
94908KDBQ DBQ20021112140009311/12/02 14:00:31  5-MIN KDBQ 122000Z 24012KT 10SM CLR 07/M01 A3011 900 55 200 230/12 RMK AO2
94908KDBQ DBQ20021112140509311/12/02 14:05:31  5-MIN KDBQ 122005Z 23012KT 10SM CLR 07/M01 A3011 900 57 200 230/12 RMK AO2
94908KDBQ DBQ20021112141009311/12/02 14:10:31  5-MIN KDBQ 122010Z 24010KT 10SM CLR 08/M01 A3011 900 55 300 240/10 RMK AO2
94908KDBQ DBQ20021112141509311/12/02 14:15:31  5-MIN KDBQ 122015Z 23011KT 10SM CLR 07/M01 A3011 900 57 200 220/11 RMK AO2
94908KDBQ DBQ20021112142009311/12/02 14:20:31  5-MIN KDBQ 122020Z 22011KT 10SM CLR 07/M01 A3011 910 57 200 210/11 RMK AO2
94908KDBQ DBQ20021112142509311/12/02 14:25:31  5-MIN KDBQ 122025Z 23012KT 10SM CLR 07/M01 A3011 910 57 200 230/12 RMK AO2
94908KDBQ DBQ20021112143009311/12/02 14:30:31  5-MIN KDBQ 122030Z 23012KT 10SM CLR 07/M01 A3010 910 57 200 220/12 RMK AO2
94908KDBQ DBQ20021112143509911/12/02 14:35:31  5-MIN KDBQ 122035Z 23012G19KT 10SM CLR 07/M01 A3010 910 57 200 230/12G19 RMK AO2
94908KDBQ DBQ20021112144009911/12/02 14:40:31  5-MIN KDBQ 122040Z 22010G19KT 10SM CLR 08/M01 A3010 910 55 300 220/10G19 RMK AO2
94908KDBQ DBQ20021112144509311/12/02 14:45:31  5-MIN KDBQ 122045Z 22011KT 10SM CLR 07/M01 A3010 910 57 200 220/11 RMK AO2
94908KDBQ DBQ20021112145011611/12/02 14:50:31  5-MIN KDBQ 122050Z 23012KT 10SM CLR 08/M01 A3009 920 55 300 220/12 RMK AO2 SLP200 T00781006 58019
94908KDBQ DBQ20021112145511511/12/02 14:55:31  5-MIN KDBQ 122055Z 22011KT 10SM CLR 08/00 A3009 920 58 300 220/11 RMK AO2 SLP200 T00780000 56027
94908KDBQ DBQ20021112150009311/12/02 15:00:31  5-MIN KDBQ 122100Z 22012KT 10SM CLR 08/M01 A3010 920 55 300 220/12 RMK AO2
94908KDBQ DBQ20021112150509311/12/02 15:05:31  5-MIN KDBQ 122105Z 23013KT 10SM CLR 07/M01 A3010 910 57 200 220/13 RMK AO2
94908KDBQ DBQ20021112151009311/12/02 15:10:31  5-MIN KDBQ 122110Z 22012KT 10SM CLR 07/M01 A3010 910 57 200 220/12 RMK AO2
94908KDBQ DBQ20021112151509311/12/02 15:15:31  5-MIN KDBQ 122115Z 22013KT 10SM CLR 07/M01 A3010 910 57 200 220/13 RMK AO2
94908KDBQ DBQ20021112152009311/12/02 15:20:31  5-MIN KDBQ 122120Z 21012KT 10SM CLR 07/M01 A3010 910 57 200 210/12 RMK AO2
94908KDBQ DBQ20021112152509311/12/02 15:25:31  5-MIN KDBQ 122125Z 22011KT 10SM CLR 07/M01 A3010 910 57 200 220/11 RMK AO2
94908KDBQ DBQ20021112153009311/12/02 15:30:31  5-MIN KDBQ 122130Z 22011KT 10SM CLR 07/M01 A3010 920 57 200 220/11 RMK AO2
94908KDBQ DBQ20021112153509311/12/02 15:35:31  5-MIN KDBQ 122135Z 22010KT 10SM CLR 07/M01 A3010 920 57 200 220/10 RMK AO2
94908KDBQ DBQ20021112154009211/12/02 15:40:31  5-MIN KDBQ 122140Z 22012KT 10SM CLR 07/00 A3010 920 60 200 220/12 RMK AO2
94908KDBQ DBQ20021112154509211/12/02 15:45:31  5-MIN KDBQ 122145Z 22011KT 10SM CLR 07/00 A3010 920 60 200 210/11 RMK AO2
94908KDBQ DBQ20021112155010911/12/02 15:50:31  5-MIN KDBQ 122150Z 21011KT 10SM CLR 07/00 A3009 920 60 200 210/11 RMK AO2 SLP200 T00720000
94908KDBQ DBQ20021112155510911/12/02 15:55:31  5-MIN KDBQ 122155Z 21009KT 10SM CLR 07/00 A3009 920 60 200 210/09 RMK AO2 SLP200 T00720000
94908KDBQ DBQ20021112160009211/12/02 16:00:31  5-MIN KDBQ 122200Z 20010KT 10SM CLR 07/00 A3009 920 60 200 200/10 RMK AO2
94908KDBQ DBQ20021112160509211/12/02 16:05:31  5-MIN KDBQ 122205Z 20010KT 10SM CLR 07/00 A3009 920 62 200 200/10 RMK AO2
94908KDBQ DBQ20021113204010611/13/02 20:40:31  5-MIN KDBQ 140240Z AUTO 21009KT 10SM OVC085 10/01 A2981 1180 54 900 210/09 RMK AO2 TSNO
94908KDBQ DBQ20021113204510611/13/02 20:45:31  5-MIN KDBQ 140245Z AUTO 21008KT 10SM OVC090 10/01 A2982 1180 54 900 210/08 RMK AO2 TSNO
94908KDBQ DBQ20021113205012911/13/02 20:50:31  5-MIN KDBQ 140250Z AUTO 22008KT 10SM OVC085 09/01 A2982 1180 56 800 220/08 RMK AO2 SLP103 T00940011 55020 TSNO
94908KDBQ DBQ20021113205512911/13/02 20:55:31  5-MIN KDBQ 140255Z AUTO 21009KT 10SM BKN085 09/01 A2981 1180 58 800 210/09 RMK AO2 SLP102 T00890011 53001 TSNO
94908KDBQ DBQ20021113210010611/13/02 21:00:31  5-MIN KDBQ 140300Z AUTO 21010KT 10SM BKN085 09/01 A2981 1180 58 800 210/10 RMK AO2 TSNO
94908KDBQ DBQ20021113210510611/13/02 21:05:31  5-MIN KDBQ 140305Z AUTO 21009KT 10SM SCT085 08/01 A2981 1180 60 700 210/09 RMK AO2 TSNO
94908KDBQ DBQ20021113211010611/13/02 21:10:31  5-MIN KDBQ 140310Z AUTO 21008KT 10SM SCT085 08/01 A2982 1170 62 600 210/08 RMK AO2 TSNO
94908KDBQ DBQ20021113211510611/13/02 21:15:31  5-MIN KDBQ 140315Z AUTO 21008KT 10SM FEW085 08/01 A2982 1170 62 600 210/08 RMK AO2 TSNO
94908KDBQ DBQ20021113212010311/13/02 21:20:31  5-MIN KDBQ 140320Z AUTO 21007KT 10SM CLR 07/01 A2982 1170 65 600 210/07 RMK AO2 TSNO
94908KDBQ DBQ20021113212510611/13/02 21:25:31  5-MIN KDBQ 140325Z AUTO 21008KT 10SM FEW085 07/01 A2982 1170 65 600 210/08 RMK AO2 TSNO
94908KDBQ DBQ20021113213010611/13/02 21:30:31  5-MIN KDBQ 140330Z AUTO 21008KT 10SM FEW085 07/01 A2982 1170 65 600 210/08 RMK AO2 TSNO
94908KDBQ DBQ20021113213510611/13/02 21:35:31  5-MIN KDBQ 140335Z AUTO 21007KT 10SM SCT085 07/01 A2982 1170 65 600 210/07 RMK AO2 TSNO
94908KDBQ DBQ20021113214010611/13/02 21:40:31  5-MIN KDBQ 140340Z AUTO 21007KT 10SM BKN085 08/01 A2982 1170 62 600 210/07 RMK AO2 TSNO
94908KDBQ DBQ20021113214510611/13/02 21:45:31  5-MIN KDBQ 140345Z AUTO 22007KT 10SM BKN085 07/01 A2982 1170 65 600 220/07 RMK AO2 TSNO
94908KDBQ DBQ20021113215012311/13/02 21:50:31  5-MIN KDBQ 140350Z AUTO 22007KT 10SM BKN085 07/01 A2983 1170 67 500 220/07 RMK AO2 SLP107 T00670011 TSNO
94908KDBQ DBQ20021113215512311/13/02 21:55:31  5-MIN KDBQ 140355Z AUTO 22007KT 10SM BKN085 07/01 A2983 1170 65 500 220/07 RMK AO2 SLP107 T00720011 TSNO
94908KDBQ DBQ20021113220010611/13/02 22:00:31  5-MIN KDBQ 140400Z AUTO 22007KT 10SM OVC085 07/02 A2983 1160 68 500 220/07 RMK AO2 TSNO
94908KDBQ DBQ20021113220510611/13/02 22:05:31  5-MIN KDBQ 140405Z AUTO 22007KT 10SM OVC085 07/02 A2983 1160 68 500 220/07 RMK AO2 TSNO
94908KDBQ DBQ20021113221010611/13/02 22:10:31  5-MIN KDBQ 140410Z AUTO 22006KT 10SM OVC080 07/02 A2983 1160 70 500 220/06 RMK AO2 TSNO
94908KDBQ DBQ20021113221510611/13/02 22:15:31  5-MIN KDBQ 140415Z AUTO 22005KT 10SM OVC080 07/02 A2983 1160 70 500 220/05 RMK AO2 TSNO
94908KDBQ DBQ20021113222010611/13/02 22:20:31  5-MIN KDBQ 140420Z AUTO 22004KT 10SM OVC080 07/02 A2983 1160 70 500 220/04 RMK AO2 TSNO
94908KDBQ DBQ20021113222510611/13/02 22:25:31  5-MIN KDBQ 140425Z AUTO 21005KT 10SM OVC080 07/02 A2983 1160 68 500 210/05 RMK AO2 TSNO
94908KDBQ DBQ20021113223010611/13/02 22:30:31  5-MIN KDBQ 140430Z AUTO 21006KT 10SM OVC080 08/02 A2983 1160 65 600 200/06 RMK AO2 TSNO
94908KDBQ DBQ20021113223510611/13/02 22:35:31  5-MIN KDBQ 140435Z AUTO 21007KT 10SM BKN080 07/02 A2983 1170 70 500 210/07 RMK AO2 TSNO
94908KDBQ DBQ20021113224010611/13/02 22:40:31  5-MIN KDBQ 140440Z AUTO 21006KT 10SM BKN080 06/01 A2983 1170 70 400 210/06 RMK AO2 TSNO
94908KDBQ DBQ20021113224510611/13/02 22:45:31  5-MIN KDBQ 140445Z AUTO 21005KT 10SM SCT080 06/01 A2983 1170 70 400 210/05 RMK AO2 TSNO
94908KDBQ DBQ20021113225012311/13/02 22:50:31  5-MIN KDBQ 140450Z AUTO 21005KT 10SM FEW080 06/01 A2982 1170 70 400 210/05 RMK AO2 SLP105 T00610011 TSNO
94908KDBQ DBQ20021113225512311/13/02 22:55:31  5-MIN KDBQ 140455Z AUTO 21004KT 10SM FEW080 06/01 A2983 1170 70 400 210/04 RMK AO2 SLP105 T00610011 TSNO
94908KDBQ DBQ20021113230010311/13/02 23:00:31  5-MIN KDBQ 140500Z AUTO 21005KT 10SM CLR 06/01 A2983 1170 70 400 210/05 RMK AO2 TSNO
94908KDBQ DBQ20021113230510311/13/02 23:05:31  5-MIN KDBQ 140505Z AUTO 21005KT 10SM CLR 06/01 A2983 1170 70 300 210/05 RMK AO2 TSNO
94908KDBQ DBQ20021113231010311/13/02 23:10:31  5-MIN KDBQ 140510Z AUTO 21005KT 10SM CLR 06/01 A2983 1160 70 300 200/05 RMK AO2 TSNO
94908KDBQ DBQ20021113231510311/13/02 23:15:31  5-MIN KDBQ 140515Z AUTO 21005KT 10SM CLR 05/01 A2983 1160 73 300 210/05 RMK AO2 TSNO
94908KDBQ DBQ20021113232010311/13/02 23:20:31  5-MIN KDBQ 140520Z AUTO 21005KT 10SM CLR 05/01 A2983 1170 73 300 210/05 RMK AO2 TSNO
94908KDBQ DBQ20021113232510311/13/02 23:25:31  5-MIN KDBQ 140525Z AUTO 21004KT 10SM CLR 05/01 A2982 1170 76 300 210/04 RMK AO2 TSNO
94908KDBQ DBQ20021113233010311/13/02 23:30:31  5-MIN KDBQ 140530Z AUTO 21005KT 10SM CLR 06/01 A2982 1170 73 300 210/05 RMK AO2 TSNO
94908KDBQ DBQ20021113233510311/13/02 23:35:31  5-MIN KDBQ 140535Z AUTO 21004KT 10SM CLR 06/01 A2982 1170 73 400 200/04 RMK AO2 TSNO
94908KDBQ DBQ20021113234010311/13/02 23:40:31  5-MIN KDBQ 140540Z AUTO 20004KT 10SM CLR 06/01 A2982 1170 73 400 200/04 RMK AO2 TSNO
94908KDBQ DBQ20021113234510311/13/02 23:45:31  5-MIN KDBQ 140545Z AUTO 21005KT 10SM CLR 06/01 A2982 1170 73 400 210/05 RMK AO2 TSNO
94908KDBQ DBQ20021113235014811/13/02 23:50:31  5-MIN KDBQ 140550Z AUTO 21005KT 10SM CLR 05/01 A2982 1170 73 300 210/05 RMK AO2 SLP104 T00500006 10117 20050 401171039 53001 TSNO
94908KDBQ DBQ20021113235514811/13/02 23:55:31  5-MIN KDBQ 140555Z AUTO 22005KT 10SM CLR 04/01 A2982 1170 76 200 210/05 RMK AO2 SLP103 T00440006 10117 20044 401171039 50001 TSNO
94908KDBQ DBQ20021114000010311/14/02 00:00:31  5-MIN KDBQ 140600Z AUTO 21005KT 10SM CLR 04/01 A2981 1180 79 200 210/05 RMK AO2 TSNO
94908KDBQ DBQ20021114000510311/14/02 00:05:31  5-MIN KDBQ 140605Z AUTO 21006KT 10SM CLR 04/01 A2981 1180 79 200 210/06 RMK AO2 TSNO
94908KDBQ DBQ20021114001010311/14/02 00:10:31  5-MIN KDBQ 140610Z AUTO 21005KT 10SM CLR 03/01 A2981 1180 82 100 210/05 RMK AO2 TSNO
94908KDBQ DBQ20021114001510311/14/02 00:15:31  5-MIN KDBQ 140615Z AUTO 20005KT 10SM CLR 03/01 A2981 1180 82 100 200/05 RMK AO2 TSNO
94908KDBQ DBQ20021114002010311/14/02 00:20:31  5-MIN KDBQ 140620Z AUTO 21005KT 10SM CLR 03/01 A2981 1180 82 100 210/05 RMK AO2 TSNO
94908KDBQ DBQ20021114002510111/14/02 00:25:31  5-MIN KDBQ 140625Z AUTO 21005KT 10SM CLR 03/00 A2981 1180 82 0 210/05 RMK AO2 TSNO
94908KDBQ DBQ20021114003010111/14/02 00:30:31  5-MIN KDBQ 140630Z AUTO 20004KT 10SM CLR 03/00 A2981 1180 82 0 200/04 RMK AO2 TSNO
94908KDBQ DBQ20021114003510111/14/02 00:35:31  5-MIN KDBQ 140635Z AUTO 20004KT 10SM CLR 03/00 A2981 1180 82 0 200/04 RMK AO2 TSNO
94908KDBQ DBQ20021114004010111/14/02 00:40:31  5-MIN KDBQ 140640Z AUTO 20005KT 10SM CLR 03/00 A2981 1180 82 0 200/05 RMK AO2 TSNO
94908KDBQ DBQ20021114004510111/14/02 00:45:31  5-MIN KDBQ 140645Z AUTO 21005KT 10SM CLR 03/00 A2981 1180 82 0 200/05 RMK AO2 TSNO
94908KDBQ DBQ20021114005012011/14/02 00:50:31  5-MIN KDBQ 140650Z AUTO 21005KT 10SM CLR 03/00 A2981 1180 79 100 210/05 RMK AO2 SLP100 T00330000 TSNO
94908KDBQ DBQ20021114005511811/14/02 00:55:31  5-MIN KDBQ 140655Z AUTO 21005KT 10SM CLR 03/00 A2980 1190 82 0 210/05 RMK AO2 SLP099 T00280000 TSNO
94908KDBQ DBQ20021114010010111/14/02 01:00:31  5-MIN KDBQ 140700Z AUTO 20005KT 10SM CLR 03/00 A2980 1190 82 0 200/05 RMK AO2 TSNO
94908KDBQ DBQ20021114010510111/14/02 01:05:31  5-MIN KDBQ 140705Z AUTO 21005KT 10SM CLR 03/00 A2980 1190 82 0 210/05 RMK AO2 TSNO
94908KDBQ DBQ20021114011010111/14/02 01:10:31  5-MIN KDBQ 140710Z AUTO 21006KT 10SM CLR 03/00 A2980 1190 82 0 210/06 RMK AO2 TSNO
94908KDBQ DBQ20021114011510111/14/02 01:15:31  5-MIN KDBQ 140715Z AUTO 21005KT 10SM CLR 03/00 A2980 1190 82 0 210/05 RMK AO2 TSNO
94908KDBQ DBQ20021114012010111/14/02 01:20:31  5-MIN KDBQ 140720Z AUTO 21005KT 10SM CLR 02/00 A2980 1190 85 0 210/05 RMK AO2 TSNO
94908KDBQ DBQ20021114012510111/14/02 01:25:31  5-MIN KDBQ 140725Z AUTO 21005KT 10SM CLR 03/00 A2980 1190 82 0 210/05 RMK AO2 TSNO
94908KDBQ DBQ20021114013010111/14/02 01:30:31  5-MIN KDBQ 140730Z AUTO 21005KT 10SM CLR 03/00 A2980 1190 82 0 210/05 RMK AO2 TSNO
94908KDBQ DBQ20021114013510111/14/02 01:35:31  5-MIN KDBQ 140735Z AUTO 21005KT 10SM CLR 03/01 A2980 1190 85 0 210/05 RMK AO2 TSNO
94908KDBQ DBQ20021114014010111/14/02 01:40:31  5-MIN KDBQ 140740Z AUTO 21004KT 10SM CLR 03/00 A2980 1190 82 0 210/04 RMK AO2 TSNO
94908KDBQ DBQ20021114014510111/14/02 01:45:31  5-MIN KDBQ 140745Z AUTO 21004KT 10SM CLR 02/00 A2980 1190 85 0 210/04 RMK AO2 TSNO
94908KDBQ DBQ20021114015011811/14/02 01:50:31  5-MIN KDBQ 140750Z AUTO 23004KT 10SM CLR 03/00 A2981 1190 82 0 220/04 RMK AO2 SLP099 T00280000 TSNO
94908KDBQ DBQ20021114015512011/14/02 01:55:31  5-MIN KDBQ 140755Z AUTO 23006KT 10SM CLR 03/01 A2980 1190 82 100 220/06 RMK AO2 SLP098 T00330006 TSNO
94908KDBQ DBQ20021114020010311/14/02 02:00:31  5-MIN KDBQ 140800Z AUTO 22006KT 10SM CLR 03/01 A2980 1190 82 100 220/06 RMK AO2 TSNO
94908KDBQ DBQ20021114020510311/14/02 02:05:31  5-MIN KDBQ 140805Z AUTO 22006KT 10SM CLR 03/01 A2981 1180 82 100 220/06 RMK AO2 TSNO
94908KDBQ DBQ20021114021010311/14/02 02:10:31  5-MIN KDBQ 140810Z AUTO 21006KT 10SM CLR 03/01 A2980 1190 82 100 210/06 RMK AO2 TSNO
94908KDBQ DBQ20021114021510111/14/02 02:15:31  5-MIN KDBQ 140815Z AUTO 22006KT 10SM CLR 03/01 A2980 1190 85 0 220/06 RMK AO2 TSNO
94908KDBQ DBQ20021114022010111/14/02 02:20:31  5-MIN KDBQ 140820Z AUTO 22006KT 10SM CLR 03/01 A2980 1190 85 0 220/06 RMK AO2 TSNO
94908KDBQ DBQ20021114022510311/14/02 02:25:31  5-MIN KDBQ 140825Z AUTO 21006KT 10SM CLR 03/01 A2980 1190 82 100 210/06 RMK AO2 TSNO
94908KDBQ DBQ20021114023010311/14/02 02:30:31  5-MIN KDBQ 140830Z AUTO 21007KT 10SM CLR 03/01 A2980 1190 82 100 210/07 RMK AO2 TSNO
94908KDBQ DBQ20021114023510111/14/02 02:35:31  5-MIN KDBQ 140835Z AUTO 21007KT 10SM CLR 03/01 A2981 1180 85 0 210/07 RMK AO2 TSNO
94908KDBQ DBQ20021114024010411/14/02 02:40:31  5-MIN KDBQ 140840Z AUTO 22007KT 10SM CLR 02/00 A2981 1180 89 -100 220/07 RMK AO2 TSNO
94908KDBQ DBQ20021114024510411/14/02 02:45:31  5-MIN KDBQ 140845Z AUTO 22006KT 10SM CLR 02/00 A2981 1180 89 -100 220/06 RMK AO2 TSNO
94908KDBQ DBQ20021114025012411/14/02 02:50:31  5-MIN KDBQ 140850Z AUTO 22006KT 10SM CLR 02/00 A2981 1180 85 0 220/06 RMK AO2 SLP100 T00220000 50001 TSNO
94908KDBQ DBQ20021114025512711/14/02 02:55:31  5-MIN KDBQ 140855Z AUTO 22006KT 10SM FEW110 02/00 A2981 1180 85 0 220/06 RMK AO2 SLP100 T00220000 55003 TSNO
94908KDBQ DBQ20021114030010411/14/02 03:00:31  5-MIN KDBQ 140900Z AUTO 22006KT 10SM FEW110 02/01 A2981 1180 89 0 220/06 RMK AO2 TSNO
94908KDBQ DBQ20021114030510411/14/02 03:05:31  5-MIN KDBQ 140905Z AUTO 22007KT 10SM FEW110 02/01 A2981 1180 89 0 220/07 RMK AO2 TSNO
94908KDBQ DBQ20021114031010411/14/02 03:10:31  5-MIN KDBQ 140910Z AUTO 22007KT 10SM FEW110 02/01 A2981 1180 89 0 220/07 RMK AO2 TSNO
94908KDBQ DBQ20021114031510411/14/02 03:15:31  5-MIN KDBQ 140915Z AUTO 22005KT 10SM FEW110 03/01 A2981 1180 85 0 220/05 RMK AO2 TSNO
94908KDBQ DBQ20021114032010611/14/02 03:20:31  5-MIN KDBQ 140920Z AUTO 23003KT 10SM FEW110 03/01 A2981 1180 82 100 220/03 RMK AO2 TSNO
94908KDBQ DBQ20021114032510311/14/02 03:25:31  5-MIN KDBQ 140925Z AUTO 04003KT 10SM CLR 03/01 A2982 1170 85 100 030/03 RMK AO2 TSNO
94908KDBQ DBQ20021114033010311/14/02 03:30:31  5-MIN KDBQ 140930Z AUTO 30004KT 10SM CLR 04/01 A2981 1180 82 200 300/04 RMK AO2 TSNO
94908KDBQ DBQ20021114033510311/14/02 03:35:31  5-MIN KDBQ 140935Z AUTO 29006KT 10SM CLR 05/02 A2981 1180 79 300 290/06 RMK AO2 TSNO
94908KDBQ DBQ20021114034010311/14/02 03:40:31  5-MIN KDBQ 140940Z AUTO 29006KT 10SM CLR 05/02 A2981 1180 79 300 290/06 RMK AO2 TSNO
94908KDBQ DBQ20021114034510311/14/02 03:45:31  5-MIN KDBQ 140945Z AUTO 30007KT 10SM CLR 05/02 A2981 1180 79 300 300/07 RMK AO2 TSNO
94908KDBQ DBQ20021114035012011/14/02 03:50:31  5-MIN KDBQ 140950Z AUTO 29008KT 10SM CLR 05/02 A2981 1180 79 300 290/08 RMK AO2 SLP100 T00500017 TSNO
94908KDBQ DBQ20021114035512011/14/02 03:55:31  5-MIN KDBQ 140955Z AUTO 28007KT 10SM CLR 05/02 A2981 1180 79 300 280/07 RMK AO2 SLP099 T00500017 TSNO
94908KDBQ DBQ20021114040010311/14/02 04:00:31  5-MIN KDBQ 141000Z AUTO 28007KT 10SM CLR 04/02 A2981 1180 82 200 280/07 RMK AO2 TSNO
94908KDBQ DBQ20021114040510311/14/02 04:05:31  5-MIN KDBQ 141005Z AUTO 29006KT 10SM CLR 04/02 A2981 1180 82 200 280/06 RMK AO2 TSNO
94908KDBQ DBQ20021114041010311/14/02 04:10:31  5-MIN KDBQ 141010Z AUTO 29006KT 10SM CLR 04/01 A2981 1180 79 200 290/06 RMK AO2 TSNO
94908KDBQ DBQ20021114041510311/14/02 04:15:31  5-MIN KDBQ 141015Z AUTO 29005KT 10SM CLR 04/01 A2981 1180 79 200 290/05 RMK AO2 TSNO
94908KDBQ DBQ20021114042010311/14/02 04:20:31  5-MIN KDBQ 141020Z AUTO 29006KT 10SM CLR 04/01 A2981 1180 82 200 290/06 RMK AO2 TSNO
94908KDBQ DBQ20021114042510311/14/02 04:25:31  5-MIN KDBQ 141025Z AUTO 30006KT 10SM CLR 04/01 A2982 1170 82 200 300/06 RMK AO2 TSNO
94908KDBQ DBQ20021114043010311/14/02 04:30:31  5-MIN KDBQ 141030Z AUTO 30005KT 10SM CLR 03/01 A2982 1170 85 100 300/05 RMK AO2 TSNO
94908KDBQ DBQ20021114043510311/14/02 04:35:31  5-MIN KDBQ 141035Z AUTO 31004KT 10SM CLR 03/01 A2982 1170 85 100 310/04 RMK AO2 TSNO
94908KDBQ DBQ20021114044010311/14/02 04:40:31  5-MIN KDBQ 141040Z AUTO 30003KT 10SM CLR 03/01 A2982 1170 82 100 300/03 RMK AO2 TSNO
94908KDBQ DBQ20021114044510311/14/02 04:45:31  5-MIN KDBQ 141045Z AUTO 00000KT 10SM CLR 03/01 A2983 1170 82 100 000/00 RMK AO2 TSNO
94908KDBQ DBQ20021114045011811/14/02 04:50:31  5-MIN KDBQ 141050Z AUTO 00000KT 10SM CLR 03/01 A2983 1170 85 0 000/00 RMK AO2 SLP106 T00280006 TSNO
94908KDBQ DBQ20021114045512011/14/02 04:55:31  5-MIN KDBQ 141055Z AUTO 00000KT 10SM CLR 03/01 A2983 1160 82 100 000/00 RMK AO2 SLP106 T00330006 TSNO
94908KDBQ DBQ20021114050010311/14/02 05:00:31  5-MIN KDBQ 141100Z AUTO 00000KT 10SM CLR 03/01 A2983 1160 85 100 000/00 RMK AO2 TSNO
94908KDBQ DBQ20021114050510311/14/02 05:05:31  5-MIN KDBQ 141105Z AUTO 00000KT 10SM CLR 04/01 A2983 1160 82 100 000/00 RMK AO2 TSNO
94908KDBQ DBQ20021114051010311/14/02 05:10:31  5-MIN KDBQ 141110Z AUTO 33005KT 10SM CLR 04/01 A2983 1160 82 100 320/05 RMK AO2 TSNO
94908KDBQ DBQ20021114051510311/14/02 05:15:31  5-MIN KDBQ 141115Z AUTO 33005KT 10SM CLR 03/01 A2983 1160 85 100 330/05 RMK AO2 TSNO
94908KDBQ DBQ20021114052010311/14/02 05:20:31  5-MIN KDBQ 141120Z AUTO 35004KT 10SM CLR 04/01 A2983 1160 82 100 350/04 RMK AO2 TSNO
94908KDBQ DBQ20021114052510311/14/02 05:25:31  5-MIN KDBQ 141125Z AUTO 35004KT 10SM CLR 04/01 A2983 1160 82 100 350/04 RMK AO2 TSNO
94908KDBQ DBQ20021114053010311/14/02 05:30:31  5-MIN KDBQ 141130Z AUTO 35005KT 10SM CLR 04/01 A2983 1160 82 100 350/05 RMK AO2 TSNO
94908KDBQ DBQ20021114053510311/14/02 05:35:31  5-MIN KDBQ 141135Z AUTO 35005KT 10SM CLR 04/01 A2983 1160 82 100 350/05 RMK AO2 TSNO
94908KDBQ DBQ20021114054010311/14/02 05:40:31  5-MIN KDBQ 141140Z AUTO 36005KT 10SM CLR 03/01 A2983 1160 85 100 360/05 RMK AO2 TSNO
94908KDBQ DBQ20021114054510311/14/02 05:45:31  5-MIN KDBQ 141145Z AUTO 36004KT 10SM CLR 03/01 A2983 1160 85 100 360/04 RMK AO2 TSNO
94908KDBQ DBQ20021114055013311/14/02 05:50:31  5-MIN KDBQ 141150Z 36003KT 10SM CLR 04/01 A2984 1160 82 100 360/03 RMK AO2 SLP109 T00390011 10050 20017 55003 TSNO
94908KDBQ DBQ20021114055512811/14/02 05:55:31  5-MIN KDBQ 141155Z 03003KT 10SM CLR 04/01 A2984 1160 82 100 030/03 RMK AO2 SLP109 T00390011 10050 20017 53009
94908KDBQ DBQ20021114060009311/14/02 06:00:31  5-MIN KDBQ 141200Z 00000KT 10SM CLR 04/01 A2984 1150 82 100 000/00 RMK AO2
94908KDBQ DBQ20021114060509311/14/02 06:05:31  5-MIN KDBQ 141205Z 00000KT 10SM CLR 04/01 A2984 1150 82 100 000/00 RMK AO2
94908KDBQ DBQ20021114061009311/14/02 06:10:31  5-MIN KDBQ 141210Z 00000KT 10SM CLR 04/01 A2984 1150 79 200 000/00 RMK AO2
94908KDBQ DBQ20021114061509311/14/02 06:15:31  5-MIN KDBQ 141215Z 00000KT 10SM CLR 03/01 A2984 1150 82 100 000/00 RMK AO2
94908KDBQ DBQ20021114062009511/14/02 06:20:31  5-MIN KDBQ 141220Z 00000KT 10SM CLR 01/M01 A2984 1150 89 -200 000/00 RMK AO2
94908KDBQ DBQ20021114062509311/14/02 06:25:31  5-MIN KDBQ 141225Z 35003KT 10SM CLR 04/01 A2984 1150 82 100 350/03 RMK AO2
94908KDBQ DBQ20021114063009311/14/02 06:30:31  5-MIN KDBQ 141230Z 35003KT 10SM CLR 04/01 A2985 1150 79 200 350/03 RMK AO2
94908KDBQ DBQ20021114063509311/14/02 06:35:31  5-MIN KDBQ 141235Z 34004KT 10SM CLR 04/01 A2985 1150 79 200 340/04 RMK AO2
94908KDBQ DBQ20021114064009311/14/02 06:40:31  5-MIN KDBQ 141240Z 34004KT 10SM CLR 04/01 A2985 1150 79 200 340/04 RMK AO2
94908KDBQ DBQ20021114064509111/14/02 06:45:31  5-MIN KDBQ 141245Z 33005KT 10SM CLR 03/01 A2985 1140 85 0 330/05 RMK AO2
94908KDBQ DBQ20021114065010811/14/02 06:50:31  5-MIN KDBQ 141250Z 34005KT 10SM CLR 03/01 A2985 1140 85 0 330/05 RMK AO2 SLP114 T00330011
94908KDBQ DBQ20021114065510811/14/02 06:55:31  5-MIN KDBQ 141255Z 34005KT 10SM CLR 03/01 A2985 1140 85 0 340/05 RMK AO2 SLP114 T00280006
94908KDBQ DBQ20021114070009111/14/02 07:00:31  5-MIN KDBQ 141300Z 34007KT 10SM CLR 02/01 A2986 1140 89 0 340/07 RMK AO2
94908KDBQ DBQ20021114070509111/14/02 07:05:31  5-MIN KDBQ 141305Z 34007KT 10SM CLR 03/01 A2986 1140 89 0 340/07 RMK AO2
94908KDBQ DBQ20021114071009111/14/02 07:10:31  5-MIN KDBQ 141310Z 34008KT 10SM CLR 03/01 A2986 1130 85 0 340/08 RMK AO2
94908KDBQ DBQ20021114071509111/14/02 07:15:31  5-MIN KDBQ 141315Z 34008KT 10SM CLR 03/02 A2986 1130 89 0 340/08 RMK AO2
94908KDBQ DBQ20021114072009311/14/02 07:20:31  5-MIN KDBQ 141320Z 34008KT 10SM CLR 04/02 A2986 1130 85 100 340/08 RMK AO2
94908KDBQ DBQ20021114072509311/14/02 07:25:31  5-MIN KDBQ 141325Z 34008KT 10SM CLR 04/02 A2986 1130 85 100 340/08 RMK AO2
94908KDBQ DBQ20021114073009311/14/02 07:30:31  5-MIN KDBQ 141330Z 34009KT 10SM CLR 04/02 A2987 1130 85 100 340/09 RMK AO2
94908KDBQ DBQ20021114073509311/14/02 07:35:31  5-MIN KDBQ 141335Z 34009KT 10SM CLR 04/02 A2987 1130 85 100 340/09 RMK AO2
94908KDBQ DBQ20021114074009311/14/02 07:40:31  5-MIN KDBQ 141340Z 34010KT 10SM CLR 04/02 A2987 1130 85 100 340/10 RMK AO2
94908KDBQ DBQ20021114074509311/14/02 07:45:31  5-MIN KDBQ 141345Z 34010KT 10SM CLR 04/02 A2987 1130 85 100 340/10 RMK AO2
94908KDBQ DBQ20021114075011011/14/02 07:50:31  5-MIN KDBQ 141350Z 34010KT 10SM CLR 04/02 A2987 1120 85 100 340/10 RMK AO2 SLP120 T00390017
94908KDBQ DBQ20021114075511011/14/02 07:55:31  5-MIN KDBQ 141355Z 34011KT 10SM CLR 04/02 A2987 1120 85 100 340/11 RMK AO2 SLP121 T00390017
94908KDBQ DBQ20021114080009211/14/02 08:00:31  5-MIN KDBQ 141400Z 34010KT 9SM CLR 04/02 A2988 1120 85 100 340/10 RMK AO2
94908KDBQ DBQ20021114080509211/14/02 08:05:31  5-MIN KDBQ 141405Z 34009KT 9SM CLR 04/02 A2988 1120 85 100 340/09 RMK AO2
94908KDBQ DBQ20021114081009211/14/02 08:10:31  5-MIN KDBQ 141410Z 34009KT 9SM CLR 04/02 A2989 1110 85 100 340/09 RMK AO2
94908KDBQ DBQ20021114081509211/14/02 08:15:31  5-MIN KDBQ 141415Z 34007KT 9SM CLR 04/02 A2989 1110 85 100 340/07 RMK AO2
94908KDBQ DBQ20021114082009211/14/02 08:20:31  5-MIN KDBQ 141420Z 34007KT 9SM CLR 04/02 A2989 1110 85 100 340/07 RMK AO2
94908KDBQ DBQ20021114082509211/14/02 08:25:31  5-MIN KDBQ 141425Z 33008KT 8SM CLR 04/02 A2989 1110 85 100 330/08 RMK AO2
94908KDBQ DBQ20021114083009211/14/02 08:30:31  5-MIN KDBQ 141430Z 34006KT 8SM CLR 04/02 A2990 1100 85 100 330/06 RMK AO2
94908KDBQ DBQ20021114083509211/14/02 08:35:31  5-MIN KDBQ 141435Z 33007KT 8SM CLR 04/02 A2990 1100 85 100 330/07 RMK AO2
94908KDBQ DBQ20021114084009211/14/02 08:40:31  5-MIN KDBQ 141440Z 33006KT 8SM CLR 04/02 A2990 1100 85 100 330/06 RMK AO2
94908KDBQ DBQ20021114084509211/14/02 08:45:31  5-MIN KDBQ 141445Z 33008KT 8SM CLR 04/02 A2990 1100 85 100 330/08 RMK AO2
94908KDBQ DBQ20021114085011511/14/02 08:50:31  5-MIN KDBQ 141450Z 33006KT 8SM CLR 04/02 A2990 1100 85 100 330/06 RMK AO2 SLP131 T00390017 53009
94908KDBQ DBQ20021114085511511/14/02 08:55:31  5-MIN KDBQ 141455Z 33006KT 8SM CLR 04/02 A2990 1100 85 100 330/06 RMK AO2 SLP132 T00390017 53021
94908KDBQ DBQ20021114090009211/14/02 09:00:31  5-MIN KDBQ 141500Z 34007KT 8SM CLR 04/02 A2990 1090 85 100 340/07 RMK AO2
94908KDBQ DBQ20021114090509211/14/02 09:05:31  5-MIN KDBQ 141505Z 35006KT 7SM CLR 04/02 A2990 1100 82 100 340/06 RMK AO2
94908KDBQ DBQ20021114091009211/14/02 09:10:31  5-MIN KDBQ 141510Z 33006KT 8SM CLR 04/02 A2991 1090 82 100 330/06 RMK AO2
94908KDBQ DBQ20021114091509211/14/02 09:15:31  5-MIN KDBQ 141515Z 35004KT 8SM CLR 04/02 A2991 1090 82 100 350/04 RMK AO2
94908KDBQ DBQ20021114092009211/14/02 09:20:31  5-MIN KDBQ 141520Z 34006KT 8SM CLR 04/02 A2991 1090 82 100 340/06 RMK AO2
94908KDBQ DBQ20021114092509211/14/02 09:25:31  5-MIN KDBQ 141525Z 33008KT 7SM CLR 04/02 A2991 1090 82 100 330/08 RMK AO2
94908KDBQ DBQ20021114093009211/14/02 09:30:31  5-MIN KDBQ 141530Z 34006KT 7SM CLR 04/02 A2991 1090 82 100 340/06 RMK AO2
94908KDBQ DBQ20021114093509211/14/02 09:35:31  5-MIN KDBQ 141535Z 34007KT 7SM CLR 04/02 A2991 1090 82 100 340/07 RMK AO2
94908KDBQ DBQ20021114094009011/14/02 09:40:31  5-MIN KDBQ 141540Z 34009KT 7SM CLR 04/02 A2991 1080 85 0 340/09 RMK AO2
94908KDBQ DBQ20021114094509011/14/02 09:45:31  5-MIN KDBQ 141545Z 35009KT 7SM CLR 04/02 A2991 1080 85 0 350/09 RMK AO2
94908KDBQ DBQ20021114095010911/14/02 09:50:31  5-MIN KDBQ 141550Z 35009KT 7SM CLR 04/02 A2991 1090 82 100 350/09 RMK AO2 SLP136 T00440017
94908KDBQ DBQ20021114095510911/14/02 09:55:31  5-MIN KDBQ 141555Z 35010KT 7SM CLR 04/02 A2991 1090 82 100 350/10 RMK AO2 SLP135 T00440017
94908KDBQ DBQ20021114100009211/14/02 10:00:31  5-MIN KDBQ 141600Z 36011KT 7SM CLR 04/02 A2991 1090 82 100 360/11 RMK AO2
94908KDBQ DBQ20021114100509211/14/02 10:05:31  5-MIN KDBQ 141605Z 35011KT 7SM CLR 04/02 A2991 1090 82 100 350/11 RMK AO2
94908KDBQ DBQ20021114101009511/14/02 10:10:31  5-MIN KDBQ 141610Z 36011KT 7SM FEW015 04/02 A2991 1090 82 100 360/11 RMK AO2
94908KDBQ DBQ20021114101509511/14/02 10:15:31  5-MIN KDBQ 141615Z 34011KT 7SM FEW015 04/02 A2991 1080 82 100 340/11 RMK AO2
94908KDBQ DBQ20021114102009511/14/02 10:20:31  5-MIN KDBQ 141620Z 35010KT 7SM FEW015 04/02 A2992 1080 82 100 350/10 RMK AO2
94908KDBQ DBQ20021114102509511/14/02 10:25:31  5-MIN KDBQ 141625Z 35008KT 7SM SCT015 04/02 A2992 1080 82 100 350/08 RMK AO2
94908KDBQ DBQ20021114103009511/14/02 10:30:31  5-MIN KDBQ 141630Z 01010KT 7SM FEW015 04/02 A2992 1080 82 100 010/10 RMK AO2
94908KDBQ DBQ20021114103509511/14/02 10:35:31  5-MIN KDBQ 141635Z 01009KT 7SM SCT015 04/02 A2991 1080 82 100 010/09 RMK AO2
94908KDBQ DBQ20021114104009511/14/02 10:40:31  5-MIN KDBQ 141640Z 02009KT 7SM SCT015 04/02 A2992 1080 82 100 020/09 RMK AO2
94908KDBQ DBQ20021114104510211/14/02 10:45:31  5-MIN KDBQ 141645Z 02009KT 7SM FEW015 BKN110 04/02 A2991 1090 82 100 020/09 RMK AO2
94908KDBQ DBQ20021114105011911/14/02 10:50:31  5-MIN KDBQ 141650Z 36008KT 7SM FEW015 BKN110 04/02 A2991 1090 82 100 360/08 RMK AO2 SLP136 T00440017
94908KDBQ DBQ20021114105512211/14/02 10:55:31  5-MIN KDBQ 141655Z 02008KT 6SM HZ FEW015 BKN110 04/02 A2991 1090 82 100 020/08 RMK AO2 SLP134 T00440017
94908KDBQ DBQ20021114110010211/14/02 11:00:31  5-MIN KDBQ 141700Z 01008KT 7SM FEW015 BKN110 04/02 A2991 1090 82 100 010/08 RMK AO2
94908KDBQ DBQ20021114110509811/14/02 11:05:31  5-MIN KDBQ 141705Z 03007KT 6SM HZ BKN110 05/02 A2991 1090 79 200 030/07 RMK AO2
94908KDBQ DBQ20021114111009811/14/02 11:10:31  5-MIN KDBQ 141710Z 01006KT 6SM HZ BKN110 04/02 A2991 1090 82 100 010/06 RMK AO2
94908KDBQ DBQ20021114111509811/14/02 11:15:31  5-MIN KDBQ 141715Z 02005KT 6SM HZ BKN110 04/02 A2990 1100 82 100 020/05 RMK AO2
94908KDBQ DBQ20021114112009811/14/02 11:20:31  5-MIN KDBQ 141720Z 02006KT 6SM HZ SCT100 04/02 A2990 1100 82 100 020/06 RMK AO2
94908KDBQ DBQ20021114112509811/14/02 11:25:31  5-MIN KDBQ 141725Z 02007KT 6SM HZ FEW100 04/02 A2990 1100 82 100 020/07 RMK AO2
94908KDBQ DBQ20021114113009811/14/02 11:30:31  5-MIN KDBQ 141730Z 02007KT 6SM HZ FEW100 04/02 A2990 1100 82 100 010/07 RMK AO2
94908KDBQ DBQ20021114113510511/14/02 11:35:31  5-MIN KDBQ 141735Z 02007KT 6SM HZ SCT015 SCT100 05/02 A2989 1100 79 200 020/07 RMK AO2
94908KDBQ DBQ20021114114009811/14/02 11:40:31  5-MIN KDBQ 141740Z 01007KT 6SM HZ BKN015 04/02 A2989 1110 82 100 010/07 RMK AO2
94908KDBQ DBQ20021114114509811/14/02 11:45:31  5-MIN KDBQ 141745Z 36007KT 6SM HZ BKN015 05/02 A2989 1110 79 200 360/07 RMK AO2
94908KDBQ DBQ20021114115013311/14/02 11:50:31  5-MIN KDBQ 141750Z 01006KT 6SM HZ BKN015 05/02 A2989 1110 79 200 010/06 RMK AO2 SLP128 T00500017 10050 20011 53021
94908KDBQ DBQ20021114115513311/14/02 11:55:31  5-MIN KDBQ 141755Z 01007KT 6SM HZ OVC015 05/02 A2989 1110 79 200 010/07 RMK AO2 SLP128 T00500017 10050 20011 58005
94908KDBQ DBQ20021114120009811/14/02 12:00:31  5-MIN KDBQ 141800Z 35007KT 6SM HZ OVC015 05/02 A2989 1110 79 200 350/07 RMK AO2
94908KDBQ DBQ20021114120509811/14/02 12:05:31  5-MIN KDBQ 141805Z 35007KT 6SM HZ OVC015 05/02 A2989 1110 79 200 350/07 RMK AO2
94908KDBQ DBQ20021114121009811/14/02 12:10:31  5-MIN KDBQ 141810Z 36007KT 6SM HZ OVC015 05/02 A2989 1110 79 200 350/07 RMK AO2
94908KDBQ DBQ20021114121509811/14/02 12:15:31  5-MIN KDBQ 141815Z 35007KT 6SM HZ OVC015 05/02 A2989 1110 79 200 350/07 RMK AO2
94908KDBQ DBQ20021114122009811/14/02 12:20:31  5-MIN KDBQ 141820Z 35008KT 6SM HZ OVC015 05/02 A2989 1110 79 200 340/08 RMK AO2
94908KDBQ DBQ20021114122509811/14/02 12:25:31  5-MIN KDBQ 141825Z 34009KT 6SM HZ OVC015 05/02 A2989 1110 79 200 340/09 RMK AO2
94908KDBQ DBQ20021114123009811/14/02 12:30:31  5-MIN KDBQ 141830Z 34008KT 6SM HZ OVC015 05/02 A2989 1110 79 200 340/08 RMK AO2
94908KDBQ DBQ20021114123509811/14/02 12:35:31  5-MIN KDBQ 141835Z 33010KT 6SM HZ OVC015 04/02 A2989 1110 82 100 330/10 RMK AO2
94908KDBQ DBQ20021114124009811/14/02 12:40:31  5-MIN KDBQ 141840Z 35008KT 6SM HZ OVC015 04/02 A2988 1110 82 100 350/08 RMK AO2
94908KDBQ DBQ20021114124509811/14/02 12:45:31  5-MIN KDBQ 141845Z 34008KT 6SM HZ OVC015 04/01 A2988 1110 79 100 340/08 RMK AO2
94908KDBQ DBQ20021114125011511/14/02 12:50:31  5-MIN KDBQ 141850Z 36007KT 6SM HZ OVC015 04/01 A2988 1110 79 100 360/07 RMK AO2 SLP128 T00440011
94908KDBQ DBQ20021114125511511/14/02 12:55:31  5-MIN KDBQ 141855Z 34009KT 6SM HZ OVC015 05/02 A2989 1110 79 200 340/09 RMK AO2 SLP129 T00500017
94908KDBQ DBQ20021114130009811/14/02 13:00:31  5-MIN KDBQ 141900Z 36007KT 6SM HZ OVC015 05/01 A2989 1110 76 200 360/07 RMK AO2
94908KDBQ DBQ20021114130509811/14/02 13:05:31  5-MIN KDBQ 141905Z 36005KT 6SM HZ OVC017 05/02 A2989 1110 79 200 360/05 RMK AO2
94908KDBQ DBQ20021114131009811/14/02 13:10:31  5-MIN KDBQ 141910Z 36007KT 6SM HZ OVC017 05/01 A2989 1110 76 200 350/07 RMK AO2
94908KDBQ DBQ20021114131509811/14/02 13:15:31  5-MIN KDBQ 141915Z 34010KT 6SM HZ OVC017 05/01 A2989 1110 76 200 340/10 RMK AO2
94908KDBQ DBQ20021114132009811/14/02 13:20:31  5-MIN KDBQ 141920Z 34009KT 6SM HZ OVC017 04/01 A2989 1100 79 100 340/09 RMK AO2
94908KDBQ DBQ20021114132509811/14/02 13:25:31  5-MIN KDBQ 141925Z 35007KT 5SM HZ OVC017 05/01 A2989 1100 76 200 350/07 RMK AO2
94908KDBQ DBQ20021114133009811/14/02 13:30:31  5-MIN KDBQ 141930Z 34008KT 5SM HZ OVC017 04/01 A2989 1100 79 100 340/08 RMK AO2
94908KDBQ DBQ20021114133509811/14/02 13:35:31  5-MIN KDBQ 141935Z 34009KT 5SM HZ OVC017 04/01 A2989 1100 79 100 340/09 RMK AO2
94908KDBQ DBQ20021114134009811/14/02 13:40:31  5-MIN KDBQ 141940Z 35009KT 5SM HZ OVC017 04/01 A2989 1100 79 100 350/09 RMK AO2
94908KDBQ DBQ20021114134509811/14/02 13:45:31  5-MIN KDBQ 141945Z 35008KT 5SM HZ OVC017 04/01 A2989 1110 79 100 350/08 RMK AO2
94908KDBQ DBQ20021114135011511/14/02 13:50:31  5-MIN KDBQ 141950Z 34008KT 5SM HZ OVC017 04/01 A2989 1110 79 100 340/08 RMK AO2 SLP130 T00440011
94908KDBQ DBQ20021114135511511/14/02 13:55:31  5-MIN KDBQ 141955Z 35008KT 5SM HZ OVC017 04/01 A2989 1110 79 100 350/08 RMK AO2 SLP130 T00440011
94908KDBQ DBQ20021114140009811/14/02 14:00:31  5-MIN KDBQ 142000Z 35007KT 5SM HZ OVC017 04/01 A2989 1110 79 100 340/07 RMK AO2
94908KDBQ DBQ20021114140509811/14/02 14:05:31  5-MIN KDBQ 142005Z 36010KT 5SM HZ OVC017 04/01 A2989 1110 76 100 360/10 RMK AO2
94908KDBQ DBQ20021114141009811/14/02 14:10:31  5-MIN KDBQ 142010Z 36009KT 5SM HZ OVC017 04/01 A2989 1110 79 100 360/09 RMK AO2
94908KDBQ DBQ20021114141509811/14/02 14:15:31  5-MIN KDBQ 142015Z 35008KT 5SM HZ OVC017 04/01 A2989 1110 76 100 350/08 RMK AO2
94908KDBQ DBQ20021114142009811/14/02 14:20:31  5-MIN KDBQ 142020Z 36008KT 5SM HZ OVC017 04/01 A2989 1110 79 100 350/08 RMK AO2
94908KDBQ DBQ20021114142509811/14/02 14:25:31  5-MIN KDBQ 142025Z 01009KT 5SM HZ OVC017 04/01 A2989 1110 79 100 010/09 RMK AO2
94908KDBQ DBQ20021114143009811/14/02 14:30:31  5-MIN KDBQ 142030Z 01010KT 5SM HZ OVC017 04/01 A2989 1110 79 100 010/10 RMK AO2
94908KDBQ DBQ20021114143509811/14/02 14:35:31  5-MIN KDBQ 142035Z 01009KT 5SM HZ OVC017 04/01 A2989 1110 79 100 010/09 RMK AO2
94908KDBQ DBQ20021114144009811/14/02 14:40:31  5-MIN KDBQ 142040Z 36006KT 5SM HZ OVC017 04/01 A2989 1110 79 100 360/06 RMK AO2
94908KDBQ DBQ20021114144509811/14/02 14:45:31  5-MIN KDBQ 142045Z 36006KT 5SM HZ OVC017 04/01 A2989 1110 79 100 360/06 RMK AO2
94908KDBQ DBQ20021114145012111/14/02 14:50:31  5-MIN KDBQ 142050Z 03007KT 5SM HZ OVC017 04/01 A2989 1110 79 100 030/07 RMK AO2 SLP131 T00390006 58005
94908KDBQ DBQ20021114145512111/14/02 14:55:31  5-MIN KDBQ 142055Z 03009KT 5SM HZ OVC017 04/01 A2989 1100 79 100 030/09 RMK AO2 SLP132 T00390006 53003
94908KDBQ DBQ20021114150009811/14/02 15:00:31  5-MIN KDBQ 142100Z 03007KT 5SM HZ OVC017 04/01 A2990 1100 79 100 030/07 RMK AO2
94908KDBQ DBQ20021114150509811/14/02 15:05:31  5-MIN KDBQ 142105Z 02007KT 5SM HZ OVC017 04/01 A2990 1100 79 100 020/07 RMK AO2
94908KDBQ DBQ20021114151009811/14/02 15:10:31  5-MIN KDBQ 142110Z 02008KT 5SM HZ OVC017 04/01 A2990 1090 79 100 020/08 RMK AO2
94908KDBQ DBQ20021114151509811/14/02 15:15:31  5-MIN KDBQ 142115Z 02008KT 5SM HZ OVC017 04/00 A2990 1100 76 100 020/08 RMK AO2
94908KDBQ DBQ20021114152009811/14/02 15:20:31  5-MIN KDBQ 142120Z 02008KT 5SM HZ OVC017 04/01 A2990 1100 79 100 010/08 RMK AO2
94908KDBQ DBQ20021114152509811/14/02 15:25:31  5-MIN KDBQ 142125Z 01008KT 5SM HZ OVC017 04/00 A2990 1090 76 100 010/08 RMK AO2
94908KDBQ DBQ20021114153009811/14/02 15:30:31  5-MIN KDBQ 142130Z 01009KT 5SM HZ OVC017 04/00 A2990 1090 76 100 010/09 RMK AO2
94908KDBQ DBQ20021114153509811/14/02 15:35:31  5-MIN KDBQ 142135Z 01008KT 5SM HZ OVC017 04/00 A2990 1100 76 100 360/08 RMK AO2
94908KDBQ DBQ20021114154009611/14/02 15:40:31  5-MIN KDBQ 142140Z 02008KT 5SM HZ OVC017 03/00 A2991 1090 79 0 020/08 RMK AO2
94908KDBQ DBQ20021114154509611/14/02 15:45:31  5-MIN KDBQ 142145Z 01007KT 5SM HZ OVC017 03/00 A2991 1090 79 0 010/07 RMK AO2
94908KDBQ DBQ20021114155011311/14/02 15:50:31  5-MIN KDBQ 142150Z 36007KT 5SM HZ OVC017 03/00 A2991 1090 79 0 360/07 RMK AO2 SLP137 T00330000
94908KDBQ DBQ20021114155511311/14/02 15:55:31  5-MIN KDBQ 142155Z 35007KT 5SM HZ OVC017 03/00 A2991 1090 79 0 350/07 RMK AO2 SLP138 T00330000
94908KDBQ DBQ20021114160009611/14/02 16:00:31  5-MIN KDBQ 142200Z 34008KT 5SM HZ OVC017 03/00 A2991 1080 79 0 340/08 RMK AO2
94908KDBQ DBQ20021114160509611/14/02 16:05:31  5-MIN KDBQ 142205Z 35007KT 5SM HZ OVC017 03/00 A2991 1080 79 0 350/07 RMK AO2
94908KDBQ DBQ20021114161009611/14/02 16:10:31  5-MIN KDBQ 142210Z 35006KT 5SM HZ OVC017 03/00 A2991 1080 79 0 350/06 RMK AO2
94908KDBQ DBQ20021114161509611/14/02 16:15:31  5-MIN KDBQ 142215Z 35007KT 5SM HZ OVC017 03/00 A2991 1090 79 0 350/07 RMK AO2
94908KDBQ DBQ20021114162009611/14/02 16:20:31  5-MIN KDBQ 142220Z 36007KT 5SM HZ OVC017 03/00 A2991 1090 79 0 360/07 RMK AO2
94908KDBQ DBQ20021114162509611/14/02 16:25:31  5-MIN KDBQ 142225Z 36008KT 5SM HZ OVC017 03/00 A2991 1080 79 0 360/08 RMK AO2
94908KDBQ DBQ20021114163009611/14/02 16:30:31  5-MIN KDBQ 142230Z 36007KT 5SM HZ OVC019 03/00 A2991 1090 79 0 360/07 RMK AO2
94908KDBQ DBQ20021114163509611/14/02 16:35:31  5-MIN KDBQ 142235Z 36006KT 5SM HZ OVC019 03/00 A2991 1080 79 0 360/06 RMK AO2
94908KDBQ DBQ20021114164009611/14/02 16:40:31  5-MIN KDBQ 142240Z 35008KT 5SM HZ OVC019 03/00 A2992 1080 79 0 350/08 RMK AO2
94908KDBQ DBQ20021114164509611/14/02 16:45:31  5-MIN KDBQ 142245Z 34007KT 5SM HZ OVC019 03/00 A2992 1080 79 0 340/07 RMK AO2
94908KDBQ DBQ20021114165011611/14/02 16:50:31  5-MIN KDBQ 142250Z 35007KT 5SM HZ OVC019 03/00 A2992 1080 82 -100 350/07 RMK AO2 SLP141 T00280000
94908KDBQ DBQ20021114165511311/14/02 16:55:31  5-MIN KDBQ 142255Z 36007KT 6SM HZ OVC019 03/00 A2992 1080 82 0 360/07 RMK AO2 SLP139 T00280000
94908KDBQ DBQ20021114170009411/14/02 17:00:31  5-MIN KDBQ 142300Z 01007KT 7SM OVC019 03/M01 A2991 1080 79 0 010/07 RMK AO2
94908KDBQ DBQ20021114170509411/14/02 17:05:31  5-MIN KDBQ 142305Z 35007KT 7SM OVC019 03/M01 A2992 1080 79 0 350/07 RMK AO2
94908KDBQ DBQ20021114171009711/14/02 17:10:31  5-MIN KDBQ 142310Z 35006KT 7SM OVC019 03/M01 A2992 1080 79 -100 350/06 RMK AO2
94908KDBQ DBQ20021114171509711/14/02 17:15:31  5-MIN KDBQ 142315Z 36008KT 7SM OVC019 03/M01 A2992 1080 79 -100 360/08 RMK AO2
94908KDBQ DBQ20021114172009711/14/02 17:20:31  5-MIN KDBQ 142320Z 36006KT 7SM OVC019 03/M01 A2992 1080 79 -100 360/06 RMK AO2
94908KDBQ DBQ20021114172509711/14/02 17:25:31  5-MIN KDBQ 142325Z 36008KT 7SM OVC019 03/M01 A2992 1080 79 -100 360/08 RMK AO2
94908KDBQ DBQ20021114173009711/14/02 17:30:31  5-MIN KDBQ 142330Z 36007KT 7SM OVC021 03/M01 A2992 1080 79 -100 350/07 RMK AO2
94908KDBQ DBQ20021114173509711/14/02 17:35:31  5-MIN KDBQ 142335Z 36008KT 7SM OVC021 03/M01 A2992 1080 79 -100 360/08 RMK AO2
94908KDBQ DBQ20021114174009711/14/02 17:40:31  5-MIN KDBQ 142340Z 36007KT 7SM OVC021 03/M01 A2992 1080 79 -100 360/07 RMK AO2
94908KDBQ DBQ20021114174509711/14/02 17:45:31  5-MIN KDBQ 142345Z 35008KT 7SM OVC021 03/M01 A2992 1070 79 -100 350/08 RMK AO2
94908KDBQ DBQ20021114175013211/14/02 17:50:31  5-MIN KDBQ 142350Z 36006KT 7SM OVC019 03/M01 A2993 1070 79 -100 360/06 RMK AO2 SLP142 T00281006 10050 20028 53003
94908KDBQ DBQ20021114175513211/14/02 17:55:31  5-MIN KDBQ 142355Z 36007KT 7SM OVC019 03/M01 A2993 1070 79 -100 360/07 RMK AO2 SLP144 T00281006 10050 20028 51012
94908KDBQ DBQ20021114180009711/14/02 18:00:31  5-MIN KDBQ 150000Z 34007KT 7SM OVC019 03/M01 A2993 1070 79 -100 340/07 RMK AO2
94908KDBQ DBQ20021114180509711/14/02 18:05:31  5-MIN KDBQ 150005Z 35007KT 7SM OVC019 03/M01 A2994 1060 79 -100 350/07 RMK AO2
94908KDBQ DBQ20021114181010011/14/02 18:10:31  5-MIN KDBQ 150010Z 35007KT 6SM HZ OVC019 03/M01 A2994 1060 79 -100 350/07 RMK AO2
94908KDBQ DBQ20021114181509711/14/02 18:15:31  5-MIN KDBQ 150015Z 35007KT 7SM OVC019 03/M01 A2994 1060 79 -100 350/07 RMK AO2
94908KDBQ DBQ20021114182009711/14/02 18:20:31  5-MIN KDBQ 150020Z 36006KT 7SM OVC019 03/M01 A2994 1060 79 -100 360/06 RMK AO2
94908KDBQ DBQ20021114182509711/14/02 18:25:31  5-MIN KDBQ 150025Z 35008KT 7SM OVC019 03/M01 A2994 1060 79 -100 350/08 RMK AO2
94908KDBQ DBQ20021114183009711/14/02 18:30:31  5-MIN KDBQ 150030Z 35007KT 7SM OVC017 03/M01 A2994 1060 79 -100 350/07 RMK AO2
94908KDBQ DBQ20021114183509711/14/02 18:35:31  5-MIN KDBQ 150035Z 36008KT 7SM OVC017 03/M01 A2993 1070 79 -100 360/08 RMK AO2
94908KDBQ DBQ20021114184009711/14/02 18:40:31  5-MIN KDBQ 150040Z 36007KT 7SM OVC017 03/M01 A2993 1070 79 -100 360/07 RMK AO2
94908KDBQ DBQ20021114184509711/14/02 18:45:31  5-MIN KDBQ 150045Z 35007KT 7SM OVC017 03/M01 A2994 1060 79 -100 350/07 RMK AO2
94908KDBQ DBQ20021114185011411/14/02 18:50:31  5-MIN KDBQ 150050Z 35007KT 7SM OVC017 02/M01 A2993 1070 82 -100 350/07 RMK AO2 SLP146 T00221006
94908KDBQ DBQ20021114185511411/14/02 18:55:31  5-MIN KDBQ 150055Z 35009KT 7SM OVC017 02/M01 A2993 1070 82 -100 350/09 RMK AO2 SLP146 T00221006
94908KDBQ DBQ20021114190009711/14/02 19:00:31  5-MIN KDBQ 150100Z 35008KT 7SM OVC019 02/M01 A2994 1060 82 -100 350/08 RMK AO2
94908KDBQ DBQ20021114190509711/14/02 19:05:31  5-MIN KDBQ 150105Z 36009KT 7SM OVC019 02/M01 A2994 1060 82 -100 350/09 RMK AO2
94908KDBQ DBQ20021114191009711/14/02 19:10:31  5-MIN KDBQ 150110Z 36006KT 8SM OVC019 02/M01 A2993 1070 78 -100 360/06 RMK AO2
94908KDBQ DBQ20021114191509711/14/02 19:15:31  5-MIN KDBQ 150115Z 01007KT 8SM OVC019 02/M01 A2993 1060 78 -100 360/07 RMK AO2
94908KDBQ DBQ20021114192009711/14/02 19:20:31  5-MIN KDBQ 150120Z 36007KT 8SM OVC019 02/M01 A2994 1060 78 -100 360/07 RMK AO2
94908KDBQ DBQ20021114192509711/14/02 19:25:31  5-MIN KDBQ 150125Z 36008KT 8SM OVC019 02/M01 A2994 1060 78 -100 360/08 RMK AO2
94908KDBQ DBQ20021114193009711/14/02 19:30:31  5-MIN KDBQ 150130Z 36009KT 8SM OVC019 02/M01 A2994 1060 78 -100 360/09 RMK AO2
94908KDBQ DBQ20021114193510711/14/02 19:35:31  5-MIN KDBQ 150135Z AUTO 36007KT 9SM OVC019 02/M01 A2994 1060 78 -100 360/07 RMK AO2 TSNO
94908KDBQ DBQ20021114194010711/14/02 19:40:31  5-MIN KDBQ 150140Z AUTO 36007KT 9SM OVC019 02/M01 A2994 1060 78 -100 360/07 RMK AO2 TSNO
94908KDBQ DBQ20021114194510711/14/02 19:45:31  5-MIN KDBQ 150145Z AUTO 36008KT 9SM OVC019 02/M01 A2994 1060 78 -100 360/08 RMK AO2 TSNO
94908KDBQ DBQ20021114195012411/14/02 19:50:31  5-MIN KDBQ 150150Z AUTO 01006KT 9SM OVC021 02/M01 A2994 1060 82 -200 010/06 RMK AO2 SLP148 T00171011 TSNO
94908KDBQ DBQ20021114195512411/14/02 19:55:31  5-MIN KDBQ 150155Z AUTO 02007KT 9SM OVC021 02/M01 A2994 1060 82 -200 010/07 RMK AO2 SLP148 T00171011 TSNO
94908KDBQ DBQ20021114200010711/14/02 20:00:31  5-MIN KDBQ 150200Z AUTO 01008KT 9SM OVC021 02/M01 A2994 1060 82 -200 010/08 RMK AO2 TSNO
94908KDBQ DBQ20021114200510711/14/02 20:05:31  5-MIN KDBQ 150205Z AUTO 35006KT 9SM OVC021 02/M01 A2994 1060 82 -200 350/06 RMK AO2 TSNO
94908KDBQ DBQ20021114201011411/14/02 20:10:31  5-MIN KDBQ 150210Z AUTO 35008KT 9SM BKN017 OVC023 02/M01 A2995 1060 82 -200 350/08 RMK AO2 TSNO
94908KDBQ DBQ20021114201511411/14/02 20:15:31  5-MIN KDBQ 150215Z AUTO 36007KT 9SM BKN017 OVC023 02/M01 A2995 1050 82 -200 350/07 RMK AO2 TSNO
94908KDBQ DBQ20021114202010711/14/02 20:20:31  5-MIN KDBQ 150220Z AUTO 35006KT 9SM OVC019 02/M01 A2995 1050 82 -200 350/06 RMK AO2 TSNO
94908KDBQ DBQ20021114202510711/14/02 20:25:31  5-MIN KDBQ 150225Z AUTO 36006KT 9SM OVC019 02/M01 A2995 1050 82 -200 360/06 RMK AO2 TSNO
94908KDBQ DBQ20021114203010711/14/02 20:30:31  5-MIN KDBQ 150230Z AUTO 36007KT 9SM OVC019 02/M01 A2995 1050 82 -200 360/07 RMK AO2 TSNO
94908KDBQ DBQ20021114203510711/14/02 20:35:31  5-MIN KDBQ 150235Z AUTO 01007KT 9SM OVC017 02/M01 A2995 1050 82 -200 010/07 RMK AO2 TSNO
94908KDBQ DBQ20021114204010711/14/02 20:40:31  5-MIN KDBQ 150240Z AUTO 36007KT 9SM OVC017 02/M01 A2995 1050 82 -200 360/07 RMK AO2 TSNO
94908KDBQ DBQ20021114204510711/14/02 20:45:31  5-MIN KDBQ 150245Z AUTO 36007KT 9SM OVC017 02/M01 A2995 1050 82 -200 360/07 RMK AO2 TSNO
94908KDBQ DBQ20021114205013011/14/02 20:50:31  5-MIN KDBQ 150250Z AUTO 01006KT 9SM OVC017 02/M01 A2995 1050 82 -200 010/06 RMK AO2 SLP152 T00171011 51012 TSNO
94908KDBQ DBQ20021114205513011/14/02 20:55:31  5-MIN KDBQ 150255Z AUTO 36006KT 9SM OVC017 02/M01 A2995 1050 82 -200 360/06 RMK AO2 SLP153 T00171011 53007 TSNO
94908KDBQ DBQ20021114210010711/14/02 21:00:31  5-MIN KDBQ 150300Z AUTO 36005KT 9SM OVC017 02/M01 A2995 1050 82 -200 360/05 RMK AO2 TSNO
94908KDBQ DBQ20021114210510711/14/02 21:05:31  5-MIN KDBQ 150305Z AUTO 01006KT 9SM OVC017 02/M01 A2996 1050 82 -200 010/06 RMK AO2 TSNO
94908KDBQ DBQ20021114211010711/14/02 21:10:31  5-MIN KDBQ 150310Z AUTO 36005KT 9SM OVC017 02/M01 A2996 1040 82 -200 360/05 RMK AO2 TSNO
94908KDBQ DBQ20021114211510711/14/02 21:15:31  5-MIN KDBQ 150315Z AUTO 01005KT 9SM OVC017 02/M01 A2996 1040 82 -200 010/05 RMK AO2 TSNO
94908KDBQ DBQ20021114212010711/14/02 21:20:31  5-MIN KDBQ 150320Z AUTO 01006KT 9SM OVC017 02/M01 A2996 1040 82 -200 010/06 RMK AO2 TSNO
94908KDBQ DBQ20021114212510711/14/02 21:25:31  5-MIN KDBQ 150325Z AUTO 01006KT 9SM OVC017 02/M01 A2996 1040 82 -200 010/06 RMK AO2 TSNO
94908KDBQ DBQ20021114213010711/14/02 21:30:31  5-MIN KDBQ 150330Z AUTO 36006KT 9SM OVC017 02/M01 A2996 1040 82 -200 360/06 RMK AO2 TSNO
94908KDBQ DBQ20021114213510711/14/02 21:35:31  5-MIN KDBQ 150335Z AUTO 35005KT 9SM OVC017 02/M01 A2997 1040 82 -200 350/05 RMK AO2 TSNO
94908KDBQ DBQ20021114214010711/14/02 21:40:31  5-MIN KDBQ 150340Z AUTO 36005KT 9SM OVC017 02/M01 A2997 1030 82 -200 360/05 RMK AO2 TSNO
94908KDBQ DBQ20021114214510711/14/02 21:45:31  5-MIN KDBQ 150345Z AUTO 36005KT 9SM OVC017 02/M01 A2997 1030 82 -200 360/05 RMK AO2 TSNO
94908KDBQ DBQ20021114215012411/14/02 21:50:31  5-MIN KDBQ 150350Z AUTO 35005KT 9SM OVC017 02/M01 A2997 1030 82 -300 350/05 RMK AO2 SLP158 T00171011 TSNO
94908KDBQ DBQ20021114215512411/14/02 21:55:31  5-MIN KDBQ 150355Z AUTO 36005KT 9SM OVC017 02/M01 A2997 1030 82 -300 360/05 RMK AO2 SLP158 T00171011 TSNO
94908KDBQ DBQ20021114220010711/14/02 22:00:31  5-MIN KDBQ 150400Z AUTO 36006KT 9SM OVC017 02/M01 A2997 1030 82 -300 360/06 RMK AO2 TSNO
94908KDBQ DBQ20021114220510711/14/02 22:05:31  5-MIN KDBQ 150405Z AUTO 01005KT 9SM OVC017 02/M01 A2997 1030 82 -200 010/05 RMK AO2 TSNO
94908KDBQ DBQ20021114221010711/14/02 22:10:31  5-MIN KDBQ 150410Z AUTO 36005KT 9SM OVC017 02/M01 A2997 1030 82 -200 360/05 RMK AO2 TSNO
94908KDBQ DBQ20021114221510711/14/02 22:15:31  5-MIN KDBQ 150415Z AUTO 01005KT 9SM OVC017 02/M01 A2997 1030 82 -200 010/05 RMK AO2 TSNO
94908KDBQ DBQ20021114222010711/14/02 22:20:31  5-MIN KDBQ 150420Z AUTO 36005KT 9SM OVC017 02/M01 A2997 1030 82 -300 360/05 RMK AO2 TSNO
94908KDBQ DBQ20021114222510711/14/02 22:25:31  5-MIN KDBQ 150425Z AUTO 36005KT 9SM OVC017 02/M01 A2997 1030 85 -300 350/05 RMK AO2 TSNO
94908KDBQ DBQ20021114223010711/14/02 22:30:31  5-MIN KDBQ 150430Z AUTO 36005KT 9SM OVC017 02/M01 A2997 1030 85 -300 360/05 RMK AO2 TSNO
94908KDBQ DBQ20021114223510711/14/02 22:35:31  5-MIN KDBQ 150435Z AUTO 35004KT 9SM OVC017 02/M01 A2997 1030 85 -300 350/04 RMK AO2 TSNO
94908KDBQ DBQ20021114224010711/14/02 22:40:31  5-MIN KDBQ 150440Z AUTO 35005KT 9SM OVC017 02/M01 A2997 1030 82 -300 350/05 RMK AO2 TSNO
94908KDBQ DBQ20021114224510711/14/02 22:45:31  5-MIN KDBQ 150445Z AUTO 35005KT 9SM OVC017 02/M01 A2998 1030 82 -300 350/05 RMK AO2 TSNO
94908KDBQ DBQ20021114225012511/14/02 22:50:31  5-MIN KDBQ 150450Z AUTO 35005KT 10SM OVC017 02/M01 A2998 1030 82 -300 350/05 RMK AO2 SLP160 T00171011 TSNO
94908KDBQ DBQ20021114225512511/14/02 22:55:31  5-MIN KDBQ 150455Z AUTO 35006KT 10SM OVC017 02/M01 A2998 1020 82 -300 350/06 RMK AO2 SLP160 T00171011 TSNO
94908KDBQ DBQ20021114230010811/14/02 23:00:31  5-MIN KDBQ 150500Z AUTO 35006KT 10SM OVC017 02/M01 A2998 1020 82 -300 350/06 RMK AO2 TSNO
94908KDBQ DBQ20021114230510811/14/02 23:05:31  5-MIN KDBQ 150505Z AUTO 35007KT 10SM OVC017 02/M01 A2998 1020 82 -300 350/07 RMK AO2 TSNO
94908KDBQ DBQ20021114231010811/14/02 23:10:31  5-MIN KDBQ 150510Z AUTO 35007KT 10SM OVC017 02/M01 A2998 1020 82 -300 350/07 RMK AO2 TSNO
94908KDBQ DBQ20021114231510811/14/02 23:15:31  5-MIN KDBQ 150515Z AUTO 35006KT 10SM OVC017 02/M01 A2998 1020 82 -300 350/06 RMK AO2 TSNO
94908KDBQ DBQ20021114232010811/14/02 23:20:31  5-MIN KDBQ 150520Z AUTO 35007KT 10SM OVC017 02/M02 A2998 1020 78 -300 350/07 RMK AO2 TSNO
94908KDBQ DBQ20021114232510811/14/02 23:25:31  5-MIN KDBQ 150525Z AUTO 35007KT 10SM OVC017 02/M02 A2998 1020 78 -300 350/07 RMK AO2 TSNO
94908KDBQ DBQ20021114233010811/14/02 23:30:31  5-MIN KDBQ 150530Z AUTO 34006KT 10SM OVC017 02/M02 A2998 1020 78 -300 340/06 RMK AO2 TSNO
94908KDBQ DBQ20021114233510811/14/02 23:35:31  5-MIN KDBQ 150535Z AUTO 36006KT 10SM OVC017 02/M02 A2999 1020 78 -300 350/06 RMK AO2 TSNO
94908KDBQ DBQ20021114234010811/14/02 23:40:31  5-MIN KDBQ 150540Z AUTO 34007KT 10SM OVC017 01/M02 A2999 1020 82 -300 340/07 RMK AO2 TSNO
94908KDBQ DBQ20021114234510811/14/02 23:45:31  5-MIN KDBQ 150545Z AUTO 34008KT 10SM OVC017 01/M02 A2999 1010 82 -300 340/08 RMK AO2 TSNO
94908KDBQ DBQ20021114235015311/14/02 23:50:31  5-MIN KDBQ 150550Z AUTO 34008KT 10SM OVC017 01/M02 A2999 1010 82 -300 340/08 RMK AO2 SLP165 T00111017 10028 20011 400500011 53007 TSNO
94908KDBQ DBQ20021114235515311/14/02 23:55:31  5-MIN KDBQ 150555Z AUTO 35007KT 10SM OVC017 01/M02 A2999 1010 82 -300 350/07 RMK AO2 SLP164 T00111017 10028 20011 400500011 51012 TSNO
94908KDBQ DBQ20021115000010811/15/02 00:00:31  5-MIN KDBQ 150600Z AUTO 35007KT 10SM OVC017 01/M02 A2999 1010 82 -300 340/07 RMK AO2 TSNO
94908KDBQ DBQ20021115000510811/15/02 00:05:31  5-MIN KDBQ 150605Z AUTO 35008KT 10SM OVC017 01/M02 A2999 1010 82 -300 350/08 RMK AO2 TSNO
94908KDBQ DBQ20021115001010811/15/02 00:10:31  5-MIN KDBQ 150610Z AUTO 35009KT 10SM OVC017 01/M02 A2999 1010 78 -300 350/09 RMK AO2 TSNO
94908KDBQ DBQ20021115001510811/15/02 00:15:31  5-MIN KDBQ 150615Z AUTO 35008KT 10SM OVC017 01/M02 A2999 1010 78 -300 350/08 RMK AO2 TSNO
94908KDBQ DBQ20021115002010811/15/02 00:20:31  5-MIN KDBQ 150620Z AUTO 35007KT 10SM OVC017 01/M02 A2999 1010 78 -300 350/07 RMK AO2 TSNO
94908KDBQ DBQ20021115002510811/15/02 00:25:31  5-MIN KDBQ 150625Z AUTO 35008KT 10SM OVC017 01/M02 A2999 1010 78 -300 350/08 RMK AO2 TSNO
94908KDBQ DBQ20021115003010811/15/02 00:30:31  5-MIN KDBQ 150630Z AUTO 35005KT 10SM OVC017 01/M02 A2999 1010 78 -300 350/05 RMK AO2 TSNO
94908KDBQ DBQ20021115003510811/15/02 00:35:31  5-MIN KDBQ 150635Z AUTO 35005KT 10SM OVC017 01/M02 A2999 1010 82 -300 350/05 RMK AO2 TSNO
94908KDBQ DBQ20021115004010811/15/02 00:40:31  5-MIN KDBQ 150640Z AUTO 34007KT 10SM OVC017 01/M02 A2999 1010 82 -300 340/07 RMK AO2 TSNO
94908KDBQ DBQ20021115004510811/15/02 00:45:31  5-MIN KDBQ 150645Z AUTO 34006KT 10SM OVC017 01/M02 A2999 1010 78 -300 340/06 RMK AO2 TSNO
94908KDBQ DBQ20021115005012511/15/02 00:50:31  5-MIN KDBQ 150650Z AUTO 35007KT 10SM OVC017 01/M02 A2999 1010 78 -300 350/07 RMK AO2 SLP166 T00111022 TSNO
94908KDBQ DBQ20021115005512511/15/02 00:55:31  5-MIN KDBQ 150655Z AUTO 35007KT 10SM OVC017 01/M02 A2999 1010 78 -300 350/07 RMK AO2 SLP165 T00111022 TSNO
94908KDBQ DBQ20021115010010811/15/02 01:00:31  5-MIN KDBQ 150700Z AUTO 35007KT 10SM OVC017 01/M02 A2999 1010 78 -300 350/07 RMK AO2 TSNO
94908KDBQ DBQ20021115010510811/15/02 01:05:31  5-MIN KDBQ 150705Z AUTO 35007KT 10SM OVC017 01/M02 A2999 1010 78 -300 350/07 RMK AO2 TSNO
94908KDBQ DBQ20021115011010811/15/02 01:10:31  5-MIN KDBQ 150710Z AUTO 36009KT 10SM OVC019 01/M02 A2999 1010 78 -300 360/09 RMK AO2 TSNO
94908KDBQ DBQ20021115011510811/15/02 01:15:31  5-MIN KDBQ 150715Z AUTO 36007KT 10SM OVC019 01/M03 A2999 1010 75 -300 360/07 RMK AO2 TSNO
94908KDBQ DBQ20021115012010811/15/02 01:20:31  5-MIN KDBQ 150720Z AUTO 36008KT 10SM OVC019 01/M03 A2999 1010 75 -300 350/08 RMK AO2 TSNO
94908KDBQ DBQ20021115012510811/15/02 01:25:31  5-MIN KDBQ 150725Z AUTO 36007KT 10SM OVC019 01/M03 A2999 1010 75 -300 360/07 RMK AO2 TSNO
94908KDBQ DBQ20021115013010811/15/02 01:30:31  5-MIN KDBQ 150730Z AUTO 36007KT 10SM OVC021 01/M03 A2999 1020 75 -300 360/07 RMK AO2 TSNO
94908KDBQ DBQ20021115013510811/15/02 01:35:31  5-MIN KDBQ 150735Z AUTO 36007KT 10SM OVC021 01/M03 A2999 1020 75 -300 360/07 RMK AO2 TSNO
94908KDBQ DBQ20021115014010811/15/02 01:40:31  5-MIN KDBQ 150740Z AUTO 36006KT 10SM OVC021 01/M02 A2999 1020 78 -300 360/06 RMK AO2 TSNO
94908KDBQ DBQ20021115014510811/15/02 01:45:31  5-MIN KDBQ 150745Z AUTO 36006KT 10SM OVC023 01/M03 A2999 1010 75 -300 360/06 RMK AO2 TSNO
94908KDBQ DBQ20021115015012511/15/02 01:50:31  5-MIN KDBQ 150750Z AUTO 36005KT 10SM OVC023 01/M03 A2999 1010 75 -300 360/05 RMK AO2 SLP165 T00111028 TSNO
94908KDBQ DBQ20021115015512511/15/02 01:55:31  5-MIN KDBQ 150755Z AUTO 36006KT 10SM OVC023 01/M03 A2999 1010 75 -300 360/06 RMK AO2 SLP166 T00111028 TSNO
94908KDBQ DBQ20021115020010811/15/02 02:00:31  5-MIN KDBQ 150800Z AUTO 01006KT 10SM OVC023 01/M03 A2999 1010 75 -300 010/06 RMK AO2 TSNO
94908KDBQ DBQ20021115020510811/15/02 02:05:31  5-MIN KDBQ 150805Z AUTO 36006KT 10SM OVC023 01/M03 A2999 1010 75 -300 360/06 RMK AO2 TSNO
94908KDBQ DBQ20021115021010811/15/02 02:10:31  5-MIN KDBQ 150810Z AUTO 01007KT 10SM OVC023 01/M03 A2999 1010 75 -300 010/07 RMK AO2 TSNO
94908KDBQ DBQ20021115021510811/15/02 02:15:31  5-MIN KDBQ 150815Z AUTO 01007KT 10SM OVC023 01/M03 A3000 1010 75 -300 010/07 RMK AO2 TSNO
94908KDBQ DBQ20021115022010811/15/02 02:20:31  5-MIN KDBQ 150820Z AUTO 36004KT 10SM OVC025 01/M03 A3000 1010 75 -400 360/04 RMK AO2 TSNO
94908KDBQ DBQ20021115022510811/15/02 02:25:31  5-MIN KDBQ 150825Z AUTO 01006KT 10SM OVC025 01/M03 A3000 1010 75 -400 010/06 RMK AO2 TSNO
94908KDBQ DBQ20021115023010811/15/02 02:30:31  5-MIN KDBQ 150830Z AUTO 01007KT 10SM OVC025 01/M03 A3000 1010 75 -400 010/07 RMK AO2 TSNO
94908KDBQ DBQ20021115023511511/15/02 02:35:31  5-MIN KDBQ 150835Z AUTO 01009KT 10SM BKN023 OVC029 01/M03 A3000 1010 78 -400 010/09 RMK AO2 TSNO
94908KDBQ DBQ20021115024011511/15/02 02:40:31  5-MIN KDBQ 150840Z AUTO 01010KT 10SM BKN023 OVC029 01/M03 A3000 1010 78 -400 010/10 RMK AO2 TSNO
94908KDBQ DBQ20021115024511511/15/02 02:45:31  5-MIN KDBQ 150845Z AUTO 01007KT 10SM BKN023 OVC029 01/M03 A3000 1000 78 -400 010/07 RMK AO2 TSNO
94908KDBQ DBQ20021115025013811/15/02 02:50:31  5-MIN KDBQ 150850Z AUTO 36007KT 10SM SCT023 OVC029 01/M03 A3000 1000 78 -400 360/07 RMK AO2 SLP170 T00061028 51012 TSNO
94908KDBQ DBQ20021115025513811/15/02 02:55:31  5-MIN KDBQ 150855Z AUTO 01008KT 10SM SCT023 OVC029 01/M03 A3000 1000 78 -400 010/08 RMK AO2 SLP169 T00061028 53004 TSNO
94908KDBQ DBQ20021115030011511/15/02 03:00:31  5-MIN KDBQ 150900Z AUTO 01007KT 10SM SCT023 OVC029 01/M03 A3000 1000 78 -400 010/07 RMK AO2 TSNO
94908KDBQ DBQ20021115030511511/15/02 03:05:31  5-MIN KDBQ 150905Z AUTO 01008KT 10SM BKN023 OVC029 01/M03 A3000 1000 78 -400 010/08 RMK AO2 TSNO
94908KDBQ DBQ20021115031011511/15/02 03:10:31  5-MIN KDBQ 150910Z AUTO 01007KT 10SM BKN023 OVC029 01/M03 A3000 1000 78 -400 010/07 RMK AO2 TSNO
94908KDBQ DBQ20021115031511511/15/02 03:15:31  5-MIN KDBQ 150915Z AUTO 01007KT 10SM BKN023 OVC029 01/M03 A3001 1000 78 -400 010/07 RMK AO2 TSNO
94908KDBQ DBQ20021115032011511/15/02 03:20:31  5-MIN KDBQ 150920Z AUTO 01007KT 10SM BKN023 OVC029 01/M03 A3001 1000 78 -400 360/07 RMK AO2 TSNO
94908KDBQ DBQ20021115032511511/15/02 03:25:31  5-MIN KDBQ 150925Z AUTO 01008KT 10SM BKN023 OVC029 01/M03 A3001 1000 78 -400 360/08 RMK AO2 TSNO
94908KDBQ DBQ20021115033011511/15/02 03:30:31  5-MIN KDBQ 150930Z AUTO 01007KT 10SM BKN023 OVC029 01/M03 A3001 1000 78 -400 010/07 RMK AO2 TSNO
94908KDBQ DBQ20021115033511511/15/02 03:35:31  5-MIN KDBQ 150935Z AUTO 02007KT 10SM BKN023 OVC029 01/M03 A3001 1000 78 -400 010/07 RMK AO2 TSNO
94908KDBQ DBQ20021115034011511/15/02 03:40:31  5-MIN KDBQ 150940Z AUTO 01006KT 10SM SCT023 OVC029 01/M03 A3001 1000 78 -400 010/06 RMK AO2 TSNO
94908KDBQ DBQ20021115034511411/15/02 03:45:31  5-MIN KDBQ 150945Z AUTO 01005KT 10SM BKN021 OVC029 01/M03 A3001 990 78 -400 010/05 RMK AO2 TSNO
94908KDBQ DBQ20021115035013111/15/02 03:50:31  5-MIN KDBQ 150950Z AUTO 36008KT 10SM BKN021 OVC029 01/M03 A3001 990 78 -400 360/08 RMK AO2 SLP173 T00061028 TSNO
94908KDBQ DBQ20021115035513111/15/02 03:55:31  5-MIN KDBQ 150955Z AUTO 35006KT 10SM BKN021 OVC029 01/M03 A3001 990 78 -400 350/06 RMK AO2 SLP173 T00061028 TSNO
94908KDBQ DBQ20021115040011411/15/02 04:00:31  5-MIN KDBQ 151000Z AUTO 35006KT 10SM BKN021 OVC029 01/M03 A3001 990 78 -400 350/06 RMK AO2 TSNO
94908KDBQ DBQ20021115040510711/15/02 04:05:31  5-MIN KDBQ 151005Z AUTO 35006KT 10SM OVC021 01/M03 A3001 990 78 -400 350/06 RMK AO2 TSNO
94908KDBQ DBQ20021115041010711/15/02 04:10:31  5-MIN KDBQ 151010Z AUTO 34007KT 10SM OVC021 00/M03 A3002 990 81 -500 340/07 RMK AO2 TSNO
94908KDBQ DBQ20021115041510711/15/02 04:15:31  5-MIN KDBQ 151015Z AUTO 35007KT 10SM OVC021 00/M03 A3002 990 81 -500 340/07 RMK AO2 TSNO
94908KDBQ DBQ20021115042011411/15/02 04:20:31  5-MIN KDBQ 151020Z AUTO 35006KT 10SM BKN021 OVC029 00/M03 A3002 990 81 -500 350/06 RMK AO2 TSNO
94908KDBQ DBQ20021115042511411/15/02 04:25:31  5-MIN KDBQ 151025Z AUTO 35007KT 10SM BKN021 OVC029 00/M03 A3002 990 81 -500 350/07 RMK AO2 TSNO
94908KDBQ DBQ20021115043011411/15/02 04:30:31  5-MIN KDBQ 151030Z AUTO 35007KT 10SM BKN021 OVC029 00/M03 A3002 980 81 -500 350/07 RMK AO2 TSNO
94908KDBQ DBQ20021115043511411/15/02 04:35:31  5-MIN KDBQ 151035Z AUTO 35007KT 10SM BKN021 OVC031 00/M03 A3002 980 81 -500 350/07 RMK AO2 TSNO
94908KDBQ DBQ20021115044011411/15/02 04:40:31  5-MIN KDBQ 151040Z AUTO 35007KT 10SM BKN021 OVC031 00/M03 A3003 980 81 -500 350/07 RMK AO2 TSNO
94908KDBQ DBQ20021115044511411/15/02 04:45:31  5-MIN KDBQ 151045Z AUTO 35007KT 10SM SCT021 OVC031 00/M03 A3003 980 81 -500 350/07 RMK AO2 TSNO
94908KDBQ DBQ20021115045013111/15/02 04:50:31  5-MIN KDBQ 151050Z AUTO 34008KT 10SM BKN021 OVC031 00/M03 A3003 980 81 -500 340/08 RMK AO2 SLP179 T00001028 TSNO
94908KDBQ DBQ20021115045513111/15/02 04:55:31  5-MIN KDBQ 151055Z AUTO 35007KT 10SM BKN019 OVC031 00/M03 A3003 980 81 -500 350/07 RMK AO2 SLP179 T00001028 TSNO
94908KDBQ DBQ20021115050011411/15/02 05:00:31  5-MIN KDBQ 151100Z AUTO 35008KT 10SM BKN019 OVC031 00/M03 A3003 980 78 -500 350/08 RMK AO2 TSNO
94908KDBQ DBQ20021115050511411/15/02 05:05:31  5-MIN KDBQ 151105Z AUTO 34008KT 10SM BKN019 OVC031 00/M03 A3003 980 78 -500 340/08 RMK AO2 TSNO
94908KDBQ DBQ20021115051010711/15/02 05:10:31  5-MIN KDBQ 151110Z AUTO 34008KT 10SM OVC019 00/M03 A3003 970 78 -500 340/08 RMK AO2 TSNO
94908KDBQ DBQ20021115051510711/15/02 05:15:31  5-MIN KDBQ 151115Z AUTO 35007KT 10SM OVC019 00/M03 A3003 970 78 -500 340/07 RMK AO2 TSNO
94908KDBQ DBQ20021115052010711/15/02 05:20:31  5-MIN KDBQ 151120Z AUTO 35007KT 10SM OVC019 00/M03 A3003 970 78 -500 350/07 RMK AO2 TSNO
94908KDBQ DBQ20021115052510711/15/02 05:25:31  5-MIN KDBQ 151125Z AUTO 35006KT 10SM OVC019 00/M03 A3003 970 78 -500 350/06 RMK AO2 TSNO
94908KDBQ DBQ20021115053010711/15/02 05:30:31  5-MIN KDBQ 151130Z AUTO 36006KT 10SM OVC019 00/M03 A3004 970 78 -500 360/06 RMK AO2 TSNO
94908KDBQ DBQ20021115053510711/15/02 05:35:31  5-MIN KDBQ 151135Z AUTO 36006KT 10SM OVC019 00/M03 A3004 970 78 -500 350/06 RMK AO2 TSNO
94908KDBQ DBQ20021115054010711/15/02 05:40:31  5-MIN KDBQ 151140Z AUTO 36007KT 10SM OVC017 00/M03 A3004 970 78 -500 360/07 RMK AO2 TSNO
94908KDBQ DBQ20021115054510811/15/02 05:45:31  5-MIN KDBQ 151145Z AUTO 36007KT 10SM OVC017 M01/M04 A3004 970 78 -600 360/07 RMK AO2 TSNO
94908KDBQ DBQ20021115055014311/15/02 05:50:31  5-MIN KDBQ 151150Z AUTO 36006KT 10SM OVC017 M01/M04 A3004 970 78 -600 360/06 RMK AO2 SLP183 T10061039 10011 21006 53004 TSNO
94908KDBQ DBQ20021115055513311/15/02 05:55:31  5-MIN KDBQ 151155Z 01006KT 10SM OVC017 M01/M03 A3004 970 81 -600 010/06 RMK AO2 SLP183 T10061033 10011 21006 53013
94908KDBQ DBQ20021115060009811/15/02 06:00:31  5-MIN KDBQ 151200Z 36006KT 10SM OVC017 M01/M03 A3004 970 81 -600 360/06 RMK AO2
94908KDBQ DBQ20021115060509811/15/02 06:05:31  5-MIN KDBQ 151205Z 02005KT 10SM OVC017 M01/M04 A3004 970 78 -600 020/05 RMK AO2
94908KDBQ DBQ20021115061009811/15/02 06:10:31  5-MIN KDBQ 151210Z 01005KT 10SM OVC017 M01/M03 A3004 960 81 -600 010/05 RMK AO2
94908KDBQ DBQ20021115061509811/15/02 06:15:31  5-MIN KDBQ 151215Z 01006KT 10SM OVC015 M01/M04 A3004 960 78 -600 010/06 RMK AO2
94908KDBQ DBQ20021115062009811/15/02 06:20:31  5-MIN KDBQ 151220Z 01006KT 10SM OVC015 M01/M03 A3005 960 81 -600 010/06 RMK AO2
94908KDBQ DBQ20021115062509811/15/02 06:25:31  5-MIN KDBQ 151225Z 01006KT 10SM OVC015 M01/M03 A3005 960 81 -600 010/06 RMK AO2
94908KDBQ DBQ20021115063009811/15/02 06:30:31  5-MIN KDBQ 151230Z 36005KT 10SM OVC015 M01/M03 A3005 960 81 -600 360/05 RMK AO2
94908KDBQ DBQ20021115063509811/15/02 06:35:31  5-MIN KDBQ 151235Z 36005KT 10SM OVC015 M01/M03 A3006 950 81 -600 360/05 RMK AO2
94908KDBQ DBQ20021115064009811/15/02 06:40:31  5-MIN KDBQ 151240Z 36005KT 10SM OVC015 M01/M03 A3006 950 81 -600 360/05 RMK AO2
94908KDBQ DBQ20021115064509811/15/02 06:45:31  5-MIN KDBQ 151245Z 36005KT 10SM OVC015 M01/M03 A3006 950 81 -600 360/05 RMK AO2
94908KDBQ DBQ20021115065011511/15/02 06:50:31  5-MIN KDBQ 151250Z 36004KT 10SM OVC015 M01/M03 A3006 950 81 -600 350/04 RMK AO2 SLP190 T10061033
94908KDBQ DBQ20021115065511511/15/02 06:55:31  5-MIN KDBQ 151255Z 36004KT 10SM OVC015 M01/M03 A3006 950 81 -600 360/04 RMK AO2 SLP191 T10061033
94908KDBQ DBQ20021115070009811/15/02 07:00:31  5-MIN KDBQ 151300Z 36004KT 10SM OVC013 M01/M03 A3007 940 81 -600 360/04 RMK AO2
94908KDBQ DBQ20021115070509711/15/02 07:05:31  5-MIN KDBQ 151305Z 36005KT 10SM OVC013 00/M03 A3007 940 78 -600 360/05 RMK AO2
94908KDBQ DBQ20021115071009711/15/02 07:10:31  5-MIN KDBQ 151310Z 01006KT 10SM OVC013 00/M03 A3007 940 81 -600 010/06 RMK AO2
94908KDBQ DBQ20021115071509611/15/02 07:15:31  5-MIN KDBQ 151315Z 01007KT 9SM OVC013 00/M03 A3006 950 81 -600 010/07 RMK AO2
94908KDBQ DBQ20021115072009611/15/02 07:20:31  5-MIN KDBQ 151320Z 02007KT 7SM OVC013 00/M03 A3007 940 81 -600 020/07 RMK AO2
94908KDBQ DBQ20021115072509611/15/02 07:25:31  5-MIN KDBQ 151325Z 03006KT 7SM OVC015 00/M03 A3007 940 81 -600 030/06 RMK AO2
94908KDBQ DBQ20021115073010611/15/02 07:30:31  5-MIN KDBQ 151330Z 01007KT 6SM HZ BKN015 OVC120 00/M03 A3007 940 81 -600 010/07 RMK AO2
94908KDBQ DBQ20021115073510611/15/02 07:35:31  5-MIN KDBQ 151335Z 02008KT 6SM HZ BKN015 BKN120 00/M03 A3008 930 81 -600 020/08 RMK AO2
94908KDBQ DBQ20021115074010611/15/02 07:40:31  5-MIN KDBQ 151340Z 01008KT 6SM HZ BKN015 BKN120 00/M03 A3008 930 81 -600 010/08 RMK AO2
94908KDBQ DBQ20021115074510611/15/02 07:45:31  5-MIN KDBQ 151345Z 01009KT 6SM HZ SCT017 BKN120 00/M03 A3008 930 81 -600 010/09 RMK AO2
94908KDBQ DBQ20021115075012311/15/02 07:50:31  5-MIN KDBQ 151350Z 03007KT 6SM HZ SCT017 BKN120 00/M03 A3009 920 81 -600 030/07 RMK AO2 SLP199 T00001028
94908KDBQ DBQ20021115075512711/15/02 07:55:31  5-MIN KDBQ 151355Z 02006KT 7SM SCT017 BKN034 BKN120 00/M03 A3009 920 81 -600 020/06 RMK AO2 SLP200 T00001028
94908KDBQ DBQ20021115080011011/15/02 08:00:31  5-MIN KDBQ 151400Z 03008KT 7SM SCT017 SCT034 OVC110 00/M03 A3009 920 78 -600 020/08 RMK AO2
94908KDBQ DBQ20021115080510311/15/02 08:05:31  5-MIN KDBQ 151405Z 03007KT 8SM FEW017 OVC110 00/M04 A3009 920 75 -600 030/07 RMK AO2
94908KDBQ DBQ20021115081010311/15/02 08:10:31  5-MIN KDBQ 151410Z 03009KT 9SM SCT017 OVC110 00/M04 A3010 920 75 -600 030/09 RMK AO2
94908KDBQ DBQ20021115081510311/15/02 08:15:31  5-MIN KDBQ 151415Z 02009KT 9SM BKN017 OVC110 00/M04 A3010 920 75 -600 020/09 RMK AO2
94908KDBQ DBQ20021115082010411/15/02 08:20:31  5-MIN KDBQ 151420Z 04010KT 10SM BKN017 OVC110 00/M04 A3010 910 72 -600 030/10 RMK AO2
94908KDBQ DBQ20021115082510411/15/02 08:25:31  5-MIN KDBQ 151425Z 04008KT 10SM SCT017 OVC110 00/M04 A3010 910 75 -600 040/08 RMK AO2
94908KDBQ DBQ20021115083010411/15/02 08:30:31  5-MIN KDBQ 151430Z 04009KT 10SM SCT017 BKN110 00/M04 A3010 910 72 -600 030/09 RMK AO2
94908KDBQ DBQ20021115083510411/15/02 08:35:31  5-MIN KDBQ 151435Z 04010KT 10SM SCT017 BKN120 00/M04 A3010 910 72 -600 040/10 RMK AO2
94908KDBQ DBQ20021115084010411/15/02 08:40:31  5-MIN KDBQ 151440Z 04008KT 10SM FEW017 BKN120 00/M04 A3011 910 72 -600 040/08 RMK AO2
94908KDBQ DBQ20021115084509711/15/02 08:45:31  5-MIN KDBQ 151445Z 03009KT 10SM BKN120 00/M04 A3011 910 75 -600 020/09 RMK AO2
94908KDBQ DBQ20021115085012011/15/02 08:50:31  5-MIN KDBQ 151450Z 04009KT 10SM BKN120 00/M04 A3011 900 72 -600 040/09 RMK AO2 SLP207 T00001044 53013
94908KDBQ DBQ20021115085512011/15/02 08:55:31  5-MIN KDBQ 151455Z 04009KT 10SM SCT120 00/M04 A3011 900 72 -600 040/09 RMK AO2 SLP207 T00001044 51023
94908KDBQ DBQ20021115090009711/15/02 09:00:31  5-MIN KDBQ 151500Z 04010KT 10SM SCT120 00/M04 A3011 900 72 -600 040/10 RMK AO2
94908KDBQ DBQ20021115090509711/15/02 09:05:31  5-MIN KDBQ 151505Z 05010KT 10SM SCT120 00/M04 A3011 900 72 -600 040/10 RMK AO2
94908KDBQ DBQ20021115091009711/15/02 09:10:31  5-MIN KDBQ 151510Z 04008KT 10SM SCT120 00/M04 A3011 900 72 -600 040/08 RMK AO2
94908KDBQ DBQ20021115091509711/15/02 09:15:31  5-MIN KDBQ 151515Z 03010KT 10SM SCT120 01/M04 A3011 900 72 -600 030/10 RMK AO2
94908KDBQ DBQ20021115092009711/15/02 09:20:31  5-MIN KDBQ 151520Z 02010KT 10SM SCT120 00/M04 A3012 900 75 -600 020/10 RMK AO2
94908KDBQ DBQ20021115092509711/15/02 09:25:31  5-MIN KDBQ 151525Z 02010KT 10SM SCT120 00/M04 A3012 890 75 -600 020/10 RMK AO2
94908KDBQ DBQ20021115093010411/15/02 09:30:31  5-MIN KDBQ 151530Z 02012KT 10SM FEW034 SCT120 00/M04 A3012 890 72 -600 020/12 RMK AO2
94908KDBQ DBQ20021115093510411/15/02 09:35:31  5-MIN KDBQ 151535Z 02011KT 10SM SCT036 BKN120 00/M04 A3012 890 72 -600 020/11 RMK AO2
94908KDBQ DBQ20021115094010411/15/02 09:40:31  5-MIN KDBQ 151540Z 02012KT 10SM BKN036 BKN120 00/M04 A3012 890 72 -600 020/12 RMK AO2
94908KDBQ DBQ20021115094510411/15/02 09:45:31  5-MIN KDBQ 151545Z 02010KT 10SM BKN036 BKN120 00/M04 A3013 890 72 -600 020/10 RMK AO2
94908KDBQ DBQ20021115095011411/15/02 09:50:31  5-MIN KDBQ 151550Z 03010KT 10SM BKN036 00/M04 A3013 890 72 -600 030/10 RMK AO2 SLP213 T00001044
94908KDBQ DBQ20021115095511411/15/02 09:55:31  5-MIN KDBQ 151555Z 02011KT 10SM OVC036 01/M04 A3013 890 69 -600 020/11 RMK AO2 SLP214 T00061044
94908KDBQ DBQ20021115100009711/15/02 10:00:31  5-MIN KDBQ 151600Z 02011KT 10SM OVC036 00/M04 A3013 890 72 -600 020/11 RMK AO2
94908KDBQ DBQ20021115100509711/15/02 10:05:31  5-MIN KDBQ 151605Z 03011KT 10SM OVC036 01/M04 A3013 880 69 -600 030/11 RMK AO2
94908KDBQ DBQ20021115101009711/15/02 10:10:31  5-MIN KDBQ 151610Z 04009KT 10SM OVC036 01/M04 A3013 880 69 -600 040/09 RMK AO2
94908KDBQ DBQ20021115101509711/15/02 10:15:31  5-MIN KDBQ 151615Z 04009KT 10SM OVC036 01/M04 A3013 880 69 -600 040/09 RMK AO2
94908KDBQ DBQ20021115102009711/15/02 10:20:31  5-MIN KDBQ 151620Z 04010KT 10SM OVC036 01/M04 A3013 880 69 -600 040/10 RMK AO2
94908KDBQ DBQ20021115102509711/15/02 10:25:31  5-MIN KDBQ 151625Z 04010KT 10SM OVC036 01/M04 A3013 880 72 -600 040/10 RMK AO2
94908KDBQ DBQ20021115103009711/15/02 10:30:31  5-MIN KDBQ 151630Z 03010KT 10SM OVC036 01/M04 A3014 880 69 -600 030/10 RMK AO2
94908KDBQ DBQ20021115103509711/15/02 10:35:31  5-MIN KDBQ 151635Z 04008KT 10SM BKN036 01/M04 A3013 880 69 -600 040/08 RMK AO2
94908KDBQ DBQ20021115104009711/15/02 10:40:31  5-MIN KDBQ 151640Z 05010KT 10SM BKN036 01/M04 A3014 880 69 -500 050/10 RMK AO2
94908KDBQ DBQ20021115104509711/15/02 10:45:31  5-MIN KDBQ 151645Z 03009KT 10SM BKN036 01/M04 A3014 880 69 -500 030/09 RMK AO2
94908KDBQ DBQ20021115105011411/15/02 10:50:31  5-MIN KDBQ 151650Z 02011KT 10SM BKN036 01/M04 A3014 880 69 -500 020/11 RMK AO2 SLP216 T00111039
94908KDBQ DBQ20021115105511411/15/02 10:55:31  5-MIN KDBQ 151655Z 03011KT 10SM SCT036 02/M04 A3014 880 66 -400 030/11 RMK AO2 SLP216 T00171039
94908KDBQ DBQ20021115110011011/15/02 11:00:31  5-MIN KDBQ 151700Z 02011G16KT 10SM FEW036 SCT120 02/M04 A3014 880 66 -400 020/11G16 RMK AO2
94908KDBQ DBQ20021115110510411/15/02 11:05:31  5-MIN KDBQ 151705Z 02011KT 10SM FEW036 SCT120 02/M04 A3014 880 66 -400 020/11 RMK AO2
94908KDBQ DBQ20021115111010411/15/02 11:10:31  5-MIN KDBQ 151710Z 02011KT 10SM FEW036 BKN120 02/M04 A3014 880 64 -400 020/11 RMK AO2
94908KDBQ DBQ20021115111510411/15/02 11:15:31  5-MIN KDBQ 151715Z 03012KT 10SM FEW036 BKN120 02/M04 A3014 880 64 -400 030/12 RMK AO2
94908KDBQ DBQ20021115112009711/15/02 11:20:31  5-MIN KDBQ 151720Z 01010KT 10SM BKN120 02/M04 A3014 880 64 -400 010/10 RMK AO2
94908KDBQ DBQ20021115112509711/15/02 11:25:31  5-MIN KDBQ 151725Z 03010KT 10SM BKN120 02/M04 A3014 880 64 -400 030/10 RMK AO2
94908KDBQ DBQ20021115113009711/15/02 11:30:31  5-MIN KDBQ 151730Z 03009KT 10SM BKN110 02/M04 A3014 880 64 -400 030/09 RMK AO2
94908KDBQ DBQ20021115113509711/15/02 11:35:31  5-MIN KDBQ 151735Z 03010KT 10SM BKN120 02/M04 A3014 880 64 -400 030/10 RMK AO2
94908KDBQ DBQ20021115114009711/15/02 11:40:31  5-MIN KDBQ 151740Z 02010KT 10SM SCT120 02/M04 A3014 880 61 -400 020/10 RMK AO2
94908KDBQ DBQ20021115114509711/15/02 11:45:31  5-MIN KDBQ 151745Z 03011KT 10SM SCT110 02/M05 A3014 880 61 -400 030/11 RMK AO2
94908KDBQ DBQ20021115115013211/15/02 11:50:31  5-MIN KDBQ 151750Z 04010KT 10SM SCT110 02/M04 A3014 880 64 -400 040/10 RMK AO2 SLP216 T00171044 10028 21006 51023
94908KDBQ DBQ20021115115513211/15/02 11:55:31  5-MIN KDBQ 151755Z 04010KT 10SM SCT110 02/M04 A3014 880 64 -400 040/10 RMK AO2 SLP216 T00171044 10028 21006 51008
94908KDBQ DBQ20021115120009711/15/02 12:00:31  5-MIN KDBQ 151800Z 01009KT 10SM SCT120 02/M04 A3013 880 64 -400 010/09 RMK AO2
94908KDBQ DBQ20021115120509711/15/02 12:05:31  5-MIN KDBQ 151805Z 02010KT 10SM SCT120 02/M05 A3013 880 61 -400 010/10 RMK AO2
94908KDBQ DBQ20021115121009711/15/02 12:10:31  5-MIN KDBQ 151810Z 02010KT 10SM BKN120 02/M04 A3013 880 61 -400 020/10 RMK AO2
94908KDBQ DBQ20021115121509711/15/02 12:15:31  5-MIN KDBQ 151815Z 02009KT 10SM BKN120 02/M05 A3014 880 61 -400 020/09 RMK AO2
94908KDBQ DBQ20021115122009711/15/02 12:20:31  5-MIN KDBQ 151820Z 02010KT 10SM SCT120 02/M04 A3014 880 61 -400 020/10 RMK AO2
94908KDBQ DBQ20021115122509711/15/02 12:25:31  5-MIN KDBQ 151825Z 04008KT 10SM SCT120 02/M05 A3014 880 59 -400 040/08 RMK AO2
94908KDBQ DBQ20021115123009711/15/02 12:30:31  5-MIN KDBQ 151830Z 01008KT 10SM SCT120 02/M04 A3014 880 61 -400 010/08 RMK AO2
94908KDBQ DBQ20021115123509711/15/02 12:35:31  5-MIN KDBQ 151835Z 03008KT 10SM SCT120 02/M04 A3014 880 61 -400 030/08 RMK AO2
94908KDBQ DBQ20021115124009711/15/02 12:40:31  5-MIN KDBQ 151840Z 03009KT 10SM SCT120 02/M04 A3013 880 61 -400 030/09 RMK AO2
94908KDBQ DBQ20021115124509711/15/02 12:45:31  5-MIN KDBQ 151845Z 02010KT 10SM SCT120 02/M05 A3014 880 59 -400 020/10 RMK AO2
94908KDBQ DBQ20021115125011411/15/02 12:50:31  5-MIN KDBQ 151850Z 02009KT 10SM SCT110 02/M05 A3014 880 59 -400 010/09 RMK AO2 SLP216 T00221050
94908KDBQ DBQ20021115125511411/15/02 12:55:31  5-MIN KDBQ 151855Z 36009KT 10SM FEW110 02/M05 A3014 880 59 -400 360/09 RMK AO2 SLP217 T00221050
94908KDBQ DBQ20021115130009711/15/02 13:00:31  5-MIN KDBQ 151900Z 01011KT 10SM SCT110 02/M05 A3014 880 59 -400 010/11 RMK AO2
94908KDBQ DBQ20021115130510411/15/02 13:05:31  5-MIN KDBQ 151905Z 03010KT 10SM SCT100 SCT120 02/M06 A3014 880 56 -400 030/10 RMK AO2
94908KDBQ DBQ20021115131010411/15/02 13:10:31  5-MIN KDBQ 151910Z 01009KT 10SM FEW100 SCT120 02/M06 A3014 880 56 -400 010/09 RMK AO2
94908KDBQ DBQ20021115131510411/15/02 13:15:31  5-MIN KDBQ 151915Z 01009KT 10SM FEW100 SCT120 02/M06 A3014 880 56 -400 360/09 RMK AO2
94908KDBQ DBQ20021115132010411/15/02 13:20:31  5-MIN KDBQ 151920Z 36010KT 10SM SCT100 BKN120 02/M06 A3014 880 56 -400 360/10 RMK AO2
94908KDBQ DBQ20021115132509711/15/02 13:25:31  5-MIN KDBQ 151925Z 02009KT 10SM BKN100 02/M06 A3014 880 56 -400 010/09 RMK AO2
94908KDBQ DBQ20021115133009711/15/02 13:30:31  5-MIN KDBQ 151930Z 01010KT 10SM BKN100 02/M06 A3014 880 56 -400 010/10 RMK AO2
94908KDBQ DBQ20021115133509711/15/02 13:35:31  5-MIN KDBQ 151935Z 03009KT 10SM BKN110 02/M06 A3014 880 56 -400 030/09 RMK AO2
94908KDBQ DBQ20021115134009711/15/02 13:40:31  5-MIN KDBQ 151940Z 03008KT 10SM BKN110 02/M06 A3014 880 56 -400 030/08 RMK AO2
94908KDBQ DBQ20021115134510411/15/02 13:45:31  5-MIN KDBQ 151945Z 02010KT 10SM FEW032 BKN110 03/M05 A3014 880 56 -300 020/10 RMK AO2
94908KDBQ DBQ20021115135012111/15/02 13:50:31  5-MIN KDBQ 151950Z 02010KT 10SM FEW032 BKN110 02/M06 A3014 880 56 -400 010/10 RMK AO2 SLP218 T00221056
94908KDBQ DBQ20021115135511411/15/02 13:55:31  5-MIN KDBQ 151955Z 01011KT 10SM BKN120 02/M06 A3014 880 56 -400 010/11 RMK AO2 SLP218 T00221056
94908KDBQ DBQ20021115140009711/15/02 14:00:31  5-MIN KDBQ 152000Z 01009KT 10SM BKN110 02/M06 A3014 870 56 -400 010/09 RMK AO2
94908KDBQ DBQ20021115140509711/15/02 14:05:31  5-MIN KDBQ 152005Z 01007KT 10SM BKN110 02/M06 A3014 870 56 -400 010/07 RMK AO2
94908KDBQ DBQ20021115141010411/15/02 14:10:31  5-MIN KDBQ 152010Z 36007KT 10SM SCT100 BKN110 02/M06 A3014 870 56 -400 360/07 RMK AO2
94908KDBQ DBQ20021115141509711/15/02 14:15:31  5-MIN KDBQ 152015Z 01008KT 10SM BKN110 02/M06 A3014 870 56 -400 010/08 RMK AO2
94908KDBQ DBQ20021115142009711/15/02 14:20:31  5-MIN KDBQ 152020Z 36009KT 10SM BKN110 02/M06 A3014 870 56 -400 360/09 RMK AO2
94908KDBQ DBQ20021115142509711/15/02 14:25:31  5-MIN KDBQ 152025Z 03008KT 10SM OVC110 02/M06 A3015 870 56 -400 030/08 RMK AO2
94908KDBQ DBQ20021115143009711/15/02 14:30:31  5-MIN KDBQ 152030Z 02010KT 10SM OVC110 02/M06 A3015 870 59 -500 020/10 RMK AO2
94908KDBQ DBQ20021115143509711/15/02 14:35:31  5-MIN KDBQ 152035Z 36009KT 10SM OVC110 02/M06 A3015 870 56 -500 360/09 RMK AO2
94908KDBQ DBQ20021115144009711/15/02 14:40:31  5-MIN KDBQ 152040Z 01008KT 10SM OVC110 02/M06 A3015 870 56 -500 010/08 RMK AO2
94908KDBQ DBQ20021115144509711/15/02 14:45:31  5-MIN KDBQ 152045Z 36010KT 10SM OVC110 02/M06 A3015 860 56 -500 360/10 RMK AO2
94908KDBQ DBQ20021115145012011/15/02 14:50:31  5-MIN KDBQ 152050Z 02009KT 10SM OVC110 02/M06 A3015 860 56 -500 020/09 RMK AO2 SLP222 T00171061 51008
94908KDBQ DBQ20021115145512011/15/02 14:55:31  5-MIN KDBQ 152055Z 02007KT 10SM OVC110 02/M06 A3015 860 56 -500 020/07 RMK AO2 SLP223 T00171061 53006
94908KDBQ DBQ20021115150009711/15/02 15:00:31  5-MIN KDBQ 152100Z 02007KT 10SM OVC110 02/M06 A3016 860 59 -500 020/07 RMK AO2
94908KDBQ DBQ20021115150509711/15/02 15:05:31  5-MIN KDBQ 152105Z 02008KT 10SM OVC110 02/M06 A3016 860 59 -500 020/08 RMK AO2
94908KDBQ DBQ20021115151009711/15/02 15:10:31  5-MIN KDBQ 152110Z 36009KT 10SM OVC110 02/M06 A3016 860 56 -500 360/09 RMK AO2
94908KDBQ DBQ20021115151509711/15/02 15:15:31  5-MIN KDBQ 152115Z 36007KT 10SM OVC110 02/M06 A3016 860 56 -500 360/07 RMK AO2
94908KDBQ DBQ20021115152009711/15/02 15:20:31  5-MIN KDBQ 152120Z 01008KT 10SM OVC110 02/M06 A3016 850 56 -500 010/08 RMK AO2
94908KDBQ DBQ20021115152509711/15/02 15:25:31  5-MIN KDBQ 152125Z 36007KT 10SM OVC110 02/M06 A3017 850 56 -500 360/07 RMK AO2
94908KDBQ DBQ20021115153009711/15/02 15:30:31  5-MIN KDBQ 152130Z 36009KT 10SM OVC110 02/M06 A3017 850 56 -500 360/09 RMK AO2
94908KDBQ DBQ20021115153509711/15/02 15:35:31  5-MIN KDBQ 152135Z 02009KT 10SM OVC110 02/M06 A3017 850 56 -500 010/09 RMK AO2
94908KDBQ DBQ20021115154009711/15/02 15:40:31  5-MIN KDBQ 152140Z 36009KT 10SM BKN110 02/M06 A3017 850 56 -500 360/09 RMK AO2
94908KDBQ DBQ20021115154509711/15/02 15:45:31  5-MIN KDBQ 152145Z 01007KT 10SM BKN110 01/M06 A3017 850 58 -500 010/07 RMK AO2
94908KDBQ DBQ20021115155011411/15/02 15:50:31  5-MIN KDBQ 152150Z 36007KT 10SM SCT110 01/M06 A3017 850 61 -600 350/07 RMK AO2 SLP230 T00061061
94908KDBQ DBQ20021115155511411/15/02 15:55:31  5-MIN KDBQ 152155Z 01008KT 10SM FEW110 01/M06 A3017 840 61 -600 010/08 RMK AO2 SLP230 T00061061
94908KDBQ DBQ20021115160009711/15/02 16:00:31  5-MIN KDBQ 152200Z 36007KT 10SM FEW110 01/M07 A3018 840 58 -600 360/07 RMK AO2
94908KDBQ DBQ20021115160509411/15/02 16:05:31  5-MIN KDBQ 152205Z 01006KT 10SM CLR 00/M06 A3018 840 63 -700 360/06 RMK AO2
94908KDBQ DBQ20021115161009411/15/02 16:10:31  5-MIN KDBQ 152210Z 01008KT 10SM CLR 00/M07 A3018 840 61 -700 010/08 RMK AO2
94908KDBQ DBQ20021115161509411/15/02 16:15:31  5-MIN KDBQ 152215Z 01007KT 10SM CLR 00/M07 A3018 840 61 -700 360/07 RMK AO2
94908KDBQ DBQ20021115162009811/15/02 16:20:31  5-MIN KDBQ 152220Z 36006KT 10SM FEW060 M01/M07 A3018 840 63 -800 360/06 RMK AO2
94908KDBQ DBQ20021115162509811/15/02 16:25:31  5-MIN KDBQ 152225Z 36005KT 10SM SCT060 M01/M06 A3018 840 66 -800 360/05 RMK AO2
94908KDBQ DBQ20021115163009811/15/02 16:30:31  5-MIN KDBQ 152230Z 36006KT 10SM BKN060 M01/M06 A3018 840 66 -800 360/06 RMK AO2
94908KDBQ DBQ20021115163509711/15/02 16:35:31  5-MIN KDBQ 152235Z 35006KT 10SM BKN060 00/M06 A3018 840 63 -700 350/06 RMK AO2
94908KDBQ DBQ20021115164009711/15/02 16:40:31  5-MIN KDBQ 152240Z 36006KT 10SM BKN060 00/M06 A3018 840 63 -700 360/06 RMK AO2
94908KDBQ DBQ20021115164509711/15/02 16:45:31  5-MIN KDBQ 152245Z 35005KT 10SM OVC060 00/M06 A3018 840 63 -700 350/05 RMK AO2
94908KDBQ DBQ20021115165011411/15/02 16:50:31  5-MIN KDBQ 152250Z 35006KT 10SM OVC060 00/M06 A3018 840 63 -700 350/06 RMK AO2 SLP233 T00001061
94908KDBQ DBQ20021115165511511/15/02 16:55:31  5-MIN KDBQ 152255Z 35005KT 10SM OVC060 M01/M06 A3018 830 66 -800 350/05 RMK AO2 SLP234 T10061061
94908KDBQ DBQ20021115170009811/15/02 17:00:31  5-MIN KDBQ 152300Z 35005KT 10SM OVC060 M01/M06 A3019 830 66 -800 350/05 RMK AO2
94908KDBQ DBQ20021115170509811/15/02 17:05:31  5-MIN KDBQ 152305Z 35005KT 10SM OVC065 M01/M06 A3019 830 66 -800 350/05 RMK AO2
94908KDBQ DBQ20021115171009811/15/02 17:10:31  5-MIN KDBQ 152310Z 36004KT 10SM OVC065 M01/M06 A3019 830 66 -800 360/04 RMK AO2
94908KDBQ DBQ20021115171509811/15/02 17:15:31  5-MIN KDBQ 152315Z 36006KT 10SM OVC065 M01/M06 A3019 830 66 -800 360/06 RMK AO2
94908KDBQ DBQ20021115172009711/15/02 17:20:31  5-MIN KDBQ 152320Z 01005KT 10SM OVC065 00/M06 A3019 830 63 -700 010/05 RMK AO2
94908KDBQ DBQ20021115172509811/15/02 17:25:31  5-MIN KDBQ 152325Z 36005KT 10SM OVC065 M01/M06 A3019 830 66 -800 360/05 RMK AO2
94908KDBQ DBQ20021115173009711/15/02 17:30:31  5-MIN KDBQ 152330Z 36005KT 10SM OVC065 00/M06 A3020 820 63 -700 360/05 RMK AO2
94908KDBQ DBQ20021115173509711/15/02 17:35:31  5-MIN KDBQ 152335Z 36005KT 10SM OVC065 00/M06 A3020 820 63 -700 360/05 RMK AO2
94908KDBQ DBQ20021115174009711/15/02 17:40:31  5-MIN KDBQ 152340Z 35006KT 10SM OVC065 00/M06 A3020 820 63 -700 350/06 RMK AO2
94908KDBQ DBQ20021115174509711/15/02 17:45:31  5-MIN KDBQ 152345Z 35006KT 10SM OVC065 00/M06 A3020 820 63 -700 350/06 RMK AO2
94908KDBQ DBQ20021115175013211/15/02 17:50:31  5-MIN KDBQ 152350Z 35006KT 10SM OVC065 00/M06 A3020 820 63 -700 350/06 RMK AO2 SLP240 T00001061 10028 21006 53006
94908KDBQ DBQ20021115175513211/15/02 17:55:31  5-MIN KDBQ 152355Z 35006KT 10SM OVC065 00/M06 A3020 820 63 -700 350/06 RMK AO2 SLP240 T00001061 10028 21006 52016
94908KDBQ DBQ20021115180009711/15/02 18:00:31  5-MIN KDBQ 160000Z 35006KT 10SM OVC065 00/M06 A3021 820 63 -700 350/06 RMK AO2
94908KDBQ DBQ20021115180509711/15/02 18:05:31  5-MIN KDBQ 160005Z 36006KT 10SM OVC065 00/M06 A3020 820 63 -700 360/06 RMK AO2
94908KDBQ DBQ20021115181009711/15/02 18:10:31  5-MIN KDBQ 160010Z 36007KT 10SM OVC065 00/M06 A3021 820 63 -700 360/07 RMK AO2
94908KDBQ DBQ20021115181509711/15/02 18:15:31  5-MIN KDBQ 160015Z 36006KT 10SM OVC065 00/M07 A3021 810 61 -700 360/06 RMK AO2
94908KDBQ DBQ20021115182009711/15/02 18:20:31  5-MIN KDBQ 160020Z 36007KT 10SM OVC065 00/M07 A3021 810 61 -700 360/07 RMK AO2
94908KDBQ DBQ20021115182509711/15/02 18:25:31  5-MIN KDBQ 160025Z 36006KT 10SM OVC065 00/M07 A3021 810 61 -700 360/06 RMK AO2
94908KDBQ DBQ20021115183009711/15/02 18:30:31  5-MIN KDBQ 160030Z 36006KT 10SM OVC065 00/M07 A3021 810 61 -700 360/06 RMK AO2
94908KDBQ DBQ20021115183509711/15/02 18:35:31  5-MIN KDBQ 160035Z 36006KT 10SM OVC065 00/M07 A3021 810 61 -700 360/06 RMK AO2
94908KDBQ DBQ20021115184009711/15/02 18:40:31  5-MIN KDBQ 160040Z 36007KT 10SM OVC065 00/M07 A3021 810 61 -700 360/07 RMK AO2
94908KDBQ DBQ20021115184509711/15/02 18:45:31  5-MIN KDBQ 160045Z 36007KT 10SM OVC065 00/M07 A3021 810 61 -700 360/07 RMK AO2
94908KDBQ DBQ20021115185011411/15/02 18:50:31  5-MIN KDBQ 160050Z 36005KT 10SM OVC065 00/M07 A3021 810 61 -700 360/05 RMK AO2 SLP243 T00001067
94908KDBQ DBQ20021115185511411/15/02 18:55:31  5-MIN KDBQ 160055Z 01007KT 10SM OVC065 00/M07 A3021 810 61 -700 010/07 RMK AO2 SLP243 T00001067
94908KDBQ DBQ20021115190009711/15/02 19:00:31  5-MIN KDBQ 160100Z 01007KT 10SM OVC065 00/M07 A3021 810 61 -700 010/07 RMK AO2
94908KDBQ DBQ20021115190509711/15/02 19:05:31  5-MIN KDBQ 160105Z 01007KT 10SM OVC065 00/M07 A3021 810 61 -700 010/07 RMK AO2
94908KDBQ DBQ20021115191009711/15/02 19:10:31  5-MIN KDBQ 160110Z 36006KT 10SM OVC065 00/M07 A3021 810 61 -700 360/06 RMK AO2
94908KDBQ DBQ20021115191509711/15/02 19:15:31  5-MIN KDBQ 160115Z 36006KT 10SM OVC065 00/M07 A3022 810 61 -700 360/06 RMK AO2
94908KDBQ DBQ20021115192009711/15/02 19:20:31  5-MIN KDBQ 160120Z 36007KT 10SM OVC065 00/M07 A3022 810 61 -700 360/07 RMK AO2
94908KDBQ DBQ20021115192509711/15/02 19:25:31  5-MIN KDBQ 160125Z 36007KT 10SM OVC065 00/M07 A3022 810 61 -700 360/07 RMK AO2
94908KDBQ DBQ20021115193009711/15/02 19:30:31  5-MIN KDBQ 160130Z 01007KT 10SM OVC065 00/M07 A3022 800 61 -700 010/07 RMK AO2
94908KDBQ DBQ20021115193509711/15/02 19:35:31  5-MIN KDBQ 160135Z 01009KT 10SM OVC070 00/M07 A3022 800 61 -700 010/09 RMK AO2
94908KDBQ DBQ20021115194009711/15/02 19:40:31  5-MIN KDBQ 160140Z 01009KT 10SM OVC070 00/M07 A3022 800 58 -700 010/09 RMK AO2
94908KDBQ DBQ20021115194509711/15/02 19:45:31  5-MIN KDBQ 160145Z 01009KT 10SM OVC070 00/M07 A3022 800 58 -700 010/09 RMK AO2
94908KDBQ DBQ20021115195011411/15/02 19:50:31  5-MIN KDBQ 160150Z 01009KT 10SM OVC070 00/M08 A3022 800 56 -700 010/09 RMK AO2 SLP246 T00001078
94908KDBQ DBQ20021115195512411/15/02 19:55:31  5-MIN KDBQ 160155Z AUTO 01007KT 10SM OVC070 00/M08 A3022 800 56 -700 010/07 RMK AO2 SLP246 T00001078 TSNO
94908KDBQ DBQ20021115200010711/15/02 20:00:31  5-MIN KDBQ 160200Z AUTO 01006KT 10SM OVC070 00/M08 A3022 800 56 -700 010/06 RMK AO2 TSNO
94908KDBQ DBQ20021115200510711/15/02 20:05:31  5-MIN KDBQ 160205Z AUTO 02007KT 10SM OVC070 00/M08 A3022 800 56 -700 020/07 RMK AO2 TSNO
94908KDBQ DBQ20021115201010711/15/02 20:10:31  5-MIN KDBQ 160210Z AUTO 01007KT 10SM OVC070 00/M08 A3022 800 56 -700 010/07 RMK AO2 TSNO
94908KDBQ DBQ20021115201510811/15/02 20:15:31  5-MIN KDBQ 160215Z AUTO 01007KT 10SM OVC070 M01/M07 A3022 800 61 -800 010/07 RMK AO2 TSNO
94908KDBQ DBQ20021115202010811/15/02 20:20:31  5-MIN KDBQ 160220Z AUTO 02006KT 10SM OVC070 M01/M07 A3022 800 61 -800 010/06 RMK AO2 TSNO
94908KDBQ DBQ20021115202510811/15/02 20:25:31  5-MIN KDBQ 160225Z AUTO 02006KT 10SM OVC070 M01/M07 A3022 800 61 -800 020/06 RMK AO2 TSNO
94908KDBQ DBQ20021115203010811/15/02 20:30:31  5-MIN KDBQ 160230Z AUTO 02007KT 10SM OVC070 M01/M07 A3022 800 61 -800 020/07 RMK AO2 TSNO
94908KDBQ DBQ20021115203510811/15/02 20:35:31  5-MIN KDBQ 160235Z AUTO 02005KT 10SM OVC070 M01/M07 A3022 800 63 -800 020/05 RMK AO2 TSNO
94908KDBQ DBQ20021115204010811/15/02 20:40:31  5-MIN KDBQ 160240Z AUTO 02006KT 10SM OVC070 M01/M07 A3022 800 61 -800 020/06 RMK AO2 TSNO
94908KDBQ DBQ20021115204510811/15/02 20:45:31  5-MIN KDBQ 160245Z AUTO 03004KT 10SM OVC070 M01/M07 A3023 800 63 -800 030/04 RMK AO2 TSNO
94908KDBQ DBQ20021115205013111/15/02 20:50:31  5-MIN KDBQ 160250Z AUTO 02005KT 10SM OVC070 M01/M07 A3023 800 63 -800 020/05 RMK AO2 SLP248 T10061067 52016 TSNO
94908KDBQ DBQ20021115205513811/15/02 20:55:31  5-MIN KDBQ 160255Z AUTO 03005KT 10SM FEW032 OVC070 M01/M07 A3023 800 63 -800 020/05 RMK AO2 SLP248 T10061067 51007 TSNO
94908KDBQ DBQ20021115210011511/15/02 21:00:31  5-MIN KDBQ 160300Z AUTO 03005KT 10SM FEW032 OVC070 M01/M07 A3023 800 66 -900 020/05 RMK AO2 TSNO
94908KDBQ DBQ20021115210511511/15/02 21:05:31  5-MIN KDBQ 160305Z AUTO 02004KT 10SM SCT032 OVC070 M01/M07 A3023 800 63 -800 020/04 RMK AO2 TSNO
94908KDBQ DBQ20021115211011511/15/02 21:10:31  5-MIN KDBQ 160310Z AUTO 03005KT 10SM BKN034 OVC070 M01/M06 A3023 790 66 -800 030/05 RMK AO2 TSNO
94908KDBQ DBQ20021115211511511/15/02 21:15:31  5-MIN KDBQ 160315Z AUTO 02005KT 10SM SCT034 OVC070 M01/M06 A3023 790 69 -900 020/05 RMK AO2 TSNO
94908KDBQ DBQ20021115212011511/15/02 21:20:31  5-MIN KDBQ 160320Z AUTO 02004KT 10SM SCT034 OVC070 M01/M06 A3023 790 69 -900 020/04 RMK AO2 TSNO
94908KDBQ DBQ20021115212511511/15/02 21:25:31  5-MIN KDBQ 160325Z AUTO 02004KT 10SM BKN034 OVC070 M01/M06 A3023 790 69 -900 020/04 RMK AO2 TSNO
94908KDBQ DBQ20021115213011511/15/02 21:30:31  5-MIN KDBQ 160330Z AUTO 03004KT 10SM BKN034 OVC070 M01/M06 A3023 790 66 -800 030/04 RMK AO2 TSNO
94908KDBQ DBQ20021115213511511/15/02 21:35:31  5-MIN KDBQ 160335Z AUTO 02005KT 10SM BKN034 OVC070 M01/M06 A3023 790 66 -800 020/05 RMK AO2 TSNO
94908KDBQ DBQ20021115214011511/15/02 21:40:31  5-MIN KDBQ 160340Z AUTO 01005KT 10SM SCT036 OVC070 M01/M06 A3023 790 69 -900 010/05 RMK AO2 TSNO
94908KDBQ DBQ20021115214511511/15/02 21:45:31  5-MIN KDBQ 160345Z AUTO 01004KT 10SM SCT036 OVC070 M01/M06 A3023 790 69 -900 010/04 RMK AO2 TSNO
94908KDBQ DBQ20021115215013211/15/02 21:50:31  5-MIN KDBQ 160350Z AUTO 36005KT 10SM FEW036 OVC070 M01/M06 A3023 790 69 -900 360/05 RMK AO2 SLP250 T10111061 TSNO
94908KDBQ DBQ20021115215513211/15/02 21:55:31  5-MIN KDBQ 160355Z AUTO 01005KT 10SM FEW036 OVC070 M01/M06 A3023 790 69 -900 360/05 RMK AO2 SLP249 T10111061 TSNO
94908KDBQ DBQ20021115220011511/15/02 22:00:31  5-MIN KDBQ 160400Z AUTO 01006KT 10SM FEW036 OVC070 M01/M06 A3023 790 69 -900 010/06 RMK AO2 TSNO
94908KDBQ DBQ20021115220510811/15/02 22:05:31  5-MIN KDBQ 160405Z AUTO 01004KT 10SM OVC070 M01/M07 A3023 790 63 -800 010/04 RMK AO2 TSNO
94908KDBQ DBQ20021115221010811/15/02 22:10:31  5-MIN KDBQ 160410Z AUTO 36004KT 10SM OVC070 M01/M06 A3023 790 69 -900 360/04 RMK AO2 TSNO
94908KDBQ DBQ20021115221510811/15/02 22:15:31  5-MIN KDBQ 160415Z AUTO 36003KT 10SM OVC070 M01/M06 A3023 790 69 -900 360/03 RMK AO2 TSNO
94908KDBQ DBQ20021115222010811/15/02 22:20:31  5-MIN KDBQ 160420Z AUTO 01004KT 10SM OVC070 M01/M06 A3024 790 69 -900 010/04 RMK AO2 TSNO
94908KDBQ DBQ20021115222511511/15/02 22:25:31  5-MIN KDBQ 160425Z AUTO 01005KT 10SM FEW032 OVC070 M01/M06 A3024 790 69 -900 010/05 RMK AO2 TSNO
94908KDBQ DBQ20021115223011511/15/02 22:30:31  5-MIN KDBQ 160430Z AUTO 01004KT 10SM SCT032 OVC070 M01/M06 A3024 790 69 -900 360/04 RMK AO2 TSNO
94908KDBQ DBQ20021115223511511/15/02 22:35:31  5-MIN KDBQ 160435Z AUTO 36004KT 10SM BKN032 OVC070 M01/M06 A3024 790 69 -900 360/04 RMK AO2 TSNO
94908KDBQ DBQ20021115224011511/15/02 22:40:31  5-MIN KDBQ 160440Z AUTO 01005KT 10SM BKN034 OVC070 M01/M07 A3023 790 63 -800 010/05 RMK AO2 TSNO
94908KDBQ DBQ20021115224511511/15/02 22:45:31  5-MIN KDBQ 160445Z AUTO 01005KT 10SM BKN034 OVC070 M01/M06 A3023 790 69 -900 010/05 RMK AO2 TSNO
94908KDBQ DBQ20021115225013211/15/02 22:50:31  5-MIN KDBQ 160450Z AUTO 01006KT 10SM BKN034 OVC070 M01/M06 A3023 790 69 -900 010/06 RMK AO2 SLP250 T10111061 TSNO
94908KDBQ DBQ20021115225513211/15/02 22:55:31  5-MIN KDBQ 160455Z AUTO 01005KT 10SM BKN034 OVC070 M01/M06 A3023 790 69 -900 010/05 RMK AO2 SLP250 T10111061 TSNO
94908KDBQ DBQ20021115230011511/15/02 23:00:31  5-MIN KDBQ 160500Z AUTO 01006KT 10SM SCT034 OVC070 M01/M07 A3023 790 66 -900 010/06 RMK AO2 TSNO
94908KDBQ DBQ20021115230511511/15/02 23:05:31  5-MIN KDBQ 160505Z AUTO 01005KT 10SM FEW030 OVC070 M01/M07 A3023 790 66 -900 010/05 RMK AO2 TSNO
94908KDBQ DBQ20021115231011511/15/02 23:10:31  5-MIN KDBQ 160510Z AUTO 01005KT 10SM FEW030 OVC070 M01/M07 A3023 790 66 -900 010/05 RMK AO2 TSNO
94908KDBQ DBQ20021115231511511/15/02 23:15:31  5-MIN KDBQ 160515Z AUTO 36005KT 10SM FEW030 OVC070 M01/M07 A3023 790 66 -900 360/05 RMK AO2 TSNO
94908KDBQ DBQ20021115232011511/15/02 23:20:31  5-MIN KDBQ 160520Z AUTO 36005KT 10SM SCT030 OVC070 M01/M07 A3023 790 66 -900 360/05 RMK AO2 TSNO
94908KDBQ DBQ20021115232511511/15/02 23:25:31  5-MIN KDBQ 160525Z AUTO 36005KT 10SM BKN030 OVC070 M01/M07 A3023 790 66 -900 360/05 RMK AO2 TSNO
94908KDBQ DBQ20021115233011511/15/02 23:30:31  5-MIN KDBQ 160530Z AUTO 36005KT 10SM BKN030 OVC070 M01/M06 A3023 790 69 -900 360/05 RMK AO2 TSNO
94908KDBQ DBQ20021115233511511/15/02 23:35:31  5-MIN KDBQ 160535Z AUTO 36005KT 10SM BKN030 OVC070 M01/M07 A3023 790 66 -900 360/05 RMK AO2 TSNO
94908KDBQ DBQ20021115234011511/15/02 23:40:31  5-MIN KDBQ 160540Z AUTO 01005KT 10SM BKN030 OVC070 M01/M06 A3024 790 69 -900 010/05 RMK AO2 TSNO
94908KDBQ DBQ20021115234510811/15/02 23:45:31  5-MIN KDBQ 160545Z AUTO 01005KT 10SM OVC030 M01/M06 A3024 790 69 -900 010/05 RMK AO2 TSNO
94908KDBQ DBQ20021115235015311/15/02 23:50:31  5-MIN KDBQ 160550Z AUTO 01006KT 10SM OVC030 M01/M07 A3024 790 66 -900 010/06 RMK AO2 SLP251 T10111067 10000 21011 400281011 51007 TSNO
94908KDBQ DBQ20021115235516011/15/02 23:55:31  5-MIN KDBQ 160555Z AUTO 01005KT 10SM BKN030 OVC045 M01/M06 A3024 790 69 -900 010/05 RMK AO2 SLP251 T10111061 10000 21011 400281011 53003 TSNO
94908KDBQ DBQ20021116000012211/16/02 00:00:31  5-MIN KDBQ 160600Z AUTO 01006KT 10SM BKN030 BKN045 OVC070 M01/M06 A3023 790 69 -900 010/06 RMK AO2 TSNO
94908KDBQ DBQ20021116000511511/16/02 00:05:31  5-MIN KDBQ 160605Z AUTO 01006KT 10SM BKN030 OVC070 M01/M06 A3023 790 69 -900 010/06 RMK AO2 TSNO
94908KDBQ DBQ20021116001011511/16/02 00:10:31  5-MIN KDBQ 160610Z AUTO 02005KT 10SM BKN030 OVC070 M01/M06 A3023 790 69 -900 010/05 RMK AO2 TSNO
94908KDBQ DBQ20021116001511511/16/02 00:15:31  5-MIN KDBQ 160615Z AUTO 01005KT 10SM SCT030 OVC070 M01/M06 A3023 790 69 -900 010/05 RMK AO2 TSNO
94908KDBQ DBQ20021116002011511/16/02 00:20:31  5-MIN KDBQ 160620Z AUTO 01005KT 10SM SCT030 OVC070 M01/M06 A3023 790 69 -900 010/05 RMK AO2 TSNO
94908KDBQ DBQ20021116002511511/16/02 00:25:31  5-MIN KDBQ 160625Z AUTO 01005KT 10SM SCT030 OVC070 M01/M06 A3023 790 69 -900 010/05 RMK AO2 TSNO
94908KDBQ DBQ20021116003011511/16/02 00:30:31  5-MIN KDBQ 160630Z AUTO 01005KT 10SM BKN032 OVC070 M01/M06 A3023 790 72 -900 360/05 RMK AO2 TSNO
94908KDBQ DBQ20021116003511511/16/02 00:35:31  5-MIN KDBQ 160635Z AUTO 36005KT 10SM BKN032 OVC070 M01/M06 A3023 790 69 -900 360/05 RMK AO2 TSNO
94908KDBQ DBQ20021116004011511/16/02 00:40:31  5-MIN KDBQ 160640Z AUTO 36005KT 10SM BKN032 OVC070 M01/M06 A3023 800 69 -900 360/05 RMK AO2 TSNO
94908KDBQ DBQ20021116004511511/16/02 00:45:31  5-MIN KDBQ 160645Z AUTO 01006KT 10SM BKN030 OVC070 M01/M06 A3023 800 69 -900 010/06 RMK AO2 TSNO
94908KDBQ DBQ20021116005013211/16/02 00:50:31  5-MIN KDBQ 160650Z AUTO 01006KT 10SM BKN028 OVC034 M01/M06 A3023 800 72 -900 010/06 RMK AO2 SLP248 T10111056 TSNO
94908KDBQ DBQ20021116005513211/16/02 00:55:31  5-MIN KDBQ 160655Z AUTO 01006KT 10SM BKN028 OVC034 M01/M06 A3022 800 72 -900 010/06 RMK AO2 SLP247 T10111056 TSNO
94908KDBQ DBQ20021116010011511/16/02 01:00:31  5-MIN KDBQ 160700Z AUTO 02006KT 10SM BKN028 OVC034 M01/M06 A3022 800 72 -900 020/06 RMK AO2 TSNO
94908KDBQ DBQ20021116010510811/16/02 01:05:31  5-MIN KDBQ 160705Z AUTO 02006KT 10SM OVC028 M01/M06 A3022 800 72 -900 020/06 RMK AO2 TSNO
94908KDBQ DBQ20021116011010811/16/02 01:10:31  5-MIN KDBQ 160710Z AUTO 03006KT 10SM OVC026 M01/M06 A3022 800 72 -900 020/06 RMK AO2 TSNO
94908KDBQ DBQ20021116011510811/16/02 01:15:31  5-MIN KDBQ 160715Z AUTO 03006KT 10SM OVC026 M01/M06 A3022 800 72 -900 030/06 RMK AO2 TSNO
94908KDBQ DBQ20021116012010811/16/02 01:20:31  5-MIN KDBQ 160720Z AUTO 03006KT 10SM OVC026 M01/M06 A3022 800 72 -900 030/06 RMK AO2 TSNO
94908KDBQ DBQ20021116012510811/16/02 01:25:31  5-MIN KDBQ 160725Z AUTO 03006KT 10SM OVC026 M01/M06 A3022 800 72 -900 020/06 RMK AO2 TSNO
94908KDBQ DBQ20021116013010811/16/02 01:30:31  5-MIN KDBQ 160730Z AUTO 02006KT 10SM OVC026 M01/M06 A3022 800 72 -900 020/06 RMK AO2 TSNO
94908KDBQ DBQ20021116013510811/16/02 01:35:31  5-MIN KDBQ 160735Z AUTO 03007KT 10SM OVC026 M01/M05 A3022 800 75 -900 030/07 RMK AO2 TSNO
94908KDBQ DBQ20021116014010811/16/02 01:40:31  5-MIN KDBQ 160740Z AUTO 03007KT 10SM OVC026 M01/M05 A3022 800 75 -900 030/07 RMK AO2 TSNO
94908KDBQ DBQ20021116014510811/16/02 01:45:31  5-MIN KDBQ 160745Z AUTO 04007KT 10SM OVC026 M01/M06 A3022 800 72 -900 040/07 RMK AO2 TSNO
94908KDBQ DBQ20021116015012511/16/02 01:50:31  5-MIN KDBQ 160750Z AUTO 03006KT 10SM OVC026 M01/M05 A3022 800 75 -900 030/06 RMK AO2 SLP247 T10111050 TSNO
94908KDBQ DBQ20021116015512511/16/02 01:55:31  5-MIN KDBQ 160755Z AUTO 03007KT 10SM OVC026 M01/M05 A3022 800 75 -900 030/07 RMK AO2 SLP247 T10111050 TSNO
94908KDBQ DBQ20021116020010811/16/02 02:00:31  5-MIN KDBQ 160800Z AUTO 03008KT 10SM OVC026 M01/M05 A3022 800 75 -900 030/08 RMK AO2 TSNO
94908KDBQ DBQ20021116020510811/16/02 02:05:31  5-MIN KDBQ 160805Z AUTO 03007KT 10SM OVC028 M01/M05 A3022 800 75 -900 030/07 RMK AO2 TSNO
94908KDBQ DBQ20021116021010811/16/02 02:10:31  5-MIN KDBQ 160810Z AUTO 02008KT 10SM OVC028 M01/M05 A3022 800 75 -900 020/08 RMK AO2 TSNO
94908KDBQ DBQ20021116021511511/16/02 02:15:31  5-MIN KDBQ 160815Z AUTO 03007KT 10SM BKN029 OVC036 M01/M05 A3022 800 75 -900 030/07 RMK AO2 TSNO
94908KDBQ DBQ20021116022012211/16/02 02:20:31  5-MIN KDBQ 160820Z AUTO 03007KT 10SM BKN029 BKN036 OVC065 M01/M05 A3023 800 75 -900 030/07 RMK AO2 TSNO
94908KDBQ DBQ20021116022512211/16/02 02:25:31  5-MIN KDBQ 160825Z AUTO 03007KT 10SM BKN029 BKN036 OVC070 M01/M05 A3023 800 75 -900 030/07 RMK AO2 TSNO
94908KDBQ DBQ20021116023012211/16/02 02:30:31  5-MIN KDBQ 160830Z AUTO 03007KT 10SM BKN029 BKN036 OVC070 M01/M04 A3023 790 78 -900 030/07 RMK AO2 TSNO
94908KDBQ DBQ20021116023512211/16/02 02:35:31  5-MIN KDBQ 160835Z AUTO 02007KT 10SM BKN029 BKN036 OVC070 M01/M04 A3023 790 78 -900 020/07 RMK AO2 TSNO
94908KDBQ DBQ20021116024012211/16/02 02:40:31  5-MIN KDBQ 160840Z AUTO 02008KT 10SM BKN027 BKN037 OVC070 M01/M04 A3023 800 78 -900 020/08 RMK AO2 TSNO
94908KDBQ DBQ20021116024512211/16/02 02:45:31  5-MIN KDBQ 160845Z AUTO 03008KT 10SM BKN027 BKN037 OVC070 M01/M04 A3023 790 78 -900 030/08 RMK AO2 TSNO
94908KDBQ DBQ20021116025013111/16/02 02:50:31  5-MIN KDBQ 160850Z AUTO 03007KT 10SM OVC027 M01/M04 A3023 800 78 -900 020/07 RMK AO2 SLP248 T10111044 53003 TSNO
94908KDBQ DBQ20021116025513111/16/02 02:55:31  5-MIN KDBQ 160855Z AUTO 03007KT 10SM OVC027 M01/M04 A3023 800 78 -900 030/07 RMK AO2 SLP248 T10111044 55003 TSNO
94908KDBQ DBQ20021116030010811/16/02 03:00:31  5-MIN KDBQ 160900Z AUTO 02007KT 10SM OVC027 M01/M04 A3023 800 78 -900 020/07 RMK AO2 TSNO
94908KDBQ DBQ20021116030510811/16/02 03:05:31  5-MIN KDBQ 160905Z AUTO 02007KT 10SM OVC027 M01/M04 A3023 800 81 -900 020/07 RMK AO2 TSNO
94908KDBQ DBQ20021116031010811/16/02 03:10:31  5-MIN KDBQ 160910Z AUTO 02007KT 10SM OVC027 M01/M04 A3023 800 81 -900 020/07 RMK AO2 TSNO
94908KDBQ DBQ20021116031510811/16/02 03:15:31  5-MIN KDBQ 160915Z AUTO 01007KT 10SM OVC027 M01/M04 A3023 800 81 -900 010/07 RMK AO2 TSNO
94908KDBQ DBQ20021116032010811/16/02 03:20:31  5-MIN KDBQ 160920Z AUTO 01008KT 10SM OVC027 M01/M04 A3023 790 81 -900 010/08 RMK AO2 TSNO
94908KDBQ DBQ20021116032510711/16/02 03:25:31  5-MIN KDBQ 160925Z AUTO 01007KT 9SM OVC027 M01/M04 A3023 790 81 -900 010/07 RMK AO2 TSNO
94908KDBQ DBQ20021116033010711/16/02 03:30:31  5-MIN KDBQ 160930Z AUTO 01008KT 9SM OVC027 M01/M04 A3023 790 81 -900 010/08 RMK AO2 TSNO
94908KDBQ DBQ20021116033510711/16/02 03:35:31  5-MIN KDBQ 160935Z AUTO 02006KT 9SM OVC027 M01/M04 A3023 790 81 -900 020/06 RMK AO2 TSNO
94908KDBQ DBQ20021116034010711/16/02 03:40:31  5-MIN KDBQ 160940Z AUTO 02008KT 9SM OVC027 M01/M03 A3023 800 85 -900 020/08 RMK AO2 TSNO
94908KDBQ DBQ20021116034511411/16/02 03:45:31  5-MIN KDBQ 160945Z AUTO 02007KT 8SM FEW021 OVC027 M01/M03 A3023 800 85 -900 020/07 RMK AO2 TSNO
94908KDBQ DBQ20021116035013111/16/02 03:50:31  5-MIN KDBQ 160950Z AUTO 02007KT 8SM FEW021 OVC027 M01/M03 A3023 800 85 -900 020/07 RMK AO2 SLP248 T10111033 TSNO
94908KDBQ DBQ20021116035513111/16/02 03:55:31  5-MIN KDBQ 160955Z AUTO 03006KT 8SM FEW021 OVC027 M01/M03 A3023 800 85 -900 030/06 RMK AO2 SLP248 T10111033 TSNO
94908KDBQ DBQ20021116040012511/16/02 04:00:31  5-MIN KDBQ 161000Z AUTO 03006KT 7SM -SN OVC027 M01/M03 A3023 800 85 -900 030/06 RMK AO2 SNB0959 P0000 TSNO
94908KDBQ DBQ20021116040512511/16/02 04:05:31  5-MIN KDBQ 161005Z AUTO 03006KT 7SM -SN OVC027 M01/M03 A3023 800 85 -900 030/06 RMK AO2 SNB0959 P0000 TSNO
94908KDBQ DBQ20021116041012711/16/02 04:10:31  5-MIN KDBQ 161010Z AUTO 03006KT 6SM BR OVC027 M01/M03 A3023 800 85 -900 030/06 RMK AO2 SNB0959E10 P0000 TSNO
94908KDBQ DBQ20021116041512411/16/02 04:15:31  5-MIN KDBQ 161015Z AUTO 03007KT 7SM OVC027 M01/M03 A3023 800 88 -900 030/07 RMK AO2 SNB0959E10 P0000 TSNO
94908KDBQ DBQ20021116042012411/16/02 04:20:31  5-MIN KDBQ 161020Z AUTO 03007KT 7SM OVC027 M01/M03 A3023 800 88 -900 030/07 RMK AO2 SNB0959E10 P0000 TSNO
94908KDBQ DBQ20021116042512411/16/02 04:25:31  5-MIN KDBQ 161025Z AUTO 03006KT 7SM OVC027 M01/M03 A3023 800 88 -900 030/06 RMK AO2 SNB0959E10 P0000 TSNO
94908KDBQ DBQ20021116043012411/16/02 04:30:31  5-MIN KDBQ 161030Z AUTO 03006KT 7SM OVC027 M01/M03 A3023 800 88 -900 030/06 RMK AO2 SNB0959E10 P0000 TSNO
94908KDBQ DBQ20021116043512411/16/02 04:35:31  5-MIN KDBQ 161035Z AUTO 03006KT 7SM OVC027 M01/M03 A3023 800 88 -900 030/06 RMK AO2 SNB0959E10 P0000 TSNO
94908KDBQ DBQ20021116044012411/16/02 04:40:31  5-MIN KDBQ 161040Z AUTO 03006KT 7SM OVC027 M01/M03 A3023 800 88 -900 030/06 RMK AO2 SNB0959E10 P0000 TSNO
94908KDBQ DBQ20021116044512411/16/02 04:45:31  5-MIN KDBQ 161045Z AUTO 03006KT 7SM OVC025 M01/M03 A3023 800 88 -900 030/06 RMK AO2 SNB0959E10 P0000 TSNO
94908KDBQ DBQ20021116045014811/16/02 04:50:31  5-MIN KDBQ 161050Z AUTO 03006KT 7SM SCT015 OVC025 M01/M03 A3023 800 88 -900 030/06 RMK AO2 SNB0959E10 SLP249 P0000 T10111028 TSNO
94908KDBQ DBQ20021116045514811/16/02 04:55:31  5-MIN KDBQ 161055Z AUTO 03007KT 7SM SCT015 OVC025 M01/M03 A3023 800 88 -900 030/07 RMK AO2 SNB0959E10 SLP249 P0000 T10111028 TSNO
94908KDBQ DBQ20021116050011411/16/02 05:00:31  5-MIN KDBQ 161100Z AUTO 04006KT 7SM BKN015 OVC025 M01/M03 A3023 800 88 -900 040/06 RMK AO2 TSNO
94908KDBQ DBQ20021116050511411/16/02 05:05:31  5-MIN KDBQ 161105Z AUTO 03006KT 7SM BKN015 OVC025 M01/M03 A3023 790 88 -900 030/06 RMK AO2 TSNO
94908KDBQ DBQ20021116051011411/16/02 05:10:31  5-MIN KDBQ 161110Z AUTO 03006KT 7SM BKN015 OVC025 M01/M03 A3023 800 88 -900 030/06 RMK AO2 TSNO
94908KDBQ DBQ20021116051511411/16/02 05:15:31  5-MIN KDBQ 161115Z AUTO 03006KT 7SM BKN013 OVC025 M01/M03 A3023 800 88 -900 030/06 RMK AO2 TSNO
94908KDBQ DBQ20021116052012611/16/02 05:20:31  5-MIN KDBQ 161120Z AUTO 03007KT 7SM BKN010 OVC016 M01/M03 A3023 800 88 -900 030/07 RMK AO2 CIG 007V012 TSNO
94908KDBQ DBQ20021116052512211/16/02 05:25:31  5-MIN KDBQ 161125Z AUTO 03006KT 7SM BKN010 BKN016 OVC025 M02/M03 A3023 800 92 -1000 030/06 RMK AO2 TSNO
94908KDBQ DBQ20021116053012111/16/02 05:30:31  5-MIN KDBQ 161130Z AUTO 03007KT 7SM SCT011 BKN016 OVC025 M01/M03 A3023 800 88 -900 030/07 RMK AO2 TSNO
94908KDBQ DBQ20021116053512211/16/02 05:35:31  5-MIN KDBQ 161135Z AUTO 04007KT 7SM SCT008 BKN015 OVC025 M02/M03 A3023 800 92 -1000 030/07 RMK AO2 TSNO
94908KDBQ DBQ20021116054012211/16/02 05:40:31  5-MIN KDBQ 161140Z AUTO 03006KT 7SM SCT008 BKN015 OVC025 M02/M02 A3023 800 96 -1000 030/06 RMK AO2 TSNO
94908KDBQ DBQ20021116054511211/16/02 05:45:31  5-MIN KDBQ 161145Z 04007KT 7SM FEW008 BKN015 OVC025 M02/M03 A3023 800 92 -1000 030/07 RMK AO2
94908KDBQ DBQ20021116055015311/16/02 05:50:31  5-MIN KDBQ 161150Z 04008KT 7SM FEW008 BKN015 OVC025 M02/M03 A3023 800 92 -1000 040/08 RMK AO2 SLP249 60000 T10171028 11011 21017 55003
94908KDBQ DBQ20021116055515311/16/02 05:55:31  5-MIN KDBQ 161155Z 04007KT 7SM FEW008 BKN015 OVC025 M02/M03 A3023 800 92 -1000 040/07 RMK AO2 SLP249 60000 T10171028 11011 21017 50000
94908KDBQ DBQ20021116060013311/16/02 06:00:31  5-MIN KDBQ 161200Z 03007KT 6SM -SN BR FEW008 BKN015 OVC025 M02/M03 A3023 800 92 -1000 030/07 RMK AO2 SNB1157 P0000
94908KDBQ DBQ20021116060513311/16/02 06:05:31  5-MIN KDBQ 161205Z 04007KT 6SM -SN BR SCT010 BKN015 OVC025 M02/M03 A3023 800 92 -1000 040/07 RMK AO2 SNB1157 P0000
94908KDBQ DBQ20021116061013311/16/02 06:10:31  5-MIN KDBQ 161210Z 03007KT 6SM -SN BR FEW008 BKN015 OVC025 M02/M03 A3023 800 92 -1000 030/07 RMK AO2 SNB1157 P0000
94908KDBQ DBQ20021116061513311/16/02 06:15:31  5-MIN KDBQ 161215Z 04007KT 6SM -SN BR FEW008 BKN015 OVC025 M02/M03 A3023 790 92 -1000 040/07 RMK AO2 SNB1157 P0000
94908KDBQ DBQ20021116062013311/16/02 06:20:31  5-MIN KDBQ 161220Z 04005KT 6SM -SN BR FEW008 BKN014 OVC025 M02/M03 A3023 790 92 -1000 040/05 RMK AO2 SNB1157 P0000
94908KDBQ DBQ20021116062513311/16/02 06:25:31  5-MIN KDBQ 161225Z 04006KT 6SM -SN BR FEW008 BKN014 OVC025 M02/M03 A3023 790 92 -1000 040/06 RMK AO2 SNB1157 P0000
94908KDBQ DBQ20021116063013311/16/02 06:30:31  5-MIN KDBQ 161230Z 04007KT 6SM -SN BR FEW008 BKN014 OVC025 M02/M03 A3023 790 92 -1000 040/07 RMK AO2 SNB1157 P0000
94908KDBQ DBQ20021116063513311/16/02 06:35:31  5-MIN KDBQ 161235Z 04006KT 6SM -SN BR SCT008 BKN014 OVC025 M02/M03 A3023 790 92 -1000 040/06 RMK AO2 SNB1157 P0000
94908KDBQ DBQ20021116064013011/16/02 06:40:31  5-MIN KDBQ 161240Z 04005KT 7SM -SN SCT007 BKN012 OVC025 M02/M03 A3023 790 92 -1000 040/05 RMK AO2 SNB1157 P0000
94908KDBQ DBQ20021116064513011/16/02 06:45:31  5-MIN KDBQ 161245Z 04006KT 7SM -SN SCT007 BKN012 OVC027 M02/M03 A3023 790 92 -1000 040/06 RMK AO2 SNB1157 P0000
94908KDBQ DBQ20021116065014711/16/02 06:50:31  5-MIN KDBQ 161250Z 05006KT 7SM -SN SCT009 BKN014 OVC027 M02/M03 A3023 790 92 -1000 050/06 RMK AO2 SNB1157 SLP251 P0000 T10171028
94908KDBQ DBQ20021116065514711/16/02 06:55:31  5-MIN KDBQ 161255Z 04004KT 7SM -SN SCT009 BKN014 OVC025 M02/M03 A3023 790 92 -1000 040/04 RMK AO2 SNB1157 SLP251 P0000 T10171028
94908KDBQ DBQ20021116070012111/16/02 07:00:31  5-MIN KDBQ 161300Z 06006KT 8SM -SN FEW007 BKN014 OVC025 M01/M03 A3023 790 88 -900 060/06 RMK AO2 P0000
94908KDBQ DBQ20021116070512111/16/02 07:05:31  5-MIN KDBQ 161305Z 06005KT 8SM -SN FEW007 BKN014 OVC025 M01/M03 A3024 790 88 -900 060/05 RMK AO2 P0000
94908KDBQ DBQ20021116071011511/16/02 07:10:31  5-MIN KDBQ 161310Z 04004KT 7SM -SN BKN012 OVC025 M02/M03 A3024 790 92 -1000 040/04 RMK AO2 P0000
94908KDBQ DBQ20021116071511811/16/02 07:15:31  5-MIN KDBQ 161315Z 06006KT 6SM -SN BR BKN014 OVC025 M02/M03 A3024 790 92 -1000 060/06 RMK AO2 P0000
94908KDBQ DBQ20021116072011711/16/02 07:20:31  5-MIN KDBQ 161320Z 07005KT 6SM -SN BR BKN014 OVC025 M01/M03 A3024 790 88 -900 060/05 RMK AO2 P0000
94908KDBQ DBQ20021116072511411/16/02 07:25:31  5-MIN KDBQ 161325Z 05005KT 7SM -SN BKN014 OVC025 M01/M03 A3024 790 88 -900 050/05 RMK AO2 P0000
94908KDBQ DBQ20021116073012511/16/02 07:30:31  5-MIN KDBQ 161330Z 05005KT 6SM -SN BR SCT010 BKN014 OVC025 M02/M03 A3024 790 92 -1000 050/05 RMK AO2 P0000
94908KDBQ DBQ20021116073512411/16/02 07:35:31  5-MIN KDBQ 161335Z 05006KT 6SM -SN BR BKN012 BKN017 OVC025 M01/M03 A3024 790 88 -900 050/06 RMK AO2 P0000
94908KDBQ DBQ20021116074013711/16/02 07:40:31  5-MIN KDBQ 161340Z 05006KT 6SM -SN BR BKN010 BKN016 OVC025 M02/M03 A3024 780 92 -1000 050/06 RMK AO2 CIG 008V013 P0000
94908KDBQ DBQ20021116074511811/16/02 07:45:31  5-MIN KDBQ 161345Z 05006KT 5SM -SN BR BKN012 OVC025 M02/M03 A3024 780 92 -1000 050/06 RMK AO2 P0000
94908KDBQ DBQ20021116075013511/16/02 07:50:31  5-MIN KDBQ 161350Z 04006KT 5SM -SN BR BKN012 OVC025 M02/M03 A3024 780 92 -1000 040/06 RMK AO2 SLP254 P0000 T10171028
94908KDBQ DBQ20021116075513511/16/02 07:55:31  5-MIN KDBQ 161355Z 05007KT 5SM -SN BR BKN012 OVC025 M02/M03 A3024 780 92 -1000 050/07 RMK AO2 SLP254 P0000 T10171028
94908KDBQ DBQ20021116080012511/16/02 08:00:31  5-MIN KDBQ 161400Z 05005KT 5SM -SN BR BKN012 BKN017 OVC025 M02/M03 A3024 780 92 -1000 050/05 RMK AO2 P0000
94908KDBQ DBQ20021116080512511/16/02 08:05:31  5-MIN KDBQ 161405Z 05006KT 5SM -SN BR BKN012 BKN017 OVC025 M02/M03 A3024 780 92 -1000 050/06 RMK AO2 P0000
94908KDBQ DBQ20021116081011711/16/02 08:10:31  5-MIN KDBQ 161410Z 04006KT 5SM -SN BR BKN010 OVC025 M01/M03 A3024 790 88 -900 040/06 RMK AO2 P0000
94908KDBQ DBQ20021116081511811/16/02 08:15:31  5-MIN KDBQ 161415Z 05005KT 5SM -SN BR BKN010 OVC025 M02/M03 A3024 780 92 -1000 050/05 RMK AO2 P0000
94908KDBQ DBQ20021116082011811/16/02 08:20:31  5-MIN KDBQ 161420Z 07006KT 5SM -SN BR BKN012 OVC025 M02/M03 A3024 780 92 -1000 070/06 RMK AO2 P0000
94908KDBQ DBQ20021116082512411/16/02 08:25:31  5-MIN KDBQ 161425Z 06006KT 5SM -SN BR BKN012 BKN016 OVC025 M01/M03 A3024 780 88 -900 060/06 RMK AO2 P0000
94908KDBQ DBQ20021116083011711/16/02 08:30:31  5-MIN KDBQ 161430Z 06006KT 5SM -SN BR BKN012 OVC025 M01/M03 A3024 790 88 -900 060/06 RMK AO2 P0000
94908KDBQ DBQ20021116083511011/16/02 08:35:31  5-MIN KDBQ 161435Z 06007KT 6SM -SN BR OVC012 M01/M03 A3024 790 88 -900 060/07 RMK AO2 P0000
94908KDBQ DBQ20021116084010711/16/02 08:40:31  5-MIN KDBQ 161440Z 06005KT 7SM -SN OVC012 M01/M03 A3024 790 85 -900 060/05 RMK AO2 P0000
94908KDBQ DBQ20021116084511011/16/02 08:45:31  5-MIN KDBQ 161445Z 05006KT 6SM -SN BR OVC012 M01/M03 A3024 790 88 -900 050/06 RMK AO2 P0000
94908KDBQ DBQ20021116085013611/16/02 08:50:31  5-MIN KDBQ 161450Z 07005KT 7SM -SN OVC012 M01/M03 A3024 790 85 -900 070/05 RMK AO2 SLP253 P0000 60000 T10111033 50000
94908KDBQ DBQ20021116085513911/16/02 08:55:31  5-MIN KDBQ 161455Z 05006KT 5SM -SN BR OVC012 M01/M03 A3024 790 88 -900 050/06 RMK AO2 SLP253 P0000 60000 T10111028 50004
94908KDBQ DBQ20021116090011011/16/02 09:00:31  5-MIN KDBQ 161500Z 05006KT 5SM -SN BR OVC012 M01/M03 A3024 780 88 -900 050/06 RMK AO2 P0000
94908KDBQ DBQ20021116090511011/16/02 09:05:31  5-MIN KDBQ 161505Z 06007KT 5SM -SN BR OVC012 M01/M03 A3024 780 85 -900 060/07 RMK AO2 P0000
94908KDBQ DBQ20021116091010711/16/02 09:10:31  5-MIN KDBQ 161510Z 06008KT 7SM -SN OVC012 M01/M03 A3024 780 85 -900 060/08 RMK AO2 P0000
94908KDBQ DBQ20021116091510711/16/02 09:15:31  5-MIN KDBQ 161515Z 05008KT 8SM -SN OVC012 M01/M03 A3024 780 85 -900 050/08 RMK AO2 P0000
94908KDBQ DBQ20021116092010811/16/02 09:20:31  5-MIN KDBQ 161520Z 06008KT 9SM -SN OVC012 M02/M04 A3024 780 85 -1000 060/08 RMK AO2 P0000
94908KDBQ DBQ20021116092510811/16/02 09:25:31  5-MIN KDBQ 161525Z 07008KT 9SM -SN OVC012 M02/M04 A3024 780 85 -1000 060/08 RMK AO2 P0000
94908KDBQ DBQ20021116093010711/16/02 09:30:31  5-MIN KDBQ 161530Z 07008KT 9SM -SN OVC012 M01/M04 A3024 780 81 -900 070/08 RMK AO2 P0000
94908KDBQ DBQ20021116093510711/16/02 09:35:31  5-MIN KDBQ 161535Z 07008KT 9SM -SN OVC012 M01/M04 A3024 780 81 -900 070/08 RMK AO2 P0000
94908KDBQ DBQ20021116094010711/16/02 09:40:31  5-MIN KDBQ 161540Z 07007KT 9SM -SN OVC012 M01/M03 A3024 780 85 -900 060/07 RMK AO2 P0000
94908KDBQ DBQ20021116094510711/16/02 09:45:31  5-MIN KDBQ 161545Z 05007KT 9SM -SN OVC012 M01/M03 A3024 780 85 -900 050/07 RMK AO2 P0000
94908KDBQ DBQ20021116095013111/16/02 09:50:31  5-MIN KDBQ 161550Z 08008KT 9SM -SN BKN012 OVC024 M01/M03 A3024 780 85 -900 080/08 RMK AO2 SLP255 P0000 T10111033
94908KDBQ DBQ20021116095513111/16/02 09:55:31  5-MIN KDBQ 161555Z 08006KT 9SM -SN BKN012 OVC024 M01/M04 A3025 780 81 -900 080/06 RMK AO2 SLP256 P0000 T10111039
94908KDBQ DBQ20021116100011811/16/02 10:00:31  5-MIN KDBQ 161600Z 09007KT 9SM BKN012 OVC024 M01/M04 A3025 780 81 -900 080/07 RMK AO2 SNE1558 P0000
94908KDBQ DBQ20021116100511811/16/02 10:05:31  5-MIN KDBQ 161605Z 07006KT 8SM BKN012 OVC024 M01/M04 A3025 780 81 -900 070/06 RMK AO2 SNE1558 P0000
94908KDBQ DBQ20021116101011811/16/02 10:10:31  5-MIN KDBQ 161610Z 07007KT 7SM SCT012 OVC024 M01/M03 A3025 780 85 -900 070/07 RMK AO2 SNE1558 P0000
94908KDBQ DBQ20021116101511711/16/02 10:15:31  5-MIN KDBQ 161615Z 07008KT 6SM -SN BR BKN012 OVC024 M01/M03 A3024 780 85 -900 070/08 RMK AO2 P0000
94908KDBQ DBQ20021116102011711/16/02 10:20:31  5-MIN KDBQ 161620Z 07007KT 6SM -SN BR BKN012 OVC024 M01/M03 A3024 780 85 -900 070/07 RMK AO2 P0000
94908KDBQ DBQ20021116102511711/16/02 10:25:31  5-MIN KDBQ 161625Z 08008KT 5SM -SN BR BKN012 OVC024 M01/M03 A3025 780 85 -900 080/08 RMK AO2 P0000
94908KDBQ DBQ20021116103011711/16/02 10:30:31  5-MIN KDBQ 161630Z 07007KT 5SM -SN BR BKN012 OVC024 M01/M03 A3025 780 85 -900 070/07 RMK AO2 P0000
94908KDBQ DBQ20021116103511711/16/02 10:35:31  5-MIN KDBQ 161635Z 06007KT 5SM -SN BR BKN012 OVC024 M01/M03 A3025 780 85 -900 060/07 RMK AO2 P0000
94908KDBQ DBQ20021116104011011/16/02 10:40:31  5-MIN KDBQ 161640Z 07007KT 5SM -SN BR OVC012 M01/M03 A3024 780 85 -900 070/07 RMK AO2 P0000
94908KDBQ DBQ20021116104511011/16/02 10:45:31  5-MIN KDBQ 161645Z 10007KT 5SM -SN BR OVC012 M01/M03 A3024 780 85 -900 100/07 RMK AO2 P0000
94908KDBQ DBQ20021116105012711/16/02 10:50:31  5-MIN KDBQ 161650Z 08007KT 5SM -SN BR OVC012 M01/M03 A3024 780 85 -900 080/07 RMK AO2 SLP255 P0000 T10111033
94908KDBQ DBQ20021116105512411/16/02 10:55:31  5-MIN KDBQ 161655Z 10009KT 5SM -SN OVC012 M01/M04 A3024 780 81 -900 100/09 RMK AO2 SLP254 P0000 T10111039
94908KDBQ DBQ20021116110011411/16/02 11:00:31  5-MIN KDBQ 161700Z 10008KT 4SM -SN BKN012 OVC018 M01/M04 A3024 780 81 -900 100/08 RMK AO2 P0000
94908KDBQ DBQ20021116110511711/16/02 11:05:31  5-MIN KDBQ 161705Z 08007KT 4SM -SN BR BKN012 OVC018 M01/M03 A3024 790 85 -900 080/07 RMK AO2 P0000
94908KDBQ DBQ20021116111011011/16/02 11:10:31  5-MIN KDBQ 161710Z 09007KT 3SM -SN BR OVC014 M01/M03 A3024 790 85 -900 090/07 RMK AO2 P0000
94908KDBQ DBQ20021116111511011/16/02 11:15:31  5-MIN KDBQ 161715Z 07007KT 4SM -SN BR OVC014 M01/M03 A3024 790 85 -900 070/07 RMK AO2 P0000
94908KDBQ DBQ20021116112010711/16/02 11:20:31  5-MIN KDBQ 161720Z 10007KT 5SM -SN OVC014 M01/M03 A3023 790 81 -800 100/07 RMK AO2 P0000
94908KDBQ DBQ20021116112511411/16/02 11:25:31  5-MIN KDBQ 161725Z 09008KT 5SM -SN BKN016 OVC029 M01/M04 A3023 790 81 -900 090/08 RMK AO2 P0000
94908KDBQ DBQ20021116113012111/16/02 11:30:31  5-MIN KDBQ 161730Z 10008KT 5SM -SN BKN016 BKN021 OVC030 M01/M04 A3023 790 81 -900 100/08 RMK AO2 P0000
94908KDBQ DBQ20021116113512111/16/02 11:35:31  5-MIN KDBQ 161735Z VRB04KT 5SM -SN BKN016 BKN021 OVC030 M01/M04 A3023 790 78 -800 VRB/04 RMK AO2 P0000
94908KDBQ DBQ20021116114012111/16/02 11:40:31  5-MIN KDBQ 161740Z 09006KT 6SM -SN BKN016 BKN021 OVC030 M01/M04 A3023 790 78 -800 080/06 RMK AO2 P0000
94908KDBQ DBQ20021116114512111/16/02 11:45:31  5-MIN KDBQ 161745Z 09008KT 6SM -SN BKN016 BKN021 OVC030 M01/M04 A3023 800 78 -800 090/08 RMK AO2 P0000
94908KDBQ DBQ20021116115015511/16/02 11:50:31  5-MIN KDBQ 161750Z 08009KT 7SM -SN BKN016 OVC030 M01/M04 A3022 800 75 -800 080/09 RMK AO2 SLP248 P0000 60000 T10061044 11006 21017 50004
94908KDBQ DBQ20021116115515511/16/02 11:55:31  5-MIN KDBQ 161755Z 09007KT 7SM -SN BKN018 OVC030 M01/M04 A3022 800 75 -800 090/07 RMK AO2 SLP248 P0000 60000 T10061044 11006 21017 58005
94908KDBQ DBQ20021116120012511/16/02 12:00:31  5-MIN KDBQ 161800Z 10006KT 8SM BKN018 BKN024 OVC030 M01/M04 A3022 800 75 -800 090/06 RMK AO2 SNE1757 P0000
94908KDBQ DBQ20021116120512511/16/02 12:05:31  5-MIN KDBQ 161805Z 08007KT 9SM SCT018 BKN022 OVC032 M01/M04 A3022 800 75 -800 080/07 RMK AO2 SNE1757 P0000
94908KDBQ DBQ20021116121012511/16/02 12:10:31  5-MIN KDBQ 161810Z 08008KT 9SM FEW016 SCT022 OVC032 M01/M04 A3022 800 75 -800 080/08 RMK AO2 SNE1757 P0000
94908KDBQ DBQ20021116121511811/16/02 12:15:31  5-MIN KDBQ 161815Z 08007KT 8SM SCT020 OVC032 M01/M04 A3022 810 75 -800 080/07 RMK AO2 SNE1757 P0000
94908KDBQ DBQ20021116122011811/16/02 12:20:31  5-MIN KDBQ 161820Z 09007KT 9SM BKN020 OVC030 M01/M05 A3021 810 72 -800 090/07 RMK AO2 SNE1757 P0000
94908KDBQ DBQ20021116122511911/16/02 12:25:31  5-MIN KDBQ 161825Z 10007KT 10SM BKN022 OVC030 M01/M05 A3021 810 72 -800 100/07 RMK AO2 SNE1757 P0000
94908KDBQ DBQ20021116123011911/16/02 12:30:31  5-MIN KDBQ 161830Z 11007KT 10SM BKN022 OVC030 M01/M06 A3021 810 69 -800 110/07 RMK AO2 SNE1757 P0000
94908KDBQ DBQ20021116123511911/16/02 12:35:31  5-MIN KDBQ 161835Z 09005KT 10SM BKN022 OVC030 M01/M06 A3021 810 69 -800 090/05 RMK AO2 SNE1757 P0000
94908KDBQ DBQ20021116124011811/16/02 12:40:31  5-MIN KDBQ 161840Z 07007KT 10SM BKN022 OVC033 00/M06 A3021 810 66 -700 070/07 RMK AO2 SNE1757 P0000
94908KDBQ DBQ20021116124511811/16/02 12:45:31  5-MIN KDBQ 161845Z 09006KT 10SM BKN024 OVC035 00/M06 A3021 810 66 -700 090/06 RMK AO2 SNE1757 P0000
94908KDBQ DBQ20021116125013511/16/02 12:50:31  5-MIN KDBQ 161850Z 10007KT 10SM BKN024 OVC037 00/M06 A3021 820 63 -700 100/07 RMK AO2 SNE1757 SLP242 P0000 T00001061
94908KDBQ DBQ20021116125514211/16/02 12:55:31  5-MIN KDBQ 161855Z 07004KT 10SM SCT024 BKN037 OVC055 00/M06 A3020 820 63 -700 070/04 RMK AO2 SNE1757 SLP241 P0000 T00001061
94908KDBQ DBQ20021116130011111/16/02 13:00:31  5-MIN KDBQ 161900Z 05004KT 10SM SCT024 BKN037 OVC046 00/M06 A3020 820 66 -700 050/04 RMK AO2
94908KDBQ DBQ20021116130511111/16/02 13:05:31  5-MIN KDBQ 161905Z 06006KT 10SM SCT024 SCT037 OVC046 00/M06 A3020 820 66 -700 060/06 RMK AO2
94908KDBQ DBQ20021116131011111/16/02 13:10:31  5-MIN KDBQ 161910Z 07006KT 10SM SCT024 BKN046 OVC055 00/M06 A3020 820 66 -700 070/06 RMK AO2
94908KDBQ DBQ20021116131511111/16/02 13:15:31  5-MIN KDBQ 161915Z 09007KT 10SM SCT026 BKN046 OVC055 00/M06 A3020 820 66 -700 080/07 RMK AO2
94908KDBQ DBQ20021116132010411/16/02 13:20:31  5-MIN KDBQ 161920Z 08006KT 10SM SCT026 OVC046 00/M06 A3020 820 63 -700 080/06 RMK AO2
94908KDBQ DBQ20021116132510411/16/02 13:25:31  5-MIN KDBQ 161925Z 08005KT 10SM SCT026 OVC046 00/M06 A3020 820 63 -700 080/05 RMK AO2
94908KDBQ DBQ20021116133010411/16/02 13:30:31  5-MIN KDBQ 161930Z 09008KT 10SM FEW026 OVC046 00/M06 A3019 830 63 -700 090/08 RMK AO2
94908KDBQ DBQ20021116133510411/16/02 13:35:31  5-MIN KDBQ 161935Z 08004KT 10SM FEW026 OVC048 00/M07 A3019 830 61 -700 080/04 RMK AO2
94908KDBQ DBQ20021116134010411/16/02 13:40:31  5-MIN KDBQ 161940Z 06007KT 10SM FEW026 OVC048 00/M06 A3019 830 63 -700 050/07 RMK AO2
94908KDBQ DBQ20021116134510411/16/02 13:45:31  5-MIN KDBQ 161945Z 08006KT 10SM BKN048 OVC060 00/M06 A3019 830 66 -700 070/06 RMK AO2
94908KDBQ DBQ20021116135012011/16/02 13:50:31  5-MIN KDBQ 161950Z 10005KT 9SM BKN048 OVC060 00/M06 A3019 830 63 -700 100/05 RMK AO2 SLP235 T00001061
94908KDBQ DBQ20021116135512011/16/02 13:55:31  5-MIN KDBQ 161955Z 07007KT 9SM BKN048 OVC060 00/M06 A3018 830 63 -700 070/07 RMK AO2 SLP235 T00001061
94908KDBQ DBQ20021116140010411/16/02 14:00:31  5-MIN KDBQ 162000Z 07005KT 10SM BKN050 OVC060 00/M06 A3018 830 63 -700 070/05 RMK AO2
94908KDBQ DBQ20021116140510411/16/02 14:05:31  5-MIN KDBQ 162005Z 06006KT 10SM BKN050 OVC060 00/M06 A3018 840 66 -700 060/06 RMK AO2
94908KDBQ DBQ20021116141011111/16/02 14:10:31  5-MIN KDBQ 162010Z 06005KT 10SM FEW027 BKN048 OVC060 01/M06 A3018 840 63 -600 060/05 RMK AO2
94908KDBQ DBQ20021116141511111/16/02 14:15:31  5-MIN KDBQ 162015Z 09005KT 10SM SCT027 BKN050 OVC060 00/M06 A3018 840 63 -700 090/05 RMK AO2
94908KDBQ DBQ20021116142011111/16/02 14:20:31  5-MIN KDBQ 162020Z VRB04KT 10SM SCT029 BKN042 OVC060 00/M06 A3018 840 63 -700 VRB/04 RMK AO2
94908KDBQ DBQ20021116142511111/16/02 14:25:31  5-MIN KDBQ 162025Z 06004KT 10SM SCT027 BKN042 OVC065 01/M06 A3018 840 63 -600 060/04 RMK AO2
94908KDBQ DBQ20021116143011111/16/02 14:30:31  5-MIN KDBQ 162030Z 05006KT 10SM BKN027 BKN049 OVC065 00/M05 A3018 840 69 -700 050/06 RMK AO2
94908KDBQ DBQ20021116143510311/16/02 14:35:31  5-MIN KDBQ 162035Z 05004KT 9SM BKN027 OVC065 00/M06 A3018 840 66 -700 040/04 RMK AO2
94908KDBQ DBQ20021116144011011/16/02 14:40:31  5-MIN KDBQ 162040Z 06003KT 9SM BKN027 BKN045 OVC065 00/M05 A3018 840 69 -700 060/03 RMK AO2
94908KDBQ DBQ20021116144511111/16/02 14:45:31  5-MIN KDBQ 162045Z 04003KT 10SM BKN027 BKN045 OVC065 00/M05 A3018 840 69 -700 030/03 RMK AO2
94908KDBQ DBQ20021116145013311/16/02 14:50:31  5-MIN KDBQ 162050Z 03004KT 10SM BKN027 OVC065 00/M05 A3018 840 69 -700 030/04 RMK AO2 SLP233 60000 T00001050 58005
94908KDBQ DBQ20021116145512611/16/02 14:55:31  5-MIN KDBQ 162055Z VRB03KT 10SM OVC029 00/M05 A3018 840 69 -700 VRB/03 RMK AO2 SLP233 60000 T00001050 56014
94908KDBQ DBQ20021116150011111/16/02 15:00:31  5-MIN KDBQ 162100Z 04004KT 10SM BKN029 BKN033 OVC065 00/M05 A3018 840 69 -700 030/04 RMK AO2
94908KDBQ DBQ20021116150510411/16/02 15:05:31  5-MIN KDBQ 162105Z 03004KT 10SM BKN029 OVC065 00/M04 A3018 840 72 -700 030/04 RMK AO2
94908KDBQ DBQ20021116151010411/16/02 15:10:31  5-MIN KDBQ 162110Z 02005KT 10SM BKN029 OVC065 00/M04 A3018 840 72 -700 020/05 RMK AO2
94908KDBQ DBQ20021116151510411/16/02 15:15:31  5-MIN KDBQ 162115Z 04004KT 10SM BKN029 OVC065 00/M04 A3018 840 72 -700 040/04 RMK AO2
94908KDBQ DBQ20021116152010411/16/02 15:20:31  5-MIN KDBQ 162120Z 05005KT 10SM BKN029 OVC065 00/M05 A3018 840 69 -700 040/05 RMK AO2
94908KDBQ DBQ20021116152510411/16/02 15:25:31  5-MIN KDBQ 162125Z 04005KT 10SM BKN029 OVC065 00/M05 A3018 840 69 -700 040/05 RMK AO2
94908KDBQ DBQ20021116153010411/16/02 15:30:31  5-MIN KDBQ 162130Z 06004KT 10SM BKN029 OVC065 00/M05 A3018 840 69 -700 060/04 RMK AO2
94908KDBQ DBQ20021116153510411/16/02 15:35:31  5-MIN KDBQ 162135Z 05004KT 10SM BKN029 OVC065 00/M05 A3018 840 69 -700 050/04 RMK AO2
94908KDBQ DBQ20021116154010411/16/02 15:40:31  5-MIN KDBQ 162140Z 03005KT 10SM BKN029 OVC065 00/M05 A3017 840 69 -700 030/05 RMK AO2
94908KDBQ DBQ20021116154510411/16/02 15:45:31  5-MIN KDBQ 162145Z 03005KT 10SM BKN029 OVC065 00/M04 A3017 840 72 -700 020/05 RMK AO2
94908KDBQ DBQ20021116155012111/16/02 15:50:31  5-MIN KDBQ 162150Z 03004KT 10SM SCT039 OVC065 00/M04 A3017 850 72 -700 030/04 RMK AO2 SLP230 T00001044
94908KDBQ DBQ20021116155512811/16/02 15:55:31  5-MIN KDBQ 162155Z 03004KT 10SM FEW028 SCT039 OVC065 00/M04 A3017 850 72 -700 030/04 RMK AO2 SLP231 T00001044
94908KDBQ DBQ20021116160011111/16/02 16:00:31  5-MIN KDBQ 162200Z 03005KT 10SM SCT030 SCT039 OVC065 00/M04 A3017 850 72 -700 030/05 RMK AO2
94908KDBQ DBQ20021116160511111/16/02 16:05:31  5-MIN KDBQ 162205Z 04005KT 10SM SCT030 BKN039 OVC065 00/M04 A3017 850 72 -700 040/05 RMK AO2
94908KDBQ DBQ20021116161011211/16/02 16:10:31  5-MIN KDBQ 162210Z 02005KT 10SM FEW027 BKN039 OVC065 M01/M04 A3017 850 75 -800 020/05 RMK AO2
94908KDBQ DBQ20021116161511211/16/02 16:15:31  5-MIN KDBQ 162215Z 03005KT 10SM FEW027 BKN036 OVC065 M01/M04 A3017 850 75 -800 030/05 RMK AO2
94908KDBQ DBQ20021116162011211/16/02 16:20:31  5-MIN KDBQ 162220Z 03005KT 10SM FEW026 BKN038 OVC065 M01/M04 A3017 850 78 -800 020/05 RMK AO2
94908KDBQ DBQ20021116162511211/16/02 16:25:31  5-MIN KDBQ 162225Z 03006KT 10SM FEW021 BKN038 OVC050 M01/M04 A3017 850 75 -800 030/06 RMK AO2
94908KDBQ DBQ20021116163011211/16/02 16:30:31  5-MIN KDBQ 162230Z 03006KT 10SM FEW021 BKN038 OVC065 M01/M04 A3017 850 75 -800 030/06 RMK AO2
94908KDBQ DBQ20021116163511211/16/02 16:35:31  5-MIN KDBQ 162235Z 02006KT 10SM FEW027 BKN038 OVC060 M01/M04 A3017 850 75 -800 020/06 RMK AO2
94908KDBQ DBQ20021116164011211/16/02 16:40:31  5-MIN KDBQ 162240Z 03006KT 10SM FEW027 SCT038 OVC065 M01/M04 A3017 850 75 -800 020/06 RMK AO2
94908KDBQ DBQ20021116164510511/16/02 16:45:31  5-MIN KDBQ 162245Z 03005KT 10SM FEW027 OVC065 M01/M04 A3017 850 78 -800 030/05 RMK AO2
94908KDBQ DBQ20021116165012211/16/02 16:50:31  5-MIN KDBQ 162250Z 03005KT 10SM FEW027 OVC065 M01/M04 A3017 850 78 -800 030/05 RMK AO2 SLP229 T10111044
94908KDBQ DBQ20021116165511511/16/02 16:55:31  5-MIN KDBQ 162255Z 03005KT 10SM OVC060 M01/M04 A3017 850 78 -800 030/05 RMK AO2 SLP229 T10111044
94908KDBQ DBQ20021116170009811/16/02 17:00:31  5-MIN KDBQ 162300Z 02005KT 10SM OVC060 M01/M04 A3017 850 78 -800 020/05 RMK AO2
94908KDBQ DBQ20021116170510511/16/02 17:05:31  5-MIN KDBQ 162305Z 02005KT 10SM FEW038 OVC060 M01/M04 A3017 850 78 -800 020/05 RMK AO2
94908KDBQ DBQ20021116171010511/16/02 17:10:31  5-MIN KDBQ 162310Z 03004KT 10SM SCT038 OVC060 M01/M04 A3017 850 78 -800 020/04 RMK AO2
94908KDBQ DBQ20021116171510511/16/02 17:15:31  5-MIN KDBQ 162315Z 02004KT 10SM SCT038 OVC060 M01/M04 A3017 850 78 -800 020/04 RMK AO2
94908KDBQ DBQ20021116172010511/16/02 17:20:31  5-MIN KDBQ 162320Z 02004KT 10SM SCT040 OVC060 M01/M04 A3017 850 78 -800 020/04 RMK AO2
94908KDBQ DBQ20021116172510511/16/02 17:25:31  5-MIN KDBQ 162325Z 01004KT 10SM SCT040 OVC060 M01/M04 A3017 850 78 -800 010/04 RMK AO2
94908KDBQ DBQ20021116173010511/16/02 17:30:31  5-MIN KDBQ 162330Z 01005KT 10SM SCT040 OVC060 M01/M04 A3017 850 78 -800 010/05 RMK AO2
94908KDBQ DBQ20021116173510511/16/02 17:35:31  5-MIN KDBQ 162335Z 01005KT 10SM SCT040 OVC060 M01/M04 A3017 850 78 -800 010/05 RMK AO2
94908KDBQ DBQ20021116174010511/16/02 17:40:31  5-MIN KDBQ 162340Z 01004KT 10SM FEW040 OVC060 M01/M04 A3017 850 78 -800 010/04 RMK AO2
94908KDBQ DBQ20021116174510511/16/02 17:45:31  5-MIN KDBQ 162345Z 36004KT 10SM FEW040 OVC060 M01/M04 A3017 850 78 -800 360/04 RMK AO2
94908KDBQ DBQ20021116175013911/16/02 17:50:31  5-MIN KDBQ 162350Z 36004KT 10SM OVC060 M01/M04 A3017 850 78 -800 360/04 RMK AO2 SLP230 60000 T10111044 10006 21011 56014
94908KDBQ DBQ20021116175513911/16/02 17:55:31  5-MIN KDBQ 162355Z 36004KT 10SM OVC060 M01/M04 A3017 850 78 -800 360/04 RMK AO2 SLP230 60000 T10111044 10006 21011 55003
94908KDBQ DBQ20021116180009811/16/02 18:00:31  5-MIN KDBQ 170000Z 01004KT 10SM OVC060 M01/M04 A3017 850 81 -800 010/04 RMK AO2
94908KDBQ DBQ20021116180509811/16/02 18:05:31  5-MIN KDBQ 170005Z 36004KT 10SM OVC060 M01/M04 A3017 850 81 -800 360/04 RMK AO2
94908KDBQ DBQ20021116181010511/16/02 18:10:31  5-MIN KDBQ 170010Z 36004KT 10SM FEW045 OVC060 M01/M04 A3017 850 78 -800 360/04 RMK AO2
94908KDBQ DBQ20021116181510511/16/02 18:15:31  5-MIN KDBQ 170015Z 36004KT 10SM FEW045 OVC060 M01/M04 A3017 850 81 -800 360/04 RMK AO2
94908KDBQ DBQ20021116182010511/16/02 18:20:31  5-MIN KDBQ 170020Z 36004KT 10SM FEW045 OVC060 M01/M04 A3017 850 81 -800 360/04 RMK AO2
94908KDBQ DBQ20021116182510511/16/02 18:25:31  5-MIN KDBQ 170025Z 36004KT 10SM FEW045 OVC060 M01/M04 A3017 850 81 -800 360/04 RMK AO2
94908KDBQ DBQ20021116183010511/16/02 18:30:31  5-MIN KDBQ 170030Z 36004KT 10SM FEW045 OVC060 M01/M04 A3017 850 81 -800 360/04 RMK AO2
94908KDBQ DBQ20021116183510511/16/02 18:35:31  5-MIN KDBQ 170035Z 36003KT 10SM FEW045 OVC060 M01/M04 A3017 850 81 -800 360/03 RMK AO2
94908KDBQ DBQ20021116184009811/16/02 18:40:31  5-MIN KDBQ 170040Z 36004KT 10SM OVC060 M01/M04 A3017 850 81 -800 360/04 RMK AO2
94908KDBQ DBQ20021116184509811/16/02 18:45:31  5-MIN KDBQ 170045Z 36004KT 10SM OVC060 M01/M04 A3017 850 81 -800 360/04 RMK AO2
94908KDBQ DBQ20021116185011511/16/02 18:50:31  5-MIN KDBQ 170050Z 36004KT 10SM OVC060 M01/M04 A3017 850 81 -800 360/04 RMK AO2 SLP230 T10111039
94908KDBQ DBQ20021116185511511/16/02 18:55:31  5-MIN KDBQ 170055Z 36003KT 10SM OVC060 M01/M04 A3017 850 81 -800 360/03 RMK AO2 SLP230 T10111039
94908KDBQ DBQ20021116190009811/16/02 19:00:31  5-MIN KDBQ 170100Z 35003KT 10SM OVC060 M01/M04 A3017 850 81 -800 350/03 RMK AO2
94908KDBQ DBQ20021116190509811/16/02 19:05:31  5-MIN KDBQ 170105Z 34004KT 10SM OVC060 M02/M04 A3017 850 85 -900 340/04 RMK AO2
94908KDBQ DBQ20021116191009811/16/02 19:10:31  5-MIN KDBQ 170110Z 34003KT 10SM OVC060 M02/M04 A3017 850 85 -900 340/03 RMK AO2
94908KDBQ DBQ20021116191509811/16/02 19:15:31  5-MIN KDBQ 170115Z 00000KT 10SM OVC060 M02/M04 A3017 850 85 -900 000/00 RMK AO2
94908KDBQ DBQ20021116192009811/16/02 19:20:31  5-MIN KDBQ 170120Z 00000KT 10SM OVC060 M01/M04 A3017 850 81 -800 000/00 RMK AO2
94908KDBQ DBQ20021116192509811/16/02 19:25:31  5-MIN KDBQ 170125Z 00000KT 10SM OVC060 M01/M04 A3017 850 78 -800 000/00 RMK AO2
94908KDBQ DBQ20021116193009811/16/02 19:30:31  5-MIN KDBQ 170130Z 00000KT 10SM OVC060 M01/M04 A3017 850 78 -800 000/00 RMK AO2
94908KDBQ DBQ20021116193510811/16/02 19:35:31  5-MIN KDBQ 170135Z AUTO 00000KT 10SM OVC060 M01/M04 A3017 850 78 -800 000/00 RMK AO2 TSNO
94908KDBQ DBQ20021116194010811/16/02 19:40:31  5-MIN KDBQ 170140Z AUTO 00000KT 10SM OVC060 M01/M04 A3017 850 78 -800 000/00 RMK AO2 TSNO
94908KDBQ DBQ20021116194510811/16/02 19:45:31  5-MIN KDBQ 170145Z AUTO 01003KT 10SM OVC060 M02/M04 A3017 850 81 -900 010/03 RMK AO2 TSNO
94908KDBQ DBQ20021116195012511/16/02 19:50:31  5-MIN KDBQ 170150Z AUTO 01003KT 10SM OVC060 M02/M04 A3017 850 81 -900 010/03 RMK AO2 SLP229 T10171044 TSNO
94908KDBQ DBQ20021116195512511/16/02 19:55:31  5-MIN KDBQ 170155Z AUTO 01003KT 10SM OVC060 M02/M04 A3016 850 81 -900 010/03 RMK AO2 SLP229 T10171044 TSNO
94908KDBQ DBQ20021116200010811/16/02 20:00:31  5-MIN KDBQ 170200Z AUTO 01003KT 10SM OVC060 M02/M04 A3016 850 81 -900 010/03 RMK AO2 TSNO
94908KDBQ DBQ20021116200510811/16/02 20:05:31  5-MIN KDBQ 170205Z AUTO 01003KT 10SM OVC060 M02/M04 A3016 850 81 -900 010/03 RMK AO2 TSNO
94908KDBQ DBQ20021116201010811/16/02 20:10:31  5-MIN KDBQ 170210Z AUTO 01004KT 10SM OVC060 M02/M04 A3016 850 81 -900 010/04 RMK AO2 TSNO
94908KDBQ DBQ20021116201510811/16/02 20:15:31  5-MIN KDBQ 170215Z AUTO 36003KT 10SM OVC060 M02/M04 A3016 850 81 -900 360/03 RMK AO2 TSNO
94908KDBQ DBQ20021116202010811/16/02 20:20:31  5-MIN KDBQ 170220Z AUTO 01004KT 10SM OVC060 M02/M04 A3016 850 81 -900 010/04 RMK AO2 TSNO
94908KDBQ DBQ20021116202510811/16/02 20:25:31  5-MIN KDBQ 170225Z AUTO 01003KT 10SM OVC060 M02/M04 A3016 850 81 -900 010/03 RMK AO2 TSNO
94908KDBQ DBQ20021116203010811/16/02 20:30:31  5-MIN KDBQ 170230Z AUTO 01003KT 10SM OVC060 M02/M04 A3016 860 81 -900 010/03 RMK AO2 TSNO
94908KDBQ DBQ20021116203510811/16/02 20:35:31  5-MIN KDBQ 170235Z AUTO 36003KT 10SM OVC060 M02/M04 A3016 850 81 -900 360/03 RMK AO2 TSNO
94908KDBQ DBQ20021116204010811/16/02 20:40:31  5-MIN KDBQ 170240Z AUTO 01004KT 10SM OVC060 M02/M04 A3016 860 81 -900 010/04 RMK AO2 TSNO
94908KDBQ DBQ20021116204510811/16/02 20:45:31  5-MIN KDBQ 170245Z AUTO 02004KT 10SM OVC055 M02/M04 A3016 860 81 -900 020/04 RMK AO2 TSNO
94908KDBQ DBQ20021116205013111/16/02 20:50:31  5-MIN KDBQ 170250Z AUTO 03004KT 10SM OVC055 M02/M04 A3016 860 81 -900 030/04 RMK AO2 SLP226 T10171044 55003 TSNO
94908KDBQ DBQ20021116205513111/16/02 20:55:31  5-MIN KDBQ 170255Z AUTO 03004KT 10SM OVC055 M02/M05 A3016 860 78 -900 030/04 RMK AO2 SLP226 T10171050 58003 TSNO
94908KDBQ DBQ20021116210010811/16/02 21:00:31  5-MIN KDBQ 170300Z AUTO 02004KT 10SM OVC055 M02/M05 A3016 860 78 -900 020/04 RMK AO2 TSNO
94908KDBQ DBQ20021116210510811/16/02 21:05:31  5-MIN KDBQ 170305Z AUTO 02004KT 10SM OVC055 M02/M05 A3016 860 78 -900 020/04 RMK AO2 TSNO
94908KDBQ DBQ20021116211010811/16/02 21:10:31  5-MIN KDBQ 170310Z AUTO 02004KT 10SM OVC055 M02/M05 A3016 860 78 -900 020/04 RMK AO2 TSNO
94908KDBQ DBQ20021116211510811/16/02 21:15:31  5-MIN KDBQ 170315Z AUTO 02004KT 10SM OVC055 M02/M05 A3016 860 78 -900 020/04 RMK AO2 TSNO
94908KDBQ DBQ20021116212010811/16/02 21:20:31  5-MIN KDBQ 170320Z AUTO 02004KT 10SM OVC055 M02/M05 A3016 860 78 -900 020/04 RMK AO2 TSNO
94908KDBQ DBQ20021116212510811/16/02 21:25:31  5-MIN KDBQ 170325Z AUTO 02004KT 10SM OVC055 M02/M06 A3016 860 75 -900 020/04 RMK AO2 TSNO
94908KDBQ DBQ20021116213010811/16/02 21:30:31  5-MIN KDBQ 170330Z AUTO 02004KT 10SM OVC055 M02/M06 A3016 860 75 -900 020/04 RMK AO2 TSNO
94908KDBQ DBQ20021116213510811/16/02 21:35:31  5-MIN KDBQ 170335Z AUTO 02004KT 10SM OVC055 M02/M05 A3016 860 78 -900 020/04 RMK AO2 TSNO
94908KDBQ DBQ20021116214010811/16/02 21:40:31  5-MIN KDBQ 170340Z AUTO 01004KT 10SM OVC055 M02/M05 A3016 860 78 -900 010/04 RMK AO2 TSNO
94908KDBQ DBQ20021116214510811/16/02 21:45:31  5-MIN KDBQ 170345Z AUTO 03004KT 10SM OVC055 M02/M05 A3016 860 78 -900 020/04 RMK AO2 TSNO
94908KDBQ DBQ20021116215012511/16/02 21:50:31  5-MIN KDBQ 170350Z AUTO 04004KT 10SM OVC055 M02/M05 A3016 860 78 -900 030/04 RMK AO2 SLP225 T10171050 TSNO
94908KDBQ DBQ20021116215512511/16/02 21:55:31  5-MIN KDBQ 170355Z AUTO 05006KT 10SM OVC055 M02/M06 A3016 860 75 -900 050/06 RMK AO2 SLP225 T10171056 TSNO
94908KDBQ DBQ20021116220010811/16/02 22:00:31  5-MIN KDBQ 170400Z AUTO 04005KT 10SM OVC055 M02/M06 A3015 860 72 -900 040/05 RMK AO2 TSNO
94908KDBQ DBQ20021116220510811/16/02 22:05:31  5-MIN KDBQ 170405Z AUTO 04006KT 10SM OVC055 M02/M06 A3015 870 72 -900 040/06 RMK AO2 TSNO
94908KDBQ DBQ20021116221010811/16/02 22:10:31  5-MIN KDBQ 170410Z AUTO 03005KT 10SM OVC055 M02/M06 A3015 870 72 -900 030/05 RMK AO2 TSNO
94908KDBQ DBQ20021116221510811/16/02 22:15:31  5-MIN KDBQ 170415Z AUTO 03004KT 10SM OVC055 M02/M06 A3015 870 72 -900 030/04 RMK AO2 TSNO
94908KDBQ DBQ20021116222010811/16/02 22:20:31  5-MIN KDBQ 170420Z AUTO 03005KT 10SM OVC055 M02/M06 A3015 870 75 -900 030/05 RMK AO2 TSNO
94908KDBQ DBQ20021116222510811/16/02 22:25:31  5-MIN KDBQ 170425Z AUTO 03005KT 10SM OVC055 M02/M06 A3014 870 72 -900 030/05 RMK AO2 TSNO
94908KDBQ DBQ20021116223010811/16/02 22:30:31  5-MIN KDBQ 170430Z AUTO 04005KT 10SM OVC055 M02/M06 A3014 870 75 -900 030/05 RMK AO2 TSNO
94908KDBQ DBQ20021116223510811/16/02 22:35:31  5-MIN KDBQ 170435Z AUTO 03004KT 10SM OVC055 M02/M06 A3014 870 75 -900 030/04 RMK AO2 TSNO
94908KDBQ DBQ20021116224010811/16/02 22:40:31  5-MIN KDBQ 170440Z AUTO 03004KT 10SM OVC055 M02/M06 A3014 870 75 -900 030/04 RMK AO2 TSNO
94908KDBQ DBQ20021116224510811/16/02 22:45:31  5-MIN KDBQ 170445Z AUTO 04006KT 10SM OVC055 M02/M06 A3014 880 75 -900 030/06 RMK AO2 TSNO
94908KDBQ DBQ20021116225012511/16/02 22:50:31  5-MIN KDBQ 170450Z AUTO 03006KT 10SM OVC055 M02/M06 A3014 880 75 -900 030/06 RMK AO2 SLP220 T10221061 TSNO
94908KDBQ DBQ20021116225512511/16/02 22:55:31  5-MIN KDBQ 170455Z AUTO 03005KT 10SM OVC055 M02/M07 A3014 880 72 -900 030/05 RMK AO2 SLP220 T10221067 TSNO
94908KDBQ DBQ20021116230010811/16/02 23:00:31  5-MIN KDBQ 170500Z AUTO 03006KT 10SM OVC055 M02/M07 A3014 880 72 -900 030/06 RMK AO2 TSNO
94908KDBQ DBQ20021116230510811/16/02 23:05:31  5-MIN KDBQ 170505Z AUTO 03007KT 10SM OVC055 M02/M06 A3014 870 75 -900 030/07 RMK AO2 TSNO
94908KDBQ DBQ20021116231010811/16/02 23:10:31  5-MIN KDBQ 170510Z AUTO 03006KT 10SM OVC055 M02/M06 A3014 870 75 -900 020/06 RMK AO2 TSNO
94908KDBQ DBQ20021116231510811/16/02 23:15:31  5-MIN KDBQ 170515Z AUTO 04007KT 10SM OVC055 M02/M06 A3014 880 75 -900 040/07 RMK AO2 TSNO
94908KDBQ DBQ20021116232010811/16/02 23:20:31  5-MIN KDBQ 170520Z AUTO 03007KT 10SM OVC055 M02/M06 A3014 870 75 -900 030/07 RMK AO2 TSNO
94908KDBQ DBQ20021116232510811/16/02 23:25:31  5-MIN KDBQ 170525Z AUTO 03006KT 10SM OVC055 M02/M06 A3014 880 75 -900 030/06 RMK AO2 TSNO
94908KDBQ DBQ20021116233010811/16/02 23:30:31  5-MIN KDBQ 170530Z AUTO 04007KT 10SM OVC055 M02/M06 A3014 880 75 -900 040/07 RMK AO2 TSNO
94908KDBQ DBQ20021116233510811/16/02 23:35:31  5-MIN KDBQ 170535Z AUTO 04007KT 10SM OVC050 M02/M06 A3014 880 75 -900 030/07 RMK AO2 TSNO
94908KDBQ DBQ20021116234010811/16/02 23:40:31  5-MIN KDBQ 170540Z AUTO 03007KT 10SM OVC050 M02/M06 A3014 880 72 -900 030/07 RMK AO2 TSNO
94908KDBQ DBQ20021116234510811/16/02 23:45:31  5-MIN KDBQ 170545Z AUTO 03006KT 10SM OVC050 M02/M06 A3014 880 75 -900 030/06 RMK AO2 TSNO
94908KDBQ DBQ20021116235015311/16/02 23:50:31  5-MIN KDBQ 170550Z AUTO 03006KT 10SM OVC050 M02/M06 A3014 880 75 -900 030/06 RMK AO2 SLP218 T10221061 11011 21022 400061022 58003 TSNO
94908KDBQ DBQ20021116235515311/16/02 23:55:31  5-MIN KDBQ 170555Z AUTO 03006KT 10SM OVC050 M02/M06 A3014 880 78 -900 030/06 RMK AO2 SLP218 T10221056 11011 21022 400061022 57008 TSNO
94908KDBQ DBQ20021117000010811/17/02 00:00:31  5-MIN KDBQ 170600Z AUTO 03006KT 10SM OVC050 M02/M06 A3013 880 78 -900 030/06 RMK AO2 TSNO
94908KDBQ DBQ20021117000510811/17/02 00:05:31  5-MIN KDBQ 170605Z AUTO 02006KT 10SM OVC050 M02/M06 A3013 880 78 -900 020/06 RMK AO2 TSNO
94908KDBQ DBQ20021117001010811/17/02 00:10:31  5-MIN KDBQ 170610Z AUTO 03006KT 10SM OVC050 M02/M06 A3013 890 78 -900 030/06 RMK AO2 TSNO
94908KDBQ DBQ20021117001510811/17/02 00:15:31  5-MIN KDBQ 170615Z AUTO 04005KT 10SM OVC050 M02/M06 A3013 890 78 -900 040/05 RMK AO2 TSNO
94908KDBQ DBQ20021117002010811/17/02 00:20:31  5-MIN KDBQ 170620Z AUTO 03006KT 10SM OVC050 M02/M06 A3013 890 78 -900 030/06 RMK AO2 TSNO
94908KDBQ DBQ20021117002510811/17/02 00:25:31  5-MIN KDBQ 170625Z AUTO 03005KT 10SM OVC050 M02/M06 A3013 890 78 -900 030/05 RMK AO2 TSNO
94908KDBQ DBQ20021117003010811/17/02 00:30:31  5-MIN KDBQ 170630Z AUTO 03004KT 10SM OVC050 M02/M06 A3013 890 78 -900 030/04 RMK AO2 TSNO
94908KDBQ DBQ20021117003510811/17/02 00:35:31  5-MIN KDBQ 170635Z AUTO 04005KT 10SM OVC050 M02/M06 A3012 890 78 -900 030/05 RMK AO2 TSNO
94908KDBQ DBQ20021117004010811/17/02 00:40:31  5-MIN KDBQ 170640Z AUTO 04005KT 10SM OVC050 M02/M06 A3012 890 78 -900 030/05 RMK AO2 TSNO
94908KDBQ DBQ20021117004510811/17/02 00:45:31  5-MIN KDBQ 170645Z AUTO 04005KT 10SM OVC050 M02/M06 A3012 890 78 -900 040/05 RMK AO2 TSNO
94908KDBQ DBQ20021117005012511/17/02 00:50:31  5-MIN KDBQ 170650Z AUTO 04004KT 10SM OVC050 M02/M06 A3012 890 78 -900 040/04 RMK AO2 SLP213 T10221056 TSNO
94908KDBQ DBQ20021117005512511/17/02 00:55:31  5-MIN KDBQ 170655Z AUTO 03006KT 10SM OVC050 M02/M06 A3012 890 78 -900 030/06 RMK AO2 SLP212 T10221056 TSNO
94908KDBQ DBQ20021117010010811/17/02 01:00:31  5-MIN KDBQ 170700Z AUTO 04005KT 10SM OVC050 M02/M06 A3012 890 78 -900 030/05 RMK AO2 TSNO
94908KDBQ DBQ20021117010510811/17/02 01:05:31  5-MIN KDBQ 170705Z AUTO 03005KT 10SM OVC050 M02/M06 A3012 890 78 -900 030/05 RMK AO2 TSNO
94908KDBQ DBQ20021117011010811/17/02 01:10:31  5-MIN KDBQ 170710Z AUTO 03005KT 10SM OVC050 M02/M06 A3012 890 78 -900 030/05 RMK AO2 TSNO
94908KDBQ DBQ20021117011510811/17/02 01:15:31  5-MIN KDBQ 170715Z AUTO 03005KT 10SM OVC050 M02/M06 A3012 890 78 -900 030/05 RMK AO2 TSNO
94908KDBQ DBQ20021117012010811/17/02 01:20:31  5-MIN KDBQ 170720Z AUTO 04004KT 10SM OVC050 M02/M06 A3012 890 78 -900 040/04 RMK AO2 TSNO
94908KDBQ DBQ20021117012510811/17/02 01:25:31  5-MIN KDBQ 170725Z AUTO 03005KT 10SM OVC050 M02/M06 A3012 900 78 -900 030/05 RMK AO2 TSNO
94908KDBQ DBQ20021117013010811/17/02 01:30:31  5-MIN KDBQ 170730Z AUTO 03005KT 10SM OVC050 M02/M06 A3012 900 78 -900 030/05 RMK AO2 TSNO
94908KDBQ DBQ20021117013510811/17/02 01:35:31  5-MIN KDBQ 170735Z AUTO 04004KT 10SM OVC050 M02/M06 A3012 900 78 -900 040/04 RMK AO2 TSNO
94908KDBQ DBQ20021117014010911/17/02 01:40:31  5-MIN KDBQ 170740Z AUTO 04005KT 10SM OVC050 M03/M06 A3012 900 81 -1000 040/05 RMK AO2 TSNO
94908KDBQ DBQ20021117014510811/17/02 01:45:31  5-MIN KDBQ 170745Z AUTO 03004KT 10SM OVC050 M02/M06 A3012 900 78 -900 030/04 RMK AO2 TSNO
94908KDBQ DBQ20021117015012511/17/02 01:50:31  5-MIN KDBQ 170750Z AUTO 03005KT 10SM OVC050 M02/M06 A3012 900 78 -900 030/05 RMK AO2 SLP211 T10221056 TSNO
94908KDBQ DBQ20021117015512611/17/02 01:55:31  5-MIN KDBQ 170755Z AUTO 04006KT 10SM OVC050 M03/M06 A3012 900 81 -1000 040/06 RMK AO2 SLP211 T10281056 TSNO
94908KDBQ DBQ20021117020010911/17/02 02:00:31  5-MIN KDBQ 170800Z AUTO 03005KT 10SM OVC050 M03/M06 A3012 900 81 -1000 030/05 RMK AO2 TSNO
94908KDBQ DBQ20021117020510911/17/02 02:05:31  5-MIN KDBQ 170805Z AUTO 04006KT 10SM OVC050 M03/M06 A3012 900 81 -1000 040/06 RMK AO2 TSNO
94908KDBQ DBQ20021117021010811/17/02 02:10:31  5-MIN KDBQ 170810Z AUTO 04006KT 10SM OVC050 M02/M06 A3012 900 78 -900 040/06 RMK AO2 TSNO
94908KDBQ DBQ20021117021510911/17/02 02:15:31  5-MIN KDBQ 170815Z AUTO 04006KT 10SM OVC050 M03/M06 A3012 900 81 -1000 040/06 RMK AO2 TSNO
94908KDBQ DBQ20021117022010911/17/02 02:20:31  5-MIN KDBQ 170820Z AUTO 04006KT 10SM OVC048 M03/M06 A3012 900 81 -1000 040/06 RMK AO2 TSNO
94908KDBQ DBQ20021117022510911/17/02 02:25:31  5-MIN KDBQ 170825Z AUTO 04006KT 10SM OVC048 M03/M06 A3011 900 81 -1000 040/06 RMK AO2 TSNO
94908KDBQ DBQ20021117023010911/17/02 02:30:31  5-MIN KDBQ 170830Z AUTO 04006KT 10SM OVC048 M03/M06 A3011 900 81 -1000 030/06 RMK AO2 TSNO
94908KDBQ DBQ20021117023510911/17/02 02:35:31  5-MIN KDBQ 170835Z AUTO 03006KT 10SM OVC048 M03/M06 A3011 900 81 -1000 030/06 RMK AO2 TSNO
94908KDBQ DBQ20021117024010911/17/02 02:40:31  5-MIN KDBQ 170840Z AUTO 03006KT 10SM OVC048 M03/M06 A3011 900 81 -1000 030/06 RMK AO2 TSNO
94908KDBQ DBQ20021117024510811/17/02 02:45:31  5-MIN KDBQ 170845Z AUTO 03005KT 9SM OVC048 M03/M06 A3011 900 81 -1000 030/05 RMK AO2 TSNO
94908KDBQ DBQ20021117025013111/17/02 02:50:31  5-MIN KDBQ 170850Z AUTO 03006KT 9SM OVC048 M03/M06 A3011 900 81 -1000 030/06 RMK AO2 SLP210 T10281056 57008 TSNO
94908KDBQ DBQ20021117025513111/17/02 02:55:31  5-MIN KDBQ 170855Z AUTO 03006KT 9SM OVC048 M03/M06 A3011 900 81 -1000 030/06 RMK AO2 SLP210 T10281056 56007 TSNO
94908KDBQ DBQ20021117030010811/17/02 03:00:31  5-MIN KDBQ 170900Z AUTO 02005KT 9SM OVC048 M03/M06 A3011 900 85 -1000 020/05 RMK AO2 TSNO
94908KDBQ DBQ20021117030510811/17/02 03:05:31  5-MIN KDBQ 170905Z AUTO 03006KT 9SM OVC048 M03/M06 A3011 900 85 -1000 030/06 RMK AO2 TSNO
94908KDBQ DBQ20021117031010811/17/02 03:10:31  5-MIN KDBQ 170910Z AUTO 03006KT 9SM OVC048 M03/M06 A3011 900 85 -1000 030/06 RMK AO2 TSNO
94908KDBQ DBQ20021117031510811/17/02 03:15:31  5-MIN KDBQ 170915Z AUTO 04006KT 9SM OVC048 M03/M06 A3011 910 85 -1000 040/06 RMK AO2 TSNO
94908KDBQ DBQ20021117032010811/17/02 03:20:31  5-MIN KDBQ 170920Z AUTO 03006KT 9SM OVC048 M04/M06 A3011 910 85 -1100 030/06 RMK AO2 TSNO
94908KDBQ DBQ20021117032510811/17/02 03:25:31  5-MIN KDBQ 170925Z AUTO 03006KT 9SM OVC048 M04/M06 A3011 910 85 -1100 030/06 RMK AO2 TSNO
94908KDBQ DBQ20021117033010811/17/02 03:30:31  5-MIN KDBQ 170930Z AUTO 03006KT 9SM OVC048 M04/M06 A3010 910 85 -1100 030/06 RMK AO2 TSNO
94908KDBQ DBQ20021117033510811/17/02 03:35:31  5-MIN KDBQ 170935Z AUTO 03005KT 9SM OVC048 M04/M06 A3011 910 85 -1100 030/05 RMK AO2 TSNO
94908KDBQ DBQ20021117034010811/17/02 03:40:31  5-MIN KDBQ 170940Z AUTO 02005KT 9SM OVC048 M04/M06 A3011 900 88 -1200 020/05 RMK AO2 TSNO
94908KDBQ DBQ20021117034510811/17/02 03:45:31  5-MIN KDBQ 170945Z AUTO 01005KT 9SM OVC048 M04/M07 A3011 900 84 -1200 010/05 RMK AO2 TSNO
94908KDBQ DBQ20021117035012511/17/02 03:50:31  5-MIN KDBQ 170950Z AUTO 01005KT 9SM OVC048 M05/M07 A3011 900 88 -1300 010/05 RMK AO2 SLP211 T10501067 TSNO
94908KDBQ DBQ20021117035512511/17/02 03:55:31  5-MIN KDBQ 170955Z AUTO 02006KT 9SM OVC048 M05/M07 A3011 900 88 -1300 020/06 RMK AO2 SLP210 T10501067 TSNO
94908KDBQ DBQ20021117040010811/17/02 04:00:31  5-MIN KDBQ 171000Z AUTO 02006KT 8SM OVC048 M05/M07 A3011 900 88 -1300 020/06 RMK AO2 TSNO
94908KDBQ DBQ20021117040510811/17/02 04:05:31  5-MIN KDBQ 171005Z AUTO 02006KT 8SM OVC048 M05/M07 A3011 900 88 -1300 020/06 RMK AO2 TSNO
94908KDBQ DBQ20021117041010811/17/02 04:10:31  5-MIN KDBQ 171010Z AUTO 03005KT 8SM OVC048 M05/M07 A3011 900 88 -1300 020/05 RMK AO2 TSNO
94908KDBQ DBQ20021117041510811/17/02 04:15:31  5-MIN KDBQ 171015Z AUTO 02006KT 8SM OVC048 M06/M07 A3011 900 88 -1300 020/06 RMK AO2 TSNO
94908KDBQ DBQ20021117042010811/17/02 04:20:31  5-MIN KDBQ 171020Z AUTO 02005KT 8SM BKN046 M05/M07 A3011 900 84 -1300 020/05 RMK AO2 TSNO
94908KDBQ DBQ20021117042510811/17/02 04:25:31  5-MIN KDBQ 171025Z AUTO 02005KT 8SM BKN046 M05/M07 A3011 900 88 -1300 020/05 RMK AO2 TSNO
94908KDBQ DBQ20021117043010811/17/02 04:30:31  5-MIN KDBQ 171030Z AUTO 02004KT 8SM BKN046 M06/M07 A3011 900 88 -1300 020/04 RMK AO2 TSNO
94908KDBQ DBQ20021117043510811/17/02 04:35:31  5-MIN KDBQ 171035Z AUTO 02004KT 8SM BKN044 M06/M07 A3011 910 88 -1300 020/04 RMK AO2 TSNO
94908KDBQ DBQ20021117044010811/17/02 04:40:31  5-MIN KDBQ 171040Z AUTO 02004KT 8SM SCT044 M05/M07 A3011 910 88 -1200 020/04 RMK AO2 TSNO
94908KDBQ DBQ20021117044510811/17/02 04:45:31  5-MIN KDBQ 171045Z AUTO 02004KT 7SM FEW044 M06/M07 A3011 910 88 -1300 020/04 RMK AO2 TSNO
94908KDBQ DBQ20021117045012511/17/02 04:50:31  5-MIN KDBQ 171050Z AUTO 02004KT 7SM FEW042 M06/M08 A3011 910 88 -1400 020/04 RMK AO2 SLP210 T10611078 TSNO
94908KDBQ DBQ20021117045512211/17/02 04:55:31  5-MIN KDBQ 171055Z AUTO 02005KT 7SM CLR M06/M07 A3010 910 88 -1300 020/05 RMK AO2 SLP209 T10561072 TSNO
94908KDBQ DBQ20021117050010511/17/02 05:00:31  5-MIN KDBQ 171100Z AUTO 02005KT 7SM CLR M05/M07 A3010 910 88 -1200 010/05 RMK AO2 TSNO
94908KDBQ DBQ20021117050510511/17/02 05:05:31  5-MIN KDBQ 171105Z AUTO 01005KT 7SM CLR M05/M06 A3011 910 92 -1200 010/05 RMK AO2 TSNO
94908KDBQ DBQ20021117051010511/17/02 05:10:31  5-MIN KDBQ 171110Z AUTO 01004KT 7SM CLR M04/M06 A3011 910 88 -1200 010/04 RMK AO2 TSNO
94908KDBQ DBQ20021117051510511/17/02 05:15:31  5-MIN KDBQ 171115Z AUTO 36004KT 7SM CLR M04/M06 A3011 910 88 -1200 360/04 RMK AO2 TSNO
94908KDBQ DBQ20021117052010511/17/02 05:20:31  5-MIN KDBQ 171120Z AUTO 36005KT 7SM CLR M05/M06 A3011 910 92 -1300 360/05 RMK AO2 TSNO
94908KDBQ DBQ20021117052510511/17/02 05:25:31  5-MIN KDBQ 171125Z AUTO 01005KT 7SM CLR M06/M07 A3011 910 88 -1300 010/05 RMK AO2 TSNO
94908KDBQ DBQ20021117053010511/17/02 05:30:31  5-MIN KDBQ 171130Z AUTO 01005KT 7SM CLR M06/M08 A3011 910 84 -1300 010/05 RMK AO2 TSNO
94908KDBQ DBQ20021117053510511/17/02 05:35:31  5-MIN KDBQ 171135Z AUTO 02005KT 7SM CLR M06/M08 A3011 910 84 -1400 020/05 RMK AO2 TSNO
94908KDBQ DBQ20021117054009511/17/02 05:40:31  5-MIN KDBQ 171140Z 02005KT 7SM CLR M07/M08 A3011 900 88 -1500 010/05 RMK AO2
94908KDBQ DBQ20021117054509511/17/02 05:45:31  5-MIN KDBQ 171145Z 02005KT 7SM CLR M07/M08 A3011 900 88 -1500 020/05 RMK AO2
94908KDBQ DBQ20021117055013011/17/02 05:50:31  5-MIN KDBQ 171150Z 02004KT 7SM CLR M07/M08 A3011 900 92 -1500 010/04 RMK AO2 SLP212 T10721083 11022 21072 56007
94908KDBQ DBQ20021117055513011/17/02 05:55:31  5-MIN KDBQ 171155Z 01005KT 7SM CLR M06/M08 A3011 910 88 -1400 010/05 RMK AO2 SLP210 T10611078 11022 21072 55002
94908KDBQ DBQ20021117060009511/17/02 06:00:31  5-MIN KDBQ 171200Z 01005KT 8SM CLR M06/M08 A3011 910 88 -1400 010/05 RMK AO2
94908KDBQ DBQ20021117060509511/17/02 06:05:31  5-MIN KDBQ 171205Z 02005KT 8SM CLR M07/M08 A3011 900 88 -1500 020/05 RMK AO2
94908KDBQ DBQ20021117061009511/17/02 06:10:31  5-MIN KDBQ 171210Z 02005KT 8SM CLR M07/M08 A3011 910 88 -1500 020/05 RMK AO2
94908KDBQ DBQ20021117061509511/17/02 06:15:31  5-MIN KDBQ 171215Z 04006KT 8SM CLR M06/M07 A3011 910 92 -1400 040/06 RMK AO2
94908KDBQ DBQ20021117062009511/17/02 06:20:31  5-MIN KDBQ 171220Z 05006KT 8SM CLR M06/M07 A3011 900 92 -1400 050/06 RMK AO2
94908KDBQ DBQ20021117062509511/17/02 06:25:31  5-MIN KDBQ 171225Z 06005KT 8SM CLR M07/M08 A3011 900 92 -1500 060/05 RMK AO2
94908KDBQ DBQ20021117063009511/17/02 06:30:31  5-MIN KDBQ 171230Z 05006KT 8SM CLR M06/M08 A3011 900 88 -1400 050/06 RMK AO2
94908KDBQ DBQ20021117063509511/17/02 06:35:31  5-MIN KDBQ 171235Z 06005KT 8SM CLR M06/M07 A3011 900 88 -1300 060/05 RMK AO2
94908KDBQ DBQ20021117064009511/17/02 06:40:31  5-MIN KDBQ 171240Z 05005KT 8SM CLR M06/M07 A3011 900 92 -1300 050/05 RMK AO2
94908KDBQ DBQ20021117064509511/17/02 06:45:31  5-MIN KDBQ 171245Z 05005KT 8SM CLR M06/M07 A3011 900 88 -1300 050/05 RMK AO2
94908KDBQ DBQ20021117065011211/17/02 06:50:31  5-MIN KDBQ 171250Z 05005KT 8SM CLR M06/M07 A3011 900 88 -1300 050/05 RMK AO2 SLP212 T10561072
94908KDBQ DBQ20021117065511211/17/02 06:55:31  5-MIN KDBQ 171255Z 05004KT 8SM CLR M06/M08 A3011 900 84 -1300 050/04 RMK AO2 SLP212 T10561078
94908KDBQ DBQ20021117070009811/17/02 07:00:31  5-MIN KDBQ 171300Z 04004KT 6SM BR CLR M06/M08 A3012 900 84 -1300 040/04 RMK AO2
94908KDBQ DBQ20021117070509511/17/02 07:05:31  5-MIN KDBQ 171305Z 04004KT 8SM CLR M05/M07 A3012 900 88 -1300 040/04 RMK AO2
94908KDBQ DBQ20021117071009511/17/02 07:10:31  5-MIN KDBQ 171310Z 03004KT 8SM CLR M06/M07 A3012 900 88 -1300 030/04 RMK AO2
94908KDBQ DBQ20021117071509511/17/02 07:15:31  5-MIN KDBQ 171315Z 03004KT 8SM CLR M07/M08 A3012 900 88 -1500 030/04 RMK AO2
94908KDBQ DBQ20021117072009511/17/02 07:20:31  5-MIN KDBQ 171320Z 04004KT 8SM CLR M06/M08 A3012 900 88 -1400 030/04 RMK AO2
94908KDBQ DBQ20021117072509511/17/02 07:25:31  5-MIN KDBQ 171325Z 04004KT 8SM CLR M06/M08 A3012 900 88 -1400 040/04 RMK AO2
94908KDBQ DBQ20021117073009511/17/02 07:30:31  5-MIN KDBQ 171330Z 04004KT 8SM CLR M06/M08 A3012 900 88 -1400 040/04 RMK AO2
94908KDBQ DBQ20021117073509511/17/02 07:35:31  5-MIN KDBQ 171335Z 03003KT 8SM CLR M06/M08 A3012 900 84 -1300 030/03 RMK AO2
94908KDBQ DBQ20021117074009511/17/02 07:40:31  5-MIN KDBQ 171340Z 04003KT 8SM CLR M06/M07 A3012 900 88 -1300 030/03 RMK AO2
94908KDBQ DBQ20021117074509511/17/02 07:45:31  5-MIN KDBQ 171345Z 04003KT 8SM CLR M05/M07 A3012 900 88 -1300 040/03 RMK AO2
94908KDBQ DBQ20021117075011211/17/02 07:50:31  5-MIN KDBQ 171350Z 04003KT 8SM CLR M05/M07 A3012 900 88 -1300 040/03 RMK AO2 SLP214 T10501067
94908KDBQ DBQ20021117075511211/17/02 07:55:31  5-MIN KDBQ 171355Z 04004KT 8SM CLR M04/M06 A3012 890 88 -1200 040/04 RMK AO2 SLP215 T10441061
94908KDBQ DBQ20021117080009811/17/02 08:00:31  5-MIN KDBQ 171400Z 04003KT 6SM BR CLR M04/M06 A3012 890 88 -1200 040/03 RMK AO2
94908KDBQ DBQ20021117080509811/17/02 08:05:31  5-MIN KDBQ 171405Z 03003KT 6SM BR CLR M04/M06 A3012 890 85 -1100 030/03 RMK AO2
94908KDBQ DBQ20021117081009811/17/02 08:10:31  5-MIN KDBQ 171410Z 03004KT 6SM BR CLR M04/M06 A3012 890 88 -1100 030/04 RMK AO2
94908KDBQ DBQ20021117081509811/17/02 08:15:31  5-MIN KDBQ 171415Z 03004KT 6SM BR CLR M04/M06 A3012 890 85 -1100 030/04 RMK AO2
94908KDBQ DBQ20021117082009511/17/02 08:20:31  5-MIN KDBQ 171420Z 02004KT 7SM CLR M03/M06 A3013 890 81 -1100 020/04 RMK AO2
94908KDBQ DBQ20021117082509511/17/02 08:25:31  5-MIN KDBQ 171425Z 02004KT 8SM CLR M03/M06 A3012 890 81 -1100 020/04 RMK AO2
94908KDBQ DBQ20021117083009511/17/02 08:30:31  5-MIN KDBQ 171430Z 02004KT 8SM CLR M03/M06 A3012 890 81 -1100 020/04 RMK AO2
94908KDBQ DBQ20021117083509511/17/02 08:35:31  5-MIN KDBQ 171435Z 03005KT 8SM CLR M03/M06 A3013 890 81 -1100 030/05 RMK AO2
94908KDBQ DBQ20021117084009511/17/02 08:40:31  5-MIN KDBQ 171440Z 04005KT 8SM CLR M03/M06 A3013 890 81 -1100 030/05 RMK AO2
94908KDBQ DBQ20021117084509511/17/02 08:45:31  5-MIN KDBQ 171445Z 04005KT 8SM CLR M03/M06 A3013 890 81 -1100 040/05 RMK AO2
94908KDBQ DBQ20021117085011811/17/02 08:50:31  5-MIN KDBQ 171450Z 04005KT 8SM CLR M03/M06 A3012 890 78 -1000 040/05 RMK AO2 SLP215 T10281061 55002
94908KDBQ DBQ20021117085511811/17/02 08:55:31  5-MIN KDBQ 171455Z 04005KT 8SM CLR M03/M06 A3012 890 81 -1000 040/05 RMK AO2 SLP214 T10281056 51005
94908KDBQ DBQ20021117090009511/17/02 09:00:31  5-MIN KDBQ 171500Z 04005KT 8SM CLR M03/M06 A3012 890 81 -1000 030/05 RMK AO2
94908KDBQ DBQ20021117090509511/17/02 09:05:31  5-MIN KDBQ 171505Z 04005KT 9SM CLR M03/M06 A3012 890 78 -1000 040/05 RMK AO2
94908KDBQ DBQ20021117091009611/17/02 09:10:31  5-MIN KDBQ 171510Z 05005KT 10SM CLR M03/M06 A3012 890 78 -1000 050/05 RMK AO2
94908KDBQ DBQ20021117091509511/17/02 09:15:31  5-MIN KDBQ 171515Z 04006KT 10SM CLR M02/M06 A3012 890 78 -900 040/06 RMK AO2
94908KDBQ DBQ20021117092009511/17/02 09:20:31  5-MIN KDBQ 171520Z 05005KT 10SM CLR M02/M06 A3012 900 78 -900 050/05 RMK AO2
94908KDBQ DBQ20021117092509511/17/02 09:25:31  5-MIN KDBQ 171525Z 06007KT 10SM CLR M02/M06 A3012 900 75 -900 060/07 RMK AO2
94908KDBQ DBQ20021117093009511/17/02 09:30:31  5-MIN KDBQ 171530Z 04006KT 10SM CLR M02/M07 A3012 900 72 -900 040/06 RMK AO2
94908KDBQ DBQ20021117093509511/17/02 09:35:31  5-MIN KDBQ 171535Z 04007KT 10SM CLR M02/M06 A3012 890 72 -800 040/07 RMK AO2
94908KDBQ DBQ20021117094009511/17/02 09:40:31  5-MIN KDBQ 171540Z 04007KT 10SM CLR M02/M07 A3012 900 69 -800 040/07 RMK AO2
94908KDBQ DBQ20021117094509511/17/02 09:45:31  5-MIN KDBQ 171545Z 04006KT 10SM CLR M02/M07 A3012 900 69 -800 040/06 RMK AO2
94908KDBQ DBQ20021117095011211/17/02 09:50:31  5-MIN KDBQ 171550Z 04006KT 10SM CLR M02/M07 A3012 900 69 -800 030/06 RMK AO2 SLP212 T10171067
94908KDBQ DBQ20021117095511211/17/02 09:55:31  5-MIN KDBQ 171555Z 05005KT 10SM CLR M01/M07 A3012 900 66 -800 050/05 RMK AO2 SLP212 T10111067
94908KDBQ DBQ20021117100009511/17/02 10:00:31  5-MIN KDBQ 171600Z 04006KT 10SM CLR M01/M07 A3011 900 66 -800 040/06 RMK AO2
94908KDBQ DBQ20021117100509511/17/02 10:05:31  5-MIN KDBQ 171605Z 03007KT 10SM CLR M01/M07 A3011 900 63 -800 030/07 RMK AO2
94908KDBQ DBQ20021117101009511/17/02 10:10:31  5-MIN KDBQ 171610Z 04007KT 10SM CLR M01/M07 A3011 900 63 -800 040/07 RMK AO2
94908KDBQ DBQ20021117101509511/17/02 10:15:31  5-MIN KDBQ 171615Z 04006KT 10SM CLR M01/M08 A3011 900 58 -700 040/06 RMK AO2
94908KDBQ DBQ20021117102009511/17/02 10:20:31  5-MIN KDBQ 171620Z 05007KT 10SM CLR M01/M08 A3011 900 56 -700 050/07 RMK AO2
94908KDBQ DBQ20021117102509511/17/02 10:25:31  5-MIN KDBQ 171625Z 03008KT 10SM CLR M01/M08 A3011 900 58 -700 030/08 RMK AO2
94908KDBQ DBQ20021117103009511/17/02 10:30:31  5-MIN KDBQ 171630Z 05006KT 10SM CLR M01/M08 A3011 900 58 -700 050/06 RMK AO2
94908KDBQ DBQ20021117103509511/17/02 10:35:31  5-MIN KDBQ 171635Z 01007KT 10SM CLR M01/M08 A3011 900 56 -700 010/07 RMK AO2
94908KDBQ DBQ20021117104009411/17/02 10:40:31  5-MIN KDBQ 171640Z 02005KT 10SM CLR 00/M08 A3011 900 53 -600 020/05 RMK AO2
94908KDBQ DBQ20021117104509511/17/02 10:45:31  5-MIN KDBQ 171645Z 06004KT 10SM CLR M01/M09 A3011 900 53 -700 060/04 RMK AO2
94908KDBQ DBQ20021117105011111/17/02 10:50:31  5-MIN KDBQ 171650Z 01005KT 10SM CLR 00/M08 A3011 900 56 -600 010/05 RMK AO2 SLP209 T00001078
94908KDBQ DBQ20021117105511111/17/02 10:55:31  5-MIN KDBQ 171655Z 03005KT 10SM CLR 00/M08 A3011 910 53 -600 030/05 RMK AO2 SLP208 T00001083
94908KDBQ DBQ20021117110009511/17/02 11:00:31  5-MIN KDBQ 171700Z VRB03KT 10SM CLR M01/M09 A3010 910 53 -700 VRB/03 RMK AO2
94908KDBQ DBQ20021117110509511/17/02 11:05:31  5-MIN KDBQ 171705Z 00000KT 10SM CLR M01/M09 A3010 910 51 -700 000/00 RMK AO2
94908KDBQ DBQ20021117111009411/17/02 11:10:31  5-MIN KDBQ 171710Z 04006KT 10SM CLR 00/M08 A3010 920 53 -600 040/06 RMK AO2
94908KDBQ DBQ20021117111509411/17/02 11:15:31  5-MIN KDBQ 171715Z 06007KT 10SM CLR 00/M08 A3010 920 56 -600 060/07 RMK AO2
94908KDBQ DBQ20021117112009511/17/02 11:20:31  5-MIN KDBQ 171720Z 08003KT 10SM CLR M01/M09 A3009 920 53 -700 080/03 RMK AO2
94908KDBQ DBQ20021117112509411/17/02 11:25:31  5-MIN KDBQ 171725Z VRB05KT 10SM CLR 00/M09 A3009 920 51 -600 VRB/05 RMK AO2
94908KDBQ DBQ20021117113009411/17/02 11:30:31  5-MIN KDBQ 171730Z 06007KT 10SM CLR 00/M09 A3008 930 51 -600 060/07 RMK AO2
94908KDBQ DBQ20021117113509411/17/02 11:35:31  5-MIN KDBQ 171735Z 05005KT 10SM CLR 00/M09 A3008 930 51 -600 050/05 RMK AO2
94908KDBQ DBQ20021117114009411/17/02 11:40:31  5-MIN KDBQ 171740Z 07007KT 10SM CLR 00/M08 A3008 940 53 -600 070/07 RMK AO2
94908KDBQ DBQ20021117114509411/17/02 11:45:31  5-MIN KDBQ 171745Z VRB04KT 10SM CLR 00/M08 A3008 940 53 -600 VRB/04 RMK AO2
94908KDBQ DBQ20021117115012911/17/02 11:50:31  5-MIN KDBQ 171750Z VRB04KT 10SM CLR 01/M08 A3008 930 51 -500 VRB/04 RMK AO2 SLP198 T00061083 10006 21072 51005
94908KDBQ DBQ20021117115512911/17/02 11:55:31  5-MIN KDBQ 171755Z 03008KT 10SM CLR 01/M09 A3008 940 49 -500 030/08 RMK AO2 SLP197 T00061089 10011 21072 58016
94908KDBQ DBQ20021117120009411/17/02 12:00:31  5-MIN KDBQ 171800Z 01005KT 10SM CLR 01/M09 A3007 940 49 -500 010/05 RMK AO2
94908KDBQ DBQ20021117120509411/17/02 12:05:31  5-MIN KDBQ 171805Z VRB04KT 10SM CLR 01/M09 A3007 940 47 -400 VRB/04 RMK AO2
94908KDBQ DBQ20021117121009411/17/02 12:10:31  5-MIN KDBQ 171810Z 02004KT 10SM CLR 01/M09 A3007 940 47 -500 020/04 RMK AO2
94908KDBQ DBQ20021117121509411/17/02 12:15:31  5-MIN KDBQ 171815Z 03003KT 10SM CLR 01/M09 A3007 940 47 -500 030/03 RMK AO2
94908KDBQ DBQ20021117122009411/17/02 12:20:31  5-MIN KDBQ 171820Z 00000KT 10SM CLR 01/M09 A3007 940 47 -500 000/00 RMK AO2
94908KDBQ DBQ20021117122509411/17/02 12:25:31  5-MIN KDBQ 171825Z 31003KT 10SM CLR 01/M09 A3006 950 47 -500 310/03 RMK AO2
94908KDBQ DBQ20021117123009411/17/02 12:30:31  5-MIN KDBQ 171830Z 00000KT 10SM CLR 00/M09 A3006 950 49 -600 000/00 RMK AO2
94908KDBQ DBQ20021117123509411/17/02 12:35:31  5-MIN KDBQ 171835Z 00000KT 10SM CLR 01/M09 A3006 950 47 -400 000/00 RMK AO2
94908KDBQ DBQ20021117124009411/17/02 12:40:31  5-MIN KDBQ 171840Z 05004KT 10SM CLR 01/M09 A3006 950 47 -400 040/04 RMK AO2
94908KDBQ DBQ20021117124509411/17/02 12:45:31  5-MIN KDBQ 171845Z 35003KT 10SM CLR 01/M09 A3006 950 47 -400 350/03 RMK AO2
94908KDBQ DBQ20021117125011111/17/02 12:50:31  5-MIN KDBQ 171850Z 00000KT 10SM CLR 01/M09 A3006 950 45 -400 000/00 RMK AO2 SLP192 T00111094
94908KDBQ DBQ20021117125511111/17/02 12:55:31  5-MIN KDBQ 171855Z 00000KT 10SM CLR 01/M10 A3006 950 45 -500 000/00 RMK AO2 SLP191 T00061100
94908KDBQ DBQ20021117130009411/17/02 13:00:31  5-MIN KDBQ 171900Z 00000KT 10SM CLR 01/M09 A3005 960 47 -500 000/00 RMK AO2
94908KDBQ DBQ20021117130509411/17/02 13:05:31  5-MIN KDBQ 171905Z 12003KT 10SM CLR 01/M09 A3005 960 47 -500 120/03 RMK AO2
94908KDBQ DBQ20021117131009411/17/02 13:10:31  5-MIN KDBQ 171910Z 00000KT 10SM CLR 01/M09 A3005 960 45 -400 000/00 RMK AO2
94908KDBQ DBQ20021117131509411/17/02 13:15:31  5-MIN KDBQ 171915Z 00000KT 10SM CLR 01/M09 A3005 960 49 -500 000/00 RMK AO2
94908KDBQ DBQ20021117132009411/17/02 13:20:31  5-MIN KDBQ 171920Z 04003KT 10SM CLR 01/M08 A3005 960 49 -400 040/03 RMK AO2
94908KDBQ DBQ20021117132509411/17/02 13:25:31  5-MIN KDBQ 171925Z 00000KT 10SM CLR 01/M09 A3005 960 47 -400 000/00 RMK AO2
94908KDBQ DBQ20021117133009411/17/02 13:30:31  5-MIN KDBQ 171930Z 00000KT 10SM CLR 01/M09 A3005 960 45 -400 000/00 RMK AO2
94908KDBQ DBQ20021117133509411/17/02 13:35:31  5-MIN KDBQ 171935Z 00000KT 10SM CLR 01/M09 A3005 960 45 -400 000/00 RMK AO2
94908KDBQ DBQ20021117134009411/17/02 13:40:31  5-MIN KDBQ 171940Z 29003KT 10SM CLR 01/M09 A3005 960 47 -400 290/03 RMK AO2
94908KDBQ DBQ20021117134509411/17/02 13:45:31  5-MIN KDBQ 171945Z 00000KT 10SM CLR 01/M09 A3005 960 47 -500 000/00 RMK AO2
94908KDBQ DBQ20021117135011111/17/02 13:50:31  5-MIN KDBQ 171950Z 27003KT 10SM CLR 01/M09 A3004 960 47 -400 270/03 RMK AO2 SLP186 T00111089
94908KDBQ DBQ20021117135511111/17/02 13:55:31  5-MIN KDBQ 171955Z 00000KT 10SM CLR 01/M09 A3004 970 47 -400 000/00 RMK AO2 SLP186 T00111089
94908KDBQ DBQ20021117140009411/17/02 14:00:31  5-MIN KDBQ 172000Z VRB03KT 10SM CLR 01/M09 A3004 970 47 -400 VRB/03 RMK AO2
94908KDBQ DBQ20021117140509411/17/02 14:05:31  5-MIN KDBQ 172005Z VRB04KT 10SM CLR 02/M08 A3004 970 47 -300 VRB/04 RMK AO2
94908KDBQ DBQ20021117141009411/17/02 14:10:31  5-MIN KDBQ 172010Z 00000KT 10SM CLR 01/M09 A3004 960 47 -400 000/00 RMK AO2
94908KDBQ DBQ20021117141509411/17/02 14:15:31  5-MIN KDBQ 172015Z VRB05KT 10SM CLR 01/M09 A3004 960 47 -400 VRB/05 RMK AO2
94908KDBQ DBQ20021117142009411/17/02 14:20:31  5-MIN KDBQ 172020Z 00000KT 10SM CLR 01/M09 A3004 960 47 -400 000/00 RMK AO2
94908KDBQ DBQ20021117142509411/17/02 14:25:31  5-MIN KDBQ 172025Z 00000KT 10SM CLR 02/M09 A3004 970 45 -300 000/00 RMK AO2
94908KDBQ DBQ20021117143009411/17/02 14:30:31  5-MIN KDBQ 172030Z 27004KT 10SM CLR 02/M08 A3004 970 47 -300 270/04 RMK AO2
94908KDBQ DBQ20021117143509411/17/02 14:35:31  5-MIN KDBQ 172035Z VRB03KT 10SM CLR 02/M08 A3003 970 47 -300 VRB/03 RMK AO2
94908KDBQ DBQ20021117144009411/17/02 14:40:31  5-MIN KDBQ 172040Z 02004KT 10SM CLR 02/M08 A3003 980 47 -300 020/04 RMK AO2
94908KDBQ DBQ20021117144509411/17/02 14:45:31  5-MIN KDBQ 172045Z 03004KT 10SM CLR 02/M09 A3003 980 45 -300 030/04 RMK AO2
94908KDBQ DBQ20021117145011711/17/02 14:50:31  5-MIN KDBQ 172050Z 00000KT 10SM CLR 02/M08 A3003 970 47 -300 000/00 RMK AO2 SLP183 T00171083 58016
94908KDBQ DBQ20021117145511711/17/02 14:55:31  5-MIN KDBQ 172055Z 00000KT 10SM CLR 02/M08 A3003 980 47 -300 000/00 RMK AO2 SLP182 T00171083 56014
94908KDBQ DBQ20021117150009411/17/02 15:00:31  5-MIN KDBQ 172100Z VRB03KT 10SM CLR 02/M08 A3003 970 47 -300 VRB/03 RMK AO2
94908KDBQ DBQ20021117150509411/17/02 15:05:31  5-MIN KDBQ 172105Z 36003KT 10SM CLR 02/M08 A3003 980 47 -300 350/03 RMK AO2
94908KDBQ DBQ20021117151009411/17/02 15:10:31  5-MIN KDBQ 172110Z 00000KT 10SM CLR 02/M09 A3003 980 45 -300 000/00 RMK AO2
94908KDBQ DBQ20021117151509411/17/02 15:15:31  5-MIN KDBQ 172115Z 00000KT 10SM CLR 02/M09 A3003 980 45 -300 000/00 RMK AO2
94908KDBQ DBQ20021117152009411/17/02 15:20:31  5-MIN KDBQ 172120Z 02004KT 10SM CLR 02/M09 A3003 980 45 -300 020/04 RMK AO2
94908KDBQ DBQ20021117152509411/17/02 15:25:31  5-MIN KDBQ 172125Z 00000KT 10SM CLR 02/M08 A3003 980 47 -300 000/00 RMK AO2
94908KDBQ DBQ20021117153009411/17/02 15:30:31  5-MIN KDBQ 172130Z 05003KT 10SM CLR 02/M08 A3003 980 47 -300 050/03 RMK AO2
94908KDBQ DBQ20021117153509411/17/02 15:35:31  5-MIN KDBQ 172135Z 00000KT 10SM CLR 02/M09 A3003 980 45 -300 000/00 RMK AO2
94908KDBQ DBQ20021117154009411/17/02 15:40:31  5-MIN KDBQ 172140Z 00000KT 10SM CLR 02/M09 A3003 980 45 -300 000/00 RMK AO2
94908KDBQ DBQ20021117154509411/17/02 15:45:31  5-MIN KDBQ 172145Z 00000KT 10SM CLR 01/M09 A3003 980 45 -400 000/00 RMK AO2
94908KDBQ DBQ20021117155011111/17/02 15:50:31  5-MIN KDBQ 172150Z 00000KT 10SM CLR 01/M09 A3003 980 47 -400 000/00 RMK AO2 SLP182 T00111089
94908KDBQ DBQ20021117155511111/17/02 15:55:31  5-MIN KDBQ 172155Z 00000KT 10SM CLR 01/M09 A3003 980 47 -400 000/00 RMK AO2 SLP181 T00111089
94908KDBQ DBQ20021117160009411/17/02 16:00:31  5-MIN KDBQ 172200Z 00000KT 10SM CLR 01/M08 A3003 980 49 -400 000/00 RMK AO2
94908KDBQ DBQ20021117160509411/17/02 16:05:31  5-MIN KDBQ 172205Z 00000KT 10SM CLR 01/M08 A3002 980 51 -500 000/00 RMK AO2
94908KDBQ DBQ20021117161009411/17/02 16:10:31  5-MIN KDBQ 172210Z 00000KT 10SM CLR 01/M08 A3002 980 51 -500 000/00 RMK AO2
94908KDBQ DBQ20021117161509411/17/02 16:15:31  5-MIN KDBQ 172215Z 00000KT 10SM CLR 01/M08 A3002 980 51 -400 000/00 RMK AO2
94908KDBQ DBQ20021117162009411/17/02 16:20:31  5-MIN KDBQ 172220Z 00000KT 10SM CLR 00/M08 A3002 990 56 -500 000/00 RMK AO2
94908KDBQ DBQ20021117162509411/17/02 16:25:31  5-MIN KDBQ 172225Z 00000KT 10SM CLR 00/M08 A3002 990 53 -500 000/00 RMK AO2
94908KDBQ DBQ20021117163009511/17/02 16:30:31  5-MIN KDBQ 172230Z 00000KT 10SM CLR M01/M09 A3002 990 53 -600 000/00 RMK AO2
94908KDBQ DBQ20021117163509511/17/02 16:35:31  5-MIN KDBQ 172235Z 00000KT 10SM CLR M01/M08 A3002 980 56 -600 000/00 RMK AO2
94908KDBQ DBQ20021117164009511/17/02 16:40:31  5-MIN KDBQ 172240Z 00000KT 10SM CLR M01/M08 A3003 980 58 -700 000/00 RMK AO2
94908KDBQ DBQ20021117164509511/17/02 16:45:31  5-MIN KDBQ 172245Z 00000KT 10SM CLR M01/M08 A3003 980 56 -600 000/00 RMK AO2
94908KDBQ DBQ20021117165011211/17/02 16:50:31  5-MIN KDBQ 172250Z 00000KT 10SM CLR M02/M08 A3003 980 60 -700 000/00 RMK AO2 SLP184 T10171083
94908KDBQ DBQ20021117165511211/17/02 16:55:31  5-MIN KDBQ 172255Z 00000KT 10SM CLR M02/M08 A3002 990 60 -700 000/00 RMK AO2 SLP181 T10171083
94908KDBQ DBQ20021117170009511/17/02 17:00:31  5-MIN KDBQ 172300Z 00000KT 10SM CLR M01/M08 A3002 990 58 -700 000/00 RMK AO2
94908KDBQ DBQ20021117170509511/17/02 17:05:31  5-MIN KDBQ 172305Z 00000KT 10SM CLR M01/M08 A3002 990 58 -700 000/00 RMK AO2
94908KDBQ DBQ20021117171009511/17/02 17:10:31  5-MIN KDBQ 172310Z 12003KT 10SM CLR M02/M08 A3002 990 63 -800 120/03 RMK AO2
94908KDBQ DBQ20021117171509511/17/02 17:15:31  5-MIN KDBQ 172315Z 13003KT 10SM CLR M03/M08 A3002 990 66 -900 130/03 RMK AO2
94908KDBQ DBQ20021117172009511/17/02 17:20:31  5-MIN KDBQ 172320Z 13003KT 10SM CLR M02/M08 A3002 990 63 -800 130/03 RMK AO2
94908KDBQ DBQ20021117172509511/17/02 17:25:31  5-MIN KDBQ 172325Z 00000KT 10SM CLR M03/M08 A3002 990 68 -900 000/00 RMK AO2
94908KDBQ DBQ20021117173009611/17/02 17:30:31  5-MIN KDBQ 172330Z 00000KT 10SM CLR M04/M09 A3002 980 71 -1100 000/00 RMK AO2
94908KDBQ DBQ20021117173509611/17/02 17:35:31  5-MIN KDBQ 172335Z 00000KT 10SM CLR M04/M09 A3003 980 68 -1000 000/00 RMK AO2
94908KDBQ DBQ20021117174009511/17/02 17:40:31  5-MIN KDBQ 172340Z 00000KT 10SM CLR M03/M08 A3003 980 68 -900 000/00 RMK AO2
94908KDBQ DBQ20021117174509511/17/02 17:45:31  5-MIN KDBQ 172345Z 00000KT 10SM CLR M03/M08 A3003 980 68 -900 000/00 RMK AO2
94908KDBQ DBQ20021117175012911/17/02 17:50:31  5-MIN KDBQ 172350Z 10003KT 9SM CLR M03/M08 A3003 980 68 -900 100/03 RMK AO2 SLP185 T10331083 10022 21050 56014
94908KDBQ DBQ20021117175512911/17/02 17:55:31  5-MIN KDBQ 172355Z 11004KT 9SM CLR M03/M09 A3003 980 63 -900 110/04 RMK AO2 SLP185 T10281089 10022 21050 55001
94908KDBQ DBQ20021117180009511/17/02 18:00:31  5-MIN KDBQ 180000Z 11004KT 10SM CLR M03/M09 A3003 980 65 -900 110/04 RMK AO2
94908KDBQ DBQ20021117180509511/17/02 18:05:31  5-MIN KDBQ 180005Z 11004KT 10SM CLR M03/M09 A3003 980 65 -900 110/04 RMK AO2
94908KDBQ DBQ20021117181009611/17/02 18:10:31  5-MIN KDBQ 180010Z 12004KT 10SM CLR M03/M08 A3003 980 68 -1000 120/04 RMK AO2
94908KDBQ DBQ20021117181509611/17/02 18:15:31  5-MIN KDBQ 180015Z 12003KT 10SM CLR M03/M08 A3004 970 68 -1000 120/03 RMK AO2
94908KDBQ DBQ20021117182009511/17/02 18:20:31  5-MIN KDBQ 180020Z 13004KT 10SM CLR M03/M08 A3003 980 66 -900 130/04 RMK AO2
94908KDBQ DBQ20021117182509511/17/02 18:25:31  5-MIN KDBQ 180025Z 13005KT 10SM CLR M03/M08 A3003 980 68 -900 130/05 RMK AO2
94908KDBQ DBQ20021117183009511/17/02 18:30:31  5-MIN KDBQ 180030Z 12005KT 10SM CLR M03/M08 A3003 980 68 -900 120/05 RMK AO2
94908KDBQ DBQ20021117183509511/17/02 18:35:31  5-MIN KDBQ 180035Z 13005KT 10SM CLR M03/M08 A3003 980 68 -900 120/05 RMK AO2
94908KDBQ DBQ20021117184009511/17/02 18:40:31  5-MIN KDBQ 180040Z 13005KT 10SM CLR M03/M08 A3003 980 68 -900 130/05 RMK AO2
94908KDBQ DBQ20021117184509511/17/02 18:45:31  5-MIN KDBQ 180045Z 12004KT 10SM CLR M03/M08 A3003 980 66 -900 120/04 RMK AO2
94908KDBQ DBQ20021117185012211/17/02 18:50:31  5-MIN KDBQ 180050Z AUTO 12003KT 10SM CLR M03/M08 A3003 980 68 -900 120/03 RMK AO2 SLP184 T10331083 TSNO
94908KDBQ DBQ20021117185512311/17/02 18:55:31  5-MIN KDBQ 180055Z AUTO 12004KT 10SM CLR M04/M08 A3003 980 71 -1000 120/04 RMK AO2 SLP185 T10391083 TSNO
94908KDBQ DBQ20021117190010611/17/02 19:00:31  5-MIN KDBQ 180100Z AUTO 13004KT 10SM CLR M04/M08 A3003 980 71 -1000 130/04 RMK AO2 TSNO
94908KDBQ DBQ20021117190510611/17/02 19:05:31  5-MIN KDBQ 180105Z AUTO 12004KT 10SM CLR M04/M08 A3003 980 71 -1000 120/04 RMK AO2 TSNO
94908KDBQ DBQ20021117191010611/17/02 19:10:31  5-MIN KDBQ 180110Z AUTO 12005KT 10SM CLR M04/M08 A3003 980 71 -1000 120/05 RMK AO2 TSNO
94908KDBQ DBQ20021117191510611/17/02 19:15:31  5-MIN KDBQ 180115Z AUTO 13006KT 10SM CLR M04/M08 A3002 980 71 -1000 130/06 RMK AO2 TSNO
94908KDBQ DBQ20021117192010611/17/02 19:20:31  5-MIN KDBQ 180120Z AUTO 13006KT 10SM CLR M04/M08 A3002 980 71 -1000 130/06 RMK AO2 TSNO
94908KDBQ DBQ20021117192510511/17/02 19:25:31  5-MIN KDBQ 180125Z AUTO 13007KT 10SM CLR M03/M08 A3002 980 68 -900 130/07 RMK AO2 TSNO
94908KDBQ DBQ20021117193010511/17/02 19:30:31  5-MIN KDBQ 180130Z AUTO 13007KT 10SM CLR M03/M08 A3003 980 66 -900 130/07 RMK AO2 TSNO
94908KDBQ DBQ20021117193510511/17/02 19:35:31  5-MIN KDBQ 180135Z AUTO 13007KT 10SM CLR M02/M08 A3003 980 63 -800 130/07 RMK AO2 TSNO
94908KDBQ DBQ20021117194010511/17/02 19:40:31  5-MIN KDBQ 180140Z AUTO 13007KT 10SM CLR M03/M08 A3002 980 66 -900 130/07 RMK AO2 TSNO
94908KDBQ DBQ20021117194510511/17/02 19:45:31  5-MIN KDBQ 180145Z AUTO 13007KT 10SM CLR M03/M08 A3002 980 66 -900 130/07 RMK AO2 TSNO
94908KDBQ DBQ20021117195012211/17/02 19:50:31  5-MIN KDBQ 180150Z AUTO 14006KT 10SM CLR M03/M08 A3003 980 68 -900 140/06 RMK AO2 SLP185 T10331083 TSNO
94908KDBQ DBQ20021117195512211/17/02 19:55:31  5-MIN KDBQ 180155Z AUTO 14005KT 10SM CLR M03/M08 A3003 980 68 -900 140/05 RMK AO2 SLP185 T10331083 TSNO
94908KDBQ DBQ20021117200010611/17/02 20:00:31  5-MIN KDBQ 180200Z AUTO 14005KT 10SM CLR M03/M08 A3003 970 68 -1000 130/05 RMK AO2 TSNO
94908KDBQ DBQ20021117200510511/17/02 20:05:31  5-MIN KDBQ 180205Z AUTO 13005KT 10SM CLR M03/M08 A3003 980 68 -900 130/05 RMK AO2 TSNO
94908KDBQ DBQ20021117201010511/17/02 20:10:31  5-MIN KDBQ 180210Z AUTO 13006KT 10SM CLR M03/M08 A3003 980 71 -900 130/06 RMK AO2 TSNO
94908KDBQ DBQ20021117201510511/17/02 20:15:31  5-MIN KDBQ 180215Z AUTO 13007KT 10SM CLR M03/M08 A3003 980 71 -900 130/07 RMK AO2 TSNO
94908KDBQ DBQ20021117202010611/17/02 20:20:31  5-MIN KDBQ 180220Z AUTO 14006KT 10SM CLR M03/M08 A3003 970 71 -1000 140/06 RMK AO2 TSNO
94908KDBQ DBQ20021117202510611/17/02 20:25:31  5-MIN KDBQ 180225Z AUTO 14005KT 10SM CLR M03/M08 A3003 970 71 -1000 140/05 RMK AO2 TSNO
94908KDBQ DBQ20021117203010611/17/02 20:30:31  5-MIN KDBQ 180230Z AUTO 14005KT 10SM CLR M04/M08 A3004 970 74 -1000 140/05 RMK AO2 TSNO
94908KDBQ DBQ20021117203510611/17/02 20:35:31  5-MIN KDBQ 180235Z AUTO 15004KT 10SM CLR M04/M08 A3004 970 74 -1000 150/04 RMK AO2 TSNO
94908KDBQ DBQ20021117204010611/17/02 20:40:31  5-MIN KDBQ 180240Z AUTO 14005KT 10SM CLR M04/M08 A3004 970 74 -1000 140/05 RMK AO2 TSNO
94908KDBQ DBQ20021117204510611/17/02 20:45:31  5-MIN KDBQ 180245Z AUTO 14004KT 10SM CLR M04/M08 A3004 970 74 -1000 140/04 RMK AO2 TSNO
94908KDBQ DBQ20021117205012911/17/02 20:50:31  5-MIN KDBQ 180250Z AUTO 15005KT 10SM CLR M04/M08 A3004 970 74 -1000 150/05 RMK AO2 SLP186 T10391078 55001 TSNO
94908KDBQ DBQ20021117205512911/17/02 20:55:31  5-MIN KDBQ 180255Z AUTO 14006KT 10SM CLR M04/M08 A3003 970 71 -1000 140/06 RMK AO2 SLP185 T10391083 53001 TSNO
94908KDBQ DBQ20021117210010611/17/02 21:00:31  5-MIN KDBQ 180300Z AUTO 15006KT 10SM CLR M04/M08 A3003 980 71 -1000 150/06 RMK AO2 TSNO
94908KDBQ DBQ20021117210510611/17/02 21:05:31  5-MIN KDBQ 180305Z AUTO 15006KT 10SM CLR M04/M08 A3003 980 74 -1000 150/06 RMK AO2 TSNO
94908KDBQ DBQ20021117211010611/17/02 21:10:31  5-MIN KDBQ 180310Z AUTO 14007KT 10SM CLR M04/M08 A3003 980 71 -1000 140/07 RMK AO2 TSNO
94908KDBQ DBQ20021117211510611/17/02 21:15:31  5-MIN KDBQ 180315Z AUTO 15007KT 10SM CLR M04/M08 A3002 980 74 -1000 150/07 RMK AO2 TSNO
94908KDBQ DBQ20021117212010611/17/02 21:20:31  5-MIN KDBQ 180320Z AUTO 15008KT 10SM CLR M04/M08 A3002 980 71 -1000 150/08 RMK AO2 TSNO
94908KDBQ DBQ20021117212510511/17/02 21:25:31  5-MIN KDBQ 180325Z AUTO 15009KT 10SM CLR M03/M08 A3002 980 68 -900 150/09 RMK AO2 TSNO
94908KDBQ DBQ20021117213010511/17/02 21:30:31  5-MIN KDBQ 180330Z AUTO 15008KT 10SM CLR M03/M08 A3002 990 68 -900 150/08 RMK AO2 TSNO
94908KDBQ DBQ20021117213510511/17/02 21:35:31  5-MIN KDBQ 180335Z AUTO 16008KT 10SM CLR M03/M08 A3002 980 68 -900 160/08 RMK AO2 TSNO
94908KDBQ DBQ20021117214010511/17/02 21:40:31  5-MIN KDBQ 180340Z AUTO 15008KT 10SM CLR M03/M08 A3002 980 68 -900 150/08 RMK AO2 TSNO
94908KDBQ DBQ20021117214510511/17/02 21:45:31  5-MIN KDBQ 180345Z AUTO 15007KT 10SM CLR M03/M08 A3002 990 68 -900 150/07 RMK AO2 TSNO
94908KDBQ DBQ20021117215012311/17/02 21:50:31  5-MIN KDBQ 180350Z AUTO 15007KT 10SM CLR M04/M08 A3002 990 71 -1000 150/07 RMK AO2 SLP179 T10391083 TSNO
94908KDBQ DBQ20021117215512211/17/02 21:55:31  5-MIN KDBQ 180355Z AUTO 16008KT 10SM CLR M03/M08 A3002 990 68 -900 160/08 RMK AO2 SLP179 T10331083 TSNO
94908KDBQ DBQ20021117220010511/17/02 22:00:31  5-MIN KDBQ 180400Z AUTO 15008KT 10SM CLR M03/M08 A3002 990 68 -900 150/08 RMK AO2 TSNO
94908KDBQ DBQ20021117220510511/17/02 22:05:31  5-MIN KDBQ 180405Z AUTO 15008KT 10SM CLR M03/M08 A3001 990 68 -900 150/08 RMK AO2 TSNO
94908KDBQ DBQ20021117221010511/17/02 22:10:31  5-MIN KDBQ 180410Z AUTO 15007KT 10SM CLR M03/M08 A3001 990 68 -900 150/07 RMK AO2 TSNO
94908KDBQ DBQ20021117221510511/17/02 22:15:31  5-MIN KDBQ 180415Z AUTO 16008KT 10SM CLR M03/M08 A3001 990 68 -900 160/08 RMK AO2 TSNO
94908KDBQ DBQ20021117222010511/17/02 22:20:31  5-MIN KDBQ 180420Z AUTO 16008KT 10SM CLR M03/M08 A3001 990 68 -900 150/08 RMK AO2 TSNO
94908KDBQ DBQ20021117222510511/17/02 22:25:31  5-MIN KDBQ 180425Z AUTO 16008KT 10SM CLR M03/M08 A3001 990 68 -900 160/08 RMK AO2 TSNO
94908KDBQ DBQ20021117223010511/17/02 22:30:31  5-MIN KDBQ 180430Z AUTO 16009KT 10SM CLR M03/M08 A3001 990 68 -900 160/09 RMK AO2 TSNO
94908KDBQ DBQ20021117223510511/17/02 22:35:31  5-MIN KDBQ 180435Z AUTO 16009KT 10SM CLR M03/M08 A3001 990 68 -900 160/09 RMK AO2 TSNO
94908KDBQ DBQ20021117224010511/17/02 22:40:31  5-MIN KDBQ 180440Z AUTO 16010KT 10SM CLR M03/M08 A3002 990 68 -900 160/10 RMK AO2 TSNO
94908KDBQ DBQ20021117224510511/17/02 22:45:31  5-MIN KDBQ 180445Z AUTO 16009KT 10SM CLR M03/M08 A3002 990 68 -900 160/09 RMK AO2 TSNO
94908KDBQ DBQ20021117225012211/17/02 22:50:31  5-MIN KDBQ 180450Z AUTO 16009KT 10SM CLR M03/M08 A3002 980 68 -900 160/09 RMK AO2 SLP180 T10331083 TSNO
94908KDBQ DBQ20021117225512211/17/02 22:55:31  5-MIN KDBQ 180455Z AUTO 16008KT 10SM CLR M03/M08 A3002 990 68 -900 160/08 RMK AO2 SLP180 T10331083 TSNO
94908KDBQ DBQ20021117230010511/17/02 23:00:31  5-MIN KDBQ 180500Z AUTO 16008KT 10SM CLR M03/M08 A3002 980 68 -900 160/08 RMK AO2 TSNO
94908KDBQ DBQ20021117230510611/17/02 23:05:31  5-MIN KDBQ 180505Z AUTO 16007KT 10SM CLR M04/M08 A3002 990 71 -1000 160/07 RMK AO2 TSNO
94908KDBQ DBQ20021117231010511/17/02 23:10:31  5-MIN KDBQ 180510Z AUTO 16007KT 10SM CLR M03/M08 A3002 990 68 -900 160/07 RMK AO2 TSNO
94908KDBQ DBQ20021117231510611/17/02 23:15:31  5-MIN KDBQ 180515Z AUTO 16007KT 10SM CLR M04/M08 A3002 990 71 -1000 160/07 RMK AO2 TSNO
94908KDBQ DBQ20021117232010611/17/02 23:20:31  5-MIN KDBQ 180520Z AUTO 17006KT 10SM CLR M04/M08 A3002 990 71 -1000 160/06 RMK AO2 TSNO
94908KDBQ DBQ20021117232510611/17/02 23:25:31  5-MIN KDBQ 180525Z AUTO 17006KT 10SM CLR M04/M08 A3002 990 74 -1100 170/06 RMK AO2 TSNO
94908KDBQ DBQ20021117233010611/17/02 23:30:31  5-MIN KDBQ 180530Z AUTO 17007KT 10SM CLR M04/M08 A3002 990 78 -1100 170/07 RMK AO2 TSNO
94908KDBQ DBQ20021117233510611/17/02 23:35:31  5-MIN KDBQ 180535Z AUTO 17008KT 10SM CLR M04/M08 A3002 990 74 -1000 160/08 RMK AO2 TSNO
94908KDBQ DBQ20021117234010511/17/02 23:40:31  5-MIN KDBQ 180540Z AUTO 16008KT 10SM CLR M03/M08 A3002 990 71 -900 160/08 RMK AO2 TSNO
94908KDBQ DBQ20021117234510511/17/02 23:45:31  5-MIN KDBQ 180545Z AUTO 16007KT 10SM CLR M03/M08 A3002 990 71 -900 160/07 RMK AO2 TSNO
94908KDBQ DBQ20021117235015011/17/02 23:50:31  5-MIN KDBQ 180550Z AUTO 17007KT 10SM CLR M03/M08 A3002 990 71 -900 170/07 RMK AO2 SLP178 T10331078 11022 21044 400221072 53001 TSNO
94908KDBQ DBQ20021117235515111/17/02 23:55:31  5-MIN KDBQ 180555Z AUTO 18007KT 10SM CLR M04/M08 A3002 990 74 -1000 180/07 RMK AO2 SLP179 T10391078 11022 21044 400221072 56005 TSNO
94908KDBQ DBQ20021118000010611/18/02 00:00:31  5-MIN KDBQ 180600Z AUTO 18007KT 10SM CLR M04/M08 A3002 990 74 -1000 180/07 RMK AO2 TSNO
94908KDBQ DBQ20021118000510611/18/02 00:05:31  5-MIN KDBQ 180605Z AUTO 18006KT 10SM CLR M04/M08 A3002 990 78 -1100 180/06 RMK AO2 TSNO
94908KDBQ DBQ20021118001010611/18/02 00:10:31  5-MIN KDBQ 180610Z AUTO 17007KT 10SM CLR M04/M08 A3002 990 74 -1000 170/07 RMK AO2 TSNO
94908KDBQ DBQ20021118001510611/18/02 00:15:31  5-MIN KDBQ 180615Z AUTO 16008KT 10SM CLR M04/M08 A3002 990 74 -1000 160/08 RMK AO2 TSNO
94908KDBQ DBQ20021118002010611/18/02 00:20:31  5-MIN KDBQ 180620Z AUTO 16008KT 10SM CLR M04/M08 A3002 990 74 -1000 160/08 RMK AO2 TSNO
94908KDBQ DBQ20021118002510511/18/02 00:25:31  5-MIN KDBQ 180625Z AUTO 16008KT 10SM CLR M03/M08 A3001 990 71 -900 160/08 RMK AO2 TSNO
94908KDBQ DBQ20021118003010611/18/02 00:30:31  5-MIN KDBQ 180630Z AUTO 15009KT 10SM CLR M03/M08 A3001 1000 71 -900 150/09 RMK AO2 TSNO
94908KDBQ DBQ20021118003510611/18/02 00:35:31  5-MIN KDBQ 180635Z AUTO 16009KT 10SM CLR M03/M08 A3000 1000 71 -900 150/09 RMK AO2 TSNO
94908KDBQ DBQ20021118004010611/18/02 00:40:31  5-MIN KDBQ 180640Z AUTO 16009KT 10SM CLR M03/M08 A3000 1000 68 -800 160/09 RMK AO2 TSNO
94908KDBQ DBQ20021118004510611/18/02 00:45:31  5-MIN KDBQ 180645Z AUTO 16009KT 10SM CLR M03/M08 A3000 1000 68 -800 160/09 RMK AO2 TSNO
94908KDBQ DBQ20021118005012311/18/02 00:50:31  5-MIN KDBQ 180650Z AUTO 16009KT 10SM CLR M03/M08 A3001 1000 68 -800 160/09 RMK AO2 SLP173 T10281078 TSNO
94908KDBQ DBQ20021118005512311/18/02 00:55:31  5-MIN KDBQ 180655Z AUTO 16009KT 10SM CLR M03/M08 A3000 1000 71 -900 160/09 RMK AO2 SLP172 T10331078 TSNO
94908KDBQ DBQ20021118010010611/18/02 01:00:31  5-MIN KDBQ 180700Z AUTO 16009KT 10SM CLR M03/M08 A3000 1010 71 -900 160/09 RMK AO2 TSNO
94908KDBQ DBQ20021118010510611/18/02 01:05:31  5-MIN KDBQ 180705Z AUTO 16008KT 10SM CLR M03/M08 A3000 1010 71 -900 150/08 RMK AO2 TSNO
94908KDBQ DBQ20021118011010611/18/02 01:10:31  5-MIN KDBQ 180710Z AUTO 16008KT 10SM CLR M03/M08 A2999 1010 71 -900 160/08 RMK AO2 TSNO
94908KDBQ DBQ20021118011510611/18/02 01:15:31  5-MIN KDBQ 180715Z AUTO 16009KT 10SM CLR M03/M08 A3000 1010 71 -900 160/09 RMK AO2 TSNO
94908KDBQ DBQ20021118012010611/18/02 01:20:31  5-MIN KDBQ 180720Z AUTO 16008KT 10SM CLR M03/M08 A2999 1010 71 -900 160/08 RMK AO2 TSNO
94908KDBQ DBQ20021118012510611/18/02 01:25:31  5-MIN KDBQ 180725Z AUTO 16009KT 10SM CLR M03/M08 A2999 1010 71 -900 160/09 RMK AO2 TSNO
94908KDBQ DBQ20021118013010611/18/02 01:30:31  5-MIN KDBQ 180730Z AUTO 16009KT 10SM CLR M03/M08 A3000 1010 71 -900 160/09 RMK AO2 TSNO
94908KDBQ DBQ20021118013510611/18/02 01:35:31  5-MIN KDBQ 180735Z AUTO 16009KT 10SM CLR M03/M08 A3000 1010 71 -900 160/09 RMK AO2 TSNO
94908KDBQ DBQ20021118014010611/18/02 01:40:31  5-MIN KDBQ 180740Z AUTO 16009KT 10SM CLR M03/M08 A3000 1010 71 -900 160/09 RMK AO2 TSNO
94908KDBQ DBQ20021118014510611/18/02 01:45:31  5-MIN KDBQ 180745Z AUTO 16009KT 10SM CLR M03/M08 A3000 1010 71 -900 160/09 RMK AO2 TSNO
94908KDBQ DBQ20021118015012311/18/02 01:50:31  5-MIN KDBQ 180750Z AUTO 16009KT 10SM CLR M03/M08 A2999 1010 71 -900 160/09 RMK AO2 SLP169 T10331078 TSNO
94908KDBQ DBQ20021118015512311/18/02 01:55:31  5-MIN KDBQ 180755Z AUTO 16009KT 10SM CLR M03/M08 A2999 1010 71 -900 160/09 RMK AO2 SLP170 T10331078 TSNO
94908KDBQ DBQ20021118020010611/18/02 02:00:31  5-MIN KDBQ 180800Z AUTO 16008KT 10SM CLR M03/M08 A2999 1010 71 -900 160/08 RMK AO2 TSNO
94908KDBQ DBQ20021118020510611/18/02 02:05:31  5-MIN KDBQ 180805Z AUTO 16009KT 10SM CLR M03/M08 A2999 1020 71 -900 160/09 RMK AO2 TSNO
94908KDBQ DBQ20021118021010611/18/02 02:10:31  5-MIN KDBQ 180810Z AUTO 16010KT 10SM CLR M03/M08 A2999 1020 68 -800 160/10 RMK AO2 TSNO
94908KDBQ DBQ20021118021510611/18/02 02:15:31  5-MIN KDBQ 180815Z AUTO 16010KT 10SM CLR M03/M08 A2999 1020 68 -800 160/10 RMK AO2 TSNO
94908KDBQ DBQ20021118022010611/18/02 02:20:31  5-MIN KDBQ 180820Z AUTO 16009KT 10SM CLR M03/M08 A2999 1020 68 -800 160/09 RMK AO2 TSNO
94908KDBQ DBQ20021118022510611/18/02 02:25:31  5-MIN KDBQ 180825Z AUTO 16009KT 10SM CLR M03/M08 A2999 1020 68 -800 160/09 RMK AO2 TSNO
94908KDBQ DBQ20021118023010611/18/02 02:30:31  5-MIN KDBQ 180830Z AUTO 16010KT 10SM CLR M03/M08 A2999 1020 68 -800 160/10 RMK AO2 TSNO
94908KDBQ DBQ20021118023510611/18/02 02:35:31  5-MIN KDBQ 180835Z AUTO 17010KT 10SM CLR M03/M08 A2999 1010 68 -800 160/10 RMK AO2 TSNO
94908KDBQ DBQ20021118024010611/18/02 02:40:31  5-MIN KDBQ 180840Z AUTO 17009KT 10SM CLR M03/M08 A2999 1010 68 -800 160/09 RMK AO2 TSNO
94908KDBQ DBQ20021118024510611/18/02 02:45:31  5-MIN KDBQ 180845Z AUTO 16009KT 10SM CLR M03/M08 A2998 1020 68 -800 160/09 RMK AO2 TSNO
94908KDBQ DBQ20021118025012911/18/02 02:50:31  5-MIN KDBQ 180850Z AUTO 16011KT 10SM CLR M03/M08 A2998 1020 68 -800 160/11 RMK AO2 SLP164 T10281078 56005 TSNO
94908KDBQ DBQ20021118025512911/18/02 02:55:31  5-MIN KDBQ 180855Z AUTO 16011KT 10SM CLR M02/M07 A2998 1030 69 -700 150/11 RMK AO2 SLP163 T10221072 56014 TSNO
94908KDBQ DBQ20021118030010611/18/02 03:00:31  5-MIN KDBQ 180900Z AUTO 16010KT 10SM CLR M02/M07 A2998 1020 69 -700 160/10 RMK AO2 TSNO
94908KDBQ DBQ20021118030510611/18/02 03:05:31  5-MIN KDBQ 180905Z AUTO 16011KT 10SM CLR M02/M07 A2998 1030 66 -700 150/11 RMK AO2 TSNO
94908KDBQ DBQ20021118031010611/18/02 03:10:31  5-MIN KDBQ 180910Z AUTO 16009KT 10SM CLR M02/M07 A2998 1030 66 -700 150/09 RMK AO2 TSNO
94908KDBQ DBQ20021118031510611/18/02 03:15:31  5-MIN KDBQ 180915Z AUTO 16010KT 10SM CLR M02/M07 A2998 1030 66 -700 150/10 RMK AO2 TSNO
94908KDBQ DBQ20021118032010611/18/02 03:20:31  5-MIN KDBQ 180920Z AUTO 15009KT 10SM CLR M02/M07 A2997 1030 66 -700 150/09 RMK AO2 TSNO
94908KDBQ DBQ20021118032510611/18/02 03:25:31  5-MIN KDBQ 180925Z AUTO 16009KT 10SM CLR M02/M07 A2998 1030 66 -700 160/09 RMK AO2 TSNO
94908KDBQ DBQ20021118033010611/18/02 03:30:31  5-MIN KDBQ 180930Z AUTO 16010KT 10SM CLR M02/M07 A2997 1030 69 -700 160/10 RMK AO2 TSNO
94908KDBQ DBQ20021118033510611/18/02 03:35:31  5-MIN KDBQ 180935Z AUTO 16009KT 10SM CLR M02/M07 A2998 1030 69 -700 160/09 RMK AO2 TSNO
94908KDBQ DBQ20021118034010611/18/02 03:40:31  5-MIN KDBQ 180940Z AUTO 16009KT 10SM CLR M02/M07 A2998 1030 72 -700 160/09 RMK AO2 TSNO
94908KDBQ DBQ20021118034510611/18/02 03:45:31  5-MIN KDBQ 180945Z AUTO 16009KT 10SM CLR M02/M07 A2998 1030 69 -700 160/09 RMK AO2 TSNO
94908KDBQ DBQ20021118035012311/18/02 03:50:31  5-MIN KDBQ 180950Z AUTO 16010KT 10SM CLR M02/M07 A2997 1030 69 -700 160/10 RMK AO2 SLP161 T10171067 TSNO
94908KDBQ DBQ20021118035512311/18/02 03:55:31  5-MIN KDBQ 180955Z AUTO 16011KT 10SM CLR M02/M06 A2997 1030 72 -700 160/11 RMK AO2 SLP161 T10171061 TSNO
94908KDBQ DBQ20021118040010611/18/02 04:00:31  5-MIN KDBQ 181000Z AUTO 16010KT 10SM CLR M02/M06 A2997 1030 72 -700 160/10 RMK AO2 TSNO
94908KDBQ DBQ20021118040510611/18/02 04:05:31  5-MIN KDBQ 181005Z AUTO 16010KT 10SM CLR M02/M06 A2997 1030 72 -700 160/10 RMK AO2 TSNO
94908KDBQ DBQ20021118041010611/18/02 04:10:31  5-MIN KDBQ 181010Z AUTO 16009KT 10SM CLR M01/M06 A2998 1030 69 -600 150/09 RMK AO2 TSNO
94908KDBQ DBQ20021118041510611/18/02 04:15:31  5-MIN KDBQ 181015Z AUTO 16009KT 10SM CLR M01/M06 A2998 1020 69 -600 160/09 RMK AO2 TSNO
94908KDBQ DBQ20021118042010611/18/02 04:20:31  5-MIN KDBQ 181020Z AUTO 16010KT 10SM CLR M01/M06 A2997 1030 69 -600 160/10 RMK AO2 TSNO
94908KDBQ DBQ20021118042510611/18/02 04:25:31  5-MIN KDBQ 181025Z AUTO 16011KT 10SM CLR M01/M06 A2997 1030 69 -600 160/11 RMK AO2 TSNO
94908KDBQ DBQ20021118043010611/18/02 04:30:31  5-MIN KDBQ 181030Z AUTO 16011KT 10SM CLR M01/M06 A2997 1030 69 -600 160/11 RMK AO2 TSNO
94908KDBQ DBQ20021118043510611/18/02 04:35:31  5-MIN KDBQ 181035Z AUTO 16012KT 10SM CLR M01/M06 A2997 1030 69 -600 160/12 RMK AO2 TSNO
94908KDBQ DBQ20021118044010611/18/02 04:40:31  5-MIN KDBQ 181040Z AUTO 16011KT 10SM CLR M01/M06 A2997 1030 69 -600 160/11 RMK AO2 TSNO
94908KDBQ DBQ20021118044510611/18/02 04:45:31  5-MIN KDBQ 181045Z AUTO 15010KT 10SM CLR M01/M06 A2997 1030 72 -600 150/10 RMK AO2 TSNO
94908KDBQ DBQ20021118045012311/18/02 04:50:31  5-MIN KDBQ 181050Z AUTO 15011KT 10SM CLR M01/M06 A2996 1040 69 -600 140/11 RMK AO2 SLP158 T10111061 TSNO
94908KDBQ DBQ20021118045512311/18/02 04:55:31  5-MIN KDBQ 181055Z AUTO 15011KT 10SM CLR M01/M06 A2996 1040 72 -600 150/11 RMK AO2 SLP158 T10111056 TSNO
94908KDBQ DBQ20021118050010611/18/02 05:00:31  5-MIN KDBQ 181100Z AUTO 15010KT 10SM CLR M01/M06 A2996 1040 72 -600 150/10 RMK AO2 TSNO
94908KDBQ DBQ20021118050510511/18/02 05:05:31  5-MIN KDBQ 181105Z AUTO 15011KT 9SM CLR M01/M06 A2996 1040 72 -600 150/11 RMK AO2 TSNO
94908KDBQ DBQ20021118051010511/18/02 05:10:31  5-MIN KDBQ 181110Z AUTO 14009KT 9SM CLR M01/M06 A2996 1040 72 -600 140/09 RMK AO2 TSNO
94908KDBQ DBQ20021118051510811/18/02 05:15:31  5-MIN KDBQ 181115Z AUTO 14011KT 9SM FEW120 M01/M06 A2996 1050 72 -600 140/11 RMK AO2 TSNO
94908KDBQ DBQ20021118052010811/18/02 05:20:31  5-MIN KDBQ 181120Z AUTO 15009KT 9SM SCT120 M01/M06 A2995 1050 72 -600 150/09 RMK AO2 TSNO
94908KDBQ DBQ20021118052510811/18/02 05:25:31  5-MIN KDBQ 181125Z AUTO 15009KT 9SM BKN120 M01/M06 A2995 1050 72 -600 150/09 RMK AO2 TSNO
94908KDBQ DBQ20021118053010811/18/02 05:30:31  5-MIN KDBQ 181130Z AUTO 14011KT 9SM BKN120 M01/M06 A2995 1050 69 -500 140/11 RMK AO2 TSNO
94908KDBQ DBQ20021118053510811/18/02 05:35:31  5-MIN KDBQ 181135Z AUTO 14008KT 9SM BKN120 M01/M06 A2995 1050 72 -600 140/08 RMK AO2 TSNO
94908KDBQ DBQ20021118054009811/18/02 05:40:31  5-MIN KDBQ 181140Z 14009KT 9SM BKN120 M01/M06 A2995 1050 72 -600 140/09 RMK AO2
94908KDBQ DBQ20021118054509811/18/02 05:45:31  5-MIN KDBQ 181145Z 15010KT 9SM OVC120 M01/M06 A2995 1050 72 -600 140/10 RMK AO2
94908KDBQ DBQ20021118055013311/18/02 05:50:31  5-MIN KDBQ 181150Z 14010KT 9SM OVC120 M01/M06 A2995 1050 72 -600 140/10 RMK AO2 SLP155 T10111056 11006 21044 56014
94908KDBQ DBQ20021118055513311/18/02 05:55:31  5-MIN KDBQ 181155Z 15008KT 9SM OVC120 M01/M06 A2995 1050 72 -600 150/08 RMK AO2 SLP156 T10111056 11006 21044 58009
94908KDBQ DBQ20021118060009811/18/02 06:00:31  5-MIN KDBQ 181200Z 15008KT 9SM OVC120 M01/M06 A2995 1050 72 -600 150/08 RMK AO2
94908KDBQ DBQ20021118060509811/18/02 06:05:31  5-MIN KDBQ 181205Z 16007KT 9SM OVC110 M01/M05 A2996 1040 72 -500 160/07 RMK AO2
94908KDBQ DBQ20021118061009811/18/02 06:10:31  5-MIN KDBQ 181210Z 16008KT 9SM OVC110 M01/M05 A2996 1040 72 -500 160/08 RMK AO2
94908KDBQ DBQ20021118061509811/18/02 06:15:31  5-MIN KDBQ 181215Z 15007KT 9SM BKN110 M01/M05 A2995 1050 72 -500 150/07 RMK AO2
94908KDBQ DBQ20021118062010411/18/02 06:20:31  5-MIN KDBQ 181220Z 14010G15KT 9SM BKN110 M01/M05 A2995 1060 72 -500 140/10G15 RMK AO2
94908KDBQ DBQ20021118062509711/18/02 06:25:31  5-MIN KDBQ 181225Z 14012KT 9SM OVC120 00/M05 A2994 1060 69 -400 140/12 RMK AO2
94908KDBQ DBQ20021118063009711/18/02 06:30:31  5-MIN KDBQ 181230Z 15016KT 9SM OVC110 00/M04 A2994 1060 72 -400 150/16 RMK AO2
94908KDBQ DBQ20021118063509711/18/02 06:35:31  5-MIN KDBQ 181235Z 15015KT 8SM OVC110 00/M04 A2993 1070 72 -400 150/15 RMK AO2
94908KDBQ DBQ20021118064009711/18/02 06:40:31  5-MIN KDBQ 181240Z 14014KT 8SM OVC110 00/M04 A2993 1070 72 -400 140/14 RMK AO2
94908KDBQ DBQ20021118064509711/18/02 06:45:31  5-MIN KDBQ 181245Z 14015KT 8SM OVC110 00/M04 A2993 1070 72 -400 140/15 RMK AO2
94908KDBQ DBQ20021118065011411/18/02 06:50:31  5-MIN KDBQ 181250Z 14014KT 8SM OVC110 00/M04 A2993 1070 72 -400 140/14 RMK AO2 SLP149 T00001044
94908KDBQ DBQ20021118065511411/18/02 06:55:31  5-MIN KDBQ 181255Z 15013KT 8SM OVC110 00/M04 A2993 1070 72 -400 140/13 RMK AO2 SLP150 T00001044
94908KDBQ DBQ20021118070009711/18/02 07:00:31  5-MIN KDBQ 181300Z 15013KT 8SM OVC110 00/M04 A2994 1060 72 -400 150/13 RMK AO2
94908KDBQ DBQ20021118070509711/18/02 07:05:31  5-MIN KDBQ 181305Z 15011KT 8SM OVC110 00/M04 A2994 1060 72 -400 150/11 RMK AO2
94908KDBQ DBQ20021118071010311/18/02 07:10:31  5-MIN KDBQ 181310Z 15013G18KT 8SM BKN110 00/M04 A2994 1060 72 -400 150/13G18 RMK AO2
94908KDBQ DBQ20021118071510311/18/02 07:15:31  5-MIN KDBQ 181315Z 16014G18KT 7SM BKN110 00/M04 A2994 1060 72 -400 160/14G18 RMK AO2
94908KDBQ DBQ20021118072010611/18/02 07:20:31  5-MIN KDBQ 181320Z 16014G18KT 6SM HZ SCT110 00/M04 A2994 1060 72 -400 160/14G18 RMK AO2
94908KDBQ DBQ20021118072510011/18/02 07:25:31  5-MIN KDBQ 181325Z 16012KT 6SM HZ SCT110 00/M04 A2994 1060 72 -400 160/12 RMK AO2
94908KDBQ DBQ20021118073010011/18/02 07:30:31  5-MIN KDBQ 181330Z 16012KT 6SM HZ BKN110 00/M04 A2994 1060 75 -400 160/12 RMK AO2
94908KDBQ DBQ20021118073510011/18/02 07:35:31  5-MIN KDBQ 181335Z 16012KT 6SM HZ BKN110 00/M04 A2994 1060 75 -400 160/12 RMK AO2
94908KDBQ DBQ20021118074010011/18/02 07:40:31  5-MIN KDBQ 181340Z 15011KT 6SM HZ BKN110 00/M04 A2994 1060 75 -400 150/11 RMK AO2
94908KDBQ DBQ20021118074510011/18/02 07:45:31  5-MIN KDBQ 181345Z 15012KT 6SM HZ BKN110 00/M04 A2994 1060 75 -400 150/12 RMK AO2
94908KDBQ DBQ20021118075011711/18/02 07:50:31  5-MIN KDBQ 181350Z 15010KT 6SM HZ BKN110 00/M04 A2993 1070 75 -400 150/10 RMK AO2 SLP150 T00001039
94908KDBQ DBQ20021118075511711/18/02 07:55:31  5-MIN KDBQ 181355Z 15011KT 6SM HZ BKN110 00/M04 A2993 1070 75 -400 150/11 RMK AO2 SLP150 T00001039
94908KDBQ DBQ20021118080010011/18/02 08:00:31  5-MIN KDBQ 181400Z 15011KT 6SM HZ SCT110 00/M04 A2993 1070 75 -400 150/11 RMK AO2
94908KDBQ DBQ20021118080510011/18/02 08:05:31  5-MIN KDBQ 181405Z 16008KT 6SM HZ SCT110 00/M03 A2994 1060 78 -400 160/08 RMK AO2
94908KDBQ DBQ20021118081010011/18/02 08:10:31  5-MIN KDBQ 181410Z 15010KT 6SM HZ SCT110 01/M03 A2994 1060 75 -400 150/10 RMK AO2
94908KDBQ DBQ20021118081510011/18/02 08:15:31  5-MIN KDBQ 181415Z 16008KT 6SM HZ FEW110 01/M03 A2994 1060 75 -400 160/08 RMK AO2
94908KDBQ DBQ20021118082009711/18/02 08:20:31  5-MIN KDBQ 181420Z 17009KT 6SM HZ CLR 01/M03 A2994 1060 75 -400 170/09 RMK AO2
94908KDBQ DBQ20021118082509711/18/02 08:25:31  5-MIN KDBQ 181425Z 17009KT 6SM HZ CLR 01/M03 A2994 1060 75 -400 170/09 RMK AO2
94908KDBQ DBQ20021118083009711/18/02 08:30:31  5-MIN KDBQ 181430Z 17008KT 6SM HZ CLR 01/M03 A2994 1060 75 -400 170/08 RMK AO2
94908KDBQ DBQ20021118083509711/18/02 08:35:31  5-MIN KDBQ 181435Z 18008KT 6SM HZ CLR 01/M03 A2995 1050 78 -400 180/08 RMK AO2
94908KDBQ DBQ20021118084009711/18/02 08:40:31  5-MIN KDBQ 181440Z 17010KT 6SM HZ CLR 01/M03 A2995 1050 78 -400 160/10 RMK AO2
94908KDBQ DBQ20021118084509711/18/02 08:45:31  5-MIN KDBQ 181445Z 16011KT 6SM HZ CLR 01/M03 A2994 1060 78 -400 160/11 RMK AO2
94908KDBQ DBQ20021118085012311/18/02 08:50:31  5-MIN KDBQ 181450Z 15010KT 6SM HZ FEW120 01/M03 A2994 1060 78 -400 150/10 RMK AO2 SLP154 T00061028 58009
94908KDBQ DBQ20021118085512311/18/02 08:55:31  5-MIN KDBQ 181455Z 15009KT 6SM HZ SCT120 01/M03 A2994 1060 78 -400 150/09 RMK AO2 SLP153 T00061028 55002
94908KDBQ DBQ20021118090010011/18/02 09:00:31  5-MIN KDBQ 181500Z 16011KT 6SM HZ BKN120 01/M03 A2995 1050 78 -400 150/11 RMK AO2
94908KDBQ DBQ20021118090510011/18/02 09:05:31  5-MIN KDBQ 181505Z 15010KT 6SM HZ BKN120 01/M03 A2995 1050 75 -300 150/10 RMK AO2
94908KDBQ DBQ20021118091010011/18/02 09:10:31  5-MIN KDBQ 181510Z 16012KT 6SM HZ BKN120 01/M02 A2995 1050 78 -300 160/12 RMK AO2
94908KDBQ DBQ20021118091510011/18/02 09:15:31  5-MIN KDBQ 181515Z 17012KT 6SM HZ BKN120 01/M03 A2995 1050 75 -300 160/12 RMK AO2
94908KDBQ DBQ20021118092010011/18/02 09:20:31  5-MIN KDBQ 181520Z 16011KT 6SM HZ BKN120 01/M02 A2995 1050 78 -300 160/11 RMK AO2
94908KDBQ DBQ20021118092510011/18/02 09:25:31  5-MIN KDBQ 181525Z 16008KT 6SM HZ SCT110 01/M02 A2995 1050 78 -300 160/08 RMK AO2
94908KDBQ DBQ20021118093010011/18/02 09:30:31  5-MIN KDBQ 181530Z 17009KT 6SM HZ SCT110 01/M02 A2995 1050 78 -300 170/09 RMK AO2
94908KDBQ DBQ20021118093510011/18/02 09:35:31  5-MIN KDBQ 181535Z 17011KT 6SM HZ FEW100 02/M02 A2995 1050 75 -200 170/11 RMK AO2
94908KDBQ DBQ20021118094010011/18/02 09:40:31  5-MIN KDBQ 181540Z 17010KT 6SM HZ FEW110 02/M02 A2995 1050 75 -200 170/10 RMK AO2
94908KDBQ DBQ20021118094510011/18/02 09:45:31  5-MIN KDBQ 181545Z 16010KT 6SM HZ FEW100 02/M02 A2995 1050 75 -200 160/10 RMK AO2
94908KDBQ DBQ20021118095011711/18/02 09:50:31  5-MIN KDBQ 181550Z 16011KT 6SM HZ SCT095 02/M02 A2995 1050 75 -200 160/11 RMK AO2 SLP156 T00171022
94908KDBQ DBQ20021118095511711/18/02 09:55:31  5-MIN KDBQ 181555Z 16011KT 6SM HZ SCT095 02/M02 A2995 1050 75 -200 160/11 RMK AO2 SLP156 T00171022
94908KDBQ DBQ20021118100010011/18/02 10:00:31  5-MIN KDBQ 181600Z 17011KT 6SM HZ SCT095 02/M02 A2995 1050 78 -200 160/11 RMK AO2
94908KDBQ DBQ20021118100510011/18/02 10:05:31  5-MIN KDBQ 181605Z 16012KT 6SM HZ FEW095 02/M02 A2996 1050 75 -200 160/12 RMK AO2
94908KDBQ DBQ20021118101010011/18/02 10:10:31  5-MIN KDBQ 181610Z 16011KT 6SM HZ FEW095 02/M02 A2995 1050 78 -200 160/11 RMK AO2
94908KDBQ DBQ20021118101510011/18/02 10:15:31  5-MIN KDBQ 181615Z 18010KT 6SM HZ FEW095 02/M02 A2996 1050 75 -200 180/10 RMK AO2
94908KDBQ DBQ20021118102010011/18/02 10:20:31  5-MIN KDBQ 181620Z 17012KT 6SM HZ FEW095 02/M02 A2995 1050 75 -200 170/12 RMK AO2
94908KDBQ DBQ20021118102509711/18/02 10:25:31  5-MIN KDBQ 181625Z 16012KT 6SM HZ CLR 02/M02 A2995 1050 75 -200 160/12 RMK AO2
94908KDBQ DBQ20021118103009711/18/02 10:30:31  5-MIN KDBQ 181630Z 16011KT 6SM HZ CLR 02/M02 A2995 1050 75 -200 160/11 RMK AO2
94908KDBQ DBQ20021118103509711/18/02 10:35:31  5-MIN KDBQ 181635Z 17010KT 6SM HZ CLR 02/M02 A2995 1050 75 -200 170/10 RMK AO2
94908KDBQ DBQ20021118104009711/18/02 10:40:31  5-MIN KDBQ 181640Z 16009KT 6SM HZ CLR 02/M01 A2995 1050 78 -200 160/09 RMK AO2
94908KDBQ DBQ20021118104509711/18/02 10:45:31  5-MIN KDBQ 181645Z 17008KT 6SM HZ CLR 03/M01 A2995 1050 75 -100 160/08 RMK AO2
94908KDBQ DBQ20021118105011411/18/02 10:50:31  5-MIN KDBQ 181650Z 17007KT 6SM HZ CLR 02/M01 A2995 1050 78 -200 170/07 RMK AO2 SLP155 T00221011
94908KDBQ DBQ20021118105511411/18/02 10:55:31  5-MIN KDBQ 181655Z 16009KT 6SM HZ CLR 03/M01 A2995 1050 75 -100 160/09 RMK AO2 SLP154 T00281011
94908KDBQ DBQ20021118110009711/18/02 11:00:31  5-MIN KDBQ 181700Z 15009KT 6SM HZ CLR 02/M01 A2995 1050 78 -200 150/09 RMK AO2
94908KDBQ DBQ20021118110509711/18/02 11:05:31  5-MIN KDBQ 181705Z 17008KT 6SM HZ CLR 02/M01 A2995 1050 78 -200 170/08 RMK AO2
94908KDBQ DBQ20021118111009711/18/02 11:10:31  5-MIN KDBQ 181710Z 16010KT 6SM HZ CLR 03/M01 A2995 1050 75 -100 160/10 RMK AO2
94908KDBQ DBQ20021118111509711/18/02 11:15:31  5-MIN KDBQ 181715Z 17009KT 6SM HZ CLR 03/M01 A2995 1050 75 -100 160/09 RMK AO2
94908KDBQ DBQ20021118112009711/18/02 11:20:31  5-MIN KDBQ 181720Z 16009KT 6SM HZ CLR 03/M01 A2995 1050 75 -100 160/09 RMK AO2
94908KDBQ DBQ20021118112509711/18/02 11:25:31  5-MIN KDBQ 181725Z 17008KT 6SM HZ CLR 03/M01 A2995 1060 75 -100 170/08 RMK AO2
94908KDBQ DBQ20021118113009711/18/02 11:30:31  5-MIN KDBQ 181730Z 17008KT 6SM HZ CLR 03/M01 A2994 1060 75 -100 170/08 RMK AO2
94908KDBQ DBQ20021118113509711/18/02 11:35:31  5-MIN KDBQ 181735Z 16008KT 6SM HZ CLR 03/M01 A2993 1070 75 -100 160/08 RMK AO2
94908KDBQ DBQ20021118114009711/18/02 11:40:31  5-MIN KDBQ 181740Z 17009KT 6SM HZ CLR 03/M01 A2993 1070 75 -100 170/09 RMK AO2
94908KDBQ DBQ20021118114510011/18/02 11:45:31  5-MIN KDBQ 181745Z 16010KT 6SM HZ FEW095 03/M01 A2993 1070 75 -100 160/10 RMK AO2
94908KDBQ DBQ20021118115013511/18/02 11:50:31  5-MIN KDBQ 181750Z 16010KT 6SM HZ FEW095 03/M01 A2993 1070 75 -100 160/10 RMK AO2 SLP148 T00281011 10028 21011 55002
94908KDBQ DBQ20021118115513511/18/02 11:55:31  5-MIN KDBQ 181755Z 16009KT 6SM HZ FEW090 03/M01 A2993 1070 75 -100 160/09 RMK AO2 SLP148 T00281011 10028 21011 58004
94908KDBQ DBQ20021118120010011/18/02 12:00:31  5-MIN KDBQ 181800Z 17008KT 6SM HZ FEW090 03/M01 A2993 1070 75 -100 170/08 RMK AO2
94908KDBQ DBQ20021118120510011/18/02 12:05:31  5-MIN KDBQ 181805Z 16006KT 6SM HZ FEW090 03/M01 A2993 1070 75 -100 160/06 RMK AO2
94908KDBQ DBQ20021118121010011/18/02 12:10:31  5-MIN KDBQ 181810Z 15007KT 6SM HZ FEW090 03/M01 A2993 1070 75 -100 150/07 RMK AO2
94908KDBQ DBQ20021118121510011/18/02 12:15:31  5-MIN KDBQ 181815Z 16006KT 6SM HZ FEW080 03/M01 A2992 1080 75 -100 150/06 RMK AO2
94908KDBQ DBQ20021118122010011/18/02 12:20:31  5-MIN KDBQ 181820Z 18008KT 6SM HZ FEW080 03/M01 A2992 1080 75 -100 170/08 RMK AO2
94908KDBQ DBQ20021118122510011/18/02 12:25:31  5-MIN KDBQ 181825Z 16009KT 6SM HZ FEW075 03/M01 A2993 1070 75 -100 160/09 RMK AO2
94908KDBQ DBQ20021118123010011/18/02 12:30:31  5-MIN KDBQ 181830Z 16010KT 6SM HZ FEW075 03/M01 A2993 1070 79 -100 160/10 RMK AO2
94908KDBQ DBQ20021118123510011/18/02 12:35:31  5-MIN KDBQ 181835Z 17008KT 6SM HZ FEW075 03/M01 A2992 1080 79 -100 160/08 RMK AO2
94908KDBQ DBQ20021118124009711/18/02 12:40:31  5-MIN KDBQ 181840Z 15008KT 5SM HZ FEW075 03/M01 A2991 1090 79 0 150/08 RMK AO2
94908KDBQ DBQ20021118124510411/18/02 12:45:31  5-MIN KDBQ 181845Z 17008KT 5SM HZ FEW050 SCT075 03/M01 A2991 1090 79 0 170/08 RMK AO2
94908KDBQ DBQ20021118125012111/18/02 12:50:31  5-MIN KDBQ 181850Z 17006KT 5SM HZ FEW045 SCT070 03/M01 A2991 1090 79 0 170/06 RMK AO2 SLP140 T00281006
94908KDBQ DBQ20021118125512011/18/02 12:55:31  5-MIN KDBQ 181855Z 15006KT 5SM HZ FEW040 SCT065 03/00 A2991 1090 79 0 150/06 RMK AO2 SLP139 T00330000
94908KDBQ DBQ20021118130011111/18/02 13:00:31  5-MIN KDBQ 181900Z 18005KT 5SM HZ FEW042 SCT050 SCT070 03/M01 A2991 1090 79 0 180/05 RMK AO2
94908KDBQ DBQ20021118130513211/18/02 13:05:31  5-MIN KDBQ 181905Z 16004KT 5SM -RA SCT040 BKN050 BKN065 03/M01 A2991 1090 79 0 160/04 RMK AO2 UPB03E05RAB05 P0000
94908KDBQ DBQ20021118131013111/18/02 13:10:31  5-MIN KDBQ 181910Z 16005KT 4SM -RA SCT040 BKN050 BKN065 03/00 A2991 1080 82 0 160/05 RMK AO2 UPB03E05RAB05 P0000
94908KDBQ DBQ20021118131513411/18/02 13:15:31  5-MIN KDBQ 181915Z 15006KT 3SM -RA BR SCT040 BKN050 BKN065 03/01 A2991 1080 85 0 150/06 RMK AO2 UPB03E05RAB05 P0000
94908KDBQ DBQ20021118132013711/18/02 13:20:31  5-MIN KDBQ 181920Z 15005KT 3SM -RA BR SCT038 BKN050 OVC065 02/01 A2991 1090 89 -100 150/05 RMK AO2 UPB03E05RAB05 P0001
94908KDBQ DBQ20021118132513311/18/02 13:25:31  5-MIN KDBQ 181925Z 16006KT 2 1/2SM RA BR BKN036 OVC050 02/01 A2992 1080 89 -100 160/06 RMK AO2 UPB03E05RAB05 P0002
94908KDBQ DBQ20021118133013411/18/02 13:30:31  5-MIN KDBQ 181930Z 15004KT 2 1/2SM -RA BR BKN034 OVC050 02/01 A2991 1090 92 -100 150/04 RMK AO2 UPB03E05RAB05 P0002
94908KDBQ DBQ20021118133514111/18/02 13:35:31  5-MIN KDBQ 181935Z 16005KT 2 1/2SM -RA BR BKN030 BKN039 OVC050 02/01 A2991 1090 92 -100 160/05 RMK AO2 UPB03E05RAB05 P0002
94908KDBQ DBQ20021118134014111/18/02 13:40:31  5-MIN KDBQ 181940Z 17006KT 2 1/2SM -RA BR BKN026 BKN039 OVC050 02/01 A2991 1090 92 -100 170/06 RMK AO2 UPB03E05RAB05 P0002
94908KDBQ DBQ20021118134514111/18/02 13:45:31  5-MIN KDBQ 181945Z 16006KT 2 1/2SM -RA BR BKN026 BKN039 BKN050 02/01 A2991 1090 92 -100 160/06 RMK AO2 UPB03E05RAB05 P0002
94908KDBQ DBQ20021118135016411/18/02 13:50:31  5-MIN KDBQ 181950Z 14007KT 2 1/2SM -RA BR BKN028 BKN039 BKN055 02/02 A2990 1100 96 -100 140/07 RMK AO2 UPB03E05B47E50RAB05 SLP138 P0002 T00220017
94908KDBQ DBQ20021118135516411/18/02 13:55:31  5-MIN KDBQ 181955Z 15005KT 2 1/2SM -RA BR BKN030 BKN041 OVC060 02/01 A2990 1090 92 -100 150/05 RMK AO2 UPB03E05B47E50RAB05 SLP139 P0002 T00220011
94908KDBQ DBQ20021118140012711/18/02 14:00:31  5-MIN KDBQ 182000Z 16005KT 2 1/2SM -RA BR BKN030 BKN041 OVC060 02/02 A2990 1090 96 -100 160/05 RMK AO2 P0000
94908KDBQ DBQ20021118140513611/18/02 14:05:31  5-MIN KDBQ 182005Z 15006KT 2 1/2SM -RA BR BKN030 BKN041 OVC060 02/01 A2990 1090 92 -100 150/06 RMK AO2 UPB02E04 P0000
94908KDBQ DBQ20021118141013611/18/02 14:10:31  5-MIN KDBQ 182010Z 15007KT 2 1/2SM -RA BR BKN032 BKN041 OVC060 02/01 A2990 1100 92 -100 150/07 RMK AO2 UPB02E04 P0000
94908KDBQ DBQ20021118141513211/18/02 14:15:31  5-MIN KDBQ 182015Z 15006KT 3SM -RA BR BKN030 BKN041 BKN060 02/02 A2990 1100 96 -100 150/06 RMK AO2 UPB02E04 P0000
94908KDBQ DBQ20021118142012311/18/02 14:20:31  5-MIN KDBQ 182020Z 16003KT 3SM UP BR SCT030 BKN065 03/02 A2990 1100 92 0 160/03 RMK AO2 RAE18UPB02 P0001
94908KDBQ DBQ20021118142513311/18/02 14:25:31  5-MIN KDBQ 182025Z 00000KT 3SM BR SCT030 SCT060 BKN085 02/02 A2990 1100 96 -100 000/00 RMK AO2 RAE18UPB02E21 P0001
94908KDBQ DBQ20021118143013011/18/02 14:30:31  5-MIN KDBQ 182030Z 00000KT 3SM BR FEW007 SCT028 BKN085 03/02 A2990 1100 92 0 000/00 RMK AO2 RAE18UPB02E21 P0001
94908KDBQ DBQ20021118143513011/18/02 14:35:31  5-MIN KDBQ 182035Z 11004KT 3SM BR FEW007 SCT025 BKN090 03/02 A2989 1110 92 0 110/04 RMK AO2 RAE18UPB02E21 P0001
94908KDBQ DBQ20021118144013011/18/02 14:40:31  5-MIN KDBQ 182040Z 11005KT 3SM BR FEW007 SCT070 BKN090 03/02 A2989 1110 92 0 110/05 RMK AO2 RAE18UPB02E21 P0001
94908KDBQ DBQ20021118144513011/18/02 14:45:31  5-MIN KDBQ 182045Z 13005KT 3SM BR FEW007 SCT065 BKN090 03/02 A2989 1110 92 0 120/05 RMK AO2 RAE18UPB02E21 P0001
94908KDBQ DBQ20021118145015911/18/02 14:50:31  5-MIN KDBQ 182050Z 14003KT 3SM BR FEW007 SCT065 BKN090 03/02 A2990 1100 92 0 140/03 RMK AO2 RAE18UPB02E21 SLP135 P0001 60003 T00280017 58004
94908KDBQ DBQ20021118145515911/18/02 14:55:31  5-MIN KDBQ 182055Z 14003KT 3SM BR FEW007 SCT029 BKN065 03/02 A2990 1100 92 0 140/03 RMK AO2 RAE18UPB02E21 SLP136 P0001 60003 T00280017 56011
94908KDBQ DBQ20021118150012811/18/02 15:00:31  5-MIN KDBQ 182100Z 00000KT 3SM -RA BR SCT009 SCT029 BKN065 03/02 A2991 1090 92 0 000/00 RMK AO2 RAB2056 P0000
94908KDBQ DBQ20021118150512811/18/02 15:05:31  5-MIN KDBQ 182105Z 16004KT 3SM -RA BR BKN009 BKN029 BKN065 03/02 A2991 1090 92 0 160/04 RMK AO2 RAB2056 P0000
94908KDBQ DBQ20021118151012711/18/02 15:10:31  5-MIN KDBQ 182110Z 19004KT 4SM BR BKN009 BKN029 BKN065 03/02 A2991 1090 92 0 190/04 RMK AO2 RAB2056E08 P0000
94908KDBQ DBQ20021118151513711/18/02 15:15:31  5-MIN KDBQ 182115Z 21005KT 4SM BR BKN009 BKN029 OVC060 03/02 A2992 1080 92 -100 210/05 RMK AO2 RAB2056E08 PRESRR P0000
94908KDBQ DBQ20021118152012411/18/02 15:20:31  5-MIN KDBQ 182120Z 19003KT 4SM -RA BR BKN009 OVC029 03/02 A2992 1080 92 -100 190/03 RMK AO2 RAB2056 P0000
94908KDBQ DBQ20021118152513111/18/02 15:25:31  5-MIN KDBQ 182125Z 22003KT 3SM -RA BR BKN009 BKN017 OVC043 03/02 A2992 1080 92 -100 220/03 RMK AO2 RAB2056 P0000
94908KDBQ DBQ20021118153013111/18/02 15:30:31  5-MIN KDBQ 182130Z 23003KT 3SM -RA BR BKN009 BKN017 OVC043 03/02 A2992 1080 92 -100 230/03 RMK AO2 RAB2056 P0000
94908KDBQ DBQ20021118153513811/18/02 15:35:31  5-MIN KDBQ 182135Z 23003KT 3SM UP BR BKN009 BKN017 OVC035 03/02 A2992 1080 92 -100 230/03 RMK AO2 RAB2056E35UPB35 P0000
94908KDBQ DBQ20021118154013611/18/02 15:40:31  5-MIN KDBQ 182140Z 22003KT 3SM -RA BR BKN009 BKN017 OVC035 03/02 A2992 1080 92 0 220/03 RMK AO2 RAB2056UPB35E38 P0000
94908KDBQ DBQ20021118154513611/18/02 15:45:31  5-MIN KDBQ 182145Z 00000KT 3SM -RA BR BKN009 BKN017 OVC035 03/02 A2991 1080 92 0 000/00 RMK AO2 RAB2056UPB35E38 P0000
94908KDBQ DBQ20021118155015311/18/02 15:50:31  5-MIN KDBQ 182150Z 00000KT 3SM -RA BR BKN009 BKN017 OVC035 03/02 A2991 1090 92 0 000/00 RMK AO2 RAB2056UPB35E38 SLP140 P0000 T00280017
94908KDBQ DBQ20021118155515711/18/02 15:55:31  5-MIN KDBQ 182155Z 00000KT 2 1/2SM -RA BR FEW009 BKN029 OVC070 03/02 A2991 1090 92 0 000/00 RMK AO2 RAB2056UPB35E55 SLP139 P0000 T00280017
94908KDBQ DBQ20021118160012411/18/02 16:00:31  5-MIN KDBQ 182200Z 00000KT 2 1/2SM -RA BR FEW009 SCT029 OVC070 03/02 A2991 1090 92 0 000/00 RMK AO2 P0000
94908KDBQ DBQ20021118160511911/18/02 16:05:31  5-MIN KDBQ 182205Z 00000KT 2 1/2SM BR FEW029 OVC070 03/02 A2991 1090 92 0 000/00 RMK AO2 RAE04 P0000
94908KDBQ DBQ20021118161012611/18/02 16:10:31  5-MIN KDBQ 182210Z 00000KT 2 1/2SM -RA BR SCT033 OVC070 03/02 A2991 1080 92 0 000/00 RMK AO2 UPB07E10 P0000
94908KDBQ DBQ20021118161512911/18/02 16:15:31  5-MIN KDBQ 182215Z 00000KT 2 1/2SM -RA BR SCT037 OVC070 03/02 A2992 1080 92 -100 000/00 RMK AO2 UPB07E10 P0000
94908KDBQ DBQ20021118162013611/18/02 16:20:31  5-MIN KDBQ 182220Z 29003KT 2 1/2SM -RA BR SCT037 BKN050 OVC070 03/02 A2993 1070 96 -100 290/03 RMK AO2 UPB07E10 P0000
94908KDBQ DBQ20021118162513711/18/02 16:25:31  5-MIN KDBQ 182225Z 29004KT 2 1/2SM -RA BR FEW039 SCT050 OVC070 02/02 A2993 1070 100 -100 290/04 RMK AO2 UPB07E10 P0000
94908KDBQ DBQ20021118163013711/18/02 16:30:31  5-MIN KDBQ 182230Z 29003KT 2 1/2SM -RA BR SCT039 BKN050 OVC070 02/02 A2994 1060 100 -100 290/03 RMK AO2 UPB07E10 P0000
94908KDBQ DBQ20021118163513711/18/02 16:35:31  5-MIN KDBQ 182235Z 30004KT 2 1/2SM -RA BR BKN039 BKN050 OVC070 02/02 A2994 1060 100 -100 300/04 RMK AO2 UPB07E10 P0001
94908KDBQ DBQ20021118164013711/18/02 16:40:31  5-MIN KDBQ 182240Z 31004KT 2 1/2SM -RA BR BKN037 BKN048 OVC070 02/02 A2994 1060 100 -100 310/04 RMK AO2 UPB07E10 P0001
94908KDBQ DBQ20021118164513711/18/02 16:45:31  5-MIN KDBQ 182245Z 31003KT 2 1/2SM -RA BR BKN035 BKN045 OVC070 02/02 A2994 1060 100 -100 310/03 RMK AO2 UPB07E10 P0001
94908KDBQ DBQ20021118165015411/18/02 16:50:31  5-MIN KDBQ 182250Z 31003KT 2 1/2SM -RA BR BKN035 BKN045 OVC070 02/02 A2994 1060 100 -100 300/03 RMK AO2 UPB07E10 SLP150 P0002 T00220022
94908KDBQ DBQ20021118165514011/18/02 16:55:31  5-MIN KDBQ 182255Z 31004KT 2 1/2SM -RA BR OVC038 02/02 A2994 1060 100 -100 310/04 RMK AO2 UPB07E10 SLP151 P0002 T00220022
94908KDBQ DBQ20021118170011411/18/02 17:00:31  5-MIN KDBQ 182300Z 31003KT 2 1/2SM -RA BR OVC036 02/02 A2994 1060 100 -100 310/03 RMK AO2 P0000
94908KDBQ DBQ20021118170511411/18/02 17:05:31  5-MIN KDBQ 182305Z 31003KT 2 1/2SM -RA BR OVC036 02/02 A2994 1060 100 -100 310/03 RMK AO2 P0001
94908KDBQ DBQ20021118171011411/18/02 17:10:31  5-MIN KDBQ 182310Z 31003KT 2 1/2SM -RA BR OVC036 02/02 A2994 1060 100 -100 310/03 RMK AO2 P0001
94908KDBQ DBQ20021118171511411/18/02 17:15:31  5-MIN KDBQ 182315Z 31003KT 2 1/2SM -RA BR OVC038 02/02 A2994 1060 100 -200 310/03 RMK AO2 P0001
94908KDBQ DBQ20021118172011411/18/02 17:20:31  5-MIN KDBQ 182320Z 00000KT 2 1/2SM -RA BR OVC038 02/02 A2994 1060 100 -200 000/00 RMK AO2 P0002
94908KDBQ DBQ20021118172510911/18/02 17:25:31  5-MIN KDBQ 182325Z 00000KT 2SM RA BR OVC036 02/02 A2995 1050 100 -200 000/00 RMK AO2 P0003
94908KDBQ DBQ20021118173010911/18/02 17:30:31  5-MIN KDBQ 182330Z 00000KT 2SM RA BR OVC036 02/02 A2995 1050 100 -200 000/00 RMK AO2 P0004
94908KDBQ DBQ20021118173510911/18/02 17:35:31  5-MIN KDBQ 182335Z 00000KT 2SM RA BR OVC034 02/02 A2995 1050 100 -200 000/00 RMK AO2 P0005
94908KDBQ DBQ20021118174011711/18/02 17:40:31  5-MIN KDBQ 182340Z 00000KT 2SM -RA BR BKN034 OVC041 02/02 A2995 1050 100 -200 000/00 RMK AO2 P0006
94908KDBQ DBQ20021118174512111/18/02 17:45:31  5-MIN KDBQ 182345Z 00000KT 2 1/2SM -RA BR BKN032 OVC040 02/02 A2995 1050 100 -200 000/00 RMK AO2 P0006
94908KDBQ DBQ20021118175016211/18/02 17:50:31  5-MIN KDBQ 182350Z 00000KT 2 1/2SM -RA BR SCT032 OVC040 02/02 A2995 1050 100 -200 000/00 RMK AO2 SLP154 P0006 60011 T00220022 10033 20022 56011
94908KDBQ DBQ20021118175516411/18/02 17:55:31  5-MIN KDBQ 182355Z 00000KT 2 1/2SM BR SCT032 OVC040 02/02 A2995 1050 100 -200 000/00 RMK AO2 RAE52 SLP155 P0006 60011 T00220022 10033 20022 53019
94908KDBQ DBQ20021118180011111/18/02 18:00:31  5-MIN KDBQ 190000Z 25003KT 2 1/2SM BR FEW030 OVC040 02/02 A2996 1040 100 -200 250/03 RMK AO2
94908KDBQ DBQ20021118180510011/18/02 18:05:31  5-MIN KDBQ 190005Z 24003KT 2SM BR OVC040 02/02 A2996 1040 100 -200 240/03 RMK AO2
94908KDBQ DBQ20021118181010011/18/02 18:10:31  5-MIN KDBQ 190010Z 24003KT 2SM BR OVC042 02/02 A2996 1040 100 -200 240/03 RMK AO2
94908KDBQ DBQ20021118181512811/18/02 18:15:31  5-MIN KDBQ 190015Z 00000KT 2 1/2SM -RA BR OVC042 02/02 A2996 1040 100 -200 000/00 RMK AO2 UPB11E13RAB13 P0000
94908KDBQ DBQ20021118182013511/18/02 18:20:31  5-MIN KDBQ 190020Z 00000KT 2 1/2SM -RA BR BKN042 OVC049 02/02 A2996 1040 100 -200 000/00 RMK AO2 UPB11E13RAB13 P0000
94908KDBQ DBQ20021118182512811/18/02 18:25:31  5-MIN KDBQ 190025Z 23003KT 2 1/2SM -RA BR OVC044 02/02 A2996 1040 100 -200 230/03 RMK AO2 UPB11E13RAB13 P0000
94908KDBQ DBQ20021118183013111/18/02 18:30:31  5-MIN KDBQ 190030Z 22003KT 2SM -RA BR BKN042 OVC049 02/02 A2996 1040 100 -200 220/03 RMK AO2 UPB11E13RAB13 P0000
94908KDBQ DBQ20021118183513811/18/02 18:35:31  5-MIN KDBQ 190035Z 00000KT 2SM -RA BR BKN040 BKN047 OVC060 02/02 A2996 1040 100 -200 000/00 RMK AO2 UPB11E13RAB13 P0000
94908KDBQ DBQ20021118184013111/18/02 18:40:31  5-MIN KDBQ 190040Z 00000KT 2SM -RA BR BKN044 OVC060 02/02 A2996 1040 100 -200 000/00 RMK AO2 UPB11E13RAB13 P0001
94908KDBQ DBQ20021118184512411/18/02 18:45:31  5-MIN KDBQ 190045Z 25004KT 2SM -RA BR OVC044 02/02 A2996 1040 100 -200 250/04 RMK AO2 UPB11E13RAB13 P0001
94908KDBQ DBQ20021118185014611/18/02 18:50:31  5-MIN KDBQ 190050Z 25005KT 2SM UP BR OVC044 02/02 A2997 1040 100 -200 250/05 RMK AO2 UPB11E13B47RAB13E47 SLP158 P0001 T00170017
94908KDBQ DBQ20021118185515311/18/02 18:55:31  5-MIN KDBQ 190055Z 25006KT 2SM UP BR BKN044 OVC060 02/02 A2997 1030 100 -200 250/06 RMK AO2 UPB11E13B47RAB13E47 SLP159 P0001 T00170017
94908KDBQ DBQ20021118190011611/18/02 19:00:31  5-MIN KDBQ 190100Z 25006KT 2SM UP BR BKN044 OVC060 02/02 A2997 1030 100 -200 250/06 RMK AO2 P0000
94908KDBQ DBQ20021118190512311/18/02 19:05:31  5-MIN KDBQ 190105Z 25006KT 2SM UP BR BKN042 BKN049 OVC055 02/02 A2997 1030 100 -200 250/06 RMK AO2 P0000
94908KDBQ DBQ20021118191010911/18/02 19:10:31  5-MIN KDBQ 190110Z 25004KT 2SM UP BR OVC042 02/02 A2997 1030 100 -200 250/04 RMK AO2 P0000
94908KDBQ DBQ20021118191512011/18/02 19:15:31  5-MIN KDBQ 190115Z 25004KT 2 1/2SM UP BR BKN044 BKN055 02/02 A2997 1040 100 -200 250/04 RMK AO2 P0000
94908KDBQ DBQ20021118192012311/18/02 19:20:31  5-MIN KDBQ 190120Z 24003KT 2 1/2SM BR BKN044 BKN055 02/02 A2997 1040 100 -200 240/03 RMK AO2 UPE17 P0000
94908KDBQ DBQ20021118192512311/18/02 19:25:31  5-MIN KDBQ 190125Z 00000KT 2 1/2SM BR SCT048 BKN080 02/02 A2996 1040 100 -200 000/00 RMK AO2 UPE17 P0000
94908KDBQ DBQ20021118193011911/18/02 19:30:31  5-MIN KDBQ 190130Z 22003KT 2SM BR SCT050 BKN080 02/02 A2996 1040 100 -200 220/03 RMK AO2 UPE17 P0000
94908KDBQ DBQ20021118193512911/18/02 19:35:31  5-MIN KDBQ 190135Z AUTO 24005KT 2SM BR FEW050 BKN080 02/02 A2997 1030 100 -200 240/05 RMK AO2 UPE17 P0000 TSNO
94908KDBQ DBQ20021118194012911/18/02 19:40:31  5-MIN KDBQ 190140Z AUTO 26005KT 2SM BR FEW060 BKN075 02/02 A2997 1030 100 -300 260/05 RMK AO2 UPE17 P0000 TSNO
94908KDBQ DBQ20021118194512211/18/02 19:45:31  5-MIN KDBQ 190145Z AUTO 26006KT 2SM BR BKN075 02/02 A2997 1030 100 -200 250/06 RMK AO2 UPE17 P0000 TSNO
94908KDBQ DBQ20021118195015011/18/02 19:50:31  5-MIN KDBQ 190150Z AUTO 26006KT 2 1/2SM BR SCT060 OVC075 02/02 A2997 1030 100 -200 260/06 RMK AO2 UPE17 SLP159 P0000 T00170017 TSNO
94908KDBQ DBQ20021118195514911/18/02 19:55:31  5-MIN KDBQ 190155Z AUTO 26005KT 2 1/2SM BR SCT060 OVC075 02/02 A2997 1040 96 -200 250/05 RMK AO2 UPE17 SLP158 P0000 T00220017 TSNO
94908KDBQ DBQ20021118200012111/18/02 20:00:31  5-MIN KDBQ 190200Z AUTO 26004KT 2 1/2SM BR SCT055 OVC075 02/02 A2997 1040 100 -200 250/04 RMK AO2 TSNO
94908KDBQ DBQ20021118200512011/18/02 20:05:31  5-MIN KDBQ 190205Z AUTO 26005KT 2 1/2SM BR BKN055 OVC070 02/02 A2997 1040 96 -200 260/05 RMK AO2 TSNO
94908KDBQ DBQ20021118201011611/18/02 20:10:31  5-MIN KDBQ 190210Z AUTO 26006KT 3SM BR BKN050 OVC060 02/02 A2996 1040 96 -200 260/06 RMK AO2 TSNO
94908KDBQ DBQ20021118201511611/18/02 20:15:31  5-MIN KDBQ 190215Z AUTO 26006KT 3SM BR BKN048 OVC060 02/02 A2996 1040 96 -200 260/06 RMK AO2 TSNO
94908KDBQ DBQ20021118202011611/18/02 20:20:31  5-MIN KDBQ 190220Z AUTO 27005KT 4SM BR BKN048 OVC075 02/02 A2997 1040 96 -200 260/05 RMK AO2 TSNO
94908KDBQ DBQ20021118202510911/18/02 20:25:31  5-MIN KDBQ 190225Z AUTO 27005KT 4SM BR OVC048 02/02 A2996 1040 96 -200 270/05 RMK AO2 TSNO
94908KDBQ DBQ20021118203010911/18/02 20:30:31  5-MIN KDBQ 190230Z AUTO 28005KT 4SM BR OVC046 02/02 A2996 1040 96 -200 280/05 RMK AO2 TSNO
94908KDBQ DBQ20021118203510911/18/02 20:35:31  5-MIN KDBQ 190235Z AUTO 29006KT 4SM BR OVC046 02/01 A2996 1040 92 -200 280/06 RMK AO2 TSNO
94908KDBQ DBQ20021118204010911/18/02 20:40:31  5-MIN KDBQ 190240Z AUTO 29007KT 4SM BR OVC044 02/01 A2996 1040 92 -200 290/07 RMK AO2 TSNO
94908KDBQ DBQ20021118204510911/18/02 20:45:31  5-MIN KDBQ 190245Z AUTO 30007KT 5SM BR OVC042 02/01 A2996 1040 92 -200 300/07 RMK AO2 TSNO
94908KDBQ DBQ20021118205014511/18/02 20:50:31  5-MIN KDBQ 190250Z AUTO 29008KT 5SM BR BKN042 OVC050 02/01 A2996 1040 92 -200 290/08 RMK AO2 SLP158 60001 T00220011 53019 TSNO
94908KDBQ DBQ20021118205514511/18/02 20:55:31  5-MIN KDBQ 190255Z AUTO 29008KT 5SM BR BKN042 OVC055 02/01 A2997 1030 92 -200 290/08 RMK AO2 SLP159 60001 T00220011 51004 TSNO
94908KDBQ DBQ20021118210011611/18/02 21:00:31  5-MIN KDBQ 190300Z AUTO 29008KT 5SM BR BKN042 OVC055 02/01 A2997 1030 96 -200 290/08 RMK AO2 TSNO
94908KDBQ DBQ20021118210512311/18/02 21:05:31  5-MIN KDBQ 190305Z AUTO 29007KT 5SM BR BKN042 BKN055 OVC075 02/01 A2997 1030 92 -200 290/07 RMK AO2 TSNO
94908KDBQ DBQ20021118211012311/18/02 21:10:31  5-MIN KDBQ 190310Z AUTO 29006KT 5SM BR BKN042 BKN050 OVC080 02/01 A2997 1030 92 -200 290/06 RMK AO2 TSNO
94908KDBQ DBQ20021118211512311/18/02 21:15:31  5-MIN KDBQ 190315Z AUTO 29006KT 5SM BR SCT042 BKN050 OVC085 02/01 A2997 1040 92 -200 290/06 RMK AO2 TSNO
94908KDBQ DBQ20021118212012311/18/02 21:20:31  5-MIN KDBQ 190320Z AUTO 29007KT 5SM BR SCT038 BKN045 OVC090 02/01 A2997 1030 92 -200 290/07 RMK AO2 TSNO
94908KDBQ DBQ20021118212512311/18/02 21:25:31  5-MIN KDBQ 190325Z AUTO 29007KT 5SM BR SCT038 BKN045 OVC090 02/01 A2997 1030 92 -200 290/07 RMK AO2 TSNO
94908KDBQ DBQ20021118213012311/18/02 21:30:31  5-MIN KDBQ 190330Z AUTO 28006KT 5SM BR SCT038 BKN060 OVC080 02/01 A2997 1030 92 -200 280/06 RMK AO2 TSNO
94908KDBQ DBQ20021118213512311/18/02 21:35:31  5-MIN KDBQ 190335Z AUTO 29008KT 5SM BR FEW038 BKN065 OVC090 02/01 A2997 1030 92 -200 290/08 RMK AO2 TSNO
94908KDBQ DBQ20021118214012311/18/02 21:40:31  5-MIN KDBQ 190340Z AUTO 29007KT 5SM BR FEW038 BKN065 OVC090 02/01 A2997 1030 92 -200 290/07 RMK AO2 TSNO
94908KDBQ DBQ20021118214512311/18/02 21:45:31  5-MIN KDBQ 190345Z AUTO 29007KT 5SM BR FEW038 BKN080 OVC090 02/00 A2997 1030 89 -200 290/07 RMK AO2 TSNO
94908KDBQ DBQ20021118215014011/18/02 21:50:31  5-MIN KDBQ 190350Z AUTO 29007KT 5SM BR SCT060 SCT080 OVC090 02/00 A2997 1030 89 -200 290/07 RMK AO2 SLP159 T00170000 TSNO
94908KDBQ DBQ20021118215514011/18/02 21:55:31  5-MIN KDBQ 190355Z AUTO 29008KT 5SM BR FEW065 SCT080 OVC090 02/00 A2997 1030 89 -200 290/08 RMK AO2 SLP159 T00170000 TSNO
94908KDBQ DBQ20021118220011611/18/02 22:00:31  5-MIN KDBQ 190400Z AUTO 29008KT 5SM BR FEW080 OVC090 02/00 A2997 1030 89 -200 280/08 RMK AO2 TSNO
94908KDBQ DBQ20021118220510911/18/02 22:05:31  5-MIN KDBQ 190405Z AUTO 29009KT 5SM BR OVC090 02/00 A2997 1030 89 -300 290/09 RMK AO2 TSNO
94908KDBQ DBQ20021118221010911/18/02 22:10:31  5-MIN KDBQ 190410Z AUTO 29009KT 5SM BR BKN090 01/00 A2997 1030 92 -300 290/09 RMK AO2 TSNO
94908KDBQ DBQ20021118221511011/18/02 22:15:31  5-MIN KDBQ 190415Z AUTO 29008KT 5SM BR BKN090 01/M01 A2997 1030 89 -300 290/08 RMK AO2 TSNO
94908KDBQ DBQ20021118222011011/18/02 22:20:31  5-MIN KDBQ 190420Z AUTO 29008KT 5SM BR SCT095 01/M01 A2997 1030 89 -300 280/08 RMK AO2 TSNO
94908KDBQ DBQ20021118222510911/18/02 22:25:31  5-MIN KDBQ 190425Z AUTO 29008KT 5SM BR FEW095 01/00 A2997 1030 92 -300 290/08 RMK AO2 TSNO
94908KDBQ DBQ20021118223010911/18/02 22:30:31  5-MIN KDBQ 190430Z AUTO 29007KT 5SM BR FEW095 01/00 A2997 1030 96 -400 290/07 RMK AO2 TSNO
94908KDBQ DBQ20021118223510711/18/02 22:35:31  5-MIN KDBQ 190435Z AUTO 29008KT 5SM BR CLR 01/M01 A2997 1030 92 -400 290/08 RMK AO2 TSNO
94908KDBQ DBQ20021118224010711/18/02 22:40:31  5-MIN KDBQ 190440Z AUTO 29007KT 5SM BR CLR 01/M01 A2997 1030 92 -400 290/07 RMK AO2 TSNO
94908KDBQ DBQ20021118224510711/18/02 22:45:31  5-MIN KDBQ 190445Z AUTO 29007KT 5SM BR CLR 01/M01 A2997 1030 92 -400 290/07 RMK AO2 TSNO
94908KDBQ DBQ20021118225012411/18/02 22:50:31  5-MIN KDBQ 190450Z AUTO 29007KT 5SM BR CLR 01/M01 A2997 1030 92 -400 290/07 RMK AO2 SLP159 T00061006 TSNO
94908KDBQ DBQ20021118225512411/18/02 22:55:31  5-MIN KDBQ 190455Z AUTO 29008KT 5SM BR CLR 01/M01 A2997 1030 92 -400 290/08 RMK AO2 SLP160 T00061006 TSNO
94908KDBQ DBQ20021118230010711/18/02 23:00:31  5-MIN KDBQ 190500Z AUTO 29007KT 5SM BR CLR 01/M01 A2997 1030 92 -400 290/07 RMK AO2 TSNO
94908KDBQ DBQ20021118230510711/18/02 23:05:31  5-MIN KDBQ 190505Z AUTO 29006KT 5SM BR CLR 00/M01 A2997 1030 96 -500 290/06 RMK AO2 TSNO
94908KDBQ DBQ20021118231010711/18/02 23:10:31  5-MIN KDBQ 190510Z AUTO 29006KT 5SM BR CLR 00/M01 A2997 1030 92 -500 290/06 RMK AO2 TSNO
94908KDBQ DBQ20021118231510711/18/02 23:15:31  5-MIN KDBQ 190515Z AUTO 29006KT 6SM BR CLR 00/M01 A2998 1030 92 -500 290/06 RMK AO2 TSNO
94908KDBQ DBQ20021118232010711/18/02 23:20:31  5-MIN KDBQ 190520Z AUTO 29006KT 6SM BR CLR 00/M01 A2997 1030 92 -500 290/06 RMK AO2 TSNO
94908KDBQ DBQ20021118232510711/18/02 23:25:31  5-MIN KDBQ 190525Z AUTO 29006KT 6SM BR CLR 01/M01 A2998 1030 89 -400 290/06 RMK AO2 TSNO
94908KDBQ DBQ20021118233010411/18/02 23:30:31  5-MIN KDBQ 190530Z AUTO 29006KT 7SM CLR 01/M01 A2998 1030 89 -400 290/06 RMK AO2 TSNO
94908KDBQ DBQ20021118233510411/18/02 23:35:31  5-MIN KDBQ 190535Z AUTO 28007KT 7SM CLR 01/M01 A2998 1030 89 -400 280/07 RMK AO2 TSNO
94908KDBQ DBQ20021118234010411/18/02 23:40:31  5-MIN KDBQ 190540Z AUTO 28006KT 7SM CLR 00/M01 A2998 1030 92 -500 280/06 RMK AO2 TSNO
94908KDBQ DBQ20021118234510711/18/02 23:45:31  5-MIN KDBQ 190545Z AUTO 28007KT 6SM BR CLR 00/M01 A2998 1020 92 -500 280/07 RMK AO2 TSNO
94908KDBQ DBQ20021118235015811/18/02 23:50:31  5-MIN KDBQ 190550Z AUTO 27005KT 6SM BR CLR 00/M01 A2998 1030 92 -500 270/05 RMK AO2 SLP161 60001 T00001011 10022 20000 400331044 51004 TSNO
94908KDBQ DBQ20021118235515911/18/02 23:55:31  5-MIN KDBQ 190555Z AUTO 27005KT 6SM BR CLR M01/M02 A2998 1030 96 -600 270/05 RMK AO2 SLP162 60001 T10111017 10022 21011 400331044 53003 TSNO
94908KDBQ DBQ20021119000010811/19/02 00:00:31  5-MIN KDBQ 190600Z AUTO 27005KT 5SM BR CLR M01/M01 A2998 1030 96 -500 270/05 RMK AO2 TSNO
94908KDBQ DBQ20021119000510811/19/02 00:05:31  5-MIN KDBQ 190605Z AUTO 27005KT 5SM BR CLR M01/M02 A2998 1030 96 -600 270/05 RMK AO2 TSNO
94908KDBQ DBQ20021119001010811/19/02 00:10:31  5-MIN KDBQ 190610Z AUTO 26004KT 5SM BR CLR M01/M02 A2998 1030 92 -500 260/04 RMK AO2 TSNO
94908KDBQ DBQ20021119001510811/19/02 00:15:31  5-MIN KDBQ 190615Z AUTO 27004KT 5SM BR CLR M02/M02 A2998 1020 96 -700 260/04 RMK AO2 TSNO
94908KDBQ DBQ20021119002010811/19/02 00:20:31  5-MIN KDBQ 190620Z AUTO 26006KT 5SM BR CLR M02/M02 A2999 1020 96 -700 260/06 RMK AO2 TSNO
94908KDBQ DBQ20021119002510811/19/02 00:25:31  5-MIN KDBQ 190625Z AUTO 27006KT 5SM BR CLR M01/M02 A2999 1020 92 -500 260/06 RMK AO2 TSNO
94908KDBQ DBQ20021119003010811/19/02 00:30:31  5-MIN KDBQ 190630Z AUTO 27006KT 6SM BR CLR M01/M02 A2999 1010 92 -500 270/06 RMK AO2 TSNO
94908KDBQ DBQ20021119003510811/19/02 00:35:31  5-MIN KDBQ 190635Z AUTO 27005KT 6SM BR CLR M01/M02 A2999 1010 92 -500 270/05 RMK AO2 TSNO
94908KDBQ DBQ20021119004010711/19/02 00:40:31  5-MIN KDBQ 190640Z AUTO 28006KT 6SM BR CLR 00/M02 A2999 1010 88 -500 280/06 RMK AO2 TSNO
94908KDBQ DBQ20021119004510411/19/02 00:45:31  5-MIN KDBQ 190645Z AUTO 28007KT 7SM CLR 00/M01 A2999 1020 92 -500 280/07 RMK AO2 TSNO
94908KDBQ DBQ20021119005012111/19/02 00:50:31  5-MIN KDBQ 190650Z AUTO 29006KT 7SM CLR 00/M01 A2999 1020 92 -500 280/06 RMK AO2 SLP165 T00001011 TSNO
94908KDBQ DBQ20021119005512111/19/02 00:55:31  5-MIN KDBQ 190655Z AUTO 29005KT 7SM CLR 01/M01 A2998 1020 89 -400 290/05 RMK AO2 SLP163 T00061011 TSNO
94908KDBQ DBQ20021119010010411/19/02 01:00:31  5-MIN KDBQ 190700Z AUTO 28006KT 7SM CLR 01/M01 A2998 1020 89 -400 280/06 RMK AO2 TSNO
94908KDBQ DBQ20021119010510411/19/02 01:05:31  5-MIN KDBQ 190705Z AUTO 28006KT 8SM CLR 01/M01 A2998 1020 89 -400 280/06 RMK AO2 TSNO
94908KDBQ DBQ20021119011010411/19/02 01:10:31  5-MIN KDBQ 190710Z AUTO 28005KT 7SM CLR 00/M01 A2998 1020 92 -500 280/05 RMK AO2 TSNO
94908KDBQ DBQ20021119011510411/19/02 01:15:31  5-MIN KDBQ 190715Z AUTO 27006KT 7SM CLR 00/M01 A2998 1020 92 -500 270/06 RMK AO2 TSNO
94908KDBQ DBQ20021119012010511/19/02 01:20:31  5-MIN KDBQ 190720Z AUTO 23004KT 7SM CLR M01/M02 A2999 1020 92 -500 230/04 RMK AO2 TSNO
94908KDBQ DBQ20021119012510511/19/02 01:25:31  5-MIN KDBQ 190725Z AUTO 19004KT 7SM CLR M01/M02 A2999 1020 96 -600 190/04 RMK AO2 TSNO
94908KDBQ DBQ20021119013010811/19/02 01:30:31  5-MIN KDBQ 190730Z AUTO 00000KT 6SM BR CLR M01/M02 A2999 1010 92 -600 000/00 RMK AO2 TSNO
94908KDBQ DBQ20021119013510811/19/02 01:35:31  5-MIN KDBQ 190735Z AUTO VRB03KT 6SM BR CLR M01/M02 A2999 1010 92 -500 VRB/03 RMK AO2 TSNO
94908KDBQ DBQ20021119014010711/19/02 01:40:31  5-MIN KDBQ 190740Z AUTO 25007KT 6SM BR CLR 00/M02 A2999 1020 88 -500 250/07 RMK AO2 TSNO
94908KDBQ DBQ20021119014510411/19/02 01:45:31  5-MIN KDBQ 190745Z AUTO 22006KT 7SM CLR 00/M01 A2999 1020 92 -500 220/06 RMK AO2 TSNO
94908KDBQ DBQ20021119015012511/19/02 01:50:31  5-MIN KDBQ 190750Z AUTO 18006KT 6SM BR CLR M01/M02 A2999 1020 92 -600 180/06 RMK AO2 SLP166 T10111022 TSNO
94908KDBQ DBQ20021119015512511/19/02 01:55:31  5-MIN KDBQ 190755Z AUTO 18005KT 6SM BR CLR M01/M02 A2999 1010 92 -600 180/05 RMK AO2 SLP167 T10111022 TSNO
94908KDBQ DBQ20021119020010811/19/02 02:00:31  5-MIN KDBQ 190800Z AUTO 20006KT 5SM BR CLR M02/M02 A2999 1010 96 -700 200/06 RMK AO2 TSNO
94908KDBQ DBQ20021119020510811/19/02 02:05:31  5-MIN KDBQ 190805Z AUTO 21007KT 5SM BR CLR M02/M02 A2999 1010 96 -700 210/07 RMK AO2 TSNO
94908KDBQ DBQ20021119021010811/19/02 02:10:31  5-MIN KDBQ 190810Z AUTO 21007KT 5SM BR CLR M02/M03 A2999 1010 92 -700 210/07 RMK AO2 TSNO
94908KDBQ DBQ20021119021510811/19/02 02:15:31  5-MIN KDBQ 190815Z AUTO 21006KT 5SM BR CLR M02/M03 A2999 1010 92 -700 210/06 RMK AO2 TSNO
94908KDBQ DBQ20021119022010811/19/02 02:20:31  5-MIN KDBQ 190820Z AUTO 21007KT 4SM BR CLR M02/M03 A2999 1010 92 -700 210/07 RMK AO2 TSNO
94908KDBQ DBQ20021119022510811/19/02 02:25:31  5-MIN KDBQ 190825Z AUTO 21007KT 4SM BR CLR M02/M03 A2999 1010 92 -700 210/07 RMK AO2 TSNO
94908KDBQ DBQ20021119023010811/19/02 02:30:31  5-MIN KDBQ 190830Z AUTO 21007KT 4SM BR CLR M02/M03 A2999 1020 96 -800 210/07 RMK AO2 TSNO
94908KDBQ DBQ20021119023510811/19/02 02:35:31  5-MIN KDBQ 190835Z AUTO 21007KT 4SM BR CLR M02/M03 A2999 1020 96 -800 210/07 RMK AO2 TSNO
94908KDBQ DBQ20021119024010811/19/02 02:40:31  5-MIN KDBQ 190840Z AUTO 21006KT 4SM BR CLR M02/M03 A2999 1020 96 -800 210/06 RMK AO2 TSNO
94908KDBQ DBQ20021119024510811/19/02 02:45:31  5-MIN KDBQ 190845Z AUTO 21007KT 4SM BR CLR M02/M03 A2999 1020 96 -800 210/07 RMK AO2 TSNO
94908KDBQ DBQ20021119025013111/19/02 02:50:31  5-MIN KDBQ 190850Z AUTO 21008KT 5SM BR CLR M02/M03 A2999 1020 96 -800 210/08 RMK AO2 SLP166 T10221028 53003 TSNO
94908KDBQ DBQ20021119025512311/19/02 02:55:31  5-MIN KDBQ 190855Z AUTO 5SM BR CLR M02/M03 A2999 1020 96 -800 M /M RMK AO2 SLP166 T10221028 50003 TSNO $
94908KDBQ DBQ20021119030010011/19/02 03:00:31  5-MIN KDBQ 190900Z AUTO 5SM BR CLR M02/M03 A2999 1020 96 -800 M /M RMK AO2 TSNO $
94908KDBQ DBQ20021119030510011/19/02 03:05:31  5-MIN KDBQ 190905Z AUTO 5SM BR CLR M02/M03 A2999 1020 92 -700 M /M RMK AO2 TSNO $
94908KDBQ DBQ20021119031010011/19/02 03:10:31  5-MIN KDBQ 190910Z AUTO 5SM BR CLR M02/M03 A2999 1020 96 -800 M /M RMK AO2 TSNO $
94908KDBQ DBQ20021119031510011/19/02 03:15:31  5-MIN KDBQ 190915Z AUTO 5SM BR CLR M02/M03 A2999 1020 96 -800 M /M RMK AO2 TSNO $
94908KDBQ DBQ20021119032010011/19/02 03:20:31  5-MIN KDBQ 190920Z AUTO 5SM BR CLR M02/M03 A2999 1020 96 -800 M /M RMK AO2 TSNO $
94908KDBQ DBQ20021119032510011/19/02 03:25:31  5-MIN KDBQ 190925Z AUTO 5SM BR CLR M02/M03 A2999 1020 96 -800 M /M RMK AO2 TSNO $
94908KDBQ DBQ20021119033010011/19/02 03:30:31  5-MIN KDBQ 190930Z AUTO 5SM BR CLR M02/M03 A2999 1020 96 -800 M /M RMK AO2 TSNO $
94908KDBQ DBQ20021119033510011/19/02 03:35:31  5-MIN KDBQ 190935Z AUTO 5SM BR CLR M02/M03 A2999 1020 96 -800 M /M RMK AO2 TSNO $
94908KDBQ DBQ20021119034010011/19/02 03:40:31  5-MIN KDBQ 190940Z AUTO 5SM BR CLR M02/M03 A2999 1020 92 -800 M /M RMK AO2 TSNO $
94908KDBQ DBQ20021119034510011/19/02 03:45:31  5-MIN KDBQ 190945Z AUTO 5SM BR CLR M02/M03 A2999 1020 96 -800 M /M RMK AO2 TSNO $
94908KDBQ DBQ20021119035011711/19/02 03:50:31  5-MIN KDBQ 190950Z AUTO 6SM BR CLR M02/M03 A2999 1020 96 -800 M /M RMK AO2 SLP166 T10221028 TSNO $
94908KDBQ DBQ20021119035511711/19/02 03:55:31  5-MIN KDBQ 190955Z AUTO 6SM BR CLR M02/M03 A2999 1020 96 -800 M /M RMK AO2 SLP167 T10221028 TSNO $
94908KDBQ DBQ20021119040010011/19/02 04:00:31  5-MIN KDBQ 191000Z AUTO 6SM BR CLR M02/M03 A2999 1010 96 -800 M /M RMK AO2 TSNO $
94908KDBQ DBQ20021119040510011/19/02 04:05:31  5-MIN KDBQ 191005Z AUTO 6SM BR CLR M02/M03 A2999 1010 96 -800 M /M RMK AO2 TSNO $
94908KDBQ DBQ20021119041010011/19/02 04:10:31  5-MIN KDBQ 191010Z AUTO 6SM BR CLR M02/M03 A2999 1010 92 -800 M /M RMK AO2 TSNO $
94908KDBQ DBQ20021119041510011/19/02 04:15:31  5-MIN KDBQ 191015Z AUTO 6SM BR CLR M02/M03 A2999 1010 92 -800 M /M RMK AO2 TSNO $
94908KDBQ DBQ20021119042010011/19/02 04:20:31  5-MIN KDBQ 191020Z AUTO 6SM BR CLR M02/M03 A2999 1010 96 -800 M /M RMK AO2 TSNO $
94908KDBQ DBQ20021119042509711/19/02 04:25:31  5-MIN KDBQ 191025Z AUTO 7SM CLR M02/M03 A2999 1010 96 -800 M /M RMK AO2 TSNO $
94908KDBQ DBQ20021119043009711/19/02 04:30:31  5-MIN KDBQ 191030Z AUTO 7SM CLR M02/M03 A2999 1010 92 -700 M /M RMK AO2 TSNO $
94908KDBQ DBQ20021119043509711/19/02 04:35:31  5-MIN KDBQ 191035Z AUTO 7SM CLR M02/M03 A2999 1010 96 -800 M /M RMK AO2 TSNO $
94908KDBQ DBQ20021119044009711/19/02 04:40:31  5-MIN KDBQ 191040Z AUTO 7SM CLR M02/M03 A2999 1010 92 -700 M /M RMK AO2 TSNO $
94908KDBQ DBQ20021119044509711/19/02 04:45:31  5-MIN KDBQ 191045Z AUTO 7SM CLR M02/M03 A2999 1020 88 -700 M /M RMK AO2 TSNO $
94908KDBQ DBQ20021119045011411/19/02 04:50:31  5-MIN KDBQ 191050Z AUTO 8SM CLR M02/M03 A2999 1010 92 -800 M /M RMK AO2 SLP167 T10221033 TSNO $
94908KDBQ DBQ20021119045511411/19/02 04:55:31  5-MIN KDBQ 191055Z AUTO 8SM CLR M02/M03 A2999 1010 92 -800 M /M RMK AO2 SLP167 T10221033 TSNO $
94908KDBQ DBQ20021119050009711/19/02 05:00:31  5-MIN KDBQ 191100Z AUTO 8SM CLR M02/M03 A2999 1010 92 -800 M /M RMK AO2 TSNO $
94908KDBQ DBQ20021119050509711/19/02 05:05:31  5-MIN KDBQ 191105Z AUTO 8SM CLR M02/M03 A2999 1020 92 -800 M /M RMK AO2 TSNO $
94908KDBQ DBQ20021119051009711/19/02 05:10:31  5-MIN KDBQ 191110Z AUTO 8SM CLR M02/M04 A2999 1010 88 -800 M /M RMK AO2 TSNO $
94908KDBQ DBQ20021119051509711/19/02 05:15:31  5-MIN KDBQ 191115Z AUTO 7SM CLR M02/M04 A2999 1010 88 -800 M /M RMK AO2 TSNO $
94908KDBQ DBQ20021119052009711/19/02 05:20:31  5-MIN KDBQ 191120Z AUTO 7SM CLR M03/M04 A2999 1010 92 -800 M /M RMK AO2 TSNO $
94908KDBQ DBQ20021119052509711/19/02 05:25:31  5-MIN KDBQ 191125Z AUTO 7SM CLR M03/M04 A2999 1010 92 -800 M /M RMK AO2 TSNO $
94908KDBQ DBQ20021119053009711/19/02 05:30:31  5-MIN KDBQ 191130Z AUTO 7SM CLR M03/M04 A3000 1010 92 -800 M /M RMK AO2 TSNO $
94908KDBQ DBQ20021119053509711/19/02 05:35:31  5-MIN KDBQ 191135Z AUTO 8SM CLR M02/M04 A3000 1010 88 -800 M /M RMK AO2 TSNO $
94908KDBQ DBQ20021119054008711/19/02 05:40:31  5-MIN KDBQ 191140Z 8SM CLR M02/M03 A3000 1000 92 -800 M /M RMK AO2 $
94908KDBQ DBQ20021119054509711/19/02 05:45:31  5-MIN KDBQ 191145Z 20006KT 9SM CLR M02/M03 A3000 1010 92 -800 200/06 RMK AO2 $
94908KDBQ DBQ20021119055013811/19/02 05:50:31  5-MIN KDBQ 191150Z 20006KT 9SM CLR M02/M03 A3000 1000 92 -800 200/06 RMK AO2 SLP171 70012 T10221033 10006 21028 50003 $
94908KDBQ DBQ20021119055513811/19/02 05:55:31  5-MIN KDBQ 191155Z 20006KT 9SM CLR M02/M04 A3000 1010 88 -800 200/06 RMK AO2 SLP170 70012 T10221039 10006 21028 53004 $
94908KDBQ DBQ20021119060009711/19/02 06:00:31  5-MIN KDBQ 191200Z 20006KT 9SM CLR M02/M04 A3000 1010 88 -800 200/06 RMK AO2 $
94908KDBQ DBQ20021119060509711/19/02 06:05:31  5-MIN KDBQ 191205Z 20006KT 9SM CLR M02/M04 A2999 1010 88 -800 200/06 RMK AO2 $
94908KDBQ DBQ20021119061009711/19/02 06:10:31  5-MIN KDBQ 191210Z 20006KT 9SM CLR M02/M04 A3000 1010 88 -800 200/06 RMK AO2 $
94908KDBQ DBQ20021119061509711/19/02 06:15:31  5-MIN KDBQ 191215Z 20006KT 9SM CLR M02/M04 A3000 1010 88 -800 200/06 RMK AO2 $
94908KDBQ DBQ20021119062009811/19/02 06:20:31  5-MIN KDBQ 191220Z 20006KT 10SM CLR M02/M04 A3000 1000 88 -800 200/06 RMK AO2 $
94908KDBQ DBQ20021119062509811/19/02 06:25:31  5-MIN KDBQ 191225Z 20006KT 10SM CLR M02/M04 A3000 1000 88 -800 200/06 RMK AO2 $
94908KDBQ DBQ20021119063009811/19/02 06:30:31  5-MIN KDBQ 191230Z 20006KT 10SM CLR M02/M04 A3000 1000 88 -800 200/06 RMK AO2 $
94908KDBQ DBQ20021119063509811/19/02 06:35:31  5-MIN KDBQ 191235Z 20006KT 10SM CLR M02/M04 A3000 1000 88 -800 200/06 RMK AO2 $
94908KDBQ DBQ20021119064009811/19/02 06:40:31  5-MIN KDBQ 191240Z 20006KT 10SM CLR M02/M04 A3000 1000 88 -800 200/06 RMK AO2 $
94908KDBQ DBQ20021119064509811/19/02 06:45:31  5-MIN KDBQ 191245Z 20006KT 10SM CLR M02/M04 A3000 1000 88 -800 200/06 RMK AO2 $
94908KDBQ DBQ20021119065011511/19/02 06:50:31  5-MIN KDBQ 191250Z 20006KT 10SM CLR M02/M04 A3001 1000 88 -800 200/06 RMK AO2 SLP172 T10221039 $
94908KDBQ DBQ20021119065511511/19/02 06:55:31  5-MIN KDBQ 191255Z 21007KT 10SM CLR M02/M04 A3001 1000 88 -800 210/07 RMK AO2 SLP173 T10221039 $
94908KDBQ DBQ20021119070009811/19/02 07:00:31  5-MIN KDBQ 191300Z 21007KT 10SM CLR M02/M04 A3001 1000 88 -800 210/07 RMK AO2 $
94908KDBQ DBQ20021119070509711/19/02 07:05:31  5-MIN KDBQ 191305Z 21007KT 9SM CLR M02/M04 A3001 1000 88 -800 210/07 RMK AO2 $
94908KDBQ DBQ20021119071009711/19/02 07:10:31  5-MIN KDBQ 191310Z 21007KT 9SM CLR M02/M04 A3001 1000 88 -800 210/07 RMK AO2 $
94908KDBQ DBQ20021119071509711/19/02 07:15:31  5-MIN KDBQ 191315Z 21007KT 9SM CLR M02/M04 A3001 1000 88 -800 210/07 RMK AO2 $
94908KDBQ DBQ20021119072009811/19/02 07:20:31  5-MIN KDBQ 191320Z 21007KT 10SM CLR M02/M04 A3001 1000 88 -800 210/07 RMK AO2 $
94908KDBQ DBQ20021119072509811/19/02 07:25:31  5-MIN KDBQ 191325Z 21007KT 10SM CLR M02/M04 A3001 1000 88 -800 210/07 RMK AO2 $
94908KDBQ DBQ20021119073009711/19/02 07:30:31  5-MIN KDBQ 191330Z 21007KT 10SM CLR M02/M04 A3001 990 88 -800 210/07 RMK AO2 $
94908KDBQ DBQ20021119073509711/19/02 07:35:31  5-MIN KDBQ 191335Z 21007KT 10SM CLR M02/M04 A3001 990 85 -700 210/07 RMK AO2 $
94908KDBQ DBQ20021119074009711/19/02 07:40:31  5-MIN KDBQ 191340Z 21007KT 10SM CLR M02/M03 A3001 990 88 -700 210/07 RMK AO2 $
94908KDBQ DBQ20021119074509711/19/02 07:45:31  5-MIN KDBQ 191345Z 21007KT 10SM CLR M01/M03 A3001 990 85 -600 210/07 RMK AO2 $
94908KDBQ DBQ20021119075011411/19/02 07:50:31  5-MIN KDBQ 191350Z 21007KT 10SM CLR M01/M03 A3002 990 88 -600 210/07 RMK AO2 SLP176 T10111028 $
94908KDBQ DBQ20021119075511411/19/02 07:55:31  5-MIN KDBQ 191355Z 21007KT 10SM CLR M01/M03 A3001 990 88 -600 210/07 RMK AO2 SLP176 T10111028 $
94908KDBQ DBQ20021119080009711/19/02 08:00:31  5-MIN KDBQ 191400Z 20005KT 10SM CLR M01/M03 A3001 990 85 -600 200/05 RMK AO2 $
94908KDBQ DBQ20021119080509711/19/02 08:05:31  5-MIN KDBQ 191405Z 20005KT 10SM CLR M01/M03 A3001 990 85 -600 200/05 RMK AO2 $
94908KDBQ DBQ20021119081009711/19/02 08:10:31  5-MIN KDBQ 191410Z 20005KT 10SM CLR M01/M02 A3001 990 88 -600 200/05 RMK AO2 $
94908KDBQ DBQ20021119081509611/19/02 08:15:31  5-MIN KDBQ 191415Z 20005KT 10SM CLR 00/M02 A3001 990 85 -500 200/05 RMK AO2 $
94908KDBQ DBQ20021119082009611/19/02 08:20:31  5-MIN KDBQ 191420Z 20005KT 10SM CLR 00/M02 A3002 990 85 -500 200/05 RMK AO2 $
94908KDBQ DBQ20021119082509611/19/02 08:25:31  5-MIN KDBQ 191425Z 21010KT 10SM CLR 00/M02 A3001 990 85 -500 210/10 RMK AO2 $
94908KDBQ DBQ20021119083009611/19/02 08:30:31  5-MIN KDBQ 191430Z 21009KT 10SM CLR 01/M02 A3001 990 82 -400 210/09 RMK AO2 $
94908KDBQ DBQ20021119083509611/19/02 08:35:31  5-MIN KDBQ 191435Z 22010KT 10SM CLR 01/M02 A3001 990 82 -400 210/10 RMK AO2 $
94908KDBQ DBQ20021119084009611/19/02 08:40:31  5-MIN KDBQ 191440Z 21009KT 10SM CLR 01/M02 A3001 990 85 -400 210/09 RMK AO2 $
94908KDBQ DBQ20021119084509611/19/02 08:45:31  5-MIN KDBQ 191445Z 22009KT 10SM CLR 01/M02 A3001 990 82 -400 220/09 RMK AO2 $
94908KDBQ DBQ20021119085011911/19/02 08:50:31  5-MIN KDBQ 191450Z 22009KT 10SM CLR 01/M01 A3001 990 85 -400 210/09 RMK AO2 SLP174 T00111011 53004 $
94908KDBQ DBQ20021119085511911/19/02 08:55:31  5-MIN KDBQ 191455Z 22008KT 10SM CLR 01/M01 A3001 990 85 -400 220/08 RMK AO2 SLP174 T00111011 50005 $
94908KDBQ DBQ20021119090009611/19/02 09:00:31  5-MIN KDBQ 191500Z 22009KT 10SM CLR 02/M01 A3001 990 82 -300 220/09 RMK AO2 $
94908KDBQ DBQ20021119090509611/19/02 09:05:31  5-MIN KDBQ 191505Z 22010KT 10SM CLR 02/M01 A3002 990 85 -300 220/10 RMK AO2 $
94908KDBQ DBQ20021119091009611/19/02 09:10:31  5-MIN KDBQ 191510Z 23011KT 10SM CLR 02/M01 A3001 990 82 -200 230/11 RMK AO2 $
94908KDBQ DBQ20021119091509611/19/02 09:15:31  5-MIN KDBQ 191515Z 24011KT 10SM CLR 03/M01 A3001 990 79 -200 240/11 RMK AO2 $
94908KDBQ DBQ20021119092009611/19/02 09:20:31  5-MIN KDBQ 191520Z 23013KT 10SM CLR 03/M01 A3001 990 76 -100 230/13 RMK AO2 $
94908KDBQ DBQ20021119092508311/19/02 09:25:31  5-MIN KDBQ 191525Z 10SM CLR 04/M01 A3001 990 73 0 M /M RMK AO2 $
94908KDBQ DBQ20021119093008711/19/02 09:30:31  5-MIN KDBQ 191530Z 10SM CLR 03/M01 A3001 1000 76 -100 M /M RMK AO2 $
94908KDBQ DBQ20021119093509311/19/02 09:35:31  5-MIN KDBQ 191535Z 24013KT 10SM CLR 04/00 A3001 1000 76 0 240/13 RMK AO2 $
94908KDBQ DBQ20021119094009211/19/02 09:40:31  5-MIN KDBQ 191540Z 24013KT 10SM CLR 04/M01 A3001 1000 73 0 240/13 RMK AO2
94908KDBQ DBQ20021119094509211/19/02 09:45:31  5-MIN KDBQ 191545Z 24015KT 10SM CLR 04/M01 A3001 1000 70 0 240/15 RMK AO2
94908KDBQ DBQ20021119095010911/19/02 09:50:31  5-MIN KDBQ 191550Z 24015KT 10SM CLR 04/M01 A3001 1000 70 0 240/15 RMK AO2 SLP170 T00441006
94908KDBQ DBQ20021119095510911/19/02 09:55:31  5-MIN KDBQ 191555Z 24014KT 10SM CLR 04/M01 A3001 1000 70 0 240/14 RMK AO2 SLP171 T00441006
94908KDBQ DBQ20021119100009211/19/02 10:00:31  5-MIN KDBQ 191600Z 24015KT 10SM CLR 04/M01 A3001 1000 70 0 240/15 RMK AO2
94908KDBQ DBQ20021119100509211/19/02 10:05:31  5-MIN KDBQ 191605Z 24013KT 10SM CLR 04/M01 A3001 1000 70 0 240/13 RMK AO2
94908KDBQ DBQ20021119101009311/19/02 10:10:31  5-MIN KDBQ 191610Z 24013KT 10SM CLR 05/00 A3001 1000 70 100 240/13 RMK AO2
94908KDBQ DBQ20021119101509311/19/02 10:15:31  5-MIN KDBQ 191615Z 24015KT 10SM CLR 05/00 A3001 1000 70 100 240/15 RMK AO2
94908KDBQ DBQ20021119102009311/19/02 10:20:31  5-MIN KDBQ 191620Z 24013KT 10SM CLR 06/00 A3001 1000 67 100 240/13 RMK AO2
94908KDBQ DBQ20021119102509311/19/02 10:25:31  5-MIN KDBQ 191625Z 24014KT 10SM CLR 06/00 A3001 1000 67 100 240/14 RMK AO2
94908KDBQ DBQ20021119103009311/19/02 10:30:31  5-MIN KDBQ 191630Z 23014KT 10SM CLR 06/00 A3001 1000 67 100 230/14 RMK AO2
94908KDBQ DBQ20021119103509311/19/02 10:35:31  5-MIN KDBQ 191635Z 24013KT 10SM CLR 06/01 A3001 1000 67 200 230/13 RMK AO2
94908KDBQ DBQ20021119104009311/19/02 10:40:31  5-MIN KDBQ 191640Z 23013KT 10SM CLR 06/01 A3000 1000 67 200 230/13 RMK AO2
94908KDBQ DBQ20021119104509311/19/02 10:45:31  5-MIN KDBQ 191645Z 23011KT 10SM CLR 07/01 A3000 1000 65 300 230/11 RMK AO2
94908KDBQ DBQ20021119105011011/19/02 10:50:31  5-MIN KDBQ 191650Z 23011KT 10SM CLR 07/02 A3000 1000 70 300 230/11 RMK AO2 SLP168 T00670017
94908KDBQ DBQ20021119105511011/19/02 10:55:31  5-MIN KDBQ 191655Z 22011KT 10SM CLR 07/02 A3000 1010 68 400 220/11 RMK AO2 SLP168 T00720017
94908KDBQ DBQ20021119110009311/19/02 11:00:31  5-MIN KDBQ 191700Z 22010KT 10SM CLR 07/02 A3000 1010 70 300 220/10 RMK AO2
94908KDBQ DBQ20021119110509311/19/02 11:05:31  5-MIN KDBQ 191705Z 22012KT 10SM CLR 07/01 A3000 1010 67 300 220/12 RMK AO2
94908KDBQ DBQ20021119111009311/19/02 11:10:31  5-MIN KDBQ 191710Z 22012KT 10SM CLR 07/02 A3000 1010 68 400 220/12 RMK AO2
94908KDBQ DBQ20021119111509311/19/02 11:15:31  5-MIN KDBQ 191715Z 22011KT 10SM CLR 07/02 A3000 1010 68 400 220/11 RMK AO2
94908KDBQ DBQ20021119112009311/19/02 11:20:31  5-MIN KDBQ 191720Z 22013KT 10SM CLR 07/01 A3000 1010 65 400 220/13 RMK AO2
94908KDBQ DBQ20021119112509311/19/02 11:25:31  5-MIN KDBQ 191725Z 23013KT 10SM CLR 07/01 A2999 1010 65 400 230/13 RMK AO2
94908KDBQ DBQ20021119113009311/19/02 11:30:31  5-MIN KDBQ 191730Z 22014KT 10SM CLR 07/02 A2999 1010 68 400 220/14 RMK AO2
94908KDBQ DBQ20021119113509311/19/02 11:35:31  5-MIN KDBQ 191735Z 23012KT 10SM CLR 08/02 A2999 1010 65 400 230/12 RMK AO2
94908KDBQ DBQ20021119114009311/19/02 11:40:31  5-MIN KDBQ 191740Z 22011KT 10SM CLR 08/02 A2999 1020 68 400 220/11 RMK AO2
94908KDBQ DBQ20021119114509311/19/02 11:45:31  5-MIN KDBQ 191745Z 22013KT 10SM CLR 08/02 A2999 1020 65 500 220/13 RMK AO2
94908KDBQ DBQ20021119115012811/19/02 11:50:31  5-MIN KDBQ 191750Z 23013KT 10SM CLR 08/02 A2999 1020 63 500 230/13 RMK AO2 SLP163 T00830017 10083 21022 50005
94908KDBQ DBQ20021119115512811/19/02 11:55:31  5-MIN KDBQ 191755Z 23012KT 10SM CLR 08/02 A2999 1020 63 500 230/12 RMK AO2 SLP163 T00830017 10083 21022 58009
94908KDBQ DBQ20021119120009311/19/02 12:00:31  5-MIN KDBQ 191800Z 23012KT 10SM CLR 08/02 A2998 1020 65 500 230/12 RMK AO2
94908KDBQ DBQ20021119120509311/19/02 12:05:31  5-MIN KDBQ 191805Z 24013KT 10SM CLR 08/01 A2998 1020 60 500 240/13 RMK AO2
94908KDBQ DBQ20021119121009311/19/02 12:10:31  5-MIN KDBQ 191810Z 23012KT 10SM CLR 08/01 A2998 1020 60 500 230/12 RMK AO2
94908KDBQ DBQ20021119121509311/19/02 12:15:31  5-MIN KDBQ 191815Z 24013KT 10SM CLR 08/02 A2998 1030 63 500 240/13 RMK AO2
94908KDBQ DBQ20021119122009311/19/02 12:20:31  5-MIN KDBQ 191820Z 24012KT 10SM CLR 08/02 A2998 1020 63 500 240/12 RMK AO2
94908KDBQ DBQ20021119122509311/19/02 12:25:31  5-MIN KDBQ 191825Z 23012KT 10SM CLR 08/02 A2998 1030 63 500 230/12 RMK AO2
94908KDBQ DBQ20021119123009311/19/02 12:30:31  5-MIN KDBQ 191830Z 23012KT 10SM CLR 08/02 A2997 1030 63 500 230/12 RMK AO2
94908KDBQ DBQ20021119123509311/19/02 12:35:31  5-MIN KDBQ 191835Z 22014KT 10SM CLR 08/02 A2997 1030 65 500 220/14 RMK AO2
94908KDBQ DBQ20021119124009311/19/02 12:40:31  5-MIN KDBQ 191840Z 22014KT 10SM CLR 08/01 A2997 1030 62 500 220/14 RMK AO2
94908KDBQ DBQ20021119124509311/19/02 12:45:31  5-MIN KDBQ 191845Z 23016KT 10SM CLR 08/01 A2997 1030 62 500 230/16 RMK AO2
94908KDBQ DBQ20021119125011011/19/02 12:50:31  5-MIN KDBQ 191850Z 23016KT 10SM CLR 08/01 A2997 1040 62 500 230/16 RMK AO2 SLP156 T00780011
94908KDBQ DBQ20021119125511011/19/02 12:55:31  5-MIN KDBQ 191855Z 23014KT 10SM CLR 08/01 A2997 1040 60 500 230/14 RMK AO2 SLP156 T00830011
94908KDBQ DBQ20021119130009311/19/02 13:00:31  5-MIN KDBQ 191900Z 24015KT 10SM CLR 08/01 A2997 1030 60 500 240/15 RMK AO2
94908KDBQ DBQ20021119130509311/19/02 13:05:31  5-MIN KDBQ 191905Z 24014KT 10SM CLR 08/02 A2997 1030 63 500 240/14 RMK AO2
94908KDBQ DBQ20021119131009311/19/02 13:10:31  5-MIN KDBQ 191910Z 24015KT 10SM CLR 08/02 A2997 1030 63 500 230/15 RMK AO2
94908KDBQ DBQ20021119131509311/19/02 13:15:31  5-MIN KDBQ 191915Z 24015KT 10SM CLR 08/01 A2997 1030 60 500 240/15 RMK AO2
94908KDBQ DBQ20021119132009311/19/02 13:20:31  5-MIN KDBQ 191920Z 24014KT 10SM CLR 08/02 A2997 1030 63 500 240/14 RMK AO2
94908KDBQ DBQ20021119132509311/19/02 13:25:31  5-MIN KDBQ 191925Z 24014KT 10SM CLR 08/01 A2997 1030 60 500 240/14 RMK AO2
94908KDBQ DBQ20021119133009311/19/02 13:30:31  5-MIN KDBQ 191930Z 24014KT 10SM CLR 08/01 A2997 1030 60 500 240/14 RMK AO2
94908KDBQ DBQ20021119133509311/19/02 13:35:31  5-MIN KDBQ 191935Z 23014KT 10SM CLR 09/02 A2997 1040 60 600 230/14 RMK AO2
94908KDBQ DBQ20021119134009311/19/02 13:40:31  5-MIN KDBQ 191940Z 24012KT 10SM CLR 09/02 A2997 1040 60 600 240/12 RMK AO2
94908KDBQ DBQ20021119134509311/19/02 13:45:31  5-MIN KDBQ 191945Z 24013KT 10SM CLR 09/02 A2996 1040 60 600 240/13 RMK AO2
94908KDBQ DBQ20021119135011011/19/02 13:50:31  5-MIN KDBQ 191950Z 24013KT 10SM CLR 09/02 A2997 1040 60 600 240/13 RMK AO2 SLP157 T00890017
94908KDBQ DBQ20021119135511011/19/02 13:55:31  5-MIN KDBQ 191955Z 24012KT 10SM CLR 09/02 A2997 1030 60 700 240/12 RMK AO2 SLP157 T00940022
94908KDBQ DBQ20021119140009311/19/02 14:00:31  5-MIN KDBQ 192000Z 24013KT 10SM CLR 09/02 A2997 1030 58 700 240/13 RMK AO2
94908KDBQ DBQ20021119140509311/19/02 14:05:31  5-MIN KDBQ 192005Z 24014KT 10SM CLR 09/02 A2997 1030 58 700 240/14 RMK AO2
94908KDBQ DBQ20021119141009311/19/02 14:10:31  5-MIN KDBQ 192010Z 24011KT 10SM CLR 09/02 A2997 1030 60 700 240/11 RMK AO2
94908KDBQ DBQ20021119141509311/19/02 14:15:31  5-MIN KDBQ 192015Z 24013KT 10SM CLR 09/02 A2997 1040 60 700 240/13 RMK AO2
94908KDBQ DBQ20021119142009311/19/02 14:20:31  5-MIN KDBQ 192020Z 25012KT 10SM CLR 09/02 A2997 1040 60 700 240/12 RMK AO2
94908KDBQ DBQ20021119142509311/19/02 14:25:31  5-MIN KDBQ 192025Z 24012KT 10SM CLR 09/02 A2997 1040 60 700 240/12 RMK AO2
94908KDBQ DBQ20021119143009311/19/02 14:30:31  5-MIN KDBQ 192030Z 24013KT 10SM CLR 09/03 A2997 1040 63 700 240/13 RMK AO2
94908KDBQ DBQ20021119143509311/19/02 14:35:31  5-MIN KDBQ 192035Z 23014KT 10SM CLR 09/03 A2997 1030 63 700 230/14 RMK AO2
94908KDBQ DBQ20021119144009311/19/02 14:40:31  5-MIN KDBQ 192040Z 24014KT 10SM CLR 09/02 A2996 1040 60 700 240/14 RMK AO2
94908KDBQ DBQ20021119144509311/19/02 14:45:31  5-MIN KDBQ 192045Z 24013KT 10SM CLR 09/02 A2996 1040 58 700 240/13 RMK AO2
94908KDBQ DBQ20021119145011611/19/02 14:50:31  5-MIN KDBQ 192050Z 23012KT 10SM CLR 09/02 A2997 1040 63 600 230/12 RMK AO2 SLP156 T00890022 58009
94908KDBQ DBQ20021119145511611/19/02 14:55:31  5-MIN KDBQ 192055Z 24012KT 10SM CLR 09/02 A2997 1040 63 600 230/12 RMK AO2 SLP156 T00890022 56006
94908KDBQ DBQ20021119150009311/19/02 15:00:31  5-MIN KDBQ 192100Z 23012KT 10SM CLR 09/02 A2997 1040 60 600 230/12 RMK AO2
94908KDBQ DBQ20021119150509311/19/02 15:05:31  5-MIN KDBQ 192105Z 23012KT 10SM CLR 09/02 A2996 1040 63 600 230/12 RMK AO2
94908KDBQ DBQ20021119151009311/19/02 15:10:31  5-MIN KDBQ 192110Z 23011KT 10SM CLR 09/02 A2997 1030 63 600 230/11 RMK AO2
94908KDBQ DBQ20021119151509311/19/02 15:15:31  5-MIN KDBQ 192115Z 23010KT 10SM CLR 09/02 A2997 1030 63 600 230/10 RMK AO2
94908KDBQ DBQ20021119152009311/19/02 15:20:31  5-MIN KDBQ 192120Z 23011KT 10SM CLR 09/02 A2997 1030 63 600 230/11 RMK AO2
94908KDBQ DBQ20021119152509311/19/02 15:25:31  5-MIN KDBQ 192125Z 23011KT 10SM CLR 09/02 A2997 1030 63 600 230/11 RMK AO2
94908KDBQ DBQ20021119153009311/19/02 15:30:31  5-MIN KDBQ 192130Z 23012KT 10SM CLR 09/02 A2997 1030 63 600 230/12 RMK AO2
94908KDBQ DBQ20021119153509311/19/02 15:35:31  5-MIN KDBQ 192135Z 23012KT 10SM CLR 09/03 A2997 1030 65 600 230/12 RMK AO2
94908KDBQ DBQ20021119154009311/19/02 15:40:31  5-MIN KDBQ 192140Z 23012KT 10SM CLR 09/02 A2997 1030 63 600 230/12 RMK AO2
94908KDBQ DBQ20021119154509311/19/02 15:45:31  5-MIN KDBQ 192145Z 23011KT 10SM CLR 08/02 A2997 1030 65 500 230/11 RMK AO2
94908KDBQ DBQ20021119155011011/19/02 15:50:31  5-MIN KDBQ 192150Z 23011KT 10SM CLR 08/02 A2997 1030 65 500 230/11 RMK AO2 SLP158 T00830022
94908KDBQ DBQ20021119155511011/19/02 15:55:31  5-MIN KDBQ 192155Z 23011KT 10SM CLR 08/02 A2997 1030 65 500 220/11 RMK AO2 SLP158 T00830022
94908KDBQ DBQ20021119160009311/19/02 16:00:31  5-MIN KDBQ 192200Z 22010KT 10SM CLR 08/02 A2997 1030 68 400 220/10 RMK AO2
94908KDBQ DBQ20021119160509311/19/02 16:05:31  5-MIN KDBQ 192205Z 23010KT 10SM CLR 08/02 A2998 1030 68 400 230/10 RMK AO2
94908KDBQ DBQ20021119161009311/19/02 16:10:31  5-MIN KDBQ 192210Z 22009KT 10SM CLR 08/02 A2998 1030 68 400 220/09 RMK AO2
94908KDBQ DBQ20021119161509311/19/02 16:15:31  5-MIN KDBQ 192215Z 22008KT 10SM CLR 07/02 A2998 1030 70 400 220/08 RMK AO2
94908KDBQ DBQ20021119162009311/19/02 16:20:31  5-MIN KDBQ 192220Z 22008KT 10SM CLR 07/02 A2998 1030 70 400 220/08 RMK AO2
94908KDBQ DBQ20021119162509311/19/02 16:25:31  5-MIN KDBQ 192225Z 22007KT 10SM CLR 07/02 A2998 1020 70 300 220/07 RMK AO2
94908KDBQ DBQ20021119163009311/19/02 16:30:31  5-MIN KDBQ 192230Z 22007KT 10SM CLR 06/02 A2998 1020 73 200 220/07 RMK AO2
94908KDBQ DBQ20021119163509311/19/02 16:35:31  5-MIN KDBQ 192235Z 21007KT 10SM CLR 06/02 A2998 1020 76 200 210/07 RMK AO2
94908KDBQ DBQ20021119164009311/19/02 16:40:31  5-MIN KDBQ 192240Z 21008KT 10SM CLR 06/02 A2998 1020 76 200 210/08 RMK AO2
94908KDBQ DBQ20021119164509311/19/02 16:45:31  5-MIN KDBQ 192245Z 22007KT 10SM CLR 06/02 A2999 1020 76 200 210/07 RMK AO2
94908KDBQ DBQ20021119165011011/19/02 16:50:31  5-MIN KDBQ 192250Z 22006KT 10SM CLR 05/02 A2999 1010 79 100 220/06 RMK AO2 SLP166 T00500017
94908KDBQ DBQ20021119165511011/19/02 16:55:31  5-MIN KDBQ 192255Z 22006KT 10SM CLR 05/01 A2999 1010 76 100 220/06 RMK AO2 SLP167 T00500011
94908KDBQ DBQ20021119170009111/19/02 17:00:31  5-MIN KDBQ 192300Z 22006KT 10SM CLR 04/01 A2999 1010 79 0 220/06 RMK AO2
94908KDBQ DBQ20021119170509311/19/02 17:05:31  5-MIN KDBQ 192305Z 22006KT 10SM CLR 05/01 A2999 1010 76 100 220/06 RMK AO2
94908KDBQ DBQ20021119171009111/19/02 17:10:31  5-MIN KDBQ 192310Z 22006KT 10SM CLR 04/01 A3000 1010 79 0 220/06 RMK AO2
94908KDBQ DBQ20021119171509111/19/02 17:15:31  5-MIN KDBQ 192315Z 22006KT 10SM CLR 04/01 A3000 1010 79 0 220/06 RMK AO2
94908KDBQ DBQ20021119172009111/19/02 17:20:31  5-MIN KDBQ 192320Z 22006KT 10SM CLR 04/01 A3000 1010 82 0 220/06 RMK AO2
94908KDBQ DBQ20021119172509111/19/02 17:25:31  5-MIN KDBQ 192325Z 21006KT 10SM CLR 04/01 A3000 1010 82 0 210/06 RMK AO2
94908KDBQ DBQ20021119173009111/19/02 17:30:31  5-MIN KDBQ 192330Z 22006KT 10SM CLR 04/01 A3000 1010 79 0 210/06 RMK AO2
94908KDBQ DBQ20021119173509111/19/02 17:35:31  5-MIN KDBQ 192335Z 22006KT 10SM CLR 04/01 A3000 1000 82 0 220/06 RMK AO2
94908KDBQ DBQ20021119174009111/19/02 17:40:31  5-MIN KDBQ 192340Z 22006KT 10SM CLR 04/01 A3000 1000 82 0 220/06 RMK AO2
94908KDBQ DBQ20021119174509111/19/02 17:45:31  5-MIN KDBQ 192345Z 21006KT 10SM CLR 04/01 A3000 1000 82 0 210/06 RMK AO2
94908KDBQ DBQ20021119175012911/19/02 17:50:31  5-MIN KDBQ 192350Z 21005KT 10SM CLR 03/01 A3001 1000 85 -200 210/05 RMK AO2 SLP172 T00280006 10094 20028 56006
94908KDBQ DBQ20021119175512911/19/02 17:55:31  5-MIN KDBQ 192355Z 21005KT 10SM CLR 03/01 A3001 1000 85 -200 210/05 RMK AO2 SLP173 T00280006 10094 20028 53013
94908KDBQ DBQ20021119180009411/19/02 18:00:31  5-MIN KDBQ 200000Z 21005KT 10SM CLR 02/00 A3001 1000 85 -200 210/05 RMK AO2
94908KDBQ DBQ20021119180509411/19/02 18:05:31  5-MIN KDBQ 200005Z 21005KT 10SM CLR 03/01 A3001 1000 85 -200 210/05 RMK AO2
94908KDBQ DBQ20021119181009411/19/02 18:10:31  5-MIN KDBQ 200010Z 21005KT 10SM CLR 03/01 A3001 1000 85 -200 210/05 RMK AO2
94908KDBQ DBQ20021119181509411/19/02 18:15:31  5-MIN KDBQ 200015Z 22004KT 10SM CLR 03/01 A3001 1000 85 -200 220/04 RMK AO2
94908KDBQ DBQ20021119182009411/19/02 18:20:31  5-MIN KDBQ 200020Z 22005KT 10SM CLR 03/01 A3001 1000 85 -200 220/05 RMK AO2
94908KDBQ DBQ20021119182509411/19/02 18:25:31  5-MIN KDBQ 200025Z 23004KT 10SM CLR 03/01 A3001 1000 82 -100 230/04 RMK AO2
94908KDBQ DBQ20021119183009411/19/02 18:30:31  5-MIN KDBQ 200030Z 24004KT 10SM CLR 03/01 A3001 1000 82 -100 230/04 RMK AO2
94908KDBQ DBQ20021119183509411/19/02 18:35:31  5-MIN KDBQ 200035Z 24004KT 10SM CLR 03/01 A3001 1000 82 -100 240/04 RMK AO2
94908KDBQ DBQ20021119184009311/19/02 18:40:31  5-MIN KDBQ 200040Z 22004KT 10SM CLR 03/01 A3001 990 82 -100 220/04 RMK AO2
94908KDBQ DBQ20021119184509411/19/02 18:45:31  5-MIN KDBQ 200045Z 21004KT 10SM CLR 03/01 A3001 1000 82 -100 210/04 RMK AO2
94908KDBQ DBQ20021119185011011/19/02 18:50:31  5-MIN KDBQ 200050Z 21004KT 10SM CLR 03/01 A3001 990 85 -200 210/04 RMK AO2 SLP175 T00280006
94908KDBQ DBQ20021119185511011/19/02 18:55:31  5-MIN KDBQ 200055Z 20004KT 10SM CLR 03/01 A3001 990 85 -200 200/04 RMK AO2 SLP174 T00280006
94908KDBQ DBQ20021119190009311/19/02 19:00:31  5-MIN KDBQ 200100Z 20004KT 10SM CLR 03/01 A3001 990 85 -200 190/04 RMK AO2
94908KDBQ DBQ20021119190509411/19/02 19:05:31  5-MIN KDBQ 200105Z 19005KT 10SM CLR 03/01 A3001 1000 85 -200 190/05 RMK AO2
94908KDBQ DBQ20021119191009411/19/02 19:10:31  5-MIN KDBQ 200110Z 20006KT 10SM CLR 03/01 A3001 1000 85 -200 200/06 RMK AO2
94908KDBQ DBQ20021119191509411/19/02 19:15:31  5-MIN KDBQ 200115Z 21006KT 10SM CLR 03/01 A3001 1000 85 -200 210/06 RMK AO2
94908KDBQ DBQ20021119192009411/19/02 19:20:31  5-MIN KDBQ 200120Z 22005KT 10SM CLR 03/01 A3001 1000 82 -100 220/05 RMK AO2
94908KDBQ DBQ20021119192509411/19/02 19:25:31  5-MIN KDBQ 200125Z 22006KT 10SM CLR 03/01 A3001 1000 82 -100 220/06 RMK AO2
94908KDBQ DBQ20021119193009411/19/02 19:30:31  5-MIN KDBQ 200130Z 22006KT 10SM CLR 03/01 A3001 1000 85 -200 210/06 RMK AO2
94908KDBQ DBQ20021119193509411/19/02 19:35:31  5-MIN KDBQ 200135Z 21006KT 10SM CLR 03/00 A3001 1000 82 -200 210/06 RMK AO2
94908KDBQ DBQ20021119194009411/19/02 19:40:31  5-MIN KDBQ 200140Z 21005KT 10SM CLR 02/00 A3001 1000 85 -200 210/05 RMK AO2
94908KDBQ DBQ20021119194509411/19/02 19:45:31  5-MIN KDBQ 200145Z 21005KT 10SM CLR 02/00 A3001 1000 85 -200 210/05 RMK AO2
94908KDBQ DBQ20021119195011111/19/02 19:50:31  5-MIN KDBQ 200150Z 21003KT 10SM CLR 02/00 A3001 1000 85 -200 210/03 RMK AO2 SLP174 T00220000
94908KDBQ DBQ20021119195512111/19/02 19:55:31  5-MIN KDBQ 200155Z AUTO 20003KT 10SM CLR 03/01 A3001 1000 85 -200 200/03 RMK AO2 SLP173 T00280006 TSNO
94908KDBQ DBQ20021119200010411/19/02 20:00:31  5-MIN KDBQ 200200Z AUTO 19003KT 10SM CLR 03/01 A3001 1000 85 -200 190/03 RMK AO2 TSNO
94908KDBQ DBQ20021119200510411/19/02 20:05:31  5-MIN KDBQ 200205Z AUTO 20003KT 10SM CLR 03/01 A3001 1000 85 -200 190/03 RMK AO2 TSNO
94908KDBQ DBQ20021119201010411/19/02 20:10:31  5-MIN KDBQ 200210Z AUTO 20004KT 10SM CLR 03/01 A3001 1000 85 -200 200/04 RMK AO2 TSNO
94908KDBQ DBQ20021119201510411/19/02 20:15:31  5-MIN KDBQ 200215Z AUTO 20004KT 10SM CLR 03/00 A3000 1000 82 -200 200/04 RMK AO2 TSNO
94908KDBQ DBQ20021119202010411/19/02 20:20:31  5-MIN KDBQ 200220Z AUTO 20005KT 10SM CLR 03/00 A3000 1000 82 -100 200/05 RMK AO2 TSNO
94908KDBQ DBQ20021119202510411/19/02 20:25:31  5-MIN KDBQ 200225Z AUTO 20005KT 10SM CLR 02/00 A3000 1000 85 -200 200/05 RMK AO2 TSNO
94908KDBQ DBQ20021119203010411/19/02 20:30:31  5-MIN KDBQ 200230Z AUTO 20004KT 10SM CLR 02/00 A3001 1000 85 -200 200/04 RMK AO2 TSNO
94908KDBQ DBQ20021119203510411/19/02 20:35:31  5-MIN KDBQ 200235Z AUTO 20005KT 10SM CLR 02/00 A3001 1000 85 -200 200/05 RMK AO2 TSNO
94908KDBQ DBQ20021119204010711/19/02 20:40:31  5-MIN KDBQ 200240Z AUTO 20005KT 10SM FEW110 02/00 A3001 1000 85 -200 200/05 RMK AO2 TSNO
94908KDBQ DBQ20021119204510611/19/02 20:45:31  5-MIN KDBQ 200245Z AUTO 20005KT 10SM SCT120 02/00 A3001 990 85 -200 200/05 RMK AO2 TSNO
94908KDBQ DBQ20021119205012911/19/02 20:50:31  5-MIN KDBQ 200250Z AUTO 21005KT 10SM SCT120 02/00 A3001 990 85 -200 210/05 RMK AO2 SLP174 T00220000 53013 TSNO
94908KDBQ DBQ20021119205512911/19/02 20:55:31  5-MIN KDBQ 200255Z AUTO 21005KT 10SM BKN120 02/00 A3001 990 85 -200 210/05 RMK AO2 SLP175 T00220000 52003 TSNO
94908KDBQ DBQ20021119210010611/19/02 21:00:31  5-MIN KDBQ 200300Z AUTO 21005KT 10SM BKN110 02/00 A3002 990 85 -200 210/05 RMK AO2 TSNO
94908KDBQ DBQ20021119210510611/19/02 21:05:31  5-MIN KDBQ 200305Z AUTO 21004KT 10SM BKN110 02/00 A3002 990 89 -300 210/04 RMK AO2 TSNO
94908KDBQ DBQ20021119211010611/19/02 21:10:31  5-MIN KDBQ 200310Z AUTO 21004KT 10SM BKN120 02/00 A3002 990 89 -300 210/04 RMK AO2 TSNO
94908KDBQ DBQ20021119211510611/19/02 21:15:31  5-MIN KDBQ 200315Z AUTO 21004KT 10SM SCT110 02/00 A3002 990 89 -300 210/04 RMK AO2 TSNO
94908KDBQ DBQ20021119212010611/19/02 21:20:31  5-MIN KDBQ 200320Z AUTO 21003KT 10SM SCT110 02/00 A3002 990 85 -200 210/03 RMK AO2 TSNO
94908KDBQ DBQ20021119212510611/19/02 21:25:31  5-MIN KDBQ 200325Z AUTO 21003KT 10SM FEW110 02/00 A3002 990 85 -200 210/03 RMK AO2 TSNO
94908KDBQ DBQ20021119213010411/19/02 21:30:31  5-MIN KDBQ 200330Z AUTO 21003KT 10SM CLR 02/M01 A3002 990 82 -200 210/03 RMK AO2 TSNO
94908KDBQ DBQ20021119213510411/19/02 21:35:31  5-MIN KDBQ 200335Z AUTO 21003KT 10SM CLR 02/M01 A3002 990 82 -200 210/03 RMK AO2 TSNO
94908KDBQ DBQ20021119214010411/19/02 21:40:31  5-MIN KDBQ 200340Z AUTO 21004KT 10SM CLR 02/M01 A3002 990 82 -200 210/04 RMK AO2 TSNO
94908KDBQ DBQ20021119214510411/19/02 21:45:31  5-MIN KDBQ 200345Z AUTO 21004KT 10SM CLR 02/M01 A3002 990 82 -200 210/04 RMK AO2 TSNO
94908KDBQ DBQ20021119215012111/19/02 21:50:31  5-MIN KDBQ 200350Z AUTO 21004KT 10SM CLR 02/M01 A3002 990 82 -200 210/04 RMK AO2 SLP173 T00221006 TSNO
94908KDBQ DBQ20021119215512111/19/02 21:55:31  5-MIN KDBQ 200355Z AUTO 21004KT 10SM CLR 02/M01 A3001 990 82 -200 210/04 RMK AO2 SLP173 T00221006 TSNO
94908KDBQ DBQ20021119220010411/19/02 22:00:31  5-MIN KDBQ 200400Z AUTO 21003KT 10SM CLR 02/M01 A3001 990 82 -200 210/03 RMK AO2 TSNO
94908KDBQ DBQ20021119220510411/19/02 22:05:31  5-MIN KDBQ 200405Z AUTO 21003KT 10SM CLR 02/M01 A3001 990 82 -200 210/03 RMK AO2 TSNO
94908KDBQ DBQ20021119221010411/19/02 22:10:31  5-MIN KDBQ 200410Z AUTO 21003KT 10SM CLR 02/M01 A3001 990 82 -200 210/03 RMK AO2 TSNO
94908KDBQ DBQ20021119221510711/19/02 22:15:31  5-MIN KDBQ 200415Z AUTO 21003KT 10SM FEW110 02/M01 A3001 990 82 -300 210/03 RMK AO2 TSNO
94908KDBQ DBQ20021119222010711/19/02 22:20:31  5-MIN KDBQ 200420Z AUTO 21004KT 10SM BKN110 02/M01 A3002 990 82 -300 200/04 RMK AO2 TSNO
94908KDBQ DBQ20021119222510711/19/02 22:25:31  5-MIN KDBQ 200425Z AUTO 21004KT 10SM BKN110 01/M01 A3002 990 85 -400 200/04 RMK AO2 TSNO
94908KDBQ DBQ20021119223010711/19/02 22:30:31  5-MIN KDBQ 200430Z AUTO 21004KT 10SM BKN110 02/M01 A3002 990 82 -300 210/04 RMK AO2 TSNO
94908KDBQ DBQ20021119223510711/19/02 22:35:31  5-MIN KDBQ 200435Z AUTO 21003KT 10SM OVC110 01/M01 A3001 990 85 -400 210/03 RMK AO2 TSNO
94908KDBQ DBQ20021119224010711/19/02 22:40:31  5-MIN KDBQ 200440Z AUTO 21003KT 10SM OVC110 01/M01 A3001 990 85 -400 210/03 RMK AO2 TSNO
94908KDBQ DBQ20021119224510711/19/02 22:45:31  5-MIN KDBQ 200445Z AUTO 21003KT 10SM OVC110 01/M02 A3001 990 85 -400 210/03 RMK AO2 TSNO
94908KDBQ DBQ20021119225012411/19/02 22:50:31  5-MIN KDBQ 200450Z AUTO 21003KT 10SM OVC110 01/M01 A3001 990 85 -400 210/03 RMK AO2 SLP172 T00111011 TSNO
94908KDBQ DBQ20021119225512411/19/02 22:55:31  5-MIN KDBQ 200455Z AUTO 21003KT 10SM OVC110 01/M01 A3001 990 85 -400 210/03 RMK AO2 SLP172 T00111011 TSNO
94908KDBQ DBQ20021119230010711/19/02 23:00:31  5-MIN KDBQ 200500Z AUTO 21003KT 10SM OVC110 01/M01 A3001 990 85 -400 200/03 RMK AO2 TSNO
94908KDBQ DBQ20021119230510711/19/02 23:05:31  5-MIN KDBQ 200505Z AUTO 21004KT 10SM OVC110 01/M01 A3001 990 89 -400 200/04 RMK AO2 TSNO
94908KDBQ DBQ20021119231010711/19/02 23:10:31  5-MIN KDBQ 200510Z AUTO 21003KT 10SM OVC110 01/M01 A3001 990 89 -400 210/03 RMK AO2 TSNO
94908KDBQ DBQ20021119231510711/19/02 23:15:31  5-MIN KDBQ 200515Z AUTO 21003KT 10SM OVC110 01/M01 A3001 990 89 -400 210/03 RMK AO2 TSNO
94908KDBQ DBQ20021119232010711/19/02 23:20:31  5-MIN KDBQ 200520Z AUTO 21003KT 10SM OVC110 02/M01 A3001 990 85 -300 210/03 RMK AO2 TSNO
94908KDBQ DBQ20021119232510711/19/02 23:25:31  5-MIN KDBQ 200525Z AUTO 21003KT 10SM OVC110 02/M01 A3001 990 85 -300 210/03 RMK AO2 TSNO
94908KDBQ DBQ20021119233010711/19/02 23:30:31  5-MIN KDBQ 200530Z AUTO 00000KT 10SM OVC110 02/M01 A3001 990 82 -200 000/00 RMK AO2 TSNO
94908KDBQ DBQ20021119233510811/19/02 23:35:31  5-MIN KDBQ 200535Z AUTO 00000KT 10SM OVC110 02/M01 A3001 1000 82 -200 000/00 RMK AO2 TSNO
94908KDBQ DBQ20021119234010811/19/02 23:40:31  5-MIN KDBQ 200540Z AUTO 00000KT 10SM OVC110 02/M01 A3001 1000 82 -200 000/00 RMK AO2 TSNO
94908KDBQ DBQ20021119234510811/19/02 23:45:31  5-MIN KDBQ 200545Z AUTO 00000KT 10SM OVC110 02/M01 A3001 1000 82 -200 000/00 RMK AO2 TSNO
94908KDBQ DBQ20021119235015211/19/02 23:50:31  5-MIN KDBQ 200550Z AUTO 00000KT 9SM OVC110 02/M01 A3001 1000 82 -200 000/00 RMK AO2 SLP168 T00221006 10033 20006 400941028 52003 TSNO
94908KDBQ DBQ20021119235515211/19/02 23:55:31  5-MIN KDBQ 200555Z AUTO 00000KT 9SM OVC110 02/M01 A3001 1000 82 -200 000/00 RMK AO2 SLP168 T00221006 10033 20006 400941028 58003 TSNO
94908KDBQ DBQ20021120000010811/20/02 00:00:31  5-MIN KDBQ 200600Z AUTO 21003KT 10SM OVC110 02/M01 A3001 1000 85 -300 200/03 RMK AO2 TSNO
94908KDBQ DBQ20021120000510811/20/02 00:05:31  5-MIN KDBQ 200605Z AUTO 21004KT 10SM OVC110 02/M01 A3001 1000 82 -200 200/04 RMK AO2 TSNO
94908KDBQ DBQ20021120001010811/20/02 00:10:31  5-MIN KDBQ 200610Z AUTO 21004KT 10SM OVC110 02/M01 A3001 1000 82 -200 210/04 RMK AO2 TSNO
94908KDBQ DBQ20021120001510811/20/02 00:15:31  5-MIN KDBQ 200615Z AUTO 21003KT 10SM OVC110 02/M01 A3000 1000 82 -200 210/03 RMK AO2 TSNO
94908KDBQ DBQ20021120002010811/20/02 00:20:31  5-MIN KDBQ 200620Z AUTO 21003KT 10SM OVC110 02/M01 A3000 1000 82 -200 210/03 RMK AO2 TSNO
94908KDBQ DBQ20021120002510711/20/02 00:25:31  5-MIN KDBQ 200625Z AUTO 21003KT 10SM OVC110 02/00 A3000 1000 85 -200 210/03 RMK AO2 TSNO
94908KDBQ DBQ20021120003010711/20/02 00:30:31  5-MIN KDBQ 200630Z AUTO 21003KT 10SM OVC110 02/00 A3000 1010 85 -200 210/03 RMK AO2 TSNO
94908KDBQ DBQ20021120003510711/20/02 00:35:31  5-MIN KDBQ 200635Z AUTO 21003KT 10SM OVC110 02/00 A3000 1010 85 -200 210/03 RMK AO2 TSNO
94908KDBQ DBQ20021120004010711/20/02 00:40:31  5-MIN KDBQ 200640Z AUTO 00000KT 10SM OVC110 03/00 A3000 1010 82 -100 000/00 RMK AO2 TSNO
94908KDBQ DBQ20021120004510711/20/02 00:45:31  5-MIN KDBQ 200645Z AUTO 21003KT 10SM OVC110 03/00 A3000 1010 82 -100 210/03 RMK AO2 TSNO
94908KDBQ DBQ20021120005012311/20/02 00:50:31  5-MIN KDBQ 200650Z AUTO 21003KT 8SM OVC110 02/00 A2999 1010 85 -200 210/03 RMK AO2 SLP164 T00220000 TSNO
94908KDBQ DBQ20021120005512311/20/02 00:55:31  5-MIN KDBQ 200655Z AUTO 21003KT 7SM OVC110 02/00 A2999 1010 85 -200 210/03 RMK AO2 SLP162 T00220000 TSNO
94908KDBQ DBQ20021120010010611/20/02 01:00:31  5-MIN KDBQ 200700Z AUTO 00000KT 8SM OVC110 02/00 A2999 1020 85 -200 000/00 RMK AO2 TSNO
94908KDBQ DBQ20021120010510711/20/02 01:05:31  5-MIN KDBQ 200705Z AUTO 21003KT 10SM OVC110 02/00 A2999 1020 85 -200 210/03 RMK AO2 TSNO
94908KDBQ DBQ20021120011010711/20/02 01:10:31  5-MIN KDBQ 200710Z AUTO 21004KT 10SM OVC110 03/00 A2998 1020 82 -100 200/04 RMK AO2 TSNO
94908KDBQ DBQ20021120011510711/20/02 01:15:31  5-MIN KDBQ 200715Z AUTO 21003KT 10SM OVC110 03/00 A2998 1020 82 -100 210/03 RMK AO2 TSNO
94908KDBQ DBQ20021120012010711/20/02 01:20:31  5-MIN KDBQ 200720Z AUTO 21003KT 10SM OVC110 03/00 A2998 1020 82 -100 200/03 RMK AO2 TSNO
94908KDBQ DBQ20021120012510711/20/02 01:25:31  5-MIN KDBQ 200725Z AUTO 21003KT 10SM OVC110 03/00 A2998 1020 82 -100 200/03 RMK AO2 TSNO
94908KDBQ DBQ20021120013010711/20/02 01:30:31  5-MIN KDBQ 200730Z AUTO 21003KT 10SM OVC110 03/00 A2998 1020 82 -100 200/03 RMK AO2 TSNO
94908KDBQ DBQ20021120013510711/20/02 01:35:31  5-MIN KDBQ 200735Z AUTO 21004KT 10SM OVC110 03/00 A2998 1020 82 -100 200/04 RMK AO2 TSNO
94908KDBQ DBQ20021120014010811/20/02 01:40:31  5-MIN KDBQ 200740Z AUTO 21003KT 10SM OVC110 02/M01 A2998 1030 82 -200 200/03 RMK AO2 TSNO
94908KDBQ DBQ20021120014510811/20/02 01:45:31  5-MIN KDBQ 200745Z AUTO 00000KT 10SM OVC110 03/M01 A2998 1030 79 -100 000/00 RMK AO2 TSNO
94908KDBQ DBQ20021120015012511/20/02 01:50:31  5-MIN KDBQ 200750Z AUTO 00000KT 10SM OVC110 02/M01 A2998 1030 82 -200 000/00 RMK AO2 SLP157 T00221006 TSNO
94908KDBQ DBQ20021120015512511/20/02 01:55:31  5-MIN KDBQ 200755Z AUTO 21003KT 10SM OVC100 03/M01 A2997 1030 79 -100 200/03 RMK AO2 SLP157 T00281006 TSNO
94908KDBQ DBQ20021120020010811/20/02 02:00:31  5-MIN KDBQ 200800Z AUTO 00000KT 10SM OVC100 03/M01 A2997 1030 79 -100 000/00 RMK AO2 TSNO
94908KDBQ DBQ20021120020510811/20/02 02:05:31  5-MIN KDBQ 200805Z AUTO 00000KT 10SM OVC100 02/M01 A2997 1030 82 -200 000/00 RMK AO2 TSNO
94908KDBQ DBQ20021120021010811/20/02 02:10:31  5-MIN KDBQ 200810Z AUTO 00000KT 10SM OVC100 02/M01 A2997 1030 85 -300 000/00 RMK AO2 TSNO
94908KDBQ DBQ20021120021510811/20/02 02:15:31  5-MIN KDBQ 200815Z AUTO 00000KT 10SM OVC100 02/M01 A2997 1030 85 -300 000/00 RMK AO2 TSNO
94908KDBQ DBQ20021120022010811/20/02 02:20:31  5-MIN KDBQ 200820Z AUTO 00000KT 10SM OVC100 02/M01 A2997 1030 82 -200 000/00 RMK AO2 TSNO
94908KDBQ DBQ20021120022510711/20/02 02:25:31  5-MIN KDBQ 200825Z AUTO 00000KT 10SM OVC100 02/00 A2997 1030 85 -200 000/00 RMK AO2 TSNO
94908KDBQ DBQ20021120023010811/20/02 02:30:31  5-MIN KDBQ 200830Z AUTO 00000KT 10SM OVC100 02/M01 A2997 1030 85 -300 000/00 RMK AO2 TSNO
94908KDBQ DBQ20021120023510711/20/02 02:35:31  5-MIN KDBQ 200835Z AUTO 00000KT 10SM OVC100 03/00 A2997 1030 82 -100 000/00 RMK AO2 TSNO
94908KDBQ DBQ20021120024010711/20/02 02:40:31  5-MIN KDBQ 200840Z AUTO 00000KT 10SM OVC100 03/00 A2997 1030 82 -100 000/00 RMK AO2 TSNO
94908KDBQ DBQ20021120024510711/20/02 02:45:31  5-MIN KDBQ 200845Z AUTO 00000KT 10SM OVC100 02/00 A2997 1030 85 -200 000/00 RMK AO2 TSNO
94908KDBQ DBQ20021120025013011/20/02 02:50:31  5-MIN KDBQ 200850Z AUTO 00000KT 10SM OVC100 02/00 A2997 1030 85 -200 000/00 RMK AO2 SLP157 T00220000 58003 TSNO
94908KDBQ DBQ20021120025513011/20/02 02:55:31  5-MIN KDBQ 200855Z AUTO 00000KT 10SM OVC100 02/00 A2998 1030 85 -200 000/00 RMK AO2 SLP157 T00220000 55010 TSNO
94908KDBQ DBQ20021120030010711/20/02 03:00:31  5-MIN KDBQ 200900Z AUTO 00000KT 10SM OVC100 02/00 A2997 1030 85 -200 000/00 RMK AO2 TSNO
94908KDBQ DBQ20021120030510711/20/02 03:05:31  5-MIN KDBQ 200905Z AUTO 00000KT 10SM OVC100 02/00 A2997 1030 85 -200 000/00 RMK AO2 TSNO
94908KDBQ DBQ20021120031010711/20/02 03:10:31  5-MIN KDBQ 200910Z AUTO 00000KT 10SM OVC100 03/00 A2997 1030 82 -100 000/00 RMK AO2 TSNO
94908KDBQ DBQ20021120031510711/20/02 03:15:31  5-MIN KDBQ 200915Z AUTO 00000KT 10SM OVC100 02/00 A2998 1030 85 -200 000/00 RMK AO2 TSNO
94908KDBQ DBQ20021120032010711/20/02 03:20:31  5-MIN KDBQ 200920Z AUTO 00000KT 10SM OVC100 02/00 A2997 1030 89 -300 000/00 RMK AO2 TSNO
94908KDBQ DBQ20021120032510711/20/02 03:25:31  5-MIN KDBQ 200925Z AUTO 00000KT 10SM OVC100 02/00 A2997 1030 89 -200 000/00 RMK AO2 TSNO
94908KDBQ DBQ20021120033010711/20/02 03:30:31  5-MIN KDBQ 200930Z AUTO 00000KT 10SM OVC100 01/00 A2997 1030 92 -300 000/00 RMK AO2 TSNO
94908KDBQ DBQ20021120033510711/20/02 03:35:31  5-MIN KDBQ 200935Z AUTO 00000KT 10SM OVC100 01/00 A2997 1030 92 -300 000/00 RMK AO2 TSNO
94908KDBQ DBQ20021120034010711/20/02 03:40:31  5-MIN KDBQ 200940Z AUTO 00000KT 10SM BKN100 02/00 A2997 1030 89 -200 000/00 RMK AO2 TSNO
94908KDBQ DBQ20021120034510711/20/02 03:45:31  5-MIN KDBQ 200945Z AUTO 00000KT 10SM BKN100 01/00 A2997 1030 92 -300 000/00 RMK AO2 TSNO
94908KDBQ DBQ20021120035012411/20/02 03:50:31  5-MIN KDBQ 200950Z AUTO 19003KT 10SM BKN100 02/00 A2997 1030 89 -200 190/03 RMK AO2 SLP157 T00170000 TSNO
94908KDBQ DBQ20021120035512411/20/02 03:55:31  5-MIN KDBQ 200955Z AUTO 19004KT 10SM BKN100 02/00 A2997 1030 89 -300 190/04 RMK AO2 SLP157 T00170000 TSNO
94908KDBQ DBQ20021120040010711/20/02 04:00:31  5-MIN KDBQ 201000Z AUTO 18004KT 10SM BKN100 02/00 A2997 1030 85 -200 180/04 RMK AO2 TSNO
94908KDBQ DBQ20021120040511411/20/02 04:05:31  5-MIN KDBQ 201005Z AUTO 16005KT 10SM BKN100 BKN120 03/00 A2997 1030 82 -100 160/05 RMK AO2 TSNO
94908KDBQ DBQ20021120041010711/20/02 04:10:31  5-MIN KDBQ 201010Z AUTO 17004KT 10SM OVC100 03/00 A2997 1030 82 -100 170/04 RMK AO2 TSNO
94908KDBQ DBQ20021120041510711/20/02 04:15:31  5-MIN KDBQ 201015Z AUTO 17003KT 10SM OVC100 02/00 A2997 1030 85 -200 170/03 RMK AO2 TSNO
94908KDBQ DBQ20021120042010711/20/02 04:20:31  5-MIN KDBQ 201020Z AUTO 17003KT 10SM OVC100 02/00 A2997 1030 85 -200 170/03 RMK AO2 TSNO
94908KDBQ DBQ20021120042511411/20/02 04:25:31  5-MIN KDBQ 201025Z AUTO 17003KT 10SM BKN100 OVC120 02/00 A2997 1030 85 -200 170/03 RMK AO2 TSNO
94908KDBQ DBQ20021120043011411/20/02 04:30:31  5-MIN KDBQ 201030Z AUTO 00000KT 10SM BKN100 OVC120 02/00 A2997 1030 85 -200 000/00 RMK AO2 TSNO
94908KDBQ DBQ20021120043511411/20/02 04:35:31  5-MIN KDBQ 201035Z AUTO 00000KT 10SM SCT100 OVC120 02/00 A2997 1030 85 -200 000/00 RMK AO2 TSNO
94908KDBQ DBQ20021120044010711/20/02 04:40:31  5-MIN KDBQ 201040Z AUTO 00000KT 10SM OVC110 02/00 A2997 1030 89 -300 000/00 RMK AO2 TSNO
94908KDBQ DBQ20021120044510711/20/02 04:45:31  5-MIN KDBQ 201045Z AUTO 00000KT 10SM OVC110 02/00 A2997 1030 89 -300 000/00 RMK AO2 TSNO
94908KDBQ DBQ20021120045013111/20/02 04:50:31  5-MIN KDBQ 201050Z AUTO 00000KT 10SM BKN100 OVC120 02/00 A2997 1030 89 -200 000/00 RMK AO2 SLP158 T00170000 TSNO
94908KDBQ DBQ20021120045513111/20/02 04:55:31  5-MIN KDBQ 201055Z AUTO 16003KT 10SM BKN100 OVC120 02/00 A2997 1030 89 -200 160/03 RMK AO2 SLP158 T00170000 TSNO
94908KDBQ DBQ20021120050011411/20/02 05:00:31  5-MIN KDBQ 201100Z AUTO 16003KT 10SM BKN100 OVC120 02/00 A2997 1030 89 -200 160/03 RMK AO2 TSNO
94908KDBQ DBQ20021120050510711/20/02 05:05:31  5-MIN KDBQ 201105Z AUTO 16003KT 10SM OVC110 01/00 A2997 1030 92 -300 160/03 RMK AO2 TSNO
94908KDBQ DBQ20021120051010711/20/02 05:10:31  5-MIN KDBQ 201110Z AUTO 16003KT 10SM OVC110 02/00 A2997 1030 89 -200 160/03 RMK AO2 TSNO
94908KDBQ DBQ20021120051510711/20/02 05:15:31  5-MIN KDBQ 201115Z AUTO 00000KT 10SM OVC110 02/00 A2997 1030 85 -200 000/00 RMK AO2 TSNO
94908KDBQ DBQ20021120052010711/20/02 05:20:31  5-MIN KDBQ 201120Z AUTO 18003KT 10SM OVC110 02/00 A2997 1030 89 -200 180/03 RMK AO2 TSNO
94908KDBQ DBQ20021120052510711/20/02 05:25:31  5-MIN KDBQ 201125Z AUTO 18003KT 10SM OVC120 02/00 A2997 1030 85 -200 180/03 RMK AO2 TSNO
94908KDBQ DBQ20021120053010711/20/02 05:30:31  5-MIN KDBQ 201130Z AUTO 17003KT 10SM OVC120 02/00 A2997 1030 89 -200 170/03 RMK AO2 TSNO
94908KDBQ DBQ20021120053510711/20/02 05:35:31  5-MIN KDBQ 201135Z AUTO 16003KT 10SM OVC110 02/00 A2996 1040 85 -200 160/03 RMK AO2 TSNO
94908KDBQ DBQ20021120054010711/20/02 05:40:31  5-MIN KDBQ 201140Z AUTO 16004KT 10SM OVC110 02/00 A2996 1040 85 -200 150/04 RMK AO2 TSNO
94908KDBQ DBQ20021120054510711/20/02 05:45:31  5-MIN KDBQ 201145Z AUTO 16003KT 10SM OVC110 02/00 A2996 1040 85 -200 160/03 RMK AO2 TSNO
94908KDBQ DBQ20021120055013211/20/02 05:50:31  5-MIN KDBQ 201150Z 00000KT 10SM OVC110 02/00 A2996 1040 89 -200 000/00 RMK AO2 SLP156 T00170000 10033 20011 55010
94908KDBQ DBQ20021120055513211/20/02 05:55:31  5-MIN KDBQ 201155Z 00000KT 10SM OVC110 02/00 A2996 1040 89 -200 000/00 RMK AO2 SLP156 T00170000 10033 20011 58004
94908KDBQ DBQ20021120060009711/20/02 06:00:31  5-MIN KDBQ 201200Z 00000KT 10SM OVC110 01/00 A2996 1040 96 -400 000/00 RMK AO2
94908KDBQ DBQ20021120060509711/20/02 06:05:31  5-MIN KDBQ 201205Z 00000KT 10SM OVC100 01/00 A2996 1040 92 -300 000/00 RMK AO2
94908KDBQ DBQ20021120061009711/20/02 06:10:31  5-MIN KDBQ 201210Z 00000KT 10SM OVC100 01/00 A2996 1040 92 -300 000/00 RMK AO2
94908KDBQ DBQ20021120061509711/20/02 06:15:31  5-MIN KDBQ 201215Z 00000KT 10SM OVC100 02/00 A2996 1040 89 -200 000/00 RMK AO2
94908KDBQ DBQ20021120062009711/20/02 06:20:31  5-MIN KDBQ 201220Z 00000KT 10SM OVC095 02/00 A2996 1040 89 -200 000/00 RMK AO2
94908KDBQ DBQ20021120062509711/20/02 06:25:31  5-MIN KDBQ 201225Z 00000KT 10SM OVC095 02/00 A2996 1040 89 -200 000/00 RMK AO2
94908KDBQ DBQ20021120063009711/20/02 06:30:31  5-MIN KDBQ 201230Z 18005KT 10SM OVC090 01/00 A2996 1040 92 -300 180/05 RMK AO2
94908KDBQ DBQ20021120063509711/20/02 06:35:31  5-MIN KDBQ 201235Z 18004KT 10SM OVC090 01/00 A2996 1040 92 -300 180/04 RMK AO2
94908KDBQ DBQ20021120064009711/20/02 06:40:31  5-MIN KDBQ 201240Z 24003KT 10SM OVC090 02/01 A2996 1040 92 -200 240/03 RMK AO2
94908KDBQ DBQ20021120064509711/20/02 06:45:31  5-MIN KDBQ 201245Z 00000KT 10SM OVC090 02/00 A2996 1040 89 -200 000/00 RMK AO2
94908KDBQ DBQ20021120065011411/20/02 06:50:31  5-MIN KDBQ 201250Z 16004KT 10SM OVC090 02/00 A2996 1040 89 -200 160/04 RMK AO2 SLP154 T00170000
94908KDBQ DBQ20021120065511411/20/02 06:55:31  5-MIN KDBQ 201255Z 00000KT 10SM OVC085 02/01 A2996 1040 92 -200 000/00 RMK AO2 SLP156 T00170006
94908KDBQ DBQ20021120070009711/20/02 07:00:31  5-MIN KDBQ 201300Z 30003KT 10SM OVC080 02/01 A2996 1040 92 -200 300/03 RMK AO2
94908KDBQ DBQ20021120070510411/20/02 07:05:31  5-MIN KDBQ 201305Z 00000KT 10SM BKN080 OVC090 02/01 A2997 1040 92 -200 000/00 RMK AO2
94908KDBQ DBQ20021120071009711/20/02 07:10:31  5-MIN KDBQ 201310Z 00000KT 10SM OVC080 02/01 A2996 1040 92 -200 000/00 RMK AO2
94908KDBQ DBQ20021120071510411/20/02 07:15:31  5-MIN KDBQ 201315Z 00000KT 10SM BKN080 OVC090 02/01 A2996 1040 92 -200 000/00 RMK AO2
94908KDBQ DBQ20021120072009711/20/02 07:20:31  5-MIN KDBQ 201320Z VRB03KT 10SM OVC085 02/01 A2996 1040 92 -200 VRB/03 RMK AO2
94908KDBQ DBQ20021120072510411/20/02 07:25:31  5-MIN KDBQ 201325Z 01003KT 10SM SCT075 OVC090 02/01 A2996 1040 92 -200 010/03 RMK AO2
94908KDBQ DBQ20021120073009711/20/02 07:30:31  5-MIN KDBQ 201330Z 05003KT 10SM OVC085 02/01 A2996 1040 92 -200 050/03 RMK AO2
94908KDBQ DBQ20021120073509711/20/02 07:35:31  5-MIN KDBQ 201335Z 00000KT 10SM OVC090 02/01 A2996 1040 92 -200 000/00 RMK AO2
94908KDBQ DBQ20021120074009711/20/02 07:40:31  5-MIN KDBQ 201340Z 07003KT 10SM OVC095 03/01 A2996 1040 89 -100 070/03 RMK AO2
94908KDBQ DBQ20021120074509711/20/02 07:45:31  5-MIN KDBQ 201345Z 08003KT 10SM OVC100 03/01 A2996 1040 89 -100 080/03 RMK AO2
94908KDBQ DBQ20021120075011411/20/02 07:50:31  5-MIN KDBQ 201350Z 00000KT 10SM OVC100 02/01 A2996 1040 92 -200 000/00 RMK AO2 SLP156 T00220011
94908KDBQ DBQ20021120075511411/20/02 07:55:31  5-MIN KDBQ 201355Z 00000KT 10SM OVC100 02/01 A2996 1040 92 -200 000/00 RMK AO2 SLP157 T00220011
94908KDBQ DBQ20021120080009711/20/02 08:00:31  5-MIN KDBQ 201400Z 31003KT 10SM OVC100 03/02 A2996 1040 92 -100 310/03 RMK AO2
94908KDBQ DBQ20021120080509711/20/02 08:05:31  5-MIN KDBQ 201405Z 00000KT 10SM OVC100 03/02 A2997 1030 92 -100 000/00 RMK AO2
94908KDBQ DBQ20021120081009711/20/02 08:10:31  5-MIN KDBQ 201410Z 00000KT 10SM OVC100 03/02 A2997 1030 92 -100 000/00 RMK AO2
94908KDBQ DBQ20021120081509711/20/02 08:15:31  5-MIN KDBQ 201415Z 00000KT 10SM OVC095 02/02 A2997 1030 96 -200 000/00 RMK AO2
94908KDBQ DBQ20021120082010311/20/02 08:20:31  5-MIN KDBQ 201420Z 00000KT 9SM BKN090 OVC100 03/02 A2997 1030 92 -100 000/00 RMK AO2
94908KDBQ DBQ20021120082510311/20/02 08:25:31  5-MIN KDBQ 201425Z 00000KT 9SM BKN075 OVC100 03/02 A2997 1030 92 -100 000/00 RMK AO2
94908KDBQ DBQ20021120083010311/20/02 08:30:31  5-MIN KDBQ 201430Z 00000KT 9SM BKN075 OVC095 03/02 A2997 1040 92 -100 000/00 RMK AO2
94908KDBQ DBQ20021120083510111/20/02 08:35:31  5-MIN KDBQ 201435Z 00000KT 10SM BKN070 OVC090 03/02 A2997 1030 89 0 000/00 RMK AO2
94908KDBQ DBQ20021120084009411/20/02 08:40:31  5-MIN KDBQ 201440Z 00000KT 10SM OVC070 03/02 A2997 1030 89 0 000/00 RMK AO2
94908KDBQ DBQ20021120084509411/20/02 08:45:31  5-MIN KDBQ 201445Z 00000KT 10SM BKN065 04/02 A2997 1030 85 0 000/00 RMK AO2
94908KDBQ DBQ20021120085011711/20/02 08:50:31  5-MIN KDBQ 201450Z 00000KT 10SM BKN065 04/02 A2997 1040 85 0 000/00 RMK AO2 SLP157 T00390017 58004
94908KDBQ DBQ20021120085511711/20/02 08:55:31  5-MIN KDBQ 201455Z 00000KT 10SM BKN065 04/02 A2997 1040 89 0 000/00 RMK AO2 SLP156 T00390022 53001
94908KDBQ DBQ20021120090009411/20/02 09:00:31  5-MIN KDBQ 201500Z 00000KT 10SM BKN065 04/02 A2997 1040 89 0 000/00 RMK AO2
94908KDBQ DBQ20021120090509411/20/02 09:05:31  5-MIN KDBQ 201505Z 00000KT 10SM SCT060 04/02 A2997 1040 85 0 000/00 RMK AO2
94908KDBQ DBQ20021120091010111/20/02 09:10:31  5-MIN KDBQ 201510Z 00000KT 10SM SCT065 SCT100 04/02 A2997 1040 85 0 000/00 RMK AO2
94908KDBQ DBQ20021120091510111/20/02 09:15:31  5-MIN KDBQ 201515Z 00000KT 10SM SCT070 SCT090 04/02 A2997 1040 85 0 000/00 RMK AO2
94908KDBQ DBQ20021120092009411/20/02 09:20:31  5-MIN KDBQ 201520Z 00000KT 10SM SCT085 04/02 A2997 1040 85 0 000/00 RMK AO2
94908KDBQ DBQ20021120092509611/20/02 09:25:31  5-MIN KDBQ 201525Z 00000KT 10SM SCT090 05/02 A2997 1030 82 100 000/00 RMK AO2
94908KDBQ DBQ20021120093009611/20/02 09:30:31  5-MIN KDBQ 201530Z 00000KT 10SM SCT085 05/02 A2997 1040 82 100 000/00 RMK AO2
94908KDBQ DBQ20021120093509611/20/02 09:35:31  5-MIN KDBQ 201535Z 00000KT 10SM SCT085 06/03 A2996 1040 82 200 000/00 RMK AO2
94908KDBQ DBQ20021120094010211/20/02 09:40:31  5-MIN KDBQ 201540Z 00000KT 9SM FEW070 BKN085 06/02 A2996 1040 79 200 000/00 RMK AO2
94908KDBQ DBQ20021120094510211/20/02 09:45:31  5-MIN KDBQ 201545Z 00000KT 8SM FEW070 BKN090 06/02 A2996 1040 79 200 000/00 RMK AO2
94908KDBQ DBQ20021120095011911/20/02 09:50:31  5-MIN KDBQ 201550Z 00000KT 8SM FEW075 BKN090 06/02 A2996 1040 79 200 000/00 RMK AO2 SLP154 T00560022
94908KDBQ DBQ20021120095512611/20/02 09:55:31  5-MIN KDBQ 201555Z 00000KT 9SM FEW075 BKN090 BKN100 06/02 A2996 1040 76 300 000/00 RMK AO2 SLP153 T00610022
94908KDBQ DBQ20021120100010311/20/02 10:00:31  5-MIN KDBQ 201600Z 00000KT 10SM FEW070 BKN095 06/02 A2996 1040 76 300 000/00 RMK AO2
94908KDBQ DBQ20021120100510311/20/02 10:05:31  5-MIN KDBQ 201605Z 00000KT 10SM FEW075 BKN100 07/02 A2996 1040 73 300 000/00 RMK AO2
94908KDBQ DBQ20021120101009611/20/02 10:10:31  5-MIN KDBQ 201610Z 00000KT 10SM SCT095 07/03 A2996 1040 76 300 000/00 RMK AO2
94908KDBQ DBQ20021120101509611/20/02 10:15:31  5-MIN KDBQ 201615Z 00000KT 10SM FEW100 07/03 A2996 1040 76 300 000/00 RMK AO2
94908KDBQ DBQ20021120102009611/20/02 10:20:31  5-MIN KDBQ 201620Z 00000KT 10SM SCT095 07/03 A2996 1040 76 300 000/00 RMK AO2
94908KDBQ DBQ20021120102509611/20/02 10:25:31  5-MIN KDBQ 201625Z 00000KT 10SM SCT100 07/03 A2996 1040 76 300 000/00 RMK AO2
94908KDBQ DBQ20021120103009611/20/02 10:30:31  5-MIN KDBQ 201630Z 00000KT 10SM SCT100 07/03 A2996 1050 73 400 000/00 RMK AO2
94908KDBQ DBQ20021120103509611/20/02 10:35:31  5-MIN KDBQ 201635Z 00000KT 10SM BKN100 07/03 A2995 1050 73 400 000/00 RMK AO2
94908KDBQ DBQ20021120104009611/20/02 10:40:31  5-MIN KDBQ 201640Z 00000KT 10SM BKN100 07/03 A2995 1050 73 400 000/00 RMK AO2
94908KDBQ DBQ20021120104509611/20/02 10:45:31  5-MIN KDBQ 201645Z 00000KT 10SM BKN095 08/03 A2995 1050 70 500 000/00 RMK AO2
94908KDBQ DBQ20021120105012011/20/02 10:50:31  5-MIN KDBQ 201650Z 00000KT 10SM FEW070 BKN095 08/03 A2995 1050 70 500 000/00 RMK AO2 SLP151 T00780028
94908KDBQ DBQ20021120105512011/20/02 10:55:31  5-MIN KDBQ 201655Z 00000KT 10SM SCT070 BKN095 08/02 A2995 1050 65 500 000/00 RMK AO2 SLP150 T00780017
94908KDBQ DBQ20021120110010311/20/02 11:00:31  5-MIN KDBQ 201700Z 00000KT 10SM BKN070 OVC095 08/03 A2995 1050 70 500 000/00 RMK AO2
94908KDBQ DBQ20021120110510311/20/02 11:05:31  5-MIN KDBQ 201705Z 24003KT 10SM BKN070 OVC090 08/03 A2995 1050 70 500 240/03 RMK AO2
94908KDBQ DBQ20021120111010311/20/02 11:10:31  5-MIN KDBQ 201710Z 00000KT 10SM BKN070 BKN090 08/03 A2994 1060 68 500 000/00 RMK AO2
94908KDBQ DBQ20021120111510311/20/02 11:15:31  5-MIN KDBQ 201715Z 22005KT 10SM BKN070 BKN095 08/03 A2994 1060 70 500 220/05 RMK AO2
94908KDBQ DBQ20021120112010311/20/02 11:20:31  5-MIN KDBQ 201720Z 22004KT 10SM BKN070 OVC095 08/03 A2994 1060 70 600 220/04 RMK AO2
94908KDBQ DBQ20021120112511011/20/02 11:25:31  5-MIN KDBQ 201725Z 22004KT 10SM FEW048 BKN065 OVC100 09/03 A2994 1060 68 600 220/04 RMK AO2
94908KDBQ DBQ20021120113010311/20/02 11:30:31  5-MIN KDBQ 201730Z 21005KT 10SM BKN065 OVC100 09/04 A2994 1060 71 600 210/05 RMK AO2
94908KDBQ DBQ20021120113510311/20/02 11:35:31  5-MIN KDBQ 201735Z 22006KT 10SM BKN070 BKN100 08/04 A2994 1060 73 600 220/06 RMK AO2
94908KDBQ DBQ20021120114010311/20/02 11:40:31  5-MIN KDBQ 201740Z 21006KT 10SM BKN070 BKN090 09/04 A2994 1060 71 600 210/06 RMK AO2
94908KDBQ DBQ20021120114511011/20/02 11:45:31  5-MIN KDBQ 201745Z 24006KT 10SM BKN070 BKN080 BKN100 09/04 A2993 1070 71 600 240/06 RMK AO2
94908KDBQ DBQ20021120115014511/20/02 11:50:31  5-MIN KDBQ 201750Z 22007KT 10SM BKN070 BKN080 BKN100 09/04 A2993 1070 68 700 220/07 RMK AO2 SLP142 T00940039 10094 20006 53001
94908KDBQ DBQ20021120115513811/20/02 11:55:31  5-MIN KDBQ 201755Z 23006KT 10SM BKN070 OVC100 10/04 A2993 1070 65 800 230/06 RMK AO2 SLP142 T01000039 10100 20006 58012
94908KDBQ DBQ20021120120010311/20/02 12:00:31  5-MIN KDBQ 201800Z 22006KT 10SM BKN070 OVC100 09/03 A2993 1070 65 700 220/06 RMK AO2
94908KDBQ DBQ20021120120510311/20/02 12:05:31  5-MIN KDBQ 201805Z 22006KT 10SM BKN075 BKN100 09/03 A2992 1070 65 700 210/06 RMK AO2
94908KDBQ DBQ20021120121011011/20/02 12:10:31  5-MIN KDBQ 201810Z 22006KT 10SM SCT065 BKN075 BKN100 09/03 A2992 1080 63 700 220/06 RMK AO2
94908KDBQ DBQ20021120121510311/20/02 12:15:31  5-MIN KDBQ 201815Z 23004KT 10SM BKN070 BKN100 09/03 A2992 1080 63 700 230/04 RMK AO2
94908KDBQ DBQ20021120122010311/20/02 12:20:31  5-MIN KDBQ 201820Z 22005KT 10SM BKN070 BKN110 10/03 A2992 1080 60 800 220/05 RMK AO2
94908KDBQ DBQ20021120122510311/20/02 12:25:31  5-MIN KDBQ 201825Z 22005KT 10SM SCT065 BKN120 10/03 A2992 1080 60 800 220/05 RMK AO2
94908KDBQ DBQ20021120123010311/20/02 12:30:31  5-MIN KDBQ 201830Z 21003KT 10SM FEW065 BKN120 10/03 A2991 1080 60 800 210/03 RMK AO2
94908KDBQ DBQ20021120123510311/20/02 12:35:31  5-MIN KDBQ 201835Z 20005KT 10SM FEW065 BKN110 11/02 A2991 1090 56 900 200/05 RMK AO2
94908KDBQ DBQ20021120124010311/20/02 12:40:31  5-MIN KDBQ 201840Z 22003KT 10SM FEW070 BKN110 10/02 A2991 1090 56 800 220/03 RMK AO2
94908KDBQ DBQ20021120124509611/20/02 12:45:31  5-MIN KDBQ 201845Z 23003KT 10SM BKN110 11/01 A2991 1090 52 900 230/03 RMK AO2
94908KDBQ DBQ20021120125012011/20/02 12:50:31  5-MIN KDBQ 201850Z 22004KT 10SM BKN100 BKN120 11/02 A2990 1090 52 900 220/04 RMK AO2 SLP133 T01110017
94908KDBQ DBQ20021120125511311/20/02 12:55:31  5-MIN KDBQ 201855Z 22004KT 10SM BKN100 11/02 A2990 1090 54 900 220/04 RMK AO2 SLP133 T01110022
94908KDBQ DBQ20021120130010311/20/02 13:00:31  5-MIN KDBQ 201900Z 21003KT 10SM SCT100 BKN110 11/02 A2990 1090 52 900 210/03 RMK AO2
94908KDBQ DBQ20021120130509611/20/02 13:05:31  5-MIN KDBQ 201905Z 21006KT 10SM SCT100 11/02 A2990 1100 54 900 210/06 RMK AO2
94908KDBQ DBQ20021120131010311/20/02 13:10:31  5-MIN KDBQ 201910Z 20005KT 10SM SCT100 SCT120 11/02 A2990 1100 54 900 200/05 RMK AO2
94908KDBQ DBQ20021120131509611/20/02 13:15:31  5-MIN KDBQ 201915Z 22005KT 10SM SCT110 11/02 A2990 1100 54 900 220/05 RMK AO2
94908KDBQ DBQ20021120132009711/20/02 13:20:31  5-MIN KDBQ 201920Z 22003KT 10SM SCT110 12/02 A2990 1100 50 1000 220/03 RMK AO2
94908KDBQ DBQ20021120132509611/20/02 13:25:31  5-MIN KDBQ 201925Z 22003KT 10SM FEW120 11/02 A2990 1100 52 900 220/03 RMK AO2
94908KDBQ DBQ20021120133009711/20/02 13:30:31  5-MIN KDBQ 201930Z 21004KT 10SM FEW120 12/02 A2990 1100 50 1000 210/04 RMK AO2
94908KDBQ DBQ20021120133509711/20/02 13:35:31  5-MIN KDBQ 201935Z 21005KT 10SM FEW120 12/02 A2990 1100 50 1000 210/05 RMK AO2
94908KDBQ DBQ20021120134009711/20/02 13:40:31  5-MIN KDBQ 201940Z 23005KT 10SM FEW120 12/01 A2990 1100 48 1000 230/05 RMK AO2
94908KDBQ DBQ20021120134509411/20/02 13:45:31  5-MIN KDBQ 201945Z 25007KT 10SM CLR 12/01 A2989 1100 48 1000 250/07 RMK AO2
94908KDBQ DBQ20021120135011111/20/02 13:50:31  5-MIN KDBQ 201950Z 25009KT 10SM CLR 12/02 A2989 1110 48 1100 240/09 RMK AO2 SLP127 T01220017
94908KDBQ DBQ20021120135511111/20/02 13:55:31  5-MIN KDBQ 201955Z 23009KT 10SM CLR 12/01 A2989 1100 48 1000 230/09 RMK AO2 SLP128 T01170011
94908KDBQ DBQ20021120140009411/20/02 14:00:31  5-MIN KDBQ 202000Z 24009KT 10SM CLR 12/01 A2989 1110 48 1000 240/09 RMK AO2
94908KDBQ DBQ20021120140509411/20/02 14:05:31  5-MIN KDBQ 202005Z 24009KT 10SM CLR 12/02 A2989 1110 50 1000 240/09 RMK AO2
94908KDBQ DBQ20021120141009411/20/02 14:10:31  5-MIN KDBQ 202010Z 25009KT 10SM CLR 12/02 A2989 1110 50 1000 250/09 RMK AO2
94908KDBQ DBQ20021120141509411/20/02 14:15:31  5-MIN KDBQ 202015Z 25009KT 10SM CLR 12/02 A2989 1110 50 1000 250/09 RMK AO2
94908KDBQ DBQ20021120142009411/20/02 14:20:31  5-MIN KDBQ 202020Z 25009KT 10SM CLR 12/02 A2989 1110 50 1000 250/09 RMK AO2
94908KDBQ DBQ20021120142509411/20/02 14:25:31  5-MIN KDBQ 202025Z 23006KT 10SM CLR 12/02 A2989 1100 52 1000 230/06 RMK AO2
94908KDBQ DBQ20021120143009411/20/02 14:30:31  5-MIN KDBQ 202030Z 24008KT 10SM CLR 12/02 A2989 1100 52 1000 240/08 RMK AO2
94908KDBQ DBQ20021120143509411/20/02 14:35:31  5-MIN KDBQ 202035Z 24010KT 10SM CLR 12/02 A2990 1100 50 1000 240/10 RMK AO2
94908KDBQ DBQ20021120144009411/20/02 14:40:31  5-MIN KDBQ 202040Z 25009KT 10SM CLR 12/02 A2990 1100 50 1000 250/09 RMK AO2
94908KDBQ DBQ20021120144509311/20/02 14:45:31  5-MIN KDBQ 202045Z 25008KT 10SM CLR 11/01 A2989 1100 50 900 250/08 RMK AO2
94908KDBQ DBQ20021120145011711/20/02 14:50:31  5-MIN KDBQ 202050Z 24009KT 10SM CLR 12/01 A2989 1100 48 1000 240/09 RMK AO2 SLP128 T01170011 58012
94908KDBQ DBQ20021120145511711/20/02 14:55:31  5-MIN KDBQ 202055Z 24007KT 10SM CLR 12/01 A2989 1100 48 1000 240/07 RMK AO2 SLP128 T01170011 56012
94908KDBQ DBQ20021120150009411/20/02 15:00:31  5-MIN KDBQ 202100Z 25008KT 10SM CLR 12/01 A2990 1100 48 1000 250/08 RMK AO2
94908KDBQ DBQ20021120150509411/20/02 15:05:31  5-MIN KDBQ 202105Z 25008KT 10SM CLR 12/01 A2989 1100 48 1000 250/08 RMK AO2
94908KDBQ DBQ20021120151009411/20/02 15:10:31  5-MIN KDBQ 202110Z 25008KT 10SM CLR 12/01 A2990 1100 48 1000 250/08 RMK AO2
94908KDBQ DBQ20021120151509311/20/02 15:15:31  5-MIN KDBQ 202115Z 26008KT 10SM CLR 11/01 A2990 1100 50 900 260/08 RMK AO2
94908KDBQ DBQ20021120152009311/20/02 15:20:31  5-MIN KDBQ 202120Z 25008KT 10SM CLR 11/01 A2990 1100 50 900 250/08 RMK AO2
94908KDBQ DBQ20021120152509311/20/02 15:25:31  5-MIN KDBQ 202125Z 24007KT 10SM CLR 11/02 A2989 1100 52 900 230/07 RMK AO2
94908KDBQ DBQ20021120153009311/20/02 15:30:31  5-MIN KDBQ 202130Z 25008KT 10SM CLR 11/02 A2989 1100 52 900 250/08 RMK AO2
94908KDBQ DBQ20021120153509311/20/02 15:35:31  5-MIN KDBQ 202135Z 25007KT 10SM CLR 11/02 A2990 1100 54 900 240/07 RMK AO2
94908KDBQ DBQ20021120154009311/20/02 15:40:31  5-MIN KDBQ 202140Z 25006KT 10SM CLR 11/02 A2990 1100 54 900 250/06 RMK AO2
94908KDBQ DBQ20021120154509311/20/02 15:45:31  5-MIN KDBQ 202145Z 27007KT 10SM CLR 11/02 A2990 1100 54 900 270/07 RMK AO2
94908KDBQ DBQ20021120155011011/20/02 15:50:31  5-MIN KDBQ 202150Z 26008KT 10SM CLR 11/01 A2990 1100 52 900 260/08 RMK AO2 SLP131 T01060011
94908KDBQ DBQ20021120155511011/20/02 15:55:31  5-MIN KDBQ 202155Z 25006KT 10SM CLR 10/01 A2990 1100 54 800 250/06 RMK AO2 SLP131 T01000011
94908KDBQ DBQ20021120160009311/20/02 16:00:31  5-MIN KDBQ 202200Z 25006KT 10SM CLR 10/01 A2990 1100 54 800 250/06 RMK AO2
94908KDBQ DBQ20021120160509611/20/02 16:05:31  5-MIN KDBQ 202205Z 25006KT 10SM FEW110 09/01 A2990 1100 56 700 250/06 RMK AO2
94908KDBQ DBQ20021120161009611/20/02 16:10:31  5-MIN KDBQ 202210Z 25005KT 10SM SCT110 09/02 A2990 1100 58 700 250/05 RMK AO2
94908KDBQ DBQ20021120161509611/20/02 16:15:31  5-MIN KDBQ 202215Z 25005KT 10SM FEW110 09/02 A2990 1100 60 700 250/05 RMK AO2
94908KDBQ DBQ20021120162009611/20/02 16:20:31  5-MIN KDBQ 202220Z 25005KT 10SM FEW110 09/02 A2990 1100 60 700 250/05 RMK AO2
94908KDBQ DBQ20021120162509611/20/02 16:25:31  5-MIN KDBQ 202225Z 25005KT 10SM FEW110 08/02 A2990 1090 63 600 250/05 RMK AO2
94908KDBQ DBQ20021120163009611/20/02 16:30:31  5-MIN KDBQ 202230Z 25005KT 10SM FEW110 08/01 A2990 1090 60 600 250/05 RMK AO2
94908KDBQ DBQ20021120163509611/20/02 16:35:31  5-MIN KDBQ 202235Z 25003KT 10SM FEW110 08/02 A2990 1090 65 500 250/03 RMK AO2
94908KDBQ DBQ20021120164009611/20/02 16:40:31  5-MIN KDBQ 202240Z 23003KT 10SM FEW100 08/02 A2990 1090 65 500 230/03 RMK AO2
94908KDBQ DBQ20021120164509611/20/02 16:45:31  5-MIN KDBQ 202245Z 20003KT 10SM FEW100 08/02 A2990 1090 65 500 200/03 RMK AO2
94908KDBQ DBQ20021120165011311/20/02 16:50:31  5-MIN KDBQ 202250Z 00000KT 10SM SCT090 07/01 A2990 1090 65 500 000/00 RMK AO2 SLP135 T00720011
94908KDBQ DBQ20021120165511311/20/02 16:55:31  5-MIN KDBQ 202255Z 00000KT 10SM BKN090 07/01 A2990 1090 65 500 000/00 RMK AO2 SLP135 T00720011
94908KDBQ DBQ20021120170009611/20/02 17:00:31  5-MIN KDBQ 202300Z 00000KT 10SM BKN090 07/01 A2990 1090 67 400 000/00 RMK AO2
94908KDBQ DBQ20021120170509611/20/02 17:05:31  5-MIN KDBQ 202305Z 00000KT 10SM BKN090 07/01 A2990 1090 67 400 000/00 RMK AO2
94908KDBQ DBQ20021120171009611/20/02 17:10:31  5-MIN KDBQ 202310Z 00000KT 10SM BKN095 07/01 A2990 1090 65 500 000/00 RMK AO2
94908KDBQ DBQ20021120171509611/20/02 17:15:31  5-MIN KDBQ 202315Z 20003KT 10SM BKN095 07/01 A2991 1090 67 400 200/03 RMK AO2
94908KDBQ DBQ20021120172009611/20/02 17:20:31  5-MIN KDBQ 202320Z 20003KT 10SM BKN095 07/01 A2991 1090 67 400 200/03 RMK AO2
94908KDBQ DBQ20021120172509611/20/02 17:25:31  5-MIN KDBQ 202325Z 00000KT 10SM BKN090 07/01 A2991 1090 67 400 000/00 RMK AO2
94908KDBQ DBQ20021120173009611/20/02 17:30:31  5-MIN KDBQ 202330Z 21003KT 10SM BKN090 07/01 A2991 1090 67 400 210/03 RMK AO2
94908KDBQ DBQ20021120173509611/20/02 17:35:31  5-MIN KDBQ 202335Z 00000KT 10SM BKN090 06/02 A2991 1090 73 300 000/00 RMK AO2
94908KDBQ DBQ20021120174009611/20/02 17:40:31  5-MIN KDBQ 202340Z 00000KT 10SM BKN090 06/02 A2990 1090 73 300 000/00 RMK AO2
94908KDBQ DBQ20021120174509611/20/02 17:45:31  5-MIN KDBQ 202345Z 00000KT 10SM BKN090 06/01 A2990 1090 70 300 000/00 RMK AO2
94908KDBQ DBQ20021120175013111/20/02 17:50:31  5-MIN KDBQ 202350Z 00000KT 10SM OVC095 06/01 A2990 1090 70 300 000/00 RMK AO2 SLP135 T00610011 10122 20061 56012
94908KDBQ DBQ20021120175513111/20/02 17:55:31  5-MIN KDBQ 202355Z 00000KT 10SM OVC095 06/02 A2990 1090 73 300 000/00 RMK AO2 SLP135 T00610017 10122 20061 51004
94908KDBQ DBQ20021120180009611/20/02 18:00:31  5-MIN KDBQ 210000Z 00000KT 10SM OVC095 07/02 A2990 1090 70 400 000/00 RMK AO2
94908KDBQ DBQ20021120180509611/20/02 18:05:31  5-MIN KDBQ 210005Z 00000KT 10SM OVC095 06/02 A2990 1090 73 300 000/00 RMK AO2
94908KDBQ DBQ20021120181010311/20/02 18:10:31  5-MIN KDBQ 210010Z 21003KT 10SM FEW060 OVC100 06/02 A2991 1090 73 300 210/03 RMK AO2
94908KDBQ DBQ20021120181510311/20/02 18:15:31  5-MIN KDBQ 210015Z 00000KT 10SM FEW060 OVC100 06/02 A2990 1090 73 300 000/00 RMK AO2
94908KDBQ DBQ20021120182010311/20/02 18:20:31  5-MIN KDBQ 210020Z 00000KT 10SM FEW060 OVC100 06/02 A2990 1090 73 300 000/00 RMK AO2
94908KDBQ DBQ20021120182510311/20/02 18:25:31  5-MIN KDBQ 210025Z 00000KT 10SM FEW060 OVC100 06/02 A2990 1090 73 300 000/00 RMK AO2
94908KDBQ DBQ20021120183010311/20/02 18:30:31  5-MIN KDBQ 210030Z 00000KT 10SM FEW060 OVC100 06/02 A2990 1090 73 300 000/00 RMK AO2
94908KDBQ DBQ20021120183510311/20/02 18:35:31  5-MIN KDBQ 210035Z 00000KT 10SM SCT055 OVC100 06/02 A2990 1100 73 300 000/00 RMK AO2
94908KDBQ DBQ20021120184010311/20/02 18:40:31  5-MIN KDBQ 210040Z 00000KT 10SM SCT055 OVC100 06/02 A2990 1100 73 300 000/00 RMK AO2
94908KDBQ DBQ20021120184510311/20/02 18:45:31  5-MIN KDBQ 210045Z 00000KT 10SM SCT055 OVC100 07/02 A2990 1100 70 400 000/00 RMK AO2
94908KDBQ DBQ20021120185012011/20/02 18:50:31  5-MIN KDBQ 210050Z 00000KT 10SM FEW055 OVC100 07/02 A2990 1100 70 400 000/00 RMK AO2 SLP134 T00670017
94908KDBQ DBQ20021120185512011/20/02 18:55:31  5-MIN KDBQ 210055Z 00000KT 10SM FEW055 OVC095 07/02 A2990 1100 70 400 000/00 RMK AO2 SLP134 T00670017
94908KDBQ DBQ20021120190010311/20/02 19:00:31  5-MIN KDBQ 210100Z 00000KT 10SM FEW055 OVC100 07/02 A2990 1100 70 400 000/00 RMK AO2
94908KDBQ DBQ20021120190510311/20/02 19:05:31  5-MIN KDBQ 210105Z 00000KT 10SM FEW055 OVC100 07/02 A2990 1100 70 400 000/00 RMK AO2
94908KDBQ DBQ20021120191009611/20/02 19:10:31  5-MIN KDBQ 210110Z 00000KT 10SM OVC095 07/02 A2990 1100 70 400 000/00 RMK AO2
94908KDBQ DBQ20021120191509611/20/02 19:15:31  5-MIN KDBQ 210115Z 00000KT 10SM OVC095 07/02 A2990 1100 70 400 000/00 RMK AO2
94908KDBQ DBQ20021120192010311/20/02 19:20:31  5-MIN KDBQ 210120Z 00000KT 10SM FEW049 OVC095 07/02 A2990 1100 70 400 000/00 RMK AO2
94908KDBQ DBQ20021120192510311/20/02 19:25:31  5-MIN KDBQ 210125Z 00000KT 10SM SCT049 OVC095 07/02 A2990 1100 70 400 000/00 RMK AO2
94908KDBQ DBQ20021120193010311/20/02 19:30:31  5-MIN KDBQ 210130Z 00000KT 10SM BKN049 OVC095 06/02 A2990 1100 76 300 000/00 RMK AO2
94908KDBQ DBQ20021120193510311/20/02 19:35:31  5-MIN KDBQ 210135Z 21003KT 10SM BKN049 OVC095 06/02 A2990 1100 79 300 210/03 RMK AO2
94908KDBQ DBQ20021120194010311/20/02 19:40:31  5-MIN KDBQ 210140Z 00000KT 10SM BKN049 OVC095 06/02 A2990 1100 76 300 000/00 RMK AO2
94908KDBQ DBQ20021120194509611/20/02 19:45:31  5-MIN KDBQ 210145Z 00000KT 10SM OVC049 06/02 A2990 1090 76 300 000/00 RMK AO2
94908KDBQ DBQ20021120195011311/20/02 19:50:31  5-MIN KDBQ 210150Z 28003KT 10SM OVC049 06/02 A2990 1090 76 300 280/03 RMK AO2 SLP135 T00610022
94908KDBQ DBQ20021120195511311/20/02 19:55:31  5-MIN KDBQ 210155Z 28004KT 10SM BKN047 07/02 A2990 1090 73 400 280/04 RMK AO2 SLP135 T00670022
94908KDBQ DBQ20021120200011311/20/02 20:00:31  5-MIN KDBQ 210200Z AUTO 29006KT 10SM BKN047 BKN095 07/02 A2990 1090 73 400 290/06 RMK AO2 TSNO
94908KDBQ DBQ20021120200511311/20/02 20:05:31  5-MIN KDBQ 210205Z AUTO 29008KT 10SM SCT047 BKN095 07/02 A2990 1090 73 400 290/08 RMK AO2 TSNO
94908KDBQ DBQ20021120201011311/20/02 20:10:31  5-MIN KDBQ 210210Z AUTO 29008KT 10SM SCT047 BKN095 07/02 A2990 1090 73 400 290/08 RMK AO2 TSNO
94908KDBQ DBQ20021120201511311/20/02 20:15:31  5-MIN KDBQ 210215Z AUTO 30008KT 10SM FEW047 SCT095 07/02 A2990 1090 73 400 300/08 RMK AO2 TSNO
94908KDBQ DBQ20021120202010611/20/02 20:20:31  5-MIN KDBQ 210220Z AUTO 31008KT 10SM FEW095 07/02 A2990 1090 70 400 310/08 RMK AO2 TSNO
94908KDBQ DBQ20021120202510611/20/02 20:25:31  5-MIN KDBQ 210225Z AUTO 31010KT 10SM FEW095 07/02 A2990 1090 73 400 310/10 RMK AO2 TSNO
94908KDBQ DBQ20021120203010611/20/02 20:30:31  5-MIN KDBQ 210230Z AUTO 31009KT 10SM FEW095 07/02 A2990 1090 73 400 310/09 RMK AO2 TSNO
94908KDBQ DBQ20021120203510611/20/02 20:35:31  5-MIN KDBQ 210235Z AUTO 32009KT 10SM FEW095 07/02 A2990 1090 73 400 310/09 RMK AO2 TSNO
94908KDBQ DBQ20021120204010311/20/02 20:40:31  5-MIN KDBQ 210240Z AUTO 32010KT 10SM CLR 07/02 A2990 1090 73 400 320/10 RMK AO2 TSNO
94908KDBQ DBQ20021120204510311/20/02 20:45:31  5-MIN KDBQ 210245Z AUTO 32009KT 10SM CLR 06/02 A2990 1100 76 300 320/09 RMK AO2 TSNO
94908KDBQ DBQ20021120205012611/20/02 20:50:31  5-MIN KDBQ 210250Z AUTO 31009KT 10SM CLR 06/02 A2990 1100 76 300 310/09 RMK AO2 SLP133 T00610022 51004 TSNO
94908KDBQ DBQ20021120205512611/20/02 20:55:31  5-MIN KDBQ 210255Z AUTO 32010KT 10SM CLR 06/02 A2990 1100 76 300 310/10 RMK AO2 SLP133 T00560017 56001 TSNO
94908KDBQ DBQ20021120210010311/20/02 21:00:31  5-MIN KDBQ 210300Z AUTO 32009KT 10SM CLR 06/02 A2990 1100 79 300 320/09 RMK AO2 TSNO
94908KDBQ DBQ20021120210510311/20/02 21:05:31  5-MIN KDBQ 210305Z AUTO 32009KT 10SM CLR 06/02 A2990 1100 76 300 320/09 RMK AO2 TSNO
94908KDBQ DBQ20021120211010311/20/02 21:10:31  5-MIN KDBQ 210310Z AUTO 32009KT 10SM CLR 06/02 A2990 1100 76 300 320/09 RMK AO2 TSNO
94908KDBQ DBQ20021120211510311/20/02 21:15:31  5-MIN KDBQ 210315Z AUTO 32010KT 10SM CLR 06/02 A2990 1100 76 300 320/10 RMK AO2 TSNO
94908KDBQ DBQ20021120212010311/20/02 21:20:31  5-MIN KDBQ 210320Z AUTO 32010KT 10SM CLR 06/02 A2990 1100 76 300 320/10 RMK AO2 TSNO
94908KDBQ DBQ20021120212510311/20/02 21:25:31  5-MIN KDBQ 210325Z AUTO 32010KT 10SM CLR 06/02 A2990 1100 76 300 320/10 RMK AO2 TSNO
94908KDBQ DBQ20021120213010311/20/02 21:30:31  5-MIN KDBQ 210330Z AUTO 32011KT 10SM CLR 06/02 A2990 1100 76 300 320/11 RMK AO2 TSNO
94908KDBQ DBQ20021120213510311/20/02 21:35:31  5-MIN KDBQ 210335Z AUTO 32011KT 10SM CLR 06/02 A2990 1100 76 300 320/11 RMK AO2 TSNO
94908KDBQ DBQ20021120214010311/20/02 21:40:31  5-MIN KDBQ 210340Z AUTO 33010KT 10SM CLR 06/02 A2989 1100 76 300 330/10 RMK AO2 TSNO
94908KDBQ DBQ20021120214510311/20/02 21:45:31  5-MIN KDBQ 210345Z AUTO 33011KT 10SM CLR 06/02 A2989 1100 76 300 330/11 RMK AO2 TSNO
94908KDBQ DBQ20021120215012011/20/02 21:50:31  5-MIN KDBQ 210350Z AUTO 33009KT 10SM CLR 06/02 A2989 1100 76 300 330/09 RMK AO2 SLP129 T00560017 TSNO
94908KDBQ DBQ20021120215512011/20/02 21:55:31  5-MIN KDBQ 210355Z AUTO 33010KT 10SM CLR 05/02 A2989 1100 79 200 330/10 RMK AO2 SLP129 T00500017 TSNO
94908KDBQ DBQ20021120220010311/20/02 22:00:31  5-MIN KDBQ 210400Z AUTO 34008KT 10SM CLR 05/02 A2989 1100 79 200 330/08 RMK AO2 TSNO
94908KDBQ DBQ20021120220510311/20/02 22:05:31  5-MIN KDBQ 210405Z AUTO 34009KT 10SM CLR 05/02 A2989 1110 79 200 340/09 RMK AO2 TSNO
94908KDBQ DBQ20021120221010311/20/02 22:10:31  5-MIN KDBQ 210410Z AUTO 34009KT 10SM CLR 05/02 A2989 1110 79 200 340/09 RMK AO2 TSNO
94908KDBQ DBQ20021120221510311/20/02 22:15:31  5-MIN KDBQ 210415Z AUTO 34009KT 10SM CLR 05/02 A2989 1110 79 200 340/09 RMK AO2 TSNO
94908KDBQ DBQ20021120222010311/20/02 22:20:31  5-MIN KDBQ 210420Z AUTO 34010KT 10SM CLR 04/01 A2989 1110 79 100 340/10 RMK AO2 TSNO
94908KDBQ DBQ20021120222510311/20/02 22:25:31  5-MIN KDBQ 210425Z AUTO 34009KT 10SM CLR 04/01 A2989 1110 79 100 340/09 RMK AO2 TSNO
94908KDBQ DBQ20021120223010311/20/02 22:30:31  5-MIN KDBQ 210430Z AUTO 34009KT 10SM CLR 04/01 A2988 1110 79 100 340/09 RMK AO2 TSNO
94908KDBQ DBQ20021120223510311/20/02 22:35:31  5-MIN KDBQ 210435Z AUTO 34009KT 10SM CLR 04/01 A2989 1110 82 100 340/09 RMK AO2 TSNO
94908KDBQ DBQ20021120224010311/20/02 22:40:31  5-MIN KDBQ 210440Z AUTO 33009KT 10SM CLR 04/01 A2989 1110 82 100 330/09 RMK AO2 TSNO
94908KDBQ DBQ20021120224510311/20/02 22:45:31  5-MIN KDBQ 210445Z AUTO 33010KT 10SM CLR 04/01 A2989 1110 82 100 330/10 RMK AO2 TSNO
94908KDBQ DBQ20021120225012011/20/02 22:50:31  5-MIN KDBQ 210450Z AUTO 33010KT 10SM CLR 04/01 A2989 1110 79 100 330/10 RMK AO2 SLP127 T00440011 TSNO
94908KDBQ DBQ20021120225512011/20/02 22:55:31  5-MIN KDBQ 210455Z AUTO 33010KT 10SM CLR 04/01 A2989 1110 79 100 330/10 RMK AO2 SLP128 T00440011 TSNO
94908KDBQ DBQ20021120230010311/20/02 23:00:31  5-MIN KDBQ 210500Z AUTO 32010KT 10SM CLR 04/01 A2989 1110 82 100 320/10 RMK AO2 TSNO
94908KDBQ DBQ20021120230510311/20/02 23:05:31  5-MIN KDBQ 210505Z AUTO 33009KT 10SM CLR 04/01 A2989 1110 82 100 330/09 RMK AO2 TSNO
94908KDBQ DBQ20021120231010311/20/02 23:10:31  5-MIN KDBQ 210510Z AUTO 33011KT 10SM CLR 04/01 A2989 1110 82 100 320/11 RMK AO2 TSNO
94908KDBQ DBQ20021120231510311/20/02 23:15:31  5-MIN KDBQ 210515Z AUTO 32011KT 10SM CLR 04/01 A2989 1110 82 100 320/11 RMK AO2 TSNO
94908KDBQ DBQ20021120232010311/20/02 23:20:31  5-MIN KDBQ 210520Z AUTO 32011KT 10SM CLR 04/01 A2989 1110 79 100 320/11 RMK AO2 TSNO
94908KDBQ DBQ20021120232510311/20/02 23:25:31  5-MIN KDBQ 210525Z AUTO 33011KT 10SM CLR 04/01 A2989 1110 82 100 320/11 RMK AO2 TSNO
94908KDBQ DBQ20021120233010311/20/02 23:30:31  5-MIN KDBQ 210530Z AUTO 32011KT 10SM CLR 04/01 A2989 1110 79 100 320/11 RMK AO2 TSNO
94908KDBQ DBQ20021120233510311/20/02 23:35:31  5-MIN KDBQ 210535Z AUTO 33012KT 10SM CLR 04/01 A2989 1110 82 100 330/12 RMK AO2 TSNO
94908KDBQ DBQ20021120234010311/20/02 23:40:31  5-MIN KDBQ 210540Z AUTO 33012KT 10SM CLR 04/01 A2989 1110 82 100 330/12 RMK AO2 TSNO
94908KDBQ DBQ20021120234510311/20/02 23:45:31  5-MIN KDBQ 210545Z AUTO 33012KT 10SM CLR 04/01 A2989 1110 82 100 330/12 RMK AO2 TSNO
94908KDBQ DBQ20021120235014811/20/02 23:50:31  5-MIN KDBQ 210550Z AUTO 33012KT 10SM CLR 04/01 A2989 1110 79 100 330/12 RMK AO2 SLP129 T00390006 10067 20039 401220006 56001 TSNO
94908KDBQ DBQ20021120235514811/20/02 23:55:31  5-MIN KDBQ 210555Z AUTO 33012KT 10SM CLR 04/01 A2989 1110 79 100 330/12 RMK AO2 SLP128 T00390006 10067 20039 401220006 55004 TSNO
94908KDBQ DBQ20021121000010311/21/02 00:00:31  5-MIN KDBQ 210600Z AUTO 34012KT 10SM CLR 04/01 A2989 1110 79 100 340/12 RMK AO2 TSNO
94908KDBQ DBQ20021121000510111/21/02 00:05:31  5-MIN KDBQ 210605Z AUTO 34010KT 10SM CLR 03/01 A2989 1110 82 0 340/10 RMK AO2 TSNO
94908KDBQ DBQ20021121001010111/21/02 00:10:31  5-MIN KDBQ 210610Z AUTO 34009KT 10SM CLR 03/01 A2988 1110 82 0 340/09 RMK AO2 TSNO
94908KDBQ DBQ20021121001510111/21/02 00:15:31  5-MIN KDBQ 210615Z AUTO 34008KT 10SM CLR 03/01 A2988 1120 85 0 340/08 RMK AO2 TSNO
94908KDBQ DBQ20021121002010111/21/02 00:20:31  5-MIN KDBQ 210620Z AUTO 35008KT 10SM CLR 03/01 A2988 1120 85 0 350/08 RMK AO2 TSNO
94908KDBQ DBQ20021121002510411/21/02 00:25:31  5-MIN KDBQ 210625Z AUTO 35007KT 10SM CLR 02/00 A2988 1120 85 -100 350/07 RMK AO2 TSNO
94908KDBQ DBQ20021121003010411/21/02 00:30:31  5-MIN KDBQ 210630Z AUTO 35008KT 10SM CLR 02/01 A2987 1120 89 -100 350/08 RMK AO2 TSNO
94908KDBQ DBQ20021121003510111/21/02 00:35:31  5-MIN KDBQ 210635Z AUTO 34011KT 10SM CLR 03/01 A2988 1120 85 0 340/11 RMK AO2 TSNO
94908KDBQ DBQ20021121004010111/21/02 00:40:31  5-MIN KDBQ 210640Z AUTO 33011KT 10SM CLR 03/01 A2988 1120 85 0 330/11 RMK AO2 TSNO
94908KDBQ DBQ20021121004510111/21/02 00:45:31  5-MIN KDBQ 210645Z AUTO 33010KT 10SM CLR 03/01 A2988 1120 85 0 330/10 RMK AO2 TSNO
94908KDBQ DBQ20021121005011811/21/02 00:50:31  5-MIN KDBQ 210650Z AUTO 34011KT 10SM CLR 03/01 A2987 1120 85 0 340/11 RMK AO2 SLP122 T00280006 TSNO
94908KDBQ DBQ20021121005511811/21/02 00:55:31  5-MIN KDBQ 210655Z AUTO 33011KT 10SM CLR 03/01 A2988 1120 85 0 330/11 RMK AO2 SLP123 T00280006 TSNO
94908KDBQ DBQ20021121010010111/21/02 01:00:31  5-MIN KDBQ 210700Z AUTO 34010KT 10SM CLR 03/01 A2988 1120 85 0 340/10 RMK AO2 TSNO
94908KDBQ DBQ20021121010510411/21/02 01:05:31  5-MIN KDBQ 210705Z AUTO 34010KT 10SM FEW120 03/00 A2988 1120 82 0 340/10 RMK AO2 TSNO
94908KDBQ DBQ20021121011010411/21/02 01:10:31  5-MIN KDBQ 210710Z AUTO 34010KT 10SM SCT120 03/00 A2987 1120 82 0 340/10 RMK AO2 TSNO
94908KDBQ DBQ20021121011510411/21/02 01:15:31  5-MIN KDBQ 210715Z AUTO 35009KT 10SM BKN120 03/00 A2987 1130 82 0 350/09 RMK AO2 TSNO
94908KDBQ DBQ20021121012010411/21/02 01:20:31  5-MIN KDBQ 210720Z AUTO 36007KT 10SM BKN120 03/00 A2987 1130 82 0 360/07 RMK AO2 TSNO
94908KDBQ DBQ20021121012510711/21/02 01:25:31  5-MIN KDBQ 210725Z AUTO 01008KT 10SM BKN120 02/00 A2986 1130 85 -100 010/08 RMK AO2 TSNO
94908KDBQ DBQ20021121013010411/21/02 01:30:31  5-MIN KDBQ 210730Z AUTO 35008KT 10SM BKN120 02/00 A2986 1140 85 0 350/08 RMK AO2 TSNO
94908KDBQ DBQ20021121013510411/21/02 01:35:31  5-MIN KDBQ 210735Z AUTO 34008KT 10SM OVC120 02/00 A2985 1140 85 0 340/08 RMK AO2 TSNO
94908KDBQ DBQ20021121014010711/21/02 01:40:31  5-MIN KDBQ 210740Z AUTO 34009KT 10SM OVC110 02/00 A2986 1140 85 -100 340/09 RMK AO2 TSNO
94908KDBQ DBQ20021121014510711/21/02 01:45:31  5-MIN KDBQ 210745Z AUTO 34009KT 10SM OVC110 02/00 A2986 1140 89 -100 340/09 RMK AO2 TSNO
94908KDBQ DBQ20021121015012411/21/02 01:50:31  5-MIN KDBQ 210750Z AUTO 35006KT 10SM OVC110 02/00 A2985 1140 89 -100 350/06 RMK AO2 SLP114 T00170000 TSNO
94908KDBQ DBQ20021121015512411/21/02 01:55:31  5-MIN KDBQ 210755Z AUTO 35006KT 10SM OVC110 02/00 A2985 1140 89 -100 350/06 RMK AO2 SLP115 T00170000 TSNO
94908KDBQ DBQ20021121020010411/21/02 02:00:31  5-MIN KDBQ 210800Z AUTO 35008KT 10SM OVC110 02/00 A2985 1140 85 0 350/08 RMK AO2 TSNO
94908KDBQ DBQ20021121020510411/21/02 02:05:31  5-MIN KDBQ 210805Z AUTO 35008KT 10SM OVC110 02/00 A2985 1140 85 0 350/08 RMK AO2 TSNO
94908KDBQ DBQ20021121021010711/21/02 02:10:31  5-MIN KDBQ 210810Z AUTO 34009KT 10SM OVC110 02/00 A2986 1140 85 -100 340/09 RMK AO2 TSNO
94908KDBQ DBQ20021121021510611/21/02 02:15:31  5-MIN KDBQ 210815Z AUTO 34008KT 9SM OVC110 02/00 A2986 1140 85 -100 340/08 RMK AO2 TSNO
94908KDBQ DBQ20021121022010611/21/02 02:20:31  5-MIN KDBQ 210820Z AUTO 34010KT 9SM OVC110 02/00 A2986 1130 85 -100 330/10 RMK AO2 TSNO
94908KDBQ DBQ20021121022510311/21/02 02:25:31  5-MIN KDBQ 210825Z AUTO 34008KT 9SM OVC110 02/00 A2985 1140 85 0 340/08 RMK AO2 TSNO
94908KDBQ DBQ20021121023010311/21/02 02:30:31  5-MIN KDBQ 210830Z AUTO 35007KT 9SM OVC100 02/00 A2985 1150 85 0 350/07 RMK AO2 TSNO
94908KDBQ DBQ20021121023511011/21/02 02:35:31  5-MIN KDBQ 210835Z AUTO 35006KT 9SM BKN100 OVC120 02/00 A2985 1150 85 0 350/06 RMK AO2 TSNO
94908KDBQ DBQ20021121024011011/21/02 02:40:31  5-MIN KDBQ 210840Z AUTO 36006KT 9SM BKN100 OVC120 02/00 A2984 1150 85 0 350/06 RMK AO2 TSNO
94908KDBQ DBQ20021121024510311/21/02 02:45:31  5-MIN KDBQ 210845Z AUTO 36006KT 8SM OVC100 02/00 A2984 1150 85 0 360/06 RMK AO2 TSNO
94908KDBQ DBQ20021121025012611/21/02 02:50:31  5-MIN KDBQ 210850Z AUTO 36006KT 8SM OVC095 02/00 A2985 1150 85 0 360/06 RMK AO2 SLP113 T00220000 55004 TSNO
94908KDBQ DBQ20021121025512611/21/02 02:55:31  5-MIN KDBQ 210855Z AUTO 36006KT 8SM OVC095 02/00 A2984 1150 85 0 360/06 RMK AO2 SLP111 T00220000 56016 TSNO
94908KDBQ DBQ20021121030010311/21/02 03:00:31  5-MIN KDBQ 210900Z AUTO 35007KT 8SM OVC095 02/00 A2984 1150 85 0 350/07 RMK AO2 TSNO
94908KDBQ DBQ20021121030510311/21/02 03:05:31  5-MIN KDBQ 210905Z AUTO 35007KT 8SM OVC095 02/00 A2984 1150 85 0 350/07 RMK AO2 TSNO
94908KDBQ DBQ20021121031010611/21/02 03:10:31  5-MIN KDBQ 210910Z AUTO 35007KT 8SM OVC095 02/00 A2984 1150 89 -100 350/07 RMK AO2 TSNO
94908KDBQ DBQ20021121031511311/21/02 03:15:31  5-MIN KDBQ 210915Z AUTO 35006KT 8SM FEW080 OVC100 02/00 A2984 1150 89 -100 350/06 RMK AO2 TSNO
94908KDBQ DBQ20021121032011311/21/02 03:20:31  5-MIN KDBQ 210920Z AUTO 36006KT 8SM FEW080 OVC100 02/00 A2984 1150 89 -100 360/06 RMK AO2 TSNO
94908KDBQ DBQ20021121032512011/21/02 03:25:31  5-MIN KDBQ 210925Z AUTO 34005KT 8SM FEW037 SCT080 OVC100 02/00 A2985 1150 89 -100 340/05 RMK AO2 TSNO
94908KDBQ DBQ20021121033012011/21/02 03:30:31  5-MIN KDBQ 210930Z AUTO 35005KT 7SM SCT037 BKN080 OVC100 02/00 A2985 1150 89 -100 350/05 RMK AO2 TSNO
94908KDBQ DBQ20021121033512011/21/02 03:35:31  5-MIN KDBQ 210935Z AUTO 36005KT 7SM SCT037 BKN080 OVC100 02/00 A2984 1150 89 -100 360/05 RMK AO2 TSNO
94908KDBQ DBQ20021121034012011/21/02 03:40:31  5-MIN KDBQ 210940Z AUTO 01006KT 7SM BKN035 BKN080 OVC100 02/00 A2984 1150 89 -100 360/06 RMK AO2 TSNO
94908KDBQ DBQ20021121034512011/21/02 03:45:31  5-MIN KDBQ 210945Z AUTO 03005KT 7SM BKN035 BKN080 OVC100 02/00 A2983 1160 89 -100 030/05 RMK AO2 TSNO
94908KDBQ DBQ20021121035012311/21/02 03:50:31  5-MIN KDBQ 210950Z AUTO 05005KT 7SM OVC035 02/00 A2983 1160 89 -100 040/05 RMK AO2 SLP108 T00170000 TSNO
94908KDBQ DBQ20021121035513011/21/02 03:55:31  5-MIN KDBQ 210955Z AUTO 03006KT 7SM BKN035 OVC110 02/00 A2983 1160 89 -100 030/06 RMK AO2 SLP108 T00170000 TSNO
94908KDBQ DBQ20021121040011311/21/02 04:00:31  5-MIN KDBQ 211000Z AUTO 01005KT 7SM BKN035 BKN120 02/00 A2983 1160 89 -100 010/05 RMK AO2 TSNO
94908KDBQ DBQ20021121040511311/21/02 04:05:31  5-MIN KDBQ 211005Z AUTO 36006KT 7SM BKN033 BKN120 02/00 A2984 1160 89 -100 360/06 RMK AO2 TSNO
94908KDBQ DBQ20021121041011311/21/02 04:10:31  5-MIN KDBQ 211010Z AUTO 34004KT 7SM BKN031 OVC120 02/00 A2984 1150 89 -100 330/04 RMK AO2 TSNO
94908KDBQ DBQ20021121041511311/21/02 04:15:31  5-MIN KDBQ 211015Z AUTO 34005KT 7SM BKN031 OVC120 02/00 A2984 1160 89 -100 340/05 RMK AO2 TSNO
94908KDBQ DBQ20021121042011311/21/02 04:20:31  5-MIN KDBQ 211020Z AUTO 33009KT 7SM BKN031 OVC120 02/00 A2984 1150 89 -100 330/09 RMK AO2 TSNO
94908KDBQ DBQ20021121042511311/21/02 04:25:31  5-MIN KDBQ 211025Z AUTO 34007KT 7SM BKN031 OVC120 02/00 A2983 1160 89 -100 340/07 RMK AO2 TSNO
94908KDBQ DBQ20021121043011311/21/02 04:30:31  5-MIN KDBQ 211030Z AUTO 35007KT 7SM BKN031 OVC080 02/00 A2983 1160 89 -100 350/07 RMK AO2 TSNO
94908KDBQ DBQ20021121043511311/21/02 04:35:31  5-MIN KDBQ 211035Z AUTO 35004KT 7SM BKN031 OVC085 02/00 A2982 1170 89 -100 350/04 RMK AO2 TSNO
94908KDBQ DBQ20021121044011311/21/02 04:40:31  5-MIN KDBQ 211040Z AUTO 36003KT 7SM SCT031 OVC085 02/00 A2982 1170 89 -100 360/03 RMK AO2 TSNO
94908KDBQ DBQ20021121044512011/21/02 04:45:31  5-MIN KDBQ 211045Z AUTO 03004KT 7SM SCT031 BKN080 OVC090 02/00 A2982 1170 89 -100 030/04 RMK AO2 TSNO
94908KDBQ DBQ20021121045015311/21/02 04:50:31  5-MIN KDBQ 211050Z AUTO 00000KT 7SM -SN FEW031 BKN070 OVC090 02/00 A2982 1170 89 -100 000/00 RMK AO2 SNB50 SLP107 P0000 T00170000 TSNO
94908KDBQ DBQ20021121045515311/21/02 04:55:31  5-MIN KDBQ 211055Z AUTO 01003KT 7SM -SN FEW033 BKN065 OVC090 02/00 A2982 1170 89 -100 010/03 RMK AO2 SNB50 SLP105 P0000 T00170000 TSNO
94908KDBQ DBQ20021121050014711/21/02 05:00:31  5-MIN KDBQ 211100Z AUTO 36005KT 6SM UP BR BKN065 BKN080 OVC090 02/00 A2982 1170 89 -100 350/05 RMK AO2 UPB1059SNE1059 P0000 TSNO
94908KDBQ DBQ20021121050513711/21/02 05:05:31  5-MIN KDBQ 211105Z AUTO 36005KT 7SM UP BKN065 OVC090 02/00 A2982 1170 89 -100 360/05 RMK AO2 UPB1059SNE1059 P0000 TSNO
94908KDBQ DBQ20021121051013011/21/02 05:10:31  5-MIN KDBQ 211110Z AUTO 36005KT 7SM OVC065 02/00 A2982 1170 89 -100 360/05 RMK AO2 UPB1059E06SNE1059 P0000 TSNO
94908KDBQ DBQ20021121051513011/21/02 05:15:31  5-MIN KDBQ 211115Z AUTO 36004KT 7SM OVC060 02/00 A2982 1170 89 -100 360/04 RMK AO2 UPB1059E06SNE1059 P0000 TSNO
94908KDBQ DBQ20021121052013011/21/02 05:20:31  5-MIN KDBQ 211120Z AUTO 36005KT 7SM OVC060 02/00 A2982 1170 89 -100 360/05 RMK AO2 UPB1059E06SNE1059 P0000 TSNO
94908KDBQ DBQ20021121052513711/21/02 05:25:31  5-MIN KDBQ 211125Z AUTO 01005KT 7SM FEW048 OVC060 02/00 A2982 1170 89 -100 010/05 RMK AO2 UPB1059E06SNE1059 P0000 TSNO
94908KDBQ DBQ20021121053013711/21/02 05:30:31  5-MIN KDBQ 211130Z AUTO 02005KT 7SM SCT038 OVC060 02/00 A2982 1170 89 -100 020/05 RMK AO2 UPB1059E06SNE1059 P0000 TSNO
94908KDBQ DBQ20021121053514711/21/02 05:35:31  5-MIN KDBQ 211135Z AUTO 02005KT 6SM -SN BR BKN032 OVC060 02/00 A2982 1170 89 -100 020/05 RMK AO2 UPB1059E06SNE1059B33 P0000 TSNO
94908KDBQ DBQ20021121054015411/21/02 05:40:31  5-MIN KDBQ 211140Z AUTO 35005KT 5SM -SN BR BKN028 BKN037 OVC060 02/00 A2982 1170 89 -100 350/05 RMK AO2 UPB1059E06SNE1059B33 P0000 TSNO
94908KDBQ DBQ20021121054514711/21/02 05:45:31  5-MIN KDBQ 211145Z AUTO 35005KT 5SM -SN BR BKN022 OVC060 02/00 A2982 1170 89 -100 350/05 RMK AO2 UPB1059E06SNE1059B33 P0000 TSNO
94908KDBQ DBQ20021121055017811/21/02 05:50:31  5-MIN KDBQ 211150Z 35006KT 3SM -SN BR BKN020 OVC026 01/00 A2982 1170 92 -100 350/06 RMK AO2 UPB1059E06SNE1059B33 SLP107 P0000 60000 T00110000 10039 20011 56016
94908KDBQ DBQ20021121055517811/21/02 05:55:31  5-MIN KDBQ 211155Z 35005KT 3SM -SN BR BKN018 OVC024 01/00 A2982 1170 92 -100 350/05 RMK AO2 UPB1059E06SNE1059B33 SLP107 P0000 60000 T00110000 10039 20011 55006
94908KDBQ DBQ20021121060011611/21/02 06:00:31  5-MIN KDBQ 211200Z 34005KT 3SM -SN BR BKN018 OVC055 01/01 A2982 1170 96 -100 340/05 RMK AO2 P0000
94908KDBQ DBQ20021121060512311/21/02 06:05:31  5-MIN KDBQ 211205Z 35005KT 3SM -SN BR BKN018 BKN024 OVC050 01/01 A2982 1170 96 -100 350/05 RMK AO2 P0000
94908KDBQ DBQ20021121061011611/21/02 06:10:31  5-MIN KDBQ 211210Z 36005KT 3SM -SN BR SCT016 OVC050 01/01 A2982 1170 96 -100 360/05 RMK AO2 P0000
94908KDBQ DBQ20021121061512311/21/02 06:15:31  5-MIN KDBQ 211215Z 36006KT 4SM -SN BR FEW018 SCT023 OVC050 01/01 A2982 1170 96 -100 360/06 RMK AO2 P0000
94908KDBQ DBQ20021121062011611/21/02 06:20:31  5-MIN KDBQ 211220Z 36006KT 4SM -SN BR FEW024 OVC050 01/01 A2982 1170 96 -100 360/06 RMK AO2 P0000
94908KDBQ DBQ20021121062511811/21/02 06:25:31  5-MIN KDBQ 211225Z 36007KT 4SM BR FEW022 OVC050 01/01 A2982 1170 96 -100 360/07 RMK AO2 SNE22 P0000
94908KDBQ DBQ20021121063011611/21/02 06:30:31  5-MIN KDBQ 211230Z 36006KT 3SM -SN BR SCT018 OVC050 01/01 A2982 1170 96 -100 360/06 RMK AO2 P0000
94908KDBQ DBQ20021121063511611/21/02 06:35:31  5-MIN KDBQ 211235Z 35006KT 3SM -SN BR BKN018 OVC050 01/01 A2983 1170 96 -200 350/06 RMK AO2 P0000
94908KDBQ DBQ20021121064011611/21/02 06:40:31  5-MIN KDBQ 211240Z 35006KT 3SM -SN BR BKN016 OVC050 01/01 A2983 1170 96 -200 350/06 RMK AO2 P0001
94908KDBQ DBQ20021121064511711/21/02 06:45:31  5-MIN KDBQ 211245Z 36005KT 2SM -SN BR BKN014 OVC048 01/01 A2983 1170 100 -200 360/05 RMK AO2 P0001
94908KDBQ DBQ20021121065014111/21/02 06:50:31  5-MIN KDBQ 211250Z 36004KT 2SM -SN BR BKN014 BKN021 OVC046 01/01 A2983 1160 100 -200 360/04 RMK AO2 SLP109 P0001 T00060006
94908KDBQ DBQ20021121065514111/21/02 06:55:31  5-MIN KDBQ 211255Z 35005KT 3SM -SN BR BKN014 BKN021 OVC060 01/01 A2983 1160 100 -200 350/05 RMK AO2 SLP109 P0001 T00060006
94908KDBQ DBQ20021121070012411/21/02 07:00:31  5-MIN KDBQ 211300Z 35004KT 3SM -SN BR SCT014 BKN021 OVC060 01/01 A2983 1160 100 -200 350/04 RMK AO2 P0000
94908KDBQ DBQ20021121070512111/21/02 07:05:31  5-MIN KDBQ 211305Z 34006KT 2 1/2SM -SN BR FEW010 OVC021 01/01 A2983 1160 100 -200 340/06 RMK AO2 P0000
94908KDBQ DBQ20021121071012811/21/02 07:10:31  5-MIN KDBQ 211310Z 33006KT 2 1/2SM -SN BR FEW013 BKN021 OVC060 01/01 A2983 1160 100 -200 330/06 RMK AO2 P0000
94908KDBQ DBQ20021121071512411/21/02 07:15:31  5-MIN KDBQ 211315Z 34006KT 2SM -SN BR BKN021 BKN027 OVC055 01/01 A2983 1160 100 -200 340/06 RMK AO2 P0000
94908KDBQ DBQ20021121072012111/21/02 07:20:31  5-MIN KDBQ 211320Z 34007KT 1 3/4SM -SN BR BKN023 OVC050 01/01 A2983 1160 100 -200 340/07 RMK AO2 P0000
94908KDBQ DBQ20021121072512811/21/02 07:25:31  5-MIN KDBQ 211325Z 34007KT 1 1/2SM -SN BR FEW016 BKN023 OVC050 01/01 A2984 1160 100 -200 340/07 RMK AO2 P0000
94908KDBQ DBQ20021121073012811/21/02 07:30:31  5-MIN KDBQ 211330Z 34008KT 1 1/4SM -SN BR BKN014 BKN023 OVC050 01/01 A2984 1160 100 -200 340/08 RMK AO2 P0000
94908KDBQ DBQ20021121073512811/21/02 07:35:31  5-MIN KDBQ 211335Z 34008KT 1 1/4SM -SN BR BKN014 BKN025 OVC050 01/01 A2984 1150 100 -200 340/08 RMK AO2 P0001
94908KDBQ DBQ20021121074012811/21/02 07:40:31  5-MIN KDBQ 211340Z 34008KT 1 1/4SM -SN BR BKN012 BKN025 OVC050 01/01 A2984 1150 100 -200 340/08 RMK AO2 P0001
94908KDBQ DBQ20021121074512411/21/02 07:45:31  5-MIN KDBQ 211345Z 34008KT 1SM -SN BR FEW007 BKN012 OVC050 01/01 A2984 1160 100 -200 340/08 RMK AO2 P0001
94908KDBQ DBQ20021121075013411/21/02 07:50:31  5-MIN KDBQ 211350Z 34008KT 1SM -SN BR SCT005 OVC012 01/01 A2984 1160 100 -200 340/08 RMK AO2 SLP112 P0001 T00060006
94908KDBQ DBQ20021121075513611/21/02 07:55:31  5-MIN KDBQ 211355Z 34009KT 3/4SM -SN BR BKN005 OVC012 01/01 A2984 1160 100 -200 340/09 RMK AO2 SLP112 P0001 T00060006
94908KDBQ DBQ20021121080011811/21/02 08:00:31  5-MIN KDBQ 211400Z 35009KT 1/2SM SN FG BKN005 OVC010 01/01 A2984 1150 100 -200 350/09 RMK AO2 P0000
94908KDBQ DBQ20021121080511811/21/02 08:05:31  5-MIN KDBQ 211405Z 34008KT 1/2SM SN FG BKN005 OVC010 01/01 A2984 1150 100 -200 340/08 RMK AO2 P0000
94908KDBQ DBQ20021121081011111/21/02 08:10:31  5-MIN KDBQ 211410Z 35009KT 1/2SM SN FG OVC003 01/01 A2984 1150 100 -200 340/09 RMK AO2 P0000
94908KDBQ DBQ20021121081511211/21/02 08:15:31  5-MIN KDBQ 211415Z 35008KT 3/4SM -SN BR OVC003 01/01 A2984 1150 100 -200 350/08 RMK AO2 P0000
94908KDBQ DBQ20021121082012411/21/02 08:20:31  5-MIN KDBQ 211420Z 34009KT 3/4SM -SN BR OVC003 01/01 A2984 1150 100 -200 340/09 RMK AO2 CIG 001V005 P0000
94908KDBQ DBQ20021121082511211/21/02 08:25:31  5-MIN KDBQ 211425Z 34008KT 3/4SM -SN BR OVC003 01/01 A2984 1150 100 -200 340/08 RMK AO2 P0000
94908KDBQ DBQ20021121083011011/21/02 08:30:31  5-MIN KDBQ 211430Z 34009KT 1SM -SN BR OVC003 01/01 A2984 1150 100 -200 340/09 RMK AO2 P0000
94908KDBQ DBQ20021121083511011/21/02 08:35:31  5-MIN KDBQ 211435Z 34009KT 1SM -SN BR OVC003 01/01 A2984 1150 100 -200 340/09 RMK AO2 P0000
94908KDBQ DBQ20021121084011411/21/02 08:40:31  5-MIN KDBQ 211440Z 34010KT 1 1/4SM -SN BR OVC003 01/01 A2984 1150 100 -200 340/10 RMK AO2 P0000
94908KDBQ DBQ20021121084512611/21/02 08:45:31  5-MIN KDBQ 211445Z 35008KT 1 1/4SM -SN BR OVC003 01/01 A2984 1150 100 -200 350/08 RMK AO2 CIG 001V006 P0000
94908KDBQ DBQ20021121085014311/21/02 08:50:31  5-MIN KDBQ 211450Z 35010KT 1 1/2SM -SN BR OVC003 01/01 A2984 1150 100 -200 350/10 RMK AO2 SLP114 P0000 60002 T00060006 55006
94908KDBQ DBQ20021121085515511/21/02 08:55:31  5-MIN KDBQ 211455Z 36009KT 1 3/4SM -SN BR OVC003 01/01 A2984 1150 100 -200 360/09 RMK AO2 CIG 001V006 SLP114 P0000 60002 T00060006 53006
94908KDBQ DBQ20021121090012211/21/02 09:00:31  5-MIN KDBQ 211500Z 36009KT 2SM -SN BR OVC003 01/01 A2984 1150 100 -200 360/09 RMK AO2 CIG 001V006 P0000
94908KDBQ DBQ20021121090512811/21/02 09:05:31  5-MIN KDBQ 211505Z 36008KT 2 1/2SM BR OVC003 01/01 A2985 1150 100 -200 360/08 RMK AO2 SNE02 CIG 002V007 P0000
94908KDBQ DBQ20021121091013011/21/02 09:10:31  5-MIN KDBQ 211510Z 36012G17KT 3SM BR OVC003 01/01 A2985 1150 100 -200 360/12G17 RMK AO2 SNE02 CIG 002V008 P0000
94908KDBQ DBQ20021121091514411/21/02 09:15:31  5-MIN KDBQ 211515Z 36014G17KT 4SM BR BKN003 BKN008 OVC012 01/01 A2985 1150 100 -200 360/14G17 RMK AO2 SNE02 CIG 002V006 P0000
94908KDBQ DBQ20021121092013011/21/02 09:20:31  5-MIN KDBQ 211520Z 36011KT 5SM BR BKN005 OVC012 01/01 A2985 1150 96 -200 350/11 RMK AO2 SNE02 CIG 003V008 P0000
94908KDBQ DBQ20021121092512311/21/02 09:25:31  5-MIN KDBQ 211525Z 01011KT 5SM BR OVC005 01/01 A2985 1140 96 -200 360/11 RMK AO2 SNE02 CIG 003V009 P0000
94908KDBQ DBQ20021121093012311/21/02 09:30:31  5-MIN KDBQ 211530Z 36011KT 5SM BR OVC005 01/01 A2985 1140 96 -200 360/11 RMK AO2 SNE02 CIG 003V009 P0000
94908KDBQ DBQ20021121093513811/21/02 09:35:31  5-MIN KDBQ 211535Z 35009KT 5SM -SN BR BKN007 OVC012 01/01 A2985 1140 100 -200 350/09 RMK AO2 SNE02B35 CIG 004V009 P0000
94908KDBQ DBQ20021121094014411/21/02 09:40:31  5-MIN KDBQ 211540Z 36012G21KT 4SM -SN BR BKN007 OVC012 01/01 A2986 1140 100 -200 360/12G21 RMK AO2 SNE02B35 CIG 004V009 P0000
94908KDBQ DBQ20021121094514311/21/02 09:45:31  5-MIN KDBQ 211545Z 35012G21KT 3SM -SN BR BKN007 OVC014 01/01 A2986 1140 96 -200 350/12G21 RMK AO2 SNE02B35 CIG 004V010 P0000
94908KDBQ DBQ20021121095014711/21/02 09:50:31  5-MIN KDBQ 211550Z 36010KT 3SM -SN BR OVC007 01/01 A2986 1130 96 -200 360/10 RMK AO2 SNE02B35 CIG 005V011 SLP120 P0000 T00110006
94908KDBQ DBQ20021121095515511/21/02 09:55:31  5-MIN KDBQ 211555Z 36014KT 3SM -SN BR BKN007 OVC014 01/01 A2986 1130 100 -200 360/14 RMK AO2 SNE02B35 CIG 005V011 SLP121 P0000 T00110011
94908KDBQ DBQ20021121100012811/21/02 10:00:31  5-MIN KDBQ 211600Z 36011KT 4SM -SN BR BKN007 OVC014 02/01 A2986 1130 96 -100 350/11 RMK AO2 CIG 005V010 P0000
94908KDBQ DBQ20021121100512311/21/02 10:05:31  5-MIN KDBQ 211605Z 36012KT 4SM BR OVC007 01/01 A2987 1130 96 -200 350/12 RMK AO2 SNE02 CIG 005V012 P0000
94908KDBQ DBQ20021121101013011/21/02 10:10:31  5-MIN KDBQ 211610Z 36013KT 6SM BR BKN007 OVC013 01/01 A2987 1130 96 -200 360/13 RMK AO2 SNE02 CIG 005V009 P0000
94908KDBQ DBQ20021121101513311/21/02 10:15:31  5-MIN KDBQ 211615Z 01014G19KT 7SM BKN007 OVC013 01/01 A2987 1130 96 -200 360/14G19 RMK AO2 SNE02 CIG 005V009 P0000
94908KDBQ DBQ20021121102014011/21/02 10:20:31  5-MIN KDBQ 211620Z 36011G19KT 7SM BKN007 BKN015 OVC027 02/01 A2987 1120 92 -100 360/11G19 RMK AO2 SNE02 CIG 006V012 P0000
94908KDBQ DBQ20021121102513411/21/02 10:25:31  5-MIN KDBQ 211625Z 36011KT 8SM BKN009 BKN015 OVC027 02/01 A2987 1120 92 -100 360/11 RMK AO2 SNE02 CIG 006V011 P0000
94908KDBQ DBQ20021121103012811/21/02 10:30:31  5-MIN KDBQ 211630Z 01012G19KT 8SM BKN009 BKN013 OVC027 02/01 A2987 1120 92 -100 360/12G19 RMK AO2 SNE02 P0000
94908KDBQ DBQ20021121103512811/21/02 10:35:31  5-MIN KDBQ 211635Z 01012G19KT 9SM SCT009 BKN016 OVC027 02/01 A2987 1120 92 -100 010/12G19 RMK AO2 SNE02 P0000
94908KDBQ DBQ20021121104012211/21/02 10:40:31  5-MIN KDBQ 211640Z 01014KT 9SM FEW009 BKN016 OVC027 02/01 A2987 1120 92 -100 010/14 RMK AO2 SNE02 P0000
94908KDBQ DBQ20021121104512811/21/02 10:45:31  5-MIN KDBQ 211645Z 35014G18KT 9SM BKN011 BKN017 OVC027 01/00 A2988 1120 92 -200 350/14G18 RMK AO2 SNE02 P0000
94908KDBQ DBQ20021121105014411/21/02 10:50:31  5-MIN KDBQ 211650Z 35012KT 9SM BKN011 OVC017 01/00 A2988 1120 92 -200 350/12 RMK AO2 SNE02 CIG 008V013 SLP126 P0000 T00110000
94908KDBQ DBQ20021121105513211/21/02 10:55:31  5-MIN KDBQ 211655Z 35011KT 9SM BKN010 OVC017 01/00 A2988 1120 92 -200 350/11 RMK AO2 SNE02 SLP127 P0000 T00110000
94908KDBQ DBQ20021121110010311/21/02 11:00:31  5-MIN KDBQ 211700Z 36014KT 9SM SCT010 OVC015 01/00 A2988 1120 92 -200 360/14 RMK AO2
94908KDBQ DBQ20021121110511011/21/02 11:05:31  5-MIN KDBQ 211705Z 36015G19KT 10SM SCT010 OVC014 01/00 A2988 1120 92 -200 360/15G19 RMK AO2
94908KDBQ DBQ20021121111010511/21/02 11:10:31  5-MIN KDBQ 211710Z 36014KT 10SM SCT010 OVC014 01/M01 A2988 1120 89 -200 360/14 RMK AO2
94908KDBQ DBQ20021121111509811/21/02 11:15:31  5-MIN KDBQ 211715Z 36012KT 10SM OVC014 01/M01 A2988 1120 89 -200 350/12 RMK AO2
94908KDBQ DBQ20021121112011111/21/02 11:20:31  5-MIN KDBQ 211720Z 36014G18KT 10SM FEW010 OVC014 01/M01 A2988 1120 89 -200 360/14G18 RMK AO2
94908KDBQ DBQ20021121112511111/21/02 11:25:31  5-MIN KDBQ 211725Z 36011G18KT 10SM BKN014 OVC021 01/M01 A2988 1120 89 -200 360/11G18 RMK AO2
94908KDBQ DBQ20021121113011211/21/02 11:30:31  5-MIN KDBQ 211730Z 36014KT 10SM BKN014 BKN021 OVC032 02/M01 A2988 1110 85 -100 360/14 RMK AO2
94908KDBQ DBQ20021121113511811/21/02 11:35:31  5-MIN KDBQ 211735Z 36015G20KT 10SM BKN014 BKN021 OVC034 02/M01 A2988 1110 85 -100 360/15G20 RMK AO2
94908KDBQ DBQ20021121114011811/21/02 11:40:31  5-MIN KDBQ 211740Z 36016G24KT 10SM BKN014 BKN021 OVC034 02/M01 A2988 1110 85 -100 360/16G24 RMK AO2
94908KDBQ DBQ20021121114511811/21/02 11:45:31  5-MIN KDBQ 211745Z 36014G24KT 10SM SCT014 BKN019 OVC036 02/M01 A2988 1120 85 -100 360/14G24 RMK AO2
94908KDBQ DBQ20021121115014611/21/02 11:50:31  5-MIN KDBQ 211750Z 01013KT 10SM BKN017 OVC036 02/M01 A2988 1120 82 -100 010/13 RMK AO2 SLP127 60002 T00221006 10022 20006 53006
94908KDBQ DBQ20021121115514611/21/02 11:55:31  5-MIN KDBQ 211755Z 35014KT 10SM SCT017 OVC034 02/M01 A2988 1110 85 -100 350/14 RMK AO2 SLP128 60002 T00171006 10022 20006 51013
94908KDBQ DBQ20021121120011711/21/02 12:00:31  5-MIN KDBQ 211800Z 34014G19KT 10SM SCT017 BKN023 OVC034 02/00 A2988 1110 89 -200 340/14G19 RMK AO2
94908KDBQ DBQ20021121120511811/21/02 12:05:31  5-MIN KDBQ 211805Z 36015G20KT 10SM SCT015 BKN022 OVC034 02/M01 A2988 1110 85 -200 350/15G20 RMK AO2
94908KDBQ DBQ20021121121011811/21/02 12:10:31  5-MIN KDBQ 211810Z 35015G20KT 10SM SCT015 BKN022 OVC034 02/M01 A2988 1110 85 -100 350/15G20 RMK AO2
94908KDBQ DBQ20021121121511211/21/02 12:15:31  5-MIN KDBQ 211815Z 35016KT 10SM FEW015 SCT022 OVC034 02/M01 A2989 1110 82 -100 350/16 RMK AO2
94908KDBQ DBQ20021121122011211/21/02 12:20:31  5-MIN KDBQ 211820Z 35014KT 10SM SCT018 SCT024 OVC034 02/M01 A2989 1110 82 -100 350/14 RMK AO2
94908KDBQ DBQ20021121122511511/21/02 12:25:31  5-MIN KDBQ 211825Z 36015G19KT 10SM SCT018 BKN024 BKN034 03/M01 A2989 1110 79 0 360/15G19 RMK AO2
94908KDBQ DBQ20021121123010911/21/02 12:30:31  5-MIN KDBQ 211830Z 35016KT 10SM FEW016 SCT020 BKN035 03/M01 A2989 1110 76 0 350/16 RMK AO2
94908KDBQ DBQ20021121123512611/21/02 12:35:31  5-MIN KDBQ 211835Z 01022G28KT 10SM FEW020 BKN035 03/M02 A2989 1110 72 0 010/22G28 RMK AO2 PK WND 02028/1834
94908KDBQ DBQ20021121124012911/21/02 12:40:31  5-MIN KDBQ 211840Z 01018G28KT 10SM FEW020 BKN035 02/M02 A2989 1110 72 -100 360/18G28 RMK AO2 PK WND 02028/1834
94908KDBQ DBQ20021121124512911/21/02 12:45:31  5-MIN KDBQ 211845Z 36021G27KT 10SM FEW020 BKN035 02/M03 A2990 1100 69 -100 360/21G27 RMK AO2 PK WND 02028/1834
94908KDBQ DBQ20021121125015011/21/02 12:50:31  5-MIN KDBQ 211850Z 02022G28KT 10SM FEW022 BKN036 BKN043 03/M03 A2990 1100 67 0 010/22G28 RMK AO2 PK WND 01028/1847 SLP134 T00281028
94908KDBQ DBQ20021121125513911/21/02 12:55:31  5-MIN KDBQ 211855Z 01018G28KT 10SM BKN036 02/M03 A2990 1100 67 -100 010/18G28 RMK AO2 PK WND 01028/1847 SLP134 T00221033
94908KDBQ DBQ20021121130011911/21/02 13:00:31  5-MIN KDBQ 211900Z 01020G27KT 10SM OVC038 03/M03 A2990 1100 64 0 010/20G27 RMK AO2 PK WND 01027/1900
94908KDBQ DBQ20021121130512611/21/02 13:05:31  5-MIN KDBQ 211905Z 01017G27KT 10SM FEW029 OVC039 03/M03 A2990 1100 64 0 010/17G27 RMK AO2 PK WND 01027/1900
94908KDBQ DBQ20021121131012211/21/02 13:10:31  5-MIN KDBQ 211910Z 36013G22KT 10SM OVC036 02/M03 A2991 1090 67 -100 360/13G22 RMK AO2 PK WND 01027/1900
94908KDBQ DBQ20021121131512311/21/02 13:15:31  5-MIN KDBQ 211915Z 36017KT 10SM BKN033 OVC041 02/M03 A2991 1090 67 -100 360/17 RMK AO2 PK WND 01027/1900
94908KDBQ DBQ20021121132012911/21/02 13:20:31  5-MIN KDBQ 211920Z 36018G22KT 10SM BKN031 OVC041 02/M03 A2991 1090 69 -100 360/18G22 RMK AO2 PK WND 01027/1900
94908KDBQ DBQ20021121132512211/21/02 13:25:31  5-MIN KDBQ 211925Z 36016G23KT 10SM OVC031 02/M03 A2991 1080 69 -100 360/16G23 RMK AO2 PK WND 01027/1900
94908KDBQ DBQ20021121133012211/21/02 13:30:31  5-MIN KDBQ 211930Z 36014G23KT 10SM OVC033 02/M03 A2992 1080 69 -100 360/14G23 RMK AO2 PK WND 01027/1900
94908KDBQ DBQ20021121133512911/21/02 13:35:31  5-MIN KDBQ 211935Z 36013G21KT 10SM BKN031 OVC040 02/M03 A2992 1080 69 -100 350/13G21 RMK AO2 PK WND 01027/1900
94908KDBQ DBQ20021121134012311/21/02 13:40:31  5-MIN KDBQ 211940Z 36012KT 10SM SCT031 OVC042 03/M02 A2992 1080 69 -100 360/12 RMK AO2 PK WND 01027/1900
94908KDBQ DBQ20021121134512611/21/02 13:45:31  5-MIN KDBQ 211945Z 35016G19KT 10SM SCT031 BKN042 03/M02 A2992 1080 69 0 350/16G19 RMK AO2 PK WND 01027/1900
94908KDBQ DBQ20021121135013611/21/02 13:50:31  5-MIN KDBQ 211950Z 36014G22KT 10SM BKN039 03/M02 A2992 1080 67 0 360/14G22 RMK AO2 PK WND 01027/1900 SLP140 T00331022
94908KDBQ DBQ20021121135513911/21/02 13:55:31  5-MIN KDBQ 211955Z 36016G22KT 10SM OVC041 03/M02 A2992 1080 69 -100 360/16G22 RMK AO2 PK WND 01027/1900 SLP142 T00281022
94908KDBQ DBQ20021121140010411/21/02 14:00:31  5-MIN KDBQ 212000Z 35014G20KT 10SM OVC041 03/M02 A2992 1070 69 -100 350/14G20 RMK AO2
94908KDBQ DBQ20021121140510411/21/02 14:05:31  5-MIN KDBQ 212005Z 36016G21KT 10SM OVC041 03/M03 A2992 1080 67 -100 360/16G21 RMK AO2
94908KDBQ DBQ20021121141011111/21/02 14:10:31  5-MIN KDBQ 212010Z 36014G21KT 10SM BKN041 OVC050 03/M03 A2992 1080 64 -100 360/14G21 RMK AO2
94908KDBQ DBQ20021121141509511/21/02 14:15:31  5-MIN KDBQ 212015Z 36015KT 10SM OVC041 03/M03 A2993 1070 64 0 360/15 RMK AO2
94908KDBQ DBQ20021121142010211/21/02 14:20:31  5-MIN KDBQ 212020Z 36015KT 10SM BKN041 BKN050 03/M03 A2993 1070 64 0 360/15 RMK AO2
94908KDBQ DBQ20021121142510211/21/02 14:25:31  5-MIN KDBQ 212025Z 36014KT 10SM SCT037 BKN046 03/M03 A2993 1070 64 0 360/14 RMK AO2
94908KDBQ DBQ20021121143010211/21/02 14:30:31  5-MIN KDBQ 212030Z 35016KT 10SM BKN037 OVC046 03/M03 A2993 1070 64 0 350/16 RMK AO2
94908KDBQ DBQ20021121143511111/21/02 14:35:31  5-MIN KDBQ 212035Z 35019G23KT 10SM SCT037 OVC048 03/M03 A2993 1070 67 -100 350/19G23 RMK AO2
94908KDBQ DBQ20021121144010811/21/02 14:40:31  5-MIN KDBQ 212040Z 36017G23KT 10SM SCT037 OVC050 03/M03 A2994 1060 61 0 360/17G23 RMK AO2
94908KDBQ DBQ20021121144510811/21/02 14:45:31  5-MIN KDBQ 212045Z 35013G23KT 10SM FEW037 OVC050 03/M03 A2994 1060 61 0 350/13G23 RMK AO2
94908KDBQ DBQ20021121145013111/21/02 14:50:31  5-MIN KDBQ 212050Z 34016G22KT 10SM FEW037 OVC047 03/M03 A2994 1060 61 0 340/16G22 RMK AO2 SLP149 T00331033 51013
94908KDBQ DBQ20021121145513411/21/02 14:55:31  5-MIN KDBQ 212055Z 34020G24KT 10SM BKN042 OVC050 03/M03 A2995 1050 67 -100 340/20G24 RMK AO2 SLP152 T00281028 53022
94908KDBQ DBQ20021121150010411/21/02 15:00:31  5-MIN KDBQ 212100Z 33018G24KT 10SM OVC046 03/M02 A2995 1050 69 -100 330/18G24 RMK AO2
94908KDBQ DBQ20021121150510411/21/02 15:05:31  5-MIN KDBQ 212105Z 34016G24KT 10SM OVC046 03/M02 A2995 1050 69 -100 340/16G24 RMK AO2
94908KDBQ DBQ20021121151010411/21/02 15:10:31  5-MIN KDBQ 212110Z 34014G21KT 10SM OVC048 03/M02 A2996 1040 69 -100 340/14G21 RMK AO2
94908KDBQ DBQ20021121151509811/21/02 15:15:31  5-MIN KDBQ 212115Z 34015KT 10SM OVC048 03/M02 A2996 1040 69 -100 340/15 RMK AO2
94908KDBQ DBQ20021121152010411/21/02 15:20:31  5-MIN KDBQ 212120Z 34017G21KT 10SM OVC048 03/M02 A2996 1040 69 -100 340/17G21 RMK AO2
94908KDBQ DBQ20021121152510411/21/02 15:25:31  5-MIN KDBQ 212125Z 34017G22KT 10SM OVC048 03/M03 A2997 1030 67 -100 340/17G22 RMK AO2
94908KDBQ DBQ20021121153011111/21/02 15:30:31  5-MIN KDBQ 212130Z 34016G22KT 10SM FEW030 OVC048 03/M03 A2997 1030 67 -100 330/16G22 RMK AO2
94908KDBQ DBQ20021121153511111/21/02 15:35:31  5-MIN KDBQ 212135Z 34017G21KT 10SM FEW030 OVC048 03/M03 A2997 1030 67 -100 340/17G21 RMK AO2
94908KDBQ DBQ20021121154010411/21/02 15:40:31  5-MIN KDBQ 212140Z 34017G22KT 10SM OVC050 02/M03 A2997 1030 69 -200 340/17G22 RMK AO2
94908KDBQ DBQ20021121154510411/21/02 15:45:31  5-MIN KDBQ 212145Z 35015G22KT 10SM BKN050 02/M03 A2997 1030 67 -200 350/15G22 RMK AO2
94908KDBQ DBQ20021121155011511/21/02 15:50:31  5-MIN KDBQ 212150Z 34013KT 10SM BKN050 02/M03 A2998 1020 69 -200 340/13 RMK AO2 SLP162 T00221028
94908KDBQ DBQ20021121155511511/21/02 15:55:31  5-MIN KDBQ 212155Z 34012KT 10SM BKN050 02/M03 A2998 1020 69 -200 340/12 RMK AO2 SLP163 T00221028
94908KDBQ DBQ20021121160009811/21/02 16:00:31  5-MIN KDBQ 212200Z 34012KT 10SM OVC050 02/M03 A2999 1020 69 -200 340/12 RMK AO2
94908KDBQ DBQ20021121160510411/21/02 16:05:31  5-MIN KDBQ 212205Z 33016G20KT 10SM OVC050 02/M03 A2999 1010 69 -200 330/16G20 RMK AO2
94908KDBQ DBQ20021121161010411/21/02 16:10:31  5-MIN KDBQ 212210Z 34017G20KT 10SM OVC050 02/M03 A2999 1010 67 -200 340/17G20 RMK AO2
94908KDBQ DBQ20021121161509811/21/02 16:15:31  5-MIN KDBQ 212215Z 34014KT 10SM OVC050 02/M03 A2999 1010 67 -200 340/14 RMK AO2
94908KDBQ DBQ20021121162009811/21/02 16:20:31  5-MIN KDBQ 212220Z 34015KT 10SM OVC050 02/M03 A2999 1010 67 -200 340/15 RMK AO2
94908KDBQ DBQ20021121162509811/21/02 16:25:31  5-MIN KDBQ 212225Z 34011KT 10SM OVC050 02/M03 A3000 1010 69 -200 340/11 RMK AO2
94908KDBQ DBQ20021121163009811/21/02 16:30:31  5-MIN KDBQ 212230Z 34015KT 10SM OVC050 02/M03 A3000 1010 69 -200 340/15 RMK AO2
94908KDBQ DBQ20021121163509811/21/02 16:35:31  5-MIN KDBQ 212235Z 33013KT 10SM OVC050 02/M03 A3000 1000 69 -200 330/13 RMK AO2
94908KDBQ DBQ20021121164009811/21/02 16:40:31  5-MIN KDBQ 212240Z 33012KT 10SM OVC050 02/M03 A3000 1000 69 -200 330/12 RMK AO2
94908KDBQ DBQ20021121164509811/21/02 16:45:31  5-MIN KDBQ 212245Z 34014KT 10SM OVC050 02/M03 A3001 1000 69 -200 340/14 RMK AO2
94908KDBQ DBQ20021121165011511/21/02 16:50:31  5-MIN KDBQ 212250Z 34012KT 10SM OVC050 02/M03 A3001 1000 69 -200 340/12 RMK AO2 SLP171 T00221028
94908KDBQ DBQ20021121165511511/21/02 16:55:31  5-MIN KDBQ 212255Z 33012KT 10SM OVC050 02/M03 A3001 1000 69 -200 330/12 RMK AO2 SLP171 T00221028
94908KDBQ DBQ20021121170009811/21/02 17:00:31  5-MIN KDBQ 212300Z 33011KT 10SM OVC050 02/M03 A3001 1000 69 -200 330/11 RMK AO2
94908KDBQ DBQ20021121170509811/21/02 17:05:31  5-MIN KDBQ 212305Z 33011KT 10SM OVC050 02/M03 A3001 1000 69 -200 330/11 RMK AO2
94908KDBQ DBQ20021121171009811/21/02 17:10:31  5-MIN KDBQ 212310Z 33010KT 10SM OVC055 02/M03 A3001 1000 69 -200 330/10 RMK AO2
94908KDBQ DBQ20021121171509811/21/02 17:15:31  5-MIN KDBQ 212315Z 33011KT 10SM OVC055 02/M03 A3001 1000 72 -300 330/11 RMK AO2
94908KDBQ DBQ20021121172009811/21/02 17:20:31  5-MIN KDBQ 212320Z 33014KT 10SM OVC055 02/M03 A3001 1000 69 -200 330/14 RMK AO2
94908KDBQ DBQ20021121172509711/21/02 17:25:31  5-MIN KDBQ 212325Z 33014KT 10SM OVC050 02/M03 A3001 990 69 -200 330/14 RMK AO2
94908KDBQ DBQ20021121173009711/21/02 17:30:31  5-MIN KDBQ 212330Z 34014KT 10SM OVC050 02/M03 A3001 990 69 -200 330/14 RMK AO2
94908KDBQ DBQ20021121173509711/21/02 17:35:31  5-MIN KDBQ 212335Z 33013KT 10SM OVC050 02/M03 A3001 990 69 -200 330/13 RMK AO2
94908KDBQ DBQ20021121174009711/21/02 17:40:31  5-MIN KDBQ 212340Z 33014KT 10SM OVC050 02/M03 A3001 990 69 -200 330/14 RMK AO2
94908KDBQ DBQ20021121174509711/21/02 17:45:31  5-MIN KDBQ 212345Z 33012KT 10SM OVC050 02/M03 A3001 990 69 -200 330/12 RMK AO2
94908KDBQ DBQ20021121175013211/21/02 17:50:31  5-MIN KDBQ 212350Z 33013KT 10SM OVC048 02/M03 A3001 990 69 -200 330/13 RMK AO2 SLP175 T00221028 10039 20017 53022
94908KDBQ DBQ20021121175513211/21/02 17:55:31  5-MIN KDBQ 212355Z 33013KT 10SM OVC048 02/M02 A3002 990 72 -200 330/13 RMK AO2 SLP175 T00221022 10039 20017 51022
94908KDBQ DBQ20021121180009711/21/02 18:00:31  5-MIN KDBQ 220000Z 33012KT 10SM OVC046 02/M03 A3002 990 69 -200 330/12 RMK AO2
94908KDBQ DBQ20021121180509711/21/02 18:05:31  5-MIN KDBQ 220005Z 33010KT 10SM OVC046 02/M02 A3002 990 72 -200 330/10 RMK AO2
94908KDBQ DBQ20021121181010411/21/02 18:10:31  5-MIN KDBQ 220010Z 33009KT 10SM FEW030 OVC044 02/M02 A3002 990 72 -200 330/09 RMK AO2
94908KDBQ DBQ20021121181509711/21/02 18:15:31  5-MIN KDBQ 220015Z 33010KT 10SM OVC044 02/M02 A3002 990 72 -200 330/10 RMK AO2
94908KDBQ DBQ20021121182009711/21/02 18:20:31  5-MIN KDBQ 220020Z 33008KT 10SM OVC046 02/M02 A3002 990 72 -200 330/08 RMK AO2
94908KDBQ DBQ20021121182509711/21/02 18:25:31  5-MIN KDBQ 220025Z 32009KT 10SM OVC048 02/M02 A3002 990 72 -200 320/09 RMK AO2
94908KDBQ DBQ20021121183010411/21/02 18:30:31  5-MIN KDBQ 220030Z 32012KT 10SM FEW043 OVC050 02/M02 A3002 990 72 -200 320/12 RMK AO2
94908KDBQ DBQ20021121183510411/21/02 18:35:31  5-MIN KDBQ 220035Z 32010KT 10SM FEW043 OVC050 02/M02 A3002 990 72 -200 320/10 RMK AO2
94908KDBQ DBQ20021121184009711/21/02 18:40:31  5-MIN KDBQ 220040Z 32010KT 10SM OVC050 02/M02 A3002 980 72 -200 320/10 RMK AO2
94908KDBQ DBQ20021121184509711/21/02 18:45:31  5-MIN KDBQ 220045Z 32009KT 10SM OVC050 02/M02 A3002 980 72 -200 320/09 RMK AO2
94908KDBQ DBQ20021121185011411/21/02 18:50:31  5-MIN KDBQ 220050Z 33010KT 10SM OVC050 02/M02 A3002 980 72 -200 330/10 RMK AO2 SLP177 T00221022
94908KDBQ DBQ20021121185511411/21/02 18:55:31  5-MIN KDBQ 220055Z 33010KT 10SM OVC050 02/M02 A3002 990 75 -300 330/10 RMK AO2 SLP176 T00171022
94908KDBQ DBQ20021121190009711/21/02 19:00:31  5-MIN KDBQ 220100Z 32011KT 10SM OVC050 02/M02 A3002 990 72 -200 320/11 RMK AO2
94908KDBQ DBQ20021121190509711/21/02 19:05:31  5-MIN KDBQ 220105Z 32009KT 10SM OVC050 02/M02 A3002 990 72 -200 320/09 RMK AO2
94908KDBQ DBQ20021121191009711/21/02 19:10:31  5-MIN KDBQ 220110Z 33010KT 10SM OVC050 02/M02 A3002 980 75 -200 330/10 RMK AO2
94908KDBQ DBQ20021121191509711/21/02 19:15:31  5-MIN KDBQ 220115Z 33010KT 10SM OVC050 02/M02 A3002 980 75 -200 320/10 RMK AO2
94908KDBQ DBQ20021121192009711/21/02 19:20:31  5-MIN KDBQ 220120Z 33010KT 10SM OVC050 02/M02 A3003 980 75 -200 330/10 RMK AO2
94908KDBQ DBQ20021121192509711/21/02 19:25:31  5-MIN KDBQ 220125Z 33014KT 10SM OVC048 02/M02 A3003 980 75 -200 330/14 RMK AO2
94908KDBQ DBQ20021121193009711/21/02 19:30:31  5-MIN KDBQ 220130Z 34013KT 10SM OVC048 02/M02 A3003 980 75 -200 340/13 RMK AO2
94908KDBQ DBQ20021121193509711/21/02 19:35:31  5-MIN KDBQ 220135Z 33010KT 10SM OVC048 02/M02 A3003 980 75 -200 330/10 RMK AO2
94908KDBQ DBQ20021121194009711/21/02 19:40:31  5-MIN KDBQ 220140Z 33012KT 10SM OVC046 02/M02 A3003 980 75 -200 330/12 RMK AO2
94908KDBQ DBQ20021121194509711/21/02 19:45:31  5-MIN KDBQ 220145Z 34010KT 10SM OVC046 02/M02 A3003 980 75 -200 330/10 RMK AO2
94908KDBQ DBQ20021121195011411/21/02 19:50:31  5-MIN KDBQ 220150Z 33010KT 10SM OVC046 02/M02 A3003 980 75 -200 330/10 RMK AO2 SLP179 T00221017
94908KDBQ DBQ20021121195511911/21/02 19:55:31  5-MIN KDBQ 220155Z AUTO 33010KT 10SM OVC044 02/M02 A3003 980 75 -200 330/10 RMK AO2 SLP179 T00221017
94908KDBQ DBQ20021121200011411/21/02 20:00:31  5-MIN KDBQ 220200Z AUTO 33009KT 10SM FEW026 OVC044 02/M01 A3003 980 78 -200 330/09 RMK AO2 TSNO
94908KDBQ DBQ20021121200512111/21/02 20:05:31  5-MIN KDBQ 220205Z AUTO 32009KT 10SM FEW025 SCT034 OVC044 02/M01 A3003 980 78 -200 320/09 RMK AO2 TSNO
94908KDBQ DBQ20021121201011411/21/02 20:10:31  5-MIN KDBQ 220210Z AUTO 33009KT 10SM FEW025 OVC042 02/M01 A3002 980 78 -200 320/09 RMK AO2 TSNO
94908KDBQ DBQ20021121201511411/21/02 20:15:31  5-MIN KDBQ 220215Z AUTO 33010KT 10SM FEW023 OVC042 02/M01 A3002 980 78 -200 330/10 RMK AO2 TSNO
94908KDBQ DBQ20021121202011411/21/02 20:20:31  5-MIN KDBQ 220220Z AUTO 33010KT 10SM FEW033 OVC044 02/M01 A3003 980 78 -200 330/10 RMK AO2 TSNO
94908KDBQ DBQ20021121202511411/21/02 20:25:31  5-MIN KDBQ 220225Z AUTO 33010KT 10SM FEW024 OVC044 02/M01 A3003 980 78 -200 330/10 RMK AO2 TSNO
94908KDBQ DBQ20021121203011411/21/02 20:30:31  5-MIN KDBQ 220230Z AUTO 34011KT 10SM FEW024 OVC044 02/M02 A3003 980 75 -200 340/11 RMK AO2 TSNO
94908KDBQ DBQ20021121203510711/21/02 20:35:31  5-MIN KDBQ 220235Z AUTO 34012KT 10SM OVC044 02/M02 A3003 980 78 -300 340/12 RMK AO2 TSNO
94908KDBQ DBQ20021121204010711/21/02 20:40:31  5-MIN KDBQ 220240Z AUTO 34011KT 10SM OVC044 02/M02 A3003 980 78 -300 340/11 RMK AO2 TSNO
94908KDBQ DBQ20021121204510711/21/02 20:45:31  5-MIN KDBQ 220245Z AUTO 33011KT 10SM OVC046 02/M02 A3003 980 78 -300 330/11 RMK AO2 TSNO
94908KDBQ DBQ20021121205013011/21/02 20:50:31  5-MIN KDBQ 220250Z AUTO 34010KT 10SM OVC046 02/M02 A3003 980 78 -300 340/10 RMK AO2 SLP180 T00171017 51022 TSNO
94908KDBQ DBQ20021121205513011/21/02 20:55:31  5-MIN KDBQ 220255Z AUTO 33010KT 10SM OVC048 02/M02 A3003 980 78 -300 330/10 RMK AO2 SLP180 T00171017 52005 TSNO
94908KDBQ DBQ20021121210010711/21/02 21:00:31  5-MIN KDBQ 220300Z AUTO 32010KT 10SM OVC048 02/M02 A3003 980 78 -300 320/10 RMK AO2 TSNO
94908KDBQ DBQ20021121210510711/21/02 21:05:31  5-MIN KDBQ 220305Z AUTO 33010KT 10SM OVC048 02/M02 A3003 980 78 -300 320/10 RMK AO2 TSNO
94908KDBQ DBQ20021121211010711/21/02 21:10:31  5-MIN KDBQ 220310Z AUTO 33008KT 10SM OVC050 02/M02 A3003 980 78 -300 320/08 RMK AO2 TSNO
94908KDBQ DBQ20021121211510711/21/02 21:15:31  5-MIN KDBQ 220315Z AUTO 32009KT 10SM OVC050 02/M02 A3003 980 78 -300 320/09 RMK AO2 TSNO
94908KDBQ DBQ20021121212010711/21/02 21:20:31  5-MIN KDBQ 220320Z AUTO 32008KT 10SM OVC050 02/M02 A3003 980 78 -300 320/08 RMK AO2 TSNO
94908KDBQ DBQ20021121212510711/21/02 21:25:31  5-MIN KDBQ 220325Z AUTO 32010KT 10SM OVC050 02/M02 A3003 980 78 -300 320/10 RMK AO2 TSNO
94908KDBQ DBQ20021121213010711/21/02 21:30:31  5-MIN KDBQ 220330Z AUTO 32010KT 10SM OVC050 02/M02 A3003 980 78 -300 320/10 RMK AO2 TSNO
94908KDBQ DBQ20021121213510711/21/02 21:35:31  5-MIN KDBQ 220335Z AUTO 31012KT 10SM OVC048 02/M02 A3003 980 78 -300 310/12 RMK AO2 TSNO
94908KDBQ DBQ20021121214010711/21/02 21:40:31  5-MIN KDBQ 220340Z AUTO 32010KT 10SM OVC048 02/M02 A3003 980 78 -300 320/10 RMK AO2 TSNO
94908KDBQ DBQ20021121214510711/21/02 21:45:31  5-MIN KDBQ 220345Z AUTO 32010KT 10SM OVC048 02/M02 A3002 980 78 -300 320/10 RMK AO2 TSNO
94908KDBQ DBQ20021121215012411/21/02 21:50:31  5-MIN KDBQ 220350Z AUTO 32012KT 10SM OVC048 02/M02 A3002 980 75 -300 320/12 RMK AO2 SLP177 T00171022 TSNO
94908KDBQ DBQ20021121215512411/21/02 21:55:31  5-MIN KDBQ 220355Z AUTO 32012KT 10SM OVC048 02/M02 A3002 990 75 -300 320/12 RMK AO2 SLP176 T00171022 TSNO
94908KDBQ DBQ20021121220010711/21/02 22:00:31  5-MIN KDBQ 220400Z AUTO 32009KT 10SM OVC048 02/M02 A3002 990 75 -300 320/09 RMK AO2 TSNO
94908KDBQ DBQ20021121220510711/21/02 22:05:31  5-MIN KDBQ 220405Z AUTO 32012KT 10SM OVC048 02/M02 A3002 990 75 -300 320/12 RMK AO2 TSNO
94908KDBQ DBQ20021121221010711/21/02 22:10:31  5-MIN KDBQ 220410Z AUTO 32011KT 10SM OVC048 02/M02 A3002 990 75 -300 320/11 RMK AO2 TSNO
94908KDBQ DBQ20021121221510711/21/02 22:15:31  5-MIN KDBQ 220415Z AUTO 32010KT 10SM OVC048 02/M02 A3002 990 75 -300 320/10 RMK AO2 TSNO
94908KDBQ DBQ20021121222010711/21/02 22:20:31  5-MIN KDBQ 220420Z AUTO 31010KT 10SM OVC050 02/M02 A3002 990 75 -300 310/10 RMK AO2 TSNO
94908KDBQ DBQ20021121222510711/21/02 22:25:31  5-MIN KDBQ 220425Z AUTO 32009KT 10SM OVC050 02/M02 A3002 990 75 -300 320/09 RMK AO2 TSNO
94908KDBQ DBQ20021121223010711/21/02 22:30:31  5-MIN KDBQ 220430Z AUTO 32011KT 10SM OVC050 02/M02 A3002 990 75 -300 320/11 RMK AO2 TSNO
94908KDBQ DBQ20021121223510711/21/02 22:35:31  5-MIN KDBQ 220435Z AUTO 31010KT 10SM OVC050 02/M03 A3002 990 69 -300 310/10 RMK AO2 TSNO
94908KDBQ DBQ20021121224010711/21/02 22:40:31  5-MIN KDBQ 220440Z AUTO 31011KT 10SM OVC050 02/M03 A3002 990 69 -300 310/11 RMK AO2 TSNO
94908KDBQ DBQ20021121224510711/21/02 22:45:31  5-MIN KDBQ 220445Z AUTO 31010KT 10SM OVC050 02/M03 A3002 990 69 -300 310/10 RMK AO2 TSNO
94908KDBQ DBQ20021121225012411/21/02 22:50:31  5-MIN KDBQ 220450Z AUTO 31010KT 10SM OVC050 02/M04 A3002 990 66 -300 310/10 RMK AO2 SLP176 T00171039 TSNO
94908KDBQ DBQ20021121225512411/21/02 22:55:31  5-MIN KDBQ 220455Z AUTO 32011KT 10SM OVC050 02/M04 A3002 990 66 -300 320/11 RMK AO2 SLP177 T00171039 TSNO
94908KDBQ DBQ20021121230010711/21/02 23:00:31  5-MIN KDBQ 220500Z AUTO 32010KT 10SM OVC050 02/M04 A3002 990 66 -300 320/10 RMK AO2 TSNO
94908KDBQ DBQ20021121230510711/21/02 23:05:31  5-MIN KDBQ 220505Z AUTO 32009KT 10SM OVC050 02/M04 A3002 990 64 -300 320/09 RMK AO2 TSNO
94908KDBQ DBQ20021121231010711/21/02 23:10:31  5-MIN KDBQ 220510Z AUTO 32009KT 10SM OVC050 02/M04 A3002 980 66 -300 320/09 RMK AO2 TSNO
94908KDBQ DBQ20021121231510711/21/02 23:15:31  5-MIN KDBQ 220515Z AUTO 32010KT 10SM OVC050 02/M04 A3002 980 66 -300 320/10 RMK AO2 TSNO
94908KDBQ DBQ20021121232010711/21/02 23:20:31  5-MIN KDBQ 220520Z AUTO 32010KT 10SM OVC050 02/M04 A3002 980 66 -300 320/10 RMK AO2 TSNO
94908KDBQ DBQ20021121232510711/21/02 23:25:31  5-MIN KDBQ 220525Z AUTO 32010KT 10SM OVC050 02/M04 A3002 990 64 -300 320/10 RMK AO2 TSNO
94908KDBQ DBQ20021121233010711/21/02 23:30:31  5-MIN KDBQ 220530Z AUTO 32010KT 10SM OVC050 02/M04 A3003 980 64 -300 320/10 RMK AO2 TSNO
94908KDBQ DBQ20021121233511311/21/02 23:35:31  5-MIN KDBQ 220535Z AUTO 32012G18KT 10SM OVC050 02/M04 A3003 980 64 -300 320/12G18 RMK AO2 TSNO
94908KDBQ DBQ20021121234011311/21/02 23:40:31  5-MIN KDBQ 220540Z AUTO 33014G18KT 10SM OVC048 02/M04 A3003 980 64 -300 330/14G18 RMK AO2 TSNO
94908KDBQ DBQ20021121234510711/21/02 23:45:31  5-MIN KDBQ 220545Z AUTO 33010KT 10SM OVC048 02/M04 A3003 980 64 -300 330/10 RMK AO2 TSNO
94908KDBQ DBQ20021121235015211/21/02 23:50:31  5-MIN KDBQ 220550Z AUTO 33012KT 10SM OVC046 02/M04 A3003 980 64 -300 330/12 RMK AO2 SLP178 T00171044 10022 20017 400390006 52005 TSNO
94908KDBQ DBQ20021121235515211/21/02 23:55:31  5-MIN KDBQ 220555Z AUTO 33012KT 10SM OVC044 02/M04 A3003 980 64 -300 330/12 RMK AO2 SLP179 T00171044 10022 20017 400390006 55001 TSNO
94908KDBQ DBQ20021122000010711/22/02 00:00:31  5-MIN KDBQ 220600Z AUTO 34010KT 10SM OVC044 02/M04 A3003 980 64 -300 330/10 RMK AO2 TSNO
94908KDBQ DBQ20021122000510711/22/02 00:05:31  5-MIN KDBQ 220605Z AUTO 34010KT 10SM OVC042 02/M04 A3003 980 64 -300 340/10 RMK AO2 TSNO
94908KDBQ DBQ20021122001010711/22/02 00:10:31  5-MIN KDBQ 220610Z AUTO 34009KT 10SM OVC042 02/M04 A3003 980 64 -300 340/09 RMK AO2 TSNO
94908KDBQ DBQ20021122001510711/22/02 00:15:31  5-MIN KDBQ 220615Z AUTO 36010KT 10SM OVC040 02/M05 A3003 980 61 -300 360/10 RMK AO2 TSNO
94908KDBQ DBQ20021122002010711/22/02 00:20:31  5-MIN KDBQ 220620Z AUTO 34012KT 10SM OVC040 02/M06 A3003 980 59 -300 340/12 RMK AO2 TSNO
94908KDBQ DBQ20021122002510711/22/02 00:25:31  5-MIN KDBQ 220625Z AUTO 34011KT 10SM OVC040 01/M06 A3003 970 61 -400 340/11 RMK AO2 TSNO
94908KDBQ DBQ20021122003010711/22/02 00:30:31  5-MIN KDBQ 220630Z AUTO 35007KT 10SM OVC040 01/M06 A3003 970 61 -400 350/07 RMK AO2 TSNO
94908KDBQ DBQ20021122003510711/22/02 00:35:31  5-MIN KDBQ 220635Z AUTO 35009KT 10SM OVC040 01/M06 A3003 970 61 -400 350/09 RMK AO2 TSNO
94908KDBQ DBQ20021122004010711/22/02 00:40:31  5-MIN KDBQ 220640Z AUTO 35008KT 10SM OVC040 01/M06 A3003 980 61 -400 350/08 RMK AO2 TSNO
94908KDBQ DBQ20021122004510711/22/02 00:45:31  5-MIN KDBQ 220645Z AUTO 34009KT 10SM OVC040 01/M05 A3003 970 64 -400 340/09 RMK AO2 TSNO
94908KDBQ DBQ20021122005012411/22/02 00:50:31  5-MIN KDBQ 220650Z AUTO 34009KT 10SM OVC040 01/M05 A3003 970 64 -400 340/09 RMK AO2 SLP180 T00111050 TSNO
94908KDBQ DBQ20021122005512411/22/02 00:55:31  5-MIN KDBQ 220655Z AUTO 35009KT 10SM OVC040 01/M06 A3003 970 61 -400 350/09 RMK AO2 SLP181 T00111056 TSNO
94908KDBQ DBQ20021122010011311/22/02 01:00:31  5-MIN KDBQ 220700Z AUTO 36009G17KT 10SM OVC040 01/M05 A3003 970 64 -400 350/09G17 RMK AO2 TSNO
94908KDBQ DBQ20021122010511311/22/02 01:05:31  5-MIN KDBQ 220705Z AUTO 36012G18KT 10SM OVC040 01/M06 A3003 970 58 -400 360/12G18 RMK AO2 TSNO
94908KDBQ DBQ20021122011010711/22/02 01:10:31  5-MIN KDBQ 220710Z AUTO 36012KT 10SM OVC040 01/M06 A3003 970 58 -400 360/12 RMK AO2 TSNO
94908KDBQ DBQ20021122011510711/22/02 01:15:31  5-MIN KDBQ 220715Z AUTO 35011KT 10SM OVC040 01/M06 A3003 970 58 -400 350/11 RMK AO2 TSNO
94908KDBQ DBQ20021122012010711/22/02 01:20:31  5-MIN KDBQ 220720Z AUTO 35014KT 10SM OVC040 01/M06 A3004 970 58 -400 350/14 RMK AO2 TSNO
94908KDBQ DBQ20021122012510711/22/02 01:25:31  5-MIN KDBQ 220725Z AUTO 35009KT 10SM OVC040 01/M06 A3004 970 58 -400 350/09 RMK AO2 TSNO
94908KDBQ DBQ20021122013011311/22/02 01:30:31  5-MIN KDBQ 220730Z AUTO 36012G19KT 10SM OVC040 01/M06 A3004 970 58 -400 350/12G19 RMK AO2 TSNO
94908KDBQ DBQ20021122013511311/22/02 01:35:31  5-MIN KDBQ 220735Z AUTO 36012G22KT 10SM OVC040 01/M06 A3004 970 61 -500 350/12G22 RMK AO2 TSNO
94908KDBQ DBQ20021122014011311/22/02 01:40:31  5-MIN KDBQ 220740Z AUTO 35012G22KT 10SM OVC040 01/M07 A3004 970 58 -500 350/12G22 RMK AO2 TSNO
94908KDBQ DBQ20021122014511311/22/02 01:45:31  5-MIN KDBQ 220745Z AUTO 35014G20KT 10SM OVC040 01/M07 A3004 970 56 -500 350/14G20 RMK AO2 TSNO
94908KDBQ DBQ20021122015013011/22/02 01:50:31  5-MIN KDBQ 220750Z AUTO 36013G20KT 10SM OVC040 01/M08 A3004 960 51 -500 360/13G20 RMK AO2 SLP184 T00061083 TSNO
94908KDBQ DBQ20021122015513011/22/02 01:55:31  5-MIN KDBQ 220755Z AUTO 36016G19KT 10SM OVC040 01/M09 A3004 970 49 -500 360/16G19 RMK AO2 SLP184 T00061089 TSNO
94908KDBQ DBQ20021122020010711/22/02 02:00:31  5-MIN KDBQ 220800Z AUTO 36012KT 10SM OVC040 01/M09 A3005 960 49 -500 360/12 RMK AO2 TSNO
94908KDBQ DBQ20021122020510711/22/02 02:05:31  5-MIN KDBQ 220805Z AUTO 01013KT 10SM OVC040 01/M09 A3005 960 49 -500 010/13 RMK AO2 TSNO
94908KDBQ DBQ20021122021010711/22/02 02:10:31  5-MIN KDBQ 220810Z AUTO 36012KT 10SM OVC040 01/M08 A3005 960 51 -500 360/12 RMK AO2 TSNO
94908KDBQ DBQ20021122021510711/22/02 02:15:31  5-MIN KDBQ 220815Z AUTO 36009KT 10SM OVC040 01/M08 A3005 960 51 -500 360/09 RMK AO2 TSNO
94908KDBQ DBQ20021122022010711/22/02 02:20:31  5-MIN KDBQ 220820Z AUTO 35010KT 10SM OVC040 01/M08 A3005 960 51 -500 350/10 RMK AO2 TSNO
94908KDBQ DBQ20021122022510711/22/02 02:25:31  5-MIN KDBQ 220825Z AUTO 36010KT 10SM OVC040 01/M08 A3005 960 54 -500 360/10 RMK AO2 TSNO
94908KDBQ DBQ20021122023010711/22/02 02:30:31  5-MIN KDBQ 220830Z AUTO 35010KT 10SM OVC040 00/M08 A3005 960 56 -600 350/10 RMK AO2 TSNO
94908KDBQ DBQ20021122023510711/22/02 02:35:31  5-MIN KDBQ 220835Z AUTO 36012KT 10SM OVC040 00/M07 A3005 960 58 -600 360/12 RMK AO2 TSNO
94908KDBQ DBQ20021122024010711/22/02 02:40:31  5-MIN KDBQ 220840Z AUTO 36011KT 10SM OVC040 00/M08 A3006 950 56 -600 360/11 RMK AO2 TSNO
94908KDBQ DBQ20021122024510711/22/02 02:45:31  5-MIN KDBQ 220845Z AUTO 36009KT 10SM OVC040 00/M08 A3006 950 56 -600 360/09 RMK AO2 TSNO
94908KDBQ DBQ20021122025013711/22/02 02:50:31  5-MIN KDBQ 220850Z AUTO 01012KT 10SM BKN040 OVC049 00/M08 A3005 950 56 -600 360/12 RMK AO2 SLP188 T00001078 55001 TSNO
94908KDBQ DBQ20021122025513711/22/02 02:55:31  5-MIN KDBQ 220855Z AUTO 36010KT 10SM BKN040 OVC049 00/M08 A3006 950 56 -600 360/10 RMK AO2 SLP189 T00001078 53009 TSNO
94908KDBQ DBQ20021122030011411/22/02 03:00:31  5-MIN KDBQ 220900Z AUTO 36012KT 10SM SCT040 OVC049 00/M08 A3006 950 56 -600 360/12 RMK AO2 TSNO
94908KDBQ DBQ20021122030512111/22/02 03:05:31  5-MIN KDBQ 220905Z AUTO 36011G17KT 10SM FEW040 OVC049 M01/M08 A3006 950 58 -600 360/11G17 RMK AO2 TSNO
94908KDBQ DBQ20021122031011411/22/02 03:10:31  5-MIN KDBQ 220910Z AUTO 36011G17KT 10SM OVC049 M01/M08 A3006 950 58 -600 360/11G17 RMK AO2 TSNO
94908KDBQ DBQ20021122031511411/22/02 03:15:31  5-MIN KDBQ 220915Z AUTO 36015G20KT 10SM OVC049 M01/M08 A3006 950 58 -600 360/15G20 RMK AO2 TSNO
94908KDBQ DBQ20021122032011411/22/02 03:20:31  5-MIN KDBQ 220920Z AUTO 36012G20KT 10SM OVC049 M01/M08 A3006 950 58 -600 360/12G20 RMK AO2 TSNO
94908KDBQ DBQ20021122032510811/22/02 03:25:31  5-MIN KDBQ 220925Z AUTO 36011KT 10SM OVC049 M01/M08 A3006 950 58 -600 360/11 RMK AO2 TSNO
94908KDBQ DBQ20021122033010811/22/02 03:30:31  5-MIN KDBQ 220930Z AUTO 36010KT 10SM OVC049 M01/M07 A3006 950 63 -700 360/10 RMK AO2 TSNO
94908KDBQ DBQ20021122033510811/22/02 03:35:31  5-MIN KDBQ 220935Z AUTO 36009KT 10SM OVC049 M01/M07 A3006 950 63 -700 360/09 RMK AO2 TSNO
94908KDBQ DBQ20021122034010811/22/02 03:40:31  5-MIN KDBQ 220940Z AUTO 36010KT 10SM OVC049 M01/M07 A3007 940 63 -700 350/10 RMK AO2 TSNO
94908KDBQ DBQ20021122034510811/22/02 03:45:31  5-MIN KDBQ 220945Z AUTO 01012KT 10SM OVC049 M01/M07 A3007 940 61 -600 010/12 RMK AO2 TSNO
94908KDBQ DBQ20021122035013111/22/02 03:50:31  5-MIN KDBQ 220950Z AUTO 36011G20KT 10SM OVC049 M01/M07 A3007 940 63 -700 360/11G20 RMK AO2 SLP193 T10111072 TSNO
94908KDBQ DBQ20021122035513111/22/02 03:55:31  5-MIN KDBQ 220955Z AUTO 36009G20KT 10SM OVC049 M01/M07 A3007 940 63 -700 350/09G20 RMK AO2 SLP193 T10111072 TSNO
94908KDBQ DBQ20021122040010811/22/02 04:00:31  5-MIN KDBQ 221000Z AUTO 35014KT 10SM OVC049 M01/M07 A3007 940 66 -700 350/14 RMK AO2 TSNO
94908KDBQ DBQ20021122040511411/22/02 04:05:31  5-MIN KDBQ 221005Z AUTO 35014G18KT 10SM OVC047 M01/M07 A3006 940 66 -700 350/14G18 RMK AO2 TSNO
94908KDBQ DBQ20021122041010811/22/02 04:10:31  5-MIN KDBQ 221010Z AUTO 34014KT 10SM OVC047 M01/M07 A3007 940 66 -700 340/14 RMK AO2 TSNO
94908KDBQ DBQ20021122041510811/22/02 04:15:31  5-MIN KDBQ 221015Z AUTO 34012KT 10SM OVC047 M01/M07 A3007 940 66 -700 340/12 RMK AO2 TSNO
94908KDBQ DBQ20021122042010811/22/02 04:20:31  5-MIN KDBQ 221020Z AUTO 34014KT 10SM OVC047 M01/M07 A3007 940 66 -700 340/14 RMK AO2 TSNO
94908KDBQ DBQ20021122042510811/22/02 04:25:31  5-MIN KDBQ 221025Z AUTO 35013KT 10SM BKN047 M01/M07 A3007 940 63 -700 350/13 RMK AO2 TSNO
94908KDBQ DBQ20021122043010811/22/02 04:30:31  5-MIN KDBQ 221030Z AUTO 35011KT 10SM BKN047 M02/M07 A3007 940 69 -800 340/11 RMK AO2 TSNO
94908KDBQ DBQ20021122043510811/22/02 04:35:31  5-MIN KDBQ 221035Z AUTO 34012KT 10SM BKN047 M02/M07 A3007 940 69 -800 340/12 RMK AO2 TSNO
94908KDBQ DBQ20021122044010811/22/02 04:40:31  5-MIN KDBQ 221040Z AUTO 34012KT 10SM BKN047 M02/M07 A3007 940 69 -800 340/12 RMK AO2 TSNO
94908KDBQ DBQ20021122044510811/22/02 04:45:31  5-MIN KDBQ 221045Z AUTO 35009KT 10SM SCT047 M02/M07 A3007 940 72 -900 350/09 RMK AO2 TSNO
94908KDBQ DBQ20021122045012511/22/02 04:50:31  5-MIN KDBQ 221050Z AUTO 35010KT 10SM FEW047 M02/M07 A3008 940 72 -900 350/10 RMK AO2 SLP196 T10221067 TSNO
94908KDBQ DBQ20021122045512511/22/02 04:55:31  5-MIN KDBQ 221055Z AUTO 35009KT 10SM FEW047 M02/M07 A3008 930 72 -900 350/09 RMK AO2 SLP197 T10221067 TSNO
94908KDBQ DBQ20021122050010811/22/02 05:00:31  5-MIN KDBQ 221100Z AUTO 34011KT 10SM FEW047 M02/M07 A3008 930 72 -900 340/11 RMK AO2 TSNO
94908KDBQ DBQ20021122050510811/22/02 05:05:31  5-MIN KDBQ 221105Z AUTO 34009KT 10SM FEW047 M02/M07 A3008 930 72 -900 340/09 RMK AO2 TSNO
94908KDBQ DBQ20021122051010511/22/02 05:10:31  5-MIN KDBQ 221110Z AUTO 34009KT 10SM CLR M02/M07 A3008 930 72 -900 340/09 RMK AO2 TSNO
94908KDBQ DBQ20021122051510511/22/02 05:15:31  5-MIN KDBQ 221115Z AUTO 34009KT 10SM CLR M03/M07 A3008 930 75 -900 340/09 RMK AO2 TSNO
94908KDBQ DBQ20021122052010511/22/02 05:20:31  5-MIN KDBQ 221120Z AUTO 34009KT 10SM CLR M02/M07 A3008 930 72 -900 340/09 RMK AO2 TSNO
94908KDBQ DBQ20021122052510511/22/02 05:25:31  5-MIN KDBQ 221125Z AUTO 34009KT 10SM CLR M03/M07 A3008 930 75 -900 340/09 RMK AO2 TSNO
94908KDBQ DBQ20021122053010511/22/02 05:30:31  5-MIN KDBQ 221130Z AUTO 34009KT 10SM CLR M03/M07 A3008 930 75 -900 340/09 RMK AO2 TSNO
94908KDBQ DBQ20021122053510511/22/02 05:35:31  5-MIN KDBQ 221135Z AUTO 34009KT 10SM CLR M03/M07 A3008 930 75 -900 340/09 RMK AO2 TSNO
94908KDBQ DBQ20021122054010511/22/02 05:40:31  5-MIN KDBQ 221140Z AUTO 35011KT 10SM CLR M03/M07 A3009 920 75 -900 350/11 RMK AO2 TSNO
94908KDBQ DBQ20021122054510511/22/02 05:45:31  5-MIN KDBQ 221145Z AUTO 35010KT 10SM CLR M03/M07 A3009 920 75 -900 340/10 RMK AO2 TSNO
94908KDBQ DBQ20021122055013611/22/02 05:50:31  5-MIN KDBQ 221150Z 35009KT 10SM CLR M03/M07 A3009 920 75 -900 350/09 RMK AO2 SLP202 70002 T10281067 10017 21028 53009
94908KDBQ DBQ20021122055513711/22/02 05:55:31  5-MIN KDBQ 221155Z 34008KT 10SM CLR M03/M07 A3010 920 75 -1000 340/08 RMK AO2 SLP204 70002 T10281067 10017 21028 53013
94908KDBQ DBQ20021122060009611/22/02 06:00:31  5-MIN KDBQ 221200Z 34007KT 10SM CLR M03/M07 A3010 910 75 -1000 340/07 RMK AO2
94908KDBQ DBQ20021122060509611/22/02 06:05:31  5-MIN KDBQ 221205Z 34008KT 10SM CLR M03/M07 A3010 910 78 -1000 330/08 RMK AO2
94908KDBQ DBQ20021122061009611/22/02 06:10:31  5-MIN KDBQ 221210Z 34009KT 10SM CLR M03/M07 A3010 910 75 -1000 340/09 RMK AO2
94908KDBQ DBQ20021122061509611/22/02 06:15:31  5-MIN KDBQ 221215Z 33009KT 10SM CLR M03/M07 A3010 910 78 -1000 330/09 RMK AO2
94908KDBQ DBQ20021122062009611/22/02 06:20:31  5-MIN KDBQ 221220Z 33008KT 10SM CLR M03/M07 A3011 910 75 -1000 330/08 RMK AO2
94908KDBQ DBQ20021122062509611/22/02 06:25:31  5-MIN KDBQ 221225Z 33009KT 10SM CLR M03/M07 A3011 910 78 -1000 330/09 RMK AO2
94908KDBQ DBQ20021122063009611/22/02 06:30:31  5-MIN KDBQ 221230Z 33009KT 10SM CLR M03/M07 A3011 910 78 -1000 330/09 RMK AO2
94908KDBQ DBQ20021122063509611/22/02 06:35:31  5-MIN KDBQ 221235Z 33009KT 10SM CLR M03/M07 A3011 910 78 -1000 330/09 RMK AO2
94908KDBQ DBQ20021122064009611/22/02 06:40:31  5-MIN KDBQ 221240Z 33009KT 10SM CLR M03/M07 A3011 910 78 -1000 330/09 RMK AO2
94908KDBQ DBQ20021122064509611/22/02 06:45:31  5-MIN KDBQ 221245Z 33010KT 10SM CLR M03/M07 A3011 910 78 -1000 330/10 RMK AO2
94908KDBQ DBQ20021122065011311/22/02 06:50:31  5-MIN KDBQ 221250Z 33010KT 10SM CLR M03/M07 A3010 910 78 -1000 330/10 RMK AO2 SLP207 T10331067
94908KDBQ DBQ20021122065511311/22/02 06:55:31  5-MIN KDBQ 221255Z 34010KT 10SM CLR M03/M07 A3010 910 78 -1000 330/10 RMK AO2 SLP207 T10331067
94908KDBQ DBQ20021122070009611/22/02 07:00:31  5-MIN KDBQ 221300Z 33010KT 10SM CLR M04/M07 A3010 910 78 -1100 330/10 RMK AO2
94908KDBQ DBQ20021122070509611/22/02 07:05:31  5-MIN KDBQ 221305Z 34009KT 10SM CLR M04/M07 A3011 910 78 -1100 340/09 RMK AO2
94908KDBQ DBQ20021122071009611/22/02 07:10:31  5-MIN KDBQ 221310Z 34009KT 10SM CLR M03/M07 A3011 910 74 -1000 340/09 RMK AO2
94908KDBQ DBQ20021122071509611/22/02 07:15:31  5-MIN KDBQ 221315Z 34009KT 10SM CLR M03/M07 A3011 900 74 -1000 340/09 RMK AO2
94908KDBQ DBQ20021122072009611/22/02 07:20:31  5-MIN KDBQ 221320Z 35007KT 10SM CLR M04/M07 A3011 900 78 -1100 340/07 RMK AO2
94908KDBQ DBQ20021122072509611/22/02 07:25:31  5-MIN KDBQ 221325Z 35006KT 10SM CLR M03/M07 A3011 900 74 -1000 350/06 RMK AO2
94908KDBQ DBQ20021122073009611/22/02 07:30:31  5-MIN KDBQ 221330Z 34007KT 10SM CLR M03/M07 A3011 900 74 -1000 340/07 RMK AO2
94908KDBQ DBQ20021122073509611/22/02 07:35:31  5-MIN KDBQ 221335Z 34007KT 10SM CLR M03/M07 A3012 900 74 -1000 340/07 RMK AO2
94908KDBQ DBQ20021122074009611/22/02 07:40:31  5-MIN KDBQ 221340Z 34008KT 10SM CLR M03/M07 A3012 900 71 -1000 330/08 RMK AO2
94908KDBQ DBQ20021122074509611/22/02 07:45:31  5-MIN KDBQ 221345Z 34008KT 10SM CLR M03/M07 A3012 900 71 -1000 340/08 RMK AO2
94908KDBQ DBQ20021122075011311/22/02 07:50:31  5-MIN KDBQ 221350Z 33007KT 10SM CLR M03/M07 A3012 900 71 -1000 330/07 RMK AO2 SLP211 T10281072
94908KDBQ DBQ20021122075511311/22/02 07:55:31  5-MIN KDBQ 221355Z 33009KT 10SM CLR M03/M07 A3012 900 75 -1000 330/09 RMK AO2 SLP211 T10281067
94908KDBQ DBQ20021122080009611/22/02 08:00:31  5-MIN KDBQ 221400Z 33009KT 10SM CLR M03/M07 A3012 900 71 -1000 330/09 RMK AO2
94908KDBQ DBQ20021122080509511/22/02 08:05:31  5-MIN KDBQ 221405Z 33010KT 10SM CLR M02/M07 A3012 900 72 -900 330/10 RMK AO2
94908KDBQ DBQ20021122081009511/22/02 08:10:31  5-MIN KDBQ 221410Z 34009KT 10SM CLR M02/M07 A3012 900 72 -900 330/09 RMK AO2
94908KDBQ DBQ20021122081509511/22/02 08:15:31  5-MIN KDBQ 221415Z 34011KT 10SM CLR M02/M07 A3012 900 72 -900 340/11 RMK AO2
94908KDBQ DBQ20021122082009511/22/02 08:20:31  5-MIN KDBQ 221420Z 35011KT 10SM CLR M02/M07 A3011 900 72 -900 350/11 RMK AO2
94908KDBQ DBQ20021122082509511/22/02 08:25:31  5-MIN KDBQ 221425Z 35010KT 10SM CLR M02/M07 A3011 900 72 -900 350/10 RMK AO2
94908KDBQ DBQ20021122083009511/22/02 08:30:31  5-MIN KDBQ 221430Z 35008KT 10SM CLR M02/M07 A3011 900 66 -800 350/08 RMK AO2
94908KDBQ DBQ20021122083509511/22/02 08:35:31  5-MIN KDBQ 221435Z 35008KT 10SM CLR M02/M07 A3011 900 69 -800 350/08 RMK AO2
94908KDBQ DBQ20021122084009511/22/02 08:40:31  5-MIN KDBQ 221440Z 35007KT 10SM CLR M02/M07 A3012 900 66 -800 350/07 RMK AO2
94908KDBQ DBQ20021122084509511/22/02 08:45:31  5-MIN KDBQ 221445Z 35009KT 10SM CLR M01/M07 A3012 890 66 -800 350/09 RMK AO2
94908KDBQ DBQ20021122085011811/22/02 08:50:31  5-MIN KDBQ 221450Z 35012KT 10SM CLR M01/M07 A3012 890 63 -800 350/12 RMK AO2 SLP212 T10111072 53013
94908KDBQ DBQ20021122085511811/22/02 08:55:31  5-MIN KDBQ 221455Z 36011KT 10SM CLR M01/M07 A3012 890 63 -800 360/11 RMK AO2 SLP212 T10111072 51008
94908KDBQ DBQ20021122090009511/22/02 09:00:31  5-MIN KDBQ 221500Z 35009KT 10SM CLR M01/M07 A3012 890 66 -800 350/09 RMK AO2
94908KDBQ DBQ20021122090509511/22/02 09:05:31  5-MIN KDBQ 221505Z 35009KT 10SM CLR M01/M07 A3012 890 63 -800 350/09 RMK AO2
94908KDBQ DBQ20021122091009511/22/02 09:10:31  5-MIN KDBQ 221510Z 35009KT 10SM CLR M01/M07 A3012 890 61 -700 350/09 RMK AO2
94908KDBQ DBQ20021122091509511/22/02 09:15:31  5-MIN KDBQ 221515Z 35009KT 10SM CLR M01/M07 A3012 890 61 -700 350/09 RMK AO2
94908KDBQ DBQ20021122092009511/22/02 09:20:31  5-MIN KDBQ 221520Z 35008KT 10SM CLR M01/M07 A3012 890 61 -700 350/08 RMK AO2
94908KDBQ DBQ20021122092509511/22/02 09:25:31  5-MIN KDBQ 221525Z 36008KT 10SM CLR M01/M07 A3012 890 63 -700 360/08 RMK AO2
94908KDBQ DBQ20021122093009511/22/02 09:30:31  5-MIN KDBQ 221530Z 36010KT 10SM CLR M01/M07 A3013 890 61 -700 360/10 RMK AO2
94908KDBQ DBQ20021122093509411/22/02 09:35:31  5-MIN KDBQ 221535Z 36010KT 10SM CLR 00/M07 A3013 890 61 -600 360/10 RMK AO2
94908KDBQ DBQ20021122094009511/22/02 09:40:31  5-MIN KDBQ 221540Z 36009KT 10SM CLR M01/M07 A3013 890 61 -700 360/09 RMK AO2
94908KDBQ DBQ20021122094509411/22/02 09:45:31  5-MIN KDBQ 221545Z 36006KT 10SM CLR 00/M07 A3013 890 61 -600 360/06 RMK AO2
94908KDBQ DBQ20021122095011111/22/02 09:50:31  5-MIN KDBQ 221550Z 36010KT 10SM CLR 00/M07 A3013 890 61 -600 360/10 RMK AO2 SLP214 T00001067
94908KDBQ DBQ20021122095511111/22/02 09:55:31  5-MIN KDBQ 221555Z 35007KT 10SM CLR 00/M07 A3013 880 61 -600 350/07 RMK AO2 SLP214 T00001067
94908KDBQ DBQ20021122100009411/22/02 10:00:31  5-MIN KDBQ 221600Z 01009KT 10SM CLR 00/M07 A3013 880 61 -600 010/09 RMK AO2
94908KDBQ DBQ20021122100509411/22/02 10:05:31  5-MIN KDBQ 221605Z 35007KT 10SM CLR 00/M07 A3013 880 58 -600 350/07 RMK AO2
94908KDBQ DBQ20021122101009411/22/02 10:10:31  5-MIN KDBQ 221610Z 36009KT 10SM CLR 00/M07 A3013 890 58 -600 360/09 RMK AO2
94908KDBQ DBQ20021122101509411/22/02 10:15:31  5-MIN KDBQ 221615Z 03007KT 10SM CLR 00/M07 A3013 890 61 -600 030/07 RMK AO2
94908KDBQ DBQ20021122102009411/22/02 10:20:31  5-MIN KDBQ 221620Z 01008KT 10SM CLR 01/M07 A3012 890 58 -600 010/08 RMK AO2
94908KDBQ DBQ20021122102509411/22/02 10:25:31  5-MIN KDBQ 221625Z 02008KT 10SM CLR 01/M06 A3012 890 61 -600 020/08 RMK AO2
94908KDBQ DBQ20021122103009411/22/02 10:30:31  5-MIN KDBQ 221630Z 34007KT 10SM CLR 01/M07 A3012 890 58 -600 340/07 RMK AO2
94908KDBQ DBQ20021122103509711/22/02 10:35:31  5-MIN KDBQ 221635Z 33008KT 10SM FEW029 01/M07 A3012 890 58 -600 330/08 RMK AO2
94908KDBQ DBQ20021122104009711/22/02 10:40:31  5-MIN KDBQ 221640Z 36008KT 10SM FEW029 01/M07 A3012 890 58 -600 360/08 RMK AO2
94908KDBQ DBQ20021122104509711/22/02 10:45:31  5-MIN KDBQ 221645Z 36007KT 10SM FEW029 01/M07 A3012 890 58 -600 350/07 RMK AO2
94908KDBQ DBQ20021122105011111/22/02 10:50:31  5-MIN KDBQ 221650Z 34005KT 10SM CLR 01/M07 A3012 890 58 -600 340/05 RMK AO2 SLP211 T00061067
94908KDBQ DBQ20021122105511711/22/02 10:55:31  5-MIN KDBQ 221655Z 01010G14KT 10SM CLR 01/M07 A3012 900 56 -600 010/10G14 RMK AO2 SLP210 T00061072
94908KDBQ DBQ20021122110010011/22/02 11:00:31  5-MIN KDBQ 221700Z 02007G14KT 10SM CLR 01/M07 A3012 900 56 -600 020/07G14 RMK AO2
94908KDBQ DBQ20021122110511011/22/02 11:05:31  5-MIN KDBQ 221705Z 02008KT 330V050 10SM CLR 01/M07 A3011 900 56 -500 020/08 330V050 RMK AO2
94908KDBQ DBQ20021122111009411/22/02 11:10:31  5-MIN KDBQ 221710Z 36008KT 10SM CLR 01/M07 A3012 900 56 -500 360/08 RMK AO2
94908KDBQ DBQ20021122111509411/22/02 11:15:31  5-MIN KDBQ 221715Z 02008KT 10SM CLR 01/M07 A3012 900 54 -500 020/08 RMK AO2
94908KDBQ DBQ20021122112009411/22/02 11:20:31  5-MIN KDBQ 221720Z VRB04KT 10SM CLR 01/M07 A3011 900 56 -600 VRB/04 RMK AO2
94908KDBQ DBQ20021122112509411/22/02 11:25:31  5-MIN KDBQ 221725Z 03004KT 10SM CLR 01/M07 A3011 900 56 -500 030/04 RMK AO2
94908KDBQ DBQ20021122113009411/22/02 11:30:31  5-MIN KDBQ 221730Z 34008KT 10SM CLR 01/M07 A3011 900 56 -500 340/08 RMK AO2
94908KDBQ DBQ20021122113509411/22/02 11:35:31  5-MIN KDBQ 221735Z 34007KT 10SM CLR 01/M07 A3011 900 54 -500 340/07 RMK AO2
94908KDBQ DBQ20021122114009411/22/02 11:40:31  5-MIN KDBQ 221740Z VRB06KT 10SM CLR 01/M07 A3011 900 56 -500 VRB/06 RMK AO2
94908KDBQ DBQ20021122114509411/22/02 11:45:31  5-MIN KDBQ 221745Z VRB03KT 10SM CLR 01/M07 A3011 900 56 -500 VRB/03 RMK AO2
94908KDBQ DBQ20021122115012911/22/02 11:50:31  5-MIN KDBQ 221750Z 02009KT 10SM CLR 01/M07 A3011 910 56 -500 010/09 RMK AO2 SLP206 T00111067 10011 21039 51008
94908KDBQ DBQ20021122115512911/22/02 11:55:31  5-MIN KDBQ 221755Z 01006KT 10SM CLR 02/M07 A3011 910 54 -400 010/06 RMK AO2 SLP206 T00171067 10017 21039 58005
94908KDBQ DBQ20021122120009411/22/02 12:00:31  5-MIN KDBQ 221800Z 04006KT 10SM CLR 01/M07 A3011 910 54 -500 040/06 RMK AO2
94908KDBQ DBQ20021122120509411/22/02 12:05:31  5-MIN KDBQ 221805Z 32007KT 10SM CLR 02/M07 A3011 910 54 -400 320/07 RMK AO2
94908KDBQ DBQ20021122121009411/22/02 12:10:31  5-MIN KDBQ 221810Z 30004KT 10SM CLR 01/M07 A3011 900 54 -500 300/04 RMK AO2
94908KDBQ DBQ20021122121509411/22/02 12:15:31  5-MIN KDBQ 221815Z 36006KT 10SM CLR 02/M07 A3011 910 54 -400 360/06 RMK AO2
94908KDBQ DBQ20021122122009411/22/02 12:20:31  5-MIN KDBQ 221820Z VRB06KT 10SM CLR 02/M07 A3011 910 54 -400 VRB/06 RMK AO2
94908KDBQ DBQ20021122122509411/22/02 12:25:31  5-MIN KDBQ 221825Z 34008KT 10SM CLR 02/M06 A3011 910 56 -400 340/08 RMK AO2
94908KDBQ DBQ20021122123009411/22/02 12:30:31  5-MIN KDBQ 221830Z VRB05KT 10SM CLR 02/M07 A3010 910 54 -400 VRB/05 RMK AO2
94908KDBQ DBQ20021122123509411/22/02 12:35:31  5-MIN KDBQ 221835Z 34006KT 10SM CLR 02/M07 A3011 910 54 -400 340/06 RMK AO2
94908KDBQ DBQ20021122124009411/22/02 12:40:31  5-MIN KDBQ 221840Z 33005KT 10SM CLR 02/M07 A3010 910 54 -400 330/05 RMK AO2
94908KDBQ DBQ20021122124509411/22/02 12:45:31  5-MIN KDBQ 221845Z 36006KT 10SM CLR 02/M07 A3010 910 52 -300 350/06 RMK AO2
94908KDBQ DBQ20021122125011111/22/02 12:50:31  5-MIN KDBQ 221850Z VRB04KT 10SM CLR 02/M07 A3009 920 54 -400 VRB/04 RMK AO2 SLP202 T00171067
94908KDBQ DBQ20021122125511111/22/02 12:55:31  5-MIN KDBQ 221855Z 33005KT 10SM CLR 02/M07 A3009 920 52 -400 330/05 RMK AO2 SLP201 T00171072
94908KDBQ DBQ20021122130009411/22/02 13:00:31  5-MIN KDBQ 221900Z 35004KT 10SM CLR 02/M07 A3009 920 52 -300 350/04 RMK AO2
94908KDBQ DBQ20021122130509411/22/02 13:05:31  5-MIN KDBQ 221905Z 36004KT 10SM CLR 02/M07 A3009 930 52 -400 360/04 RMK AO2
94908KDBQ DBQ20021122131009411/22/02 13:10:31  5-MIN KDBQ 221910Z 04004KT 10SM CLR 02/M07 A3009 930 52 -400 040/04 RMK AO2
94908KDBQ DBQ20021122131509411/22/02 13:15:31  5-MIN KDBQ 221915Z 35004KT 10SM CLR 02/M07 A3009 930 52 -300 350/04 RMK AO2
94908KDBQ DBQ20021122132009411/22/02 13:20:31  5-MIN KDBQ 221920Z 00000KT 10SM CLR 01/M07 A3009 930 54 -500 000/00 RMK AO2
94908KDBQ DBQ20021122132509411/22/02 13:25:31  5-MIN KDBQ 221925Z VRB04KT 10SM CLR 02/M07 A3008 930 52 -400 VRB/04 RMK AO2
94908KDBQ DBQ20021122133009411/22/02 13:30:31  5-MIN KDBQ 221930Z 33004KT 10SM CLR 02/M07 A3008 930 52 -300 330/04 RMK AO2
94908KDBQ DBQ20021122133509411/22/02 13:35:31  5-MIN KDBQ 221935Z 35004KT 10SM CLR 02/M07 A3007 940 52 -300 350/04 RMK AO2
94908KDBQ DBQ20021122134009411/22/02 13:40:31  5-MIN KDBQ 221940Z VRB03KT 10SM CLR 02/M07 A3008 930 50 -300 VRB/03 RMK AO2
94908KDBQ DBQ20021122134509411/22/02 13:45:31  5-MIN KDBQ 221945Z 35005KT 10SM CLR 02/M07 A3008 930 52 -300 340/05 RMK AO2
94908KDBQ DBQ20021122135011111/22/02 13:50:31  5-MIN KDBQ 221950Z 00000KT 10SM CLR 02/M07 A3007 940 52 -300 000/00 RMK AO2 SLP195 T00221067
94908KDBQ DBQ20021122135511111/22/02 13:55:31  5-MIN KDBQ 221955Z 30003KT 10SM CLR 02/M07 A3007 940 50 -300 300/03 RMK AO2 SLP195 T00221072
94908KDBQ DBQ20021122140009411/22/02 14:00:31  5-MIN KDBQ 222000Z 27003KT 10SM CLR 02/M07 A3007 940 52 -300 270/03 RMK AO2
94908KDBQ DBQ20021122140509411/22/02 14:05:31  5-MIN KDBQ 222005Z 28004KT 10SM CLR 02/M07 A3007 940 52 -300 280/04 RMK AO2
94908KDBQ DBQ20021122141009411/22/02 14:10:31  5-MIN KDBQ 222010Z 31004KT 10SM CLR 03/M07 A3007 940 50 -200 310/04 RMK AO2
94908KDBQ DBQ20021122141509411/22/02 14:15:31  5-MIN KDBQ 222015Z 32004KT 10SM CLR 03/M07 A3007 940 50 -200 310/04 RMK AO2
94908KDBQ DBQ20021122142009411/22/02 14:20:31  5-MIN KDBQ 222020Z VRB03KT 10SM CLR 03/M07 A3007 940 50 -200 VRB/03 RMK AO2
94908KDBQ DBQ20021122142509411/22/02 14:25:31  5-MIN KDBQ 222025Z 28005KT 10SM CLR 02/M07 A3007 940 52 -300 270/05 RMK AO2
94908KDBQ DBQ20021122143009411/22/02 14:30:31  5-MIN KDBQ 222030Z VRB03KT 10SM CLR 02/M07 A3007 940 50 -300 VRB/03 RMK AO2
94908KDBQ DBQ20021122143509411/22/02 14:35:31  5-MIN KDBQ 222035Z 23006KT 10SM CLR 02/M07 A3007 940 52 -300 230/06 RMK AO2
94908KDBQ DBQ20021122144009411/22/02 14:40:31  5-MIN KDBQ 222040Z 21004KT 10SM CLR 02/M07 A3007 940 52 -300 210/04 RMK AO2
94908KDBQ DBQ20021122144509411/22/02 14:45:31  5-MIN KDBQ 222045Z 00000KT 10SM CLR 02/M07 A3007 940 50 -300 000/00 RMK AO2
94908KDBQ DBQ20021122145012211/22/02 14:50:31  5-MIN KDBQ 222050Z AUTO 23004KT 10SM CLR 02/M07 A3007 940 52 -300 230/04 RMK AO2 SLP194 T00221067 58005
94908KDBQ DBQ20021122145512711/22/02 14:55:31  5-MIN KDBQ 222055Z AUTO 25004KT 10SM CLR 02/M07 A3007 940 52 -300 250/04 RMK AO2 SLP195 T00221067 56011 TSNO
94908KDBQ DBQ20021122150010411/22/02 15:00:31  5-MIN KDBQ 222100Z AUTO 24006KT 10SM CLR 02/M07 A3007 940 52 -300 230/06 RMK AO2 TSNO
94908KDBQ DBQ20021122150510411/22/02 15:05:31  5-MIN KDBQ 222105Z AUTO 23004KT 10SM CLR 02/M07 A3007 940 52 -300 230/04 RMK AO2 TSNO
94908KDBQ DBQ20021122151010411/22/02 15:10:31  5-MIN KDBQ 222110Z AUTO 22004KT 10SM CLR 02/M07 A3007 940 52 -300 210/04 RMK AO2 TSNO
94908KDBQ DBQ20021122151510411/22/02 15:15:31  5-MIN KDBQ 222115Z AUTO 26005KT 10SM CLR 02/M07 A3007 940 52 -300 260/05 RMK AO2 TSNO
94908KDBQ DBQ20021122152010411/22/02 15:20:31  5-MIN KDBQ 222120Z AUTO 27006KT 10SM CLR 02/M07 A3007 940 52 -300 270/06 RMK AO2 TSNO
94908KDBQ DBQ20021122152510411/22/02 15:25:31  5-MIN KDBQ 222125Z AUTO 26007KT 10SM CLR 02/M07 A3007 940 52 -300 250/07 RMK AO2 TSNO
94908KDBQ DBQ20021122153010411/22/02 15:30:31  5-MIN KDBQ 222130Z AUTO 25005KT 10SM CLR 02/M07 A3007 940 52 -300 250/05 RMK AO2 TSNO
94908KDBQ DBQ20021122153510411/22/02 15:35:31  5-MIN KDBQ 222135Z AUTO 27007KT 10SM CLR 02/M06 A3007 940 54 -300 270/07 RMK AO2 TSNO
94908KDBQ DBQ20021122154010411/22/02 15:40:31  5-MIN KDBQ 222140Z AUTO 26007KT 10SM CLR 02/M07 A3007 940 52 -300 260/07 RMK AO2 TSNO
94908KDBQ DBQ20021122154510411/22/02 15:45:31  5-MIN KDBQ 222145Z AUTO 25006KT 10SM CLR 02/M07 A3007 940 52 -300 250/06 RMK AO2 TSNO
94908KDBQ DBQ20021122155012111/22/02 15:50:31  5-MIN KDBQ 222150Z AUTO 26005KT 10SM CLR 02/M06 A3007 940 56 -400 260/05 RMK AO2 SLP196 T00171061 TSNO
94908KDBQ DBQ20021122155512111/22/02 15:55:31  5-MIN KDBQ 222155Z AUTO 25003KT 10SM CLR 02/M07 A3007 940 54 -400 250/03 RMK AO2 SLP196 T00171067 TSNO
94908KDBQ DBQ20021122160010411/22/02 16:00:31  5-MIN KDBQ 222200Z AUTO 25003KT 10SM CLR 02/M07 A3007 940 54 -400 240/03 RMK AO2 TSNO
94908KDBQ DBQ20021122160510411/22/02 16:05:31  5-MIN KDBQ 222205Z AUTO 24003KT 10SM CLR 01/M06 A3007 940 58 -400 240/03 RMK AO2 TSNO
94908KDBQ DBQ20021122161010411/22/02 16:10:31  5-MIN KDBQ 222210Z AUTO 25004KT 10SM CLR 01/M06 A3007 940 58 -400 250/04 RMK AO2 TSNO
94908KDBQ DBQ20021122161510411/22/02 16:15:31  5-MIN KDBQ 222215Z AUTO 26005KT 10SM CLR 01/M07 A3007 940 58 -500 260/05 RMK AO2 TSNO
94908KDBQ DBQ20021122162010411/22/02 16:20:31  5-MIN KDBQ 222220Z AUTO 26005KT 10SM CLR 01/M06 A3007 940 61 -500 250/05 RMK AO2 TSNO
94908KDBQ DBQ20021122162510411/22/02 16:25:31  5-MIN KDBQ 222225Z AUTO 26004KT 10SM CLR 01/M06 A3007 940 61 -500 250/04 RMK AO2 TSNO
94908KDBQ DBQ20021122163010411/22/02 16:30:31  5-MIN KDBQ 222230Z AUTO 25004KT 10SM CLR 01/M07 A3007 940 58 -500 250/04 RMK AO2 TSNO
94908KDBQ DBQ20021122163510411/22/02 16:35:31  5-MIN KDBQ 222235Z AUTO 25003KT 10SM CLR 00/M07 A3007 940 61 -600 250/03 RMK AO2 TSNO
94908KDBQ DBQ20021122164010411/22/02 16:40:31  5-MIN KDBQ 222240Z AUTO 25003KT 10SM CLR 01/M07 A3007 940 58 -500 250/03 RMK AO2 TSNO
94908KDBQ DBQ20021122164510411/22/02 16:45:31  5-MIN KDBQ 222245Z AUTO 00000KT 10SM CLR 00/M07 A3007 940 61 -600 000/00 RMK AO2 TSNO
94908KDBQ DBQ20021122165012111/22/02 16:50:31  5-MIN KDBQ 222250Z AUTO 00000KT 10SM CLR 00/M06 A3007 940 63 -600 000/00 RMK AO2 SLP195 T00001061 TSNO
94908KDBQ DBQ20021122165511211/22/02 16:55:31  5-MIN KDBQ 222255Z 00000KT 10SM CLR M01/M06 A3006 950 66 -600 000/00 RMK AO2 SLP193 T10061061
94908KDBQ DBQ20021122170009511/22/02 17:00:31  5-MIN KDBQ 222300Z 19003KT 10SM CLR M01/M07 A3007 940 63 -600 190/03 RMK AO2
94908KDBQ DBQ20021122170509511/22/02 17:05:31  5-MIN KDBQ 222305Z 20003KT 10SM CLR M01/M07 A3006 950 63 -600 190/03 RMK AO2
94908KDBQ DBQ20021122171009511/22/02 17:10:31  5-MIN KDBQ 222310Z 20003KT 10SM CLR M01/M07 A3006 950 66 -700 200/03 RMK AO2
94908KDBQ DBQ20021122171509511/22/02 17:15:31  5-MIN KDBQ 222315Z 20003KT 10SM CLR M01/M07 A3006 950 66 -700 190/03 RMK AO2
94908KDBQ DBQ20021122172009511/22/02 17:20:31  5-MIN KDBQ 222320Z 19003KT 10SM CLR M01/M07 A3006 950 66 -700 190/03 RMK AO2
94908KDBQ DBQ20021122172509511/22/02 17:25:31  5-MIN KDBQ 222325Z 19003KT 10SM CLR M01/M07 A3006 950 66 -700 190/03 RMK AO2
94908KDBQ DBQ20021122173009511/22/02 17:30:31  5-MIN KDBQ 222330Z 19003KT 10SM CLR M02/M07 A3006 950 69 -800 190/03 RMK AO2
94908KDBQ DBQ20021122173509511/22/02 17:35:31  5-MIN KDBQ 222335Z 20003KT 10SM CLR M02/M07 A3006 950 69 -800 190/03 RMK AO2
94908KDBQ DBQ20021122174009511/22/02 17:40:31  5-MIN KDBQ 222340Z 20003KT 10SM CLR M02/M07 A3006 950 69 -800 200/03 RMK AO2
94908KDBQ DBQ20021122174509511/22/02 17:45:31  5-MIN KDBQ 222345Z 00000KT 10SM CLR M02/M07 A3006 950 72 -800 000/00 RMK AO2
94908KDBQ DBQ20021122175013011/22/02 17:50:31  5-MIN KDBQ 222350Z 00000KT 10SM CLR M02/M07 A3006 950 69 -800 000/00 RMK AO2 SLP193 T10171067 10028 21022 56011
94908KDBQ DBQ20021122175513011/22/02 17:55:31  5-MIN KDBQ 222355Z 00000KT 10SM CLR M02/M07 A3006 950 69 -800 000/00 RMK AO2 SLP192 T10171067 10028 21022 58005
94908KDBQ DBQ20021122180009511/22/02 18:00:31  5-MIN KDBQ 230000Z 19003KT 10SM CLR M02/M07 A3006 950 69 -800 190/03 RMK AO2
94908KDBQ DBQ20021122180509511/22/02 18:05:31  5-MIN KDBQ 230005Z 19003KT 10SM CLR M03/M07 A3005 950 71 -900 190/03 RMK AO2
94908KDBQ DBQ20021122181009511/22/02 18:10:31  5-MIN KDBQ 230010Z 19004KT 10SM CLR M02/M07 A3005 960 72 -800 190/04 RMK AO2
94908KDBQ DBQ20021122181509511/22/02 18:15:31  5-MIN KDBQ 230015Z 19004KT 10SM CLR M02/M07 A3005 960 69 -800 180/04 RMK AO2
94908KDBQ DBQ20021122182009511/22/02 18:20:31  5-MIN KDBQ 230020Z 19004KT 10SM CLR M02/M07 A3005 960 69 -800 190/04 RMK AO2
94908KDBQ DBQ20021122182509511/22/02 18:25:31  5-MIN KDBQ 230025Z 19004KT 10SM CLR M02/M07 A3005 960 69 -800 190/04 RMK AO2
94908KDBQ DBQ20021122183009511/22/02 18:30:31  5-MIN KDBQ 230030Z 19005KT 10SM CLR M02/M07 A3005 960 72 -800 190/05 RMK AO2
94908KDBQ DBQ20021122183509511/22/02 18:35:31  5-MIN KDBQ 230035Z 19004KT 10SM CLR M02/M07 A3004 960 72 -800 190/04 RMK AO2
94908KDBQ DBQ20021122184009511/22/02 18:40:31  5-MIN KDBQ 230040Z 19005KT 10SM CLR M02/M07 A3004 970 72 -800 180/05 RMK AO2
94908KDBQ DBQ20021122184509511/22/02 18:45:31  5-MIN KDBQ 230045Z 18004KT 10SM CLR M03/M07 A3004 970 75 -900 180/04 RMK AO2
94908KDBQ DBQ20021122185011211/22/02 18:50:31  5-MIN KDBQ 230050Z 18005KT 10SM CLR M02/M06 A3004 970 75 -800 180/05 RMK AO2 SLP186 T10221061
94908KDBQ DBQ20021122185511211/22/02 18:55:31  5-MIN KDBQ 230055Z 18005KT 10SM CLR M02/M06 A3003 980 75 -800 180/05 RMK AO2 SLP183 T10221061
94908KDBQ DBQ20021122190009811/22/02 19:00:31  5-MIN KDBQ 230100Z 18005KT 10SM FEW120 M02/M06 A3002 980 75 -700 180/05 RMK AO2
94908KDBQ DBQ20021122190509811/22/02 19:05:31  5-MIN KDBQ 230105Z 17006KT 10SM SCT120 M02/M06 A3002 990 75 -700 170/06 RMK AO2
94908KDBQ DBQ20021122191009811/22/02 19:10:31  5-MIN KDBQ 230110Z 17006KT 10SM FEW120 M01/M06 A3002 990 72 -700 170/06 RMK AO2
94908KDBQ DBQ20021122191509811/22/02 19:15:31  5-MIN KDBQ 230115Z 17007KT 10SM FEW120 M01/M06 A3002 990 72 -700 160/07 RMK AO2
94908KDBQ DBQ20021122192009811/22/02 19:20:31  5-MIN KDBQ 230120Z 16007KT 10SM FEW120 M01/M06 A3002 990 69 -700 160/07 RMK AO2
94908KDBQ DBQ20021122192509811/22/02 19:25:31  5-MIN KDBQ 230125Z 18006KT 10SM FEW120 M01/M06 A3002 990 72 -700 180/06 RMK AO2
94908KDBQ DBQ20021122193009511/22/02 19:30:31  5-MIN KDBQ 230130Z 19005KT 10SM CLR M01/M06 A3002 990 72 -700 190/05 RMK AO2
94908KDBQ DBQ20021122193509511/22/02 19:35:31  5-MIN KDBQ 230135Z 20005KT 10SM CLR M02/M05 A3002 980 78 -700 200/05 RMK AO2
94908KDBQ DBQ20021122194009511/22/02 19:40:31  5-MIN KDBQ 230140Z 19006KT 10SM CLR M01/M06 A3002 990 72 -700 190/06 RMK AO2
94908KDBQ DBQ20021122194509511/22/02 19:45:31  5-MIN KDBQ 230145Z 19006KT 10SM CLR M01/M06 A3002 990 72 -700 190/06 RMK AO2
94908KDBQ DBQ20021122195011211/22/02 19:50:31  5-MIN KDBQ 230150Z 19006KT 10SM CLR M01/M06 A3002 990 72 -700 190/06 RMK AO2 SLP179 T10111056
94908KDBQ DBQ20021122195511211/22/02 19:55:31  5-MIN KDBQ 230155Z 19005KT 10SM CLR M01/M06 A3002 990 72 -600 190/05 RMK AO2 SLP178 T10111056
94908KDBQ DBQ20021122200009511/22/02 20:00:31  5-MIN KDBQ 230200Z 19005KT 10SM CLR M01/M06 A3001 990 72 -600 180/05 RMK AO2
94908KDBQ DBQ20021122200510611/22/02 20:05:31  5-MIN KDBQ 230205Z AUTO 19006KT 10SM CLR M01/M06 A3001 1000 72 -600 190/06 RMK AO2 TSNO
94908KDBQ DBQ20021122201010511/22/02 20:10:31  5-MIN KDBQ 230210Z AUTO 19006KT 10SM CLR M01/M06 A3001 990 72 -600 190/06 RMK AO2 TSNO
94908KDBQ DBQ20021122201510511/22/02 20:15:31  5-MIN KDBQ 230215Z AUTO 20006KT 10SM CLR M01/M06 A3001 990 72 -600 200/06 RMK AO2 TSNO
94908KDBQ DBQ20021122202010511/22/02 20:20:31  5-MIN KDBQ 230220Z AUTO 20006KT 10SM CLR M01/M06 A3002 990 72 -700 200/06 RMK AO2 TSNO
94908KDBQ DBQ20021122202510511/22/02 20:25:31  5-MIN KDBQ 230225Z AUTO 20006KT 10SM CLR M01/M05 A3001 990 75 -600 200/06 RMK AO2 TSNO
94908KDBQ DBQ20021122203010511/22/02 20:30:31  5-MIN KDBQ 230230Z AUTO 20006KT 10SM CLR M01/M05 A3002 990 75 -700 200/06 RMK AO2 TSNO
94908KDBQ DBQ20021122203510511/22/02 20:35:31  5-MIN KDBQ 230235Z AUTO 20007KT 10SM CLR M01/M06 A3002 990 69 -600 200/07 RMK AO2 TSNO
94908KDBQ DBQ20021122204010511/22/02 20:40:31  5-MIN KDBQ 230240Z AUTO 19007KT 10SM CLR M01/M06 A3002 990 69 -600 190/07 RMK AO2 TSNO
94908KDBQ DBQ20021122204510811/22/02 20:45:31  5-MIN KDBQ 230245Z AUTO 19007KT 10SM FEW110 M01/M06 A3001 990 69 -600 190/07 RMK AO2 TSNO
94908KDBQ DBQ20021122205013111/22/02 20:50:31  5-MIN KDBQ 230250Z AUTO 19008KT 10SM SCT110 M01/M06 A3001 990 69 -600 190/08 RMK AO2 SLP176 T10061056 58005 TSNO
94908KDBQ DBQ20021122205513111/22/02 20:55:31  5-MIN KDBQ 230255Z AUTO 20007KT 10SM SCT120 M01/M06 A3002 990 69 -600 200/07 RMK AO2 SLP177 T10061056 55014 TSNO
94908KDBQ DBQ20021122210010811/22/02 21:00:31  5-MIN KDBQ 230300Z AUTO 20008KT 10SM SCT120 M01/M06 A3002 990 69 -600 200/08 RMK AO2 TSNO
94908KDBQ DBQ20021122210510811/22/02 21:05:31  5-MIN KDBQ 230305Z AUTO 20006KT 10SM FEW120 M01/M06 A3001 990 69 -600 200/06 RMK AO2 TSNO
94908KDBQ DBQ20021122211010811/22/02 21:10:31  5-MIN KDBQ 230310Z AUTO 20008KT 10SM FEW120 M01/M06 A3001 990 69 -600 200/08 RMK AO2 TSNO
94908KDBQ DBQ20021122211510811/22/02 21:15:31  5-MIN KDBQ 230315Z AUTO 20008KT 10SM FEW120 M01/M06 A3001 990 72 -600 190/08 RMK AO2 TSNO
94908KDBQ DBQ20021122212010811/22/02 21:20:31  5-MIN KDBQ 230320Z AUTO 19007KT 10SM FEW120 M01/M06 A3001 990 72 -600 190/07 RMK AO2 TSNO
94908KDBQ DBQ20021122212510611/22/02 21:25:31  5-MIN KDBQ 230325Z AUTO 18006KT 10SM CLR M01/M06 A3001 1000 72 -600 180/06 RMK AO2 TSNO
94908KDBQ DBQ20021122213010611/22/02 21:30:31  5-MIN KDBQ 230330Z AUTO 19007KT 10SM CLR M01/M06 A3001 1000 72 -600 190/07 RMK AO2 TSNO
94908KDBQ DBQ20021122213510611/22/02 21:35:31  5-MIN KDBQ 230335Z AUTO 17007KT 10SM CLR M01/M06 A2999 1010 72 -600 170/07 RMK AO2 TSNO
94908KDBQ DBQ20021122214011311/22/02 21:40:31  5-MIN KDBQ 230340Z AUTO 16009KT 10SM CLR M01/M06 A2999 1020 72 -600 160/09 RMK AO2 PRESFR TSNO
94908KDBQ DBQ20021122214510611/22/02 21:45:31  5-MIN KDBQ 230345Z AUTO 17009KT 10SM CLR M01/M06 A2999 1020 72 -600 170/09 RMK AO2 TSNO
94908KDBQ DBQ20021122215012311/22/02 21:50:31  5-MIN KDBQ 230350Z AUTO 17010KT 10SM CLR M01/M06 A2999 1020 72 -600 170/10 RMK AO2 SLP167 T10111056 TSNO
94908KDBQ DBQ20021122215512311/22/02 21:55:31  5-MIN KDBQ 230355Z AUTO 17010KT 10SM CLR M01/M06 A2998 1030 72 -600 170/10 RMK AO2 SLP163 T10111056 TSNO
94908KDBQ DBQ20021122220010611/22/02 22:00:31  5-MIN KDBQ 230400Z AUTO 18010KT 10SM CLR M01/M06 A2998 1020 69 -500 170/10 RMK AO2 TSNO
94908KDBQ DBQ20021122220510611/22/02 22:05:31  5-MIN KDBQ 230405Z AUTO 18010KT 10SM CLR M01/M06 A2998 1020 69 -500 180/10 RMK AO2 TSNO
94908KDBQ DBQ20021122221010611/22/02 22:10:31  5-MIN KDBQ 230410Z AUTO 18009KT 10SM CLR M01/M06 A2999 1020 69 -500 180/09 RMK AO2 TSNO
94908KDBQ DBQ20021122221510611/22/02 22:15:31  5-MIN KDBQ 230415Z AUTO 18009KT 10SM CLR M01/M06 A2999 1020 69 -500 180/09 RMK AO2 TSNO
94908KDBQ DBQ20021122222010611/22/02 22:20:31  5-MIN KDBQ 230420Z AUTO 18009KT 10SM CLR M01/M06 A2998 1020 69 -500 180/09 RMK AO2 TSNO
94908KDBQ DBQ20021122222510611/22/02 22:25:31  5-MIN KDBQ 230425Z AUTO 18009KT 10SM CLR M01/M04 A2998 1030 75 -500 180/09 RMK AO2 TSNO
94908KDBQ DBQ20021122223010611/22/02 22:30:31  5-MIN KDBQ 230430Z AUTO 18009KT 10SM CLR M01/M04 A2998 1030 75 -500 180/09 RMK AO2 TSNO
94908KDBQ DBQ20021122223510611/22/02 22:35:31  5-MIN KDBQ 230435Z AUTO 18009KT 10SM CLR M01/M06 A2998 1030 69 -500 180/09 RMK AO2 TSNO
94908KDBQ DBQ20021122224010611/22/02 22:40:31  5-MIN KDBQ 230440Z AUTO 19009KT 10SM CLR M01/M06 A2998 1020 69 -500 190/09 RMK AO2 TSNO
94908KDBQ DBQ20021122224510911/22/02 22:45:31  5-MIN KDBQ 230445Z AUTO 19009KT 10SM FEW100 M01/M06 A2998 1020 69 -500 190/09 RMK AO2 TSNO
94908KDBQ DBQ20021122225012611/22/02 22:50:31  5-MIN KDBQ 230450Z AUTO 20008KT 10SM SCT100 M01/M05 A2999 1020 72 -500 200/08 RMK AO2 SLP166 T10061050 TSNO
94908KDBQ DBQ20021122225512611/22/02 22:55:31  5-MIN KDBQ 230455Z AUTO 20009KT 10SM BKN100 M01/M05 A2999 1020 72 -500 190/09 RMK AO2 SLP167 T10061050 TSNO
94908KDBQ DBQ20021122230010911/22/02 23:00:31  5-MIN KDBQ 230500Z AUTO 20008KT 10SM BKN100 M01/M05 A2999 1020 72 -500 200/08 RMK AO2 TSNO
94908KDBQ DBQ20021122230510911/22/02 23:05:31  5-MIN KDBQ 230505Z AUTO 20009KT 10SM BKN095 M01/M05 A2999 1020 72 -500 200/09 RMK AO2 TSNO
94908KDBQ DBQ20021122231011611/22/02 23:10:31  5-MIN KDBQ 230510Z AUTO 20009KT 10SM FEW080 OVC095 M01/M05 A2999 1020 72 -500 200/09 RMK AO2 TSNO
94908KDBQ DBQ20021122231510911/22/02 23:15:31  5-MIN KDBQ 230515Z AUTO 19009KT 10SM OVC090 M01/M05 A2999 1020 72 -500 190/09 RMK AO2 TSNO
94908KDBQ DBQ20021122232010911/22/02 23:20:31  5-MIN KDBQ 230520Z AUTO 19009KT 10SM OVC090 M01/M05 A2998 1020 72 -500 190/09 RMK AO2 TSNO
94908KDBQ DBQ20021122232511511/22/02 23:25:31  5-MIN KDBQ 230525Z AUTO 19008KT 10SM BKN080 OVC095 00/M05 A2999 1020 69 -500 190/08 RMK AO2 TSNO
94908KDBQ DBQ20021122233011511/22/02 23:30:31  5-MIN KDBQ 230530Z AUTO 19008KT 10SM BKN080 OVC095 00/M05 A2999 1010 69 -500 190/08 RMK AO2 TSNO
94908KDBQ DBQ20021122233510811/22/02 23:35:31  5-MIN KDBQ 230535Z AUTO 19008KT 10SM OVC080 00/M05 A2999 1010 69 -500 190/08 RMK AO2 TSNO
94908KDBQ DBQ20021122234010811/22/02 23:40:31  5-MIN KDBQ 230540Z AUTO 19008KT 10SM OVC075 00/M05 A2999 1010 69 -500 190/08 RMK AO2 TSNO
94908KDBQ DBQ20021122234510811/22/02 23:45:31  5-MIN KDBQ 230545Z AUTO 19009KT 10SM OVC075 00/M05 A2998 1020 69 -500 190/09 RMK AO2 TSNO
94908KDBQ DBQ20021122235015311/22/02 23:50:31  5-MIN KDBQ 230550Z AUTO 19010KT 10SM OVC075 00/M05 A2998 1020 69 -500 190/10 RMK AO2 SLP164 T00001050 10000 21028 400281039 55014 TSNO
94908KDBQ DBQ20021122235515311/22/02 23:55:31  5-MIN KDBQ 230555Z AUTO 19010KT 10SM OVC075 00/M05 A2998 1020 69 -500 190/10 RMK AO2 SLP162 T00001050 10000 21028 400281039 56013 TSNO
94908KDBQ DBQ20021123000010811/23/02 00:00:31  5-MIN KDBQ 230600Z AUTO 19011KT 10SM OVC075 00/M05 A2998 1030 69 -500 190/11 RMK AO2 TSNO
94908KDBQ DBQ20021123000510811/23/02 00:05:31  5-MIN KDBQ 230605Z AUTO 19010KT 10SM OVC075 00/M05 A2997 1030 69 -500 190/10 RMK AO2 TSNO
94908KDBQ DBQ20021123001010811/23/02 00:10:31  5-MIN KDBQ 230610Z AUTO 19010KT 10SM OVC070 00/M05 A2997 1040 69 -500 190/10 RMK AO2 TSNO
94908KDBQ DBQ20021123001510811/23/02 00:15:31  5-MIN KDBQ 230615Z AUTO 19009KT 10SM OVC070 00/M05 A2996 1040 69 -400 190/09 RMK AO2 TSNO
94908KDBQ DBQ20021123002010811/23/02 00:20:31  5-MIN KDBQ 230620Z AUTO 19011KT 10SM OVC070 00/M05 A2996 1040 69 -400 190/11 RMK AO2 TSNO
94908KDBQ DBQ20021123002510811/23/02 00:25:31  5-MIN KDBQ 230625Z AUTO 19012KT 10SM OVC070 01/M05 A2995 1050 66 -400 190/12 RMK AO2 TSNO
94908KDBQ DBQ20021123003010811/23/02 00:30:31  5-MIN KDBQ 230630Z AUTO 19012KT 10SM OVC070 01/M05 A2995 1050 66 -400 190/12 RMK AO2 TSNO
94908KDBQ DBQ20021123003510811/23/02 00:35:31  5-MIN KDBQ 230635Z AUTO 19012KT 10SM OVC070 01/M05 A2995 1050 66 -400 190/12 RMK AO2 TSNO
94908KDBQ DBQ20021123004010811/23/02 00:40:31  5-MIN KDBQ 230640Z AUTO 19012KT 10SM OVC070 01/M05 A2995 1050 66 -400 190/12 RMK AO2 TSNO
94908KDBQ DBQ20021123004510811/23/02 00:45:31  5-MIN KDBQ 230645Z AUTO 19012KT 10SM OVC070 01/M05 A2995 1050 66 -400 190/12 RMK AO2 TSNO
94908KDBQ DBQ20021123005012511/23/02 00:50:31  5-MIN KDBQ 230650Z AUTO 19012KT 10SM OVC070 01/M05 A2994 1060 66 -400 190/12 RMK AO2 SLP151 T00061050 TSNO
94908KDBQ DBQ20021123005512511/23/02 00:55:31  5-MIN KDBQ 230655Z AUTO 19013KT 10SM OVC070 01/M05 A2994 1060 66 -400 190/13 RMK AO2 SLP150 T00061050 TSNO
94908KDBQ DBQ20021123010010811/23/02 01:00:31  5-MIN KDBQ 230700Z AUTO 19012KT 10SM OVC070 01/M05 A2994 1060 66 -400 190/12 RMK AO2 TSNO
94908KDBQ DBQ20021123010510811/23/02 01:05:31  5-MIN KDBQ 230705Z AUTO 19012KT 10SM OVC070 01/M05 A2994 1060 66 -400 190/12 RMK AO2 TSNO
94908KDBQ DBQ20021123011010811/23/02 01:10:31  5-MIN KDBQ 230710Z AUTO 19013KT 10SM OVC070 01/M05 A2994 1060 66 -300 190/13 RMK AO2 TSNO
94908KDBQ DBQ20021123011510811/23/02 01:15:31  5-MIN KDBQ 230715Z AUTO 19013KT 10SM OVC070 01/M05 A2994 1060 66 -300 190/13 RMK AO2 TSNO
94908KDBQ DBQ20021123012010811/23/02 01:20:31  5-MIN KDBQ 230720Z AUTO 19012KT 10SM OVC070 01/M05 A2993 1070 66 -300 190/12 RMK AO2 TSNO
94908KDBQ DBQ20021123012510811/23/02 01:25:31  5-MIN KDBQ 230725Z AUTO 18013KT 10SM OVC070 01/M05 A2993 1070 66 -300 180/13 RMK AO2 TSNO
94908KDBQ DBQ20021123013010811/23/02 01:30:31  5-MIN KDBQ 230730Z AUTO 18012KT 10SM OVC065 01/M05 A2993 1070 66 -300 180/12 RMK AO2 TSNO
94908KDBQ DBQ20021123013510811/23/02 01:35:31  5-MIN KDBQ 230735Z AUTO 18013KT 10SM OVC065 01/M05 A2992 1080 66 -300 180/13 RMK AO2 TSNO
94908KDBQ DBQ20021123014010811/23/02 01:40:31  5-MIN KDBQ 230740Z AUTO 18014KT 10SM OVC065 01/M05 A2992 1080 64 -300 180/14 RMK AO2 TSNO
94908KDBQ DBQ20021123014510811/23/02 01:45:31  5-MIN KDBQ 230745Z AUTO 18015KT 10SM OVC065 01/M05 A2991 1090 66 -300 180/15 RMK AO2 TSNO
94908KDBQ DBQ20021123015012511/23/02 01:50:31  5-MIN KDBQ 230750Z AUTO 18013KT 10SM OVC070 01/M05 A2991 1090 64 -200 180/13 RMK AO2 SLP138 T00111050 TSNO
94908KDBQ DBQ20021123015512511/23/02 01:55:31  5-MIN KDBQ 230755Z AUTO 18014KT 10SM OVC070 01/M05 A2990 1090 66 -300 180/14 RMK AO2 SLP137 T00061050 TSNO
94908KDBQ DBQ20021123020010811/23/02 02:00:31  5-MIN KDBQ 230800Z AUTO 19013KT 10SM BKN070 01/M05 A2990 1090 66 -300 190/13 RMK AO2 TSNO
94908KDBQ DBQ20021123020510811/23/02 02:05:31  5-MIN KDBQ 230805Z AUTO 19014KT 10SM BKN070 01/M05 A2991 1090 66 -300 190/14 RMK AO2 TSNO
94908KDBQ DBQ20021123021010811/23/02 02:10:31  5-MIN KDBQ 230810Z AUTO 19014KT 10SM OVC070 01/M05 A2991 1090 66 -300 190/14 RMK AO2 TSNO
94908KDBQ DBQ20021123021510811/23/02 02:15:31  5-MIN KDBQ 230815Z AUTO 19015KT 10SM OVC070 01/M04 A2990 1100 69 -300 190/15 RMK AO2 TSNO
94908KDBQ DBQ20021123022010811/23/02 02:20:31  5-MIN KDBQ 230820Z AUTO 19013KT 10SM OVC070 01/M04 A2990 1100 66 -200 190/13 RMK AO2 TSNO
94908KDBQ DBQ20021123022510811/23/02 02:25:31  5-MIN KDBQ 230825Z AUTO 19015KT 10SM OVC070 01/M04 A2990 1100 66 -200 190/15 RMK AO2 TSNO
94908KDBQ DBQ20021123023010811/23/02 02:30:31  5-MIN KDBQ 230830Z AUTO 19014KT 10SM OVC070 01/M04 A2990 1100 66 -200 190/14 RMK AO2 TSNO
94908KDBQ DBQ20021123023510811/23/02 02:35:31  5-MIN KDBQ 230835Z AUTO 19015KT 10SM OVC070 01/M04 A2989 1100 66 -200 190/15 RMK AO2 TSNO
94908KDBQ DBQ20021123024010811/23/02 02:40:31  5-MIN KDBQ 230840Z AUTO 19016KT 10SM OVC070 01/M04 A2989 1110 66 -200 190/16 RMK AO2 TSNO
94908KDBQ DBQ20021123024510811/23/02 02:45:31  5-MIN KDBQ 230845Z AUTO 19015KT 10SM OVC070 01/M04 A2989 1110 66 -200 190/15 RMK AO2 TSNO
94908KDBQ DBQ20021123025013111/23/02 02:50:31  5-MIN KDBQ 230850Z AUTO 19014KT 10SM OVC070 01/M04 A2988 1120 66 -200 190/14 RMK AO2 SLP129 T00111044 56013 TSNO
94908KDBQ DBQ20021123025513111/23/02 02:55:31  5-MIN KDBQ 230855Z AUTO 19015KT 10SM OVC065 01/M04 A2988 1120 66 -200 190/15 RMK AO2 SLP128 T00111044 56033 TSNO
94908KDBQ DBQ20021123030010811/23/02 03:00:31  5-MIN KDBQ 230900Z AUTO 19013KT 10SM BKN065 01/M05 A2987 1120 66 -300 190/13 RMK AO2 TSNO
94908KDBQ DBQ20021123030510811/23/02 03:05:31  5-MIN KDBQ 230905Z AUTO 19013KT 10SM BKN065 01/M05 A2987 1130 66 -300 190/13 RMK AO2 TSNO
94908KDBQ DBQ20021123031010811/23/02 03:10:31  5-MIN KDBQ 230910Z AUTO 19013KT 10SM SCT065 01/M04 A2987 1120 69 -300 190/13 RMK AO2 TSNO
94908KDBQ DBQ20021123031510811/23/02 03:15:31  5-MIN KDBQ 230915Z AUTO 19012KT 10SM SCT065 01/M04 A2987 1120 69 -300 190/12 RMK AO2 TSNO
94908KDBQ DBQ20021123032010811/23/02 03:20:31  5-MIN KDBQ 230920Z AUTO 19013KT 10SM FEW065 01/M04 A2987 1120 69 -300 190/13 RMK AO2 TSNO
94908KDBQ DBQ20021123032510811/23/02 03:25:31  5-MIN KDBQ 230925Z AUTO 19011KT 10SM SCT100 01/M04 A2987 1120 69 -300 190/11 RMK AO2 TSNO
94908KDBQ DBQ20021123033010811/23/02 03:30:31  5-MIN KDBQ 230930Z AUTO 19012KT 10SM BKN110 01/M04 A2987 1120 69 -300 190/12 RMK AO2 TSNO
94908KDBQ DBQ20021123033510811/23/02 03:35:31  5-MIN KDBQ 230935Z AUTO 19012KT 10SM BKN110 01/M04 A2987 1130 69 -300 190/12 RMK AO2 TSNO
94908KDBQ DBQ20021123034010811/23/02 03:40:31  5-MIN KDBQ 230940Z AUTO 19012KT 10SM BKN110 01/M04 A2986 1130 69 -300 190/12 RMK AO2 TSNO
94908KDBQ DBQ20021123034510811/23/02 03:45:31  5-MIN KDBQ 230945Z AUTO 20012KT 10SM OVC110 01/M04 A2986 1130 69 -200 190/12 RMK AO2 TSNO
94908KDBQ DBQ20021123035012511/23/02 03:50:31  5-MIN KDBQ 230950Z AUTO 20012KT 10SM OVC110 01/M04 A2986 1130 66 -200 200/12 RMK AO2 SLP123 T00111044 TSNO
94908KDBQ DBQ20021123035512511/23/02 03:55:31  5-MIN KDBQ 230955Z AUTO 20012KT 10SM OVC110 01/M04 A2986 1130 69 -200 200/12 RMK AO2 SLP123 T00111039 TSNO
94908KDBQ DBQ20021123040010811/23/02 04:00:31  5-MIN KDBQ 231000Z AUTO 20011KT 10SM OVC110 01/M04 A2986 1130 69 -200 200/11 RMK AO2 TSNO
94908KDBQ DBQ20021123040510811/23/02 04:05:31  5-MIN KDBQ 231005Z AUTO 20012KT 10SM OVC110 01/M04 A2986 1130 69 -200 200/12 RMK AO2 TSNO
94908KDBQ DBQ20021123041010811/23/02 04:10:31  5-MIN KDBQ 231010Z AUTO 20013KT 10SM OVC110 01/M04 A2986 1130 69 -200 200/13 RMK AO2 TSNO
94908KDBQ DBQ20021123041510811/23/02 04:15:31  5-MIN KDBQ 231015Z AUTO 20014KT 10SM OVC120 01/M04 A2986 1130 69 -200 200/14 RMK AO2 TSNO
94908KDBQ DBQ20021123042010811/23/02 04:20:31  5-MIN KDBQ 231020Z AUTO 20013KT 10SM BKN120 01/M04 A2986 1130 69 -200 200/13 RMK AO2 TSNO
94908KDBQ DBQ20021123042510811/23/02 04:25:31  5-MIN KDBQ 231025Z AUTO 20013KT 10SM BKN120 01/M04 A2986 1140 69 -200 200/13 RMK AO2 TSNO
94908KDBQ DBQ20021123043010811/23/02 04:30:31  5-MIN KDBQ 231030Z AUTO 20013KT 10SM SCT120 01/M04 A2986 1130 69 -200 200/13 RMK AO2 TSNO
94908KDBQ DBQ20021123043510811/23/02 04:35:31  5-MIN KDBQ 231035Z AUTO 20012KT 10SM FEW120 01/M04 A2986 1130 69 -200 200/12 RMK AO2 TSNO
94908KDBQ DBQ20021123044010811/23/02 04:40:31  5-MIN KDBQ 231040Z AUTO 20012KT 10SM FEW090 01/M04 A2986 1140 69 -200 200/12 RMK AO2 TSNO
94908KDBQ DBQ20021123044510811/23/02 04:45:31  5-MIN KDBQ 231045Z AUTO 20012KT 10SM FEW090 01/M04 A2986 1140 69 -200 200/12 RMK AO2 TSNO
94908KDBQ DBQ20021123045012211/23/02 04:50:31  5-MIN KDBQ 231050Z AUTO 20012KT 10SM CLR 01/M04 A2986 1130 69 -200 200/12 RMK AO2 SLP123 T00111039 TSNO
94908KDBQ DBQ20021123045512211/23/02 04:55:31  5-MIN KDBQ 231055Z AUTO 20011KT 10SM CLR 01/M04 A2986 1130 69 -200 200/11 RMK AO2 SLP124 T00111039 TSNO
94908KDBQ DBQ20021123050010511/23/02 05:00:31  5-MIN KDBQ 231100Z AUTO 20011KT 10SM CLR 01/M04 A2987 1130 69 -200 200/11 RMK AO2 TSNO
94908KDBQ DBQ20021123050510511/23/02 05:05:31  5-MIN KDBQ 231105Z AUTO 20011KT 10SM CLR 01/M04 A2987 1130 69 -200 200/11 RMK AO2 TSNO
94908KDBQ DBQ20021123051010511/23/02 05:10:31  5-MIN KDBQ 231110Z AUTO 20011KT 10SM CLR 01/M04 A2986 1130 69 -200 200/11 RMK AO2 TSNO
94908KDBQ DBQ20021123051510511/23/02 05:15:31  5-MIN KDBQ 231115Z AUTO 20011KT 10SM CLR 01/M04 A2986 1130 69 -200 200/11 RMK AO2 TSNO
94908KDBQ DBQ20021123052010511/23/02 05:20:31  5-MIN KDBQ 231120Z AUTO 20011KT 10SM CLR 01/M03 A2986 1130 72 -200 200/11 RMK AO2 TSNO
94908KDBQ DBQ20021123052510511/23/02 05:25:31  5-MIN KDBQ 231125Z AUTO 20010KT 10SM CLR 01/M03 A2986 1130 72 -200 200/10 RMK AO2 TSNO
94908KDBQ DBQ20021123053010511/23/02 05:30:31  5-MIN KDBQ 231130Z AUTO 20011KT 10SM CLR 01/M03 A2986 1130 72 -200 200/11 RMK AO2 TSNO
94908KDBQ DBQ20021123053510511/23/02 05:35:31  5-MIN KDBQ 231135Z AUTO 20010KT 10SM CLR 01/M03 A2986 1130 72 -200 200/10 RMK AO2 TSNO
94908KDBQ DBQ20021123054010511/23/02 05:40:31  5-MIN KDBQ 231140Z AUTO 20011KT 10SM CLR 01/M03 A2986 1130 75 -300 200/11 RMK AO2 TSNO
94908KDBQ DBQ20021123054510511/23/02 05:45:31  5-MIN KDBQ 231145Z AUTO 20010KT 10SM CLR 01/M03 A2986 1140 75 -300 200/10 RMK AO2 TSNO
94908KDBQ DBQ20021123055014011/23/02 05:50:31  5-MIN KDBQ 231150Z AUTO 20010KT 10SM CLR 01/M03 A2986 1140 75 -300 200/10 RMK AO2 SLP123 T00061033 10011 20000 56033 TSNO
94908KDBQ DBQ20021123055513011/23/02 05:55:31  5-MIN KDBQ 231155Z 20010KT 10SM CLR 01/M03 A2986 1130 75 -300 200/10 RMK AO2 SLP124 T00061033 10011 20000 56006
94908KDBQ DBQ20021123060009511/23/02 06:00:31  5-MIN KDBQ 231200Z 20009KT 10SM CLR 00/M04 A2986 1140 75 -300 200/09 RMK AO2
94908KDBQ DBQ20021123060509511/23/02 06:05:31  5-MIN KDBQ 231205Z 20009KT 10SM CLR 00/M04 A2986 1140 75 -300 200/09 RMK AO2
94908KDBQ DBQ20021123061009611/23/02 06:10:31  5-MIN KDBQ 231210Z 20009KT 10SM CLR M01/M04 A2986 1140 78 -400 200/09 RMK AO2
94908KDBQ DBQ20021123061509611/23/02 06:15:31  5-MIN KDBQ 231215Z 21009KT 10SM CLR M01/M04 A2986 1140 78 -400 210/09 RMK AO2
94908KDBQ DBQ20021123062009611/23/02 06:20:31  5-MIN KDBQ 231220Z 21008KT 10SM CLR M01/M04 A2986 1140 78 -400 210/08 RMK AO2
94908KDBQ DBQ20021123062509611/23/02 06:25:31  5-MIN KDBQ 231225Z 22007KT 10SM CLR M01/M04 A2986 1140 78 -400 210/07 RMK AO2
94908KDBQ DBQ20021123063009611/23/02 06:30:31  5-MIN KDBQ 231230Z 21008KT 10SM CLR M01/M04 A2985 1140 78 -400 210/08 RMK AO2
94908KDBQ DBQ20021123063509611/23/02 06:35:31  5-MIN KDBQ 231235Z 22008KT 10SM CLR M01/M04 A2986 1140 81 -500 210/08 RMK AO2
94908KDBQ DBQ20021123064009611/23/02 06:40:31  5-MIN KDBQ 231240Z 21008KT 10SM CLR M01/M03 A2986 1140 85 -500 210/08 RMK AO2
94908KDBQ DBQ20021123064509611/23/02 06:45:31  5-MIN KDBQ 231245Z 21007KT 10SM CLR M01/M04 A2986 1140 78 -400 210/07 RMK AO2
94908KDBQ DBQ20021123065011311/23/02 06:50:31  5-MIN KDBQ 231250Z 21006KT 10SM CLR M01/M04 A2986 1130 81 -500 210/06 RMK AO2 SLP125 T10111039
94908KDBQ DBQ20021123065511311/23/02 06:55:31  5-MIN KDBQ 231255Z 21006KT 10SM CLR M01/M04 A2986 1130 81 -500 210/06 RMK AO2 SLP126 T10111039
94908KDBQ DBQ20021123070009611/23/02 07:00:31  5-MIN KDBQ 231300Z 21006KT 10SM CLR M01/M04 A2987 1130 81 -500 210/06 RMK AO2
94908KDBQ DBQ20021123070509611/23/02 07:05:31  5-MIN KDBQ 231305Z 21006KT 10SM CLR M01/M04 A2987 1130 81 -500 210/06 RMK AO2
94908KDBQ DBQ20021123071009611/23/02 07:10:31  5-MIN KDBQ 231310Z 21006KT 10SM CLR M01/M04 A2987 1120 81 -500 210/06 RMK AO2
94908KDBQ DBQ20021123071509511/23/02 07:15:31  5-MIN KDBQ 231315Z 21005KT 9SM CLR M01/M04 A2987 1130 81 -500 210/05 RMK AO2
94908KDBQ DBQ20021123072009511/23/02 07:20:31  5-MIN KDBQ 231320Z 21005KT 9SM CLR M01/M04 A2987 1130 81 -500 210/05 RMK AO2
94908KDBQ DBQ20021123072509511/23/02 07:25:31  5-MIN KDBQ 231325Z 22006KT 9SM CLR M02/M04 A2987 1120 85 -600 210/06 RMK AO2
94908KDBQ DBQ20021123073009511/23/02 07:30:31  5-MIN KDBQ 231330Z 22006KT 9SM CLR M02/M04 A2987 1120 85 -600 220/06 RMK AO2
94908KDBQ DBQ20021123073509511/23/02 07:35:31  5-MIN KDBQ 231335Z 21007KT 9SM CLR M02/M04 A2987 1120 85 -600 210/07 RMK AO2
94908KDBQ DBQ20021123074009511/23/02 07:40:31  5-MIN KDBQ 231340Z 22006KT 9SM CLR M01/M03 A2987 1120 85 -500 220/06 RMK AO2
94908KDBQ DBQ20021123074509511/23/02 07:45:31  5-MIN KDBQ 231345Z 22007KT 9SM CLR M01/M03 A2987 1120 85 -500 220/07 RMK AO2
94908KDBQ DBQ20021123075011211/23/02 07:50:31  5-MIN KDBQ 231350Z 22007KT 9SM CLR M01/M03 A2987 1120 85 -500 220/07 RMK AO2 SLP129 T10111033
94908KDBQ DBQ20021123075511211/23/02 07:55:31  5-MIN KDBQ 231355Z 24007KT 9SM CLR M01/M03 A2988 1120 85 -500 240/07 RMK AO2 SLP129 T10111033
94908KDBQ DBQ20021123080009411/23/02 08:00:31  5-MIN KDBQ 231400Z 26008KT 9SM CLR 00/M03 A2987 1120 81 -300 260/08 RMK AO2
94908KDBQ DBQ20021123080509511/23/02 08:05:31  5-MIN KDBQ 231405Z 24009KT 10SM CLR 00/M03 A2987 1120 81 -300 240/09 RMK AO2
94908KDBQ DBQ20021123081009511/23/02 08:10:31  5-MIN KDBQ 231410Z 26007KT 10SM CLR 01/M03 A2988 1120 78 -300 260/07 RMK AO2
94908KDBQ DBQ20021123081509511/23/02 08:15:31  5-MIN KDBQ 231415Z 27009KT 10SM CLR 01/M03 A2988 1120 78 -300 270/09 RMK AO2
94908KDBQ DBQ20021123082009511/23/02 08:20:31  5-MIN KDBQ 231420Z 28009KT 10SM CLR 01/M03 A2988 1110 78 -300 280/09 RMK AO2
94908KDBQ DBQ20021123082509511/23/02 08:25:31  5-MIN KDBQ 231425Z 28009KT 10SM CLR 01/M03 A2988 1110 75 -200 280/09 RMK AO2
94908KDBQ DBQ20021123083009511/23/02 08:30:31  5-MIN KDBQ 231430Z 28009KT 10SM CLR 01/M02 A2989 1110 78 -200 280/09 RMK AO2
94908KDBQ DBQ20021123083509511/23/02 08:35:31  5-MIN KDBQ 231435Z 29011KT 10SM CLR 01/M03 A2989 1110 75 -200 280/11 RMK AO2
94908KDBQ DBQ20021123084009511/23/02 08:40:31  5-MIN KDBQ 231440Z 28010KT 10SM CLR 01/M02 A2990 1100 78 -200 280/10 RMK AO2
94908KDBQ DBQ20021123084509511/23/02 08:45:31  5-MIN KDBQ 231445Z 29010KT 10SM CLR 01/M02 A2990 1100 78 -200 290/10 RMK AO2
94908KDBQ DBQ20021123085011811/23/02 08:50:31  5-MIN KDBQ 231450Z 29011KT 10SM CLR 01/M02 A2990 1100 78 -200 280/11 RMK AO2 SLP136 T00111022 56006
94908KDBQ DBQ20021123085511811/23/02 08:55:31  5-MIN KDBQ 231455Z 29011KT 10SM CLR 02/M02 A2990 1100 75 -200 290/11 RMK AO2 SLP136 T00171022 53013
94908KDBQ DBQ20021123090009511/23/02 09:00:31  5-MIN KDBQ 231500Z 29010KT 10SM CLR 02/M02 A2990 1090 75 -200 290/10 RMK AO2
94908KDBQ DBQ20021123090509511/23/02 09:05:31  5-MIN KDBQ 231505Z 30009KT 10SM CLR 02/M02 A2990 1090 75 -200 290/09 RMK AO2
94908KDBQ DBQ20021123091009511/23/02 09:10:31  5-MIN KDBQ 231510Z 30008KT 10SM CLR 02/M02 A2990 1090 75 -100 300/08 RMK AO2
94908KDBQ DBQ20021123091509211/23/02 09:15:31  5-MIN KDBQ 231515Z 31008KT 10SM CLR 03/M02 A2990 1090 72 0 310/08 RMK AO2
94908KDBQ DBQ20021123092009211/23/02 09:20:31  5-MIN KDBQ 231520Z 31010KT 10SM CLR 03/M02 A2991 1090 72 0 310/10 RMK AO2
94908KDBQ DBQ20021123092509211/23/02 09:25:31  5-MIN KDBQ 231525Z 32010KT 10SM CLR 03/M01 A2991 1090 72 0 310/10 RMK AO2
94908KDBQ DBQ20021123093009211/23/02 09:30:31  5-MIN KDBQ 231530Z 32012KT 10SM CLR 03/M01 A2990 1090 72 0 320/12 RMK AO2
94908KDBQ DBQ20021123093509211/23/02 09:35:31  5-MIN KDBQ 231535Z 31012KT 10SM CLR 03/M01 A2991 1090 72 0 310/12 RMK AO2
94908KDBQ DBQ20021123094009411/23/02 09:40:31  5-MIN KDBQ 231540Z 32012KT 10SM CLR 04/M01 A2990 1090 70 100 320/12 RMK AO2
94908KDBQ DBQ20021123094509411/23/02 09:45:31  5-MIN KDBQ 231545Z 32012KT 10SM CLR 04/M01 A2990 1090 70 100 320/12 RMK AO2
94908KDBQ DBQ20021123095011111/23/02 09:50:31  5-MIN KDBQ 231550Z 32013KT 10SM CLR 04/M01 A2990 1090 70 100 320/13 RMK AO2 SLP137 T00391011
94908KDBQ DBQ20021123095511111/23/02 09:55:31  5-MIN KDBQ 231555Z 31013KT 10SM CLR 04/M01 A2990 1090 67 100 310/13 RMK AO2 SLP137 T00441011
94908KDBQ DBQ20021123100009411/23/02 10:00:31  5-MIN KDBQ 231600Z 32013KT 10SM CLR 04/M01 A2991 1090 70 100 320/13 RMK AO2
94908KDBQ DBQ20021123100509411/23/02 10:05:31  5-MIN KDBQ 231605Z 33014KT 10SM CLR 04/M01 A2991 1090 67 100 330/14 RMK AO2
94908KDBQ DBQ20021123101009411/23/02 10:10:31  5-MIN KDBQ 231610Z 32013KT 10SM CLR 05/M01 A2991 1090 67 200 320/13 RMK AO2
94908KDBQ DBQ20021123101509411/23/02 10:15:31  5-MIN KDBQ 231615Z 32011KT 10SM CLR 05/M01 A2991 1090 67 200 320/11 RMK AO2
94908KDBQ DBQ20021123102009411/23/02 10:20:31  5-MIN KDBQ 231620Z 32011KT 10SM CLR 05/M01 A2991 1080 64 200 320/11 RMK AO2
94908KDBQ DBQ20021123102509411/23/02 10:25:31  5-MIN KDBQ 231625Z 32010KT 10SM CLR 05/M01 A2991 1080 64 200 320/10 RMK AO2
94908KDBQ DBQ20021123103009411/23/02 10:30:31  5-MIN KDBQ 231630Z 32011KT 10SM CLR 05/M01 A2992 1080 67 200 320/11 RMK AO2
94908KDBQ DBQ20021123103509411/23/02 10:35:31  5-MIN KDBQ 231635Z 32013KT 10SM CLR 06/M01 A2992 1080 62 200 320/13 RMK AO2
94908KDBQ DBQ20021123104009411/23/02 10:40:31  5-MIN KDBQ 231640Z 32014KT 10SM CLR 06/M01 A2992 1080 62 200 320/14 RMK AO2
94908KDBQ DBQ20021123104510011/23/02 10:45:31  5-MIN KDBQ 231645Z 32013G22KT 10SM CLR 06/M02 A2992 1080 59 200 310/13G22 RMK AO2
94908KDBQ DBQ20021123105011711/23/02 10:50:31  5-MIN KDBQ 231650Z 31013G22KT 10SM CLR 06/M02 A2992 1080 57 300 310/13G22 RMK AO2 SLP142 T00611017
94908KDBQ DBQ20021123105511111/23/02 10:55:31  5-MIN KDBQ 231655Z 31016KT 10SM CLR 06/M01 A2992 1080 60 300 310/16 RMK AO2 SLP143 T00611011
94908KDBQ DBQ20021123110010011/23/02 11:00:31  5-MIN KDBQ 231700Z 31014G22KT 10SM CLR 06/M02 A2992 1080 57 300 310/14G22 RMK AO2
94908KDBQ DBQ20021123110510011/23/02 11:05:31  5-MIN KDBQ 231705Z 30014G22KT 10SM CLR 06/M02 A2992 1080 57 300 300/14G22 RMK AO2
94908KDBQ DBQ20021123111009411/23/02 11:10:31  5-MIN KDBQ 231710Z 31013KT 10SM CLR 07/M02 A2993 1070 55 400 310/13 RMK AO2
94908KDBQ DBQ20021123111509411/23/02 11:15:31  5-MIN KDBQ 231715Z 30015KT 10SM CLR 07/M01 A2992 1080 57 400 300/15 RMK AO2
94908KDBQ DBQ20021123112009411/23/02 11:20:31  5-MIN KDBQ 231720Z 29014KT 10SM CLR 07/M01 A2992 1080 57 400 290/14 RMK AO2
94908KDBQ DBQ20021123112509411/23/02 11:25:31  5-MIN KDBQ 231725Z 31015KT 10SM CLR 07/M01 A2992 1080 57 400 310/15 RMK AO2
94908KDBQ DBQ20021123113010011/23/02 11:30:31  5-MIN KDBQ 231730Z 31013G20KT 10SM CLR 07/M01 A2992 1080 57 400 310/13G20 RMK AO2
94908KDBQ DBQ20021123113509411/23/02 11:35:31  5-MIN KDBQ 231735Z 30016KT 10SM CLR 07/M01 A2991 1080 57 400 300/16 RMK AO2
94908KDBQ DBQ20021123114009411/23/02 11:40:31  5-MIN KDBQ 231740Z 30016KT 10SM CLR 07/M01 A2992 1080 57 400 300/16 RMK AO2
94908KDBQ DBQ20021123114509411/23/02 11:45:31  5-MIN KDBQ 231745Z 31015KT 10SM CLR 07/M02 A2991 1080 55 400 310/15 RMK AO2
94908KDBQ DBQ20021123115012911/23/02 11:50:31  5-MIN KDBQ 231750Z 31016KT 10SM CLR 07/M01 A2992 1080 55 400 310/16 RMK AO2 SLP139 T00721011 10072 21017 53013
94908KDBQ DBQ20021123115512911/23/02 11:55:31  5-MIN KDBQ 231755Z 30018KT 10SM CLR 07/M01 A2992 1080 55 400 300/18 RMK AO2 SLP139 T00721011 10072 21017 50005
94908KDBQ DBQ20021123120009411/23/02 12:00:31  5-MIN KDBQ 231800Z 30016KT 10SM CLR 07/M01 A2992 1080 57 400 300/16 RMK AO2
94908KDBQ DBQ20021123120509411/23/02 12:05:31  5-MIN KDBQ 231805Z 31015KT 10SM CLR 07/M01 A2992 1080 55 400 310/15 RMK AO2
94908KDBQ DBQ20021123121009411/23/02 12:10:31  5-MIN KDBQ 231810Z 30015KT 10SM CLR 07/M01 A2991 1090 55 400 300/15 RMK AO2
94908KDBQ DBQ20021123121509411/23/02 12:15:31  5-MIN KDBQ 231815Z 30013KT 10SM CLR 07/M01 A2991 1090 57 500 300/13 RMK AO2
94908KDBQ DBQ20021123122009411/23/02 12:20:31  5-MIN KDBQ 231820Z 29015KT 10SM CLR 07/M01 A2991 1090 57 500 290/15 RMK AO2
94908KDBQ DBQ20021123122509411/23/02 12:25:31  5-MIN KDBQ 231825Z 27017KT 10SM CLR 07/M01 A2991 1090 55 400 270/17 RMK AO2
94908KDBQ DBQ20021123123009411/23/02 12:30:31  5-MIN KDBQ 231830Z 29016KT 10SM CLR 07/M01 A2992 1080 55 400 290/16 RMK AO2
94908KDBQ DBQ20021123123510011/23/02 12:35:31  5-MIN KDBQ 231835Z 30014G21KT 10SM CLR 07/M01 A2992 1080 55 400 300/14G21 RMK AO2
94908KDBQ DBQ20021123124010011/23/02 12:40:31  5-MIN KDBQ 231840Z 29016G21KT 10SM CLR 07/M01 A2992 1080 55 400 290/16G21 RMK AO2
94908KDBQ DBQ20021123124510011/23/02 12:45:31  5-MIN KDBQ 231845Z 28015G21KT 10SM CLR 07/M01 A2992 1080 57 400 280/15G21 RMK AO2
94908KDBQ DBQ20021123125011711/23/02 12:50:31  5-MIN KDBQ 231850Z 28017G23KT 10SM CLR 07/M01 A2991 1080 57 400 280/17G23 RMK AO2 SLP139 T00721006
94908KDBQ DBQ20021123125511711/23/02 12:55:31  5-MIN KDBQ 231855Z 30015G23KT 10SM CLR 08/M01 A2991 1080 55 500 300/15G23 RMK AO2 SLP138 T00781006
94908KDBQ DBQ20021123130009411/23/02 13:00:31  5-MIN KDBQ 231900Z 29015KT 10SM CLR 07/M01 A2991 1080 57 400 290/15 RMK AO2
94908KDBQ DBQ20021123130509411/23/02 13:05:31  5-MIN KDBQ 231905Z 28015KT 10SM CLR 07/M01 A2992 1080 57 400 280/15 RMK AO2
94908KDBQ DBQ20021123131010011/23/02 13:10:31  5-MIN KDBQ 231910Z 29018G23KT 10SM CLR 08/M01 A2992 1080 53 500 280/18G23 RMK AO2
94908KDBQ DBQ20021123131510011/23/02 13:15:31  5-MIN KDBQ 231915Z 31016G23KT 10SM CLR 08/M02 A2992 1080 49 500 310/16G23 RMK AO2
94908KDBQ DBQ20021123132010011/23/02 13:20:31  5-MIN KDBQ 231920Z 30015G21KT 10SM CLR 08/M02 A2992 1080 51 500 300/15G21 RMK AO2
94908KDBQ DBQ20021123132509411/23/02 13:25:31  5-MIN KDBQ 231925Z 30016KT 10SM CLR 08/M02 A2992 1080 49 500 300/16 RMK AO2
94908KDBQ DBQ20021123133009411/23/02 13:30:31  5-MIN KDBQ 231930Z 28014KT 10SM CLR 08/M02 A2992 1080 49 500 280/14 RMK AO2
94908KDBQ DBQ20021123133509411/23/02 13:35:31  5-MIN KDBQ 231935Z 29019KT 10SM CLR 08/M02 A2991 1080 49 500 280/19 RMK AO2
94908KDBQ DBQ20021123134009411/23/02 13:40:31  5-MIN KDBQ 231940Z 29017KT 10SM CLR 08/M03 A2992 1080 47 500 290/17 RMK AO2
94908KDBQ DBQ20021123134509411/23/02 13:45:31  5-MIN KDBQ 231945Z 30017KT 10SM CLR 08/M03 A2992 1080 47 500 300/17 RMK AO2
94908KDBQ DBQ20021123135011711/23/02 13:50:31  5-MIN KDBQ 231950Z 28016G22KT 10SM CLR 07/M03 A2991 1080 49 400 280/16G22 RMK AO2 SLP139 T00721028
94908KDBQ DBQ20021123135511711/23/02 13:55:31  5-MIN KDBQ 231955Z 29014G22KT 10SM CLR 08/M03 A2991 1080 47 500 290/14G22 RMK AO2 SLP138 T00781028
94908KDBQ DBQ20021123140009411/23/02 14:00:31  5-MIN KDBQ 232000Z 28015KT 10SM CLR 08/M03 A2991 1090 47 500 280/15 RMK AO2
94908KDBQ DBQ20021123140510011/23/02 14:05:31  5-MIN KDBQ 232005Z 29015G20KT 10SM CLR 08/M03 A2991 1090 47 500 290/15G20 RMK AO2
94908KDBQ DBQ20021123141010011/23/02 14:10:31  5-MIN KDBQ 232010Z 29016G20KT 10SM CLR 07/M03 A2991 1090 47 500 290/16G20 RMK AO2
94908KDBQ DBQ20021123141509411/23/02 14:15:31  5-MIN KDBQ 232015Z 29017KT 10SM CLR 08/M03 A2991 1080 47 500 290/17 RMK AO2
94908KDBQ DBQ20021123142010011/23/02 14:20:31  5-MIN KDBQ 232020Z 29017G21KT 10SM CLR 07/M03 A2992 1080 47 400 290/17G21 RMK AO2
94908KDBQ DBQ20021123142510011/23/02 14:25:31  5-MIN KDBQ 232025Z 29014G21KT 10SM CLR 08/M03 A2992 1080 47 500 290/14G21 RMK AO2
94908KDBQ DBQ20021123143009411/23/02 14:30:31  5-MIN KDBQ 232030Z 28014KT 10SM CLR 07/M03 A2991 1080 47 400 280/14 RMK AO2
94908KDBQ DBQ20021123143509411/23/02 14:35:31  5-MIN KDBQ 232035Z 29015KT 10SM CLR 07/M03 A2991 1080 49 400 280/15 RMK AO2
94908KDBQ DBQ20021123144010011/23/02 14:40:31  5-MIN KDBQ 232040Z 28014G21KT 10SM CLR 07/M03 A2992 1080 49 400 280/14G21 RMK AO2
94908KDBQ DBQ20021123144510011/23/02 14:45:31  5-MIN KDBQ 232045Z 28015G21KT 10SM CLR 07/M03 A2992 1080 47 400 280/15G21 RMK AO2
94908KDBQ DBQ20021123145011711/23/02 14:50:31  5-MIN KDBQ 232050Z 28017KT 10SM CLR 07/M03 A2992 1080 47 400 280/17 RMK AO2 SLP140 T00721033 50005
94908KDBQ DBQ20021123145511711/23/02 14:55:31  5-MIN KDBQ 232055Z 29016KT 10SM CLR 07/M03 A2992 1080 47 400 280/16 RMK AO2 SLP141 T00721033 53002
94908KDBQ DBQ20021123150009411/23/02 15:00:31  5-MIN KDBQ 232100Z 28016KT 10SM CLR 07/M03 A2992 1080 47 400 280/16 RMK AO2
94908KDBQ DBQ20021123150509411/23/02 15:05:31  5-MIN KDBQ 232105Z 29014KT 10SM CLR 07/M03 A2992 1070 47 400 290/14 RMK AO2
94908KDBQ DBQ20021123151009411/23/02 15:10:31  5-MIN KDBQ 232110Z 28015KT 10SM CLR 07/M03 A2993 1070 47 400 280/15 RMK AO2
94908KDBQ DBQ20021123151510011/23/02 15:15:31  5-MIN KDBQ 232115Z 28015G22KT 10SM CLR 07/M03 A2993 1070 49 400 280/15G22 RMK AO2
94908KDBQ DBQ20021123152010011/23/02 15:20:31  5-MIN KDBQ 232120Z 29016G22KT 10SM CLR 07/M04 A2993 1070 47 400 280/16G22 RMK AO2
94908KDBQ DBQ20021123152510011/23/02 15:25:31  5-MIN KDBQ 232125Z 29017G22KT 10SM CLR 07/M03 A2993 1070 49 400 290/17G22 RMK AO2
94908KDBQ DBQ20021123153009411/23/02 15:30:31  5-MIN KDBQ 232130Z 28014KT 10SM CLR 07/M03 A2993 1070 49 400 280/14 RMK AO2
94908KDBQ DBQ20021123153509411/23/02 15:35:31  5-MIN KDBQ 232135Z 28015KT 10SM CLR 07/M03 A2993 1070 49 400 280/15 RMK AO2
94908KDBQ DBQ20021123154009411/23/02 15:40:31  5-MIN KDBQ 232140Z 28016KT 10SM CLR 07/M04 A2993 1070 47 400 280/16 RMK AO2
94908KDBQ DBQ20021123154510011/23/02 15:45:31  5-MIN KDBQ 232145Z 28013G21KT 10SM CLR 07/M03 A2993 1070 49 400 280/13G21 RMK AO2
94908KDBQ DBQ20021123155011711/23/02 15:50:31  5-MIN KDBQ 232150Z 28016G21KT 10SM CLR 07/M04 A2994 1060 47 400 280/16G21 RMK AO2 SLP146 T00671039
94908KDBQ DBQ20021123155511711/23/02 15:55:31  5-MIN KDBQ 232155Z 28014G21KT 10SM CLR 06/M03 A2994 1060 51 300 280/14G21 RMK AO2 SLP148 T00611033
94908KDBQ DBQ20021123160010011/23/02 16:00:31  5-MIN KDBQ 232200Z 28013G20KT 10SM CLR 06/M04 A2994 1060 48 300 280/13G20 RMK AO2
94908KDBQ DBQ20021123160509411/23/02 16:05:31  5-MIN KDBQ 232205Z 28012KT 10SM CLR 06/M03 A2995 1050 51 300 280/12 RMK AO2
94908KDBQ DBQ20021123161009411/23/02 16:10:31  5-MIN KDBQ 232210Z 28014KT 10SM CLR 06/M04 A2995 1050 50 200 280/14 RMK AO2
94908KDBQ DBQ20021123161509411/23/02 16:15:31  5-MIN KDBQ 232215Z 28013KT 10SM CLR 06/M04 A2995 1050 50 200 280/13 RMK AO2
94908KDBQ DBQ20021123162009411/23/02 16:20:31  5-MIN KDBQ 232220Z 28015KT 10SM CLR 06/M03 A2995 1050 53 200 280/15 RMK AO2
94908KDBQ DBQ20021123162509411/23/02 16:25:31  5-MIN KDBQ 232225Z 28014KT 10SM CLR 06/M04 A2995 1050 50 200 280/14 RMK AO2
94908KDBQ DBQ20021123163009411/23/02 16:30:31  5-MIN KDBQ 232230Z 28013KT 10SM CLR 05/M04 A2995 1050 52 100 280/13 RMK AO2
94908KDBQ DBQ20021123163509411/23/02 16:35:31  5-MIN KDBQ 232235Z 28012KT 10SM CLR 05/M04 A2995 1050 52 100 280/12 RMK AO2
94908KDBQ DBQ20021123164009411/23/02 16:40:31  5-MIN KDBQ 232240Z 28012KT 10SM CLR 04/M04 A2996 1050 55 100 280/12 RMK AO2
94908KDBQ DBQ20021123164509411/23/02 16:45:31  5-MIN KDBQ 232245Z 28011KT 10SM CLR 04/M03 A2996 1040 57 100 270/11 RMK AO2
94908KDBQ DBQ20021123165011111/23/02 16:50:31  5-MIN KDBQ 232250Z 28010KT 10SM CLR 04/M03 A2996 1040 57 100 280/10 RMK AO2 SLP155 T00441033
94908KDBQ DBQ20021123165511111/23/02 16:55:31  5-MIN KDBQ 232255Z 28011KT 10SM CLR 04/M03 A2996 1040 57 100 280/11 RMK AO2 SLP155 T00441033
94908KDBQ DBQ20021123170009411/23/02 17:00:31  5-MIN KDBQ 232300Z 28012KT 10SM CLR 04/M03 A2996 1040 57 100 280/12 RMK AO2
94908KDBQ DBQ20021123170509411/23/02 17:05:31  5-MIN KDBQ 232305Z 28013KT 10SM CLR 04/M03 A2996 1040 57 100 280/13 RMK AO2
94908KDBQ DBQ20021123171009211/23/02 17:10:31  5-MIN KDBQ 232310Z 28013KT 10SM CLR 04/M03 A2997 1040 57 0 280/13 RMK AO2
94908KDBQ DBQ20021123171509211/23/02 17:15:31  5-MIN KDBQ 232315Z 28014KT 10SM CLR 04/M03 A2997 1030 59 0 280/14 RMK AO2
94908KDBQ DBQ20021123172009211/23/02 17:20:31  5-MIN KDBQ 232320Z 28011KT 10SM CLR 04/M03 A2997 1030 59 0 280/11 RMK AO2
94908KDBQ DBQ20021123172509211/23/02 17:25:31  5-MIN KDBQ 232325Z 28011KT 10SM CLR 04/M03 A2997 1030 59 0 280/11 RMK AO2
94908KDBQ DBQ20021123173009511/23/02 17:30:31  5-MIN KDBQ 232330Z 28012KT 10SM CLR 03/M03 A2998 1030 61 -100 280/12 RMK AO2
94908KDBQ DBQ20021123173509211/23/02 17:35:31  5-MIN KDBQ 232335Z 28012KT 10SM CLR 03/M03 A2998 1030 61 0 280/12 RMK AO2
94908KDBQ DBQ20021123174009511/23/02 17:40:31  5-MIN KDBQ 232340Z 28011KT 10SM CLR 03/M03 A2998 1020 61 -100 280/11 RMK AO2
94908KDBQ DBQ20021123174509511/23/02 17:45:31  5-MIN KDBQ 232345Z 29013KT 10SM CLR 03/M03 A2998 1020 61 -100 290/13 RMK AO2
94908KDBQ DBQ20021123175013011/23/02 17:50:31  5-MIN KDBQ 232350Z 29011KT 10SM CLR 03/M03 A2998 1020 61 -100 290/11 RMK AO2 SLP163 T00331033 10078 20033 53002
94908KDBQ DBQ20021123175513011/23/02 17:55:31  5-MIN KDBQ 232355Z 28011KT 10SM CLR 03/M03 A2998 1020 61 -100 280/11 RMK AO2 SLP163 T00331033 10078 20033 53020
94908KDBQ DBQ20021123180009511/23/02 18:00:31  5-MIN KDBQ 240000Z 28012KT 10SM CLR 03/M03 A2999 1020 61 -100 280/12 RMK AO2
94908KDBQ DBQ20021123180509511/23/02 18:05:31  5-MIN KDBQ 240005Z 29011KT 10SM CLR 03/M03 A2999 1010 61 -100 290/11 RMK AO2
94908KDBQ DBQ20021123181009511/23/02 18:10:31  5-MIN KDBQ 240010Z 29012KT 10SM CLR 03/M03 A2999 1010 64 -100 290/12 RMK AO2
94908KDBQ DBQ20021123181509511/23/02 18:15:31  5-MIN KDBQ 240015Z 29011KT 10SM CLR 03/M03 A2999 1010 64 -100 280/11 RMK AO2
94908KDBQ DBQ20021123182009511/23/02 18:20:31  5-MIN KDBQ 240020Z 28011KT 10SM CLR 03/M03 A2999 1010 64 -100 280/11 RMK AO2
94908KDBQ DBQ20021123182509511/23/02 18:25:31  5-MIN KDBQ 240025Z 28011KT 10SM CLR 03/M03 A2999 1010 64 -100 280/11 RMK AO2
94908KDBQ DBQ20021123183009511/23/02 18:30:31  5-MIN KDBQ 240030Z 28009KT 10SM CLR 03/M03 A2999 1010 64 -100 280/09 RMK AO2
94908KDBQ DBQ20021123183509511/23/02 18:35:31  5-MIN KDBQ 240035Z 28010KT 10SM CLR 02/M03 A3000 1010 67 -200 280/10 RMK AO2
94908KDBQ DBQ20021123184009511/23/02 18:40:31  5-MIN KDBQ 240040Z 29009KT 10SM CLR 02/M03 A3000 1010 67 -200 290/09 RMK AO2
94908KDBQ DBQ20021123184509511/23/02 18:45:31  5-MIN KDBQ 240045Z 29009KT 10SM CLR 02/M03 A3000 1010 67 -200 290/09 RMK AO2
94908KDBQ DBQ20021123185011211/23/02 18:50:31  5-MIN KDBQ 240050Z 29008KT 10SM CLR 02/M03 A3000 1010 67 -200 290/08 RMK AO2 SLP170 T00221033
94908KDBQ DBQ20021123185511211/23/02 18:55:31  5-MIN KDBQ 240055Z 29008KT 10SM CLR 02/M03 A3000 1010 69 -300 290/08 RMK AO2 SLP170 T00171033
94908KDBQ DBQ20021123190009511/23/02 19:00:31  5-MIN KDBQ 240100Z 28008KT 10SM CLR 02/M03 A3000 1000 69 -300 280/08 RMK AO2
94908KDBQ DBQ20021123190509511/23/02 19:05:31  5-MIN KDBQ 240105Z 27010KT 10SM CLR 02/M03 A3001 1000 69 -300 270/10 RMK AO2
94908KDBQ DBQ20021123191009411/23/02 19:10:31  5-MIN KDBQ 240110Z 28010KT 10SM CLR 02/M03 A3001 990 69 -300 280/10 RMK AO2
94908KDBQ DBQ20021123191509411/23/02 19:15:31  5-MIN KDBQ 240115Z 27010KT 10SM CLR 02/M03 A3002 990 69 -300 270/10 RMK AO2
94908KDBQ DBQ20021123192009411/23/02 19:20:31  5-MIN KDBQ 240120Z 28009KT 10SM CLR 01/M03 A3002 990 72 -400 280/09 RMK AO2
94908KDBQ DBQ20021123192509411/23/02 19:25:31  5-MIN KDBQ 240125Z 27010KT 10SM CLR 01/M03 A3002 980 72 -400 270/10 RMK AO2
94908KDBQ DBQ20021123193009411/23/02 19:30:31  5-MIN KDBQ 240130Z 28009KT 10SM CLR 01/M03 A3002 980 72 -400 280/09 RMK AO2
94908KDBQ DBQ20021123193509411/23/02 19:35:31  5-MIN KDBQ 240135Z 28009KT 10SM CLR 01/M04 A3003 980 69 -400 280/09 RMK AO2
94908KDBQ DBQ20021123194009411/23/02 19:40:31  5-MIN KDBQ 240140Z 29008KT 10SM CLR 01/M04 A3003 980 69 -400 290/08 RMK AO2
94908KDBQ DBQ20021123194509411/23/02 19:45:31  5-MIN KDBQ 240145Z 28008KT 10SM CLR 01/M04 A3003 980 69 -400 280/08 RMK AO2
94908KDBQ DBQ20021123195011111/23/02 19:50:31  5-MIN KDBQ 240150Z 28009KT 10SM CLR 01/M04 A3003 980 69 -400 280/09 RMK AO2 SLP180 T00111039
94908KDBQ DBQ20021123195512111/23/02 19:55:31  5-MIN KDBQ 240155Z AUTO 27009KT 10SM CLR 01/M04 A3003 980 69 -400 270/09 RMK AO2 SLP182 T00111039 TSNO
94908KDBQ DBQ20021123200010411/23/02 20:00:31  5-MIN KDBQ 240200Z AUTO 28009KT 10SM CLR 01/M04 A3003 980 69 -400 280/09 RMK AO2 TSNO
94908KDBQ DBQ20021123200510411/23/02 20:05:31  5-MIN KDBQ 240205Z AUTO 28009KT 10SM CLR 01/M04 A3003 970 69 -400 280/09 RMK AO2 TSNO
94908KDBQ DBQ20021123201010411/23/02 20:10:31  5-MIN KDBQ 240210Z AUTO 27009KT 10SM CLR 01/M04 A3003 980 69 -400 270/09 RMK AO2 TSNO
94908KDBQ DBQ20021123201510411/23/02 20:15:31  5-MIN KDBQ 240215Z AUTO 28008KT 10SM CLR 01/M04 A3003 980 69 -400 280/08 RMK AO2 TSNO
94908KDBQ DBQ20021123202010411/23/02 20:20:31  5-MIN KDBQ 240220Z AUTO 28009KT 10SM CLR 01/M04 A3003 980 69 -400 280/09 RMK AO2 TSNO
94908KDBQ DBQ20021123202510411/23/02 20:25:31  5-MIN KDBQ 240225Z AUTO 29009KT 10SM CLR 01/M04 A3003 980 69 -400 280/09 RMK AO2 TSNO
94908KDBQ DBQ20021123203010411/23/02 20:30:31  5-MIN KDBQ 240230Z AUTO 29010KT 10SM CLR 01/M04 A3003 980 69 -400 290/10 RMK AO2 TSNO
94908KDBQ DBQ20021123203510711/23/02 20:35:31  5-MIN KDBQ 240235Z AUTO 29009KT 10SM FEW120 01/M04 A3003 980 69 -400 290/09 RMK AO2 TSNO
94908KDBQ DBQ20021123204010711/23/02 20:40:31  5-MIN KDBQ 240240Z AUTO 29008KT 10SM SCT120 01/M04 A3003 980 69 -400 290/08 RMK AO2 TSNO
94908KDBQ DBQ20021123204510711/23/02 20:45:31  5-MIN KDBQ 240245Z AUTO 29008KT 10SM BKN120 01/M03 A3002 980 72 -400 290/08 RMK AO2 TSNO
94908KDBQ DBQ20021123205013011/23/02 20:50:31  5-MIN KDBQ 240250Z AUTO 29008KT 10SM BKN120 02/M03 A3002 990 69 -300 290/08 RMK AO2 SLP176 T00171033 53020 TSNO
94908KDBQ DBQ20021123205513011/23/02 20:55:31  5-MIN KDBQ 240255Z AUTO 29010KT 10SM BKN120 02/M03 A3003 980 69 -300 290/10 RMK AO2 SLP179 T00171033 50015 TSNO
94908KDBQ DBQ20021123210010711/23/02 21:00:31  5-MIN KDBQ 240300Z AUTO 30008KT 10SM BKN120 02/M03 A3002 980 69 -300 300/08 RMK AO2 TSNO
94908KDBQ DBQ20021123210510711/23/02 21:05:31  5-MIN KDBQ 240305Z AUTO 29008KT 10SM SCT120 02/M03 A3002 980 69 -300 290/08 RMK AO2 TSNO
94908KDBQ DBQ20021123211010711/23/02 21:10:31  5-MIN KDBQ 240310Z AUTO 29007KT 10SM SCT120 02/M03 A3002 990 69 -300 290/07 RMK AO2 TSNO
94908KDBQ DBQ20021123211510711/23/02 21:15:31  5-MIN KDBQ 240315Z AUTO 30008KT 10SM FEW120 02/M03 A3001 990 69 -300 300/08 RMK AO2 TSNO
94908KDBQ DBQ20021123212010411/23/02 21:20:31  5-MIN KDBQ 240320Z AUTO 29009KT 10SM CLR 02/M03 A3002 990 69 -300 290/09 RMK AO2 TSNO
94908KDBQ DBQ20021123212510411/23/02 21:25:31  5-MIN KDBQ 240325Z AUTO 30008KT 10SM CLR 02/M03 A3002 990 69 -300 290/08 RMK AO2 TSNO
94908KDBQ DBQ20021123213010411/23/02 21:30:31  5-MIN KDBQ 240330Z AUTO 30009KT 10SM CLR 02/M03 A3002 980 69 -300 300/09 RMK AO2 TSNO
94908KDBQ DBQ20021123213510411/23/02 21:35:31  5-MIN KDBQ 240335Z AUTO 30011KT 10SM CLR 02/M04 A3003 980 64 -300 300/11 RMK AO2 TSNO
94908KDBQ DBQ20021123214010411/23/02 21:40:31  5-MIN KDBQ 240340Z AUTO 30010KT 10SM CLR 02/M04 A3002 980 64 -200 300/10 RMK AO2 TSNO
94908KDBQ DBQ20021123214510411/23/02 21:45:31  5-MIN KDBQ 240345Z AUTO 30010KT 10SM CLR 02/M04 A3003 970 64 -300 300/10 RMK AO2 TSNO
94908KDBQ DBQ20021123215012111/23/02 21:50:31  5-MIN KDBQ 240350Z AUTO 31009KT 10SM CLR 02/M04 A3003 980 64 -200 310/09 RMK AO2 SLP178 T00221039 TSNO
94908KDBQ DBQ20021123215512411/23/02 21:55:31  5-MIN KDBQ 240355Z AUTO 30009KT 10SM FEW120 02/M04 A3003 970 64 -300 300/09 RMK AO2 SLP179 T00221039 TSNO
94908KDBQ DBQ20021123220010711/23/02 22:00:31  5-MIN KDBQ 240400Z AUTO 30009KT 10SM FEW110 02/M04 A3003 970 64 -300 300/09 RMK AO2 TSNO
94908KDBQ DBQ20021123220510711/23/02 22:05:31  5-MIN KDBQ 240405Z AUTO 30008KT 10SM SCT110 02/M04 A3003 980 64 -200 300/08 RMK AO2 TSNO
94908KDBQ DBQ20021123221010711/23/02 22:10:31  5-MIN KDBQ 240410Z AUTO 30007KT 10SM SCT110 02/M03 A3003 980 67 -200 300/07 RMK AO2 TSNO
94908KDBQ DBQ20021123221510711/23/02 22:15:31  5-MIN KDBQ 240415Z AUTO 30008KT 10SM SCT120 02/M04 A3003 970 64 -300 290/08 RMK AO2 TSNO
94908KDBQ DBQ20021123222010711/23/02 22:20:31  5-MIN KDBQ 240420Z AUTO 29007KT 10SM SCT120 02/M04 A3004 970 64 -300 290/07 RMK AO2 TSNO
94908KDBQ DBQ20021123222510711/23/02 22:25:31  5-MIN KDBQ 240425Z AUTO 29008KT 10SM SCT110 02/M04 A3004 970 64 -300 290/08 RMK AO2 TSNO
94908KDBQ DBQ20021123223010711/23/02 22:30:31  5-MIN KDBQ 240430Z AUTO 29007KT 10SM SCT120 02/M04 A3004 970 64 -300 290/07 RMK AO2 TSNO
94908KDBQ DBQ20021123223510711/23/02 22:35:31  5-MIN KDBQ 240435Z AUTO 29006KT 10SM FEW110 02/M04 A3004 960 64 -300 290/06 RMK AO2 TSNO
94908KDBQ DBQ20021123224010711/23/02 22:40:31  5-MIN KDBQ 240440Z AUTO 29007KT 10SM FEW120 02/M04 A3005 960 64 -300 290/07 RMK AO2 TSNO
94908KDBQ DBQ20021123224510711/23/02 22:45:31  5-MIN KDBQ 240445Z AUTO 29007KT 10SM FEW120 02/M04 A3005 960 64 -300 290/07 RMK AO2 TSNO
94908KDBQ DBQ20021123225012111/23/02 22:50:31  5-MIN KDBQ 240450Z AUTO 28005KT 10SM CLR 02/M04 A3005 960 66 -300 280/05 RMK AO2 SLP186 T00171039 TSNO
94908KDBQ DBQ20021123225512111/23/02 22:55:31  5-MIN KDBQ 240455Z AUTO 29006KT 10SM CLR 02/M04 A3005 960 66 -300 290/06 RMK AO2 SLP185 T00171039 TSNO
94908KDBQ DBQ20021123230010411/23/02 23:00:31  5-MIN KDBQ 240500Z AUTO 29007KT 10SM CLR 02/M04 A3005 960 66 -300 290/07 RMK AO2 TSNO
94908KDBQ DBQ20021123230510411/23/02 23:05:31  5-MIN KDBQ 240505Z AUTO 28006KT 10SM CLR 02/M04 A3005 960 66 -300 280/06 RMK AO2 TSNO
94908KDBQ DBQ20021123231010411/23/02 23:10:31  5-MIN KDBQ 240510Z AUTO 28007KT 10SM CLR 02/M04 A3006 950 66 -300 280/07 RMK AO2 TSNO
94908KDBQ DBQ20021123231510411/23/02 23:15:31  5-MIN KDBQ 240515Z AUTO 26008KT 10SM CLR 02/M03 A3006 950 69 -400 250/08 RMK AO2 TSNO
94908KDBQ DBQ20021123232010411/23/02 23:20:31  5-MIN KDBQ 240520Z AUTO 26007KT 10SM CLR 02/M03 A3006 950 69 -400 260/07 RMK AO2 TSNO
94908KDBQ DBQ20021123232510411/23/02 23:25:31  5-MIN KDBQ 240525Z AUTO 31007KT 10SM CLR 02/M03 A3005 960 69 -300 310/07 RMK AO2 TSNO
94908KDBQ DBQ20021123233010711/23/02 23:30:31  5-MIN KDBQ 240530Z AUTO 32008KT 10SM SCT110 02/M03 A3004 970 69 -300 320/08 RMK AO2 TSNO
94908KDBQ DBQ20021123233510711/23/02 23:35:31  5-MIN KDBQ 240535Z AUTO 29006KT 10SM SCT110 02/M04 A3005 960 66 -300 290/06 RMK AO2 TSNO
94908KDBQ DBQ20021123234010711/23/02 23:40:31  5-MIN KDBQ 240540Z AUTO 30007KT 10SM SCT110 02/M04 A3005 960 66 -300 300/07 RMK AO2 TSNO
94908KDBQ DBQ20021123234510711/23/02 23:45:31  5-MIN KDBQ 240545Z AUTO 29008KT 10SM FEW110 02/M04 A3005 960 66 -300 290/08 RMK AO2 TSNO
94908KDBQ DBQ20021123235015211/23/02 23:50:31  5-MIN KDBQ 240550Z AUTO 29008KT 10SM SCT110 02/M04 A3006 950 66 -400 290/08 RMK AO2 SLP188 T00171039 10033 20006 400781017 50015 TSNO
94908KDBQ DBQ20021123235515211/23/02 23:55:31  5-MIN KDBQ 240555Z AUTO 30007KT 10SM SCT110 02/M04 A3006 950 66 -300 300/07 RMK AO2 SLP187 T00171039 10033 20006 400781017 53009 TSNO
94908KDBQ DBQ20021124000010711/24/02 00:00:31  5-MIN KDBQ 240600Z AUTO 30008KT 10SM SCT110 02/M04 A3006 950 66 -400 300/08 RMK AO2 TSNO
94908KDBQ DBQ20021124000510711/24/02 00:05:31  5-MIN KDBQ 240605Z AUTO 30008KT 10SM SCT120 02/M04 A3006 950 61 -300 300/08 RMK AO2 TSNO
94908KDBQ DBQ20021124001010711/24/02 00:10:31  5-MIN KDBQ 240610Z AUTO 30008KT 10SM BKN120 02/M05 A3006 950 59 -300 300/08 RMK AO2 TSNO
94908KDBQ DBQ20021124001510711/24/02 00:15:31  5-MIN KDBQ 240615Z AUTO 30008KT 10SM BKN120 02/M05 A3007 940 59 -300 300/08 RMK AO2 TSNO
94908KDBQ DBQ20021124002010711/24/02 00:20:31  5-MIN KDBQ 240620Z AUTO 30009KT 10SM BKN120 02/M05 A3006 950 59 -300 300/09 RMK AO2 TSNO
94908KDBQ DBQ20021124002510711/24/02 00:25:31  5-MIN KDBQ 240625Z AUTO 31008KT 10SM BKN120 02/M05 A3006 950 59 -300 300/08 RMK AO2 TSNO
94908KDBQ DBQ20021124003010711/24/02 00:30:31  5-MIN KDBQ 240630Z AUTO 31009KT 10SM BKN120 02/M05 A3007 940 59 -300 310/09 RMK AO2 TSNO
94908KDBQ DBQ20021124003510711/24/02 00:35:31  5-MIN KDBQ 240635Z AUTO 31007KT 10SM BKN120 02/M05 A3007 940 59 -300 310/07 RMK AO2 TSNO
94908KDBQ DBQ20021124004010711/24/02 00:40:31  5-MIN KDBQ 240640Z AUTO 30008KT 10SM SCT120 02/M05 A3007 940 59 -300 300/08 RMK AO2 TSNO
94908KDBQ DBQ20021124004510711/24/02 00:45:31  5-MIN KDBQ 240645Z AUTO 31009KT 10SM SCT110 02/M05 A3007 940 59 -300 310/09 RMK AO2 TSNO
94908KDBQ DBQ20021124005012411/24/02 00:50:31  5-MIN KDBQ 240650Z AUTO 31009KT 10SM BKN110 02/M06 A3008 940 56 -300 310/09 RMK AO2 SLP193 T00221056 TSNO
94908KDBQ DBQ20021124005512411/24/02 00:55:31  5-MIN KDBQ 240655Z AUTO 32010KT 10SM BKN110 02/M06 A3007 940 56 -300 320/10 RMK AO2 SLP190 T00221056 TSNO
94908KDBQ DBQ20021124010010711/24/02 01:00:31  5-MIN KDBQ 240700Z AUTO 31012KT 10SM BKN110 02/M06 A3007 940 56 -300 310/12 RMK AO2 TSNO
94908KDBQ DBQ20021124010510711/24/02 01:05:31  5-MIN KDBQ 240705Z AUTO 31009KT 10SM BKN110 02/M06 A3007 940 56 -300 310/09 RMK AO2 TSNO
94908KDBQ DBQ20021124011010711/24/02 01:10:31  5-MIN KDBQ 240710Z AUTO 32011KT 10SM OVC110 02/M06 A3007 940 56 -300 320/11 RMK AO2 TSNO
94908KDBQ DBQ20021124011510711/24/02 01:15:31  5-MIN KDBQ 240715Z AUTO 32011KT 10SM OVC110 02/M06 A3007 940 56 -300 320/11 RMK AO2 TSNO
94908KDBQ DBQ20021124012010711/24/02 01:20:31  5-MIN KDBQ 240720Z AUTO 31009KT 10SM BKN110 02/M06 A3007 940 56 -300 310/09 RMK AO2 TSNO
94908KDBQ DBQ20021124012510711/24/02 01:25:31  5-MIN KDBQ 240725Z AUTO 32008KT 10SM OVC110 02/M06 A3007 940 59 -400 320/08 RMK AO2 TSNO
94908KDBQ DBQ20021124013010711/24/02 01:30:31  5-MIN KDBQ 240730Z AUTO 32009KT 10SM OVC110 02/M06 A3007 940 56 -300 320/09 RMK AO2 TSNO
94908KDBQ DBQ20021124013511411/24/02 01:35:31  5-MIN KDBQ 240735Z AUTO 31010KT 10SM FEW090 OVC110 02/M06 A3007 940 56 -300 310/10 RMK AO2 TSNO
94908KDBQ DBQ20021124014011411/24/02 01:40:31  5-MIN KDBQ 240740Z AUTO 31009KT 10SM FEW085 OVC110 02/M06 A3007 940 56 -300 310/09 RMK AO2 TSNO
94908KDBQ DBQ20021124014511411/24/02 01:45:31  5-MIN KDBQ 240745Z AUTO 31008KT 10SM SCT090 OVC110 02/M06 A3007 940 59 -400 310/08 RMK AO2 TSNO
94908KDBQ DBQ20021124015013111/24/02 01:50:31  5-MIN KDBQ 240750Z AUTO 30008KT 10SM SCT095 OVC110 02/M06 A3007 940 59 -400 300/08 RMK AO2 SLP192 T00171056 TSNO
94908KDBQ DBQ20021124015513111/24/02 01:55:31  5-MIN KDBQ 240755Z AUTO 31008KT 10SM SCT100 OVC110 02/M06 A3007 940 59 -400 310/08 RMK AO2 SLP192 T00171056 TSNO
94908KDBQ DBQ20021124020011411/24/02 02:00:31  5-MIN KDBQ 240800Z AUTO 30008KT 10SM SCT090 OVC110 02/M06 A3008 930 59 -400 300/08 RMK AO2 TSNO
94908KDBQ DBQ20021124020511411/24/02 02:05:31  5-MIN KDBQ 240805Z AUTO 30008KT 10SM BKN090 OVC110 02/M06 A3009 930 59 -400 300/08 RMK AO2 TSNO
94908KDBQ DBQ20021124021011411/24/02 02:10:31  5-MIN KDBQ 240810Z AUTO 30008KT 10SM BKN090 BKN110 02/M06 A3009 920 59 -400 300/08 RMK AO2 TSNO
94908KDBQ DBQ20021124021511411/24/02 02:15:31  5-MIN KDBQ 240815Z AUTO 30010KT 10SM BKN100 BKN110 02/M06 A3009 920 59 -400 300/10 RMK AO2 TSNO
94908KDBQ DBQ20021124022011411/24/02 02:20:31  5-MIN KDBQ 240820Z AUTO 31009KT 10SM SCT095 BKN110 02/M06 A3009 920 59 -400 310/09 RMK AO2 TSNO
94908KDBQ DBQ20021124022511411/24/02 02:25:31  5-MIN KDBQ 240825Z AUTO 30011KT 10SM SCT095 BKN120 02/M06 A3009 920 59 -400 300/11 RMK AO2 TSNO
94908KDBQ DBQ20021124023010711/24/02 02:30:31  5-MIN KDBQ 240830Z AUTO 30009KT 10SM BKN110 02/M06 A3009 920 59 -400 300/09 RMK AO2 TSNO
94908KDBQ DBQ20021124023510711/24/02 02:35:31  5-MIN KDBQ 240835Z AUTO 30011KT 10SM BKN110 01/M05 A3009 920 64 -500 300/11 RMK AO2 TSNO
94908KDBQ DBQ20021124024010711/24/02 02:40:31  5-MIN KDBQ 240840Z AUTO 30010KT 10SM BKN110 02/M06 A3009 920 59 -400 300/10 RMK AO2 TSNO
94908KDBQ DBQ20021124024510711/24/02 02:45:31  5-MIN KDBQ 240845Z AUTO 30008KT 10SM BKN120 01/M06 A3009 920 61 -500 300/08 RMK AO2 TSNO
94908KDBQ DBQ20021124025013011/24/02 02:50:31  5-MIN KDBQ 240850Z AUTO 30009KT 10SM BKN120 01/M06 A3009 920 61 -500 300/09 RMK AO2 SLP199 T00111056 53009 TSNO
94908KDBQ DBQ20021124025513011/24/02 02:55:31  5-MIN KDBQ 240855Z AUTO 30009KT 10SM BKN120 01/M06 A3009 920 61 -500 300/09 RMK AO2 SLP199 T00111056 53011 TSNO
94908KDBQ DBQ20021124030010711/24/02 03:00:31  5-MIN KDBQ 240900Z AUTO 30010KT 10SM OVC110 01/M06 A3009 920 61 -500 300/10 RMK AO2 TSNO
94908KDBQ DBQ20021124030510711/24/02 03:05:31  5-MIN KDBQ 240905Z AUTO 30010KT 10SM OVC110 01/M06 A3009 920 61 -500 300/10 RMK AO2 TSNO
94908KDBQ DBQ20021124031011411/24/02 03:10:31  5-MIN KDBQ 240910Z AUTO 31012KT 10SM FEW060 OVC110 01/M06 A3009 920 61 -500 310/12 RMK AO2 TSNO
94908KDBQ DBQ20021124031511411/24/02 03:15:31  5-MIN KDBQ 240915Z AUTO 32013KT 10SM FEW060 OVC110 01/M06 A3009 920 58 -500 320/13 RMK AO2 TSNO
94908KDBQ DBQ20021124032011411/24/02 03:20:31  5-MIN KDBQ 240920Z AUTO 32012KT 10SM FEW080 OVC110 01/M06 A3009 930 58 -500 320/12 RMK AO2 TSNO
94908KDBQ DBQ20021124032511411/24/02 03:25:31  5-MIN KDBQ 240925Z AUTO 32013KT 10SM FEW080 OVC100 01/M06 A3009 920 58 -500 320/13 RMK AO2 TSNO
94908KDBQ DBQ20021124033011411/24/02 03:30:31  5-MIN KDBQ 240930Z AUTO 32012KT 10SM FEW080 OVC100 01/M06 A3009 920 58 -500 310/12 RMK AO2 TSNO
94908KDBQ DBQ20021124033511411/24/02 03:35:31  5-MIN KDBQ 240935Z AUTO 31012KT 10SM FEW080 OVC100 01/M06 A3010 920 58 -500 310/12 RMK AO2 TSNO
94908KDBQ DBQ20021124034010711/24/02 03:40:31  5-MIN KDBQ 240940Z AUTO 30012KT 10SM OVC100 01/M06 A3009 920 58 -500 300/12 RMK AO2 TSNO
94908KDBQ DBQ20021124034510711/24/02 03:45:31  5-MIN KDBQ 240945Z AUTO 31009KT 10SM OVC100 01/M06 A3009 920 58 -500 310/09 RMK AO2 TSNO
94908KDBQ DBQ20021124035012411/24/02 03:50:31  5-MIN KDBQ 240950Z AUTO 32010KT 10SM OVC100 01/M06 A3010 920 58 -500 320/10 RMK AO2 SLP200 T00111061 TSNO
94908KDBQ DBQ20021124035512411/24/02 03:55:31  5-MIN KDBQ 240955Z AUTO 32012KT 10SM OVC100 01/M06 A3010 910 58 -500 310/12 RMK AO2 SLP202 T00111061 TSNO
94908KDBQ DBQ20021124040010711/24/02 04:00:31  5-MIN KDBQ 241000Z AUTO 31009KT 10SM OVC100 01/M06 A3010 910 58 -500 310/09 RMK AO2 TSNO
94908KDBQ DBQ20021124040510711/24/02 04:05:31  5-MIN KDBQ 241005Z AUTO 31010KT 10SM OVC095 01/M06 A3010 910 58 -500 310/10 RMK AO2 TSNO
94908KDBQ DBQ20021124041010711/24/02 04:10:31  5-MIN KDBQ 241010Z AUTO 31009KT 10SM OVC095 01/M06 A3010 910 58 -500 310/09 RMK AO2 TSNO
94908KDBQ DBQ20021124041510711/24/02 04:15:31  5-MIN KDBQ 241015Z AUTO 31007KT 10SM OVC095 01/M06 A3010 910 58 -500 310/07 RMK AO2 TSNO
94908KDBQ DBQ20021124042010711/24/02 04:20:31  5-MIN KDBQ 241020Z AUTO 31009KT 10SM OVC095 01/M06 A3010 910 58 -500 310/09 RMK AO2 TSNO
94908KDBQ DBQ20021124042510711/24/02 04:25:31  5-MIN KDBQ 241025Z AUTO 32011KT 10SM OVC095 01/M06 A3010 910 58 -500 320/11 RMK AO2 TSNO
94908KDBQ DBQ20021124043010711/24/02 04:30:31  5-MIN KDBQ 241030Z AUTO 32008KT 10SM OVC095 01/M06 A3010 910 61 -500 320/08 RMK AO2 TSNO
94908KDBQ DBQ20021124043510711/24/02 04:35:31  5-MIN KDBQ 241035Z AUTO 32010KT 10SM OVC090 01/M06 A3010 910 61 -500 320/10 RMK AO2 TSNO
94908KDBQ DBQ20021124044010711/24/02 04:40:31  5-MIN KDBQ 241040Z AUTO 32011KT 10SM OVC090 01/M06 A3011 910 61 -500 320/11 RMK AO2 TSNO
94908KDBQ DBQ20021124044510711/24/02 04:45:31  5-MIN KDBQ 241045Z AUTO 33010KT 10SM OVC085 01/M06 A3011 910 61 -500 330/10 RMK AO2 TSNO
94908KDBQ DBQ20021124045012411/24/02 04:50:31  5-MIN KDBQ 241050Z AUTO 33013KT 10SM OVC085 01/M06 A3011 910 61 -500 330/13 RMK AO2 SLP205 T00061061 TSNO
94908KDBQ DBQ20021124045512411/24/02 04:55:31  5-MIN KDBQ 241055Z AUTO 34014KT 10SM OVC085 01/M06 A3010 910 61 -500 340/14 RMK AO2 SLP204 T00061061 TSNO
94908KDBQ DBQ20021124050010711/24/02 05:00:31  5-MIN KDBQ 241100Z AUTO 33013KT 10SM OVC085 01/M07 A3010 910 58 -500 330/13 RMK AO2 TSNO
94908KDBQ DBQ20021124050510711/24/02 05:05:31  5-MIN KDBQ 241105Z AUTO 34013KT 10SM OVC085 01/M07 A3010 910 58 -500 340/13 RMK AO2 TSNO
94908KDBQ DBQ20021124051010711/24/02 05:10:31  5-MIN KDBQ 241110Z AUTO 34010KT 10SM OVC085 00/M07 A3010 910 61 -600 340/10 RMK AO2 TSNO
94908KDBQ DBQ20021124051510711/24/02 05:15:31  5-MIN KDBQ 241115Z AUTO 33012KT 10SM OVC085 00/M07 A3010 910 61 -600 330/12 RMK AO2 TSNO
94908KDBQ DBQ20021124052010711/24/02 05:20:31  5-MIN KDBQ 241120Z AUTO 33011KT 10SM OVC090 00/M07 A3010 910 61 -600 330/11 RMK AO2 TSNO
94908KDBQ DBQ20021124052510711/24/02 05:25:31  5-MIN KDBQ 241125Z AUTO 32013KT 10SM OVC090 00/M06 A3010 910 63 -600 320/13 RMK AO2 TSNO
94908KDBQ DBQ20021124053010711/24/02 05:30:31  5-MIN KDBQ 241130Z AUTO 33012KT 10SM OVC090 00/M07 A3010 910 61 -600 330/12 RMK AO2 TSNO
94908KDBQ DBQ20021124053510711/24/02 05:35:31  5-MIN KDBQ 241135Z AUTO 33011KT 10SM OVC090 00/M06 A3010 910 63 -600 330/11 RMK AO2 TSNO
94908KDBQ DBQ20021124054010711/24/02 05:40:31  5-MIN KDBQ 241140Z AUTO 33011KT 10SM OVC090 00/M06 A3010 910 63 -600 330/11 RMK AO2 TSNO
94908KDBQ DBQ20021124054509711/24/02 05:45:31  5-MIN KDBQ 241145Z 33011KT 10SM OVC090 00/M06 A3011 910 63 -600 330/11 RMK AO2
94908KDBQ DBQ20021124055013211/24/02 05:50:31  5-MIN KDBQ 241150Z 33010KT 10SM OVC090 00/M06 A3011 900 63 -600 330/10 RMK AO2 SLP207 T00001061 10022 20000 53011
94908KDBQ DBQ20021124055513211/24/02 05:55:31  5-MIN KDBQ 241155Z 33007KT 10SM OVC090 00/M06 A3011 900 63 -600 330/07 RMK AO2 SLP208 T00001061 10022 20000 53007
94908KDBQ DBQ20021124060009711/24/02 06:00:31  5-MIN KDBQ 241200Z 33008KT 10SM OVC090 00/M06 A3011 900 63 -600 330/08 RMK AO2
94908KDBQ DBQ20021124060509711/24/02 06:05:31  5-MIN KDBQ 241205Z 33009KT 10SM OVC090 00/M06 A3012 890 63 -600 320/09 RMK AO2
94908KDBQ DBQ20021124061009711/24/02 06:10:31  5-MIN KDBQ 241210Z 32009KT 10SM OVC090 00/M06 A3012 890 63 -600 320/09 RMK AO2
94908KDBQ DBQ20021124061509711/24/02 06:15:31  5-MIN KDBQ 241215Z 34008KT 10SM OVC090 00/M06 A3012 900 63 -600 340/08 RMK AO2
94908KDBQ DBQ20021124062009711/24/02 06:20:31  5-MIN KDBQ 241220Z 35009KT 10SM OVC090 00/M06 A3012 900 63 -600 350/09 RMK AO2
94908KDBQ DBQ20021124062509711/24/02 06:25:31  5-MIN KDBQ 241225Z 35008KT 10SM OVC090 00/M07 A3012 900 61 -600 350/08 RMK AO2
94908KDBQ DBQ20021124063009711/24/02 06:30:31  5-MIN KDBQ 241230Z 35010KT 10SM OVC090 00/M07 A3012 890 61 -600 350/10 RMK AO2
94908KDBQ DBQ20021124063509711/24/02 06:35:31  5-MIN KDBQ 241235Z 34010KT 10SM OVC090 00/M07 A3012 890 61 -600 340/10 RMK AO2
94908KDBQ DBQ20021124064009811/24/02 06:40:31  5-MIN KDBQ 241240Z 35010KT 10SM OVC090 M01/M07 A3012 890 63 -700 350/10 RMK AO2
94908KDBQ DBQ20021124064509811/24/02 06:45:31  5-MIN KDBQ 241245Z 34010KT 10SM OVC090 M01/M07 A3013 890 61 -700 340/10 RMK AO2
94908KDBQ DBQ20021124065011511/24/02 06:50:31  5-MIN KDBQ 241250Z 34008KT 10SM OVC090 M01/M07 A3013 890 61 -700 340/08 RMK AO2 SLP213 T10061072
94908KDBQ DBQ20021124065511511/24/02 06:55:31  5-MIN KDBQ 241255Z 34009KT 10SM OVC090 M01/M07 A3013 890 61 -700 340/09 RMK AO2 SLP215 T10061072
94908KDBQ DBQ20021124070009811/24/02 07:00:31  5-MIN KDBQ 241300Z 35008KT 10SM OVC090 M01/M07 A3012 890 61 -700 350/08 RMK AO2
94908KDBQ DBQ20021124070509811/24/02 07:05:31  5-MIN KDBQ 241305Z 34009KT 10SM OVC090 M01/M07 A3013 890 61 -700 340/09 RMK AO2
94908KDBQ DBQ20021124071009811/24/02 07:10:31  5-MIN KDBQ 241310Z 34011KT 10SM OVC090 M01/M07 A3012 890 61 -700 340/11 RMK AO2
94908KDBQ DBQ20021124071509811/24/02 07:15:31  5-MIN KDBQ 241315Z 33011KT 10SM OVC090 M01/M08 A3013 890 60 -800 330/11 RMK AO2
94908KDBQ DBQ20021124072009811/24/02 07:20:31  5-MIN KDBQ 241320Z 33010KT 10SM OVC090 M01/M08 A3013 890 60 -800 330/10 RMK AO2
94908KDBQ DBQ20021124072509811/24/02 07:25:31  5-MIN KDBQ 241325Z 33011KT 10SM OVC090 M01/M08 A3013 880 60 -800 330/11 RMK AO2
94908KDBQ DBQ20021124073009811/24/02 07:30:31  5-MIN KDBQ 241330Z 33009KT 10SM OVC090 M01/M08 A3013 880 60 -800 330/09 RMK AO2
94908KDBQ DBQ20021124073509811/24/02 07:35:31  5-MIN KDBQ 241335Z 33011KT 10SM OVC090 M01/M08 A3014 880 60 -800 330/11 RMK AO2
94908KDBQ DBQ20021124074009811/24/02 07:40:31  5-MIN KDBQ 241340Z 33011KT 10SM OVC090 M01/M08 A3014 880 60 -800 330/11 RMK AO2
94908KDBQ DBQ20021124074509811/24/02 07:45:31  5-MIN KDBQ 241345Z 33012KT 10SM OVC090 M01/M08 A3014 870 60 -800 330/12 RMK AO2
94908KDBQ DBQ20021124075011511/24/02 07:50:31  5-MIN KDBQ 241350Z 34011KT 10SM OVC090 M01/M08 A3015 870 60 -800 340/11 RMK AO2 SLP222 T10111078
94908KDBQ DBQ20021124075511511/24/02 07:55:31  5-MIN KDBQ 241355Z 34013KT 10SM OVC085 M01/M08 A3015 870 58 -800 340/13 RMK AO2 SLP221 T10111083
94908KDBQ DBQ20021124080009811/24/02 08:00:31  5-MIN KDBQ 241400Z 33011KT 10SM OVC085 M01/M08 A3014 870 58 -800 330/11 RMK AO2
94908KDBQ DBQ20021124080509811/24/02 08:05:31  5-MIN KDBQ 241405Z 34010KT 10SM OVC085 M01/M08 A3014 870 60 -800 340/10 RMK AO2
94908KDBQ DBQ20021124081009811/24/02 08:10:31  5-MIN KDBQ 241410Z 34009KT 10SM OVC085 M01/M08 A3015 870 58 -800 340/09 RMK AO2
94908KDBQ DBQ20021124081509811/24/02 08:15:31  5-MIN KDBQ 241415Z 34010KT 10SM OVC085 M01/M08 A3016 860 60 -800 330/10 RMK AO2
94908KDBQ DBQ20021124082010511/24/02 08:20:31  5-MIN KDBQ 241420Z 33010KT 10SM OVC080 M01/M08 A3017 850 60 -800 330/10 RMK AO2 PRESRR
94908KDBQ DBQ20021124082509811/24/02 08:25:31  5-MIN KDBQ 241425Z 33010KT 10SM OVC085 M01/M08 A3017 850 58 -800 330/10 RMK AO2
94908KDBQ DBQ20021124083009811/24/02 08:30:31  5-MIN KDBQ 241430Z 34009KT 10SM OVC085 M01/M08 A3017 850 58 -800 340/09 RMK AO2
94908KDBQ DBQ20021124083509811/24/02 08:35:31  5-MIN KDBQ 241435Z 33011KT 10SM OVC085 M01/M08 A3017 850 60 -800 330/11 RMK AO2
94908KDBQ DBQ20021124084009811/24/02 08:40:31  5-MIN KDBQ 241440Z 33011KT 10SM OVC085 M01/M08 A3017 850 58 -800 330/11 RMK AO2
94908KDBQ DBQ20021124084509811/24/02 08:45:31  5-MIN KDBQ 241445Z 33010KT 10SM OVC090 M01/M08 A3017 850 58 -800 330/10 RMK AO2
94908KDBQ DBQ20021124085012111/24/02 08:50:31  5-MIN KDBQ 241450Z 33010KT 10SM OVC090 M01/M08 A3017 850 58 -800 330/10 RMK AO2 SLP228 T10111083 53007
94908KDBQ DBQ20021124085512111/24/02 08:55:31  5-MIN KDBQ 241455Z 34008KT 10SM OVC090 M01/M08 A3017 850 58 -800 340/08 RMK AO2 SLP228 T10111083 53018
94908KDBQ DBQ20021124090009811/24/02 09:00:31  5-MIN KDBQ 241500Z 33007KT 10SM OVC090 M01/M08 A3017 850 60 -800 330/07 RMK AO2
94908KDBQ DBQ20021124090509811/24/02 09:05:31  5-MIN KDBQ 241505Z 34007KT 10SM OVC090 M01/M08 A3017 850 60 -800 340/07 RMK AO2
94908KDBQ DBQ20021124091009811/24/02 09:10:31  5-MIN KDBQ 241510Z 32010KT 10SM OVC090 M01/M08 A3018 840 60 -800 320/10 RMK AO2
94908KDBQ DBQ20021124091509811/24/02 09:15:31  5-MIN KDBQ 241515Z 33009KT 10SM OVC090 M01/M08 A3018 840 60 -800 330/09 RMK AO2
94908KDBQ DBQ20021124092009811/24/02 09:20:31  5-MIN KDBQ 241520Z 32009KT 10SM OVC090 M01/M08 A3018 840 60 -800 320/09 RMK AO2
94908KDBQ DBQ20021124092509811/24/02 09:25:31  5-MIN KDBQ 241525Z 32011KT 10SM OVC090 M01/M08 A3018 840 60 -800 320/11 RMK AO2
94908KDBQ DBQ20021124093010511/24/02 09:30:31  5-MIN KDBQ 241530Z 33011KT 10SM FEW065 OVC090 M01/M08 A3019 830 58 -800 320/11 RMK AO2
94908KDBQ DBQ20021124093510511/24/02 09:35:31  5-MIN KDBQ 241535Z 33011KT 10SM SCT060 OVC090 M01/M08 A3019 830 58 -900 330/11 RMK AO2
94908KDBQ DBQ20021124094010511/24/02 09:40:31  5-MIN KDBQ 241540Z 33012KT 10SM BKN060 OVC090 M01/M08 A3019 830 58 -900 330/12 RMK AO2
94908KDBQ DBQ20021124094510511/24/02 09:45:31  5-MIN KDBQ 241545Z 33009KT 10SM BKN060 OVC085 M01/M08 A3020 820 58 -900 330/09 RMK AO2
94908KDBQ DBQ20021124095012211/24/02 09:50:31  5-MIN KDBQ 241550Z 33009KT 10SM BKN060 OVC085 M01/M08 A3020 820 58 -900 330/09 RMK AO2 SLP237 T10111083
94908KDBQ DBQ20021124095511511/24/02 09:55:31  5-MIN KDBQ 241555Z 32010KT 10SM OVC060 M01/M08 A3019 830 58 -900 320/10 RMK AO2 SLP236 T10111083
94908KDBQ DBQ20021124100009811/24/02 10:00:31  5-MIN KDBQ 241600Z 33009KT 10SM BKN060 M01/M08 A3019 830 58 -900 330/09 RMK AO2
94908KDBQ DBQ20021124100509811/24/02 10:05:31  5-MIN KDBQ 241605Z 34009KT 10SM OVC060 M01/M08 A3019 830 58 -900 340/09 RMK AO2
94908KDBQ DBQ20021124101009811/24/02 10:10:31  5-MIN KDBQ 241610Z 35009KT 10SM OVC065 M01/M08 A3019 830 58 -900 350/09 RMK AO2
94908KDBQ DBQ20021124101509811/24/02 10:15:31  5-MIN KDBQ 241615Z 34009KT 10SM OVC060 M01/M08 A3019 830 58 -900 340/09 RMK AO2
94908KDBQ DBQ20021124102011211/24/02 10:20:31  5-MIN KDBQ 241620Z 35008KT 10SM FEW047 BKN055 OVC070 M01/M08 A3019 830 58 -800 350/08 RMK AO2
94908KDBQ DBQ20021124102511211/24/02 10:25:31  5-MIN KDBQ 241625Z 36008KT 10SM FEW047 BKN055 OVC070 M01/M08 A3019 830 60 -800 360/08 RMK AO2
94908KDBQ DBQ20021124103009811/24/02 10:30:31  5-MIN KDBQ 241630Z 35009KT 10SM OVC050 M01/M08 A3019 830 58 -800 350/09 RMK AO2
94908KDBQ DBQ20021124103509811/24/02 10:35:31  5-MIN KDBQ 241635Z 34008KT 10SM OVC050 M01/M08 A3019 830 60 -800 340/08 RMK AO2
94908KDBQ DBQ20021124104009811/24/02 10:40:31  5-MIN KDBQ 241640Z 34008KT 10SM OVC046 M01/M08 A3019 830 58 -800 340/08 RMK AO2
94908KDBQ DBQ20021124104509811/24/02 10:45:31  5-MIN KDBQ 241645Z 34007KT 10SM OVC044 M01/M08 A3019 830 58 -800 340/07 RMK AO2
94908KDBQ DBQ20021124105011511/24/02 10:50:31  5-MIN KDBQ 241650Z 34009KT 10SM OVC044 M01/M08 A3019 830 58 -800 330/09 RMK AO2 SLP234 T10111083
94908KDBQ DBQ20021124105511511/24/02 10:55:31  5-MIN KDBQ 241655Z 33008KT 10SM OVC044 M01/M08 A3019 830 58 -800 330/08 RMK AO2 SLP234 T10111083
94908KDBQ DBQ20021124110009811/24/02 11:00:31  5-MIN KDBQ 241700Z 35007KT 10SM OVC044 M01/M08 A3019 830 58 -800 350/07 RMK AO2
94908KDBQ DBQ20021124110509811/24/02 11:05:31  5-MIN KDBQ 241705Z 34008KT 10SM OVC044 M01/M08 A3018 840 58 -800 340/08 RMK AO2
94908KDBQ DBQ20021124111009811/24/02 11:10:31  5-MIN KDBQ 241710Z 32009KT 10SM OVC044 M01/M08 A3018 840 58 -800 320/09 RMK AO2
94908KDBQ DBQ20021124111509811/24/02 11:15:31  5-MIN KDBQ 241715Z 33009KT 10SM OVC044 M01/M08 A3018 840 58 -800 330/09 RMK AO2
94908KDBQ DBQ20021124112009811/24/02 11:20:31  5-MIN KDBQ 241720Z 33011KT 10SM OVC044 M01/M08 A3018 840 58 -800 320/11 RMK AO2
94908KDBQ DBQ20021124112509811/24/02 11:25:31  5-MIN KDBQ 241725Z 34008KT 10SM OVC044 M01/M08 A3018 840 58 -800 340/08 RMK AO2
94908KDBQ DBQ20021124113009811/24/02 11:30:31  5-MIN KDBQ 241730Z 32011KT 10SM OVC047 M01/M08 A3018 840 58 -800 320/11 RMK AO2
94908KDBQ DBQ20021124113509811/24/02 11:35:31  5-MIN KDBQ 241735Z 33009KT 10SM OVC047 M01/M08 A3017 840 58 -800 330/09 RMK AO2
94908KDBQ DBQ20021124114009811/24/02 11:40:31  5-MIN KDBQ 241740Z 35009KT 10SM OVC045 M01/M08 A3018 840 58 -800 350/09 RMK AO2
94908KDBQ DBQ20021124114509811/24/02 11:45:31  5-MIN KDBQ 241745Z 35009KT 10SM OVC043 M01/M08 A3017 850 58 -800 350/09 RMK AO2
94908KDBQ DBQ20021124115014011/24/02 11:50:31  5-MIN KDBQ 241750Z 35009KT 10SM BKN041 OVC050 M01/M08 A3017 850 58 -800 350/09 RMK AO2 SLP229 T10111083 10000 21011 53018
94908KDBQ DBQ20021124115514011/24/02 11:55:31  5-MIN KDBQ 241755Z 34009KT 10SM BKN043 BKN055 M01/M08 A3017 850 58 -800 340/09 RMK AO2 SLP227 T10111083 10000 21011 58000
94908KDBQ DBQ20021124120011211/24/02 12:00:31  5-MIN KDBQ 241800Z 35007KT 10SM BKN045 BKN050 M01/M08 A3015 860 58 -800 350/07 RMK AO2 PRESFR
94908KDBQ DBQ20021124120510511/24/02 12:05:31  5-MIN KDBQ 241805Z 34010KT 10SM BKN045 OVC055 M02/M08 A3017 850 60 -900 340/10 RMK AO2
94908KDBQ DBQ20021124121010511/24/02 12:10:31  5-MIN KDBQ 241810Z 35007KT 10SM SCT045 OVC055 M02/M08 A3017 850 60 -900 350/07 RMK AO2
94908KDBQ DBQ20021124121510511/24/02 12:15:31  5-MIN KDBQ 241815Z 35007KT 10SM BKN049 OVC060 M01/M08 A3017 850 58 -800 350/07 RMK AO2
94908KDBQ DBQ20021124122009811/24/02 12:20:31  5-MIN KDBQ 241820Z 34006KT 10SM OVC049 M01/M08 A3017 850 60 -800 340/06 RMK AO2
94908KDBQ DBQ20021124122509811/24/02 12:25:31  5-MIN KDBQ 241825Z 34007KT 10SM OVC049 M01/M08 A3017 850 60 -800 340/07 RMK AO2
94908KDBQ DBQ20021124123010511/24/02 12:30:31  5-MIN KDBQ 241830Z 34006KT 10SM BKN049 OVC065 M01/M08 A3017 850 60 -800 340/06 RMK AO2
94908KDBQ DBQ20021124123510511/24/02 12:35:31  5-MIN KDBQ 241835Z 29008KT 10SM BKN055 OVC080 M01/M08 A3017 850 60 -800 290/08 RMK AO2
94908KDBQ DBQ20021124124010511/24/02 12:40:31  5-MIN KDBQ 241840Z 36005KT 10SM BKN060 OVC075 M01/M08 A3016 850 60 -800 350/05 RMK AO2
94908KDBQ DBQ20021124124509811/24/02 12:45:31  5-MIN KDBQ 241845Z 32006KT 10SM OVC065 M01/M08 A3017 850 60 -800 320/06 RMK AO2
94908KDBQ DBQ20021124125011511/24/02 12:50:31  5-MIN KDBQ 241850Z 32007KT 10SM OVC070 M01/M08 A3017 850 60 -800 320/07 RMK AO2 SLP227 T10111078
94908KDBQ DBQ20021124125511511/24/02 12:55:31  5-MIN KDBQ 241855Z 33007KT 10SM OVC070 M01/M08 A3016 850 60 -800 330/07 RMK AO2 SLP227 T10111078
94908KDBQ DBQ20021124130009811/24/02 13:00:31  5-MIN KDBQ 241900Z 32007KT 10SM OVC070 M01/M08 A3017 850 58 -800 320/07 RMK AO2
94908KDBQ DBQ20021124130509811/24/02 13:05:31  5-MIN KDBQ 241905Z 33008KT 10SM OVC070 M01/M08 A3017 850 58 -800 330/08 RMK AO2
94908KDBQ DBQ20021124131009811/24/02 13:10:31  5-MIN KDBQ 241910Z 32008KT 10SM OVC075 M01/M08 A3017 850 58 -800 320/08 RMK AO2
94908KDBQ DBQ20021124131509811/24/02 13:15:31  5-MIN KDBQ 241915Z 32009KT 10SM OVC075 M02/M08 A3017 850 60 -900 320/09 RMK AO2
94908KDBQ DBQ20021124132010511/24/02 13:20:31  5-MIN KDBQ 241920Z 33008KT 10SM FEW060 OVC070 M02/M08 A3017 850 60 -900 330/08 RMK AO2
94908KDBQ DBQ20021124132509811/24/02 13:25:31  5-MIN KDBQ 241925Z 33008KT 10SM OVC070 M02/M08 A3018 840 60 -900 330/08 RMK AO2
94908KDBQ DBQ20021124133009811/24/02 13:30:31  5-MIN KDBQ 241930Z 31010KT 10SM OVC075 M02/M08 A3018 840 60 -900 310/10 RMK AO2
94908KDBQ DBQ20021124133509811/24/02 13:35:31  5-MIN KDBQ 241935Z 33010KT 10SM OVC070 M02/M08 A3018 840 60 -900 330/10 RMK AO2
94908KDBQ DBQ20021124134010511/24/02 13:40:31  5-MIN KDBQ 241940Z 32009KT 10SM BKN065 OVC075 M02/M08 A3018 840 60 -900 320/09 RMK AO2
94908KDBQ DBQ20021124134510511/24/02 13:45:31  5-MIN KDBQ 241945Z 34007KT 10SM BKN060 OVC075 M02/M08 A3017 840 60 -900 340/07 RMK AO2
94908KDBQ DBQ20021124135012211/24/02 13:50:31  5-MIN KDBQ 241950Z 33007KT 10SM BKN060 OVC075 M02/M08 A3017 850 60 -900 330/07 RMK AO2 SLP230 T10171083
94908KDBQ DBQ20021124135511511/24/02 13:55:31  5-MIN KDBQ 241955Z 32010KT 10SM OVC060 M02/M09 A3017 840 58 -900 320/10 RMK AO2 SLP230 T10171089
94908KDBQ DBQ20021124140009811/24/02 14:00:31  5-MIN KDBQ 242000Z 33008KT 10SM OVC060 M02/M09 A3017 840 58 -900 330/08 RMK AO2
94908KDBQ DBQ20021124140509811/24/02 14:05:31  5-MIN KDBQ 242005Z 32008KT 10SM OVC065 M02/M09 A3017 840 58 -900 320/08 RMK AO2
94908KDBQ DBQ20021124141009811/24/02 14:10:31  5-MIN KDBQ 242010Z 31008KT 10SM OVC060 M02/M09 A3018 840 58 -900 310/08 RMK AO2
94908KDBQ DBQ20021124141509811/24/02 14:15:31  5-MIN KDBQ 242015Z 31010KT 10SM OVC060 M02/M09 A3017 840 58 -900 310/10 RMK AO2
94908KDBQ DBQ20021124142009811/24/02 14:20:31  5-MIN KDBQ 242020Z 32010KT 10SM OVC060 M02/M09 A3017 840 55 -900 320/10 RMK AO2
94908KDBQ DBQ20021124142509811/24/02 14:25:31  5-MIN KDBQ 242025Z 33009KT 10SM OVC060 M02/M09 A3018 840 55 -900 330/09 RMK AO2
94908KDBQ DBQ20021124143009811/24/02 14:30:31  5-MIN KDBQ 242030Z 33010KT 10SM OVC060 M02/M09 A3017 840 55 -900 330/10 RMK AO2
94908KDBQ DBQ20021124143509811/24/02 14:35:31  5-MIN KDBQ 242035Z 33009KT 10SM OVC055 M02/M10 A3017 840 53 -900 330/09 RMK AO2
94908KDBQ DBQ20021124144009811/24/02 14:40:31  5-MIN KDBQ 242040Z 33008KT 10SM OVC050 M02/M10 A3017 850 53 -900 330/08 RMK AO2
94908KDBQ DBQ20021124144509811/24/02 14:45:31  5-MIN KDBQ 242045Z 33009KT 10SM OVC048 M02/M10 A3018 840 53 -900 330/09 RMK AO2
94908KDBQ DBQ20021124145012111/24/02 14:50:31  5-MIN KDBQ 242050Z 33008KT 10SM OVC043 M02/M10 A3017 850 53 -900 330/08 RMK AO2 SLP230 T10171100 58000
94908KDBQ DBQ20021124145512111/24/02 14:55:31  5-MIN KDBQ 242055Z 34009KT 10SM OVC041 M02/M09 A3018 840 55 -900 330/09 RMK AO2 SLP231 T10171094 53003
94908KDBQ DBQ20021124150009811/24/02 15:00:31  5-MIN KDBQ 242100Z 34008KT 10SM OVC041 M02/M10 A3018 840 53 -900 340/08 RMK AO2
94908KDBQ DBQ20021124150509811/24/02 15:05:31  5-MIN KDBQ 242105Z 34010KT 10SM OVC041 M02/M09 A3018 840 55 -900 340/10 RMK AO2
94908KDBQ DBQ20021124151009811/24/02 15:10:31  5-MIN KDBQ 242110Z 33008KT 10SM OVC041 M02/M09 A3018 840 55 -900 330/08 RMK AO2
94908KDBQ DBQ20021124151509811/24/02 15:15:31  5-MIN KDBQ 242115Z 34008KT 10SM OVC039 M02/M09 A3018 840 55 -900 340/08 RMK AO2
94908KDBQ DBQ20021124152009811/24/02 15:20:31  5-MIN KDBQ 242120Z 33009KT 10SM OVC041 M02/M09 A3018 840 55 -900 330/09 RMK AO2
94908KDBQ DBQ20021124152509811/24/02 15:25:31  5-MIN KDBQ 242125Z 33007KT 10SM OVC043 M02/M09 A3018 840 55 -900 330/07 RMK AO2
94908KDBQ DBQ20021124153009811/24/02 15:30:31  5-MIN KDBQ 242130Z 34006KT 10SM OVC041 M02/M09 A3018 840 55 -900 340/06 RMK AO2
94908KDBQ DBQ20021124153509811/24/02 15:35:31  5-MIN KDBQ 242135Z 33007KT 10SM BKN041 M02/M09 A3018 840 55 -900 330/07 RMK AO2
94908KDBQ DBQ20021124154010511/24/02 15:40:31  5-MIN KDBQ 242140Z 32009KT 10SM BKN045 BKN090 M02/M09 A3019 830 55 -900 320/09 RMK AO2
94908KDBQ DBQ20021124154510611/24/02 15:45:31  5-MIN KDBQ 242145Z 33009KT 10SM SCT060 BKN095 M02/M09 A3019 830 58 -1000 330/09 RMK AO2
94908KDBQ DBQ20021124155012311/24/02 15:50:31  5-MIN KDBQ 242150Z 33011KT 10SM BKN060 BKN095 M02/M09 A3019 830 58 -1000 330/11 RMK AO2 SLP237 T10221094
94908KDBQ DBQ20021124155512311/24/02 15:55:31  5-MIN KDBQ 242155Z 32010KT 10SM BKN050 BKN090 M02/M09 A3019 830 58 -1000 320/10 RMK AO2 SLP238 T10221094
94908KDBQ DBQ20021124160010611/24/02 16:00:31  5-MIN KDBQ 242200Z 33009KT 10SM BKN045 BKN090 M02/M09 A3019 830 58 -1000 330/09 RMK AO2
94908KDBQ DBQ20021124160511311/24/02 16:05:31  5-MIN KDBQ 242205Z 32010KT 10SM BKN043 BKN080 OVC095 M02/M09 A3019 830 58 -1000 320/10 RMK AO2
94908KDBQ DBQ20021124161011311/24/02 16:10:31  5-MIN KDBQ 242210Z 32008KT 10SM BKN050 BKN080 OVC095 M02/M09 A3019 830 58 -1000 320/08 RMK AO2
94908KDBQ DBQ20021124161511311/24/02 16:15:31  5-MIN KDBQ 242215Z 33007KT 10SM BKN046 BKN080 OVC100 M02/M09 A3020 820 58 -1000 330/07 RMK AO2
94908KDBQ DBQ20021124162011311/24/02 16:20:31  5-MIN KDBQ 242220Z 33008KT 10SM SCT039 BKN080 OVC100 M02/M09 A3020 820 58 -1000 330/08 RMK AO2
94908KDBQ DBQ20021124162511311/24/02 16:25:31  5-MIN KDBQ 242225Z 33008KT 10SM FEW041 SCT080 OVC110 M02/M09 A3020 820 58 -1000 330/08 RMK AO2
94908KDBQ DBQ20021124163011311/24/02 16:30:31  5-MIN KDBQ 242230Z 33007KT 10SM FEW050 SCT090 OVC110 M02/M09 A3019 830 58 -1000 330/07 RMK AO2
94908KDBQ DBQ20021124163510611/24/02 16:35:31  5-MIN KDBQ 242235Z 33008KT 10SM FEW080 OVC110 M02/M09 A3019 830 58 -1000 330/08 RMK AO2
94908KDBQ DBQ20021124164009911/24/02 16:40:31  5-MIN KDBQ 242240Z 32009KT 10SM OVC110 M02/M09 A3020 820 58 -1000 320/09 RMK AO2
94908KDBQ DBQ20021124164509911/24/02 16:45:31  5-MIN KDBQ 242245Z 33009KT 10SM OVC110 M02/M09 A3020 830 58 -1000 330/09 RMK AO2
94908KDBQ DBQ20021124165011611/24/02 16:50:31  5-MIN KDBQ 242250Z 33007KT 10SM OVC110 M02/M09 A3020 820 60 -1000 330/07 RMK AO2 SLP239 T10221089
94908KDBQ DBQ20021124165511611/24/02 16:55:31  5-MIN KDBQ 242255Z 33008KT 10SM OVC100 M02/M09 A3020 820 60 -1000 330/08 RMK AO2 SLP240 T10221089
94908KDBQ DBQ20021124170009911/24/02 17:00:31  5-MIN KDBQ 242300Z 33008KT 10SM OVC100 M02/M09 A3020 820 58 -1000 330/08 RMK AO2
94908KDBQ DBQ20021124170509911/24/02 17:05:31  5-MIN KDBQ 242305Z 32009KT 10SM OVC100 M02/M09 A3021 820 58 -1000 320/09 RMK AO2
94908KDBQ DBQ20021124171009911/24/02 17:10:31  5-MIN KDBQ 242310Z 32008KT 10SM OVC100 M02/M09 A3021 810 58 -1000 320/08 RMK AO2
94908KDBQ DBQ20021124171509911/24/02 17:15:31  5-MIN KDBQ 242315Z 33008KT 10SM OVC100 M03/M09 A3021 810 60 -1100 330/08 RMK AO2
94908KDBQ DBQ20021124172009911/24/02 17:20:31  5-MIN KDBQ 242320Z 33009KT 10SM OVC100 M03/M09 A3021 810 60 -1100 330/09 RMK AO2
94908KDBQ DBQ20021124172509911/24/02 17:25:31  5-MIN KDBQ 242325Z 31009KT 10SM OVC100 M03/M09 A3021 810 60 -1100 310/09 RMK AO2
94908KDBQ DBQ20021124173010611/24/02 17:30:31  5-MIN KDBQ 242330Z 32010KT 10SM SCT090 OVC110 M03/M09 A3021 810 60 -1100 320/10 RMK AO2
94908KDBQ DBQ20021124173510611/24/02 17:35:31  5-MIN KDBQ 242335Z 32008KT 10SM BKN090 OVC110 M03/M09 A3021 810 60 -1100 320/08 RMK AO2
94908KDBQ DBQ20021124174010611/24/02 17:40:31  5-MIN KDBQ 242340Z 33009KT 10SM SCT085 OVC110 M03/M09 A3022 810 60 -1100 330/09 RMK AO2
94908KDBQ DBQ20021124174510611/24/02 17:45:31  5-MIN KDBQ 242345Z 33008KT 10SM FEW085 OVC110 M03/M09 A3022 800 63 -1100 330/08 RMK AO2
94908KDBQ DBQ20021124175014111/24/02 17:50:31  5-MIN KDBQ 242350Z 33008KT 10SM FEW085 OVC110 M03/M09 A3021 810 60 -1100 320/08 RMK AO2 SLP245 T10281094 11011 21028 53003
94908KDBQ DBQ20021124175514111/24/02 17:55:31  5-MIN KDBQ 242355Z 33007KT 10SM BKN100 OVC120 M03/M09 A3021 810 60 -1100 330/07 RMK AO2 SLP243 T10281094 11011 21028 51011
94908KDBQ DBQ20021124180010611/24/02 18:00:31  5-MIN KDBQ 250000Z 33007KT 10SM BKN100 OVC120 M03/M09 A3022 810 60 -1100 330/07 RMK AO2
94908KDBQ DBQ20021124180509911/24/02 18:05:31  5-MIN KDBQ 250005Z 32007KT 10SM OVC110 M03/M09 A3022 800 60 -1100 320/07 RMK AO2
94908KDBQ DBQ20021124181009911/24/02 18:10:31  5-MIN KDBQ 250010Z 32008KT 10SM OVC100 M03/M09 A3023 800 63 -1100 320/08 RMK AO2
94908KDBQ DBQ20021124181509911/24/02 18:15:31  5-MIN KDBQ 250015Z 32008KT 10SM OVC110 M03/M09 A3022 800 60 -1100 320/08 RMK AO2
94908KDBQ DBQ20021124182010611/24/02 18:20:31  5-MIN KDBQ 250020Z 32008KT 10SM BKN100 OVC120 M03/M09 A3022 800 63 -1100 320/08 RMK AO2
94908KDBQ DBQ20021124182510611/24/02 18:25:31  5-MIN KDBQ 250025Z 32010KT 10SM BKN095 OVC120 M03/M09 A3022 800 60 -1100 310/10 RMK AO2
94908KDBQ DBQ20021124183010611/24/02 18:30:31  5-MIN KDBQ 250030Z 33008KT 10SM BKN095 OVC110 M03/M09 A3022 800 60 -1100 330/08 RMK AO2
94908KDBQ DBQ20021124183510611/24/02 18:35:31  5-MIN KDBQ 250035Z 33007KT 10SM BKN100 OVC110 M03/M09 A3022 800 60 -1100 330/07 RMK AO2
94908KDBQ DBQ20021124184010611/24/02 18:40:31  5-MIN KDBQ 250040Z 33007KT 10SM BKN095 OVC120 M03/M09 A3022 800 60 -1100 330/07 RMK AO2
94908KDBQ DBQ20021124184510611/24/02 18:45:31  5-MIN KDBQ 250045Z 33006KT 10SM BKN095 OVC110 M03/M09 A3022 800 60 -1100 330/06 RMK AO2
94908KDBQ DBQ20021124185012311/24/02 18:50:31  5-MIN KDBQ 250050Z 35006KT 10SM SCT095 OVC110 M03/M09 A3022 810 60 -1100 350/06 RMK AO2 SLP246 T10281094
94908KDBQ DBQ20021124185512311/24/02 18:55:31  5-MIN KDBQ 250055Z 33007KT 10SM SCT090 OVC110 M03/M09 A3022 800 60 -1100 330/07 RMK AO2 SLP248 T10281094
94908KDBQ DBQ20021124190010611/24/02 19:00:31  5-MIN KDBQ 250100Z 33008KT 10SM SCT090 OVC110 M03/M09 A3023 800 60 -1100 330/08 RMK AO2
94908KDBQ DBQ20021124190510611/24/02 19:05:31  5-MIN KDBQ 250105Z 33007KT 10SM SCT090 OVC110 M03/M09 A3023 790 60 -1100 330/07 RMK AO2
94908KDBQ DBQ20021124191010611/24/02 19:10:31  5-MIN KDBQ 250110Z 33007KT 10SM BKN090 OVC110 M03/M09 A3023 790 60 -1100 330/07 RMK AO2
94908KDBQ DBQ20021124191510611/24/02 19:15:31  5-MIN KDBQ 250115Z 33007KT 10SM BKN090 OVC110 M03/M09 A3023 790 60 -1100 330/07 RMK AO2
94908KDBQ DBQ20021124192010611/24/02 19:20:31  5-MIN KDBQ 250120Z 34007KT 10SM BKN090 OVC120 M03/M09 A3023 790 63 -1100 340/07 RMK AO2
94908KDBQ DBQ20021124192510611/24/02 19:25:31  5-MIN KDBQ 250125Z 33007KT 10SM BKN090 OVC120 M03/M09 A3024 790 60 -1100 330/07 RMK AO2
94908KDBQ DBQ20021124193010611/24/02 19:30:31  5-MIN KDBQ 250130Z 34005KT 10SM SCT090 OVC120 M03/M09 A3024 790 63 -1100 330/05 RMK AO2
94908KDBQ DBQ20021124193510611/24/02 19:35:31  5-MIN KDBQ 250135Z 33006KT 10SM SCT090 OVC120 M03/M09 A3024 780 65 -1200 330/06 RMK AO2
94908KDBQ DBQ20021124194010611/24/02 19:40:31  5-MIN KDBQ 250140Z 34007KT 10SM SCT090 OVC120 M03/M09 A3024 790 65 -1200 340/07 RMK AO2
94908KDBQ DBQ20021124194510611/24/02 19:45:31  5-MIN KDBQ 250145Z 34006KT 10SM FEW090 OVC120 M03/M09 A3024 790 65 -1200 340/06 RMK AO2
94908KDBQ DBQ20021124195013311/24/02 19:50:31  5-MIN KDBQ 250150Z AUTO 33006KT 10SM FEW090 OVC110 M03/M09 A3024 780 65 -1200 330/06 RMK AO2 SLP255 T10331089 TSNO
94908KDBQ DBQ20021124195513311/24/02 19:55:31  5-MIN KDBQ 250155Z AUTO 33006KT 10SM FEW090 OVC110 M03/M09 A3024 780 65 -1200 330/06 RMK AO2 SLP255 T10331089 TSNO
94908KDBQ DBQ20021124200011611/24/02 20:00:31  5-MIN KDBQ 250200Z AUTO 32007KT 10SM FEW090 OVC110 M03/M09 A3024 780 65 -1200 320/07 RMK AO2 TSNO
94908KDBQ DBQ20021124200510911/24/02 20:05:31  5-MIN KDBQ 250205Z AUTO 33006KT 10SM OVC110 M03/M09 A3024 780 63 -1200 330/06 RMK AO2 TSNO
94908KDBQ DBQ20021124201011611/24/02 20:10:31  5-MIN KDBQ 250210Z AUTO 32006KT 10SM BKN100 OVC120 M03/M09 A3024 780 65 -1200 320/06 RMK AO2 TSNO
94908KDBQ DBQ20021124201510911/24/02 20:15:31  5-MIN KDBQ 250215Z AUTO 32005KT 10SM OVC110 M03/M09 A3024 780 65 -1200 320/05 RMK AO2 TSNO
94908KDBQ DBQ20021124202010911/24/02 20:20:31  5-MIN KDBQ 250220Z AUTO 33005KT 10SM OVC110 M04/M09 A3024 780 68 -1300 330/05 RMK AO2 TSNO
94908KDBQ DBQ20021124202511611/24/02 20:25:31  5-MIN KDBQ 250225Z AUTO 33005KT 10SM FEW095 OVC120 M04/M09 A3024 780 68 -1300 330/05 RMK AO2 TSNO
94908KDBQ DBQ20021124203011611/24/02 20:30:31  5-MIN KDBQ 250230Z AUTO 32005KT 10SM FEW095 OVC120 M04/M09 A3025 780 68 -1300 320/05 RMK AO2 TSNO
94908KDBQ DBQ20021124203511611/24/02 20:35:31  5-MIN KDBQ 250235Z AUTO 32005KT 10SM FEW095 BKN120 M04/M09 A3025 780 68 -1300 320/05 RMK AO2 TSNO
94908KDBQ DBQ20021124204010911/24/02 20:40:31  5-MIN KDBQ 250240Z AUTO 32006KT 10SM BKN120 M04/M09 A3025 780 68 -1300 320/06 RMK AO2 TSNO
94908KDBQ DBQ20021124204510911/24/02 20:45:31  5-MIN KDBQ 250245Z AUTO 33006KT 10SM SCT120 M04/M09 A3025 780 65 -1300 320/06 RMK AO2 TSNO
94908KDBQ DBQ20021124205013211/24/02 20:50:31  5-MIN KDBQ 250250Z AUTO 33006KT 10SM SCT110 M04/M09 A3025 780 68 -1300 330/06 RMK AO2 SLP257 T10391089 51011 TSNO
94908KDBQ DBQ20021124205513211/24/02 20:55:31  5-MIN KDBQ 250255Z AUTO 34007KT 10SM FEW110 M04/M09 A3025 780 68 -1300 330/07 RMK AO2 SLP257 T10391089 51013 TSNO
94908KDBQ DBQ20021124210010611/24/02 21:00:31  5-MIN KDBQ 250300Z AUTO 33007KT 10SM CLR M04/M09 A3025 780 68 -1300 330/07 RMK AO2 TSNO
94908KDBQ DBQ20021124210510611/24/02 21:05:31  5-MIN KDBQ 250305Z AUTO 33008KT 10SM CLR M04/M09 A3025 780 65 -1300 330/08 RMK AO2 TSNO
94908KDBQ DBQ20021124211010611/24/02 21:10:31  5-MIN KDBQ 250310Z AUTO 33007KT 10SM CLR M04/M09 A3025 770 68 -1300 330/07 RMK AO2 TSNO
94908KDBQ DBQ20021124211510611/24/02 21:15:31  5-MIN KDBQ 250315Z AUTO 33007KT 10SM CLR M05/M09 A3025 770 71 -1400 330/07 RMK AO2 TSNO
94908KDBQ DBQ20021124212010611/24/02 21:20:31  5-MIN KDBQ 250320Z AUTO 33007KT 10SM CLR M05/M09 A3025 770 71 -1400 330/07 RMK AO2 TSNO
94908KDBQ DBQ20021124212510611/24/02 21:25:31  5-MIN KDBQ 250325Z AUTO 33007KT 10SM CLR M06/M09 A3025 770 74 -1500 330/07 RMK AO2 TSNO
94908KDBQ DBQ20021124213010611/24/02 21:30:31  5-MIN KDBQ 250330Z AUTO 32007KT 10SM CLR M06/M09 A3026 770 74 -1500 320/07 RMK AO2 TSNO
94908KDBQ DBQ20021124213510611/24/02 21:35:31  5-MIN KDBQ 250335Z AUTO 32007KT 10SM CLR M06/M09 A3026 770 74 -1500 320/07 RMK AO2 TSNO
94908KDBQ DBQ20021124214010611/24/02 21:40:31  5-MIN KDBQ 250340Z AUTO 33008KT 10SM CLR M06/M09 A3026 770 74 -1500 330/08 RMK AO2 TSNO
94908KDBQ DBQ20021124214510611/24/02 21:45:31  5-MIN KDBQ 250345Z AUTO 33008KT 10SM CLR M06/M09 A3026 770 74 -1500 330/08 RMK AO2 TSNO
94908KDBQ DBQ20021124215012311/24/02 21:50:31  5-MIN KDBQ 250350Z AUTO 33007KT 10SM CLR M06/M09 A3026 770 74 -1500 330/07 RMK AO2 SLP261 T10561094 TSNO
94908KDBQ DBQ20021124215512311/24/02 21:55:31  5-MIN KDBQ 250355Z AUTO 33007KT 10SM CLR M06/M09 A3026 770 77 -1600 330/07 RMK AO2 SLP261 T10611094 TSNO
94908KDBQ DBQ20021124220010611/24/02 22:00:31  5-MIN KDBQ 250400Z AUTO 33007KT 10SM CLR M06/M09 A3026 770 77 -1600 330/07 RMK AO2 TSNO
94908KDBQ DBQ20021124220510611/24/02 22:05:31  5-MIN KDBQ 250405Z AUTO 33007KT 10SM CLR M06/M09 A3026 770 77 -1600 330/07 RMK AO2 TSNO
94908KDBQ DBQ20021124221010611/24/02 22:10:31  5-MIN KDBQ 250410Z AUTO 33007KT 10SM CLR M06/M09 A3026 770 77 -1600 330/07 RMK AO2 TSNO
94908KDBQ DBQ20021124221510611/24/02 22:15:31  5-MIN KDBQ 250415Z AUTO 33007KT 10SM CLR M06/M09 A3026 770 77 -1600 330/07 RMK AO2 TSNO
94908KDBQ DBQ20021124222010611/24/02 22:20:31  5-MIN KDBQ 250420Z AUTO 33007KT 10SM CLR M06/M09 A3026 770 77 -1600 330/07 RMK AO2 TSNO
94908KDBQ DBQ20021124222510611/24/02 22:25:31  5-MIN KDBQ 250425Z AUTO 33007KT 10SM CLR M06/M09 A3026 770 77 -1600 330/07 RMK AO2 TSNO
94908KDBQ DBQ20021124223010611/24/02 22:30:31  5-MIN KDBQ 250430Z AUTO 33006KT 10SM CLR M06/M09 A3026 770 77 -1600 320/06 RMK AO2 TSNO
94908KDBQ DBQ20021124223510611/24/02 22:35:31  5-MIN KDBQ 250435Z AUTO 33007KT 10SM CLR M06/M10 A3026 770 74 -1600 330/07 RMK AO2 TSNO
94908KDBQ DBQ20021124224010911/24/02 22:40:31  5-MIN KDBQ 250440Z AUTO 33006KT 10SM FEW031 M06/M10 A3026 770 74 -1600 330/06 RMK AO2 TSNO
94908KDBQ DBQ20021124224510911/24/02 22:45:31  5-MIN KDBQ 250445Z AUTO 33007KT 10SM SCT031 M06/M10 A3026 770 74 -1600 330/07 RMK AO2 TSNO
94908KDBQ DBQ20021124225012611/24/02 22:50:31  5-MIN KDBQ 250450Z AUTO 33007KT 10SM SCT031 M06/M10 A3026 770 74 -1600 330/07 RMK AO2 SLP262 T10611100 TSNO
94908KDBQ DBQ20021124225512611/24/02 22:55:31  5-MIN KDBQ 250455Z AUTO 32007KT 10SM SCT031 M06/M10 A3026 770 74 -1600 320/07 RMK AO2 SLP262 T10611100 TSNO
94908KDBQ DBQ20021124230010911/24/02 23:00:31  5-MIN KDBQ 250500Z AUTO 33006KT 10SM BKN031 M06/M10 A3026 770 74 -1600 330/06 RMK AO2 TSNO
94908KDBQ DBQ20021124230510911/24/02 23:05:31  5-MIN KDBQ 250505Z AUTO 32007KT 10SM BKN031 M06/M10 A3026 770 74 -1600 320/07 RMK AO2 TSNO
94908KDBQ DBQ20021124231010911/24/02 23:10:31  5-MIN KDBQ 250510Z AUTO 33008KT 10SM BKN031 M06/M09 A3026 760 74 -1500 330/08 RMK AO2 TSNO
94908KDBQ DBQ20021124231510911/24/02 23:15:31  5-MIN KDBQ 250515Z AUTO 32007KT 10SM BKN031 M05/M09 A3026 760 71 -1400 320/07 RMK AO2 TSNO
94908KDBQ DBQ20021124232010911/24/02 23:20:31  5-MIN KDBQ 250520Z AUTO 33007KT 10SM OVC031 M05/M09 A3026 760 71 -1400 330/07 RMK AO2 TSNO
94908KDBQ DBQ20021124232510911/24/02 23:25:31  5-MIN KDBQ 250525Z AUTO 34009KT 10SM OVC031 M05/M09 A3026 760 71 -1400 340/09 RMK AO2 TSNO
94908KDBQ DBQ20021124233010911/24/02 23:30:31  5-MIN KDBQ 250530Z AUTO 34009KT 10SM OVC031 M04/M09 A3026 760 68 -1400 340/09 RMK AO2 TSNO
94908KDBQ DBQ20021124233510911/24/02 23:35:31  5-MIN KDBQ 250535Z AUTO 34008KT 10SM OVC031 M04/M09 A3026 760 68 -1400 340/08 RMK AO2 TSNO
94908KDBQ DBQ20021124234010911/24/02 23:40:31  5-MIN KDBQ 250540Z AUTO 33011KT 10SM OVC029 M04/M09 A3026 760 71 -1400 330/11 RMK AO2 TSNO
94908KDBQ DBQ20021124234510911/24/02 23:45:31  5-MIN KDBQ 250545Z AUTO 33012KT 10SM OVC029 M04/M09 A3026 760 65 -1300 330/12 RMK AO2 TSNO
94908KDBQ DBQ20021124235015411/24/02 23:50:31  5-MIN KDBQ 250550Z AUTO 34011KT 10SM OVC029 M04/M09 A3026 760 65 -1300 340/11 RMK AO2 SLP262 T10391094 11028 21061 400221061 51013 TSNO
94908KDBQ DBQ20021124235515411/24/02 23:55:31  5-MIN KDBQ 250555Z AUTO 33012KT 10SM OVC029 M04/M09 A3026 760 65 -1300 330/12 RMK AO2 SLP262 T10391094 11028 21061 400221061 51005 TSNO
94908KDBQ DBQ20021125000010911/25/02 00:00:31  5-MIN KDBQ 250600Z AUTO 33011KT 10SM OVC029 M04/M09 A3026 760 65 -1300 330/11 RMK AO2 TSNO
94908KDBQ DBQ20021125000510911/25/02 00:05:31  5-MIN KDBQ 250605Z AUTO 34012KT 10SM OVC029 M04/M09 A3026 760 65 -1300 330/12 RMK AO2 TSNO
94908KDBQ DBQ20021125001010911/25/02 00:10:31  5-MIN KDBQ 250610Z AUTO 34010KT 10SM OVC029 M04/M09 A3026 770 65 -1300 340/10 RMK AO2 TSNO
94908KDBQ DBQ20021125001510911/25/02 00:15:31  5-MIN KDBQ 250615Z AUTO 34009KT 10SM OVC029 M04/M09 A3026 770 65 -1300 340/09 RMK AO2 TSNO
94908KDBQ DBQ20021125002010911/25/02 00:20:31  5-MIN KDBQ 250620Z AUTO 33009KT 10SM OVC029 M04/M09 A3026 770 65 -1300 330/09 RMK AO2 TSNO
94908KDBQ DBQ20021125002510911/25/02 00:25:31  5-MIN KDBQ 250625Z AUTO 33009KT 10SM OVC029 M03/M09 A3026 770 63 -1200 330/09 RMK AO2 TSNO
94908KDBQ DBQ20021125003011511/25/02 00:30:31  5-MIN KDBQ 250630Z AUTO 32011G16KT 10SM OVC029 M04/M09 A3026 770 68 -1300 320/11G16 RMK AO2 TSNO
94908KDBQ DBQ20021125003511511/25/02 00:35:31  5-MIN KDBQ 250635Z AUTO 34009G16KT 10SM OVC029 M03/M09 A3026 770 65 -1200 340/09G16 RMK AO2 TSNO
94908KDBQ DBQ20021125004010911/25/02 00:40:31  5-MIN KDBQ 250640Z AUTO 35008KT 10SM OVC029 M03/M09 A3026 770 63 -1200 350/08 RMK AO2 TSNO
94908KDBQ DBQ20021125004510911/25/02 00:45:31  5-MIN KDBQ 250645Z AUTO 35009KT 10SM OVC029 M03/M09 A3026 760 63 -1200 350/09 RMK AO2 TSNO
94908KDBQ DBQ20021125005012611/25/02 00:50:31  5-MIN KDBQ 250650Z AUTO 35008KT 10SM OVC029 M03/M09 A3026 760 63 -1200 340/08 RMK AO2 SLP262 T10331094 TSNO
94908KDBQ DBQ20021125005512611/25/02 00:55:31  5-MIN KDBQ 250655Z AUTO 34007KT 10SM OVC029 M04/M09 A3026 760 68 -1300 340/07 RMK AO2 SLP262 T10391089 TSNO
94908KDBQ DBQ20021125010010911/25/02 01:00:31  5-MIN KDBQ 250700Z AUTO 34008KT 10SM BKN029 M04/M09 A3026 760 68 -1400 340/08 RMK AO2 TSNO
94908KDBQ DBQ20021125010510911/25/02 01:05:31  5-MIN KDBQ 250705Z AUTO 34008KT 10SM BKN029 M04/M09 A3026 760 68 -1400 340/08 RMK AO2 TSNO
94908KDBQ DBQ20021125011010911/25/02 01:10:31  5-MIN KDBQ 250710Z AUTO 34007KT 10SM SCT029 M05/M09 A3026 760 71 -1400 340/07 RMK AO2 TSNO
94908KDBQ DBQ20021125011510911/25/02 01:15:31  5-MIN KDBQ 250715Z AUTO 34007KT 10SM SCT029 M06/M10 A3027 760 71 -1500 340/07 RMK AO2 TSNO
94908KDBQ DBQ20021125012010911/25/02 01:20:31  5-MIN KDBQ 250720Z AUTO 34007KT 10SM FEW029 M06/M10 A3027 760 71 -1500 340/07 RMK AO2 TSNO
94908KDBQ DBQ20021125012510611/25/02 01:25:31  5-MIN KDBQ 250725Z AUTO 33007KT 10SM CLR M06/M10 A3027 760 74 -1600 330/07 RMK AO2 TSNO
94908KDBQ DBQ20021125013010611/25/02 01:30:31  5-MIN KDBQ 250730Z AUTO 33007KT 10SM CLR M06/M10 A3027 760 74 -1600 330/07 RMK AO2 TSNO
94908KDBQ DBQ20021125013510611/25/02 01:35:31  5-MIN KDBQ 250735Z AUTO 33007KT 10SM CLR M06/M10 A3027 760 74 -1600 330/07 RMK AO2 TSNO
94908KDBQ DBQ20021125014010611/25/02 01:40:31  5-MIN KDBQ 250740Z AUTO 33007KT 10SM CLR M06/M10 A3027 760 74 -1600 330/07 RMK AO2 TSNO
94908KDBQ DBQ20021125014510611/25/02 01:45:31  5-MIN KDBQ 250745Z AUTO 33007KT 10SM CLR M06/M10 A3027 760 74 -1600 330/07 RMK AO2 TSNO
94908KDBQ DBQ20021125015012311/25/02 01:50:31  5-MIN KDBQ 250750Z AUTO 33007KT 10SM CLR M07/M10 A3027 760 77 -1700 330/07 RMK AO2 SLP267 T10671100 TSNO
94908KDBQ DBQ20021125035512311/25/02 03:55:31  5-MIN KDBQ 250955Z AUTO 30005KT 10SM CLR M07/M10 A3029 740 81 -1700 300/05 RMK AO2 SLP274 T10721100 TSNO
94908KDBQ DBQ20021125040010611/25/02 04:00:31  5-MIN KDBQ 251000Z AUTO 30005KT 10SM CLR M07/M10 A3029 740 81 -1700 300/05 RMK AO2 TSNO
94908KDBQ DBQ20021125040510611/25/02 04:05:31  5-MIN KDBQ 251005Z AUTO 30005KT 10SM CLR M07/M10 A3029 740 81 -1700 300/05 RMK AO2 TSNO
94908KDBQ DBQ20021125041010611/25/02 04:10:31  5-MIN KDBQ 251010Z AUTO 30006KT 10SM CLR M07/M10 A3029 740 81 -1700 300/06 RMK AO2 TSNO
94908KDBQ DBQ20021125041510611/25/02 04:15:31  5-MIN KDBQ 251015Z AUTO 30006KT 10SM CLR M08/M11 A3029 740 80 -1800 300/06 RMK AO2 TSNO
94908KDBQ DBQ20021125042010611/25/02 04:20:31  5-MIN KDBQ 251020Z AUTO 31006KT 10SM CLR M07/M11 A3029 740 77 -1800 310/06 RMK AO2 TSNO
94908KDBQ DBQ20021125042510911/25/02 04:25:31  5-MIN KDBQ 251025Z AUTO 31006KT 10SM FEW026 M07/M10 A3029 730 81 -1800 310/06 RMK AO2 TSNO
94908KDBQ DBQ20021125043010911/25/02 04:30:31  5-MIN KDBQ 251030Z AUTO 31006KT 10SM FEW026 M07/M10 A3030 730 81 -1800 300/06 RMK AO2 TSNO
94908KDBQ DBQ20021125043510911/25/02 04:35:31  5-MIN KDBQ 251035Z AUTO 31006KT 10SM SCT026 M07/M10 A3030 730 77 -1700 310/06 RMK AO2 TSNO
94908KDBQ DBQ20021125044010911/25/02 04:40:31  5-MIN KDBQ 251040Z AUTO 32006KT 10SM BKN026 M06/M09 A3029 740 77 -1600 320/06 RMK AO2 TSNO
94908KDBQ DBQ20021125044510911/25/02 04:45:31  5-MIN KDBQ 251045Z AUTO 30005KT 10SM BKN026 M06/M09 A3029 740 77 -1500 300/05 RMK AO2 TSNO
94908KDBQ DBQ20021125045012611/25/02 04:50:31  5-MIN KDBQ 251050Z AUTO 30006KT 10SM BKN026 M06/M09 A3030 730 77 -1500 300/06 RMK AO2 SLP275 T10561089 TSNO
94908KDBQ DBQ20021125045512611/25/02 04:55:31  5-MIN KDBQ 251055Z AUTO 30006KT 10SM OVC026 M05/M09 A3030 730 74 -1500 300/06 RMK AO2 SLP275 T10501089 TSNO
94908KDBQ DBQ20021125050010911/25/02 05:00:31  5-MIN KDBQ 251100Z AUTO 30005KT 10SM OVC026 M05/M09 A3030 730 74 -1500 290/05 RMK AO2 TSNO
94908KDBQ DBQ20021125050510911/25/02 05:05:31  5-MIN KDBQ 251105Z AUTO 30006KT 10SM OVC026 M05/M09 A3030 730 74 -1500 290/06 RMK AO2 TSNO
94908KDBQ DBQ20021125051010911/25/02 05:10:31  5-MIN KDBQ 251110Z AUTO 31007KT 10SM OVC026 M05/M09 A3030 730 71 -1500 310/07 RMK AO2 TSNO
94908KDBQ DBQ20021125051510911/25/02 05:15:31  5-MIN KDBQ 251115Z AUTO 32008KT 10SM OVC026 M05/M09 A3030 730 71 -1500 310/08 RMK AO2 TSNO
94908KDBQ DBQ20021125052010911/25/02 05:20:31  5-MIN KDBQ 251120Z AUTO 30007KT 10SM OVC026 M05/M09 A3030 730 71 -1500 300/07 RMK AO2 TSNO
94908KDBQ DBQ20021125052510911/25/02 05:25:31  5-MIN KDBQ 251125Z AUTO 32009KT 10SM OVC026 M05/M09 A3030 730 71 -1500 320/09 RMK AO2 TSNO
94908KDBQ DBQ20021125053010911/25/02 05:30:31  5-MIN KDBQ 251130Z AUTO 31007KT 10SM OVC026 M05/M09 A3030 730 71 -1500 310/07 RMK AO2 TSNO
94908KDBQ DBQ20021125053510911/25/02 05:35:31  5-MIN KDBQ 251135Z AUTO 32008KT 10SM OVC026 M05/M09 A3030 730 71 -1500 320/08 RMK AO2 TSNO
94908KDBQ DBQ20021125054009911/25/02 05:40:31  5-MIN KDBQ 251140Z 31008KT 10SM OVC028 M05/M10 A3030 730 68 -1500 310/08 RMK AO2
94908KDBQ DBQ20021125054509911/25/02 05:45:31  5-MIN KDBQ 251145Z 31010KT 10SM OVC028 M05/M10 A3030 730 68 -1500 310/10 RMK AO2
94908KDBQ DBQ20021125055013411/25/02 05:50:31  5-MIN KDBQ 251150Z 33011KT 10SM OVC028 M05/M10 A3030 730 68 -1500 330/11 RMK AO2 SLP277 T10501100 11033 21078 53007
94908KDBQ DBQ20021125055513411/25/02 05:55:31  5-MIN KDBQ 251155Z 33011KT 10SM OVC028 M05/M10 A3030 730 68 -1500 320/11 RMK AO2 SLP277 T10501100 11033 21078 51005
94908KDBQ DBQ20021125060009911/25/02 06:00:31  5-MIN KDBQ 251200Z 33011KT 10SM OVC028 M05/M10 A3030 730 68 -1500 330/11 RMK AO2
94908KDBQ DBQ20021125060509911/25/02 06:05:31  5-MIN KDBQ 251205Z 35010KT 10SM OVC028 M05/M11 A3029 730 65 -1500 350/10 RMK AO2
94908KDBQ DBQ20021125061009911/25/02 06:10:31  5-MIN KDBQ 251210Z 34010KT 10SM OVC028 M05/M10 A3029 730 68 -1500 340/10 RMK AO2
94908KDBQ DBQ20021125061509911/25/02 06:15:31  5-MIN KDBQ 251215Z 34008KT 10SM OVC028 M05/M10 A3030 730 68 -1500 340/08 RMK AO2
94908KDBQ DBQ20021125062009911/25/02 06:20:31  5-MIN KDBQ 251220Z 33008KT 10SM OVC028 M05/M10 A3030 730 68 -1500 330/08 RMK AO2
94908KDBQ DBQ20021125062509911/25/02 06:25:31  5-MIN KDBQ 251225Z 33008KT 10SM OVC028 M05/M10 A3030 730 68 -1500 330/08 RMK AO2
94908KDBQ DBQ20021125063009911/25/02 06:30:31  5-MIN KDBQ 251230Z 33007KT 10SM OVC028 M05/M10 A3031 720 68 -1500 330/07 RMK AO2
94908KDBQ DBQ20021125063509911/25/02 06:35:31  5-MIN KDBQ 251235Z 33007KT 10SM OVC028 M05/M10 A3031 720 68 -1500 330/07 RMK AO2
94908KDBQ DBQ20021125064009911/25/02 06:40:31  5-MIN KDBQ 251240Z 34009KT 10SM OVC028 M05/M10 A3031 720 68 -1500 340/09 RMK AO2
94908KDBQ DBQ20021125064509911/25/02 06:45:31  5-MIN KDBQ 251245Z 34010KT 10SM OVC028 M05/M10 A3031 720 68 -1500 340/10 RMK AO2
94908KDBQ DBQ20021125065011611/25/02 06:50:31  5-MIN KDBQ 251250Z 34008KT 10SM OVC028 M05/M10 A3031 720 68 -1500 340/08 RMK AO2 SLP282 T10501100
94908KDBQ DBQ20021125065511611/25/02 06:55:31  5-MIN KDBQ 251255Z 32008KT 10SM OVC028 M05/M10 A3031 720 68 -1500 320/08 RMK AO2 SLP281 T10501100
94908KDBQ DBQ20021125070009911/25/02 07:00:31  5-MIN KDBQ 251300Z 34006KT 10SM OVC028 M05/M10 A3031 720 68 -1500 340/06 RMK AO2
94908KDBQ DBQ20021125070509911/25/02 07:05:31  5-MIN KDBQ 251305Z 32007KT 10SM OVC028 M05/M10 A3032 720 68 -1500 320/07 RMK AO2
94908KDBQ DBQ20021125071009911/25/02 07:10:31  5-MIN KDBQ 251310Z 33007KT 10SM OVC028 M05/M10 A3032 710 68 -1500 330/07 RMK AO2
94908KDBQ DBQ20021125071509911/25/02 07:15:31  5-MIN KDBQ 251315Z 33008KT 10SM OVC028 M05/M10 A3032 710 68 -1500 330/08 RMK AO2
94908KDBQ DBQ20021125072009911/25/02 07:20:31  5-MIN KDBQ 251320Z 33008KT 10SM OVC028 M05/M10 A3032 710 68 -1500 330/08 RMK AO2
94908KDBQ DBQ20021125072509911/25/02 07:25:31  5-MIN KDBQ 251325Z 32008KT 10SM OVC026 M05/M10 A3032 710 68 -1500 320/08 RMK AO2
94908KDBQ DBQ20021125073009911/25/02 07:30:31  5-MIN KDBQ 251330Z 34008KT 10SM OVC026 M04/M09 A3033 700 68 -1400 340/08 RMK AO2
94908KDBQ DBQ20021125073509911/25/02 07:35:31  5-MIN KDBQ 251335Z 34007KT 10SM OVC026 M04/M09 A3033 700 68 -1400 340/07 RMK AO2
94908KDBQ DBQ20021125074009911/25/02 07:40:31  5-MIN KDBQ 251340Z 32009KT 10SM OVC026 M04/M10 A3033 700 65 -1400 320/09 RMK AO2
94908KDBQ DBQ20021125074509911/25/02 07:45:31  5-MIN KDBQ 251345Z 33007KT 10SM OVC026 M04/M10 A3033 700 65 -1400 330/07 RMK AO2
94908KDBQ DBQ20021125075011611/25/02 07:50:31  5-MIN KDBQ 251350Z 34008KT 10SM OVC026 M04/M09 A3033 700 68 -1400 330/08 RMK AO2 SLP286 T10441094
94908KDBQ DBQ20021125075511611/25/02 07:55:31  5-MIN KDBQ 251355Z 34008KT 10SM OVC026 M04/M09 A3033 700 68 -1400 340/08 RMK AO2 SLP287 T10441094
94908KDBQ DBQ20021125080009911/25/02 08:00:31  5-MIN KDBQ 251400Z 34009KT 10SM OVC026 M04/M10 A3033 700 65 -1400 340/09 RMK AO2
94908KDBQ DBQ20021125080509911/25/02 08:05:31  5-MIN KDBQ 251405Z 34010KT 10SM OVC026 M04/M10 A3033 700 65 -1400 340/10 RMK AO2
94908KDBQ DBQ20021125081009911/25/02 08:10:31  5-MIN KDBQ 251410Z 33009KT 10SM OVC026 M04/M10 A3033 700 65 -1400 330/09 RMK AO2
94908KDBQ DBQ20021125081509911/25/02 08:15:31  5-MIN KDBQ 251415Z 32010KT 10SM OVC026 M04/M11 A3033 700 62 -1400 320/10 RMK AO2
94908KDBQ DBQ20021125082009911/25/02 08:20:31  5-MIN KDBQ 251420Z 34009KT 10SM OVC026 M05/M11 A3033 700 65 -1500 340/09 RMK AO2
94908KDBQ DBQ20021125082509911/25/02 08:25:31  5-MIN KDBQ 251425Z 32007KT 10SM OVC026 M04/M11 A3034 700 62 -1400 320/07 RMK AO2
94908KDBQ DBQ20021125083009911/25/02 08:30:31  5-MIN KDBQ 251430Z 32006KT 10SM OVC026 M04/M11 A3033 700 62 -1400 320/06 RMK AO2
94908KDBQ DBQ20021125083509911/25/02 08:35:31  5-MIN KDBQ 251435Z 32008KT 10SM OVC026 M04/M11 A3034 690 62 -1400 310/08 RMK AO2
94908KDBQ DBQ20021125084009911/25/02 08:40:31  5-MIN KDBQ 251440Z 31007KT 10SM OVC026 M04/M11 A3034 700 62 -1400 310/07 RMK AO2
94908KDBQ DBQ20021125084509911/25/02 08:45:31  5-MIN KDBQ 251445Z 32008KT 10SM OVC026 M04/M10 A3034 690 65 -1400 320/08 RMK AO2
94908KDBQ DBQ20021125085012211/25/02 08:50:31  5-MIN KDBQ 251450Z 31008KT 10SM OVC026 M04/M11 A3034 690 62 -1400 310/08 RMK AO2 SLP291 T10441106 51005
94908KDBQ DBQ20021125085512211/25/02 08:55:31  5-MIN KDBQ 251455Z 32010KT 10SM OVC026 M04/M10 A3034 690 65 -1400 310/10 RMK AO2 SLP291 T10441100 53014
94908KDBQ DBQ20021125090009911/25/02 09:00:31  5-MIN KDBQ 251500Z 33008KT 10SM OVC026 M04/M11 A3034 690 60 -1500 320/08 RMK AO2
94908KDBQ DBQ20021125090509911/25/02 09:05:31  5-MIN KDBQ 251505Z 33007KT 10SM OVC026 M04/M11 A3035 690 62 -1500 330/07 RMK AO2
94908KDBQ DBQ20021125091009911/25/02 09:10:31  5-MIN KDBQ 251510Z 33008KT 10SM OVC026 M04/M11 A3035 680 62 -1500 330/08 RMK AO2
94908KDBQ DBQ20021125091509911/25/02 09:15:31  5-MIN KDBQ 251515Z 35006KT 10SM OVC026 M04/M11 A3035 680 62 -1500 350/06 RMK AO2
94908KDBQ DBQ20021125092009911/25/02 09:20:31  5-MIN KDBQ 251520Z 30007KT 10SM OVC026 M04/M10 A3035 680 65 -1500 300/07 RMK AO2
94908KDBQ DBQ20021125092509911/25/02 09:25:31  5-MIN KDBQ 251525Z 32010KT 10SM OVC026 M04/M11 A3036 680 62 -1500 320/10 RMK AO2
94908KDBQ DBQ20021125093009911/25/02 09:30:31  5-MIN KDBQ 251530Z 33006KT 10SM OVC026 M04/M11 A3036 680 62 -1500 330/06 RMK AO2
94908KDBQ DBQ20021125093509911/25/02 09:35:31  5-MIN KDBQ 251535Z 32009KT 10SM OVC026 M04/M10 A3036 670 63 -1400 320/09 RMK AO2
94908KDBQ DBQ20021125094009911/25/02 09:40:31  5-MIN KDBQ 251540Z 33008KT 10SM OVC026 M04/M11 A3036 670 62 -1500 330/08 RMK AO2
94908KDBQ DBQ20021125094509911/25/02 09:45:31  5-MIN KDBQ 251545Z 30008KT 10SM OVC028 M04/M11 A3037 670 60 -1400 300/08 RMK AO2
94908KDBQ DBQ20021125095011611/25/02 09:50:31  5-MIN KDBQ 251550Z 31009KT 10SM OVC028 M04/M10 A3037 670 63 -1400 310/09 RMK AO2 SLP300 T10391100
94908KDBQ DBQ20021125095511611/25/02 09:55:31  5-MIN KDBQ 251555Z 34006KT 10SM OVC028 M03/M10 A3037 670 60 -1300 340/06 RMK AO2 SLP300 T10331100
94908KDBQ DBQ20021125100009911/25/02 10:00:31  5-MIN KDBQ 251600Z 33006KT 10SM OVC028 M04/M11 A3036 670 60 -1400 330/06 RMK AO2
94908KDBQ DBQ20021125100509911/25/02 10:05:31  5-MIN KDBQ 251605Z 33008KT 10SM OVC028 M04/M11 A3036 670 60 -1400 330/08 RMK AO2
94908KDBQ DBQ20021125101009911/25/02 10:10:31  5-MIN KDBQ 251610Z 33008KT 10SM OVC028 M04/M11 A3037 670 60 -1400 330/08 RMK AO2
94908KDBQ DBQ20021125101509911/25/02 10:15:31  5-MIN KDBQ 251615Z 33007KT 10SM OVC028 M04/M11 A3037 670 60 -1400 330/07 RMK AO2
94908KDBQ DBQ20021125102009911/25/02 10:20:31  5-MIN KDBQ 251620Z 33007KT 10SM OVC028 M04/M11 A3037 660 60 -1400 320/07 RMK AO2
94908KDBQ DBQ20021125102509911/25/02 10:25:31  5-MIN KDBQ 251625Z 33004KT 10SM OVC028 M04/M11 A3037 670 60 -1400 330/04 RMK AO2
94908KDBQ DBQ20021125103009911/25/02 10:30:31  5-MIN KDBQ 251630Z 34007KT 10SM OVC028 M03/M10 A3037 670 60 -1300 340/07 RMK AO2
94908KDBQ DBQ20021125103509911/25/02 10:35:31  5-MIN KDBQ 251635Z 30005KT 10SM OVC028 M04/M11 A3037 670 60 -1400 300/05 RMK AO2
94908KDBQ DBQ20021125104009911/25/02 10:40:31  5-MIN KDBQ 251640Z 31004KT 10SM OVC028 M04/M11 A3036 670 60 -1400 310/04 RMK AO2
94908KDBQ DBQ20021125104509911/25/02 10:45:31  5-MIN KDBQ 251645Z 32003KT 10SM OVC028 M04/M11 A3036 670 60 -1400 320/03 RMK AO2
94908KDBQ DBQ20021125105011611/25/02 10:50:31  5-MIN KDBQ 251650Z VRB04KT 10SM OVC028 M03/M11 A3036 680 57 -1300 VRB/04 RMK AO2 SLP297 T10331106
94908KDBQ DBQ20021125105511611/25/02 10:55:31  5-MIN KDBQ 251655Z VRB06KT 10SM OVC028 M03/M10 A3036 680 58 -1300 VRB/06 RMK AO2 SLP297 T10281100
94908KDBQ DBQ20021125110009911/25/02 11:00:31  5-MIN KDBQ 251700Z 34008KT 10SM BKN028 M03/M11 A3036 680 57 -1300 340/08 RMK AO2
94908KDBQ DBQ20021125110509911/25/02 11:05:31  5-MIN KDBQ 251705Z 35004KT 10SM BKN028 M03/M11 A3035 680 57 -1300 350/04 RMK AO2
94908KDBQ DBQ20021125111009911/25/02 11:10:31  5-MIN KDBQ 251710Z 34006KT 10SM SCT028 M03/M11 A3035 680 55 -1200 340/06 RMK AO2
94908KDBQ DBQ20021125111509911/25/02 11:15:31  5-MIN KDBQ 251715Z 31006KT 10SM SCT028 M03/M11 A3035 680 57 -1300 310/06 RMK AO2
94908KDBQ DBQ20021125112009911/25/02 11:20:31  5-MIN KDBQ 251720Z 30005KT 10SM FEW028 M04/M11 A3035 690 60 -1400 300/05 RMK AO2
94908KDBQ DBQ20021125112509611/25/02 11:25:31  5-MIN KDBQ 251725Z 34004KT 10SM CLR M03/M11 A3035 690 57 -1300 340/04 RMK AO2
94908KDBQ DBQ20021125113009611/25/02 11:30:31  5-MIN KDBQ 251730Z 27004KT 10SM CLR M03/M10 A3034 690 58 -1200 270/04 RMK AO2
94908KDBQ DBQ20021125113509911/25/02 11:35:31  5-MIN KDBQ 251735Z 29004KT 10SM FEW030 M03/M11 A3034 690 55 -1200 290/04 RMK AO2
94908KDBQ DBQ20021125114009911/25/02 11:40:31  5-MIN KDBQ 251740Z 33009KT 10SM FEW030 M02/M10 A3034 690 55 -1200 330/09 RMK AO2
94908KDBQ DBQ20021125114509911/25/02 11:45:31  5-MIN KDBQ 251745Z 35008KT 10SM FEW030 M02/M10 A3034 700 55 -1200 350/08 RMK AO2
94908KDBQ DBQ20021125115013411/25/02 11:50:31  5-MIN KDBQ 251750Z 33006KT 10SM FEW030 M03/M10 A3033 700 58 -1200 330/06 RMK AO2 SLP288 T10281100 11022 21050 53014
94908KDBQ DBQ20021125115513411/25/02 11:55:31  5-MIN KDBQ 251755Z 30007KT 10SM FEW030 M02/M10 A3033 700 55 -1200 300/07 RMK AO2 SLP287 T10221100 11022 21050 58003
94908KDBQ DBQ20021125120009911/25/02 12:00:31  5-MIN KDBQ 251800Z 30005KT 10SM FEW030 M03/M10 A3033 700 58 -1200 300/05 RMK AO2
94908KDBQ DBQ20021125120509611/25/02 12:05:31  5-MIN KDBQ 251805Z 30008KT 10SM CLR M03/M10 A3033 700 58 -1200 300/08 RMK AO2
94908KDBQ DBQ20021125121009911/25/02 12:10:31  5-MIN KDBQ 251810Z VRB05KT 10SM FEW030 M02/M10 A3033 700 55 -1200 VRB/05 RMK AO2
94908KDBQ DBQ20021125121509911/25/02 12:15:31  5-MIN KDBQ 251815Z 00000KT 10SM FEW030 M03/M10 A3033 700 58 -1200 000/00 RMK AO2
94908KDBQ DBQ20021125122009911/25/02 12:20:31  5-MIN KDBQ 251820Z VRB05KT 10SM FEW030 M02/M10 A3033 700 55 -1100 VRB/05 RMK AO2
94908KDBQ DBQ20021125122509911/25/02 12:25:31  5-MIN KDBQ 251825Z 28005KT 10SM FEW030 M03/M10 A3033 710 58 -1200 280/05 RMK AO2
94908KDBQ DBQ20021125123009911/25/02 12:30:31  5-MIN KDBQ 251830Z 25004KT 10SM FEW030 M03/M11 A3033 710 55 -1200 250/04 RMK AO2
94908KDBQ DBQ20021125123509911/25/02 12:35:31  5-MIN KDBQ 251835Z 00000KT 10SM FEW030 M03/M10 A3032 710 58 -1200 000/00 RMK AO2
94908KDBQ DBQ20021125124009911/25/02 12:40:31  5-MIN KDBQ 251840Z 00000KT 10SM FEW030 M02/M10 A3032 710 55 -1100 000/00 RMK AO2
94908KDBQ DBQ20021125124509911/25/02 12:45:31  5-MIN KDBQ 251845Z 34006KT 10SM FEW030 M02/M10 A3032 710 55 -1100 340/06 RMK AO2
94908KDBQ DBQ20021125125011611/25/02 12:50:31  5-MIN KDBQ 251850Z VRB03KT 10SM FEW030 M02/M10 A3032 710 55 -1100 VRB/03 RMK AO2 SLP283 T10221100
94908KDBQ DBQ20021125125511611/25/02 12:55:31  5-MIN KDBQ 251855Z 34004KT 10SM FEW030 M02/M10 A3032 710 55 -1100 340/04 RMK AO2 SLP282 T10221100
94908KDBQ DBQ20021125130009911/25/02 13:00:31  5-MIN KDBQ 251900Z 00000KT 10SM FEW030 M02/M10 A3032 710 55 -1100 000/00 RMK AO2
94908KDBQ DBQ20021125130509911/25/02 13:05:31  5-MIN KDBQ 251905Z 00000KT 10SM FEW030 M02/M10 A3031 720 55 -1100 000/00 RMK AO2
94908KDBQ DBQ20021125131009611/25/02 13:10:31  5-MIN KDBQ 251910Z VRB03KT 10SM CLR M02/M09 A3031 720 55 -1100 VRB/03 RMK AO2
94908KDBQ DBQ20021125131509611/25/02 13:15:31  5-MIN KDBQ 251915Z VRB03KT 10SM CLR M02/M10 A3031 720 55 -1100 VRB/03 RMK AO2
94908KDBQ DBQ20021125132009611/25/02 13:20:31  5-MIN KDBQ 251920Z 00000KT 10SM CLR M02/M10 A3031 720 55 -1100 000/00 RMK AO2
94908KDBQ DBQ20021125132509911/25/02 13:25:31  5-MIN KDBQ 251925Z VRB03KT 10SM FEW031 M02/M09 A3031 720 55 -1100 VRB/03 RMK AO2
94908KDBQ DBQ20021125133009911/25/02 13:30:31  5-MIN KDBQ 251930Z 34005KT 10SM FEW031 M02/M10 A3031 720 55 -1100 340/05 RMK AO2
94908KDBQ DBQ20021125133509911/25/02 13:35:31  5-MIN KDBQ 251935Z 05005KT 10SM FEW031 M02/M09 A3031 720 55 -1100 050/05 RMK AO2
94908KDBQ DBQ20021125134009911/25/02 13:40:31  5-MIN KDBQ 251940Z 32006KT 10SM FEW031 M02/M09 A3031 720 55 -1100 320/06 RMK AO2
94908KDBQ DBQ20021125134509911/25/02 13:45:31  5-MIN KDBQ 251945Z VRB04KT 10SM FEW031 M02/M10 A3030 730 53 -1100 VRB/04 RMK AO2
94908KDBQ DBQ20021125135011311/25/02 13:50:31  5-MIN KDBQ 251950Z 31006KT 10SM CLR M02/M10 A3030 730 53 -1000 310/06 RMK AO2 SLP278 T10171100
94908KDBQ DBQ20021125135511311/25/02 13:55:31  5-MIN KDBQ 251955Z VRB06KT 10SM CLR M02/M10 A3030 730 53 -1000 VRB/06 RMK AO2 SLP278 T10171100
94908KDBQ DBQ20021125140009611/25/02 14:00:31  5-MIN KDBQ 252000Z 36005KT 10SM CLR M01/M09 A3030 730 53 -1000 350/05 RMK AO2
94908KDBQ DBQ20021125140509611/25/02 14:05:31  5-MIN KDBQ 252005Z 36006KT 10SM CLR M02/M09 A3031 720 55 -1100 360/06 RMK AO2
94908KDBQ DBQ20021125141009611/25/02 14:10:31  5-MIN KDBQ 252010Z 36007KT 10SM CLR M02/M10 A3031 720 53 -1100 360/07 RMK AO2
94908KDBQ DBQ20021125141509611/25/02 14:15:31  5-MIN KDBQ 252015Z 33006KT 10SM CLR M02/M10 A3031 720 53 -1100 330/06 RMK AO2
94908KDBQ DBQ20021125142009611/25/02 14:20:31  5-MIN KDBQ 252020Z 33004KT 10SM CLR M02/M10 A3031 720 55 -1100 330/04 RMK AO2
94908KDBQ DBQ20021125142509611/25/02 14:25:31  5-MIN KDBQ 252025Z 00000KT 10SM CLR M02/M10 A3031 720 53 -1100 000/00 RMK AO2
94908KDBQ DBQ20021125143009611/25/02 14:30:31  5-MIN KDBQ 252030Z 33007KT 10SM CLR M02/M09 A3031 720 55 -1100 330/07 RMK AO2
94908KDBQ DBQ20021125143509611/25/02 14:35:31  5-MIN KDBQ 252035Z 35004KT 10SM CLR M02/M10 A3031 720 53 -1100 350/04 RMK AO2
94908KDBQ DBQ20021125144009611/25/02 14:40:31  5-MIN KDBQ 252040Z 31003KT 10SM CLR M02/M10 A3031 720 55 -1100 310/03 RMK AO2
94908KDBQ DBQ20021125144509611/25/02 14:45:31  5-MIN KDBQ 252045Z 33005KT 10SM CLR M02/M10 A3031 720 53 -1100 330/05 RMK AO2
94908KDBQ DBQ20021125145011911/25/02 14:50:31  5-MIN KDBQ 252050Z 31003KT 10SM CLR M02/M10 A3031 720 55 -1100 310/03 RMK AO2 SLP281 T10221100 58003
94908KDBQ DBQ20021125145511911/25/02 14:55:31  5-MIN KDBQ 252055Z 00000KT 10SM CLR M02/M10 A3031 720 55 -1100 000/00 RMK AO2 SLP282 T10221100 55006
94908KDBQ DBQ20021125150009611/25/02 15:00:31  5-MIN KDBQ 252100Z VRB03KT 10SM CLR M02/M10 A3031 720 53 -1100 VRB/03 RMK AO2
94908KDBQ DBQ20021125150509611/25/02 15:05:31  5-MIN KDBQ 252105Z VRB03KT 10SM CLR M02/M09 A3031 720 55 -1100 VRB/03 RMK AO2
94908KDBQ DBQ20021125151009611/25/02 15:10:31  5-MIN KDBQ 252110Z 36004KT 10SM CLR M02/M10 A3031 720 53 -1100 360/04 RMK AO2
94908KDBQ DBQ20021125151509611/25/02 15:15:31  5-MIN KDBQ 252115Z 35003KT 10SM CLR M02/M10 A3031 720 53 -1100 350/03 RMK AO2
94908KDBQ DBQ20021125152009611/25/02 15:20:31  5-MIN KDBQ 252120Z VRB03KT 10SM CLR M02/M09 A3032 710 55 -1100 VRB/03 RMK AO2
94908KDBQ DBQ20021125152509611/25/02 15:25:31  5-MIN KDBQ 252125Z 33004KT 10SM CLR M02/M09 A3032 710 58 -1100 330/04 RMK AO2
94908KDBQ DBQ20021125153009611/25/02 15:30:31  5-MIN KDBQ 252130Z 33003KT 10SM CLR M02/M10 A3032 710 55 -1100 330/03 RMK AO2
94908KDBQ DBQ20021125153509611/25/02 15:35:31  5-MIN KDBQ 252135Z 00000KT 10SM CLR M02/M10 A3032 710 55 -1100 000/00 RMK AO2
94908KDBQ DBQ20021125154009611/25/02 15:40:31  5-MIN KDBQ 252140Z 36003KT 10SM CLR M02/M09 A3033 710 58 -1100 350/03 RMK AO2
94908KDBQ DBQ20021125154509611/25/02 15:45:31  5-MIN KDBQ 252145Z 35004KT 10SM CLR M02/M10 A3033 700 55 -1100 350/04 RMK AO2
94908KDBQ DBQ20021125155011311/25/02 15:50:31  5-MIN KDBQ 252150Z 00000KT 10SM CLR M02/M10 A3033 700 55 -1100 000/00 RMK AO2 SLP286 T10221100
94908KDBQ DBQ20021125155511311/25/02 15:55:31  5-MIN KDBQ 252155Z 00000KT 10SM CLR M02/M10 A3033 710 55 -1100 000/00 RMK AO2 SLP286 T10221100
94908KDBQ DBQ20021125160009611/25/02 16:00:31  5-MIN KDBQ 252200Z 00000KT 10SM CLR M02/M10 A3033 700 55 -1100 000/00 RMK AO2
94908KDBQ DBQ20021125160509611/25/02 16:05:31  5-MIN KDBQ 252205Z 00000KT 10SM CLR M03/M10 A3033 710 58 -1200 000/00 RMK AO2
94908KDBQ DBQ20021125161009611/25/02 16:10:31  5-MIN KDBQ 252210Z 00000KT 10SM CLR M03/M10 A3033 710 58 -1200 000/00 RMK AO2
94908KDBQ DBQ20021125161509611/25/02 16:15:31  5-MIN KDBQ 252215Z 00000KT 10SM CLR M02/M11 A3033 700 53 -1100 000/00 RMK AO2
94908KDBQ DBQ20021125162009611/25/02 16:20:31  5-MIN KDBQ 252220Z 00000KT 10SM CLR M03/M11 A3033 700 55 -1200 000/00 RMK AO2
94908KDBQ DBQ20021125162509611/25/02 16:25:31  5-MIN KDBQ 252225Z 00000KT 10SM CLR M03/M11 A3033 700 55 -1200 000/00 RMK AO2
94908KDBQ DBQ20021125163009611/25/02 16:30:31  5-MIN KDBQ 252230Z 00000KT 10SM CLR M03/M10 A3033 700 60 -1300 000/00 RMK AO2
94908KDBQ DBQ20021125163509611/25/02 16:35:31  5-MIN KDBQ 252235Z 00000KT 10SM CLR M03/M10 A3034 700 58 -1200 000/00 RMK AO2
94908KDBQ DBQ20021125164009611/25/02 16:40:31  5-MIN KDBQ 252240Z 00000KT 10SM CLR M03/M10 A3034 700 60 -1300 000/00 RMK AO2
94908KDBQ DBQ20021125164509611/25/02 16:45:31  5-MIN KDBQ 252245Z 00000KT 10SM CLR M03/M10 A3034 700 60 -1300 000/00 RMK AO2
94908KDBQ DBQ20021125165011311/25/02 16:50:31  5-MIN KDBQ 252250Z 00000KT 10SM CLR M04/M11 A3034 700 60 -1400 000/00 RMK AO2 SLP289 T10391106
94908KDBQ DBQ20021125165511311/25/02 16:55:31  5-MIN KDBQ 252255Z 00000KT 10SM CLR M04/M11 A3034 700 60 -1400 000/00 RMK AO2 SLP289 T10391106
94908KDBQ DBQ20021125170009611/25/02 17:00:31  5-MIN KDBQ 252300Z 00000KT 10SM CLR M05/M11 A3034 700 65 -1500 000/00 RMK AO2
94908KDBQ DBQ20021125170509611/25/02 17:05:31  5-MIN KDBQ 252305Z 00000KT 10SM CLR M05/M10 A3034 690 68 -1500 000/00 RMK AO2
94908KDBQ DBQ20021125171009611/25/02 17:10:31  5-MIN KDBQ 252310Z 00000KT 10SM CLR M06/M11 A3034 690 68 -1600 000/00 RMK AO2
94908KDBQ DBQ20021125171509611/25/02 17:15:31  5-MIN KDBQ 252315Z 00000KT 10SM CLR M06/M11 A3034 690 68 -1600 000/00 RMK AO2
94908KDBQ DBQ20021125172009611/25/02 17:20:31  5-MIN KDBQ 252320Z 00000KT 10SM CLR M06/M11 A3034 690 68 -1600 000/00 RMK AO2
94908KDBQ DBQ20021125172509611/25/02 17:25:31  5-MIN KDBQ 252325Z 00000KT 10SM CLR M06/M11 A3034 690 68 -1600 000/00 RMK AO2
94908KDBQ DBQ20021125173009611/25/02 17:30:31  5-MIN KDBQ 252330Z 00000KT 10SM CLR M06/M11 A3034 690 71 -1700 000/00 RMK AO2
94908KDBQ DBQ20021125173509611/25/02 17:35:31  5-MIN KDBQ 252335Z 00000KT 10SM CLR M06/M11 A3034 690 71 -1700 000/00 RMK AO2
94908KDBQ DBQ20021125174009611/25/02 17:40:31  5-MIN KDBQ 252340Z 00000KT 10SM CLR M06/M11 A3034 690 71 -1700 000/00 RMK AO2
94908KDBQ DBQ20021125174509611/25/02 17:45:31  5-MIN KDBQ 252345Z 00000KT 10SM CLR M07/M11 A3034 690 71 -1700 000/00 RMK AO2
94908KDBQ DBQ20021125175013111/25/02 17:50:31  5-MIN KDBQ 252350Z 00000KT 10SM CLR M07/M11 A3034 690 74 -1800 000/00 RMK AO2 SLP294 T10721111 11011 21072 55006
94908KDBQ DBQ20021125175513111/25/02 17:55:31  5-MIN KDBQ 252355Z 00000KT 10SM CLR M07/M11 A3034 690 74 -1800 000/00 RMK AO2 SLP294 T10721111 11011 21072 51010
94908KDBQ DBQ20021125180009611/25/02 18:00:31  5-MIN KDBQ 260000Z 00000KT 10SM CLR M07/M11 A3034 690 77 -1800 000/00 RMK AO2
94908KDBQ DBQ20021125180509611/25/02 18:05:31  5-MIN KDBQ 260005Z 00000KT 10SM CLR M07/M11 A3034 690 74 -1700 000/00 RMK AO2
94908KDBQ DBQ20021125181009611/25/02 18:10:31  5-MIN KDBQ 260010Z 10003KT 10SM CLR M07/M11 A3035 690 77 -1800 100/03 RMK AO2
94908KDBQ DBQ20021125181509611/25/02 18:15:31  5-MIN KDBQ 260015Z 00000KT 10SM CLR M07/M11 A3035 680 74 -1800 000/00 RMK AO2
94908KDBQ DBQ20021125182009611/25/02 18:20:31  5-MIN KDBQ 260020Z 00000KT 10SM CLR M07/M11 A3035 680 74 -1800 000/00 RMK AO2
94908KDBQ DBQ20021125182509611/25/02 18:25:31  5-MIN KDBQ 260025Z 00000KT 10SM CLR M07/M11 A3035 680 74 -1700 000/00 RMK AO2
94908KDBQ DBQ20021125183009611/25/02 18:30:31  5-MIN KDBQ 260030Z 00000KT 10SM CLR M07/M11 A3035 680 74 -1800 000/00 RMK AO2
94908KDBQ DBQ20021125183509611/25/02 18:35:31  5-MIN KDBQ 260035Z 00000KT 10SM CLR M07/M11 A3035 680 74 -1800 000/00 RMK AO2
94908KDBQ DBQ20021125184009611/25/02 18:40:31  5-MIN KDBQ 260040Z 00000KT 10SM CLR M07/M11 A3035 680 74 -1800 000/00 RMK AO2
94908KDBQ DBQ20021125184509611/25/02 18:45:31  5-MIN KDBQ 260045Z 00000KT 10SM CLR M07/M11 A3035 680 77 -1800 000/00 RMK AO2
94908KDBQ DBQ20021125185011311/25/02 18:50:31  5-MIN KDBQ 260050Z 00000KT 10SM CLR M07/M11 A3036 680 74 -1800 000/00 RMK AO2 SLP298 T10671106
94908KDBQ DBQ20021125185511311/25/02 18:55:31  5-MIN KDBQ 260055Z 00000KT 10SM CLR M07/M11 A3036 680 74 -1800 000/00 RMK AO2 SLP298 T10721111
94908KDBQ DBQ20021125190009611/25/02 19:00:31  5-MIN KDBQ 260100Z 00000KT 10SM CLR M07/M11 A3036 680 74 -1800 000/00 RMK AO2
94908KDBQ DBQ20021125190509611/25/02 19:05:31  5-MIN KDBQ 260105Z 00000KT 10SM CLR M07/M11 A3036 680 74 -1800 000/00 RMK AO2
94908KDBQ DBQ20021125191009611/25/02 19:10:31  5-MIN KDBQ 260110Z 00000KT 10SM CLR M07/M11 A3036 680 74 -1800 000/00 RMK AO2
94908KDBQ DBQ20021125191509611/25/02 19:15:31  5-MIN KDBQ 260115Z 00000KT 10SM CLR M08/M11 A3036 680 77 -1900 000/00 RMK AO2
94908KDBQ DBQ20021125192009611/25/02 19:20:31  5-MIN KDBQ 260120Z 00000KT 10SM CLR M08/M11 A3036 680 77 -1900 000/00 RMK AO2
94908KDBQ DBQ20021125192509611/25/02 19:25:31  5-MIN KDBQ 260125Z 00000KT 10SM CLR M08/M11 A3036 680 77 -1900 000/00 RMK AO2
94908KDBQ DBQ20021125193009611/25/02 19:30:31  5-MIN KDBQ 260130Z 00000KT 10SM CLR M08/M11 A3036 680 77 -1900 000/00 RMK AO2
94908KDBQ DBQ20021125193509611/25/02 19:35:31  5-MIN KDBQ 260135Z 00000KT 10SM CLR M08/M11 A3036 680 77 -1900 000/00 RMK AO2
94908KDBQ DBQ20021125194010111/25/02 19:40:31  5-MIN KDBQ 260140Z AUTO 00000KT 10SM CLR M07/M11 A3036 680 77 -1800 000/00 RMK AO2
94908KDBQ DBQ20021125194510611/25/02 19:45:31  5-MIN KDBQ 260145Z AUTO 00000KT 10SM CLR M07/M11 A3036 680 74 -1800 000/00 RMK AO2 TSNO
94908KDBQ DBQ20021125195012311/25/02 19:50:31  5-MIN KDBQ 260150Z AUTO 00000KT 10SM CLR M08/M11 A3036 680 77 -1900 000/00 RMK AO2 SLP299 T10781111 TSNO
94908KDBQ DBQ20021125195512311/25/02 19:55:31  5-MIN KDBQ 260155Z AUTO 00000KT 10SM CLR M08/M11 A3036 670 77 -1900 000/00 RMK AO2 SLP299 T10781111 TSNO
94908KDBQ DBQ20021125200010611/25/02 20:00:31  5-MIN KDBQ 260200Z AUTO 00000KT 10SM CLR M08/M11 A3036 680 77 -1900 000/00 RMK AO2 TSNO
94908KDBQ DBQ20021125200510611/25/02 20:05:31  5-MIN KDBQ 260205Z AUTO 00000KT 10SM CLR M07/M11 A3036 670 77 -1800 000/00 RMK AO2 TSNO
94908KDBQ DBQ20021125201010611/25/02 20:10:31  5-MIN KDBQ 260210Z AUTO 00000KT 10SM CLR M07/M11 A3036 670 74 -1800 000/00 RMK AO2 TSNO
94908KDBQ DBQ20021125201510611/25/02 20:15:31  5-MIN KDBQ 260215Z AUTO 00000KT 10SM CLR M07/M11 A3036 670 77 -1800 000/00 RMK AO2 TSNO
94908KDBQ DBQ20021125202010611/25/02 20:20:31  5-MIN KDBQ 260220Z AUTO 00000KT 10SM CLR M08/M11 A3036 670 77 -1900 000/00 RMK AO2 TSNO
94908KDBQ DBQ20021125202510611/25/02 20:25:31  5-MIN KDBQ 260225Z AUTO 00000KT 10SM CLR M08/M11 A3036 670 80 -2000 000/00 RMK AO2 TSNO
94908KDBQ DBQ20021125203010611/25/02 20:30:31  5-MIN KDBQ 260230Z AUTO 00000KT 10SM CLR M08/M11 A3036 670 80 -2000 000/00 RMK AO2 TSNO
94908KDBQ DBQ20021125203510611/25/02 20:35:31  5-MIN KDBQ 260235Z AUTO 00000KT 10SM CLR M08/M11 A3036 670 77 -1900 000/00 RMK AO2 TSNO
94908KDBQ DBQ20021125204010611/25/02 20:40:31  5-MIN KDBQ 260240Z AUTO 00000KT 10SM CLR M08/M11 A3036 670 77 -1900 000/00 RMK AO2 TSNO
94908KDBQ DBQ20021125204510611/25/02 20:45:31  5-MIN KDBQ 260245Z AUTO 00000KT 10SM CLR M08/M11 A3036 670 80 -2000 000/00 RMK AO2 TSNO
94908KDBQ DBQ20021125205012911/25/02 20:50:31  5-MIN KDBQ 260250Z AUTO 00000KT 10SM CLR M08/M12 A3036 670 77 -2000 000/00 RMK AO2 SLP300 T10831117 51010 TSNO
94908KDBQ DBQ20021125205512911/25/02 20:55:31  5-MIN KDBQ 260255Z AUTO 00000KT 10SM CLR M09/M12 A3036 670 80 -2000 000/00 RMK AO2 SLP301 T10891117 51006 TSNO
94908KDBQ DBQ20021125210010611/25/02 21:00:31  5-MIN KDBQ 260300Z AUTO 17003KT 10SM CLR M09/M12 A3036 670 80 -2000 170/03 RMK AO2 TSNO
94908KDBQ DBQ20021125210510511/25/02 21:05:31  5-MIN KDBQ 260305Z AUTO 00000KT 9SM CLR M09/M12 A3036 670 84 -2100 000/00 RMK AO2 TSNO
94908KDBQ DBQ20021125211010511/25/02 21:10:31  5-MIN KDBQ 260310Z AUTO 00000KT 9SM CLR M09/M11 A3037 670 84 -2100 000/00 RMK AO2 TSNO
94908KDBQ DBQ20021125211510511/25/02 21:15:31  5-MIN KDBQ 260315Z AUTO 00000KT 9SM CLR M09/M12 A3037 670 84 -2100 000/00 RMK AO2 TSNO
94908KDBQ DBQ20021125212010511/25/02 21:20:31  5-MIN KDBQ 260320Z AUTO 00000KT 9SM CLR M09/M12 A3037 670 84 -2100 000/00 RMK AO2 TSNO
94908KDBQ DBQ20021125212510611/25/02 21:25:31  5-MIN KDBQ 260325Z AUTO 00000KT 10SM CLR M09/M12 A3037 670 80 -2100 000/00 RMK AO2 TSNO
94908KDBQ DBQ20021125213010611/25/02 21:30:31  5-MIN KDBQ 260330Z AUTO 00000KT 10SM CLR M08/M11 A3037 670 80 -2000 000/00 RMK AO2 TSNO
94908KDBQ DBQ20021125213510611/25/02 21:35:31  5-MIN KDBQ 260335Z AUTO 00000KT 10SM CLR M09/M12 A3037 670 80 -2100 000/00 RMK AO2 TSNO
94908KDBQ DBQ20021125214010611/25/02 21:40:31  5-MIN KDBQ 260340Z AUTO 00000KT 10SM CLR M09/M11 A3037 660 84 -2100 000/00 RMK AO2 TSNO
94908KDBQ DBQ20021125214510611/25/02 21:45:31  5-MIN KDBQ 260345Z AUTO 00000KT 10SM CLR M08/M11 A3037 660 80 -2000 000/00 RMK AO2 TSNO
94908KDBQ DBQ20021125215012311/25/02 21:50:31  5-MIN KDBQ 260350Z AUTO 00000KT 10SM CLR M09/M11 A3037 660 84 -2100 000/00 RMK AO2 SLP304 T10891111 TSNO
94908KDBQ DBQ20021125215512311/25/02 21:55:31  5-MIN KDBQ 260355Z AUTO 00000KT 10SM CLR M08/M11 A3037 660 80 -2000 000/00 RMK AO2 SLP304 T10831111 TSNO
94908KDBQ DBQ20021125220010611/25/02 22:00:31  5-MIN KDBQ 260400Z AUTO 00000KT 10SM CLR M08/M11 A3037 660 80 -1900 000/00 RMK AO2 TSNO
94908KDBQ DBQ20021125220510611/25/02 22:05:31  5-MIN KDBQ 260405Z AUTO 00000KT 10SM CLR M09/M11 A3037 660 84 -2100 000/00 RMK AO2 TSNO
94908KDBQ DBQ20021125221010611/25/02 22:10:31  5-MIN KDBQ 260410Z AUTO 00000KT 10SM CLR M09/M11 A3037 660 84 -2100 000/00 RMK AO2 TSNO
94908KDBQ DBQ20021125221510511/25/02 22:15:31  5-MIN KDBQ 260415Z AUTO 00000KT 9SM CLR M10/M12 A3037 660 84 -2200 000/00 RMK AO2 TSNO
94908KDBQ DBQ20021125222010511/25/02 22:20:31  5-MIN KDBQ 260420Z AUTO 00000KT 9SM CLR M10/M12 A3037 670 84 -2200 000/00 RMK AO2 TSNO
94908KDBQ DBQ20021125222510511/25/02 22:25:31  5-MIN KDBQ 260425Z AUTO 00000KT 9SM CLR M09/M12 A3036 670 80 -2100 000/00 RMK AO2 TSNO
94908KDBQ DBQ20021125223010611/25/02 22:30:31  5-MIN KDBQ 260430Z AUTO 00000KT 10SM CLR M08/M12 A3037 670 77 -2000 000/00 RMK AO2 TSNO
94908KDBQ DBQ20021125223510511/25/02 22:35:31  5-MIN KDBQ 260435Z AUTO 00000KT 9SM CLR M09/M13 A3037 660 77 -2100 000/00 RMK AO2 TSNO
94908KDBQ DBQ20021125224010511/25/02 22:40:31  5-MIN KDBQ 260440Z AUTO 00000KT 9SM CLR M09/M13 A3037 660 77 -2100 000/00 RMK AO2 TSNO
94908KDBQ DBQ20021125224510511/25/02 22:45:31  5-MIN KDBQ 260445Z AUTO 00000KT 9SM CLR M09/M13 A3037 660 77 -2100 000/00 RMK AO2 TSNO
94908KDBQ DBQ20021125225012211/25/02 22:50:31  5-MIN KDBQ 260450Z AUTO 00000KT 9SM CLR M09/M12 A3037 660 80 -2100 000/00 RMK AO2 SLP303 T10941122 TSNO
94908KDBQ DBQ20021125225512211/25/02 22:55:31  5-MIN KDBQ 260455Z AUTO 00000KT 8SM CLR M10/M13 A3037 660 80 -2200 000/00 RMK AO2 SLP304 T11001128 TSNO
94908KDBQ DBQ20021125230010511/25/02 23:00:31  5-MIN KDBQ 260500Z AUTO 00000KT 8SM CLR M09/M13 A3037 660 77 -2100 000/00 RMK AO2 TSNO
94908KDBQ DBQ20021125230510511/25/02 23:05:31  5-MIN KDBQ 260505Z AUTO 00000KT 8SM CLR M09/M12 A3037 660 80 -2100 000/00 RMK AO2 TSNO
94908KDBQ DBQ20021125231010511/25/02 23:10:31  5-MIN KDBQ 260510Z AUTO 00000KT 8SM CLR M10/M13 A3038 660 77 -2200 000/00 RMK AO2 TSNO
94908KDBQ DBQ20021125231510511/25/02 23:15:31  5-MIN KDBQ 260515Z AUTO 00000KT 8SM CLR M09/M13 A3038 660 77 -2100 000/00 RMK AO2 TSNO
94908KDBQ DBQ20021125232010511/25/02 23:20:31  5-MIN KDBQ 260520Z AUTO 00000KT 8SM CLR M09/M12 A3038 660 77 -2100 000/00 RMK AO2 TSNO
94908KDBQ DBQ20021125232510511/25/02 23:25:31  5-MIN KDBQ 260525Z AUTO 00000KT 8SM CLR M09/M12 A3037 660 80 -2100 000/00 RMK AO2 TSNO
94908KDBQ DBQ20021125233010511/25/02 23:30:31  5-MIN KDBQ 260530Z AUTO 00000KT 8SM CLR M08/M12 A3036 670 77 -2000 000/00 RMK AO2 TSNO
94908KDBQ DBQ20021125233510511/25/02 23:35:31  5-MIN KDBQ 260535Z AUTO 00000KT 8SM CLR M09/M12 A3037 670 80 -2100 000/00 RMK AO2 TSNO
94908KDBQ DBQ20021125234010511/25/02 23:40:31  5-MIN KDBQ 260540Z AUTO 00000KT 8SM CLR M10/M13 A3037 670 80 -2200 000/00 RMK AO2 TSNO
94908KDBQ DBQ20021125234510511/25/02 23:45:31  5-MIN KDBQ 260545Z AUTO 00000KT 8SM CLR M11/M13 A3036 670 84 -2300 000/00 RMK AO2 TSNO
94908KDBQ DBQ20021125235015011/25/02 23:50:31  5-MIN KDBQ 260550Z AUTO 03003KT 8SM CLR M10/M13 A3036 670 80 -2200 030/03 RMK AO2 SLP300 T11001128 11067 21106 410111106 51006 TSNO
94908KDBQ DBQ20021125235515011/25/02 23:55:31  5-MIN KDBQ 260555Z AUTO 03005KT 8SM CLR M11/M14 A3036 670 80 -2300 030/05 RMK AO2 SLP302 T11111139 11067 21111 410111111 50001 TSNO
94908KDBQ DBQ20021126000010511/26/02 00:00:31  5-MIN KDBQ 260600Z AUTO 02005KT 9SM CLR M11/M14 A3037 670 77 -2300 020/05 RMK AO2 TSNO
94908KDBQ DBQ20021126000510511/26/02 00:05:31  5-MIN KDBQ 260605Z AUTO 02006KT 9SM CLR M09/M12 A3036 670 80 -2100 020/06 RMK AO2 TSNO
94908KDBQ DBQ20021126001009711/26/02 00:10:31  5-MIN KDBQ 260610Z AUTO 9SM CLR M09/M12 A3036 670 80 -2100 M /M RMK AO2 TSNO $
94908KDBQ DBQ20021126001509711/26/02 00:15:31  5-MIN KDBQ 260615Z AUTO 9SM CLR M09/M12 A3036 670 80 -2000 M /M RMK AO2 TSNO $
94908KDBQ DBQ20021126002010711/26/02 00:20:31  5-MIN KDBQ 260620Z AUTO 02005KT 9SM CLR M09/M12 A3036 670 80 -2000 020/05 RMK AO2 TSNO $
94908KDBQ DBQ20021126002510711/26/02 00:25:31  5-MIN KDBQ 260625Z AUTO 02005KT 9SM CLR M10/M12 A3036 670 84 -2200 020/05 RMK AO2 TSNO $
94908KDBQ DBQ20021126003010711/26/02 00:30:31  5-MIN KDBQ 260630Z AUTO 03004KT 9SM CLR M09/M12 A3036 680 84 -2100 030/04 RMK AO2 TSNO $
94908KDBQ DBQ20021126003510711/26/02 00:35:31  5-MIN KDBQ 260635Z AUTO 04003KT 9SM CLR M09/M11 A3036 670 84 -2000 040/03 RMK AO2 TSNO $
94908KDBQ DBQ20021126004010711/26/02 00:40:31  5-MIN KDBQ 260640Z AUTO 00000KT 8SM CLR M09/M12 A3036 670 84 -2100 000/00 RMK AO2 TSNO $
94908KDBQ DBQ20021126004510711/26/02 00:45:31  5-MIN KDBQ 260645Z AUTO 00000KT 8SM CLR M09/M12 A3036 670 84 -2100 000/00 RMK AO2 TSNO $
94908KDBQ DBQ20021126005012411/26/02 00:50:31  5-MIN KDBQ 260650Z AUTO 00000KT 8SM CLR M09/M11 A3036 670 84 -2000 000/00 RMK AO2 SLP301 T10891111 TSNO $
94908KDBQ DBQ20021126005512411/26/02 00:55:31  5-MIN KDBQ 260655Z AUTO 00000KT 8SM CLR M09/M11 A3036 670 84 -2000 000/00 RMK AO2 SLP301 T10891111 TSNO $
94908KDBQ DBQ20021126010010711/26/02 01:00:31  5-MIN KDBQ 260700Z AUTO 00000KT 8SM CLR M09/M12 A3036 670 80 -2100 000/00 RMK AO2 TSNO $
94908KDBQ DBQ20021126010510711/26/02 01:05:31  5-MIN KDBQ 260705Z AUTO 00000KT 8SM CLR M09/M12 A3036 670 84 -2100 000/00 RMK AO2 TSNO $
94908KDBQ DBQ20021126011010711/26/02 01:10:31  5-MIN KDBQ 260710Z AUTO 05003KT 8SM CLR M08/M11 A3036 670 80 -1900 050/03 RMK AO2 TSNO $
94908KDBQ DBQ20021126011510711/26/02 01:15:31  5-MIN KDBQ 260715Z AUTO 04003KT 8SM CLR M08/M11 A3036 670 80 -1900 040/03 RMK AO2 TSNO $
94908KDBQ DBQ20021126012010711/26/02 01:20:31  5-MIN KDBQ 260720Z AUTO 03006KT 8SM CLR M09/M11 A3036 670 84 -2000 030/06 RMK AO2 TSNO $
94908KDBQ DBQ20021126012510711/26/02 01:25:31  5-MIN KDBQ 260725Z AUTO 03007KT 8SM CLR M10/M12 A3036 670 84 -2200 020/07 RMK AO2 TSNO $
94908KDBQ DBQ20021126013010711/26/02 01:30:31  5-MIN KDBQ 260730Z AUTO 03007KT 8SM CLR M09/M11 A3037 670 84 -2100 030/07 RMK AO2 TSNO $
94908KDBQ DBQ20021126013510711/26/02 01:35:31  5-MIN KDBQ 260735Z AUTO 03007KT 8SM CLR M09/M11 A3036 670 84 -2000 030/07 RMK AO2 TSNO $
94908KDBQ DBQ20021126014010711/26/02 01:40:31  5-MIN KDBQ 260740Z AUTO 03007KT 7SM CLR M09/M11 A3036 670 88 -2000 030/07 RMK AO2 TSNO $
94908KDBQ DBQ20021126014510711/26/02 01:45:31  5-MIN KDBQ 260745Z AUTO 03007KT 7SM CLR M09/M11 A3036 670 88 -2000 030/07 RMK AO2 TSNO $
94908KDBQ DBQ20021126015012411/26/02 01:50:31  5-MIN KDBQ 260750Z AUTO 03007KT 7SM CLR M09/M11 A3037 670 84 -2100 020/07 RMK AO2 SLP300 T10891111 TSNO $
94908KDBQ DBQ20021126015512411/26/02 01:55:31  5-MIN KDBQ 260755Z AUTO 03007KT 7SM CLR M09/M11 A3037 670 88 -2100 020/07 RMK AO2 SLP301 T10891106 TSNO $
94908KDBQ DBQ20021126020010711/26/02 02:00:31  5-MIN KDBQ 260800Z AUTO 02008KT 7SM CLR M09/M11 A3037 670 88 -2100 020/08 RMK AO2 TSNO $
94908KDBQ DBQ20021126020510711/26/02 02:05:31  5-MIN KDBQ 260805Z AUTO 03008KT 7SM CLR M08/M10 A3037 670 88 -2000 020/08 RMK AO2 TSNO $
94908KDBQ DBQ20021126021010711/26/02 02:10:31  5-MIN KDBQ 260810Z AUTO 02008KT 7SM CLR M08/M10 A3037 660 88 -2000 020/08 RMK AO2 TSNO $
94908KDBQ DBQ20021126021510711/26/02 02:15:31  5-MIN KDBQ 260815Z AUTO 02007KT 7SM CLR M08/M10 A3038 660 88 -2000 020/07 RMK AO2 TSNO $
94908KDBQ DBQ20021126022010711/26/02 02:20:31  5-MIN KDBQ 260820Z AUTO 03005KT 7SM CLR M08/M09 A3038 660 92 -2000 030/05 RMK AO2 TSNO $
94908KDBQ DBQ20021126022510711/26/02 02:25:31  5-MIN KDBQ 260825Z AUTO 03006KT 7SM CLR M08/M09 A3038 660 92 -2000 030/06 RMK AO2 TSNO $
94908KDBQ DBQ20021126023011011/26/02 02:30:31  5-MIN KDBQ 260830Z AUTO 04005KT 6SM BR CLR M08/M09 A3038 660 92 -2000 030/05 RMK AO2 TSNO $
94908KDBQ DBQ20021126023511011/26/02 02:35:31  5-MIN KDBQ 260835Z AUTO 04004KT 6SM BR CLR M08/M09 A3038 660 92 -2000 040/04 RMK AO2 TSNO $
94908KDBQ DBQ20021126024010811/26/02 02:40:31  5-MIN KDBQ 260840Z AUTO 03004KT 6SM BR CLR M08/M09 A3038 660 92 -2000 030/04 RMK AO2 TSNO
94908KDBQ DBQ20021126024510811/26/02 02:45:31  5-MIN KDBQ 260845Z AUTO 03005KT 6SM BR CLR M08/M09 A3038 660 92 -2000 030/05 RMK AO2 TSNO
94908KDBQ DBQ20021126025013111/26/02 02:50:31  5-MIN KDBQ 260850Z AUTO 03005KT 6SM BR CLR M08/M09 A3038 660 92 -2000 030/05 RMK AO2 SLP305 T10831094 50001 TSNO
94908KDBQ DBQ20021126025513111/26/02 02:55:31  5-MIN KDBQ 260855Z AUTO 03004KT 6SM BR CLR M08/M09 A3038 660 92 -2000 030/04 RMK AO2 SLP305 T10831094 53005 TSNO
94908KDBQ DBQ20021126030010811/26/02 03:00:31  5-MIN KDBQ 260900Z AUTO 03003KT 6SM BR CLR M08/M09 A3038 660 92 -2000 030/03 RMK AO2 TSNO
94908KDBQ DBQ20021126030510811/26/02 03:05:31  5-MIN KDBQ 260905Z AUTO 03005KT 6SM BR CLR M08/M09 A3038 660 92 -2000 030/05 RMK AO2 TSNO
94908KDBQ DBQ20021126031010811/26/02 03:10:31  5-MIN KDBQ 260910Z AUTO 03005KT 6SM BR CLR M08/M09 A3038 660 92 -2000 030/05 RMK AO2 TSNO
94908KDBQ DBQ20021126031510811/26/02 03:15:31  5-MIN KDBQ 260915Z AUTO 03005KT 6SM BR CLR M08/M10 A3038 660 88 -2000 030/05 RMK AO2 TSNO
94908KDBQ DBQ20021126032010511/26/02 03:20:31  5-MIN KDBQ 260920Z AUTO 02006KT 7SM CLR M08/M10 A3037 660 88 -2000 020/06 RMK AO2 TSNO
94908KDBQ DBQ20021126032510511/26/02 03:25:31  5-MIN KDBQ 260925Z AUTO 03005KT 7SM CLR M08/M10 A3037 660 88 -2000 020/05 RMK AO2 TSNO
94908KDBQ DBQ20021126033010511/26/02 03:30:31  5-MIN KDBQ 260930Z AUTO 03005KT 7SM CLR M08/M10 A3037 660 88 -2000 030/05 RMK AO2 TSNO
94908KDBQ DBQ20021126033510511/26/02 03:35:31  5-MIN KDBQ 260935Z AUTO 03006KT 7SM CLR M08/M10 A3037 660 88 -2000 030/06 RMK AO2 TSNO
94908KDBQ DBQ20021126034010511/26/02 03:40:31  5-MIN KDBQ 260940Z AUTO 03006KT 7SM CLR M09/M10 A3037 660 92 -2100 030/06 RMK AO2 TSNO
94908KDBQ DBQ20021126034510511/26/02 03:45:31  5-MIN KDBQ 260945Z AUTO 03006KT 7SM CLR M09/M10 A3037 660 92 -2100 030/06 RMK AO2 TSNO
94908KDBQ DBQ20021126035012211/26/02 03:50:31  5-MIN KDBQ 260950Z AUTO 03006KT 7SM CLR M09/M10 A3037 660 92 -2100 030/06 RMK AO2 SLP303 T10891100 TSNO
94908KDBQ DBQ20021126035512211/26/02 03:55:31  5-MIN KDBQ 260955Z AUTO 03005KT 7SM CLR M09/M10 A3037 660 92 -2100 030/05 RMK AO2 SLP304 T10891100 TSNO
94908KDBQ DBQ20021126040010511/26/02 04:00:31  5-MIN KDBQ 261000Z AUTO 03005KT 7SM CLR M08/M10 A3037 660 88 -2000 030/05 RMK AO2 TSNO
94908KDBQ DBQ20021126040510511/26/02 04:05:31  5-MIN KDBQ 261005Z AUTO 02005KT 7SM CLR M08/M10 A3038 660 88 -2000 020/05 RMK AO2 TSNO
94908KDBQ DBQ20021126041010511/26/02 04:10:31  5-MIN KDBQ 261010Z AUTO 02005KT 7SM CLR M08/M10 A3038 660 88 -2000 020/05 RMK AO2 TSNO
94908KDBQ DBQ20021126041510511/26/02 04:15:31  5-MIN KDBQ 261015Z AUTO 02007KT 7SM CLR M08/M10 A3038 660 88 -2000 020/07 RMK AO2 TSNO
94908KDBQ DBQ20021126042010511/26/02 04:20:31  5-MIN KDBQ 261020Z AUTO 02006KT 7SM CLR M08/M09 A3038 660 92 -2000 020/06 RMK AO2 TSNO
94908KDBQ DBQ20021126042510811/26/02 04:25:31  5-MIN KDBQ 261025Z AUTO 02007KT 6SM BR CLR M08/M09 A3037 660 92 -2000 020/07 RMK AO2 TSNO
94908KDBQ DBQ20021126043010811/26/02 04:30:31  5-MIN KDBQ 261030Z AUTO 02007KT 6SM BR CLR M08/M09 A3037 660 92 -2000 020/07 RMK AO2 TSNO
94908KDBQ DBQ20021126043510811/26/02 04:35:31  5-MIN KDBQ 261035Z AUTO 03007KT 6SM BR CLR M08/M09 A3037 660 92 -2000 030/07 RMK AO2 TSNO
94908KDBQ DBQ20021126044010811/26/02 04:40:31  5-MIN KDBQ 261040Z AUTO 03007KT 6SM BR CLR M08/M09 A3037 660 92 -2000 020/07 RMK AO2 TSNO
94908KDBQ DBQ20021126044510811/26/02 04:45:31  5-MIN KDBQ 261045Z AUTO 03007KT 6SM BR CLR M08/M09 A3037 660 92 -2000 030/07 RMK AO2 TSNO
94908KDBQ DBQ20021126045012511/26/02 04:50:31  5-MIN KDBQ 261050Z AUTO 03007KT 6SM BR CLR M08/M09 A3037 670 92 -2000 020/07 RMK AO2 SLP303 T10831094 TSNO
94908KDBQ DBQ20021126045512511/26/02 04:55:31  5-MIN KDBQ 261055Z AUTO 03008KT 6SM BR CLR M08/M09 A3037 670 92 -2000 030/08 RMK AO2 SLP303 T10831094 TSNO
94908KDBQ DBQ20021126050010811/26/02 05:00:31  5-MIN KDBQ 261100Z AUTO 03007KT 6SM BR CLR M08/M09 A3037 670 92 -2000 030/07 RMK AO2 TSNO
94908KDBQ DBQ20021126050511111/26/02 05:05:31  5-MIN KDBQ 261105Z AUTO 03007KT 6SM BR FEW120 M08/M09 A3037 660 88 -1900 030/07 RMK AO2 TSNO
94908KDBQ DBQ20021126051011111/26/02 05:10:31  5-MIN KDBQ 261110Z AUTO 02007KT 6SM BR SCT120 M08/M09 A3037 660 88 -1900 020/07 RMK AO2 TSNO
94908KDBQ DBQ20021126051511111/26/02 05:15:31  5-MIN KDBQ 261115Z AUTO 03007KT 6SM BR BKN110 M08/M09 A3037 660 88 -1900 030/07 RMK AO2 TSNO
94908KDBQ DBQ20021126052011111/26/02 05:20:31  5-MIN KDBQ 261120Z AUTO 02007KT 6SM BR BKN110 M08/M09 A3037 660 88 -1900 020/07 RMK AO2 TSNO
94908KDBQ DBQ20021126052511111/26/02 05:25:31  5-MIN KDBQ 261125Z AUTO 02007KT 6SM BR SCT110 M08/M09 A3037 660 88 -1900 020/07 RMK AO2 TSNO
94908KDBQ DBQ20021126053011111/26/02 05:30:31  5-MIN KDBQ 261130Z AUTO 02007KT 6SM BR SCT110 M08/M09 A3037 670 88 -1900 020/07 RMK AO2 TSNO
94908KDBQ DBQ20021126053511111/26/02 05:35:31  5-MIN KDBQ 261135Z AUTO 02006KT 6SM BR SCT110 M08/M09 A3037 660 88 -1900 020/06 RMK AO2 TSNO
94908KDBQ DBQ20021126054010111/26/02 05:40:31  5-MIN KDBQ 261140Z 02006KT 6SM BR SCT110 M08/M09 A3037 660 88 -1900 020/06 RMK AO2
94908KDBQ DBQ20021126054510111/26/02 05:45:31  5-MIN KDBQ 261145Z 02006KT 6SM BR BKN110 M08/M09 A3037 660 88 -1900 020/06 RMK AO2
94908KDBQ DBQ20021126055013611/26/02 05:50:31  5-MIN KDBQ 261150Z 02005KT 6SM BR BKN110 M08/M09 A3038 660 88 -1900 020/05 RMK AO2 SLP306 T10781094 11078 21111 53005
94908KDBQ DBQ20021126055513611/26/02 05:55:31  5-MIN KDBQ 261155Z 02006KT 6SM BR BKN110 M08/M09 A3038 660 88 -1900 020/06 RMK AO2 SLP306 T10781094 11078 21111 55001
94908KDBQ DBQ20021126060010111/26/02 06:00:31  5-MIN KDBQ 261200Z 02006KT 6SM BR BKN110 M08/M09 A3037 660 88 -1900 020/06 RMK AO2
94908KDBQ DBQ20021126060510111/26/02 06:05:31  5-MIN KDBQ 261205Z 02006KT 6SM BR OVC110 M07/M09 A3037 660 84 -1800 020/06 RMK AO2
94908KDBQ DBQ20021126061010111/26/02 06:10:31  5-MIN KDBQ 261210Z 03006KT 6SM BR OVC110 M07/M09 A3037 660 84 -1800 020/06 RMK AO2
94908KDBQ DBQ20021126061510111/26/02 06:15:31  5-MIN KDBQ 261215Z 02006KT 6SM BR OVC110 M07/M09 A3037 660 84 -1800 020/06 RMK AO2
94908KDBQ DBQ20021126062010111/26/02 06:20:31  5-MIN KDBQ 261220Z 02006KT 6SM BR OVC110 M07/M09 A3037 660 84 -1800 020/06 RMK AO2
94908KDBQ DBQ20021126062510111/26/02 06:25:31  5-MIN KDBQ 261225Z 02006KT 6SM BR BKN110 M07/M09 A3037 660 84 -1800 020/06 RMK AO2
94908KDBQ DBQ20021126063010111/26/02 06:30:31  5-MIN KDBQ 261230Z 02005KT 6SM BR BKN110 M07/M09 A3038 660 88 -1800 020/05 RMK AO2
94908KDBQ DBQ20021126063509811/26/02 06:35:31  5-MIN KDBQ 261235Z 02005KT 7SM BKN110 M07/M09 A3038 660 84 -1900 020/05 RMK AO2
94908KDBQ DBQ20021126064009811/26/02 06:40:31  5-MIN KDBQ 261240Z 02004KT 7SM BKN110 M07/M09 A3038 650 84 -1900 020/04 RMK AO2
94908KDBQ DBQ20021126064509811/26/02 06:45:31  5-MIN KDBQ 261245Z 01005KT 7SM BKN110 M07/M09 A3038 650 88 -1900 010/05 RMK AO2
94908KDBQ DBQ20021126065011511/26/02 06:50:31  5-MIN KDBQ 261250Z 01005KT 7SM BKN110 M07/M09 A3038 650 88 -1900 010/05 RMK AO2 SLP308 T10721089
94908KDBQ DBQ20021126065511511/26/02 06:55:31  5-MIN KDBQ 261255Z 02005KT 7SM BKN110 M07/M09 A3038 650 88 -1900 010/05 RMK AO2 SLP308 T10721089
94908KDBQ DBQ20021126070009811/26/02 07:00:31  5-MIN KDBQ 261300Z 02004KT 7SM BKN110 M07/M09 A3038 650 88 -1900 020/04 RMK AO2
94908KDBQ DBQ20021126070509811/26/02 07:05:31  5-MIN KDBQ 261305Z 02004KT 7SM SCT110 M07/M09 A3038 650 88 -1900 020/04 RMK AO2
94908KDBQ DBQ20021126071009811/26/02 07:10:31  5-MIN KDBQ 261310Z 01004KT 7SM SCT110 M07/M09 A3039 650 84 -1800 010/04 RMK AO2
94908KDBQ DBQ20021126071509811/26/02 07:15:31  5-MIN KDBQ 261315Z 01005KT 7SM FEW110 M07/M09 A3039 650 84 -1800 010/05 RMK AO2
94908KDBQ DBQ20021126072010111/26/02 07:20:31  5-MIN KDBQ 261320Z 01005KT 6SM BR FEW100 M07/M09 A3039 650 84 -1800 010/05 RMK AO2
94908KDBQ DBQ20021126072510111/26/02 07:25:31  5-MIN KDBQ 261325Z 01005KT 6SM BR FEW110 M07/M09 A3039 650 84 -1800 010/05 RMK AO2
94908KDBQ DBQ20021126073010111/26/02 07:30:31  5-MIN KDBQ 261330Z 01004KT 6SM BR SCT110 M07/M09 A3039 650 84 -1800 010/04 RMK AO2
94908KDBQ DBQ20021126073510111/26/02 07:35:31  5-MIN KDBQ 261335Z 01004KT 6SM BR FEW110 M07/M09 A3039 650 84 -1800 010/04 RMK AO2
94908KDBQ DBQ20021126074010111/26/02 07:40:31  5-MIN KDBQ 261340Z 01005KT 5SM BR FEW110 M07/M08 A3039 650 88 -1800 010/05 RMK AO2
94908KDBQ DBQ20021126074510111/26/02 07:45:31  5-MIN KDBQ 261345Z 01004KT 5SM BR FEW110 M07/M08 A3039 650 88 -1800 010/04 RMK AO2
94908KDBQ DBQ20021126075011811/26/02 07:50:31  5-MIN KDBQ 261350Z 01004KT 6SM BR FEW100 M07/M08 A3039 650 88 -1800 010/04 RMK AO2 SLP311 T10671083
94908KDBQ DBQ20021126075511811/26/02 07:55:31  5-MIN KDBQ 261355Z 36004KT 6SM BR FEW100 M07/M08 A3039 640 88 -1800 360/04 RMK AO2 SLP312 T10671083
94908KDBQ DBQ20021126080010111/26/02 08:00:31  5-MIN KDBQ 261400Z 35004KT 6SM BR FEW090 M07/M08 A3039 640 88 -1800 350/04 RMK AO2
94908KDBQ DBQ20021126080510111/26/02 08:05:31  5-MIN KDBQ 261405Z 35005KT 6SM BR FEW090 M07/M08 A3039 640 88 -1800 350/05 RMK AO2
94908KDBQ DBQ20021126081010111/26/02 08:10:31  5-MIN KDBQ 261410Z 36004KT 6SM BR FEW085 M07/M08 A3039 640 88 -1800 350/04 RMK AO2
94908KDBQ DBQ20021126081509811/26/02 08:15:31  5-MIN KDBQ 261415Z 36004KT 7SM FEW090 M07/M08 A3040 640 88 -1800 360/04 RMK AO2
94908KDBQ DBQ20021126082009811/26/02 08:20:31  5-MIN KDBQ 261420Z 36005KT 8SM FEW085 M07/M08 A3040 640 88 -1800 360/05 RMK AO2
94908KDBQ DBQ20021126082509811/26/02 08:25:31  5-MIN KDBQ 261425Z 01005KT 8SM FEW085 M06/M08 A3040 640 84 -1700 010/05 RMK AO2
94908KDBQ DBQ20021126083009511/26/02 08:30:31  5-MIN KDBQ 261430Z 01005KT 8SM CLR M06/M08 A3040 640 84 -1700 010/05 RMK AO2
94908KDBQ DBQ20021126083509511/26/02 08:35:31  5-MIN KDBQ 261435Z 36004KT 8SM CLR M06/M08 A3040 640 88 -1700 360/04 RMK AO2
94908KDBQ DBQ20021126084009511/26/02 08:40:31  5-MIN KDBQ 261440Z 36004KT 8SM CLR M06/M08 A3040 640 84 -1700 360/04 RMK AO2
94908KDBQ DBQ20021126084509511/26/02 08:45:31  5-MIN KDBQ 261445Z 36005KT 9SM CLR M06/M08 A3040 640 84 -1700 360/05 RMK AO2
94908KDBQ DBQ20021126085011811/26/02 08:50:31  5-MIN KDBQ 261450Z 35005KT 8SM CLR M06/M08 A3039 640 84 -1700 350/05 RMK AO2 SLP312 T10611083 55001
94908KDBQ DBQ20021126085511811/26/02 08:55:31  5-MIN KDBQ 261455Z 01005KT 8SM CLR M06/M08 A3040 640 88 -1700 010/05 RMK AO2 SLP313 T10611078 51007
94908KDBQ DBQ20021126090009511/26/02 09:00:31  5-MIN KDBQ 261500Z 02006KT 8SM CLR M06/M08 A3040 640 84 -1700 020/06 RMK AO2
94908KDBQ DBQ20021126090509511/26/02 09:05:31  5-MIN KDBQ 261505Z 02006KT 9SM CLR M06/M08 A3040 640 81 -1700 010/06 RMK AO2
94908KDBQ DBQ20021126091009511/26/02 09:10:31  5-MIN KDBQ 261510Z 01007KT 9SM CLR M06/M08 A3040 640 81 -1700 010/07 RMK AO2
94908KDBQ DBQ20021126091509511/26/02 09:15:31  5-MIN KDBQ 261515Z 01007KT 9SM CLR M06/M08 A3040 640 81 -1700 010/07 RMK AO2
94908KDBQ DBQ20021126092009811/26/02 09:20:31  5-MIN KDBQ 261520Z 36006KT 9SM FEW110 M06/M08 A3040 640 81 -1700 360/06 RMK AO2
94908KDBQ DBQ20021126092509911/26/02 09:25:31  5-MIN KDBQ 261525Z 36005KT 10SM FEW110 M06/M08 A3040 640 81 -1700 360/05 RMK AO2
94908KDBQ DBQ20021126093009911/26/02 09:30:31  5-MIN KDBQ 261530Z 01005KT 10SM SCT110 M06/M09 A3040 640 77 -1700 010/05 RMK AO2
94908KDBQ DBQ20021126093509911/26/02 09:35:31  5-MIN KDBQ 261535Z 36005KT 10SM BKN110 M05/M08 A3040 640 77 -1600 360/05 RMK AO2
94908KDBQ DBQ20021126094009911/26/02 09:40:31  5-MIN KDBQ 261540Z 02006KT 10SM BKN110 M05/M08 A3040 640 77 -1600 020/06 RMK AO2
94908KDBQ DBQ20021126094509911/26/02 09:45:31  5-MIN KDBQ 261545Z 01006KT 10SM BKN110 M05/M08 A3040 640 77 -1600 010/06 RMK AO2
94908KDBQ DBQ20021126095011611/26/02 09:50:31  5-MIN KDBQ 261550Z 01006KT 10SM BKN110 M05/M08 A3040 630 81 -1600 360/06 RMK AO2 SLP315 T10501078
94908KDBQ DBQ20021126095511611/26/02 09:55:31  5-MIN KDBQ 261555Z 36006KT 10SM BKN110 M05/M08 A3041 630 77 -1600 360/06 RMK AO2 SLP316 T10501083
94908KDBQ DBQ20021126100009911/26/02 10:00:31  5-MIN KDBQ 261600Z 02006KT 10SM BKN110 M05/M08 A3041 630 81 -1600 020/06 RMK AO2
94908KDBQ DBQ20021126100509911/26/02 10:05:31  5-MIN KDBQ 261605Z 01005KT 10SM SCT110 M04/M08 A3041 630 78 -1500 010/05 RMK AO2
94908KDBQ DBQ20021126101009911/26/02 10:10:31  5-MIN KDBQ 261610Z 02007KT 10SM FEW110 M04/M08 A3041 630 78 -1500 020/07 RMK AO2
94908KDBQ DBQ20021126101509911/26/02 10:15:31  5-MIN KDBQ 261615Z 04007KT 10SM FEW110 M04/M08 A3040 630 78 -1500 040/07 RMK AO2
94908KDBQ DBQ20021126102009611/26/02 10:20:31  5-MIN KDBQ 261620Z 04008KT 10SM CLR M04/M08 A3041 630 78 -1500 040/08 RMK AO2
94908KDBQ DBQ20021126102509611/26/02 10:25:31  5-MIN KDBQ 261625Z 36008KT 10SM CLR M04/M08 A3040 630 71 -1400 360/08 RMK AO2
94908KDBQ DBQ20021126103009611/26/02 10:30:31  5-MIN KDBQ 261630Z 02006KT 10SM CLR M04/M08 A3040 630 74 -1400 020/06 RMK AO2
94908KDBQ DBQ20021126103509611/26/02 10:35:31  5-MIN KDBQ 261635Z 35007KT 10SM CLR M03/M08 A3040 630 71 -1400 350/07 RMK AO2
94908KDBQ DBQ20021126104009611/26/02 10:40:31  5-MIN KDBQ 261640Z 01007KT 10SM CLR M04/M08 A3040 630 71 -1400 010/07 RMK AO2
94908KDBQ DBQ20021126104509611/26/02 10:45:31  5-MIN KDBQ 261645Z 01008KT 10SM CLR M04/M08 A3040 630 71 -1400 010/08 RMK AO2
94908KDBQ DBQ20021126105011311/26/02 10:50:31  5-MIN KDBQ 261650Z 01007KT 10SM CLR M04/M08 A3040 640 71 -1400 010/07 RMK AO2 SLP314 T10391083
94908KDBQ DBQ20021126105511311/26/02 10:55:31  5-MIN KDBQ 261655Z 02009KT 10SM CLR M03/M08 A3040 640 68 -1400 010/09 RMK AO2 SLP314 T10331083
94908KDBQ DBQ20021126110009611/26/02 11:00:31  5-MIN KDBQ 261700Z 36007KT 10SM CLR M03/M08 A3040 640 68 -1400 360/07 RMK AO2
94908KDBQ DBQ20021126110509611/26/02 11:05:31  5-MIN KDBQ 261705Z 36007KT 10SM CLR M03/M08 A3040 640 71 -1400 360/07 RMK AO2
94908KDBQ DBQ20021126111009611/26/02 11:10:31  5-MIN KDBQ 261710Z 02006KT 10SM CLR M03/M08 A3040 640 68 -1400 020/06 RMK AO2
94908KDBQ DBQ20021126111509611/26/02 11:15:31  5-MIN KDBQ 261715Z 35007KT 10SM CLR M03/M08 A3040 640 68 -1400 350/07 RMK AO2
94908KDBQ DBQ20021126112009911/26/02 11:20:31  5-MIN KDBQ 261720Z 34007KT 10SM FEW110 M03/M08 A3040 640 68 -1400 340/07 RMK AO2
94908KDBQ DBQ20021126112509911/26/02 11:25:31  5-MIN KDBQ 261725Z 35008KT 10SM FEW110 M03/M08 A3039 640 68 -1400 340/08 RMK AO2
94908KDBQ DBQ20021126113009911/26/02 11:30:31  5-MIN KDBQ 261730Z 34008KT 10SM FEW110 M03/M08 A3039 640 68 -1400 340/08 RMK AO2
94908KDBQ DBQ20021126113509911/26/02 11:35:31  5-MIN KDBQ 261735Z 34008KT 10SM FEW100 M03/M08 A3039 640 66 -1300 340/08 RMK AO2
94908KDBQ DBQ20021126114009911/26/02 11:40:31  5-MIN KDBQ 261740Z 34009KT 10SM FEW100 M03/M09 A3039 640 63 -1300 330/09 RMK AO2
94908KDBQ DBQ20021126114509911/26/02 11:45:31  5-MIN KDBQ 261745Z 35007KT 10SM FEW100 M03/M08 A3039 650 66 -1300 350/07 RMK AO2
94908KDBQ DBQ20021126115013411/26/02 11:50:31  5-MIN KDBQ 261750Z 33009KT 10SM FEW100 M03/M08 A3039 650 66 -1300 330/09 RMK AO2 SLP310 T10281083 11022 21078 51007
94908KDBQ DBQ20021126115513411/26/02 11:55:31  5-MIN KDBQ 261755Z 33010KT 10SM FEW100 M03/M08 A3039 650 66 -1300 330/10 RMK AO2 SLP311 T10281083 11022 21078 58002
94908KDBQ DBQ20021126120009911/26/02 12:00:31  5-MIN KDBQ 261800Z 34009KT 10SM FEW110 M03/M09 A3039 650 63 -1300 340/09 RMK AO2
94908KDBQ DBQ20021126120509911/26/02 12:05:31  5-MIN KDBQ 261805Z 36007KT 10SM FEW110 M03/M09 A3039 650 63 -1300 360/07 RMK AO2
94908KDBQ DBQ20021126121009911/26/02 12:10:31  5-MIN KDBQ 261810Z 35008KT 10SM FEW110 M03/M09 A3039 650 60 -1300 350/08 RMK AO2
94908KDBQ DBQ20021126121509911/26/02 12:15:31  5-MIN KDBQ 261815Z 33006KT 10SM SCT110 M02/M09 A3039 650 60 -1200 330/06 RMK AO2
94908KDBQ DBQ20021126122009911/26/02 12:20:31  5-MIN KDBQ 261820Z 34008KT 10SM SCT110 M02/M09 A3039 650 60 -1200 340/08 RMK AO2
94908KDBQ DBQ20021126122512211/26/02 12:25:31  5-MIN KDBQ 261825Z 36008KT 320V030 10SM FEW090 SCT110 M02/M09 A3038 650 60 -1200 360/08 320V030 RMK AO2
94908KDBQ DBQ20021126123010611/26/02 12:30:31  5-MIN KDBQ 261830Z 02008KT 10SM SCT095 BKN110 M02/M09 A3038 650 58 -1100 020/08 RMK AO2
94908KDBQ DBQ20021126123510611/26/02 12:35:31  5-MIN KDBQ 261835Z 35007KT 10SM BKN100 BKN110 M02/M09 A3038 660 60 -1200 350/07 RMK AO2
94908KDBQ DBQ20021126124010611/26/02 12:40:31  5-MIN KDBQ 261840Z 33009KT 10SM BKN100 BKN110 M02/M09 A3038 660 58 -1100 330/09 RMK AO2
94908KDBQ DBQ20021126124509911/26/02 12:45:31  5-MIN KDBQ 261845Z 35008KT 10SM OVC100 M02/M09 A3037 660 60 -1200 350/08 RMK AO2
94908KDBQ DBQ20021126125011611/26/02 12:50:31  5-MIN KDBQ 261850Z 36008KT 10SM BKN100 M02/M08 A3037 660 63 -1200 360/08 RMK AO2 SLP304 T10221083
94908KDBQ DBQ20021126125511611/26/02 12:55:31  5-MIN KDBQ 261855Z 01010KT 10SM BKN100 M02/M09 A3037 660 60 -1200 010/10 RMK AO2 SLP304 T10221089
94908KDBQ DBQ20021126130009911/26/02 13:00:31  5-MIN KDBQ 261900Z 01009KT 10SM SCT100 M02/M09 A3037 660 58 -1200 010/09 RMK AO2
94908KDBQ DBQ20021126130509911/26/02 13:05:31  5-MIN KDBQ 261905Z 34009KT 10SM SCT100 M02/M09 A3037 670 60 -1200 340/09 RMK AO2
94908KDBQ DBQ20021126131009911/26/02 13:10:31  5-MIN KDBQ 261910Z 01010KT 10SM FEW100 M02/M09 A3037 670 55 -1100 010/10 RMK AO2
94908KDBQ DBQ20021126131509911/26/02 13:15:31  5-MIN KDBQ 261915Z 36008KT 10SM FEW100 M02/M09 A3036 670 55 -1100 350/08 RMK AO2
94908KDBQ DBQ20021126132009611/26/02 13:20:31  5-MIN KDBQ 261920Z 35008KT 10SM CLR M02/M09 A3036 670 55 -1100 350/08 RMK AO2
94908KDBQ DBQ20021126132509611/26/02 13:25:31  5-MIN KDBQ 261925Z 36008KT 10SM CLR M02/M09 A3036 670 55 -1100 350/08 RMK AO2
94908KDBQ DBQ20021126133009611/26/02 13:30:31  5-MIN KDBQ 261930Z 03009KT 10SM CLR M02/M09 A3036 670 55 -1100 030/09 RMK AO2
94908KDBQ DBQ20021126133509611/26/02 13:35:31  5-MIN KDBQ 261935Z 35009KT 10SM CLR M02/M09 A3036 670 58 -1100 350/09 RMK AO2
94908KDBQ DBQ20021126134009611/26/02 13:40:31  5-MIN KDBQ 261940Z 01009KT 10SM CLR M01/M09 A3036 680 53 -1000 010/09 RMK AO2
94908KDBQ DBQ20021126134509611/26/02 13:45:31  5-MIN KDBQ 261945Z 01008KT 10SM CLR M01/M09 A3036 680 55 -1000 010/08 RMK AO2
94908KDBQ DBQ20021126135011311/26/02 13:50:31  5-MIN KDBQ 261950Z 04006KT 10SM CLR M01/M09 A3036 680 53 -1000 040/06 RMK AO2 SLP297 T10111094
94908KDBQ DBQ20021126135511311/26/02 13:55:31  5-MIN KDBQ 261955Z 01009KT 10SM CLR M01/M09 A3036 680 53 -1000 010/09 RMK AO2 SLP297 T10111094
94908KDBQ DBQ20021126140009611/26/02 14:00:31  5-MIN KDBQ 262000Z 01006KT 10SM CLR M01/M09 A3035 680 53 -1000 010/06 RMK AO2
94908KDBQ DBQ20021126140509611/26/02 14:05:31  5-MIN KDBQ 262005Z 03008KT 10SM CLR M02/M09 A3035 680 55 -1100 030/08 RMK AO2
94908KDBQ DBQ20021126141009911/26/02 14:10:31  5-MIN KDBQ 262010Z 03007KT 10SM FEW110 M02/M09 A3036 680 55 -1100 030/07 RMK AO2
94908KDBQ DBQ20021126141509611/26/02 14:15:31  5-MIN KDBQ 262015Z 03008KT 10SM CLR M02/M09 A3036 680 55 -1100 030/08 RMK AO2
94908KDBQ DBQ20021126142009611/26/02 14:20:31  5-MIN KDBQ 262020Z 04008KT 10SM CLR M01/M09 A3036 680 55 -1000 040/08 RMK AO2
94908KDBQ DBQ20021126142509611/26/02 14:25:31  5-MIN KDBQ 262025Z 36007KT 10SM CLR M01/M09 A3036 680 55 -1000 360/07 RMK AO2
94908KDBQ DBQ20021126143009611/26/02 14:30:31  5-MIN KDBQ 262030Z 36007KT 10SM CLR M01/M09 A3035 680 55 -1000 360/07 RMK AO2
94908KDBQ DBQ20021126143509611/26/02 14:35:31  5-MIN KDBQ 262035Z 02007KT 10SM CLR M01/M09 A3035 680 55 -1000 020/07 RMK AO2
94908KDBQ DBQ20021126144009611/26/02 14:40:31  5-MIN KDBQ 262040Z 02006KT 10SM CLR M01/M09 A3035 680 53 -1000 020/06 RMK AO2
94908KDBQ DBQ20021126144509611/26/02 14:45:31  5-MIN KDBQ 262045Z 01007KT 10SM CLR M01/M09 A3035 680 53 -1000 010/07 RMK AO2
94908KDBQ DBQ20021126145011911/26/02 14:50:31  5-MIN KDBQ 262050Z 04008KT 10SM CLR M01/M09 A3035 680 53 -1000 040/08 RMK AO2 SLP295 T10111094 58002
94908KDBQ DBQ20021126145511911/26/02 14:55:31  5-MIN KDBQ 262055Z 03007KT 10SM CLR M01/M09 A3035 680 55 -1000 030/07 RMK AO2 SLP295 T10111089 56013
94908KDBQ DBQ20021126150009611/26/02 15:00:31  5-MIN KDBQ 262100Z 03007KT 10SM CLR M01/M09 A3035 680 55 -1000 030/07 RMK AO2
94908KDBQ DBQ20021126150509611/26/02 15:05:31  5-MIN KDBQ 262105Z 01009KT 10SM CLR M01/M09 A3035 680 55 -1000 010/09 RMK AO2
94908KDBQ DBQ20021126151009611/26/02 15:10:31  5-MIN KDBQ 262110Z 35010KT 10SM CLR M01/M09 A3035 680 55 -1000 350/10 RMK AO2
94908KDBQ DBQ20021126151509611/26/02 15:15:31  5-MIN KDBQ 262115Z 02009KT 10SM CLR M01/M09 A3035 680 53 -1000 020/09 RMK AO2
94908KDBQ DBQ20021126152009611/26/02 15:20:31  5-MIN KDBQ 262120Z 01008KT 10SM CLR M01/M09 A3036 680 53 -1000 010/08 RMK AO2
94908KDBQ DBQ20021126152509611/26/02 15:25:31  5-MIN KDBQ 262125Z 02008KT 10SM CLR M01/M09 A3035 680 55 -1000 020/08 RMK AO2
94908KDBQ DBQ20021126153009611/26/02 15:30:31  5-MIN KDBQ 262130Z 35008KT 10SM CLR M01/M09 A3035 680 53 -1000 350/08 RMK AO2
94908KDBQ DBQ20021126153509611/26/02 15:35:31  5-MIN KDBQ 262135Z 01010KT 10SM CLR M02/M09 A3035 680 55 -1100 010/10 RMK AO2
94908KDBQ DBQ20021126154009611/26/02 15:40:31  5-MIN KDBQ 262140Z 01008KT 10SM CLR M02/M09 A3035 680 55 -1100 010/08 RMK AO2
94908KDBQ DBQ20021126154509611/26/02 15:45:31  5-MIN KDBQ 262145Z 01009KT 10SM CLR M02/M09 A3036 680 55 -1100 010/09 RMK AO2
94908KDBQ DBQ20021126155011311/26/02 15:50:31  5-MIN KDBQ 262150Z 01009KT 10SM CLR M02/M09 A3036 680 55 -1100 010/09 RMK AO2 SLP298 T10171094
94908KDBQ DBQ20021126155511311/26/02 15:55:31  5-MIN KDBQ 262155Z 01008KT 10SM CLR M02/M09 A3036 680 60 -1200 010/08 RMK AO2 SLP299 T10221089
94908KDBQ DBQ20021126160009611/26/02 16:00:31  5-MIN KDBQ 262200Z 36007KT 10SM CLR M02/M09 A3036 670 60 -1200 360/07 RMK AO2
94908KDBQ DBQ20021126160509611/26/02 16:05:31  5-MIN KDBQ 262205Z 34008KT 10SM CLR M02/M09 A3036 670 60 -1200 340/08 RMK AO2
94908KDBQ DBQ20021126161009611/26/02 16:10:31  5-MIN KDBQ 262210Z 36007KT 10SM CLR M03/M09 A3036 680 63 -1300 360/07 RMK AO2
94908KDBQ DBQ20021126161509611/26/02 16:15:31  5-MIN KDBQ 262215Z 36008KT 10SM CLR M03/M09 A3036 680 60 -1300 360/08 RMK AO2
94908KDBQ DBQ20021126162009611/26/02 16:20:31  5-MIN KDBQ 262220Z 01008KT 10SM CLR M03/M10 A3036 670 58 -1300 010/08 RMK AO2
94908KDBQ DBQ20021126162509611/26/02 16:25:31  5-MIN KDBQ 262225Z 01008KT 10SM CLR M03/M10 A3036 670 58 -1300 360/08 RMK AO2
94908KDBQ DBQ20021126163009611/26/02 16:30:31  5-MIN KDBQ 262230Z 36006KT 10SM CLR M03/M10 A3036 670 58 -1300 360/06 RMK AO2
94908KDBQ DBQ20021126163509611/26/02 16:35:31  5-MIN KDBQ 262235Z 36007KT 10SM CLR M03/M09 A3037 670 63 -1300 350/07 RMK AO2
94908KDBQ DBQ20021126164009611/26/02 16:40:31  5-MIN KDBQ 262240Z 36007KT 10SM CLR M03/M09 A3036 670 63 -1300 360/07 RMK AO2
94908KDBQ DBQ20021126164509611/26/02 16:45:31  5-MIN KDBQ 262245Z 36007KT 10SM CLR M03/M10 A3036 670 60 -1300 360/07 RMK AO2
94908KDBQ DBQ20021126165011311/26/02 16:50:31  5-MIN KDBQ 262250Z 36005KT 10SM CLR M04/M10 A3036 670 63 -1400 360/05 RMK AO2 SLP299 T10391100
94908KDBQ DBQ20021126165511311/26/02 16:55:31  5-MIN KDBQ 262255Z 36005KT 10SM CLR M04/M10 A3036 670 63 -1400 360/05 RMK AO2 SLP300 T10391100
94908KDBQ DBQ20021126170009611/26/02 17:00:31  5-MIN KDBQ 262300Z 35005KT 10SM CLR M04/M10 A3037 670 63 -1400 350/05 RMK AO2
94908KDBQ DBQ20021126170509611/26/02 17:05:31  5-MIN KDBQ 262305Z 35005KT 10SM CLR M04/M10 A3037 670 65 -1500 350/05 RMK AO2
94908KDBQ DBQ20021126171009611/26/02 17:10:31  5-MIN KDBQ 262310Z 34005KT 10SM CLR M04/M10 A3037 670 65 -1500 340/05 RMK AO2
94908KDBQ DBQ20021126171509611/26/02 17:15:31  5-MIN KDBQ 262315Z 34005KT 10SM CLR M05/M10 A3037 670 68 -1500 340/05 RMK AO2
94908KDBQ DBQ20021126172009611/26/02 17:20:31  5-MIN KDBQ 262320Z 35005KT 10SM CLR M06/M11 A3037 670 65 -1600 350/05 RMK AO2
94908KDBQ DBQ20021126172509611/26/02 17:25:31  5-MIN KDBQ 262325Z 35005KT 10SM CLR M06/M11 A3037 670 68 -1600 350/05 RMK AO2
94908KDBQ DBQ20021126173009911/26/02 17:30:31  5-MIN KDBQ 262330Z 34007KT 10SM FEW036 M06/M11 A3037 670 68 -1700 340/07 RMK AO2
94908KDBQ DBQ20021126173509911/26/02 17:35:31  5-MIN KDBQ 262335Z 35006KT 10SM FEW036 M06/M11 A3037 670 71 -1700 340/06 RMK AO2
94908KDBQ DBQ20021126174009911/26/02 17:40:31  5-MIN KDBQ 262340Z 34006KT 10SM FEW036 M06/M11 A3037 670 68 -1600 340/06 RMK AO2
94908KDBQ DBQ20021126174509911/26/02 17:45:31  5-MIN KDBQ 262345Z 34005KT 10SM FEW036 M04/M10 A3037 660 65 -1500 340/05 RMK AO2
94908KDBQ DBQ20021126175013111/26/02 17:50:31  5-MIN KDBQ 262350Z 34006KT 10SM CLR M05/M10 A3037 660 68 -1600 330/06 RMK AO2 SLP304 T10501100 11006 21061 56013
94908KDBQ DBQ20021126175513111/26/02 17:55:31  5-MIN KDBQ 262355Z 32007KT 10SM CLR M06/M10 A3037 660 71 -1600 320/07 RMK AO2 SLP306 T10561100 11006 21061 53007
94908KDBQ DBQ20021126180009611/26/02 18:00:31  5-MIN KDBQ 270000Z 31006KT 10SM CLR M07/M11 A3038 660 74 -1800 310/06 RMK AO2
94908KDBQ DBQ20021126180509611/26/02 18:05:31  5-MIN KDBQ 270005Z 32007KT 10SM CLR M07/M11 A3038 660 74 -1800 320/07 RMK AO2
94908KDBQ DBQ20021126181009611/26/02 18:10:31  5-MIN KDBQ 270010Z 33007KT 10SM CLR M06/M11 A3038 660 71 -1700 320/07 RMK AO2
94908KDBQ DBQ20021126181509611/26/02 18:15:31  5-MIN KDBQ 270015Z 32008KT 10SM CLR M06/M11 A3038 660 71 -1700 320/08 RMK AO2
94908KDBQ DBQ20021126182009611/26/02 18:20:31  5-MIN KDBQ 270020Z 33008KT 10SM CLR M06/M10 A3038 660 74 -1700 330/08 RMK AO2
94908KDBQ DBQ20021126182509611/26/02 18:25:31  5-MIN KDBQ 270025Z 33008KT 10SM CLR M06/M10 A3038 660 71 -1600 330/08 RMK AO2
94908KDBQ DBQ20021126183009611/26/02 18:30:31  5-MIN KDBQ 270030Z 33008KT 10SM CLR M06/M10 A3038 650 74 -1700 330/08 RMK AO2
94908KDBQ DBQ20021126183509611/26/02 18:35:31  5-MIN KDBQ 270035Z 33008KT 10SM CLR M06/M10 A3038 650 74 -1700 330/08 RMK AO2
94908KDBQ DBQ20021126184009611/26/02 18:40:31  5-MIN KDBQ 270040Z 33007KT 10SM CLR M06/M10 A3039 650 74 -1700 330/07 RMK AO2
94908KDBQ DBQ20021126184509611/26/02 18:45:31  5-MIN KDBQ 270045Z 32008KT 10SM CLR M06/M10 A3039 650 74 -1700 320/08 RMK AO2
94908KDBQ DBQ20021126185011311/26/02 18:50:31  5-MIN KDBQ 270050Z 32008KT 10SM CLR M07/M11 A3039 650 74 -1800 320/08 RMK AO2 SLP309 T10671106
94908KDBQ DBQ20021126185511311/26/02 18:55:31  5-MIN KDBQ 270055Z 32008KT 10SM CLR M06/M10 A3039 650 74 -1700 320/08 RMK AO2 SLP309 T10611100
94908KDBQ DBQ20021126190009611/26/02 19:00:31  5-MIN KDBQ 270100Z 32009KT 10SM CLR M06/M10 A3039 650 74 -1700 320/09 RMK AO2
94908KDBQ DBQ20021126190509611/26/02 19:05:31  5-MIN KDBQ 270105Z 33008KT 10SM CLR M06/M10 A3039 650 74 -1700 330/08 RMK AO2
94908KDBQ DBQ20021126191009611/26/02 19:10:31  5-MIN KDBQ 270110Z 33007KT 10SM CLR M06/M10 A3038 650 74 -1700 320/07 RMK AO2
94908KDBQ DBQ20021126191509611/26/02 19:15:31  5-MIN KDBQ 270115Z 33008KT 10SM CLR M06/M10 A3039 650 74 -1700 330/08 RMK AO2
94908KDBQ DBQ20021126192009611/26/02 19:20:31  5-MIN KDBQ 270120Z 33007KT 10SM CLR M06/M10 A3039 650 74 -1700 330/07 RMK AO2
94908KDBQ DBQ20021126192509611/26/02 19:25:31  5-MIN KDBQ 270125Z 33007KT 10SM CLR M07/M11 A3039 650 74 -1800 320/07 RMK AO2
94908KDBQ DBQ20021126193009611/26/02 19:30:31  5-MIN KDBQ 270130Z 33008KT 10SM CLR M07/M11 A3039 650 74 -1800 330/08 RMK AO2
94908KDBQ DBQ20021126193509611/26/02 19:35:31  5-MIN KDBQ 270135Z 33008KT 10SM CLR M07/M10 A3039 650 77 -1800 330/08 RMK AO2
94908KDBQ DBQ20021126194009611/26/02 19:40:31  5-MIN KDBQ 270140Z 33008KT 10SM CLR M07/M10 A3039 650 77 -1800 330/08 RMK AO2
94908KDBQ DBQ20021126194509611/26/02 19:45:31  5-MIN KDBQ 270145Z 34007KT 10SM CLR M07/M10 A3039 650 77 -1800 340/07 RMK AO2
94908KDBQ DBQ20021126195011311/26/02 19:50:31  5-MIN KDBQ 270150Z 33007KT 10SM CLR M07/M10 A3039 640 77 -1800 330/07 RMK AO2 SLP312 T10671100
94908KDBQ DBQ20021126195511311/26/02 19:55:31  5-MIN KDBQ 270155Z 34007KT 10SM CLR M07/M10 A3039 650 77 -1800 340/07 RMK AO2 SLP311 T10671100
94908KDBQ DBQ20021126200010611/26/02 20:00:31  5-MIN KDBQ 270200Z AUTO 34007KT 10SM CLR M07/M11 A3039 650 77 -1900 330/07 RMK AO2 TSNO
94908KDBQ DBQ20021126200510611/26/02 20:05:31  5-MIN KDBQ 270205Z AUTO 33007KT 10SM CLR M07/M11 A3039 650 77 -1900 330/07 RMK AO2 TSNO
94908KDBQ DBQ20021126201010611/26/02 20:10:31  5-MIN KDBQ 270210Z AUTO 33007KT 10SM CLR M07/M10 A3039 640 77 -1800 330/07 RMK AO2 TSNO
94908KDBQ DBQ20021126201510611/26/02 20:15:31  5-MIN KDBQ 270215Z AUTO 32007KT 10SM CLR M07/M10 A3040 640 77 -1800 320/07 RMK AO2 TSNO
94908KDBQ DBQ20021126202010611/26/02 20:20:31  5-MIN KDBQ 270220Z AUTO 32007KT 10SM CLR M07/M10 A3040 640 77 -1800 320/07 RMK AO2 TSNO
94908KDBQ DBQ20021126202510611/26/02 20:25:31  5-MIN KDBQ 270225Z AUTO 32008KT 10SM CLR M07/M10 A3040 640 77 -1800 320/08 RMK AO2 TSNO
94908KDBQ DBQ20021126203010611/26/02 20:30:31  5-MIN KDBQ 270230Z AUTO 33007KT 10SM CLR M07/M10 A3039 640 77 -1800 330/07 RMK AO2 TSNO
94908KDBQ DBQ20021126203510611/26/02 20:35:31  5-MIN KDBQ 270235Z AUTO 33007KT 10SM CLR M07/M10 A3039 640 77 -1800 330/07 RMK AO2 TSNO
94908KDBQ DBQ20021126204010611/26/02 20:40:31  5-MIN KDBQ 270240Z AUTO 33007KT 10SM CLR M07/M10 A3039 640 77 -1800 330/07 RMK AO2 TSNO
94908KDBQ DBQ20021126204510611/26/02 20:45:31  5-MIN KDBQ 270245Z AUTO 33007KT 10SM CLR M07/M10 A3039 640 77 -1800 320/07 RMK AO2 TSNO
94908KDBQ DBQ20021126205012911/26/02 20:50:31  5-MIN KDBQ 270250Z AUTO 32007KT 10SM CLR M07/M10 A3039 640 77 -1800 320/07 RMK AO2 SLP311 T10671100 53007 TSNO
94908KDBQ DBQ20021126205512911/26/02 20:55:31  5-MIN KDBQ 270255Z AUTO 33007KT 10SM CLR M07/M10 A3039 640 77 -1800 330/07 RMK AO2 SLP311 T10671100 51006 TSNO
94908KDBQ DBQ20021126210010911/26/02 21:00:31  5-MIN KDBQ 270300Z AUTO 33007KT 10SM FEW039 M07/M10 A3039 640 77 -1800 330/07 RMK AO2 TSNO
94908KDBQ DBQ20021126210510911/26/02 21:05:31  5-MIN KDBQ 270305Z AUTO 33007KT 10SM SCT039 M07/M10 A3039 640 81 -1900 330/07 RMK AO2 TSNO
94908KDBQ DBQ20021126211010911/26/02 21:10:31  5-MIN KDBQ 270310Z AUTO 34006KT 10SM SCT039 M07/M11 A3039 650 77 -1900 340/06 RMK AO2 TSNO
94908KDBQ DBQ20021126211510911/26/02 21:15:31  5-MIN KDBQ 270315Z AUTO 34006KT 10SM FEW039 M08/M11 A3039 650 77 -1900 340/06 RMK AO2 TSNO
94908KDBQ DBQ20021126212010911/26/02 21:20:31  5-MIN KDBQ 270320Z AUTO 33006KT 10SM FEW039 M08/M11 A3039 650 77 -1900 330/06 RMK AO2 TSNO
94908KDBQ DBQ20021126212510911/26/02 21:25:31  5-MIN KDBQ 270325Z AUTO 32005KT 10SM FEW039 M08/M11 A3039 650 77 -1900 320/05 RMK AO2 TSNO
94908KDBQ DBQ20021126213010911/26/02 21:30:31  5-MIN KDBQ 270330Z AUTO 32005KT 10SM FEW039 M08/M11 A3039 650 77 -1900 320/05 RMK AO2 TSNO
94908KDBQ DBQ20021126213510611/26/02 21:35:31  5-MIN KDBQ 270335Z AUTO 32007KT 10SM CLR M08/M11 A3039 640 77 -1900 320/07 RMK AO2 TSNO
94908KDBQ DBQ20021126214010611/26/02 21:40:31  5-MIN KDBQ 270340Z AUTO 32007KT 10SM CLR M07/M11 A3039 640 77 -1900 320/07 RMK AO2 TSNO
94908KDBQ DBQ20021126214510611/26/02 21:45:31  5-MIN KDBQ 270345Z AUTO 32008KT 10SM CLR M07/M10 A3039 650 81 -1900 320/08 RMK AO2 TSNO
94908KDBQ DBQ20021126215012311/26/02 21:50:31  5-MIN KDBQ 270350Z AUTO 32007KT 10SM CLR M07/M10 A3039 640 77 -1800 320/07 RMK AO2 SLP310 T10671100 TSNO
94908KDBQ DBQ20021126215512311/26/02 21:55:31  5-MIN KDBQ 270355Z AUTO 33006KT 10SM CLR M07/M11 A3039 650 77 -1900 330/06 RMK AO2 SLP310 T10721106 TSNO
94908KDBQ DBQ20021126220010611/26/02 22:00:31  5-MIN KDBQ 270400Z AUTO 34006KT 10SM CLR M08/M12 A3039 650 74 -1900 340/06 RMK AO2 TSNO
94908KDBQ DBQ20021126220510611/26/02 22:05:31  5-MIN KDBQ 270405Z AUTO 36004KT 10SM CLR M07/M11 A3039 650 74 -1900 360/04 RMK AO2 TSNO
94908KDBQ DBQ20021126221010611/26/02 22:10:31  5-MIN KDBQ 270410Z AUTO 36005KT 10SM CLR M07/M11 A3039 650 74 -1800 360/05 RMK AO2 TSNO
94908KDBQ DBQ20021126221510611/26/02 22:15:31  5-MIN KDBQ 270415Z AUTO 36005KT 10SM CLR M06/M11 A3038 650 71 -1700 360/05 RMK AO2 TSNO
94908KDBQ DBQ20021126222010611/26/02 22:20:31  5-MIN KDBQ 270420Z AUTO 36004KT 10SM CLR M07/M11 A3038 650 71 -1800 360/04 RMK AO2 TSNO
94908KDBQ DBQ20021126222510611/26/02 22:25:31  5-MIN KDBQ 270425Z AUTO 36004KT 10SM CLR M07/M11 A3038 660 74 -1800 360/04 RMK AO2 TSNO
94908KDBQ DBQ20021126223010611/26/02 22:30:31  5-MIN KDBQ 270430Z AUTO 01005KT 10SM CLR M07/M11 A3038 660 74 -1800 360/05 RMK AO2 TSNO
94908KDBQ DBQ20021126223510611/26/02 22:35:31  5-MIN KDBQ 270435Z AUTO 01005KT 10SM CLR M07/M12 A3037 660 68 -1800 010/05 RMK AO2 TSNO
94908KDBQ DBQ20021126224010611/26/02 22:40:31  5-MIN KDBQ 270440Z AUTO 01004KT 10SM CLR M07/M12 A3038 660 68 -1800 010/04 RMK AO2 TSNO
94908KDBQ DBQ20021126224510611/26/02 22:45:31  5-MIN KDBQ 270445Z AUTO 35003KT 10SM CLR M07/M12 A3039 650 68 -1900 350/03 RMK AO2 TSNO
94908KDBQ DBQ20021126225012311/26/02 22:50:31  5-MIN KDBQ 270450Z AUTO 33004KT 10SM CLR M06/M12 A3039 640 65 -1700 330/04 RMK AO2 SLP310 T10611117 TSNO
94908KDBQ DBQ20021126225512311/26/02 22:55:31  5-MIN KDBQ 270455Z AUTO 30004KT 10SM CLR M07/M12 A3040 640 68 -1800 300/04 RMK AO2 SLP311 T10671117 TSNO
94908KDBQ DBQ20021126230010611/26/02 23:00:31  5-MIN KDBQ 270500Z AUTO 31005KT 10SM CLR M08/M12 A3039 640 71 -1900 310/05 RMK AO2 TSNO
94908KDBQ DBQ20021126230510611/26/02 23:05:31  5-MIN KDBQ 270505Z AUTO 32005KT 10SM CLR M07/M12 A3039 650 71 -1900 310/05 RMK AO2 TSNO
94908KDBQ DBQ20021126231010611/26/02 23:10:31  5-MIN KDBQ 270510Z AUTO 33005KT 10SM CLR M08/M12 A3039 650 71 -1900 330/05 RMK AO2 TSNO
94908KDBQ DBQ20021126231510611/26/02 23:15:31  5-MIN KDBQ 270515Z AUTO 33006KT 10SM CLR M08/M13 A3039 650 70 -2000 330/06 RMK AO2 TSNO
94908KDBQ DBQ20021126232010611/26/02 23:20:31  5-MIN KDBQ 270520Z AUTO 33005KT 10SM CLR M08/M13 A3039 650 70 -2000 330/05 RMK AO2 TSNO
94908KDBQ DBQ20021126232510611/26/02 23:25:31  5-MIN KDBQ 270525Z AUTO 34004KT 10SM CLR M08/M12 A3039 650 74 -1900 340/04 RMK AO2 TSNO
94908KDBQ DBQ20021126233010611/26/02 23:30:31  5-MIN KDBQ 270530Z AUTO 34005KT 10SM CLR M07/M12 A3038 650 71 -1900 340/05 RMK AO2 TSNO
94908KDBQ DBQ20021126233510611/26/02 23:35:31  5-MIN KDBQ 270535Z AUTO 34006KT 10SM CLR M07/M12 A3038 650 71 -1900 340/06 RMK AO2 TSNO
94908KDBQ DBQ20021126234010611/26/02 23:40:31  5-MIN KDBQ 270540Z AUTO 34004KT 10SM CLR M07/M12 A3038 650 71 -1900 340/04 RMK AO2 TSNO
94908KDBQ DBQ20021126234510611/26/02 23:45:31  5-MIN KDBQ 270545Z AUTO 36004KT 10SM CLR M07/M12 A3038 650 68 -1800 360/04 RMK AO2 TSNO
94908KDBQ DBQ20021126235015111/26/02 23:50:31  5-MIN KDBQ 270550Z AUTO 35004KT 10SM CLR M07/M12 A3038 650 68 -1800 350/04 RMK AO2 SLP305 T10671117 11056 21089 410061106 51006 TSNO
94908KDBQ DBQ20021126235515111/26/02 23:55:31  5-MIN KDBQ 270555Z AUTO 34004KT 10SM CLR M07/M11 A3038 650 71 -1800 340/04 RMK AO2 SLP306 T10671111 11056 21089 410061106 58003 TSNO
94908KDBQ DBQ20021127000010611/27/02 00:00:31  5-MIN KDBQ 270600Z AUTO 33005KT 10SM CLR M07/M12 A3039 650 68 -1800 330/05 RMK AO2 TSNO
94908KDBQ DBQ20021127000510611/27/02 00:05:31  5-MIN KDBQ 270605Z AUTO 32004KT 10SM CLR M09/M13 A3039 650 74 -2100 320/04 RMK AO2 TSNO
94908KDBQ DBQ20021127001010611/27/02 00:10:31  5-MIN KDBQ 270610Z AUTO 32005KT 10SM CLR M08/M12 A3039 650 74 -2000 320/05 RMK AO2 TSNO
94908KDBQ DBQ20021127001510611/27/02 00:15:31  5-MIN KDBQ 270615Z AUTO 32006KT 10SM CLR M09/M13 A3039 650 74 -2100 320/06 RMK AO2 TSNO
94908KDBQ DBQ20021127002010911/27/02 00:20:31  5-MIN KDBQ 270620Z AUTO 33006KT 10SM FEW043 M09/M13 A3039 650 74 -2100 330/06 RMK AO2 TSNO
94908KDBQ DBQ20021127002510911/27/02 00:25:31  5-MIN KDBQ 270625Z AUTO 33006KT 10SM SCT043 M08/M12 A3039 650 74 -1900 330/06 RMK AO2 TSNO
94908KDBQ DBQ20021127003010911/27/02 00:30:31  5-MIN KDBQ 270630Z AUTO 33006KT 10SM BKN043 M07/M11 A3039 650 74 -1900 330/06 RMK AO2 TSNO
94908KDBQ DBQ20021127003510911/27/02 00:35:31  5-MIN KDBQ 270635Z AUTO 34006KT 10SM BKN043 M07/M11 A3038 650 74 -1900 340/06 RMK AO2 TSNO
94908KDBQ DBQ20021127004010911/27/02 00:40:31  5-MIN KDBQ 270640Z AUTO 34006KT 10SM BKN041 M07/M11 A3038 650 74 -1800 340/06 RMK AO2 TSNO
94908KDBQ DBQ20021127004510911/27/02 00:45:31  5-MIN KDBQ 270645Z AUTO 34006KT 10SM OVC041 M07/M10 A3038 650 77 -1800 340/06 RMK AO2 TSNO
94908KDBQ DBQ20021127005012611/27/02 00:50:31  5-MIN KDBQ 270650Z AUTO 34006KT 10SM OVC041 M07/M10 A3038 650 77 -1800 340/06 RMK AO2 SLP305 T10671100 TSNO
94908KDBQ DBQ20021127005512611/27/02 00:55:31  5-MIN KDBQ 270655Z AUTO 35005KT 10SM OVC041 M07/M10 A3038 660 77 -1800 350/05 RMK AO2 SLP305 T10671100 TSNO
94908KDBQ DBQ20021127010010911/27/02 01:00:31  5-MIN KDBQ 270700Z AUTO 36005KT 10SM OVC041 M06/M10 A3038 660 74 -1700 360/05 RMK AO2 TSNO
94908KDBQ DBQ20021127010510911/27/02 01:05:31  5-MIN KDBQ 270705Z AUTO 36005KT 10SM OVC041 M06/M10 A3038 660 71 -1600 360/05 RMK AO2 TSNO
94908KDBQ DBQ20021127011010911/27/02 01:10:31  5-MIN KDBQ 270710Z AUTO 36005KT 10SM OVC041 M06/M09 A3038 660 74 -1600 360/05 RMK AO2 TSNO
94908KDBQ DBQ20021127011510911/27/02 01:15:31  5-MIN KDBQ 270715Z AUTO 36005KT 10SM OVC041 M06/M09 A3038 660 74 -1600 360/05 RMK AO2 TSNO
94908KDBQ DBQ20021127012010911/27/02 01:20:31  5-MIN KDBQ 270720Z AUTO 36005KT 10SM OVC041 M06/M10 A3038 660 71 -1600 360/05 RMK AO2 TSNO
94908KDBQ DBQ20021127012510911/27/02 01:25:31  5-MIN KDBQ 270725Z AUTO 01005KT 10SM OVC041 M06/M10 A3037 660 74 -1700 010/05 RMK AO2 TSNO
94908KDBQ DBQ20021127013010911/27/02 01:30:31  5-MIN KDBQ 270730Z AUTO 01005KT 10SM OVC039 M06/M10 A3037 660 74 -1700 010/05 RMK AO2 TSNO
94908KDBQ DBQ20021127013510911/27/02 01:35:31  5-MIN KDBQ 270735Z AUTO 01005KT 10SM OVC039 M06/M10 A3038 660 74 -1700 010/05 RMK AO2 TSNO
94908KDBQ DBQ20021127014010911/27/02 01:40:31  5-MIN KDBQ 270740Z AUTO 01005KT 10SM OVC039 M06/M10 A3038 660 74 -1700 010/05 RMK AO2 TSNO
94908KDBQ DBQ20021127014510911/27/02 01:45:31  5-MIN KDBQ 270745Z AUTO 02006KT 10SM OVC039 M06/M10 A3038 660 74 -1700 020/06 RMK AO2 TSNO
94908KDBQ DBQ20021127015012611/27/02 01:50:31  5-MIN KDBQ 270750Z AUTO 02006KT 10SM OVC039 M06/M10 A3037 660 74 -1700 020/06 RMK AO2 SLP301 T10611100 TSNO
94908KDBQ DBQ20021127015512611/27/02 01:55:31  5-MIN KDBQ 270755Z AUTO 01007KT 10SM OVC039 M06/M10 A3037 660 74 -1700 010/07 RMK AO2 SLP301 T10611100 TSNO
94908KDBQ DBQ20021127020010911/27/02 02:00:31  5-MIN KDBQ 270800Z AUTO 01006KT 10SM OVC039 M06/M11 A3037 660 71 -1700 010/06 RMK AO2 TSNO
94908KDBQ DBQ20021127020510911/27/02 02:05:31  5-MIN KDBQ 270805Z AUTO 01006KT 10SM OVC039 M07/M11 A3037 670 71 -1800 010/06 RMK AO2 TSNO
94908KDBQ DBQ20021127021010911/27/02 02:10:31  5-MIN KDBQ 270810Z AUTO 01006KT 10SM BKN039 M07/M11 A3037 670 71 -1800 010/06 RMK AO2 TSNO
94908KDBQ DBQ20021127021510911/27/02 02:15:31  5-MIN KDBQ 270815Z AUTO 36006KT 10SM BKN039 M07/M11 A3037 670 71 -1800 360/06 RMK AO2 TSNO
94908KDBQ DBQ20021127022010911/27/02 02:20:31  5-MIN KDBQ 270820Z AUTO 36005KT 10SM BKN039 M07/M11 A3037 660 71 -1800 360/05 RMK AO2 TSNO
94908KDBQ DBQ20021127022510911/27/02 02:25:31  5-MIN KDBQ 270825Z AUTO 36005KT 10SM SCT039 M07/M11 A3037 660 71 -1800 360/05 RMK AO2 TSNO
94908KDBQ DBQ20021127023010911/27/02 02:30:31  5-MIN KDBQ 270830Z AUTO 36005KT 10SM SCT039 M07/M11 A3037 670 74 -1800 360/05 RMK AO2 TSNO
94908KDBQ DBQ20021127023510911/27/02 02:35:31  5-MIN KDBQ 270835Z AUTO 01005KT 10SM FEW039 M07/M12 A3037 670 71 -1800 010/05 RMK AO2 TSNO
94908KDBQ DBQ20021127024010911/27/02 02:40:31  5-MIN KDBQ 270840Z AUTO 36004KT 10SM FEW039 M08/M12 A3037 670 74 -1900 360/04 RMK AO2 TSNO
94908KDBQ DBQ20021127024510611/27/02 02:45:31  5-MIN KDBQ 270845Z AUTO 36004KT 10SM CLR M07/M12 A3037 670 71 -1800 360/04 RMK AO2 TSNO
94908KDBQ DBQ20021127025012911/27/02 02:50:31  5-MIN KDBQ 270850Z AUTO 34005KT 10SM CLR M07/M11 A3037 670 74 -1800 340/05 RMK AO2 SLP300 T10721111 58003 TSNO
94908KDBQ DBQ20021127025512911/27/02 02:55:31  5-MIN KDBQ 270855Z AUTO 34004KT 10SM CLR M07/M11 A3037 670 74 -1800 340/04 RMK AO2 SLP300 T10721111 58006 TSNO
94908KDBQ DBQ20021127030010611/27/02 03:00:31  5-MIN KDBQ 270900Z AUTO 36003KT 10SM CLR M07/M11 A3037 670 74 -1800 360/03 RMK AO2 TSNO
94908KDBQ DBQ20021127030510611/27/02 03:05:31  5-MIN KDBQ 270905Z AUTO 00000KT 10SM CLR M07/M11 A3036 670 71 -1800 000/00 RMK AO2 TSNO
94908KDBQ DBQ20021127031010611/27/02 03:10:31  5-MIN KDBQ 270910Z AUTO 03003KT 10SM CLR M07/M11 A3036 670 71 -1800 030/03 RMK AO2 TSNO
94908KDBQ DBQ20021127031510611/27/02 03:15:31  5-MIN KDBQ 270915Z AUTO 00000KT 10SM CLR M07/M11 A3036 670 74 -1800 000/00 RMK AO2 TSNO
94908KDBQ DBQ20021127032010611/27/02 03:20:31  5-MIN KDBQ 270920Z AUTO 00000KT 10SM CLR M09/M13 A3036 670 77 -2100 000/00 RMK AO2 TSNO
94908KDBQ DBQ20021127032510611/27/02 03:25:31  5-MIN KDBQ 270925Z AUTO 00000KT 10SM CLR M09/M12 A3036 670 77 -2100 000/00 RMK AO2 TSNO
94908KDBQ DBQ20021127033010911/27/02 03:30:31  5-MIN KDBQ 270930Z AUTO 00000KT 10SM FEW038 M09/M12 A3037 670 77 -2100 000/00 RMK AO2 TSNO
94908KDBQ DBQ20021127033510911/27/02 03:35:31  5-MIN KDBQ 270935Z AUTO 00000KT 10SM SCT038 M10/M12 A3037 670 84 -2200 000/00 RMK AO2 TSNO
94908KDBQ DBQ20021127034010911/27/02 03:40:31  5-MIN KDBQ 270940Z AUTO 22003KT 10SM BKN038 M10/M13 A3037 670 80 -2200 220/03 RMK AO2 TSNO
94908KDBQ DBQ20021127034510911/27/02 03:45:31  5-MIN KDBQ 270945Z AUTO 00000KT 10SM BKN038 M09/M12 A3037 670 84 -2100 000/00 RMK AO2 TSNO
94908KDBQ DBQ20021127035012611/27/02 03:50:31  5-MIN KDBQ 270950Z AUTO 00000KT 10SM BKN038 M10/M12 A3037 670 84 -2200 000/00 RMK AO2 SLP302 T11001122 TSNO
94908KDBQ DBQ20021127035512611/27/02 03:55:31  5-MIN KDBQ 270955Z AUTO 22003KT 10SM OVC038 M09/M12 A3037 670 84 -2100 220/03 RMK AO2 SLP302 T10941117 TSNO
94908KDBQ DBQ20021127040010911/27/02 04:00:31  5-MIN KDBQ 271000Z AUTO 21003KT 10SM OVC038 M09/M12 A3037 670 84 -2100 210/03 RMK AO2 TSNO
94908KDBQ DBQ20021127040510911/27/02 04:05:31  5-MIN KDBQ 271005Z AUTO 00000KT 10SM OVC038 M09/M12 A3036 670 84 -2100 000/00 RMK AO2 TSNO
94908KDBQ DBQ20021127041010911/27/02 04:10:31  5-MIN KDBQ 271010Z AUTO 00000KT 10SM OVC038 M09/M12 A3036 670 84 -2100 000/00 RMK AO2 TSNO
94908KDBQ DBQ20021127041510911/27/02 04:15:31  5-MIN KDBQ 271015Z AUTO 00000KT 10SM OVC038 M09/M12 A3037 670 84 -2100 000/00 RMK AO2 TSNO
94908KDBQ DBQ20021127042010911/27/02 04:20:31  5-MIN KDBQ 271020Z AUTO 00000KT 10SM OVC038 M09/M11 A3036 670 88 -2100 000/00 RMK AO2 TSNO
94908KDBQ DBQ20021127042510911/27/02 04:25:31  5-MIN KDBQ 271025Z AUTO 00000KT 10SM OVC038 M09/M11 A3036 670 88 -2100 000/00 RMK AO2 TSNO
94908KDBQ DBQ20021127043010911/27/02 04:30:31  5-MIN KDBQ 271030Z AUTO 00000KT 10SM OVC038 M09/M11 A3036 670 84 -2100 000/00 RMK AO2 TSNO
94908KDBQ DBQ20021127043510911/27/02 04:35:31  5-MIN KDBQ 271035Z AUTO 00000KT 10SM OVC038 M09/M11 A3037 670 88 -2100 000/00 RMK AO2 TSNO
94908KDBQ DBQ20021127044010911/27/02 04:40:31  5-MIN KDBQ 271040Z AUTO 22003KT 10SM OVC038 M09/M12 A3037 670 84 -2100 210/03 RMK AO2 TSNO
94908KDBQ DBQ20021127044510911/27/02 04:45:31  5-MIN KDBQ 271045Z AUTO 00000KT 10SM OVC038 M09/M12 A3037 670 84 -2100 000/00 RMK AO2 TSNO
94908KDBQ DBQ20021127045012611/27/02 04:50:31  5-MIN KDBQ 271050Z AUTO 00000KT 10SM OVC038 M09/M12 A3037 670 84 -2100 000/00 RMK AO2 SLP304 T10941117 TSNO
94908KDBQ DBQ20021127045512611/27/02 04:55:31  5-MIN KDBQ 271055Z AUTO 00000KT 10SM OVC038 M09/M11 A3037 660 88 -2100 000/00 RMK AO2 SLP305 T10941111 TSNO
94908KDBQ DBQ20021127050010911/27/02 05:00:31  5-MIN KDBQ 271100Z AUTO 00000KT 10SM OVC038 M09/M11 A3037 660 84 -2100 000/00 RMK AO2 TSNO
94908KDBQ DBQ20021127050510911/27/02 05:05:31  5-MIN KDBQ 271105Z AUTO 00000KT 10SM OVC036 M08/M11 A3037 660 84 -2000 000/00 RMK AO2 TSNO
94908KDBQ DBQ20021127051010911/27/02 05:10:31  5-MIN KDBQ 271110Z AUTO 00000KT 10SM OVC036 M08/M11 A3037 660 84 -2000 000/00 RMK AO2 TSNO
94908KDBQ DBQ20021127051510911/27/02 05:15:31  5-MIN KDBQ 271115Z AUTO 00000KT 10SM OVC036 M08/M10 A3037 660 88 -2000 000/00 RMK AO2 TSNO
94908KDBQ DBQ20021127052010911/27/02 05:20:31  5-MIN KDBQ 271120Z AUTO 00000KT 10SM OVC036 M08/M10 A3038 660 84 -1900 000/00 RMK AO2 TSNO
94908KDBQ DBQ20021127052510911/27/02 05:25:31  5-MIN KDBQ 271125Z AUTO 29003KT 10SM OVC036 M08/M10 A3038 660 84 -1900 290/03 RMK AO2 TSNO
94908KDBQ DBQ20021127053010911/27/02 05:30:31  5-MIN KDBQ 271130Z AUTO 30005KT 10SM OVC036 M07/M09 A3038 660 81 -1800 290/05 RMK AO2 TSNO
94908KDBQ DBQ20021127053510911/27/02 05:35:31  5-MIN KDBQ 271135Z AUTO 31004KT 10SM OVC036 M07/M09 A3038 650 81 -1800 310/04 RMK AO2 TSNO
94908KDBQ DBQ20021127054010911/27/02 05:40:31  5-MIN KDBQ 271140Z AUTO 31005KT 10SM OVC036 M06/M09 A3038 650 77 -1700 310/05 RMK AO2 TSNO
94908KDBQ DBQ20021127054510911/27/02 05:45:31  5-MIN KDBQ 271145Z AUTO 32005KT 10SM OVC036 M06/M09 A3038 660 77 -1700 320/05 RMK AO2 TSNO
94908KDBQ DBQ20021127055014411/27/02 05:50:31  5-MIN KDBQ 271150Z AUTO 32006KT 10SM OVC036 M06/M09 A3038 660 77 -1700 320/06 RMK AO2 SLP306 T10611094 11056 21100 58006 TSNO
94908KDBQ DBQ20021127055513411/27/02 05:55:31  5-MIN KDBQ 271155Z 30005KT 10SM OVC036 M07/M09 A3038 660 81 -1800 300/05 RMK AO2 SLP306 T10671094 11056 21100 53004
94908KDBQ DBQ20021127060009911/27/02 06:00:31  5-MIN KDBQ 271200Z 30004KT 10SM OVC036 M07/M09 A3038 660 81 -1800 300/04 RMK AO2
94908KDBQ DBQ20021127060509911/27/02 06:05:31  5-MIN KDBQ 271205Z 32004KT 10SM OVC036 M07/M09 A3038 660 81 -1800 320/04 RMK AO2
94908KDBQ DBQ20021127061009911/27/02 06:10:31  5-MIN KDBQ 271210Z 32006KT 10SM OVC036 M07/M09 A3038 660 81 -1800 320/06 RMK AO2
94908KDBQ DBQ20021127061509911/27/02 06:15:31  5-MIN KDBQ 271215Z 32006KT 10SM OVC036 M06/M10 A3038 660 74 -1700 310/06 RMK AO2
94908KDBQ DBQ20021127062009911/27/02 06:20:31  5-MIN KDBQ 271220Z 31005KT 10SM OVC036 M07/M10 A3038 660 77 -1800 310/05 RMK AO2
94908KDBQ DBQ20021127062509911/27/02 06:25:31  5-MIN KDBQ 271225Z 29004KT 10SM OVC036 M07/M10 A3038 660 77 -1800 290/04 RMK AO2
94908KDBQ DBQ20021127063009911/27/02 06:30:31  5-MIN KDBQ 271230Z 31003KT 10SM OVC036 M07/M10 A3038 660 77 -1800 310/03 RMK AO2
94908KDBQ DBQ20021127063509911/27/02 06:35:31  5-MIN KDBQ 271235Z 32005KT 10SM OVC036 M07/M10 A3038 660 77 -1800 320/05 RMK AO2
94908KDBQ DBQ20021127064009911/27/02 06:40:31  5-MIN KDBQ 271240Z 33005KT 10SM OVC036 M07/M11 A3038 660 77 -1800 320/05 RMK AO2
94908KDBQ DBQ20021127064510611/27/02 06:45:31  5-MIN KDBQ 271245Z 31004KT 10SM FEW028 BKN036 M08/M11 A3038 660 77 -1900 310/04 RMK AO2
94908KDBQ DBQ20021127065012311/27/02 06:50:31  5-MIN KDBQ 271250Z 31005KT 10SM FEW028 BKN036 M07/M11 A3038 660 74 -1800 310/05 RMK AO2 SLP306 T10721111
94908KDBQ DBQ20021127065512311/27/02 06:55:31  5-MIN KDBQ 271255Z 33005KT 10SM FEW030 SCT036 M08/M11 A3037 660 77 -1900 330/05 RMK AO2 SLP305 T10781111
94908KDBQ DBQ20021127070009911/27/02 07:00:31  5-MIN KDBQ 271300Z 34006KT 10SM SCT034 M08/M12 A3037 660 74 -2000 340/06 RMK AO2
94908KDBQ DBQ20021127070510611/27/02 07:05:31  5-MIN KDBQ 271305Z 34005KT 10SM FEW028 BKN034 M09/M12 A3037 670 77 -2100 340/05 RMK AO2
94908KDBQ DBQ20021127071009911/27/02 07:10:31  5-MIN KDBQ 271310Z 35004KT 10SM SCT034 M09/M12 A3037 670 77 -2100 350/04 RMK AO2
94908KDBQ DBQ20021127071509911/27/02 07:15:31  5-MIN KDBQ 271315Z 35003KT 10SM FEW034 M09/M12 A3037 670 77 -2100 350/03 RMK AO2
94908KDBQ DBQ20021127072009911/27/02 07:20:31  5-MIN KDBQ 271320Z 00000KT 10SM FEW034 M08/M12 A3037 670 74 -1900 000/00 RMK AO2
94908KDBQ DBQ20021127072509911/27/02 07:25:31  5-MIN KDBQ 271325Z 00000KT 10SM FEW034 M09/M12 A3037 670 77 -2100 000/00 RMK AO2
94908KDBQ DBQ20021127073009911/27/02 07:30:31  5-MIN KDBQ 271330Z 20003KT 10SM FEW034 M08/M12 A3037 670 77 -2000 200/03 RMK AO2
94908KDBQ DBQ20021127073509611/27/02 07:35:31  5-MIN KDBQ 271335Z 20003KT 10SM CLR M08/M12 A3037 670 77 -2000 200/03 RMK AO2
94908KDBQ DBQ20021127074009611/27/02 07:40:31  5-MIN KDBQ 271340Z 00000KT 10SM CLR M09/M12 A3037 670 80 -2100 000/00 RMK AO2
94908KDBQ DBQ20021127074509511/27/02 07:45:31  5-MIN KDBQ 271345Z 21004KT 9SM CLR M09/M12 A3037 670 80 -2100 210/04 RMK AO2
94908KDBQ DBQ20021127075011311/27/02 07:50:31  5-MIN KDBQ 271350Z 21003KT 10SM CLR M09/M11 A3037 670 84 -2100 210/03 RMK AO2 SLP304 T10891111
94908KDBQ DBQ20021127075511611/27/02 07:55:31  5-MIN KDBQ 271355Z 21003KT 10SM FEW033 M08/M11 A3037 670 84 -2000 210/03 RMK AO2 SLP303 T10831106
94908KDBQ DBQ20021127080009911/27/02 08:00:31  5-MIN KDBQ 271400Z 21003KT 10SM FEW033 M08/M11 A3037 670 84 -2000 210/03 RMK AO2
94908KDBQ DBQ20021127080509811/27/02 08:05:31  5-MIN KDBQ 271405Z 22003KT 9SM FEW031 M08/M11 A3037 660 84 -2000 220/03 RMK AO2
94908KDBQ DBQ20021127081009811/27/02 08:10:31  5-MIN KDBQ 271410Z 22003KT 9SM SCT033 M08/M11 A3037 670 80 -1900 220/03 RMK AO2
94908KDBQ DBQ20021127081509911/27/02 08:15:31  5-MIN KDBQ 271415Z 00000KT 10SM SCT035 M08/M10 A3037 660 84 -1900 000/00 RMK AO2
94908KDBQ DBQ20021127082009911/27/02 08:20:31  5-MIN KDBQ 271420Z 00000KT 10SM SCT035 M08/M10 A3037 660 84 -1900 000/00 RMK AO2
94908KDBQ DBQ20021127082509911/27/02 08:25:31  5-MIN KDBQ 271425Z 00000KT 10SM BKN035 M07/M10 A3037 660 81 -1800 000/00 RMK AO2
94908KDBQ DBQ20021127083009811/27/02 08:30:31  5-MIN KDBQ 271430Z 00000KT 9SM BKN035 M07/M09 A3037 670 81 -1800 000/00 RMK AO2
94908KDBQ DBQ20021127083509811/27/02 08:35:31  5-MIN KDBQ 271435Z 00000KT 9SM BKN035 M07/M09 A3037 670 81 -1800 000/00 RMK AO2
94908KDBQ DBQ20021127084009811/27/02 08:40:31  5-MIN KDBQ 271440Z 00000KT 9SM BKN035 M07/M09 A3037 670 84 -1800 000/00 RMK AO2
94908KDBQ DBQ20021127084509811/27/02 08:45:31  5-MIN KDBQ 271445Z 00000KT 9SM OVC035 M06/M08 A3037 670 84 -1700 000/00 RMK AO2
94908KDBQ DBQ20021127085012111/27/02 08:50:31  5-MIN KDBQ 271450Z 00000KT 9SM OVC035 M06/M08 A3037 660 84 -1700 000/00 RMK AO2 SLP303 T10611083 53004
94908KDBQ DBQ20021127085512211/27/02 08:55:31  5-MIN KDBQ 271455Z 00000KT 10SM OVC035 M06/M08 A3037 660 81 -1600 000/00 RMK AO2 SLP304 T10561083 55002
94908KDBQ DBQ20021127090009911/27/02 09:00:31  5-MIN KDBQ 271500Z 27003KT 10SM OVC035 M06/M08 A3037 660 81 -1600 270/03 RMK AO2
94908KDBQ DBQ20021127090509911/27/02 09:05:31  5-MIN KDBQ 271505Z 29004KT 10SM OVC035 M05/M09 A3038 660 74 -1600 290/04 RMK AO2
94908KDBQ DBQ20021127091009911/27/02 09:10:31  5-MIN KDBQ 271510Z 29004KT 10SM OVC035 M05/M09 A3038 660 74 -1600 290/04 RMK AO2
94908KDBQ DBQ20021127091509911/27/02 09:15:31  5-MIN KDBQ 271515Z 29005KT 10SM OVC035 M05/M10 A3038 660 68 -1600 280/05 RMK AO2
94908KDBQ DBQ20021127092009911/27/02 09:20:31  5-MIN KDBQ 271520Z 28004KT 10SM OVC035 M05/M10 A3038 660 68 -1600 280/04 RMK AO2
94908KDBQ DBQ20021127092509911/27/02 09:25:31  5-MIN KDBQ 271525Z 28005KT 10SM OVC035 M05/M09 A3038 660 71 -1600 280/05 RMK AO2
94908KDBQ DBQ20021127093009911/27/02 09:30:31  5-MIN KDBQ 271530Z 28006KT 10SM OVC035 M05/M09 A3038 660 71 -1600 280/06 RMK AO2
94908KDBQ DBQ20021127093509911/27/02 09:35:31  5-MIN KDBQ 271535Z 28005KT 10SM OVC035 M05/M09 A3038 660 71 -1600 280/05 RMK AO2
94908KDBQ DBQ20021127094009911/27/02 09:40:31  5-MIN KDBQ 271540Z 27006KT 10SM OVC033 M05/M09 A3038 660 71 -1600 270/06 RMK AO2
94908KDBQ DBQ20021127094509911/27/02 09:45:31  5-MIN KDBQ 271545Z 28006KT 10SM OVC033 M05/M09 A3038 660 71 -1600 280/06 RMK AO2
94908KDBQ DBQ20021127095011611/27/02 09:50:31  5-MIN KDBQ 271550Z 27006KT 10SM OVC033 M04/M09 A3038 660 68 -1500 270/06 RMK AO2 SLP306 T10441094
94908KDBQ DBQ20021127095511611/27/02 09:55:31  5-MIN KDBQ 271555Z 28007KT 10SM OVC033 M04/M09 A3038 660 68 -1500 280/07 RMK AO2 SLP306 T10441094
94908KDBQ DBQ20021127100009911/27/02 10:00:31  5-MIN KDBQ 271600Z 28006KT 10SM OVC033 M04/M09 A3038 660 68 -1500 280/06 RMK AO2
94908KDBQ DBQ20021127100510611/27/02 10:05:31  5-MIN KDBQ 271605Z 30007KT 10SM FEW026 OVC033 M04/M10 A3038 660 65 -1500 290/07 RMK AO2
94908KDBQ DBQ20021127101010611/27/02 10:10:31  5-MIN KDBQ 271610Z 28008KT 10SM FEW026 OVC033 M04/M09 A3038 660 68 -1500 280/08 RMK AO2
94908KDBQ DBQ20021127101510611/27/02 10:15:31  5-MIN KDBQ 271615Z 25008KT 10SM FEW027 OVC033 M04/M10 A3037 660 65 -1500 250/08 RMK AO2
94908KDBQ DBQ20021127102009911/27/02 10:20:31  5-MIN KDBQ 271620Z 27006KT 10SM OVC033 M04/M11 A3038 660 62 -1500 270/06 RMK AO2
94908KDBQ DBQ20021127102509911/27/02 10:25:31  5-MIN KDBQ 271625Z 26008KT 10SM OVC030 M04/M10 A3037 660 65 -1500 260/08 RMK AO2
94908KDBQ DBQ20021127103009911/27/02 10:30:31  5-MIN KDBQ 271630Z 25009KT 10SM OVC030 M04/M11 A3037 660 62 -1500 250/09 RMK AO2
94908KDBQ DBQ20021127103509911/27/02 10:35:31  5-MIN KDBQ 271635Z 29008KT 10SM OVC030 M04/M11 A3036 670 60 -1500 290/08 RMK AO2
94908KDBQ DBQ20021127104009911/27/02 10:40:31  5-MIN KDBQ 271640Z VRB06KT 10SM OVC030 M04/M11 A3037 670 60 -1500 VRB/06 RMK AO2
94908KDBQ DBQ20021127104509911/27/02 10:45:31  5-MIN KDBQ 271645Z 27007KT 10SM OVC030 M04/M11 A3037 670 60 -1400 270/07 RMK AO2
94908KDBQ DBQ20021127105011611/27/02 10:50:31  5-MIN KDBQ 271650Z 25008KT 10SM OVC030 M04/M11 A3036 670 60 -1400 240/08 RMK AO2 SLP300 T10391106
94908KDBQ DBQ20021127105511611/27/02 10:55:31  5-MIN KDBQ 271655Z 25011KT 10SM OVC030 M04/M11 A3036 670 60 -1500 250/11 RMK AO2 SLP300 T10441111
94908KDBQ DBQ20021127110010511/27/02 11:00:31  5-MIN KDBQ 271700Z 25008G17KT 10SM OVC030 M04/M10 A3036 670 63 -1400 250/08G17 RMK AO2
94908KDBQ DBQ20021127110510511/27/02 11:05:31  5-MIN KDBQ 271705Z 24009G17KT 10SM BKN030 M04/M11 A3036 680 60 -1400 240/09G17 RMK AO2
94908KDBQ DBQ20021127111009911/27/02 11:10:31  5-MIN KDBQ 271710Z 27006KT 10SM BKN028 M04/M11 A3035 680 60 -1400 270/06 RMK AO2
94908KDBQ DBQ20021127111509911/27/02 11:15:31  5-MIN KDBQ 271715Z 23008KT 10SM SCT028 M04/M11 A3036 680 60 -1400 230/08 RMK AO2
94908KDBQ DBQ20021127112009911/27/02 11:20:31  5-MIN KDBQ 271720Z 27008KT 10SM SCT028 M04/M11 A3035 680 60 -1400 270/08 RMK AO2
94908KDBQ DBQ20021127112509911/27/02 11:25:31  5-MIN KDBQ 271725Z 25008KT 10SM SCT028 M04/M11 A3035 680 57 -1400 250/08 RMK AO2
94908KDBQ DBQ20021127113009911/27/02 11:30:31  5-MIN KDBQ 271730Z 25007KT 10SM SCT028 M04/M11 A3035 680 60 -1500 250/07 RMK AO2
94908KDBQ DBQ20021127113509911/27/02 11:35:31  5-MIN KDBQ 271735Z 23010KT 10SM SCT028 M04/M11 A3035 690 57 -1400 230/10 RMK AO2
94908KDBQ DBQ20021127114009911/27/02 11:40:31  5-MIN KDBQ 271740Z 22010KT 10SM SCT028 M03/M11 A3034 690 57 -1300 220/10 RMK AO2
94908KDBQ DBQ20021127114509911/27/02 11:45:31  5-MIN KDBQ 271745Z 22009KT 10SM SCT028 M04/M11 A3034 690 57 -1400 220/09 RMK AO2
94908KDBQ DBQ20021127115013411/27/02 11:50:31  5-MIN KDBQ 271750Z 23007KT 10SM FEW030 M04/M11 A3034 690 60 -1400 230/07 RMK AO2 SLP293 T10441111 11033 21094 55002
94908KDBQ DBQ20021127115513411/27/02 11:55:31  5-MIN KDBQ 271755Z 22008KT 10SM SCT030 M04/M11 A3034 690 57 -1400 220/08 RMK AO2 SLP291 T10391111 11033 21094 58011
94908KDBQ DBQ20021127120009911/27/02 12:00:31  5-MIN KDBQ 271800Z 21008KT 10SM BKN030 M04/M11 A3034 690 57 -1400 210/08 RMK AO2
94908KDBQ DBQ20021127120509911/27/02 12:05:31  5-MIN KDBQ 271805Z 22010KT 10SM BKN030 M03/M11 A3033 700 57 -1300 220/10 RMK AO2
94908KDBQ DBQ20021127121009911/27/02 12:10:31  5-MIN KDBQ 271810Z 21007KT 10SM BKN030 M03/M11 A3034 700 57 -1300 210/07 RMK AO2
94908KDBQ DBQ20021127121509911/27/02 12:15:31  5-MIN KDBQ 271815Z 26012KT 10SM BKN030 M03/M11 A3033 700 55 -1200 260/12 RMK AO2
94908KDBQ DBQ20021127122009911/27/02 12:20:31  5-MIN KDBQ 271820Z 23010KT 10SM OVC030 M03/M11 A3033 700 55 -1300 230/10 RMK AO2
94908KDBQ DBQ20021127122509911/27/02 12:25:31  5-MIN KDBQ 271825Z 24008KT 10SM BKN030 M04/M11 A3033 700 57 -1400 240/08 RMK AO2
94908KDBQ DBQ20021127123009911/27/02 12:30:31  5-MIN KDBQ 271830Z 26009KT 10SM BKN030 M04/M11 A3033 700 57 -1400 260/09 RMK AO2
94908KDBQ DBQ20021127123509911/27/02 12:35:31  5-MIN KDBQ 271835Z 25006KT 10SM BKN030 M04/M11 A3033 710 57 -1400 250/06 RMK AO2
94908KDBQ DBQ20021127124009911/27/02 12:40:31  5-MIN KDBQ 271840Z 25010KT 10SM BKN030 M04/M11 A3032 710 60 -1400 250/10 RMK AO2
94908KDBQ DBQ20021127124509911/27/02 12:45:31  5-MIN KDBQ 271845Z 24008KT 10SM BKN030 M04/M11 A3032 710 60 -1400 240/08 RMK AO2
94908KDBQ DBQ20021127125011611/27/02 12:50:31  5-MIN KDBQ 271850Z 25007KT 10SM BKN030 M03/M11 A3032 710 57 -1300 250/07 RMK AO2 SLP285 T10331106
94908KDBQ DBQ20021127125511611/27/02 12:55:31  5-MIN KDBQ 271855Z 25010KT 10SM BKN030 M03/M11 A3032 710 57 -1300 250/10 RMK AO2 SLP285 T10331106
94908KDBQ DBQ20021127130009911/27/02 13:00:31  5-MIN KDBQ 271900Z 22009KT 10SM BKN030 M03/M10 A3032 710 58 -1200 220/09 RMK AO2
94908KDBQ DBQ20021127130509911/27/02 13:05:31  5-MIN KDBQ 271905Z 24011KT 10SM OVC030 M03/M11 A3032 710 57 -1300 240/11 RMK AO2
94908KDBQ DBQ20021127131009911/27/02 13:10:31  5-MIN KDBQ 271910Z 26009KT 10SM OVC030 M03/M11 A3032 710 57 -1300 260/09 RMK AO2
94908KDBQ DBQ20021127131509911/27/02 13:15:31  5-MIN KDBQ 271915Z 25008KT 10SM OVC030 M03/M11 A3032 710 57 -1300 240/08 RMK AO2
94908KDBQ DBQ20021127132009911/27/02 13:20:31  5-MIN KDBQ 271920Z 24006KT 10SM OVC030 M04/M11 A3032 710 60 -1300 240/06 RMK AO2
94908KDBQ DBQ20021127132509811/27/02 13:25:31  5-MIN KDBQ 271925Z 25009KT 9SM OVC030 M03/M11 A3032 710 57 -1300 250/09 RMK AO2
94908KDBQ DBQ20021127133009811/27/02 13:30:31  5-MIN KDBQ 271930Z 25006KT 9SM OVC030 M04/M11 A3031 720 60 -1300 250/06 RMK AO2
94908KDBQ DBQ20021127133509811/27/02 13:35:31  5-MIN KDBQ 271935Z 26005KT 9SM OVC030 M03/M11 A3031 720 57 -1300 260/05 RMK AO2
94908KDBQ DBQ20021127134009911/27/02 13:40:31  5-MIN KDBQ 271940Z 21008KT 10SM OVC030 M03/M11 A3031 720 57 -1300 210/08 RMK AO2
94908KDBQ DBQ20021127134509911/27/02 13:45:31  5-MIN KDBQ 271945Z 26010KT 10SM OVC030 M03/M11 A3030 730 57 -1300 260/10 RMK AO2
94908KDBQ DBQ20021127135011611/27/02 13:50:31  5-MIN KDBQ 271950Z 26011KT 10SM OVC030 M03/M11 A3030 730 57 -1300 260/11 RMK AO2 SLP278 T10331106
94908KDBQ DBQ20021127135511611/27/02 13:55:31  5-MIN KDBQ 271955Z 24011KT 10SM OVC030 M03/M11 A3030 730 57 -1300 240/11 RMK AO2 SLP277 T10331106
94908KDBQ DBQ20021127140009811/27/02 14:00:31  5-MIN KDBQ 272000Z 25008KT 9SM BKN030 M04/M11 A3030 730 57 -1300 240/08 RMK AO2
94908KDBQ DBQ20021127140509811/27/02 14:05:31  5-MIN KDBQ 272005Z 26009KT 9SM BKN030 M04/M11 A3030 730 60 -1300 260/09 RMK AO2
94908KDBQ DBQ20021127141009811/27/02 14:10:31  5-MIN KDBQ 272010Z 26006KT 9SM OVC030 M04/M11 A3030 730 60 -1300 260/06 RMK AO2
94908KDBQ DBQ20021127141509811/27/02 14:15:31  5-MIN KDBQ 272015Z 26010KT 9SM OVC030 M03/M11 A3030 730 57 -1300 260/10 RMK AO2
94908KDBQ DBQ20021127142009811/27/02 14:20:31  5-MIN KDBQ 272020Z 28010KT 9SM OVC030 M04/M11 A3030 730 60 -1300 270/10 RMK AO2
94908KDBQ DBQ20021127142509811/27/02 14:25:31  5-MIN KDBQ 272025Z 27009KT 9SM OVC030 M04/M11 A3029 730 60 -1300 270/09 RMK AO2
94908KDBQ DBQ20021127143009811/27/02 14:30:31  5-MIN KDBQ 272030Z 23007KT 9SM OVC030 M04/M11 A3029 740 60 -1300 230/07 RMK AO2
94908KDBQ DBQ20021127143509811/27/02 14:35:31  5-MIN KDBQ 272035Z 25011KT 9SM OVC030 M04/M11 A3029 740 60 -1300 250/11 RMK AO2
94908KDBQ DBQ20021127144009811/27/02 14:40:31  5-MIN KDBQ 272040Z 25009KT 9SM OVC030 M04/M11 A3029 740 60 -1300 250/09 RMK AO2
94908KDBQ DBQ20021127144509811/27/02 14:45:31  5-MIN KDBQ 272045Z 25007KT 8SM OVC028 M04/M11 A3029 740 60 -1300 250/07 RMK AO2
94908KDBQ DBQ20021127145012111/27/02 14:50:31  5-MIN KDBQ 272050Z 26009KT 8SM OVC028 M04/M10 A3029 740 63 -1300 260/09 RMK AO2 SLP276 T10391100 58011
94908KDBQ DBQ20021127145512111/27/02 14:55:31  5-MIN KDBQ 272055Z 25008KT 8SM OVC028 M04/M11 A3029 740 60 -1300 250/08 RMK AO2 SLP275 T10391106 56017
94908KDBQ DBQ20021127150009811/27/02 15:00:31  5-MIN KDBQ 272100Z 24009KT 8SM OVC028 M04/M10 A3028 740 63 -1300 240/09 RMK AO2
94908KDBQ DBQ20021127150509811/27/02 15:05:31  5-MIN KDBQ 272105Z 24006KT 8SM OVC028 M04/M11 A3028 740 62 -1400 240/06 RMK AO2
94908KDBQ DBQ20021127151009811/27/02 15:10:31  5-MIN KDBQ 272110Z 24007KT 8SM OVC028 M04/M11 A3029 740 62 -1400 240/07 RMK AO2
94908KDBQ DBQ20021127151509811/27/02 15:15:31  5-MIN KDBQ 272115Z 25007KT 8SM BKN028 M04/M11 A3029 740 62 -1400 250/07 RMK AO2
94908KDBQ DBQ20021127152009811/27/02 15:20:31  5-MIN KDBQ 272120Z 26008KT 8SM BKN028 M04/M11 A3029 740 62 -1400 250/08 RMK AO2
94908KDBQ DBQ20021127152509811/27/02 15:25:31  5-MIN KDBQ 272125Z 27005KT 8SM BKN028 M04/M11 A3029 730 62 -1400 270/05 RMK AO2
94908KDBQ DBQ20021127153009811/27/02 15:30:31  5-MIN KDBQ 272130Z 23009KT 8SM BKN028 M04/M11 A3029 730 62 -1400 230/09 RMK AO2
94908KDBQ DBQ20021127153509811/27/02 15:35:31  5-MIN KDBQ 272135Z 22008KT 8SM BKN028 M04/M11 A3029 730 62 -1400 220/08 RMK AO2
94908KDBQ DBQ20021127154009811/27/02 15:40:31  5-MIN KDBQ 272140Z 21008KT 8SM BKN028 M04/M11 A3029 730 62 -1400 210/08 RMK AO2
94908KDBQ DBQ20021127154509811/27/02 15:45:31  5-MIN KDBQ 272145Z 22008KT 8SM OVC028 M04/M11 A3029 740 62 -1400 220/08 RMK AO2
94908KDBQ DBQ20021127155011511/27/02 15:50:31  5-MIN KDBQ 272150Z 20007KT 8SM BKN028 M04/M11 A3029 740 60 -1400 200/07 RMK AO2 SLP276 T10441111
94908KDBQ DBQ20021127155511511/27/02 15:55:31  5-MIN KDBQ 272155Z 22006KT 8SM BKN028 M05/M11 A3029 740 62 -1500 220/06 RMK AO2 SLP276 T10501111
94908KDBQ DBQ20021127160009811/27/02 16:00:31  5-MIN KDBQ 272200Z 23005KT 8SM SCT028 M05/M11 A3029 740 65 -1500 230/05 RMK AO2
94908KDBQ DBQ20021127160509811/27/02 16:05:31  5-MIN KDBQ 272205Z 25005KT 8SM SCT028 M06/M11 A3029 740 65 -1500 240/05 RMK AO2
94908KDBQ DBQ20021127161009811/27/02 16:10:31  5-MIN KDBQ 272210Z 24004KT 8SM FEW028 M06/M11 A3029 740 65 -1500 240/04 RMK AO2
94908KDBQ DBQ20021127161509511/27/02 16:15:31  5-MIN KDBQ 272215Z 23005KT 8SM CLR M06/M11 A3028 740 68 -1500 230/05 RMK AO2
94908KDBQ DBQ20021127162009511/27/02 16:20:31  5-MIN KDBQ 272220Z 21004KT 7SM CLR M06/M11 A3028 750 68 -1600 210/04 RMK AO2
94908KDBQ DBQ20021127162509511/27/02 16:25:31  5-MIN KDBQ 272225Z 21005KT 7SM CLR M06/M11 A3028 750 68 -1600 210/05 RMK AO2
94908KDBQ DBQ20021127163009511/27/02 16:30:31  5-MIN KDBQ 272230Z 20004KT 8SM CLR M06/M11 A3028 750 68 -1600 200/04 RMK AO2
94908KDBQ DBQ20021127163509811/27/02 16:35:31  5-MIN KDBQ 272235Z 20004KT 6SM HZ CLR M07/M11 A3028 740 71 -1700 200/04 RMK AO2
94908KDBQ DBQ20021127164009811/27/02 16:40:31  5-MIN KDBQ 272240Z 20004KT 5SM HZ CLR M07/M12 A3028 750 68 -1700 200/04 RMK AO2
94908KDBQ DBQ20021127164509811/27/02 16:45:31  5-MIN KDBQ 272245Z 20004KT 5SM HZ CLR M07/M12 A3028 750 71 -1700 190/04 RMK AO2
94908KDBQ DBQ20021127165011511/27/02 16:50:31  5-MIN KDBQ 272250Z 20005KT 6SM HZ CLR M07/M12 A3028 740 71 -1700 200/05 RMK AO2 SLP275 T10721117
94908KDBQ DBQ20021127165511211/27/02 16:55:31  5-MIN KDBQ 272255Z 20005KT 8SM CLR M08/M12 A3028 740 74 -1800 200/05 RMK AO2 SLP275 T10781117
94908KDBQ DBQ20021127170009511/27/02 17:00:31  5-MIN KDBQ 272300Z 20005KT 8SM CLR M08/M12 A3028 740 77 -1900 190/05 RMK AO2
94908KDBQ DBQ20021127170509511/27/02 17:05:31  5-MIN KDBQ 272305Z 19005KT 8SM CLR M08/M12 A3028 750 74 -1800 190/05 RMK AO2
94908KDBQ DBQ20021127171009511/27/02 17:10:31  5-MIN KDBQ 272310Z 19005KT 8SM CLR M08/M12 A3028 750 74 -1900 190/05 RMK AO2
94908KDBQ DBQ20021127171509511/27/02 17:15:31  5-MIN KDBQ 272315Z 19005KT 8SM CLR M08/M12 A3028 750 77 -1900 190/05 RMK AO2
94908KDBQ DBQ20021127172009511/27/02 17:20:31  5-MIN KDBQ 272320Z 19005KT 8SM CLR M08/M12 A3028 750 77 -1900 190/05 RMK AO2
94908KDBQ DBQ20021127172509511/27/02 17:25:31  5-MIN KDBQ 272325Z 19004KT 7SM CLR M08/M12 A3028 750 77 -1900 190/04 RMK AO2
94908KDBQ DBQ20021127173009511/27/02 17:30:31  5-MIN KDBQ 272330Z 19004KT 7SM CLR M08/M12 A3028 750 77 -1900 190/04 RMK AO2
94908KDBQ DBQ20021127173509511/27/02 17:35:31  5-MIN KDBQ 272335Z 19005KT 7SM CLR M08/M12 A3027 750 77 -1900 190/05 RMK AO2
94908KDBQ DBQ20021127174009511/27/02 17:40:31  5-MIN KDBQ 272340Z 19005KT 7SM CLR M08/M12 A3027 750 77 -1900 190/05 RMK AO2
94908KDBQ DBQ20021127174509511/27/02 17:45:31  5-MIN KDBQ 272345Z 20005KT 8SM CLR M08/M12 A3027 750 77 -1900 190/05 RMK AO2
94908KDBQ DBQ20021127175013011/27/02 17:50:31  5-MIN KDBQ 272350Z 20005KT 7SM CLR M08/M12 A3027 750 77 -1900 190/05 RMK AO2 SLP271 T10831117 11028 21083 56017
94908KDBQ DBQ20021127175513011/27/02 17:55:31  5-MIN KDBQ 272355Z 19005KT 7SM CLR M09/M12 A3027 750 80 -1900 190/05 RMK AO2 SLP272 T10891117 11028 21089 58005
94908KDBQ DBQ20021127180009511/27/02 18:00:31  5-MIN KDBQ 280000Z 19005KT 7SM CLR M09/M12 A3027 750 80 -1900 190/05 RMK AO2
94908KDBQ DBQ20021127180509511/27/02 18:05:31  5-MIN KDBQ 280005Z 20005KT 7SM CLR M09/M12 A3027 760 80 -1900 200/05 RMK AO2
94908KDBQ DBQ20021127181009511/27/02 18:10:31  5-MIN KDBQ 280010Z 20005KT 7SM CLR M08/M12 A3027 760 77 -1900 200/05 RMK AO2
94908KDBQ DBQ20021127181509511/27/02 18:15:31  5-MIN KDBQ 280015Z 19004KT 7SM CLR M08/M12 A3027 760 77 -1900 190/04 RMK AO2
94908KDBQ DBQ20021127182009511/27/02 18:20:31  5-MIN KDBQ 280020Z 19004KT 7SM CLR M09/M12 A3027 760 80 -1900 190/04 RMK AO2
94908KDBQ DBQ20021127182509511/27/02 18:25:31  5-MIN KDBQ 280025Z 19004KT 7SM CLR M09/M12 A3027 760 80 -1900 190/04 RMK AO2
94908KDBQ DBQ20021127183009511/27/02 18:30:31  5-MIN KDBQ 280030Z 19004KT 7SM CLR M09/M12 A3027 760 80 -1900 190/04 RMK AO2
94908KDBQ DBQ20021127183509511/27/02 18:35:31  5-MIN KDBQ 280035Z 19004KT 7SM CLR M09/M12 A3027 760 80 -1900 190/04 RMK AO2
94908KDBQ DBQ20021127184009511/27/02 18:40:31  5-MIN KDBQ 280040Z 19004KT 8SM CLR M08/M12 A3027 760 77 -1900 190/04 RMK AO2
94908KDBQ DBQ20021127184509511/27/02 18:45:31  5-MIN KDBQ 280045Z 19004KT 8SM CLR M08/M12 A3027 760 77 -1900 190/04 RMK AO2
94908KDBQ DBQ20021127185011211/27/02 18:50:31  5-MIN KDBQ 280050Z 19004KT 8SM CLR M08/M12 A3027 760 77 -1900 190/04 RMK AO2 SLP271 T10831117
94908KDBQ DBQ20021127185511211/27/02 18:55:31  5-MIN KDBQ 280055Z 19003KT 8SM CLR M08/M12 A3027 750 77 -1900 190/03 RMK AO2 SLP271 T10831117
94908KDBQ DBQ20021127190009511/27/02 19:00:31  5-MIN KDBQ 280100Z 19003KT 7SM CLR M08/M12 A3027 750 77 -1900 190/03 RMK AO2
94908KDBQ DBQ20021127190509511/27/02 19:05:31  5-MIN KDBQ 280105Z 19003KT 7SM CLR M08/M12 A3027 750 77 -1900 190/03 RMK AO2
94908KDBQ DBQ20021127191009511/27/02 19:10:31  5-MIN KDBQ 280110Z 19004KT 7SM CLR M08/M12 A3027 750 77 -1900 190/04 RMK AO2
94908KDBQ DBQ20021127191509511/27/02 19:15:31  5-MIN KDBQ 280115Z 19004KT 7SM CLR M09/M12 A3027 750 80 -1900 190/04 RMK AO2
94908KDBQ DBQ20021127192009511/27/02 19:20:31  5-MIN KDBQ 280120Z 19004KT 7SM CLR M09/M12 A3027 750 80 -1900 190/04 RMK AO2
94908KDBQ DBQ20021127192509511/27/02 19:25:31  5-MIN KDBQ 280125Z 19004KT 7SM CLR M09/M12 A3028 750 80 -1900 190/04 RMK AO2
94908KDBQ DBQ20021127193009511/27/02 19:30:31  5-MIN KDBQ 280130Z 19004KT 7SM CLR M09/M12 A3028 750 80 -2000 190/04 RMK AO2
94908KDBQ DBQ20021127193509511/27/02 19:35:31  5-MIN KDBQ 280135Z 19004KT 7SM CLR M08/M11 A3028 750 80 -1900 190/04 RMK AO2
94908KDBQ DBQ20021127194009511/27/02 19:40:31  5-MIN KDBQ 280140Z 19004KT 7SM CLR M08/M11 A3028 750 80 -1900 190/04 RMK AO2
94908KDBQ DBQ20021127194509511/27/02 19:45:31  5-MIN KDBQ 280145Z 19004KT 7SM CLR M08/M11 A3028 750 80 -1900 190/04 RMK AO2
94908KDBQ DBQ20021127195011211/27/02 19:50:31  5-MIN KDBQ 280150Z 19005KT 7SM CLR M09/M11 A3028 750 84 -1900 190/05 RMK AO2 SLP274 T10891111
94908KDBQ DBQ20021127195511211/27/02 19:55:31  5-MIN KDBQ 280155Z 20004KT 7SM CLR M09/M11 A3028 750 84 -1900 200/04 RMK AO2 SLP273 T10891111
94908KDBQ DBQ20021127200010511/27/02 20:00:31  5-MIN KDBQ 280200Z AUTO 20005KT 7SM CLR M09/M11 A3027 750 84 -1900 200/05 RMK AO2 TSNO
94908KDBQ DBQ20021127200510511/27/02 20:05:31  5-MIN KDBQ 280205Z AUTO 20004KT 7SM CLR M09/M11 A3028 750 84 -1900 200/04 RMK AO2 TSNO
94908KDBQ DBQ20021127201010511/27/02 20:10:31  5-MIN KDBQ 280210Z AUTO 20005KT 7SM CLR M09/M11 A3028 750 84 -1900 200/05 RMK AO2 TSNO
94908KDBQ DBQ20021127201510511/27/02 20:15:31  5-MIN KDBQ 280215Z AUTO 20005KT 7SM CLR M08/M11 A3028 750 80 -1900 200/05 RMK AO2 TSNO
94908KDBQ DBQ20021127202010511/27/02 20:20:31  5-MIN KDBQ 280220Z AUTO 20005KT 7SM CLR M08/M11 A3027 750 80 -1900 200/05 RMK AO2 TSNO
94908KDBQ DBQ20021127202510511/27/02 20:25:31  5-MIN KDBQ 280225Z AUTO 19005KT 7SM CLR M08/M11 A3027 750 80 -1900 190/05 RMK AO2 TSNO
94908KDBQ DBQ20021127203010511/27/02 20:30:31  5-MIN KDBQ 280230Z AUTO 20004KT 7SM CLR M08/M11 A3027 750 84 -1900 190/04 RMK AO2 TSNO
94908KDBQ DBQ20021127203510511/27/02 20:35:31  5-MIN KDBQ 280235Z AUTO 20005KT 7SM CLR M08/M11 A3028 750 80 -1800 200/05 RMK AO2 TSNO
94908KDBQ DBQ20021127204010511/27/02 20:40:31  5-MIN KDBQ 280240Z AUTO 20005KT 7SM CLR M08/M11 A3028 750 80 -1800 200/05 RMK AO2 TSNO
94908KDBQ DBQ20021127204510511/27/02 20:45:31  5-MIN KDBQ 280245Z AUTO 20005KT 7SM CLR M08/M11 A3027 750 80 -1800 200/05 RMK AO2 TSNO
94908KDBQ DBQ20021127205012811/27/02 20:50:31  5-MIN KDBQ 280250Z AUTO 20004KT 7SM CLR M08/M10 A3028 750 84 -1800 190/04 RMK AO2 SLP272 T10781100 58005 TSNO
94908KDBQ DBQ20021127205512811/27/02 20:55:31  5-MIN KDBQ 280255Z AUTO 20005KT 7SM CLR M08/M10 A3028 750 84 -1800 200/05 RMK AO2 SLP273 T10781100 53002 TSNO
94908KDBQ DBQ20021127210010511/27/02 21:00:31  5-MIN KDBQ 280300Z AUTO 19004KT 7SM CLR M08/M10 A3028 750 84 -1800 190/04 RMK AO2 TSNO
94908KDBQ DBQ20021127210510511/27/02 21:05:31  5-MIN KDBQ 280305Z AUTO 19003KT 7SM CLR M08/M10 A3028 750 84 -1800 190/03 RMK AO2 TSNO
94908KDBQ DBQ20021127211010511/27/02 21:10:31  5-MIN KDBQ 280310Z AUTO 19003KT 7SM CLR M08/M10 A3028 750 84 -1800 190/03 RMK AO2 TSNO
94908KDBQ DBQ20021127211510511/27/02 21:15:31  5-MIN KDBQ 280315Z AUTO 00000KT 7SM CLR M08/M11 A3028 740 80 -1800 000/00 RMK AO2 TSNO
94908KDBQ DBQ20021127212010511/27/02 21:20:31  5-MIN KDBQ 280320Z AUTO 18003KT 7SM CLR M08/M11 A3028 740 80 -1800 180/03 RMK AO2 TSNO
94908KDBQ DBQ20021127212510511/27/02 21:25:31  5-MIN KDBQ 280325Z AUTO 18003KT 7SM CLR M08/M11 A3028 740 80 -1800 180/03 RMK AO2 TSNO
94908KDBQ DBQ20021127213010511/27/02 21:30:31  5-MIN KDBQ 280330Z AUTO 18004KT 7SM CLR M08/M11 A3029 740 80 -1800 180/04 RMK AO2 TSNO
94908KDBQ DBQ20021127213510511/27/02 21:35:31  5-MIN KDBQ 280335Z AUTO 19003KT 7SM CLR M08/M11 A3029 740 80 -1900 180/03 RMK AO2 TSNO
94908KDBQ DBQ20021127214010511/27/02 21:40:31  5-MIN KDBQ 280340Z AUTO 19003KT 7SM CLR M08/M11 A3029 740 80 -1900 190/03 RMK AO2 TSNO
94908KDBQ DBQ20021127214510511/27/02 21:45:31  5-MIN KDBQ 280345Z AUTO 19003KT 7SM CLR M08/M11 A3028 740 77 -1800 190/03 RMK AO2 TSNO
94908KDBQ DBQ20021127215012511/27/02 21:50:31  5-MIN KDBQ 280350Z AUTO 19003KT 7SM FEW033 M08/M11 A3028 740 80 -1900 190/03 RMK AO2 SLP273 T10831111 TSNO
94908KDBQ DBQ20021127215512511/27/02 21:55:31  5-MIN KDBQ 280355Z AUTO 18004KT 7SM BKN033 M08/M11 A3028 750 80 -1900 180/04 RMK AO2 SLP272 T10831111 TSNO
94908KDBQ DBQ20021127220010811/27/02 22:00:31  5-MIN KDBQ 280400Z AUTO 19003KT 7SM BKN033 M08/M11 A3028 750 80 -1900 190/03 RMK AO2 TSNO
94908KDBQ DBQ20021127220510811/27/02 22:05:31  5-MIN KDBQ 280405Z AUTO 19003KT 7SM BKN033 M08/M11 A3028 750 80 -1900 190/03 RMK AO2 TSNO
94908KDBQ DBQ20021127221010811/27/02 22:10:31  5-MIN KDBQ 280410Z AUTO 19003KT 7SM BKN033 M08/M11 A3028 750 80 -1900 190/03 RMK AO2 TSNO
94908KDBQ DBQ20021127221510811/27/02 22:15:31  5-MIN KDBQ 280415Z AUTO 19003KT 7SM OVC033 M08/M11 A3028 750 80 -1900 190/03 RMK AO2 TSNO
94908KDBQ DBQ20021127222010811/27/02 22:20:31  5-MIN KDBQ 280420Z AUTO 00000KT 7SM OVC031 M08/M11 A3028 750 80 -1900 000/00 RMK AO2 TSNO
94908KDBQ DBQ20021127222510811/27/02 22:25:31  5-MIN KDBQ 280425Z AUTO 00000KT 7SM OVC031 M08/M11 A3028 750 77 -1800 000/00 RMK AO2 TSNO
94908KDBQ DBQ20021127223010811/27/02 22:30:31  5-MIN KDBQ 280430Z AUTO 19003KT 7SM BKN031 M08/M11 A3027 750 80 -1900 180/03 RMK AO2 TSNO
94908KDBQ DBQ20021127223511111/27/02 22:35:31  5-MIN KDBQ 280435Z AUTO 18004KT 6SM HZ BKN031 M08/M12 A3027 760 77 -1900 180/04 RMK AO2 TSNO
94908KDBQ DBQ20021127224011111/27/02 22:40:31  5-MIN KDBQ 280440Z AUTO 19004KT 6SM HZ BKN031 M08/M12 A3027 760 77 -1900 190/04 RMK AO2 TSNO
94908KDBQ DBQ20021127224511111/27/02 22:45:31  5-MIN KDBQ 280445Z AUTO 19004KT 6SM HZ SCT031 M08/M12 A3027 760 77 -1900 190/04 RMK AO2 TSNO
94908KDBQ DBQ20021127225012811/27/02 22:50:31  5-MIN KDBQ 280450Z AUTO 19003KT 6SM HZ FEW031 M09/M12 A3027 760 77 -1900 190/03 RMK AO2 SLP267 T10891122 TSNO
94908KDBQ DBQ20021127225512811/27/02 22:55:31  5-MIN KDBQ 280455Z AUTO 19004KT 6SM HZ FEW031 M08/M12 A3026 760 74 -1900 190/04 RMK AO2 SLP267 T10831122 TSNO
94908KDBQ DBQ20021127230011111/27/02 23:00:31  5-MIN KDBQ 280500Z AUTO 19004KT 6SM HZ FEW031 M09/M12 A3026 760 77 -1900 190/04 RMK AO2 TSNO
94908KDBQ DBQ20021127230510811/27/02 23:05:31  5-MIN KDBQ 280505Z AUTO 19004KT 6SM HZ CLR M09/M12 A3026 760 77 -1900 190/04 RMK AO2 TSNO
94908KDBQ DBQ20021127231010811/27/02 23:10:31  5-MIN KDBQ 280510Z AUTO 18005KT 6SM HZ CLR M09/M12 A3026 770 77 -1900 180/05 RMK AO2 TSNO
94908KDBQ DBQ20021127231510811/27/02 23:15:31  5-MIN KDBQ 280515Z AUTO 19005KT 6SM HZ CLR M09/M12 A3026 770 77 -1900 190/05 RMK AO2 TSNO
94908KDBQ DBQ20021127232010811/27/02 23:20:31  5-MIN KDBQ 280520Z AUTO 19005KT 6SM HZ CLR M09/M12 A3025 770 77 -1900 180/05 RMK AO2 TSNO
94908KDBQ DBQ20021127232510811/27/02 23:25:31  5-MIN KDBQ 280525Z AUTO 19004KT 6SM HZ CLR M09/M13 A3026 770 77 -2000 190/04 RMK AO2 TSNO
94908KDBQ DBQ20021127233010811/27/02 23:30:31  5-MIN KDBQ 280530Z AUTO 19003KT 6SM HZ CLR M09/M13 A3025 770 77 -2000 190/03 RMK AO2 TSNO
94908KDBQ DBQ20021127233510811/27/02 23:35:31  5-MIN KDBQ 280535Z AUTO 19005KT 6SM HZ CLR M09/M12 A3025 770 77 -1900 190/05 RMK AO2 TSNO
94908KDBQ DBQ20021127234010811/27/02 23:40:31  5-MIN KDBQ 280540Z AUTO 19005KT 6SM HZ CLR M09/M13 A3025 770 77 -2000 190/05 RMK AO2 TSNO
94908KDBQ DBQ20021127234510811/27/02 23:45:31  5-MIN KDBQ 280545Z AUTO 19005KT 6SM HZ CLR M09/M12 A3025 770 80 -2000 190/05 RMK AO2 TSNO
94908KDBQ DBQ20021127235015311/27/02 23:50:31  5-MIN KDBQ 280550Z AUTO 19004KT 6SM HZ CLR M09/M13 A3025 770 77 -2000 190/04 RMK AO2 SLP263 T10941128 11078 21094 410281100 53002 TSNO
94908KDBQ DBQ20021127235515311/27/02 23:55:31  5-MIN KDBQ 280555Z AUTO 18005KT 6SM HZ CLR M09/M13 A3025 780 77 -2000 180/05 RMK AO2 SLP262 T10941128 11078 21094 410281100 58010 TSNO
94908KDBQ DBQ20021128000010811/28/02 00:00:31  5-MIN KDBQ 280600Z AUTO 19006KT 6SM BR CLR M10/M12 A3024 780 84 -2100 180/06 RMK AO2 TSNO
94908KDBQ DBQ20021128000510811/28/02 00:05:31  5-MIN KDBQ 280605Z AUTO 18006KT 6SM HZ CLR M09/M12 A3024 780 80 -2000 180/06 RMK AO2 TSNO
94908KDBQ DBQ20021128001010811/28/02 00:10:31  5-MIN KDBQ 280610Z AUTO 19005KT 6SM HZ CLR M09/M12 A3024 780 80 -2000 190/05 RMK AO2 TSNO
94908KDBQ DBQ20021128001510811/28/02 00:15:31  5-MIN KDBQ 280615Z AUTO 19004KT 6SM BR CLR M09/M12 A3024 780 84 -2000 190/04 RMK AO2 TSNO
94908KDBQ DBQ20021128002010811/28/02 00:20:31  5-MIN KDBQ 280620Z AUTO 19005KT 6SM HZ CLR M10/M13 A3024 780 80 -2100 190/05 RMK AO2 TSNO
94908KDBQ DBQ20021128002510811/28/02 00:25:31  5-MIN KDBQ 280625Z AUTO 19005KT 6SM HZ CLR M09/M12 A3024 780 80 -2000 190/05 RMK AO2 TSNO
94908KDBQ DBQ20021128003010811/28/02 00:30:31  5-MIN KDBQ 280630Z AUTO 19004KT 6SM HZ CLR M09/M12 A3024 780 80 -2000 190/04 RMK AO2 TSNO
94908KDBQ DBQ20021128003510811/28/02 00:35:31  5-MIN KDBQ 280635Z AUTO 20004KT 6SM BR CLR M09/M12 A3024 780 84 -2000 200/04 RMK AO2 TSNO
94908KDBQ DBQ20021128004010811/28/02 00:40:31  5-MIN KDBQ 280640Z AUTO 19004KT 6SM HZ CLR M09/M12 A3024 790 80 -2000 190/04 RMK AO2 TSNO
94908KDBQ DBQ20021128004510811/28/02 00:45:31  5-MIN KDBQ 280645Z AUTO 19004KT 6SM BR CLR M09/M12 A3024 790 84 -2000 190/04 RMK AO2 TSNO
94908KDBQ DBQ20021128005012511/28/02 00:50:31  5-MIN KDBQ 280650Z AUTO 20003KT 6SM BR CLR M09/M12 A3024 790 84 -2000 200/03 RMK AO2 SLP257 T10941117 TSNO
94908KDBQ DBQ20021128005512511/28/02 00:55:31  5-MIN KDBQ 280655Z AUTO 20003KT 6SM BR CLR M09/M12 A3024 790 84 -2000 190/03 RMK AO2 SLP257 T10941117 TSNO
94908KDBQ DBQ20021128010010811/28/02 01:00:31  5-MIN KDBQ 280700Z AUTO 19003KT 6SM BR CLR M09/M12 A3023 790 84 -2000 190/03 RMK AO2 TSNO
94908KDBQ DBQ20021128010510811/28/02 01:05:31  5-MIN KDBQ 280705Z AUTO 00000KT 6SM BR CLR M09/M12 A3023 790 84 -2000 000/00 RMK AO2 TSNO
94908KDBQ DBQ20021128011010811/28/02 01:10:31  5-MIN KDBQ 280710Z AUTO 00000KT 6SM BR CLR M09/M12 A3023 790 84 -2000 000/00 RMK AO2 TSNO
94908KDBQ DBQ20021128011510811/28/02 01:15:31  5-MIN KDBQ 280715Z AUTO 00000KT 6SM BR CLR M09/M12 A3023 790 84 -2000 000/00 RMK AO2 TSNO
94908KDBQ DBQ20021128012010811/28/02 01:20:31  5-MIN KDBQ 280720Z AUTO 00000KT 6SM BR CLR M09/M12 A3023 790 84 -2000 000/00 RMK AO2 TSNO
94908KDBQ DBQ20021128012510811/28/02 01:25:31  5-MIN KDBQ 280725Z AUTO 00000KT 6SM BR CLR M09/M12 A3023 790 84 -2000 000/00 RMK AO2 TSNO
94908KDBQ DBQ20021128013010811/28/02 01:30:31  5-MIN KDBQ 280730Z AUTO 00000KT 5SM BR CLR M09/M12 A3023 790 84 -2000 000/00 RMK AO2 TSNO
94908KDBQ DBQ20021128013510811/28/02 01:35:31  5-MIN KDBQ 280735Z AUTO 00000KT 5SM BR CLR M09/M12 A3023 800 84 -2000 000/00 RMK AO2 TSNO
94908KDBQ DBQ20021128014010811/28/02 01:40:31  5-MIN KDBQ 280740Z AUTO 00000KT 5SM BR CLR M10/M12 A3023 800 84 -2000 000/00 RMK AO2 TSNO
94908KDBQ DBQ20021128014510811/28/02 01:45:31  5-MIN KDBQ 280745Z AUTO 18003KT 5SM BR CLR M10/M12 A3022 800 88 -2000 180/03 RMK AO2 TSNO
94908KDBQ DBQ20021128015012511/28/02 01:50:31  5-MIN KDBQ 280750Z AUTO 18003KT 5SM BR CLR M10/M12 A3022 800 88 -2000 180/03 RMK AO2 SLP252 T11001117 TSNO
94908KDBQ DBQ20021128015512511/28/02 01:55:31  5-MIN KDBQ 280755Z AUTO 19003KT 5SM BR CLR M10/M12 A3022 800 88 -2000 190/03 RMK AO2 SLP252 T11001117 TSNO
94908KDBQ DBQ20021128020010811/28/02 02:00:31  5-MIN KDBQ 280800Z AUTO 18003KT 5SM BR CLR M10/M12 A3022 800 88 -2000 180/03 RMK AO2 TSNO
94908KDBQ DBQ20021128020510811/28/02 02:05:31  5-MIN KDBQ 280805Z AUTO 00000KT 5SM BR CLR M10/M12 A3022 800 84 -2000 000/00 RMK AO2 TSNO
94908KDBQ DBQ20021128021010811/28/02 02:10:31  5-MIN KDBQ 280810Z AUTO 18003KT 5SM BR CLR M10/M12 A3022 800 88 -2000 180/03 RMK AO2 TSNO
94908KDBQ DBQ20021128021510811/28/02 02:15:31  5-MIN KDBQ 280815Z AUTO 18003KT 5SM BR CLR M10/M12 A3022 800 88 -2000 180/03 RMK AO2 TSNO
94908KDBQ DBQ20021128022010811/28/02 02:20:31  5-MIN KDBQ 280820Z AUTO 18003KT 5SM BR CLR M10/M12 A3021 810 88 -2000 180/03 RMK AO2 TSNO
94908KDBQ DBQ20021128022510811/28/02 02:25:31  5-MIN KDBQ 280825Z AUTO 18004KT 5SM BR CLR M10/M12 A3021 810 88 -2000 180/04 RMK AO2 TSNO
94908KDBQ DBQ20021128023010811/28/02 02:30:31  5-MIN KDBQ 280830Z AUTO 19004KT 5SM BR CLR M10/M12 A3021 810 84 -2000 190/04 RMK AO2 TSNO
94908KDBQ DBQ20021128023510811/28/02 02:35:31  5-MIN KDBQ 280835Z AUTO 19004KT 5SM BR CLR M10/M12 A3021 810 88 -2000 190/04 RMK AO2 TSNO
94908KDBQ DBQ20021128024010811/28/02 02:40:31  5-MIN KDBQ 280840Z AUTO 19004KT 5SM BR CLR M10/M12 A3021 810 84 -2000 190/04 RMK AO2 TSNO
94908KDBQ DBQ20021128024511111/28/02 02:45:31  5-MIN KDBQ 280845Z AUTO 19004KT 5SM BR FEW022 M10/M12 A3021 810 84 -2000 190/04 RMK AO2 TSNO
94908KDBQ DBQ20021128025013411/28/02 02:50:31  5-MIN KDBQ 280850Z AUTO 19004KT 5SM BR FEW022 M10/M12 A3020 820 84 -2000 190/04 RMK AO2 SLP247 T11001122 58010 TSNO
94908KDBQ DBQ20021128025513411/28/02 02:55:31  5-MIN KDBQ 280855Z AUTO 19004KT 5SM BR FEW022 M10/M12 A3020 820 84 -2000 190/04 RMK AO2 SLP247 T11001122 58014 TSNO
94908KDBQ DBQ20021128030011111/28/02 03:00:31  5-MIN KDBQ 280900Z AUTO 19003KT 5SM BR FEW022 M11/M12 A3021 820 88 -2100 190/03 RMK AO2 TSNO
94908KDBQ DBQ20021128030511111/28/02 03:05:31  5-MIN KDBQ 280905Z AUTO 19003KT 5SM BR FEW022 M10/M12 A3020 820 88 -2000 190/03 RMK AO2 TSNO
94908KDBQ DBQ20021128031011111/28/02 03:10:31  5-MIN KDBQ 280910Z AUTO 00000KT 5SM BR FEW022 M10/M12 A3021 820 88 -2000 000/00 RMK AO2 TSNO
94908KDBQ DBQ20021128031511111/28/02 03:15:31  5-MIN KDBQ 280915Z AUTO 00000KT 5SM BR FEW022 M10/M12 A3020 820 88 -2000 000/00 RMK AO2 TSNO
94908KDBQ DBQ20021128032011111/28/02 03:20:31  5-MIN KDBQ 280920Z AUTO 00000KT 4SM BR FEW022 M10/M12 A3020 820 88 -2000 000/00 RMK AO2 TSNO
94908KDBQ DBQ20021128032510811/28/02 03:25:31  5-MIN KDBQ 280925Z AUTO 00000KT 4SM BR CLR M10/M12 A3020 820 88 -2000 000/00 RMK AO2 TSNO
94908KDBQ DBQ20021128033010811/28/02 03:30:31  5-MIN KDBQ 280930Z AUTO 00000KT 4SM BR CLR M10/M12 A3020 820 88 -2000 000/00 RMK AO2 TSNO
94908KDBQ DBQ20021128033510811/28/02 03:35:31  5-MIN KDBQ 280935Z AUTO 19003KT 4SM BR CLR M10/M12 A3020 820 88 -2000 190/03 RMK AO2 TSNO
94908KDBQ DBQ20021128034010811/28/02 03:40:31  5-MIN KDBQ 280940Z AUTO 20003KT 4SM BR CLR M11/M12 A3020 820 88 -2100 200/03 RMK AO2 TSNO
94908KDBQ DBQ20021128034511111/28/02 03:45:31  5-MIN KDBQ 280945Z AUTO 00000KT 4SM BR FEW027 M11/M12 A3020 820 88 -2100 000/00 RMK AO2 TSNO
94908KDBQ DBQ20021128035012811/28/02 03:50:31  5-MIN KDBQ 280950Z AUTO 20003KT 5SM BR SCT027 M10/M12 A3020 820 88 -2000 200/03 RMK AO2 SLP245 T11001117 TSNO
94908KDBQ DBQ20021128035512811/28/02 03:55:31  5-MIN KDBQ 280955Z AUTO 20004KT 5SM BR BKN027 M10/M12 A3020 820 88 -2000 190/04 RMK AO2 SLP245 T11001117 TSNO
94908KDBQ DBQ20021128040011111/28/02 04:00:31  5-MIN KDBQ 281000Z AUTO 19004KT 5SM BR BKN027 M10/M12 A3019 830 88 -2000 190/04 RMK AO2 TSNO
94908KDBQ DBQ20021128040511111/28/02 04:05:31  5-MIN KDBQ 281005Z AUTO 19003KT 5SM BR BKN027 M09/M11 A3020 820 88 -1900 190/03 RMK AO2 TSNO
94908KDBQ DBQ20021128041011111/28/02 04:10:31  5-MIN KDBQ 281010Z AUTO 19003KT 5SM BR OVC027 M09/M11 A3020 820 88 -1900 190/03 RMK AO2 TSNO
94908KDBQ DBQ20021128041511111/28/02 04:15:31  5-MIN KDBQ 281015Z AUTO 19003KT 5SM BR OVC027 M08/M10 A3020 820 88 -1800 190/03 RMK AO2 TSNO
94908KDBQ DBQ20021128042011111/28/02 04:20:31  5-MIN KDBQ 281020Z AUTO 19004KT 5SM BR OVC027 M08/M10 A3019 830 88 -1800 190/04 RMK AO2 TSNO
94908KDBQ DBQ20021128042511111/28/02 04:25:31  5-MIN KDBQ 281025Z AUTO 19004KT 5SM BR OVC027 M08/M10 A3019 830 88 -1800 190/04 RMK AO2 TSNO
94908KDBQ DBQ20021128043011111/28/02 04:30:31  5-MIN KDBQ 281030Z AUTO 20004KT 5SM BR OVC027 M08/M10 A3019 830 88 -1800 200/04 RMK AO2 TSNO
94908KDBQ DBQ20021128043511111/28/02 04:35:31  5-MIN KDBQ 281035Z AUTO 20003KT 5SM BR OVC027 M08/M10 A3019 830 84 -1700 200/03 RMK AO2 TSNO
94908KDBQ DBQ20021128044011111/28/02 04:40:31  5-MIN KDBQ 281040Z AUTO 19004KT 5SM BR OVC027 M08/M10 A3019 830 84 -1700 190/04 RMK AO2 TSNO
94908KDBQ DBQ20021128044511111/28/02 04:45:31  5-MIN KDBQ 281045Z AUTO 20004KT 5SM BR OVC027 M08/M10 A3019 830 84 -1700 190/04 RMK AO2 TSNO
94908KDBQ DBQ20021128045012811/28/02 04:50:31  5-MIN KDBQ 281050Z AUTO 19004KT 5SM BR OVC027 M08/M09 A3019 830 88 -1700 190/04 RMK AO2 SLP243 T10781094 TSNO
94908KDBQ DBQ20021128045512811/28/02 04:55:31  5-MIN KDBQ 281055Z AUTO 19003KT 5SM BR OVC027 M08/M09 A3019 830 88 -1700 190/03 RMK AO2 SLP243 T10781094 TSNO
94908KDBQ DBQ20021128050011111/28/02 05:00:31  5-MIN KDBQ 281100Z AUTO 20003KT 5SM BR OVC027 M07/M09 A3019 830 84 -1600 200/03 RMK AO2 TSNO
94908KDBQ DBQ20021128050511111/28/02 05:05:31  5-MIN KDBQ 281105Z AUTO 19005KT 5SM BR OVC027 M07/M09 A3019 830 84 -1600 190/05 RMK AO2 TSNO
94908KDBQ DBQ20021128051011111/28/02 05:10:31  5-MIN KDBQ 281110Z AUTO 20005KT 5SM BR OVC027 M07/M09 A3019 830 84 -1600 200/05 RMK AO2 TSNO
94908KDBQ DBQ20021128051511111/28/02 05:15:31  5-MIN KDBQ 281115Z AUTO 19005KT 5SM BR OVC029 M07/M09 A3019 830 84 -1600 190/05 RMK AO2 TSNO
94908KDBQ DBQ20021128052011111/28/02 05:20:31  5-MIN KDBQ 281120Z AUTO 19005KT 5SM BR OVC029 M07/M09 A3018 840 88 -1600 190/05 RMK AO2 TSNO
94908KDBQ DBQ20021128052511111/28/02 05:25:31  5-MIN KDBQ 281125Z AUTO 18006KT 5SM BR OVC029 M07/M09 A3017 840 88 -1600 180/06 RMK AO2 TSNO
94908KDBQ DBQ20021128053011111/28/02 05:30:31  5-MIN KDBQ 281130Z AUTO 19005KT 5SM BR OVC029 M07/M09 A3017 840 84 -1500 190/05 RMK AO2 TSNO
94908KDBQ DBQ20021128053511111/28/02 05:35:31  5-MIN KDBQ 281135Z AUTO 20005KT 5SM BR OVC029 M07/M08 A3018 840 88 -1500 200/05 RMK AO2 TSNO
94908KDBQ DBQ20021128054010111/28/02 05:40:31  5-MIN KDBQ 281140Z 20004KT 5SM BR OVC029 M07/M08 A3018 840 88 -1500 200/04 RMK AO2
94908KDBQ DBQ20021128054510111/28/02 05:45:31  5-MIN KDBQ 281145Z 20005KT 5SM BR OVC029 M07/M08 A3018 840 88 -1500 200/05 RMK AO2
94908KDBQ DBQ20021128055013611/28/02 05:50:31  5-MIN KDBQ 281150Z 19006KT 5SM BR OVC031 M07/M08 A3018 840 88 -1500 190/06 RMK AO2 SLP238 T10671083 11067 21106 58014
94908KDBQ DBQ20021128055513611/28/02 05:55:31  5-MIN KDBQ 281155Z 19006KT 5SM BR OVC031 M07/M09 A3018 840 84 -1500 190/06 RMK AO2 SLP239 T10671089 11067 21106 58009
94908KDBQ DBQ20021128060010111/28/02 06:00:31  5-MIN KDBQ 281200Z 20004KT 5SM BR OVC031 M07/M08 A3017 840 88 -1500 200/04 RMK AO2
94908KDBQ DBQ20021128060510111/28/02 06:05:31  5-MIN KDBQ 281205Z 20006KT 5SM BR OVC031 M07/M08 A3017 840 88 -1500 200/06 RMK AO2
94908KDBQ DBQ20021128061010111/28/02 06:10:31  5-MIN KDBQ 281210Z 20006KT 5SM BR OVC031 M07/M08 A3017 840 88 -1500 200/06 RMK AO2
94908KDBQ DBQ20021128061510111/28/02 06:15:31  5-MIN KDBQ 281215Z 20004KT 5SM BR OVC031 M07/M08 A3017 840 88 -1500 200/04 RMK AO2
94908KDBQ DBQ20021128062010111/28/02 06:20:31  5-MIN KDBQ 281220Z 20004KT 5SM BR OVC031 M07/M08 A3017 850 88 -1500 200/04 RMK AO2
94908KDBQ DBQ20021128062510111/28/02 06:25:31  5-MIN KDBQ 281225Z 19006KT 5SM BR OVC031 M07/M08 A3017 850 88 -1500 190/06 RMK AO2
94908KDBQ DBQ20021128063010111/28/02 06:30:31  5-MIN KDBQ 281230Z 18005KT 5SM BR OVC031 M07/M08 A3017 850 88 -1500 180/05 RMK AO2
94908KDBQ DBQ20021128063510111/28/02 06:35:31  5-MIN KDBQ 281235Z 18005KT 5SM BR OVC033 M07/M08 A3017 850 88 -1500 180/05 RMK AO2
94908KDBQ DBQ20021128064010111/28/02 06:40:31  5-MIN KDBQ 281240Z 19005KT 5SM BR OVC033 M06/M08 A3016 850 84 -1500 190/05 RMK AO2
94908KDBQ DBQ20021128064510111/28/02 06:45:31  5-MIN KDBQ 281245Z 19007KT 5SM BR OVC033 M06/M08 A3016 860 84 -1500 190/07 RMK AO2
94908KDBQ DBQ20021128065011811/28/02 06:50:31  5-MIN KDBQ 281250Z 19007KT 6SM BR OVC033 M07/M08 A3016 860 88 -1500 190/07 RMK AO2 SLP231 T10671083
94908KDBQ DBQ20021128065511811/28/02 06:55:31  5-MIN KDBQ 281255Z 20006KT 6SM BR OVC033 M07/M08 A3016 860 88 -1500 200/06 RMK AO2 SLP232 T10671083
94908KDBQ DBQ20021128070010111/28/02 07:00:31  5-MIN KDBQ 281300Z 20006KT 5SM BR OVC033 M07/M08 A3016 860 88 -1500 200/06 RMK AO2
94908KDBQ DBQ20021128070510111/28/02 07:05:31  5-MIN KDBQ 281305Z 20006KT 5SM BR OVC033 M07/M08 A3016 860 88 -1500 200/06 RMK AO2
94908KDBQ DBQ20021128071010111/28/02 07:10:31  5-MIN KDBQ 281310Z 20006KT 5SM BR OVC033 M07/M08 A3016 860 88 -1500 200/06 RMK AO2
94908KDBQ DBQ20021128071510111/28/02 07:15:31  5-MIN KDBQ 281315Z 19006KT 5SM BR OVC033 M07/M08 A3016 860 88 -1500 190/06 RMK AO2
94908KDBQ DBQ20021128072010111/28/02 07:20:31  5-MIN KDBQ 281320Z 18007KT 4SM BR OVC033 M07/M08 A3015 860 88 -1500 180/07 RMK AO2
94908KDBQ DBQ20021128072510111/28/02 07:25:31  5-MIN KDBQ 281325Z 18007KT 4SM BR OVC033 M07/M08 A3015 860 88 -1500 180/07 RMK AO2
94908KDBQ DBQ20021128073010111/28/02 07:30:31  5-MIN KDBQ 281330Z 18007KT 4SM BR OVC033 M07/M09 A3015 860 84 -1500 180/07 RMK AO2
94908KDBQ DBQ20021128073510111/28/02 07:35:31  5-MIN KDBQ 281335Z 18006KT 4SM BR OVC033 M07/M09 A3015 860 84 -1500 180/06 RMK AO2
94908KDBQ DBQ20021128074010111/28/02 07:40:31  5-MIN KDBQ 281340Z 19007KT 4SM BR OVC033 M07/M09 A3015 860 84 -1500 190/07 RMK AO2
94908KDBQ DBQ20021128074510111/28/02 07:45:31  5-MIN KDBQ 281345Z 19006KT 4SM BR OVC033 M07/M09 A3015 860 84 -1500 190/06 RMK AO2
94908KDBQ DBQ20021128075011811/28/02 07:50:31  5-MIN KDBQ 281350Z 19007KT 4SM BR OVC033 M07/M08 A3016 860 88 -1500 190/07 RMK AO2 SLP232 T10671083
94908KDBQ DBQ20021128075511811/28/02 07:55:31  5-MIN KDBQ 281355Z 20005KT 4SM BR BKN033 M07/M08 A3016 860 88 -1500 200/05 RMK AO2 SLP232 T10671083
94908KDBQ DBQ20021128080010111/28/02 08:00:31  5-MIN KDBQ 281400Z 20004KT 4SM BR BKN033 M07/M09 A3016 860 84 -1500 190/04 RMK AO2
94908KDBQ DBQ20021128080510111/28/02 08:05:31  5-MIN KDBQ 281405Z 20004KT 4SM BR SCT033 M07/M09 A3016 860 88 -1600 200/04 RMK AO2
94908KDBQ DBQ20021128081010111/28/02 08:10:31  5-MIN KDBQ 281410Z 20005KT 4SM BR SCT035 M07/M08 A3015 860 88 -1500 200/05 RMK AO2
94908KDBQ DBQ20021128081510111/28/02 08:15:31  5-MIN KDBQ 281415Z 19006KT 4SM BR FEW035 M07/M08 A3015 870 88 -1500 190/06 RMK AO2
94908KDBQ DBQ20021128082009811/28/02 08:20:31  5-MIN KDBQ 281420Z 19007KT 4SM BR CLR M07/M08 A3015 870 88 -1500 190/07 RMK AO2
94908KDBQ DBQ20021128082509811/28/02 08:25:31  5-MIN KDBQ 281425Z 19007KT 4SM BR CLR M06/M08 A3015 870 88 -1400 190/07 RMK AO2
94908KDBQ DBQ20021128083009811/28/02 08:30:31  5-MIN KDBQ 281430Z 19008KT 4SM BR CLR M06/M08 A3015 870 88 -1400 190/08 RMK AO2
94908KDBQ DBQ20021128083509811/28/02 08:35:31  5-MIN KDBQ 281435Z 19008KT 4SM BR CLR M06/M08 A3015 870 84 -1400 190/08 RMK AO2
94908KDBQ DBQ20021128084009811/28/02 08:40:31  5-MIN KDBQ 281440Z 19008KT 4SM BR CLR M06/M08 A3014 870 84 -1400 190/08 RMK AO2
94908KDBQ DBQ20021128084509811/28/02 08:45:31  5-MIN KDBQ 281445Z 19009KT 4SM BR CLR M06/M08 A3014 870 84 -1400 190/09 RMK AO2
94908KDBQ DBQ20021128085012111/28/02 08:50:31  5-MIN KDBQ 281450Z 19009KT 4SM BR CLR M06/M07 A3014 870 88 -1400 190/09 RMK AO2 SLP227 T10561072 58009
94908KDBQ DBQ20021128085512111/28/02 08:55:31  5-MIN KDBQ 281455Z 20008KT 4SM BR CLR M05/M07 A3014 870 84 -1300 200/08 RMK AO2 SLP226 T10501072 56011
94908KDBQ DBQ20021128090009811/28/02 09:00:31  5-MIN KDBQ 281500Z 21008KT 5SM BR CLR M05/M07 A3014 870 84 -1300 200/08 RMK AO2
94908KDBQ DBQ20021128090509811/28/02 09:05:31  5-MIN KDBQ 281505Z 20009KT 5SM BR CLR M05/M07 A3014 870 88 -1300 200/09 RMK AO2
94908KDBQ DBQ20021128091009811/28/02 09:10:31  5-MIN KDBQ 281510Z 20008KT 5SM BR CLR M04/M07 A3014 880 84 -1200 200/08 RMK AO2
94908KDBQ DBQ20021128091509811/28/02 09:15:31  5-MIN KDBQ 281515Z 21009KT 5SM BR CLR M04/M07 A3014 880 84 -1200 210/09 RMK AO2
94908KDBQ DBQ20021128092009811/28/02 09:20:31  5-MIN KDBQ 281520Z 20008KT 5SM BR CLR M04/M07 A3014 880 84 -1200 200/08 RMK AO2
94908KDBQ DBQ20021128092509811/28/02 09:25:31  5-MIN KDBQ 281525Z 20009KT 5SM BR CLR M04/M07 A3013 880 84 -1200 200/09 RMK AO2
94908KDBQ DBQ20021128093009811/28/02 09:30:31  5-MIN KDBQ 281530Z 21010KT 5SM BR CLR M04/M06 A3013 880 85 -1100 210/10 RMK AO2
94908KDBQ DBQ20021128093509811/28/02 09:35:31  5-MIN KDBQ 281535Z 21010KT 5SM HZ CLR M03/M06 A3013 890 81 -1100 210/10 RMK AO2
94908KDBQ DBQ20021128094009811/28/02 09:40:31  5-MIN KDBQ 281540Z 21008KT 5SM HZ CLR M03/M06 A3013 890 81 -1100 210/08 RMK AO2
94908KDBQ DBQ20021128094509811/28/02 09:45:31  5-MIN KDBQ 281545Z 22009KT 5SM HZ CLR M03/M06 A3014 880 81 -1100 220/09 RMK AO2
94908KDBQ DBQ20021128095011511/28/02 09:50:31  5-MIN KDBQ 281550Z 23011KT 5SM HZ CLR M03/M06 A3013 880 81 -1100 230/11 RMK AO2 SLP222 T10331061
94908KDBQ DBQ20021128095511511/28/02 09:55:31  5-MIN KDBQ 281555Z 22011KT 5SM HZ CLR M03/M06 A3013 880 78 -1000 220/11 RMK AO2 SLP222 T10281061
94908KDBQ DBQ20021128100009811/28/02 10:00:31  5-MIN KDBQ 281600Z 22011KT 5SM HZ CLR M03/M06 A3013 890 78 -1000 220/11 RMK AO2
94908KDBQ DBQ20021128100509811/28/02 10:05:31  5-MIN KDBQ 281605Z 22012KT 5SM HZ CLR M03/M06 A3013 890 78 -1000 220/12 RMK AO2
94908KDBQ DBQ20021128101009811/28/02 10:10:31  5-MIN KDBQ 281610Z 22012KT 5SM HZ CLR M03/M06 A3012 890 78 -1000 220/12 RMK AO2
94908KDBQ DBQ20021128101509811/28/02 10:15:31  5-MIN KDBQ 281615Z 22010KT 5SM HZ CLR M03/M06 A3012 900 78 -1000 220/10 RMK AO2
94908KDBQ DBQ20021128102009811/28/02 10:20:31  5-MIN KDBQ 281620Z 22010KT 6SM HZ CLR M03/M06 A3012 900 78 -1000 210/10 RMK AO2
94908KDBQ DBQ20021128102509811/28/02 10:25:31  5-MIN KDBQ 281625Z 23009KT 6SM HZ CLR M03/M06 A3011 900 78 -1000 230/09 RMK AO2
94908KDBQ DBQ20021128103009711/28/02 10:30:31  5-MIN KDBQ 281630Z 22010KT 6SM HZ CLR M02/M06 A3011 900 75 -900 220/10 RMK AO2
94908KDBQ DBQ20021128103509711/28/02 10:35:31  5-MIN KDBQ 281635Z 22011KT 6SM HZ CLR M02/M06 A3011 900 75 -900 220/11 RMK AO2
94908KDBQ DBQ20021128104009711/28/02 10:40:31  5-MIN KDBQ 281640Z 22011KT 6SM HZ CLR M02/M06 A3011 910 75 -900 220/11 RMK AO2
94908KDBQ DBQ20021128104509711/28/02 10:45:31  5-MIN KDBQ 281645Z 21010KT 6SM HZ CLR M02/M06 A3010 910 75 -900 210/10 RMK AO2
94908KDBQ DBQ20021128105011411/28/02 10:50:31  5-MIN KDBQ 281650Z 22009KT 6SM HZ CLR M02/M06 A3010 910 75 -900 220/09 RMK AO2 SLP211 T10221061
94908KDBQ DBQ20021128105511111/28/02 10:55:31  5-MIN KDBQ 281655Z 20011KT 8SM CLR M02/M06 A3010 920 72 -800 200/11 RMK AO2 SLP209 T10171061
94908KDBQ DBQ20021128110009711/28/02 11:00:31  5-MIN KDBQ 281700Z 21011KT 6SM HZ CLR M02/M06 A3009 920 72 -800 210/11 RMK AO2
94908KDBQ DBQ20021128110509711/28/02 11:05:31  5-MIN KDBQ 281705Z 22010KT 6SM HZ CLR M01/M06 A3009 920 69 -700 220/10 RMK AO2
94908KDBQ DBQ20021128111009711/28/02 11:10:31  5-MIN KDBQ 281710Z 21010KT 6SM HZ CLR M02/M06 A3009 920 72 -800 210/10 RMK AO2
94908KDBQ DBQ20021128111509711/28/02 11:15:31  5-MIN KDBQ 281715Z 21010KT 6SM HZ CLR M01/M06 A3008 930 69 -700 210/10 RMK AO2
94908KDBQ DBQ20021128112009711/28/02 11:20:31  5-MIN KDBQ 281720Z 22009KT 6SM HZ CLR M01/M06 A3008 930 69 -700 220/09 RMK AO2
94908KDBQ DBQ20021128112509711/28/02 11:25:31  5-MIN KDBQ 281725Z 22010KT 6SM HZ CLR M01/M06 A3008 930 66 -700 220/10 RMK AO2
94908KDBQ DBQ20021128113009411/28/02 11:30:31  5-MIN KDBQ 281730Z 23011KT 8SM CLR M01/M06 A3008 930 66 -700 230/11 RMK AO2
94908KDBQ DBQ20021128113509411/28/02 11:35:31  5-MIN KDBQ 281735Z 22010KT 8SM CLR M01/M06 A3007 940 66 -600 220/10 RMK AO2
94908KDBQ DBQ20021128114009311/28/02 11:40:31  5-MIN KDBQ 281740Z 21012KT 8SM CLR 00/M06 A3007 940 63 -600 210/12 RMK AO2
94908KDBQ DBQ20021128114509411/28/02 11:45:31  5-MIN KDBQ 281745Z 23010KT 8SM CLR M01/M06 A3007 940 66 -600 220/10 RMK AO2
94908KDBQ DBQ20021128115012811/28/02 11:50:31  5-MIN KDBQ 281750Z 21010KT 8SM CLR 00/M06 A3006 950 63 -600 210/10 RMK AO2 SLP196 T00001061 10000 21072 56011
94908KDBQ DBQ20021128115512811/28/02 11:55:31  5-MIN KDBQ 281755Z 22011KT 8SM CLR 00/M06 A3007 940 63 -600 220/11 RMK AO2 SLP197 T00001061 10000 21072 58026
94908KDBQ DBQ20021128120009911/28/02 12:00:31  5-MIN KDBQ 281800Z 23013G18KT 7SM CLR 01/M06 A3006 950 61 -500 230/13G18 RMK AO2
94908KDBQ DBQ20021128120509911/28/02 12:05:31  5-MIN KDBQ 281805Z 21010G18KT 7SM CLR 01/M06 A3006 950 61 -500 210/10G18 RMK AO2
94908KDBQ DBQ20021128121009311/28/02 12:10:31  5-MIN KDBQ 281810Z 22012KT 7SM CLR 01/M06 A3006 950 61 -500 220/12 RMK AO2
94908KDBQ DBQ20021128121509311/28/02 12:15:31  5-MIN KDBQ 281815Z 22012KT 7SM CLR 01/M06 A3006 950 63 -500 220/12 RMK AO2
94908KDBQ DBQ20021128122009311/28/02 12:20:31  5-MIN KDBQ 281820Z 23012KT 7SM CLR 01/M06 A3005 960 58 -400 230/12 RMK AO2
94908KDBQ DBQ20021128122509311/28/02 12:25:31  5-MIN KDBQ 281825Z 21011KT 7SM CLR 01/M06 A3005 960 61 -400 210/11 RMK AO2
94908KDBQ DBQ20021128123009311/28/02 12:30:31  5-MIN KDBQ 281830Z 22011KT 7SM CLR 01/M06 A3004 960 61 -500 220/11 RMK AO2
94908KDBQ DBQ20021128123509311/28/02 12:35:31  5-MIN KDBQ 281835Z 22012KT 7SM CLR 01/M06 A3004 970 61 -400 220/12 RMK AO2
94908KDBQ DBQ20021128124009311/28/02 12:40:31  5-MIN KDBQ 281840Z 22012KT 7SM CLR 02/M06 A3004 970 59 -300 220/12 RMK AO2
94908KDBQ DBQ20021128124509311/28/02 12:45:31  5-MIN KDBQ 281845Z 23012KT 7SM CLR 01/M06 A3004 960 58 -400 230/12 RMK AO2
94908KDBQ DBQ20021128125011011/28/02 12:50:31  5-MIN KDBQ 281850Z 24012KT 7SM CLR 01/M06 A3004 970 58 -400 240/12 RMK AO2 SLP187 T00111061
94908KDBQ DBQ20021128125511611/28/02 12:55:31  5-MIN KDBQ 281855Z 23011G18KT 7SM CLR 02/M06 A3003 970 56 -300 230/11G18 RMK AO2 SLP186 T00171061
94908KDBQ DBQ20021128130009911/28/02 13:00:31  5-MIN KDBQ 281900Z 23011G18KT 7SM CLR 02/M06 A3003 980 59 -300 230/11G18 RMK AO2
94908KDBQ DBQ20021128130509311/28/02 13:05:31  5-MIN KDBQ 281905Z 23010KT 7SM CLR 02/M06 A3003 980 56 -300 230/10 RMK AO2
94908KDBQ DBQ20021128131009911/28/02 13:10:31  5-MIN KDBQ 281910Z 23013G18KT 8SM CLR 02/M06 A3003 980 54 -300 220/13G18 RMK AO2
94908KDBQ DBQ20021128131509311/28/02 13:15:31  5-MIN KDBQ 281915Z 24013KT 8SM CLR 02/M06 A3003 980 54 -200 240/13 RMK AO2
94908KDBQ DBQ20021128132009311/28/02 13:20:31  5-MIN KDBQ 281920Z 23011KT 8SM CLR 02/M06 A3004 970 54 -300 230/11 RMK AO2
94908KDBQ DBQ20021128132509311/28/02 13:25:31  5-MIN KDBQ 281925Z 23014KT 8SM CLR 02/M06 A3004 970 56 -300 230/14 RMK AO2
94908KDBQ DBQ20021128133009311/28/02 13:30:31  5-MIN KDBQ 281930Z 25012KT 8SM CLR 02/M07 A3003 980 54 -300 250/12 RMK AO2
94908KDBQ DBQ20021128133509311/28/02 13:35:31  5-MIN KDBQ 281935Z 23014KT 7SM CLR 02/M06 A3003 980 56 -300 230/14 RMK AO2
94908KDBQ DBQ20021128134009311/28/02 13:40:31  5-MIN KDBQ 281940Z 23012KT 7SM CLR 02/M06 A3002 980 56 -300 230/12 RMK AO2
94908KDBQ DBQ20021128134509311/28/02 13:45:31  5-MIN KDBQ 281945Z 23012KT 7SM CLR 02/M06 A3002 990 54 -200 220/12 RMK AO2
94908KDBQ DBQ20021128135011011/28/02 13:50:31  5-MIN KDBQ 281950Z 24013KT 8SM CLR 02/M06 A3002 990 54 -200 240/13 RMK AO2 SLP181 T00221061
94908KDBQ DBQ20021128135511011/28/02 13:55:31  5-MIN KDBQ 281955Z 23014KT 8SM CLR 02/M06 A3002 990 54 -200 230/14 RMK AO2 SLP180 T00221061
94908KDBQ DBQ20021128140009311/28/02 14:00:31  5-MIN KDBQ 282000Z 24013KT 8SM CLR 02/M07 A3002 990 52 -200 240/13 RMK AO2
94908KDBQ DBQ20021128140509311/28/02 14:05:31  5-MIN KDBQ 282005Z 24011KT 8SM CLR 02/M07 A3002 990 54 -300 240/11 RMK AO2
94908KDBQ DBQ20021128141009311/28/02 14:10:31  5-MIN KDBQ 282010Z 24013KT 8SM CLR 02/M07 A3002 990 54 -300 240/13 RMK AO2
94908KDBQ DBQ20021128141509411/28/02 14:15:31  5-MIN KDBQ 282015Z 24013KT 8SM CLR 02/M07 A3001 1000 54 -300 240/13 RMK AO2
94908KDBQ DBQ20021128142009411/28/02 14:20:31  5-MIN KDBQ 282020Z 23011KT 8SM CLR 02/M06 A3000 1000 54 -200 230/11 RMK AO2
94908KDBQ DBQ20021128142509411/28/02 14:25:31  5-MIN KDBQ 282025Z 23011KT 8SM CLR 02/M06 A3000 1000 54 -200 230/11 RMK AO2
94908KDBQ DBQ20021128143009411/28/02 14:30:31  5-MIN KDBQ 282030Z 22012KT 8SM CLR 02/M06 A3000 1010 54 -200 220/12 RMK AO2
94908KDBQ DBQ20021128143509411/28/02 14:35:31  5-MIN KDBQ 282035Z 23014KT 8SM CLR 02/M06 A3000 1010 54 -200 230/14 RMK AO2
94908KDBQ DBQ20021128144009411/28/02 14:40:31  5-MIN KDBQ 282040Z 23011KT 8SM CLR 02/M07 A3000 1010 52 -200 230/11 RMK AO2
94908KDBQ DBQ20021128144509411/28/02 14:45:31  5-MIN KDBQ 282045Z 24013KT 8SM CLR 02/M06 A2999 1010 56 -300 240/13 RMK AO2
94908KDBQ DBQ20021128145011711/28/02 14:50:31  5-MIN KDBQ 282050Z 23012KT 8SM CLR 02/M07 A2998 1020 54 -300 230/12 RMK AO2 SLP169 T00171067 58026
94908KDBQ DBQ20021128145511711/28/02 14:55:31  5-MIN KDBQ 282055Z 24014KT 8SM CLR 02/M07 A2999 1010 54 -300 240/14 RMK AO2 SLP172 T00171067 56024
94908KDBQ DBQ20021128150009411/28/02 15:00:31  5-MIN KDBQ 282100Z 23012KT 8SM CLR 02/M06 A2999 1010 56 -300 230/12 RMK AO2
94908KDBQ DBQ20021128150509411/28/02 15:05:31  5-MIN KDBQ 282105Z 23012KT 8SM CLR 02/M06 A2999 1020 56 -300 230/12 RMK AO2
94908KDBQ DBQ20021128151009411/28/02 15:10:31  5-MIN KDBQ 282110Z 23010KT 8SM CLR 02/M06 A2999 1010 56 -300 230/10 RMK AO2
94908KDBQ DBQ20021128151509411/28/02 15:15:31  5-MIN KDBQ 282115Z 23012KT 8SM CLR 02/M06 A2998 1020 56 -300 220/12 RMK AO2
94908KDBQ DBQ20021128152009411/28/02 15:20:31  5-MIN KDBQ 282120Z 23012KT 8SM CLR 02/M06 A2998 1020 56 -300 220/12 RMK AO2
94908KDBQ DBQ20021128152509411/28/02 15:25:31  5-MIN KDBQ 282125Z 23011KT 8SM CLR 02/M06 A2998 1020 56 -300 230/11 RMK AO2
94908KDBQ DBQ20021128153009411/28/02 15:30:31  5-MIN KDBQ 282130Z 23012KT 8SM CLR 02/M06 A2998 1020 56 -300 230/12 RMK AO2
94908KDBQ DBQ20021128153509411/28/02 15:35:31  5-MIN KDBQ 282135Z 22011KT 8SM CLR 02/M06 A2998 1030 56 -300 220/11 RMK AO2
94908KDBQ DBQ20021128154009411/28/02 15:40:31  5-MIN KDBQ 282140Z 22012KT 8SM CLR 02/M06 A2998 1030 56 -300 220/12 RMK AO2
94908KDBQ DBQ20021128154509411/28/02 15:45:31  5-MIN KDBQ 282145Z 22010KT 7SM CLR 01/M06 A2997 1030 58 -300 220/10 RMK AO2
94908KDBQ DBQ20021128155011111/28/02 15:50:31  5-MIN KDBQ 282150Z 22012KT 8SM CLR 01/M06 A2997 1030 58 -300 210/12 RMK AO2 SLP163 T00111061
94908KDBQ DBQ20021128155511111/28/02 15:55:31  5-MIN KDBQ 282155Z 22010KT 8SM CLR 01/M06 A2997 1030 58 -300 220/10 RMK AO2 SLP165 T00111061
94908KDBQ DBQ20021128160009411/28/02 16:00:31  5-MIN KDBQ 282200Z 22010KT 7SM CLR 01/M06 A2997 1030 58 -300 220/10 RMK AO2
94908KDBQ DBQ20021128160509411/28/02 16:05:31  5-MIN KDBQ 282205Z 22010KT 7SM CLR 01/M06 A2997 1030 58 -300 220/10 RMK AO2
94908KDBQ DBQ20021128161009411/28/02 16:10:31  5-MIN KDBQ 282210Z 22009KT 7SM CLR 01/M06 A2997 1030 61 -400 220/09 RMK AO2
94908KDBQ DBQ20021128161509411/28/02 16:15:31  5-MIN KDBQ 282215Z 22009KT 7SM CLR 01/M06 A2997 1030 61 -400 220/09 RMK AO2
94908KDBQ DBQ20021128162009411/28/02 16:20:31  5-MIN KDBQ 282220Z 22009KT 7SM CLR 00/M06 A2998 1030 63 -500 220/09 RMK AO2
94908KDBQ DBQ20021128162509411/28/02 16:25:31  5-MIN KDBQ 282225Z 22008KT 7SM CLR 00/M06 A2997 1030 63 -500 220/08 RMK AO2
94908KDBQ DBQ20021128163009511/28/02 16:30:31  5-MIN KDBQ 282230Z 21009KT 7SM CLR M01/M06 A2997 1040 66 -500 210/09 RMK AO2
94908KDBQ DBQ20021128163509511/28/02 16:35:31  5-MIN KDBQ 282235Z 20009KT 7SM CLR M01/M06 A2996 1040 66 -500 200/09 RMK AO2
94908KDBQ DBQ20021128164009511/28/02 16:40:31  5-MIN KDBQ 282240Z 20009KT 7SM CLR M01/M07 A2996 1040 66 -600 200/09 RMK AO2
94908KDBQ DBQ20021128164509511/28/02 16:45:31  5-MIN KDBQ 282245Z 21009KT 7SM CLR M02/M07 A2995 1050 69 -600 200/09 RMK AO2
94908KDBQ DBQ20021128165011211/28/02 16:50:31  5-MIN KDBQ 282250Z 21009KT 7SM CLR M02/M07 A2996 1050 69 -600 210/09 RMK AO2 SLP159 T10171067
94908KDBQ DBQ20021128165511211/28/02 16:55:31  5-MIN KDBQ 282255Z 21009KT 8SM CLR M02/M07 A2995 1050 69 -600 210/09 RMK AO2 SLP159 T10171067
94908KDBQ DBQ20021128170009511/28/02 17:00:31  5-MIN KDBQ 282300Z 21009KT 8SM CLR M01/M07 A2995 1050 66 -600 200/09 RMK AO2
94908KDBQ DBQ20021128170509511/28/02 17:05:31  5-MIN KDBQ 282305Z 21008KT 9SM CLR M02/M07 A2995 1050 69 -600 210/08 RMK AO2
94908KDBQ DBQ20021128171009511/28/02 17:10:31  5-MIN KDBQ 282310Z 21007KT 9SM CLR M02/M07 A2996 1050 69 -700 210/07 RMK AO2
94908KDBQ DBQ20021128171509511/28/02 17:15:31  5-MIN KDBQ 282315Z 21007KT 8SM CLR M02/M07 A2995 1050 72 -700 210/07 RMK AO2
94908KDBQ DBQ20021128172009511/28/02 17:20:31  5-MIN KDBQ 282320Z 22007KT 8SM CLR M02/M07 A2995 1050 72 -700 220/07 RMK AO2
94908KDBQ DBQ20021128172509511/28/02 17:25:31  5-MIN KDBQ 282325Z 22009KT 8SM CLR M02/M07 A2995 1050 72 -700 220/09 RMK AO2
94908KDBQ DBQ20021128173009511/28/02 17:30:31  5-MIN KDBQ 282330Z 21009KT 9SM CLR M02/M06 A2995 1050 72 -600 210/09 RMK AO2
94908KDBQ DBQ20021128173509511/28/02 17:35:31  5-MIN KDBQ 282335Z 21009KT 9SM CLR M02/M06 A2994 1060 72 -600 210/09 RMK AO2
94908KDBQ DBQ20021128174009511/28/02 17:40:31  5-MIN KDBQ 282340Z 21009KT 9SM CLR M01/M06 A2994 1060 69 -600 210/09 RMK AO2
94908KDBQ DBQ20021128174509511/28/02 17:45:31  5-MIN KDBQ 282345Z 21009KT 9SM CLR M01/M06 A2993 1070 69 -600 210/09 RMK AO2
94908KDBQ DBQ20021128175013011/28/02 17:50:31  5-MIN KDBQ 282350Z 21009KT 9SM CLR M01/M06 A2993 1070 69 -500 210/09 RMK AO2 SLP150 T10111061 10028 21022 56024
94908KDBQ DBQ20021128175513011/28/02 17:55:31  5-MIN KDBQ 282355Z 20010KT 9SM CLR M01/M06 A2992 1080 69 -500 200/10 RMK AO2 SLP148 T10111061 10028 21022 58023
94908KDBQ DBQ20021128180010211/28/02 18:00:31  5-MIN KDBQ 290000Z 20009KT 9SM CLR M01/M06 A2992 1080 69 -500 200/09 RMK AO2 PRESFR
94908KDBQ DBQ20021128180509511/28/02 18:05:31  5-MIN KDBQ 290005Z 21008KT 9SM CLR M02/M06 A2991 1090 72 -600 210/08 RMK AO2
94908KDBQ DBQ20021128181009511/28/02 18:10:31  5-MIN KDBQ 290010Z 21010KT 9SM CLR M01/M06 A2991 1090 69 -500 210/10 RMK AO2
94908KDBQ DBQ20021128181509511/28/02 18:15:31  5-MIN KDBQ 290015Z 21010KT 9SM CLR M01/M06 A2991 1090 66 -500 210/10 RMK AO2
94908KDBQ DBQ20021128182009511/28/02 18:20:31  5-MIN KDBQ 290020Z 21008KT 9SM CLR M01/M06 A2991 1090 66 -500 210/08 RMK AO2
94908KDBQ DBQ20021128182509511/28/02 18:25:31  5-MIN KDBQ 290025Z 21008KT 9SM CLR M01/M06 A2991 1090 72 -500 210/08 RMK AO2
94908KDBQ DBQ20021128183009511/28/02 18:30:31  5-MIN KDBQ 290030Z 21010KT 9SM CLR M01/M06 A2991 1090 69 -500 210/10 RMK AO2
94908KDBQ DBQ20021128183509511/28/02 18:35:31  5-MIN KDBQ 290035Z 21012KT 9SM CLR M01/M06 A2990 1100 69 -400 210/12 RMK AO2
94908KDBQ DBQ20021128184009511/28/02 18:40:31  5-MIN KDBQ 290040Z 21012KT 10SM CLR 00/M06 A2989 1100 66 -400 210/12 RMK AO2
94908KDBQ DBQ20021128184509511/28/02 18:45:31  5-MIN KDBQ 290045Z 21012KT 10SM CLR 00/M06 A2989 1110 66 -400 210/12 RMK AO2
94908KDBQ DBQ20021128185011211/28/02 18:50:31  5-MIN KDBQ 290050Z 21011KT 10SM CLR 00/M06 A2989 1110 66 -400 210/11 RMK AO2 SLP136 T00001056
94908KDBQ DBQ20021128185511211/28/02 18:55:31  5-MIN KDBQ 290055Z 21011KT 10SM CLR 00/M06 A2989 1110 66 -400 210/11 RMK AO2 SLP136 T00001056
94908KDBQ DBQ20021128190009611/28/02 19:00:31  5-MIN KDBQ 290100Z 20010KT 10SM CLR M01/M06 A2989 1110 69 -400 200/10 RMK AO2
94908KDBQ DBQ20021128190509511/28/02 19:05:31  5-MIN KDBQ 290105Z 20010KT 9SM CLR M01/M06 A2989 1110 72 -500 200/10 RMK AO2
94908KDBQ DBQ20021128191009511/28/02 19:10:31  5-MIN KDBQ 290110Z 21010KT 9SM CLR M01/M06 A2988 1110 72 -500 210/10 RMK AO2
94908KDBQ DBQ20021128191509511/28/02 19:15:31  5-MIN KDBQ 290115Z 21011KT 9SM CLR M01/M06 A2988 1110 69 -400 210/11 RMK AO2
94908KDBQ DBQ20021128192009611/28/02 19:20:31  5-MIN KDBQ 290120Z 21011KT 10SM CLR M01/M06 A2988 1120 69 -400 210/11 RMK AO2
94908KDBQ DBQ20021128192509511/28/02 19:25:31  5-MIN KDBQ 290125Z 21011KT 10SM CLR 00/M06 A2987 1120 66 -300 210/11 RMK AO2
94908KDBQ DBQ20021128193009511/28/02 19:30:31  5-MIN KDBQ 290130Z 21012KT 10SM CLR 00/M06 A2987 1130 66 -300 210/12 RMK AO2
94908KDBQ DBQ20021128193510211/28/02 19:35:31  5-MIN KDBQ 290135Z 21012KT 10SM CLR 00/M06 A2986 1130 66 -300 210/12 RMK AO2 PRESFR
94908KDBQ DBQ20021128194009511/28/02 19:40:31  5-MIN KDBQ 290140Z 21012KT 10SM CLR 00/M06 A2986 1140 66 -300 210/12 RMK AO2
94908KDBQ DBQ20021128194509511/28/02 19:45:31  5-MIN KDBQ 290145Z 21012KT 10SM CLR 00/M06 A2985 1140 66 -300 210/12 RMK AO2
94908KDBQ DBQ20021128195011211/28/02 19:50:31  5-MIN KDBQ 290150Z 21012KT 10SM CLR 00/M06 A2985 1150 66 -300 210/12 RMK AO2 SLP121 T00001056
94908KDBQ DBQ20021128195511211/28/02 19:55:31  5-MIN KDBQ 290155Z 21012KT 10SM CLR 00/M06 A2984 1150 66 -300 210/12 RMK AO2 SLP120 T00001056
94908KDBQ DBQ20021128200010511/28/02 20:00:31  5-MIN KDBQ 290200Z AUTO 21013KT 10SM CLR 00/M06 A2984 1150 66 -300 210/13 RMK AO2 TSNO
94908KDBQ DBQ20021128200510511/28/02 20:05:31  5-MIN KDBQ 290205Z AUTO 21013KT 10SM CLR 00/M06 A2984 1160 66 -300 210/13 RMK AO2 TSNO
94908KDBQ DBQ20021128201010511/28/02 20:10:31  5-MIN KDBQ 290210Z AUTO 22014KT 10SM CLR 00/M06 A2984 1160 66 -300 220/14 RMK AO2 TSNO
94908KDBQ DBQ20021128201510511/28/02 20:15:31  5-MIN KDBQ 290215Z AUTO 22014KT 10SM CLR 01/M06 A2984 1160 63 -200 220/14 RMK AO2 TSNO
94908KDBQ DBQ20021128202010511/28/02 20:20:31  5-MIN KDBQ 290220Z AUTO 22014KT 10SM CLR 01/M05 A2983 1160 66 -200 220/14 RMK AO2 TSNO
94908KDBQ DBQ20021128202511211/28/02 20:25:31  5-MIN KDBQ 290225Z AUTO 22015KT 10SM CLR 01/M05 A2982 1180 66 -200 210/15 RMK AO2 PRESFR TSNO
94908KDBQ DBQ20021128203011211/28/02 20:30:31  5-MIN KDBQ 290230Z AUTO 22016KT 10SM CLR 01/M05 A2981 1180 66 -200 220/16 RMK AO2 PRESFR TSNO
94908KDBQ DBQ20021128203511211/28/02 20:35:31  5-MIN KDBQ 290235Z AUTO 22017KT 10SM CLR 01/M06 A2980 1190 61 -100 210/17 RMK AO2 PRESFR TSNO
94908KDBQ DBQ20021128204010511/28/02 20:40:31  5-MIN KDBQ 290240Z AUTO 22018KT 10SM CLR 01/M06 A2980 1190 61 -100 220/18 RMK AO2 TSNO
94908KDBQ DBQ20021128204510511/28/02 20:45:31  5-MIN KDBQ 290245Z AUTO 22018KT 10SM CLR 01/M06 A2979 1200 61 -100 220/18 RMK AO2 TSNO
94908KDBQ DBQ20021128205012811/28/02 20:50:31  5-MIN KDBQ 290250Z AUTO 22017KT 10SM CLR 01/M06 A2979 1200 61 -100 220/17 RMK AO2 SLP100 T00111056 58023 TSNO
94908KDBQ DBQ20021128205512811/28/02 20:55:31  5-MIN KDBQ 290255Z AUTO 22020KT 10SM CLR 01/M06 A2978 1210 61 -100 220/20 RMK AO2 SLP097 T00111056 58047 TSNO
94908KDBQ DBQ20021128210010511/28/02 21:00:31  5-MIN KDBQ 290300Z AUTO 22019KT 10SM CLR 01/M06 A2978 1210 61 -100 220/19 RMK AO2 TSNO
94908KDBQ DBQ20021128210510511/28/02 21:05:31  5-MIN KDBQ 290305Z AUTO 22019KT 10SM CLR 01/M06 A2977 1220 61 -100 220/19 RMK AO2 TSNO
94908KDBQ DBQ20021128211010511/28/02 21:10:31  5-MIN KDBQ 290310Z AUTO 22020KT 10SM CLR 01/M06 A2977 1210 61 -100 220/20 RMK AO2 TSNO
94908KDBQ DBQ20021128211510511/28/02 21:15:31  5-MIN KDBQ 290315Z AUTO 22018KT 10SM CLR 01/M06 A2977 1220 61 -100 220/18 RMK AO2 TSNO
94908KDBQ DBQ20021128212010511/28/02 21:20:31  5-MIN KDBQ 290320Z AUTO 22018KT 10SM CLR 01/M06 A2977 1220 61 -100 220/18 RMK AO2 TSNO
94908KDBQ DBQ20021128212510511/28/02 21:25:31  5-MIN KDBQ 290325Z AUTO 22016KT 10SM CLR 01/M06 A2977 1220 61 -100 220/16 RMK AO2 TSNO
94908KDBQ DBQ20021128213010511/28/02 21:30:31  5-MIN KDBQ 290330Z AUTO 22016KT 10SM CLR 01/M05 A2977 1220 64 -100 220/16 RMK AO2 TSNO
94908KDBQ DBQ20021128213510511/28/02 21:35:31  5-MIN KDBQ 290335Z AUTO 22016KT 10SM CLR 01/M06 A2976 1220 61 -100 210/16 RMK AO2 TSNO
94908KDBQ DBQ20021128214010511/28/02 21:40:31  5-MIN KDBQ 290340Z AUTO 22015KT 10SM CLR 01/M05 A2976 1220 66 -100 210/15 RMK AO2 TSNO
94908KDBQ DBQ20021128214510511/28/02 21:45:31  5-MIN KDBQ 290345Z AUTO 22015KT 10SM CLR 01/M05 A2976 1220 66 -100 210/15 RMK AO2 TSNO
94908KDBQ DBQ20021128215012211/28/02 21:50:31  5-MIN KDBQ 290350Z AUTO 21015KT 10SM CLR 01/M05 A2976 1220 64 -100 210/15 RMK AO2 SLP091 T00111050 TSNO
94908KDBQ DBQ20021128215512211/28/02 21:55:31  5-MIN KDBQ 290355Z AUTO 21012KT 10SM CLR 01/M05 A2976 1220 66 -100 210/12 RMK AO2 SLP091 T00061050 TSNO
94908KDBQ DBQ20021128220010511/28/02 22:00:31  5-MIN KDBQ 290400Z AUTO 21014KT 10SM CLR 01/M05 A2976 1230 66 -100 210/14 RMK AO2 TSNO
94908KDBQ DBQ20021128220510511/28/02 22:05:31  5-MIN KDBQ 290405Z AUTO 21012KT 10SM CLR 01/M05 A2976 1230 66 -100 210/12 RMK AO2 TSNO
94908KDBQ DBQ20021128221010511/28/02 22:10:31  5-MIN KDBQ 290410Z AUTO 21013KT 10SM CLR 01/M05 A2976 1230 66 -100 210/13 RMK AO2 TSNO
94908KDBQ DBQ20021128221510511/28/02 22:15:31  5-MIN KDBQ 290415Z AUTO 21013KT 10SM CLR 01/M05 A2976 1230 66 -100 210/13 RMK AO2 TSNO
94908KDBQ DBQ20021128222010511/28/02 22:20:31  5-MIN KDBQ 290420Z AUTO 21012KT 10SM CLR 01/M05 A2975 1230 66 -100 210/12 RMK AO2 TSNO
94908KDBQ DBQ20021128222510511/28/02 22:25:31  5-MIN KDBQ 290425Z AUTO 21013KT 10SM CLR 01/M04 A2975 1240 69 -100 210/13 RMK AO2 TSNO
94908KDBQ DBQ20021128223010511/28/02 22:30:31  5-MIN KDBQ 290430Z AUTO 21014KT 10SM CLR 01/M04 A2974 1250 69 -100 210/14 RMK AO2 TSNO
94908KDBQ DBQ20021128223510511/28/02 22:35:31  5-MIN KDBQ 290435Z AUTO 22014KT 10SM CLR 01/M04 A2974 1250 69 -100 220/14 RMK AO2 TSNO
94908KDBQ DBQ20021128224010511/28/02 22:40:31  5-MIN KDBQ 290440Z AUTO 22014KT 10SM CLR 01/M04 A2974 1250 69 -100 220/14 RMK AO2 TSNO
94908KDBQ DBQ20021128224510511/28/02 22:45:31  5-MIN KDBQ 290445Z AUTO 22013KT 10SM CLR 01/M04 A2973 1250 69 -100 220/13 RMK AO2 TSNO
94908KDBQ DBQ20021128225011911/28/02 22:50:31  5-MIN KDBQ 290450Z AUTO 22012KT 10SM CLR 01/M04 A2973 1260 66 0 220/12 RMK AO2 SLP079 T00111044 TSNO
94908KDBQ DBQ20021128225511911/28/02 22:55:31  5-MIN KDBQ 290455Z AUTO 22013KT 10SM CLR 01/M04 A2972 1260 66 0 220/13 RMK AO2 SLP076 T00111044 TSNO
94908KDBQ DBQ20021128230010211/28/02 23:00:31  5-MIN KDBQ 290500Z AUTO 22014KT 10SM CLR 01/M04 A2972 1270 66 0 210/14 RMK AO2 TSNO
94908KDBQ DBQ20021128230510211/28/02 23:05:31  5-MIN KDBQ 290505Z AUTO 21013KT 10SM CLR 02/M04 A2971 1270 64 0 210/13 RMK AO2 TSNO
94908KDBQ DBQ20021128231010211/28/02 23:10:31  5-MIN KDBQ 290510Z AUTO 22013KT 10SM CLR 02/M04 A2971 1280 64 0 220/13 RMK AO2 TSNO
94908KDBQ DBQ20021128231510211/28/02 23:15:31  5-MIN KDBQ 290515Z AUTO 22015KT 10SM CLR 02/M04 A2970 1280 64 0 220/15 RMK AO2 TSNO
94908KDBQ DBQ20021128232010211/28/02 23:20:31  5-MIN KDBQ 290520Z AUTO 22016KT 10SM CLR 02/M04 A2970 1280 66 0 220/16 RMK AO2 TSNO
94908KDBQ DBQ20021128232510911/28/02 23:25:31  5-MIN KDBQ 290525Z AUTO 22017KT 10SM CLR 02/M04 A2969 1290 66 0 220/17 RMK AO2 PRESFR TSNO
94908KDBQ DBQ20021128233010211/28/02 23:30:31  5-MIN KDBQ 290530Z AUTO 22015KT 10SM CLR 02/M04 A2969 1300 66 0 220/15 RMK AO2 TSNO
94908KDBQ DBQ20021128233510211/28/02 23:35:31  5-MIN KDBQ 290535Z AUTO 22016KT 10SM CLR 02/M04 A2968 1300 66 0 220/16 RMK AO2 TSNO
94908KDBQ DBQ20021128234010411/28/02 23:40:31  5-MIN KDBQ 290540Z AUTO 22015KT 10SM CLR 02/M04 A2968 1300 64 100 220/15 RMK AO2 TSNO
94908KDBQ DBQ20021128234510411/28/02 23:45:31  5-MIN KDBQ 290545Z AUTO 22014KT 10SM CLR 02/M04 A2968 1300 64 100 220/14 RMK AO2 TSNO
94908KDBQ DBQ20021128235014911/28/02 23:50:31  5-MIN KDBQ 290550Z AUTO 21015KT 10SM CLR 02/M04 A2967 1310 64 100 210/15 RMK AO2 SLP057 T00221039 10022 21017 400281106 58047 TSNO
94908KDBQ DBQ20021128235515611/28/02 23:55:31  5-MIN KDBQ 290555Z AUTO 21016KT 10SM CLR 02/M04 A2966 1320 64 100 210/16 RMK AO2 PRESFR SLP053 T00221039 10022 21017 400281106 58039 TSNO
94908KDBQ DBQ20021129000011111/29/02 00:00:31  5-MIN KDBQ 290600Z AUTO 21015KT 10SM CLR 02/M04 A2965 1330 64 100 210/15 RMK AO2 PRESFR TSNO
94908KDBQ DBQ20021129000511111/29/02 00:05:31  5-MIN KDBQ 290605Z AUTO 21015KT 10SM CLR 02/M04 A2964 1340 64 200 210/15 RMK AO2 PRESFR TSNO
94908KDBQ DBQ20021129001010411/29/02 00:10:31  5-MIN KDBQ 290610Z AUTO 21015KT 10SM CLR 02/M04 A2964 1340 64 200 210/15 RMK AO2 TSNO
94908KDBQ DBQ20021129001510411/29/02 00:15:31  5-MIN KDBQ 290615Z AUTO 22016KT 10SM CLR 03/M04 A2964 1340 61 200 210/16 RMK AO2 TSNO
94908KDBQ DBQ20021129002010411/29/02 00:20:31  5-MIN KDBQ 290620Z AUTO 21016KT 10SM CLR 03/M03 A2963 1350 64 200 210/16 RMK AO2 TSNO
94908KDBQ DBQ20021129002510411/29/02 00:25:31  5-MIN KDBQ 290625Z AUTO 22016KT 10SM CLR 03/M03 A2962 1350 64 200 220/16 RMK AO2 TSNO
94908KDBQ DBQ20021129003011111/29/02 00:30:31  5-MIN KDBQ 290630Z AUTO 22017KT 10SM CLR 03/M03 A2961 1360 64 300 210/17 RMK AO2 PRESFR TSNO
94908KDBQ DBQ20021129003510411/29/02 00:35:31  5-MIN KDBQ 290635Z AUTO 21016KT 10SM CLR 03/M03 A2961 1360 64 300 210/16 RMK AO2 TSNO
94908KDBQ DBQ20021129004011111/29/02 00:40:31  5-MIN KDBQ 290640Z AUTO 21017KT 10SM CLR 03/M03 A2960 1370 64 300 210/17 RMK AO2 PRESFR TSNO
94908KDBQ DBQ20021129004510411/29/02 00:45:31  5-MIN KDBQ 290645Z AUTO 22016KT 10SM CLR 03/M03 A2960 1380 64 300 220/16 RMK AO2 TSNO
94908KDBQ DBQ20021129005012811/29/02 00:50:31  5-MIN KDBQ 290650Z AUTO 21016KT 10SM CLR 03/M03 A2959 1390 64 300 210/16 RMK AO2 PRESFR SLP029 T00281033 TSNO
94908KDBQ DBQ20021129005513411/29/02 00:55:31  5-MIN KDBQ 290655Z AUTO 21017G21KT 10SM CLR 03/M03 A2958 1390 64 300 210/17G21 RMK AO2 PRESFR SLP026 T00281033 TSNO
94908KDBQ DBQ20021129010011111/29/02 01:00:31  5-MIN KDBQ 290700Z AUTO 21016KT 10SM CLR 03/M03 A2957 1400 67 300 210/16 RMK AO2 PRESFR TSNO
94908KDBQ DBQ20021129010510411/29/02 01:05:31  5-MIN KDBQ 290705Z AUTO 21017KT 10SM CLR 03/M03 A2957 1410 67 300 210/17 RMK AO2 TSNO
94908KDBQ DBQ20021129011010411/29/02 01:10:31  5-MIN KDBQ 290710Z AUTO 21017KT 10SM CLR 03/M03 A2957 1410 67 300 210/17 RMK AO2 TSNO
94908KDBQ DBQ20021129011510411/29/02 01:15:31  5-MIN KDBQ 290715Z AUTO 22016KT 10SM CLR 03/M03 A2957 1410 67 300 210/16 RMK AO2 TSNO
94908KDBQ DBQ20021129012010411/29/02 01:20:31  5-MIN KDBQ 290720Z AUTO 21017KT 10SM CLR 03/M03 A2957 1410 67 300 210/17 RMK AO2 TSNO
94908KDBQ DBQ20021129012510411/29/02 01:25:31  5-MIN KDBQ 290725Z AUTO 21016KT 10SM CLR 03/M03 A2956 1420 67 300 210/16 RMK AO2 TSNO
94908KDBQ DBQ20021129013010411/29/02 01:30:31  5-MIN KDBQ 290730Z AUTO 21017KT 10SM CLR 03/M03 A2955 1420 67 300 210/17 RMK AO2 TSNO
94908KDBQ DBQ20021129013510411/29/02 01:35:31  5-MIN KDBQ 290735Z AUTO 22017KT 10SM CLR 03/M03 A2955 1420 64 400 220/17 RMK AO2 TSNO
94908KDBQ DBQ20021129014010411/29/02 01:40:31  5-MIN KDBQ 290740Z AUTO 22017KT 10SM CLR 03/M03 A2955 1420 64 400 220/17 RMK AO2 TSNO
94908KDBQ DBQ20021129014510411/29/02 01:45:31  5-MIN KDBQ 290745Z AUTO 22017KT 10SM CLR 03/M03 A2956 1420 67 300 220/17 RMK AO2 TSNO
94908KDBQ DBQ20021129015012111/29/02 01:50:31  5-MIN KDBQ 290750Z AUTO 22016KT 10SM CLR 03/M02 A2955 1420 69 300 220/16 RMK AO2 SLP016 T00281022 TSNO
94908KDBQ DBQ20021129015512111/29/02 01:55:31  5-MIN KDBQ 290755Z AUTO 22017KT 10SM CLR 03/M02 A2955 1420 69 300 220/17 RMK AO2 SLP015 T00281022 TSNO
94908KDBQ DBQ20021129020010411/29/02 02:00:31  5-MIN KDBQ 290800Z AUTO 22016KT 10SM CLR 03/M02 A2955 1420 69 300 220/16 RMK AO2 TSNO
94908KDBQ DBQ20021129020510411/29/02 02:05:31  5-MIN KDBQ 290805Z AUTO 22014KT 10SM CLR 03/M02 A2955 1430 69 300 220/14 RMK AO2 TSNO
94908KDBQ DBQ20021129021010411/29/02 02:10:31  5-MIN KDBQ 290810Z AUTO 22014KT 10SM CLR 03/M02 A2955 1430 69 300 220/14 RMK AO2 TSNO
94908KDBQ DBQ20021129021510411/29/02 02:15:31  5-MIN KDBQ 290815Z AUTO 23016KT 10SM CLR 03/M02 A2954 1430 69 300 230/16 RMK AO2 TSNO
94908KDBQ DBQ20021129022010411/29/02 02:20:31  5-MIN KDBQ 290820Z AUTO 23016KT 10SM CLR 03/M02 A2954 1430 69 300 230/16 RMK AO2 TSNO
94908KDBQ DBQ20021129022510411/29/02 02:25:31  5-MIN KDBQ 290825Z AUTO 23017KT 10SM CLR 03/M02 A2954 1430 70 400 230/17 RMK AO2 TSNO
94908KDBQ DBQ20021129023011011/29/02 02:30:31  5-MIN KDBQ 290830Z AUTO 24020G24KT 10SM CLR 04/M02 A2954 1430 67 500 230/20G24 RMK AO2 TSNO
94908KDBQ DBQ20021129023511011/29/02 02:35:31  5-MIN KDBQ 290835Z AUTO 24015G24KT 10SM CLR 04/M01 A2954 1430 70 500 230/15G24 RMK AO2 TSNO
94908KDBQ DBQ20021129024011011/29/02 02:40:31  5-MIN KDBQ 290840Z AUTO 24015G24KT 10SM CLR 04/M02 A2954 1430 67 500 240/15G24 RMK AO2 TSNO
94908KDBQ DBQ20021129024511011/29/02 02:45:31  5-MIN KDBQ 290845Z AUTO 24015G22KT 10SM CLR 03/M02 A2954 1430 70 400 240/15G22 RMK AO2 TSNO
94908KDBQ DBQ20021129025012711/29/02 02:50:31  5-MIN KDBQ 290850Z AUTO 24018KT 10SM CLR 03/M02 A2954 1430 70 400 240/18 RMK AO2 SLP012 T00331017 58039 TSNO
94908KDBQ DBQ20021129025512711/29/02 02:55:31  5-MIN KDBQ 290855Z AUTO 24015KT 10SM CLR 03/M01 A2954 1430 72 400 240/15 RMK AO2 SLP012 T00331011 56038 TSNO
94908KDBQ DBQ20021129030010411/29/02 03:00:31  5-MIN KDBQ 290900Z AUTO 24016KT 10SM CLR 03/M01 A2954 1430 72 400 240/16 RMK AO2 TSNO
94908KDBQ DBQ20021129030510411/29/02 03:05:31  5-MIN KDBQ 290905Z AUTO 24015KT 10SM CLR 03/M01 A2954 1430 72 400 240/15 RMK AO2 TSNO
94908KDBQ DBQ20021129031010411/29/02 03:10:31  5-MIN KDBQ 290910Z AUTO 24015KT 10SM CLR 03/M01 A2954 1430 72 400 240/15 RMK AO2 TSNO
94908KDBQ DBQ20021129031510411/29/02 03:15:31  5-MIN KDBQ 290915Z AUTO 24014KT 10SM CLR 03/M01 A2954 1430 72 400 240/14 RMK AO2 TSNO
94908KDBQ DBQ20021129032010411/29/02 03:20:31  5-MIN KDBQ 290920Z AUTO 24014KT 10SM CLR 03/M01 A2953 1440 72 400 240/14 RMK AO2 TSNO
94908KDBQ DBQ20021129032511011/29/02 03:25:31  5-MIN KDBQ 290925Z AUTO 24014G20KT 10SM CLR 03/M01 A2953 1440 72 400 240/14G20 RMK AO2 TSNO
94908KDBQ DBQ20021129033010411/29/02 03:30:31  5-MIN KDBQ 290930Z AUTO 24013KT 10SM CLR 03/M01 A2954 1430 72 400 240/13 RMK AO2 TSNO
94908KDBQ DBQ20021129033510411/29/02 03:35:31  5-MIN KDBQ 290935Z AUTO 24014KT 10SM CLR 03/M01 A2954 1430 72 400 240/14 RMK AO2 TSNO
94908KDBQ DBQ20021129034010411/29/02 03:40:31  5-MIN KDBQ 290940Z AUTO 24013KT 10SM CLR 03/M01 A2954 1430 76 400 240/13 RMK AO2 TSNO
94908KDBQ DBQ20021129034510411/29/02 03:45:31  5-MIN KDBQ 290945Z AUTO 24016KT 10SM CLR 03/M01 A2954 1440 76 400 240/16 RMK AO2 TSNO
94908KDBQ DBQ20021129035012111/29/02 03:50:31  5-MIN KDBQ 290950Z AUTO 24014KT 10SM CLR 03/M01 A2953 1440 76 400 240/14 RMK AO2 SLP009 T00331006 TSNO
94908KDBQ DBQ20021129035512111/29/02 03:55:31  5-MIN KDBQ 290955Z AUTO 25017KT 10SM CLR 03/M01 A2953 1440 76 400 250/17 RMK AO2 SLP008 T00331006 TSNO
94908KDBQ DBQ20021129040010911/29/02 04:00:31  5-MIN KDBQ 291000Z AUTO 26018G23KT 10SM CLR 04/00 A2953 1440 73 600 250/18G23 RMK AO2 TSNO
94908KDBQ DBQ20021129040510911/29/02 04:05:31  5-MIN KDBQ 291005Z AUTO 26016G23KT 10SM CLR 05/00 A2953 1440 70 600 260/16G23 RMK AO2 TSNO
94908KDBQ DBQ20021129041010311/29/02 04:10:31  5-MIN KDBQ 291010Z AUTO 26016KT 10SM CLR 04/00 A2953 1440 73 500 260/16 RMK AO2 TSNO
94908KDBQ DBQ20021129041510311/29/02 04:15:31  5-MIN KDBQ 291015Z AUTO 26016KT 10SM CLR 04/00 A2953 1440 73 600 260/16 RMK AO2 TSNO
94908KDBQ DBQ20021129042010311/29/02 04:20:31  5-MIN KDBQ 291020Z AUTO 26014KT 10SM CLR 04/00 A2953 1440 73 600 260/14 RMK AO2 TSNO
94908KDBQ DBQ20021129042510311/29/02 04:25:31  5-MIN KDBQ 291025Z AUTO 26013KT 10SM CLR 04/01 A2953 1440 76 600 260/13 RMK AO2 TSNO
94908KDBQ DBQ20021129043010311/29/02 04:30:31  5-MIN KDBQ 291030Z AUTO 26017KT 10SM CLR 04/01 A2952 1450 76 600 260/17 RMK AO2 TSNO
94908KDBQ DBQ20021129043510911/29/02 04:35:31  5-MIN KDBQ 291035Z AUTO 26015G21KT 10SM CLR 04/01 A2952 1450 76 600 260/15G21 RMK AO2 TSNO
94908KDBQ DBQ20021129044010911/29/02 04:40:31  5-MIN KDBQ 291040Z AUTO 27016G22KT 10SM CLR 04/01 A2952 1450 76 600 270/16G22 RMK AO2 TSNO
94908KDBQ DBQ20021129044510911/29/02 04:45:31  5-MIN KDBQ 291045Z AUTO 26017G22KT 10SM CLR 04/01 A2953 1440 76 600 260/17G22 RMK AO2 TSNO
94908KDBQ DBQ20021129045012011/29/02 04:50:31  5-MIN KDBQ 291050Z AUTO 26017KT 10SM CLR 04/01 A2953 1440 76 500 260/17 RMK AO2 SLP010 T00440006 TSNO
94908KDBQ DBQ20021129045512011/29/02 04:55:31  5-MIN KDBQ 291055Z AUTO 27017KT 10SM CLR 04/01 A2953 1440 76 500 260/17 RMK AO2 SLP010 T00440006 TSNO
94908KDBQ DBQ20021129050010311/29/02 05:00:31  5-MIN KDBQ 291100Z AUTO 26018KT 10SM CLR 04/01 A2953 1440 76 600 260/18 RMK AO2 TSNO
94908KDBQ DBQ20021129050510911/29/02 05:05:31  5-MIN KDBQ 291105Z AUTO 26018G22KT 10SM CLR 04/01 A2953 1440 76 500 260/18G22 RMK AO2 TSNO
94908KDBQ DBQ20021129051010311/29/02 05:10:31  5-MIN KDBQ 291110Z AUTO 27016KT 10SM CLR 04/01 A2953 1440 76 600 260/16 RMK AO2 TSNO
94908KDBQ DBQ20021129051510311/29/02 05:15:31  5-MIN KDBQ 291115Z AUTO 26015KT 10SM CLR 04/01 A2953 1440 76 500 260/15 RMK AO2 TSNO
94908KDBQ DBQ20021129052010311/29/02 05:20:31  5-MIN KDBQ 291120Z AUTO 27015KT 10SM CLR 04/01 A2953 1440 76 600 260/15 RMK AO2 TSNO
94908KDBQ DBQ20021129052510911/29/02 05:25:31  5-MIN KDBQ 291125Z AUTO 27017G21KT 10SM CLR 04/01 A2953 1440 76 600 270/17G21 RMK AO2 TSNO
94908KDBQ DBQ20021129053010311/29/02 05:30:31  5-MIN KDBQ 291130Z AUTO 26016KT 10SM CLR 04/01 A2952 1450 76 600 260/16 RMK AO2 TSNO
94908KDBQ DBQ20021129053510311/29/02 05:35:31  5-MIN KDBQ 291135Z AUTO 26015KT 10SM CLR 04/01 A2953 1440 79 500 260/15 RMK AO2 TSNO
94908KDBQ DBQ20021129054010911/29/02 05:40:31  5-MIN KDBQ 291140Z AUTO 27015G21KT 10SM CLR 04/01 A2953 1440 79 500 260/15G21 RMK AO2 TSNO
94908KDBQ DBQ20021129054510911/29/02 05:45:31  5-MIN KDBQ 291145Z AUTO 27014G21KT 10SM CLR 04/01 A2954 1440 79 500 270/14G21 RMK AO2 TSNO
94908KDBQ DBQ20021129055012811/29/02 05:50:31  5-MIN KDBQ 291150Z 27014KT 10SM CLR 04/01 A2954 1440 79 500 270/14 RMK AO2 SLP011 T00390006 10050 20022 56038
94908KDBQ DBQ20021129055512811/29/02 05:55:31  5-MIN KDBQ 291155Z 26014KT 10SM CLR 04/01 A2954 1440 79 500 260/14 RMK AO2 SLP011 T00390006 10050 20022 55002
94908KDBQ DBQ20021129060009311/29/02 06:00:31  5-MIN KDBQ 291200Z 26014KT 10SM CLR 04/01 A2954 1440 79 500 260/14 RMK AO2
94908KDBQ DBQ20021129060509311/29/02 06:05:31  5-MIN KDBQ 291205Z 26014KT 10SM CLR 03/01 A2953 1440 82 400 260/14 RMK AO2
94908KDBQ DBQ20021129061009311/29/02 06:10:31  5-MIN KDBQ 291210Z 26014KT 10SM CLR 03/01 A2953 1440 82 400 260/14 RMK AO2
94908KDBQ DBQ20021129061509311/29/02 06:15:31  5-MIN KDBQ 291215Z 27014KT 10SM CLR 04/01 A2953 1450 79 500 260/14 RMK AO2
94908KDBQ DBQ20021129062009311/29/02 06:20:31  5-MIN KDBQ 291220Z 26015KT 10SM CLR 04/01 A2953 1450 79 500 260/15 RMK AO2
94908KDBQ DBQ20021129062509311/29/02 06:25:31  5-MIN KDBQ 291225Z 26015KT 10SM CLR 03/01 A2952 1450 82 400 260/15 RMK AO2
94908KDBQ DBQ20021129063009311/29/02 06:30:31  5-MIN KDBQ 291230Z 26014KT 10SM CLR 03/00 A2952 1450 79 400 260/14 RMK AO2
94908KDBQ DBQ20021129063509311/29/02 06:35:31  5-MIN KDBQ 291235Z 26016KT 10SM CLR 03/00 A2952 1450 79 400 260/16 RMK AO2
94908KDBQ DBQ20021129064009311/29/02 06:40:31  5-MIN KDBQ 291240Z 26017KT 10SM CLR 03/00 A2952 1450 79 400 260/17 RMK AO2
94908KDBQ DBQ20021129064509311/29/02 06:45:31  5-MIN KDBQ 291245Z 26017KT 10SM CLR 03/00 A2952 1450 79 400 260/17 RMK AO2
94908KDBQ DBQ20021129065011011/29/02 06:50:31  5-MIN KDBQ 291250Z 26016KT 10SM CLR 03/00 A2952 1450 79 400 260/16 RMK AO2 SLP007 T00330000
94908KDBQ DBQ20021129065511011/29/02 06:55:31  5-MIN KDBQ 291255Z 26015KT 10SM CLR 03/00 A2952 1450 79 400 260/15 RMK AO2 SLP006 T00330000
94908KDBQ DBQ20021129070009311/29/02 07:00:31  5-MIN KDBQ 291300Z 27015KT 10SM CLR 03/00 A2953 1440 79 400 260/15 RMK AO2
94908KDBQ DBQ20021129070509311/29/02 07:05:31  5-MIN KDBQ 291305Z 26015KT 10SM CLR 03/00 A2953 1440 79 400 260/15 RMK AO2
94908KDBQ DBQ20021129071009311/29/02 07:10:31  5-MIN KDBQ 291310Z 27016KT 10SM CLR 03/00 A2953 1440 79 400 270/16 RMK AO2
94908KDBQ DBQ20021129071509311/29/02 07:15:31  5-MIN KDBQ 291315Z 26016KT 10SM CLR 03/00 A2953 1440 79 400 260/16 RMK AO2
94908KDBQ DBQ20021129072009311/29/02 07:20:31  5-MIN KDBQ 291320Z 26015KT 10SM CLR 03/00 A2954 1440 79 400 260/15 RMK AO2
94908KDBQ DBQ20021129072509311/29/02 07:25:31  5-MIN KDBQ 291325Z 27016KT 10SM CLR 03/00 A2953 1440 79 400 270/16 RMK AO2
94908KDBQ DBQ20021129073009311/29/02 07:30:31  5-MIN KDBQ 291330Z 27013KT 10SM CLR 03/00 A2953 1440 79 400 260/13 RMK AO2
94908KDBQ DBQ20021129073509411/29/02 07:35:31  5-MIN KDBQ 291335Z 26014KT 10SM CLR 03/M01 A2953 1440 76 400 260/14 RMK AO2
94908KDBQ DBQ20021129074009411/29/02 07:40:31  5-MIN KDBQ 291340Z 27015KT 10SM CLR 03/M01 A2953 1440 76 400 260/15 RMK AO2
94908KDBQ DBQ20021129074509411/29/02 07:45:31  5-MIN KDBQ 291345Z 27016KT 10SM CLR 03/M01 A2953 1440 76 400 270/16 RMK AO2
94908KDBQ DBQ20021129075011111/29/02 07:50:31  5-MIN KDBQ 291350Z 26014KT 10SM CLR 03/M01 A2953 1440 76 400 260/14 RMK AO2 SLP010 T00331006
94908KDBQ DBQ20021129075511111/29/02 07:55:31  5-MIN KDBQ 291355Z 27014KT 10SM CLR 03/M01 A2953 1440 76 400 260/14 RMK AO2 SLP010 T00331006
94908KDBQ DBQ20021129080009411/29/02 08:00:31  5-MIN KDBQ 291400Z 26015KT 10SM CLR 03/M01 A2953 1440 76 400 260/15 RMK AO2
94908KDBQ DBQ20021129080509411/29/02 08:05:31  5-MIN KDBQ 291405Z 27015KT 10SM CLR 03/M01 A2953 1440 76 400 260/15 RMK AO2
94908KDBQ DBQ20021129081009411/29/02 08:10:31  5-MIN KDBQ 291410Z 27015KT 10SM CLR 04/M01 A2953 1440 73 500 270/15 RMK AO2
94908KDBQ DBQ20021129081509411/29/02 08:15:31  5-MIN KDBQ 291415Z 27016KT 10SM CLR 04/M01 A2953 1440 73 500 270/16 RMK AO2
94908KDBQ DBQ20021129082009411/29/02 08:20:31  5-MIN KDBQ 291420Z 27016KT 10SM CLR 04/M01 A2953 1440 73 500 270/16 RMK AO2
94908KDBQ DBQ20021129082509411/29/02 08:25:31  5-MIN KDBQ 291425Z 27017KT 10SM CLR 04/M01 A2953 1440 73 500 270/17 RMK AO2
94908KDBQ DBQ20021129083009411/29/02 08:30:31  5-MIN KDBQ 291430Z 27015KT 10SM CLR 04/M01 A2953 1440 70 600 270/15 RMK AO2
94908KDBQ DBQ20021129083509411/29/02 08:35:31  5-MIN KDBQ 291435Z 27016KT 10SM CLR 04/M01 A2953 1440 67 600 270/16 RMK AO2
94908KDBQ DBQ20021129084009411/29/02 08:40:31  5-MIN KDBQ 291440Z 27016KT 10SM CLR 04/M01 A2953 1440 70 500 270/16 RMK AO2
94908KDBQ DBQ20021129084509411/29/02 08:45:31  5-MIN KDBQ 291445Z 27016KT 10SM CLR 04/M01 A2953 1440 67 600 270/16 RMK AO2
94908KDBQ DBQ20021129085011711/29/02 08:50:31  5-MIN KDBQ 291450Z 27017KT 10SM CLR 04/M01 A2953 1440 67 600 270/17 RMK AO2 SLP008 T00441011 55002
94908KDBQ DBQ20021129085511711/29/02 08:55:31  5-MIN KDBQ 291455Z 27015KT 10SM CLR 04/M01 A2953 1440 67 600 270/15 RMK AO2 SLP007 T00441011 56003
94908KDBQ DBQ20021129090009411/29/02 09:00:31  5-MIN KDBQ 291500Z 27017KT 10SM CLR 04/M01 A2953 1450 67 600 260/17 RMK AO2
94908KDBQ DBQ20021129090509411/29/02 09:05:31  5-MIN KDBQ 291505Z 27016KT 10SM CLR 04/M01 A2952 1450 67 600 270/16 RMK AO2
94908KDBQ DBQ20021129091009411/29/02 09:10:31  5-MIN KDBQ 291510Z 27014KT 10SM CLR 05/M01 A2952 1450 64 600 270/14 RMK AO2
94908KDBQ DBQ20021129091509411/29/02 09:15:31  5-MIN KDBQ 291515Z 27016KT 10SM CLR 05/M01 A2953 1440 64 600 270/16 RMK AO2
94908KDBQ DBQ20021129092009411/29/02 09:20:31  5-MIN KDBQ 291520Z 27013KT 10SM CLR 05/M01 A2953 1440 64 600 270/13 RMK AO2
94908KDBQ DBQ20021129092509411/29/02 09:25:31  5-MIN KDBQ 291525Z 28013KT 10SM CLR 05/M01 A2953 1440 64 600 280/13 RMK AO2
94908KDBQ DBQ20021129093009411/29/02 09:30:31  5-MIN KDBQ 291530Z 28015KT 10SM CLR 05/M01 A2953 1440 64 600 270/15 RMK AO2
94908KDBQ DBQ20021129093510011/29/02 09:35:31  5-MIN KDBQ 291535Z 27015G21KT 10SM CLR 06/M01 A2953 1440 62 700 270/15G21 RMK AO2
94908KDBQ DBQ20021129094010011/29/02 09:40:31  5-MIN KDBQ 291540Z 28013G21KT 10SM CLR 06/M01 A2953 1440 62 700 280/13G21 RMK AO2
94908KDBQ DBQ20021129094509411/29/02 09:45:31  5-MIN KDBQ 291545Z 28016KT 10SM CLR 06/M01 A2954 1430 62 700 280/16 RMK AO2
94908KDBQ DBQ20021129095011111/29/02 09:50:31  5-MIN KDBQ 291550Z 27016KT 10SM CLR 06/M01 A2954 1430 62 700 270/16 RMK AO2 SLP011 T00561011
94908KDBQ DBQ20021129095511711/29/02 09:55:31  5-MIN KDBQ 291555Z 27015G21KT 10SM CLR 06/M02 A2954 1430 59 700 270/15G21 RMK AO2 SLP011 T00561017
94908KDBQ DBQ20021129100010011/29/02 10:00:31  5-MIN KDBQ 291600Z 28015G21KT 10SM CLR 06/M02 A2954 1440 57 700 280/15G21 RMK AO2
94908KDBQ DBQ20021129100509411/29/02 10:05:31  5-MIN KDBQ 291605Z 28014KT 10SM CLR 06/M02 A2953 1440 57 800 280/14 RMK AO2
94908KDBQ DBQ20021129101009411/29/02 10:10:31  5-MIN KDBQ 291610Z 27015KT 10SM CLR 06/M02 A2953 1440 57 800 270/15 RMK AO2
94908KDBQ DBQ20021129101509411/29/02 10:15:31  5-MIN KDBQ 291615Z 28015KT 10SM CLR 06/M02 A2952 1450 57 800 280/15 RMK AO2
94908KDBQ DBQ20021129102010011/29/02 10:20:31  5-MIN KDBQ 291620Z 27017G20KT 10SM CLR 06/M02 A2952 1450 57 800 270/17G20 RMK AO2
94908KDBQ DBQ20021129102510011/29/02 10:25:31  5-MIN KDBQ 291625Z 28016G22KT 10SM CLR 06/M02 A2952 1450 57 800 270/16G22 RMK AO2
94908KDBQ DBQ20021129103010011/29/02 10:30:31  5-MIN KDBQ 291630Z 26016G22KT 10SM CLR 06/M02 A2952 1450 57 800 260/16G22 RMK AO2
94908KDBQ DBQ20021129103510011/29/02 10:35:31  5-MIN KDBQ 291635Z 26017G22KT 10SM CLR 06/M02 A2952 1450 57 800 260/17G22 RMK AO2
94908KDBQ DBQ20021129104010011/29/02 10:40:31  5-MIN KDBQ 291640Z 27013G22KT 10SM CLR 06/M02 A2952 1450 57 800 270/13G22 RMK AO2
94908KDBQ DBQ20021129104510011/29/02 10:45:31  5-MIN KDBQ 291645Z 27016G20KT 10SM CLR 06/M02 A2952 1450 57 800 260/16G20 RMK AO2
94908KDBQ DBQ20021129105011711/29/02 10:50:31  5-MIN KDBQ 291650Z 27017G20KT 10SM CLR 07/M02 A2952 1460 55 800 270/17G20 RMK AO2 SLP002 T00671017
94908KDBQ DBQ20021129105511711/29/02 10:55:31  5-MIN KDBQ 291655Z 27018G21KT 10SM CLR 07/M02 A2952 1450 55 800 270/18G21 RMK AO2 SLP003 T00671017
94908KDBQ DBQ20021129110010011/29/02 11:00:31  5-MIN KDBQ 291700Z 26019G25KT 10SM CLR 07/M02 A2953 1450 55 800 260/19G25 RMK AO2
94908KDBQ DBQ20021129110510011/29/02 11:05:31  5-MIN KDBQ 291705Z 26016G25KT 10SM CLR 07/M02 A2952 1450 55 800 260/16G25 RMK AO2
94908KDBQ DBQ20021129111009411/29/02 11:10:31  5-MIN KDBQ 291710Z 26018KT 10SM CLR 07/M02 A2952 1450 53 900 260/18 RMK AO2
94908KDBQ DBQ20021129111510011/29/02 11:15:31  5-MIN KDBQ 291715Z 27019G23KT 10SM CLR 07/M02 A2952 1450 53 800 270/19G23 RMK AO2
94908KDBQ DBQ20021129112010011/29/02 11:20:31  5-MIN KDBQ 291720Z 26020G23KT 10SM CLR 07/M02 A2952 1450 53 800 260/20G23 RMK AO2
94908KDBQ DBQ20021129112509711/29/02 11:25:31  5-MIN KDBQ 291725Z 26020KT 10SM FEW120 07/M02 A2952 1450 53 800 260/20 RMK AO2
94908KDBQ DBQ20021129113010311/29/02 11:30:31  5-MIN KDBQ 291730Z 26020G25KT 10SM SCT120 07/M02 A2952 1450 53 800 260/20G25 RMK AO2
94908KDBQ DBQ20021129113510311/29/02 11:35:31  5-MIN KDBQ 291735Z 26018G25KT 10SM SCT120 07/M02 A2952 1450 51 900 260/18G25 RMK AO2
94908KDBQ DBQ20021129114010311/29/02 11:40:31  5-MIN KDBQ 291740Z 26019G24KT 10SM SCT120 07/M02 A2951 1460 51 900 260/19G24 RMK AO2
94908KDBQ DBQ20021129114512211/29/02 11:45:31  5-MIN KDBQ 291745Z 26021G26KT 10SM SCT120 08/M02 A2951 1460 49 1000 260/21G26 RMK AO2 PK WND 27026/1745
94908KDBQ DBQ20021129115015611/29/02 11:50:31  5-MIN KDBQ 291750Z 26019G26KT 10SM SCT120 07/M02 A2951 1460 51 900 260/19G26 RMK AO2 PK WND 27026/1745 SLP000 T00721022 10078 20033 56003
94908KDBQ DBQ20021129115515711/29/02 11:55:31  5-MIN KDBQ 291755Z 27022G26KT 10SM SCT120 08/M03 A2951 1460 47 1000 260/22G26 RMK AO2 PK WND 28026/1753 SLP000 T00781028 10078 20033 58005
94908KDBQ DBQ20021129120012211/29/02 12:00:31  5-MIN KDBQ 291800Z 27024G27KT 10SM FEW120 08/M03 A2952 1450 47 1000 270/24G27 RMK AO2 PK WND 27027/1800
94908KDBQ DBQ20021129120512111/29/02 12:05:31  5-MIN KDBQ 291805Z 28022G30KT 10SM FEW120 07/M03 A2952 1450 47 900 280/22G30 RMK AO2 PK WND 25030/1801
94908KDBQ DBQ20021129121012111/29/02 12:10:31  5-MIN KDBQ 291810Z 27019G30KT 10SM FEW120 07/M03 A2952 1450 49 900 270/19G30 RMK AO2 PK WND 25030/1801
94908KDBQ DBQ20021129121512211/29/02 12:15:31  5-MIN KDBQ 291815Z 27020G27KT 10SM FEW120 08/M03 A2951 1460 47 1000 270/20G27 RMK AO2 PK WND 25030/1801
94908KDBQ DBQ20021129122011911/29/02 12:20:31  5-MIN KDBQ 291820Z 27018G26KT 10SM CLR 08/M03 A2952 1450 47 1000 270/18G26 RMK AO2 PK WND 25030/1801
94908KDBQ DBQ20021129122511911/29/02 12:25:31  5-MIN KDBQ 291825Z 27018G24KT 10SM CLR 08/M03 A2951 1460 47 1000 270/18G24 RMK AO2 PK WND 25030/1801
94908KDBQ DBQ20021129123011311/29/02 12:30:31  5-MIN KDBQ 291830Z 26017KT 10SM CLR 08/M03 A2951 1460 47 1000 260/17 RMK AO2 PK WND 25030/1801
94908KDBQ DBQ20021129123511911/29/02 12:35:31  5-MIN KDBQ 291835Z 27021G26KT 10SM CLR 08/M03 A2951 1460 47 1000 270/21G26 RMK AO2 PK WND 25030/1801
94908KDBQ DBQ20021129124011911/29/02 12:40:31  5-MIN KDBQ 291840Z 28022G26KT 10SM CLR 08/M03 A2952 1450 47 1000 280/22G26 RMK AO2 PK WND 25030/1801
94908KDBQ DBQ20021129124511911/29/02 12:45:31  5-MIN KDBQ 291845Z 27020G25KT 10SM CLR 08/M03 A2952 1450 47 1000 270/20G25 RMK AO2 PK WND 25030/1801
94908KDBQ DBQ20021129125013611/29/02 12:50:31  5-MIN KDBQ 291850Z 27017G28KT 10SM CLR 08/M03 A2952 1450 47 1000 270/17G28 RMK AO2 PK WND 25030/1801 SLP001 T00781028
94908KDBQ DBQ20021129125513511/29/02 12:55:31  5-MIN KDBQ 291855Z 27020G28KT 10SM CLR 07/M03 A2952 1450 49 900 270/20G28 RMK AO2 PK WND 25030/1801 SLP003 T00721028
94908KDBQ DBQ20021129130010011/29/02 13:00:31  5-MIN KDBQ 291900Z 27016G25KT 10SM CLR 07/M03 A2952 1450 49 900 270/16G25 RMK AO2
94908KDBQ DBQ20021129130511811/29/02 13:05:31  5-MIN KDBQ 291905Z 27020G26KT 10SM CLR 07/M03 A2952 1450 47 900 270/20G26 RMK AO2 PK WND 28026/1904
94908KDBQ DBQ20021129131011811/29/02 13:10:31  5-MIN KDBQ 291910Z 27022G27KT 10SM CLR 07/M03 A2952 1450 47 900 270/22G27 RMK AO2 PK WND 27027/1910
94908KDBQ DBQ20021129131511811/29/02 13:15:31  5-MIN KDBQ 291915Z 27017G27KT 10SM CLR 07/M03 A2952 1450 47 900 270/17G27 RMK AO2 PK WND 27027/1910
94908KDBQ DBQ20021129132011811/29/02 13:20:31  5-MIN KDBQ 291920Z 27017G25KT 10SM CLR 07/M03 A2952 1450 49 900 270/17G25 RMK AO2 PK WND 27027/1910
94908KDBQ DBQ20021129132511811/29/02 13:25:31  5-MIN KDBQ 291925Z 26020G26KT 10SM CLR 07/M03 A2952 1450 47 900 260/20G26 RMK AO2 PK WND 27027/1910
94908KDBQ DBQ20021129133011811/29/02 13:30:31  5-MIN KDBQ 291930Z 26016G26KT 10SM CLR 07/M03 A2952 1450 49 900 260/16G26 RMK AO2 PK WND 27027/1910
94908KDBQ DBQ20021129133511811/29/02 13:35:31  5-MIN KDBQ 291935Z 26019G24KT 10SM CLR 07/M03 A2952 1450 47 900 260/19G24 RMK AO2 PK WND 27027/1910
94908KDBQ DBQ20021129134011811/29/02 13:40:31  5-MIN KDBQ 291940Z 26017G24KT 10SM CLR 07/M03 A2952 1450 49 900 260/17G24 RMK AO2 PK WND 27027/1910
94908KDBQ DBQ20021129134511811/29/02 13:45:31  5-MIN KDBQ 291945Z 27019G25KT 10SM CLR 07/M03 A2952 1450 47 900 260/19G25 RMK AO2 PK WND 27027/1910
94908KDBQ DBQ20021129135013511/29/02 13:50:31  5-MIN KDBQ 291950Z 26017G25KT 10SM CLR 07/M03 A2952 1450 49 900 260/17G25 RMK AO2 PK WND 27027/1910 SLP004 T00721028
94908KDBQ DBQ20021129135513511/29/02 13:55:31  5-MIN KDBQ 291955Z 26017G22KT 10SM CLR 07/M03 A2952 1450 49 900 260/17G22 RMK AO2 PK WND 27027/1910 SLP004 T00721028
94908KDBQ DBQ20021129140010011/29/02 14:00:31  5-MIN KDBQ 292000Z 26018G25KT 10SM CLR 07/M03 A2953 1450 51 800 260/18G25 RMK AO2
94908KDBQ DBQ20021129140510011/29/02 14:05:31  5-MIN KDBQ 292005Z 26019G25KT 10SM CLR 07/M03 A2952 1450 51 800 260/19G25 RMK AO2
94908KDBQ DBQ20021129141010011/29/02 14:10:31  5-MIN KDBQ 292010Z 26020G24KT 10SM CLR 07/M03 A2953 1450 51 800 260/20G24 RMK AO2
94908KDBQ DBQ20021129141511811/29/02 14:15:31  5-MIN KDBQ 292015Z 26022G26KT 10SM CLR 07/M03 A2953 1440 49 800 260/22G26 RMK AO2 PK WND 25026/2013
94908KDBQ DBQ20021129142011811/29/02 14:20:31  5-MIN KDBQ 292020Z 26017G26KT 10SM CLR 07/M03 A2953 1440 51 800 260/17G26 RMK AO2 PK WND 25026/2013
94908KDBQ DBQ20021129142511811/29/02 14:25:31  5-MIN KDBQ 292025Z 26017G24KT 10SM CLR 07/M03 A2953 1440 49 800 260/17G24 RMK AO2 PK WND 25026/2013
94908KDBQ DBQ20021129143011811/29/02 14:30:31  5-MIN KDBQ 292030Z 26017G26KT 10SM CLR 07/M03 A2953 1440 49 800 260/17G26 RMK AO2 PK WND 26026/2028
94908KDBQ DBQ20021129143511811/29/02 14:35:31  5-MIN KDBQ 292035Z 26018G26KT 10SM CLR 07/M03 A2953 1440 51 800 260/18G26 RMK AO2 PK WND 26026/2028
94908KDBQ DBQ20021129144011211/29/02 14:40:31  5-MIN KDBQ 292040Z 26018KT 10SM CLR 07/M03 A2953 1440 51 800 260/18 RMK AO2 PK WND 26026/2028
94908KDBQ DBQ20021129144511811/29/02 14:45:31  5-MIN KDBQ 292045Z 26018G25KT 10SM CLR 07/M03 A2953 1440 47 900 260/18G25 RMK AO2 PK WND 26026/2028
94908KDBQ DBQ20021129145014111/29/02 14:50:31  5-MIN KDBQ 292050Z 26018G25KT 10SM CLR 07/M03 A2953 1440 49 800 250/18G25 RMK AO2 PK WND 26026/2028 SLP007 T00671033 58005
94908KDBQ DBQ20021129145514111/29/02 14:55:31  5-MIN KDBQ 292055Z 26016G25KT 10SM CLR 07/M03 A2953 1440 49 800 260/16G25 RMK AO2 PK WND 26026/2028 SLP006 T00671033 51005
94908KDBQ DBQ20021129150010011/29/02 15:00:31  5-MIN KDBQ 292100Z 26018G22KT 10SM CLR 07/M03 A2953 1440 49 800 260/18G22 RMK AO2
94908KDBQ DBQ20021129150509411/29/02 15:05:31  5-MIN KDBQ 292105Z 26019KT 10SM CLR 07/M03 A2953 1440 49 800 260/19 RMK AO2
94908KDBQ DBQ20021129151010011/29/02 15:10:31  5-MIN KDBQ 292110Z 26017G23KT 10SM CLR 07/M03 A2953 1440 49 800 260/17G23 RMK AO2
94908KDBQ DBQ20021129151510011/29/02 15:15:31  5-MIN KDBQ 292115Z 26015G23KT 10SM CLR 07/M04 A2953 1440 47 800 260/15G23 RMK AO2
94908KDBQ DBQ20021129152010011/29/02 15:20:31  5-MIN KDBQ 292120Z 26015G25KT 10SM CLR 07/M04 A2953 1440 47 800 260/15G25 RMK AO2
94908KDBQ DBQ20021129152510011/29/02 15:25:31  5-MIN KDBQ 292125Z 26014G25KT 10SM CLR 07/M04 A2952 1450 47 800 260/14G25 RMK AO2
94908KDBQ DBQ20021129153010011/29/02 15:30:31  5-MIN KDBQ 292130Z 26018G24KT 10SM CLR 07/M04 A2952 1450 47 800 260/18G24 RMK AO2
94908KDBQ DBQ20021129153510011/29/02 15:35:31  5-MIN KDBQ 292135Z 26017G24KT 10SM CLR 07/M04 A2952 1450 47 800 260/17G24 RMK AO2
94908KDBQ DBQ20021129154010011/29/02 15:40:31  5-MIN KDBQ 292140Z 26017G22KT 10SM CLR 07/M04 A2952 1450 47 800 260/17G22 RMK AO2
94908KDBQ DBQ20021129154510011/29/02 15:45:31  5-MIN KDBQ 292145Z 26014G24KT 10SM CLR 07/M04 A2952 1450 47 800 260/14G24 RMK AO2
94908KDBQ DBQ20021129155011711/29/02 15:50:31  5-MIN KDBQ 292150Z 26017G24KT 10SM CLR 07/M04 A2952 1450 47 800 260/17G24 RMK AO2 SLP002 T00671039
94908KDBQ DBQ20021129155511111/29/02 15:55:31  5-MIN KDBQ 292155Z 26017KT 10SM CLR 07/M04 A2951 1460 47 800 260/17 RMK AO2 SLP000 T00671039
94908KDBQ DBQ20021129160009411/29/02 16:00:31  5-MIN KDBQ 292200Z 26018KT 10SM CLR 06/M04 A2951 1460 48 800 260/18 RMK AO2
94908KDBQ DBQ20021129160509411/29/02 16:05:31  5-MIN KDBQ 292205Z 26015KT 10SM CLR 06/M04 A2952 1450 48 800 260/15 RMK AO2
94908KDBQ DBQ20021129161009411/29/02 16:10:31  5-MIN KDBQ 292210Z 26015KT 10SM CLR 06/M04 A2952 1450 50 700 260/15 RMK AO2
94908KDBQ DBQ20021129161509411/29/02 16:15:31  5-MIN KDBQ 292215Z 26016KT 10SM CLR 06/M04 A2952 1450 48 800 260/16 RMK AO2
94908KDBQ DBQ20021129162009411/29/02 16:20:31  5-MIN KDBQ 292220Z 26015KT 10SM CLR 06/M04 A2952 1450 50 700 260/15 RMK AO2
94908KDBQ DBQ20021129162509411/29/02 16:25:31  5-MIN KDBQ 292225Z 26013KT 10SM CLR 06/M04 A2953 1440 50 700 260/13 RMK AO2
94908KDBQ DBQ20021129163009411/29/02 16:30:31  5-MIN KDBQ 292230Z 26014KT 10SM CLR 06/M04 A2953 1440 50 700 260/14 RMK AO2
94908KDBQ DBQ20021129163509411/29/02 16:35:31  5-MIN KDBQ 292235Z 26013KT 10SM CLR 05/M04 A2953 1440 52 600 260/13 RMK AO2
94908KDBQ DBQ20021129164009411/29/02 16:40:31  5-MIN KDBQ 292240Z 26013KT 10SM CLR 05/M04 A2954 1430 52 600 260/13 RMK AO2
94908KDBQ DBQ20021129164509411/29/02 16:45:31  5-MIN KDBQ 292245Z 26014KT 10SM CLR 05/M04 A2954 1430 52 600 260/14 RMK AO2
94908KDBQ DBQ20021129165011111/29/02 16:50:31  5-MIN KDBQ 292250Z 26013KT 10SM CLR 05/M04 A2954 1430 52 600 260/13 RMK AO2 SLP009 T00501039
94908KDBQ DBQ20021129165511111/29/02 16:55:31  5-MIN KDBQ 292255Z 27013KT 10SM CLR 05/M04 A2954 1430 52 600 260/13 RMK AO2 SLP009 T00501039
94908KDBQ DBQ20021129170009411/29/02 17:00:31  5-MIN KDBQ 292300Z 26013KT 10SM CLR 04/M04 A2954 1440 55 500 260/13 RMK AO2
94908KDBQ DBQ20021129170509411/29/02 17:05:31  5-MIN KDBQ 292305Z 26013KT 10SM CLR 05/M04 A2954 1430 52 600 260/13 RMK AO2
94908KDBQ DBQ20021129171009411/29/02 17:10:31  5-MIN KDBQ 292310Z 26014KT 10SM CLR 05/M04 A2954 1440 52 600 260/14 RMK AO2
94908KDBQ DBQ20021129171509411/29/02 17:15:31  5-MIN KDBQ 292315Z 26014KT 10SM CLR 05/M04 A2954 1440 50 600 260/14 RMK AO2
94908KDBQ DBQ20021129172009411/29/02 17:20:31  5-MIN KDBQ 292320Z 26013KT 10SM CLR 05/M04 A2953 1440 50 600 260/13 RMK AO2
94908KDBQ DBQ20021129172509411/29/02 17:25:31  5-MIN KDBQ 292325Z 26013KT 10SM CLR 04/M04 A2954 1430 52 500 260/13 RMK AO2
94908KDBQ DBQ20021129173009411/29/02 17:30:31  5-MIN KDBQ 292330Z 26012KT 10SM CLR 04/M04 A2953 1440 55 500 260/12 RMK AO2
94908KDBQ DBQ20021129173509711/29/02 17:35:31  5-MIN KDBQ 292335Z 26012KT 10SM FEW065 04/M04 A2953 1440 55 500 260/12 RMK AO2
94908KDBQ DBQ20021129174009711/29/02 17:40:31  5-MIN KDBQ 292340Z 25014KT 10SM SCT065 05/M04 A2953 1440 52 600 250/14 RMK AO2
94908KDBQ DBQ20021129174509711/29/02 17:45:31  5-MIN KDBQ 292345Z 26013KT 10SM BKN065 05/M04 A2953 1440 52 600 260/13 RMK AO2
94908KDBQ DBQ20021129175013211/29/02 17:50:31  5-MIN KDBQ 292350Z 26014KT 10SM BKN065 05/M04 A2953 1440 52 600 260/14 RMK AO2 SLP008 T00501039 10078 20044 51005
94908KDBQ DBQ20021129175513211/29/02 17:55:31  5-MIN KDBQ 292355Z 26015KT 10SM BKN065 05/M04 A2953 1440 52 600 260/15 RMK AO2 SLP008 T00501039 10078 20044 53002
94908KDBQ DBQ20021129180009711/29/02 18:00:31  5-MIN KDBQ 300000Z 26015KT 10SM OVC065 06/M04 A2953 1440 50 700 260/15 RMK AO2
94908KDBQ DBQ20021129180509711/29/02 18:05:31  5-MIN KDBQ 300005Z 26016KT 10SM OVC065 06/M04 A2953 1440 50 700 260/16 RMK AO2
94908KDBQ DBQ20021129181010311/29/02 18:10:31  5-MIN KDBQ 300010Z 26017G23KT 10SM OVC065 06/M04 A2953 1440 48 700 260/17G23 RMK AO2
94908KDBQ DBQ20021129181510311/29/02 18:15:31  5-MIN KDBQ 300015Z 26017G23KT 10SM OVC065 06/M04 A2954 1440 48 700 260/17G23 RMK AO2
94908KDBQ DBQ20021129182010311/29/02 18:20:31  5-MIN KDBQ 300020Z 26016G23KT 10SM OVC065 06/M04 A2954 1430 48 700 260/16G23 RMK AO2
94908KDBQ DBQ20021129182510311/29/02 18:25:31  5-MIN KDBQ 300025Z 26015G23KT 10SM OVC065 06/M04 A2954 1430 48 700 260/15G23 RMK AO2
94908KDBQ DBQ20021129183010311/29/02 18:30:31  5-MIN KDBQ 300030Z 26014G22KT 10SM OVC065 06/M04 A2954 1430 48 700 260/14G22 RMK AO2
94908KDBQ DBQ20021129183510311/29/02 18:35:31  5-MIN KDBQ 300035Z 27015G20KT 10SM OVC065 06/M04 A2954 1430 48 700 270/15G20 RMK AO2
94908KDBQ DBQ20021129184009711/29/02 18:40:31  5-MIN KDBQ 300040Z 27015KT 10SM OVC070 06/M04 A2955 1430 48 700 270/15 RMK AO2
94908KDBQ DBQ20021129184510311/29/02 18:45:31  5-MIN KDBQ 300045Z 27015G21KT 10SM OVC070 06/M04 A2955 1420 48 700 270/15G21 RMK AO2
94908KDBQ DBQ20021129185011411/29/02 18:50:31  5-MIN KDBQ 300050Z 27015KT 10SM OVC070 06/M04 A2955 1420 48 700 270/15 RMK AO2 SLP014 T00561044
94908KDBQ DBQ20021129185511411/29/02 18:55:31  5-MIN KDBQ 300055Z 27016KT 10SM OVC070 06/M04 A2955 1420 46 700 270/16 RMK AO2 SLP013 T00611044
94908KDBQ DBQ20021129190009711/29/02 19:00:31  5-MIN KDBQ 300100Z 27016KT 10SM OVC070 06/M04 A2955 1420 46 700 270/16 RMK AO2
94908KDBQ DBQ20021129190509711/29/02 19:05:31  5-MIN KDBQ 300105Z 27016KT 10SM OVC070 06/M04 A2955 1420 46 700 270/16 RMK AO2
94908KDBQ DBQ20021129191009711/29/02 19:10:31  5-MIN KDBQ 300110Z 28015KT 10SM OVC070 06/M04 A2955 1420 46 700 280/15 RMK AO2
94908KDBQ DBQ20021129191509711/29/02 19:15:31  5-MIN KDBQ 300115Z 27014KT 10SM OVC065 06/M04 A2955 1420 46 700 270/14 RMK AO2
94908KDBQ DBQ20021129192009711/29/02 19:20:31  5-MIN KDBQ 300120Z 27015KT 10SM OVC065 06/M05 A2955 1420 45 700 270/15 RMK AO2
94908KDBQ DBQ20021129192509711/29/02 19:25:31  5-MIN KDBQ 300125Z 27014KT 10SM OVC065 06/M05 A2955 1420 45 700 270/14 RMK AO2
94908KDBQ DBQ20021129193010311/29/02 19:30:31  5-MIN KDBQ 300130Z 27016G22KT 10SM OVC065 06/M05 A2955 1420 45 700 270/16G22 RMK AO2
94908KDBQ DBQ20021129193510311/29/02 19:35:31  5-MIN KDBQ 300135Z 28017G22KT 10SM OVC065 06/M05 A2955 1430 45 700 280/17G22 RMK AO2
94908KDBQ DBQ20021129194010311/29/02 19:40:31  5-MIN KDBQ 300140Z 28016G22KT 10SM OVC065 06/M05 A2954 1430 45 700 280/16G22 RMK AO2
94908KDBQ DBQ20021129194510311/29/02 19:45:31  5-MIN KDBQ 300145Z 28017G25KT 10SM OVC065 06/M05 A2955 1430 45 700 280/17G25 RMK AO2
94908KDBQ DBQ20021129195012011/29/02 19:50:31  5-MIN KDBQ 300150Z 28018G25KT 10SM OVC070 06/M05 A2954 1430 45 700 280/18G25 RMK AO2 SLP011 T00611050
94908KDBQ DBQ20021129195513011/29/02 19:55:31  5-MIN KDBQ 300155Z AUTO 28018G24KT 10SM OVC070 06/M05 A2954 1430 45 700 280/18G24 RMK AO2 SLP010 T00611050 TSNO
94908KDBQ DBQ20021129200011311/29/02 20:00:31  5-MIN KDBQ 300200Z AUTO 28015G24KT 10SM OVC070 06/M05 A2954 1430 45 700 280/15G24 RMK AO2 TSNO
94908KDBQ DBQ20021129200511311/29/02 20:05:31  5-MIN KDBQ 300205Z AUTO 28016G23KT 10SM OVC070 06/M05 A2954 1430 45 700 280/16G23 RMK AO2 TSNO
94908KDBQ DBQ20021129201013111/29/02 20:10:31  5-MIN KDBQ 300210Z AUTO 29020G26KT 10SM OVC070 06/M05 A2954 1430 45 700 280/20G26 RMK AO2 PK WND 28026/0209 TSNO
94908KDBQ DBQ20021129201513111/29/02 20:15:31  5-MIN KDBQ 300215Z AUTO 29017G26KT 10SM OVC070 06/M05 A2954 1430 45 700 290/17G26 RMK AO2 PK WND 28026/0209 TSNO
94908KDBQ DBQ20021129202013111/29/02 20:20:31  5-MIN KDBQ 300220Z AUTO 29019G25KT 10SM OVC070 06/M05 A2954 1430 45 700 290/19G25 RMK AO2 PK WND 28026/0209 TSNO
94908KDBQ DBQ20021129202513111/29/02 20:25:31  5-MIN KDBQ 300225Z AUTO 28017G25KT 10SM OVC075 06/M05 A2954 1430 45 700 280/17G25 RMK AO2 PK WND 28026/0209 TSNO
94908KDBQ DBQ20021129203013111/29/02 20:30:31  5-MIN KDBQ 300230Z AUTO 28022G26KT 10SM BKN075 06/M05 A2954 1430 45 700 280/22G26 RMK AO2 PK WND 29026/0229 TSNO
94908KDBQ DBQ20021129203513111/29/02 20:35:31  5-MIN KDBQ 300235Z AUTO 29019G26KT 10SM BKN075 06/M05 A2954 1430 45 700 290/19G26 RMK AO2 PK WND 30026/0231 TSNO
94908KDBQ DBQ20021129204013111/29/02 20:40:31  5-MIN KDBQ 300240Z AUTO 29020G24KT 10SM BKN080 06/M05 A2954 1430 46 700 290/20G24 RMK AO2 PK WND 30026/0231 TSNO
94908KDBQ DBQ20021129204513111/29/02 20:45:31  5-MIN KDBQ 300245Z AUTO 29018G24KT 10SM BKN080 06/M05 A2955 1430 46 700 290/18G24 RMK AO2 PK WND 30026/0231 TSNO
94908KDBQ DBQ20021129205015411/29/02 20:50:31  5-MIN KDBQ 300250Z AUTO 29019G27KT 10SM BKN080 06/M05 A2955 1420 46 700 290/19G27 RMK AO2 PK WND 28027/0247 SLP013 T00561050 53002 TSNO
94908KDBQ DBQ20021129205515411/29/02 20:55:31  5-MIN KDBQ 300255Z AUTO 29018G27KT 10SM SCT080 06/M05 A2955 1420 46 700 290/18G27 RMK AO2 PK WND 28027/0247 SLP012 T00561050 51005 TSNO
94908KDBQ DBQ20021129210013111/29/02 21:00:31  5-MIN KDBQ 300300Z AUTO 28019G31KT 10SM SCT080 06/M05 A2955 1420 46 700 280/19G31 RMK AO2 PK WND 29031/0257 TSNO
94908KDBQ DBQ20021129210513111/29/02 21:05:31  5-MIN KDBQ 300305Z AUTO 28020G31KT 10SM FEW080 06/M05 A2955 1420 46 700 280/20G31 RMK AO2 PK WND 29031/0257 TSNO
94908KDBQ DBQ20021129211013111/29/02 21:10:31  5-MIN KDBQ 300310Z AUTO 28016G29KT 10SM FEW080 05/M05 A2955 1420 48 600 280/16G29 RMK AO2 PK WND 29031/0257 TSNO
94908KDBQ DBQ20021129211513111/29/02 21:15:31  5-MIN KDBQ 300315Z AUTO 29020G23KT 10SM FEW080 05/M05 A2955 1420 48 600 290/20G23 RMK AO2 PK WND 29031/0257 TSNO
94908KDBQ DBQ20021129212012511/29/02 21:20:31  5-MIN KDBQ 300320Z AUTO 28018KT 10SM SCT085 05/M05 A2955 1420 48 600 280/18 RMK AO2 PK WND 29031/0257 TSNO
94908KDBQ DBQ20021129212513111/29/02 21:25:31  5-MIN KDBQ 300325Z AUTO 29017G23KT 10SM BKN085 05/M04 A2955 1430 50 600 290/17G23 RMK AO2 PK WND 29031/0257 TSNO
94908KDBQ DBQ20021129213013111/29/02 21:30:31  5-MIN KDBQ 300330Z AUTO 29016G22KT 10SM BKN085 04/M04 A2954 1430 52 500 290/16G22 RMK AO2 PK WND 29031/0257 TSNO
94908KDBQ DBQ20021129213512511/29/02 21:35:31  5-MIN KDBQ 300335Z AUTO 29016KT 10SM SCT085 04/M04 A2954 1430 52 500 280/16 RMK AO2 PK WND 29031/0257 TSNO
94908KDBQ DBQ20021129214013111/29/02 21:40:31  5-MIN KDBQ 300340Z AUTO 28017G23KT 10SM SCT085 05/M04 A2954 1430 50 600 280/17G23 RMK AO2 PK WND 29031/0257 TSNO
94908KDBQ DBQ20021129214513111/29/02 21:45:31  5-MIN KDBQ 300345Z AUTO 28013G23KT 10SM BKN085 04/M04 A2954 1430 52 500 280/13G23 RMK AO2 PK WND 29031/0257 TSNO
94908KDBQ DBQ20021129215014211/29/02 21:50:31  5-MIN KDBQ 300350Z AUTO 28013KT 10SM BKN090 04/M04 A2954 1430 52 500 280/13 RMK AO2 PK WND 29031/0257 SLP011 T00441044 TSNO
94908KDBQ DBQ20021129215514211/29/02 21:55:31  5-MIN KDBQ 300355Z AUTO 28013KT 10SM BKN090 04/M04 A2954 1430 52 500 280/13 RMK AO2 PK WND 29031/0257 SLP010 T00441044 TSNO
94908KDBQ DBQ20021129220011311/29/02 22:00:31  5-MIN KDBQ 300400Z AUTO 28014G18KT 10SM BKN085 04/M04 A2954 1430 54 500 280/14G18 RMK AO2 TSNO
94908KDBQ DBQ20021129220511311/29/02 22:05:31  5-MIN KDBQ 300405Z AUTO 28018G24KT 10SM BKN085 04/M04 A2954 1430 52 500 280/18G24 RMK AO2 TSNO
94908KDBQ DBQ20021129221011311/29/02 22:10:31  5-MIN KDBQ 300410Z AUTO 29018G24KT 10SM OVC085 04/M04 A2954 1430 52 500 290/18G24 RMK AO2 TSNO
94908KDBQ DBQ20021129221510711/29/02 22:15:31  5-MIN KDBQ 300415Z AUTO 29017KT 10SM OVC085 04/M04 A2954 1430 52 500 290/17 RMK AO2 TSNO
94908KDBQ DBQ20021129222013111/29/02 22:20:31  5-MIN KDBQ 300420Z AUTO 29020G27KT 10SM OVC085 04/M04 A2954 1430 52 500 290/20G27 RMK AO2 PK WND 28027/0420 TSNO
94908KDBQ DBQ20021129222513111/29/02 22:25:31  5-MIN KDBQ 300425Z AUTO 29015G27KT 10SM OVC085 05/M03 A2954 1430 57 600 280/15G27 RMK AO2 PK WND 28027/0420 TSNO
94908KDBQ DBQ20021129223013111/29/02 22:30:31  5-MIN KDBQ 300430Z AUTO 29016G26KT 10SM OVC080 04/M03 A2954 1430 59 500 290/16G26 RMK AO2 PK WND 28027/0420 TSNO
94908KDBQ DBQ20021129223513111/29/02 22:35:31  5-MIN KDBQ 300435Z AUTO 28014G21KT 10SM OVC080 04/M04 A2954 1430 52 500 280/14G21 RMK AO2 PK WND 28027/0420 TSNO
94908KDBQ DBQ20021129224013111/29/02 22:40:31  5-MIN KDBQ 300440Z AUTO 29018G25KT 10SM OVC080 04/M04 A2954 1430 52 500 290/18G25 RMK AO2 PK WND 28027/0420 TSNO
94908KDBQ DBQ20021129224513111/29/02 22:45:31  5-MIN KDBQ 300445Z AUTO 29019G25KT 10SM OVC080 04/M04 A2955 1430 55 500 290/19G25 RMK AO2 PK WND 28027/0420 TSNO
94908KDBQ DBQ20021129225014811/29/02 22:50:31  5-MIN KDBQ 300450Z AUTO 29025G29KT 10SM OVC080 04/M04 A2955 1430 55 500 290/25G29 RMK AO2 PK WND 29029/0449 SLP011 T00441039 TSNO
94908KDBQ DBQ20021129225515511/29/02 22:55:31  5-MIN KDBQ 300455Z AUTO 29017G29KT 10SM FEW042 OVC080 04/M04 A2955 1420 55 500 290/17G29 RMK AO2 PK WND 29029/0449 SLP012 T00441039 TSNO
94908KDBQ DBQ20021129230012711/29/02 23:00:31  5-MIN KDBQ 300500Z AUTO 29020G24KT 10SM FEW042 SCT065 OVC080 04/M03 A2955 1420 57 500 290/20G24 RMK AO2 TSNO
94908KDBQ DBQ20021129230514511/29/02 23:05:31  5-MIN KDBQ 300505Z AUTO 29023G29KT 10SM FEW040 BKN065 OVC080 04/M03 A2955 1420 57 500 290/23G29 RMK AO2 PK WND 29029/0505 TSNO
94908KDBQ DBQ20021129231014511/29/02 23:10:31  5-MIN KDBQ 300510Z AUTO 29018G29KT 10SM FEW040 BKN070 OVC085 04/M03 A2955 1420 57 500 290/18G29 RMK AO2 PK WND 29029/0505 TSNO
94908KDBQ DBQ20021129231514511/29/02 23:15:31  5-MIN KDBQ 300515Z AUTO 29016G27KT 10SM SCT038 BKN070 OVC080 04/M03 A2956 1420 59 500 290/16G27 RMK AO2 PK WND 29029/0505 TSNO
94908KDBQ DBQ20021129232013811/29/02 23:20:31  5-MIN KDBQ 300520Z AUTO 28025G30KT 10SM BKN038 OVC070 04/M02 A2956 1410 64 400 280/25G30 RMK AO2 PK WND 28030/0519 TSNO
94908KDBQ DBQ20021129232516011/29/02 23:25:31  5-MIN KDBQ 300525Z AUTO 29019G32KT 8SM -SN BKN036 BKN046 OVC070 03/M01 A2956 1420 75 300 290/19G32 RMK AO2 PK WND 30032/0521 SNB23 P0000 TSNO
94908KDBQ DBQ20021129233016011/29/02 23:30:31  5-MIN KDBQ 300530Z AUTO 29018G32KT 8SM -SN SCT036 BKN046 OVC080 03/M02 A2956 1420 72 300 290/18G32 RMK AO2 PK WND 30032/0521 SNB23 P0000 TSNO
94908KDBQ DBQ20021129233515911/29/02 23:35:31  5-MIN KDBQ 300535Z AUTO 29022G26KT 9SM SCT036 BKN070 OVC080 03/M03 A2956 1420 67 300 290/22G26 RMK AO2 PK WND 30032/0521 SNB23E34 P0000 TSNO
94908KDBQ DBQ20021129234016011/29/02 23:40:31  5-MIN KDBQ 300540Z AUTO 27015G26KT 10SM SCT036 SCT047 OVC080 03/M04 A2955 1420 61 300 270/15G26 RMK AO2 PK WND 30032/0521 SNB23E34 P0000 TSNO
94908KDBQ DBQ20021129234515311/29/02 23:45:31  5-MIN KDBQ 300545Z AUTO 28018G25KT 10SM FEW036 OVC085 03/M04 A2955 1420 59 300 280/18G25 RMK AO2 PK WND 30032/0521 SNB23E34 P0000 TSNO
94908KDBQ DBQ20021129235020411/29/02 23:50:31  5-MIN KDBQ 300550Z AUTO 28023G26KT 10SM FEW048 OVC085 02/M05 A2956 1420 59 200 280/23G26 RMK AO2 PK WND 30032/0521 SNB23E34 SLP015 P0000 60000 T00221050 10061 20022 400780022 51005 TSNO
94908KDBQ DBQ20021129235519711/29/02 23:55:31  5-MIN KDBQ 300555Z AUTO 29025G31KT 10SM OVC085 02/M06 A2955 1420 56 300 290/25G31 RMK AO2 PK WND 30032/0521 SNB23E34 SLP015 P0000 60000 T00221056 10061 20022 400780022 53002 TSNO
94908KDBQ DBQ20021130000013111/30/02 00:00:31  5-MIN KDBQ 300600Z AUTO 29023G33KT 10SM OVC085 02/M07 A2956 1420 52 200 290/23G33 RMK AO2 PK WND 30033/0556 TSNO
94908KDBQ DBQ20021130000513111/30/02 00:05:31  5-MIN KDBQ 300605Z AUTO 29026G33KT 10SM OVC085 02/M06 A2956 1410 56 200 290/26G33 RMK AO2 PK WND 28033/0602 TSNO
94908KDBQ DBQ20021130001013111/30/02 00:10:31  5-MIN KDBQ 300610Z AUTO 30022G33KT 10SM OVC085 02/M06 A2957 1410 56 200 300/22G33 RMK AO2 PK WND 28033/0602 TSNO
94908KDBQ DBQ20021130001513811/30/02 00:15:31  5-MIN KDBQ 300615Z AUTO 30022G32KT 10SM FEW039 OVC085 02/M07 A2957 1410 54 200 290/22G32 RMK AO2 PK WND 28033/0602 TSNO
94908KDBQ DBQ20021130002013811/30/02 00:20:31  5-MIN KDBQ 300620Z AUTO 30021G32KT 10SM SCT039 OVC085 01/M07 A2957 1400 56 100 290/21G32 RMK AO2 PK WND 28033/0602 TSNO
94908KDBQ DBQ20021130002513211/30/02 00:25:31  5-MIN KDBQ 300625Z AUTO 30025KT 10SM SCT039 OVC085 01/M07 A2957 1400 56 100 300/25 RMK AO2 PK WND 28033/0602 TSNO
94908KDBQ DBQ20021130003013811/30/02 00:30:31  5-MIN KDBQ 300630Z AUTO 30022G30KT 10SM SCT039 OVC090 01/M07 A2958 1400 56 100 300/22G30 RMK AO2 PK WND 28033/0602 TSNO
94908KDBQ DBQ20021130003513611/30/02 00:35:31  5-MIN KDBQ 300635Z AUTO 30020G30KT 10SM SCT037 OVC085 01/M07 A2958 1400 58 0 300/20G30 RMK AO2 PK WND 28033/0602 TSNO
94908KDBQ DBQ20021130004013611/30/02 00:40:31  5-MIN KDBQ 300640Z AUTO 30015G25KT 10SM SCT037 OVC085 01/M07 A2958 1400 56 0 300/15G25 RMK AO2 PK WND 28033/0602 TSNO
94908KDBQ DBQ20021130004513611/30/02 00:45:31  5-MIN KDBQ 300645Z AUTO 30017G25KT 10SM BKN037 OVC090 00/M07 A2958 1390 61 0 300/17G25 RMK AO2 PK WND 28033/0602 TSNO
94908KDBQ DBQ20021130005014711/30/02 00:50:31  5-MIN KDBQ 300650Z AUTO 30018KT 10SM BKN035 OVC090 00/M07 A2959 1390 58 0 300/18 RMK AO2 PK WND 28033/0602 SLP026 T00001072 TSNO
94908KDBQ DBQ20021130005515711/30/02 00:55:31  5-MIN KDBQ 300655Z AUTO 30022G27KT 10SM BKN035 OVC085 M01/M08 A2959 1390 58 -100 300/22G27 RMK AO2 PK WND 28033/0602 SLP027 T10061078 TSNO
94908KDBQ DBQ20021130010014011/30/02 01:00:31  5-MIN KDBQ 300700Z AUTO 30022G29KT 10SM BKN035 OVC085 M01/M08 A2959 1390 58 -100 300/22G29 RMK AO2 PK WND 30029/0658 TSNO
94908KDBQ DBQ20021130010513311/30/02 01:05:31  5-MIN KDBQ 300705Z AUTO 30023G29KT 10SM OVC035 M01/M08 A2959 1380 56 -100 300/23G29 RMK AO2 PK WND 30029/0658 TSNO
94908KDBQ DBQ20021130011013311/30/02 01:10:31  5-MIN KDBQ 300710Z AUTO 31024G30KT 10SM OVC035 M01/M08 A2959 1380 58 -200 310/24G30 RMK AO2 PK WND 30030/0709 TSNO
94908KDBQ DBQ20021130011513311/30/02 01:15:31  5-MIN KDBQ 300715Z AUTO 30020G30KT 10SM OVC033 M01/M08 A2959 1380 60 -200 300/20G30 RMK AO2 PK WND 30030/0709 TSNO
94908KDBQ DBQ20021130012013311/30/02 01:20:31  5-MIN KDBQ 300720Z AUTO 30022G28KT 10SM OVC033 M01/M08 A2960 1380 60 -200 300/22G28 RMK AO2 PK WND 30030/0709 TSNO
94908KDBQ DBQ20021130012513311/30/02 01:25:31  5-MIN KDBQ 300725Z AUTO 30018G27KT 10SM OVC031 M01/M08 A2960 1370 60 -200 300/18G27 RMK AO2 PK WND 30030/0709 TSNO
94908KDBQ DBQ20021130013013311/30/02 01:30:31  5-MIN KDBQ 300730Z AUTO 31023G31KT 10SM OVC031 M02/M08 A2961 1370 60 -200 310/23G31 RMK AO2 PK WND 30031/0727 TSNO
94908KDBQ DBQ20021130013513311/30/02 01:35:31  5-MIN KDBQ 300735Z AUTO 31022G31KT 10SM OVC029 M02/M08 A2961 1370 63 -200 310/22G31 RMK AO2 PK WND 30031/0727 TSNO
94908KDBQ DBQ20021130014013311/30/02 01:40:31  5-MIN KDBQ 300740Z AUTO 31022G28KT 10SM OVC029 M02/M08 A2961 1370 63 -300 310/22G28 RMK AO2 PK WND 30031/0727 TSNO
94908KDBQ DBQ20021130014514011/30/02 01:45:31  5-MIN KDBQ 300745Z AUTO 31026G33KT 10SM BKN029 OVC037 M02/M08 A2961 1360 63 -300 310/26G33 RMK AO2 PK WND 31033/0741 TSNO
94908KDBQ DBQ20021130015015711/30/02 01:50:31  5-MIN KDBQ 300750Z AUTO 31016G33KT 10SM SCT029 OVC039 M02/M08 A2962 1360 63 -300 310/16G33 RMK AO2 PK WND 31033/0741 SLP038 T10171078 TSNO
94908KDBQ DBQ20021130015516411/30/02 01:55:31  5-MIN KDBQ 300755Z AUTO 31024G31KT 10SM SCT029 BKN039 OVC049 M02/M08 A2962 1360 63 -300 310/24G31 RMK AO2 PK WND 31033/0741 SLP039 T10171078 TSNO
94908KDBQ DBQ20021130020014711/30/02 02:00:31  5-MIN KDBQ 300800Z AUTO 31024G31KT 10SM FEW027 SCT038 OVC049 M02/M08 A2962 1350 66 -300 300/24G31 RMK AO2 PK WND 30031/0758 TSNO
94908KDBQ DBQ20021130020514011/30/02 02:05:31  5-MIN KDBQ 300805Z AUTO 32021G31KT 10SM FEW027 OVC045 M02/M08 A2963 1350 66 -300 320/21G31 RMK AO2 PK WND 30031/0758 TSNO
94908KDBQ DBQ20021130021014711/30/02 02:10:31  5-MIN KDBQ 300810Z AUTO 31022G30KT 10SM FEW025 SCT040 OVC047 M02/M08 A2963 1340 66 -300 310/22G30 RMK AO2 PK WND 30031/0758 TSNO
94908KDBQ DBQ20021130021514011/30/02 02:15:31  5-MIN KDBQ 300815Z AUTO 31022G29KT 10SM FEW025 OVC049 M02/M08 A2964 1340 66 -400 310/22G29 RMK AO2 PK WND 30031/0758 TSNO
94908KDBQ DBQ20021130022014011/30/02 02:20:31  5-MIN KDBQ 300820Z AUTO 31027G34KT 10SM FEW025 OVC049 M02/M08 A2964 1340 66 -400 310/27G34 RMK AO2 PK WND 30034/0820 TSNO
94908KDBQ DBQ20021130022514711/30/02 02:25:31  5-MIN KDBQ 300825Z AUTO 32021G34KT 10SM FEW025 SCT035 OVC049 M03/M08 A2964 1340 68 -400 320/21G34 RMK AO2 PK WND 30034/0820 TSNO
94908KDBQ DBQ20021130023014711/30/02 02:30:31  5-MIN KDBQ 300830Z AUTO 31021G30KT 10SM FEW025 BKN037 OVC049 M03/M08 A2964 1330 68 -400 310/21G30 RMK AO2 PK WND 30034/0820 TSNO
94908KDBQ DBQ20021130023514011/30/02 02:35:31  5-MIN KDBQ 300835Z AUTO 31024G31KT 10SM BKN037 OVC049 M03/M08 A2965 1330 66 -400 310/24G31 RMK AO2 PK WND 30034/0820 TSNO
94908KDBQ DBQ20021130024014711/30/02 02:40:31  5-MIN KDBQ 300840Z AUTO 32023G31KT 10SM FEW028 BKN037 OVC049 M03/M08 A2965 1330 66 -400 310/23G31 RMK AO2 PK WND 30034/0820 TSNO
94908KDBQ DBQ20021130024514011/30/02 02:45:31  5-MIN KDBQ 300845Z AUTO 31020G27KT 10SM FEW028 OVC037 M03/M09 A2966 1320 63 -400 310/20G27 RMK AO2 PK WND 30034/0820 TSNO
94908KDBQ DBQ20021130025016311/30/02 02:50:31  5-MIN KDBQ 300850Z AUTO 32024G28KT 10SM FEW030 OVC037 M03/M09 A2966 1320 63 -400 320/24G28 RMK AO2 PK WND 30034/0820 SLP052 T10281089 53002 TSNO
94908KDBQ DBQ20021130025516311/30/02 02:55:31  5-MIN KDBQ 300855Z AUTO 31026G30KT 10SM SCT030 OVC037 M03/M09 A2966 1320 63 -400 310/26G30 RMK AO2 PK WND 30034/0820 SLP053 T10281089 53035 TSNO
94908KDBQ DBQ20021130030014011/30/02 03:00:31  5-MIN KDBQ 300900Z AUTO 31020G30KT 10SM BKN030 OVC037 M03/M09 A2966 1320 63 -500 310/20G30 RMK AO2 PK WND 32028/0858 TSNO
