94908KDBQ DBQ20000601000012106/01/00 00:00:32  5-MIN KDBQ 010600Z AUTO 12011KT 10SM SCT046 BKN070 19/17 A2998 1030 87 1800 120/11 RMK AO2 PRESRR TSNO
94908KDBQ DBQ20000601000512106/01/00 00:05:31  5-MIN KDBQ 010605Z AUTO 12012KT 10SM SCT046 SCT070 BKN090 19/17 A2998 1020 90 1800 120/12 RMK AO2 TSNO
94908KDBQ DBQ20000601001012106/01/00 00:10:31  5-MIN KDBQ 010610Z AUTO 12011KT 10SM SCT046 SCT070 BKN090 19/17 A2998 1020 87 1800 120/11 RMK AO2 TSNO
94908KDBQ DBQ20000601001511406/01/00 00:15:31  5-MIN KDBQ 010615Z AUTO 13011KT 10SM SCT046 BKN090 19/17 A2997 1030 87 1800 130/11 RMK AO2 TSNO
94908KDBQ DBQ20000601002011406/01/00 00:20:31  5-MIN KDBQ 010620Z AUTO 12012KT 10SM SCT048 BKN090 19/17 A2998 1030 87 1800 120/12 RMK AO2 TSNO
94908KDBQ DBQ20000601002512106/01/00 00:25:31  5-MIN KDBQ 010625Z AUTO 13011KT 10SM SCT048 SCT055 BKN090 19/17 A2998 1030 87 1800 130/11 RMK AO2 TSNO
94908KDBQ DBQ20000601003011406/01/00 00:30:31  5-MIN KDBQ 010630Z AUTO 13012KT 10SM SCT050 BKN090 19/17 A2998 1030 87 1800 120/12 RMK AO2 TSNO
94908KDBQ DBQ20000601003511406/01/00 00:35:31  5-MIN KDBQ 010635Z AUTO 12013KT 10SM BKN050 BKN090 19/17 A2997 1030 87 1800 120/13 RMK AO2 TSNO
94908KDBQ DBQ20000601004011306/01/00 00:40:31  5-MIN KDBQ 010640Z AUTO 12013G19KT 10SM BKN050 19/17 A2998 1030 87 1800 120/13G19 RMK AO2 TSNO
94908KDBQ DBQ20000601004512006/01/00 00:45:31  5-MIN KDBQ 010645Z AUTO 13011G19KT 10SM BKN050 BKN060 19/17 A2998 1030 87 1800 130/11G19 RMK AO2 TSNO
94908KDBQ DBQ20000601005012406/01/00 00:50:31  5-MIN KDBQ 010650Z AUTO 12011KT 10SM BKN050 19/17 A2998 1020 87 1800 120/11 RMK AO2 SLP149 T01940172 TSNO
94908KDBQ DBQ20000601005512406/01/00 00:55:31  5-MIN KDBQ 010655Z AUTO 12012KT 10SM BKN050 19/17 A2998 1020 87 1800 120/12 RMK AO2 SLP151 T01940172 TSNO
94908KDBQ DBQ20000601010010706/01/00 01:00:31  5-MIN KDBQ 010700Z AUTO 12010KT 10SM BKN048 19/17 A2999 1020 87 1800 120/10 RMK AO2 TSNO
94908KDBQ DBQ20000601010511406/01/00 01:05:31  5-MIN KDBQ 010705Z AUTO 12010KT 10SM BKN048 BKN060 19/17 A2999 1020 87 1800 120/10 RMK AO2 TSNO
94908KDBQ DBQ20000601011011406/01/00 01:10:31  5-MIN KDBQ 010710Z AUTO 12010KT 10SM BKN048 BKN060 19/17 A2999 1010 87 1800 120/10 RMK AO2 TSNO
94908KDBQ DBQ20000601011511406/01/00 01:15:31  5-MIN KDBQ 010715Z AUTO 11010KT 10SM BKN048 BKN060 19/17 A2999 1020 87 1800 110/10 RMK AO2 TSNO
94908KDBQ DBQ20000601012011406/01/00 01:20:31  5-MIN KDBQ 010720Z AUTO 13010KT 10SM SCT048 BKN060 19/17 A2999 1020 87 1800 130/10 RMK AO2 TSNO
94908KDBQ DBQ20000601012511406/01/00 01:25:31  5-MIN KDBQ 010725Z AUTO 13011KT 10SM SCT048 SCT060 19/17 A2999 1020 87 1800 130/11 RMK AO2 TSNO
94908KDBQ DBQ20000601013011406/01/00 01:30:31  5-MIN KDBQ 010730Z AUTO 13012KT 10SM FEW048 SCT060 19/17 A2999 1010 87 1800 130/12 RMK AO2 TSNO
94908KDBQ DBQ20000601013512106/01/00 01:35:31  5-MIN KDBQ 010735Z AUTO 13011KT 10SM FEW048 SCT060 SCT070 19/17 A2999 1010 87 1800 120/11 RMK AO2 TSNO
94908KDBQ DBQ20000601014012106/01/00 01:40:31  5-MIN KDBQ 010740Z AUTO 14010KT 10SM FEW046 SCT065 BKN080 19/17 A2999 1010 87 1800 140/10 RMK AO2 TSNO
94908KDBQ DBQ20000601014512106/01/00 01:45:31  5-MIN KDBQ 010745Z AUTO 14009KT 10SM SCT046 SCT060 BKN080 19/17 A2999 1010 87 1800 130/09 RMK AO2 TSNO
94908KDBQ DBQ20000601015013806/01/00 01:50:31  5-MIN KDBQ 010750Z AUTO 14008KT 10SM SCT046 SCT065 BKN090 19/17 A2999 1010 87 1800 140/08 RMK AO2 SLP153 T01940172 TSNO
94908KDBQ DBQ20000601015513806/01/00 01:55:31  5-MIN KDBQ 010755Z AUTO 13009KT 10SM SCT046 SCT065 SCT080 19/17 A2999 1010 87 1800 130/09 RMK AO2 SLP152 T01940172 TSNO
94908KDBQ DBQ20000601020012106/01/00 02:00:31  5-MIN KDBQ 010800Z AUTO 13011KT 10SM SCT046 SCT065 SCT080 19/17 A2999 1010 87 1800 130/11 RMK AO2 TSNO
94908KDBQ DBQ20000601020510706/01/00 02:05:31  5-MIN KDBQ 010805Z AUTO 12010KT 10SM FEW046 19/17 A2999 1010 87 1800 120/10 RMK AO2 TSNO
94908KDBQ DBQ20000601021010706/01/00 02:10:31  5-MIN KDBQ 010810Z AUTO 13009KT 10SM FEW046 19/17 A2999 1010 87 1800 130/09 RMK AO2 TSNO
94908KDBQ DBQ20000601021510706/01/00 02:15:31  5-MIN KDBQ 010815Z AUTO 11011KT 10SM FEW046 19/17 A3000 1010 87 1800 110/11 RMK AO2 TSNO
94908KDBQ DBQ20000601022010406/01/00 02:20:31  5-MIN KDBQ 010820Z AUTO 12007KT 10SM CLR 19/17 A3000 1010 87 1800 120/07 RMK AO2 TSNO
94908KDBQ DBQ20000601022510406/01/00 02:25:31  5-MIN KDBQ 010825Z AUTO 08008KT 10SM CLR 19/17 A3000 1000 87 1800 070/08 RMK AO2 TSNO
94908KDBQ DBQ20000601023010706/01/00 02:30:31  5-MIN KDBQ 010830Z AUTO 35006KT 10SM FEW045 19/17 A3000 1000 87 1800 350/06 RMK AO2 TSNO
94908KDBQ DBQ20000601023510606/01/00 02:35:31  5-MIN KDBQ 010835Z AUTO 01011KT 9SM SCT043 19/18 A3000 1000 93 1700 010/11 RMK AO2 TSNO
94908KDBQ DBQ20000601024011306/01/00 02:40:31  5-MIN KDBQ 010840Z AUTO 03011KT 7SM SCT045 SCT050 18/18 A2999 1010 96 1700 030/11 RMK AO2 TSNO
94908KDBQ DBQ20000601024512906/01/00 02:45:31  5-MIN KDBQ 010845Z AUTO 05007KT 030V100 7SM FEW045 SCT050 19/18 A3000 1000 93 1700 050/07 030V100 RMK AO2 TSNO
94908KDBQ DBQ20000601025012906/01/00 02:50:31  5-MIN KDBQ 010850Z AUTO 02009KT 8SM SCT048 18/18 A3000 1010 96 1700 020/09 RMK AO2 SLP156 T01830178 50001 TSNO
94908KDBQ DBQ20000601025512906/01/00 02:55:31  5-MIN KDBQ 010855Z AUTO 02011KT 7SM BKN048 18/18 A3000 1000 96 1700 020/11 RMK AO2 SLP157 T01830178 51011 TSNO
94908KDBQ DBQ20000601030010606/01/00 03:00:31  5-MIN KDBQ 010900Z AUTO 03010KT 8SM BKN048 18/18 A3000 1000 96 1700 030/10 RMK AO2 TSNO
94908KDBQ DBQ20000601030510606/01/00 03:05:31  5-MIN KDBQ 010905Z AUTO 04010KT 8SM BKN048 19/18 A3000 1010 93 1700 040/10 RMK AO2 TSNO
94908KDBQ DBQ20000601031010606/01/00 03:10:31  5-MIN KDBQ 010910Z AUTO 06005KT 8SM BKN048 19/18 A3000 1010 93 1700 060/05 RMK AO2 TSNO
94908KDBQ DBQ20000601031510606/01/00 03:15:31  5-MIN KDBQ 010915Z AUTO 01011KT 8SM BKN048 18/18 A3000 1000 96 1700 010/11 RMK AO2 TSNO
94908KDBQ DBQ20000601032011306/01/00 03:20:31  5-MIN KDBQ 010920Z AUTO 02011KT 8SM FEW017 OVC048 18/17 A3000 1000 93 1700 020/11 RMK AO2 TSNO
94908KDBQ DBQ20000601032511306/01/00 03:25:31  5-MIN KDBQ 010925Z AUTO 03012KT 8SM FEW017 OVC046 18/17 A3000 1000 93 1700 030/12 RMK AO2 TSNO
94908KDBQ DBQ20000601033011306/01/00 03:30:31  5-MIN KDBQ 010930Z AUTO 02010KT 8SM FEW017 OVC044 18/17 A3001 1000 93 1700 020/10 RMK AO2 TSNO
94908KDBQ DBQ20000601033511206/01/00 03:35:31  5-MIN KDBQ 010935Z AUTO 02011KT 8SM SCT017 OVC044 18/17 A3001 990 93 1700 020/11 RMK AO2 TSNO
94908KDBQ DBQ20000601034011306/01/00 03:40:31  5-MIN KDBQ 010940Z AUTO 03010KT 9SM SCT017 OVC044 18/17 A3001 1000 93 1700 030/10 RMK AO2 TSNO
94908KDBQ DBQ20000601034511206/01/00 03:45:31  5-MIN KDBQ 010945Z AUTO 02012KT 9SM SCT017 OVC044 19/17 A3001 990 90 1700 020/12 RMK AO2 TSNO
94908KDBQ DBQ20000601035012906/01/00 03:50:31  5-MIN KDBQ 010950Z AUTO 02009KT 9SM SCT015 OVC044 19/17 A3001 990 90 1700 020/09 RMK AO2 SLP159 T01890172 TSNO
94908KDBQ DBQ20000601035513006/01/00 03:55:31  5-MIN KDBQ 010955Z AUTO 03009KT 9SM BKN015 OVC044 19/17 A3001 1000 90 1700 030/09 RMK AO2 SLP158 T01890172 TSNO
94908KDBQ DBQ20000601040011306/01/00 04:00:31  5-MIN KDBQ 011000Z AUTO 04008KT 9SM BKN015 OVC044 19/18 A3001 1000 93 1700 040/08 RMK AO2 TSNO
94908KDBQ DBQ20000601040511306/01/00 04:05:31  5-MIN KDBQ 011005Z AUTO 06005KT 8SM BKN015 OVC044 19/18 A3000 1000 93 1700 060/05 RMK AO2 TSNO
94908KDBQ DBQ20000601041010606/01/00 04:10:31  5-MIN KDBQ 011010Z AUTO 09005KT 8SM OVC015 18/18 A3000 1010 96 1700 090/05 RMK AO2 TSNO
94908KDBQ DBQ20000601041510606/01/00 04:15:31  5-MIN KDBQ 011015Z AUTO VRB04KT 7SM BKN015 18/17 A3000 1010 93 1700 VRB/04 RMK AO2 TSNO
94908KDBQ DBQ20000601042010606/01/00 04:20:31  5-MIN KDBQ 011020Z AUTO 09005KT 7SM BKN015 18/17 A3000 1010 93 1700 090/05 RMK AO2 TSNO
94908KDBQ DBQ20000601042510606/01/00 04:25:31  5-MIN KDBQ 011025Z AUTO 07003KT 7SM SCT015 18/17 A3000 1000 93 1700 070/03 RMK AO2 TSNO
94908KDBQ DBQ20000601043010906/01/00 04:30:31  5-MIN KDBQ 011030Z AUTO 05007KT 6SM BR SCT015 18/17 A3000 1010 93 1700 050/07 RMK AO2 TSNO
94908KDBQ DBQ20000601043510906/01/00 04:35:31  5-MIN KDBQ 011035Z AUTO 05007KT 6SM BR SCT015 18/18 A3000 1010 96 1700 050/07 RMK AO2 TSNO
94908KDBQ DBQ20000601044010906/01/00 04:40:31  5-MIN KDBQ 011040Z AUTO 06006KT 5SM BR SCT015 18/18 A3000 1000 96 1700 050/06 RMK AO2 TSNO
94908KDBQ DBQ20000601044510906/01/00 04:45:31  5-MIN KDBQ 011045Z AUTO 07007KT 5SM BR SCT015 18/18 A3000 1010 96 1700 070/07 RMK AO2 TSNO
94908KDBQ DBQ20000601045011606/01/00 04:50:31  5-MIN KDBQ 011050Z 08008KT 5SM BR SCT015 18/18 A3000 1000 96 1700 080/08 RMK AO2 SLP156 T01830178
94908KDBQ DBQ20000601045511606/01/00 04:55:31  5-MIN KDBQ 011055Z 08007KT 5SM BR FEW015 18/18 A3000 1000 96 1700 080/07 RMK AO2 SLP156 T01830178
94908KDBQ DBQ20000601050010606/01/00 05:00:31  5-MIN KDBQ 011100Z 08005KT 5SM BR FEW015 SCT070 18/18 A3000 1000 96 1700 080/05 RMK AO2
94908KDBQ DBQ20000601050509906/01/00 05:05:31  5-MIN KDBQ 011105Z 09007KT 5SM BR FEW015 18/18 A3000 1010 96 1700 090/07 RMK AO2
94908KDBQ DBQ20000601051009906/01/00 05:10:31  5-MIN KDBQ 011110Z 10007KT 5SM BR FEW015 18/18 A3000 1010 96 1700 100/07 RMK AO2
94908KDBQ DBQ20000601051509606/01/00 05:15:31  5-MIN KDBQ 011115Z 10007KT 5SM BR CLR 18/18 A3000 1010 96 1700 100/07 RMK AO2
94908KDBQ DBQ20000601052009606/01/00 05:20:31  5-MIN KDBQ 011120Z 10008KT 5SM BR CLR 18/18 A3000 1010 96 1700 100/08 RMK AO2
94908KDBQ DBQ20000601052509606/01/00 05:25:31  5-MIN KDBQ 011125Z 10006KT 5SM BR CLR 18/18 A3000 1000 96 1700 100/06 RMK AO2
94908KDBQ DBQ20000601053009906/01/00 05:30:31  5-MIN KDBQ 011130Z 09005KT 5SM BR FEW065 19/18 A3000 1000 93 1700 090/05 RMK AO2
94908KDBQ DBQ20000601053509906/01/00 05:35:31  5-MIN KDBQ 011135Z 09006KT 5SM BR FEW065 19/18 A3000 1000 93 1700 080/06 RMK AO2
94908KDBQ DBQ20000601054010606/01/00 05:40:31  5-MIN KDBQ 011140Z 10006KT 5SM BR FEW042 SCT065 19/18 A3000 1000 93 1700 100/06 RMK AO2
94908KDBQ DBQ20000601054510606/01/00 05:45:31  5-MIN KDBQ 011145Z 11009KT 5SM BR SCT042 BKN065 19/18 A3000 1010 93 1700 110/09 RMK AO2
94908KDBQ DBQ20000601055014706/01/00 05:50:31  5-MIN KDBQ 011150Z 11010KT 5SM BR SCT042 BKN065 19/18 A3000 1010 93 1700 110/10 RMK AO2 SLP154 70072 T01890178 10194 20183 51011
94908KDBQ DBQ20000601055514706/01/00 05:55:31  5-MIN KDBQ 011155Z 12011KT 5SM BR SCT042 SCT065 19/18 A3000 1010 93 1700 120/11 RMK AO2 SLP153 70072 T01890178 10194 20183 58002
94908KDBQ DBQ20000601060010606/01/00 06:00:31  5-MIN KDBQ 011200Z 12011KT 5SM BR FEW042 SCT065 19/18 A2999 1010 97 1700 120/11 RMK AO2
94908KDBQ DBQ20000601060509906/01/00 06:05:31  5-MIN KDBQ 011205Z 12011KT 5SM BR FEW042 19/18 A2999 1010 97 1700 120/11 RMK AO2
94908KDBQ DBQ20000601061009906/01/00 06:10:31  5-MIN KDBQ 011210Z 13011KT 5SM BR FEW040 19/18 A2999 1010 97 1700 120/11 RMK AO2
94908KDBQ DBQ20000601061509906/01/00 06:15:31  5-MIN KDBQ 011215Z 13010KT 5SM BR SCT040 19/18 A2999 1010 93 1800 120/10 RMK AO2
94908KDBQ DBQ20000601062010606/01/00 06:20:31  5-MIN KDBQ 011220Z 12011KT 5SM BR FEW038 SCT075 19/18 A2999 1010 93 1800 120/11 RMK AO2
94908KDBQ DBQ20000601062510606/01/00 06:25:31  5-MIN KDBQ 011225Z 13011KT 5SM BR FEW038 BKN075 19/18 A3000 1010 93 1800 130/11 RMK AO2
94908KDBQ DBQ20000601063010606/01/00 06:30:31  5-MIN KDBQ 011230Z 13011KT 5SM BR FEW038 BKN075 19/19 A3000 1010 97 1800 130/11 RMK AO2
94908KDBQ DBQ20000601063510606/01/00 06:35:31  5-MIN KDBQ 011235Z 13012KT 5SM BR FEW038 BKN075 20/19 A2999 1010 93 1900 130/12 RMK AO2
94908KDBQ DBQ20000601064010606/01/00 06:40:31  5-MIN KDBQ 011240Z 13012KT 5SM BR FEW038 BKN075 20/19 A2999 1010 93 1900 130/12 RMK AO2
94908KDBQ DBQ20000601064510606/01/00 06:45:31  5-MIN KDBQ 011245Z 14013KT 5SM BR FEW038 SCT075 20/19 A2999 1020 93 1900 140/13 RMK AO2
94908KDBQ DBQ20000601065011606/01/00 06:50:31  5-MIN KDBQ 011250Z 14014KT 5SM BR FEW075 21/19 A2999 1020 93 1900 140/14 RMK AO2 SLP149 T02060194
94908KDBQ DBQ20000601065511606/01/00 06:55:31  5-MIN KDBQ 011255Z 14014KT 4SM BR FEW075 21/19 A2999 1020 93 1900 140/14 RMK AO2 SLP149 T02060194
94908KDBQ DBQ20000601070009606/01/00 07:00:31  5-MIN KDBQ 011300Z 15014KT 4SM BR CLR 21/20 A2999 1020 93 2000 150/14 RMK AO2
94908KDBQ DBQ20000601070509606/01/00 07:05:31  5-MIN KDBQ 011305Z 15013KT 4SM BR CLR 21/20 A2999 1010 93 2000 140/13 RMK AO2
94908KDBQ DBQ20000601071009606/01/00 07:10:31  5-MIN KDBQ 011310Z 15014KT 4SM BR CLR 22/20 A2999 1010 90 2100 140/14 RMK AO2
94908KDBQ DBQ20000601071509606/01/00 07:15:31  5-MIN KDBQ 011315Z 15013KT 4SM BR CLR 22/20 A2999 1010 90 2100 150/13 RMK AO2
94908KDBQ DBQ20000601072009606/01/00 07:20:31  5-MIN KDBQ 011320Z 15014KT 4SM BR CLR 22/20 A2999 1020 90 2100 150/14 RMK AO2
94908KDBQ DBQ20000601072509606/01/00 07:25:31  5-MIN KDBQ 011325Z 15011KT 4SM BR CLR 22/20 A2999 1020 90 2100 150/11 RMK AO2
94908KDBQ DBQ20000601073009606/01/00 07:30:31  5-MIN KDBQ 011330Z 15010KT 4SM BR CLR 22/21 A2999 1020 93 2100 150/10 RMK AO2
94908KDBQ DBQ20000601073509606/01/00 07:35:31  5-MIN KDBQ 011335Z 16010KT 4SM BR CLR 22/21 A2999 1020 90 2100 160/10 RMK AO2
94908KDBQ DBQ20000601074009606/01/00 07:40:31  5-MIN KDBQ 011340Z 17011KT 5SM BR CLR 22/21 A2999 1020 90 2100 170/11 RMK AO2
94908KDBQ DBQ20000601074509606/01/00 07:45:31  5-MIN KDBQ 011345Z 16011KT 5SM BR CLR 22/21 A2999 1020 90 2100 160/11 RMK AO2
94908KDBQ DBQ20000601075011306/01/00 07:50:31  5-MIN KDBQ 011350Z 16012KT 5SM BR CLR 23/21 A2999 1020 87 2200 160/12 RMK AO2 SLP149 T02280206
94908KDBQ DBQ20000601075511606/01/00 07:55:31  5-MIN KDBQ 011355Z 17011KT 5SM BR FEW014 23/21 A2999 1020 87 2200 160/11 RMK AO2 SLP150 T02280206
94908KDBQ DBQ20000601080009906/01/00 08:00:31  5-MIN KDBQ 011400Z 16012KT 5SM BR FEW014 23/21 A2999 1020 90 2200 160/12 RMK AO2
94908KDBQ DBQ20000601080509906/01/00 08:05:31  5-MIN KDBQ 011405Z 18014KT 5SM HZ FEW014 23/21 A2998 1020 84 2300 180/14 RMK AO2
94908KDBQ DBQ20000601081009906/01/00 08:10:31  5-MIN KDBQ 011410Z 18013KT 5SM BR SCT014 23/21 A2998 1020 87 2300 170/13 RMK AO2
94908KDBQ DBQ20000601081509906/01/00 08:15:31  5-MIN KDBQ 011415Z 17012KT 5SM BR FEW014 23/21 A2998 1020 87 2300 170/12 RMK AO2
94908KDBQ DBQ20000601082009906/01/00 08:20:31  5-MIN KDBQ 011420Z 17012KT 5SM BR FEW014 23/21 A2998 1020 87 2300 170/12 RMK AO2
94908KDBQ DBQ20000601082509906/01/00 08:25:31  5-MIN KDBQ 011425Z 18014KT 5SM BR FEW014 23/21 A2997 1030 87 2300 180/14 RMK AO2
94908KDBQ DBQ20000601083009906/01/00 08:30:31  5-MIN KDBQ 011430Z 18013KT 5SM HZ FEW014 24/21 A2997 1030 84 2300 180/13 RMK AO2
94908KDBQ DBQ20000601083509606/01/00 08:35:31  5-MIN KDBQ 011435Z 18013KT 5SM HZ CLR 24/21 A2997 1030 84 2300 180/13 RMK AO2
94908KDBQ DBQ20000601084009606/01/00 08:40:31  5-MIN KDBQ 011440Z 18012KT 5SM HZ CLR 24/21 A2997 1030 84 2300 180/12 RMK AO2
94908KDBQ DBQ20000601084509606/01/00 08:45:31  5-MIN KDBQ 011445Z 18013KT 5SM HZ CLR 24/22 A2997 1030 84 2400 180/13 RMK AO2
94908KDBQ DBQ20000601085011906/01/00 08:50:31  5-MIN KDBQ 011450Z 18013KT 6SM HZ CLR 24/21 A2997 1030 81 2400 170/13 RMK AO2 SLP142 T02440211 58002
94908KDBQ DBQ20000601085512206/01/00 08:55:31  5-MIN KDBQ 011455Z 18012KT 6SM HZ FEW019 24/22 A2997 1030 84 2400 180/12 RMK AO2 SLP142 T02440217 58009
94908KDBQ DBQ20000601090009906/01/00 09:00:31  5-MIN KDBQ 011500Z 18012KT 6SM HZ FEW019 24/22 A2997 1040 84 2400 180/12 RMK AO2
94908KDBQ DBQ20000601090509906/01/00 09:05:31  5-MIN KDBQ 011505Z 18011KT 6SM HZ FEW019 25/22 A2997 1040 81 2500 170/11 RMK AO2
94908KDBQ DBQ20000601091009906/01/00 09:10:31  5-MIN KDBQ 011510Z 18012KT 6SM HZ FEW017 25/22 A2996 1040 84 2500 180/12 RMK AO2
94908KDBQ DBQ20000601091511306/01/00 09:15:31  5-MIN KDBQ 011515Z 19010KT 6SM HZ FEW017 SCT023 SCT070 25/22 A2997 1040 81 2500 190/10 RMK AO2
94908KDBQ DBQ20000601092009906/01/00 09:20:31  5-MIN KDBQ 011520Z 18012KT 6SM HZ FEW017 26/22 A2996 1040 81 2500 180/12 RMK AO2
94908KDBQ DBQ20000601092509906/01/00 09:25:31  5-MIN KDBQ 011525Z 19011KT 6SM HZ FEW023 26/22 A2997 1040 79 2500 190/11 RMK AO2
94908KDBQ DBQ20000601093009606/01/00 09:30:31  5-MIN KDBQ 011530Z 19013KT 7SM FEW023 26/22 A2996 1040 81 2500 190/13 RMK AO2
94908KDBQ DBQ20000601093510306/01/00 09:35:31  5-MIN KDBQ 011535Z 20012KT 7SM FEW023 SCT080 26/22 A2997 1040 79 2500 200/12 RMK AO2
94908KDBQ DBQ20000601094010306/01/00 09:40:31  5-MIN KDBQ 011540Z 19012KT 7SM SCT021 SCT085 26/22 A2997 1040 79 2500 190/12 RMK AO2
94908KDBQ DBQ20000601094510306/01/00 09:45:31  5-MIN KDBQ 011545Z 19010KT 7SM SCT021 SCT085 26/22 A2997 1030 81 2500 190/10 RMK AO2
94908KDBQ DBQ20000601095012006/01/00 09:50:31  5-MIN KDBQ 011550Z 19009KT 8SM SCT021 SCT085 26/22 A2997 1030 81 2500 190/09 RMK AO2 SLP142 T02560222
94908KDBQ DBQ20000601095512006/01/00 09:55:31  5-MIN KDBQ 011555Z 19012KT 8SM SCT021 SCT085 26/22 A2997 1030 79 2600 190/12 RMK AO2 SLP142 T02610222
94908KDBQ DBQ20000601100010306/01/00 10:00:31  5-MIN KDBQ 011600Z 20010KT 7SM FEW021 SCT080 26/22 A2997 1030 79 2500 200/10 RMK AO2
94908KDBQ DBQ20000601100510306/01/00 10:05:31  5-MIN KDBQ 011605Z 20010KT 7SM FEW021 SCT085 26/22 A2997 1030 76 2600 190/10 RMK AO2
94908KDBQ DBQ20000601101009606/01/00 10:10:31  5-MIN KDBQ 011610Z 19011KT 7SM FEW021 26/22 A2997 1030 79 2600 190/11 RMK AO2
94908KDBQ DBQ20000601101509606/01/00 10:15:31  5-MIN KDBQ 011615Z 19010KT 7SM FEW021 27/23 A2997 1040 79 2700 190/10 RMK AO2
94908KDBQ DBQ20000601102009606/01/00 10:20:31  5-MIN KDBQ 011620Z 19010KT 7SM FEW023 27/23 A2997 1030 79 2700 190/10 RMK AO2
94908KDBQ DBQ20000601102509606/01/00 10:25:31  5-MIN KDBQ 011625Z 19010KT 7SM FEW023 27/23 A2996 1040 79 2700 190/10 RMK AO2
94908KDBQ DBQ20000601103009606/01/00 10:30:31  5-MIN KDBQ 011630Z 18012KT 7SM FEW021 27/23 A2996 1040 79 2700 180/12 RMK AO2
94908KDBQ DBQ20000601103509606/01/00 10:35:31  5-MIN KDBQ 011635Z 20010KT 7SM FEW021 27/23 A2997 1040 79 2700 200/10 RMK AO2
94908KDBQ DBQ20000601104009606/01/00 10:40:31  5-MIN KDBQ 011640Z 20010KT 7SM FEW021 27/23 A2996 1040 76 2700 200/10 RMK AO2
94908KDBQ DBQ20000601104509306/01/00 10:45:31  5-MIN KDBQ 011645Z 18012KT 7SM CLR 27/23 A2996 1040 76 2700 180/12 RMK AO2
94908KDBQ DBQ20000601105011006/01/00 10:50:31  5-MIN KDBQ 011650Z 20011KT 8SM CLR 27/23 A2996 1040 76 2700 200/11 RMK AO2 SLP139 T02720228
94908KDBQ DBQ20000601105511306/01/00 10:55:31  5-MIN KDBQ 011655Z 19011KT 8SM FEW025 27/23 A2996 1040 76 2700 190/11 RMK AO2 SLP140 T02720228
94908KDBQ DBQ20000601110009606/01/00 11:00:31  5-MIN KDBQ 011700Z 19011KT 8SM FEW027 28/23 A2996 1040 74 2800 190/11 RMK AO2
94908KDBQ DBQ20000601110509606/01/00 11:05:31  5-MIN KDBQ 011705Z 18011KT 8SM FEW027 28/23 A2996 1040 74 2800 180/11 RMK AO2
94908KDBQ DBQ20000601111009606/01/00 11:10:31  5-MIN KDBQ 011710Z 19011KT 8SM FEW027 28/23 A2996 1050 74 2800 190/11 RMK AO2
94908KDBQ DBQ20000601111510206/01/00 11:15:31  5-MIN KDBQ 011715Z 19013G17KT 8SM FEW027 28/23 A2996 1040 71 2800 190/13G17 RMK AO2
94908KDBQ DBQ20000601112010206/01/00 11:20:31  5-MIN KDBQ 011720Z 18012G17KT 8SM FEW027 28/23 A2995 1050 74 2800 180/12G17 RMK AO2
94908KDBQ DBQ20000601112509606/01/00 11:25:31  5-MIN KDBQ 011725Z 19012KT 8SM FEW027 28/23 A2996 1050 71 2900 190/12 RMK AO2
94908KDBQ DBQ20000601113009306/01/00 11:30:31  5-MIN KDBQ 011730Z 20013KT 8SM CLR 28/23 A2995 1050 71 2900 190/13 RMK AO2
94908KDBQ DBQ20000601113509306/01/00 11:35:31  5-MIN KDBQ 011735Z 18012KT 8SM CLR 28/23 A2995 1050 74 2900 180/12 RMK AO2
94908KDBQ DBQ20000601114009306/01/00 11:40:31  5-MIN KDBQ 011740Z 18012KT 8SM CLR 28/23 A2995 1050 74 2900 180/12 RMK AO2
94908KDBQ DBQ20000601114509606/01/00 11:45:31  5-MIN KDBQ 011745Z 17012KT 8SM FEW026 28/23 A2995 1050 71 2900 170/12 RMK AO2
94908KDBQ DBQ20000601115012806/01/00 11:50:31  5-MIN KDBQ 011750Z 18012KT 8SM CLR 28/23 A2994 1060 74 2900 180/12 RMK AO2 SLP133 T02830233 10283 20189 58009
94908KDBQ DBQ20000601115512806/01/00 11:55:31  5-MIN KDBQ 011755Z 18012KT 8SM CLR 29/23 A2994 1060 69 2900 180/12 RMK AO2 SLP133 T02890228 10289 20189 58008
94908KDBQ DBQ20000601120009306/01/00 12:00:31  5-MIN KDBQ 011800Z 18013KT 8SM CLR 29/23 A2994 1060 69 2900 180/13 RMK AO2
94908KDBQ DBQ20000601120509306/01/00 12:05:31  5-MIN KDBQ 011805Z 18013KT 9SM CLR 29/23 A2994 1060 69 2900 180/13 RMK AO2
94908KDBQ DBQ20000601121009306/01/00 12:10:31  5-MIN KDBQ 011810Z 17014KT 9SM CLR 29/23 A2994 1060 69 2900 170/14 RMK AO2
94908KDBQ DBQ20000601121509906/01/00 12:15:31  5-MIN KDBQ 011815Z 18013G19KT 9SM CLR 29/23 A2994 1060 69 2900 180/13G19 RMK AO2
94908KDBQ DBQ20000601122009906/01/00 12:20:31  5-MIN KDBQ 011820Z 17014G19KT 9SM CLR 29/23 A2993 1070 69 3000 170/14G19 RMK AO2
94908KDBQ DBQ20000601122509306/01/00 12:25:31  5-MIN KDBQ 011825Z 18013KT 9SM CLR 29/23 A2993 1070 69 2900 170/13 RMK AO2
94908KDBQ DBQ20000601123009306/01/00 12:30:31  5-MIN KDBQ 011830Z 18015KT 9SM CLR 29/23 A2993 1070 69 3000 180/15 RMK AO2
94908KDBQ DBQ20000601123509306/01/00 12:35:31  5-MIN KDBQ 011835Z 17016KT 9SM CLR 29/23 A2993 1070 67 3000 170/16 RMK AO2
94908KDBQ DBQ20000601124009606/01/00 12:40:31  5-MIN KDBQ 011840Z 17012KT 9SM FEW036 29/23 A2993 1070 69 3000 170/12 RMK AO2
94908KDBQ DBQ20000601124509606/01/00 12:45:31  5-MIN KDBQ 011845Z 17016KT 9SM FEW036 29/23 A2993 1070 69 3000 170/16 RMK AO2
94908KDBQ DBQ20000601125011606/01/00 12:50:31  5-MIN KDBQ 011850Z 18016G21KT 9SM CLR 29/23 A2992 1080 69 3000 180/16G21 RMK AO2 SLP125 T02940233
94908KDBQ DBQ20000601125511606/01/00 12:55:31  5-MIN KDBQ 011855Z 17012G21KT 9SM CLR 29/23 A2992 1080 69 3000 170/12G21 RMK AO2 SLP124 T02940233
94908KDBQ DBQ20000601130009906/01/00 13:00:31  5-MIN KDBQ 011900Z 17017G21KT 9SM CLR 29/23 A2992 1080 69 3000 170/17G21 RMK AO2
94908KDBQ DBQ20000601130509906/01/00 13:05:31  5-MIN KDBQ 011905Z 17015G21KT 8SM CLR 29/23 A2992 1080 69 3000 170/15G21 RMK AO2
94908KDBQ DBQ20000601131009906/01/00 13:10:31  5-MIN KDBQ 011910Z 19018G21KT 9SM CLR 29/23 A2991 1090 69 3000 180/18G21 RMK AO2
94908KDBQ DBQ20000601131509906/01/00 13:15:31  5-MIN KDBQ 011915Z 18016G20KT 9SM CLR 29/23 A2991 1090 69 3000 180/16G20 RMK AO2
94908KDBQ DBQ20000601132009306/01/00 13:20:31  5-MIN KDBQ 011920Z 18013KT 9SM CLR 29/23 A2991 1090 69 3000 180/13 RMK AO2
94908KDBQ DBQ20000601132509306/01/00 13:25:31  5-MIN KDBQ 011925Z 17016KT 9SM CLR 30/23 A2991 1090 67 3100 170/16 RMK AO2
94908KDBQ DBQ20000601133009306/01/00 13:30:31  5-MIN KDBQ 011930Z 18015KT 9SM CLR 30/23 A2991 1090 67 3100 180/15 RMK AO2
94908KDBQ DBQ20000601133509306/01/00 13:35:31  5-MIN KDBQ 011935Z 17017KT 9SM CLR 30/23 A2991 1090 67 3100 170/17 RMK AO2
94908KDBQ DBQ20000601134009306/01/00 13:40:31  5-MIN KDBQ 011940Z 18016KT 9SM CLR 30/23 A2990 1100 67 3100 170/16 RMK AO2
94908KDBQ DBQ20000601134509906/01/00 13:45:31  5-MIN KDBQ 011945Z 18016G21KT 9SM CLR 30/23 A2990 1090 67 3100 180/16G21 RMK AO2
94908KDBQ DBQ20000601135011606/01/00 13:50:31  5-MIN KDBQ 011950Z 19018G23KT 9SM CLR 30/23 A2990 1100 67 3100 180/18G23 RMK AO2 SLP118 T03000233
94908KDBQ DBQ20000601135511906/01/00 13:55:31  5-MIN KDBQ 011955Z 17015G23KT 9SM FEW034 29/23 A2990 1100 69 3000 170/15G23 RMK AO2 SLP117 T02940233
94908KDBQ DBQ20000601140010206/01/00 14:00:31  5-MIN KDBQ 012000Z 17017G22KT 9SM FEW034 29/23 A2990 1100 69 3000 170/17G22 RMK AO2
94908KDBQ DBQ20000601140509306/01/00 14:05:31  5-MIN KDBQ 012005Z 18020KT 9SM CLR 30/23 A2989 1100 67 3100 180/20 RMK AO2
94908KDBQ DBQ20000601141009906/01/00 14:10:31  5-MIN KDBQ 012010Z 18015G24KT 9SM CLR 30/23 A2989 1110 67 3100 180/15G24 RMK AO2
94908KDBQ DBQ20000601141510206/01/00 14:15:31  5-MIN KDBQ 012015Z 17015G22KT 9SM FEW036 30/23 A2989 1110 67 3100 170/15G22 RMK AO2
94908KDBQ DBQ20000601142010206/01/00 14:20:31  5-MIN KDBQ 012020Z 18018G23KT 9SM FEW036 30/24 A2988 1110 69 3100 180/18G23 RMK AO2
94908KDBQ DBQ20000601142510206/01/00 14:25:31  5-MIN KDBQ 012025Z 19018G23KT 9SM FEW036 30/24 A2988 1120 69 3100 190/18G23 RMK AO2
94908KDBQ DBQ20000601143010206/01/00 14:30:31  5-MIN KDBQ 012030Z 18016G25KT 9SM FEW036 30/23 A2988 1120 67 3100 180/16G25 RMK AO2
94908KDBQ DBQ20000601143510206/01/00 14:35:31  5-MIN KDBQ 012035Z 18017G25KT 9SM FEW036 30/23 A2987 1120 67 3100 180/17G25 RMK AO2
94908KDBQ DBQ20000601144011706/01/00 14:40:31  5-MIN KDBQ 012040Z 19020G26KT 9SM CLR 30/23 A2987 1120 67 3100 190/20G26 RMK AO2 PK WND 19026/2040
94908KDBQ DBQ20000601144511706/01/00 14:45:31  5-MIN KDBQ 012045Z 19022G26KT 9SM CLR 30/23 A2987 1130 65 3100 190/22G26 RMK AO2 PK WND 19026/2040
94908KDBQ DBQ20000601145014006/01/00 14:50:31  5-MIN KDBQ 012050Z 19020G24KT 9SM CLR 30/23 A2987 1130 67 3100 190/20G24 RMK AO2 PK WND 19026/2040 SLP105 T03000233 58008
94908KDBQ DBQ20000601145514006/01/00 14:55:31  5-MIN KDBQ 012055Z 19019G24KT 9SM CLR 30/24 A2986 1130 69 3100 190/19G24 RMK AO2 PK WND 19026/2040 SLP104 T03000239 58027
94908KDBQ DBQ20000601150011706/01/00 15:00:31  5-MIN KDBQ 012100Z 18023G27KT 9SM CLR 30/23 A2986 1140 65 3100 180/23G27 RMK AO2 PK WND 19027/2059
94908KDBQ DBQ20000601150511806/01/00 15:05:31  5-MIN KDBQ 012105Z 18020G28KT 10SM CLR 30/22 A2986 1140 62 3100 180/20G28 RMK AO2 PK WND 18028/2102
94908KDBQ DBQ20000601151011806/01/00 15:10:31  5-MIN KDBQ 012110Z 19020G28KT 10SM CLR 30/23 A2986 1140 65 3100 180/20G28 RMK AO2 PK WND 18028/2106
94908KDBQ DBQ20000601151511706/01/00 15:15:31  5-MIN KDBQ 012115Z 19019G28KT 9SM CLR 30/23 A2985 1140 65 3200 190/19G28 RMK AO2 PK WND 18028/2106
94908KDBQ DBQ20000601152011806/01/00 15:20:31  5-MIN KDBQ 012120Z 20021G25KT 10SM CLR 30/23 A2985 1140 65 3200 200/21G25 RMK AO2 PK WND 18028/2106
94908KDBQ DBQ20000601152511806/01/00 15:25:31  5-MIN KDBQ 012125Z 20017G24KT 10SM CLR 30/23 A2985 1140 65 3200 190/17G24 RMK AO2 PK WND 18028/2106
94908KDBQ DBQ20000601153011206/01/00 15:30:31  5-MIN KDBQ 012130Z 19023KT 10SM CLR 30/23 A2985 1150 65 3200 190/23 RMK AO2 PK WND 18028/2106
94908KDBQ DBQ20000601153511806/01/00 15:35:31  5-MIN KDBQ 012135Z 19020G27KT 10SM CLR 30/23 A2984 1150 65 3200 190/20G27 RMK AO2 PK WND 18028/2106
94908KDBQ DBQ20000601154011806/01/00 15:40:31  5-MIN KDBQ 012140Z 19020G28KT 10SM CLR 30/23 A2984 1150 65 3200 190/20G28 RMK AO2 PK WND 19028/2138
94908KDBQ DBQ20000601154511806/01/00 15:45:31  5-MIN KDBQ 012145Z 20021G28KT 10SM CLR 30/23 A2984 1160 65 3200 200/21G28 RMK AO2 PK WND 19028/2141
94908KDBQ DBQ20000601155013506/01/00 15:50:31  5-MIN KDBQ 012150Z 20017G28KT 10SM CLR 30/23 A2983 1160 65 3200 190/17G28 RMK AO2 PK WND 19028/2141 SLP094 T03000228
94908KDBQ DBQ20000601155513506/01/00 15:55:31  5-MIN KDBQ 012155Z 20019G25KT 10SM CLR 30/22 A2983 1160 62 3200 200/19G25 RMK AO2 PK WND 19028/2141 SLP094 T03000222
94908KDBQ DBQ20000601160010006/01/00 16:00:31  5-MIN KDBQ 012200Z 19018G25KT 10SM CLR 30/23 A2983 1160 65 3200 190/18G25 RMK AO2
94908KDBQ DBQ20000601160510006/01/00 16:05:31  5-MIN KDBQ 012205Z 19017G24KT 10SM CLR 30/23 A2982 1170 65 3200 190/17G24 RMK AO2
94908KDBQ DBQ20000601161011806/01/00 16:10:31  5-MIN KDBQ 012210Z 19019G26KT 10SM CLR 29/23 A2982 1170 67 3100 190/19G26 RMK AO2 PK WND 19026/2210
94908KDBQ DBQ20000601161511806/01/00 16:15:31  5-MIN KDBQ 012215Z 20019G26KT 10SM CLR 29/22 A2982 1170 64 3100 190/19G26 RMK AO2 PK WND 19026/2212
94908KDBQ DBQ20000601162011806/01/00 16:20:31  5-MIN KDBQ 012220Z 20019G24KT 10SM CLR 29/22 A2981 1180 64 3100 190/19G24 RMK AO2 PK WND 19026/2212
94908KDBQ DBQ20000601162511806/01/00 16:25:31  5-MIN KDBQ 012225Z 20021G25KT 10SM CLR 29/22 A2982 1170 64 3100 200/21G25 RMK AO2 PK WND 19026/2212
94908KDBQ DBQ20000601163011806/01/00 16:30:31  5-MIN KDBQ 012230Z 20018G25KT 10SM CLR 28/22 A2982 1170 66 3000 190/18G25 RMK AO2 PK WND 19026/2212
94908KDBQ DBQ20000601163511806/01/00 16:35:31  5-MIN KDBQ 012235Z 20017G24KT 10SM CLR 28/22 A2982 1170 66 3000 200/17G24 RMK AO2 PK WND 19026/2212
94908KDBQ DBQ20000601164012106/01/00 16:40:31  5-MIN KDBQ 012240Z 20017G24KT 10SM FEW055 28/22 A2983 1160 66 3000 200/17G24 RMK AO2 PK WND 19026/2212
94908KDBQ DBQ20000601164512106/01/00 16:45:31  5-MIN KDBQ 012245Z 21016G24KT 10SM SCT060 28/22 A2984 1150 69 2900 210/16G24 RMK AO2 PK WND 19026/2212
94908KDBQ DBQ20000601165013206/01/00 16:50:31  5-MIN KDBQ 012250Z 21015KT 10SM SCT060 28/22 A2984 1150 69 2900 210/15 RMK AO2 PK WND 19026/2212 SLP098 T02780217
94908KDBQ DBQ20000601165515106/01/00 16:55:31  5-MIN KDBQ 012255Z 26019G27KT 9SM FEW047 SCT055 28/22 A2986 1140 69 2900 260/19G27 RMK AO2 PK WND 26027/2255 PRESRR SLP103 T02780217
94908KDBQ DBQ20000601170012306/01/00 17:00:31  5-MIN KDBQ 012300Z 26017G27KT 8SM FEW035 SCT047 BKN055 25/22 A2986 1130 81 2600 260/17G27 RMK AO2 PRESRR
94908KDBQ DBQ20000601170514506/01/00 17:05:31  5-MIN KDBQ 012305Z 25020G28KT 8SM SCT035 BKN047 BKN055 24/21 A2986 1130 78 2500 250/20G28 RMK AO2 PK WND 27028/2302 WSHFT 2247
94908KDBQ DBQ20000601171014606/01/00 17:10:31  5-MIN KDBQ 012310Z 26021G28KT 10SM FEW037 BKN047 BKN055 24/21 A2987 1120 78 2500 260/21G28 RMK AO2 PK WND 26028/2306 WSHFT 2247
94908KDBQ DBQ20000601171515306/01/00 17:15:31  5-MIN KDBQ 012315Z 26021G28KT 10SM FEW037 BKN047 BKN055 24/21 A2988 1120 78 2500 260/21G28 RMK AO2 PK WND 26028/2306 WSHFT 2247 PRESRR
94908KDBQ DBQ20000601172014706/01/00 17:20:31  5-MIN KDBQ 012320Z 27019KT 10SM FEW037 BKN047 BKN055 24/21 A2989 1110 81 2400 270/19 RMK AO2 PK WND 26028/2306 WSHFT 2247 PRESRR
94908KDBQ DBQ20000601172514006/01/00 17:25:31  5-MIN KDBQ 012325Z 27018KT 10SM FEW037 BKN047 24/21 A2989 1100 81 2400 270/18 RMK AO2 PK WND 26028/2306 WSHFT 2247 PRESRR
94908KDBQ DBQ20000601173013806/01/00 17:30:31  5-MIN KDBQ 012330Z 29018G23KT 9SM FEW039 BKN047 24/21 A2989 1110 84 2400 290/18G23 RMK AO2 PK WND 26028/2306 WSHFT 2247
94908KDBQ DBQ20000601173513806/01/00 17:35:31  5-MIN KDBQ 012335Z 28014G23KT 8SM BKN045 BKN060 24/21 A2989 1100 84 2400 280/14G23 RMK AO2 PK WND 26028/2306 WSHFT 2247
94908KDBQ DBQ20000601174013106/01/00 17:40:31  5-MIN KDBQ 012340Z 29017G22KT 8SM BKN043 24/21 A2989 1100 81 2500 290/17G22 RMK AO2 PK WND 26028/2306 WSHFT 2247
94908KDBQ DBQ20000601174513106/01/00 17:45:31  5-MIN KDBQ 012345Z 29015G22KT 7SM BKN043 24/21 A2989 1110 81 2500 290/15G22 RMK AO2 PK WND 26028/2306 WSHFT 2247
94908KDBQ DBQ20000601175016606/01/00 17:50:31  5-MIN KDBQ 012350Z 28020G23KT 8SM SCT043 24/21 A2989 1110 81 2500 280/20G23 RMK AO2 PK WND 26028/2306 WSHFT 2247 SLP116 T02440211 10300 20239 58027
94908KDBQ DBQ20000601175516606/01/00 17:55:31  5-MIN KDBQ 012355Z 28015G23KT 8SM SCT043 24/21 A2990 1100 78 2500 280/15G23 RMK AO2 PK WND 26028/2306 WSHFT 2247 SLP118 T02440206 10300 20239 53012
94908KDBQ DBQ20000601180009606/01/00 18:00:31  5-MIN KDBQ 020000Z 28012KT 9SM SCT041 24/21 A2990 1100 78 2500 280/12 RMK AO2
94908KDBQ DBQ20000601180509606/01/00 18:05:31  5-MIN KDBQ 020005Z 28010KT 9SM FEW039 24/21 A2990 1100 78 2500 280/10 RMK AO2
94908KDBQ DBQ20000601181009306/01/00 18:10:31  5-MIN KDBQ 020010Z 27010KT 9SM CLR 24/21 A2989 1100 78 2500 270/10 RMK AO2
94908KDBQ DBQ20000601181509306/01/00 18:15:31  5-MIN KDBQ 020015Z 27009KT 9SM CLR 24/21 A2989 1100 78 2500 270/09 RMK AO2
94908KDBQ DBQ20000601182009306/01/00 18:20:31  5-MIN KDBQ 020020Z 27009KT 9SM CLR 24/21 A2990 1100 78 2500 270/09 RMK AO2
94908KDBQ DBQ20000601182509306/01/00 18:25:31  5-MIN KDBQ 020025Z 27007KT 9SM CLR 24/21 A2990 1100 78 2500 270/07 RMK AO2
94908KDBQ DBQ20000601183009606/01/00 18:30:31  5-MIN KDBQ 020030Z 29007KT 9SM FEW050 24/21 A2991 1090 81 2400 290/07 RMK AO2
94908KDBQ DBQ20000601183509606/01/00 18:35:31  5-MIN KDBQ 020035Z 30008KT 9SM FEW050 24/21 A2991 1090 81 2400 300/08 RMK AO2
94908KDBQ DBQ20000601184009606/01/00 18:40:31  5-MIN KDBQ 020040Z 30008KT 9SM FEW050 24/21 A2991 1080 81 2400 300/08 RMK AO2
94908KDBQ DBQ20000601184510306/01/00 18:45:31  5-MIN KDBQ 020045Z 30009KT 9SM SCT050 24/21 A2993 1070 81 2400 300/09 RMK AO2 PRESRR
94908KDBQ DBQ20000601185012306/01/00 18:50:31  5-MIN KDBQ 020050Z AUTO 30009KT 9SM BKN050 24/21 A2993 1070 81 2400 300/09 RMK AO2 SLP129 T02390206 TSNO
94908KDBQ DBQ20000601185513606/01/00 18:55:31  5-MIN KDBQ 020055Z AUTO 28016G19KT 9SM BKN050 24/21 A2996 1040 81 2300 280/16G19 RMK AO2 PRESRR SLP141 T02390206 TSNO
94908KDBQ DBQ20000601190012006/01/00 19:00:31  5-MIN KDBQ 020100Z AUTO 29021G25KT 10SM FEW025 BKN050 23/20 A2997 1030 81 2300 290/21G25 RMK AO2 TSNO
94908KDBQ DBQ20000601190513806/01/00 19:05:31  5-MIN KDBQ 020105Z AUTO 30019G29KT 10SM SCT025 OVC050 23/19 A2996 1040 76 2300 300/19G29 RMK AO2 PK WND 31029/0102 TSNO
94908KDBQ DBQ20000601191013806/01/00 19:10:31  5-MIN KDBQ 020110Z AUTO 30016G29KT 10SM BKN023 OVC050 23/19 A2995 1050 78 2200 300/16G29 RMK AO2 PK WND 31029/0102 TSNO
94908KDBQ DBQ20000601191513806/01/00 19:15:31  5-MIN KDBQ 020115Z AUTO 31014G22KT 10SM SCT023 OVC055 23/19 A2994 1060 78 2200 310/14G22 RMK AO2 PK WND 31029/0102 TSNO
94908KDBQ DBQ20000601192013206/01/00 19:20:31  5-MIN KDBQ 020120Z AUTO 31013KT 10SM SCT023 BKN055 22/19 A2995 1050 81 2200 310/13 RMK AO2 PK WND 31029/0102 TSNO
94908KDBQ DBQ20000601192513206/01/00 19:25:31  5-MIN KDBQ 020125Z AUTO 31012KT 10SM SCT023 BKN060 22/19 A2995 1050 81 2200 310/12 RMK AO2 PK WND 31029/0102 TSNO
94908KDBQ DBQ20000601193013206/01/00 19:30:31  5-MIN KDBQ 020130Z AUTO 32011KT 10SM SCT021 BKN060 22/19 A2995 1050 81 2200 320/11 RMK AO2 PK WND 31029/0102 TSNO
94908KDBQ DBQ20000601193513206/01/00 19:35:31  5-MIN KDBQ 020135Z AUTO 33011KT 10SM SCT019 BKN060 22/19 A2995 1050 84 2100 330/11 RMK AO2 PK WND 31029/0102 TSNO
94908KDBQ DBQ20000601194013906/01/00 19:40:31  5-MIN KDBQ 020140Z AUTO 33014KT 10SM SCT019 BKN060 BKN080 22/18 A2995 1050 81 2100 330/14 RMK AO2 PK WND 31029/0102 TSNO
94908KDBQ DBQ20000601194513906/01/00 19:45:31  5-MIN KDBQ 020145Z AUTO 33011KT 10SM FEW019 SCT060 BKN080 21/18 A2995 1050 84 2000 330/11 RMK AO2 PK WND 31029/0102 TSNO
94908KDBQ DBQ20000601195015606/01/00 19:50:31  5-MIN KDBQ 020150Z AUTO 31015KT 10SM FEW019 BKN060 BKN080 21/18 A2998 1020 84 2000 310/15 RMK AO2 PK WND 31029/0102 SLP146 T02110183 TSNO
94908KDBQ DBQ20000601195515506/01/00 19:55:31  5-MIN KDBQ 020155Z AUTO 31015G21KT 10SM SCT017 OVC065 21/18 A2999 1020 87 1900 310/15G21 RMK AO2 PK WND 31029/0102 SLP149 T02060183 TSNO
94908KDBQ DBQ20000601200011406/01/00 20:00:31  5-MIN KDBQ 020200Z AUTO 31011KT 10SM FEW017 OVC065 20/18 A2998 1020 90 1900 310/11 RMK AO2 TSNO
94908KDBQ DBQ20000601200512106/01/00 20:05:31  5-MIN KDBQ 020205Z AUTO 32008KT 10SM FEW017 BKN065 OVC080 20/18 A2997 1030 90 1900 320/08 RMK AO2 TSNO
94908KDBQ DBQ20000601201012106/01/00 20:10:31  5-MIN KDBQ 020210Z AUTO 32009KT 10SM BKN070 BKN085 OVC100 20/18 A2998 1020 87 1900 320/09 RMK AO2 TSNO
94908KDBQ DBQ20000601201513706/01/00 20:15:31  5-MIN KDBQ 020215Z AUTO 32010KT 10SM -RA FEW016 BKN065 OVC100 19/18 A2998 1020 90 1800 320/10 RMK AO2 RAB13 P0000 TSNO
94908KDBQ DBQ20000601202013706/01/00 20:20:31  5-MIN KDBQ 020220Z AUTO 32009KT 10SM -RA SCT016 BKN070 OVC100 19/18 A2998 1020 90 1800 320/09 RMK AO2 RAB13 P0000 TSNO
94908KDBQ DBQ20000601202513606/01/00 20:25:31  5-MIN KDBQ 020225Z AUTO 32010KT 10SM FEW010 BKN016 OVC100 19/18 A2999 1020 90 1800 320/10 RMK AO2 RAB13E24 P0000 TSNO
94908KDBQ DBQ20000601203013606/01/00 20:30:31  5-MIN KDBQ 020230Z AUTO 32009KT 10SM FEW011 BKN017 OVC100 19/18 A2999 1020 90 1800 320/09 RMK AO2 RAB13E24 P0000 TSNO
94908KDBQ DBQ20000601203514206/01/00 20:35:31  5-MIN KDBQ 020235Z AUTO 35007G14KT 10SM SCT011 BKN017 BKN100 19/18 A2997 1030 93 1800 350/07G14 RMK AO2 RAB13E24 P0000 TSNO
94908KDBQ DBQ20000601204013606/01/00 20:40:31  5-MIN KDBQ 020240Z AUTO 31013KT 10SM SCT011 BKN017 19/18 A3000 1000 93 1700 310/13 RMK AO2 RAB13E24 PRESRR P0000 TSNO
94908KDBQ DBQ20000601204513606/01/00 20:45:31  5-MIN KDBQ 020245Z AUTO 32010KT 10SM FEW011 BKN014 BKN021 19/18 A3000 1000 93 1700 310/10 RMK AO2 RAB13E24 P0000 TSNO
94908KDBQ DBQ20000601205016406/01/00 20:50:31  5-MIN KDBQ 020250Z AUTO 31012KT 9SM -RA BKN013 BKN021 19/18 A3000 1000 93 1700 310/12 RMK AO2 RAB13E24B50 SLP153 P0000 60000 T01890178 53012 TSNO
94908KDBQ DBQ20000601205517106/01/00 20:55:31  5-MIN KDBQ 020255Z AUTO 34006KT 8SM -RA BKN013 BKN021 BKN040 19/18 A2999 1020 93 1700 340/06 RMK AO2 RAB13E24B50 SLP148 P0001 60001 T01890178 50029 TSNO
94908KDBQ DBQ20000601210012606/01/00 21:00:31  5-MIN KDBQ 020300Z AUTO 32010KT 6SM +RA BR SCT013 BKN035 19/18 A3000 1000 93 1700 320/10 RMK AO2 P0001 TSNO
94908KDBQ DBQ20000601210512606/01/00 21:05:31  5-MIN KDBQ 020305Z AUTO 32010KT 6SM -RA BR SCT013 BKN035 18/17 A3000 1010 93 1700 320/10 RMK AO2 P0001 TSNO
94908KDBQ DBQ20000601211012606/01/00 21:10:31  5-MIN KDBQ 020310Z AUTO 31008KT 10SM BKN013 BKN035 18/17 A3000 1010 93 1700 310/08 RMK AO2 RAE10 P0001 TSNO
94908KDBQ DBQ20000601211512606/01/00 21:15:31  5-MIN KDBQ 020315Z AUTO 30007KT 10SM BKN013 BKN035 18/17 A3001 1000 93 1700 300/07 RMK AO2 RAE10 P0001 TSNO
94908KDBQ DBQ20000601212012406/01/00 21:20:31  5-MIN KDBQ 020320Z AUTO 29007KT 9SM BKN013 BKN035 18/17 A3002 990 93 1600 290/07 RMK AO2 RAE10 P0001 TSNO
94908KDBQ DBQ20000601212513106/01/00 21:25:31  5-MIN KDBQ 020325Z AUTO 29009KT 9SM SCT010 BKN013 BKN033 18/17 A3002 990 93 1600 290/09 RMK AO2 RAE10 P0001 TSNO
94908KDBQ DBQ20000601213012406/01/00 21:30:31  5-MIN KDBQ 020330Z AUTO 28010KT 9SM BKN012 BKN075 18/17 A3002 990 93 1600 280/10 RMK AO2 RAE10 P0001 TSNO
94908KDBQ DBQ20000601213513106/01/00 21:35:31  5-MIN KDBQ 020335Z AUTO 29011KT 9SM BKN012 BKN080 OVC100 18/17 A3002 990 90 1600 280/11 RMK AO2 RAE10 P0001 TSNO
94908KDBQ DBQ20000601214013206/01/00 21:40:31  5-MIN KDBQ 020340Z AUTO 29012KT 10SM SCT012 BKN075 OVC110 18/17 A3002 980 93 1600 290/12 RMK AO2 RAE10 P0001 TSNO
94908KDBQ DBQ20000601214513206/01/00 21:45:31  5-MIN KDBQ 020345Z AUTO 30011KT 10SM SCT012 BKN070 OVC090 18/16 A3002 990 90 1600 290/11 RMK AO2 RAE10 P0001 TSNO
94908KDBQ DBQ20000601215014906/01/00 21:50:31  5-MIN KDBQ 020350Z AUTO 30013KT 10SM FEW012 BKN070 OVC090 18/16 A3002 990 90 1600 300/13 RMK AO2 RAE10 SLP159 P0001 T01780161 TSNO
94908KDBQ DBQ20000601215514806/01/00 21:55:31  5-MIN KDBQ 020355Z AUTO 30013KT 9SM FEW012 BKN070 OVC090 18/16 A3001 990 90 1600 300/13 RMK AO2 RAE10 SLP157 P0001 T01780161 TSNO
94908KDBQ DBQ20000601220011206/01/00 22:00:31  5-MIN KDBQ 020400Z AUTO 30011KT 9SM BKN070 OVC095 17/16 A3002 990 93 1500 300/11 RMK AO2 TSNO
94908KDBQ DBQ20000601220511206/01/00 22:05:31  5-MIN KDBQ 020405Z AUTO 31012KT 9SM BKN070 BKN090 17/16 A3002 990 93 1500 310/12 RMK AO2 TSNO
94908KDBQ DBQ20000601221011206/01/00 22:10:31  5-MIN KDBQ 020410Z AUTO 32008KT 9SM BKN070 OVC090 17/16 A3002 990 93 1500 320/08 RMK AO2 TSNO
94908KDBQ DBQ20000601221511906/01/00 22:15:31  5-MIN KDBQ 020415Z AUTO 31005KT 9SM FEW017 BKN070 OVC090 17/16 A3002 980 93 1500 310/05 RMK AO2 TSNO
94908KDBQ DBQ20000601222011906/01/00 22:20:31  5-MIN KDBQ 020420Z AUTO 28004KT 9SM SCT011 BKN070 OVC090 17/16 A3003 980 93 1500 280/04 RMK AO2 TSNO
94908KDBQ DBQ20000601222511906/01/00 22:25:31  5-MIN KDBQ 020425Z AUTO 26006KT 9SM SCT011 BKN023 OVC090 17/16 A3003 980 93 1500 250/06 RMK AO2 TSNO
94908KDBQ DBQ20000601223011906/01/00 22:30:31  5-MIN KDBQ 020430Z AUTO 27008KT 9SM SCT011 BKN023 OVC065 17/16 A3004 970 90 1500 270/08 RMK AO2 TSNO
94908KDBQ DBQ20000601223512006/01/00 22:35:31  5-MIN KDBQ 020435Z AUTO 26007KT 10SM SCT013 BKN023 OVC065 17/16 A3004 970 90 1500 260/07 RMK AO2 TSNO
94908KDBQ DBQ20000601224012006/01/00 22:40:31  5-MIN KDBQ 020440Z AUTO 28005KT 10SM SCT013 BKN023 OVC065 17/16 A3003 970 90 1500 280/05 RMK AO2 TSNO
94908KDBQ DBQ20000601224512006/01/00 22:45:31  5-MIN KDBQ 020445Z AUTO 28008KT 10SM FEW013 BKN023 OVC070 17/16 A3003 970 93 1400 280/08 RMK AO2 TSNO
94908KDBQ DBQ20000601225013706/01/00 22:50:31  5-MIN KDBQ 020450Z AUTO 29006KT 10SM FEW013 BKN023 OVC065 17/15 A3004 970 90 1400 280/06 RMK AO2 SLP166 T01670150 TSNO
94908KDBQ DBQ20000601225513706/01/00 22:55:31  5-MIN KDBQ 020455Z AUTO 27007KT 10SM FEW013 SCT023 OVC065 17/15 A3004 970 90 1400 270/07 RMK AO2 SLP167 T01670150 TSNO
94908KDBQ DBQ20000601230011306/01/00 23:00:31  5-MIN KDBQ 020500Z AUTO 28007KT 10SM SCT025 OVC065 17/15 A3004 970 90 1400 280/07 RMK AO2 TSNO
94908KDBQ DBQ20000601230511306/01/00 23:05:31  5-MIN KDBQ 020505Z AUTO 28007KT 10SM SCT025 OVC065 17/15 A3005 960 90 1400 280/07 RMK AO2 TSNO
94908KDBQ DBQ20000601231011306/01/00 23:10:31  5-MIN KDBQ 020510Z AUTO 27008KT 10SM BKN025 OVC065 17/15 A3005 960 90 1400 270/08 RMK AO2 TSNO
94908KDBQ DBQ20000601231511306/01/00 23:15:31  5-MIN KDBQ 020515Z AUTO 27009KT 10SM BKN027 OVC065 17/15 A3005 960 90 1400 270/09 RMK AO2 TSNO
94908KDBQ DBQ20000601232011306/01/00 23:20:31  5-MIN KDBQ 020520Z AUTO 29009KT 10SM BKN027 OVC065 17/15 A3004 970 90 1400 290/09 RMK AO2 TSNO
94908KDBQ DBQ20000601232512006/01/00 23:25:31  5-MIN KDBQ 020525Z AUTO 29007KT 10SM BKN027 BKN065 OVC080 16/15 A3004 970 93 1400 290/07 RMK AO2 TSNO
94908KDBQ DBQ20000601233012006/01/00 23:30:31  5-MIN KDBQ 020530Z AUTO 29009KT 10SM SCT027 BKN065 BKN085 16/14 A3005 960 90 1300 280/09 RMK AO2 TSNO
94908KDBQ DBQ20000601233512006/01/00 23:35:31  5-MIN KDBQ 020535Z AUTO 29007KT 10SM SCT027 BKN070 BKN090 16/14 A3005 960 90 1400 290/07 RMK AO2 TSNO
94908KDBQ DBQ20000601234012006/01/00 23:40:31  5-MIN KDBQ 020540Z AUTO 28009KT 10SM FEW027 BKN065 BKN085 16/14 A3006 950 90 1300 280/09 RMK AO2 TSNO
94908KDBQ DBQ20000601234512006/01/00 23:45:31  5-MIN KDBQ 020545Z AUTO 29008KT 10SM FEW027 SCT065 BKN080 16/14 A3006 950 90 1300 290/08 RMK AO2 TSNO
94908KDBQ DBQ20000601235017106/01/00 23:50:31  5-MIN KDBQ 020550Z AUTO 29010KT 10SM SCT070 BKN090 BKN110 16/14 A3006 950 90 1300 290/10 RMK AO2 SLP172 60002 T01610144 10244 20161 403000161 50029 TSNO
94908KDBQ DBQ20000601235517106/01/00 23:55:31  5-MIN KDBQ 020555Z AUTO 30010KT 10SM FEW065 BKN090 OVC100 16/14 A3006 950 90 1300 300/10 RMK AO2 SLP172 60002 T01610144 10244 20161 403000161 51023 TSNO
94908KDBQ DBQ20000602000011306/02/00 00:00:31  5-MIN KDBQ 020600Z AUTO 31012KT 10SM FEW065 OVC095 16/14 A3005 960 86 1300 310/12 RMK AO2 TSNO
94908KDBQ DBQ20000602000511306/02/00 00:05:31  5-MIN KDBQ 020605Z AUTO 31014KT 10SM SCT070 OVC090 16/14 A3005 960 86 1400 310/14 RMK AO2 TSNO
94908KDBQ DBQ20000602001011306/02/00 00:10:31  5-MIN KDBQ 020610Z AUTO 31014KT 10SM SCT075 OVC095 16/14 A3005 960 86 1400 310/14 RMK AO2 TSNO
94908KDBQ DBQ20000602001511306/02/00 00:15:31  5-MIN KDBQ 020615Z AUTO 31013KT 10SM SCT075 OVC095 16/14 A3005 960 86 1400 310/13 RMK AO2 TSNO
94908KDBQ DBQ20000602002011906/02/00 00:20:31  5-MIN KDBQ 020620Z AUTO 31014G19KT 10SM SCT070 OVC095 16/14 A3006 950 86 1300 300/14G19 RMK AO2 TSNO
94908KDBQ DBQ20000602002511906/02/00 00:25:31  5-MIN KDBQ 020625Z AUTO 30014G19KT 10SM BKN070 OVC095 16/13 A3006 950 83 1300 300/14G19 RMK AO2 TSNO
94908KDBQ DBQ20000602003011906/02/00 00:30:31  5-MIN KDBQ 020630Z AUTO 30015G18KT 10SM BKN070 OVC095 16/13 A3006 950 83 1300 300/15G18 RMK AO2 TSNO
94908KDBQ DBQ20000602003511306/02/00 00:35:31  5-MIN KDBQ 020635Z AUTO 30014KT 10SM BKN070 OVC095 16/13 A3006 950 83 1300 300/14 RMK AO2 TSNO
94908KDBQ DBQ20000602004011306/02/00 00:40:31  5-MIN KDBQ 020640Z AUTO 30012KT 10SM BKN070 OVC100 16/14 A3006 950 86 1300 300/12 RMK AO2 TSNO
94908KDBQ DBQ20000602004510606/02/00 00:45:31  5-MIN KDBQ 020645Z AUTO 31015KT 10SM OVC070 16/14 A3007 940 86 1300 300/15 RMK AO2 TSNO
94908KDBQ DBQ20000602005012306/02/00 00:50:31  5-MIN KDBQ 020650Z AUTO 30014KT 10SM OVC070 16/13 A3007 940 83 1300 300/14 RMK AO2 SLP178 T01610133 TSNO
94908KDBQ DBQ20000602005512306/02/00 00:55:31  5-MIN KDBQ 020655Z AUTO 31014KT 10SM OVC070 16/13 A3007 940 83 1300 310/14 RMK AO2 SLP178 T01610133 TSNO
94908KDBQ DBQ20000602010010606/02/00 01:00:31  5-MIN KDBQ 020700Z AUTO 31013KT 10SM OVC070 16/13 A3008 930 86 1300 310/13 RMK AO2 TSNO
94908KDBQ DBQ20000602010510606/02/00 01:05:31  5-MIN KDBQ 020705Z AUTO 31013KT 10SM OVC070 16/13 A3008 930 86 1300 310/13 RMK AO2 TSNO
94908KDBQ DBQ20000602011010606/02/00 01:10:31  5-MIN KDBQ 020710Z AUTO 31011KT 10SM OVC070 16/13 A3008 930 86 1300 310/11 RMK AO2 TSNO
94908KDBQ DBQ20000602011510606/02/00 01:15:31  5-MIN KDBQ 020715Z AUTO 31012KT 10SM OVC075 16/13 A3008 930 86 1300 310/12 RMK AO2 TSNO
94908KDBQ DBQ20000602012010606/02/00 01:20:31  5-MIN KDBQ 020720Z AUTO 31012KT 10SM OVC075 16/13 A3009 930 86 1200 310/12 RMK AO2 TSNO
94908KDBQ DBQ20000602012510606/02/00 01:25:31  5-MIN KDBQ 020725Z AUTO 31013KT 10SM OVC075 16/13 A3009 920 86 1200 310/13 RMK AO2 TSNO
94908KDBQ DBQ20000602013010606/02/00 01:30:31  5-MIN KDBQ 020730Z AUTO 30013KT 10SM OVC075 16/13 A3009 920 83 1200 300/13 RMK AO2 TSNO
94908KDBQ DBQ20000602013510606/02/00 01:35:31  5-MIN KDBQ 020735Z AUTO 30011KT 10SM OVC075 16/13 A3009 920 83 1200 300/11 RMK AO2 TSNO
94908KDBQ DBQ20000602014011206/02/00 01:40:31  5-MIN KDBQ 020740Z AUTO 30011G16KT 10SM OVC075 16/13 A3009 920 83 1200 300/11G16 RMK AO2 TSNO
94908KDBQ DBQ20000602014510606/02/00 01:45:31  5-MIN KDBQ 020745Z AUTO 31009KT 10SM OVC080 16/13 A3009 920 83 1200 310/09 RMK AO2 TSNO
94908KDBQ DBQ20000602015012306/02/00 01:50:31  5-MIN KDBQ 020750Z AUTO 31010KT 10SM OVC080 16/13 A3010 920 83 1200 310/10 RMK AO2 SLP186 T01560128 TSNO
94908KDBQ DBQ20000602015512306/02/00 01:55:31  5-MIN KDBQ 020755Z AUTO 31012KT 10SM OVC080 15/12 A3010 920 83 1200 310/12 RMK AO2 SLP186 T01500122 TSNO
94908KDBQ DBQ20000602020010606/02/00 02:00:31  5-MIN KDBQ 020800Z AUTO 30009KT 10SM OVC080 15/13 A3010 910 86 1200 300/09 RMK AO2 TSNO
94908KDBQ DBQ20000602020510606/02/00 02:05:31  5-MIN KDBQ 020805Z AUTO 31011KT 10SM OVC080 15/12 A3010 920 83 1200 310/11 RMK AO2 TSNO
94908KDBQ DBQ20000602021010606/02/00 02:10:31  5-MIN KDBQ 020810Z AUTO 32009KT 10SM OVC080 15/12 A3010 910 83 1200 320/09 RMK AO2 TSNO
94908KDBQ DBQ20000602021510606/02/00 02:15:31  5-MIN KDBQ 020815Z AUTO 32010KT 10SM OVC080 15/12 A3010 910 83 1200 320/10 RMK AO2 TSNO
94908KDBQ DBQ20000602022010606/02/00 02:20:31  5-MIN KDBQ 020820Z AUTO 31010KT 10SM OVC080 15/12 A3010 910 80 1200 310/10 RMK AO2 TSNO
94908KDBQ DBQ20000602022510606/02/00 02:25:31  5-MIN KDBQ 020825Z AUTO 32009KT 10SM OVC080 15/12 A3010 910 80 1200 310/09 RMK AO2 TSNO
94908KDBQ DBQ20000602023010606/02/00 02:30:31  5-MIN KDBQ 020830Z AUTO 32012KT 10SM OVC080 14/12 A3010 910 83 1100 320/12 RMK AO2 TSNO
94908KDBQ DBQ20000602023510606/02/00 02:35:31  5-MIN KDBQ 020835Z AUTO 32012KT 10SM OVC080 14/12 A3010 910 83 1100 320/12 RMK AO2 TSNO
94908KDBQ DBQ20000602024010606/02/00 02:40:31  5-MIN KDBQ 020840Z AUTO 32012KT 10SM BKN080 14/12 A3010 910 83 1100 320/12 RMK AO2 TSNO
94908KDBQ DBQ20000602024510606/02/00 02:45:31  5-MIN KDBQ 020845Z AUTO 33012KT 10SM BKN080 14/11 A3010 910 80 1100 330/12 RMK AO2 TSNO
94908KDBQ DBQ20000602025012906/02/00 02:50:31  5-MIN KDBQ 020850Z AUTO 33011KT 10SM SCT080 14/11 A3010 910 80 1100 320/11 RMK AO2 SLP187 T01440111 51023 TSNO
94908KDBQ DBQ20000602025512906/02/00 02:55:31  5-MIN KDBQ 020855Z AUTO 33012KT 10SM FEW080 14/11 A3010 910 83 1000 330/12 RMK AO2 SLP188 T01390111 51015 TSNO
94908KDBQ DBQ20000602030010606/02/00 03:00:31  5-MIN KDBQ 020900Z AUTO 33012KT 10SM FEW080 14/11 A3010 910 77 1100 330/12 RMK AO2 TSNO
94908KDBQ DBQ20000602030510306/02/00 03:05:31  5-MIN KDBQ 020905Z AUTO 33014KT 10SM CLR 14/11 A3010 910 77 1100 330/14 RMK AO2 TSNO
94908KDBQ DBQ20000602031010306/02/00 03:10:31  5-MIN KDBQ 020910Z AUTO 33015KT 10SM CLR 14/10 A3010 910 74 1100 330/15 RMK AO2 TSNO
94908KDBQ DBQ20000602031510306/02/00 03:15:31  5-MIN KDBQ 020915Z AUTO 34014KT 10SM CLR 14/10 A3010 920 74 1100 340/14 RMK AO2 TSNO
94908KDBQ DBQ20000602032010306/02/00 03:20:31  5-MIN KDBQ 020920Z AUTO 34010KT 10SM CLR 14/10 A3009 920 77 1000 340/10 RMK AO2 TSNO
94908KDBQ DBQ20000602032510306/02/00 03:25:31  5-MIN KDBQ 020925Z AUTO 34012KT 10SM CLR 14/11 A3009 920 80 1000 340/12 RMK AO2 TSNO
94908KDBQ DBQ20000602033010306/02/00 03:30:31  5-MIN KDBQ 020930Z AUTO 34012KT 10SM CLR 14/10 A3009 920 77 1000 340/12 RMK AO2 TSNO
94908KDBQ DBQ20000602033510306/02/00 03:35:31  5-MIN KDBQ 020935Z AUTO 34012KT 10SM CLR 14/11 A3009 930 80 1100 340/12 RMK AO2 TSNO
94908KDBQ DBQ20000602034010306/02/00 03:40:31  5-MIN KDBQ 020940Z AUTO 34012KT 10SM CLR 14/11 A3008 930 80 1100 340/12 RMK AO2 TSNO
94908KDBQ DBQ20000602034510306/02/00 03:45:31  5-MIN KDBQ 020945Z AUTO 34014KT 10SM CLR 14/11 A3008 930 80 1100 340/14 RMK AO2 TSNO
94908KDBQ DBQ20000602035012006/02/00 03:50:31  5-MIN KDBQ 020950Z AUTO 34012KT 10SM CLR 14/11 A3008 930 80 1100 340/12 RMK AO2 SLP179 T01390106 TSNO
94908KDBQ DBQ20000602035512006/02/00 03:55:31  5-MIN KDBQ 020955Z AUTO 34012KT 10SM CLR 14/11 A3008 940 80 1100 340/12 RMK AO2 SLP179 T01390106 TSNO
94908KDBQ DBQ20000602040010906/02/00 04:00:31  5-MIN KDBQ 021000Z AUTO 34016G19KT 10SM CLR 14/11 A3007 940 80 1100 330/16G19 RMK AO2 TSNO
94908KDBQ DBQ20000602040510306/02/00 04:05:31  5-MIN KDBQ 021005Z AUTO 34016KT 10SM CLR 14/11 A3007 940 80 1100 330/16 RMK AO2 TSNO
94908KDBQ DBQ20000602041010306/02/00 04:10:31  5-MIN KDBQ 021010Z AUTO 33015KT 10SM CLR 14/11 A3007 940 80 1100 330/15 RMK AO2 TSNO
94908KDBQ DBQ20000602041510306/02/00 04:15:31  5-MIN KDBQ 021015Z AUTO 33016KT 10SM CLR 13/11 A3008 940 83 1000 330/16 RMK AO2 TSNO
94908KDBQ DBQ20000602042010306/02/00 04:20:31  5-MIN KDBQ 021020Z AUTO 33018KT 10SM CLR 13/11 A3008 930 83 1000 330/18 RMK AO2 TSNO
94908KDBQ DBQ20000602042510306/02/00 04:25:31  5-MIN KDBQ 021025Z AUTO 33016KT 10SM CLR 13/11 A3009 930 83 1000 330/16 RMK AO2 TSNO
94908KDBQ DBQ20000602043010006/02/00 04:30:31  5-MIN KDBQ 021030Z 32015KT 10SM CLR 13/11 A3009 920 83 1000 320/15 RMK AO2 PRESRR
94908KDBQ DBQ20000602043510006/02/00 04:35:31  5-MIN KDBQ 021035Z 31013KT 10SM CLR 13/11 A3010 910 83 1000 310/13 RMK AO2 PRESRR
94908KDBQ DBQ20000602044009306/02/00 04:40:31  5-MIN KDBQ 021040Z 31009KT 10SM CLR 13/11 A3011 910 83 1000 310/09 RMK AO2
94908KDBQ DBQ20000602044509306/02/00 04:45:31  5-MIN KDBQ 021045Z 31010KT 10SM CLR 13/11 A3011 900 83 1000 310/10 RMK AO2
94908KDBQ DBQ20000602045011006/02/00 04:50:31  5-MIN KDBQ 021050Z 31009KT 10SM CLR 13/11 A3011 900 83 1000 310/09 RMK AO2 SLP193 T01330106
94908KDBQ DBQ20000602045510906/02/00 04:55:31  5-MIN KDBQ 021055Z 30011KT 10SM CLR 13/11 A3012 900 83 900 300/11 RMK AO2 SLP194 T01330106
94908KDBQ DBQ20000602050009306/02/00 05:00:31  5-MIN KDBQ 021100Z 30009KT 10SM CLR 13/11 A3012 900 83 1000 300/09 RMK AO2
94908KDBQ DBQ20000602050509206/02/00 05:05:31  5-MIN KDBQ 021105Z 30009KT 10SM CLR 13/11 A3012 900 83 900 300/09 RMK AO2
94908KDBQ DBQ20000602051009206/02/00 05:10:31  5-MIN KDBQ 021110Z 30009KT 10SM CLR 13/11 A3012 890 83 900 300/09 RMK AO2
94908KDBQ DBQ20000602051509206/02/00 05:15:31  5-MIN KDBQ 021115Z 30010KT 10SM CLR 13/11 A3012 890 83 900 300/10 RMK AO2
94908KDBQ DBQ20000602052009206/02/00 05:20:31  5-MIN KDBQ 021120Z 30009KT 10SM CLR 13/11 A3012 890 86 900 300/09 RMK AO2
94908KDBQ DBQ20000602052509206/02/00 05:25:31  5-MIN KDBQ 021125Z 30008KT 10SM CLR 13/11 A3013 890 86 900 300/08 RMK AO2
94908KDBQ DBQ20000602053009206/02/00 05:30:31  5-MIN KDBQ 021130Z 30009KT 10SM CLR 13/11 A3013 890 86 900 300/09 RMK AO2
94908KDBQ DBQ20000602053509306/02/00 05:35:31  5-MIN KDBQ 021135Z 30009KT 10SM CLR 14/12 A3013 890 86 1000 300/09 RMK AO2
94908KDBQ DBQ20000602054009306/02/00 05:40:31  5-MIN KDBQ 021140Z 30009KT 10SM CLR 14/12 A3013 890 86 1000 300/09 RMK AO2
94908KDBQ DBQ20000602054509106/02/00 05:45:31  5-MIN KDBQ 021145Z 30009KT 9SM CLR 13/12 A3013 890 89 900 300/09 RMK AO2
94908KDBQ DBQ20000602055013306/02/00 05:50:31  5-MIN KDBQ 021150Z 30010KT 9SM CLR 14/12 A3013 880 86 1000 300/10 RMK AO2 SLP200 70002 T01390117 10161 20133 51015
94908KDBQ DBQ20000602055513306/02/00 05:55:31  5-MIN KDBQ 021155Z 30010KT 9SM CLR 14/12 A3013 880 86 1000 300/10 RMK AO2 SLP201 70002 T01390117 10161 20133 53010
94908KDBQ DBQ20000602060009306/02/00 06:00:31  5-MIN KDBQ 021200Z 31011KT 10SM CLR 14/12 A3014 880 86 1000 300/11 RMK AO2
94908KDBQ DBQ20000602060509306/02/00 06:05:31  5-MIN KDBQ 021205Z 32011KT 10SM CLR 14/11 A3013 880 83 1000 320/11 RMK AO2
94908KDBQ DBQ20000602061009306/02/00 06:10:31  5-MIN KDBQ 021210Z 31011KT 10SM CLR 14/11 A3013 880 83 1000 310/11 RMK AO2
94908KDBQ DBQ20000602061509306/02/00 06:15:31  5-MIN KDBQ 021215Z 31009KT 10SM CLR 14/11 A3014 880 83 1000 310/09 RMK AO2
94908KDBQ DBQ20000602062009306/02/00 06:20:31  5-MIN KDBQ 021220Z 31008KT 10SM CLR 14/11 A3014 880 83 1000 300/08 RMK AO2
94908KDBQ DBQ20000602062509306/02/00 06:25:31  5-MIN KDBQ 021225Z 31009KT 10SM CLR 14/11 A3014 880 83 1000 310/09 RMK AO2
94908KDBQ DBQ20000602063009306/02/00 06:30:31  5-MIN KDBQ 021230Z 31008KT 10SM CLR 14/11 A3014 880 83 1000 310/08 RMK AO2
94908KDBQ DBQ20000602063509306/02/00 06:35:31  5-MIN KDBQ 021235Z 31007KT 10SM CLR 14/11 A3014 880 83 1000 310/07 RMK AO2
94908KDBQ DBQ20000602064009206/02/00 06:40:31  5-MIN KDBQ 021240Z 32011KT 10SM CLR 13/11 A3014 880 83 900 320/11 RMK AO2
94908KDBQ DBQ20000602064509206/02/00 06:45:31  5-MIN KDBQ 021245Z 33009KT 10SM CLR 13/11 A3014 880 83 900 330/09 RMK AO2
94908KDBQ DBQ20000602065010906/02/00 06:50:31  5-MIN KDBQ 021250Z 31008KT 10SM CLR 13/11 A3014 880 83 900 310/08 RMK AO2 SLP203 T01330106
94908KDBQ DBQ20000602065510906/02/00 06:55:31  5-MIN KDBQ 021255Z 32008KT 10SM CLR 13/11 A3014 880 83 900 320/08 RMK AO2 SLP203 T01330106
94908KDBQ DBQ20000602070009206/02/00 07:00:31  5-MIN KDBQ 021300Z 32008KT 10SM CLR 13/11 A3014 880 83 900 320/08 RMK AO2
94908KDBQ DBQ20000602070509206/02/00 07:05:31  5-MIN KDBQ 021305Z 33009KT 10SM CLR 13/11 A3014 870 83 900 330/09 RMK AO2
94908KDBQ DBQ20000602071009206/02/00 07:10:31  5-MIN KDBQ 021310Z 32010KT 10SM CLR 13/11 A3014 870 83 900 320/10 RMK AO2
94908KDBQ DBQ20000602071509206/02/00 07:15:31  5-MIN KDBQ 021315Z 31008KT 10SM CLR 13/11 A3015 870 83 900 310/08 RMK AO2
94908KDBQ DBQ20000602072009206/02/00 07:20:31  5-MIN KDBQ 021320Z 31007KT 10SM CLR 13/11 A3015 870 83 900 310/07 RMK AO2
94908KDBQ DBQ20000602072509306/02/00 07:25:31  5-MIN KDBQ 021325Z 31008KT 10SM CLR 14/11 A3015 870 80 1000 310/08 RMK AO2
94908KDBQ DBQ20000602073009306/02/00 07:30:31  5-MIN KDBQ 021330Z 31010KT 10SM CLR 14/11 A3015 870 80 1000 310/10 RMK AO2
94908KDBQ DBQ20000602073509306/02/00 07:35:31  5-MIN KDBQ 021335Z 31007KT 10SM CLR 15/11 A3015 870 77 1100 310/07 RMK AO2
94908KDBQ DBQ20000602074009306/02/00 07:40:31  5-MIN KDBQ 021340Z 32011KT 10SM CLR 15/11 A3015 870 77 1100 320/11 RMK AO2
94908KDBQ DBQ20000602074509306/02/00 07:45:31  5-MIN KDBQ 021345Z 32009KT 10SM CLR 14/11 A3015 870 77 1000 320/09 RMK AO2
94908KDBQ DBQ20000602075011006/02/00 07:50:31  5-MIN KDBQ 021350Z 33011KT 10SM CLR 15/11 A3015 870 77 1100 320/11 RMK AO2 SLP207 T01500111
94908KDBQ DBQ20000602075511006/02/00 07:55:31  5-MIN KDBQ 021355Z 32011KT 10SM CLR 15/11 A3015 870 77 1100 320/11 RMK AO2 SLP207 T01500111
94908KDBQ DBQ20000602080009306/02/00 08:00:31  5-MIN KDBQ 021400Z 33012KT 10SM CLR 15/11 A3015 870 74 1100 330/12 RMK AO2
94908KDBQ DBQ20000602080509306/02/00 08:05:31  5-MIN KDBQ 021405Z 33009KT 10SM CLR 16/12 A3015 870 75 1200 330/09 RMK AO2
94908KDBQ DBQ20000602081009306/02/00 08:10:31  5-MIN KDBQ 021410Z 32012KT 10SM CLR 16/12 A3015 870 77 1200 320/12 RMK AO2
94908KDBQ DBQ20000602081509306/02/00 08:15:31  5-MIN KDBQ 021415Z 32012KT 10SM CLR 16/11 A3015 870 74 1200 320/12 RMK AO2
94908KDBQ DBQ20000602082009306/02/00 08:20:31  5-MIN KDBQ 021420Z 32014KT 10SM CLR 16/11 A3015 870 72 1200 320/14 RMK AO2
94908KDBQ DBQ20000602082509306/02/00 08:25:31  5-MIN KDBQ 021425Z 32011KT 10SM CLR 16/11 A3015 860 74 1200 320/11 RMK AO2
94908KDBQ DBQ20000602083009306/02/00 08:30:31  5-MIN KDBQ 021430Z 31012KT 10SM CLR 16/12 A3016 860 75 1200 310/12 RMK AO2
94908KDBQ DBQ20000602083509306/02/00 08:35:31  5-MIN KDBQ 021435Z 32012KT 10SM CLR 16/12 A3016 860 75 1200 310/12 RMK AO2
94908KDBQ DBQ20000602084009306/02/00 08:40:31  5-MIN KDBQ 021440Z 31011KT 10SM CLR 16/12 A3016 860 75 1200 310/11 RMK AO2
94908KDBQ DBQ20000602084509306/02/00 08:45:31  5-MIN KDBQ 021445Z 32010KT 10SM CLR 16/12 A3016 860 75 1200 320/10 RMK AO2
94908KDBQ DBQ20000602085011606/02/00 08:50:31  5-MIN KDBQ 021450Z 33010KT 10SM CLR 17/12 A3016 850 72 1300 330/10 RMK AO2 SLP212 T01670117 53010
94908KDBQ DBQ20000602085511606/02/00 08:55:31  5-MIN KDBQ 021455Z 34011KT 10SM CLR 16/11 A3016 850 72 1200 340/11 RMK AO2 SLP212 T01610111 53010
94908KDBQ DBQ20000602090009306/02/00 09:00:31  5-MIN KDBQ 021500Z 34012KT 10SM CLR 16/11 A3016 850 72 1200 340/12 RMK AO2
94908KDBQ DBQ20000602090509306/02/00 09:05:31  5-MIN KDBQ 021505Z 35011KT 10SM CLR 16/11 A3017 850 72 1200 350/11 RMK AO2
94908KDBQ DBQ20000602091010206/02/00 09:10:31  5-MIN KDBQ 021510Z 32010G15KT 10SM FEW022 17/12 A3017 850 72 1300 320/10G15 RMK AO2
94908KDBQ DBQ20000602091509606/02/00 09:15:31  5-MIN KDBQ 021515Z 32010KT 10SM FEW022 16/12 A3017 850 75 1200 320/10 RMK AO2
94908KDBQ DBQ20000602092009606/02/00 09:20:31  5-MIN KDBQ 021520Z 35011KT 10SM SCT022 17/12 A3017 850 72 1300 340/11 RMK AO2
94908KDBQ DBQ20000602092509606/02/00 09:25:31  5-MIN KDBQ 021525Z 33011KT 10SM BKN022 17/12 A3018 840 72 1300 330/11 RMK AO2
94908KDBQ DBQ20000602093009606/02/00 09:30:31  5-MIN KDBQ 021530Z 33010KT 10SM BKN022 17/12 A3018 840 72 1300 330/10 RMK AO2
94908KDBQ DBQ20000602093510206/02/00 09:35:31  5-MIN KDBQ 021535Z 33007G15KT 10SM BKN022 17/12 A3018 840 72 1300 330/07G15 RMK AO2
94908KDBQ DBQ20000602094009606/02/00 09:40:31  5-MIN KDBQ 021540Z 34009KT 10SM BKN022 17/12 A3018 840 72 1300 330/09 RMK AO2
94908KDBQ DBQ20000602094509606/02/00 09:45:31  5-MIN KDBQ 021545Z 34010KT 10SM BKN022 18/12 A3019 830 69 1400 340/10 RMK AO2
94908KDBQ DBQ20000602095011906/02/00 09:50:31  5-MIN KDBQ 021550Z 33011G17KT 10SM BKN022 18/12 A3019 830 67 1500 330/11G17 RMK AO2 SLP221 T01830122
94908KDBQ DBQ20000602095511906/02/00 09:55:31  5-MIN KDBQ 021555Z 33009G17KT 10SM BKN022 18/12 A3019 830 67 1400 330/09G17 RMK AO2 SLP222 T01830122
94908KDBQ DBQ20000602100009606/02/00 10:00:31  5-MIN KDBQ 021600Z 32011KT 10SM BKN022 17/12 A3020 820 69 1300 320/11 RMK AO2
94908KDBQ DBQ20000602100509606/02/00 10:05:31  5-MIN KDBQ 021605Z 32011KT 10SM BKN022 17/12 A3019 830 69 1300 320/11 RMK AO2
94908KDBQ DBQ20000602101009606/02/00 10:10:31  5-MIN KDBQ 021610Z 31011KT 10SM BKN022 17/12 A3019 830 69 1300 310/11 RMK AO2
94908KDBQ DBQ20000602101509606/02/00 10:15:31  5-MIN KDBQ 021615Z 33012KT 10SM BKN022 17/12 A3020 820 69 1300 330/12 RMK AO2
94908KDBQ DBQ20000602102009606/02/00 10:20:31  5-MIN KDBQ 021620Z 33012KT 10SM BKN022 18/12 A3020 820 67 1400 330/12 RMK AO2
94908KDBQ DBQ20000602102509606/02/00 10:25:31  5-MIN KDBQ 021625Z 35009KT 10SM BKN022 18/12 A3020 820 65 1400 350/09 RMK AO2
94908KDBQ DBQ20000602103009606/02/00 10:30:31  5-MIN KDBQ 021630Z 32014KT 10SM BKN022 19/12 A3020 820 65 1500 320/14 RMK AO2
94908KDBQ DBQ20000602103509606/02/00 10:35:31  5-MIN KDBQ 021635Z 35012KT 10SM BKN022 18/12 A3020 820 65 1400 340/12 RMK AO2
94908KDBQ DBQ20000602104009606/02/00 10:40:31  5-MIN KDBQ 021640Z 34012KT 10SM BKN022 19/12 A3020 820 62 1500 340/12 RMK AO2
94908KDBQ DBQ20000602104509606/02/00 10:45:31  5-MIN KDBQ 021645Z 34013KT 10SM BKN022 18/11 A3021 810 62 1400 340/13 RMK AO2
94908KDBQ DBQ20000602105011306/02/00 10:50:31  5-MIN KDBQ 021650Z 33010KT 10SM FEW034 18/11 A3021 810 64 1400 330/10 RMK AO2 SLP228 T01780111
94908KDBQ DBQ20000602105511306/02/00 10:55:31  5-MIN KDBQ 021655Z 33011KT 10SM SCT034 18/12 A3021 810 65 1400 320/11 RMK AO2 SLP228 T01830117
94908KDBQ DBQ20000602110009606/02/00 11:00:31  5-MIN KDBQ 021700Z 31010KT 10SM BKN032 18/12 A3021 810 67 1400 310/10 RMK AO2
94908KDBQ DBQ20000602110509606/02/00 11:05:31  5-MIN KDBQ 021705Z 32010KT 10SM BKN032 18/12 A3021 810 65 1400 320/10 RMK AO2
94908KDBQ DBQ20000602111010306/02/00 11:10:31  5-MIN KDBQ 021710Z 34010KT 10SM BKN034 BKN042 18/12 A3022 810 65 1400 340/10 RMK AO2
94908KDBQ DBQ20000602111509606/02/00 11:15:31  5-MIN KDBQ 021715Z 33009KT 10SM BKN034 18/12 A3021 810 65 1400 330/09 RMK AO2
94908KDBQ DBQ20000602112010306/02/00 11:20:31  5-MIN KDBQ 021720Z 33013KT 10SM SCT034 BKN041 19/12 A3021 810 60 1600 330/13 RMK AO2
94908KDBQ DBQ20000602112510906/02/00 11:25:31  5-MIN KDBQ 021725Z 33011G16KT 10SM FEW030 BKN039 19/12 A3022 810 62 1500 330/11G16 RMK AO2
94908KDBQ DBQ20000602113010306/02/00 11:30:31  5-MIN KDBQ 021730Z 31010KT 10SM BKN034 BKN041 18/12 A3022 800 65 1400 310/10 RMK AO2
94908KDBQ DBQ20000602113509606/02/00 11:35:31  5-MIN KDBQ 021735Z 33011KT 10SM BKN037 18/12 A3022 800 65 1400 330/11 RMK AO2
94908KDBQ DBQ20000602114010306/02/00 11:40:31  5-MIN KDBQ 021740Z 33012KT 10SM SCT037 BKN043 18/11 A3022 810 62 1400 330/12 RMK AO2
94908KDBQ DBQ20000602114510306/02/00 11:45:31  5-MIN KDBQ 021745Z 35009KT 10SM BKN035 BKN043 18/11 A3022 800 62 1400 350/09 RMK AO2
94908KDBQ DBQ20000602115013806/02/00 11:50:31  5-MIN KDBQ 021750Z 34012KT 10SM BKN035 BKN043 19/12 A3022 800 62 1500 340/12 RMK AO2 SLP231 T01890117 10194 20133 53010
94908KDBQ DBQ20000602115513806/02/00 11:55:31  5-MIN KDBQ 021755Z 33011KT 10SM BKN036 BKN043 18/11 A3022 800 62 1400 330/11 RMK AO2 SLP232 T01830111 10194 20133 51018
94908KDBQ DBQ20000602120009606/02/00 12:00:31  5-MIN KDBQ 021800Z 34011KT 10SM BKN038 19/12 A3022 800 65 1500 340/11 RMK AO2
94908KDBQ DBQ20000602120511206/02/00 12:05:31  5-MIN KDBQ 021805Z 34012KT 300V010 10SM BKN038 19/12 A3022 800 60 1500 340/12 300V010 RMK AO2
94908KDBQ DBQ20000602121009606/02/00 12:10:31  5-MIN KDBQ 021810Z 32011KT 10SM BKN038 19/12 A3022 800 65 1500 320/11 RMK AO2
94908KDBQ DBQ20000602121509606/02/00 12:15:31  5-MIN KDBQ 021815Z 33012KT 10SM BKN038 19/12 A3022 800 60 1500 330/12 RMK AO2
94908KDBQ DBQ20000602122009606/02/00 12:20:31  5-MIN KDBQ 021820Z 36012KT 10SM BKN038 19/11 A3022 800 60 1500 360/12 RMK AO2
94908KDBQ DBQ20000602122509606/02/00 12:25:31  5-MIN KDBQ 021825Z 33009KT 10SM BKN038 18/11 A3022 800 62 1400 330/09 RMK AO2
94908KDBQ DBQ20000602123009606/02/00 12:30:31  5-MIN KDBQ 021830Z 34009KT 10SM BKN038 18/11 A3022 800 62 1400 340/09 RMK AO2
94908KDBQ DBQ20000602123509606/02/00 12:35:31  5-MIN KDBQ 021835Z 34012KT 10SM BKN036 18/11 A3022 800 62 1400 340/12 RMK AO2
94908KDBQ DBQ20000602124009606/02/00 12:40:31  5-MIN KDBQ 021840Z 34010KT 10SM BKN036 19/11 A3022 800 60 1500 340/10 RMK AO2
94908KDBQ DBQ20000602124510206/02/00 12:45:31  5-MIN KDBQ 021845Z 33009G15KT 10SM BKN036 19/11 A3022 800 58 1500 330/09G15 RMK AO2
94908KDBQ DBQ20000602125011906/02/00 12:50:31  5-MIN KDBQ 021850Z 33013G17KT 10SM BKN038 19/11 A3022 800 58 1500 330/13G17 RMK AO2 SLP233 T01940111
94908KDBQ DBQ20000602125511306/02/00 12:55:31  5-MIN KDBQ 021855Z 32011KT 10SM BKN038 19/11 A3022 800 58 1500 320/11 RMK AO2 SLP233 T01940111
94908KDBQ DBQ20000602130010206/02/00 13:00:31  5-MIN KDBQ 021900Z 32013G19KT 10SM BKN038 19/11 A3022 800 58 1500 320/13G19 RMK AO2
94908KDBQ DBQ20000602130510206/02/00 13:05:31  5-MIN KDBQ 021905Z 34012G19KT 10SM BKN040 19/11 A3022 800 58 1500 340/12G19 RMK AO2
94908KDBQ DBQ20000602131010206/02/00 13:10:31  5-MIN KDBQ 021910Z 30009G17KT 10SM SCT040 19/11 A3022 800 58 1500 300/09G17 RMK AO2
94908KDBQ DBQ20000602131509606/02/00 13:15:31  5-MIN KDBQ 021915Z 34013KT 10SM BKN040 18/11 A3022 800 60 1400 340/13 RMK AO2
94908KDBQ DBQ20000602132009606/02/00 13:20:31  5-MIN KDBQ 021920Z 35010KT 10SM BKN040 19/11 A3022 800 58 1500 350/10 RMK AO2
94908KDBQ DBQ20000602132511206/02/00 13:25:31  5-MIN KDBQ 021925Z 34012KT 310V010 10SM BKN040 19/11 A3022 800 58 1500 340/12 310V010 RMK AO2
94908KDBQ DBQ20000602133011206/02/00 13:30:31  5-MIN KDBQ 021930Z 30009KT 280V360 10SM BKN042 19/11 A3022 800 56 1500 300/09 280V360 RMK AO2
94908KDBQ DBQ20000602133509606/02/00 13:35:31  5-MIN KDBQ 021935Z 34012KT 10SM BKN042 19/11 A3022 800 60 1500 340/12 RMK AO2
94908KDBQ DBQ20000602134009606/02/00 13:40:31  5-MIN KDBQ 021940Z 34010KT 10SM BKN042 19/11 A3022 800 58 1500 340/10 RMK AO2
94908KDBQ DBQ20000602134509606/02/00 13:45:31  5-MIN KDBQ 021945Z 34008KT 10SM BKN042 19/11 A3022 800 58 1500 340/08 RMK AO2
94908KDBQ DBQ20000602135011306/02/00 13:50:31  5-MIN KDBQ 021950Z 34011KT 10SM BKN042 19/11 A3022 800 56 1500 340/11 RMK AO2 SLP232 T01940106
94908KDBQ DBQ20000602135511306/02/00 13:55:31  5-MIN KDBQ 021955Z 32010KT 10SM BKN042 21/11 A3022 800 54 1700 310/10 RMK AO2 SLP231 T02060111
94908KDBQ DBQ20000602140009606/02/00 14:00:31  5-MIN KDBQ 022000Z 34013KT 10SM SCT042 20/12 A3022 800 58 1600 340/13 RMK AO2
94908KDBQ DBQ20000602140509606/02/00 14:05:31  5-MIN KDBQ 022005Z 34011KT 10SM SCT042 20/11 A3022 800 54 1600 330/11 RMK AO2
94908KDBQ DBQ20000602141010206/02/00 14:10:31  5-MIN KDBQ 022010Z 31012G17KT 10SM SCT042 21/11 A3022 800 54 1700 310/12G17 RMK AO2
94908KDBQ DBQ20000602141509606/02/00 14:15:31  5-MIN KDBQ 022015Z 32009KT 10SM SCT042 20/11 A3022 800 56 1600 320/09 RMK AO2
94908KDBQ DBQ20000602142009606/02/00 14:20:31  5-MIN KDBQ 022020Z 34010KT 10SM BKN042 19/12 A3022 800 62 1500 340/10 RMK AO2
94908KDBQ DBQ20000602142510206/02/00 14:25:31  5-MIN KDBQ 022025Z 33012G16KT 10SM BKN040 20/12 A3022 800 60 1600 330/12G16 RMK AO2
94908KDBQ DBQ20000602143009606/02/00 14:30:31  5-MIN KDBQ 022030Z 32014KT 10SM BKN042 20/12 A3022 800 58 1600 320/14 RMK AO2
94908KDBQ DBQ20000602143509606/02/00 14:35:31  5-MIN KDBQ 022035Z 32012KT 10SM SCT042 19/11 A3022 800 58 1500 320/12 RMK AO2
94908KDBQ DBQ20000602144009606/02/00 14:40:31  5-MIN KDBQ 022040Z 33011KT 10SM SCT039 20/11 A3022 800 56 1600 330/11 RMK AO2
94908KDBQ DBQ20000602144509606/02/00 14:45:31  5-MIN KDBQ 022045Z 31011KT 10SM SCT041 20/11 A3022 800 54 1600 310/11 RMK AO2
94908KDBQ DBQ20000602145011906/02/00 14:50:31  5-MIN KDBQ 022050Z 33010KT 10SM SCT043 20/11 A3022 800 54 1600 330/10 RMK AO2 SLP232 T02000106 51018
94908KDBQ DBQ20000602145511906/02/00 14:55:31  5-MIN KDBQ 022055Z 01011KT 10SM SCT043 19/11 A3022 800 58 1500 360/11 RMK AO2 SLP232 T01940111 51000
94908KDBQ DBQ20000602150009606/02/00 15:00:31  5-MIN KDBQ 022100Z 34010KT 10SM SCT043 19/11 A3022 800 58 1500 340/10 RMK AO2
94908KDBQ DBQ20000602150509606/02/00 15:05:31  5-MIN KDBQ 022105Z 34013KT 10SM SCT043 20/11 A3022 800 54 1600 340/13 RMK AO2
94908KDBQ DBQ20000602151009606/02/00 15:10:31  5-MIN KDBQ 022110Z 34011KT 10SM SCT043 20/11 A3022 800 54 1600 340/11 RMK AO2
94908KDBQ DBQ20000602151509606/02/00 15:15:31  5-MIN KDBQ 022115Z 32012KT 10SM SCT043 20/11 A3022 800 54 1600 320/12 RMK AO2
94908KDBQ DBQ20000602152009606/02/00 15:20:31  5-MIN KDBQ 022120Z 34012KT 10SM FEW043 20/10 A3022 800 52 1600 330/12 RMK AO2
94908KDBQ DBQ20000602152509606/02/00 15:25:31  5-MIN KDBQ 022125Z 34009KT 10SM FEW043 20/10 A3022 800 52 1600 340/09 RMK AO2
94908KDBQ DBQ20000602153009606/02/00 15:30:31  5-MIN KDBQ 022130Z 32013KT 10SM FEW043 20/11 A3022 800 54 1600 310/13 RMK AO2
94908KDBQ DBQ20000602153509606/02/00 15:35:31  5-MIN KDBQ 022135Z 31009KT 10SM SCT043 19/11 A3022 800 56 1600 310/09 RMK AO2
94908KDBQ DBQ20000602154009606/02/00 15:40:31  5-MIN KDBQ 022140Z 36012KT 10SM SCT045 19/11 A3022 800 56 1600 360/12 RMK AO2
94908KDBQ DBQ20000602154509606/02/00 15:45:31  5-MIN KDBQ 022145Z 36009KT 10SM FEW043 19/11 A3022 810 56 1600 360/09 RMK AO2
94908KDBQ DBQ20000602155012906/02/00 15:50:31  5-MIN KDBQ 022150Z 31008KT 270V330 10SM FEW043 20/11 A3022 800 54 1600 310/08 270V330 RMK AO2 SLP231 T02000106
94908KDBQ DBQ20000602155511306/02/00 15:55:31  5-MIN KDBQ 022155Z 35009KT 10SM FEW043 19/10 A3022 810 56 1500 350/09 RMK AO2 SLP231 T01890100
94908KDBQ DBQ20000602160009606/02/00 16:00:31  5-MIN KDBQ 022200Z 34009KT 10SM FEW043 19/09 A3022 810 52 1600 340/09 RMK AO2
94908KDBQ DBQ20000602160509606/02/00 16:05:31  5-MIN KDBQ 022205Z 36010KT 10SM FEW043 20/10 A3022 800 52 1600 360/10 RMK AO2
94908KDBQ DBQ20000602161009606/02/00 16:10:31  5-MIN KDBQ 022210Z 32012KT 10SM FEW045 20/11 A3022 800 54 1600 320/12 RMK AO2
94908KDBQ DBQ20000602161509606/02/00 16:15:31  5-MIN KDBQ 022215Z 30010KT 10SM FEW045 19/10 A3022 810 54 1600 300/10 RMK AO2
94908KDBQ DBQ20000602162009606/02/00 16:20:31  5-MIN KDBQ 022220Z 31009KT 10SM FEW045 19/10 A3022 800 54 1500 310/09 RMK AO2
94908KDBQ DBQ20000602162510206/02/00 16:25:31  5-MIN KDBQ 022225Z 33010G17KT 10SM SCT045 19/11 A3022 800 56 1500 330/10G17 RMK AO2
94908KDBQ DBQ20000602163010206/02/00 16:30:31  5-MIN KDBQ 022230Z 33011G17KT 10SM SCT045 19/10 A3022 800 54 1500 320/11G17 RMK AO2
94908KDBQ DBQ20000602163509606/02/00 16:35:31  5-MIN KDBQ 022235Z 30012KT 10SM FEW045 19/10 A3022 800 54 1500 300/12 RMK AO2
94908KDBQ DBQ20000602164009606/02/00 16:40:31  5-MIN KDBQ 022240Z 32007KT 10SM SCT045 19/10 A3022 800 54 1500 310/07 RMK AO2
94908KDBQ DBQ20000602164509606/02/00 16:45:31  5-MIN KDBQ 022245Z 35010KT 10SM BKN045 19/10 A3022 800 56 1500 350/10 RMK AO2
94908KDBQ DBQ20000602165011306/02/00 16:50:31  5-MIN KDBQ 022250Z 35008KT 10SM BKN045 19/10 A3022 800 56 1500 350/08 RMK AO2 SLP234 T01890100
94908KDBQ DBQ20000602165511306/02/00 16:55:31  5-MIN KDBQ 022255Z 36006KT 10SM BKN045 19/10 A3022 800 54 1500 360/06 RMK AO2 SLP233 T01940100
94908KDBQ DBQ20000602170009606/02/00 17:00:31  5-MIN KDBQ 022300Z 34007KT 10SM BKN045 19/10 A3022 800 54 1500 340/07 RMK AO2
94908KDBQ DBQ20000602170509606/02/00 17:05:31  5-MIN KDBQ 022305Z 35009KT 10SM BKN045 19/10 A3022 800 54 1500 350/09 RMK AO2
94908KDBQ DBQ20000602171009606/02/00 17:10:31  5-MIN KDBQ 022310Z 34006KT 10SM OVC045 19/10 A3022 800 54 1500 340/06 RMK AO2
94908KDBQ DBQ20000602171509606/02/00 17:15:31  5-MIN KDBQ 022315Z 34007KT 10SM OVC045 20/11 A3022 800 54 1600 340/07 RMK AO2
94908KDBQ DBQ20000602172009606/02/00 17:20:31  5-MIN KDBQ 022320Z 32007KT 10SM OVC043 20/11 A3022 800 54 1600 320/07 RMK AO2
94908KDBQ DBQ20000602172509606/02/00 17:25:31  5-MIN KDBQ 022325Z 33006KT 10SM BKN043 20/11 A3022 800 54 1600 330/06 RMK AO2
94908KDBQ DBQ20000602173010306/02/00 17:30:31  5-MIN KDBQ 022330Z 32010KT 10SM BKN045 BKN050 19/11 A3022 800 56 1500 320/10 RMK AO2
94908KDBQ DBQ20000602173510306/02/00 17:35:31  5-MIN KDBQ 022335Z 33009KT 10SM BKN045 BKN050 19/09 A3022 800 54 1500 320/09 RMK AO2
94908KDBQ DBQ20000602174009606/02/00 17:40:31  5-MIN KDBQ 022340Z 32009KT 10SM BKN047 19/09 A3022 800 54 1500 320/09 RMK AO2
94908KDBQ DBQ20000602174509606/02/00 17:45:31  5-MIN KDBQ 022345Z 32007KT 10SM BKN047 18/09 A3022 800 56 1400 320/07 RMK AO2
94908KDBQ DBQ20000602175013106/02/00 17:50:31  5-MIN KDBQ 022350Z 02007KT 10SM BKN047 19/10 A3023 800 56 1500 020/07 RMK AO2 SLP234 T01890100 10206 20183 51000
94908KDBQ DBQ20000602175513106/02/00 17:55:31  5-MIN KDBQ 022355Z 36009KT 10SM BKN047 19/10 A3023 800 56 1500 360/09 RMK AO2 SLP235 T01890100 10206 20183 53002
94908KDBQ DBQ20000602180009606/02/00 18:00:31  5-MIN KDBQ 030000Z 01009KT 10SM SCT049 19/10 A3023 790 56 1500 010/09 RMK AO2
94908KDBQ DBQ20000602180509606/02/00 18:05:31  5-MIN KDBQ 030005Z 35008KT 10SM SCT047 18/10 A3023 790 58 1400 350/08 RMK AO2
94908KDBQ DBQ20000602181009606/02/00 18:10:31  5-MIN KDBQ 030010Z 35006KT 10SM SCT049 18/10 A3023 790 58 1400 350/06 RMK AO2
94908KDBQ DBQ20000602181509606/02/00 18:15:31  5-MIN KDBQ 030015Z 36006KT 10SM SCT049 18/09 A3023 790 56 1400 360/06 RMK AO2
94908KDBQ DBQ20000602182009606/02/00 18:20:31  5-MIN KDBQ 030020Z 35006KT 10SM SCT049 18/11 A3023 790 60 1400 350/06 RMK AO2
94908KDBQ DBQ20000602182509606/02/00 18:25:31  5-MIN KDBQ 030025Z 34005KT 10SM FEW049 18/10 A3023 790 58 1400 340/05 RMK AO2
94908KDBQ DBQ20000602183009606/02/00 18:30:31  5-MIN KDBQ 030030Z 34005KT 10SM FEW049 18/10 A3023 790 58 1400 340/05 RMK AO2
94908KDBQ DBQ20000602183510606/02/00 18:35:31  5-MIN KDBQ 030035Z AUTO 33006KT 10SM FEW049 18/10 A3024 790 58 1400 320/06 RMK AO2 TSNO
94908KDBQ DBQ20000602184010606/02/00 18:40:31  5-MIN KDBQ 030040Z AUTO 33006KT 10SM FEW049 18/10 A3024 790 58 1400 330/06 RMK AO2 TSNO
94908KDBQ DBQ20000602184510306/02/00 18:45:31  5-MIN KDBQ 030045Z AUTO 34006KT 10SM CLR 18/10 A3024 780 58 1400 340/06 RMK AO2 TSNO
94908KDBQ DBQ20000602185012006/02/00 18:50:31  5-MIN KDBQ 030050Z AUTO 34005KT 10SM CLR 18/10 A3024 780 58 1400 340/05 RMK AO2 SLP240 T01830100 TSNO
94908KDBQ DBQ20000602185512306/02/00 18:55:31  5-MIN KDBQ 030055Z AUTO 35007KT 10SM FEW055 18/09 A3024 780 58 1300 350/07 RMK AO2 SLP240 T01780094 TSNO
94908KDBQ DBQ20000602190010606/02/00 19:00:31  5-MIN KDBQ 030100Z AUTO 35006KT 10SM SCT050 18/10 A3024 780 60 1300 350/06 RMK AO2 TSNO
94908KDBQ DBQ20000602190510606/02/00 19:05:31  5-MIN KDBQ 030105Z AUTO 36005KT 10SM BKN055 18/10 A3024 780 60 1300 360/05 RMK AO2 TSNO
94908KDBQ DBQ20000602191010606/02/00 19:10:31  5-MIN KDBQ 030110Z AUTO 36004KT 10SM BKN055 18/10 A3024 780 60 1300 360/04 RMK AO2 TSNO
94908KDBQ DBQ20000602191510606/02/00 19:15:31  5-MIN KDBQ 030115Z AUTO 36004KT 10SM BKN050 17/10 A3024 780 62 1300 360/04 RMK AO2 TSNO
94908KDBQ DBQ20000602192010606/02/00 19:20:31  5-MIN KDBQ 030120Z AUTO 36003KT 10SM OVC050 17/10 A3024 780 62 1300 360/03 RMK AO2 TSNO
94908KDBQ DBQ20000602192510606/02/00 19:25:31  5-MIN KDBQ 030125Z AUTO 35003KT 10SM OVC050 17/10 A3024 780 62 1300 350/03 RMK AO2 TSNO
94908KDBQ DBQ20000602193010606/02/00 19:30:31  5-MIN KDBQ 030130Z AUTO 34003KT 10SM OVC050 17/10 A3025 780 62 1300 340/03 RMK AO2 TSNO
94908KDBQ DBQ20000602193510606/02/00 19:35:31  5-MIN KDBQ 030135Z AUTO 31004KT 10SM BKN050 17/10 A3025 780 62 1300 310/04 RMK AO2 TSNO
94908KDBQ DBQ20000602194010606/02/00 19:40:31  5-MIN KDBQ 030140Z AUTO 31004KT 10SM BKN050 16/11 A3025 770 72 1100 310/04 RMK AO2 TSNO
94908KDBQ DBQ20000602194511306/02/00 19:45:31  5-MIN KDBQ 030145Z AUTO 30004KT 10SM BKN050 BKN055 16/11 A3025 770 72 1100 300/04 RMK AO2 TSNO
94908KDBQ DBQ20000602195013006/02/00 19:50:31  5-MIN KDBQ 030150Z AUTO 31004KT 10SM BKN050 BKN055 16/11 A3025 770 72 1100 310/04 RMK AO2 SLP245 T01610111 TSNO
94908KDBQ DBQ20000602195513006/02/00 19:55:31  5-MIN KDBQ 030155Z AUTO 30003KT 10SM BKN050 BKN055 16/11 A3026 770 72 1100 300/03 RMK AO2 SLP245 T01560106 TSNO
94908KDBQ DBQ20000602200010606/02/00 20:00:31  5-MIN KDBQ 030200Z AUTO 30004KT 10SM BKN050 16/11 A3026 770 72 1100 300/04 RMK AO2 TSNO
94908KDBQ DBQ20000602200510606/02/00 20:05:31  5-MIN KDBQ 030205Z AUTO 32004KT 10SM BKN050 16/11 A3026 770 74 1000 310/04 RMK AO2 TSNO
94908KDBQ DBQ20000602201011306/02/00 20:10:31  5-MIN KDBQ 030210Z AUTO 32005KT 10SM SCT050 SCT055 16/11 A3026 760 72 1000 320/05 RMK AO2 TSNO
94908KDBQ DBQ20000602201510606/02/00 20:15:31  5-MIN KDBQ 030215Z AUTO 33006KT 10SM SCT050 16/10 A3026 760 67 1100 330/06 RMK AO2 TSNO
94908KDBQ DBQ20000602202010606/02/00 20:20:31  5-MIN KDBQ 030220Z AUTO 34006KT 10SM SCT050 16/10 A3026 760 69 1000 340/06 RMK AO2 TSNO
94908KDBQ DBQ20000602202510606/02/00 20:25:31  5-MIN KDBQ 030225Z AUTO 35004KT 10SM FEW050 16/10 A3027 760 69 1000 350/04 RMK AO2 TSNO
94908KDBQ DBQ20000602203010606/02/00 20:30:31  5-MIN KDBQ 030230Z AUTO 36004KT 10SM FEW050 16/09 A3027 760 67 1000 360/04 RMK AO2 TSNO
94908KDBQ DBQ20000602203510306/02/00 20:35:31  5-MIN KDBQ 030235Z AUTO 35004KT 10SM CLR 16/10 A3027 760 69 1000 340/04 RMK AO2 TSNO
94908KDBQ DBQ20000602204010306/02/00 20:40:31  5-MIN KDBQ 030240Z AUTO 35004KT 10SM CLR 16/10 A3027 760 67 1100 350/04 RMK AO2 TSNO
94908KDBQ DBQ20000602204510306/02/00 20:45:31  5-MIN KDBQ 030245Z AUTO 34003KT 10SM CLR 16/10 A3027 750 69 1000 340/03 RMK AO2 TSNO
94908KDBQ DBQ20000602205012606/02/00 20:50:31  5-MIN KDBQ 030250Z AUTO 35003KT 10SM CLR 16/10 A3027 750 67 1100 350/03 RMK AO2 SLP251 T01610100 53002 TSNO
94908KDBQ DBQ20000602205512606/02/00 20:55:31  5-MIN KDBQ 030255Z AUTO 34003KT 10SM CLR 16/10 A3028 750 69 1000 340/03 RMK AO2 SLP252 T01560100 53016 TSNO
94908KDBQ DBQ20000602210010306/02/00 21:00:31  5-MIN KDBQ 030300Z AUTO 34003KT 10SM CLR 16/10 A3028 750 69 1000 340/03 RMK AO2 TSNO
94908KDBQ DBQ20000602210510306/02/00 21:05:31  5-MIN KDBQ 030305Z AUTO 35004KT 10SM CLR 16/10 A3028 750 69 1000 350/04 RMK AO2 TSNO
94908KDBQ DBQ20000602211010306/02/00 21:10:31  5-MIN KDBQ 030310Z AUTO 35003KT 10SM CLR 16/09 A3028 750 67 1000 350/03 RMK AO2 TSNO
94908KDBQ DBQ20000602211510306/02/00 21:15:31  5-MIN KDBQ 030315Z AUTO 35004KT 10SM CLR 16/09 A3028 750 67 1000 350/04 RMK AO2 TSNO
94908KDBQ DBQ20000602212010306/02/00 21:20:31  5-MIN KDBQ 030320Z AUTO 34004KT 10SM CLR 16/09 A3028 750 67 1000 340/04 RMK AO2 TSNO
94908KDBQ DBQ20000602212510306/02/00 21:25:31  5-MIN KDBQ 030325Z AUTO 33004KT 10SM CLR 16/09 A3028 750 64 1100 330/04 RMK AO2 TSNO
94908KDBQ DBQ20000602213010306/02/00 21:30:31  5-MIN KDBQ 030330Z AUTO 33003KT 10SM CLR 16/09 A3028 750 67 1000 320/03 RMK AO2 TSNO
94908KDBQ DBQ20000602213510206/02/00 21:35:31  5-MIN KDBQ 030335Z AUTO 33003KT 10SM CLR 14/09 A3028 750 72 900 330/03 RMK AO2 TSNO
94908KDBQ DBQ20000602214010206/02/00 21:40:31  5-MIN KDBQ 030340Z AUTO 33003KT 10SM CLR 14/10 A3028 750 74 900 330/03 RMK AO2 TSNO
94908KDBQ DBQ20000602214510306/02/00 21:45:31  5-MIN KDBQ 030345Z AUTO 32003KT 10SM CLR 15/09 A3028 750 69 1000 320/03 RMK AO2 TSNO
94908KDBQ DBQ20000602215011906/02/00 21:50:31  5-MIN KDBQ 030350Z AUTO 33003KT 10SM CLR 14/10 A3028 750 74 900 320/03 RMK AO2 SLP252 T01440100 TSNO
94908KDBQ DBQ20000602215511906/02/00 21:55:31  5-MIN KDBQ 030355Z AUTO 35003KT 10SM CLR 14/09 A3028 750 72 900 340/03 RMK AO2 SLP252 T01440094 TSNO
94908KDBQ DBQ20000602220010306/02/00 22:00:31  5-MIN KDBQ 030400Z AUTO 35003KT 10SM CLR 15/09 A3028 750 69 1000 340/03 RMK AO2 TSNO
94908KDBQ DBQ20000602220510306/02/00 22:05:31  5-MIN KDBQ 030405Z AUTO 34003KT 10SM CLR 15/09 A3028 750 69 1000 340/03 RMK AO2 TSNO
94908KDBQ DBQ20000602221010306/02/00 22:10:31  5-MIN KDBQ 030410Z AUTO 35003KT 10SM CLR 15/09 A3028 750 69 1000 350/03 RMK AO2 TSNO
94908KDBQ DBQ20000602221510206/02/00 22:15:31  5-MIN KDBQ 030415Z AUTO 35003KT 10SM CLR 14/09 A3028 750 72 900 350/03 RMK AO2 TSNO
94908KDBQ DBQ20000602222010206/02/00 22:20:31  5-MIN KDBQ 030420Z AUTO 36003KT 10SM CLR 14/09 A3028 750 72 900 350/03 RMK AO2 TSNO
94908KDBQ DBQ20000602222510206/02/00 22:25:31  5-MIN KDBQ 030425Z AUTO 36003KT 10SM CLR 14/09 A3027 750 72 900 360/03 RMK AO2 TSNO
94908KDBQ DBQ20000602223010206/02/00 22:30:31  5-MIN KDBQ 030430Z AUTO 36003KT 10SM CLR 14/10 A3027 750 74 900 360/03 RMK AO2 TSNO
94908KDBQ DBQ20000602223510206/02/00 22:35:31  5-MIN KDBQ 030435Z AUTO 36003KT 10SM CLR 14/10 A3028 750 74 900 360/03 RMK AO2 TSNO
94908KDBQ DBQ20000602224010206/02/00 22:40:31  5-MIN KDBQ 030440Z AUTO 35003KT 10SM CLR 14/10 A3028 750 74 900 350/03 RMK AO2 TSNO
94908KDBQ DBQ20000602224510206/02/00 22:45:31  5-MIN KDBQ 030445Z AUTO 00000KT 10SM CLR 14/10 A3028 750 74 900 000/00 RMK AO2 TSNO
94908KDBQ DBQ20000602225011906/02/00 22:50:31  5-MIN KDBQ 030450Z AUTO 00000KT 10SM CLR 14/09 A3028 750 74 800 000/00 RMK AO2 SLP253 T01390094 TSNO
94908KDBQ DBQ20000602225511906/02/00 22:55:31  5-MIN KDBQ 030455Z AUTO 00000KT 10SM CLR 14/09 A3028 750 74 800 000/00 RMK AO2 SLP253 T01390094 TSNO
94908KDBQ DBQ20000602230010206/02/00 23:00:31  5-MIN KDBQ 030500Z AUTO 00000KT 10SM CLR 13/10 A3028 750 80 800 000/00 RMK AO2 TSNO
94908KDBQ DBQ20000602230510206/02/00 23:05:31  5-MIN KDBQ 030505Z AUTO 00000KT 10SM CLR 14/10 A3028 750 77 800 000/00 RMK AO2 TSNO
94908KDBQ DBQ20000602231010206/02/00 23:10:31  5-MIN KDBQ 030510Z AUTO 00000KT 10SM CLR 13/10 A3028 750 80 800 000/00 RMK AO2 TSNO
94908KDBQ DBQ20000602231510206/02/00 23:15:31  5-MIN KDBQ 030515Z AUTO 00000KT 10SM CLR 13/10 A3028 750 83 700 000/00 RMK AO2 TSNO
94908KDBQ DBQ20000602232010206/02/00 23:20:31  5-MIN KDBQ 030520Z AUTO 32003KT 10SM CLR 13/09 A3028 750 80 700 320/03 RMK AO2 TSNO
94908KDBQ DBQ20000602232510206/02/00 23:25:31  5-MIN KDBQ 030525Z AUTO 00000KT 10SM CLR 13/09 A3028 750 77 800 000/00 RMK AO2 TSNO
94908KDBQ DBQ20000602233010206/02/00 23:30:31  5-MIN KDBQ 030530Z AUTO 00000KT 10SM CLR 13/09 A3028 750 77 800 000/00 RMK AO2 TSNO
94908KDBQ DBQ20000602233510206/02/00 23:35:31  5-MIN KDBQ 030535Z AUTO 00000KT 10SM CLR 13/09 A3028 750 77 800 000/00 RMK AO2 TSNO
94908KDBQ DBQ20000602234010206/02/00 23:40:31  5-MIN KDBQ 030540Z AUTO 00000KT 10SM CLR 13/10 A3028 750 80 800 000/00 RMK AO2 TSNO
94908KDBQ DBQ20000602234510206/02/00 23:45:31  5-MIN KDBQ 030545Z AUTO 34003KT 10SM CLR 13/10 A3028 750 80 800 340/03 RMK AO2 TSNO
94908KDBQ DBQ20000602235014706/02/00 23:50:31  5-MIN KDBQ 030550Z AUTO 34003KT 10SM CLR 13/09 A3028 750 77 800 340/03 RMK AO2 SLP254 T01330094 10189 20128 402060128 53016 TSNO
94908KDBQ DBQ20000602235514706/02/00 23:55:31  5-MIN KDBQ 030555Z AUTO 35003KT 10SM CLR 13/09 A3028 750 77 800 350/03 RMK AO2 SLP254 T01330094 10189 20128 402060128 51002 TSNO
94908KDBQ DBQ20000603000010206/03/00 00:00:31  5-MIN KDBQ 030600Z AUTO 35003KT 10SM CLR 13/09 A3028 750 77 800 350/03 RMK AO2 TSNO
94908KDBQ DBQ20000603000510206/03/00 00:05:31  5-MIN KDBQ 030605Z AUTO 34003KT 10SM CLR 13/09 A3028 750 77 800 340/03 RMK AO2 TSNO
94908KDBQ DBQ20000603001010206/03/00 00:10:31  5-MIN KDBQ 030610Z AUTO 00000KT 10SM CLR 13/09 A3028 750 77 800 000/00 RMK AO2 TSNO
94908KDBQ DBQ20000603001510206/03/00 00:15:31  5-MIN KDBQ 030615Z AUTO 34003KT 10SM CLR 13/09 A3028 750 80 700 340/03 RMK AO2 TSNO
94908KDBQ DBQ20000603002010206/03/00 00:20:31  5-MIN KDBQ 030620Z AUTO 35003KT 10SM CLR 13/09 A3028 750 80 700 350/03 RMK AO2 TSNO
94908KDBQ DBQ20000603002510206/03/00 00:25:31  5-MIN KDBQ 030625Z AUTO 36003KT 10SM CLR 12/09 A3028 750 83 600 360/03 RMK AO2 TSNO
94908KDBQ DBQ20000603003010206/03/00 00:30:31  5-MIN KDBQ 030630Z AUTO 35003KT 10SM CLR 12/09 A3028 750 83 600 350/03 RMK AO2 TSNO
94908KDBQ DBQ20000603003510206/03/00 00:35:31  5-MIN KDBQ 030635Z AUTO 35003KT 10SM CLR 12/09 A3028 750 83 600 350/03 RMK AO2 TSNO
94908KDBQ DBQ20000603004010206/03/00 00:40:31  5-MIN KDBQ 030640Z AUTO 36003KT 10SM CLR 13/09 A3028 750 80 700 360/03 RMK AO2 TSNO
94908KDBQ DBQ20000603004510206/03/00 00:45:31  5-MIN KDBQ 030645Z AUTO 36004KT 10SM CLR 12/09 A3028 750 86 600 360/04 RMK AO2 TSNO
94908KDBQ DBQ20000603005011906/03/00 00:50:31  5-MIN KDBQ 030650Z AUTO 36004KT 10SM CLR 12/09 A3028 750 83 600 360/04 RMK AO2 SLP252 T01220094 TSNO
94908KDBQ DBQ20000603005511906/03/00 00:55:31  5-MIN KDBQ 030655Z AUTO 36004KT 10SM CLR 13/10 A3028 750 83 700 360/04 RMK AO2 SLP252 T01280100 TSNO
94908KDBQ DBQ20000603010010206/03/00 01:00:31  5-MIN KDBQ 030700Z AUTO 36005KT 10SM CLR 13/09 A3027 750 80 700 360/05 RMK AO2 TSNO
94908KDBQ DBQ20000603010510206/03/00 01:05:31  5-MIN KDBQ 030705Z AUTO 36005KT 10SM CLR 12/09 A3027 750 83 600 360/05 RMK AO2 TSNO
94908KDBQ DBQ20000603011010206/03/00 01:10:31  5-MIN KDBQ 030710Z AUTO 36005KT 10SM CLR 13/09 A3027 750 80 700 360/05 RMK AO2 TSNO
94908KDBQ DBQ20000603011510206/03/00 01:15:31  5-MIN KDBQ 030715Z AUTO 36005KT 10SM CLR 13/09 A3027 750 80 700 360/05 RMK AO2 TSNO
94908KDBQ DBQ20000603012010206/03/00 01:20:31  5-MIN KDBQ 030720Z AUTO 36005KT 10SM CLR 12/09 A3027 750 80 600 360/05 RMK AO2 TSNO
94908KDBQ DBQ20000603012510206/03/00 01:25:31  5-MIN KDBQ 030725Z AUTO 36005KT 10SM CLR 12/09 A3027 750 80 600 360/05 RMK AO2 TSNO
94908KDBQ DBQ20000603013010206/03/00 01:30:31  5-MIN KDBQ 030730Z AUTO 01005KT 10SM CLR 12/09 A3028 750 80 600 360/05 RMK AO2 TSNO
94908KDBQ DBQ20000603013510206/03/00 01:35:31  5-MIN KDBQ 030735Z AUTO 36005KT 10SM CLR 12/09 A3028 750 83 600 360/05 RMK AO2 TSNO
94908KDBQ DBQ20000603014010206/03/00 01:40:31  5-MIN KDBQ 030740Z AUTO 36005KT 10SM CLR 12/09 A3028 750 83 600 360/05 RMK AO2 TSNO
94908KDBQ DBQ20000603014510206/03/00 01:45:31  5-MIN KDBQ 030745Z AUTO 36004KT 10SM CLR 12/09 A3028 750 80 600 360/04 RMK AO2 TSNO
94908KDBQ DBQ20000603015011906/03/00 01:50:31  5-MIN KDBQ 030750Z AUTO 36004KT 10SM CLR 11/09 A3028 750 86 500 360/04 RMK AO2 SLP254 T01110089 TSNO
94908KDBQ DBQ20000603015511906/03/00 01:55:31  5-MIN KDBQ 030755Z AUTO 36003KT 10SM CLR 11/09 A3028 750 89 400 360/03 RMK AO2 SLP254 T01060089 TSNO
94908KDBQ DBQ20000603020010206/03/00 02:00:31  5-MIN KDBQ 030800Z AUTO 00000KT 10SM CLR 12/09 A3028 750 83 600 000/00 RMK AO2 TSNO
94908KDBQ DBQ20000603020510206/03/00 02:05:31  5-MIN KDBQ 030805Z AUTO 00000KT 10SM CLR 11/09 A3028 750 89 400 000/00 RMK AO2 TSNO
94908KDBQ DBQ20000603021010206/03/00 02:10:31  5-MIN KDBQ 030810Z AUTO 00000KT 10SM CLR 11/09 A3028 750 89 500 000/00 RMK AO2 TSNO
94908KDBQ DBQ20000603021510206/03/00 02:15:31  5-MIN KDBQ 030815Z AUTO 00000KT 10SM CLR 12/09 A3028 750 86 600 000/00 RMK AO2 TSNO
94908KDBQ DBQ20000603022010206/03/00 02:20:31  5-MIN KDBQ 030820Z AUTO 00000KT 10SM CLR 12/09 A3028 750 83 600 000/00 RMK AO2 TSNO
94908KDBQ DBQ20000603022510206/03/00 02:25:31  5-MIN KDBQ 030825Z AUTO 00000KT 10SM CLR 12/09 A3028 750 86 600 000/00 RMK AO2 TSNO
94908KDBQ DBQ20000603023010206/03/00 02:30:31  5-MIN KDBQ 030830Z AUTO 00000KT 10SM CLR 12/09 A3028 750 86 600 000/00 RMK AO2 TSNO
94908KDBQ DBQ20000603023510206/03/00 02:35:31  5-MIN KDBQ 030835Z AUTO 04003KT 10SM CLR 12/09 A3028 750 86 600 040/03 RMK AO2 TSNO
94908KDBQ DBQ20000603024010206/03/00 02:40:31  5-MIN KDBQ 030840Z AUTO 01004KT 10SM CLR 11/09 A3028 750 89 500 010/04 RMK AO2 TSNO
94908KDBQ DBQ20000603024510206/03/00 02:45:31  5-MIN KDBQ 030845Z AUTO 36004KT 10SM CLR 11/09 A3028 750 86 500 360/04 RMK AO2 TSNO
94908KDBQ DBQ20000603025012506/03/00 02:50:31  5-MIN KDBQ 030850Z AUTO 36004KT 10SM CLR 11/08 A3028 750 86 400 360/04 RMK AO2 SLP254 T01060083 51002 TSNO
94908KDBQ DBQ20000603025512506/03/00 02:55:31  5-MIN KDBQ 030855Z AUTO 00000KT 10SM CLR 10/09 A3028 750 93 400 000/00 RMK AO2 SLP255 T01000089 56000 TSNO
94908KDBQ DBQ20000603030010206/03/00 03:00:31  5-MIN KDBQ 030900Z AUTO 00000KT 10SM CLR 10/09 A3028 750 93 400 000/00 RMK AO2 TSNO
94908KDBQ DBQ20000603030510206/03/00 03:05:31  5-MIN KDBQ 030905Z AUTO 00000KT 10SM CLR 11/09 A3028 750 89 400 000/00 RMK AO2 TSNO
94908KDBQ DBQ20000603031010206/03/00 03:10:31  5-MIN KDBQ 030910Z AUTO 00000KT 10SM CLR 10/09 A3028 750 93 400 000/00 RMK AO2 TSNO
94908KDBQ DBQ20000603031510206/03/00 03:15:31  5-MIN KDBQ 030915Z AUTO 00000KT 10SM CLR 11/09 A3028 750 86 500 000/00 RMK AO2 TSNO
94908KDBQ DBQ20000603032010206/03/00 03:20:31  5-MIN KDBQ 030920Z AUTO 00000KT 10SM CLR 11/09 A3028 750 89 500 000/00 RMK AO2 TSNO
94908KDBQ DBQ20000603032510206/03/00 03:25:31  5-MIN KDBQ 030925Z AUTO 00000KT 10SM CLR 11/09 A3028 750 89 500 000/00 RMK AO2 TSNO
94908KDBQ DBQ20000603033010206/03/00 03:30:31  5-MIN KDBQ 030930Z AUTO 00000KT 10SM CLR 11/09 A3028 740 89 400 000/00 RMK AO2 TSNO
94908KDBQ DBQ20000603033510206/03/00 03:35:31  5-MIN KDBQ 030935Z AUTO 00000KT 10SM CLR 11/09 A3028 740 89 400 000/00 RMK AO2 TSNO
94908KDBQ DBQ20000603034010206/03/00 03:40:31  5-MIN KDBQ 030940Z AUTO 00000KT 10SM CLR 11/09 A3028 750 89 500 000/00 RMK AO2 TSNO
94908KDBQ DBQ20000603034510206/03/00 03:45:31  5-MIN KDBQ 030945Z AUTO 00000KT 10SM CLR 11/09 A3028 740 86 500 000/00 RMK AO2 TSNO
94908KDBQ DBQ20000603035011906/03/00 03:50:31  5-MIN KDBQ 030950Z AUTO 00000KT 10SM CLR 11/09 A3028 740 86 500 000/00 RMK AO2 SLP254 T01110089 TSNO
94908KDBQ DBQ20000603035511806/03/00 03:55:31  5-MIN KDBQ 030955Z AUTO 00000KT 9SM CLR 11/09 A3028 750 89 400 000/00 RMK AO2 SLP255 T01060089 TSNO
94908KDBQ DBQ20000603040010106/03/00 04:00:31  5-MIN KDBQ 031000Z AUTO 03003KT 9SM CLR 11/09 A3028 740 89 400 030/03 RMK AO2 TSNO
94908KDBQ DBQ20000603040510106/03/00 04:05:31  5-MIN KDBQ 031005Z AUTO 00000KT 9SM CLR 11/09 A3028 740 89 400 000/00 RMK AO2 TSNO
94908KDBQ DBQ20000603041010106/03/00 04:10:31  5-MIN KDBQ 031010Z AUTO 00000KT 9SM CLR 11/09 A3029 740 89 400 000/00 RMK AO2 TSNO
94908KDBQ DBQ20000603041510106/03/00 04:15:31  5-MIN KDBQ 031015Z AUTO 02003KT 8SM CLR 11/09 A3029 740 86 500 020/03 RMK AO2 TSNO
94908KDBQ DBQ20000603042010106/03/00 04:20:31  5-MIN KDBQ 031020Z AUTO 02004KT 7SM CLR 11/09 A3029 740 89 400 010/04 RMK AO2 TSNO
94908KDBQ DBQ20000603042510106/03/00 04:25:31  5-MIN KDBQ 031025Z AUTO 01004KT 7SM CLR 11/09 A3029 740 89 400 010/04 RMK AO2 TSNO
94908KDBQ DBQ20000603043010106/03/00 04:30:31  5-MIN KDBQ 031030Z AUTO 02003KT 7SM CLR 11/09 A3029 740 89 400 020/03 RMK AO2 TSNO
94908KDBQ DBQ20000603043510106/03/00 04:35:31  5-MIN KDBQ 031035Z AUTO 00000KT 7SM CLR 11/09 A3029 740 89 400 000/00 RMK AO2 TSNO
94908KDBQ DBQ20000603044010106/03/00 04:40:31  5-MIN KDBQ 031040Z AUTO 01003KT 7SM CLR 11/09 A3029 740 89 500 010/03 RMK AO2 TSNO
94908KDBQ DBQ20000603044510106/03/00 04:45:31  5-MIN KDBQ 031045Z AUTO 02003KT 7SM CLR 11/09 A3029 740 89 500 020/03 RMK AO2 TSNO
94908KDBQ DBQ20000603045010806/03/00 04:50:31  5-MIN KDBQ 031050Z 03003KT 7SM CLR 11/09 A3029 740 86 500 030/03 RMK AO2 SLP259 T01110089
94908KDBQ DBQ20000603045510806/03/00 04:55:31  5-MIN KDBQ 031055Z 02003KT 7SM CLR 11/09 A3029 730 86 500 020/03 RMK AO2 SLP258 T01110089
94908KDBQ DBQ20000603050009106/03/00 05:00:31  5-MIN KDBQ 031100Z 02004KT 7SM CLR 11/09 A3029 730 89 400 020/04 RMK AO2
94908KDBQ DBQ20000603050509406/03/00 05:05:31  5-MIN KDBQ 031105Z 03005KT 6SM BR CLR 11/09 A3030 730 89 400 030/05 RMK AO2
94908KDBQ DBQ20000603051009406/03/00 05:10:31  5-MIN KDBQ 031110Z 02005KT 6SM BR CLR 11/09 A3030 730 93 400 020/05 RMK AO2
94908KDBQ DBQ20000603051509406/03/00 05:15:31  5-MIN KDBQ 031115Z 02005KT 6SM BR CLR 11/09 A3030 730 93 400 020/05 RMK AO2
94908KDBQ DBQ20000603052009406/03/00 05:20:31  5-MIN KDBQ 031120Z 02005KT 6SM BR CLR 11/09 A3030 730 89 500 020/05 RMK AO2
94908KDBQ DBQ20000603052509406/03/00 05:25:31  5-MIN KDBQ 031125Z 03004KT 6SM BR CLR 11/10 A3030 730 93 500 030/04 RMK AO2
94908KDBQ DBQ20000603053009406/03/00 05:30:31  5-MIN KDBQ 031130Z 03003KT 6SM BR CLR 12/10 A3030 730 89 500 030/03 RMK AO2
94908KDBQ DBQ20000603053509406/03/00 05:35:31  5-MIN KDBQ 031135Z 03003KT 5SM BR CLR 12/10 A3030 730 89 500 030/03 RMK AO2
94908KDBQ DBQ20000603054009406/03/00 05:40:31  5-MIN KDBQ 031140Z 00000KT 5SM BR CLR 12/11 A3030 730 89 600 000/00 RMK AO2
94908KDBQ DBQ20000603054509406/03/00 05:45:31  5-MIN KDBQ 031145Z 00000KT 4SM BR CLR 12/11 A3030 730 89 600 000/00 RMK AO2
94908KDBQ DBQ20000603055012906/03/00 05:50:31  5-MIN KDBQ 031150Z 02003KT 3SM BR CLR 13/11 A3030 730 86 700 020/03 RMK AO2 SLP262 T01280106 10133 20100 56000
94908KDBQ DBQ20000603055512906/03/00 05:55:31  5-MIN KDBQ 031155Z 04003KT 3SM BR CLR 13/11 A3030 730 89 700 040/03 RMK AO2 SLP262 T01280111 10133 20100 53008
94908KDBQ DBQ20000603060009406/03/00 06:00:31  5-MIN KDBQ 031200Z 05003KT 3SM BR CLR 13/11 A3030 730 89 700 050/03 RMK AO2
94908KDBQ DBQ20000603060509406/03/00 06:05:31  5-MIN KDBQ 031205Z 05004KT 3SM BR CLR 13/11 A3030 730 89 700 050/04 RMK AO2
94908KDBQ DBQ20000603061009406/03/00 06:10:31  5-MIN KDBQ 031210Z 05004KT 4SM BR CLR 13/11 A3030 730 86 700 050/04 RMK AO2
94908KDBQ DBQ20000603061509406/03/00 06:15:31  5-MIN KDBQ 031215Z 07004KT 5SM BR CLR 13/11 A3030 730 86 700 070/04 RMK AO2
94908KDBQ DBQ20000603062009406/03/00 06:20:31  5-MIN KDBQ 031220Z 06004KT 6SM BR CLR 13/11 A3030 730 86 700 060/04 RMK AO2
94908KDBQ DBQ20000603062509106/03/00 06:25:31  5-MIN KDBQ 031225Z 05004KT 7SM CLR 14/11 A3031 720 83 800 050/04 RMK AO2
94908KDBQ DBQ20000603063009106/03/00 06:30:31  5-MIN KDBQ 031230Z 08004KT 7SM CLR 14/11 A3031 720 83 800 080/04 RMK AO2
94908KDBQ DBQ20000603063509106/03/00 06:35:31  5-MIN KDBQ 031235Z 08003KT 8SM CLR 14/11 A3031 720 80 900 080/03 RMK AO2
94908KDBQ DBQ20000603064009106/03/00 06:40:31  5-MIN KDBQ 031240Z 09003KT 9SM CLR 14/11 A3030 730 80 900 080/03 RMK AO2
94908KDBQ DBQ20000603064509206/03/00 06:45:31  5-MIN KDBQ 031245Z 08003KT 10SM CLR 14/11 A3031 720 80 900 080/03 RMK AO2
94908KDBQ DBQ20000603065010906/03/00 06:50:31  5-MIN KDBQ 031250Z 11006KT 10SM CLR 15/11 A3031 720 77 900 110/06 RMK AO2 SLP261 T01500111
94908KDBQ DBQ20000603065510906/03/00 06:55:31  5-MIN KDBQ 031255Z 11007KT 10SM CLR 15/11 A3031 720 77 900 110/07 RMK AO2 SLP261 T01500111
94908KDBQ DBQ20000603070009206/03/00 07:00:31  5-MIN KDBQ 031300Z 12006KT 10SM CLR 15/11 A3031 720 74 900 120/06 RMK AO2
94908KDBQ DBQ20000603070509206/03/00 07:05:31  5-MIN KDBQ 031305Z 12006KT 10SM CLR 15/11 A3030 720 74 900 120/06 RMK AO2
94908KDBQ DBQ20000603071009206/03/00 07:10:31  5-MIN KDBQ 031310Z 12008KT 10SM CLR 15/11 A3031 720 77 900 120/08 RMK AO2
94908KDBQ DBQ20000603071509206/03/00 07:15:31  5-MIN KDBQ 031315Z 12010KT 10SM CLR 15/11 A3030 720 74 900 120/10 RMK AO2
94908KDBQ DBQ20000603072009206/03/00 07:20:31  5-MIN KDBQ 031320Z 12007KT 10SM CLR 15/11 A3030 730 77 900 120/07 RMK AO2
94908KDBQ DBQ20000603072509306/03/00 07:25:31  5-MIN KDBQ 031325Z 13007KT 10SM CLR 16/11 A3030 730 74 1000 130/07 RMK AO2
94908KDBQ DBQ20000603073009306/03/00 07:30:31  5-MIN KDBQ 031330Z 13007KT 10SM CLR 16/11 A3030 730 74 1000 130/07 RMK AO2
94908KDBQ DBQ20000603073509306/03/00 07:35:31  5-MIN KDBQ 031335Z 13009KT 10SM CLR 16/12 A3030 730 77 1000 130/09 RMK AO2
94908KDBQ DBQ20000603074009206/03/00 07:40:31  5-MIN KDBQ 031340Z 14009KT 10SM CLR 15/11 A3030 730 77 900 140/09 RMK AO2
94908KDBQ DBQ20000603074509306/03/00 07:45:31  5-MIN KDBQ 031345Z 12008KT 10SM CLR 16/12 A3030 730 77 1000 120/08 RMK AO2
94908KDBQ DBQ20000603075011006/03/00 07:50:31  5-MIN KDBQ 031350Z 15008KT 10SM CLR 16/12 A3030 730 80 1000 150/08 RMK AO2 SLP259 T01560122
94908KDBQ DBQ20000603075511006/03/00 07:55:31  5-MIN KDBQ 031355Z 14008KT 10SM CLR 16/12 A3030 730 77 1000 140/08 RMK AO2 SLP259 T01560117
94908KDBQ DBQ20000603080009306/03/00 08:00:31  5-MIN KDBQ 031400Z 14006KT 10SM CLR 16/11 A3030 730 74 1000 140/06 RMK AO2
94908KDBQ DBQ20000603080509306/03/00 08:05:31  5-MIN KDBQ 031405Z 14008KT 10SM CLR 16/12 A3029 730 75 1100 140/08 RMK AO2
94908KDBQ DBQ20000603081009306/03/00 08:10:31  5-MIN KDBQ 031410Z 16008KT 10SM CLR 16/12 A3029 740 75 1100 150/08 RMK AO2
94908KDBQ DBQ20000603081509306/03/00 08:15:31  5-MIN KDBQ 031415Z 15007KT 10SM CLR 17/12 A3029 730 72 1100 150/07 RMK AO2
94908KDBQ DBQ20000603082009306/03/00 08:20:31  5-MIN KDBQ 031420Z 14010KT 10SM CLR 16/12 A3029 730 75 1100 140/10 RMK AO2
94908KDBQ DBQ20000603082509306/03/00 08:25:31  5-MIN KDBQ 031425Z 15008KT 10SM CLR 17/12 A3030 730 75 1100 150/08 RMK AO2
94908KDBQ DBQ20000603083009306/03/00 08:30:31  5-MIN KDBQ 031430Z 16009KT 10SM CLR 17/12 A3029 730 72 1100 160/09 RMK AO2
94908KDBQ DBQ20000603083509306/03/00 08:35:31  5-MIN KDBQ 031435Z 13008KT 10SM CLR 17/12 A3029 740 75 1100 130/08 RMK AO2
94908KDBQ DBQ20000603084009306/03/00 08:40:31  5-MIN KDBQ 031440Z 15010KT 10SM CLR 17/12 A3029 730 72 1100 150/10 RMK AO2
94908KDBQ DBQ20000603084509306/03/00 08:45:31  5-MIN KDBQ 031445Z 14009KT 10SM CLR 17/12 A3029 730 72 1100 140/09 RMK AO2
94908KDBQ DBQ20000603085011606/03/00 08:50:31  5-MIN KDBQ 031450Z 16010KT 10SM CLR 17/12 A3029 740 69 1200 160/10 RMK AO2 SLP257 T01720117 53008
94908KDBQ DBQ20000603085511606/03/00 08:55:31  5-MIN KDBQ 031455Z 14009KT 10SM CLR 17/12 A3029 740 69 1200 140/09 RMK AO2 SLP256 T01720117 58004
94908KDBQ DBQ20000603090009306/03/00 09:00:31  5-MIN KDBQ 031500Z 15008KT 10SM CLR 17/11 A3029 740 67 1200 150/08 RMK AO2
94908KDBQ DBQ20000603090509306/03/00 09:05:31  5-MIN KDBQ 031505Z 15009KT 10SM CLR 18/12 A3029 740 69 1300 150/09 RMK AO2
94908KDBQ DBQ20000603091009606/03/00 09:10:31  5-MIN KDBQ 031510Z 13009KT 10SM FEW028 17/12 A3029 740 69 1200 130/09 RMK AO2
94908KDBQ DBQ20000603091509606/03/00 09:15:31  5-MIN KDBQ 031515Z 16009KT 10SM FEW028 18/12 A3029 740 67 1300 160/09 RMK AO2
94908KDBQ DBQ20000603092009606/03/00 09:20:31  5-MIN KDBQ 031520Z 18008KT 10SM FEW026 18/12 A3029 740 67 1300 180/08 RMK AO2
94908KDBQ DBQ20000603092509606/03/00 09:25:31  5-MIN KDBQ 031525Z 17009KT 10SM FEW026 18/12 A3029 740 67 1300 170/09 RMK AO2
94908KDBQ DBQ20000603093010306/03/00 09:30:31  5-MIN KDBQ 031530Z 17009KT 10SM FEW026 SCT048 17/11 A3029 740 67 1200 170/09 RMK AO2
94908KDBQ DBQ20000603093511006/03/00 09:35:31  5-MIN KDBQ 031535Z 16009KT 10SM FEW026 SCT042 SCT050 18/11 A3029 740 64 1300 160/09 RMK AO2
94908KDBQ DBQ20000603094011006/03/00 09:40:31  5-MIN KDBQ 031540Z 19008KT 10SM FEW028 SCT035 BKN046 18/12 A3029 740 67 1300 190/08 RMK AO2
94908KDBQ DBQ20000603094511006/03/00 09:45:31  5-MIN KDBQ 031545Z 17007KT 10SM FEW028 SCT035 BKN046 18/11 A3029 740 64 1300 160/07 RMK AO2
94908KDBQ DBQ20000603095012006/03/00 09:50:31  5-MIN KDBQ 031550Z 15007KT 10SM SCT030 SCT041 18/11 A3028 740 62 1300 150/07 RMK AO2 SLP254 T01830111
94908KDBQ DBQ20000603095512006/03/00 09:55:31  5-MIN KDBQ 031555Z 17006KT 10SM SCT030 BKN041 18/11 A3028 740 64 1300 160/06 RMK AO2 SLP254 T01780111
94908KDBQ DBQ20000603100010306/03/00 10:00:31  5-MIN KDBQ 031600Z 17007KT 10SM SCT030 BKN037 18/11 A3028 740 62 1300 170/07 RMK AO2
94908KDBQ DBQ20000603100511006/03/00 10:05:31  5-MIN KDBQ 031605Z 16008KT 10SM FEW030 BKN039 BKN047 18/11 A3028 740 62 1300 160/08 RMK AO2
94908KDBQ DBQ20000603101010306/03/00 10:10:31  5-MIN KDBQ 031610Z 17007KT 10SM SCT034 BKN046 18/11 A3028 750 64 1300 170/07 RMK AO2
94908KDBQ DBQ20000603101510306/03/00 10:15:31  5-MIN KDBQ 031615Z 18008KT 10SM SCT036 BKN046 18/11 A3028 750 62 1300 180/08 RMK AO2
94908KDBQ DBQ20000603102010306/03/00 10:20:31  5-MIN KDBQ 031620Z 16006KT 10SM FEW036 SCT046 18/12 A3028 750 65 1400 150/06 RMK AO2
94908KDBQ DBQ20000603102510306/03/00 10:25:31  5-MIN KDBQ 031625Z 19005KT 10SM FEW038 SCT048 18/11 A3027 750 62 1400 190/05 RMK AO2
94908KDBQ DBQ20000603103009606/03/00 10:30:31  5-MIN KDBQ 031630Z 17008KT 10SM FEW041 18/11 A3027 750 62 1400 170/08 RMK AO2
94908KDBQ DBQ20000603103509606/03/00 10:35:31  5-MIN KDBQ 031635Z 17007KT 10SM FEW039 18/11 A3027 750 62 1400 170/07 RMK AO2
94908KDBQ DBQ20000603104010906/03/00 10:40:31  5-MIN KDBQ 031640Z 18008KT 170V230 10SM CLR 18/11 A3027 750 60 1400 180/08 170V230 RMK AO2
94908KDBQ DBQ20000603104509306/03/00 10:45:31  5-MIN KDBQ 031645Z 16008KT 10SM CLR 19/11 A3027 760 60 1400 160/08 RMK AO2
94908KDBQ DBQ20000603105011006/03/00 10:50:31  5-MIN KDBQ 031650Z 15007KT 10SM CLR 19/11 A3027 760 60 1400 150/07 RMK AO2 SLP249 T01890111
94908KDBQ DBQ20000603105511306/03/00 10:55:31  5-MIN KDBQ 031655Z 15007KT 10SM FEW041 19/11 A3027 760 60 1400 150/07 RMK AO2 SLP248 T01890111
94908KDBQ DBQ20000603110010306/03/00 11:00:31  5-MIN KDBQ 031700Z 16008KT 10SM FEW037 SCT050 19/11 A3027 760 60 1400 160/08 RMK AO2
94908KDBQ DBQ20000603110510306/03/00 11:05:31  5-MIN KDBQ 031705Z 20007KT 10SM FEW037 BKN055 19/11 A3027 760 58 1500 200/07 RMK AO2
94908KDBQ DBQ20000603111010306/03/00 11:10:31  5-MIN KDBQ 031710Z 20008KT 10SM FEW037 SCT055 18/11 A3027 760 60 1400 200/08 RMK AO2
94908KDBQ DBQ20000603111510306/03/00 11:15:31  5-MIN KDBQ 031715Z 20006KT 10SM FEW037 SCT055 19/10 A3026 760 56 1400 200/06 RMK AO2
94908KDBQ DBQ20000603112010306/03/00 11:20:31  5-MIN KDBQ 031720Z 22006KT 10SM FEW037 SCT055 19/11 A3026 770 56 1500 220/06 RMK AO2
94908KDBQ DBQ20000603112510306/03/00 11:25:31  5-MIN KDBQ 031725Z 17009KT 10SM FEW037 SCT055 19/11 A3026 770 56 1500 170/09 RMK AO2
94908KDBQ DBQ20000603113010306/03/00 11:30:31  5-MIN KDBQ 031730Z 16006KT 10SM FEW037 SCT055 19/11 A3026 770 58 1500 160/06 RMK AO2
94908KDBQ DBQ20000603113510306/03/00 11:35:31  5-MIN KDBQ 031735Z 18007KT 10SM FEW037 SCT055 19/11 A3026 770 58 1400 170/07 RMK AO2
94908KDBQ DBQ20000603114011006/03/00 11:40:31  5-MIN KDBQ 031740Z 22008KT 10SM FEW037 SCT047 SCT055 19/11 A3026 770 60 1400 220/08 RMK AO2
94908KDBQ DBQ20000603114510306/03/00 11:45:31  5-MIN KDBQ 031745Z VRB06KT 10SM FEW037 SCT055 20/11 A3026 770 56 1600 VRB/06 RMK AO2
94908KDBQ DBQ20000603115013806/03/00 11:50:31  5-MIN KDBQ 031750Z 16005KT 10SM FEW037 SCT050 19/11 A3025 770 56 1500 160/05 RMK AO2 SLP243 T01940106 10200 20128 58004
94908KDBQ DBQ20000603115513106/03/00 11:55:31  5-MIN KDBQ 031755Z VRB05KT 10SM FEW050 19/11 A3025 770 56 1500 VRB/05 RMK AO2 SLP242 T01940106 10200 20128 58013
94908KDBQ DBQ20000603120009606/03/00 12:00:31  5-MIN KDBQ 031800Z 17005KT 10SM FEW050 19/11 A3025 780 58 1500 170/05 RMK AO2
94908KDBQ DBQ20000603120509606/03/00 12:05:31  5-MIN KDBQ 031805Z 16006KT 10SM FEW040 20/11 A3025 780 56 1600 160/06 RMK AO2
94908KDBQ DBQ20000603121009606/03/00 12:10:31  5-MIN KDBQ 031810Z 22007KT 10SM FEW040 20/12 A3024 780 58 1600 220/07 RMK AO2
94908KDBQ DBQ20000603121509606/03/00 12:15:31  5-MIN KDBQ 031815Z VRB03KT 10SM FEW044 19/11 A3024 780 56 1500 VRB/03 RMK AO2
94908KDBQ DBQ20000603122009606/03/00 12:20:31  5-MIN KDBQ 031820Z 14007KT 10SM SCT044 19/11 A3024 780 58 1500 140/07 RMK AO2
94908KDBQ DBQ20000603122509606/03/00 12:25:31  5-MIN KDBQ 031825Z 17005KT 10SM BKN044 19/09 A3024 790 54 1500 170/05 RMK AO2
94908KDBQ DBQ20000603123009606/03/00 12:30:31  5-MIN KDBQ 031830Z 24006KT 10SM BKN044 19/10 A3024 790 54 1500 240/06 RMK AO2
94908KDBQ DBQ20000603123509606/03/00 12:35:31  5-MIN KDBQ 031835Z 18004KT 10SM BKN046 19/10 A3023 790 54 1500 180/04 RMK AO2
94908KDBQ DBQ20000603124009606/03/00 12:40:31  5-MIN KDBQ 031840Z VRB06KT 10SM BKN046 19/10 A3023 790 54 1500 VRB/06 RMK AO2
94908KDBQ DBQ20000603124509606/03/00 12:45:31  5-MIN KDBQ 031845Z 20007KT 10SM BKN048 20/10 A3023 800 52 1600 200/07 RMK AO2
94908KDBQ DBQ20000603125011306/03/00 12:50:31  5-MIN KDBQ 031850Z 21005KT 10SM BKN048 20/09 A3023 790 50 1600 210/05 RMK AO2 SLP236 T02000094
94908KDBQ DBQ20000603144509606/03/00 14:45:31  5-MIN KDBQ 032045Z 19006KT 10SM BKN049 21/11 A3018 840 52 1800 190/06 RMK AO2
94908KDBQ DBQ20000603145011906/03/00 14:50:31  5-MIN KDBQ 032050Z 20006KT 10SM BKN049 21/11 A3018 840 52 1800 200/06 RMK AO2 SLP219 T02110111 58013
94908KDBQ DBQ20000603145511906/03/00 14:55:31  5-MIN KDBQ 032055Z 17008KT 10SM SCT049 21/11 A3018 840 52 1700 170/08 RMK AO2 SLP219 T02060106 56024
94908KDBQ DBQ20000603150009606/03/00 15:00:31  5-MIN KDBQ 032100Z 18008KT 10SM SCT049 20/11 A3018 840 54 1700 180/08 RMK AO2
94908KDBQ DBQ20000603150509606/03/00 15:05:31  5-MIN KDBQ 032105Z 00000KT 10SM FEW049 20/10 A3018 840 52 1700 000/00 RMK AO2
94908KDBQ DBQ20000603151009606/03/00 15:10:31  5-MIN KDBQ 032110Z VRB04KT 10SM FEW049 21/11 A3018 840 50 1800 VRB/04 RMK AO2
94908KDBQ DBQ20000603151509606/03/00 15:15:31  5-MIN KDBQ 032115Z 12005KT 10SM SCT049 21/11 A3017 850 52 1700 120/05 RMK AO2
94908KDBQ DBQ20000603152009606/03/00 15:20:31  5-MIN KDBQ 032120Z 17007KT 10SM BKN049 21/11 A3017 850 52 1700 170/07 RMK AO2
94908KDBQ DBQ20000603152509606/03/00 15:25:31  5-MIN KDBQ 032125Z VRB04KT 10SM BKN049 21/11 A3017 850 50 1800 VRB/04 RMK AO2
94908KDBQ DBQ20000603153009606/03/00 15:30:31  5-MIN KDBQ 032130Z 19007KT 10SM BKN049 21/10 A3017 850 50 1700 190/07 RMK AO2
94908KDBQ DBQ20000603153509606/03/00 15:35:31  5-MIN KDBQ 032135Z 18005KT 10SM SCT049 22/12 A3016 850 52 1900 180/05 RMK AO2
94908KDBQ DBQ20000603154009606/03/00 15:40:31  5-MIN KDBQ 032140Z VRB04KT 10SM SCT049 21/11 A3016 860 52 1800 VRB/04 RMK AO2
94908KDBQ DBQ20000603154509606/03/00 15:45:31  5-MIN KDBQ 032145Z 17005KT 10SM SCT049 21/11 A3016 860 52 1800 170/05 RMK AO2
94908KDBQ DBQ20000603155011306/03/00 15:50:31  5-MIN KDBQ 032150Z VRB05KT 10SM FEW049 21/11 A3016 860 52 1700 VRB/05 RMK AO2 SLP211 T02060106
94908KDBQ DBQ20000603155511306/03/00 15:55:31  5-MIN KDBQ 032155Z VRB03KT 10SM FEW049 21/11 A3015 860 50 1800 VRB/03 RMK AO2 SLP210 T02110106
94908KDBQ DBQ20000603160009606/03/00 16:00:31  5-MIN KDBQ 032200Z VRB06KT 10SM FEW047 21/11 A3015 870 52 1800 VRB/06 RMK AO2
94908KDBQ DBQ20000603160509606/03/00 16:05:31  5-MIN KDBQ 032205Z 19008KT 10SM SCT047 22/11 A3015 870 50 1900 190/08 RMK AO2
94908KDBQ DBQ20000603161011206/03/00 16:10:31  5-MIN KDBQ 032210Z 20007KT 150V230 10SM BKN049 21/11 A3015 870 50 1800 200/07 150V230 RMK AO2
94908KDBQ DBQ20000603161509606/03/00 16:15:31  5-MIN KDBQ 032215Z 16008KT 10SM BKN049 22/11 A3014 870 50 1900 160/08 RMK AO2
94908KDBQ DBQ20000603162009606/03/00 16:20:31  5-MIN KDBQ 032220Z 12005KT 10SM BKN049 21/11 A3014 880 52 1800 120/05 RMK AO2
94908KDBQ DBQ20000603162509606/03/00 16:25:31  5-MIN KDBQ 032225Z 18006KT 10SM BKN049 21/11 A3014 880 52 1800 170/06 RMK AO2
94908KDBQ DBQ20000603163009606/03/00 16:30:31  5-MIN KDBQ 032230Z 18008KT 10SM BKN049 22/11 A3014 880 50 1900 180/08 RMK AO2
94908KDBQ DBQ20000603163509606/03/00 16:35:31  5-MIN KDBQ 032235Z 15009KT 10SM BKN049 21/11 A3013 880 52 1800 150/09 RMK AO2
94908KDBQ DBQ20000603164009606/03/00 16:40:31  5-MIN KDBQ 032240Z 17008KT 10SM SCT047 21/12 A3013 880 54 1800 160/08 RMK AO2
94908KDBQ DBQ20000603164509606/03/00 16:45:31  5-MIN KDBQ 032245Z 14007KT 10SM SCT047 21/12 A3013 890 54 1800 140/07 RMK AO2
94908KDBQ DBQ20000603165011306/03/00 16:50:31  5-MIN KDBQ 032250Z 13009KT 10SM BKN047 21/12 A3013 890 54 1800 130/09 RMK AO2 SLP201 T02110117
94908KDBQ DBQ20000603165511306/03/00 16:55:31  5-MIN KDBQ 032255Z 17009KT 10SM BKN047 22/11 A3012 890 50 1900 170/09 RMK AO2 SLP200 T02170111
94908KDBQ DBQ20000603170009606/03/00 17:00:31  5-MIN KDBQ 032300Z 14012KT 10SM BKN047 21/12 A3012 890 54 1900 140/12 RMK AO2
94908KDBQ DBQ20000603170509606/03/00 17:05:31  5-MIN KDBQ 032305Z 14009KT 10SM BKN047 21/12 A3012 890 56 1800 140/09 RMK AO2
94908KDBQ DBQ20000603171009606/03/00 17:10:31  5-MIN KDBQ 032310Z 14009KT 10SM BKN047 21/11 A3012 890 52 1800 140/09 RMK AO2
94908KDBQ DBQ20000603171509606/03/00 17:15:31  5-MIN KDBQ 032315Z 14009KT 10SM BKN047 21/11 A3012 890 54 1800 140/09 RMK AO2
94908KDBQ DBQ20000603172009606/03/00 17:20:31  5-MIN KDBQ 032320Z 14009KT 10SM BKN049 21/11 A3012 900 54 1800 140/09 RMK AO2
94908KDBQ DBQ20000603172509606/03/00 17:25:31  5-MIN KDBQ 032325Z 15007KT 10SM BKN049 20/11 A3012 900 56 1700 140/07 RMK AO2
94908KDBQ DBQ20000603173009606/03/00 17:30:31  5-MIN KDBQ 032330Z 13007KT 10SM SCT049 20/11 A3012 900 56 1700 130/07 RMK AO2
94908KDBQ DBQ20000603173509606/03/00 17:35:31  5-MIN KDBQ 032335Z 16007KT 10SM SCT049 21/11 A3012 900 54 1800 160/07 RMK AO2
94908KDBQ DBQ20000603174009606/03/00 17:40:31  5-MIN KDBQ 032340Z 15009KT 10SM SCT049 21/11 A3012 900 54 1800 150/09 RMK AO2
94908KDBQ DBQ20000603174509606/03/00 17:45:31  5-MIN KDBQ 032345Z 16008KT 10SM FEW049 21/12 A3012 900 56 1800 160/08 RMK AO2
94908KDBQ DBQ20000603175013106/03/00 17:50:31  5-MIN KDBQ 032350Z 15007KT 10SM FEW049 21/11 A3012 900 54 1800 150/07 RMK AO2 SLP197 T02060111 10217 20189 56024
94908KDBQ DBQ20000603175512806/03/00 17:55:31  5-MIN KDBQ 032355Z 16009KT 10SM CLR 21/11 A3012 890 54 1800 160/09 RMK AO2 SLP198 T02060111 10217 20189 56019
94908KDBQ DBQ20000603180009306/03/00 18:00:31  5-MIN KDBQ 040000Z 14009KT 10SM CLR 20/11 A3012 890 56 1700 140/09 RMK AO2
94908KDBQ DBQ20000603180509306/03/00 18:05:31  5-MIN KDBQ 040005Z 15009KT 10SM CLR 19/11 A3012 890 58 1700 150/09 RMK AO2
94908KDBQ DBQ20000603181009306/03/00 18:10:31  5-MIN KDBQ 040010Z 15009KT 10SM CLR 19/11 A3012 890 58 1700 150/09 RMK AO2
94908KDBQ DBQ20000603181509606/03/00 18:15:31  5-MIN KDBQ 040015Z 15008KT 10SM FEW110 19/11 A3012 890 58 1700 150/08 RMK AO2
94908KDBQ DBQ20000603182009606/03/00 18:20:31  5-MIN KDBQ 040020Z 15007KT 10SM FEW110 19/11 A3012 890 58 1700 150/07 RMK AO2
94908KDBQ DBQ20000603182509606/03/00 18:25:31  5-MIN KDBQ 040025Z 15007KT 10SM SCT110 19/12 A3012 890 60 1700 150/07 RMK AO2
94908KDBQ DBQ20000603183009606/03/00 18:30:31  5-MIN KDBQ 040030Z 14006KT 10SM SCT110 19/12 A3013 890 62 1600 140/06 RMK AO2
94908KDBQ DBQ20000603183509606/03/00 18:35:31  5-MIN KDBQ 040035Z 12006KT 10SM SCT110 19/12 A3013 890 62 1600 120/06 RMK AO2
94908KDBQ DBQ20000603184009606/03/00 18:40:31  5-MIN KDBQ 040040Z 12007KT 10SM BKN110 18/12 A3013 890 67 1500 120/07 RMK AO2
94908KDBQ DBQ20000603184509606/03/00 18:45:31  5-MIN KDBQ 040045Z 13007KT 10SM BKN110 19/12 A3012 890 62 1600 130/07 RMK AO2
94908KDBQ DBQ20000603185011306/03/00 18:50:31  5-MIN KDBQ 040050Z 13007KT 10SM OVC110 18/12 A3012 890 65 1500 120/07 RMK AO2 SLP199 T01830117
94908KDBQ DBQ20000603185511306/03/00 18:55:31  5-MIN KDBQ 040055Z 13008KT 10SM OVC110 18/12 A3012 890 65 1500 130/08 RMK AO2 SLP198 T01830117
94908KDBQ DBQ20000603190010606/03/00 19:00:31  5-MIN KDBQ 040100Z AUTO 13006KT 10SM OVC110 18/12 A3012 890 65 1500 130/06 RMK AO2 TSNO
94908KDBQ DBQ20000603190510606/03/00 19:05:31  5-MIN KDBQ 040105Z AUTO 13008KT 10SM OVC120 18/12 A3011 900 67 1500 120/08 RMK AO2 TSNO
94908KDBQ DBQ20000603191010606/03/00 19:10:31  5-MIN KDBQ 040110Z AUTO 13007KT 10SM BKN120 17/12 A3011 900 69 1400 130/07 RMK AO2 TSNO
94908KDBQ DBQ20000603191510606/03/00 19:15:31  5-MIN KDBQ 040115Z AUTO 13007KT 10SM BKN120 17/12 A3011 900 69 1400 130/07 RMK AO2 TSNO
94908KDBQ DBQ20000603192010606/03/00 19:20:31  5-MIN KDBQ 040120Z AUTO 13006KT 10SM SCT120 17/12 A3012 900 69 1400 130/06 RMK AO2 TSNO
94908KDBQ DBQ20000603192510606/03/00 19:25:31  5-MIN KDBQ 040125Z AUTO 12006KT 10SM SCT120 17/12 A3012 900 72 1300 120/06 RMK AO2 TSNO
94908KDBQ DBQ20000603193010606/03/00 19:30:31  5-MIN KDBQ 040130Z AUTO 13005KT 10SM SCT120 17/12 A3013 890 72 1300 130/05 RMK AO2 TSNO
94908KDBQ DBQ20000603193510606/03/00 19:35:31  5-MIN KDBQ 040135Z AUTO 12004KT 10SM SCT120 17/12 A3013 880 72 1300 120/04 RMK AO2 TSNO
94908KDBQ DBQ20000603194010606/03/00 19:40:31  5-MIN KDBQ 040140Z AUTO 11005KT 10SM BKN120 17/12 A3013 880 69 1400 110/05 RMK AO2 TSNO
94908KDBQ DBQ20000603194510606/03/00 19:45:31  5-MIN KDBQ 040145Z AUTO 12004KT 10SM BKN120 17/12 A3013 880 72 1400 120/04 RMK AO2 TSNO
94908KDBQ DBQ20000603195012306/03/00 19:50:31  5-MIN KDBQ 040150Z AUTO 12004KT 10SM BKN120 17/12 A3014 880 72 1400 120/04 RMK AO2 SLP204 T01720122 TSNO
94908KDBQ DBQ20000603195512306/03/00 19:55:31  5-MIN KDBQ 040155Z AUTO 11004KT 10SM OVC120 17/12 A3014 870 72 1400 110/04 RMK AO2 SLP206 T01720122 TSNO
94908KDBQ DBQ20000603200010606/03/00 20:00:31  5-MIN KDBQ 040200Z AUTO 00000KT 10SM BKN120 18/12 A3015 870 69 1400 000/00 RMK AO2 TSNO
94908KDBQ DBQ20000603200510606/03/00 20:05:31  5-MIN KDBQ 040205Z AUTO 00000KT 10SM BKN120 18/13 A3015 870 72 1400 000/00 RMK AO2 TSNO
94908KDBQ DBQ20000603201010606/03/00 20:10:31  5-MIN KDBQ 040210Z AUTO 00000KT 10SM SCT120 18/12 A3015 860 69 1400 000/00 RMK AO2 TSNO
94908KDBQ DBQ20000603201510606/03/00 20:15:31  5-MIN KDBQ 040215Z AUTO 00000KT 10SM SCT120 18/12 A3016 860 69 1400 000/00 RMK AO2 TSNO
94908KDBQ DBQ20000603202010606/03/00 20:20:31  5-MIN KDBQ 040220Z AUTO 00000KT 10SM FEW120 18/12 A3016 860 69 1400 000/00 RMK AO2 TSNO
94908KDBQ DBQ20000603202510606/03/00 20:25:31  5-MIN KDBQ 040225Z AUTO 09003KT 10SM FEW120 18/12 A3015 870 67 1400 090/03 RMK AO2 TSNO
94908KDBQ DBQ20000603203010306/03/00 20:30:31  5-MIN KDBQ 040230Z AUTO 10003KT 10SM CLR 18/12 A3015 870 69 1400 100/03 RMK AO2 TSNO
94908KDBQ DBQ20000603203510306/03/00 20:35:31  5-MIN KDBQ 040235Z AUTO 11005KT 10SM CLR 17/13 A3014 880 75 1400 110/05 RMK AO2 TSNO
94908KDBQ DBQ20000603204010306/03/00 20:40:31  5-MIN KDBQ 040240Z AUTO 11007KT 10SM CLR 17/13 A3014 880 77 1300 110/07 RMK AO2 TSNO
94908KDBQ DBQ20000603204510306/03/00 20:45:31  5-MIN KDBQ 040245Z AUTO 11007KT 10SM CLR 17/13 A3014 880 77 1300 110/07 RMK AO2 TSNO
94908KDBQ DBQ20000603205012606/03/00 20:50:31  5-MIN KDBQ 040250Z AUTO 10007KT 10SM CLR 17/12 A3014 870 69 1400 100/07 RMK AO2 SLP205 T01720117 56019 TSNO
94908KDBQ DBQ20000603205512606/03/00 20:55:31  5-MIN KDBQ 040255Z AUTO 11007KT 10SM CLR 17/12 A3015 870 69 1400 100/07 RMK AO2 SLP207 T01720117 53009 TSNO
94908KDBQ DBQ20000603210010606/03/00 21:00:31  5-MIN KDBQ 040300Z AUTO 11006KT 10SM FEW110 17/12 A3014 880 72 1300 110/06 RMK AO2 TSNO
94908KDBQ DBQ20000603210510606/03/00 21:05:31  5-MIN KDBQ 040305Z AUTO 11009KT 10SM SCT100 17/12 A3012 890 75 1300 110/09 RMK AO2 TSNO
94908KDBQ DBQ20000603211011306/03/00 21:10:31  5-MIN KDBQ 040310Z AUTO 12007KT 10SM BKN090 BKN110 17/12 A3013 880 72 1300 110/07 RMK AO2 TSNO
94908KDBQ DBQ20000603211512806/03/00 21:15:31  5-MIN KDBQ 040315Z AUTO 11005KT 9SM -RA BKN075 BKN100 17/12 A3015 860 75 1300 110/05 RMK AO2 RAB13 P0000 TSNO
94908KDBQ DBQ20000603212013506/03/00 21:20:31  5-MIN KDBQ 040320Z AUTO 12003KT 9SM -RA BKN075 OVC100 17/12 A3017 850 72 1300 120/03 RMK AO2 RAB13 PRESRR P0001 TSNO
94908KDBQ DBQ20000603212512906/03/00 21:25:31  5-MIN KDBQ 040325Z AUTO 09005KT 10SM -RA BKN080 OVC100 17/12 A3017 850 72 1400 090/05 RMK AO2 RAB13 P0001 TSNO
94908KDBQ DBQ20000603213012206/03/00 21:30:31  5-MIN KDBQ 040330Z AUTO 10007KT 10SM -RA OVC075 17/13 A3015 870 77 1300 100/07 RMK AO2 RAB13 P0001 TSNO
94908KDBQ DBQ20000603213512906/03/00 21:35:31  5-MIN KDBQ 040335Z AUTO 11010KT 10SM -RA OVC075 16/13 A3013 880 80 1300 110/10 RMK AO2 RAB13 PRESFR P0001 TSNO
94908KDBQ DBQ20000603214012806/03/00 21:40:31  5-MIN KDBQ 040340Z AUTO 11008KT 8SM -RA BKN060 OVC080 16/13 A3014 870 80 1200 110/08 RMK AO2 RAB13 P0002 TSNO
94908KDBQ DBQ20000603214512706/03/00 21:45:31  5-MIN KDBQ 040345Z AUTO 10007KT 5SM RA BKN050 OVC080 16/13 A3014 880 80 1300 100/07 RMK AO2 RAB13 P0003 TSNO
94908KDBQ DBQ20000603215015106/03/00 21:50:31  5-MIN KDBQ 040350Z AUTO 07006KT 5SM RA FEW044 BKN050 OVC085 16/13 A3015 870 80 1200 070/06 RMK AO2 RAB13 SLP208 P0004 T01610128 TSNO
94908KDBQ DBQ20000603215514506/03/00 21:55:31  5-MIN KDBQ 040355Z AUTO 08008KT 8SM -RA BKN048 OVC090 16/13 A3014 880 80 1300 070/08 RMK AO2 RAB13 SLP205 P0004 T01610128 TSNO
94908KDBQ DBQ20000603220013006/03/00 22:00:31  5-MIN KDBQ 040400Z AUTO 08008KT 10SM -RA BKN050 BKN090 OVC110 16/13 A3013 880 83 1200 080/08 RMK AO2 P0000 TSNO
94908KDBQ DBQ20000603220513006/03/00 22:05:31  5-MIN KDBQ 040405Z AUTO 08008KT 10SM -RA FEW042 BKN055 OVC110 16/13 A3014 880 83 1200 080/08 RMK AO2 P0000 TSNO
94908KDBQ DBQ20000603221013206/03/00 22:10:31  5-MIN KDBQ 040410Z AUTO 09006KT 10SM SCT060 BKN090 BKN110 16/13 A3015 870 83 1200 090/06 RMK AO2 RAE06 P0000 TSNO
94908KDBQ DBQ20000603221513206/03/00 22:15:31  5-MIN KDBQ 040415Z AUTO 11007KT 10SM SCT075 BKN090 BKN110 16/13 A3015 870 83 1200 100/07 RMK AO2 RAE06 P0000 TSNO
94908KDBQ DBQ20000603222013206/03/00 22:20:31  5-MIN KDBQ 040420Z AUTO 11009KT 10SM SCT075 BKN090 OVC110 16/13 A3014 870 83 1200 110/09 RMK AO2 RAE06 P0000 TSNO
94908KDBQ DBQ20000603222513006/03/00 22:25:31  5-MIN KDBQ 040425Z AUTO 11009KT 10SM -RA SCT075 BKN095 OVC110 16/13 A3014 870 83 1200 100/09 RMK AO2 P0000 TSNO
94908KDBQ DBQ20000603223013006/03/00 22:30:31  5-MIN KDBQ 040430Z AUTO 11010KT 10SM -RA SCT080 SCT095 OVC110 16/13 A3014 880 83 1200 110/10 RMK AO2 P0000 TSNO
94908KDBQ DBQ20000603223512306/03/00 22:35:31  5-MIN KDBQ 040435Z AUTO 11010KT 10SM -RA FEW080 OVC110 16/13 A3013 880 83 1200 110/10 RMK AO2 P0000 TSNO
94908KDBQ DBQ20000603224013006/03/00 22:40:31  5-MIN KDBQ 040440Z AUTO 12009KT 10SM -RA SCT070 SCT095 OVC110 16/13 A3013 890 83 1200 120/09 RMK AO2 P0000 TSNO
94908KDBQ DBQ20000603224513006/03/00 22:45:31  5-MIN KDBQ 040445Z AUTO 12009KT 10SM -RA SCT065 SCT090 OVC110 14/13 A3013 880 90 1100 120/09 RMK AO2 P0001 TSNO
94908KDBQ DBQ20000603225014006/03/00 22:50:31  5-MIN KDBQ 040450Z AUTO 12010KT 10SM -RA FEW065 OVC110 15/12 A3013 890 83 1100 120/10 RMK AO2 SLP200 P0001 T01500122 TSNO
94908KDBQ DBQ20000603225514006/03/00 22:55:31  5-MIN KDBQ 040455Z AUTO 13009KT 10SM -RA FEW050 OVC110 15/12 A3013 890 83 1100 130/09 RMK AO2 SLP201 P0001 T01500122 TSNO
94908KDBQ DBQ20000603230012306/03/00 23:00:31  5-MIN KDBQ 040500Z AUTO 12009KT 10SM -RA FEW047 OVC110 15/12 A3013 890 83 1100 120/09 RMK AO2 P0000 TSNO
94908KDBQ DBQ20000603230512306/03/00 23:05:31  5-MIN KDBQ 040505Z AUTO 12009KT 10SM -RA FEW050 OVC110 15/12 A3013 890 83 1100 120/09 RMK AO2 P0000 TSNO
94908KDBQ DBQ20000603231011806/03/00 23:10:31  5-MIN KDBQ 040510Z AUTO 13009KT 10SM BKN110 15/12 A3013 880 83 1100 130/09 RMK AO2 RAE07 P0000 TSNO
94908KDBQ DBQ20000603231511806/03/00 23:15:31  5-MIN KDBQ 040515Z AUTO 13009KT 10SM OVC110 15/12 A3013 880 80 1100 130/09 RMK AO2 RAE07 P0000 TSNO
94908KDBQ DBQ20000603232011806/03/00 23:20:31  5-MIN KDBQ 040520Z AUTO 13009KT 10SM OVC110 16/12 A3013 880 77 1200 130/09 RMK AO2 RAE07 P0000 TSNO
94908KDBQ DBQ20000603232511806/03/00 23:25:31  5-MIN KDBQ 040525Z AUTO 13010KT 10SM OVC110 16/12 A3013 880 77 1200 130/10 RMK AO2 RAE07 P0000 TSNO
94908KDBQ DBQ20000603233011806/03/00 23:30:31  5-MIN KDBQ 040530Z AUTO 13009KT 10SM OVC110 16/12 A3013 880 77 1200 130/09 RMK AO2 RAE07 P0000 TSNO
94908KDBQ DBQ20000603233511806/03/00 23:35:31  5-MIN KDBQ 040535Z AUTO 13009KT 10SM OVC110 15/12 A3013 880 80 1100 130/09 RMK AO2 RAE07 P0000 TSNO
94908KDBQ DBQ20000603234011806/03/00 23:40:31  5-MIN KDBQ 040540Z AUTO 13009KT 10SM OVC110 16/12 A3013 880 77 1200 130/09 RMK AO2 RAE07 P0000 TSNO
94908KDBQ DBQ20000603234511806/03/00 23:45:31  5-MIN KDBQ 040545Z AUTO 12010KT 10SM OVC110 15/12 A3013 880 80 1100 120/10 RMK AO2 RAE07 P0000 TSNO
94908KDBQ DBQ20000603235016906/03/00 23:50:31  5-MIN KDBQ 040550Z AUTO 12009KT 10SM OVC110 15/12 A3013 890 80 1100 120/09 RMK AO2 RAE07 SLP201 P0000 60005 T01500117 10206 20144 402170100 53009 TSNO
94908KDBQ DBQ20000603235516906/03/00 23:55:31  5-MIN KDBQ 040555Z AUTO 12008KT 10SM OVC110 15/12 A3013 880 80 1100 110/08 RMK AO2 RAE07 SLP202 P0000 60005 T01500117 10206 20144 402170100 55005 TSNO
94908KDBQ DBQ20000604000010606/04/00 00:00:31  5-MIN KDBQ 040600Z AUTO 11009KT 10SM OVC110 15/12 A3013 880 80 1100 110/09 RMK AO2 TSNO
94908KDBQ DBQ20000604000510606/04/00 00:05:31  5-MIN KDBQ 040605Z AUTO 11008KT 10SM OVC110 14/12 A3013 880 86 1100 110/08 RMK AO2 TSNO
94908KDBQ DBQ20000604001010606/04/00 00:10:31  5-MIN KDBQ 040610Z AUTO 10008KT 10SM OVC110 15/12 A3013 880 83 1100 100/08 RMK AO2 TSNO
94908KDBQ DBQ20000604001510606/04/00 00:15:31  5-MIN KDBQ 040615Z AUTO 10007KT 10SM BKN110 15/12 A3013 880 83 1100 100/07 RMK AO2 TSNO
94908KDBQ DBQ20000604002010606/04/00 00:20:31  5-MIN KDBQ 040620Z AUTO 10008KT 10SM BKN110 15/12 A3013 880 83 1100 100/08 RMK AO2 TSNO
94908KDBQ DBQ20000604002510606/04/00 00:25:31  5-MIN KDBQ 040625Z AUTO 10007KT 10SM OVC110 15/12 A3013 880 83 1100 090/07 RMK AO2 TSNO
94908KDBQ DBQ20000604003010606/04/00 00:30:31  5-MIN KDBQ 040630Z AUTO 10008KT 10SM OVC110 14/12 A3013 890 86 1100 100/08 RMK AO2 TSNO
94908KDBQ DBQ20000604003510606/04/00 00:35:31  5-MIN KDBQ 040635Z AUTO 11009KT 10SM BKN110 14/12 A3013 890 86 1100 110/09 RMK AO2 TSNO
94908KDBQ DBQ20000604004010606/04/00 00:40:31  5-MIN KDBQ 040640Z AUTO 11009KT 10SM BKN110 14/12 A3013 890 86 1100 110/09 RMK AO2 TSNO
94908KDBQ DBQ20000604004510606/04/00 00:45:31  5-MIN KDBQ 040645Z AUTO 11009KT 10SM BKN110 14/12 A3013 890 86 1100 110/09 RMK AO2 TSNO
94908KDBQ DBQ20000604005012306/04/00 00:50:31  5-MIN KDBQ 040650Z AUTO 11010KT 10SM OVC110 14/12 A3013 890 86 1100 110/10 RMK AO2 SLP200 T01440122 TSNO
94908KDBQ DBQ20000604005512306/04/00 00:55:31  5-MIN KDBQ 040655Z AUTO 11010KT 10SM BKN110 14/12 A3013 890 86 1100 110/10 RMK AO2 SLP201 T01440122 TSNO
94908KDBQ DBQ20000604010010606/04/00 01:00:31  5-MIN KDBQ 040700Z AUTO 12012KT 10SM BKN110 14/12 A3012 890 86 1100 120/12 RMK AO2 TSNO
94908KDBQ DBQ20000604010510606/04/00 01:05:31  5-MIN KDBQ 040705Z AUTO 12011KT 10SM OVC110 14/12 A3012 900 86 1100 120/11 RMK AO2 TSNO
94908KDBQ DBQ20000604011010606/04/00 01:10:31  5-MIN KDBQ 040710Z AUTO 12010KT 10SM OVC110 14/12 A3011 900 90 1000 120/10 RMK AO2 TSNO
94908KDBQ DBQ20000604011510606/04/00 01:15:31  5-MIN KDBQ 040715Z AUTO 13012KT 10SM OVC110 14/12 A3011 900 90 1000 130/12 RMK AO2 TSNO
94908KDBQ DBQ20000604012010606/04/00 01:20:31  5-MIN KDBQ 040720Z AUTO 13012KT 10SM OVC110 14/12 A3010 910 86 1100 130/12 RMK AO2 TSNO
94908KDBQ DBQ20000604012510606/04/00 01:25:31  5-MIN KDBQ 040725Z AUTO 14014KT 10SM OVC110 14/12 A3010 910 86 1100 140/14 RMK AO2 TSNO
94908KDBQ DBQ20000604013010606/04/00 01:30:31  5-MIN KDBQ 040730Z AUTO 14013KT 10SM OVC110 14/12 A3010 920 90 1000 140/13 RMK AO2 TSNO
94908KDBQ DBQ20000604013510506/04/00 01:35:31  5-MIN KDBQ 040735Z AUTO 14013KT 9SM OVC110 14/12 A3010 910 90 1000 140/13 RMK AO2 TSNO
94908KDBQ DBQ20000604014010506/04/00 01:40:31  5-MIN KDBQ 040740Z AUTO 14013KT 9SM OVC110 14/12 A3010 910 90 1000 140/13 RMK AO2 TSNO
94908KDBQ DBQ20000604014510606/04/00 01:45:31  5-MIN KDBQ 040745Z AUTO 13012KT 10SM OVC110 14/12 A3011 910 83 1100 130/12 RMK AO2 TSNO
94908KDBQ DBQ20000604015012306/04/00 01:50:31  5-MIN KDBQ 040750Z AUTO 13011KT 10SM OVC110 14/12 A3011 900 86 1000 130/11 RMK AO2 SLP194 T01390117 TSNO
94908KDBQ DBQ20000604015512206/04/00 01:55:31  5-MIN KDBQ 040755Z AUTO 12011KT 9SM OVC110 14/12 A3011 900 86 1000 120/11 RMK AO2 SLP194 T01390117 TSNO
94908KDBQ DBQ20000604020010506/04/00 02:00:31  5-MIN KDBQ 040800Z AUTO 12009KT 9SM OVC110 14/12 A3011 910 86 1000 120/09 RMK AO2 TSNO
94908KDBQ DBQ20000604020510506/04/00 02:05:31  5-MIN KDBQ 040805Z AUTO 13009KT 9SM BKN110 14/12 A3010 910 86 1000 130/09 RMK AO2 TSNO
94908KDBQ DBQ20000604021010506/04/00 02:10:31  5-MIN KDBQ 040810Z AUTO 14010KT 9SM BKN110 14/11 A3010 910 83 1000 140/10 RMK AO2 TSNO
94908KDBQ DBQ20000604021510606/04/00 02:15:31  5-MIN KDBQ 040815Z AUTO 14011KT 10SM BKN110 14/11 A3010 910 83 1000 140/11 RMK AO2 TSNO
94908KDBQ DBQ20000604022010606/04/00 02:20:31  5-MIN KDBQ 040820Z AUTO 13010KT 10SM BKN110 14/11 A3009 920 83 1000 130/10 RMK AO2 TSNO
94908KDBQ DBQ20000604022510606/04/00 02:25:31  5-MIN KDBQ 040825Z AUTO 12009KT 10SM SCT110 13/11 A3008 930 83 1000 120/09 RMK AO2 TSNO
94908KDBQ DBQ20000604023010606/04/00 02:30:31  5-MIN KDBQ 040830Z AUTO 12010KT 10SM FEW120 13/11 A3008 930 83 1000 120/10 RMK AO2 TSNO
94908KDBQ DBQ20000604023510606/04/00 02:35:31  5-MIN KDBQ 040835Z AUTO 13010KT 10SM FEW120 13/11 A3008 930 83 1000 130/10 RMK AO2 TSNO
94908KDBQ DBQ20000604024010606/04/00 02:40:31  5-MIN KDBQ 040840Z AUTO 14010KT 10SM FEW120 13/11 A3008 930 83 1000 140/10 RMK AO2 TSNO
94908KDBQ DBQ20000604205514506/04/00 20:55:31  5-MIN KDBQ 050255Z AUTO 07011KT 6SM BR FEW017 OVC025 12/11 A3001 990 93 900 070/11 RMK AO2 SLP166 6//// T01170106 53003 TSNO $
94908KDBQ DBQ20000604210010906/04/00 21:00:31  5-MIN KDBQ 050300Z AUTO 07010KT 6SM BR OVC025 12/11 A3002 990 93 900 070/10 RMK AO2 TSNO $
94908KDBQ DBQ20000604210510906/04/00 21:05:31  5-MIN KDBQ 050305Z AUTO 07011KT 6SM BR OVC025 12/11 A3002 990 93 900 070/11 RMK AO2 TSNO $
94908KDBQ DBQ20000604211010606/04/00 21:10:31  5-MIN KDBQ 050310Z AUTO 06011KT 7SM OVC025 12/11 A3002 990 93 900 060/11 RMK AO2 TSNO $
94908KDBQ DBQ20000604211510606/04/00 21:15:31  5-MIN KDBQ 050315Z AUTO 07012KT 7SM OVC025 12/10 A3002 990 89 900 070/12 RMK AO2 TSNO $
94908KDBQ DBQ20000604212010606/04/00 21:20:31  5-MIN KDBQ 050320Z AUTO 08013KT 7SM OVC025 12/10 A3002 990 89 900 080/13 RMK AO2 TSNO $
94908KDBQ DBQ20000604212510606/04/00 21:25:31  5-MIN KDBQ 050325Z AUTO 07010KT 7SM OVC025 12/10 A3002 990 89 900 070/10 RMK AO2 TSNO $
94908KDBQ DBQ20000604213010606/04/00 21:30:31  5-MIN KDBQ 050330Z AUTO 07011KT 7SM OVC025 12/10 A3001 990 89 900 070/11 RMK AO2 TSNO $
94908KDBQ DBQ20000604213510606/04/00 21:35:31  5-MIN KDBQ 050335Z AUTO 07013KT 8SM OVC025 12/10 A3001 990 89 900 070/13 RMK AO2 TSNO $
94908KDBQ DBQ20000604214010606/04/00 21:40:31  5-MIN KDBQ 050340Z AUTO 07011KT 8SM OVC025 12/10 A3001 990 89 900 070/11 RMK AO2 TSNO $
94908KDBQ DBQ20000604214510606/04/00 21:45:31  5-MIN KDBQ 050345Z AUTO 07010KT 8SM OVC025 12/10 A3002 990 89 900 070/10 RMK AO2 TSNO $
94908KDBQ DBQ20000604215012306/04/00 21:50:31  5-MIN KDBQ 050350Z AUTO 06009KT 7SM OVC025 11/10 A3002 990 93 800 060/09 RMK AO2 SLP166 T01110100 TSNO $
94908KDBQ DBQ20000604215512306/04/00 21:55:31  5-MIN KDBQ 050355Z AUTO 07010KT 7SM OVC025 11/10 A3001 990 93 800 070/10 RMK AO2 SLP165 T01110100 TSNO $
94908KDBQ DBQ20000604220010706/04/00 22:00:31  5-MIN KDBQ 050400Z AUTO 07012KT 7SM OVC025 11/10 A3001 1000 93 800 060/12 RMK AO2 TSNO $
94908KDBQ DBQ20000604220510606/04/00 22:05:31  5-MIN KDBQ 050405Z AUTO 07010KT 7SM OVC025 11/10 A3001 990 93 800 070/10 RMK AO2 TSNO $
94908KDBQ DBQ20000604221010606/04/00 22:10:31  5-MIN KDBQ 050410Z AUTO 06010KT 7SM OVC025 11/10 A3001 990 93 800 060/10 RMK AO2 TSNO $
94908KDBQ DBQ20000604221510606/04/00 22:15:31  5-MIN KDBQ 050415Z AUTO 06010KT 7SM OVC023 11/10 A3002 990 93 800 060/10 RMK AO2 TSNO $
94908KDBQ DBQ20000604222011306/04/00 22:20:31  5-MIN KDBQ 050420Z AUTO 06008KT 7SM FEW014 OVC023 11/10 A3002 990 93 800 060/08 RMK AO2 TSNO $
94908KDBQ DBQ20000604222511306/04/00 22:25:31  5-MIN KDBQ 050425Z AUTO 04010KT 7SM SCT014 OVC023 11/10 A3002 990 93 800 040/10 RMK AO2 TSNO $
94908KDBQ DBQ20000604223011306/04/00 22:30:31  5-MIN KDBQ 050430Z AUTO 05008KT 7SM BKN012 OVC023 11/10 A3002 990 93 800 050/08 RMK AO2 TSNO $
94908KDBQ DBQ20000604223511606/04/00 22:35:31  5-MIN KDBQ 050435Z AUTO 05009KT 6SM BR BKN012 OVC023 11/10 A3002 990 93 800 050/09 RMK AO2 TSNO $
94908KDBQ DBQ20000604224010906/04/00 22:40:31  5-MIN KDBQ 050440Z AUTO 05010KT 6SM BR OVC012 11/11 A3002 990 96 800 050/10 RMK AO2 TSNO $
94908KDBQ DBQ20000604224510906/04/00 22:45:31  5-MIN KDBQ 050445Z AUTO 04009KT 6SM BR OVC012 11/11 A3002 980 96 800 040/09 RMK AO2 TSNO $
94908KDBQ DBQ20000604225012606/04/00 22:50:31  5-MIN KDBQ 050450Z AUTO 02008KT 5SM BR OVC012 11/10 A3002 980 93 800 020/08 RMK AO2 SLP169 T01110100 TSNO $
94908KDBQ DBQ20000604225512606/04/00 22:55:31  5-MIN KDBQ 050455Z AUTO 03010KT 5SM BR OVC012 11/10 A3003 980 93 800 030/10 RMK AO2 SLP170 T01110100 TSNO $
94908KDBQ DBQ20000604230012106/04/00 23:00:31  5-MIN KDBQ 050500Z AUTO 03010KT 4SM BR OVC010 11/10 A3003 980 93 800 030/10 RMK AO2 CIG 008V013 TSNO $
94908KDBQ DBQ20000604230512106/04/00 23:05:31  5-MIN KDBQ 050505Z AUTO 02011KT 3SM BR OVC010 11/10 A3003 980 93 800 020/11 RMK AO2 CIG 008V012 TSNO $
94908KDBQ DBQ20000604231014106/04/00 23:10:31  5-MIN KDBQ 050510Z AUTO 02012KT 2 1/2SM -RA BR OVC010 11/10 A3003 970 93 800 020/12 RMK AO2 RAB09 CIG 006V012 P0000 TSNO $
94908KDBQ DBQ20000604231514106/04/00 23:15:31  5-MIN KDBQ 050515Z AUTO 02013KT 2 1/2SM -RA BR OVC008 11/10 A3003 970 96 700 020/13 RMK AO2 RAB09 CIG 006V011 P0001 TSNO $
94908KDBQ DBQ20000604232013706/04/00 23:20:31  5-MIN KDBQ 050520Z AUTO 02012KT 2SM -RA BR OVC008 11/10 A3004 970 96 700 020/12 RMK AO2 RAB09 CIG 005V012 P0001 TSNO $
94908KDBQ DBQ20000604232514806/04/00 23:25:31  5-MIN KDBQ 050525Z AUTO 01012KT 1 1/2SM +RA BR FEW003 OVC008 11/10 A3004 970 96 700 010/12 RMK AO2 RAB09 CIG 006V010 P0006 TSNO $
94908KDBQ DBQ20000604233014806/04/00 23:30:31  5-MIN KDBQ 050530Z AUTO 36011KT 1 1/4SM +RA BR BKN003 OVC008 11/10 A3004 970 96 700 360/11 RMK AO2 RAB09 CIG 001V005 P0009 TSNO $
94908KDBQ DBQ20000604233513606/04/00 23:35:31  5-MIN KDBQ 050535Z AUTO 36009KT 1 1/4SM +RA BR BKN001 OVC008 11/10 A3005 960 96 700 360/09 RMK AO2 RAB09 P0011 TSNO $
94908KDBQ DBQ20000604234014106/04/00 23:40:31  5-MIN KDBQ 050540Z AUTO 01012G18KT 1 1/4SM RA BR BKN001 OVC006 11/10 A3005 960 96 700 010/12G18 RMK AO2 RAB09 P0011 TSNO $
94908KDBQ DBQ20000604234514706/04/00 23:45:31  5-MIN KDBQ 050545Z AUTO 02011G18KT 1 3/4SM -RA BR OVC001 11/10 A3005 960 96 700 020/11G18 RMK AO2 RAB09 CIG 001V007 P0011 TSNO $
94908KDBQ DBQ20000604235018306/04/00 23:50:31  5-MIN KDBQ 050550Z AUTO 02011KT 2SM +RA BR BKN001 OVC005 11/10 A3005 960 96 700 010/11 RMK AO2 RAB09 SLP177 P0014 6//// T01060100 10133 20106 401560106 53003 TSNO $
94908KDBQ DBQ20000604235518306/04/00 23:55:31  5-MIN KDBQ 050555Z AUTO 02012KT 2SM +RA BR BKN001 OVC005 11/10 A3004 960 96 700 020/12 RMK AO2 RAB09 SLP176 P0017 6//// T01060100 10133 20106 401560106 53010 TSNO $
94908KDBQ DBQ20000605000013106/05/00 00:00:31  5-MIN KDBQ 050600Z AUTO 02012KT 2SM +RA BR OVC001 11/10 A3005 960 96 700 020/12 RMK AO2 CIG 001V005 P0001 TSNO $
94908KDBQ DBQ20000605000513406/05/00 00:05:31  5-MIN KDBQ 050605Z AUTO 01013KT 2 1/2SM RA BR OVC003 11/10 A3005 960 96 700 010/13 RMK AO2 CIG 001V005 P0002 TSNO $
94908KDBQ DBQ20000605001013006/05/00 00:10:31  5-MIN KDBQ 050610Z AUTO 02014KT 3SM RA BR OVC003 11/10 A3005 960 96 700 010/14 RMK AO2 CIG 001V007 P0003 TSNO $
94908KDBQ DBQ20000605001513606/05/00 00:15:31  5-MIN KDBQ 050615Z AUTO 01012G18KT 3SM RA BR OVC003 11/10 A3005 960 96 700 010/12G18 RMK AO2 CIG 001V007 P0004 TSNO $
94908KDBQ DBQ20000605002013006/05/00 00:20:31  5-MIN KDBQ 050620Z AUTO 01012KT 3SM RA BR OVC003 11/10 A3005 960 96 700 010/12 RMK AO2 CIG 001V007 P0005 TSNO $
94908KDBQ DBQ20000605002513706/05/00 00:25:31  5-MIN KDBQ 050625Z AUTO 02014G19KT 3SM +RA BR OVC003 11/10 A3005 960 96 700 020/14G19 RMK AO2 CIG 001V008 P0007 TSNO $
94908KDBQ DBQ20000605003013106/05/00 00:30:31  5-MIN KDBQ 050630Z AUTO 02016G19KT 3SM RA BR BKN003 OVC008 11/10 A3005 960 96 700 020/16G19 RMK AO2 P0008 TSNO $
94908KDBQ DBQ20000605003514306/05/00 00:35:31  5-MIN KDBQ 050635Z AUTO 03016G21KT 3SM RA BR BKN005 OVC009 11/10 A3005 960 96 700 030/16G21 RMK AO2 CIG 001V007 P0008 TSNO $
94908KDBQ DBQ20000605004015106/05/00 00:40:31  5-MIN KDBQ 050640Z AUTO 04014G21KT 4SM -RA BR BKN005 BKN009 OVC023 11/10 A3005 960 96 700 040/14G21 RMK AO2 CIG 001V008 P0009 TSNO $
94908KDBQ DBQ20000605004515106/05/00 00:45:31  5-MIN KDBQ 050645Z AUTO 03015G20KT 5SM -RA BR BKN005 BKN009 OVC029 11/10 A3005 960 96 700 030/15G20 RMK AO2 CIG 002V006 P0009 TSNO $
94908KDBQ DBQ20000605005016206/05/00 00:50:31  5-MIN KDBQ 050650Z AUTO 02014KT 6SM -RA BR BKN005 BKN009 OVC029 11/10 A3005 960 96 700 020/14 RMK AO2 CIG 003V007 SLP179 P0009 T01060100 TSNO $
94908KDBQ DBQ20000605005516106/05/00 00:55:31  5-MIN KDBQ 050655Z AUTO 02011KT 5SM RA BR BKN005 BKN009 OVC031 11/10 A3005 960 96 700 020/11 RMK AO2 CIG 003V007 SLP179 P0010 T01060100 TSNO $
94908KDBQ DBQ20000605010013806/05/00 01:00:31  5-MIN KDBQ 050700Z AUTO 02012KT 4SM -RA BR BKN005 OVC031 11/10 A3005 960 96 700 020/12 RMK AO2 CIG 002V010 P0000 TSNO $
94908KDBQ DBQ20000605010513806/05/00 01:05:31  5-MIN KDBQ 050705Z AUTO 02013KT 4SM -RA BR BKN005 OVC031 11/10 A3005 960 96 700 020/13 RMK AO2 CIG 002V010 P0001 TSNO $
94908KDBQ DBQ20000605011013806/05/00 01:10:31  5-MIN KDBQ 050710Z AUTO 02014KT 4SM -RA BR BKN005 OVC008 11/10 A3005 960 96 700 020/14 RMK AO2 CIG 002V006 P0001 TSNO $
94908KDBQ DBQ20000605011513006/05/00 01:15:31  5-MIN KDBQ 050715Z AUTO 02013KT 4SM RA BR OVC005 11/10 A3005 960 96 700 020/13 RMK AO2 CIG 002V009 P0002 TSNO $
94908KDBQ DBQ20000605012013006/05/00 01:20:31  5-MIN KDBQ 050720Z AUTO 02015KT 4SM RA BR OVC005 11/10 A3005 960 96 700 020/15 RMK AO2 CIG 002V007 P0003 TSNO $
94908KDBQ DBQ20000605012513706/05/00 01:25:31  5-MIN KDBQ 050725Z AUTO 02014G20KT 4SM -RA BR OVC005 11/10 A3005 960 96 700 020/14G20 RMK AO2 CIG 002V007 P0003 TSNO $
94908KDBQ DBQ20000605013013706/05/00 01:30:31  5-MIN KDBQ 050730Z AUTO 03013G20KT 5SM -RA BR OVC005 11/10 A3005 960 96 700 020/13G20 RMK AO2 CIG 002V007 P0004 TSNO $
94908KDBQ DBQ20000605013513706/05/00 01:35:31  5-MIN KDBQ 050735Z AUTO 03014G17KT 5SM -RA BR OVC005 11/10 A3005 960 96 700 030/14G17 RMK AO2 CIG 002V007 P0004 TSNO $
94908KDBQ DBQ20000605014013706/05/00 01:40:31  5-MIN KDBQ 050740Z AUTO 02012G17KT 6SM -RA BR OVC005 11/10 A3005 960 96 700 020/12G17 RMK AO2 CIG 002V009 P0004 TSNO $
94908KDBQ DBQ20000605014513506/05/00 01:45:31  5-MIN KDBQ 050745Z AUTO 03013KT 7SM -RA BKN005 OVC008 11/10 A3005 960 96 700 020/13 RMK AO2 CIG 002V006 P0004 TSNO $
94908KDBQ DBQ20000605015014506/05/00 01:50:31  5-MIN KDBQ 050750Z AUTO 03013KT 7SM -RA OVC005 11/10 A3005 960 96 700 020/13 RMK AO2 CIG 002V009 SLP178 P0005 T01060100 TSNO $
94908KDBQ DBQ20000605015514506/05/00 01:55:31  5-MIN KDBQ 050755Z AUTO 03012KT 7SM -RA OVC005 11/10 A3005 960 96 700 020/12 RMK AO2 CIG 003V009 SLP179 P0005 T01060100 TSNO $
94908KDBQ DBQ20000605020012306/05/00 02:00:31  5-MIN KDBQ 050800Z AUTO 02012KT 7SM -RA BKN005 OVC008 11/10 A3005 960 96 700 020/12 RMK AO2 P0000 TSNO $
94908KDBQ DBQ20000605020513106/05/00 02:05:31  5-MIN KDBQ 050805Z AUTO 02011KT 6SM -RA BR OVC005 11/10 A3005 960 96 700 020/11 RMK AO2 CIG 003V009 P0000 TSNO $
94908KDBQ DBQ20000605021013506/05/00 02:10:31  5-MIN KDBQ 050810Z AUTO 02012KT 7SM -RA BKN005 OVC008 11/10 A3005 960 96 700 020/12 RMK AO2 CIG 003V007 P0000 TSNO $
94908KDBQ DBQ20000605021512806/05/00 02:15:31  5-MIN KDBQ 050815Z AUTO 03015KT 8SM -RA OVC005 11/10 A3005 960 96 700 030/15 RMK AO2 CIG 003V009 P0000 TSNO $
94908KDBQ DBQ20000605022013006/05/00 02:20:31  5-MIN KDBQ 050820Z AUTO 02012KT 9SM OVC005 11/10 A3005 960 96 700 020/12 RMK AO2 RAE20 CIG 003V009 P0000 TSNO $
94908KDBQ DBQ20000605022512806/05/00 02:25:31  5-MIN KDBQ 050825Z AUTO 03014KT 9SM -RA OVC005 11/10 A3005 960 96 700 020/14 RMK AO2 CIG 003V009 P0000 TSNO $
94908KDBQ DBQ20000605023013406/05/00 02:30:31  5-MIN KDBQ 050830Z AUTO 02012G18KT 9SM -RA OVC007 11/10 A3005 960 96 700 020/12G18 RMK AO2 CIG 003V011 P0000 TSNO $
94908KDBQ DBQ20000605023512806/05/00 02:35:31  5-MIN KDBQ 050835Z AUTO 02013KT 9SM -RA OVC007 11/10 A3005 960 96 700 020/13 RMK AO2 CIG 004V008 P0000 TSNO $
94908KDBQ DBQ20000605024012906/05/00 02:40:31  5-MIN KDBQ 050840Z AUTO 02012KT 10SM -RA OVC007 11/10 A3005 960 96 700 020/12 RMK AO2 CIG 004V010 P0000 TSNO $
94908KDBQ DBQ20000605024513106/05/00 02:45:31  5-MIN KDBQ 050845Z AUTO 02012KT 10SM OVC007 11/10 A3005 960 96 700 020/12 RMK AO2 RAE45 CIG 004V010 P0000 TSNO $
94908KDBQ DBQ20000605025016606/05/00 02:50:31  5-MIN KDBQ 050850Z AUTO 02015G19KT 10SM OVC007 11/10 A3005 960 96 700 020/15G19 RMK AO2 RAE45 CIG 004V010 SLP176 P0000 60015 T01060100 53010 TSNO $
94908KDBQ DBQ20000605025516006/05/00 02:55:31  5-MIN KDBQ 050855Z AUTO 02013KT 10SM OVC007 11/10 A3005 960 96 700 020/13 RMK AO2 RAE45 CIG 004V008 SLP178 P0001 60016 T01060100 51002 TSNO $
94908KDBQ DBQ20000605030011906/05/00 03:00:31  5-MIN KDBQ 050900Z AUTO 02013KT 10SM OVC007 11/10 A3005 950 96 700 020/13 RMK AO2 CIG 004V008 TSNO $
94908KDBQ DBQ20000605030511906/05/00 03:05:31  5-MIN KDBQ 050905Z AUTO 02011KT 10SM OVC007 11/10 A3006 950 96 700 020/11 RMK AO2 CIG 004V008 TSNO $
94908KDBQ DBQ20000605031011906/05/00 03:10:31  5-MIN KDBQ 050910Z AUTO 01012KT 10SM OVC007 11/10 A3006 950 96 700 010/12 RMK AO2 CIG 003V008 TSNO $
94908KDBQ DBQ20000605031511906/05/00 03:15:31  5-MIN KDBQ 050915Z AUTO 01012KT 10SM OVC005 11/10 A3006 950 96 700 010/12 RMK AO2 CIG 003V008 TSNO $
94908KDBQ DBQ20000605032011906/05/00 03:20:31  5-MIN KDBQ 050920Z AUTO 02012KT 10SM OVC005 11/10 A3006 950 96 700 020/12 RMK AO2 CIG 003V008 TSNO $
94908KDBQ DBQ20000605032512506/05/00 03:25:31  5-MIN KDBQ 050925Z AUTO 01014G17KT 10SM OVC005 11/10 A3006 950 96 700 010/14G17 RMK AO2 CIG 003V011 TSNO $
94908KDBQ DBQ20000605033011906/05/00 03:30:31  5-MIN KDBQ 050930Z AUTO 02016KT 10SM OVC007 11/10 A3006 950 96 700 010/16 RMK AO2 CIG 003V011 TSNO $
94908KDBQ DBQ20000605033512506/05/00 03:35:31  5-MIN KDBQ 050935Z AUTO 02017G20KT 10SM OVC007 11/10 A3006 950 96 700 010/17G20 RMK AO2 CIG 003V010 TSNO $
94908KDBQ DBQ20000605034012506/05/00 03:40:31  5-MIN KDBQ 050940Z AUTO 01014G20KT 10SM OVC007 11/10 A3006 950 96 700 010/14G20 RMK AO2 CIG 004V010 TSNO $
94908KDBQ DBQ20000605034511906/05/00 03:45:31  5-MIN KDBQ 050945Z AUTO 01013KT 10SM OVC007 11/10 A3006 950 96 700 010/13 RMK AO2 CIG 004V010 TSNO $
94908KDBQ DBQ20000605035013606/05/00 03:50:31  5-MIN KDBQ 050950Z AUTO 02011KT 10SM OVC007 11/10 A3007 940 96 700 020/11 RMK AO2 CIG 005V010 SLP182 T01060100 TSNO $
94908KDBQ DBQ20000605035514206/05/00 03:55:31  5-MIN KDBQ 050955Z AUTO 01013G19KT 10SM OVC007 11/09 A3007 940 93 700 010/13G19 RMK AO2 CIG 005V010 SLP183 T01060094 TSNO $
94908KDBQ DBQ20000605040012506/05/00 04:00:31  5-MIN KDBQ 051000Z AUTO 01010G19KT 10SM OVC007 11/09 A3007 940 93 700 010/10G19 RMK AO2 CIG 005V010 TSNO $
94908KDBQ DBQ20000605040511906/05/00 04:05:31  5-MIN KDBQ 051005Z AUTO 01012KT 10SM OVC007 11/09 A3007 940 93 700 360/12 RMK AO2 CIG 005V012 TSNO $
94908KDBQ DBQ20000605041011306/05/00 04:10:31  5-MIN KDBQ 051010Z AUTO 01014G19KT 10SM OVC007 10/09 A3008 940 96 600 360/14G19 RMK AO2 TSNO $
94908KDBQ DBQ20000605041511306/05/00 04:15:31  5-MIN KDBQ 051015Z AUTO 36016G19KT 10SM OVC007 10/09 A3008 930 93 600 360/16G19 RMK AO2 TSNO $
94908KDBQ DBQ20000605042012606/05/00 04:20:31  5-MIN KDBQ 051020Z AUTO 01014KT 10SM BKN007 OVC012 10/09 A3008 930 93 600 010/14 RMK AO2 CIG 005V010 TSNO $
94908KDBQ DBQ20000605042512606/05/00 04:25:31  5-MIN KDBQ 051025Z AUTO 01014KT 10SM BKN007 OVC012 10/09 A3008 930 93 600 010/14 RMK AO2 CIG 005V010 TSNO $
94908KDBQ DBQ20000605043012606/05/00 04:30:31  5-MIN KDBQ 051030Z AUTO 01014KT 10SM BKN007 OVC012 10/09 A3008 930 93 600 010/14 RMK AO2 CIG 006V011 TSNO $
94908KDBQ DBQ20000605043512606/05/00 04:35:31  5-MIN KDBQ 051035Z AUTO 36014KT 10SM BKN007 OVC012 10/09 A3009 930 93 600 360/14 RMK AO2 CIG 006V011 TSNO $
94908KDBQ DBQ20000605044012606/05/00 04:40:31  5-MIN KDBQ 051040Z AUTO 36013KT 10SM BKN007 OVC012 10/09 A3009 920 93 600 360/13 RMK AO2 CIG 007V011 TSNO $
94908KDBQ DBQ20000605044512606/05/00 04:45:31  5-MIN KDBQ 051045Z AUTO 01012KT 10SM BKN007 OVC012 09/08 A3009 930 93 500 010/12 RMK AO2 CIG 007V011 TSNO $
94908KDBQ DBQ20000605045012606/05/00 04:50:31  5-MIN KDBQ 051050Z 01012KT 10SM OVC007 09/08 A3009 920 93 500 010/12 RMK AO2 CIG 006V011 SLP192 T00940083 $
94908KDBQ DBQ20000605045511406/05/00 04:55:31  5-MIN KDBQ 051055Z 36015KT 10SM OVC007 09/08 A3009 920 93 500 360/15 RMK AO2 SLP192 T00940083 $
94908KDBQ DBQ20000605050009706/05/00 05:00:31  5-MIN KDBQ 051100Z 01013KT 10SM OVC007 09/08 A3010 920 93 500 010/13 RMK AO2 $
94908KDBQ DBQ20000605050509706/05/00 05:05:31  5-MIN KDBQ 051105Z 01011KT 10SM OVC007 09/08 A3010 920 93 500 010/11 RMK AO2 $
94908KDBQ DBQ20000605051009706/05/00 05:10:31  5-MIN KDBQ 051110Z 01013KT 10SM OVC007 09/08 A3010 920 96 400 010/13 RMK AO2 $
94908KDBQ DBQ20000605051510906/05/00 05:15:31  5-MIN KDBQ 051115Z 02009KT 10SM OVC007 09/08 A3010 910 93 400 020/09 RMK AO2 CIG 006V011 $
94908KDBQ DBQ20000605052010906/05/00 05:20:31  5-MIN KDBQ 051120Z 01010KT 10SM OVC007 09/08 A3010 910 93 400 360/10 RMK AO2 CIG 006V010 $
94908KDBQ DBQ20000605052510906/05/00 05:25:31  5-MIN KDBQ 051125Z 35012KT 10SM OVC007 09/08 A3010 910 93 400 350/12 RMK AO2 CIG 006V010 $
94908KDBQ DBQ20000605053010906/05/00 05:30:31  5-MIN KDBQ 051130Z 36012KT 10SM OVC007 09/08 A3010 910 93 400 360/12 RMK AO2 CIG 006V012 $
94908KDBQ DBQ20000605053510906/05/00 05:35:31  5-MIN KDBQ 051135Z 01012KT 10SM OVC007 09/08 A3010 920 93 400 010/12 RMK AO2 CIG 006V012 $
94908KDBQ DBQ20000605054010906/05/00 05:40:31  5-MIN KDBQ 051140Z 36013KT 10SM OVC007 09/08 A3010 910 93 400 360/13 RMK AO2 CIG 006V012 $
94908KDBQ DBQ20000605054509706/05/00 05:45:31  5-MIN KDBQ 051145Z 36014KT 10SM OVC007 09/08 A3010 910 93 400 360/14 RMK AO2 $
94908KDBQ DBQ20000605055014406/05/00 05:50:31  5-MIN KDBQ 051150Z 36012KT 10SM OVC007 09/07 A3010 910 89 400 360/12 RMK AO2 SLP196 60016 7//// T00890072 10106 20089 51002 $
94908KDBQ DBQ20000605055514406/05/00 05:55:31  5-MIN KDBQ 051155Z 36013KT 10SM OVC007 09/08 A3010 910 93 400 360/13 RMK AO2 SLP197 60016 7//// T00890078 10106 20089 51017 $
94908KDBQ DBQ20000605060009706/05/00 06:00:31  5-MIN KDBQ 051200Z 36013KT 10SM OVC007 09/08 A3010 910 93 400 360/13 RMK AO2 $
94908KDBQ DBQ20000605060509706/05/00 06:05:31  5-MIN KDBQ 051205Z 01014KT 10SM OVC007 09/07 A3010 910 89 400 360/14 RMK AO2 $
94908KDBQ DBQ20000605061009706/05/00 06:10:31  5-MIN KDBQ 051210Z 01012KT 10SM OVC007 09/08 A3011 910 93 400 010/12 RMK AO2 $
94908KDBQ DBQ20000605061509706/05/00 06:15:31  5-MIN KDBQ 051215Z 01011KT 10SM OVC007 09/08 A3011 900 93 400 010/11 RMK AO2 $
94908KDBQ DBQ20000605062009706/05/00 06:20:31  5-MIN KDBQ 051220Z 36012KT 10SM OVC007 09/08 A3011 900 93 400 360/12 RMK AO2 $
94908KDBQ DBQ20000605062509706/05/00 06:25:31  5-MIN KDBQ 051225Z 36010KT 10SM OVC007 09/08 A3011 900 93 400 360/10 RMK AO2 $
94908KDBQ DBQ20000605063009706/05/00 06:30:31  5-MIN KDBQ 051230Z 36010KT 10SM OVC007 09/08 A3012 900 93 400 360/10 RMK AO2 $
94908KDBQ DBQ20000605063509706/05/00 06:35:31  5-MIN KDBQ 051235Z 36013KT 10SM OVC007 09/08 A3012 890 93 400 360/13 RMK AO2 $
94908KDBQ DBQ20000605064009706/05/00 06:40:31  5-MIN KDBQ 051240Z 36009KT 10SM OVC007 09/08 A3012 890 93 400 360/09 RMK AO2 $
94908KDBQ DBQ20000605064510106/05/00 06:45:31  5-MIN KDBQ 051245Z 01011G17KT 10SM OVC007 09/08 A3013 890 93 400 360/11G17 RMK AO2
94908KDBQ DBQ20000605065011806/05/00 06:50:31  5-MIN KDBQ 051250Z 01012G17KT 10SM OVC007 09/08 A3012 890 93 400 360/12G17 RMK AO2 SLP204 T00890078
94908KDBQ DBQ20000605065511206/05/00 06:55:31  5-MIN KDBQ 051255Z 36010KT 10SM OVC007 09/08 A3012 890 93 400 360/10 RMK AO2 SLP205 T00890078
94908KDBQ DBQ20000605070009506/05/00 07:00:31  5-MIN KDBQ 051300Z 01010KT 10SM OVC007 09/08 A3013 890 93 400 010/10 RMK AO2
94908KDBQ DBQ20000605070509506/05/00 07:05:31  5-MIN KDBQ 051305Z 01010KT 10SM OVC007 09/08 A3013 890 93 400 010/10 RMK AO2
94908KDBQ DBQ20000605071009506/05/00 07:10:31  5-MIN KDBQ 051310Z 01009KT 10SM OVC007 09/08 A3013 880 93 400 360/09 RMK AO2
94908KDBQ DBQ20000605071509506/05/00 07:15:31  5-MIN KDBQ 051315Z 36009KT 10SM OVC007 09/08 A3013 880 89 500 360/09 RMK AO2
94908KDBQ DBQ20000605072009506/05/00 07:20:31  5-MIN KDBQ 051320Z 36010KT 10SM OVC007 09/08 A3013 880 93 400 360/10 RMK AO2
94908KDBQ DBQ20000605072509506/05/00 07:25:31  5-MIN KDBQ 051325Z 35010KT 10SM OVC007 09/08 A3014 880 93 400 350/10 RMK AO2
94908KDBQ DBQ20000605073009506/05/00 07:30:31  5-MIN KDBQ 051330Z 36010KT 10SM OVC007 09/08 A3014 880 93 400 360/10 RMK AO2
94908KDBQ DBQ20000605073509506/05/00 07:35:31  5-MIN KDBQ 051335Z 01011KT 10SM OVC007 09/08 A3014 880 93 500 010/11 RMK AO2
94908KDBQ DBQ20000605074009406/05/00 07:40:31  5-MIN KDBQ 051340Z 01010KT 9SM OVC007 09/08 A3014 870 93 500 010/10 RMK AO2
94908KDBQ DBQ20000605074509406/05/00 07:45:31  5-MIN KDBQ 051345Z 36011KT 9SM OVC007 09/08 A3015 870 93 500 360/11 RMK AO2
94908KDBQ DBQ20000605075011106/05/00 07:50:31  5-MIN KDBQ 051350Z 36009KT 9SM OVC007 09/08 A3014 870 93 500 360/09 RMK AO2 SLP211 T00940083
94908KDBQ DBQ20000605075511106/05/00 07:55:31  5-MIN KDBQ 051355Z 36009KT 9SM OVC007 09/08 A3015 870 93 400 360/09 RMK AO2 SLP212 T00940083
94908KDBQ DBQ20000605080009406/05/00 08:00:31  5-MIN KDBQ 051400Z 01008KT 9SM OVC007 10/08 A3015 870 89 500 010/08 RMK AO2
94908KDBQ DBQ20000605080509506/05/00 08:05:31  5-MIN KDBQ 051405Z 36009KT 10SM OVC007 10/08 A3015 870 89 500 360/09 RMK AO2
94908KDBQ DBQ20000605081009506/05/00 08:10:31  5-MIN KDBQ 051410Z 01009KT 10SM OVC007 10/08 A3015 860 89 500 010/09 RMK AO2
94908KDBQ DBQ20000605081509506/05/00 08:15:31  5-MIN KDBQ 051415Z 36008KT 10SM OVC007 10/08 A3015 860 89 500 360/08 RMK AO2
94908KDBQ DBQ20000605082009506/05/00 08:20:31  5-MIN KDBQ 051420Z 36009KT 10SM OVC007 10/08 A3016 860 89 500 360/09 RMK AO2
94908KDBQ DBQ20000605082509506/05/00 08:25:31  5-MIN KDBQ 051425Z 01008KT 10SM OVC007 10/09 A3016 860 93 500 010/08 RMK AO2
94908KDBQ DBQ20000605083009406/05/00 08:30:31  5-MIN KDBQ 051430Z 01009KT 9SM OVC007 10/09 A3016 860 93 500 010/09 RMK AO2
94908KDBQ DBQ20000605083509406/05/00 08:35:31  5-MIN KDBQ 051435Z 01010KT 9SM OVC009 10/09 A3016 860 93 500 010/10 RMK AO2
94908KDBQ DBQ20000605084009406/05/00 08:40:31  5-MIN KDBQ 051440Z 36010KT 9SM OVC009 10/09 A3016 860 93 500 360/10 RMK AO2
94908KDBQ DBQ20000605084509406/05/00 08:45:31  5-MIN KDBQ 051445Z 36011KT 9SM OVC009 10/09 A3016 860 93 500 360/11 RMK AO2
94908KDBQ DBQ20000605085011806/05/00 08:50:31  5-MIN KDBQ 051450Z 01012KT 10SM OVC009 10/09 A3016 850 93 500 360/12 RMK AO2 SLP218 T01000089 51017
94908KDBQ DBQ20000605085511806/05/00 08:55:31  5-MIN KDBQ 051455Z 36009KT 10SM OVC007 10/09 A3016 850 93 500 360/09 RMK AO2 SLP218 T01000089 51020
94908KDBQ DBQ20000605090009506/05/00 09:00:31  5-MIN KDBQ 051500Z 36011KT 10SM OVC007 10/09 A3017 850 93 500 350/11 RMK AO2
94908KDBQ DBQ20000605090509406/05/00 09:05:31  5-MIN KDBQ 051505Z 36010KT 9SM OVC007 10/09 A3017 850 93 500 360/10 RMK AO2
94908KDBQ DBQ20000605091009406/05/00 09:10:31  5-MIN KDBQ 051510Z 36011KT 9SM OVC007 10/09 A3017 850 93 500 360/11 RMK AO2
94908KDBQ DBQ20000605091509406/05/00 09:15:31  5-MIN KDBQ 051515Z 36011KT 9SM OVC007 10/09 A3017 850 93 500 360/11 RMK AO2
94908KDBQ DBQ20000605092009406/05/00 09:20:31  5-MIN KDBQ 051520Z 36011KT 9SM OVC007 10/09 A3017 850 93 500 360/11 RMK AO2
94908KDBQ DBQ20000605092509406/05/00 09:25:31  5-MIN KDBQ 051525Z 36009KT 8SM OVC007 10/09 A3017 850 93 500 360/09 RMK AO2
94908KDBQ DBQ20000605093010606/05/00 09:30:31  5-MIN KDBQ 051530Z 36009KT 8SM OVC007 10/09 A3017 850 93 500 360/09 RMK AO2 CIG 006V011
94908KDBQ DBQ20000605093511306/05/00 09:35:31  5-MIN KDBQ 051535Z 01007KT 9SM BKN009 OVC012 10/09 A3018 840 93 500 010/07 RMK AO2 CIG 006V010
94908KDBQ DBQ20000605094010606/05/00 09:40:31  5-MIN KDBQ 051540Z 36008KT 9SM OVC009 11/09 A3018 840 89 500 360/08 RMK AO2 CIG 006V013
94908KDBQ DBQ20000605094510606/05/00 09:45:31  5-MIN KDBQ 051545Z 35007KT 9SM OVC009 11/09 A3018 840 89 500 350/07 RMK AO2 CIG 006V013
94908KDBQ DBQ20000605095012306/05/00 09:50:31  5-MIN KDBQ 051550Z 34010KT 9SM OVC009 11/09 A3018 840 89 500 340/10 RMK AO2 CIG 006V012 SLP223 T01060089
94908KDBQ DBQ20000605095512306/05/00 09:55:31  5-MIN KDBQ 051555Z 34010KT 9SM OVC009 11/09 A3018 840 89 600 340/10 RMK AO2 CIG 007V013 SLP224 T01110094
94908KDBQ DBQ20000605100009406/05/00 10:00:31  5-MIN KDBQ 051600Z 35009KT 9SM OVC009 11/09 A3018 840 89 600 350/09 RMK AO2
94908KDBQ DBQ20000605100509406/05/00 10:05:31  5-MIN KDBQ 051605Z 36009KT 9SM OVC009 11/09 A3018 840 89 600 360/09 RMK AO2
94908KDBQ DBQ20000605101009406/05/00 10:10:31  5-MIN KDBQ 051610Z 35009KT 9SM OVC009 11/09 A3019 830 89 600 350/09 RMK AO2
94908KDBQ DBQ20000605101510106/05/00 10:15:31  5-MIN KDBQ 051615Z 35009KT 9SM BKN009 OVC016 12/09 A3018 830 86 700 350/09 RMK AO2
94908KDBQ DBQ20000605102011306/05/00 10:20:31  5-MIN KDBQ 051620Z 35008KT 9SM BKN009 OVC016 12/10 A3018 830 89 700 350/08 RMK AO2 CIG 007V013
94908KDBQ DBQ20000605102510706/05/00 10:25:31  5-MIN KDBQ 051625Z 36008KT 10SM OVC009 12/10 A3019 830 89 700 360/08 RMK AO2 CIG 007V013
94908KDBQ DBQ20000605103011406/05/00 10:30:31  5-MIN KDBQ 051630Z 35010KT 10SM BKN009 OVC016 12/10 A3019 830 86 700 350/10 RMK AO2 CIG 008V012
94908KDBQ DBQ20000605103511406/05/00 10:35:31  5-MIN KDBQ 051635Z 35011KT 10SM BKN009 OVC016 12/10 A3019 830 86 700 350/11 RMK AO2 CIG 008V012
94908KDBQ DBQ20000605104010206/05/00 10:40:31  5-MIN KDBQ 051640Z 34009KT 10SM BKN009 OVC019 13/10 A3019 830 83 800 340/09 RMK AO2
94908KDBQ DBQ20000605104510206/05/00 10:45:31  5-MIN KDBQ 051645Z 36009KT 10SM BKN009 OVC019 13/10 A3019 830 83 800 360/09 RMK AO2
94908KDBQ DBQ20000605105011906/05/00 10:50:31  5-MIN KDBQ 051650Z 35012KT 10SM BKN012 OVC019 13/10 A3019 830 80 900 350/12 RMK AO2 SLP225 T01330100
94908KDBQ DBQ20000605105512606/05/00 10:55:31  5-MIN KDBQ 051655Z 35011KT 10SM SCT012 BKN016 OVC060 13/10 A3019 830 80 900 350/11 RMK AO2 SLP226 T01330100
94908KDBQ DBQ20000605110010906/05/00 11:00:31  5-MIN KDBQ 051700Z 35011KT 10SM SCT012 BKN017 OVC060 13/10 A3019 830 83 800 350/11 RMK AO2
94908KDBQ DBQ20000605110510906/05/00 11:05:31  5-MIN KDBQ 051705Z 35010KT 10SM SCT013 BKN018 OVC030 13/10 A3019 830 83 800 350/10 RMK AO2
94908KDBQ DBQ20000605111010906/05/00 11:10:31  5-MIN KDBQ 051710Z 35011KT 10SM SCT015 BKN025 OVC065 13/10 A3019 830 80 900 350/11 RMK AO2
94908KDBQ DBQ20000605111510906/05/00 11:15:31  5-MIN KDBQ 051715Z 36012KT 10SM SCT015 BKN025 OVC065 13/10 A3019 830 80 900 360/12 RMK AO2
94908KDBQ DBQ20000605112010906/05/00 11:20:31  5-MIN KDBQ 051720Z 36012KT 10SM SCT017 BKN025 OVC060 13/10 A3019 830 80 900 360/12 RMK AO2
94908KDBQ DBQ20000605112511006/05/00 11:25:31  5-MIN KDBQ 051725Z 36010KT 10SM FEW014 SCT020 BKN025 14/11 A3019 830 77 1000 360/10 RMK AO2
94908KDBQ DBQ20000605113011006/05/00 11:30:31  5-MIN KDBQ 051730Z 35013KT 10SM FEW016 BKN024 BKN034 15/11 A3019 830 77 1100 350/13 RMK AO2
94908KDBQ DBQ20000605113511006/05/00 11:35:31  5-MIN KDBQ 051735Z 01013KT 10SM FEW016 BKN024 BKN034 14/10 A3019 830 74 1000 010/13 RMK AO2
94908KDBQ DBQ20000605114011006/05/00 11:40:31  5-MIN KDBQ 051740Z 01013KT 10SM FEW019 BKN024 BKN065 14/10 A3019 830 74 1000 010/13 RMK AO2
94908KDBQ DBQ20000605114511006/05/00 11:45:31  5-MIN KDBQ 051745Z 01012KT 10SM FEW019 BKN024 BKN065 15/10 A3019 830 72 1100 010/12 RMK AO2
94908KDBQ DBQ20000605115014406/05/00 11:50:31  5-MIN KDBQ 051750Z 01012KT 10SM FEW019 BKN024 BKN065 14/09 A3020 820 74 900 010/12 RMK AO2 SLP228 T01390094 10150 20089 51020
94908KDBQ DBQ20000605115514506/05/00 11:55:31  5-MIN KDBQ 051755Z 02013KT 10SM FEW021 SCT029 BKN036 14/10 A3020 820 74 1000 020/13 RMK AO2 SLP228 T01440100 10150 20089 51011
94908KDBQ DBQ20000605120011006/05/00 12:00:31  5-MIN KDBQ 051800Z 02011KT 10SM SCT027 BKN036 OVC044 14/10 A3020 820 74 1000 020/11 RMK AO2
94908KDBQ DBQ20000605120511606/05/00 12:05:31  5-MIN KDBQ 051805Z 01012G18KT 10SM FEW024 SCT029 BKN041 15/10 A3020 820 72 1100 360/12G18 RMK AO2
94908KDBQ DBQ20000605121011606/05/00 12:10:31  5-MIN KDBQ 051810Z 02010G18KT 10SM FEW024 SCT036 BKN046 16/10 A3020 820 69 1100 020/10G18 RMK AO2
94908KDBQ DBQ20000605121511006/05/00 12:15:31  5-MIN KDBQ 051815Z 01011KT 10SM SCT026 BKN038 BKN046 15/09 A3020 820 69 1100 010/11 RMK AO2
94908KDBQ DBQ20000605122011006/05/00 12:20:31  5-MIN KDBQ 051820Z 36012KT 10SM FEW026 SCT035 BKN042 15/09 A3020 820 69 1100 360/12 RMK AO2
94908KDBQ DBQ20000605122511006/05/00 12:25:31  5-MIN KDBQ 051825Z 01011KT 10SM FEW026 BKN040 BKN050 15/09 A3020 820 69 1100 010/11 RMK AO2
94908KDBQ DBQ20000605123011006/05/00 12:30:31  5-MIN KDBQ 051830Z 02009KT 10SM FEW026 BKN040 BKN050 16/10 A3020 820 69 1100 010/09 RMK AO2
94908KDBQ DBQ20000605123511006/05/00 12:35:31  5-MIN KDBQ 051835Z 02011KT 10SM FEW026 BKN040 OVC050 16/09 A3019 830 67 1100 020/11 RMK AO2
94908KDBQ DBQ20000605124011006/05/00 12:40:31  5-MIN KDBQ 051840Z 02011KT 10SM FEW026 BKN040 OVC050 16/09 A3019 830 67 1100 010/11 RMK AO2
94908KDBQ DBQ20000605124510306/05/00 12:45:31  5-MIN KDBQ 051845Z 01011KT 10SM SCT043 BKN050 16/10 A3019 830 67 1200 010/11 RMK AO2
94908KDBQ DBQ20000605125012006/05/00 12:50:31  5-MIN KDBQ 051850Z 01012KT 10SM SCT042 BKN050 16/10 A3019 830 67 1200 360/12 RMK AO2 SLP226 T01610100
94908KDBQ DBQ20000605125512706/05/00 12:55:31  5-MIN KDBQ 051855Z 36011KT 10SM SCT036 BKN042 OVC050 15/09 A3019 830 69 1100 360/11 RMK AO2 SLP227 T01500094
94908KDBQ DBQ20000605130011006/05/00 13:00:31  5-MIN KDBQ 051900Z 01011KT 10SM BKN036 BKN045 OVC055 15/09 A3020 820 66 1100 010/11 RMK AO2
94908KDBQ DBQ20000605130511006/05/00 13:05:31  5-MIN KDBQ 051905Z 01012KT 10SM FEW030 BKN038 OVC050 15/09 A3020 820 66 1100 010/12 RMK AO2
94908KDBQ DBQ20000605131010306/05/00 13:10:31  5-MIN KDBQ 051910Z 01011KT 10SM SCT035 OVC050 16/09 A3019 830 67 1100 010/11 RMK AO2
94908KDBQ DBQ20000605131510306/05/00 13:15:31  5-MIN KDBQ 051915Z 36011KT 10SM SCT035 OVC050 16/09 A3019 830 64 1200 360/11 RMK AO2
94908KDBQ DBQ20000605132010306/05/00 13:20:31  5-MIN KDBQ 051920Z 01012KT 10SM SCT035 BKN055 17/10 A3020 820 64 1300 010/12 RMK AO2
94908KDBQ DBQ20000605132510306/05/00 13:25:31  5-MIN KDBQ 051925Z 01013KT 10SM FEW033 BKN050 17/10 A3020 820 64 1200 010/13 RMK AO2
94908KDBQ DBQ20000605133010306/05/00 13:30:31  5-MIN KDBQ 051930Z 01012KT 10SM FEW034 BKN055 17/09 A3020 820 62 1200 010/12 RMK AO2
94908KDBQ DBQ20000605133510306/05/00 13:35:31  5-MIN KDBQ 051935Z 01012KT 10SM FEW034 BKN055 17/09 A3020 820 62 1300 010/12 RMK AO2
94908KDBQ DBQ20000605134010306/05/00 13:40:31  5-MIN KDBQ 051940Z 01011KT 10SM FEW034 BKN055 17/10 A3020 820 62 1300 010/11 RMK AO2
94908KDBQ DBQ20000605134510306/05/00 13:45:31  5-MIN KDBQ 051945Z 01011KT 10SM FEW036 BKN050 16/09 A3020 820 62 1200 010/11 RMK AO2
94908KDBQ DBQ20000605135012006/05/00 13:50:31  5-MIN KDBQ 051950Z 02011KT 10SM FEW033 BKN055 17/09 A3020 820 62 1300 010/11 RMK AO2 SLP227 T01670094
94908KDBQ DBQ20000605135512006/05/00 13:55:31  5-MIN KDBQ 051955Z 36010KT 10SM FEW036 BKN055 17/10 A3020 820 62 1300 360/10 RMK AO2 SLP227 T01720100
94908KDBQ DBQ20000605140010306/05/00 14:00:31  5-MIN KDBQ 052000Z 02011KT 10SM FEW036 SCT055 17/10 A3020 820 62 1300 020/11 RMK AO2
94908KDBQ DBQ20000605140510306/05/00 14:05:31  5-MIN KDBQ 052005Z 02010KT 10SM FEW036 SCT055 17/10 A3020 820 62 1300 020/10 RMK AO2
94908KDBQ DBQ20000605141009606/05/00 14:10:31  5-MIN KDBQ 052010Z 01011KT 10SM SCT055 18/10 A3020 820 60 1400 010/11 RMK AO2
94908KDBQ DBQ20000605141510306/05/00 14:15:31  5-MIN KDBQ 052015Z 01011KT 10SM FEW035 BKN050 17/09 A3019 830 62 1300 010/11 RMK AO2
94908KDBQ DBQ20000605142010306/05/00 14:20:31  5-MIN KDBQ 052020Z 36012KT 10SM SCT035 BKN050 16/09 A3020 820 64 1200 360/12 RMK AO2
94908KDBQ DBQ20000605142510306/05/00 14:25:31  5-MIN KDBQ 052025Z 02009KT 10SM FEW035 BKN050 17/10 A3020 820 62 1300 020/09 RMK AO2
94908KDBQ DBQ20000605143011006/05/00 14:30:31  5-MIN KDBQ 052030Z 35010KT 10SM FEW035 BKN047 BKN055 17/09 A3020 820 60 1300 350/10 RMK AO2
94908KDBQ DBQ20000605143511006/05/00 14:35:31  5-MIN KDBQ 052035Z 03008KT 10SM SCT035 BKN045 OVC055 17/09 A3020 820 60 1300 030/08 RMK AO2
94908KDBQ DBQ20000605144011006/05/00 14:40:31  5-MIN KDBQ 052040Z 03011KT 10SM SCT035 BKN045 OVC055 16/09 A3020 820 64 1200 030/11 RMK AO2
94908KDBQ DBQ20000605144511006/05/00 14:45:31  5-MIN KDBQ 052045Z 02010KT 10SM FEW035 SCT045 BKN055 16/09 A3020 820 64 1200 020/10 RMK AO2
94908KDBQ DBQ20000605145013306/05/00 14:50:31  5-MIN KDBQ 052050Z 01011KT 10SM FEW037 SCT045 BKN055 17/10 A3020 820 62 1300 010/11 RMK AO2 SLP227 T01720100 51011
94908KDBQ DBQ20000605145513306/05/00 14:55:31  5-MIN KDBQ 052055Z 01009KT 10SM FEW037 SCT045 SCT055 17/09 A3019 830 57 1300 010/09 RMK AO2 SLP226 T01720089 56001
94908KDBQ DBQ20000605150010306/05/00 15:00:31  5-MIN KDBQ 052100Z 01009KT 10SM FEW037 SCT055 18/09 A3020 830 58 1400 010/09 RMK AO2
94908KDBQ DBQ20000605150510306/05/00 15:05:31  5-MIN KDBQ 052105Z 01008KT 10SM FEW039 SCT055 17/09 A3020 830 60 1300 010/08 RMK AO2
94908KDBQ DBQ20000605151010306/05/00 15:10:31  5-MIN KDBQ 052110Z 01010KT 10SM FEW037 SCT055 17/09 A3020 820 62 1300 010/10 RMK AO2
94908KDBQ DBQ20000605151509606/05/00 15:15:31  5-MIN KDBQ 052115Z 01009KT 10SM FEW037 17/09 A3019 830 62 1300 010/09 RMK AO2
94908KDBQ DBQ20000605152009606/05/00 15:20:31  5-MIN KDBQ 052120Z 01010KT 10SM FEW037 18/09 A3019 830 58 1400 010/10 RMK AO2
94908KDBQ DBQ20000605152509606/05/00 15:25:31  5-MIN KDBQ 052125Z 01010KT 10SM FEW037 18/10 A3019 830 58 1400 010/10 RMK AO2
94908KDBQ DBQ20000605153009606/05/00 15:30:31  5-MIN KDBQ 052130Z 01010KT 10SM FEW037 18/09 A3019 830 55 1400 010/10 RMK AO2
94908KDBQ DBQ20000605153509606/05/00 15:35:31  5-MIN KDBQ 052135Z 36012KT 10SM FEW039 18/09 A3019 830 54 1500 360/12 RMK AO2
94908KDBQ DBQ20000605154009606/05/00 15:40:31  5-MIN KDBQ 052140Z 01012KT 10SM FEW042 18/09 A3019 830 55 1400 010/12 RMK AO2
94908KDBQ DBQ20000605154509606/05/00 15:45:31  5-MIN KDBQ 052145Z 36011KT 10SM FEW044 18/09 A3019 830 56 1500 360/11 RMK AO2
94908KDBQ DBQ20000605155011306/05/00 15:50:31  5-MIN KDBQ 052150Z 36009KT 10SM FEW044 18/09 A3019 830 54 1500 360/09 RMK AO2 SLP223 T01830089
94908KDBQ DBQ20000605155511306/05/00 15:55:31  5-MIN KDBQ 052155Z 02009KT 10SM FEW044 18/09 A3019 830 54 1500 020/09 RMK AO2 SLP223 T01830089
94908KDBQ DBQ20000605160009606/05/00 16:00:31  5-MIN KDBQ 052200Z 36010KT 10SM FEW044 18/09 A3019 830 54 1500 360/10 RMK AO2
94908KDBQ DBQ20000605160509606/05/00 16:05:31  5-MIN KDBQ 052205Z 36013KT 10SM FEW044 18/09 A3019 830 55 1400 360/13 RMK AO2
94908KDBQ DBQ20000605161009306/05/00 16:10:31  5-MIN KDBQ 052210Z 03011KT 10SM CLR 18/09 A3019 830 54 1500 030/11 RMK AO2
94908KDBQ DBQ20000605161509306/05/00 16:15:31  5-MIN KDBQ 052215Z 35010KT 10SM CLR 18/09 A3019 830 54 1500 350/10 RMK AO2
94908KDBQ DBQ20000605162009306/05/00 16:20:31  5-MIN KDBQ 052220Z 01012KT 10SM CLR 18/09 A3018 840 55 1400 010/12 RMK AO2
94908KDBQ DBQ20000605162509306/05/00 16:25:31  5-MIN KDBQ 052225Z 02010KT 10SM CLR 18/09 A3018 840 54 1500 020/10 RMK AO2
94908KDBQ DBQ20000605163009306/05/00 16:30:31  5-MIN KDBQ 052230Z 02010KT 10SM CLR 18/09 A3018 840 54 1500 020/10 RMK AO2
94908KDBQ DBQ20000605163509306/05/00 16:35:31  5-MIN KDBQ 052235Z 03011KT 10SM CLR 18/09 A3018 840 54 1500 030/11 RMK AO2
94908KDBQ DBQ20000605164009306/05/00 16:40:31  5-MIN KDBQ 052240Z 03011KT 10SM CLR 18/09 A3018 840 54 1500 030/11 RMK AO2
94908KDBQ DBQ20000605164509306/05/00 16:45:31  5-MIN KDBQ 052245Z 01011KT 10SM CLR 18/09 A3018 840 54 1500 010/11 RMK AO2
94908KDBQ DBQ20000605165011006/05/00 16:50:31  5-MIN KDBQ 052250Z 01009KT 10SM CLR 18/08 A3018 840 52 1500 010/09 RMK AO2 SLP222 T01830083
94908KDBQ DBQ20000605165511006/05/00 16:55:31  5-MIN KDBQ 052255Z 03011KT 10SM CLR 18/09 A3018 840 54 1500 020/11 RMK AO2 SLP222 T01830089
94908KDBQ DBQ20000605170009306/05/00 17:00:31  5-MIN KDBQ 052300Z 03012KT 10SM CLR 18/09 A3018 840 55 1400 030/12 RMK AO2
94908KDBQ DBQ20000605170509606/05/00 17:05:31  5-MIN KDBQ 052305Z 03011KT 10SM FEW065 18/08 A3018 840 51 1400 030/11 RMK AO2
94908KDBQ DBQ20000605171009606/05/00 17:10:31  5-MIN KDBQ 052310Z 02009KT 10SM SCT065 18/08 A3019 830 52 1500 020/09 RMK AO2
94908KDBQ DBQ20000605171509606/05/00 17:15:31  5-MIN KDBQ 052315Z 02008KT 10SM BKN065 18/09 A3018 840 54 1500 010/08 RMK AO2
94908KDBQ DBQ20000605172010306/05/00 17:20:31  5-MIN KDBQ 052320Z 01010KT 10SM FEW045 BKN065 18/09 A3018 840 55 1400 010/10 RMK AO2
94908KDBQ DBQ20000605172510306/05/00 17:25:31  5-MIN KDBQ 052325Z 02009KT 10SM FEW045 BKN065 18/09 A3019 830 58 1400 020/09 RMK AO2
94908KDBQ DBQ20000605173010306/05/00 17:30:31  5-MIN KDBQ 052330Z 01010KT 10SM FEW045 BKN065 18/09 A3019 830 55 1400 010/10 RMK AO2
94908KDBQ DBQ20000605173510306/05/00 17:35:31  5-MIN KDBQ 052335Z 02008KT 10SM FEW045 SCT065 18/09 A3019 830 55 1400 020/08 RMK AO2
94908KDBQ DBQ20000605174009606/05/00 17:40:31  5-MIN KDBQ 052340Z 01007KT 10SM FEW045 17/09 A3019 830 57 1300 010/07 RMK AO2
94908KDBQ DBQ20000605174509606/05/00 17:45:31  5-MIN KDBQ 052345Z 36007KT 10SM FEW045 18/09 A3020 830 55 1400 360/07 RMK AO2
94908KDBQ DBQ20000605175012806/05/00 17:50:31  5-MIN KDBQ 052350Z 36005KT 10SM CLR 18/09 A3019 830 55 1400 360/05 RMK AO2 SLP226 T01780089 10189 20144 56001
94908KDBQ DBQ20000605175512806/05/00 17:55:31  5-MIN KDBQ 052355Z 02008KT 10SM CLR 18/08 A3019 830 53 1400 020/08 RMK AO2 SLP225 T01780083 10189 20144 55001
94908KDBQ DBQ20000605180009306/05/00 18:00:31  5-MIN KDBQ 060000Z 02009KT 10SM CLR 18/08 A3019 830 53 1400 020/09 RMK AO2
94908KDBQ DBQ20000605180509306/05/00 18:05:31  5-MIN KDBQ 060005Z 03008KT 10SM CLR 18/09 A3019 830 55 1400 030/08 RMK AO2
94908KDBQ DBQ20000605181009306/05/00 18:10:31  5-MIN KDBQ 060010Z 02009KT 10SM CLR 17/09 A3019 830 57 1300 010/09 RMK AO2
94908KDBQ DBQ20000605181509306/05/00 18:15:31  5-MIN KDBQ 060015Z 02006KT 10SM CLR 17/09 A3019 830 57 1300 020/06 RMK AO2
94908KDBQ DBQ20000605182009306/05/00 18:20:31  5-MIN KDBQ 060020Z 36004KT 10SM CLR 17/09 A3019 830 60 1300 360/04 RMK AO2
94908KDBQ DBQ20000605182509306/05/00 18:25:31  5-MIN KDBQ 060025Z 36007KT 10SM CLR 17/09 A3019 830 60 1300 360/07 RMK AO2
94908KDBQ DBQ20000605183009306/05/00 18:30:31  5-MIN KDBQ 060030Z 02005KT 10SM CLR 17/09 A3019 830 62 1300 020/05 RMK AO2
94908KDBQ DBQ20000605183509306/05/00 18:35:31  5-MIN KDBQ 060035Z 01005KT 10SM CLR 17/09 A3019 830 60 1300 010/05 RMK AO2
94908KDBQ DBQ20000605184009306/05/00 18:40:31  5-MIN KDBQ 060040Z 02005KT 10SM CLR 16/09 A3019 830 67 1100 020/05 RMK AO2
94908KDBQ DBQ20000605184509306/05/00 18:45:31  5-MIN KDBQ 060045Z 02005KT 10SM CLR 16/09 A3020 830 62 1200 020/05 RMK AO2
94908KDBQ DBQ20000605185012006/05/00 18:50:31  5-MIN KDBQ 060050Z AUTO 01005KT 10SM CLR 16/09 A3020 820 62 1200 010/05 RMK AO2 SLP228 T01610089 TSNO
94908KDBQ DBQ20000605185512006/05/00 18:55:31  5-MIN KDBQ 060055Z AUTO 01005KT 10SM CLR 16/09 A3020 830 64 1100 010/05 RMK AO2 SLP228 T01560089 TSNO
94908KDBQ DBQ20000605190010306/05/00 19:00:31  5-MIN KDBQ 060100Z AUTO 01005KT 10SM CLR 16/09 A3020 820 64 1100 010/05 RMK AO2 TSNO
94908KDBQ DBQ20000605190510306/05/00 19:05:31  5-MIN KDBQ 060105Z AUTO 36004KT 10SM CLR 15/09 A3020 820 66 1100 360/04 RMK AO2 TSNO
94908KDBQ DBQ20000605191010306/05/00 19:10:31  5-MIN KDBQ 060110Z AUTO 36004KT 10SM CLR 15/09 A3020 820 66 1100 360/04 RMK AO2 TSNO
94908KDBQ DBQ20000605191510306/05/00 19:15:31  5-MIN KDBQ 060115Z AUTO 36004KT 10SM CLR 15/09 A3020 820 66 1100 360/04 RMK AO2 TSNO
94908KDBQ DBQ20000605192010306/05/00 19:20:31  5-MIN KDBQ 060120Z AUTO 36003KT 10SM CLR 15/08 A3020 820 64 1100 360/03 RMK AO2 TSNO
94908KDBQ DBQ20000605192510306/05/00 19:25:31  5-MIN KDBQ 060125Z AUTO 35003KT 10SM CLR 15/08 A3020 820 64 1100 350/03 RMK AO2 TSNO
94908KDBQ DBQ20000605193010306/05/00 19:30:31  5-MIN KDBQ 060130Z AUTO 34003KT 10SM CLR 16/08 A3020 820 62 1100 340/03 RMK AO2 TSNO
94908KDBQ DBQ20000605193510306/05/00 19:35:31  5-MIN KDBQ 060135Z AUTO 34003KT 10SM CLR 15/08 A3020 820 64 1100 340/03 RMK AO2 TSNO
94908KDBQ DBQ20000605194010306/05/00 19:40:31  5-MIN KDBQ 060140Z AUTO 35003KT 10SM CLR 15/08 A3020 820 64 1100 350/03 RMK AO2 TSNO
94908KDBQ DBQ20000605194510306/05/00 19:45:31  5-MIN KDBQ 060145Z AUTO 35003KT 10SM CLR 15/08 A3020 820 64 1100 350/03 RMK AO2 TSNO
94908KDBQ DBQ20000605195012006/05/00 19:50:31  5-MIN KDBQ 060150Z AUTO 35003KT 10SM CLR 15/08 A3020 820 64 1000 350/03 RMK AO2 SLP230 T01500083 TSNO
94908KDBQ DBQ20000605195512006/05/00 19:55:31  5-MIN KDBQ 060155Z AUTO 34003KT 10SM CLR 14/08 A3020 820 66 1000 340/03 RMK AO2 SLP230 T01440083 TSNO
94908KDBQ DBQ20000605200010206/05/00 20:00:31  5-MIN KDBQ 060200Z AUTO 00000KT 10SM CLR 13/08 A3020 820 71 900 000/00 RMK AO2 TSNO
94908KDBQ DBQ20000605200510206/05/00 20:05:31  5-MIN KDBQ 060205Z AUTO 00000KT 10SM CLR 14/08 A3020 820 69 900 000/00 RMK AO2 TSNO
94908KDBQ DBQ20000605201010206/05/00 20:10:31  5-MIN KDBQ 060210Z AUTO 00000KT 10SM CLR 14/08 A3021 810 69 900 000/00 RMK AO2 TSNO
94908KDBQ DBQ20000605201510506/05/00 20:15:31  5-MIN KDBQ 060215Z AUTO 00000KT 10SM FEW065 13/09 A3021 810 77 800 000/00 RMK AO2 TSNO
94908KDBQ DBQ20000605202010506/05/00 20:20:31  5-MIN KDBQ 060220Z AUTO 00000KT 10SM FEW065 14/09 A3021 810 74 900 000/00 RMK AO2 TSNO
94908KDBQ DBQ20000605202510506/05/00 20:25:31  5-MIN KDBQ 060225Z AUTO 00000KT 10SM FEW065 14/09 A3021 810 71 900 000/00 RMK AO2 TSNO
94908KDBQ DBQ20000605203010506/05/00 20:30:31  5-MIN KDBQ 060230Z AUTO 00000KT 10SM FEW065 14/09 A3021 810 71 900 000/00 RMK AO2 TSNO
94908KDBQ DBQ20000605203510506/05/00 20:35:31  5-MIN KDBQ 060235Z AUTO 00000KT 10SM FEW065 14/09 A3021 810 71 900 000/00 RMK AO2 TSNO
94908KDBQ DBQ20000605204010206/05/00 20:40:31  5-MIN KDBQ 060240Z AUTO 00000KT 10SM CLR 13/09 A3021 810 77 800 000/00 RMK AO2 TSNO
94908KDBQ DBQ20000605204510206/05/00 20:45:31  5-MIN KDBQ 060245Z AUTO 00000KT 10SM CLR 13/09 A3021 810 77 800 000/00 RMK AO2 TSNO
94908KDBQ DBQ20000605205012506/05/00 20:50:31  5-MIN KDBQ 060250Z AUTO 00000KT 10SM CLR 12/09 A3021 810 83 700 000/00 RMK AO2 SLP235 T01220094 55001 TSNO
94908KDBQ DBQ20000605205512506/05/00 20:55:31  5-MIN KDBQ 060255Z AUTO 00000KT 10SM CLR 13/09 A3021 810 80 800 000/00 RMK AO2 SLP234 T01280094 53007 TSNO
94908KDBQ DBQ20000605210010206/05/00 21:00:31  5-MIN KDBQ 060300Z AUTO 00000KT 10SM CLR 13/09 A3021 810 77 800 000/00 RMK AO2 TSNO
94908KDBQ DBQ20000605210510206/05/00 21:05:31  5-MIN KDBQ 060305Z AUTO 00000KT 10SM CLR 12/09 A3021 810 83 700 000/00 RMK AO2 TSNO
94908KDBQ DBQ20000605211010206/05/00 21:10:31  5-MIN KDBQ 060310Z AUTO 00000KT 10SM CLR 12/09 A3021 810 83 700 000/00 RMK AO2 TSNO
94908KDBQ DBQ20000605211510206/05/00 21:15:31  5-MIN KDBQ 060315Z AUTO 00000KT 10SM CLR 12/09 A3021 810 83 700 000/00 RMK AO2 TSNO
94908KDBQ DBQ20000605212010206/05/00 21:20:31  5-MIN KDBQ 060320Z AUTO 00000KT 10SM CLR 12/09 A3021 810 83 700 000/00 RMK AO2 TSNO
94908KDBQ DBQ20000605212510206/05/00 21:25:31  5-MIN KDBQ 060325Z AUTO 06003KT 10SM CLR 12/09 A3021 810 83 700 060/03 RMK AO2 TSNO
94908KDBQ DBQ20000605213010206/05/00 21:30:31  5-MIN KDBQ 060330Z AUTO 07003KT 10SM CLR 12/09 A3021 820 80 700 070/03 RMK AO2 TSNO
94908KDBQ DBQ20000605213510206/05/00 21:35:31  5-MIN KDBQ 060335Z AUTO 08005KT 10SM CLR 12/09 A3021 810 80 700 080/05 RMK AO2 TSNO
94908KDBQ DBQ20000605214010206/05/00 21:40:31  5-MIN KDBQ 060340Z AUTO 07005KT 10SM CLR 12/09 A3021 810 80 700 070/05 RMK AO2 TSNO
94908KDBQ DBQ20000605214510206/05/00 21:45:31  5-MIN KDBQ 060345Z AUTO 06004KT 10SM CLR 12/09 A3021 810 80 700 060/04 RMK AO2 TSNO
94908KDBQ DBQ20000605215011906/05/00 21:50:31  5-MIN KDBQ 060350Z AUTO 06004KT 10SM CLR 12/09 A3021 810 80 700 060/04 RMK AO2 SLP234 T01220089 TSNO
94908KDBQ DBQ20000605215511906/05/00 21:55:31  5-MIN KDBQ 060355Z AUTO 06004KT 10SM CLR 13/09 A3022 810 77 800 060/04 RMK AO2 SLP234 T01280089 TSNO
94908KDBQ DBQ20000605220010506/05/00 22:00:31  5-MIN KDBQ 060400Z AUTO 06003KT 10SM FEW050 13/09 A3022 810 77 800 060/03 RMK AO2 TSNO
94908KDBQ DBQ20000605220510506/05/00 22:05:31  5-MIN KDBQ 060405Z AUTO 05004KT 10SM SCT050 13/09 A3022 810 77 800 050/04 RMK AO2 TSNO
94908KDBQ DBQ20000605221010506/05/00 22:10:31  5-MIN KDBQ 060410Z AUTO 06004KT 10SM FEW050 13/09 A3022 810 74 800 060/04 RMK AO2 TSNO
94908KDBQ DBQ20000605221510506/05/00 22:15:31  5-MIN KDBQ 060415Z AUTO 07004KT 10SM FEW050 13/09 A3022 810 77 800 070/04 RMK AO2 TSNO
94908KDBQ DBQ20000605222010506/05/00 22:20:31  5-MIN KDBQ 060420Z AUTO 07004KT 10SM FEW050 12/09 A3022 810 80 700 070/04 RMK AO2 TSNO
94908KDBQ DBQ20000605222510506/05/00 22:25:31  5-MIN KDBQ 060425Z AUTO 08004KT 10SM FEW050 12/09 A3022 810 80 700 080/04 RMK AO2 TSNO
94908KDBQ DBQ20000605223010206/05/00 22:30:31  5-MIN KDBQ 060430Z AUTO 08004KT 10SM CLR 12/09 A3022 810 83 600 080/04 RMK AO2 TSNO
94908KDBQ DBQ20000605223510206/05/00 22:35:31  5-MIN KDBQ 060435Z AUTO 08005KT 10SM CLR 11/08 A3022 810 83 600 080/05 RMK AO2 TSNO
94908KDBQ DBQ20000605224010206/05/00 22:40:31  5-MIN KDBQ 060440Z AUTO 09006KT 10SM CLR 12/08 A3022 800 80 600 090/06 RMK AO2 TSNO
94908KDBQ DBQ20000605224510206/05/00 22:45:31  5-MIN KDBQ 060445Z AUTO 09004KT 10SM CLR 11/08 A3022 800 83 600 090/04 RMK AO2 TSNO
94908KDBQ DBQ20000605225011906/05/00 22:50:31  5-MIN KDBQ 060450Z AUTO 09003KT 10SM CLR 11/08 A3022 800 80 600 090/03 RMK AO2 SLP237 T01110078 TSNO
94908KDBQ DBQ20000605225511906/05/00 22:55:31  5-MIN KDBQ 060455Z AUTO 08003KT 10SM CLR 12/08 A3022 800 77 600 080/03 RMK AO2 SLP236 T01170078 TSNO
94908KDBQ DBQ20000605230010206/05/00 23:00:31  5-MIN KDBQ 060500Z AUTO 09003KT 10SM CLR 12/08 A3022 800 77 600 080/03 RMK AO2 TSNO
94908KDBQ DBQ20000605230510206/05/00 23:05:31  5-MIN KDBQ 060505Z AUTO 09003KT 10SM CLR 12/08 A3022 800 77 600 090/03 RMK AO2 TSNO
94908KDBQ DBQ20000605231010206/05/00 23:10:31  5-MIN KDBQ 060510Z AUTO 09003KT 10SM CLR 11/08 A3022 800 80 600 090/03 RMK AO2 TSNO
94908KDBQ DBQ20000605231510206/05/00 23:15:31  5-MIN KDBQ 060515Z AUTO 00000KT 10SM CLR 11/08 A3022 800 86 500 000/00 RMK AO2 TSNO
94908KDBQ DBQ20000605232010206/05/00 23:20:31  5-MIN KDBQ 060520Z AUTO 00000KT 10SM CLR 11/08 A3022 800 86 500 000/00 RMK AO2 TSNO
94908KDBQ DBQ20000605232510206/05/00 23:25:31  5-MIN KDBQ 060525Z AUTO 00000KT 10SM CLR 11/08 A3023 800 80 600 000/00 RMK AO2 TSNO
94908KDBQ DBQ20000605233010206/05/00 23:30:31  5-MIN KDBQ 060530Z AUTO 00000KT 10SM CLR 11/08 A3023 800 80 600 000/00 RMK AO2 TSNO
94908KDBQ DBQ20000605233510206/05/00 23:35:31  5-MIN KDBQ 060535Z AUTO 00000KT 10SM CLR 11/08 A3023 790 83 500 000/00 RMK AO2 TSNO
94908KDBQ DBQ20000605234010206/05/00 23:40:31  5-MIN KDBQ 060540Z AUTO 00000KT 10SM CLR 10/08 A3023 790 89 400 000/00 RMK AO2 TSNO
94908KDBQ DBQ20000605234510206/05/00 23:45:31  5-MIN KDBQ 060545Z AUTO 00000KT 10SM CLR 10/08 A3023 790 86 400 000/00 RMK AO2 TSNO
94908KDBQ DBQ20000605235014706/05/00 23:50:31  5-MIN KDBQ 060550Z AUTO 00000KT 10SM CLR 11/07 A3023 790 77 600 000/00 RMK AO2 SLP241 T01110072 10178 20100 401890089 53007 TSNO
94908KDBQ DBQ20000605235514706/05/00 23:55:31  5-MIN KDBQ 060555Z AUTO 00000KT 10SM CLR 11/07 A3023 790 74 600 000/00 RMK AO2 SLP241 T01110067 10178 20100 401890089 53007 TSNO
94908KDBQ DBQ20000606000010206/06/00 00:00:31  5-MIN KDBQ 060600Z AUTO 00000KT 10SM CLR 10/07 A3023 790 80 400 000/00 RMK AO2 TSNO
94908KDBQ DBQ20000606000510206/06/00 00:05:31  5-MIN KDBQ 060605Z AUTO 00000KT 10SM CLR 10/07 A3023 790 83 400 000/00 RMK AO2 TSNO
94908KDBQ DBQ20000606001010206/06/00 00:10:31  5-MIN KDBQ 060610Z AUTO 00000KT 10SM CLR 10/08 A3023 790 86 400 000/00 RMK AO2 TSNO
94908KDBQ DBQ20000606001510206/06/00 00:15:31  5-MIN KDBQ 060615Z AUTO 00000KT 10SM CLR 09/08 A3023 790 89 400 000/00 RMK AO2 TSNO
94908KDBQ DBQ20000606002010206/06/00 00:20:31  5-MIN KDBQ 060620Z AUTO 00000KT 10SM CLR 10/08 A3023 790 86 400 000/00 RMK AO2 TSNO
94908KDBQ DBQ20000606002510206/06/00 00:25:31  5-MIN KDBQ 060625Z AUTO 00000KT 10SM CLR 10/07 A3023 790 83 400 000/00 RMK AO2 TSNO
94908KDBQ DBQ20000606003010206/06/00 00:30:31  5-MIN KDBQ 060630Z AUTO 00000KT 10SM CLR 10/07 A3023 790 83 400 000/00 RMK AO2 TSNO
94908KDBQ DBQ20000606003510206/06/00 00:35:31  5-MIN KDBQ 060635Z AUTO 00000KT 10SM CLR 09/07 A3024 790 86 400 000/00 RMK AO2 TSNO
94908KDBQ DBQ20000606004010206/06/00 00:40:31  5-MIN KDBQ 060640Z AUTO 00000KT 10SM CLR 09/08 A3024 790 89 300 000/00 RMK AO2 TSNO
94908KDBQ DBQ20000606004510206/06/00 00:45:31  5-MIN KDBQ 060645Z AUTO 00000KT 10SM CLR 09/08 A3024 790 89 300 000/00 RMK AO2 TSNO
94908KDBQ DBQ20000606005011906/06/00 00:50:31  5-MIN KDBQ 060650Z AUTO 23003KT 10SM CLR 09/08 A3024 790 93 300 230/03 RMK AO2 SLP242 T00890078 TSNO
94908KDBQ DBQ20000606005511906/06/00 00:55:31  5-MIN KDBQ 060655Z AUTO 22003KT 10SM CLR 09/08 A3024 790 93 300 220/03 RMK AO2 SLP242 T00890078 TSNO
94908KDBQ DBQ20000606010010206/06/00 01:00:31  5-MIN KDBQ 060700Z AUTO 23003KT 10SM CLR 09/08 A3024 780 93 300 230/03 RMK AO2 TSNO
94908KDBQ DBQ20000606010510206/06/00 01:05:31  5-MIN KDBQ 060705Z AUTO 23003KT 10SM CLR 09/07 A3024 780 89 300 220/03 RMK AO2 TSNO
94908KDBQ DBQ20000606011010206/06/00 01:10:31  5-MIN KDBQ 060710Z AUTO 00000KT 10SM CLR 08/07 A3024 780 93 200 000/00 RMK AO2 TSNO
94908KDBQ DBQ20000606011510206/06/00 01:15:31  5-MIN KDBQ 060715Z AUTO 00000KT 10SM CLR 09/07 A3024 780 89 300 000/00 RMK AO2 TSNO
94908KDBQ DBQ20000606012010206/06/00 01:20:31  5-MIN KDBQ 060720Z AUTO 00000KT 10SM CLR 09/07 A3024 780 89 300 000/00 RMK AO2 TSNO
94908KDBQ DBQ20000606012510206/06/00 01:25:31  5-MIN KDBQ 060725Z AUTO 00000KT 10SM CLR 09/07 A3024 780 89 300 000/00 RMK AO2 TSNO
94908KDBQ DBQ20000606013010206/06/00 01:30:31  5-MIN KDBQ 060730Z AUTO 00000KT 10SM CLR 09/07 A3024 780 86 300 000/00 RMK AO2 TSNO
94908KDBQ DBQ20000606013510206/06/00 01:35:31  5-MIN KDBQ 060735Z AUTO 00000KT 10SM CLR 09/07 A3024 780 89 300 000/00 RMK AO2 TSNO
94908KDBQ DBQ20000606014010206/06/00 01:40:31  5-MIN KDBQ 060740Z AUTO 00000KT 10SM CLR 09/07 A3024 780 89 300 000/00 RMK AO2 TSNO
94908KDBQ DBQ20000606014510206/06/00 01:45:31  5-MIN KDBQ 060745Z AUTO 00000KT 10SM CLR 09/07 A3024 780 89 300 000/00 RMK AO2 TSNO
94908KDBQ DBQ20000606015011906/06/00 01:50:31  5-MIN KDBQ 060750Z AUTO 00000KT 10SM CLR 09/07 A3024 780 89 300 000/00 RMK AO2 SLP244 T00890072 TSNO
94908KDBQ DBQ20000606015511906/06/00 01:55:31  5-MIN KDBQ 060755Z AUTO 00000KT 10SM CLR 09/07 A3024 780 89 300 000/00 RMK AO2 SLP243 T00890072 TSNO
94908KDBQ DBQ20000606020010206/06/00 02:00:31  5-MIN KDBQ 060800Z AUTO 00000KT 10SM CLR 09/07 A3025 780 83 300 000/00 RMK AO2 TSNO
94908KDBQ DBQ20000606020510206/06/00 02:05:31  5-MIN KDBQ 060805Z AUTO 00000KT 10SM CLR 09/07 A3025 780 83 300 000/00 RMK AO2 TSNO
94908KDBQ DBQ20000606021010206/06/00 02:10:31  5-MIN KDBQ 060810Z AUTO 00000KT 10SM CLR 09/07 A3025 780 83 300 000/00 RMK AO2 TSNO
94908KDBQ DBQ20000606021510206/06/00 02:15:31  5-MIN KDBQ 060815Z AUTO 00000KT 10SM CLR 09/07 A3025 780 83 300 000/00 RMK AO2 TSNO
94908KDBQ DBQ20000606022010206/06/00 02:20:31  5-MIN KDBQ 060820Z AUTO 00000KT 10SM CLR 09/07 A3025 780 83 300 000/00 RMK AO2 TSNO
94908KDBQ DBQ20000606022510206/06/00 02:25:31  5-MIN KDBQ 060825Z AUTO 00000KT 10SM CLR 09/07 A3025 780 83 300 000/00 RMK AO2 TSNO
94908KDBQ DBQ20000606023010206/06/00 02:30:31  5-MIN KDBQ 060830Z AUTO 00000KT 10SM CLR 09/07 A3025 780 86 300 000/00 RMK AO2 TSNO
94908KDBQ DBQ20000606023510206/06/00 02:35:31  5-MIN KDBQ 060835Z AUTO 24003KT 10SM CLR 09/07 A3025 780 86 300 240/03 RMK AO2 TSNO
94908KDBQ DBQ20000606024010206/06/00 02:40:31  5-MIN KDBQ 060840Z AUTO 00000KT 10SM CLR 09/07 A3025 780 86 300 000/00 RMK AO2 TSNO
94908KDBQ DBQ20000606024510206/06/00 02:45:31  5-MIN KDBQ 060845Z AUTO 00000KT 10SM CLR 09/07 A3025 780 86 300 000/00 RMK AO2 TSNO
94908KDBQ DBQ20000606025012506/06/00 02:50:31  5-MIN KDBQ 060850Z AUTO 00000KT 10SM CLR 09/06 A3025 780 83 300 000/00 RMK AO2 SLP244 T00890061 53007 TSNO
94908KDBQ DBQ20000606025512506/06/00 02:55:31  5-MIN KDBQ 060855Z AUTO 00000KT 10SM CLR 09/07 A3025 780 83 300 000/00 RMK AO2 SLP244 T00940067 51004 TSNO
94908KDBQ DBQ20000606030010206/06/00 03:00:31  5-MIN KDBQ 060900Z AUTO 00000KT 10SM CLR 10/07 A3025 780 80 400 000/00 RMK AO2 TSNO
94908KDBQ DBQ20000606030510206/06/00 03:05:31  5-MIN KDBQ 060905Z AUTO 00000KT 10SM CLR 10/07 A3025 780 80 400 000/00 RMK AO2 TSNO
94908KDBQ DBQ20000606031010206/06/00 03:10:31  5-MIN KDBQ 060910Z AUTO 22003KT 10SM CLR 10/07 A3025 770 80 400 220/03 RMK AO2 TSNO
94908KDBQ DBQ20000606031510206/06/00 03:15:31  5-MIN KDBQ 060915Z AUTO 22003KT 10SM CLR 09/07 A3025 770 83 300 220/03 RMK AO2 TSNO
94908KDBQ DBQ20000606032010206/06/00 03:20:31  5-MIN KDBQ 060920Z AUTO 24003KT 10SM CLR 09/07 A3025 770 83 300 230/03 RMK AO2 TSNO
94908KDBQ DBQ20000606032510206/06/00 03:25:31  5-MIN KDBQ 060925Z AUTO 24003KT 10SM CLR 09/07 A3025 770 83 300 240/03 RMK AO2 TSNO
94908KDBQ DBQ20000606033010206/06/00 03:30:31  5-MIN KDBQ 060930Z AUTO 23003KT 10SM CLR 09/06 A3026 770 79 300 220/03 RMK AO2 TSNO
94908KDBQ DBQ20000606033510206/06/00 03:35:31  5-MIN KDBQ 060935Z AUTO 23003KT 10SM CLR 09/06 A3026 770 79 300 230/03 RMK AO2 TSNO
94908KDBQ DBQ20000606034010206/06/00 03:40:31  5-MIN KDBQ 060940Z AUTO 23003KT 10SM CLR 09/06 A3026 770 79 300 230/03 RMK AO2 TSNO
94908KDBQ DBQ20000606034510206/06/00 03:45:31  5-MIN KDBQ 060945Z AUTO 24004KT 10SM CLR 09/06 A3026 760 79 300 240/04 RMK AO2 TSNO
94908KDBQ DBQ20000606035011906/06/00 03:50:31  5-MIN KDBQ 060950Z AUTO 24004KT 10SM CLR 09/06 A3026 760 79 300 240/04 RMK AO2 SLP249 T00940061 TSNO
94908KDBQ DBQ20000606035511906/06/00 03:55:31  5-MIN KDBQ 060955Z AUTO 24005KT 10SM CLR 09/06 A3026 760 79 300 240/05 RMK AO2 SLP250 T00940061 TSNO
94908KDBQ DBQ20000606040010206/06/00 04:00:31  5-MIN KDBQ 061000Z AUTO 24004KT 10SM CLR 09/06 A3027 760 76 300 240/04 RMK AO2 TSNO
94908KDBQ DBQ20000606040510206/06/00 04:05:31  5-MIN KDBQ 061005Z AUTO 24004KT 10SM CLR 09/06 A3027 760 76 300 240/04 RMK AO2 TSNO
94908KDBQ DBQ20000606041010206/06/00 04:10:31  5-MIN KDBQ 061010Z AUTO 23004KT 10SM CLR 09/06 A3027 760 76 300 230/04 RMK AO2 TSNO
94908KDBQ DBQ20000606041510206/06/00 04:15:31  5-MIN KDBQ 061015Z AUTO 23004KT 10SM CLR 09/06 A3027 760 76 300 230/04 RMK AO2 TSNO
94908KDBQ DBQ20000606042010206/06/00 04:20:31  5-MIN KDBQ 061020Z AUTO 24004KT 10SM CLR 09/06 A3027 760 76 300 240/04 RMK AO2 TSNO
94908KDBQ DBQ20000606042510206/06/00 04:25:31  5-MIN KDBQ 061025Z AUTO 24004KT 10SM CLR 10/05 A3027 750 71 400 240/04 RMK AO2 TSNO
94908KDBQ DBQ20000606043010206/06/00 04:30:31  5-MIN KDBQ 061030Z AUTO 23003KT 10SM CLR 10/05 A3027 750 71 400 230/03 RMK AO2 TSNO
94908KDBQ DBQ20000606043510206/06/00 04:35:31  5-MIN KDBQ 061035Z AUTO 24004KT 10SM CLR 10/05 A3027 750 71 400 240/04 RMK AO2 TSNO
94908KDBQ DBQ20000606044010206/06/00 04:40:31  5-MIN KDBQ 061040Z AUTO 23004KT 10SM CLR 10/05 A3028 750 71 400 230/04 RMK AO2 TSNO
94908KDBQ DBQ20000606044509206/06/00 04:45:31  5-MIN KDBQ 061045Z 24004KT 10SM CLR 10/05 A3028 750 71 400 240/04 RMK AO2
94908KDBQ DBQ20000606045010906/06/00 04:50:31  5-MIN KDBQ 061050Z 24003KT 10SM CLR 10/05 A3028 750 71 400 240/03 RMK AO2 SLP255 T01000050
94908KDBQ DBQ20000606045510906/06/00 04:55:31  5-MIN KDBQ 061055Z 23004KT 10SM CLR 10/05 A3028 750 71 400 230/04 RMK AO2 SLP255 T01000050
94908KDBQ DBQ20000606050009206/06/00 05:00:31  5-MIN KDBQ 061100Z VRB03KT 10SM CLR 10/05 A3028 740 71 400 VRB/03 RMK AO2
94908KDBQ DBQ20000606050509206/06/00 05:05:31  5-MIN KDBQ 061105Z 22003KT 10SM CLR 10/06 A3028 740 74 400 220/03 RMK AO2
94908KDBQ DBQ20000606051009206/06/00 05:10:31  5-MIN KDBQ 061110Z 00000KT 10SM CLR 10/06 A3029 740 74 400 000/00 RMK AO2
94908KDBQ DBQ20000606051509206/06/00 05:15:31  5-MIN KDBQ 061115Z 00000KT 10SM CLR 10/06 A3029 740 74 400 000/00 RMK AO2
94908KDBQ DBQ20000606052009206/06/00 05:20:31  5-MIN KDBQ 061120Z 00000KT 10SM CLR 10/06 A3029 740 77 400 000/00 RMK AO2
94908KDBQ DBQ20000606052509206/06/00 05:25:31  5-MIN KDBQ 061125Z VRB04KT 10SM CLR 11/07 A3029 740 77 400 VRB/04 RMK AO2
94908KDBQ DBQ20000606053009206/06/00 05:30:31  5-MIN KDBQ 061130Z 27006KT 10SM CLR 11/07 A3029 740 74 500 270/06 RMK AO2
94908KDBQ DBQ20000606053509206/06/00 05:35:31  5-MIN KDBQ 061135Z 27007KT 10SM CLR 12/07 A3029 740 71 600 270/07 RMK AO2
94908KDBQ DBQ20000606054009206/06/00 05:40:31  5-MIN KDBQ 061140Z 27007KT 10SM CLR 12/07 A3029 740 71 600 270/07 RMK AO2
94908KDBQ DBQ20000606054509206/06/00 05:45:31  5-MIN KDBQ 061145Z 28007KT 10SM CLR 12/07 A3029 740 71 600 280/07 RMK AO2
94908KDBQ DBQ20000606055012706/06/00 05:50:31  5-MIN KDBQ 061150Z 28008KT 10SM CLR 12/07 A3029 730 71 600 280/08 RMK AO2 SLP259 T01220072 10122 20083 51004
94908KDBQ DBQ20000606055512706/06/00 05:55:31  5-MIN KDBQ 061155Z 28008KT 10SM CLR 12/07 A3030 730 71 600 280/08 RMK AO2 SLP260 T01220072 10122 20083 51016
94908KDBQ DBQ20000606060009206/06/00 06:00:31  5-MIN KDBQ 061200Z 28009KT 10SM CLR 13/07 A3029 740 69 700 280/09 RMK AO2
94908KDBQ DBQ20000606060509206/06/00 06:05:31  5-MIN KDBQ 061205Z 28008KT 10SM CLR 13/07 A3030 730 69 700 280/08 RMK AO2
94908KDBQ DBQ20000606061009206/06/00 06:10:31  5-MIN KDBQ 061210Z 28008KT 10SM CLR 13/08 A3030 730 71 700 280/08 RMK AO2
94908KDBQ DBQ20000606061509206/06/00 06:15:31  5-MIN KDBQ 061215Z 28008KT 10SM CLR 13/07 A3030 730 66 700 280/08 RMK AO2
94908KDBQ DBQ20000606062009206/06/00 06:20:31  5-MIN KDBQ 061220Z 28008KT 10SM CLR 13/08 A3030 730 69 700 280/08 RMK AO2
94908KDBQ DBQ20000606062509206/06/00 06:25:31  5-MIN KDBQ 061225Z 28007KT 10SM CLR 14/08 A3030 730 66 800 270/07 RMK AO2
94908KDBQ DBQ20000606063009206/06/00 06:30:31  5-MIN KDBQ 061230Z 28007KT 10SM CLR 14/08 A3030 730 69 800 270/07 RMK AO2
94908KDBQ DBQ20000606063509206/06/00 06:35:31  5-MIN KDBQ 061235Z 28006KT 10SM CLR 14/08 A3030 730 66 900 270/06 RMK AO2
94908KDBQ DBQ20000606064009206/06/00 06:40:31  5-MIN KDBQ 061240Z 28006KT 10SM CLR 14/09 A3030 730 69 900 280/06 RMK AO2
94908KDBQ DBQ20000606064509206/06/00 06:45:31  5-MIN KDBQ 061245Z 28006KT 10SM CLR 15/09 A3030 730 66 900 280/06 RMK AO2
94908KDBQ DBQ20000606065010906/06/00 06:50:31  5-MIN KDBQ 061250Z 28005KT 10SM CLR 15/09 A3030 730 69 900 280/05 RMK AO2 SLP260 T01500094
94908KDBQ DBQ20000606065510906/06/00 06:55:31  5-MIN KDBQ 061255Z 29008KT 10SM CLR 15/08 A3030 730 64 900 290/08 RMK AO2 SLP260 T01500083
94908KDBQ DBQ20000606070009306/06/00 07:00:31  5-MIN KDBQ 061300Z 29008KT 10SM CLR 16/09 A3030 730 64 1000 290/08 RMK AO2
94908KDBQ DBQ20000606070509306/06/00 07:05:31  5-MIN KDBQ 061305Z 29008KT 10SM CLR 16/09 A3030 730 64 1000 290/08 RMK AO2
94908KDBQ DBQ20000606071009306/06/00 07:10:31  5-MIN KDBQ 061310Z 29008KT 10SM CLR 16/08 A3030 730 62 1000 290/08 RMK AO2
94908KDBQ DBQ20000606071509306/06/00 07:15:31  5-MIN KDBQ 061315Z 29007KT 10SM CLR 16/09 A3030 730 64 1000 290/07 RMK AO2
94908KDBQ DBQ20000606072009306/06/00 07:20:31  5-MIN KDBQ 061320Z 28008KT 10SM CLR 16/09 A3030 720 62 1100 280/08 RMK AO2
94908KDBQ DBQ20000606072509306/06/00 07:25:31  5-MIN KDBQ 061325Z 29008KT 10SM CLR 16/09 A3031 720 62 1100 290/08 RMK AO2
94908KDBQ DBQ20000606073009306/06/00 07:30:31  5-MIN KDBQ 061330Z 29009KT 10SM CLR 16/09 A3031 720 62 1100 290/09 RMK AO2
94908KDBQ DBQ20000606073509306/06/00 07:35:31  5-MIN KDBQ 061335Z 29009KT 10SM CLR 17/09 A3031 720 60 1100 290/09 RMK AO2
94908KDBQ DBQ20000606074009306/06/00 07:40:31  5-MIN KDBQ 061340Z 29008KT 10SM CLR 17/09 A3031 720 60 1100 280/08 RMK AO2
94908KDBQ DBQ20000606074509306/06/00 07:45:31  5-MIN KDBQ 061345Z 29010KT 10SM CLR 17/09 A3031 720 60 1100 290/10 RMK AO2
94908KDBQ DBQ20000606075016506/06/00 07:50:31  5-MIN KDBQ 061350Z 28009KT 10SM CLR 17/09 A3031 720 60 1100 280/09 RMK AO2 SLP264 T01670089 06/06/0031 720 60 1100 270/09 RMK AO2 SLP264 T01670089
94908KDBQ DBQ20000606080009306/06/00 08:00:31  5-MIN KDBQ 061400Z 29007KT 10SM CLR 17/09 A3031 720 60 1200 290/07 RMK AO2
94908KDBQ DBQ20000606080509306/06/00 08:05:31  5-MIN KDBQ 061405Z 28007KT 10SM CLR 17/09 A3031 720 60 1200 280/07 RMK AO2
94908KDBQ DBQ20000606082509306/06/00 08:25:31  5-MIN KDBQ 061425Z 29007KT 10SM CLR 18/09 A3031 720 55 1200 290/07 RMK AO2
94908KDBQ DBQ20000606083007706/06/00 08:30:31  5-MIN KDBQ 061430Z 29006KT 10SM CLR 15 1300 290/06 RMK AO2
94908KDBQ DBQ20000606083509306/06/00 08:35:31  5-MIN KDBQ 061435Z 30006KT 10SM CLR 18/08 A3031 720 53 1200 300/06 RMK AO2
94908KDBQ DBQ20000606084009306/06/00 08:40:31  5-MIN KDBQ 061440Z 29005KT 10SM CLR 18/09 A3031 720 55 1300 290/05 RMK AO2
94908KDBQ DBQ20000606084509306/06/00 08:45:31  5-MIN KDBQ 061445Z 27006KT 10SM CLR 18/08 A3031 720 53 1300 270/06 RMK AO2
94908KDBQ DBQ20000606085011606/06/00 08:50:31  5-MIN KDBQ 061450Z 29006KT 10SM CLR 18/08 A3031 720 52 1300 280/06 RMK AO2 SLP264 T01830083 51016
94908KDBQ DBQ20000606085511606/06/00 08:55:31  5-MIN KDBQ 061455Z 29006KT 10SM CLR 18/08 A3031 720 53 1200 290/06 RMK AO2 SLP265 T01780083 51006
94908KDBQ DBQ20000606090009306/06/00 09:00:31  5-MIN KDBQ 061500Z 29006KT 10SM CLR 18/08 A3031 720 52 1300 290/06 RMK AO2
94908KDBQ DBQ20000606090509306/06/00 09:05:31  5-MIN KDBQ 061505Z 28005KT 10SM CLR 18/08 A3031 720 52 1300 280/05 RMK AO2
94908KDBQ DBQ20000606091009306/06/00 09:10:31  5-MIN KDBQ 061510Z 00000KT 10SM CLR 18/07 A3031 720 48 1300 000/00 RMK AO2
94908KDBQ DBQ20000606091509306/06/00 09:15:31  5-MIN KDBQ 061515Z 28007KT 10SM CLR 18/09 A3031 720 56 1300 280/07 RMK AO2
94908KDBQ DBQ20000606092009306/06/00 09:20:31  5-MIN KDBQ 061520Z 30005KT 10SM CLR 18/09 A3031 720 55 1300 300/05 RMK AO2
94908KDBQ DBQ20000606092509306/06/00 09:25:31  5-MIN KDBQ 061525Z 28005KT 10SM CLR 18/09 A3031 720 55 1200 280/05 RMK AO2
94908KDBQ DBQ20000606093009306/06/00 09:30:31  5-MIN KDBQ 061530Z 28006KT 10SM CLR 19/09 A3031 720 52 1400 270/06 RMK AO2
94908KDBQ DBQ20000606093509306/06/00 09:35:31  5-MIN KDBQ 061535Z 30005KT 10SM CLR 19/09 A3031 720 52 1400 300/05 RMK AO2
94908KDBQ DBQ20000606094009306/06/00 09:40:31  5-MIN KDBQ 061540Z 28007KT 10SM CLR 19/09 A3032 720 52 1400 280/07 RMK AO2
94908KDBQ DBQ20000606094509306/06/00 09:45:31  5-MIN KDBQ 061545Z 28004KT 10SM CLR 19/09 A3032 710 52 1400 270/04 RMK AO2
94908KDBQ DBQ20000606095011306/06/00 09:50:31  5-MIN KDBQ 061550Z VRB03KT 10SM FEW045 18/08 A3031 720 52 1300 VRB/03 RMK AO2 SLP265 T01830083
94908KDBQ DBQ20000606095511306/06/00 09:55:31  5-MIN KDBQ 061555Z 28005KT 10SM FEW045 19/09 A3032 710 54 1400 280/05 RMK AO2 SLP266 T01890094
94908KDBQ DBQ20000606100009306/06/00 10:00:31  5-MIN KDBQ 061600Z 29007KT 10SM CLR 19/09 A3032 710 52 1400 290/07 RMK AO2
94908KDBQ DBQ20000606100509306/06/00 10:05:31  5-MIN KDBQ 061605Z VRB05KT 10SM CLR 19/08 A3032 710 50 1400 VRB/05 RMK AO2
94908KDBQ DBQ20000606101008306/06/00 10:10:31  5-MIN KDBQ 061610Z 10SM CLR 19/08 A3031 720 48 1400 M /M RMK AO2
94908KDBQ DBQ20000606101507606/06/00 10:15:31  5-MIN KDBQ 061615Z 19/08 A3031 720 48 1400 M /M RMK AO2 $
94908KDBQ DBQ20000606102008606/06/00 10:20:31  5-MIN KDBQ 061620Z 25004KT 19/09 A3031 720 52 1400 250/04 RMK AO2 $
94908KDBQ DBQ20000606102509106/06/00 10:25:31  5-MIN KDBQ 061625Z VRB03KT 10SM 19/09 A3031 720 52 1400 VRB/03 RMK AO2 $
94908KDBQ DBQ20000606103009106/06/00 10:30:31  5-MIN KDBQ 061630Z 26004KT 10SM 19/08 A3030 730 48 1500 260/04 RMK AO2 $
94908KDBQ DBQ20000606103509106/06/00 10:35:31  5-MIN KDBQ 061635Z VRB05KT 10SM 19/08 A3030 730 50 1400 VRB/05 RMK AO2 $
94908KDBQ DBQ20000606104009106/06/00 10:40:31  5-MIN KDBQ 061640Z 21003KT 10SM 19/08 A3030 730 48 1400 210/03 RMK AO2 $
94908KDBQ DBQ20000606104509806/06/00 10:45:31  5-MIN KDBQ 061645Z 19004KT 10SM SCT050 19/08 A3030 730 48 1500 190/04 RMK AO2 $
94908KDBQ DBQ20000606105011506/06/00 10:50:31  5-MIN KDBQ 061650Z VRB05KT 10SM SCT050 19/09 A3030 730 50 1500 VRB/05 RMK AO2 SLP262 T01940089 $
94908KDBQ DBQ20000606105511506/06/00 10:55:31  5-MIN KDBQ 061655Z 29006KT 10SM BKN050 20/09 A3030 730 48 1500 290/06 RMK AO2 SLP262 T02000089 $
94908KDBQ DBQ20000606110009806/06/00 11:00:31  5-MIN KDBQ 061700Z 29005KT 10SM BKN050 20/10 A3030 730 52 1500 290/05 RMK AO2 $
94908KDBQ DBQ20000606110509806/06/00 11:05:31  5-MIN KDBQ 061705Z 29005KT 10SM BKN050 19/09 A3030 730 52 1500 280/05 RMK AO2 $
94908KDBQ DBQ20000606111009806/06/00 11:10:31  5-MIN KDBQ 061710Z 23005KT 10SM BKN050 19/09 A3030 730 50 1500 230/05 RMK AO2 $
94908KDBQ DBQ20000606111509806/06/00 11:15:31  5-MIN KDBQ 061715Z 00000KT 10SM BKN050 19/08 A3029 730 46 1500 000/00 RMK AO2 $
94908KDBQ DBQ20000606112009806/06/00 11:20:31  5-MIN KDBQ 061720Z 00000KT 10SM SCT050 19/08 A3029 730 48 1500 000/00 RMK AO2 $
94908KDBQ DBQ20000606112509806/06/00 11:25:31  5-MIN KDBQ 061725Z 20005KT 10SM SCT050 19/08 A3029 740 46 1500 200/05 RMK AO2 $
94908KDBQ DBQ20000606113009806/06/00 11:30:31  5-MIN KDBQ 061730Z 00000KT 10SM FEW050 19/08 A3029 740 48 1500 000/00 RMK AO2 $
94908KDBQ DBQ20000606113509506/06/00 11:35:31  5-MIN KDBQ 061735Z 11003KT 10SM CLR 19/08 A3029 740 48 1500 110/03 RMK AO2 $
94908KDBQ DBQ20000606114009506/06/00 11:40:31  5-MIN KDBQ 061740Z 25005KT 10SM CLR 19/08 A3029 740 48 1500 240/05 RMK AO2 $
94908KDBQ DBQ20000606114509506/06/00 11:45:31  5-MIN KDBQ 061745Z 23005KT 10SM CLR 19/08 A3029 740 48 1500 230/05 RMK AO2 $
94908KDBQ DBQ20000606115013906/06/00 11:50:31  5-MIN KDBQ 061750Z 18004KT 10SM SCT050 20/09 A3029 740 50 1500 180/04 RMK AO2 SLP258 6//// T02000094 10200 20122 51006 $
94908KDBQ DBQ20000606115513706/06/00 11:55:31  5-MIN KDBQ 061755Z 24007KT 10SM SCT050 20/09 A3029 740 50 1500 230/07 RMK AO2 SLP257 6//// T02000094 10200 20122 58007
94908KDBQ DBQ20000606120009606/06/00 12:00:31  5-MIN KDBQ 061800Z 18005KT 10SM SCT050 20/09 A3029 740 48 1500 180/05 RMK AO2
94908KDBQ DBQ20000606120509606/06/00 12:05:31  5-MIN KDBQ 061805Z VRB05KT 10SM FEW050 20/09 A3029 740 48 1500 VRB/05 RMK AO2
94908KDBQ DBQ20000606121009606/06/00 12:10:31  5-MIN KDBQ 061810Z 29006KT 10SM FEW050 20/09 A3029 740 48 1500 290/06 RMK AO2
94908KDBQ DBQ20000606121509606/06/00 12:15:31  5-MIN KDBQ 061815Z 31004KT 10SM FEW050 20/08 A3028 740 46 1500 310/04 RMK AO2
94908KDBQ DBQ20000606122009606/06/00 12:20:31  5-MIN KDBQ 061820Z VRB06KT 10SM FEW050 20/09 A3028 740 48 1500 VRB/06 RMK AO2
94908KDBQ DBQ20000606122509306/06/00 12:25:31  5-MIN KDBQ 061825Z VRB05KT 10SM CLR 20/09 A3028 740 48 1500 VRB/05 RMK AO2
94908KDBQ DBQ20000606123009606/06/00 12:30:31  5-MIN KDBQ 061830Z VRB03KT 10SM FEW050 20/08 A3028 740 46 1500 VRB/03 RMK AO2
94908KDBQ DBQ20000606123509606/06/00 12:35:31  5-MIN KDBQ 061835Z 00000KT 10SM FEW050 21/09 A3028 750 48 1600 000/00 RMK AO2
94908KDBQ DBQ20000606124009606/06/00 12:40:31  5-MIN KDBQ 061840Z VRB05KT 10SM FEW050 20/08 A3028 750 46 1500 VRB/05 RMK AO2
94908KDBQ DBQ20000606124509606/06/00 12:45:31  5-MIN KDBQ 061845Z 17006KT 10SM FEW050 21/09 A3028 750 48 1600 170/06 RMK AO2
94908KDBQ DBQ20000606125011306/06/00 12:50:31  5-MIN KDBQ 061850Z 26006KT 10SM FEW050 21/09 A3028 750 46 1600 260/06 RMK AO2 SLP253 T02060089
94908KDBQ DBQ20000606125511306/06/00 12:55:31  5-MIN KDBQ 061855Z 24007KT 10SM FEW050 21/09 A3028 750 48 1600 240/07 RMK AO2 SLP253 T02060094
94908KDBQ DBQ20000606130009306/06/00 13:00:31  5-MIN KDBQ 061900Z 24008KT 10SM CLR 21/10 A3028 750 50 1600 230/08 RMK AO2
94908KDBQ DBQ20000606130509306/06/00 13:05:31  5-MIN KDBQ 061905Z 24006KT 10SM CLR 21/10 A3028 750 50 1600 240/06 RMK AO2
94908KDBQ DBQ20000606131009306/06/00 13:10:31  5-MIN KDBQ 061910Z 21006KT 10SM CLR 20/08 A3027 750 46 1600 210/06 RMK AO2
94908KDBQ DBQ20000606131509306/06/00 13:15:31  5-MIN KDBQ 061915Z 15003KT 10SM CLR 21/08 A3027 760 45 1600 150/03 RMK AO2
94908KDBQ DBQ20000606132009306/06/00 13:20:31  5-MIN KDBQ 061920Z 22006KT 10SM CLR 20/08 A3027 760 46 1600 220/06 RMK AO2
94908KDBQ DBQ20000606132509306/06/00 13:25:31  5-MIN KDBQ 061925Z 20005KT 10SM CLR 21/09 A3027 760 46 1600 200/05 RMK AO2
94908KDBQ DBQ20000606133009306/06/00 13:30:31  5-MIN KDBQ 061930Z 00000KT 10SM CLR 21/09 A3027 760 48 1600 000/00 RMK AO2
94908KDBQ DBQ20000606133509306/06/00 13:35:31  5-MIN KDBQ 061935Z 28004KT 10SM CLR 21/09 A3027 760 47 1700 280/04 RMK AO2
94908KDBQ DBQ20000606134009606/06/00 13:40:31  5-MIN KDBQ 061940Z 21009KT 10SM FEW050 21/10 A3027 760 48 1700 210/09 RMK AO2
94908KDBQ DBQ20000606134507606/06/00 13:45:31  5-MIN KDBQ 061945Z 21/11 A3026 760 50 1700 M /M RMK AO2 $
94908KDBQ DBQ20000606135009306/06/00 13:50:31  5-MIN KDBQ 061950Z 21/11 A3026 760 50 1700 M /M RMK AO2 SLP249 T02110106 $
94908KDBQ DBQ20000606135509106/06/00 13:55:31  5-MIN KDBQ 061955Z 21/11 A3026 760 50 1700 M /M RMK AO2 SLP249 T02110106
94908KDBQ DBQ20000606140006206/06/00 14:00:31  5-MIN KDBQ 062000Z A3026 M M M M /M RMK AO2
94908KDBQ DBQ20000606140506206/06/00 14:05:31  5-MIN KDBQ 062005Z A3026 M M M M /M RMK AO2
94908KDBQ DBQ20000606141005606/06/00 14:10:31  5-MIN KDBQ 062010Z M M M M /M RMK AO2
94908KDBQ DBQ20000606141506406/06/00 14:15:31  5-MIN KDBQ 062015Z A3025 M M M M /M RMK AO2 $
94908KDBQ DBQ20000606142005806/06/00 14:20:31  5-MIN KDBQ 062020Z M M M M /M RMK AO2 $
94908KDBQ DBQ20000606142508606/06/00 14:25:31  5-MIN KDBQ 062025Z 22006KT 22/10 A3025 770 47 1800 210/06 RMK AO2 $
94908KDBQ DBQ20000606143009106/06/00 14:30:31  5-MIN KDBQ 062030Z 20007KT 10SM 21/10 A3025 770 48 1700 200/07 RMK AO2 $
94908KDBQ DBQ20000606143508906/06/00 14:35:31  5-MIN KDBQ 062035Z 18006KT 10SM 21/09 A3025 780 47 1700 180/06 RMK AO2
94908KDBQ DBQ20000606144008906/06/00 14:40:31  5-MIN KDBQ 062040Z 19004KT 10SM 21/09 A3025 780 45 1700 190/04 RMK AO2
94908KDBQ DBQ20000606144508906/06/00 14:45:31  5-MIN KDBQ 062045Z VRB03KT 10SM 21/09 A3025 780 45 1700 VRB/03 RMK AO2
94908KDBQ DBQ20000606145011606/06/00 14:50:31  5-MIN KDBQ 062050Z 20008KT 10SM CLR 21/09 A3024 780 47 1700 200/08 RMK AO2 SLP242 6//// T02110094
94908KDBQ DBQ20000606145511606/06/00 14:55:31  5-MIN KDBQ 062055Z 24005KT 10SM CLR 21/10 A3024 780 48 1700 240/05 RMK AO2 SLP242 6//// T02110100
94908KDBQ DBQ20000606150009306/06/00 15:00:31  5-MIN KDBQ 062100Z VRB04KT 10SM CLR 21/09 A3024 780 45 1700 VRB/04 RMK AO2
94908KDBQ DBQ20000606150509306/06/00 15:05:31  5-MIN KDBQ 062105Z 18005KT 10SM CLR 21/09 A3024 780 48 1700 180/05 RMK AO2
94908KDBQ DBQ20000606151009606/06/00 15:10:31  5-MIN KDBQ 062110Z 14005KT 10SM FEW055 21/09 A3024 780 47 1700 140/05 RMK AO2
94908KDBQ DBQ20000606151509606/06/00 15:15:31  5-MIN KDBQ 062115Z 20004KT 10SM SCT055 21/09 A3024 780 47 1700 200/04 RMK AO2
94908KDBQ DBQ20000606152009606/06/00 15:20:31  5-MIN KDBQ 062120Z 23006KT 10SM SCT055 21/09 A3024 790 47 1700 220/06 RMK AO2
94908KDBQ DBQ20000606152509606/06/00 15:25:31  5-MIN KDBQ 062125Z 21005KT 10SM SCT055 21/09 A3023 790 47 1700 210/05 RMK AO2
94908KDBQ DBQ20000606153009606/06/00 15:30:31  5-MIN KDBQ 062130Z 21006KT 10SM FEW055 21/09 A3023 790 45 1700 210/06 RMK AO2
94908KDBQ DBQ20000606153509606/06/00 15:35:31  5-MIN KDBQ 062135Z 22007KT 10SM FEW055 22/10 A3023 790 47 1800 210/07 RMK AO2
94908KDBQ DBQ20000606154009606/06/00 15:40:31  5-MIN KDBQ 062140Z VRB04KT 10SM FEW055 21/09 A3023 790 45 1700 VRB/04 RMK AO2
94908KDBQ DBQ20000606154509306/06/00 15:45:31  5-MIN KDBQ 062145Z VRB04KT 10SM CLR 21/09 A3024 790 47 1700 VRB/04 RMK AO2
94908KDBQ DBQ20000606155011306/06/00 15:50:31  5-MIN KDBQ 062150Z 22004KT 10SM FEW055 21/09 A3023 790 47 1700 220/04 RMK AO2 SLP238 T02110094
94908KDBQ DBQ20000606155511306/06/00 15:55:31  5-MIN KDBQ 062155Z VRB06KT 10SM FEW055 22/09 A3023 790 43 1800 VRB/06 RMK AO2 SLP237 T02170089
94908KDBQ DBQ20000606160009606/06/00 16:00:31  5-MIN KDBQ 062200Z 15003KT 10SM FEW055 21/09 A3023 790 45 1700 150/03 RMK AO2
94908KDBQ DBQ20000606160509606/06/00 16:05:31  5-MIN KDBQ 062205Z 00000KT 10SM FEW055 21/09 A3023 790 45 1700 000/00 RMK AO2
94908KDBQ DBQ20000606161009606/06/00 16:10:31  5-MIN KDBQ 062210Z VRB04KT 10SM FEW055 21/09 A3023 800 47 1700 VRB/04 RMK AO2
94908KDBQ DBQ20000606161509606/06/00 16:15:31  5-MIN KDBQ 062215Z 18005KT 10SM FEW055 21/09 A3023 800 47 1700 180/05 RMK AO2
94908KDBQ DBQ20000606162009306/06/00 16:20:31  5-MIN KDBQ 062220Z 21005KT 10SM CLR 21/10 A3023 800 48 1700 210/05 RMK AO2
94908KDBQ DBQ20000606162509306/06/00 16:25:31  5-MIN KDBQ 062225Z 20006KT 10SM CLR 21/10 A3023 800 48 1700 200/06 RMK AO2
94908KDBQ DBQ20000606163009306/06/00 16:30:31  5-MIN KDBQ 062230Z 23004KT 10SM CLR 21/09 A3023 800 47 1700 230/04 RMK AO2
94908KDBQ DBQ20000606163509306/06/00 16:35:31  5-MIN KDBQ 062235Z 23004KT 10SM CLR 21/10 A3023 800 48 1700 230/04 RMK AO2
94908KDBQ DBQ20000606164009306/06/00 16:40:31  5-MIN KDBQ 062240Z VRB04KT 10SM CLR 22/09 A3023 800 45 1800 VRB/04 RMK AO2
94908KDBQ DBQ20000606164509306/06/00 16:45:31  5-MIN KDBQ 062245Z 00000KT 10SM CLR 21/09 A3022 800 45 1700 000/00 RMK AO2
94908KDBQ DBQ20000606165011006/06/00 16:50:31  5-MIN KDBQ 062250Z 00000KT 10SM CLR 21/09 A3022 800 47 1700 000/00 RMK AO2 SLP235 T02110094
94908KDBQ DBQ20000606165511006/06/00 16:55:31  5-MIN KDBQ 062255Z 17004KT 10SM CLR 22/09 A3022 800 45 1800 170/04 RMK AO2 SLP234 T02170094
94908KDBQ DBQ20000606170009306/06/00 17:00:31  5-MIN KDBQ 062300Z 21008KT 10SM CLR 21/09 A3022 800 47 1700 210/08 RMK AO2
94908KDBQ DBQ20000606170509306/06/00 17:05:31  5-MIN KDBQ 062305Z 23007KT 10SM CLR 21/09 A3022 800 47 1700 230/07 RMK AO2
94908KDBQ DBQ20000606171009306/06/00 17:10:31  5-MIN KDBQ 062310Z 20007KT 10SM CLR 21/09 A3022 800 47 1700 200/07 RMK AO2
94908KDBQ DBQ20000606171509306/06/00 17:15:31  5-MIN KDBQ 062315Z 21005KT 10SM CLR 21/09 A3022 800 47 1700 210/05 RMK AO2
94908KDBQ DBQ20000606172009306/06/00 17:20:31  5-MIN KDBQ 062320Z 21005KT 10SM CLR 21/09 A3022 800 47 1700 210/05 RMK AO2
94908KDBQ DBQ20000606172509306/06/00 17:25:31  5-MIN KDBQ 062325Z 19006KT 10SM CLR 21/09 A3022 800 47 1700 190/06 RMK AO2
94908KDBQ DBQ20000606173009306/06/00 17:30:31  5-MIN KDBQ 062330Z 19006KT 10SM CLR 21/09 A3022 800 47 1700 190/06 RMK AO2
94908KDBQ DBQ20000606173509306/06/00 17:35:31  5-MIN KDBQ 062335Z 19005KT 10SM CLR 21/10 A3022 800 48 1700 190/05 RMK AO2
94908KDBQ DBQ20000606174009306/06/00 17:40:31  5-MIN KDBQ 062340Z 00000KT 10SM CLR 21/09 A3022 810 47 1700 000/00 RMK AO2
94908KDBQ DBQ20000606174509306/06/00 17:45:31  5-MIN KDBQ 062345Z 20006KT 10SM CLR 21/09 A3022 810 47 1700 200/06 RMK AO2
94908KDBQ DBQ20000606175012806/06/00 17:50:31  5-MIN KDBQ 062350Z 17004KT 10SM CLR 21/09 A3022 810 45 1700 170/04 RMK AO2 SLP230 6//// T02110089 10217 20200
94908KDBQ DBQ20000606175513406/06/00 17:55:31  5-MIN KDBQ 062355Z 23004KT 10SM CLR 21/09 A3022 810 45 1700 230/04 RMK AO2 SLP231 6//// T02110089 10217 20200 56008
94908KDBQ DBQ20000606180009306/06/00 18:00:31  5-MIN KDBQ 070000Z 20005KT 10SM CLR 21/09 A3022 810 45 1700 200/05 RMK AO2
94908KDBQ DBQ20000606180509306/06/00 18:05:31  5-MIN KDBQ 070005Z 18005KT 10SM CLR 21/09 A3022 810 48 1700 180/05 RMK AO2
94908KDBQ DBQ20000606181009306/06/00 18:10:31  5-MIN KDBQ 070010Z 19004KT 10SM CLR 21/09 A3022 810 48 1700 190/04 RMK AO2
94908KDBQ DBQ20000606181509306/06/00 18:15:31  5-MIN KDBQ 070015Z 20003KT 10SM CLR 21/09 A3021 810 48 1700 190/03 RMK AO2
94908KDBQ DBQ20000606182009306/06/00 18:20:31  5-MIN KDBQ 070020Z 00000KT 10SM CLR 21/09 A3021 810 48 1700 000/00 RMK AO2
94908KDBQ DBQ20000606182509306/06/00 18:25:31  5-MIN KDBQ 070025Z 17005KT 10SM CLR 21/10 A3021 810 50 1700 170/05 RMK AO2
94908KDBQ DBQ20000606183009306/06/00 18:30:31  5-MIN KDBQ 070030Z 18005KT 10SM CLR 20/11 A3022 810 54 1600 180/05 RMK AO2
94908KDBQ DBQ20000606183509306/06/00 18:35:31  5-MIN KDBQ 070035Z 19004KT 10SM CLR 20/11 A3022 810 54 1600 190/04 RMK AO2
94908KDBQ DBQ20000606184009806/06/00 18:40:31  5-MIN KDBQ 070040Z AUTO 17006KT 10SM CLR 19/11 A3022 810 56 1600 170/06 RMK AO2
94908KDBQ DBQ20000606184510306/06/00 18:45:31  5-MIN KDBQ 070045Z AUTO 17005KT 10SM CLR 19/11 A3022 810 56 1600 170/05 RMK AO2 TSNO
94908KDBQ DBQ20000606185012006/06/00 18:50:31  5-MIN KDBQ 070050Z AUTO 17005KT 10SM CLR 19/11 A3022 810 60 1500 170/05 RMK AO2 SLP231 T01890111 TSNO
94908KDBQ DBQ20000606185512006/06/00 18:55:31  5-MIN KDBQ 070055Z AUTO 16005KT 10SM CLR 19/11 A3021 810 60 1500 160/05 RMK AO2 SLP230 T01890111 TSNO
94908KDBQ DBQ20000606190010306/06/00 19:00:31  5-MIN KDBQ 070100Z AUTO 16004KT 10SM CLR 18/11 A3021 810 62 1400 160/04 RMK AO2 TSNO
94908KDBQ DBQ20000606190510306/06/00 19:05:31  5-MIN KDBQ 070105Z AUTO 16005KT 10SM CLR 18/11 A3021 810 62 1400 160/05 RMK AO2 TSNO
94908KDBQ DBQ20000606191010306/06/00 19:10:31  5-MIN KDBQ 070110Z AUTO 16005KT 10SM CLR 18/11 A3021 810 64 1400 160/05 RMK AO2 TSNO
94908KDBQ DBQ20000606191510306/06/00 19:15:31  5-MIN KDBQ 070115Z AUTO 16005KT 10SM CLR 18/11 A3021 810 64 1400 160/05 RMK AO2 TSNO
94908KDBQ DBQ20000606192010306/06/00 19:20:31  5-MIN KDBQ 070120Z AUTO 16004KT 10SM CLR 18/11 A3021 810 64 1400 160/04 RMK AO2 TSNO
94908KDBQ DBQ20000606192510306/06/00 19:25:31  5-MIN KDBQ 070125Z AUTO 16004KT 10SM CLR 17/11 A3021 810 67 1300 160/04 RMK AO2 TSNO
94908KDBQ DBQ20000606193010306/06/00 19:30:31  5-MIN KDBQ 070130Z AUTO 16005KT 10SM CLR 17/11 A3021 820 67 1300 160/05 RMK AO2 TSNO
94908KDBQ DBQ20000606193510306/06/00 19:35:31  5-MIN KDBQ 070135Z AUTO 16005KT 10SM CLR 17/11 A3021 810 67 1300 160/05 RMK AO2 TSNO
94908KDBQ DBQ20000606194010306/06/00 19:40:31  5-MIN KDBQ 070140Z AUTO 16005KT 10SM CLR 17/11 A3021 820 67 1200 160/05 RMK AO2 TSNO
94908KDBQ DBQ20000606194510306/06/00 19:45:31  5-MIN KDBQ 070145Z AUTO 15005KT 10SM CLR 17/11 A3020 820 64 1300 150/05 RMK AO2 TSNO
94908KDBQ DBQ20000606195012006/06/00 19:50:31  5-MIN KDBQ 070150Z AUTO 15006KT 10SM CLR 17/11 A3020 820 67 1200 150/06 RMK AO2 SLP226 T01670106 TSNO
94908KDBQ DBQ20000606195512006/06/00 19:55:31  5-MIN KDBQ 070155Z AUTO 16006KT 10SM CLR 16/11 A3020 820 69 1200 160/06 RMK AO2 SLP227 T01610106 TSNO
94908KDBQ DBQ20000606200010306/06/00 20:00:31  5-MIN KDBQ 070200Z AUTO 15006KT 10SM CLR 16/11 A3021 820 69 1200 150/06 RMK AO2 TSNO
94908KDBQ DBQ20000606200510306/06/00 20:05:31  5-MIN KDBQ 070205Z AUTO 15006KT 10SM CLR 16/11 A3021 820 74 1100 150/06 RMK AO2 TSNO
94908KDBQ DBQ20000606201010306/06/00 20:10:31  5-MIN KDBQ 070210Z AUTO 15006KT 10SM CLR 16/11 A3021 810 69 1200 150/06 RMK AO2 TSNO
94908KDBQ DBQ20000606201510306/06/00 20:15:31  5-MIN KDBQ 070215Z AUTO 15006KT 10SM CLR 16/11 A3021 810 69 1200 150/06 RMK AO2 TSNO
94908KDBQ DBQ20000606202010306/06/00 20:20:31  5-MIN KDBQ 070220Z AUTO 15006KT 10SM CLR 16/11 A3021 810 69 1200 150/06 RMK AO2 TSNO
94908KDBQ DBQ20000606202510306/06/00 20:25:31  5-MIN KDBQ 070225Z AUTO 15006KT 10SM CLR 16/11 A3021 810 69 1200 150/06 RMK AO2 TSNO
94908KDBQ DBQ20000606203010306/06/00 20:30:31  5-MIN KDBQ 070230Z AUTO 15006KT 10SM CLR 17/10 A3021 810 64 1200 150/06 RMK AO2 TSNO
94908KDBQ DBQ20000606203510306/06/00 20:35:31  5-MIN KDBQ 070235Z AUTO 14006KT 10SM CLR 16/10 A3021 810 67 1200 140/06 RMK AO2 TSNO
94908KDBQ DBQ20000606204010306/06/00 20:40:31  5-MIN KDBQ 070240Z AUTO 15006KT 10SM CLR 17/10 A3021 810 64 1200 150/06 RMK AO2 TSNO
94908KDBQ DBQ20000606204510306/06/00 20:45:31  5-MIN KDBQ 070245Z AUTO 15005KT 10SM CLR 16/10 A3022 800 67 1200 150/05 RMK AO2 TSNO
94908KDBQ DBQ20000606205012606/06/00 20:50:31  5-MIN KDBQ 070250Z AUTO 15006KT 10SM CLR 16/10 A3022 800 67 1200 150/06 RMK AO2 SLP232 T01610100 56008 TSNO
94908KDBQ DBQ20000606205512606/06/00 20:55:31  5-MIN KDBQ 070255Z AUTO 15005KT 10SM CLR 16/10 A3022 800 67 1200 150/05 RMK AO2 SLP234 T01610100 53002 TSNO
94908KDBQ DBQ20000606210010306/06/00 21:00:31  5-MIN KDBQ 070300Z AUTO 15005KT 10SM CLR 16/10 A3023 800 67 1200 150/05 RMK AO2 TSNO
94908KDBQ DBQ20000606210510306/06/00 21:05:31  5-MIN KDBQ 070305Z AUTO 16006KT 10SM CLR 16/10 A3023 800 69 1100 160/06 RMK AO2 TSNO
94908KDBQ DBQ20000606211010306/06/00 21:10:31  5-MIN KDBQ 070310Z AUTO 16006KT 10SM CLR 16/10 A3023 800 69 1100 150/06 RMK AO2 TSNO
94908KDBQ DBQ20000606211510306/06/00 21:15:31  5-MIN KDBQ 070315Z AUTO 16006KT 10SM CLR 16/10 A3023 790 69 1100 160/06 RMK AO2 TSNO
94908KDBQ DBQ20000606212010306/06/00 21:20:31  5-MIN KDBQ 070320Z AUTO 16005KT 10SM CLR 16/10 A3023 790 69 1100 150/05 RMK AO2 TSNO
94908KDBQ DBQ20000606212510306/06/00 21:25:31  5-MIN KDBQ 070325Z AUTO 15004KT 10SM CLR 16/10 A3023 790 69 1100 150/04 RMK AO2 TSNO
94908KDBQ DBQ20000606213010306/06/00 21:30:31  5-MIN KDBQ 070330Z AUTO 16004KT 10SM CLR 16/10 A3023 790 69 1100 160/04 RMK AO2 TSNO
94908KDBQ DBQ20000606213510306/06/00 21:35:31  5-MIN KDBQ 070335Z AUTO 00000KT 10SM CLR 15/11 A3024 790 74 1000 000/00 RMK AO2 TSNO
94908KDBQ DBQ20000606214010306/06/00 21:40:31  5-MIN KDBQ 070340Z AUTO 00000KT 10SM CLR 15/11 A3024 790 74 1000 000/00 RMK AO2 TSNO
94908KDBQ DBQ20000606214510306/06/00 21:45:31  5-MIN KDBQ 070345Z AUTO 00000KT 10SM CLR 15/11 A3024 790 74 1000 000/00 RMK AO2 TSNO
94908KDBQ DBQ20000606215012006/06/00 21:50:31  5-MIN KDBQ 070350Z AUTO 17003KT 10SM CLR 15/11 A3024 790 74 1000 170/03 RMK AO2 SLP238 T01500106 TSNO
94908KDBQ DBQ20000606215512006/06/00 21:55:31  5-MIN KDBQ 070355Z AUTO 17003KT 10SM CLR 15/11 A3024 790 74 1000 170/03 RMK AO2 SLP238 T01500106 TSNO
94908KDBQ DBQ20000606220010306/06/00 22:00:31  5-MIN KDBQ 070400Z AUTO 18003KT 10SM CLR 15/11 A3024 780 74 1000 180/03 RMK AO2 TSNO
94908KDBQ DBQ20000606220510306/06/00 22:05:31  5-MIN KDBQ 070405Z AUTO 18003KT 10SM CLR 15/11 A3024 790 74 1000 180/03 RMK AO2 TSNO
94908KDBQ DBQ20000606221010206/06/00 22:10:31  5-MIN KDBQ 070410Z AUTO 18003KT 10SM CLR 14/11 A3024 790 77 900 180/03 RMK AO2 TSNO
94908KDBQ DBQ20000606221510206/06/00 22:15:31  5-MIN KDBQ 070415Z AUTO 18003KT 10SM CLR 14/11 A3024 780 77 900 180/03 RMK AO2 TSNO
94908KDBQ DBQ20000606222010206/06/00 22:20:31  5-MIN KDBQ 070420Z AUTO 19004KT 10SM CLR 14/10 A3024 780 74 900 190/04 RMK AO2 TSNO
94908KDBQ DBQ20000606222510306/06/00 22:25:31  5-MIN KDBQ 070425Z AUTO 18004KT 10SM CLR 15/10 A3024 780 72 1000 180/04 RMK AO2 TSNO
94908KDBQ DBQ20000606223010206/06/00 22:30:31  5-MIN KDBQ 070430Z AUTO 18004KT 10SM CLR 14/10 A3024 780 74 900 180/04 RMK AO2 TSNO
94908KDBQ DBQ20000606223510206/06/00 22:35:31  5-MIN KDBQ 070435Z AUTO 18004KT 10SM CLR 14/10 A3024 780 74 900 180/04 RMK AO2 TSNO
94908KDBQ DBQ20000606224010306/06/00 22:40:31  5-MIN KDBQ 070440Z AUTO 17004KT 10SM CLR 15/10 A3024 780 72 1000 170/04 RMK AO2 TSNO
94908KDBQ DBQ20000606224510306/06/00 22:45:31  5-MIN KDBQ 070445Z AUTO 00000KT 10SM CLR 15/10 A3024 780 72 1000 000/00 RMK AO2 TSNO
94908KDBQ DBQ20000606225011906/06/00 22:50:31  5-MIN KDBQ 070450Z AUTO 17003KT 10SM CLR 14/10 A3024 780 74 900 170/03 RMK AO2 SLP240 T01440100 TSNO
94908KDBQ DBQ20000606225511906/06/00 22:55:31  5-MIN KDBQ 070455Z AUTO 18003KT 10SM CLR 14/10 A3025 780 74 900 180/03 RMK AO2 SLP241 T01440100 TSNO
94908KDBQ DBQ20000606230010206/06/00 23:00:31  5-MIN KDBQ 070500Z AUTO 18003KT 10SM CLR 14/10 A3025 780 74 900 180/03 RMK AO2 TSNO
94908KDBQ DBQ20000606230510206/06/00 23:05:31  5-MIN KDBQ 070505Z AUTO 17004KT 10SM CLR 14/10 A3025 780 74 900 170/04 RMK AO2 TSNO
94908KDBQ DBQ20000606231010206/06/00 23:10:31  5-MIN KDBQ 070510Z AUTO 18003KT 10SM CLR 14/10 A3025 780 74 900 180/03 RMK AO2 TSNO
94908KDBQ DBQ20000606231510206/06/00 23:15:31  5-MIN KDBQ 070515Z AUTO 19003KT 10SM CLR 14/10 A3025 780 77 900 190/03 RMK AO2 TSNO
94908KDBQ DBQ20000606232010206/06/00 23:20:31  5-MIN KDBQ 070520Z AUTO 19004KT 10SM CLR 14/10 A3025 780 77 900 190/04 RMK AO2 TSNO
94908KDBQ DBQ20000606232510206/06/00 23:25:31  5-MIN KDBQ 070525Z AUTO 18003KT 10SM CLR 14/10 A3025 780 77 900 180/03 RMK AO2 TSNO
94908KDBQ DBQ20000606233010206/06/00 23:30:31  5-MIN KDBQ 070530Z AUTO 18003KT 10SM CLR 14/10 A3025 780 77 900 180/03 RMK AO2 TSNO
94908KDBQ DBQ20000606233510206/06/00 23:35:31  5-MIN KDBQ 070535Z AUTO 17003KT 10SM CLR 14/09 A3025 780 72 900 170/03 RMK AO2 TSNO
94908KDBQ DBQ20000606234010206/06/00 23:40:31  5-MIN KDBQ 070540Z AUTO 17004KT 10SM CLR 14/09 A3024 780 72 900 170/04 RMK AO2 TSNO
94908KDBQ DBQ20000606234510206/06/00 23:45:31  5-MIN KDBQ 070545Z AUTO 17004KT 10SM CLR 14/10 A3024 780 77 900 170/04 RMK AO2 TSNO
94908KDBQ DBQ20000606235014706/06/00 23:50:31  5-MIN KDBQ 070550Z AUTO 17004KT 10SM CLR 13/10 A3024 780 80 800 160/04 RMK AO2 SLP239 T01330100 10211 20133 402170083 53002 TSNO
94908KDBQ DBQ20000606235514706/06/00 23:55:31  5-MIN KDBQ 070555Z AUTO 17004KT 10SM CLR 13/09 A3024 790 77 800 170/04 RMK AO2 SLP238 T01330094 10211 20133 402170083 50005 TSNO
94908KDBQ DBQ20000607000010206/07/00 00:00:31  5-MIN KDBQ 070600Z AUTO 17004KT 10SM CLR 13/09 A3024 790 77 800 170/04 RMK AO2 TSNO
94908KDBQ DBQ20000607000510206/07/00 00:05:31  5-MIN KDBQ 070605Z AUTO 17005KT 10SM CLR 13/09 A3023 790 77 800 170/05 RMK AO2 TSNO
94908KDBQ DBQ20000607001010206/07/00 00:10:31  5-MIN KDBQ 070610Z AUTO 17005KT 10SM CLR 14/09 A3023 790 74 900 170/05 RMK AO2 TSNO
94908KDBQ DBQ20000607001510206/07/00 00:15:31  5-MIN KDBQ 070615Z AUTO 18005KT 10SM CLR 14/09 A3023 790 74 900 170/05 RMK AO2 TSNO
94908KDBQ DBQ20000607002010206/07/00 00:20:31  5-MIN KDBQ 070620Z AUTO 18005KT 10SM CLR 13/09 A3023 790 77 800 180/05 RMK AO2 TSNO
94908KDBQ DBQ20000607002510206/07/00 00:25:31  5-MIN KDBQ 070625Z AUTO 18004KT 10SM CLR 13/09 A3023 790 77 800 170/04 RMK AO2 TSNO
94908KDBQ DBQ20000607003010206/07/00 00:30:31  5-MIN KDBQ 070630Z AUTO 18004KT 10SM CLR 13/09 A3023 790 77 800 180/04 RMK AO2 TSNO
94908KDBQ DBQ20000607003510206/07/00 00:35:31  5-MIN KDBQ 070635Z AUTO 17004KT 10SM CLR 13/09 A3023 790 77 800 170/04 RMK AO2 TSNO
94908KDBQ DBQ20000607004010206/07/00 00:40:31  5-MIN KDBQ 070640Z AUTO 16004KT 10SM CLR 13/09 A3023 800 80 800 160/04 RMK AO2 TSNO
94908KDBQ DBQ20000607004510206/07/00 00:45:31  5-MIN KDBQ 070645Z AUTO 16005KT 10SM CLR 13/09 A3022 800 80 800 160/05 RMK AO2 TSNO
94908KDBQ DBQ20000607005011906/07/00 00:50:31  5-MIN KDBQ 070650Z AUTO 17005KT 10SM CLR 13/09 A3022 800 77 800 170/05 RMK AO2 SLP233 T01280089 TSNO
94908KDBQ DBQ20000607005511906/07/00 00:55:31  5-MIN KDBQ 070655Z AUTO 17006KT 10SM CLR 13/09 A3022 800 77 800 170/06 RMK AO2 SLP232 T01330094 TSNO
94908KDBQ DBQ20000607010010206/07/00 01:00:31  5-MIN KDBQ 070700Z AUTO 18005KT 10SM CLR 13/09 A3022 800 74 800 180/05 RMK AO2 TSNO
94908KDBQ DBQ20000607010510206/07/00 01:05:31  5-MIN KDBQ 070705Z AUTO 18005KT 10SM CLR 12/09 A3022 800 83 700 180/05 RMK AO2 TSNO
94908KDBQ DBQ20000607011010206/07/00 01:10:31  5-MIN KDBQ 070710Z AUTO 18006KT 10SM CLR 13/09 A3022 800 80 800 180/06 RMK AO2 TSNO
94908KDBQ DBQ20000607011510206/07/00 01:15:31  5-MIN KDBQ 070715Z AUTO 19005KT 10SM CLR 13/09 A3022 800 80 800 190/05 RMK AO2 TSNO
94908KDBQ DBQ20000607012010206/07/00 01:20:31  5-MIN KDBQ 070720Z AUTO 19004KT 10SM CLR 13/09 A3022 800 80 800 190/04 RMK AO2 TSNO
94908KDBQ DBQ20000607012510206/07/00 01:25:31  5-MIN KDBQ 070725Z AUTO 20003KT 10SM CLR 12/09 A3022 800 83 700 200/03 RMK AO2 TSNO
94908KDBQ DBQ20000607013010206/07/00 01:30:31  5-MIN KDBQ 070730Z AUTO 21003KT 10SM CLR 12/09 A3022 800 83 700 210/03 RMK AO2 TSNO
94908KDBQ DBQ20000607013510206/07/00 01:35:31  5-MIN KDBQ 070735Z AUTO 00000KT 10SM CLR 12/09 A3022 800 83 700 000/00 RMK AO2 TSNO
94908KDBQ DBQ20000607014010206/07/00 01:40:31  5-MIN KDBQ 070740Z AUTO 18003KT 10SM CLR 12/09 A3022 800 83 700 180/03 RMK AO2 TSNO
94908KDBQ DBQ20000607014510206/07/00 01:45:31  5-MIN KDBQ 070745Z AUTO 17004KT 10SM CLR 12/09 A3022 800 83 700 170/04 RMK AO2 TSNO
94908KDBQ DBQ20000607015011906/07/00 01:50:31  5-MIN KDBQ 070750Z AUTO 16004KT 10SM CLR 12/09 A3022 800 80 700 160/04 RMK AO2 SLP231 T01220089 TSNO
94908KDBQ DBQ20000607015511906/07/00 01:55:31  5-MIN KDBQ 070755Z AUTO 17005KT 10SM CLR 12/09 A3022 810 80 700 170/05 RMK AO2 SLP231 T01220089 TSNO
94908KDBQ DBQ20000607020010206/07/00 02:00:31  5-MIN KDBQ 070800Z AUTO 17006KT 10SM CLR 12/09 A3021 810 83 600 170/06 RMK AO2 TSNO
94908KDBQ DBQ20000607020510206/07/00 02:05:31  5-MIN KDBQ 070805Z AUTO 17006KT 10SM CLR 12/09 A3021 810 83 600 170/06 RMK AO2 TSNO
94908KDBQ DBQ20000607021010206/07/00 02:10:31  5-MIN KDBQ 070810Z AUTO 17006KT 10SM CLR 12/09 A3021 810 83 600 170/06 RMK AO2 TSNO
94908KDBQ DBQ20000607021510206/07/00 02:15:31  5-MIN KDBQ 070815Z AUTO 18005KT 10SM CLR 12/09 A3021 810 80 700 180/05 RMK AO2 TSNO
94908KDBQ DBQ20000607022010206/07/00 02:20:31  5-MIN KDBQ 070820Z AUTO 18005KT 10SM CLR 12/09 A3021 810 83 600 180/05 RMK AO2 TSNO
94908KDBQ DBQ20000607022510206/07/00 02:25:31  5-MIN KDBQ 070825Z AUTO 19005KT 10SM CLR 12/09 A3021 810 83 600 190/05 RMK AO2 TSNO
94908KDBQ DBQ20000607023010206/07/00 02:30:31  5-MIN KDBQ 070830Z AUTO 19004KT 10SM CLR 12/09 A3021 810 83 600 190/04 RMK AO2 TSNO
94908KDBQ DBQ20000607023510206/07/00 02:35:31  5-MIN KDBQ 070835Z AUTO 19004KT 10SM CLR 12/09 A3021 810 83 600 180/04 RMK AO2 TSNO
94908KDBQ DBQ20000607024010206/07/00 02:40:31  5-MIN KDBQ 070840Z AUTO 18004KT 10SM CLR 12/09 A3021 810 80 700 180/04 RMK AO2 TSNO
94908KDBQ DBQ20000607024510206/07/00 02:45:31  5-MIN KDBQ 070845Z AUTO 19004KT 10SM CLR 12/09 A3021 810 80 700 180/04 RMK AO2 TSNO
94908KDBQ DBQ20000607025012506/07/00 02:50:31  5-MIN KDBQ 070850Z AUTO 19004KT 10SM CLR 12/09 A3021 810 80 700 190/04 RMK AO2 SLP229 T01220089 50005 TSNO
94908KDBQ DBQ20000607025512506/07/00 02:55:31  5-MIN KDBQ 070855Z AUTO 18004KT 10SM CLR 12/09 A3021 810 83 600 180/04 RMK AO2 SLP228 T01170089 56010 TSNO
94908KDBQ DBQ20000607030010206/07/00 03:00:31  5-MIN KDBQ 070900Z AUTO 18005KT 10SM CLR 12/08 A3021 810 80 600 180/05 RMK AO2 TSNO
94908KDBQ DBQ20000607030510206/07/00 03:05:31  5-MIN KDBQ 070905Z AUTO 18006KT 10SM CLR 12/08 A3021 810 80 600 180/06 RMK AO2 TSNO
94908KDBQ DBQ20000607031010206/07/00 03:10:31  5-MIN KDBQ 070910Z AUTO 18006KT 10SM CLR 12/09 A3021 810 83 600 180/06 RMK AO2 TSNO
94908KDBQ DBQ20000607031510206/07/00 03:15:31  5-MIN KDBQ 070915Z AUTO 18006KT 10SM CLR 12/09 A3021 810 83 600 180/06 RMK AO2 TSNO
94908KDBQ DBQ20000607032010206/07/00 03:20:31  5-MIN KDBQ 070920Z AUTO 19006KT 10SM CLR 12/09 A3021 810 83 600 190/06 RMK AO2 TSNO
94908KDBQ DBQ20000607032510206/07/00 03:25:31  5-MIN KDBQ 070925Z AUTO 19006KT 10SM CLR 12/08 A3021 810 77 700 190/06 RMK AO2 TSNO
94908KDBQ DBQ20000607033010206/07/00 03:30:31  5-MIN KDBQ 070930Z AUTO 19006KT 10SM CLR 12/08 A3021 810 80 600 190/06 RMK AO2 TSNO
94908KDBQ DBQ20000607033510206/07/00 03:35:31  5-MIN KDBQ 070935Z AUTO 19006KT 10SM CLR 12/08 A3021 810 80 600 190/06 RMK AO2 TSNO
94908KDBQ DBQ20000607034010206/07/00 03:40:31  5-MIN KDBQ 070940Z AUTO 18007KT 10SM CLR 12/08 A3020 820 80 700 180/07 RMK AO2 TSNO
94908KDBQ DBQ20000607034510206/07/00 03:45:31  5-MIN KDBQ 070945Z AUTO 18006KT 10SM CLR 11/08 A3020 820 83 600 180/06 RMK AO2 TSNO
94908KDBQ DBQ20000607035011906/07/00 03:50:31  5-MIN KDBQ 070950Z AUTO 18005KT 10SM CLR 11/08 A3020 820 83 600 180/05 RMK AO2 SLP227 T01110083 TSNO
94908KDBQ DBQ20000607035511906/07/00 03:55:31  5-MIN KDBQ 070955Z AUTO 19005KT 10SM CLR 12/08 A3020 820 80 700 180/05 RMK AO2 SLP226 T01170083 TSNO
94908KDBQ DBQ20000607040010206/07/00 04:00:31  5-MIN KDBQ 071000Z AUTO 18005KT 10SM CLR 12/08 A3020 820 80 700 180/05 RMK AO2 TSNO
94908KDBQ DBQ20000607040510206/07/00 04:05:31  5-MIN KDBQ 071005Z AUTO 19005KT 10SM CLR 12/08 A3021 810 80 600 190/05 RMK AO2 TSNO
94908KDBQ DBQ20000607041010206/07/00 04:10:31  5-MIN KDBQ 071010Z AUTO 18005KT 10SM CLR 11/08 A3021 810 83 600 180/05 RMK AO2 TSNO
94908KDBQ DBQ20000607041510106/07/00 04:15:31  5-MIN KDBQ 071015Z AUTO 18005KT 9SM CLR 11/08 A3021 810 83 600 180/05 RMK AO2 TSNO
94908KDBQ DBQ20000607042010106/07/00 04:20:31  5-MIN KDBQ 071020Z AUTO 18005KT 9SM CLR 11/08 A3021 810 83 600 180/05 RMK AO2 TSNO
94908KDBQ DBQ20000607042510106/07/00 04:25:31  5-MIN KDBQ 071025Z AUTO 19005KT 9SM CLR 11/08 A3021 810 83 600 180/05 RMK AO2 TSNO
94908KDBQ DBQ20000607043010106/07/00 04:30:31  5-MIN KDBQ 071030Z AUTO 18005KT 9SM CLR 11/08 A3020 820 83 600 180/05 RMK AO2 TSNO
94908KDBQ DBQ20000607043510106/07/00 04:35:31  5-MIN KDBQ 071035Z AUTO 17005KT 9SM CLR 11/08 A3020 820 86 500 170/05 RMK AO2 TSNO
94908KDBQ DBQ20000607044010106/07/00 04:40:31  5-MIN KDBQ 071040Z AUTO 17005KT 9SM CLR 11/08 A3020 820 83 600 170/05 RMK AO2 TSNO
94908KDBQ DBQ20000607044509606/07/00 04:45:31  5-MIN KDBQ 071045Z 18005KT 9SM CLR 11/08 A3021 810 83 600 180/05 RMK AO2 TSNO
94908KDBQ DBQ20000607045010906/07/00 04:50:31  5-MIN KDBQ 071050Z 18005KT 10SM CLR 11/08 A3021 810 83 600 180/05 RMK AO2 SLP229 T01110083
94908KDBQ DBQ20000607045510906/07/00 04:55:31  5-MIN KDBQ 071055Z 18004KT 10SM CLR 12/08 A3021 810 80 600 180/04 RMK AO2 SLP230 T01170083
94908KDBQ DBQ20000607050009206/07/00 05:00:31  5-MIN KDBQ 071100Z 18005KT 10SM CLR 12/08 A3021 810 80 600 170/05 RMK AO2
94908KDBQ DBQ20000607050509206/07/00 05:05:31  5-MIN KDBQ 071105Z 18005KT 10SM CLR 11/08 A3021 810 83 600 180/05 RMK AO2
94908KDBQ DBQ20000607051009206/07/00 05:10:31  5-MIN KDBQ 071110Z 17005KT 10SM CLR 11/08 A3021 810 83 600 170/05 RMK AO2
94908KDBQ DBQ20000607051509206/07/00 05:15:31  5-MIN KDBQ 071115Z 17005KT 10SM CLR 12/08 A3021 810 80 600 170/05 RMK AO2
94908KDBQ DBQ20000607052009206/07/00 05:20:31  5-MIN KDBQ 071120Z 18005KT 10SM CLR 12/09 A3021 810 83 600 180/05 RMK AO2
94908KDBQ DBQ20000607052509206/07/00 05:25:31  5-MIN KDBQ 071125Z 17005KT 10SM CLR 12/09 A3022 800 80 700 170/05 RMK AO2
94908KDBQ DBQ20000607053009206/07/00 05:30:31  5-MIN KDBQ 071130Z 18005KT 10SM CLR 12/09 A3022 800 80 700 180/05 RMK AO2
94908KDBQ DBQ20000607053509206/07/00 05:35:31  5-MIN KDBQ 071135Z 17005KT 10SM CLR 12/09 A3022 800 80 700 170/05 RMK AO2
94908KDBQ DBQ20000607054009206/07/00 05:40:31  5-MIN KDBQ 071140Z 17006KT 10SM CLR 12/09 A3022 800 83 700 170/06 RMK AO2
94908KDBQ DBQ20000607054510506/07/00 05:45:31  5-MIN KDBQ 071145Z 17006KT 10SM CLR 12/09 A3021 810 83 700 170/06 RMK AO2 06/07/000010
94908KDBQ DBQ20000607055513306/07/00 05:55:31  5-MIN KDBQ 071155Z 17006KT 10SM CLR 13/09 A3022 810 77 800 170/06 RMK AO2 SLP230 7//// T01330094 10139 20106 53003
94908KDBQ DBQ20000607060011906/07/00 06:00:31  5-MIN KDBQ 071200Z 17006KT 10SM CLR 13/09 A3022 810 77 800 170/06 RMK AO2 06/07/00900 170/06 RMK AO2
94908KDBQ DBQ20000607061509206/07/00 06:15:31  5-MIN KDBQ 071215Z 17006KT 10SM CLR 14/10 A3021 810 77 900 170/06 RMK AO2
94908KDBQ DBQ20000607062009206/07/00 06:20:31  5-MIN KDBQ 071220Z 17007KT 10SM CLR 14/10 A3021 810 77 900 170/07 RMK AO2
94908KDBQ DBQ20000607062509306/07/00 06:25:31  5-MIN KDBQ 071225Z 18007KT 10SM CLR 14/11 A3021 810 77 1000 180/07 RMK AO2
94908KDBQ DBQ20000607063009306/07/00 06:30:31  5-MIN KDBQ 071230Z 18007KT 10SM CLR 14/11 A3021 810 77 1000 180/07 RMK AO2
94908KDBQ DBQ20000607063507706/07/00 06:35:31  5-MIN KDBQ 071235Z 19006KT 10SM CLR 15/11 A3021 810 74 AO2
94908KDBQ DBQ20000607064009306/07/00 06:40:31  5-MIN KDBQ 071240Z 19008KT 10SM CLR 15/11 A3021 810 74 1000 180/08 RMK AO2
94908KDBQ DBQ20000607064509306/07/00 06:45:31  5-MIN KDBQ 071245Z 18009KT 10SM CLR 15/11 A3021 810 74 1000 180/09 RMK AO2
94908KDBQ DBQ20000607092009906/07/00 09:20:31  5-MIN KDBQ 071520Z 17017G20KT 10SM CLR 20/10 A3016 850 52 1700 170/17G20 RMK AO2
94908KDBQ DBQ20000607092509306/07/00 09:25:31  5-MIN KDBQ 071525Z 18015KT 10SM CLR 20/10 A3016 850 52 1700 180/15 RMK AO2
94908KDBQ DBQ20000607093009306/07/00 09:30:31  5-MIN KDBQ 071530Z 17015KT 10SM CLR 21/11 A3016 860 52 1700 170/15 RMK AO2
94908KDBQ DBQ20000607093509306/07/00 09:35:31  5-MIN KDBQ 071535Z 19013KT 10SM CLR 20/10 A3016 860 52 1700 190/13 RMK AO2
94908KDBQ DBQ20000607094009306/07/00 09:40:31  5-MIN KDBQ 071540Z 18012KT 10SM CLR 21/10 A3015 860 50 1700 180/12 RMK AO2
94908KDBQ DBQ20000607094509906/07/00 09:45:31  5-MIN KDBQ 071545Z 18015G19KT 10SM CLR 20/10 A3015 860 52 1700 180/15G19 RMK AO2
94908KDBQ DBQ20000607095011606/07/00 09:50:31  5-MIN KDBQ 071550Z 18014G20KT 10SM CLR 21/10 A3015 870 50 1800 180/14G20 RMK AO2 SLP207 T02060100
94908KDBQ DBQ20000607095511006/07/00 09:55:31  5-MIN KDBQ 071555Z 17014KT 10SM CLR 21/11 A3015 870 52 1800 160/14 RMK AO2 SLP206 T02060106
94908KDBQ DBQ20000607100009906/07/00 10:00:31  5-MIN KDBQ 071600Z 18018G23KT 10SM CLR 21/10 A3015 870 50 1800 180/18G23 RMK AO2
94908KDBQ DBQ20000607100509906/07/00 10:05:31  5-MIN KDBQ 071605Z 18015G23KT 10SM CLR 21/10 A3014 870 50 1800 180/15G23 RMK AO2
94908KDBQ DBQ20000607101009906/07/00 10:10:31  5-MIN KDBQ 071610Z 18015G21KT 10SM CLR 21/10 A3014 870 48 1800 180/15G21 RMK AO2
94908KDBQ DBQ20000607101509906/07/00 10:15:31  5-MIN KDBQ 071615Z 18016G20KT 10SM CLR 21/11 A3014 880 50 1800 170/16G20 RMK AO2
94908KDBQ DBQ20000607102009906/07/00 10:20:31  5-MIN KDBQ 071620Z 17016G20KT 10SM CLR 21/11 A3014 880 50 1800 170/16G20 RMK AO2
94908KDBQ DBQ20000607102509306/07/00 10:25:31  5-MIN KDBQ 071625Z 19016KT 10SM CLR 21/10 A3013 880 48 1800 190/16 RMK AO2
94908KDBQ DBQ20000607103009306/07/00 10:30:31  5-MIN KDBQ 071630Z 18017KT 10SM CLR 21/10 A3013 880 48 1800 180/17 RMK AO2
94908KDBQ DBQ20000607103509306/07/00 10:35:31  5-MIN KDBQ 071635Z 18018KT 10SM CLR 21/11 A3013 890 50 1800 170/18 RMK AO2
94908KDBQ DBQ20000607104009306/07/00 10:40:31  5-MIN KDBQ 071640Z 19015KT 10SM CLR 21/11 A3013 890 50 1800 190/15 RMK AO2
94908KDBQ DBQ20000607104509906/07/00 10:45:31  5-MIN KDBQ 071645Z 19014G21KT 10SM CLR 22/11 A3013 890 49 1900 180/14G21 RMK AO2
94908KDBQ DBQ20000607105011606/07/00 10:50:31  5-MIN KDBQ 071650Z 18015G21KT 10SM CLR 22/11 A3012 890 49 1900 180/15G21 RMK AO2 SLP197 T02170106
94908KDBQ DBQ20000607105511606/07/00 10:55:31  5-MIN KDBQ 071655Z 19016G21KT 10SM CLR 22/11 A3012 890 49 1900 180/16G21 RMK AO2 SLP197 T02170106
94908KDBQ DBQ20000607110009906/07/00 11:00:31  5-MIN KDBQ 071700Z 20017G22KT 10SM CLR 22/11 A3011 900 49 1900 200/17G22 RMK AO2
94908KDBQ DBQ20000607110509306/07/00 11:05:31  5-MIN KDBQ 071705Z 18016KT 10SM CLR 22/11 A3011 900 50 1900 180/16 RMK AO2
94908KDBQ DBQ20000607111009906/07/00 11:10:31  5-MIN KDBQ 071710Z 19018G23KT 10SM CLR 22/11 A3011 900 49 1900 190/18G23 RMK AO2
94908KDBQ DBQ20000607111509906/07/00 11:15:31  5-MIN KDBQ 071715Z 18016G23KT 10SM CLR 22/11 A3011 910 50 1900 180/16G23 RMK AO2
94908KDBQ DBQ20000607112009906/07/00 11:20:31  5-MIN KDBQ 071720Z 18015G22KT 10SM CLR 22/11 A3010 910 50 1900 180/15G22 RMK AO2
94908KDBQ DBQ20000607112509906/07/00 11:25:31  5-MIN KDBQ 071725Z 17018G25KT 10SM CLR 22/11 A3010 920 50 1900 170/18G25 RMK AO2
94908KDBQ DBQ20000607113009906/07/00 11:30:31  5-MIN KDBQ 071730Z 17018G25KT 10SM CLR 22/11 A3009 920 49 2000 170/18G25 RMK AO2
94908KDBQ DBQ20000607113509906/07/00 11:35:31  5-MIN KDBQ 071735Z 18017G22KT 10SM CLR 22/11 A3009 920 49 2000 180/17G22 RMK AO2
94908KDBQ DBQ20000607114009906/07/00 11:40:31  5-MIN KDBQ 071740Z 18014G22KT 10SM CLR 23/12 A3008 930 51 2100 180/14G22 RMK AO2
94908KDBQ DBQ20000607114509906/07/00 11:45:31  5-MIN KDBQ 071745Z 19016G22KT 10SM CLR 22/12 A3008 930 51 2000 190/16G22 RMK AO2
94908KDBQ DBQ20000607115013406/07/00 11:50:31  5-MIN KDBQ 071750Z 16018G22KT 10SM CLR 22/12 A3008 930 51 2000 160/18G22 RMK AO2 SLP183 T02220117 10228 20133 58016
94908KDBQ DBQ20000607115513406/07/00 11:55:31  5-MIN KDBQ 071755Z 17020G24KT 10SM CLR 22/11 A3008 940 49 2000 170/20G24 RMK AO2 SLP182 T02220111 10228 20133 58030
94908KDBQ DBQ20000607120009906/07/00 12:00:31  5-MIN KDBQ 071800Z 17017G24KT 10SM CLR 22/12 A3007 940 51 2000 170/17G24 RMK AO2
94908KDBQ DBQ20000607120509306/07/00 12:05:31  5-MIN KDBQ 071805Z 18017KT 10SM CLR 23/12 A3006 940 49 2100 180/17 RMK AO2
94908KDBQ DBQ20000607121009906/07/00 12:10:31  5-MIN KDBQ 071810Z 18018G22KT 10SM CLR 23/12 A3007 940 49 2100 170/18G22 RMK AO2
94908KDBQ DBQ20000607121509906/07/00 12:15:31  5-MIN KDBQ 071815Z 18017G22KT 10SM CLR 23/12 A3007 940 49 2100 180/17G22 RMK AO2
94908KDBQ DBQ20000607122009906/07/00 12:20:31  5-MIN KDBQ 071820Z 17016G23KT 10SM CLR 23/12 A3006 950 49 2100 170/16G23 RMK AO2
94908KDBQ DBQ20000607122509906/07/00 12:25:31  5-MIN KDBQ 071825Z 17019G23KT 10SM CLR 23/12 A3006 950 49 2100 160/19G23 RMK AO2
94908KDBQ DBQ20000607123009906/07/00 12:30:31  5-MIN KDBQ 071830Z 17017G23KT 10SM CLR 23/12 A3006 950 49 2100 170/17G23 RMK AO2
94908KDBQ DBQ20000607123509306/07/00 12:35:31  5-MIN KDBQ 071835Z 18015KT 10SM CLR 23/12 A3005 960 49 2100 180/15 RMK AO2
94908KDBQ DBQ20000607124009906/07/00 12:40:31  5-MIN KDBQ 071840Z 17018G22KT 10SM CLR 23/12 A3005 960 47 2200 170/18G22 RMK AO2
94908KDBQ DBQ20000607124509606/07/00 12:45:31  5-MIN KDBQ 071845Z 18019KT 10SM FEW100 23/12 A3005 960 49 2100 180/19 RMK AO2
94908KDBQ DBQ20000607125011306/07/00 12:50:31  5-MIN KDBQ 071850Z 18016KT 10SM FEW100 23/12 A3004 970 47 2200 180/16 RMK AO2 SLP170 T02330117
94908KDBQ DBQ20000607125511306/07/00 12:55:31  5-MIN KDBQ 071855Z 18018KT 10SM FEW100 23/12 A3004 960 47 2200 180/18 RMK AO2 SLP171 T02330117
94908KDBQ DBQ20000607130010206/07/00 13:00:31  5-MIN KDBQ 071900Z 18017G23KT 10SM FEW095 23/12 A3004 970 47 2200 180/17G23 RMK AO2
94908KDBQ DBQ20000607130509606/07/00 13:05:31  5-MIN KDBQ 071905Z 17021KT 10SM FEW095 23/12 A3004 970 49 2200 170/21 RMK AO2
94908KDBQ DBQ20000607131009606/07/00 13:10:31  5-MIN KDBQ 071910Z 19019KT 10SM FEW095 23/12 A3003 980 47 2200 190/19 RMK AO2
94908KDBQ DBQ20000607131510206/07/00 13:15:31  5-MIN KDBQ 071915Z 18016G22KT 10SM FEW095 24/12 A3003 980 47 2300 180/16G22 RMK AO2
94908KDBQ DBQ20000607132009906/07/00 13:20:31  5-MIN KDBQ 071920Z 17020G24KT 10SM CLR 24/12 A3003 980 47 2300 170/20G24 RMK AO2
94908KDBQ DBQ20000607132511706/07/00 13:25:31  5-MIN KDBQ 071925Z 17021G26KT 10SM CLR 23/12 A3002 990 47 2200 170/21G26 RMK AO2 PK WND 17026/1924
94908KDBQ DBQ20000607133011706/07/00 13:30:31  5-MIN KDBQ 071930Z 17020G26KT 10SM CLR 23/12 A3001 990 47 2200 170/20G26 RMK AO2 PK WND 17026/1924
94908KDBQ DBQ20000607133511806/07/00 13:35:31  5-MIN KDBQ 071935Z 17021G25KT 10SM CLR 23/12 A3001 1000 49 2200 170/21G25 RMK AO2 PK WND 17026/1924
94908KDBQ DBQ20000607134011806/07/00 13:40:31  5-MIN KDBQ 071940Z 18018G25KT 10SM CLR 24/12 A3001 1000 46 2300 180/18G25 RMK AO2 PK WND 17026/1924
94908KDBQ DBQ20000607134511806/07/00 13:45:31  5-MIN KDBQ 071945Z 19021G24KT 10SM CLR 24/12 A3000 1000 47 2300 180/21G24 RMK AO2 PK WND 17026/1924
94908KDBQ DBQ20000607135013506/07/00 13:50:31  5-MIN KDBQ 071950Z 18018G25KT 10SM CLR 24/12 A3000 1000 46 2400 180/18G25 RMK AO2 PK WND 17026/1924 SLP157 T02440122
94908KDBQ DBQ20000607135513506/07/00 13:55:31  5-MIN KDBQ 071955Z 17016G25KT 10SM CLR 24/12 A3000 1000 46 2300 170/16G25 RMK AO2 PK WND 17026/1924 SLP157 T02390117
94908KDBQ DBQ20000607140010306/07/00 14:00:31  5-MIN KDBQ 072000Z 18019G23KT 10SM FEW090 24/12 A3000 1000 46 2400 180/19G23 RMK AO2
94908KDBQ DBQ20000607140510306/07/00 14:05:31  5-MIN KDBQ 072005Z 18015G23KT 10SM FEW085 24/12 A3000 1010 47 2300 180/15G23 RMK AO2
94908KDBQ DBQ20000607141012106/07/00 14:10:31  5-MIN KDBQ 072010Z 17020G26KT 10SM SCT080 24/12 A2999 1010 46 2300 170/20G26 RMK AO2 PK WND 17026/2009
94908KDBQ DBQ20000607141512106/07/00 14:15:31  5-MIN KDBQ 072015Z 19019G26KT 10SM SCT080 23/11 A2999 1010 45 2200 180/19G26 RMK AO2 PK WND 17026/2009
94908KDBQ DBQ20000607142012106/07/00 14:20:31  5-MIN KDBQ 072020Z 17021G26KT 10SM SCT080 24/11 A2999 1010 42 2300 170/21G26 RMK AO2 PK WND 17026/2017
94908KDBQ DBQ20000607142512106/07/00 14:25:31  5-MIN KDBQ 072025Z 18019G26KT 10SM SCT080 24/11 A2998 1020 42 2300 170/19G26 RMK AO2 PK WND 17026/2017
94908KDBQ DBQ20000607143011506/07/00 14:30:31  5-MIN KDBQ 072030Z 17018KT 10SM FEW080 24/11 A2998 1030 44 2300 170/18 RMK AO2 PK WND 17026/2017
94908KDBQ DBQ20000607143511506/07/00 14:35:31  5-MIN KDBQ 072035Z 18019KT 10SM FEW080 24/11 A2997 1030 42 2400 180/19 RMK AO2 PK WND 17026/2017
94908KDBQ DBQ20000607144011506/07/00 14:40:31  5-MIN KDBQ 072040Z 17020KT 10SM FEW080 24/11 A2997 1030 42 2400 170/20 RMK AO2 PK WND 17026/2017
94908KDBQ DBQ20000607144511806/07/00 14:45:31  5-MIN KDBQ 072045Z 18022G28KT 10SM CLR 24/11 A2996 1040 42 2400 180/22G28 RMK AO2 PK WND 18028/2043
94908KDBQ DBQ20000607145014106/07/00 14:50:31  5-MIN KDBQ 072050Z 19021G28KT 10SM CLR 24/11 A2997 1040 42 2300 180/21G28 RMK AO2 PK WND 18028/2043 SLP144 T02390106 58030
94908KDBQ DBQ20000607145514106/07/00 14:55:31  5-MIN KDBQ 072055Z 19019G24KT 10SM CLR 23/11 A2997 1030 44 2300 180/19G24 RMK AO2 PK WND 18028/2043 SLP146 T02330106 56034
94908KDBQ DBQ20000607150010006/07/00 15:00:31  5-MIN KDBQ 072100Z 18020G24KT 10SM CLR 24/11 A2997 1030 44 2300 180/20G24 RMK AO2
94908KDBQ DBQ20000607150512106/07/00 15:05:31  5-MIN KDBQ 072105Z 18022G27KT 10SM FEW075 24/11 A2997 1030 42 2300 180/22G27 RMK AO2 PK WND 18027/2104
94908KDBQ DBQ20000607151012106/07/00 15:10:31  5-MIN KDBQ 072110Z 17021G27KT 10SM SCT075 24/11 A2997 1030 42 2300 170/21G27 RMK AO2 PK WND 18027/2104
94908KDBQ DBQ20000607151512106/07/00 15:15:31  5-MIN KDBQ 072115Z 17017G25KT 10SM SCT075 23/11 A2998 1030 45 2300 170/17G25 RMK AO2 PK WND 18027/2104
94908KDBQ DBQ20000607152012106/07/00 15:20:31  5-MIN KDBQ 072120Z 18018G23KT 10SM BKN075 23/11 A2997 1030 45 2300 180/18G23 RMK AO2 PK WND 18027/2104
94908KDBQ DBQ20000607152512106/07/00 15:25:31  5-MIN KDBQ 072125Z 20019G23KT 10SM BKN075 24/11 A2997 1030 44 2300 200/19G23 RMK AO2 PK WND 18027/2104
94908KDBQ DBQ20000607153012106/07/00 15:30:31  5-MIN KDBQ 072130Z 18020G25KT 10SM BKN075 24/11 A2997 1030 44 2300 180/20G25 RMK AO2 PK WND 18027/2104
94908KDBQ DBQ20000607153512106/07/00 15:35:31  5-MIN KDBQ 072135Z 18020G25KT 10SM OVC075 24/11 A2997 1030 42 2300 180/20G25 RMK AO2 PK WND 18027/2104
94908KDBQ DBQ20000607154012106/07/00 15:40:31  5-MIN KDBQ 072140Z 18017G25KT 10SM OVC075 24/11 A2996 1040 44 2300 180/17G25 RMK AO2 PK WND 18027/2104
94908KDBQ DBQ20000607154512106/07/00 15:45:31  5-MIN KDBQ 072145Z 18021G25KT 10SM BKN070 24/11 A2996 1040 44 2400 180/21G25 RMK AO2 PK WND 18027/2104
94908KDBQ DBQ20000607155013806/07/00 15:50:31  5-MIN KDBQ 072150Z 18017G25KT 10SM BKN075 24/12 A2995 1050 46 2400 180/17G25 RMK AO2 PK WND 18027/2104 SLP139 T02390117
94908KDBQ DBQ20000607155513806/07/00 15:55:31  5-MIN KDBQ 072155Z 18018G24KT 10SM SCT070 24/12 A2995 1050 46 2400 180/18G24 RMK AO2 PK WND 18027/2104 SLP138 T02390117
94908KDBQ DBQ20000607160010306/07/00 16:00:31  5-MIN KDBQ 072200Z 18018G24KT 10SM FEW070 24/12 A2995 1050 46 2400 180/18G24 RMK AO2
94908KDBQ DBQ20000607160510306/07/00 16:05:31  5-MIN KDBQ 072205Z 18016G23KT 10SM FEW070 24/12 A2995 1060 47 2400 180/16G23 RMK AO2
94908KDBQ DBQ20000607161011806/07/00 16:10:31  5-MIN KDBQ 072210Z 18020G27KT 10SM CLR 24/12 A2994 1060 44 2400 180/20G27 RMK AO2 PK WND 18027/2206
94908KDBQ DBQ20000607161511806/07/00 16:15:31  5-MIN KDBQ 072215Z 19020G27KT 10SM CLR 24/12 A2994 1060 44 2400 190/20G27 RMK AO2 PK WND 18027/2206
94908KDBQ DBQ20000607162011806/07/00 16:20:31  5-MIN KDBQ 072220Z 18018G24KT 10SM CLR 24/12 A2995 1050 46 2400 180/18G24 RMK AO2 PK WND 18027/2206
94908KDBQ DBQ20000607162511806/07/00 16:25:31  5-MIN KDBQ 072225Z 19019G25KT 10SM CLR 24/11 A2995 1050 42 2400 180/19G25 RMK AO2 PK WND 18027/2206
94908KDBQ DBQ20000607163011806/07/00 16:30:31  5-MIN KDBQ 072230Z 18014G25KT 10SM CLR 24/12 A2995 1050 44 2400 180/14G25 RMK AO2 PK WND 18027/2206
94908KDBQ DBQ20000607163511806/07/00 16:35:31  5-MIN KDBQ 072235Z 19017G23KT 10SM CLR 24/12 A2996 1040 44 2400 180/17G23 RMK AO2 PK WND 18027/2206
94908KDBQ DBQ20000607164011806/07/00 16:40:31  5-MIN KDBQ 072240Z 19018G23KT 10SM CLR 24/11 A2996 1040 44 2300 190/18G23 RMK AO2 PK WND 18027/2206
94908KDBQ DBQ20000607164511206/07/00 16:45:31  5-MIN KDBQ 072245Z 19017KT 10SM CLR 24/12 A2996 1050 46 2400 190/17 RMK AO2 PK WND 18027/2206
94908KDBQ DBQ20000607165012906/07/00 16:50:31  5-MIN KDBQ 072250Z 19015KT 10SM CLR 24/12 A2995 1050 46 2400 190/15 RMK AO2 PK WND 18027/2206 SLP139 T02390117
94908KDBQ DBQ20000607165513506/07/00 16:55:31  5-MIN KDBQ 072255Z 19016G22KT 10SM CLR 24/12 A2995 1050 46 2400 190/16G22 RMK AO2 PK WND 18027/2206 SLP139 T02390117
94908KDBQ DBQ20000607170010006/07/00 17:00:31  5-MIN KDBQ 072300Z 19015G22KT 10SM CLR 24/12 A2994 1060 47 2400 190/15G22 RMK AO2
94908KDBQ DBQ20000607170511806/07/00 17:05:31  5-MIN KDBQ 072305Z 19021G26KT 10SM CLR 24/12 A2993 1070 44 2400 190/21G26 RMK AO2 PK WND 20026/2303
94908KDBQ DBQ20000607171011806/07/00 17:10:31  5-MIN KDBQ 072310Z 19021G26KT 10SM CLR 24/11 A2993 1070 44 2400 180/21G26 RMK AO2 PK WND 18026/2307
94908KDBQ DBQ20000607171511206/07/00 17:15:31  5-MIN KDBQ 072315Z 19017KT 10SM CLR 24/11 A2992 1070 44 2400 190/17 RMK AO2 PK WND 18026/2307
94908KDBQ DBQ20000607172011806/07/00 17:20:31  5-MIN KDBQ 072320Z 19019G25KT 10SM CLR 24/12 A2992 1080 46 2400 190/19G25 RMK AO2 PK WND 18026/2307
94908KDBQ DBQ20000607172511806/07/00 17:25:31  5-MIN KDBQ 072325Z 19017G26KT 10SM CLR 24/12 A2993 1070 46 2400 190/17G26 RMK AO2 PK WND 20026/2322
94908KDBQ DBQ20000607173011806/07/00 17:30:31  5-MIN KDBQ 072330Z 20017G26KT 10SM CLR 24/12 A2993 1070 46 2400 200/17G26 RMK AO2 PK WND 20026/2322
94908KDBQ DBQ20000607173511806/07/00 17:35:31  5-MIN KDBQ 072335Z 18017G22KT 10SM CLR 24/12 A2993 1070 46 2400 180/17G22 RMK AO2 PK WND 20026/2322
94908KDBQ DBQ20000607174011806/07/00 17:40:31  5-MIN KDBQ 072340Z 18015G21KT 10SM CLR 23/12 A2993 1070 49 2300 180/15G21 RMK AO2 PK WND 20026/2322
94908KDBQ DBQ20000607174511206/07/00 17:45:31  5-MIN KDBQ 072345Z 19013KT 10SM CLR 23/12 A2993 1070 49 2300 190/13 RMK AO2 PK WND 20026/2322
94908KDBQ DBQ20000607175014706/07/00 17:50:31  5-MIN KDBQ 072350Z 19016KT 10SM CLR 23/12 A2993 1070 49 2300 190/16 RMK AO2 PK WND 20026/2322 SLP133 T02330122 10244 20222 56034
94908KDBQ DBQ20000607175514706/07/00 17:55:31  5-MIN KDBQ 072355Z 19017KT 10SM CLR 23/12 A2993 1070 49 2300 190/17 RMK AO2 PK WND 20026/2322 SLP133 T02330122 10244 20222 56012
94908KDBQ DBQ20000607180010006/07/00 18:00:31  5-MIN KDBQ 080000Z 19015G21KT 10SM CLR 23/12 A2993 1070 49 2300 190/15G21 RMK AO2
94908KDBQ DBQ20000607180509406/07/00 18:05:31  5-MIN KDBQ 080005Z 19014KT 10SM CLR 23/13 A2994 1060 51 2300 190/14 RMK AO2
94908KDBQ DBQ20000607181009406/07/00 18:10:31  5-MIN KDBQ 080010Z 19013KT 10SM CLR 23/13 A2994 1060 51 2300 190/13 RMK AO2
94908KDBQ DBQ20000607181509406/07/00 18:15:31  5-MIN KDBQ 080015Z 19013KT 10SM CLR 23/13 A2993 1070 51 2300 190/13 RMK AO2
94908KDBQ DBQ20000607182009406/07/00 18:20:31  5-MIN KDBQ 080020Z 19013KT 10SM CLR 23/13 A2993 1070 51 2300 190/13 RMK AO2
94908KDBQ DBQ20000607182509406/07/00 18:25:31  5-MIN KDBQ 080025Z 18011KT 10SM CLR 23/13 A2993 1070 55 2300 180/11 RMK AO2
94908KDBQ DBQ20000607183009406/07/00 18:30:31  5-MIN KDBQ 080030Z 18011KT 10SM CLR 23/13 A2993 1070 55 2300 180/11 RMK AO2
94908KDBQ DBQ20000607183509406/07/00 18:35:31  5-MIN KDBQ 080035Z 19011KT 10SM CLR 23/13 A2993 1070 55 2300 190/11 RMK AO2
94908KDBQ DBQ20000607184009406/07/00 18:40:31  5-MIN KDBQ 080040Z 19011KT 10SM CLR 23/13 A2993 1070 55 2300 190/11 RMK AO2
94908KDBQ DBQ20000607184509406/07/00 18:45:31  5-MIN KDBQ 080045Z 19011KT 10SM CLR 22/13 A2993 1070 56 2200 180/11 RMK AO2
94908KDBQ DBQ20000607185012106/07/00 18:50:31  5-MIN KDBQ 080050Z AUTO 19011KT 10SM CLR 22/13 A2993 1070 56 2200 190/11 RMK AO2 SLP131 T02220133 TSNO
94908KDBQ DBQ20000607185512106/07/00 18:55:31  5-MIN KDBQ 080055Z AUTO 18010KT 10SM CLR 22/13 A2993 1070 56 2200 180/10 RMK AO2 SLP131 T02220133 TSNO
94908KDBQ DBQ20000607190010406/07/00 19:00:31  5-MIN KDBQ 080100Z AUTO 18009KT 10SM CLR 22/13 A2993 1070 58 2100 180/09 RMK AO2 TSNO
94908KDBQ DBQ20000607190510406/07/00 19:05:31  5-MIN KDBQ 080105Z AUTO 17009KT 10SM CLR 22/13 A2993 1070 58 2100 170/09 RMK AO2 TSNO
94908KDBQ DBQ20000607191010406/07/00 19:10:31  5-MIN KDBQ 080110Z AUTO 18009KT 10SM CLR 21/14 A2993 1070 63 2100 170/09 RMK AO2 TSNO
94908KDBQ DBQ20000607191510406/07/00 19:15:31  5-MIN KDBQ 080115Z AUTO 17009KT 10SM CLR 21/13 A2993 1070 61 2100 170/09 RMK AO2 TSNO
94908KDBQ DBQ20000607192010406/07/00 19:20:31  5-MIN KDBQ 080120Z AUTO 17009KT 10SM CLR 21/14 A2993 1070 63 2100 170/09 RMK AO2 TSNO
94908KDBQ DBQ20000607192510406/07/00 19:25:31  5-MIN KDBQ 080125Z AUTO 17008KT 10SM CLR 21/14 A2993 1070 65 2000 170/08 RMK AO2 TSNO
94908KDBQ DBQ20000607193010406/07/00 19:30:31  5-MIN KDBQ 080130Z AUTO 17008KT 10SM CLR 21/14 A2993 1070 65 2000 170/08 RMK AO2 TSNO
94908KDBQ DBQ20000607193510406/07/00 19:35:31  5-MIN KDBQ 080135Z AUTO 17009KT 10SM CLR 21/13 A2993 1070 63 2000 170/09 RMK AO2 TSNO
94908KDBQ DBQ20000607194010406/07/00 19:40:31  5-MIN KDBQ 080140Z AUTO 17009KT 10SM CLR 21/13 A2993 1070 63 2000 170/09 RMK AO2 TSNO
94908KDBQ DBQ20000607194510406/07/00 19:45:31  5-MIN KDBQ 080145Z AUTO 18009KT 10SM CLR 20/13 A2993 1070 65 1900 170/09 RMK AO2 TSNO
94908KDBQ DBQ20000607195012106/07/00 19:50:31  5-MIN KDBQ 080150Z AUTO 17010KT 10SM CLR 20/13 A2993 1070 65 1900 170/10 RMK AO2 SLP131 T02000133 TSNO
94908KDBQ DBQ20000607195512106/07/00 19:55:31  5-MIN KDBQ 080155Z AUTO 17009KT 10SM CLR 20/13 A2993 1070 65 1900 170/09 RMK AO2 SLP131 T02000133 TSNO
94908KDBQ DBQ20000607200010406/07/00 20:00:31  5-MIN KDBQ 080200Z AUTO 17009KT 10SM CLR 20/13 A2993 1070 65 1900 170/09 RMK AO2 TSNO
94908KDBQ DBQ20000607200510406/07/00 20:05:31  5-MIN KDBQ 080205Z AUTO 17010KT 10SM CLR 20/13 A2993 1070 65 1900 170/10 RMK AO2 TSNO
94908KDBQ DBQ20000607201010406/07/00 20:10:31  5-MIN KDBQ 080210Z AUTO 17010KT 10SM CLR 20/13 A2993 1070 65 1900 170/10 RMK AO2 TSNO
94908KDBQ DBQ20000607201510406/07/00 20:15:31  5-MIN KDBQ 080215Z AUTO 17010KT 10SM CLR 20/13 A2993 1070 65 1900 170/10 RMK AO2 TSNO
94908KDBQ DBQ20000607202010406/07/00 20:20:31  5-MIN KDBQ 080220Z AUTO 17010KT 10SM CLR 20/13 A2993 1070 65 1900 170/10 RMK AO2 TSNO
94908KDBQ DBQ20000607202510406/07/00 20:25:31  5-MIN KDBQ 080225Z AUTO 17009KT 10SM CLR 20/13 A2993 1070 65 1900 170/09 RMK AO2 TSNO
94908KDBQ DBQ20000607203010406/07/00 20:30:31  5-MIN KDBQ 080230Z AUTO 17009KT 10SM CLR 20/13 A2993 1070 65 1900 170/09 RMK AO2 TSNO
94908KDBQ DBQ20000607203510406/07/00 20:35:31  5-MIN KDBQ 080235Z AUTO 17008KT 10SM CLR 19/13 A2993 1070 67 1900 160/08 RMK AO2 TSNO
94908KDBQ DBQ20000607204010406/07/00 20:40:31  5-MIN KDBQ 080240Z AUTO 16008KT 10SM CLR 19/13 A2993 1070 70 1800 160/08 RMK AO2 TSNO
94908KDBQ DBQ20000607204510406/07/00 20:45:31  5-MIN KDBQ 080245Z AUTO 16010KT 10SM CLR 19/13 A2993 1070 70 1800 160/10 RMK AO2 TSNO
94908KDBQ DBQ20000607205012706/07/00 20:50:31  5-MIN KDBQ 080250Z AUTO 16010KT 10SM CLR 19/13 A2993 1070 70 1800 160/10 RMK AO2 SLP133 T01890133 56012 TSNO
94908KDBQ DBQ20000607205512706/07/00 20:55:31  5-MIN KDBQ 080255Z AUTO 16011KT 10SM CLR 19/13 A2993 1070 70 1800 160/11 RMK AO2 SLP131 T01890133 55001 TSNO
94908KDBQ DBQ20000607210010406/07/00 21:00:31  5-MIN KDBQ 080300Z AUTO 16011KT 10SM CLR 19/13 A2993 1070 70 1800 160/11 RMK AO2 TSNO
94908KDBQ DBQ20000607210510406/07/00 21:05:31  5-MIN KDBQ 080305Z AUTO 16010KT 10SM CLR 19/13 A2993 1070 70 1800 160/10 RMK AO2 TSNO
94908KDBQ DBQ20000607211010406/07/00 21:10:31  5-MIN KDBQ 080310Z AUTO 17011KT 10SM CLR 19/13 A2993 1070 70 1800 160/11 RMK AO2 TSNO
94908KDBQ DBQ20000607211510406/07/00 21:15:31  5-MIN KDBQ 080315Z AUTO 17012KT 10SM CLR 19/13 A2993 1070 70 1800 170/12 RMK AO2 TSNO
94908KDBQ DBQ20000607212010406/07/00 21:20:31  5-MIN KDBQ 080320Z AUTO 17012KT 10SM CLR 19/13 A2993 1070 67 1900 170/12 RMK AO2 TSNO
94908KDBQ DBQ20000607212510406/07/00 21:25:31  5-MIN KDBQ 080325Z AUTO 17013KT 10SM CLR 19/13 A2993 1070 70 1800 170/13 RMK AO2 TSNO
94908KDBQ DBQ20000607213010406/07/00 21:30:31  5-MIN KDBQ 080330Z AUTO 17013KT 10SM CLR 19/13 A2993 1070 70 1800 170/13 RMK AO2 TSNO
94908KDBQ DBQ20000607213510406/07/00 21:35:31  5-MIN KDBQ 080335Z AUTO 17013KT 10SM CLR 19/13 A2993 1070 70 1800 170/13 RMK AO2 TSNO
94908KDBQ DBQ20000607214010406/07/00 21:40:31  5-MIN KDBQ 080340Z AUTO 17013KT 10SM CLR 19/13 A2993 1070 70 1800 170/13 RMK AO2 TSNO
94908KDBQ DBQ20000607214510406/07/00 21:45:31  5-MIN KDBQ 080345Z AUTO 17012KT 10SM CLR 19/13 A2993 1070 70 1800 170/12 RMK AO2 TSNO
94908KDBQ DBQ20000607215012106/07/00 21:50:31  5-MIN KDBQ 080350Z AUTO 17012KT 10SM CLR 19/13 A2993 1070 70 1800 170/12 RMK AO2 SLP130 T01890133 TSNO
94908KDBQ DBQ20000607215512106/07/00 21:55:31  5-MIN KDBQ 080355Z AUTO 17013KT 10SM CLR 19/13 A2993 1070 70 1800 170/13 RMK AO2 SLP130 T01890133 TSNO
94908KDBQ DBQ20000607220010406/07/00 22:00:31  5-MIN KDBQ 080400Z AUTO 17012KT 10SM CLR 19/13 A2993 1070 70 1800 170/12 RMK AO2 TSNO
94908KDBQ DBQ20000607220510406/07/00 22:05:31  5-MIN KDBQ 080405Z AUTO 18012KT 10SM CLR 19/13 A2993 1070 67 1900 170/12 RMK AO2 TSNO
94908KDBQ DBQ20000607221010406/07/00 22:10:31  5-MIN KDBQ 080410Z AUTO 18012KT 10SM CLR 19/13 A2993 1070 70 1800 180/12 RMK AO2 TSNO
94908KDBQ DBQ20000607221510406/07/00 22:15:31  5-MIN KDBQ 080415Z AUTO 18011KT 10SM CLR 19/13 A2993 1070 70 1800 180/11 RMK AO2 TSNO
94908KDBQ DBQ20000607222010406/07/00 22:20:31  5-MIN KDBQ 080420Z AUTO 18012KT 10SM CLR 19/13 A2993 1070 70 1800 180/12 RMK AO2 TSNO
94908KDBQ DBQ20000607222510406/07/00 22:25:31  5-MIN KDBQ 080425Z AUTO 18011KT 10SM CLR 19/13 A2993 1070 70 1800 180/11 RMK AO2 TSNO
94908KDBQ DBQ20000607223010406/07/00 22:30:31  5-MIN KDBQ 080430Z AUTO 18010KT 10SM CLR 19/13 A2993 1070 70 1800 180/10 RMK AO2 TSNO
94908KDBQ DBQ20000607223510406/07/00 22:35:31  5-MIN KDBQ 080435Z AUTO 18011KT 10SM CLR 19/13 A2993 1070 70 1800 180/11 RMK AO2 TSNO
94908KDBQ DBQ20000607224010406/07/00 22:40:31  5-MIN KDBQ 080440Z AUTO 19010KT 10SM CLR 19/13 A2993 1070 70 1800 190/10 RMK AO2 TSNO
94908KDBQ DBQ20000607224510406/07/00 22:45:31  5-MIN KDBQ 080445Z AUTO 19011KT 10SM CLR 19/13 A2992 1080 70 1800 190/11 RMK AO2 TSNO
94908KDBQ DBQ20000607225012106/07/00 22:50:31  5-MIN KDBQ 080450Z AUTO 19011KT 10SM CLR 19/13 A2992 1080 70 1800 190/11 RMK AO2 SLP128 T01890133 TSNO
94908KDBQ DBQ20000607225512106/07/00 22:55:31  5-MIN KDBQ 080455Z AUTO 19011KT 10SM CLR 19/13 A2992 1080 70 1800 190/11 RMK AO2 SLP127 T01890133 TSNO
94908KDBQ DBQ20000607230010406/07/00 23:00:31  5-MIN KDBQ 080500Z AUTO 19012KT 10SM CLR 19/13 A2992 1080 70 1800 190/12 RMK AO2 TSNO
94908KDBQ DBQ20000607230510406/07/00 23:05:31  5-MIN KDBQ 080505Z AUTO 19013KT 10SM CLR 19/13 A2992 1080 70 1800 190/13 RMK AO2 TSNO
94908KDBQ DBQ20000607231010406/07/00 23:10:31  5-MIN KDBQ 080510Z AUTO 19013KT 10SM CLR 19/13 A2992 1080 70 1800 190/13 RMK AO2 TSNO
94908KDBQ DBQ20000607231510406/07/00 23:15:31  5-MIN KDBQ 080515Z AUTO 19013KT 10SM CLR 19/13 A2992 1080 70 1800 190/13 RMK AO2 TSNO
94908KDBQ DBQ20000607232010406/07/00 23:20:31  5-MIN KDBQ 080520Z AUTO 19013KT 10SM CLR 19/13 A2991 1080 70 1800 190/13 RMK AO2 TSNO
94908KDBQ DBQ20000607232510406/07/00 23:25:31  5-MIN KDBQ 080525Z AUTO 19013KT 10SM CLR 19/13 A2991 1090 70 1800 190/13 RMK AO2 TSNO
94908KDBQ DBQ20000607233010406/07/00 23:30:31  5-MIN KDBQ 080530Z AUTO 19013KT 10SM CLR 18/13 A2991 1090 72 1800 190/13 RMK AO2 TSNO
94908KDBQ DBQ20000607233510406/07/00 23:35:31  5-MIN KDBQ 080535Z AUTO 19013KT 10SM CLR 18/13 A2991 1090 72 1800 190/13 RMK AO2 TSNO
94908KDBQ DBQ20000607234010406/07/00 23:40:31  5-MIN KDBQ 080540Z AUTO 19013KT 10SM CLR 18/13 A2991 1090 72 1800 190/13 RMK AO2 TSNO
94908KDBQ DBQ20000607234510406/07/00 23:45:31  5-MIN KDBQ 080545Z AUTO 19012KT 10SM CLR 18/13 A2991 1090 72 1800 190/12 RMK AO2 TSNO
94908KDBQ DBQ20000607235014906/07/00 23:50:31  5-MIN KDBQ 080550Z AUTO 19013KT 10SM CLR 18/13 A2991 1090 72 1800 190/13 RMK AO2 SLP123 T01830133 10233 20183 402440106 55001 TSNO
94908KDBQ DBQ20000607235514906/07/00 23:55:31  5-MIN KDBQ 080555Z AUTO 19012KT 10SM CLR 18/13 A2991 1090 72 1800 190/12 RMK AO2 SLP123 T01830133 10233 20183 402440106 58007 TSNO
94908KDBQ DBQ20000608000010406/08/00 00:00:31  5-MIN KDBQ 080600Z AUTO 19012KT 10SM CLR 18/13 A2991 1090 72 1800 190/12 RMK AO2 TSNO
94908KDBQ DBQ20000608000510406/08/00 00:05:31  5-MIN KDBQ 080605Z AUTO 19012KT 10SM CLR 18/13 A2991 1090 72 1800 190/12 RMK AO2 TSNO
94908KDBQ DBQ20000608001010406/08/00 00:10:31  5-MIN KDBQ 080610Z AUTO 19012KT 10SM CLR 18/13 A2990 1090 72 1800 190/12 RMK AO2 TSNO
94908KDBQ DBQ20000608001510406/08/00 00:15:31  5-MIN KDBQ 080615Z AUTO 19011KT 10SM CLR 18/13 A2990 1090 72 1800 190/11 RMK AO2 TSNO
94908KDBQ DBQ20000608002010406/08/00 00:20:31  5-MIN KDBQ 080620Z AUTO 19012KT 10SM CLR 18/13 A2990 1090 72 1800 190/12 RMK AO2 TSNO
94908KDBQ DBQ20000608002510406/08/00 00:25:31  5-MIN KDBQ 080625Z AUTO 19012KT 10SM CLR 18/13 A2990 1090 72 1800 190/12 RMK AO2 TSNO
94908KDBQ DBQ20000608003010406/08/00 00:30:31  5-MIN KDBQ 080630Z AUTO 19012KT 10SM CLR 18/13 A2990 1090 75 1700 190/12 RMK AO2 TSNO
94908KDBQ DBQ20000608003510406/08/00 00:35:31  5-MIN KDBQ 080635Z AUTO 20011KT 10SM CLR 18/13 A2991 1090 75 1700 190/11 RMK AO2 TSNO
94908KDBQ DBQ20000608004010406/08/00 00:40:31  5-MIN KDBQ 080640Z AUTO 19011KT 10SM CLR 18/13 A2991 1090 75 1700 190/11 RMK AO2 TSNO
94908KDBQ DBQ20000608004510406/08/00 00:45:31  5-MIN KDBQ 080645Z AUTO 19011KT 10SM CLR 18/13 A2991 1090 75 1700 190/11 RMK AO2 TSNO
94908KDBQ DBQ20000608005012106/08/00 00:50:31  5-MIN KDBQ 080650Z AUTO 19012KT 10SM CLR 17/13 A2991 1090 78 1600 190/12 RMK AO2 SLP122 T01720133 TSNO
94908KDBQ DBQ20000608005512106/08/00 00:55:31  5-MIN KDBQ 080655Z AUTO 19011KT 10SM CLR 17/13 A2990 1090 78 1600 190/11 RMK AO2 SLP121 T01720133 TSNO
94908KDBQ DBQ20000608010010406/08/00 01:00:31  5-MIN KDBQ 080700Z AUTO 19011KT 10SM CLR 17/13 A2990 1090 78 1600 190/11 RMK AO2 TSNO
94908KDBQ DBQ20000608010510406/08/00 01:05:31  5-MIN KDBQ 080705Z AUTO 19011KT 10SM CLR 17/13 A2990 1100 78 1700 190/11 RMK AO2 TSNO
94908KDBQ DBQ20000608011010406/08/00 01:10:31  5-MIN KDBQ 080710Z AUTO 19010KT 10SM CLR 17/13 A2990 1100 78 1600 190/10 RMK AO2 TSNO
94908KDBQ DBQ20000608011510406/08/00 01:15:31  5-MIN KDBQ 080715Z AUTO 19011KT 10SM CLR 17/13 A2990 1100 78 1700 190/11 RMK AO2 TSNO
94908KDBQ DBQ20000608012010406/08/00 01:20:31  5-MIN KDBQ 080720Z AUTO 19010KT 10SM CLR 17/13 A2990 1100 78 1700 190/10 RMK AO2 TSNO
94908KDBQ DBQ20000608012510406/08/00 01:25:31  5-MIN KDBQ 080725Z AUTO 20011KT 10SM CLR 17/13 A2990 1100 78 1700 200/11 RMK AO2 TSNO
94908KDBQ DBQ20000608013010406/08/00 01:30:31  5-MIN KDBQ 080730Z AUTO 20010KT 10SM CLR 17/13 A2990 1100 78 1700 200/10 RMK AO2 TSNO
94908KDBQ DBQ20000608013510406/08/00 01:35:31  5-MIN KDBQ 080735Z AUTO 20010KT 10SM CLR 17/13 A2990 1100 78 1700 200/10 RMK AO2 TSNO
94908KDBQ DBQ20000608014010406/08/00 01:40:31  5-MIN KDBQ 080740Z AUTO 20011KT 10SM CLR 17/13 A2990 1100 78 1700 200/11 RMK AO2 TSNO
94908KDBQ DBQ20000608014510406/08/00 01:45:31  5-MIN KDBQ 080745Z AUTO 20010KT 10SM CLR 17/13 A2990 1100 78 1700 200/10 RMK AO2 TSNO
94908KDBQ DBQ20000608015012106/08/00 01:50:31  5-MIN KDBQ 080750Z AUTO 20011KT 10SM CLR 17/13 A2990 1100 78 1700 200/11 RMK AO2 SLP120 T01720133 TSNO
94908KDBQ DBQ20000608015512106/08/00 01:55:31  5-MIN KDBQ 080755Z AUTO 20011KT 10SM CLR 17/13 A2990 1100 78 1700 200/11 RMK AO2 SLP119 T01720133 TSNO
94908KDBQ DBQ20000608020010406/08/00 02:00:31  5-MIN KDBQ 080800Z AUTO 20011KT 10SM CLR 17/13 A2990 1100 78 1700 200/11 RMK AO2 TSNO
94908KDBQ DBQ20000608020510406/08/00 02:05:31  5-MIN KDBQ 080805Z AUTO 20011KT 10SM CLR 17/13 A2990 1100 78 1700 200/11 RMK AO2 TSNO
94908KDBQ DBQ20000608021010406/08/00 02:10:31  5-MIN KDBQ 080810Z AUTO 20010KT 10SM CLR 17/13 A2990 1100 78 1700 200/10 RMK AO2 TSNO
94908KDBQ DBQ20000608021510406/08/00 02:15:31  5-MIN KDBQ 080815Z AUTO 20010KT 10SM CLR 17/13 A2990 1100 78 1700 200/10 RMK AO2 TSNO
94908KDBQ DBQ20000608022010406/08/00 02:20:31  5-MIN KDBQ 080820Z AUTO 20011KT 10SM CLR 17/13 A2990 1100 75 1700 200/11 RMK AO2 TSNO
94908KDBQ DBQ20000608022510406/08/00 02:25:31  5-MIN KDBQ 080825Z AUTO 20010KT 10SM CLR 17/13 A2990 1100 75 1700 200/10 RMK AO2 TSNO
94908KDBQ DBQ20000608023010406/08/00 02:30:31  5-MIN KDBQ 080830Z AUTO 19011KT 10SM CLR 17/13 A2990 1100 75 1700 190/11 RMK AO2 TSNO
94908KDBQ DBQ20000608023510406/08/00 02:35:31  5-MIN KDBQ 080835Z AUTO 20010KT 10SM CLR 17/13 A2989 1100 75 1700 200/10 RMK AO2 TSNO
94908KDBQ DBQ20000608024010406/08/00 02:40:31  5-MIN KDBQ 080840Z AUTO 20011KT 10SM CLR 17/13 A2989 1100 75 1700 200/11 RMK AO2 TSNO
94908KDBQ DBQ20000608024510406/08/00 02:45:31  5-MIN KDBQ 080845Z AUTO 20011KT 10SM CLR 17/13 A2989 1100 78 1700 200/11 RMK AO2 TSNO
94908KDBQ DBQ20000608025012706/08/00 02:50:31  5-MIN KDBQ 080850Z AUTO 20010KT 10SM CLR 17/13 A2989 1100 75 1700 200/10 RMK AO2 SLP118 T01720128 58007 TSNO
94908KDBQ DBQ20000608025512706/08/00 02:55:31  5-MIN KDBQ 080855Z AUTO 20011KT 10SM CLR 18/13 A2989 1100 72 1700 200/11 RMK AO2 SLP118 T01780128 57005 TSNO
94908KDBQ DBQ20000608030010406/08/00 03:00:31  5-MIN KDBQ 080900Z AUTO 20011KT 10SM CLR 18/13 A2989 1100 72 1700 200/11 RMK AO2 TSNO
94908KDBQ DBQ20000608030510406/08/00 03:05:31  5-MIN KDBQ 080905Z AUTO 20010KT 10SM CLR 17/13 A2989 1100 78 1700 200/10 RMK AO2 TSNO
94908KDBQ DBQ20000608031010406/08/00 03:10:31  5-MIN KDBQ 080910Z AUTO 20011KT 10SM CLR 17/13 A2989 1100 78 1700 200/11 RMK AO2 TSNO
94908KDBQ DBQ20000608031510406/08/00 03:15:31  5-MIN KDBQ 080915Z AUTO 20010KT 10SM CLR 17/13 A2989 1100 78 1700 200/10 RMK AO2 TSNO
94908KDBQ DBQ20000608032010406/08/00 03:20:31  5-MIN KDBQ 080920Z AUTO 20011KT 10SM CLR 17/13 A2989 1100 78 1700 200/11 RMK AO2 TSNO
94908KDBQ DBQ20000608032510406/08/00 03:25:31  5-MIN KDBQ 080925Z AUTO 20010KT 10SM CLR 17/13 A2989 1100 78 1700 200/10 RMK AO2 TSNO
94908KDBQ DBQ20000608033010406/08/00 03:30:31  5-MIN KDBQ 080930Z AUTO 20011KT 10SM CLR 17/13 A2989 1100 78 1700 200/11 RMK AO2 TSNO
94908KDBQ DBQ20000608033510406/08/00 03:35:31  5-MIN KDBQ 080935Z AUTO 20011KT 10SM CLR 17/13 A2989 1100 78 1700 200/11 RMK AO2 TSNO
94908KDBQ DBQ20000608034010406/08/00 03:40:31  5-MIN KDBQ 080940Z AUTO 20010KT 10SM CLR 17/13 A2989 1110 78 1700 200/10 RMK AO2 TSNO
94908KDBQ DBQ20000608034510406/08/00 03:45:31  5-MIN KDBQ 080945Z AUTO 20011KT 10SM CLR 17/13 A2989 1110 78 1700 200/11 RMK AO2 TSNO
94908KDBQ DBQ20000608035012106/08/00 03:50:31  5-MIN KDBQ 080950Z AUTO 20011KT 10SM CLR 17/13 A2989 1100 78 1700 200/11 RMK AO2 SLP118 T01720133 TSNO
94908KDBQ DBQ20000608035512106/08/00 03:55:31  5-MIN KDBQ 080955Z AUTO 20011KT 10SM CLR 17/13 A2989 1100 78 1700 200/11 RMK AO2 SLP118 T01720133 TSNO
94908KDBQ DBQ20000608040010406/08/00 04:00:31  5-MIN KDBQ 081000Z AUTO 21011KT 10SM CLR 17/13 A2990 1100 78 1700 200/11 RMK AO2 TSNO
94908KDBQ DBQ20000608040510406/08/00 04:05:31  5-MIN KDBQ 081005Z AUTO 20012KT 10SM CLR 17/13 A2990 1100 78 1700 200/12 RMK AO2 TSNO
94908KDBQ DBQ20000608041010406/08/00 04:10:31  5-MIN KDBQ 081010Z AUTO 21011KT 10SM CLR 17/13 A2990 1100 78 1700 200/11 RMK AO2 TSNO
94908KDBQ DBQ20000608041510406/08/00 04:15:31  5-MIN KDBQ 081015Z AUTO 21010KT 10SM CLR 17/13 A2990 1100 80 1600 200/10 RMK AO2 TSNO
94908KDBQ DBQ20000608042010406/08/00 04:20:31  5-MIN KDBQ 081020Z AUTO 21010KT 10SM CLR 17/13 A2990 1100 80 1600 210/10 RMK AO2 TSNO
94908KDBQ DBQ20000608042510406/08/00 04:25:31  5-MIN KDBQ 081025Z AUTO 20009KT 10SM CLR 17/13 A2990 1100 80 1600 200/09 RMK AO2 TSNO
94908KDBQ DBQ20000608043010406/08/00 04:30:31  5-MIN KDBQ 081030Z AUTO 21010KT 10SM CLR 17/13 A2990 1100 80 1600 210/10 RMK AO2 TSNO
94908KDBQ DBQ20000608043510406/08/00 04:35:31  5-MIN KDBQ 081035Z AUTO 21010KT 10SM CLR 17/13 A2990 1090 80 1600 200/10 RMK AO2 TSNO
94908KDBQ DBQ20000608044010406/08/00 04:40:31  5-MIN KDBQ 081040Z AUTO 21009KT 10SM CLR 17/13 A2990 1090 80 1600 210/09 RMK AO2 TSNO
94908KDBQ DBQ20000608044509406/08/00 04:45:31  5-MIN KDBQ 081045Z 21009KT 10SM CLR 17/13 A2991 1090 80 1600 200/09 RMK AO2
94908KDBQ DBQ20000608045011106/08/00 04:50:31  5-MIN KDBQ 081050Z 21009KT 10SM CLR 17/13 A2991 1090 80 1600 200/09 RMK AO2 SLP122 T01670133
94908KDBQ DBQ20000608045511106/08/00 04:55:31  5-MIN KDBQ 081055Z 21009KT 10SM CLR 17/13 A2991 1090 80 1600 200/09 RMK AO2 SLP123 T01670133
94908KDBQ DBQ20000608050009406/08/00 05:00:31  5-MIN KDBQ 081100Z 20009KT 10SM CLR 17/13 A2991 1090 80 1600 200/09 RMK AO2
94908KDBQ DBQ20000608050509406/08/00 05:05:31  5-MIN KDBQ 081105Z 20010KT 10SM CLR 17/13 A2991 1090 80 1600 200/10 RMK AO2
94908KDBQ DBQ20000608051009406/08/00 05:10:31  5-MIN KDBQ 081110Z 21010KT 10SM CLR 17/13 A2991 1090 80 1600 200/10 RMK AO2
94908KDBQ DBQ20000608051509406/08/00 05:15:31  5-MIN KDBQ 081115Z 20010KT 10SM CLR 17/13 A2991 1090 80 1600 200/10 RMK AO2
94908KDBQ DBQ20000608052009406/08/00 05:20:31  5-MIN KDBQ 081120Z 21010KT 10SM CLR 17/13 A2991 1090 78 1600 210/10 RMK AO2
94908KDBQ DBQ20000608052509406/08/00 05:25:31  5-MIN KDBQ 081125Z 21010KT 10SM CLR 17/13 A2991 1090 78 1600 210/10 RMK AO2
94908KDBQ DBQ20000608053009406/08/00 05:30:31  5-MIN KDBQ 081130Z 21010KT 10SM CLR 17/13 A2991 1090 78 1600 210/10 RMK AO2
94908KDBQ DBQ20000608053509406/08/00 05:35:31  5-MIN KDBQ 081135Z 21010KT 10SM CLR 17/13 A2991 1090 78 1600 210/10 RMK AO2
94908KDBQ DBQ20000608054009406/08/00 05:40:31  5-MIN KDBQ 081140Z 21010KT 10SM CLR 18/13 A2991 1090 75 1700 210/10 RMK AO2
94908KDBQ DBQ20000608054509406/08/00 05:45:31  5-MIN KDBQ 081145Z 20011KT 10SM CLR 18/14 A2991 1090 78 1700 200/11 RMK AO2
94908KDBQ DBQ20000608055012906/08/00 05:50:31  5-MIN KDBQ 081150Z 21010KT 10SM CLR 18/14 A2991 1090 78 1700 210/10 RMK AO2 SLP124 T01780139 10183 20167 57005
94908KDBQ DBQ20000608055512906/08/00 05:55:31  5-MIN KDBQ 081155Z 21011KT 10SM CLR 18/14 A2991 1080 78 1700 210/11 RMK AO2 SLP125 T01780139 10183 20167 53007
94908KDBQ DBQ20000608060009406/08/00 06:00:31  5-MIN KDBQ 081200Z 21010KT 10SM CLR 18/14 A2991 1080 78 1700 210/10 RMK AO2
94908KDBQ DBQ20000608060509406/08/00 06:05:31  5-MIN KDBQ 081205Z 21010KT 10SM CLR 18/14 A2991 1090 75 1800 210/10 RMK AO2
94908KDBQ DBQ20000608061009406/08/00 06:10:31  5-MIN KDBQ 081210Z 21010KT 10SM CLR 18/14 A2991 1090 75 1800 210/10 RMK AO2
94908KDBQ DBQ20000608061509406/08/00 06:15:31  5-MIN KDBQ 081215Z 21010KT 10SM CLR 18/14 A2991 1080 75 1800 210/10 RMK AO2
94908KDBQ DBQ20000608062009406/08/00 06:20:31  5-MIN KDBQ 081220Z 21011KT 10SM CLR 18/14 A2992 1080 75 1800 210/11 RMK AO2
94908KDBQ DBQ20000608062509406/08/00 06:25:31  5-MIN KDBQ 081225Z 21010KT 10SM CLR 19/14 A2992 1080 72 1800 210/10 RMK AO2
94908KDBQ DBQ20000608063009406/08/00 06:30:31  5-MIN KDBQ 081230Z 21010KT 10SM CLR 19/14 A2992 1080 72 1800 210/10 RMK AO2
94908KDBQ DBQ20000608063509406/08/00 06:35:31  5-MIN KDBQ 081235Z 21012KT 10SM CLR 19/14 A2992 1080 75 1800 210/12 RMK AO2
94908KDBQ DBQ20000608064009406/08/00 06:40:31  5-MIN KDBQ 081240Z 21011KT 10SM CLR 19/14 A2992 1080 72 1900 210/11 RMK AO2
94908KDBQ DBQ20000608064509406/08/00 06:45:31  5-MIN KDBQ 081245Z 20008KT 10SM CLR 19/14 A2992 1080 72 1900 200/08 RMK AO2
94908KDBQ DBQ20000608065011106/08/00 06:50:31  5-MIN KDBQ 081250Z 21011KT 10SM CLR 19/14 A2992 1080 72 1900 210/11 RMK AO2 SLP126 T01940144
94908KDBQ DBQ20000608065511106/08/00 06:55:31  5-MIN KDBQ 081255Z 21011KT 10SM CLR 20/14 A2992 1080 70 2000 210/11 RMK AO2 SLP126 T02000144
94908KDBQ DBQ20000608070009406/08/00 07:00:31  5-MIN KDBQ 081300Z 21011KT 10SM CLR 20/14 A2992 1080 70 2000 210/11 RMK AO2
94908KDBQ DBQ20000608070509406/08/00 07:05:31  5-MIN KDBQ 081305Z 21010KT 10SM CLR 20/14 A2992 1080 70 2000 210/10 RMK AO2
94908KDBQ DBQ20000608071009406/08/00 07:10:31  5-MIN KDBQ 081310Z 21012KT 10SM CLR 20/14 A2992 1080 70 2000 210/12 RMK AO2
94908KDBQ DBQ20000608071509406/08/00 07:15:31  5-MIN KDBQ 081315Z 22009KT 10SM CLR 21/14 A2992 1080 67 2000 220/09 RMK AO2
94908KDBQ DBQ20000608072009406/08/00 07:20:31  5-MIN KDBQ 081320Z 22010KT 10SM CLR 21/15 A2992 1080 70 2000 220/10 RMK AO2
94908KDBQ DBQ20000608072509406/08/00 07:25:31  5-MIN KDBQ 081325Z 22010KT 10SM CLR 21/14 A2992 1080 67 2000 210/10 RMK AO2
94908KDBQ DBQ20000608073009406/08/00 07:30:31  5-MIN KDBQ 081330Z 22012KT 10SM CLR 21/14 A2992 1080 65 2100 220/12 RMK AO2
94908KDBQ DBQ20000608073509406/08/00 07:35:31  5-MIN KDBQ 081335Z 22010KT 10SM CLR 21/15 A2992 1080 68 2100 220/10 RMK AO2
94908KDBQ DBQ20000612011011806/12/00 01:10:31  5-MIN KDBQ 120710Z AUTO 06010KT 5SM -RA BR OVC004 18/17 A3006 950 96 1500 060/10 RMK AO2 P0000 TSNO
94908KDBQ DBQ20000612011513006/12/00 01:15:31  5-MIN KDBQ 120715Z AUTO 06011KT 6SM -RA BR OVC006 18/17 A3006 950 96 1500 060/11 RMK AO2 CIG 004V009 P0000 TSNO
94908KDBQ DBQ20000612012013006/12/00 01:20:31  5-MIN KDBQ 120720Z AUTO 06012KT 6SM -RA BR OVC006 18/17 A3006 950 96 1500 060/12 RMK AO2 CIG 005V009 P0000 TSNO
94908KDBQ DBQ20000612012512906/12/00 01:25:31  5-MIN KDBQ 120725Z AUTO 05008KT 7SM OVC006 17/17 A3006 950 96 1500 050/08 RMK AO2 RAE22 CIG 005V009 P0000 TSNO
94908KDBQ DBQ20000612013011706/12/00 01:30:31  5-MIN KDBQ 120730Z AUTO 05009KT 7SM OVC006 17/17 A3006 950 96 1500 050/09 RMK AO2 RAE22 P0000 TSNO
94908KDBQ DBQ20000612013511706/12/00 01:35:31  5-MIN KDBQ 120735Z AUTO 06010KT 7SM OVC006 17/17 A3007 940 96 1500 060/10 RMK AO2 RAE22 P0000 TSNO
94908KDBQ DBQ20000612014011706/12/00 01:40:31  5-MIN KDBQ 120740Z AUTO 06010KT 7SM OVC008 17/17 A3006 950 96 1500 060/10 RMK AO2 RAE22 P0000 TSNO
94908KDBQ DBQ20000612014511706/12/00 01:45:31  5-MIN KDBQ 120745Z AUTO 07010KT 8SM OVC008 17/16 A3006 950 93 1500 060/10 RMK AO2 RAE22 P0000 TSNO
94908KDBQ DBQ20000612015013406/12/00 01:50:31  5-MIN KDBQ 120750Z AUTO 06010KT 8SM OVC008 17/17 A3005 950 96 1500 060/10 RMK AO2 RAE22 SLP172 P0000 T01720167 TSNO
94908KDBQ DBQ20000612015513406/12/00 01:55:31  5-MIN KDBQ 120755Z AUTO 06010KT 7SM OVC008 17/16 A3005 960 93 1500 060/10 RMK AO2 RAE22 SLP171 P0000 T01720161 TSNO
94908KDBQ DBQ20000612020012106/12/00 02:00:31  5-MIN KDBQ 120800Z AUTO 05010KT 7SM -RA OVC008 17/16 A3005 950 93 1500 050/10 RMK AO2 RAB00 P0000 TSNO
94908KDBQ DBQ20000612020513106/12/00 02:05:31  5-MIN KDBQ 120805Z AUTO 05012KT 6SM -RA BR BKN008 OVC018 17/16 A3005 950 96 1400 050/12 RMK AO2 RAB00 P0000 TSNO
94908KDBQ DBQ20000612021013006/12/00 02:10:31  5-MIN KDBQ 120810Z AUTO 05010KT 5SM RA BR BKN008 OVC018 17/16 A3005 960 96 1400 050/10 RMK AO2 RAB00 P0001 TSNO
94908KDBQ DBQ20000612021512306/12/00 02:15:31  5-MIN KDBQ 120815Z AUTO 05011KT 5SM RA BR OVC008 17/16 A3005 950 96 1400 040/11 RMK AO2 RAB00 P0002 TSNO
94908KDBQ DBQ20000612022012406/12/00 02:20:31  5-MIN KDBQ 120820Z AUTO 05013KT 6SM -RA BR OVC008 16/16 A3005 960 96 1300 050/13 RMK AO2 RAB00 P0002 TSNO
94908KDBQ DBQ20000612022512106/12/00 02:25:31  5-MIN KDBQ 120825Z AUTO 06012KT 7SM -RA OVC008 16/16 A3005 960 96 1300 060/12 RMK AO2 RAB00 P0002 TSNO
94908KDBQ DBQ20000612023012106/12/00 02:30:31  5-MIN KDBQ 120830Z AUTO 05011KT 8SM -RA OVC008 16/15 A3005 950 93 1300 050/11 RMK AO2 RAB00 P0002 TSNO
94908KDBQ DBQ20000612023512106/12/00 02:35:31  5-MIN KDBQ 120835Z AUTO 05011KT 8SM -RA OVC008 16/15 A3006 950 93 1300 050/11 RMK AO2 RAB00 P0002 TSNO
94908KDBQ DBQ20000612024012106/12/00 02:40:31  5-MIN KDBQ 120840Z AUTO 06011KT 7SM -RA OVC008 16/16 A3005 960 96 1300 060/11 RMK AO2 RAB00 P0003 TSNO
94908KDBQ DBQ20000612024513606/12/00 02:45:31  5-MIN KDBQ 120845Z AUTO 06010KT 6SM -RA BR OVC006 16/16 A3005 960 96 1400 060/10 RMK AO2 RAB00 CIG 004V010 P0003 TSNO
94908KDBQ DBQ20000612025016506/12/00 02:50:31  5-MIN KDBQ 120850Z AUTO 07014KT 6SM -RA BR OVC006 16/15 A3005 960 96 1300 070/14 RMK AO2 RAB00 CIG 004V010 SLP171 P0004 60004 T01560150 51003 TSNO
94908KDBQ DBQ20000612025516206/12/00 02:55:31  5-MIN KDBQ 120855Z AUTO 06012KT 7SM -RA OVC006 16/15 A3005 960 96 1300 060/12 RMK AO2 RAB00 CIG 004V008 SLP171 P0004 60004 T01560150 58002 TSNO
94908KDBQ DBQ20000612030011506/12/00 03:00:31  5-MIN KDBQ 120900Z AUTO 07012KT 7SM -RA OVC006 16/15 A3005 950 96 1300 070/12 RMK AO2 P0000 TSNO
94908KDBQ DBQ20000612030511506/12/00 03:05:31  5-MIN KDBQ 120905Z AUTO 06013KT 7SM -RA OVC006 16/14 A3005 960 93 1300 060/13 RMK AO2 P0000 TSNO
94908KDBQ DBQ20000612031012706/12/00 03:10:31  5-MIN KDBQ 120910Z AUTO 06012KT 7SM -RA OVC006 16/14 A3005 950 93 1300 060/12 RMK AO2 CIG 004V009 P0000 TSNO
94908KDBQ DBQ20000612031513006/12/00 03:15:31  5-MIN KDBQ 120915Z AUTO 06010KT 6SM -RA BR OVC008 16/14 A3006 950 93 1300 060/10 RMK AO2 CIG 004V010 P0001 TSNO
94908KDBQ DBQ20000612032013006/12/00 03:20:31  5-MIN KDBQ 120920Z AUTO 06010KT 6SM -RA BR OVC008 16/14 A3005 960 93 1300 060/10 RMK AO2 CIG 006V010 P0001 TSNO
94908KDBQ DBQ20000612032512906/12/00 03:25:31  5-MIN KDBQ 120925Z AUTO 06010KT 5SM RA BR OVC008 15/14 A3006 950 96 1200 050/10 RMK AO2 CIG 005V010 P0003 TSNO
94908KDBQ DBQ20000612033013606/12/00 03:30:31  5-MIN KDBQ 120930Z AUTO 05009KT 4SM RA BR BKN008 OVC016 15/14 A3005 960 96 1200 050/09 RMK AO2 CIG 004V010 P0004 TSNO
94908KDBQ DBQ20000612033513106/12/00 03:35:31  5-MIN KDBQ 120935Z AUTO 04012KT 4SM RA BR SCT004 BKN008 OVC016 15/14 A3005 960 96 1200 040/12 RMK AO2 P0005 TSNO
94908KDBQ DBQ20000612034013606/12/00 03:40:31  5-MIN KDBQ 120940Z AUTO 05012KT 4SM RA BR BKN004 OVC008 15/14 A3005 960 96 1200 050/12 RMK AO2 CIG 003V007 P0006 TSNO
94908KDBQ DBQ20000612034514306/12/00 03:45:31  5-MIN KDBQ 120945Z AUTO 05012KT 4SM RA BR BKN004 BKN008 OVC017 15/14 A3005 960 96 1200 050/12 RMK AO2 CIG 003V006 P0007 TSNO
94908KDBQ DBQ20000612035016206/12/00 03:50:31  5-MIN KDBQ 120950Z AUTO 06012KT 4SM +RA BR BKN004 BKN008 OVC017 14/14 A3005 960 100 1200 060/12 RMK AO2 CIG 003V006 SLP172 P0008 T01440144 TSNO
94908KDBQ DBQ20000612035515306/12/00 03:55:31  5-MIN KDBQ 120955Z AUTO 05013KT 4SM RA BR BKN004 OVC025 14/14 A3005 960 96 1200 050/13 RMK AO2 CIG 003V009 SLP171 P0010 T01440139 TSNO
94908KDBQ DBQ20000612040012906/12/00 04:00:31  5-MIN KDBQ 121000Z AUTO 05013KT 5SM RA BR OVC004 14/14 A3005 960 96 1200 050/13 RMK AO2 CIG 003V008 P0000 TSNO
94908KDBQ DBQ20000612040512906/12/00 04:05:31  5-MIN KDBQ 121005Z AUTO 04013KT 5SM RA BR OVC004 14/14 A3005 960 96 1200 040/13 RMK AO2 CIG 003V009 P0001 TSNO
94908KDBQ DBQ20000612041012906/12/00 04:10:31  5-MIN KDBQ 121010Z AUTO 05011KT 5SM RA BR OVC004 14/14 A3005 960 96 1200 050/11 RMK AO2 CIG 004V009 P0002 TSNO
94908KDBQ DBQ20000612041513006/12/00 04:15:31  5-MIN KDBQ 121015Z AUTO 05012KT 6SM -RA BR OVC004 14/14 A3006 950 96 1100 050/12 RMK AO2 CIG 003V009 P0003 TSNO
94908KDBQ DBQ20000612042013006/12/00 04:20:31  5-MIN KDBQ 121020Z AUTO 06014KT 6SM -RA BR OVC004 14/14 A3006 950 96 1100 060/14 RMK AO2 CIG 003V009 P0003 TSNO
94908KDBQ DBQ20000612042512706/12/00 04:25:31  5-MIN KDBQ 121025Z AUTO 05012KT 7SM -RA OVC004 14/14 A3006 950 96 1100 050/12 RMK AO2 CIG 003V009 P0003 TSNO
94908KDBQ DBQ20000612043012206/12/00 04:30:31  5-MIN KDBQ 121030Z AUTO 04011KT 7SM -RA BKN004 OVC008 14/14 A3006 950 96 1100 040/11 RMK AO2 P0004 TSNO
94908KDBQ DBQ20000612043512706/12/00 04:35:31  5-MIN KDBQ 121035Z AUTO 03012KT 8SM -RA OVC004 14/14 A3006 950 96 1100 030/12 RMK AO2 CIG 003V007 P0004 TSNO
94908KDBQ DBQ20000612044012106/12/00 04:40:31  5-MIN KDBQ 121040Z AUTO 04015G19KT 8SM -RA OVC004 14/14 A3005 950 96 1200 040/15G19 RMK AO2 P0004 TSNO
94908KDBQ DBQ20000612044512106/12/00 04:45:31  5-MIN KDBQ 121045Z AUTO 05014G19KT 8SM -RA OVC004 14/14 A3005 960 96 1200 040/14G19 RMK AO2 P0005 TSNO
94908KDBQ DBQ20000612045013406/12/00 04:50:31  5-MIN KDBQ 121050Z 04012KT 7SM -RA OVC004 14/14 A3005 960 96 1200 040/12 RMK AO2 CIG 003V009 SLP172 P0005 T01440139
94908KDBQ DBQ20000612045513406/12/00 04:55:31  5-MIN KDBQ 121055Z 04011KT 7SM -RA OVC004 14/14 A3005 960 96 1200 040/11 RMK AO2 CIG 003V009 SLP170 P0005 T01440139
94908KDBQ DBQ20000612050012606/12/00 05:00:31  5-MIN KDBQ 121100Z 04014G18KT 5SM -RA BR OVC004 14/14 A3005 960 96 1200 040/14G18 RMK AO2 CIG 003V008 P0000
94908KDBQ DBQ20000612050512106/12/00 05:05:31  5-MIN KDBQ 121105Z 04013KT 5SM -RA BR OVC004 14/14 A3005 960 100 1100 040/13 RMK AO2 CIG 003V008 P0000
94908KDBQ DBQ20000612051010606/12/00 05:10:31  5-MIN KDBQ 121110Z 04012KT 7SM -RA OVC004 14/14 A3005 960 100 1100 030/12 RMK AO2 P0000
94908KDBQ DBQ20000612051510606/12/00 05:15:31  5-MIN KDBQ 121115Z 04010KT 8SM -RA OVC004 14/14 A3005 960 100 1100 030/10 RMK AO2 P0000
94908KDBQ DBQ20000612052010506/12/00 05:20:31  5-MIN KDBQ 121120Z 04013KT 9SM -RA OVC004 14/13 A3006 950 96 1100 040/13 RMK AO2 P0000
94908KDBQ DBQ20000612052510706/12/00 05:25:31  5-MIN KDBQ 121125Z 04012KT 9SM OVC004 14/13 A3006 950 96 1100 040/12 RMK AO2 RAE23 P0000
94908KDBQ DBQ20000612053011106/12/00 05:30:31  5-MIN KDBQ 121130Z 05013G19KT 7SM -RA OVC004 14/13 A3006 950 96 1100 050/13G19 RMK AO2 P0001
94908KDBQ DBQ20000612053512506/12/00 05:35:31  5-MIN KDBQ 121135Z 05012G19KT 5SM RA BR OVC004 14/13 A3006 950 96 1100 050/12G19 RMK AO2 CIG 003V006 P0002
94908KDBQ DBQ20000612054012006/12/00 05:40:31  5-MIN KDBQ 121140Z 03010KT 4SM RA BR OVC004 14/14 A3006 950 100 1100 030/10 RMK AO2 CIG 003V007 P0003
94908KDBQ DBQ20000612054512506/12/00 05:45:31  5-MIN KDBQ 121145Z 03011KT 2 1/2SM +RA BR OVC004 14/14 A3006 950 100 1100 020/11 RMK AO2 CIG 002V007 P0005
94908KDBQ DBQ20000612055016706/12/00 05:50:31  5-MIN KDBQ 121150Z 03012KT 2SM RA BR OVC004 14/14 A3006 950 100 1100 030/12 RMK AO2 CIG 002V007 SLP175 P0007 60026 70035 T01390139 10200 20139 58002
94908KDBQ DBQ20000612055517206/12/00 05:55:31  5-MIN KDBQ 121155Z 04011KT 1 3/4SM +RA BR OVC004 14/14 A3006 950 100 1100 040/11 RMK AO2 CIG 002V008 SLP175 P0011 60030 70039 T01390139 10200 20139 53002
94908KDBQ DBQ20000612060012506/12/00 06:00:31  5-MIN KDBQ 121200Z 04010KT 1 1/2SM +RA BR OVC004 14/14 A3006 950 100 1100 040/10 RMK AO2 CIG 002V008 P0002
94908KDBQ DBQ20000612060511906/12/00 06:05:31  5-MIN KDBQ 121205Z 04011KT 2SM RA BR OVC004 14/13 A3006 950 96 1100 040/11 RMK AO2 CIG 002V008 P0003
94908KDBQ DBQ20000612061012306/12/00 06:10:31  5-MIN KDBQ 121210Z 04014KT 1 3/4SM RA BR OVC004 14/13 A3006 950 96 1100 040/14 RMK AO2 CIG 002V008 P0004
94908KDBQ DBQ20000612061511206/12/00 06:15:31  5-MIN KDBQ 121215Z 05013KT 1 3/4SM +RA BR OVC004 14/13 A3006 950 96 1100 050/13 RMK AO2 P0006
94908KDBQ DBQ20000612062011106/12/00 06:20:31  5-MIN KDBQ 121220Z 05015KT 1 3/4SM RA BR OVC004 14/13 A3006 950 96 1100 050/15 RMK AO2 P0007
94908KDBQ DBQ20000612062511206/12/00 06:25:31  5-MIN KDBQ 121225Z 05013KT 1 3/4SM +RA BR OVC004 14/13 A3006 950 96 1100 050/13 RMK AO2 P0010
94908KDBQ DBQ20000612063011206/12/00 06:30:31  5-MIN KDBQ 121230Z 05012KT 1 3/4SM +RA BR OVC004 14/13 A3006 950 96 1100 050/12 RMK AO2 P0012
94908KDBQ DBQ20000612063511106/12/00 06:35:31  5-MIN KDBQ 121235Z 05009KT 1 3/4SM RA BR OVC004 14/13 A3006 950 96 1100 050/09 RMK AO2 P0013
94908KDBQ DBQ20000612064011206/12/00 06:40:31  5-MIN KDBQ 121240Z 06009KT 1 3/4SM -RA BR OVC004 14/13 A3007 940 96 1100 060/09 RMK AO2 P0013
94908KDBQ DBQ20000612064510606/12/00 06:45:31  5-MIN KDBQ 121245Z 06007KT 7SM -RA OVC004 14/14 A3007 940 100 1100 060/07 RMK AO2 P0014
94908KDBQ DBQ20000612065013406/12/00 06:50:31  5-MIN KDBQ 121250Z 06008KT 8SM -RA OVC004 14/13 A3007 940 96 1100 060/08 RMK AO2 CIG 003V007 SLP180 P0014 T01390133
94908KDBQ DBQ20000612065512506/12/00 06:55:31  5-MIN KDBQ 121255Z 06009KT 6SM -RA BR OVC004 14/13 A3008 930 96 1100 060/09 RMK AO2 SLP181 P0015 T01390133
94908KDBQ DBQ20000612070011306/12/00 07:00:31  5-MIN KDBQ 121300Z 06013G16KT 5SM RA BR OVC004 14/13 A3007 940 96 1100 060/13G16 RMK AO2 P0000
94908KDBQ DBQ20000612070511906/12/00 07:05:31  5-MIN KDBQ 121305Z 05011KT 4SM RA BR OVC004 14/13 A3007 940 96 1100 050/11 RMK AO2 CIG 003V008 P0002
94908KDBQ DBQ20000612071012406/12/00 07:10:31  5-MIN KDBQ 121310Z 04009KT 2 1/2SM +RA BR OVC004 14/13 A3007 940 96 1100 040/09 RMK AO2 CIG 003V008 P0004
94908KDBQ DBQ20000612071512006/12/00 07:15:31  5-MIN KDBQ 121315Z 05008KT 2SM +RA BR OVC004 14/13 A3007 940 96 1100 050/08 RMK AO2 CIG 002V008 P0006
94908KDBQ DBQ20000612072012406/12/00 07:20:31  5-MIN KDBQ 121320Z 05009KT 1 3/4SM +RA BR OVC004 14/13 A3007 940 96 1100 050/09 RMK AO2 CIG 002V008 P0009
94908KDBQ DBQ20000612072512406/12/00 07:25:31  5-MIN KDBQ 121325Z 04011KT 1 3/4SM +RA BR OVC006 14/13 A3007 940 96 1100 040/11 RMK AO2 CIG 002V010 P0011
94908KDBQ DBQ20000612073012706/12/00 07:30:31  5-MIN KDBQ 121330Z 04011KT 2SM +RA BR BKN004 OVC009 14/13 A3007 940 96 1100 040/11 RMK AO2 CIG 002V006 P0014
94908KDBQ DBQ20000612073512106/12/00 07:35:31  5-MIN KDBQ 121335Z 03010KT 2SM +RA BR OVC004 13/13 A3006 950 100 1000 030/10 RMK AO2 CIG 002V009 P0016
94908KDBQ DBQ20000612074012006/12/00 07:40:31  5-MIN KDBQ 121340Z 04010KT 2SM RA BR OVC004 13/13 A3006 950 100 1000 030/10 RMK AO2 CIG 002V010 P0017
94908KDBQ DBQ20000612074512106/12/00 07:45:31  5-MIN KDBQ 121345Z 04010KT 2SM -RA BR OVC004 13/13 A3007 940 100 1000 040/10 RMK AO2 CIG 002V006 P0017
94908KDBQ DBQ20000612075013706/12/00 07:50:31  5-MIN KDBQ 121350Z 05012KT 2SM -RA BR OVC004 14/13 A3006 950 96 1100 040/12 RMK AO2 CIG 002V009 SLP178 P0018 T01390133
94908KDBQ DBQ20000612075514406/12/00 07:55:31  5-MIN KDBQ 121355Z 04012KT 2SM -RA BR BKN004 OVC010 14/13 A3006 950 96 1100 040/12 RMK AO2 CIG 002V007 SLP177 P0018 T01390133
94908KDBQ DBQ20000612080012006/12/00 08:00:31  5-MIN KDBQ 121400Z 05012KT 6SM -RA BR OVC004 14/13 A3006 950 96 1100 050/12 RMK AO2 CIG 002V007 P0000
94908KDBQ DBQ20000612080512006/12/00 08:05:31  5-MIN KDBQ 121405Z 04012KT 6SM -RA BR OVC004 13/13 A3007 940 96 1000 040/12 RMK AO2 CIG 002V007 P0000
94908KDBQ DBQ20000612081011706/12/00 08:10:31  5-MIN KDBQ 121410Z 04013KT 7SM -RA OVC004 14/13 A3007 940 96 1100 040/13 RMK AO2 CIG 003V007 P0000
94908KDBQ DBQ20000612081511706/12/00 08:15:31  5-MIN KDBQ 121415Z 04014KT 9SM -RA OVC004 14/13 A3006 950 96 1100 040/14 RMK AO2 CIG 003V011 P0001
94908KDBQ DBQ20000612082011806/12/00 08:20:31  5-MIN KDBQ 121420Z 04012KT 10SM -RA OVC004 14/13 A3007 940 93 1100 040/12 RMK AO2 CIG 003V007 P0001
94908KDBQ DBQ20000612082512006/12/00 08:25:31  5-MIN KDBQ 121425Z 05014KT 10SM OVC004 14/13 A3006 950 96 1100 050/14 RMK AO2 RAE22 CIG 004V009 P0001
94908KDBQ DBQ20000612083010806/12/00 08:30:31  5-MIN KDBQ 121430Z 05012KT 10SM OVC004 14/13 A3006 950 96 1100 050/12 RMK AO2 RAE22 P0001
94908KDBQ DBQ20000612083510806/12/00 08:35:31  5-MIN KDBQ 121435Z 05011KT 10SM OVC004 14/13 A3006 950 96 1100 050/11 RMK AO2 RAE22 P0001
94908KDBQ DBQ20000612084010706/12/00 08:40:31  5-MIN KDBQ 121440Z 03010KT 9SM OVC004 14/13 A3006 950 96 1100 030/10 RMK AO2 RAE22 P0001
94908KDBQ DBQ20000612084510706/12/00 08:45:31  5-MIN KDBQ 121445Z 04009KT 8SM OVC004 14/13 A3006 950 96 1100 040/09 RMK AO2 RAE22 P0001
94908KDBQ DBQ20000612085013606/12/00 08:50:31  5-MIN KDBQ 121450Z 05011KT 8SM OVC004 14/13 A3006 940 96 1100 050/11 RMK AO2 RAE22 SLP178 P0001 60034 T01390133 53002
94908KDBQ DBQ20000612085514906/12/00 08:55:31  5-MIN KDBQ 121455Z 04009KT 8SM OVC004 14/14 A3006 950 100 1100 040/09 RMK AO2 RAE22 CIG 002V008 SLP177 P0001 60034 T01390139 51001
94908KDBQ DBQ20000612090009506/12/00 09:00:31  5-MIN KDBQ 121500Z 04009KT 7SM OVC004 14/14 A3006 950 96 1100 040/09 RMK AO2
94908KDBQ DBQ20000612090509506/12/00 09:05:31  5-MIN KDBQ 121505Z 03010KT 7SM OVC004 14/14 A3005 960 96 1200 030/10 RMK AO2
94908KDBQ DBQ20000612091009506/12/00 09:10:31  5-MIN KDBQ 121510Z 05012KT 8SM OVC004 14/14 A3005 960 96 1200 050/12 RMK AO2
94908KDBQ DBQ20000612091509506/12/00 09:15:31  5-MIN KDBQ 121515Z 04011KT 9SM OVC004 14/14 A3005 960 96 1200 040/11 RMK AO2
94908KDBQ DBQ20000612092010806/12/00 09:20:31  5-MIN KDBQ 121520Z 05013KT 10SM OVC004 14/14 A3005 960 96 1200 050/13 RMK AO2 CIG 002V007
94908KDBQ DBQ20000612092511406/12/00 09:25:31  5-MIN KDBQ 121525Z 04011G18KT 10SM OVC004 14/14 A3005 960 96 1200 040/11G18 RMK AO2 CIG 002V007
94908KDBQ DBQ20000612093009606/12/00 09:30:31  5-MIN KDBQ 121530Z 05010KT 10SM OVC004 14/14 A3005 960 96 1200 050/10 RMK AO2
94908KDBQ DBQ20000612093509606/12/00 09:35:31  5-MIN KDBQ 121535Z 04011KT 10SM OVC004 14/14 A3005 960 96 1200 040/11 RMK AO2
94908KDBQ DBQ20000612094009606/12/00 09:40:31  5-MIN KDBQ 121540Z 04013KT 10SM OVC004 14/14 A3005 960 96 1200 040/13 RMK AO2
94908KDBQ DBQ20000612094510806/12/00 09:45:31  5-MIN KDBQ 121545Z 05010KT 10SM OVC004 14/14 A3005 960 96 1200 050/10 RMK AO2 CIG 003V007
94908KDBQ DBQ20000612095012506/12/00 09:50:31  5-MIN KDBQ 121550Z 04011KT 10SM OVC004 14/14 A3005 960 96 1200 040/11 RMK AO2 CIG 003V007 SLP173 T01440139
94908KDBQ DBQ20000612095512406/12/00 09:55:31  5-MIN KDBQ 121555Z 05014KT 9SM OVC004 14/14 A3005 960 96 1200 040/14 RMK AO2 CIG 003V007 SLP174 T01440139
94908KDBQ DBQ20000612100010806/12/00 10:00:31  5-MIN KDBQ 121600Z 05012KT 10SM OVC004 14/14 A3005 960 96 1200 050/12 RMK AO2 CIG 003V007
94908KDBQ DBQ20000612100510806/12/00 10:05:31  5-MIN KDBQ 121605Z 05013KT 10SM OVC004 14/14 A3005 960 96 1200 050/13 RMK AO2 CIG 003V008
94908KDBQ DBQ20000612101010806/12/00 10:10:31  5-MIN KDBQ 121610Z 05012KT 10SM OVC004 15/14 A3004 960 93 1200 050/12 RMK AO2 CIG 003V008
94908KDBQ DBQ20000612101509606/12/00 10:15:31  5-MIN KDBQ 121615Z 06013KT 10SM OVC004 15/14 A3005 960 93 1200 050/13 RMK AO2
94908KDBQ DBQ20000612102009606/12/00 10:20:31  5-MIN KDBQ 121620Z 05014KT 10SM OVC004 15/14 A3005 960 93 1200 050/14 RMK AO2
94908KDBQ DBQ20000612102509606/12/00 10:25:31  5-MIN KDBQ 121625Z 05011KT 10SM OVC004 15/14 A3005 960 93 1200 050/11 RMK AO2
94908KDBQ DBQ20000612103009606/12/00 10:30:31  5-MIN KDBQ 121630Z 05011KT 10SM OVC004 15/14 A3005 960 93 1200 050/11 RMK AO2
94908KDBQ DBQ20000612103509606/12/00 10:35:31  5-MIN KDBQ 121635Z 05013KT 10SM OVC004 15/14 A3004 960 93 1200 040/13 RMK AO2
94908KDBQ DBQ20000612104009606/12/00 10:40:31  5-MIN KDBQ 121640Z 05014KT 10SM OVC004 15/14 A3004 970 93 1200 050/14 RMK AO2
94908KDBQ DBQ20000612104509606/12/00 10:45:31  5-MIN KDBQ 121645Z 04014KT 10SM OVC004 15/14 A3004 970 93 1200 040/14 RMK AO2
94908KDBQ DBQ20000612105011306/12/00 10:50:31  5-MIN KDBQ 121650Z 05013KT 10SM OVC004 15/14 A3004 970 93 1200 050/13 RMK AO2 SLP171 T01500139
94908KDBQ DBQ20000612105511306/12/00 10:55:31  5-MIN KDBQ 121655Z 05011KT 10SM OVC004 15/14 A3004 970 93 1200 050/11 RMK AO2 SLP169 T01500139
94908KDBQ DBQ20000612110009606/12/00 11:00:31  5-MIN KDBQ 121700Z 04013KT 10SM OVC004 16/14 A3004 970 93 1300 040/13 RMK AO2
94908KDBQ DBQ20000612110509606/12/00 11:05:31  5-MIN KDBQ 121705Z 05013KT 10SM OVC004 15/14 A3004 970 93 1200 050/13 RMK AO2
94908KDBQ DBQ20000612111009606/12/00 11:10:31  5-MIN KDBQ 121710Z 06010KT 10SM OVC004 15/14 A3004 970 93 1200 060/10 RMK AO2
94908KDBQ DBQ20000612111509606/12/00 11:15:31  5-MIN KDBQ 121715Z 05011KT 10SM OVC004 15/14 A3004 970 93 1200 050/11 RMK AO2
94908KDBQ DBQ20000612112009606/12/00 11:20:31  5-MIN KDBQ 121720Z 05010KT 10SM OVC004 15/14 A3004 970 93 1200 050/10 RMK AO2
94908KDBQ DBQ20000612112509606/12/00 11:25:31  5-MIN KDBQ 121725Z 04013KT 10SM OVC004 15/14 A3004 970 93 1200 040/13 RMK AO2
94908KDBQ DBQ20000612113010206/12/00 11:30:31  5-MIN KDBQ 121730Z 05013G17KT 10SM OVC004 15/13 A3004 970 90 1200 040/13G17 RMK AO2
94908KDBQ DBQ20000612113509606/12/00 11:35:31  5-MIN KDBQ 121735Z 05014KT 10SM OVC004 15/14 A3003 970 93 1200 050/14 RMK AO2
94908KDBQ DBQ20000612114009606/12/00 11:40:31  5-MIN KDBQ 121740Z 06014KT 10SM OVC006 15/14 A3003 970 93 1200 060/14 RMK AO2
94908KDBQ DBQ20000612114509606/12/00 11:45:31  5-MIN KDBQ 121745Z 05010KT 10SM OVC006 16/14 A3003 980 90 1300 050/10 RMK AO2
94908KDBQ DBQ20000612115013706/12/00 11:50:31  5-MIN KDBQ 121750Z 05010KT 10SM OVC006 16/14 A3002 980 90 1300 050/10 RMK AO2 SLP164 60034 T01560139 10156 20133 51001
94908KDBQ DBQ20000612115513706/12/00 11:55:31  5-MIN KDBQ 121755Z 03012KT 10SM OVC006 16/14 A3002 980 90 1300 030/12 RMK AO2 SLP164 60034 T01560139 10156 20133 58013
94908KDBQ DBQ20000612120009606/12/00 12:00:31  5-MIN KDBQ 121800Z 04013KT 10SM OVC006 15/14 A3003 980 93 1200 040/13 RMK AO2
94908KDBQ DBQ20000612120509606/12/00 12:05:31  5-MIN KDBQ 121805Z 04013KT 10SM OVC006 15/14 A3003 970 93 1200 040/13 RMK AO2
94908KDBQ DBQ20000612121009606/12/00 12:10:31  5-MIN KDBQ 121810Z 04014KT 10SM OVC006 15/14 A3003 970 93 1200 040/14 RMK AO2
94908KDBQ DBQ20000612121509606/12/00 12:15:31  5-MIN KDBQ 121815Z 06012KT 10SM OVC006 15/14 A3003 970 93 1200 060/12 RMK AO2
94908KDBQ DBQ20000612122011206/12/00 12:20:31  5-MIN KDBQ 121820Z 05009KT 10SM -RA OVC006 15/14 A3003 970 93 1200 050/09 RMK AO2 RAB16 P0000
94908KDBQ DBQ20000612122511206/12/00 12:25:31  5-MIN KDBQ 121825Z 06010KT 10SM -RA OVC006 16/14 A3003 980 90 1300 060/10 RMK AO2 RAB16 P0000
94908KDBQ DBQ20000612123011106/12/00 12:30:31  5-MIN KDBQ 121830Z 05011KT 10SM OVC006 16/14 A3002 990 93 1300 050/11 RMK AO2 RAB16E27 P0000
94908KDBQ DBQ20000612123511106/12/00 12:35:31  5-MIN KDBQ 121835Z 03011KT 10SM OVC006 16/14 A3002 980 93 1300 030/11 RMK AO2 RAB16E27 P0000
94908KDBQ DBQ20000612124011106/12/00 12:40:31  5-MIN KDBQ 121840Z 04011KT 10SM OVC006 16/14 A3002 980 93 1300 040/11 RMK AO2 RAB16E27 P0000
94908KDBQ DBQ20000612124511106/12/00 12:45:31  5-MIN KDBQ 121845Z 05013KT 10SM OVC006 16/14 A3002 980 93 1300 050/13 RMK AO2 RAB16E27 P0000
94908KDBQ DBQ20000612125012806/12/00 12:50:31  5-MIN KDBQ 121850Z 06009KT 10SM OVC006 16/14 A3003 980 90 1300 060/09 RMK AO2 RAB16E27 SLP166 P0000 T01560139
94908KDBQ DBQ20000612125512806/12/00 12:55:31  5-MIN KDBQ 121855Z 06009KT 10SM OVC006 16/14 A3003 980 90 1300 060/09 RMK AO2 RAB16E27 SLP168 P0000 T01560139
94908KDBQ DBQ20000612130009606/12/00 13:00:31  5-MIN KDBQ 121900Z 06010KT 10SM OVC006 16/14 A3003 980 90 1300 060/10 RMK AO2
94908KDBQ DBQ20000612130509606/12/00 13:05:31  5-MIN KDBQ 121905Z 06008KT 10SM OVC006 16/14 A3003 980 90 1300 050/08 RMK AO2
94908KDBQ DBQ20000612131009606/12/00 13:10:31  5-MIN KDBQ 121910Z 04009KT 10SM OVC006 16/14 A3003 980 90 1300 040/09 RMK AO2
94908KDBQ DBQ20000612131509606/12/00 13:15:31  5-MIN KDBQ 121915Z 04008KT 10SM OVC006 16/14 A3004 970 90 1300 040/08 RMK AO2
94908KDBQ DBQ20000612132009606/12/00 13:20:31  5-MIN KDBQ 121920Z 05010KT 10SM OVC006 16/14 A3004 970 90 1300 050/10 RMK AO2
94908KDBQ DBQ20000612132509606/12/00 13:25:31  5-MIN KDBQ 121925Z 05009KT 10SM OVC006 16/14 A3004 970 93 1300 050/09 RMK AO2
94908KDBQ DBQ20000612133009606/12/00 13:30:31  5-MIN KDBQ 121930Z 04008KT 10SM OVC006 16/14 A3004 970 90 1300 040/08 RMK AO2
94908KDBQ DBQ20000612133509606/12/00 13:35:31  5-MIN KDBQ 121935Z 03008KT 10SM OVC006 16/14 A3003 980 90 1300 030/08 RMK AO2
94908KDBQ DBQ20000612134009606/12/00 13:40:31  5-MIN KDBQ 121940Z 04008KT 10SM OVC006 16/14 A3003 970 93 1300 040/08 RMK AO2
94908KDBQ DBQ20000612134509606/12/00 13:45:31  5-MIN KDBQ 121945Z 05011KT 10SM OVC006 16/14 A3003 980 90 1300 050/11 RMK AO2
94908KDBQ DBQ20000612135011806/12/00 13:50:31  5-MIN KDBQ 121950Z AUTO 05010KT 10SM OVC006 16/14 A3003 980 93 1300 050/10 RMK AO2 SLP167 T01560144
94908KDBQ DBQ20000612135511306/12/00 13:55:31  5-MIN KDBQ 121955Z 04010KT 10SM OVC006 16/14 A3003 980 93 1300 040/10 RMK AO2 SLP168 T01560144
94908KDBQ DBQ20000612140009606/12/00 14:00:31  5-MIN KDBQ 122000Z 04010KT 10SM OVC006 16/14 A3003 970 90 1300 040/10 RMK AO2
94908KDBQ DBQ20000612140509606/12/00 14:05:31  5-MIN KDBQ 122005Z 04010KT 10SM OVC006 16/14 A3004 970 90 1300 040/10 RMK AO2
94908KDBQ DBQ20000612141009506/12/00 14:10:31  5-MIN KDBQ 122010Z 05008KT 9SM OVC006 16/14 A3004 970 90 1300 050/08 RMK AO2
94908KDBQ DBQ20000612141509506/12/00 14:15:31  5-MIN KDBQ 122015Z 03008KT 9SM OVC006 16/14 A3004 970 93 1300 030/08 RMK AO2
94908KDBQ DBQ20000612142009506/12/00 14:20:31  5-MIN KDBQ 122020Z 04006KT 9SM OVC006 16/14 A3004 970 90 1300 040/06 RMK AO2
94908KDBQ DBQ20000612142509506/12/00 14:25:31  5-MIN KDBQ 122025Z 03008KT 9SM OVC006 16/14 A3004 970 90 1300 030/08 RMK AO2
94908KDBQ DBQ20000612143009506/12/00 14:30:31  5-MIN KDBQ 122030Z 03009KT 9SM OVC006 16/14 A3004 970 90 1300 030/09 RMK AO2
94908KDBQ DBQ20000612143509506/12/00 14:35:31  5-MIN KDBQ 122035Z 03009KT 9SM OVC006 16/14 A3003 970 90 1300 030/09 RMK AO2
94908KDBQ DBQ20000612144009506/12/00 14:40:31  5-MIN KDBQ 122040Z 04010KT 8SM OVC006 16/14 A3003 970 90 1300 040/10 RMK AO2
94908KDBQ DBQ20000612144509506/12/00 14:45:31  5-MIN KDBQ 122045Z 04009KT 7SM OVC006 16/14 A3003 980 90 1300 040/09 RMK AO2
94908KDBQ DBQ20000612145012706/12/00 14:50:31  5-MIN KDBQ 122050Z 05008KT 6SM BR OVC006 16/14 A3003 980 90 1300 050/08 RMK AO2 SLP168 60000 T01560139 58013
94908KDBQ DBQ20000612145512706/12/00 14:55:31  5-MIN KDBQ 122055Z 05006KT 5SM BR OVC006 16/14 A3003 980 93 1300 050/06 RMK AO2 SLP169 60000 T01560144 51003
94908KDBQ DBQ20000612150011606/12/00 15:00:31  5-MIN KDBQ 122100Z 05009KT 5SM -RA BR OVC006 16/14 A3003 970 93 1300 050/09 RMK AO2 RAB2056 P0000
94908KDBQ DBQ20000612150511606/12/00 15:05:31  5-MIN KDBQ 122105Z 04009KT 5SM -RA BR OVC006 16/14 A3003 980 93 1300 040/09 RMK AO2 RAB2056 P0000
94908KDBQ DBQ20000612151011506/12/00 15:10:31  5-MIN KDBQ 122110Z 04010KT 5SM BR OVC006 16/14 A3003 980 93 1300 040/10 RMK AO2 RAB2056E07 P0000
94908KDBQ DBQ20000612151511506/12/00 15:15:31  5-MIN KDBQ 122115Z 04010KT 4SM BR OVC006 16/14 A3003 980 93 1300 040/10 RMK AO2 RAB2056E07 P0000
94908KDBQ DBQ20000612152011506/12/00 15:20:31  5-MIN KDBQ 122120Z 04010KT 5SM BR OVC006 16/14 A3003 980 93 1300 040/10 RMK AO2 RAB2056E07 P0000
94908KDBQ DBQ20000612152511506/12/00 15:25:31  5-MIN KDBQ 122125Z 05009KT 5SM BR OVC006 16/14 A3002 980 93 1300 050/09 RMK AO2 RAB2056E07 P0000
94908KDBQ DBQ20000612153012706/12/00 15:30:31  5-MIN KDBQ 122130Z 06009KT 5SM BR OVC006 16/14 A3002 990 93 1300 060/09 RMK AO2 RAB2056E07 CIG 005V011 P0000
94908KDBQ DBQ20000612153513406/12/00 15:35:31  5-MIN KDBQ 122135Z 05009KT 6SM BR BKN006 OVC013 16/14 A3002 990 93 1300 050/09 RMK AO2 RAB2056E07 CIG 005V011 P0000
94908KDBQ DBQ20000612154013406/12/00 15:40:31  5-MIN KDBQ 122140Z 05010KT 6SM BR BKN006 OVC013 16/14 A3001 990 93 1300 050/10 RMK AO2 RAB2056E07 CIG 005V008 P0000
94908KDBQ DBQ20000612154513506/12/00 15:45:31  5-MIN KDBQ 122145Z 03010KT 5SM BR BKN006 OVC011 16/14 A3001 1000 93 1300 030/10 RMK AO2 RAB2056E07 CIG 005V008 P0000
94908KDBQ DBQ20000612155014006/12/00 15:50:31  5-MIN KDBQ 122150Z 03010KT 5SM BR BKN006 OVC011 16/14 A3001 1000 93 1300 030/10 RMK AO2 RAB2056E07 SLP162 P0000 T01560144
94908KDBQ DBQ20000612155513906/12/00 15:55:31  5-MIN KDBQ 122155Z 05008KT 4SM BR BKN006 OVC011 16/14 A3001 990 93 1300 040/08 RMK AO2 RAB2056E07 SLP163 P0000 T01560144
94908KDBQ DBQ20000612160009806/12/00 16:00:31  5-MIN KDBQ 122200Z 03008KT 5SM BR OVC006 16/14 A3001 990 93 1300 030/08 RMK AO2
94908KDBQ DBQ20000612160509806/12/00 16:05:31  5-MIN KDBQ 122205Z 03009KT 6SM BR OVC006 16/14 A3001 990 93 1300 030/09 RMK AO2
94908KDBQ DBQ20000612161011006/12/00 16:10:31  5-MIN KDBQ 122210Z 03007KT 6SM BR OVC006 16/14 A3001 990 93 1300 030/07 RMK AO2 CIG 004V008
94908KDBQ DBQ20000612161512606/12/00 16:15:31  5-MIN KDBQ 122215Z 03009KT 5SM -RA BR OVC006 16/14 A3002 990 93 1300 030/09 RMK AO2 RAB14 CIG 004V011 P0000
94908KDBQ DBQ20000612162012606/12/00 16:20:31  5-MIN KDBQ 122220Z 04008KT 4SM -RA BR OVC006 16/14 A3001 990 93 1300 030/08 RMK AO2 RAB14 CIG 004V009 P0000
94908KDBQ DBQ20000612162512606/12/00 16:25:31  5-MIN KDBQ 122225Z 01008KT 3SM -RA BR OVC006 16/14 A3002 990 93 1300 010/08 RMK AO2 RAB14 CIG 004V011 P0000
94908KDBQ DBQ20000612163012506/12/00 16:30:31  5-MIN KDBQ 122230Z 02009KT 4SM BR OVC006 15/14 A3002 990 96 1300 020/09 RMK AO2 RAB14E29 CIG 004V011 P0000
94908KDBQ DBQ20000612163512506/12/00 16:35:31  5-MIN KDBQ 122235Z 02008KT 5SM BR OVC006 15/14 A3001 990 96 1300 020/08 RMK AO2 RAB14E29 CIG 004V011 P0000
94908KDBQ DBQ20000612164012606/12/00 16:40:31  5-MIN KDBQ 122240Z 03007KT 5SM BR OVC006 15/14 A3001 1000 96 1300 030/07 RMK AO2 RAB14E29 CIG 004V011 P0000
94908KDBQ DBQ20000612164512106/12/00 16:45:31  5-MIN KDBQ 122245Z 04008KT 6SM BR BKN006 OVC009 16/14 A3001 1000 93 1300 040/08 RMK AO2 RAB14E29 P0000
94908KDBQ DBQ20000612165015006/12/00 16:50:31  5-MIN KDBQ 122250Z 04008KT 6SM BR BKN006 OVC009 16/14 A3000 1000 93 1300 040/08 RMK AO2 RAB14E29 CIG 004V008 SLP161 P0000 T01560144
94908KDBQ DBQ20000612165515006/12/00 16:55:31  5-MIN KDBQ 122255Z 04008KT 6SM BR BKN006 OVC009 16/14 A3000 1010 93 1300 030/08 RMK AO2 RAB14E29 CIG 004V007 SLP158 P0000 T01560144
94908KDBQ DBQ20000612170011806/12/00 17:00:31  5-MIN KDBQ 122300Z 04010KT 6SM BR BKN006 OVC011 16/14 A2999 1010 93 1400 040/10 RMK AO2 CIG 004V009
94908KDBQ DBQ20000612170511806/12/00 17:05:31  5-MIN KDBQ 122305Z 03010KT 6SM BR BKN006 OVC010 16/14 A3000 1010 93 1300 030/10 RMK AO2 CIG 004V010
94908KDBQ DBQ20000612171011806/12/00 17:10:31  5-MIN KDBQ 122310Z 03009KT 6SM BR BKN006 OVC010 15/14 A2999 1010 96 1300 030/09 RMK AO2 CIG 004V009
94908KDBQ DBQ20000612171511806/12/00 17:15:31  5-MIN KDBQ 122315Z 03009KT 5SM BR BKN006 OVC012 15/14 A2999 1020 96 1300 030/09 RMK AO2 CIG 004V010
94908KDBQ DBQ20000612172011806/12/00 17:20:31  5-MIN KDBQ 122320Z 03010KT 5SM BR BKN006 OVC012 15/14 A2999 1010 96 1300 030/10 RMK AO2 CIG 004V010
94908KDBQ DBQ20000612172511806/12/00 17:25:31  5-MIN KDBQ 122325Z 04007KT 5SM BR BKN006 OVC012 15/14 A2999 1010 96 1300 040/07 RMK AO2 CIG 005V010
94908KDBQ DBQ20000612173011806/12/00 17:30:31  5-MIN KDBQ 122330Z 03008KT 5SM BR BKN006 OVC010 15/14 A2999 1010 96 1300 030/08 RMK AO2 CIG 003V007
94908KDBQ DBQ20000612173511806/12/00 17:35:31  5-MIN KDBQ 122335Z 03010KT 5SM BR BKN004 OVC010 15/14 A2999 1010 96 1300 030/10 RMK AO2 CIG 003V007
94908KDBQ DBQ20000612174011806/12/00 17:40:31  5-MIN KDBQ 122340Z 04008KT 5SM BR BKN004 OVC010 15/14 A2999 1010 96 1300 040/08 RMK AO2 CIG 003V007
94908KDBQ DBQ20000612174511106/12/00 17:45:31  5-MIN KDBQ 122345Z 04009KT 6SM BR OVC007 15/14 A3000 1010 96 1300 040/09 RMK AO2 CIG 003V009
94908KDBQ DBQ20000612175015206/12/00 17:50:31  5-MIN KDBQ 122350Z 04009KT 6SM BR OVC006 15/14 A2999 1010 96 1300 040/09 RMK AO2 CIG 003V009 SLP157 60000 T01500144 10156 20150 51003
94908KDBQ DBQ20000612175514006/12/00 17:55:31  5-MIN KDBQ 122355Z 05009KT 6SM BR OVC004 15/14 A2999 1010 96 1300 050/09 RMK AO2 SLP156 60000 T01500144 10156 20150 56013
94908KDBQ DBQ20000612180009906/12/00 18:00:31  5-MIN KDBQ 130000Z 05010KT 6SM BR OVC004 15/14 A2999 1010 96 1300 040/10 RMK AO2
94908KDBQ DBQ20000612180509606/12/00 18:05:31  5-MIN KDBQ 130005Z 05009KT 7SM OVC004 15/14 A3000 1010 93 1300 050/09 RMK AO2
94908KDBQ DBQ20000612181009906/12/00 18:10:31  5-MIN KDBQ 130010Z 06009KT 6SM BR OVC004 15/14 A3000 1000 96 1300 060/09 RMK AO2
94908KDBQ DBQ20000612181509906/12/00 18:15:31  5-MIN KDBQ 130015Z 05008KT 6SM BR OVC004 15/14 A3000 1000 93 1300 050/08 RMK AO2
94908KDBQ DBQ20000612182009606/12/00 18:20:31  5-MIN KDBQ 130020Z 05010KT 7SM OVC004 15/14 A2999 1010 93 1300 050/10 RMK AO2
94908KDBQ DBQ20000612182509606/12/00 18:25:31  5-MIN KDBQ 130025Z 05011KT 7SM OVC004 15/14 A2998 1020 93 1300 040/11 RMK AO2
94908KDBQ DBQ20000612183009606/12/00 18:30:31  5-MIN KDBQ 130030Z 05007KT 7SM OVC004 15/14 A2999 1010 93 1300 050/07 RMK AO2
94908KDBQ DBQ20000612183510806/12/00 18:35:31  5-MIN KDBQ 130035Z 05007KT 7SM OVC006 15/14 A2999 1010 93 1300 050/07 RMK AO2 CIG 005V008
94908KDBQ DBQ20000612184010806/12/00 18:40:31  5-MIN KDBQ 130040Z 06008KT 7SM OVC006 15/14 A2999 1020 93 1300 060/08 RMK AO2 CIG 005V008
94908KDBQ DBQ20000612184510806/12/00 18:45:31  5-MIN KDBQ 130045Z 04008KT 7SM OVC006 15/14 A2998 1030 93 1300 040/08 RMK AO2 CIG 004V008
94908KDBQ DBQ20000612185012606/12/00 18:50:31  5-MIN KDBQ 130050Z AUTO 05009KT 6SM BR OVC006 15/14 A2997 1030 93 1300 040/09 RMK AO2 SLP149 T01500139 TSNO
94908KDBQ DBQ20000612185513306/12/00 18:55:31  5-MIN KDBQ 130055Z AUTO 05008KT 6SM BR OVC006 15/14 A2997 1040 93 1300 050/08 RMK AO2 PRESFR SLP148 T01500139 TSNO
94908KDBQ DBQ20000612190010906/12/00 19:00:31  5-MIN KDBQ 130100Z AUTO 05008KT 6SM BR OVC006 15/14 A2997 1030 93 1300 050/08 RMK AO2 TSNO
94908KDBQ DBQ20000612190510906/12/00 19:05:31  5-MIN KDBQ 130105Z AUTO 06007KT 6SM BR OVC006 15/14 A2998 1020 93 1300 060/07 RMK AO2 TSNO
94908KDBQ DBQ20000612191010906/12/00 19:10:31  5-MIN KDBQ 130110Z AUTO 06009KT 6SM BR OVC006 15/14 A2998 1020 93 1300 050/09 RMK AO2 TSNO
94908KDBQ DBQ20000612191510606/12/00 19:15:31  5-MIN KDBQ 130115Z AUTO 07008KT 7SM OVC006 15/14 A2998 1020 93 1300 060/08 RMK AO2 TSNO
94908KDBQ DBQ20000612192010606/12/00 19:20:31  5-MIN KDBQ 130120Z AUTO 08009KT 8SM OVC006 15/14 A2999 1020 93 1300 070/09 RMK AO2 TSNO
94908KDBQ DBQ20000612192510606/12/00 19:25:31  5-MIN KDBQ 130125Z AUTO 08009KT 8SM OVC006 15/14 A2998 1020 93 1300 080/09 RMK AO2 TSNO
94908KDBQ DBQ20000612193010606/12/00 19:30:31  5-MIN KDBQ 130130Z AUTO 07008KT 8SM OVC006 15/14 A2998 1030 93 1300 070/08 RMK AO2 TSNO
94908KDBQ DBQ20000612193510606/12/00 19:35:31  5-MIN KDBQ 130135Z AUTO 07010KT 8SM OVC006 15/14 A2997 1030 93 1300 060/10 RMK AO2 TSNO
94908KDBQ DBQ20000612194010606/12/00 19:40:31  5-MIN KDBQ 130140Z AUTO 06008KT 8SM OVC006 15/14 A2997 1030 93 1300 060/08 RMK AO2 TSNO
94908KDBQ DBQ20000612194510606/12/00 19:45:31  5-MIN KDBQ 130145Z AUTO 06007KT 8SM OVC006 15/14 A2997 1030 93 1300 060/07 RMK AO2 TSNO
94908KDBQ DBQ20000612195012306/12/00 19:50:31  5-MIN KDBQ 130150Z AUTO 06008KT 8SM OVC006 15/14 A2996 1040 93 1300 060/08 RMK AO2 SLP147 T01500139 TSNO
94908KDBQ DBQ20000612195512306/12/00 19:55:31  5-MIN KDBQ 130155Z AUTO 06009KT 9SM OVC006 15/14 A2997 1030 93 1300 050/09 RMK AO2 SLP149 T01500139 TSNO
94908KDBQ DBQ20000612200010606/12/00 20:00:31  5-MIN KDBQ 130200Z AUTO 07009KT 9SM OVC006 15/14 A2996 1040 93 1300 060/09 RMK AO2 TSNO
94908KDBQ DBQ20000612200510606/12/00 20:05:31  5-MIN KDBQ 130205Z AUTO 06007KT 9SM OVC006 15/14 A2996 1040 93 1300 060/07 RMK AO2 TSNO
94908KDBQ DBQ20000612201010606/12/00 20:10:31  5-MIN KDBQ 130210Z AUTO 05006KT 9SM OVC006 15/14 A2997 1030 93 1300 050/06 RMK AO2 TSNO
94908KDBQ DBQ20000612201510606/12/00 20:15:31  5-MIN KDBQ 130215Z AUTO 04007KT 9SM OVC006 15/14 A2997 1030 93 1300 040/07 RMK AO2 TSNO
94908KDBQ DBQ20000612202010606/12/00 20:20:31  5-MIN KDBQ 130220Z AUTO 04006KT 8SM OVC006 15/14 A2998 1030 93 1300 040/06 RMK AO2 TSNO
94908KDBQ DBQ20000612202510606/12/00 20:25:31  5-MIN KDBQ 130225Z AUTO 05007KT 8SM OVC004 15/14 A2998 1020 93 1300 050/07 RMK AO2 TSNO
94908KDBQ DBQ20000612203010606/12/00 20:30:31  5-MIN KDBQ 130230Z AUTO 07008KT 8SM OVC004 15/14 A2999 1020 93 1300 070/08 RMK AO2 TSNO
94908KDBQ DBQ20000612203510606/12/00 20:35:31  5-MIN KDBQ 130235Z AUTO 06006KT 8SM OVC004 15/14 A2999 1020 93 1300 060/06 RMK AO2 TSNO
94908KDBQ DBQ20000612204010606/12/00 20:40:31  5-MIN KDBQ 130240Z AUTO 05007KT 8SM OVC004 15/14 A2999 1020 93 1300 050/07 RMK AO2 TSNO
94908KDBQ DBQ20000612204510606/12/00 20:45:31  5-MIN KDBQ 130245Z AUTO 06007KT 8SM OVC004 15/14 A2998 1020 93 1300 060/07 RMK AO2 TSNO
94908KDBQ DBQ20000612205012906/12/00 20:50:31  5-MIN KDBQ 130250Z AUTO 05006KT 8SM OVC004 14/14 A2998 1020 96 1200 050/06 RMK AO2 SLP152 T01440139 56013 TSNO
94908KDBQ DBQ20000612205512906/12/00 20:55:31  5-MIN KDBQ 130255Z AUTO 04006KT 8SM OVC004 14/14 A2998 1020 96 1200 040/06 RMK AO2 SLP153 T01440139 55002 TSNO
94908KDBQ DBQ20000612210010606/12/00 21:00:31  5-MIN KDBQ 130300Z AUTO 06005KT 8SM OVC004 14/14 A2998 1020 96 1200 060/05 RMK AO2 TSNO
94908KDBQ DBQ20000612210510606/12/00 21:05:31  5-MIN KDBQ 130305Z AUTO 06005KT 8SM OVC004 15/14 A2998 1020 93 1300 060/05 RMK AO2 TSNO
94908KDBQ DBQ20000612211010606/12/00 21:10:31  5-MIN KDBQ 130310Z AUTO 08005KT 8SM OVC004 15/14 A2998 1020 93 1300 070/05 RMK AO2 TSNO
94908KDBQ DBQ20000612211510606/12/00 21:15:31  5-MIN KDBQ 130315Z AUTO 07005KT 7SM OVC004 15/14 A2999 1020 93 1300 070/05 RMK AO2 TSNO
94908KDBQ DBQ20000612212010606/12/00 21:20:31  5-MIN KDBQ 130320Z AUTO 08005KT 7SM OVC004 15/14 A2999 1010 93 1300 080/05 RMK AO2 TSNO
94908KDBQ DBQ20000612212510606/12/00 21:25:31  5-MIN KDBQ 130325Z AUTO 07004KT 7SM OVC004 15/14 A2999 1020 93 1300 070/04 RMK AO2 TSNO
94908KDBQ DBQ20000612213010606/12/00 21:30:31  5-MIN KDBQ 130330Z AUTO 06005KT 7SM OVC004 15/14 A2999 1020 96 1300 060/05 RMK AO2 TSNO
94908KDBQ DBQ20000612213510906/12/00 21:35:31  5-MIN KDBQ 130335Z AUTO 07004KT 6SM BR OVC004 15/14 A2999 1020 96 1300 060/04 RMK AO2 TSNO
94908KDBQ DBQ20000612214010906/12/00 21:40:31  5-MIN KDBQ 130340Z AUTO 06004KT 6SM BR OVC004 15/14 A2998 1020 96 1300 060/04 RMK AO2 TSNO
94908KDBQ DBQ20000612214511006/12/00 21:45:31  5-MIN KDBQ 130345Z AUTO 06006KT 5SM BR OVC004 14/14 A2998 1030 100 1200 060/06 RMK AO2 TSNO
94908KDBQ DBQ20000612215012606/12/00 21:50:31  5-MIN KDBQ 130350Z AUTO 07004KT 5SM BR OVC004 15/14 A2998 1030 96 1300 070/04 RMK AO2 SLP151 T01500144 TSNO
94908KDBQ DBQ20000612215512606/12/00 21:55:31  5-MIN KDBQ 130355Z AUTO 08006KT 5SM BR OVC004 15/14 A2997 1030 96 1300 080/06 RMK AO2 SLP150 T01500144 TSNO
94908KDBQ DBQ20000612220010906/12/00 22:00:31  5-MIN KDBQ 130400Z AUTO 07007KT 5SM BR OVC004 15/14 A2997 1030 96 1300 070/07 RMK AO2 TSNO
94908KDBQ DBQ20000612220511006/12/00 22:05:31  5-MIN KDBQ 130405Z AUTO 06005KT 5SM BR OVC004 14/14 A2997 1030 100 1200 060/05 RMK AO2 TSNO
94908KDBQ DBQ20000612221011006/12/00 22:10:31  5-MIN KDBQ 130410Z AUTO 07006KT 5SM BR OVC004 14/14 A2997 1030 100 1200 070/06 RMK AO2 TSNO
94908KDBQ DBQ20000612221511006/12/00 22:15:31  5-MIN KDBQ 130415Z AUTO 06007KT 5SM BR OVC002 14/14 A2997 1030 100 1200 060/07 RMK AO2 TSNO
94908KDBQ DBQ20000612222011006/12/00 22:20:31  5-MIN KDBQ 130420Z AUTO 05008KT 5SM BR OVC002 14/14 A2997 1030 100 1200 050/08 RMK AO2 TSNO
94908KDBQ DBQ20000612222511006/12/00 22:25:31  5-MIN KDBQ 130425Z AUTO 06006KT 6SM BR OVC002 14/14 A2997 1030 100 1200 060/06 RMK AO2 TSNO
94908KDBQ DBQ20000612223011006/12/00 22:30:31  5-MIN KDBQ 130430Z AUTO 07006KT 5SM BR OVC002 14/14 A2997 1030 100 1200 070/06 RMK AO2 TSNO
94908KDBQ DBQ20000612223511006/12/00 22:35:31  5-MIN KDBQ 130435Z AUTO 06005KT 5SM BR OVC002 14/14 A2997 1030 100 1200 060/05 RMK AO2 TSNO
94908KDBQ DBQ20000612224011006/12/00 22:40:31  5-MIN KDBQ 130440Z AUTO 06005KT 5SM BR OVC002 14/14 A2998 1020 100 1200 060/05 RMK AO2 TSNO
94908KDBQ DBQ20000612224511006/12/00 22:45:31  5-MIN KDBQ 130445Z AUTO 05007KT 5SM BR OVC002 14/14 A2998 1020 100 1200 050/07 RMK AO2 TSNO
94908KDBQ DBQ20000612225012706/12/00 22:50:31  5-MIN KDBQ 130450Z AUTO 04007KT 5SM BR OVC002 14/14 A2998 1030 100 1200 040/07 RMK AO2 SLP151 T01440144 TSNO
94908KDBQ DBQ20000612225512606/12/00 22:55:31  5-MIN KDBQ 130455Z AUTO 05005KT 5SM BR OVC002 14/14 A2998 1020 96 1200 050/05 RMK AO2 SLP152 T01440139 TSNO
94908KDBQ DBQ20000612230011006/12/00 23:00:31  5-MIN KDBQ 130500Z AUTO 09007KT 5SM BR OVC002 14/14 A2998 1020 100 1200 090/07 RMK AO2 TSNO
94908KDBQ DBQ20000612230510906/12/00 23:05:31  5-MIN KDBQ 130505Z AUTO 08005KT 5SM BR OVC002 14/14 A2998 1020 96 1200 080/05 RMK AO2 TSNO
94908KDBQ DBQ20000612231010906/12/00 23:10:31  5-MIN KDBQ 130510Z AUTO 07006KT 5SM BR OVC002 14/14 A2998 1020 96 1200 070/06 RMK AO2 TSNO
94908KDBQ DBQ20000612231510906/12/00 23:15:31  5-MIN KDBQ 130515Z AUTO 08006KT 5SM BR OVC002 14/14 A2998 1030 96 1200 080/06 RMK AO2 TSNO
94908KDBQ DBQ20000612232010906/12/00 23:20:31  5-MIN KDBQ 130520Z AUTO 08007KT 4SM BR OVC002 14/14 A2998 1020 96 1200 080/07 RMK AO2 TSNO
94908KDBQ DBQ20000612232511006/12/00 23:25:31  5-MIN KDBQ 130525Z AUTO 09005KT 3SM BR OVC002 14/14 A2998 1020 100 1200 090/05 RMK AO2 TSNO
94908KDBQ DBQ20000612233011406/12/00 23:30:31  5-MIN KDBQ 130530Z AUTO 07006KT 2 1/2SM BR OVC002 14/14 A2998 1020 100 1200 060/06 RMK AO2 TSNO
94908KDBQ DBQ20000612233511406/12/00 23:35:31  5-MIN KDBQ 130535Z AUTO 08006KT 2 1/2SM BR OVC002 14/14 A2998 1020 100 1200 080/06 RMK AO2 TSNO
94908KDBQ DBQ20000612234011406/12/00 23:40:31  5-MIN KDBQ 130540Z AUTO 09006KT 2 1/2SM BR OVC002 14/14 A2998 1030 100 1200 090/06 RMK AO2 TSNO
94908KDBQ DBQ20000612234511306/12/00 23:45:31  5-MIN KDBQ 130545Z AUTO 09007KT 2 1/2SM BR OVC002 14/14 A2998 1030 96 1200 090/07 RMK AO2 TSNO
94908KDBQ DBQ20000612235015406/12/00 23:50:31  5-MIN KDBQ 130550Z AUTO 11007KT 3SM BR OVC002 14/14 A2997 1030 96 1200 100/07 RMK AO2 SLP149 T01440139 10150 20144 402000133 55002 TSNO
94908KDBQ DBQ20000612235515406/12/00 23:55:31  5-MIN KDBQ 130555Z AUTO 11006KT 3SM BR OVC002 14/14 A2997 1030 96 1200 100/06 RMK AO2 SLP150 T01440139 10150 20144 402000133 56003 TSNO
94908KDBQ DBQ20000613000010906/13/00 00:00:31  5-MIN KDBQ 130600Z AUTO 10007KT 3SM BR OVC002 14/14 A2997 1030 96 1300 100/07 RMK AO2 TSNO
94908KDBQ DBQ20000613000510906/13/00 00:05:31  5-MIN KDBQ 130605Z AUTO 08006KT 3SM BR OVC002 14/14 A2997 1040 96 1300 080/06 RMK AO2 TSNO
94908KDBQ DBQ20000613001010906/13/00 00:10:31  5-MIN KDBQ 130610Z AUTO 07005KT 3SM BR OVC002 14/14 A2996 1040 96 1300 070/05 RMK AO2 TSNO
94908KDBQ DBQ20000613001510906/13/00 00:15:31  5-MIN KDBQ 130615Z AUTO 08007KT 3SM BR OVC002 14/14 A2996 1040 96 1300 080/07 RMK AO2 TSNO
94908KDBQ DBQ20000613002010906/13/00 00:20:31  5-MIN KDBQ 130620Z AUTO 08006KT 3SM BR OVC002 14/14 A2996 1050 96 1300 070/06 RMK AO2 TSNO
94908KDBQ DBQ20000613002510906/13/00 00:25:31  5-MIN KDBQ 130625Z AUTO 09008KT 3SM BR OVC002 14/14 A2995 1050 96 1300 090/08 RMK AO2 TSNO
94908KDBQ DBQ20000613003010906/13/00 00:30:31  5-MIN KDBQ 130630Z AUTO 09006KT 3SM BR OVC002 14/14 A2995 1050 96 1300 090/06 RMK AO2 TSNO
94908KDBQ DBQ20000613003511306/13/00 00:35:31  5-MIN KDBQ 130635Z AUTO 09006KT 2 1/2SM BR OVC002 14/14 A2994 1060 96 1300 090/06 RMK AO2 TSNO
94908KDBQ DBQ20000613004011306/13/00 00:40:31  5-MIN KDBQ 130640Z AUTO 08005KT 2 1/2SM BR OVC002 14/14 A2995 1050 96 1300 080/05 RMK AO2 TSNO
94908KDBQ DBQ20000613004510906/13/00 00:45:31  5-MIN KDBQ 130645Z AUTO 09005KT 2SM BR OVC002 14/14 A2995 1060 96 1300 090/05 RMK AO2 TSNO
94908KDBQ DBQ20000613005012706/13/00 00:50:31  5-MIN KDBQ 130650Z AUTO 09007KT 2SM BR OVC002 14/14 A2994 1060 100 1200 090/07 RMK AO2 SLP139 T01390139 TSNO
94908KDBQ DBQ20000613005513106/13/00 00:55:31  5-MIN KDBQ 130655Z AUTO 09006KT 1 3/4SM BR OVC002 14/14 A2994 1060 100 1200 090/06 RMK AO2 SLP139 T01390139 TSNO
94908KDBQ DBQ20000613010011406/13/00 01:00:31  5-MIN KDBQ 130700Z AUTO 09006KT 1 1/2SM BR OVC002 14/14 A2994 1060 100 1200 090/06 RMK AO2 TSNO
94908KDBQ DBQ20000613010511306/13/00 01:05:31  5-MIN KDBQ 130705Z AUTO 06004KT 1 1/2SM BR OVC002 14/14 A2995 1050 96 1300 060/04 RMK AO2 TSNO
94908KDBQ DBQ20000613011011906/13/00 01:10:31  5-MIN KDBQ 130710Z AUTO VRB04KT 1 1/4SM BR OVC002 14/14 A2996 1040 96 1300 VRB/04 RMK AO2 P0001 TSNO
94908KDBQ DBQ20000613011512806/13/00 01:15:31  5-MIN KDBQ 130715Z AUTO 04010KT 3/4SM +RA BR OVC002 14/14 A2993 1070 100 1200 040/10 RMK AO2 RAB12 P0019 TSNO
94908KDBQ DBQ20000613012013506/13/00 01:20:31  5-MIN KDBQ 130720Z AUTO 08005KT 3/4SM -RA BR BKN002 OVC005 14/14 A2993 1070 100 1200 080/05 RMK AO2 RAB12 P0030 TSNO
94908KDBQ DBQ20000613012513706/13/00 01:25:31  5-MIN KDBQ 130725Z AUTO 09005KT 1 1/2SM +RA BR BKN002 OVC007 14/14 A2993 1070 100 1200 090/05 RMK AO2 RAB12 P0036 TSNO
94908KDBQ DBQ20000613013013706/13/00 01:30:31  5-MIN KDBQ 130730Z AUTO 32006KT 1 3/4SM +RA BR SCT002 OVC007 14/14 A2996 1040 100 1200 320/06 RMK AO2 RAB12 P0038 TSNO
94908KDBQ DBQ20000613013513606/13/00 01:35:31  5-MIN KDBQ 130735Z AUTO 11005KT 2 1/2SM RA BR BKN002 OVC007 14/14 A2994 1060 100 1200 110/05 RMK AO2 RAB12 P0044 TSNO
94908KDBQ DBQ20000613014013906/13/00 01:40:31  5-MIN KDBQ 130740Z AUTO 08007KT 3SM -RA BR SCT004 BKN007 OVC055 14/14 A2992 1070 96 1300 080/07 RMK AO2 RAB12 P0044 TSNO
94908KDBQ DBQ20000613014513206/13/00 01:45:31  5-MIN KDBQ 130745Z AUTO 09006KT 5SM -RA BR BKN007 BKN055 14/14 A2993 1070 96 1300 090/06 RMK AO2 RAB12 P0045 TSNO
94908KDBQ DBQ20000613015014606/13/00 01:50:31  5-MIN KDBQ 130750Z AUTO 07004KT 7SM -RA SCT007 BKN055 14/14 A2993 1070 96 1300 070/04 RMK AO2 RAB12 SLP134 P0045 T01440139 TSNO
94908KDBQ DBQ20000613015515206/13/00 01:55:31  5-MIN KDBQ 130755Z AUTO 03006KT 9SM FEW003 BKN007 BKN055 14/14 A2993 1070 96 1300 030/06 RMK AO2 RAB12E51 SLP134 P0045 T01440139 TSNO
94908KDBQ DBQ20000613020012006/13/00 02:00:31  5-MIN KDBQ 130800Z AUTO 01007KT 8SM SCT003 BKN009 BKN055 14/14 A2992 1070 96 1300 010/07 RMK AO2 TSNO
94908KDBQ DBQ20000613020512006/13/00 02:05:31  5-MIN KDBQ 130805Z AUTO 02008KT 7SM BKN003 BKN009 BKN055 14/14 A2992 1070 96 1300 010/08 RMK AO2 TSNO
94908KDBQ DBQ20000613021012306/13/00 02:10:31  5-MIN KDBQ 130810Z AUTO 01008KT 5SM BR BKN003 BKN009 BKN030 14/14 A2993 1070 96 1300 010/08 RMK AO2 TSNO
94908KDBQ DBQ20000613021512706/13/00 02:15:31  5-MIN KDBQ 130815Z AUTO 03007KT 1 1/2SM BR BKN003 BKN009 OVC030 14/14 A2991 1080 96 1300 030/07 RMK AO2 TSNO
94908KDBQ DBQ20000613022012706/13/00 02:20:31  5-MIN KDBQ 130820Z AUTO 04007KT 1 1/4SM BR BKN003 OVC030 14/14 A2990 1090 96 1300 040/07 RMK AO2 PRESFR TSNO
94908KDBQ DBQ20000613022511306/13/00 02:25:31  5-MIN KDBQ 130825Z AUTO VRB04KT 1 3/4SM BR OVC003 14/14 A2992 1080 96 1300 VRB/04 RMK AO2 TSNO
94908KDBQ DBQ20000613023012906/13/00 02:30:31  5-MIN KDBQ 130830Z AUTO 12011KT 1 1/4SM -RA BR OVC001 14/14 A2991 1080 96 1300 120/11 RMK AO2 RAB30 P0014 TSNO
94908KDBQ DBQ20000613023512906/13/00 02:35:31  5-MIN KDBQ 130835Z AUTO 35006KT 1 1/4SM +RA BR OVC001 14/14 A2991 1090 96 1300 350/06 RMK AO2 RAB30 P0016 TSNO
94908KDBQ DBQ20000613024012506/13/00 02:40:31  5-MIN KDBQ 130840Z AUTO 04009KT 2SM -RA BR OVC001 14/14 A2990 1100 96 1300 040/09 RMK AO2 RAB30 P0016 TSNO
94908KDBQ DBQ20000613024512206/13/00 02:45:31  5-MIN KDBQ 130845Z AUTO 02009KT 7SM -RA OVC001 14/14 A2991 1090 96 1300 020/09 RMK AO2 RAB30 P0016 TSNO
94908KDBQ DBQ20000613025015806/13/00 02:50:31  5-MIN KDBQ 130850Z AUTO 03010KT 7SM -RA BKN003 OVC009 14/14 A2990 1100 96 1300 030/10 RMK AO2 RAB30 SLP125 P0017 60062 T01440139 56003 TSNO
94908KDBQ DBQ20000613025519906/13/00 02:55:31  5-MIN KDBQ 130855Z AUTO 31023G26KT 6SM -RA BR BKN003 BKN013 OVC070 14/14 A2997 1040 96 1300 310/23G26 RMK AO2 PK WND 31026/0855 RAB30 PRESRR SLP148 P0017 60062 T01440139 55002 TSNO
94908KDBQ DBQ20000613030015906/13/00 03:00:31  5-MIN KDBQ 130900Z AUTO 06011G26KT 010V100 1 3/4SM +RA BR SCT003 BKN006 OVC070 14/14 A2991 1090 96 1300 060/11G26 010V100 RMK AO2 P0021 TSNO
94908KDBQ DBQ20000613030512606/13/00 03:05:31  5-MIN KDBQ 130905Z AUTO 10016KT 1SM +RA BR BKN003 OVC023 14/14 A2990 1100 96 1300 100/16 RMK AO2 P0045 TSNO
94908KDBQ DBQ20000613031015906/13/00 03:10:31  5-MIN KDBQ 130910Z AUTO 12012G20KT 3/4SM +RA BR FEW003 BKN006 OVC023 17/16 A2987 1120 96 1600 120/12G20 RMK AO2 WSHFT 0853 PRESFR P0061 TSNO
94908KDBQ DBQ20000613031515006/13/00 03:15:31  5-MIN KDBQ 130915Z AUTO 15014G20KT 1SM +RA BR FEW003 OVC008 18/17 A2986 1130 93 1800 150/14G20 RMK AO2 WSHFT 0853 PRESFR P0068 TSNO
94908KDBQ DBQ20000613032014906/13/00 03:20:31  5-MIN KDBQ 130920Z AUTO 16008G16KT 3SM RA BR FEW003 BKN013 OVC045 19/18 A2986 1130 93 2000 160/08G16 RMK AO2 WSHFT 0853 P0069 TSNO
94908KDBQ DBQ20000613032515006/13/00 03:25:31  5-MIN KDBQ 130925Z AUTO 24015G19KT 6SM -RA BR BKN015 BKN025 OVC070 19/18 A2988 1110 93 1900 240/15G19 RMK AO2 WSHFT 0853 P0073 TSNO
94908KDBQ DBQ20000613033017906/13/00 03:30:31  5-MIN KDBQ 130930Z AUTO 21024G39KT 1 1/4SM +RA BR BKN011 BKN025 OVC036 18/17 A2990 1100 96 1700 210/24G39 RMK AO2 PK WND 20039/0930 WSHFT 0853 PRESRR P0101 TSNO
94908KDBQ DBQ20000613033517706/13/00 03:35:31  5-MIN KDBQ 130935Z AUTO 31019G41KT 3/4SM +RA BR BKN011 BKN025 OVC031 19/17 A2992 1080 90 1800 310/19G41 RMK AO2 PK WND 30041/0933 WSHFT 0853 PRESRR P0118 TSNO
94908KDBQ DBQ20000613034018606/13/00 03:40:31  5-MIN KDBQ 130940Z AUTO 18008G41KT 150V220 3/4SM +RA BR BKN009 BKN025 OVC031 17/17 A2986 1130 96 1700 180/08G41 150V220 RMK AO2 PK WND 30041/0933 WSHFT 0924 P0145 TSNO
94908KDBQ DBQ20000613034516306/13/00 03:45:31  5-MIN KDBQ 130945Z AUTO VRB04KT 1SM +RA BR BKN013 BKN025 OVC060 18/18 A2987 1120 100 1700 VRB/04 RMK AO2 PK WND 30041/0933 WSHFT 0924 P0147 TSNO
94908KDBQ DBQ20000613035017906/13/00 03:50:31  5-MIN KDBQ 130950Z AUTO VRB04KT 3SM -RA BR BKN019 BKN027 OVC055 18/18 A2987 1130 96 1800 VRB/04 RMK AO2 PK WND 30041/0933 WSHFT 0924 SLP112 P0148 T01830178 TSNO
94908KDBQ DBQ20000613035517606/13/00 03:55:31  5-MIN KDBQ 130955Z AUTO 15008KT 9SM -RA BKN019 BKN040 OVC060 18/18 A2987 1120 96 1800 150/08 RMK AO2 PK WND 30041/0933 WSHFT 0924 SLP114 P0148 T01830178 TSNO
94908KDBQ DBQ20000613040013106/13/00 04:00:31  5-MIN KDBQ 131000Z AUTO 12012KT 10SM -RA BKN024 BKN039 OVC120 18/18 A2987 1120 96 1800 120/12 RMK AO2 P0000 TSNO
94908KDBQ DBQ20000613040513406/13/00 04:05:31  5-MIN KDBQ 131005Z AUTO 11007KT 10SM BKN035 BKN060 BKN120 18/18 A2987 1130 100 1800 110/07 RMK AO2 RAE03 P0000 TSNO
94908KDBQ DBQ20000613041013306/13/00 04:10:31  5-MIN KDBQ 131010Z AUTO 14006KT 10SM FEW039 SCT065 BKN085 18/18 A2986 1130 96 1800 140/06 RMK AO2 RAE03 P0000 TSNO
94908KDBQ DBQ20000613041513106/13/00 04:15:31  5-MIN KDBQ 131015Z AUTO 13004KT 10SM -RA FEW034 BKN065 BKN085 18/18 A2985 1140 96 1800 130/04 RMK AO2 P0000 TSNO
94908KDBQ DBQ20000613042013106/13/00 04:20:31  5-MIN KDBQ 131020Z AUTO 16005KT 10SM -RA FEW028 SCT037 BKN070 18/18 A2986 1130 96 1800 160/05 RMK AO2 P0000 TSNO
94908KDBQ DBQ20000613042513106/13/00 04:25:31  5-MIN KDBQ 131025Z AUTO 17008KT 10SM -RA SCT030 BKN075 BKN110 18/18 A2987 1120 96 1800 170/08 RMK AO2 P0000 TSNO
94908KDBQ DBQ20000613043013606/13/00 04:30:31  5-MIN KDBQ 131030Z AUTO 17009G15KT 9SM -RA SCT030 BKN065 BKN110 18/17 A2987 1130 96 1800 170/09G15 RMK AO2 P0000 TSNO
94908KDBQ DBQ20000613043512906/13/00 04:35:31  5-MIN KDBQ 131035Z AUTO 17007G15KT 9SM -RA FEW030 BKN060 18/17 A2987 1120 96 1700 170/07G15 RMK AO2 P0000 TSNO
94908KDBQ DBQ20000613044012706/13/00 04:40:31  5-MIN KDBQ 131040Z AUTO 07004KT 10SM FEW030 BKN060 17/17 A2986 1130 100 1700 070/04 RMK AO2 RAE40 P0000 TSNO
94908KDBQ DBQ20000613044512606/13/00 04:45:31  5-MIN KDBQ 131045Z 34009KT 3SM BR FEW004 SCT030 BKN060 17/17 A2989 1110 100 1600 340/09 RMK AO2 RAE40 P0000
94908KDBQ DBQ20000613045015006/13/00 04:50:31  5-MIN KDBQ 131050Z 32012KT 3/4SM -RA BR SCT004 BKN028 BKN060 16/16 A2991 1090 100 1400 320/12 RMK AO2 PRESRR SLP128 P0000 T01560156
94908KDBQ DBQ20000613045516106/13/00 04:55:31  5-MIN KDBQ 131055Z 31012KT 3/4SM -TSRA BR SCT004 BKN008 BKN060 16/15 A2992 1080 96 1400 310/12 RMK AO2 TSB54 SLP129 TS N MVG S P0000 T01560150
94908KDBQ DBQ20000613050012806/13/00 05:00:31  5-MIN KDBQ 131100Z 31009KT 1 3/4SM TSRA BR BKN004 BKN010 BKN065 16/15 A2992 1080 96 1400 310/09 RMK AO2 P0007
94908KDBQ DBQ20000613050514106/13/00 05:05:31  5-MIN KDBQ 131105Z 32004KT 1 1/2SM TSRA BR FEW001 BKN004 BKN015 16/16 A2991 1090 96 1500 320/04 RMK AO2 TS OHD MVG S P0013
94908KDBQ DBQ20000613051013506/13/00 05:10:31  5-MIN KDBQ 131110Z VRB04KT 1 1/4SM TSRA BR BKN004 BKN021 16/16 A2990 1100 100 1500 VRB/04 RMK AO2 TS OHD MVG S P0021
94908KDBQ DBQ20000613051513506/13/00 05:15:31  5-MIN KDBQ 131115Z 12009KT 1 1/4SM TSRA BR BKN004 BKN021 16/16 A2989 1110 100 1500 120/09 RMK AO2 TS OHD MVG S P0026
94908KDBQ DBQ20000613052013506/13/00 05:20:31  5-MIN KDBQ 131120Z 13005KT 1 3/4SM TSRA BR BKN004 BKN021 16/16 A2988 1120 100 1500 130/05 RMK AO2 TS OHD MVG S P0026
94908KDBQ DBQ20000613052514306/13/00 05:25:31  5-MIN KDBQ 131125Z 15004KT 4SM -RA BR FEW004 BKN048 OVC110 16/16 A2988 1120 100 1500 150/04 RMK AO2 TSE22 TS OHD MVG S P0026
94908KDBQ DBQ20000613053013606/13/00 05:30:31  5-MIN KDBQ 131130Z 19008KT 4SM -RA BR BKN044 OVC100 17/17 A2989 1100 100 1600 190/08 RMK AO2 TSE22 TS OHD MVG S P0027
94908KDBQ DBQ20000613053514806/13/00 05:35:31  5-MIN KDBQ 131135Z VRB03KT 5SM -RA BR BKN055 OVC100 17/17 A2988 1120 96 1700 VRB/03 RMK AO2 TSE22 FRQ LTGCCCG VC TS N MOV S P0027
94908KDBQ DBQ20000613054014806/13/00 05:40:31  5-MIN KDBQ 131140Z 00000KT 5SM -RA BR BKN060 OVC100 17/17 A2988 1120 96 1700 000/00 RMK AO2 TSE22 FRQ LTGCCCG VC TS N MOV S P0027
94908KDBQ DBQ20000613054514906/13/00 05:45:31  5-MIN KDBQ 131145Z 00000KT 5SM -RA BR BKN060 OVC100 17/17 A2988 1110 100 1700 000/00 RMK AO2 TSE22 FRQ LTGCCCG VC TS N MOV S P0027
94908KDBQ DBQ20000613055019606/13/00 05:50:31  5-MIN KDBQ 131150Z VRB03KT 6SM -RA BR BKN060 OVC100 17/17 A2987 1120 100 1700 VRB/03 RMK AO2 TSE22 SLP114 FRQ LTGCCCG VC TS N MOV S P0027 60237 70271 T01720172 10194 20139 55002
94908KDBQ DBQ20000613055520306/13/00 05:55:31  5-MIN KDBQ 131155Z 10007KT 4SM -RA BR FEW002 BKN055 BKN070 17/17 A2986 1130 100 1600 100/07 RMK AO2 TSE22 SLP111 FRQ LTGCCCG VC TS N MOV S P0027 60237 70271 T01670167 10194 20139 56034
94908KDBQ DBQ20000613060012406/13/00 06:00:31  5-MIN KDBQ 131200Z 15011KT 3SM -RA BR FEW002 BKN060 OVC120 17/17 A2986 1130 100 1600 150/11 RMK AO2 P0000
94908KDBQ DBQ20000613060513906/13/00 06:05:31  5-MIN KDBQ 131205Z 14010KT 5SM -RA BR FEW002 SCT055 BKN120 17/17 A2986 1130 96 1700 140/10 RMK AO2 OCNL LTGCCCG VC P0000
94908KDBQ DBQ20000613061014206/13/00 06:10:31  5-MIN KDBQ 131210Z 15011KT 6SM BR FEW002 SCT049 BKN120 17/17 A2987 1130 100 1700 150/11 RMK AO2 RAE07 OCNL LTGCCCG VC P0000
94908KDBQ DBQ20000613061514106/13/00 06:15:31  5-MIN KDBQ 131215Z 14013KT 6SM BR FEW002 SCT050 BKN120 18/17 A2986 1130 96 1800 140/13 RMK AO2 RAE07 OCNL LTGCCCG VC P0000
94908KDBQ DBQ20000613062013406/13/00 06:20:31  5-MIN KDBQ 131220Z 14014KT 5SM BR FEW002 SCT120 18/17 A2986 1140 96 1800 140/14 RMK AO2 RAE07 OCNL LTGCCCG VC P0000
94908KDBQ DBQ20000613062513406/13/00 06:25:31  5-MIN KDBQ 131225Z 14015KT 4SM BR FEW004 SCT120 18/17 A2986 1130 96 1800 140/15 RMK AO2 RAE07 OCNL LTGCCCG VC P0000
94908KDBQ DBQ20000613063013506/13/00 06:30:31  5-MIN KDBQ 131230Z 14014KT 4SM BR FEW004 SCT100 18/18 A2987 1130 100 1800 140/14 RMK AO2 RAE07 OCNL LTGCCCG VC P0000
94908KDBQ DBQ20000613063513406/13/00 06:35:31  5-MIN KDBQ 131235Z 15012KT 4SM BR FEW004 SCT100 18/18 A2988 1110 96 1800 140/12 RMK AO2 RAE07 OCNL LTGCCCG VC P0000
94908KDBQ DBQ20000613064016306/13/00 06:40:31  5-MIN KDBQ 131240Z 22011G18KT 180V240 4SM BR FEW004 BKN100 18/18 A2991 1090 96 1800 220/11G18 180V240 RMK AO2 RAE07 PRESRR OCNL LTGCCCG VC P0000
94908KDBQ DBQ20000613064514106/13/00 06:45:31  5-MIN KDBQ 131245Z 23016KT 5SM BR FEW004 BKN100 18/18 A2992 1080 96 1800 230/16 RMK AO2 RAE07 PRESRR OCNL LTGCCCG VC P0000
94908KDBQ DBQ20000613065015806/13/00 06:50:31  5-MIN KDBQ 131250Z 17011KT 4SM BR SCT004 SCT045 BKN100 18/18 A2988 1120 96 1800 160/11 RMK AO2 RAE07 SLP116 OCNL LTGCCCG VC P0002 T01830178
94908KDBQ DBQ20000613065516506/13/00 06:55:31  5-MIN KDBQ 131255Z 14013KT 3SM +RA BR FEW006 BKN039 BKN100 18/18 A2987 1130 96 1800 140/13 RMK AO2 RAE07B52 SLP112 OCNL LTGCCCG VC P0004 T01830178
94908KDBQ DBQ20000613070014106/13/00 07:00:31  5-MIN KDBQ 131300Z 11012KT 4SM -RA BR FEW006 BKN039 OVC100 18/18 A2986 1130 96 1800 110/12 RMK AO2 WSHFT 1244 PRESFR P0000
94908KDBQ DBQ20000613070513406/13/00 07:05:31  5-MIN KDBQ 131305Z 06008KT 6SM -RA BR FEW006 BKN047 BKN100 19/18 A2987 1120 97 1900 060/08 RMK AO2 WSHFT 1244 P0000
94908KDBQ DBQ20000613071016206/13/00 07:10:31  5-MIN KDBQ 131310Z 32015G21KT 300V010 8SM FEW006 BKN049 BKN110 19/18 A2993 1070 97 1800 320/15G21 300V010 RMK AO2 WSHFT 1244 RAE10 PRESRR P0000
94908KDBQ DBQ20000613071516706/13/00 07:15:31  5-MIN KDBQ 131315Z 30022G26KT 4SM BR FEW001 SCT007 BKN042 18/17 A2998 1020 96 1600 300/22G26 RMK AO2 PK WND 30026/1314 WSHFT 1244 RAE10 PRESRR P0000
94908KDBQ DBQ20000613072015706/13/00 07:20:31  5-MIN KDBQ 131320Z 32016G26KT 2SM RA BR SCT001 BKN042 BKN110 17/16 A2997 1030 96 1500 310/16G26 RMK AO2 PK WND 30026/1314 WSHFT 1244 P0001
94908KDBQ DBQ20000613072515606/13/00 07:25:31  5-MIN KDBQ 131325Z 32014KT 1 3/4SM +RA BR BKN001 BKN049 BKN110 17/16 A2998 1030 96 1500 320/14 RMK AO2 PK WND 30026/1314 WSHFT 1310 P0002
94908KDBQ DBQ20000613073015706/13/00 07:30:31  5-MIN KDBQ 131330Z 35012KT 1 3/4SM -RA BR BKN001 BKN008 OVC110 16/16 A2995 1050 100 1500 350/12 RMK AO2 PK WND 30026/1314 WSHFT 1310 P0003
94908KDBQ DBQ20000613073519506/13/00 07:35:31  5-MIN KDBQ 131335Z 36009KT 1 3/4SM -TSRA BR BKN001 BKN008 OVC060 16/16 A2995 1050 100 1500 360/09 RMK AO2 PK WND 30026/1314 WSHFT 1310 TSB35 OCNL LTGCCCG VC TS OHD MOV SE P0004
94908KDBQ DBQ20000613074019406/13/00 07:40:31  5-MIN KDBQ 131340Z 03010KT 1 3/4SM TSRA BR SCT001 BKN041 OVC060 16/16 A2994 1060 100 1500 030/10 RMK AO2 PK WND 30026/1314 WSHFT 1310 TSB35 OCNL LTGCCCG VC TS OHD MOV SE P0005
94908KDBQ DBQ20000613074518706/13/00 07:45:31  5-MIN KDBQ 131345Z 02015KT 1 3/4SM TSRA BR SCT001 OVC039 16/16 A2991 1080 100 1500 010/15 RMK AO2 PK WND 30026/1314 WSHFT 1310 TSB35 OCNL LTGCCCG VC TS OHD MOV SE P0005
94908KDBQ DBQ20000613075020206/13/00 07:50:31  5-MIN KDBQ 131350Z 03013KT 3/4SM -TSRA BR SCT001 OVC027 16/16 A2990 1100 96 1500 030/13 RMK AO2 PK WND 30026/1314 WSHFT 1310 TSB35 SLP123 OCNL LTGCCCG VC TS OHD MOV SE P0005 T01610156
94908KDBQ DBQ20000613075520406/13/00 07:55:31  5-MIN KDBQ 131355Z 03012KT 1/2SM -RA FG FEW001 OVC018 16/16 A2991 1090 100 1500 030/12 RMK AO2 PK WND 30026/1314 WSHFT 1310 TSB35E54 SLP127 OCNL LTGCCCG VC TS OHD MOV SE P0005 T01610161
94908KDBQ DBQ20000613080013506/13/00 08:00:31  5-MIN KDBQ 131400Z 36012KT 1/4SM -RA FG FEW001 OVC014 16/16 A2994 1060 100 1500 360/12 RMK AO2 R31/RVR 3000 FT P0001
94908KDBQ DBQ20000613080513506/13/00 08:05:31  5-MIN KDBQ 131405Z 01013KT 1/4SM -RA FG FEW001 OVC010 16/16 A2993 1070 100 1500 010/13 RMK AO2 R31/RVR 3000 FT P0001
94908KDBQ DBQ20000613081012906/13/00 08:10:31  5-MIN KDBQ 131410Z 01013KT 1/4SM FG VV004 16/16 A2993 1070 100 1500 010/13 RMK AO2 RAE07 R31/RVR 1600 FT P0001
94908KDBQ DBQ20000613081512906/13/00 08:15:31  5-MIN KDBQ 131415Z 36011KT 1/4SM FG VV001 16/16 A2995 1060 100 1500 360/11 RMK AO2 RAE07 R31/RVR 2600 FT P0001
94908KDBQ DBQ20000613082012906/13/00 08:20:31  5-MIN KDBQ 131420Z 36009KT 1/4SM FG VV001 16/16 A2995 1050 100 1500 360/09 RMK AO2 RAE07 R31/RVR 2600 FT P0001
94908KDBQ DBQ20000613082512906/13/00 08:25:31  5-MIN KDBQ 131425Z 06006KT 1/4SM FG VV001 16/16 A2992 1080 100 1500 060/06 RMK AO2 RAE07 R31/RVR 2600 FT P0001
94908KDBQ DBQ20000613083012906/13/00 08:30:31  5-MIN KDBQ 131430Z 12010KT 1/4SM FG VV001 16/16 A2993 1070 100 1500 110/10 RMK AO2 RAE07 R31/RVR 2600 FT P0001
94908KDBQ DBQ20000613083513606/13/00 08:35:31  5-MIN KDBQ 131435Z 11012KT 1/2SM -RA FG VV001 16/16 A2992 1070 100 1500 110/12 RMK AO2 RAE07B34 R31/RVR 2600 FT P0001
94908KDBQ DBQ20000613084013506/13/00 08:40:31  5-MIN KDBQ 131440Z 10012KT 2SM -RA BR BKN001 16/16 A2990 1100 100 1500 100/12 RMK AO2 RAE07B34 R31/RVR 2600 FT P0001
94908KDBQ DBQ20000613084513506/13/00 08:45:31  5-MIN KDBQ 131445Z 11014KT 3SM -RA BR BKN001 16/16 A2988 1110 100 1500 110/14 RMK AO2 RAE07B34 R31/RVR 2600 FT P0001
94908KDBQ DBQ20000613085016306/13/00 08:50:31  5-MIN KDBQ 131450Z 11014KT 3SM BR OVC001 16/16 A2987 1130 100 1600 110/14 RMK AO2 RAE07B34E46 SLP113 R31/RVR 2600 FT P0001 60010 T01610161 56034
94908KDBQ DBQ20000613085516306/13/00 08:55:31  5-MIN KDBQ 131455Z 12014KT 3SM BR OVC001 16/16 A2987 1130 100 1600 110/14 RMK AO2 RAE07B34E46 SLP112 R31/RVR 2600 FT P0001 60010 T01610161 50001
94908KDBQ DBQ20000613090010706/13/00 09:00:31  5-MIN KDBQ 131500Z 10009KT 3SM BR BKN001 16/16 A2986 1140 100 1600 090/09 RMK AO2 PRESFR
94908KDBQ DBQ20000613090510006/13/00 09:05:31  5-MIN KDBQ 131505Z 10011KT 4SM BR BKN001 17/17 A2986 1140 100 1600 100/11 RMK AO2
94908KDBQ DBQ20000613091010006/13/00 09:10:31  5-MIN KDBQ 131510Z 10009KT 4SM BR BKN001 17/17 A2986 1140 100 1600 100/09 RMK AO2
94908KDBQ DBQ20000613091510006/13/00 09:15:31  5-MIN KDBQ 131515Z 12009KT 5SM BR SCT001 17/17 A2986 1130 100 1700 120/09 RMK AO2
94908KDBQ DBQ20000613092010006/13/00 09:20:31  5-MIN KDBQ 131520Z 12012KT 5SM BR FEW001 17/17 A2986 1140 100 1700 120/12 RMK AO2
94908KDBQ DBQ20000613092510006/13/00 09:25:31  5-MIN KDBQ 131525Z 13011KT 6SM BR FEW001 17/17 A2987 1130 100 1700 130/11 RMK AO2
94908KDBQ DBQ20000613093009606/13/00 09:30:31  5-MIN KDBQ 131530Z 13012KT 6SM BR CLR 18/17 A2987 1130 96 1800 130/12 RMK AO2
94908KDBQ DBQ20000613093509606/13/00 09:35:31  5-MIN KDBQ 131535Z 13014KT 6SM BR CLR 18/17 A2987 1120 96 1700 120/14 RMK AO2
94908KDBQ DBQ20000613094009606/13/00 09:40:31  5-MIN KDBQ 131540Z 13013KT 6SM BR CLR 18/17 A2988 1120 96 1700 130/13 RMK AO2
94908KDBQ DBQ20000613094509306/13/00 09:45:31  5-MIN KDBQ 131545Z 13014KT 7SM CLR 18/17 A2988 1110 93 1800 130/14 RMK AO2
94908KDBQ DBQ20000613095011306/13/00 09:50:31  5-MIN KDBQ 131550Z 14014KT 8SM FEW004 18/18 A2988 1120 96 1800 140/14 RMK AO2 SLP116 T01830178
94908KDBQ DBQ20000613095511306/13/00 09:55:31  5-MIN KDBQ 131555Z 14015KT 7SM SCT004 18/18 A2988 1120 96 1800 140/15 RMK AO2 SLP115 T01830178
94908KDBQ DBQ20000613100009906/13/00 10:00:31  5-MIN KDBQ 131600Z 14015KT 6SM BR BKN004 18/18 A2987 1120 96 1800 140/15 RMK AO2
94908KDBQ DBQ20000613100509906/13/00 10:05:31  5-MIN KDBQ 131605Z 14015KT 6SM BR SCT004 19/18 A2987 1130 97 1900 140/15 RMK AO2
94908KDBQ DBQ20000613101010506/13/00 10:10:31  5-MIN KDBQ 131610Z 14013G19KT 6SM BR SCT004 19/18 A2987 1130 93 1900 140/13G19 RMK AO2
94908KDBQ DBQ20000613101510506/13/00 10:15:31  5-MIN KDBQ 131615Z 14014G19KT 6SM BR SCT004 19/18 A2986 1130 93 2000 140/14G19 RMK AO2
94908KDBQ DBQ20000613102009606/13/00 10:20:31  5-MIN KDBQ 131620Z 14016KT 7SM SCT004 19/19 A2986 1130 97 2000 140/16 RMK AO2
94908KDBQ DBQ20000613102509606/13/00 10:25:31  5-MIN KDBQ 131625Z 14018KT 7SM SCT004 19/18 A2986 1140 93 2000 140/18 RMK AO2
94908KDBQ DBQ20000613103010206/13/00 10:30:31  5-MIN KDBQ 131630Z 15016G23KT 8SM SCT004 20/19 A2986 1140 93 2000 150/16G23 RMK AO2
94908KDBQ DBQ20000613103510206/13/00 10:35:31  5-MIN KDBQ 131635Z 14016G23KT 9SM SCT004 21/19 A2985 1140 90 2100 140/16G23 RMK AO2
94908KDBQ DBQ20000613104010306/13/00 10:40:31  5-MIN KDBQ 131640Z 15016G21KT 10SM SCT004 21/19 A2984 1150 90 2200 140/16G21 RMK AO2
94908KDBQ DBQ20000613104509706/13/00 10:45:31  5-MIN KDBQ 131645Z 14015KT 10SM SCT004 22/19 A2984 1150 87 2200 140/15 RMK AO2
94908KDBQ DBQ20000613105012006/13/00 10:50:31  5-MIN KDBQ 131650Z 14016G20KT 10SM SCT004 22/19 A2984 1150 84 2300 140/16G20 RMK AO2 SLP101 T02220194
94908KDBQ DBQ20000613105511406/13/00 10:55:31  5-MIN KDBQ 131655Z 14013KT 10SM FEW004 22/20 A2984 1150 87 2300 140/13 RMK AO2 SLP102 T02220200
94908KDBQ DBQ20000613110009406/13/00 11:00:31  5-MIN KDBQ 131700Z 15017KT 10SM CLR 23/19 A2984 1150 81 2400 150/17 RMK AO2
94908KDBQ DBQ20000613110510006/13/00 11:05:31  5-MIN KDBQ 131705Z 14015G19KT 10SM CLR 23/20 A2984 1150 84 2400 140/15G19 RMK AO2
94908KDBQ DBQ20000613111010006/13/00 11:10:31  5-MIN KDBQ 131710Z 15015G19KT 10SM CLR 23/19 A2983 1160 78 2400 150/15G19 RMK AO2
94908KDBQ DBQ20000613111509406/13/00 11:15:31  5-MIN KDBQ 131715Z 15017KT 10SM CLR 23/20 A2983 1160 81 2400 150/17 RMK AO2
94908KDBQ DBQ20000613112010006/13/00 11:20:31  5-MIN KDBQ 131720Z 16017G21KT 10SM CLR 23/20 A2983 1160 81 2400 160/17G21 RMK AO2
94908KDBQ DBQ20000613112510006/13/00 11:25:31  5-MIN KDBQ 131725Z 15017G22KT 10SM CLR 23/20 A2983 1160 81 2400 150/17G22 RMK AO2
94908KDBQ DBQ20000613113010306/13/00 11:30:31  5-MIN KDBQ 131730Z 16017G22KT 10SM FEW014 23/21 A2983 1160 84 2400 160/17G22 RMK AO2
94908KDBQ DBQ20000613113510306/13/00 11:35:31  5-MIN KDBQ 131735Z 16016G23KT 10SM SCT012 23/20 A2983 1160 84 2400 160/16G23 RMK AO2
94908KDBQ DBQ20000613114010306/13/00 11:40:31  5-MIN KDBQ 131740Z 16016G23KT 10SM SCT012 23/21 A2983 1160 87 2400 160/16G23 RMK AO2
94908KDBQ DBQ20000613114510306/13/00 11:45:31  5-MIN KDBQ 131745Z 16012G20KT 10SM FEW012 23/21 A2983 1160 84 2400 160/12G20 RMK AO2
94908KDBQ DBQ20000613115013806/13/00 11:50:31  5-MIN KDBQ 131750Z 17016KT 10SM FEW012 23/21 A2983 1170 84 2400 170/16 RMK AO2 SLP097 60010 T02330206 10233 20161 50001
94908KDBQ DBQ20000613115514406/13/00 11:55:31  5-MIN KDBQ 131755Z 16014G19KT 10SM FEW012 23/20 A2983 1170 81 2400 160/14G19 RMK AO2 SLP097 60010 T02330200 10233 20161 58014
94908KDBQ DBQ20000613120010306/13/00 12:00:31  5-MIN KDBQ 131800Z 15017G20KT 10SM FEW012 24/21 A2982 1170 81 2500 150/17G20 RMK AO2
94908KDBQ DBQ20000613120510306/13/00 12:05:31  5-MIN KDBQ 131805Z 14014G20KT 10SM FEW049 24/20 A2982 1170 78 2500 140/14G20 RMK AO2
94908KDBQ DBQ20000613121009706/13/00 12:10:31  5-MIN KDBQ 131810Z 14011KT 10SM FEW049 24/21 A2981 1180 78 2600 140/11 RMK AO2
94908KDBQ DBQ20000613121509706/13/00 12:15:31  5-MIN KDBQ 131815Z 14014KT 10SM SCT055 24/21 A2981 1180 78 2600 140/14 RMK AO2
94908KDBQ DBQ20000613122009706/13/00 12:20:31  5-MIN KDBQ 131820Z 14011KT 10SM SCT055 24/21 A2981 1180 78 2600 140/11 RMK AO2
94908KDBQ DBQ20000613122509706/13/00 12:25:31  5-MIN KDBQ 131825Z 13012KT 10SM BKN055 24/20 A2981 1180 78 2500 130/12 RMK AO2
94908KDBQ DBQ20000613123009706/13/00 12:30:31  5-MIN KDBQ 131830Z 14011KT 10SM BKN055 24/20 A2981 1180 78 2500 140/11 RMK AO2
94908KDBQ DBQ20000613123509706/13/00 12:35:31  5-MIN KDBQ 131835Z 14010KT 10SM BKN055 24/20 A2981 1180 78 2500 140/10 RMK AO2
94908KDBQ DBQ20000613124009706/13/00 12:40:31  5-MIN KDBQ 131840Z 14012KT 10SM OVC055 24/20 A2981 1180 78 2500 140/12 RMK AO2
94908KDBQ DBQ20000613124509706/13/00 12:45:31  5-MIN KDBQ 131845Z 15013KT 10SM OVC055 24/21 A2981 1180 81 2500 150/13 RMK AO2
94908KDBQ DBQ20000613125012106/13/00 12:50:31  5-MIN KDBQ 131850Z 14013KT 10SM FEW020 OVC060 24/21 A2981 1180 81 2500 140/13 RMK AO2 SLP092 T02390206
94908KDBQ DBQ20000613125512106/13/00 12:55:31  5-MIN KDBQ 131855Z 17015KT 10SM SCT020 OVC060 24/21 A2982 1170 81 2500 170/15 RMK AO2 SLP095 T02390206
94908KDBQ DBQ20000613130011006/13/00 13:00:31  5-MIN KDBQ 131900Z 17015G22KT 10SM BKN018 OVC060 24/21 A2982 1170 81 2500 170/15G22 RMK AO2
94908KDBQ DBQ20000613130511006/13/00 13:05:31  5-MIN KDBQ 131905Z 17013G22KT 10SM SCT018 OVC060 23/21 A2981 1180 87 2500 170/13G22 RMK AO2
94908KDBQ DBQ20000613131010306/13/00 13:10:31  5-MIN KDBQ 131910Z 17015KT 9SM BKN018 OVC060 23/21 A2982 1170 87 2400 170/15 RMK AO2
94908KDBQ DBQ20000613131511206/13/00 13:15:31  5-MIN KDBQ 131915Z 17012KT 8SM -RA OVC018 23/21 A2981 1180 87 2500 170/12 RMK AO2 RAB11 P0000
94908KDBQ DBQ20000613132011406/13/00 13:20:31  5-MIN KDBQ 131920Z 17013KT 5SM RA BR OVC016 23/22 A2981 1180 93 2400 170/13 RMK AO2 RAB11 P0001
94908KDBQ DBQ20000613132512006/13/00 13:25:31  5-MIN KDBQ 131925Z 17017G21KT 4SM RA BR OVC016 23/22 A2980 1190 93 2400 170/17G21 RMK AO2 RAB11 P0002
94908KDBQ DBQ20000613133013906/13/00 13:30:31  5-MIN KDBQ 131930Z 17015G21KT 4SM -TSRA BKN014 OVC020 23/21 A2979 1200 90 2400 170/15G21 RMK AO2 TSB30RAB11 PRESFR P0003
94908KDBQ DBQ20000613133513106/13/00 13:35:31  5-MIN KDBQ 131935Z 16010G21KT 4SM TSRA OVC014 22/21 A2977 1210 93 2400 150/10G21 RMK AO2 TSB30RAB11 PRESFR P0004
94908KDBQ DBQ20000613134015406/13/00 13:40:31  5-MIN KDBQ 131940Z 15012G18KT 5SM -TSRA OVC014 22/20 A2977 1220 90 2300 150/12G18 RMK AO2 TSB30RAB11 PRESFR LTG ICCCCG SW TSRA SW P0004
94908KDBQ DBQ20000613134514306/13/00 13:45:31  5-MIN KDBQ 131945Z 16012KT 10SM -RA SCT016 22/19 A2977 1220 84 2300 160/12 RMK AO2 TSB30E44RAB11 LTG ICCCCG SW TSRA SW P0004
94908KDBQ DBQ20000613135016606/13/00 13:50:31  5-MIN KDBQ 131950Z 16013KT 10SM FEW013 SCT018 22/20 A2977 1220 90 2300 160/13 RMK AO2 TSB30E44RAB11E47 SLP078 LTG ICCCCG SW TSRA SW P0004 T02170200
94908KDBQ DBQ20000613135515806/13/00 13:55:31  5-MIN KDBQ 131955Z 16013KT 9SM FEW018 22/21 A2977 1210 93 2300 160/13 RMK AO2 TSB30E44RAB11E47 SLP079 LTG ICCCCG SW TSRA SW P0004 T02170206
94908KDBQ DBQ20000613140010306/13/00 14:00:31  5-MIN KDBQ 132000Z 16012KT 7SM FEW018 SCT110 22/21 A2978 1210 97 2300 160/12 RMK AO2
94908KDBQ DBQ20000613140509906/13/00 14:05:31  5-MIN KDBQ 132005Z 16013KT 6SM BR SCT110 22/21 A2978 1210 93 2400 160/13 RMK AO2
94908KDBQ DBQ20000613141009906/13/00 14:10:31  5-MIN KDBQ 132010Z 17013KT 5SM BR BKN110 23/22 A2977 1220 93 2400 170/13 RMK AO2
94908KDBQ DBQ20000613141511206/13/00 14:15:31  5-MIN KDBQ 132015Z 16016G21KT 4SM BR FEW060 BKN110 23/22 A2977 1220 93 2400 160/16G21 RMK AO2
94908KDBQ DBQ20000613142012806/13/00 14:20:31  5-MIN KDBQ 132020Z 16016G21KT 4SM -RA BR SCT050 BKN110 23/22 A2977 1220 93 2400 160/16G21 RMK AO2 RAB16 P0000
94908KDBQ DBQ20000613142512806/13/00 14:25:31  5-MIN KDBQ 132025Z 16018G23KT 4SM -RA BR SCT046 BKN110 23/22 A2976 1220 93 2400 150/18G23 RMK AO2 RAB16 P0001
94908KDBQ DBQ20000613143012706/13/00 14:30:31  5-MIN KDBQ 132030Z 15017G23KT 4SM RA BR BKN044 BKN110 23/22 A2977 1220 93 2400 150/17G23 RMK AO2 RAB16 P0002
94908KDBQ DBQ20000613143517506/13/00 14:35:31  5-MIN KDBQ 132035Z 15017G25KT 3SM TSRA BKN042 BKN110 23/22 A2977 1220 93 2400 150/17G25 RMK AO2 TSB33RAB16 TSRA OVHD MVG ENE OCNL LTGCCCG OVHD MOV ENE P0003
94908KDBQ DBQ20000613144016806/13/00 14:40:31  5-MIN KDBQ 132040Z 16017G25KT 3SM TSRA BKN038 22/22 A2977 1210 97 2400 150/17G25 RMK AO2 TSB33RAB16 TSRA OVHD MVG ENE OCNL LTGCCCG OVHD MOV ENE P0004
94908KDBQ DBQ20000613144516206/13/00 14:45:31  5-MIN KDBQ 132045Z 16021KT 4SM TSRA OVC038 22/21 A2978 1210 90 2400 160/21 RMK AO2 TSB33RAB16 TSRA OVHD MVG ENE OCNL LTGCCCG OVHD MOV ENE P0005
94908KDBQ DBQ20000613145019706/13/00 14:50:31  5-MIN KDBQ 132050Z 16018G23KT 5SM TSRA OVC036 22/19 A2978 1210 87 2300 160/18G23 RMK AO2 TSB33RAB16 SLP081 TSRA OVHD MVG ENE OCNL LTGCCCG OVHD MOV ENE P0006 60010 T02170194 58014
94908KDBQ DBQ20000613145519806/13/00 14:55:31  5-MIN KDBQ 132055Z 17017G23KT 7SM -TSRA OVC034 21/19 A2979 1200 87 2200 170/17G23 RMK AO2 TSB33RAB16 SLP083 TSRA OVHD MVG ENE OCNL LTGCCCG OVHD MOV ENE P0006 60010 T02110189 55013
94908KDBQ DBQ20000613150010806/13/00 15:00:31  5-MIN KDBQ 132100Z 17013KT 8SM -TSRA OVC032 21/19 A2978 1200 90 2200 170/13 RMK AO2 P0001
94908KDBQ DBQ20000613150510806/13/00 15:05:31  5-MIN KDBQ 132105Z 16010KT 7SM -TSRA OVC032 21/19 A2978 1210 90 2200 160/10 RMK AO2 P0002
94908KDBQ DBQ20000613151010806/13/00 15:10:31  5-MIN KDBQ 132110Z 17014KT 7SM -TSRA OVC032 21/19 A2980 1190 93 2200 170/14 RMK AO2 P0002
94908KDBQ DBQ20000613151514606/13/00 15:15:31  5-MIN KDBQ 132115Z 19020G26KT 9SM -TSRA BKN030 OVC090 21/19 A2983 1160 93 2100 190/20G26 RMK AO2 PK WND 19026/2115 PRESRR P0003
94908KDBQ DBQ20000613152015306/13/00 15:20:31  5-MIN KDBQ 132120Z 19027G38KT 9SM -TSRA BKN030 BKN041 OVC090 21/19 A2984 1150 93 2100 190/27G38 RMK AO2 PK WND 19038/2120 PRESRR P0003
94908KDBQ DBQ20000613152514506/13/00 15:25:31  5-MIN KDBQ 132125Z 19032G40KT 4SM TSRA SCT030 BKN041 OVC080 19/18 A2983 1160 93 2000 190/32G40 RMK AO2 PK WND 18040/2121 P0004
94908KDBQ DBQ20000613153014606/13/00 15:30:31  5-MIN KDBQ 132130Z 18028G40KT 3SM +TSRA SCT025 BKN060 OVC080 19/17 A2984 1150 90 1900 180/28G40 RMK AO2 PK WND 18040/2127 P0006
94908KDBQ DBQ20000613153514506/13/00 15:35:31  5-MIN KDBQ 132135Z 18021G40KT 3SM TSRA FEW017 BKN035 OVC080 19/17 A2984 1160 90 1900 180/21G40 RMK AO2 PK WND 18040/2127 P0007
94908KDBQ DBQ20000613154014506/13/00 15:40:31  5-MIN KDBQ 132140Z 18018G26KT 5SM TSRA FEW017 BKN042 OVC080 19/18 A2984 1150 93 1900 180/18G26 RMK AO2 PK WND 18040/2127 P0008
94908KDBQ DBQ20000613154513906/13/00 15:45:31  5-MIN KDBQ 132145Z 18014KT 5SM TSRA FEW017 BKN040 OVC080 19/18 A2984 1150 93 1900 180/14 RMK AO2 PK WND 18040/2127 P0009
94908KDBQ DBQ20000613155015606/13/00 15:50:31  5-MIN KDBQ 132150Z 18012KT 4SM TSRA FEW017 BKN038 OVC060 18/18 A2984 1160 96 1900 170/12 RMK AO2 PK WND 18040/2127 SLP100 P0010 T01830178
94908KDBQ DBQ20000613155519006/13/00 15:55:31  5-MIN KDBQ 132155Z 17013KT 6SM -TSRA OVC045 18/18 A2983 1160 96 1900 170/13 RMK AO2 PK WND 18040/2127 SLP098 TSRA OVHD MOV EAST FRQ LTGCCCGCA OVHD MOV EAST P0010 T01830178
94908KDBQ DBQ20000613160010806/13/00 16:00:31  5-MIN KDBQ 132200Z 16011KT 6SM -TSRA OVC047 18/17 A2982 1170 93 1900 160/11 RMK AO2 P0001
94908KDBQ DBQ20000613160510706/13/00 16:05:31  5-MIN KDBQ 132205Z 14011KT 6SM TSRA OVC045 18/17 A2982 1170 93 1900 140/11 RMK AO2 P0001
94908KDBQ DBQ20000613161010806/13/00 16:10:31  5-MIN KDBQ 132210Z 15012KT 7SM -TSRA OVC043 18/17 A2981 1180 93 1900 150/12 RMK AO2 P0002
94908KDBQ DBQ20000613161510806/13/00 16:15:31  5-MIN KDBQ 132215Z 14011KT 8SM -TSRA OVC045 18/17 A2981 1180 93 1900 140/11 RMK AO2 P0002
94908KDBQ DBQ20000613162010806/13/00 16:20:31  5-MIN KDBQ 132220Z 14010KT 9SM -TSRA OVC045 18/17 A2981 1180 93 1900 140/10 RMK AO2 P0003
94908KDBQ DBQ20000613162512606/13/00 16:25:31  5-MIN KDBQ 132225Z 13008KT 8SM -RA BKN043 OVC100 18/17 A2980 1190 93 1900 130/08 RMK AO2 TSE22 PRESFR P0003
94908KDBQ DBQ20000613163015406/13/00 16:30:31  5-MIN KDBQ 132230Z 13008KT 7SM TSRA BKN041 OVC090 18/17 A2980 1190 93 1900 130/08 RMK AO2 TSE22B27 FREQ LTGCCCGCA IN AREA MOV UKN P0004
94908KDBQ DBQ20000613163515706/13/00 16:35:31  5-MIN KDBQ 132235Z 14005KT 5SM TSRA BR BKN036 OVC090 18/17 A2980 1190 93 1900 140/05 RMK AO2 TSE22B27 FREQ LTGCCCGCA IN AREA MOV UKN P0006
94908KDBQ DBQ20000613164015706/13/00 16:40:31  5-MIN KDBQ 132240Z 17004KT 5SM TSRA BR BKN038 OVC090 18/17 A2981 1180 93 1900 170/04 RMK AO2 TSE22B27 FREQ LTGCCCGCA IN AREA MOV UKN P0007
94908KDBQ DBQ20000613164516106/13/00 16:45:31  5-MIN KDBQ 132245Z 12008KT 2 1/2SM TSRA BR BKN033 OVC090 18/17 A2980 1190 93 1900 120/08 RMK AO2 TSE22B27 FREQ LTGCCCGCA IN AREA MOV UKN P0011
94908KDBQ DBQ20000613165017806/13/00 16:50:31  5-MIN KDBQ 132250Z 12008KT 2 1/2SM TSRA BR BKN033 OVC090 18/17 A2981 1190 93 1900 120/08 RMK AO2 TSE22B27 SLP091 FREQ LTGCCCGCA IN AREA MOV UKN P0012 T01830172
94908KDBQ DBQ20000613165517506/13/00 16:55:31  5-MIN KDBQ 132255Z 11006KT 5SM -TSRA BR BKN037 OVC090 18/17 A2979 1200 93 1900 110/06 RMK AO2 TSE22B27 SLP087 FREQ LTGCCCGCA IN AREA MOV UKN P0013 T01830172
94908KDBQ DBQ20000613170012406/13/00 17:00:31  5-MIN KDBQ 132300Z 10007KT 5SM TSRA BR BKN035 OVC090 18/17 A2978 1210 93 1900 100/07 RMK AO2 PRESFR P0001
94908KDBQ DBQ20000613170512506/13/00 17:05:31  5-MIN KDBQ 132305Z 12007KT 5SM -TSRA BR BKN033 BKN070 OVC085 18/17 A2979 1200 93 1900 120/07 RMK AO2 P0002
94908KDBQ DBQ20000613171012106/13/00 17:10:31  5-MIN KDBQ 132310Z 11010KT 7SM TSRA SCT032 BKN065 OVC085 18/17 A2978 1210 93 1900 110/10 RMK AO2 P0003
94908KDBQ DBQ20000613171513806/13/00 17:15:31  5-MIN KDBQ 132315Z 12012KT 8SM -RA FEW037 SCT065 OVC090 18/17 A2978 1210 96 1900 120/12 RMK AO2 TSE13 TS MVD EAST P0003
94908KDBQ DBQ20000613172013906/13/00 17:20:31  5-MIN KDBQ 132320Z 12014KT 10SM -RA FEW035 SCT070 OVC085 18/17 A2978 1210 96 1900 110/14 RMK AO2 TSE13 TS MVD EAST P0003
94908KDBQ DBQ20000613172513306/13/00 17:25:31  5-MIN KDBQ 132325Z 11012KT 10SM FEW021 OVC085 18/17 A2977 1220 96 1900 110/12 RMK AO2 TSE13RAE23 TS MVD EAST P0003
94908KDBQ DBQ20000613173013306/13/00 17:30:31  5-MIN KDBQ 132330Z 11013KT 10SM FEW065 OVC080 18/17 A2976 1220 96 1900 110/13 RMK AO2 TSE13RAE23 TS MVD EAST P0003
94908KDBQ DBQ20000613173511406/13/00 17:35:31  5-MIN KDBQ 132335Z 11011KT 10SM OVC080 18/17 A2977 1220 96 1900 110/11 RMK AO2 TSE13RAE23 P0003
94908KDBQ DBQ20000613174011406/13/00 17:40:31  5-MIN KDBQ 132340Z 11008KT 10SM OVC080 18/17 A2977 1220 96 1900 110/08 RMK AO2 TSE13RAE23 P0003
94908KDBQ DBQ20000613174511406/13/00 17:45:31  5-MIN KDBQ 132345Z 11008KT 10SM OVC080 18/17 A2976 1220 96 1900 110/08 RMK AO2 TSE13RAE23 P0003
94908KDBQ DBQ20000613175015506/13/00 17:50:31  5-MIN KDBQ 132350Z 11010KT 10SM OVC080 18/17 A2976 1220 96 1900 110/10 RMK AO2 TSE13RAE23 SLP075 P0003 60036 T01780172 10244 20178 55013
94908KDBQ DBQ20000613175515506/13/00 17:55:31  5-MIN KDBQ 132355Z 11008KT 10SM OVC080 18/17 A2976 1230 93 1900 110/08 RMK AO2 TSE13RAE23 SLP075 P0003 60036 T01830172 10244 20178 58008
94908KDBQ DBQ20000613180010406/13/00 18:00:31  5-MIN KDBQ 140000Z 12009KT 10SM BKN080 BKN095 18/17 A2976 1230 93 1900 120/09 RMK AO2
94908KDBQ DBQ20000613180510406/13/00 18:05:31  5-MIN KDBQ 140005Z 11007KT 10SM FEW042 BKN085 18/17 A2975 1230 93 1900 100/07 RMK AO2
94908KDBQ DBQ20000613181009706/13/00 18:10:31  5-MIN KDBQ 140010Z 10007KT 10SM BKN085 18/17 A2975 1240 93 2000 100/07 RMK AO2
94908KDBQ DBQ20000613181509706/13/00 18:15:31  5-MIN KDBQ 140015Z 10008KT 10SM BKN085 18/17 A2974 1240 93 2000 100/08 RMK AO2
94908KDBQ DBQ20000613182009706/13/00 18:20:31  5-MIN KDBQ 140020Z 10007KT 10SM BKN085 18/17 A2974 1240 93 2000 100/07 RMK AO2
94908KDBQ DBQ20000613182509706/13/00 18:25:31  5-MIN KDBQ 140025Z 10008KT 10SM BKN085 18/17 A2974 1240 93 2000 100/08 RMK AO2
94908KDBQ DBQ20000613183009706/13/00 18:30:31  5-MIN KDBQ 140030Z 09007KT 10SM OVC090 18/17 A2974 1240 93 2000 090/07 RMK AO2
94908KDBQ DBQ20000613183509706/13/00 18:35:31  5-MIN KDBQ 140035Z 07005KT 10SM OVC090 18/17 A2974 1250 93 2000 070/05 RMK AO2
94908KDBQ DBQ20000613184009706/13/00 18:40:31  5-MIN KDBQ 140040Z VRB03KT 10SM BKN090 18/17 A2974 1240 93 2000 VRB/03 RMK AO2
94908KDBQ DBQ20000613184510406/13/00 18:45:31  5-MIN KDBQ 140045Z 00000KT 10SM FEW041 BKN090 18/17 A2974 1250 93 2000 000/00 RMK AO2
94908KDBQ DBQ20000613185013106/13/00 18:50:31  5-MIN KDBQ 140050Z AUTO 09005KT 10SM FEW041 BKN090 18/17 A2973 1250 93 2000 090/05 RMK AO2 SLP065 T01830172 TSNO
94908KDBQ DBQ20000613185513106/13/00 18:55:31  5-MIN KDBQ 140055Z AUTO 11010KT 10SM FEW035 SCT095 18/17 A2973 1260 93 2000 110/10 RMK AO2 SLP063 T01830172 TSNO
94908KDBQ DBQ20000613190013106/13/00 19:00:31  5-MIN KDBQ 140100Z AUTO 11011KT 7SM -RA SCT039 BKN095 18/17 A2972 1260 93 2000 110/11 RMK AO2 RAB0056 P0001 TSNO
94908KDBQ DBQ20000613190513406/13/00 19:05:31  5-MIN KDBQ 140105Z AUTO 11012KT 6SM -RA BR BKN050 BKN095 18/17 A2972 1270 93 2000 110/12 RMK AO2 RAB0056 P0001 TSNO
94908KDBQ DBQ20000613191013806/13/00 19:10:31  5-MIN KDBQ 140110Z AUTO 11012KT 9SM -RA SCT060 BKN090 18/17 A2971 1270 93 2000 110/12 RMK AO2 RAB0056 PRESFR P0001 TSNO
94908KDBQ DBQ20000613191513906/13/00 19:15:31  5-MIN KDBQ 140115Z AUTO 11013KT 10SM -RA SCT050 BKN090 18/17 A2970 1280 93 2000 110/13 RMK AO2 RAB0056 PRESFR P0001 TSNO
94908KDBQ DBQ20000613192013906/13/00 19:20:31  5-MIN KDBQ 140120Z AUTO 11014KT 10SM -RA SCT050 BKN085 18/17 A2969 1290 93 2000 110/14 RMK AO2 RAB0056 PRESFR P0001 TSNO
94908KDBQ DBQ20000613192513206/13/00 19:25:31  5-MIN KDBQ 140125Z AUTO 11015KT 10SM -RA SCT050 BKN085 18/17 A2969 1290 93 2000 110/15 RMK AO2 RAB0056 P0001 TSNO
94908KDBQ DBQ20000613193013906/13/00 19:30:31  5-MIN KDBQ 140130Z AUTO 11015KT 10SM -RA SCT048 BKN060 BKN085 18/17 A2969 1290 93 2000 110/15 RMK AO2 RAB0056 P0002 TSNO
94908KDBQ DBQ20000613193513906/13/00 19:35:31  5-MIN KDBQ 140135Z AUTO 12015KT 10SM -RA FEW041 SCT060 BKN090 18/17 A2969 1300 93 2000 110/15 RMK AO2 RAB0056 P0002 TSNO
94908KDBQ DBQ20000613194013806/13/00 19:40:31  5-MIN KDBQ 140140Z AUTO 12014KT 10SM FEW034 BKN090 BKN110 18/17 A2969 1290 93 2000 110/14 RMK AO2 RAB0056E38 P0002 TSNO
94908KDBQ DBQ20000613194513806/13/00 19:45:31  5-MIN KDBQ 140145Z AUTO 12014KT 10SM FEW038 SCT050 BKN090 18/17 A2969 1290 93 2000 120/14 RMK AO2 RAB0056E38 P0002 TSNO
94908KDBQ DBQ20000613195015506/13/00 19:50:31  5-MIN KDBQ 140150Z AUTO 12013KT 10SM FEW032 SCT055 BKN100 18/17 A2969 1300 93 2000 120/13 RMK AO2 RAB0056E38 SLP050 P0002 T01830172 TSNO
94908KDBQ DBQ20000613195514806/13/00 19:55:31  5-MIN KDBQ 140155Z AUTO 12014KT 10SM SCT060 BKN100 18/17 A2968 1300 93 2000 120/14 RMK AO2 RAB0056E38 SLP049 P0002 T01830172 TSNO
94908KDBQ DBQ20000613200012106/13/00 20:00:31  5-MIN KDBQ 140200Z AUTO 12015KT 10SM SCT055 BKN070 OVC100 18/17 A2968 1300 93 2000 120/15 RMK AO2 TSNO
94908KDBQ DBQ20000613200512106/13/00 20:05:31  5-MIN KDBQ 140205Z AUTO 11015KT 10SM SCT055 BKN070 OVC100 18/17 A2968 1300 93 2000 110/15 RMK AO2 TSNO
94908KDBQ DBQ20000613201012106/13/00 20:10:31  5-MIN KDBQ 140210Z AUTO 11014KT 10SM SCT055 BKN070 OVC100 18/17 A2968 1300 93 2000 110/14 RMK AO2 TSNO
94908KDBQ DBQ20000613201512006/13/00 20:15:31  5-MIN KDBQ 140215Z AUTO 11015KT 9SM FEW046 BKN070 OVC100 18/17 A2967 1310 93 2000 110/15 RMK AO2 TSNO
94908KDBQ DBQ20000613202013906/13/00 20:20:31  5-MIN KDBQ 140220Z AUTO 13015KT 5SM -RA BR SCT042 BKN060 OVC100 18/17 A2968 1300 93 2000 130/15 RMK AO2 RAB17 P0005 TSNO
94908KDBQ DBQ20000613202513906/13/00 20:25:31  5-MIN KDBQ 140225Z AUTO 11018KT 2SM +RA BR FEW013 BKN060 OVC080 18/17 A2967 1310 96 2000 110/18 RMK AO2 RAB17 P0016 TSNO
94908KDBQ DBQ20000613203014306/13/00 20:30:31  5-MIN KDBQ 140230Z AUTO 12018KT 2 1/2SM -RA BR FEW032 BKN046 OVC085 18/17 A2967 1310 93 2000 120/18 RMK AO2 RAB17 P0016 TSNO
94908KDBQ DBQ20000613203514206/13/00 20:35:31  5-MIN KDBQ 140235Z AUTO 12019G24KT 10SM BKN046 BKN060 OVC110 18/17 A2966 1320 93 2000 120/19G24 RMK AO2 RAB17E34 P0016 TSNO
94908KDBQ DBQ20000613204014406/13/00 20:40:31  5-MIN KDBQ 140240Z AUTO 13017G24KT 6SM RA BR FEW030 BKN055 OVC110 18/18 A2967 1310 96 2000 130/17G24 RMK AO2 RAB17 P0017 TSNO
94908KDBQ DBQ20000613204514506/13/00 20:45:31  5-MIN KDBQ 140245Z AUTO 13016G23KT 6SM -RA BR SCT039 BKN055 OVC110 19/18 A2966 1320 93 2100 130/16G23 RMK AO2 RAB17 P0017 TSNO
94908KDBQ DBQ20000613205016606/13/00 20:50:31  5-MIN KDBQ 140250Z AUTO 13015KT 10SM -RA BKN045 BKN055 OVC110 19/18 A2966 1320 93 2100 130/15 RMK AO2 RAB17 SLP039 P0017 60019 T01890178 58008 TSNO
94908KDBQ DBQ20000613205516406/13/00 20:55:31  5-MIN KDBQ 140255Z AUTO 14016KT 7SM RA FEW033 BKN050 OVC110 19/18 A2966 1320 90 2200 140/16 RMK AO2 RAB17 SLP040 P0019 60021 T01940178 56033 TSNO
94908KDBQ DBQ20000613210013606/13/00 21:00:31  5-MIN KDBQ 140300Z AUTO 14017G23KT 7SM -RA FEW023 SCT040 BKN050 19/18 A2966 1320 93 2200 140/17G23 RMK AO2 P0000 TSNO
94908KDBQ DBQ20000613210515406/13/00 21:05:31  5-MIN KDBQ 140305Z AUTO 14019G26KT 7SM -RA FEW029 SCT046 BKN090 19/18 A2965 1330 93 2200 140/19G26 RMK AO2 PK WND 14026/0301 P0002 TSNO
94908KDBQ DBQ20000613211015406/13/00 21:10:31  5-MIN KDBQ 140310Z AUTO 14017G26KT 8SM -RA FEW029 SCT075 BKN090 20/18 A2965 1330 90 2300 130/17G26 RMK AO2 PK WND 14026/0307 P0002 TSNO
94908KDBQ DBQ20000613211515706/13/00 21:15:31  5-MIN KDBQ 140315Z AUTO 14015G26KT 10SM FEW024 BKN090 BKN100 19/18 A2966 1320 93 2200 140/15G26 RMK AO2 PK WND 14026/0307 RAE13 P0002 TSNO
94908KDBQ DBQ20000613212015106/13/00 21:20:31  5-MIN KDBQ 140320Z AUTO 14016KT 10SM FEW012 BKN090 BKN110 19/18 A2966 1320 93 2200 140/16 RMK AO2 PK WND 14026/0307 RAE13 P0002 TSNO
94908KDBQ DBQ20000613212515106/13/00 21:25:31  5-MIN KDBQ 140325Z AUTO 14014KT 10SM FEW070 BKN090 OVC110 19/18 A2966 1320 93 2200 140/14 RMK AO2 PK WND 14026/0307 RAE13 P0002 TSNO
94908KDBQ DBQ20000613213016406/13/00 21:30:31  5-MIN KDBQ 140330Z AUTO 25015G22KT 10SM FEW014 BKN090 OVC110 19/18 A2971 1280 93 2100 250/15G22 RMK AO2 PK WND 14026/0307 RAE13 PRESRR P0002 TSNO
94908KDBQ DBQ20000613213518106/13/00 21:35:31  5-MIN KDBQ 140335Z AUTO 25017G22KT 8SM -RA FEW014 BKN050 OVC110 19/18 A2972 1270 93 2100 250/17G22 RMK AO2 PK WND 14026/0307 WSHFT 0317 RAE13B34 PRESRR P0002 TSNO
94908KDBQ DBQ20000613214017106/13/00 21:40:31  5-MIN KDBQ 140340Z AUTO 26016KT 5SM +RA BR SCT049 BKN060 OVC100 19/18 A2971 1270 93 2100 260/16 RMK AO2 PK WND 14026/0307 WSHFT 0322 RAE13B34 P0005 TSNO
94908KDBQ DBQ20000613214517106/13/00 21:45:31  5-MIN KDBQ 140345Z AUTO 24015KT 4SM +RA BR FEW028 BKN048 OVC075 19/18 A2973 1260 93 2000 240/15 RMK AO2 PK WND 14026/0307 WSHFT 0322 RAE13B34 P0009 TSNO
94908KDBQ DBQ20000613215019806/13/00 21:50:31  5-MIN KDBQ 140350Z AUTO 24017G21KT 1 1/2SM +RA BR SCT010 SCT031 OVC050 19/18 A2973 1260 93 2000 240/17G21 RMK AO2 PK WND 14026/0307 WSHFT 0322 RAE13B34 SLP064 P0025 T01890178 TSNO
94908KDBQ DBQ20000613215519606/13/00 21:55:31  5-MIN KDBQ 140355Z AUTO 26013G21KT 3/4SM +RA BR BKN006 BKN031 OVC060 18/18 A2972 1260 96 2000 260/13G21 RMK AO2 PK WND 14026/0307 WSHFT 0322 RAE13B34 SLP061 P0048 T01830178 TSNO
94908KDBQ DBQ20000613220014106/13/00 22:00:31  5-MIN KDBQ 140400Z AUTO 22005G19KT 3/4SM +RA BR BKN004 BKN031 OVC048 18/18 A2971 1270 96 2000 220/05G19 RMK AO2 P0014 TSNO
94908KDBQ DBQ20000613220513706/13/00 22:05:31  5-MIN KDBQ 140405Z AUTO VRB03KT 1 1/4SM +RA BR BKN006 BKN031 OVC065 18/18 A2972 1260 96 2000 VRB/03 RMK AO2 P0017 TSNO
94908KDBQ DBQ20000613221013306/13/00 22:10:31  5-MIN KDBQ 140410Z AUTO 25007KT 3SM -RA BR BKN006 BKN031 OVC065 18/18 A2973 1260 96 2000 250/07 RMK AO2 P0017 TSNO
94908KDBQ DBQ20000613221513306/13/00 22:15:31  5-MIN KDBQ 140415Z AUTO 25008KT 6SM -RA BR BKN006 BKN021 OVC065 18/18 A2974 1250 96 2000 250/08 RMK AO2 P0019 TSNO
94908KDBQ DBQ20000613222013306/13/00 22:20:31  5-MIN KDBQ 140420Z AUTO 28010KT 5SM +RA BR SCT006 BKN018 OVC065 18/18 A2974 1250 96 2000 280/10 RMK AO2 P0021 TSNO
94908KDBQ DBQ20000613222513206/13/00 22:25:31  5-MIN KDBQ 140425Z AUTO 28015KT 4SM RA BR SCT006 BKN020 OVC070 18/18 A2974 1240 96 2000 270/15 RMK AO2 P0022 TSNO
94908KDBQ DBQ20000613223013806/13/00 22:30:31  5-MIN KDBQ 140430Z AUTO 28013G17KT 6SM RA BR FEW008 BKN032 OVC080 18/17 A2974 1250 93 2000 280/13G17 RMK AO2 P0022 TSNO
94908KDBQ DBQ20000613223513006/13/00 22:35:31  5-MIN KDBQ 140435Z AUTO 27013KT 8SM -RA SCT019 BKN065 OVC085 18/17 A2975 1230 93 1900 270/13 RMK AO2 P0023 TSNO
94908KDBQ DBQ20000613224012906/13/00 22:40:31  5-MIN KDBQ 140440Z AUTO 28014KT 8SM RA FEW019 BKN048 OVC085 18/17 A2975 1230 90 1900 280/14 RMK AO2 P0024 TSNO
94908KDBQ DBQ20000613224512906/13/00 22:45:31  5-MIN KDBQ 140445Z AUTO 30011KT 7SM RA FEW020 BKN044 OVC080 18/17 A2974 1240 93 1900 290/11 RMK AO2 P0025 TSNO
94908KDBQ DBQ20000613225014706/13/00 22:50:31  5-MIN KDBQ 140450Z AUTO 31012KT 8SM -RA BKN049 BKN060 OVC100 18/17 A2973 1250 93 1900 310/12 RMK AO2 SLP064 P0025 T01780167 TSNO
94908KDBQ DBQ20000613225514606/13/00 22:55:31  5-MIN KDBQ 140455Z AUTO 29008KT 9SM RA BKN047 BKN060 OVC085 18/17 A2974 1240 93 1900 290/08 RMK AO2 SLP068 P0026 T01780167 TSNO
94908KDBQ DBQ20000613230012906/13/00 23:00:31  5-MIN KDBQ 140500Z AUTO 29007KT 7SM RA BKN042 BKN060 OVC085 18/17 A2975 1240 93 1900 280/07 RMK AO2 P0001 TSNO
94908KDBQ DBQ20000613230511606/13/00 23:05:31  5-MIN KDBQ 140505Z AUTO 29005KT 7SM -RA OVC044 18/17 A2975 1240 93 1900 290/05 RMK AO2 P0001 TSNO
94908KDBQ DBQ20000613231011506/13/00 23:10:31  5-MIN KDBQ 140510Z AUTO 29004KT 7SM RA OVC042 18/17 A2975 1240 93 1900 290/04 RMK AO2 P0002 TSNO
94908KDBQ DBQ20000613231511606/13/00 23:15:31  5-MIN KDBQ 140515Z AUTO 28003KT 7SM -RA OVC038 17/16 A2975 1240 93 1800 280/03 RMK AO2 P0003 TSNO
94908KDBQ DBQ20000613232012306/13/00 23:20:31  5-MIN KDBQ 140520Z AUTO 21004KT 9SM -RA BKN038 OVC120 17/17 A2976 1230 96 1800 210/04 RMK AO2 P0003 TSNO
94908KDBQ DBQ20000613232512406/13/00 23:25:31  5-MIN KDBQ 140525Z AUTO 19004KT 10SM -RA BKN040 OVC120 17/17 A2975 1230 96 1800 180/04 RMK AO2 P0004 TSNO
94908KDBQ DBQ20000613233011606/13/00 23:30:31  5-MIN KDBQ 140530Z AUTO 17004KT 9SM -RA OVC038 17/17 A2975 1240 96 1800 170/04 RMK AO2 P0004 TSNO
94908KDBQ DBQ20000613233511706/13/00 23:35:31  5-MIN KDBQ 140535Z AUTO 17004KT 10SM -RA OVC036 17/17 A2975 1240 96 1800 170/04 RMK AO2 P0005 TSNO
94908KDBQ DBQ20000613234013106/13/00 23:40:31  5-MIN KDBQ 140540Z AUTO 17005KT 10SM -RA BKN036 BKN065 OVC120 17/17 A2974 1240 96 1800 170/05 RMK AO2 P0005 TSNO
94908KDBQ DBQ20000613234513106/13/00 23:45:31  5-MIN KDBQ 140545Z AUTO 14005KT 10SM -RA BKN034 BKN120 17/16 A2973 1250 93 1800 140/05 RMK AO2 PRESFR P0005 TSNO
94908KDBQ DBQ20000613235018206/13/00 23:50:31  5-MIN KDBQ 140550Z AUTO 15005KT 10SM -RA BKN034 OVC120 17/16 A2972 1260 93 1900 150/05 RMK AO2 PRESFR SLP059 P0006 60101 T01720161 10200 20172 402440139 56033 TSNO
94908KDBQ DBQ20000613235518206/13/00 23:55:31  5-MIN KDBQ 140555Z AUTO 15005KT 10SM -RA BKN034 OVC120 17/16 A2971 1270 93 1900 150/05 RMK AO2 PRESFR SLP057 P0006 60101 T01720161 10200 20172 402440139 50018 TSNO
94908KDBQ DBQ20000614000012406/14/00 00:00:31  5-MIN KDBQ 140600Z AUTO 17006KT 10SM -RA BKN036 OVC120 17/16 A2971 1270 93 1900 170/06 RMK AO2 P0000 TSNO
94908KDBQ DBQ20000614000512406/14/00 00:05:31  5-MIN KDBQ 140605Z AUTO 17006KT 10SM -RA BKN038 OVC120 17/16 A2971 1280 93 1900 170/06 RMK AO2 P0001 TSNO
94908KDBQ DBQ20000614001012306/14/00 00:10:31  5-MIN KDBQ 140610Z AUTO 17006KT 9SM -RA OVC038 17/16 A2969 1290 93 1900 170/06 RMK AO2 PRESFR P0002 TSNO
94908KDBQ DBQ20000614001512406/14/00 00:15:31  5-MIN KDBQ 140615Z AUTO 16007KT 10SM -RA OVC040 17/16 A2969 1300 93 1900 160/07 RMK AO2 PRESFR P0002 TSNO
94908KDBQ DBQ20000614002012406/14/00 00:20:31  5-MIN KDBQ 140620Z AUTO 16007KT 10SM -RA OVC043 17/16 A2968 1300 93 1900 160/07 RMK AO2 PRESFR P0002 TSNO
94908KDBQ DBQ20000614002512406/14/00 00:25:31  5-MIN KDBQ 140625Z AUTO 16006KT 10SM -RA OVC045 17/16 A2967 1310 93 1900 160/06 RMK AO2 PRESFR P0003 TSNO
94908KDBQ DBQ20000614003011706/14/00 00:30:31  5-MIN KDBQ 140630Z AUTO 20005KT 10SM -RA OVC048 17/16 A2967 1310 93 1900 190/05 RMK AO2 P0003 TSNO
94908KDBQ DBQ20000614003511706/14/00 00:35:31  5-MIN KDBQ 140635Z AUTO 16008KT 10SM -RA OVC055 17/16 A2967 1310 93 1900 160/08 RMK AO2 P0003 TSNO
94908KDBQ DBQ20000614004012406/14/00 00:40:31  5-MIN KDBQ 140640Z AUTO 16006KT 10SM -RA BKN065 OVC110 17/16 A2966 1320 93 1900 160/06 RMK AO2 P0003 TSNO
94908KDBQ DBQ20000614004512606/14/00 00:45:31  5-MIN KDBQ 140645Z AUTO 17007KT 10SM BKN070 OVC110 17/16 A2965 1330 93 1900 170/07 RMK AO2 RAE44 P0003 TSNO
94908KDBQ DBQ20000614005014306/14/00 00:50:31  5-MIN KDBQ 140650Z AUTO 16009KT 10SM BKN075 BKN110 17/16 A2965 1330 93 1900 160/09 RMK AO2 RAE44 SLP035 P0003 T01720161 TSNO
94908KDBQ DBQ20000614005515006/14/00 00:55:31  5-MIN KDBQ 140655Z AUTO 15011KT 10SM BKN080 BKN110 17/16 A2964 1340 96 1900 150/11 RMK AO2 RAE44 PRESFR SLP032 P0003 T01670161 TSNO
94908KDBQ DBQ20000614010011406/14/00 01:00:31  5-MIN KDBQ 140700Z AUTO 14013KT 10SM BKN090 BKN110 17/16 A2964 1340 96 1900 140/13 RMK AO2 TSNO
94908KDBQ DBQ20000614010512106/14/00 01:05:31  5-MIN KDBQ 140705Z AUTO 15012KT 10SM BKN090 BKN100 17/16 A2963 1350 96 1900 150/12 RMK AO2 PRESFR TSNO
94908KDBQ DBQ20000614011010706/14/00 01:10:31  5-MIN KDBQ 140710Z AUTO 16012KT 10SM BKN090 17/16 A2964 1340 96 1900 160/12 RMK AO2 TSNO
94908KDBQ DBQ20000614011510706/14/00 01:15:31  5-MIN KDBQ 140715Z AUTO 17014KT 10SM BKN095 17/16 A2964 1340 96 1900 170/14 RMK AO2 TSNO
94908KDBQ DBQ20000614012010706/14/00 01:20:31  5-MIN KDBQ 140720Z AUTO 17014KT 10SM BKN090 17/16 A2964 1340 96 1900 170/14 RMK AO2 TSNO
94908KDBQ DBQ20000614012511406/14/00 01:25:31  5-MIN KDBQ 140725Z AUTO 16014KT 10SM BKN090 BKN110 17/16 A2964 1340 96 1900 160/14 RMK AO2 TSNO
94908KDBQ DBQ20000614013011406/14/00 01:30:31  5-MIN KDBQ 140730Z AUTO 17015KT 10SM SCT090 SCT120 17/16 A2964 1340 96 1900 170/15 RMK AO2 TSNO
94908KDBQ DBQ20000614013510706/14/00 01:35:31  5-MIN KDBQ 140735Z AUTO 17016KT 10SM SCT095 17/16 A2965 1330 96 1900 170/16 RMK AO2 TSNO
94908KDBQ DBQ20000614014011306/14/00 01:40:31  5-MIN KDBQ 140740Z AUTO 17015G20KT 10SM FEW090 17/16 A2965 1330 96 1900 170/15G20 RMK AO2 TSNO
94908KDBQ DBQ20000614014510706/14/00 01:45:31  5-MIN KDBQ 140745Z AUTO 17015KT 10SM FEW090 17/16 A2965 1330 96 1900 170/15 RMK AO2 TSNO
94908KDBQ DBQ20000614015012106/14/00 01:50:31  5-MIN KDBQ 140750Z AUTO 17016KT 10SM CLR 17/16 A2966 1320 96 1900 170/16 RMK AO2 SLP039 T01670161 TSNO
94908KDBQ DBQ20000614015513006/14/00 01:55:31  5-MIN KDBQ 140755Z AUTO 17018G21KT 10SM SCT004 17/16 A2966 1320 96 1900 170/18G21 RMK AO2 SLP040 T01670161 TSNO
94908KDBQ DBQ20000614020012106/14/00 02:00:31  5-MIN KDBQ 140800Z AUTO 18016G25KT 10SM BKN004 17/17 A2967 1310 100 1800 180/16G25 RMK AO2 PRESRR TSNO
94908KDBQ DBQ20000614020515106/14/00 02:05:31  5-MIN KDBQ 140805Z AUTO 18023G28KT 10SM BKN004 17/17 A2969 1300 100 1800 180/23G28 RMK AO2 PK WND 18028/0804 CIG 003V006 PRESRR TSNO
94908KDBQ DBQ20000614021013106/14/00 02:10:31  5-MIN KDBQ 140810Z AUTO 19021G28KT 10SM BKN004 18/17 A2969 1300 90 2000 190/21G28 RMK AO2 PK WND 17028/0808 TSNO
94908KDBQ DBQ20000614021515006/14/00 02:15:31  5-MIN KDBQ 140815Z AUTO 19019G28KT 10SM BKN004 OVC011 17/17 A2968 1300 96 1900 180/19G28 RMK AO2 PK WND 17028/0808 CIG 003V007 TSNO
94908KDBQ DBQ20000614022014306/14/00 02:20:31  5-MIN KDBQ 140820Z AUTO 19021G27KT 10SM OVC004 17/17 A2968 1300 96 1900 190/21G27 RMK AO2 PK WND 17028/0808 CIG 003V007 TSNO
94908KDBQ DBQ20000614022514306/14/00 02:25:31  5-MIN KDBQ 140825Z AUTO 18021G27KT 10SM OVC004 17/17 A2968 1300 96 1900 180/21G27 RMK AO2 PK WND 17028/0808 CIG 003V010 TSNO
94908KDBQ DBQ20000614023015006/14/00 02:30:31  5-MIN KDBQ 140830Z AUTO 19018G27KT 10SM BKN006 OVC010 17/17 A2967 1310 96 1900 180/18G27 RMK AO2 PK WND 17028/0808 CIG 003V008 TSNO
94908KDBQ DBQ20000614023515006/14/00 02:35:31  5-MIN KDBQ 140835Z AUTO 18017G24KT 10SM BKN006 OVC010 17/17 A2967 1310 96 1900 180/17G24 RMK AO2 PK WND 17028/0808 CIG 003V009 TSNO
94908KDBQ DBQ20000614024014406/14/00 02:40:31  5-MIN KDBQ 140840Z AUTO 19016KT 10SM BKN006 OVC010 17/17 A2967 1310 96 1900 190/16 RMK AO2 PK WND 17028/0808 CIG 003V008 TSNO
94908KDBQ DBQ20000614024513706/14/00 02:45:31  5-MIN KDBQ 140845Z AUTO 19016KT 10SM OVC008 17/17 A2967 1310 96 1900 190/16 RMK AO2 PK WND 17028/0808 CIG 004V011 TSNO
94908KDBQ DBQ20000614025016606/14/00 02:50:31  5-MIN KDBQ 140850Z AUTO 19014KT 10SM OVC008 17/16 A2967 1310 93 1900 190/14 RMK AO2 PK WND 17028/0808 CIG 005V011 SLP041 60003 T01720161 50018 TSNO
94908KDBQ DBQ20000614025516606/14/00 02:55:31  5-MIN KDBQ 140855Z AUTO 19016KT 10SM BKN008 17/16 A2967 1310 93 1900 180/16 RMK AO2 PK WND 17028/0808 CIG 006V011 SLP042 60003 T01720161 55015 TSNO
94908KDBQ DBQ20000614030012506/14/00 03:00:31  5-MIN KDBQ 140900Z AUTO 19017G22KT 10SM BKN008 17/16 A2967 1310 93 1900 190/17G22 RMK AO2 CIG 006V011 TSNO
94908KDBQ DBQ20000614030512506/14/00 03:05:31  5-MIN KDBQ 140905Z AUTO 19016G22KT 10SM BKN008 17/16 A2967 1310 93 1900 190/16G22 RMK AO2 CIG 006V011 TSNO
94908KDBQ DBQ20000614031012506/14/00 03:10:31  5-MIN KDBQ 140910Z AUTO 18016G22KT 10SM BKN008 17/16 A2967 1310 93 1900 180/16G22 RMK AO2 CIG 006V010 TSNO
94908KDBQ DBQ20000614031512406/14/00 03:15:31  5-MIN KDBQ 140915Z AUTO 18014G21KT 9SM BKN008 17/16 A2968 1310 93 1900 180/14G21 RMK AO2 CIG 005V011 TSNO
94908KDBQ DBQ20000614032011806/14/00 03:20:31  5-MIN KDBQ 140920Z AUTO 18014KT 9SM BKN008 17/16 A2967 1310 93 1900 180/14 RMK AO2 CIG 005V011 TSNO
94908KDBQ DBQ20000614032512406/14/00 03:25:31  5-MIN KDBQ 140925Z AUTO 19018G21KT 9SM BKN008 17/16 A2968 1300 93 1900 180/18G21 RMK AO2 CIG 005V011 TSNO
94908KDBQ DBQ20000614033011906/14/00 03:30:31  5-MIN KDBQ 140930Z AUTO 19017KT 10SM OVC008 17/17 A2969 1300 96 1900 190/17 RMK AO2 CIG 005V012 TSNO
94908KDBQ DBQ20000614033512606/14/00 03:35:31  5-MIN KDBQ 140935Z AUTO 19015KT 10SM BKN008 OVC012 17/17 A2968 1300 96 1900 190/15 RMK AO2 CIG 005V010 TSNO
94908KDBQ DBQ20000614034012506/14/00 03:40:31  5-MIN KDBQ 140940Z AUTO 19019G24KT 10SM OVC008 17/17 A2968 1300 96 1900 180/19G24 RMK AO2 CIG 005V012 TSNO
94908KDBQ DBQ20000614034512506/14/00 03:45:31  5-MIN KDBQ 140945Z AUTO 19018G24KT 10SM OVC008 17/17 A2968 1300 96 1900 190/18G24 RMK AO2 CIG 005V012 TSNO
94908KDBQ DBQ20000614035014906/14/00 03:50:31  5-MIN KDBQ 140950Z AUTO 19019G23KT 10SM BKN008 OVC050 17/17 A2967 1310 96 1900 180/19G23 RMK AO2 CIG 006V012 SLP045 T01720167 TSNO
94908KDBQ DBQ20000614035513706/14/00 03:55:31  5-MIN KDBQ 140955Z AUTO 18019G25KT 10SM SCT008 OVC050 17/17 A2967 1310 96 1900 180/19G25 RMK AO2 SLP044 T01720167 TSNO
94908KDBQ DBQ20000614040012006/14/00 04:00:31  5-MIN KDBQ 141000Z AUTO 18017G25KT 10SM SCT008 OVC050 17/17 A2967 1310 96 1900 180/17G25 RMK AO2 TSNO
94908KDBQ DBQ20000614040512106/14/00 04:05:31  5-MIN KDBQ 141005Z AUTO 19017KT 10SM SCT008 BKN045 OVC050 17/17 A2967 1310 96 1900 180/17 RMK AO2 TSNO
94908KDBQ DBQ20000614041012706/14/00 04:10:31  5-MIN KDBQ 141010Z AUTO 19016G22KT 10SM SCT010 BKN045 OVC050 17/17 A2968 1310 96 1900 190/16G22 RMK AO2 TSNO
94908KDBQ DBQ20000614041512106/14/00 04:15:31  5-MIN KDBQ 141015Z AUTO 18016KT 10SM SCT010 BKN045 OVC050 17/17 A2968 1310 96 1900 180/16 RMK AO2 TSNO
94908KDBQ DBQ20000614042013206/14/00 04:20:31  5-MIN KDBQ 141020Z AUTO 19018G23KT 10SM BKN010 OVC045 17/17 A2968 1300 96 1900 190/18G23 RMK AO2 CIG 007V013 TSNO
94908KDBQ DBQ20000614042513206/14/00 04:25:31  5-MIN KDBQ 141025Z AUTO 19016G23KT 10SM BKN008 OVC045 18/17 A2967 1310 93 2000 190/16G23 RMK AO2 CIG 007V013 TSNO
94908KDBQ DBQ20000614043013906/14/00 04:30:31  5-MIN KDBQ 141030Z AUTO 19015G20KT 10SM BKN008 BKN012 OVC043 18/17 A2967 1310 93 2000 190/15G20 RMK AO2 CIG 006V010 TSNO
94908KDBQ DBQ20000614043513206/14/00 04:35:31  5-MIN KDBQ 141035Z AUTO 19018G23KT 10SM BKN008 OVC012 18/17 A2967 1310 93 2000 180/18G23 RMK AO2 CIG 006V011 TSNO
94908KDBQ DBQ20000614044011506/14/00 04:40:31  5-MIN KDBQ 141040Z 19017G23KT 10SM OVC008 18/17 A2968 1300 93 2000 190/17G23 RMK AO2 CIG 006V013
94908KDBQ DBQ20000614044513306/14/00 04:45:31  5-MIN KDBQ 141045Z 19021G26KT 10SM OVC008 18/17 A2967 1310 93 2000 190/21G26 RMK AO2 PK WND 19026/1044 CIG 006V012
94908KDBQ DBQ20000614045015006/14/00 04:50:31  5-MIN KDBQ 141050Z 19018G26KT 10SM OVC008 18/17 A2967 1310 93 2000 180/18G26 RMK AO2 PK WND 19026/1044 CIG 006V010 SLP044 T01780167
94908KDBQ DBQ20000614045513906/14/00 04:55:31  5-MIN KDBQ 141055Z 19015KT 10SM BKN008 OVC011 18/17 A2967 1310 93 2000 190/15 RMK AO2 PK WND 19026/1044 SLP043 T01780167
94908KDBQ DBQ20000614050013306/14/00 05:00:31  5-MIN KDBQ 141100Z 19019G26KT 10SM OVC008 18/17 A2967 1310 93 2000 180/19G26 RMK AO2 PK WND 19026/1059 CIG 006V012
94908KDBQ DBQ20000614050513306/14/00 05:05:31  5-MIN KDBQ 141105Z 18020G26KT 10SM OVC010 18/17 A2967 1310 93 2000 180/20G26 RMK AO2 PK WND 18026/1104 CIG 007V014
94908KDBQ DBQ20000614051012106/14/00 05:10:31  5-MIN KDBQ 141110Z 19019G26KT 10SM OVC008 18/17 A2967 1310 93 2000 190/19G26 RMK AO2 PK WND 18026/1104
94908KDBQ DBQ20000614051512106/14/00 05:15:31  5-MIN KDBQ 141115Z 19017G24KT 10SM OVC008 18/17 A2967 1310 93 2000 190/17G24 RMK AO2 PK WND 18026/1104
94908KDBQ DBQ20000614052012106/14/00 05:20:31  5-MIN KDBQ 141120Z 19018G24KT 10SM OVC008 18/17 A2967 1310 93 2000 190/18G24 RMK AO2 PK WND 18026/1104
94908KDBQ DBQ20000614052512106/14/00 05:25:31  5-MIN KDBQ 141125Z 19015G22KT 10SM OVC008 18/17 A2967 1310 93 2000 190/15G22 RMK AO2 PK WND 18026/1104
94908KDBQ DBQ20000614053011506/14/00 05:30:31  5-MIN KDBQ 141130Z 19017KT 10SM OVC008 18/17 A2967 1310 93 2000 190/17 RMK AO2 PK WND 18026/1104
94908KDBQ DBQ20000614053511506/14/00 05:35:31  5-MIN KDBQ 141135Z 19016KT 10SM OVC008 18/17 A2967 1310 93 2000 190/16 RMK AO2 PK WND 18026/1104
94908KDBQ DBQ20000614054011506/14/00 05:40:31  5-MIN KDBQ 141140Z 19016KT 10SM OVC008 18/17 A2967 1310 93 2000 190/16 RMK AO2 PK WND 18026/1104
94908KDBQ DBQ20000614054511506/14/00 05:45:31  5-MIN KDBQ 141145Z 19017KT 10SM OVC008 18/17 A2967 1310 93 2000 190/17 RMK AO2 PK WND 18026/1104
94908KDBQ DBQ20000614055016906/14/00 05:50:31  5-MIN KDBQ 141150Z 19018KT 10SM SCT010 OVC023 18/17 A2967 1310 93 2000 190/18 RMK AO2 PK WND 18026/1104 SLP044 60003 70150 T01780167 10183 20167 55015
94908KDBQ DBQ20000614055517506/14/00 05:55:31  5-MIN KDBQ 141155Z 19017G21KT 10SM SCT010 OVC023 18/17 A2968 1310 93 2000 190/17G21 RMK AO2 PK WND 18026/1104 SLP046 60003 70150 T01780167 10183 20167 53002
94908KDBQ DBQ20000614060011706/14/00 06:00:31  5-MIN KDBQ 141200Z 19017G22KT 10SM FEW010 SCT016 OVC023 18/17 A2968 1300 93 2000 190/17G22 RMK AO2
94908KDBQ DBQ20000614060511706/14/00 06:05:31  5-MIN KDBQ 141205Z 19016G22KT 10SM FEW010 SCT014 OVC023 18/17 A2968 1300 93 2000 190/16G22 RMK AO2
94908KDBQ DBQ20000614061011706/14/00 06:10:31  5-MIN KDBQ 141210Z 19015G22KT 10SM SCT010 BKN016 OVC023 18/17 A2968 1300 93 2000 190/15G22 RMK AO2
94908KDBQ DBQ20000614061511706/14/00 06:15:31  5-MIN KDBQ 141215Z 19015G21KT 10SM SCT010 BKN016 OVC023 18/17 A2968 1300 93 2000 190/15G21 RMK AO2
94908KDBQ DBQ20000614062012206/14/00 06:20:31  5-MIN KDBQ 141220Z 19014G21KT 10SM BKN010 OVC023 18/17 A2968 1310 93 2000 190/14G21 RMK AO2 CIG 007V014
94908KDBQ DBQ20000614062512206/14/00 06:25:31  5-MIN KDBQ 141225Z 19015G20KT 10SM BKN010 OVC015 18/17 A2968 1310 93 2000 190/15G20 RMK AO2 CIG 007V012
94908KDBQ DBQ20000614063011606/14/00 06:30:31  5-MIN KDBQ 141230Z 19017KT 10SM BKN010 OVC015 18/17 A2968 1300 90 2000 190/17 RMK AO2 CIG 007V012
94908KDBQ DBQ20000614063511606/14/00 06:35:31  5-MIN KDBQ 141235Z 19015KT 10SM BKN010 OVC014 18/17 A2968 1300 90 2000 190/15 RMK AO2 CIG 008V012
94908KDBQ DBQ20000614064011506/14/00 06:40:31  5-MIN KDBQ 141240Z 19013G20KT 10SM OVC010 18/17 A2968 1300 90 2000 190/13G20 RMK AO2 CIG 008V014
94908KDBQ DBQ20000614064510906/14/00 06:45:31  5-MIN KDBQ 141245Z 19014KT 10SM OVC010 18/17 A2968 1300 90 2000 190/14 RMK AO2 CIG 007V014
94908KDBQ DBQ20000614065012606/14/00 06:50:31  5-MIN KDBQ 141250Z 19015KT 10SM OVC010 18/17 A2968 1300 90 2000 190/15 RMK AO2 CIG 007V014 SLP048 T01830167
94908KDBQ DBQ20000614065512606/14/00 06:55:31  5-MIN KDBQ 141255Z 19014KT 10SM OVC010 18/17 A2968 1300 90 2000 190/14 RMK AO2 CIG 007V012 SLP048 T01830167
94908KDBQ DBQ20000614070011606/14/00 07:00:31  5-MIN KDBQ 141300Z 19015KT 10SM BKN010 OVC015 18/17 A2968 1300 90 2000 190/15 RMK AO2 CIG 007V012
94908KDBQ DBQ20000614070510906/14/00 07:05:31  5-MIN KDBQ 141305Z 19014KT 10SM OVC010 18/17 A2968 1300 93 2000 190/14 RMK AO2 CIG 007V014
94908KDBQ DBQ20000614071010906/14/00 07:10:31  5-MIN KDBQ 141310Z 19014KT 10SM OVC010 18/17 A2968 1300 93 2000 190/14 RMK AO2 CIG 007V014
94908KDBQ DBQ20000614071511606/14/00 07:15:31  5-MIN KDBQ 141315Z 19015KT 10SM BKN010 OVC015 18/17 A2969 1300 93 2000 190/15 RMK AO2 CIG 008V012
94908KDBQ DBQ20000614072011606/14/00 07:20:31  5-MIN KDBQ 141320Z 19015KT 10SM BKN010 OVC015 18/17 A2969 1290 93 2000 190/15 RMK AO2 CIG 008V013
94908KDBQ DBQ20000614072511606/14/00 07:25:31  5-MIN KDBQ 141325Z 19016KT 10SM BKN010 OVC015 19/17 A2969 1290 90 2100 190/16 RMK AO2 CIG 008V012
94908KDBQ DBQ20000614073011606/14/00 07:30:31  5-MIN KDBQ 141330Z 19016KT 10SM BKN010 OVC017 19/17 A2970 1290 90 2100 190/16 RMK AO2 CIG 008V014
94908KDBQ DBQ20000614073511606/14/00 07:35:31  5-MIN KDBQ 141335Z 19017KT 10SM BKN010 OVC017 19/17 A2969 1290 90 2100 190/17 RMK AO2 CIG 008V012
94908KDBQ DBQ20000614074010406/14/00 07:40:31  5-MIN KDBQ 141340Z 19014KT 10SM BKN010 OVC024 19/17 A2969 1290 90 2100 190/14 RMK AO2
94908KDBQ DBQ20000614074510406/14/00 07:45:31  5-MIN KDBQ 141345Z 19015KT 10SM BKN010 OVC024 19/17 A2970 1290 90 2100 190/15 RMK AO2
94908KDBQ DBQ20000614075012806/14/00 07:50:31  5-MIN KDBQ 141350Z 19016KT 10SM BKN012 BKN018 OVC024 19/17 A2970 1290 90 2100 190/16 RMK AO2 SLP052 T01890172
94908KDBQ DBQ20000614075512806/14/00 07:55:31  5-MIN KDBQ 141355Z 19014KT 10SM BKN012 BKN018 OVC024 19/17 A2969 1290 87 2100 190/14 RMK AO2 SLP052 T01940172
94908KDBQ DBQ20000614080011106/14/00 08:00:31  5-MIN KDBQ 141400Z 19015KT 10SM BKN010 BKN012 OVC024 19/18 A2969 1290 90 2100 190/15 RMK AO2
94908KDBQ DBQ20000614080511706/14/00 08:05:31  5-MIN KDBQ 141405Z 20013G21KT 10SM BKN010 BKN012 OVC024 19/18 A2969 1290 90 2100 200/13G21 RMK AO2
94908KDBQ DBQ20000614081011706/14/00 08:10:31  5-MIN KDBQ 141410Z 20013G21KT 10SM BKN010 BKN012 OVC024 19/18 A2969 1290 90 2100 200/13G21 RMK AO2
94908KDBQ DBQ20000614081511706/14/00 08:15:31  5-MIN KDBQ 141415Z 20015G21KT 10SM BKN010 BKN012 OVC024 19/17 A2969 1290 87 2100 200/15G21 RMK AO2
94908KDBQ DBQ20000614082011706/14/00 08:20:31  5-MIN KDBQ 141420Z 20013G21KT 10SM BKN010 BKN012 OVC024 19/17 A2969 1290 87 2100 190/13G21 RMK AO2
94908KDBQ DBQ20000614082511106/14/00 08:25:31  5-MIN KDBQ 141425Z 19013KT 10SM BKN010 BKN012 OVC024 19/17 A2969 1290 87 2200 190/13 RMK AO2
94908KDBQ DBQ20000614083011106/14/00 08:30:31  5-MIN KDBQ 141430Z 20011KT 10SM BKN010 BKN012 OVC024 19/17 A2968 1300 87 2200 200/11 RMK AO2
94908KDBQ DBQ20000614083511106/14/00 08:35:31  5-MIN KDBQ 141435Z 20011KT 10SM BKN010 BKN012 OVC024 19/17 A2969 1300 90 2100 200/11 RMK AO2
94908KDBQ DBQ20000614084010406/14/00 08:40:31  5-MIN KDBQ 141440Z 19014KT 10SM SCT010 OVC015 19/17 A2969 1290 90 2100 190/14 RMK AO2
94908KDBQ DBQ20000614084511906/14/00 08:45:31  5-MIN KDBQ 141445Z 19012KT 9SM -RA BKN012 OVC015 19/17 A2969 1300 90 2100 190/12 RMK AO2 RAB45 P0000
94908KDBQ DBQ20000614085014806/14/00 08:50:31  5-MIN KDBQ 141450Z 19011KT 9SM -RA BKN012 OVC015 19/17 A2968 1300 90 2100 190/11 RMK AO2 RAB45 SLP048 P0000 60000 T01890172 53002
94908KDBQ DBQ20000614085516006/14/00 08:55:31  5-MIN KDBQ 141455Z 19012KT 9SM -RA BKN010 OVC017 19/17 A2968 1300 90 2100 190/12 RMK AO2 RAB45 CIG 008V012 SLP047 P0000 60000 T01890172 50002
94908KDBQ DBQ20000614090012506/14/00 09:00:31  5-MIN KDBQ 141500Z 19011KT 8SM -RA BKN010 OVC017 19/17 A2968 1300 90 2100 190/11 RMK AO2 CIG 008V014 P0000
94908KDBQ DBQ20000614090513206/14/00 09:05:31  5-MIN KDBQ 141505Z 19010KT 8SM -RA BKN010 BKN015 OVC020 19/18 A2968 1300 93 2100 190/10 RMK AO2 CIG 008V013 P0000
94908KDBQ DBQ20000614091013206/14/00 09:10:31  5-MIN KDBQ 141510Z 19012KT 9SM -RA BKN010 BKN019 OVC026 19/18 A2968 1310 93 2100 190/12 RMK AO2 CIG 008V013 P0000
94908KDBQ DBQ20000614091512006/14/00 09:15:31  5-MIN KDBQ 141515Z 19010KT 9SM -RA BKN010 BKN019 OVC026 19/18 A2967 1310 93 2100 190/10 RMK AO2 P0001
94908KDBQ DBQ20000614092012106/14/00 09:20:31  5-MIN KDBQ 141520Z 19011KT 10SM -RA BKN010 BKN019 OVC026 19/18 A2967 1310 93 2100 180/11 RMK AO2 P0001
94908KDBQ DBQ20000614092512006/14/00 09:25:31  5-MIN KDBQ 141525Z 18009KT 9SM -RA BKN010 BKN019 OVC026 19/18 A2967 1310 93 2100 180/09 RMK AO2 P0001
94908KDBQ DBQ20000614093012006/14/00 09:30:31  5-MIN KDBQ 141530Z 18008KT 8SM -RA BKN010 BKN019 OVC026 19/18 A2967 1310 93 2100 180/08 RMK AO2 P0001
94908KDBQ DBQ20000614093512006/14/00 09:35:31  5-MIN KDBQ 141535Z 18010KT 7SM -RA BKN010 BKN019 OVC026 19/18 A2968 1300 93 2100 180/10 RMK AO2 P0001
94908KDBQ DBQ20000614094012306/14/00 09:40:31  5-MIN KDBQ 141540Z 18010KT 6SM -RA BR BKN010 BKN019 OVC026 19/18 A2968 1300 93 2100 180/10 RMK AO2 P0001
94908KDBQ DBQ20000614094512206/14/00 09:45:31  5-MIN KDBQ 141545Z 18010KT 5SM RA BR BKN010 BKN019 OVC026 19/18 A2968 1310 93 2100 180/10 RMK AO2 P0003
94908KDBQ DBQ20000614095013206/14/00 09:50:31  5-MIN KDBQ 141550Z 17009KT 5SM RA BR SCT010 OVC019 19/18 A2967 1310 93 2100 170/09 RMK AO2 SLP045 P0003 T01890178
94908KDBQ DBQ20000614095513306/14/00 09:55:31  5-MIN KDBQ 141555Z 17010KT 5SM -RA BR SCT010 OVC018 19/18 A2967 1310 93 2100 170/10 RMK AO2 SLP043 P0004 T01890178
94908KDBQ DBQ20000614100011606/14/00 10:00:31  5-MIN KDBQ 141600Z 17010KT 5SM -RA BR SCT008 OVC015 19/18 A2967 1310 93 2100 160/10 RMK AO2 P0000
94908KDBQ DBQ20000614100511606/14/00 10:05:31  5-MIN KDBQ 141605Z 17009KT 5SM -RA BR SCT008 OVC015 19/18 A2967 1310 93 2100 170/09 RMK AO2 P0001
94908KDBQ DBQ20000614101011606/14/00 10:10:31  5-MIN KDBQ 141610Z 17011KT 6SM -RA BR BKN008 OVC015 19/18 A2967 1320 97 2100 170/11 RMK AO2 P0001
94908KDBQ DBQ20000614101511606/14/00 10:15:31  5-MIN KDBQ 141615Z 17012KT 6SM -RA BR BKN008 OVC015 19/18 A2966 1320 97 2100 170/12 RMK AO2 P0001
94908KDBQ DBQ20000614102011606/14/00 10:20:31  5-MIN KDBQ 141620Z 17011KT 6SM -RA BR BKN008 OVC015 19/18 A2966 1320 93 2100 170/11 RMK AO2 P0001
94908KDBQ DBQ20000614102511306/14/00 10:25:31  5-MIN KDBQ 141625Z 17009KT 7SM -RA BKN008 OVC015 19/18 A2966 1320 97 2100 170/09 RMK AO2 P0002
94908KDBQ DBQ20000614103011606/14/00 10:30:31  5-MIN KDBQ 141630Z 17010KT 6SM -RA BR BKN008 OVC015 19/18 A2965 1330 93 2200 170/10 RMK AO2 P0002
94908KDBQ DBQ20000614103513506/14/00 10:35:31  5-MIN KDBQ 141635Z 17012KT 5SM -RA BR BKN008 BKN012 OVC017 19/18 A2965 1330 93 2200 170/12 RMK AO2 CIG 005V011 P0002
94908KDBQ DBQ20000614104013506/14/00 10:40:31  5-MIN KDBQ 141640Z 17011KT 5SM -RA BR BKN008 BKN012 OVC017 19/18 A2965 1330 93 2200 170/11 RMK AO2 CIG 005V010 P0003
94908KDBQ DBQ20000614104513506/14/00 10:45:31  5-MIN KDBQ 141645Z 16012KT 5SM -RA BR BKN008 BKN012 OVC017 19/18 A2965 1330 93 2200 160/12 RMK AO2 CIG 005V010 P0003
94908KDBQ DBQ20000614105015206/14/00 10:50:31  5-MIN KDBQ 141650Z 17013KT 5SM -RA BR BKN008 BKN012 OVC019 19/18 A2965 1330 93 2200 170/13 RMK AO2 CIG 005V010 SLP036 P0003 T01940183
94908KDBQ DBQ20000614105514206/14/00 10:55:31  5-MIN KDBQ 141655Z 17013KT 7SM -RA BKN008 OVC016 19/18 A2965 1330 93 2200 170/13 RMK AO2 CIG 005V011 SLP035 P0004 T01940183
94908KDBQ DBQ20000614110012006/14/00 11:00:31  5-MIN KDBQ 141700Z 16011KT 8SM -RA BKN008 BKN016 OVC042 19/18 A2964 1340 93 2200 160/11 RMK AO2 P0000
94908KDBQ DBQ20000614110512006/14/00 11:05:31  5-MIN KDBQ 141705Z 16011KT 7SM -RA BKN008 BKN016 OVC042 19/18 A2964 1340 93 2200 160/11 RMK AO2 P0000
94908KDBQ DBQ20000614111012306/14/00 11:10:31  5-MIN KDBQ 141710Z 16012KT 6SM -RA BR BKN008 BKN016 OVC042 19/18 A2964 1340 93 2200 160/12 RMK AO2 P0001
94908KDBQ DBQ20000614111512306/14/00 11:15:31  5-MIN KDBQ 141715Z 17011KT 6SM -RA BR BKN008 BKN016 OVC042 19/18 A2963 1350 93 2200 170/11 RMK AO2 P0001
94908KDBQ DBQ20000614112012306/14/00 11:20:31  5-MIN KDBQ 141720Z 18012KT 10SM BKN008 BKN016 OVC042 19/18 A2963 1350 93 2200 170/12 RMK AO2 RAE19 P0001
94908KDBQ DBQ20000614112512106/14/00 11:25:31  5-MIN KDBQ 141725Z 18013KT 10SM -RA BKN008 BKN013 BKN027 19/18 A2963 1350 93 2200 180/13 RMK AO2 P0001
94908KDBQ DBQ20000614113012106/14/00 11:30:31  5-MIN KDBQ 141730Z 18013KT 10SM -RA BKN008 BKN013 BKN027 19/18 A2963 1350 90 2200 180/13 RMK AO2 P0001
94908KDBQ DBQ20000614113512106/14/00 11:35:31  5-MIN KDBQ 141735Z 18015KT 10SM -RA BKN008 BKN013 BKN027 19/18 A2963 1350 90 2200 180/15 RMK AO2 P0001
94908KDBQ DBQ20000614114012206/14/00 11:40:31  5-MIN KDBQ 141740Z 18013KT 4SM RA BR BKN008 BKN013 BKN027 19/18 A2962 1360 93 2200 180/13 RMK AO2 P0002
94908KDBQ DBQ20000614114512306/14/00 11:45:31  5-MIN KDBQ 141745Z 18015KT 3SM -RA BR BKN008 BKN019 OVC042 19/18 A2962 1360 93 2200 180/15 RMK AO2 P0003
94908KDBQ DBQ20000614115016406/14/00 11:50:31  5-MIN KDBQ 141750Z 18016KT 3SM -RA BR SCT010 BKN027 OVC046 19/18 A2962 1360 93 2200 180/16 RMK AO2 SLP025 P0003 60011 T01890178 10194 20178 50002
94908KDBQ DBQ20000614115516406/14/00 11:55:31  5-MIN KDBQ 141755Z 18015KT 5SM -RA BR FEW010 SCT017 BKN029 19/18 A2961 1370 93 2200 180/15 RMK AO2 SLP023 P0003 60011 T01890178 10194 20178 58023
94908KDBQ DBQ20000614120011806/14/00 12:00:31  5-MIN KDBQ 141800Z 19013KT 10SM BKN029 BKN031 19/18 A2961 1370 93 2200 190/13 RMK AO2 RAE1759 P0000
94908KDBQ DBQ20000614120512406/14/00 12:05:31  5-MIN KDBQ 141805Z 18016G19KT 10SM BKN029 BKN031 19/17 A2962 1360 90 2200 180/16G19 RMK AO2 RAE1759 P0000
94908KDBQ DBQ20000614121011806/14/00 12:10:31  5-MIN KDBQ 141810Z 18017KT 10SM BKN029 BKN031 19/17 A2961 1360 87 2200 180/17 RMK AO2 RAE1759 P0000
94908KDBQ DBQ20000614121511806/14/00 12:15:31  5-MIN KDBQ 141815Z 18015KT 10SM BKN029 BKN031 19/17 A2962 1360 90 2200 180/15 RMK AO2 RAE1759 P0000
94908KDBQ DBQ20000614122012406/14/00 12:20:31  5-MIN KDBQ 141820Z 18018G21KT 10SM BKN029 BKN031 19/17 A2962 1360 90 2200 180/18G21 RMK AO2 RAE1759 P0000
94908KDBQ DBQ20000614122511806/14/00 12:25:31  5-MIN KDBQ 141825Z 18015KT 10SM BKN029 BKN031 19/17 A2961 1360 90 2200 180/15 RMK AO2 RAE1759 P0000
94908KDBQ DBQ20000614123012406/14/00 12:30:31  5-MIN KDBQ 141830Z 18017G22KT 10SM BKN029 BKN031 19/17 A2961 1370 87 2200 180/17G22 RMK AO2 RAE1759 P0000
94908KDBQ DBQ20000614123512406/14/00 12:35:31  5-MIN KDBQ 141835Z 19017G22KT 10SM BKN029 BKN031 19/17 A2961 1370 87 2200 180/17G22 RMK AO2 RAE1759 P0000
94908KDBQ DBQ20000614124011806/14/00 12:40:31  5-MIN KDBQ 141840Z 18014KT 10SM BKN029 BKN031 19/17 A2960 1370 87 2200 180/14 RMK AO2 RAE1759 P0000
94908KDBQ DBQ20000614124511806/14/00 12:45:31  5-MIN KDBQ 141845Z 19012KT 10SM BKN029 BKN031 19/17 A2961 1370 87 2200 180/12 RMK AO2 RAE1759 P0000
94908KDBQ DBQ20000614125013506/14/00 12:50:31  5-MIN KDBQ 141850Z 18014KT 10SM SCT036 BKN065 19/17 A2961 1370 87 2200 180/14 RMK AO2 RAE1759 SLP022 P0000 T01940172
94908KDBQ DBQ20000614125514806/14/00 12:55:31  5-MIN KDBQ 141855Z 19015G20KT 10SM SCT028 SCT036 BKN070 19/17 A2961 1370 87 2200 190/15G20 RMK AO2 RAE1759 SLP021 P0000 T01940172
94908KDBQ DBQ20000614130011106/14/00 13:00:31  5-MIN KDBQ 141900Z 18014KT 10SM SCT028 BKN036 BKN065 19/17 A2960 1380 87 2300 180/14 RMK AO2
94908KDBQ DBQ20000614130511106/14/00 13:05:31  5-MIN KDBQ 141905Z 19018KT 10SM SCT028 BKN036 BKN065 20/17 A2959 1380 84 2300 190/18 RMK AO2
94908KDBQ DBQ20000614131011706/14/00 13:10:31  5-MIN KDBQ 141910Z 19017G25KT 10SM FEW020 BKN028 BKN036 20/17 A2959 1390 84 2300 190/17G25 RMK AO2
94908KDBQ DBQ20000614131512406/14/00 13:15:31  5-MIN KDBQ 141915Z 18015G25KT 10SM SCT018 BKN028 BKN036 21/17 A2958 1390 81 2400 180/15G25 RMK AO2 PRESFR
94908KDBQ DBQ20000614132010406/14/00 13:20:31  5-MIN KDBQ 141920Z 18018KT 10SM BKN018 BKN028 21/17 A2958 1390 81 2400 180/18 RMK AO2
94908KDBQ DBQ20000614132510406/14/00 13:25:31  5-MIN KDBQ 141925Z 17016KT 10SM BKN018 BKN026 20/17 A2958 1400 84 2300 170/16 RMK AO2
94908KDBQ DBQ20000614133011006/14/00 13:30:31  5-MIN KDBQ 141930Z 18017G22KT 10SM BKN018 BKN026 21/17 A2957 1400 81 2400 180/17G22 RMK AO2
94908KDBQ DBQ20000614133510306/14/00 13:35:31  5-MIN KDBQ 141935Z 20015G22KT 10SM BKN018 21/18 A2957 1400 81 2500 190/15G22 RMK AO2
94908KDBQ DBQ20000614134011006/14/00 13:40:31  5-MIN KDBQ 141940Z 18017G23KT 10SM BKN018 BKN023 21/18 A2957 1410 81 2500 180/17G23 RMK AO2
94908KDBQ DBQ20000614134511006/14/00 13:45:31  5-MIN KDBQ 141945Z 19017G23KT 10SM BKN018 BKN023 21/17 A2956 1410 81 2400 190/17G23 RMK AO2
94908KDBQ DBQ20000614135012706/14/00 13:50:31  5-MIN KDBQ 141950Z 19016G23KT 10SM BKN018 BKN023 21/17 A2956 1410 78 2500 190/16G23 RMK AO2 SLP006 T02110172
94908KDBQ DBQ20000614135512706/14/00 13:55:31  5-MIN KDBQ 141955Z 19017G23KT 10SM SCT018 BKN023 22/17 A2956 1410 75 2500 190/17G23 RMK AO2 SLP006 T02170172
94908KDBQ DBQ20000614140011706/14/00 14:00:31  5-MIN KDBQ 142000Z 19014G22KT 10SM SCT018 BKN023 BKN029 22/17 A2956 1410 75 2600 190/14G22 RMK AO2
94908KDBQ DBQ20000614140511106/14/00 14:05:31  5-MIN KDBQ 142005Z 20015KT 10SM SCT018 BKN027 BKN033 21/17 A2955 1420 78 2500 200/15 RMK AO2
94908KDBQ DBQ20000614141011706/14/00 14:10:31  5-MIN KDBQ 142010Z 18017G21KT 10SM FEW020 SCT024 BKN030 22/17 A2956 1420 75 2600 180/17G21 RMK AO2
94908KDBQ DBQ20000614141511706/14/00 14:15:31  5-MIN KDBQ 142015Z 19015G21KT 10SM FEW020 SCT025 BKN030 22/17 A2956 1420 75 2600 190/15G21 RMK AO2
94908KDBQ DBQ20000614142010406/14/00 14:20:31  5-MIN KDBQ 142020Z 20014KT 10SM SCT022 BKN030 22/18 A2956 1420 75 2600 200/14 RMK AO2
94908KDBQ DBQ20000614142511006/14/00 14:25:31  5-MIN KDBQ 142025Z 19019G23KT 10SM FEW022 BKN030 22/17 A2955 1430 73 2600 190/19G23 RMK AO2
94908KDBQ DBQ20000614143011706/14/00 14:30:31  5-MIN KDBQ 142030Z 18016G23KT 10SM FEW020 SCT028 BKN037 22/17 A2955 1420 73 2600 180/16G23 RMK AO2
94908KDBQ DBQ20000614143511106/14/00 14:35:31  5-MIN KDBQ 142035Z 19016KT 10SM FEW020 SCT031 BKN041 22/17 A2955 1430 75 2600 190/16 RMK AO2
94908KDBQ DBQ20000614144011106/14/00 14:40:31  5-MIN KDBQ 142040Z 19013KT 10SM FEW022 SCT034 BKN045 22/17 A2955 1430 73 2600 190/13 RMK AO2
94908KDBQ DBQ20000614144511106/14/00 14:45:31  5-MIN KDBQ 142045Z 19012KT 10SM FEW028 SCT034 BKN043 22/17 A2954 1430 75 2600 190/12 RMK AO2
94908KDBQ DBQ20000614145014606/14/00 14:50:31  5-MIN KDBQ 142050Z 18013G19KT 10SM FEW028 SCT034 BKN041 21/17 A2954 1430 78 2500 180/13G19 RMK AO2 SLP999 60000 T02110172 58023
94908KDBQ DBQ20000614145514606/14/00 14:55:31  5-MIN KDBQ 142055Z 18017G21KT 10SM FEW028 SCT034 BKN043 21/17 A2954 1430 78 2500 180/17G21 RMK AO2 SLP998 60000 T02110172 58023
94908KDBQ DBQ20000614150011706/14/00 15:00:31  5-MIN KDBQ 142100Z 18016G22KT 10SM FEW027 SCT033 BKN043 21/17 A2954 1430 78 2500 180/16G22 RMK AO2
94908KDBQ DBQ20000614150513506/14/00 15:05:31  5-MIN KDBQ 142105Z 19022G29KT 10SM FEW024 BKN033 BKN047 21/17 A2954 1430 81 2400 190/22G29 RMK AO2 PK WND 18029/2105
94908KDBQ DBQ20000614151013406/14/00 15:10:31  5-MIN KDBQ 142110Z 20019G29KT 9SM FEW024 BKN033 OVC041 21/17 A2954 1430 78 2400 200/19G29 RMK AO2 PK WND 18029/2105
94908KDBQ DBQ20000614151515306/14/00 15:15:31  5-MIN KDBQ 142115Z 19019G26KT 6SM -RA BR SCT025 BKN035 OVC046 19/17 A2954 1430 87 2300 190/19G26 RMK AO2 PK WND 18029/2105 RAB11 P0001
94908KDBQ DBQ20000614152015006/14/00 15:20:31  5-MIN KDBQ 142120Z 19018G25KT 7SM -RA SCT025 BKN035 OVC070 19/17 A2954 1430 90 2300 190/18G25 RMK AO2 PK WND 18029/2105 RAB11 P0001
94908KDBQ DBQ20000614152515106/14/00 15:25:31  5-MIN KDBQ 142125Z 20014G24KT 10SM -RA SCT027 BKN041 OVC070 19/17 A2955 1430 90 2200 200/14G24 RMK AO2 PK WND 18029/2105 RAB11 P0001
94908KDBQ DBQ20000614153015006/14/00 15:30:31  5-MIN KDBQ 142130Z 21016G24KT 10SM FEW024 BKN035 OVC070 19/17 A2955 1430 84 2300 200/16G24 RMK AO2 PK WND 18029/2105 RAB11E26 P0001
94908KDBQ DBQ20000614153515006/14/00 15:35:31  5-MIN KDBQ 142135Z 21018G24KT 10SM SCT029 BKN039 OVC060 19/17 A2954 1430 84 2300 210/18G24 RMK AO2 PK WND 18029/2105 RAB11E26 P0001
94908KDBQ DBQ20000614154015006/14/00 15:40:31  5-MIN KDBQ 142140Z 21017G22KT 10SM SCT033 BKN048 OVC060 19/17 A2955 1430 84 2300 210/17G22 RMK AO2 PK WND 18029/2105 RAB11E26 P0001
94908KDBQ DBQ20000614154514406/14/00 15:45:31  5-MIN KDBQ 142145Z 21016KT 10SM FEW034 SCT041 OVC055 20/17 A2955 1420 81 2400 210/16 RMK AO2 PK WND 18029/2105 RAB11E26 P0001
94908KDBQ DBQ20000614155016106/14/00 15:50:31  5-MIN KDBQ 142150Z 21014KT 10SM FEW034 BKN050 OVC060 20/17 A2955 1420 81 2400 210/14 RMK AO2 PK WND 18029/2105 RAB11E26 SLP002 P0001 T02000167
94908KDBQ DBQ20000614155516106/14/00 15:55:31  5-MIN KDBQ 142155Z 22015KT 10SM FEW037 BKN050 OVC060 21/17 A2956 1420 78 2400 220/15 RMK AO2 PK WND 18029/2105 RAB11E26 SLP005 P0001 T02060167
94908KDBQ DBQ20000614160011706/14/00 16:00:31  5-MIN KDBQ 142200Z 23019G22KT 10SM FEW037 SCT049 OVC065 21/16 A2955 1420 70 2500 230/19G22 RMK AO2
94908KDBQ DBQ20000614160513506/14/00 16:05:31  5-MIN KDBQ 142205Z 23024G29KT 10SM FEW037 SCT049 OVC065 21/15 A2955 1430 70 2400 230/24G29 RMK AO2 PK WND 22029/2203
94908KDBQ DBQ20000614161012806/14/00 16:10:31  5-MIN KDBQ 142210Z 23020G29KT 10SM FEW037 OVC065 21/14 A2955 1420 67 2400 220/20G29 RMK AO2 PK WND 22029/2203
94908KDBQ DBQ20000614161512806/14/00 16:15:31  5-MIN KDBQ 142215Z 22017G27KT 10SM FEW037 OVC065 21/15 A2955 1420 70 2400 220/17G27 RMK AO2 PK WND 22029/2203
94908KDBQ DBQ20000614162013506/14/00 16:20:31  5-MIN KDBQ 142220Z 22024G34KT 10SM FEW037 SCT046 OVC065 21/15 A2956 1420 70 2400 220/24G34 RMK AO2 PK WND 23034/2218
94908KDBQ DBQ20000614162512806/14/00 16:25:31  5-MIN KDBQ 142225Z 23023G34KT 10SM SCT042 OVC065 20/14 A2955 1420 67 2400 220/23G34 RMK AO2 PK WND 23034/2218
94908KDBQ DBQ20000614163012806/14/00 16:30:31  5-MIN KDBQ 142230Z 22020G32KT 10SM SCT044 OVC060 20/14 A2956 1420 70 2400 220/20G32 RMK AO2 PK WND 23034/2218
94908KDBQ DBQ20000614163513506/14/00 16:35:31  5-MIN KDBQ 142235Z 23023G27KT 10SM FEW044 BKN060 OVC070 20/14 A2956 1410 70 2400 230/23G27 RMK AO2 PK WND 23034/2218
94908KDBQ DBQ20000614164013506/14/00 16:40:31  5-MIN KDBQ 142240Z 23020G27KT 10SM FEW037 SCT045 OVC065 20/14 A2956 1420 70 2400 230/20G27 RMK AO2 PK WND 23034/2218
94908KDBQ DBQ20000614164513506/14/00 16:45:31  5-MIN KDBQ 142245Z 23026G29KT 10SM SCT041 BKN060 OVC070 20/14 A2955 1430 70 2400 230/26G29 RMK AO2 PK WND 23034/2218
94908KDBQ DBQ20000614165014506/14/00 16:50:31  5-MIN KDBQ 142250Z 23021G30KT 10SM FEW041 OVC065 19/14 A2955 1420 70 2300 230/21G30 RMK AO2 PK WND 23034/2218 SLP002 T01940139
94908KDBQ DBQ20000614165514506/14/00 16:55:31  5-MIN KDBQ 142255Z 22020G28KT 10SM FEW039 OVC060 19/14 A2955 1420 72 2300 220/20G28 RMK AO2 PK WND 23034/2218 SLP003 T01940144
94908KDBQ DBQ20000614170013506/14/00 17:00:31  5-MIN KDBQ 142300Z 22019G27KT 10SM FEW040 SCT047 BKN060 20/14 A2956 1420 70 2400 220/19G27 RMK AO2 PK WND 23026/2258
94908KDBQ DBQ20000614170513506/14/00 17:05:31  5-MIN KDBQ 142305Z 22022G27KT 10SM FEW037 SCT055 BKN070 19/14 A2956 1410 72 2300 220/22G27 RMK AO2 PK WND 23027/2303
94908KDBQ DBQ20000614171013506/14/00 17:10:31  5-MIN KDBQ 142310Z 22019G27KT 10SM FEW045 BKN055 BKN070 19/14 A2957 1410 72 2300 220/19G27 RMK AO2 PK WND 23027/2303
94908KDBQ DBQ20000614171512806/14/00 17:15:31  5-MIN KDBQ 142315Z 23019G26KT 10SM SCT045 BKN060 19/14 A2956 1410 75 2200 230/19G26 RMK AO2 PK WND 23027/2303
94908KDBQ DBQ20000614172012806/14/00 17:20:31  5-MIN KDBQ 142320Z 22019G25KT 10SM BKN047 BKN055 19/14 A2957 1400 72 2200 220/19G25 RMK AO2 PK WND 23027/2303
94908KDBQ DBQ20000614172512106/14/00 17:25:31  5-MIN KDBQ 142325Z 22018G25KT 10SM BKN047 19/14 A2957 1410 72 2200 220/18G25 RMK AO2 PK WND 23027/2303
94908KDBQ DBQ20000614173012106/14/00 17:30:31  5-MIN KDBQ 142330Z 22014G25KT 10SM BKN047 19/14 A2957 1400 75 2200 220/14G25 RMK AO2 PK WND 23027/2303
94908KDBQ DBQ20000614173512106/14/00 17:35:31  5-MIN KDBQ 142335Z 22017G22KT 10SM OVC045 19/14 A2957 1400 75 2200 220/17G22 RMK AO2 PK WND 23027/2303
94908KDBQ DBQ20000614174012106/14/00 17:40:31  5-MIN KDBQ 142340Z 22015G22KT 10SM OVC045 18/14 A2957 1400 78 2200 220/15G22 RMK AO2 PK WND 23027/2303
94908KDBQ DBQ20000614174512106/14/00 17:45:31  5-MIN KDBQ 142345Z 22014G19KT 10SM OVC047 18/14 A2957 1400 78 2200 220/14G19 RMK AO2 PK WND 23027/2303
94908KDBQ DBQ20000614175016906/14/00 17:50:31  5-MIN KDBQ 142350Z 21014G19KT 10SM BKN047 OVC055 18/14 A2958 1400 78 2200 210/14G19 RMK AO2 PK WND 23027/2303 SLP011 60001 T01830144 10222 20183 58023
94908KDBQ DBQ20000614175515606/14/00 17:55:31  5-MIN KDBQ 142355Z 20016KT 10SM OVC049 18/14 A2957 1400 78 2200 200/16 RMK AO2 PK WND 23027/2303 SLP011 60001 T01830144 10222 20183 53012
94908KDBQ DBQ20000614180010406/14/00 18:00:31  5-MIN KDBQ 150000Z 21016KT 10SM SCT046 OVC055 19/14 A2958 1400 75 2200 210/16 RMK AO2
94908KDBQ DBQ20000614180510406/14/00 18:05:31  5-MIN KDBQ 150005Z 21014KT 10SM SCT033 OVC055 18/14 A2958 1400 78 2100 210/14 RMK AO2
94908KDBQ DBQ20000614181011106/14/00 18:10:31  5-MIN KDBQ 150010Z 22015KT 10SM FEW031 SCT038 OVC055 18/14 A2958 1390 78 2100 210/15 RMK AO2
94908KDBQ DBQ20000614181511106/14/00 18:15:31  5-MIN KDBQ 150015Z 22014KT 10SM FEW031 BKN040 OVC055 18/15 A2958 1390 81 2100 220/14 RMK AO2
94908KDBQ DBQ20000614182011106/14/00 18:20:31  5-MIN KDBQ 150020Z 22014KT 10SM FEW027 BKN040 OVC055 18/15 A2958 1400 81 2100 220/14 RMK AO2
94908KDBQ DBQ20000614182511706/14/00 18:25:31  5-MIN KDBQ 150025Z 22016G23KT 10SM SCT024 BKN042 OVC050 18/15 A2958 1400 81 2100 210/16G23 RMK AO2
94908KDBQ DBQ20000614183011706/14/00 18:30:31  5-MIN KDBQ 150030Z 21018G23KT 10SM SCT022 BKN029 OVC046 18/15 A2958 1400 81 2100 210/18G23 RMK AO2
94908KDBQ DBQ20000614183511706/14/00 18:35:31  5-MIN KDBQ 150035Z 21018G23KT 10SM SCT018 BKN023 OVC048 18/15 A2958 1400 83 2100 210/18G23 RMK AO2
94908KDBQ DBQ20000614184011006/14/00 18:40:31  5-MIN KDBQ 150040Z 22015KT 8SM SCT020 BKN029 OVC050 18/15 A2958 1400 83 2100 220/15 RMK AO2
94908KDBQ DBQ20000614184513206/14/00 18:45:31  5-MIN KDBQ 150045Z 21017G21KT 7SM -RA SCT020 BKN033 OVC050 18/16 A2958 1390 87 2100 210/17G21 RMK AO2 RAB41 P0000
94908KDBQ DBQ20000614185014606/14/00 18:50:31  5-MIN KDBQ 150050Z AUTO 22017KT 9SM -RA SCT020 OVC038 18/16 A2958 1390 87 2100 220/17 RMK AO2 RAB41 SLP014 P0000 T01780156 TSNO
94908KDBQ DBQ20000614185515906/14/00 18:55:31  5-MIN KDBQ 150055Z AUTO 22015G22KT 10SM SCT020 BKN031 OVC080 18/16 A2958 1390 87 2100 220/15G22 RMK AO2 RAB41E52 SLP014 P0000 T01780156 TSNO
94908KDBQ DBQ20000614190012706/14/00 19:00:31  5-MIN KDBQ 150100Z AUTO 22015G20KT 10SM FEW020 BKN033 OVC075 18/16 A2959 1390 87 2100 220/15G20 RMK AO2 TSNO
94908KDBQ DBQ20000614190512106/14/00 19:05:31  5-MIN KDBQ 150105Z AUTO 22016KT 10SM FEW018 BKN034 OVC075 18/16 A2959 1380 87 2100 220/16 RMK AO2 TSNO
94908KDBQ DBQ20000614191012106/14/00 19:10:31  5-MIN KDBQ 150110Z AUTO 22014KT 10SM FEW018 BKN036 OVC080 18/16 A2959 1390 87 2100 220/14 RMK AO2 TSNO
94908KDBQ DBQ20000614191511406/14/00 19:15:31  5-MIN KDBQ 150115Z AUTO 22015KT 10SM FEW018 OVC036 18/16 A2959 1390 87 2100 220/15 RMK AO2 TSNO
94908KDBQ DBQ20000614192012706/14/00 19:20:31  5-MIN KDBQ 150120Z AUTO 22015G20KT 10SM FEW028 BKN036 OVC080 18/16 A2958 1390 87 2100 220/15G20 RMK AO2 TSNO
94908KDBQ DBQ20000614192512706/14/00 19:25:31  5-MIN KDBQ 150125Z AUTO 22014G20KT 10SM FEW020 SCT028 OVC035 18/16 A2959 1390 87 2100 220/14G20 RMK AO2 TSNO
94908KDBQ DBQ20000614193012706/14/00 19:30:31  5-MIN KDBQ 150130Z AUTO 22017G20KT 10SM FEW018 SCT028 OVC035 18/16 A2959 1390 87 2100 220/17G20 RMK AO2 TSNO
94908KDBQ DBQ20000614193514506/14/00 19:35:31  5-MIN KDBQ 150135Z AUTO 23019G28KT 10SM SCT018 SCT028 OVC035 18/15 A2960 1380 83 2100 230/19G28 RMK AO2 PK WND 22028/0135 TSNO
94908KDBQ DBQ20000614194014506/14/00 19:40:31  5-MIN KDBQ 150140Z AUTO 23018G28KT 10SM SCT018 BKN030 OVC035 18/15 A2960 1380 83 2100 230/18G28 RMK AO2 PK WND 22028/0135 TSNO
94908KDBQ DBQ20000614194513806/14/00 19:45:31  5-MIN KDBQ 150145Z AUTO 23016G26KT 10SM SCT018 BKN035 17/14 A2960 1370 83 2000 230/16G26 RMK AO2 PK WND 22028/0135 TSNO
94908KDBQ DBQ20000614195015606/14/00 19:50:31  5-MIN KDBQ 150150Z AUTO 23015KT 10SM BKN020 BKN035 BKN048 17/14 A2961 1370 83 2000 230/15 RMK AO2 PK WND 22028/0135 SLP021 T01720144 TSNO
94908KDBQ DBQ20000614195516206/14/00 19:55:31  5-MIN KDBQ 150155Z AUTO 23015G21KT 10SM SCT020 SCT024 BKN035 17/14 A2961 1370 83 2000 230/15G21 RMK AO2 PK WND 22028/0135 SLP022 T01720144 TSNO
94908KDBQ DBQ20000614200012006/14/00 20:00:31  5-MIN KDBQ 150200Z AUTO 23013G21KT 10SM BKN020 BKN033 17/14 A2961 1370 83 2000 230/13G21 RMK AO2 TSNO
94908KDBQ DBQ20000614200511406/14/00 20:05:31  5-MIN KDBQ 150205Z AUTO 22012KT 10SM BKN020 BKN033 17/14 A2961 1370 83 2000 220/12 RMK AO2 TSNO
94908KDBQ DBQ20000614201010706/14/00 20:10:31  5-MIN KDBQ 150210Z AUTO 22012KT 10SM BKN022 17/14 A2961 1370 83 2000 220/12 RMK AO2 TSNO
94908KDBQ DBQ20000614201510706/14/00 20:15:31  5-MIN KDBQ 150215Z AUTO 23012KT 10SM BKN022 17/14 A2960 1370 83 2000 230/12 RMK AO2 TSNO
94908KDBQ DBQ20000614202010706/14/00 20:20:31  5-MIN KDBQ 150220Z AUTO 22012KT 10SM BKN022 17/14 A2961 1370 83 2000 220/12 RMK AO2 TSNO
94908KDBQ DBQ20000614202510706/14/00 20:25:31  5-MIN KDBQ 150225Z AUTO 22014KT 10SM OVC022 17/15 A2961 1370 87 2000 220/14 RMK AO2 TSNO
94908KDBQ DBQ20000614203010706/14/00 20:30:31  5-MIN KDBQ 150230Z AUTO 23015KT 10SM OVC020 17/15 A2961 1370 87 2000 230/15 RMK AO2 TSNO
94908KDBQ DBQ20000614203510706/14/00 20:35:31  5-MIN KDBQ 150235Z AUTO 23015KT 10SM OVC020 17/15 A2961 1370 87 2000 230/15 RMK AO2 TSNO
94908KDBQ DBQ20000614204010706/14/00 20:40:31  5-MIN KDBQ 150240Z AUTO 23015KT 10SM OVC018 17/15 A2961 1360 87 2000 230/15 RMK AO2 TSNO
94908KDBQ DBQ20000614204510706/14/00 20:45:31  5-MIN KDBQ 150245Z AUTO 23014KT 10SM OVC018 17/15 A2962 1360 87 2000 230/14 RMK AO2 TSNO
94908KDBQ DBQ20000614205013606/14/00 20:50:31  5-MIN KDBQ 150250Z AUTO 23014KT 10SM OVC018 17/15 A2962 1360 87 2000 230/14 RMK AO2 SLP026 60000 T01720150 53012 TSNO
94908KDBQ DBQ20000614205513606/14/00 20:55:31  5-MIN KDBQ 150255Z AUTO 23015KT 10SM OVC016 17/15 A2962 1350 87 2000 230/15 RMK AO2 SLP028 60000 T01720150 53017 TSNO
94908KDBQ DBQ20000614210011306/14/00 21:00:31  5-MIN KDBQ 150300Z AUTO 23018G25KT 10SM OVC016 17/15 A2963 1350 87 2000 230/18G25 RMK AO2 TSNO
94908KDBQ DBQ20000614210511306/14/00 21:05:31  5-MIN KDBQ 150305Z AUTO 23014G25KT 10SM OVC014 17/15 A2963 1350 90 1900 230/14G25 RMK AO2 TSNO
94908KDBQ DBQ20000614211011306/14/00 21:10:31  5-MIN KDBQ 150310Z AUTO 24013G19KT 10SM OVC014 17/15 A2963 1340 90 1900 240/13G19 RMK AO2 TSNO
94908KDBQ DBQ20000614211511306/14/00 21:15:31  5-MIN KDBQ 150315Z AUTO 24013G21KT 10SM OVC014 17/15 A2964 1340 90 1900 240/13G21 RMK AO2 TSNO
94908KDBQ DBQ20000614212011306/14/00 21:20:31  5-MIN KDBQ 150320Z AUTO 24014G21KT 10SM OVC014 17/15 A2964 1340 90 1900 240/14G21 RMK AO2 TSNO
94908KDBQ DBQ20000614212510706/14/00 21:25:31  5-MIN KDBQ 150325Z AUTO 25016KT 10SM OVC012 17/15 A2964 1340 90 1900 240/16 RMK AO2 TSNO
94908KDBQ DBQ20000614213010706/14/00 21:30:31  5-MIN KDBQ 150330Z AUTO 25016KT 10SM OVC012 17/15 A2964 1330 90 1900 250/16 RMK AO2 TSNO
94908KDBQ DBQ20000614213511306/14/00 21:35:31  5-MIN KDBQ 150335Z AUTO 25015G21KT 10SM OVC012 17/15 A2965 1330 87 1900 250/15G21 RMK AO2 TSNO
94908KDBQ DBQ20000614214011306/14/00 21:40:31  5-MIN KDBQ 150340Z AUTO 25013G21KT 10SM OVC012 17/15 A2965 1330 90 1900 250/13G21 RMK AO2 TSNO
94908KDBQ DBQ20000614214512006/14/00 21:45:31  5-MIN KDBQ 150345Z AUTO 25015G21KT 10SM BKN014 OVC019 17/15 A2965 1330 90 1900 250/15G21 RMK AO2 TSNO
94908KDBQ DBQ20000614215012406/14/00 21:50:31  5-MIN KDBQ 150350Z AUTO 25014KT 10SM OVC016 17/15 A2965 1330 90 1900 250/14 RMK AO2 SLP036 T01670150 TSNO
94908KDBQ DBQ20000614215512406/14/00 21:55:31  5-MIN KDBQ 150355Z AUTO 25014KT 10SM OVC016 17/15 A2965 1330 90 1900 250/14 RMK AO2 SLP035 T01670150 TSNO
94908KDBQ DBQ20000614220010706/14/00 22:00:31  5-MIN KDBQ 150400Z AUTO 25013KT 10SM OVC016 17/15 A2965 1330 90 1900 240/13 RMK AO2 TSNO
94908KDBQ DBQ20000614220510706/14/00 22:05:31  5-MIN KDBQ 150405Z AUTO 25013KT 10SM OVC016 17/15 A2965 1330 90 1900 250/13 RMK AO2 TSNO
94908KDBQ DBQ20000614221011406/14/00 22:10:31  5-MIN KDBQ 150410Z AUTO 26014KT 10SM BKN016 OVC020 17/14 A2966 1320 86 1900 260/14 RMK AO2 TSNO
94908KDBQ DBQ20000614221510706/14/00 22:15:31  5-MIN KDBQ 150415Z AUTO 27013KT 10SM OVC017 17/14 A2966 1320 86 1900 270/13 RMK AO2 TSNO
94908KDBQ DBQ20000614222011406/14/00 22:20:31  5-MIN KDBQ 150420Z AUTO 27014KT 10SM SCT014 OVC020 17/14 A2966 1320 86 1900 260/14 RMK AO2 TSNO
94908KDBQ DBQ20000614222512706/14/00 22:25:31  5-MIN KDBQ 150425Z AUTO 27015G20KT 10SM FEW014 BKN020 OVC031 17/14 A2966 1320 83 1900 260/15G20 RMK AO2 TSNO
94908KDBQ DBQ20000614223012706/14/00 22:30:31  5-MIN KDBQ 150430Z AUTO 26011G20KT 10SM FEW014 BKN020 OVC031 16/14 A2966 1320 86 1800 260/11G20 RMK AO2 TSNO
94908KDBQ DBQ20000614223511406/14/00 22:35:31  5-MIN KDBQ 150435Z AUTO 25013KT 10SM BKN020 OVC031 16/14 A2967 1310 86 1800 250/13 RMK AO2 TSNO
94908KDBQ DBQ20000614224011406/14/00 22:40:31  5-MIN KDBQ 150440Z AUTO 25012KT 10SM BKN020 OVC031 16/14 A2967 1310 86 1800 250/12 RMK AO2 TSNO
94908KDBQ DBQ20000614224511406/14/00 22:45:31  5-MIN KDBQ 150445Z AUTO 25012KT 10SM BKN020 OVC031 16/14 A2967 1310 86 1800 250/12 RMK AO2 TSNO
94908KDBQ DBQ20000614225013106/14/00 22:50:31  5-MIN KDBQ 150450Z AUTO 25013KT 10SM BKN022 OVC031 16/14 A2967 1310 86 1800 250/13 RMK AO2 SLP044 T01610139 TSNO
94908KDBQ DBQ20000614225513106/14/00 22:55:31  5-MIN KDBQ 150455Z AUTO 25014KT 10SM SCT022 OVC031 16/14 A2967 1310 86 1800 250/14 RMK AO2 SLP044 T01610139 TSNO
94908KDBQ DBQ20000614230011406/14/00 23:00:31  5-MIN KDBQ 150500Z AUTO 25014KT 10SM FEW022 OVC031 16/14 A2967 1310 86 1800 250/14 RMK AO2 TSNO
94908KDBQ DBQ20000614230511406/14/00 23:05:31  5-MIN KDBQ 150505Z AUTO 25010KT 10SM FEW022 OVC031 16/14 A2967 1310 86 1800 250/10 RMK AO2 TSNO
94908KDBQ DBQ20000614231010706/14/00 23:10:31  5-MIN KDBQ 150510Z AUTO 25011KT 10SM OVC031 16/13 A2967 1310 83 1800 250/11 RMK AO2 TSNO
94908KDBQ DBQ20000614231510706/14/00 23:15:31  5-MIN KDBQ 150515Z AUTO 26011KT 10SM OVC031 16/13 A2967 1310 83 1800 260/11 RMK AO2 TSNO
94908KDBQ DBQ20000614232010706/14/00 23:20:31  5-MIN KDBQ 150520Z AUTO 25011KT 10SM OVC031 16/13 A2967 1310 83 1800 250/11 RMK AO2 TSNO
94908KDBQ DBQ20000614232510706/14/00 23:25:31  5-MIN KDBQ 150525Z AUTO 25009KT 10SM OVC031 16/13 A2967 1310 83 1800 250/09 RMK AO2 TSNO
94908KDBQ DBQ20000614233010706/14/00 23:30:31  5-MIN KDBQ 150530Z AUTO 26012KT 10SM OVC031 16/13 A2967 1310 83 1800 250/12 RMK AO2 TSNO
94908KDBQ DBQ20000614233510706/14/00 23:35:31  5-MIN KDBQ 150535Z AUTO 26010KT 10SM OVC031 16/13 A2967 1310 83 1800 250/10 RMK AO2 TSNO
94908KDBQ DBQ20000614234010706/14/00 23:40:31  5-MIN KDBQ 150540Z AUTO 25010KT 10SM OVC031 16/13 A2968 1300 83 1800 250/10 RMK AO2 TSNO
94908KDBQ DBQ20000614234510706/14/00 23:45:31  5-MIN KDBQ 150545Z AUTO 25011KT 10SM OVC031 16/13 A2968 1310 83 1800 250/11 RMK AO2 TSNO
94908KDBQ DBQ20000614235016406/14/00 23:50:31  5-MIN KDBQ 150550Z AUTO 25012G16KT 10SM OVC033 16/13 A2968 1310 83 1800 250/12G16 RMK AO2 SLP046 60000 T01610133 10189 20161 402220161 53017 TSNO
94908KDBQ DBQ20000614235515806/14/00 23:55:31  5-MIN KDBQ 150555Z AUTO 25011KT 10SM OVC033 16/13 A2968 1300 83 1800 250/11 RMK AO2 SLP046 60000 T01610133 10189 20161 402220161 51017 TSNO
94908KDBQ DBQ20000615000010706/15/00 00:00:31  5-MIN KDBQ 150600Z AUTO 25013KT 10SM OVC033 16/13 A2968 1300 83 1800 250/13 RMK AO2 TSNO
94908KDBQ DBQ20000615000510706/15/00 00:05:31  5-MIN KDBQ 150605Z AUTO 25013KT 10SM OVC033 16/13 A2968 1300 83 1800 250/13 RMK AO2 TSNO
94908KDBQ DBQ20000615001010706/15/00 00:10:31  5-MIN KDBQ 150610Z AUTO 24012KT 10SM OVC033 16/13 A2968 1300 83 1800 240/12 RMK AO2 TSNO
94908KDBQ DBQ20000615001511406/15/00 00:15:31  5-MIN KDBQ 150615Z AUTO 24010KT 10SM SCT028 OVC035 16/13 A2968 1300 83 1800 240/10 RMK AO2 TSNO
94908KDBQ DBQ20000615002011406/15/00 00:20:31  5-MIN KDBQ 150620Z AUTO 24011KT 10SM SCT028 OVC035 16/13 A2968 1300 83 1800 240/11 RMK AO2 TSNO
94908KDBQ DBQ20000615002511406/15/00 00:25:31  5-MIN KDBQ 150625Z AUTO 25011KT 10SM FEW028 OVC035 16/13 A2968 1300 83 1800 250/11 RMK AO2 TSNO
94908KDBQ DBQ20000615003010706/15/00 00:30:31  5-MIN KDBQ 150630Z AUTO 25012KT 10SM OVC032 16/13 A2968 1300 83 1800 250/12 RMK AO2 TSNO
94908KDBQ DBQ20000615003510706/15/00 00:35:31  5-MIN KDBQ 150635Z AUTO 25012KT 10SM OVC032 16/13 A2968 1300 83 1800 250/12 RMK AO2 TSNO
94908KDBQ DBQ20000615004010706/15/00 00:40:31  5-MIN KDBQ 150640Z AUTO 26014KT 10SM OVC032 16/13 A2968 1300 83 1800 250/14 RMK AO2 TSNO
94908KDBQ DBQ20000615004510706/15/00 00:45:31  5-MIN KDBQ 150645Z AUTO 25012KT 10SM BKN032 16/13 A2968 1300 86 1700 250/12 RMK AO2 TSNO
94908KDBQ DBQ20000615005012406/15/00 00:50:31  5-MIN KDBQ 150650Z AUTO 25013KT 10SM BKN032 16/13 A2969 1300 86 1700 250/13 RMK AO2 SLP049 T01560133 TSNO
94908KDBQ DBQ20000615005512406/15/00 00:55:31  5-MIN KDBQ 150655Z AUTO 25013KT 10SM SCT032 16/13 A2969 1290 86 1700 250/13 RMK AO2 SLP050 T01560133 TSNO
94908KDBQ DBQ20000615010010706/15/00 01:00:31  5-MIN KDBQ 150700Z AUTO 26013KT 10SM SCT032 16/13 A2969 1290 83 1700 260/13 RMK AO2 TSNO
94908KDBQ DBQ20000615010510706/15/00 01:05:31  5-MIN KDBQ 150705Z AUTO 25009KT 10SM FEW032 16/13 A2969 1290 83 1700 250/09 RMK AO2 TSNO
94908KDBQ DBQ20000615011010406/15/00 01:10:31  5-MIN KDBQ 150710Z AUTO 25009KT 10SM CLR 15/13 A2969 1290 86 1600 250/09 RMK AO2 TSNO
94908KDBQ DBQ20000615011510706/15/00 01:15:31  5-MIN KDBQ 150715Z AUTO 25010KT 10SM FEW035 15/13 A2969 1290 86 1600 250/10 RMK AO2 TSNO
94908KDBQ DBQ20000615012010706/15/00 01:20:31  5-MIN KDBQ 150720Z AUTO 25009KT 10SM SCT035 15/13 A2969 1290 86 1600 250/09 RMK AO2 TSNO
94908KDBQ DBQ20000615012510706/15/00 01:25:31  5-MIN KDBQ 150725Z AUTO 24008KT 10SM BKN035 15/13 A2969 1290 86 1600 240/08 RMK AO2 TSNO
94908KDBQ DBQ20000615013010706/15/00 01:30:31  5-MIN KDBQ 150730Z AUTO 24007KT 10SM BKN035 15/13 A2969 1290 86 1600 240/07 RMK AO2 TSNO
94908KDBQ DBQ20000615013510706/15/00 01:35:31  5-MIN KDBQ 150735Z AUTO 22007KT 10SM BKN035 15/13 A2969 1290 90 1600 220/07 RMK AO2 TSNO
94908KDBQ DBQ20000615014010706/15/00 01:40:31  5-MIN KDBQ 150740Z AUTO 22007KT 10SM OVC033 15/13 A2969 1290 86 1600 220/07 RMK AO2 TSNO
94908KDBQ DBQ20000615014510706/15/00 01:45:31  5-MIN KDBQ 150745Z AUTO 21006KT 10SM BKN033 14/13 A2969 1290 90 1600 210/06 RMK AO2 TSNO
94908KDBQ DBQ20000615015012406/15/00 01:50:31  5-MIN KDBQ 150750Z AUTO 22006KT 10SM BKN033 14/13 A2969 1290 90 1600 210/06 RMK AO2 SLP052 T01440128 TSNO
94908KDBQ DBQ20000615015512406/15/00 01:55:31  5-MIN KDBQ 150755Z AUTO 21006KT 10SM SCT033 14/13 A2969 1290 90 1600 210/06 RMK AO2 SLP051 T01440128 TSNO
94908KDBQ DBQ20000615020010706/15/00 02:00:31  5-MIN KDBQ 150800Z AUTO 20006KT 10SM SCT033 14/13 A2969 1290 93 1500 200/06 RMK AO2 TSNO
94908KDBQ DBQ20000615020510706/15/00 02:05:31  5-MIN KDBQ 150805Z AUTO 20006KT 10SM FEW033 14/13 A2969 1290 93 1500 200/06 RMK AO2 TSNO
94908KDBQ DBQ20000615021010406/15/00 02:10:31  5-MIN KDBQ 150810Z AUTO 21007KT 10SM CLR 14/13 A2969 1290 93 1500 210/07 RMK AO2 TSNO
94908KDBQ DBQ20000615021510406/15/00 02:15:31  5-MIN KDBQ 150815Z AUTO 21006KT 10SM CLR 14/13 A2969 1290 93 1500 210/06 RMK AO2 TSNO
94908KDBQ DBQ20000615022010406/15/00 02:20:31  5-MIN KDBQ 150820Z AUTO 21007KT 10SM CLR 13/13 A2969 1290 96 1400 210/07 RMK AO2 TSNO
94908KDBQ DBQ20000615022510406/15/00 02:25:31  5-MIN KDBQ 150825Z AUTO 21007KT 10SM CLR 13/13 A2969 1290 96 1400 210/07 RMK AO2 TSNO
94908KDBQ DBQ20000615023010406/15/00 02:30:31  5-MIN KDBQ 150830Z AUTO 22008KT 10SM CLR 13/13 A2969 1290 96 1400 210/08 RMK AO2 TSNO
94908KDBQ DBQ20000615023510406/15/00 02:35:31  5-MIN KDBQ 150835Z AUTO 21007KT 10SM CLR 13/13 A2969 1300 96 1400 210/07 RMK AO2 TSNO
94908KDBQ DBQ20000615024010406/15/00 02:40:31  5-MIN KDBQ 150840Z AUTO 21007KT 10SM CLR 13/13 A2968 1300 96 1400 210/07 RMK AO2 TSNO
94908KDBQ DBQ20000615024510406/15/00 02:45:31  5-MIN KDBQ 150845Z AUTO 21006KT 10SM CLR 13/13 A2968 1300 96 1400 210/06 RMK AO2 TSNO
94908KDBQ DBQ20000615025012706/15/00 02:50:31  5-MIN KDBQ 150850Z AUTO 21006KT 10SM CLR 13/13 A2969 1300 96 1400 210/06 RMK AO2 SLP050 T01330128 51017 TSNO
94908KDBQ DBQ20000615025512706/15/00 02:55:31  5-MIN KDBQ 150855Z AUTO 20007KT 10SM CLR 13/12 A2968 1300 93 1400 200/07 RMK AO2 SLP049 T01330122 50003 TSNO
94908KDBQ DBQ20000615030010406/15/00 03:00:31  5-MIN KDBQ 150900Z AUTO 21005KT 10SM CLR 13/12 A2968 1300 93 1400 210/05 RMK AO2 TSNO
94908KDBQ DBQ20000615030510706/15/00 03:05:31  5-MIN KDBQ 150905Z AUTO 20006KT 10SM FEW048 13/12 A2968 1300 93 1400 200/06 RMK AO2 TSNO
94908KDBQ DBQ20000615031010706/15/00 03:10:31  5-MIN KDBQ 150910Z AUTO 21007KT 10SM SCT048 13/13 A2968 1300 96 1400 210/07 RMK AO2 TSNO
94908KDBQ DBQ20000615031511406/15/00 03:15:31  5-MIN KDBQ 150915Z AUTO 21007KT 10SM FEW042 SCT048 13/13 A2968 1300 96 1400 210/07 RMK AO2 TSNO
94908KDBQ DBQ20000615032011406/15/00 03:20:31  5-MIN KDBQ 150920Z AUTO 21007KT 10SM FEW042 SCT048 13/13 A2968 1300 96 1400 210/07 RMK AO2 TSNO
94908KDBQ DBQ20000615032510706/15/00 03:25:31  5-MIN KDBQ 150925Z AUTO 21006KT 10SM FEW048 13/13 A2969 1300 96 1400 210/06 RMK AO2 TSNO
94908KDBQ DBQ20000615033010706/15/00 03:30:31  5-MIN KDBQ 150930Z AUTO 21008KT 10SM FEW048 13/13 A2969 1300 96 1400 210/08 RMK AO2 TSNO
94908KDBQ DBQ20000615033510706/15/00 03:35:31  5-MIN KDBQ 150935Z AUTO 21008KT 10SM FEW048 13/13 A2969 1300 96 1400 210/08 RMK AO2 TSNO
94908KDBQ DBQ20000615034010406/15/00 03:40:31  5-MIN KDBQ 150940Z AUTO 22007KT 10SM CLR 13/13 A2969 1300 96 1400 220/07 RMK AO2 TSNO
94908KDBQ DBQ20000615034510406/15/00 03:45:31  5-MIN KDBQ 150945Z AUTO 22007KT 10SM CLR 13/13 A2968 1300 96 1400 220/07 RMK AO2 TSNO
94908KDBQ DBQ20000615035012106/15/00 03:50:31  5-MIN KDBQ 150950Z AUTO 21007KT 10SM CLR 13/13 A2968 1300 96 1400 210/07 RMK AO2 SLP049 T01330128 TSNO
94908KDBQ DBQ20000615035512106/15/00 03:55:31  5-MIN KDBQ 150955Z AUTO 22007KT 10SM CLR 13/12 A2969 1300 93 1400 220/07 RMK AO2 SLP050 T01330122 TSNO
94908KDBQ DBQ20000615040010406/15/00 04:00:31  5-MIN KDBQ 151000Z AUTO 22006KT 10SM CLR 13/12 A2968 1300 93 1400 220/06 RMK AO2 TSNO
94908KDBQ DBQ20000615040510406/15/00 04:05:31  5-MIN KDBQ 151005Z AUTO 22007KT 10SM CLR 13/12 A2969 1300 93 1400 220/07 RMK AO2 TSNO
94908KDBQ DBQ20000615041010406/15/00 04:10:31  5-MIN KDBQ 151010Z AUTO 22007KT 10SM CLR 13/12 A2969 1290 93 1400 220/07 RMK AO2 TSNO
94908KDBQ DBQ20000615041510406/15/00 04:15:31  5-MIN KDBQ 151015Z AUTO 22006KT 10SM CLR 13/12 A2969 1290 96 1400 220/06 RMK AO2 TSNO
94908KDBQ DBQ20000615042010406/15/00 04:20:31  5-MIN KDBQ 151020Z AUTO 21006KT 10SM CLR 13/12 A2969 1290 96 1400 210/06 RMK AO2 TSNO
94908KDBQ DBQ20000615042510406/15/00 04:25:31  5-MIN KDBQ 151025Z AUTO 20006KT 10SM CLR 13/12 A2969 1290 96 1400 200/06 RMK AO2 TSNO
94908KDBQ DBQ20000615043010406/15/00 04:30:31  5-MIN KDBQ 151030Z AUTO 21007KT 10SM CLR 13/12 A2969 1290 96 1400 210/07 RMK AO2 TSNO
94908KDBQ DBQ20000615043510406/15/00 04:35:31  5-MIN KDBQ 151035Z AUTO 21006KT 10SM CLR 13/12 A2969 1290 96 1400 210/06 RMK AO2 TSNO
94908KDBQ DBQ20000615044009406/15/00 04:40:31  5-MIN KDBQ 151040Z 21006KT 10SM CLR 13/12 A2969 1290 96 1400 210/06 RMK AO2
94908KDBQ DBQ20000615044509406/15/00 04:45:31  5-MIN KDBQ 151045Z 20007KT 10SM CLR 13/12 A2969 1290 96 1400 200/07 RMK AO2
94908KDBQ DBQ20000615045011106/15/00 04:50:31  5-MIN KDBQ 151050Z 20006KT 10SM CLR 13/12 A2969 1290 96 1400 200/06 RMK AO2 SLP053 T01280122
94908KDBQ DBQ20000615045511106/15/00 04:55:31  5-MIN KDBQ 151055Z 21006KT 10SM CLR 13/12 A2969 1290 96 1400 200/06 RMK AO2 SLP054 T01280122
94908KDBQ DBQ20000615050009406/15/00 05:00:31  5-MIN KDBQ 151100Z 20006KT 10SM CLR 13/12 A2970 1290 96 1400 200/06 RMK AO2
94908KDBQ DBQ20000615050509406/15/00 05:05:31  5-MIN KDBQ 151105Z 21006KT 10SM CLR 13/12 A2970 1290 96 1400 210/06 RMK AO2
94908KDBQ DBQ20000615051009406/15/00 05:10:31  5-MIN KDBQ 151110Z 21006KT 10SM CLR 13/12 A2970 1290 96 1400 210/06 RMK AO2
94908KDBQ DBQ20000615051509406/15/00 05:15:31  5-MIN KDBQ 151115Z 21006KT 10SM CLR 13/12 A2969 1290 96 1400 210/06 RMK AO2
94908KDBQ DBQ20000615052009406/15/00 05:20:31  5-MIN KDBQ 151120Z 20006KT 10SM CLR 13/12 A2969 1290 93 1400 200/06 RMK AO2
94908KDBQ DBQ20000615052509406/15/00 05:25:31  5-MIN KDBQ 151125Z 21006KT 10SM CLR 13/13 A2969 1290 96 1400 200/06 RMK AO2
94908KDBQ DBQ20000615053009406/15/00 05:30:31  5-MIN KDBQ 151130Z 21006KT 10SM CLR 13/13 A2969 1300 96 1400 210/06 RMK AO2
94908KDBQ DBQ20000615053509406/15/00 05:35:31  5-MIN KDBQ 151135Z 20007KT 10SM CLR 13/13 A2968 1300 96 1400 200/07 RMK AO2
94908KDBQ DBQ20000615054009406/15/00 05:40:31  5-MIN KDBQ 151140Z 21008KT 10SM CLR 13/13 A2969 1290 96 1400 210/08 RMK AO2
94908KDBQ DBQ20000615054509406/15/00 05:45:31  5-MIN KDBQ 151145Z 21008KT 10SM CLR 14/13 A2969 1290 93 1500 210/08 RMK AO2
94908KDBQ DBQ20000615055013506/15/00 05:50:31  5-MIN KDBQ 151150Z 21007KT 10SM CLR 14/13 A2969 1290 93 1500 210/07 RMK AO2 SLP052 70012 T01390128 10161 20128 50003
94908KDBQ DBQ20000615055513506/15/00 05:55:31  5-MIN KDBQ 151155Z 21007KT 10SM CLR 14/13 A2969 1290 93 1500 210/07 RMK AO2 SLP052 70012 T01390128 10161 20128 50001
94908KDBQ DBQ20000615060009406/15/00 06:00:31  5-MIN KDBQ 151200Z 22007KT 10SM CLR 14/13 A2969 1290 93 1600 220/07 RMK AO2
94908KDBQ DBQ20000615060509406/15/00 06:05:31  5-MIN KDBQ 151205Z 22008KT 10SM CLR 14/13 A2969 1290 93 1600 220/08 RMK AO2
94908KDBQ DBQ20000615061009406/15/00 06:10:31  5-MIN KDBQ 151210Z 22009KT 10SM CLR 14/13 A2969 1290 93 1600 220/09 RMK AO2
94908KDBQ DBQ20000615061509406/15/00 06:15:31  5-MIN KDBQ 151215Z 22008KT 10SM CLR 14/13 A2969 1290 93 1600 220/08 RMK AO2
94908KDBQ DBQ20000615062009406/15/00 06:20:31  5-MIN KDBQ 151220Z 22009KT 10SM CLR 14/13 A2969 1290 93 1600 210/09 RMK AO2
94908KDBQ DBQ20000615062509406/15/00 06:25:31  5-MIN KDBQ 151225Z 22008KT 10SM CLR 15/13 A2969 1290 90 1600 220/08 RMK AO2
94908KDBQ DBQ20000615063009406/15/00 06:30:31  5-MIN KDBQ 151230Z 22008KT 10SM CLR 15/13 A2969 1290 90 1600 220/08 RMK AO2
94908KDBQ DBQ20000615063509406/15/00 06:35:31  5-MIN KDBQ 151235Z 22009KT 10SM CLR 15/13 A2970 1290 90 1600 220/09 RMK AO2
94908KDBQ DBQ20000615064009406/15/00 06:40:31  5-MIN KDBQ 151240Z 23010KT 10SM CLR 15/13 A2970 1280 90 1600 230/10 RMK AO2
94908KDBQ DBQ20000615064509406/15/00 06:45:31  5-MIN KDBQ 151245Z 22010KT 10SM CLR 16/13 A2970 1280 86 1700 220/10 RMK AO2
94908KDBQ DBQ20000615065011106/15/00 06:50:31  5-MIN KDBQ 151250Z 23008KT 10SM CLR 16/13 A2970 1280 86 1700 230/08 RMK AO2 SLP056 T01560133
94908KDBQ DBQ20000615065511106/15/00 06:55:31  5-MIN KDBQ 151255Z 22011KT 10SM CLR 16/13 A2971 1280 86 1700 220/11 RMK AO2 SLP058 T01560133
94908KDBQ DBQ20000615070009406/15/00 07:00:31  5-MIN KDBQ 151300Z 22009KT 10SM CLR 16/13 A2971 1270 86 1700 220/09 RMK AO2
94908KDBQ DBQ20000615070509406/15/00 07:05:31  5-MIN KDBQ 151305Z 24009KT 10SM CLR 16/13 A2971 1270 83 1700 240/09 RMK AO2
94908KDBQ DBQ20000615071009406/15/00 07:10:31  5-MIN KDBQ 151310Z 22010KT 10SM CLR 16/13 A2971 1270 83 1700 220/10 RMK AO2
94908KDBQ DBQ20000615071509406/15/00 07:15:31  5-MIN KDBQ 151315Z 23009KT 10SM CLR 16/13 A2971 1270 83 1700 230/09 RMK AO2
94908KDBQ DBQ20000615072009406/15/00 07:20:31  5-MIN KDBQ 151320Z 22008KT 10SM CLR 16/14 A2971 1270 86 1700 210/08 RMK AO2
94908KDBQ DBQ20000615072509406/15/00 07:25:31  5-MIN KDBQ 151325Z 21010KT 10SM CLR 17/14 A2971 1270 83 1800 210/10 RMK AO2
94908KDBQ DBQ20000615073009406/15/00 07:30:31  5-MIN KDBQ 151330Z 22009KT 10SM CLR 17/14 A2972 1270 83 1800 220/09 RMK AO2
94908KDBQ DBQ20000615073509406/15/00 07:35:31  5-MIN KDBQ 151335Z 23010KT 10SM CLR 17/14 A2972 1260 83 1800 220/10 RMK AO2
94908KDBQ DBQ20000615074009406/15/00 07:40:31  5-MIN KDBQ 151340Z 24008KT 10SM CLR 17/13 A2972 1270 80 1800 240/08 RMK AO2
94908KDBQ DBQ20000615074509406/15/00 07:45:31  5-MIN KDBQ 151345Z 23008KT 10SM CLR 17/14 A2972 1270 80 1900 230/08 RMK AO2
94908KDBQ DBQ20000615075011106/15/00 07:50:31  5-MIN KDBQ 151350Z 22009KT 10SM CLR 17/14 A2972 1260 80 1900 220/09 RMK AO2 SLP062 T01720139
94908KDBQ DBQ20000615075511106/15/00 07:55:31  5-MIN KDBQ 151355Z 22009KT 10SM CLR 17/14 A2972 1270 80 1900 220/09 RMK AO2 SLP061 T01720139
94908KDBQ DBQ20000615080009406/15/00 08:00:31  5-MIN KDBQ 151400Z 23009KT 10SM CLR 17/14 A2972 1270 80 1900 230/09 RMK AO2
94908KDBQ DBQ20000615080509406/15/00 08:05:31  5-MIN KDBQ 151405Z 21008KT 10SM CLR 18/14 A2971 1270 78 1900 210/08 RMK AO2
94908KDBQ DBQ20000615081009406/15/00 08:10:31  5-MIN KDBQ 151410Z 20009KT 10SM CLR 18/14 A2971 1270 78 1900 200/09 RMK AO2
94908KDBQ DBQ20000615081509406/15/00 08:15:31  5-MIN KDBQ 151415Z 22011KT 10SM CLR 18/14 A2972 1270 78 1900 220/11 RMK AO2
94908KDBQ DBQ20000615082009406/15/00 08:20:31  5-MIN KDBQ 151420Z 22009KT 10SM CLR 18/14 A2972 1270 78 1900 220/09 RMK AO2
94908KDBQ DBQ20000615082509406/15/00 08:25:31  5-MIN KDBQ 151425Z 21010KT 10SM CLR 18/14 A2972 1270 75 2000 210/10 RMK AO2
94908KDBQ DBQ20000615083009406/15/00 08:30:31  5-MIN KDBQ 151430Z 22011KT 10SM CLR 18/14 A2972 1270 75 2000 210/11 RMK AO2
94908KDBQ DBQ20000615083509406/15/00 08:35:31  5-MIN KDBQ 151435Z 23011KT 10SM CLR 18/13 A2972 1260 75 1900 230/11 RMK AO2
94908KDBQ DBQ20000615084009406/15/00 08:40:31  5-MIN KDBQ 151440Z 22009KT 10SM CLR 19/14 A2972 1270 72 2100 220/09 RMK AO2
94908KDBQ DBQ20000615084509406/15/00 08:45:31  5-MIN KDBQ 151445Z 23010KT 10SM CLR 18/14 A2972 1270 75 2000 230/10 RMK AO2
94908KDBQ DBQ20000615085011706/15/00 08:50:31  5-MIN KDBQ 151450Z 21010KT 10SM CLR 18/14 A2971 1270 75 2000 210/10 RMK AO2 SLP058 T01830139 50001
94908KDBQ DBQ20000615085511706/15/00 08:55:31  5-MIN KDBQ 151455Z 22011KT 10SM CLR 19/14 A2971 1280 72 2100 220/11 RMK AO2 SLP056 T01890139 50006
94908KDBQ DBQ20000615090009406/15/00 09:00:31  5-MIN KDBQ 151500Z 22012KT 10SM CLR 19/13 A2971 1270 70 2100 220/12 RMK AO2
94908KDBQ DBQ20000615090509406/15/00 09:05:31  5-MIN KDBQ 151505Z 22011KT 10SM CLR 19/13 A2971 1270 70 2100 220/11 RMK AO2
94908KDBQ DBQ20000615091009406/15/00 09:10:31  5-MIN KDBQ 151510Z 21014KT 10SM CLR 19/13 A2971 1280 70 2100 210/14 RMK AO2
94908KDBQ DBQ20000615091509406/15/00 09:15:31  5-MIN KDBQ 151515Z 23012KT 10SM CLR 19/13 A2971 1280 67 2100 220/12 RMK AO2
94908KDBQ DBQ20000615092009406/15/00 09:20:31  5-MIN KDBQ 151520Z 21012KT 10SM CLR 19/13 A2971 1280 67 2100 210/12 RMK AO2
94908KDBQ DBQ20000615092509406/15/00 09:25:31  5-MIN KDBQ 151525Z 21013KT 10SM CLR 19/13 A2971 1280 67 2100 210/13 RMK AO2
94908KDBQ DBQ20000615093009406/15/00 09:30:31  5-MIN KDBQ 151530Z 23010KT 10SM CLR 19/13 A2970 1280 65 2100 230/10 RMK AO2
94908KDBQ DBQ20000615093509406/15/00 09:35:31  5-MIN KDBQ 151535Z 22012KT 10SM CLR 19/13 A2971 1280 67 2100 220/12 RMK AO2
94908KDBQ DBQ20000615094009406/15/00 09:40:31  5-MIN KDBQ 151540Z 24013KT 10SM CLR 19/13 A2971 1280 65 2100 240/13 RMK AO2
94908KDBQ DBQ20000615094509706/15/00 09:45:31  5-MIN KDBQ 151545Z 22011KT 10SM FEW032 20/13 A2971 1270 65 2200 220/11 RMK AO2
94908KDBQ DBQ20000615095011106/15/00 09:50:31  5-MIN KDBQ 151550Z 22013KT 10SM CLR 20/13 A2971 1270 63 2200 220/13 RMK AO2 SLP058 T02000128
94908KDBQ DBQ20000615095511106/15/00 09:55:31  5-MIN KDBQ 151555Z 23013KT 10SM CLR 20/13 A2971 1270 63 2200 230/13 RMK AO2 SLP058 T02000128
94908KDBQ DBQ20000615100009406/15/00 10:00:31  5-MIN KDBQ 151600Z 22011KT 10SM CLR 21/14 A2971 1270 65 2300 220/11 RMK AO2
94908KDBQ DBQ20000615100509706/15/00 10:05:31  5-MIN KDBQ 151605Z 23012KT 10SM FEW033 21/13 A2971 1280 63 2300 230/12 RMK AO2
94908KDBQ DBQ20000615101009706/15/00 10:10:31  5-MIN KDBQ 151610Z 23011KT 10SM FEW035 21/13 A2971 1280 63 2300 230/11 RMK AO2
94908KDBQ DBQ20000615101510006/15/00 10:15:31  5-MIN KDBQ 151615Z 22014G18KT 10SM CLR 21/13 A2971 1280 63 2300 220/14G18 RMK AO2
94908KDBQ DBQ20000615102010006/15/00 10:20:31  5-MIN KDBQ 151620Z 22015G18KT 10SM CLR 21/13 A2971 1280 60 2300 220/15G18 RMK AO2
94908KDBQ DBQ20000615102510006/15/00 10:25:31  5-MIN KDBQ 151625Z 24013G18KT 10SM CLR 21/13 A2971 1270 58 2300 240/13G18 RMK AO2
94908KDBQ DBQ20000615103009406/15/00 10:30:31  5-MIN KDBQ 151630Z 23011KT 10SM CLR 21/13 A2971 1280 61 2300 230/11 RMK AO2
94908KDBQ DBQ20000615103509406/15/00 10:35:31  5-MIN KDBQ 151635Z 24014KT 10SM CLR 21/13 A2971 1270 58 2300 240/14 RMK AO2
94908KDBQ DBQ20000615104009406/15/00 10:40:31  5-MIN KDBQ 151640Z 23014KT 10SM CLR 21/13 A2971 1270 61 2300 220/14 RMK AO2
94908KDBQ DBQ20000615104510306/15/00 10:45:31  5-MIN KDBQ 151645Z 22015G20KT 10SM FEW041 21/13 A2971 1270 58 2300 220/15G20 RMK AO2
94908KDBQ DBQ20000615105011406/15/00 10:50:31  5-MIN KDBQ 151650Z 23015KT 10SM FEW041 22/13 A2971 1280 58 2400 230/15 RMK AO2 SLP056 T02170133
94908KDBQ DBQ20000615105511406/15/00 10:55:31  5-MIN KDBQ 151655Z 22012KT 10SM FEW041 22/14 A2971 1280 61 2400 220/12 RMK AO2 SLP056 T02170139
94908KDBQ DBQ20000615110009706/15/00 11:00:31  5-MIN KDBQ 151700Z 23013KT 10SM FEW041 22/13 A2970 1280 58 2400 230/13 RMK AO2
94908KDBQ DBQ20000615110509706/15/00 11:05:31  5-MIN KDBQ 151705Z 23015KT 10SM FEW041 22/13 A2970 1280 58 2400 230/15 RMK AO2
94908KDBQ DBQ20000615111009706/15/00 11:10:31  5-MIN KDBQ 151710Z 23014KT 10SM FEW041 22/13 A2970 1290 56 2500 230/14 RMK AO2
94908KDBQ DBQ20000615111509706/15/00 11:15:31  5-MIN KDBQ 151715Z 24012KT 10SM FEW041 22/13 A2970 1290 58 2400 240/12 RMK AO2
94908KDBQ DBQ20000615112009406/15/00 11:20:31  5-MIN KDBQ 151720Z 24013KT 10SM CLR 22/13 A2970 1290 56 2500 240/13 RMK AO2
94908KDBQ DBQ20000615112509406/15/00 11:25:31  5-MIN KDBQ 151725Z 21013KT 10SM CLR 22/14 A2969 1290 59 2500 210/13 RMK AO2
94908KDBQ DBQ20000615113009406/15/00 11:30:31  5-MIN KDBQ 151730Z 21012KT 10SM CLR 22/14 A2970 1290 59 2500 210/12 RMK AO2
94908KDBQ DBQ20000615113509406/15/00 11:35:31  5-MIN KDBQ 151735Z 22013KT 10SM CLR 22/14 A2969 1290 59 2500 220/13 RMK AO2
94908KDBQ DBQ20000615114009406/15/00 11:40:31  5-MIN KDBQ 151740Z 21013KT 10SM CLR 22/13 A2969 1290 56 2500 210/13 RMK AO2
94908KDBQ DBQ20000615114509406/15/00 11:45:31  5-MIN KDBQ 151745Z 22016KT 10SM CLR 22/13 A2969 1290 56 2500 220/16 RMK AO2
94908KDBQ DBQ20000615115013506/15/00 11:50:31  5-MIN KDBQ 151750Z 22012G18KT 10SM CLR 22/13 A2969 1300 56 2500 220/12G18 RMK AO2 SLP048 T02220133 10222 20139 50006
94908KDBQ DBQ20000615115512906/15/00 11:55:31  5-MIN KDBQ 151755Z 21013KT 10SM CLR 22/13 A2968 1300 56 2500 210/13 RMK AO2 SLP048 T02220133 10222 20139 58007
94908KDBQ DBQ20000615120009406/15/00 12:00:31  5-MIN KDBQ 151800Z 22011KT 10SM CLR 23/13 A2968 1300 55 2500 220/11 RMK AO2
94908KDBQ DBQ20000615120509406/15/00 12:05:31  5-MIN KDBQ 151805Z 21010KT 10SM CLR 22/13 A2968 1300 56 2500 210/10 RMK AO2
94908KDBQ DBQ20000615121009406/15/00 12:10:31  5-MIN KDBQ 151810Z 21012KT 10SM CLR 23/14 A2968 1300 57 2500 210/12 RMK AO2
94908KDBQ DBQ20000615121509406/15/00 12:15:31  5-MIN KDBQ 151815Z 21013KT 10SM CLR 23/14 A2967 1310 57 2500 210/13 RMK AO2
94908KDBQ DBQ20000615122009406/15/00 12:20:31  5-MIN KDBQ 151820Z 24012KT 10SM CLR 23/14 A2967 1310 57 2500 240/12 RMK AO2
94908KDBQ DBQ20000615122509406/15/00 12:25:31  5-MIN KDBQ 151825Z 22010KT 10SM CLR 23/13 A2967 1310 55 2500 220/10 RMK AO2
94908KDBQ DBQ20000615123010006/15/00 12:30:31  5-MIN KDBQ 151830Z 21010G16KT 10SM CLR 23/14 A2967 1310 57 2600 210/10G16 RMK AO2
94908KDBQ DBQ20000615123510006/15/00 12:35:31  5-MIN KDBQ 151835Z 21012G17KT 10SM CLR 23/14 A2967 1310 57 2600 210/12G17 RMK AO2
94908KDBQ DBQ20000615124010006/15/00 12:40:31  5-MIN KDBQ 151840Z 20012G17KT 10SM CLR 23/13 A2967 1310 55 2600 200/12G17 RMK AO2
94908KDBQ DBQ20000615124509406/15/00 12:45:31  5-MIN KDBQ 151845Z 21009KT 10SM CLR 23/14 A2967 1310 59 2600 210/09 RMK AO2
94908KDBQ DBQ20000615125011106/15/00 12:50:31  5-MIN KDBQ 151850Z 22009KT 10SM CLR 23/14 A2966 1320 57 2600 220/09 RMK AO2 SLP041 T02330144
94908KDBQ DBQ20000615125511106/15/00 12:55:31  5-MIN KDBQ 151855Z 20012KT 10SM CLR 23/14 A2966 1320 57 2600 200/12 RMK AO2 SLP040 T02280139
94908KDBQ DBQ20000615130009406/15/00 13:00:31  5-MIN KDBQ 151900Z 19009KT 10SM CLR 23/14 A2966 1320 57 2600 190/09 RMK AO2
94908KDBQ DBQ20000615130509406/15/00 13:05:31  5-MIN KDBQ 151905Z 21009KT 10SM CLR 23/14 A2966 1320 57 2600 210/09 RMK AO2
94908KDBQ DBQ20000615131009406/15/00 13:10:31  5-MIN KDBQ 151910Z 21010KT 10SM CLR 23/14 A2966 1320 55 2600 210/10 RMK AO2
94908KDBQ DBQ20000615131509406/15/00 13:15:31  5-MIN KDBQ 151915Z 20009KT 10SM CLR 23/14 A2966 1320 55 2600 200/09 RMK AO2
94908KDBQ DBQ20000615132009406/15/00 13:20:31  5-MIN KDBQ 151920Z 19009KT 10SM CLR 23/14 A2965 1330 55 2600 190/09 RMK AO2
94908KDBQ DBQ20000615132510006/15/00 13:25:31  5-MIN KDBQ 151925Z 19010G16KT 10SM CLR 23/14 A2965 1330 55 2600 190/10G16 RMK AO2
94908KDBQ DBQ20000615133009406/15/00 13:30:31  5-MIN KDBQ 151930Z 18009KT 10SM CLR 24/14 A2965 1330 55 2700 180/09 RMK AO2
94908KDBQ DBQ20000615133509406/15/00 13:35:31  5-MIN KDBQ 151935Z 17009KT 10SM CLR 23/14 A2965 1320 57 2600 170/09 RMK AO2
94908KDBQ DBQ20000615134010006/15/00 13:40:31  5-MIN KDBQ 151940Z 20011G16KT 10SM CLR 24/14 A2965 1330 55 2700 200/11G16 RMK AO2
94908KDBQ DBQ20000615134510006/15/00 13:45:31  5-MIN KDBQ 151945Z 18012G16KT 10SM CLR 24/14 A2965 1330 53 2700 180/12G16 RMK AO2
94908KDBQ DBQ20000615135011106/15/00 13:50:31  5-MIN KDBQ 151950Z 17009KT 10SM CLR 24/14 A2964 1330 55 2700 170/09 RMK AO2 SLP034 T02390144
94908KDBQ DBQ20000615135511106/15/00 13:55:31  5-MIN KDBQ 151955Z 19011KT 10SM CLR 24/14 A2964 1340 55 2700 180/11 RMK AO2 SLP032 T02390144
94908KDBQ DBQ20000615140009406/15/00 14:00:31  5-MIN KDBQ 152000Z 20010KT 10SM CLR 24/14 A2964 1340 55 2700 200/10 RMK AO2
94908KDBQ DBQ20000615140509406/15/00 14:05:31  5-MIN KDBQ 152005Z 19009KT 10SM CLR 24/15 A2963 1340 55 2800 190/09 RMK AO2
94908KDBQ DBQ20000615141010006/15/00 14:10:31  5-MIN KDBQ 152010Z 17011G16KT 10SM CLR 24/15 A2963 1340 57 2700 170/11G16 RMK AO2
94908KDBQ DBQ20000615141509406/15/00 14:15:31  5-MIN KDBQ 152015Z 17011KT 10SM CLR 24/14 A2963 1350 55 2700 170/11 RMK AO2
94908KDBQ DBQ20000615142009406/15/00 14:20:31  5-MIN KDBQ 152020Z 16011KT 10SM CLR 24/14 A2963 1350 53 2800 160/11 RMK AO2
94908KDBQ DBQ20000615142509406/15/00 14:25:31  5-MIN KDBQ 152025Z 18013KT 10SM CLR 24/14 A2962 1350 53 2700 180/13 RMK AO2
94908KDBQ DBQ20000615143009406/15/00 14:30:31  5-MIN KDBQ 152030Z 17011KT 10SM CLR 24/14 A2962 1360 51 2800 170/11 RMK AO2
94908KDBQ DBQ20000615143510006/15/00 14:35:31  5-MIN KDBQ 152035Z 16011G18KT 10SM CLR 24/14 A2962 1360 51 2800 150/11G18 RMK AO2
94908KDBQ DBQ20000615144010006/15/00 14:40:31  5-MIN KDBQ 152040Z 17013G18KT 10SM CLR 24/14 A2961 1360 53 2800 170/13G18 RMK AO2
94908KDBQ DBQ20000615144509406/15/00 14:45:31  5-MIN KDBQ 152045Z 18014KT 10SM CLR 24/14 A2961 1370 53 2800 180/14 RMK AO2
94908KDBQ DBQ20000615145011706/15/00 14:50:31  5-MIN KDBQ 152050Z 16012KT 10SM CLR 24/14 A2961 1370 53 2800 160/12 RMK AO2 SLP023 T02440144 58007
94908KDBQ DBQ20000615145511706/15/00 14:55:31  5-MIN KDBQ 152055Z 16012KT 10SM CLR 24/14 A2961 1370 53 2800 160/12 RMK AO2 SLP023 T02440144 58024
94908KDBQ DBQ20000615150009406/15/00 15:00:31  5-MIN KDBQ 152100Z 18013KT 10SM CLR 24/14 A2961 1370 53 2800 180/13 RMK AO2
94908KDBQ DBQ20000615150509406/15/00 15:05:31  5-MIN KDBQ 152105Z 17015KT 10SM CLR 24/14 A2960 1370 51 2800 170/15 RMK AO2
94908KDBQ DBQ20000615151009406/15/00 15:10:31  5-MIN KDBQ 152110Z 17016KT 10SM CLR 24/13 A2960 1370 49 2800 170/16 RMK AO2
94908KDBQ DBQ20000615151509406/15/00 15:15:31  5-MIN KDBQ 152115Z 17014KT 10SM CLR 24/14 A2960 1370 51 2800 170/14 RMK AO2
94908KDBQ DBQ20000615152009406/15/00 15:20:31  5-MIN KDBQ 152120Z 16014KT 10SM CLR 24/14 A2960 1370 51 2800 160/14 RMK AO2
94908KDBQ DBQ20000615152510006/15/00 15:25:31  5-MIN KDBQ 152125Z 17014G20KT 10SM CLR 24/14 A2960 1380 51 2800 160/14G20 RMK AO2
94908KDBQ DBQ20000615153010006/15/00 15:30:31  5-MIN KDBQ 152130Z 16011G20KT 10SM CLR 24/14 A2960 1380 51 2800 160/11G20 RMK AO2
94908KDBQ DBQ20000615153509406/15/00 15:35:31  5-MIN KDBQ 152135Z 16015KT 10SM CLR 24/14 A2959 1380 51 2800 160/15 RMK AO2
94908KDBQ DBQ20000615154009406/15/00 15:40:31  5-MIN KDBQ 152140Z 17013KT 10SM CLR 24/14 A2959 1380 51 2800 160/13 RMK AO2
94908KDBQ DBQ20000615154509406/15/00 15:45:31  5-MIN KDBQ 152145Z 17013KT 10SM CLR 24/14 A2959 1380 53 2800 170/13 RMK AO2
94908KDBQ DBQ20000615155011106/15/00 15:50:31  5-MIN KDBQ 152150Z 17016KT 10SM CLR 24/14 A2959 1380 51 2800 170/16 RMK AO2 SLP016 T02440139
94908KDBQ DBQ20000615155511106/15/00 15:55:31  5-MIN KDBQ 152155Z 16013KT 10SM CLR 24/14 A2958 1390 51 2800 160/13 RMK AO2 SLP014 T02440139
94908KDBQ DBQ20000615160010006/15/00 16:00:31  5-MIN KDBQ 152200Z 16013G20KT 10SM CLR 24/14 A2958 1390 51 2800 160/13G20 RMK AO2
94908KDBQ DBQ20000615160510006/15/00 16:05:31  5-MIN KDBQ 152205Z 17014G20KT 10SM CLR 24/13 A2957 1400 49 2900 170/14G20 RMK AO2
94908KDBQ DBQ20000615161010006/15/00 16:10:31  5-MIN KDBQ 152210Z 17016G21KT 10SM CLR 24/14 A2957 1400 51 2900 170/16G21 RMK AO2
94908KDBQ DBQ20000615161510006/15/00 16:15:31  5-MIN KDBQ 152215Z 16015G21KT 10SM CLR 24/14 A2957 1410 51 2900 160/15G21 RMK AO2
94908KDBQ DBQ20000615162010006/15/00 16:20:31  5-MIN KDBQ 152220Z 16014G21KT 10SM CLR 24/14 A2957 1410 51 2900 160/14G21 RMK AO2
94908KDBQ DBQ20000615162510006/15/00 16:25:31  5-MIN KDBQ 152225Z 16015G21KT 10SM CLR 24/14 A2956 1410 53 2900 160/15G21 RMK AO2
94908KDBQ DBQ20000615163010706/15/00 16:30:31  5-MIN KDBQ 152230Z 16015G23KT 10SM CLR 24/14 A2955 1420 51 2900 160/15G23 RMK AO2 PRESFR
94908KDBQ DBQ20000615163510006/15/00 16:35:31  5-MIN KDBQ 152235Z 16014G23KT 10SM CLR 24/14 A2955 1420 53 2900 160/14G23 RMK AO2
94908KDBQ DBQ20000615164010006/15/00 16:40:31  5-MIN KDBQ 152240Z 16014G20KT 10SM CLR 24/14 A2955 1420 53 2900 160/14G20 RMK AO2
94908KDBQ DBQ20000615164510006/15/00 16:45:31  5-MIN KDBQ 152245Z 16015G21KT 10SM CLR 24/14 A2955 1420 53 2900 150/15G21 RMK AO2
94908KDBQ DBQ20000615165011706/15/00 16:50:31  5-MIN KDBQ 152250Z 16018G22KT 10SM CLR 24/14 A2955 1420 55 2800 160/18G22 RMK AO2 SLP002 T02390144
94908KDBQ DBQ20000615165511706/15/00 16:55:31  5-MIN KDBQ 152255Z 16014G23KT 10SM CLR 24/13 A2954 1430 51 2800 160/14G23 RMK AO2 SLP001 T02390133
94908KDBQ DBQ20000615170010006/15/00 17:00:31  5-MIN KDBQ 152300Z 16019G23KT 10SM CLR 24/14 A2954 1430 53 2800 160/19G23 RMK AO2
94908KDBQ DBQ20000615170510006/15/00 17:05:31  5-MIN KDBQ 152305Z 17016G23KT 10SM CLR 24/13 A2954 1430 51 2800 170/16G23 RMK AO2
94908KDBQ DBQ20000615171009406/15/00 17:10:31  5-MIN KDBQ 152310Z 16015KT 10SM CLR 24/14 A2954 1430 51 2900 160/15 RMK AO2
94908KDBQ DBQ20000615171510006/15/00 17:15:31  5-MIN KDBQ 152315Z 16017G23KT 10SM CLR 24/14 A2954 1430 53 2800 160/17G23 RMK AO2
94908KDBQ DBQ20000615172010006/15/00 17:20:31  5-MIN KDBQ 152320Z 17015G23KT 10SM CLR 24/13 A2954 1430 51 2800 170/15G23 RMK AO2
94908KDBQ DBQ20000615172510006/15/00 17:25:31  5-MIN KDBQ 152325Z 16012G22KT 10SM CLR 23/13 A2954 1430 53 2800 160/12G22 RMK AO2
94908KDBQ DBQ20000615173010006/15/00 17:30:31  5-MIN KDBQ 152330Z 16012G19KT 10SM CLR 23/14 A2954 1430 57 2700 160/12G19 RMK AO2
94908KDBQ DBQ20000615173509406/15/00 17:35:31  5-MIN KDBQ 152335Z 16011KT 10SM CLR 23/14 A2954 1430 57 2700 160/11 RMK AO2
94908KDBQ DBQ20000615174009406/15/00 17:40:31  5-MIN KDBQ 152340Z 16012KT 10SM CLR 23/14 A2954 1440 57 2700 160/12 RMK AO2
94908KDBQ DBQ20000615174509406/15/00 17:45:31  5-MIN KDBQ 152345Z 16010KT 10SM CLR 23/14 A2954 1440 57 2700 160/10 RMK AO2
94908KDBQ DBQ20000615175012906/15/00 17:50:31  5-MIN KDBQ 152350Z 16010KT 10SM CLR 23/14 A2954 1430 57 2700 160/10 RMK AO2 SLP998 T02280139 10244 20222 58024
94908KDBQ DBQ20000615175512906/15/00 17:55:31  5-MIN KDBQ 152355Z 16010KT 10SM CLR 22/14 A2954 1430 61 2600 150/10 RMK AO2 SLP998 T02220144 10244 20222 56024
94908KDBQ DBQ20000615180009406/15/00 18:00:31  5-MIN KDBQ 160000Z 15010KT 10SM CLR 22/14 A2953 1440 61 2600 150/10 RMK AO2
94908KDBQ DBQ20000615180509406/15/00 18:05:31  5-MIN KDBQ 160005Z 15010KT 10SM CLR 22/15 A2953 1440 63 2600 150/10 RMK AO2
94908KDBQ DBQ20000615181009406/15/00 18:10:31  5-MIN KDBQ 160010Z 15011KT 10SM CLR 22/15 A2953 1440 63 2700 150/11 RMK AO2
94908KDBQ DBQ20000615181509406/15/00 18:15:31  5-MIN KDBQ 160015Z 15011KT 10SM CLR 22/15 A2952 1450 63 2700 150/11 RMK AO2
94908KDBQ DBQ20000615182009406/15/00 18:20:31  5-MIN KDBQ 160020Z 15011KT 10SM CLR 22/16 A2952 1450 65 2700 150/11 RMK AO2
94908KDBQ DBQ20000615182509406/15/00 18:25:31  5-MIN KDBQ 160025Z 15012KT 10SM CLR 22/16 A2952 1450 65 2700 150/12 RMK AO2
94908KDBQ DBQ20000615183009406/15/00 18:30:31  5-MIN KDBQ 160030Z 15012KT 10SM CLR 22/16 A2951 1460 65 2700 150/12 RMK AO2
94908KDBQ DBQ20000615183509406/15/00 18:35:31  5-MIN KDBQ 160035Z 15012KT 10SM CLR 22/16 A2951 1460 65 2700 150/12 RMK AO2
94908KDBQ DBQ20000615184009406/15/00 18:40:31  5-MIN KDBQ 160040Z 15013KT 10SM CLR 22/15 A2951 1460 63 2700 150/13 RMK AO2
94908KDBQ DBQ20000615184509706/15/00 18:45:31  5-MIN KDBQ 160045Z 15012KT 10SM SCT120 22/15 A2951 1460 65 2600 150/12 RMK AO2
94908KDBQ DBQ20000615185012106/15/00 18:50:31  5-MIN KDBQ 160050Z AUTO 15013KT 10SM CLR 22/15 A2950 1470 63 2700 150/13 RMK AO2 SLP987 T02220150 TSNO
94908KDBQ DBQ20000615185512406/15/00 18:55:31  5-MIN KDBQ 160055Z AUTO 15014KT 10SM FEW120 22/15 A2950 1470 65 2600 150/14 RMK AO2 SLP985 T02170150 TSNO
94908KDBQ DBQ20000615190010706/15/00 19:00:31  5-MIN KDBQ 160100Z AUTO 15014KT 10SM FEW120 22/15 A2950 1470 65 2600 150/14 RMK AO2 TSNO
94908KDBQ DBQ20000615190510706/15/00 19:05:31  5-MIN KDBQ 160105Z AUTO 15014KT 10SM FEW120 22/15 A2949 1470 65 2600 150/14 RMK AO2 TSNO
94908KDBQ DBQ20000615191010706/15/00 19:10:31  5-MIN KDBQ 160110Z AUTO 15014KT 10SM FEW120 22/15 A2949 1480 65 2600 150/14 RMK AO2 TSNO
94908KDBQ DBQ20000615191510706/15/00 19:15:31  5-MIN KDBQ 160115Z AUTO 15013KT 10SM FEW110 22/15 A2949 1480 65 2600 150/13 RMK AO2 TSNO
94908KDBQ DBQ20000615192010706/15/00 19:20:31  5-MIN KDBQ 160120Z AUTO 15014KT 10SM SCT110 22/15 A2949 1480 65 2600 150/14 RMK AO2 TSNO
94908KDBQ DBQ20000615192510706/15/00 19:25:31  5-MIN KDBQ 160125Z AUTO 15013KT 10SM BKN120 22/15 A2948 1480 65 2600 150/13 RMK AO2 TSNO
94908KDBQ DBQ20000615193010706/15/00 19:30:31  5-MIN KDBQ 160130Z AUTO 15015KT 10SM BKN120 21/15 A2948 1490 68 2600 150/15 RMK AO2 TSNO
94908KDBQ DBQ20000615193510706/15/00 19:35:31  5-MIN KDBQ 160135Z AUTO 15015KT 10SM BKN120 21/15 A2948 1490 68 2600 150/15 RMK AO2 TSNO
94908KDBQ DBQ20000615194010706/15/00 19:40:31  5-MIN KDBQ 160140Z AUTO 15016KT 10SM BKN120 21/15 A2947 1500 68 2600 150/16 RMK AO2 TSNO
94908KDBQ DBQ20000615194511306/15/00 19:45:31  5-MIN KDBQ 160145Z AUTO 15016G21KT 10SM BKN120 21/15 A2947 1500 68 2600 150/16G21 RMK AO2 TSNO
94908KDBQ DBQ20000615195013006/15/00 19:50:31  5-MIN KDBQ 160150Z AUTO 15015G21KT 10SM SCT120 21/15 A2947 1500 68 2600 150/15G21 RMK AO2 SLP974 T02110150 TSNO
94908KDBQ DBQ20000615195512406/15/00 19:55:31  5-MIN KDBQ 160155Z AUTO 15014KT 10SM FEW120 22/14 A2947 1500 63 2700 150/14 RMK AO2 SLP974 T02170144 TSNO
94908KDBQ DBQ20000615200010706/15/00 20:00:31  5-MIN KDBQ 160200Z AUTO 16015KT 10SM FEW110 21/14 A2947 1500 65 2600 160/15 RMK AO2 TSNO
94908KDBQ DBQ20000615200510706/15/00 20:05:31  5-MIN KDBQ 160205Z AUTO 16015KT 10SM FEW110 22/14 A2947 1500 63 2700 160/15 RMK AO2 TSNO
94908KDBQ DBQ20000615201010706/15/00 20:10:31  5-MIN KDBQ 160210Z AUTO 16016KT 10SM SCT110 22/15 A2947 1500 65 2700 150/16 RMK AO2 TSNO
94908KDBQ DBQ20000615201510706/15/00 20:15:31  5-MIN KDBQ 160215Z AUTO 15016KT 10SM BKN110 22/15 A2946 1500 65 2700 150/16 RMK AO2 TSNO
94908KDBQ DBQ20000615202010706/15/00 20:20:31  5-MIN KDBQ 160220Z AUTO 16016KT 10SM BKN110 22/14 A2947 1500 63 2700 160/16 RMK AO2 TSNO
94908KDBQ DBQ20000615202510706/15/00 20:25:31  5-MIN KDBQ 160225Z AUTO 16016KT 10SM BKN110 22/14 A2947 1500 63 2700 160/16 RMK AO2 TSNO
94908KDBQ DBQ20000615203011306/15/00 20:30:31  5-MIN KDBQ 160230Z AUTO 16017G21KT 10SM OVC110 22/14 A2947 1500 63 2700 160/17G21 RMK AO2 TSNO
94908KDBQ DBQ20000615203511306/15/00 20:35:31  5-MIN KDBQ 160235Z AUTO 16018G23KT 10SM OVC110 22/14 A2947 1500 63 2700 160/18G23 RMK AO2 TSNO
94908KDBQ DBQ20000615204011306/15/00 20:40:31  5-MIN KDBQ 160240Z AUTO 16017G23KT 10SM OVC110 22/14 A2947 1500 63 2700 160/17G23 RMK AO2 TSNO
94908KDBQ DBQ20000615204510706/15/00 20:45:31  5-MIN KDBQ 160245Z AUTO 16018KT 10SM OVC110 22/14 A2947 1500 63 2700 160/18 RMK AO2 TSNO
94908KDBQ DBQ20000615205013606/15/00 20:50:31  5-MIN KDBQ 160250Z AUTO 16018G25KT 10SM OVC110 22/14 A2947 1500 63 2700 160/18G25 RMK AO2 SLP973 T02170144 56024 TSNO
94908KDBQ DBQ20000615205513606/15/00 20:55:31  5-MIN KDBQ 160255Z AUTO 17018G25KT 10SM OVC110 22/14 A2947 1500 61 2700 170/18G25 RMK AO2 SLP974 T02220144 55022 TSNO
94908KDBQ DBQ20000615210010706/15/00 21:00:31  5-MIN KDBQ 160300Z AUTO 17017KT 10SM OVC110 22/14 A2947 1500 61 2700 160/17 RMK AO2 TSNO
94908KDBQ DBQ20000615210510706/15/00 21:05:31  5-MIN KDBQ 160305Z AUTO 16016KT 10SM OVC110 22/14 A2947 1500 61 2700 160/16 RMK AO2 TSNO
94908KDBQ DBQ20000615211013106/15/00 21:10:31  5-MIN KDBQ 160310Z AUTO 16020G28KT 10SM OVC110 22/14 A2947 1500 61 2700 160/20G28 RMK AO2 PK WND 16028/0309 TSNO
94908KDBQ DBQ20000615211513106/15/00 21:15:31  5-MIN KDBQ 160315Z AUTO 16020G28KT 10SM OVC110 22/14 A2947 1500 61 2700 160/20G28 RMK AO2 PK WND 16028/0309 TSNO
94908KDBQ DBQ20000615212013106/15/00 21:20:31  5-MIN KDBQ 160320Z AUTO 17019G25KT 10SM BKN110 22/14 A2947 1500 61 2700 170/19G25 RMK AO2 PK WND 16028/0309 TSNO
94908KDBQ DBQ20000615212513106/15/00 21:25:31  5-MIN KDBQ 160325Z AUTO 16017G26KT 10SM BKN110 22/14 A2947 1500 61 2700 160/17G26 RMK AO2 PK WND 16028/0309 TSNO
94908KDBQ DBQ20000615213013106/15/00 21:30:31  5-MIN KDBQ 160330Z AUTO 17017G26KT 10SM BKN110 22/15 A2947 1500 65 2700 170/17G26 RMK AO2 PK WND 16028/0309 TSNO
94908KDBQ DBQ20000615213513106/15/00 21:35:31  5-MIN KDBQ 160335Z AUTO 16020G25KT 10SM BKN110 22/15 A2946 1500 63 2700 160/20G25 RMK AO2 PK WND 16028/0309 TSNO
94908KDBQ DBQ20000615214013106/15/00 21:40:31  5-MIN KDBQ 160340Z AUTO 17018G25KT 10SM SCT110 22/15 A2946 1500 65 2700 170/18G25 RMK AO2 PK WND 16028/0309 TSNO
94908KDBQ DBQ20000615214513106/15/00 21:45:31  5-MIN KDBQ 160345Z AUTO 16019G24KT 10SM SCT110 22/15 A2946 1510 65 2700 160/19G24 RMK AO2 PK WND 16028/0309 TSNO
94908KDBQ DBQ20000615215014806/15/00 21:50:31  5-MIN KDBQ 160350Z AUTO 17021G27KT 10SM FEW110 22/15 A2946 1510 63 2700 170/21G27 RMK AO2 PK WND 16028/0309 SLP970 T02220150 TSNO
94908KDBQ DBQ20000615215514806/15/00 21:55:31  5-MIN KDBQ 160355Z AUTO 17022G27KT 10SM FEW110 22/15 A2946 1510 63 2700 170/22G27 RMK AO2 PK WND 16028/0309 SLP970 T02220150 TSNO
94908KDBQ DBQ20000615220012806/15/00 22:00:31  5-MIN KDBQ 160400Z AUTO 17022G26KT 10SM CLR 22/16 A2946 1510 65 2700 170/22G26 RMK AO2 PK WND 16026/0359 TSNO
94908KDBQ DBQ20000615220512806/15/00 22:05:31  5-MIN KDBQ 160405Z AUTO 17021G26KT 10SM CLR 22/16 A2945 1510 65 2700 170/21G26 RMK AO2 PK WND 16026/0403 TSNO
94908KDBQ DBQ20000615221012806/15/00 22:10:31  5-MIN KDBQ 160410Z AUTO 17022G29KT 10SM CLR 22/16 A2945 1510 65 2700 170/22G29 RMK AO2 PK WND 17029/0408 TSNO
94908KDBQ DBQ20000615221512806/15/00 22:15:31  5-MIN KDBQ 160415Z AUTO 17022G29KT 10SM CLR 22/16 A2945 1520 65 2700 170/22G29 RMK AO2 PK WND 17029/0408 TSNO
94908KDBQ DBQ20000615222012806/15/00 22:20:31  5-MIN KDBQ 160420Z AUTO 17021G27KT 10SM CLR 22/16 A2945 1520 65 2700 170/21G27 RMK AO2 PK WND 17029/0408 TSNO
94908KDBQ DBQ20000615222512806/15/00 22:25:31  5-MIN KDBQ 160425Z AUTO 17021G27KT 10SM CLR 22/16 A2945 1520 68 2700 170/21G27 RMK AO2 PK WND 17029/0408 TSNO
94908KDBQ DBQ20000615223012806/15/00 22:30:31  5-MIN KDBQ 160430Z AUTO 17021G27KT 10SM CLR 22/16 A2945 1520 65 2700 170/21G27 RMK AO2 PK WND 17029/0408 TSNO
94908KDBQ DBQ20000615223513106/15/00 22:35:31  5-MIN KDBQ 160435Z AUTO 17023G27KT 10SM FEW080 22/16 A2945 1520 65 2700 170/23G27 RMK AO2 PK WND 17029/0408 TSNO
94908KDBQ DBQ20000615224013106/15/00 22:40:31  5-MIN KDBQ 160440Z AUTO 17020G27KT 10SM FEW080 22/16 A2945 1520 68 2700 170/20G27 RMK AO2 PK WND 17029/0408 TSNO
94908KDBQ DBQ20000615224513106/15/00 22:45:31  5-MIN KDBQ 160445Z AUTO 17021G27KT 10SM FEW080 22/16 A2945 1510 68 2700 170/21G27 RMK AO2 PK WND 17029/0408 TSNO
94908KDBQ DBQ20000615225015506/15/00 22:50:31  5-MIN KDBQ 160450Z AUTO 17020G27KT 10SM FEW075 SCT120 22/16 A2946 1510 68 2700 170/20G27 RMK AO2 PK WND 17029/0408 SLP967 T02220161 TSNO
94908KDBQ DBQ20000615225515506/15/00 22:55:31  5-MIN KDBQ 160455Z AUTO 17021G27KT 10SM SCT075 SCT120 22/16 A2945 1520 68 2700 170/21G27 RMK AO2 PK WND 17029/0408 SLP966 T02220161 TSNO
94908KDBQ DBQ20000615230013806/15/00 23:00:31  5-MIN KDBQ 160500Z AUTO 18018G27KT 10SM SCT075 BKN120 22/16 A2945 1520 68 2700 170/18G27 RMK AO2 PK WND 18026/0458 TSNO
94908KDBQ DBQ20000615230513806/15/00 23:05:31  5-MIN KDBQ 160505Z AUTO 18020G26KT 10SM BKN075 BKN120 22/16 A2945 1510 68 2700 180/20G26 RMK AO2 PK WND 18026/0458 TSNO
94908KDBQ DBQ20000615231013806/15/00 23:10:31  5-MIN KDBQ 160510Z AUTO 18022G29KT 10SM BKN070 BKN120 22/16 A2945 1510 68 2700 180/22G29 RMK AO2 PK WND 18029/0509 TSNO
94908KDBQ DBQ20000615231515306/15/00 23:15:31  5-MIN KDBQ 160515Z AUTO 18020G29KT 8SM -RA BKN070 OVC120 22/16 A2945 1510 68 2700 180/20G29 RMK AO2 PK WND 18029/0509 RAB15 P0002 TSNO
94908KDBQ DBQ20000615232014606/15/00 23:20:31  5-MIN KDBQ 160520Z AUTO 18019G27KT 8SM -RA OVC070 21/17 A2945 1510 78 2600 180/19G27 RMK AO2 PK WND 18029/0509 RAB15 P0002 TSNO
94908KDBQ DBQ20000615232514706/15/00 23:25:31  5-MIN KDBQ 160525Z AUTO 18017G27KT 10SM -RA OVC065 21/17 A2945 1520 78 2600 180/17G27 RMK AO2 PK WND 18029/0509 RAB15 P0002 TSNO
94908KDBQ DBQ20000615233014706/15/00 23:30:31  5-MIN KDBQ 160530Z AUTO 18020G26KT 10SM -RA OVC070 22/17 A2944 1530 73 2700 180/20G26 RMK AO2 PK WND 18029/0509 RAB15 P0002 TSNO
94908KDBQ DBQ20000615233516106/15/00 23:35:31  5-MIN KDBQ 160535Z AUTO 17022G29KT 10SM -RA BKN065 OVC120 22/17 A2943 1530 73 2700 170/22G29 RMK AO2 PK WND 17029/0533 RAB15 PRESFR P0002 TSNO
94908KDBQ DBQ20000615234015306/15/00 23:40:31  5-MIN KDBQ 160540Z AUTO 18022G29KT 10SM BKN065 BKN120 22/17 A2943 1530 73 2700 180/22G29 RMK AO2 PK WND 17029/0533 RAB15E37 P0002 TSNO
94908KDBQ DBQ20000615234515306/15/00 23:45:31  5-MIN KDBQ 160545Z AUTO 18021G28KT 10SM BKN060 BKN120 22/17 A2943 1530 73 2700 180/21G28 RMK AO2 PK WND 17029/0533 RAB15E37 P0002 TSNO
94908KDBQ DBQ20000615235021106/15/00 23:50:31  5-MIN KDBQ 160550Z AUTO 18024G30KT 10SM BKN055 BKN070 OVC120 22/17 A2943 1530 73 2700 180/24G30 RMK AO2 PK WND 17030/0548 RAB15E37 SLP959 P0002 60002 T02170167 10222 20211 402440128 55022 TSNO
94908KDBQ DBQ20000615235521106/15/00 23:55:31  5-MIN KDBQ 160555Z AUTO 18023G31KT 10SM BKN055 BKN070 OVC120 22/17 A2943 1540 70 2800 180/23G31 RMK AO2 PK WND 18031/0554 RAB15E37 SLP958 P0002 60002 T02220167 10222 20211 402440128 58014 TSNO
94908KDBQ DBQ20000616000013106/16/00 00:00:31  5-MIN KDBQ 160600Z AUTO 18022G31KT 10SM BKN055 22/17 A2943 1530 70 2800 180/22G31 RMK AO2 PK WND 18028/0559 TSNO
94908KDBQ DBQ20000616000513106/16/00 00:05:31  5-MIN KDBQ 160605Z AUTO 18023G29KT 10SM OVC050 22/17 A2943 1530 70 2800 180/23G29 RMK AO2 PK WND 19029/0603 TSNO
94908KDBQ DBQ20000616001013106/16/00 00:10:31  5-MIN KDBQ 160610Z AUTO 19023G36KT 10SM OVC050 22/17 A2943 1530 70 2800 190/23G36 RMK AO2 PK WND 18036/0606 TSNO
94908KDBQ DBQ20000616001513806/16/00 00:15:31  5-MIN KDBQ 160615Z AUTO 19029G37KT 10SM BKN050 OVC055 23/16 A2944 1530 65 2800 190/29G37 RMK AO2 PK WND 18037/0615 TSNO
94908KDBQ DBQ20000616002013106/16/00 00:20:31  5-MIN KDBQ 160620Z AUTO 20020G37KT 10SM OVC048 23/16 A2944 1520 65 2800 200/20G37 RMK AO2 PK WND 18037/0615 TSNO
94908KDBQ DBQ20000616002513106/16/00 00:25:31  5-MIN KDBQ 160625Z AUTO 19027G35KT 10SM OVC048 23/16 A2944 1530 65 2800 190/27G35 RMK AO2 PK WND 18037/0615 TSNO
94908KDBQ DBQ20000616003013106/16/00 00:30:31  5-MIN KDBQ 160630Z AUTO 20026G35KT 10SM OVC046 23/16 A2944 1520 65 2800 200/26G35 RMK AO2 PK WND 18037/0615 TSNO
94908KDBQ DBQ20000616003513106/16/00 00:35:31  5-MIN KDBQ 160635Z AUTO 20027G35KT 10SM OVC044 23/16 A2944 1520 65 2800 200/27G35 RMK AO2 PK WND 18037/0615 TSNO
94908KDBQ DBQ20000616004013106/16/00 00:40:31  5-MIN KDBQ 160640Z AUTO 20025G35KT 10SM OVC042 23/16 A2945 1520 65 2800 200/25G35 RMK AO2 PK WND 18037/0615 TSNO
94908KDBQ DBQ20000616004513806/16/00 00:45:31  5-MIN KDBQ 160645Z AUTO 20026G37KT 10SM BKN037 OVC046 23/17 A2945 1520 68 2800 200/26G37 RMK AO2 PK WND 20037/0642 TSNO
94908KDBQ DBQ20000616005018506/16/00 00:50:31  5-MIN KDBQ 160650Z AUTO 25026G40KT 10SM -RA FEW023 SCT031 OVC042 22/17 A2950 1470 73 2600 240/26G40 RMK AO2 PK WND 23040/0649 RAB50 PRESRR SLP982 P0000 T02170167 TSNO
94908KDBQ DBQ20000616005518106/16/00 00:55:31  5-MIN KDBQ 160655Z AUTO 27022G40KT 9SM -RA SCT027 OVC038 19/17 A2950 1470 87 2400 270/22G40 RMK AO2 PK WND 23040/0649 WSHFT 0641 RAB50 SLP983 P0000 T01940172 TSNO
94908KDBQ DBQ20000616010014206/16/00 01:00:31  5-MIN KDBQ 160700Z AUTO 27018KT 10SM -RA FEW025 OVC035 19/17 A2951 1460 90 2300 270/18 RMK AO2 WSHFT 0642 PRESRR P0000 TSNO
94908KDBQ DBQ20000616010514206/16/00 01:05:31  5-MIN KDBQ 160705Z AUTO 27014KT 10SM -RA FEW025 BKN037 OVC043 19/17 A2951 1460 90 2300 270/14 RMK AO2 WSHFT 0642 P0000 TSNO
94908KDBQ DBQ20000616011014406/16/00 01:10:31  5-MIN KDBQ 160710Z AUTO 26012KT 10SM FEW025 BKN035 OVC045 19/17 A2952 1450 87 2300 260/12 RMK AO2 WSHFT 0642 RAE08 P0000 TSNO
94908KDBQ DBQ20000616011513706/16/00 01:15:31  5-MIN KDBQ 160715Z AUTO 25014KT 10SM FEW027 OVC045 19/17 A2952 1450 87 2300 250/14 RMK AO2 WSHFT 0642 RAE08 P0000 TSNO
94908KDBQ DBQ20000616012014406/16/00 01:20:31  5-MIN KDBQ 160720Z AUTO 26014KT 10SM FEW030 SCT041 OVC050 19/16 A2951 1460 84 2300 250/14 RMK AO2 WSHFT 0642 RAE08 P0000 TSNO
94908KDBQ DBQ20000616012513706/16/00 01:25:31  5-MIN KDBQ 160725Z AUTO 26013KT 10SM SCT043 OVC050 19/16 A2951 1460 81 2300 260/13 RMK AO2 WSHFT 0642 RAE08 P0000 TSNO
94908KDBQ DBQ20000616013013006/16/00 01:30:31  5-MIN KDBQ 160730Z AUTO 26012KT 10SM OVC050 19/16 A2951 1460 81 2300 260/12 RMK AO2 WSHFT 0642 RAE08 P0000 TSNO
94908KDBQ DBQ20000616013513006/16/00 01:35:31  5-MIN KDBQ 160735Z AUTO 26015KT 10SM OVC050 19/16 A2952 1450 81 2300 260/15 RMK AO2 WSHFT 0642 RAE08 P0000 TSNO
94908KDBQ DBQ20000616014013006/16/00 01:40:31  5-MIN KDBQ 160740Z AUTO 26013KT 10SM OVC050 19/16 A2952 1450 81 2300 250/13 RMK AO2 WSHFT 0642 RAE08 P0000 TSNO
94908KDBQ DBQ20000616014513006/16/00 01:45:31  5-MIN KDBQ 160745Z AUTO 25013KT 10SM OVC055 19/16 A2953 1440 81 2300 250/13 RMK AO2 WSHFT 0642 RAE08 P0000 TSNO
94908KDBQ DBQ20000616015016006/16/00 01:50:31  5-MIN KDBQ 160750Z AUTO 25013G20KT 10SM -RA OVC055 18/15 A2952 1450 81 2200 250/13G20 RMK AO2 WSHFT 0642 RAE08B46 SLP990 P0000 T01830150 TSNO
94908KDBQ DBQ20000616015516006/16/00 01:55:31  5-MIN KDBQ 160755Z AUTO 24008G20KT 10SM -RA OVC055 18/15 A2951 1460 81 2200 240/08G20 RMK AO2 WSHFT 0642 RAE08B46 SLP987 P0000 T01830150 TSNO
94908KDBQ DBQ20000616020011706/16/00 02:00:31  5-MIN KDBQ 160800Z AUTO 23008KT 10SM -RA OVC060 18/16 A2952 1450 84 2200 230/08 RMK AO2 P0001 TSNO
94908KDBQ DBQ20000616020511706/16/00 02:05:31  5-MIN KDBQ 160805Z AUTO 23009KT 10SM -RA OVC060 18/16 A2951 1460 84 2200 230/09 RMK AO2 P0001 TSNO
94908KDBQ DBQ20000616021011706/16/00 02:10:31  5-MIN KDBQ 160810Z AUTO 22009KT 10SM -RA OVC060 18/16 A2951 1460 87 2200 220/09 RMK AO2 P0001 TSNO
94908KDBQ DBQ20000616021511706/16/00 02:15:31  5-MIN KDBQ 160815Z AUTO 21011KT 10SM -RA OVC060 18/16 A2951 1460 87 2200 210/11 RMK AO2 P0002 TSNO
94908KDBQ DBQ20000616022012906/16/00 02:20:31  5-MIN KDBQ 160820Z AUTO 20009KT 7SM RA FEW035 BKN060 OVC070 18/16 A2951 1460 87 2200 200/09 RMK AO2 P0003 TSNO
94908KDBQ DBQ20000616022513006/16/00 02:25:31  5-MIN KDBQ 160825Z AUTO 21009KT 7SM -RA FEW032 BKN060 OVC075 17/16 A2952 1450 90 2100 210/09 RMK AO2 P0003 TSNO
94908KDBQ DBQ20000616023013106/16/00 02:30:31  5-MIN KDBQ 160830Z AUTO 22010KT 10SM -RA FEW035 SCT060 OVC080 17/16 A2953 1440 90 2100 210/10 RMK AO2 P0003 TSNO
94908KDBQ DBQ20000616023513806/16/00 02:35:31  5-MIN KDBQ 160835Z AUTO 22013KT 10SM -RA FEW035 SCT065 OVC085 17/16 A2954 1430 90 2100 220/13 RMK AO2 PRESRR P0003 TSNO
94908KDBQ DBQ20000616024013806/16/00 02:40:31  5-MIN KDBQ 160840Z AUTO 22013KT 10SM -RA FEW035 SCT070 OVC085 17/16 A2955 1420 90 2000 220/13 RMK AO2 PRESRR P0003 TSNO
94908KDBQ DBQ20000616024512406/16/00 02:45:31  5-MIN KDBQ 160845Z AUTO 21013KT 10SM -RA FEW050 OVC085 17/16 A2955 1420 90 2100 210/13 RMK AO2 P0004 TSNO
94908KDBQ DBQ20000616025015206/16/00 02:50:31  5-MIN KDBQ 160850Z AUTO 23014KT 8SM -RA SCT050 OVC085 17/16 A2956 1410 90 2000 230/14 RMK AO2 SLP004 P0004 60004 T01720156 58014 TSNO
94908KDBQ DBQ20000616025515806/16/00 02:55:31  5-MIN KDBQ 160855Z AUTO 24013G20KT 8SM -RA BKN055 OVC090 17/16 A2956 1410 90 2000 230/13G20 RMK AO2 SLP004 P0005 60005 T01720156 51043 TSNO
94908KDBQ DBQ20000616030013606/16/00 03:00:31  5-MIN KDBQ 160900Z AUTO 22016G20KT 9SM -RA FEW017 BKN055 OVC085 17/16 A2955 1430 90 2100 220/16G20 RMK AO2 P0000 TSNO
94908KDBQ DBQ20000616030513006/16/00 03:05:31  5-MIN KDBQ 160905Z AUTO 21013KT 9SM -RA FEW017 BKN055 OVC100 17/16 A2954 1430 90 2100 210/13 RMK AO2 P0000 TSNO
94908KDBQ DBQ20000616031013706/16/00 03:10:31  5-MIN KDBQ 160910Z AUTO 21013G18KT 10SM -RA FEW017 SCT060 OVC095 17/16 A2954 1430 93 2000 210/13G18 RMK AO2 P0000 TSNO
94908KDBQ DBQ20000616031513706/16/00 03:15:31  5-MIN KDBQ 160915Z AUTO 22014G18KT 10SM -RA FEW017 SCT055 OVC095 17/15 A2955 1420 90 2000 220/14G18 RMK AO2 P0000 TSNO
94908KDBQ DBQ20000616032013306/16/00 03:20:31  5-MIN KDBQ 160920Z AUTO 21013KT 10SM FEW017 SCT060 OVC095 17/15 A2954 1430 90 2000 210/13 RMK AO2 RAE20 P0000 TSNO
94908KDBQ DBQ20000616032512406/16/00 03:25:31  5-MIN KDBQ 160925Z AUTO 21014KT 10SM -RA FEW017 OVC095 17/15 A2955 1430 90 2000 210/14 RMK AO2 P0001 TSNO
94908KDBQ DBQ20000616033011706/16/00 03:30:31  5-MIN KDBQ 160930Z AUTO 22014KT 10SM -RA OVC095 17/16 A2956 1410 93 2000 220/14 RMK AO2 P0001 TSNO
94908KDBQ DBQ20000616033513106/16/00 03:35:31  5-MIN KDBQ 160935Z AUTO 21015KT 10SM -RA FEW060 BKN095 OVC110 17/16 A2957 1410 93 2000 210/15 RMK AO2 P0001 TSNO
94908KDBQ DBQ20000616034013106/16/00 03:40:31  5-MIN KDBQ 160940Z AUTO 21013KT 10SM -RA SCT065 BKN095 OVC110 17/16 A2956 1410 93 2000 210/13 RMK AO2 P0001 TSNO
94908KDBQ DBQ20000616034512406/16/00 03:45:31  5-MIN KDBQ 160945Z AUTO 21015KT 10SM -RA SCT065 OVC100 17/15 A2956 1410 90 2000 210/15 RMK AO2 P0002 TSNO
94908KDBQ DBQ20000616035014706/16/00 03:50:31  5-MIN KDBQ 160950Z AUTO 21012G20KT 10SM -RA SCT060 OVC100 17/15 A2955 1420 90 2000 210/12G20 RMK AO2 SLP001 P0002 T01670150 TSNO
94908KDBQ DBQ20000616035514706/16/00 03:55:31  5-MIN KDBQ 160955Z AUTO 20012KT 9SM -RA BKN060 OVC100 16/15 A2954 1430 93 1900 200/12 RMK AO2 PRESFR SLP998 P0003 T01610150 TSNO
94908KDBQ DBQ20000616040012306/16/00 04:00:31  5-MIN KDBQ 161000Z AUTO 22012KT 9SM -RA BKN060 OVC100 16/15 A2955 1430 93 1900 220/12 RMK AO2 P0001 TSNO
94908KDBQ DBQ20000616040513006/16/00 04:05:31  5-MIN KDBQ 161005Z AUTO 22013G21KT 10SM -RA SCT065 OVC100 16/14 A2955 1420 90 1900 220/13G21 RMK AO2 P0001 TSNO
94908KDBQ DBQ20000616041013706/16/00 04:10:31  5-MIN KDBQ 161010Z AUTO 23015G21KT 10SM -RA SCT060 OVC100 16/14 A2957 1400 90 1900 230/15G21 RMK AO2 PRESRR P0001 TSNO
94908KDBQ DBQ20000616041513306/16/00 04:15:31  5-MIN KDBQ 161015Z AUTO 23017KT 10SM FEW060 OVC100 16/14 A2959 1390 90 1900 220/17 RMK AO2 RAE11 PRESRR P0001 TSNO
94908KDBQ DBQ20000616042012606/16/00 04:20:31  5-MIN KDBQ 161020Z AUTO 23015KT 10SM FEW024 OVC100 16/14 A2959 1390 90 1900 230/15 RMK AO2 RAE11 P0001 TSNO
94908KDBQ DBQ20000616042512406/16/00 04:25:31  5-MIN KDBQ 161025Z AUTO 23014KT 10SM -RA SCT024 OVC100 16/14 A2958 1390 90 1900 230/14 RMK AO2 P0001 TSNO
94908KDBQ DBQ20000616043013106/16/00 04:30:31  5-MIN KDBQ 161030Z AUTO 23015KT 10SM -RA FEW020 SCT026 OVC100 16/14 A2958 1400 90 1900 230/15 RMK AO2 P0001 TSNO
94908KDBQ DBQ20000616043512106/16/00 04:35:31  5-MIN KDBQ 161035Z 23015KT 10SM -RA FEW023 SCT055 OVC110 16/14 A2958 1400 90 1900 230/15 RMK AO2 P0001
94908KDBQ DBQ20000616044012106/16/00 04:40:31  5-MIN KDBQ 161040Z 22013KT 10SM -RA FEW023 BKN048 OVC110 16/14 A2958 1400 90 1900 220/13 RMK AO2 P0002
94908KDBQ DBQ20000616044512106/16/00 04:45:31  5-MIN KDBQ 161045Z 23015KT 10SM -RA FEW023 BKN055 OVC110 16/14 A2958 1390 86 1900 230/15 RMK AO2 P0002
94908KDBQ DBQ20000616045013806/16/00 04:50:31  5-MIN KDBQ 161050Z 22015KT 10SM -RA FEW023 BKN060 OVC110 16/14 A2958 1390 86 1900 220/15 RMK AO2 SLP012 P0002 T01610139
94908KDBQ DBQ20000616045513806/16/00 04:55:31  5-MIN KDBQ 161055Z 21014KT 10SM -RA BKN065 BKN095 OVC110 16/14 A2958 1390 90 1800 210/14 RMK AO2 SLP013 P0002 T01560139
94908KDBQ DBQ20000616050012106/16/00 05:00:31  5-MIN KDBQ 161100Z 21015KT 10SM -RA BKN060 BKN095 16/14 A2960 1380 93 1800 210/15 RMK AO2 PRESRR P0000
94908KDBQ DBQ20000616050512906/16/00 05:05:31  5-MIN KDBQ 161105Z 21014G21KT 10SM SCT060 BKN100 16/14 A2961 1360 93 1800 210/14G21 RMK AO2 RAE05 PRESRR P0000
94908KDBQ DBQ20000616051012206/16/00 05:10:31  5-MIN KDBQ 161110Z 21014G21KT 10SM SCT075 BKN110 16/14 A2961 1370 93 1800 210/14G21 RMK AO2 RAE05 P0000
94908KDBQ DBQ20000617024010206/17/00 02:40:31  5-MIN KDBQ 170840Z AUTO 35006KT 10SM CLR 09/06 A3008 930 76 500 350/06 RMK AO2 TSNO
94908KDBQ DBQ20000617024510906/17/00 02:45:31  5-MIN KDBQ 170845Z AUTO 35005KT 10SM CLR 09/06 A3009 930 76 500 340/05 RMK AO2 PRESRR TSNO
94908KDBQ DBQ20000617025012506/17/00 02:50:31  5-MIN KDBQ 170850Z AUTO 36005KT 10SM CLR 09/06 A3008 930 76 500 360/05 RMK AO2 SLP187 T00940056 51029 TSNO
94908KDBQ DBQ20000617025512506/17/00 02:55:31  5-MIN KDBQ 170855Z AUTO 35006KT 10SM CLR 09/06 A3008 930 76 500 350/06 RMK AO2 SLP186 T00940056 53015 TSNO
94908KDBQ DBQ20000617030010206/17/00 03:00:31  5-MIN KDBQ 170900Z AUTO 35006KT 10SM CLR 09/06 A3009 920 76 500 350/06 RMK AO2 TSNO
94908KDBQ DBQ20000617030510206/17/00 03:05:31  5-MIN KDBQ 170905Z AUTO 35005KT 10SM CLR 09/06 A3009 920 79 500 350/05 RMK AO2 TSNO
94908KDBQ DBQ20000617031010206/17/00 03:10:31  5-MIN KDBQ 170910Z AUTO 35004KT 10SM CLR 09/06 A3009 920 79 500 350/04 RMK AO2 TSNO
94908KDBQ DBQ20000617031510206/17/00 03:15:31  5-MIN KDBQ 170915Z AUTO 35005KT 10SM CLR 09/06 A3009 920 76 500 350/05 RMK AO2 TSNO
94908KDBQ DBQ20000617032010206/17/00 03:20:31  5-MIN KDBQ 170920Z AUTO 36005KT 10SM CLR 09/06 A3009 920 79 400 360/05 RMK AO2 TSNO
94908KDBQ DBQ20000617032510206/17/00 03:25:31  5-MIN KDBQ 170925Z AUTO 35005KT 10SM CLR 09/06 A3010 910 76 500 350/05 RMK AO2 TSNO
94908KDBQ DBQ20000617033010206/17/00 03:30:31  5-MIN KDBQ 170930Z AUTO 01003KT 10SM CLR 09/06 A3010 910 76 500 010/03 RMK AO2 TSNO
94908KDBQ DBQ20000617033510206/17/00 03:35:31  5-MIN KDBQ 170935Z AUTO 01004KT 10SM CLR 09/06 A3010 910 76 500 010/04 RMK AO2 TSNO
94908KDBQ DBQ20000617034010206/17/00 03:40:31  5-MIN KDBQ 170940Z AUTO 01005KT 10SM CLR 09/06 A3010 920 79 400 010/05 RMK AO2 TSNO
94908KDBQ DBQ20000617034510206/17/00 03:45:31  5-MIN KDBQ 170945Z AUTO 02004KT 10SM CLR 09/06 A3009 920 79 400 020/04 RMK AO2 TSNO
94908KDBQ DBQ20000617035011906/17/00 03:50:31  5-MIN KDBQ 170950Z AUTO 36004KT 10SM CLR 09/06 A3010 920 79 400 360/04 RMK AO2 SLP191 T00890056 TSNO
94908KDBQ DBQ20000617035511906/17/00 03:55:31  5-MIN KDBQ 170955Z AUTO 35004KT 10SM CLR 09/06 A3010 910 79 400 350/04 RMK AO2 SLP191 T00890056 TSNO
94908KDBQ DBQ20000617040010206/17/00 04:00:31  5-MIN KDBQ 171000Z AUTO 01004KT 10SM CLR 09/06 A3010 910 79 400 010/04 RMK AO2 TSNO
94908KDBQ DBQ20000617040510206/17/00 04:05:31  5-MIN KDBQ 171005Z AUTO 36004KT 10SM CLR 09/06 A3011 910 79 400 360/04 RMK AO2 TSNO
94908KDBQ DBQ20000617041010206/17/00 04:10:31  5-MIN KDBQ 171010Z AUTO 34004KT 10SM CLR 09/06 A3011 900 79 400 340/04 RMK AO2 TSNO
94908KDBQ DBQ20000617041510206/17/00 04:15:31  5-MIN KDBQ 171015Z AUTO 34003KT 10SM CLR 09/06 A3012 900 79 400 340/03 RMK AO2 TSNO
94908KDBQ DBQ20000617042010206/17/00 04:20:31  5-MIN KDBQ 171020Z AUTO 35003KT 10SM CLR 09/06 A3012 890 76 500 350/03 RMK AO2 TSNO
94908KDBQ DBQ20000617042510206/17/00 04:25:31  5-MIN KDBQ 171025Z AUTO 35003KT 10SM CLR 09/06 A3012 890 79 400 350/03 RMK AO2 TSNO
94908KDBQ DBQ20000617043010206/17/00 04:30:31  5-MIN KDBQ 171030Z AUTO 35003KT 10SM CLR 09/06 A3012 890 79 400 350/03 RMK AO2 TSNO
94908KDBQ DBQ20000617043510206/17/00 04:35:31  5-MIN KDBQ 171035Z AUTO 00000KT 10SM CLR 09/06 A3012 890 79 400 000/00 RMK AO2 TSNO
94908KDBQ DBQ20000617044010206/17/00 04:40:31  5-MIN KDBQ 171040Z AUTO 00000KT 10SM CLR 09/06 A3012 890 79 400 000/00 RMK AO2 TSNO
94908KDBQ DBQ20000617044510206/17/00 04:45:31  5-MIN KDBQ 171045Z AUTO 36004KT 10SM CLR 09/06 A3012 900 79 400 360/04 RMK AO2 TSNO
94908KDBQ DBQ20000617045011906/17/00 04:50:31  5-MIN KDBQ 171050Z AUTO 35005KT 10SM CLR 09/06 A3012 900 79 400 350/05 RMK AO2 SLP199 T00890056 TSNO
94908KDBQ DBQ20000617045510906/17/00 04:55:31  5-MIN KDBQ 171055Z 36004KT 10SM CLR 09/06 A3012 890 79 400 350/04 RMK AO2 SLP201 T00890056
94908KDBQ DBQ20000617050009206/17/00 05:00:31  5-MIN KDBQ 171100Z 36004KT 10SM CLR 09/06 A3013 890 83 400 360/04 RMK AO2
94908KDBQ DBQ20000617050509206/17/00 05:05:31  5-MIN KDBQ 171105Z 36004KT 10SM CLR 09/06 A3013 890 83 400 360/04 RMK AO2
94908KDBQ DBQ20000617051009206/17/00 05:10:31  5-MIN KDBQ 171110Z 00000KT 10SM CLR 09/06 A3013 880 79 500 000/00 RMK AO2
94908KDBQ DBQ20000617051509206/17/00 05:15:31  5-MIN KDBQ 171115Z 00000KT 10SM CLR 09/07 A3013 880 83 500 000/00 RMK AO2
94908KDBQ DBQ20000617052009206/17/00 05:20:31  5-MIN KDBQ 171120Z 33003KT 10SM CLR 09/07 A3013 880 83 500 320/03 RMK AO2
94908KDBQ DBQ20000617052509206/17/00 05:25:31  5-MIN KDBQ 171125Z 32004KT 10SM CLR 09/07 A3013 880 83 500 320/04 RMK AO2
94908KDBQ DBQ20000617053009206/17/00 05:30:31  5-MIN KDBQ 171130Z 32003KT 10SM CLR 10/07 A3013 880 83 500 320/03 RMK AO2
94908KDBQ DBQ20000617053509206/17/00 05:35:31  5-MIN KDBQ 171135Z 34004KT 10SM CLR 10/07 A3013 880 83 500 340/04 RMK AO2
94908KDBQ DBQ20000617054009206/17/00 05:40:31  5-MIN KDBQ 171140Z 34004KT 10SM CLR 11/07 A3013 880 77 600 340/04 RMK AO2
94908KDBQ DBQ20000617054509206/17/00 05:45:31  5-MIN KDBQ 171145Z 34004KT 10SM CLR 11/07 A3014 880 80 600 340/04 RMK AO2
94908KDBQ DBQ20000617055013306/17/00 05:50:31  5-MIN KDBQ 171150Z 35005KT 10SM CLR 11/07 A3014 880 77 700 350/05 RMK AO2 SLP205 7//// T01110072 10111 20083 53015
94908KDBQ DBQ20000617055513306/17/00 05:55:31  5-MIN KDBQ 171155Z 35004KT 10SM CLR 11/07 A3014 870 77 700 350/04 RMK AO2 SLP206 7//// T01110072 10111 20083 53019
94908KDBQ DBQ20000617060009206/17/00 06:00:31  5-MIN KDBQ 171200Z 36004KT 10SM CLR 11/08 A3015 870 80 700 360/04 RMK AO2
94908KDBQ DBQ20000617060509206/17/00 06:05:31  5-MIN KDBQ 171205Z 01005KT 10SM CLR 11/08 A3014 870 80 700 360/05 RMK AO2
94908KDBQ DBQ20000617061009206/17/00 06:10:31  5-MIN KDBQ 171210Z 36005KT 10SM CLR 11/07 A3014 870 77 700 360/05 RMK AO2
94908KDBQ DBQ20000617061509206/17/00 06:15:31  5-MIN KDBQ 171215Z 35005KT 10SM CLR 11/08 A3014 870 80 700 350/05 RMK AO2
94908KDBQ DBQ20000617062009206/17/00 06:20:31  5-MIN KDBQ 171220Z 35006KT 10SM CLR 11/08 A3014 880 80 700 350/06 RMK AO2
94908KDBQ DBQ20000617062509206/17/00 06:25:31  5-MIN KDBQ 171225Z 36006KT 10SM CLR 11/08 A3014 870 80 700 350/06 RMK AO2
94908KDBQ DBQ20000617063009206/17/00 06:30:31  5-MIN KDBQ 171230Z 36006KT 10SM CLR 12/08 A3015 870 77 700 360/06 RMK AO2
94908KDBQ DBQ20000617063509206/17/00 06:35:31  5-MIN KDBQ 171235Z 35007KT 10SM CLR 12/07 A3014 870 74 700 350/07 RMK AO2
94908KDBQ DBQ20000617064009206/17/00 06:40:31  5-MIN KDBQ 171240Z 36007KT 10SM CLR 12/07 A3014 870 74 700 360/07 RMK AO2
94908KDBQ DBQ20000617064509206/17/00 06:45:31  5-MIN KDBQ 171245Z 36006KT 10SM CLR 12/07 A3015 870 74 700 350/06 RMK AO2
94908KDBQ DBQ20000617065010906/17/00 06:50:31  5-MIN KDBQ 171250Z 36005KT 10SM CLR 12/07 A3015 870 74 700 350/05 RMK AO2 SLP210 T01170072
94908KDBQ DBQ20000617065510906/17/00 06:55:31  5-MIN KDBQ 171255Z 36005KT 10SM CLR 12/07 A3015 860 74 700 360/05 RMK AO2 SLP211 T01170072
94908KDBQ DBQ20000617070009206/17/00 07:00:31  5-MIN KDBQ 171300Z 35007KT 10SM CLR 12/07 A3016 860 74 700 350/07 RMK AO2
94908KDBQ DBQ20000617070509206/17/00 07:05:31  5-MIN KDBQ 171305Z 35007KT 10SM CLR 12/07 A3016 860 71 800 350/07 RMK AO2
94908KDBQ DBQ20000617071009206/17/00 07:10:31  5-MIN KDBQ 171310Z 35006KT 10SM CLR 12/07 A3016 860 71 800 350/06 RMK AO2
94908KDBQ DBQ20000617071509206/17/00 07:15:31  5-MIN KDBQ 171315Z 34007KT 10SM CLR 12/08 A3016 860 74 800 340/07 RMK AO2
94908KDBQ DBQ20000617072009206/17/00 07:20:31  5-MIN KDBQ 171320Z 35006KT 10SM CLR 12/07 A3016 860 71 800 350/06 RMK AO2
94908KDBQ DBQ20000617072509206/17/00 07:25:31  5-MIN KDBQ 171325Z 35007KT 10SM CLR 12/07 A3016 860 71 800 350/07 RMK AO2
94908KDBQ DBQ20000617073009206/17/00 07:30:31  5-MIN KDBQ 171330Z 35006KT 10SM CLR 12/08 A3016 860 74 800 350/06 RMK AO2
94908KDBQ DBQ20000617073509206/17/00 07:35:31  5-MIN KDBQ 171335Z 35006KT 10SM CLR 12/08 A3016 860 74 800 350/06 RMK AO2
94908KDBQ DBQ20000617074009206/17/00 07:40:31  5-MIN KDBQ 171340Z 35006KT 10SM CLR 13/08 A3016 860 71 800 350/06 RMK AO2
94908KDBQ DBQ20000617074509206/17/00 07:45:31  5-MIN KDBQ 171345Z 36007KT 10SM CLR 13/08 A3016 860 71 800 360/07 RMK AO2
94908KDBQ DBQ20000617075010906/17/00 07:50:31  5-MIN KDBQ 171350Z 01008KT 10SM CLR 13/07 A3016 850 69 800 360/08 RMK AO2 SLP215 T01280072
94908KDBQ DBQ20000617075510906/17/00 07:55:31  5-MIN KDBQ 171355Z 36007KT 10SM CLR 13/07 A3017 850 69 800 360/07 RMK AO2 SLP217 T01280072
94908KDBQ DBQ20000617080009206/17/00 08:00:31  5-MIN KDBQ 171400Z 35008KT 10SM CLR 13/07 A3017 850 66 900 350/08 RMK AO2
94908KDBQ DBQ20000617080509206/17/00 08:05:31  5-MIN KDBQ 171405Z VRB05KT 10SM CLR 13/07 A3017 850 66 900 VRB/05 RMK AO2
94908KDBQ DBQ20000617081009206/17/00 08:10:31  5-MIN KDBQ 171410Z 36009KT 10SM CLR 13/07 A3017 850 64 900 360/09 RMK AO2
94908KDBQ DBQ20000617081509206/17/00 08:15:31  5-MIN KDBQ 171415Z 02007KT 10SM CLR 13/07 A3017 850 66 900 020/07 RMK AO2
94908KDBQ DBQ20000617082009306/17/00 08:20:31  5-MIN KDBQ 171420Z 36006KT 10SM CLR 14/07 A3017 850 61 1000 360/06 RMK AO2
94908KDBQ DBQ20000617082509306/17/00 08:25:31  5-MIN KDBQ 171425Z 36006KT 10SM CLR 14/07 A3017 850 64 1000 360/06 RMK AO2
94908KDBQ DBQ20000617083009206/17/00 08:30:31  5-MIN KDBQ 171430Z 34005KT 10SM CLR 13/07 A3017 850 66 900 340/05 RMK AO2
94908KDBQ DBQ20000617083509306/17/00 08:35:31  5-MIN KDBQ 171435Z 35007KT 10SM CLR 14/07 A3017 850 64 1000 350/07 RMK AO2
94908KDBQ DBQ20000617084009306/17/00 08:40:31  5-MIN KDBQ 171440Z VRB06KT 10SM CLR 14/07 A3017 850 64 1000 VRB/06 RMK AO2
94908KDBQ DBQ20000617084509306/17/00 08:45:31  5-MIN KDBQ 171445Z VRB06KT 10SM CLR 14/08 A3017 850 64 1000 VRB/06 RMK AO2
94908KDBQ DBQ20000617085011606/17/00 08:50:31  5-MIN KDBQ 171450Z 36008KT 10SM CLR 14/07 A3016 850 61 1000 360/08 RMK AO2 SLP215 T01440072 53019
94908KDBQ DBQ20000617085511606/17/00 08:55:31  5-MIN KDBQ 171455Z 36006KT 10SM CLR 14/07 A3016 850 61 1000 360/06 RMK AO2 SLP215 T01440072 50007
94908KDBQ DBQ20000617090009306/17/00 09:00:31  5-MIN KDBQ 171500Z VRB05KT 10SM CLR 15/08 A3017 850 62 1100 VRB/05 RMK AO2
94908KDBQ DBQ20000617090509306/17/00 09:05:31  5-MIN KDBQ 171505Z 04007KT 10SM CLR 15/07 A3017 850 57 1100 030/07 RMK AO2
94908KDBQ DBQ20000617091009306/17/00 09:10:31  5-MIN KDBQ 171510Z 01007KT 10SM CLR 15/06 A3017 850 55 1100 010/07 RMK AO2
94908KDBQ DBQ20000617091509306/17/00 09:15:31  5-MIN KDBQ 171515Z 03008KT 10SM CLR 15/06 A3017 850 55 1100 030/08 RMK AO2
94908KDBQ DBQ20000617092009306/17/00 09:20:31  5-MIN KDBQ 171520Z 03008KT 10SM CLR 15/07 A3017 850 57 1100 030/08 RMK AO2
94908KDBQ DBQ20000617092509306/17/00 09:25:31  5-MIN KDBQ 171525Z 02007KT 10SM CLR 15/06 A3017 850 55 1100 020/07 RMK AO2
94908KDBQ DBQ20000617093009306/17/00 09:30:31  5-MIN KDBQ 171530Z 02007KT 10SM CLR 16/06 A3017 850 53 1100 020/07 RMK AO2
94908KDBQ DBQ20000617093509306/17/00 09:35:31  5-MIN KDBQ 171535Z 01007KT 10SM CLR 15/06 A3018 840 55 1100 010/07 RMK AO2
94908KDBQ DBQ20000617094009306/17/00 09:40:31  5-MIN KDBQ 171540Z 35007KT 10SM CLR 16/07 A3018 840 55 1100 350/07 RMK AO2
94908KDBQ DBQ20000617094509306/17/00 09:45:31  5-MIN KDBQ 171545Z VRB06KT 10SM CLR 16/06 A3018 830 53 1100 VRB/06 RMK AO2
94908KDBQ DBQ20000617095011006/17/00 09:50:31  5-MIN KDBQ 171550Z 35008KT 10SM CLR 16/07 A3019 830 55 1100 350/08 RMK AO2 SLP223 T01560067
94908KDBQ DBQ20000617095511006/17/00 09:55:31  5-MIN KDBQ 171555Z VRB05KT 10SM CLR 16/07 A3019 830 55 1100 VRB/05 RMK AO2 SLP224 T01560067
94908KDBQ DBQ20000617100009306/17/00 10:00:31  5-MIN KDBQ 171600Z VRB04KT 10SM CLR 16/07 A3019 830 55 1100 VRB/04 RMK AO2
94908KDBQ DBQ20000617100509306/17/00 10:05:31  5-MIN KDBQ 171605Z VRB03KT 10SM CLR 16/07 A3020 820 55 1100 VRB/03 RMK AO2
94908KDBQ DBQ20000617101009306/17/00 10:10:31  5-MIN KDBQ 171610Z 35008KT 10SM CLR 16/07 A3020 820 53 1200 350/08 RMK AO2
94908KDBQ DBQ20000617101509306/17/00 10:15:31  5-MIN KDBQ 171615Z 36006KT 10SM CLR 16/07 A3020 820 53 1200 360/06 RMK AO2
94908KDBQ DBQ20000617102009306/17/00 10:20:31  5-MIN KDBQ 171620Z 05006KT 10SM CLR 16/07 A3020 820 53 1200 050/06 RMK AO2
94908KDBQ DBQ20000617102509306/17/00 10:25:31  5-MIN KDBQ 171625Z 02007KT 10SM CLR 17/07 A3020 820 53 1300 020/07 RMK AO2
94908KDBQ DBQ20000617103009306/17/00 10:30:31  5-MIN KDBQ 171630Z VRB06KT 10SM CLR 17/07 A3020 820 53 1300 VRB/06 RMK AO2
94908KDBQ DBQ20000617103509306/17/00 10:35:31  5-MIN KDBQ 171635Z 36007KT 10SM CLR 16/07 A3019 830 53 1200 360/07 RMK AO2
94908KDBQ DBQ20000617104009306/17/00 10:40:31  5-MIN KDBQ 171640Z 34007KT 10SM CLR 16/07 A3019 830 53 1200 340/07 RMK AO2
94908KDBQ DBQ20000617104509306/17/00 10:45:31  5-MIN KDBQ 171645Z VRB04KT 10SM CLR 17/08 A3019 830 55 1300 VRB/04 RMK AO2
94908KDBQ DBQ20000617105011006/17/00 10:50:31  5-MIN KDBQ 171650Z 02007KT 10SM CLR 17/08 A3019 830 55 1300 020/07 RMK AO2 SLP222 T01670078
94908KDBQ DBQ20000617105511006/17/00 10:55:31  5-MIN KDBQ 171655Z 35007KT 10SM CLR 17/08 A3019 830 53 1300 350/07 RMK AO2 SLP222 T01720078
94908KDBQ DBQ20000617110009306/17/00 11:00:31  5-MIN KDBQ 171700Z 01005KT 10SM CLR 17/08 A3018 840 55 1300 010/05 RMK AO2
94908KDBQ DBQ20000617110509306/17/00 11:05:31  5-MIN KDBQ 171705Z 01009KT 10SM CLR 17/08 A3018 840 53 1300 010/09 RMK AO2
94908KDBQ DBQ20000617111009306/17/00 11:10:31  5-MIN KDBQ 171710Z 36007KT 10SM CLR 17/07 A3018 840 51 1300 360/07 RMK AO2
94908KDBQ DBQ20000617111509306/17/00 11:15:31  5-MIN KDBQ 171715Z 03007KT 10SM CLR 17/08 A3019 830 53 1300 030/07 RMK AO2
94908KDBQ DBQ20000617112009306/17/00 11:20:31  5-MIN KDBQ 171720Z 02008KT 10SM CLR 17/07 A3018 840 51 1300 020/08 RMK AO2
94908KDBQ DBQ20000617112509306/17/00 11:25:31  5-MIN KDBQ 171725Z 06009KT 10SM CLR 17/07 A3019 830 51 1300 060/09 RMK AO2
94908KDBQ DBQ20000617113009306/17/00 11:30:31  5-MIN KDBQ 171730Z 02010KT 10SM CLR 17/07 A3018 830 51 1300 020/10 RMK AO2
94908KDBQ DBQ20000617113509306/17/00 11:35:31  5-MIN KDBQ 171735Z 02008KT 10SM CLR 17/08 A3019 830 53 1300 010/08 RMK AO2
94908KDBQ DBQ20000617114009306/17/00 11:40:31  5-MIN KDBQ 171740Z 03007KT 10SM CLR 17/07 A3019 830 51 1300 030/07 RMK AO2
94908KDBQ DBQ20000617114509306/17/00 11:45:31  5-MIN KDBQ 171745Z 02009KT 10SM CLR 17/07 A3019 830 51 1300 020/09 RMK AO2
94908KDBQ DBQ20000617115012806/17/00 11:50:31  5-MIN KDBQ 171750Z 03008KT 10SM CLR 17/07 A3019 830 51 1300 030/08 RMK AO2 SLP225 T01720072 10178 20111 50007
94908KDBQ DBQ20000617115512806/17/00 11:55:31  5-MIN KDBQ 171755Z 06004KT 10SM CLR 17/07 A3019 830 51 1300 060/04 RMK AO2 SLP225 T01720072 10178 20111 51009
94908KDBQ DBQ20000617120009306/17/00 12:00:31  5-MIN KDBQ 171800Z 05003KT 10SM CLR 17/07 A3019 830 51 1300 050/03 RMK AO2
94908KDBQ DBQ20000617120509306/17/00 12:05:31  5-MIN KDBQ 171805Z VRB04KT 10SM CLR 17/07 A3019 830 49 1300 VRB/04 RMK AO2
94908KDBQ DBQ20000617121009306/17/00 12:10:31  5-MIN KDBQ 171810Z 02006KT 10SM CLR 18/08 A3019 830 51 1400 010/06 RMK AO2
94908KDBQ DBQ20000617121509306/17/00 12:15:31  5-MIN KDBQ 171815Z 36006KT 10SM CLR 18/08 A3019 830 53 1400 360/06 RMK AO2
94908KDBQ DBQ20000617122009306/17/00 12:20:31  5-MIN KDBQ 171820Z 01006KT 10SM CLR 18/08 A3019 830 53 1400 010/06 RMK AO2
94908KDBQ DBQ20000617122509306/17/00 12:25:31  5-MIN KDBQ 171825Z 03007KT 10SM CLR 18/09 A3019 830 54 1500 030/07 RMK AO2
94908KDBQ DBQ20000617123009306/17/00 12:30:31  5-MIN KDBQ 171830Z 03008KT 10SM CLR 18/09 A3019 830 54 1500 030/08 RMK AO2
94908KDBQ DBQ20000617123509306/17/00 12:35:31  5-MIN KDBQ 171835Z 03006KT 10SM CLR 18/08 A3019 830 53 1400 030/06 RMK AO2
94908KDBQ DBQ20000617124009306/17/00 12:40:31  5-MIN KDBQ 171840Z 02005KT 10SM CLR 18/08 A3019 830 53 1400 020/05 RMK AO2
94908KDBQ DBQ20000617124509306/17/00 12:45:31  5-MIN KDBQ 171845Z 35006KT 10SM CLR 18/08 A3019 830 52 1500 350/06 RMK AO2
94908KDBQ DBQ20000617125011006/17/00 12:50:31  5-MIN KDBQ 171850Z 33004KT 10SM CLR 18/09 A3019 830 55 1400 330/04 RMK AO2 SLP223 T01780089
94908KDBQ DBQ20000617125511006/17/00 12:55:31  5-MIN KDBQ 171855Z 36007KT 10SM CLR 19/09 A3019 830 54 1500 360/07 RMK AO2 SLP223 T01890094
94908KDBQ DBQ20000617130009306/17/00 13:00:31  5-MIN KDBQ 171900Z 04005KT 10SM CLR 18/08 A3019 830 52 1500 040/05 RMK AO2
94908KDBQ DBQ20000617130509306/17/00 13:05:31  5-MIN KDBQ 171905Z VRB03KT 10SM CLR 18/08 A3019 830 50 1500 VRB/03 RMK AO2
94908KDBQ DBQ20000617131009306/17/00 13:10:31  5-MIN KDBQ 171910Z 04005KT 10SM CLR 18/08 A3018 840 52 1500 040/05 RMK AO2
94908KDBQ DBQ20000617131509306/17/00 13:15:31  5-MIN KDBQ 171915Z 00000KT 10SM CLR 18/08 A3018 840 52 1500 000/00 RMK AO2
94908KDBQ DBQ20000617132009306/17/00 13:20:31  5-MIN KDBQ 171920Z VRB03KT 10SM CLR 19/09 A3019 830 52 1500 VRB/03 RMK AO2
94908KDBQ DBQ20000617132509306/17/00 13:25:31  5-MIN KDBQ 171925Z 01006KT 10SM CLR 19/09 A3019 830 52 1500 010/06 RMK AO2
94908KDBQ DBQ20000617133009306/17/00 13:30:31  5-MIN KDBQ 171930Z 01006KT 10SM CLR 19/09 A3019 830 54 1500 010/06 RMK AO2
94908KDBQ DBQ20000617133509306/17/00 13:35:31  5-MIN KDBQ 171935Z VRB03KT 10SM CLR 19/08 A3019 830 50 1500 VRB/03 RMK AO2
94908KDBQ DBQ20000617134009306/17/00 13:40:31  5-MIN KDBQ 171940Z VRB04KT 10SM CLR 18/08 A3019 830 52 1500 VRB/04 RMK AO2
94908KDBQ DBQ20000617134509306/17/00 13:45:31  5-MIN KDBQ 171945Z 35005KT 10SM CLR 19/08 A3019 830 50 1500 350/05 RMK AO2
94908KDBQ DBQ20000617135011006/17/00 13:50:31  5-MIN KDBQ 171950Z VRB03KT 10SM CLR 18/08 A3018 840 50 1500 VRB/03 RMK AO2 SLP222 T01830078
94908KDBQ DBQ20000617135511006/17/00 13:55:31  5-MIN KDBQ 171955Z VRB04KT 10SM CLR 19/09 A3018 840 52 1500 VRB/04 RMK AO2 SLP221 T01890089
94908KDBQ DBQ20000617140009306/17/00 14:00:31  5-MIN KDBQ 172000Z VRB04KT 10SM CLR 19/09 A3018 840 52 1500 VRB/04 RMK AO2
94908KDBQ DBQ20000617140509306/17/00 14:05:31  5-MIN KDBQ 172005Z VRB03KT 10SM CLR 19/08 A3018 840 48 1500 VRB/03 RMK AO2
94908KDBQ DBQ20000617141009306/17/00 14:10:31  5-MIN KDBQ 172010Z 36006KT 10SM CLR 19/09 A3018 840 50 1600 350/06 RMK AO2
94908KDBQ DBQ20000617141509306/17/00 14:15:31  5-MIN KDBQ 172015Z 03006KT 10SM CLR 19/09 A3018 840 50 1600 030/06 RMK AO2
94908KDBQ DBQ20000617142009306/17/00 14:20:31  5-MIN KDBQ 172020Z 06005KT 10SM CLR 19/09 A3018 840 50 1600 060/05 RMK AO2
94908KDBQ DBQ20000617142509306/17/00 14:25:31  5-MIN KDBQ 172025Z 00000KT 10SM CLR 19/08 A3017 850 48 1500 000/00 RMK AO2
94908KDBQ DBQ20000617143009306/17/00 14:30:31  5-MIN KDBQ 172030Z 06004KT 10SM CLR 19/08 A3017 850 48 1600 060/04 RMK AO2
94908KDBQ DBQ20000617143509306/17/00 14:35:31  5-MIN KDBQ 172035Z 00000KT 10SM CLR 19/08 A3017 850 48 1500 000/00 RMK AO2
94908KDBQ DBQ20000617144009306/17/00 14:40:31  5-MIN KDBQ 172040Z 00000KT 10SM CLR 19/08 A3017 850 48 1500 000/00 RMK AO2
94908KDBQ DBQ20000617144509306/17/00 14:45:31  5-MIN KDBQ 172045Z 30003KT 10SM CLR 19/08 A3016 860 50 1500 300/03 RMK AO2
94908KDBQ DBQ20000617145011606/17/00 14:50:31  5-MIN KDBQ 172050Z 05006KT 10SM CLR 19/09 A3016 860 50 1600 050/06 RMK AO2 SLP213 T01940089 51009
94908KDBQ DBQ20000617145511606/17/00 14:55:31  5-MIN KDBQ 172055Z 05004KT 10SM CLR 19/08 A3016 860 48 1600 050/04 RMK AO2 SLP213 T01940083 58011
94908KDBQ DBQ20000617150009306/17/00 15:00:31  5-MIN KDBQ 172100Z VRB06KT 10SM CLR 19/08 A3016 860 48 1600 VRB/06 RMK AO2
94908KDBQ DBQ20000617150509306/17/00 15:05:31  5-MIN KDBQ 172105Z 05005KT 10SM CLR 19/09 A3015 860 50 1600 050/05 RMK AO2
94908KDBQ DBQ20000617151009306/17/00 15:10:31  5-MIN KDBQ 172110Z VRB03KT 10SM CLR 19/08 A3016 860 50 1600 VRB/03 RMK AO2
94908KDBQ DBQ20000617151509306/17/00 15:15:31  5-MIN KDBQ 172115Z 00000KT 10SM CLR 19/08 A3016 860 46 1600 000/00 RMK AO2
94908KDBQ DBQ20000617152009306/17/00 15:20:31  5-MIN KDBQ 172120Z 33006KT 10SM CLR 20/09 A3016 860 48 1700 330/06 RMK AO2
94908KDBQ DBQ20000617152509306/17/00 15:25:31  5-MIN KDBQ 172125Z 34005KT 10SM CLR 19/09 A3016 860 50 1600 340/05 RMK AO2
94908KDBQ DBQ20000617153009306/17/00 15:30:31  5-MIN KDBQ 172130Z 00000KT 10SM CLR 19/08 A3016 860 48 1600 000/00 RMK AO2
94908KDBQ DBQ20000617153509306/17/00 15:35:31  5-MIN KDBQ 172135Z VRB03KT 10SM CLR 19/08 A3015 860 48 1600 VRB/03 RMK AO2
94908KDBQ DBQ20000617154009306/17/00 15:40:31  5-MIN KDBQ 172140Z VRB03KT 10SM CLR 19/08 A3015 870 50 1600 VRB/03 RMK AO2
94908KDBQ DBQ20000617154509306/17/00 15:45:31  5-MIN KDBQ 172145Z 31003KT 10SM CLR 19/09 A3015 870 52 1600 310/03 RMK AO2
94908KDBQ DBQ20000617155011006/17/00 15:50:31  5-MIN KDBQ 172150Z VRB03KT 10SM CLR 19/09 A3015 870 52 1600 VRB/03 RMK AO2 SLP210 T01940094
94908KDBQ DBQ20000617155511006/17/00 15:55:31  5-MIN KDBQ 172155Z 02004KT 10SM CLR 19/09 A3015 870 52 1600 020/04 RMK AO2 SLP209 T01940094
94908KDBQ DBQ20000617160009306/17/00 16:00:31  5-MIN KDBQ 172200Z 36003KT 10SM CLR 19/09 A3014 870 50 1600 360/03 RMK AO2
94908KDBQ DBQ20000617160509306/17/00 16:05:31  5-MIN KDBQ 172205Z 04004KT 10SM CLR 19/09 A3015 870 52 1600 040/04 RMK AO2
94908KDBQ DBQ20000617161009306/17/00 16:10:31  5-MIN KDBQ 172210Z 05004KT 10SM CLR 19/09 A3014 870 52 1600 050/04 RMK AO2
94908KDBQ DBQ20000617161509306/17/00 16:15:31  5-MIN KDBQ 172215Z 36004KT 10SM CLR 19/09 A3014 870 50 1600 360/04 RMK AO2
94908KDBQ DBQ20000617162009306/17/00 16:20:31  5-MIN KDBQ 172220Z VRB06KT 10SM CLR 19/09 A3014 870 50 1600 VRB/06 RMK AO2
94908KDBQ DBQ20000617162509306/17/00 16:25:31  5-MIN KDBQ 172225Z 02004KT 10SM CLR 19/09 A3014 880 52 1600 020/04 RMK AO2
94908KDBQ DBQ20000617163009306/17/00 16:30:31  5-MIN KDBQ 172230Z VRB03KT 10SM CLR 19/09 A3014 880 50 1600 VRB/03 RMK AO2
94908KDBQ DBQ20000617163509306/17/00 16:35:31  5-MIN KDBQ 172235Z VRB03KT 10SM CLR 19/09 A3014 880 52 1600 VRB/03 RMK AO2
94908KDBQ DBQ20000617164009306/17/00 16:40:31  5-MIN KDBQ 172240Z 31005KT 10SM CLR 19/10 A3013 880 54 1600 310/05 RMK AO2
94908KDBQ DBQ20000617164509306/17/00 16:45:31  5-MIN KDBQ 172245Z 33004KT 10SM CLR 19/09 A3013 880 52 1600 330/04 RMK AO2
94908KDBQ DBQ20000617165011006/17/00 16:50:31  5-MIN KDBQ 172250Z 35004KT 10SM CLR 19/09 A3013 880 52 1600 350/04 RMK AO2 SLP203 T01940094
94908KDBQ DBQ20000617165511006/17/00 16:55:31  5-MIN KDBQ 172255Z VRB04KT 10SM CLR 19/09 A3013 880 50 1600 VRB/04 RMK AO2 SLP204 T01940089
94908KDBQ DBQ20000617170009306/17/00 17:00:31  5-MIN KDBQ 172300Z 00000KT 10SM CLR 19/09 A3013 880 52 1600 000/00 RMK AO2
94908KDBQ DBQ20000617170509306/17/00 17:05:31  5-MIN KDBQ 172305Z VRB03KT 10SM CLR 19/09 A3013 890 52 1600 VRB/03 RMK AO2
94908KDBQ DBQ20000617171009306/17/00 17:10:31  5-MIN KDBQ 172310Z 35004KT 10SM CLR 19/09 A3013 890 52 1600 350/04 RMK AO2
94908KDBQ DBQ20000617171509306/17/00 17:15:31  5-MIN KDBQ 172315Z 36006KT 10SM CLR 19/09 A3012 890 54 1600 360/06 RMK AO2
94908KDBQ DBQ20000617172009306/17/00 17:20:31  5-MIN KDBQ 172320Z 36004KT 10SM CLR 19/09 A3012 890 54 1600 360/04 RMK AO2
94908KDBQ DBQ20000617172509306/17/00 17:25:31  5-MIN KDBQ 172325Z 32005KT 10SM CLR 19/09 A3013 890 54 1600 320/05 RMK AO2
94908KDBQ DBQ20000617173009306/17/00 17:30:31  5-MIN KDBQ 172330Z 35005KT 10SM CLR 19/10 A3013 890 56 1600 350/05 RMK AO2
94908KDBQ DBQ20000617173509306/17/00 17:35:31  5-MIN KDBQ 172335Z 35006KT 10SM CLR 19/10 A3013 890 56 1600 350/06 RMK AO2
94908KDBQ DBQ20000617174009306/17/00 17:40:31  5-MIN KDBQ 172340Z 35007KT 10SM CLR 18/09 A3013 880 56 1500 350/07 RMK AO2
94908KDBQ DBQ20000617174509306/17/00 17:45:31  5-MIN KDBQ 172345Z 34006KT 10SM CLR 18/09 A3013 880 56 1500 340/06 RMK AO2
94908KDBQ DBQ20000617175012806/17/00 17:50:31  5-MIN KDBQ 172350Z 36005KT 10SM CLR 18/10 A3013 890 58 1500 350/05 RMK AO2 SLP203 T01830100 10200 20172 58011
94908KDBQ DBQ20000617175512806/17/00 17:55:31  5-MIN KDBQ 172355Z 35005KT 10SM CLR 18/10 A3013 880 58 1500 350/05 RMK AO2 SLP205 T01830100 10200 20172 55008
94908KDBQ DBQ20000617180009306/17/00 18:00:31  5-MIN KDBQ 180000Z 36005KT 10SM CLR 18/10 A3013 880 58 1500 360/05 RMK AO2
94908KDBQ DBQ20000617180509306/17/00 18:05:31  5-MIN KDBQ 180005Z 36005KT 10SM CLR 18/10 A3014 880 58 1500 360/05 RMK AO2
94908KDBQ DBQ20000617181009306/17/00 18:10:31  5-MIN KDBQ 180010Z 35004KT 10SM CLR 18/10 A3014 880 58 1500 350/04 RMK AO2
94908KDBQ DBQ20000617181509306/17/00 18:15:31  5-MIN KDBQ 180015Z 36005KT 10SM CLR 18/09 A3013 880 58 1500 360/05 RMK AO2
94908KDBQ DBQ20000617182009306/17/00 18:20:31  5-MIN KDBQ 180020Z 36004KT 10SM CLR 18/09 A3013 880 58 1500 360/04 RMK AO2
94908KDBQ DBQ20000617182509306/17/00 18:25:31  5-MIN KDBQ 180025Z 36005KT 10SM CLR 18/10 A3013 880 60 1500 360/05 RMK AO2
94908KDBQ DBQ20000617183009306/17/00 18:30:31  5-MIN KDBQ 180030Z 36005KT 10SM CLR 18/10 A3013 880 60 1500 360/05 RMK AO2
94908KDBQ DBQ20000617183509306/17/00 18:35:31  5-MIN KDBQ 180035Z 36004KT 10SM CLR 18/10 A3014 880 60 1400 360/04 RMK AO2
94908KDBQ DBQ20000617184009306/17/00 18:40:31  5-MIN KDBQ 180040Z 36004KT 10SM CLR 18/10 A3014 880 60 1400 360/04 RMK AO2
94908KDBQ DBQ20000617184509306/17/00 18:45:31  5-MIN KDBQ 180045Z 36004KT 10SM CLR 17/09 A3014 880 60 1400 360/04 RMK AO2
94908KDBQ DBQ20000617185011006/17/00 18:50:31  5-MIN KDBQ 180050Z 01004KT 10SM CLR 17/10 A3013 880 62 1400 010/04 RMK AO2 SLP205 T01720100
94908KDBQ DBQ20000617185511006/17/00 18:55:31  5-MIN KDBQ 180055Z 01004KT 10SM CLR 17/10 A3013 890 62 1400 010/04 RMK AO2 SLP203 T01720100
94908KDBQ DBQ20000617190010306/17/00 19:00:31  5-MIN KDBQ 180100Z AUTO 01003KT 10SM CLR 17/10 A3013 890 62 1400 010/03 RMK AO2 TSNO
94908KDBQ DBQ20000617190510306/17/00 19:05:31  5-MIN KDBQ 180105Z AUTO 01004KT 10SM CLR 17/10 A3013 890 62 1400 010/04 RMK AO2 TSNO
94908KDBQ DBQ20000617191010306/17/00 19:10:31  5-MIN KDBQ 180110Z AUTO 36004KT 10SM CLR 17/10 A3013 880 62 1400 360/04 RMK AO2 TSNO
94908KDBQ DBQ20000617191510306/17/00 19:15:31  5-MIN KDBQ 180115Z AUTO 36003KT 10SM CLR 17/10 A3013 880 62 1400 360/03 RMK AO2 TSNO
94908KDBQ DBQ20000617192010306/17/00 19:20:31  5-MIN KDBQ 180120Z AUTO 35003KT 10SM CLR 17/10 A3013 880 62 1400 350/03 RMK AO2 TSNO
94908KDBQ DBQ20000617192510306/17/00 19:25:31  5-MIN KDBQ 180125Z AUTO 34005KT 10SM CLR 17/10 A3013 880 62 1400 340/05 RMK AO2 TSNO
94908KDBQ DBQ20000617193010306/17/00 19:30:31  5-MIN KDBQ 180130Z AUTO 34004KT 10SM CLR 17/10 A3014 880 62 1400 340/04 RMK AO2 TSNO
94908KDBQ DBQ20000617193510306/17/00 19:35:31  5-MIN KDBQ 180135Z AUTO 34004KT 10SM CLR 17/10 A3014 880 64 1300 340/04 RMK AO2 TSNO
94908KDBQ DBQ20000617194010306/17/00 19:40:31  5-MIN KDBQ 180140Z AUTO 34005KT 10SM CLR 17/10 A3014 880 64 1300 340/05 RMK AO2 TSNO
94908KDBQ DBQ20000617194510306/17/00 19:45:31  5-MIN KDBQ 180145Z AUTO 33005KT 10SM CLR 17/10 A3014 880 64 1300 330/05 RMK AO2 TSNO
94908KDBQ DBQ20000617195012006/17/00 19:50:31  5-MIN KDBQ 180150Z AUTO 33004KT 10SM CLR 17/10 A3014 870 64 1300 330/04 RMK AO2 SLP208 T01670100 TSNO
94908KDBQ DBQ20000617195512006/17/00 19:55:31  5-MIN KDBQ 180155Z AUTO 32005KT 10SM CLR 16/11 A3015 870 69 1200 310/05 RMK AO2 SLP210 T01610106 TSNO
94908KDBQ DBQ20000617200010306/17/00 20:00:31  5-MIN KDBQ 180200Z AUTO 31005KT 10SM CLR 16/11 A3015 860 69 1200 310/05 RMK AO2 TSNO
94908KDBQ DBQ20000617200510306/17/00 20:05:31  5-MIN KDBQ 180205Z AUTO 31005KT 10SM CLR 16/11 A3016 860 74 1200 310/05 RMK AO2 TSNO
94908KDBQ DBQ20000617201010606/17/00 20:10:31  5-MIN KDBQ 180210Z AUTO 32005KT 10SM FEW120 16/11 A3016 860 74 1200 320/05 RMK AO2 TSNO
94908KDBQ DBQ20000617201510606/17/00 20:15:31  5-MIN KDBQ 180215Z AUTO 32005KT 10SM FEW120 16/11 A3016 860 74 1200 320/05 RMK AO2 TSNO
94908KDBQ DBQ20000617202010606/17/00 20:20:31  5-MIN KDBQ 180220Z AUTO 31004KT 10SM FEW120 16/11 A3017 850 74 1200 310/04 RMK AO2 TSNO
94908KDBQ DBQ20000617202510606/17/00 20:25:31  5-MIN KDBQ 180225Z AUTO 30005KT 10SM FEW120 16/11 A3018 840 74 1100 300/05 RMK AO2 TSNO
94908KDBQ DBQ20000617203010606/17/00 20:30:31  5-MIN KDBQ 180230Z AUTO 30005KT 10SM FEW120 16/12 A3018 840 77 1100 300/05 RMK AO2 TSNO
94908KDBQ DBQ20000617203510606/17/00 20:35:31  5-MIN KDBQ 180235Z AUTO 30005KT 10SM FEW120 16/12 A3018 830 75 1200 300/05 RMK AO2 TSNO
94908KDBQ DBQ20000617204010606/17/00 20:40:31  5-MIN KDBQ 180240Z AUTO 30005KT 10SM FEW120 16/12 A3019 830 75 1200 290/05 RMK AO2 TSNO
94908KDBQ DBQ20000617204510306/17/00 20:45:31  5-MIN KDBQ 180245Z AUTO 30004KT 10SM CLR 16/11 A3019 830 72 1200 300/04 RMK AO2 TSNO
94908KDBQ DBQ20000617205012606/17/00 20:50:31  5-MIN KDBQ 180250Z AUTO 31003KT 10SM CLR 16/11 A3019 830 72 1200 300/03 RMK AO2 SLP223 T01610111 55008 TSNO
94908KDBQ DBQ20000617205512906/17/00 20:55:31  5-MIN KDBQ 180255Z AUTO 31004KT 10SM FEW120 16/11 A3019 830 72 1200 310/04 RMK AO2 SLP224 T01610111 53019 TSNO
94908KDBQ DBQ20000617210010606/17/00 21:00:31  5-MIN KDBQ 180300Z AUTO 32005KT 10SM BKN110 17/11 A3019 830 69 1300 320/05 RMK AO2 TSNO
94908KDBQ DBQ20000617210510606/17/00 21:05:31  5-MIN KDBQ 180305Z AUTO 34004KT 10SM BKN110 16/11 A3019 830 69 1200 340/04 RMK AO2 TSNO
94908KDBQ DBQ20000617211010606/17/00 21:10:31  5-MIN KDBQ 180310Z AUTO 35004KT 10SM BKN100 16/10 A3019 830 67 1200 350/04 RMK AO2 TSNO
94908KDBQ DBQ20000617211510606/17/00 21:15:31  5-MIN KDBQ 180315Z AUTO 02004KT 10SM BKN100 16/10 A3019 830 67 1200 020/04 RMK AO2 TSNO
94908KDBQ DBQ20000617212010606/17/00 21:20:31  5-MIN KDBQ 180320Z AUTO 03003KT 10SM BKN100 16/11 A3018 840 69 1200 030/03 RMK AO2 TSNO
94908KDBQ DBQ20000617212510606/17/00 21:25:31  5-MIN KDBQ 180325Z AUTO 07003KT 10SM BKN100 16/11 A3018 840 69 1200 060/03 RMK AO2 TSNO
94908KDBQ DBQ20000617213010606/17/00 21:30:31  5-MIN KDBQ 180330Z AUTO 07003KT 10SM BKN095 16/11 A3019 830 72 1200 070/03 RMK AO2 TSNO
94908KDBQ DBQ20000617213510606/17/00 21:35:31  5-MIN KDBQ 180335Z AUTO 00000KT 10SM BKN090 16/12 A3019 830 77 1100 000/00 RMK AO2 TSNO
94908KDBQ DBQ20000617214010606/17/00 21:40:31  5-MIN KDBQ 180340Z AUTO 36003KT 10SM OVC090 16/12 A3018 840 77 1100 360/03 RMK AO2 TSNO
94908KDBQ DBQ20000617214510606/17/00 21:45:31  5-MIN KDBQ 180345Z AUTO 05003KT 10SM OVC095 16/11 A3018 840 72 1200 050/03 RMK AO2 TSNO
94908KDBQ DBQ20000617215012306/17/00 21:50:31  5-MIN KDBQ 180350Z AUTO 00000KT 10SM OVC090 15/12 A3019 830 83 1100 000/00 RMK AO2 SLP223 T01500122 TSNO
94908KDBQ DBQ20000617215512306/17/00 21:55:31  5-MIN KDBQ 180355Z AUTO 00000KT 10SM OVC090 15/12 A3019 830 80 1100 000/00 RMK AO2 SLP223 T01500117 TSNO
94908KDBQ DBQ20000617220011306/17/00 22:00:31  5-MIN KDBQ 180400Z AUTO 32005KT 10SM FEW050 OVC090 15/12 A3020 820 83 1100 320/05 RMK AO2 TSNO
94908KDBQ DBQ20000617220512906/17/00 22:05:31  5-MIN KDBQ 180405Z AUTO 32007KT 10SM -RA SCT050 OVC090 16/12 A3020 820 77 1100 320/07 RMK AO2 RAB02 P0000 TSNO
94908KDBQ DBQ20000617221012906/17/00 22:10:31  5-MIN KDBQ 180410Z AUTO 31005KT 10SM -RA BKN050 OVC090 16/11 A3021 810 74 1100 310/05 RMK AO2 RAB02 P0000 TSNO
94908KDBQ DBQ20000617221512906/17/00 22:15:31  5-MIN KDBQ 180415Z AUTO 31007KT 10SM -RA BKN050 OVC090 15/12 A3021 810 80 1000 300/07 RMK AO2 RAB02 P0000 TSNO
94908KDBQ DBQ20000617222012906/17/00 22:20:31  5-MIN KDBQ 180420Z AUTO 30007KT 10SM -RA BKN050 OVC070 15/12 A3021 810 80 1000 300/07 RMK AO2 RAB02 P0000 TSNO
94908KDBQ DBQ20000617222512906/17/00 22:25:31  5-MIN KDBQ 180425Z AUTO 31006KT 10SM -RA SCT050 OVC065 15/12 A3021 820 80 1000 310/06 RMK AO2 RAB02 P0000 TSNO
94908KDBQ DBQ20000617223012906/17/00 22:30:31  5-MIN KDBQ 180430Z AUTO 32004KT 10SM -RA SCT050 OVC060 14/12 A3020 820 86 1000 320/04 RMK AO2 RAB02 P0000 TSNO
94908KDBQ DBQ20000617223512906/17/00 22:35:31  5-MIN KDBQ 180435Z AUTO 33004KT 10SM -RA FEW050 OVC060 14/12 A3020 820 86 1000 330/04 RMK AO2 RAB02 P0000 TSNO
94908KDBQ DBQ20000617224012906/17/00 22:40:31  5-MIN KDBQ 180440Z AUTO 33004KT 10SM -RA FEW050 OVC060 15/12 A3020 820 83 1000 330/04 RMK AO2 RAB02 P0000 TSNO
94908KDBQ DBQ20000617224512206/17/00 22:45:31  5-MIN KDBQ 180445Z AUTO 35004KT 10SM -RA OVC060 15/12 A3020 820 83 1100 350/04 RMK AO2 RAB02 P0000 TSNO
94908KDBQ DBQ20000617225013806/17/00 22:50:31  5-MIN KDBQ 180450Z AUTO 35004KT 9SM -RA OVC060 15/12 A3020 820 80 1000 350/04 RMK AO2 RAB02 SLP227 P0001 T01500117 TSNO
94908KDBQ DBQ20000617225513706/17/00 22:55:31  5-MIN KDBQ 180455Z AUTO 00000KT 7SM RA OVC055 15/12 A3020 820 80 1000 000/00 RMK AO2 RAB02 SLP227 P0002 T01500117 TSNO
94908KDBQ DBQ20000617230011506/17/00 23:00:31  5-MIN KDBQ 180500Z AUTO 00000KT 7SM -RA OVC055 15/12 A3020 820 80 1100 000/00 RMK AO2 P0000 TSNO
94908KDBQ DBQ20000617230511506/17/00 23:05:31  5-MIN KDBQ 180505Z AUTO 00000KT 8SM -RA OVC055 15/12 A3020 820 83 1100 000/00 RMK AO2 P0001 TSNO
94908KDBQ DBQ20000617231011606/17/00 23:10:31  5-MIN KDBQ 180510Z AUTO 00000KT 10SM -RA OVC060 14/12 A3020 820 86 1000 000/00 RMK AO2 P0001 TSNO
94908KDBQ DBQ20000617231511606/17/00 23:15:31  5-MIN KDBQ 180515Z AUTO 00000KT 10SM -RA OVC060 15/12 A3020 820 83 1100 000/00 RMK AO2 P0001 TSNO
94908KDBQ DBQ20000617232011606/17/00 23:20:31  5-MIN KDBQ 180520Z AUTO 34003KT 10SM -RA OVC060 15/12 A3020 820 83 1100 340/03 RMK AO2 P0001 TSNO
94908KDBQ DBQ20000617232511606/17/00 23:25:31  5-MIN KDBQ 180525Z AUTO 34005KT 10SM -RA OVC060 14/12 A3019 830 86 1000 340/05 RMK AO2 P0001 TSNO
94908KDBQ DBQ20000617233011606/17/00 23:30:31  5-MIN KDBQ 180530Z AUTO 34008KT 10SM -RA OVC060 14/12 A3019 830 86 1000 340/08 RMK AO2 P0001 TSNO
94908KDBQ DBQ20000617233511606/17/00 23:35:31  5-MIN KDBQ 180535Z AUTO 33009KT 10SM -RA OVC065 14/12 A3018 840 86 1000 330/09 RMK AO2 P0001 TSNO
94908KDBQ DBQ20000617234011506/17/00 23:40:31  5-MIN KDBQ 180540Z AUTO 33009KT 10SM -RA OVC070 14/12 A3018 840 90 900 330/09 RMK AO2 P0001 TSNO
94908KDBQ DBQ20000617234511706/17/00 23:45:31  5-MIN KDBQ 180545Z AUTO 33008KT 10SM OVC065 14/12 A3018 840 90 900 330/08 RMK AO2 RAE41 P0001 TSNO
94908KDBQ DBQ20000617235016906/17/00 23:50:31  5-MIN KDBQ 180550Z AUTO 34007KT 10SM BKN065 14/12 A3017 850 90 1000 340/07 RMK AO2 RAE41 SLP216 P0001 60003 T01390122 10183 20139 402000083 53019 TSNO
94908KDBQ DBQ20000617235516906/17/00 23:55:31  5-MIN KDBQ 180555Z AUTO 01006KT 10SM BKN070 14/12 A3017 850 90 1000 010/06 RMK AO2 RAE41 SLP216 P0001 60003 T01390122 10183 20139 402000083 58008 TSNO
94908KDBQ DBQ20000618000010606/18/00 00:00:31  5-MIN KDBQ 180600Z AUTO 34006KT 10SM SCT070 14/12 A3017 850 86 1000 340/06 RMK AO2 TSNO
94908KDBQ DBQ20000618000510606/18/00 00:05:31  5-MIN KDBQ 180605Z AUTO 33006KT 10SM FEW070 14/12 A3017 850 86 1000 330/06 RMK AO2 TSNO
94908KDBQ DBQ20000618001010606/18/00 00:10:31  5-MIN KDBQ 180610Z AUTO 34007KT 10SM FEW065 14/12 A3017 850 90 1000 340/07 RMK AO2 TSNO
94908KDBQ DBQ20000618001510306/18/00 00:15:31  5-MIN KDBQ 180615Z AUTO 34008KT 10SM CLR 14/12 A3017 850 90 1000 340/08 RMK AO2 TSNO
94908KDBQ DBQ20000618002010306/18/00 00:20:31  5-MIN KDBQ 180620Z AUTO 35007KT 10SM CLR 14/12 A3016 860 90 1000 350/07 RMK AO2 TSNO
94908KDBQ DBQ20000618002510306/18/00 00:25:31  5-MIN KDBQ 180625Z AUTO 35007KT 10SM CLR 14/12 A3017 850 90 1000 350/07 RMK AO2 TSNO
94908KDBQ DBQ20000618003010506/18/00 00:30:31  5-MIN KDBQ 180630Z AUTO 36007KT 10SM FEW095 13/12 A3016 860 93 900 360/07 RMK AO2 TSNO
94908KDBQ DBQ20000618003510506/18/00 00:35:31  5-MIN KDBQ 180635Z AUTO 36007KT 10SM FEW095 13/12 A3016 860 93 900 360/07 RMK AO2 TSNO
94908KDBQ DBQ20000618004010506/18/00 00:40:31  5-MIN KDBQ 180640Z AUTO 36007KT 10SM FEW095 13/12 A3016 860 93 900 360/07 RMK AO2 TSNO
94908KDBQ DBQ20000618004510506/18/00 00:45:31  5-MIN KDBQ 180645Z AUTO 01005KT 10SM SCT090 13/12 A3016 860 93 900 010/05 RMK AO2 TSNO
94908KDBQ DBQ20000618005012206/18/00 00:50:31  5-MIN KDBQ 180650Z AUTO 02006KT 10SM SCT090 13/12 A3015 860 93 900 010/06 RMK AO2 SLP211 T01330122 TSNO
94908KDBQ DBQ20000618005512206/18/00 00:55:31  5-MIN KDBQ 180655Z AUTO 01005KT 10SM BKN090 13/12 A3015 860 93 900 010/05 RMK AO2 SLP211 T01330122 TSNO
94908KDBQ DBQ20000618010010506/18/00 01:00:31  5-MIN KDBQ 180700Z AUTO 02005KT 10SM BKN090 13/12 A3015 860 93 900 020/05 RMK AO2 TSNO
94908KDBQ DBQ20000618010510506/18/00 01:05:31  5-MIN KDBQ 180705Z AUTO 02005KT 10SM BKN090 13/12 A3015 870 93 900 020/05 RMK AO2 TSNO
94908KDBQ DBQ20000618011010506/18/00 01:10:31  5-MIN KDBQ 180710Z AUTO 02005KT 10SM OVC095 13/12 A3015 870 93 900 020/05 RMK AO2 TSNO
94908KDBQ DBQ20000618011510506/18/00 01:15:31  5-MIN KDBQ 180715Z AUTO 02006KT 10SM OVC095 13/12 A3015 870 93 900 020/06 RMK AO2 TSNO
94908KDBQ DBQ20000618012010506/18/00 01:20:31  5-MIN KDBQ 180720Z AUTO 02006KT 10SM OVC095 13/12 A3015 870 93 900 020/06 RMK AO2 TSNO
94908KDBQ DBQ20000618012510506/18/00 01:25:31  5-MIN KDBQ 180725Z AUTO 03006KT 10SM OVC095 13/12 A3015 870 93 900 030/06 RMK AO2 TSNO
94908KDBQ DBQ20000618013010506/18/00 01:30:31  5-MIN KDBQ 180730Z AUTO 02006KT 10SM BKN095 13/12 A3015 870 93 900 020/06 RMK AO2 TSNO
94908KDBQ DBQ20000618013510506/18/00 01:35:31  5-MIN KDBQ 180735Z AUTO 02007KT 10SM BKN095 13/12 A3015 870 96 800 020/07 RMK AO2 TSNO
94908KDBQ DBQ20000618014010506/18/00 01:40:31  5-MIN KDBQ 180740Z AUTO 01006KT 10SM SCT095 13/12 A3015 870 93 800 010/06 RMK AO2 TSNO
94908KDBQ DBQ20000618014510506/18/00 01:45:31  5-MIN KDBQ 180745Z AUTO 01006KT 10SM SCT095 13/12 A3015 870 93 800 010/06 RMK AO2 TSNO
94908KDBQ DBQ20000618015012206/18/00 01:50:31  5-MIN KDBQ 180750Z AUTO 02007KT 10SM FEW095 13/12 A3015 870 93 800 010/07 RMK AO2 SLP210 T01280117 TSNO
94908KDBQ DBQ20000618015511906/18/00 01:55:31  5-MIN KDBQ 180755Z AUTO 01007KT 10SM CLR 12/12 A3015 870 96 800 010/07 RMK AO2 SLP209 T01220117 TSNO
94908KDBQ DBQ20000618020010206/18/00 02:00:31  5-MIN KDBQ 180800Z AUTO 01006KT 10SM CLR 12/12 A3015 870 96 800 010/06 RMK AO2 TSNO
94908KDBQ DBQ20000618020510206/18/00 02:05:31  5-MIN KDBQ 180805Z AUTO 02006KT 10SM CLR 12/12 A3015 870 96 800 020/06 RMK AO2 TSNO
94908KDBQ DBQ20000618021010206/18/00 02:10:31  5-MIN KDBQ 180810Z AUTO 03006KT 10SM CLR 12/12 A3015 870 96 800 030/06 RMK AO2 TSNO
94908KDBQ DBQ20000618021510106/18/00 02:15:31  5-MIN KDBQ 180815Z AUTO 03007KT 9SM CLR 12/12 A3015 870 96 800 030/07 RMK AO2 TSNO
94908KDBQ DBQ20000618022010106/18/00 02:20:31  5-MIN KDBQ 180820Z AUTO 03007KT 9SM CLR 12/12 A3014 870 96 800 030/07 RMK AO2 TSNO
94908KDBQ DBQ20000618022510206/18/00 02:25:31  5-MIN KDBQ 180825Z AUTO 04007KT 10SM CLR 12/12 A3014 870 96 800 040/07 RMK AO2 TSNO
94908KDBQ DBQ20000618023010206/18/00 02:30:31  5-MIN KDBQ 180830Z AUTO 04007KT 10SM CLR 12/12 A3014 880 96 800 040/07 RMK AO2 TSNO
94908KDBQ DBQ20000618023510206/18/00 02:35:31  5-MIN KDBQ 180835Z AUTO 04007KT 10SM CLR 12/11 A3014 880 93 800 040/07 RMK AO2 TSNO
94908KDBQ DBQ20000618024010206/18/00 02:40:31  5-MIN KDBQ 180840Z AUTO 04006KT 10SM CLR 12/11 A3013 880 93 800 040/06 RMK AO2 TSNO
94908KDBQ DBQ20000618024510206/18/00 02:45:31  5-MIN KDBQ 180845Z AUTO 04006KT 10SM CLR 12/11 A3013 880 93 800 040/06 RMK AO2 TSNO
94908KDBQ DBQ20000618025012506/18/00 02:50:31  5-MIN KDBQ 180850Z AUTO 04005KT 10SM CLR 12/11 A3013 880 93 800 040/05 RMK AO2 SLP202 T01220111 58008 TSNO
94908KDBQ DBQ20000618025512506/18/00 02:55:31  5-MIN KDBQ 180855Z AUTO 06005KT 10SM CLR 12/11 A3013 890 89 800 060/05 RMK AO2 SLP202 T01220106 58013 TSNO
94908KDBQ DBQ20000618030010206/18/00 03:00:31  5-MIN KDBQ 180900Z AUTO 08005KT 10SM CLR 12/11 A3013 890 93 700 080/05 RMK AO2 TSNO
94908KDBQ DBQ20000618030510206/18/00 03:05:31  5-MIN KDBQ 180905Z AUTO 08005KT 10SM CLR 12/11 A3013 890 93 700 080/05 RMK AO2 TSNO
94908KDBQ DBQ20000618031010206/18/00 03:10:31  5-MIN KDBQ 180910Z AUTO 08005KT 10SM CLR 11/11 A3013 880 96 700 080/05 RMK AO2 TSNO
94908KDBQ DBQ20000618031510206/18/00 03:15:31  5-MIN KDBQ 180915Z AUTO 09006KT 10SM CLR 12/11 A3013 880 93 700 090/06 RMK AO2 TSNO
94908KDBQ DBQ20000618032010206/18/00 03:20:31  5-MIN KDBQ 180920Z AUTO 08006KT 10SM CLR 12/10 A3013 890 89 700 080/06 RMK AO2 TSNO
94908KDBQ DBQ20000618032510206/18/00 03:25:31  5-MIN KDBQ 180925Z AUTO 08005KT 10SM CLR 12/11 A3013 890 93 700 080/05 RMK AO2 TSNO
94908KDBQ DBQ20000618033010206/18/00 03:30:31  5-MIN KDBQ 180930Z AUTO 08005KT 10SM CLR 12/11 A3013 880 89 800 080/05 RMK AO2 TSNO
94908KDBQ DBQ20000618033510206/18/00 03:35:31  5-MIN KDBQ 180935Z AUTO 08004KT 10SM CLR 12/11 A3013 880 89 800 080/04 RMK AO2 TSNO
94908KDBQ DBQ20000618034010206/18/00 03:40:31  5-MIN KDBQ 180940Z AUTO 08004KT 10SM CLR 12/11 A3013 880 93 700 070/04 RMK AO2 TSNO
94908KDBQ DBQ20000618034510206/18/00 03:45:31  5-MIN KDBQ 180945Z AUTO 08004KT 10SM CLR 12/11 A3013 880 93 700 080/04 RMK AO2 TSNO
94908KDBQ DBQ20000618035011906/18/00 03:50:31  5-MIN KDBQ 180950Z AUTO 00000KT 10SM CLR 12/11 A3013 880 89 800 000/00 RMK AO2 SLP204 T01220106 TSNO
94908KDBQ DBQ20000618035511906/18/00 03:55:31  5-MIN KDBQ 180955Z AUTO 00000KT 10SM CLR 11/10 A3013 880 93 700 000/00 RMK AO2 SLP204 T01110100 TSNO
94908KDBQ DBQ20000618040010206/18/00 04:00:31  5-MIN KDBQ 181000Z AUTO 00000KT 10SM CLR 11/10 A3013 880 93 700 000/00 RMK AO2 TSNO
94908KDBQ DBQ20000618040510206/18/00 04:05:31  5-MIN KDBQ 181005Z AUTO 00000KT 10SM CLR 12/10 A3013 880 89 700 000/00 RMK AO2 TSNO
94908KDBQ DBQ20000618041010206/18/00 04:10:31  5-MIN KDBQ 181010Z AUTO 00000KT 10SM CLR 11/10 A3013 880 93 700 000/00 RMK AO2 TSNO
94908KDBQ DBQ20000618041510206/18/00 04:15:31  5-MIN KDBQ 181015Z AUTO 00000KT 10SM CLR 12/10 A3013 880 89 700 000/00 RMK AO2 TSNO
94908KDBQ DBQ20000618042010206/18/00 04:20:31  5-MIN KDBQ 181020Z AUTO 00000KT 10SM CLR 12/10 A3014 880 89 700 000/00 RMK AO2 TSNO
94908KDBQ DBQ20000618042510206/18/00 04:25:31  5-MIN KDBQ 181025Z AUTO 05003KT 10SM CLR 12/10 A3014 880 86 800 050/03 RMK AO2 TSNO
94908KDBQ DBQ20000618043010206/18/00 04:30:31  5-MIN KDBQ 181030Z AUTO 06003KT 10SM CLR 12/10 A3014 880 89 700 060/03 RMK AO2 TSNO
94908KDBQ DBQ20000618043510206/18/00 04:35:31  5-MIN KDBQ 181035Z AUTO 08003KT 10SM CLR 12/10 A3014 880 89 700 070/03 RMK AO2 TSNO
94908KDBQ DBQ20000618044010206/18/00 04:40:31  5-MIN KDBQ 181040Z AUTO 09003KT 10SM CLR 11/09 A3014 880 93 600 090/03 RMK AO2 TSNO
94908KDBQ DBQ20000618044509706/18/00 04:45:31  5-MIN KDBQ 181045Z 00000KT 10SM CLR 11/10 A3014 870 96 600 000/00 RMK AO2 TSNO
94908KDBQ DBQ20000618045010906/18/00 04:50:31  5-MIN KDBQ 181050Z 00000KT 10SM CLR 11/10 A3014 870 93 700 000/00 RMK AO2 SLP207 T01110100
94908KDBQ DBQ20000618045510906/18/00 04:55:31  5-MIN KDBQ 181055Z 00000KT 10SM CLR 12/10 A3015 870 89 700 000/00 RMK AO2 SLP209 T01170100
94908KDBQ DBQ20000618050009206/18/00 05:00:31  5-MIN KDBQ 181100Z 11004KT 10SM CLR 12/10 A3015 870 86 800 110/04 RMK AO2
94908KDBQ DBQ20000618050509806/18/00 05:05:31  5-MIN KDBQ 181105Z 11004KT 10SM CLR 12/10 A3015 870 86 800 110/04 RMK AO2 P0001
94908KDBQ DBQ20000618051009806/18/00 05:10:31  5-MIN KDBQ 181110Z 11004KT 10SM CLR 12/11 A3015 870 89 800 110/04 RMK AO2 P0001
94908KDBQ DBQ20000618051509806/18/00 05:15:31  5-MIN KDBQ 181115Z 11003KT 10SM CLR 13/11 A3015 860 86 800 110/03 RMK AO2 P0001
94908KDBQ DBQ20000618052009806/18/00 05:20:31  5-MIN KDBQ 181120Z 11004KT 10SM CLR 13/11 A3015 870 86 800 110/04 RMK AO2 P0001
94908KDBQ DBQ20000618052509806/18/00 05:25:31  5-MIN KDBQ 181125Z 11004KT 10SM CLR 13/11 A3015 870 86 800 110/04 RMK AO2 P0001
94908KDBQ DBQ20000618053009806/18/00 05:30:31  5-MIN KDBQ 181130Z 11004KT 10SM CLR 13/11 A3015 870 86 900 110/04 RMK AO2 P0001
94908KDBQ DBQ20000618053509806/18/00 05:35:31  5-MIN KDBQ 181135Z 12004KT 10SM CLR 13/11 A3015 860 86 900 120/04 RMK AO2 P0001
94908KDBQ DBQ20000618054009806/18/00 05:40:31  5-MIN KDBQ 181140Z 12004KT 10SM CLR 13/11 A3015 860 86 900 120/04 RMK AO2 P0001
94908KDBQ DBQ20000618054509906/18/00 05:45:31  5-MIN KDBQ 181145Z 12005KT 10SM CLR 14/11 A3015 860 83 1000 120/05 RMK AO2 P0001
94908KDBQ DBQ20000618055014606/18/00 05:50:31  5-MIN KDBQ 181150Z 12003KT 10SM CLR 14/12 A3015 860 86 1000 120/03 RMK AO2 SLP211 P0001 60001 70004 T01390117 10139 20106 58013
94908KDBQ DBQ20000618055514606/18/00 05:55:31  5-MIN KDBQ 181155Z 11003KT 10SM CLR 14/12 A3016 860 83 1000 110/03 RMK AO2 SLP211 P0001 60001 70004 T01440117 10144 20106 53009
94908KDBQ DBQ20000618060009306/18/00 06:00:31  5-MIN KDBQ 181200Z 00000KT 10SM CLR 14/11 A3016 860 80 1000 000/00 RMK AO2
94908KDBQ DBQ20000618060509306/18/00 06:05:31  5-MIN KDBQ 181205Z 00000KT 10SM CLR 15/12 A3016 860 80 1100 000/00 RMK AO2
94908KDBQ DBQ20000618061009306/18/00 06:10:31  5-MIN KDBQ 181210Z 00000KT 10SM CLR 15/11 A3016 850 77 1100 000/00 RMK AO2
94908KDBQ DBQ20000618061509306/18/00 06:15:31  5-MIN KDBQ 181215Z 00000KT 10SM CLR 15/11 A3016 850 77 1100 000/00 RMK AO2
94908KDBQ DBQ20000618062009306/18/00 06:20:31  5-MIN KDBQ 181220Z 00000KT 10SM CLR 15/11 A3016 850 77 1100 000/00 RMK AO2
94908KDBQ DBQ20000618062509306/18/00 06:25:31  5-MIN KDBQ 181225Z 00000KT 10SM CLR 15/12 A3017 850 80 1100 000/00 RMK AO2
94908KDBQ DBQ20000618063009306/18/00 06:30:31  5-MIN KDBQ 181230Z 14003KT 10SM CLR 16/11 A3017 850 74 1200 140/03 RMK AO2
94908KDBQ DBQ20000618063509306/18/00 06:35:31  5-MIN KDBQ 181235Z 16003KT 10SM CLR 16/12 A3017 850 77 1200 160/03 RMK AO2
94908KDBQ DBQ20000618064009306/18/00 06:40:31  5-MIN KDBQ 181240Z 15003KT 10SM CLR 16/12 A3016 850 75 1200 140/03 RMK AO2
94908KDBQ DBQ20000618064509306/18/00 06:45:31  5-MIN KDBQ 181245Z 15003KT 10SM CLR 16/11 A3017 850 72 1200 150/03 RMK AO2
94908KDBQ DBQ20000618065011006/18/00 06:50:31  5-MIN KDBQ 181250Z 15004KT 10SM CLR 16/11 A3017 850 72 1200 150/04 RMK AO2 SLP214 T01610111
94908KDBQ DBQ20000618065511006/18/00 06:55:31  5-MIN KDBQ 181255Z 16003KT 10SM CLR 17/12 A3017 850 72 1300 160/03 RMK AO2 SLP215 T01670117
94908KDBQ DBQ20000618070009306/18/00 07:00:31  5-MIN KDBQ 181300Z 16004KT 10SM CLR 17/11 A3017 850 69 1300 160/04 RMK AO2
94908KDBQ DBQ20000618070509306/18/00 07:05:31  5-MIN KDBQ 181305Z 17006KT 10SM CLR 17/11 A3017 840 69 1300 170/06 RMK AO2
94908KDBQ DBQ20000618071009306/18/00 07:10:31  5-MIN KDBQ 181310Z 17006KT 10SM CLR 17/12 A3017 840 72 1300 170/06 RMK AO2
94908KDBQ DBQ20000618071509306/18/00 07:15:31  5-MIN KDBQ 181315Z 19007KT 10SM CLR 17/12 A3018 840 75 1300 190/07 RMK AO2
94908KDBQ DBQ20000618072009306/18/00 07:20:31  5-MIN KDBQ 181320Z 17005KT 10SM CLR 17/12 A3018 840 75 1300 170/05 RMK AO2
94908KDBQ DBQ20000618072509306/18/00 07:25:31  5-MIN KDBQ 181325Z 18006KT 10SM CLR 17/12 A3018 840 72 1300 170/06 RMK AO2
94908KDBQ DBQ20000618073009306/18/00 07:30:31  5-MIN KDBQ 181330Z 18006KT 10SM CLR 17/12 A3018 840 72 1300 180/06 RMK AO2
94908KDBQ DBQ20000618073509306/18/00 07:35:31  5-MIN KDBQ 181335Z 17005KT 10SM CLR 17/11 A3018 840 69 1300 170/05 RMK AO2
94908KDBQ DBQ20000618074009306/18/00 07:40:31  5-MIN KDBQ 181340Z 17005KT 10SM CLR 17/11 A3018 840 67 1300 170/05 RMK AO2
94908KDBQ DBQ20000618074509306/18/00 07:45:31  5-MIN KDBQ 181345Z 17004KT 10SM CLR 17/11 A3018 840 67 1300 170/04 RMK AO2
94908KDBQ DBQ20000618075011006/18/00 07:50:31  5-MIN KDBQ 181350Z 17005KT 10SM CLR 17/11 A3018 840 64 1300 170/05 RMK AO2 SLP218 T01720106
94908KDBQ DBQ20000618075511006/18/00 07:55:31  5-MIN KDBQ 181355Z 18006KT 10SM CLR 18/12 A3018 840 67 1400 180/06 RMK AO2 SLP218 T01780117
94908KDBQ DBQ20000618080009306/18/00 08:00:31  5-MIN KDBQ 181400Z 16005KT 10SM CLR 17/12 A3018 840 69 1300 160/05 RMK AO2
94908KDBQ DBQ20000618080509306/18/00 08:05:31  5-MIN KDBQ 181405Z 18006KT 10SM CLR 18/12 A3018 840 67 1400 180/06 RMK AO2
94908KDBQ DBQ20000618081009306/18/00 08:10:31  5-MIN KDBQ 181410Z 18006KT 10SM CLR 18/11 A3018 840 64 1400 180/06 RMK AO2
94908KDBQ DBQ20000618081509306/18/00 08:15:31  5-MIN KDBQ 181415Z 17007KT 10SM CLR 18/11 A3018 840 62 1400 170/07 RMK AO2
94908KDBQ DBQ20000618082009306/18/00 08:20:31  5-MIN KDBQ 181420Z 17005KT 10SM CLR 18/11 A3018 840 64 1400 160/05 RMK AO2
94908KDBQ DBQ20000618082509306/18/00 08:25:31  5-MIN KDBQ 181425Z VRB04KT 10SM CLR 18/11 A3018 840 62 1400 VRB/04 RMK AO2
94908KDBQ DBQ20000618083009306/18/00 08:30:31  5-MIN KDBQ 181430Z 18007KT 10SM CLR 18/12 A3018 840 65 1500 180/07 RMK AO2
94908KDBQ DBQ20000618083509306/18/00 08:35:31  5-MIN KDBQ 181435Z 17006KT 10SM CLR 18/11 A3018 840 62 1500 160/06 RMK AO2
94908KDBQ DBQ20000618084009306/18/00 08:40:31  5-MIN KDBQ 181440Z 19006KT 10SM CLR 18/11 A3018 840 62 1500 190/06 RMK AO2
94908KDBQ DBQ20000618084509306/18/00 08:45:31  5-MIN KDBQ 181445Z 18007KT 10SM CLR 18/11 A3018 840 62 1500 180/07 RMK AO2
94908KDBQ DBQ20000618085011606/18/00 08:50:31  5-MIN KDBQ 181450Z 17006KT 10SM CLR 18/11 A3018 840 60 1500 170/06 RMK AO2 SLP219 T01830106 53009
94908KDBQ DBQ20000618085511606/18/00 08:55:31  5-MIN KDBQ 181455Z 17007KT 10SM CLR 18/11 A3018 840 62 1500 170/07 RMK AO2 SLP219 T01830111 51008
94908KDBQ DBQ20000618090009306/18/00 09:00:31  5-MIN KDBQ 181500Z 18006KT 10SM CLR 18/11 A3018 840 60 1500 180/06 RMK AO2
94908KDBQ DBQ20000618090509306/18/00 09:05:31  5-MIN KDBQ 181505Z VRB06KT 10SM CLR 18/10 A3018 840 58 1500 VRB/06 RMK AO2
94908KDBQ DBQ20000618091009306/18/00 09:10:31  5-MIN KDBQ 181510Z 23005KT 10SM CLR 19/10 A3018 840 56 1500 230/05 RMK AO2
94908KDBQ DBQ20000618091509306/18/00 09:15:31  5-MIN KDBQ 181515Z 19007KT 10SM CLR 19/11 A3018 840 58 1500 190/07 RMK AO2
94908KDBQ DBQ20000618092009306/18/00 09:20:31  5-MIN KDBQ 181520Z 19007KT 10SM CLR 19/11 A3018 840 58 1500 190/07 RMK AO2
94908KDBQ DBQ20000618092509306/18/00 09:25:31  5-MIN KDBQ 181525Z 18008KT 10SM CLR 19/11 A3018 840 60 1500 180/08 RMK AO2
94908KDBQ DBQ20000618093009306/18/00 09:30:31  5-MIN KDBQ 181530Z 21007KT 10SM CLR 19/11 A3018 840 58 1500 210/07 RMK AO2
94908KDBQ DBQ20000618093509306/18/00 09:35:31  5-MIN KDBQ 181535Z 22006KT 10SM CLR 19/11 A3018 840 58 1500 220/06 RMK AO2
94908KDBQ DBQ20000618094009306/18/00 09:40:31  5-MIN KDBQ 181540Z 21007KT 10SM CLR 19/11 A3018 840 56 1600 200/07 RMK AO2
94908KDBQ DBQ20000618094509306/18/00 09:45:31  5-MIN KDBQ 181545Z 19008KT 10SM CLR 19/11 A3018 840 58 1500 190/08 RMK AO2
94908KDBQ DBQ20000618095011006/18/00 09:50:31  5-MIN KDBQ 181550Z VRB06KT 10SM CLR 19/11 A3018 830 58 1500 VRB/06 RMK AO2 SLP220 T01890106
94908KDBQ DBQ20000618095511006/18/00 09:55:31  5-MIN KDBQ 181555Z 20007KT 10SM CLR 19/11 A3018 840 58 1600 200/07 RMK AO2 SLP220 T01940111
94908KDBQ DBQ20000618100009306/18/00 10:00:31  5-MIN KDBQ 181600Z VRB06KT 10SM CLR 19/12 A3018 840 60 1600 VRB/06 RMK AO2
94908KDBQ DBQ20000618100510906/18/00 10:05:31  5-MIN KDBQ 181605Z 21007KT 140V310 10SM CLR 20/12 A3018 840 58 1700 210/07 140V310 RMK AO2
94908KDBQ DBQ20000618101009306/18/00 10:10:31  5-MIN KDBQ 181610Z 20009KT 10SM CLR 20/11 A3018 840 54 1700 200/09 RMK AO2
94908KDBQ DBQ20000618101509306/18/00 10:15:31  5-MIN KDBQ 181615Z 21009KT 10SM CLR 20/11 A3018 840 56 1700 210/09 RMK AO2
94908KDBQ DBQ20000618102009306/18/00 10:20:31  5-MIN KDBQ 181620Z VRB03KT 10SM CLR 20/11 A3018 840 56 1700 VRB/03 RMK AO2
94908KDBQ DBQ20000618102509306/18/00 10:25:31  5-MIN KDBQ 181625Z VRB06KT 10SM CLR 20/11 A3018 840 54 1700 VRB/06 RMK AO2
94908KDBQ DBQ20000618103009306/18/00 10:30:31  5-MIN KDBQ 181630Z 21008KT 10SM CLR 20/10 A3018 840 52 1700 210/08 RMK AO2
94908KDBQ DBQ20000618103509306/18/00 10:35:31  5-MIN KDBQ 181635Z 23008KT 10SM CLR 20/10 A3018 840 52 1700 230/08 RMK AO2
94908KDBQ DBQ20000618104009306/18/00 10:40:31  5-MIN KDBQ 181640Z 22008KT 10SM CLR 21/11 A3018 840 54 1700 220/08 RMK AO2
94908KDBQ DBQ20000618104509306/18/00 10:45:31  5-MIN KDBQ 181645Z 21006KT 10SM CLR 21/11 A3018 840 54 1700 210/06 RMK AO2
94908KDBQ DBQ20000618105011006/18/00 10:50:31  5-MIN KDBQ 181650Z VRB06KT 10SM CLR 21/11 A3018 840 54 1700 VRB/06 RMK AO2 SLP218 T02060111
94908KDBQ DBQ20000618105511006/18/00 10:55:31  5-MIN KDBQ 181655Z 25008KT 10SM CLR 21/11 A3018 830 52 1800 250/08 RMK AO2 SLP219 T02110111
94908KDBQ DBQ20000618110009306/18/00 11:00:31  5-MIN KDBQ 181700Z 22006KT 10SM CLR 21/10 A3018 840 50 1700 220/06 RMK AO2
94908KDBQ DBQ20000618110509306/18/00 11:05:31  5-MIN KDBQ 181705Z 25009KT 10SM CLR 21/11 A3018 840 52 1700 250/09 RMK AO2
94908KDBQ DBQ20000618111010906/18/00 11:10:31  5-MIN KDBQ 181710Z 23008KT 200V280 10SM CLR 21/12 A3018 840 54 1800 220/08 200V280 RMK AO2
94908KDBQ DBQ20000618111509306/18/00 11:15:31  5-MIN KDBQ 181715Z VRB06KT 10SM CLR 20/11 A3018 840 54 1700 VRB/06 RMK AO2
94908KDBQ DBQ20000618112009306/18/00 11:20:31  5-MIN KDBQ 181720Z 22006KT 10SM CLR 21/11 A3018 840 54 1700 220/06 RMK AO2
94908KDBQ DBQ20000618112509606/18/00 11:25:31  5-MIN KDBQ 181725Z 19006KT 10SM FEW043 21/12 A3018 840 56 1700 190/06 RMK AO2
94908KDBQ DBQ20000618113009606/18/00 11:30:31  5-MIN KDBQ 181730Z 19008KT 10SM FEW043 21/12 A3017 850 54 1800 190/08 RMK AO2
94908KDBQ DBQ20000618113509606/18/00 11:35:31  5-MIN KDBQ 181735Z 24009KT 10SM FEW043 21/12 A3018 840 56 1800 240/09 RMK AO2
94908KDBQ DBQ20000618114009606/18/00 11:40:31  5-MIN KDBQ 181740Z 25009KT 10SM FEW043 21/12 A3018 840 56 1800 250/09 RMK AO2
94908KDBQ DBQ20000618114509606/18/00 11:45:31  5-MIN KDBQ 181745Z 21007KT 10SM FEW043 21/12 A3017 850 54 1800 200/07 RMK AO2
94908KDBQ DBQ20000618115013106/18/00 11:50:31  5-MIN KDBQ 181750Z VRB05KT 10SM SCT043 21/11 A3017 850 52 1800 VRB/05 RMK AO2 SLP215 T02110111 10217 20144 51008
94908KDBQ DBQ20000618115513106/18/00 11:55:31  5-MIN KDBQ 181755Z 24007KT 10SM SCT043 21/12 A3017 850 54 1800 240/07 RMK AO2 SLP214 T02110117 10217 20144 58003
94908KDBQ DBQ20000618120009606/18/00 12:00:31  5-MIN KDBQ 181800Z 22008KT 10SM FEW043 21/12 A3017 850 54 1800 220/08 RMK AO2
94908KDBQ DBQ20000618120509606/18/00 12:05:31  5-MIN KDBQ 181805Z 23008KT 10SM FEW045 22/12 A3017 850 52 1900 230/08 RMK AO2
94908KDBQ DBQ20000618121009606/18/00 12:10:31  5-MIN KDBQ 181810Z 22005KT 10SM FEW045 21/11 A3017 850 52 1800 220/05 RMK AO2
94908KDBQ DBQ20000618121511206/18/00 12:15:31  5-MIN KDBQ 181815Z 19008KT 160V220 10SM FEW045 21/11 A3016 860 52 1800 190/08 160V220 RMK AO2
94908KDBQ DBQ20000618122010906/18/00 12:20:31  5-MIN KDBQ 181820Z 22008KT 160V240 10SM CLR 21/12 A3016 860 54 1800 220/08 160V240 RMK AO2
94908KDBQ DBQ20000618122509306/18/00 12:25:31  5-MIN KDBQ 181825Z 24005KT 10SM CLR 21/11 A3016 860 52 1800 240/05 RMK AO2
94908KDBQ DBQ20000618123009306/18/00 12:30:31  5-MIN KDBQ 181830Z VRB03KT 10SM CLR 22/11 A3016 860 50 1900 VRB/03 RMK AO2
94908KDBQ DBQ20000618123510906/18/00 12:35:31  5-MIN KDBQ 181835Z 22007KT 180V260 10SM CLR 22/12 A3015 860 52 1900 220/07 180V260 RMK AO2
94908KDBQ DBQ20000618124010906/18/00 12:40:31  5-MIN KDBQ 181840Z 19007KT 150V250 10SM CLR 22/12 A3016 860 52 1900 190/07 150V250 RMK AO2
94908KDBQ DBQ20000618124509306/18/00 12:45:31  5-MIN KDBQ 181845Z VRB06KT 10SM CLR 22/12 A3015 860 52 1900 VRB/06 RMK AO2
94908KDBQ DBQ20000618125011006/18/00 12:50:31  5-MIN KDBQ 181850Z 19008KT 10SM CLR 22/12 A3015 860 52 1900 190/08 RMK AO2 SLP208 T02170117
94908KDBQ DBQ20000618125511306/18/00 12:55:31  5-MIN KDBQ 181855Z 20006KT 10SM FEW045 22/12 A3015 870 52 1900 200/06 RMK AO2 SLP208 T02170117
94908KDBQ DBQ20000618130009606/18/00 13:00:31  5-MIN KDBQ 181900Z 21008KT 10SM FEW045 22/12 A3015 870 52 1900 210/08 RMK AO2
94908KDBQ DBQ20000618130509606/18/00 13:05:31  5-MIN KDBQ 181905Z 22004KT 10SM FEW049 22/12 A3015 870 52 1900 220/04 RMK AO2
94908KDBQ DBQ20000618131009606/18/00 13:10:31  5-MIN KDBQ 181910Z 19008KT 10SM FEW047 22/12 A3015 870 51 1900 190/08 RMK AO2
94908KDBQ DBQ20000618131509606/18/00 13:15:31  5-MIN KDBQ 181915Z 18006KT 10SM FEW047 22/13 A3015 870 54 1900 180/06 RMK AO2
94908KDBQ DBQ20000618132009606/18/00 13:20:31  5-MIN KDBQ 181920Z 22006KT 10SM FEW047 22/12 A3015 870 51 1900 220/06 RMK AO2
94908KDBQ DBQ20000618132509606/18/00 13:25:31  5-MIN KDBQ 181925Z VRB04KT 10SM FEW047 22/11 A3015 870 49 1900 VRB/04 RMK AO2
94908KDBQ DBQ20000618133009606/18/00 13:30:31  5-MIN KDBQ 181930Z VRB03KT 10SM FEW047 22/12 A3015 870 51 1900 VRB/03 RMK AO2
94908KDBQ DBQ20000618133509606/18/00 13:35:31  5-MIN KDBQ 181935Z 20005KT 10SM FEW047 22/12 A3014 870 52 2000 200/05 RMK AO2
94908KDBQ DBQ20000618134011206/18/00 13:40:31  5-MIN KDBQ 181940Z 21007KT 180V240 10SM FEW047 22/12 A3014 870 51 2000 210/07 180V240 RMK AO2
94908KDBQ DBQ20000618134509606/18/00 13:45:31  5-MIN KDBQ 181945Z 26007KT 10SM FEW047 23/12 A3015 870 51 2000 250/07 RMK AO2
94908KDBQ DBQ20000618135011306/18/00 13:50:31  5-MIN KDBQ 181950Z 00000KT 10SM FEW047 22/11 A3014 870 50 1900 000/00 RMK AO2 SLP206 T02170111
94908KDBQ DBQ20000618135511306/18/00 13:55:31  5-MIN KDBQ 181955Z 22009KT 10SM FEW049 22/11 A3014 870 49 2000 220/09 RMK AO2 SLP205 T02220111
94908KDBQ DBQ20000618140010306/18/00 14:00:31  5-MIN KDBQ 182000Z 24006KT 10SM SCT049 SCT055 22/12 A3014 880 51 2000 240/06 RMK AO2
94908KDBQ DBQ20000618140509606/18/00 14:05:31  5-MIN KDBQ 182005Z 20007KT 10SM SCT049 23/13 A3014 880 53 2000 200/07 RMK AO2
94908KDBQ DBQ20000618141009606/18/00 14:10:31  5-MIN KDBQ 182010Z 23005KT 10SM SCT049 23/12 A3013 880 51 2000 230/05 RMK AO2
94908KDBQ DBQ20000618141512506/18/00 14:15:31  5-MIN KDBQ 182015Z 22008G14KT 150V250 10SM FEW049 SCT055 23/13 A3013 880 53 2000 220/08G14 150V250 RMK AO2
94908KDBQ DBQ20000618142010206/18/00 14:20:31  5-MIN KDBQ 182020Z 22007G14KT 10SM FEW049 23/12 A3013 880 49 2000 220/07G14 RMK AO2
94908KDBQ DBQ20000618142509606/18/00 14:25:31  5-MIN KDBQ 182025Z 23008KT 10SM SCT049 23/11 A3013 880 47 2000 230/08 RMK AO2
94908KDBQ DBQ20000618143009606/18/00 14:30:31  5-MIN KDBQ 182030Z 24006KT 10SM SCT049 23/11 A3013 880 47 2000 240/06 RMK AO2
94908KDBQ DBQ20000618143509606/18/00 14:35:31  5-MIN KDBQ 182035Z 19007KT 10SM FEW049 23/12 A3013 890 51 2000 190/07 RMK AO2
94908KDBQ DBQ20000618144009606/18/00 14:40:31  5-MIN KDBQ 182040Z 21009KT 10SM SCT049 23/12 A3013 890 51 2000 200/09 RMK AO2
94908KDBQ DBQ20000618144509606/18/00 14:45:31  5-MIN KDBQ 182045Z 21008KT 10SM SCT049 23/12 A3013 890 49 2000 210/08 RMK AO2
94908KDBQ DBQ20000618145011906/18/00 14:50:31  5-MIN KDBQ 182050Z 20006KT 10SM FEW049 23/12 A3013 890 49 2000 200/06 RMK AO2 SLP199 T02280117 58003
94908KDBQ DBQ20000618145511906/18/00 14:55:31  5-MIN KDBQ 182055Z 16010KT 10SM SCT049 23/12 A3012 890 51 2000 160/10 RMK AO2 SLP198 T02280122 56016
94908KDBQ DBQ20000618150009606/18/00 15:00:31  5-MIN KDBQ 182100Z 18010KT 10SM SCT049 22/12 A3012 890 51 2000 180/10 RMK AO2
94908KDBQ DBQ20000618150509606/18/00 15:05:31  5-MIN KDBQ 182105Z 21010KT 10SM SCT049 23/12 A3012 890 49 2100 200/10 RMK AO2
94908KDBQ DBQ20000618151011206/18/00 15:10:31  5-MIN KDBQ 182110Z 24008KT 180V260 10SM SCT049 22/12 A3012 900 51 2000 230/08 180V260 RMK AO2
94908KDBQ DBQ20000618151509606/18/00 15:15:31  5-MIN KDBQ 182115Z 17010KT 10SM FEW049 23/12 A3012 890 49 2000 170/10 RMK AO2
94908KDBQ DBQ20000618152009606/18/00 15:20:31  5-MIN KDBQ 182120Z 18006KT 10SM FEW049 23/12 A3012 900 49 2000 180/06 RMK AO2
94908KDBQ DBQ20000618152509606/18/00 15:25:31  5-MIN KDBQ 182125Z 21011KT 10SM FEW049 23/12 A3011 900 49 2000 200/11 RMK AO2
94908KDBQ DBQ20000618153009606/18/00 15:30:31  5-MIN KDBQ 182130Z 19009KT 10SM FEW049 23/11 A3011 900 47 2000 190/09 RMK AO2
94908KDBQ DBQ20000618153509606/18/00 15:35:31  5-MIN KDBQ 182135Z 20011KT 10SM FEW050 23/12 A3011 900 49 2100 200/11 RMK AO2
94908KDBQ DBQ20000618154009606/18/00 15:40:31  5-MIN KDBQ 182140Z 17008KT 10SM FEW050 23/12 A3011 900 49 2000 170/08 RMK AO2
94908KDBQ DBQ20000618154509606/18/00 15:45:31  5-MIN KDBQ 182145Z 19011KT 10SM FEW055 23/12 A3011 900 47 2100 190/11 RMK AO2
94908KDBQ DBQ20000618155011306/18/00 15:50:31  5-MIN KDBQ 182150Z 20008KT 10SM FEW055 23/11 A3011 900 47 2100 200/08 RMK AO2 SLP194 T02280111
94908KDBQ DBQ20000618155511306/18/00 15:55:31  5-MIN KDBQ 182155Z 18009KT 10SM FEW055 23/11 A3011 900 47 2100 180/09 RMK AO2 SLP194 T02280111
94908KDBQ DBQ20000618160009606/18/00 16:00:31  5-MIN KDBQ 182200Z 20009KT 10SM FEW050 23/11 A3011 900 47 2100 200/09 RMK AO2
94908KDBQ DBQ20000618160509606/18/00 16:05:31  5-MIN KDBQ 182205Z 19010KT 10SM FEW055 23/12 A3011 910 49 2100 190/10 RMK AO2
94908KDBQ DBQ20000618161009606/18/00 16:10:31  5-MIN KDBQ 182210Z 20009KT 10SM FEW055 23/11 A3011 910 47 2100 200/09 RMK AO2
94908KDBQ DBQ20000618161509306/18/00 16:15:31  5-MIN KDBQ 182215Z 19011KT 10SM CLR 23/12 A3011 910 49 2100 190/11 RMK AO2
94908KDBQ DBQ20000618162009306/18/00 16:20:31  5-MIN KDBQ 182220Z 18012KT 10SM CLR 23/12 A3011 910 49 2100 180/12 RMK AO2
94908KDBQ DBQ20000618162509306/18/00 16:25:31  5-MIN KDBQ 182225Z 19010KT 10SM CLR 23/11 A3011 910 47 2100 180/10 RMK AO2
94908KDBQ DBQ20000618163009306/18/00 16:30:31  5-MIN KDBQ 182230Z 21010KT 10SM CLR 23/12 A3010 910 49 2100 210/10 RMK AO2
94908KDBQ DBQ20000618163509306/18/00 16:35:31  5-MIN KDBQ 182235Z 19009KT 10SM CLR 23/11 A3011 910 47 2100 190/09 RMK AO2
94908KDBQ DBQ20000618164009306/18/00 16:40:31  5-MIN KDBQ 182240Z 19008KT 10SM CLR 23/11 A3010 910 47 2100 190/08 RMK AO2
94908KDBQ DBQ20000618164509306/18/00 16:45:31  5-MIN KDBQ 182245Z 20009KT 10SM CLR 23/11 A3010 910 47 2100 200/09 RMK AO2
94908KDBQ DBQ20000618165011006/18/00 16:50:31  5-MIN KDBQ 182250Z 19010KT 10SM CLR 23/11 A3010 910 47 2100 190/10 RMK AO2 SLP192 T02280111
94908KDBQ DBQ20000618165511006/18/00 16:55:31  5-MIN KDBQ 182255Z 18009KT 10SM CLR 23/11 A3010 910 47 2100 170/09 RMK AO2 SLP191 T02280111
94908KDBQ DBQ20000618170009906/18/00 17:00:31  5-MIN KDBQ 182300Z 18011G16KT 10SM CLR 23/11 A3010 920 47 2100 180/11G16 RMK AO2
94908KDBQ DBQ20000618170509306/18/00 17:05:31  5-MIN KDBQ 182305Z 18010KT 10SM CLR 23/11 A3010 910 47 2100 180/10 RMK AO2
94908KDBQ DBQ20000618171009306/18/00 17:10:31  5-MIN KDBQ 182310Z 19011KT 10SM CLR 23/11 A3010 920 45 2100 180/11 RMK AO2
94908KDBQ DBQ20000618171509306/18/00 17:15:31  5-MIN KDBQ 182315Z 20010KT 10SM CLR 23/11 A3009 920 47 2100 200/10 RMK AO2
94908KDBQ DBQ20000618172009306/18/00 17:20:31  5-MIN KDBQ 182320Z 19012KT 10SM CLR 23/11 A3009 920 45 2100 190/12 RMK AO2
94908KDBQ DBQ20000618172509306/18/00 17:25:31  5-MIN KDBQ 182325Z 19010KT 10SM CLR 22/11 A3009 920 47 2000 190/10 RMK AO2
94908KDBQ DBQ20000618173009306/18/00 17:30:31  5-MIN KDBQ 182330Z 18009KT 10SM CLR 22/11 A3009 920 49 2000 180/09 RMK AO2
94908KDBQ DBQ20000618173509306/18/00 17:35:31  5-MIN KDBQ 182335Z 20010KT 10SM CLR 23/11 A3009 920 47 2100 200/10 RMK AO2
94908KDBQ DBQ20000618174009306/18/00 17:40:31  5-MIN KDBQ 182340Z 20011KT 10SM CLR 22/11 A3009 920 47 2000 200/11 RMK AO2
94908KDBQ DBQ20000618174509306/18/00 17:45:31  5-MIN KDBQ 182345Z 19010KT 10SM CLR 22/11 A3009 920 49 2000 190/10 RMK AO2
94908KDBQ DBQ20000618175012806/18/00 17:50:31  5-MIN KDBQ 182350Z 19008KT 10SM CLR 22/11 A3009 930 49 2000 180/08 RMK AO2 SLP185 T02220111 10233 20211 56016
94908KDBQ DBQ20000618175512806/18/00 17:55:31  5-MIN KDBQ 182355Z 19009KT 10SM CLR 22/12 A3009 930 51 2000 180/09 RMK AO2 SLP185 T02220117 10233 20211 56013
94908KDBQ DBQ20000618180009306/18/00 18:00:31  5-MIN KDBQ 190000Z 19010KT 10SM CLR 22/11 A3009 930 49 2000 190/10 RMK AO2
94908KDBQ DBQ20000618180509306/18/00 18:05:31  5-MIN KDBQ 190005Z 20009KT 10SM CLR 22/11 A3009 930 49 2000 200/09 RMK AO2
94908KDBQ DBQ20000618181009306/18/00 18:10:31  5-MIN KDBQ 190010Z 19009KT 10SM CLR 22/12 A3009 930 51 2000 190/09 RMK AO2
94908KDBQ DBQ20000618181509306/18/00 18:15:31  5-MIN KDBQ 190015Z 18009KT 10SM CLR 22/12 A3008 930 51 2000 180/09 RMK AO2
94908KDBQ DBQ20000618182009306/18/00 18:20:31  5-MIN KDBQ 190020Z 19010KT 10SM CLR 22/12 A3008 930 52 2000 190/10 RMK AO2
94908KDBQ DBQ20000618182509306/18/00 18:25:31  5-MIN KDBQ 190025Z 19009KT 10SM CLR 22/12 A3008 930 52 2000 190/09 RMK AO2
94908KDBQ DBQ20000618183009306/18/00 18:30:31  5-MIN KDBQ 190030Z 19009KT 10SM CLR 22/12 A3008 930 52 2000 190/09 RMK AO2
94908KDBQ DBQ20000618183509306/18/00 18:35:31  5-MIN KDBQ 190035Z 19008KT 10SM CLR 21/12 A3008 930 54 1900 190/08 RMK AO2
94908KDBQ DBQ20000618184009306/18/00 18:40:31  5-MIN KDBQ 190040Z 18006KT 10SM CLR 21/12 A3008 930 58 1800 180/06 RMK AO2
94908KDBQ DBQ20000618184509306/18/00 18:45:31  5-MIN KDBQ 190045Z 18006KT 10SM CLR 21/13 A3008 930 60 1800 180/06 RMK AO2
94908KDBQ DBQ20000618185012006/18/00 18:50:31  5-MIN KDBQ 190050Z AUTO 18007KT 10SM CLR 21/13 A3009 920 60 1800 180/07 RMK AO2 SLP186 T02060128 TSNO
94908KDBQ DBQ20000618185512006/18/00 18:55:31  5-MIN KDBQ 190055Z AUTO 18006KT 10SM CLR 21/13 A3009 930 60 1800 180/06 RMK AO2 SLP185 T02060128 TSNO
94908KDBQ DBQ20000618190010306/18/00 19:00:31  5-MIN KDBQ 190100Z AUTO 18005KT 10SM CLR 20/13 A3009 920 65 1800 180/05 RMK AO2 TSNO
94908KDBQ DBQ20000618190510306/18/00 19:05:31  5-MIN KDBQ 190105Z AUTO 18006KT 10SM CLR 20/13 A3009 920 65 1800 180/06 RMK AO2 TSNO
94908KDBQ DBQ20000618191010306/18/00 19:10:31  5-MIN KDBQ 190110Z AUTO 17006KT 10SM CLR 19/13 A3009 930 67 1700 170/06 RMK AO2 TSNO
94908KDBQ DBQ20000618191510306/18/00 19:15:31  5-MIN KDBQ 190115Z AUTO 17007KT 10SM CLR 19/13 A3009 930 65 1700 170/07 RMK AO2 TSNO
94908KDBQ DBQ20000618192010306/18/00 19:20:31  5-MIN KDBQ 190120Z AUTO 18008KT 10SM CLR 19/13 A3008 930 65 1700 170/08 RMK AO2 TSNO
94908KDBQ DBQ20000618192510306/18/00 19:25:31  5-MIN KDBQ 190125Z AUTO 18008KT 10SM CLR 19/13 A3009 930 65 1700 170/08 RMK AO2 TSNO
94908KDBQ DBQ20000618193010306/18/00 19:30:31  5-MIN KDBQ 190130Z AUTO 17007KT 10SM CLR 19/12 A3009 930 65 1600 170/07 RMK AO2 TSNO
94908KDBQ DBQ20000618193510306/18/00 19:35:31  5-MIN KDBQ 190135Z AUTO 18008KT 10SM CLR 19/12 A3009 920 65 1600 180/08 RMK AO2 TSNO
94908KDBQ DBQ20000618194010306/18/00 19:40:31  5-MIN KDBQ 190140Z AUTO 18007KT 10SM CLR 19/12 A3009 920 65 1600 170/07 RMK AO2 TSNO
94908KDBQ DBQ20000618194510306/18/00 19:45:31  5-MIN KDBQ 190145Z AUTO 17007KT 10SM CLR 18/12 A3009 920 67 1600 170/07 RMK AO2 TSNO
94908KDBQ DBQ20000618195012006/18/00 19:50:31  5-MIN KDBQ 190150Z AUTO 17007KT 10SM CLR 18/12 A3009 920 67 1600 170/07 RMK AO2 SLP186 T01830122 TSNO
94908KDBQ DBQ20000618195512006/18/00 19:55:31  5-MIN KDBQ 190155Z AUTO 18008KT 10SM CLR 18/12 A3009 920 67 1600 170/08 RMK AO2 SLP186 T01830122 TSNO
94908KDBQ DBQ20000618200010306/18/00 20:00:31  5-MIN KDBQ 190200Z AUTO 17007KT 10SM CLR 18/12 A3009 920 67 1600 170/07 RMK AO2 TSNO
94908KDBQ DBQ20000618200510306/18/00 20:05:31  5-MIN KDBQ 190205Z AUTO 18007KT 10SM CLR 18/12 A3009 920 69 1500 170/07 RMK AO2 TSNO
94908KDBQ DBQ20000618201010306/18/00 20:10:31  5-MIN KDBQ 190210Z AUTO 18006KT 10SM CLR 18/12 A3010 920 69 1500 180/06 RMK AO2 TSNO
94908KDBQ DBQ20000618201510306/18/00 20:15:31  5-MIN KDBQ 190215Z AUTO 19003KT 10SM CLR 18/12 A3010 920 69 1500 190/03 RMK AO2 TSNO
94908KDBQ DBQ20000618202010306/18/00 20:20:31  5-MIN KDBQ 190220Z AUTO 20003KT 10SM CLR 17/13 A3010 910 75 1400 200/03 RMK AO2 TSNO
94908KDBQ DBQ20000618202510306/18/00 20:25:31  5-MIN KDBQ 190225Z AUTO 20004KT 10SM CLR 17/13 A3010 910 75 1400 190/04 RMK AO2 TSNO
94908KDBQ DBQ20000618203010306/18/00 20:30:31  5-MIN KDBQ 190230Z AUTO 19003KT 10SM CLR 17/13 A3010 910 75 1400 190/03 RMK AO2 TSNO
94908KDBQ DBQ20000618203510306/18/00 20:35:31  5-MIN KDBQ 190235Z AUTO 18004KT 10SM CLR 17/12 A3010 910 72 1400 180/04 RMK AO2 TSNO
94908KDBQ DBQ20000618204010306/18/00 20:40:31  5-MIN KDBQ 190240Z AUTO 18004KT 10SM CLR 17/12 A3010 910 72 1400 180/04 RMK AO2 TSNO
94908KDBQ DBQ20000618204510306/18/00 20:45:31  5-MIN KDBQ 190245Z AUTO 18005KT 10SM CLR 17/12 A3010 910 75 1400 180/05 RMK AO2 TSNO
94908KDBQ DBQ20000618205012606/18/00 20:50:31  5-MIN KDBQ 190250Z AUTO 17005KT 10SM CLR 17/12 A3010 910 75 1400 170/05 RMK AO2 SLP191 T01670122 56013 TSNO
94908KDBQ DBQ20000618205512606/18/00 20:55:31  5-MIN KDBQ 190255Z AUTO 17006KT 10SM CLR 17/13 A3010 910 77 1400 160/06 RMK AO2 SLP191 T01670128 53006 TSNO
94908KDBQ DBQ20000618210010306/18/00 21:00:31  5-MIN KDBQ 190300Z AUTO 16008KT 10SM CLR 17/13 A3010 910 75 1400 160/08 RMK AO2 TSNO
94908KDBQ DBQ20000618210510306/18/00 21:05:31  5-MIN KDBQ 190305Z AUTO 16008KT 10SM CLR 17/12 A3011 910 69 1400 160/08 RMK AO2 TSNO
94908KDBQ DBQ20000618211010306/18/00 21:10:31  5-MIN KDBQ 190310Z AUTO 16008KT 10SM CLR 17/12 A3011 910 69 1400 160/08 RMK AO2 TSNO
94908KDBQ DBQ20000618211510306/18/00 21:15:31  5-MIN KDBQ 190315Z AUTO 17009KT 10SM CLR 17/12 A3011 910 69 1400 170/09 RMK AO2 TSNO
94908KDBQ DBQ20000618212010306/18/00 21:20:31  5-MIN KDBQ 190320Z AUTO 17008KT 10SM CLR 17/12 A3011 910 69 1400 160/08 RMK AO2 TSNO
94908KDBQ DBQ20000618212510306/18/00 21:25:31  5-MIN KDBQ 190325Z AUTO 17008KT 10SM CLR 17/12 A3011 900 69 1400 160/08 RMK AO2 TSNO
94908KDBQ DBQ20000618213010306/18/00 21:30:31  5-MIN KDBQ 190330Z AUTO 17008KT 10SM CLR 17/12 A3011 900 72 1300 170/08 RMK AO2 TSNO
94908KDBQ DBQ20000618213510306/18/00 21:35:31  5-MIN KDBQ 190335Z AUTO 17007KT 10SM CLR 17/12 A3011 900 72 1300 170/07 RMK AO2 TSNO
94908KDBQ DBQ20000618214010306/18/00 21:40:31  5-MIN KDBQ 190340Z AUTO 18007KT 10SM CLR 17/12 A3011 900 72 1300 170/07 RMK AO2 TSNO
94908KDBQ DBQ20000618214510306/18/00 21:45:31  5-MIN KDBQ 190345Z AUTO 19004KT 10SM CLR 16/12 A3011 900 75 1300 190/04 RMK AO2 TSNO
94908KDBQ DBQ20000618215012006/18/00 21:50:31  5-MIN KDBQ 190350Z AUTO 19003KT 10SM CLR 16/12 A3011 910 80 1200 190/03 RMK AO2 SLP194 T01560122 TSNO
94908KDBQ DBQ20000618215512006/18/00 21:55:31  5-MIN KDBQ 190355Z AUTO 19004KT 10SM CLR 16/12 A3011 910 80 1200 190/04 RMK AO2 SLP193 T01560122 TSNO
94908KDBQ DBQ20000618220010306/18/00 22:00:31  5-MIN KDBQ 190400Z AUTO 19004KT 10SM CLR 16/12 A3011 910 80 1200 190/04 RMK AO2 TSNO
94908KDBQ DBQ20000618220510306/18/00 22:05:31  5-MIN KDBQ 190405Z AUTO 19005KT 10SM CLR 16/12 A3011 910 80 1200 190/05 RMK AO2 TSNO
94908KDBQ DBQ20000618221010306/18/00 22:10:31  5-MIN KDBQ 190410Z AUTO 19006KT 10SM CLR 16/12 A3011 910 77 1200 190/06 RMK AO2 TSNO
94908KDBQ DBQ20000618221510306/18/00 22:15:31  5-MIN KDBQ 190415Z AUTO 20006KT 10SM CLR 16/12 A3011 910 75 1300 200/06 RMK AO2 TSNO
94908KDBQ DBQ20000618222010306/18/00 22:20:31  5-MIN KDBQ 190420Z AUTO 20006KT 10SM CLR 16/12 A3011 910 77 1200 200/06 RMK AO2 TSNO
94908KDBQ DBQ20000618222510306/18/00 22:25:31  5-MIN KDBQ 190425Z AUTO 20006KT 10SM CLR 16/12 A3011 910 77 1200 200/06 RMK AO2 TSNO
94908KDBQ DBQ20000618223010306/18/00 22:30:31  5-MIN KDBQ 190430Z AUTO 20006KT 10SM CLR 16/12 A3011 910 75 1300 200/06 RMK AO2 TSNO
94908KDBQ DBQ20000618223510306/18/00 22:35:31  5-MIN KDBQ 190435Z AUTO 20007KT 10SM CLR 16/12 A3011 910 75 1300 200/07 RMK AO2 TSNO
94908KDBQ DBQ20000618224010306/18/00 22:40:31  5-MIN KDBQ 190440Z AUTO 19008KT 10SM CLR 16/12 A3011 910 75 1300 190/08 RMK AO2 TSNO
94908KDBQ DBQ20000618224510306/18/00 22:45:31  5-MIN KDBQ 190445Z AUTO 19008KT 10SM CLR 16/12 A3011 910 75 1300 190/08 RMK AO2 TSNO
94908KDBQ DBQ20000618225012006/18/00 22:50:31  5-MIN KDBQ 190450Z AUTO 19009KT 10SM CLR 16/12 A3010 910 75 1300 190/09 RMK AO2 SLP192 T01610117 TSNO
94908KDBQ DBQ20000618225512006/18/00 22:55:31  5-MIN KDBQ 190455Z AUTO 19009KT 10SM CLR 16/12 A3010 910 75 1300 190/09 RMK AO2 SLP192 T01610117 TSNO
94908KDBQ DBQ20000618230010306/18/00 23:00:31  5-MIN KDBQ 190500Z AUTO 19009KT 10SM CLR 16/12 A3010 910 75 1300 190/09 RMK AO2 TSNO
94908KDBQ DBQ20000618230510306/18/00 23:05:31  5-MIN KDBQ 190505Z AUTO 19009KT 10SM CLR 16/12 A3010 910 75 1300 190/09 RMK AO2 TSNO
94908KDBQ DBQ20000618231010306/18/00 23:10:31  5-MIN KDBQ 190510Z AUTO 19010KT 10SM CLR 16/12 A3010 910 77 1200 190/10 RMK AO2 TSNO
94908KDBQ DBQ20000618231510306/18/00 23:15:31  5-MIN KDBQ 190515Z AUTO 19009KT 10SM CLR 16/12 A3010 910 77 1200 190/09 RMK AO2 TSNO
94908KDBQ DBQ20000618232010306/18/00 23:20:31  5-MIN KDBQ 190520Z AUTO 19009KT 10SM CLR 16/12 A3010 910 77 1200 190/09 RMK AO2 TSNO
94908KDBQ DBQ20000618232510306/18/00 23:25:31  5-MIN KDBQ 190525Z AUTO 19009KT 10SM CLR 16/12 A3010 910 77 1200 190/09 RMK AO2 TSNO
94908KDBQ DBQ20000618233010306/18/00 23:30:31  5-MIN KDBQ 190530Z AUTO 19010KT 10SM CLR 16/12 A3010 910 77 1200 190/10 RMK AO2 TSNO
94908KDBQ DBQ20000618233510306/18/00 23:35:31  5-MIN KDBQ 190535Z AUTO 19010KT 10SM CLR 16/12 A3010 910 77 1200 190/10 RMK AO2 TSNO
94908KDBQ DBQ20000618234010306/18/00 23:40:31  5-MIN KDBQ 190540Z AUTO 19010KT 10SM CLR 16/12 A3010 910 77 1200 190/10 RMK AO2 TSNO
94908KDBQ DBQ20000618234510306/18/00 23:45:31  5-MIN KDBQ 190545Z AUTO 19010KT 10SM CLR 16/12 A3010 910 77 1200 190/10 RMK AO2 TSNO
94908KDBQ DBQ20000618235014806/18/00 23:50:31  5-MIN KDBQ 190550Z AUTO 19010KT 10SM CLR 16/12 A3010 910 77 1200 190/10 RMK AO2 SLP190 T01560117 10222 20156 402330106 53006 TSNO
94908KDBQ DBQ20000618235514806/18/00 23:55:31  5-MIN KDBQ 190555Z AUTO 19010KT 10SM CLR 15/12 A3010 910 80 1200 190/10 RMK AO2 SLP190 T01500117 10222 20150 402330106 58001 TSNO
94908KDBQ DBQ20000619000010306/19/00 00:00:31  5-MIN KDBQ 190600Z AUTO 19010KT 10SM CLR 15/12 A3010 910 80 1200 190/10 RMK AO2 TSNO
94908KDBQ DBQ20000619000510306/19/00 00:05:31  5-MIN KDBQ 190605Z AUTO 19009KT 10SM CLR 15/12 A3010 910 80 1200 190/09 RMK AO2 TSNO
94908KDBQ DBQ20000619001010306/19/00 00:10:31  5-MIN KDBQ 190610Z AUTO 19010KT 10SM CLR 15/12 A3010 910 80 1200 190/10 RMK AO2 TSNO
94908KDBQ DBQ20000619001510306/19/00 00:15:31  5-MIN KDBQ 190615Z AUTO 19009KT 10SM CLR 15/12 A3010 910 80 1200 190/09 RMK AO2 TSNO
94908KDBQ DBQ20000619002010306/19/00 00:20:31  5-MIN KDBQ 190620Z AUTO 19009KT 10SM CLR 15/12 A3010 910 80 1200 190/09 RMK AO2 TSNO
94908KDBQ DBQ20000619002510306/19/00 00:25:31  5-MIN KDBQ 190625Z AUTO 19010KT 10SM CLR 15/12 A3010 910 80 1200 190/10 RMK AO2 TSNO
94908KDBQ DBQ20000619003010306/19/00 00:30:31  5-MIN KDBQ 190630Z AUTO 19010KT 10SM CLR 15/12 A3010 910 80 1200 190/10 RMK AO2 TSNO
94908KDBQ DBQ20000619003510306/19/00 00:35:31  5-MIN KDBQ 190635Z AUTO 19009KT 10SM CLR 15/12 A3010 910 80 1200 190/09 RMK AO2 TSNO
94908KDBQ DBQ20000619004010306/19/00 00:40:31  5-MIN KDBQ 190640Z AUTO 18009KT 10SM CLR 15/12 A3010 910 80 1200 180/09 RMK AO2 TSNO
94908KDBQ DBQ20000619004510306/19/00 00:45:31  5-MIN KDBQ 190645Z AUTO 19009KT 10SM CLR 15/12 A3010 920 80 1200 180/09 RMK AO2 TSNO
94908KDBQ DBQ20000619005012006/19/00 00:50:31  5-MIN KDBQ 190650Z AUTO 19009KT 10SM CLR 15/12 A3010 920 80 1200 190/09 RMK AO2 SLP189 T01500117 TSNO
94908KDBQ DBQ20000619005512006/19/00 00:55:31  5-MIN KDBQ 190655Z AUTO 19009KT 10SM CLR 14/12 A3010 920 83 1100 180/09 RMK AO2 SLP189 T01440117 TSNO
94908KDBQ DBQ20000619010010306/19/00 01:00:31  5-MIN KDBQ 190700Z AUTO 18009KT 10SM CLR 14/12 A3010 910 83 1100 180/09 RMK AO2 TSNO
94908KDBQ DBQ20000619010510306/19/00 01:05:31  5-MIN KDBQ 190705Z AUTO 18009KT 10SM CLR 14/12 A3010 910 83 1100 180/09 RMK AO2 TSNO
94908KDBQ DBQ20000619011010306/19/00 01:10:31  5-MIN KDBQ 190710Z AUTO 18009KT 10SM CLR 14/12 A3010 920 83 1100 180/09 RMK AO2 TSNO
94908KDBQ DBQ20000619011510306/19/00 01:15:31  5-MIN KDBQ 190715Z AUTO 19009KT 10SM CLR 14/12 A3010 920 83 1100 190/09 RMK AO2 TSNO
94908KDBQ DBQ20000619012010306/19/00 01:20:31  5-MIN KDBQ 190720Z AUTO 19008KT 10SM CLR 14/12 A3010 910 86 1000 190/08 RMK AO2 TSNO
94908KDBQ DBQ20000619012510306/19/00 01:25:31  5-MIN KDBQ 190725Z AUTO 18007KT 10SM CLR 14/12 A3010 910 86 1000 180/07 RMK AO2 TSNO
94908KDBQ DBQ20000619013010306/19/00 01:30:31  5-MIN KDBQ 190730Z AUTO 17006KT 10SM CLR 14/12 A3010 910 86 1000 170/06 RMK AO2 TSNO
94908KDBQ DBQ20000619013510306/19/00 01:35:31  5-MIN KDBQ 190735Z AUTO 18006KT 10SM CLR 14/12 A3010 910 86 1000 180/06 RMK AO2 TSNO
94908KDBQ DBQ20000619014010306/19/00 01:40:31  5-MIN KDBQ 190740Z AUTO 18006KT 10SM CLR 14/12 A3010 910 86 1000 170/06 RMK AO2 TSNO
94908KDBQ DBQ20000619014510306/19/00 01:45:31  5-MIN KDBQ 190745Z AUTO 18006KT 10SM CLR 14/12 A3010 910 86 1000 180/06 RMK AO2 TSNO
94908KDBQ DBQ20000619015012006/19/00 01:50:31  5-MIN KDBQ 190750Z AUTO 18007KT 10SM CLR 14/12 A3010 910 86 1000 180/07 RMK AO2 SLP191 T01390117 TSNO
94908KDBQ DBQ20000619015512006/19/00 01:55:31  5-MIN KDBQ 190755Z AUTO 18007KT 10SM CLR 14/12 A3010 910 86 1000 180/07 RMK AO2 SLP191 T01390117 TSNO
94908KDBQ DBQ20000619020010306/19/00 02:00:31  5-MIN KDBQ 190800Z AUTO 18007KT 10SM CLR 14/12 A3010 910 86 1000 180/07 RMK AO2 TSNO
94908KDBQ DBQ20000619020510306/19/00 02:05:31  5-MIN KDBQ 190805Z AUTO 18006KT 10SM CLR 14/12 A3011 910 86 1000 180/06 RMK AO2 TSNO
94908KDBQ DBQ20000619021010306/19/00 02:10:31  5-MIN KDBQ 190810Z AUTO 18006KT 10SM CLR 14/12 A3011 910 86 1000 180/06 RMK AO2 TSNO
94908KDBQ DBQ20000619021510306/19/00 02:15:31  5-MIN KDBQ 190815Z AUTO 17006KT 10SM CLR 13/12 A3011 910 89 1000 170/06 RMK AO2 TSNO
94908KDBQ DBQ20000619022010306/19/00 02:20:31  5-MIN KDBQ 190820Z AUTO 18005KT 10SM CLR 13/12 A3011 910 89 1000 180/05 RMK AO2 TSNO
94908KDBQ DBQ20000619022510306/19/00 02:25:31  5-MIN KDBQ 190825Z AUTO 18006KT 10SM CLR 13/12 A3011 910 89 1000 170/06 RMK AO2 TSNO
94908KDBQ DBQ20000619023010306/19/00 02:30:31  5-MIN KDBQ 190830Z AUTO 18006KT 10SM CLR 13/12 A3011 900 89 1000 180/06 RMK AO2 TSNO
94908KDBQ DBQ20000619023510306/19/00 02:35:31  5-MIN KDBQ 190835Z AUTO 19007KT 10SM CLR 13/12 A3011 900 89 1000 190/07 RMK AO2 TSNO
94908KDBQ DBQ20000619024010306/19/00 02:40:31  5-MIN KDBQ 190840Z AUTO 20006KT 10SM CLR 13/12 A3011 900 89 1000 200/06 RMK AO2 TSNO
94908KDBQ DBQ20000619024510306/19/00 02:45:31  5-MIN KDBQ 190845Z AUTO 20005KT 10SM CLR 13/12 A3011 900 89 1000 200/05 RMK AO2 TSNO
94908KDBQ DBQ20000619025012606/19/00 02:50:31  5-MIN KDBQ 190850Z AUTO 20005KT 10SM CLR 13/12 A3011 900 89 1000 190/05 RMK AO2 SLP193 T01330117 58001 TSNO
94908KDBQ DBQ20000619025512506/19/00 02:55:31  5-MIN KDBQ 190855Z AUTO 19005KT 10SM CLR 13/11 A3011 900 89 900 190/05 RMK AO2 SLP194 T01280111 53003 TSNO
94908KDBQ DBQ20000619030010206/19/00 03:00:31  5-MIN KDBQ 190900Z AUTO 20005KT 10SM CLR 13/11 A3011 900 89 900 200/05 RMK AO2 TSNO
94908KDBQ DBQ20000619030510206/19/00 03:05:31  5-MIN KDBQ 190905Z AUTO 20005KT 10SM CLR 13/11 A3011 900 89 900 200/05 RMK AO2 TSNO
94908KDBQ DBQ20000619031010206/19/00 03:10:31  5-MIN KDBQ 190910Z AUTO 19005KT 10SM CLR 13/11 A3011 900 89 900 190/05 RMK AO2 TSNO
94908KDBQ DBQ20000619031510306/19/00 03:15:31  5-MIN KDBQ 190915Z AUTO 19004KT 10SM CLR 13/11 A3011 900 86 1000 180/04 RMK AO2 TSNO
94908KDBQ DBQ20000619032010306/19/00 03:20:31  5-MIN KDBQ 190920Z AUTO 18004KT 10SM CLR 13/11 A3011 900 86 1000 180/04 RMK AO2 TSNO
94908KDBQ DBQ20000619032510306/19/00 03:25:31  5-MIN KDBQ 190925Z AUTO 18004KT 10SM CLR 13/11 A3011 900 86 1000 180/04 RMK AO2 TSNO
94908KDBQ DBQ20000619033010206/19/00 03:30:31  5-MIN KDBQ 190930Z AUTO 17004KT 10SM CLR 13/11 A3011 900 89 900 170/04 RMK AO2 TSNO
94908KDBQ DBQ20000619033510306/19/00 03:35:31  5-MIN KDBQ 190935Z AUTO 18003KT 10SM CLR 13/11 A3011 900 86 1000 170/03 RMK AO2 TSNO
94908KDBQ DBQ20000619034010306/19/00 03:40:31  5-MIN KDBQ 190940Z AUTO 17004KT 10SM CLR 13/11 A3011 900 86 1000 170/04 RMK AO2 TSNO
94908KDBQ DBQ20000619034510206/19/00 03:45:31  5-MIN KDBQ 190945Z AUTO 18005KT 10SM CLR 13/11 A3011 900 89 900 180/05 RMK AO2 TSNO
94908KDBQ DBQ20000619035011906/19/00 03:50:31  5-MIN KDBQ 190950Z AUTO 18005KT 10SM CLR 13/11 A3011 900 89 900 180/05 RMK AO2 SLP195 T01280111 TSNO
94908KDBQ DBQ20000619035511906/19/00 03:55:31  5-MIN KDBQ 190955Z AUTO 18005KT 10SM CLR 13/11 A3011 900 89 900 180/05 RMK AO2 SLP195 T01280111 TSNO
94908KDBQ DBQ20000619040010206/19/00 04:00:31  5-MIN KDBQ 191000Z AUTO 17004KT 10SM CLR 13/11 A3012 900 89 900 170/04 RMK AO2 TSNO
94908KDBQ DBQ20000619040510206/19/00 04:05:31  5-MIN KDBQ 191005Z AUTO 16004KT 10SM CLR 13/11 A3012 900 89 900 160/04 RMK AO2 TSNO
94908KDBQ DBQ20000619041010206/19/00 04:10:31  5-MIN KDBQ 191010Z AUTO 17004KT 10SM CLR 13/11 A3012 900 89 900 170/04 RMK AO2 TSNO
94908KDBQ DBQ20000619041510206/19/00 04:15:31  5-MIN KDBQ 191015Z AUTO 17004KT 10SM CLR 13/11 A3012 890 89 900 170/04 RMK AO2 TSNO
94908KDBQ DBQ20000619042010206/19/00 04:20:31  5-MIN KDBQ 191020Z AUTO 17004KT 10SM CLR 13/11 A3012 890 86 900 170/04 RMK AO2 TSNO
94908KDBQ DBQ20000619042510206/19/00 04:25:31  5-MIN KDBQ 191025Z AUTO 17004KT 10SM CLR 13/11 A3012 890 86 900 170/04 RMK AO2 TSNO
94908KDBQ DBQ20000619043010206/19/00 04:30:31  5-MIN KDBQ 191030Z AUTO 17004KT 10SM CLR 13/11 A3012 890 86 900 170/04 RMK AO2 TSNO
94908KDBQ DBQ20000619043510206/19/00 04:35:31  5-MIN KDBQ 191035Z AUTO 17005KT 10SM CLR 13/11 A3013 890 89 900 170/05 RMK AO2 TSNO
94908KDBQ DBQ20000619044010206/19/00 04:40:31  5-MIN KDBQ 191040Z AUTO 17005KT 10SM CLR 13/11 A3012 890 86 900 170/05 RMK AO2 TSNO
94908KDBQ DBQ20000619044509206/19/00 04:45:31  5-MIN KDBQ 191045Z 17005KT 10SM CLR 13/11 A3012 890 89 900 170/05 RMK AO2
94908KDBQ DBQ20000619045010906/19/00 04:50:31  5-MIN KDBQ 191050Z 17006KT 10SM CLR 13/11 A3013 890 89 900 170/06 RMK AO2 SLP199 T01280111
94908KDBQ DBQ20000619045510906/19/00 04:55:31  5-MIN KDBQ 191055Z 17006KT 10SM CLR 13/11 A3013 890 89 900 170/06 RMK AO2 SLP200 T01280111
94908KDBQ DBQ20000619050009206/19/00 05:00:31  5-MIN KDBQ 191100Z 17006KT 10SM CLR 13/11 A3013 880 86 900 170/06 RMK AO2
94908KDBQ DBQ20000619050509206/19/00 05:05:31  5-MIN KDBQ 191105Z 17006KT 10SM CLR 13/11 A3013 880 86 900 170/06 RMK AO2
94908KDBQ DBQ20000619051009206/19/00 05:10:31  5-MIN KDBQ 191110Z 17006KT 10SM CLR 13/12 A3013 880 89 900 170/06 RMK AO2
94908KDBQ DBQ20000619051509206/19/00 05:15:31  5-MIN KDBQ 191115Z 17006KT 10SM CLR 13/12 A3013 880 89 900 170/06 RMK AO2
94908KDBQ DBQ20000619052009306/19/00 05:20:31  5-MIN KDBQ 191120Z 17005KT 10SM CLR 14/12 A3013 880 86 1000 170/05 RMK AO2
94908KDBQ DBQ20000619052509306/19/00 05:25:31  5-MIN KDBQ 191125Z 17005KT 10SM CLR 14/12 A3013 880 86 1000 170/05 RMK AO2
94908KDBQ DBQ20000619053009306/19/00 05:30:31  5-MIN KDBQ 191130Z 17006KT 10SM CLR 14/12 A3014 880 86 1000 170/06 RMK AO2
94908KDBQ DBQ20000619053509306/19/00 05:35:31  5-MIN KDBQ 191135Z 17006KT 10SM CLR 14/12 A3014 880 86 1000 170/06 RMK AO2
94908KDBQ DBQ20000619054009306/19/00 05:40:31  5-MIN KDBQ 191140Z 17006KT 10SM CLR 14/12 A3014 880 83 1100 170/06 RMK AO2
94908KDBQ DBQ20000619054509306/19/00 05:45:31  5-MIN KDBQ 191145Z 17005KT 10SM CLR 14/12 A3014 880 83 1100 170/05 RMK AO2
94908KDBQ DBQ20000619055012806/19/00 05:50:31  5-MIN KDBQ 191150Z 18005KT 10SM CLR 14/12 A3014 880 86 1100 170/05 RMK AO2 SLP204 T01440122 10156 20128 53003
94908KDBQ DBQ20000619055512806/19/00 05:55:31  5-MIN KDBQ 191155Z 17006KT 10SM CLR 15/12 A3014 870 83 1100 170/06 RMK AO2 SLP205 T01500122 10156 20128 53010
94908KDBQ DBQ20000619060009306/19/00 06:00:31  5-MIN KDBQ 191200Z 18006KT 10SM CLR 15/12 A3014 880 83 1100 170/06 RMK AO2
94908KDBQ DBQ20000619060509306/19/00 06:05:31  5-MIN KDBQ 191205Z 18005KT 10SM CLR 16/12 A3014 880 80 1200 170/05 RMK AO2
94908KDBQ DBQ20000619061009306/19/00 06:10:31  5-MIN KDBQ 191210Z 17006KT 10SM CLR 16/12 A3014 880 80 1200 170/06 RMK AO2
94908KDBQ DBQ20000619061509306/19/00 06:15:31  5-MIN KDBQ 191215Z 17005KT 10SM CLR 16/13 A3014 880 83 1200 170/05 RMK AO2
94908KDBQ DBQ20000619062009306/19/00 06:20:31  5-MIN KDBQ 191220Z 18005KT 10SM CLR 16/13 A3014 880 80 1200 180/05 RMK AO2
94908KDBQ DBQ20000619062509306/19/00 06:25:31  5-MIN KDBQ 191225Z 18006KT 10SM CLR 16/13 A3014 880 80 1200 180/06 RMK AO2
94908KDBQ DBQ20000619063009306/19/00 06:30:31  5-MIN KDBQ 191230Z 18007KT 10SM CLR 17/13 A3014 880 77 1300 180/07 RMK AO2
94908KDBQ DBQ20000619063509306/19/00 06:35:31  5-MIN KDBQ 191235Z 18007KT 10SM CLR 17/13 A3014 880 77 1300 180/07 RMK AO2
94908KDBQ DBQ20000619064009306/19/00 06:40:31  5-MIN KDBQ 191240Z 19007KT 10SM CLR 17/13 A3014 880 75 1400 180/07 RMK AO2
94908KDBQ DBQ20000619064509306/19/00 06:45:31  5-MIN KDBQ 191245Z 18006KT 10SM CLR 17/13 A3014 880 75 1400 180/06 RMK AO2
94908KDBQ DBQ20000619065011006/19/00 06:50:31  5-MIN KDBQ 191250Z 18006KT 10SM CLR 17/13 A3014 880 75 1400 180/06 RMK AO2 SLP203 T01720128
94908KDBQ DBQ20000619065511006/19/00 06:55:31  5-MIN KDBQ 191255Z 19007KT 10SM CLR 18/13 A3014 880 72 1400 190/07 RMK AO2 SLP203 T01780128
94908KDBQ DBQ20000619070009306/19/00 07:00:31  5-MIN KDBQ 191300Z 19007KT 10SM CLR 18/13 A3014 870 72 1400 190/07 RMK AO2
94908KDBQ DBQ20000619070509306/19/00 07:05:31  5-MIN KDBQ 191305Z 19007KT 10SM CLR 18/12 A3014 870 69 1400 190/07 RMK AO2
94908KDBQ DBQ20000619071009306/19/00 07:10:31  5-MIN KDBQ 191310Z 19007KT 10SM CLR 18/12 A3014 870 67 1500 180/07 RMK AO2
94908KDBQ DBQ20000619071509306/19/00 07:15:31  5-MIN KDBQ 191315Z 18008KT 10SM CLR 18/13 A3014 870 70 1500 180/08 RMK AO2
94908KDBQ DBQ20000619072009306/19/00 07:20:31  5-MIN KDBQ 191320Z 18007KT 10SM CLR 18/13 A3014 870 70 1500 180/07 RMK AO2
94908KDBQ DBQ20000619072509306/19/00 07:25:31  5-MIN KDBQ 191325Z 19008KT 10SM CLR 18/13 A3014 880 70 1500 190/08 RMK AO2
94908KDBQ DBQ20000619073009306/19/00 07:30:31  5-MIN KDBQ 191330Z 18008KT 10SM CLR 19/13 A3014 870 67 1600 180/08 RMK AO2
94908KDBQ DBQ20000619073509306/19/00 07:35:31  5-MIN KDBQ 191335Z 19009KT 10SM CLR 19/13 A3014 880 67 1600 190/09 RMK AO2
94908KDBQ DBQ20000619074009306/19/00 07:40:31  5-MIN KDBQ 191340Z 18010KT 10SM CLR 19/13 A3014 880 67 1600 180/10 RMK AO2
94908KDBQ DBQ20000619074509306/19/00 07:45:31  5-MIN KDBQ 191345Z 19008KT 10SM CLR 19/13 A3014 870 65 1600 190/08 RMK AO2
94908KDBQ DBQ20000619075011006/19/00 07:50:31  5-MIN KDBQ 191350Z 19008KT 10SM CLR 19/13 A3014 880 65 1600 190/08 RMK AO2 SLP204 T01940128
94908KDBQ DBQ20000619075511006/19/00 07:55:31  5-MIN KDBQ 191355Z 19009KT 10SM CLR 19/13 A3014 880 65 1600 190/09 RMK AO2 SLP204 T01940128
94908KDBQ DBQ20000619080009306/19/00 08:00:31  5-MIN KDBQ 191400Z 18007KT 10SM CLR 19/13 A3014 880 67 1600 180/07 RMK AO2
94908KDBQ DBQ20000619080509306/19/00 08:05:31  5-MIN KDBQ 191405Z 17007KT 10SM CLR 20/13 A3014 880 65 1700 170/07 RMK AO2
94908KDBQ DBQ20000619081009306/19/00 08:10:31  5-MIN KDBQ 191410Z 18009KT 10SM CLR 20/13 A3014 880 65 1700 180/09 RMK AO2
94908KDBQ DBQ20000619081510906/19/00 08:15:31  5-MIN KDBQ 191415Z 16007KT 140V210 10SM CLR 21/14 A3014 880 65 1800 160/07 140V210 RMK AO2
94908KDBQ DBQ20000619082009306/19/00 08:20:31  5-MIN KDBQ 191420Z 17006KT 10SM CLR 21/14 A3014 880 65 1800 170/06 RMK AO2
94908KDBQ DBQ20000619082509306/19/00 08:25:31  5-MIN KDBQ 191425Z 17009KT 10SM CLR 21/14 A3014 880 65 1800 170/09 RMK AO2
94908KDBQ DBQ20000619083009306/19/00 08:30:31  5-MIN KDBQ 191430Z 17009KT 10SM CLR 21/13 A3014 880 63 1800 160/09 RMK AO2
94908KDBQ DBQ20000619083509306/19/00 08:35:31  5-MIN KDBQ 191435Z 17009KT 10SM CLR 21/14 A3013 880 65 1800 170/09 RMK AO2
94908KDBQ DBQ20000619084009306/19/00 08:40:31  5-MIN KDBQ 191440Z 16010KT 10SM CLR 21/14 A3013 880 65 1800 160/10 RMK AO2
94908KDBQ DBQ20000619084509306/19/00 08:45:31  5-MIN KDBQ 191445Z 17009KT 10SM CLR 21/13 A3013 880 61 1800 170/09 RMK AO2
94908KDBQ DBQ20000619085011606/19/00 08:50:31  5-MIN KDBQ 191450Z 17009KT 10SM CLR 21/13 A3014 880 60 1800 170/09 RMK AO2 SLP203 T02060128 53010
94908KDBQ DBQ20000619085511606/19/00 08:55:31  5-MIN KDBQ 191455Z 17009KT 10SM CLR 21/13 A3014 880 61 1800 170/09 RMK AO2 SLP202 T02110133 58002
94908KDBQ DBQ20000619090009306/19/00 09:00:31  5-MIN KDBQ 191500Z 18009KT 10SM CLR 22/14 A3013 880 61 1900 180/09 RMK AO2
94908KDBQ DBQ20000619090509306/19/00 09:05:31  5-MIN KDBQ 191505Z 17008KT 10SM CLR 22/14 A3013 880 61 1900 160/08 RMK AO2
94908KDBQ DBQ20000619091009306/19/00 09:10:31  5-MIN KDBQ 191510Z 15009KT 10SM CLR 22/14 A3013 880 63 1900 150/09 RMK AO2
94908KDBQ DBQ20000619091509306/19/00 09:15:31  5-MIN KDBQ 191515Z 17008KT 10SM CLR 22/14 A3013 880 63 1900 170/08 RMK AO2
94908KDBQ DBQ20000619092009306/19/00 09:20:31  5-MIN KDBQ 191520Z 14009KT 10SM CLR 22/14 A3013 880 63 1900 140/09 RMK AO2
94908KDBQ DBQ20000619092509306/19/00 09:25:31  5-MIN KDBQ 191525Z 17011KT 10SM CLR 22/14 A3013 890 63 1900 170/11 RMK AO2
94908KDBQ DBQ20000619093009306/19/00 09:30:31  5-MIN KDBQ 191530Z 16011KT 10SM CLR 22/14 A3013 890 61 1900 160/11 RMK AO2
94908KDBQ DBQ20000619093509306/19/00 09:35:31  5-MIN KDBQ 191535Z 15010KT 10SM CLR 22/14 A3013 890 61 1900 150/10 RMK AO2
94908KDBQ DBQ20000619094009306/19/00 09:40:31  5-MIN KDBQ 191540Z 14010KT 10SM CLR 22/14 A3013 890 63 1900 140/10 RMK AO2
94908KDBQ DBQ20000619094509306/19/00 09:45:31  5-MIN KDBQ 191545Z 18008KT 10SM CLR 22/14 A3013 890 59 2000 180/08 RMK AO2
94908KDBQ DBQ20000619095011006/19/00 09:50:31  5-MIN KDBQ 191550Z 18011KT 10SM CLR 22/14 A3013 890 59 2000 180/11 RMK AO2 SLP199 T02220139
94908KDBQ DBQ20000619095511006/19/00 09:55:31  5-MIN KDBQ 191555Z 16010KT 10SM CLR 22/14 A3013 890 59 2000 160/10 RMK AO2 SLP200 T02220139
94908KDBQ DBQ20000619100009306/19/00 10:00:31  5-MIN KDBQ 191600Z 17011KT 10SM CLR 22/14 A3013 890 59 2000 170/11 RMK AO2
94908KDBQ DBQ20000619100509306/19/00 10:05:31  5-MIN KDBQ 191605Z 17009KT 10SM CLR 22/14 A3013 890 59 2000 170/09 RMK AO2
94908KDBQ DBQ20000619101009306/19/00 10:10:31  5-MIN KDBQ 191610Z 17011KT 10SM CLR 23/14 A3013 890 57 2000 170/11 RMK AO2
94908KDBQ DBQ20000619101509306/19/00 10:15:31  5-MIN KDBQ 191615Z 17012KT 10SM CLR 22/13 A3013 890 56 2000 170/12 RMK AO2
94908KDBQ DBQ20000619102009306/19/00 10:20:31  5-MIN KDBQ 191620Z 16010KT 10SM CLR 22/14 A3013 890 59 2000 160/10 RMK AO2
94908KDBQ DBQ20000619102509306/19/00 10:25:31  5-MIN KDBQ 191625Z 15011KT 10SM CLR 23/14 A3012 890 57 2000 150/11 RMK AO2
94908KDBQ DBQ20000619103009306/19/00 10:30:31  5-MIN KDBQ 191630Z 16010KT 10SM CLR 23/14 A3012 890 57 2000 160/10 RMK AO2
94908KDBQ DBQ20000619103509306/19/00 10:35:31  5-MIN KDBQ 191635Z 16011KT 10SM CLR 23/14 A3012 890 59 2000 160/11 RMK AO2
94908KDBQ DBQ20000619104009306/19/00 10:40:31  5-MIN KDBQ 191640Z 15011KT 10SM CLR 23/13 A3013 890 55 2000 150/11 RMK AO2
94908KDBQ DBQ20000619104509306/19/00 10:45:31  5-MIN KDBQ 191645Z 15010KT 10SM CLR 23/14 A3012 890 57 2000 150/10 RMK AO2
94908KDBQ DBQ20000619105011006/19/00 10:50:31  5-MIN KDBQ 191650Z 17012KT 10SM CLR 23/13 A3012 890 55 2000 170/12 RMK AO2 SLP197 T02280133
94908KDBQ DBQ20000619105511006/19/00 10:55:31  5-MIN KDBQ 191655Z 18013KT 10SM CLR 23/14 A3012 890 55 2100 180/13 RMK AO2 SLP197 T02330139
94908KDBQ DBQ20000619110009306/19/00 11:00:31  5-MIN KDBQ 191700Z 16011KT 10SM CLR 23/13 A3012 890 53 2100 160/11 RMK AO2
94908KDBQ DBQ20000619110509306/19/00 11:05:31  5-MIN KDBQ 191705Z 16011KT 10SM CLR 23/14 A3012 890 55 2100 160/11 RMK AO2
94908KDBQ DBQ20000619111009306/19/00 11:10:31  5-MIN KDBQ 191710Z 16010KT 10SM CLR 23/14 A3012 890 55 2100 160/10 RMK AO2
94908KDBQ DBQ20000619111509906/19/00 11:15:31  5-MIN KDBQ 191715Z 17011G17KT 10SM CLR 23/14 A3012 900 55 2100 170/11G17 RMK AO2
94908KDBQ DBQ20000619112009906/19/00 11:20:31  5-MIN KDBQ 191720Z 16007G17KT 10SM CLR 23/14 A3012 900 55 2100 160/07G17 RMK AO2
94908KDBQ DBQ20000619112509306/19/00 11:25:31  5-MIN KDBQ 191725Z 15010KT 10SM CLR 23/14 A3012 900 57 2100 150/10 RMK AO2
94908KDBQ DBQ20000619113009906/19/00 11:30:31  5-MIN KDBQ 191730Z 17012G18KT 10SM CLR 24/14 A3011 900 55 2200 170/12G18 RMK AO2
94908KDBQ DBQ20000619113509906/19/00 11:35:31  5-MIN KDBQ 191735Z 16013G18KT 10SM CLR 24/14 A3011 900 55 2200 160/13G18 RMK AO2
94908KDBQ DBQ20000619114009306/19/00 11:40:31  5-MIN KDBQ 191740Z 16012KT 10SM CLR 24/14 A3011 900 55 2200 160/12 RMK AO2
94908KDBQ DBQ20000619114509306/19/00 11:45:31  5-MIN KDBQ 191745Z 18012KT 10SM CLR 24/14 A3011 900 53 2200 180/12 RMK AO2
94908KDBQ DBQ20000619115012806/19/00 11:50:31  5-MIN KDBQ 191750Z 17013KT 10SM CLR 24/14 A3011 900 55 2200 170/13 RMK AO2 SLP193 T02390144 10239 20150 58002
94908KDBQ DBQ20000619115512806/19/00 11:55:31  5-MIN KDBQ 191755Z 18010KT 10SM CLR 24/14 A3011 910 53 2200 180/10 RMK AO2 SLP192 T02440144 10244 20150 58009
94908KDBQ DBQ20000619120009306/19/00 12:00:31  5-MIN KDBQ 191800Z 15012KT 10SM CLR 24/15 A3010 910 55 2300 150/12 RMK AO2
94908KDBQ DBQ20000619120509306/19/00 12:05:31  5-MIN KDBQ 191805Z 16013KT 10SM CLR 24/14 A3010 910 53 2300 160/13 RMK AO2
94908KDBQ DBQ20000619121009306/19/00 12:10:31  5-MIN KDBQ 191810Z 17012KT 10SM CLR 24/15 A3010 910 55 2300 170/12 RMK AO2
94908KDBQ DBQ20000619121509606/19/00 12:15:31  5-MIN KDBQ 191815Z 17011KT 10SM FEW044 24/14 A3010 910 53 2200 170/11 RMK AO2
94908KDBQ DBQ20000619122009306/19/00 12:20:31  5-MIN KDBQ 191820Z 14013KT 10SM CLR 24/15 A3010 910 55 2300 140/13 RMK AO2
94908KDBQ DBQ20000619122509306/19/00 12:25:31  5-MIN KDBQ 191825Z 15012KT 10SM CLR 24/15 A3010 910 55 2300 150/12 RMK AO2
94908KDBQ DBQ20000619123009906/19/00 12:30:31  5-MIN KDBQ 191830Z 16015G19KT 10SM CLR 24/14 A3009 920 53 2300 160/15G19 RMK AO2
94908KDBQ DBQ20000619123509906/19/00 12:35:31  5-MIN KDBQ 191835Z 16012G19KT 10SM CLR 24/14 A3010 920 51 2300 160/12G19 RMK AO2
94908KDBQ DBQ20000619124009306/19/00 12:40:31  5-MIN KDBQ 191840Z 16012KT 10SM CLR 24/14 A3009 920 53 2300 160/12 RMK AO2
94908KDBQ DBQ20000619124509306/19/00 12:45:31  5-MIN KDBQ 191845Z 18014KT 10SM CLR 24/14 A3009 920 53 2300 180/14 RMK AO2
94908KDBQ DBQ20000619125011006/19/00 12:50:31  5-MIN KDBQ 191850Z 18013KT 10SM CLR 25/14 A3009 920 51 2300 180/13 RMK AO2 SLP186 T02500144
94908KDBQ DBQ20000619125511006/19/00 12:55:31  5-MIN KDBQ 191855Z 14015KT 10SM CLR 25/15 A3009 920 53 2300 140/15 RMK AO2 SLP185 T02500150
94908KDBQ DBQ20000619130009306/19/00 13:00:31  5-MIN KDBQ 191900Z 15014KT 10SM CLR 24/14 A3009 920 53 2300 150/14 RMK AO2
94908KDBQ DBQ20000619130509906/19/00 13:05:31  5-MIN KDBQ 191905Z 17014G18KT 10SM CLR 24/15 A3009 920 55 2300 170/14G18 RMK AO2
94908KDBQ DBQ20000619131009906/19/00 13:10:31  5-MIN KDBQ 191910Z 16011G18KT 10SM CLR 25/15 A3009 920 53 2300 160/11G18 RMK AO2
94908KDBQ DBQ20000619131509306/19/00 13:15:31  5-MIN KDBQ 191915Z 16011KT 10SM CLR 25/15 A3009 920 53 2300 160/11 RMK AO2
94908KDBQ DBQ20000619132009906/19/00 13:20:31  5-MIN KDBQ 191920Z 17014G18KT 10SM CLR 24/15 A3008 930 55 2300 170/14G18 RMK AO2
94908KDBQ DBQ20000619132509906/19/00 13:25:31  5-MIN KDBQ 191925Z 15011G18KT 10SM CLR 25/16 A3008 930 55 2300 150/11G18 RMK AO2
94908KDBQ DBQ20000619133009606/19/00 13:30:31  5-MIN KDBQ 191930Z 18010KT 10SM FEW044 25/16 A3008 930 55 2300 180/10 RMK AO2
94908KDBQ DBQ20000619133509606/19/00 13:35:31  5-MIN KDBQ 191935Z 16015KT 10SM FEW046 25/15 A3008 930 53 2300 160/15 RMK AO2
94908KDBQ DBQ20000619134009606/19/00 13:40:31  5-MIN KDBQ 191940Z 16014KT 10SM FEW046 25/15 A3008 930 53 2300 160/14 RMK AO2
94908KDBQ DBQ20000619134509606/19/00 13:45:31  5-MIN KDBQ 191945Z 16011KT 10SM FEW046 25/14 A3008 930 51 2300 150/11 RMK AO2
94908KDBQ DBQ20000619135011306/19/00 13:50:31  5-MIN KDBQ 191950Z 16012KT 10SM FEW046 25/15 A3007 940 53 2300 160/12 RMK AO2 SLP180 T02500150
94908KDBQ DBQ20000619135511906/19/00 13:55:31  5-MIN KDBQ 191955Z 16015G18KT 10SM FEW046 25/15 A3007 940 53 2400 160/15G18 RMK AO2 SLP179 T02500150
94908KDBQ DBQ20000619140009906/19/00 14:00:31  5-MIN KDBQ 192000Z 17014G18KT 10SM CLR 25/15 A3007 940 53 2300 170/14G18 RMK AO2
94908KDBQ DBQ20000619140509306/19/00 14:05:31  5-MIN KDBQ 192005Z 17014KT 10SM CLR 25/15 A3007 940 53 2400 160/14 RMK AO2
94908KDBQ DBQ20000619141009906/19/00 14:10:31  5-MIN KDBQ 192010Z 16016G19KT 10SM CLR 25/14 A3007 940 51 2400 160/16G19 RMK AO2
94908KDBQ DBQ20000619141509906/19/00 14:15:31  5-MIN KDBQ 192015Z 17013G20KT 10SM CLR 25/14 A3007 940 51 2400 160/13G20 RMK AO2
94908KDBQ DBQ20000619142009906/19/00 14:20:31  5-MIN KDBQ 192020Z 15015G20KT 10SM CLR 25/14 A3006 950 51 2400 150/15G20 RMK AO2
94908KDBQ DBQ20000619142509306/19/00 14:25:31  5-MIN KDBQ 192025Z 17011KT 10SM CLR 25/14 A3006 950 51 2400 170/11 RMK AO2
94908KDBQ DBQ20000619143009906/19/00 14:30:31  5-MIN KDBQ 192030Z 16014G20KT 10SM CLR 26/14 A3006 950 49 2400 160/14G20 RMK AO2
94908KDBQ DBQ20000619143509906/19/00 14:35:31  5-MIN KDBQ 192035Z 17012G20KT 10SM CLR 26/14 A3006 950 49 2400 170/12G20 RMK AO2
94908KDBQ DBQ20000619144009306/19/00 14:40:31  5-MIN KDBQ 192040Z 15013KT 10SM CLR 26/15 A3006 950 51 2400 150/13 RMK AO2
94908KDBQ DBQ20000619144509906/19/00 14:45:31  5-MIN KDBQ 192045Z 17015G20KT 10SM CLR 26/14 A3006 950 49 2400 170/15G20 RMK AO2
94908KDBQ DBQ20000619145012206/19/00 14:50:31  5-MIN KDBQ 192050Z 17013G20KT 10SM CLR 26/14 A3005 960 48 2400 170/13G20 RMK AO2 SLP173 T02560139 58009
94908KDBQ DBQ20000619145512206/19/00 14:55:31  5-MIN KDBQ 192055Z 16016G19KT 10SM CLR 26/15 A3005 960 50 2500 160/16G19 RMK AO2 SLP173 T02610150 56018
94908KDBQ DBQ20000619150009906/19/00 15:00:31  5-MIN KDBQ 192100Z 16014G20KT 10SM CLR 26/14 A3005 960 49 2400 160/14G20 RMK AO2
94908KDBQ DBQ20000619150509906/19/00 15:05:31  5-MIN KDBQ 192105Z 17017G21KT 10SM CLR 26/14 A3005 960 48 2400 170/17G21 RMK AO2
94908KDBQ DBQ20000619151009906/19/00 15:10:31  5-MIN KDBQ 192110Z 17014G21KT 10SM CLR 26/14 A3005 960 48 2400 170/14G21 RMK AO2
94908KDBQ DBQ20000619151509906/19/00 15:15:31  5-MIN KDBQ 192115Z 15012G19KT 10SM CLR 26/14 A3005 960 49 2400 150/12G19 RMK AO2
94908KDBQ DBQ20000619152009906/19/00 15:20:31  5-MIN KDBQ 192120Z 16013G19KT 10SM CLR 26/15 A3005 960 51 2400 160/13G19 RMK AO2
94908KDBQ DBQ20000619152509906/19/00 15:25:31  5-MIN KDBQ 192125Z 17014G18KT 10SM CLR 26/15 A3004 960 50 2500 160/14G18 RMK AO2
94908KDBQ DBQ20000619153009906/19/00 15:30:31  5-MIN KDBQ 192130Z 17014G20KT 10SM CLR 26/14 A3004 970 49 2400 170/14G20 RMK AO2
94908KDBQ DBQ20000619153509906/19/00 15:35:31  5-MIN KDBQ 192135Z 17017G22KT 10SM CLR 26/14 A3004 970 48 2400 170/17G22 RMK AO2
94908KDBQ DBQ20000619154009906/19/00 15:40:31  5-MIN KDBQ 192140Z 17015G22KT 10SM CLR 26/14 A3004 970 49 2400 170/15G22 RMK AO2
94908KDBQ DBQ20000619154509306/19/00 15:45:31  5-MIN KDBQ 192145Z 16017KT 10SM CLR 26/15 A3004 970 51 2400 160/17 RMK AO2
94908KDBQ DBQ20000619155011606/19/00 15:50:31  5-MIN KDBQ 192150Z 16015G19KT 10SM CLR 26/14 A3004 970 49 2400 160/15G19 RMK AO2 SLP169 T02560144
94908KDBQ DBQ20000619155511606/19/00 15:55:31  5-MIN KDBQ 192155Z 16016G21KT 10SM CLR 26/14 A3004 970 49 2400 160/16G21 RMK AO2 SLP169 T02560144
94908KDBQ DBQ20000619160009906/19/00 16:00:31  5-MIN KDBQ 192200Z 17015G21KT 10SM CLR 26/14 A3004 970 49 2400 160/15G21 RMK AO2
94908KDBQ DBQ20000619160509906/19/00 16:05:31  5-MIN KDBQ 192205Z 16015G19KT 10SM CLR 26/15 A3004 970 51 2400 160/15G19 RMK AO2
94908KDBQ DBQ20000619161009306/19/00 16:10:31  5-MIN KDBQ 192210Z 16017KT 10SM CLR 26/14 A3003 980 49 2500 160/17 RMK AO2
94908KDBQ DBQ20000619161509306/19/00 16:15:31  5-MIN KDBQ 192215Z 15014KT 10SM CLR 26/14 A3003 980 49 2500 150/14 RMK AO2
94908KDBQ DBQ20000619162009906/19/00 16:20:31  5-MIN KDBQ 192220Z 16015G21KT 10SM CLR 26/15 A3003 980 51 2500 160/15G21 RMK AO2
94908KDBQ DBQ20000619162509906/19/00 16:25:31  5-MIN KDBQ 192225Z 15013G21KT 10SM CLR 26/15 A3003 980 51 2500 150/13G21 RMK AO2
94908KDBQ DBQ20000619163009306/19/00 16:30:31  5-MIN KDBQ 192230Z 17014KT 10SM CLR 26/15 A3003 980 51 2500 170/14 RMK AO2
94908KDBQ DBQ20000619163509906/19/00 16:35:31  5-MIN KDBQ 192235Z 16014G19KT 10SM CLR 26/15 A3003 980 51 2500 160/14G19 RMK AO2
94908KDBQ DBQ20000619164009906/19/00 16:40:31  5-MIN KDBQ 192240Z 16013G20KT 10SM CLR 25/16 A3003 980 55 2400 160/13G20 RMK AO2
94908KDBQ DBQ20000619164509906/19/00 16:45:31  5-MIN KDBQ 192245Z 17015G20KT 10SM CLR 25/15 A3002 980 53 2400 170/15G20 RMK AO2
94908KDBQ DBQ20000619165011006/19/00 16:50:31  5-MIN KDBQ 192250Z 16015KT 10SM CLR 25/15 A3002 980 53 2400 160/15 RMK AO2 SLP165 T02500150
94908KDBQ DBQ20000619165511006/19/00 16:55:31  5-MIN KDBQ 192255Z 17013KT 10SM CLR 25/16 A3002 980 55 2400 160/13 RMK AO2 SLP164 T02500156
94908KDBQ DBQ20000619170009306/19/00 17:00:31  5-MIN KDBQ 192300Z 17010KT 10SM CLR 25/16 A3002 980 55 2400 170/10 RMK AO2
94908KDBQ DBQ20000619170509306/19/00 17:05:31  5-MIN KDBQ 192305Z 16015KT 10SM CLR 25/16 A3002 980 55 2400 160/15 RMK AO2
94908KDBQ DBQ20000619171009306/19/00 17:10:31  5-MIN KDBQ 192310Z 17015KT 10SM CLR 25/16 A3002 980 55 2400 170/15 RMK AO2
94908KDBQ DBQ20000619171509306/19/00 17:15:31  5-MIN KDBQ 192315Z 17014KT 10SM CLR 25/16 A3002 990 55 2400 170/14 RMK AO2
94908KDBQ DBQ20000619172009306/19/00 17:20:31  5-MIN KDBQ 192320Z 17014KT 10SM CLR 25/16 A3002 990 55 2400 170/14 RMK AO2
94908KDBQ DBQ20000619172509306/19/00 17:25:31  5-MIN KDBQ 192325Z 17014KT 10SM CLR 25/16 A3001 990 55 2400 170/14 RMK AO2
94908KDBQ DBQ20000619173009906/19/00 17:30:31  5-MIN KDBQ 192330Z 17017G21KT 10SM CLR 24/16 A3002 990 57 2300 170/17G21 RMK AO2
94908KDBQ DBQ20000619173509906/19/00 17:35:31  5-MIN KDBQ 192335Z 17017G21KT 10SM CLR 24/16 A3001 990 57 2300 170/17G21 RMK AO2
94908KDBQ DBQ20000619174009306/19/00 17:40:31  5-MIN KDBQ 192340Z 17016KT 10SM CLR 24/16 A3001 990 57 2400 170/16 RMK AO2
94908KDBQ DBQ20000619174509906/19/00 17:45:31  5-MIN KDBQ 192345Z 17011G19KT 10SM CLR 24/16 A3001 990 57 2400 170/11G19 RMK AO2
94908KDBQ DBQ20000619175012906/19/00 17:50:31  5-MIN KDBQ 192350Z 17011KT 10SM CLR 24/16 A3001 1000 61 2300 170/11 RMK AO2 SLP158 T02390161 10261 20239 56018
94908KDBQ DBQ20000619175513506/19/00 17:55:31  5-MIN KDBQ 192355Z 17012G18KT 10SM CLR 24/16 A3001 1000 61 2300 170/12G18 RMK AO2 SLP158 T02390161 10261 20239 58015
94908KDBQ DBQ20000619180010006/19/00 18:00:31  5-MIN KDBQ 200000Z 17011G18KT 10SM CLR 24/16 A3001 1000 61 2300 160/11G18 RMK AO2
94908KDBQ DBQ20000619180509406/19/00 18:05:31  5-MIN KDBQ 200005Z 17014KT 10SM CLR 24/16 A3001 1000 61 2300 170/14 RMK AO2
94908KDBQ DBQ20000619181009406/19/00 18:10:31  5-MIN KDBQ 200010Z 17012KT 10SM CLR 24/16 A3001 1000 61 2300 170/12 RMK AO2
94908KDBQ DBQ20000619181509306/19/00 18:15:31  5-MIN KDBQ 200015Z 16011KT 9SM CLR 24/16 A3001 1000 61 2300 160/11 RMK AO2
94908KDBQ DBQ20000619182009306/19/00 18:20:31  5-MIN KDBQ 200020Z 16009KT 9SM CLR 23/17 A3001 1000 66 2200 160/09 RMK AO2
94908KDBQ DBQ20000619182509306/19/00 18:25:31  5-MIN KDBQ 200025Z 16009KT 9SM CLR 23/17 A3001 1000 66 2200 160/09 RMK AO2
94908KDBQ DBQ20000619183009306/19/00 18:30:31  5-MIN KDBQ 200030Z 16010KT 9SM CLR 23/16 A3000 1000 63 2200 160/10 RMK AO2
94908KDBQ DBQ20000619183509306/19/00 18:35:31  5-MIN KDBQ 200035Z 16009KT 9SM CLR 23/17 A3000 1000 66 2200 160/09 RMK AO2
94908KDBQ DBQ20000619184009306/19/00 18:40:31  5-MIN KDBQ 200040Z 15009KT 9SM CLR 23/17 A3000 1010 68 2200 150/09 RMK AO2
94908KDBQ DBQ20000619184509306/19/00 18:45:31  5-MIN KDBQ 200045Z 15009KT 9SM CLR 23/17 A3000 1010 68 2200 150/09 RMK AO2
94908KDBQ DBQ20000619185012006/19/00 18:50:31  5-MIN KDBQ 200050Z AUTO 16009KT 9SM CLR 23/17 A3000 1000 68 2200 160/09 RMK AO2 SLP155 T02280167 TSNO
94908KDBQ DBQ20000619185512006/19/00 18:55:31  5-MIN KDBQ 200055Z AUTO 15009KT 9SM CLR 23/17 A3000 1010 68 2200 150/09 RMK AO2 SLP153 T02280167 TSNO
94908KDBQ DBQ20000619190010306/19/00 19:00:31  5-MIN KDBQ 200100Z AUTO 15009KT 9SM CLR 22/17 A3000 1010 70 2100 150/09 RMK AO2 TSNO
94908KDBQ DBQ20000619190510306/19/00 19:05:31  5-MIN KDBQ 200105Z AUTO 16009KT 9SM CLR 22/17 A3000 1010 70 2100 150/09 RMK AO2 TSNO
94908KDBQ DBQ20000619191010306/19/00 19:10:31  5-MIN KDBQ 200110Z AUTO 16009KT 9SM CLR 22/17 A3000 1010 70 2100 160/09 RMK AO2 TSNO
94908KDBQ DBQ20000619191510306/19/00 19:15:31  5-MIN KDBQ 200115Z AUTO 15009KT 9SM CLR 22/17 A3000 1010 70 2100 150/09 RMK AO2 TSNO
94908KDBQ DBQ20000619192010306/19/00 19:20:31  5-MIN KDBQ 200120Z AUTO 16009KT 9SM CLR 22/17 A3000 1010 70 2100 160/09 RMK AO2 TSNO
94908KDBQ DBQ20000619192510306/19/00 19:25:31  5-MIN KDBQ 200125Z AUTO 16009KT 8SM CLR 22/17 A3000 1010 70 2100 160/09 RMK AO2 TSNO
94908KDBQ DBQ20000619193010306/19/00 19:30:31  5-MIN KDBQ 200130Z AUTO 16008KT 8SM CLR 22/17 A3000 1000 70 2100 160/08 RMK AO2 TSNO
94908KDBQ DBQ20000619193510306/19/00 19:35:31  5-MIN KDBQ 200135Z AUTO 16008KT 8SM CLR 22/17 A3000 1000 73 2100 160/08 RMK AO2 TSNO
94908KDBQ DBQ20000619194010306/19/00 19:40:31  5-MIN KDBQ 200140Z AUTO 16009KT 7SM CLR 22/17 A3000 1010 73 2100 160/09 RMK AO2 TSNO
94908KDBQ DBQ20000619194510306/19/00 19:45:31  5-MIN KDBQ 200145Z AUTO 15010KT 8SM CLR 22/17 A2999 1010 73 2100 150/10 RMK AO2 TSNO
94908KDBQ DBQ20000619195012006/19/00 19:50:31  5-MIN KDBQ 200150Z AUTO 15010KT 8SM CLR 22/17 A2999 1010 73 2100 150/10 RMK AO2 SLP151 T02170167 TSNO
94908KDBQ DBQ20000619195512006/19/00 19:55:31  5-MIN KDBQ 200155Z AUTO 14010KT 8SM CLR 22/17 A2999 1010 73 2100 140/10 RMK AO2 SLP151 T02170167 TSNO
94908KDBQ DBQ20000619200010306/19/00 20:00:31  5-MIN KDBQ 200200Z AUTO 14010KT 9SM CLR 22/17 A2999 1010 73 2100 140/10 RMK AO2 TSNO
94908KDBQ DBQ20000619200510306/19/00 20:05:31  5-MIN KDBQ 200205Z AUTO 14008KT 9SM CLR 22/17 A2999 1010 73 2100 140/08 RMK AO2 TSNO
94908KDBQ DBQ20000619201010606/19/00 20:10:31  5-MIN KDBQ 200210Z AUTO 15010KT 9SM SCT120 22/17 A2999 1010 73 2100 150/10 RMK AO2 TSNO
94908KDBQ DBQ20000619201510606/19/00 20:15:31  5-MIN KDBQ 200215Z AUTO 15009KT 8SM BKN120 22/17 A2999 1010 73 2100 150/09 RMK AO2 TSNO
94908KDBQ DBQ20000619202010606/19/00 20:20:31  5-MIN KDBQ 200220Z AUTO 15009KT 9SM BKN120 22/17 A2999 1010 73 2100 150/09 RMK AO2 TSNO
94908KDBQ DBQ20000619202510606/19/00 20:25:31  5-MIN KDBQ 200225Z AUTO 15010KT 9SM BKN120 22/17 A2999 1010 73 2100 150/10 RMK AO2 TSNO
94908KDBQ DBQ20000619203010606/19/00 20:30:31  5-MIN KDBQ 200230Z AUTO 15010KT 9SM BKN120 22/17 A2999 1010 73 2100 150/10 RMK AO2 TSNO
94908KDBQ DBQ20000619203510606/19/00 20:35:31  5-MIN KDBQ 200235Z AUTO 15010KT 9SM BKN120 22/17 A2999 1010 73 2100 150/10 RMK AO2 TSNO
94908KDBQ DBQ20000619204010606/19/00 20:40:31  5-MIN KDBQ 200240Z AUTO 15010KT 9SM BKN120 22/17 A2999 1010 73 2100 150/10 RMK AO2 TSNO
94908KDBQ DBQ20000619204510606/19/00 20:45:31  5-MIN KDBQ 200245Z AUTO 15010KT 9SM BKN120 22/17 A3000 1010 73 2100 150/10 RMK AO2 TSNO
94908KDBQ DBQ20000619205012906/19/00 20:50:31  5-MIN KDBQ 200250Z AUTO 15009KT 9SM BKN120 22/17 A3000 1010 73 2100 150/09 RMK AO2 SLP154 T02170167 58015 TSNO
94908KDBQ DBQ20000619205512906/19/00 20:55:31  5-MIN KDBQ 200255Z AUTO 15009KT 9SM OVC120 22/18 A3000 1010 78 2100 150/09 RMK AO2 SLP152 T02170178 55003 TSNO
94908KDBQ DBQ20000619210010606/19/00 21:00:31  5-MIN KDBQ 200300Z AUTO 15009KT 9SM OVC110 22/18 A3000 1010 78 2100 150/09 RMK AO2 TSNO
94908KDBQ DBQ20000619210510606/19/00 21:05:31  5-MIN KDBQ 200305Z AUTO 15009KT 9SM OVC110 22/17 A3000 1010 73 2100 150/09 RMK AO2 TSNO
94908KDBQ DBQ20000619211010606/19/00 21:10:31  5-MIN KDBQ 200310Z AUTO 15009KT 9SM OVC110 22/17 A2999 1010 73 2100 150/09 RMK AO2 TSNO
94908KDBQ DBQ20000619211510606/19/00 21:15:31  5-MIN KDBQ 200315Z AUTO 15009KT 9SM OVC110 22/17 A2999 1010 73 2100 150/09 RMK AO2 TSNO
94908KDBQ DBQ20000619212010606/19/00 21:20:31  5-MIN KDBQ 200320Z AUTO 15011KT 9SM BKN110 22/17 A2999 1010 73 2100 150/11 RMK AO2 TSNO
94908KDBQ DBQ20000619212510606/19/00 21:25:31  5-MIN KDBQ 200325Z AUTO 15010KT 9SM BKN120 22/17 A2999 1020 73 2100 150/10 RMK AO2 TSNO
94908KDBQ DBQ20000619213010706/19/00 21:30:31  5-MIN KDBQ 200330Z AUTO 15011KT 10SM BKN120 22/17 A2999 1020 73 2100 150/11 RMK AO2 TSNO
94908KDBQ DBQ20000619213510706/19/00 21:35:31  5-MIN KDBQ 200335Z AUTO 15012KT 10SM BKN120 22/17 A2998 1020 73 2100 150/12 RMK AO2 TSNO
94908KDBQ DBQ20000619214010706/19/00 21:40:31  5-MIN KDBQ 200340Z AUTO 15010KT 10SM OVC120 22/17 A2998 1020 73 2100 150/10 RMK AO2 TSNO
94908KDBQ DBQ20000619214510706/19/00 21:45:31  5-MIN KDBQ 200345Z AUTO 15011KT 10SM OVC120 22/17 A2998 1020 73 2100 150/11 RMK AO2 TSNO
94908KDBQ DBQ20000619215012406/19/00 21:50:31  5-MIN KDBQ 200350Z AUTO 15011KT 10SM OVC110 22/17 A2998 1020 73 2100 150/11 RMK AO2 SLP147 T02170167 TSNO
94908KDBQ DBQ20000619215512406/19/00 21:55:31  5-MIN KDBQ 200355Z AUTO 15012KT 10SM OVC110 22/17 A2998 1020 73 2100 150/12 RMK AO2 SLP147 T02170167 TSNO
94908KDBQ DBQ20000619220010606/19/00 22:00:31  5-MIN KDBQ 200400Z AUTO 15012KT 9SM OVC110 22/17 A2998 1020 73 2100 150/12 RMK AO2 TSNO
94908KDBQ DBQ20000619220510706/19/00 22:05:31  5-MIN KDBQ 200405Z AUTO 15012KT 10SM OVC110 22/17 A2998 1020 73 2100 150/12 RMK AO2 TSNO
94908KDBQ DBQ20000619221010706/19/00 22:10:31  5-MIN KDBQ 200410Z AUTO 15012KT 10SM OVC110 22/17 A2998 1030 73 2100 150/12 RMK AO2 TSNO
94908KDBQ DBQ20000619221511406/19/00 22:15:31  5-MIN KDBQ 200415Z AUTO 15014KT 10SM FEW037 OVC110 22/17 A2997 1030 73 2100 140/14 RMK AO2 TSNO
94908KDBQ DBQ20000619222010706/19/00 22:20:31  5-MIN KDBQ 200420Z AUTO 15014KT 10SM OVC110 22/17 A2997 1030 73 2100 140/14 RMK AO2 TSNO
94908KDBQ DBQ20000619222510706/19/00 22:25:31  5-MIN KDBQ 200425Z AUTO 14011KT 10SM OVC110 22/17 A2997 1030 73 2100 140/11 RMK AO2 TSNO
94908KDBQ DBQ20000619223010706/19/00 22:30:31  5-MIN KDBQ 200430Z AUTO 15012KT 10SM OVC110 22/17 A2997 1030 73 2100 150/12 RMK AO2 TSNO
94908KDBQ DBQ20000619223511406/19/00 22:35:31  5-MIN KDBQ 200435Z AUTO 15012KT 10SM FEW033 OVC110 22/17 A2997 1030 73 2100 150/12 RMK AO2 TSNO
94908KDBQ DBQ20000619224011306/19/00 22:40:31  5-MIN KDBQ 200440Z AUTO 15013KT 9SM FEW033 OVC110 22/17 A2997 1030 75 2100 150/13 RMK AO2 TSNO
94908KDBQ DBQ20000619224510606/19/00 22:45:31  5-MIN KDBQ 200445Z AUTO 15012KT 9SM OVC110 22/17 A2997 1030 75 2100 150/12 RMK AO2 TSNO
94908KDBQ DBQ20000619225012306/19/00 22:50:31  5-MIN KDBQ 200450Z AUTO 15011KT 9SM OVC110 21/17 A2996 1040 78 2000 150/11 RMK AO2 SLP141 T02110172 TSNO
94908KDBQ DBQ20000619225512306/19/00 22:55:31  5-MIN KDBQ 200455Z AUTO 15012KT 9SM BKN110 21/17 A2996 1040 78 2000 150/12 RMK AO2 SLP141 T02110172 TSNO
94908KDBQ DBQ20000619230010606/19/00 23:00:31  5-MIN KDBQ 200500Z AUTO 15011KT 9SM BKN110 21/17 A2996 1040 78 2000 150/11 RMK AO2 TSNO
94908KDBQ DBQ20000619230510606/19/00 23:05:31  5-MIN KDBQ 200505Z AUTO 15012KT 9SM OVC110 21/17 A2996 1040 78 2000 150/12 RMK AO2 TSNO
94908KDBQ DBQ20000619231010606/19/00 23:10:31  5-MIN KDBQ 200510Z AUTO 15011KT 9SM OVC120 21/17 A2995 1050 78 2000 140/11 RMK AO2 TSNO
94908KDBQ DBQ20000619231510606/19/00 23:15:31  5-MIN KDBQ 200515Z AUTO 14013KT 9SM OVC110 21/17 A2995 1050 78 2000 140/13 RMK AO2 TSNO
94908KDBQ DBQ20000619232010606/19/00 23:20:31  5-MIN KDBQ 200520Z AUTO 15013KT 9SM OVC110 21/17 A2995 1050 78 2000 150/13 RMK AO2 TSNO
94908KDBQ DBQ20000619232510606/19/00 23:25:31  5-MIN KDBQ 200525Z AUTO 15013KT 9SM OVC110 21/17 A2995 1050 78 2000 150/13 RMK AO2 TSNO
94908KDBQ DBQ20000619233010606/19/00 23:30:31  5-MIN KDBQ 200530Z AUTO 15013KT 9SM OVC110 21/17 A2994 1060 78 2100 150/13 RMK AO2 TSNO
94908KDBQ DBQ20000619233510606/19/00 23:35:31  5-MIN KDBQ 200535Z AUTO 15014KT 9SM BKN110 21/17 A2994 1060 78 2100 150/14 RMK AO2 TSNO
94908KDBQ DBQ20000619234011306/19/00 23:40:31  5-MIN KDBQ 200540Z AUTO 15013KT 9SM FEW029 BKN110 21/17 A2994 1060 78 2100 150/13 RMK AO2 TSNO
94908KDBQ DBQ20000619234511306/19/00 23:45:31  5-MIN KDBQ 200545Z AUTO 15014KT 9SM FEW029 BKN110 21/17 A2994 1060 78 2100 140/14 RMK AO2 TSNO
94908KDBQ DBQ20000619235015106/19/00 23:50:31  5-MIN KDBQ 200550Z AUTO 15014KT 9SM BKN110 21/17 A2994 1060 78 2100 150/14 RMK AO2 SLP132 T02110172 10239 20211 402610128 55003 TSNO
94908KDBQ DBQ20000619235515106/19/00 23:55:31  5-MIN KDBQ 200555Z AUTO 15014KT 9SM BKN110 21/17 A2994 1060 78 2100 150/14 RMK AO2 SLP132 T02110172 10239 20211 402610128 58019 TSNO
94908KDBQ DBQ20000620000010606/20/00 00:00:31  5-MIN KDBQ 200600Z AUTO 15014KT 9SM BKN110 21/17 A2994 1060 78 2100 150/14 RMK AO2 TSNO
94908KDBQ DBQ20000620000510606/20/00 00:05:31  5-MIN KDBQ 200605Z AUTO 15014KT 9SM OVC110 21/17 A2994 1060 78 2100 150/14 RMK AO2 TSNO
94908KDBQ DBQ20000620001011306/20/00 00:10:31  5-MIN KDBQ 200610Z AUTO 15013KT 9SM BKN100 OVC120 21/17 A2994 1060 78 2100 150/13 RMK AO2 TSNO
94908KDBQ DBQ20000620001511906/20/00 00:15:31  5-MIN KDBQ 200615Z AUTO 15014G19KT 8SM BKN090 OVC110 21/17 A2993 1070 78 2100 150/14G19 RMK AO2 TSNO
94908KDBQ DBQ20000620002011906/20/00 00:20:31  5-MIN KDBQ 200620Z AUTO 15015G19KT 8SM BKN090 OVC110 21/17 A2993 1070 78 2100 150/15G19 RMK AO2 TSNO
94908KDBQ DBQ20000620002512606/20/00 00:25:31  5-MIN KDBQ 200625Z AUTO 15013G19KT 8SM FEW031 BKN100 OVC120 21/17 A2993 1070 78 2100 150/13G19 RMK AO2 TSNO
94908KDBQ DBQ20000620003011306/20/00 00:30:31  5-MIN KDBQ 200630Z AUTO 15014KT 8SM SCT029 OVC095 21/18 A2993 1070 81 2100 150/14 RMK AO2 TSNO
94908KDBQ DBQ20000620003513606/20/00 00:35:31  5-MIN KDBQ 200635Z AUTO 15013KT 7SM -RA SCT029 BKN045 OVC090 21/18 A2993 1070 81 2100 150/13 RMK AO2 RAB33 P0000 TSNO
94908KDBQ DBQ20000620004013906/20/00 00:40:31  5-MIN KDBQ 200640Z AUTO 15014KT 5SM -RA BR FEW029 BKN043 OVC090 21/18 A2993 1070 87 2000 150/14 RMK AO2 RAB33 P0000 TSNO
94908KDBQ DBQ20000620004513906/20/00 00:45:31  5-MIN KDBQ 200645Z AUTO 16013KT 5SM -RA BR SCT034 BKN050 OVC100 21/18 A2993 1070 87 2000 160/13 RMK AO2 RAB33 P0002 TSNO
94908KDBQ DBQ20000620005015606/20/00 00:50:31  5-MIN KDBQ 200650Z AUTO 16013KT 3SM +RA BR BKN026 BKN050 OVC080 20/18 A2992 1070 90 1900 160/13 RMK AO2 RAB33 SLP127 P0005 T02000183 TSNO
94908KDBQ DBQ20000620005516006/20/00 00:55:31  5-MIN KDBQ 200655Z AUTO 16013KT 2 1/2SM +RA BR BKN023 BKN029 OVC080 20/18 A2992 1080 90 1900 160/13 RMK AO2 RAB33 SLP127 P0008 T02000183 TSNO
94908KDBQ DBQ20000620010013606/20/00 01:00:31  5-MIN KDBQ 200700Z AUTO 16013KT 2 1/2SM RA BR BKN020 BKN055 OVC080 20/18 A2992 1080 90 2000 160/13 RMK AO2 P0002 TSNO
94908KDBQ DBQ20000620010513306/20/00 01:05:31  5-MIN KDBQ 200705Z AUTO 15015KT 3SM +RA BR BKN018 BKN050 OVC080 20/19 A2991 1080 93 2000 150/15 RMK AO2 P0004 TSNO
94908KDBQ DBQ20000620011013306/20/00 01:10:31  5-MIN KDBQ 200710Z AUTO 15016KT 3SM -RA BR SCT016 BKN045 OVC050 20/19 A2991 1090 93 2000 140/16 RMK AO2 P0004 TSNO
94908KDBQ DBQ20000620011512606/20/00 01:15:31  5-MIN KDBQ 200715Z AUTO 15015KT 4SM -RA BR SCT016 OVC050 20/19 A2991 1090 93 2000 150/15 RMK AO2 P0004 TSNO
94908KDBQ DBQ20000620012013506/20/00 01:20:31  5-MIN KDBQ 200720Z AUTO 15016KT 5SM BR FEW014 BKN047 BKN055 20/19 A2990 1090 93 2000 150/16 RMK AO2 RAE19 P0005 TSNO
94908KDBQ DBQ20000620012513306/20/00 01:25:31  5-MIN KDBQ 200725Z AUTO 14014KT 4SM -RA BR FEW016 SCT031 BKN050 20/19 A2990 1100 93 2000 140/14 RMK AO2 P0005 TSNO
94908KDBQ DBQ20000620013013306/20/00 01:30:31  5-MIN KDBQ 200730Z AUTO 14016KT 3SM -RA BR SCT021 SCT031 OVC047 20/19 A2990 1100 93 2000 140/16 RMK AO2 P0006 TSNO
94908KDBQ DBQ20000620013514306/20/00 01:35:31  5-MIN KDBQ 200735Z AUTO 14017G21KT 2 1/2SM +RA BR FEW010 BKN023 OVC055 20/19 A2989 1100 93 2000 140/17G21 RMK AO2 P0011 TSNO
94908KDBQ DBQ20000620014013706/20/00 01:40:31  5-MIN KDBQ 200740Z AUTO 15012KT 2 1/2SM -RA BR FEW008 BKN023 OVC048 20/19 A2989 1110 97 2000 150/12 RMK AO2 P0011 TSNO
94908KDBQ DBQ20000620014513306/20/00 01:45:31  5-MIN KDBQ 200745Z AUTO 14014KT 3SM -RA BR SCT008 BKN023 OVC047 20/19 A2989 1110 97 2000 140/14 RMK AO2 P0011 TSNO
94908KDBQ DBQ20000620015015006/20/00 01:50:31  5-MIN KDBQ 200750Z AUTO 15015KT 3SM -RA BR BKN010 BKN021 OVC032 20/19 A2989 1110 97 2000 140/15 RMK AO2 SLP114 P0011 T02000194 TSNO
94908KDBQ DBQ20000620015514906/20/00 01:55:31  5-MIN KDBQ 200755Z AUTO 15015G20KT 4SM -RA BR BKN010 OVC021 20/19 A2988 1110 97 2000 140/15G20 RMK AO2 SLP113 P0012 T02000194 TSNO
94908KDBQ DBQ20000620020013906/20/00 02:00:31  5-MIN KDBQ 200800Z AUTO 15013G20KT 3SM -RA BR BKN010 BKN015 OVC046 20/19 A2988 1110 97 2000 150/13G20 RMK AO2 P0000 TSNO
94908KDBQ DBQ20000620020515106/20/00 02:05:31  5-MIN KDBQ 200805Z AUTO 16014G20KT 3SM -RA BR BKN010 BKN015 OVC020 20/19 A2988 1120 97 2000 160/14G20 RMK AO2 CIG 007V011 P0001 TSNO
94908KDBQ DBQ20000620021014706/20/00 02:10:31  5-MIN KDBQ 200810Z AUTO 16013G20KT 2 1/2SM RA BR BKN010 OVC014 20/19 A2988 1120 97 2000 160/13G20 RMK AO2 CIG 007V011 P0002 TSNO
94908KDBQ DBQ20000620021513806/20/00 02:15:31  5-MIN KDBQ 200815Z AUTO 16015KT 3SM -RA BR BKN010 OVC014 20/19 A2988 1120 97 2000 160/15 RMK AO2 CIG 007V011 P0003 TSNO
94908KDBQ DBQ20000620022014706/20/00 02:20:31  5-MIN KDBQ 200820Z AUTO 16015G21KT 2 1/2SM RA BR BKN010 OVC014 20/19 A2987 1120 97 2000 160/15G21 RMK AO2 CIG 007V011 P0005 TSNO
94908KDBQ DBQ20000620022514706/20/00 02:25:31  5-MIN KDBQ 200825Z AUTO 16014G21KT 2 1/2SM RA BR BKN010 OVC014 20/19 A2987 1130 97 2000 160/14G21 RMK AO2 CIG 007V011 P0006 TSNO
94908KDBQ DBQ20000620023014106/20/00 02:30:31  5-MIN KDBQ 200830Z AUTO 16019KT 2 1/2SM RA BR BKN008 OVC012 20/19 A2987 1130 97 2000 160/19 RMK AO2 CIG 006V010 P0008 TSNO
94908KDBQ DBQ20000620023514806/20/00 02:35:31  5-MIN KDBQ 200835Z AUTO 16017G21KT 2 1/2SM +RA BR BKN008 OVC013 20/19 A2986 1130 97 2000 160/17G21 RMK AO2 CIG 006V010 P0010 TSNO
94908KDBQ DBQ20000620024014106/20/00 02:40:31  5-MIN KDBQ 200840Z AUTO 16017KT 2 1/2SM RA BR BKN008 OVC013 20/19 A2986 1130 97 2000 160/17 RMK AO2 CIG 004V010 P0011 TSNO
94908KDBQ DBQ20000620024514106/20/00 02:45:31  5-MIN KDBQ 200845Z AUTO 16017G21KT 2 1/2SM -RA BR OVC008 20/19 A2986 1140 97 2000 160/17G21 RMK AO2 CIG 004V010 P0012 TSNO
94908KDBQ DBQ20000620025015806/20/00 02:50:31  5-MIN KDBQ 200850Z AUTO 16017G21KT 2 1/2SM -RA BR OVC008 20/19 A2985 1140 97 2000 160/17G21 RMK AO2 SLP103 P0012 60032 T02000194 58019 TSNO
94908KDBQ DBQ20000620025515306/20/00 02:55:31  5-MIN KDBQ 200855Z AUTO 15015G22KT 3SM RA BR OVC008 20/19 A2985 1140 97 2000 150/15G22 RMK AO2 SLP101 P0013 60033 T02000194 58029 TSNO
94908KDBQ DBQ20000620030013506/20/00 03:00:31  5-MIN KDBQ 200900Z AUTO 15014G22KT 2 1/2SM RA BR BKN008 OVC022 20/19 A2985 1150 97 2000 150/14G22 RMK AO2 P0001 TSNO
94908KDBQ DBQ20000620030512906/20/00 03:05:31  5-MIN KDBQ 200905Z AUTO 15015KT 2 1/2SM RA BR BKN008 OVC022 20/19 A2985 1150 97 2000 150/15 RMK AO2 P0003 TSNO
94908KDBQ DBQ20000620031013206/20/00 03:10:31  5-MIN KDBQ 200910Z AUTO 15015G22KT 2SM +RA BR BKN008 OVC017 20/19 A2984 1150 97 2000 150/15G22 RMK AO2 P0005 TSNO
94908KDBQ DBQ20000620031513206/20/00 03:15:31  5-MIN KDBQ 200915Z AUTO 15016G22KT 2SM +RA BR BKN008 OVC015 20/19 A2983 1160 97 2000 150/16G22 RMK AO2 P0008 TSNO
94908KDBQ DBQ20000620032013206/20/00 03:20:31  5-MIN KDBQ 200920Z AUTO 15019G23KT 2SM -RA BR BKN008 OVC015 20/19 A2983 1160 97 2100 140/19G23 RMK AO2 P0008 TSNO
94908KDBQ DBQ20000620032513306/20/00 03:25:31  5-MIN KDBQ 200925Z AUTO 15017KT 3SM -RA BR BKN008 BKN015 OVC028 20/19 A2983 1160 97 2000 150/17 RMK AO2 P0009 TSNO
94908KDBQ DBQ20000620033013906/20/00 03:30:31  5-MIN KDBQ 200930Z AUTO 15018G22KT 4SM -RA BR SCT008 BKN013 OVC028 20/19 A2983 1160 97 2100 150/18G22 RMK AO2 P0009 TSNO
94908KDBQ DBQ20000620033513906/20/00 03:35:31  5-MIN KDBQ 200935Z AUTO 16016G22KT 3SM -RA BR BKN008 BKN013 OVC031 20/19 A2984 1150 97 2000 160/16G22 RMK AO2 P0011 TSNO
94908KDBQ DBQ20000620034016106/20/00 03:40:31  5-MIN KDBQ 200940Z AUTO 15018G26KT 1 3/4SM +RA BR FEW004 BKN010 OVC017 20/19 A2983 1170 97 2100 150/18G26 RMK AO2 PK WND 14026/0936 P0016 TSNO
94908KDBQ DBQ20000620034516006/20/00 03:45:31  5-MIN KDBQ 200945Z AUTO 14021G26KT 1 3/4SM RA BR BKN008 BKN014 OVC030 20/19 A2982 1170 97 2100 140/21G26 RMK AO2 PK WND 14026/0936 P0017 TSNO
94908KDBQ DBQ20000620035017706/20/00 03:50:31  5-MIN KDBQ 200950Z AUTO 15019G23KT 2 1/2SM RA BR FEW006 BKN012 OVC033 20/19 A2982 1180 97 2100 150/19G23 RMK AO2 PK WND 14026/0936 SLP090 P0019 T02000194 TSNO
94908KDBQ DBQ20000620035517806/20/00 03:55:31  5-MIN KDBQ 200955Z AUTO 15017G28KT 2 1/2SM +RA BR BKN009 BKN015 OVC033 20/19 A2982 1180 97 2100 150/17G28 RMK AO2 PK WND 14028/0951 SLP090 P0021 T02000194 TSNO
94908KDBQ DBQ20000620040014206/20/00 04:00:31  5-MIN KDBQ 201000Z AUTO 15016G28KT 2 1/2SM RA BR BKN009 BKN015 OVC033 20/19 A2982 1170 97 2100 150/16G28 RMK AO2 P0003 TSNO
94908KDBQ DBQ20000620040514306/20/00 04:05:31  5-MIN KDBQ 201005Z AUTO 16017G24KT 1 3/4SM +RA BR BKN006 BKN015 OVC033 20/19 A2981 1180 97 2100 150/17G24 RMK AO2 P0007 TSNO
94908KDBQ DBQ20000620041013906/20/00 04:10:31  5-MIN KDBQ 201010Z AUTO 16016G24KT 2SM -RA BR BKN006 BKN013 OVC033 20/19 A2981 1180 97 2100 160/16G24 RMK AO2 P0008 TSNO
94908KDBQ DBQ20000620041515806/20/00 04:15:31  5-MIN KDBQ 201015Z AUTO 15019G33KT 3SM -RA BR BKN006 BKN013 OVC017 20/20 A2981 1180 100 2100 150/19G33 RMK AO2 PK WND 15033/1015 P0008 TSNO
94908KDBQ DBQ20000620042015006/20/00 04:20:31  5-MIN KDBQ 201020Z AUTO 16018G33KT 4SM -RA BR BKN006 OVC013 21/20 A2980 1190 97 2100 160/18G33 RMK AO2 PK WND 15033/1015 P0008 TSNO
94908KDBQ DBQ20000620042516206/20/00 04:25:31  5-MIN KDBQ 201025Z AUTO 16018G26KT 4SM -RA BR BKN008 OVC013 21/20 A2980 1190 97 2200 160/18G26 RMK AO2 PK WND 15033/1015 CIG 003V008 P0008 TSNO
94908KDBQ DBQ20000620043016206/20/00 04:30:31  5-MIN KDBQ 201030Z AUTO 16018G26KT 4SM -RA BR BKN008 OVC013 21/20 A2980 1190 97 2200 160/18G26 RMK AO2 PK WND 15033/1015 CIG 003V010 P0009 TSNO
94908KDBQ DBQ20000620043516206/20/00 04:35:31  5-MIN KDBQ 201035Z AUTO 16019G25KT 3SM -RA BR BKN008 OVC013 21/20 A2979 1200 97 2200 160/19G25 RMK AO2 PK WND 15033/1015 CIG 003V010 P0010 TSNO
94908KDBQ DBQ20000620044016206/20/00 04:40:31  5-MIN KDBQ 201040Z AUTO 16018G25KT 3SM -RA BR BKN008 OVC013 21/20 A2979 1200 97 2200 160/18G25 RMK AO2 PK WND 15033/1015 CIG 005V012 P0010 TSNO
94908KDBQ DBQ20000620044515206/20/00 04:45:31  5-MIN KDBQ 201045Z 16016G23KT 4SM -RA BR BKN008 OVC013 21/20 A2979 1200 97 2200 160/16G23 RMK AO2 PK WND 15033/1015 CIG 005V011 P0010
94908KDBQ DBQ20000620045016906/20/00 04:50:31  5-MIN KDBQ 201050Z 15017G23KT 4SM -RA BR BKN008 OVC013 21/20 A2978 1210 97 2200 150/17G23 RMK AO2 PK WND 15033/1015 CIG 005V010 SLP079 P0010 T02060200
94908KDBQ DBQ20000620045517106/20/00 04:55:31  5-MIN KDBQ 201055Z 16017G23KT 4SM BR BKN008 OVC013 21/20 A2978 1210 97 2200 160/17G23 RMK AO2 PK WND 15033/1015 RAE54 CIG 005V010 SLP078 P0010 T02060200
94908KDBQ DBQ20000620050012406/20/00 05:00:31  5-MIN KDBQ 201100Z 15017G23KT 4SM BR BKN008 OVC013 21/20 A2978 1210 97 2200 150/17G23 RMK AO2 CIG 005V010
94908KDBQ DBQ20000620050511706/20/00 05:05:31  5-MIN KDBQ 201105Z 15018G23KT 3SM BR OVC006 21/20 A2977 1210 97 2200 150/18G23 RMK AO2 CIG 005V011
94908KDBQ DBQ20000620051012406/20/00 05:10:31  5-MIN KDBQ 201110Z 15017G25KT 3SM BR BKN006 OVC013 21/20 A2977 1220 97 2200 150/17G25 RMK AO2 CIG 005V009
94908KDBQ DBQ20000620051512406/20/00 05:15:31  5-MIN KDBQ 201115Z 15017G25KT 3SM BR BKN008 OVC013 21/20 A2977 1220 97 2200 150/17G25 RMK AO2 CIG 005V010
94908KDBQ DBQ20000620052012406/20/00 05:20:31  5-MIN KDBQ 201120Z 16016G23KT 3SM BR BKN008 OVC012 21/20 A2977 1220 93 2200 160/16G23 RMK AO2 CIG 005V010
94908KDBQ DBQ20000620052514006/20/00 05:25:31  5-MIN KDBQ 201125Z 16017G24KT 3SM -RA BR BKN008 OVC012 21/20 A2976 1220 93 2300 160/17G24 RMK AO2 RAB23 CIG 005V010 P0001
94908KDBQ DBQ20000620053013306/20/00 05:30:31  5-MIN KDBQ 201130Z 16017G24KT 3SM -RA BR OVC008 21/20 A2976 1220 93 2300 160/17G24 RMK AO2 RAB23 CIG 005V010 P0001
94908KDBQ DBQ20000620053513306/20/00 05:35:31  5-MIN KDBQ 201135Z 16016G24KT 3SM -RA BR OVC008 21/20 A2976 1220 93 2300 160/16G24 RMK AO2 RAB23 CIG 005V010 P0001
94908KDBQ DBQ20000620054015706/20/00 05:40:31  5-MIN KDBQ 201140Z 15020G26KT 3SM BR BKN008 OVC011 21/20 A2975 1240 93 2300 150/20G26 RMK AO2 PK WND 14026/1140 RAB23E36 CIG 005V009 P0001
94908KDBQ DBQ20000620054515706/20/00 05:45:31  5-MIN KDBQ 201145Z 15020G26KT 3SM BR BKN008 OVC011 21/21 A2975 1230 97 2300 150/20G26 RMK AO2 PK WND 15026/1143 RAB23E36 CIG 005V009 P0001
94908KDBQ DBQ20000620055020406/20/00 05:50:31  5-MIN KDBQ 201150Z 15017G26KT 3SM BR BKN008 OVC019 21/21 A2975 1240 97 2300 150/17G26 RMK AO2 PK WND 16026/1148 RAB23E36 CIG 005V014 SLP068 P0001 60065 70065 T02110206 10211 20194 58029
94908KDBQ DBQ20000620055520806/20/00 05:55:31  5-MIN KDBQ 201155Z 16020G26KT 2 1/2SM BR BKN008 OVC017 21/21 A2975 1240 97 2300 160/20G26 RMK AO2 PK WND 16026/1155 RAB23E36 CIG 005V011 SLP067 P0001 60065 70065 T02110206 10211 20194 56033
94908KDBQ DBQ20000620060012406/20/00 06:00:31  5-MIN KDBQ 201200Z 17018G26KT 3SM BR BKN008 OVC017 21/21 A2975 1230 97 2300 170/18G26 RMK AO2 CIG 005V012
94908KDBQ DBQ20000620060513506/20/00 06:05:31  5-MIN KDBQ 201205Z 16018G24KT 2 1/2SM BR BKN008 BKN012 OVC017 21/21 A2975 1240 97 2300 160/18G24 RMK AO2 CIG 006V010
94908KDBQ DBQ20000620061014406/20/00 06:10:31  5-MIN KDBQ 201210Z 16018G24KT 2 1/2SM -RA BR BKN008 OVC014 21/21 A2975 1240 97 2300 160/18G24 RMK AO2 RAB08 CIG 006V011 P0000
94908KDBQ DBQ20000620061512806/20/00 06:15:31  5-MIN KDBQ 201215Z 16019G25KT 2SM -RA BR BKN008 OVC012 21/21 A2974 1240 97 2300 160/19G25 RMK AO2 RAB08 P0001
94908KDBQ DBQ20000620062014406/20/00 06:20:31  5-MIN KDBQ 201220Z 16020G25KT 2 1/2SM -RA BR BKN008 OVC014 21/21 A2974 1250 97 2300 160/20G25 RMK AO2 RAB08 CIG 006V011 P0001
94908KDBQ DBQ20000620062513706/20/00 06:25:31  5-MIN KDBQ 201225Z 16018G25KT 2 1/2SM -RA BR OVC008 21/21 A2973 1250 97 2300 160/18G25 RMK AO2 RAB08 CIG 006V013 P0001
94908KDBQ DBQ20000620063014406/20/00 06:30:31  5-MIN KDBQ 201230Z 16019G24KT 2 1/2SM -RA BR BKN008 OVC012 21/21 A2973 1250 97 2300 160/19G24 RMK AO2 RAB08 CIG 006V011 P0001
94908KDBQ DBQ20000620063515106/20/00 06:35:31  5-MIN KDBQ 201235Z 15018G24KT 2 1/2SM -RA BR BKN008 BKN012 OVC021 21/21 A2973 1250 97 2300 150/18G24 RMK AO2 RAB08 CIG 006V009 P0001
94908KDBQ DBQ20000620064016806/20/00 06:40:31  5-MIN KDBQ 201240Z 17019G28KT 2 1/2SM BR BKN008 BKN012 OVC021 21/21 A2973 1250 97 2300 170/19G28 RMK AO2 PK WND 17028/1237 RAB08E40 CIG 006V009 P0001
94908KDBQ DBQ20000620064516806/20/00 06:45:31  5-MIN KDBQ 201245Z 16016G28KT 2 1/2SM BR BKN008 BKN012 OVC021 21/21 A2973 1260 97 2300 160/16G28 RMK AO2 PK WND 17028/1237 RAB08E40 CIG 006V009 P0001
94908KDBQ DBQ20000620065018506/20/00 06:50:31  5-MIN KDBQ 201250Z 16016G21KT 2 1/2SM BR BKN008 BKN012 OVC021 21/21 A2973 1260 97 2300 160/16G21 RMK AO2 PK WND 17028/1237 RAB08E40 CIG 006V009 SLP061 P0001 T02110206
94908KDBQ DBQ20000620065518606/20/00 06:55:31  5-MIN KDBQ 201255Z 16019G26KT 2 1/2SM -RA BR BKN008 BKN014 OVC021 21/21 A2973 1260 97 2300 160/19G26 RMK AO2 PK WND 17028/1237 RAB08 CIG 006V011 SLP059 P0002 T02110206
94908KDBQ DBQ20000620070013806/20/00 07:00:31  5-MIN KDBQ 201300Z 17017G26KT 2 1/2SM -RA BR BKN008 OVC014 22/21 A2973 1260 93 2400 170/17G26 RMK AO2 CIG 006V011 P0000
94908KDBQ DBQ20000620070513206/20/00 07:05:31  5-MIN KDBQ 201305Z 16017KT 2 1/2SM -RA BR BKN008 OVC012 22/21 A2972 1260 93 2400 160/17 RMK AO2 CIG 006V011 P0000
94908KDBQ DBQ20000620071014006/20/00 07:10:31  5-MIN KDBQ 201310Z 16018G24KT 2 1/2SM BR BKN008 OVC014 22/21 A2972 1270 97 2400 160/18G24 RMK AO2 RAE06 CIG 006V012 P0000
94908KDBQ DBQ20000620071514006/20/00 07:15:31  5-MIN KDBQ 201315Z 16016G25KT 2 1/2SM BR BKN008 OVC014 22/21 A2972 1270 93 2400 160/16G25 RMK AO2 RAE06 CIG 006V010 P0000
94908KDBQ DBQ20000620072013606/20/00 07:20:31  5-MIN KDBQ 201320Z 16018G25KT 3SM BR BKN010 OVC015 22/21 A2971 1270 97 2400 160/18G25 RMK AO2 RAE06 CIG 006V013 P0000
94908KDBQ DBQ20000620072512406/20/00 07:25:31  5-MIN KDBQ 201325Z 16019G22KT 3SM BR BKN008 OVC015 22/21 A2971 1270 97 2400 160/19G22 RMK AO2 RAE06 P0000
94908KDBQ DBQ20000620073014206/20/00 07:30:31  5-MIN KDBQ 201330Z 16019G27KT 4SM BR BKN008 OVC015 22/21 A2970 1280 97 2400 160/19G27 RMK AO2 PK WND 16027/1328 RAE06 P0000
94908KDBQ DBQ20000620073514206/20/00 07:35:31  5-MIN KDBQ 201335Z 17023G27KT 4SM BR BKN008 OVC015 22/21 A2970 1280 93 2500 160/23G27 RMK AO2 PK WND 17027/1335 RAE06 P0000
94908KDBQ DBQ20000620074014206/20/00 07:40:31  5-MIN KDBQ 201340Z 16022G29KT 4SM BR BKN008 OVC015 22/21 A2970 1280 93 2500 150/22G29 RMK AO2 PK WND 16029/1340 RAE06 P0000
94908KDBQ DBQ20000620074514206/20/00 07:45:31  5-MIN KDBQ 201345Z 16021G31KT 4SM BR BKN008 OVC015 22/21 A2970 1280 93 2500 160/21G31 RMK AO2 PK WND 16031/1341 RAE06 P0000
94908KDBQ DBQ20000620075017106/20/00 07:50:31  5-MIN KDBQ 201350Z 16020G31KT 4SM BR BKN008 OVC015 22/21 A2970 1280 93 2500 160/20G31 RMK AO2 PK WND 16031/1341 RAE06 CIG 008V012 SLP052 P0000 T02220211
94908KDBQ DBQ20000620075515906/20/00 07:55:31  5-MIN KDBQ 201355Z 16019G30KT 4SM BR SCT008 OVC013 22/21 A2969 1290 93 2500 160/19G30 RMK AO2 PK WND 16031/1341 RAE06 SLP048 P0000 T02220211
94908KDBQ DBQ20000620080014206/20/00 08:00:31  5-MIN KDBQ 201400Z 16023G27KT 4SM BR BKN010 OVC013 22/21 A2968 1300 93 2500 160/23G27 RMK AO2 PK WND 16027/1359 CIG 008V013
94908KDBQ DBQ20000620080514906/20/00 08:05:31  5-MIN KDBQ 201405Z 15020G29KT 5SM BR BKN010 OVC015 22/21 A2967 1310 93 2500 150/20G29 RMK AO2 PK WND 16029/1403 CIG 008V013 PRESFR
94908KDBQ DBQ20000620081013706/20/00 08:10:31  5-MIN KDBQ 201410Z 15023G29KT 5SM BR SCT008 OVC013 23/21 A2966 1320 90 2600 150/23G29 RMK AO2 PK WND 15029/1408 PRESFR
94908KDBQ DBQ20000620081513706/20/00 08:15:31  5-MIN KDBQ 201415Z 15023G29KT 5SM BR FEW008 OVC013 23/21 A2965 1330 90 2600 150/23G29 RMK AO2 PK WND 16029/1414 PRESFR
94908KDBQ DBQ20000620082013006/20/00 08:20:31  5-MIN KDBQ 201420Z 16023G29KT 6SM BR FEW008 OVC013 23/22 A2966 1320 90 2600 160/23G29 RMK AO2 PK WND 16029/1414
94908KDBQ DBQ20000620082513006/20/00 08:25:31  5-MIN KDBQ 201425Z 16019G28KT 6SM BR SCT010 OVC015 23/22 A2967 1310 93 2600 160/19G28 RMK AO2 PK WND 16029/1414
94908KDBQ DBQ20000620083012306/20/00 08:30:31  5-MIN KDBQ 201430Z 17023G31KT 5SM BR OVC013 23/22 A2968 1300 93 2500 170/23G31 RMK AO2 PK WND 17031/1430
94908KDBQ DBQ20000620083512306/20/00 08:35:31  5-MIN KDBQ 201435Z 17022G31KT 5SM BR OVC013 23/21 A2968 1300 90 2500 170/22G31 RMK AO2 PK WND 17031/1430
94908KDBQ DBQ20000620084013006/20/00 08:40:31  5-MIN KDBQ 201440Z 17020G30KT 6SM BR BKN013 OVC020 23/22 A2968 1300 90 2600 160/20G30 RMK AO2 PK WND 17031/1430
94908KDBQ DBQ20000620084513006/20/00 08:45:31  5-MIN KDBQ 201445Z 17018G29KT 6SM BR BKN013 OVC020 23/22 A2968 1300 90 2600 160/18G29 RMK AO2 PK WND 17031/1430
94908KDBQ DBQ20000620085015906/20/00 08:50:31  5-MIN KDBQ 201450Z 17018G26KT 6SM BR SCT013 OVC018 23/21 A2969 1300 87 2600 170/18G26 RMK AO2 PK WND 17031/1430 SLP046 60002 T02330211 56033
94908KDBQ DBQ20000620085515906/20/00 08:55:31  5-MIN KDBQ 201455Z 17018G26KT 6SM BR BKN013 OVC020 23/22 A2968 1300 90 2600 170/18G26 RMK AO2 PK WND 17031/1430 SLP045 60002 T02330217 56021
94908KDBQ DBQ20000620090013406/20/00 09:00:31  5-MIN KDBQ 201500Z 17019G27KT 7SM BKN013 BKN020 OVC026 23/22 A2969 1300 90 2600 170/19G27 RMK AO2 PK WND 17027/1458
94908KDBQ DBQ20000620090513406/20/00 09:05:31  5-MIN KDBQ 201505Z 18022G29KT 7SM SCT013 BKN018 OVC029 23/21 A2969 1300 87 2600 170/22G29 RMK AO2 PK WND 18029/1503
94908KDBQ DBQ20000620091012706/20/00 09:10:31  5-MIN KDBQ 201510Z 17017G29KT 7SM BKN016 OVC022 24/22 A2969 1300 87 2700 170/17G29 RMK AO2 PK WND 18029/1503
94908KDBQ DBQ20000620091513406/20/00 09:15:31  5-MIN KDBQ 201515Z 18023G28KT 8SM BKN016 BKN022 OVC030 24/22 A2969 1290 87 2700 180/23G28 RMK AO2 PK WND 18029/1503
94908KDBQ DBQ20000620092013406/20/00 09:20:31  5-MIN KDBQ 201520Z 19019G28KT 8SM BKN016 BKN022 OVC030 24/22 A2969 1290 87 2700 190/19G28 RMK AO2 PK WND 18029/1503
94908KDBQ DBQ20000620092513406/20/00 09:25:31  5-MIN KDBQ 201525Z 18017G25KT 8SM SCT014 BKN020 OVC026 24/21 A2969 1290 84 2700 180/17G25 RMK AO2 PK WND 18029/1503
94908KDBQ DBQ20000620093013406/20/00 09:30:31  5-MIN KDBQ 201530Z 18018G27KT 8SM BKN017 BKN026 OVC039 24/21 A2969 1290 84 2700 180/18G27 RMK AO2 PK WND 18029/1503
94908KDBQ DBQ20000620093513406/20/00 09:35:31  5-MIN KDBQ 201535Z 18017G27KT 9SM SCT017 BKN022 OVC037 23/21 A2970 1290 87 2600 180/17G27 RMK AO2 PK WND 18029/1503
94908KDBQ DBQ20000620094013406/20/00 09:40:31  5-MIN KDBQ 201540Z 19016G25KT 9SM SCT017 BKN032 OVC043 24/21 A2969 1290 81 2700 190/16G25 RMK AO2 PK WND 18029/1503
94908KDBQ DBQ20000620094513406/20/00 09:45:31  5-MIN KDBQ 201545Z 19013G25KT 9SM FEW017 BKN029 OVC050 23/21 A2969 1290 87 2600 190/13G25 RMK AO2 PK WND 18029/1503
94908KDBQ DBQ20000620095015106/20/00 09:50:31  5-MIN KDBQ 201550Z 18018G23KT 9SM FEW017 BKN026 OVC050 23/21 A2970 1280 87 2600 180/18G23 RMK AO2 PK WND 18029/1503 SLP051 T02330211
94908KDBQ DBQ20000620095515206/20/00 09:55:31  5-MIN KDBQ 201555Z 20017G26KT 10SM SCT017 BKN026 OVC050 24/22 A2969 1290 84 2700 200/17G26 RMK AO2 PK WND 18029/1503 SLP048 T02440217
94908KDBQ DBQ20000620100013506/20/00 10:00:31  5-MIN KDBQ 201600Z 19016G26KT 10SM FEW019 SCT024 BKN032 25/22 A2969 1290 81 2800 190/16G26 RMK AO2 PK WND 21026/1558
94908KDBQ DBQ20000620100513506/20/00 10:05:31  5-MIN KDBQ 201605Z 19018G27KT 10SM FEW019 SCT025 BKN044 25/22 A2970 1280 81 2800 190/18G27 RMK AO2 PK WND 19027/1601
94908KDBQ DBQ20000620101013506/20/00 10:10:31  5-MIN KDBQ 201610Z 19017G27KT 10SM FEW019 SCT025 BKN034 24/21 A2970 1280 81 2700 190/17G27 RMK AO2 PK WND 19027/1601
94908KDBQ DBQ20000620101512906/20/00 10:15:31  5-MIN KDBQ 201615Z 19017KT 10SM FEW019 SCT026 BKN035 24/21 A2970 1280 81 2700 190/17 RMK AO2 PK WND 19027/1601
94908KDBQ DBQ20000620102013506/20/00 10:20:31  5-MIN KDBQ 201620Z 19018G24KT 10SM FEW019 SCT025 BKN037 24/21 A2970 1280 81 2700 190/18G24 RMK AO2 PK WND 19027/1601
94908KDBQ DBQ20000620102513506/20/00 10:25:31  5-MIN KDBQ 201625Z 19018G24KT 10SM FEW022 SCT028 BKN037 24/21 A2970 1290 81 2700 190/18G24 RMK AO2 PK WND 19027/1601
94908KDBQ DBQ20000620103013506/20/00 10:30:31  5-MIN KDBQ 201630Z 20020G29KT 10SM FEW025 BKN035 BKN045 25/21 A2970 1280 79 2800 190/20G29 RMK AO2 PK WND 19029/1627
94908KDBQ DBQ20000620103513506/20/00 10:35:31  5-MIN KDBQ 201635Z 19019G29KT 10SM SCT023 SCT030 BKN037 25/21 A2970 1290 79 2800 190/19G29 RMK AO2 PK WND 19029/1627
94908KDBQ DBQ20000620104013506/20/00 10:40:31  5-MIN KDBQ 201640Z 19023G27KT 10SM SCT023 SCT030 BKN037 25/21 A2970 1280 79 2800 190/23G27 RMK AO2 PK WND 19029/1627
94908KDBQ DBQ20000620104513506/20/00 10:45:31  5-MIN KDBQ 201645Z 19020G27KT 10SM FEW023 SCT028 BKN035 25/21 A2970 1280 79 2800 190/20G27 RMK AO2 PK WND 19029/1627
94908KDBQ DBQ20000620105015206/20/00 10:50:31  5-MIN KDBQ 201650Z 19017G24KT 10SM FEW023 SCT028 BKN035 25/21 A2970 1280 79 2800 190/17G24 RMK AO2 PK WND 19029/1627 SLP050 T02500211
94908KDBQ DBQ20000620105515206/20/00 10:55:31  5-MIN KDBQ 201655Z 20016G25KT 10SM FEW023 BKN030 BKN037 25/21 A2970 1280 76 2800 200/16G25 RMK AO2 PK WND 19029/1627 SLP051 T02500206
94908KDBQ DBQ20000620110013506/20/00 11:00:31  5-MIN KDBQ 201700Z 20020G26KT 10SM FEW023 BKN030 BKN035 25/20 A2970 1280 73 2800 200/20G26 RMK AO2 PK WND 20026/1658
94908KDBQ DBQ20000620110513506/20/00 11:05:31  5-MIN KDBQ 201705Z 20019G26KT 10SM FEW023 BKN030 BKN035 25/20 A2970 1280 73 2800 200/19G26 RMK AO2 PK WND 20026/1658
94908KDBQ DBQ20000620111013506/20/00 11:10:31  5-MIN KDBQ 201710Z 21016G23KT 10SM FEW023 BKN030 BKN035 25/21 A2971 1280 76 2800 210/16G23 RMK AO2 PK WND 20026/1658
94908KDBQ DBQ20000620111513506/20/00 11:15:31  5-MIN KDBQ 201715Z 20016G25KT 10SM FEW023 BKN030 BKN035 25/21 A2970 1280 76 2800 190/16G25 RMK AO2 PK WND 20026/1658
94908KDBQ DBQ20000620112013506/20/00 11:20:31  5-MIN KDBQ 201720Z 19021G25KT 10SM FEW023 BKN030 BKN035 25/21 A2970 1280 76 2800 190/21G25 RMK AO2 PK WND 20026/1658
94908KDBQ DBQ20000620112513506/20/00 11:25:31  5-MIN KDBQ 201725Z 21017G24KT 10SM FEW023 BKN030 BKN035 25/21 A2970 1280 76 2800 210/17G24 RMK AO2 PK WND 20026/1658
94908KDBQ DBQ20000620113013506/20/00 11:30:31  5-MIN KDBQ 201730Z 21019G24KT 10SM FEW023 BKN030 BKN035 26/21 A2969 1290 71 2900 210/19G24 RMK AO2 PK WND 20026/1658
94908KDBQ DBQ20000620113513506/20/00 11:35:31  5-MIN KDBQ 201735Z 21015G24KT 10SM FEW023 BKN030 BKN035 26/21 A2970 1280 71 2900 210/15G24 RMK AO2 PK WND 20026/1658
94908KDBQ DBQ20000620114013506/20/00 11:40:31  5-MIN KDBQ 201740Z 21016G20KT 10SM FEW023 BKN030 BKN035 26/21 A2969 1290 73 2800 210/16G20 RMK AO2 PK WND 20026/1658
94908KDBQ DBQ20000620114513506/20/00 11:45:31  5-MIN KDBQ 201745Z 22015G23KT 10SM FEW023 BKN030 BKN035 26/20 A2970 1280 68 2900 210/15G23 RMK AO2 PK WND 20026/1658
94908KDBQ DBQ20000620115016906/20/00 11:50:31  5-MIN KDBQ 201750Z 20016G23KT 10SM SCT028 BKN037 25/21 A2970 1290 76 2800 190/16G23 RMK AO2 PK WND 20026/1658 SLP048 60002 T02500206 10261 20211 56021
94908KDBQ DBQ20000620115516906/20/00 11:55:31  5-MIN KDBQ 201755Z 21018G24KT 10SM SCT027 SCT035 26/19 A2970 1290 68 2800 210/18G24 RMK AO2 PK WND 20026/1658 SLP049 60002 T02560194 10261 20211 50004
94908KDBQ DBQ20000620120012806/20/00 12:00:31  5-MIN KDBQ 201800Z 21021G26KT 10SM FEW027 SCT035 26/19 A2970 1290 66 2900 210/21G26 RMK AO2 PK WND 22026/1759
94908KDBQ DBQ20000620120512106/20/00 12:05:31  5-MIN KDBQ 201805Z 22017G26KT 10SM FEW027 26/20 A2970 1280 68 2900 220/17G26 RMK AO2 PK WND 22026/1759
94908KDBQ DBQ20000620121012106/20/00 12:10:31  5-MIN KDBQ 201810Z 22016G24KT 10SM FEW027 26/19 A2970 1280 66 2900 220/16G24 RMK AO2 PK WND 22026/1759
94908KDBQ DBQ20000620121512106/20/00 12:15:31  5-MIN KDBQ 201815Z 21019G24KT 10SM FEW027 26/20 A2970 1280 68 2900 210/19G24 RMK AO2 PK WND 22026/1759
94908KDBQ DBQ20000620122012106/20/00 12:20:31  5-MIN KDBQ 201820Z 22020G24KT 10SM FEW027 26/19 A2970 1280 66 2900 220/20G24 RMK AO2 PK WND 22026/1759
94908KDBQ DBQ20000620122512106/20/00 12:25:31  5-MIN KDBQ 201825Z 22018G24KT 10SM FEW039 26/19 A2970 1280 66 2900 220/18G24 RMK AO2 PK WND 22026/1759
94908KDBQ DBQ20000620123011806/20/00 12:30:31  5-MIN KDBQ 201830Z 20019G24KT 10SM CLR 26/19 A2970 1280 66 2900 200/19G24 RMK AO2 PK WND 22026/1759
94908KDBQ DBQ20000620123511506/20/00 12:35:31  5-MIN KDBQ 201835Z 20018KT 10SM SCT036 26/19 A2970 1280 66 2900 200/18 RMK AO2 PK WND 22026/1759
94908KDBQ DBQ20000620124011506/20/00 12:40:31  5-MIN KDBQ 201840Z 20016KT 10SM SCT036 26/19 A2970 1280 66 2900 200/16 RMK AO2 PK WND 22026/1759
94908KDBQ DBQ20000620124512106/20/00 12:45:31  5-MIN KDBQ 201845Z 20014G21KT 10SM SCT036 26/20 A2969 1290 68 2900 200/14G21 RMK AO2 PK WND 22026/1759
94908KDBQ DBQ20000620125013806/20/00 12:50:31  5-MIN KDBQ 201850Z 20015G21KT 10SM SCT033 26/20 A2970 1280 68 2900 200/15G21 RMK AO2 PK WND 22026/1759 SLP050 T02610200
94908KDBQ DBQ20000620125513806/20/00 12:55:31  5-MIN KDBQ 201855Z 21018G21KT 10SM SCT033 26/19 A2970 1280 66 2900 210/18G21 RMK AO2 PK WND 22026/1759 SLP050 T02610194
94908KDBQ DBQ20000620130009706/20/00 13:00:31  5-MIN KDBQ 201900Z 21018KT 10SM SCT033 26/19 A2970 1280 66 2900 210/18 RMK AO2
94908KDBQ DBQ20000620130510306/20/00 13:05:31  5-MIN KDBQ 201905Z 21013G22KT 10SM SCT035 26/20 A2970 1280 71 2800 210/13G22 RMK AO2
94908KDBQ DBQ20000620131010306/20/00 13:10:31  5-MIN KDBQ 201910Z 22016G21KT 10SM SCT033 26/20 A2970 1280 68 2900 220/16G21 RMK AO2
94908KDBQ DBQ20000620131510306/20/00 13:15:31  5-MIN KDBQ 201915Z 22015G21KT 10SM BKN033 26/19 A2970 1280 66 2900 220/15G21 RMK AO2
94908KDBQ DBQ20000620132009706/20/00 13:20:31  5-MIN KDBQ 201920Z 21015KT 10SM SCT033 26/20 A2970 1280 71 2800 210/15 RMK AO2
94908KDBQ DBQ20000620132511106/20/00 13:25:31  5-MIN KDBQ 201925Z 22016KT 10SM FEW030 BKN035 BKN042 26/20 A2970 1280 71 2800 220/16 RMK AO2
94908KDBQ DBQ20000620133011706/20/00 13:30:31  5-MIN KDBQ 201930Z 21015G21KT 10SM FEW030 SCT035 BKN043 26/20 A2970 1280 68 2900 210/15G21 RMK AO2
94908KDBQ DBQ20000620133511006/20/00 13:35:31  5-MIN KDBQ 201935Z 22013G21KT 10SM SCT033 BKN042 26/20 A2970 1280 68 2900 220/13G21 RMK AO2
94908KDBQ DBQ20000620134010406/20/00 13:40:31  5-MIN KDBQ 201940Z 22016KT 10SM FEW033 BKN042 26/20 A2970 1280 68 2900 220/16 RMK AO2
94908KDBQ DBQ20000620134510306/20/00 13:45:31  5-MIN KDBQ 201945Z 21017G20KT 10SM SCT040 26/20 A2970 1280 71 2800 210/17G20 RMK AO2
94908KDBQ DBQ20000620135012006/20/00 13:50:31  5-MIN KDBQ 201950Z 21018G22KT 10SM SCT040 26/20 A2969 1290 68 2900 210/18G22 RMK AO2 SLP047 T02610200
94908KDBQ DBQ20000620135512006/20/00 13:55:31  5-MIN KDBQ 201955Z 21015G22KT 10SM SCT040 26/20 A2970 1290 68 2900 210/15G22 RMK AO2 SLP049 T02610200
94908KDBQ DBQ20000620140009706/20/00 14:00:31  5-MIN KDBQ 202000Z 21017KT 10SM FEW040 26/20 A2970 1290 68 2900 210/17 RMK AO2
94908KDBQ DBQ20000620140510306/20/00 14:05:31  5-MIN KDBQ 202005Z 20016G22KT 10SM FEW040 26/20 A2970 1290 68 2900 200/16G22 RMK AO2
94908KDBQ DBQ20000620141011706/20/00 14:10:31  5-MIN KDBQ 202010Z 22013G22KT 10SM FEW028 SCT037 SCT044 26/20 A2970 1280 68 2900 220/13G22 RMK AO2
94908KDBQ DBQ20000620141511706/20/00 14:15:31  5-MIN KDBQ 202015Z 21016G21KT 10SM SCT028 SCT035 BKN044 26/21 A2970 1280 71 2900 210/16G21 RMK AO2
94908KDBQ DBQ20000620142011706/20/00 14:20:31  5-MIN KDBQ 202020Z 21012G21KT 10SM SCT028 SCT035 BKN047 26/21 A2970 1280 71 2900 210/12G21 RMK AO2
94908KDBQ DBQ20000620142511106/20/00 14:25:31  5-MIN KDBQ 202025Z 23011KT 10SM FEW028 SCT037 BKN047 26/21 A2970 1280 71 2900 230/11 RMK AO2
94908KDBQ DBQ20000620143011106/20/00 14:30:31  5-MIN KDBQ 202030Z 22011KT 10SM SCT028 BKN035 BKN049 26/21 A2970 1290 73 2800 220/11 RMK AO2
94908KDBQ DBQ20000620143511106/20/00 14:35:31  5-MIN KDBQ 202035Z 22012KT 10SM BKN030 BKN036 OVC049 26/21 A2970 1290 73 2800 220/12 RMK AO2
94908KDBQ DBQ20000620144010406/20/00 14:40:31  5-MIN KDBQ 202040Z 22016KT 10SM BKN032 BKN046 26/21 A2969 1290 71 2900 220/16 RMK AO2
94908KDBQ DBQ20000620144511706/20/00 14:45:31  5-MIN KDBQ 202045Z 22016G20KT 10SM FEW030 SCT035 BKN046 27/20 A2970 1290 66 3000 220/16G20 RMK AO2
94908KDBQ DBQ20000620145014006/20/00 14:50:31  5-MIN KDBQ 202050Z 22015G20KT 10SM SCT032 BKN041 BKN050 26/20 A2969 1290 68 2900 220/15G20 RMK AO2 SLP048 T02610200 50004
94908KDBQ DBQ20000620145514006/20/00 14:55:31  5-MIN KDBQ 202055Z 22015G21KT 10SM SCT032 BKN043 BKN050 27/21 A2970 1290 69 3000 220/15G21 RMK AO2 SLP049 T02670206 51000
94908KDBQ DBQ20000620150011706/20/00 15:00:31  5-MIN KDBQ 202100Z 22015G23KT 10SM FEW032 BKN043 BKN050 26/20 A2970 1280 68 2900 220/15G23 RMK AO2
94908KDBQ DBQ20000620150511006/20/00 15:05:31  5-MIN KDBQ 202105Z 23016G23KT 10SM FEW032 BKN046 27/20 A2970 1290 66 3000 230/16G23 RMK AO2
94908KDBQ DBQ20000620151011706/20/00 15:10:31  5-MIN KDBQ 202110Z 21013G23KT 10SM FEW032 SCT044 SCT050 27/21 A2970 1290 69 3000 210/13G23 RMK AO2
94908KDBQ DBQ20000620151511106/20/00 15:15:31  5-MIN KDBQ 202115Z 22013KT 10SM FEW034 SCT044 SCT050 27/21 A2970 1290 71 3000 210/13 RMK AO2
94908KDBQ DBQ20000620152010406/20/00 15:20:31  5-MIN KDBQ 202120Z 21015KT 10SM FEW034 SCT048 26/21 A2970 1290 71 2900 210/15 RMK AO2
94908KDBQ DBQ20000620152510406/20/00 15:25:31  5-MIN KDBQ 202125Z 22015KT 10SM FEW034 SCT047 26/20 A2970 1290 71 2800 220/15 RMK AO2
94908KDBQ DBQ20000620153010406/20/00 15:30:31  5-MIN KDBQ 202130Z 22013KT 10SM FEW034 SCT050 26/21 A2970 1280 71 2900 220/13 RMK AO2
94908KDBQ DBQ20000620153509706/20/00 15:35:31  5-MIN KDBQ 202135Z 22016KT 10SM FEW034 27/20 A2970 1280 66 3000 220/16 RMK AO2
94908KDBQ DBQ20000620154010406/20/00 15:40:31  5-MIN KDBQ 202140Z 22013KT 10SM FEW034 SCT045 26/20 A2970 1280 68 2900 220/13 RMK AO2
94908KDBQ DBQ20000620154511106/20/00 15:45:31  5-MIN KDBQ 202145Z 21015KT 10SM FEW034 SCT047 BKN060 27/21 A2970 1280 69 3000 210/15 RMK AO2
94908KDBQ DBQ20000620155012106/20/00 15:50:31  5-MIN KDBQ 202150Z 21013KT 10SM FEW034 SCT060 27/20 A2970 1290 66 3000 210/13 RMK AO2 SLP049 T02670200
94908KDBQ DBQ20000620155512106/20/00 15:55:31  5-MIN KDBQ 202155Z 22012KT 10SM FEW034 SCT060 27/21 A2969 1290 69 3000 220/12 RMK AO2 SLP048 T02670206
94908KDBQ DBQ20000620160009706/20/00 16:00:31  5-MIN KDBQ 202200Z 22016KT 10SM SCT055 27/20 A2970 1290 66 3000 220/16 RMK AO2
94908KDBQ DBQ20000620160509706/20/00 16:05:31  5-MIN KDBQ 202205Z 22013KT 10SM SCT055 26/19 A2970 1290 66 2900 220/13 RMK AO2
94908KDBQ DBQ20000620161009706/20/00 16:10:31  5-MIN KDBQ 202210Z 22012KT 10SM SCT055 26/20 A2970 1290 68 2900 220/12 RMK AO2
94908KDBQ DBQ20000620161510406/20/00 16:15:31  5-MIN KDBQ 202215Z 22010KT 10SM FEW038 SCT055 26/20 A2970 1290 68 2900 220/10 RMK AO2
94908KDBQ DBQ20000620162011106/20/00 16:20:31  5-MIN KDBQ 202220Z 22013KT 10SM SCT038 SCT044 BKN055 26/20 A2970 1290 71 2800 220/13 RMK AO2
94908KDBQ DBQ20000620162511106/20/00 16:25:31  5-MIN KDBQ 202225Z 22014KT 10SM SCT040 BKN050 BKN060 26/20 A2969 1290 71 2800 220/14 RMK AO2
94908KDBQ DBQ20000620163011106/20/00 16:30:31  5-MIN KDBQ 202230Z 22012KT 10SM SCT039 BKN049 BKN060 26/20 A2969 1290 68 2900 220/12 RMK AO2
94908KDBQ DBQ20000620163511106/20/00 16:35:31  5-MIN KDBQ 202235Z 22012KT 10SM SCT039 BKN049 BKN060 27/21 A2969 1290 69 3000 220/12 RMK AO2
94908KDBQ DBQ20000620164011106/20/00 16:40:31  5-MIN KDBQ 202240Z 22013KT 10SM SCT039 BKN049 BKN065 26/20 A2968 1300 68 2900 220/13 RMK AO2
94908KDBQ DBQ20000620164511106/20/00 16:45:31  5-MIN KDBQ 202245Z 22012KT 10SM SCT039 BKN049 BKN065 26/20 A2968 1300 68 2900 220/12 RMK AO2
94908KDBQ DBQ20000620165012806/20/00 16:50:31  5-MIN KDBQ 202250Z 21011KT 10SM SCT037 BKN044 BKN049 26/20 A2968 1300 71 2900 210/11 RMK AO2 SLP042 T02560200
94908KDBQ DBQ20000620165512106/20/00 16:55:31  5-MIN KDBQ 202255Z 23011KT 10SM SCT037 SCT044 26/21 A2967 1310 71 2900 230/11 RMK AO2 SLP040 T02610206
94908KDBQ DBQ20000620170009706/20/00 17:00:31  5-MIN KDBQ 202300Z 23013KT 10SM FEW037 26/20 A2967 1310 68 2900 230/13 RMK AO2
94908KDBQ DBQ20000620170509706/20/00 17:05:31  5-MIN KDBQ 202305Z 23011KT 10SM FEW037 26/20 A2967 1310 68 2900 230/11 RMK AO2
94908KDBQ DBQ20000620171009706/20/00 17:10:31  5-MIN KDBQ 202310Z 23013KT 10SM FEW037 26/20 A2968 1310 68 2900 230/13 RMK AO2
94908KDBQ DBQ20000620171509706/20/00 17:15:31  5-MIN KDBQ 202315Z 23012KT 10SM FEW037 26/20 A2968 1300 68 2900 230/12 RMK AO2
94908KDBQ DBQ20000620172009406/20/00 17:20:31  5-MIN KDBQ 202320Z 23012KT 10SM CLR 26/20 A2968 1300 68 2900 230/12 RMK AO2
94908KDBQ DBQ20000620172509406/20/00 17:25:31  5-MIN KDBQ 202325Z 23010KT 10SM CLR 26/20 A2968 1300 71 2900 230/10 RMK AO2
94908KDBQ DBQ20000620173009406/20/00 17:30:31  5-MIN KDBQ 202330Z 23010KT 10SM CLR 26/20 A2968 1300 71 2900 230/10 RMK AO2
94908KDBQ DBQ20000620173509406/20/00 17:35:31  5-MIN KDBQ 202335Z 22010KT 10SM CLR 26/21 A2968 1300 73 2900 210/10 RMK AO2
94908KDBQ DBQ20000620174009406/20/00 17:40:31  5-MIN KDBQ 202340Z 21009KT 10SM CLR 26/21 A2968 1300 73 2900 210/09 RMK AO2
94908KDBQ DBQ20000620174509406/20/00 17:45:31  5-MIN KDBQ 202345Z 22009KT 10SM CLR 26/21 A2967 1310 73 2900 220/09 RMK AO2
94908KDBQ DBQ20000620175012906/20/00 17:50:31  5-MIN KDBQ 202350Z 21008KT 10SM CLR 26/21 A2967 1310 73 2900 210/08 RMK AO2 SLP041 T02560206 10267 20256 51000
94908KDBQ DBQ20000620175512906/20/00 17:55:31  5-MIN KDBQ 202355Z 22008KT 10SM CLR 26/21 A2968 1300 73 2900 220/08 RMK AO2 SLP043 T02560206 10267 20256 55005
94908KDBQ DBQ20000620180009406/20/00 18:00:31  5-MIN KDBQ 210000Z 22008KT 10SM CLR 26/21 A2969 1300 73 2800 220/08 RMK AO2
94908KDBQ DBQ20000620180509406/20/00 18:05:31  5-MIN KDBQ 210005Z 21006KT 10SM CLR 26/21 A2969 1290 76 2800 210/06 RMK AO2
94908KDBQ DBQ20000620181009406/20/00 18:10:31  5-MIN KDBQ 210010Z 20007KT 10SM CLR 26/21 A2968 1300 76 2900 200/07 RMK AO2
94908KDBQ DBQ20000620181509406/20/00 18:15:31  5-MIN KDBQ 210015Z 21007KT 10SM CLR 26/21 A2968 1300 73 2800 210/07 RMK AO2
94908KDBQ DBQ20000620182009406/20/00 18:20:31  5-MIN KDBQ 210020Z 21009KT 10SM CLR 26/21 A2968 1300 73 2900 210/09 RMK AO2
94908KDBQ DBQ20000620182509406/20/00 18:25:31  5-MIN KDBQ 210025Z 21008KT 10SM CLR 25/21 A2968 1300 76 2800 200/08 RMK AO2
94908KDBQ DBQ20000620183009406/20/00 18:30:31  5-MIN KDBQ 210030Z 21008KT 10SM CLR 26/21 A2969 1290 73 2800 210/08 RMK AO2
94908KDBQ DBQ20000620183509406/20/00 18:35:31  5-MIN KDBQ 210035Z 21007KT 10SM CLR 26/20 A2969 1290 71 2800 210/07 RMK AO2
94908KDBQ DBQ20000620184010406/20/00 18:40:31  5-MIN KDBQ 210040Z AUTO 21007KT 10SM CLR 25/20 A2969 1290 73 2800 210/07 RMK AO2 TSNO
94908KDBQ DBQ20000620184510406/20/00 18:45:31  5-MIN KDBQ 210045Z AUTO 21006KT 10SM CLR 25/21 A2969 1290 76 2800 210/06 RMK AO2 TSNO
94908KDBQ DBQ20000620185012106/20/00 18:50:31  5-MIN KDBQ 210050Z AUTO 21006KT 10SM CLR 24/21 A2969 1290 78 2700 210/06 RMK AO2 SLP047 T02440206 TSNO
94908KDBQ DBQ20000620191010406/20/00 19:10:31  5-MIN KDBQ 210110Z AUTO 19006KT 10SM CLR 24/21 A2968 1300 81 2700 190/06 RMK AO2 TSNO
94908KDBQ DBQ20000620191510406/20/00 19:15:31  5-MIN KDBQ 210115Z AUTO 20005KT 10SM CLR 24/21 A2968 1300 81 2700 200/05 RMK AO2 TSNO
94908KDBQ DBQ20000620192010406/20/00 19:20:31  5-MIN KDBQ 210120Z AUTO 20006KT 10SM CLR 24/21 A2969 1290 81 2700 200/06 RMK AO2 TSNO
94908KDBQ DBQ20000620192510706/20/00 19:25:31  5-MIN KDBQ 210125Z AUTO 20006KT 10SM FEW060 24/20 A2969 1290 78 2700 200/06 RMK AO2 TSNO
94908KDBQ DBQ20000620193010706/20/00 19:30:31  5-MIN KDBQ 210130Z AUTO 20007KT 10SM FEW043 24/20 A2969 1290 78 2700 200/07 RMK AO2 TSNO
94908KDBQ DBQ20000620193510706/20/00 19:35:31  5-MIN KDBQ 210135Z AUTO 20006KT 10SM FEW043 23/21 A2969 1290 84 2600 200/06 RMK AO2 TSNO
94908KDBQ DBQ20000620194010706/20/00 19:40:31  5-MIN KDBQ 210140Z AUTO 20006KT 10SM FEW043 23/21 A2969 1300 84 2600 200/06 RMK AO2 TSNO
94908KDBQ DBQ20000620194510706/20/00 19:45:31  5-MIN KDBQ 210145Z AUTO 20005KT 10SM FEW043 23/21 A2969 1300 87 2500 200/05 RMK AO2 TSNO
94908KDBQ DBQ20000620195012406/20/00 19:50:31  5-MIN KDBQ 210150Z AUTO 20004KT 10SM FEW041 23/21 A2969 1300 87 2500 200/04 RMK AO2 SLP046 T02280206 TSNO
94908KDBQ DBQ20000620195512406/20/00 19:55:31  5-MIN KDBQ 210155Z AUTO 20004KT 10SM FEW041 23/21 A2969 1290 87 2500 200/04 RMK AO2 SLP047 T02280206 TSNO
94908KDBQ DBQ20000620200010406/20/00 20:00:31  5-MIN KDBQ 210200Z AUTO 21005KT 10SM CLR 23/21 A2969 1290 87 2500 210/05 RMK AO2 TSNO
94908KDBQ DBQ20000620200510406/20/00 20:05:31  5-MIN KDBQ 210205Z AUTO 23004KT 10SM CLR 22/21 A2969 1290 90 2500 230/04 RMK AO2 TSNO
94908KDBQ DBQ20000620201010706/20/00 20:10:31  5-MIN KDBQ 210210Z AUTO 23003KT 10SM FEW042 22/21 A2969 1290 90 2500 230/03 RMK AO2 TSNO
94908KDBQ DBQ20000620201510706/20/00 20:15:31  5-MIN KDBQ 210215Z AUTO 25003KT 10SM SCT042 22/21 A2969 1290 90 2500 250/03 RMK AO2 TSNO
94908KDBQ DBQ20000620202010706/20/00 20:20:31  5-MIN KDBQ 210220Z AUTO 24005KT 10SM BKN042 22/21 A2969 1290 90 2500 230/05 RMK AO2 TSNO
94908KDBQ DBQ20000620202511406/20/00 20:25:31  5-MIN KDBQ 210225Z AUTO 24005KT 10SM SCT042 BKN055 22/21 A2970 1290 90 2500 240/05 RMK AO2 TSNO
94908KDBQ DBQ20000620203011406/20/00 20:30:31  5-MIN KDBQ 210230Z AUTO 23006KT 10SM SCT042 BKN055 22/21 A2970 1290 93 2500 230/06 RMK AO2 TSNO
94908KDBQ DBQ20000620203510706/20/00 20:35:31  5-MIN KDBQ 210235Z AUTO 22006KT 10SM SCT042 23/21 A2970 1290 90 2500 220/06 RMK AO2 TSNO
94908KDBQ DBQ20000620204010706/20/00 20:40:31  5-MIN KDBQ 210240Z AUTO 22006KT 10SM SCT042 23/21 A2970 1290 90 2500 220/06 RMK AO2 TSNO
94908KDBQ DBQ20000620204510706/20/00 20:45:31  5-MIN KDBQ 210245Z AUTO 22006KT 10SM FEW042 23/21 A2970 1290 90 2500 220/06 RMK AO2 TSNO
94908KDBQ DBQ20000620205012706/20/00 20:50:31  5-MIN KDBQ 210250Z AUTO 22005KT 10SM CLR 22/21 A2970 1280 93 2500 220/05 RMK AO2 SLP051 T02220211 55005 TSNO
94908KDBQ DBQ20000620205512706/20/00 20:55:31  5-MIN KDBQ 210255Z AUTO 23006KT 10SM CLR 22/21 A2970 1280 93 2500 220/06 RMK AO2 SLP051 T02220211 53006 TSNO
94908KDBQ DBQ20000620210010406/20/00 21:00:31  5-MIN KDBQ 210300Z AUTO 22005KT 10SM CLR 23/21 A2970 1280 87 2600 220/05 RMK AO2 TSNO
94908KDBQ DBQ20000620210510406/20/00 21:05:31  5-MIN KDBQ 210305Z AUTO 22005KT 10SM CLR 22/21 A2970 1280 93 2400 220/05 RMK AO2 TSNO
94908KDBQ DBQ20000620211010406/20/00 21:10:31  5-MIN KDBQ 210310Z AUTO 21005KT 10SM CLR 22/20 A2970 1280 90 2400 210/05 RMK AO2 TSNO
94908KDBQ DBQ20000620211510406/20/00 21:15:31  5-MIN KDBQ 210315Z AUTO 22005KT 10SM CLR 22/20 A2971 1280 90 2400 220/05 RMK AO2 TSNO
94908KDBQ DBQ20000620212010706/20/00 21:20:31  5-MIN KDBQ 210320Z AUTO 23005KT 10SM FEW048 22/19 A2970 1280 87 2400 220/05 RMK AO2 TSNO
94908KDBQ DBQ20000620212510706/20/00 21:25:31  5-MIN KDBQ 210325Z AUTO 23006KT 10SM FEW048 22/19 A2971 1280 87 2400 230/06 RMK AO2 TSNO
94908KDBQ DBQ20000620213010706/20/00 21:30:31  5-MIN KDBQ 210330Z AUTO 23006KT 10SM FEW048 22/19 A2971 1270 87 2400 230/06 RMK AO2 TSNO
94908KDBQ DBQ20000620213510706/20/00 21:35:31  5-MIN KDBQ 210335Z AUTO 23005KT 10SM FEW048 22/19 A2971 1270 87 2400 230/05 RMK AO2 TSNO
94908KDBQ DBQ20000620214010706/20/00 21:40:31  5-MIN KDBQ 210340Z AUTO 23006KT 10SM FEW048 21/19 A2972 1270 90 2300 230/06 RMK AO2 TSNO
94908KDBQ DBQ20000620214510706/20/00 21:45:31  5-MIN KDBQ 210345Z AUTO 23006KT 10SM FEW048 21/19 A2972 1260 90 2300 230/06 RMK AO2 TSNO
94908KDBQ DBQ20000620215012406/20/00 21:50:31  5-MIN KDBQ 210350Z AUTO 23005KT 10SM FEW048 21/19 A2972 1260 90 2300 230/05 RMK AO2 SLP059 T02110194 TSNO
94908KDBQ DBQ20000620215512106/20/00 21:55:31  5-MIN KDBQ 210355Z AUTO 24006KT 10SM CLR 21/19 A2973 1260 87 2300 230/06 RMK AO2 SLP060 T02110189 TSNO
94908KDBQ DBQ20000620220010406/20/00 22:00:31  5-MIN KDBQ 210400Z AUTO 25007KT 10SM CLR 21/19 A2973 1260 87 2300 240/07 RMK AO2 TSNO
94908KDBQ DBQ20000620220510406/20/00 22:05:31  5-MIN KDBQ 210405Z AUTO 25007KT 10SM CLR 21/18 A2973 1250 84 2300 250/07 RMK AO2 TSNO
94908KDBQ DBQ20000620221010406/20/00 22:10:31  5-MIN KDBQ 210410Z AUTO 25007KT 10SM CLR 21/18 A2973 1260 84 2300 250/07 RMK AO2 TSNO
94908KDBQ DBQ20000620221510406/20/00 22:15:31  5-MIN KDBQ 210415Z AUTO 25007KT 10SM CLR 21/18 A2973 1250 81 2300 250/07 RMK AO2 TSNO
94908KDBQ DBQ20000620222010406/20/00 22:20:31  5-MIN KDBQ 210420Z AUTO 25007KT 10SM CLR 21/18 A2973 1250 81 2300 250/07 RMK AO2 TSNO
94908KDBQ DBQ20000620222510406/20/00 22:25:31  5-MIN KDBQ 210425Z AUTO 25007KT 10SM CLR 21/18 A2974 1250 84 2200 250/07 RMK AO2 TSNO
94908KDBQ DBQ20000620223010406/20/00 22:30:31  5-MIN KDBQ 210430Z AUTO 25007KT 10SM CLR 21/17 A2974 1250 78 2300 250/07 RMK AO2 TSNO
94908KDBQ DBQ20000620223510406/20/00 22:35:31  5-MIN KDBQ 210435Z AUTO 25007KT 10SM CLR 21/17 A2974 1250 81 2200 250/07 RMK AO2 TSNO
94908KDBQ DBQ20000620224010406/20/00 22:40:31  5-MIN KDBQ 210440Z AUTO 24007KT 10SM CLR 21/17 A2974 1250 81 2200 240/07 RMK AO2 TSNO
94908KDBQ DBQ20000620224510406/20/00 22:45:31  5-MIN KDBQ 210445Z AUTO 24007KT 10SM CLR 21/17 A2974 1240 81 2200 240/07 RMK AO2 TSNO
94908KDBQ DBQ20000620225012106/20/00 22:50:31  5-MIN KDBQ 210450Z AUTO 24008KT 10SM CLR 21/17 A2974 1240 81 2200 240/08 RMK AO2 SLP066 T02060172 TSNO
94908KDBQ DBQ20000620225512106/20/00 22:55:31  5-MIN KDBQ 210455Z AUTO 24008KT 10SM CLR 21/17 A2974 1240 81 2200 240/08 RMK AO2 SLP066 T02060172 TSNO
94908KDBQ DBQ20000620230010406/20/00 23:00:31  5-MIN KDBQ 210500Z AUTO 24008KT 10SM CLR 21/17 A2974 1240 81 2200 230/08 RMK AO2 TSNO
94908KDBQ DBQ20000620230510406/20/00 23:05:31  5-MIN KDBQ 210505Z AUTO 24008KT 10SM CLR 21/17 A2974 1240 78 2200 240/08 RMK AO2 TSNO
94908KDBQ DBQ20000620231010406/20/00 23:10:31  5-MIN KDBQ 210510Z AUTO 24009KT 10SM CLR 21/17 A2974 1240 78 2200 240/09 RMK AO2 TSNO
94908KDBQ DBQ20000620231510406/20/00 23:15:31  5-MIN KDBQ 210515Z AUTO 24007KT 10SM CLR 20/17 A2974 1250 81 2200 240/07 RMK AO2 TSNO
94908KDBQ DBQ20000620232010406/20/00 23:20:31  5-MIN KDBQ 210520Z AUTO 23007KT 10SM CLR 20/17 A2974 1250 81 2200 230/07 RMK AO2 TSNO
94908KDBQ DBQ20000620232510406/20/00 23:25:31  5-MIN KDBQ 210525Z AUTO 23006KT 10SM CLR 20/16 A2974 1250 78 2200 230/06 RMK AO2 TSNO
94908KDBQ DBQ20000620233010406/20/00 23:30:31  5-MIN KDBQ 210530Z AUTO 23006KT 10SM CLR 20/16 A2973 1250 78 2200 230/06 RMK AO2 TSNO
94908KDBQ DBQ20000620233510406/20/00 23:35:31  5-MIN KDBQ 210535Z AUTO 23006KT 10SM CLR 19/16 A2974 1250 81 2100 230/06 RMK AO2 TSNO
94908KDBQ DBQ20000620234010406/20/00 23:40:31  5-MIN KDBQ 210540Z AUTO 23006KT 10SM CLR 19/16 A2974 1250 81 2100 230/06 RMK AO2 TSNO
94908KDBQ DBQ20000620234510406/20/00 23:45:31  5-MIN KDBQ 210545Z AUTO 23006KT 10SM CLR 19/16 A2974 1250 81 2100 230/06 RMK AO2 TSNO
94908KDBQ DBQ20000620235014906/20/00 23:50:31  5-MIN KDBQ 210550Z AUTO 23006KT 10SM CLR 19/16 A2974 1250 84 2000 230/06 RMK AO2 SLP064 T01890161 10256 20189 402670189 53006 TSNO
94908KDBQ DBQ20000620235514906/20/00 23:55:31  5-MIN KDBQ 210555Z AUTO 23006KT 10SM CLR 19/16 A2974 1250 84 2000 230/06 RMK AO2 SLP065 T01890161 10256 20189 402670189 50014 TSNO
94908KDBQ DBQ20000621000010406/21/00 00:00:31  5-MIN KDBQ 210600Z AUTO 23007KT 10SM CLR 19/16 A2974 1250 84 2000 230/07 RMK AO2 TSNO
94908KDBQ DBQ20000621000510406/21/00 00:05:31  5-MIN KDBQ 210605Z AUTO 23007KT 10SM CLR 19/16 A2974 1250 81 2000 230/07 RMK AO2 TSNO
94908KDBQ DBQ20000621001010406/21/00 00:10:31  5-MIN KDBQ 210610Z AUTO 23008KT 10SM CLR 19/16 A2974 1250 81 2000 230/08 RMK AO2 TSNO
94908KDBQ DBQ20000621001510406/21/00 00:15:31  5-MIN KDBQ 210615Z AUTO 23008KT 10SM CLR 19/16 A2974 1240 81 2000 230/08 RMK AO2 TSNO
94908KDBQ DBQ20000621002010406/21/00 00:20:31  5-MIN KDBQ 210620Z AUTO 24007KT 10SM CLR 19/16 A2974 1240 81 2000 230/07 RMK AO2 TSNO
94908KDBQ DBQ20000621002510406/21/00 00:25:31  5-MIN KDBQ 210625Z AUTO 23006KT 10SM CLR 18/16 A2974 1240 84 2000 230/06 RMK AO2 TSNO
94908KDBQ DBQ20000621003010406/21/00 00:30:31  5-MIN KDBQ 210630Z AUTO 24007KT 10SM CLR 18/16 A2975 1240 84 2000 240/07 RMK AO2 TSNO
94908KDBQ DBQ20000621003510406/21/00 00:35:31  5-MIN KDBQ 210635Z AUTO 24008KT 10SM CLR 18/16 A2975 1240 84 2000 240/08 RMK AO2 TSNO
94908KDBQ DBQ20000621004010406/21/00 00:40:31  5-MIN KDBQ 210640Z AUTO 24008KT 10SM CLR 18/16 A2975 1240 84 2000 240/08 RMK AO2 TSNO
94908KDBQ DBQ20000621004510406/21/00 00:45:31  5-MIN KDBQ 210645Z AUTO 24008KT 10SM CLR 18/16 A2974 1240 84 2000 240/08 RMK AO2 TSNO
94908KDBQ DBQ20000621005012106/21/00 00:50:31  5-MIN KDBQ 210650Z AUTO 24009KT 10SM CLR 18/15 A2974 1250 81 2000 240/09 RMK AO2 SLP064 T01830150 TSNO
94908KDBQ DBQ20000621005512106/21/00 00:55:31  5-MIN KDBQ 210655Z AUTO 24009KT 10SM CLR 18/15 A2974 1250 81 2000 240/09 RMK AO2 SLP065 T01830150 TSNO
94908KDBQ DBQ20000621010010406/21/00 01:00:31  5-MIN KDBQ 210700Z AUTO 24009KT 10SM CLR 18/15 A2974 1250 81 2000 240/09 RMK AO2 TSNO
94908KDBQ DBQ20000621010510406/21/00 01:05:31  5-MIN KDBQ 210705Z AUTO 23008KT 10SM CLR 18/15 A2974 1250 81 2000 230/08 RMK AO2 TSNO
94908KDBQ DBQ20000621011010406/21/00 01:10:31  5-MIN KDBQ 210710Z AUTO 23008KT 10SM CLR 18/15 A2974 1250 81 2000 230/08 RMK AO2 TSNO
94908KDBQ DBQ20000621011510406/21/00 01:15:31  5-MIN KDBQ 210715Z AUTO 22007KT 10SM CLR 18/14 A2973 1250 78 2000 220/07 RMK AO2 TSNO
94908KDBQ DBQ20000621012010406/21/00 01:20:31  5-MIN KDBQ 210720Z AUTO 23007KT 10SM CLR 18/14 A2974 1250 81 1900 220/07 RMK AO2 TSNO
94908KDBQ DBQ20000621012510406/21/00 01:25:31  5-MIN KDBQ 210725Z AUTO 22007KT 10SM CLR 18/14 A2974 1240 81 1900 220/07 RMK AO2 TSNO
94908KDBQ DBQ20000621013010406/21/00 01:30:31  5-MIN KDBQ 210730Z AUTO 22006KT 10SM CLR 17/15 A2974 1250 87 1800 220/06 RMK AO2 TSNO
94908KDBQ DBQ20000621013510406/21/00 01:35:31  5-MIN KDBQ 210735Z AUTO 21006KT 10SM CLR 17/14 A2974 1240 83 1800 210/06 RMK AO2 TSNO
94908KDBQ DBQ20000621014010406/21/00 01:40:31  5-MIN KDBQ 210740Z AUTO 22007KT 10SM CLR 17/14 A2974 1250 83 1800 220/07 RMK AO2 TSNO
94908KDBQ DBQ20000621014510406/21/00 01:45:31  5-MIN KDBQ 210745Z AUTO 22006KT 10SM CLR 17/14 A2974 1250 83 1800 220/06 RMK AO2 TSNO
94908KDBQ DBQ20000621015012106/21/00 01:50:31  5-MIN KDBQ 210750Z AUTO 22006KT 10SM CLR 17/14 A2974 1250 83 1800 220/06 RMK AO2 SLP064 T01720144 TSNO
94908KDBQ DBQ20000621015512106/21/00 01:55:31  5-MIN KDBQ 210755Z AUTO 22006KT 10SM CLR 17/14 A2974 1250 86 1800 220/06 RMK AO2 SLP064 T01670144 TSNO
94908KDBQ DBQ20000621020010406/21/00 02:00:31  5-MIN KDBQ 210800Z AUTO 22006KT 10SM CLR 17/14 A2974 1240 86 1800 220/06 RMK AO2 TSNO
94908KDBQ DBQ20000621020510406/21/00 02:05:31  5-MIN KDBQ 210805Z AUTO 22007KT 10SM CLR 17/14 A2974 1240 86 1800 220/07 RMK AO2 TSNO
94908KDBQ DBQ20000621021010406/21/00 02:10:31  5-MIN KDBQ 210810Z AUTO 22007KT 10SM CLR 17/14 A2975 1240 86 1800 220/07 RMK AO2 TSNO
94908KDBQ DBQ20000621021510406/21/00 02:15:31  5-MIN KDBQ 210815Z AUTO 22007KT 10SM CLR 17/14 A2975 1240 86 1800 220/07 RMK AO2 TSNO
94908KDBQ DBQ20000621022010406/21/00 02:20:31  5-MIN KDBQ 210820Z AUTO 22007KT 10SM CLR 17/14 A2975 1240 86 1800 220/07 RMK AO2 TSNO
94908KDBQ DBQ20000621022510406/21/00 02:25:31  5-MIN KDBQ 210825Z AUTO 22007KT 10SM CLR 17/14 A2975 1230 86 1800 220/07 RMK AO2 TSNO
94908KDBQ DBQ20000621023010406/21/00 02:30:31  5-MIN KDBQ 210830Z AUTO 22008KT 10SM CLR 17/14 A2975 1230 86 1800 220/08 RMK AO2 TSNO
94908KDBQ DBQ20000621023510406/21/00 02:35:31  5-MIN KDBQ 210835Z AUTO 23008KT 10SM CLR 17/14 A2976 1230 86 1800 230/08 RMK AO2 TSNO
94908KDBQ DBQ20000621024010406/21/00 02:40:31  5-MIN KDBQ 210840Z AUTO 23008KT 10SM CLR 17/14 A2976 1230 86 1800 220/08 RMK AO2 TSNO
94908KDBQ DBQ20000621024510406/21/00 02:45:31  5-MIN KDBQ 210845Z AUTO 22007KT 10SM CLR 17/14 A2976 1230 83 1700 220/07 RMK AO2 TSNO
94908KDBQ DBQ20000621025012706/21/00 02:50:31  5-MIN KDBQ 210850Z AUTO 22007KT 10SM CLR 16/14 A2976 1230 86 1700 220/07 RMK AO2 SLP073 T01610139 50014 TSNO
94908KDBQ DBQ20000621025512706/21/00 02:55:31  5-MIN KDBQ 210855Z AUTO 22008KT 10SM CLR 16/14 A2976 1230 86 1700 220/08 RMK AO2 SLP071 T01610139 53006 TSNO
94908KDBQ DBQ20000621030010406/21/00 03:00:31  5-MIN KDBQ 210900Z AUTO 23007KT 10SM CLR 16/14 A2976 1230 86 1700 230/07 RMK AO2 TSNO
94908KDBQ DBQ20000621030510406/21/00 03:05:31  5-MIN KDBQ 210905Z AUTO 23006KT 10SM CLR 16/14 A2976 1230 86 1700 230/06 RMK AO2 TSNO
94908KDBQ DBQ20000621031010406/21/00 03:10:31  5-MIN KDBQ 210910Z AUTO 23007KT 10SM CLR 16/14 A2976 1230 86 1700 230/07 RMK AO2 TSNO
94908KDBQ DBQ20000621031510406/21/00 03:15:31  5-MIN KDBQ 210915Z AUTO 23008KT 10SM CLR 16/13 A2976 1230 83 1700 230/08 RMK AO2 TSNO
94908KDBQ DBQ20000621032010406/21/00 03:20:31  5-MIN KDBQ 210920Z AUTO 24007KT 10SM CLR 16/13 A2976 1230 83 1700 230/07 RMK AO2 TSNO
94908KDBQ DBQ20000621032510406/21/00 03:25:31  5-MIN KDBQ 210925Z AUTO 24007KT 10SM CLR 16/13 A2976 1230 86 1600 240/07 RMK AO2 TSNO
94908KDBQ DBQ20000621033010406/21/00 03:30:31  5-MIN KDBQ 210930Z AUTO 25007KT 10SM CLR 16/13 A2976 1230 86 1600 250/07 RMK AO2 TSNO
94908KDBQ DBQ20000621033510406/21/00 03:35:31  5-MIN KDBQ 210935Z AUTO 23006KT 10SM CLR 16/13 A2976 1230 86 1600 230/06 RMK AO2 TSNO
94908KDBQ DBQ20000621034010406/21/00 03:40:31  5-MIN KDBQ 210940Z AUTO 22006KT 10SM CLR 16/13 A2976 1230 86 1600 220/06 RMK AO2 TSNO
94908KDBQ DBQ20000621034510406/21/00 03:45:31  5-MIN KDBQ 210945Z AUTO 23006KT 10SM CLR 15/13 A2976 1230 86 1600 220/06 RMK AO2 TSNO
94908KDBQ DBQ20000621035012106/21/00 03:50:31  5-MIN KDBQ 210950Z AUTO 22006KT 10SM CLR 15/13 A2976 1230 86 1600 220/06 RMK AO2 SLP072 T01500128 TSNO
94908KDBQ DBQ20000621035512106/21/00 03:55:31  5-MIN KDBQ 210955Z AUTO 22007KT 10SM CLR 14/13 A2976 1220 90 1500 220/07 RMK AO2 SLP073 T01440128 TSNO
94908KDBQ DBQ20000621040010406/21/00 04:00:31  5-MIN KDBQ 211000Z AUTO 21007KT 10SM CLR 14/13 A2976 1220 90 1500 210/07 RMK AO2 TSNO
94908KDBQ DBQ20000621040510406/21/00 04:05:31  5-MIN KDBQ 211005Z AUTO 22007KT 10SM CLR 14/13 A2976 1220 90 1500 220/07 RMK AO2 TSNO
94908KDBQ DBQ20000621041010406/21/00 04:10:31  5-MIN KDBQ 211010Z AUTO 22006KT 10SM CLR 14/13 A2976 1220 90 1500 220/06 RMK AO2 TSNO
94908KDBQ DBQ20000621041510406/21/00 04:15:31  5-MIN KDBQ 211015Z AUTO 22006KT 10SM CLR 14/13 A2977 1220 90 1500 220/06 RMK AO2 TSNO
94908KDBQ DBQ20000621042010406/21/00 04:20:31  5-MIN KDBQ 211020Z AUTO 23007KT 10SM CLR 15/13 A2977 1220 86 1500 230/07 RMK AO2 TSNO
94908KDBQ DBQ20000621042510406/21/00 04:25:31  5-MIN KDBQ 211025Z AUTO 24008KT 10SM CLR 15/12 A2977 1220 83 1500 240/08 RMK AO2 TSNO
94908KDBQ DBQ20000621043010406/21/00 04:30:31  5-MIN KDBQ 211030Z AUTO 24008KT 10SM CLR 15/12 A2977 1220 83 1500 240/08 RMK AO2 TSNO
94908KDBQ DBQ20000621043510406/21/00 04:35:31  5-MIN KDBQ 211035Z AUTO 24009KT 10SM CLR 15/12 A2977 1220 83 1500 240/09 RMK AO2 TSNO
94908KDBQ DBQ20000621044010406/21/00 04:40:31  5-MIN KDBQ 211040Z AUTO 24009KT 10SM CLR 15/12 A2977 1220 83 1500 240/09 RMK AO2 TSNO
94908KDBQ DBQ20000621044509406/21/00 04:45:31  5-MIN KDBQ 211045Z 24008KT 10SM CLR 15/12 A2977 1220 83 1500 240/08 RMK AO2
94908KDBQ DBQ20000621045011106/21/00 04:50:31  5-MIN KDBQ 211050Z 24010KT 10SM CLR 15/12 A2978 1210 83 1500 240/10 RMK AO2 SLP077 T01500122
94908KDBQ DBQ20000621045511106/21/00 04:55:31  5-MIN KDBQ 211055Z 25010KT 10SM CLR 15/12 A2978 1210 80 1500 240/10 RMK AO2 SLP078 T01500117
94908KDBQ DBQ20000621050009406/21/00 05:00:31  5-MIN KDBQ 211100Z 25010KT 10SM CLR 15/12 A2977 1210 80 1500 250/10 RMK AO2
94908KDBQ DBQ20000621050509406/21/00 05:05:31  5-MIN KDBQ 211105Z 24010KT 10SM CLR 16/12 A2978 1210 77 1600 240/10 RMK AO2
94908KDBQ DBQ20000621051009406/21/00 05:10:31  5-MIN KDBQ 211110Z 24010KT 10SM CLR 16/12 A2978 1210 77 1600 240/10 RMK AO2
94908KDBQ DBQ20000621051509406/21/00 05:15:31  5-MIN KDBQ 211115Z 25011KT 10SM CLR 16/12 A2978 1210 77 1600 250/11 RMK AO2
94908KDBQ DBQ20000621052009406/21/00 05:20:31  5-MIN KDBQ 211120Z 24011KT 10SM CLR 16/12 A2978 1210 77 1600 240/11 RMK AO2
94908KDBQ DBQ20000621052509406/21/00 05:25:31  5-MIN KDBQ 211125Z 24010KT 10SM CLR 16/12 A2978 1210 77 1600 240/10 RMK AO2
94908KDBQ DBQ20000621053009406/21/00 05:30:31  5-MIN KDBQ 211130Z 25011KT 10SM CLR 16/12 A2978 1200 77 1600 250/11 RMK AO2
94908KDBQ DBQ20000621053509406/21/00 05:35:31  5-MIN KDBQ 211135Z 25010KT 10SM CLR 16/12 A2978 1210 77 1600 250/10 RMK AO2
94908KDBQ DBQ20000621054009406/21/00 05:40:31  5-MIN KDBQ 211140Z 25009KT 10SM CLR 16/12 A2978 1210 77 1600 250/09 RMK AO2
94908KDBQ DBQ20000621054509406/21/00 05:45:31  5-MIN KDBQ 211145Z 25009KT 10SM CLR 16/12 A2978 1210 75 1700 250/09 RMK AO2
94908KDBQ DBQ20000621055013506/21/00 05:50:31  5-MIN KDBQ 211150Z 25011KT 10SM CLR 16/12 A2978 1210 75 1700 250/11 RMK AO2 SLP078 70002 T01610117 10189 20144 53006
94908KDBQ DBQ20000621055513506/21/00 05:55:31  5-MIN KDBQ 211155Z 25011KT 10SM CLR 16/12 A2978 1210 75 1700 250/11 RMK AO2 SLP078 70002 T01610117 10189 20144 51006
94908KDBQ DBQ20000621060009406/21/00 06:00:31  5-MIN KDBQ 211200Z 25012KT 10SM CLR 16/12 A2978 1210 75 1700 250/12 RMK AO2
94908KDBQ DBQ20000621060509406/21/00 06:05:31  5-MIN KDBQ 211205Z 24011KT 10SM CLR 16/12 A2978 1210 75 1700 240/11 RMK AO2
94908KDBQ DBQ20000621061009406/21/00 06:10:31  5-MIN KDBQ 211210Z 25011KT 10SM CLR 16/12 A2978 1210 75 1700 250/11 RMK AO2
94908KDBQ DBQ20000621061509406/21/00 06:15:31  5-MIN KDBQ 211215Z 24011KT 10SM CLR 16/12 A2978 1210 75 1700 240/11 RMK AO2
94908KDBQ DBQ20000621062009406/21/00 06:20:31  5-MIN KDBQ 211220Z 24010KT 10SM CLR 17/12 A2978 1210 75 1700 240/10 RMK AO2
94908KDBQ DBQ20000621062509406/21/00 06:25:31  5-MIN KDBQ 211225Z 24013KT 10SM CLR 17/12 A2978 1200 75 1700 240/13 RMK AO2
94908KDBQ DBQ20000621063009406/21/00 06:30:31  5-MIN KDBQ 211230Z 25010KT 10SM CLR 17/12 A2978 1210 75 1700 250/10 RMK AO2
94908KDBQ DBQ20000621063509406/21/00 06:35:31  5-MIN KDBQ 211235Z 26009KT 10SM CLR 17/12 A2979 1200 72 1800 250/09 RMK AO2
94908KDBQ DBQ20000621064009406/21/00 06:40:31  5-MIN KDBQ 211240Z 26012KT 10SM CLR 17/12 A2978 1200 72 1800 260/12 RMK AO2
94908KDBQ DBQ20000621064509406/21/00 06:45:31  5-MIN KDBQ 211245Z 26012KT 10SM CLR 17/12 A2978 1210 69 1800 260/12 RMK AO2
94908KDBQ DBQ20000621065011106/21/00 06:50:31  5-MIN KDBQ 211250Z 26010KT 10SM CLR 17/12 A2978 1200 72 1800 260/10 RMK AO2 SLP081 T01720122
94908KDBQ DBQ20000621065511106/21/00 06:55:31  5-MIN KDBQ 211255Z 26010KT 10SM CLR 18/12 A2979 1200 69 1800 260/10 RMK AO2 SLP081 T01780122
94908KDBQ DBQ20000621070009406/21/00 07:00:31  5-MIN KDBQ 211300Z 26011KT 10SM CLR 18/12 A2979 1200 69 1800 260/11 RMK AO2
94908KDBQ DBQ20000621070509406/21/00 07:05:31  5-MIN KDBQ 211305Z 26012KT 10SM CLR 18/12 A2978 1200 69 1800 260/12 RMK AO2
94908KDBQ DBQ20000621071009406/21/00 07:10:31  5-MIN KDBQ 211310Z 26013KT 10SM CLR 18/12 A2979 1200 69 1800 260/13 RMK AO2
94908KDBQ DBQ20000621071509406/21/00 07:15:31  5-MIN KDBQ 211315Z 26011KT 10SM CLR 18/12 A2979 1200 69 1800 260/11 RMK AO2
94908KDBQ DBQ20000621072009406/21/00 07:20:31  5-MIN KDBQ 211320Z 27011KT 10SM CLR 18/13 A2979 1200 70 1900 260/11 RMK AO2
94908KDBQ DBQ20000621072509406/21/00 07:25:31  5-MIN KDBQ 211325Z 26011KT 10SM CLR 19/13 A2979 1200 67 2000 260/11 RMK AO2
94908KDBQ DBQ20000621073009406/21/00 07:30:31  5-MIN KDBQ 211330Z 27009KT 10SM CLR 19/13 A2979 1200 67 2000 260/09 RMK AO2
94908KDBQ DBQ20000621073509406/21/00 07:35:31  5-MIN KDBQ 211335Z 26012KT 10SM CLR 19/13 A2979 1200 67 2000 260/12 RMK AO2
94908KDBQ DBQ20000621074009406/21/00 07:40:31  5-MIN KDBQ 211340Z 26011KT 10SM CLR 19/13 A2979 1200 67 2000 260/11 RMK AO2
94908KDBQ DBQ20000621074509406/21/00 07:45:31  5-MIN KDBQ 211345Z 26012KT 10SM CLR 19/13 A2979 1200 67 2000 260/12 RMK AO2
94908KDBQ DBQ20000621075011106/21/00 07:50:31  5-MIN KDBQ 211350Z 26011KT 10SM CLR 19/13 A2979 1200 65 2000 260/11 RMK AO2 SLP082 T01940128
94908KDBQ DBQ20000621075511106/21/00 07:55:31  5-MIN KDBQ 211355Z 27012KT 10SM CLR 19/12 A2979 1200 62 2000 270/12 RMK AO2 SLP082 T01940122
94908KDBQ DBQ20000621080009406/21/00 08:00:31  5-MIN KDBQ 211400Z 26011KT 10SM CLR 19/13 A2979 1200 65 2000 260/11 RMK AO2
94908KDBQ DBQ20000621080509406/21/00 08:05:31  5-MIN KDBQ 211405Z 26012KT 10SM CLR 20/12 A2979 1200 60 2100 260/12 RMK AO2
94908KDBQ DBQ20000621081009406/21/00 08:10:31  5-MIN KDBQ 211410Z 26010KT 10SM CLR 20/13 A2979 1200 63 2100 260/10 RMK AO2
94908KDBQ DBQ20000621081509406/21/00 08:15:31  5-MIN KDBQ 211415Z 26010KT 10SM CLR 20/13 A2979 1200 63 2100 260/10 RMK AO2
94908KDBQ DBQ20000621082009406/21/00 08:20:31  5-MIN KDBQ 211420Z 25010KT 10SM CLR 20/13 A2979 1200 63 2100 250/10 RMK AO2
94908KDBQ DBQ20000621082509406/21/00 08:25:31  5-MIN KDBQ 211425Z 25012KT 10SM CLR 20/12 A2979 1200 60 2100 250/12 RMK AO2
94908KDBQ DBQ20000621083009406/21/00 08:30:31  5-MIN KDBQ 211430Z 25012KT 10SM CLR 20/12 A2979 1190 60 2100 250/12 RMK AO2
94908KDBQ DBQ20000621083509406/21/00 08:35:31  5-MIN KDBQ 211435Z 25014KT 10SM CLR 21/12 A2979 1200 58 2200 250/14 RMK AO2
94908KDBQ DBQ20000621084009406/21/00 08:40:31  5-MIN KDBQ 211440Z 26011KT 10SM CLR 21/12 A2979 1200 58 2200 250/11 RMK AO2
94908KDBQ DBQ20000621084510006/21/00 08:45:31  5-MIN KDBQ 211445Z 25014G19KT 10SM CLR 21/13 A2980 1190 58 2200 250/14G19 RMK AO2
94908KDBQ DBQ20000621085012306/21/00 08:50:31  5-MIN KDBQ 211450Z 25011G19KT 10SM CLR 21/13 A2980 1190 58 2200 240/11G19 RMK AO2 SLP083 T02110128 51006
94908KDBQ DBQ20000621085511706/21/00 08:55:31  5-MIN KDBQ 211455Z 25012KT 10SM CLR 21/13 A2980 1190 61 2200 250/12 RMK AO2 SLP083 T02110133 51006
94908KDBQ DBQ20000621090009406/21/00 09:00:31  5-MIN KDBQ 211500Z 26014KT 10SM CLR 21/12 A2980 1190 56 2200 260/14 RMK AO2
94908KDBQ DBQ20000621090509406/21/00 09:05:31  5-MIN KDBQ 211505Z 24014KT 10SM CLR 21/12 A2979 1190 56 2200 240/14 RMK AO2
94908KDBQ DBQ20000621091009406/21/00 09:10:31  5-MIN KDBQ 211510Z 26014KT 10SM CLR 22/12 A2979 1200 54 2300 260/14 RMK AO2
94908KDBQ DBQ20000621091509406/21/00 09:15:31  5-MIN KDBQ 211515Z 24013KT 10SM CLR 22/12 A2979 1190 54 2300 240/13 RMK AO2
94908KDBQ DBQ20000621092009406/21/00 09:20:31  5-MIN KDBQ 211520Z 25013KT 10SM CLR 22/12 A2979 1200 52 2300 250/13 RMK AO2
94908KDBQ DBQ20000621092510006/21/00 09:25:31  5-MIN KDBQ 211525Z 24014G17KT 10SM CLR 22/13 A2980 1190 56 2300 240/14G17 RMK AO2
94908KDBQ DBQ20000621093010006/21/00 09:30:31  5-MIN KDBQ 211530Z 24016G21KT 10SM CLR 22/12 A2979 1200 52 2300 240/16G21 RMK AO2
94908KDBQ DBQ20000621093510006/21/00 09:35:31  5-MIN KDBQ 211535Z 24013G21KT 10SM CLR 22/12 A2979 1200 52 2300 240/13G21 RMK AO2
94908KDBQ DBQ20000621094010006/21/00 09:40:31  5-MIN KDBQ 211540Z 24015G20KT 10SM CLR 22/12 A2980 1190 52 2300 240/15G20 RMK AO2
94908KDBQ DBQ20000621094510006/21/00 09:45:31  5-MIN KDBQ 211545Z 22015G20KT 10SM CLR 22/13 A2979 1200 54 2300 220/15G20 RMK AO2
94908KDBQ DBQ20000621095011706/21/00 09:50:31  5-MIN KDBQ 211550Z 23015G20KT 10SM CLR 22/12 A2979 1200 52 2400 230/15G20 RMK AO2 SLP082 T02220122
94908KDBQ DBQ20000621095511706/21/00 09:55:31  5-MIN KDBQ 211555Z 23015G21KT 10SM CLR 22/13 A2979 1200 54 2300 220/15G21 RMK AO2 SLP082 T02220128
94908KDBQ DBQ20000621100010006/21/00 10:00:31  5-MIN KDBQ 211600Z 23016G21KT 10SM CLR 22/12 A2979 1200 52 2300 230/16G21 RMK AO2
94908KDBQ DBQ20000621100509406/21/00 10:05:31  5-MIN KDBQ 211605Z 24015KT 10SM CLR 23/12 A2979 1200 51 2400 240/15 RMK AO2
94908KDBQ DBQ20000621101010006/21/00 10:10:31  5-MIN KDBQ 211610Z 23014G20KT 10SM CLR 23/12 A2979 1200 51 2400 220/14G20 RMK AO2
94908KDBQ DBQ20000621101510006/21/00 10:15:31  5-MIN KDBQ 211615Z 23014G20KT 10SM CLR 23/13 A2979 1200 53 2400 230/14G20 RMK AO2
94908KDBQ DBQ20000621102010006/21/00 10:20:31  5-MIN KDBQ 211620Z 24016G20KT 10SM CLR 23/12 A2979 1200 51 2400 240/16G20 RMK AO2
94908KDBQ DBQ20000621102510006/21/00 10:25:31  5-MIN KDBQ 211625Z 24018G23KT 10SM CLR 23/12 A2979 1200 51 2400 240/18G23 RMK AO2
94908KDBQ DBQ20000621103010006/21/00 10:30:31  5-MIN KDBQ 211630Z 24017G23KT 10SM CLR 23/12 A2979 1200 49 2400 240/17G23 RMK AO2
94908KDBQ DBQ20000621103510006/21/00 10:35:31  5-MIN KDBQ 211635Z 25018G22KT 10SM CLR 23/12 A2980 1190 49 2500 250/18G22 RMK AO2
94908KDBQ DBQ20000621104010006/21/00 10:40:31  5-MIN KDBQ 211640Z 24014G22KT 10SM CLR 23/12 A2980 1190 49 2500 240/14G22 RMK AO2
94908KDBQ DBQ20000621104510006/21/00 10:45:31  5-MIN KDBQ 211645Z 24018G23KT 10SM CLR 23/12 A2980 1190 49 2500 240/18G23 RMK AO2
94908KDBQ DBQ20000621105011706/21/00 10:50:31  5-MIN KDBQ 211650Z 25019G25KT 10SM CLR 23/11 A2979 1200 45 2500 240/19G25 RMK AO2 SLP083 T02330111
94908KDBQ DBQ20000621105511706/21/00 10:55:31  5-MIN KDBQ 211655Z 24014G25KT 10SM CLR 23/12 A2979 1200 49 2500 240/14G25 RMK AO2 SLP082 T02330122
94908KDBQ DBQ20000621110010006/21/00 11:00:31  5-MIN KDBQ 211700Z 24020G24KT 10SM CLR 24/12 A2980 1190 47 2500 240/20G24 RMK AO2
94908KDBQ DBQ20000621110510006/21/00 11:05:31  5-MIN KDBQ 211705Z 23017G24KT 10SM CLR 23/12 A2980 1190 47 2500 230/17G24 RMK AO2
94908KDBQ DBQ20000621111010006/21/00 11:10:31  5-MIN KDBQ 211710Z 25017G24KT 10SM CLR 23/12 A2979 1200 49 2500 250/17G24 RMK AO2
94908KDBQ DBQ20000621111510006/21/00 11:15:31  5-MIN KDBQ 211715Z 24018G24KT 10SM CLR 24/12 A2980 1190 47 2500 240/18G24 RMK AO2
94908KDBQ DBQ20000621112011806/21/00 11:20:31  5-MIN KDBQ 211720Z 24021G26KT 10SM CLR 24/12 A2979 1200 46 2500 240/21G26 RMK AO2 PK WND 23026/1718
94908KDBQ DBQ20000621112511806/21/00 11:25:31  5-MIN KDBQ 211725Z 26019G26KT 10SM CLR 24/12 A2979 1200 46 2500 260/19G26 RMK AO2 PK WND 23026/1718
94908KDBQ DBQ20000621113011806/21/00 11:30:31  5-MIN KDBQ 211730Z 24019G27KT 10SM CLR 24/11 A2978 1210 44 2600 240/19G27 RMK AO2 PK WND 26027/1726
94908KDBQ DBQ20000621113511806/21/00 11:35:31  5-MIN KDBQ 211735Z 24016G27KT 10SM CLR 24/12 A2979 1200 47 2500 240/16G27 RMK AO2 PK WND 26027/1726
94908KDBQ DBQ20000621114011806/21/00 11:40:31  5-MIN KDBQ 211740Z 25021G25KT 10SM CLR 24/11 A2978 1210 44 2500 250/21G25 RMK AO2 PK WND 26027/1726
94908KDBQ DBQ20000621114511806/21/00 11:45:31  5-MIN KDBQ 211745Z 25021G27KT 10SM CLR 24/11 A2979 1200 42 2500 250/21G27 RMK AO2 PK WND 25027/1744
94908KDBQ DBQ20000621115015306/21/00 11:50:31  5-MIN KDBQ 211750Z 25021G27KT 10SM CLR 24/11 A2978 1200 42 2500 250/21G27 RMK AO2 PK WND 25027/1744 SLP080 T02390106 10239 20161 51006
94908KDBQ DBQ20000621115515306/21/00 11:55:31  5-MIN KDBQ 211755Z 24018G26KT 10SM CLR 24/11 A2978 1200 42 2500 240/18G26 RMK AO2 PK WND 25027/1744 SLP080 T02390106 10239 20161 58003
94908KDBQ DBQ20000621120010006/21/00 12:00:31  5-MIN KDBQ 211800Z 25018G26KT 10SM CLR 24/12 A2977 1210 44 2600 250/18G26 RMK AO2
94908KDBQ DBQ20000621120510006/21/00 12:05:31  5-MIN KDBQ 211805Z 26017G23KT 10SM CLR 24/12 A2978 1210 44 2600 260/17G23 RMK AO2
94908KDBQ DBQ20000621121010006/21/00 12:10:31  5-MIN KDBQ 211810Z 26020G24KT 10SM CLR 24/11 A2977 1210 41 2600 250/20G24 RMK AO2
94908KDBQ DBQ20000621121510006/21/00 12:15:31  5-MIN KDBQ 211815Z 24016G24KT 10SM CLR 24/11 A2977 1220 42 2600 240/16G24 RMK AO2
94908KDBQ DBQ20000621122010006/21/00 12:20:31  5-MIN KDBQ 211820Z 25020G23KT 10SM CLR 24/12 A2976 1220 44 2600 250/20G23 RMK AO2
94908KDBQ DBQ20000621122510006/21/00 12:25:31  5-MIN KDBQ 211825Z 25021G25KT 10SM CLR 24/11 A2977 1220 41 2600 250/21G25 RMK AO2
94908KDBQ DBQ20000621123011806/21/00 12:30:31  5-MIN KDBQ 211830Z 24020G27KT 10SM CLR 24/11 A2976 1220 41 2600 240/20G27 RMK AO2 PK WND 23027/1828
94908KDBQ DBQ20000621123511806/21/00 12:35:31  5-MIN KDBQ 211835Z 24020G27KT 10SM CLR 24/11 A2976 1230 42 2600 240/20G27 RMK AO2 PK WND 23027/1828
94908KDBQ DBQ20000621124011806/21/00 12:40:31  5-MIN KDBQ 211840Z 24017G25KT 10SM CLR 24/11 A2977 1220 42 2600 240/17G25 RMK AO2 PK WND 23027/1828
94908KDBQ DBQ20000621124512106/21/00 12:45:31  5-MIN KDBQ 211845Z 24015G22KT 10SM FEW065 24/12 A2977 1220 44 2600 240/15G22 RMK AO2 PK WND 23027/1828
94908KDBQ DBQ20000621125013806/21/00 12:50:31  5-MIN KDBQ 211850Z 23021G24KT 10SM FEW065 24/11 A2976 1230 41 2600 230/21G24 RMK AO2 PK WND 23027/1828 SLP072 T02440106
94908KDBQ DBQ20000621125513506/21/00 12:55:31  5-MIN KDBQ 211855Z 23016G24KT 10SM CLR 24/12 A2976 1220 44 2600 230/16G24 RMK AO2 PK WND 23027/1828 SLP073 T02440117
94908KDBQ DBQ20000621130010006/21/00 13:00:31  5-MIN KDBQ 211900Z 23021G25KT 10SM CLR 24/11 A2976 1230 41 2600 230/21G25 RMK AO2
94908KDBQ DBQ20000621130511806/21/00 13:05:31  5-MIN KDBQ 211905Z 23021G26KT 10SM CLR 24/10 A2975 1240 39 2700 230/21G26 RMK AO2 PK WND 23026/1905
94908KDBQ DBQ20000621131011806/21/00 13:10:31  5-MIN KDBQ 211910Z 24022G26KT 10SM CLR 24/10 A2976 1230 39 2600 240/22G26 RMK AO2 PK WND 24026/1907
94908KDBQ DBQ20000621131511806/21/00 13:15:31  5-MIN KDBQ 211915Z 23019G27KT 10SM CLR 24/09 A2975 1240 38 2700 230/19G27 RMK AO2 PK WND 24027/1911
94908KDBQ DBQ20000621132011806/21/00 13:20:31  5-MIN KDBQ 211920Z 23019G27KT 10SM CLR 24/10 A2976 1230 39 2600 230/19G27 RMK AO2 PK WND 24027/1911
94908KDBQ DBQ20000621132511806/21/00 13:25:31  5-MIN KDBQ 211925Z 24016G26KT 10SM CLR 24/10 A2976 1230 39 2600 240/16G26 RMK AO2 PK WND 24027/1911
94908KDBQ DBQ20000621133011806/21/00 13:30:31  5-MIN KDBQ 211930Z 24019G26KT 10SM CLR 25/11 A2976 1230 39 2700 240/19G26 RMK AO2 PK WND 24027/1911
94908KDBQ DBQ20000621133511806/21/00 13:35:31  5-MIN KDBQ 211935Z 23019G24KT 10SM CLR 25/11 A2976 1230 39 2700 230/19G24 RMK AO2 PK WND 24027/1911
94908KDBQ DBQ20000621134011806/21/00 13:40:31  5-MIN KDBQ 211940Z 25018G28KT 10SM CLR 25/11 A2975 1230 39 2700 240/18G28 RMK AO2 PK WND 24028/1936
94908KDBQ DBQ20000621134512106/21/00 13:45:31  5-MIN KDBQ 211945Z 24018G28KT 10SM FEW070 25/11 A2975 1230 39 2700 240/18G28 RMK AO2 PK WND 24028/1936
94908KDBQ DBQ20000621135013506/21/00 13:50:31  5-MIN KDBQ 211950Z 25021G27KT 10SM CLR 25/09 A2976 1230 37 2700 240/21G27 RMK AO2 PK WND 24028/1936 SLP071 T02500094
94908KDBQ DBQ20000621135513506/21/00 13:55:31  5-MIN KDBQ 211955Z 24022G27KT 10SM CLR 25/09 A2975 1240 37 2700 230/22G27 RMK AO2 PK WND 24028/1936 SLP069 T02500094
94908KDBQ DBQ20000621140010006/21/00 14:00:31  5-MIN KDBQ 212000Z 25020G26KT 10SM CLR 25/09 A2976 1230 37 2700 250/20G26 RMK AO2
94908KDBQ DBQ20000621140511806/21/00 14:05:31  5-MIN KDBQ 212005Z 24021G26KT 10SM CLR 25/09 A2976 1230 37 2700 240/21G26 RMK AO2 PK WND 25026/2004
94908KDBQ DBQ20000621141011806/21/00 14:10:31  5-MIN KDBQ 212010Z 25018G26KT 10SM CLR 25/10 A2976 1230 38 2700 250/18G26 RMK AO2 PK WND 25026/2007
94908KDBQ DBQ20000621141511806/21/00 14:15:31  5-MIN KDBQ 212015Z 23022G27KT 10SM CLR 25/09 A2975 1240 37 2700 230/22G27 RMK AO2 PK WND 25027/2012
94908KDBQ DBQ20000621142011806/21/00 14:20:31  5-MIN KDBQ 212020Z 25020G28KT 10SM CLR 25/09 A2976 1230 37 2700 250/20G28 RMK AO2 PK WND 24028/2018
94908KDBQ DBQ20000621142511806/21/00 14:25:31  5-MIN KDBQ 212025Z 25018G28KT 10SM CLR 24/10 A2975 1230 39 2600 250/18G28 RMK AO2 PK WND 24028/2018
94908KDBQ DBQ20000621143011806/21/00 14:30:31  5-MIN KDBQ 212030Z 24021G26KT 10SM CLR 25/10 A2975 1240 38 2700 240/21G26 RMK AO2 PK WND 24028/2018
94908KDBQ DBQ20000621143511806/21/00 14:35:31  5-MIN KDBQ 212035Z 24021G26KT 10SM CLR 25/09 A2974 1240 37 2700 240/21G26 RMK AO2 PK WND 24028/2018
94908KDBQ DBQ20000621144012106/21/00 14:40:31  5-MIN KDBQ 212040Z 24018G26KT 10SM FEW075 25/09 A2975 1240 37 2700 240/18G26 RMK AO2 PK WND 24028/2018
94908KDBQ DBQ20000621144512106/21/00 14:45:31  5-MIN KDBQ 212045Z 25020G26KT 10SM FEW075 25/09 A2975 1230 37 2700 250/20G26 RMK AO2 PK WND 24028/2018
94908KDBQ DBQ20000621145014406/21/00 14:50:31  5-MIN KDBQ 212050Z 25020G26KT 10SM FEW075 25/09 A2975 1230 37 2700 240/20G26 RMK AO2 PK WND 24028/2018 SLP070 T02500094 58003
94908KDBQ DBQ20000621145514406/21/00 14:55:31  5-MIN KDBQ 212055Z 25019G26KT 10SM FEW075 25/10 A2975 1240 38 2700 250/19G26 RMK AO2 PK WND 24028/2018 SLP068 T02500100 56012
94908KDBQ DBQ20000621150010306/21/00 15:00:31  5-MIN KDBQ 212100Z 24017G24KT 10SM FEW075 24/10 A2975 1240 39 2700 230/17G24 RMK AO2
94908KDBQ DBQ20000621150510306/21/00 15:05:31  5-MIN KDBQ 212105Z 23018G24KT 10SM FEW075 24/11 A2974 1240 41 2700 230/18G24 RMK AO2
94908KDBQ DBQ20000621151012106/21/00 15:10:31  5-MIN KDBQ 212110Z 23021G27KT 10SM FEW080 25/09 A2975 1240 37 2700 230/21G27 RMK AO2 PK WND 23027/2109
94908KDBQ DBQ20000621151512106/21/00 15:15:31  5-MIN KDBQ 212115Z 25019G27KT 10SM FEW075 25/10 A2974 1240 38 2700 240/19G27 RMK AO2 PK WND 23027/2109
94908KDBQ DBQ20000621152012106/21/00 15:20:31  5-MIN KDBQ 212120Z 24023G28KT 10SM FEW075 25/09 A2974 1240 37 2700 240/23G28 RMK AO2 PK WND 23028/2120
94908KDBQ DBQ20000621152512106/21/00 15:25:31  5-MIN KDBQ 212125Z 26025G31KT 10SM FEW075 25/09 A2974 1250 35 2700 260/25G31 RMK AO2 PK WND 26031/2122
94908KDBQ DBQ20000621153012106/21/00 15:30:31  5-MIN KDBQ 212130Z 23016G31KT 10SM FEW080 25/09 A2974 1250 37 2700 230/16G31 RMK AO2 PK WND 26031/2122
94908KDBQ DBQ20000621153511806/21/00 15:35:31  5-MIN KDBQ 212135Z 24022G27KT 10SM CLR 25/09 A2974 1250 37 2700 240/22G27 RMK AO2 PK WND 26031/2122
94908KDBQ DBQ20000621154011806/21/00 15:40:31  5-MIN KDBQ 212140Z 25018G27KT 10SM CLR 24/10 A2974 1240 39 2700 250/18G27 RMK AO2 PK WND 26031/2122
94908KDBQ DBQ20000621154512106/21/00 15:45:31  5-MIN KDBQ 212145Z 23021G27KT 10SM FEW080 24/09 A2974 1240 38 2700 230/21G27 RMK AO2 PK WND 26031/2122
94908KDBQ DBQ20000621155013806/21/00 15:50:31  5-MIN KDBQ 212150Z 24020G27KT 10SM FEW075 25/10 A2974 1250 38 2700 240/20G27 RMK AO2 PK WND 26031/2122 SLP066 T02500100
94908KDBQ DBQ20000621155513806/21/00 15:55:31  5-MIN KDBQ 212155Z 24022G28KT 10SM FEW075 25/09 A2974 1250 37 2700 240/22G28 RMK AO2 PK WND 26031/2122 SLP066 T02500094
94908KDBQ DBQ20000621160012106/21/00 16:00:31  5-MIN KDBQ 212200Z 25022G30KT 10SM FEW075 24/09 A2974 1250 36 2700 250/22G30 RMK AO2 PK WND 25030/2157
94908KDBQ DBQ20000621160512106/21/00 16:05:31  5-MIN KDBQ 212205Z 24020G30KT 10SM FEW080 24/09 A2974 1250 36 2700 240/20G30 RMK AO2 PK WND 25030/2157
94908KDBQ DBQ20000621161012106/21/00 16:10:31  5-MIN KDBQ 212210Z 25021G30KT 10SM FEW085 24/09 A2974 1250 38 2700 250/21G30 RMK AO2 PK WND 24030/2208
94908KDBQ DBQ20000621161512106/21/00 16:15:31  5-MIN KDBQ 212215Z 24016G30KT 10SM FEW085 24/10 A2974 1250 39 2700 240/16G30 RMK AO2 PK WND 24030/2208
94908KDBQ DBQ20000621162012106/21/00 16:20:31  5-MIN KDBQ 212220Z 23018G25KT 10SM FEW085 24/10 A2974 1250 39 2700 230/18G25 RMK AO2 PK WND 24030/2208
94908KDBQ DBQ20000621162512106/21/00 16:25:31  5-MIN KDBQ 212225Z 23021G28KT 10SM FEW080 24/09 A2974 1250 38 2700 230/21G28 RMK AO2 PK WND 24030/2208
94908KDBQ DBQ20000621163012106/21/00 16:30:31  5-MIN KDBQ 212230Z 24021G28KT 10SM FEW080 24/09 A2974 1240 38 2700 240/21G28 RMK AO2 PK WND 24030/2208
94908KDBQ DBQ20000621163512106/21/00 16:35:31  5-MIN KDBQ 212235Z 25020G31KT 10SM FEW080 24/09 A2974 1250 38 2700 240/20G31 RMK AO2 PK WND 24031/2231
94908KDBQ DBQ20000621164011806/21/00 16:40:31  5-MIN KDBQ 212240Z 24023G31KT 10SM CLR 24/09 A2974 1240 38 2700 230/23G31 RMK AO2 PK WND 24031/2231
94908KDBQ DBQ20000621164511806/21/00 16:45:31  5-MIN KDBQ 212245Z 24020G28KT 10SM CLR 24/09 A2974 1240 36 2700 240/20G28 RMK AO2 PK WND 24031/2231
94908KDBQ DBQ20000621165013506/21/00 16:50:31  5-MIN KDBQ 212250Z 24021G27KT 10SM CLR 24/09 A2974 1250 36 2700 240/21G27 RMK AO2 PK WND 24031/2231 SLP066 T02440089
94908KDBQ DBQ20000621165513506/21/00 16:55:31  5-MIN KDBQ 212255Z 23016G27KT 10SM CLR 24/09 A2974 1250 38 2700 230/16G27 RMK AO2 PK WND 24031/2231 SLP065 T02440094
94908KDBQ DBQ20000621170011806/21/00 17:00:31  5-MIN KDBQ 212300Z 23023G27KT 10SM CLR 24/09 A2974 1250 38 2700 230/23G27 RMK AO2 PK WND 24027/2300
94908KDBQ DBQ20000621170511806/21/00 17:05:31  5-MIN KDBQ 212305Z 24021G27KT 10SM CLR 24/09 A2974 1240 38 2700 240/21G27 RMK AO2 PK WND 24027/2300
94908KDBQ DBQ20000621171011806/21/00 17:10:31  5-MIN KDBQ 212310Z 23017G26KT 10SM CLR 24/10 A2974 1240 41 2600 230/17G26 RMK AO2 PK WND 24027/2300
94908KDBQ DBQ20000621171511806/21/00 17:15:31  5-MIN KDBQ 212315Z 23017G23KT 10SM CLR 24/09 A2973 1250 39 2600 230/17G23 RMK AO2 PK WND 24027/2300
94908KDBQ DBQ20000621172011806/21/00 17:20:31  5-MIN KDBQ 212320Z 24017G23KT 10SM CLR 24/10 A2973 1250 41 2600 240/17G23 RMK AO2 PK WND 24027/2300
94908KDBQ DBQ20000621172511806/21/00 17:25:31  5-MIN KDBQ 212325Z 23018G23KT 10SM CLR 24/10 A2973 1260 41 2600 230/18G23 RMK AO2 PK WND 24027/2300
94908KDBQ DBQ20000621173011806/21/00 17:30:31  5-MIN KDBQ 212330Z 24017G23KT 10SM CLR 24/10 A2973 1250 41 2600 230/17G23 RMK AO2 PK WND 24027/2300
94908KDBQ DBQ20000621173511206/21/00 17:35:31  5-MIN KDBQ 212335Z 23016KT 10SM CLR 24/10 A2973 1260 41 2600 230/16 RMK AO2 PK WND 24027/2300
94908KDBQ DBQ20000621174011206/21/00 17:40:31  5-MIN KDBQ 212340Z 23019KT 10SM CLR 24/10 A2973 1260 41 2600 230/19 RMK AO2 PK WND 24027/2300
94908KDBQ DBQ20000621174511806/21/00 17:45:31  5-MIN KDBQ 212345Z 23016G23KT 10SM CLR 24/10 A2973 1260 41 2600 230/16G23 RMK AO2 PK WND 24027/2300
94908KDBQ DBQ20000621175015306/21/00 17:50:31  5-MIN KDBQ 212350Z 23017G26KT 10SM CLR 24/10 A2973 1260 41 2600 230/17G26 RMK AO2 PK WND 24027/2300 SLP062 T02390100 10250 20239 56012
94908KDBQ DBQ20000621175515306/21/00 17:55:31  5-MIN KDBQ 212355Z 23016G26KT 10SM CLR 24/10 A2973 1260 41 2600 230/16G26 RMK AO2 PK WND 24027/2300 SLP063 T02390100 10250 20239 56006
94908KDBQ DBQ20000621180010006/21/00 18:00:31  5-MIN KDBQ 220000Z 23016G22KT 10SM CLR 24/10 A2973 1260 41 2600 230/16G22 RMK AO2
94908KDBQ DBQ20000621180510006/21/00 18:05:31  5-MIN KDBQ 220005Z 23015G22KT 10SM CLR 23/10 A2972 1260 42 2600 230/15G22 RMK AO2
94908KDBQ DBQ20000621181009406/21/00 18:10:31  5-MIN KDBQ 220010Z 23015KT 10SM CLR 23/10 A2972 1260 42 2600 230/15 RMK AO2
94908KDBQ DBQ20000621181510006/21/00 18:15:31  5-MIN KDBQ 220015Z 23015G20KT 10SM CLR 23/10 A2973 1260 42 2600 220/15G20 RMK AO2
94908KDBQ DBQ20000621182010006/21/00 18:20:31  5-MIN KDBQ 220020Z 22014G20KT 10SM CLR 23/11 A2973 1260 45 2500 220/14G20 RMK AO2
94908KDBQ DBQ20000621182509406/21/00 18:25:31  5-MIN KDBQ 220025Z 22012KT 10SM CLR 23/11 A2973 1260 45 2500 220/12 RMK AO2
94908KDBQ DBQ20000621183009406/21/00 18:30:31  5-MIN KDBQ 220030Z 22013KT 10SM CLR 23/11 A2973 1260 45 2500 220/13 RMK AO2
94908KDBQ DBQ20000621183509406/21/00 18:35:31  5-MIN KDBQ 220035Z 22013KT 10SM CLR 23/11 A2973 1260 45 2500 220/13 RMK AO2
94908KDBQ DBQ20000621184009406/21/00 18:40:31  5-MIN KDBQ 220040Z 22012KT 10SM CLR 23/11 A2973 1260 45 2500 220/12 RMK AO2
94908KDBQ DBQ20000621184510706/21/00 18:45:31  5-MIN KDBQ 220045Z AUTO 22011KT 10SM FEW095 22/11 A2973 1260 49 2400 220/11 RMK AO2 TSNO
94908KDBQ DBQ20000621185012406/21/00 18:50:31  5-MIN KDBQ 220050Z AUTO 22012KT 10SM SCT095 22/11 A2973 1260 47 2400 220/12 RMK AO2 SLP061 T02220106 TSNO
94908KDBQ DBQ20000621185512406/21/00 18:55:31  5-MIN KDBQ 220055Z AUTO 22012KT 10SM SCT095 22/11 A2973 1260 49 2400 220/12 RMK AO2 SLP062 T02220111 TSNO
94908KDBQ DBQ20000621190010706/21/00 19:00:31  5-MIN KDBQ 220100Z AUTO 22011KT 10SM BKN095 22/11 A2973 1260 50 2400 220/11 RMK AO2 TSNO
94908KDBQ DBQ20000621190510706/21/00 19:05:31  5-MIN KDBQ 220105Z AUTO 22011KT 10SM BKN095 22/11 A2973 1260 50 2400 220/11 RMK AO2 TSNO
94908KDBQ DBQ20000621191010706/21/00 19:10:31  5-MIN KDBQ 220110Z AUTO 21011KT 10SM BKN095 22/11 A2973 1260 50 2400 210/11 RMK AO2 TSNO
94908KDBQ DBQ20000621191510706/21/00 19:15:31  5-MIN KDBQ 220115Z AUTO 21010KT 10SM BKN095 22/11 A2973 1260 50 2400 210/10 RMK AO2 TSNO
94908KDBQ DBQ20000621192010706/21/00 19:20:31  5-MIN KDBQ 220120Z AUTO 21010KT 10SM BKN095 21/11 A2973 1260 52 2300 210/10 RMK AO2 TSNO
94908KDBQ DBQ20000621192510706/21/00 19:25:31  5-MIN KDBQ 220125Z AUTO 21011KT 10SM SCT100 21/11 A2973 1260 52 2300 210/11 RMK AO2 TSNO
94908KDBQ DBQ20000621193010706/21/00 19:30:31  5-MIN KDBQ 220130Z AUTO 21009KT 10SM SCT100 21/11 A2973 1260 52 2300 210/09 RMK AO2 TSNO
94908KDBQ DBQ20000621193510706/21/00 19:35:31  5-MIN KDBQ 220135Z AUTO 21010KT 10SM FEW100 21/11 A2973 1260 54 2200 210/10 RMK AO2 TSNO
94908KDBQ DBQ20000621194010706/21/00 19:40:31  5-MIN KDBQ 220140Z AUTO 22009KT 10SM FEW100 21/11 A2973 1260 54 2200 220/09 RMK AO2 TSNO
94908KDBQ DBQ20000621194510406/21/00 19:45:31  5-MIN KDBQ 220145Z AUTO 22009KT 10SM CLR 20/11 A2973 1260 56 2200 220/09 RMK AO2 TSNO
94908KDBQ DBQ20000621195012106/21/00 19:50:31  5-MIN KDBQ 220150Z AUTO 22008KT 10SM CLR 20/11 A2973 1260 56 2200 220/08 RMK AO2 SLP063 T02000111 TSNO
94908KDBQ DBQ20000621195512106/21/00 19:55:31  5-MIN KDBQ 220155Z AUTO 22008KT 10SM CLR 19/11 A2973 1250 58 2100 220/08 RMK AO2 SLP063 T01940111 TSNO
94908KDBQ DBQ20000621200010406/21/00 20:00:31  5-MIN KDBQ 220200Z AUTO 21009KT 10SM CLR 20/11 A2973 1250 56 2200 210/09 RMK AO2 TSNO
94908KDBQ DBQ20000621200510406/21/00 20:05:31  5-MIN KDBQ 220205Z AUTO 21009KT 10SM CLR 19/11 A2973 1250 58 2100 210/09 RMK AO2 TSNO
94908KDBQ DBQ20000621201010406/21/00 20:10:31  5-MIN KDBQ 220210Z AUTO 21008KT 10SM CLR 19/11 A2973 1250 58 2100 210/08 RMK AO2 TSNO
94908KDBQ DBQ20000621201510406/21/00 20:15:31  5-MIN KDBQ 220215Z AUTO 21008KT 10SM CLR 19/11 A2974 1250 60 2000 210/08 RMK AO2 TSNO
94908KDBQ DBQ20000621202010406/21/00 20:20:31  5-MIN KDBQ 220220Z AUTO 21008KT 10SM CLR 19/11 A2974 1250 60 2000 210/08 RMK AO2 TSNO
94908KDBQ DBQ20000621202510406/21/00 20:25:31  5-MIN KDBQ 220225Z AUTO 22007KT 10SM CLR 19/11 A2974 1250 60 2000 220/07 RMK AO2 TSNO
94908KDBQ DBQ20000621203010406/21/00 20:30:31  5-MIN KDBQ 220230Z AUTO 21007KT 10SM CLR 18/12 A2974 1250 65 2000 210/07 RMK AO2 TSNO
94908KDBQ DBQ20000621203510406/21/00 20:35:31  5-MIN KDBQ 220235Z AUTO 21008KT 10SM CLR 18/12 A2974 1240 65 2000 210/08 RMK AO2 TSNO
94908KDBQ DBQ20000621204010406/21/00 20:40:31  5-MIN KDBQ 220240Z AUTO 21007KT 10SM CLR 18/12 A2974 1240 67 1900 210/07 RMK AO2 TSNO
94908KDBQ DBQ20000621204510406/21/00 20:45:31  5-MIN KDBQ 220245Z AUTO 21007KT 10SM CLR 18/12 A2974 1240 67 1900 200/07 RMK AO2 TSNO
94908KDBQ DBQ20000621205012706/21/00 20:50:31  5-MIN KDBQ 220250Z AUTO 21008KT 10SM CLR 18/12 A2975 1240 67 1900 210/08 RMK AO2 SLP068 T01780117 56006 TSNO
94908KDBQ DBQ20000621205512706/21/00 20:55:31  5-MIN KDBQ 220255Z AUTO 21008KT 10SM CLR 18/12 A2975 1240 67 1900 210/08 RMK AO2 SLP069 T01780117 53005 TSNO
94908KDBQ DBQ20000621210010406/21/00 21:00:31  5-MIN KDBQ 220300Z AUTO 21007KT 10SM CLR 18/12 A2975 1240 67 1900 210/07 RMK AO2 TSNO
94908KDBQ DBQ20000621210510406/21/00 21:05:31  5-MIN KDBQ 220305Z AUTO 21008KT 10SM CLR 18/12 A2975 1240 67 1900 210/08 RMK AO2 TSNO
94908KDBQ DBQ20000621211010406/21/00 21:10:31  5-MIN KDBQ 220310Z AUTO 21007KT 10SM CLR 18/12 A2975 1230 67 1900 210/07 RMK AO2 TSNO
94908KDBQ DBQ20000621211510406/21/00 21:15:31  5-MIN KDBQ 220315Z AUTO 21007KT 10SM CLR 18/12 A2975 1230 67 1900 210/07 RMK AO2 TSNO
94908KDBQ DBQ20000621212010406/21/00 21:20:31  5-MIN KDBQ 220320Z AUTO 22007KT 10SM CLR 18/12 A2975 1230 67 1900 220/07 RMK AO2 TSNO
94908KDBQ DBQ20000621212510406/21/00 21:25:31  5-MIN KDBQ 220325Z AUTO 22007KT 10SM CLR 18/12 A2976 1230 67 1900 220/07 RMK AO2 TSNO
94908KDBQ DBQ20000621213010406/21/00 21:30:31  5-MIN KDBQ 220330Z AUTO 22007KT 10SM CLR 18/12 A2976 1230 67 1900 220/07 RMK AO2 TSNO
94908KDBQ DBQ20000621213510406/21/00 21:35:31  5-MIN KDBQ 220335Z AUTO 22007KT 10SM CLR 18/12 A2976 1230 67 1900 220/07 RMK AO2 TSNO
94908KDBQ DBQ20000621214010406/21/00 21:40:31  5-MIN KDBQ 220340Z AUTO 22007KT 10SM CLR 18/12 A2976 1230 67 1900 220/07 RMK AO2 TSNO
94908KDBQ DBQ20000621214510406/21/00 21:45:31  5-MIN KDBQ 220345Z AUTO 22007KT 10SM CLR 17/12 A2976 1230 69 1800 220/07 RMK AO2 TSNO
94908KDBQ DBQ20000621215012106/21/00 21:50:31  5-MIN KDBQ 220350Z AUTO 22007KT 10SM CLR 17/12 A2976 1230 69 1800 220/07 RMK AO2 SLP073 T01720117 TSNO
94908KDBQ DBQ20000621215512106/21/00 21:55:31  5-MIN KDBQ 220355Z AUTO 22007KT 10SM CLR 17/12 A2976 1230 69 1800 220/07 RMK AO2 SLP074 T01720117 TSNO
94908KDBQ DBQ20000621220010406/21/00 22:00:31  5-MIN KDBQ 220400Z AUTO 22007KT 10SM CLR 17/12 A2976 1230 72 1700 220/07 RMK AO2 TSNO
94908KDBQ DBQ20000621220510406/21/00 22:05:31  5-MIN KDBQ 220405Z AUTO 22007KT 10SM CLR 17/12 A2976 1230 69 1800 220/07 RMK AO2 TSNO
94908KDBQ DBQ20000621221010406/21/00 22:10:31  5-MIN KDBQ 220410Z AUTO 22006KT 10SM CLR 17/12 A2976 1230 72 1700 220/06 RMK AO2 TSNO
94908KDBQ DBQ20000621221510406/21/00 22:15:31  5-MIN KDBQ 220415Z AUTO 21006KT 10SM CLR 17/12 A2976 1230 69 1800 210/06 RMK AO2 TSNO
94908KDBQ DBQ20000621222010406/21/00 22:20:31  5-MIN KDBQ 220420Z AUTO 22007KT 10SM CLR 17/12 A2976 1230 75 1800 220/07 RMK AO2 TSNO
94908KDBQ DBQ20000621222510406/21/00 22:25:31  5-MIN KDBQ 220425Z AUTO 22007KT 10SM CLR 17/12 A2976 1230 75 1800 210/07 RMK AO2 TSNO
94908KDBQ DBQ20000621223010406/21/00 22:30:31  5-MIN KDBQ 220430Z AUTO 22007KT 10SM CLR 16/12 A2976 1230 77 1700 210/07 RMK AO2 TSNO
94908KDBQ DBQ20000621223510406/21/00 22:35:31  5-MIN KDBQ 220435Z AUTO 22007KT 10SM CLR 17/12 A2976 1230 75 1800 220/07 RMK AO2 TSNO
94908KDBQ DBQ20000621224010406/21/00 22:40:31  5-MIN KDBQ 220440Z AUTO 22007KT 10SM CLR 17/12 A2975 1230 75 1800 220/07 RMK AO2 TSNO
94908KDBQ DBQ20000621224510406/21/00 22:45:31  5-MIN KDBQ 220445Z AUTO 22008KT 10SM CLR 17/12 A2976 1230 75 1800 220/08 RMK AO2 TSNO
94908KDBQ DBQ20000621225012106/21/00 22:50:31  5-MIN KDBQ 220450Z AUTO 22008KT 10SM CLR 17/12 A2976 1230 75 1800 220/08 RMK AO2 SLP072 T01670122 TSNO
94908KDBQ DBQ20000621225512106/21/00 22:55:31  5-MIN KDBQ 220455Z AUTO 22007KT 10SM CLR 17/12 A2976 1230 75 1800 220/07 RMK AO2 SLP072 T01670122 TSNO
94908KDBQ DBQ20000621230010406/21/00 23:00:31  5-MIN KDBQ 220500Z AUTO 21008KT 10SM CLR 17/12 A2976 1230 75 1800 210/08 RMK AO2 TSNO
94908KDBQ DBQ20000621230510406/21/00 23:05:31  5-MIN KDBQ 220505Z AUTO 22007KT 10SM CLR 17/12 A2976 1230 75 1800 220/07 RMK AO2 TSNO
94908KDBQ DBQ20000621231010406/21/00 23:10:31  5-MIN KDBQ 220510Z AUTO 22008KT 10SM CLR 17/12 A2975 1230 75 1800 220/08 RMK AO2 TSNO
94908KDBQ DBQ20000621231510406/21/00 23:15:31  5-MIN KDBQ 220515Z AUTO 22009KT 10SM CLR 17/12 A2976 1230 72 1800 220/09 RMK AO2 TSNO
94908KDBQ DBQ20000621232010406/21/00 23:20:31  5-MIN KDBQ 220520Z AUTO 22009KT 10SM CLR 17/12 A2976 1230 69 1800 220/09 RMK AO2 TSNO
94908KDBQ DBQ20000621232510406/21/00 23:25:31  5-MIN KDBQ 220525Z AUTO 23009KT 10SM CLR 17/12 A2976 1230 69 1800 230/09 RMK AO2 TSNO
94908KDBQ DBQ20000621233010406/21/00 23:30:31  5-MIN KDBQ 220530Z AUTO 22010KT 10SM CLR 17/12 A2976 1230 69 1800 220/10 RMK AO2 TSNO
94908KDBQ DBQ20000621233510406/21/00 23:35:31  5-MIN KDBQ 220535Z AUTO 22009KT 10SM CLR 17/12 A2976 1230 69 1800 220/09 RMK AO2 TSNO
94908KDBQ DBQ20000621234010406/21/00 23:40:31  5-MIN KDBQ 220540Z AUTO 22009KT 10SM CLR 17/12 A2976 1230 69 1800 220/09 RMK AO2 TSNO
94908KDBQ DBQ20000621234510406/21/00 23:45:31  5-MIN KDBQ 220545Z AUTO 22009KT 10SM CLR 17/12 A2976 1230 69 1800 220/09 RMK AO2 TSNO
94908KDBQ DBQ20000621235014906/21/00 23:50:31  5-MIN KDBQ 220550Z AUTO 23010KT 10SM CLR 17/12 A2976 1230 69 1800 220/10 RMK AO2 SLP072 T01720117 10239 20161 402500144 53005 TSNO
94908KDBQ DBQ20000621235514906/21/00 23:55:31  5-MIN KDBQ 220555Z AUTO 22010KT 10SM CLR 17/12 A2976 1230 69 1800 220/10 RMK AO2 SLP073 T01720117 10239 20161 402500144 51005 TSNO
94908KDBQ DBQ20000622000010406/22/00 00:00:31  5-MIN KDBQ 220600Z AUTO 23009KT 10SM CLR 17/12 A2976 1230 69 1800 230/09 RMK AO2 TSNO
94908KDBQ DBQ20000622000510406/22/00 00:05:31  5-MIN KDBQ 220605Z AUTO 23010KT 10SM CLR 17/12 A2976 1220 69 1800 230/10 RMK AO2 TSNO
94908KDBQ DBQ20000622001010406/22/00 00:10:31  5-MIN KDBQ 220610Z AUTO 23008KT 10SM CLR 17/12 A2976 1220 69 1800 230/08 RMK AO2 TSNO
94908KDBQ DBQ20000622001510406/22/00 00:15:31  5-MIN KDBQ 220615Z AUTO 23009KT 10SM CLR 17/12 A2976 1220 72 1700 220/09 RMK AO2 TSNO
94908KDBQ DBQ20000622002010406/22/00 00:20:31  5-MIN KDBQ 220620Z AUTO 23008KT 10SM CLR 17/12 A2976 1220 72 1700 220/08 RMK AO2 TSNO
94908KDBQ DBQ20000622002510406/22/00 00:25:31  5-MIN KDBQ 220625Z AUTO 21009KT 10SM CLR 17/12 A2976 1220 72 1700 210/09 RMK AO2 TSNO
94908KDBQ DBQ20000622003010406/22/00 00:30:31  5-MIN KDBQ 220630Z AUTO 23008KT 10SM CLR 16/12 A2976 1220 75 1700 230/08 RMK AO2 TSNO
94908KDBQ DBQ20000622003510406/22/00 00:35:31  5-MIN KDBQ 220635Z AUTO 22008KT 10SM CLR 16/12 A2976 1230 75 1700 220/08 RMK AO2 TSNO
94908KDBQ DBQ20000622004010406/22/00 00:40:31  5-MIN KDBQ 220640Z AUTO 22009KT 10SM CLR 17/12 A2976 1220 72 1700 220/09 RMK AO2 TSNO
94908KDBQ DBQ20000622004510406/22/00 00:45:31  5-MIN KDBQ 220645Z AUTO 22010KT 10SM CLR 17/12 A2976 1220 72 1700 220/10 RMK AO2 TSNO
94908KDBQ DBQ20000622005012106/22/00 00:50:31  5-MIN KDBQ 220650Z AUTO 23009KT 10SM CLR 17/12 A2976 1220 72 1700 230/09 RMK AO2 SLP074 T01670117 TSNO
94908KDBQ DBQ20000622005512106/22/00 00:55:31  5-MIN KDBQ 220655Z AUTO 23009KT 10SM CLR 17/12 A2976 1220 72 1700 230/09 RMK AO2 SLP074 T01670117 TSNO
94908KDBQ DBQ20000622010010406/22/00 01:00:31  5-MIN KDBQ 220700Z AUTO 23009KT 10SM CLR 17/12 A2976 1220 72 1700 230/09 RMK AO2 TSNO
94908KDBQ DBQ20000622010510406/22/00 01:05:31  5-MIN KDBQ 220705Z AUTO 22009KT 10SM CLR 16/12 A2977 1220 75 1700 220/09 RMK AO2 TSNO
94908KDBQ DBQ20000622011010406/22/00 01:10:31  5-MIN KDBQ 220710Z AUTO 23008KT 10SM CLR 16/12 A2976 1220 75 1700 230/08 RMK AO2 TSNO
94908KDBQ DBQ20000622011510406/22/00 01:15:31  5-MIN KDBQ 220715Z AUTO 23008KT 10SM CLR 16/12 A2976 1220 75 1700 230/08 RMK AO2 TSNO
94908KDBQ DBQ20000622012010406/22/00 01:20:31  5-MIN KDBQ 220720Z AUTO 23009KT 10SM CLR 16/12 A2976 1220 75 1700 230/09 RMK AO2 TSNO
94908KDBQ DBQ20000622012510406/22/00 01:25:31  5-MIN KDBQ 220725Z AUTO 23009KT 10SM CLR 16/12 A2977 1220 75 1700 230/09 RMK AO2 TSNO
94908KDBQ DBQ20000622013010406/22/00 01:30:31  5-MIN KDBQ 220730Z AUTO 24009KT 10SM CLR 16/12 A2977 1220 75 1700 230/09 RMK AO2 TSNO
94908KDBQ DBQ20000622013510406/22/00 01:35:31  5-MIN KDBQ 220735Z AUTO 24008KT 10SM CLR 16/12 A2977 1220 75 1700 240/08 RMK AO2 TSNO
94908KDBQ DBQ20000622014010406/22/00 01:40:31  5-MIN KDBQ 220740Z AUTO 24009KT 10SM CLR 16/12 A2977 1220 75 1700 240/09 RMK AO2 TSNO
94908KDBQ DBQ20000622014510406/22/00 01:45:31  5-MIN KDBQ 220745Z AUTO 24008KT 10SM CLR 16/11 A2977 1220 72 1700 240/08 RMK AO2 TSNO
94908KDBQ DBQ20000622015012106/22/00 01:50:31  5-MIN KDBQ 220750Z AUTO 24009KT 10SM CLR 16/11 A2977 1220 72 1700 240/09 RMK AO2 SLP076 T01610111 TSNO
94908KDBQ DBQ20000622015512106/22/00 01:55:31  5-MIN KDBQ 220755Z AUTO 24010KT 10SM CLR 16/11 A2977 1220 72 1700 240/10 RMK AO2 SLP076 T01610111 TSNO
94908KDBQ DBQ20000622020010406/22/00 02:00:31  5-MIN KDBQ 220800Z AUTO 24010KT 10SM CLR 16/11 A2977 1220 72 1700 240/10 RMK AO2 TSNO
94908KDBQ DBQ20000622020510406/22/00 02:05:31  5-MIN KDBQ 220805Z AUTO 24010KT 10SM CLR 16/11 A2977 1220 72 1700 240/10 RMK AO2 TSNO
94908KDBQ DBQ20000622021010406/22/00 02:10:31  5-MIN KDBQ 220810Z AUTO 24010KT 10SM CLR 16/11 A2977 1220 72 1700 240/10 RMK AO2 TSNO
94908KDBQ DBQ20000622021510406/22/00 02:15:31  5-MIN KDBQ 220815Z AUTO 24009KT 10SM CLR 16/11 A2977 1210 72 1700 240/09 RMK AO2 TSNO
94908KDBQ DBQ20000622022010406/22/00 02:20:31  5-MIN KDBQ 220820Z AUTO 24009KT 10SM CLR 16/11 A2977 1210 69 1700 240/09 RMK AO2 TSNO
94908KDBQ DBQ20000622022510406/22/00 02:25:31  5-MIN KDBQ 220825Z AUTO 25009KT 10SM CLR 16/11 A2978 1210 69 1700 240/09 RMK AO2 TSNO
94908KDBQ DBQ20000622023010406/22/00 02:30:31  5-MIN KDBQ 220830Z AUTO 24010KT 10SM CLR 16/11 A2977 1210 69 1700 240/10 RMK AO2 TSNO
94908KDBQ DBQ20000622023510406/22/00 02:35:31  5-MIN KDBQ 220835Z AUTO 24009KT 10SM CLR 16/11 A2978 1210 69 1700 240/09 RMK AO2 TSNO
94908KDBQ DBQ20000622024010406/22/00 02:40:31  5-MIN KDBQ 220840Z AUTO 24009KT 10SM CLR 16/11 A2978 1210 69 1700 240/09 RMK AO2 TSNO
94908KDBQ DBQ20000622024510406/22/00 02:45:31  5-MIN KDBQ 220845Z AUTO 24009KT 10SM CLR 16/11 A2978 1210 72 1600 240/09 RMK AO2 TSNO
94908KDBQ DBQ20000622025012706/22/00 02:50:31  5-MIN KDBQ 220850Z AUTO 25009KT 10SM CLR 16/11 A2978 1210 72 1600 240/09 RMK AO2 SLP078 T01560106 51005 TSNO
94908KDBQ DBQ20000622025512706/22/00 02:55:31  5-MIN KDBQ 220855Z AUTO 25010KT 10SM CLR 16/11 A2978 1210 69 1700 250/10 RMK AO2 SLP079 T01610106 53005 TSNO
94908KDBQ DBQ20000622030010406/22/00 03:00:31  5-MIN KDBQ 220900Z AUTO 25010KT 10SM CLR 16/10 A2978 1210 67 1700 250/10 RMK AO2 TSNO
94908KDBQ DBQ20000622030510406/22/00 03:05:31  5-MIN KDBQ 220905Z AUTO 25009KT 10SM CLR 16/10 A2978 1210 67 1700 250/09 RMK AO2 TSNO
94908KDBQ DBQ20000622031010406/22/00 03:10:31  5-MIN KDBQ 220910Z AUTO 25010KT 10SM CLR 16/10 A2978 1210 67 1700 240/10 RMK AO2 TSNO
94908KDBQ DBQ20000622031510406/22/00 03:15:31  5-MIN KDBQ 220915Z AUTO 24010KT 10SM CLR 16/10 A2978 1210 69 1600 240/10 RMK AO2 TSNO
94908KDBQ DBQ20000622032010406/22/00 03:20:31  5-MIN KDBQ 220920Z AUTO 24009KT 10SM CLR 16/10 A2978 1210 69 1600 240/09 RMK AO2 TSNO
94908KDBQ DBQ20000622032510406/22/00 03:25:31  5-MIN KDBQ 220925Z AUTO 24010KT 10SM CLR 16/10 A2978 1210 69 1600 240/10 RMK AO2 TSNO
94908KDBQ DBQ20000622033010406/22/00 03:30:31  5-MIN KDBQ 220930Z AUTO 24008KT 10SM CLR 16/10 A2978 1200 69 1600 240/08 RMK AO2 TSNO
94908KDBQ DBQ20000622033510406/22/00 03:35:31  5-MIN KDBQ 220935Z AUTO 24008KT 10SM CLR 15/10 A2979 1200 72 1500 240/08 RMK AO2 TSNO
94908KDBQ DBQ20000622034010406/22/00 03:40:31  5-MIN KDBQ 220940Z AUTO 24008KT 10SM CLR 16/10 A2979 1200 69 1600 240/08 RMK AO2 TSNO
94908KDBQ DBQ20000622034510406/22/00 03:45:31  5-MIN KDBQ 220945Z AUTO 24009KT 10SM CLR 16/10 A2979 1200 69 1600 240/09 RMK AO2 TSNO
94908KDBQ DBQ20000622035012106/22/00 03:50:31  5-MIN KDBQ 220950Z AUTO 24008KT 10SM CLR 16/11 A2979 1200 72 1600 240/08 RMK AO2 SLP082 T01560106 TSNO
94908KDBQ DBQ20000622035512106/22/00 03:55:31  5-MIN KDBQ 220955Z AUTO 24008KT 10SM CLR 15/11 A2979 1200 74 1500 230/08 RMK AO2 SLP083 T01500106 TSNO
94908KDBQ DBQ20000622040010406/22/00 04:00:31  5-MIN KDBQ 221000Z AUTO 21006KT 10SM CLR 15/11 A2979 1200 74 1500 210/06 RMK AO2 TSNO
94908KDBQ DBQ20000622040510406/22/00 04:05:31  5-MIN KDBQ 221005Z AUTO 21007KT 10SM CLR 14/11 A2979 1200 80 1400 210/07 RMK AO2 TSNO
94908KDBQ DBQ20000622041010406/22/00 04:10:31  5-MIN KDBQ 221010Z AUTO 21006KT 10SM CLR 14/11 A2980 1190 80 1400 210/06 RMK AO2 TSNO
94908KDBQ DBQ20000622041510406/22/00 04:15:31  5-MIN KDBQ 221015Z AUTO 20007KT 10SM CLR 13/11 A2980 1190 83 1300 200/07 RMK AO2 TSNO
94908KDBQ DBQ20000622042010406/22/00 04:20:31  5-MIN KDBQ 221020Z AUTO 21008KT 10SM CLR 13/11 A2980 1190 83 1300 210/08 RMK AO2 TSNO
94908KDBQ DBQ20000622042510406/22/00 04:25:31  5-MIN KDBQ 221025Z AUTO 22008KT 10SM CLR 13/11 A2980 1190 83 1300 210/08 RMK AO2 TSNO
94908KDBQ DBQ20000622043010406/22/00 04:30:31  5-MIN KDBQ 221030Z AUTO 22007KT 10SM CLR 13/11 A2980 1190 83 1300 220/07 RMK AO2 TSNO
94908KDBQ DBQ20000622043510406/22/00 04:35:31  5-MIN KDBQ 221035Z AUTO 22007KT 10SM CLR 13/11 A2980 1190 83 1300 210/07 RMK AO2 TSNO
94908KDBQ DBQ20000622044010406/22/00 04:40:31  5-MIN KDBQ 221040Z AUTO 22007KT 10SM CLR 13/11 A2980 1190 83 1300 210/07 RMK AO2 TSNO
94908KDBQ DBQ20000622044510406/22/00 04:45:31  5-MIN KDBQ 221045Z AUTO 22007KT 10SM CLR 13/11 A2980 1190 83 1300 220/07 RMK AO2 TSNO
94908KDBQ DBQ20000622045012106/22/00 04:50:31  5-MIN KDBQ 221050Z AUTO 22007KT 10SM CLR 13/11 A2980 1190 83 1300 220/07 RMK AO2 SLP089 T01330106 TSNO
94908KDBQ DBQ20000622045511106/22/00 04:55:31  5-MIN KDBQ 221055Z 22008KT 10SM CLR 14/11 A2981 1180 80 1400 220/08 RMK AO2 SLP089 T01390106
94908KDBQ DBQ20000622050009406/22/00 05:00:31  5-MIN KDBQ 221100Z 22008KT 10SM CLR 14/11 A2981 1180 80 1400 220/08 RMK AO2
94908KDBQ DBQ20000622050509406/22/00 05:05:31  5-MIN KDBQ 221105Z 23007KT 10SM CLR 14/11 A2981 1180 77 1400 230/07 RMK AO2
94908KDBQ DBQ20000622051009406/22/00 05:10:31  5-MIN KDBQ 221110Z 23008KT 10SM CLR 15/11 A2981 1180 74 1500 230/08 RMK AO2
94908KDBQ DBQ20000622051509406/22/00 05:15:31  5-MIN KDBQ 221115Z 24007KT 10SM CLR 15/11 A2982 1170 74 1500 240/07 RMK AO2
94908KDBQ DBQ20000622052009406/22/00 05:20:31  5-MIN KDBQ 221120Z 24008KT 10SM CLR 15/11 A2982 1170 74 1500 240/08 RMK AO2
94908KDBQ DBQ20000622052509406/22/00 05:25:31  5-MIN KDBQ 221125Z 24008KT 10SM CLR 16/11 A2982 1170 72 1500 240/08 RMK AO2
94908KDBQ DBQ20000622053009406/22/00 05:30:31  5-MIN KDBQ 221130Z 24008KT 10SM CLR 16/11 A2982 1170 72 1500 240/08 RMK AO2
94908KDBQ DBQ20000622053509406/22/00 05:35:31  5-MIN KDBQ 221135Z 24009KT 10SM CLR 16/11 A2982 1170 72 1500 240/09 RMK AO2
94908KDBQ DBQ20000622054009406/22/00 05:40:31  5-MIN KDBQ 221140Z 24008KT 10SM CLR 16/11 A2983 1170 72 1500 240/08 RMK AO2
94908KDBQ DBQ20000622054509406/22/00 05:45:31  5-MIN KDBQ 221145Z 24008KT 10SM CLR 16/11 A2983 1170 69 1600 240/08 RMK AO2
94908KDBQ DBQ20000622055012906/22/00 05:50:31  5-MIN KDBQ 221150Z 24009KT 10SM CLR 16/11 A2983 1170 72 1600 240/09 RMK AO2 SLP096 T01610111 10172 20133 53005
94908KDBQ DBQ20000622055512906/22/00 05:55:31  5-MIN KDBQ 221155Z 25011KT 10SM CLR 17/11 A2983 1160 67 1700 250/11 RMK AO2 SLP096 T01670106 10172 20133 53016
94908KDBQ DBQ20000622060009406/22/00 06:00:31  5-MIN KDBQ 221200Z 25011KT 10SM CLR 17/11 A2983 1160 67 1700 250/11 RMK AO2
94908KDBQ DBQ20000622060509406/22/00 06:05:31  5-MIN KDBQ 221205Z 25010KT 10SM CLR 17/11 A2983 1160 67 1700 250/10 RMK AO2
94908KDBQ DBQ20000622061009406/22/00 06:10:31  5-MIN KDBQ 221210Z 25010KT 10SM CLR 17/11 A2983 1160 67 1700 250/10 RMK AO2
94908KDBQ DBQ20000622061509406/22/00 06:15:31  5-MIN KDBQ 221215Z 25011KT 10SM CLR 17/11 A2984 1160 64 1700 250/11 RMK AO2
94908KDBQ DBQ20000622062009406/22/00 06:20:31  5-MIN KDBQ 221220Z 26011KT 10SM CLR 17/11 A2984 1150 67 1700 250/11 RMK AO2
94908KDBQ DBQ20000622062509406/22/00 06:25:31  5-MIN KDBQ 221225Z 26012KT 10SM CLR 17/11 A2984 1150 67 1700 260/12 RMK AO2
94908KDBQ DBQ20000622063009406/22/00 06:30:31  5-MIN KDBQ 221230Z 26011KT 10SM CLR 18/11 A2985 1150 64 1800 260/11 RMK AO2
94908KDBQ DBQ20000622063509406/22/00 06:35:31  5-MIN KDBQ 221235Z 26013KT 10SM CLR 18/11 A2985 1150 64 1800 260/13 RMK AO2
94908KDBQ DBQ20000622064009406/22/00 06:40:31  5-MIN KDBQ 221240Z 26010KT 10SM CLR 18/11 A2985 1150 62 1800 260/10 RMK AO2
94908KDBQ DBQ20000622064509406/22/00 06:45:31  5-MIN KDBQ 221245Z 26011KT 10SM CLR 18/11 A2985 1150 62 1800 260/11 RMK AO2
94908KDBQ DBQ20000622065011106/22/00 06:50:31  5-MIN KDBQ 221250Z 26011KT 10SM CLR 18/12 A2985 1140 65 1800 260/11 RMK AO2 SLP103 T01830117
94908KDBQ DBQ20000622065511106/22/00 06:55:31  5-MIN KDBQ 221255Z 26013KT 10SM CLR 18/11 A2985 1140 62 1800 260/13 RMK AO2 SLP104 T01830111
94908KDBQ DBQ20000622070009406/22/00 07:00:31  5-MIN KDBQ 221300Z 27012KT 10SM CLR 19/12 A2985 1140 62 1900 270/12 RMK AO2
94908KDBQ DBQ20000622070509406/22/00 07:05:31  5-MIN KDBQ 221305Z 26012KT 10SM CLR 19/11 A2985 1140 60 1900 260/12 RMK AO2
94908KDBQ DBQ20000622071009406/22/00 07:10:31  5-MIN KDBQ 221310Z 26012KT 10SM CLR 19/12 A2986 1140 62 1900 260/12 RMK AO2
94908KDBQ DBQ20000622071509406/22/00 07:15:31  5-MIN KDBQ 221315Z 26014KT 10SM CLR 19/12 A2986 1140 60 2000 260/14 RMK AO2
94908KDBQ DBQ20000622072009406/22/00 07:20:31  5-MIN KDBQ 221320Z 26012KT 10SM CLR 19/12 A2986 1140 60 2000 260/12 RMK AO2
94908KDBQ DBQ20000622072509406/22/00 07:25:31  5-MIN KDBQ 221325Z 26012KT 10SM CLR 19/12 A2986 1130 60 2000 260/12 RMK AO2
94908KDBQ DBQ20000622073010006/22/00 07:30:31  5-MIN KDBQ 221330Z 26013G18KT 10SM CLR 20/12 A2986 1130 60 2000 260/13G18 RMK AO2
94908KDBQ DBQ20000622073510006/22/00 07:35:31  5-MIN KDBQ 221335Z 26013G19KT 10SM CLR 20/12 A2986 1130 58 2000 260/13G19 RMK AO2
94908KDBQ DBQ20000622074009406/22/00 07:40:31  5-MIN KDBQ 221340Z 26013KT 10SM CLR 20/12 A2986 1130 60 2000 260/13 RMK AO2
94908KDBQ DBQ20000622074509406/22/00 07:45:31  5-MIN KDBQ 221345Z 27013KT 10SM CLR 20/12 A2986 1130 58 2000 270/13 RMK AO2
94908KDBQ DBQ20000622075011106/22/00 07:50:31  5-MIN KDBQ 221350Z 26011KT 10SM CLR 21/13 A2987 1130 60 2100 260/11 RMK AO2 SLP109 T02060128
94908KDBQ DBQ20000622075511706/22/00 07:55:31  5-MIN KDBQ 221355Z 27013G19KT 10SM CLR 21/13 A2987 1130 60 2100 270/13G19 RMK AO2 SLP110 T02060128
94908KDBQ DBQ20000622080010006/22/00 08:00:31  5-MIN KDBQ 221400Z 28013G19KT 10SM CLR 21/13 A2987 1130 60 2100 270/13G19 RMK AO2
94908KDBQ DBQ20000622080509406/22/00 08:05:31  5-MIN KDBQ 221405Z 28014KT 10SM CLR 21/13 A2987 1120 60 2100 280/14 RMK AO2
94908KDBQ DBQ20000622081010006/22/00 08:10:31  5-MIN KDBQ 221410Z 28015G21KT 10SM CLR 21/13 A2987 1120 58 2100 280/15G21 RMK AO2
94908KDBQ DBQ20000622081510006/22/00 08:15:31  5-MIN KDBQ 221415Z 27015G21KT 10SM CLR 21/13 A2987 1120 58 2100 270/15G21 RMK AO2
94908KDBQ DBQ20000622082010006/22/00 08:20:31  5-MIN KDBQ 221420Z 27015G19KT 10SM CLR 21/13 A2987 1120 58 2100 270/15G19 RMK AO2
94908KDBQ DBQ20000622082509406/22/00 08:25:31  5-MIN KDBQ 221425Z 27017KT 10SM CLR 21/12 A2987 1120 56 2100 270/17 RMK AO2
94908KDBQ DBQ20000622083010006/22/00 08:30:31  5-MIN KDBQ 221430Z 27018G21KT 10SM CLR 21/12 A2988 1120 56 2100 260/18G21 RMK AO2
94908KDBQ DBQ20000622083510006/22/00 08:35:31  5-MIN KDBQ 221435Z 28015G21KT 10SM CLR 21/13 A2988 1120 58 2100 270/15G21 RMK AO2
94908KDBQ DBQ20000622084009406/22/00 08:40:31  5-MIN KDBQ 221440Z 27017KT 10SM CLR 22/13 A2988 1120 56 2200 270/17 RMK AO2
94908KDBQ DBQ20000622084509406/22/00 08:45:31  5-MIN KDBQ 221445Z 27015KT 10SM CLR 22/13 A2988 1120 56 2200 270/15 RMK AO2
94908KDBQ DBQ20000622085012306/22/00 08:50:31  5-MIN KDBQ 221450Z 27014G21KT 10SM CLR 22/13 A2988 1120 58 2200 270/14G21 RMK AO2 SLP114 T02170133 53016
94908KDBQ DBQ20000622085511706/22/00 08:55:31  5-MIN KDBQ 221455Z 27016KT 10SM CLR 22/13 A2988 1110 56 2200 270/16 RMK AO2 SLP116 T02220133 51018
94908KDBQ DBQ20000622090009406/22/00 09:00:31  5-MIN KDBQ 221500Z 27015KT 10SM CLR 22/13 A2989 1110 56 2200 270/15 RMK AO2
94908KDBQ DBQ20000622090509406/22/00 09:05:31  5-MIN KDBQ 221505Z 27015KT 10SM CLR 22/13 A2989 1110 54 2200 270/15 RMK AO2
94908KDBQ DBQ20000622091010006/22/00 09:10:31  5-MIN KDBQ 221510Z 27017G22KT 10SM CLR 22/13 A2989 1110 56 2200 270/17G22 RMK AO2
94908KDBQ DBQ20000622091510006/22/00 09:15:31  5-MIN KDBQ 221515Z 27014G22KT 10SM CLR 22/13 A2989 1110 56 2200 270/14G22 RMK AO2
94908KDBQ DBQ20000622092010006/22/00 09:20:31  5-MIN KDBQ 221520Z 26018G22KT 10SM CLR 23/13 A2989 1110 55 2300 260/18G22 RMK AO2
94908KDBQ DBQ20000622092510006/22/00 09:25:31  5-MIN KDBQ 221525Z 27016G22KT 10SM CLR 22/13 A2989 1110 56 2200 270/16G22 RMK AO2
94908KDBQ DBQ20000622093010006/22/00 09:30:31  5-MIN KDBQ 221530Z 28020G25KT 10SM CLR 23/13 A2989 1100 53 2300 270/20G25 RMK AO2
94908KDBQ DBQ20000622093510006/22/00 09:35:31  5-MIN KDBQ 221535Z 28016G25KT 10SM CLR 23/13 A2989 1110 53 2300 280/16G25 RMK AO2
94908KDBQ DBQ20000622094010006/22/00 09:40:31  5-MIN KDBQ 221540Z 28012G21KT 10SM CLR 23/14 A2989 1110 57 2300 270/12G21 RMK AO2
94908KDBQ DBQ20000622094510006/22/00 09:45:31  5-MIN KDBQ 221545Z 27017G23KT 10SM CLR 23/13 A2989 1100 53 2400 270/17G23 RMK AO2
94908KDBQ DBQ20000622095011706/22/00 09:50:31  5-MIN KDBQ 221550Z 28015G23KT 10SM CLR 23/13 A2989 1100 53 2400 280/15G23 RMK AO2 SLP117 T02330133
94908KDBQ DBQ20000622095511106/22/00 09:55:31  5-MIN KDBQ 221555Z 27020KT 10SM CLR 23/13 A2989 1100 53 2400 270/20 RMK AO2 SLP118 T02330133
94908KDBQ DBQ20000622100011806/22/00 10:00:31  5-MIN KDBQ 221600Z 27022G28KT 10SM CLR 23/13 A2989 1100 51 2400 270/22G28 RMK AO2 PK WND 27028/1600
94908KDBQ DBQ20000622100511806/22/00 10:05:31  5-MIN KDBQ 221605Z 27020G28KT 10SM CLR 23/13 A2989 1100 51 2400 260/20G28 RMK AO2 PK WND 27028/1600
94908KDBQ DBQ20000622101011806/22/00 10:10:31  5-MIN KDBQ 221610Z 27018G26KT 10SM CLR 23/13 A2990 1100 53 2400 270/18G26 RMK AO2 PK WND 27028/1600
94908KDBQ DBQ20000622101511806/22/00 10:15:31  5-MIN KDBQ 221615Z 28018G25KT 10SM CLR 23/13 A2990 1100 53 2400 280/18G25 RMK AO2 PK WND 27028/1600
94908KDBQ DBQ20000622102011806/22/00 10:20:31  5-MIN KDBQ 221620Z 27018G25KT 10SM CLR 23/13 A2990 1100 53 2400 270/18G25 RMK AO2 PK WND 27028/1600
94908KDBQ DBQ20000622102511806/22/00 10:25:31  5-MIN KDBQ 221625Z 28017G25KT 10SM CLR 24/13 A2990 1100 51 2400 280/17G25 RMK AO2 PK WND 27028/1600
94908KDBQ DBQ20000622103011806/22/00 10:30:31  5-MIN KDBQ 221630Z 26022G25KT 10SM CLR 24/13 A2990 1100 51 2400 260/22G25 RMK AO2 PK WND 27028/1600
94908KDBQ DBQ20000622103511806/22/00 10:35:31  5-MIN KDBQ 221635Z 27020G25KT 10SM CLR 24/13 A2990 1100 49 2400 270/20G25 RMK AO2 PK WND 27028/1600
94908KDBQ DBQ20000622104011806/22/00 10:40:31  5-MIN KDBQ 221640Z 27018G24KT 10SM CLR 24/13 A2990 1100 49 2400 270/18G24 RMK AO2 PK WND 27028/1600
94908KDBQ DBQ20000622104511206/22/00 10:45:31  5-MIN KDBQ 221645Z 27017KT 10SM CLR 24/13 A2990 1100 49 2500 260/17 RMK AO2 PK WND 27028/1600
94908KDBQ DBQ20000622105013506/22/00 10:50:31  5-MIN KDBQ 221650Z 27018G21KT 10SM CLR 24/13 A2990 1090 51 2400 270/18G21 RMK AO2 PK WND 27028/1600 SLP121 T02390133
94908KDBQ DBQ20000622105513506/22/00 10:55:31  5-MIN KDBQ 221655Z 26020G24KT 10SM CLR 24/13 A2990 1090 49 2500 260/20G24 RMK AO2 PK WND 27028/1600 SLP122 T02440133
94908KDBQ DBQ20000622110010006/22/00 11:00:31  5-MIN KDBQ 221700Z 28019G24KT 10SM CLR 24/13 A2990 1100 47 2500 280/19G24 RMK AO2
94908KDBQ DBQ20000622110510006/22/00 11:05:31  5-MIN KDBQ 221705Z 27019G24KT 10SM CLR 24/13 A2990 1100 49 2500 270/19G24 RMK AO2
94908KDBQ DBQ20000622111010006/22/00 11:10:31  5-MIN KDBQ 221710Z 28017G24KT 10SM CLR 24/13 A2990 1100 49 2500 280/17G24 RMK AO2
94908KDBQ DBQ20000622111509406/22/00 11:15:31  5-MIN KDBQ 221715Z 30019KT 10SM CLR 24/13 A2990 1100 49 2500 290/19 RMK AO2
94908KDBQ DBQ20000622112010006/22/00 11:20:31  5-MIN KDBQ 221720Z 27019G23KT 10SM CLR 24/13 A2990 1100 49 2500 270/19G23 RMK AO2
94908KDBQ DBQ20000622112510006/22/00 11:25:31  5-MIN KDBQ 221725Z 28020G23KT 10SM CLR 24/13 A2990 1100 47 2500 280/20G23 RMK AO2
94908KDBQ DBQ20000622113010006/22/00 11:30:31  5-MIN KDBQ 221730Z 28016G24KT 10SM CLR 24/13 A2990 1100 49 2500 280/16G24 RMK AO2
94908KDBQ DBQ20000622113511806/22/00 11:35:31  5-MIN KDBQ 221735Z 27020G26KT 10SM CLR 25/13 A2990 1100 48 2500 270/20G26 RMK AO2 PK WND 26026/1732
94908KDBQ DBQ20000622114011806/22/00 11:40:31  5-MIN KDBQ 221740Z 28020G26KT 10SM CLR 24/13 A2990 1100 47 2500 280/20G26 RMK AO2 PK WND 26026/1732
94908KDBQ DBQ20000622114511806/22/00 11:45:31  5-MIN KDBQ 221745Z 28021G25KT 10SM CLR 25/13 A2990 1100 48 2500 280/21G25 RMK AO2 PK WND 26026/1732
94908KDBQ DBQ20000622115015306/22/00 11:50:31  5-MIN KDBQ 221750Z 28019G25KT 10SM CLR 25/13 A2990 1100 46 2500 280/19G25 RMK AO2 PK WND 26026/1732 SLP120 T02500128 10250 20167 51018
94908KDBQ DBQ20000622115515306/22/00 11:55:31  5-MIN KDBQ 221755Z 28018G23KT 10SM CLR 25/13 A2990 1100 48 2500 280/18G23 RMK AO2 PK WND 26026/1732 SLP120 T02500133 10250 20167 50005
94908KDBQ DBQ20000622120009406/22/00 12:00:31  5-MIN KDBQ 221800Z 27017KT 10SM CLR 25/13 A2990 1100 48 2500 260/17 RMK AO2
94908KDBQ DBQ20000622120510006/22/00 12:05:31  5-MIN KDBQ 221805Z 29018G23KT 10SM CLR 25/13 A2990 1100 48 2500 290/18G23 RMK AO2
94908KDBQ DBQ20000622121010006/22/00 12:10:31  5-MIN KDBQ 221810Z 28017G23KT 10SM CLR 25/13 A2990 1100 48 2500 280/17G23 RMK AO2
94908KDBQ DBQ20000622121510006/22/00 12:15:31  5-MIN KDBQ 221815Z 28016G22KT 10SM CLR 25/13 A2990 1100 48 2500 270/16G22 RMK AO2
94908KDBQ DBQ20000622122010006/22/00 12:20:31  5-MIN KDBQ 221820Z 28017G23KT 10SM CLR 26/14 A2990 1100 48 2600 280/17G23 RMK AO2
94908KDBQ DBQ20000622122510006/22/00 12:25:31  5-MIN KDBQ 221825Z 27016G23KT 10SM CLR 26/14 A2990 1100 48 2600 260/16G23 RMK AO2
94908KDBQ DBQ20000622123010006/22/00 12:30:31  5-MIN KDBQ 221830Z 28012G19KT 10SM CLR 26/14 A2990 1100 48 2600 270/12G19 RMK AO2
94908KDBQ DBQ20000622123510006/22/00 12:35:31  5-MIN KDBQ 221835Z 27015G22KT 10SM CLR 26/14 A2990 1100 48 2600 270/15G22 RMK AO2
94908KDBQ DBQ20000622124010006/22/00 12:40:31  5-MIN KDBQ 221840Z 30018G23KT 10SM CLR 26/13 A2990 1100 46 2600 300/18G23 RMK AO2
94908KDBQ DBQ20000622124510006/22/00 12:45:31  5-MIN KDBQ 221845Z 28017G23KT 10SM CLR 26/14 A2990 1100 48 2600 280/17G23 RMK AO2
94908KDBQ DBQ20000622125011706/22/00 12:50:31  5-MIN KDBQ 221850Z 29017G24KT 10SM CLR 26/13 A2990 1100 46 2600 290/17G24 RMK AO2 SLP119 T02560133
94908KDBQ DBQ20000622125511706/22/00 12:55:31  5-MIN KDBQ 221855Z 27016G21KT 10SM CLR 26/13 A2990 1100 44 2700 270/16G21 RMK AO2 SLP118 T02610133
94908KDBQ DBQ20000622130010006/22/00 13:00:31  5-MIN KDBQ 221900Z 28015G21KT 10SM CLR 26/14 A2990 1100 46 2700 270/15G21 RMK AO2
94908KDBQ DBQ20000622130510006/22/00 13:05:31  5-MIN KDBQ 221905Z 26015G20KT 10SM CLR 26/14 A2990 1100 46 2700 260/15G20 RMK AO2
94908KDBQ DBQ20000622131010006/22/00 13:10:31  5-MIN KDBQ 221910Z 27013G20KT 10SM CLR 26/14 A2990 1100 46 2700 270/13G20 RMK AO2
94908KDBQ DBQ20000622131510006/22/00 13:15:31  5-MIN KDBQ 221915Z 28013G20KT 10SM CLR 26/14 A2990 1100 46 2700 280/13G20 RMK AO2
94908KDBQ DBQ20000622132010006/22/00 13:20:31  5-MIN KDBQ 221920Z 29015G22KT 10SM CLR 26/14 A2990 1100 46 2700 290/15G22 RMK AO2
94908KDBQ DBQ20000622132510006/22/00 13:25:31  5-MIN KDBQ 221925Z 29016G23KT 10SM CLR 26/13 A2990 1100 43 2700 290/16G23 RMK AO2
94908KDBQ DBQ20000622133010006/22/00 13:30:31  5-MIN KDBQ 221930Z 29019G25KT 10SM CLR 26/13 A2990 1100 43 2700 290/19G25 RMK AO2
94908KDBQ DBQ20000622133510006/22/00 13:35:31  5-MIN KDBQ 221935Z 28020G25KT 10SM CLR 26/13 A2990 1100 43 2700 280/20G25 RMK AO2
94908KDBQ DBQ20000622134010006/22/00 13:40:31  5-MIN KDBQ 221940Z 28016G25KT 10SM CLR 26/13 A2990 1100 44 2700 280/16G25 RMK AO2
94908KDBQ DBQ20000622134510006/22/00 13:45:31  5-MIN KDBQ 221945Z 28017G24KT 10SM CLR 26/13 A2990 1100 43 2700 280/17G24 RMK AO2
94908KDBQ DBQ20000622135011706/22/00 13:50:31  5-MIN KDBQ 221950Z 28013G24KT 10SM CLR 26/13 A2990 1090 44 2700 270/13G24 RMK AO2 SLP121 T02610133
94908KDBQ DBQ20000622135511706/22/00 13:55:31  5-MIN KDBQ 221955Z 28016G20KT 10SM CLR 26/13 A2990 1090 44 2700 280/16G20 RMK AO2 SLP121 T02610133
94908KDBQ DBQ20000622140009406/22/00 14:00:31  5-MIN KDBQ 222000Z 30016KT 10SM CLR 26/13 A2990 1090 44 2700 300/16 RMK AO2
94908KDBQ DBQ20000622140509406/22/00 14:05:31  5-MIN KDBQ 222005Z 29013KT 10SM CLR 26/13 A2990 1090 44 2700 290/13 RMK AO2
94908KDBQ DBQ20000622141010006/22/00 14:10:31  5-MIN KDBQ 222010Z 28015G19KT 10SM CLR 26/13 A2990 1100 44 2700 270/15G19 RMK AO2
94908KDBQ DBQ20000622141509406/22/00 14:15:31  5-MIN KDBQ 222015Z 28016KT 10SM CLR 27/13 A2990 1100 43 2700 280/16 RMK AO2
94908KDBQ DBQ20000622142010006/22/00 14:20:31  5-MIN KDBQ 222020Z 30017G21KT 10SM CLR 27/14 A2990 1090 45 2700 300/17G21 RMK AO2
94908KDBQ DBQ20000622142509406/22/00 14:25:31  5-MIN KDBQ 222025Z 28020KT 10SM CLR 26/13 A2990 1090 43 2700 280/20 RMK AO2
94908KDBQ DBQ20000622143010006/22/00 14:30:31  5-MIN KDBQ 222030Z 29014G21KT 10SM CLR 26/13 A2990 1090 44 2700 280/14G21 RMK AO2
94908KDBQ DBQ20000622143510006/22/00 14:35:31  5-MIN KDBQ 222035Z 28017G21KT 10SM CLR 27/13 A2991 1090 41 2700 280/17G21 RMK AO2
94908KDBQ DBQ20000622144010006/22/00 14:40:31  5-MIN KDBQ 222040Z 28015G21KT 10SM CLR 27/13 A2991 1090 41 2700 280/15G21 RMK AO2
94908KDBQ DBQ20000622144510006/22/00 14:45:31  5-MIN KDBQ 222045Z 29012G20KT 10SM CLR 27/13 A2990 1090 43 2700 290/12G20 RMK AO2
94908KDBQ DBQ20000622145012306/22/00 14:50:31  5-MIN KDBQ 222050Z 29015G21KT 10SM CLR 27/13 A2991 1090 43 2700 290/15G21 RMK AO2 SLP122 T02670133 50005
94908KDBQ DBQ20000622145512306/22/00 14:55:31  5-MIN KDBQ 222055Z 29016G21KT 10SM CLR 26/13 A2991 1090 44 2700 290/16G21 RMK AO2 SLP123 T02610133 53003
94908KDBQ DBQ20000622150010006/22/00 15:00:31  5-MIN KDBQ 222100Z 30014G21KT 10SM CLR 27/13 A2991 1090 43 2700 300/14G21 RMK AO2
94908KDBQ DBQ20000622150509406/22/00 15:05:31  5-MIN KDBQ 222105Z 30015KT 10SM CLR 27/13 A2991 1090 43 2700 300/15 RMK AO2
94908KDBQ DBQ20000622151009406/22/00 15:10:31  5-MIN KDBQ 222110Z 31014KT 10SM CLR 27/14 A2991 1090 45 2700 300/14 RMK AO2
94908KDBQ DBQ20000622151510006/22/00 15:15:31  5-MIN KDBQ 222115Z 29011G19KT 10SM CLR 27/14 A2990 1090 45 2700 290/11G19 RMK AO2
94908KDBQ DBQ20000622152009406/22/00 15:20:31  5-MIN KDBQ 222120Z 28015KT 10SM CLR 27/13 A2991 1090 43 2700 280/15 RMK AO2
94908KDBQ DBQ20000622152510006/22/00 15:25:31  5-MIN KDBQ 222125Z 29014G19KT 10SM CLR 27/14 A2991 1090 45 2700 290/14G19 RMK AO2
94908KDBQ DBQ20000622153010006/22/00 15:30:31  5-MIN KDBQ 222130Z 28015G19KT 10SM CLR 27/14 A2991 1090 45 2700 280/15G19 RMK AO2
94908KDBQ DBQ20000622153509406/22/00 15:35:31  5-MIN KDBQ 222135Z 29012KT 10SM CLR 27/13 A2991 1090 41 2700 290/12 RMK AO2
94908KDBQ DBQ20000622154009406/22/00 15:40:31  5-MIN KDBQ 222140Z 30015KT 10SM CLR 27/13 A2991 1090 43 2700 300/15 RMK AO2
94908KDBQ DBQ20000622154509406/22/00 15:45:31  5-MIN KDBQ 222145Z 30015KT 10SM CLR 26/13 A2991 1090 44 2700 300/15 RMK AO2
94908KDBQ DBQ20000622155011106/22/00 15:50:31  5-MIN KDBQ 222150Z 29017KT 10SM CLR 26/13 A2991 1090 43 2700 290/17 RMK AO2 SLP122 T02610128
94908KDBQ DBQ20000622155511106/22/00 15:55:31  5-MIN KDBQ 222155Z 28012KT 10SM CLR 26/13 A2991 1090 44 2700 280/12 RMK AO2 SLP123 T02610133
94908KDBQ DBQ20000622160009406/22/00 16:00:31  5-MIN KDBQ 222200Z 28013KT 10SM CLR 27/14 A2991 1090 45 2700 280/13 RMK AO2
94908KDBQ DBQ20000622160510006/22/00 16:05:31  5-MIN KDBQ 222205Z 29014G20KT 10SM CLR 27/14 A2991 1090 45 2700 290/14G20 RMK AO2
94908KDBQ DBQ20000622161010006/22/00 16:10:31  5-MIN KDBQ 222210Z 30016G20KT 10SM CLR 26/13 A2991 1090 44 2700 290/16G20 RMK AO2
94908KDBQ DBQ20000622161509406/22/00 16:15:31  5-MIN KDBQ 222215Z 29015KT 10SM CLR 26/13 A2991 1090 44 2700 290/15 RMK AO2
94908KDBQ DBQ20000622162009406/22/00 16:20:31  5-MIN KDBQ 222220Z 30010KT 10SM CLR 26/14 A2991 1090 46 2700 300/10 RMK AO2
94908KDBQ DBQ20000622162509406/22/00 16:25:31  5-MIN KDBQ 222225Z 30013KT 10SM CLR 27/13 A2991 1090 43 2700 300/13 RMK AO2
94908KDBQ DBQ20000622163009406/22/00 16:30:31  5-MIN KDBQ 222230Z 30012KT 10SM CLR 26/13 A2991 1090 44 2700 300/12 RMK AO2
94908KDBQ DBQ20000622163509406/22/00 16:35:31  5-MIN KDBQ 222235Z 31012KT 10SM CLR 26/14 A2991 1090 46 2700 310/12 RMK AO2
94908KDBQ DBQ20000622164009406/22/00 16:40:31  5-MIN KDBQ 222240Z 30013KT 10SM CLR 26/13 A2991 1090 44 2700 300/13 RMK AO2
94908KDBQ DBQ20000622164509406/22/00 16:45:31  5-MIN KDBQ 222245Z 30012KT 10SM CLR 26/14 A2991 1090 46 2700 300/12 RMK AO2
94908KDBQ DBQ20000622165011106/22/00 16:50:31  5-MIN KDBQ 222250Z 30012KT 10SM CLR 26/13 A2991 1090 44 2700 290/12 RMK AO2 SLP124 T02610133
94908KDBQ DBQ20000622165511106/22/00 16:55:31  5-MIN KDBQ 222255Z 31012KT 10SM CLR 26/14 A2991 1090 46 2700 310/12 RMK AO2 SLP125 T02610139
94908KDBQ DBQ20000622170009406/22/00 17:00:31  5-MIN KDBQ 222300Z 29010KT 10SM CLR 26/13 A2991 1090 44 2700 290/10 RMK AO2
94908KDBQ DBQ20000622170509406/22/00 17:05:31  5-MIN KDBQ 222305Z 30011KT 10SM CLR 26/13 A2991 1090 44 2700 300/11 RMK AO2
94908KDBQ DBQ20000622171009406/22/00 17:10:31  5-MIN KDBQ 222310Z 29010KT 10SM CLR 26/14 A2991 1090 46 2700 290/10 RMK AO2
94908KDBQ DBQ20000622171509406/22/00 17:15:31  5-MIN KDBQ 222315Z 29012KT 10SM CLR 26/13 A2991 1090 44 2700 290/12 RMK AO2
94908KDBQ DBQ20000622172009406/22/00 17:20:31  5-MIN KDBQ 222320Z 30011KT 10SM CLR 26/14 A2991 1090 46 2700 300/11 RMK AO2
94908KDBQ DBQ20000622172509406/22/00 17:25:31  5-MIN KDBQ 222325Z 29012KT 10SM CLR 26/13 A2991 1090 44 2700 290/12 RMK AO2
94908KDBQ DBQ20000622173009406/22/00 17:30:31  5-MIN KDBQ 222330Z 30009KT 10SM CLR 26/14 A2991 1090 48 2600 300/09 RMK AO2
94908KDBQ DBQ20000622173509406/22/00 17:35:31  5-MIN KDBQ 222335Z 30008KT 10SM CLR 26/14 A2991 1090 48 2600 300/08 RMK AO2
94908KDBQ DBQ20000622174009406/22/00 17:40:31  5-MIN KDBQ 222340Z 30012KT 10SM CLR 26/13 A2991 1090 46 2600 300/12 RMK AO2
94908KDBQ DBQ20000622174509406/22/00 17:45:31  5-MIN KDBQ 222345Z 30009KT 10SM CLR 26/14 A2991 1090 48 2600 300/09 RMK AO2
94908KDBQ DBQ20000622175012906/22/00 17:50:31  5-MIN KDBQ 222350Z 30008KT 10SM CLR 26/14 A2991 1090 48 2600 300/08 RMK AO2 SLP125 T02560139 10267 20250 53003
94908KDBQ DBQ20000622175512906/22/00 17:55:31  5-MIN KDBQ 222355Z 30009KT 10SM CLR 26/14 A2991 1080 48 2600 300/09 RMK AO2 SLP125 T02560139 10267 20250 53002
94908KDBQ DBQ20000622180009406/22/00 18:00:31  5-MIN KDBQ 230000Z 32008KT 10SM CLR 26/13 A2991 1090 46 2600 310/08 RMK AO2
94908KDBQ DBQ20000622180509406/22/00 18:05:31  5-MIN KDBQ 230005Z 31006KT 10SM CLR 25/14 A2991 1080 49 2500 310/06 RMK AO2
94908KDBQ DBQ20000622181009406/22/00 18:10:31  5-MIN KDBQ 230010Z 30009KT 10SM CLR 25/14 A2991 1080 51 2500 300/09 RMK AO2
94908KDBQ DBQ20000622181509406/22/00 18:15:31  5-MIN KDBQ 230015Z 31009KT 10SM CLR 25/13 A2991 1080 48 2500 310/09 RMK AO2
94908KDBQ DBQ20000622182009406/22/00 18:20:31  5-MIN KDBQ 230020Z 30007KT 10SM CLR 25/14 A2992 1080 51 2500 300/07 RMK AO2
94908KDBQ DBQ20000622182509406/22/00 18:25:31  5-MIN KDBQ 230025Z 31007KT 10SM CLR 24/14 A2992 1080 53 2500 310/07 RMK AO2
94908KDBQ DBQ20000622183009406/22/00 18:30:31  5-MIN KDBQ 230030Z 32007KT 10SM CLR 24/14 A2992 1080 53 2500 320/07 RMK AO2
94908KDBQ DBQ20000622183509406/22/00 18:35:31  5-MIN KDBQ 230035Z 31006KT 10SM CLR 24/15 A2992 1080 55 2500 310/06 RMK AO2
94908KDBQ DBQ20000622184009406/22/00 18:40:31  5-MIN KDBQ 230040Z 31006KT 10SM CLR 24/15 A2992 1080 57 2400 310/06 RMK AO2
94908KDBQ DBQ20000622184509406/22/00 18:45:31  5-MIN KDBQ 230045Z 31006KT 10SM CLR 24/15 A2992 1080 57 2400 310/06 RMK AO2
94908KDBQ DBQ20000622185011106/22/00 18:50:31  5-MIN KDBQ 230050Z 31006KT 10SM CLR 23/15 A2992 1080 59 2300 310/06 RMK AO2 SLP127 T02330150
94908KDBQ DBQ20000622185512106/22/00 18:55:31  5-MIN KDBQ 230055Z AUTO 31005KT 10SM CLR 23/15 A2992 1080 59 2300 310/05 RMK AO2 SLP128 T02330150 TSNO
94908KDBQ DBQ20000622190010406/22/00 19:00:31  5-MIN KDBQ 230100Z AUTO 30005KT 10SM CLR 23/15 A2992 1070 61 2300 300/05 RMK AO2 TSNO
94908KDBQ DBQ20000622190510406/22/00 19:05:31  5-MIN KDBQ 230105Z AUTO 30005KT 10SM CLR 23/15 A2993 1070 61 2300 300/05 RMK AO2 TSNO
94908KDBQ DBQ20000622191010406/22/00 19:10:31  5-MIN KDBQ 230110Z AUTO 30005KT 10SM CLR 23/14 A2992 1070 59 2300 300/05 RMK AO2 TSNO
94908KDBQ DBQ20000622191510406/22/00 19:15:31  5-MIN KDBQ 230115Z AUTO 29004KT 10SM CLR 23/15 A2993 1070 61 2300 290/04 RMK AO2 TSNO
94908KDBQ DBQ20000622192010406/22/00 19:20:31  5-MIN KDBQ 230120Z AUTO 29004KT 10SM CLR 23/15 A2993 1070 61 2300 290/04 RMK AO2 TSNO
94908KDBQ DBQ20000622192510406/22/00 19:25:31  5-MIN KDBQ 230125Z AUTO 30004KT 10SM CLR 23/14 A2993 1070 59 2300 300/04 RMK AO2 TSNO
94908KDBQ DBQ20000622193010406/22/00 19:30:31  5-MIN KDBQ 230130Z AUTO 30005KT 10SM CLR 22/14 A2993 1070 61 2200 300/05 RMK AO2 TSNO
94908KDBQ DBQ20000622193510406/22/00 19:35:31  5-MIN KDBQ 230135Z AUTO 30005KT 10SM CLR 22/14 A2993 1070 63 2100 300/05 RMK AO2 TSNO
94908KDBQ DBQ20000622194010406/22/00 19:40:31  5-MIN KDBQ 230140Z AUTO 30005KT 10SM CLR 22/14 A2993 1070 61 2100 300/05 RMK AO2 TSNO
94908KDBQ DBQ20000622194510406/22/00 19:45:31  5-MIN KDBQ 230145Z AUTO 30004KT 10SM CLR 22/14 A2993 1070 61 2100 290/04 RMK AO2 TSNO
94908KDBQ DBQ20000622195012106/22/00 19:50:31  5-MIN KDBQ 230150Z AUTO 28003KT 10SM CLR 21/15 A2993 1070 70 2000 280/03 RMK AO2 SLP129 T02060150 TSNO
94908KDBQ DBQ20000622195512106/22/00 19:55:31  5-MIN KDBQ 230155Z AUTO 29003KT 10SM CLR 21/16 A2993 1070 73 2000 290/03 RMK AO2 SLP129 T02060156 TSNO
94908KDBQ DBQ20000622200010406/22/00 20:00:31  5-MIN KDBQ 230200Z AUTO 00000KT 10SM CLR 21/16 A2993 1070 73 2000 000/00 RMK AO2 TSNO
94908KDBQ DBQ20000622200510406/22/00 20:05:31  5-MIN KDBQ 230205Z AUTO 28003KT 10SM CLR 21/15 A2993 1070 70 2000 280/03 RMK AO2 TSNO
94908KDBQ DBQ20000622201010406/22/00 20:10:31  5-MIN KDBQ 230210Z AUTO 00000KT 10SM CLR 21/15 A2993 1070 68 2100 000/00 RMK AO2 TSNO
94908KDBQ DBQ20000622201510406/22/00 20:15:31  5-MIN KDBQ 230215Z AUTO 00000KT 10SM CLR 21/15 A2993 1070 70 2000 000/00 RMK AO2 TSNO
94908KDBQ DBQ20000622202010406/22/00 20:20:31  5-MIN KDBQ 230220Z AUTO 00000KT 10SM CLR 21/14 A2993 1070 63 2100 000/00 RMK AO2 TSNO
94908KDBQ DBQ20000622202510406/22/00 20:25:31  5-MIN KDBQ 230225Z AUTO 00000KT 10SM CLR 21/14 A2994 1060 63 2100 000/00 RMK AO2 TSNO
94908KDBQ DBQ20000622203010406/22/00 20:30:31  5-MIN KDBQ 230230Z AUTO 00000KT 10SM CLR 21/14 A2994 1060 63 2100 000/00 RMK AO2 TSNO
94908KDBQ DBQ20000622203510406/22/00 20:35:31  5-MIN KDBQ 230235Z AUTO 00000KT 10SM CLR 20/14 A2994 1060 70 1900 000/00 RMK AO2 TSNO
94908KDBQ DBQ20000622204010406/22/00 20:40:31  5-MIN KDBQ 230240Z AUTO 00000KT 10SM CLR 19/14 A2994 1060 72 1900 000/00 RMK AO2 TSNO
94908KDBQ DBQ20000622204510406/22/00 20:45:31  5-MIN KDBQ 230245Z AUTO 00000KT 10SM CLR 19/15 A2994 1060 78 1800 000/00 RMK AO2 TSNO
94908KDBQ DBQ20000622205012706/22/00 20:50:31  5-MIN KDBQ 230250Z AUTO 00000KT 10SM CLR 19/16 A2994 1060 81 1800 000/00 RMK AO2 SLP135 T01890156 53002 TSNO
94908KDBQ DBQ20000622205512706/22/00 20:55:31  5-MIN KDBQ 230255Z AUTO 00000KT 10SM CLR 19/16 A2995 1050 78 1900 000/00 RMK AO2 SLP136 T01940156 53011 TSNO
94908KDBQ DBQ20000622210010406/22/00 21:00:31  5-MIN KDBQ 230300Z AUTO 00000KT 10SM CLR 19/16 A2995 1050 78 1900 000/00 RMK AO2 TSNO
94908KDBQ DBQ20000622210510406/22/00 21:05:31  5-MIN KDBQ 230305Z AUTO 00000KT 10SM CLR 19/14 A2995 1050 72 1900 000/00 RMK AO2 TSNO
94908KDBQ DBQ20000622211010406/22/00 21:10:31  5-MIN KDBQ 230310Z AUTO 00000KT 10SM CLR 19/14 A2995 1050 72 1900 000/00 RMK AO2 TSNO
94908KDBQ DBQ20000622211510406/22/00 21:15:31  5-MIN KDBQ 230315Z AUTO 00000KT 10SM CLR 19/14 A2995 1050 72 1900 000/00 RMK AO2 TSNO
94908KDBQ DBQ20000622212010406/22/00 21:20:31  5-MIN KDBQ 230320Z AUTO 00000KT 10SM CLR 20/14 A2995 1050 67 1900 000/00 RMK AO2 TSNO
94908KDBQ DBQ20000622212510406/22/00 21:25:31  5-MIN KDBQ 230325Z AUTO 00000KT 10SM CLR 19/14 A2995 1050 72 1900 000/00 RMK AO2 TSNO
94908KDBQ DBQ20000622213010406/22/00 21:30:31  5-MIN KDBQ 230330Z AUTO 00000KT 10SM CLR 19/14 A2995 1050 75 1800 000/00 RMK AO2 TSNO
94908KDBQ DBQ20000622213510406/22/00 21:35:31  5-MIN KDBQ 230335Z AUTO 18003KT 10SM CLR 19/14 A2995 1050 75 1800 180/03 RMK AO2 TSNO
94908KDBQ DBQ20000622214010406/22/00 21:40:31  5-MIN KDBQ 230340Z AUTO 00000KT 10SM CLR 19/14 A2995 1050 75 1800 000/00 RMK AO2 TSNO
94908KDBQ DBQ20000622214510406/22/00 21:45:31  5-MIN KDBQ 230345Z AUTO 00000KT 10SM CLR 19/14 A2995 1060 72 1800 000/00 RMK AO2 TSNO
94908KDBQ DBQ20000622215012106/22/00 21:50:31  5-MIN KDBQ 230350Z AUTO 00000KT 10SM CLR 19/14 A2994 1060 70 1900 000/00 RMK AO2 SLP134 T01940139 TSNO
94908KDBQ DBQ20000622215512106/22/00 21:55:31  5-MIN KDBQ 230355Z AUTO 00000KT 10SM CLR 19/14 A2995 1050 72 1800 000/00 RMK AO2 SLP136 T01890139 TSNO
94908KDBQ DBQ20000622220010406/22/00 22:00:31  5-MIN KDBQ 230400Z AUTO 00000KT 10SM CLR 19/14 A2995 1050 70 1900 000/00 RMK AO2 TSNO
94908KDBQ DBQ20000622220510406/22/00 22:05:31  5-MIN KDBQ 230405Z AUTO 00000KT 10SM CLR 19/14 A2995 1050 72 1800 000/00 RMK AO2 TSNO
94908KDBQ DBQ20000622221010406/22/00 22:10:31  5-MIN KDBQ 230410Z AUTO 00000KT 10SM CLR 19/14 A2995 1050 70 1900 000/00 RMK AO2 TSNO
94908KDBQ DBQ20000622221510406/22/00 22:15:31  5-MIN KDBQ 230415Z AUTO 00000KT 10SM CLR 18/14 A2995 1050 78 1700 000/00 RMK AO2 TSNO
94908KDBQ DBQ20000622222010406/22/00 22:20:31  5-MIN KDBQ 230420Z AUTO 00000KT 10SM CLR 17/14 A2995 1050 83 1500 000/00 RMK AO2 TSNO
94908KDBQ DBQ20000622222510406/22/00 22:25:31  5-MIN KDBQ 230425Z AUTO 00000KT 10SM CLR 18/14 A2995 1050 75 1700 000/00 RMK AO2 TSNO
94908KDBQ DBQ20000622223010406/22/00 22:30:31  5-MIN KDBQ 230430Z AUTO 00000KT 10SM CLR 18/14 A2995 1050 75 1700 000/00 RMK AO2 TSNO
94908KDBQ DBQ20000622223510406/22/00 22:35:31  5-MIN KDBQ 230435Z AUTO 00000KT 10SM CLR 18/14 A2996 1040 75 1700 000/00 RMK AO2 TSNO
94908KDBQ DBQ20000622224010406/22/00 22:40:31  5-MIN KDBQ 230440Z AUTO 00000KT 10SM CLR 19/14 A2996 1040 72 1800 000/00 RMK AO2 TSNO
94908KDBQ DBQ20000622224510406/22/00 22:45:31  5-MIN KDBQ 230445Z AUTO 00000KT 10SM CLR 18/14 A2996 1040 75 1700 000/00 RMK AO2 TSNO
94908KDBQ DBQ20000622225012106/22/00 22:50:31  5-MIN KDBQ 230450Z AUTO 00000KT 10SM CLR 18/14 A2996 1040 75 1700 000/00 RMK AO2 SLP140 T01830139 TSNO
94908KDBQ DBQ20000622225512106/22/00 22:55:31  5-MIN KDBQ 230455Z AUTO 00000KT 10SM CLR 19/14 A2996 1040 72 1800 000/00 RMK AO2 SLP139 T01890139 TSNO
94908KDBQ DBQ20000622230010406/22/00 23:00:31  5-MIN KDBQ 230500Z AUTO 00000KT 10SM CLR 19/14 A2996 1050 72 1800 000/00 RMK AO2 TSNO
94908KDBQ DBQ20000622230510406/22/00 23:05:31  5-MIN KDBQ 230505Z AUTO 00000KT 10SM CLR 18/14 A2996 1050 75 1700 000/00 RMK AO2 TSNO
94908KDBQ DBQ20000622231010406/22/00 23:10:31  5-MIN KDBQ 230510Z AUTO 00000KT 10SM CLR 19/13 A2996 1050 70 1800 000/00 RMK AO2 TSNO
94908KDBQ DBQ20000622231510406/22/00 23:15:31  5-MIN KDBQ 230515Z AUTO 00000KT 10SM CLR 18/14 A2996 1040 75 1700 000/00 RMK AO2 TSNO
94908KDBQ DBQ20000622232010406/22/00 23:20:31  5-MIN KDBQ 230520Z AUTO 00000KT 10SM CLR 18/14 A2996 1050 78 1700 000/00 RMK AO2 TSNO
94908KDBQ DBQ20000622232510406/22/00 23:25:31  5-MIN KDBQ 230525Z AUTO 00000KT 10SM CLR 18/14 A2996 1050 75 1700 000/00 RMK AO2 TSNO
94908KDBQ DBQ20000622233010406/22/00 23:30:31  5-MIN KDBQ 230530Z AUTO 00000KT 10SM CLR 18/14 A2995 1050 78 1700 000/00 RMK AO2 TSNO
94908KDBQ DBQ20000622233510406/22/00 23:35:31  5-MIN KDBQ 230535Z AUTO 00000KT 10SM CLR 18/14 A2996 1050 75 1700 000/00 RMK AO2 TSNO
94908KDBQ DBQ20000622234010406/22/00 23:40:31  5-MIN KDBQ 230540Z AUTO 00000KT 10SM CLR 17/13 A2995 1050 78 1600 000/00 RMK AO2 TSNO
94908KDBQ DBQ20000622234510406/22/00 23:45:31  5-MIN KDBQ 230545Z AUTO 00000KT 10SM CLR 17/14 A2995 1050 80 1600 000/00 RMK AO2 TSNO
94908KDBQ DBQ20000622235014906/22/00 23:50:31  5-MIN KDBQ 230550Z AUTO 00000KT 10SM CLR 18/14 A2996 1050 78 1700 000/00 RMK AO2 SLP138 T01780139 10256 20167 402670133 53011 TSNO
94908KDBQ DBQ20000622235514906/22/00 23:55:31  5-MIN KDBQ 230555Z AUTO 00000KT 10SM CLR 17/14 A2996 1040 80 1600 000/00 RMK AO2 SLP140 T01720139 10256 20167 402670133 53004 TSNO
94908KDBQ DBQ20000623000010406/23/00 00:00:31  5-MIN KDBQ 230600Z AUTO 00000KT 10SM CLR 17/14 A2996 1040 83 1500 000/00 RMK AO2 TSNO
94908KDBQ DBQ20000623000510406/23/00 00:05:31  5-MIN KDBQ 230605Z AUTO 00000KT 10SM CLR 17/14 A2996 1040 80 1600 000/00 RMK AO2 TSNO
94908KDBQ DBQ20000623001010406/23/00 00:10:31  5-MIN KDBQ 230610Z AUTO 00000KT 10SM CLR 17/14 A2995 1050 80 1600 000/00 RMK AO2 TSNO
94908KDBQ DBQ20000623001510406/23/00 00:15:31  5-MIN KDBQ 230615Z AUTO 00000KT 10SM CLR 17/14 A2995 1050 80 1600 000/00 RMK AO2 TSNO
94908KDBQ DBQ20000623002010406/23/00 00:20:31  5-MIN KDBQ 230620Z AUTO 16003KT 10SM CLR 17/14 A2996 1040 80 1600 160/03 RMK AO2 TSNO
94908KDBQ DBQ20000623002510406/23/00 00:25:31  5-MIN KDBQ 230625Z AUTO 00000KT 10SM CLR 17/14 A2996 1040 83 1500 000/00 RMK AO2 TSNO
94908KDBQ DBQ20000623003010406/23/00 00:30:31  5-MIN KDBQ 230630Z AUTO 00000KT 10SM CLR 17/14 A2996 1040 83 1500 000/00 RMK AO2 TSNO
94908KDBQ DBQ20000623003510406/23/00 00:35:31  5-MIN KDBQ 230635Z AUTO 00000KT 10SM CLR 17/14 A2996 1040 83 1500 000/00 RMK AO2 TSNO
94908KDBQ DBQ20000623004010406/23/00 00:40:31  5-MIN KDBQ 230640Z AUTO 00000KT 10SM CLR 17/14 A2995 1050 83 1500 000/00 RMK AO2 TSNO
94908KDBQ DBQ20000623004510406/23/00 00:45:31  5-MIN KDBQ 230645Z AUTO 00000KT 10SM CLR 17/14 A2995 1050 80 1600 000/00 RMK AO2 TSNO
94908KDBQ DBQ20000623005012106/23/00 00:50:31  5-MIN KDBQ 230650Z AUTO 00000KT 10SM CLR 17/13 A2995 1050 78 1600 000/00 RMK AO2 SLP136 T01720133 TSNO
94908KDBQ DBQ20000623005512106/23/00 00:55:31  5-MIN KDBQ 230655Z AUTO 15003KT 10SM CLR 17/14 A2995 1050 83 1500 150/03 RMK AO2 SLP136 T01670139 TSNO
94908KDBQ DBQ20000623010010406/23/00 01:00:31  5-MIN KDBQ 230700Z AUTO 00000KT 10SM CLR 17/14 A2995 1050 83 1500 000/00 RMK AO2 TSNO
94908KDBQ DBQ20000623010510406/23/00 01:05:31  5-MIN KDBQ 230705Z AUTO 00000KT 10SM CLR 17/13 A2995 1050 78 1600 000/00 RMK AO2 TSNO
94908KDBQ DBQ20000623011010406/23/00 01:10:31  5-MIN KDBQ 230710Z AUTO 00000KT 10SM CLR 17/13 A2995 1050 80 1500 000/00 RMK AO2 TSNO
94908KDBQ DBQ20000623011510406/23/00 01:15:31  5-MIN KDBQ 230715Z AUTO 00000KT 10SM CLR 17/13 A2995 1050 78 1600 000/00 RMK AO2 TSNO
94908KDBQ DBQ20000623012010406/23/00 01:20:31  5-MIN KDBQ 230720Z AUTO 00000KT 10SM CLR 17/13 A2995 1050 78 1600 000/00 RMK AO2 TSNO
94908KDBQ DBQ20000623012510406/23/00 01:25:31  5-MIN KDBQ 230725Z AUTO 00000KT 10SM CLR 17/13 A2996 1040 78 1600 000/00 RMK AO2 TSNO
94908KDBQ DBQ20000623013010406/23/00 01:30:31  5-MIN KDBQ 230730Z AUTO 00000KT 10SM CLR 17/13 A2997 1030 80 1500 000/00 RMK AO2 TSNO
94908KDBQ DBQ20000623013510406/23/00 01:35:31  5-MIN KDBQ 230735Z AUTO 00000KT 10SM CLR 16/13 A2997 1030 83 1400 000/00 RMK AO2 TSNO
94908KDBQ DBQ20000623014010406/23/00 01:40:31  5-MIN KDBQ 230740Z AUTO 00000KT 10SM CLR 16/13 A2996 1040 86 1400 000/00 RMK AO2 TSNO
94908KDBQ DBQ20000623014510406/23/00 01:45:31  5-MIN KDBQ 230745Z AUTO 00000KT 10SM CLR 16/13 A2996 1040 83 1500 000/00 RMK AO2 TSNO
94908KDBQ DBQ20000623015012106/23/00 01:50:31  5-MIN KDBQ 230750Z AUTO 00000KT 10SM CLR 17/13 A2996 1040 80 1500 000/00 RMK AO2 SLP140 T01670133 TSNO
94908KDBQ DBQ20000623015512106/23/00 01:55:31  5-MIN KDBQ 230755Z AUTO 00000KT 10SM CLR 17/13 A2996 1040 80 1500 000/00 RMK AO2 SLP140 T01670133 TSNO
94908KDBQ DBQ20000623020010406/23/00 02:00:31  5-MIN KDBQ 230800Z AUTO 00000KT 10SM CLR 17/13 A2996 1040 80 1500 000/00 RMK AO2 TSNO
94908KDBQ DBQ20000623020510406/23/00 02:05:31  5-MIN KDBQ 230805Z AUTO 00000KT 10SM CLR 17/13 A2996 1040 80 1500 000/00 RMK AO2 TSNO
94908KDBQ DBQ20000623021010406/23/00 02:10:31  5-MIN KDBQ 230810Z AUTO 00000KT 10SM CLR 17/13 A2997 1040 80 1500 000/00 RMK AO2 TSNO
94908KDBQ DBQ20000623021510406/23/00 02:15:31  5-MIN KDBQ 230815Z AUTO 00000KT 10SM CLR 17/13 A2997 1040 78 1600 000/00 RMK AO2 TSNO
94908KDBQ DBQ20000623022010406/23/00 02:20:31  5-MIN KDBQ 230820Z AUTO 00000KT 10SM CLR 17/13 A2997 1030 78 1600 000/00 RMK AO2 TSNO
94908KDBQ DBQ20000623022510406/23/00 02:25:31  5-MIN KDBQ 230825Z AUTO 00000KT 10SM CLR 17/13 A2998 1030 78 1600 000/00 RMK AO2 TSNO
94908KDBQ DBQ20000623023010406/23/00 02:30:31  5-MIN KDBQ 230830Z AUTO 00000KT 10SM CLR 16/13 A2998 1030 83 1400 000/00 RMK AO2 TSNO
94908KDBQ DBQ20000623023510406/23/00 02:35:31  5-MIN KDBQ 230835Z AUTO 00000KT 10SM CLR 16/13 A2997 1030 86 1400 000/00 RMK AO2 TSNO
94908KDBQ DBQ20000623024010406/23/00 02:40:31  5-MIN KDBQ 230840Z AUTO 00000KT 10SM CLR 16/13 A2997 1030 80 1400 000/00 RMK AO2 TSNO
94908KDBQ DBQ20000623024510406/23/00 02:45:31  5-MIN KDBQ 230845Z AUTO 12003KT 10SM CLR 17/13 A2997 1030 80 1500 120/03 RMK AO2 TSNO
94908KDBQ DBQ20000623025012706/23/00 02:50:31  5-MIN KDBQ 230850Z AUTO 13004KT 10SM CLR 17/13 A2997 1040 78 1600 130/04 RMK AO2 SLP142 T01720133 53004 TSNO
94908KDBQ DBQ20000623025512706/23/00 02:55:31  5-MIN KDBQ 230855Z AUTO 14003KT 10SM CLR 18/13 A2997 1040 75 1600 140/03 RMK AO2 SLP141 T01780133 53002 TSNO
94908KDBQ DBQ20000623030010406/23/00 03:00:31  5-MIN KDBQ 230900Z AUTO 14004KT 10SM CLR 18/13 A2996 1040 75 1600 140/04 RMK AO2 TSNO
94908KDBQ DBQ20000623030510406/23/00 03:05:31  5-MIN KDBQ 230905Z AUTO 14005KT 10SM CLR 17/13 A2996 1040 75 1600 140/05 RMK AO2 TSNO
94908KDBQ DBQ20000623031010406/23/00 03:10:31  5-MIN KDBQ 230910Z AUTO 13004KT 10SM CLR 17/13 A2996 1040 75 1600 130/04 RMK AO2 TSNO
94908KDBQ DBQ20000623031510406/23/00 03:15:31  5-MIN KDBQ 230915Z AUTO 11003KT 10SM CLR 17/13 A2996 1040 78 1600 110/03 RMK AO2 TSNO
94908KDBQ DBQ20000623032010406/23/00 03:20:31  5-MIN KDBQ 230920Z AUTO 11003KT 10SM CLR 17/13 A2996 1040 78 1600 110/03 RMK AO2 TSNO
94908KDBQ DBQ20000623032510406/23/00 03:25:31  5-MIN KDBQ 230925Z AUTO 11003KT 10SM CLR 17/13 A2996 1040 75 1600 110/03 RMK AO2 TSNO
94908KDBQ DBQ20000623033010406/23/00 03:30:31  5-MIN KDBQ 230930Z AUTO 13003KT 10SM CLR 18/13 A2996 1040 75 1600 120/03 RMK AO2 TSNO
94908KDBQ DBQ20000623033510406/23/00 03:35:31  5-MIN KDBQ 230935Z AUTO 13003KT 10SM CLR 18/13 A2996 1040 75 1600 130/03 RMK AO2 TSNO
94908KDBQ DBQ20000623034010406/23/00 03:40:31  5-MIN KDBQ 230940Z AUTO 00000KT 10SM CLR 17/13 A2996 1040 78 1600 000/00 RMK AO2 TSNO
94908KDBQ DBQ20000623034510406/23/00 03:45:31  5-MIN KDBQ 230945Z AUTO 11004KT 10SM CLR 18/13 A2996 1040 75 1600 110/04 RMK AO2 TSNO
94908KDBQ DBQ20000623035012106/23/00 03:50:31  5-MIN KDBQ 230950Z AUTO 10004KT 10SM CLR 18/13 A2996 1040 75 1600 100/04 RMK AO2 SLP139 T01780133 TSNO
94908KDBQ DBQ20000623035512106/23/00 03:55:31  5-MIN KDBQ 230955Z AUTO 10005KT 10SM CLR 18/13 A2996 1040 75 1600 100/05 RMK AO2 SLP139 T01780133 TSNO
94908KDBQ DBQ20000623040010406/23/00 04:00:31  5-MIN KDBQ 231000Z AUTO 10004KT 10SM CLR 18/13 A2996 1040 75 1600 100/04 RMK AO2 TSNO
94908KDBQ DBQ20000623040510406/23/00 04:05:31  5-MIN KDBQ 231005Z AUTO 11004KT 10SM CLR 18/14 A2996 1040 78 1700 100/04 RMK AO2 TSNO
94908KDBQ DBQ20000623041010406/23/00 04:10:31  5-MIN KDBQ 231010Z AUTO 11004KT 10SM CLR 17/14 A2996 1040 80 1600 110/04 RMK AO2 TSNO
94908KDBQ DBQ20000623041510406/23/00 04:15:31  5-MIN KDBQ 231015Z AUTO 13003KT 10SM CLR 17/14 A2996 1040 83 1500 130/03 RMK AO2 TSNO
94908KDBQ DBQ20000623042010406/23/00 04:20:31  5-MIN KDBQ 231020Z AUTO 15004KT 10SM CLR 17/14 A2996 1040 83 1500 150/04 RMK AO2 TSNO
94908KDBQ DBQ20000623042510406/23/00 04:25:31  5-MIN KDBQ 231025Z AUTO 16004KT 10SM CLR 17/14 A2996 1040 83 1500 160/04 RMK AO2 TSNO
94908KDBQ DBQ20000623043010406/23/00 04:30:31  5-MIN KDBQ 231030Z AUTO 16005KT 10SM CLR 16/14 A2997 1040 86 1400 160/05 RMK AO2 TSNO
94908KDBQ DBQ20000623043510406/23/00 04:35:31  5-MIN KDBQ 231035Z AUTO 16004KT 10SM CLR 16/13 A2997 1040 86 1400 160/04 RMK AO2 TSNO
94908KDBQ DBQ20000623044010406/23/00 04:40:31  5-MIN KDBQ 231040Z AUTO 17005KT 10SM CLR 16/13 A2997 1040 86 1400 160/05 RMK AO2 TSNO
94908KDBQ DBQ20000623044510406/23/00 04:45:31  5-MIN KDBQ 231045Z AUTO 18005KT 10SM CLR 16/14 A2997 1030 90 1400 180/05 RMK AO2 TSNO
94908KDBQ DBQ20000623045012106/23/00 04:50:31  5-MIN KDBQ 231050Z AUTO 19006KT 10SM CLR 16/14 A2997 1030 90 1400 190/06 RMK AO2 SLP145 T01560139 TSNO
94908KDBQ DBQ20000623045511106/23/00 04:55:31  5-MIN KDBQ 231055Z 21005KT 10SM CLR 14/13 A2997 1030 93 1200 210/05 RMK AO2 SLP145 T01440133
94908KDBQ DBQ20000623050009406/23/00 05:00:31  5-MIN KDBQ 231100Z 20003KT 10SM CLR 14/13 A2997 1030 93 1200 200/03 RMK AO2
94908KDBQ DBQ20000623050509406/23/00 05:05:31  5-MIN KDBQ 231105Z 18003KT 10SM CLR 14/13 A2998 1030 93 1200 180/03 RMK AO2
94908KDBQ DBQ20000623051009406/23/00 05:10:31  5-MIN KDBQ 231110Z 16003KT 10SM CLR 14/13 A2998 1030 93 1200 160/03 RMK AO2
94908KDBQ DBQ20000623051509406/23/00 05:15:31  5-MIN KDBQ 231115Z 00000KT 10SM CLR 15/13 A2998 1030 90 1300 000/00 RMK AO2
94908KDBQ DBQ20000623052009406/23/00 05:20:31  5-MIN KDBQ 231120Z 00000KT 10SM CLR 16/14 A2998 1030 90 1400 000/00 RMK AO2
94908KDBQ DBQ20000623052509406/23/00 05:25:31  5-MIN KDBQ 231125Z 14003KT 10SM CLR 17/14 A2997 1030 83 1500 140/03 RMK AO2
94908KDBQ DBQ20000623053009406/23/00 05:30:31  5-MIN KDBQ 231130Z 15003KT 10SM CLR 17/14 A2997 1030 86 1500 150/03 RMK AO2
94908KDBQ DBQ20000623053509406/23/00 05:35:31  5-MIN KDBQ 231135Z 15006KT 10SM CLR 17/15 A2997 1030 87 1600 150/06 RMK AO2
94908KDBQ DBQ20000623054009406/23/00 05:40:31  5-MIN KDBQ 231140Z 15006KT 10SM CLR 18/15 A2998 1020 83 1600 150/06 RMK AO2
94908KDBQ DBQ20000623054509406/23/00 05:45:31  5-MIN KDBQ 231145Z 14006KT 10SM CLR 18/15 A2998 1020 81 1700 140/06 RMK AO2
94908KDBQ DBQ20000623055012906/23/00 05:50:31  5-MIN KDBQ 231150Z 14006KT 10SM CLR 18/15 A2998 1020 81 1700 140/06 RMK AO2 SLP146 T01830150 10183 20139 53002
94908KDBQ DBQ20000623055512906/23/00 05:55:31  5-MIN KDBQ 231155Z 14005KT 10SM CLR 19/15 A2998 1020 78 1800 140/05 RMK AO2 SLP146 T01890150 10189 20139 53005
94908KDBQ DBQ20000623060009406/23/00 06:00:31  5-MIN KDBQ 231200Z 14005KT 10SM CLR 19/16 A2998 1020 81 1800 140/05 RMK AO2
94908KDBQ DBQ20000623060509406/23/00 06:05:31  5-MIN KDBQ 231205Z 13005KT 10SM CLR 19/16 A2998 1020 78 1800 130/05 RMK AO2
94908KDBQ DBQ20000623061009406/23/00 06:10:31  5-MIN KDBQ 231210Z 14005KT 10SM CLR 19/16 A2999 1020 78 1800 140/05 RMK AO2
94908KDBQ DBQ20000623061509406/23/00 06:15:31  5-MIN KDBQ 231215Z 14005KT 10SM CLR 20/16 A2998 1020 75 1900 140/05 RMK AO2
94908KDBQ DBQ20000623062009406/23/00 06:20:31  5-MIN KDBQ 231220Z 15004KT 10SM CLR 20/16 A2998 1020 75 1900 150/04 RMK AO2
94908KDBQ DBQ20000623062509406/23/00 06:25:31  5-MIN KDBQ 231225Z 16004KT 10SM CLR 21/16 A2998 1020 75 1900 160/04 RMK AO2
94908KDBQ DBQ20000623063009406/23/00 06:30:31  5-MIN KDBQ 231230Z 18004KT 10SM CLR 21/16 A2998 1020 73 1900 180/04 RMK AO2
94908KDBQ DBQ20000623063509406/23/00 06:35:31  5-MIN KDBQ 231235Z 17005KT 10SM CLR 21/16 A2998 1020 70 2000 170/05 RMK AO2
94908KDBQ DBQ20000623064009406/23/00 06:40:31  5-MIN KDBQ 231240Z 17006KT 10SM CLR 21/15 A2998 1030 68 2000 170/06 RMK AO2
94908KDBQ DBQ20000623064509406/23/00 06:45:31  5-MIN KDBQ 231245Z 17005KT 10SM CLR 21/16 A2998 1030 70 2000 170/05 RMK AO2
94908KDBQ DBQ20000623065011106/23/00 06:50:31  5-MIN KDBQ 231250Z 17006KT 10SM CLR 21/16 A2998 1030 70 2000 170/06 RMK AO2 SLP145 T02110156
94908KDBQ DBQ20000623065511106/23/00 06:55:31  5-MIN KDBQ 231255Z 16007KT 10SM CLR 21/16 A2998 1030 70 2000 160/07 RMK AO2 SLP145 T02110156
94908KDBQ DBQ20000623070009406/23/00 07:00:31  5-MIN KDBQ 231300Z 16006KT 10SM CLR 22/16 A2998 1020 70 2100 160/06 RMK AO2
94908KDBQ DBQ20000623070509406/23/00 07:05:31  5-MIN KDBQ 231305Z 17006KT 10SM CLR 22/16 A2998 1020 68 2100 170/06 RMK AO2
94908KDBQ DBQ20000623071009406/23/00 07:10:31  5-MIN KDBQ 231310Z 17006KT 10SM CLR 22/15 A2998 1020 65 2100 170/06 RMK AO2
94908KDBQ DBQ20000623071509406/23/00 07:15:31  5-MIN KDBQ 231315Z 18006KT 10SM CLR 22/16 A2999 1020 68 2100 180/06 RMK AO2
94908KDBQ DBQ20000623072009406/23/00 07:20:31  5-MIN KDBQ 231320Z 17006KT 10SM CLR 22/16 A2998 1020 65 2100 170/06 RMK AO2
94908KDBQ DBQ20000623072509406/23/00 07:25:31  5-MIN KDBQ 231325Z 16006KT 10SM CLR 22/16 A2998 1020 65 2100 160/06 RMK AO2
94908KDBQ DBQ20000623073009406/23/00 07:30:31  5-MIN KDBQ 231330Z 16006KT 10SM CLR 23/16 A2998 1020 65 2200 160/06 RMK AO2
94908KDBQ DBQ20000623073509406/23/00 07:35:31  5-MIN KDBQ 231335Z 16007KT 10SM CLR 23/16 A2998 1020 63 2200 160/07 RMK AO2
94908KDBQ DBQ20000623074009406/23/00 07:40:31  5-MIN KDBQ 231340Z 16005KT 10SM CLR 23/15 A2998 1020 61 2200 160/05 RMK AO2
94908KDBQ DBQ20000623074509406/23/00 07:45:31  5-MIN KDBQ 231345Z 16006KT 10SM CLR 23/16 A2998 1020 63 2200 150/06 RMK AO2
94908KDBQ DBQ20000623075011106/23/00 07:50:31  5-MIN KDBQ 231350Z 17005KT 10SM CLR 23/16 A2998 1020 63 2200 170/05 RMK AO2 SLP147 T02280156
94908KDBQ DBQ20000623075511106/23/00 07:55:31  5-MIN KDBQ 231355Z 16006KT 10SM CLR 24/16 A2998 1020 59 2300 150/06 RMK AO2 SLP146 T02390156
94908KDBQ DBQ20000623080009406/23/00 08:00:31  5-MIN KDBQ 231400Z 14008KT 10SM CLR 24/16 A2998 1030 59 2300 140/08 RMK AO2
94908KDBQ DBQ20000623080509406/23/00 08:05:31  5-MIN KDBQ 231405Z 16006KT 10SM CLR 24/16 A2998 1030 59 2300 160/06 RMK AO2
94908KDBQ DBQ20000623081009406/23/00 08:10:31  5-MIN KDBQ 231410Z 16007KT 10SM CLR 24/16 A2998 1030 57 2400 160/07 RMK AO2
94908KDBQ DBQ20000623081509406/23/00 08:15:31  5-MIN KDBQ 231415Z 17008KT 10SM CLR 24/15 A2998 1030 55 2400 170/08 RMK AO2
94908KDBQ DBQ20000623082009406/23/00 08:20:31  5-MIN KDBQ 231420Z 17007KT 10SM CLR 24/15 A2998 1020 57 2300 170/07 RMK AO2
94908KDBQ DBQ20000623082509406/23/00 08:25:31  5-MIN KDBQ 231425Z 17007KT 10SM CLR 24/15 A2998 1020 57 2300 170/07 RMK AO2
94908KDBQ DBQ20000623083009406/23/00 08:30:31  5-MIN KDBQ 231430Z 17007KT 10SM CLR 24/16 A2998 1020 61 2300 170/07 RMK AO2
94908KDBQ DBQ20000623083509406/23/00 08:35:31  5-MIN KDBQ 231435Z 16006KT 10SM CLR 24/16 A2999 1020 57 2400 160/06 RMK AO2
94908KDBQ DBQ20000623084009406/23/00 08:40:31  5-MIN KDBQ 231440Z 16006KT 10SM CLR 24/16 A2998 1020 61 2300 160/06 RMK AO2
94908KDBQ DBQ20000623084509406/23/00 08:45:31  5-MIN KDBQ 231445Z 15008KT 10SM CLR 24/17 A2998 1030 61 2400 150/08 RMK AO2
94908KDBQ DBQ20000623085011706/23/00 08:50:31  5-MIN KDBQ 231450Z 16008KT 10SM CLR 24/16 A2998 1030 57 2400 160/08 RMK AO2 SLP145 T02440156 53005
94908KDBQ DBQ20000623085511706/23/00 08:55:31  5-MIN KDBQ 231455Z 16008KT 10SM CLR 25/16 A2998 1030 55 2500 160/08 RMK AO2 SLP145 T02500156 58001
94908KDBQ DBQ20000623090009406/23/00 09:00:31  5-MIN KDBQ 231500Z 16008KT 10SM CLR 25/16 A2997 1030 55 2500 160/08 RMK AO2
94908KDBQ DBQ20000623090509406/23/00 09:05:31  5-MIN KDBQ 231505Z 15009KT 10SM CLR 25/16 A2997 1030 55 2500 140/09 RMK AO2
94908KDBQ DBQ20000623091009406/23/00 09:10:31  5-MIN KDBQ 231510Z 15009KT 10SM CLR 25/16 A2997 1030 55 2500 150/09 RMK AO2
94908KDBQ DBQ20000623091509406/23/00 09:15:31  5-MIN KDBQ 231515Z 15011KT 10SM CLR 26/16 A2997 1030 53 2500 150/11 RMK AO2
94908KDBQ DBQ20000623092009406/23/00 09:20:31  5-MIN KDBQ 231520Z 16010KT 10SM CLR 26/15 A2998 1030 51 2500 160/10 RMK AO2
94908KDBQ DBQ20000623092509406/23/00 09:25:31  5-MIN KDBQ 231525Z 16011KT 10SM CLR 26/15 A2998 1020 51 2500 160/11 RMK AO2
94908KDBQ DBQ20000623093009406/23/00 09:30:31  5-MIN KDBQ 231530Z 15008KT 10SM CLR 26/16 A2999 1020 53 2600 150/08 RMK AO2
94908KDBQ DBQ20000623093509406/23/00 09:35:31  5-MIN KDBQ 231535Z 16009KT 10SM CLR 26/15 A2999 1020 51 2500 160/09 RMK AO2
94908KDBQ DBQ20000623094009406/23/00 09:40:31  5-MIN KDBQ 231540Z 16007KT 10SM CLR 26/16 A2999 1010 51 2600 160/07 RMK AO2
94908KDBQ DBQ20000623094509406/23/00 09:45:31  5-MIN KDBQ 231545Z 16007KT 10SM CLR 26/16 A2999 1010 51 2600 160/07 RMK AO2
94908KDBQ DBQ20000623095011106/23/00 09:50:31  5-MIN KDBQ 231550Z 16008KT 10SM CLR 27/16 A2999 1010 52 2600 160/08 RMK AO2 SLP150 T02670161
94908KDBQ DBQ20000623095511106/23/00 09:55:31  5-MIN KDBQ 231555Z 15009KT 10SM CLR 27/16 A2999 1010 52 2600 150/09 RMK AO2 SLP151 T02670161
94908KDBQ DBQ20000623100009406/23/00 10:00:31  5-MIN KDBQ 231600Z 15010KT 10SM CLR 27/17 A2999 1010 52 2700 150/10 RMK AO2
94908KDBQ DBQ20000623100509406/23/00 10:05:31  5-MIN KDBQ 231605Z 16010KT 10SM CLR 27/16 A2999 1010 50 2600 160/10 RMK AO2
94908KDBQ DBQ20000623101009406/23/00 10:10:31  5-MIN KDBQ 231610Z 17009KT 10SM CLR 27/15 A2999 1020 48 2600 170/09 RMK AO2
94908KDBQ DBQ20000623101509406/23/00 10:15:31  5-MIN KDBQ 231615Z 16009KT 10SM CLR 27/16 A2999 1020 50 2600 160/09 RMK AO2
94908KDBQ DBQ20000623102009406/23/00 10:20:31  5-MIN KDBQ 231620Z 17008KT 10SM CLR 27/16 A2999 1020 50 2600 160/08 RMK AO2
94908KDBQ DBQ20000623102509406/23/00 10:25:31  5-MIN KDBQ 231625Z 15007KT 10SM CLR 27/16 A2999 1020 50 2600 150/07 RMK AO2
94908KDBQ DBQ20000623103009406/23/00 10:30:31  5-MIN KDBQ 231630Z 14009KT 10SM CLR 27/16 A2999 1020 50 2700 140/09 RMK AO2
94908KDBQ DBQ20000623103509406/23/00 10:35:31  5-MIN KDBQ 231635Z 16008KT 10SM CLR 27/16 A2999 1020 50 2700 160/08 RMK AO2
94908KDBQ DBQ20000623104009406/23/00 10:40:31  5-MIN KDBQ 231640Z 15008KT 10SM CLR 27/17 A2998 1020 52 2700 140/08 RMK AO2
94908KDBQ DBQ20000623104509406/23/00 10:45:31  5-MIN KDBQ 231645Z 17006KT 10SM CLR 27/17 A2998 1020 54 2700 160/06 RMK AO2
94908KDBQ DBQ20000623105011106/23/00 10:50:31  5-MIN KDBQ 231650Z 15008KT 10SM CLR 27/17 A2998 1020 54 2700 150/08 RMK AO2 SLP146 T02720172
94908KDBQ DBQ20000623105511106/23/00 10:55:31  5-MIN KDBQ 231655Z 15006KT 10SM CLR 27/17 A2997 1030 54 2700 150/06 RMK AO2 SLP143 T02720172
94908KDBQ DBQ20000623110009406/23/00 11:00:31  5-MIN KDBQ 231700Z 14009KT 10SM CLR 27/17 A2997 1030 54 2700 140/09 RMK AO2
94908KDBQ DBQ20000623110509406/23/00 11:05:31  5-MIN KDBQ 231705Z 13008KT 10SM CLR 27/17 A2996 1040 54 2700 130/08 RMK AO2
94908KDBQ DBQ20000623111010106/23/00 11:10:31  5-MIN KDBQ 231710Z 14008KT 10SM CLR 27/17 A2996 1040 54 2700 140/08 RMK AO2 PRESFR
94908KDBQ DBQ20000623111509406/23/00 11:15:31  5-MIN KDBQ 231715Z 13007KT 10SM CLR 28/18 A2996 1050 54 2800 130/07 RMK AO2
94908KDBQ DBQ20000623112009406/23/00 11:20:31  5-MIN KDBQ 231720Z 15008KT 10SM CLR 28/18 A2995 1050 54 2800 140/08 RMK AO2
94908KDBQ DBQ20000623112510106/23/00 11:25:31  5-MIN KDBQ 231725Z 13011KT 10SM CLR 28/18 A2993 1070 54 2800 130/11 RMK AO2 PRESFR
94908KDBQ DBQ20000623113009406/23/00 11:30:31  5-MIN KDBQ 231730Z 13009KT 10SM CLR 28/18 A2993 1070 54 2900 130/09 RMK AO2
94908KDBQ DBQ20000623113509406/23/00 11:35:31  5-MIN KDBQ 231735Z 13009KT 10SM CLR 28/18 A2993 1070 54 2900 130/09 RMK AO2
94908KDBQ DBQ20000623114009406/23/00 11:40:31  5-MIN KDBQ 231740Z 12009KT 10SM CLR 28/18 A2993 1070 54 2900 120/09 RMK AO2
94908KDBQ DBQ20000623114509406/23/00 11:45:31  5-MIN KDBQ 231745Z 14008KT 10SM CLR 28/18 A2993 1070 54 2900 140/08 RMK AO2
94908KDBQ DBQ20000623115012906/23/00 11:50:31  5-MIN KDBQ 231750Z 13010KT 10SM CLR 29/19 A2992 1080 54 3000 130/10 RMK AO2 SLP124 T02890189 10289 20189 58001
94908KDBQ DBQ20000623115512906/23/00 11:55:31  5-MIN KDBQ 231755Z 14009KT 10SM CLR 28/19 A2991 1080 56 2900 140/09 RMK AO2 SLP124 T02830189 10289 20189 58020
94908KDBQ DBQ20000623120009406/23/00 12:00:31  5-MIN KDBQ 231800Z 14011KT 10SM CLR 28/18 A2991 1090 54 2900 140/11 RMK AO2
94908KDBQ DBQ20000623120509406/23/00 12:05:31  5-MIN KDBQ 231805Z 11010KT 10SM CLR 28/18 A2991 1090 54 2900 110/10 RMK AO2
94908KDBQ DBQ20000623121009406/23/00 12:10:31  5-MIN KDBQ 231810Z 11010KT 10SM CLR 28/18 A2990 1090 54 2900 110/10 RMK AO2
94908KDBQ DBQ20000623121509406/23/00 12:15:31  5-MIN KDBQ 231815Z 12009KT 10SM CLR 28/18 A2990 1100 56 2900 110/09 RMK AO2
94908KDBQ DBQ20000623122009406/23/00 12:20:31  5-MIN KDBQ 231820Z 12010KT 10SM CLR 27/18 A2990 1100 58 2800 120/10 RMK AO2
94908KDBQ DBQ20000623122509406/23/00 12:25:31  5-MIN KDBQ 231825Z 14010KT 10SM CLR 28/19 A2989 1100 56 2900 140/10 RMK AO2
94908KDBQ DBQ20000623123009406/23/00 12:30:31  5-MIN KDBQ 231830Z 14012KT 10SM CLR 28/18 A2989 1110 54 2900 140/12 RMK AO2
94908KDBQ DBQ20000623123509406/23/00 12:35:31  5-MIN KDBQ 231835Z 16013KT 10SM CLR 28/19 A2989 1110 56 2900 160/13 RMK AO2
94908KDBQ DBQ20000623124009406/23/00 12:40:31  5-MIN KDBQ 231840Z 14011KT 10SM CLR 28/18 A2989 1110 56 2900 140/11 RMK AO2
94908KDBQ DBQ20000623124509406/23/00 12:45:31  5-MIN KDBQ 231845Z 16010KT 10SM CLR 28/18 A2989 1110 56 2900 160/10 RMK AO2
94908KDBQ DBQ20000623125011106/23/00 12:50:31  5-MIN KDBQ 231850Z 17012KT 10SM CLR 28/18 A2988 1120 56 2900 170/12 RMK AO2 SLP112 T02780183
94908KDBQ DBQ20000623125511106/23/00 12:55:31  5-MIN KDBQ 231855Z 16015KT 10SM CLR 28/18 A2988 1120 56 2900 160/15 RMK AO2 SLP112 T02780183
94908KDBQ DBQ20000623130009406/23/00 13:00:31  5-MIN KDBQ 231900Z 16013KT 10SM CLR 27/18 A2988 1110 58 2800 160/13 RMK AO2
94908KDBQ DBQ20000623130509406/23/00 13:05:31  5-MIN KDBQ 231905Z 15013KT 10SM CLR 27/19 A2988 1110 60 2800 150/13 RMK AO2
94908KDBQ DBQ20000623131009406/23/00 13:10:31  5-MIN KDBQ 231910Z 16011KT 10SM CLR 27/19 A2988 1120 62 2800 160/11 RMK AO2
94908KDBQ DBQ20000623131509406/23/00 13:15:31  5-MIN KDBQ 231915Z 15011KT 10SM CLR 27/19 A2988 1120 64 2800 150/11 RMK AO2
94908KDBQ DBQ20000623132009406/23/00 13:20:31  5-MIN KDBQ 231920Z 15012KT 10SM CLR 27/19 A2988 1120 62 2800 150/12 RMK AO2
94908KDBQ DBQ20000623132509406/23/00 13:25:31  5-MIN KDBQ 231925Z 16013KT 10SM CLR 27/19 A2988 1120 64 2800 160/13 RMK AO2
94908KDBQ DBQ20000623133010006/23/00 13:30:31  5-MIN KDBQ 231930Z 16013G19KT 10SM CLR 27/19 A2987 1120 64 2800 160/13G19 RMK AO2
94908KDBQ DBQ20000623133510006/23/00 13:35:31  5-MIN KDBQ 231935Z 16013G19KT 10SM CLR 27/20 A2986 1130 66 2800 160/13G19 RMK AO2
94908KDBQ DBQ20000623134009406/23/00 13:40:31  5-MIN KDBQ 231940Z 16013KT 10SM CLR 27/20 A2986 1130 66 2800 160/13 RMK AO2
94908KDBQ DBQ20000623134510106/23/00 13:45:31  5-MIN KDBQ 231945Z 16011KT 10SM CLR 26/20 A2985 1140 68 2700 160/11 RMK AO2 PRESFR
94908KDBQ DBQ20000623135011106/23/00 13:50:31  5-MIN KDBQ 231950Z 16011KT 10SM CLR 26/20 A2985 1140 68 2700 160/11 RMK AO2 SLP102 T02610200
94908KDBQ DBQ20000623135512906/23/00 13:55:31  5-MIN KDBQ 231955Z 17011KT 10SM CLR 26/20 A2986 1130 68 2700 160/11 RMK AO2 SLP106 OCNL LTGICCCCG NW T02610200
94908KDBQ DBQ20000623140010106/23/00 14:00:31  5-MIN KDBQ 232000Z 18011KT 10SM CLR 26/20 A2988 1110 68 2700 180/11 RMK AO2 PRESRR
94908KDBQ DBQ20000623140509406/23/00 14:05:31  5-MIN KDBQ 232005Z 18010KT 10SM CLR 26/21 A2988 1110 73 2600 180/10 RMK AO2
94908KDBQ DBQ20000623141009406/23/00 14:10:31  5-MIN KDBQ 232010Z 18010KT 10SM CLR 26/21 A2987 1120 73 2600 180/10 RMK AO2
94908KDBQ DBQ20000623141509406/23/00 14:15:31  5-MIN KDBQ 232015Z 18011KT 10SM CLR 26/21 A2988 1110 73 2600 180/11 RMK AO2
94908KDBQ DBQ20000623142009406/23/00 14:20:31  5-MIN KDBQ 232020Z 19012KT 10SM CLR 26/21 A2988 1110 73 2600 180/12 RMK AO2
94908KDBQ DBQ20000623142509406/23/00 14:25:31  5-MIN KDBQ 232025Z 18011KT 10SM CLR 25/21 A2988 1110 76 2600 180/11 RMK AO2
94908KDBQ DBQ20000623143009706/23/00 14:30:31  5-MIN KDBQ 232030Z 19012KT 10SM FEW039 25/21 A2989 1110 76 2600 190/12 RMK AO2
94908KDBQ DBQ20000623143511106/23/00 14:35:31  5-MIN KDBQ 232035Z 19009KT 10SM FEW041 SCT050 SCT060 25/21 A2989 1110 79 2600 190/09 RMK AO2
94908KDBQ DBQ20000623144012606/23/00 14:40:31  5-MIN KDBQ 232040Z 19008KT 8SM -RA FEW035 SCT043 BKN100 24/21 A2988 1120 81 2500 190/08 RMK AO2 RAB37 P0000
94908KDBQ DBQ20000623144512606/23/00 14:45:31  5-MIN KDBQ 232045Z 21008KT 7SM -RA FEW028 SCT043 BKN055 24/22 A2988 1120 84 2500 210/08 RMK AO2 RAB37 P0000
94908KDBQ DBQ20000623145016106/23/00 14:50:31  5-MIN KDBQ 232050Z 22013G17KT 7SM -RA FEW025 SCT043 BKN060 25/22 A2989 1110 81 2600 220/13G17 RMK AO2 RAB37 SLP116 P0000 60000 T02500217 58020
94908KDBQ DBQ20000623145520406/23/00 14:55:31  5-MIN KDBQ 232055Z 22013KT 8SM -TSRA FEW026 BKN050 OVC110 24/22 A2990 1100 87 2500 220/13 RMK AO2 TSB53RAB37 SLP119 OCNL LTGICCCCG OVHD MOV E TSRA OVHD MOV E P0000 60000 T02440222 55006
94908KDBQ DBQ20000623150013006/23/00 15:00:31  5-MIN KDBQ 232100Z 23015G20KT 6SM TSRA BR FEW026 BKN039 OVC095 24/22 A2990 1100 87 2500 230/15G20 RMK AO2 P0002
94908KDBQ DBQ20000623150519006/23/00 15:05:31  5-MIN KDBQ 232105Z 26022G33KT 4SM TSRA BR SCT022 BKN039 OVC110 24/22 A2990 1090 87 2400 260/22G33 RMK AO2 PK WND 28033/2105 OCNL LTGICCCCG OVHD MOV E TSRA OVHD MOV E P0004
94908KDBQ DBQ20000623151019506/23/00 15:10:31  5-MIN KDBQ 232110Z 24024G37KT 2 1/2SM +TSRA BR SCT024 BKN035 OVC055 21/19 A2991 1090 87 2100 240/24G37 RMK AO2 PK WND 24037/2108 OCNL LTGICCCCG OVHD MOV E TSRA OVHD MOV E P0007
94908KDBQ DBQ20000623151519506/23/00 15:15:31  5-MIN KDBQ 232115Z 24020G37KT 2 1/2SM +TSRA BR FEW019 BKN031 OVC050 20/19 A2989 1110 93 2000 230/20G37 RMK AO2 PK WND 24037/2108 OCNL LTGICCCCG OVHD MOV E TSRA OVHD MOV E P0009
94908KDBQ DBQ20000623152019006/23/00 15:20:31  5-MIN KDBQ 232120Z 22018G28KT 3SM TSRA BR FEW019 BKN033 OVC044 20/18 A2990 1100 90 2000 220/18G28 RMK AO2 PK WND 24037/2108 OCNL LTGICCCCG OVHD MOV E TSRA OVHD MOV E P0011
94908KDBQ DBQ20000623152519106/23/00 15:25:31  5-MIN KDBQ 232125Z 23015G24KT 3SM +TSRA BR SCT029 BKN038 OVC047 20/18 A2989 1110 90 2000 230/15G24 RMK AO2 PK WND 24037/2108 OCNL LTGICCCCG OVHD MOV E TSRA OVHD MOV E P0013
94908KDBQ DBQ20000623153019006/23/00 15:30:31  5-MIN KDBQ 232130Z 23013G24KT 3SM TSRA BR SCT029 BKN038 OVC047 19/18 A2990 1100 90 1900 230/13G24 RMK AO2 PK WND 24037/2108 OCNL LTGICCCCG OVHD MOV E TSRA OVHD MOV E P0014
94908KDBQ DBQ20000623153518206/23/00 15:35:31  5-MIN KDBQ 232135Z 20008KT 4SM -RA BR BKN029 OVC042 19/18 A2991 1090 90 1900 200/08 RMK AO2 PK WND 24037/2108 TSE34 OCNL LTGICCCCG OVHD MOV E TSRA OVHD MOV E P0015
94908KDBQ DBQ20000623154017706/23/00 15:40:31  5-MIN KDBQ 232140Z 20007KT 7SM -TSRA OVC027 19/18 A2991 1090 90 1900 200/07 RMK AO2 PK WND 24037/2108 TSE34B36 OCNL LTGICCCCG WEST MOV E TSRA WEST MOV E P0016
94908KDBQ DBQ20000623154517706/23/00 15:45:31  5-MIN KDBQ 232145Z 18006KT 9SM -TSRA OVC025 19/18 A2991 1090 93 1900 180/06 RMK AO2 PK WND 24037/2108 TSE34B36 OCNL LTGICCCCG WEST MOV E TSRA WEST MOV E P0016
94908KDBQ DBQ20000623155020006/23/00 15:50:31  5-MIN KDBQ 232150Z 12008KT 8SM -TSRA OVC023 19/18 A2990 1100 93 1900 120/08 RMK AO2 PK WND 24037/2108 TSE34B36 SLP122 OCNL LTGICCCCG EAST MOV EAST TSRA EAST MOV EAST P0017 T01940183
94908KDBQ DBQ20000623155520006/23/00 15:55:31  5-MIN KDBQ 232155Z 11015KT 8SM -TSRA OVC023 19/18 A2990 1100 93 1900 110/15 RMK AO2 PK WND 24037/2108 TSE34B36 SLP121 OCNL LTGICCCCG EAST MOV EAST TSRA EAST MOV EAST P0017 T01940183
94908KDBQ DBQ20000623160010806/23/00 16:00:31  5-MIN KDBQ 232200Z 12010KT 8SM -TSRA OVC021 19/18 A2989 1110 90 1900 120/10 RMK AO2 P0001
94908KDBQ DBQ20000623160510806/23/00 16:05:31  5-MIN KDBQ 232205Z 11013KT 8SM -TSRA OVC021 19/18 A2990 1100 90 1900 110/13 RMK AO2 P0002
94908KDBQ DBQ20000623161010806/23/00 16:10:31  5-MIN KDBQ 232210Z 12014KT 8SM -TSRA OVC021 19/18 A2990 1100 93 1900 110/14 RMK AO2 P0002
94908KDBQ DBQ20000623161511206/23/00 16:15:31  5-MIN KDBQ 232215Z 12014KT 8SM -RA OVC021 19/18 A2990 1090 93 1900 120/14 RMK AO2 TSE14 P0003
94908KDBQ DBQ20000623162011206/23/00 16:20:31  5-MIN KDBQ 232220Z 13014KT 8SM -RA OVC021 19/18 A2991 1090 93 1900 130/14 RMK AO2 TSE14 P0003
94908KDBQ DBQ20000623162511306/23/00 16:25:31  5-MIN KDBQ 232225Z 14012KT 10SM -RA OVC019 19/19 A2991 1090 97 1900 140/12 RMK AO2 TSE14 P0004
94908KDBQ DBQ20000623163012006/23/00 16:30:31  5-MIN KDBQ 232230Z 14013KT 10SM -RA BKN019 BKN110 19/19 A2991 1090 97 1900 140/13 RMK AO2 TSE14 P0004
94908KDBQ DBQ20000623163512006/23/00 16:35:31  5-MIN KDBQ 232235Z 14011KT 10SM -RA SCT019 BKN110 19/19 A2990 1090 97 1900 140/11 RMK AO2 TSE14 P0004
94908KDBQ DBQ20000623164012006/23/00 16:40:31  5-MIN KDBQ 232240Z 15013KT 10SM -RA BKN019 BKN110 20/19 A2990 1100 93 2000 140/13 RMK AO2 TSE14 P0004
94908KDBQ DBQ20000623164512006/23/00 16:45:31  5-MIN KDBQ 232245Z 15009KT 10SM -RA BKN019 BKN110 20/19 A2991 1090 93 2000 150/09 RMK AO2 TSE14 P0004
94908KDBQ DBQ20000623165013706/23/00 16:50:31  5-MIN KDBQ 232250Z 15008KT 10SM -RA FEW019 BKN100 20/19 A2991 1090 93 2000 150/08 RMK AO2 TSE14 SLP125 P0004 T02000189
94908KDBQ DBQ20000623165513806/23/00 16:55:31  5-MIN KDBQ 232255Z 15009KT 10SM BKN100 BKN110 20/18 A2990 1090 90 2000 150/09 RMK AO2 TSE14RAE51 SLP124 P0004 T02000183
94908KDBQ DBQ20000623170009706/23/00 17:00:31  5-MIN KDBQ 232300Z 14009KT 10SM BKN095 20/18 A2990 1100 90 2000 140/09 RMK AO2
94908KDBQ DBQ20000623170509706/23/00 17:05:31  5-MIN KDBQ 232305Z 13010KT 10SM BKN095 20/18 A2989 1110 87 2000 130/10 RMK AO2
94908KDBQ DBQ20000623171009706/23/00 17:10:31  5-MIN KDBQ 232310Z 14011KT 10SM OVC095 19/18 A2988 1110 90 1900 140/11 RMK AO2
94908KDBQ DBQ20000623171509706/23/00 17:15:31  5-MIN KDBQ 232315Z 13011KT 10SM OVC095 19/18 A2988 1120 90 1900 130/11 RMK AO2
94908KDBQ DBQ20000623172009706/23/00 17:20:31  5-MIN KDBQ 232320Z 12010KT 10SM OVC090 20/18 A2988 1120 90 2000 120/10 RMK AO2
94908KDBQ DBQ20000623172510406/23/00 17:25:31  5-MIN KDBQ 232325Z 13013KT 10SM BKN090 21/18 A2986 1130 84 2100 130/13 RMK AO2 PRESFR
94908KDBQ DBQ20000623173010306/23/00 17:30:31  5-MIN KDBQ 232330Z 14016G19KT 10SM BKN090 21/17 A2986 1140 81 2100 140/16G19 RMK AO2
94908KDBQ DBQ20000623173509706/23/00 17:35:31  5-MIN KDBQ 232335Z 14015KT 10SM SCT090 21/16 A2986 1130 75 2100 140/15 RMK AO2
94908KDBQ DBQ20000623174009706/23/00 17:40:31  5-MIN KDBQ 232340Z 14011KT 10SM FEW090 21/17 A2987 1120 78 2100 140/11 RMK AO2
94908KDBQ DBQ20000623174509706/23/00 17:45:31  5-MIN KDBQ 232345Z 14009KT 10SM FEW090 21/17 A2988 1120 78 2100 140/09 RMK AO2
94908KDBQ DBQ20000623175013506/23/00 17:50:31  5-MIN KDBQ 232350Z 15007KT 10SM CLR 21/17 A2987 1120 78 2100 150/07 RMK AO2 SLP112 60021 T02060167 10289 20194 55006
94908KDBQ DBQ20000623175513506/23/00 17:55:31  5-MIN KDBQ 232355Z 14009KT 10SM CLR 21/17 A2987 1130 78 2100 140/09 RMK AO2 SLP110 60021 T02060167 10289 20194 58009
94908KDBQ DBQ20000623180009406/23/00 18:00:31  5-MIN KDBQ 240000Z 13009KT 10SM CLR 21/17 A2986 1140 78 2100 130/09 RMK AO2
94908KDBQ DBQ20000623180510406/23/00 18:05:31  5-MIN KDBQ 240005Z AUTO 12009KT 10SM CLR 20/17 A2985 1140 84 2000 120/09 RMK AO2 TSNO
94908KDBQ DBQ20000623181010406/23/00 18:10:31  5-MIN KDBQ 240010Z AUTO 13008KT 10SM CLR 20/17 A2986 1140 81 2000 120/08 RMK AO2 TSNO
94908KDBQ DBQ20000623181510406/23/00 18:15:31  5-MIN KDBQ 240015Z AUTO 12009KT 10SM CLR 20/17 A2985 1150 84 2000 120/09 RMK AO2 TSNO
94908KDBQ DBQ20000623182010406/23/00 18:20:31  5-MIN KDBQ 240020Z AUTO 14008KT 10SM CLR 20/17 A2985 1140 84 2000 130/08 RMK AO2 TSNO
94908KDBQ DBQ20000623182510406/23/00 18:25:31  5-MIN KDBQ 240025Z AUTO 14009KT 10SM CLR 20/17 A2986 1140 81 2000 140/09 RMK AO2 TSNO
94908KDBQ DBQ20000623183010406/23/00 18:30:31  5-MIN KDBQ 240030Z AUTO 14008KT 10SM CLR 19/17 A2986 1140 84 2000 140/08 RMK AO2 TSNO
94908KDBQ DBQ20000623183510406/23/00 18:35:31  5-MIN KDBQ 240035Z AUTO 14009KT 10SM CLR 19/17 A2985 1140 84 2000 140/09 RMK AO2 TSNO
94908KDBQ DBQ20000623184010406/23/00 18:40:31  5-MIN KDBQ 240040Z AUTO 15007KT 10SM CLR 19/17 A2986 1140 84 2000 150/07 RMK AO2 TSNO
94908KDBQ DBQ20000623184510406/23/00 18:45:31  5-MIN KDBQ 240045Z AUTO 14007KT 10SM CLR 19/17 A2986 1140 84 2000 140/07 RMK AO2 TSNO
94908KDBQ DBQ20000623185012106/23/00 18:50:31  5-MIN KDBQ 240050Z AUTO 16006KT 10SM CLR 20/17 A2986 1130 81 2000 160/06 RMK AO2 SLP107 T02000167 TSNO
94908KDBQ DBQ20000623185512106/23/00 18:55:31  5-MIN KDBQ 240055Z AUTO 16007KT 10SM CLR 20/17 A2987 1130 81 2000 160/07 RMK AO2 SLP109 T02000167 TSNO
94908KDBQ DBQ20000623190010406/23/00 19:00:31  5-MIN KDBQ 240100Z AUTO 16006KT 10SM CLR 20/17 A2987 1130 81 2000 160/06 RMK AO2 TSNO
94908KDBQ DBQ20000623190510406/23/00 19:05:31  5-MIN KDBQ 240105Z AUTO 18005KT 10SM CLR 20/17 A2987 1120 81 2000 180/05 RMK AO2 TSNO
94908KDBQ DBQ20000623191010406/23/00 19:10:31  5-MIN KDBQ 240110Z AUTO 20005KT 10SM CLR 20/17 A2987 1120 84 2000 200/05 RMK AO2 TSNO
94908KDBQ DBQ20000623191510406/23/00 19:15:31  5-MIN KDBQ 240115Z AUTO 18006KT 10SM CLR 19/17 A2987 1120 87 1900 180/06 RMK AO2 TSNO
94908KDBQ DBQ20000623192010406/23/00 19:20:31  5-MIN KDBQ 240120Z AUTO 18004KT 10SM CLR 19/17 A2988 1120 87 1900 170/04 RMK AO2 TSNO
94908KDBQ DBQ20000623192510406/23/00 19:25:31  5-MIN KDBQ 240125Z AUTO 18004KT 10SM CLR 19/17 A2988 1120 84 1900 180/04 RMK AO2 TSNO
94908KDBQ DBQ20000623193010406/23/00 19:30:31  5-MIN KDBQ 240130Z AUTO 19006KT 10SM CLR 19/17 A2988 1120 84 1900 180/06 RMK AO2 TSNO
94908KDBQ DBQ20000623193510406/23/00 19:35:31  5-MIN KDBQ 240135Z AUTO 19007KT 10SM CLR 19/17 A2988 1110 84 1900 190/07 RMK AO2 TSNO
94908KDBQ DBQ20000623194010406/23/00 19:40:31  5-MIN KDBQ 240140Z AUTO 19007KT 10SM CLR 19/17 A2988 1110 87 1900 190/07 RMK AO2 TSNO
94908KDBQ DBQ20000623194510406/23/00 19:45:31  5-MIN KDBQ 240145Z AUTO 18006KT 10SM CLR 19/17 A2988 1120 87 1900 180/06 RMK AO2 TSNO
94908KDBQ DBQ20000623195012106/23/00 19:50:31  5-MIN KDBQ 240150Z AUTO 19006KT 10SM CLR 18/17 A2988 1120 90 1800 180/06 RMK AO2 SLP113 T01830167 TSNO
94908KDBQ DBQ20000623195512106/23/00 19:55:31  5-MIN KDBQ 240155Z AUTO 20005KT 10SM CLR 18/17 A2988 1110 90 1800 200/05 RMK AO2 SLP115 T01830167 TSNO
94908KDBQ DBQ20000623200010406/23/00 20:00:31  5-MIN KDBQ 240200Z AUTO 19004KT 10SM CLR 18/17 A2988 1120 90 1800 190/04 RMK AO2 TSNO
94908KDBQ DBQ20000623200510406/23/00 20:05:31  5-MIN KDBQ 240205Z AUTO 19003KT 10SM CLR 18/17 A2987 1120 93 1700 180/03 RMK AO2 TSNO
94908KDBQ DBQ20000623201010406/23/00 20:10:31  5-MIN KDBQ 240210Z AUTO 00000KT 10SM CLR 18/17 A2987 1120 93 1700 000/00 RMK AO2 TSNO
94908KDBQ DBQ20000623201510406/23/00 20:15:31  5-MIN KDBQ 240215Z AUTO 00000KT 10SM CLR 18/17 A2987 1120 93 1700 000/00 RMK AO2 TSNO
94908KDBQ DBQ20000623202010406/23/00 20:20:31  5-MIN KDBQ 240220Z AUTO 00000KT 10SM CLR 18/17 A2987 1120 93 1700 000/00 RMK AO2 TSNO
94908KDBQ DBQ20000623202510406/23/00 20:25:31  5-MIN KDBQ 240225Z AUTO 00000KT 10SM CLR 18/17 A2987 1120 90 1800 000/00 RMK AO2 TSNO
94908KDBQ DBQ20000623203010406/23/00 20:30:31  5-MIN KDBQ 240230Z AUTO 00000KT 10SM CLR 18/17 A2988 1120 93 1700 000/00 RMK AO2 TSNO
94908KDBQ DBQ20000623203510406/23/00 20:35:31  5-MIN KDBQ 240235Z AUTO 00000KT 10SM CLR 18/17 A2987 1120 90 1800 000/00 RMK AO2 TSNO
94908KDBQ DBQ20000623204010406/23/00 20:40:31  5-MIN KDBQ 240240Z AUTO 00000KT 10SM CLR 18/17 A2987 1120 93 1700 000/00 RMK AO2 TSNO
94908KDBQ DBQ20000623204510406/23/00 20:45:31  5-MIN KDBQ 240245Z AUTO 28003KT 10SM CLR 18/17 A2987 1130 93 1800 270/03 RMK AO2 TSNO
94908KDBQ DBQ20000623205012706/23/00 20:50:31  5-MIN KDBQ 240250Z AUTO 00000KT 10SM CLR 18/17 A2986 1130 93 1800 000/00 RMK AO2 SLP108 T01780167 58009 TSNO
94908KDBQ DBQ20000623205512706/23/00 20:55:31  5-MIN KDBQ 240255Z AUTO 26004KT 10SM CLR 18/17 A2986 1130 90 1800 260/04 RMK AO2 SLP106 T01830167 58001 TSNO
94908KDBQ DBQ20000623210010406/23/00 21:00:31  5-MIN KDBQ 240300Z AUTO 26003KT 10SM CLR 17/16 A2986 1130 93 1700 260/03 RMK AO2 TSNO
94908KDBQ DBQ20000623210510406/23/00 21:05:31  5-MIN KDBQ 240305Z AUTO 00000KT 10SM CLR 17/16 A2986 1130 93 1700 000/00 RMK AO2 TSNO
94908KDBQ DBQ20000623211010406/23/00 21:10:31  5-MIN KDBQ 240310Z AUTO 26003KT 10SM CLR 17/16 A2986 1130 93 1700 250/03 RMK AO2 TSNO
94908KDBQ DBQ20000623211510406/23/00 21:15:31  5-MIN KDBQ 240315Z AUTO 23004KT 10SM CLR 17/16 A2987 1130 93 1700 230/04 RMK AO2 TSNO
94908KDBQ DBQ20000623212010406/23/00 21:20:31  5-MIN KDBQ 240320Z AUTO 24005KT 10SM CLR 17/16 A2987 1120 96 1600 230/05 RMK AO2 TSNO
94908KDBQ DBQ20000623212510406/23/00 21:25:31  5-MIN KDBQ 240325Z AUTO 23003KT 10SM CLR 17/16 A2987 1120 96 1600 230/03 RMK AO2 TSNO
94908KDBQ DBQ20000623213010406/23/00 21:30:31  5-MIN KDBQ 240330Z AUTO 00000KT 10SM CLR 17/16 A2988 1120 96 1600 000/00 RMK AO2 TSNO
94908KDBQ DBQ20000623213510406/23/00 21:35:31  5-MIN KDBQ 240335Z AUTO 06003KT 10SM CLR 17/16 A2989 1110 96 1600 060/03 RMK AO2 TSNO
94908KDBQ DBQ20000623214010406/23/00 21:40:31  5-MIN KDBQ 240340Z AUTO 03004KT 10SM CLR 17/16 A2988 1110 93 1700 030/04 RMK AO2 TSNO
94908KDBQ DBQ20000623214510406/23/00 21:45:31  5-MIN KDBQ 240345Z AUTO 01003KT 10SM CLR 17/16 A2988 1120 93 1700 010/03 RMK AO2 TSNO
94908KDBQ DBQ20000623215012106/23/00 21:50:31  5-MIN KDBQ 240350Z AUTO 04004KT 10SM CLR 18/17 A2988 1120 93 1700 040/04 RMK AO2 SLP111 T01780167 TSNO
94908KDBQ DBQ20000623215512106/23/00 21:55:31  5-MIN KDBQ 240355Z AUTO 00000KT 10SM CLR 17/16 A2988 1110 93 1700 000/00 RMK AO2 SLP113 T01720161 TSNO
94908KDBQ DBQ20000623220010406/23/00 22:00:31  5-MIN KDBQ 240400Z AUTO 07003KT 10SM CLR 17/16 A2988 1120 93 1700 070/03 RMK AO2 TSNO
94908KDBQ DBQ20000623220510406/23/00 22:05:31  5-MIN KDBQ 240405Z AUTO 10003KT 10SM CLR 17/16 A2988 1120 96 1600 100/03 RMK AO2 TSNO
94908KDBQ DBQ20000623221010406/23/00 22:10:31  5-MIN KDBQ 240410Z AUTO 10003KT 10SM CLR 17/16 A2987 1120 93 1700 100/03 RMK AO2 TSNO
94908KDBQ DBQ20000623221510406/23/00 22:15:31  5-MIN KDBQ 240415Z AUTO 13003KT 10SM CLR 17/16 A2987 1120 96 1600 130/03 RMK AO2 TSNO
94908KDBQ DBQ20000623222010406/23/00 22:20:31  5-MIN KDBQ 240420Z AUTO 00000KT 10SM CLR 17/17 A2986 1130 96 1700 000/00 RMK AO2 TSNO
94908KDBQ DBQ20000623222510406/23/00 22:25:31  5-MIN KDBQ 240425Z AUTO 18004KT 10SM CLR 17/16 A2987 1130 93 1700 180/04 RMK AO2 TSNO
94908KDBQ DBQ20000623223010406/23/00 22:30:31  5-MIN KDBQ 240430Z AUTO 18004KT 10SM CLR 17/16 A2987 1130 93 1700 180/04 RMK AO2 TSNO
94908KDBQ DBQ20000623223510406/23/00 22:35:31  5-MIN KDBQ 240435Z AUTO 16003KT 10SM CLR 17/16 A2987 1120 93 1700 160/03 RMK AO2 TSNO
94908KDBQ DBQ20000623224010406/23/00 22:40:31  5-MIN KDBQ 240440Z AUTO 12005KT 10SM CLR 17/16 A2987 1120 93 1700 120/05 RMK AO2 TSNO
94908KDBQ DBQ20000623224510406/23/00 22:45:31  5-MIN KDBQ 240445Z AUTO 13006KT 10SM CLR 17/16 A2988 1120 93 1700 130/06 RMK AO2 TSNO
94908KDBQ DBQ20000623225012106/23/00 22:50:31  5-MIN KDBQ 240450Z AUTO 11007KT 10SM CLR 17/16 A2988 1120 93 1700 110/07 RMK AO2 SLP111 T01720161 TSNO
94908KDBQ DBQ20000623225512106/23/00 22:55:31  5-MIN KDBQ 240455Z AUTO 12008KT 10SM CLR 17/16 A2988 1120 96 1600 120/08 RMK AO2 SLP111 T01670161 TSNO
94908KDBQ DBQ20000623230010406/23/00 23:00:31  5-MIN KDBQ 240500Z AUTO 11008KT 10SM CLR 17/16 A2988 1120 96 1600 110/08 RMK AO2 TSNO
94908KDBQ DBQ20000623230510406/23/00 23:05:31  5-MIN KDBQ 240505Z AUTO 12006KT 10SM CLR 17/16 A2987 1120 96 1600 120/06 RMK AO2 TSNO
94908KDBQ DBQ20000623231010406/23/00 23:10:31  5-MIN KDBQ 240510Z AUTO 11006KT 10SM CLR 17/16 A2987 1130 96 1600 110/06 RMK AO2 TSNO
94908KDBQ DBQ20000623231510406/23/00 23:15:31  5-MIN KDBQ 240515Z AUTO 11006KT 10SM CLR 17/16 A2987 1130 96 1600 110/06 RMK AO2 TSNO
94908KDBQ DBQ20000623232010706/23/00 23:20:31  5-MIN KDBQ 240520Z AUTO 12006KT 10SM FEW008 17/16 A2987 1130 96 1600 120/06 RMK AO2 TSNO
94908KDBQ DBQ20000623232510706/23/00 23:25:31  5-MIN KDBQ 240525Z AUTO 12008KT 10SM SCT008 17/17 A2987 1130 96 1700 120/08 RMK AO2 TSNO
94908KDBQ DBQ20000623233010706/23/00 23:30:31  5-MIN KDBQ 240530Z AUTO 11006KT 10SM BKN008 17/17 A2986 1130 96 1700 110/06 RMK AO2 TSNO
94908KDBQ DBQ20000623233510706/23/00 23:35:31  5-MIN KDBQ 240535Z AUTO 11007KT 10SM BKN008 17/17 A2986 1140 96 1700 110/07 RMK AO2 TSNO
94908KDBQ DBQ20000623234010606/23/00 23:40:31  5-MIN KDBQ 240540Z AUTO 11006KT 9SM BKN008 17/17 A2986 1130 96 1700 110/06 RMK AO2 TSNO
94908KDBQ DBQ20000623234510606/23/00 23:45:31  5-MIN KDBQ 240545Z AUTO 12006KT 8SM OVC008 17/17 A2987 1130 96 1700 120/06 RMK AO2 TSNO
94908KDBQ DBQ20000623235015106/23/00 23:50:31  5-MIN KDBQ 240550Z AUTO 12005KT 7SM OVC008 17/17 A2986 1130 96 1700 120/05 RMK AO2 SLP106 T01720167 10206 20167 402890139 58001 TSNO
94908KDBQ DBQ20000623235515106/23/00 23:55:31  5-MIN KDBQ 240555Z AUTO 13006KT 7SM OVC008 17/17 A2987 1130 96 1700 130/06 RMK AO2 SLP108 T01720167 10206 20167 402890139 50002 TSNO
94908KDBQ DBQ20000624000010706/24/00 00:00:31  5-MIN KDBQ 240600Z AUTO 13006KT 7SM OVC008 17/17 A2987 1130 100 1700 130/06 RMK AO2 TSNO
94908KDBQ DBQ20000624000510706/24/00 00:05:31  5-MIN KDBQ 240605Z AUTO 13006KT 7SM OVC008 17/17 A2987 1130 100 1700 130/06 RMK AO2 TSNO
94908KDBQ DBQ20000624001010706/24/00 00:10:31  5-MIN KDBQ 240610Z AUTO 13005KT 7SM OVC006 17/17 A2987 1130 100 1700 130/05 RMK AO2 TSNO
94908KDBQ DBQ20000624001510706/24/00 00:15:31  5-MIN KDBQ 240615Z AUTO 14006KT 7SM OVC006 17/17 A2987 1130 100 1700 140/06 RMK AO2 TSNO
94908KDBQ DBQ20000624002011006/24/00 00:20:31  5-MIN KDBQ 240620Z AUTO 13005KT 6SM BR OVC006 17/17 A2986 1130 100 1700 130/05 RMK AO2 TSNO
94908KDBQ DBQ20000624002511006/24/00 00:25:31  5-MIN KDBQ 240625Z AUTO 13005KT 6SM BR OVC006 17/17 A2987 1130 100 1700 130/05 RMK AO2 TSNO
94908KDBQ DBQ20000624003011006/24/00 00:30:31  5-MIN KDBQ 240630Z AUTO 10005KT 6SM BR OVC006 17/17 A2986 1130 100 1700 100/05 RMK AO2 TSNO
94908KDBQ DBQ20000624003511006/24/00 00:35:31  5-MIN KDBQ 240635Z AUTO 12005KT 5SM BR OVC006 17/17 A2986 1130 100 1700 120/05 RMK AO2 TSNO
94908KDBQ DBQ20000624004011006/24/00 00:40:31  5-MIN KDBQ 240640Z AUTO 13005KT 5SM BR OVC006 17/17 A2987 1130 100 1700 130/05 RMK AO2 TSNO
94908KDBQ DBQ20000624004511006/24/00 00:45:31  5-MIN KDBQ 240645Z AUTO 14007KT 5SM BR OVC006 17/17 A2987 1120 100 1700 140/07 RMK AO2 TSNO
94908KDBQ DBQ20000624005012606/24/00 00:50:31  5-MIN KDBQ 240650Z AUTO 14006KT 4SM BR OVC004 18/17 A2987 1120 96 1700 140/06 RMK AO2 SLP109 T01780172 TSNO
94908KDBQ DBQ20000624005512606/24/00 00:55:31  5-MIN KDBQ 240655Z AUTO 14006KT 4SM BR OVC004 18/17 A2987 1130 96 1800 140/06 RMK AO2 SLP108 T01780172 TSNO
94908KDBQ DBQ20000624010010906/24/00 01:00:31  5-MIN KDBQ 240700Z AUTO 15006KT 4SM BR OVC004 18/17 A2986 1130 96 1800 150/06 RMK AO2 TSNO
94908KDBQ DBQ20000624010510906/24/00 01:05:31  5-MIN KDBQ 240705Z AUTO 15006KT 4SM BR OVC004 18/17 A2986 1130 96 1800 150/06 RMK AO2 TSNO
94908KDBQ DBQ20000624011011006/24/00 01:10:31  5-MIN KDBQ 240710Z AUTO 17006KT 3SM BR OVC004 18/18 A2986 1130 100 1800 170/06 RMK AO2 TSNO
94908KDBQ DBQ20000624011511006/24/00 01:15:31  5-MIN KDBQ 240715Z AUTO 17008KT 3SM BR OVC004 18/18 A2986 1130 100 1800 170/08 RMK AO2 TSNO
94908KDBQ DBQ20000624012011406/24/00 01:20:31  5-MIN KDBQ 240720Z AUTO 17009KT 2 1/2SM BR OVC002 18/18 A2986 1130 100 1800 170/09 RMK AO2 TSNO
94908KDBQ DBQ20000624012511406/24/00 01:25:31  5-MIN KDBQ 240725Z AUTO 16008KT 2 1/2SM BR OVC002 18/18 A2986 1140 100 1800 160/08 RMK AO2 TSNO
94908KDBQ DBQ20000624013011006/24/00 01:30:31  5-MIN KDBQ 240730Z AUTO 16008KT 2SM BR OVC002 18/18 A2985 1140 100 1800 160/08 RMK AO2 TSNO
94908KDBQ DBQ20000624013511006/24/00 01:35:31  5-MIN KDBQ 240735Z AUTO 16008KT 2SM BR OVC002 18/18 A2985 1140 100 1800 160/08 RMK AO2 TSNO
94908KDBQ DBQ20000624014011406/24/00 01:40:31  5-MIN KDBQ 240740Z AUTO 17008KT 1 3/4SM BR OVC002 18/18 A2986 1140 100 1800 170/08 RMK AO2 TSNO
94908KDBQ DBQ20000624014511406/24/00 01:45:31  5-MIN KDBQ 240745Z AUTO 16006KT 1 1/2SM BR OVC002 18/18 A2986 1130 100 1800 160/06 RMK AO2 TSNO
94908KDBQ DBQ20000624015012706/24/00 01:50:31  5-MIN KDBQ 240750Z AUTO 17006KT 1SM BR OVC002 18/18 A2986 1130 100 1800 170/06 RMK AO2 SLP105 T01780178 TSNO
94908KDBQ DBQ20000624015512906/24/00 01:55:31  5-MIN KDBQ 240755Z AUTO 16008KT 3/4SM BR OVC002 18/18 A2986 1140 100 1800 160/08 RMK AO2 SLP105 T01780178 TSNO
94908KDBQ DBQ20000624020011106/24/00 02:00:31  5-MIN KDBQ 240800Z AUTO 16008KT 1/2SM FG VV001 18/18 A2986 1140 100 1800 160/08 RMK AO2 TSNO
94908KDBQ DBQ20000624020511106/24/00 02:05:31  5-MIN KDBQ 240805Z AUTO 16007KT 1/2SM FG VV001 18/18 A2986 1140 100 1800 160/07 RMK AO2 TSNO
94908KDBQ DBQ20000624021011106/24/00 02:10:31  5-MIN KDBQ 240810Z AUTO 15007KT 1/2SM FG VV001 18/18 A2985 1140 100 1800 150/07 RMK AO2 TSNO
94908KDBQ DBQ20000624021511106/24/00 02:15:31  5-MIN KDBQ 240815Z AUTO 16008KT 1/2SM FG VV001 18/18 A2985 1150 100 1800 160/08 RMK AO2 TSNO
94908KDBQ DBQ20000624022011106/24/00 02:20:31  5-MIN KDBQ 240820Z AUTO 16006KT 1/4SM FG VV001 18/18 A2985 1150 100 1800 160/06 RMK AO2 TSNO
94908KDBQ DBQ20000624022511106/24/00 02:25:31  5-MIN KDBQ 240825Z AUTO 15007KT 1/4SM FG VV001 18/18 A2984 1150 100 1800 150/07 RMK AO2 TSNO
94908KDBQ DBQ20000624023011106/24/00 02:30:31  5-MIN KDBQ 240830Z AUTO 15006KT 1/4SM FG VV001 18/18 A2984 1150 100 1800 150/06 RMK AO2 TSNO
94908KDBQ DBQ20000624023511106/24/00 02:35:31  5-MIN KDBQ 240835Z AUTO 15007KT 1/4SM FG VV001 18/18 A2984 1160 100 1800 150/07 RMK AO2 TSNO
94908KDBQ DBQ20000624024011106/24/00 02:40:31  5-MIN KDBQ 240840Z AUTO 15004KT 1/2SM FG VV001 18/18 A2984 1160 100 1800 150/04 RMK AO2 TSNO
94908KDBQ DBQ20000624024511106/24/00 02:45:31  5-MIN KDBQ 240845Z AUTO 15004KT 1/2SM FG VV001 18/18 A2983 1160 100 1800 150/04 RMK AO2 TSNO
94908KDBQ DBQ20000624025013406/24/00 02:50:31  5-MIN KDBQ 240850Z AUTO 15007KT 1/4SM FG VV001 18/18 A2983 1160 100 1800 150/07 RMK AO2 SLP096 T01780178 50002 TSNO
94908KDBQ DBQ20000624025513406/24/00 02:55:31  5-MIN KDBQ 240855Z AUTO 16006KT 1/2SM FG VV001 18/18 A2983 1160 100 1800 160/06 RMK AO2 SLP097 T01780178 58012 TSNO
94908KDBQ DBQ20000624030011106/24/00 03:00:31  5-MIN KDBQ 240900Z AUTO 16007KT 1/2SM FG VV001 18/18 A2983 1160 100 1800 160/07 RMK AO2 TSNO
94908KDBQ DBQ20000624030511106/24/00 03:05:31  5-MIN KDBQ 240905Z AUTO 16008KT 1/4SM FG VV001 18/18 A2983 1160 100 1800 150/08 RMK AO2 TSNO
94908KDBQ DBQ20000624031011106/24/00 03:10:31  5-MIN KDBQ 240910Z AUTO 16007KT 1/4SM FG VV001 18/18 A2983 1160 100 1800 160/07 RMK AO2 TSNO
94908KDBQ DBQ20000624031511106/24/00 03:15:31  5-MIN KDBQ 240915Z AUTO 16007KT 1/4SM FG VV001 18/18 A2983 1160 100 1800 160/07 RMK AO2 TSNO
94908KDBQ DBQ20000624032011006/24/00 03:20:31  5-MIN KDBQ 240920Z AUTO 16006KT 1/4SM FG VV001 18/18 A2983 1160 96 1900 150/06 RMK AO2 TSNO
94908KDBQ DBQ20000624032511106/24/00 03:25:31  5-MIN KDBQ 240925Z AUTO 15007KT 1/4SM FG VV001 18/18 A2983 1160 100 1900 150/07 RMK AO2 TSNO
94908KDBQ DBQ20000624033011106/24/00 03:30:31  5-MIN KDBQ 240930Z AUTO 15005KT 1/4SM FG VV001 18/18 A2983 1160 100 1800 150/05 RMK AO2 TSNO
94908KDBQ DBQ20000624033511106/24/00 03:35:31  5-MIN KDBQ 240935Z AUTO 15005KT 1/4SM FG VV001 18/18 A2983 1160 100 1900 150/05 RMK AO2 TSNO
94908KDBQ DBQ20000624034011106/24/00 03:40:31  5-MIN KDBQ 240940Z AUTO 14004KT 1/4SM FG VV001 18/18 A2983 1160 100 1900 140/04 RMK AO2 TSNO
94908KDBQ DBQ20000624034511106/24/00 03:45:31  5-MIN KDBQ 240945Z AUTO 17006KT 1/2SM FG VV001 18/18 A2983 1160 100 1900 170/06 RMK AO2 TSNO
94908KDBQ DBQ20000624035012806/24/00 03:50:31  5-MIN KDBQ 240950Z AUTO 18007KT 1/2SM FG VV001 18/18 A2983 1160 100 1900 180/07 RMK AO2 SLP098 T01830183 TSNO
94908KDBQ DBQ20000624035512806/24/00 03:55:31  5-MIN KDBQ 240955Z AUTO 18008KT 1/2SM FG VV001 18/18 A2983 1160 100 1900 180/08 RMK AO2 SLP099 T01830183 TSNO
94908KDBQ DBQ20000624040011106/24/00 04:00:31  5-MIN KDBQ 241000Z AUTO 19007KT 1/2SM FG VV001 18/18 A2983 1160 100 1900 190/07 RMK AO2 TSNO
94908KDBQ DBQ20000624040511106/24/00 04:05:31  5-MIN KDBQ 241005Z AUTO 18008KT 3/4SM BR VV001 18/18 A2983 1160 100 1900 180/08 RMK AO2 TSNO
94908KDBQ DBQ20000624041011106/24/00 04:10:31  5-MIN KDBQ 241010Z AUTO 19007KT 3/4SM BR VV001 18/18 A2984 1150 100 1800 190/07 RMK AO2 TSNO
94908KDBQ DBQ20000624041511106/24/00 04:15:31  5-MIN KDBQ 241015Z AUTO 19010KT 1/2SM FG VV001 18/18 A2984 1150 100 1800 190/10 RMK AO2 TSNO
94908KDBQ DBQ20000624042011106/24/00 04:20:31  5-MIN KDBQ 241020Z AUTO 20007KT 1/2SM FG VV001 18/18 A2984 1150 100 1800 200/07 RMK AO2 TSNO
94908KDBQ DBQ20000624042510906/24/00 04:25:31  5-MIN KDBQ 241025Z AUTO 19009KT 1SM BR VV001 18/18 A2984 1150 100 1800 190/09 RMK AO2 TSNO
94908KDBQ DBQ20000624043011306/24/00 04:30:31  5-MIN KDBQ 241030Z AUTO 19008KT 1 1/2SM BR OVC001 18/18 A2985 1150 96 1800 190/08 RMK AO2 TSNO
94908KDBQ DBQ20000624043511406/24/00 04:35:31  5-MIN KDBQ 241035Z AUTO 19007KT 1 3/4SM BR OVC001 18/18 A2985 1150 100 1800 190/07 RMK AO2 TSNO
94908KDBQ DBQ20000624044011006/24/00 04:40:31  5-MIN KDBQ 241040Z AUTO 19009KT 2SM BR OVC001 18/18 A2985 1140 100 1800 190/09 RMK AO2 TSNO
94908KDBQ DBQ20000624044511406/24/00 04:45:31  5-MIN KDBQ 241045Z AUTO 20008KT 1 1/2SM BR OVC001 18/18 A2985 1140 100 1800 200/08 RMK AO2 TSNO
94908KDBQ DBQ20000624045013106/24/00 04:50:31  5-MIN KDBQ 241050Z AUTO 18006KT 1 1/4SM BR OVC001 18/18 A2985 1140 100 1800 180/06 RMK AO2 SLP106 T01780178 TSNO
94908KDBQ DBQ20000624045512106/24/00 04:55:31  5-MIN KDBQ 241055Z 18007KT 1 1/4SM BR OVC001 18/18 A2986 1140 100 1800 180/07 RMK AO2 SLP107 T01780178
94908KDBQ DBQ20000624050010406/24/00 05:00:31  5-MIN KDBQ 241100Z 18007KT 1 1/4SM BR OVC001 18/18 A2986 1140 100 1800 180/07 RMK AO2
94908KDBQ DBQ20000624050510406/24/00 05:05:31  5-MIN KDBQ 241105Z 17006KT 1 1/4SM BR OVC001 18/18 A2986 1140 100 1800 170/06 RMK AO2
94908KDBQ DBQ20000624051010406/24/00 05:10:31  5-MIN KDBQ 241110Z 16007KT 1 1/4SM BR OVC001 18/18 A2986 1140 100 1800 160/07 RMK AO2
94908KDBQ DBQ20000624051511606/24/00 05:15:31  5-MIN KDBQ 241115Z 16006KT 1 1/2SM BR OVC001 18/18 A2986 1140 100 1800 160/06 RMK AO2 CIG 001V005
94908KDBQ DBQ20000624052011206/24/00 05:20:31  5-MIN KDBQ 241120Z 16005KT 2SM BR OVC003 18/18 A2986 1130 100 1800 160/05 RMK AO2 CIG 001V006
94908KDBQ DBQ20000624052511206/24/00 05:25:31  5-MIN KDBQ 241125Z 15005KT 2SM BR OVC003 18/18 A2986 1130 100 1800 150/05 RMK AO2 CIG 001V006
94908KDBQ DBQ20000624053011106/24/00 05:30:31  5-MIN KDBQ 241130Z 13006KT 2SM BR OVC003 18/18 A2986 1140 96 1800 130/06 RMK AO2 CIG 001V006
94908KDBQ DBQ20000624053509906/24/00 05:35:31  5-MIN KDBQ 241135Z 14006KT 2SM BR OVC003 18/18 A2986 1140 96 1800 130/06 RMK AO2
94908KDBQ DBQ20000624054009906/24/00 05:40:31  5-MIN KDBQ 241140Z 14005KT 2SM BR OVC003 18/18 A2986 1140 96 1800 140/05 RMK AO2
94908KDBQ DBQ20000624054510306/24/00 05:45:31  5-MIN KDBQ 241145Z 14008KT 1 3/4SM BR OVC003 18/18 A2986 1130 96 1800 140/08 RMK AO2
94908KDBQ DBQ20000624055014406/24/00 05:50:31  5-MIN KDBQ 241150Z 15008KT 1 1/2SM BR OVC003 18/18 A2986 1130 96 1800 150/08 RMK AO2 SLP108 70021 T01830178 10183 20172 58012
94908KDBQ DBQ20000624055514406/24/00 05:55:31  5-MIN KDBQ 241155Z 16009KT 1 1/4SM BR OVC003 18/18 A2987 1130 96 1800 160/09 RMK AO2 SLP109 70021 T01830178 10183 20172 53011
94908KDBQ DBQ20000624060010306/24/00 06:00:31  5-MIN KDBQ 241200Z 16010KT 1 1/4SM BR OVC003 18/18 A2987 1130 96 1800 160/10 RMK AO2
94908KDBQ DBQ20000624060510306/24/00 06:05:31  5-MIN KDBQ 241205Z 17009KT 1 1/4SM BR OVC003 18/18 A2986 1130 96 1800 170/09 RMK AO2
94908KDBQ DBQ20000624061010406/24/00 06:10:31  5-MIN KDBQ 241210Z 16006KT 1 1/4SM BR OVC003 18/18 A2986 1130 100 1800 160/06 RMK AO2
94908KDBQ DBQ20000624061510406/24/00 06:15:31  5-MIN KDBQ 241215Z 17005KT 1 1/2SM BR OVC003 18/18 A2986 1130 100 1800 170/05 RMK AO2
94908KDBQ DBQ20000624062010406/24/00 06:20:31  5-MIN KDBQ 241220Z 18006KT 1 3/4SM BR OVC003 18/18 A2986 1130 100 1800 180/06 RMK AO2
94908KDBQ DBQ20000624062511606/24/00 06:25:31  5-MIN KDBQ 241225Z 17005KT 1 3/4SM BR OVC003 18/18 A2986 1140 100 1800 170/05 RMK AO2 CIG 001V005
94908KDBQ DBQ20000624063010406/24/00 06:30:31  5-MIN KDBQ 241230Z 19004KT 1 3/4SM BR OVC003 18/18 A2986 1130 100 1800 190/04 RMK AO2
94908KDBQ DBQ20000624063510406/24/00 06:35:31  5-MIN KDBQ 241235Z 18005KT 1 3/4SM BR OVC003 18/18 A2986 1140 100 1800 180/05 RMK AO2
94908KDBQ DBQ20000624064011106/24/00 06:40:31  5-MIN KDBQ 241240Z 17005KT 1 3/4SM BR BKN003 OVC039 18/18 A2986 1140 100 1800 170/05 RMK AO2
94908KDBQ DBQ20000624064511006/24/00 06:45:31  5-MIN KDBQ 241245Z 18005KT 1 3/4SM BR BKN003 OVC039 19/18 A2986 1140 97 1900 180/05 RMK AO2
94908KDBQ DBQ20000624065012306/24/00 06:50:31  5-MIN KDBQ 241250Z 18005KT 3SM BR SCT003 OVC039 19/18 A2985 1140 97 1900 180/05 RMK AO2 SLP106 T01890183
94908KDBQ DBQ20000624065512306/24/00 06:55:31  5-MIN KDBQ 241255Z 17004KT 3SM BR SCT003 OVC039 19/18 A2985 1140 97 1900 170/04 RMK AO2 SLP105 T01890183
94908KDBQ DBQ20000624070010606/24/00 07:00:31  5-MIN KDBQ 241300Z 17004KT 4SM BR FEW003 OVC039 19/18 A2986 1140 97 1900 170/04 RMK AO2
94908KDBQ DBQ20000624070510606/24/00 07:05:31  5-MIN KDBQ 241305Z 18003KT 4SM BR FEW003 OVC039 19/18 A2986 1140 97 1900 180/03 RMK AO2
94908KDBQ DBQ20000624071009906/24/00 07:10:31  5-MIN KDBQ 241310Z 16003KT 4SM BR OVC039 19/18 A2985 1140 97 1900 160/03 RMK AO2
94908KDBQ DBQ20000624071510606/24/00 07:15:31  5-MIN KDBQ 241315Z 17003KT 5SM BR BKN038 OVC045 19/18 A2985 1140 93 2000 170/03 RMK AO2
94908KDBQ DBQ20000624072011306/24/00 07:20:31  5-MIN KDBQ 241320Z 17003KT 5SM BR SCT038 BKN045 OVC075 19/18 A2985 1140 93 2000 170/03 RMK AO2
94908KDBQ DBQ20000624072510606/24/00 07:25:31  5-MIN KDBQ 241325Z 00000KT 5SM BR FEW038 OVC047 19/18 A2985 1140 93 2000 000/00 RMK AO2
94908KDBQ DBQ20000624073009906/24/00 07:30:31  5-MIN KDBQ 241330Z 23003KT 5SM BR OVC045 19/18 A2985 1140 93 2000 230/03 RMK AO2
94908KDBQ DBQ20000624073509906/24/00 07:35:31  5-MIN KDBQ 241335Z 24003KT 5SM BR OVC045 19/18 A2985 1140 93 2000 240/03 RMK AO2
94908KDBQ DBQ20000624074009906/24/00 07:40:31  5-MIN KDBQ 241340Z 00000KT 5SM BR OVC043 19/18 A2985 1150 93 2000 000/00 RMK AO2
94908KDBQ DBQ20000624074511306/24/00 07:45:31  5-MIN KDBQ 241345Z 00000KT 5SM BR SCT041 BKN048 OVC080 20/18 A2984 1150 90 2000 000/00 RMK AO2
94908KDBQ DBQ20000624075012306/24/00 07:50:31  5-MIN KDBQ 241350Z 00000KT 5SM BR BKN045 BKN090 20/18 A2985 1150 90 2000 000/00 RMK AO2 SLP102 T02000183
94908KDBQ DBQ20000624075512306/24/00 07:55:31  5-MIN KDBQ 241355Z 00000KT 5SM BR SCT044 BKN090 20/18 A2984 1150 90 2000 000/00 RMK AO2 SLP102 T02000183
94908KDBQ DBQ20000624080011306/24/00 08:00:31  5-MIN KDBQ 241400Z 00000KT 5SM BR FEW041 SCT048 BKN090 20/18 A2984 1150 90 2000 000/00 RMK AO2
94908KDBQ DBQ20000624080510606/24/00 08:05:31  5-MIN KDBQ 241405Z 00000KT 5SM BR FEW041 SCT090 20/18 A2984 1150 90 2000 000/00 RMK AO2
94908KDBQ DBQ20000624081010606/24/00 08:10:31  5-MIN KDBQ 241410Z 00000KT 6SM BR FEW047 SCT090 21/19 A2984 1160 90 2100 000/00 RMK AO2
94908KDBQ DBQ20000624081510606/24/00 08:15:31  5-MIN KDBQ 241415Z 00000KT 6SM BR FEW060 SCT090 21/19 A2984 1150 90 2100 000/00 RMK AO2
94908KDBQ DBQ20000624082010606/24/00 08:20:31  5-MIN KDBQ 241420Z 00000KT 6SM BR SCT060 BKN090 21/18 A2984 1160 87 2100 000/00 RMK AO2
94908KDBQ DBQ20000624082509606/24/00 08:25:31  5-MIN KDBQ 241425Z 00000KT 7SM SCT060 21/18 A2984 1150 87 2100 000/00 RMK AO2
94908KDBQ DBQ20000624083009606/24/00 08:30:31  5-MIN KDBQ 241430Z 22003KT 7SM SCT060 21/19 A2984 1150 90 2100 220/03 RMK AO2
94908KDBQ DBQ20000624083510306/24/00 08:35:31  5-MIN KDBQ 241435Z 25003KT 7SM FEW041 SCT060 21/19 A2985 1150 90 2100 240/03 RMK AO2
94908KDBQ DBQ20000624084010606/24/00 08:40:31  5-MIN KDBQ 241440Z 28003KT 6SM BR FEW043 BKN060 21/19 A2985 1140 90 2100 280/03 RMK AO2
94908KDBQ DBQ20000624084510306/24/00 08:45:31  5-MIN KDBQ 241445Z 25005KT 7SM FEW043 BKN065 21/19 A2985 1140 90 2100 250/05 RMK AO2
94908KDBQ DBQ20000624085012606/24/00 08:50:31  5-MIN KDBQ 241450Z 20007KT 7SM FEW045 BKN065 21/19 A2986 1140 90 2100 200/07 RMK AO2 SLP106 T02060189 53011
94908KDBQ DBQ20000624085512606/24/00 08:55:31  5-MIN KDBQ 241455Z 18008KT 7SM SCT047 BKN065 21/19 A2986 1140 90 2100 180/08 RMK AO2 SLP106 T02060189 55003
94908KDBQ DBQ20000624090011306/24/00 09:00:31  5-MIN KDBQ 241500Z 19010KT 6SM BR FEW009 SCT047 BKN065 20/19 A2986 1140 93 2000 190/10 RMK AO2
94908KDBQ DBQ20000624090511306/24/00 09:05:31  5-MIN KDBQ 241505Z 19010KT 5SM BR FEW009 SCT047 BKN065 20/19 A2986 1140 93 2000 190/10 RMK AO2
94908KDBQ DBQ20000624091010606/24/00 09:10:31  5-MIN KDBQ 241510Z 19011KT 5SM BR FEW009 BKN065 20/19 A2986 1140 93 2000 190/11 RMK AO2
94908KDBQ DBQ20000624091512906/24/00 09:15:31  5-MIN KDBQ 241515Z 19011KT 4SM -RA BR FEW009 SCT032 BKN060 19/19 A2986 1140 97 2000 190/11 RMK AO2 RAB13 P0001
94908KDBQ DBQ20000624092013206/24/00 09:20:31  5-MIN KDBQ 241520Z 19012KT 2 1/2SM RA BR FEW009 BKN028 BKN049 19/19 A2986 1140 97 2000 190/12 RMK AO2 RAB13 P0003
94908KDBQ DBQ20000624092512206/24/00 09:25:31  5-MIN KDBQ 241525Z 19013KT 2SM +RA BR FEW009 BKN021 19/19 A2986 1140 97 2000 190/13 RMK AO2 RAB13 P0007
94908KDBQ DBQ20000624093012106/24/00 09:30:31  5-MIN KDBQ 241530Z 19012KT 2SM RA BR FEW009 BKN017 19/19 A2986 1140 97 2000 190/12 RMK AO2 RAB13 P0008
94908KDBQ DBQ20000624093511506/24/00 09:35:31  5-MIN KDBQ 241535Z 19012KT 3SM -RA BR BKN015 19/19 A2986 1130 97 2000 180/12 RMK AO2 RAB13 P0008
94908KDBQ DBQ20000624094012906/24/00 09:40:31  5-MIN KDBQ 241540Z 17011KT 2SM -RA BR FEW007 BKN015 OVC035 19/19 A2987 1130 97 1900 170/11 RMK AO2 RAB13 P0008
94908KDBQ DBQ20000624094512906/24/00 09:45:31  5-MIN KDBQ 241545Z 17011KT 2SM -RA BR FEW005 BKN015 OVC037 19/19 A2987 1130 97 1900 170/11 RMK AO2 RAB13 P0009
94908KDBQ DBQ20000624095014506/24/00 09:50:31  5-MIN KDBQ 241550Z 18011KT 3SM RA BR FEW005 BKN012 OVC037 19/18 A2987 1120 97 1900 180/11 RMK AO2 RAB13 SLP112 P0010 T01890183
94908KDBQ DBQ20000624095514206/24/00 09:55:31  5-MIN KDBQ 241555Z 17007KT 2 1/2SM RA BR SCT012 OVC037 19/18 A2988 1120 97 1900 170/07 RMK AO2 RAB13 SLP114 P0011 T01890183
94908KDBQ DBQ20000624100011606/24/00 10:00:31  5-MIN KDBQ 241600Z 17010KT 2SM +RA BR SCT012 OVC037 19/18 A2988 1120 97 1900 170/10 RMK AO2 P0003
94908KDBQ DBQ20000624100512106/24/00 10:05:31  5-MIN KDBQ 241605Z 18009KT 1 1/4SM +RA BR BKN008 OVC037 19/19 A2988 1120 100 1900 180/09 RMK AO2 P0010
94908KDBQ DBQ20000624101012106/24/00 10:10:31  5-MIN KDBQ 241610Z 20007KT 1 1/4SM +RA BR BKN006 OVC037 19/19 A2987 1120 100 1900 200/07 RMK AO2 P0012
94908KDBQ DBQ20000624101512106/24/00 10:15:31  5-MIN KDBQ 241615Z 21007KT 1 3/4SM -RA BR BKN006 OVC037 19/19 A2987 1130 100 1900 210/07 RMK AO2 P0013
94908KDBQ DBQ20000624102012106/24/00 10:20:31  5-MIN KDBQ 241620Z 19007KT 1 3/4SM -RA BR BKN008 OVC037 19/19 A2987 1120 100 1900 190/07 RMK AO2 P0013
94908KDBQ DBQ20000624102512106/24/00 10:25:31  5-MIN KDBQ 241625Z 20007KT 1 3/4SM -RA BR FEW005 OVC008 19/19 A2987 1130 100 1900 190/07 RMK AO2 P0014
94908KDBQ DBQ20000624103011406/24/00 10:30:31  5-MIN KDBQ 241630Z 21006KT 1 3/4SM -RA BR OVC008 19/19 A2986 1130 100 1900 200/06 RMK AO2 P0014
94908KDBQ DBQ20000624103512006/24/00 10:35:31  5-MIN KDBQ 241635Z 23004KT 1 3/4SM -RA BR FEW005 OVC008 19/19 A2986 1140 97 2000 230/04 RMK AO2 P0015
94908KDBQ DBQ20000624104012006/24/00 10:40:31  5-MIN KDBQ 241640Z 24004KT 1 3/4SM -RA BR FEW005 OVC010 19/18 A2986 1140 97 1900 230/04 RMK AO2 P0015
94908KDBQ DBQ20000624104511606/24/00 10:45:31  5-MIN KDBQ 241645Z 25004KT 3SM -RA BR FEW005 OVC010 19/19 A2985 1140 97 2000 250/04 RMK AO2 P0016
94908KDBQ DBQ20000624105013206/24/00 10:50:31  5-MIN KDBQ 241650Z 29005KT 3SM RA BR FEW005 OVC010 19/19 A2985 1140 97 2000 290/05 RMK AO2 SLP104 P0017 T01940189
94908KDBQ DBQ20000624105513306/24/00 10:55:31  5-MIN KDBQ 241655Z 30007KT 3SM RA BR FEW005 OVC012 19/19 A2985 1150 100 1900 300/07 RMK AO2 SLP104 P0017 T01890189
94908KDBQ DBQ20000624110010806/24/00 11:00:31  5-MIN KDBQ 241700Z 30006KT 3SM RA BR OVC012 19/19 A2985 1150 97 2000 300/06 RMK AO2 P0001
94908KDBQ DBQ20000624110510906/24/00 11:05:31  5-MIN KDBQ 241705Z 31006KT 3SM -RA BR OVC012 19/19 A2985 1150 97 2000 310/06 RMK AO2 P0002
94908KDBQ DBQ20000624111010906/24/00 11:10:31  5-MIN KDBQ 241710Z 32007KT 3SM -RA BR OVC012 19/19 A2985 1150 97 2000 320/07 RMK AO2 P0002
94908KDBQ DBQ20000624111511606/24/00 11:15:31  5-MIN KDBQ 241715Z 33007KT 3SM -RA BR FEW003 OVC012 19/19 A2984 1150 97 2000 330/07 RMK AO2 P0003
94908KDBQ DBQ20000624112011506/24/00 11:20:31  5-MIN KDBQ 241720Z 33007KT 3SM RA BR FEW003 OVC014 19/19 A2984 1150 97 2000 330/07 RMK AO2 P0003
94908KDBQ DBQ20000624112511606/24/00 11:25:31  5-MIN KDBQ 241725Z 33008KT 3SM -RA BR FEW003 OVC014 19/19 A2984 1150 97 2000 330/08 RMK AO2 P0004
94908KDBQ DBQ20000624113011606/24/00 11:30:31  5-MIN KDBQ 241730Z 34008KT 3SM -RA BR FEW003 OVC014 19/19 A2984 1150 97 2000 340/08 RMK AO2 P0004
94908KDBQ DBQ20000624113512306/24/00 11:35:31  5-MIN KDBQ 241735Z 34010KT 4SM -RA BR FEW003 BKN014 OVC030 19/19 A2984 1150 97 2000 340/10 RMK AO2 P0004
94908KDBQ DBQ20000624114011606/24/00 11:40:31  5-MIN KDBQ 241740Z 35010KT 4SM -RA BR FEW003 OVC014 19/19 A2984 1160 97 2000 340/10 RMK AO2 P0005
94908KDBQ DBQ20000624114511606/24/00 11:45:31  5-MIN KDBQ 241745Z 34010KT 4SM -RA BR FEW003 OVC014 19/19 A2984 1160 97 2000 340/10 RMK AO2 P0005
94908KDBQ DBQ20000624115015706/24/00 11:50:31  5-MIN KDBQ 241750Z 35008KT 4SM -RA BR FEW003 OVC014 19/19 A2984 1160 97 2000 350/08 RMK AO2 SLP100 P0006 60034 T01940189 10206 20183 55003
94908KDBQ DBQ20000624115515706/24/00 11:55:31  5-MIN KDBQ 241755Z 36008KT 4SM -RA BR FEW003 OVC016 19/19 A2983 1160 97 2000 360/08 RMK AO2 SLP099 P0006 60034 T01940189 10206 20183 58008
94908KDBQ DBQ20000624120011606/24/00 12:00:31  5-MIN KDBQ 241800Z 36008KT 4SM -RA BR FEW003 OVC016 19/19 A2983 1160 97 2000 360/08 RMK AO2 P0001
94908KDBQ DBQ20000624120511606/24/00 12:05:31  5-MIN KDBQ 241805Z 01007KT 5SM -RA BR FEW003 OVC016 19/19 A2983 1160 97 2000 360/07 RMK AO2 P0001
94908KDBQ DBQ20000624121011506/24/00 12:10:31  5-MIN KDBQ 241810Z 35008KT 4SM RA BR FEW003 OVC014 19/19 A2982 1170 97 2000 350/08 RMK AO2 P0002
94908KDBQ DBQ20000624121511506/24/00 12:15:31  5-MIN KDBQ 241815Z 34010KT 4SM RA BR FEW003 OVC014 19/19 A2982 1170 97 2000 340/10 RMK AO2 P0003
94908KDBQ DBQ20000624122010806/24/00 12:20:31  5-MIN KDBQ 241820Z 33007KT 5SM RA BR OVC014 19/19 A2982 1170 97 2000 330/07 RMK AO2 P0004
94908KDBQ DBQ20000624122510906/24/00 12:25:31  5-MIN KDBQ 241825Z 33012KT 6SM -RA BR BKN014 20/19 A2982 1170 93 2100 330/12 RMK AO2 P0004
94908KDBQ DBQ20000624123011306/24/00 12:30:31  5-MIN KDBQ 241830Z 33013KT 7SM -RA BKN016 OVC080 19/19 A2982 1170 97 2000 330/13 RMK AO2 P0005
94908KDBQ DBQ20000624123511206/24/00 12:35:31  5-MIN KDBQ 241835Z 33010KT 7SM RA BKN016 OVC080 19/19 A2983 1160 97 2000 330/10 RMK AO2 P0005
94908KDBQ DBQ20000624124010806/24/00 12:40:31  5-MIN KDBQ 241840Z 35007KT 5SM RA BR OVC016 19/19 A2983 1160 97 2000 350/07 RMK AO2 P0006
94908KDBQ DBQ20000624124510906/24/00 12:45:31  5-MIN KDBQ 241845Z 01007KT 5SM -RA BR OVC016 19/19 A2984 1160 97 2000 010/07 RMK AO2 P0007
94908KDBQ DBQ20000624125012506/24/00 12:50:31  5-MIN KDBQ 241850Z 03008KT 5SM RA BR OVC018 19/19 A2984 1150 97 2000 030/08 RMK AO2 SLP102 P0008 T01940189
94908KDBQ DBQ20000624125512606/24/00 12:55:31  5-MIN KDBQ 241855Z 36008KT 3SM +RA BR OVC018 19/19 A2984 1150 97 2000 360/08 RMK AO2 SLP102 P0010 T01940189
94908KDBQ DBQ20000624130010906/24/00 13:00:31  5-MIN KDBQ 241900Z 01008KT 3SM +RA BR OVC018 19/19 A2985 1150 97 2000 010/08 RMK AO2 P0003
94908KDBQ DBQ20000624130511606/24/00 13:05:31  5-MIN KDBQ 241905Z 02007KT 3SM +RA BR BKN018 OVC055 19/19 A2985 1140 97 2000 020/07 RMK AO2 P0004
94908KDBQ DBQ20000624131011506/24/00 13:10:31  5-MIN KDBQ 241910Z 01007KT 3SM RA BR BKN018 OVC055 19/19 A2984 1150 97 2000 010/07 RMK AO2 P0005
94908KDBQ DBQ20000624131512206/24/00 13:15:31  5-MIN KDBQ 241915Z 36006KT 3SM RA BR BKN020 BKN050 OVC060 19/19 A2984 1150 97 2000 360/06 RMK AO2 P0007
94908KDBQ DBQ20000624132012306/24/00 13:20:31  5-MIN KDBQ 241920Z 35010KT 3SM +RA BR BKN018 BKN028 OVC055 19/19 A2984 1150 97 2000 350/10 RMK AO2 P0009
94908KDBQ DBQ20000624132512706/24/00 13:25:31  5-MIN KDBQ 241925Z 36007KT 2 1/2SM +RA BR FEW005 BKN016 OVC055 19/19 A2984 1150 97 2000 360/07 RMK AO2 P0010
94908KDBQ DBQ20000624133012706/24/00 13:30:31  5-MIN KDBQ 241930Z 35009KT 2 1/2SM +RA BR FEW003 BKN016 OVC055 19/19 A2984 1150 97 2000 350/09 RMK AO2 P0012
94908KDBQ DBQ20000624133512706/24/00 13:35:31  5-MIN KDBQ 241935Z 34008KT 2 1/2SM +RA BR FEW003 BKN016 OVC060 19/19 A2984 1150 97 2000 340/08 RMK AO2 P0014
94908KDBQ DBQ20000624134012706/24/00 13:40:31  5-MIN KDBQ 241940Z 34009KT 2 1/2SM +RA BR FEW005 BKN016 OVC050 19/19 A2984 1150 97 2000 340/09 RMK AO2 P0016
94908KDBQ DBQ20000624134512706/24/00 13:45:31  5-MIN KDBQ 241945Z 34011KT 2 1/2SM +RA BR FEW005 BKN016 OVC050 19/19 A2984 1150 97 2000 340/11 RMK AO2 P0018
94908KDBQ DBQ20000624135014406/24/00 13:50:31  5-MIN KDBQ 241950Z 34013KT 2 1/2SM +RA BR FEW005 BKN016 OVC048 19/18 A2984 1160 97 1900 340/13 RMK AO2 SLP100 P0020 T01890183
94908KDBQ DBQ20000624135513906/24/00 13:55:31  5-MIN KDBQ 241955Z 34013KT 3SM RA BR FEW005 SCT016 OVC050 19/18 A2983 1160 97 1900 340/13 RMK AO2 SLP099 P0021 T01890183
94908KDBQ DBQ20000624140011506/24/00 14:00:31  5-MIN KDBQ 242000Z 34010KT 4SM RA BR FEW016 OVC050 19/18 A2983 1160 97 1900 340/10 RMK AO2 P0001
94908KDBQ DBQ20000624140511506/24/00 14:05:31  5-MIN KDBQ 242005Z 35010KT 5SM RA BR FEW014 OVC050 19/18 A2983 1160 97 1900 350/10 RMK AO2 P0002
94908KDBQ DBQ20000624141011506/24/00 14:10:31  5-MIN KDBQ 242010Z 35010KT 5SM RA BR SCT014 OVC050 19/18 A2983 1160 97 1900 350/10 RMK AO2 P0003
94908KDBQ DBQ20000624141511506/24/00 14:15:31  5-MIN KDBQ 242015Z 34010KT 4SM RA BR SCT016 OVC048 19/18 A2983 1160 97 1900 340/10 RMK AO2 P0004
94908KDBQ DBQ20000624142011506/24/00 14:20:31  5-MIN KDBQ 242020Z 34010KT 4SM RA BR SCT016 OVC048 19/18 A2983 1160 97 1900 340/10 RMK AO2 P0005
94908KDBQ DBQ20000624142511506/24/00 14:25:31  5-MIN KDBQ 242025Z 34012KT 3SM RA BR BKN014 OVC048 19/18 A2983 1170 97 1900 340/12 RMK AO2 P0006
94908KDBQ DBQ20000624143011606/24/00 14:30:31  5-MIN KDBQ 242030Z 35010KT 5SM -RA BR BKN014 OVC048 19/18 A2982 1170 97 1900 350/10 RMK AO2 P0007
94908KDBQ DBQ20000624143512006/24/00 14:35:31  5-MIN KDBQ 242035Z 35011KT 7SM -RA BKN016 BKN030 OVC048 19/18 A2982 1170 97 1900 350/11 RMK AO2 P0007
94908KDBQ DBQ20000624144011306/24/00 14:40:31  5-MIN KDBQ 242040Z 35012KT 8SM -RA BKN016 BKN046 19/18 A2982 1170 97 1900 350/12 RMK AO2 P0008
94908KDBQ DBQ20000624144510606/24/00 14:45:31  5-MIN KDBQ 242045Z 36010KT 8SM -RA BKN016 19/18 A2981 1180 97 1900 360/10 RMK AO2 P0008
94908KDBQ DBQ20000624145014206/24/00 14:50:31  5-MIN KDBQ 242050Z 36011KT 8SM -RA BKN019 BKN065 19/18 A2981 1180 93 2000 360/11 RMK AO2 SLP093 P0008 60039 T01940183 58008
94908KDBQ DBQ20000624145514906/24/00 14:55:31  5-MIN KDBQ 242055Z 36011KT 8SM -RA BKN021 BKN031 OVC065 19/18 A2981 1180 93 2000 360/11 RMK AO2 SLP093 P0009 60040 T01940183 58006
94908KDBQ DBQ20000624150011306/24/00 15:00:31  5-MIN KDBQ 242100Z 36009KT 8SM -RA BKN019 BKN065 19/18 A2982 1170 93 2000 350/09 RMK AO2 P0000
94908KDBQ DBQ20000624150511306/24/00 15:05:31  5-MIN KDBQ 242105Z 36013KT 8SM -RA BKN019 BKN065 19/18 A2982 1170 93 2000 360/13 RMK AO2 P0000
94908KDBQ DBQ20000624151011406/24/00 15:10:31  5-MIN KDBQ 242110Z 35011KT 10SM -RA SCT019 BKN065 19/18 A2982 1170 93 2000 350/11 RMK AO2 P0000
94908KDBQ DBQ20000624151511406/24/00 15:15:31  5-MIN KDBQ 242115Z 35010KT 10SM -RA FEW021 SCT065 19/18 A2982 1170 93 2000 350/10 RMK AO2 P0000
94908KDBQ DBQ20000624152010706/24/00 15:20:31  5-MIN KDBQ 242120Z 36010KT 10SM -RA FEW018 19/18 A2982 1170 93 2000 360/10 RMK AO2 P0000
94908KDBQ DBQ20000624152510706/24/00 15:25:31  5-MIN KDBQ 242125Z 36010KT 10SM -RA FEW016 19/18 A2982 1170 93 2000 350/10 RMK AO2 P0000
94908KDBQ DBQ20000624153010706/24/00 15:30:31  5-MIN KDBQ 242130Z 36009KT 10SM -RA FEW055 19/19 A2982 1170 97 2000 360/09 RMK AO2 P0000
94908KDBQ DBQ20000624153510706/24/00 15:35:31  5-MIN KDBQ 242135Z 36009KT 10SM -RA SCT055 20/18 A2982 1170 90 2100 360/09 RMK AO2 P0000
94908KDBQ DBQ20000624154010706/24/00 15:40:31  5-MIN KDBQ 242140Z 36009KT 10SM -RA BKN055 20/19 A2982 1170 93 2100 360/09 RMK AO2 P0001
94908KDBQ DBQ20000624154510706/24/00 15:45:31  5-MIN KDBQ 242145Z 01008KT 10SM -RA BKN055 20/18 A2982 1170 90 2100 010/08 RMK AO2 P0001
94908KDBQ DBQ20000624155012406/24/00 15:50:31  5-MIN KDBQ 242150Z 01010KT 10SM -RA BKN055 20/18 A2983 1170 90 2100 010/10 RMK AO2 SLP096 P0001 T02000183
94908KDBQ DBQ20000624155512606/24/00 15:55:31  5-MIN KDBQ 242155Z 36010KT 10SM OVC055 20/18 A2983 1160 90 2100 360/10 RMK AO2 RAE51 SLP096 P0001 T02000183
94908KDBQ DBQ20000624160011506/24/00 16:00:31  5-MIN KDBQ 242200Z 36010KT 10SM -RA OVC055 20/18 A2983 1160 90 2100 360/10 RMK AO2 RAB2159 P0000
94908KDBQ DBQ20000624160511506/24/00 16:05:31  5-MIN KDBQ 242205Z 36008KT 10SM -RA OVC055 20/18 A2983 1160 90 2100 360/08 RMK AO2 RAB2159 P0000
94908KDBQ DBQ20000624161011506/24/00 16:10:31  5-MIN KDBQ 242210Z 01010KT 10SM -RA OVC055 20/18 A2983 1160 90 2100 010/10 RMK AO2 RAB2159 P0000
94908KDBQ DBQ20000624161511506/24/00 16:15:31  5-MIN KDBQ 242215Z 01008KT 10SM -RA OVC055 20/18 A2983 1160 90 2100 010/08 RMK AO2 RAB2159 P0000
94908KDBQ DBQ20000624162011506/24/00 16:20:31  5-MIN KDBQ 242220Z 01008KT 10SM -RA OVC055 20/18 A2983 1160 90 2100 010/08 RMK AO2 RAB2159 P0000
94908KDBQ DBQ20000624162512206/24/00 16:25:31  5-MIN KDBQ 242225Z 01008KT 10SM -RA BKN055 OVC070 20/18 A2983 1160 90 2100 010/08 RMK AO2 RAB2159 P0000
94908KDBQ DBQ20000624163011506/24/00 16:30:31  5-MIN KDBQ 242230Z 02007KT 10SM -RA OVC060 20/19 A2983 1170 93 2100 020/07 RMK AO2 RAB2159 P0000
94908KDBQ DBQ20000624163511506/24/00 16:35:31  5-MIN KDBQ 242235Z 01007KT 10SM -RA OVC060 20/19 A2983 1170 93 2100 010/07 RMK AO2 RAB2159 P0000
94908KDBQ DBQ20000624164011406/24/00 16:40:31  5-MIN KDBQ 242240Z 01008KT 10SM OVC060 20/19 A2982 1170 93 2100 010/08 RMK AO2 RAB2159E37 P0000
94908KDBQ DBQ20000624164511406/24/00 16:45:31  5-MIN KDBQ 242245Z 02007KT 10SM OVC060 20/19 A2982 1170 93 2100 010/07 RMK AO2 RAB2159E37 P0000
94908KDBQ DBQ20000624165013106/24/00 16:50:31  5-MIN KDBQ 242250Z 01007KT 10SM OVC060 20/19 A2982 1170 93 2100 010/07 RMK AO2 RAB2159E37 SLP096 P0000 T02000189
94908KDBQ DBQ20000624165513106/24/00 16:55:31  5-MIN KDBQ 242255Z 01007KT 10SM OVC060 20/19 A2982 1170 93 2100 010/07 RMK AO2 RAB2159E37 SLP096 P0000 T02000189
94908KDBQ DBQ20000624170012106/24/00 17:00:31  5-MIN KDBQ 242300Z 01006KT 7SM -RA SCT040 OVC060 20/19 A2983 1170 93 2100 010/06 RMK AO2 RAB2258 P0000
94908KDBQ DBQ20000624170512806/24/00 17:05:31  5-MIN KDBQ 242305Z 01005KT 8SM -RA SCT049 BKN060 OVC075 20/19 A2982 1170 93 2100 010/05 RMK AO2 RAB2258 P0000
94908KDBQ DBQ20000624171012106/24/00 17:10:31  5-MIN KDBQ 242310Z 01005KT 10SM BKN060 BKN075 21/19 A2982 1170 90 2100 010/05 RMK AO2 RAB2258E09 P0000
94908KDBQ DBQ20000624171512806/24/00 17:15:31  5-MIN KDBQ 242315Z 01006KT 10SM SCT060 BKN075 BKN100 21/19 A2982 1170 90 2100 010/06 RMK AO2 RAB2258E09 P0000
94908KDBQ DBQ20000624172012806/24/00 17:20:31  5-MIN KDBQ 242320Z 03007KT 10SM SCT060 SCT075 BKN100 21/19 A2981 1180 90 2100 030/07 RMK AO2 RAB2258E09 P0000
94908KDBQ DBQ20000624172512106/24/00 17:25:31  5-MIN KDBQ 242325Z 36008KT 10SM FEW055 SCT100 21/19 A2982 1170 87 2200 360/08 RMK AO2 RAB2258E09 P0000
94908KDBQ DBQ20000624173011406/24/00 17:30:31  5-MIN KDBQ 242330Z 01008KT 10SM FEW100 21/18 A2982 1170 84 2200 360/08 RMK AO2 RAB2258E09 P0000
94908KDBQ DBQ20000624173511406/24/00 17:35:31  5-MIN KDBQ 242335Z 01008KT 10SM FEW095 21/18 A2982 1170 84 2200 010/08 RMK AO2 RAB2258E09 P0000
94908KDBQ DBQ20000624174011406/24/00 17:40:31  5-MIN KDBQ 242340Z 01008KT 10SM FEW100 22/18 A2981 1180 81 2300 010/08 RMK AO2 RAB2258E09 P0000
94908KDBQ DBQ20000624174511106/24/00 17:45:31  5-MIN KDBQ 242345Z 02009KT 10SM CLR 22/18 A2981 1180 81 2300 020/09 RMK AO2 RAB2258E09 P0000
94908KDBQ DBQ20000624175015206/24/00 17:50:31  5-MIN KDBQ 242350Z 01009KT 10SM CLR 21/18 A2982 1170 81 2200 010/09 RMK AO2 RAB2258E09 SLP094 P0000 60041 T02110178 10217 20189 58006
94908KDBQ DBQ20000624175515206/24/00 17:55:31  5-MIN KDBQ 242355Z 36009KT 10SM CLR 22/18 A2982 1170 78 2300 360/09 RMK AO2 RAB2258E09 SLP094 P0000 60041 T02170178 10217 20189 50002
94908KDBQ DBQ20000624180009406/24/00 18:00:31  5-MIN KDBQ 250000Z 35007KT 10SM CLR 21/18 A2982 1170 81 2200 350/07 RMK AO2
94908KDBQ DBQ20000624180509406/24/00 18:05:31  5-MIN KDBQ 250005Z 35007KT 10SM CLR 21/18 A2982 1170 81 2200 350/07 RMK AO2
94908KDBQ DBQ20000624181009406/24/00 18:10:31  5-MIN KDBQ 250010Z 36005KT 10SM CLR 21/18 A2982 1170 81 2200 360/05 RMK AO2
94908KDBQ DBQ20000624181509406/24/00 18:15:31  5-MIN KDBQ 250015Z 01005KT 10SM CLR 21/18 A2982 1170 81 2200 010/05 RMK AO2
94908KDBQ DBQ20000624182009406/24/00 18:20:31  5-MIN KDBQ 250020Z 01004KT 10SM CLR 21/18 A2982 1180 81 2200 010/04 RMK AO2
94908KDBQ DBQ20000624182509406/24/00 18:25:31  5-MIN KDBQ 250025Z 02006KT 10SM CLR 21/18 A2982 1170 81 2200 020/06 RMK AO2
94908KDBQ DBQ20000624183009406/24/00 18:30:31  5-MIN KDBQ 250030Z 03006KT 10SM CLR 21/18 A2982 1170 84 2200 030/06 RMK AO2
94908KDBQ DBQ20000624183509406/24/00 18:35:31  5-MIN KDBQ 250035Z 03006KT 10SM CLR 21/18 A2982 1170 84 2200 030/06 RMK AO2
94908KDBQ DBQ20000624184009406/24/00 18:40:31  5-MIN KDBQ 250040Z 02005KT 10SM CLR 21/18 A2983 1170 84 2100 020/05 RMK AO2
94908KDBQ DBQ20000624184510406/24/00 18:45:31  5-MIN KDBQ 250045Z AUTO 01004KT 10SM CLR 21/18 A2983 1170 84 2100 010/04 RMK AO2 TSNO
94908KDBQ DBQ20000624185012106/24/00 18:50:31  5-MIN KDBQ 250050Z AUTO 35005KT 10SM CLR 21/18 A2983 1160 81 2200 350/05 RMK AO2 SLP096 T02110178 TSNO
94908KDBQ DBQ20000624185512106/24/00 18:55:31  5-MIN KDBQ 250055Z AUTO 33005KT 10SM CLR 21/18 A2983 1160 87 2100 330/05 RMK AO2 SLP098 T02060183 TSNO
94908KDBQ DBQ20000624190010406/24/00 19:00:31  5-MIN KDBQ 250100Z AUTO 33004KT 10SM CLR 21/18 A2984 1160 87 2100 330/04 RMK AO2 TSNO
94908KDBQ DBQ20000624190510406/24/00 19:05:31  5-MIN KDBQ 250105Z AUTO 32006KT 10SM CLR 21/18 A2984 1150 87 2100 320/06 RMK AO2 TSNO
94908KDBQ DBQ20000624191010406/24/00 19:10:31  5-MIN KDBQ 250110Z AUTO 33006KT 10SM CLR 21/18 A2984 1150 84 2100 330/06 RMK AO2 TSNO
94908KDBQ DBQ20000624191510406/24/00 19:15:31  5-MIN KDBQ 250115Z AUTO 33006KT 10SM CLR 21/18 A2984 1150 84 2100 330/06 RMK AO2 TSNO
94908KDBQ DBQ20000624192010406/24/00 19:20:31  5-MIN KDBQ 250120Z AUTO 32008KT 10SM CLR 20/18 A2984 1150 87 2000 320/08 RMK AO2 TSNO
94908KDBQ DBQ20000624192510406/24/00 19:25:31  5-MIN KDBQ 250125Z AUTO 32008KT 10SM CLR 19/18 A2984 1150 90 2000 320/08 RMK AO2 TSNO
94908KDBQ DBQ20000624193010406/24/00 19:30:31  5-MIN KDBQ 250130Z AUTO 33007KT 10SM CLR 19/18 A2984 1150 90 2000 330/07 RMK AO2 TSNO
94908KDBQ DBQ20000624193510406/24/00 19:35:31  5-MIN KDBQ 250135Z AUTO 34006KT 10SM CLR 19/18 A2984 1150 90 2000 330/06 RMK AO2 TSNO
94908KDBQ DBQ20000624194010406/24/00 19:40:31  5-MIN KDBQ 250140Z AUTO 33006KT 10SM CLR 19/18 A2984 1150 90 2000 330/06 RMK AO2 TSNO
94908KDBQ DBQ20000624194510406/24/00 19:45:31  5-MIN KDBQ 250145Z AUTO 33006KT 10SM CLR 20/18 A2985 1150 87 2000 330/06 RMK AO2 TSNO
94908KDBQ DBQ20000624195012106/24/00 19:50:31  5-MIN KDBQ 250150Z AUTO 33006KT 10SM CLR 19/17 A2984 1150 90 1900 330/06 RMK AO2 SLP102 T01890172 TSNO
94908KDBQ DBQ20000624195512106/24/00 19:55:31  5-MIN KDBQ 250155Z AUTO 33006KT 10SM CLR 19/17 A2984 1150 90 1900 330/06 RMK AO2 SLP102 T01890172 TSNO
94908KDBQ DBQ20000624200010406/24/00 20:00:31  5-MIN KDBQ 250200Z AUTO 34005KT 10SM CLR 19/18 A2985 1150 90 2000 340/05 RMK AO2 TSNO
94908KDBQ DBQ20000624200510406/24/00 20:05:31  5-MIN KDBQ 250205Z AUTO 34007KT 10SM CLR 19/18 A2985 1140 90 2000 340/07 RMK AO2 TSNO
94908KDBQ DBQ20000624201010406/24/00 20:10:31  5-MIN KDBQ 250210Z AUTO 33007KT 10SM CLR 19/18 A2986 1140 90 2000 330/07 RMK AO2 TSNO
94908KDBQ DBQ20000624201510406/24/00 20:15:31  5-MIN KDBQ 250215Z AUTO 33006KT 10SM CLR 19/18 A2986 1130 93 1900 330/06 RMK AO2 TSNO
94908KDBQ DBQ20000624202010406/24/00 20:20:31  5-MIN KDBQ 250220Z AUTO 33006KT 10SM CLR 19/18 A2987 1130 93 1900 330/06 RMK AO2 TSNO
94908KDBQ DBQ20000624202510406/24/00 20:25:31  5-MIN KDBQ 250225Z AUTO 32006KT 10SM CLR 19/18 A2987 1130 93 1900 320/06 RMK AO2 TSNO
94908KDBQ DBQ20000624203010406/24/00 20:30:31  5-MIN KDBQ 250230Z AUTO 30006KT 10SM CLR 18/17 A2987 1130 93 1800 300/06 RMK AO2 TSNO
94908KDBQ DBQ20000624203510406/24/00 20:35:31  5-MIN KDBQ 250235Z AUTO 28005KT 10SM CLR 18/17 A2987 1130 93 1800 280/05 RMK AO2 TSNO
94908KDBQ DBQ20000624204010406/24/00 20:40:31  5-MIN KDBQ 250240Z AUTO 29006KT 10SM CLR 18/17 A2987 1120 96 1700 290/06 RMK AO2 TSNO
94908KDBQ DBQ20000624204510406/24/00 20:45:31  5-MIN KDBQ 250245Z AUTO 29005KT 10SM CLR 18/17 A2987 1120 96 1700 290/05 RMK AO2 TSNO
94908KDBQ DBQ20000624205012706/24/00 20:50:31  5-MIN KDBQ 250250Z AUTO 30003KT 10SM CLR 18/17 A2987 1120 93 1800 300/03 RMK AO2 SLP111 T01830172 50002 TSNO
94908KDBQ DBQ20000624205512706/24/00 20:55:31  5-MIN KDBQ 250255Z AUTO 00000KT 10SM CLR 19/17 A2987 1120 90 1900 000/00 RMK AO2 SLP111 T01890172 53017 TSNO
94908KDBQ DBQ20000624210010406/24/00 21:00:31  5-MIN KDBQ 250300Z AUTO 00000KT 10SM CLR 19/18 A2987 1120 93 1900 000/00 RMK AO2 TSNO
94908KDBQ DBQ20000624210510406/24/00 21:05:31  5-MIN KDBQ 250305Z AUTO 31003KT 10SM CLR 19/18 A2988 1120 90 1900 310/03 RMK AO2 TSNO
94908KDBQ DBQ20000624211010406/24/00 21:10:31  5-MIN KDBQ 250310Z AUTO 29003KT 10SM CLR 19/18 A2988 1110 93 1900 290/03 RMK AO2 TSNO
94908KDBQ DBQ20000624211510406/24/00 21:15:31  5-MIN KDBQ 250315Z AUTO 27004KT 10SM CLR 18/17 A2988 1110 93 1800 270/04 RMK AO2 TSNO
94908KDBQ DBQ20000624212010406/24/00 21:20:31  5-MIN KDBQ 250320Z AUTO 27004KT 10SM CLR 18/17 A2988 1110 93 1800 270/04 RMK AO2 TSNO
94908KDBQ DBQ20000624212510406/24/00 21:25:31  5-MIN KDBQ 250325Z AUTO 26005KT 10SM CLR 18/17 A2989 1110 96 1700 260/05 RMK AO2 TSNO
94908KDBQ DBQ20000624213010406/24/00 21:30:31  5-MIN KDBQ 250330Z AUTO 27004KT 10SM CLR 18/17 A2989 1110 96 1700 270/04 RMK AO2 TSNO
94908KDBQ DBQ20000624213510406/24/00 21:35:31  5-MIN KDBQ 250335Z AUTO 28003KT 10SM CLR 18/17 A2989 1110 96 1700 280/03 RMK AO2 TSNO
94908KDBQ DBQ20000624214010406/24/00 21:40:31  5-MIN KDBQ 250340Z AUTO 28004KT 10SM CLR 18/17 A2990 1100 96 1700 280/04 RMK AO2 TSNO
94908KDBQ DBQ20000624214510406/24/00 21:45:31  5-MIN KDBQ 250345Z AUTO 28004KT 10SM CLR 18/17 A2990 1100 96 1700 270/04 RMK AO2 TSNO
94908KDBQ DBQ20000624215012106/24/00 21:50:31  5-MIN KDBQ 250350Z AUTO 26004KT 10SM CLR 18/17 A2990 1100 96 1700 260/04 RMK AO2 SLP121 T01780172 TSNO
94908KDBQ DBQ20000624215512106/24/00 21:55:31  5-MIN KDBQ 250355Z AUTO 25003KT 10SM CLR 17/17 A2990 1100 96 1700 250/03 RMK AO2 SLP122 T01720167 TSNO
94908KDBQ DBQ20000624220010406/24/00 22:00:31  5-MIN KDBQ 250400Z AUTO 25004KT 10SM CLR 18/17 A2990 1100 96 1700 250/04 RMK AO2 TSNO
94908KDBQ DBQ20000624220510406/24/00 22:05:31  5-MIN KDBQ 250405Z AUTO 26004KT 10SM CLR 18/17 A2990 1100 96 1700 260/04 RMK AO2 TSNO
94908KDBQ DBQ20000624221010306/24/00 22:10:31  5-MIN KDBQ 250410Z AUTO 25004KT 9SM CLR 18/17 A2990 1100 96 1700 250/04 RMK AO2 TSNO
94908KDBQ DBQ20000624221510306/24/00 22:15:31  5-MIN KDBQ 250415Z AUTO 25005KT 9SM CLR 18/17 A2990 1100 96 1700 250/05 RMK AO2 TSNO
94908KDBQ DBQ20000624222010306/24/00 22:20:31  5-MIN KDBQ 250420Z AUTO 25005KT 7SM CLR 17/17 A2990 1100 96 1700 250/05 RMK AO2 TSNO
94908KDBQ DBQ20000624222510406/24/00 22:25:31  5-MIN KDBQ 250425Z AUTO 25005KT 7SM CLR 17/17 A2990 1100 100 1700 250/05 RMK AO2 TSNO
94908KDBQ DBQ20000624223010306/24/00 22:30:31  5-MIN KDBQ 250430Z AUTO 24004KT 7SM CLR 18/17 A2990 1100 96 1700 240/04 RMK AO2 TSNO
94908KDBQ DBQ20000624223510406/24/00 22:35:31  5-MIN KDBQ 250435Z AUTO 23003KT 7SM CLR 17/17 A2990 1100 100 1700 230/03 RMK AO2 TSNO
94908KDBQ DBQ20000624224010406/24/00 22:40:31  5-MIN KDBQ 250440Z AUTO 23003KT 7SM CLR 17/17 A2990 1100 100 1700 230/03 RMK AO2 TSNO
94908KDBQ DBQ20000624224510406/24/00 22:45:31  5-MIN KDBQ 250445Z AUTO 24003KT 7SM CLR 17/17 A2990 1100 100 1700 230/03 RMK AO2 TSNO
94908KDBQ DBQ20000624225012106/24/00 22:50:31  5-MIN KDBQ 250450Z AUTO 24003KT 7SM CLR 17/17 A2990 1100 100 1700 230/03 RMK AO2 SLP121 T01720172 TSNO
94908KDBQ DBQ20000624225512106/24/00 22:55:31  5-MIN KDBQ 250455Z AUTO 24003KT 7SM CLR 17/17 A2990 1100 100 1700 240/03 RMK AO2 SLP121 T01720172 TSNO
94908KDBQ DBQ20000624230010706/24/00 23:00:31  5-MIN KDBQ 250500Z AUTO 25004KT 6SM BR CLR 17/17 A2990 1100 100 1700 250/04 RMK AO2 TSNO
94908KDBQ DBQ20000624230510706/24/00 23:05:31  5-MIN KDBQ 250505Z AUTO 26004KT 6SM BR CLR 17/17 A2990 1100 100 1700 260/04 RMK AO2 TSNO
94908KDBQ DBQ20000624231010706/24/00 23:10:31  5-MIN KDBQ 250510Z AUTO 24003KT 6SM BR CLR 17/17 A2990 1100 100 1700 240/03 RMK AO2 TSNO
94908KDBQ DBQ20000624231511306/24/00 23:15:31  5-MIN KDBQ 250515Z AUTO 23003KT 5SM BR CLR 17/17 A2990 1100 100 1700 230/03 RMK AO2 P0001 TSNO
94908KDBQ DBQ20000624232011306/24/00 23:20:31  5-MIN KDBQ 250520Z AUTO 00000KT 5SM BR CLR 17/17 A2990 1100 100 1700 000/00 RMK AO2 P0001 TSNO
94908KDBQ DBQ20000624232511306/24/00 23:25:31  5-MIN KDBQ 250525Z AUTO 24003KT 6SM BR CLR 17/17 A2990 1100 100 1700 240/03 RMK AO2 P0001 TSNO
94908KDBQ DBQ20000624233011306/24/00 23:30:31  5-MIN KDBQ 250530Z AUTO 25003KT 6SM BR CLR 17/17 A2991 1090 100 1600 250/03 RMK AO2 P0001 TSNO
94908KDBQ DBQ20000624233511306/24/00 23:35:31  5-MIN KDBQ 250535Z AUTO 24003KT 7SM FEW025 17/17 A2991 1090 100 1600 240/03 RMK AO2 P0001 TSNO
94908KDBQ DBQ20000624234011306/24/00 23:40:31  5-MIN KDBQ 250540Z AUTO 24003KT 7SM SCT025 17/17 A2991 1090 100 1600 240/03 RMK AO2 P0001 TSNO
94908KDBQ DBQ20000624234511306/24/00 23:45:31  5-MIN KDBQ 250545Z AUTO 23003KT 7SM SCT025 17/17 A2991 1090 100 1600 230/03 RMK AO2 P0001 TSNO
94908KDBQ DBQ20000624235016406/24/00 23:50:31  5-MIN KDBQ 250550Z AUTO 23003KT 8SM BKN025 17/17 A2991 1090 100 1600 230/03 RMK AO2 SLP125 P0001 60001 T01720172 10217 20172 402170172 53017 TSNO
94908KDBQ DBQ20000624235516406/24/00 23:55:31  5-MIN KDBQ 250555Z AUTO 24003KT 8SM BKN025 17/17 A2991 1090 100 1600 240/03 RMK AO2 SLP126 P0001 60001 T01720172 10217 20172 402170172 51013 TSNO
94908KDBQ DBQ20000625000010706/25/00 00:00:31  5-MIN KDBQ 250600Z AUTO 23003KT 8SM BKN025 17/17 A2991 1080 100 1600 230/03 RMK AO2 TSNO
94908KDBQ DBQ20000625000510606/25/00 00:05:31  5-MIN KDBQ 250605Z AUTO 22003KT 8SM SCT025 18/17 A2992 1080 96 1700 220/03 RMK AO2 TSNO
94908KDBQ DBQ20000625001010706/25/00 00:10:31  5-MIN KDBQ 250610Z AUTO 22004KT 8SM SCT025 17/17 A2992 1080 100 1600 220/04 RMK AO2 TSNO
94908KDBQ DBQ20000625001510706/25/00 00:15:31  5-MIN KDBQ 250615Z AUTO 21004KT 7SM SCT025 17/17 A2991 1080 100 1600 210/04 RMK AO2 TSNO
94908KDBQ DBQ20000625002010706/25/00 00:20:31  5-MIN KDBQ 250620Z AUTO 21004KT 7SM FEW023 17/17 A2991 1080 100 1600 210/04 RMK AO2 TSNO
94908KDBQ DBQ20000625002510406/25/00 00:25:31  5-MIN KDBQ 250625Z AUTO 21004KT 7SM CLR 17/17 A2991 1090 100 1600 210/04 RMK AO2 TSNO
94908KDBQ DBQ20000625003010606/25/00 00:30:31  5-MIN KDBQ 250630Z AUTO 22005KT 6SM BR CLR 17/17 A2991 1090 96 1600 220/05 RMK AO2 TSNO
94908KDBQ DBQ20000625003510606/25/00 00:35:31  5-MIN KDBQ 250635Z AUTO 22004KT 6SM BR CLR 17/17 A2991 1080 96 1600 210/04 RMK AO2 TSNO
94908KDBQ DBQ20000625004010606/25/00 00:40:31  5-MIN KDBQ 250640Z AUTO 22004KT 5SM BR CLR 17/17 A2991 1080 96 1600 220/04 RMK AO2 TSNO
94908KDBQ DBQ20000625004510606/25/00 00:45:31  5-MIN KDBQ 250645Z AUTO 22004KT 5SM BR CLR 17/17 A2992 1080 96 1600 210/04 RMK AO2 TSNO
94908KDBQ DBQ20000625005012406/25/00 00:50:31  5-MIN KDBQ 250650Z AUTO 21004KT 4SM BR CLR 17/17 A2992 1080 100 1600 210/04 RMK AO2 SLP128 T01670167 TSNO
94908KDBQ DBQ20000625005512406/25/00 00:55:31  5-MIN KDBQ 250655Z AUTO 20004KT 4SM BR CLR 17/17 A2992 1080 100 1600 200/04 RMK AO2 SLP128 T01670167 TSNO
94908KDBQ DBQ20000625010010706/25/00 01:00:31  5-MIN KDBQ 250700Z AUTO 20004KT 4SM BR CLR 17/17 A2992 1080 100 1600 200/04 RMK AO2 TSNO
94908KDBQ DBQ20000625010511406/25/00 01:05:31  5-MIN KDBQ 250705Z AUTO 20004KT 1 3/4SM BR FEW001 17/17 A2991 1080 100 1600 200/04 RMK AO2 TSNO
94908KDBQ DBQ20000625011010906/25/00 01:10:31  5-MIN KDBQ 250710Z AUTO 20004KT 1SM BR VV001 17/17 A2991 1080 100 1600 200/04 RMK AO2 TSNO
94908KDBQ DBQ20000625011510906/25/00 01:15:31  5-MIN KDBQ 250715Z AUTO 20005KT 1SM BR VV001 17/17 A2992 1080 100 1600 200/05 RMK AO2 TSNO
94908KDBQ DBQ20000625012011406/25/00 01:20:31  5-MIN KDBQ 250720Z AUTO 21005KT 1 1/4SM BR FEW001 17/17 A2992 1080 100 1600 210/05 RMK AO2 TSNO
94908KDBQ DBQ20000625012511106/25/00 01:25:31  5-MIN KDBQ 250725Z AUTO 21004KT 3/4SM BR VV001 17/17 A2992 1080 100 1600 210/04 RMK AO2 TSNO
94908KDBQ DBQ20000625013011106/25/00 01:30:31  5-MIN KDBQ 250730Z AUTO 20004KT 1/2SM FG VV001 16/16 A2992 1080 100 1500 200/04 RMK AO2 TSNO
94908KDBQ DBQ20000625013511106/25/00 01:35:31  5-MIN KDBQ 250735Z AUTO 20004KT 1/2SM FG VV001 16/16 A2992 1080 100 1500 200/04 RMK AO2 TSNO
94908KDBQ DBQ20000625014011106/25/00 01:40:31  5-MIN KDBQ 250740Z AUTO 20004KT 1/2SM FG VV001 16/16 A2992 1080 100 1500 200/04 RMK AO2 TSNO
94908KDBQ DBQ20000625014511106/25/00 01:45:31  5-MIN KDBQ 250745Z AUTO 20005KT 1/2SM FG VV001 16/16 A2992 1080 100 1500 200/05 RMK AO2 TSNO
94908KDBQ DBQ20000625015012806/25/00 01:50:31  5-MIN KDBQ 250750Z AUTO 20004KT 1/2SM FG VV001 16/16 A2992 1080 100 1500 200/04 RMK AO2 SLP128 T01610161 TSNO
94908KDBQ DBQ20000625015512806/25/00 01:55:31  5-MIN KDBQ 250755Z AUTO 20004KT 1/2SM FG VV001 16/16 A2992 1080 100 1500 200/04 RMK AO2 SLP128 T01610161 TSNO
94908KDBQ DBQ20000625020011106/25/00 02:00:31  5-MIN KDBQ 250800Z AUTO 20004KT 1/2SM FG VV001 16/16 A2992 1080 100 1500 200/04 RMK AO2 TSNO
94908KDBQ DBQ20000625020511106/25/00 02:05:31  5-MIN KDBQ 250805Z AUTO 20005KT 1/2SM FG VV001 16/16 A2992 1080 100 1500 200/05 RMK AO2 TSNO
94908KDBQ DBQ20000625021011906/25/00 02:10:31  5-MIN KDBQ 250810Z AUTO 21005KT 1/2SM FG BKN001 OVC024 16/16 A2992 1080 100 1500 210/05 RMK AO2 TSNO
94908KDBQ DBQ20000625021511906/25/00 02:15:31  5-MIN KDBQ 250815Z AUTO 21004KT 1/2SM FG BKN001 OVC024 16/16 A2992 1080 100 1500 210/04 RMK AO2 TSNO
94908KDBQ DBQ20000625022011906/25/00 02:20:31  5-MIN KDBQ 250820Z AUTO 21004KT 3/4SM BR SCT001 OVC024 16/16 A2992 1080 100 1500 210/04 RMK AO2 TSNO
94908KDBQ DBQ20000625022512106/25/00 02:25:31  5-MIN KDBQ 250825Z AUTO 21004KT 1 1/4SM BR FEW001 BKN024 16/16 A2993 1070 100 1500 210/04 RMK AO2 TSNO
94908KDBQ DBQ20000625023011706/25/00 02:30:31  5-MIN KDBQ 250830Z AUTO 22005KT 2SM BR FEW001 BKN024 16/16 A2993 1070 100 1500 220/05 RMK AO2 TSNO
94908KDBQ DBQ20000625023511006/25/00 02:35:31  5-MIN KDBQ 250835Z AUTO 22005KT 3SM BR SCT024 16/16 A2993 1070 100 1500 210/05 RMK AO2 TSNO
94908KDBQ DBQ20000625024011406/25/00 02:40:31  5-MIN KDBQ 250840Z AUTO 21005KT 2 1/2SM BR FEW024 16/16 A2993 1070 100 1500 210/05 RMK AO2 TSNO
94908KDBQ DBQ20000625024511406/25/00 02:45:31  5-MIN KDBQ 250845Z AUTO 22005KT 2 1/2SM BR FEW024 16/16 A2993 1070 100 1500 210/05 RMK AO2 TSNO
94908KDBQ DBQ20000625025013006/25/00 02:50:31  5-MIN KDBQ 250850Z AUTO 22005KT 3SM BR CLR 16/16 A2993 1070 100 1500 210/05 RMK AO2 SLP133 T01610161 51013 TSNO
94908KDBQ DBQ20000625025513006/25/00 02:55:31  5-MIN KDBQ 250855Z AUTO 22004KT 4SM BR CLR 16/16 A2993 1070 100 1500 220/04 RMK AO2 SLP133 T01610161 53007 TSNO
94908KDBQ DBQ20000625030010706/25/00 03:00:31  5-MIN KDBQ 250900Z AUTO 22005KT 4SM BR CLR 16/16 A2993 1070 100 1500 220/05 RMK AO2 TSNO
94908KDBQ DBQ20000625030510606/25/00 03:05:31  5-MIN KDBQ 250905Z AUTO 22005KT 4SM BR CLR 17/16 A2993 1070 96 1600 220/05 RMK AO2 TSNO
94908KDBQ DBQ20000625031010606/25/00 03:10:31  5-MIN KDBQ 250910Z AUTO 21005KT 4SM BR CLR 17/16 A2993 1070 96 1600 210/05 RMK AO2 TSNO
94908KDBQ DBQ20000625031510706/25/00 03:15:31  5-MIN KDBQ 250915Z AUTO 21006KT 5SM BR CLR 17/17 A2993 1070 100 1500 210/06 RMK AO2 TSNO
94908KDBQ DBQ20000625032010706/25/00 03:20:31  5-MIN KDBQ 250920Z AUTO 21006KT 5SM BR CLR 17/17 A2994 1060 100 1500 210/06 RMK AO2 TSNO
94908KDBQ DBQ20000625032510706/25/00 03:25:31  5-MIN KDBQ 250925Z AUTO 22006KT 5SM BR CLR 16/16 A2994 1060 100 1500 220/06 RMK AO2 TSNO
94908KDBQ DBQ20000625033010606/25/00 03:30:31  5-MIN KDBQ 250930Z AUTO 22006KT 4SM BR CLR 17/16 A2994 1060 96 1500 220/06 RMK AO2 TSNO
94908KDBQ DBQ20000625033510706/25/00 03:35:31  5-MIN KDBQ 250935Z AUTO 22005KT 4SM BR CLR 16/16 A2994 1060 100 1500 220/05 RMK AO2 TSNO
94908KDBQ DBQ20000625034010706/25/00 03:40:31  5-MIN KDBQ 250940Z AUTO 22005KT 4SM BR CLR 16/16 A2994 1060 100 1500 220/05 RMK AO2 TSNO
94908KDBQ DBQ20000625034510706/25/00 03:45:31  5-MIN KDBQ 250945Z AUTO 23005KT 4SM BR CLR 16/16 A2994 1060 100 1500 230/05 RMK AO2 TSNO
94908KDBQ DBQ20000625035012406/25/00 03:50:31  5-MIN KDBQ 250950Z AUTO 23006KT 4SM BR CLR 16/16 A2994 1060 100 1500 230/06 RMK AO2 SLP136 T01610161 TSNO
94908KDBQ DBQ20000625035512306/25/00 03:55:31  5-MIN KDBQ 250955Z AUTO 23005KT 5SM BR CLR 17/16 A2994 1060 96 1500 230/05 RMK AO2 SLP137 T01670161 TSNO
94908KDBQ DBQ20000625040010706/25/00 04:00:31  5-MIN KDBQ 251000Z AUTO 23005KT 6SM BR CLR 17/17 A2994 1060 100 1500 230/05 RMK AO2 TSNO
94908KDBQ DBQ20000625040510606/25/00 04:05:31  5-MIN KDBQ 251005Z AUTO 24004KT 6SM BR CLR 17/16 A2995 1060 96 1500 240/04 RMK AO2 TSNO
94908KDBQ DBQ20000625041010706/25/00 04:10:31  5-MIN KDBQ 251010Z AUTO 23003KT 6SM BR CLR 16/16 A2995 1050 100 1500 230/03 RMK AO2 TSNO
94908KDBQ DBQ20000625041510706/25/00 04:15:31  5-MIN KDBQ 251015Z AUTO 21003KT 5SM BR CLR 16/16 A2995 1050 100 1500 210/03 RMK AO2 TSNO
94908KDBQ DBQ20000625042010706/25/00 04:20:31  5-MIN KDBQ 251020Z AUTO 00000KT 3SM BR CLR 16/16 A2995 1050 100 1500 000/00 RMK AO2 TSNO
94908KDBQ DBQ20000625042510606/25/00 04:25:31  5-MIN KDBQ 251025Z AUTO 20003KT 3SM BR CLR 17/16 A2995 1050 96 1500 200/03 RMK AO2 TSNO
94908KDBQ DBQ20000625043010706/25/00 04:30:31  5-MIN KDBQ 251030Z AUTO 20004KT 4SM BR CLR 16/16 A2996 1040 100 1500 200/04 RMK AO2 TSNO
94908KDBQ DBQ20000625043510706/25/00 04:35:31  5-MIN KDBQ 251035Z AUTO 00000KT 4SM BR CLR 16/16 A2996 1040 100 1500 000/00 RMK AO2 TSNO
94908KDBQ DBQ20000625044010706/25/00 04:40:31  5-MIN KDBQ 251040Z AUTO 19003KT 4SM BR CLR 16/16 A2996 1040 100 1500 190/03 RMK AO2 TSNO
94908KDBQ DBQ20000625044510706/25/00 04:45:31  5-MIN KDBQ 251045Z AUTO 20003KT 4SM BR CLR 16/16 A2996 1040 100 1400 200/03 RMK AO2 TSNO
94908KDBQ DBQ20000625045012406/25/00 04:50:31  5-MIN KDBQ 251050Z AUTO 19004KT 3SM BR CLR 16/16 A2997 1040 100 1400 190/04 RMK AO2 SLP144 T01610161 TSNO
94908KDBQ DBQ20000625045511406/25/00 04:55:31  5-MIN KDBQ 251055Z 20004KT 3SM BR CLR 16/16 A2997 1040 100 1400 200/04 RMK AO2 SLP145 T01610161
94908KDBQ DBQ20000625050009706/25/00 05:00:31  5-MIN KDBQ 251100Z 20004KT 3SM BR CLR 16/16 A2997 1030 100 1400 200/04 RMK AO2
94908KDBQ DBQ20000625050509706/25/00 05:05:31  5-MIN KDBQ 251105Z 20004KT 3SM BR CLR 16/16 A2997 1030 100 1400 200/04 RMK AO2
94908KDBQ DBQ20000625051009706/25/00 05:10:31  5-MIN KDBQ 251110Z 20004KT 3SM BR CLR 16/16 A2998 1030 100 1400 200/04 RMK AO2
94908KDBQ DBQ20000625051509706/25/00 05:15:31  5-MIN KDBQ 251115Z 20004KT 3SM BR CLR 16/16 A2997 1030 100 1400 200/04 RMK AO2
94908KDBQ DBQ20000625052009706/25/00 05:20:31  5-MIN KDBQ 251120Z 20003KT 3SM BR CLR 16/16 A2997 1030 100 1400 200/03 RMK AO2
94908KDBQ DBQ20000625052509606/25/00 05:25:31  5-MIN KDBQ 251125Z 19003KT 3SM BR CLR 17/16 A2998 1030 96 1500 190/03 RMK AO2
94908KDBQ DBQ20000625053009706/25/00 05:30:31  5-MIN KDBQ 251130Z 19004KT 3SM BR CLR 17/17 A2998 1020 100 1500 190/04 RMK AO2
94908KDBQ DBQ20000625053509606/25/00 05:35:31  5-MIN KDBQ 251135Z 20003KT 3SM BR CLR 17/17 A2998 1020 96 1600 190/03 RMK AO2
94908KDBQ DBQ20000625054009606/25/00 05:40:31  5-MIN KDBQ 251140Z 20004KT 3SM BR CLR 17/17 A2998 1020 96 1600 200/04 RMK AO2
94908KDBQ DBQ20000625054509706/25/00 05:45:31  5-MIN KDBQ 251145Z 20004KT 3SM BR CLR 17/17 A2998 1020 100 1600 200/04 RMK AO2
94908KDBQ DBQ20000625055013806/25/00 05:50:31  5-MIN KDBQ 251150Z 21004KT 3SM BR CLR 17/17 A2998 1020 100 1600 200/04 RMK AO2 SLP149 70076 T01720172 10178 20161 53007
94908KDBQ DBQ20000625055513506/25/00 05:55:31  5-MIN KDBQ 251155Z 21003KT 8SM CLR 17/17 A2998 1020 100 1600 210/03 RMK AO2 SLP149 70076 T01720172 10178 20161 53016
94908KDBQ DBQ20000625060009306/25/00 06:00:31  5-MIN KDBQ 251200Z 21004KT 8SM CLR 18/17 A2998 1020 96 1600 200/04 RMK AO2
94908KDBQ DBQ20000625060509306/25/00 06:05:31  5-MIN KDBQ 251205Z 21003KT 8SM CLR 18/17 A2998 1020 96 1600 210/03 RMK AO2
94908KDBQ DBQ20000625061009306/25/00 06:10:31  5-MIN KDBQ 251210Z 22003KT 8SM CLR 18/17 A2998 1020 96 1600 220/03 RMK AO2
94908KDBQ DBQ20000625061509306/25/00 06:15:31  5-MIN KDBQ 251215Z 00000KT 8SM CLR 18/17 A2998 1020 96 1600 000/00 RMK AO2
94908KDBQ DBQ20000625062009306/25/00 06:20:31  5-MIN KDBQ 251220Z 21003KT 8SM CLR 18/18 A2998 1020 96 1700 210/03 RMK AO2
94908KDBQ DBQ20000625062509306/25/00 06:25:31  5-MIN KDBQ 251225Z 23003KT 8SM CLR 18/18 A2998 1020 96 1700 230/03 RMK AO2
94908KDBQ DBQ20000625063009306/25/00 06:30:31  5-MIN KDBQ 251230Z 00000KT 8SM CLR 19/18 A2998 1020 97 1800 000/00 RMK AO2
94908KDBQ DBQ20000625063509306/25/00 06:35:31  5-MIN KDBQ 251235Z 24003KT 8SM CLR 19/18 A2998 1020 93 1800 240/03 RMK AO2
94908KDBQ DBQ20000625064009306/25/00 06:40:31  5-MIN KDBQ 251240Z 00000KT 8SM CLR 19/18 A2998 1020 93 1800 000/00 RMK AO2
94908KDBQ DBQ20000625064509306/25/00 06:45:31  5-MIN KDBQ 251245Z 00000KT 8SM CLR 20/19 A2998 1020 93 1900 000/00 RMK AO2
94908KDBQ DBQ20000625065011006/25/00 06:50:31  5-MIN KDBQ 251250Z 21003KT 8SM CLR 20/19 A2998 1020 93 1900 210/03 RMK AO2 SLP149 T02000189
94908KDBQ DBQ20000625065511006/25/00 06:55:31  5-MIN KDBQ 251255Z 00000KT 8SM CLR 21/19 A2998 1020 90 1900 000/00 RMK AO2 SLP149 T02060189
94908KDBQ DBQ20000625070009406/25/00 07:00:31  5-MIN KDBQ 251300Z 00000KT 10SM CLR 21/19 A2998 1020 87 2000 000/00 RMK AO2
94908KDBQ DBQ20000625070509406/25/00 07:05:31  5-MIN KDBQ 251305Z 00000KT 10SM CLR 21/19 A2998 1020 87 2000 000/00 RMK AO2
94908KDBQ DBQ20000625071009406/25/00 07:10:31  5-MIN KDBQ 251310Z 00000KT 10SM CLR 22/19 A2998 1020 87 2100 000/00 RMK AO2
94908KDBQ DBQ20000625071509406/25/00 07:15:31  5-MIN KDBQ 251315Z 00000KT 10SM CLR 22/19 A2999 1020 84 2100 000/00 RMK AO2
94908KDBQ DBQ20000625072009406/25/00 07:20:31  5-MIN KDBQ 251320Z 28003KT 10SM CLR 22/19 A2999 1020 84 2100 270/03 RMK AO2
94908KDBQ DBQ20000625072509406/25/00 07:25:31  5-MIN KDBQ 251325Z 00000KT 10SM CLR 22/19 A2999 1020 81 2100 000/00 RMK AO2
94908KDBQ DBQ20000625073009406/25/00 07:30:31  5-MIN KDBQ 251330Z 00000KT 10SM CLR 23/19 A2999 1020 78 2200 000/00 RMK AO2
94908KDBQ DBQ20000625073509406/25/00 07:35:31  5-MIN KDBQ 251335Z 00000KT 10SM CLR 23/19 A2999 1010 78 2200 000/00 RMK AO2
94908KDBQ DBQ20000625074009406/25/00 07:40:31  5-MIN KDBQ 251340Z 31003KT 10SM CLR 23/18 A2999 1010 73 2300 310/03 RMK AO2
94908KDBQ DBQ20000625074509406/25/00 07:45:31  5-MIN KDBQ 251345Z VRB03KT 10SM CLR 23/18 A2999 1010 73 2300 VRB/03 RMK AO2
94908KDBQ DBQ20000625075011106/25/00 07:50:31  5-MIN KDBQ 251350Z 32004KT 10SM CLR 24/17 A2999 1020 66 2300 320/04 RMK AO2 SLP149 T02390172
94908KDBQ DBQ20000625075511106/25/00 07:55:31  5-MIN KDBQ 251355Z 34004KT 10SM CLR 23/17 A2999 1020 68 2300 340/04 RMK AO2 SLP150 T02330172
94908KDBQ DBQ20000625080009406/25/00 08:00:31  5-MIN KDBQ 251400Z 33005KT 10SM CLR 24/17 A2999 1010 66 2300 320/05 RMK AO2
94908KDBQ DBQ20000625080509406/25/00 08:05:31  5-MIN KDBQ 251405Z 32003KT 10SM CLR 24/17 A2999 1010 66 2300 320/03 RMK AO2
94908KDBQ DBQ20000625081009406/25/00 08:10:31  5-MIN KDBQ 251410Z 33003KT 10SM CLR 24/17 A2999 1010 66 2300 330/03 RMK AO2
94908KDBQ DBQ20000625081509406/25/00 08:15:31  5-MIN KDBQ 251415Z 01004KT 10SM CLR 24/18 A2999 1010 71 2300 010/04 RMK AO2
94908KDBQ DBQ20000625082009406/25/00 08:20:31  5-MIN KDBQ 251420Z 01003KT 10SM CLR 24/18 A2999 1020 71 2300 010/03 RMK AO2
94908KDBQ DBQ20000625082509406/25/00 08:25:31  5-MIN KDBQ 251425Z 03004KT 10SM CLR 24/19 A2999 1010 73 2300 030/04 RMK AO2
94908KDBQ DBQ20000625083009406/25/00 08:30:31  5-MIN KDBQ 251430Z VRB03KT 10SM CLR 24/18 A2999 1010 71 2300 VRB/03 RMK AO2
94908KDBQ DBQ20000625083509406/25/00 08:35:31  5-MIN KDBQ 251435Z 01003KT 10SM CLR 24/18 A2999 1010 68 2300 010/03 RMK AO2
94908KDBQ DBQ20000625084009406/25/00 08:40:31  5-MIN KDBQ 251440Z 00000KT 10SM CLR 24/18 A2999 1010 66 2400 000/00 RMK AO2
94908KDBQ DBQ20000625084509406/25/00 08:45:31  5-MIN KDBQ 251445Z 36003KT 10SM CLR 24/17 A2999 1010 61 2400 360/03 RMK AO2
94908KDBQ DBQ20000625085011706/25/00 08:50:31  5-MIN KDBQ 251450Z 00000KT 10SM CLR 24/16 A3000 1010 57 2400 000/00 RMK AO2 SLP152 T02440156 53016
94908KDBQ DBQ20000625085511706/25/00 08:55:31  5-MIN KDBQ 251455Z 00000KT 10SM CLR 24/17 A3000 1010 63 2300 000/00 RMK AO2 SLP152 T02390167 53004
94908KDBQ DBQ20000625090009406/25/00 09:00:31  5-MIN KDBQ 251500Z 00000KT 10SM CLR 24/16 A2999 1010 59 2400 000/00 RMK AO2
94908KDBQ DBQ20000625090509406/25/00 09:05:31  5-MIN KDBQ 251505Z 00000KT 10SM CLR 25/17 A2999 1010 59 2400 000/00 RMK AO2
94908KDBQ DBQ20000625091009406/25/00 09:10:31  5-MIN KDBQ 251510Z 00000KT 10SM CLR 25/17 A3000 1010 59 2400 000/00 RMK AO2
94908KDBQ DBQ20000625091509406/25/00 09:15:31  5-MIN KDBQ 251515Z 00000KT 10SM CLR 25/17 A2999 1010 61 2400 000/00 RMK AO2
94908KDBQ DBQ20000625092009406/25/00 09:20:31  5-MIN KDBQ 251520Z 13004KT 10SM CLR 25/17 A2999 1010 59 2400 130/04 RMK AO2
94908KDBQ DBQ20000625092509406/25/00 09:25:31  5-MIN KDBQ 251525Z 00000KT 10SM CLR 25/17 A2999 1010 59 2400 000/00 RMK AO2
94908KDBQ DBQ20000625093009406/25/00 09:30:31  5-MIN KDBQ 251530Z 00000KT 10SM CLR 25/17 A2999 1010 59 2400 000/00 RMK AO2
94908KDBQ DBQ20000625093509406/25/00 09:35:31  5-MIN KDBQ 251535Z 00000KT 10SM CLR 25/17 A2999 1010 59 2400 000/00 RMK AO2
94908KDBQ DBQ20000625094009406/25/00 09:40:31  5-MIN KDBQ 251540Z 00000KT 10SM CLR 26/17 A3000 1010 57 2500 000/00 RMK AO2
94908KDBQ DBQ20000625094509406/25/00 09:45:31  5-MIN KDBQ 251545Z 00000KT 10SM CLR 25/17 A2999 1010 59 2400 000/00 RMK AO2
94908KDBQ DBQ20000625095011106/25/00 09:50:31  5-MIN KDBQ 251550Z VRB05KT 10SM CLR 26/18 A2999 1010 61 2500 VRB/05 RMK AO2 SLP151 T02560178
94908KDBQ DBQ20000625095511106/25/00 09:55:31  5-MIN KDBQ 251555Z 18006KT 10SM CLR 26/17 A2999 1010 59 2500 180/06 RMK AO2 SLP151 T02560172
94908KDBQ DBQ20000625100009406/25/00 10:00:31  5-MIN KDBQ 251600Z VRB05KT 10SM CLR 26/18 A2999 1010 61 2500 VRB/05 RMK AO2
94908KDBQ DBQ20000625100509406/25/00 10:05:31  5-MIN KDBQ 251605Z VRB04KT 10SM CLR 25/18 A2999 1010 64 2400 VRB/04 RMK AO2
94908KDBQ DBQ20000625101009406/25/00 10:10:31  5-MIN KDBQ 251610Z 17006KT 10SM CLR 26/18 A2999 1010 61 2500 170/06 RMK AO2
94908KDBQ DBQ20000625101509406/25/00 10:15:31  5-MIN KDBQ 251615Z VRB05KT 10SM CLR 26/18 A2999 1010 64 2500 VRB/05 RMK AO2
94908KDBQ DBQ20000625102009406/25/00 10:20:31  5-MIN KDBQ 251620Z 16008KT 10SM CLR 26/18 A2999 1020 62 2600 160/08 RMK AO2
94908KDBQ DBQ20000625102509406/25/00 10:25:31  5-MIN KDBQ 251625Z 16007KT 10SM CLR 26/18 A2999 1020 62 2600 160/07 RMK AO2
94908KDBQ DBQ20000625103009406/25/00 10:30:31  5-MIN KDBQ 251630Z 18006KT 10SM CLR 26/17 A2998 1020 59 2500 170/06 RMK AO2
94908KDBQ DBQ20000625103509406/25/00 10:35:31  5-MIN KDBQ 251635Z 14006KT 10SM CLR 26/18 A2998 1020 62 2600 140/06 RMK AO2
94908KDBQ DBQ20000625104009406/25/00 10:40:31  5-MIN KDBQ 251640Z 16007KT 10SM CLR 26/18 A2998 1020 61 2500 160/07 RMK AO2
94908KDBQ DBQ20000625104509706/25/00 10:45:31  5-MIN KDBQ 251645Z 17007KT 10SM FEW035 26/18 A2998 1020 64 2500 170/07 RMK AO2
94908KDBQ DBQ20000625105011406/25/00 10:50:31  5-MIN KDBQ 251650Z 16006KT 10SM FEW035 26/18 A2998 1020 64 2500 150/06 RMK AO2 SLP147 T02560183
94908KDBQ DBQ20000625105511406/25/00 10:55:31  5-MIN KDBQ 251655Z 16008KT 10SM FEW037 26/19 A2998 1020 64 2600 160/08 RMK AO2 SLP146 T02610189
94908KDBQ DBQ20000625110009706/25/00 11:00:31  5-MIN KDBQ 251700Z 15006KT 10SM FEW037 26/19 A2998 1020 64 2600 150/06 RMK AO2
94908KDBQ DBQ20000625110509706/25/00 11:05:31  5-MIN KDBQ 251705Z 17010KT 10SM FEW039 26/19 A2998 1020 66 2600 170/10 RMK AO2
94908KDBQ DBQ20000625111009706/25/00 11:10:31  5-MIN KDBQ 251710Z 15007KT 10SM FEW037 26/19 A2998 1020 64 2600 150/07 RMK AO2
94908KDBQ DBQ20000625111509706/25/00 11:15:31  5-MIN KDBQ 251715Z 18010KT 10SM FEW039 27/18 A2998 1020 60 2600 170/10 RMK AO2
94908KDBQ DBQ20000625112009706/25/00 11:20:31  5-MIN KDBQ 251720Z 15009KT 10SM FEW039 26/19 A2998 1020 64 2600 150/09 RMK AO2
94908KDBQ DBQ20000625112509706/25/00 11:25:31  5-MIN KDBQ 251725Z 17009KT 10SM FEW039 26/19 A2998 1020 64 2600 170/09 RMK AO2
94908KDBQ DBQ20000625113009706/25/00 11:30:31  5-MIN KDBQ 251730Z 17009KT 10SM FEW039 27/19 A2998 1020 62 2600 170/09 RMK AO2
94908KDBQ DBQ20000625113509706/25/00 11:35:31  5-MIN KDBQ 251735Z 18009KT 10SM FEW039 26/18 A2998 1020 62 2600 180/09 RMK AO2
94908KDBQ DBQ20000625114009706/25/00 11:40:31  5-MIN KDBQ 251740Z 18008KT 10SM FEW039 27/18 A2999 1020 60 2600 180/08 RMK AO2
94908KDBQ DBQ20000625114509706/25/00 11:45:31  5-MIN KDBQ 251745Z 18009KT 10SM SCT039 26/19 A2999 1020 64 2600 180/09 RMK AO2
94908KDBQ DBQ20000625115013206/25/00 11:50:31  5-MIN KDBQ 251750Z 19008KT 10SM SCT039 27/19 A2999 1020 62 2600 190/08 RMK AO2 SLP149 T02670189 10267 20172 53004
94908KDBQ DBQ20000625115513206/25/00 11:55:31  5-MIN KDBQ 251755Z 17008KT 10SM FEW039 27/18 A2999 1020 57 2600 170/08 RMK AO2 SLP149 T02670178 10267 20172 55003
94908KDBQ DBQ20000625120009706/25/00 12:00:31  5-MIN KDBQ 251800Z 16010KT 10SM FEW039 27/18 A2998 1020 57 2600 160/10 RMK AO2
94908KDBQ DBQ20000625120511306/25/00 12:05:31  5-MIN KDBQ 251805Z 17007KT 130V200 10SM FEW039 27/18 A2998 1020 58 2700 170/07 130V200 RMK AO2
94908KDBQ DBQ20000625121009706/25/00 12:10:31  5-MIN KDBQ 251810Z 17006KT 10SM FEW039 27/18 A2998 1020 60 2600 170/06 RMK AO2
94908KDBQ DBQ20000625121509406/25/00 12:15:31  5-MIN KDBQ 251815Z VRB05KT 10SM CLR 27/19 A2999 1010 62 2600 VRB/05 RMK AO2
94908KDBQ DBQ20000625122009706/25/00 12:20:31  5-MIN KDBQ 251820Z 15007KT 10SM FEW039 27/18 A2998 1020 60 2600 150/07 RMK AO2
94908KDBQ DBQ20000625122509706/25/00 12:25:31  5-MIN KDBQ 251825Z VRB04KT 10SM FEW039 26/19 A2998 1020 64 2600 VRB/04 RMK AO2
94908KDBQ DBQ20000625123009706/25/00 12:30:31  5-MIN KDBQ 251830Z 17009KT 10SM SCT039 26/19 A2998 1030 66 2600 160/09 RMK AO2
94908KDBQ DBQ20000625123509706/25/00 12:35:31  5-MIN KDBQ 251835Z 22007KT 10SM SCT039 27/19 A2997 1030 62 2600 220/07 RMK AO2
94908KDBQ DBQ20000625124009706/25/00 12:40:31  5-MIN KDBQ 251840Z 18006KT 10SM FEW041 27/18 A2997 1030 60 2600 180/06 RMK AO2
94908KDBQ DBQ20000625124510406/25/00 12:45:31  5-MIN KDBQ 251845Z 16008KT 10SM FEW041 SCT050 27/18 A2997 1030 58 2700 160/08 RMK AO2
94908KDBQ DBQ20000625125013706/25/00 12:50:31  5-MIN KDBQ 251850Z 18008KT 140V210 10SM FEW041 SCT050 27/18 A2997 1030 58 2700 180/08 140V210 RMK AO2 SLP144 T02720183
94908KDBQ DBQ20000625125512106/25/00 12:55:31  5-MIN KDBQ 251855Z 18009KT 10SM FEW041 SCT050 27/17 A2997 1030 54 2700 180/09 RMK AO2 SLP144 T02720172
94908KDBQ DBQ20000625130009706/25/00 13:00:31  5-MIN KDBQ 251900Z 18008KT 10SM FEW047 27/18 A2997 1030 58 2700 180/08 RMK AO2
94908KDBQ DBQ20000625130509706/25/00 13:05:31  5-MIN KDBQ 251905Z 18010KT 10SM FEW047 27/19 A2997 1030 60 2700 180/10 RMK AO2
94908KDBQ DBQ20000625131009706/25/00 13:10:31  5-MIN KDBQ 251910Z 20004KT 10SM FEW047 27/18 A2997 1040 56 2700 200/04 RMK AO2
94908KDBQ DBQ20000625131509706/25/00 13:15:31  5-MIN KDBQ 251915Z 17007KT 10SM FEW047 27/18 A2997 1040 58 2700 170/07 RMK AO2
94908KDBQ DBQ20000625132009406/25/00 13:20:31  5-MIN KDBQ 251920Z 14008KT 10SM CLR 27/18 A2996 1040 58 2700 140/08 RMK AO2
94908KDBQ DBQ20000625132509706/25/00 13:25:31  5-MIN KDBQ 251925Z 17008KT 10SM FEW042 27/19 A2996 1050 60 2700 160/08 RMK AO2
94908KDBQ DBQ20000625133009706/25/00 13:30:31  5-MIN KDBQ 251930Z 16008KT 10SM FEW042 27/18 A2996 1050 58 2700 160/08 RMK AO2
94908KDBQ DBQ20000625133509706/25/00 13:35:31  5-MIN KDBQ 251935Z 18008KT 10SM FEW042 27/18 A2996 1040 58 2700 180/08 RMK AO2
94908KDBQ DBQ20000625134009706/25/00 13:40:31  5-MIN KDBQ 251940Z VRB06KT 10SM FEW042 27/19 A2996 1040 60 2700 VRB/06 RMK AO2
94908KDBQ DBQ20000625134509706/25/00 13:45:31  5-MIN KDBQ 251945Z 19008KT 10SM SCT044 27/19 A2996 1040 62 2700 180/08 RMK AO2
94908KDBQ DBQ20000625135011406/25/00 13:50:31  5-MIN KDBQ 251950Z 18007KT 10SM SCT044 27/19 A2996 1040 60 2700 180/07 RMK AO2 SLP140 T02720189
94908KDBQ DBQ20000625135512106/25/00 13:55:31  5-MIN KDBQ 251955Z 18007KT 10SM SCT048 SCT055 27/19 A2996 1040 62 2700 180/07 RMK AO2 SLP140 T02670189
94908KDBQ DBQ20000625140009706/25/00 14:00:31  5-MIN KDBQ 252000Z 18008KT 10SM SCT050 27/19 A2996 1040 62 2700 180/08 RMK AO2
94908KDBQ DBQ20000625140510406/25/00 14:05:31  5-MIN KDBQ 252005Z 18006KT 10SM FEW047 SCT055 27/20 A2996 1040 66 2700 170/06 RMK AO2
94908KDBQ DBQ20000625141010406/25/00 14:10:31  5-MIN KDBQ 252010Z 15008KT 10SM FEW047 SCT055 27/19 A2996 1040 62 2700 140/08 RMK AO2
94908KDBQ DBQ20000625141510406/25/00 14:15:31  5-MIN KDBQ 252015Z 18008KT 10SM FEW041 SCT055 27/19 A2997 1030 64 2700 170/08 RMK AO2
94908KDBQ DBQ20000625142010406/25/00 14:20:31  5-MIN KDBQ 252020Z 18008KT 10SM FEW042 SCT050 27/20 A2997 1040 66 2700 180/08 RMK AO2
94908KDBQ DBQ20000625142510406/25/00 14:25:31  5-MIN KDBQ 252025Z 17008KT 10SM SCT046 BKN055 27/20 A2997 1040 64 2700 170/08 RMK AO2
94908KDBQ DBQ20000625143010406/25/00 14:30:31  5-MIN KDBQ 252030Z 17008KT 10SM FEW044 SCT060 27/19 A2997 1040 62 2700 170/08 RMK AO2
94908KDBQ DBQ20000625143510406/25/00 14:35:31  5-MIN KDBQ 252035Z 18007KT 10SM SCT042 BKN060 27/20 A2997 1040 66 2700 170/07 RMK AO2
94908KDBQ DBQ20000625144011106/25/00 14:40:31  5-MIN KDBQ 252040Z 17009KT 10SM SCT042 SCT049 BKN060 27/19 A2996 1040 64 2700 170/09 RMK AO2
94908KDBQ DBQ20000625144511106/25/00 14:45:31  5-MIN KDBQ 252045Z 17007KT 10SM SCT042 BKN050 BKN060 27/20 A2996 1040 64 2700 170/07 RMK AO2
94908KDBQ DBQ20000625145013406/25/00 14:50:31  5-MIN KDBQ 252050Z 16008KT 10SM SCT042 BKN050 BKN060 27/19 A2996 1040 62 2700 160/08 RMK AO2 SLP140 T02720194 55003
94908KDBQ DBQ20000625145512706/25/00 14:55:31  5-MIN KDBQ 252055Z 17008KT 10SM SCT040 SCT065 27/19 A2996 1050 64 2700 170/08 RMK AO2 SLP138 T02670194 56010
94908KDBQ DBQ20000625150011106/25/00 15:00:31  5-MIN KDBQ 252100Z 15007KT 10SM SCT040 BKN048 BKN065 27/19 A2995 1050 64 2700 150/07 RMK AO2
94908KDBQ DBQ20000625150511106/25/00 15:05:31  5-MIN KDBQ 252105Z 16012KT 10SM SCT040 SCT048 BKN065 27/20 A2995 1050 64 2700 160/12 RMK AO2
94908KDBQ DBQ20000625151010406/25/00 15:10:31  5-MIN KDBQ 252110Z 17011KT 10SM FEW040 BKN065 27/20 A2995 1050 64 2700 170/11 RMK AO2
94908KDBQ DBQ20000625151510406/25/00 15:15:31  5-MIN KDBQ 252115Z 17010KT 10SM FEW040 SCT070 27/20 A2995 1050 64 2700 170/10 RMK AO2
94908KDBQ DBQ20000625152010406/25/00 15:20:31  5-MIN KDBQ 252120Z 18011KT 10SM FEW040 SCT065 27/19 A2995 1050 64 2700 180/11 RMK AO2
94908KDBQ DBQ20000625152509706/25/00 15:25:31  5-MIN KDBQ 252125Z 17009KT 10SM FEW040 27/19 A2995 1050 64 2700 170/09 RMK AO2
94908KDBQ DBQ20000625153009706/25/00 15:30:31  5-MIN KDBQ 252130Z 18008KT 10SM SCT070 27/20 A2995 1050 66 2700 170/08 RMK AO2
94908KDBQ DBQ20000625153509706/25/00 15:35:31  5-MIN KDBQ 252135Z 18010KT 10SM SCT070 26/20 A2995 1050 68 2600 180/10 RMK AO2
94908KDBQ DBQ20000625154009706/25/00 15:40:31  5-MIN KDBQ 252140Z 18010KT 10SM SCT070 26/19 A2995 1050 66 2600 180/10 RMK AO2
94908KDBQ DBQ20000625154509706/25/00 15:45:31  5-MIN KDBQ 252145Z 18008KT 10SM SCT070 26/19 A2995 1050 66 2600 170/08 RMK AO2
94908KDBQ DBQ20000625155011406/25/00 15:50:31  5-MIN KDBQ 252150Z 17009KT 10SM SCT070 26/20 A2994 1060 68 2600 170/09 RMK AO2 SLP135 T02610200
94908KDBQ DBQ20000625155511406/25/00 15:55:31  5-MIN KDBQ 252155Z 16008KT 10SM FEW070 26/19 A2994 1060 66 2600 160/08 RMK AO2 SLP133 T02610194
94908KDBQ DBQ20000625160009706/25/00 16:00:31  5-MIN KDBQ 252200Z 17011KT 10SM FEW065 26/19 A2993 1070 66 2600 170/11 RMK AO2
94908KDBQ DBQ20000625160509406/25/00 16:05:31  5-MIN KDBQ 252205Z 17012KT 10SM CLR 26/19 A2993 1070 68 2600 170/12 RMK AO2
94908KDBQ DBQ20000625161009406/25/00 16:10:31  5-MIN KDBQ 252210Z 17010KT 10SM CLR 26/19 A2993 1070 68 2600 170/10 RMK AO2
94908KDBQ DBQ20000625161509406/25/00 16:15:31  5-MIN KDBQ 252215Z 17009KT 10SM CLR 26/19 A2994 1060 68 2600 170/09 RMK AO2
94908KDBQ DBQ20000625162009406/25/00 16:20:31  5-MIN KDBQ 252220Z 17008KT 10SM CLR 26/20 A2994 1060 71 2600 170/08 RMK AO2
94908KDBQ DBQ20000625162509706/25/00 16:25:31  5-MIN KDBQ 252225Z 17006KT 10SM FEW048 26/20 A2994 1060 71 2600 170/06 RMK AO2
94908KDBQ DBQ20000625163009706/25/00 16:30:31  5-MIN KDBQ 252230Z 18006KT 10SM FEW048 26/20 A2995 1050 71 2600 180/06 RMK AO2
94908KDBQ DBQ20000625163509406/25/00 16:35:31  5-MIN KDBQ 252235Z 18005KT 10SM CLR 26/20 A2995 1050 71 2500 180/05 RMK AO2
94908KDBQ DBQ20000625164009406/25/00 16:40:31  5-MIN KDBQ 252240Z 17007KT 10SM CLR 25/20 A2995 1050 73 2500 170/07 RMK AO2
94908KDBQ DBQ20000625164509406/25/00 16:45:31  5-MIN KDBQ 252245Z 17007KT 10SM CLR 25/20 A2995 1050 73 2500 170/07 RMK AO2
94908KDBQ DBQ20000625165011106/25/00 16:50:31  5-MIN KDBQ 252250Z 18007KT 10SM CLR 25/20 A2996 1050 73 2500 180/07 RMK AO2 SLP139 T02500200
94908KDBQ DBQ20000625165511106/25/00 16:55:31  5-MIN KDBQ 252255Z 18007KT 10SM CLR 25/20 A2996 1050 73 2500 180/07 RMK AO2 SLP139 T02500200
94908KDBQ DBQ20000625170009406/25/00 17:00:31  5-MIN KDBQ 252300Z 18006KT 10SM CLR 24/20 A2996 1050 76 2400 180/06 RMK AO2
94908KDBQ DBQ20000625170509406/25/00 17:05:31  5-MIN KDBQ 252305Z 17005KT 10SM CLR 24/20 A2995 1050 76 2400 170/05 RMK AO2
94908KDBQ DBQ20000625171009406/25/00 17:10:31  5-MIN KDBQ 252310Z 16004KT 10SM CLR 24/20 A2995 1050 76 2400 160/04 RMK AO2
94908KDBQ DBQ20000625171509406/25/00 17:15:31  5-MIN KDBQ 252315Z 17005KT 10SM CLR 24/21 A2995 1050 78 2400 170/05 RMK AO2
94908KDBQ DBQ20000625172009406/25/00 17:20:31  5-MIN KDBQ 252320Z 18005KT 10SM CLR 24/20 A2995 1050 76 2400 170/05 RMK AO2
94908KDBQ DBQ20000625172509406/25/00 17:25:31  5-MIN KDBQ 252325Z 18005KT 10SM CLR 24/20 A2995 1050 78 2400 170/05 RMK AO2
94908KDBQ DBQ20000625173009406/25/00 17:30:31  5-MIN KDBQ 252330Z 16005KT 10SM CLR 24/21 A2995 1050 81 2400 160/05 RMK AO2
94908KDBQ DBQ20000625173509706/25/00 17:35:31  5-MIN KDBQ 252335Z 17005KT 10SM FEW038 24/21 A2995 1060 81 2400 170/05 RMK AO2
94908KDBQ DBQ20000625174009706/25/00 17:40:31  5-MIN KDBQ 252340Z 18006KT 10SM FEW055 24/21 A2995 1060 81 2400 170/06 RMK AO2
94908KDBQ DBQ20000625174511106/25/00 17:45:31  5-MIN KDBQ 252345Z 18007KT 10SM FEW048 SCT060 SCT120 24/20 A2995 1050 78 2400 180/07 RMK AO2
94908KDBQ DBQ20000625175013206/25/00 17:50:31  5-MIN KDBQ 252350Z 18006KT 10SM FEW050 23/20 A2995 1060 81 2300 180/06 RMK AO2 SLP135 T02330200 10278 20233 56010
94908KDBQ DBQ20000625175514606/25/00 17:55:31  5-MIN KDBQ 252355Z 18005KT 10SM SCT050 SCT060 SCT110 23/20 A2994 1060 81 2300 180/05 RMK AO2 SLP134 T02330200 10278 20233 56005
94908KDBQ DBQ20000625180011106/25/00 18:00:31  5-MIN KDBQ 260000Z 17005KT 10SM FEW037 BKN055 BKN110 23/20 A2994 1060 81 2300 170/05 RMK AO2
94908KDBQ DBQ20000625180511106/25/00 18:05:31  5-MIN KDBQ 260005Z 17006KT 10SM SCT039 BKN050 BKN070 23/20 A2994 1060 81 2300 160/06 RMK AO2
94908KDBQ DBQ20000625181011106/25/00 18:10:31  5-MIN KDBQ 260010Z 18006KT 10SM SCT037 BKN047 BKN055 24/20 A2994 1060 78 2400 180/06 RMK AO2
94908KDBQ DBQ20000625181512706/25/00 18:15:31  5-MIN KDBQ 260015Z 31007KT 10SM -RA SCT037 BKN049 BKN085 23/21 A2995 1050 84 2300 310/07 RMK AO2 RAB12 P0000
94908KDBQ DBQ20000625182012706/25/00 18:20:31  5-MIN KDBQ 260020Z 28012KT 10SM -RA FEW017 BKN035 OVC090 22/20 A2996 1040 87 2200 280/12 RMK AO2 RAB12 P0000
94908KDBQ DBQ20000625182513306/25/00 18:25:31  5-MIN KDBQ 260025Z 30015G21KT 10SM -RA SCT019 BKN032 OVC060 21/19 A2996 1040 90 2000 300/15G21 RMK AO2 RAB12 P0001
94908KDBQ DBQ20000625183014506/25/00 18:30:31  5-MIN KDBQ 260030Z 30011G22KT 5SM RA BR FEW020 BKN030 OVC085 20/19 A2996 1040 93 1900 300/11G22 RMK AO2 WSHFT 0016 RAB12 P0007
94908KDBQ DBQ20000625183514406/25/00 18:35:31  5-MIN KDBQ 260035Z 30009KT 1 3/4SM +RA BR SCT006 BKN027 OVC034 20/18 A2997 1030 90 1900 300/09 RMK AO2 WSHFT 0016 RAB12 P0019
94908KDBQ DBQ20000625184014406/25/00 18:40:31  5-MIN KDBQ 260040Z VRB06KT 1 1/2SM +RA BR BKN011 BKN023 OVC032 19/18 A2997 1030 93 1800 VRB/06 RMK AO2 WSHFT 0016 RAB12 P0024
94908KDBQ DBQ20000625184515506/25/00 18:45:31  5-MIN KDBQ 260045Z AUTO 25004KT 2SM +RA BR BKN016 OVC026 20/19 A2997 1030 93 1900 250/04 RMK AO2 WSHFT 0016 VIS 1 1/2V3 RAB12 P0027 TSNO
94908KDBQ DBQ20000625185016306/25/00 18:50:31  5-MIN KDBQ 260050Z AUTO VRB03KT 2 1/2SM RA BR BKN020 OVC029 20/19 A2996 1040 93 1900 VRB/03 RMK AO2 WSHFT 0016 RAB12 SLP143 P0029 T02000189 TSNO
94908KDBQ DBQ20000625185515306/25/00 18:55:31  5-MIN KDBQ 260055Z AUTO 06007KT 4SM +RA BR OVC029 19/19 A2996 1040 97 1800 060/07 RMK AO2 WSHFT 0016 RAB12 SLP142 P0031 T01940189 TSNO
94908KDBQ DBQ20000625190011906/25/00 19:00:31  5-MIN KDBQ 260100Z AUTO 13006KT 6SM -RA BR OVC035 19/19 A2997 1030 97 1800 120/06 RMK AO2 P0000 TSNO
94908KDBQ DBQ20000625190512306/25/00 19:05:31  5-MIN KDBQ 260105Z AUTO 15005KT 7SM -RA FEW013 OVC035 19/19 A2997 1030 97 1800 150/05 RMK AO2 P0001 TSNO
94908KDBQ DBQ20000625191012506/25/00 19:10:31  5-MIN KDBQ 260110Z AUTO 17004KT 6SM RA BR FEW013 OVC033 19/19 A2996 1040 97 1800 170/04 RMK AO2 P0002 TSNO
94908KDBQ DBQ20000625191511806/25/00 19:15:31  5-MIN KDBQ 260115Z AUTO 15005KT 6SM RA BR OVC033 19/18 A2996 1040 93 1800 150/05 RMK AO2 P0003 TSNO
94908KDBQ DBQ20000625192011506/25/00 19:20:31  5-MIN KDBQ 260120Z AUTO 14007KT 7SM RA OVC033 19/18 A2995 1050 93 1800 140/07 RMK AO2 P0005 TSNO
94908KDBQ DBQ20000625192512206/25/00 19:25:31  5-MIN KDBQ 260125Z AUTO 13007KT 7SM RA OVC031 19/19 A2994 1060 97 1900 130/07 RMK AO2 PRESFR P0006 TSNO
94908KDBQ DBQ20000625193012506/25/00 19:30:31  5-MIN KDBQ 260130Z AUTO 13008KT 6SM RA BR OVC027 19/19 A2994 1060 97 1900 130/08 RMK AO2 PRESFR P0008 TSNO
94908KDBQ DBQ20000625193511806/25/00 19:35:31  5-MIN KDBQ 260135Z AUTO 15006KT 6SM RA BR OVC025 19/18 A2994 1060 93 1900 150/06 RMK AO2 P0009 TSNO
94908KDBQ DBQ20000625194011806/25/00 19:40:31  5-MIN KDBQ 260140Z AUTO 21005KT 6SM RA BR OVC025 19/18 A2995 1050 93 1900 210/05 RMK AO2 P0010 TSNO
94908KDBQ DBQ20000625194511806/25/00 19:45:31  5-MIN KDBQ 260145Z AUTO 20005KT 6SM RA BR OVC025 19/19 A2995 1050 97 1900 200/05 RMK AO2 P0012 TSNO
94908KDBQ DBQ20000625195013206/25/00 19:50:31  5-MIN KDBQ 260150Z AUTO 21005KT 7SM RA OVC025 19/19 A2995 1050 97 1900 200/05 RMK AO2 SLP136 P0012 T01940189 TSNO
94908KDBQ DBQ20000625195513306/25/00 19:55:31  5-MIN KDBQ 260155Z AUTO 19005KT 8SM -RA OVC023 19/18 A2995 1050 93 1800 190/05 RMK AO2 SLP137 P0013 T01940183 TSNO
94908KDBQ DBQ20000625200011706/25/00 20:00:31  5-MIN KDBQ 260200Z AUTO 15006KT 10SM -RA BKN023 19/18 A2995 1050 97 1800 150/06 RMK AO2 P0000 TSNO
94908KDBQ DBQ20000625200511706/25/00 20:05:31  5-MIN KDBQ 260205Z AUTO 16008KT 10SM -RA BKN023 19/18 A2995 1050 97 1800 160/08 RMK AO2 P0000 TSNO
94908KDBQ DBQ20000625201011706/25/00 20:10:31  5-MIN KDBQ 260210Z AUTO 16007KT 10SM -RA SCT021 19/18 A2995 1050 93 1800 160/07 RMK AO2 P0000 TSNO
94908KDBQ DBQ20000625201511906/25/00 20:15:31  5-MIN KDBQ 260215Z AUTO 14008KT 10SM FEW021 19/18 A2995 1050 93 1800 140/08 RMK AO2 RAE14 P0000 TSNO
94908KDBQ DBQ20000625202011906/25/00 20:20:31  5-MIN KDBQ 260220Z AUTO 13008KT 10SM FEW021 19/18 A2994 1060 93 1800 130/08 RMK AO2 RAE14 P0000 TSNO
94908KDBQ DBQ20000625202511606/25/00 20:25:31  5-MIN KDBQ 260225Z AUTO 14009KT 10SM CLR 19/18 A2994 1060 93 1800 140/09 RMK AO2 RAE14 P0000 TSNO
94908KDBQ DBQ20000625203011606/25/00 20:30:31  5-MIN KDBQ 260230Z AUTO 14009KT 10SM CLR 19/18 A2994 1060 93 1800 140/09 RMK AO2 RAE14 P0000 TSNO
94908KDBQ DBQ20000625203511606/25/00 20:35:31  5-MIN KDBQ 260235Z AUTO 15008KT 10SM CLR 19/18 A2994 1060 93 1800 150/08 RMK AO2 RAE14 P0000 TSNO
94908KDBQ DBQ20000625204011606/25/00 20:40:31  5-MIN KDBQ 260240Z AUTO 15007KT 10SM CLR 19/18 A2994 1060 93 1800 150/07 RMK AO2 RAE14 P0000 TSNO
94908KDBQ DBQ20000625204511606/25/00 20:45:31  5-MIN KDBQ 260245Z AUTO 14011KT 10SM CLR 19/18 A2994 1060 93 1800 130/11 RMK AO2 RAE14 P0000 TSNO
94908KDBQ DBQ20000625205014506/25/00 20:50:31  5-MIN KDBQ 260250Z AUTO 14008KT 10SM CLR 19/18 A2994 1060 93 1800 130/08 RMK AO2 RAE14 SLP132 P0000 60044 T01890178 56005 TSNO
94908KDBQ DBQ20000625205514506/25/00 20:55:31  5-MIN KDBQ 260255Z AUTO 14004KT 10SM CLR 19/18 A2994 1060 93 1800 140/04 RMK AO2 RAE14 SLP134 P0000 60044 T01890178 50000 TSNO
94908KDBQ DBQ20000625210010406/25/00 21:00:31  5-MIN KDBQ 260300Z AUTO 19005KT 10SM CLR 19/18 A2995 1050 93 1800 190/05 RMK AO2 TSNO
94908KDBQ DBQ20000625210510406/25/00 21:05:31  5-MIN KDBQ 260305Z AUTO 16008KT 10SM CLR 19/18 A2995 1060 93 1800 160/08 RMK AO2 TSNO
94908KDBQ DBQ20000625211010406/25/00 21:10:31  5-MIN KDBQ 260310Z AUTO 16007KT 10SM CLR 19/18 A2994 1060 93 1800 160/07 RMK AO2 TSNO
94908KDBQ DBQ20000625211510406/25/00 21:15:31  5-MIN KDBQ 260315Z AUTO 15006KT 10SM CLR 19/18 A2994 1060 93 1800 150/06 RMK AO2 TSNO
94908KDBQ DBQ20000625212010406/25/00 21:20:31  5-MIN KDBQ 260320Z AUTO 13008KT 10SM CLR 19/18 A2993 1070 93 1800 130/08 RMK AO2 TSNO
94908KDBQ DBQ20000625212510406/25/00 21:25:31  5-MIN KDBQ 260325Z AUTO 15006KT 10SM CLR 19/18 A2993 1070 93 1800 150/06 RMK AO2 TSNO
94908KDBQ DBQ20000625213010406/25/00 21:30:31  5-MIN KDBQ 260330Z AUTO 13009KT 10SM CLR 19/18 A2993 1070 93 1800 130/09 RMK AO2 TSNO
94908KDBQ DBQ20000625213510406/25/00 21:35:31  5-MIN KDBQ 260335Z AUTO 13011KT 10SM CLR 19/18 A2992 1080 93 1800 130/11 RMK AO2 TSNO
94908KDBQ DBQ20000625214010406/25/00 21:40:31  5-MIN KDBQ 260340Z AUTO 14010KT 10SM CLR 19/17 A2991 1080 87 1900 140/10 RMK AO2 TSNO
94908KDBQ DBQ20000625214510406/25/00 21:45:31  5-MIN KDBQ 260345Z AUTO 14010KT 10SM CLR 19/17 A2991 1090 87 1900 140/10 RMK AO2 TSNO
94908KDBQ DBQ20000625215012106/25/00 21:50:31  5-MIN KDBQ 260350Z AUTO 15010KT 10SM CLR 19/17 A2991 1090 87 1900 150/10 RMK AO2 SLP123 T01940172 TSNO
94908KDBQ DBQ20000625215512106/25/00 21:55:31  5-MIN KDBQ 260355Z AUTO 16011KT 10SM CLR 19/17 A2991 1090 87 1900 160/11 RMK AO2 SLP122 T01940172 TSNO
94908KDBQ DBQ20000625220010406/25/00 22:00:31  5-MIN KDBQ 260400Z AUTO 16012KT 10SM CLR 20/17 A2991 1090 84 2000 160/12 RMK AO2 TSNO
94908KDBQ DBQ20000625220510406/25/00 22:05:31  5-MIN KDBQ 260405Z AUTO 16013KT 10SM CLR 19/17 A2990 1090 87 1900 160/13 RMK AO2 TSNO
94908KDBQ DBQ20000625221010406/25/00 22:10:31  5-MIN KDBQ 260410Z AUTO 16013KT 10SM CLR 19/17 A2991 1090 87 1900 160/13 RMK AO2 TSNO
94908KDBQ DBQ20000625221510406/25/00 22:15:31  5-MIN KDBQ 260415Z AUTO 16013KT 10SM CLR 19/17 A2991 1090 87 1900 160/13 RMK AO2 TSNO
94908KDBQ DBQ20000625222010406/25/00 22:20:31  5-MIN KDBQ 260420Z AUTO 16011KT 10SM CLR 19/18 A2991 1090 93 1800 160/11 RMK AO2 TSNO
94908KDBQ DBQ20000625222510406/25/00 22:25:31  5-MIN KDBQ 260425Z AUTO 17009KT 10SM CLR 19/18 A2991 1090 93 1800 170/09 RMK AO2 TSNO
94908KDBQ DBQ20000625223010706/25/00 22:30:31  5-MIN KDBQ 260430Z AUTO 16010KT 10SM FEW100 19/18 A2990 1090 93 1800 160/10 RMK AO2 TSNO
94908KDBQ DBQ20000625223510706/25/00 22:35:31  5-MIN KDBQ 260435Z AUTO 16011KT 10SM FEW085 19/18 A2990 1100 90 1900 160/11 RMK AO2 TSNO
94908KDBQ DBQ20000625224010706/25/00 22:40:31  5-MIN KDBQ 260440Z AUTO 16010KT 10SM FEW090 19/18 A2989 1110 90 1900 160/10 RMK AO2 TSNO
94908KDBQ DBQ20000625224510706/25/00 22:45:31  5-MIN KDBQ 260445Z AUTO 16010KT 10SM FEW095 19/18 A2989 1110 93 1900 160/10 RMK AO2 TSNO
94908KDBQ DBQ20000625225012406/25/00 22:50:31  5-MIN KDBQ 260450Z AUTO 15010KT 10SM FEW090 19/18 A2988 1110 93 1900 150/10 RMK AO2 SLP113 T01940183 TSNO
94908KDBQ DBQ20000625225512106/25/00 22:55:31  5-MIN KDBQ 260455Z AUTO 15009KT 10SM CLR 19/18 A2988 1120 93 1900 150/09 RMK AO2 SLP112 T01940183 TSNO
94908KDBQ DBQ20000625230010406/25/00 23:00:31  5-MIN KDBQ 260500Z AUTO 16007KT 10SM CLR 19/18 A2989 1100 93 1900 160/07 RMK AO2 TSNO
94908KDBQ DBQ20000625230512706/25/00 23:05:31  5-MIN KDBQ 260505Z AUTO 29008KT 240V320 10SM CLR 19/18 A2991 1090 93 1900 290/08 240V320 RMK AO2 PRESRR TSNO
94908KDBQ DBQ20000625231011306/25/00 23:10:31  5-MIN KDBQ 260510Z AUTO 31012G16KT 10SM FEW009 19/18 A2991 1080 90 1900 310/12G16 RMK AO2 TSNO
94908KDBQ DBQ20000625231511306/25/00 23:15:31  5-MIN KDBQ 260515Z AUTO VRB06G21KT 10SM SCT009 19/18 A2991 1090 90 1900 VRB/06G21 RMK AO2 TSNO
94908KDBQ DBQ20000625232011306/25/00 23:20:31  5-MIN KDBQ 260520Z AUTO 32011G21KT 10SM FEW009 20/18 A2992 1080 87 1900 320/11G21 RMK AO2 TSNO
94908KDBQ DBQ20000625232512006/25/00 23:25:31  5-MIN KDBQ 260525Z AUTO 32009G14KT 10SM FEW009 SCT024 19/18 A2992 1080 90 1900 320/09G14 RMK AO2 TSNO
94908KDBQ DBQ20000625233011406/25/00 23:30:31  5-MIN KDBQ 260530Z AUTO 30005KT 10SM FEW009 BKN024 19/18 A2992 1080 90 1900 300/05 RMK AO2 TSNO
94908KDBQ DBQ20000625233511406/25/00 23:35:31  5-MIN KDBQ 260535Z AUTO 30006KT 10SM FEW009 BKN024 19/18 A2992 1070 90 1900 300/06 RMK AO2 TSNO
94908KDBQ DBQ20000625234011406/25/00 23:40:31  5-MIN KDBQ 260540Z AUTO 30007KT 10SM FEW011 BKN024 19/18 A2992 1080 90 1900 300/07 RMK AO2 TSNO
94908KDBQ DBQ20000625234510706/25/00 23:45:31  5-MIN KDBQ 260545Z AUTO 30006KT 10SM OVC022 19/18 A2992 1080 93 1900 300/06 RMK AO2 TSNO
94908KDBQ DBQ20000625235015806/25/00 23:50:31  5-MIN KDBQ 260550Z AUTO 30004KT 10SM OVC022 19/18 A2992 1080 93 1900 290/04 RMK AO2 SLP124 60044 T01940183 10239 20189 402780161 50000 TSNO
94908KDBQ DBQ20000625235515806/25/00 23:55:31  5-MIN KDBQ 260555Z AUTO 28003KT 10SM OVC022 19/18 A2992 1080 93 1900 280/03 RMK AO2 SLP124 60044 T01940183 10239 20189 402780161 55008 TSNO
94908KDBQ DBQ20000626000011406/26/00 00:00:31  5-MIN KDBQ 260600Z AUTO 00000KT 10SM BKN022 OVC028 20/18 A2992 1080 90 2000 000/00 RMK AO2 TSNO
94908KDBQ DBQ20000626000512106/26/00 00:05:31  5-MIN KDBQ 260605Z AUTO 00000KT 10SM BKN022 BKN028 OVC065 19/18 A2991 1090 93 1900 000/00 RMK AO2 TSNO
94908KDBQ DBQ20000626001012106/26/00 00:10:31  5-MIN KDBQ 260610Z AUTO 00000KT 10SM BKN022 BKN028 BKN065 19/18 A2991 1090 93 1900 000/00 RMK AO2 TSNO
94908KDBQ DBQ20000626001511406/26/00 00:15:31  5-MIN KDBQ 260615Z AUTO 00000KT 10SM FEW022 SCT028 19/18 A2991 1090 93 1900 000/00 RMK AO2 TSNO
94908KDBQ DBQ20000626002010706/26/00 00:20:31  5-MIN KDBQ 260620Z AUTO 00000KT 10SM FEW024 19/18 A2990 1090 90 1900 000/00 RMK AO2 TSNO
94908KDBQ DBQ20000626002510706/26/00 00:25:31  5-MIN KDBQ 260625Z AUTO 00000KT 10SM FEW024 19/18 A2990 1100 93 1900 000/00 RMK AO2 TSNO
94908KDBQ DBQ20000626003010406/26/00 00:30:31  5-MIN KDBQ 260630Z AUTO 00000KT 10SM CLR 19/18 A2990 1100 90 1900 000/00 RMK AO2 TSNO
94908KDBQ DBQ20000626003510406/26/00 00:35:31  5-MIN KDBQ 260635Z AUTO 16003KT 10SM CLR 19/18 A2990 1090 93 1800 160/03 RMK AO2 TSNO
94908KDBQ DBQ20000626004010406/26/00 00:40:31  5-MIN KDBQ 260640Z AUTO 18003KT 10SM CLR 19/18 A2991 1090 97 1800 180/03 RMK AO2 TSNO
94908KDBQ DBQ20000626004510406/26/00 00:45:31  5-MIN KDBQ 260645Z AUTO 20003KT 10SM CLR 19/18 A2991 1090 93 1900 200/03 RMK AO2 TSNO
94908KDBQ DBQ20000626005012106/26/00 00:50:31  5-MIN KDBQ 260650Z AUTO 21004KT 10SM CLR 19/18 A2990 1090 97 1800 210/04 RMK AO2 SLP119 T01890183 TSNO
94908KDBQ DBQ20000626005512406/26/00 00:55:31  5-MIN KDBQ 260655Z AUTO 22003KT 10SM SCT120 19/18 A2990 1100 93 1900 220/03 RMK AO2 SLP119 T01940183 TSNO
94908KDBQ DBQ20000626010010706/26/00 01:00:31  5-MIN KDBQ 260700Z AUTO 22003KT 10SM BKN120 19/18 A2990 1100 93 1900 220/03 RMK AO2 TSNO
94908KDBQ DBQ20000626010510706/26/00 01:05:31  5-MIN KDBQ 260705Z AUTO 00000KT 10SM BKN120 19/18 A2990 1100 93 1900 000/00 RMK AO2 TSNO
94908KDBQ DBQ20000626011010706/26/00 01:10:31  5-MIN KDBQ 260710Z AUTO 00000KT 10SM BKN120 19/18 A2989 1100 93 1900 000/00 RMK AO2 TSNO
94908KDBQ DBQ20000626011510706/26/00 01:15:31  5-MIN KDBQ 260715Z AUTO 00000KT 10SM BKN120 19/18 A2989 1110 93 1900 000/00 RMK AO2 TSNO
94908KDBQ DBQ20000626012010706/26/00 01:20:31  5-MIN KDBQ 260720Z AUTO 19003KT 10SM BKN120 19/18 A2989 1110 93 1900 180/03 RMK AO2 TSNO
94908KDBQ DBQ20000626012510706/26/00 01:25:31  5-MIN KDBQ 260725Z AUTO 18003KT 10SM SCT120 19/18 A2989 1110 93 1900 180/03 RMK AO2 TSNO
94908KDBQ DBQ20000626013010706/26/00 01:30:31  5-MIN KDBQ 260730Z AUTO 18004KT 10SM SCT120 19/18 A2989 1110 97 1900 180/04 RMK AO2 TSNO
94908KDBQ DBQ20000626013510706/26/00 01:35:31  5-MIN KDBQ 260735Z AUTO 20004KT 10SM FEW120 19/18 A2989 1110 97 1900 200/04 RMK AO2 TSNO
94908KDBQ DBQ20000626014010706/26/00 01:40:31  5-MIN KDBQ 260740Z AUTO 19004KT 10SM SCT100 19/18 A2988 1110 93 1900 190/04 RMK AO2 TSNO
94908KDBQ DBQ20000626014510706/26/00 01:45:31  5-MIN KDBQ 260745Z AUTO 18004KT 10SM SCT100 19/18 A2988 1120 93 1900 180/04 RMK AO2 TSNO
94908KDBQ DBQ20000626015012406/26/00 01:50:31  5-MIN KDBQ 260750Z AUTO 16003KT 10SM FEW100 19/18 A2988 1120 93 1900 160/03 RMK AO2 SLP111 T01940183 TSNO
94908KDBQ DBQ20000626015512406/26/00 01:55:31  5-MIN KDBQ 260755Z AUTO 16004KT 10SM FEW100 19/18 A2987 1120 93 1900 160/04 RMK AO2 SLP110 T01890178 TSNO
94908KDBQ DBQ20000626020010706/26/00 02:00:31  5-MIN KDBQ 260800Z AUTO 18004KT 10SM FEW100 19/18 A2987 1120 93 1900 180/04 RMK AO2 TSNO
94908KDBQ DBQ20000626020510706/26/00 02:05:31  5-MIN KDBQ 260805Z AUTO 17003KT 10SM FEW100 19/18 A2987 1120 93 1900 170/03 RMK AO2 TSNO
94908KDBQ DBQ20000626021010706/26/00 02:10:31  5-MIN KDBQ 260810Z AUTO 17004KT 10SM SCT110 19/18 A2988 1120 90 1900 170/04 RMK AO2 TSNO
94908KDBQ DBQ20000626021510706/26/00 02:15:31  5-MIN KDBQ 260815Z AUTO 16004KT 10SM BKN100 19/18 A2987 1120 90 1900 160/04 RMK AO2 TSNO
94908KDBQ DBQ20000626022011406/26/00 02:20:31  5-MIN KDBQ 260820Z AUTO 17004KT 10SM SCT090 BKN110 19/18 A2987 1120 90 1900 170/04 RMK AO2 TSNO
94908KDBQ DBQ20000626022511406/26/00 02:25:31  5-MIN KDBQ 260825Z AUTO 17005KT 10SM BKN090 BKN110 19/18 A2988 1120 93 1900 170/05 RMK AO2 TSNO
94908KDBQ DBQ20000626023011406/26/00 02:30:31  5-MIN KDBQ 260830Z AUTO 18004KT 10SM BKN090 OVC110 19/18 A2988 1120 93 1900 180/04 RMK AO2 TSNO
94908KDBQ DBQ20000626023511406/26/00 02:35:31  5-MIN KDBQ 260835Z AUTO 17004KT 10SM BKN090 OVC100 19/18 A2988 1120 93 1900 160/04 RMK AO2 TSNO
94908KDBQ DBQ20000626024010706/26/00 02:40:31  5-MIN KDBQ 260840Z AUTO 18004KT 10SM OVC090 19/18 A2988 1120 93 1900 180/04 RMK AO2 TSNO
94908KDBQ DBQ20000626024510706/26/00 02:45:31  5-MIN KDBQ 260845Z AUTO 17005KT 10SM OVC090 19/18 A2988 1120 93 1900 170/05 RMK AO2 TSNO
94908KDBQ DBQ20000626025013006/26/00 02:50:31  5-MIN KDBQ 260850Z AUTO 17004KT 10SM OVC090 19/18 A2988 1120 93 1900 170/04 RMK AO2 SLP110 T01940183 55008 TSNO
94908KDBQ DBQ20000626025513006/26/00 02:55:31  5-MIN KDBQ 260855Z AUTO 16005KT 10SM BKN095 19/18 A2988 1120 93 1900 160/05 RMK AO2 SLP111 T01940183 55013 TSNO
94908KDBQ DBQ20000626030010706/26/00 03:00:31  5-MIN KDBQ 260900Z AUTO 16005KT 10SM BKN090 19/18 A2988 1120 90 1900 160/05 RMK AO2 TSNO
94908KDBQ DBQ20000626030510706/26/00 03:05:31  5-MIN KDBQ 260905Z AUTO 17004KT 10SM BKN095 19/18 A2988 1120 90 1900 170/04 RMK AO2 TSNO
94908KDBQ DBQ20000626031010706/26/00 03:10:31  5-MIN KDBQ 260910Z AUTO 17004KT 10SM BKN095 19/18 A2988 1110 90 1900 170/04 RMK AO2 TSNO
94908KDBQ DBQ20000626031510706/26/00 03:15:31  5-MIN KDBQ 260915Z AUTO 24003KT 10SM SCT095 19/18 A2988 1110 93 1900 240/03 RMK AO2 TSNO
94908KDBQ DBQ20000626032010706/26/00 03:20:31  5-MIN KDBQ 260920Z AUTO 20004KT 10SM BKN095 19/18 A2988 1110 93 1900 200/04 RMK AO2 TSNO
94908KDBQ DBQ20000626032510706/26/00 03:25:31  5-MIN KDBQ 260925Z AUTO 00000KT 10SM BKN090 19/18 A2988 1120 93 1900 000/00 RMK AO2 TSNO
94908KDBQ DBQ20000626033010706/26/00 03:30:31  5-MIN KDBQ 260930Z AUTO 19003KT 10SM BKN090 19/18 A2988 1120 93 1900 190/03 RMK AO2 TSNO
94908KDBQ DBQ20000626033510706/26/00 03:35:31  5-MIN KDBQ 260935Z AUTO 19003KT 10SM BKN090 19/18 A2988 1120 93 1900 190/03 RMK AO2 TSNO
94908KDBQ DBQ20000626034010706/26/00 03:40:31  5-MIN KDBQ 260940Z AUTO 18003KT 10SM OVC090 19/18 A2987 1120 90 1900 180/03 RMK AO2 TSNO
94908KDBQ DBQ20000626034510706/26/00 03:45:31  5-MIN KDBQ 260945Z AUTO 19004KT 10SM OVC090 19/18 A2988 1120 90 1900 190/04 RMK AO2 TSNO
94908KDBQ DBQ20000626035012406/26/00 03:50:31  5-MIN KDBQ 260950Z AUTO 25005KT 10SM OVC085 19/18 A2988 1110 93 1900 250/05 RMK AO2 SLP113 T01890178 TSNO
94908KDBQ DBQ20000626035512406/26/00 03:55:31  5-MIN KDBQ 260955Z AUTO 26005KT 10SM OVC085 19/18 A2989 1110 93 1900 260/05 RMK AO2 SLP115 T01890178 TSNO
94908KDBQ DBQ20000626040010706/26/00 04:00:31  5-MIN KDBQ 261000Z AUTO 21005KT 10SM OVC080 19/18 A2989 1110 93 1900 210/05 RMK AO2 TSNO
94908KDBQ DBQ20000626040510706/26/00 04:05:31  5-MIN KDBQ 261005Z AUTO 18005KT 10SM OVC080 19/18 A2989 1100 93 1900 180/05 RMK AO2 TSNO
94908KDBQ DBQ20000626041010706/26/00 04:10:31  5-MIN KDBQ 261010Z AUTO 19005KT 10SM OVC080 19/18 A2989 1100 93 1900 180/05 RMK AO2 TSNO
94908KDBQ DBQ20000626041510706/26/00 04:15:31  5-MIN KDBQ 261015Z AUTO 20005KT 10SM OVC080 19/18 A2989 1100 90 1900 200/05 RMK AO2 TSNO
94908KDBQ DBQ20000626042010706/26/00 04:20:31  5-MIN KDBQ 261020Z AUTO 19005KT 10SM OVC080 19/18 A2989 1110 93 1900 190/05 RMK AO2 TSNO
94908KDBQ DBQ20000626042510706/26/00 04:25:31  5-MIN KDBQ 261025Z AUTO 20005KT 10SM OVC085 19/18 A2989 1100 93 1900 200/05 RMK AO2 TSNO
94908KDBQ DBQ20000626043010706/26/00 04:30:31  5-MIN KDBQ 261030Z AUTO 20006KT 10SM OVC085 19/18 A2989 1100 93 1900 200/06 RMK AO2 TSNO
94908KDBQ DBQ20000626043510706/26/00 04:35:31  5-MIN KDBQ 261035Z AUTO 23006KT 10SM OVC090 19/18 A2990 1100 93 1800 230/06 RMK AO2 TSNO
94908KDBQ DBQ20000626044011406/26/00 04:40:31  5-MIN KDBQ 261040Z AUTO 23005KT 10SM FEW039 OVC090 19/18 A2990 1100 93 1800 230/05 RMK AO2 TSNO
94908KDBQ DBQ20000626044511406/26/00 04:45:31  5-MIN KDBQ 261045Z AUTO 22006KT 10SM SCT041 OVC090 19/18 A2990 1090 93 1800 220/06 RMK AO2 TSNO
94908KDBQ DBQ20000626045012106/26/00 04:50:31  5-MIN KDBQ 261050Z 21005KT 10SM BKN041 OVC090 19/18 A2990 1100 93 1800 210/05 RMK AO2 SLP120 T01890178
94908KDBQ DBQ20000626045512106/26/00 04:55:31  5-MIN KDBQ 261055Z 21005KT 10SM BKN041 OVC095 19/18 A2990 1100 93 1800 210/05 RMK AO2 SLP120 T01890178
94908KDBQ DBQ20000626050010406/26/00 05:00:31  5-MIN KDBQ 261100Z 21004KT 10SM SCT041 BKN090 18/18 A2990 1100 96 1800 210/04 RMK AO2
94908KDBQ DBQ20000626050510406/26/00 05:05:31  5-MIN KDBQ 261105Z 21004KT 10SM SCT041 OVC090 18/18 A2990 1100 96 1800 210/04 RMK AO2
94908KDBQ DBQ20000626051010406/26/00 05:10:31  5-MIN KDBQ 261110Z 21004KT 10SM SCT041 OVC090 19/18 A2990 1100 93 1800 200/04 RMK AO2
94908KDBQ DBQ20000626051510406/26/00 05:15:31  5-MIN KDBQ 261115Z 21003KT 10SM FEW041 OVC085 19/18 A2990 1100 93 1800 210/03 RMK AO2
94908KDBQ DBQ20000626052010406/26/00 05:20:31  5-MIN KDBQ 261120Z 22003KT 10SM FEW065 OVC085 19/18 A2990 1100 93 1800 210/03 RMK AO2
94908KDBQ DBQ20000626052510406/26/00 05:25:31  5-MIN KDBQ 261125Z 20003KT 10SM FEW065 OVC085 19/18 A2990 1100 93 1800 200/03 RMK AO2
94908KDBQ DBQ20000626053010406/26/00 05:30:31  5-MIN KDBQ 261130Z 20003KT 10SM FEW065 OVC085 19/18 A2990 1100 97 1800 200/03 RMK AO2
94908KDBQ DBQ20000626053510406/26/00 05:35:31  5-MIN KDBQ 261135Z 21004KT 10SM FEW035 OVC085 19/18 A2990 1100 93 1800 200/04 RMK AO2
94908KDBQ DBQ20000626054011106/26/00 05:40:31  5-MIN KDBQ 261140Z 20003KT 10SM SCT037 SCT043 OVC080 19/18 A2990 1100 93 1800 200/03 RMK AO2
94908KDBQ DBQ20000626054511106/26/00 05:45:31  5-MIN KDBQ 261145Z 21004KT 10SM BKN039 BKN065 OVC080 19/18 A2990 1090 93 1800 210/04 RMK AO2
94908KDBQ DBQ20000626055014506/26/00 05:50:31  5-MIN KDBQ 261150Z 22005KT 10SM BKN039 OVC080 19/18 A2990 1090 97 1800 220/05 RMK AO2 SLP121 70044 T01890183 10200 20183 55013
94908KDBQ DBQ20000626055514506/26/00 05:55:31  5-MIN KDBQ 261155Z 22005KT 10SM BKN039 OVC080 19/18 A2990 1090 93 1800 220/05 RMK AO2 SLP121 70044 T01890178 10200 20183 51008
94908KDBQ DBQ20000626060009706/26/00 06:00:31  5-MIN KDBQ 261200Z 22004KT 10SM OVC037 19/18 A2990 1100 93 1800 220/04 RMK AO2
94908KDBQ DBQ20000626060509706/26/00 06:05:31  5-MIN KDBQ 261205Z 23003KT 10SM OVC039 19/18 A2990 1100 93 1800 230/03 RMK AO2
94908KDBQ DBQ20000626061009706/26/00 06:10:31  5-MIN KDBQ 261210Z 23004KT 10SM OVC039 19/18 A2990 1100 90 1900 230/04 RMK AO2
94908KDBQ DBQ20000626061510406/26/00 06:15:31  5-MIN KDBQ 261215Z 24005KT 10SM BKN039 OVC080 19/18 A2990 1100 90 1900 230/05 RMK AO2
94908KDBQ DBQ20000626062010406/26/00 06:20:31  5-MIN KDBQ 261220Z 24005KT 10SM BKN039 OVC075 19/18 A2990 1100 90 1900 240/05 RMK AO2
94908KDBQ DBQ20000626062509706/26/00 06:25:31  5-MIN KDBQ 261225Z 24005KT 10SM OVC039 19/18 A2990 1090 90 1900 230/05 RMK AO2
94908KDBQ DBQ20000626063009706/26/00 06:30:31  5-MIN KDBQ 261230Z 24006KT 10SM OVC039 19/18 A2990 1100 90 1900 240/06 RMK AO2
94908KDBQ DBQ20000626063511106/26/00 06:35:31  5-MIN KDBQ 261235Z 25007KT 10SM BKN039 BKN048 OVC080 19/18 A2990 1100 90 1900 250/07 RMK AO2
94908KDBQ DBQ20000626064010406/26/00 06:40:31  5-MIN KDBQ 261240Z 25008KT 10SM BKN039 OVC048 19/18 A2990 1090 90 1900 250/08 RMK AO2
94908KDBQ DBQ20000626064510406/26/00 06:45:31  5-MIN KDBQ 261245Z 26007KT 10SM BKN039 BKN048 19/18 A2990 1090 90 1900 260/07 RMK AO2
94908KDBQ DBQ20000626065012806/26/00 06:50:31  5-MIN KDBQ 261250Z 25009KT 10SM BKN039 BKN048 BKN085 20/18 A2990 1090 87 2000 250/09 RMK AO2 SLP122 T02000178
94908KDBQ DBQ20000626065512806/26/00 06:55:31  5-MIN KDBQ 261255Z 26007KT 10SM BKN020 BKN048 BKN085 20/18 A2990 1090 90 2000 260/07 RMK AO2 SLP122 T02000183
94908KDBQ DBQ20000626070011106/26/00 07:00:31  5-MIN KDBQ 261300Z 27007KT 10SM BKN012 BKN038 OVC085 20/18 A2990 1090 90 2000 270/07 RMK AO2
94908KDBQ DBQ20000626070511106/26/00 07:05:31  5-MIN KDBQ 261305Z 26007KT 10SM BKN012 BKN038 OVC085 20/18 A2990 1090 90 2000 260/07 RMK AO2
94908KDBQ DBQ20000626071011106/26/00 07:10:31  5-MIN KDBQ 261310Z 26008KT 10SM BKN012 BKN038 OVC085 19/18 A2991 1090 90 1900 260/08 RMK AO2
94908KDBQ DBQ20000626071510406/26/00 07:15:31  5-MIN KDBQ 261315Z 26009KT 10SM BKN012 OVC038 19/18 A2990 1090 90 1900 260/09 RMK AO2
94908KDBQ DBQ20000626072010406/26/00 07:20:31  5-MIN KDBQ 261320Z 26008KT 10SM BKN012 OVC038 19/18 A2991 1090 90 1900 260/08 RMK AO2
94908KDBQ DBQ20000626072510406/26/00 07:25:31  5-MIN KDBQ 261325Z 27009KT 10SM BKN012 OVC040 19/18 A2991 1090 93 1900 260/09 RMK AO2
94908KDBQ DBQ20000626073011606/26/00 07:30:31  5-MIN KDBQ 261330Z 28012KT 10SM BKN010 OVC040 19/18 A2991 1090 93 1900 280/12 RMK AO2 CIG 009V013
94908KDBQ DBQ20000626073511606/26/00 07:35:31  5-MIN KDBQ 261335Z 27008KT 10SM BKN010 OVC038 19/18 A2991 1090 93 1900 270/08 RMK AO2 CIG 008V013
94908KDBQ DBQ20000626074010906/26/00 07:40:31  5-MIN KDBQ 261340Z 28010KT 10SM OVC010 19/18 A2991 1090 93 1900 280/10 RMK AO2 CIG 007V013
94908KDBQ DBQ20000626074510906/26/00 07:45:31  5-MIN KDBQ 261345Z 29012KT 10SM OVC010 19/18 A2991 1090 93 1900 290/12 RMK AO2 CIG 007V012
94908KDBQ DBQ20000626075012606/26/00 07:50:31  5-MIN KDBQ 261350Z 30013KT 10SM OVC008 19/18 A2992 1080 93 1900 300/13 RMK AO2 CIG 007V012 SLP127 T01940183
94908KDBQ DBQ20000626075512606/26/00 07:55:31  5-MIN KDBQ 261355Z 32015KT 10SM OVC010 19/18 A2991 1080 93 1900 320/15 RMK AO2 CIG 007V012 SLP126 T01940183
94908KDBQ DBQ20000626080010906/26/00 08:00:31  5-MIN KDBQ 261400Z 32011KT 10SM OVC010 19/18 A2991 1090 90 1900 320/11 RMK AO2 CIG 007V012
94908KDBQ DBQ20000626080510906/26/00 08:05:31  5-MIN KDBQ 261405Z 33012KT 10SM OVC010 19/18 A2992 1080 93 1900 320/12 RMK AO2 CIG 007V012
94908KDBQ DBQ20000626081010906/26/00 08:10:31  5-MIN KDBQ 261410Z 32014KT 10SM OVC010 19/18 A2992 1080 90 1900 320/14 RMK AO2 CIG 007V015
94908KDBQ DBQ20000626081511606/26/00 08:15:31  5-MIN KDBQ 261415Z 33014KT 10SM BKN010 OVC013 19/18 A2993 1070 90 1900 330/14 RMK AO2 CIG 007V011
94908KDBQ DBQ20000626082010906/26/00 08:20:31  5-MIN KDBQ 261420Z 32010KT 10SM OVC010 19/18 A2993 1070 90 1900 320/10 RMK AO2 CIG 007V014
94908KDBQ DBQ20000626082510906/26/00 08:25:31  5-MIN KDBQ 261425Z 32013KT 10SM OVC010 19/18 A2993 1070 90 1900 320/13 RMK AO2 CIG 007V014
94908KDBQ DBQ20000626083012206/26/00 08:30:31  5-MIN KDBQ 261430Z 32016G20KT 10SM BKN010 OVC015 19/18 A2993 1070 90 1900 320/16G20 RMK AO2 CIG 007V012
94908KDBQ DBQ20000626083511606/26/00 08:35:31  5-MIN KDBQ 261435Z 32013KT 10SM BKN010 OVC015 19/18 A2994 1060 90 1900 320/13 RMK AO2 CIG 007V013
94908KDBQ DBQ20000626084011606/26/00 08:40:31  5-MIN KDBQ 261440Z 32014KT 10SM BKN010 OVC017 20/18 A2994 1060 87 1900 320/14 RMK AO2 CIG 007V012
94908KDBQ DBQ20000626084512206/26/00 08:45:31  5-MIN KDBQ 261445Z 32014G20KT 10SM BKN010 OVC017 20/18 A2994 1060 87 1900 320/14G20 RMK AO2 CIG 007V012
94908KDBQ DBQ20000626085013306/26/00 08:50:31  5-MIN KDBQ 261450Z 32015G20KT 10SM BKN010 OVC017 20/18 A2994 1060 87 1900 320/15G20 RMK AO2 SLP134 T02000178 51008
94908KDBQ DBQ20000626085512006/26/00 08:55:31  5-MIN KDBQ 261455Z 33017KT 10SM OVC015 20/17 A2994 1060 84 1900 330/17 RMK AO2 SLP134 T02000172 53011
94908KDBQ DBQ20000626090011006/26/00 09:00:31  5-MIN KDBQ 261500Z 33013G21KT 10SM BKN015 OVC022 21/18 A2994 1060 84 2000 330/13G21 RMK AO2
94908KDBQ DBQ20000626090511006/26/00 09:05:31  5-MIN KDBQ 261505Z 34014G20KT 10SM BKN015 OVC022 21/18 A2994 1060 81 2100 330/14G20 RMK AO2
94908KDBQ DBQ20000626091011006/26/00 09:10:31  5-MIN KDBQ 261510Z 32013G20KT 10SM BKN016 OVC022 20/17 A2994 1060 84 1900 320/13G20 RMK AO2
94908KDBQ DBQ20000626091510406/26/00 09:15:31  5-MIN KDBQ 261515Z 32016KT 10SM BKN016 OVC022 20/17 A2994 1060 84 1900 320/16 RMK AO2
94908KDBQ DBQ20000626092011106/26/00 09:20:31  5-MIN KDBQ 261520Z 32014KT 10SM SCT016 BKN024 OVC028 20/17 A2994 1060 84 1900 320/14 RMK AO2
94908KDBQ DBQ20000626092510406/26/00 09:25:31  5-MIN KDBQ 261525Z 32012KT 10SM SCT016 OVC024 21/17 A2994 1060 81 2000 320/12 RMK AO2
94908KDBQ DBQ20000626093010406/26/00 09:30:31  5-MIN KDBQ 261530Z 33013KT 10SM SCT016 OVC024 21/17 A2995 1060 81 2000 320/13 RMK AO2
94908KDBQ DBQ20000626093511106/26/00 09:35:31  5-MIN KDBQ 261535Z 32013KT 10SM SCT014 BKN023 OVC028 20/17 A2995 1050 84 1900 320/13 RMK AO2
94908KDBQ DBQ20000626094011106/26/00 09:40:31  5-MIN KDBQ 261540Z 31015KT 10SM SCT014 BKN019 OVC029 20/17 A2995 1050 84 1900 310/15 RMK AO2
94908KDBQ DBQ20000626094511106/26/00 09:45:31  5-MIN KDBQ 261545Z 31016KT 10SM BKN014 BKN029 OVC036 19/17 A2996 1050 87 1800 310/16 RMK AO2
94908KDBQ DBQ20000626095012806/26/00 09:50:31  5-MIN KDBQ 261550Z 31016KT 10SM BKN014 BKN020 OVC027 19/17 A2996 1040 84 1800 310/16 RMK AO2 SLP141 T01940167
94908KDBQ DBQ20000626095512706/26/00 09:55:31  5-MIN KDBQ 261555Z 32011G21KT 10SM BKN014 OVC023 20/17 A2996 1040 84 1900 320/11G21 RMK AO2 SLP141 T02000172
94908KDBQ DBQ20000626100010406/26/00 10:00:31  5-MIN KDBQ 261600Z 32014KT 10SM BKN014 OVC024 20/17 A2996 1040 84 1900 320/14 RMK AO2
94908KDBQ DBQ20000626100511106/26/00 10:05:31  5-MIN KDBQ 261605Z 32014KT 10SM FEW014 BKN018 OVC034 20/17 A2996 1040 81 1900 320/14 RMK AO2
94908KDBQ DBQ20000626101011106/26/00 10:10:31  5-MIN KDBQ 261610Z 31013KT 10SM BKN014 BKN018 OVC034 20/17 A2996 1040 81 1900 310/13 RMK AO2
94908KDBQ DBQ20000626101511106/26/00 10:15:31  5-MIN KDBQ 261615Z 32016KT 10SM BKN014 BKN018 OVC034 20/17 A2996 1040 81 1900 320/16 RMK AO2
94908KDBQ DBQ20000626102011106/26/00 10:20:31  5-MIN KDBQ 261620Z 32016KT 10SM BKN014 BKN018 OVC034 20/16 A2997 1040 78 1900 320/16 RMK AO2
94908KDBQ DBQ20000626102511106/26/00 10:25:31  5-MIN KDBQ 261625Z 32016KT 10SM BKN014 BKN018 OVC034 21/16 A2997 1030 75 2000 320/16 RMK AO2
94908KDBQ DBQ20000626103011106/26/00 10:30:31  5-MIN KDBQ 261630Z 32016KT 10SM BKN014 BKN018 OVC034 20/16 A2997 1030 78 1900 320/16 RMK AO2
94908KDBQ DBQ20000626103511106/26/00 10:35:31  5-MIN KDBQ 261635Z 32014KT 10SM BKN014 BKN018 OVC034 21/16 A2997 1030 75 2000 320/14 RMK AO2
94908KDBQ DBQ20000626104011106/26/00 10:40:31  5-MIN KDBQ 261640Z 31016KT 10SM BKN014 BKN018 OVC034 21/17 A2997 1030 75 2000 310/16 RMK AO2
94908KDBQ DBQ20000626104511106/26/00 10:45:31  5-MIN KDBQ 261645Z 32014KT 10SM BKN014 BKN018 OVC034 21/17 A2997 1030 75 2000 320/14 RMK AO2
94908KDBQ DBQ20000626105013406/26/00 10:50:31  5-MIN KDBQ 261650Z 33017G20KT 10SM BKN014 BKN018 OVC034 22/17 A2998 1030 73 2100 330/17G20 RMK AO2 SLP146 T02170167
94908KDBQ DBQ20000626105513406/26/00 10:55:31  5-MIN KDBQ 261655Z 33014G20KT 10SM BKN014 BKN018 OVC034 22/17 A2997 1030 73 2100 330/14G20 RMK AO2 SLP146 T02170167
94908KDBQ DBQ20000626110010406/26/00 11:00:31  5-MIN KDBQ 261700Z 32014KT 10SM BKN021 BKN032 21/16 A2998 1030 73 2000 320/14 RMK AO2
94908KDBQ DBQ20000626110510406/26/00 11:05:31  5-MIN KDBQ 261705Z 32013KT 10SM BKN021 BKN032 21/16 A2998 1030 75 1900 320/13 RMK AO2
94908KDBQ DBQ20000626111010406/26/00 11:10:31  5-MIN KDBQ 261710Z 34011KT 10SM BKN021 BKN032 21/16 A2998 1020 73 2000 340/11 RMK AO2
94908KDBQ DBQ20000626111511006/26/00 11:15:31  5-MIN KDBQ 261715Z 33011G17KT 10SM BKN021 BKN032 21/16 A2998 1020 73 2000 320/11G17 RMK AO2
94908KDBQ DBQ20000626112011006/26/00 11:20:31  5-MIN KDBQ 261720Z 30013G17KT 10SM BKN021 BKN032 22/16 A2998 1020 70 2100 300/13G17 RMK AO2
94908KDBQ DBQ20000626112510406/26/00 11:25:31  5-MIN KDBQ 261725Z 32012KT 10SM BKN021 BKN032 22/16 A2999 1020 70 2100 320/12 RMK AO2
94908KDBQ DBQ20000626113010406/26/00 11:30:31  5-MIN KDBQ 261730Z 31011KT 10SM BKN021 BKN032 22/16 A2998 1020 70 2100 310/11 RMK AO2
94908KDBQ DBQ20000626113510406/26/00 11:35:31  5-MIN KDBQ 261735Z 33012KT 10SM BKN021 BKN032 22/17 A2999 1020 70 2100 320/12 RMK AO2
94908KDBQ DBQ20000626114010406/26/00 11:40:31  5-MIN KDBQ 261740Z 30013KT 10SM BKN021 BKN032 22/17 A2999 1020 70 2100 300/13 RMK AO2
94908KDBQ DBQ20000626114510406/26/00 11:45:31  5-MIN KDBQ 261745Z 31012KT 10SM BKN021 BKN032 21/16 A2999 1020 73 2000 310/12 RMK AO2
94908KDBQ DBQ20000626115013906/26/00 11:50:31  5-MIN KDBQ 261750Z 31011KT 10SM BKN021 BKN032 22/17 A2999 1020 70 2100 310/11 RMK AO2 SLP150 T02220167 10222 20189 53011
94908KDBQ DBQ20000626115514506/26/00 11:55:31  5-MIN KDBQ 261755Z 31013G18KT 10SM BKN021 BKN032 22/17 A2999 1020 70 2100 310/13G18 RMK AO2 SLP150 T02220167 10222 20189 51017
94908KDBQ DBQ20000626120011006/26/00 12:00:31  5-MIN KDBQ 261800Z 31014G18KT 10SM FEW028 BKN035 23/16 A2999 1020 65 2200 310/14G18 RMK AO2
94908KDBQ DBQ20000626120511106/26/00 12:05:31  5-MIN KDBQ 261805Z 34013KT 10SM SCT030 BKN035 BKN042 23/16 A2999 1010 65 2200 330/13 RMK AO2
94908KDBQ DBQ20000626121010406/26/00 12:10:31  5-MIN KDBQ 261810Z 32014KT 10SM SCT030 BKN035 22/16 A2999 1010 68 2100 320/14 RMK AO2
94908KDBQ DBQ20000626121510406/26/00 12:15:31  5-MIN KDBQ 261815Z 31014KT 10SM FEW027 SCT035 23/16 A2999 1010 65 2200 310/14 RMK AO2
94908KDBQ DBQ20000626122009706/26/00 12:20:31  5-MIN KDBQ 261820Z 31014KT 10SM FEW035 23/16 A2999 1010 65 2200 310/14 RMK AO2
94908KDBQ DBQ20000626122510406/26/00 12:25:31  5-MIN KDBQ 261825Z 30013KT 10SM SCT033 SCT043 23/16 A2999 1010 63 2200 300/13 RMK AO2
94908KDBQ DBQ20000626123009706/26/00 12:30:31  5-MIN KDBQ 261830Z 32010KT 10SM FEW033 23/16 A2999 1010 63 2200 320/10 RMK AO2
94908KDBQ DBQ20000626123509706/26/00 12:35:31  5-MIN KDBQ 261835Z 34011KT 10SM FEW033 23/16 A2999 1010 61 2200 330/11 RMK AO2
94908KDBQ DBQ20000626124009706/26/00 12:40:31  5-MIN KDBQ 261840Z 30013KT 10SM FEW033 23/16 A2999 1010 61 2200 300/13 RMK AO2
94908KDBQ DBQ20000626124510406/26/00 12:45:31  5-MIN KDBQ 261845Z 33012KT 10SM SCT035 SCT045 22/16 A3000 1010 65 2100 330/12 RMK AO2
94908KDBQ DBQ20000626125012106/26/00 12:50:31  5-MIN KDBQ 261850Z 31013KT 10SM SCT035 SCT047 23/16 A2999 1010 65 2200 310/13 RMK AO2 SLP152 T02280161
94908KDBQ DBQ20000626125512106/26/00 12:55:31  5-MIN KDBQ 261855Z 32012KT 10SM FEW035 SCT047 23/16 A2999 1010 63 2200 320/12 RMK AO2 SLP152 T02280156
94908KDBQ DBQ20000626130010406/26/00 13:00:31  5-MIN KDBQ 261900Z 32011KT 10SM FEW035 SCT047 23/16 A3000 1010 65 2200 320/11 RMK AO2
94908KDBQ DBQ20000626130510406/26/00 13:05:31  5-MIN KDBQ 261905Z 32011KT 10SM FEW035 SCT047 23/17 A3000 1010 66 2200 320/11 RMK AO2
94908KDBQ DBQ20000626131010406/26/00 13:10:31  5-MIN KDBQ 261910Z 30013KT 10SM FEW035 SCT044 23/16 A2999 1010 63 2200 290/13 RMK AO2
94908KDBQ DBQ20000626131510306/26/00 13:15:31  5-MIN KDBQ 261915Z 31013G17KT 10SM FEW039 23/16 A3000 1010 61 2200 310/13G17 RMK AO2
94908KDBQ DBQ20000626132010306/26/00 13:20:31  5-MIN KDBQ 261920Z 31009G17KT 10SM FEW037 23/16 A2999 1010 63 2200 310/09G17 RMK AO2
94908KDBQ DBQ20000626132510306/26/00 13:25:31  5-MIN KDBQ 261925Z 31014G18KT 10SM FEW037 23/16 A2999 1010 61 2200 310/14G18 RMK AO2
94908KDBQ DBQ20000626133010306/26/00 13:30:31  5-MIN KDBQ 261930Z 31011G18KT 10SM FEW037 23/16 A3000 1010 61 2200 310/11G18 RMK AO2
94908KDBQ DBQ20000626133509706/26/00 13:35:31  5-MIN KDBQ 261935Z 32014KT 10SM FEW040 23/15 A3000 1010 59 2200 320/14 RMK AO2
94908KDBQ DBQ20000626134009406/26/00 13:40:31  5-MIN KDBQ 261940Z 32013KT 10SM CLR 23/14 A3000 1010 57 2200 320/13 RMK AO2
94908KDBQ DBQ20000626134509406/26/00 13:45:31  5-MIN KDBQ 261945Z 31014KT 10SM CLR 23/15 A2999 1010 59 2200 310/14 RMK AO2
94908KDBQ DBQ20000626135011106/26/00 13:50:31  5-MIN KDBQ 261950Z 32013KT 10SM CLR 23/14 A2999 1010 57 2200 320/13 RMK AO2 SLP151 T02330144
94908KDBQ DBQ20000626135511106/26/00 13:55:31  5-MIN KDBQ 261955Z 32012KT 10SM CLR 23/15 A2999 1010 59 2200 320/12 RMK AO2 SLP151 T02330150
94908KDBQ DBQ20000626140009406/26/00 14:00:31  5-MIN KDBQ 262000Z 32014KT 10SM CLR 23/14 A2999 1010 55 2200 320/14 RMK AO2
94908KDBQ DBQ20000626140509406/26/00 14:05:31  5-MIN KDBQ 262005Z 34014KT 10SM CLR 23/14 A3000 1010 55 2200 340/14 RMK AO2
94908KDBQ DBQ20000626141009406/26/00 14:10:31  5-MIN KDBQ 262010Z 33012KT 10SM CLR 23/13 A3000 1010 53 2200 330/12 RMK AO2
94908KDBQ DBQ20000626141509406/26/00 14:15:31  5-MIN KDBQ 262015Z 34011KT 10SM CLR 24/14 A3000 1010 53 2300 340/11 RMK AO2
94908KDBQ DBQ20000626142009406/26/00 14:20:31  5-MIN KDBQ 262020Z 30011KT 10SM CLR 24/14 A3000 1010 55 2300 300/11 RMK AO2
94908KDBQ DBQ20000626142510006/26/00 14:25:31  5-MIN KDBQ 262025Z 32011G16KT 10SM CLR 24/14 A3000 1010 55 2300 320/11G16 RMK AO2
94908KDBQ DBQ20000626143009406/26/00 14:30:31  5-MIN KDBQ 262030Z 31009KT 10SM CLR 24/15 A3000 1010 57 2300 310/09 RMK AO2
94908KDBQ DBQ20000626143510006/26/00 14:35:31  5-MIN KDBQ 262035Z 33013G18KT 10SM CLR 24/14 A3000 1000 55 2300 320/13G18 RMK AO2
94908KDBQ DBQ20000626144009406/26/00 14:40:31  5-MIN KDBQ 262040Z 31015KT 10SM CLR 24/13 A3000 1000 49 2300 310/15 RMK AO2
94908KDBQ DBQ20000626144509406/26/00 14:45:31  5-MIN KDBQ 262045Z 32012KT 10SM CLR 23/12 A3000 1000 49 2200 320/12 RMK AO2
94908KDBQ DBQ20000626145011706/26/00 14:50:31  5-MIN KDBQ 262050Z 33013KT 10SM CLR 24/13 A3001 1000 49 2300 330/13 RMK AO2 SLP156 T02390128 51017
94908KDBQ DBQ20000626145511706/26/00 14:55:31  5-MIN KDBQ 262055Z 32011KT 10SM CLR 24/14 A3001 1000 53 2300 320/11 RMK AO2 SLP156 T02390139 53006
94908KDBQ DBQ20000626150009406/26/00 15:00:31  5-MIN KDBQ 262100Z 31014KT 10SM CLR 24/14 A3001 1000 53 2300 310/14 RMK AO2
94908KDBQ DBQ20000626150509406/26/00 15:05:31  5-MIN KDBQ 262105Z 32013KT 10SM CLR 24/14 A3001 1000 53 2300 320/13 RMK AO2
94908KDBQ DBQ20000626151009306/26/00 15:10:31  5-MIN KDBQ 262110Z 33012KT 10SM CLR 24/13 A3001 990 51 2300 330/12 RMK AO2
94908KDBQ DBQ20000626151509406/26/00 15:15:31  5-MIN KDBQ 262115Z 32011KT 10SM CLR 24/13 A3001 1000 49 2400 320/11 RMK AO2
94908KDBQ DBQ20000626152009406/26/00 15:20:31  5-MIN KDBQ 262120Z 31013KT 10SM CLR 24/13 A3001 1000 51 2300 310/13 RMK AO2
94908KDBQ DBQ20000626152509406/26/00 15:25:31  5-MIN KDBQ 262125Z 30011KT 10SM CLR 24/13 A3001 1000 51 2300 300/11 RMK AO2
94908KDBQ DBQ20000626153009606/26/00 15:30:31  5-MIN KDBQ 262130Z 30010KT 10SM FEW055 24/14 A3001 990 53 2300 300/10 RMK AO2
94908KDBQ DBQ20000626153509706/26/00 15:35:31  5-MIN KDBQ 262135Z 30011KT 10SM FEW055 24/13 A3001 1000 51 2300 300/11 RMK AO2
94908KDBQ DBQ20000626154009706/26/00 15:40:31  5-MIN KDBQ 262140Z 30009KT 10SM FEW055 24/13 A3001 1000 51 2300 300/09 RMK AO2
94908KDBQ DBQ20000626154509706/26/00 15:45:31  5-MIN KDBQ 262145Z 32010KT 10SM FEW055 23/13 A3001 1000 53 2200 320/10 RMK AO2
94908KDBQ DBQ20000626155011406/26/00 15:50:31  5-MIN KDBQ 262150Z 32010KT 10SM FEW055 24/13 A3001 1000 51 2300 320/10 RMK AO2 SLP156 T02390133
94908KDBQ DBQ20000626155511406/26/00 15:55:31  5-MIN KDBQ 262155Z 31010KT 10SM FEW055 23/14 A3001 1000 55 2200 310/10 RMK AO2 SLP157 T02330139
94908KDBQ DBQ20000626160009706/26/00 16:00:31  5-MIN KDBQ 262200Z 32008KT 10SM FEW050 23/14 A3001 1000 55 2200 320/08 RMK AO2
94908KDBQ DBQ20000626160509706/26/00 16:05:31  5-MIN KDBQ 262205Z 33011KT 10SM FEW050 23/13 A3001 1000 53 2200 330/11 RMK AO2
94908KDBQ DBQ20000626161009606/26/00 16:10:31  5-MIN KDBQ 262210Z 32008KT 10SM FEW050 23/14 A3001 990 57 2200 320/08 RMK AO2
94908KDBQ DBQ20000626161509306/26/00 16:15:31  5-MIN KDBQ 262215Z 31010KT 10SM CLR 22/13 A3001 990 56 2100 310/10 RMK AO2
94908KDBQ DBQ20000626162009706/26/00 16:20:31  5-MIN KDBQ 262220Z 32010KT 10SM FEW055 22/13 A3001 1000 56 2100 310/10 RMK AO2
94908KDBQ DBQ20000626162509606/26/00 16:25:31  5-MIN KDBQ 262225Z 32010KT 10SM FEW060 23/14 A3001 990 55 2200 320/10 RMK AO2
94908KDBQ DBQ20000626163009706/26/00 16:30:31  5-MIN KDBQ 262230Z 32010KT 10SM FEW055 23/13 A3001 1000 55 2200 320/10 RMK AO2
94908KDBQ DBQ20000626163509706/26/00 16:35:31  5-MIN KDBQ 262235Z 32009KT 10SM FEW055 22/13 A3001 1000 56 2100 320/09 RMK AO2
94908KDBQ DBQ20000626164009706/26/00 16:40:31  5-MIN KDBQ 262240Z 31010KT 10SM FEW055 22/13 A3001 1000 56 2100 310/10 RMK AO2
94908KDBQ DBQ20000626164509706/26/00 16:45:31  5-MIN KDBQ 262245Z 30010KT 10SM FEW055 22/13 A3001 1000 56 2100 300/10 RMK AO2
94908KDBQ DBQ20000626165011106/26/00 16:50:31  5-MIN KDBQ 262250Z 30010KT 10SM CLR 23/13 A3001 1000 55 2200 300/10 RMK AO2 SLP156 T02280133
94908KDBQ DBQ20000626165511106/26/00 16:55:31  5-MIN KDBQ 262255Z 30009KT 10SM CLR 22/13 A3000 1000 56 2100 300/09 RMK AO2 SLP155 T02220133
94908KDBQ DBQ20000626170009406/26/00 17:00:31  5-MIN KDBQ 262300Z 30009KT 10SM CLR 23/13 A3000 1000 55 2200 300/09 RMK AO2
94908KDBQ DBQ20000626170509406/26/00 17:05:31  5-MIN KDBQ 262305Z 31010KT 10SM CLR 23/13 A3000 1000 53 2200 310/10 RMK AO2
94908KDBQ DBQ20000626171009706/26/00 17:10:31  5-MIN KDBQ 262310Z 30009KT 10SM FEW050 23/14 A3000 1000 55 2200 300/09 RMK AO2
94908KDBQ DBQ20000626171509706/26/00 17:15:31  5-MIN KDBQ 262315Z 33009KT 10SM FEW050 23/14 A3000 1000 55 2200 330/09 RMK AO2
94908KDBQ DBQ20000626172009406/26/00 17:20:31  5-MIN KDBQ 262320Z 33009KT 10SM CLR 23/13 A3000 1000 53 2200 330/09 RMK AO2
94908KDBQ DBQ20000626172509406/26/00 17:25:31  5-MIN KDBQ 262325Z 30009KT 10SM CLR 23/14 A3000 1000 57 2200 300/09 RMK AO2
94908KDBQ DBQ20000626173009406/26/00 17:30:31  5-MIN KDBQ 262330Z 30010KT 10SM CLR 23/13 A3000 1000 55 2200 300/10 RMK AO2
94908KDBQ DBQ20000626173509406/26/00 17:35:31  5-MIN KDBQ 262335Z 30007KT 10SM CLR 23/13 A3000 1010 55 2200 300/07 RMK AO2
94908KDBQ DBQ20000626174009706/26/00 17:40:31  5-MIN KDBQ 262340Z 30008KT 10SM FEW060 23/14 A3000 1010 55 2200 300/08 RMK AO2
94908KDBQ DBQ20000626174509706/26/00 17:45:31  5-MIN KDBQ 262345Z 31007KT 10SM FEW065 23/14 A3000 1010 55 2200 310/07 RMK AO2
94908KDBQ DBQ20000626175013206/26/00 17:50:31  5-MIN KDBQ 262350Z 29007KT 10SM FEW065 23/14 A3000 1010 57 2200 290/07 RMK AO2 SLP154 T02330144 10244 20217 53006
94908KDBQ DBQ20000626175513206/26/00 17:55:31  5-MIN KDBQ 262355Z 29006KT 10SM FEW065 23/14 A3000 1010 55 2200 290/06 RMK AO2 SLP154 T02330139 10244 20217 58003
94908KDBQ DBQ20000626180009706/26/00 18:00:31  5-MIN KDBQ 270000Z 29010KT 10SM FEW065 23/13 A3000 1000 53 2200 290/10 RMK AO2
94908KDBQ DBQ20000626180509706/26/00 18:05:31  5-MIN KDBQ 270005Z 30010KT 10SM FEW065 23/13 A3000 1010 55 2200 300/10 RMK AO2
94908KDBQ DBQ20000626181009406/26/00 18:10:31  5-MIN KDBQ 270010Z 29009KT 10SM CLR 23/13 A3000 1010 55 2200 290/09 RMK AO2
94908KDBQ DBQ20000626181509406/26/00 18:15:31  5-MIN KDBQ 270015Z 29010KT 10SM CLR 22/13 A3000 1000 56 2100 290/10 RMK AO2
94908KDBQ DBQ20000626182009406/26/00 18:20:31  5-MIN KDBQ 270020Z 29008KT 10SM CLR 22/14 A3000 1000 59 2100 290/08 RMK AO2
94908KDBQ DBQ20000626182509406/26/00 18:25:31  5-MIN KDBQ 270025Z 29009KT 10SM CLR 22/14 A3000 1000 59 2100 290/09 RMK AO2
94908KDBQ DBQ20000626183009406/26/00 18:30:31  5-MIN KDBQ 270030Z 30007KT 10SM CLR 22/13 A3000 1000 56 2100 290/07 RMK AO2
94908KDBQ DBQ20000626183509406/26/00 18:35:31  5-MIN KDBQ 270035Z 29006KT 10SM CLR 22/14 A3000 1000 61 2000 290/06 RMK AO2
94908KDBQ DBQ20000626184009406/26/00 18:40:31  5-MIN KDBQ 270040Z 30006KT 10SM CLR 22/14 A3001 1000 61 2000 290/06 RMK AO2
94908KDBQ DBQ20000626184510406/26/00 18:45:31  5-MIN KDBQ 270045Z AUTO 29007KT 10SM CLR 21/14 A3001 1000 63 2000 290/07 RMK AO2 TSNO
94908KDBQ DBQ20000626185012106/26/00 18:50:31  5-MIN KDBQ 270050Z AUTO 29006KT 10SM CLR 21/14 A3000 1000 67 1900 290/06 RMK AO2 SLP156 T02060144 TSNO
94908KDBQ DBQ20000626185512106/26/00 18:55:31  5-MIN KDBQ 270055Z AUTO 29006KT 10SM CLR 21/14 A3000 1000 67 1900 290/06 RMK AO2 SLP155 T02060144 TSNO
94908KDBQ DBQ20000626190010406/26/00 19:00:31  5-MIN KDBQ 270100Z AUTO 29005KT 10SM CLR 21/14 A3001 1000 67 1900 290/05 RMK AO2 TSNO
94908KDBQ DBQ20000626190510406/26/00 19:05:31  5-MIN KDBQ 270105Z AUTO 28005KT 10SM CLR 21/15 A3001 1000 70 1900 280/05 RMK AO2 TSNO
94908KDBQ DBQ20000626191010406/26/00 19:10:31  5-MIN KDBQ 270110Z AUTO 28005KT 10SM CLR 20/15 A3001 1000 72 1900 280/05 RMK AO2 TSNO
94908KDBQ DBQ20000626191510406/26/00 19:15:31  5-MIN KDBQ 270115Z AUTO 28006KT 10SM CLR 20/15 A3001 1000 72 1800 270/06 RMK AO2 TSNO
94908KDBQ DBQ20000626192010406/26/00 19:20:31  5-MIN KDBQ 270120Z AUTO 28006KT 10SM CLR 20/15 A3001 1000 72 1800 270/06 RMK AO2 TSNO
94908KDBQ DBQ20000626192510406/26/00 19:25:31  5-MIN KDBQ 270125Z AUTO 28007KT 10SM CLR 19/15 A3001 1000 75 1800 270/07 RMK AO2 TSNO
94908KDBQ DBQ20000626193010406/26/00 19:30:31  5-MIN KDBQ 270130Z AUTO 28007KT 10SM CLR 19/14 A3001 1000 72 1800 280/07 RMK AO2 TSNO
94908KDBQ DBQ20000626193510406/26/00 19:35:31  5-MIN KDBQ 270135Z AUTO 28007KT 10SM CLR 19/14 A3001 1000 75 1700 280/07 RMK AO2 TSNO
94908KDBQ DBQ20000626194010406/26/00 19:40:31  5-MIN KDBQ 270140Z AUTO 28007KT 10SM CLR 19/14 A3001 1000 75 1700 280/07 RMK AO2 TSNO
94908KDBQ DBQ20000626194510306/26/00 19:45:31  5-MIN KDBQ 270145Z AUTO 28007KT 10SM CLR 19/14 A3001 990 75 1700 280/07 RMK AO2 TSNO
94908KDBQ DBQ20000626195012006/26/00 19:50:31  5-MIN KDBQ 270150Z AUTO 27006KT 10SM CLR 19/14 A3001 990 75 1700 270/06 RMK AO2 SLP160 T01890144 TSNO
94908KDBQ DBQ20000626195512006/26/00 19:55:31  5-MIN KDBQ 270155Z AUTO 27006KT 10SM CLR 19/14 A3001 990 75 1700 270/06 RMK AO2 SLP160 T01890144 TSNO
94908KDBQ DBQ20000626200010306/26/00 20:00:31  5-MIN KDBQ 270200Z AUTO 27006KT 10SM CLR 18/14 A3002 990 78 1600 270/06 RMK AO2 TSNO
94908KDBQ DBQ20000626200510306/26/00 20:05:31  5-MIN KDBQ 270205Z AUTO 26004KT 10SM CLR 18/15 A3002 990 81 1600 260/04 RMK AO2 TSNO
94908KDBQ DBQ20000626201010306/26/00 20:10:31  5-MIN KDBQ 270210Z AUTO 25004KT 10SM CLR 18/15 A3002 980 83 1600 250/04 RMK AO2 TSNO
94908KDBQ DBQ20000626201510306/26/00 20:15:31  5-MIN KDBQ 270215Z AUTO 25003KT 10SM CLR 18/15 A3003 980 83 1600 250/03 RMK AO2 TSNO
94908KDBQ DBQ20000626202010306/26/00 20:20:31  5-MIN KDBQ 270220Z AUTO 26004KT 10SM CLR 18/14 A3003 980 81 1600 250/04 RMK AO2 TSNO
94908KDBQ DBQ20000626202510306/26/00 20:25:31  5-MIN KDBQ 270225Z AUTO 26004KT 10SM CLR 18/15 A3003 980 83 1600 260/04 RMK AO2 TSNO
94908KDBQ DBQ20000626203010306/26/00 20:30:31  5-MIN KDBQ 270230Z AUTO 26004KT 10SM CLR 18/14 A3003 980 81 1600 260/04 RMK AO2 TSNO
94908KDBQ DBQ20000626203510306/26/00 20:35:31  5-MIN KDBQ 270235Z AUTO 25003KT 10SM CLR 18/15 A3004 970 83 1600 250/03 RMK AO2 TSNO
94908KDBQ DBQ20000626204010306/26/00 20:40:31  5-MIN KDBQ 270240Z AUTO 00000KT 10SM CLR 18/15 A3004 970 83 1600 000/00 RMK AO2 TSNO
94908KDBQ DBQ20000626204510306/26/00 20:45:31  5-MIN KDBQ 270245Z AUTO 00000KT 10SM CLR 17/14 A3004 970 83 1500 000/00 RMK AO2 TSNO
94908KDBQ DBQ20000626205012606/26/00 20:50:31  5-MIN KDBQ 270250Z AUTO 22003KT 10SM CLR 17/16 A3004 970 90 1500 220/03 RMK AO2 SLP171 T01720156 58003 TSNO
94908KDBQ DBQ20000626205512606/26/00 20:55:31  5-MIN KDBQ 270255Z AUTO 19003KT 10SM CLR 17/16 A3004 970 90 1500 190/03 RMK AO2 SLP170 T01720156 53014 TSNO
94908KDBQ DBQ20000626210010306/26/00 21:00:31  5-MIN KDBQ 270300Z AUTO 20004KT 10SM CLR 17/14 A3004 960 86 1400 200/04 RMK AO2 TSNO
94908KDBQ DBQ20000626210510306/26/00 21:05:31  5-MIN KDBQ 270305Z AUTO 20004KT 10SM CLR 17/14 A3005 960 86 1400 200/04 RMK AO2 TSNO
94908KDBQ DBQ20000626211010306/26/00 21:10:31  5-MIN KDBQ 270310Z AUTO 21005KT 10SM CLR 17/14 A3005 960 86 1400 210/05 RMK AO2 TSNO
94908KDBQ DBQ20000626211510306/26/00 21:15:31  5-MIN KDBQ 270315Z AUTO 21005KT 10SM CLR 17/14 A3006 950 86 1400 210/05 RMK AO2 TSNO
94908KDBQ DBQ20000626212010306/26/00 21:20:31  5-MIN KDBQ 270320Z AUTO 21004KT 10SM CLR 17/14 A3006 950 86 1400 210/04 RMK AO2 TSNO
94908KDBQ DBQ20000626212510306/26/00 21:25:31  5-MIN KDBQ 270325Z AUTO 21005KT 10SM CLR 17/14 A3006 950 86 1400 210/05 RMK AO2 TSNO
94908KDBQ DBQ20000626213010306/26/00 21:30:31  5-MIN KDBQ 270330Z AUTO 22004KT 10SM CLR 17/14 A3006 950 86 1400 220/04 RMK AO2 TSNO
94908KDBQ DBQ20000626213510306/26/00 21:35:31  5-MIN KDBQ 270335Z AUTO 22004KT 10SM CLR 16/14 A3006 950 90 1300 220/04 RMK AO2 TSNO
94908KDBQ DBQ20000626214010306/26/00 21:40:31  5-MIN KDBQ 270340Z AUTO 22004KT 10SM CLR 16/14 A3007 940 90 1300 220/04 RMK AO2 TSNO
94908KDBQ DBQ20000626214510306/26/00 21:45:31  5-MIN KDBQ 270345Z AUTO 23004KT 10SM CLR 17/14 A3007 940 86 1400 230/04 RMK AO2 TSNO
94908KDBQ DBQ20000626215012006/26/00 21:50:31  5-MIN KDBQ 270350Z AUTO 24003KT 10SM CLR 16/14 A3007 940 90 1300 240/03 RMK AO2 SLP181 T01610144 TSNO
94908KDBQ DBQ20000626215512006/26/00 21:55:31  5-MIN KDBQ 270355Z AUTO VRB03KT 10SM CLR 17/14 A3007 940 86 1400 VRB/03 RMK AO2 SLP180 T01670144 TSNO
94908KDBQ DBQ20000626220010606/26/00 22:00:31  5-MIN KDBQ 270400Z AUTO 24003KT 10SM FEW060 17/14 A3007 940 86 1400 240/03 RMK AO2 TSNO
94908KDBQ DBQ20000626220510606/26/00 22:05:31  5-MIN KDBQ 270405Z AUTO 26003KT 10SM SCT060 17/14 A3007 940 86 1400 260/03 RMK AO2 TSNO
94908KDBQ DBQ20000626221010606/26/00 22:10:31  5-MIN KDBQ 270410Z AUTO 00000KT 10SM SCT060 17/14 A3008 940 83 1400 000/00 RMK AO2 TSNO
94908KDBQ DBQ20000626221510606/26/00 22:15:31  5-MIN KDBQ 270415Z AUTO 26004KT 10SM BKN060 17/14 A3008 930 83 1400 260/04 RMK AO2 TSNO
94908KDBQ DBQ20000626222010606/26/00 22:20:31  5-MIN KDBQ 270420Z AUTO 27005KT 10SM BKN060 17/14 A3008 930 86 1400 270/05 RMK AO2 TSNO
94908KDBQ DBQ20000626222510606/26/00 22:25:31  5-MIN KDBQ 270425Z AUTO 27006KT 10SM BKN060 17/14 A3008 930 83 1400 270/06 RMK AO2 TSNO
94908KDBQ DBQ20000626223010606/26/00 22:30:31  5-MIN KDBQ 270430Z AUTO 27005KT 10SM BKN060 17/14 A3008 930 83 1400 270/05 RMK AO2 TSNO
94908KDBQ DBQ20000626223510606/26/00 22:35:31  5-MIN KDBQ 270435Z AUTO 27006KT 10SM BKN060 17/14 A3008 930 83 1400 270/06 RMK AO2 TSNO
94908KDBQ DBQ20000626224010606/26/00 22:40:31  5-MIN KDBQ 270440Z AUTO 27006KT 10SM BKN065 17/14 A3008 930 83 1400 270/06 RMK AO2 TSNO
94908KDBQ DBQ20000626224510606/26/00 22:45:31  5-MIN KDBQ 270445Z AUTO 27006KT 10SM BKN065 17/14 A3009 930 86 1400 270/06 RMK AO2 TSNO
94908KDBQ DBQ20000626225012306/26/00 22:50:31  5-MIN KDBQ 270450Z AUTO 28006KT 10SM BKN065 17/14 A3009 920 83 1400 280/06 RMK AO2 SLP185 T01670139 TSNO
94908KDBQ DBQ20000626225512306/26/00 22:55:31  5-MIN KDBQ 270455Z AUTO 29006KT 10SM SCT065 17/14 A3009 920 83 1400 280/06 RMK AO2 SLP186 T01670139 TSNO
94908KDBQ DBQ20000626230010606/26/00 23:00:31  5-MIN KDBQ 270500Z AUTO 30008KT 10SM SCT065 17/13 A3009 920 80 1400 290/08 RMK AO2 TSNO
94908KDBQ DBQ20000626230510606/26/00 23:05:31  5-MIN KDBQ 270505Z AUTO 30009KT 10SM FEW065 17/13 A3009 920 75 1400 300/09 RMK AO2 TSNO
94908KDBQ DBQ20000626231010606/26/00 23:10:31  5-MIN KDBQ 270510Z AUTO 31008KT 10SM FEW065 17/13 A3009 920 75 1400 310/08 RMK AO2 TSNO
94908KDBQ DBQ20000626231510306/26/00 23:15:31  5-MIN KDBQ 270515Z AUTO 30007KT 10SM CLR 17/13 A3009 920 75 1400 300/07 RMK AO2 TSNO
94908KDBQ DBQ20000626232010306/26/00 23:20:31  5-MIN KDBQ 270520Z AUTO 30007KT 10SM CLR 17/13 A3009 920 77 1400 300/07 RMK AO2 TSNO
94908KDBQ DBQ20000626232510306/26/00 23:25:31  5-MIN KDBQ 270525Z AUTO 29007KT 10SM CLR 17/13 A3009 920 77 1400 290/07 RMK AO2 TSNO
94908KDBQ DBQ20000626233010306/26/00 23:30:31  5-MIN KDBQ 270530Z AUTO 29007KT 10SM CLR 17/13 A3009 920 77 1400 290/07 RMK AO2 TSNO
94908KDBQ DBQ20000626233510306/26/00 23:35:31  5-MIN KDBQ 270535Z AUTO 30007KT 10SM CLR 17/13 A3009 920 77 1400 300/07 RMK AO2 TSNO
94908KDBQ DBQ20000626234010306/26/00 23:40:31  5-MIN KDBQ 270540Z AUTO 30007KT 10SM CLR 17/12 A3009 920 75 1400 300/07 RMK AO2 TSNO
94908KDBQ DBQ20000626234510306/26/00 23:45:31  5-MIN KDBQ 270545Z AUTO 30007KT 10SM CLR 16/12 A3009 920 77 1300 300/07 RMK AO2 TSNO
94908KDBQ DBQ20000626235014806/26/00 23:50:31  5-MIN KDBQ 270550Z AUTO 31007KT 10SM CLR 17/12 A3009 920 75 1400 310/07 RMK AO2 SLP187 T01670122 10233 20161 402440161 53014 TSNO
94908KDBQ DBQ20000626235514806/26/00 23:55:31  5-MIN KDBQ 270555Z AUTO 31007KT 10SM CLR 16/12 A3010 920 75 1300 310/07 RMK AO2 SLP188 T01610117 10233 20161 402440161 51018 TSNO
94908KDBQ DBQ20000627000010306/27/00 00:00:31  5-MIN KDBQ 270600Z AUTO 31006KT 10SM CLR 16/12 A3009 920 75 1300 310/06 RMK AO2 TSNO
94908KDBQ DBQ20000627000510306/27/00 00:05:31  5-MIN KDBQ 270605Z AUTO 31007KT 10SM CLR 16/12 A3010 920 77 1200 310/07 RMK AO2 TSNO
94908KDBQ DBQ20000627001010306/27/00 00:10:31  5-MIN KDBQ 270610Z AUTO 31007KT 10SM CLR 16/12 A3009 920 77 1200 310/07 RMK AO2 TSNO
94908KDBQ DBQ20000627001510306/27/00 00:15:31  5-MIN KDBQ 270615Z AUTO 31007KT 10SM CLR 16/11 A3010 910 74 1200 310/07 RMK AO2 TSNO
94908KDBQ DBQ20000627002010306/27/00 00:20:31  5-MIN KDBQ 270620Z AUTO 31007KT 10SM CLR 16/11 A3010 910 74 1200 310/07 RMK AO2 TSNO
94908KDBQ DBQ20000627002510306/27/00 00:25:31  5-MIN KDBQ 270625Z AUTO 32007KT 10SM CLR 16/11 A3010 920 74 1200 320/07 RMK AO2 TSNO
94908KDBQ DBQ20000627003010306/27/00 00:30:31  5-MIN KDBQ 270630Z AUTO 32007KT 10SM CLR 16/11 A3010 910 74 1200 310/07 RMK AO2 TSNO
94908KDBQ DBQ20000627003510306/27/00 00:35:31  5-MIN KDBQ 270635Z AUTO 31006KT 10SM CLR 16/11 A3010 910 74 1200 310/06 RMK AO2 TSNO
94908KDBQ DBQ20000627004010306/27/00 00:40:31  5-MIN KDBQ 270640Z AUTO 31007KT 10SM CLR 16/11 A3010 910 74 1200 310/07 RMK AO2 TSNO
94908KDBQ DBQ20000627004510306/27/00 00:45:31  5-MIN KDBQ 270645Z AUTO 31007KT 10SM CLR 15/11 A3010 910 74 1200 310/07 RMK AO2 TSNO
94908KDBQ DBQ20000627005012006/27/00 00:50:31  5-MIN KDBQ 270650Z AUTO 32008KT 10SM CLR 14/11 A3010 910 77 1100 320/08 RMK AO2 SLP191 T01440106 TSNO
94908KDBQ DBQ20000627005512006/27/00 00:55:31  5-MIN KDBQ 270655Z AUTO 32008KT 10SM CLR 15/11 A3010 910 74 1200 320/08 RMK AO2 SLP190 T01500106 TSNO
94908KDBQ DBQ20000627010010306/27/00 01:00:31  5-MIN KDBQ 270700Z AUTO 31008KT 10SM CLR 15/11 A3010 910 74 1200 310/08 RMK AO2 TSNO
94908KDBQ DBQ20000627010510306/27/00 01:05:31  5-MIN KDBQ 270705Z AUTO 31008KT 10SM CLR 15/11 A3010 910 74 1200 310/08 RMK AO2 TSNO
94908KDBQ DBQ20000627011010306/27/00 01:10:31  5-MIN KDBQ 270710Z AUTO 31008KT 10SM CLR 14/11 A3010 910 77 1100 310/08 RMK AO2 TSNO
94908KDBQ DBQ20000627011510306/27/00 01:15:31  5-MIN KDBQ 270715Z AUTO 31008KT 10SM CLR 14/10 A3010 910 74 1100 310/08 RMK AO2 TSNO
94908KDBQ DBQ20000627012010306/27/00 01:20:31  5-MIN KDBQ 270720Z AUTO 31007KT 10SM CLR 14/11 A3010 910 77 1100 310/07 RMK AO2 TSNO
94908KDBQ DBQ20000627012510306/27/00 01:25:31  5-MIN KDBQ 270725Z AUTO 30007KT 10SM CLR 15/11 A3010 910 74 1200 300/07 RMK AO2 TSNO
94908KDBQ DBQ20000627013010306/27/00 01:30:31  5-MIN KDBQ 270730Z AUTO 30007KT 10SM CLR 15/11 A3010 910 74 1200 300/07 RMK AO2 TSNO
94908KDBQ DBQ20000627013510306/27/00 01:35:31  5-MIN KDBQ 270735Z AUTO 29006KT 10SM CLR 15/11 A3010 910 74 1200 290/06 RMK AO2 TSNO
94908KDBQ DBQ20000627014010306/27/00 01:40:31  5-MIN KDBQ 270740Z AUTO 29007KT 10SM CLR 15/11 A3010 910 74 1200 290/07 RMK AO2 TSNO
94908KDBQ DBQ20000627014510306/27/00 01:45:31  5-MIN KDBQ 270745Z AUTO 30007KT 10SM CLR 15/11 A3010 910 74 1200 300/07 RMK AO2 TSNO
94908KDBQ DBQ20000627015012006/27/00 01:50:31  5-MIN KDBQ 270750Z AUTO 30007KT 10SM CLR 14/11 A3010 920 77 1100 300/07 RMK AO2 SLP189 T01440106 TSNO
94908KDBQ DBQ20000627015512006/27/00 01:55:31  5-MIN KDBQ 270755Z AUTO 30007KT 10SM CLR 14/11 A3010 920 77 1100 300/07 RMK AO2 SLP189 T01440106 TSNO
94908KDBQ DBQ20000627020010306/27/00 02:00:31  5-MIN KDBQ 270800Z AUTO 30007KT 10SM CLR 14/11 A3010 920 77 1100 300/07 RMK AO2 TSNO
94908KDBQ DBQ20000627020510306/27/00 02:05:31  5-MIN KDBQ 270805Z AUTO 30007KT 10SM CLR 14/11 A3010 910 77 1100 300/07 RMK AO2 TSNO
94908KDBQ DBQ20000627021010306/27/00 02:10:31  5-MIN KDBQ 270810Z AUTO 30007KT 10SM CLR 14/11 A3010 910 77 1100 300/07 RMK AO2 TSNO
94908KDBQ DBQ20000627021510306/27/00 02:15:31  5-MIN KDBQ 270815Z AUTO 30008KT 10SM CLR 14/11 A3010 910 77 1100 300/08 RMK AO2 TSNO
94908KDBQ DBQ20000627022010306/27/00 02:20:31  5-MIN KDBQ 270820Z AUTO 30008KT 10SM CLR 14/11 A3010 910 77 1100 300/08 RMK AO2 TSNO
94908KDBQ DBQ20000627022510306/27/00 02:25:31  5-MIN KDBQ 270825Z AUTO 30007KT 10SM CLR 14/11 A3010 910 77 1100 300/07 RMK AO2 TSNO
94908KDBQ DBQ20000627023010306/27/00 02:30:31  5-MIN KDBQ 270830Z AUTO 30008KT 10SM CLR 14/10 A3010 910 74 1100 300/08 RMK AO2 TSNO
94908KDBQ DBQ20000627023510306/27/00 02:35:31  5-MIN KDBQ 270835Z AUTO 31008KT 10SM CLR 14/10 A3010 910 74 1100 310/08 RMK AO2 TSNO
94908KDBQ DBQ20000627024010306/27/00 02:40:31  5-MIN KDBQ 270840Z AUTO 31009KT 10SM CLR 14/10 A3010 910 74 1100 310/09 RMK AO2 TSNO
94908KDBQ DBQ20000627024510306/27/00 02:45:31  5-MIN KDBQ 270845Z AUTO 31009KT 10SM CLR 14/10 A3010 910 74 1100 310/09 RMK AO2 TSNO
94908KDBQ DBQ20000627025012606/27/00 02:50:31  5-MIN KDBQ 270850Z AUTO 31009KT 10SM CLR 14/10 A3011 910 74 1100 310/09 RMK AO2 SLP191 T01440100 51018 TSNO
94908KDBQ DBQ20000627025512606/27/00 02:55:31  5-MIN KDBQ 270855Z AUTO 31008KT 10SM CLR 14/10 A3010 910 74 1100 310/08 RMK AO2 SLP191 T01440100 53003 TSNO
94908KDBQ DBQ20000627030010306/27/00 03:00:31  5-MIN KDBQ 270900Z AUTO 31009KT 10SM CLR 15/10 A3010 910 72 1200 310/09 RMK AO2 TSNO
94908KDBQ DBQ20000627030510306/27/00 03:05:31  5-MIN KDBQ 270905Z AUTO 31009KT 10SM CLR 15/10 A3011 910 72 1200 310/09 RMK AO2 TSNO
94908KDBQ DBQ20000627031010306/27/00 03:10:31  5-MIN KDBQ 270910Z AUTO 31009KT 10SM CLR 15/10 A3010 910 72 1200 310/09 RMK AO2 TSNO
94908KDBQ DBQ20000627031510306/27/00 03:15:31  5-MIN KDBQ 270915Z AUTO 30009KT 10SM CLR 16/10 A3011 910 69 1200 300/09 RMK AO2 TSNO
94908KDBQ DBQ20000627032010306/27/00 03:20:31  5-MIN KDBQ 270920Z AUTO 30010KT 10SM CLR 16/10 A3011 910 69 1200 300/10 RMK AO2 TSNO
94908KDBQ DBQ20000627032510306/27/00 03:25:31  5-MIN KDBQ 270925Z AUTO 31010KT 10SM CLR 16/10 A3011 910 69 1200 300/10 RMK AO2 TSNO
94908KDBQ DBQ20000627033010306/27/00 03:30:31  5-MIN KDBQ 270930Z AUTO 31010KT 10SM CLR 16/09 A3011 910 67 1200 310/10 RMK AO2 TSNO
94908KDBQ DBQ20000627033510306/27/00 03:35:31  5-MIN KDBQ 270935Z AUTO 31010KT 10SM CLR 16/10 A3011 900 69 1200 310/10 RMK AO2 TSNO
94908KDBQ DBQ20000627034010306/27/00 03:40:31  5-MIN KDBQ 270940Z AUTO 31009KT 10SM CLR 16/09 A3011 900 67 1200 310/09 RMK AO2 TSNO
94908KDBQ DBQ20000627034510306/27/00 03:45:31  5-MIN KDBQ 270945Z AUTO 31010KT 10SM CLR 16/09 A3011 900 67 1200 310/10 RMK AO2 TSNO
94908KDBQ DBQ20000627035012006/27/00 03:50:31  5-MIN KDBQ 270950Z AUTO 32009KT 10SM CLR 15/09 A3011 900 69 1200 320/09 RMK AO2 SLP193 T01500094 TSNO
94908KDBQ DBQ20000627035512006/27/00 03:55:31  5-MIN KDBQ 270955Z AUTO 31010KT 10SM CLR 15/09 A3011 900 69 1200 310/10 RMK AO2 SLP193 T01500094 TSNO
94908KDBQ DBQ20000627040010306/27/00 04:00:31  5-MIN KDBQ 271000Z AUTO 32009KT 10SM CLR 15/09 A3011 900 69 1200 310/09 RMK AO2 TSNO
94908KDBQ DBQ20000627040510306/27/00 04:05:31  5-MIN KDBQ 271005Z AUTO 32009KT 10SM CLR 15/09 A3012 900 69 1100 310/09 RMK AO2 TSNO
94908KDBQ DBQ20000627041010306/27/00 04:10:31  5-MIN KDBQ 271010Z AUTO 31009KT 10SM CLR 14/09 A3012 900 72 1100 310/09 RMK AO2 TSNO
94908KDBQ DBQ20000627041510306/27/00 04:15:31  5-MIN KDBQ 271015Z AUTO 32009KT 10SM CLR 15/09 A3012 900 69 1100 320/09 RMK AO2 TSNO
94908KDBQ DBQ20000627042010306/27/00 04:20:31  5-MIN KDBQ 271020Z AUTO 31009KT 10SM CLR 14/09 A3012 890 72 1100 310/09 RMK AO2 TSNO
94908KDBQ DBQ20000627042510306/27/00 04:25:31  5-MIN KDBQ 271025Z AUTO 31008KT 10SM CLR 14/09 A3013 890 72 1100 310/08 RMK AO2 TSNO
94908KDBQ DBQ20000627043010306/27/00 04:30:31  5-MIN KDBQ 271030Z AUTO 31008KT 10SM CLR 14/09 A3013 890 72 1100 310/08 RMK AO2 TSNO
94908KDBQ DBQ20000627043510306/27/00 04:35:31  5-MIN KDBQ 271035Z AUTO 31008KT 10SM CLR 14/09 A3013 880 72 1100 310/08 RMK AO2 TSNO
94908KDBQ DBQ20000627044010306/27/00 04:40:31  5-MIN KDBQ 271040Z AUTO 31007KT 10SM CLR 14/09 A3013 880 72 1100 310/07 RMK AO2 TSNO
94908KDBQ DBQ20000627044510306/27/00 04:45:31  5-MIN KDBQ 271045Z AUTO 31007KT 10SM CLR 14/09 A3014 880 72 1100 310/07 RMK AO2 TSNO
94908KDBQ DBQ20000627045011006/27/00 04:50:31  5-MIN KDBQ 271050Z 31007KT 10SM CLR 14/09 A3014 880 72 1100 310/07 RMK AO2 SLP203 T01440094
94908KDBQ DBQ20000627045511006/27/00 04:55:31  5-MIN KDBQ 271055Z 31008KT 10SM CLR 14/09 A3014 880 72 1100 310/08 RMK AO2 SLP203 T01440094
94908KDBQ DBQ20000627050009306/27/00 05:00:31  5-MIN KDBQ 271100Z 31008KT 10SM CLR 14/10 A3014 880 74 1100 310/08 RMK AO2
94908KDBQ DBQ20000627050509306/27/00 05:05:31  5-MIN KDBQ 271105Z 30008KT 10SM CLR 15/10 A3014 880 72 1100 300/08 RMK AO2
94908KDBQ DBQ20000627051009306/27/00 05:10:31  5-MIN KDBQ 271110Z 30008KT 10SM CLR 15/10 A3014 880 72 1100 300/08 RMK AO2
94908KDBQ DBQ20000627051509306/27/00 05:15:31  5-MIN KDBQ 271115Z 31008KT 10SM CLR 15/10 A3014 880 72 1100 300/08 RMK AO2
94908KDBQ DBQ20000627052009306/27/00 05:20:31  5-MIN KDBQ 271120Z 31008KT 10SM CLR 16/10 A3014 870 69 1200 300/08 RMK AO2
94908KDBQ DBQ20000627052509306/27/00 05:25:31  5-MIN KDBQ 271125Z 31009KT 10SM CLR 16/10 A3014 870 69 1200 310/09 RMK AO2
94908KDBQ DBQ20000627053009306/27/00 05:30:31  5-MIN KDBQ 271130Z 31010KT 10SM CLR 16/10 A3015 870 69 1200 310/10 RMK AO2
94908KDBQ DBQ20000627053509306/27/00 05:35:31  5-MIN KDBQ 271135Z 31009KT 10SM CLR 16/10 A3015 870 67 1200 310/09 RMK AO2
94908KDBQ DBQ20000627054009306/27/00 05:40:31  5-MIN KDBQ 271140Z 31009KT 10SM CLR 16/10 A3015 870 69 1200 310/09 RMK AO2
94908KDBQ DBQ20000627054509306/27/00 05:45:31  5-MIN KDBQ 271145Z 32009KT 10SM CLR 16/10 A3015 870 67 1200 320/09 RMK AO2
94908KDBQ DBQ20000627055012806/27/00 05:50:31  5-MIN KDBQ 271150Z 32008KT 10SM CLR 16/10 A3015 870 67 1200 320/08 RMK AO2 SLP205 T01610100 10161 20144 53003
94908KDBQ DBQ20000627055512806/27/00 05:55:31  5-MIN KDBQ 271155Z 32009KT 10SM CLR 16/10 A3015 870 67 1200 320/09 RMK AO2 SLP205 T01610100 10161 20144 52014
94908KDBQ DBQ20000627060009306/27/00 06:00:31  5-MIN KDBQ 271200Z 32008KT 10SM CLR 16/10 A3015 870 67 1200 320/08 RMK AO2
94908KDBQ DBQ20000627060509306/27/00 06:05:31  5-MIN KDBQ 271205Z 32008KT 10SM CLR 16/10 A3015 870 67 1200 320/08 RMK AO2
94908KDBQ DBQ20000627061009306/27/00 06:10:31  5-MIN KDBQ 271210Z 33009KT 10SM CLR 16/10 A3015 870 67 1200 330/09 RMK AO2
94908KDBQ DBQ20000627061509306/27/00 06:15:31  5-MIN KDBQ 271215Z 32009KT 10SM CLR 16/10 A3015 870 67 1200 320/09 RMK AO2
94908KDBQ DBQ20000627062009306/27/00 06:20:31  5-MIN KDBQ 271220Z 33008KT 10SM CLR 16/10 A3015 870 67 1200 330/08 RMK AO2
94908KDBQ DBQ20000627062509306/27/00 06:25:31  5-MIN KDBQ 271225Z 32008KT 10SM CLR 16/10 A3015 860 67 1200 320/08 RMK AO2
94908KDBQ DBQ20000627063009306/27/00 06:30:31  5-MIN KDBQ 271230Z 32009KT 10SM CLR 17/10 A3015 860 64 1300 320/09 RMK AO2
94908KDBQ DBQ20000627063509306/27/00 06:35:31  5-MIN KDBQ 271235Z 32008KT 10SM CLR 17/11 A3016 860 67 1300 320/08 RMK AO2
94908KDBQ DBQ20000627064009306/27/00 06:40:31  5-MIN KDBQ 271240Z 32009KT 10SM CLR 17/10 A3016 860 64 1300 320/09 RMK AO2
94908KDBQ DBQ20000627064509306/27/00 06:45:31  5-MIN KDBQ 271245Z 33008KT 10SM CLR 17/11 A3016 860 64 1400 330/08 RMK AO2
94908KDBQ DBQ20000627065011006/27/00 06:50:31  5-MIN KDBQ 271250Z 32008KT 10SM CLR 17/11 A3016 860 64 1400 320/08 RMK AO2 SLP210 T01720106
94908KDBQ DBQ20000627065511006/27/00 06:55:31  5-MIN KDBQ 271255Z 33009KT 10SM CLR 17/11 A3016 860 67 1400 330/09 RMK AO2 SLP211 T01720111
94908KDBQ DBQ20000627070009306/27/00 07:00:31  5-MIN KDBQ 271300Z 34009KT 10SM CLR 17/11 A3016 850 64 1400 330/09 RMK AO2
94908KDBQ DBQ20000627070509306/27/00 07:05:31  5-MIN KDBQ 271305Z 33008KT 10SM CLR 17/11 A3016 850 64 1400 330/08 RMK AO2
94908KDBQ DBQ20000627071009306/27/00 07:10:31  5-MIN KDBQ 271310Z 32009KT 10SM CLR 17/11 A3016 860 67 1400 320/09 RMK AO2
94908KDBQ DBQ20000627071509306/27/00 07:15:31  5-MIN KDBQ 271315Z 32009KT 10SM CLR 17/11 A3016 860 64 1400 320/09 RMK AO2
94908KDBQ DBQ20000627072009306/27/00 07:20:31  5-MIN KDBQ 271320Z 32009KT 10SM CLR 17/11 A3016 850 64 1400 320/09 RMK AO2
94908KDBQ DBQ20000627072509306/27/00 07:25:31  5-MIN KDBQ 271325Z 31008KT 10SM CLR 17/11 A3016 850 67 1400 310/08 RMK AO2
94908KDBQ DBQ20000627073009306/27/00 07:30:31  5-MIN KDBQ 271330Z 30008KT 10SM CLR 18/11 A3017 850 64 1400 300/08 RMK AO2
94908KDBQ DBQ20000627073509306/27/00 07:35:31  5-MIN KDBQ 271335Z 32009KT 10SM CLR 18/11 A3017 850 64 1400 320/09 RMK AO2
94908KDBQ DBQ20000627074009306/27/00 07:40:31  5-MIN KDBQ 271340Z 31008KT 10SM CLR 18/11 A3017 850 64 1400 310/08 RMK AO2
94908KDBQ DBQ20000627074509306/27/00 07:45:31  5-MIN KDBQ 271345Z 31007KT 10SM CLR 18/12 A3017 850 65 1500 310/07 RMK AO2
94908KDBQ DBQ20000627075011006/27/00 07:50:31  5-MIN KDBQ 271350Z 31008KT 10SM CLR 18/12 A3017 850 65 1500 310/08 RMK AO2 SLP215 T01830117
94908KDBQ DBQ20000627075511006/27/00 07:55:31  5-MIN KDBQ 271355Z 32008KT 10SM CLR 18/11 A3017 850 62 1500 320/08 RMK AO2 SLP215 T01830111
94908KDBQ DBQ20000627080009306/27/00 08:00:31  5-MIN KDBQ 271400Z 34007KT 10SM CLR 18/11 A3017 850 62 1500 340/07 RMK AO2
94908KDBQ DBQ20000627080509306/27/00 08:05:31  5-MIN KDBQ 271405Z 34007KT 10SM CLR 18/11 A3017 850 62 1500 340/07 RMK AO2
94908KDBQ DBQ20000627081009306/27/00 08:10:31  5-MIN KDBQ 271410Z 34007KT 10SM CLR 19/11 A3017 850 60 1500 340/07 RMK AO2
94908KDBQ DBQ20000627081509306/27/00 08:15:31  5-MIN KDBQ 271415Z 34005KT 10SM CLR 19/12 A3017 850 62 1500 340/05 RMK AO2
94908KDBQ DBQ20000627082009306/27/00 08:20:31  5-MIN KDBQ 271420Z 33006KT 10SM CLR 19/12 A3017 850 62 1500 330/06 RMK AO2
94908KDBQ DBQ20000627082509306/27/00 08:25:31  5-MIN KDBQ 271425Z 32006KT 10SM CLR 19/11 A3017 850 58 1600 320/06 RMK AO2
94908KDBQ DBQ20000627083009306/27/00 08:30:31  5-MIN KDBQ 271430Z 31007KT 10SM CLR 19/11 A3017 850 60 1500 310/07 RMK AO2
94908KDBQ DBQ20000627083509306/27/00 08:35:31  5-MIN KDBQ 271435Z 35008KT 10SM CLR 19/11 A3017 850 58 1600 350/08 RMK AO2
94908KDBQ DBQ20000627084009306/27/00 08:40:31  5-MIN KDBQ 271440Z 33006KT 10SM CLR 19/11 A3017 850 56 1600 330/06 RMK AO2
94908KDBQ DBQ20000627084509306/27/00 08:45:31  5-MIN KDBQ 271445Z 32006KT 10SM CLR 19/12 A3017 840 60 1600 320/06 RMK AO2
94908KDBQ DBQ20000627085011606/27/00 08:50:31  5-MIN KDBQ 271450Z 36009KT 10SM CLR 19/11 A3017 850 58 1600 350/09 RMK AO2 SLP215 T01940111 52014
94908KDBQ DBQ20000627085511606/27/00 08:55:31  5-MIN KDBQ 271455Z VRB06KT 10SM CLR 19/11 A3017 850 56 1600 VRB/06 RMK AO2 SLP215 T01940106 51008
94908KDBQ DBQ20000627090009306/27/00 09:00:31  5-MIN KDBQ 271500Z 32007KT 10SM CLR 20/11 A3017 840 56 1700 320/07 RMK AO2
94908KDBQ DBQ20000627090509306/27/00 09:05:31  5-MIN KDBQ 271505Z 32007KT 10SM CLR 20/11 A3018 840 56 1700 320/07 RMK AO2
94908KDBQ DBQ20000627091009306/27/00 09:10:31  5-MIN KDBQ 271510Z 31011KT 10SM CLR 20/11 A3018 840 56 1700 310/11 RMK AO2
94908KDBQ DBQ20000627091509306/27/00 09:15:31  5-MIN KDBQ 271515Z 32011KT 10SM CLR 20/11 A3018 840 54 1700 320/11 RMK AO2
94908KDBQ DBQ20000627092009906/27/00 09:20:31  5-MIN KDBQ 271520Z 31014G19KT 10SM CLR 20/11 A3018 840 54 1700 310/14G19 RMK AO2
94908KDBQ DBQ20000627092509906/27/00 09:25:31  5-MIN KDBQ 271525Z 32012G19KT 10SM CLR 20/11 A3018 840 54 1700 320/12G19 RMK AO2
94908KDBQ DBQ20000627093009306/27/00 09:30:31  5-MIN KDBQ 271530Z 34012KT 10SM CLR 21/11 A3018 840 52 1700 340/12 RMK AO2
94908KDBQ DBQ20000627093509306/27/00 09:35:31  5-MIN KDBQ 271535Z 33012KT 10SM CLR 21/10 A3018 840 50 1700 330/12 RMK AO2
94908KDBQ DBQ20000627094009306/27/00 09:40:31  5-MIN KDBQ 271540Z 34011KT 10SM CLR 21/10 A3018 840 50 1700 340/11 RMK AO2
94908KDBQ DBQ20000627094509306/27/00 09:45:31  5-MIN KDBQ 271545Z 32012KT 10SM CLR 21/11 A3018 840 52 1700 320/12 RMK AO2
94908KDBQ DBQ20000627095011006/27/00 09:50:31  5-MIN KDBQ 271550Z 31011KT 10SM CLR 21/11 A3018 840 52 1700 310/11 RMK AO2 SLP217 T02060106
94908KDBQ DBQ20000627095511006/27/00 09:55:31  5-MIN KDBQ 271555Z 31013KT 10SM CLR 21/10 A3018 840 50 1700 310/13 RMK AO2 SLP217 T02060100
94908KDBQ DBQ20000627100009306/27/00 10:00:31  5-MIN KDBQ 271600Z 34010KT 10SM CLR 21/10 A3018 840 50 1700 330/10 RMK AO2
94908KDBQ DBQ20000627100509306/27/00 10:05:31  5-MIN KDBQ 271605Z 31013KT 10SM CLR 21/11 A3018 840 50 1800 310/13 RMK AO2
94908KDBQ DBQ20000627101009306/27/00 10:10:31  5-MIN KDBQ 271610Z 33011KT 10SM CLR 21/11 A3018 840 52 1700 330/11 RMK AO2
94908KDBQ DBQ20000627101509306/27/00 10:15:31  5-MIN KDBQ 271615Z 30014KT 10SM CLR 21/11 A3018 840 50 1800 300/14 RMK AO2
94908KDBQ DBQ20000627102009306/27/00 10:20:31  5-MIN KDBQ 271620Z 33009KT 10SM CLR 21/11 A3018 840 52 1700 330/09 RMK AO2
94908KDBQ DBQ20000627102509306/27/00 10:25:31  5-MIN KDBQ 271625Z 31009KT 10SM CLR 21/11 A3018 840 52 1800 310/09 RMK AO2
94908KDBQ DBQ20000627103009306/27/00 10:30:31  5-MIN KDBQ 271630Z 32009KT 10SM CLR 21/11 A3018 840 52 1800 320/09 RMK AO2
94908KDBQ DBQ20000627103509306/27/00 10:35:31  5-MIN KDBQ 271635Z 34013KT 10SM CLR 21/10 A3018 840 50 1700 330/13 RMK AO2
94908KDBQ DBQ20000627104009306/27/00 10:40:31  5-MIN KDBQ 271640Z 32011KT 10SM CLR 21/11 A3018 840 50 1800 320/11 RMK AO2
94908KDBQ DBQ20000627104509306/27/00 10:45:31  5-MIN KDBQ 271645Z 33011KT 10SM CLR 21/11 A3018 840 50 1800 330/11 RMK AO2
94908KDBQ DBQ20000627105011006/27/00 10:50:31  5-MIN KDBQ 271650Z 32010KT 10SM CLR 22/11 A3018 840 50 1800 320/10 RMK AO2 SLP217 T02170111
94908KDBQ DBQ20000627105511006/27/00 10:55:31  5-MIN KDBQ 271655Z 32012KT 10SM CLR 21/11 A3018 840 50 1800 320/12 RMK AO2 SLP218 T02110106
94908KDBQ DBQ20000627110009306/27/00 11:00:31  5-MIN KDBQ 271700Z 30010KT 10SM CLR 21/11 A3018 840 50 1800 300/10 RMK AO2
94908KDBQ DBQ20000627110509306/27/00 11:05:31  5-MIN KDBQ 271705Z 32008KT 10SM CLR 22/11 A3018 840 50 1900 320/08 RMK AO2
94908KDBQ DBQ20000627111009306/27/00 11:10:31  5-MIN KDBQ 271710Z 32012KT 10SM CLR 22/11 A3018 840 50 1900 320/12 RMK AO2
94908KDBQ DBQ20000627111509306/27/00 11:15:31  5-MIN KDBQ 271715Z 32009KT 10SM CLR 22/12 A3018 840 52 1900 320/09 RMK AO2
94908KDBQ DBQ20000627112010906/27/00 11:20:31  5-MIN KDBQ 271720Z 32008KT 280V340 10SM CLR 21/11 A3017 840 50 1800 320/08 280V340 RMK AO2
94908KDBQ DBQ20000627112509306/27/00 11:25:31  5-MIN KDBQ 271725Z VRB06KT 10SM CLR 21/11 A3017 850 50 1800 VRB/06 RMK AO2
94908KDBQ DBQ20000627113009906/27/00 11:30:31  5-MIN KDBQ 271730Z 32011G14KT 10SM CLR 22/11 A3017 850 50 1900 320/11G14 RMK AO2
94908KDBQ DBQ20000627113509306/27/00 11:35:31  5-MIN KDBQ 271735Z 32013KT 10SM CLR 22/12 A3017 850 54 1900 320/13 RMK AO2
94908KDBQ DBQ20000627114009306/27/00 11:40:31  5-MIN KDBQ 271740Z 33010KT 10SM CLR 22/11 A3017 850 50 1900 330/10 RMK AO2
94908KDBQ DBQ20000627114509306/27/00 11:45:31  5-MIN KDBQ 271745Z 30007KT 10SM CLR 22/12 A3017 850 52 1900 300/07 RMK AO2
94908KDBQ DBQ20000627115012806/27/00 11:50:31  5-MIN KDBQ 271750Z 35012KT 10SM CLR 22/11 A3017 850 50 1900 350/12 RMK AO2 SLP212 T02170111 10222 20161 51008
94908KDBQ DBQ20000627115513106/27/00 11:55:31  5-MIN KDBQ 271755Z 32010KT 10SM FEW050 22/11 A3017 850 49 1900 320/10 RMK AO2 SLP213 T02170106 10222 20161 58002
94908KDBQ DBQ20000627120009606/27/00 12:00:31  5-MIN KDBQ 271800Z 32014KT 10SM FEW050 22/11 A3016 850 49 1900 320/14 RMK AO2
94908KDBQ DBQ20000627120509606/27/00 12:05:31  5-MIN KDBQ 271805Z 31010KT 10SM FEW050 22/10 A3016 850 47 1900 310/10 RMK AO2
94908KDBQ DBQ20000627121009606/27/00 12:10:31  5-MIN KDBQ 271810Z 33012KT 10SM FEW050 22/11 A3016 850 49 1900 330/12 RMK AO2
94908KDBQ DBQ20000627121509606/27/00 12:15:31  5-MIN KDBQ 271815Z 31006KT 10SM FEW050 22/11 A3016 850 49 1900 300/06 RMK AO2
94908KDBQ DBQ20000627122010206/27/00 12:20:31  5-MIN KDBQ 271820Z 32009G16KT 10SM FEW050 22/11 A3016 860 49 1900 320/09G16 RMK AO2
94908KDBQ DBQ20000627122510206/27/00 12:25:31  5-MIN KDBQ 271825Z 33014G17KT 10SM FEW050 22/11 A3016 860 47 1900 330/14G17 RMK AO2
94908KDBQ DBQ20000627123009606/27/00 12:30:31  5-MIN KDBQ 271830Z 33012KT 10SM FEW050 22/10 A3016 860 47 1900 330/12 RMK AO2
94908KDBQ DBQ20000627123510206/27/00 12:35:31  5-MIN KDBQ 271835Z 34008G16KT 10SM FEW050 22/11 A3016 860 49 1900 340/08G16 RMK AO2
94908KDBQ DBQ20000627124010206/27/00 12:40:31  5-MIN KDBQ 271840Z 35009G16KT 10SM FEW050 22/11 A3015 860 49 1900 340/09G16 RMK AO2
94908KDBQ DBQ20000627124509606/27/00 12:45:31  5-MIN KDBQ 271845Z 32009KT 10SM FEW055 22/11 A3016 860 49 1900 320/09 RMK AO2
94908KDBQ DBQ20000627125011306/27/00 12:50:31  5-MIN KDBQ 271850Z 33008KT 10SM FEW055 22/11 A3016 860 49 1900 330/08 RMK AO2 SLP210 T02220111
94908KDBQ DBQ20000627125511906/27/00 12:55:31  5-MIN KDBQ 271855Z 33011G15KT 10SM FEW050 22/11 A3016 860 50 1900 330/11G15 RMK AO2 SLP209 T02170111
94908KDBQ DBQ20000627130009606/27/00 13:00:31  5-MIN KDBQ 271900Z 31010KT 10SM FEW055 22/11 A3015 860 50 1900 310/10 RMK AO2
94908KDBQ DBQ20000627130509606/27/00 13:05:31  5-MIN KDBQ 271905Z 30006KT 10SM FEW050 22/11 A3015 860 49 1900 300/06 RMK AO2
94908KDBQ DBQ20000627131009606/27/00 13:10:31  5-MIN KDBQ 271910Z 32007KT 10SM FEW050 22/11 A3015 860 49 1900 320/07 RMK AO2
94908KDBQ DBQ20000627131509606/27/00 13:15:31  5-MIN KDBQ 271915Z 32009KT 10SM FEW050 23/12 A3015 860 49 2000 320/09 RMK AO2
94908KDBQ DBQ20000627132009606/27/00 13:20:31  5-MIN KDBQ 271920Z 33009KT 10SM FEW050 23/12 A3015 860 49 2000 330/09 RMK AO2
94908KDBQ DBQ20000627132509606/27/00 13:25:31  5-MIN KDBQ 271925Z 32009KT 10SM FEW050 23/11 A3015 870 47 2000 320/09 RMK AO2
94908KDBQ DBQ20000627133009606/27/00 13:30:31  5-MIN KDBQ 271930Z 31008KT 10SM FEW055 22/11 A3015 870 49 1900 310/08 RMK AO2
94908KDBQ DBQ20000627133509606/27/00 13:35:31  5-MIN KDBQ 271935Z 30009KT 10SM FEW055 22/11 A3015 870 49 1900 300/09 RMK AO2
94908KDBQ DBQ20000627134009606/27/00 13:40:31  5-MIN KDBQ 271940Z 31012KT 10SM FEW050 23/11 A3015 870 47 2000 310/12 RMK AO2
94908KDBQ DBQ20000627134511206/27/00 13:45:31  5-MIN KDBQ 271945Z 31007KT 270V330 10SM FEW055 22/11 A3015 870 49 1900 310/07 270V330 RMK AO2
94908KDBQ DBQ20000627135011306/27/00 13:50:31  5-MIN KDBQ 271950Z 31009KT 10SM SCT055 23/12 A3015 870 49 2000 310/09 RMK AO2 SLP207 T02280117
94908KDBQ DBQ20000627135511906/27/00 13:55:31  5-MIN KDBQ 271955Z 33006G14KT 10SM BKN055 22/11 A3015 870 49 1900 330/06G14 RMK AO2 SLP207 T02220111
94908KDBQ DBQ20000627140009606/27/00 14:00:31  5-MIN KDBQ 272000Z 31011KT 10SM BKN055 23/12 A3015 870 51 2000 310/11 RMK AO2
94908KDBQ DBQ20000627140509606/27/00 14:05:31  5-MIN KDBQ 272005Z 34010KT 10SM SCT055 22/11 A3015 870 49 1900 340/10 RMK AO2
94908KDBQ DBQ20000627141009606/27/00 14:10:31  5-MIN KDBQ 272010Z 30005KT 10SM SCT055 22/11 A3015 870 49 1900 300/05 RMK AO2
94908KDBQ DBQ20000627141509606/27/00 14:15:31  5-MIN KDBQ 272015Z 32011KT 10SM BKN055 22/11 A3015 870 49 1900 320/11 RMK AO2
94908KDBQ DBQ20000627142009606/27/00 14:20:31  5-MIN KDBQ 272020Z 30009KT 10SM SCT055 23/11 A3014 870 45 2000 300/09 RMK AO2
94908KDBQ DBQ20000627142510206/27/00 14:25:31  5-MIN KDBQ 272025Z 30011G17KT 10SM FEW055 23/11 A3015 870 45 2000 300/11G17 RMK AO2
94908KDBQ DBQ20000627143009606/27/00 14:30:31  5-MIN KDBQ 272030Z 33011KT 10SM FEW055 23/11 A3015 870 47 2000 330/11 RMK AO2
94908KDBQ DBQ20000627143509606/27/00 14:35:31  5-MIN KDBQ 272035Z 35010KT 10SM FEW055 23/12 A3014 870 49 2000 350/10 RMK AO2
94908KDBQ DBQ20000627144011206/27/00 14:40:31  5-MIN KDBQ 272040Z 32007KT 300V010 10SM FEW060 23/11 A3014 880 45 2000 320/07 300V010 RMK AO2
94908KDBQ DBQ20000627144509606/27/00 14:45:31  5-MIN KDBQ 272045Z 36009KT 10SM FEW055 23/11 A3014 880 45 2000 360/09 RMK AO2
94908KDBQ DBQ20000627145012506/27/00 14:50:31  5-MIN KDBQ 272050Z 31012G16KT 10SM SCT055 23/12 A3014 880 49 2000 310/12G16 RMK AO2 SLP203 T02280117 58002
94908KDBQ DBQ20000627145512506/27/00 14:55:31  5-MIN KDBQ 272055Z 33010G16KT 10SM FEW055 22/11 A3014 880 47 2000 330/10G16 RMK AO2 SLP203 T02220106 58010
94908KDBQ DBQ20000627150009606/27/00 15:00:31  5-MIN KDBQ 272100Z 30009KT 10SM FEW055 23/11 A3014 880 47 2000 300/09 RMK AO2
94908KDBQ DBQ20000627150509606/27/00 15:05:31  5-MIN KDBQ 272105Z 27007KT 10SM SCT060 23/11 A3014 880 47 2000 270/07 RMK AO2
94908KDBQ DBQ20000627151009606/27/00 15:10:31  5-MIN KDBQ 272110Z 34007KT 10SM SCT060 22/11 A3014 880 47 2000 330/07 RMK AO2
94908KDBQ DBQ20000627151509606/27/00 15:15:31  5-MIN KDBQ 272115Z 29006KT 10SM FEW060 22/10 A3013 880 47 1900 290/06 RMK AO2
94908KDBQ DBQ20000627152009606/27/00 15:20:31  5-MIN KDBQ 272120Z 30009KT 10SM FEW060 23/11 A3013 880 45 2000 300/09 RMK AO2
94908KDBQ DBQ20000627152509606/27/00 15:25:31  5-MIN KDBQ 272125Z 31010KT 10SM FEW060 23/12 A3013 880 47 2100 310/10 RMK AO2
94908KDBQ DBQ20000627153009606/27/00 15:30:31  5-MIN KDBQ 272130Z 31008KT 10SM FEW060 23/11 A3013 880 45 2000 310/08 RMK AO2
94908KDBQ DBQ20000627153509606/27/00 15:35:31  5-MIN KDBQ 272135Z 28008KT 10SM FEW055 23/11 A3013 890 45 2000 280/08 RMK AO2
94908KDBQ DBQ20000627154009306/27/00 15:40:31  5-MIN KDBQ 272140Z 29009KT 10SM CLR 23/11 A3013 880 47 2000 280/09 RMK AO2
94908KDBQ DBQ20000627154509306/27/00 15:45:31  5-MIN KDBQ 272145Z 28007KT 10SM CLR 23/11 A3013 880 45 2000 280/07 RMK AO2
94908KDBQ DBQ20000627155011006/27/00 15:50:31  5-MIN KDBQ 272150Z 31007KT 10SM CLR 23/11 A3013 890 47 2000 310/07 RMK AO2 SLP200 T02280111
94908KDBQ DBQ20000627155511306/27/00 15:55:31  5-MIN KDBQ 272155Z 29008KT 10SM BKN055 23/10 A3013 890 44 2000 280/08 RMK AO2 SLP199 T02280100
94908KDBQ DBQ20000627160009606/27/00 16:00:31  5-MIN KDBQ 272200Z 34007KT 10SM BKN055 23/11 A3013 890 47 2000 340/07 RMK AO2
94908KDBQ DBQ20000627160509606/27/00 16:05:31  5-MIN KDBQ 272205Z 32009KT 10SM BKN055 23/11 A3013 890 47 2000 320/09 RMK AO2
94908KDBQ DBQ20000627161009606/27/00 16:10:31  5-MIN KDBQ 272210Z 33008KT 10SM BKN055 23/11 A3012 890 45 2000 330/08 RMK AO2
94908KDBQ DBQ20000627161509606/27/00 16:15:31  5-MIN KDBQ 272215Z 30009KT 10SM BKN055 23/11 A3013 890 45 2000 290/09 RMK AO2
94908KDBQ DBQ20000627162009606/27/00 16:20:31  5-MIN KDBQ 272220Z 32008KT 10SM BKN055 23/11 A3012 890 45 2000 320/08 RMK AO2
94908KDBQ DBQ20000627162509606/27/00 16:25:31  5-MIN KDBQ 272225Z 30008KT 10SM BKN055 23/11 A3012 890 45 2000 300/08 RMK AO2
94908KDBQ DBQ20000627163009606/27/00 16:30:31  5-MIN KDBQ 272230Z 33009KT 10SM BKN055 23/11 A3012 890 45 2000 330/09 RMK AO2
94908KDBQ DBQ20000627163509606/27/00 16:35:31  5-MIN KDBQ 272235Z 33009KT 10SM BKN055 23/11 A3012 890 47 2000 330/09 RMK AO2
94908KDBQ DBQ20000627164009606/27/00 16:40:31  5-MIN KDBQ 272240Z 32007KT 10SM BKN055 23/11 A3012 900 47 2000 320/07 RMK AO2
94908KDBQ DBQ20000627164509606/27/00 16:45:31  5-MIN KDBQ 272245Z 28007KT 10SM BKN055 23/11 A3012 900 45 2000 280/07 RMK AO2
94908KDBQ DBQ20000627165011306/27/00 16:50:31  5-MIN KDBQ 272250Z 32009KT 10SM BKN055 23/11 A3012 890 45 2000 320/09 RMK AO2 SLP197 T02280106
94908KDBQ DBQ20000627165511306/27/00 16:55:31  5-MIN KDBQ 272255Z 32006KT 10SM BKN055 23/11 A3012 900 45 2000 320/06 RMK AO2 SLP196 T02280106
94908KDBQ DBQ20000627170009606/27/00 17:00:31  5-MIN KDBQ 272300Z 35005KT 10SM SCT060 23/11 A3012 900 45 2000 350/05 RMK AO2
94908KDBQ DBQ20000627170509606/27/00 17:05:31  5-MIN KDBQ 272305Z 32007KT 10SM FEW060 23/11 A3012 900 44 2100 320/07 RMK AO2
94908KDBQ DBQ20000627171009606/27/00 17:10:31  5-MIN KDBQ 272310Z 32008KT 10SM FEW060 23/11 A3011 900 45 2000 320/08 RMK AO2
94908KDBQ DBQ20000627171509606/27/00 17:15:31  5-MIN KDBQ 272315Z 30006KT 10SM FEW060 21/11 A3011 900 50 1900 300/06 RMK AO2
94908KDBQ DBQ20000627172009306/27/00 17:20:31  5-MIN KDBQ 272320Z 30005KT 10SM CLR 22/11 A3011 900 49 2000 300/05 RMK AO2
94908KDBQ DBQ20000627172509306/27/00 17:25:31  5-MIN KDBQ 272325Z 30004KT 10SM CLR 23/11 A3011 900 47 2100 300/04 RMK AO2
94908KDBQ DBQ20000627173009306/27/00 17:30:31  5-MIN KDBQ 272330Z 32005KT 10SM CLR 23/11 A3011 900 45 2100 310/05 RMK AO2
94908KDBQ DBQ20000627173509306/27/00 17:35:31  5-MIN KDBQ 272335Z 31005KT 10SM CLR 23/10 A3011 900 44 2100 310/05 RMK AO2
94908KDBQ DBQ20000627174009306/27/00 17:40:31  5-MIN KDBQ 272340Z 29006KT 10SM CLR 23/10 A3011 900 44 2100 290/06 RMK AO2
94908KDBQ DBQ20000627174509306/27/00 17:45:31  5-MIN KDBQ 272345Z 33008KT 10SM CLR 22/11 A3011 900 47 2000 330/08 RMK AO2
94908KDBQ DBQ20000627175012806/27/00 17:50:31  5-MIN KDBQ 272350Z 32006KT 10SM CLR 22/10 A3011 900 45 2000 320/06 RMK AO2 SLP193 T02220100 10233 20211 58010
94908KDBQ DBQ20000627175512806/27/00 17:55:31  5-MIN KDBQ 272355Z 33005KT 10SM CLR 22/10 A3011 900 45 2000 330/05 RMK AO2 SLP194 T02220100 10233 20211 56008
94908KDBQ DBQ20000627180009306/27/00 18:00:31  5-MIN KDBQ 280000Z 30007KT 10SM CLR 22/11 A3011 900 47 2000 300/07 RMK AO2
94908KDBQ DBQ20000627180509306/27/00 18:05:31  5-MIN KDBQ 280005Z 30006KT 10SM CLR 22/11 A3011 900 49 1900 300/06 RMK AO2
94908KDBQ DBQ20000627181009306/27/00 18:10:31  5-MIN KDBQ 280010Z 29006KT 10SM CLR 22/11 A3011 900 49 1900 290/06 RMK AO2
94908KDBQ DBQ20000627181509306/27/00 18:15:31  5-MIN KDBQ 280015Z 28005KT 10SM CLR 22/11 A3011 900 49 1900 280/05 RMK AO2
94908KDBQ DBQ20000627182009306/27/00 18:20:31  5-MIN KDBQ 280020Z 27005KT 10SM CLR 22/12 A3011 900 52 1900 270/05 RMK AO2
94908KDBQ DBQ20000627182509306/27/00 18:25:31  5-MIN KDBQ 280025Z 29004KT 10SM CLR 22/12 A3012 900 52 1900 290/04 RMK AO2
94908KDBQ DBQ20000627183009306/27/00 18:30:31  5-MIN KDBQ 280030Z 30006KT 10SM CLR 22/12 A3012 900 52 1900 300/06 RMK AO2
94908KDBQ DBQ20000627183509306/27/00 18:35:31  5-MIN KDBQ 280035Z 30005KT 10SM CLR 21/11 A3011 900 52 1900 300/05 RMK AO2
94908KDBQ DBQ20000627184009306/27/00 18:40:31  5-MIN KDBQ 280040Z 30005KT 10SM CLR 21/12 A3012 900 54 1900 300/05 RMK AO2
94908KDBQ DBQ20000627184509306/27/00 18:45:31  5-MIN KDBQ 280045Z 30005KT 10SM CLR 21/13 A3012 900 60 1800 300/05 RMK AO2
94908KDBQ DBQ20000627185011006/27/00 18:50:31  5-MIN KDBQ 280050Z 30004KT 10SM CLR 21/13 A3012 900 60 1800 300/04 RMK AO2 SLP196 T02060128
94908KDBQ DBQ20000627185511006/27/00 18:55:31  5-MIN KDBQ 280055Z 32004KT 10SM CLR 20/13 A3011 900 63 1700 320/04 RMK AO2 SLP194 T02000128
94908KDBQ DBQ20000627190010306/27/00 19:00:31  5-MIN KDBQ 280100Z AUTO 32005KT 10SM CLR 21/12 A3011 900 56 1800 320/05 RMK AO2 TSNO
94908KDBQ DBQ20000627190510306/27/00 19:05:31  5-MIN KDBQ 280105Z AUTO 31004KT 10SM CLR 20/12 A3011 900 58 1700 310/04 RMK AO2 TSNO
94908KDBQ DBQ20000627191010306/27/00 19:10:31  5-MIN KDBQ 280110Z AUTO 32005KT 10SM CLR 20/12 A3011 910 58 1700 320/05 RMK AO2 TSNO
94908KDBQ DBQ20000627191510306/27/00 19:15:31  5-MIN KDBQ 280115Z AUTO 32005KT 10SM CLR 20/11 A3011 910 56 1700 320/05 RMK AO2 TSNO
94908KDBQ DBQ20000627192010306/27/00 19:20:31  5-MIN KDBQ 280120Z AUTO 33004KT 10SM CLR 20/11 A3010 910 54 1700 330/04 RMK AO2 TSNO
94908KDBQ DBQ20000627192510306/27/00 19:25:31  5-MIN KDBQ 280125Z AUTO 32003KT 10SM CLR 19/11 A3010 910 56 1700 320/03 RMK AO2 TSNO
94908KDBQ DBQ20000627193010306/27/00 19:30:31  5-MIN KDBQ 280130Z AUTO 32003KT 10SM CLR 20/10 A3011 910 52 1700 310/03 RMK AO2 TSNO
94908KDBQ DBQ20000627193510306/27/00 19:35:31  5-MIN KDBQ 280135Z AUTO 31003KT 10SM CLR 21/10 A3010 910 50 1800 310/03 RMK AO2 TSNO
94908KDBQ DBQ20000627194010306/27/00 19:40:31  5-MIN KDBQ 280140Z AUTO 31003KT 10SM CLR 20/11 A3010 910 54 1700 310/03 RMK AO2 TSNO
94908KDBQ DBQ20000627194510306/27/00 19:45:31  5-MIN KDBQ 280145Z AUTO 32003KT 10SM CLR 20/10 A3010 910 52 1700 320/03 RMK AO2 TSNO
94908KDBQ DBQ20000627195012006/27/00 19:50:31  5-MIN KDBQ 280150Z AUTO 33003KT 10SM CLR 20/10 A3010 910 52 1700 330/03 RMK AO2 SLP189 T02000100 TSNO
94908KDBQ DBQ20000627195512006/27/00 19:55:31  5-MIN KDBQ 280155Z AUTO 34003KT 10SM CLR 19/11 A3010 910 58 1600 340/03 RMK AO2 SLP190 T01890106 TSNO
94908KDBQ DBQ20000627200010306/27/00 20:00:31  5-MIN KDBQ 280200Z AUTO 00000KT 10SM CLR 19/11 A3010 910 60 1600 000/00 RMK AO2 TSNO
94908KDBQ DBQ20000627200510306/27/00 20:05:31  5-MIN KDBQ 280205Z AUTO 00000KT 10SM CLR 19/11 A3010 910 60 1600 000/00 RMK AO2 TSNO
94908KDBQ DBQ20000627201010306/27/00 20:10:31  5-MIN KDBQ 280210Z AUTO 00000KT 10SM CLR 18/11 A3010 910 62 1600 000/00 RMK AO2 TSNO
94908KDBQ DBQ20000627201510306/27/00 20:15:31  5-MIN KDBQ 280215Z AUTO 00000KT 10SM CLR 19/11 A3010 910 60 1600 000/00 RMK AO2 TSNO
94908KDBQ DBQ20000627202010306/27/00 20:20:31  5-MIN KDBQ 280220Z AUTO 00000KT 10SM CLR 19/11 A3010 910 60 1600 000/00 RMK AO2 TSNO
94908KDBQ DBQ20000627202510306/27/00 20:25:31  5-MIN KDBQ 280225Z AUTO 00000KT 10SM CLR 18/11 A3010 910 60 1600 000/00 RMK AO2 TSNO
94908KDBQ DBQ20000627203010306/27/00 20:30:31  5-MIN KDBQ 280230Z AUTO 00000KT 10SM CLR 18/12 A3010 910 67 1500 000/00 RMK AO2 TSNO
94908KDBQ DBQ20000627203510306/27/00 20:35:31  5-MIN KDBQ 280235Z AUTO 00000KT 10SM CLR 17/12 A3011 910 72 1400 000/00 RMK AO2 TSNO
94908KDBQ DBQ20000627204010306/27/00 20:40:31  5-MIN KDBQ 280240Z AUTO 00000KT 10SM CLR 18/12 A3011 910 69 1500 000/00 RMK AO2 TSNO
94908KDBQ DBQ20000627204510306/27/00 20:45:31  5-MIN KDBQ 280245Z AUTO 00000KT 10SM CLR 17/13 A3011 910 75 1400 000/00 RMK AO2 TSNO
94908KDBQ DBQ20000627205012606/27/00 20:50:31  5-MIN KDBQ 280250Z AUTO 00000KT 10SM CLR 17/13 A3011 900 75 1400 000/00 RMK AO2 SLP193 T01720128 56008 TSNO
94908KDBQ DBQ20000627205512606/27/00 20:55:31  5-MIN KDBQ 280255Z AUTO 00000KT 10SM CLR 18/13 A3011 900 72 1500 000/00 RMK AO2 SLP194 T01780128 55001 TSNO
94908KDBQ DBQ20000627210010306/27/00 21:00:31  5-MIN KDBQ 280300Z AUTO 00000KT 10SM CLR 17/12 A3011 900 75 1300 000/00 RMK AO2 TSNO
94908KDBQ DBQ20000627210510306/27/00 21:05:31  5-MIN KDBQ 280305Z AUTO 00000KT 10SM CLR 16/13 A3012 900 86 1200 000/00 RMK AO2 TSNO
94908KDBQ DBQ20000627211010306/27/00 21:10:31  5-MIN KDBQ 280310Z AUTO 00000KT 10SM CLR 16/13 A3012 900 83 1200 000/00 RMK AO2 TSNO
94908KDBQ DBQ20000627211510306/27/00 21:15:31  5-MIN KDBQ 280315Z AUTO 00000KT 10SM CLR 16/13 A3012 890 86 1200 000/00 RMK AO2 TSNO
94908KDBQ DBQ20000627212010306/27/00 21:20:31  5-MIN KDBQ 280320Z AUTO 00000KT 10SM CLR 16/13 A3012 890 86 1200 000/00 RMK AO2 TSNO
94908KDBQ DBQ20000627212510306/27/00 21:25:31  5-MIN KDBQ 280325Z AUTO 00000KT 10SM CLR 16/13 A3012 890 86 1200 000/00 RMK AO2 TSNO
94908KDBQ DBQ20000627213010306/27/00 21:30:31  5-MIN KDBQ 280330Z AUTO 00000KT 10SM CLR 16/13 A3012 890 80 1300 000/00 RMK AO2 TSNO
94908KDBQ DBQ20000627213510306/27/00 21:35:31  5-MIN KDBQ 280335Z AUTO 00000KT 10SM CLR 16/13 A3012 890 80 1300 000/00 RMK AO2 TSNO
94908KDBQ DBQ20000627214010306/27/00 21:40:31  5-MIN KDBQ 280340Z AUTO 00000KT 10SM CLR 16/12 A3012 890 77 1300 000/00 RMK AO2 TSNO
94908KDBQ DBQ20000627214510306/27/00 21:45:31  5-MIN KDBQ 280345Z AUTO 00000KT 10SM CLR 16/13 A3012 890 80 1300 000/00 RMK AO2 TSNO
94908KDBQ DBQ20000627215012006/27/00 21:50:31  5-MIN KDBQ 280350Z AUTO 19004KT 10SM CLR 14/13 A3013 890 90 1100 190/04 RMK AO2 SLP199 T01440128 TSNO
94908KDBQ DBQ20000627215512006/27/00 21:55:31  5-MIN KDBQ 280355Z AUTO 21003KT 10SM CLR 14/13 A3013 890 90 1100 200/03 RMK AO2 SLP200 T01440128 TSNO
94908KDBQ DBQ20000627220010306/27/00 22:00:31  5-MIN KDBQ 280400Z AUTO 00000KT 10SM CLR 15/13 A3013 890 86 1100 000/00 RMK AO2 TSNO
94908KDBQ DBQ20000627220510306/27/00 22:05:31  5-MIN KDBQ 280405Z AUTO 00000KT 10SM CLR 15/13 A3013 890 86 1100 000/00 RMK AO2 TSNO
94908KDBQ DBQ20000627221010306/27/00 22:10:31  5-MIN KDBQ 280410Z AUTO 00000KT 10SM CLR 15/13 A3013 890 86 1100 000/00 RMK AO2 TSNO
94908KDBQ DBQ20000627221510306/27/00 22:15:31  5-MIN KDBQ 280415Z AUTO 00000KT 10SM CLR 15/12 A3012 890 83 1100 000/00 RMK AO2 TSNO
94908KDBQ DBQ20000627222010306/27/00 22:20:31  5-MIN KDBQ 280420Z AUTO 00000KT 10SM CLR 15/12 A3013 890 83 1100 000/00 RMK AO2 TSNO
94908KDBQ DBQ20000627222510306/27/00 22:25:31  5-MIN KDBQ 280425Z AUTO 00000KT 10SM CLR 15/12 A3012 890 83 1100 000/00 RMK AO2 TSNO
94908KDBQ DBQ20000627223010306/27/00 22:30:31  5-MIN KDBQ 280430Z AUTO 00000KT 10SM CLR 16/13 A3012 890 83 1200 000/00 RMK AO2 TSNO
94908KDBQ DBQ20000627223510306/27/00 22:35:31  5-MIN KDBQ 280435Z AUTO 00000KT 10SM CLR 16/12 A3012 890 80 1200 000/00 RMK AO2 TSNO
94908KDBQ DBQ20000627224010306/27/00 22:40:31  5-MIN KDBQ 280440Z AUTO 16003KT 10SM CLR 16/12 A3012 890 77 1200 160/03 RMK AO2 TSNO
94908KDBQ DBQ20000627224510306/27/00 22:45:31  5-MIN KDBQ 280445Z AUTO 17004KT 10SM CLR 16/12 A3012 890 77 1200 170/04 RMK AO2 TSNO
94908KDBQ DBQ20000627225012006/27/00 22:50:31  5-MIN KDBQ 280450Z AUTO 17004KT 10SM CLR 17/11 A3012 890 69 1300 170/04 RMK AO2 SLP196 T01670111 TSNO
94908KDBQ DBQ20000627225512006/27/00 22:55:31  5-MIN KDBQ 280455Z AUTO 17003KT 10SM CLR 17/11 A3012 900 69 1300 170/03 RMK AO2 SLP196 T01670111 TSNO
94908KDBQ DBQ20000627230010306/27/00 23:00:31  5-MIN KDBQ 280500Z AUTO 18003KT 10SM CLR 16/11 A3012 900 72 1300 180/03 RMK AO2 TSNO
94908KDBQ DBQ20000627230510306/27/00 23:05:31  5-MIN KDBQ 280505Z AUTO 00000KT 10SM CLR 16/12 A3012 900 80 1200 000/00 RMK AO2 TSNO
94908KDBQ DBQ20000627231010306/27/00 23:10:31  5-MIN KDBQ 280510Z AUTO 00000KT 10SM CLR 15/13 A3012 900 86 1100 000/00 RMK AO2 TSNO
94908KDBQ DBQ20000627231510306/27/00 23:15:31  5-MIN KDBQ 280515Z AUTO 00000KT 10SM CLR 15/12 A3012 890 83 1100 000/00 RMK AO2 TSNO
94908KDBQ DBQ20000627232010306/27/00 23:20:31  5-MIN KDBQ 280520Z AUTO 18003KT 10SM CLR 15/12 A3012 890 80 1100 180/03 RMK AO2 TSNO
94908KDBQ DBQ20000627232510306/27/00 23:25:31  5-MIN KDBQ 280525Z AUTO 19003KT 10SM CLR 15/12 A3012 890 83 1100 190/03 RMK AO2 TSNO
94908KDBQ DBQ20000627233010306/27/00 23:30:31  5-MIN KDBQ 280530Z AUTO 18003KT 10SM CLR 16/12 A3012 900 77 1200 180/03 RMK AO2 TSNO
94908KDBQ DBQ20000627233510306/27/00 23:35:31  5-MIN KDBQ 280535Z AUTO 17003KT 10SM CLR 15/12 A3012 900 80 1100 170/03 RMK AO2 TSNO
94908KDBQ DBQ20000627234010306/27/00 23:40:31  5-MIN KDBQ 280540Z AUTO 16003KT 10SM CLR 15/12 A3012 900 80 1100 160/03 RMK AO2 TSNO
94908KDBQ DBQ20000627234510306/27/00 23:45:31  5-MIN KDBQ 280545Z AUTO 17003KT 10SM CLR 15/12 A3011 900 80 1100 170/03 RMK AO2 TSNO
94908KDBQ DBQ20000627235014806/27/00 23:50:31  5-MIN KDBQ 280550Z AUTO 00000KT 10SM CLR 16/12 A3011 900 77 1200 000/00 RMK AO2 SLP195 T01560117 10222 20144 402330144 55001 TSNO
94908KDBQ DBQ20000627235514806/27/00 23:55:31  5-MIN KDBQ 280555Z AUTO 17003KT 10SM CLR 16/12 A3011 900 77 1200 170/03 RMK AO2 SLP195 T01560117 10222 20144 402330144 50001 TSNO
94908KDBQ DBQ20000628000010306/28/00 00:00:31  5-MIN KDBQ 280600Z AUTO 17004KT 10SM CLR 16/12 A3011 900 77 1200 170/04 RMK AO2 TSNO
94908KDBQ DBQ20000628000510306/28/00 00:05:31  5-MIN KDBQ 280605Z AUTO 17004KT 10SM CLR 15/12 A3011 900 80 1200 170/04 RMK AO2 TSNO
94908KDBQ DBQ20000628001010306/28/00 00:10:31  5-MIN KDBQ 280610Z AUTO 17004KT 10SM CLR 15/12 A3011 900 80 1200 170/04 RMK AO2 TSNO
94908KDBQ DBQ20000628001510306/28/00 00:15:31  5-MIN KDBQ 280615Z AUTO 18003KT 10SM CLR 15/12 A3011 900 80 1200 180/03 RMK AO2 TSNO
94908KDBQ DBQ20000628002010606/28/00 00:20:31  5-MIN KDBQ 280620Z AUTO 17003KT 10SM FEW065 15/12 A3011 900 83 1200 170/03 RMK AO2 TSNO
94908KDBQ DBQ20000628002510606/28/00 00:25:31  5-MIN KDBQ 280625Z AUTO 17004KT 10SM SCT065 15/12 A3011 900 83 1200 170/04 RMK AO2 TSNO
94908KDBQ DBQ20000628003010606/28/00 00:30:31  5-MIN KDBQ 280630Z AUTO 00000KT 10SM BKN065 15/12 A3011 900 83 1200 000/00 RMK AO2 TSNO
94908KDBQ DBQ20000628003510606/28/00 00:35:31  5-MIN KDBQ 280635Z AUTO 19003KT 10SM BKN070 14/12 A3011 910 86 1100 180/03 RMK AO2 TSNO
94908KDBQ DBQ20000628004010606/28/00 00:40:31  5-MIN KDBQ 280640Z AUTO 19003KT 10SM BKN070 14/12 A3011 910 86 1100 190/03 RMK AO2 TSNO
94908KDBQ DBQ20000628004510606/28/00 00:45:31  5-MIN KDBQ 280645Z AUTO 19003KT 10SM OVC070 14/13 A3011 910 90 1100 190/03 RMK AO2 TSNO
94908KDBQ DBQ20000628005012306/28/00 00:50:31  5-MIN KDBQ 280650Z AUTO 00000KT 10SM OVC070 15/13 A3011 910 86 1200 000/00 RMK AO2 SLP192 T01500128 TSNO
94908KDBQ DBQ20000628005512306/28/00 00:55:31  5-MIN KDBQ 280655Z AUTO 17003KT 10SM OVC070 15/13 A3010 910 86 1200 170/03 RMK AO2 SLP192 T01500128 TSNO
94908KDBQ DBQ20000628010010606/28/00 01:00:31  5-MIN KDBQ 280700Z AUTO 17003KT 10SM OVC075 15/13 A3010 910 86 1200 170/03 RMK AO2 TSNO
94908KDBQ DBQ20000628010510606/28/00 01:05:31  5-MIN KDBQ 280705Z AUTO 00000KT 10SM OVC075 16/12 A3010 910 80 1200 000/00 RMK AO2 TSNO
94908KDBQ DBQ20000628011010606/28/00 01:10:31  5-MIN KDBQ 280710Z AUTO 18004KT 10SM BKN075 15/12 A3010 910 83 1200 180/04 RMK AO2 TSNO
94908KDBQ DBQ20000628011510606/28/00 01:15:31  5-MIN KDBQ 280715Z AUTO 19005KT 10SM BKN080 15/12 A3010 910 83 1200 190/05 RMK AO2 TSNO
94908KDBQ DBQ20000628012010606/28/00 01:20:31  5-MIN KDBQ 280720Z AUTO 19005KT 10SM BKN080 15/12 A3010 910 83 1200 190/05 RMK AO2 TSNO
94908KDBQ DBQ20000628012510606/28/00 01:25:31  5-MIN KDBQ 280725Z AUTO 19004KT 10SM OVC080 15/12 A3010 910 83 1200 190/04 RMK AO2 TSNO
94908KDBQ DBQ20000628013010606/28/00 01:30:31  5-MIN KDBQ 280730Z AUTO 19004KT 10SM BKN080 15/12 A3010 910 83 1200 190/04 RMK AO2 TSNO
94908KDBQ DBQ20000628013510606/28/00 01:35:31  5-MIN KDBQ 280735Z AUTO 19004KT 10SM BKN080 15/12 A3010 920 83 1200 180/04 RMK AO2 TSNO
94908KDBQ DBQ20000628014010606/28/00 01:40:31  5-MIN KDBQ 280740Z AUTO 18004KT 10SM BKN080 15/12 A3009 920 83 1200 180/04 RMK AO2 TSNO
94908KDBQ DBQ20000628014510606/28/00 01:45:31  5-MIN KDBQ 280745Z AUTO 19004KT 10SM SCT080 15/12 A3009 920 83 1200 180/04 RMK AO2 TSNO
94908KDBQ DBQ20000628015012306/28/00 01:50:31  5-MIN KDBQ 280750Z AUTO 18004KT 10SM FEW080 15/12 A3009 920 83 1200 180/04 RMK AO2 SLP187 T01500122 TSNO
94908KDBQ DBQ20000628015512306/28/00 01:55:31  5-MIN KDBQ 280755Z AUTO 19004KT 10SM FEW085 15/12 A3009 920 83 1200 190/04 RMK AO2 SLP187 T01500122 TSNO
94908KDBQ DBQ20000628020010606/28/00 02:00:31  5-MIN KDBQ 280800Z AUTO 20004KT 10SM FEW090 15/12 A3009 920 83 1200 200/04 RMK AO2 TSNO
94908KDBQ DBQ20000628020510606/28/00 02:05:31  5-MIN KDBQ 280805Z AUTO 19003KT 10SM FEW090 14/13 A3009 920 90 1100 190/03 RMK AO2 TSNO
94908KDBQ DBQ20000628021010306/28/00 02:10:31  5-MIN KDBQ 280810Z AUTO 19003KT 10SM CLR 14/13 A3009 930 90 1100 190/03 RMK AO2 TSNO
94908KDBQ DBQ20000628021510306/28/00 02:15:31  5-MIN KDBQ 280815Z AUTO 18003KT 10SM CLR 14/13 A3008 930 90 1100 180/03 RMK AO2 TSNO
94908KDBQ DBQ20000628022010306/28/00 02:20:31  5-MIN KDBQ 280820Z AUTO 17003KT 10SM CLR 14/13 A3008 930 90 1100 170/03 RMK AO2 TSNO
94908KDBQ DBQ20000628022510306/28/00 02:25:31  5-MIN KDBQ 280825Z AUTO 19003KT 10SM CLR 14/13 A3008 930 90 1100 190/03 RMK AO2 TSNO
94908KDBQ DBQ20000628023010606/28/00 02:30:31  5-MIN KDBQ 280830Z AUTO 20004KT 10SM FEW070 14/13 A3009 920 90 1100 200/04 RMK AO2 TSNO
94908KDBQ DBQ20000628023510606/28/00 02:35:31  5-MIN KDBQ 280835Z AUTO 20004KT 10SM SCT070 14/13 A3009 930 90 1100 200/04 RMK AO2 TSNO
94908KDBQ DBQ20000628024010606/28/00 02:40:31  5-MIN KDBQ 280840Z AUTO 20004KT 10SM BKN070 14/13 A3009 930 90 1100 200/04 RMK AO2 TSNO
94908KDBQ DBQ20000628024510606/28/00 02:45:31  5-MIN KDBQ 280845Z AUTO 19004KT 10SM BKN070 14/13 A3008 930 90 1100 190/04 RMK AO2 TSNO
94908KDBQ DBQ20000628025012906/28/00 02:50:31  5-MIN KDBQ 280850Z AUTO 19004KT 10SM BKN070 15/13 A3008 930 86 1200 190/04 RMK AO2 SLP185 T01500128 50001 TSNO
94908KDBQ DBQ20000628025512906/28/00 02:55:31  5-MIN KDBQ 280855Z AUTO 19004KT 10SM BKN070 15/13 A3008 930 86 1200 190/04 RMK AO2 SLP185 T01500128 56009 TSNO
94908KDBQ DBQ20000628030011306/28/00 03:00:31  5-MIN KDBQ 280900Z AUTO 18004KT 10SM BKN070 OVC085 15/13 A3008 930 86 1200 180/04 RMK AO2 TSNO
94908KDBQ DBQ20000628030511306/28/00 03:05:31  5-MIN KDBQ 280905Z AUTO 19004KT 10SM BKN070 OVC080 15/13 A3008 930 86 1200 190/04 RMK AO2 TSNO
94908KDBQ DBQ20000628031010606/28/00 03:10:31  5-MIN KDBQ 280910Z AUTO 19004KT 10SM OVC075 15/13 A3008 930 90 1200 190/04 RMK AO2 TSNO
94908KDBQ DBQ20000628031510606/28/00 03:15:31  5-MIN KDBQ 280915Z AUTO 19004KT 10SM OVC075 15/13 A3008 930 90 1200 190/04 RMK AO2 TSNO
94908KDBQ DBQ20000628032010606/28/00 03:20:31  5-MIN KDBQ 280920Z AUTO 19004KT 10SM OVC080 15/13 A3008 930 90 1200 190/04 RMK AO2 TSNO
94908KDBQ DBQ20000628032510606/28/00 03:25:31  5-MIN KDBQ 280925Z AUTO 19004KT 10SM OVC080 16/13 A3008 930 86 1200 190/04 RMK AO2 TSNO
94908KDBQ DBQ20000628033011306/28/00 03:30:31  5-MIN KDBQ 280930Z AUTO 22005KT 10SM BKN070 OVC080 16/13 A3009 930 86 1200 220/05 RMK AO2 TSNO
94908KDBQ DBQ20000628033511306/28/00 03:35:31  5-MIN KDBQ 280935Z AUTO 23005KT 10SM BKN070 OVC080 15/14 A3009 920 93 1200 220/05 RMK AO2 TSNO
94908KDBQ DBQ20000628034010606/28/00 03:40:31  5-MIN KDBQ 280940Z AUTO 21006KT 10SM OVC070 15/13 A3009 920 90 1200 210/06 RMK AO2 TSNO
94908KDBQ DBQ20000628034510606/28/00 03:45:31  5-MIN KDBQ 280945Z AUTO 21006KT 10SM OVC070 15/13 A3009 920 90 1200 210/06 RMK AO2 TSNO
94908KDBQ DBQ20000628035012306/28/00 03:50:31  5-MIN KDBQ 280950Z AUTO 21007KT 10SM OVC070 15/13 A3009 920 90 1200 210/07 RMK AO2 SLP187 T01500133 TSNO
94908KDBQ DBQ20000628035512306/28/00 03:55:31  5-MIN KDBQ 280955Z AUTO 22006KT 10SM OVC065 15/13 A3009 920 90 1200 210/06 RMK AO2 SLP187 T01500133 TSNO
94908KDBQ DBQ20000628040010606/28/00 04:00:31  5-MIN KDBQ 281000Z AUTO 22007KT 10SM OVC065 15/13 A3009 920 90 1200 220/07 RMK AO2 TSNO
94908KDBQ DBQ20000628040510606/28/00 04:05:31  5-MIN KDBQ 281005Z AUTO 24009KT 10SM OVC065 16/13 A3009 920 86 1200 240/09 RMK AO2 TSNO
94908KDBQ DBQ20000628041010606/28/00 04:10:31  5-MIN KDBQ 281010Z AUTO 26011KT 10SM OVC065 16/13 A3010 910 83 1300 260/11 RMK AO2 TSNO
94908KDBQ DBQ20000628041512206/28/00 04:15:31  5-MIN KDBQ 281015Z AUTO 27011KT 10SM -RA OVC060 16/13 A3010 910 83 1300 270/11 RMK AO2 RAB11 P0000 TSNO
94908KDBQ DBQ20000628042012206/28/00 04:20:31  5-MIN KDBQ 281020Z AUTO 27010KT 10SM -RA OVC060 16/14 A3010 910 90 1200 270/10 RMK AO2 RAB11 P0000 TSNO
94908KDBQ DBQ20000628042512206/28/00 04:25:31  5-MIN KDBQ 281025Z AUTO 28009KT 10SM -RA OVC065 16/14 A3010 910 90 1200 280/09 RMK AO2 RAB11 P0000 TSNO
94908KDBQ DBQ20000628043012906/28/00 04:30:31  5-MIN KDBQ 281030Z AUTO 28009KT 10SM -RA BKN060 OVC075 16/14 A3010 910 90 1200 280/09 RMK AO2 RAB11 P0000 TSNO
94908KDBQ DBQ20000628043512806/28/00 04:35:31  5-MIN KDBQ 281035Z AUTO 29009KT 9SM -RA SCT060 OVC080 16/14 A3010 910 90 1200 290/09 RMK AO2 RAB11 P0000 TSNO
94908KDBQ DBQ20000628044011806/28/00 04:40:31  5-MIN KDBQ 281040Z 31008KT 7SM -RA SCT065 OVC080 16/14 A3010 910 90 1200 310/08 RMK AO2 RAB11 P0001
94908KDBQ DBQ20000628044511106/28/00 04:45:31  5-MIN KDBQ 281045Z 32008KT 7SM -RA OVC075 16/14 A3010 910 90 1200 320/08 RMK AO2 RAB11 P0001
94908KDBQ DBQ20000628045012806/28/00 04:50:31  5-MIN KDBQ 281050Z 32007KT 8SM -RA OVC080 16/14 A3010 910 90 1200 320/07 RMK AO2 RAB11 SLP189 P0001 T01560139
94908KDBQ DBQ20000628045513506/28/00 04:55:31  5-MIN KDBQ 281055Z 33008KT 8SM -RA FEW027 OVC080 16/14 A3010 910 90 1200 330/08 RMK AO2 RAB11 SLP189 P0001 T01560139
94908KDBQ DBQ20000628050011206/28/00 05:00:31  5-MIN KDBQ 281100Z 31007KT 7SM -RA SCT034 OVC085 15/14 A3010 910 93 1200 310/07 RMK AO2 P0001
94908KDBQ DBQ20000628050511206/28/00 05:05:31  5-MIN KDBQ 281105Z 34008KT 7SM -RA SCT029 OVC085 16/14 A3010 910 90 1200 330/08 RMK AO2 P0001
94908KDBQ DBQ20000628051011906/28/00 05:10:31  5-MIN KDBQ 281110Z 35008KT 8SM -RA SCT027 BKN085 OVC100 16/14 A3010 910 90 1200 350/08 RMK AO2 P0001
94908KDBQ DBQ20000628051512006/28/00 05:15:31  5-MIN KDBQ 281115Z 35009KT 10SM -RA FEW029 BKN090 OVC100 15/14 A3010 910 93 1200 350/09 RMK AO2 P0001
94908KDBQ DBQ20000628052012006/28/00 05:20:31  5-MIN KDBQ 281120Z 35008KT 10SM -RA FEW029 SCT080 OVC090 15/14 A3010 910 93 1200 350/08 RMK AO2 P0001
94908KDBQ DBQ20000628052512206/28/00 05:25:31  5-MIN KDBQ 281125Z 35009KT 10SM FEW031 SCT075 OVC090 15/14 A3010 910 93 1200 340/09 RMK AO2 RAE22 P0001
94908KDBQ DBQ20000628053011506/28/00 05:30:31  5-MIN KDBQ 281130Z 34009KT 10SM FEW022 OVC080 15/14 A3010 910 93 1200 340/09 RMK AO2 RAE22 P0001
94908KDBQ DBQ20000628053511306/28/00 05:35:31  5-MIN KDBQ 281135Z 35009KT 10SM -RA BKN080 OVC095 15/14 A3010 910 93 1200 350/09 RMK AO2 P0001
94908KDBQ DBQ20000628054011306/28/00 05:40:31  5-MIN KDBQ 281140Z 34009KT 10SM -RA BKN075 OVC090 15/14 A3011 910 93 1200 340/09 RMK AO2 P0002
94908KDBQ DBQ20000628054511106/28/00 05:45:31  5-MIN KDBQ 281145Z 35009KT 7SM RA BKN070 OVC085 15/14 A3011 910 93 1200 350/09 RMK AO2 P0003
94908KDBQ DBQ20000628055015406/28/00 05:50:31  5-MIN KDBQ 281150Z 35009KT 5SM RA BR OVC070 15/14 A3011 910 93 1200 350/09 RMK AO2 SLP193 P0003 60004 70004 T01500139 10161 20144 56009
94908KDBQ DBQ20000628055516906/28/00 05:55:31  5-MIN KDBQ 281155Z 33007KT 6SM -RA BR FEW038 BKN065 OVC080 15/14 A3011 900 93 1200 330/07 RMK AO2 SLP194 P0004 60005 70005 T01500139 10161 20144 53008
94908KDBQ DBQ20000628060012106/28/00 06:00:31  5-MIN KDBQ 281200Z 35009KT 5SM RA BR FEW030 BKN065 OVC075 14/14 A3011 900 96 1100 340/09 RMK AO2 P0000
94908KDBQ DBQ20000628060512106/28/00 06:05:31  5-MIN KDBQ 281205Z 35009KT 4SM RA BR SCT027 BKN060 OVC075 14/14 A3011 900 96 1100 350/09 RMK AO2 P0002
94908KDBQ DBQ20000628061012106/28/00 06:10:31  5-MIN KDBQ 281210Z 35008KT 3SM RA BR SCT027 BKN060 OVC080 14/14 A3011 900 96 1100 350/08 RMK AO2 P0002
94908KDBQ DBQ20000628061512206/28/00 06:15:31  5-MIN KDBQ 281215Z 35007KT 5SM -RA BR SCT029 BKN060 OVC070 14/14 A3011 910 96 1100 350/07 RMK AO2 P0003
94908KDBQ DBQ20000628062011906/28/00 06:20:31  5-MIN KDBQ 281220Z 36006KT 7SM -RA FEW026 BKN060 OVC070 14/14 A3011 910 96 1100 350/06 RMK AO2 P0003
94908KDBQ DBQ20000628062511906/28/00 06:25:31  5-MIN KDBQ 281225Z 02005KT 7SM -RA FEW026 BKN060 OVC070 14/14 A3010 910 96 1100 010/05 RMK AO2 P0003
94908KDBQ DBQ20000628063012206/28/00 06:30:31  5-MIN KDBQ 281230Z 01005KT 6SM -RA BR SCT024 BKN055 OVC070 14/14 A3010 910 96 1100 010/05 RMK AO2 P0004
94908KDBQ DBQ20000628063512206/28/00 06:35:31  5-MIN KDBQ 281235Z 02005KT 5SM -RA BR FEW024 BKN055 OVC070 14/14 A3010 910 96 1100 020/05 RMK AO2 P0004
94908KDBQ DBQ20000628064012206/28/00 06:40:31  5-MIN KDBQ 281240Z 03006KT 6SM -RA BR SCT022 BKN055 OVC075 14/14 A3010 910 96 1100 030/06 RMK AO2 P0004
94908KDBQ DBQ20000628064512206/28/00 06:45:31  5-MIN KDBQ 281245Z 36005KT 6SM -RA BR SCT024 BKN055 OVC080 14/14 A3010 910 96 1100 360/05 RMK AO2 P0005
94908KDBQ DBQ20000628065013906/28/00 06:50:31  5-MIN KDBQ 281250Z 01005KT 6SM -RA BR FEW003 BKN055 OVC085 14/14 A3010 910 96 1100 010/05 RMK AO2 SLP190 P0005 T01440139
94908KDBQ DBQ20000628065513906/28/00 06:55:31  5-MIN KDBQ 281255Z 04006KT 6SM -RA BR FEW003 BKN050 OVC085 14/14 A3009 920 96 1100 040/06 RMK AO2 SLP188 P0005 T01440139
94908KDBQ DBQ20000628070011906/28/00 07:00:31  5-MIN KDBQ 281300Z 05006KT 7SM -RA FEW003 SCT024 BKN050 14/14 A3009 920 96 1100 050/06 RMK AO2 P0000
94908KDBQ DBQ20000628070512006/28/00 07:05:31  5-MIN KDBQ 281305Z 04006KT 7SM -RA SCT003 SCT026 BKN085 14/14 A3009 930 100 1100 040/06 RMK AO2 P0000
94908KDBQ DBQ20000628071011906/28/00 07:10:31  5-MIN KDBQ 281310Z 06006KT 7SM -RA SCT003 BKN030 BKN085 14/14 A3009 920 96 1100 060/06 RMK AO2 P0000
94908KDBQ DBQ20000628071511506/28/00 07:15:31  5-MIN KDBQ 281315Z 06005KT 5SM -RA BR BKN003 BKN085 15/14 A3009 930 96 1200 060/05 RMK AO2 P0000
94908KDBQ DBQ20000628072011506/28/00 07:20:31  5-MIN KDBQ 281320Z 07004KT 5SM -RA BR BKN003 BKN085 15/14 A3008 930 93 1200 060/04 RMK AO2 P0000
94908KDBQ DBQ20000628072511706/28/00 07:25:31  5-MIN KDBQ 281325Z 06005KT 6SM BR BKN003 BKN085 15/14 A3009 930 93 1200 060/05 RMK AO2 RAE21 P0000
94908KDBQ DBQ20000628073011406/28/00 07:30:31  5-MIN KDBQ 281330Z 05005KT 8SM BKN003 BKN085 15/14 A3008 930 93 1200 050/05 RMK AO2 RAE21 P0000
94908KDBQ DBQ20000628073511506/28/00 07:35:31  5-MIN KDBQ 281335Z 05005KT 10SM BKN003 BKN085 15/14 A3008 930 93 1200 050/05 RMK AO2 RAE21 P0000
94908KDBQ DBQ20000628074012206/28/00 07:40:31  5-MIN KDBQ 281340Z 05004KT 10SM -RA BKN003 BKN085 15/14 A3008 930 93 1200 050/04 RMK AO2 RAE21B37 P0000
94908KDBQ DBQ20000628074512206/28/00 07:45:31  5-MIN KDBQ 281345Z 06004KT 10SM -RA BKN003 BKN085 15/14 A3008 930 93 1200 060/04 RMK AO2 RAE21B37 P0000
94908KDBQ DBQ20000628075013806/28/00 07:50:31  5-MIN KDBQ 281350Z 07004KT 10SM BKN003 BKN085 15/14 A3008 930 93 1200 070/04 RMK AO2 RAE21B37E47 SLP184 P0000 T01500139
94908KDBQ DBQ20000628075513106/28/00 07:55:31  5-MIN KDBQ 281355Z 08005KT 10SM BKN005 15/14 A3008 930 93 1200 080/05 RMK AO2 RAE21B37E47 SLP183 P0000 T01500139
94908KDBQ DBQ20000628080009606/28/00 08:00:31  5-MIN KDBQ 281400Z 12003KT 10SM BKN005 15/14 A3008 930 93 1200 120/03 RMK AO2
94908KDBQ DBQ20000628080509606/28/00 08:05:31  5-MIN KDBQ 281405Z 00000KT 10SM BKN005 15/14 A3009 930 93 1200 000/00 RMK AO2
94908KDBQ DBQ20000628081011206/28/00 08:10:31  5-MIN KDBQ 281410Z 00000KT 10SM -RA BKN005 15/14 A3009 920 93 1200 000/00 RMK AO2 RAB07 P0001
94908KDBQ DBQ20000628081511106/28/00 08:15:31  5-MIN KDBQ 281415Z 00000KT 9SM -RA BKN005 15/14 A3009 920 93 1200 000/00 RMK AO2 RAB07 P0001
94908KDBQ DBQ20000628082011106/28/00 08:20:31  5-MIN KDBQ 281420Z 00000KT 8SM -RA BKN005 15/14 A3009 920 93 1200 000/00 RMK AO2 RAB07 P0001
94908KDBQ DBQ20000628082511406/28/00 08:25:31  5-MIN KDBQ 281425Z 00000KT 6SM -RA BR BKN005 15/14 A3009 920 93 1200 000/00 RMK AO2 RAB07 P0001
94908KDBQ DBQ20000628083011406/28/00 08:30:31  5-MIN KDBQ 281430Z 00000KT 6SM -RA BR OVC005 15/14 A3009 920 93 1200 000/00 RMK AO2 RAB07 P0002
94908KDBQ DBQ20000628083511106/28/00 08:35:31  5-MIN KDBQ 281435Z 00000KT 7SM -RA BKN007 15/14 A3009 930 93 1200 000/00 RMK AO2 RAB07 P0002
94908KDBQ DBQ20000628084011806/28/00 08:40:31  5-MIN KDBQ 281440Z 18003KT 8SM -RA BKN007 BKN080 15/14 A3009 930 93 1200 180/03 RMK AO2 RAB07 P0002
94908KDBQ DBQ20000628084511806/28/00 08:45:31  5-MIN KDBQ 281445Z VRB03KT 8SM -RA BKN007 BKN075 15/14 A3010 920 93 1200 VRB/03 RMK AO2 RAB07 P0002
94908KDBQ DBQ20000628085015906/28/00 08:50:31  5-MIN KDBQ 281450Z 29006KT 7SM -RA BKN007 OVC070 15/14 A3010 920 93 1200 280/06 RMK AO2 RAB07 CIG 005V010 SLP191 P0002 60007 T01500139 53008
94908KDBQ DBQ20000628085516206/28/00 08:55:31  5-MIN KDBQ 281455Z 30006KT 6SM -RA BR BKN007 OVC075 15/14 A3010 910 93 1200 300/06 RMK AO2 RAB07 CIG 005V010 SLP191 P0003 60008 T01500139 55004
94908KDBQ DBQ20000628090012606/28/00 09:00:31  5-MIN KDBQ 281500Z 30006KT 5SM RA BR BKN007 OVC075 15/14 A3010 920 93 1200 300/06 RMK AO2 CIG 005V010 P0000
94908KDBQ DBQ20000628090513306/28/00 09:05:31  5-MIN KDBQ 281505Z 31005KT 4SM RA BR BKN007 BKN013 OVC075 15/14 A3010 920 93 1200 310/05 RMK AO2 CIG 005V010 P0001
94908KDBQ DBQ20000628091012606/28/00 09:10:31  5-MIN KDBQ 281510Z 32006KT 4SM RA BR BKN007 OVC013 15/14 A3010 920 93 1200 320/06 RMK AO2 CIG 005V010 P0002
94908KDBQ DBQ20000628091512606/28/00 09:15:31  5-MIN KDBQ 281515Z 32006KT 4SM RA BR BKN007 OVC013 15/14 A3009 920 93 1200 320/06 RMK AO2 CIG 005V011 P0003
94908KDBQ DBQ20000628092012606/28/00 09:20:31  5-MIN KDBQ 281520Z 33005KT 4SM RA BR BKN007 OVC013 15/14 A3009 920 93 1200 330/05 RMK AO2 CIG 005V011 P0003
94908KDBQ DBQ20000628092512706/28/00 09:25:31  5-MIN KDBQ 281525Z 34004KT 4SM -RA BR BKN007 OVC013 15/14 A3009 920 93 1200 340/04 RMK AO2 CIG 005V011 P0004
94908KDBQ DBQ20000628093012706/28/00 09:30:31  5-MIN KDBQ 281530Z 36004KT 5SM -RA BR BKN007 OVC013 14/14 A3009 920 96 1100 350/04 RMK AO2 CIG 005V010 P0004
94908KDBQ DBQ20000628093512006/28/00 09:35:31  5-MIN KDBQ 281535Z 35004KT 5SM -RA BR OVC009 14/14 A3009 920 96 1100 350/04 RMK AO2 CIG 005V012 P0005
94908KDBQ DBQ20000628094012006/28/00 09:40:31  5-MIN KDBQ 281540Z 35004KT 5SM -RA BR OVC009 14/14 A3009 920 96 1100 350/04 RMK AO2 CIG 005V011 P0006
94908KDBQ DBQ20000628094512006/28/00 09:45:31  5-MIN KDBQ 281545Z 01004KT 5SM -RA BR OVC009 14/14 A3009 920 96 1100 360/04 RMK AO2 CIG 005V011 P0006
94908KDBQ DBQ20000628095014106/28/00 09:50:31  5-MIN KDBQ 281550Z 35003KT 7SM -RA BKN007 OVC011 15/14 A3009 920 93 1200 350/03 RMK AO2 CIG 004V010 SLP189 P0006 T01500139
94908KDBQ DBQ20000628095514106/28/00 09:55:31  5-MIN KDBQ 281555Z 33005KT 9SM -RA BKN005 OVC011 15/14 A3009 920 93 1200 330/05 RMK AO2 CIG 004V008 SLP189 P0006 T01500139
94908KDBQ DBQ20000628100012206/28/00 10:00:31  5-MIN KDBQ 281600Z 34005KT 10SM OVC005 15/13 A3009 930 90 1200 330/05 RMK AO2 RAE1558 CIG 004V010 P0000
94908KDBQ DBQ20000628100512206/28/00 10:05:31  5-MIN KDBQ 281605Z 35005KT 10SM OVC007 15/14 A3009 930 93 1200 350/05 RMK AO2 RAE1558 CIG 004V011 P0000
94908KDBQ DBQ20000628101012206/28/00 10:10:31  5-MIN KDBQ 281610Z 35005KT 10SM OVC007 15/14 A3008 930 93 1200 350/05 RMK AO2 RAE1558 CIG 004V010 P0000
94908KDBQ DBQ20000628101512206/28/00 10:15:31  5-MIN KDBQ 281615Z 36006KT 10SM OVC007 15/14 A3008 930 93 1200 360/06 RMK AO2 RAE1558 CIG 004V011 P0000
94908KDBQ DBQ20000628102012906/28/00 10:20:31  5-MIN KDBQ 281620Z 36005KT 10SM FEW005 OVC009 16/14 A3008 930 90 1300 360/05 RMK AO2 RAE1558 CIG 007V011 P0000
94908KDBQ DBQ20000628102512206/28/00 10:25:31  5-MIN KDBQ 281625Z 36005KT 10SM OVC009 15/14 A3008 930 93 1200 360/05 RMK AO2 RAE1558 CIG 005V011 P0000
94908KDBQ DBQ20000628103011006/28/00 10:30:31  5-MIN KDBQ 281630Z 36005KT 10SM OVC009 16/14 A3008 930 90 1300 360/05 RMK AO2 RAE1558 P0000
94908KDBQ DBQ20000628103511006/28/00 10:35:31  5-MIN KDBQ 281635Z 36003KT 10SM OVC009 16/14 A3008 930 90 1300 360/03 RMK AO2 RAE1558 P0000
94908KDBQ DBQ20000628104011706/28/00 10:40:31  5-MIN KDBQ 281640Z 00000KT 10SM BKN009 OVC017 16/14 A3008 930 86 1300 000/00 RMK AO2 RAE1558 P0000
94908KDBQ DBQ20000628104511706/28/00 10:45:31  5-MIN KDBQ 281645Z 00000KT 10SM BKN009 BKN017 16/14 A3008 930 86 1300 000/00 RMK AO2 RAE1558 P0000
94908KDBQ DBQ20000628105014606/28/00 10:50:31  5-MIN KDBQ 281650Z VRB03KT 10SM BKN009 BKN017 17/14 A3008 930 86 1400 VRB/03 RMK AO2 RAE1558 CIG 007V011 SLP184 P0000 T01670144
94908KDBQ DBQ20000628105514606/28/00 10:55:31  5-MIN KDBQ 281655Z VRB03KT 10SM BKN009 OVC017 16/14 A3008 930 90 1300 VRB/03 RMK AO2 RAE1558 CIG 007V012 SLP184 P0000 T01610144
94908KDBQ DBQ20000628110011506/28/00 11:00:31  5-MIN KDBQ 281700Z 30003KT 10SM BKN009 OVC017 16/14 A3008 930 86 1300 300/03 RMK AO2 CIG 007V012
94908KDBQ DBQ20000628110511506/28/00 11:05:31  5-MIN KDBQ 281705Z 26004KT 10SM BKN009 OVC017 17/14 A3008 930 86 1400 260/04 RMK AO2 CIG 007V013
94908KDBQ DBQ20000628111010306/28/00 11:10:31  5-MIN KDBQ 281710Z 27004KT 10SM BKN011 OVC016 17/14 A3008 930 86 1400 270/04 RMK AO2
94908KDBQ DBQ20000628111510306/28/00 11:15:31  5-MIN KDBQ 281715Z 26004KT 10SM BKN009 OVC016 16/14 A3008 930 90 1300 260/04 RMK AO2
94908KDBQ DBQ20000628112010306/28/00 11:20:31  5-MIN KDBQ 281720Z 27003KT 10SM BKN009 OVC016 16/14 A3008 930 86 1300 270/03 RMK AO2
94908KDBQ DBQ20000628112510306/28/00 11:25:31  5-MIN KDBQ 281725Z 31003KT 10SM BKN009 OVC016 16/14 A3008 930 90 1300 310/03 RMK AO2
94908KDBQ DBQ20000628113010306/28/00 11:30:31  5-MIN KDBQ 281730Z 33006KT 10SM BKN009 OVC016 16/14 A3008 930 90 1300 330/06 RMK AO2
94908KDBQ DBQ20000628113510306/28/00 11:35:31  5-MIN KDBQ 281735Z 32006KT 10SM BKN009 OVC016 16/14 A3008 930 90 1300 320/06 RMK AO2
94908KDBQ DBQ20000628114010306/28/00 11:40:31  5-MIN KDBQ 281740Z 33008KT 10SM BKN009 OVC016 16/14 A3008 930 90 1300 330/08 RMK AO2
94908KDBQ DBQ20000628114510306/28/00 11:45:31  5-MIN KDBQ 281745Z 33008KT 10SM BKN009 OVC016 16/14 A3008 930 93 1300 330/08 RMK AO2
94908KDBQ DBQ20000628115014906/28/00 11:50:31  5-MIN KDBQ 281750Z 33007KT 10SM OVC009 16/14 A3008 940 93 1300 330/07 RMK AO2 CIG 006V012 SLP184 60014 T01560144 10167 20144 55004
94908KDBQ DBQ20000628115515606/28/00 11:55:31  5-MIN KDBQ 281755Z 33006KT 10SM BKN009 OVC013 16/14 A3008 940 90 1300 330/06 RMK AO2 CIG 006V012 SLP184 60014 T01610144 10167 20144 56008
94908KDBQ DBQ20000628120011506/28/00 12:00:31  5-MIN KDBQ 281800Z 33007KT 10SM BKN009 OVC013 16/14 A3007 940 90 1300 330/07 RMK AO2 CIG 006V010
94908KDBQ DBQ20000628120510306/28/00 12:05:31  5-MIN KDBQ 281805Z 34005KT 10SM BKN009 OVC013 16/14 A3007 940 90 1300 330/05 RMK AO2
94908KDBQ DBQ20000628121010306/28/00 12:10:31  5-MIN KDBQ 281810Z 33005KT 10SM BKN009 OVC013 16/14 A3007 940 90 1300 330/05 RMK AO2
94908KDBQ DBQ20000628121510306/28/00 12:15:31  5-MIN KDBQ 281815Z 33005KT 10SM BKN009 OVC013 16/14 A3007 940 90 1300 330/05 RMK AO2
94908KDBQ DBQ20000628122010306/28/00 12:20:31  5-MIN KDBQ 281820Z 32005KT 10SM BKN009 OVC013 16/14 A3007 940 90 1300 320/05 RMK AO2
94908KDBQ DBQ20000628122510306/28/00 12:25:31  5-MIN KDBQ 281825Z 32007KT 10SM BKN009 OVC013 16/14 A3007 940 86 1300 320/07 RMK AO2
94908KDBQ DBQ20000628123010306/28/00 12:30:31  5-MIN KDBQ 281830Z 29005KT 10SM BKN009 OVC013 17/14 A3007 940 86 1400 290/05 RMK AO2
94908KDBQ DBQ20000628123510306/28/00 12:35:31  5-MIN KDBQ 281835Z 29006KT 10SM BKN009 OVC013 17/14 A3006 940 83 1400 290/06 RMK AO2
94908KDBQ DBQ20000628124010306/28/00 12:40:31  5-MIN KDBQ 281840Z 29007KT 10SM BKN009 OVC013 17/14 A3006 950 83 1500 290/07 RMK AO2
94908KDBQ DBQ20000628124510306/28/00 12:45:31  5-MIN KDBQ 281845Z 30006KT 10SM BKN009 OVC013 18/15 A3006 950 83 1500 300/06 RMK AO2
94908KDBQ DBQ20000628125012006/28/00 12:50:31  5-MIN KDBQ 281850Z 31007KT 10SM BKN009 OVC013 18/16 A3006 950 84 1600 300/07 RMK AO2 SLP176 T01830156
94908KDBQ DBQ20000628125512006/28/00 12:55:31  5-MIN KDBQ 281855Z 27007KT 10SM BKN009 OVC013 18/14 A3005 950 81 1500 270/07 RMK AO2 SLP175 T01780144
94908KDBQ DBQ20000628130011006/28/00 13:00:31  5-MIN KDBQ 281900Z 31008KT 10SM SCT013 BKN019 BKN060 18/15 A3005 960 81 1600 310/08 RMK AO2
94908KDBQ DBQ20000628130511006/28/00 13:05:31  5-MIN KDBQ 281905Z 30009KT 10SM BKN015 BKN021 BKN060 18/15 A3005 960 81 1600 300/09 RMK AO2
94908KDBQ DBQ20000628131010306/28/00 13:10:31  5-MIN KDBQ 281910Z 31009KT 10SM BKN015 BKN019 18/14 A3005 960 81 1500 310/09 RMK AO2
94908KDBQ DBQ20000628131511006/28/00 13:15:31  5-MIN KDBQ 281915Z 29007KT 10SM BKN015 BKN021 OVC031 18/14 A3005 960 81 1500 290/07 RMK AO2
94908KDBQ DBQ20000628132011006/28/00 13:20:31  5-MIN KDBQ 281920Z 29005KT 10SM SCT015 BKN019 BKN080 18/14 A3005 960 81 1500 290/05 RMK AO2
94908KDBQ DBQ20000628132511006/28/00 13:25:31  5-MIN KDBQ 281925Z 28005KT 10SM SCT015 BKN019 BKN080 18/14 A3005 960 78 1600 280/05 RMK AO2
94908KDBQ DBQ20000628133011006/28/00 13:30:31  5-MIN KDBQ 281930Z 32005KT 10SM SCT015 BKN019 BKN080 18/14 A3004 970 81 1600 310/05 RMK AO2
94908KDBQ DBQ20000628133511006/28/00 13:35:31  5-MIN KDBQ 281935Z 33004KT 10SM SCT015 BKN019 BKN080 18/14 A3004 970 81 1600 330/04 RMK AO2
94908KDBQ DBQ20000628134011006/28/00 13:40:31  5-MIN KDBQ 281940Z 26006KT 10SM SCT015 BKN019 BKN080 18/14 A3004 970 78 1600 260/06 RMK AO2
94908KDBQ DBQ20000628134511006/28/00 13:45:31  5-MIN KDBQ 281945Z 28009KT 10SM SCT015 BKN019 BKN080 19/14 A3004 970 75 1700 270/09 RMK AO2
94908KDBQ DBQ20000628135012706/28/00 13:50:31  5-MIN KDBQ 281950Z 28007KT 10SM SCT015 BKN019 BKN080 19/14 A3003 970 72 1700 280/07 RMK AO2 SLP169 T01890139
94908KDBQ DBQ20000628135512706/28/00 13:55:31  5-MIN KDBQ 281955Z 28008KT 10SM FEW017 SCT024 BKN090 19/14 A3003 980 75 1700 280/08 RMK AO2 SLP167 T01890144
94908KDBQ DBQ20000628140011006/28/00 14:00:31  5-MIN KDBQ 282000Z 29010KT 10SM FEW020 SCT024 BKN032 20/14 A3003 980 70 1800 290/10 RMK AO2
94908KDBQ DBQ20000628140511606/28/00 14:05:31  5-MIN KDBQ 282005Z 26009G15KT 10SM FEW020 SCT024 BKN032 20/14 A3003 980 67 1800 250/09G15 RMK AO2
94908KDBQ DBQ20000628141011006/28/00 14:10:31  5-MIN KDBQ 282010Z 28008KT 10SM FEW020 SCT024 BKN032 20/14 A3002 980 67 1800 280/08 RMK AO2
94908KDBQ DBQ20000628141511006/28/00 14:15:31  5-MIN KDBQ 282015Z 28008KT 10SM FEW020 SCT024 BKN032 20/13 A3002 980 65 1800 280/08 RMK AO2
94908KDBQ DBQ20000628142011006/28/00 14:20:31  5-MIN KDBQ 282020Z 30007KT 10SM FEW020 SCT024 BKN032 19/14 A3002 990 70 1800 300/07 RMK AO2
94908KDBQ DBQ20000628142511006/28/00 14:25:31  5-MIN KDBQ 282025Z 32008KT 10SM FEW020 SCT024 BKN032 19/14 A3002 990 70 1800 310/08 RMK AO2
94908KDBQ DBQ20000628143011006/28/00 14:30:31  5-MIN KDBQ 282030Z 34008KT 10SM FEW020 SCT024 BKN032 19/13 A3002 990 70 1700 330/08 RMK AO2
94908KDBQ DBQ20000628143511006/28/00 14:35:31  5-MIN KDBQ 282035Z 33008KT 10SM FEW020 SCT024 BKN032 19/14 A3001 990 70 1800 330/08 RMK AO2
94908KDBQ DBQ20000628144011006/28/00 14:40:31  5-MIN KDBQ 282040Z 31007KT 10SM FEW020 SCT024 BKN032 19/13 A3001 990 67 1800 310/07 RMK AO2
94908KDBQ DBQ20000628144511006/28/00 14:45:31  5-MIN KDBQ 282045Z 28009KT 10SM FEW020 SCT024 BKN032 19/13 A3001 990 67 1800 280/09 RMK AO2
94908KDBQ DBQ20000628145012706/28/00 14:50:31  5-MIN KDBQ 282050Z 30007KT 10SM SCT029 SCT037 20/13 A3001 1000 65 1800 300/07 RMK AO2 SLP160 T02000133 56008
94908KDBQ DBQ20000628145512006/28/00 14:55:31  5-MIN KDBQ 282055Z 30005KT 10SM SCT033 19/13 A3001 1000 65 1800 300/05 RMK AO2 SLP160 T01940128 56022
94908KDBQ DBQ20000628150010406/28/00 15:00:31  5-MIN KDBQ 282100Z 31005KT 10SM FEW029 BKN036 21/14 A3001 1000 65 1900 310/05 RMK AO2
94908KDBQ DBQ20000628150509706/28/00 15:05:31  5-MIN KDBQ 282105Z 26007KT 10SM SCT034 20/13 A3001 1000 63 1900 260/07 RMK AO2
94908KDBQ DBQ20000628151009706/28/00 15:10:31  5-MIN KDBQ 282110Z VRB05KT 10SM SCT034 21/13 A3001 1000 63 1900 VRB/05 RMK AO2
94908KDBQ DBQ20000628151509706/28/00 15:15:31  5-MIN KDBQ 282115Z 30007KT 10SM SCT034 21/13 A3001 1000 61 2000 300/07 RMK AO2
94908KDBQ DBQ20000628152009706/28/00 15:20:31  5-MIN KDBQ 282120Z 29008KT 10SM SCT034 20/13 A3000 1000 65 1900 290/08 RMK AO2
94908KDBQ DBQ20000628152509706/28/00 15:25:31  5-MIN KDBQ 282125Z 27007KT 10SM BKN034 21/13 A3000 1000 63 1900 270/07 RMK AO2
94908KDBQ DBQ20000628153009706/28/00 15:30:31  5-MIN KDBQ 282130Z 28007KT 10SM SCT034 20/13 A3000 1000 63 1900 280/07 RMK AO2
94908KDBQ DBQ20000628153509706/28/00 15:35:31  5-MIN KDBQ 282135Z 30004KT 10SM SCT034 20/13 A3000 1000 63 1900 300/04 RMK AO2
94908KDBQ DBQ20000628154009706/28/00 15:40:31  5-MIN KDBQ 282140Z 27006KT 10SM SCT034 21/13 A3000 1000 60 1900 270/06 RMK AO2
94908KDBQ DBQ20000628154509706/28/00 15:45:31  5-MIN KDBQ 282145Z 29007KT 10SM SCT034 21/13 A3000 1010 60 1900 290/07 RMK AO2
94908KDBQ DBQ20000628155011406/28/00 15:50:31  5-MIN KDBQ 282150Z 29008KT 10SM FEW036 21/12 A3000 1010 58 1900 290/08 RMK AO2 SLP155 T02060122
94908KDBQ DBQ20000628155511406/28/00 15:55:31  5-MIN KDBQ 282155Z 30007KT 10SM SCT036 20/12 A2999 1010 60 1900 300/07 RMK AO2 SLP154 T02000122
94908KDBQ DBQ20000628160009706/28/00 16:00:31  5-MIN KDBQ 282200Z VRB06KT 10SM SCT036 21/13 A2999 1010 60 1900 VRB/06 RMK AO2
94908KDBQ DBQ20000628160509706/28/00 16:05:31  5-MIN KDBQ 282205Z 28006KT 10SM SCT036 21/13 A2999 1010 60 1900 280/06 RMK AO2
94908KDBQ DBQ20000628161009706/28/00 16:10:31  5-MIN KDBQ 282210Z 31005KT 10SM SCT036 21/13 A2999 1010 60 1900 300/05 RMK AO2
94908KDBQ DBQ20000628161509706/28/00 16:15:31  5-MIN KDBQ 282215Z 25007KT 10SM SCT036 21/13 A2999 1020 61 2000 250/07 RMK AO2
94908KDBQ DBQ20000628162009706/28/00 16:20:31  5-MIN KDBQ 282220Z 26007KT 10SM FEW036 21/13 A2999 1020 63 1900 260/07 RMK AO2
94908KDBQ DBQ20000628162509706/28/00 16:25:31  5-MIN KDBQ 282225Z 29007KT 10SM FEW036 21/13 A2999 1020 60 1900 290/07 RMK AO2
94908KDBQ DBQ20000628163009406/28/00 16:30:31  5-MIN KDBQ 282230Z 27008KT 10SM CLR 21/13 A2999 1020 61 2000 260/08 RMK AO2
94908KDBQ DBQ20000628163509406/28/00 16:35:31  5-MIN KDBQ 282235Z 26007KT 10SM CLR 21/13 A2999 1020 61 2000 260/07 RMK AO2
94908KDBQ DBQ20000628164009706/28/00 16:40:31  5-MIN KDBQ 282240Z 26008KT 10SM FEW036 21/13 A2999 1020 58 2000 260/08 RMK AO2
94908KDBQ DBQ20000628164510406/28/00 16:45:31  5-MIN KDBQ 282245Z 27008KT 10SM FEW038 SCT046 21/13 A2999 1020 63 1900 270/08 RMK AO2
94908KDBQ DBQ20000628165011406/28/00 16:50:31  5-MIN KDBQ 282250Z 27006KT 10SM SCT041 21/13 A2999 1020 61 2000 270/06 RMK AO2 SLP152 T02110133
94908KDBQ DBQ20000628165512106/28/00 16:55:31  5-MIN KDBQ 282255Z 26009KT 10SM SCT039 SCT046 21/14 A2999 1020 63 2000 260/09 RMK AO2 SLP152 T02110139
94908KDBQ DBQ20000628170010406/28/00 17:00:31  5-MIN KDBQ 282300Z 27008KT 10SM SCT037 SCT046 21/13 A2999 1020 61 2000 260/08 RMK AO2
94908KDBQ DBQ20000628170510406/28/00 17:05:31  5-MIN KDBQ 282305Z 27006KT 10SM FEW037 SCT044 21/14 A2999 1020 65 1900 270/06 RMK AO2
94908KDBQ DBQ20000628171009706/28/00 17:10:31  5-MIN KDBQ 282310Z 27008KT 10SM FEW039 21/13 A2998 1020 61 2000 270/08 RMK AO2
94908KDBQ DBQ20000628171510406/28/00 17:15:31  5-MIN KDBQ 282315Z 26009KT 10SM FEW039 SCT047 21/13 A2998 1020 63 1900 260/09 RMK AO2
94908KDBQ DBQ20000628172009706/28/00 17:20:31  5-MIN KDBQ 282320Z 27008KT 10SM FEW037 21/13 A2998 1020 63 1900 270/08 RMK AO2
94908KDBQ DBQ20000628172509706/28/00 17:25:31  5-MIN KDBQ 282325Z 28007KT 10SM FEW047 21/13 A2998 1020 63 1900 280/07 RMK AO2
94908KDBQ DBQ20000628173009706/28/00 17:30:31  5-MIN KDBQ 282330Z 27005KT 10SM FEW042 21/13 A2998 1020 63 1900 270/05 RMK AO2
94908KDBQ DBQ20000628173509706/28/00 17:35:31  5-MIN KDBQ 282335Z 26006KT 10SM FEW042 21/13 A2998 1020 63 1900 260/06 RMK AO2
94908KDBQ DBQ20000628174009706/28/00 17:40:31  5-MIN KDBQ 282340Z 26007KT 10SM FEW042 21/13 A2998 1030 63 2000 260/07 RMK AO2
94908KDBQ DBQ20000628174509706/28/00 17:45:31  5-MIN KDBQ 282345Z 27007KT 10SM FEW042 21/13 A2998 1030 63 1900 270/07 RMK AO2
94908KDBQ DBQ20000628175013206/28/00 17:50:31  5-MIN KDBQ 282350Z 27007KT 10SM FEW042 21/13 A2998 1030 63 1900 270/07 RMK AO2 SLP149 T02060133 10211 20161 56022
94908KDBQ DBQ20000628175513206/28/00 17:55:31  5-MIN KDBQ 282355Z 27007KT 10SM FEW042 21/13 A2998 1020 63 1900 270/07 RMK AO2 SLP149 T02060133 10211 20161 56010
94908KDBQ DBQ20000628180009706/28/00 18:00:31  5-MIN KDBQ 290000Z 26005KT 10SM FEW042 21/14 A2998 1030 65 1900 260/05 RMK AO2
94908KDBQ DBQ20000628180509706/28/00 18:05:31  5-MIN KDBQ 290005Z 26006KT 10SM FEW040 20/13 A2998 1030 65 1900 260/06 RMK AO2
94908KDBQ DBQ20000628181009706/28/00 18:10:31  5-MIN KDBQ 290010Z 27004KT 10SM FEW040 20/14 A2998 1020 67 1900 270/04 RMK AO2
94908KDBQ DBQ20000628181509706/28/00 18:15:31  5-MIN KDBQ 290015Z 27005KT 10SM FEW040 20/14 A2998 1020 67 1900 270/05 RMK AO2
94908KDBQ DBQ20000628182009706/28/00 18:20:31  5-MIN KDBQ 290020Z 27005KT 10SM FEW040 20/14 A2998 1020 67 1900 270/05 RMK AO2
94908KDBQ DBQ20000628182509406/28/00 18:25:31  5-MIN KDBQ 290025Z 25006KT 10SM CLR 19/14 A2998 1020 70 1800 250/06 RMK AO2
94908KDBQ DBQ20000628183009406/28/00 18:30:31  5-MIN KDBQ 290030Z 25005KT 10SM CLR 19/14 A2998 1020 70 1800 250/05 RMK AO2
94908KDBQ DBQ20000628183509406/28/00 18:35:31  5-MIN KDBQ 290035Z 26004KT 10SM CLR 19/14 A2998 1020 72 1800 260/04 RMK AO2
94908KDBQ DBQ20000628184009406/28/00 18:40:31  5-MIN KDBQ 290040Z 26004KT 10SM CLR 19/14 A2999 1020 72 1800 260/04 RMK AO2
94908KDBQ DBQ20000628184509406/28/00 18:45:31  5-MIN KDBQ 290045Z 26004KT 10SM CLR 19/14 A2998 1020 75 1700 260/04 RMK AO2
94908KDBQ DBQ20000628185011406/28/00 18:50:31  5-MIN KDBQ 290050Z 27004KT 10SM FEW120 19/15 A2999 1020 78 1700 270/04 RMK AO2 SLP152 T01890150
94908KDBQ DBQ20000628185511406/28/00 18:55:31  5-MIN KDBQ 290055Z 27005KT 10SM SCT110 18/14 A2999 1020 78 1700 270/05 RMK AO2 SLP152 T01830144
94908KDBQ DBQ20000628190010706/28/00 19:00:31  5-MIN KDBQ 290100Z AUTO 28005KT 10SM BKN110 18/14 A2999 1020 78 1700 270/05 RMK AO2 TSNO
94908KDBQ DBQ20000628190511406/28/00 19:05:31  5-MIN KDBQ 290105Z AUTO 29007KT 10SM FEW045 BKN110 18/15 A3000 1000 81 1700 290/07 RMK AO2 TSNO
94908KDBQ DBQ20000628191016706/28/00 19:10:31  5-MIN KDBQ 290110Z AUTO 31020G32KT 2SM -RA SCT043 SCT065 BKN110 17/13 A3001 1000 78 1500 310/20G32 RMK AO2 PK WND 31032/0109 RAB10 PRESRR P0008 TSNO
94908KDBQ DBQ20000628191516706/28/00 19:15:31  5-MIN KDBQ 290115Z AUTO 29014G32KT 1 1/4SM +RA BR SCT032 BKN043 OVC110 14/13 A3001 1000 90 1200 290/14G32 RMK AO2 PK WND 31032/0109 RAB10 P0012 TSNO
94908KDBQ DBQ20000628192016706/28/00 19:20:31  5-MIN KDBQ 290120Z AUTO 27009KT 2SM +RA BR SCT028 BKN041 OVC110 14/13 A2999 1010 90 1200 270/09 RMK AO2 PK WND 31032/0109 VIS 3/4V5 RAB10 P0014 TSNO
94908KDBQ DBQ20000628192515706/28/00 19:25:31  5-MIN KDBQ 290125Z AUTO 31007KT 4SM -RA BR SCT030 BKN041 OVC100 14/13 A3000 1010 90 1200 310/07 RMK AO2 PK WND 31032/0109 RAB10 P0014 TSNO
94908KDBQ DBQ20000628193015506/28/00 19:30:31  5-MIN KDBQ 290130Z AUTO 30009KT 10SM -RA SCT032 SCT042 BKN075 14/13 A3000 1010 93 1200 300/09 RMK AO2 PK WND 31032/0109 RAB10 P0014 TSNO
94908KDBQ DBQ20000628193515406/28/00 19:35:31  5-MIN KDBQ 290135Z AUTO 28005KT 10SM FEW020 SCT044 OVC080 14/13 A3000 1010 93 1200 280/05 RMK AO2 PK WND 31032/0109 RAB10E32 P0014 TSNO
94908KDBQ DBQ20000628194015406/28/00 19:40:31  5-MIN KDBQ 290140Z AUTO 31006KT 10SM FEW029 BKN080 OVC100 14/13 A3000 1010 93 1200 300/06 RMK AO2 PK WND 31032/0109 RAB10E32 P0014 TSNO
94908KDBQ DBQ20000628194515406/28/00 19:45:31  5-MIN KDBQ 290145Z AUTO 28004KT 10SM FEW032 BKN080 OVC100 14/13 A2999 1010 93 1200 280/04 RMK AO2 PK WND 31032/0109 RAB10E32 P0014 TSNO
94908KDBQ DBQ20000628195016406/28/00 19:50:31  5-MIN KDBQ 290150Z AUTO 28003KT 10SM BKN080 BKN090 15/13 A2999 1010 90 1300 270/03 RMK AO2 PK WND 31032/0109 RAB10E32 SLP156 P0014 T01500133 TSNO
94908KDBQ DBQ20000628195516406/28/00 19:55:31  5-MIN KDBQ 290155Z AUTO 28003KT 10SM SCT080 BKN090 15/13 A2999 1010 90 1300 280/03 RMK AO2 PK WND 31032/0109 RAB10E32 SLP157 P0014 T01500133 TSNO
94908KDBQ DBQ20000628200011406/28/00 20:00:31  5-MIN KDBQ 290200Z AUTO 29003KT 10SM BKN080 BKN090 15/13 A3000 1010 86 1300 290/03 RMK AO2 TSNO
94908KDBQ DBQ20000628200511406/28/00 20:05:31  5-MIN KDBQ 290205Z AUTO 00000KT 10SM BKN080 BKN090 15/13 A3000 1010 86 1300 000/00 RMK AO2 TSNO
94908KDBQ DBQ20000628201011406/28/00 20:10:31  5-MIN KDBQ 290210Z AUTO 00000KT 10SM SCT075 BKN090 14/13 A3000 1010 90 1200 000/00 RMK AO2 TSNO
94908KDBQ DBQ20000628201512106/28/00 20:15:31  5-MIN KDBQ 290215Z AUTO 00000KT 10SM FEW075 SCT090 SCT110 14/13 A3000 1000 90 1200 000/00 RMK AO2 TSNO
94908KDBQ DBQ20000628202011406/28/00 20:20:31  5-MIN KDBQ 290220Z AUTO 00000KT 10SM FEW075 SCT110 14/13 A3000 1000 90 1200 000/00 RMK AO2 TSNO
94908KDBQ DBQ20000628202510706/28/00 20:25:31  5-MIN KDBQ 290225Z AUTO 21004KT 10SM FEW070 14/13 A3000 1010 90 1200 210/04 RMK AO2 TSNO
94908KDBQ DBQ20000628203010706/28/00 20:30:31  5-MIN KDBQ 290230Z AUTO 24003KT 10SM FEW110 14/13 A3000 1010 93 1100 240/03 RMK AO2 TSNO
94908KDBQ DBQ20000628203510706/28/00 20:35:31  5-MIN KDBQ 290235Z AUTO 00000KT 10SM FEW110 14/13 A3000 1010 90 1200 000/00 RMK AO2 TSNO
94908KDBQ DBQ20000628204010706/28/00 20:40:31  5-MIN KDBQ 290240Z AUTO 24003KT 10SM FEW110 14/13 A3000 1010 90 1200 240/03 RMK AO2 TSNO
94908KDBQ DBQ20000628204510406/28/00 20:45:31  5-MIN KDBQ 290245Z AUTO 00000KT 10SM CLR 14/13 A3000 1010 93 1200 000/00 RMK AO2 TSNO
94908KDBQ DBQ20000628205013306/28/00 20:50:31  5-MIN KDBQ 290250Z AUTO 20003KT 10SM CLR 14/13 A3000 1010 93 1200 200/03 RMK AO2 SLP158 60014 T01390128 56010 TSNO
94908KDBQ DBQ20000628205513306/28/00 20:55:31  5-MIN KDBQ 290255Z AUTO 00000KT 10SM CLR 14/13 A3000 1010 93 1200 000/00 RMK AO2 SLP158 60014 T01390128 51006 TSNO
94908KDBQ DBQ20000628210010406/28/00 21:00:31  5-MIN KDBQ 290300Z AUTO 00000KT 10SM CLR 14/12 A3000 1010 86 1200 000/00 RMK AO2 TSNO
94908KDBQ DBQ20000628210510406/28/00 21:05:31  5-MIN KDBQ 290305Z AUTO 19004KT 10SM CLR 14/12 A2999 1010 90 1200 190/04 RMK AO2 TSNO
94908KDBQ DBQ20000628211010406/28/00 21:10:31  5-MIN KDBQ 290310Z AUTO 19004KT 10SM CLR 13/12 A2999 1010 93 1100 190/04 RMK AO2 TSNO
94908KDBQ DBQ20000628211510406/28/00 21:15:31  5-MIN KDBQ 290315Z AUTO 20004KT 10SM CLR 13/12 A3000 1010 93 1100 200/04 RMK AO2 TSNO
94908KDBQ DBQ20000628212010406/28/00 21:20:31  5-MIN KDBQ 290320Z AUTO 20004KT 10SM CLR 13/12 A3000 1010 93 1100 200/04 RMK AO2 TSNO
94908KDBQ DBQ20000628212510406/28/00 21:25:31  5-MIN KDBQ 290325Z AUTO 22004KT 10SM CLR 13/12 A2999 1010 93 1100 220/04 RMK AO2 TSNO
94908KDBQ DBQ20000628213010406/28/00 21:30:31  5-MIN KDBQ 290330Z AUTO 21005KT 10SM CLR 13/12 A2999 1010 93 1100 210/05 RMK AO2 TSNO
94908KDBQ DBQ20000628213510406/28/00 21:35:31  5-MIN KDBQ 290335Z AUTO 21004KT 10SM CLR 13/12 A2999 1010 93 1100 210/04 RMK AO2 TSNO
94908KDBQ DBQ20000628214010406/28/00 21:40:31  5-MIN KDBQ 290340Z AUTO 20004KT 10SM CLR 13/12 A2999 1010 93 1100 200/04 RMK AO2 TSNO
94908KDBQ DBQ20000628214510406/28/00 21:45:31  5-MIN KDBQ 290345Z AUTO 20004KT 10SM CLR 13/12 A2999 1010 93 1100 200/04 RMK AO2 TSNO
94908KDBQ DBQ20000628215012106/28/00 21:50:31  5-MIN KDBQ 290350Z AUTO 20004KT 10SM CLR 13/12 A2999 1010 96 1000 200/04 RMK AO2 SLP157 T01280122 TSNO
94908KDBQ DBQ20000628215512106/28/00 21:55:31  5-MIN KDBQ 290355Z AUTO 21004KT 10SM CLR 13/12 A2999 1010 96 1000 210/04 RMK AO2 SLP157 T01280122 TSNO
94908KDBQ DBQ20000628220010406/28/00 22:00:31  5-MIN KDBQ 290400Z AUTO 21004KT 10SM CLR 13/12 A2999 1010 96 1000 210/04 RMK AO2 TSNO
94908KDBQ DBQ20000628220510406/28/00 22:05:31  5-MIN KDBQ 290405Z AUTO 21004KT 10SM CLR 13/12 A2999 1010 96 1000 210/04 RMK AO2 TSNO
94908KDBQ DBQ20000628221010406/28/00 22:10:31  5-MIN KDBQ 290410Z AUTO 21004KT 10SM CLR 13/12 A2999 1010 96 1000 210/04 RMK AO2 TSNO
94908KDBQ DBQ20000628221510406/28/00 22:15:31  5-MIN KDBQ 290415Z AUTO 21004KT 10SM CLR 13/12 A2999 1010 96 1000 210/04 RMK AO2 TSNO
94908KDBQ DBQ20000628222010406/28/00 22:20:31  5-MIN KDBQ 290420Z AUTO 21005KT 10SM CLR 13/12 A2999 1010 96 1000 200/05 RMK AO2 TSNO
94908KDBQ DBQ20000628222510406/28/00 22:25:31  5-MIN KDBQ 290425Z AUTO 20005KT 10SM CLR 13/12 A2999 1010 93 1000 200/05 RMK AO2 TSNO
94908KDBQ DBQ20000628223010406/28/00 22:30:31  5-MIN KDBQ 290430Z AUTO 20004KT 10SM CLR 13/12 A2999 1010 93 1000 200/04 RMK AO2 TSNO
94908KDBQ DBQ20000628223510406/28/00 22:35:31  5-MIN KDBQ 290435Z AUTO 19004KT 10SM CLR 13/12 A2999 1010 93 1000 190/04 RMK AO2 TSNO
94908KDBQ DBQ20000628224010406/28/00 22:40:31  5-MIN KDBQ 290440Z AUTO 20004KT 10SM CLR 13/12 A2999 1010 93 1000 190/04 RMK AO2 TSNO
94908KDBQ DBQ20000628224510406/28/00 22:45:31  5-MIN KDBQ 290445Z AUTO 19004KT 10SM CLR 12/12 A2999 1010 96 1000 190/04 RMK AO2 TSNO
94908KDBQ DBQ20000628225012106/28/00 22:50:31  5-MIN KDBQ 290450Z AUTO 19005KT 10SM CLR 12/12 A2999 1010 96 1000 190/05 RMK AO2 SLP155 T01220117 TSNO
94908KDBQ DBQ20000628225512106/28/00 22:55:31  5-MIN KDBQ 290455Z AUTO 20005KT 10SM CLR 12/12 A2999 1010 96 1000 190/05 RMK AO2 SLP156 T01220117 TSNO
94908KDBQ DBQ20000628230010406/28/00 23:00:31  5-MIN KDBQ 290500Z AUTO 19005KT 10SM CLR 12/12 A2999 1010 96 1000 190/05 RMK AO2 TSNO
94908KDBQ DBQ20000628230510406/28/00 23:05:31  5-MIN KDBQ 290505Z AUTO 20005KT 10SM CLR 12/12 A2999 1010 96 1000 200/05 RMK AO2 TSNO
94908KDBQ DBQ20000628231010406/28/00 23:10:31  5-MIN KDBQ 290510Z AUTO 20006KT 10SM CLR 12/12 A2999 1020 96 1000 190/06 RMK AO2 TSNO
94908KDBQ DBQ20000628231510406/28/00 23:15:31  5-MIN KDBQ 290515Z AUTO 20006KT 10SM CLR 12/12 A2999 1010 96 1000 200/06 RMK AO2 TSNO
94908KDBQ DBQ20000628232010406/28/00 23:20:31  5-MIN KDBQ 290520Z AUTO 20006KT 10SM CLR 12/12 A2999 1010 96 1000 200/06 RMK AO2 TSNO
94908KDBQ DBQ20000628232510406/28/00 23:25:31  5-MIN KDBQ 290525Z AUTO 20005KT 10SM CLR 12/12 A2999 1020 96 1000 200/05 RMK AO2 TSNO
94908KDBQ DBQ20000628233010406/28/00 23:30:31  5-MIN KDBQ 290530Z AUTO 20006KT 10SM CLR 12/12 A2999 1010 96 1000 200/06 RMK AO2 TSNO
94908KDBQ DBQ20000628233510306/28/00 23:35:31  5-MIN KDBQ 290535Z AUTO 20006KT 9SM CLR 12/12 A2999 1020 96 1000 200/06 RMK AO2 TSNO
94908KDBQ DBQ20000628234010306/28/00 23:40:31  5-MIN KDBQ 290540Z AUTO 20006KT 9SM CLR 12/12 A2999 1020 96 1000 200/06 RMK AO2 TSNO
94908KDBQ DBQ20000628234510306/28/00 23:45:31  5-MIN KDBQ 290545Z AUTO 20007KT 9SM CLR 12/12 A2999 1020 96 1000 200/07 RMK AO2 TSNO
94908KDBQ DBQ20000628235015406/28/00 23:50:31  5-MIN KDBQ 290550Z AUTO 20006KT 8SM CLR 12/12 A2999 1020 96 1000 200/06 RMK AO2 SLP155 60014 T01220117 10206 20122 402110122 51006 TSNO
94908KDBQ DBQ20000628235515406/28/00 23:55:31  5-MIN KDBQ 290555Z AUTO 20005KT 8SM CLR 12/12 A2998 1020 96 1000 200/05 RMK AO2 SLP154 60014 T01220117 10206 20122 402110122 56004 TSNO
94908KDBQ DBQ20000629000010306/29/00 00:00:31  5-MIN KDBQ 290600Z AUTO 20006KT 7SM CLR 12/12 A2999 1020 96 1000 200/06 RMK AO2 TSNO
94908KDBQ DBQ20000629000510306/29/00 00:05:31  5-MIN KDBQ 290605Z AUTO 20005KT 7SM CLR 12/12 A2998 1020 96 1000 200/05 RMK AO2 TSNO
94908KDBQ DBQ20000629001010306/29/00 00:10:31  5-MIN KDBQ 290610Z AUTO 20005KT 7SM CLR 12/12 A2998 1020 96 1000 200/05 RMK AO2 TSNO
94908KDBQ DBQ20000629001510606/29/00 00:15:31  5-MIN KDBQ 290615Z AUTO 20006KT 6SM BR CLR 12/12 A2998 1020 96 1000 200/06 RMK AO2 TSNO
94908KDBQ DBQ20000629002011206/29/00 00:20:31  5-MIN KDBQ 290620Z AUTO 20006KT 6SM BR CLR 12/12 A2998 1020 100 900 200/06 RMK AO2 P0001 TSNO
94908KDBQ DBQ20000629002511206/29/00 00:25:31  5-MIN KDBQ 290625Z AUTO 20006KT 5SM BR CLR 12/12 A2998 1020 96 1000 200/06 RMK AO2 P0001 TSNO
94908KDBQ DBQ20000629003011206/29/00 00:30:31  5-MIN KDBQ 290630Z AUTO 20006KT 5SM BR CLR 12/12 A2998 1020 100 900 200/06 RMK AO2 P0001 TSNO
94908KDBQ DBQ20000629003511206/29/00 00:35:31  5-MIN KDBQ 290635Z AUTO 20006KT 5SM BR CLR 12/12 A2998 1020 96 1000 200/06 RMK AO2 P0001 TSNO
94908KDBQ DBQ20000629004011206/29/00 00:40:31  5-MIN KDBQ 290640Z AUTO 20006KT 5SM BR CLR 12/12 A2998 1020 96 1000 200/06 RMK AO2 P0001 TSNO
94908KDBQ DBQ20000629004511206/29/00 00:45:31  5-MIN KDBQ 290645Z AUTO 20006KT 5SM BR CLR 12/12 A2998 1020 96 1000 200/06 RMK AO2 P0001 TSNO
94908KDBQ DBQ20000629005012906/29/00 00:50:31  5-MIN KDBQ 290650Z AUTO 20005KT 5SM BR CLR 12/12 A2998 1020 96 1000 200/05 RMK AO2 SLP151 P0001 T01220117 TSNO
94908KDBQ DBQ20000629005512906/29/00 00:55:31  5-MIN KDBQ 290655Z AUTO 20006KT 5SM BR CLR 12/12 A2998 1030 96 1000 200/06 RMK AO2 SLP152 P0001 T01220117 TSNO
94908KDBQ DBQ20000629010010606/29/00 01:00:31  5-MIN KDBQ 290700Z AUTO 20006KT 5SM BR CLR 12/12 A2998 1030 96 1000 200/06 RMK AO2 TSNO
94908KDBQ DBQ20000629010510606/29/00 01:05:31  5-MIN KDBQ 290705Z AUTO 20006KT 6SM BR CLR 12/12 A2997 1030 96 1000 190/06 RMK AO2 TSNO
94908KDBQ DBQ20000629011010606/29/00 01:10:31  5-MIN KDBQ 290710Z AUTO 20007KT 6SM BR CLR 12/12 A2997 1030 96 1000 200/07 RMK AO2 TSNO
94908KDBQ DBQ20000629011510606/29/00 01:15:31  5-MIN KDBQ 290715Z AUTO 20005KT 6SM BR CLR 12/12 A2997 1030 96 1000 200/05 RMK AO2 TSNO
94908KDBQ DBQ20000629012010606/29/00 01:20:31  5-MIN KDBQ 290720Z AUTO 20006KT 6SM BR CLR 12/12 A2997 1030 96 1000 200/06 RMK AO2 TSNO
94908KDBQ DBQ20000629012510606/29/00 01:25:31  5-MIN KDBQ 290725Z AUTO 21006KT 6SM BR CLR 12/12 A2997 1030 96 1000 210/06 RMK AO2 TSNO
94908KDBQ DBQ20000629013010606/29/00 01:30:31  5-MIN KDBQ 290730Z AUTO 20006KT 6SM BR CLR 12/12 A2997 1030 96 1000 200/06 RMK AO2 TSNO
94908KDBQ DBQ20000629013510606/29/00 01:35:31  5-MIN KDBQ 290735Z AUTO 20006KT 6SM BR CLR 12/12 A2997 1030 96 1000 200/06 RMK AO2 TSNO
94908KDBQ DBQ20000629014010606/29/00 01:40:31  5-MIN KDBQ 290740Z AUTO 20006KT 6SM BR CLR 12/12 A2997 1030 96 1000 200/06 RMK AO2 TSNO
94908KDBQ DBQ20000629014510606/29/00 01:45:31  5-MIN KDBQ 290745Z AUTO 20006KT 6SM BR CLR 12/12 A2997 1030 96 1000 200/06 RMK AO2 TSNO
94908KDBQ DBQ20000629015012306/29/00 01:50:31  5-MIN KDBQ 290750Z AUTO 20006KT 6SM BR CLR 12/12 A2997 1030 96 1000 200/06 RMK AO2 SLP148 T01220117 TSNO
94908KDBQ DBQ20000629015512306/29/00 01:55:31  5-MIN KDBQ 290755Z AUTO 20006KT 6SM BR CLR 12/12 A2997 1030 96 1000 200/06 RMK AO2 SLP148 T01220117 TSNO
94908KDBQ DBQ20000629020010906/29/00 02:00:31  5-MIN KDBQ 290800Z AUTO 20006KT 6SM BR SCT080 12/12 A2997 1030 96 1000 200/06 RMK AO2 TSNO
94908KDBQ DBQ20000629020511006/29/00 02:05:31  5-MIN KDBQ 290805Z AUTO 22003KT 6SM BR BKN080 12/12 A2998 1030 100 1000 220/03 RMK AO2 TSNO
94908KDBQ DBQ20000629021010906/29/00 02:10:31  5-MIN KDBQ 290810Z AUTO 20004KT 6SM BR SCT080 12/12 A2997 1030 96 1000 200/04 RMK AO2 TSNO
94908KDBQ DBQ20000629021510906/29/00 02:15:31  5-MIN KDBQ 290815Z AUTO 00000KT 6SM BR SCT080 12/12 A2997 1030 96 1000 000/00 RMK AO2 TSNO
94908KDBQ DBQ20000629022010906/29/00 02:20:31  5-MIN KDBQ 290820Z AUTO VRB03KT 6SM BR SCT085 12/12 A2997 1030 96 1000 VRB/03 RMK AO2 TSNO
94908KDBQ DBQ20000629022511306/29/00 02:25:31  5-MIN KDBQ 290825Z AUTO 24004KT 7SM SCT085 BKN110 13/12 A2997 1030 96 1000 240/04 RMK AO2 TSNO
94908KDBQ DBQ20000629023011306/29/00 02:30:31  5-MIN KDBQ 290830Z AUTO 24006KT 9SM SCT090 BKN110 13/12 A2997 1030 96 1000 240/06 RMK AO2 TSNO
94908KDBQ DBQ20000629023510706/29/00 02:35:31  5-MIN KDBQ 290835Z AUTO 24006KT 10SM BKN100 13/13 A2997 1030 96 1100 240/06 RMK AO2 TSNO
94908KDBQ DBQ20000629024010706/29/00 02:40:31  5-MIN KDBQ 290840Z AUTO 25006KT 10SM BKN100 13/13 A2997 1030 96 1100 250/06 RMK AO2 TSNO
94908KDBQ DBQ20000629024510706/29/00 02:45:31  5-MIN KDBQ 290845Z AUTO 25006KT 10SM BKN100 13/13 A2997 1030 96 1100 250/06 RMK AO2 TSNO
94908KDBQ DBQ20000629025013606/29/00 02:50:31  5-MIN KDBQ 290850Z AUTO 26006KT 10SM BKN100 13/13 A2997 1030 96 1100 260/06 RMK AO2 SLP147 60001 T01330128 56004 TSNO
94908KDBQ DBQ20000629025514306/29/00 02:55:31  5-MIN KDBQ 290855Z AUTO 26007KT 10SM FEW080 BKN100 13/13 A2997 1030 96 1100 250/07 RMK AO2 SLP146 60001 T01330128 56005 TSNO
94908KDBQ DBQ20000629030011406/29/00 03:00:31  5-MIN KDBQ 290900Z AUTO 26006KT 10SM FEW080 BKN100 14/13 A2997 1030 93 1200 250/06 RMK AO2 TSNO
94908KDBQ DBQ20000629030511406/29/00 03:05:31  5-MIN KDBQ 290905Z AUTO 26007KT 10SM FEW080 BKN095 14/13 A2997 1030 93 1200 260/07 RMK AO2 TSNO
94908KDBQ DBQ20000629031010706/29/00 03:10:31  5-MIN KDBQ 290910Z AUTO 26008KT 10SM BKN090 14/13 A2997 1030 93 1200 250/08 RMK AO2 TSNO
94908KDBQ DBQ20000629031510706/29/00 03:15:31  5-MIN KDBQ 290915Z AUTO 26007KT 10SM BKN090 14/13 A2997 1030 93 1200 250/07 RMK AO2 TSNO
94908KDBQ DBQ20000629032011406/29/00 03:20:31  5-MIN KDBQ 290920Z AUTO 26007KT 10SM FEW080 BKN095 14/13 A2997 1030 93 1200 260/07 RMK AO2 TSNO
94908KDBQ DBQ20000629032510706/29/00 03:25:31  5-MIN KDBQ 290925Z AUTO 26007KT 10SM SCT095 13/13 A2997 1030 96 1100 260/07 RMK AO2 TSNO
94908KDBQ DBQ20000629033010706/29/00 03:30:31  5-MIN KDBQ 290930Z AUTO 25007KT 10SM SCT090 13/13 A2997 1030 96 1100 250/07 RMK AO2 TSNO
94908KDBQ DBQ20000629033510706/29/00 03:35:31  5-MIN KDBQ 290935Z AUTO 25008KT 10SM SCT085 13/13 A2997 1040 96 1100 250/08 RMK AO2 TSNO
94908KDBQ DBQ20000629034011406/29/00 03:40:31  5-MIN KDBQ 290940Z AUTO 24007KT 10SM SCT080 SCT090 13/13 A2997 1040 96 1100 240/07 RMK AO2 TSNO
94908KDBQ DBQ20000629034510706/29/00 03:45:31  5-MIN KDBQ 290945Z AUTO 23006KT 10SM FEW080 13/13 A2996 1040 96 1100 230/06 RMK AO2 TSNO
94908KDBQ DBQ20000629035012306/29/00 03:50:31  5-MIN KDBQ 290950Z AUTO 24006KT 9SM SCT075 13/13 A2997 1040 96 1100 240/06 RMK AO2 SLP146 T01330128 TSNO
94908KDBQ DBQ20000629035512306/29/00 03:55:31  5-MIN KDBQ 290955Z AUTO 26007KT 9SM BKN075 13/12 A2997 1030 93 1100 250/07 RMK AO2 SLP146 T01330122 TSNO
94908KDBQ DBQ20000629040010706/29/00 04:00:31  5-MIN KDBQ 291000Z AUTO 27006KT 10SM BKN075 13/13 A2997 1030 96 1100 270/06 RMK AO2 TSNO
94908KDBQ DBQ20000629040510706/29/00 04:05:31  5-MIN KDBQ 291005Z AUTO 27007KT 10SM SCT075 13/13 A2997 1030 96 1100 270/07 RMK AO2 TSNO
94908KDBQ DBQ20000629041010706/29/00 04:10:31  5-MIN KDBQ 291010Z AUTO 27007KT 10SM FEW075 13/12 A2997 1030 93 1100 260/07 RMK AO2 TSNO
94908KDBQ DBQ20000629041511406/29/00 04:15:31  5-MIN KDBQ 291015Z AUTO 27007KT 10SM FEW075 SCT090 13/12 A2997 1030 93 1100 270/07 RMK AO2 TSNO
94908KDBQ DBQ20000629042010606/29/00 04:20:31  5-MIN KDBQ 291020Z AUTO 27007KT 9SM FEW075 13/12 A2997 1030 93 1100 270/07 RMK AO2 TSNO
94908KDBQ DBQ20000629042510306/29/00 04:25:31  5-MIN KDBQ 291025Z AUTO 27007KT 8SM CLR 13/12 A2998 1030 93 1100 270/07 RMK AO2 TSNO
94908KDBQ DBQ20000629043010306/29/00 04:30:31  5-MIN KDBQ 291030Z AUTO 27007KT 7SM CLR 13/12 A2998 1020 93 1100 270/07 RMK AO2 TSNO
94908KDBQ DBQ20000629043510306/29/00 04:35:31  5-MIN KDBQ 291035Z AUTO 27007KT 7SM CLR 13/12 A2998 1030 93 1100 260/07 RMK AO2 TSNO
94908KDBQ DBQ20000629044010306/29/00 04:40:31  5-MIN KDBQ 291040Z AUTO 26007KT 7SM CLR 13/12 A2998 1020 93 1100 260/07 RMK AO2 TSNO
94908KDBQ DBQ20000629044510306/29/00 04:45:31  5-MIN KDBQ 291045Z AUTO 26007KT 7SM CLR 13/12 A2998 1020 93 1100 260/07 RMK AO2 TSNO
94908KDBQ DBQ20000629045012006/29/00 04:50:31  5-MIN KDBQ 291050Z AUTO 25006KT 7SM CLR 13/12 A2998 1020 96 1000 250/06 RMK AO2 SLP150 T01280122 TSNO
94908KDBQ DBQ20000629045511006/29/00 04:55:31  5-MIN KDBQ 291055Z 26005KT 8SM CLR 13/12 A2998 1020 96 1000 260/05 RMK AO2 SLP150 T01280122
94908KDBQ DBQ20000629050009606/29/00 05:00:31  5-MIN KDBQ 291100Z 27007KT 8SM FEW095 13/12 A2998 1020 93 1100 270/07 RMK AO2
94908KDBQ DBQ20000629050509606/29/00 05:05:31  5-MIN KDBQ 291105Z 27007KT 8SM FEW095 13/13 A2998 1020 96 1100 270/07 RMK AO2
94908KDBQ DBQ20000629051009606/29/00 05:10:31  5-MIN KDBQ 291110Z 27007KT 8SM FEW095 13/13 A2998 1020 96 1100 270/07 RMK AO2
94908KDBQ DBQ20000629051509606/29/00 05:15:31  5-MIN KDBQ 291115Z 27007KT 8SM FEW095 13/13 A2999 1020 96 1100 270/07 RMK AO2
94908KDBQ DBQ20000629052009606/29/00 05:20:31  5-MIN KDBQ 291120Z 27007KT 8SM FEW095 13/13 A2999 1020 96 1100 270/07 RMK AO2
94908KDBQ DBQ20000629052509606/29/00 05:25:31  5-MIN KDBQ 291125Z 28007KT 8SM FEW095 14/13 A2999 1020 93 1200 280/07 RMK AO2
94908KDBQ DBQ20000629053009606/29/00 05:30:31  5-MIN KDBQ 291130Z 28008KT 8SM FEW090 14/13 A2999 1020 93 1200 280/08 RMK AO2
94908KDBQ DBQ20000629053509606/29/00 05:35:31  5-MIN KDBQ 291135Z 28008KT 8SM FEW090 14/13 A2999 1020 93 1200 280/08 RMK AO2
94908KDBQ DBQ20000629054009606/29/00 05:40:31  5-MIN KDBQ 291140Z 29006KT 8SM FEW090 14/13 A2999 1020 93 1200 290/06 RMK AO2
94908KDBQ DBQ20000629054509606/29/00 05:45:31  5-MIN KDBQ 291145Z 29007KT 8SM FEW090 14/13 A2999 1020 90 1200 290/07 RMK AO2
94908KDBQ DBQ20000629055014006/29/00 05:50:31  5-MIN KDBQ 291150Z 29007KT 8SM CLR 14/12 A2999 1010 86 1200 280/07 RMK AO2 SLP153 60001 70029 T01440122 10144 20117 56005
94908KDBQ DBQ20000629055514006/29/00 05:55:31  5-MIN KDBQ 291155Z 28006KT 8SM CLR 14/13 A2999 1020 90 1200 280/06 RMK AO2 SLP152 60001 70029 T01440128 10144 20117 53006
94908KDBQ DBQ20000629060009306/29/00 06:00:31  5-MIN KDBQ 291200Z 30007KT 9SM CLR 15/13 A2999 1020 86 1300 300/07 RMK AO2
94908KDBQ DBQ20000629060509406/29/00 06:05:31  5-MIN KDBQ 291205Z 30008KT 10SM CLR 15/12 A2999 1020 83 1300 300/08 RMK AO2
94908KDBQ DBQ20000629061009406/29/00 06:10:31  5-MIN KDBQ 291210Z 30009KT 10SM CLR 15/12 A2999 1010 83 1300 300/09 RMK AO2
94908KDBQ DBQ20000629061509406/29/00 06:15:31  5-MIN KDBQ 291215Z 30008KT 10SM CLR 15/12 A2999 1010 83 1300 300/08 RMK AO2
94908KDBQ DBQ20000629062009406/29/00 06:20:31  5-MIN KDBQ 291220Z 30008KT 10SM CLR 16/12 A2999 1010 80 1400 300/08 RMK AO2
94908KDBQ DBQ20000629062509406/29/00 06:25:31  5-MIN KDBQ 291225Z 30007KT 10SM CLR 16/12 A2999 1010 80 1400 300/07 RMK AO2
94908KDBQ DBQ20000629063009406/29/00 06:30:31  5-MIN KDBQ 291230Z 30009KT 10SM CLR 16/13 A3000 1010 83 1300 300/09 RMK AO2
94908KDBQ DBQ20000629063509406/29/00 06:35:31  5-MIN KDBQ 291235Z 31011KT 10SM CLR 16/12 A3000 1010 80 1300 310/11 RMK AO2
94908KDBQ DBQ20000629064009406/29/00 06:40:31  5-MIN KDBQ 291240Z 31010KT 10SM CLR 16/12 A3000 1000 77 1400 310/10 RMK AO2
94908KDBQ DBQ20000629064509406/29/00 06:45:31  5-MIN KDBQ 291245Z 31009KT 10SM CLR 16/12 A3000 1010 77 1400 310/09 RMK AO2
94908KDBQ DBQ20000629065011106/29/00 06:50:31  5-MIN KDBQ 291250Z 31008KT 10SM CLR 16/12 A3000 1000 77 1400 310/08 RMK AO2 SLP156 T01610122
94908KDBQ DBQ20000629065511106/29/00 06:55:31  5-MIN KDBQ 291255Z 31009KT 10SM CLR 16/12 A3000 1000 75 1400 310/09 RMK AO2 SLP157 T01610117
94908KDBQ DBQ20000629070009406/29/00 07:00:31  5-MIN KDBQ 291300Z 32010KT 10SM CLR 17/12 A3000 1000 72 1500 320/10 RMK AO2
94908KDBQ DBQ20000629070509406/29/00 07:05:31  5-MIN KDBQ 291305Z 32011KT 10SM CLR 17/12 A3000 1000 72 1500 320/11 RMK AO2
94908KDBQ DBQ20000629071009406/29/00 07:10:31  5-MIN KDBQ 291310Z 32011KT 10SM CLR 17/12 A3000 1000 72 1500 320/11 RMK AO2
94908KDBQ DBQ20000629071509406/29/00 07:15:31  5-MIN KDBQ 291315Z 32012KT 10SM CLR 17/11 A3000 1000 69 1500 320/12 RMK AO2
94908KDBQ DBQ20000629072009406/29/00 07:20:31  5-MIN KDBQ 291320Z 33012KT 10SM CLR 17/12 A3000 1000 72 1500 320/12 RMK AO2
94908KDBQ DBQ20000629072509406/29/00 07:25:31  5-MIN KDBQ 291325Z 33011KT 10SM CLR 17/12 A3001 1000 72 1500 320/11 RMK AO2
94908KDBQ DBQ20000629073009406/29/00 07:30:31  5-MIN KDBQ 291330Z 32011KT 10SM CLR 17/12 A3001 1000 72 1500 320/11 RMK AO2
94908KDBQ DBQ20000629073509406/29/00 07:35:31  5-MIN KDBQ 291335Z 33010KT 10SM CLR 17/12 A3001 1000 72 1500 330/10 RMK AO2
94908KDBQ DBQ20000629074009406/29/00 07:40:31  5-MIN KDBQ 291340Z 32011KT 10SM CLR 17/11 A3001 1000 67 1500 320/11 RMK AO2
94908KDBQ DBQ20000629074509406/29/00 07:45:31  5-MIN KDBQ 291345Z 34009KT 10SM CLR 17/12 A3001 1000 69 1500 340/09 RMK AO2
94908KDBQ DBQ20000629075011106/29/00 07:50:31  5-MIN KDBQ 291350Z 33010KT 10SM CLR 17/12 A3001 1000 69 1500 320/10 RMK AO2 SLP161 T01720117
94908KDBQ DBQ20000629075511006/29/00 07:55:31  5-MIN KDBQ 291355Z 32009KT 10SM CLR 17/12 A3001 990 72 1500 320/09 RMK AO2 SLP162 T01720122
94908KDBQ DBQ20000629080009306/29/00 08:00:31  5-MIN KDBQ 291400Z 33011KT 10SM CLR 17/11 A3001 990 67 1500 330/11 RMK AO2
94908KDBQ DBQ20000629080509306/29/00 08:05:31  5-MIN KDBQ 291405Z 34009KT 10SM CLR 18/12 A3001 990 69 1600 330/09 RMK AO2
94908KDBQ DBQ20000629081009306/29/00 08:10:31  5-MIN KDBQ 291410Z 32010KT 10SM CLR 18/12 A3001 990 67 1600 320/10 RMK AO2
94908KDBQ DBQ20000629081509306/29/00 08:15:31  5-MIN KDBQ 291415Z 33010KT 10SM CLR 18/12 A3001 990 67 1600 330/10 RMK AO2
94908KDBQ DBQ20000629082009306/29/00 08:20:31  5-MIN KDBQ 291420Z 33012KT 10SM CLR 18/11 A3001 990 64 1600 330/12 RMK AO2
94908KDBQ DBQ20000629082509306/29/00 08:25:31  5-MIN KDBQ 291425Z 33011KT 10SM CLR 18/11 A3002 990 64 1600 330/11 RMK AO2
94908KDBQ DBQ20000629083009306/29/00 08:30:31  5-MIN KDBQ 291430Z 34010KT 10SM CLR 18/11 A3002 990 62 1600 340/10 RMK AO2
94908KDBQ DBQ20000629083509306/29/00 08:35:31  5-MIN KDBQ 291435Z 33011KT 10SM CLR 18/11 A3002 990 62 1600 330/11 RMK AO2
94908KDBQ DBQ20000629084009306/29/00 08:40:31  5-MIN KDBQ 291440Z 34010KT 10SM CLR 18/11 A3002 990 62 1600 340/10 RMK AO2
94908KDBQ DBQ20000629084509306/29/00 08:45:31  5-MIN KDBQ 291445Z 35011KT 10SM CLR 18/11 A3002 990 62 1600 350/11 RMK AO2
94908KDBQ DBQ20000629085011606/29/00 08:50:31  5-MIN KDBQ 291450Z 34010KT 10SM CLR 19/12 A3002 990 62 1700 340/10 RMK AO2 SLP164 T01890117 53006
94908KDBQ DBQ20000629085511606/29/00 08:55:31  5-MIN KDBQ 291455Z 33010KT 10SM CLR 19/11 A3002 980 60 1700 330/10 RMK AO2 SLP164 T01890111 51011
94908KDBQ DBQ20000629090009306/29/00 09:00:31  5-MIN KDBQ 291500Z 34010KT 10SM CLR 19/11 A3002 980 60 1700 340/10 RMK AO2
94908KDBQ DBQ20000629090509306/29/00 09:05:31  5-MIN KDBQ 291505Z 31009KT 10SM CLR 19/12 A3002 980 62 1700 310/09 RMK AO2
94908KDBQ DBQ20000629091009306/29/00 09:10:31  5-MIN KDBQ 291510Z 31012KT 10SM CLR 19/12 A3002 980 62 1700 310/12 RMK AO2
94908KDBQ DBQ20000629091509306/29/00 09:15:31  5-MIN KDBQ 291515Z 31010KT 10SM CLR 18/11 A3002 980 62 1600 310/10 RMK AO2
94908KDBQ DBQ20000629092009306/29/00 09:20:31  5-MIN KDBQ 291520Z 31012KT 10SM CLR 19/12 A3002 980 62 1700 310/12 RMK AO2
94908KDBQ DBQ20000629092509306/29/00 09:25:31  5-MIN KDBQ 291525Z 31013KT 10SM CLR 19/11 A3002 980 58 1700 310/13 RMK AO2
94908KDBQ DBQ20000629093009306/29/00 09:30:31  5-MIN KDBQ 291530Z 31012KT 10SM CLR 19/11 A3002 980 58 1700 310/12 RMK AO2
94908KDBQ DBQ20000629093509306/29/00 09:35:31  5-MIN KDBQ 291535Z 32011KT 10SM CLR 19/11 A3003 980 58 1700 320/11 RMK AO2
94908KDBQ DBQ20000629094009306/29/00 09:40:31  5-MIN KDBQ 291540Z 32011KT 10SM CLR 19/11 A3003 980 58 1800 320/11 RMK AO2
94908KDBQ DBQ20000629094509306/29/00 09:45:31  5-MIN KDBQ 291545Z 31011KT 10SM CLR 19/11 A3003 980 58 1800 310/11 RMK AO2
94908KDBQ DBQ20000629095011006/29/00 09:50:31  5-MIN KDBQ 291550Z 32010KT 10SM CLR 19/11 A3003 980 58 1800 320/10 RMK AO2 SLP167 T01940111
94908KDBQ DBQ20000629095511006/29/00 09:55:31  5-MIN KDBQ 291555Z 33010KT 10SM CLR 19/11 A3003 980 58 1800 330/10 RMK AO2 SLP168 T01940111
94908KDBQ DBQ20000629100009306/29/00 10:00:31  5-MIN KDBQ 291600Z 33011KT 10SM CLR 19/11 A3003 980 56 1800 330/11 RMK AO2
94908KDBQ DBQ20000629100509306/29/00 10:05:31  5-MIN KDBQ 291605Z 32014KT 10SM CLR 19/11 A3003 980 56 1800 320/14 RMK AO2
94908KDBQ DBQ20000629101009306/29/00 10:10:31  5-MIN KDBQ 291610Z 31014KT 10SM CLR 19/11 A3003 980 56 1800 310/14 RMK AO2
94908KDBQ DBQ20000629101509906/29/00 10:15:31  5-MIN KDBQ 291615Z 31014G19KT 10SM CLR 20/10 A3003 980 52 1800 310/14G19 RMK AO2
94908KDBQ DBQ20000629102009306/29/00 10:20:31  5-MIN KDBQ 291620Z 31014KT 10SM CLR 19/11 A3003 970 56 1800 310/14 RMK AO2
94908KDBQ DBQ20000629102509606/29/00 10:25:31  5-MIN KDBQ 291625Z 31011KT 10SM FEW045 19/11 A3004 970 58 1800 310/11 RMK AO2
94908KDBQ DBQ20000629103009606/29/00 10:30:31  5-MIN KDBQ 291630Z 31013KT 10SM FEW045 20/11 A3004 970 56 1800 310/13 RMK AO2
94908KDBQ DBQ20000629103509606/29/00 10:35:31  5-MIN KDBQ 291635Z 30012KT 10SM FEW045 20/11 A3004 970 54 1800 300/12 RMK AO2
94908KDBQ DBQ20000629104010206/29/00 10:40:31  5-MIN KDBQ 291640Z 30010G18KT 10SM FEW045 20/11 A3004 970 54 1800 300/10G18 RMK AO2
94908KDBQ DBQ20000629104509606/29/00 10:45:31  5-MIN KDBQ 291645Z 32016KT 10SM FEW045 20/11 A3004 970 54 1800 320/16 RMK AO2
94908KDBQ DBQ20000629105011306/29/00 10:50:31  5-MIN KDBQ 291650Z 33015KT 10SM FEW045 20/11 A3004 970 54 1800 330/15 RMK AO2 SLP171 T02000106
94908KDBQ DBQ20000629105511306/29/00 10:55:31  5-MIN KDBQ 291655Z 33015KT 10SM FEW045 20/11 A3004 970 54 1800 330/15 RMK AO2 SLP171 T02000106
94908KDBQ DBQ20000629110009606/29/00 11:00:31  5-MIN KDBQ 291700Z 31015KT 10SM FEW043 21/11 A3004 970 52 1900 310/15 RMK AO2
94908KDBQ DBQ20000629110509906/29/00 11:05:31  5-MIN KDBQ 291705Z 33014G19KT 10SM CLR 20/11 A3004 970 54 1800 320/14G19 RMK AO2
94908KDBQ DBQ20000629111009306/29/00 11:10:31  5-MIN KDBQ 291710Z 33011KT 10SM CLR 21/11 A3004 970 52 1900 330/11 RMK AO2
94908KDBQ DBQ20000629111509306/29/00 11:15:31  5-MIN KDBQ 291715Z 34014KT 10SM CLR 21/11 A3003 970 52 1900 340/14 RMK AO2
94908KDBQ DBQ20000629112009306/29/00 11:20:31  5-MIN KDBQ 291720Z 33011KT 10SM CLR 21/10 A3003 970 50 1900 330/11 RMK AO2
94908KDBQ DBQ20000629112509906/29/00 11:25:31  5-MIN KDBQ 291725Z 33013G19KT 10SM CLR 21/11 A3003 970 50 1900 330/13G19 RMK AO2
94908KDBQ DBQ20000629113009906/29/00 11:30:31  5-MIN KDBQ 291730Z 33013G19KT 10SM CLR 21/11 A3003 970 50 1900 330/13G19 RMK AO2
94908KDBQ DBQ20000629113509306/29/00 11:35:31  5-MIN KDBQ 291735Z 34013KT 10SM CLR 21/11 A3003 970 50 1900 340/13 RMK AO2
94908KDBQ DBQ20000629114009306/29/00 11:40:31  5-MIN KDBQ 291740Z 33013KT 10SM CLR 21/10 A3003 980 50 1900 320/13 RMK AO2
94908KDBQ DBQ20000629114509306/29/00 11:45:31  5-MIN KDBQ 291745Z 32012KT 10SM CLR 21/10 A3003 980 50 1900 320/12 RMK AO2
94908KDBQ DBQ20000629115013706/29/00 11:50:31  5-MIN KDBQ 291750Z 31011G19KT 10SM FEW049 21/10 A3003 980 50 1900 310/11G19 RMK AO2 SLP167 T02060100 10211 20144 51011
94908KDBQ DBQ20000629115513706/29/00 11:55:31  5-MIN KDBQ 291755Z 34011G19KT 10SM FEW049 21/11 A3003 980 54 1900 340/11G19 RMK AO2 SLP166 T02060111 10211 20144 50002
94908KDBQ DBQ20000629120009606/29/00 12:00:31  5-MIN KDBQ 291800Z 32014KT 10SM FEW049 21/11 A3003 980 50 2000 320/14 RMK AO2
94908KDBQ DBQ20000629120509606/29/00 12:05:31  5-MIN KDBQ 291805Z 31010KT 10SM FEW049 21/11 A3003 980 50 2000 310/10 RMK AO2
94908KDBQ DBQ20000629121010206/29/00 12:10:31  5-MIN KDBQ 291810Z 32012G17KT 10SM FEW049 21/11 A3003 980 50 2000 320/12G17 RMK AO2
94908KDBQ DBQ20000629121510206/29/00 12:15:31  5-MIN KDBQ 291815Z 31010G17KT 10SM FEW049 21/10 A3003 980 48 2000 310/10G17 RMK AO2
94908KDBQ DBQ20000629122009606/29/00 12:20:31  5-MIN KDBQ 291820Z 31011KT 10SM FEW049 21/11 A3003 980 50 2000 310/11 RMK AO2
94908KDBQ DBQ20000629122509306/29/00 12:25:31  5-MIN KDBQ 291825Z 32011KT 10SM CLR 21/11 A3003 980 52 2000 320/11 RMK AO2
94908KDBQ DBQ20000629123009306/29/00 12:30:31  5-MIN KDBQ 291830Z 31010KT 10SM CLR 21/11 A3003 980 50 2000 310/10 RMK AO2
94908KDBQ DBQ20000629123509306/29/00 12:35:31  5-MIN KDBQ 291835Z 31007KT 10SM CLR 21/11 A3003 980 50 2000 310/07 RMK AO2
94908KDBQ DBQ20000629124009306/29/00 12:40:31  5-MIN KDBQ 291840Z 34011KT 10SM CLR 22/11 A3003 980 49 2000 340/11 RMK AO2
94908KDBQ DBQ20000629124510206/29/00 12:45:31  5-MIN KDBQ 291845Z 31005G15KT 10SM FEW050 21/10 A3003 980 48 2000 310/05G15 RMK AO2
94908KDBQ DBQ20000629125011306/29/00 12:50:31  5-MIN KDBQ 291850Z 32008KT 10SM FEW050 22/11 A3002 980 50 2000 320/08 RMK AO2 SLP165 T02170111
94908KDBQ DBQ20000629125511306/29/00 12:55:31  5-MIN KDBQ 291855Z 34010KT 10SM FEW050 22/11 A3002 980 50 2000 340/10 RMK AO2 SLP165 T02170111
94908KDBQ DBQ20000629130009606/29/00 13:00:31  5-MIN KDBQ 291900Z 35009KT 10SM FEW050 22/11 A3002 980 49 2000 350/09 RMK AO2
94908KDBQ DBQ20000629130509606/29/00 13:05:31  5-MIN KDBQ 291905Z 33009KT 10SM FEW050 22/11 A3002 980 49 2000 330/09 RMK AO2
94908KDBQ DBQ20000629131009606/29/00 13:10:31  5-MIN KDBQ 291910Z VRB05KT 10SM FEW050 22/11 A3002 980 50 2000 VRB/05 RMK AO2
94908KDBQ DBQ20000629131510206/29/00 13:15:31  5-MIN KDBQ 291915Z 35009G14KT 10SM FEW050 22/11 A3002 980 49 2000 350/09G14 RMK AO2
94908KDBQ DBQ20000629132010206/29/00 13:20:31  5-MIN KDBQ 291920Z 32005G14KT 10SM FEW050 22/10 A3002 990 47 2000 320/05G14 RMK AO2
94908KDBQ DBQ20000629132509606/29/00 13:25:31  5-MIN KDBQ 291925Z 31011KT 10SM FEW050 22/11 A3002 990 49 2100 310/11 RMK AO2
94908KDBQ DBQ20000629133011206/29/00 13:30:31  5-MIN KDBQ 291930Z 33009KT 290V360 10SM FEW050 22/11 A3002 990 49 2000 330/09 290V360 RMK AO2
94908KDBQ DBQ20000629133511206/29/00 13:35:31  5-MIN KDBQ 291935Z 32010KT 290V350 10SM FEW050 22/11 A3002 990 47 2100 320/10 290V350 RMK AO2
94908KDBQ DBQ20000629134009606/29/00 13:40:31  5-MIN KDBQ 291940Z 35009KT 10SM FEW050 22/11 A3002 990 47 2100 350/09 RMK AO2
94908KDBQ DBQ20000629134509306/29/00 13:45:31  5-MIN KDBQ 291945Z 30010KT 10SM CLR 22/11 A3002 990 49 2100 300/10 RMK AO2
94908KDBQ DBQ20000629135011306/29/00 13:50:31  5-MIN KDBQ 291950Z 34011KT 10SM FEW050 22/11 A3001 990 49 2000 330/11 RMK AO2 SLP162 T02170106
94908KDBQ DBQ20000629135511306/29/00 13:55:31  5-MIN KDBQ 291955Z 34012KT 10SM FEW050 22/11 A3001 990 47 2100 340/12 RMK AO2 SLP162 T02220106
94908KDBQ DBQ20000629140009306/29/00 14:00:31  5-MIN KDBQ 292000Z 30009KT 10SM CLR 22/10 A3001 990 45 2100 300/09 RMK AO2
94908KDBQ DBQ20000629140511206/29/00 14:05:31  5-MIN KDBQ 292005Z 29007KT 270V340 10SM FEW050 22/11 A3002 990 47 2100 290/07 270V340 RMK AO2
94908KDBQ DBQ20000629141009606/29/00 14:10:31  5-MIN KDBQ 292010Z 32009KT 10SM FEW055 22/11 A3002 990 49 2000 320/09 RMK AO2
94908KDBQ DBQ20000629141509606/29/00 14:15:31  5-MIN KDBQ 292015Z 32010KT 10SM FEW055 22/11 A3001 990 49 2100 320/10 RMK AO2
94908KDBQ DBQ20000629142009306/29/00 14:20:31  5-MIN KDBQ 292020Z 33011KT 10SM CLR 22/10 A3001 990 45 2100 330/11 RMK AO2
94908KDBQ DBQ20000629142509306/29/00 14:25:31  5-MIN KDBQ 292025Z 33012KT 10SM CLR 22/11 A3001 990 47 2100 330/12 RMK AO2
94908KDBQ DBQ20000629143010906/29/00 14:30:31  5-MIN KDBQ 292030Z 35007KT 320V020 10SM CLR 22/11 A3001 990 47 2100 350/07 320V020 RMK AO2
94908KDBQ DBQ20000629143509606/29/00 14:35:31  5-MIN KDBQ 292035Z 30012KT 10SM FEW055 22/11 A3001 990 47 2100 300/12 RMK AO2
94908KDBQ DBQ20000629144009606/29/00 14:40:31  5-MIN KDBQ 292040Z 29008KT 10SM FEW055 22/11 A3001 990 47 2100 290/08 RMK AO2
94908KDBQ DBQ20000629144509706/29/00 14:45:31  5-MIN KDBQ 292045Z 35010KT 10SM FEW055 22/11 A3001 1000 47 2100 350/10 RMK AO2
94908KDBQ DBQ20000629145012006/29/00 14:50:31  5-MIN KDBQ 292050Z 31006KT 10SM FEW055 22/11 A3001 1000 47 2100 310/06 RMK AO2 SLP159 T02220106 50002
94908KDBQ DBQ20000629145512006/29/00 14:55:31  5-MIN KDBQ 292055Z 32009KT 10SM FEW055 22/11 A3001 1000 47 2100 320/09 RMK AO2 SLP159 T02220106 58006
94908KDBQ DBQ20000629150009706/29/00 15:00:31  5-MIN KDBQ 292100Z 34009KT 10SM FEW055 22/11 A3001 1000 47 2100 340/09 RMK AO2
94908KDBQ DBQ20000629150509706/29/00 15:05:31  5-MIN KDBQ 292105Z 32008KT 10SM FEW055 22/11 A3000 1000 47 2100 320/08 RMK AO2
94908KDBQ DBQ20000629151009706/29/00 15:10:31  5-MIN KDBQ 292110Z 33010KT 10SM FEW055 23/11 A3000 1000 47 2200 330/10 RMK AO2
94908KDBQ DBQ20000629151509706/29/00 15:15:31  5-MIN KDBQ 292115Z 29007KT 10SM FEW055 22/11 A3000 1000 47 2100 290/07 RMK AO2
94908KDBQ DBQ20000629152009706/29/00 15:20:31  5-MIN KDBQ 292120Z 34008KT 10SM FEW055 23/12 A3000 1010 49 2200 330/08 RMK AO2
94908KDBQ DBQ20000629152509706/29/00 15:25:31  5-MIN KDBQ 292125Z 33009KT 10SM FEW055 23/11 A3000 1010 45 2200 330/09 RMK AO2
94908KDBQ DBQ20000629153009706/29/00 15:30:31  5-MIN KDBQ 292130Z 33008KT 10SM FEW055 22/11 A3000 1010 49 2100 330/08 RMK AO2
94908KDBQ DBQ20000629153509406/29/00 15:35:31  5-MIN KDBQ 292135Z 34008KT 10SM CLR 23/11 A3000 1010 45 2200 340/08 RMK AO2
94908KDBQ DBQ20000629154011006/29/00 15:40:31  5-MIN KDBQ 292140Z 32007KT 290V350 10SM CLR 22/11 A3000 1010 47 2100 320/07 290V350 RMK AO2
94908KDBQ DBQ20000629154509406/29/00 15:45:31  5-MIN KDBQ 292145Z 33008KT 10SM CLR 22/11 A3000 1010 47 2100 330/08 RMK AO2
94908KDBQ DBQ20000629155011106/29/00 15:50:31  5-MIN KDBQ 292150Z 32009KT 10SM CLR 23/11 A3000 1010 47 2200 320/09 RMK AO2 SLP155 T02280111
94908KDBQ DBQ20000629155511106/29/00 15:55:31  5-MIN KDBQ 292155Z 32010KT 10SM CLR 22/11 A2999 1010 49 2100 320/10 RMK AO2 SLP154 T02220111
94908KDBQ DBQ20000629160009406/29/00 16:00:31  5-MIN KDBQ 292200Z 31008KT 10SM CLR 22/11 A2999 1010 49 2100 310/08 RMK AO2
94908KDBQ DBQ20000629160509406/29/00 16:05:31  5-MIN KDBQ 292205Z 28008KT 10SM CLR 22/11 A2999 1010 47 2100 280/08 RMK AO2
94908KDBQ DBQ20000629161009406/29/00 16:10:31  5-MIN KDBQ 292210Z 28006KT 10SM CLR 22/10 A2999 1010 45 2100 280/06 RMK AO2
94908KDBQ DBQ20000629161509406/29/00 16:15:31  5-MIN KDBQ 292215Z 30008KT 10SM CLR 22/11 A2999 1010 49 2100 300/08 RMK AO2
94908KDBQ DBQ20000629162009406/29/00 16:20:31  5-MIN KDBQ 292220Z 31007KT 10SM CLR 22/11 A2999 1010 49 2100 310/07 RMK AO2
94908KDBQ DBQ20000629162509406/29/00 16:25:31  5-MIN KDBQ 292225Z 30006KT 10SM CLR 22/11 A2999 1010 47 2100 300/06 RMK AO2
94908KDBQ DBQ20000629163009406/29/00 16:30:31  5-MIN KDBQ 292230Z 33009KT 10SM CLR 22/11 A2999 1010 49 2100 330/09 RMK AO2
94908KDBQ DBQ20000629163509406/29/00 16:35:31  5-MIN KDBQ 292235Z 33008KT 10SM CLR 22/11 A2999 1020 49 2100 330/08 RMK AO2
94908KDBQ DBQ20000629164009406/29/00 16:40:31  5-MIN KDBQ 292240Z 33007KT 10SM CLR 22/11 A2999 1010 47 2100 330/07 RMK AO2
94908KDBQ DBQ20000629164509406/29/00 16:45:31  5-MIN KDBQ 292245Z 30007KT 10SM CLR 22/11 A2999 1020 49 2100 290/07 RMK AO2
94908KDBQ DBQ20000629165011106/29/00 16:50:31  5-MIN KDBQ 292250Z 30006KT 10SM CLR 22/11 A2999 1010 49 2100 300/06 RMK AO2 SLP152 T02220111
94908KDBQ DBQ20000629165511106/29/00 16:55:31  5-MIN KDBQ 292255Z 28006KT 10SM CLR 22/11 A2999 1010 47 2100 280/06 RMK AO2 SLP152 T02220106
94908KDBQ DBQ20000629170009406/29/00 17:00:31  5-MIN KDBQ 292300Z 29006KT 10SM CLR 22/11 A2999 1020 47 2100 290/06 RMK AO2
94908KDBQ DBQ20000629170509406/29/00 17:05:31  5-MIN KDBQ 292305Z 29005KT 10SM CLR 22/11 A2999 1020 47 2100 290/05 RMK AO2
94908KDBQ DBQ20000629171009406/29/00 17:10:31  5-MIN KDBQ 292310Z 31006KT 10SM CLR 22/11 A2999 1010 47 2100 310/06 RMK AO2
94908KDBQ DBQ20000629171509406/29/00 17:15:31  5-MIN KDBQ 292315Z 31008KT 10SM CLR 22/11 A2999 1020 49 2100 310/08 RMK AO2
94908KDBQ DBQ20000629172009406/29/00 17:20:31  5-MIN KDBQ 292320Z 29006KT 10SM CLR 22/11 A2999 1020 50 2100 290/06 RMK AO2
94908KDBQ DBQ20000629172509406/29/00 17:25:31  5-MIN KDBQ 292325Z 30006KT 10SM CLR 22/11 A2999 1010 49 2100 300/06 RMK AO2
94908KDBQ DBQ20000629173009406/29/00 17:30:31  5-MIN KDBQ 292330Z 28005KT 10SM CLR 22/11 A2999 1020 50 2100 280/05 RMK AO2
94908KDBQ DBQ20000629173509406/29/00 17:35:31  5-MIN KDBQ 292335Z 27006KT 10SM CLR 22/11 A2999 1010 49 2100 270/06 RMK AO2
94908KDBQ DBQ20000629174009406/29/00 17:40:31  5-MIN KDBQ 292340Z 29005KT 10SM CLR 21/11 A2999 1010 50 2000 290/05 RMK AO2
94908KDBQ DBQ20000629174509406/29/00 17:45:31  5-MIN KDBQ 292345Z 29006KT 10SM CLR 22/12 A2999 1010 52 2100 290/06 RMK AO2
94908KDBQ DBQ20000629175012906/29/00 17:50:31  5-MIN KDBQ 292350Z 29006KT 10SM CLR 21/12 A2999 1010 54 2000 290/06 RMK AO2 SLP153 T02110117 10228 20206 58006
94908KDBQ DBQ20000629175512906/29/00 17:55:31  5-MIN KDBQ 292355Z 29007KT 10SM CLR 21/11 A2999 1010 50 2000 290/07 RMK AO2 SLP154 T02110106 10228 20206 55005
94908KDBQ DBQ20000629180009406/29/00 18:00:31  5-MIN KDBQ 300000Z 30005KT 10SM CLR 21/12 A2999 1010 54 2000 300/05 RMK AO2
94908KDBQ DBQ20000629180509406/29/00 18:05:31  5-MIN KDBQ 300005Z 30005KT 10SM CLR 21/12 A2999 1010 58 1900 300/05 RMK AO2
94908KDBQ DBQ20000629181009406/29/00 18:10:31  5-MIN KDBQ 300010Z 28005KT 10SM CLR 21/12 A3000 1010 58 1900 280/05 RMK AO2
94908KDBQ DBQ20000629181509406/29/00 18:15:31  5-MIN KDBQ 300015Z 28004KT 10SM CLR 21/13 A3000 1000 60 1900 280/04 RMK AO2
94908KDBQ DBQ20000629182009406/29/00 18:20:31  5-MIN KDBQ 300020Z 28004KT 10SM CLR 20/13 A3000 1010 65 1900 280/04 RMK AO2
94908KDBQ DBQ20000629182509406/29/00 18:25:31  5-MIN KDBQ 300025Z 28004KT 10SM CLR 20/13 A3000 1010 63 1900 280/04 RMK AO2
94908KDBQ DBQ20000629183009406/29/00 18:30:31  5-MIN KDBQ 300030Z 27005KT 10SM CLR 20/13 A3000 1000 65 1900 270/05 RMK AO2
94908KDBQ DBQ20000629183509406/29/00 18:35:31  5-MIN KDBQ 300035Z 27004KT 10SM CLR 19/13 A3000 1000 67 1800 270/04 RMK AO2
94908KDBQ DBQ20000629184009406/29/00 18:40:31  5-MIN KDBQ 300040Z 27004KT 10SM CLR 19/14 A3000 1010 70 1800 270/04 RMK AO2
94908KDBQ DBQ20000629184509406/29/00 18:45:31  5-MIN KDBQ 300045Z 00000KT 10SM CLR 20/14 A3000 1010 67 1900 000/00 RMK AO2
94908KDBQ DBQ20000629185012106/29/00 18:50:31  5-MIN KDBQ 300050Z AUTO 26003KT 10SM CLR 20/14 A3000 1010 67 1900 260/03 RMK AO2 SLP155 T02000139 TSNO
94908KDBQ DBQ20000629185512106/29/00 18:55:31  5-MIN KDBQ 300055Z AUTO 00000KT 10SM CLR 20/14 A3000 1010 67 1900 000/00 RMK AO2 SLP155 T02000139 TSNO
94908KDBQ DBQ20000629190010406/29/00 19:00:31  5-MIN KDBQ 300100Z AUTO 00000KT 10SM CLR 19/14 A3000 1010 72 1800 000/00 RMK AO2 TSNO
94908KDBQ DBQ20000629190510406/29/00 19:05:31  5-MIN KDBQ 300105Z AUTO 00000KT 10SM CLR 19/14 A3000 1010 72 1800 000/00 RMK AO2 TSNO
94908KDBQ DBQ20000629191010406/29/00 19:10:31  5-MIN KDBQ 300110Z AUTO 00000KT 10SM CLR 19/14 A3000 1010 70 1800 000/00 RMK AO2 TSNO
94908KDBQ DBQ20000629191510406/29/00 19:15:31  5-MIN KDBQ 300115Z AUTO 00000KT 10SM CLR 19/14 A3000 1010 72 1700 000/00 RMK AO2 TSNO
94908KDBQ DBQ20000629192010406/29/00 19:20:31  5-MIN KDBQ 300120Z AUTO 00000KT 10SM CLR 19/14 A3000 1010 72 1700 000/00 RMK AO2 TSNO
94908KDBQ DBQ20000629192510406/29/00 19:25:31  5-MIN KDBQ 300125Z AUTO 00000KT 10SM CLR 18/14 A3000 1010 75 1700 000/00 RMK AO2 TSNO
94908KDBQ DBQ20000629193010406/29/00 19:30:31  5-MIN KDBQ 300130Z AUTO 00000KT 10SM CLR 19/14 A3000 1010 72 1700 000/00 RMK AO2 TSNO
94908KDBQ DBQ20000629193510406/29/00 19:35:31  5-MIN KDBQ 300135Z AUTO 00000KT 10SM CLR 19/13 A3000 1010 70 1700 000/00 RMK AO2 TSNO
94908KDBQ DBQ20000629194010406/29/00 19:40:31  5-MIN KDBQ 300140Z AUTO 00000KT 10SM CLR 19/13 A3000 1010 70 1700 000/00 RMK AO2 TSNO
94908KDBQ DBQ20000629194510406/29/00 19:45:31  5-MIN KDBQ 300145Z AUTO 00000KT 10SM CLR 18/13 A3000 1010 72 1700 000/00 RMK AO2 TSNO
94908KDBQ DBQ20000629195012106/29/00 19:50:31  5-MIN KDBQ 300150Z AUTO 20003KT 10SM CLR 17/14 A3000 1010 80 1500 200/03 RMK AO2 SLP156 T01720139 TSNO
94908KDBQ DBQ20000629195512106/29/00 19:55:31  5-MIN KDBQ 300155Z AUTO 00000KT 10SM CLR 17/14 A3000 1010 80 1500 000/00 RMK AO2 SLP156 T01720139 TSNO
94908KDBQ DBQ20000629200010406/29/00 20:00:31  5-MIN KDBQ 300200Z AUTO 00000KT 10SM CLR 18/13 A2999 1010 75 1600 000/00 RMK AO2 TSNO
94908KDBQ DBQ20000629200510406/29/00 20:05:31  5-MIN KDBQ 300205Z AUTO 00000KT 10SM CLR 18/13 A2999 1010 72 1600 000/00 RMK AO2 TSNO
94908KDBQ DBQ20000629201010406/29/00 20:10:31  5-MIN KDBQ 300210Z AUTO 00000KT 10SM CLR 18/13 A2999 1010 72 1600 000/00 RMK AO2 TSNO
94908KDBQ DBQ20000629201510406/29/00 20:15:31  5-MIN KDBQ 300215Z AUTO 00000KT 10SM CLR 18/13 A2999 1010 70 1700 000/00 RMK AO2 TSNO
94908KDBQ DBQ20000629202010406/29/00 20:20:31  5-MIN KDBQ 300220Z AUTO 00000KT 10SM CLR 18/13 A2999 1020 75 1600 000/00 RMK AO2 TSNO
94908KDBQ DBQ20000629202510406/29/00 20:25:31  5-MIN KDBQ 300225Z AUTO 00000KT 10SM CLR 18/13 A2999 1020 72 1600 000/00 RMK AO2 TSNO
94908KDBQ DBQ20000629203010406/29/00 20:30:31  5-MIN KDBQ 300230Z AUTO 00000KT 10SM CLR 17/12 A2999 1020 72 1600 000/00 RMK AO2 TSNO
94908KDBQ DBQ20000629203510406/29/00 20:35:31  5-MIN KDBQ 300235Z AUTO 00000KT 10SM CLR 18/12 A2999 1020 69 1600 000/00 RMK AO2 TSNO
94908KDBQ DBQ20000629204010406/29/00 20:40:31  5-MIN KDBQ 300240Z AUTO 00000KT 10SM CLR 18/13 A2999 1010 72 1600 000/00 RMK AO2 TSNO
94908KDBQ DBQ20000629204510406/29/00 20:45:31  5-MIN KDBQ 300245Z AUTO 00000KT 10SM CLR 17/13 A2999 1020 75 1600 000/00 RMK AO2 TSNO
94908KDBQ DBQ20000629205012706/29/00 20:50:31  5-MIN KDBQ 300250Z AUTO 00000KT 10SM CLR 17/13 A2999 1020 80 1500 000/00 RMK AO2 SLP151 T01670133 55005 TSNO
94908KDBQ DBQ20000629205512706/29/00 20:55:31  5-MIN KDBQ 300255Z AUTO 16003KT 10SM CLR 17/13 A2999 1020 80 1500 160/03 RMK AO2 SLP152 T01670133 58002 TSNO
94908KDBQ DBQ20000629210010406/29/00 21:00:31  5-MIN KDBQ 300300Z AUTO 16003KT 10SM CLR 17/12 A2999 1010 72 1600 160/03 RMK AO2 TSNO
94908KDBQ DBQ20000629210510406/29/00 21:05:31  5-MIN KDBQ 300305Z AUTO 16003KT 10SM CLR 17/12 A2999 1010 69 1500 160/03 RMK AO2 TSNO
94908KDBQ DBQ20000629211010406/29/00 21:10:31  5-MIN KDBQ 300310Z AUTO 00000KT 10SM CLR 17/12 A2999 1010 72 1500 000/00 RMK AO2 TSNO
94908KDBQ DBQ20000629211510406/29/00 21:15:31  5-MIN KDBQ 300315Z AUTO 00000KT 10SM CLR 17/12 A3000 1010 72 1500 000/00 RMK AO2 TSNO
94908KDBQ DBQ20000629212010406/29/00 21:20:31  5-MIN KDBQ 300320Z AUTO 16003KT 10SM CLR 17/12 A2999 1010 75 1500 160/03 RMK AO2 TSNO
94908KDBQ DBQ20000629212510406/29/00 21:25:31  5-MIN KDBQ 300325Z AUTO 17003KT 10SM CLR 17/12 A3000 1010 75 1500 170/03 RMK AO2 TSNO
94908KDBQ DBQ20000629213010406/29/00 21:30:31  5-MIN KDBQ 300330Z AUTO 16003KT 10SM CLR 16/13 A3000 1010 80 1400 160/03 RMK AO2 TSNO
94908KDBQ DBQ20000629213510406/29/00 21:35:31  5-MIN KDBQ 300335Z AUTO 00000KT 10SM CLR 16/12 A3000 1010 77 1400 000/00 RMK AO2 TSNO
94908KDBQ DBQ20000629214010406/29/00 21:40:31  5-MIN KDBQ 300340Z AUTO 00000KT 10SM CLR 17/12 A3000 1010 75 1500 000/00 RMK AO2 TSNO
94908KDBQ DBQ20000629214510406/29/00 21:45:31  5-MIN KDBQ 300345Z AUTO 00000KT 10SM CLR 17/12 A3000 1000 75 1500 000/00 RMK AO2 TSNO
94908KDBQ DBQ20000629215012106/29/00 21:50:31  5-MIN KDBQ 300350Z AUTO 16004KT 10SM CLR 17/12 A3000 1000 72 1500 160/04 RMK AO2 SLP157 T01670117 TSNO
94908KDBQ DBQ20000629215512106/29/00 21:55:31  5-MIN KDBQ 300355Z AUTO 00000KT 10SM CLR 16/12 A3000 1000 77 1400 000/00 RMK AO2 SLP157 T01610122 TSNO
94908KDBQ DBQ20000629220010406/29/00 22:00:31  5-MIN KDBQ 300400Z AUTO 00000KT 10SM CLR 16/13 A3000 1000 80 1400 000/00 RMK AO2 TSNO
94908KDBQ DBQ20000629220510406/29/00 22:05:31  5-MIN KDBQ 300405Z AUTO 00000KT 10SM CLR 16/13 A3000 1000 86 1300 000/00 RMK AO2 TSNO
94908KDBQ DBQ20000629221010406/29/00 22:10:31  5-MIN KDBQ 300410Z AUTO 17003KT 10SM CLR 16/13 A3001 1000 83 1300 170/03 RMK AO2 TSNO
94908KDBQ DBQ20000629221510406/29/00 22:15:31  5-MIN KDBQ 300415Z AUTO 17004KT 10SM CLR 16/12 A3001 1000 80 1300 170/04 RMK AO2 TSNO
94908KDBQ DBQ20000629222010406/29/00 22:20:31  5-MIN KDBQ 300420Z AUTO 16004KT 10SM CLR 16/12 A3001 1000 80 1300 160/04 RMK AO2 TSNO
94908KDBQ DBQ20000629222510406/29/00 22:25:31  5-MIN KDBQ 300425Z AUTO 18003KT 10SM CLR 16/12 A3001 1000 77 1400 180/03 RMK AO2 TSNO
94908KDBQ DBQ20000629223010406/29/00 22:30:31  5-MIN KDBQ 300430Z AUTO 16003KT 10SM CLR 16/12 A3001 1000 75 1400 160/03 RMK AO2 TSNO
94908KDBQ DBQ20000629223510406/29/00 22:35:31  5-MIN KDBQ 300435Z AUTO 16003KT 10SM CLR 16/12 A3001 1000 77 1300 160/03 RMK AO2 TSNO
94908KDBQ DBQ20000629224010406/29/00 22:40:31  5-MIN KDBQ 300440Z AUTO 16003KT 10SM CLR 16/12 A3001 1000 75 1400 160/03 RMK AO2 TSNO
94908KDBQ DBQ20000629224510406/29/00 22:45:31  5-MIN KDBQ 300445Z AUTO 16003KT 10SM CLR 16/12 A3001 1000 77 1300 160/03 RMK AO2 TSNO
94908KDBQ DBQ20000629225012106/29/00 22:50:31  5-MIN KDBQ 300450Z AUTO 00000KT 10SM CLR 16/12 A3001 1000 77 1300 000/00 RMK AO2 SLP159 T01560117 TSNO
94908KDBQ DBQ20000629225512006/29/00 22:55:31  5-MIN KDBQ 300455Z AUTO 17003KT 10SM CLR 16/12 A3001 990 77 1300 170/03 RMK AO2 SLP160 T01560117 TSNO
94908KDBQ DBQ20000629230010306/29/00 23:00:31  5-MIN KDBQ 300500Z AUTO 19003KT 10SM CLR 16/12 A3001 990 80 1300 190/03 RMK AO2 TSNO
94908KDBQ DBQ20000629230510306/29/00 23:05:31  5-MIN KDBQ 300505Z AUTO 00000KT 10SM CLR 15/12 A3001 990 83 1300 000/00 RMK AO2 TSNO
94908KDBQ DBQ20000629231010406/29/00 23:10:31  5-MIN KDBQ 300510Z AUTO 00000KT 10SM CLR 15/12 A3001 1000 83 1300 000/00 RMK AO2 TSNO
94908KDBQ DBQ20000629231510406/29/00 23:15:31  5-MIN KDBQ 300515Z AUTO 16003KT 10SM CLR 16/12 A3001 1000 80 1300 160/03 RMK AO2 TSNO
94908KDBQ DBQ20000629232010406/29/00 23:20:31  5-MIN KDBQ 300520Z AUTO 00000KT 10SM CLR 16/12 A3001 1000 77 1300 000/00 RMK AO2 TSNO
94908KDBQ DBQ20000629232510406/29/00 23:25:31  5-MIN KDBQ 300525Z AUTO 17003KT 10SM CLR 16/12 A3001 1000 77 1300 170/03 RMK AO2 TSNO
94908KDBQ DBQ20000629233010406/29/00 23:30:31  5-MIN KDBQ 300530Z AUTO 18003KT 10SM CLR 16/12 A3001 1000 77 1300 180/03 RMK AO2 TSNO
94908KDBQ DBQ20000629233510406/29/00 23:35:31  5-MIN KDBQ 300535Z AUTO 17003KT 10SM CLR 16/12 A3001 1000 77 1300 170/03 RMK AO2 TSNO
94908KDBQ DBQ20000629234010406/29/00 23:40:31  5-MIN KDBQ 300540Z AUTO 18004KT 10SM CLR 16/12 A3001 1000 75 1400 180/04 RMK AO2 TSNO
94908KDBQ DBQ20000629234510406/29/00 23:45:31  5-MIN KDBQ 300545Z AUTO 17003KT 10SM CLR 16/12 A3001 1000 75 1400 170/03 RMK AO2 TSNO
94908KDBQ DBQ20000629235014906/29/00 23:50:31  5-MIN KDBQ 300550Z AUTO 18004KT 10SM CLR 16/12 A3001 1000 77 1300 180/04 RMK AO2 SLP159 T01560117 10211 20150 402280117 58002 TSNO
94908KDBQ DBQ20000629235514806/29/00 23:55:31  5-MIN KDBQ 300555Z AUTO 19003KT 10SM CLR 15/12 A3001 990 80 1300 180/03 RMK AO2 SLP160 T01500117 10211 20150 402280117 51008 TSNO
94908KDBQ DBQ20000630000010306/30/00 00:00:31  5-MIN KDBQ 300600Z AUTO 18004KT 10SM CLR 15/12 A3001 990 80 1300 180/04 RMK AO2 TSNO
94908KDBQ DBQ20000630000510406/30/00 00:05:31  5-MIN KDBQ 300605Z AUTO 18003KT 10SM CLR 15/12 A3001 1000 80 1300 180/03 RMK AO2 TSNO
94908KDBQ DBQ20000630001010406/30/00 00:10:31  5-MIN KDBQ 300610Z AUTO 17003KT 10SM CLR 15/12 A3001 1000 80 1300 170/03 RMK AO2 TSNO
94908KDBQ DBQ20000630001510306/30/00 00:15:31  5-MIN KDBQ 300615Z AUTO 17003KT 10SM CLR 15/12 A3001 990 80 1300 170/03 RMK AO2 TSNO
94908KDBQ DBQ20000630002010406/30/00 00:20:31  5-MIN KDBQ 300620Z AUTO 17004KT 10SM CLR 15/12 A3001 1000 80 1300 170/04 RMK AO2 TSNO
94908KDBQ DBQ20000630002510406/30/00 00:25:31  5-MIN KDBQ 300625Z AUTO 17003KT 10SM CLR 15/12 A3001 1000 80 1300 170/03 RMK AO2 TSNO
94908KDBQ DBQ20000630003010406/30/00 00:30:31  5-MIN KDBQ 300630Z AUTO 18003KT 10SM CLR 15/11 A3001 1000 77 1300 180/03 RMK AO2 TSNO
94908KDBQ DBQ20000630003510406/30/00 00:35:31  5-MIN KDBQ 300635Z AUTO 18004KT 10SM CLR 15/12 A3001 1000 80 1300 180/04 RMK AO2 TSNO
94908KDBQ DBQ20000630004010406/30/00 00:40:31  5-MIN KDBQ 300640Z AUTO 19004KT 10SM CLR 14/12 A3001 1000 83 1200 190/04 RMK AO2 TSNO
94908KDBQ DBQ20000630004510406/30/00 00:45:31  5-MIN KDBQ 300645Z AUTO 19005KT 10SM CLR 14/12 A3001 1000 86 1100 190/05 RMK AO2 TSNO
94908KDBQ DBQ20000630005012106/30/00 00:50:31  5-MIN KDBQ 300650Z AUTO 19004KT 10SM CLR 13/12 A3001 1000 89 1100 190/04 RMK AO2 SLP158 T01330117 TSNO
94908KDBQ DBQ20000630005512106/30/00 00:55:31  5-MIN KDBQ 300655Z AUTO 18004KT 10SM CLR 13/12 A3001 1000 89 1100 180/04 RMK AO2 SLP158 T01330117 TSNO
94908KDBQ DBQ20000630010010406/30/00 01:00:31  5-MIN KDBQ 300700Z AUTO 18003KT 10SM CLR 14/12 A3000 1000 86 1100 180/03 RMK AO2 TSNO
94908KDBQ DBQ20000630010510406/30/00 01:05:31  5-MIN KDBQ 300705Z AUTO 18003KT 10SM CLR 14/12 A3000 1000 86 1100 180/03 RMK AO2 TSNO
94908KDBQ DBQ20000630011010406/30/00 01:10:31  5-MIN KDBQ 300710Z AUTO 18004KT 10SM CLR 14/12 A3000 1000 83 1200 180/04 RMK AO2 TSNO
94908KDBQ DBQ20000630011510406/30/00 01:15:31  5-MIN KDBQ 300715Z AUTO 18003KT 10SM CLR 14/12 A3000 1000 83 1200 180/03 RMK AO2 TSNO
94908KDBQ DBQ20000630012010406/30/00 01:20:31  5-MIN KDBQ 300720Z AUTO 19003KT 10SM CLR 14/12 A3000 1000 83 1200 190/03 RMK AO2 TSNO
94908KDBQ DBQ20000630012510406/30/00 01:25:31  5-MIN KDBQ 300725Z AUTO 20003KT 10SM CLR 14/12 A3000 1000 86 1100 200/03 RMK AO2 TSNO
94908KDBQ DBQ20000630013010406/30/00 01:30:31  5-MIN KDBQ 300730Z AUTO 19004KT 10SM CLR 14/12 A3000 1000 86 1100 190/04 RMK AO2 TSNO
94908KDBQ DBQ20000630013510406/30/00 01:35:31  5-MIN KDBQ 300735Z AUTO 19003KT 10SM CLR 14/12 A3000 1000 86 1100 190/03 RMK AO2 TSNO
94908KDBQ DBQ20000630014010406/30/00 01:40:31  5-MIN KDBQ 300740Z AUTO 19003KT 10SM CLR 14/12 A3000 1000 86 1100 190/03 RMK AO2 TSNO
94908KDBQ DBQ20000630014510406/30/00 01:45:31  5-MIN KDBQ 300745Z AUTO 19003KT 10SM CLR 14/12 A3000 1000 83 1200 180/03 RMK AO2 TSNO
94908KDBQ DBQ20000630015012106/30/00 01:50:31  5-MIN KDBQ 300750Z AUTO 19004KT 10SM CLR 14/12 A3000 1000 86 1100 190/04 RMK AO2 SLP157 T01390117 TSNO
94908KDBQ DBQ20000630015512106/30/00 01:55:31  5-MIN KDBQ 300755Z AUTO 20004KT 10SM CLR 14/12 A3000 1000 86 1100 200/04 RMK AO2 SLP157 T01390117 TSNO
94908KDBQ DBQ20000630020010406/30/00 02:00:31  5-MIN KDBQ 300800Z AUTO 20004KT 10SM CLR 13/12 A3000 1000 89 1100 200/04 RMK AO2 TSNO
94908KDBQ DBQ20000630020510406/30/00 02:05:31  5-MIN KDBQ 300805Z AUTO 20003KT 10SM CLR 13/12 A3000 1000 89 1100 190/03 RMK AO2 TSNO
94908KDBQ DBQ20000630021010406/30/00 02:10:31  5-MIN KDBQ 300810Z AUTO 20003KT 10SM CLR 13/12 A3000 1000 89 1100 200/03 RMK AO2 TSNO
94908KDBQ DBQ20000630021510406/30/00 02:15:31  5-MIN KDBQ 300815Z AUTO 19004KT 10SM CLR 13/12 A3000 1000 89 1100 190/04 RMK AO2 TSNO
94908KDBQ DBQ20000630022010406/30/00 02:20:31  5-MIN KDBQ 300820Z AUTO 18004KT 10SM CLR 13/12 A3000 1000 89 1100 180/04 RMK AO2 TSNO
94908KDBQ DBQ20000630022510406/30/00 02:25:31  5-MIN KDBQ 300825Z AUTO 18003KT 10SM CLR 13/12 A3000 1000 89 1100 180/03 RMK AO2 TSNO
94908KDBQ DBQ20000630023010406/30/00 02:30:31  5-MIN KDBQ 300830Z AUTO 18004KT 10SM CLR 14/12 A3000 1000 86 1100 180/04 RMK AO2 TSNO
94908KDBQ DBQ20000630023510406/30/00 02:35:31  5-MIN KDBQ 300835Z AUTO 19005KT 10SM CLR 14/12 A3000 1000 86 1100 180/05 RMK AO2 TSNO
94908KDBQ DBQ20000630024010406/30/00 02:40:31  5-MIN KDBQ 300840Z AUTO 19005KT 10SM CLR 14/12 A3000 1000 86 1100 180/05 RMK AO2 TSNO
94908KDBQ DBQ20000630024510406/30/00 02:45:31  5-MIN KDBQ 300845Z AUTO 18005KT 10SM CLR 14/12 A3000 1000 86 1100 180/05 RMK AO2 TSNO
94908KDBQ DBQ20000630025012706/30/00 02:50:31  5-MIN KDBQ 300850Z AUTO 19005KT 10SM CLR 14/12 A3000 1000 86 1100 190/05 RMK AO2 SLP157 T01390117 51008 TSNO
94908KDBQ DBQ20000630025512706/30/00 02:55:31  5-MIN KDBQ 300855Z AUTO 19006KT 10SM CLR 13/12 A3000 1000 89 1100 190/06 RMK AO2 SLP157 T01330117 55003 TSNO
94908KDBQ DBQ20000630030010406/30/00 03:00:31  5-MIN KDBQ 300900Z AUTO 19006KT 10SM CLR 14/12 A3000 1000 86 1100 190/06 RMK AO2 TSNO
94908KDBQ DBQ20000630030510406/30/00 03:05:31  5-MIN KDBQ 300905Z AUTO 19005KT 10SM CLR 13/12 A3001 1000 89 1100 190/05 RMK AO2 TSNO
94908KDBQ DBQ20000630031010406/30/00 03:10:31  5-MIN KDBQ 300910Z AUTO 18005KT 10SM CLR 13/12 A3001 1000 89 1100 180/05 RMK AO2 TSNO
94908KDBQ DBQ20000630031510406/30/00 03:15:31  5-MIN KDBQ 300915Z AUTO 18005KT 10SM CLR 14/12 A3001 1000 86 1100 180/05 RMK AO2 TSNO
94908KDBQ DBQ20000630032010406/30/00 03:20:31  5-MIN KDBQ 300920Z AUTO 18004KT 10SM CLR 14/12 A3001 1000 86 1100 180/04 RMK AO2 TSNO
94908KDBQ DBQ20000630032510406/30/00 03:25:31  5-MIN KDBQ 300925Z AUTO 17004KT 10SM CLR 14/12 A3001 1000 86 1100 170/04 RMK AO2 TSNO
94908KDBQ DBQ20000630033010406/30/00 03:30:31  5-MIN KDBQ 300930Z AUTO 17004KT 10SM CLR 14/12 A3001 1000 86 1100 170/04 RMK AO2 TSNO
94908KDBQ DBQ20000630033510406/30/00 03:35:31  5-MIN KDBQ 300935Z AUTO 17004KT 10SM CLR 14/12 A3001 1000 83 1200 170/04 RMK AO2 TSNO
94908KDBQ DBQ20000630034010406/30/00 03:40:31  5-MIN KDBQ 300940Z AUTO 18004KT 10SM CLR 14/12 A3001 1000 86 1100 180/04 RMK AO2 TSNO
94908KDBQ DBQ20000630034510406/30/00 03:45:31  5-MIN KDBQ 300945Z AUTO 19004KT 10SM CLR 14/12 A3001 1000 86 1100 190/04 RMK AO2 TSNO
94908KDBQ DBQ20000630035012106/30/00 03:50:31  5-MIN KDBQ 300950Z AUTO 18004KT 10SM CLR 14/12 A3001 1000 86 1100 180/04 RMK AO2 SLP158 T01390117 TSNO
94908KDBQ DBQ20000630035512106/30/00 03:55:31  5-MIN KDBQ 300955Z AUTO 17004KT 10SM CLR 14/12 A3001 1000 83 1200 170/04 RMK AO2 SLP158 T01440117 TSNO
94908KDBQ DBQ20000630040010406/30/00 04:00:31  5-MIN KDBQ 301000Z AUTO 18004KT 10SM CLR 14/12 A3001 1000 83 1200 170/04 RMK AO2 TSNO
94908KDBQ DBQ20000630040510406/30/00 04:05:31  5-MIN KDBQ 301005Z AUTO 18004KT 10SM CLR 14/12 A3001 1000 83 1200 180/04 RMK AO2 TSNO
94908KDBQ DBQ20000630041010406/30/00 04:10:31  5-MIN KDBQ 301010Z AUTO 20005KT 10SM CLR 14/12 A3001 1000 83 1200 200/05 RMK AO2 TSNO
94908KDBQ DBQ20000630041510406/30/00 04:15:31  5-MIN KDBQ 301015Z AUTO 20004KT 10SM CLR 14/12 A3001 1000 86 1100 200/04 RMK AO2 TSNO
94908KDBQ DBQ20000630042010306/30/00 04:20:31  5-MIN KDBQ 301020Z AUTO 20004KT 10SM CLR 14/12 A3001 990 86 1100 200/04 RMK AO2 TSNO
94908KDBQ DBQ20000630042510306/30/00 04:25:31  5-MIN KDBQ 301025Z AUTO 19004KT 10SM CLR 13/12 A3001 990 89 1100 190/04 RMK AO2 TSNO
94908KDBQ DBQ20000630043010306/30/00 04:30:31  5-MIN KDBQ 301030Z AUTO 19005KT 10SM CLR 13/12 A3001 990 89 1100 190/05 RMK AO2 TSNO
94908KDBQ DBQ20000630043510306/30/00 04:35:31  5-MIN KDBQ 301035Z AUTO 20005KT 10SM CLR 13/12 A3002 990 89 1100 200/05 RMK AO2 TSNO
94908KDBQ DBQ20000630044010306/30/00 04:40:31  5-MIN KDBQ 301040Z AUTO 19005KT 10SM CLR 13/12 A3001 990 89 1100 190/05 RMK AO2 TSNO
94908KDBQ DBQ20000630044510306/30/00 04:45:31  5-MIN KDBQ 301045Z AUTO 18004KT 10SM CLR 14/12 A3001 990 86 1100 180/04 RMK AO2 TSNO
94908KDBQ DBQ20000630045012006/30/00 04:50:31  5-MIN KDBQ 301050Z AUTO 19005KT 10SM CLR 14/12 A3002 990 86 1100 190/05 RMK AO2 SLP162 T01390117 TSNO
94908KDBQ DBQ20000630045511006/30/00 04:55:31  5-MIN KDBQ 301055Z 20005KT 10SM CLR 14/12 A3002 990 90 1100 200/05 RMK AO2 SLP162 T01390122
94908KDBQ DBQ20000630050009306/30/00 05:00:31  5-MIN KDBQ 301100Z 19005KT 10SM CLR 14/12 A3002 990 90 1100 190/05 RMK AO2
94908KDBQ DBQ20000630050509306/30/00 05:05:31  5-MIN KDBQ 301105Z 19005KT 10SM CLR 14/12 A3002 990 90 1100 190/05 RMK AO2
94908KDBQ DBQ20000630051009606/30/00 05:10:31  5-MIN KDBQ 301110Z 19005KT 10SM FEW100 14/12 A3002 990 90 1100 190/05 RMK AO2
94908KDBQ DBQ20000630051509606/30/00 05:15:31  5-MIN KDBQ 301115Z 19005KT 10SM SCT110 14/12 A3002 980 86 1200 190/05 RMK AO2
94908KDBQ DBQ20000630052009606/30/00 05:20:31  5-MIN KDBQ 301120Z 18005KT 10SM SCT110 14/12 A3002 980 86 1200 180/05 RMK AO2
94908KDBQ DBQ20000630052509606/30/00 05:25:31  5-MIN KDBQ 301125Z 18005KT 10SM SCT100 14/13 A3002 980 90 1200 180/05 RMK AO2
94908KDBQ DBQ20000630053009606/30/00 05:30:31  5-MIN KDBQ 301130Z 19005KT 10SM SCT100 14/13 A3002 980 90 1200 190/05 RMK AO2
94908KDBQ DBQ20000630053509606/30/00 05:35:31  5-MIN KDBQ 301135Z 19005KT 10SM SCT110 15/13 A3002 980 86 1300 190/05 RMK AO2
94908KDBQ DBQ20000630054009606/30/00 05:40:31  5-MIN KDBQ 301140Z 19005KT 10SM FEW110 15/13 A3002 980 86 1300 190/05 RMK AO2
94908KDBQ DBQ20000630054509606/30/00 05:45:31  5-MIN KDBQ 301145Z 19005KT 10SM FEW100 16/13 A3002 980 86 1300 190/05 RMK AO2
94908KDBQ DBQ20000630055013106/30/00 05:50:31  5-MIN KDBQ 301150Z 20005KT 10SM FEW100 16/13 A3002 980 86 1300 200/05 RMK AO2 SLP164 T01560133 10156 20133 55003
94908KDBQ DBQ20000630055512806/30/00 05:55:31  5-MIN KDBQ 301155Z 19006KT 10SM CLR 16/14 A3003 980 90 1300 190/06 RMK AO2 SLP165 T01560139 10156 20133 53007
94908KDBQ DBQ20000630060009306/30/00 06:00:31  5-MIN KDBQ 301200Z 19006KT 10SM CLR 16/13 A3003 980 86 1300 190/06 RMK AO2
94908KDBQ DBQ20000630060509306/30/00 06:05:31  5-MIN KDBQ 301205Z 19006KT 10SM CLR 16/13 A3003 980 86 1300 190/06 RMK AO2
94908KDBQ DBQ20000630061009606/30/00 06:10:31  5-MIN KDBQ 301210Z 19005KT 10SM FEW095 16/13 A3003 980 83 1400 190/05 RMK AO2
94908KDBQ DBQ20000630061509606/30/00 06:15:31  5-MIN KDBQ 301215Z 19006KT 10SM SCT095 16/14 A3003 980 86 1400 190/06 RMK AO2
94908KDBQ DBQ20000630062009606/30/00 06:20:31  5-MIN KDBQ 301220Z 19006KT 10SM BKN095 16/14 A3003 980 86 1400 190/06 RMK AO2
94908KDBQ DBQ20000630062509606/30/00 06:25:31  5-MIN KDBQ 301225Z 19006KT 10SM BKN095 17/14 A3003 980 83 1400 180/06 RMK AO2
94908KDBQ DBQ20000630063009606/30/00 06:30:31  5-MIN KDBQ 301230Z 20007KT 10SM BKN095 17/14 A3003 980 83 1400 190/07 RMK AO2
94908KDBQ DBQ20000630063509606/30/00 06:35:31  5-MIN KDBQ 301235Z 19007KT 10SM BKN095 17/14 A3003 980 80 1500 190/07 RMK AO2
94908KDBQ DBQ20000630064009606/30/00 06:40:31  5-MIN KDBQ 301240Z 19007KT 10SM OVC095 17/14 A3003 980 80 1500 190/07 RMK AO2
94908KDBQ DBQ20000630064509606/30/00 06:45:31  5-MIN KDBQ 301245Z 19006KT 10SM OVC095 17/14 A3003 980 83 1500 190/06 RMK AO2
94908KDBQ DBQ20000630065011306/30/00 06:50:31  5-MIN KDBQ 301250Z 19006KT 10SM BKN095 18/14 A3003 980 81 1600 190/06 RMK AO2 SLP167 T01780144
94908KDBQ DBQ20000630065511306/30/00 06:55:31  5-MIN KDBQ 301255Z 19006KT 10SM BKN100 18/14 A3003 970 81 1600 190/06 RMK AO2 SLP167 T01780144
94908KDBQ DBQ20000630070009606/30/00 07:00:31  5-MIN KDBQ 301300Z 19007KT 10SM BKN100 17/14 A3003 980 83 1500 190/07 RMK AO2
94908KDBQ DBQ20000630070509606/30/00 07:05:31  5-MIN KDBQ 301305Z 19007KT 10SM SCT095 18/14 A3003 980 81 1600 190/07 RMK AO2
94908KDBQ DBQ20000630071009606/30/00 07:10:31  5-MIN KDBQ 301310Z 19008KT 10SM SCT100 18/14 A3003 970 75 1600 190/08 RMK AO2
94908KDBQ DBQ20000630071509606/30/00 07:15:31  5-MIN KDBQ 301315Z 20007KT 10SM BKN095 18/14 A3003 970 78 1600 200/07 RMK AO2
94908KDBQ DBQ20000630072009606/30/00 07:20:31  5-MIN KDBQ 301320Z 20007KT 10SM BKN095 18/14 A3003 970 78 1600 200/07 RMK AO2
94908KDBQ DBQ20000630072509606/30/00 07:25:31  5-MIN KDBQ 301325Z 19008KT 10SM BKN090 18/14 A3003 980 81 1600 190/08 RMK AO2
94908KDBQ DBQ20000630073009606/30/00 07:30:31  5-MIN KDBQ 301330Z 19008KT 10SM SCT095 18/14 A3003 970 75 1600 190/08 RMK AO2
94908KDBQ DBQ20000630073509606/30/00 07:35:31  5-MIN KDBQ 301335Z 19007KT 10SM BKN100 18/14 A3004 970 75 1600 190/07 RMK AO2
94908KDBQ DBQ20000630074009606/30/00 07:40:31  5-MIN KDBQ 301340Z 20007KT 10SM BKN100 18/14 A3004 970 75 1600 200/07 RMK AO2
94908KDBQ DBQ20000630074509606/30/00 07:45:31  5-MIN KDBQ 301345Z 19008KT 10SM SCT100 18/14 A3004 970 75 1600 190/08 RMK AO2
94908KDBQ DBQ20000630075011306/30/00 07:50:31  5-MIN KDBQ 301350Z 19007KT 10SM FEW100 18/14 A3004 970 78 1600 190/07 RMK AO2 SLP168 T01830144
94908KDBQ DBQ20000630075511306/30/00 07:55:31  5-MIN KDBQ 301355Z 19007KT 10SM FEW110 19/14 A3004 970 75 1700 190/07 RMK AO2 SLP168 T01890144
94908KDBQ DBQ20000630080009606/30/00 08:00:31  5-MIN KDBQ 301400Z 19009KT 10SM FEW100 19/14 A3004 970 72 1800 190/09 RMK AO2
94908KDBQ DBQ20000630080509606/30/00 08:05:31  5-MIN KDBQ 301405Z 19009KT 10SM FEW100 19/14 A3004 970 72 1800 190/09 RMK AO2
94908KDBQ DBQ20000630081009606/30/00 08:10:31  5-MIN KDBQ 301410Z 21008KT 10SM FEW090 19/14 A3004 970 72 1800 200/08 RMK AO2
94908KDBQ DBQ20000630081509606/30/00 08:15:31  5-MIN KDBQ 301415Z 20009KT 10SM FEW090 19/15 A3004 970 75 1800 200/09 RMK AO2
94908KDBQ DBQ20000630082009606/30/00 08:20:31  5-MIN KDBQ 301420Z 20009KT 10SM FEW090 19/14 A3004 970 72 1800 200/09 RMK AO2
94908KDBQ DBQ20000630082509606/30/00 08:25:31  5-MIN KDBQ 301425Z 20008KT 10SM SCT090 19/14 A3004 970 72 1800 200/08 RMK AO2
94908KDBQ DBQ20000630083009606/30/00 08:30:31  5-MIN KDBQ 301430Z 20008KT 10SM BKN090 19/14 A3004 970 72 1800 200/08 RMK AO2
94908KDBQ DBQ20000630083509606/30/00 08:35:31  5-MIN KDBQ 301435Z 19007KT 10SM BKN090 19/15 A3004 970 78 1700 190/07 RMK AO2
94908KDBQ DBQ20000630084009606/30/00 08:40:31  5-MIN KDBQ 301440Z 19008KT 10SM SCT090 19/15 A3004 970 78 1700 190/08 RMK AO2
94908KDBQ DBQ20000630084509606/30/00 08:45:31  5-MIN KDBQ 301445Z 21008KT 10SM SCT090 20/16 A3004 970 75 1800 210/08 RMK AO2
94908KDBQ DBQ20000630085011906/30/00 08:50:31  5-MIN KDBQ 301450Z 22009KT 10SM FEW090 21/16 A3003 980 70 2000 220/09 RMK AO2 SLP167 T02110156 53007
94908KDBQ DBQ20000630085512606/30/00 08:55:31  5-MIN KDBQ 301455Z 23011KT 10SM FEW070 SCT090 21/14 A3003 970 65 1900 230/11 RMK AO2 SLP168 T02110144 50003
94908KDBQ DBQ20000630090010306/30/00 09:00:31  5-MIN KDBQ 301500Z 22013KT 10SM SCT070 SCT095 21/14 A3003 970 65 1900 220/13 RMK AO2
94908KDBQ DBQ20000630090509606/30/00 09:05:31  5-MIN KDBQ 301505Z 22011KT 10SM SCT070 21/14 A3003 970 63 1900 220/11 RMK AO2
94908KDBQ DBQ20000630091009606/30/00 09:10:31  5-MIN KDBQ 301510Z 21011KT 10SM SCT070 21/14 A3004 970 65 1900 210/11 RMK AO2
94908KDBQ DBQ20000630091509606/30/00 09:15:31  5-MIN KDBQ 301515Z 22011KT 10SM FEW070 22/14 A3003 970 63 2000 220/11 RMK AO2
94908KDBQ DBQ20000630092009606/30/00 09:20:31  5-MIN KDBQ 301520Z 22011KT 10SM SCT070 22/15 A3003 970 63 2100 220/11 RMK AO2
94908KDBQ DBQ20000630092510206/30/00 09:25:31  5-MIN KDBQ 301525Z 21013G17KT 10SM BKN070 22/14 A3003 970 59 2100 210/13G17 RMK AO2
94908KDBQ DBQ20000630093009606/30/00 09:30:31  5-MIN KDBQ 301530Z 22014KT 10SM BKN070 22/13 A3003 970 54 2100 220/14 RMK AO2
94908KDBQ DBQ20000630093509606/30/00 09:35:31  5-MIN KDBQ 301535Z 22013KT 10SM BKN070 22/14 A3004 970 59 2100 220/13 RMK AO2
94908KDBQ DBQ20000630094009606/30/00 09:40:31  5-MIN KDBQ 301540Z 21011KT 10SM BKN070 22/14 A3004 970 59 2100 210/11 RMK AO2
94908KDBQ DBQ20000630094509606/30/00 09:45:31  5-MIN KDBQ 301545Z 22010KT 10SM BKN070 22/14 A3004 970 61 2000 220/10 RMK AO2
94908KDBQ DBQ20000630095011306/30/00 09:50:31  5-MIN KDBQ 301550Z 23009KT 10SM BKN070 22/14 A3004 970 61 2000 220/09 RMK AO2 SLP168 T02170139
94908KDBQ DBQ20000630095511306/30/00 09:55:31  5-MIN KDBQ 301555Z 22010KT 10SM BKN070 22/14 A3004 970 61 2000 220/10 RMK AO2 SLP168 T02170139
94908KDBQ DBQ20000630100009606/30/00 10:00:31  5-MIN KDBQ 301600Z 22010KT 10SM SCT070 22/14 A3003 970 59 2100 220/10 RMK AO2
94908KDBQ DBQ20000630100509606/30/00 10:05:31  5-MIN KDBQ 301605Z 23010KT 10SM FEW070 23/14 A3003 980 57 2100 230/10 RMK AO2
94908KDBQ DBQ20000630101009606/30/00 10:10:31  5-MIN KDBQ 301610Z 23011KT 10SM FEW070 22/14 A3003 980 61 2100 230/11 RMK AO2
94908KDBQ DBQ20000630101509306/30/00 10:15:31  5-MIN KDBQ 301615Z 21009KT 10SM CLR 22/14 A3003 980 61 2000 210/09 RMK AO2
94908KDBQ DBQ20000630102009306/30/00 10:20:31  5-MIN KDBQ 301620Z 21010KT 10SM CLR 21/14 A3003 980 65 2000 210/10 RMK AO2
94908KDBQ DBQ20000630102510906/30/00 10:25:31  5-MIN KDBQ 301625Z 20008KT 10SM -RA CLR 21/15 A3003 980 70 1900 200/08 RMK AO2 RAB23 P0000
94908KDBQ DBQ20000630103011206/30/00 10:30:31  5-MIN KDBQ 301630Z 20007KT 10SM -RA FEW095 20/15 A3003 980 72 1800 200/07 RMK AO2 RAB23 P0000
94908KDBQ DBQ20000630103511106/30/00 10:35:31  5-MIN KDBQ 301635Z 19008KT 10SM SCT095 20/15 A3003 980 72 1800 190/08 RMK AO2 RAB23E33 P0000
94908KDBQ DBQ20000630104011106/30/00 10:40:31  5-MIN KDBQ 301640Z 19008KT 10SM SCT095 20/15 A3003 980 72 1800 190/08 RMK AO2 RAB23E33 P0000
94908KDBQ DBQ20000630104511106/30/00 10:45:31  5-MIN KDBQ 301645Z 19008KT 10SM SCT090 20/15 A3003 980 72 1800 190/08 RMK AO2 RAB23E33 P0000
94908KDBQ DBQ20000630105012806/30/00 10:50:31  5-MIN KDBQ 301650Z 18008KT 10SM BKN095 20/15 A3003 980 72 1800 180/08 RMK AO2 RAB23E33 SLP167 P0000 T02000150
94908KDBQ DBQ20000630105512806/30/00 10:55:31  5-MIN KDBQ 301655Z 19008KT 10SM BKN095 21/15 A3003 980 70 1900 190/08 RMK AO2 RAB23E33 SLP167 P0000 T02060150
94908KDBQ DBQ20000630110009606/30/00 11:00:31  5-MIN KDBQ 301700Z 19008KT 10SM BKN095 21/15 A3003 980 70 1900 190/08 RMK AO2
94908KDBQ DBQ20000630110509606/30/00 11:05:31  5-MIN KDBQ 301705Z 19009KT 10SM BKN095 21/15 A3003 980 70 1900 190/09 RMK AO2
94908KDBQ DBQ20000630111009606/30/00 11:10:31  5-MIN KDBQ 301710Z 20009KT 10SM SCT095 21/14 A3003 980 67 1900 200/09 RMK AO2
94908KDBQ DBQ20000630111509606/30/00 11:15:31  5-MIN KDBQ 301715Z 20009KT 10SM SCT100 21/14 A3003 980 67 1900 200/09 RMK AO2
94908KDBQ DBQ20000630112009606/30/00 11:20:31  5-MIN KDBQ 301720Z 20006KT 10SM SCT100 21/15 A3003 980 70 1900 200/06 RMK AO2
94908KDBQ DBQ20000630112509606/30/00 11:25:31  5-MIN KDBQ 301725Z 18010KT 10SM SCT110 21/15 A3003 980 70 1900 180/10 RMK AO2
94908KDBQ DBQ20000630113009606/30/00 11:30:31  5-MIN KDBQ 301730Z 19006KT 10SM SCT110 21/16 A3003 980 73 1900 190/06 RMK AO2
94908KDBQ DBQ20000630113509606/30/00 11:35:31  5-MIN KDBQ 301735Z 18009KT 10SM BKN100 21/16 A3003 980 75 1900 180/09 RMK AO2
94908KDBQ DBQ20000630114009606/30/00 11:40:31  5-MIN KDBQ 301740Z 19007KT 10SM BKN100 21/15 A3003 980 70 1900 190/07 RMK AO2
94908KDBQ DBQ20000630114509606/30/00 11:45:31  5-MIN KDBQ 301745Z 18008KT 10SM BKN100 21/14 A3003 980 65 2000 180/08 RMK AO2
94908KDBQ DBQ20000630115013706/30/00 11:50:31  5-MIN KDBQ 301750Z 18008KT 10SM BKN100 21/15 A3003 980 68 2000 180/08 RMK AO2 SLP166 60000 T02110150 10228 20156 50003
94908KDBQ DBQ20000630115513706/30/00 11:55:31  5-MIN KDBQ 301755Z 17008KT 10SM SCT100 21/15 A3003 980 68 2000 170/08 RMK AO2 SLP167 60000 T02110150 10228 20156 58001
94908KDBQ DBQ20000630120009606/30/00 12:00:31  5-MIN KDBQ 301800Z 17009KT 10SM SCT100 21/14 A3003 980 65 2000 170/09 RMK AO2
94908KDBQ DBQ20000630120509606/30/00 12:05:31  5-MIN KDBQ 301805Z 17009KT 10SM FEW100 21/14 A3003 980 63 2000 170/09 RMK AO2
94908KDBQ DBQ20000630121009606/30/00 12:10:31  5-MIN KDBQ 301810Z 17008KT 10SM FEW110 22/14 A3003 980 63 2000 160/08 RMK AO2
94908KDBQ DBQ20000630121509306/30/00 12:15:31  5-MIN KDBQ 301815Z 17008KT 10SM CLR 23/16 A3003 980 63 2100 170/08 RMK AO2
94908KDBQ DBQ20000630122009306/30/00 12:20:31  5-MIN KDBQ 301820Z 16009KT 10SM CLR 23/15 A3002 980 61 2100 160/09 RMK AO2
94908KDBQ DBQ20000630122509306/30/00 12:25:31  5-MIN KDBQ 301825Z 16010KT 10SM CLR 23/15 A3002 980 61 2200 160/10 RMK AO2
94908KDBQ DBQ20000630123009306/30/00 12:30:31  5-MIN KDBQ 301830Z 17011KT 10SM CLR 23/15 A3002 990 61 2200 160/11 RMK AO2
94908KDBQ DBQ20000630123509306/30/00 12:35:31  5-MIN KDBQ 301835Z 17012KT 10SM CLR 23/14 A3002 990 59 2200 170/12 RMK AO2
94908KDBQ DBQ20000630124009306/30/00 12:40:31  5-MIN KDBQ 301840Z 17008KT 10SM CLR 23/15 A3002 990 59 2200 170/08 RMK AO2
94908KDBQ DBQ20000630124509306/30/00 12:45:31  5-MIN KDBQ 301845Z 18011KT 10SM CLR 23/15 A3001 990 59 2200 180/11 RMK AO2
94908KDBQ DBQ20000630125011006/30/00 12:50:31  5-MIN KDBQ 301850Z 17011KT 10SM CLR 23/15 A3001 990 59 2200 170/11 RMK AO2 SLP161 T02330150
94908KDBQ DBQ20000630125511006/30/00 12:55:31  5-MIN KDBQ 301855Z 16011KT 10SM CLR 23/14 A3002 990 57 2200 150/11 RMK AO2 SLP161 T02330144
94908KDBQ DBQ20000630130009306/30/00 13:00:31  5-MIN KDBQ 301900Z 17010KT 10SM CLR 23/14 A3001 990 57 2200 170/10 RMK AO2
94908KDBQ DBQ20000630130509306/30/00 13:05:31  5-MIN KDBQ 301905Z 16010KT 10SM CLR 24/14 A3001 990 55 2300 160/10 RMK AO2
94908KDBQ DBQ20000630131009306/30/00 13:10:31  5-MIN KDBQ 301910Z 18010KT 10SM CLR 24/14 A3001 990 53 2300 180/10 RMK AO2
94908KDBQ DBQ20000630131509306/30/00 13:15:31  5-MIN KDBQ 301915Z 17011KT 10SM CLR 24/13 A3001 990 51 2300 170/11 RMK AO2
94908KDBQ DBQ20000630132009406/30/00 13:20:31  5-MIN KDBQ 301920Z 17011KT 10SM CLR 24/14 A3001 1000 53 2300 160/11 RMK AO2
94908KDBQ DBQ20000630132509406/30/00 13:25:31  5-MIN KDBQ 301925Z 18012KT 10SM CLR 24/14 A3001 1000 53 2400 180/12 RMK AO2
94908KDBQ DBQ20000630133009406/30/00 13:30:31  5-MIN KDBQ 301930Z 17010KT 10SM CLR 24/14 A3001 1000 53 2300 170/10 RMK AO2
94908KDBQ DBQ20000630133509406/30/00 13:35:31  5-MIN KDBQ 301935Z 17011KT 10SM CLR 24/14 A3000 1000 53 2300 170/11 RMK AO2
94908KDBQ DBQ20000630134009406/30/00 13:40:31  5-MIN KDBQ 301940Z 17008KT 10SM CLR 24/14 A3000 1000 55 2300 170/08 RMK AO2
94908KDBQ DBQ20000630134509406/30/00 13:45:31  5-MIN KDBQ 301945Z 17009KT 10SM CLR 24/15 A3000 1000 55 2400 160/09 RMK AO2
94908KDBQ DBQ20000630135011106/30/00 13:50:31  5-MIN KDBQ 301950Z 17008KT 10SM CLR 24/15 A3000 1000 55 2400 170/08 RMK AO2 SLP156 T02440150
94908KDBQ DBQ20000630135511106/30/00 13:55:31  5-MIN KDBQ 301955Z 19007KT 10SM CLR 24/14 A3000 1000 53 2400 190/07 RMK AO2 SLP156 T02440144
94908KDBQ DBQ20000630140009406/30/00 14:00:31  5-MIN KDBQ 302000Z 18009KT 10SM CLR 24/15 A3000 1000 55 2400 180/09 RMK AO2
94908KDBQ DBQ20000630140509406/30/00 14:05:31  5-MIN KDBQ 302005Z 18009KT 10SM CLR 24/15 A3000 1000 55 2400 180/09 RMK AO2
94908KDBQ DBQ20000630141009406/30/00 14:10:31  5-MIN KDBQ 302010Z 19008KT 10SM CLR 24/15 A3001 1000 57 2300 190/08 RMK AO2
94908KDBQ DBQ20000630141509706/30/00 14:15:31  5-MIN KDBQ 302015Z 19009KT 10SM FEW075 24/14 A3000 1000 55 2300 190/09 RMK AO2
94908KDBQ DBQ20000630142009706/30/00 14:20:31  5-MIN KDBQ 302020Z 18008KT 10SM BKN075 24/15 A3000 1000 57 2300 180/08 RMK AO2
94908KDBQ DBQ20000630142509706/30/00 14:25:31  5-MIN KDBQ 302025Z 18008KT 10SM BKN075 23/15 A3000 1000 59 2200 180/08 RMK AO2
94908KDBQ DBQ20000630143009706/30/00 14:30:31  5-MIN KDBQ 302030Z 21004KT 10SM BKN075 23/15 A3000 1000 59 2200 200/04 RMK AO2
94908KDBQ DBQ20000630143509706/30/00 14:35:31  5-MIN KDBQ 302035Z 19006KT 10SM SCT075 23/16 A3000 1010 65 2200 180/06 RMK AO2
94908KDBQ DBQ20000630144009706/30/00 14:40:31  5-MIN KDBQ 302040Z 18006KT 10SM SCT075 23/16 A3000 1000 63 2200 170/06 RMK AO2
94908KDBQ DBQ20000630144509706/30/00 14:45:31  5-MIN KDBQ 302045Z 17006KT 10SM SCT075 23/16 A3000 1000 63 2200 170/06 RMK AO2
94908KDBQ DBQ20000630145012006/30/00 14:50:31  5-MIN KDBQ 302050Z 18006KT 10SM FEW075 23/16 A3000 1000 63 2200 170/06 RMK AO2 SLP158 T02280156 58001
94908KDBQ DBQ20000630145511706/30/00 14:55:31  5-MIN KDBQ 302055Z 18006KT 10SM CLR 22/16 A3000 1000 68 2100 170/06 RMK AO2 SLP158 T02220161 55008
94908KDBQ DBQ20000630150009406/30/00 15:00:31  5-MIN KDBQ 302100Z 18006KT 10SM CLR 22/16 A3001 1000 68 2100 180/06 RMK AO2
94908KDBQ DBQ20000630150509406/30/00 15:05:31  5-MIN KDBQ 302105Z 18006KT 10SM CLR 22/16 A3000 1000 68 2100 170/06 RMK AO2
94908KDBQ DBQ20000630151009406/30/00 15:10:31  5-MIN KDBQ 302110Z 16006KT 10SM CLR 22/16 A3000 1000 68 2100 160/06 RMK AO2
94908KDBQ DBQ20000630151509406/30/00 15:15:31  5-MIN KDBQ 302115Z 16005KT 10SM CLR 22/16 A3000 1000 68 2100 160/05 RMK AO2
94908KDBQ DBQ20000630152009406/30/00 15:20:31  5-MIN KDBQ 302120Z 17005KT 10SM CLR 22/16 A3000 1000 68 2100 170/05 RMK AO2
94908KDBQ DBQ20000630152509406/30/00 15:25:31  5-MIN KDBQ 302125Z 16004KT 10SM CLR 22/17 A3000 1000 70 2100 160/04 RMK AO2
94908KDBQ DBQ20000630153009406/30/00 15:30:31  5-MIN KDBQ 302130Z 16005KT 10SM CLR 23/17 A3000 1010 68 2200 160/05 RMK AO2
94908KDBQ DBQ20000630153509406/30/00 15:35:31  5-MIN KDBQ 302135Z 17006KT 10SM CLR 23/17 A3000 1010 66 2200 160/06 RMK AO2
94908KDBQ DBQ20000630154009406/30/00 15:40:31  5-MIN KDBQ 302140Z 15008KT 10SM CLR 24/17 A2999 1010 61 2400 150/08 RMK AO2
94908KDBQ DBQ20000630154509406/30/00 15:45:31  5-MIN KDBQ 302145Z 16007KT 10SM CLR 24/16 A2999 1010 59 2400 160/07 RMK AO2
94908KDBQ DBQ20000630155011106/30/00 15:50:31  5-MIN KDBQ 302150Z 17007KT 10SM CLR 24/16 A2999 1010 61 2300 170/07 RMK AO2 SLP153 T02390161
94908KDBQ DBQ20000630155511106/30/00 15:55:31  5-MIN KDBQ 302155Z 17007KT 10SM CLR 23/15 A2999 1010 59 2200 170/07 RMK AO2 SLP153 T02330150
94908KDBQ DBQ20000630160009406/30/00 16:00:31  5-MIN KDBQ 302200Z 18005KT 10SM CLR 24/16 A2999 1010 61 2300 180/05 RMK AO2
94908KDBQ DBQ20000630160509406/30/00 16:05:31  5-MIN KDBQ 302205Z 16005KT 10SM CLR 23/16 A2999 1010 63 2200 160/05 RMK AO2
94908KDBQ DBQ20000630161009706/30/00 16:10:31  5-MIN KDBQ 302210Z 17007KT 10SM FEW100 24/16 A2999 1010 61 2300 170/07 RMK AO2
94908KDBQ DBQ20000630161509706/30/00 16:15:31  5-MIN KDBQ 302215Z 17008KT 10SM FEW095 24/16 A2999 1010 59 2400 170/08 RMK AO2
94908KDBQ DBQ20000630162009706/30/00 16:20:31  5-MIN KDBQ 302220Z 17007KT 10SM FEW095 24/16 A2999 1020 59 2400 170/07 RMK AO2
94908KDBQ DBQ20000630162509706/30/00 16:25:31  5-MIN KDBQ 302225Z 18006KT 10SM FEW095 24/16 A2999 1020 61 2300 180/06 RMK AO2
94908KDBQ DBQ20000630163009706/30/00 16:30:31  5-MIN KDBQ 302230Z 19007KT 10SM FEW095 24/16 A2999 1010 61 2300 190/07 RMK AO2
94908KDBQ DBQ20000630163509706/30/00 16:35:31  5-MIN KDBQ 302235Z 19008KT 10SM FEW095 24/15 A2999 1020 57 2300 190/08 RMK AO2
94908KDBQ DBQ20000630164009406/30/00 16:40:31  5-MIN KDBQ 302240Z 18006KT 10SM CLR 24/16 A2999 1020 59 2400 180/06 RMK AO2
94908KDBQ DBQ20000630164509406/30/00 16:45:31  5-MIN KDBQ 302245Z 18008KT 10SM CLR 25/16 A2999 1020 57 2400 180/08 RMK AO2
94908KDBQ DBQ20000630165011406/30/00 16:50:31  5-MIN KDBQ 302250Z 19010KT 10SM FEW050 25/16 A2998 1020 55 2400 190/10 RMK AO2 SLP150 T02500156
94908KDBQ DBQ20000630165513406/30/00 16:55:31  5-MIN KDBQ 302255Z 21013G17KT 10SM SCT048 SCT055 SCT070 24/16 A2998 1020 57 2400 210/13G17 RMK AO2 SLP148 T02440156
94908KDBQ DBQ20000630170010406/30/00 17:00:31  5-MIN KDBQ 302300Z 21010KT 10SM FEW048 SCT065 24/16 A2998 1020 59 2400 210/10 RMK AO2
94908KDBQ DBQ20000630170509706/30/00 17:05:31  5-MIN KDBQ 302305Z 22013KT 10SM FEW048 24/15 A2999 1020 55 2400 220/13 RMK AO2
94908KDBQ DBQ20000630171009706/30/00 17:10:31  5-MIN KDBQ 302310Z 21012KT 10SM FEW048 24/15 A2999 1020 57 2300 210/12 RMK AO2
94908KDBQ DBQ20000630171509706/30/00 17:15:31  5-MIN KDBQ 302315Z 20010KT 10SM FEW048 24/15 A2999 1020 57 2300 200/10 RMK AO2
94908KDBQ DBQ20000630172009706/30/00 17:20:31  5-MIN KDBQ 302320Z 20009KT 10SM FEW047 24/16 A2999 1010 59 2300 200/09 RMK AO2
94908KDBQ DBQ20000630172509406/30/00 17:25:31  5-MIN KDBQ 302325Z 20010KT 10SM CLR 24/16 A2999 1010 59 2300 200/10 RMK AO2
94908KDBQ DBQ20000630173009406/30/00 17:30:31  5-MIN KDBQ 302330Z 21013KT 10SM CLR 23/15 A2999 1010 59 2300 210/13 RMK AO2
94908KDBQ DBQ20000630173509406/30/00 17:35:31  5-MIN KDBQ 302335Z 21010KT 10SM CLR 23/16 A2999 1010 61 2200 200/10 RMK AO2
94908KDBQ DBQ20000630174009406/30/00 17:40:31  5-MIN KDBQ 302340Z 19010KT 10SM CLR 23/16 A2999 1010 63 2300 190/10 RMK AO2
94908KDBQ DBQ20000630174509406/30/00 17:45:31  5-MIN KDBQ 302345Z 19010KT 10SM CLR 23/16 A2999 1010 65 2200 180/10 RMK AO2
94908KDBQ DBQ20000630175013206/30/00 17:50:31  5-MIN KDBQ 302350Z 19010KT 10SM FEW085 23/16 A2999 1010 65 2200 180/10 RMK AO2 SLP153 T02280161 10250 20211 55008
94908KDBQ DBQ20000630175513206/30/00 17:55:31  5-MIN KDBQ 302355Z 19009KT 10SM FEW085 22/16 A2999 1010 68 2100 190/09 RMK AO2 SLP154 T02220161 10250 20211 55004
94908KDBQ DBQ20000630180009706/30/00 18:00:31  5-MIN KDBQ 010000Z 18008KT 10SM FEW085 22/16 A2999 1010 68 2100 180/08 RMK AO2
94908KDBQ DBQ20000630180509706/30/00 18:05:31  5-MIN KDBQ 010005Z 18009KT 10SM FEW085 22/16 A2999 1010 68 2100 180/09 RMK AO2
94908KDBQ DBQ20000630181009706/30/00 18:10:31  5-MIN KDBQ 010010Z 17007KT 10SM FEW085 22/16 A2999 1010 65 2100 170/07 RMK AO2
94908KDBQ DBQ20000630181509706/30/00 18:15:31  5-MIN KDBQ 010015Z 17008KT 10SM FEW085 22/16 A2999 1010 65 2100 170/08 RMK AO2
94908KDBQ DBQ20000630182009406/30/00 18:20:31  5-MIN KDBQ 010020Z 17009KT 10SM CLR 22/16 A2999 1010 65 2100 170/09 RMK AO2
94908KDBQ DBQ20000630182509406/30/00 18:25:31  5-MIN KDBQ 010025Z 17008KT 10SM CLR 22/16 A2999 1020 65 2100 170/08 RMK AO2
94908KDBQ DBQ20000630183009406/30/00 18:30:31  5-MIN KDBQ 010030Z 18007KT 10SM CLR 22/15 A2999 1010 65 2100 180/07 RMK AO2
94908KDBQ DBQ20000630183509406/30/00 18:35:31  5-MIN KDBQ 010035Z 18008KT 10SM CLR 22/15 A2999 1020 65 2100 180/08 RMK AO2
94908KDBQ DBQ20000630184009406/30/00 18:40:31  5-MIN KDBQ 010040Z 18007KT 10SM CLR 21/15 A2999 1020 68 2000 180/07 RMK AO2
94908KDBQ DBQ20000630184509406/30/00 18:45:31  5-MIN KDBQ 010045Z 17006KT 10SM CLR 21/15 A2999 1020 68 2000 170/06 RMK AO2
94908KDBQ DBQ20000630185011106/30/00 18:50:31  5-MIN KDBQ 010050Z 17005KT 10SM CLR 21/15 A2999 1010 68 2000 170/05 RMK AO2 SLP151 T02110150
94908KDBQ DBQ20000630185512106/30/00 18:55:31  5-MIN KDBQ 010055Z AUTO 18006KT 10SM CLR 21/15 A2999 1020 68 2000 180/06 RMK AO2 SLP151 T02110150 TSNO
94908KDBQ DBQ20000630190010406/30/00 19:00:31  5-MIN KDBQ 010100Z AUTO 17005KT 10SM CLR 21/15 A2999 1020 70 1900 170/05 RMK AO2 TSNO
94908KDBQ DBQ20000630190510406/30/00 19:05:31  5-MIN KDBQ 010105Z AUTO 17005KT 10SM CLR 21/15 A2999 1020 70 1900 170/05 RMK AO2 TSNO
94908KDBQ DBQ20000630191010406/30/00 19:10:31  5-MIN KDBQ 010110Z AUTO 17004KT 10SM CLR 20/16 A2999 1020 75 1900 170/04 RMK AO2 TSNO
94908KDBQ DBQ20000630191510406/30/00 19:15:31  5-MIN KDBQ 010115Z AUTO 17005KT 10SM CLR 20/16 A2999 1020 75 1900 170/05 RMK AO2 TSNO
94908KDBQ DBQ20000630192010406/30/00 19:20:31  5-MIN KDBQ 010120Z AUTO 16005KT 10SM CLR 19/15 A2999 1020 75 1800 160/05 RMK AO2 TSNO
94908KDBQ DBQ20000630192510406/30/00 19:25:31  5-MIN KDBQ 010125Z AUTO 16006KT 10SM CLR 19/15 A2999 1020 75 1800 160/06 RMK AO2 TSNO
94908KDBQ DBQ20000630193010406/30/00 19:30:31  5-MIN KDBQ 010130Z AUTO 17006KT 10SM CLR 19/15 A2999 1020 78 1700 170/06 RMK AO2 TSNO
94908KDBQ DBQ20000630193510406/30/00 19:35:31  5-MIN KDBQ 010135Z AUTO 17005KT 10SM CLR 19/15 A2999 1020 78 1700 160/05 RMK AO2 TSNO
94908KDBQ DBQ20000630194010406/30/00 19:40:31  5-MIN KDBQ 010140Z AUTO 18006KT 10SM CLR 18/15 A2999 1020 81 1700 180/06 RMK AO2 TSNO
94908KDBQ DBQ20000630194510406/30/00 19:45:31  5-MIN KDBQ 010145Z AUTO 17006KT 10SM CLR 18/15 A2999 1020 81 1700 170/06 RMK AO2 TSNO
94908KDBQ DBQ20000630195012106/30/00 19:50:31  5-MIN KDBQ 010150Z AUTO 17006KT 10SM CLR 18/15 A2999 1020 83 1600 160/06 RMK AO2 SLP152 T01780150 TSNO
94908KDBQ DBQ20000630195512106/30/00 19:55:31  5-MIN KDBQ 010155Z AUTO 17005KT 10SM CLR 18/15 A2999 1020 83 1600 170/05 RMK AO2 SLP152 T01780150 TSNO
94908KDBQ DBQ20000630200010406/30/00 20:00:31  5-MIN KDBQ 010200Z AUTO 17005KT 10SM CLR 18/15 A2999 1010 83 1600 170/05 RMK AO2 TSNO
94908KDBQ DBQ20000630200510406/30/00 20:05:31  5-MIN KDBQ 010205Z AUTO 16004KT 10SM CLR 18/15 A2999 1010 83 1600 160/04 RMK AO2 TSNO
94908KDBQ DBQ20000630201010406/30/00 20:10:31  5-MIN KDBQ 010210Z AUTO 16004KT 10SM CLR 18/16 A2999 1010 87 1600 160/04 RMK AO2 TSNO
94908KDBQ DBQ20000630201510406/30/00 20:15:31  5-MIN KDBQ 010215Z AUTO 15005KT 10SM CLR 18/16 A2999 1010 87 1600 150/05 RMK AO2 TSNO
94908KDBQ DBQ20000630202010406/30/00 20:20:31  5-MIN KDBQ 010220Z AUTO 16007KT 10SM CLR 18/16 A2999 1010 87 1600 160/07 RMK AO2 TSNO
94908KDBQ DBQ20000630202510406/30/00 20:25:31  5-MIN KDBQ 010225Z AUTO 16006KT 10SM CLR 18/16 A2999 1010 87 1600 160/06 RMK AO2 TSNO
94908KDBQ DBQ20000630203010406/30/00 20:30:31  5-MIN KDBQ 010230Z AUTO 16006KT 10SM CLR 18/16 A3000 1010 84 1700 160/06 RMK AO2 TSNO
94908KDBQ DBQ20000630203510406/30/00 20:35:31  5-MIN KDBQ 010235Z AUTO 17007KT 10SM CLR 18/16 A3000 1010 84 1700 170/07 RMK AO2 TSNO
94908KDBQ DBQ20000630204010406/30/00 20:40:31  5-MIN KDBQ 010240Z AUTO 16006KT 10SM CLR 18/16 A3000 1010 84 1700 160/06 RMK AO2 TSNO
94908KDBQ DBQ20000630204510406/30/00 20:45:31  5-MIN KDBQ 010245Z AUTO 16006KT 10SM CLR 18/16 A3000 1000 84 1700 160/06 RMK AO2 TSNO
94908KDBQ DBQ20000630205012706/30/00 20:50:31  5-MIN KDBQ 010250Z AUTO 16007KT 10SM CLR 18/16 A3000 1000 84 1700 160/07 RMK AO2 SLP155 T01830156 55004 TSNO
94908KDBQ DBQ20000630205512706/30/00 20:55:31  5-MIN KDBQ 010255Z AUTO 16007KT 10SM CLR 18/16 A3000 1000 84 1700 160/07 RMK AO2 SLP155 T01830156 53002 TSNO
94908KDBQ DBQ20000630210010406/30/00 21:00:31  5-MIN KDBQ 010300Z AUTO 16008KT 10SM CLR 18/16 A3000 1000 84 1700 160/08 RMK AO2 TSNO
94908KDBQ DBQ20000630210510406/30/00 21:05:31  5-MIN KDBQ 010305Z AUTO 16007KT 10SM CLR 18/16 A3000 1000 84 1700 160/07 RMK AO2 TSNO
94908KDBQ DBQ20000630211010406/30/00 21:10:31  5-MIN KDBQ 010310Z AUTO 16008KT 10SM CLR 18/16 A3000 1000 84 1700 160/08 RMK AO2 TSNO
94908KDBQ DBQ20000630211510406/30/00 21:15:31  5-MIN KDBQ 010315Z AUTO 16007KT 10SM CLR 18/16 A3001 1000 84 1700 160/07 RMK AO2 TSNO
94908KDBQ DBQ20000630212010406/30/00 21:20:31  5-MIN KDBQ 010320Z AUTO 16007KT 10SM CLR 18/16 A3000 1000 84 1700 160/07 RMK AO2 TSNO
94908KDBQ DBQ20000630212510406/30/00 21:25:31  5-MIN KDBQ 010325Z AUTO 16007KT 10SM CLR 18/16 A3000 1000 84 1700 160/07 RMK AO2 TSNO
94908KDBQ DBQ20000630213010406/30/00 21:30:31  5-MIN KDBQ 010330Z AUTO 16007KT 10SM CLR 18/16 A3000 1000 87 1600 160/07 RMK AO2 TSNO
94908KDBQ DBQ20000630213510406/30/00 21:35:31  5-MIN KDBQ 010335Z AUTO 16007KT 10SM CLR 18/16 A3000 1000 87 1600 160/07 RMK AO2 TSNO
94908KDBQ DBQ20000630214010406/30/00 21:40:31  5-MIN KDBQ 010340Z AUTO 17007KT 10SM CLR 18/16 A3000 1000 87 1600 160/07 RMK AO2 TSNO
94908KDBQ DBQ20000630214510406/30/00 21:45:31  5-MIN KDBQ 010345Z AUTO 17007KT 10SM CLR 18/16 A3000 1000 87 1600 170/07 RMK AO2 TSNO
94908KDBQ DBQ20000630215012106/30/00 21:50:31  5-MIN KDBQ 010350Z AUTO 17007KT 10SM CLR 18/15 A3000 1000 83 1600 170/07 RMK AO2 SLP155 T01780150 TSNO
94908KDBQ DBQ20000630215512106/30/00 21:55:31  5-MIN KDBQ 010355Z AUTO 17007KT 10SM CLR 18/15 A3000 1000 83 1600 170/07 RMK AO2 SLP155 T01780150 TSNO
94908KDBQ DBQ20000630220010406/30/00 22:00:31  5-MIN KDBQ 010400Z AUTO 18007KT 10SM CLR 18/15 A3000 1000 83 1600 180/07 RMK AO2 TSNO
94908KDBQ DBQ20000630220510406/30/00 22:05:31  5-MIN KDBQ 010405Z AUTO 19006KT 10SM CLR 17/15 A3000 1000 87 1500 180/06 RMK AO2 TSNO
94908KDBQ DBQ20000630221010406/30/00 22:10:31  5-MIN KDBQ 010410Z AUTO 18006KT 10SM CLR 17/15 A3000 1000 87 1500 180/06 RMK AO2 TSNO
94908KDBQ DBQ20000630221510406/30/00 22:15:31  5-MIN KDBQ 010415Z AUTO 18006KT 10SM CLR 17/15 A3000 1000 87 1500 180/06 RMK AO2 TSNO
94908KDBQ DBQ20000630222010406/30/00 22:20:31  5-MIN KDBQ 010420Z AUTO 19006KT 10SM CLR 17/15 A3000 1000 87 1500 190/06 RMK AO2 TSNO
94908KDBQ DBQ20000630222510406/30/00 22:25:31  5-MIN KDBQ 010425Z AUTO 19006KT 10SM CLR 17/15 A3000 1000 87 1500 190/06 RMK AO2 TSNO
94908KDBQ DBQ20000630223010406/30/00 22:30:31  5-MIN KDBQ 010430Z AUTO 21006KT 10SM CLR 17/15 A3001 1000 87 1500 200/06 RMK AO2 TSNO
94908KDBQ DBQ20000630223510406/30/00 22:35:31  5-MIN KDBQ 010435Z AUTO 21007KT 10SM CLR 17/15 A3001 1000 90 1500 200/07 RMK AO2 TSNO
94908KDBQ DBQ20000630224010406/30/00 22:40:31  5-MIN KDBQ 010440Z AUTO 20005KT 10SM CLR 17/15 A3001 1000 90 1500 200/05 RMK AO2 TSNO
94908KDBQ DBQ20000630224510406/30/00 22:45:31  5-MIN KDBQ 010445Z AUTO 20006KT 10SM CLR 17/15 A3001 1000 90 1500 200/06 RMK AO2 TSNO
94908KDBQ DBQ20000630225012106/30/00 22:50:31  5-MIN KDBQ 010450Z AUTO 20006KT 10SM CLR 17/15 A3001 1000 90 1500 200/06 RMK AO2 SLP159 T01670150 TSNO
94908KDBQ DBQ20000630225512106/30/00 22:55:31  5-MIN KDBQ 010455Z AUTO 19007KT 10SM CLR 17/15 A3001 1000 90 1500 190/07 RMK AO2 SLP159 T01670150 TSNO
94908KDBQ DBQ20000630230010406/30/00 23:00:31  5-MIN KDBQ 010500Z AUTO 18007KT 10SM CLR 17/15 A3001 1000 90 1500 180/07 RMK AO2 TSNO
94908KDBQ DBQ20000630230510406/30/00 23:05:31  5-MIN KDBQ 010505Z AUTO 18007KT 10SM CLR 17/15 A3001 1000 90 1500 180/07 RMK AO2 TSNO
94908KDBQ DBQ20000630231010406/30/00 23:10:31  5-MIN KDBQ 010510Z AUTO 19007KT 10SM CLR 17/15 A3001 1000 90 1500 180/07 RMK AO2 TSNO
94908KDBQ DBQ20000630231510406/30/00 23:15:31  5-MIN KDBQ 010515Z AUTO 18007KT 10SM CLR 17/15 A3001 1000 90 1500 180/07 RMK AO2 TSNO
94908KDBQ DBQ20000630232010406/30/00 23:20:31  5-MIN KDBQ 010520Z AUTO 18007KT 10SM CLR 17/15 A3001 1000 90 1500 180/07 RMK AO2 TSNO
94908KDBQ DBQ20000630232510406/30/00 23:25:31  5-MIN KDBQ 010525Z AUTO 17007KT 10SM CLR 17/15 A3000 1000 90 1500 170/07 RMK AO2 TSNO
94908KDBQ DBQ20000630233010406/30/00 23:30:31  5-MIN KDBQ 010530Z AUTO 18007KT 10SM CLR 17/15 A3000 1000 90 1500 180/07 RMK AO2 TSNO
94908KDBQ DBQ20000630233510406/30/00 23:35:31  5-MIN KDBQ 010535Z AUTO 19007KT 10SM CLR 17/15 A3001 1000 90 1500 190/07 RMK AO2 TSNO
94908KDBQ DBQ20000630234010406/30/00 23:40:31  5-MIN KDBQ 010540Z AUTO 19007KT 10SM CLR 17/15 A3000 1000 90 1500 180/07 RMK AO2 TSNO
94908KDBQ DBQ20000630234510406/30/00 23:45:31  5-MIN KDBQ 010545Z AUTO 18007KT 10SM CLR 17/15 A3000 1000 90 1500 180/07 RMK AO2 TSNO
94908KDBQ DBQ20000630235014906/30/00 23:50:31  5-MIN KDBQ 010550Z AUTO 18007KT 10SM CLR 17/15 A3000 1010 90 1500 180/07 RMK AO2 SLP156 T01670150 10222 20167 402500133 53002 TSNO
94908KDBQ DBQ20000630235514906/30/00 23:55:31  5-MIN KDBQ 010555Z AUTO 19008KT 10SM CLR 17/15 A3000 1000 90 1500 190/08 RMK AO2 SLP156 T01670150 10222 20167 402500133 50000 TSNO
