94908KDBQ DBQ20050501000009505/01/05 00:00:49  5-MIN KDBQ 010600Z 22003KT 10SM CLR 01/M02 A2999 1010 85 -400 220/03 RMK AO2
94908KDBQ DBQ20050501000509505/01/05 00:05:31  5-MIN KDBQ 010605Z 22003KT 10SM CLR 01/M02 A2999 1010 85 -400 220/03 RMK AO2
94908KDBQ DBQ20050501001009505/01/05 00:10:31  5-MIN KDBQ 010610Z 22003KT 10SM CLR 00/M02 A2999 1020 88 -500 210/03 RMK AO2
94908KDBQ DBQ20050501001509505/01/05 00:15:32  5-MIN KDBQ 010615Z 22003KT 10SM CLR 00/M02 A2999 1020 85 -500 220/03 RMK AO2
94908KDBQ DBQ20050501002009405/01/05 00:20:31  5-MIN KDBQ 010620Z 22003KT 9SM CLR 00/M02 A2998 1020 85 -500 220/03 RMK AO2
94908KDBQ DBQ20050501002509405/01/05 00:25:31  5-MIN KDBQ 010625Z 21003KT 9SM CLR 00/M02 A2998 1020 85 -500 210/03 RMK AO2
94908KDBQ DBQ20050501003009505/01/05 00:30:31  5-MIN KDBQ 010630Z 22004KT 9SM CLR M01/M03 A2998 1020 85 -500 210/04 RMK AO2
94908KDBQ DBQ20050501003509505/01/05 00:35:31  5-MIN KDBQ 010635Z 21004KT 9SM CLR M01/M03 A2998 1020 85 -500 210/04 RMK AO2
94908KDBQ DBQ20050501004009805/01/05 00:40:31  5-MIN KDBQ 010640Z 22004KT 9SM FEW110 M01/M03 A2998 1020 85 -500 220/04 RMK AO2
94908KDBQ DBQ20050501004509805/01/05 00:45:31  5-MIN KDBQ 010645Z 23005KT 8SM SCT100 M01/M02 A2998 1030 88 -500 220/05 RMK AO2
94908KDBQ DBQ20050501005011405/01/05 00:50:31  5-MIN KDBQ 010650Z 23005KT 8SM SCT090 00/M02 A2998 1030 85 -500 220/05 RMK AO2 SLP159 T00001022
94908KDBQ DBQ20050501005512305/01/05 00:55:31  5-MIN KDBQ 010655Z 23005KT 8SM SCT090 BKN110 M01/M02  A2998 1030 88 -500 230/05 RMK AO2 SLP160 T10061022
94908KDBQ DBQ20050501010010605/01/05 01:00:31  5-MIN KDBQ 010700Z 23004KT 8SM SCT095 BKN120 M01/M02  A2998 1030 88 -500 230/04 RMK AO2
94908KDBQ DBQ20050501010510605/01/05 01:05:31  5-MIN KDBQ 010705Z 23004KT 8SM SCT095 BKN110 M01/M02  A2998 1030 88 -500 230/04 RMK AO2
94908KDBQ DBQ20050501011010505/01/05 01:10:31  5-MIN KDBQ 010710Z 22004KT 9SM BKN095 BKN120 00/M02  A2998 1030 85 -500 220/04 RMK AO2
94908KDBQ DBQ20050501011510605/01/05 01:15:31  5-MIN KDBQ 010715Z 22005KT 9SM SCT095 SCT120 M01/M02  A2998 1030 88 -500 220/05 RMK AO2
94908KDBQ DBQ20050501012010605/01/05 01:20:31  5-MIN KDBQ 010720Z 22004KT 8SM FEW070 SCT110 M01/M03  A2997 1030 85 -500 220/04 RMK AO2
94908KDBQ DBQ20050501012510605/01/05 01:25:31  5-MIN KDBQ 010725Z 22004KT 7SM FEW070 SCT110 M01/M03  A2997 1030 85 -500 220/04 RMK AO2
94908KDBQ DBQ20050501013010605/01/05 01:30:31  5-MIN KDBQ 010730Z 22004KT 8SM FEW070 SCT100 M01/M02  A2997 1030 88 -500 220/04 RMK AO2
94908KDBQ DBQ20050501013510605/01/05 01:35:31  5-MIN KDBQ 010735Z 22004KT 9SM SCT070 BKN100 M01/M02  A2997 1030 88 -500 220/04 RMK AO2
94908KDBQ DBQ20050501014010005/01/05 01:40:31  5-MIN KDBQ 010740Z 22005KT 10SM BKN070 M01/M02 A2997  1030 88 -500 220/05 RMK AO2
94908KDBQ DBQ20050501014510705/01/05 01:45:31  5-MIN KDBQ 010745Z 24005KT 10SM FEW050 BKN070 M01/M02  A2998 1030 88 -500 230/05 RMK AO2
94908KDBQ DBQ20050501015012405/01/05 01:50:31  5-MIN KDBQ 010750Z 25005KT 10SM SCT050 BKN070 M01/M03  A2998 1020 88 -600 240/05 RMK AO2 SLP161 T10111028
94908KDBQ DBQ20050501015512405/01/05 01:55:31  5-MIN KDBQ 010755Z 26006KT 10SM BKN050 OVC070 M01/M03  A2998 1030 88 -600 250/06 RMK AO2 SLP159 T10111028
94908KDBQ DBQ20050501020011305/01/05 02:00:31  5-MIN KDBQ 010800Z 23004KT 10SM SCT050 BKN065 OVC080  00/M02 A2998 1030 85 -500 230/04 RMK AO2
94908KDBQ DBQ20050501020511305/01/05 02:05:31  5-MIN KDBQ 010805Z 23004KT 10SM SCT050 SCT065 OVC080  00/M02 A2997 1030 88 -500 230/04 RMK AO2
94908KDBQ DBQ20050501021010605/01/05 02:10:31  5-MIN KDBQ 010810Z 23004KT 10SM BKN050 OVC075 01/M02  A2997 1030 85 -400 230/04 RMK AO2
94908KDBQ DBQ20050501021510605/01/05 02:15:31  5-MIN KDBQ 010815Z 24006KT 10SM BKN050 OVC075 01/M02  A2997 1030 82 -300 240/06 RMK AO2
94908KDBQ DBQ20050501022010605/01/05 02:20:31  5-MIN KDBQ 010820Z 25009KT 10SM BKN050 OVC080 02/M02  A2997 1030 78 -300 240/09 RMK AO2
94908KDBQ DBQ20050501022511305/01/05 02:25:31  5-MIN KDBQ 010825Z 25011KT 10SM FEW047 SCT060 OVC080  02/M01 A2997 1030 78 -200 250/11 RMK AO2
94908KDBQ DBQ20050501023010605/01/05 02:30:31  5-MIN KDBQ 010830Z 25010KT 10SM FEW047 OVC080 03/M01  A2997 1030 75 -100 250/10 RMK AO2
94908KDBQ DBQ20050501023510605/01/05 02:35:31  5-MIN KDBQ 010835Z 25010KT 10SM FEW047 OVC080 03/M01  A2998 1020 79 -100 250/10 RMK AO2
94908KDBQ DBQ20050501024010605/01/05 02:40:31  5-MIN KDBQ 010840Z 24009KT 10SM FEW060 OVC080 03/M01  A2998 1030 79 -100 240/09 RMK AO2
94908KDBQ DBQ20050501024510605/01/05 02:45:31  5-MIN KDBQ 010845Z 24009KT 10SM SCT070 OVC085 03/M01  A2998 1020 79 -100 240/09 RMK AO2
94908KDBQ DBQ20050501025012905/01/05 02:50:31  5-MIN KDBQ 010850Z 25009KT 10SM SCT060 OVC085 03/M01  A2998 1030 79 -100 250/09 RMK AO2 SLP158 T00281006 58008
94908KDBQ DBQ20050501025513605/01/05 02:55:31  5-MIN KDBQ 010855Z 25009KT 10SM FEW050 BKN070 OVC085  03/M01 A2998 1020 79 -100 250/09 RMK AO2 SLP159 T00281006 55004
94908KDBQ DBQ20050501030011205/01/05 03:00:31  5-MIN KDBQ 010900Z 25008KT 10SM SCT050 BKN070 OVC090  03/00 A2998 1020 82 -100 250/08 RMK AO2
94908KDBQ DBQ20050501030511205/01/05 03:05:31  5-MIN KDBQ 010905Z 25008KT 10SM BKN050 BKN065 OVC085  03/00 A2998 1020 82 -100 250/08 RMK AO2
94908KDBQ DBQ20050501031011205/01/05 03:10:31  5-MIN KDBQ 010910Z 25008KT 10SM FEW045 BKN055 OVC080  03/00 A2998 1020 82 -100 250/08 RMK AO2
94908KDBQ DBQ20050501031511205/01/05 03:15:31  5-MIN KDBQ 010915Z 26009KT 10SM FEW048 BKN055 OVC080  03/00 A2998 1020 82 -100 260/09 RMK AO2
94908KDBQ DBQ20050501032011305/01/05 03:20:31  5-MIN KDBQ 010920Z 26010KT 10SM BKN050 BKN065 OVC100  03/M01 A2998 1020 79 -100 260/10 RMK AO2
94908KDBQ DBQ20050501032511305/01/05 03:25:31  5-MIN KDBQ 010925Z 26011KT 10SM SCT055 BKN075 OVC100  03/M01 A2998 1020 79 -100 260/11 RMK AO2
94908KDBQ DBQ20050501033011305/01/05 03:30:31  5-MIN KDBQ 010930Z 27012KT 10SM SCT050 BKN065 OVC100  03/M01 A2998 1020 76 -100 270/12 RMK AO2
94908KDBQ DBQ20050501033513305/01/05 03:35:31  5-MIN KDBQ 010935Z 28017G21KT 7SM -RA FEW024 BKN047  OVC100 03/00 A2999 1020 82 -100 280/17G21 RMK AO2 RAB34 P0000
94908KDBQ DBQ20050501034013505/01/05 03:40:31  5-MIN KDBQ 010940Z 27012G21KT 6SM RA BR SCT022 BKN047  OVC100 02/01 A2999 1020 89 -200 270/12G21 RMK AO2 RAB34 P0000
94908KDBQ DBQ20050501034512605/01/05 03:45:31  5-MIN KDBQ 010945Z 27008KT 7SM RA SCT022 BKN047 OVC100  02/01 A2998 1020 89 -200 270/08 RMK AO2 RAB34 P0001
94908KDBQ DBQ20050501035014405/01/05 03:50:31  5-MIN KDBQ 010950Z 26009KT 10SM -RA SCT026 BKN047 OVC065 02/01 A2998 1030 89 -200 260/09 RMK AO2 RAB34 SLP158 P0001 T00220006
94908KDBQ DBQ20050501035514405/01/05 03:55:31  5-MIN KDBQ 010955Z 26008KT 10SM FEW022 SCT047 OVC065  03/01 A2997 1030 85 -100 260/08 RMK AO2 RAB34E52 SLP156 P0001 T00280006
94908KDBQ DBQ20050501040011205/01/05 04:00:31  5-MIN KDBQ 011000Z 26008KT 10SM FEW020 BKN070 OVC100  03/01 A2997 1030 85 -100 260/08 RMK AO2
94908KDBQ DBQ20050501040511205/01/05 04:05:31  5-MIN KDBQ 011005Z 26008KT 10SM FEW037 BKN070 OVC100  02/01 A2997 1030 89 -200 250/08 RMK AO2
94908KDBQ DBQ20050501041011205/01/05 04:10:31  5-MIN KDBQ 011010Z 25008KT 10SM BKN065 BKN075 OVC095  02/01 A2997 1030 89 -200 250/08 RMK AO2
94908KDBQ DBQ20050501041510505/01/05 04:15:31  5-MIN KDBQ 011015Z 26008KT 10SM BKN070 OVC090 02/01  A2997 1030 89 -200 250/08 RMK AO2
94908KDBQ DBQ20050501042010505/01/05 04:20:31  5-MIN KDBQ 011020Z 26009KT 10SM SCT070 OVC090 02/01  A2997 1030 89 -200 260/09 RMK AO2
94908KDBQ DBQ20050501042510505/01/05 04:25:31  5-MIN KDBQ 011025Z 26009KT 10SM FEW075 BKN090 02/01  A2997 1030 89 -200 260/09 RMK AO2
94908KDBQ DBQ20050501043010505/01/05 04:30:31  5-MIN KDBQ 011030Z 26009KT 10SM FEW075 BKN090 02/01  A2997 1030 89 -200 260/09 RMK AO2
94908KDBQ DBQ20050501043510505/01/05 04:35:31  5-MIN KDBQ 011035Z 26009KT 10SM FEW080 SCT090 02/00  A2997 1030 89 -200 260/09 RMK AO2
94908KDBQ DBQ20050501044009705/01/05 04:40:31  5-MIN KDBQ 011040Z 26009KT 10SM FEW090 02/00 A2997 1030 85 -200 260/09 RMK AO2
94908KDBQ DBQ20050501044509705/01/05 04:45:31  5-MIN KDBQ 011045Z 26009KT 10SM FEW090 02/00 A2997 1030 89 -200 260/09 RMK AO2
94908KDBQ DBQ20050501045011105/01/05 04:50:31  5-MIN KDBQ 011050Z 26009KT 10SM CLR 02/00 A2997 1030 89 -200 260/09 RMK AO2 SLP155 T00170000
94908KDBQ DBQ20050501045511105/01/05 04:55:31  5-MIN KDBQ 011055Z 27009KT 10SM CLR 02/00 A2997 1030 89 -200 270/09 RMK AO2 SLP156 T00170000
94908KDBQ DBQ20050501050009405/01/05 05:00:31  5-MIN KDBQ 011100Z 27010KT 10SM CLR 02/00 A2997 1030 89 -300 270/10 RMK AO2
94908KDBQ DBQ20050501050509405/01/05 05:05:31  5-MIN KDBQ 011105Z 28011KT 10SM CLR 02/00 A2997 1030 85 -200 280/11 RMK AO2
94908KDBQ DBQ20050501051009705/01/05 05:10:31  5-MIN KDBQ 011110Z 28010KT 10SM FEW047 02/00 A2997 1030 85 -200 280/10 RMK AO2
94908KDBQ DBQ20050501051510505/01/05 05:15:31  5-MIN KDBQ 011115Z 28011KT 10SM FEW037 SCT047 02/00  A2997 1030 85 -200 280/11 RMK AO2
94908KDBQ DBQ20050501052010505/01/05 05:20:31  5-MIN KDBQ 011120Z 28011KT 10SM SCT035 SCT047 02/00  A2997 1030 85 -200 280/11 RMK AO2
94908KDBQ DBQ20050501052511205/01/05 05:25:31  5-MIN KDBQ 011125Z 27010KT 10SM SCT035 SCT047 BKN085  02/01 A2998 1030 89 -200 270/10 RMK AO2
94908KDBQ DBQ20050501053011205/01/05 05:30:31  5-MIN KDBQ 011130Z 27011KT 10SM FEW035 SCT047 BKN085  02/01 A2998 1030 89 -200 270/11 RMK AO2
94908KDBQ DBQ20050501053511205/01/05 05:35:31  5-MIN KDBQ 011135Z 27011KT 10SM FEW035 SCT047 OVC085  02/01 A2998 1030 89 -200 270/11 RMK AO2
94908KDBQ DBQ20050501054010505/01/05 05:40:31  5-MIN KDBQ 011140Z 27010KT 10SM FEW035 OVC085 02/01  A2998 1030 89 -200 270/10 RMK AO2
94908KDBQ DBQ20050501054510505/01/05 05:45:31  5-MIN KDBQ 011145Z 28011KT 10SM FEW035 OVC085 02/01  A2998 1020 89 -200 280/11 RMK AO2
94908KDBQ DBQ20050501055014405/01/05 05:50:31  5-MIN KDBQ 011150Z 28010KT 10SM BKN085 02/01 A2998 1020 89 -200 280/10 RMK AO2 SLP161 60001 70001 T00220006 10033 21011 55004
94908KDBQ DBQ20050501055515205/01/05 05:55:31  5-MIN KDBQ 011155Z 28010KT 10SM FEW038 OVC085 02/01  A2998 1020 89 -200 280/10 RMK AO2 SLP161 60001 70001 T00220006 10033 21011 53002
94908KDBQ DBQ20050501060010505/01/05 06:00:31  5-MIN KDBQ 011200Z 28010KT 10SM SCT038 OVC085 03/01  A2999 1020 85 -100 280/10 RMK AO2
94908KDBQ DBQ20050501060510505/01/05 06:05:31  5-MIN KDBQ 011205Z 28011KT 10SM SCT042 OVC085 03/01  A2999 1020 85 -100 280/11 RMK AO2
94908KDBQ DBQ20050501061011205/01/05 06:10:31  5-MIN KDBQ 011210Z 28012KT 10SM SCT042 BKN050 OVC085  03/01 A2999 1020 85 -100 280/12 RMK AO2
94908KDBQ DBQ20050501061511205/01/05 06:15:31  5-MIN KDBQ 011215Z 27010KT 10SM SCT043 BKN050 OVC085  03/01 A2999 1010 85 -100 270/10 RMK AO2
94908KDBQ DBQ20050501062011205/01/05 06:20:31  5-MIN KDBQ 011220Z 28012KT 10SM SCT043 BKN050 OVC080  03/01 A2999 1010 85 -100 280/12 RMK AO2
94908KDBQ DBQ20050501062511205/01/05 06:25:31  5-MIN KDBQ 011225Z 28012KT 10SM FEW043 BKN050 OVC080  03/01 A2999 1010 89 -100 280/12 RMK AO2
94908KDBQ DBQ20050501063010505/01/05 06:30:31  5-MIN KDBQ 011230Z 28012KT 10SM BKN050 OVC080 03/01  A2999 1010 85 -100 280/12 RMK AO2
94908KDBQ DBQ20050501063510505/01/05 06:35:31  5-MIN KDBQ 011235Z 29010KT 10SM BKN050 OVC080 03/01  A2999 1010 85 -100 290/10 RMK AO2
94908KDBQ DBQ20050501064010405/01/05 06:40:31  5-MIN KDBQ 011240Z 29014G18KT 10SM OVC048 03/01 A3000  1010 85 -100 290/14G18 RMK AO2
94908KDBQ DBQ20050501064510405/01/05 06:45:31  5-MIN KDBQ 011245Z 29014G18KT 10SM OVC048 03/01 A3000  1010 85 -100 290/14G18 RMK AO2
94908KDBQ DBQ20050501065011405/01/05 06:50:31  5-MIN KDBQ 011250Z 29014KT 10SM OVC048 03/01 A3000 1010 82 -100 290/14 RMK AO2 SLP167 T00330006
94908KDBQ DBQ20050501065511405/01/05 06:55:31  5-MIN KDBQ 011255Z 29012KT 10SM BKN048 03/01 A3000 1000 82 -100 280/12 RMK AO2 SLP168 T00330006
94908KDBQ DBQ20050501070009705/01/05 07:00:31  5-MIN KDBQ 011300Z 28012KT 10SM BKN048 03/01 A3000 1000 82 -100 280/12 RMK AO2
94908KDBQ DBQ20050501070510205/01/05 07:05:31  5-MIN KDBQ 011305Z 29012KT 10SM SCT048 SCT060 04/01  A3000 1000 82 0 280/12 RMK AO2
94908KDBQ DBQ20050501071010205/01/05 07:10:31  5-MIN KDBQ 011310Z 29014KT 10SM FEW048 BKN060 04/01  A3000 1000 79 0 280/14 RMK AO2
94908KDBQ DBQ20050501071510205/01/05 07:15:31  5-MIN KDBQ 011315Z 29012KT 10SM FEW048 BKN060 04/01  A3000 1000 79 0 290/12 RMK AO2
94908KDBQ DBQ20050501072010205/01/05 07:20:31  5-MIN KDBQ 011320Z 29014KT 10SM BKN060 BKN080 04/01  A3000 1000 76 0 290/14 RMK AO2
94908KDBQ DBQ20050501072510405/01/05 07:25:31  5-MIN KDBQ 011325Z 30012KT 10SM SCT060 BKN080 05/01  A3000 1000 73 100 300/12 RMK AO2
94908KDBQ DBQ20050501073011105/01/05 07:30:31  5-MIN KDBQ 011330Z 29015KT 10SM FEW023 SCT060 BKN080  05/01 A3000 1000 73 100 290/15 RMK AO2
94908KDBQ DBQ20050501073511105/01/05 07:35:31  5-MIN KDBQ 011335Z 30015KT 10SM FEW026 BKN055 BKN080  05/00 A3000 1000 70 100 300/15 RMK AO2
94908KDBQ DBQ20050501074011105/01/05 07:40:31  5-MIN KDBQ 011340Z 29016KT 10SM FEW023 BKN060 BKN080  05/00 A3000 1000 70 100 290/16 RMK AO2
94908KDBQ DBQ20050501074511005/01/05 07:45:31  5-MIN KDBQ 011345Z 29014KT 10SM SCT027 SCT055 BKN080  04/M01 A3000 1000 70 0 280/14 RMK AO2
94908KDBQ DBQ20050501075012905/01/05 07:50:31  5-MIN KDBQ 011350Z 29017KT 10SM SCT027 SCT055 SCT080  05/M01 A3000 1000 67 100 290/17 RMK AO2 SLP169 T00501006
94908KDBQ DBQ20050501075511405/01/05 07:55:31  5-MIN KDBQ 011355Z 30015KT 10SM FEW027 05/M01 A3000 1000 67 100 300/15 RMK AO2 SLP169 T00501006
94908KDBQ DBQ20050501080009605/01/05 08:00:31  5-MIN KDBQ 011400Z 31016KT 10SM SCT027 06/00 A3000 1000 67 100 310/16 RMK AO2
94908KDBQ DBQ20050501080509605/01/05 08:05:31  5-MIN KDBQ 011405Z 29018KT 10SM SCT027 06/00 A3000 1000 67 100 290/18 RMK AO2
94908KDBQ DBQ20050501081009705/01/05 08:10:31  5-MIN KDBQ 011410Z 31015KT 10SM SCT027 06/M01 A3000 1000 62 100 310/15 RMK AO2
94908KDBQ DBQ20050501081509705/01/05 08:15:31  5-MIN KDBQ 011415Z 29016KT 10SM SCT027 06/M01 A3000 1000 62 100 290/16 RMK AO2
94908KDBQ DBQ20050501082010405/01/05 08:20:31  5-MIN KDBQ 011420Z 30013G20KT 10SM SCT027 06/M01 A3000  1000 62 100 300/13G20 RMK AO2
94908KDBQ DBQ20050501082510405/01/05 08:25:31  5-MIN KDBQ 011425Z 30016G20KT 10SM SCT027 06/M01 A3000  1000 62 100 300/16G20 RMK AO2
94908KDBQ DBQ20050501083010405/01/05 08:30:31  5-MIN KDBQ 011430Z 29017G20KT 10SM SCT027 06/M01 A3000  1000 62 200 290/17G20 RMK AO2
94908KDBQ DBQ20050501083510405/01/05 08:35:31  5-MIN KDBQ 011435Z 29014G20KT 10SM SCT027 06/M01 A3000  1000 62 100 290/14G20 RMK AO2
94908KDBQ DBQ20050501084010405/01/05 08:40:31  5-MIN KDBQ 011440Z 31018G22KT 10SM SCT027 06/M01 A3000  1000 60 200 310/18G22 RMK AO2
94908KDBQ DBQ20050501084510405/01/05 08:45:31  5-MIN KDBQ 011445Z 29017G22KT 10SM SCT027 06/M01 A3001  1000 60 200 290/17G22 RMK AO2
94908KDBQ DBQ20050501085012705/01/05 08:50:31  5-MIN KDBQ 011450Z 28018G24KT 10SM SCT027 06/M02 A3001  1000 57 200 280/18G24 RMK AO2 SLP170 T00611017 53002
94908KDBQ DBQ20050501085512705/01/05 08:55:31  5-MIN KDBQ 011455Z 30017G24KT 10SM SCT027 06/M02 A3001  1000 55 200 300/17G24 RMK AO2 SLP171 T00611022 51008
94908KDBQ DBQ20050501090010305/01/05 09:00:31  5-MIN KDBQ 011500Z 31015G22KT 10SM SCT036 07/M02 A3001  990 55 300 310/15G22 RMK AO2
94908KDBQ DBQ20050501090510405/01/05 09:05:31  5-MIN KDBQ 011505Z 29015G22KT 10SM SCT038 06/M02 A3001  1000 55 200 290/15G22 RMK AO2
94908KDBQ DBQ20050501091010905/01/05 09:10:31  5-MIN KDBQ 011510Z 28021G24KT 10SM SCT038 SCT047 07/M02 A3001 990 53 300 280/21G24 RMK AO2
94908KDBQ DBQ20050501091510905/01/05 09:15:31  5-MIN KDBQ 011515Z 29016G24KT 10SM SCT038 SCT047 06/M03 A3001 990 55 100 290/16G24 RMK AO2
94908KDBQ DBQ20050501092010905/01/05 09:20:31  5-MIN KDBQ 011520Z 29017G24KT 10SM FEW038 SCT060 07/M02 A3001 990 53 300 290/17G24 RMK AO2
94908KDBQ DBQ20050501092511605/01/05 09:25:31  5-MIN KDBQ 011525Z 29015G24KT 10SM SCT038 SCT047 BKN060 06/M03 A3002 990 55 100 290/15G24 RMK AO2
94908KDBQ DBQ20050501093011605/01/05 09:30:31  5-MIN KDBQ 011530Z 28015G21KT 10SM SCT038 SCT047 BKN060 06/M03 A3002 990 53 200 280/15G21 RMK AO2
94908KDBQ DBQ20050501093511605/01/05 09:35:31  5-MIN KDBQ 011535Z 29016G22KT 10SM FEW038 SCT047 BKN060 07/M02 A3002 990 51 300 290/16G22 RMK AO2
94908KDBQ DBQ20050501094011605/01/05 09:40:31  5-MIN KDBQ 011540Z 30015G22KT 10SM SCT042 SCT050 BKN060 07/M03 A3002 990 51 300 300/15G22 RMK AO2
94908KDBQ DBQ20050501094511605/01/05 09:45:31  5-MIN KDBQ 011545Z 30018G22KT 10SM SCT042 BKN050 BKN060 07/M03 A3002 990 49 300 300/18G22 RMK AO2
94908KDBQ DBQ20050501095012105/01/05 09:50:31  5-MIN KDBQ 011550Z 28018KT 10SM BKN045 BKN060 07/M03  A3002 990 49 300 280/18 RMK AO2 SLP173 T00671033
94908KDBQ DBQ20050501095512605/01/05 09:55:31  5-MIN KDBQ 011555Z 28016G24KT 10SM BKN046 BKN060 07/M03 A3002 990 49 300 270/16G24 RMK AO2 SLP173 T00671033
94908KDBQ DBQ20050501100010905/01/05 10:00:31  5-MIN KDBQ 011600Z 31018G24KT 10SM BKN049 BKN060 06/M04 A3002 990 48 200 310/18G24 RMK AO2
94908KDBQ DBQ20050501100510905/01/05 10:05:31  5-MIN KDBQ 011605Z 29018G24KT 10SM SCT049 BKN060 07/M04 A3002 990 47 300 290/18G24 RMK AO2
94908KDBQ DBQ20050501101010905/01/05 10:10:31  5-MIN KDBQ 011610Z 27019G23KT 10SM SCT049 BKN060 07/M04 A3002 990 45 300 270/19G23 RMK AO2
94908KDBQ DBQ20050501101510905/01/05 10:15:31  5-MIN KDBQ 011615Z 30019G24KT 10SM SCT049 BKN060 06/M05 A3002 990 45 200 290/19G24 RMK AO2
94908KDBQ DBQ20050501102010305/01/05 10:20:31  5-MIN KDBQ 011620Z 28021G24KT 10SM BKN055 07/M06 A3002  990 39 300 280/21G24 RMK AO2
94908KDBQ DBQ20050501102510305/01/05 10:25:31  5-MIN KDBQ 011625Z 32017G21KT 10SM OVC055 06/M05 A3002  990 45 200 310/17G21 RMK AO2
94908KDBQ DBQ20050501103010305/01/05 10:30:31  5-MIN KDBQ 011630Z 30016G21KT 10SM OVC055 06/M05 A3002  990 45 200 300/16G21 RMK AO2
94908KDBQ DBQ20050501103509605/01/05 10:35:31  5-MIN KDBQ 011635Z 29017KT 10SM OVC055 06/M05 A3002 990 45 200 290/17 RMK AO2
94908KDBQ DBQ20050501104009605/01/05 10:40:31  5-MIN KDBQ 011640Z 28017KT 10SM OVC055 07/M05 A3002 990 43 300 280/17 RMK AO2
94908KDBQ DBQ20050501104510905/01/05 10:45:31  5-MIN KDBQ 011645Z 30021G25KT 10SM BKN055 OVC070 06/M05 A3002 990 45 200 300/21G25 RMK AO2
94908KDBQ DBQ20050501105012005/01/05 10:50:31  5-MIN KDBQ 011650Z 31017G25KT 10SM OVC055 07/M05 A3002  990 43 300 310/17G25 RMK AO2 SLP173 T00671050
94908KDBQ DBQ20050501105512005/01/05 10:55:31  5-MIN KDBQ 011655Z 30019G23KT 10SM OVC060 06/M05 A3002  990 45 200 300/19G23 RMK AO2 SLP175 T00611050
94908KDBQ DBQ20050501110010905/01/05 11:00:31  5-MIN KDBQ 011700Z 30018G23KT 10SM BKN055 OVC070 07/M06 A3002 990 41 300 300/18G23 RMK AO2
94908KDBQ DBQ20050501110510905/01/05 11:05:31  5-MIN KDBQ 011705Z 28020G25KT 10SM BKN060 OVC070 07/M06 A3002 990 41 300 280/20G25 RMK AO2
94908KDBQ DBQ20050501111010305/01/05 11:10:31  5-MIN KDBQ 011710Z 28016G25KT 10SM OVC060 06/M05 A3003  970 45 200 280/16G25 RMK AO2
94908KDBQ DBQ20050501111510905/01/05 11:15:31  5-MIN KDBQ 011715Z 29019G23KT 10SM BKN055 OVC070 07/M05 A3003 970 43 200 290/19G23 RMK AO2
94908KDBQ DBQ20050501112010905/01/05 11:20:31  5-MIN KDBQ 011720Z 29020G24KT 10SM BKN060 OVC070 07/M05 A3003 970 43 200 290/20G24 RMK AO2
94908KDBQ DBQ20050501112510905/01/05 11:25:31  5-MIN KDBQ 011725Z 29019G25KT 10SM BKN060 OVC075 06/M06 A3003 970 43 200 290/19G25 RMK AO2
94908KDBQ DBQ20050501113010305/01/05 11:30:31  5-MIN KDBQ 011730Z 29018G25KT 10SM OVC065 06/M06 A3003  980 43 200 280/18G25 RMK AO2
94908KDBQ DBQ20050501113510405/01/05 11:35:31  5-MIN KDBQ 011735Z 30016KT 10SM FEW055 OVC070 06/M06  A3003 980 43 200 300/16 RMK AO2
94908KDBQ DBQ20050501114009605/01/05 11:40:31  5-MIN KDBQ 011740Z 29017KT 10SM OVC070 06/M06 A3003 980 43 200 290/17 RMK AO2
94908KDBQ DBQ20050501114509605/01/05 11:45:31  5-MIN KDBQ 011745Z 29013KT 10SM OVC070 06/M06 A3002 980 43 200 290/13 RMK AO2
94908KDBQ DBQ20050501115013105/01/05 11:50:31  5-MIN KDBQ 011750Z 29017KT 10SM OVC070 06/M05 A3003 980 45 200 290/17 RMK AO2 SLP176 T00611050 10072 20028 51008
94908KDBQ DBQ20050501115516205/01/05 11:55:31  5-MIN KDBQ 011755Z 30020G27KT 10SM FEW055 OVC070 06/M05 A3003 970 45 200 290/20G27 RMK AO2 PK WND 30027/1755 SLP179 T00611050 10072 20028 53008
94908KDBQ DBQ20050501120012105/01/05 12:00:31  5-MIN KDBQ 011800Z 31019G27KT 10SM OVC065 06/M05 A3003  980 46 100 310/19G27 RMK AO2 PK WND 31027/1757
94908KDBQ DBQ20050501120511405/01/05 12:05:31  5-MIN KDBQ 011805Z 31014KT 10SM OVC065 06/M04 A3003 980 48 100 310/14 RMK AO2 PK WND 31027/1757
94908KDBQ DBQ20050501121012205/01/05 12:10:31  5-MIN KDBQ 011810Z 30014KT 10SM BKN060 OVC070 06/M04  A3002 990 50 100 300/14 RMK AO2 PK WND 31027/1757
94908KDBQ DBQ20050501121513405/01/05 12:15:31  5-MIN KDBQ 011815Z 30016G20KT 10SM FEW044 BKN060 OVC070 06/M04 A3002 990 48 100 300/16G20 RMK AO2 PK WND 31027/1757
94908KDBQ DBQ20050501122012705/01/05 12:20:31  5-MIN KDBQ 011820Z 29019G22KT 10SM FEW044 OVC060 06/M04 A3002 990 48 200 290/19G22 RMK AO2 PK WND 31027/1757
94908KDBQ DBQ20050501122512105/01/05 12:25:31  5-MIN KDBQ 011825Z 30017G22KT 10SM OVC065 06/M05 A3002  990 45 200 300/17G22 RMK AO2 PK WND 31027/1757
94908KDBQ DBQ20050501123012205/01/05 12:30:31  5-MIN KDBQ 011830Z 30017KT 10SM SCT060 OVC070 06/M05  A3001 990 45 200 300/17 RMK AO2 PK WND 31027/1757
94908KDBQ DBQ20050501123512205/01/05 12:35:31  5-MIN KDBQ 011835Z 31014KT 10SM SCT060 OVC075 06/M04  A3001 990 46 200 310/14 RMK AO2 PK WND 31027/1757
94908KDBQ DBQ20050501124012905/01/05 12:40:31  5-MIN KDBQ 011840Z 30015KT 10SM FEW049 SCT055 OVC075  06/M04 A3001 990 46 200 290/15 RMK AO2 PK WND 31027/1757
94908KDBQ DBQ20050501124513405/01/05 12:45:31  5-MIN KDBQ 011845Z 29019G25KT 10SM SCT046 BKN060 OVC075 06/M04 A3002 990 50 100 290/19G25 RMK AO2 PK WND 31027/1757
94908KDBQ DBQ20050501125015205/01/05 12:50:31  5-MIN KDBQ 011850Z 29016G25KT 10SM FEW040 BKN049 OVC070 06/M04 A3002 990 50 100 290/16G25 RMK AO2 PK WND 31027/1757 SLP174  T00561039
94908KDBQ DBQ20050501125514605/01/05 12:55:31  5-MIN KDBQ 011855Z 30014KT 10SM FEW040 SCT050 OVC070  06/M04 A3002 990 50 100 300/14 RMK AO2 PK WND 31027/1757 SLP174 T00561039
94908KDBQ DBQ20050501130011105/01/05 13:00:31  5-MIN KDBQ 011900Z 30017KT 10SM FEW045 SCT055 OVC070  06/M03 A3002 990 51 200 300/17 RMK AO2
94908KDBQ DBQ20050501130510905/01/05 13:05:31  5-MIN KDBQ 011905Z 29018G23KT 10SM SCT048 OVC070 06/M04 A3002 990 50 100 290/18G23 RMK AO2
94908KDBQ DBQ20050501131011605/01/05 13:10:31  5-MIN KDBQ 011910Z 28014G23KT 10SM FEW046 SCT055 OVC070 06/M04 A3002 990 48 200 280/14G23 RMK AO2
94908KDBQ DBQ20050501131511605/01/05 13:15:31  5-MIN KDBQ 011915Z 28019G23KT 10SM FEW046 BKN060 OVC075 06/M04 A3002 990 46 200 280/19G23 RMK AO2
94908KDBQ DBQ20050501132013405/01/05 13:20:31  5-MIN KDBQ 011920Z 30022G26KT 10SM SCT044 BKN060 OVC075 06/M04 A3002 980 50 100 300/22G26 RMK AO2 PK WND 29026/1919
94908KDBQ DBQ20050501132512705/01/05 13:25:31  5-MIN KDBQ 011925Z 29015G26KT 10SM FEW044 OVC065 05/M03 A3002 990 55 100 290/15G26 RMK AO2 PK WND 29026/1919
94908KDBQ DBQ20050501133012905/01/05 13:30:31  5-MIN KDBQ 011930Z 28016KT 10SM SCT049 BKN070 OVC080  06/M04 A3002 990 50 100 280/16 RMK AO2 PK WND 29026/1919
94908KDBQ DBQ20050501133512905/01/05 13:35:31  5-MIN KDBQ 011935Z 28017KT 10SM FEW049 BKN065 OVC080  06/M03 A3002 990 51 200 280/17 RMK AO2 PK WND 29026/1919
94908KDBQ DBQ20050501134013405/01/05 13:40:31  5-MIN KDBQ 011940Z 30019G26KT 10SM FEW046 BKN060 OVC085 06/M04 A3002 990 50 100 300/19G26 RMK AO2 PK WND 28026/1937
94908KDBQ DBQ20050501134512705/01/05 13:45:31  5-MIN KDBQ 011945Z 30015G26KT 10SM FEW043 OVC065 06/M04 A3002 980 50 100 300/15G26 RMK AO2 PK WND 28026/1937
94908KDBQ DBQ20050501135013905/01/05 13:50:31  5-MIN KDBQ 011950Z 29016KT 10SM BKN065 OVC080 06/M04  A3002 980 50 100 290/16 RMK AO2 PK WND 28026/1937 SLP176 T00561039
94908KDBQ DBQ20050501135514405/01/05 13:55:31  5-MIN KDBQ 011955Z 30017G22KT 10SM BKN065 OVC080 06/M04 A3002 980 48 200 300/17G22 RMK AO2 PK WND 28026/1937 SLP176 T00611039
94908KDBQ DBQ20050501140010905/01/05 14:00:31  5-MIN KDBQ 012000Z 29017G22KT 10SM SCT060 OVC080 06/M03 A3002 980 51 200 290/17G22 RMK AO2
94908KDBQ DBQ20050501140510905/01/05 14:05:31  5-MIN KDBQ 012005Z 29017G22KT 10SM SCT060 OVC080 06/M04 A3002 980 48 200 290/17G22 RMK AO2
94908KDBQ DBQ20050501141010905/01/05 14:10:31  5-MIN KDBQ 012010Z 30018G23KT 10SM SCT065 OVC080 06/M04 A3002 980 46 200 300/18G23 RMK AO2
94908KDBQ DBQ20050501141510305/01/05 14:15:31  5-MIN KDBQ 012015Z 29018G23KT 10SM OVC080 06/M04 A3002  990 46 200 290/18G23 RMK AO2
94908KDBQ DBQ20050501142009605/01/05 14:20:31  5-MIN KDBQ 012020Z 28017KT 10SM OVC075 06/M04 A3002 990 46 200 280/17 RMK AO2
94908KDBQ DBQ20050501142510305/01/05 14:25:31  5-MIN KDBQ 012025Z 28019G25KT 10SM OVC075 06/M04 A3002  990 46 200 280/19G25 RMK AO2
94908KDBQ DBQ20050501143012105/01/05 14:30:31  5-MIN KDBQ 012030Z 28018G26KT 10SM OVC075 06/M04 A3002  990 46 200 280/18G26 RMK AO2 PK WND 28026/2027
94908KDBQ DBQ20050501143512705/01/05 14:35:31  5-MIN KDBQ 012035Z 28020G26KT 10SM FEW060 OVC075 06/M04 A3002 990 46 200 270/20G26 RMK AO2 PK WND 28026/2027
94908KDBQ DBQ20050501144012105/01/05 14:40:31  5-MIN KDBQ 012040Z 27022G25KT 10SM OVC070 06/M04 A3002  990 46 200 270/22G25 RMK AO2 PK WND 28026/2027
94908KDBQ DBQ20050501144511405/01/05 14:45:31  5-MIN KDBQ 012045Z 28019KT 10SM OVC070 06/M04 A3002 990 48 200 280/19 RMK AO2 PK WND 28026/2027
94908KDBQ DBQ20050501145015005/01/05 14:50:31  5-MIN KDBQ 012050Z 27018G23KT 10SM BKN070 OVC080 06/M04 A3001 990 46 200 270/18G23 RMK AO2 PK WND 28026/2027 SLP172 T00611044 53008
94908KDBQ DBQ20050501145515205/01/05 14:55:31  5-MIN KDBQ 012055Z 27018G23KT 10SM BKN070 OVC080 06/M04 A3001 1000 48 200 270/18G23 RMK AO2 PK WND 28026/2027 SLP171 T00611039  56008
94908KDBQ DBQ20050501150011605/01/05 15:00:31  5-MIN KDBQ 012100Z 28013G22KT 10SM FEW050 BKN065 OVC080 06/M04 A3001 990 48 200 280/13G22 RMK AO2
94908KDBQ DBQ20050501150511605/01/05 15:05:31  5-MIN KDBQ 012105Z 28019G25KT 10SM SCT050 BKN065 OVC080 06/M04 A3002 990 48 200 280/19G25 RMK AO2
94908KDBQ DBQ20050501151013405/01/05 15:10:31  5-MIN KDBQ 012110Z 29023G28KT 10SM BKN050 BKN065 OVC080 06/M04 A3002 990 50 100 280/23G28 RMK AO2 PK WND 29028/2110
94908KDBQ DBQ20050501151512705/01/05 15:15:31  5-MIN KDBQ 012115Z 29020G28KT 10SM BKN050 OVC065 05/M03 A3002 990 55 100 290/20G28 RMK AO2 PK WND 29028/2110
94908KDBQ DBQ20050501152012105/01/05 15:20:31  5-MIN KDBQ 012120Z 29018G25KT 10SM OVC060 06/M03 A3002  990 53 100 290/18G25 RMK AO2 PK WND 29028/2110
94908KDBQ DBQ20050501152512705/01/05 15:25:31  5-MIN KDBQ 012125Z 30017G24KT 10SM SCT049 OVC065 06/M03 A3002 990 53 100 300/17G24 RMK AO2 PK WND 29028/2110
94908KDBQ DBQ20050501153012205/01/05 15:30:31  5-MIN KDBQ 012130Z 29013KT 10SM SCT049 OVC070 06/M03  A3002 990 53 100 280/13 RMK AO2 PK WND 29028/2110
94908KDBQ DBQ20050501153512205/01/05 15:35:31  5-MIN KDBQ 012135Z 29016KT 10SM FEW050 OVC065 06/M04  A3001 990 50 100 290/16 RMK AO2 PK WND 29028/2110
94908KDBQ DBQ20050501154012105/01/05 15:40:31  5-MIN KDBQ 012140Z 28015G23KT 10SM OVC065 06/M04 A3001  990 48 100 280/15G23 RMK AO2 PK WND 29028/2110
94908KDBQ DBQ20050501154512705/01/05 15:45:31  5-MIN KDBQ 012145Z 29017G24KT 10SM BKN065 OVC080 06/M05 A3001 990 46 100 280/17G24 RMK AO2 PK WND 29028/2110
94908KDBQ DBQ20050501155014405/01/05 15:50:31  5-MIN KDBQ 012150Z 28020G24KT 10SM BKN065 OVC080 06/M04 A3001 990 48 100 280/20G24 RMK AO2 PK WND 29028/2110 SLP172 T00561044
94908KDBQ DBQ20050501155514405/01/05 15:55:31  5-MIN KDBQ 012155Z 28015G24KT 10SM SCT065 OVC080 06/M04 A3001 990 50 100 280/15G24 RMK AO2 PK WND 29028/2110 SLP172 T00561039
94908KDBQ DBQ20050501160010405/01/05 16:00:31  5-MIN KDBQ 012200Z 28014KT 10SM FEW065 OVC085 06/M04  A3001 990 48 200 280/14 RMK AO2
94908KDBQ DBQ20050501160510405/01/05 16:05:31  5-MIN KDBQ 012205Z 29019KT 10SM FEW065 OVC085 06/M04  A3001 990 48 200 280/19 RMK AO2
94908KDBQ DBQ20050501161010405/01/05 16:10:31  5-MIN KDBQ 012210Z 28015KT 10SM FEW060 OVC085 06/M04  A3001 990 48 100 280/15 RMK AO2
94908KDBQ DBQ20050501161513405/01/05 16:15:31  5-MIN KDBQ 012215Z 30023G27KT 10SM FEW048 SCT065 OVC085 06/M04 A3001 990 50 100 300/23G27 RMK AO2 PK WND 31027/2215
94908KDBQ DBQ20050501162013405/01/05 16:20:31  5-MIN KDBQ 012220Z 30016G27KT 10SM FEW046 BKN060 OVC085 05/M03 A3002 990 57 100 300/16G27 RMK AO2 PK WND 31027/2215
94908KDBQ DBQ20050501162513205/01/05 16:25:31  5-MIN KDBQ 012225Z 30018G24KT 10SM FEW037 BKN060 OVC085 04/M02 A3002 990 62 0 300/18G24 RMK AO2 PK WND 31027/2215
94908KDBQ DBQ20050501163013205/01/05 16:30:31  5-MIN KDBQ 012230Z 30016G24KT 10SM FEW037 BKN055 OVC085 04/M02 A3002 990 62 0 300/16G24 RMK AO2 PK WND 31027/2215
94908KDBQ DBQ20050501163513205/01/05 16:35:31  5-MIN KDBQ 012235Z 30015G23KT 10SM SCT045 BKN060 OVC075 04/M03 A3002 990 59 0 290/15G23 RMK AO2 PK WND 31027/2215
94908KDBQ DBQ20050501164013405/01/05 16:40:31  5-MIN KDBQ 012240Z 30015G22KT 10SM SCT049 BKN065 OVC080 05/M03 A3002 990 57 100 300/15G22 RMK AO2 PK WND 31027/2215
94908KDBQ DBQ20050501164512905/01/05 16:45:31  5-MIN KDBQ 012245Z 30014KT 10SM SCT049 BKN070 OVC080  05/M03 A3002 990 57 100 290/14 RMK AO2 PK WND 31027/2215
94908KDBQ DBQ20050501165014605/01/05 16:50:31  5-MIN KDBQ 012250Z 30013KT 10SM FEW045 BKN060 OVC080  05/M03 A3002 990 57 100 290/13 RMK AO2 PK WND 31027/2215 SLP173 T00501028
94908KDBQ DBQ20050501165514405/01/05 16:55:31  5-MIN KDBQ 012255Z 29014G21KT 10SM SCT060 OVC080 05/M03 A3002 990 55 100 290/14G21 RMK AO2 PK WND 31027/2215 SLP173 T00501033
94908KDBQ DBQ20050501170010905/01/05 17:00:31  5-MIN KDBQ 012300Z 29016G20KT 10SM BKN070 OVC080 05/M03 A3001 990 55 100 290/16G20 RMK AO2
94908KDBQ DBQ20050501170510905/01/05 17:05:31  5-MIN KDBQ 012305Z 28013G20KT 10SM BKN065 OVC080 05/M03 A3001 990 55 100 270/13G20 RMK AO2
94908KDBQ DBQ20050501171009405/01/05 17:10:31  5-MIN KDBQ 012310Z 27014KT 10SM OVC070 04/M03 A3001 990 57 0 270/14 RMK AO2
94908KDBQ DBQ20050501171509505/01/05 17:15:31  5-MIN KDBQ 012315Z 28015KT 10SM OVC070 04/M03 A3001 1000 59 0 270/15 RMK AO2
94908KDBQ DBQ20050501172009505/01/05 17:20:31  5-MIN KDBQ 012320Z 27014KT 10SM OVC075 04/M02 A3001 1000 62 0 270/14 RMK AO2
94908KDBQ DBQ20050501172509405/01/05 17:25:31  5-MIN KDBQ 012325Z 28012KT 10SM OVC075 04/M02 A3001 990 62 0 270/12 RMK AO2
94908KDBQ DBQ20050501173010105/01/05 17:30:31  5-MIN KDBQ 012330Z 27015G19KT 10SM OVC075 04/M02 A3001  990 62 0 270/15G19 RMK AO2
94908KDBQ DBQ20050501173510105/01/05 17:35:31  5-MIN KDBQ 012335Z 28015G21KT 10SM OVC075 04/M02 A3001  990 62 0 270/15G21 RMK AO2
94908KDBQ DBQ20050501174010105/01/05 17:40:31  5-MIN KDBQ 012340Z 28018G25KT 10SM OVC075 04/M02 A3001  990 62 0 280/18G25 RMK AO2
94908KDBQ DBQ20050501174511905/01/05 17:45:31  5-MIN KDBQ 012345Z 28019G26KT 10SM OVC075 04/M02 A3001  990 62 0 280/19G26 RMK AO2 PK WND 28026/2345
94908KDBQ DBQ20050501175015505/01/05 17:50:31  5-MIN KDBQ 012350Z 28016G26KT 10SM OVC070 04/M02 A3002  990 62 0 280/16G26 RMK AO2 PK WND 28026/2345 SLP173 T00441022 10061 20044  56008
94908KDBQ DBQ20050501175515505/01/05 17:55:31  5-MIN KDBQ 012355Z 28015G23KT 10SM OVC070 04/M02 A3001  990 62 0 280/15G23 RMK AO2 PK WND 28026/2345 SLP172 T00441022 10061 20044  50001
94908KDBQ DBQ20050501180010105/01/05 18:00:31  5-MIN KDBQ 020000Z 28014G23KT 10SM OVC070 04/M03 A3002  990 62 0 280/14G23 RMK AO2
94908KDBQ DBQ20050501180509405/01/05 18:05:31  5-MIN KDBQ 020005Z 28013KT 10SM OVC070 04/M03 A3002 990 62 0 280/13 RMK AO2
94908KDBQ DBQ20050501181009405/01/05 18:10:31  5-MIN KDBQ 020010Z 28012KT 10SM OVC070 04/M03 A3001 990 62 0 280/12 RMK AO2
94908KDBQ DBQ20050501181510105/01/05 18:15:31  5-MIN KDBQ 020015Z 28012G19KT 10SM OVC070 04/M03 A3001  990 59 0 280/12G19 RMK AO2
94908KDBQ DBQ20050501182009405/01/05 18:20:31  5-MIN KDBQ 020020Z 28012KT 10SM OVC075 04/M03 A3002 990 59 0 280/12 RMK AO2
94908KDBQ DBQ20050501182509405/01/05 18:25:31  5-MIN KDBQ 020025Z 28010KT 10SM OVC075 04/M03 A3002 990 59 0 280/10 RMK AO2
94908KDBQ DBQ20050501183009405/01/05 18:30:31  5-MIN KDBQ 020030Z 28011KT 10SM OVC080 04/M03 A3001 990 59 0 280/11 RMK AO2
94908KDBQ DBQ20050501183510405/01/05 18:35:31  5-MIN KDBQ 020035Z AUTO 27012KT 10SM OVC080 04/M03 A3001 990 57 0 270/12 RMK AO2 TSNO
94908KDBQ DBQ20050501184010405/01/05 18:40:31  5-MIN KDBQ 020040Z AUTO 27011KT 10SM OVC080 04/M03 A3001 990 57 0 270/11 RMK AO2 TSNO
94908KDBQ DBQ20050501184510405/01/05 18:45:31  5-MIN KDBQ 020045Z AUTO 27011KT 10SM OVC080 04/M03 A3001 990 57 0 270/11 RMK AO2 TSNO
94908KDBQ DBQ20050501185012105/01/05 18:50:31  5-MIN KDBQ 020050Z AUTO 28012KT 10SM OVC080 04/M03 A3001 990 57 0 280/12 RMK AO2 SLP172 T00441033 TSNO
94908KDBQ DBQ20050501185512105/01/05 18:55:31  5-MIN KDBQ 020055Z AUTO 27011KT 10SM OVC080 04/M04 A3001 990 55 0 270/11 RMK AO2 SLP172 T00441039 TSNO
94908KDBQ DBQ20050501190010405/01/05 19:00:31  5-MIN KDBQ 020100Z AUTO 28011KT 10SM OVC080 04/M04 A3001 990 57 0 280/11 RMK AO2 TSNO
94908KDBQ DBQ20050501190510405/01/05 19:05:31  5-MIN KDBQ 020105Z AUTO 28011KT 10SM BKN080 04/M04 A3001 990 57 0 280/11 RMK AO2 TSNO
94908KDBQ DBQ20050501191010705/01/05 19:10:31  5-MIN KDBQ 020110Z AUTO 27010KT 10SM BKN080 03/M04 A3002 990 59 -100 270/10 RMK AO2 TSNO
94908KDBQ DBQ20050501191511505/01/05 19:15:31  5-MIN KDBQ 020115Z AUTO 27010KT 10SM FEW065 SCT080  03/M04 A3001 990 59 -100 270/10 RMK AO2 TSNO
94908KDBQ DBQ20050501192011505/01/05 19:20:31  5-MIN KDBQ 020120Z AUTO 27009KT 10SM FEW070 SCT080  03/M04 A3001 990 59 -100 270/09 RMK AO2 TSNO
94908KDBQ DBQ20050501192510705/01/05 19:25:31  5-MIN KDBQ 020125Z AUTO 27008KT 10SM FEW070 03/M04 A3002 990 59 -100 270/08 RMK AO2 TSNO
94908KDBQ DBQ20050501193010705/01/05 19:30:31  5-MIN KDBQ 020130Z AUTO 28009KT 10SM FEW070 03/M04 A3002 990 61 -200 270/09 RMK AO2 TSNO
94908KDBQ DBQ20050501193510705/01/05 19:35:31  5-MIN KDBQ 020135Z AUTO 27008KT 10SM FEW070 03/M04 A3002 990 61 -200 270/08 RMK AO2 TSNO
94908KDBQ DBQ20050501194010705/01/05 19:40:31  5-MIN KDBQ 020140Z AUTO 27008KT 10SM SCT065 03/M04 A3002 990 59 -200 270/08 RMK AO2 TSNO
94908KDBQ DBQ20050501194510705/01/05 19:45:31  5-MIN KDBQ 020145Z AUTO 27008KT 10SM SCT065 03/M04 A3002 990 61 -200 270/08 RMK AO2 TSNO
94908KDBQ DBQ20050501195012405/01/05 19:50:31  5-MIN KDBQ 020150Z AUTO 27008KT 10SM BKN065 03/M04 A3002 990 59 -100 270/08 RMK AO2 SLP175 T00331039 TSNO
94908KDBQ DBQ20050501195512405/01/05 19:55:31  5-MIN KDBQ 020155Z AUTO 27009KT 10SM BKN060 03/M04 A3002 980 57 -100 270/09 RMK AO2 SLP175 T00331044 TSNO
94908KDBQ DBQ20050501200010405/01/05 20:00:31  5-MIN KDBQ 020200Z AUTO 27010KT 10SM BKN065 04/M04 A3002 980 54 0 270/10 RMK AO2 TSNO
94908KDBQ DBQ20050501200510405/01/05 20:05:31  5-MIN KDBQ 020205Z AUTO 27010KT 10SM OVC065 04/M04 A3002 980 54 0 260/10 RMK AO2 TSNO
94908KDBQ DBQ20050501201010705/01/05 20:10:31  5-MIN KDBQ 020210Z AUTO 27010KT 10SM OVC065 03/M04 A3003 980 57 -100 270/10 RMK AO2 TSNO
94908KDBQ DBQ20050501201510705/01/05 20:15:31  5-MIN KDBQ 020215Z AUTO 27011KT 10SM BKN065 03/M04 A3003 980 57 -100 270/11 RMK AO2 TSNO
94908KDBQ DBQ20050501202010705/01/05 20:20:31  5-MIN KDBQ 020220Z AUTO 26009KT 10SM BKN065 03/M04 A3003 980 59 -200 260/09 RMK AO2 TSNO
94908KDBQ DBQ20050501202510705/01/05 20:25:31  5-MIN KDBQ 020225Z AUTO 27008KT 10SM BKN070 03/M04 A3003 980 59 -200 260/08 RMK AO2 TSNO
94908KDBQ DBQ20050501203010705/01/05 20:30:31  5-MIN KDBQ 020230Z AUTO 27011KT 10SM BKN075 03/M04 A3003 980 59 -200 270/11 RMK AO2 TSNO
94908KDBQ DBQ20050501203510705/01/05 20:35:31  5-MIN KDBQ 020235Z AUTO 27014KT 10SM BKN075 03/M04 A3003 980 57 -100 270/14 RMK AO2 TSNO
94908KDBQ DBQ20050501204010705/01/05 20:40:31  5-MIN KDBQ 020240Z AUTO 28011KT 10SM SCT080 03/M04 A3003 980 59 -100 270/11 RMK AO2 TSNO
94908KDBQ DBQ20050501204511505/01/05 20:45:31  5-MIN KDBQ 020245Z AUTO 28010KT 10SM SCT065 BKN080  03/M04 A3003 980 59 -100 270/10 RMK AO2 TSNO
94908KDBQ DBQ20050501205013805/01/05 20:50:31  5-MIN KDBQ 020250Z AUTO 28009KT 10SM SCT065 BKN080  03/M04 A3003 980 59 -100 280/09 RMK AO2 SLP176 T00331039 50001 TSNO
94908KDBQ DBQ20050501205514505/01/05 20:55:31  5-MIN KDBQ 020255Z AUTO 28010KT 10SM FEW060 BKN075  BKN090 03/M03 A3003 980 61 -100 280/10 RMK AO2 SLP176 T00331033 53004 TSNO
94908KDBQ DBQ20050501210011505/01/05 21:00:31  5-MIN KDBQ 020300Z AUTO 27009KT 10SM FEW065 BKN085  03/M03 A3003 980 61 -100 270/09 RMK AO2 TSNO
94908KDBQ DBQ20050501210512205/01/05 21:05:31  5-MIN KDBQ 020305Z AUTO 27009KT 10SM FEW050 SCT060  OVC085 03/M03 A3003 980 61 -100 270/09 RMK AO2 TSNO
94908KDBQ DBQ20050501211012205/01/05 21:10:31  5-MIN KDBQ 020310Z AUTO 27010KT 10SM FEW050 BKN065  OVC085 03/M03 A3003 980 61 -100 270/10 RMK AO2 TSNO
94908KDBQ DBQ20050501211512205/01/05 21:15:31  5-MIN KDBQ 020315Z AUTO 27012KT 10SM FEW050 BKN070  OVC085 03/M03 A3003 980 61 -100 270/12 RMK AO2 TSNO
94908KDBQ DBQ20050501212011505/01/05 21:20:31  5-MIN KDBQ 020320Z AUTO 27010KT 10SM BKN075 OVC085  03/M03 A3003 980 61 -100 270/10 RMK AO2 TSNO
94908KDBQ DBQ20050501212511505/01/05 21:25:31  5-MIN KDBQ 020325Z AUTO 27012KT 10SM BKN070 OVC085  03/M03 A3002 980 61 -100 270/12 RMK AO2 TSNO
94908KDBQ DBQ20050501213011505/01/05 21:30:31  5-MIN KDBQ 020330Z AUTO 27012KT 10SM BKN070 OVC085  03/M03 A3003 980 61 -100 270/12 RMK AO2 TSNO
94908KDBQ DBQ20050501213511505/01/05 21:35:31  5-MIN KDBQ 020335Z AUTO 28011KT 10SM BKN075 OVC085  03/M03 A3003 980 61 -100 280/11 RMK AO2 TSNO
94908KDBQ DBQ20050501214011505/01/05 21:40:31  5-MIN KDBQ 020340Z AUTO 28010KT 10SM BKN075 OVC090  03/M03 A3003 980 61 -100 270/10 RMK AO2 TSNO
94908KDBQ DBQ20050501214512205/01/05 21:45:31  5-MIN KDBQ 020345Z AUTO 28012KT 10SM FEW038 BKN075  OVC090 03/M03 A3003 980 61 -100 280/12 RMK AO2 TSNO
94908KDBQ DBQ20050501215013905/01/05 21:50:31  5-MIN KDBQ 020350Z AUTO 29012KT 10SM FEW038 BKN070  OVC090 03/M03 A3003 980 61 -100 290/12 RMK AO2 SLP177 T00331033 TSNO
94908KDBQ DBQ20050501215513205/01/05 21:55:31  5-MIN KDBQ 020355Z AUTO 29011KT 10SM FEW038 OVC065  03/M03 A3003 980 64 -100 290/11 RMK AO2 SLP176 T00331028 TSNO
94908KDBQ DBQ20050501220011505/01/05 22:00:31  5-MIN KDBQ 020400Z AUTO 30012KT 10SM FEW038 OVC070  03/M02 A3003 980 67 -100 290/12 RMK AO2 TSNO
94908KDBQ DBQ20050501220511505/01/05 22:05:31  5-MIN KDBQ 020405Z AUTO 29010KT 10SM FEW038 OVC065  03/M02 A3003 980 72 -200 290/10 RMK AO2 TSNO
94908KDBQ DBQ20050501221012205/01/05 22:10:31  5-MIN KDBQ 020410Z AUTO 30009KT 10SM FEW038 BKN060  OVC075 03/M02 A3002 980 72 -200 300/09 RMK AO2 TSNO
94908KDBQ DBQ20050501221511505/01/05 22:15:31  5-MIN KDBQ 020415Z AUTO 29009KT 10SM BKN065 OVC080  03/M02 A3002 980 72 -200 290/09 RMK AO2 TSNO
94908KDBQ DBQ20050501222011505/01/05 22:20:31  5-MIN KDBQ 020420Z AUTO 29008KT 10SM BKN070 BKN080  03/M02 A3002 990 72 -200 280/08 RMK AO2 TSNO
94908KDBQ DBQ20050501222511505/01/05 22:25:31  5-MIN KDBQ 020425Z AUTO 28008KT 10SM SCT070 BKN085  03/M02 A3002 990 72 -200 280/08 RMK AO2 TSNO
94908KDBQ DBQ20050501223012205/01/05 22:30:31  5-MIN KDBQ 020430Z AUTO 27009KT 10SM FEW060 BKN085  BKN110 02/M02 A3002 990 75 -200 270/09 RMK AO2 TSNO
94908KDBQ DBQ20050501223511505/01/05 22:35:31  5-MIN KDBQ 020435Z AUTO 27008KT 10SM BKN085 BKN110  03/M02 A3002 990 72 -200 270/08 RMK AO2 TSNO
94908KDBQ DBQ20050501224011505/01/05 22:40:31  5-MIN KDBQ 020440Z AUTO 27009KT 10SM FEW080 BKN100  02/M02 A3002 990 75 -200 270/09 RMK AO2 TSNO
94908KDBQ DBQ20050501224510705/01/05 22:45:31  5-MIN KDBQ 020445Z AUTO 27008KT 10SM BKN100 02/M02 A3002 990 75 -200 270/08 RMK AO2 TSNO
94908KDBQ DBQ20050501225012405/01/05 22:50:31  5-MIN KDBQ 020450Z AUTO 27009KT 10SM OVC110 02/M02 A3001 990 75 -200 270/09 RMK AO2 SLP172 T00221017 TSNO
94908KDBQ DBQ20050501225512405/01/05 22:55:31  5-MIN KDBQ 020455Z AUTO 27010KT 10SM BKN110 03/M02 A3001 990 72 -200 270/10 RMK AO2 SLP173 T00281017 TSNO
94908KDBQ DBQ20050501230011505/01/05 23:00:31  5-MIN KDBQ 020500Z AUTO 28011KT 10SM SCT100 BKN120  03/M02 A3002 990 72 -200 280/11 RMK AO2 TSNO
94908KDBQ DBQ20050501230511505/01/05 23:05:31  5-MIN KDBQ 020505Z AUTO 28011KT 10SM FEW090 SCT110  03/M02 A3002 990 72 -200 280/11 RMK AO2 TSNO
94908KDBQ DBQ20050501231010705/01/05 23:10:31  5-MIN KDBQ 020510Z AUTO 28011KT 10SM SCT110 03/M02 A3002 990 72 -200 280/11 RMK AO2 TSNO
94908KDBQ DBQ20050501231511505/01/05 23:15:31  5-MIN KDBQ 020515Z AUTO 28012KT 10SM SCT095 BKN120  03/M02 A3002 990 72 -200 280/12 RMK AO2 TSNO
94908KDBQ DBQ20050501232011505/01/05 23:20:31  5-MIN KDBQ 020520Z AUTO 29011KT 10SM FEW039 BKN095  03/M02 A3002 990 72 -200 280/11 RMK AO2 TSNO
94908KDBQ DBQ20050501232510705/01/05 23:25:31  5-MIN KDBQ 020525Z AUTO 28011KT 10SM BKN095 02/M02 A3002 990 75 -200 280/11 RMK AO2 TSNO
94908KDBQ DBQ20050501233010705/01/05 23:30:31  5-MIN KDBQ 020530Z AUTO 28011KT 10SM SCT100 03/M02 A3002 990 72 -200 280/11 RMK AO2 TSNO
94908KDBQ DBQ20050501233510705/01/05 23:35:31  5-MIN KDBQ 020535Z AUTO 29011KT 10SM SCT095 02/M02 A3002 990 75 -200 280/11 RMK AO2 TSNO
94908KDBQ DBQ20050501234010705/01/05 23:40:31  5-MIN KDBQ 020540Z AUTO 29012KT 10SM SCT095 02/M02 A3002 990 75 -200 290/12 RMK AO2 TSNO
94908KDBQ DBQ20050501234510705/01/05 23:45:31  5-MIN KDBQ 020545Z AUTO 29011KT 10SM FEW095 02/M02 A3001 990 75 -200 290/11 RMK AO2 TSNO
94908KDBQ DBQ20050501235015305/01/05 23:50:31  5-MIN KDBQ 020550Z AUTO 29010KT 10SM FEW090 02/M02 A3001 990 75 -200 290/10 RMK AO2 SLP172 T00221017 10044 20022 400721011 53004  TSNO
94908KDBQ DBQ20050501235516105/01/05 23:55:31  5-MIN KDBQ 020555Z AUTO 28011KT 10SM SCT090 SCT110  02/M02 A3001 990 75 -200 280/11 RMK AO2 SLP173 T00221017 10044 20022  400721011 58004 TSNO
94908KDBQ DBQ20050502000010705/02/05 00:00:38  5-MIN KDBQ 020600Z AUTO 28010KT 10SM BKN095 02/M02 A3002 990 75 -200 280/10 RMK AO2 TSNO
94908KDBQ DBQ20050502000510705/02/05 00:05:31  5-MIN KDBQ 020605Z AUTO 28010KT 10SM BKN100 02/M02 A3001 990 78 -300 280/10 RMK AO2 TSNO
94908KDBQ DBQ20050502001010705/02/05 00:10:31  5-MIN KDBQ 020610Z AUTO 28010KT 10SM BKN100 02/M02 A3001 990 78 -300 280/10 RMK AO2 TSNO
94908KDBQ DBQ20050502001510705/02/05 00:15:33  5-MIN KDBQ 020615Z AUTO 28010KT 10SM BKN100 02/M02 A3001 990 78 -300 280/10 RMK AO2 TSNO
94908KDBQ DBQ20050502002010705/02/05 00:20:31  5-MIN KDBQ 020620Z AUTO 28010KT 10SM BKN100 02/M02 A3001 990 78 -300 280/10 RMK AO2 TSNO
94908KDBQ DBQ20050502002510805/02/05 00:25:31  5-MIN KDBQ 020625Z AUTO 28010KT 10SM SCT100 02/M02 A3001 1000 78 -300 280/10 RMK AO2 TSNO
94908KDBQ DBQ20050502003010805/02/05 00:30:31  5-MIN KDBQ 020630Z AUTO 28010KT 10SM BKN100 02/M02 A3001 1000 78 -300 280/10 RMK AO2 TSNO
94908KDBQ DBQ20050502003510805/02/05 00:35:31  5-MIN KDBQ 020635Z AUTO 28011KT 10SM BKN100 02/M02 A3001 1000 78 -300 280/11 RMK AO2 TSNO
94908KDBQ DBQ20050502004010805/02/05 00:40:31  5-MIN KDBQ 020640Z AUTO 28011KT 10SM BKN100 02/M02 A3001 1000 78 -300 280/11 RMK AO2 TSNO
94908KDBQ DBQ20050502004510805/02/05 00:45:31  5-MIN KDBQ 020645Z AUTO 28013KT 10SM BKN100 02/M02 A3001 1000 78 -300 280/13 RMK AO2 TSNO
94908KDBQ DBQ20050502005012505/02/05 00:50:31  5-MIN KDBQ 020650Z AUTO 28012KT 10SM BKN095 02/M02 A3001 1000 78 -300 280/12 RMK AO2 SLP170 T00171017 TSNO
94908KDBQ DBQ20050502005512505/02/05 00:55:31  5-MIN KDBQ 020655Z AUTO 28011KT 10SM BKN090 02/M02 A3001 1000 78 -300 280/11 RMK AO2 SLP170 T00171017 TSNO
94908KDBQ DBQ20050502010010805/02/05 01:00:31  5-MIN KDBQ 020700Z AUTO 28012KT 10SM BKN090 02/M02 A3001 1000 78 -300 280/12 RMK AO2 TSNO
94908KDBQ DBQ20050502010510805/02/05 01:05:31  5-MIN KDBQ 020705Z AUTO 28013KT 10SM SCT090 02/M02 A3001 1000 78 -300 280/13 RMK AO2 TSNO
94908KDBQ DBQ20050502011011605/02/05 01:10:31  5-MIN KDBQ 020710Z AUTO 28011KT 10SM FEW080 SCT100  01/M02 A3001 1000 82 -400 280/11 RMK AO2 TSNO
94908KDBQ DBQ20050502011510805/02/05 01:15:31  5-MIN KDBQ 020715Z AUTO 28013KT 10SM FEW080 01/M02 A3001 1000 82 -400 280/13 RMK AO2 TSNO
94908KDBQ DBQ20050502012010805/02/05 01:20:31  5-MIN KDBQ 020720Z AUTO 28012KT 10SM FEW080 01/M02 A3001 1000 82 -400 280/12 RMK AO2 TSNO
94908KDBQ DBQ20050502012510805/02/05 01:25:31  5-MIN KDBQ 020725Z AUTO 28013KT 10SM FEW085 01/M02 A3001 1000 82 -400 280/13 RMK AO2 TSNO
94908KDBQ DBQ20050502013010805/02/05 01:30:31  5-MIN KDBQ 020730Z AUTO 28012KT 10SM FEW065 01/M02 A3000 1000 82 -400 280/12 RMK AO2 TSNO
94908KDBQ DBQ20050502013510805/02/05 01:35:31  5-MIN KDBQ 020735Z AUTO 28012KT 10SM FEW065 01/M02 A3000 1000 82 -400 280/12 RMK AO2 TSNO
94908KDBQ DBQ20050502014010805/02/05 01:40:31  5-MIN KDBQ 020740Z AUTO 28011KT 10SM SCT070 01/M02 A3000 1000 82 -400 280/11 RMK AO2 TSNO
94908KDBQ DBQ20050502014511605/02/05 01:45:31  5-MIN KDBQ 020745Z AUTO 27011KT 10SM BKN070 BKN085  01/M02 A3000 1010 82 -400 270/11 RMK AO2 TSNO
94908KDBQ DBQ20050502015013305/02/05 01:50:31  5-MIN KDBQ 020750Z AUTO 27011KT 10SM BKN070 BKN085  01/M02 A3000 1010 85 -400 270/11 RMK AO2 SLP167 T00061017 TSNO
94908KDBQ DBQ20050502015512505/02/05 01:55:31  5-MIN KDBQ 020755Z AUTO 28012KT 10SM BKN070 01/M02 A3000 1010 85 -400 270/12 RMK AO2 SLP167 T00061017 TSNO
94908KDBQ DBQ20050502020010805/02/05 02:00:31  5-MIN KDBQ 020800Z AUTO 27012KT 10SM OVC070 01/M02 A3000 1010 85 -400 270/12 RMK AO2 TSNO
94908KDBQ DBQ20050502020510805/02/05 02:05:31  5-MIN KDBQ 020805Z AUTO 28012KT 10SM OVC070 01/M02 A3000 1010 85 -400 280/12 RMK AO2 TSNO
94908KDBQ DBQ20050502021012305/02/05 02:10:31  5-MIN KDBQ 020810Z AUTO 28011KT 10SM FEW055 BKN070  OVC100 01/M02 A3000 1010 85 -400 280/11 RMK AO2 TSNO
94908KDBQ DBQ20050502021512305/02/05 02:15:31  5-MIN KDBQ 020815Z AUTO 28010KT 10SM BKN065 BKN080  OVC100 01/M02 A3000 1010 85 -400 280/10 RMK AO2 TSNO
94908KDBQ DBQ20050502022011605/02/05 02:20:31  5-MIN KDBQ 020820Z AUTO 28012KT 10SM BKN065 OVC100  01/M02 A2999 1010 82 -300 280/12 RMK AO2 TSNO
94908KDBQ DBQ20050502022512305/02/05 02:25:31  5-MIN KDBQ 020825Z AUTO 28014KT 10SM BKN060 BKN070  OVC100 01/M02 A3000 1010 82 -300 280/14 RMK AO2 TSNO
94908KDBQ DBQ20050502023011605/02/05 02:30:31  5-MIN KDBQ 020830Z AUTO 28013KT 10SM BKN060 OVC085  01/M02 A3000 1010 82 -400 280/13 RMK AO2 TSNO
94908KDBQ DBQ20050502023511605/02/05 02:35:31  5-MIN KDBQ 020835Z AUTO 28013KT 10SM BKN060 OVC085  01/M02 A3000 1000 82 -400 280/13 RMK AO2 TSNO
94908KDBQ DBQ20050502024011605/02/05 02:40:31  5-MIN KDBQ 020840Z AUTO 28014KT 10SM BKN055 OVC075  01/M02 A3000 1000 82 -400 280/14 RMK AO2 TSNO
94908KDBQ DBQ20050502024511605/02/05 02:45:31  5-MIN KDBQ 020845Z AUTO 29012KT 10SM BKN055 OVC075  01/M02 A3000 1000 82 -400 280/12 RMK AO2 TSNO
94908KDBQ DBQ20050502025013905/02/05 02:50:31  5-MIN KDBQ 020850Z AUTO 28012KT 10SM BKN060 OVC080  01/M02 A3000 1000 82 -400 280/12 RMK AO2 SLP168 T00111017 58004 TSNO
94908KDBQ DBQ20050502025513905/02/05 02:55:31  5-MIN KDBQ 020855Z AUTO 28012KT 10SM SCT060 OVC075  01/M02 A3000 1000 82 -400 280/12 RMK AO2 SLP169 T00111017 55004 TSNO
94908KDBQ DBQ20050502030011605/02/05 03:00:31  5-MIN KDBQ 020900Z AUTO 29011KT 10SM FEW055 OVC080  01/M02 A3000 1000 82 -400 290/11 RMK AO2 TSNO
94908KDBQ DBQ20050502030510805/02/05 03:05:31  5-MIN KDBQ 020905Z AUTO 29010KT 10SM OVC085 01/M02 A3000 1000 82 -400 280/10 RMK AO2 TSNO
94908KDBQ DBQ20050502031010805/02/05 03:10:31  5-MIN KDBQ 020910Z AUTO 29012KT 10SM OVC090 01/M02 A3000 1000 82 -400 280/12 RMK AO2 TSNO
94908KDBQ DBQ20050502031510805/02/05 03:15:31  5-MIN KDBQ 020915Z AUTO 29012KT 10SM BKN090 01/M02 A3000 1000 78 -400 280/12 RMK AO2 TSNO
94908KDBQ DBQ20050502032010805/02/05 03:20:31  5-MIN KDBQ 020920Z AUTO 28012KT 10SM BKN090 01/M02 A3000 1000 82 -400 280/12 RMK AO2 TSNO
94908KDBQ DBQ20050502032510805/02/05 03:25:31  5-MIN KDBQ 020925Z AUTO 28011KT 10SM BKN090 01/M02 A3000 1000 82 -400 280/11 RMK AO2 TSNO
94908KDBQ DBQ20050502033010805/02/05 03:30:31  5-MIN KDBQ 020930Z AUTO 29010KT 10SM BKN090 01/M02 A3000 1000 82 -400 290/10 RMK AO2 TSNO
94908KDBQ DBQ20050502033510805/02/05 03:35:31  5-MIN KDBQ 020935Z AUTO 29010KT 10SM BKN085 01/M02 A3000 1000 82 -400 290/10 RMK AO2 TSNO
94908KDBQ DBQ20050502034010805/02/05 03:40:31  5-MIN KDBQ 020940Z AUTO 29011KT 10SM BKN085 01/M02 A3001 1000 82 -400 280/11 RMK AO2 TSNO
94908KDBQ DBQ20050502034510805/02/05 03:45:31  5-MIN KDBQ 020945Z AUTO 29010KT 10SM OVC090 01/M02 A3001 1000 82 -400 290/10 RMK AO2 TSNO
94908KDBQ DBQ20050502035013305/02/05 03:50:31  5-MIN KDBQ 020950Z AUTO 29009KT 10SM FEW075 OVC090  01/M02 A3001 1000 82 -400 290/09 RMK AO2 SLP170 T00061022 TSNO
94908KDBQ DBQ20050502035512505/02/05 03:55:31  5-MIN KDBQ 020955Z AUTO 29011KT 10SM OVC090 01/M02 A3001 1000 82 -400 290/11 RMK AO2 SLP170 T00061022 TSNO
94908KDBQ DBQ20050502040011605/02/05 04:00:31  5-MIN KDBQ 021000Z AUTO 29012KT 10SM FEW070 OVC090  01/M02 A3001 1000 82 -400 290/12 RMK AO2 TSNO
94908KDBQ DBQ20050502040512305/02/05 04:05:31  5-MIN KDBQ 021005Z AUTO 29012KT 10SM FEW021 SCT070  OVC090 01/M02 A3001 1000 82 -400 290/12 RMK AO2 TSNO
94908KDBQ DBQ20050502041012305/02/05 04:10:31  5-MIN KDBQ 021010Z AUTO 29013KT 10SM FEW021 BKN080  OVC095 01/M02 A3001 1000 82 -400 290/13 RMK AO2 TSNO
94908KDBQ DBQ20050502041512305/02/05 04:15:31  5-MIN KDBQ 021015Z AUTO 30013KT 10SM SCT021 BKN080  OVC095 01/M02 A3001 1000 82 -400 300/13 RMK AO2 TSNO
94908KDBQ DBQ20050502042012305/02/05 04:20:31  5-MIN KDBQ 021020Z AUTO 30011KT 10SM FEW021 BKN075  OVC095 01/M03 A3001 1000 78 -400 300/11 RMK AO2 TSNO
94908KDBQ DBQ20050502042511605/02/05 04:25:31  5-MIN KDBQ 021025Z AUTO 30011KT 10SM FEW021 OVC075  00/M03 A3001 1000 81 -500 300/11 RMK AO2 TSNO
94908KDBQ DBQ20050502043011605/02/05 04:30:31  5-MIN KDBQ 021030Z AUTO 30013KT 10SM FEW021 BKN080  00/M03 A3001 1000 81 -500 300/13 RMK AO2 TSNO
94908KDBQ DBQ20050502043511605/02/05 04:35:31  5-MIN KDBQ 021035Z AUTO 30011KT 10SM FEW023 BKN080  00/M03 A3001 1000 81 -500 290/11 RMK AO2 TSNO
94908KDBQ DBQ20050502044011505/02/05 04:40:31  5-MIN KDBQ 021040Z AUTO 29011KT 10SM FEW023 BKN080  00/M03 A3001 990 81 -500 290/11 RMK AO2 TSNO
94908KDBQ DBQ20050502044512205/02/05 04:45:31  5-MIN KDBQ 021045Z AUTO 30012KT 10SM FEW046 SCT060  BKN080 00/M03 A3001 990 81 -500 300/12 RMK AO2 TSNO
94908KDBQ DBQ20050502045013405/02/05 04:50:31  5-MIN KDBQ 021050Z 30011KT 10SM SCT023 SCT046 BKN060  00/M02 A3001 990 85 -500 300/11 RMK AO2 SLP173 T00001022 TSNO
94908KDBQ DBQ20050502045512805/02/05 04:55:31  5-MIN KDBQ 021055Z 31011KT 9SM FEW017 BKN023 BKN044  00/M02 A3002 990 85 -500 310/11 RMK AO2 SLP174 T00001022
94908KDBQ DBQ20050502050012805/02/05 05:00:31  5-MIN KDBQ 021100Z 31009KT 7SM -SN SCT017 BKN023 BKN044 00/M02 A3002 990 85 -500 310/09 RMK AO2 SNB1056 P0000
94908KDBQ DBQ20050502050512805/02/05 05:05:31  5-MIN KDBQ 021105Z 31011KT 7SM -SN SCT015 BKN023 OVC060 01/M02 A3002 990 82 -400 310/11 RMK AO2 SNB1056 P0000
94908KDBQ DBQ20050502051013405/02/05 05:10:31  5-MIN KDBQ 021110Z 31017G21KT 9SM SCT015 BKN023 OVC060  01/M02 A3002 990 82 -400 310/17G21 RMK AO2 SNB1056E07 P0000
94908KDBQ DBQ20050502051512905/02/05 05:15:31  5-MIN KDBQ 021115Z 31016KT 10SM SCT015 BKN023 OVC034  00/M03 A3002 980 78 -500 310/16 RMK AO2 SNB1056E07 P0000
94908KDBQ DBQ20050502052012905/02/05 05:20:31  5-MIN KDBQ 021120Z 32012KT 10SM FEW015 SCT021 OVC032  00/M03 A3002 980 78 -500 320/12 RMK AO2 SNB1056E07 P0000
94908KDBQ DBQ20050502052512205/02/05 05:25:31  5-MIN KDBQ 021125Z 31018KT 10SM FEW015 OVC032 00/M04  A3003 980 75 -500 310/18 RMK AO2 SNB1056E07 P0000
94908KDBQ DBQ20050502053012705/02/05 05:30:31  5-MIN KDBQ 021130Z 32015G20KT 10SM FEW015 OVC032 00/M04 A3003 980 75 -500 320/15G20 RMK AO2 SNB1056E07 P0000
94908KDBQ DBQ20050502053512205/02/05 05:35:31  5-MIN KDBQ 021135Z 31011KT 10SM BKN034 OVC042 00/M04  A3003 980 75 -500 310/11 RMK AO2 SNB1056E07 P0000
94908KDBQ DBQ20050502054011405/02/05 05:40:31  5-MIN KDBQ 021140Z 32013KT 10SM OVC034 00/M04 A3003 970 75 -500 320/13 RMK AO2 SNB1056E07 P0000
94908KDBQ DBQ20050502054512205/02/05 05:45:31  5-MIN KDBQ 021145Z 31012KT 10SM BKN034 OVC041 00/M04  A3003 970 75 -500 310/12 RMK AO2 SNB1056E07 P0000
94908KDBQ DBQ20050502055016405/02/05 05:50:31  5-MIN KDBQ 021150Z 31013KT 10SM BKN034 OVC041 00/M04  A3003 980 75 -500 310/13 RMK AO2 SNB1056E07 SLP179 P0000 60000 T00001039  10022 20000 55004
94908KDBQ DBQ20050502055515505/02/05 05:55:31  5-MIN KDBQ 021155Z 31013KT 10SM OVC038 00/M04 A3003 970 75 -500 310/13 RMK AO2 SNB1056E07 SLP180 P0000 60000 T00001039 10022 20000 53010
94908KDBQ DBQ20050502060009705/02/05 06:00:31  5-MIN KDBQ 021200Z 32014KT 10SM OVC040 00/M04 A3004 970 75 -500 310/14 RMK AO2
94908KDBQ DBQ20050502060509705/02/05 06:05:31  5-MIN KDBQ 021205Z 32013KT 10SM OVC040 00/M04 A3004 970 75 -500 310/13 RMK AO2
94908KDBQ DBQ20050502061009705/02/05 06:10:31  5-MIN KDBQ 021210Z 31013KT 10SM OVC038 00/M04 A3004 970 75 -500 310/13 RMK AO2
94908KDBQ DBQ20050502061509705/02/05 06:15:31  5-MIN KDBQ 021215Z 31011KT 10SM OVC038 00/M04 A3004 970 75 -500 310/11 RMK AO2
94908KDBQ DBQ20050502062009705/02/05 06:20:31  5-MIN KDBQ 021220Z 32011KT 10SM OVC038 00/M04 A3004 970 75 -500 320/11 RMK AO2
94908KDBQ DBQ20050502062509705/02/05 06:25:31  5-MIN KDBQ 021225Z 32014KT 10SM OVC038 01/M04 A3005 960 72 -500 310/14 RMK AO2
94908KDBQ DBQ20050502063009705/02/05 06:30:31  5-MIN KDBQ 021230Z 32012KT 10SM OVC038 01/M04 A3005 960 72 -500 310/12 RMK AO2
94908KDBQ DBQ20050502063509705/02/05 06:35:31  5-MIN KDBQ 021235Z 31011KT 10SM OVC038 01/M04 A3005 960 72 -500 310/11 RMK AO2
94908KDBQ DBQ20050502064009705/02/05 06:40:31  5-MIN KDBQ 021240Z 31012KT 10SM OVC038 01/M04 A3005 960 72 -500 310/12 RMK AO2
94908KDBQ DBQ20050502064509705/02/05 06:45:31  5-MIN KDBQ 021245Z 31011KT 10SM OVC040 01/M04 A3005 950 72 -500 310/11 RMK AO2
94908KDBQ DBQ20050502065011405/02/05 06:50:31  5-MIN KDBQ 021250Z 31013KT 10SM OVC040 01/M04 A3006 950 72 -500 310/13 RMK AO2 SLP189 T00061039
94908KDBQ DBQ20050502065512205/02/05 06:55:31  5-MIN KDBQ 021255Z 32014KT 10SM FEW023 OVC040 01/M04  A3006 950 72 -500 320/14 RMK AO2 SLP189 T00061039
94908KDBQ DBQ20050502070010505/02/05 07:00:31  5-MIN KDBQ 021300Z 31012KT 10SM FEW023 OVC042 01/M04  A3006 950 72 -500 310/12 RMK AO2
94908KDBQ DBQ20050502070510505/02/05 07:05:31  5-MIN KDBQ 021305Z 32012KT 10SM FEW025 OVC042 01/M04  A3006 950 69 -400 320/12 RMK AO2
94908KDBQ DBQ20050502071010505/02/05 07:10:31  5-MIN KDBQ 021310Z 32012KT 10SM SCT025 OVC042 01/M04  A3006 950 69 -400 320/12 RMK AO2
94908KDBQ DBQ20050502071510505/02/05 07:15:31  5-MIN KDBQ 021315Z 32014KT 10SM SCT025 OVC042 01/M04  A3006 950 66 -400 320/14 RMK AO2
94908KDBQ DBQ20050502072010505/02/05 07:20:31  5-MIN KDBQ 021320Z 31013KT 10SM SCT027 OVC044 01/M04  A3007 940 66 -400 310/13 RMK AO2
94908KDBQ DBQ20050502072510505/02/05 07:25:31  5-MIN KDBQ 021325Z 31014KT 10SM BKN027 OVC044 01/M04  A3007 940 66 -400 300/14 RMK AO2
94908KDBQ DBQ20050502073010505/02/05 07:30:31  5-MIN KDBQ 021330Z 31014KT 10SM BKN027 OVC044 01/M04  A3007 940 66 -400 310/14 RMK AO2
94908KDBQ DBQ20050502073511205/02/05 07:35:31  5-MIN KDBQ 021335Z 32017KT 10SM BKN027 BKN031 OVC044  01/M04 A3007 940 66 -400 320/17 RMK AO2
94908KDBQ DBQ20050502074011205/02/05 07:40:31  5-MIN KDBQ 021340Z 31015KT 10SM BKN029 BKN037 OVC044  01/M04 A3007 940 66 -400 310/15 RMK AO2
94908KDBQ DBQ20050502074511005/02/05 07:45:31  5-MIN KDBQ 021345Z 31013G20KT 10SM BKN029 OVC040 01/M04 A3007 940 66 -400 310/13G20 RMK AO2
94908KDBQ DBQ20050502075012705/02/05 07:50:31  5-MIN KDBQ 021350Z 30017G20KT 10SM BKN029 OVC040 01/M05 A3007 940 64 -400 300/17G20 RMK AO2 SLP194 T00111050
94908KDBQ DBQ20050502075512205/02/05 07:55:31  5-MIN KDBQ 021355Z 31016KT 10SM BKN029 OVC040 01/M05  A3007 940 64 -400 310/16 RMK AO2 SLP193 T00111050
94908KDBQ DBQ20050502080010505/02/05 08:00:31  5-MIN KDBQ 021400Z 30016KT 10SM BKN029 OVC040 01/M06  A3007 940 61 -400 300/16 RMK AO2
94908KDBQ DBQ20050502080510505/02/05 08:05:31  5-MIN KDBQ 021405Z 31015KT 10SM BKN029 OVC040 01/M05  A3007 940 64 -400 310/15 RMK AO2
94908KDBQ DBQ20050502081010505/02/05 08:10:31  5-MIN KDBQ 021410Z 31015KT 10SM BKN029 OVC040 01/M05  A3008 930 64 -400 310/15 RMK AO2
94908KDBQ DBQ20050502081511005/02/05 08:15:31  5-MIN KDBQ 021415Z 31016G20KT 10SM BKN029 OVC040 02/M05 A3008 940 61 -400 310/16G20 RMK AO2
94908KDBQ DBQ20050502082011005/02/05 08:20:31  5-MIN KDBQ 021420Z 30013G20KT 10SM BKN029 OVC040 02/M05 A3008 930 61 -400 300/13G20 RMK AO2
94908KDBQ DBQ20050502082510505/02/05 08:25:31  5-MIN KDBQ 021425Z 32015KT 10SM BKN029 OVC040 02/M05  A3009 930 61 -400 320/15 RMK AO2
94908KDBQ DBQ20050502083011005/02/05 08:30:31  5-MIN KDBQ 021430Z 31018G23KT 10SM BKN029 OVC040 02/M05 A3009 920 61 -400 310/18G23 RMK AO2
94908KDBQ DBQ20050502083511005/02/05 08:35:31  5-MIN KDBQ 021435Z 30017G23KT 10SM BKN029 OVC040 02/M05 A3009 930 61 -400 300/17G23 RMK AO2
94908KDBQ DBQ20050502084010505/02/05 08:40:31  5-MIN KDBQ 021440Z 31013KT 10SM BKN029 OVC040 02/M05  A3009 920 61 -400 310/13 RMK AO2
94908KDBQ DBQ20050502084510505/02/05 08:45:31  5-MIN KDBQ 021445Z 31015KT 10SM BKN029 OVC040 02/M05  A3009 930 61 -400 300/15 RMK AO2
94908KDBQ DBQ20050502085012005/02/05 08:50:31  5-MIN KDBQ 021450Z 31013KT 10SM OVC043 02/M04 A3009 920 61 -300 310/13 RMK AO2 SLP198 T00221044 53010
94908KDBQ DBQ20050502085512805/02/05 08:55:31  5-MIN KDBQ 021455Z 30015KT 10SM FEW031 OVC043 02/M05  A3008 930 59 -300 300/15 RMK AO2 SLP198 T00221050 51017
94908KDBQ DBQ20050502090010505/02/05 09:00:31  5-MIN KDBQ 021500Z 31013KT 10SM FEW033 OVC043 02/M04  A3009 930 61 -300 310/13 RMK AO2
94908KDBQ DBQ20050502090510505/02/05 09:05:31  5-MIN KDBQ 021505Z 31015KT 10SM FEW033 OVC043 02/M05  A3009 920 59 -300 310/15 RMK AO2
94908KDBQ DBQ20050502091011005/02/05 09:10:31  5-MIN KDBQ 021510Z 30015G20KT 10SM SCT033 OVC043 03/M05 A3009 920 56 -200 300/15G20 RMK AO2
94908KDBQ DBQ20050502091511005/02/05 09:15:31  5-MIN KDBQ 021515Z 33014G20KT 10SM SCT033 OVC043 03/M06 A3009 920 54 -200 330/14G20 RMK AO2
94908KDBQ DBQ20050502092009705/02/05 09:20:31  5-MIN KDBQ 021520Z 32011KT 10SM OVC040 03/M06 A3009 920 54 -300 320/11 RMK AO2
94908KDBQ DBQ20050502092510505/02/05 09:25:31  5-MIN KDBQ 021525Z 31014KT 10SM BKN037 OVC043 03/M06  A3009 920 54 -200 310/14 RMK AO2
94908KDBQ DBQ20050502093010505/02/05 09:30:31  5-MIN KDBQ 021530Z 32013KT 10SM BKN037 OVC044 03/M06  A3009 920 52 -300 320/13 RMK AO2
94908KDBQ DBQ20050502093509705/02/05 09:35:31  5-MIN KDBQ 021535Z 33015KT 10SM OVC039 03/M06 A3010 920 52 -200 320/15 RMK AO2
94908KDBQ DBQ20050502094009705/02/05 09:40:31  5-MIN KDBQ 021540Z 34012KT 10SM OVC039 03/M07 A3011 900 48 -200 340/12 RMK AO2
94908KDBQ DBQ20050502094510405/02/05 09:45:31  5-MIN KDBQ 021545Z 30012G20KT 10SM OVC039 03/M06 A3011  910 52 -200 300/12G20 RMK AO2
94908KDBQ DBQ20050502095012105/02/05 09:50:31  5-MIN KDBQ 021550Z 32013G20KT 10SM OVC039 03/M05 A3011  900 54 -200 320/13G20 RMK AO2 SLP205 T00331050
94908KDBQ DBQ20050502095511405/02/05 09:55:31  5-MIN KDBQ 021555Z 30014KT 10SM OVC037 03/M05 A3011 900 56 -300 300/14 RMK AO2 SLP206 T00281050
94908KDBQ DBQ20050502100010405/02/05 10:00:31  5-MIN KDBQ 021600Z 31011G18KT 10SM OVC037 03/M06 A3011  900 52 -300 310/11G18 RMK AO2
94908KDBQ DBQ20050502100510405/02/05 10:05:31  5-MIN KDBQ 021605Z 34007G18KT 10SM OVC037 03/M06 A3011  900 52 -200 330/07G18 RMK AO2
94908KDBQ DBQ20050502101010405/02/05 10:10:31  5-MIN KDBQ 021610Z 32015G18KT 10SM OVC037 03/M06 A3011  900 52 -200 320/15G18 RMK AO2
94908KDBQ DBQ20050502101509705/02/05 10:15:31  5-MIN KDBQ 021615Z 30015KT 10SM OVC037 03/M06 A3010 910 52 -200 290/15 RMK AO2
94908KDBQ DBQ20050502102009705/02/05 10:20:31  5-MIN KDBQ 021620Z 32013KT 10SM OVC039 03/M06 A3010 910 52 -200 320/13 RMK AO2
94908KDBQ DBQ20050502102509705/02/05 10:25:31  5-MIN KDBQ 021625Z 30013KT 10SM OVC039 04/M05 A3010 910 52 -100 300/13 RMK AO2
94908KDBQ DBQ20050502103010405/02/05 10:30:31  5-MIN KDBQ 021630Z 31010G18KT 10SM OVC039 04/M05 A3010  910 52 -100 310/10G18 RMK AO2
94908KDBQ DBQ20050502103509705/02/05 10:35:31  5-MIN KDBQ 021635Z 30017KT 10SM OVC039 03/M04 A3011 910 57 -200 300/17 RMK AO2
94908KDBQ DBQ20050502104009705/02/05 10:40:31  5-MIN KDBQ 021640Z 30017KT 10SM OVC037 03/M05 A3011 910 56 -300 300/17 RMK AO2
94908KDBQ DBQ20050502104509705/02/05 10:45:31  5-MIN KDBQ 021645Z 30013KT 10SM OVC037 03/M05 A3010 910 54 -200 300/13 RMK AO2
94908KDBQ DBQ20050502105011405/02/05 10:50:31  5-MIN KDBQ 021650Z 28014KT 10SM OVC037 03/M04 A3010 910 57 -200 280/14 RMK AO2 SLP204 T00331044
94908KDBQ DBQ20050502105511405/02/05 10:55:31  5-MIN KDBQ 021655Z 32011KT 10SM OVC037 03/M05 A3011 910 54 -200 320/11 RMK AO2 SLP204 T00331050
94908KDBQ DBQ20050502110010405/02/05 11:00:31  5-MIN KDBQ 021700Z 32011G18KT 10SM OVC037 04/M04 A3010  910 54 -100 320/11G18 RMK AO2
94908KDBQ DBQ20050502110509705/02/05 11:05:31  5-MIN KDBQ 021705Z 31016KT 10SM OVC037 04/M05 A3010 910 52 -100 310/16 RMK AO2
94908KDBQ DBQ20050502111009705/02/05 11:10:31  5-MIN KDBQ 021710Z 30012KT 10SM OVC039 04/M05 A3010 910 52 -100 300/12 RMK AO2
94908KDBQ DBQ20050502111509705/02/05 11:15:31  5-MIN KDBQ 021715Z 32016KT 10SM OVC039 04/M05 A3011 910 52 -100 320/16 RMK AO2
94908KDBQ DBQ20050502112009705/02/05 11:20:31  5-MIN KDBQ 021720Z 31015KT 10SM OVC039 04/M05 A3011 910 52 -100 310/15 RMK AO2
94908KDBQ DBQ20050502112509705/02/05 11:25:31  5-MIN KDBQ 021725Z 31013KT 10SM OVC039 04/M06 A3010 910 50 -100 310/13 RMK AO2
94908KDBQ DBQ20050502113009705/02/05 11:30:31  5-MIN KDBQ 021730Z 32014KT 10SM OVC039 04/M05 A3010 910 52 -100 320/14 RMK AO2
94908KDBQ DBQ20050502113510405/02/05 11:35:31  5-MIN KDBQ 021735Z 29014G19KT 10SM OVC039 04/M04 A3010  910 52 -100 290/14G19 RMK AO2
94908KDBQ DBQ20050502114010405/02/05 11:40:31  5-MIN KDBQ 021740Z 33013G19KT 10SM OVC039 04/M05 A3010  910 52 -100 330/13G19 RMK AO2
94908KDBQ DBQ20050502114509705/02/05 11:45:31  5-MIN KDBQ 021745Z 31015KT 10SM OVC039 04/M05 A3010 910 50 -100 310/15 RMK AO2
94908KDBQ DBQ20050502115013205/02/05 11:50:31  5-MIN KDBQ 021750Z 30014KT 10SM OVC039 04/M05 A3012 890 52 -100 300/14 RMK AO2 SLP209 T00391050 10044 20000 51017
94908KDBQ DBQ20050502115513205/02/05 11:55:31  5-MIN KDBQ 021755Z 30014KT 10SM OVC039 04/M04 A3011 900 52 -100 300/14 RMK AO2 SLP207 T00441044 10044 20000 51010
94908KDBQ DBQ20050502120010405/02/05 12:00:31  5-MIN KDBQ 021800Z 30015G21KT 10SM OVC039 04/M05 A3012  890 50 -100 300/15G21 RMK AO2
94908KDBQ DBQ20050502120510405/02/05 12:05:31  5-MIN KDBQ 021805Z 29012G21KT 10SM OVC037 04/M05 A3012  900 52 -100 290/12G21 RMK AO2
94908KDBQ DBQ20050502121010405/02/05 12:10:31  5-MIN KDBQ 021810Z 29014G23KT 10SM OVC037 04/M04 A3012  890 52 -100 290/14G23 RMK AO2
94908KDBQ DBQ20050502121510405/02/05 12:15:31  5-MIN KDBQ 021815Z 33011G23KT 10SM OVC037 04/M04 A3012  900 54 -100 330/11G23 RMK AO2
94908KDBQ DBQ20050502122010405/02/05 12:20:31  5-MIN KDBQ 021820Z 31013G17KT 10SM OVC037 04/M04 A3012  900 52 -100 310/13G17 RMK AO2
94908KDBQ DBQ20050502122510405/02/05 12:25:31  5-MIN KDBQ 021825Z 32014G19KT 10SM OVC037 04/M04 A3012  890 52 -100 320/14G19 RMK AO2
94908KDBQ DBQ20050502123010405/02/05 12:30:31  5-MIN KDBQ 021830Z 30012G19KT 10SM OVC037 04/M05 A3012  900 50 -100 300/12G19 RMK AO2
94908KDBQ DBQ20050502123510405/02/05 12:35:31  5-MIN KDBQ 021835Z 29012G17KT 10SM OVC039 04/M04 A3012  890 52 -100 290/12G17 RMK AO2
94908KDBQ DBQ20050502124010405/02/05 12:40:31  5-MIN KDBQ 021840Z 31013G18KT 10SM OVC039 04/M04 A3012  900 52 -100 310/13G18 RMK AO2
94908KDBQ DBQ20050502124510405/02/05 12:45:31  5-MIN KDBQ 021845Z 31014G18KT 10SM OVC039 04/M04 A3012  900 52 -100 310/14G18 RMK AO2
94908KDBQ DBQ20050502125011405/02/05 12:50:31  5-MIN KDBQ 021850Z 29015KT 10SM OVC039 04/M05 A3012 900 50 -100 290/15 RMK AO2 SLP208 T00441050
94908KDBQ DBQ20050502125511105/02/05 12:55:31  5-MIN KDBQ 021855Z 31012KT 10SM OVC039 05/M04 A3012 890 50 0 310/12 RMK AO2 SLP208 T00501044
94908KDBQ DBQ20050502130010405/02/05 13:00:31  5-MIN KDBQ 021900Z 30014G21KT 10SM OVC039 04/M04 A3012  890 52 -100 300/14G21 RMK AO2
94908KDBQ DBQ20050502130510105/02/05 13:05:31  5-MIN KDBQ 021905Z 29016G21KT 10SM OVC039 05/M04 A3013  890 50 0 290/16G21 RMK AO2
94908KDBQ DBQ20050502131010405/02/05 13:10:31  5-MIN KDBQ 021910Z 30015G22KT 10SM OVC039 04/M04 A3013  890 52 -100 300/15G22 RMK AO2
94908KDBQ DBQ20050502131510105/02/05 13:15:31  5-MIN KDBQ 021915Z 31015G22KT 10SM OVC039 05/M04 A3013  890 52 0 310/15G22 RMK AO2
94908KDBQ DBQ20050502132009405/02/05 13:20:31  5-MIN KDBQ 021920Z 31015KT 10SM OVC039 05/M04 A3013 880 50 0 310/15 RMK AO2
94908KDBQ DBQ20050502132509405/02/05 13:25:31  5-MIN KDBQ 021925Z 30015KT 10SM OVC039 06/M04 A3013 890 50 0 300/15 RMK AO2
94908KDBQ DBQ20050502133010105/02/05 13:30:31  5-MIN KDBQ 021930Z 31013G20KT 10SM OVC041 05/M04 A3011  900 52 0 310/13G20 RMK AO2
94908KDBQ DBQ20050502133510105/02/05 13:35:31  5-MIN KDBQ 021935Z 32013G17KT 10SM OVC041 05/M04 A3012  890 52 0 310/13G17 RMK AO2
94908KDBQ DBQ20050502134010105/02/05 13:40:31  5-MIN KDBQ 021940Z 31017G20KT 10SM OVC041 06/M03 A3012  890 53 0 310/17G20 RMK AO2
94908KDBQ DBQ20050502134510105/02/05 13:45:31  5-MIN KDBQ 021945Z 30013G20KT 10SM OVC041 06/M04 A3012  890 50 0 300/13G20 RMK AO2
94908KDBQ DBQ20050502135011105/02/05 13:50:31  5-MIN KDBQ 021950Z 31012KT 10SM OVC041 05/M04 A3012 890 52 0 310/12 RMK AO2 SLP211 T00501039
94908KDBQ DBQ20050502135511105/02/05 13:55:31  5-MIN KDBQ 021955Z 32013KT 10SM OVC041 06/M04 A3012 890 50 0 320/13 RMK AO2 SLP209 T00561039
94908KDBQ DBQ20050502140009405/02/05 14:00:31  5-MIN KDBQ 022000Z 32011KT 10SM OVC039 05/M04 A3012 890 52 0 320/11 RMK AO2
94908KDBQ DBQ20050502140509405/02/05 14:05:31  5-MIN KDBQ 022005Z 32014KT 10SM OVC039 06/M03 A3012 890 53 0 320/14 RMK AO2
94908KDBQ DBQ20050502141010105/02/05 14:10:31  5-MIN KDBQ 022010Z 30015G21KT 10SM OVC039 05/M04 A3012  890 52 0 300/15G21 RMK AO2
94908KDBQ DBQ20050502141510105/02/05 14:15:31  5-MIN KDBQ 022015Z 32017G23KT 10SM OVC039 05/M04 A3012  890 52 0 310/17G23 RMK AO2
94908KDBQ DBQ20050502142010105/02/05 14:20:31  5-MIN KDBQ 022020Z 30018G23KT 10SM OVC039 06/M04 A3012  890 50 0 300/18G23 RMK AO2
94908KDBQ DBQ20050502142510105/02/05 14:25:31  5-MIN KDBQ 022025Z 30016G22KT 10SM OVC039 05/M04 A3012  890 52 0 300/16G22 RMK AO2
94908KDBQ DBQ20050502143010105/02/05 14:30:31  5-MIN KDBQ 022030Z 29017G22KT 10SM OVC039 05/M04 A3012  890 52 0 290/17G22 RMK AO2
94908KDBQ DBQ20050502143509405/02/05 14:35:31  5-MIN KDBQ 022035Z 31018KT 10SM OVC039 05/M04 A3012 900 52 0 310/18 RMK AO2
94908KDBQ DBQ20050502144009705/02/05 14:40:31  5-MIN KDBQ 022040Z 31015KT 10SM OVC037 04/M04 A3013 890 55 -100 310/15 RMK AO2
94908KDBQ DBQ20050502144509705/02/05 14:45:31  5-MIN KDBQ 022045Z 32015KT 10SM OVC037 04/M04 A3012 890 55 -100 310/15 RMK AO2
94908KDBQ DBQ20050502145012005/02/05 14:50:31  5-MIN KDBQ 022050Z 31016KT 10SM OVC037 04/M04 A3013 890 57 -200 310/16 RMK AO2 SLP212 T00391039 51010
94908KDBQ DBQ20050502145512005/02/05 14:55:31  5-MIN KDBQ 022055Z 31014KT 10SM OVC037 04/M04 A3012 890 57 -100 310/14 RMK AO2 SLP211 T00391039 51003
94908KDBQ DBQ20050502150009705/02/05 15:00:31  5-MIN KDBQ 022100Z 30016KT 10SM OVC035 04/M04 A3012 890 55 -100 300/16 RMK AO2
94908KDBQ DBQ20050502150510405/02/05 15:05:31  5-MIN KDBQ 022105Z 30017G21KT 10SM OVC035 04/M04 A3012  890 57 -100 300/17G21 RMK AO2
94908KDBQ DBQ20050502151009705/02/05 15:10:31  5-MIN KDBQ 022110Z 30016KT 10SM OVC035 04/M04 A3012 890 57 -100 300/16 RMK AO2
94908KDBQ DBQ20050502151509705/02/05 15:15:31  5-MIN KDBQ 022115Z 30015KT 10SM OVC035 04/M03 A3012 890 57 -100 300/15 RMK AO2
94908KDBQ DBQ20050502152010405/02/05 15:20:31  5-MIN KDBQ 022120Z 30015G20KT 10SM OVC035 04/M04 A3012  890 57 -100 290/15G20 RMK AO2
94908KDBQ DBQ20050502152510405/02/05 15:25:31  5-MIN KDBQ 022125Z 30013G20KT 10SM OVC035 04/M04 A3012  890 57 -100 290/13G20 RMK AO2
94908KDBQ DBQ20050502153009705/02/05 15:30:31  5-MIN KDBQ 022130Z 31014KT 10SM OVC035 04/M04 A3012 890 57 -100 310/14 RMK AO2
94908KDBQ DBQ20050502153509705/02/05 15:35:31  5-MIN KDBQ 022135Z 31016KT 10SM OVC035 04/M03 A3012 890 59 -100 310/16 RMK AO2
94908KDBQ DBQ20050502154009705/02/05 15:40:31  5-MIN KDBQ 022140Z 31014KT 10SM OVC035 04/M04 A3012 890 57 -100 310/14 RMK AO2
94908KDBQ DBQ20050502154510405/02/05 15:45:31  5-MIN KDBQ 022145Z 31014G20KT 10SM OVC035 04/M04 A3012  890 57 -200 310/14G20 RMK AO2
94908KDBQ DBQ20050502155012105/02/05 15:50:31  5-MIN KDBQ 022150Z 30015G20KT 10SM OVC035 04/M04 A3012  890 57 -100 300/15G20 RMK AO2 SLP210 T00391039
94908KDBQ DBQ20050502155511405/02/05 15:55:31  5-MIN KDBQ 022155Z 31016KT 10SM OVC035 04/M04 A3013 890 57 -200 300/16 RMK AO2 SLP211 T00391039
94908KDBQ DBQ20050502160009705/02/05 16:00:31  5-MIN KDBQ 022200Z 31014KT 10SM OVC035 04/M04 A3012 890 57 -100 310/14 RMK AO2
94908KDBQ DBQ20050502160510405/02/05 16:05:31  5-MIN KDBQ 022205Z 31017G21KT 10SM OVC035 04/M04 A3013  890 57 -200 310/17G21 RMK AO2
94908KDBQ DBQ20050502161010405/02/05 16:10:31  5-MIN KDBQ 022210Z 30013G21KT 10SM OVC035 03/M04 A3012  900 59 -200 300/13G21 RMK AO2
94908KDBQ DBQ20050502161509705/02/05 16:15:31  5-MIN KDBQ 022215Z 30016KT 10SM OVC033 03/M04 A3013 890 59 -200 300/16 RMK AO2
94908KDBQ DBQ20050502162009705/02/05 16:20:31  5-MIN KDBQ 022220Z 31015KT 10SM OVC033 03/M04 A3013 890 59 -200 310/15 RMK AO2
94908KDBQ DBQ20050502162509705/02/05 16:25:31  5-MIN KDBQ 022225Z 30014KT 10SM OVC033 03/M04 A3013 890 59 -200 300/14 RMK AO2
94908KDBQ DBQ20050502163010405/02/05 16:30:31  5-MIN KDBQ 022230Z 31016G21KT 10SM OVC033 03/M04 A3013  890 59 -200 300/16G21 RMK AO2
94908KDBQ DBQ20050502163510405/02/05 16:35:31  5-MIN KDBQ 022235Z 30013G21KT 10SM OVC033 03/M04 A3013  890 59 -200 300/13G21 RMK AO2
94908KDBQ DBQ20050502164009705/02/05 16:40:31  5-MIN KDBQ 022240Z 30011KT 10SM OVC033 03/M04 A3013 880 59 -200 300/11 RMK AO2
94908KDBQ DBQ20050502164509705/02/05 16:45:31  5-MIN KDBQ 022245Z 30014KT 10SM OVC033 03/M04 A3013 880 59 -200 300/14 RMK AO2
94908KDBQ DBQ20050502165011405/02/05 16:50:31  5-MIN KDBQ 022250Z 30014KT 10SM OVC033 03/M04 A3012 890 59 -200 300/14 RMK AO2 SLP211 T00331039
94908KDBQ DBQ20050502165512105/02/05 16:55:31  5-MIN KDBQ 022255Z 30015G19KT 10SM OVC033 03/M04 A3014  880 61 -300 300/15G19 RMK AO2 SLP216 T00281039
94908KDBQ DBQ20050502170010405/02/05 17:00:31  5-MIN KDBQ 022300Z 30014G21KT 10SM OVC033 03/M04 A3013  890 61 -300 300/14G21 RMK AO2
94908KDBQ DBQ20050502170510405/02/05 17:05:31  5-MIN KDBQ 022305Z 29015G21KT 10SM OVC031 03/M04 A3013  880 61 -300 290/15G21 RMK AO2
94908KDBQ DBQ20050502171009705/02/05 17:10:31  5-MIN KDBQ 022310Z 30012KT 10SM OVC031 03/M04 A3013 880 61 -300 300/12 RMK AO2
94908KDBQ DBQ20050502171509705/02/05 17:15:31  5-MIN KDBQ 022315Z 30011KT 10SM OVC031 03/M04 A3013 880 61 -300 300/11 RMK AO2
94908KDBQ DBQ20050502172009705/02/05 17:20:31  5-MIN KDBQ 022320Z 30014KT 10SM OVC031 03/M04 A3013 880 61 -300 300/14 RMK AO2
94908KDBQ DBQ20050502172509705/02/05 17:25:31  5-MIN KDBQ 022325Z 31013KT 10SM OVC031 03/M04 A3013 880 61 -300 310/13 RMK AO2
94908KDBQ DBQ20050502173009705/02/05 17:30:31  5-MIN KDBQ 022330Z 31011KT 10SM OVC031 03/M04 A3013 880 61 -300 310/11 RMK AO2
94908KDBQ DBQ20050502173510405/02/05 17:35:31  5-MIN KDBQ 022335Z 31015G20KT 10SM OVC031 03/M04 A3013  880 61 -300 310/15G20 RMK AO2
94908KDBQ DBQ20050502174010405/02/05 17:40:31  5-MIN KDBQ 022340Z 31014G20KT 10SM OVC031 03/M04 A3013  880 61 -300 310/14G20 RMK AO2
94908KDBQ DBQ20050502174509705/02/05 17:45:31  5-MIN KDBQ 022345Z 30013KT 10SM OVC031 03/M04 A3013 880 61 -300 300/13 RMK AO2
94908KDBQ DBQ20050502175013205/02/05 17:50:31  5-MIN KDBQ 022350Z 30013KT 10SM OVC031 03/M04 A3013 880 61 -300 300/13 RMK AO2 SLP215 T00281039 10056 20028 51003
94908KDBQ DBQ20050502175513205/02/05 17:55:31  5-MIN KDBQ 022355Z 32014KT 10SM OVC031 03/M04 A3013 890 61 -300 320/14 RMK AO2 SLP214 T00281039 10056 20028 50002
94908KDBQ DBQ20050502180009705/02/05 18:00:31  5-MIN KDBQ 030000Z 31012KT 10SM OVC031 03/M04 A3013 890 61 -300 310/12 RMK AO2
94908KDBQ DBQ20050502180510505/02/05 18:05:31  5-MIN KDBQ 030005Z 31010KT 10SM BKN033 OVC040 03/M04  A3012 890 61 -300 310/10 RMK AO2
94908KDBQ DBQ20050502181010505/02/05 18:10:31  5-MIN KDBQ 030010Z 30011KT 10SM BKN033 BKN040 03/M04  A3012 900 59 -300 300/11 RMK AO2
94908KDBQ DBQ20050502181509705/02/05 18:15:31  5-MIN KDBQ 030015Z 32012KT 10SM BKN033 03/M04 A3012 890 61 -300 320/12 RMK AO2
94908KDBQ DBQ20050502182009705/02/05 18:20:31  5-MIN KDBQ 030020Z 32012KT 10SM BKN035 02/M04 A3012 890 64 -400 320/12 RMK AO2
94908KDBQ DBQ20050502182509705/02/05 18:25:31  5-MIN KDBQ 030025Z 31011KT 10SM BKN037 03/M04 A3012 890 61 -300 310/11 RMK AO2
94908KDBQ DBQ20050502183009705/02/05 18:30:31  5-MIN KDBQ 030030Z 32011KT 10SM BKN037 02/M04 A3012 890 64 -400 320/11 RMK AO2
94908KDBQ DBQ20050502183509705/02/05 18:35:31  5-MIN KDBQ 030035Z 32012KT 10SM SCT037 02/M04 A3012 890 61 -400 320/12 RMK AO2
94908KDBQ DBQ20050502184009705/02/05 18:40:31  5-MIN KDBQ 030040Z 33012KT 10SM SCT037 02/M04 A3012 890 61 -400 320/12 RMK AO2
94908KDBQ DBQ20050502184509705/02/05 18:45:31  5-MIN KDBQ 030045Z 32013KT 10SM FEW037 02/M04 A3012 890 64 -400 320/13 RMK AO2
94908KDBQ DBQ20050502185011405/02/05 18:50:31  5-MIN KDBQ 030050Z 33010KT 10SM FEW037 02/M04 A3012 890 64 -400 320/10 RMK AO2 SLP211 T00171044
94908KDBQ DBQ20050502185511405/02/05 18:55:31  5-MIN KDBQ 030055Z 34008KT 10SM FEW037 01/M04 A3012 890 66 -500 340/08 RMK AO2 SLP212 T00111044
94908KDBQ DBQ20050502190010505/02/05 19:00:31  5-MIN KDBQ 030100Z AUTO 35006KT 10SM CLR 01/M04 A3012  890 69 -600 350/06 RMK AO2 TSNO
94908KDBQ DBQ20050502190510505/02/05 19:05:31  5-MIN KDBQ 030105Z AUTO 35007KT 10SM CLR 01/M04 A3012  890 69 -600 350/07 RMK AO2 TSNO
94908KDBQ DBQ20050502191010505/02/05 19:10:31  5-MIN KDBQ 030110Z AUTO 35007KT 10SM CLR 01/M04 A3013  890 69 -600 350/07 RMK AO2 TSNO
94908KDBQ DBQ20050502191510505/02/05 19:15:31  5-MIN KDBQ 030115Z AUTO 35006KT 10SM CLR 00/M04 A3013  890 72 -600 350/06 RMK AO2 TSNO
94908KDBQ DBQ20050502192010505/02/05 19:20:31  5-MIN KDBQ 030120Z AUTO 36006KT 10SM CLR 00/M04 A3013  890 72 -600 360/06 RMK AO2 TSNO
94908KDBQ DBQ20050502192510605/02/05 19:25:31  5-MIN KDBQ 030125Z AUTO 36005KT 10SM CLR M01/M04 A3013  890 75 -700 360/05 RMK AO2 TSNO
94908KDBQ DBQ20050502193010505/02/05 19:30:31  5-MIN KDBQ 030130Z AUTO 36004KT 10SM CLR 00/M05 A3013  890 69 -600 360/04 RMK AO2 TSNO
94908KDBQ DBQ20050502193510505/02/05 19:35:31  5-MIN KDBQ 030135Z AUTO 36004KT 10SM CLR 00/M05 A3013  890 69 -600 360/04 RMK AO2 TSNO
94908KDBQ DBQ20050502194010505/02/05 19:40:31  5-MIN KDBQ 030140Z AUTO 36003KT 10SM CLR 00/M05 A3013  890 69 -600 360/03 RMK AO2 TSNO
94908KDBQ DBQ20050502194510505/02/05 19:45:31  5-MIN KDBQ 030145Z AUTO 36004KT 10SM CLR 00/M05 A3013  890 69 -600 360/04 RMK AO2 TSNO
94908KDBQ DBQ20050502195012205/02/05 19:50:31  5-MIN KDBQ 030150Z AUTO 36003KT 10SM CLR 00/M05 A3013  880 69 -600 360/03 RMK AO2 SLP215 T00001050 TSNO
94908KDBQ DBQ20050502195512205/02/05 19:55:31  5-MIN KDBQ 030155Z AUTO 35003KT 10SM CLR 01/M05 A3013  880 66 -600 350/03 RMK AO2 SLP214 T00061050 TSNO
94908KDBQ DBQ20050502200010605/02/05 20:00:31  5-MIN KDBQ 030200Z AUTO 35003KT 10SM CLR M01/M05 A3013  880 75 -800 350/03 RMK AO2 TSNO
94908KDBQ DBQ20050502200510605/02/05 20:05:31  5-MIN KDBQ 030205Z AUTO 00000KT 10SM CLR M01/M06 A3013  880 72 -800 000/00 RMK AO2 TSNO
94908KDBQ DBQ20050502201010605/02/05 20:10:31  5-MIN KDBQ 030210Z AUTO 00000KT 10SM CLR M01/M05 A3013  880 72 -700 000/00 RMK AO2 TSNO
94908KDBQ DBQ20050502201510605/02/05 20:15:31  5-MIN KDBQ 030215Z AUTO 00000KT 10SM CLR M01/M05 A3014  880 75 -800 000/00 RMK AO2 TSNO
94908KDBQ DBQ20050502202010605/02/05 20:20:31  5-MIN KDBQ 030220Z AUTO 00000KT 10SM CLR M01/M05 A3014  880 75 -800 000/00 RMK AO2 TSNO
94908KDBQ DBQ20050502202510605/02/05 20:25:31  5-MIN KDBQ 030225Z AUTO 00000KT 10SM CLR M01/M05 A3014  880 75 -800 000/00 RMK AO2 TSNO
94908KDBQ DBQ20050502203010605/02/05 20:30:31  5-MIN KDBQ 030230Z AUTO 00000KT 10SM CLR M01/M05 A3014  880 75 -800 000/00 RMK AO2 TSNO
94908KDBQ DBQ20050502203510605/02/05 20:35:31  5-MIN KDBQ 030235Z AUTO 00000KT 10SM CLR M01/M05 A3014  880 75 -800 000/00 RMK AO2 TSNO
94908KDBQ DBQ20050502204010605/02/05 20:40:31  5-MIN KDBQ 030240Z AUTO 00000KT 10SM CLR M02/M05 A3014  880 78 -900 000/00 RMK AO2 TSNO
94908KDBQ DBQ20050502204510605/02/05 20:45:31  5-MIN KDBQ 030245Z AUTO 00000KT 10SM CLR M01/M05 A3014  880 75 -800 000/00 RMK AO2 TSNO
94908KDBQ DBQ20050502205012905/02/05 20:50:31  5-MIN KDBQ 030250Z AUTO 00000KT 10SM CLR M01/M05 A3014  880 75 -800 000/00 RMK AO2 SLP218 T10111050 50002 TSNO
94908KDBQ DBQ20050502205512905/02/05 20:55:31  5-MIN KDBQ 030255Z AUTO 00000KT 10SM CLR M01/M06 A3014  880 72 -800 000/00 RMK AO2 SLP218 T10111056 53003 TSNO
94908KDBQ DBQ20050502210010605/02/05 21:00:31  5-MIN KDBQ 030300Z AUTO 00000KT 10SM CLR M02/M06 A3014  880 75 -900 000/00 RMK AO2 TSNO
94908KDBQ DBQ20050502210510605/02/05 21:05:31  5-MIN KDBQ 030305Z AUTO 00000KT 10SM CLR M02/M06 A3014  880 78 -900 000/00 RMK AO2 TSNO
94908KDBQ DBQ20050502211010605/02/05 21:10:31  5-MIN KDBQ 030310Z AUTO 00000KT 10SM CLR M02/M06 A3014  880 78 -900 000/00 RMK AO2 TSNO
94908KDBQ DBQ20050502211510605/02/05 21:15:31  5-MIN KDBQ 030315Z AUTO 00000KT 10SM CLR M02/M06 A3014  880 78 -900 000/00 RMK AO2 TSNO
94908KDBQ DBQ20050502212010605/02/05 21:20:31  5-MIN KDBQ 030320Z AUTO 00000KT 10SM CLR M02/M06 A3014  880 78 -900 000/00 RMK AO2 TSNO
94908KDBQ DBQ20050502212510705/02/05 21:25:31  5-MIN KDBQ 030325Z AUTO 00000KT 10SM CLR M03/M06 A3014  880 81 -1000 000/00 RMK AO2 TSNO
94908KDBQ DBQ20050502213010605/02/05 21:30:31  5-MIN KDBQ 030330Z AUTO 00000KT 10SM CLR M02/M06 A3014  870 78 -900 000/00 RMK AO2 TSNO
94908KDBQ DBQ20050502213510605/02/05 21:35:31  5-MIN KDBQ 030335Z AUTO 00000KT 10SM CLR M02/M06 A3014  870 78 -900 000/00 RMK AO2 TSNO
94908KDBQ DBQ20050502214010605/02/05 21:40:31  5-MIN KDBQ 030340Z AUTO 00000KT 10SM CLR M02/M06 A3014  870 78 -900 000/00 RMK AO2 TSNO
94908KDBQ DBQ20050502214510705/02/05 21:45:31  5-MIN KDBQ 030345Z AUTO 00000KT 10SM CLR M03/M06 A3014  870 85 -1100 000/00 RMK AO2 TSNO
94908KDBQ DBQ20050502215012405/02/05 21:50:31  5-MIN KDBQ 030350Z AUTO 00000KT 10SM CLR M03/M06 A3014  870 81 -1100 000/00 RMK AO2 SLP219 T10331061 TSNO
94908KDBQ DBQ20050502215512405/02/05 21:55:31  5-MIN KDBQ 030355Z AUTO 00000KT 10SM CLR M03/M06 A3014  870 81 -1000 000/00 RMK AO2 SLP219 T10281056 TSNO
94908KDBQ DBQ20050502220010705/02/05 22:00:31  5-MIN KDBQ 030400Z AUTO 00000KT 10SM CLR M03/M06 A3014  870 85 -1100 000/00 RMK AO2 TSNO
94908KDBQ DBQ20050502220510705/02/05 22:05:31  5-MIN KDBQ 030405Z AUTO 00000KT 10SM CLR M03/M06 A3014  870 81 -1000 000/00 RMK AO2 TSNO
94908KDBQ DBQ20050502221010705/02/05 22:10:31  5-MIN KDBQ 030410Z AUTO 00000KT 10SM CLR M03/M06 A3014  870 81 -1100 000/00 RMK AO2 TSNO
94908KDBQ DBQ20050502221510705/02/05 22:15:31  5-MIN KDBQ 030415Z AUTO 00000KT 10SM CLR M03/M06 A3014  870 81 -1100 000/00 RMK AO2 TSNO
94908KDBQ DBQ20050502222010705/02/05 22:20:31  5-MIN KDBQ 030420Z AUTO 00000KT 10SM CLR M03/M06 A3014  870 81 -1000 000/00 RMK AO2 TSNO
94908KDBQ DBQ20050502222510705/02/05 22:25:31  5-MIN KDBQ 030425Z AUTO 00000KT 10SM CLR M03/M06 A3014  870 81 -1000 000/00 RMK AO2 TSNO
94908KDBQ DBQ20050502223010705/02/05 22:30:31  5-MIN KDBQ 030430Z AUTO 00000KT 10SM CLR M03/M06 A3014  870 81 -1000 000/00 RMK AO2 TSNO
94908KDBQ DBQ20050502223510705/02/05 22:35:31  5-MIN KDBQ 030435Z AUTO 00000KT 10SM CLR M03/M06 A3014  870 81 -1000 000/00 RMK AO2 TSNO
94908KDBQ DBQ20050502224010705/02/05 22:40:31  5-MIN KDBQ 030440Z AUTO 00000KT 10SM CLR M03/M06 A3014  880 81 -1100 000/00 RMK AO2 TSNO
94908KDBQ DBQ20050502224510705/02/05 22:45:31  5-MIN KDBQ 030445Z AUTO 00000KT 10SM CLR M03/M06 A3014  880 81 -1100 000/00 RMK AO2 TSNO
94908KDBQ DBQ20050502225012405/02/05 22:50:31  5-MIN KDBQ 030450Z AUTO 00000KT 10SM CLR M03/M06 A3014  880 81 -1100 000/00 RMK AO2 SLP219 T10331061 TSNO
94908KDBQ DBQ20050502225512405/02/05 22:55:31  5-MIN KDBQ 030455Z AUTO 00000KT 10SM CLR M03/M06 A3014  880 81 -1100 000/00 RMK AO2 SLP218 T10331061 TSNO
94908KDBQ DBQ20050502230010705/02/05 23:00:31  5-MIN KDBQ 030500Z AUTO 00000KT 10SM CLR M03/M06 A3014  880 81 -1100 000/00 RMK AO2 TSNO
94908KDBQ DBQ20050502230510705/02/05 23:05:31  5-MIN KDBQ 030505Z AUTO 00000KT 10SM CLR M03/M06 A3014  880 81 -1100 000/00 RMK AO2 TSNO
94908KDBQ DBQ20050502231010705/02/05 23:10:31  5-MIN KDBQ 030510Z AUTO 00000KT 10SM CLR M04/M06 A3014  880 85 -1100 000/00 RMK AO2 TSNO
94908KDBQ DBQ20050502231510705/02/05 23:15:31  5-MIN KDBQ 030515Z AUTO 00000KT 10SM CLR M03/M06 A3014  880 81 -1100 000/00 RMK AO2 TSNO
94908KDBQ DBQ20050502232010705/02/05 23:20:31  5-MIN KDBQ 030520Z AUTO 00000KT 10SM CLR M03/M06 A3014  880 81 -1000 000/00 RMK AO2 TSNO
94908KDBQ DBQ20050502232510705/02/05 23:25:31  5-MIN KDBQ 030525Z AUTO 00000KT 10SM CLR M03/M06 A3014  880 81 -1100 000/00 RMK AO2 TSNO
94908KDBQ DBQ20050502233010705/02/05 23:30:31  5-MIN KDBQ 030530Z AUTO 00000KT 10SM CLR M04/M06 A3014  880 85 -1100 000/00 RMK AO2 TSNO
94908KDBQ DBQ20050502233510705/02/05 23:35:31  5-MIN KDBQ 030535Z AUTO 00000KT 10SM CLR M04/M06 A3014  880 85 -1100 000/00 RMK AO2 TSNO
94908KDBQ DBQ20050502234010705/02/05 23:40:31  5-MIN KDBQ 030540Z AUTO 00000KT 10SM CLR M04/M06 A3014  880 85 -1100 000/00 RMK AO2 TSNO
94908KDBQ DBQ20050502234510705/02/05 23:45:31  5-MIN KDBQ 030545Z AUTO 00000KT 10SM CLR M04/M06 A3014  880 85 -1100 000/00 RMK AO2 TSNO
94908KDBQ DBQ20050502235015305/02/05 23:50:31  5-MIN KDBQ 030550Z AUTO 00000KT 10SM CLR M04/M07 A3014  880 81 -1100 000/00 RMK AO2 SLP218 T10391067 10028 21039 400561039 53003  TSNO
94908KDBQ DBQ20050502235515305/02/05 23:55:31  5-MIN KDBQ 030555Z AUTO 00000KT 10SM CLR M04/M07 A3014  880 81 -1100 000/00 RMK AO2 SLP218 T10391067 10028 21039 400561039 50000  TSNO
94908KDBQ DBQ20050503000010705/03/05 00:00:38  5-MIN KDBQ 030600Z AUTO 00000KT 10SM CLR M04/M07 A3014  880 84 -1200 000/00 RMK AO2 TSNO
94908KDBQ DBQ20050503000510705/03/05 00:05:31  5-MIN KDBQ 030605Z AUTO 00000KT 10SM CLR M04/M07 A3014  880 81 -1100 000/00 RMK AO2 TSNO
94908KDBQ DBQ20050503001010705/03/05 00:10:31  5-MIN KDBQ 030610Z AUTO 00000KT 10SM CLR M04/M07 A3014  880 81 -1100 000/00 RMK AO2 TSNO
94908KDBQ DBQ20050503001510705/03/05 00:15:32  5-MIN KDBQ 030615Z AUTO 00000KT 10SM CLR M04/M07 A3014  880 84 -1200 000/00 RMK AO2 TSNO
94908KDBQ DBQ20050503002010705/03/05 00:20:31  5-MIN KDBQ 030620Z AUTO 00000KT 10SM CLR M04/M06 A3014  880 85 -1100 000/00 RMK AO2 TSNO
94908KDBQ DBQ20050503002510705/03/05 00:25:31  5-MIN KDBQ 030625Z AUTO 00000KT 10SM CLR M04/M06 A3013  880 85 -1100 000/00 RMK AO2 TSNO
94908KDBQ DBQ20050503003010705/03/05 00:30:31  5-MIN KDBQ 030630Z AUTO 00000KT 10SM CLR M04/M06 A3013  880 85 -1100 000/00 RMK AO2 TSNO
94908KDBQ DBQ20050503003510705/03/05 00:35:31  5-MIN KDBQ 030635Z AUTO 00000KT 10SM CLR M04/M07 A3013  880 84 -1200 000/00 RMK AO2 TSNO
94908KDBQ DBQ20050503004010705/03/05 00:40:31  5-MIN KDBQ 030640Z AUTO 00000KT 10SM CLR M04/M07 A3013  880 84 -1200 000/00 RMK AO2 TSNO
94908KDBQ DBQ20050503004510705/03/05 00:45:31  5-MIN KDBQ 030645Z AUTO 00000KT 10SM CLR M04/M07 A3013  880 84 -1200 000/00 RMK AO2 TSNO
94908KDBQ DBQ20050503005012405/03/05 00:50:31  5-MIN KDBQ 030650Z AUTO 00000KT 10SM CLR M04/M07 A3013  890 84 -1200 000/00 RMK AO2 SLP215 T10441067 TSNO
94908KDBQ DBQ20050503005512405/03/05 00:55:31  5-MIN KDBQ 030655Z AUTO 00000KT 10SM CLR M04/M06 A3013  890 85 -1100 000/00 RMK AO2 SLP214 T10391061 TSNO
94908KDBQ DBQ20050503010010705/03/05 01:00:31  5-MIN KDBQ 030700Z AUTO 00000KT 10SM CLR M04/M06 A3013  890 88 -1200 000/00 RMK AO2 TSNO
94908KDBQ DBQ20050503010510705/03/05 01:05:31  5-MIN KDBQ 030705Z AUTO 00000KT 10SM CLR M04/M07 A3013  890 84 -1200 000/00 RMK AO2 TSNO
94908KDBQ DBQ20050503011010705/03/05 01:10:31  5-MIN KDBQ 030710Z AUTO 00000KT 10SM CLR M05/M07 A3013  890 88 -1300 000/00 RMK AO2 TSNO
94908KDBQ DBQ20050503011510705/03/05 01:15:31  5-MIN KDBQ 030715Z AUTO 00000KT 10SM CLR M04/M06 A3013  890 85 -1100 000/00 RMK AO2 TSNO
94908KDBQ DBQ20050503012010705/03/05 01:20:31  5-MIN KDBQ 030720Z AUTO 22003KT 10SM CLR M04/M06 A3013  890 85 -1100 210/03 RMK AO2 TSNO
94908KDBQ DBQ20050503012510705/03/05 01:25:31  5-MIN KDBQ 030725Z AUTO 22003KT 10SM CLR M04/M07 A3013  890 84 -1200 220/03 RMK AO2 TSNO
94908KDBQ DBQ20050503013010705/03/05 01:30:31  5-MIN KDBQ 030730Z AUTO 00000KT 10SM CLR M05/M07 A3013  890 84 -1300 000/00 RMK AO2 TSNO
94908KDBQ DBQ20050503013510705/03/05 01:35:31  5-MIN KDBQ 030735Z AUTO 00000KT 10SM CLR M05/M07 A3013  890 84 -1300 000/00 RMK AO2 TSNO
94908KDBQ DBQ20050503014010705/03/05 01:40:31  5-MIN KDBQ 030740Z AUTO 21003KT 10SM CLR M05/M07 A3013  890 84 -1300 210/03 RMK AO2 TSNO
94908KDBQ DBQ20050503014510705/03/05 01:45:31  5-MIN KDBQ 030745Z AUTO 21003KT 10SM CLR M04/M07 A3013  890 84 -1200 210/03 RMK AO2 TSNO
94908KDBQ DBQ20050503015012405/03/05 01:50:31  5-MIN KDBQ 030750Z AUTO 21003KT 10SM CLR M04/M07 A3012  890 84 -1200 210/03 RMK AO2 SLP213 T10441067 TSNO
94908KDBQ DBQ20050503015512405/03/05 01:55:31  5-MIN KDBQ 030755Z AUTO 00000KT 10SM CLR M04/M07 A3012  890 84 -1200 000/00 RMK AO2 SLP212 T10441067 TSNO
94908KDBQ DBQ20050503020010705/03/05 02:00:31  5-MIN KDBQ 030800Z AUTO 21003KT 10SM CLR M04/M07 A3012  890 84 -1200 210/03 RMK AO2 TSNO
94908KDBQ DBQ20050503020510705/03/05 02:05:31  5-MIN KDBQ 030805Z AUTO 22003KT 10SM CLR M04/M07 A3012  890 84 -1200 220/03 RMK AO2 TSNO
94908KDBQ DBQ20050503021010705/03/05 02:10:31  5-MIN KDBQ 030810Z AUTO 22003KT 10SM CLR M04/M06 A3012  890 85 -1100 210/03 RMK AO2 TSNO
94908KDBQ DBQ20050503021510705/03/05 02:15:31  5-MIN KDBQ 030815Z AUTO 21003KT 10SM CLR M04/M06 A3012  890 85 -1100 210/03 RMK AO2 TSNO
94908KDBQ DBQ20050503022010705/03/05 02:20:31  5-MIN KDBQ 030820Z AUTO 21003KT 10SM CLR M04/M06 A3012  890 85 -1100 210/03 RMK AO2 TSNO
94908KDBQ DBQ20050503022510705/03/05 02:25:31  5-MIN KDBQ 030825Z AUTO 21003KT 10SM CLR M04/M06 A3012  890 88 -1200 210/03 RMK AO2 TSNO
94908KDBQ DBQ20050503023010705/03/05 02:30:31  5-MIN KDBQ 030830Z AUTO 21003KT 10SM CLR M04/M06 A3012  890 88 -1200 210/03 RMK AO2 TSNO
94908KDBQ DBQ20050503023510705/03/05 02:35:31  5-MIN KDBQ 030835Z AUTO 21003KT 10SM CLR M04/M06 A3012  890 85 -1100 210/03 RMK AO2 TSNO
94908KDBQ DBQ20050503024010705/03/05 02:40:31  5-MIN KDBQ 030840Z AUTO 00000KT 10SM CLR M04/M06 A3012  890 85 -1100 000/00 RMK AO2 TSNO
94908KDBQ DBQ20050503024510705/03/05 02:45:31  5-MIN KDBQ 030845Z AUTO 00000KT 10SM CLR M04/M06 A3012  890 85 -1100 000/00 RMK AO2 TSNO
94908KDBQ DBQ20050503025013005/03/05 02:50:31  5-MIN KDBQ 030850Z AUTO 00000KT 10SM CLR M04/M06 A3012  890 85 -1100 000/00 RMK AO2 SLP213 T10391061 50000 TSNO
94908KDBQ DBQ20050503025513005/03/05 02:55:31  5-MIN KDBQ 030855Z AUTO 00000KT 10SM CLR M04/M06 A3012  890 85 -1100 000/00 RMK AO2 SLP213 T10391061 55005 TSNO
94908KDBQ DBQ20050503030010705/03/05 03:00:31  5-MIN KDBQ 030900Z AUTO 00000KT 10SM CLR M04/M06 A3013  890 85 -1100 000/00 RMK AO2 TSNO
94908KDBQ DBQ20050503030510705/03/05 03:05:31  5-MIN KDBQ 030905Z AUTO 00000KT 10SM CLR M04/M06 A3013  890 85 -1100 000/00 RMK AO2 TSNO
94908KDBQ DBQ20050503031010705/03/05 03:10:31  5-MIN KDBQ 030910Z AUTO 17003KT 10SM CLR M04/M06 A3013  890 85 -1100 170/03 RMK AO2 TSNO
94908KDBQ DBQ20050503031510705/03/05 03:15:31  5-MIN KDBQ 030915Z AUTO 18003KT 10SM CLR M04/M07 A3013  880 84 -1200 180/03 RMK AO2 TSNO
94908KDBQ DBQ20050503032010705/03/05 03:20:31  5-MIN KDBQ 030920Z AUTO 00000KT 10SM CLR M04/M06 A3013  880 85 -1100 000/00 RMK AO2 TSNO
94908KDBQ DBQ20050503032510705/03/05 03:25:31  5-MIN KDBQ 030925Z AUTO 00000KT 10SM CLR M04/M06 A3013  880 85 -1100 000/00 RMK AO2 TSNO
94908KDBQ DBQ20050503033010705/03/05 03:30:31  5-MIN KDBQ 030930Z AUTO 00000KT 10SM CLR M03/M06 A3013  880 81 -1100 000/00 RMK AO2 TSNO
94908KDBQ DBQ20050503033510705/03/05 03:35:31  5-MIN KDBQ 030935Z AUTO 00000KT 10SM CLR M04/M06 A3013  880 85 -1100 000/00 RMK AO2 TSNO
94908KDBQ DBQ20050503034010705/03/05 03:40:31  5-MIN KDBQ 030940Z AUTO 00000KT 10SM CLR M04/M06 A3013  880 85 -1100 000/00 RMK AO2 TSNO
94908KDBQ DBQ20050503034510705/03/05 03:45:31  5-MIN KDBQ 030945Z AUTO 00000KT 10SM CLR M04/M06 A3013  880 88 -1100 000/00 RMK AO2 TSNO
94908KDBQ DBQ20050503035012405/03/05 03:50:31  5-MIN KDBQ 030950Z AUTO 00000KT 10SM CLR M04/M06 A3013  880 88 -1200 000/00 RMK AO2 SLP216 T10441061 TSNO
94908KDBQ DBQ20050503035512405/03/05 03:55:31  5-MIN KDBQ 030955Z AUTO 20003KT 10SM CLR M04/M07 A3013  880 84 -1200 200/03 RMK AO2 SLP216 T10441067 TSNO
94908KDBQ DBQ20050503040010705/03/05 04:00:31  5-MIN KDBQ 031000Z AUTO 00000KT 10SM CLR M05/M07 A3013  880 84 -1300 000/00 RMK AO2 TSNO
94908KDBQ DBQ20050503040510705/03/05 04:05:31  5-MIN KDBQ 031005Z AUTO 00000KT 10SM CLR M04/M07 A3013  880 81 -1200 000/00 RMK AO2 TSNO
94908KDBQ DBQ20050503041010705/03/05 04:10:31  5-MIN KDBQ 031010Z AUTO 00000KT 10SM CLR M04/M07 A3013  880 81 -1200 000/00 RMK AO2 TSNO
94908KDBQ DBQ20050503041510705/03/05 04:15:31  5-MIN KDBQ 031015Z AUTO 00000KT 10SM CLR M05/M08 A3013  880 81 -1300 000/00 RMK AO2 TSNO
94908KDBQ DBQ20050503042010705/03/05 04:20:31  5-MIN KDBQ 031020Z AUTO 00000KT 10SM CLR M05/M07 A3013  880 84 -1300 000/00 RMK AO2 TSNO
94908KDBQ DBQ20050503042510705/03/05 04:25:31  5-MIN KDBQ 031025Z AUTO 00000KT 10SM CLR M05/M07 A3013  880 84 -1300 000/00 RMK AO2 TSNO
94908KDBQ DBQ20050503043010705/03/05 04:30:31  5-MIN KDBQ 031030Z AUTO 00000KT 10SM CLR M06/M07 A3013  880 88 -1400 000/00 RMK AO2 TSNO
94908KDBQ DBQ20050503043510705/03/05 04:35:31  5-MIN KDBQ 031035Z AUTO 00000KT 10SM CLR M06/M07 A3012  890 88 -1300 000/00 RMK AO2 TSNO
94908KDBQ DBQ20050503044010705/03/05 04:40:31  5-MIN KDBQ 031040Z AUTO 21003KT 10SM CLR M05/M07 A3012  890 84 -1300 210/03 RMK AO2 TSNO
94908KDBQ DBQ20050503044510705/03/05 04:45:31  5-MIN KDBQ 031045Z AUTO 21003KT 10SM CLR M05/M07 A3012  890 84 -1300 210/03 RMK AO2 TSNO
94908KDBQ DBQ20050503045012405/03/05 04:50:31  5-MIN KDBQ 031050Z AUTO 00000KT 10SM CLR M05/M08 A3012  890 81 -1300 000/00 RMK AO2 SLP213 T10501078 TSNO
94908KDBQ DBQ20050503045511305/03/05 04:55:31  5-MIN KDBQ 031055Z 00000KT 10SM CLR M05/M08 A3012 890 81 -1300 000/00 RMK AO2 SLP213 T10501078
94908KDBQ DBQ20050503050009605/03/05 05:00:31  5-MIN KDBQ 031100Z 22003KT 10SM CLR M05/M07 A3012 890 84 -1300 220/03 RMK AO2
94908KDBQ DBQ20050503050509605/03/05 05:05:31  5-MIN KDBQ 031105Z 22003KT 10SM CLR M06/M08 A3014 880 88 -1400 220/03 RMK AO2
94908KDBQ DBQ20050503051009605/03/05 05:10:31  5-MIN KDBQ 031110Z 22003KT 10SM CLR M06/M08 A3014 880 84 -1400 220/03 RMK AO2
94908KDBQ DBQ20050503051509605/03/05 05:15:31  5-MIN KDBQ 031115Z 22003KT 10SM CLR M05/M08 A3014 880 81 -1300 220/03 RMK AO2
94908KDBQ DBQ20050503052009605/03/05 05:20:31  5-MIN KDBQ 031120Z 21003KT 10SM CLR M06/M07 A3014 870 88 -1400 210/03 RMK AO2
94908KDBQ DBQ20050503052509605/03/05 05:25:31  5-MIN KDBQ 031125Z 22003KT 10SM CLR M06/M07 A3014 870 88 -1400 220/03 RMK AO2
94908KDBQ DBQ20050503053009605/03/05 05:30:31  5-MIN KDBQ 031130Z 21003KT 10SM CLR M05/M07 A3014 870 84 -1300 210/03 RMK AO2
94908KDBQ DBQ20050503053509605/03/05 05:35:31  5-MIN KDBQ 031135Z 22003KT 10SM CLR M05/M07 A3014 870 84 -1300 210/03 RMK AO2
94908KDBQ DBQ20050503054009605/03/05 05:40:31  5-MIN KDBQ 031140Z 22003KT 10SM CLR M05/M07 A3014 880 84 -1300 220/03 RMK AO2
94908KDBQ DBQ20050503054509605/03/05 05:45:31  5-MIN KDBQ 031145Z 22003KT 10SM CLR M04/M07 A3014 880 81 -1200 220/03 RMK AO2
94908KDBQ DBQ20050503055013105/03/05 05:50:31  5-MIN KDBQ 031150Z 22004KT 10SM CLR M04/M07 A3014 880 84 -1200 220/04 RMK AO2 SLP218 T10441067 11033 21061 55005
94908KDBQ DBQ20050503055513105/03/05 05:55:31  5-MIN KDBQ 031155Z 22003KT 10SM CLR M04/M06 A3014 880 88 -1200 220/03 RMK AO2 SLP218 T10441061 11033 21061 53004
94908KDBQ DBQ20050503060009505/03/05 06:00:31  5-MIN KDBQ 031200Z 22004KT 9SM CLR M04/M06 A3014 880 88 -1200 220/04 RMK AO2
94908KDBQ DBQ20050503060509505/03/05 06:05:31  5-MIN KDBQ 031205Z 23004KT 9SM CLR M04/M06 A3014 880 88 -1100 220/04 RMK AO2
94908KDBQ DBQ20050503061009605/03/05 06:10:31  5-MIN KDBQ 031210Z 23004KT 10SM CLR M03/M06 A3014 880 85 -1100 230/04 RMK AO2
94908KDBQ DBQ20050503061509605/03/05 06:15:31  5-MIN KDBQ 031215Z 24004KT 10SM CLR M03/M05 A3014 870 88 -1100 230/04 RMK AO2
94908KDBQ DBQ20050503062009605/03/05 06:20:31  5-MIN KDBQ 031220Z 20004KT 10SM CLR M03/M05 A3014 880 85 -1000 200/04 RMK AO2
94908KDBQ DBQ20050503062509505/03/05 06:25:31  5-MIN KDBQ 031225Z 21004KT 10SM CLR M02/M04 A3014 870 85 -900 210/04 RMK AO2
94908KDBQ DBQ20050503063009505/03/05 06:30:31  5-MIN KDBQ 031230Z 22004KT 10SM CLR M02/M04 A3014 870 85 -900 220/04 RMK AO2
94908KDBQ DBQ20050503063509505/03/05 06:35:31  5-MIN KDBQ 031235Z 21004KT 10SM CLR M02/M04 A3015 870 85 -900 200/04 RMK AO2
94908KDBQ DBQ20050503064009505/03/05 06:40:31  5-MIN KDBQ 031240Z 23004KT 10SM CLR M01/M04 A3015 870 81 -800 220/04 RMK AO2
94908KDBQ DBQ20050503064509505/03/05 06:45:31  5-MIN KDBQ 031245Z 20005KT 10SM CLR M01/M04 A3015 870 81 -800 200/05 RMK AO2
94908KDBQ DBQ20050503065011205/03/05 06:50:31  5-MIN KDBQ 031250Z 23005KT 10SM CLR M01/M03 A3015 870 81 -700 220/05 RMK AO2 SLP222 T10061033
94908KDBQ DBQ20050503065511105/03/05 06:55:31  5-MIN KDBQ 031255Z 21005KT 10SM CLR 00/M03 A3015 870 78 -700 210/05 RMK AO2 SLP222 T00001033
94908KDBQ DBQ20050503070009405/03/05 07:00:31  5-MIN KDBQ 031300Z 22006KT 10SM CLR 00/M03 A3015 870 78 -700 220/06 RMK AO2
94908KDBQ DBQ20050503070509405/03/05 07:05:31  5-MIN KDBQ 031305Z 21006KT 10SM CLR 01/M03 A3015 870 75 -600 210/06 RMK AO2
94908KDBQ DBQ20050503071009405/03/05 07:10:31  5-MIN KDBQ 031310Z 22007KT 10SM CLR 01/M03 A3016 850 75 -600 220/07 RMK AO2
94908KDBQ DBQ20050503071509405/03/05 07:15:31  5-MIN KDBQ 031315Z 22007KT 10SM CLR 01/M03 A3016 860 72 -500 210/07 RMK AO2
94908KDBQ DBQ20050503072009405/03/05 07:20:31  5-MIN KDBQ 031320Z 23006KT 10SM CLR 01/M03 A3016 850 72 -500 230/06 RMK AO2
94908KDBQ DBQ20050503072509405/03/05 07:25:31  5-MIN KDBQ 031325Z 23006KT 10SM CLR 02/M03 A3016 850 72 -500 230/06 RMK AO2
94908KDBQ DBQ20050503073009405/03/05 07:30:31  5-MIN KDBQ 031330Z 22006KT 10SM CLR 02/M03 A3017 850 69 -400 220/06 RMK AO2
94908KDBQ DBQ20050503073509405/03/05 07:35:31  5-MIN KDBQ 031335Z 22006KT 10SM CLR 02/M03 A3017 850 69 -400 220/06 RMK AO2
94908KDBQ DBQ20050503074009405/03/05 07:40:31  5-MIN KDBQ 031340Z 21008KT 10SM CLR 03/M03 A3015 860 67 -300 210/08 RMK AO2
94908KDBQ DBQ20050503074509405/03/05 07:45:31  5-MIN KDBQ 031345Z 22008KT 10SM CLR 03/M03 A3015 860 67 -300 220/08 RMK AO2
94908KDBQ DBQ20050503075011105/03/05 07:50:31  5-MIN KDBQ 031350Z 22008KT 10SM CLR 03/M03 A3016 860 64 -300 220/08 RMK AO2 SLP223 T00331028
94908KDBQ DBQ20050503075511105/03/05 07:55:31  5-MIN KDBQ 031355Z 24008KT 10SM CLR 03/M03 A3016 860 64 -300 240/08 RMK AO2 SLP222 T00331028
94908KDBQ DBQ20050503080009405/03/05 08:00:31  5-MIN KDBQ 031400Z 22007KT 10SM CLR 04/M03 A3015 860 62 -200 220/07 RMK AO2
94908KDBQ DBQ20050503080509405/03/05 08:05:31  5-MIN KDBQ 031405Z 22008KT 10SM CLR 04/M03 A3015 860 62 -200 220/08 RMK AO2
94908KDBQ DBQ20050503081009405/03/05 08:10:31  5-MIN KDBQ 031410Z 22007KT 10SM CLR 04/M03 A3016 860 62 -200 220/07 RMK AO2
94908KDBQ DBQ20050503081509405/03/05 08:15:31  5-MIN KDBQ 031415Z 22007KT 10SM CLR 04/M02 A3017 850 62 -100 220/07 RMK AO2
94908KDBQ DBQ20050503082009405/03/05 08:20:31  5-MIN KDBQ 031420Z 24006KT 10SM CLR 04/M03 A3017 850 59 -100 240/06 RMK AO2
94908KDBQ DBQ20050503082509405/03/05 08:25:31  5-MIN KDBQ 031425Z 23006KT 10SM CLR 04/M03 A3017 850 59 -100 230/06 RMK AO2
94908KDBQ DBQ20050503083009405/03/05 08:30:31  5-MIN KDBQ 031430Z 24008KT 10SM CLR 05/M03 A3017 850 57 -100 240/08 RMK AO2
94908KDBQ DBQ20050503083509405/03/05 08:35:31  5-MIN KDBQ 031435Z 28005KT 10SM CLR 05/M04 A3017 850 52 -100 280/05 RMK AO2
94908KDBQ DBQ20050503084009405/03/05 08:40:31  5-MIN KDBQ 031440Z 26005KT 10SM CLR 05/M04 A3017 850 52 -100 260/05 RMK AO2
94908KDBQ DBQ20050503084509105/03/05 08:45:31  5-MIN KDBQ 031445Z 27007KT 10SM CLR 06/M04 A3017 850 48 0 270/07 RMK AO2
94908KDBQ DBQ20050503085011405/03/05 08:50:31  5-MIN KDBQ 031450Z 26005KT 10SM CLR 06/M05 A3017 850 46 0 260/05 RMK AO2 SLP228 T00561050 53004
94908KDBQ DBQ20050503085511405/03/05 08:55:31  5-MIN KDBQ 031455Z 27007KT 10SM CLR 06/M04 A3017 840 48 0 270/07 RMK AO2 SLP228 T00561044 53012
94908KDBQ DBQ20050503090009105/03/05 09:00:31  5-MIN KDBQ 031500Z 31005KT 10SM CLR 06/M05 A3017 840 45 0 310/05 RMK AO2
94908KDBQ DBQ20050503090509105/03/05 09:05:31  5-MIN KDBQ 031505Z 29007KT 10SM CLR 06/M05 A3017 850 45 0 290/07 RMK AO2
94908KDBQ DBQ20050503091009105/03/05 09:10:31  5-MIN KDBQ 031510Z 31008KT 10SM CLR 06/M05 A3017 850 45 0 310/08 RMK AO2
94908KDBQ DBQ20050503091509105/03/05 09:15:31  5-MIN KDBQ 031515Z 27006KT 10SM CLR 06/M05 A3017 840 45 0 270/06 RMK AO2
94908KDBQ DBQ20050503092009305/03/05 09:20:31  5-MIN KDBQ 031520Z 28008KT 10SM CLR 07/M05 A3017 840 43 100 280/08 RMK AO2
94908KDBQ DBQ20050503092509305/03/05 09:25:31  5-MIN KDBQ 031525Z 27006KT 10SM CLR 07/M05 A3017 840 43 100 270/06 RMK AO2
94908KDBQ DBQ20050503093009305/03/05 09:30:31  5-MIN KDBQ 031530Z 27005KT 10SM CLR 07/M05 A3018 840 41 100 260/05 RMK AO2
94908KDBQ DBQ20050503093509305/03/05 09:35:31  5-MIN KDBQ 031535Z 30008KT 10SM CLR 07/M06 A3018 840 38 100 300/08 RMK AO2
94908KDBQ DBQ20050503094009905/03/05 09:40:31  5-MIN KDBQ 031540Z 29012G16KT 10SM CLR 08/M08 A3018 840 32 200 280/12G16 RMK AO2
94908KDBQ DBQ20050503094509305/03/05 09:45:31  5-MIN KDBQ 031545Z 29009KT 10SM CLR 08/M07 A3018 840 34 200 290/09 RMK AO2
94908KDBQ DBQ20050503095011005/03/05 09:50:31  5-MIN KDBQ 031550Z 31012KT 10SM CLR 08/M08 A3018 840 32 200 310/12 RMK AO2 SLP229 T00781078
94908KDBQ DBQ20050503095511005/03/05 09:55:31  5-MIN KDBQ 031555Z 28007KT 10SM CLR 08/M09 A3018 840 29 200 280/07 RMK AO2 SLP229 T00781089
94908KDBQ DBQ20050503100009305/03/05 10:00:31  5-MIN KDBQ 031600Z 29008KT 10SM CLR 08/M09 A3018 840 29 200 290/08 RMK AO2
94908KDBQ DBQ20050503100509305/03/05 10:05:31  5-MIN KDBQ 031605Z 29008KT 10SM CLR 08/M09 A3018 840 29 200 290/08 RMK AO2
94908KDBQ DBQ20050503101009905/03/05 10:10:31  5-MIN KDBQ 031610Z 33007G14KT 10SM CLR 08/M09 A3018 840 28 200 320/07G14 RMK AO2
94908KDBQ DBQ20050503101509305/03/05 10:15:31  5-MIN KDBQ 031615Z 26010KT 10SM CLR 08/M08 A3018 840 31 200 260/10 RMK AO2
94908KDBQ DBQ20050503102009305/03/05 10:20:31  5-MIN KDBQ 031620Z 26009KT 10SM CLR 08/M08 A3018 840 32 200 260/09 RMK AO2
94908KDBQ DBQ20050503102509305/03/05 10:25:31  5-MIN KDBQ 031625Z 00000KT 10SM CLR 07/M08 A3018 840 33 100 000/00 RMK AO2
94908KDBQ DBQ20050503103009905/03/05 10:30:31  5-MIN KDBQ 031630Z 32010G14KT 10SM CLR 09/M07 A3018 840 31 300 320/10G14 RMK AO2
94908KDBQ DBQ20050503103509905/03/05 10:35:31  5-MIN KDBQ 031635Z VRB06G14KT 10SM CLR 08/M08 A3018 840 31 300 VRB/06G14 RMK AO2
94908KDBQ DBQ20050503104009305/03/05 10:40:31  5-MIN KDBQ 031640Z 31012KT 10SM CLR 09/M08 A3018 840 28 300 310/12 RMK AO2
94908KDBQ DBQ20050503104509905/03/05 10:45:31  5-MIN KDBQ 031645Z 30009G15KT 10SM CLR 08/M08 A3018 840 30 300 300/09G15 RMK AO2
94908KDBQ DBQ20050503105011605/03/05 10:50:31  5-MIN KDBQ 031650Z VRB06G15KT 10SM CLR 08/M08 A3018 840 30 300 VRB/06G15 RMK AO2 SLP229 T00831083
94908KDBQ DBQ20050503105511005/03/05 10:55:31  5-MIN KDBQ 031655Z VRB03KT 10SM CLR 09/M07 A3017 850 31 400 VRB/03 RMK AO2 SLP228 T00891072
94908KDBQ DBQ20050503110009905/03/05 11:00:31  5-MIN KDBQ 031700Z 33011G14KT 10SM CLR 09/M08 A3017 850 28 400 330/11G14 RMK AO2
94908KDBQ DBQ20050503110511605/03/05 11:05:31  5-MIN KDBQ 031705Z 31009G14KT 270V340 10SM CLR 09/M09  A3017 850 27 400 310/09G14 270V340 RMK AO2
94908KDBQ DBQ20050503111009905/03/05 11:10:31  5-MIN KDBQ 031710Z 32013G16KT 10SM CLR 09/M08 A3017 840 27 400 320/13G16 RMK AO2
94908KDBQ DBQ20050503111509905/03/05 11:15:31  5-MIN KDBQ 031715Z 33010G16KT 10SM CLR 09/M09 A3017 850 27 400 330/10G16 RMK AO2
94908KDBQ DBQ20050503112010905/03/05 11:20:31  5-MIN KDBQ 031720Z 31008KT 280V340 10SM CLR 09/M09 A3017 850 27 400 310/08 280V340 RMK AO2
94908KDBQ DBQ20050503112511605/03/05 11:25:31  5-MIN KDBQ 031725Z 28011G20KT 250V320 10SM CLR 09/M08  A3017 850 27 400 280/11G20 250V320 RMK AO2
94908KDBQ DBQ20050503113009905/03/05 11:30:31  5-MIN KDBQ 031730Z 31012G20KT 10SM CLR 10/M08 A3017 850 28 500 310/12G20 RMK AO2
94908KDBQ DBQ20050503113509905/03/05 11:35:31  5-MIN KDBQ 031735Z VRB04G15KT 10SM CLR 09/M09 A3017 850 26 400 VRB/04G15 RMK AO2
94908KDBQ DBQ20050503114009305/03/05 11:40:31  5-MIN KDBQ 031740Z 30008KT 10SM CLR 09/M08 A3017 850 29 400 300/08 RMK AO2
94908KDBQ DBQ20050503114509905/03/05 11:45:31  5-MIN KDBQ 031745Z VRB05G14KT 10SM CLR 09/M09 A3017 850 26 400 VRB/05G14 RMK AO2
94908KDBQ DBQ20050503115013405/03/05 11:50:31  5-MIN KDBQ 031750Z 28010G14KT 10SM CLR 09/M09 A3016 850 26 400 280/10G14 RMK AO2 SLP224 T00941089 10100 21044 53012
94908KDBQ DBQ20050503115515205/03/05 11:55:31  5-MIN KDBQ 031755Z 29010G23KT 230V340 10SM CLR 09/M09  A3017 850 25 400 290/10G23 230V340 RMK AO2 SLP225 T00941094 10100 21044  58003
94908KDBQ DBQ20050503120011605/03/05 12:00:31  5-MIN KDBQ 031800Z 31010G23KT 270V360 10SM CLR 10/M07  A3016 860 29 500 310/10G23 270V360 RMK AO2
94908KDBQ DBQ20050503120509305/03/05 12:05:31  5-MIN KDBQ 031805Z 31006KT 10SM CLR 09/M09 A3016 860 26 400 310/06 RMK AO2
94908KDBQ DBQ20050503121009305/03/05 12:10:31  5-MIN KDBQ 031810Z 31012KT 10SM CLR 10/M08 A3016 860 26 500 310/12 RMK AO2
94908KDBQ DBQ20050503121509305/03/05 12:15:31  5-MIN KDBQ 031815Z 33012KT 10SM CLR 11/M07 A3016 860 28 600 330/12 RMK AO2
94908KDBQ DBQ20050503122009905/03/05 12:20:31  5-MIN KDBQ 031820Z VRB04G14KT 10SM CLR 09/M09 A3016 860 26 400 VRB/04G14 RMK AO2
94908KDBQ DBQ20050503122509905/03/05 12:25:31  5-MIN KDBQ 031825Z 29010G17KT 10SM CLR 10/M08 A3016 860 26 500 290/10G17 RMK AO2
94908KDBQ DBQ20050503123011605/03/05 12:30:31  5-MIN KDBQ 031830Z 31008G17KT 280V340 10SM CLR 10/M09  A3016 860 25 500 310/08G17 280V340 RMK AO2
94908KDBQ DBQ20050503123509305/03/05 12:35:31  5-MIN KDBQ 031835Z VRB05KT 10SM CLR 10/M09 A3016 860 25 500 VRB/05 RMK AO2
94908KDBQ DBQ20050503124009305/03/05 12:40:31  5-MIN KDBQ 031840Z 31007KT 10SM CLR 10/M08 A3016 860 26 500 310/07 RMK AO2
94908KDBQ DBQ20050503124510905/03/05 12:45:31  5-MIN KDBQ 031845Z 33007KT 290V350 10SM CLR 11/M08 A3015 870 27 600 330/07 290V350 RMK AO2
94908KDBQ DBQ20050503125011005/03/05 12:50:31  5-MIN KDBQ 031850Z VRB04KT 10SM CLR 10/M08 A3015 860 26 500 VRB/04 RMK AO2 SLP221 T01001083
94908KDBQ DBQ20050503125511605/03/05 12:55:31  5-MIN KDBQ 031855Z 29010G14KT 10SM CLR 11/M09 A3015 860 24 600 280/10G14 RMK AO2 SLP220 T01061089
94908KDBQ DBQ20050503130009905/03/05 13:00:31  5-MIN KDBQ 031900Z 29012G18KT 10SM CLR 11/M09 A3015 860 23 600 290/12G18 RMK AO2
94908KDBQ DBQ20050503130509905/03/05 13:05:31  5-MIN KDBQ 031905Z 29011G18KT 10SM CLR 11/M09 A3015 860 23 600 290/11G18 RMK AO2
94908KDBQ DBQ20050503131010905/03/05 13:10:31  5-MIN KDBQ 031910Z 29008KT 270V350 10SM CLR 11/M09 A3015 860 23 600 290/08 270V350 RMK AO2
94908KDBQ DBQ20050503131509905/03/05 13:15:31  5-MIN KDBQ 031915Z 32012G15KT 10SM CLR 11/M08 A3015 870 25 600 320/12G15 RMK AO2
94908KDBQ DBQ20050503132009305/03/05 13:20:31  5-MIN KDBQ 031920Z 31007KT 10SM CLR 11/M09 A3015 870 24 600 310/07 RMK AO2
94908KDBQ DBQ20050503132509905/03/05 13:25:31  5-MIN KDBQ 031925Z 32012G18KT 10SM CLR 11/M08 A3015 870 25 600 320/12G18 RMK AO2
94908KDBQ DBQ20050503133009905/03/05 13:30:31  5-MIN KDBQ 031930Z 29013G18KT 10SM CLR 11/M08 A3015 870 25 600 290/13G18 RMK AO2
94908KDBQ DBQ20050503133509905/03/05 13:35:31  5-MIN KDBQ 031935Z 32010G16KT 10SM CLR 11/M09 A3015 870 24 600 320/10G16 RMK AO2
94908KDBQ DBQ20050503134009305/03/05 13:40:31  5-MIN KDBQ 031940Z 32010KT 10SM CLR 11/M09 A3015 870 23 600 320/10 RMK AO2
94908KDBQ DBQ20050503134509905/03/05 13:45:31  5-MIN KDBQ 031945Z 33009G16KT 10SM CLR 11/M10 A3015 870 22 600 330/09G16 RMK AO2
94908KDBQ DBQ20050503135011605/03/05 13:50:31  5-MIN KDBQ 031950Z 31012G19KT 10SM CLR 11/M10 A3015 870 22 600 300/12G19 RMK AO2 SLP219 T01061100
94908KDBQ DBQ20050503135511605/03/05 13:55:31  5-MIN KDBQ 031955Z 31010G19KT 10SM CLR 11/M09 A3015 870 23 700 300/10G19 RMK AO2 SLP218 T01111089
94908KDBQ DBQ20050503140009305/03/05 14:00:31  5-MIN KDBQ 032000Z 30011KT 10SM CLR 11/M08 A3015 870 25 600 300/11 RMK AO2
94908KDBQ DBQ20050503140509305/03/05 14:05:31  5-MIN KDBQ 032005Z 30012KT 10SM CLR 11/M08 A3015 870 25 700 300/12 RMK AO2
94908KDBQ DBQ20050503141009305/03/05 14:10:31  5-MIN KDBQ 032010Z 32009KT 10SM CLR 11/M09 A3014 870 24 600 320/09 RMK AO2
94908KDBQ DBQ20050503141509905/03/05 14:15:31  5-MIN KDBQ 032015Z 31013G17KT 10SM CLR 11/M08 A3015 870 25 700 310/13G17 RMK AO2
94908KDBQ DBQ20050503142009905/03/05 14:20:31  5-MIN KDBQ 032020Z 32009G17KT 10SM CLR 11/M08 A3014 870 25 700 310/09G17 RMK AO2
94908KDBQ DBQ20050503142509305/03/05 14:25:31  5-MIN KDBQ 032025Z 31012KT 10SM CLR 11/M08 A3014 880 26 700 310/12 RMK AO2
94908KDBQ DBQ20050503143011605/03/05 14:30:31  5-MIN KDBQ 032030Z 33007G16KT 250V360 10SM CLR 11/M08  A3014 870 25 600 320/07G16 250V360 RMK AO2
94908KDBQ DBQ20050503143509305/03/05 14:35:31  5-MIN KDBQ 032035Z 34007KT 10SM CLR 11/M07 A3014 880 27 700 340/07 RMK AO2
94908KDBQ DBQ20050503144009905/03/05 14:40:31  5-MIN KDBQ 032040Z 32015G19KT 10SM CLR 12/M07 A3014 870 26 700 320/15G19 RMK AO2
94908KDBQ DBQ20050503144509905/03/05 14:45:31  5-MIN KDBQ 032045Z 29012G19KT 10SM CLR 11/M08 A3014 870 26 700 290/12G19 RMK AO2
94908KDBQ DBQ20050503145012205/03/05 14:50:31  5-MIN KDBQ 032050Z 30013G19KT 10SM CLR 12/M08 A3014 880 25 700 300/13G19 RMK AO2 SLP215 T01171078 58003
94908KDBQ DBQ20050503145511605/03/05 14:55:31  5-MIN KDBQ 032055Z 31008KT 10SM CLR 11/M08 A3014 880 26 700 310/08 RMK AO2 SLP214 T01111078 57010
94908KDBQ DBQ20050503150011605/03/05 15:00:31  5-MIN KDBQ 032100Z 29010G15KT 270V330 10SM CLR 11/M08  A3014 880 25 700 290/10G15 270V330 RMK AO2
94908KDBQ DBQ20050503150509905/03/05 15:05:31  5-MIN KDBQ 032105Z 31009G15KT 10SM CLR 12/M08 A3014 880 24 700 310/09G15 RMK AO2
94908KDBQ DBQ20050503151009905/03/05 15:10:31  5-MIN KDBQ 032110Z 32014G17KT 10SM CLR 12/M09 A3014 880 23 700 320/14G17 RMK AO2
94908KDBQ DBQ20050503151509905/03/05 15:15:31  5-MIN KDBQ 032115Z 32014G19KT 10SM CLR 12/M08 A3014 880 24 700 320/14G19 RMK AO2
94908KDBQ DBQ20050503152009905/03/05 15:20:31  5-MIN KDBQ 032120Z 31010G19KT 10SM CLR 11/M08 A3014 880 25 700 310/10G19 RMK AO2
94908KDBQ DBQ20050503152509305/03/05 15:25:31  5-MIN KDBQ 032125Z 32010KT 10SM CLR 12/M08 A3014 880 25 700 320/10 RMK AO2
94908KDBQ DBQ20050503153009905/03/05 15:30:31  5-MIN KDBQ 032130Z 32012G18KT 10SM CLR 11/M09 A3014 880 23 700 320/12G18 RMK AO2
94908KDBQ DBQ20050503153509905/03/05 15:35:31  5-MIN KDBQ 032135Z 34010G18KT 10SM CLR 11/M08 A3014 880 25 700 340/10G18 RMK AO2
94908KDBQ DBQ20050503154009305/03/05 15:40:31  5-MIN KDBQ 032140Z 34012KT 10SM CLR 12/M08 A3014 880 24 700 340/12 RMK AO2
94908KDBQ DBQ20050503154509305/03/05 15:45:31  5-MIN KDBQ 032145Z 32013KT 10SM CLR 12/M07 A3014 880 26 700 310/13 RMK AO2
94908KDBQ DBQ20050503155011005/03/05 15:50:31  5-MIN KDBQ 032150Z 32011KT 10SM CLR 12/M08 A3014 880 25 700 320/11 RMK AO2 SLP215 T01171078
94908KDBQ DBQ20050503155511005/03/05 15:55:31  5-MIN KDBQ 032155Z 33010KT 10SM CLR 11/M08 A3014 880 25 700 320/10 RMK AO2 SLP214 T01111083
94908KDBQ DBQ20050503160009905/03/05 16:00:31  5-MIN KDBQ 032200Z 31015G18KT 10SM CLR 12/M09 A3014 880 23 700 300/15G18 RMK AO2
94908KDBQ DBQ20050503160509905/03/05 16:05:31  5-MIN KDBQ 032205Z 32009G18KT 10SM CLR 11/M09 A3014 880 23 700 320/09G18 RMK AO2
94908KDBQ DBQ20050503161009305/03/05 16:10:31  5-MIN KDBQ 032210Z 32009KT 10SM CLR 11/M08 A3014 880 25 700 320/09 RMK AO2
94908KDBQ DBQ20050503161509305/03/05 16:15:31  5-MIN KDBQ 032215Z 31013KT 10SM CLR 12/M08 A3014 880 24 700 310/13 RMK AO2
94908KDBQ DBQ20050503162009305/03/05 16:20:31  5-MIN KDBQ 032220Z 29011KT 10SM CLR 11/M09 A3014 880 23 700 290/11 RMK AO2
94908KDBQ DBQ20050503162509305/03/05 16:25:31  5-MIN KDBQ 032225Z 30010KT 10SM CLR 11/M08 A3014 880 25 700 300/10 RMK AO2
94908KDBQ DBQ20050503163009305/03/05 16:30:31  5-MIN KDBQ 032230Z 30016KT 10SM CLR 12/M09 A3014 880 23 700 300/16 RMK AO2
94908KDBQ DBQ20050503163509905/03/05 16:35:31  5-MIN KDBQ 032235Z 33012G18KT 10SM CLR 12/M08 A3014 880 24 700 330/12G18 RMK AO2
94908KDBQ DBQ20050503164009905/03/05 16:40:31  5-MIN KDBQ 032240Z 32010G17KT 10SM CLR 11/M09 A3014 870 22 700 320/10G17 RMK AO2
94908KDBQ DBQ20050503164509305/03/05 16:45:31  5-MIN KDBQ 032245Z 33010KT 10SM CLR 11/M09 A3014 880 23 700 330/10 RMK AO2
94908KDBQ DBQ20050503165011005/03/05 16:50:31  5-MIN KDBQ 032250Z 33009KT 10SM CLR 11/M08 A3014 880 25 700 330/09 RMK AO2 SLP215 T01111083
94908KDBQ DBQ20050503165511005/03/05 16:55:31  5-MIN KDBQ 032255Z 30011KT 10SM CLR 11/M08 A3014 880 25 700 300/11 RMK AO2 SLP215 T01111083
94908KDBQ DBQ20050503170009305/03/05 17:00:31  5-MIN KDBQ 032300Z 32010KT 10SM CLR 11/M09 A3014 880 23 700 320/10 RMK AO2
94908KDBQ DBQ20050503170509305/03/05 17:05:31  5-MIN KDBQ 032305Z 31009KT 10SM CLR 11/M08 A3014 880 25 700 310/09 RMK AO2
94908KDBQ DBQ20050503171009305/03/05 17:10:31  5-MIN KDBQ 032310Z 32009KT 10SM CLR 11/M09 A3014 880 23 700 320/09 RMK AO2
94908KDBQ DBQ20050503171509305/03/05 17:15:31  5-MIN KDBQ 032315Z 33009KT 10SM CLR 11/M09 A3014 880 22 700 330/09 RMK AO2
94908KDBQ DBQ20050503172009305/03/05 17:20:31  5-MIN KDBQ 032320Z 32009KT 10SM CLR 11/M09 A3014 880 23 700 320/09 RMK AO2
94908KDBQ DBQ20050503172509305/03/05 17:25:31  5-MIN KDBQ 032325Z 31011KT 10SM CLR 11/M08 A3014 880 25 700 310/11 RMK AO2
94908KDBQ DBQ20050503173009305/03/05 17:30:31  5-MIN KDBQ 032330Z 31008KT 10SM CLR 11/M09 A3014 880 22 700 310/08 RMK AO2
94908KDBQ DBQ20050503173509305/03/05 17:35:31  5-MIN KDBQ 032335Z 31008KT 10SM CLR 11/M09 A3014 870 23 700 300/08 RMK AO2
94908KDBQ DBQ20050503174009305/03/05 17:40:31  5-MIN KDBQ 032340Z 31010KT 10SM CLR 11/M09 A3014 870 23 600 310/10 RMK AO2
94908KDBQ DBQ20050503174509305/03/05 17:45:31  5-MIN KDBQ 032345Z 30011KT 10SM CLR 11/M09 A3014 870 23 600 300/11 RMK AO2
94908KDBQ DBQ20050503175012805/03/05 17:50:31  5-MIN KDBQ 032350Z 31012KT 10SM CLR 11/M10 A3014 870 22 600 310/12 RMK AO2 SLP216 T01061100 10122 20094 57010
94908KDBQ DBQ20050503175512805/03/05 17:55:31  5-MIN KDBQ 032355Z 31010KT 10SM CLR 11/M10 A3014 870 22 600 310/10 RMK AO2 SLP216 T01061100 10122 20094 53002
94908KDBQ DBQ20050503180009305/03/05 18:00:31  5-MIN KDBQ 040000Z 32010KT 10SM CLR 10/M09 A3014 870 24 500 320/10 RMK AO2
94908KDBQ DBQ20050503180509305/03/05 18:05:31  5-MIN KDBQ 040005Z 32010KT 10SM CLR 10/M09 A3014 870 24 500 320/10 RMK AO2
94908KDBQ DBQ20050503181009305/03/05 18:10:31  5-MIN KDBQ 040010Z 32008KT 10SM CLR 10/M09 A3014 870 24 500 320/08 RMK AO2
94908KDBQ DBQ20050503181509305/03/05 18:15:31  5-MIN KDBQ 040015Z 31009KT 10SM CLR 10/M09 A3014 870 24 500 310/09 RMK AO2
94908KDBQ DBQ20050503182009305/03/05 18:20:31  5-MIN KDBQ 040020Z 32007KT 10SM CLR 09/M09 A3015 870 26 500 320/07 RMK AO2
94908KDBQ DBQ20050503182509305/03/05 18:25:31  5-MIN KDBQ 040025Z 31009KT 10SM CLR 09/M09 A3015 870 26 400 310/09 RMK AO2
94908KDBQ DBQ20050503183009305/03/05 18:30:31  5-MIN KDBQ 040030Z 32008KT 10SM CLR 09/M09 A3015 870 25 400 320/08 RMK AO2
94908KDBQ DBQ20050503183510405/03/05 18:35:31  5-MIN KDBQ 040035Z AUTO 32008KT 10SM CLR 08/M08 A3015  870 30 300 320/08 RMK AO2 TSNO
94908KDBQ DBQ20050503184010405/03/05 18:40:31  5-MIN KDBQ 040040Z AUTO 31006KT 10SM CLR 08/M08 A3015  870 30 300 310/06 RMK AO2 TSNO
94908KDBQ DBQ20050503184510405/03/05 18:45:31  5-MIN KDBQ 040045Z AUTO 31005KT 10SM CLR 08/M09 A3015  860 29 200 310/05 RMK AO2 TSNO
94908KDBQ DBQ20050503185012105/03/05 18:50:31  5-MIN KDBQ 040050Z AUTO 32005KT 10SM CLR 08/M09 A3015  860 29 200 320/05 RMK AO2 SLP220 T00781089 TSNO
94908KDBQ DBQ20050503185512105/03/05 18:55:31  5-MIN KDBQ 040055Z AUTO 32005KT 10SM CLR 08/M08 A3015  860 31 200 310/05 RMK AO2 SLP220 T00781083 TSNO
94908KDBQ DBQ20050503190010405/03/05 19:00:31  5-MIN KDBQ 040100Z AUTO 32005KT 10SM CLR 07/M08 A3015  860 32 200 320/05 RMK AO2 TSNO
94908KDBQ DBQ20050503190510405/03/05 19:05:31  5-MIN KDBQ 040105Z AUTO 32005KT 10SM CLR 08/M08 A3015  860 31 200 320/05 RMK AO2 TSNO
94908KDBQ DBQ20050503191010405/03/05 19:10:31  5-MIN KDBQ 040110Z AUTO 32005KT 10SM CLR 07/M09 A3016  860 31 200 320/05 RMK AO2 TSNO
94908KDBQ DBQ20050503191510405/03/05 19:15:31  5-MIN KDBQ 040115Z AUTO 32005KT 10SM CLR 07/M09 A3016  860 31 200 320/05 RMK AO2 TSNO
94908KDBQ DBQ20050503192010405/03/05 19:20:31  5-MIN KDBQ 040120Z AUTO 32004KT 10SM CLR 07/M09 A3016  860 31 200 320/04 RMK AO2 TSNO
94908KDBQ DBQ20050503192510405/03/05 19:25:31  5-MIN KDBQ 040125Z AUTO 33005KT 10SM CLR 07/M09 A3016  860 31 200 330/05 RMK AO2 TSNO
94908KDBQ DBQ20050503193010405/03/05 19:30:31  5-MIN KDBQ 040130Z AUTO 33005KT 10SM CLR 07/M09 A3016  860 29 200 320/05 RMK AO2 TSNO
94908KDBQ DBQ20050503193510405/03/05 19:35:31  5-MIN KDBQ 040135Z AUTO 33005KT 10SM CLR 07/M09 A3016  850 29 200 320/05 RMK AO2 TSNO
94908KDBQ DBQ20050503194010405/03/05 19:40:31  5-MIN KDBQ 040140Z AUTO 32005KT 10SM CLR 07/M09 A3016  850 29 200 320/05 RMK AO2 TSNO
94908KDBQ DBQ20050503194510405/03/05 19:45:31  5-MIN KDBQ 040145Z AUTO 32004KT 10SM CLR 07/M09 A3017  850 30 100 320/04 RMK AO2 TSNO
94908KDBQ DBQ20050503195012205/03/05 19:50:31  5-MIN KDBQ 040150Z AUTO 31004KT 10SM CLR 05/M08 A3017  850 37 -100 310/04 RMK AO2 SLP225 T00501083 TSNO
94908KDBQ DBQ20050503195511905/03/05 19:55:31  5-MIN KDBQ 040155Z AUTO 31004KT 10SM CLR 06/M09 A3017  850 33 0 310/04 RMK AO2 SLP225 T00611089 TSNO
94908KDBQ DBQ20050503200010205/03/05 20:00:31  5-MIN KDBQ 040200Z AUTO 31003KT 10SM CLR 06/M09 A3017  850 34 0 300/03 RMK AO2 TSNO
94908KDBQ DBQ20050503200510505/03/05 20:05:31  5-MIN KDBQ 040205Z AUTO 31003KT 10SM CLR 04/M07 A3017  840 44 -200 310/03 RMK AO2 TSNO
94908KDBQ DBQ20050503201010505/03/05 20:10:31  5-MIN KDBQ 040210Z AUTO 31003KT 10SM CLR 04/M08 A3018  840 41 -100 310/03 RMK AO2 TSNO
94908KDBQ DBQ20050503201510505/03/05 20:15:31  5-MIN KDBQ 040215Z AUTO 31003KT 10SM CLR 04/M08 A3018  840 41 -100 310/03 RMK AO2 TSNO
94908KDBQ DBQ20050503202010505/03/05 20:20:31  5-MIN KDBQ 040220Z AUTO 00000KT 10SM CLR 04/M08 A3018  840 41 -100 000/00 RMK AO2 TSNO
94908KDBQ DBQ20050503202510505/03/05 20:25:31  5-MIN KDBQ 040225Z AUTO 00000KT 10SM CLR 04/M07 A3018  840 44 -200 000/00 RMK AO2 TSNO
94908KDBQ DBQ20050503203010505/03/05 20:30:31  5-MIN KDBQ 040230Z AUTO 31003KT 10SM CLR 03/M07 A3018  840 46 -300 310/03 RMK AO2 TSNO
94908KDBQ DBQ20050503203510505/03/05 20:35:31  5-MIN KDBQ 040235Z AUTO 00000KT 10SM CLR 04/M08 A3019  830 42 -200 000/00 RMK AO2 TSNO
94908KDBQ DBQ20050503204010505/03/05 20:40:31  5-MIN KDBQ 040240Z AUTO 00000KT 10SM CLR 04/M08 A3019  830 42 -200 000/00 RMK AO2 TSNO
94908KDBQ DBQ20050503204510505/03/05 20:45:31  5-MIN KDBQ 040245Z AUTO 00000KT 10SM CLR 03/M08 A3019  830 44 -300 000/00 RMK AO2 TSNO
94908KDBQ DBQ20050503205012805/03/05 20:50:31  5-MIN KDBQ 040250Z AUTO 00000KT 10SM CLR 03/M08 A3019  830 44 -300 000/00 RMK AO2 SLP233 T00331078 53002 TSNO
94908KDBQ DBQ20050503205512805/03/05 20:55:31  5-MIN KDBQ 040255Z AUTO 00000KT 10SM CLR 03/M08 A3019  830 44 -300 000/00 RMK AO2 SLP233 T00331078 53016 TSNO
94908KDBQ DBQ20050503210010505/03/05 21:00:31  5-MIN KDBQ 040300Z AUTO 00000KT 10SM CLR 03/M08 A3019  830 44 -300 000/00 RMK AO2 TSNO
94908KDBQ DBQ20050503210510505/03/05 21:05:31  5-MIN KDBQ 040305Z AUTO 00000KT 10SM CLR 03/M08 A3019  830 46 -400 000/00 RMK AO2 TSNO
94908KDBQ DBQ20050503211010505/03/05 21:10:31  5-MIN KDBQ 040310Z AUTO 00000KT 10SM CLR 02/M07 A3019  830 50 -400 000/00 RMK AO2 TSNO
94908KDBQ DBQ20050503211510505/03/05 21:15:31  5-MIN KDBQ 040315Z AUTO 00000KT 10SM CLR 02/M07 A3020  820 54 -500 000/00 RMK AO2 TSNO
94908KDBQ DBQ20050503212010505/03/05 21:20:31  5-MIN KDBQ 040320Z AUTO 00000KT 10SM CLR 02/M07 A3020  820 52 -500 000/00 RMK AO2 TSNO
94908KDBQ DBQ20050503212510505/03/05 21:25:31  5-MIN KDBQ 040325Z AUTO 00000KT 10SM CLR 02/M07 A3020  820 50 -400 000/00 RMK AO2 TSNO
94908KDBQ DBQ20050503213010505/03/05 21:30:31  5-MIN KDBQ 040330Z AUTO 00000KT 10SM CLR 03/M08 A3020  820 46 -400 000/00 RMK AO2 TSNO
94908KDBQ DBQ20050503213510505/03/05 21:35:31  5-MIN KDBQ 040335Z AUTO 21003KT 10SM CLR 02/M07 A3020  820 50 -400 210/03 RMK AO2 TSNO
94908KDBQ DBQ20050503214010505/03/05 21:40:31  5-MIN KDBQ 040340Z AUTO 22003KT 10SM CLR 02/M07 A3020  820 50 -400 220/03 RMK AO2 TSNO
94908KDBQ DBQ20050503214510505/03/05 21:45:31  5-MIN KDBQ 040345Z AUTO 00000KT 10SM CLR 02/M07 A3020  820 50 -400 000/00 RMK AO2 TSNO
94908KDBQ DBQ20050503215012205/03/05 21:50:31  5-MIN KDBQ 040350Z AUTO 00000KT 10SM CLR 03/M07 A3020  820 48 -400 000/00 RMK AO2 SLP233 T00281072 TSNO
94908KDBQ DBQ20050503215512205/03/05 21:55:31  5-MIN KDBQ 040355Z AUTO 00000KT 10SM CLR 03/M07 A3020  820 48 -400 000/00 RMK AO2 SLP233 T00281072 TSNO
94908KDBQ DBQ20050503220010505/03/05 22:00:31  5-MIN KDBQ 040400Z AUTO 00000KT 10SM CLR 02/M07 A3020  820 50 -400 000/00 RMK AO2 TSNO
94908KDBQ DBQ20050503220510505/03/05 22:05:31  5-MIN KDBQ 040405Z AUTO 00000KT 10SM CLR 02/M07 A3020  820 50 -400 000/00 RMK AO2 TSNO
94908KDBQ DBQ20050503221010505/03/05 22:10:31  5-MIN KDBQ 040410Z AUTO 00000KT 10SM CLR 02/M07 A3020  820 50 -400 000/00 RMK AO2 TSNO
94908KDBQ DBQ20050503221510505/03/05 22:15:31  5-MIN KDBQ 040415Z AUTO 00000KT 10SM CLR 02/M07 A3020  820 50 -400 000/00 RMK AO2 TSNO
94908KDBQ DBQ20050503222010505/03/05 22:20:31  5-MIN KDBQ 040420Z AUTO 00000KT 10SM CLR 02/M07 A3020  820 54 -500 000/00 RMK AO2 TSNO
94908KDBQ DBQ20050503222510505/03/05 22:25:31  5-MIN KDBQ 040425Z AUTO 21003KT 10SM CLR 02/M07 A3020  820 54 -500 210/03 RMK AO2 TSNO
94908KDBQ DBQ20050503223010505/03/05 22:30:31  5-MIN KDBQ 040430Z AUTO 22003KT 10SM CLR 01/M07 A3020  820 56 -600 220/03 RMK AO2 TSNO
94908KDBQ DBQ20050503223510505/03/05 22:35:31  5-MIN KDBQ 040435Z AUTO 22003KT 10SM CLR 01/M07 A3020  820 56 -600 220/03 RMK AO2 TSNO
94908KDBQ DBQ20050503224010505/03/05 22:40:31  5-MIN KDBQ 040440Z AUTO 22003KT 10SM CLR 01/M06 A3020  820 58 -600 220/03 RMK AO2 TSNO
94908KDBQ DBQ20050503224510505/03/05 22:45:31  5-MIN KDBQ 040445Z AUTO 22003KT 10SM CLR 02/M07 A3020  820 52 -500 220/03 RMK AO2 TSNO
94908KDBQ DBQ20050503225012205/03/05 22:50:31  5-MIN KDBQ 040450Z AUTO 00000KT 10SM CLR 02/M07 A3020  820 52 -500 000/00 RMK AO2 SLP235 T00171072 TSNO
94908KDBQ DBQ20050503225512205/03/05 22:55:31  5-MIN KDBQ 040455Z AUTO 00000KT 10SM CLR 01/M07 A3020  820 58 -700 000/00 RMK AO2 SLP236 T00061067 TSNO
94908KDBQ DBQ20050503230010505/03/05 23:00:31  5-MIN KDBQ 040500Z AUTO 20003KT 10SM CLR 00/M07 A3020  820 61 -700 200/03 RMK AO2 TSNO
94908KDBQ DBQ20050503230510505/03/05 23:05:31  5-MIN KDBQ 040505Z AUTO 20003KT 10SM CLR 00/M07 A3020  820 61 -700 200/03 RMK AO2 TSNO
94908KDBQ DBQ20050503231010605/03/05 23:10:31  5-MIN KDBQ 040510Z AUTO 20003KT 10SM CLR M01/M07 A3020  820 63 -800 200/03 RMK AO2 TSNO
94908KDBQ DBQ20050503231510505/03/05 23:15:31  5-MIN KDBQ 040515Z AUTO 00000KT 10SM CLR 01/M07 A3020  820 56 -700 000/00 RMK AO2 TSNO
94908KDBQ DBQ20050503232010505/03/05 23:20:31  5-MIN KDBQ 040520Z AUTO 20003KT 10SM CLR 01/M07 A3020  820 56 -700 200/03 RMK AO2 TSNO
94908KDBQ DBQ20050503232510505/03/05 23:25:31  5-MIN KDBQ 040525Z AUTO 20003KT 10SM CLR 01/M07 A3020  820 56 -700 200/03 RMK AO2 TSNO
94908KDBQ DBQ20050503233010505/03/05 23:30:31  5-MIN KDBQ 040530Z AUTO 20003KT 10SM CLR 01/M07 A3020  820 54 -600 200/03 RMK AO2 TSNO
94908KDBQ DBQ20050503233510505/03/05 23:35:31  5-MIN KDBQ 040535Z AUTO 20003KT 10SM CLR 01/M07 A3021  820 54 -600 190/03 RMK AO2 TSNO
94908KDBQ DBQ20050503234010505/03/05 23:40:31  5-MIN KDBQ 040540Z AUTO 00000KT 10SM CLR 01/M07 A3021  810 56 -700 000/00 RMK AO2 TSNO
94908KDBQ DBQ20050503234510505/03/05 23:45:31  5-MIN KDBQ 040545Z AUTO 00000KT 10SM CLR 01/M07 A3021  810 54 -600 000/00 RMK AO2 TSNO
94908KDBQ DBQ20050503235015105/03/05 23:50:31  5-MIN KDBQ 040550Z AUTO 00000KT 10SM CLR 01/M08 A3021  810 51 -600 000/00 RMK AO2 SLP237 T00111078 10106 21006 401221061 53016  TSNO
94908KDBQ DBQ20050503235515105/03/05 23:55:31  5-MIN KDBQ 040555Z AUTO 00000KT 10SM CLR 01/M07 A3021  810 54 -600 000/00 RMK AO2 SLP237 T00111072 10106 21006 401221061 52005  TSNO
94908KDBQ DBQ20050504000010505/04/05 00:00:38  5-MIN KDBQ 040600Z AUTO 00000KT 10SM CLR 01/M07 A3021  810 54 -600 000/00 RMK AO2 TSNO
94908KDBQ DBQ20050504000510505/04/05 00:05:31  5-MIN KDBQ 040605Z AUTO 00000KT 10SM CLR 01/M07 A3021  810 56 -700 000/00 RMK AO2 TSNO
94908KDBQ DBQ20050504001010505/04/05 00:10:31  5-MIN KDBQ 040610Z AUTO 00000KT 10SM CLR 01/M07 A3021  810 56 -700 000/00 RMK AO2 TSNO
94908KDBQ DBQ20050504001510505/04/05 00:15:31  5-MIN KDBQ 040615Z AUTO 00000KT 10SM CLR 00/M07 A3021  810 58 -700 000/00 RMK AO2 TSNO
94908KDBQ DBQ20050504002010505/04/05 00:20:31  5-MIN KDBQ 040620Z AUTO 00000KT 10SM CLR 00/M07 A3021  810 58 -700 000/00 RMK AO2 TSNO
94908KDBQ DBQ20050504002510505/04/05 00:25:31  5-MIN KDBQ 040625Z AUTO 00000KT 10SM CLR 00/M07 A3021  810 58 -700 000/00 RMK AO2 TSNO
94908KDBQ DBQ20050504003010505/04/05 00:30:31  5-MIN KDBQ 040630Z AUTO 00000KT 10SM CLR 01/M08 A3021  810 54 -700 000/00 RMK AO2 TSNO
94908KDBQ DBQ20050504003510505/04/05 00:35:31  5-MIN KDBQ 040635Z AUTO 00000KT 10SM CLR 01/M07 A3021  810 56 -700 000/00 RMK AO2 TSNO
94908KDBQ DBQ20050504004010505/04/05 00:40:31  5-MIN KDBQ 040640Z AUTO 00000KT 10SM CLR 01/M07 A3021  810 56 -700 000/00 RMK AO2 TSNO
94908KDBQ DBQ20050504004510505/04/05 00:45:31  5-MIN KDBQ 040645Z AUTO 00000KT 10SM CLR 01/M07 A3021  810 56 -700 000/00 RMK AO2 TSNO
94908KDBQ DBQ20050504005012205/04/05 00:50:31  5-MIN KDBQ 040650Z AUTO 00000KT 10SM CLR 00/M07 A3021  810 58 -700 000/00 RMK AO2 SLP239 T00001072 TSNO
94908KDBQ DBQ20050504005512205/04/05 00:55:31  5-MIN KDBQ 040655Z AUTO 00000KT 10SM CLR 00/M07 A3021  810 58 -700 000/00 RMK AO2 SLP238 T00001072 TSNO
94908KDBQ DBQ20050504010010505/04/05 01:00:31  5-MIN KDBQ 040700Z AUTO 00000KT 10SM CLR 00/M07 A3021  810 58 -700 000/00 RMK AO2 TSNO
94908KDBQ DBQ20050504010510605/04/05 01:05:31  5-MIN KDBQ 040705Z AUTO 00000KT 10SM CLR M01/M07 A3021  810 61 -800 000/00 RMK AO2 TSNO
94908KDBQ DBQ20050504011010605/04/05 01:10:31  5-MIN KDBQ 040710Z AUTO 00000KT 10SM CLR M01/M07 A3021  810 61 -800 000/00 RMK AO2 TSNO
94908KDBQ DBQ20050504011510605/04/05 01:15:31  5-MIN KDBQ 040715Z AUTO 20003KT 10SM CLR M01/M06 A3022  810 66 -800 200/03 RMK AO2 TSNO
94908KDBQ DBQ20050504012010605/04/05 01:20:31  5-MIN KDBQ 040720Z AUTO 00000KT 10SM CLR M01/M06 A3022  810 69 -900 000/00 RMK AO2 TSNO
94908KDBQ DBQ20050504012510605/04/05 01:25:31  5-MIN KDBQ 040725Z AUTO 00000KT 10SM CLR M01/M07 A3022  810 66 -900 000/00 RMK AO2 TSNO
94908KDBQ DBQ20050504013010605/04/05 01:30:31  5-MIN KDBQ 040730Z AUTO 00000KT 10SM CLR M01/M07 A3022  810 66 -900 000/00 RMK AO2 TSNO
94908KDBQ DBQ20050504013510605/04/05 01:35:31  5-MIN KDBQ 040735Z AUTO 00000KT 10SM CLR M01/M07 A3022  800 66 -900 000/00 RMK AO2 TSNO
94908KDBQ DBQ20050504014010605/04/05 01:40:31  5-MIN KDBQ 040740Z AUTO 00000KT 10SM CLR M01/M07 A3022  800 63 -800 000/00 RMK AO2 TSNO
94908KDBQ DBQ20050504014510505/04/05 01:45:31  5-MIN KDBQ 040745Z AUTO 00000KT 10SM CLR 00/M07 A3022  800 61 -700 000/00 RMK AO2 TSNO
94908KDBQ DBQ20050504015012205/04/05 01:50:31  5-MIN KDBQ 040750Z AUTO 00000KT 10SM CLR 00/M07 A3022  800 61 -700 000/00 RMK AO2 SLP240 T00001067 TSNO
94908KDBQ DBQ20050504015512205/04/05 01:55:31  5-MIN KDBQ 040755Z AUTO 00000KT 10SM CLR 01/M07 A3022  800 56 -700 000/00 RMK AO2 SLP241 T00061072 TSNO
94908KDBQ DBQ20050504020010505/04/05 02:00:31  5-MIN KDBQ 040800Z AUTO 00000KT 10SM CLR 01/M07 A3022  800 56 -700 000/00 RMK AO2 TSNO
94908KDBQ DBQ20050504020510605/04/05 02:05:31  5-MIN KDBQ 040805Z AUTO 00000KT 10SM CLR M01/M07 A3022  800 61 -800 000/00 RMK AO2 TSNO
94908KDBQ DBQ20050504021010605/04/05 02:10:31  5-MIN KDBQ 040810Z AUTO 00000KT 10SM CLR M01/M07 A3022  800 63 -900 000/00 RMK AO2 TSNO
94908KDBQ DBQ20050504021510605/04/05 02:15:31  5-MIN KDBQ 040815Z AUTO 00000KT 10SM CLR M01/M07 A3022  800 63 -800 000/00 RMK AO2 TSNO
94908KDBQ DBQ20050504022010605/04/05 02:20:31  5-MIN KDBQ 040820Z AUTO 00000KT 10SM CLR M01/M07 A3022  800 61 -800 000/00 RMK AO2 TSNO
94908KDBQ DBQ20050504022510505/04/05 02:25:31  5-MIN KDBQ 040825Z AUTO 00000KT 10SM CLR 00/M08 A3023  800 56 -800 000/00 RMK AO2 TSNO
94908KDBQ DBQ20050504023010605/04/05 02:30:31  5-MIN KDBQ 040830Z AUTO 00000KT 10SM CLR M01/M08 A3023  790 58 -800 000/00 RMK AO2 TSNO
94908KDBQ DBQ20050504023510605/04/05 02:35:31  5-MIN KDBQ 040835Z AUTO 00000KT 10SM CLR M01/M07 A3023  790 63 -900 000/00 RMK AO2 TSNO
94908KDBQ DBQ20050504024010605/04/05 02:40:31  5-MIN KDBQ 040840Z AUTO 00000KT 10SM CLR M01/M08 A3023  790 60 -900 000/00 RMK AO2 TSNO
94908KDBQ DBQ20050504024510505/04/05 02:45:31  5-MIN KDBQ 040845Z AUTO 00000KT 10SM CLR 00/M08 A3023  790 56 -800 000/00 RMK AO2 TSNO
94908KDBQ DBQ20050504025012805/04/05 02:50:31  5-MIN KDBQ 040850Z AUTO 00000KT 10SM CLR 00/M08 A3023  790 56 -800 000/00 RMK AO2 SLP245 T00001078 52005 TSNO
94908KDBQ DBQ20050504025512905/04/05 02:55:31  5-MIN KDBQ 040855Z AUTO 00000KT 10SM CLR M01/M08 A3023  790 60 -900 000/00 RMK AO2 SLP246 T10111078 53008 TSNO
94908KDBQ DBQ20050504030010605/04/05 03:00:31  5-MIN KDBQ 040900Z AUTO 00000KT 10SM CLR M01/M08 A3023  790 60 -900 000/00 RMK AO2 TSNO
94908KDBQ DBQ20050504030510605/04/05 03:05:31  5-MIN KDBQ 040905Z AUTO 00000KT 10SM CLR M01/M08 A3024  790 60 -900 000/00 RMK AO2 TSNO
94908KDBQ DBQ20050504031010605/04/05 03:10:31  5-MIN KDBQ 040910Z AUTO 00000KT 10SM CLR M01/M07 A3024  790 63 -900 000/00 RMK AO2 TSNO
94908KDBQ DBQ20050504031510705/04/05 03:15:31  5-MIN KDBQ 040915Z AUTO 00000KT 10SM CLR M02/M07 A3024  790 66 -1000 000/00 RMK AO2 TSNO
94908KDBQ DBQ20050504032010705/04/05 03:20:31  5-MIN KDBQ 040920Z AUTO 00000KT 10SM CLR M02/M07 A3024  790 69 -1000 000/00 RMK AO2 TSNO
94908KDBQ DBQ20050504032510705/04/05 03:25:31  5-MIN KDBQ 040925Z AUTO 00000KT 10SM CLR M02/M07 A3024  790 72 -1000 000/00 RMK AO2 TSNO
94908KDBQ DBQ20050504033010705/04/05 03:30:31  5-MIN KDBQ 040930Z AUTO 00000KT 10SM CLR M02/M07 A3024  790 66 -1000 000/00 RMK AO2 TSNO
94908KDBQ DBQ20050504033510705/04/05 03:35:31  5-MIN KDBQ 040935Z AUTO 00000KT 10SM CLR M02/M07 A3024  790 66 -1000 000/00 RMK AO2 TSNO
94908KDBQ DBQ20050504034010705/04/05 03:40:31  5-MIN KDBQ 040940Z AUTO 00000KT 10SM CLR M02/M08 A3024  790 63 -1000 000/00 RMK AO2 TSNO
94908KDBQ DBQ20050504034510705/04/05 03:45:31  5-MIN KDBQ 040945Z AUTO 21003KT 10SM CLR M03/M08 A3024  780 68 -1100 210/03 RMK AO2 TSNO
94908KDBQ DBQ20050504035012405/04/05 03:50:31  5-MIN KDBQ 040950Z AUTO 00000KT 10SM CLR M03/M08 A3024  780 71 -1200 000/00 RMK AO2 SLP249 T10331078 TSNO
94908KDBQ DBQ20050504035512405/04/05 03:55:31  5-MIN KDBQ 040955Z AUTO 22003KT 10SM CLR M03/M08 A3024  780 68 -1100 220/03 RMK AO2 SLP250 T10281078 TSNO
94908KDBQ DBQ20050504040010705/04/05 04:00:31  5-MIN KDBQ 041000Z AUTO 22003KT 10SM CLR M02/M08 A3024  780 66 -1100 220/03 RMK AO2 TSNO
94908KDBQ DBQ20050504040510705/04/05 04:05:31  5-MIN KDBQ 041005Z AUTO 22003KT 10SM CLR M02/M07 A3024  780 69 -1100 220/03 RMK AO2 TSNO
94908KDBQ DBQ20050504041010705/04/05 04:10:31  5-MIN KDBQ 041010Z AUTO 00000KT 10SM CLR M02/M07 A3024  780 69 -1100 000/00 RMK AO2 TSNO
94908KDBQ DBQ20050504041510705/04/05 04:15:31  5-MIN KDBQ 041015Z AUTO 00000KT 10SM CLR M02/M07 A3025  780 66 -1000 000/00 RMK AO2 TSNO
94908KDBQ DBQ20050504042010605/04/05 04:20:31  5-MIN KDBQ 041020Z AUTO 00000KT 10SM CLR M01/M08 A3025  780 60 -900 000/00 RMK AO2 TSNO
94908KDBQ DBQ20050504042510705/04/05 04:25:31  5-MIN KDBQ 041025Z AUTO 00000KT 10SM CLR M02/M08 A3025  780 66 -1100 000/00 RMK AO2 TSNO
94908KDBQ DBQ20050504043010705/04/05 04:30:31  5-MIN KDBQ 041030Z AUTO 20003KT 10SM CLR M02/M08 A3025  780 66 -1100 200/03 RMK AO2 TSNO
94908KDBQ DBQ20050504043510705/04/05 04:35:31  5-MIN KDBQ 041035Z AUTO 00000KT 10SM CLR M02/M07 A3025  780 69 -1100 000/00 RMK AO2 TSNO
94908KDBQ DBQ20050504044010705/04/05 04:40:31  5-MIN KDBQ 041040Z AUTO 00000KT 10SM CLR M02/M08 A3025  770 66 -1100 000/00 RMK AO2 TSNO
94908KDBQ DBQ20050504044510605/04/05 04:45:31  5-MIN KDBQ 041045Z AUTO 00000KT 10SM CLR M01/M08 A3025  770 60 -900 000/00 RMK AO2 TSNO
94908KDBQ DBQ20050504045011305/04/05 04:50:31  5-MIN KDBQ 041050Z 00000KT 10SM CLR M02/M08 A3025 770 63 -1000 000/00 RMK AO2 SLP253 T10171078
94908KDBQ DBQ20050504045511305/04/05 04:55:31  5-MIN KDBQ 041055Z 00000KT 10SM CLR M02/M08 A3025 770 63 -1000 000/00 RMK AO2 SLP254 T10171078
94908KDBQ DBQ20050504050009605/04/05 05:00:31  5-MIN KDBQ 041100Z 00000KT 10SM CLR M02/M08 A3026 770 63 -1100 000/00 RMK AO2
94908KDBQ DBQ20050504050509605/04/05 05:05:31  5-MIN KDBQ 041105Z 00000KT 10SM CLR M02/M08 A3026 770 60 -1000 000/00 RMK AO2
94908KDBQ DBQ20050504051009405/04/05 05:10:31  5-MIN KDBQ 041110Z 00000KT 9SM CLR M01/M08 A3026 770 58 -900 000/00 RMK AO2
94908KDBQ DBQ20050504051509505/04/05 05:15:31  5-MIN KDBQ 041115Z 00000KT 9SM CLR M03/M08 A3026 760 66 -1100 000/00 RMK AO2
94908KDBQ DBQ20050504052009605/04/05 05:20:31  5-MIN KDBQ 041120Z 21003KT 10SM CLR M03/M08 A3026 760 71 -1200 210/03 RMK AO2
94908KDBQ DBQ20050504052509605/04/05 05:25:31  5-MIN KDBQ 041125Z 21003KT 10SM CLR M03/M07 A3027 760 71 -1100 210/03 RMK AO2
94908KDBQ DBQ20050504053009605/04/05 05:30:31  5-MIN KDBQ 041130Z 21003KT 10SM CLR M02/M07 A3027 760 69 -1100 210/03 RMK AO2
94908KDBQ DBQ20050504053509605/04/05 05:35:31  5-MIN KDBQ 041135Z 00000KT 10SM CLR M02/M07 A3027 760 66 -1000 000/00 RMK AO2
94908KDBQ DBQ20050504054009605/04/05 05:40:31  5-MIN KDBQ 041140Z 00000KT 10SM CLR M02/M07 A3027 750 66 -1000 000/00 RMK AO2
94908KDBQ DBQ20050504054509505/04/05 05:45:31  5-MIN KDBQ 041145Z 21003KT 10SM CLR M01/M07 A3028 750 63 -900 210/03 RMK AO2
94908KDBQ DBQ20050504055013105/04/05 05:50:31  5-MIN KDBQ 041150Z 21003KT 10SM CLR M01/M07 A3028 750 63 -1000 210/03 RMK AO2 SLP262 T10111072 10011 21033 53008
94908KDBQ DBQ20050504055513005/04/05 05:55:31  5-MIN KDBQ 041155Z 00000KT 10SM CLR M01/M07 A3028 750 63 -900 000/00 RMK AO2 SLP262 T10061067 10011 21033 53015
94908KDBQ DBQ20050504060009405/04/05 06:00:31  5-MIN KDBQ 041200Z 19003KT 10SM CLR 00/M06 A3028 750 66 -800 190/03 RMK AO2
94908KDBQ DBQ20050504060509405/04/05 06:05:31  5-MIN KDBQ 041205Z 00000KT 10SM CLR 01/M05 A3028 740 66 -700 000/00 RMK AO2
94908KDBQ DBQ20050504061009405/04/05 06:10:31  5-MIN KDBQ 041210Z 00000KT 10SM CLR 01/M04 A3028 740 69 -700 000/00 RMK AO2
94908KDBQ DBQ20050504061509405/04/05 06:15:31  5-MIN KDBQ 041215Z 00000KT 10SM CLR 02/M06 A3028 740 56 -500 000/00 RMK AO2
94908KDBQ DBQ20050504062009405/04/05 06:20:31  5-MIN KDBQ 041220Z 00000KT 10SM CLR 03/M04 A3029 740 61 -500 000/00 RMK AO2
94908KDBQ DBQ20050504062509405/04/05 06:25:31  5-MIN KDBQ 041225Z 00000KT 10SM CLR 03/M03 A3029 740 67 -500 000/00 RMK AO2
94908KDBQ DBQ20050504063009405/04/05 06:30:31  5-MIN KDBQ 041230Z 00000KT 10SM CLR 03/M03 A3029 740 64 -400 000/00 RMK AO2
94908KDBQ DBQ20050504063509405/04/05 06:35:31  5-MIN KDBQ 041235Z 00000KT 10SM CLR 03/M03 A3029 730 61 -400 000/00 RMK AO2
94908KDBQ DBQ20050504064009405/04/05 06:40:31  5-MIN KDBQ 041240Z 00000KT 10SM CLR 04/M04 A3030 730 57 -300 000/00 RMK AO2
94908KDBQ DBQ20050504064509405/04/05 06:45:31  5-MIN KDBQ 041245Z 00000KT 10SM CLR 04/M04 A3030 730 55 -300 000/00 RMK AO2
94908KDBQ DBQ20050504065011105/04/05 06:50:31  5-MIN KDBQ 041250Z 00000KT 10SM CLR 04/M04 A3030 730 52 -300 000/00 RMK AO2 SLP268 T00441044
94908KDBQ DBQ20050504065511105/04/05 06:55:31  5-MIN KDBQ 041255Z 00000KT 10SM CLR 06/M04 A3030 730 48 -100 000/00 RMK AO2 SLP268 T00561044
94908KDBQ DBQ20050504070009405/04/05 07:00:31  5-MIN KDBQ 041300Z 21003KT 10SM CLR 06/M04 A3030 730 50 -100 200/03 RMK AO2
94908KDBQ DBQ20050504070509405/04/05 07:05:31  5-MIN KDBQ 041305Z 21003KT 10SM CLR 06/M04 A3030 730 48 -100 210/03 RMK AO2
94908KDBQ DBQ20050504071009405/04/05 07:10:31  5-MIN KDBQ 041310Z 21003KT 10SM CLR 06/M04 A3031 720 48 -100 210/03 RMK AO2
94908KDBQ DBQ20050504071509105/04/05 07:15:31  5-MIN KDBQ 041315Z 22003KT 10SM CLR 07/M04 A3031 720 47 0 220/03 RMK AO2
94908KDBQ DBQ20050504072009105/04/05 07:20:31  5-MIN KDBQ 041320Z 22003KT 10SM CLR 07/M03 A3031 720 47 0 220/03 RMK AO2
94908KDBQ DBQ20050504072509105/04/05 07:25:31  5-MIN KDBQ 041325Z 22004KT 10SM CLR 07/M04 A3031 720 45 0 220/04 RMK AO2
94908KDBQ DBQ20050504073009305/04/05 07:30:31  5-MIN KDBQ 041330Z 22003KT 10SM CLR 08/M03 A3031 720 45 100 220/03 RMK AO2
94908KDBQ DBQ20050504073509305/04/05 07:35:31  5-MIN KDBQ 041335Z 23004KT 10SM CLR 08/M03 A3031 720 47 100 230/04 RMK AO2
94908KDBQ DBQ20050504074009305/04/05 07:40:31  5-MIN KDBQ 041340Z 23005KT 10SM CLR 08/M03 A3031 720 43 100 230/05 RMK AO2
94908KDBQ DBQ20050504074509305/04/05 07:45:31  5-MIN KDBQ 041345Z 24006KT 10SM CLR 09/M03 A3031 720 42 200 240/06 RMK AO2
94908KDBQ DBQ20050504075011005/04/05 07:50:31  5-MIN KDBQ 041350Z 22004KT 10SM CLR 09/M04 A3031 720 40 200 220/04 RMK AO2 SLP271 T00891039
94908KDBQ DBQ20050504075511005/04/05 07:55:31  5-MIN KDBQ 041355Z 23006KT 10SM CLR 09/M04 A3031 720 37 300 230/06 RMK AO2 SLP271 T00941044
94908KDBQ DBQ20050504080009305/04/05 08:00:31  5-MIN KDBQ 041400Z 23005KT 10SM CLR 10/M04 A3031 720 37 300 220/05 RMK AO2
94908KDBQ DBQ20050504080509305/04/05 08:05:31  5-MIN KDBQ 041405Z 23006KT 10SM CLR 10/M04 A3031 720 36 300 230/06 RMK AO2
94908KDBQ DBQ20050504081009305/04/05 08:10:31  5-MIN KDBQ 041410Z 22006KT 10SM CLR 10/M04 A3031 720 36 300 220/06 RMK AO2
94908KDBQ DBQ20050504081509305/04/05 08:15:31  5-MIN KDBQ 041415Z 22005KT 10SM CLR 10/M04 A3031 720 36 300 220/05 RMK AO2
94908KDBQ DBQ20050504082009305/04/05 08:20:31  5-MIN KDBQ 041420Z 22006KT 10SM CLR 11/M04 A3031 720 34 400 220/06 RMK AO2
94908KDBQ DBQ20050504082509305/04/05 08:25:31  5-MIN KDBQ 041425Z 22007KT 10SM CLR 11/M04 A3031 720 34 400 220/07 RMK AO2
94908KDBQ DBQ20050504083009305/04/05 08:30:31  5-MIN KDBQ 041430Z 23008KT 10SM CLR 11/M04 A3031 720 34 400 230/08 RMK AO2
94908KDBQ DBQ20050504083509305/04/05 08:35:31  5-MIN KDBQ 041435Z 22008KT 10SM CLR 11/M06 A3031 720 30 500 220/08 RMK AO2
94908KDBQ DBQ20050504084009305/04/05 08:40:31  5-MIN KDBQ 041440Z 23008KT 10SM CLR 11/M06 A3032 710 30 500 230/08 RMK AO2
94908KDBQ DBQ20050504084509305/04/05 08:45:31  5-MIN KDBQ 041445Z 22010KT 10SM CLR 11/M05 A3032 710 32 500 220/10 RMK AO2
94908KDBQ DBQ20050504085011605/04/05 08:50:31  5-MIN KDBQ 041450Z 21008KT 10SM CLR 11/M05 A3032 710 32 500 210/08 RMK AO2 SLP273 T01111050 53015
94908KDBQ DBQ20050504085511605/04/05 08:55:31  5-MIN KDBQ 041455Z 22009KT 10SM CLR 11/M06 A3032 710 30 500 210/09 RMK AO2 SLP274 T01111056 51013
94908KDBQ DBQ20050504090009305/04/05 09:00:31  5-MIN KDBQ 041500Z 23008KT 10SM CLR 12/M06 A3032 710 29 500 230/08 RMK AO2
94908KDBQ DBQ20050504090509305/04/05 09:05:31  5-MIN KDBQ 041505Z 23009KT 10SM CLR 12/M06 A3032 710 29 500 230/09 RMK AO2
94908KDBQ DBQ20050504091009305/04/05 09:10:31  5-MIN KDBQ 041510Z 26007KT 10SM CLR 12/M06 A3032 710 28 500 260/07 RMK AO2
94908KDBQ DBQ20050504091509305/04/05 09:15:31  5-MIN KDBQ 041515Z 26007KT 10SM CLR 12/M06 A3032 710 27 600 260/07 RMK AO2
94908KDBQ DBQ20050504092009305/04/05 09:20:31  5-MIN KDBQ 041520Z 21006KT 10SM CLR 12/M06 A3032 710 28 500 210/06 RMK AO2
94908KDBQ DBQ20050504092510905/04/05 09:25:31  5-MIN KDBQ 041525Z 21007KT 140V230 10SM CLR 12/M06 A3032 710 27 600 200/07 140V230 RMK AO2
94908KDBQ DBQ20050504093009305/04/05 09:30:31  5-MIN KDBQ 041530Z 25006KT 10SM CLR 12/M05 A3032 710 29 600 250/06 RMK AO2
94908KDBQ DBQ20050504093509305/04/05 09:35:31  5-MIN KDBQ 041535Z 28007KT 10SM CLR 13/M06 A3032 710 27 700 280/07 RMK AO2
94908KDBQ DBQ20050504094009305/04/05 09:40:31  5-MIN KDBQ 041540Z 20010KT 10SM CLR 13/M06 A3032 710 27 700 200/10 RMK AO2
94908KDBQ DBQ20050504094509305/04/05 09:45:31  5-MIN KDBQ 041545Z 16005KT 10SM CLR 12/M06 A3032 710 27 600 160/05 RMK AO2
94908KDBQ DBQ20050504095011005/04/05 09:50:31  5-MIN KDBQ 041550Z 19006KT 10SM CLR 13/M06 A3032 710 26 600 180/06 RMK AO2 SLP276 T01281061
94908KDBQ DBQ20050504095511005/04/05 09:55:31  5-MIN KDBQ 041555Z 21007KT 10SM CLR 13/M06 A3032 710 26 600 210/07 RMK AO2 SLP276 T01281061
94908KDBQ DBQ20050504100009305/04/05 10:00:31  5-MIN KDBQ 041600Z 22009KT 10SM CLR 13/M06 A3032 710 26 600 220/09 RMK AO2
94908KDBQ DBQ20050504100509305/04/05 10:05:31  5-MIN KDBQ 041605Z 24004KT 10SM CLR 13/M06 A3032 710 26 700 240/04 RMK AO2
94908KDBQ DBQ20050504101009305/04/05 10:10:31  5-MIN KDBQ 041610Z 24005KT 10SM CLR 13/M06 A3032 710 26 600 240/05 RMK AO2
94908KDBQ DBQ20050504101509305/04/05 10:15:31  5-MIN KDBQ 041615Z 00000KT 10SM CLR 13/M07 A3032 710 24 600 000/00 RMK AO2
94908KDBQ DBQ20050504102009305/04/05 10:20:31  5-MIN KDBQ 041620Z 24007KT 10SM CLR 13/M06 A3032 710 26 700 240/07 RMK AO2
94908KDBQ DBQ20050504102509305/04/05 10:25:31  5-MIN KDBQ 041625Z 24005KT 10SM CLR 13/M05 A3032 710 27 700 240/05 RMK AO2
94908KDBQ DBQ20050504103009305/04/05 10:30:31  5-MIN KDBQ 041630Z 23007KT 10SM CLR 13/M06 A3032 710 26 700 230/07 RMK AO2
94908KDBQ DBQ20050504103510905/04/05 10:35:31  5-MIN KDBQ 041635Z 22010KT 160V240 10SM CLR 14/M05 A3032 710 26 800 220/10 160V240 RMK AO2
94908KDBQ DBQ20050504104009305/04/05 10:40:31  5-MIN KDBQ 041640Z 22007KT 10SM CLR 14/M05 A3032 710 26 800 220/07 RMK AO2
94908KDBQ DBQ20050504104509305/04/05 10:45:31  5-MIN KDBQ 041645Z 20007KT 10SM CLR 13/M05 A3032 710 27 700 200/07 RMK AO2
94908KDBQ DBQ20050504105011005/04/05 10:50:31  5-MIN KDBQ 041650Z VRB04KT 10SM CLR 13/M06 A3032 710 25 700 VRB/04 RMK AO2 SLP274 T01331061
94908KDBQ DBQ20050504105511005/04/05 10:55:31  5-MIN KDBQ 041655Z 22006KT 10SM CLR 14/M06 A3032 710 25 800 220/06 RMK AO2 SLP273 T01391056
94908KDBQ DBQ20050504110009305/04/05 11:00:31  5-MIN KDBQ 041700Z 00000KT 10SM CLR 14/M06 A3032 710 25 800 000/00 RMK AO2
94908KDBQ DBQ20050504110509305/04/05 11:05:31  5-MIN KDBQ 041705Z VRB06KT 10SM CLR 14/M05 A3032 710 26 800 VRB/06 RMK AO2
94908KDBQ DBQ20050504111010905/04/05 11:10:31  5-MIN KDBQ 041710Z 26008KT 230V290 10SM CLR 14/M04 A3031 720 26 900 260/08 230V290 RMK AO2
94908KDBQ DBQ20050504111509305/04/05 11:15:31  5-MIN KDBQ 041715Z VRB04KT 10SM CLR 14/M05 A3031 720 25 900 VRB/04 RMK AO2
94908KDBQ DBQ20050504112009305/04/05 11:20:31  5-MIN KDBQ 041720Z 00000KT 10SM CLR 14/M06 A3031 720 24 800 000/00 RMK AO2
94908KDBQ DBQ20050504112509305/04/05 11:25:31  5-MIN KDBQ 041725Z 24004KT 10SM CLR 14/M05 A3031 720 26 800 240/04 RMK AO2
94908KDBQ DBQ20050504113009305/04/05 11:30:31  5-MIN KDBQ 041730Z 22005KT 10SM CLR 14/M06 A3031 720 25 800 220/05 RMK AO2
94908KDBQ DBQ20050504113509305/04/05 11:35:31  5-MIN KDBQ 041735Z VRB05KT 10SM CLR 14/M06 A3031 720 24 800 VRB/05 RMK AO2
94908KDBQ DBQ20050504114009905/04/05 11:40:31  5-MIN KDBQ 041740Z 21010G14KT 10SM CLR 14/M05 A3030 730 25 900 210/10G14 RMK AO2
94908KDBQ DBQ20050504114509905/04/05 11:45:31  5-MIN KDBQ 041745Z 20007G14KT 10SM CLR 14/M04 A3030 730 26 900 200/07G14 RMK AO2
94908KDBQ DBQ20050504115012805/04/05 11:50:31  5-MIN KDBQ 041750Z VRB03KT 10SM CLR 14/M05 A3030 730 25 900 VRB/03 RMK AO2 SLP268 T01441050 10150 21006 51013
94908KDBQ DBQ20050504115512805/04/05 11:55:31  5-MIN KDBQ 041755Z 24010KT 10SM CLR 15/M04 A3030 730 25 900 240/10 RMK AO2 SLP266 T01501044 10150 21006 58006
94908KDBQ DBQ20050504120009305/04/05 12:00:31  5-MIN KDBQ 041800Z 21008KT 10SM CLR 14/M05 A3030 730 25 900 210/08 RMK AO2
94908KDBQ DBQ20050504120509305/04/05 12:05:31  5-MIN KDBQ 041805Z 22007KT 10SM CLR 15/M04 A3030 730 25 900 220/07 RMK AO2
94908KDBQ DBQ20050504121009305/04/05 12:10:31  5-MIN KDBQ 041810Z 19004KT 10SM CLR 14/M04 A3029 730 26 900 190/04 RMK AO2
94908KDBQ DBQ20050504121509305/04/05 12:15:31  5-MIN KDBQ 041815Z 20008KT 10SM CLR 15/M04 A3029 740 25 900 200/08 RMK AO2
94908KDBQ DBQ20050504122010005/04/05 12:20:31  5-MIN KDBQ 041820Z 24010G16KT 10SM CLR 16/M04 A3029 740 26 1000 240/10G16 RMK AO2
94908KDBQ DBQ20050504122510005/04/05 12:25:31  5-MIN KDBQ 041825Z 21009G16KT 10SM CLR 15/M04 A3029 740 25 1000 210/09G16 RMK AO2
94908KDBQ DBQ20050504123011005/04/05 12:30:31  5-MIN KDBQ 041830Z 22007KT 180V250 10SM CLR 15/M04 A3029 740 25 1000 220/07 180V250 RMK AO2
94908KDBQ DBQ20050504123509405/04/05 12:35:31  5-MIN KDBQ 041835Z 23008KT 10SM CLR 15/M05 A3029 740 24 1000 230/08 RMK AO2
94908KDBQ DBQ20050504124009305/04/05 12:40:31  5-MIN KDBQ 041840Z 00000KT 10SM CLR 14/M07 A3029 740 22 900 000/00 RMK AO2
94908KDBQ DBQ20050504124509405/04/05 12:45:31  5-MIN KDBQ 041845Z VRB05KT 10SM CLR 15/M05 A3029 740 24 1000 VRB/05 RMK AO2
94908KDBQ DBQ20050504125011105/04/05 12:50:31  5-MIN KDBQ 041850Z VRB05KT 10SM CLR 15/M06 A3029 740 23 1000 VRB/05 RMK AO2 SLP263 T01501056
94908KDBQ DBQ20050504125512705/04/05 12:55:31  5-MIN KDBQ 041855Z 22008KT 170V240 10SM CLR 15/M06 A3028 740 23 1000 220/08 170V240 RMK AO2 SLP261 T01501056
94908KDBQ DBQ20050504130010005/04/05 13:00:31  5-MIN KDBQ 041900Z 23013G17KT 10SM CLR 16/M05 A3028 750 24 1000 230/13G17 RMK AO2
94908KDBQ DBQ20050504130510005/04/05 13:05:31  5-MIN KDBQ 041905Z 19006G17KT 10SM CLR 15/M06 A3028 740 23 1000 180/06G17 RMK AO2
94908KDBQ DBQ20050504131009405/04/05 13:10:31  5-MIN KDBQ 041910Z 18007KT 10SM CLR 16/M06 A3028 740 22 1000 180/07 RMK AO2
94908KDBQ DBQ20050504131509405/04/05 13:15:31  5-MIN KDBQ 041915Z VRB03KT 10SM CLR 16/M06 A3028 740 23 1000 VRB/03 RMK AO2
94908KDBQ DBQ20050504132009405/04/05 13:20:31  5-MIN KDBQ 041920Z 22009KT 10SM CLR 16/M06 A3028 750 23 1000 220/09 RMK AO2
94908KDBQ DBQ20050504132509405/04/05 13:25:31  5-MIN KDBQ 041925Z VRB04KT 10SM CLR 16/M06 A3028 750 23 1000 VRB/04 RMK AO2
94908KDBQ DBQ20050504133009405/04/05 13:30:31  5-MIN KDBQ 041930Z VRB05KT 10SM CLR 16/M06 A3028 750 23 1000 VRB/05 RMK AO2
94908KDBQ DBQ20050504133509405/04/05 13:35:31  5-MIN KDBQ 041935Z 21010KT 10SM CLR 16/M04 A3027 750 24 1100 210/10 RMK AO2
94908KDBQ DBQ20050504134009405/04/05 13:40:31  5-MIN KDBQ 041940Z 23008KT 10SM CLR 16/M04 A3027 750 24 1100 230/08 RMK AO2
94908KDBQ DBQ20050504134509405/04/05 13:45:31  5-MIN KDBQ 041945Z 28010KT 10SM CLR 16/M04 A3027 750 25 1100 280/10 RMK AO2
94908KDBQ DBQ20050504135011105/04/05 13:50:31  5-MIN KDBQ 041950Z 32008KT 10SM CLR 16/M05 A3027 750 23 1100 320/08 RMK AO2 SLP258 T01611050
94908KDBQ DBQ20050504135511105/04/05 13:55:31  5-MIN KDBQ 041955Z 22007KT 10SM CLR 16/M05 A3027 750 23 1100 220/07 RMK AO2 SLP257 T01611050
94908KDBQ DBQ20050504140009405/04/05 14:00:31  5-MIN KDBQ 042000Z VRB03KT 10SM CLR 16/M06 A3027 760 22 1100 VRB/03 RMK AO2
94908KDBQ DBQ20050504140509405/04/05 14:05:31  5-MIN KDBQ 042005Z 21011KT 10SM CLR 17/M04 A3027 760 24 1200 210/11 RMK AO2
94908KDBQ DBQ20050504141009405/04/05 14:10:31  5-MIN KDBQ 042010Z 20008KT 10SM CLR 17/M04 A3027 760 24 1200 200/08 RMK AO2
94908KDBQ DBQ20050504141510005/04/05 14:15:31  5-MIN KDBQ 042015Z 24011G14KT 10SM CLR 17/M04 A3027 760 23 1200 240/11G14 RMK AO2
94908KDBQ DBQ20050504142011705/04/05 14:20:31  5-MIN KDBQ 042020Z 23008G14KT 200V270 10SM CLR 17/M04  A3026 770 24 1200 230/08G14 200V270 RMK AO2
94908KDBQ DBQ20050504142509405/04/05 14:25:31  5-MIN KDBQ 042025Z 26006KT 10SM CLR 16/M05 A3026 760 23 1100 260/06 RMK AO2
94908KDBQ DBQ20050504143009405/04/05 14:30:31  5-MIN KDBQ 042030Z 30007KT 10SM CLR 16/M05 A3026 770 23 1100 300/07 RMK AO2
94908KDBQ DBQ20050504143509405/04/05 14:35:31  5-MIN KDBQ 042035Z VRB05KT 10SM CLR 16/M06 A3026 770 22 1100 VRB/05 RMK AO2
94908KDBQ DBQ20050504144009405/04/05 14:40:31  5-MIN KDBQ 042040Z VRB05KT 10SM CLR 16/M05 A3026 770 23 1100 VRB/05 RMK AO2
94908KDBQ DBQ20050504144509405/04/05 14:45:31  5-MIN KDBQ 042045Z 20008KT 10SM CLR 17/M04 A3025 770 24 1200 200/08 RMK AO2
94908KDBQ DBQ20050504145011705/04/05 14:50:31  5-MIN KDBQ 042050Z 20007KT 10SM CLR 16/M06 A3025 770 22 1100 200/07 RMK AO2 SLP251 T01611056 58006
94908KDBQ DBQ20050504145511705/04/05 14:55:31  5-MIN KDBQ 042055Z 22009KT 10SM CLR 17/M04 A3025 770 23 1200 210/09 RMK AO2 SLP251 T01671044 58015
94908KDBQ DBQ20050504150009405/04/05 15:00:31  5-MIN KDBQ 042100Z 24010KT 10SM CLR 17/M04 A3025 770 23 1200 240/10 RMK AO2
94908KDBQ DBQ20050504150509405/04/05 15:05:31  5-MIN KDBQ 042105Z VRB04KT 10SM CLR 16/M05 A3025 770 23 1100 VRB/04 RMK AO2
94908KDBQ DBQ20050504151009405/04/05 15:10:31  5-MIN KDBQ 042110Z 22007KT 10SM CLR 17/M06 A3025 780 21 1200 220/07 RMK AO2
94908KDBQ DBQ20050504151509405/04/05 15:15:31  5-MIN KDBQ 042115Z 25010KT 10SM CLR 17/M06 A3025 780 21 1200 250/10 RMK AO2
94908KDBQ DBQ20050504152009405/04/05 15:20:31  5-MIN KDBQ 042120Z 28007KT 10SM CLR 17/M06 A3025 780 21 1200 280/07 RMK AO2
94908KDBQ DBQ20050504152511005/04/05 15:25:31  5-MIN KDBQ 042125Z 21008KT 180V240 10SM CLR 17/M06 A3025 770 20 1200 210/08 180V240 RMK AO2
94908KDBQ DBQ20050504153009405/04/05 15:30:31  5-MIN KDBQ 042130Z 19009KT 10SM CLR 17/M06 A3025 780 21 1200 190/09 RMK AO2
94908KDBQ DBQ20050504153509405/04/05 15:35:31  5-MIN KDBQ 042135Z 20006KT 10SM CLR 17/M06 A3025 780 21 1200 190/06 RMK AO2
94908KDBQ DBQ20050504154009405/04/05 15:40:31  5-MIN KDBQ 042140Z 27004KT 10SM CLR 17/M06 A3025 780 21 1200 270/04 RMK AO2
94908KDBQ DBQ20050504154509405/04/05 15:45:31  5-MIN KDBQ 042145Z 22007KT 10SM CLR 17/M05 A3025 780 22 1200 220/07 RMK AO2
94908KDBQ DBQ20050504155011105/04/05 15:50:31  5-MIN KDBQ 042150Z 18007KT 10SM CLR 17/M05 A3025 780 22 1200 180/07 RMK AO2 SLP251 T01671050
94908KDBQ DBQ20050504155511105/04/05 15:55:31  5-MIN KDBQ 042155Z 19006KT 10SM CLR 17/M06 A3025 780 21 1200 190/06 RMK AO2 SLP249 T01671056
94908KDBQ DBQ20050504160009405/04/05 16:00:31  5-MIN KDBQ 042200Z 22008KT 10SM CLR 17/M04 A3025 780 24 1200 210/08 RMK AO2
94908KDBQ DBQ20050504160509405/04/05 16:05:31  5-MIN KDBQ 042205Z 21008KT 10SM CLR 17/M05 A3025 780 22 1200 210/08 RMK AO2
94908KDBQ DBQ20050504161009405/04/05 16:10:31  5-MIN KDBQ 042210Z 22009KT 10SM CLR 17/M06 A3025 780 21 1200 210/09 RMK AO2
94908KDBQ DBQ20050504161511005/04/05 16:15:31  5-MIN KDBQ 042215Z 24008KT 210V270 10SM CLR 17/M04 A3025 780 23 1200 240/08 210V270 RMK AO2
94908KDBQ DBQ20050504162009405/04/05 16:20:31  5-MIN KDBQ 042220Z 22010KT 10SM CLR 17/M04 A3025 780 24 1200 220/10 RMK AO2
94908KDBQ DBQ20050504162509405/04/05 16:25:31  5-MIN KDBQ 042225Z 21006KT 10SM CLR 17/M05 A3025 780 22 1200 210/06 RMK AO2
94908KDBQ DBQ20050504163009405/04/05 16:30:31  5-MIN KDBQ 042230Z 20006KT 10SM CLR 16/M07 A3025 780 20 1100 200/06 RMK AO2
94908KDBQ DBQ20050504163509405/04/05 16:35:31  5-MIN KDBQ 042235Z 20006KT 10SM CLR 17/M06 A3025 780 21 1200 200/06 RMK AO2
94908KDBQ DBQ20050504164009405/04/05 16:40:31  5-MIN KDBQ 042240Z 22009KT 10SM CLR 17/M06 A3025 780 21 1200 220/09 RMK AO2
94908KDBQ DBQ20050504164509405/04/05 16:45:31  5-MIN KDBQ 042245Z 23008KT 10SM CLR 16/M05 A3024 780 23 1100 230/08 RMK AO2
94908KDBQ DBQ20050504165011105/04/05 16:50:31  5-MIN KDBQ 042250Z 21007KT 10SM CLR 16/M06 A3024 780 21 1100 210/07 RMK AO2 SLP247 T01611061
94908KDBQ DBQ20050504165511105/04/05 16:55:31  5-MIN KDBQ 042255Z 24006KT 10SM CLR 17/M06 A3024 780 20 1200 240/06 RMK AO2 SLP248 T01671061
94908KDBQ DBQ20050504170009405/04/05 17:00:31  5-MIN KDBQ 042300Z 24007KT 10SM CLR 16/M06 A3024 780 22 1100 240/07 RMK AO2
94908KDBQ DBQ20050504170509405/04/05 17:05:31  5-MIN KDBQ 042305Z 25007KT 10SM CLR 17/M05 A3024 780 22 1200 250/07 RMK AO2
94908KDBQ DBQ20050504171009405/04/05 17:10:31  5-MIN KDBQ 042310Z 22007KT 10SM CLR 16/M06 A3024 780 22 1100 220/07 RMK AO2
94908KDBQ DBQ20050504171509405/04/05 17:15:31  5-MIN KDBQ 042315Z 20003KT 10SM CLR 16/M07 A3024 780 20 1100 200/03 RMK AO2
94908KDBQ DBQ20050504172009405/04/05 17:20:31  5-MIN KDBQ 042320Z 22005KT 10SM CLR 16/M06 A3024 780 21 1100 220/05 RMK AO2
94908KDBQ DBQ20050504172509405/04/05 17:25:31  5-MIN KDBQ 042325Z 24006KT 10SM CLR 16/M06 A3024 790 22 1100 230/06 RMK AO2
94908KDBQ DBQ20050504173009405/04/05 17:30:31  5-MIN KDBQ 042330Z 23005KT 10SM CLR 16/M06 A3024 790 22 1100 220/05 RMK AO2
94908KDBQ DBQ20050504173509405/04/05 17:35:31  5-MIN KDBQ 042335Z 22006KT 10SM CLR 16/M05 A3024 790 23 1100 220/06 RMK AO2
94908KDBQ DBQ20050504174009405/04/05 17:40:31  5-MIN KDBQ 042340Z 22006KT 10SM CLR 16/M04 A3024 790 25 1100 220/06 RMK AO2
94908KDBQ DBQ20050504174509405/04/05 17:45:31  5-MIN KDBQ 042345Z 22006KT 10SM CLR 16/M04 A3024 790 25 1100 220/06 RMK AO2
94908KDBQ DBQ20050504175012905/04/05 17:50:31  5-MIN KDBQ 042350Z 19006KT 10SM CLR 16/M03 A3024 790 27 1100 190/06 RMK AO2 SLP245 T01561033 10172 20144 58015
94908KDBQ DBQ20050504175512905/04/05 17:55:31  5-MIN KDBQ 042355Z 19009KT 10SM CLR 16/M06 A3023 790 23 1100 190/09 RMK AO2 SLP245 T01561056 10172 20144 58007
94908KDBQ DBQ20050504180009405/04/05 18:00:31  5-MIN KDBQ 050000Z 18006KT 10SM CLR 16/M04 A3023 790 25 1100 180/06 RMK AO2
94908KDBQ DBQ20050504180509405/04/05 18:05:31  5-MIN KDBQ 050005Z 19003KT 10SM CLR 16/M05 A3023 790 24 1100 190/03 RMK AO2
94908KDBQ DBQ20050504181009405/04/05 18:10:31  5-MIN KDBQ 050010Z 19005KT 10SM CLR 15/M04 A3023 790 27 1000 190/05 RMK AO2
94908KDBQ DBQ20050504181509305/04/05 18:15:31  5-MIN KDBQ 050015Z 19007KT 10SM CLR 14/M03 A3023 790 29 900 190/07 RMK AO2
94908KDBQ DBQ20050504182009305/04/05 18:20:31  5-MIN KDBQ 050020Z 19006KT 10SM CLR 14/M04 A3024 790 28 900 190/06 RMK AO2
94908KDBQ DBQ20050504182509305/04/05 18:25:31  5-MIN KDBQ 050025Z 21006KT 10SM CLR 14/M03 A3023 790 31 900 200/06 RMK AO2
94908KDBQ DBQ20050504183009305/04/05 18:30:31  5-MIN KDBQ 050030Z 20006KT 10SM CLR 13/M03 A3024 790 31 800 200/06 RMK AO2
94908KDBQ DBQ20050504183509305/04/05 18:35:31  5-MIN KDBQ 050035Z 20006KT 10SM CLR 13/M03 A3024 790 32 800 200/06 RMK AO2
94908KDBQ DBQ20050504184009305/04/05 18:40:31  5-MIN KDBQ 050040Z 19005KT 10SM CLR 13/M03 A3024 790 31 800 190/05 RMK AO2
94908KDBQ DBQ20050504184509305/04/05 18:45:31  5-MIN KDBQ 050045Z 19006KT 10SM CLR 13/M04 A3024 790 31 700 180/06 RMK AO2
94908KDBQ DBQ20050504185011005/04/05 18:50:31  5-MIN KDBQ 050050Z 18006KT 10SM CLR 13/M04 A3024 790 31 700 180/06 RMK AO2 SLP245 T01281039
94908KDBQ DBQ20050504185512105/04/05 18:55:31  5-MIN KDBQ 050055Z AUTO 17006KT 10SM CLR 12/M04 A3024  790 32 700 170/06 RMK AO2 SLP245 T01221039 TSNO
94908KDBQ DBQ20050504190010405/04/05 19:00:31  5-MIN KDBQ 050100Z AUTO 16006KT 10SM CLR 12/M04 A3024  780 32 600 160/06 RMK AO2 TSNO
94908KDBQ DBQ20050504190510405/04/05 19:05:31  5-MIN KDBQ 050105Z AUTO 17006KT 10SM CLR 12/M04 A3024  780 32 600 170/06 RMK AO2 TSNO
94908KDBQ DBQ20050504191010405/04/05 19:10:31  5-MIN KDBQ 050110Z AUTO 17006KT 10SM CLR 12/M05 A3024  780 30 600 170/06 RMK AO2 TSNO
94908KDBQ DBQ20050504191510405/04/05 19:15:31  5-MIN KDBQ 050115Z AUTO 17006KT 10SM CLR 12/M05 A3024  780 30 600 170/06 RMK AO2 TSNO
94908KDBQ DBQ20050504192010405/04/05 19:20:31  5-MIN KDBQ 050120Z AUTO 17005KT 10SM CLR 11/M05 A3024  780 32 500 160/05 RMK AO2 TSNO
94908KDBQ DBQ20050504192510405/04/05 19:25:31  5-MIN KDBQ 050125Z AUTO 16005KT 10SM CLR 11/M05 A3024  780 33 500 160/05 RMK AO2 TSNO
94908KDBQ DBQ20050504193010405/04/05 19:30:31  5-MIN KDBQ 050130Z AUTO 15005KT 10SM CLR 11/M04 A3024  780 34 500 150/05 RMK AO2 TSNO
94908KDBQ DBQ20050504193510405/04/05 19:35:31  5-MIN KDBQ 050135Z AUTO 16005KT 10SM CLR 10/M04 A3024  780 36 400 160/05 RMK AO2 TSNO
94908KDBQ DBQ20050504194010405/04/05 19:40:31  5-MIN KDBQ 050140Z AUTO 16005KT 10SM CLR 10/M04 A3024  780 36 400 160/05 RMK AO2 TSNO
94908KDBQ DBQ20050504194510405/04/05 19:45:31  5-MIN KDBQ 050145Z AUTO 16006KT 10SM CLR 10/M04 A3024  780 36 400 160/06 RMK AO2 TSNO
94908KDBQ DBQ20050504195012105/04/05 19:50:31  5-MIN KDBQ 050150Z AUTO 16005KT 10SM CLR 09/M04 A3025  780 37 300 160/05 RMK AO2 SLP247 T00941044 TSNO
94908KDBQ DBQ20050504195512105/04/05 19:55:31  5-MIN KDBQ 050155Z AUTO 16006KT 10SM CLR 09/M04 A3025  780 37 300 160/06 RMK AO2 SLP247 T00941044 TSNO
94908KDBQ DBQ20050504200010405/04/05 20:00:31  5-MIN KDBQ 050200Z AUTO 16006KT 10SM CLR 10/M04 A3025  780 36 400 160/06 RMK AO2 TSNO
94908KDBQ DBQ20050504200510405/04/05 20:05:31  5-MIN KDBQ 050205Z AUTO 16005KT 10SM CLR 10/M04 A3025  780 36 400 160/05 RMK AO2 TSNO
94908KDBQ DBQ20050504201010405/04/05 20:10:31  5-MIN KDBQ 050210Z AUTO 16006KT 10SM CLR 10/M05 A3024  790 34 400 160/06 RMK AO2 TSNO
94908KDBQ DBQ20050504201510405/04/05 20:15:31  5-MIN KDBQ 050215Z AUTO 15006KT 10SM CLR 10/M05 A3025  770 34 400 150/06 RMK AO2 TSNO
94908KDBQ DBQ20050504202010405/04/05 20:20:31  5-MIN KDBQ 050220Z AUTO 15006KT 10SM CLR 09/M05 A3024  780 35 300 150/06 RMK AO2 TSNO
94908KDBQ DBQ20050504202510405/04/05 20:25:31  5-MIN KDBQ 050225Z AUTO 16005KT 10SM CLR 09/M05 A3024  780 35 300 160/05 RMK AO2 TSNO
94908KDBQ DBQ20050504203010405/04/05 20:30:31  5-MIN KDBQ 050230Z AUTO 17003KT 10SM CLR 09/M04 A3025  770 38 300 160/03 RMK AO2 TSNO
94908KDBQ DBQ20050504203510405/04/05 20:35:31  5-MIN KDBQ 050235Z AUTO 15005KT 10SM CLR 09/M04 A3024  780 38 300 150/05 RMK AO2 TSNO
94908KDBQ DBQ20050504204010405/04/05 20:40:31  5-MIN KDBQ 050240Z AUTO 16006KT 10SM CLR 09/M05 A3024  780 37 300 160/06 RMK AO2 TSNO
94908KDBQ DBQ20050504204510405/04/05 20:45:31  5-MIN KDBQ 050245Z AUTO 16006KT 10SM CLR 09/M05 A3024  780 37 300 160/06 RMK AO2 TSNO
94908KDBQ DBQ20050504205012705/04/05 20:50:31  5-MIN KDBQ 050250Z AUTO 16007KT 10SM CLR 09/M05 A3025  770 37 300 160/07 RMK AO2 SLP250 T00891050 58007 TSNO
94908KDBQ DBQ20050504205512705/04/05 20:55:31  5-MIN KDBQ 050255Z AUTO 15008KT 10SM CLR 09/M05 A3024  780 35 300 150/08 RMK AO2 SLP245 T00941050 50003 TSNO
94908KDBQ DBQ20050504210010405/04/05 21:00:31  5-MIN KDBQ 050300Z AUTO 16008KT 10SM CLR 09/M05 A3024  780 35 300 150/08 RMK AO2 TSNO
94908KDBQ DBQ20050504210510405/04/05 21:05:31  5-MIN KDBQ 050305Z AUTO 16008KT 10SM CLR 09/M05 A3024  780 35 300 150/08 RMK AO2 TSNO
94908KDBQ DBQ20050504211010405/04/05 21:10:31  5-MIN KDBQ 050310Z AUTO 16008KT 10SM CLR 09/M05 A3025  780 37 300 160/08 RMK AO2 TSNO
94908KDBQ DBQ20050504211510405/04/05 21:15:31  5-MIN KDBQ 050315Z AUTO 16008KT 10SM CLR 09/M05 A3025  780 37 300 160/08 RMK AO2 TSNO
94908KDBQ DBQ20050504212010405/04/05 21:20:31  5-MIN KDBQ 050320Z AUTO 15008KT 10SM CLR 09/M05 A3025  780 37 300 150/08 RMK AO2 TSNO
94908KDBQ DBQ20050504212510405/04/05 21:25:31  5-MIN KDBQ 050325Z AUTO 15008KT 10SM CLR 09/M05 A3025  780 37 300 150/08 RMK AO2 TSNO
94908KDBQ DBQ20050504213010405/04/05 21:30:31  5-MIN KDBQ 050330Z AUTO 16009KT 10SM CLR 09/M05 A3024  780 37 300 150/09 RMK AO2 TSNO
94908KDBQ DBQ20050504213510405/04/05 21:35:31  5-MIN KDBQ 050335Z AUTO 16009KT 10SM CLR 09/M05 A3024  780 37 300 150/09 RMK AO2 TSNO
94908KDBQ DBQ20050504214010405/04/05 21:40:31  5-MIN KDBQ 050340Z AUTO 16009KT 10SM CLR 09/M05 A3024  780 37 300 160/09 RMK AO2 TSNO
94908KDBQ DBQ20050504214510405/04/05 21:45:31  5-MIN KDBQ 050345Z AUTO 16009KT 10SM CLR 09/M06 A3024  780 34 300 160/09 RMK AO2 TSNO
94908KDBQ DBQ20050504215012105/04/05 21:50:31  5-MIN KDBQ 050350Z AUTO 16009KT 10SM CLR 09/M06 A3024  780 34 300 160/09 RMK AO2 SLP245 T00941056 TSNO
94908KDBQ DBQ20050504215512105/04/05 21:55:31  5-MIN KDBQ 050355Z AUTO 16009KT 10SM CLR 09/M06 A3024  780 34 300 160/09 RMK AO2 SLP245 T00941056 TSNO
94908KDBQ DBQ20050504220010405/04/05 22:00:31  5-MIN KDBQ 050400Z AUTO 16009KT 10SM CLR 09/M06 A3024  780 34 300 160/09 RMK AO2 TSNO
94908KDBQ DBQ20050504220510405/04/05 22:05:31  5-MIN KDBQ 050405Z AUTO 15010KT 10SM CLR 08/M05 A3024  780 38 200 150/10 RMK AO2 TSNO
94908KDBQ DBQ20050504221010405/04/05 22:10:31  5-MIN KDBQ 050410Z AUTO 15009KT 10SM CLR 08/M05 A3024  780 38 200 150/09 RMK AO2 TSNO
94908KDBQ DBQ20050504221510405/04/05 22:15:31  5-MIN KDBQ 050415Z AUTO 15009KT 10SM CLR 08/M05 A3024  780 38 200 150/09 RMK AO2 TSNO
94908KDBQ DBQ20050504222010405/04/05 22:20:31  5-MIN KDBQ 050420Z AUTO 15009KT 10SM CLR 09/M05 A3024  780 37 300 150/09 RMK AO2 TSNO
94908KDBQ DBQ20050504222510405/04/05 22:25:31  5-MIN KDBQ 050425Z AUTO 15010KT 10SM CLR 08/M05 A3024  780 38 200 150/10 RMK AO2 TSNO
94908KDBQ DBQ20050504223010405/04/05 22:30:31  5-MIN KDBQ 050430Z AUTO 16010KT 10SM CLR 08/M05 A3024  780 38 200 160/10 RMK AO2 TSNO
94908KDBQ DBQ20050504223510405/04/05 22:35:31  5-MIN KDBQ 050435Z AUTO 16009KT 10SM CLR 09/M05 A3024  780 37 300 160/09 RMK AO2 TSNO
94908KDBQ DBQ20050504224010405/04/05 22:40:31  5-MIN KDBQ 050440Z AUTO 16008KT 10SM CLR 08/M05 A3025  780 38 200 160/08 RMK AO2 TSNO
94908KDBQ DBQ20050504224510405/04/05 22:45:31  5-MIN KDBQ 050445Z AUTO 17009KT 10SM CLR 08/M05 A3025  780 38 200 170/09 RMK AO2 TSNO
94908KDBQ DBQ20050504225012105/04/05 22:50:31  5-MIN KDBQ 050450Z AUTO 17008KT 10SM CLR 08/M05 A3025  780 38 200 170/08 RMK AO2 SLP247 T00831050 TSNO
94908KDBQ DBQ20050504225512105/04/05 22:55:31  5-MIN KDBQ 050455Z AUTO 17007KT 10SM CLR 08/M05 A3025  780 40 100 170/07 RMK AO2 SLP247 T00781050 TSNO
94908KDBQ DBQ20050504230010205/04/05 23:00:31  5-MIN KDBQ 050500Z AUTO 17006KT 10SM CLR 07/M04 A3025  780 45 0 170/06 RMK AO2 TSNO
94908KDBQ DBQ20050504230510505/04/05 23:05:31  5-MIN KDBQ 050505Z AUTO 17007KT 10SM CLR 06/M04 A3025  780 48 -100 170/07 RMK AO2 TSNO
94908KDBQ DBQ20050504231010405/04/05 23:10:31  5-MIN KDBQ 050510Z AUTO 17008KT 10SM CLR 07/M05 A3025  780 41 100 160/08 RMK AO2 TSNO
94908KDBQ DBQ20050504231510405/04/05 23:15:31  5-MIN KDBQ 050515Z AUTO 17008KT 10SM CLR 07/M05 A3025  780 41 100 170/08 RMK AO2 TSNO
94908KDBQ DBQ20050504232010205/04/05 23:20:31  5-MIN KDBQ 050520Z AUTO 21005KT 10SM CLR 06/M04 A3025  770 46 0 210/05 RMK AO2 TSNO
94908KDBQ DBQ20050504232510205/04/05 23:25:31  5-MIN KDBQ 050525Z AUTO 19006KT 10SM CLR 06/M04 A3025  770 46 0 190/06 RMK AO2 TSNO
94908KDBQ DBQ20050504233010205/04/05 23:30:31  5-MIN KDBQ 050530Z AUTO 19005KT 10SM CLR 07/M04 A3025  770 45 0 190/05 RMK AO2 TSNO
94908KDBQ DBQ20050504233510205/04/05 23:35:31  5-MIN KDBQ 050535Z AUTO 20004KT 10SM CLR 07/M05 A3025  770 43 0 200/04 RMK AO2 TSNO
94908KDBQ DBQ20050504234010205/04/05 23:40:31  5-MIN KDBQ 050540Z AUTO 19005KT 10SM CLR 07/M05 A3025  770 43 0 190/05 RMK AO2 TSNO
94908KDBQ DBQ20050504234510205/04/05 23:45:31  5-MIN KDBQ 050545Z AUTO 20004KT 10SM CLR 07/M04 A3026  770 45 0 200/04 RMK AO2 TSNO
94908KDBQ DBQ20050504235014705/04/05 23:50:31  5-MIN KDBQ 050550Z AUTO 20004KT 10SM CLR 07/M05 A3026  770 43 0 190/04 RMK AO2 SLP249 T00671050 10156 20056 401721033 50003 TSNO
94908KDBQ DBQ20050504235514705/04/05 23:55:31  5-MIN KDBQ 050555Z AUTO 20004KT 10SM CLR 07/M05 A3026  770 43 0 200/04 RMK AO2 SLP249 T00671050 10156 20056 401721033 53005 TSNO
94908KDBQ DBQ20050505000010205/05/05 00:00:38  5-MIN KDBQ 050600Z AUTO 20004KT 10SM CLR 07/M04 A3026  770 45 0 190/04 RMK AO2 TSNO
94908KDBQ DBQ20050505000510205/05/05 00:05:31  5-MIN KDBQ 050605Z AUTO 20005KT 10SM CLR 07/M05 A3026  770 43 0 200/05 RMK AO2 TSNO
94908KDBQ DBQ20050505001010205/05/05 00:10:31  5-MIN KDBQ 050610Z AUTO 21005KT 10SM CLR 06/M04 A3026  770 46 0 200/05 RMK AO2 TSNO
94908KDBQ DBQ20050505001510205/05/05 00:15:31  5-MIN KDBQ 050615Z AUTO 20005KT 10SM CLR 06/M04 A3026  770 46 0 200/05 RMK AO2 TSNO
94908KDBQ DBQ20050505002010205/05/05 00:20:31  5-MIN KDBQ 050620Z AUTO 20005KT 10SM CLR 06/M04 A3026  770 46 0 200/05 RMK AO2 TSNO
94908KDBQ DBQ20050505002510205/05/05 00:25:31  5-MIN KDBQ 050625Z AUTO 20005KT 10SM CLR 06/M05 A3025  770 45 0 200/05 RMK AO2 TSNO
94908KDBQ DBQ20050505003010205/05/05 00:30:31  5-MIN KDBQ 050630Z AUTO 19006KT 10SM CLR 06/M05 A3025  770 45 0 190/06 RMK AO2 TSNO
94908KDBQ DBQ20050505003510205/05/05 00:35:31  5-MIN KDBQ 050635Z AUTO 20006KT 10SM CLR 06/M05 A3025  770 45 0 200/06 RMK AO2 TSNO
94908KDBQ DBQ20050505004010205/05/05 00:40:31  5-MIN KDBQ 050640Z AUTO 20005KT 10SM CLR 06/M05 A3025  770 45 0 190/05 RMK AO2 TSNO
94908KDBQ DBQ20050505004510205/05/05 00:45:31  5-MIN KDBQ 050645Z AUTO 20006KT 10SM CLR 06/M05 A3025  770 45 0 200/06 RMK AO2 TSNO
94908KDBQ DBQ20050505005011905/05/05 00:50:31  5-MIN KDBQ 050650Z AUTO 20005KT 10SM CLR 06/M05 A3025  770 45 0 200/05 RMK AO2 SLP248 T00611050 TSNO
94908KDBQ DBQ20050505005511905/05/05 00:55:31  5-MIN KDBQ 050655Z AUTO 20005KT 10SM CLR 06/M05 A3025  770 45 0 190/05 RMK AO2 SLP248 T00611050 TSNO
94908KDBQ DBQ20050505010010505/05/05 01:00:31  5-MIN KDBQ 050700Z AUTO 19005KT 10SM CLR 06/M05 A3025  770 46 -100 190/05 RMK AO2 TSNO
94908KDBQ DBQ20050505010510505/05/05 01:05:31  5-MIN KDBQ 050705Z AUTO 20005KT 10SM CLR 06/M05 A3025  770 46 -100 200/05 RMK AO2 TSNO
94908KDBQ DBQ20050505011010505/05/05 01:10:31  5-MIN KDBQ 050710Z AUTO 20007KT 10SM CLR 06/M05 A3025  770 46 -100 200/07 RMK AO2 TSNO
94908KDBQ DBQ20050505011510505/05/05 01:15:31  5-MIN KDBQ 050715Z AUTO 20006KT 10SM CLR 06/M05 A3025  770 46 -100 200/06 RMK AO2 TSNO
94908KDBQ DBQ20050505012010505/05/05 01:20:31  5-MIN KDBQ 050720Z AUTO 19006KT 10SM CLR 05/M05 A3025  770 48 -200 190/06 RMK AO2 TSNO
94908KDBQ DBQ20050505012510505/05/05 01:25:31  5-MIN KDBQ 050725Z AUTO 19006KT 10SM CLR 05/M05 A3025  770 48 -200 190/06 RMK AO2 TSNO
94908KDBQ DBQ20050505013010505/05/05 01:30:31  5-MIN KDBQ 050730Z AUTO 19006KT 10SM CLR 05/M05 A3025  780 48 -200 190/06 RMK AO2 TSNO
94908KDBQ DBQ20050505013510505/05/05 01:35:31  5-MIN KDBQ 050735Z AUTO 19006KT 10SM CLR 06/M05 A3025  780 46 -100 190/06 RMK AO2 TSNO
94908KDBQ DBQ20050505014010505/05/05 01:40:31  5-MIN KDBQ 050740Z AUTO 19006KT 10SM CLR 06/M05 A3025  780 46 -100 190/06 RMK AO2 TSNO
94908KDBQ DBQ20050505014510205/05/05 01:45:31  5-MIN KDBQ 050745Z AUTO 19006KT 10SM CLR 06/M05 A3025  780 45 0 190/06 RMK AO2 TSNO
94908KDBQ DBQ20050505015011905/05/05 01:50:31  5-MIN KDBQ 050750Z AUTO 19006KT 10SM CLR 06/M05 A3025  780 45 0 190/06 RMK AO2 SLP247 T00611050 TSNO
94908KDBQ DBQ20050505015511905/05/05 01:55:31  5-MIN KDBQ 050755Z AUTO 19006KT 10SM CLR 06/M05 A3025  780 45 0 180/06 RMK AO2 SLP247 T00611050 TSNO
94908KDBQ DBQ20050505020010205/05/05 02:00:31  5-MIN KDBQ 050800Z AUTO 19005KT 10SM CLR 06/M05 A3025  770 45 0 190/05 RMK AO2 TSNO
94908KDBQ DBQ20050505020510205/05/05 02:05:31  5-MIN KDBQ 050805Z AUTO 20004KT 10SM CLR 06/M05 A3025  770 45 0 200/04 RMK AO2 TSNO
94908KDBQ DBQ20050505021010505/05/05 02:10:31  5-MIN KDBQ 050810Z AUTO 20005KT 10SM CLR 06/M05 A3025  770 46 -100 200/05 RMK AO2 TSNO
94908KDBQ DBQ20050505021510505/05/05 02:15:31  5-MIN KDBQ 050815Z AUTO 20005KT 10SM CLR 06/M05 A3025  770 46 -100 200/05 RMK AO2 TSNO
94908KDBQ DBQ20050505022010505/05/05 02:20:31  5-MIN KDBQ 050820Z AUTO 19005KT 10SM CLR 06/M05 A3025  770 46 -100 190/05 RMK AO2 TSNO
94908KDBQ DBQ20050505022510505/05/05 02:25:31  5-MIN KDBQ 050825Z AUTO 19005KT 10SM CLR 05/M05 A3025  770 48 -200 190/05 RMK AO2 TSNO
94908KDBQ DBQ20050505023010505/05/05 02:30:31  5-MIN KDBQ 050830Z AUTO 19006KT 10SM CLR 06/M05 A3025  770 46 -100 180/06 RMK AO2 TSNO
94908KDBQ DBQ20050505023510505/05/05 02:35:31  5-MIN KDBQ 050835Z AUTO 18007KT 10SM CLR 05/M05 A3025  770 48 -200 180/07 RMK AO2 TSNO
94908KDBQ DBQ20050505024010505/05/05 02:40:31  5-MIN KDBQ 050840Z AUTO 18007KT 10SM CLR 05/M05 A3025  770 48 -200 180/07 RMK AO2 TSNO
94908KDBQ DBQ20050505024510505/05/05 02:45:31  5-MIN KDBQ 050845Z AUTO 19007KT 10SM CLR 05/M05 A3025  770 48 -200 190/07 RMK AO2 TSNO
94908KDBQ DBQ20050505025012805/05/05 02:50:31  5-MIN KDBQ 050850Z AUTO 19006KT 10SM CLR 05/M05 A3025  770 48 -200 190/06 RMK AO2 SLP248 T00501050 53005 TSNO
94908KDBQ DBQ20050505025512805/05/05 02:55:31  5-MIN KDBQ 050855Z AUTO 18007KT 10SM CLR 06/M05 A3025  770 46 -100 180/07 RMK AO2 SLP248 T00561050 55001 TSNO
94908KDBQ DBQ20050505030010505/05/05 03:00:31  5-MIN KDBQ 050900Z AUTO 19007KT 10SM CLR 06/M05 A3025  770 46 -100 190/07 RMK AO2 TSNO
94908KDBQ DBQ20050505030510505/05/05 03:05:31  5-MIN KDBQ 050905Z AUTO 19007KT 10SM CLR 06/M05 A3025  770 46 -100 190/07 RMK AO2 TSNO
94908KDBQ DBQ20050505031010505/05/05 03:10:31  5-MIN KDBQ 050910Z AUTO 19006KT 10SM CLR 06/M05 A3025  770 46 -100 190/06 RMK AO2 TSNO
94908KDBQ DBQ20050505031510505/05/05 03:15:31  5-MIN KDBQ 050915Z AUTO 20005KT 10SM CLR 05/M05 A3025  770 48 -200 200/05 RMK AO2 TSNO
94908KDBQ DBQ20050505032010505/05/05 03:20:31  5-MIN KDBQ 050920Z AUTO 20005KT 10SM CLR 05/M05 A3025  770 48 -200 200/05 RMK AO2 TSNO
94908KDBQ DBQ20050505032510505/05/05 03:25:31  5-MIN KDBQ 050925Z AUTO 20005KT 10SM CLR 06/M05 A3025  770 46 -100 200/05 RMK AO2 TSNO
94908KDBQ DBQ20050505033010505/05/05 03:30:31  5-MIN KDBQ 050930Z AUTO 19005KT 10SM CLR 06/M05 A3025  770 46 -100 190/05 RMK AO2 TSNO
94908KDBQ DBQ20050505033510505/05/05 03:35:31  5-MIN KDBQ 050935Z AUTO 20004KT 10SM CLR 06/M05 A3025  770 46 -100 200/04 RMK AO2 TSNO
94908KDBQ DBQ20050505034010505/05/05 03:40:31  5-MIN KDBQ 050940Z AUTO 19005KT 10SM CLR 06/M05 A3025  780 46 -100 190/05 RMK AO2 TSNO
94908KDBQ DBQ20050505034510505/05/05 03:45:31  5-MIN KDBQ 050945Z AUTO 20005KT 10SM CLR 06/M05 A3025  780 46 -100 200/05 RMK AO2 TSNO
94908KDBQ DBQ20050505035012205/05/05 03:50:31  5-MIN KDBQ 050950Z AUTO 20005KT 10SM CLR 06/M05 A3025  780 46 -100 200/05 RMK AO2 SLP247 T00561050 TSNO
94908KDBQ DBQ20050505035512205/05/05 03:55:31  5-MIN KDBQ 050955Z AUTO 20005KT 10SM CLR 05/M05 A3025  770 48 -200 200/05 RMK AO2 SLP247 T00501050 TSNO
94908KDBQ DBQ20050505040010505/05/05 04:00:31  5-MIN KDBQ 051000Z AUTO 19005KT 10SM CLR 05/M04 A3025  780 50 -200 180/05 RMK AO2 TSNO
94908KDBQ DBQ20050505040510505/05/05 04:05:31  5-MIN KDBQ 051005Z AUTO 18007KT 10SM CLR 05/M05 A3025  780 48 -200 170/07 RMK AO2 TSNO
94908KDBQ DBQ20050505041010505/05/05 04:10:31  5-MIN KDBQ 051010Z AUTO 18007KT 10SM CLR 05/M05 A3025  780 48 -200 180/07 RMK AO2 TSNO
94908KDBQ DBQ20050505041510505/05/05 04:15:31  5-MIN KDBQ 051015Z AUTO 18006KT 10SM CLR 06/M05 A3025  780 46 -100 180/06 RMK AO2 TSNO
94908KDBQ DBQ20050505042010505/05/05 04:20:31  5-MIN KDBQ 051020Z AUTO 18007KT 10SM CLR 06/M05 A3025  780 46 -100 180/07 RMK AO2 TSNO
94908KDBQ DBQ20050505042510505/05/05 04:25:31  5-MIN KDBQ 051025Z AUTO 19006KT 10SM CLR 06/M04 A3025  770 48 -100 190/06 RMK AO2 TSNO
94908KDBQ DBQ20050505043010205/05/05 04:30:31  5-MIN KDBQ 051030Z AUTO 19007KT 10SM CLR 06/M05 A3025  770 45 0 190/07 RMK AO2 TSNO
94908KDBQ DBQ20050505043510505/05/05 04:35:31  5-MIN KDBQ 051035Z AUTO 19006KT 10SM CLR 05/M04 A3025  770 50 -200 190/06 RMK AO2 TSNO
94908KDBQ DBQ20050505044010505/05/05 04:40:31  5-MIN KDBQ 051040Z AUTO 18007KT 10SM CLR 06/M05 A3025  780 46 -100 170/07 RMK AO2 TSNO
94908KDBQ DBQ20050505044510505/05/05 04:45:31  5-MIN KDBQ 051045Z AUTO 18005KT 10SM CLR 06/M05 A3025  780 46 -100 180/05 RMK AO2 TSNO
94908KDBQ DBQ20050505045012205/05/05 04:50:31  5-MIN KDBQ 051050Z AUTO 18004KT 10SM CLR 06/M04 A3025  780 48 -100 180/04 RMK AO2 SLP246 T00561044 TSNO
94908KDBQ DBQ20050505045511105/05/05 04:55:31  5-MIN KDBQ 051055Z 17005KT 10SM CLR 05/M04 A3025 780 50 -200 170/05 RMK AO2 SLP247 T00501044
94908KDBQ DBQ20050505050009405/05/05 05:00:31  5-MIN KDBQ 051100Z 17008KT 10SM CLR 05/M04 A3025 780 50 -200 170/08 RMK AO2
94908KDBQ DBQ20050505050509105/05/05 05:05:31  5-MIN KDBQ 051105Z 17008KT 10SM CLR 06/M04 A3025 780 46 0 170/08 RMK AO2
94908KDBQ DBQ20050505051009105/05/05 05:10:31  5-MIN KDBQ 051110Z 17007KT 10SM CLR 06/M04 A3025 780 46 0 170/07 RMK AO2
94908KDBQ DBQ20050505051509405/05/05 05:15:31  5-MIN KDBQ 051115Z 20005KT 10SM CLR 05/M04 A3025 770 52 -200 200/05 RMK AO2
94908KDBQ DBQ20050505052009405/05/05 05:20:31  5-MIN KDBQ 051120Z 19006KT 10SM CLR 05/M04 A3025 770 52 -200 190/06 RMK AO2
94908KDBQ DBQ20050505052509405/05/05 05:25:31  5-MIN KDBQ 051125Z 21005KT 10SM CLR 05/M04 A3025 770 52 -200 210/05 RMK AO2
94908KDBQ DBQ20050505053009405/05/05 05:30:31  5-MIN KDBQ 051130Z 21006KT 10SM CLR 05/M04 A3025 770 52 -200 210/06 RMK AO2
94908KDBQ DBQ20050505053509405/05/05 05:35:31  5-MIN KDBQ 051135Z 20006KT 10SM CLR 06/M04 A3025 770 50 -100 200/06 RMK AO2
94908KDBQ DBQ20050505054009105/05/05 05:40:31  5-MIN KDBQ 051140Z 20008KT 10SM CLR 06/M04 A3026 770 48 0 200/08 RMK AO2
94908KDBQ DBQ20050505054509405/05/05 05:45:31  5-MIN KDBQ 051145Z 22006KT 10SM CLR 04/M03 A3026 770 62 -300 220/06 RMK AO2
94908KDBQ DBQ20050505055012905/05/05 05:50:31  5-MIN KDBQ 051150Z 22006KT 10SM CLR 04/M03 A3026 770 57 -200 220/06 RMK AO2 SLP251 T00441033 10067 20039 55001
94908KDBQ DBQ20050505055512905/05/05 05:55:31  5-MIN KDBQ 051155Z 22007KT 10SM CLR 04/M03 A3026 770 59 -200 220/07 RMK AO2 SLP251 T00441028 10067 20039 53002
94908KDBQ DBQ20050505060009405/05/05 06:00:31  5-MIN KDBQ 051200Z 22006KT 10SM CLR 06/M03 A3026 770 55 -100 220/06 RMK AO2
94908KDBQ DBQ20050505060509405/05/05 06:05:31  5-MIN KDBQ 051205Z 22007KT 10SM CLR 06/M03 A3026 760 55 -100 220/07 RMK AO2
94908KDBQ DBQ20050505061009105/05/05 06:10:31  5-MIN KDBQ 051210Z 22008KT 10SM CLR 06/M03 A3026 760 53 0 220/08 RMK AO2
94908KDBQ DBQ20050505061509105/05/05 06:15:31  5-MIN KDBQ 051215Z 21008KT 10SM CLR 07/M03 A3026 760 49 0 210/08 RMK AO2
94908KDBQ DBQ20050505062009305/05/05 06:20:31  5-MIN KDBQ 051220Z 22007KT 10SM CLR 08/M02 A3027 760 49 100 220/07 RMK AO2
94908KDBQ DBQ20050505062509305/05/05 06:25:31  5-MIN KDBQ 051225Z 22007KT 10SM CLR 08/M02 A3027 760 51 100 220/07 RMK AO2
94908KDBQ DBQ20050505063009305/05/05 06:30:31  5-MIN KDBQ 051230Z 21007KT 10SM CLR 08/M02 A3027 760 51 100 210/07 RMK AO2
94908KDBQ DBQ20050505063509305/05/05 06:35:31  5-MIN KDBQ 051235Z 20008KT 10SM CLR 09/M02 A3027 760 47 200 200/08 RMK AO2
94908KDBQ DBQ20050505064009305/05/05 06:40:31  5-MIN KDBQ 051240Z 20009KT 10SM CLR 09/M02 A3027 750 44 300 200/09 RMK AO2
94908KDBQ DBQ20050505064509305/05/05 06:45:31  5-MIN KDBQ 051245Z 19009KT 10SM CLR 09/M03 A3027 760 42 300 190/09 RMK AO2
94908KDBQ DBQ20050505065011005/05/05 06:50:31  5-MIN KDBQ 051250Z 19010KT 10SM CLR 09/M03 A3028 750 42 300 190/10 RMK AO2 SLP258 T00941028
94908KDBQ DBQ20050505065511005/05/05 06:55:31  5-MIN KDBQ 051255Z 19009KT 10SM CLR 10/M03 A3028 750 40 400 190/09 RMK AO2 SLP257 T01001028
94908KDBQ DBQ20050505070009305/05/05 07:00:31  5-MIN KDBQ 051300Z 19010KT 10SM CLR 11/M03 A3028 750 37 400 190/10 RMK AO2
94908KDBQ DBQ20050505070509305/05/05 07:05:31  5-MIN KDBQ 051305Z 19010KT 10SM CLR 11/M03 A3028 750 37 500 190/10 RMK AO2
94908KDBQ DBQ20050505071009305/05/05 07:10:31  5-MIN KDBQ 051310Z 19009KT 10SM CLR 11/M03 A3028 750 37 500 190/09 RMK AO2
94908KDBQ DBQ20050505071509305/05/05 07:15:31  5-MIN KDBQ 051315Z 20011KT 10SM CLR 12/M03 A3028 750 35 600 200/11 RMK AO2
94908KDBQ DBQ20050505072009305/05/05 07:20:31  5-MIN KDBQ 051320Z 19011KT 10SM CLR 12/M03 A3028 750 36 600 190/11 RMK AO2
94908KDBQ DBQ20050505072509305/05/05 07:25:31  5-MIN KDBQ 051325Z 19013KT 10SM CLR 12/M03 A3028 750 33 600 190/13 RMK AO2
94908KDBQ DBQ20050505073009305/05/05 07:30:31  5-MIN KDBQ 051330Z 20011KT 10SM CLR 12/M03 A3028 750 33 600 190/11 RMK AO2
94908KDBQ DBQ20050505073509305/05/05 07:35:31  5-MIN KDBQ 051335Z 20011KT 10SM CLR 12/M03 A3028 750 35 600 200/11 RMK AO2
94908KDBQ DBQ20050505074009305/05/05 07:40:31  5-MIN KDBQ 051340Z 20012KT 10SM CLR 13/M02 A3028 750 35 700 200/12 RMK AO2
94908KDBQ DBQ20050505074509305/05/05 07:45:31  5-MIN KDBQ 051345Z 19011KT 10SM CLR 13/M02 A3028 750 34 800 190/11 RMK AO2
94908KDBQ DBQ20050505075011005/05/05 07:50:31  5-MIN KDBQ 051350Z 19011KT 10SM CLR 13/M03 A3028 750 32 800 190/11 RMK AO2 SLP257 T01331028
94908KDBQ DBQ20050505075511005/05/05 07:55:31  5-MIN KDBQ 051355Z 20012KT 10SM CLR 13/M03 A3028 740 32 800 190/12 RMK AO2 SLP258 T01331028
94908KDBQ DBQ20050505080009305/05/05 08:00:31  5-MIN KDBQ 051400Z 20013KT 10SM CLR 13/M03 A3028 750 32 800 200/13 RMK AO2
94908KDBQ DBQ20050505080509305/05/05 08:05:31  5-MIN KDBQ 051405Z 20013KT 10SM CLR 14/M02 A3028 750 32 800 200/13 RMK AO2
94908KDBQ DBQ20050505081009305/05/05 08:10:31  5-MIN KDBQ 051410Z 20012KT 10SM CLR 14/M03 A3028 750 31 800 190/12 RMK AO2
94908KDBQ DBQ20050505081509305/05/05 08:15:31  5-MIN KDBQ 051415Z 18013KT 10SM CLR 14/M02 A3028 750 31 900 180/13 RMK AO2
94908KDBQ DBQ20050505082009305/05/05 08:20:31  5-MIN KDBQ 051420Z 18012KT 10SM CLR 14/M03 A3028 750 30 900 180/12 RMK AO2
94908KDBQ DBQ20050505082509305/05/05 08:25:31  5-MIN KDBQ 051425Z 18011KT 10SM CLR 14/M03 A3028 750 30 900 180/11 RMK AO2
94908KDBQ DBQ20050505083009305/05/05 08:30:31  5-MIN KDBQ 051430Z 19013KT 10SM CLR 14/M03 A3028 750 30 900 190/13 RMK AO2
94908KDBQ DBQ20050505083509405/05/05 08:35:31  5-MIN KDBQ 051435Z 20014KT 10SM CLR 15/M02 A3028 750 30 1000 200/14 RMK AO2
94908KDBQ DBQ20050505084009405/05/05 08:40:31  5-MIN KDBQ 051440Z 20012KT 10SM CLR 15/M03 A3028 750 29 1000 200/12 RMK AO2
94908KDBQ DBQ20050505084509405/05/05 08:45:31  5-MIN KDBQ 051445Z 20011KT 10SM CLR 15/M02 A3028 750 30 1000 200/11 RMK AO2
94908KDBQ DBQ20050505085011705/05/05 08:50:31  5-MIN KDBQ 051450Z 20012KT 10SM CLR 16/M02 A3028 750 30 1000 200/12 RMK AO2 SLP256 T01561017 53002
94908KDBQ DBQ20050505085511705/05/05 08:55:31  5-MIN KDBQ 051455Z 19012KT 10SM CLR 16/M02 A3028 750 29 1000 190/12 RMK AO2 SLP256 T01561022 50007
94908KDBQ DBQ20050505090009405/05/05 09:00:31  5-MIN KDBQ 051500Z 19014KT 10SM CLR 16/M02 A3028 750 29 1000 190/14 RMK AO2
94908KDBQ DBQ20050505090509405/05/05 09:05:31  5-MIN KDBQ 051505Z 20013KT 10SM CLR 16/M02 A3028 750 30 1000 200/13 RMK AO2
94908KDBQ DBQ20050505091009405/05/05 09:10:31  5-MIN KDBQ 051510Z 20012KT 10SM CLR 16/M01 A3028 750 30 1100 200/12 RMK AO2
94908KDBQ DBQ20050505091509405/05/05 09:15:31  5-MIN KDBQ 051515Z 21011KT 10SM CLR 16/M01 A3028 750 30 1100 210/11 RMK AO2
94908KDBQ DBQ20050505092009405/05/05 09:20:31  5-MIN KDBQ 051520Z 20014KT 10SM CLR 16/M01 A3028 750 32 1100 200/14 RMK AO2
94908KDBQ DBQ20050505092509405/05/05 09:25:31  5-MIN KDBQ 051525Z 19011KT 10SM CLR 16/M01 A3028 750 32 1100 190/11 RMK AO2
94908KDBQ DBQ20050505093009405/05/05 09:30:31  5-MIN KDBQ 051530Z 21012KT 10SM CLR 17/M01 A3028 750 31 1200 210/12 RMK AO2
94908KDBQ DBQ20050505093509405/05/05 09:35:31  5-MIN KDBQ 051535Z 20011KT 10SM CLR 17/M01 A3028 750 31 1200 200/11 RMK AO2
94908KDBQ DBQ20050505094009405/05/05 09:40:31  5-MIN KDBQ 051540Z 21009KT 10SM CLR 17/00 A3028 750 32  1200 210/09 RMK AO2
94908KDBQ DBQ20050505094510005/05/05 09:45:31  5-MIN KDBQ 051545Z 19010G17KT 10SM CLR 17/00 A3028 750  32 1200 190/10G17 RMK AO2
94908KDBQ DBQ20050505095011705/05/05 09:50:31  5-MIN KDBQ 051550Z 19009G17KT 10SM CLR 17/00 A3028 750  31 1200 190/09G17 RMK AO2 SLP255 T01720000
94908KDBQ DBQ20050505095511105/05/05 09:55:31  5-MIN KDBQ 051555Z 20010KT 10SM CLR 17/00 A3028 750 31  1200 200/10 RMK AO2 SLP255 T01720000
94908KDBQ DBQ20050505100009405/05/05 10:00:31  5-MIN KDBQ 051600Z 20012KT 10SM CLR 17/M01 A3026 760 28 1200 200/12 RMK AO2
94908KDBQ DBQ20050505100509405/05/05 10:05:31  5-MIN KDBQ 051605Z 21010KT 10SM CLR 17/M01 A3026 760 28 1200 200/10 RMK AO2
94908KDBQ DBQ20050505101009405/05/05 10:10:31  5-MIN KDBQ 051610Z 21011KT 10SM CLR 18/M01 A3026 760 28 1300 210/11 RMK AO2
94908KDBQ DBQ20050505101509405/05/05 10:15:31  5-MIN KDBQ 051615Z 20012KT 10SM CLR 18/M01 A3026 770 28 1300 200/12 RMK AO2
94908KDBQ DBQ20050505102010005/05/05 10:20:31  5-MIN KDBQ 051620Z 20009G15KT 10SM CLR 18/M01 A3026 760 28 1300 190/09G15 RMK AO2
94908KDBQ DBQ20050505102510005/05/05 10:25:31  5-MIN KDBQ 051625Z 21010G15KT 10SM CLR 18/00 A3027 760  29 1400 210/10G15 RMK AO2
94908KDBQ DBQ20050505103009405/05/05 10:30:31  5-MIN KDBQ 051630Z 19008KT 10SM CLR 18/00 A3027 760 29  1400 190/08 RMK AO2
94908KDBQ DBQ20050505103509405/05/05 10:35:31  5-MIN KDBQ 051635Z 17009KT 10SM CLR 18/M01 A3027 760 27 1400 170/09 RMK AO2
94908KDBQ DBQ20050505104009405/05/05 10:40:31  5-MIN KDBQ 051640Z 21012KT 10SM CLR 18/01 A3026 760 30  1400 210/12 RMK AO2
94908KDBQ DBQ20050505104510905/05/05 10:45:31  5-MIN KDBQ 051645Z 18007KT 170V230 10SM CLR 18/00 A3026 760 29 1400 180/07 170V230 RMK AO2
94908KDBQ DBQ20050505105011705/05/05 10:50:31  5-MIN KDBQ 051650Z 21011G16KT 10SM CLR 18/00 A3026 760  29 1400 210/11G16 RMK AO2 SLP249 T01830000
94908KDBQ DBQ20050505105511705/05/05 10:55:31  5-MIN KDBQ 051655Z 21009G16KT 10SM CLR 18/01 A3026 770  30 1400 210/09G16 RMK AO2 SLP249 T01830006
94908KDBQ DBQ20050505110009405/05/05 11:00:31  5-MIN KDBQ 051700Z 20011KT 10SM CLR 19/01 A3026 770 30  1400 200/11 RMK AO2
94908KDBQ DBQ20050505110509405/05/05 11:05:31  5-MIN KDBQ 051705Z 21011KT 10SM CLR 19/01 A3026 770 29  1400 210/11 RMK AO2
94908KDBQ DBQ20050505111009405/05/05 11:10:31  5-MIN KDBQ 051710Z 21009KT 10SM CLR 19/01 A3026 770 29  1400 200/09 RMK AO2
94908KDBQ DBQ20050505111509405/05/05 11:15:31  5-MIN KDBQ 051715Z 21011KT 10SM CLR 19/01 A3025 770 30  1400 210/11 RMK AO2
94908KDBQ DBQ20050505112009405/05/05 11:20:31  5-MIN KDBQ 051720Z 20009KT 10SM CLR 19/01 A3025 770 29  1400 200/09 RMK AO2
94908KDBQ DBQ20050505112509405/05/05 11:25:31  5-MIN KDBQ 051725Z 22009KT 10SM CLR 19/01 A3025 780 30  1500 220/09 RMK AO2
94908KDBQ DBQ20050505113009405/05/05 11:30:31  5-MIN KDBQ 051730Z 18009KT 10SM CLR 19/01 A3025 780 29  1500 180/09 RMK AO2
94908KDBQ DBQ20050505113509405/05/05 11:35:31  5-MIN KDBQ 051735Z 22012KT 10SM CLR 19/01 A3024 780 29  1500 220/12 RMK AO2
94908KDBQ DBQ20050505114009405/05/05 11:40:31  5-MIN KDBQ 051740Z 23010KT 10SM CLR 19/02 A3024 790 30  1500 220/10 RMK AO2
94908KDBQ DBQ20050505114511605/05/05 11:45:31  5-MIN KDBQ 051745Z 22010G14KT 180V250 10SM CLR 19/01  A3024 790 29 1500 210/10G14 180V250 RMK AO2
94908KDBQ DBQ20050505115013505/05/05 11:50:31  5-MIN KDBQ 051750Z 21007G14KT 10SM CLR 19/02 A3024 790  30 1500 210/07G14 RMK AO2 SLP240 T01940017 10194 20050 50007
94908KDBQ DBQ20050505115512905/05/05 11:55:31  5-MIN KDBQ 051755Z 22009KT 10SM CLR 20/02 A3023 790 30  1600 220/09 RMK AO2 SLP240 T02000022 10200 20050 58014
94908KDBQ DBQ20050505120009705/05/05 12:00:31  5-MIN KDBQ 051800Z 17007KT 10SM FEW085 19/01 A3024 790  29 1500 170/07 RMK AO2
94908KDBQ DBQ20050505120510305/05/05 12:05:31  5-MIN KDBQ 051805Z 17009G18KT 10SM FEW080 20/01 A3023  790 28 1600 170/09G18 RMK AO2
94908KDBQ DBQ20050505121010305/05/05 12:10:31  5-MIN KDBQ 051810Z 20008G18KT 10SM FEW080 20/01 A3023  790 28 1600 200/08G18 RMK AO2
94908KDBQ DBQ20050505121510305/05/05 12:15:31  5-MIN KDBQ 051815Z 19010G14KT 10SM FEW080 20/02 A3023  790 30 1600 190/10G14 RMK AO2
94908KDBQ DBQ20050505122010405/05/05 12:20:31  5-MIN KDBQ 051820Z 17010G14KT 10SM FEW080 20/M01 A3023  790 25 1600 170/10G14 RMK AO2
94908KDBQ DBQ20050505122509705/05/05 12:25:31  5-MIN KDBQ 051825Z 18008KT 10SM FEW080 20/00 A3023 790  26 1600 180/08 RMK AO2
94908KDBQ DBQ20050505123009705/05/05 12:30:31  5-MIN KDBQ 051830Z 18008KT 10SM FEW090 19/00 A3023 790  27 1500 180/08 RMK AO2
94908KDBQ DBQ20050505123509705/05/05 12:35:31  5-MIN KDBQ 051835Z 19014KT 10SM SCT085 19/01 A3023 800  28 1500 190/14 RMK AO2
94908KDBQ DBQ20050505124010305/05/05 12:40:31  5-MIN KDBQ 051840Z 21009G16KT 10SM BKN085 21/01 A3022  800 26 1700 210/09G16 RMK AO2
94908KDBQ DBQ20050505124511305/05/05 12:45:31  5-MIN KDBQ 051845Z 18008KT 150V220 10SM BKN090 20/01  A3022 800 27 1600 180/08 150V220 RMK AO2
94908KDBQ DBQ20050505125011405/05/05 12:50:31  5-MIN KDBQ 051850Z 17011KT 10SM BKN090 21/01 A3022 800  26 1700 170/11 RMK AO2 SLP236 T02060006
94908KDBQ DBQ20050505125511405/05/05 12:55:31  5-MIN KDBQ 051855Z 19009KT 10SM SCT090 20/00 A3022 800  26 1600 190/09 RMK AO2 SLP235 T02000000
94908KDBQ DBQ20050505130011405/05/05 13:00:31  5-MIN KDBQ 051900Z 19011KT 140V230 10SM SCT085 19/M01  A3022 800 26 1500 190/11 140V230 RMK AO2
94908KDBQ DBQ20050505130511805/05/05 13:05:31  5-MIN KDBQ 051905Z 21013G18KT 170V230 10SM SCT090 21/02 A3021 810 28 1700 210/13G18 170V230 RMK AO2
94908KDBQ DBQ20050505131010305/05/05 13:10:31  5-MIN KDBQ 051910Z 19011G19KT 10SM FEW095 21/01 A3021  810 27 1700 190/11G19 RMK AO2
94908KDBQ DBQ20050505131509705/05/05 13:15:31  5-MIN KDBQ 051915Z 18004KT 10SM FEW090 20/01 A3021 810  27 1600 180/04 RMK AO2
94908KDBQ DBQ20050505132010305/05/05 13:20:31  5-MIN KDBQ 051920Z 17010G14KT 10SM FEW090 21/01 A3021  810 27 1700 170/10G14 RMK AO2
94908KDBQ DBQ20050505132509705/05/05 13:25:31  5-MIN KDBQ 051925Z 17012KT 10SM FEW090 21/01 A3021 810  26 1700 170/12 RMK AO2
94908KDBQ DBQ20050505133011305/05/05 13:30:31  5-MIN KDBQ 051930Z 16007KT 130V200 10SM SCT090 21/01  A3021 820 26 1700 160/07 130V200 RMK AO2
94908KDBQ DBQ20050505133511305/05/05 13:35:31  5-MIN KDBQ 051935Z 19007KT 150V220 10SM SCT090 21/01  A3020 820 26 1700 190/07 150V220 RMK AO2
94908KDBQ DBQ20050505134009705/05/05 13:40:31  5-MIN KDBQ 051940Z 23008KT 10SM FEW085 21/02 A3020 820  28 1700 230/08 RMK AO2
94908KDBQ DBQ20050505134510305/05/05 13:45:31  5-MIN KDBQ 051945Z 22010G15KT 10SM FEW090 21/02 A3020  820 28 1700 220/10G15 RMK AO2
94908KDBQ DBQ20050505135012005/05/05 13:50:31  5-MIN KDBQ 051950Z 23005G15KT 10SM FEW090 21/02 A3020  820 28 1700 230/05G15 RMK AO2 SLP227 T02060017
94908KDBQ DBQ20050505135512005/05/05 13:55:31  5-MIN KDBQ 051955Z 22014G17KT 10SM FEW090 21/02 A3019  830 27 1800 220/14G17 RMK AO2 SLP226 T02110017
94908KDBQ DBQ20050505140010305/05/05 14:00:31  5-MIN KDBQ 052000Z 22009G17KT 10SM FEW095 21/02 A3019  830 29 1700 220/09G17 RMK AO2
94908KDBQ DBQ20050505140509705/05/05 14:05:31  5-MIN KDBQ 052005Z 20008KT 10SM FEW090 21/02 A3019 830  28 1700 200/08 RMK AO2
94908KDBQ DBQ20050505141010305/05/05 14:10:31  5-MIN KDBQ 052010Z 21010G15KT 10SM SCT090 20/01 A3019  830 27 1600 210/10G15 RMK AO2
94908KDBQ DBQ20050505141509705/05/05 14:15:31  5-MIN KDBQ 052015Z 22009KT 10SM SCT090 19/02 A3019 830  31 1600 220/09 RMK AO2
94908KDBQ DBQ20050505142009705/05/05 14:20:31  5-MIN KDBQ 052020Z 19009KT 10SM BKN090 19/02 A3019 830  31 1600 190/09 RMK AO2
94908KDBQ DBQ20050505142510405/05/05 14:25:31  5-MIN KDBQ 052025Z 17006KT 10SM BKN090 BKN110 21/01  A3019 830 27 1700 170/06 RMK AO2
94908KDBQ DBQ20050505143010405/05/05 14:30:31  5-MIN KDBQ 052030Z 21009KT 10SM BKN085 BKN110 20/02  A3019 830 29 1600 210/09 RMK AO2
94908KDBQ DBQ20050505143509705/05/05 14:35:31  5-MIN KDBQ 052035Z 23008KT 10SM BKN090 21/02 A3018 840  28 1700 230/08 RMK AO2
94908KDBQ DBQ20050505144009705/05/05 14:40:31  5-MIN KDBQ 052040Z 23015KT 10SM SCT090 21/02 A3018 840  29 1700 220/15 RMK AO2
94908KDBQ DBQ20050505144510305/05/05 14:45:31  5-MIN KDBQ 052045Z 22010G17KT 10SM SCT090 21/02 A3018  840 29 1700 220/10G17 RMK AO2
94908KDBQ DBQ20050505145012005/05/05 14:50:31  5-MIN KDBQ 052050Z 23010KT 10SM FEW085 21/02 A3018 840  29 1700 230/10 RMK AO2 SLP222 T02060022 58014
94908KDBQ DBQ20050505145512605/05/05 14:55:31  5-MIN KDBQ 052055Z 22012G16KT 10SM FEW085 21/02 A3018  840 28 1700 220/12G16 RMK AO2 SLP220 T02060017 58019
94908KDBQ DBQ20050505150010005/05/05 15:00:31  5-MIN KDBQ 052100Z 20010G16KT 10SM CLR 21/02 A3016 850  29 1700 200/10G16 RMK AO2
94908KDBQ DBQ20050505150509705/05/05 15:05:31  5-MIN KDBQ 052105Z 17008KT 10SM FEW095 21/01 A3017 850  27 1700 170/08 RMK AO2
94908KDBQ DBQ20050505151009705/05/05 15:10:31  5-MIN KDBQ 052110Z 23007KT 10SM FEW095 21/03 A3017 850  30 1700 220/07 RMK AO2
94908KDBQ DBQ20050505151509405/05/05 15:15:31  5-MIN KDBQ 052115Z 21011KT 10SM CLR 21/02 A3017 850 29  1700 210/11 RMK AO2
94908KDBQ DBQ20050505152009405/05/05 15:20:31  5-MIN KDBQ 052120Z 22009KT 10SM CLR 21/02 A3017 850 29  1700 220/09 RMK AO2
94908KDBQ DBQ20050505152509705/05/05 15:25:31  5-MIN KDBQ 052125Z 24012KT 10SM FEW095 21/02 A3016 850  28 1800 240/12 RMK AO2
94908KDBQ DBQ20050505153009705/05/05 15:30:31  5-MIN KDBQ 052130Z 24012KT 10SM SCT090 21/02 A3016 860  28 1800 240/12 RMK AO2
94908KDBQ DBQ20050505153509705/05/05 15:35:31  5-MIN KDBQ 052135Z 23012KT 10SM SCT090 21/02 A3016 860  28 1800 220/12 RMK AO2
94908KDBQ DBQ20050505154009705/05/05 15:40:31  5-MIN KDBQ 052140Z 21010KT 10SM FEW090 21/02 A3016 860  29 1700 210/10 RMK AO2
94908KDBQ DBQ20050505154509705/05/05 15:45:31  5-MIN KDBQ 052145Z 19009KT 10SM FEW090 21/02 A3016 860  29 1700 190/09 RMK AO2
94908KDBQ DBQ20050505155011405/05/05 15:50:31  5-MIN KDBQ 052150Z 21012KT 10SM FEW090 21/02 A3016 860  27 1800 200/12 RMK AO2 SLP214 T02110017
94908KDBQ DBQ20050505155511405/05/05 15:55:31  5-MIN KDBQ 052155Z 19009KT 10SM FEW090 21/02 A3015 870  28 1800 190/09 RMK AO2 SLP210 T02060017
94908KDBQ DBQ20050505160010305/05/05 16:00:31  5-MIN KDBQ 052200Z 21012G18KT 10SM FEW090 21/02 A3014  870 28 1800 210/12G18 RMK AO2
94908KDBQ DBQ20050505160510305/05/05 16:05:31  5-MIN KDBQ 052205Z 21008G18KT 10SM FEW090 21/03 A3014  870 30 1800 210/08G18 RMK AO2
94908KDBQ DBQ20050505161009705/05/05 16:10:31  5-MIN KDBQ 052210Z 19010KT 10SM FEW090 21/02 A3014 870  29 1800 190/10 RMK AO2
94908KDBQ DBQ20050505161509705/05/05 16:15:31  5-MIN KDBQ 052215Z 17010KT 10SM FEW090 21/01 A3014 870  27 1800 170/10 RMK AO2
94908KDBQ DBQ20050505162009705/05/05 16:20:31  5-MIN KDBQ 052220Z 21010KT 10SM FEW090 20/01 A3014 880  28 1700 210/10 RMK AO2
94908KDBQ DBQ20050505162509705/05/05 16:25:31  5-MIN KDBQ 052225Z 19011KT 10SM FEW090 19/02 A3014 880  30 1600 190/11 RMK AO2
94908KDBQ DBQ20050505163009405/05/05 16:30:31  5-MIN KDBQ 052230Z 21011KT 10SM CLR 21/02 A3014 880 28  1800 200/11 RMK AO2
94908KDBQ DBQ20050505163509405/05/05 16:35:31  5-MIN KDBQ 052235Z 19011KT 10SM CLR 20/02 A3014 880 29  1700 190/11 RMK AO2
94908KDBQ DBQ20050505164009405/05/05 16:40:31  5-MIN KDBQ 052240Z 21011KT 10SM CLR 21/02 A3014 880 28  1800 210/11 RMK AO2
94908KDBQ DBQ20050505164509405/05/05 16:45:31  5-MIN KDBQ 052245Z 19012KT 10SM CLR 21/02 A3013 880 29  1800 190/12 RMK AO2
94908KDBQ DBQ20050505165011105/05/05 16:50:31  5-MIN KDBQ 052250Z 20010KT 10SM CLR 19/02 A3013 880 30  1600 200/10 RMK AO2 SLP207 T01940017
94908KDBQ DBQ20050505165511105/05/05 16:55:31  5-MIN KDBQ 052255Z 20010KT 10SM CLR 19/02 A3013 880 31  1600 200/10 RMK AO2 SLP206 T01890017
94908KDBQ DBQ20050505170009405/05/05 17:00:31  5-MIN KDBQ 052300Z 19009KT 10SM CLR 19/02 A3013 880 31  1600 190/09 RMK AO2
94908KDBQ DBQ20050505170509405/05/05 17:05:31  5-MIN KDBQ 052305Z 19008KT 10SM CLR 19/02 A3013 890 31  1600 190/08 RMK AO2
94908KDBQ DBQ20050505171009405/05/05 17:10:31  5-MIN KDBQ 052310Z 19009KT 10SM CLR 19/02 A3013 890 30  1700 190/09 RMK AO2
94908KDBQ DBQ20050505171509405/05/05 17:15:31  5-MIN KDBQ 052315Z 20013KT 10SM CLR 19/02 A3013 890 30  1700 200/13 RMK AO2
94908KDBQ DBQ20050505172009405/05/05 17:20:31  5-MIN KDBQ 052320Z 19013KT 10SM CLR 20/02 A3012 890 29  1700 190/13 RMK AO2
94908KDBQ DBQ20050505172509405/05/05 17:25:31  5-MIN KDBQ 052325Z 20012KT 10SM CLR 20/02 A3013 890 30  1700 190/12 RMK AO2
94908KDBQ DBQ20050505173009405/05/05 17:30:31  5-MIN KDBQ 052330Z 20010KT 10SM CLR 20/02 A3013 890 30  1700 200/10 RMK AO2
94908KDBQ DBQ20050505173509405/05/05 17:35:31  5-MIN KDBQ 052335Z 20010KT 10SM CLR 19/02 A3013 890 31  1700 190/10 RMK AO2
94908KDBQ DBQ20050505174009405/05/05 17:40:31  5-MIN KDBQ 052340Z 19010KT 10SM CLR 19/02 A3013 890 30  1700 190/10 RMK AO2
94908KDBQ DBQ20050505174509405/05/05 17:45:31  5-MIN KDBQ 052345Z 19010KT 10SM CLR 19/02 A3013 890 30  1700 190/10 RMK AO2
94908KDBQ DBQ20050505175012905/05/05 17:50:31  5-MIN KDBQ 052350Z 18010KT 10SM CLR 19/02 A3012 890 30  1700 180/10 RMK AO2 SLP203 T01940017 10211 20189 58019
94908KDBQ DBQ20050505175512905/05/05 17:55:31  5-MIN KDBQ 052355Z 19011KT 10SM CLR 19/02 A3013 890 30  1700 190/11 RMK AO2 SLP204 T01940017 10211 20189 56017
94908KDBQ DBQ20050505180009405/05/05 18:00:31  5-MIN KDBQ 060000Z 19007KT 10SM CLR 19/02 A3013 890 32  1600 190/07 RMK AO2
94908KDBQ DBQ20050505180509405/05/05 18:05:31  5-MIN KDBQ 060005Z 19007KT 10SM CLR 19/03 A3012 890 34  1600 180/07 RMK AO2
94908KDBQ DBQ20050505181009405/05/05 18:10:31  5-MIN KDBQ 060010Z 19008KT 10SM CLR 18/03 A3012 890 35  1500 190/08 RMK AO2
94908KDBQ DBQ20050505181509405/05/05 18:15:31  5-MIN KDBQ 060015Z 19008KT 10SM CLR 18/03 A3012 890 38  1500 190/08 RMK AO2
94908KDBQ DBQ20050505182009405/05/05 18:20:31  5-MIN KDBQ 060020Z 19007KT 10SM CLR 18/03 A3012 890 38  1500 190/07 RMK AO2
94908KDBQ DBQ20050505182509405/05/05 18:25:31  5-MIN KDBQ 060025Z 19007KT 10SM CLR 17/03 A3012 890 39  1400 190/07 RMK AO2
94908KDBQ DBQ20050505183009405/05/05 18:30:31  5-MIN KDBQ 060030Z 18007KT 10SM CLR 17/03 A3012 890 40  1300 180/07 RMK AO2
94908KDBQ DBQ20050505183509405/05/05 18:35:31  5-MIN KDBQ 060035Z 18006KT 10SM CLR 17/03 A3012 890 39  1300 180/06 RMK AO2
94908KDBQ DBQ20050505184009405/05/05 18:40:31  5-MIN KDBQ 060040Z 18005KT 10SM CLR 17/03 A3012 890 39  1300 180/05 RMK AO2
94908KDBQ DBQ20050505184509405/05/05 18:45:31  5-MIN KDBQ 060045Z 17005KT 10SM CLR 16/03 A3012 890 40  1300 160/05 RMK AO2
94908KDBQ DBQ20050505185011105/05/05 18:50:31  5-MIN KDBQ 060050Z 17006KT 10SM CLR 16/03 A3012 890 40  1300 170/06 RMK AO2 SLP202 T01610028
94908KDBQ DBQ20050505185512005/05/05 18:55:31  5-MIN KDBQ 060055Z AUTO 17008KT 10SM CLR 16/03 A3012 890 40 1300 170/08 RMK AO2 SLP201 T01610028 TSNO
94908KDBQ DBQ20050505190010305/05/05 19:00:31  5-MIN KDBQ 060100Z AUTO 16007KT 10SM CLR 16/03 A3012 890 40 1300 160/07 RMK AO2 TSNO
94908KDBQ DBQ20050505190510305/05/05 19:05:31  5-MIN KDBQ 060105Z AUTO 16007KT 10SM CLR 16/03 A3012 890 42 1200 150/07 RMK AO2 TSNO
94908KDBQ DBQ20050505191010305/05/05 19:10:31  5-MIN KDBQ 060110Z AUTO 16007KT 10SM CLR 15/03 A3012 890 43 1100 160/07 RMK AO2 TSNO
94908KDBQ DBQ20050505191510305/05/05 19:15:31  5-MIN KDBQ 060115Z AUTO 16006KT 10SM CLR 15/03 A3012 890 43 1100 160/06 RMK AO2 TSNO
94908KDBQ DBQ20050505192010305/05/05 19:20:31  5-MIN KDBQ 060120Z AUTO 16006KT 10SM CLR 14/03 A3012 890 45 1100 160/06 RMK AO2 TSNO
94908KDBQ DBQ20050505192510305/05/05 19:25:31  5-MIN KDBQ 060125Z AUTO 16007KT 10SM CLR 14/03 A3012 890 45 1100 160/07 RMK AO2 TSNO
94908KDBQ DBQ20050505193010305/05/05 19:30:31  5-MIN KDBQ 060130Z AUTO 16008KT 10SM CLR 14/03 A3012 890 45 1100 160/08 RMK AO2 TSNO
94908KDBQ DBQ20050505193510305/05/05 19:35:31  5-MIN KDBQ 060135Z AUTO 17008KT 10SM CLR 14/03 A3012 890 45 1100 160/08 RMK AO2 TSNO
94908KDBQ DBQ20050505194010305/05/05 19:40:31  5-MIN KDBQ 060140Z AUTO 16008KT 10SM CLR 14/02 A3012 890 43 1100 160/08 RMK AO2 TSNO
94908KDBQ DBQ20050505194510305/05/05 19:45:31  5-MIN KDBQ 060145Z AUTO 16007KT 10SM CLR 14/02 A3013 890 45 1000 160/07 RMK AO2 TSNO
94908KDBQ DBQ20050505195012005/05/05 19:50:31  5-MIN KDBQ 060150Z AUTO 15008KT 10SM CLR 14/03 A3013 890 47 1000 150/08 RMK AO2 SLP203 T01390028 TSNO
94908KDBQ DBQ20050505195512005/05/05 19:55:31  5-MIN KDBQ 060155Z AUTO 16008KT 10SM CLR 14/02 A3013 890 45 1000 160/08 RMK AO2 SLP203 T01390022 TSNO
94908KDBQ DBQ20050505200010305/05/05 20:00:31  5-MIN KDBQ 060200Z AUTO 16008KT 10SM CLR 14/02 A3013 890 45 1000 160/08 RMK AO2 TSNO
94908KDBQ DBQ20050505200510305/05/05 20:05:31  5-MIN KDBQ 060205Z AUTO 16008KT 10SM CLR 14/02 A3013 890 43 1100 160/08 RMK AO2 TSNO
94908KDBQ DBQ20050505201010305/05/05 20:10:31  5-MIN KDBQ 060210Z AUTO 16008KT 10SM CLR 14/02 A3013 890 45 1000 160/08 RMK AO2 TSNO
94908KDBQ DBQ20050505201510305/05/05 20:15:31  5-MIN KDBQ 060215Z AUTO 16009KT 10SM CLR 14/02 A3013 890 45 1000 160/09 RMK AO2 TSNO
94908KDBQ DBQ20050505202010305/05/05 20:20:31  5-MIN KDBQ 060220Z AUTO 16009KT 10SM CLR 14/02 A3013 890 45 1000 160/09 RMK AO2 TSNO
94908KDBQ DBQ20050505202510305/05/05 20:25:31  5-MIN KDBQ 060225Z AUTO 16008KT 10SM CLR 14/02 A3013 890 45 1000 160/08 RMK AO2 TSNO
94908KDBQ DBQ20050505203010305/05/05 20:30:31  5-MIN KDBQ 060230Z AUTO 16009KT 10SM CLR 14/02 A3013 890 45 1000 160/09 RMK AO2 TSNO
94908KDBQ DBQ20050505203510305/05/05 20:35:31  5-MIN KDBQ 060235Z AUTO 16009KT 10SM CLR 14/02 A3013 890 45 1000 160/09 RMK AO2 TSNO
94908KDBQ DBQ20050505204010305/05/05 20:40:31  5-MIN KDBQ 060240Z AUTO 16009KT 10SM CLR 14/02 A3013 890 45 1000 160/09 RMK AO2 TSNO
94908KDBQ DBQ20050505204510305/05/05 20:45:31  5-MIN KDBQ 060245Z AUTO 16008KT 10SM CLR 14/02 A3013 890 45 1000 160/08 RMK AO2 TSNO
94908KDBQ DBQ20050505205012505/05/05 20:50:31  5-MIN KDBQ 060250Z AUTO 16008KT 10SM CLR 13/02 A3013 890 46 900 160/08 RMK AO2 SLP203 T01330022 56017 TSNO
94908KDBQ DBQ20050505205512505/05/05 20:55:31  5-MIN KDBQ 060255Z AUTO 17008KT 10SM CLR 13/02 A3013 880 46 900 160/08 RMK AO2 SLP204 T01330022 53002 TSNO
94908KDBQ DBQ20050505210010205/05/05 21:00:31  5-MIN KDBQ 060300Z AUTO 17008KT 10SM CLR 13/02 A3013 880 46 900 170/08 RMK AO2 TSNO
94908KDBQ DBQ20050505210510205/05/05 21:05:31  5-MIN KDBQ 060305Z AUTO 17008KT 10SM CLR 13/02 A3013 880 48 900 170/08 RMK AO2 TSNO
94908KDBQ DBQ20050505211010205/05/05 21:10:31  5-MIN KDBQ 060310Z AUTO 16008KT 10SM CLR 13/02 A3013 890 48 900 160/08 RMK AO2 TSNO
94908KDBQ DBQ20050505211510205/05/05 21:15:31  5-MIN KDBQ 060315Z AUTO 17009KT 10SM CLR 13/02 A3013 890 48 900 160/09 RMK AO2 TSNO
94908KDBQ DBQ20050505212010205/05/05 21:20:31  5-MIN KDBQ 060320Z AUTO 17009KT 10SM CLR 13/02 A3013 880 48 900 170/09 RMK AO2 TSNO
94908KDBQ DBQ20050505212510205/05/05 21:25:31  5-MIN KDBQ 060325Z AUTO 17008KT 10SM CLR 13/02 A3013 880 46 900 170/08 RMK AO2 TSNO
94908KDBQ DBQ20050505213010205/05/05 21:30:31  5-MIN KDBQ 060330Z AUTO 17008KT 10SM CLR 12/02 A3013 880 48 800 170/08 RMK AO2 TSNO
94908KDBQ DBQ20050505213510205/05/05 21:35:31  5-MIN KDBQ 060335Z AUTO 17008KT 10SM CLR 12/02 A3013 880 48 800 170/08 RMK AO2 TSNO
94908KDBQ DBQ20050505214010205/05/05 21:40:31  5-MIN KDBQ 060340Z AUTO 17008KT 10SM CLR 12/02 A3013 890 48 800 160/08 RMK AO2 TSNO
94908KDBQ DBQ20050505214510205/05/05 21:45:31  5-MIN KDBQ 060345Z AUTO 16008KT 10SM CLR 12/02 A3013 890 48 800 160/08 RMK AO2 TSNO
94908KDBQ DBQ20050505215011905/05/05 21:50:31  5-MIN KDBQ 060350Z AUTO 16008KT 10SM CLR 12/02 A3013 890 50 700 160/08 RMK AO2 SLP202 T01170017 TSNO
94908KDBQ DBQ20050505215511905/05/05 21:55:31  5-MIN KDBQ 060355Z AUTO 16008KT 10SM CLR 12/02 A3012 890 48 800 160/08 RMK AO2 SLP201 T01220017 TSNO
94908KDBQ DBQ20050505220010205/05/05 22:00:31  5-MIN KDBQ 060400Z AUTO 16009KT 10SM CLR 12/02 A3012 890 48 800 160/09 RMK AO2 TSNO
94908KDBQ DBQ20050505220510205/05/05 22:05:31  5-MIN KDBQ 060405Z AUTO 16009KT 10SM CLR 12/02 A3012 890 48 800 160/09 RMK AO2 TSNO
94908KDBQ DBQ20050505221010205/05/05 22:10:31  5-MIN KDBQ 060410Z AUTO 16009KT 10SM CLR 12/02 A3012 890 48 800 160/09 RMK AO2 TSNO
94908KDBQ DBQ20050505221510205/05/05 22:15:31  5-MIN KDBQ 060415Z AUTO 16010KT 10SM CLR 12/02 A3012 890 48 800 160/10 RMK AO2 TSNO
94908KDBQ DBQ20050505222010205/05/05 22:20:31  5-MIN KDBQ 060420Z AUTO 16010KT 10SM CLR 12/02 A3012 900 48 800 160/10 RMK AO2 TSNO
94908KDBQ DBQ20050505222510205/05/05 22:25:31  5-MIN KDBQ 060425Z AUTO 16010KT 10SM CLR 12/02 A3011 900 48 800 160/10 RMK AO2 TSNO
94908KDBQ DBQ20050505223010205/05/05 22:30:31  5-MIN KDBQ 060430Z AUTO 17010KT 10SM CLR 12/02 A3012 900 48 800 170/10 RMK AO2 TSNO
94908KDBQ DBQ20050505223510205/05/05 22:35:31  5-MIN KDBQ 060435Z AUTO 17010KT 10SM CLR 12/02 A3012 900 50 800 170/10 RMK AO2 TSNO
94908KDBQ DBQ20050505224010205/05/05 22:40:31  5-MIN KDBQ 060440Z AUTO 17010KT 10SM CLR 12/02 A3012 900 50 700 170/10 RMK AO2 TSNO
94908KDBQ DBQ20050505224510205/05/05 22:45:31  5-MIN KDBQ 060445Z AUTO 17009KT 10SM CLR 12/02 A3012 890 50 700 170/09 RMK AO2 TSNO
94908KDBQ DBQ20050505225011905/05/05 22:50:31  5-MIN KDBQ 060450Z AUTO 17009KT 10SM CLR 11/02 A3012 890 52 700 170/09 RMK AO2 SLP201 T01110017 TSNO
94908KDBQ DBQ20050505225511905/05/05 22:55:31  5-MIN KDBQ 060455Z AUTO 17008KT 10SM CLR 11/02 A3012 890 52 700 170/08 RMK AO2 SLP201 T01110017 TSNO
94908KDBQ DBQ20050505230010205/05/05 23:00:31  5-MIN KDBQ 060500Z AUTO 17007KT 10SM CLR 11/02 A3012 890 54 600 170/07 RMK AO2 TSNO
94908KDBQ DBQ20050505230510205/05/05 23:05:31  5-MIN KDBQ 060505Z AUTO 17006KT 10SM CLR 10/02 A3012 890 58 500 170/06 RMK AO2 TSNO
94908KDBQ DBQ20050505231010205/05/05 23:10:31  5-MIN KDBQ 060510Z AUTO 17008KT 10SM CLR 11/02 A3012 890 54 600 170/08 RMK AO2 TSNO
94908KDBQ DBQ20050505231510205/05/05 23:15:31  5-MIN KDBQ 060515Z AUTO 17009KT 10SM CLR 11/02 A3012 890 52 700 170/09 RMK AO2 TSNO
94908KDBQ DBQ20050505232010205/05/05 23:20:31  5-MIN KDBQ 060520Z AUTO 17010KT 10SM CLR 12/02 A3012 890 50 700 170/10 RMK AO2 TSNO
94908KDBQ DBQ20050505232510205/05/05 23:25:31  5-MIN KDBQ 060525Z AUTO 17009KT 10SM CLR 12/02 A3012 890 50 700 170/09 RMK AO2 TSNO
94908KDBQ DBQ20050505233010205/05/05 23:30:31  5-MIN KDBQ 060530Z AUTO 18009KT 10SM CLR 12/02 A3012 890 50 700 180/09 RMK AO2 TSNO
94908KDBQ DBQ20050505233510205/05/05 23:35:31  5-MIN KDBQ 060535Z AUTO 18009KT 10SM CLR 12/02 A3012 890 50 700 180/09 RMK AO2 TSNO
94908KDBQ DBQ20050505234010205/05/05 23:40:31  5-MIN KDBQ 060540Z AUTO 17009KT 10SM CLR 12/02 A3012 900 50 800 170/09 RMK AO2 TSNO
94908KDBQ DBQ20050505234510205/05/05 23:45:31  5-MIN KDBQ 060545Z AUTO 18010KT 10SM CLR 12/02 A3012 900 50 800 170/10 RMK AO2 TSNO
94908KDBQ DBQ20050505235015005/05/05 23:50:31  5-MIN KDBQ 060550Z AUTO 17009KT 10SM FEW070 12/02 A3012 900 50 800 170/09 RMK AO2 SLP198 T01170017 10194 20100 402110039 53002 TSNO
94908KDBQ DBQ20050505235515005/05/05 23:55:31  5-MIN KDBQ 060555Z AUTO 18010KT 10SM SCT070 12/02 A3012 900 50 800 170/10 RMK AO2 SLP197 T01170017 10194 20100 402110039 58005 TSNO
94908KDBQ DBQ20050506000010505/06/05 00:00:38  5-MIN KDBQ 060600Z AUTO 18010KT 10SM SCT070 12/02 A3011 900 48 800 180/10 RMK AO2 TSNO
94908KDBQ DBQ20050506000510505/06/05 00:05:31  5-MIN KDBQ 060605Z AUTO 18011KT 10SM BKN070 12/02 A3011 900 48 800 170/11 RMK AO2 TSNO
94908KDBQ DBQ20050506001010505/06/05 00:10:31  5-MIN KDBQ 060610Z AUTO 18011KT 10SM BKN070 12/02 A3011 910 48 800 170/11 RMK AO2 TSNO
94908KDBQ DBQ20050506001510505/06/05 00:15:31  5-MIN KDBQ 060615Z AUTO 17011KT 10SM BKN070 12/02 A3010 910 48 800 170/11 RMK AO2 TSNO
94908KDBQ DBQ20050506002010505/06/05 00:20:31  5-MIN KDBQ 060620Z AUTO 17011KT 10SM SCT070 12/02 A3010 910 48 800 170/11 RMK AO2 TSNO
94908KDBQ DBQ20050506002510505/06/05 00:25:31  5-MIN KDBQ 060625Z AUTO 18012KT 10SM SCT070 12/02 A3010 910 48 800 170/12 RMK AO2 TSNO
94908KDBQ DBQ20050506003010505/06/05 00:30:31  5-MIN KDBQ 060630Z AUTO 17011KT 10SM FEW070 12/02 A3010 910 48 800 170/11 RMK AO2 TSNO
94908KDBQ DBQ20050506003510505/06/05 00:35:31  5-MIN KDBQ 060635Z AUTO 18011KT 10SM FEW070 12/02 A3010 910 48 800 170/11 RMK AO2 TSNO
94908KDBQ DBQ20050506004010205/06/05 00:40:31  5-MIN KDBQ 060640Z AUTO 18011KT 10SM CLR 12/02 A3009 920 48 800 170/11 RMK AO2 TSNO
94908KDBQ DBQ20050506004510205/06/05 00:45:31  5-MIN KDBQ 060645Z AUTO 18010KT 10SM CLR 12/02 A3009 920 48 800 170/10 RMK AO2 TSNO
94908KDBQ DBQ20050506005011905/06/05 00:50:31  5-MIN KDBQ 060650Z AUTO 18009KT 10SM CLR 12/02 A3010 920 50 800 180/09 RMK AO2 SLP190 T01220022 TSNO
94908KDBQ DBQ20050506005511905/06/05 00:55:31  5-MIN KDBQ 060655Z AUTO 22006KT 10SM CLR 12/02 A3009 920 52 800 220/06 RMK AO2 SLP190 T01170022 TSNO
94908KDBQ DBQ20050506010010205/06/05 01:00:31  5-MIN KDBQ 060700Z AUTO 23006KT 10SM CLR 11/03 A3009 920 58 600 220/06 RMK AO2 TSNO
94908KDBQ DBQ20050506010510205/06/05 01:05:31  5-MIN KDBQ 060705Z AUTO 23007KT 10SM CLR 11/03 A3009 920 58 600 230/07 RMK AO2 TSNO
94908KDBQ DBQ20050506011010205/06/05 01:10:31  5-MIN KDBQ 060710Z AUTO 23007KT 10SM CLR 11/03 A3009 930 58 700 230/07 RMK AO2 TSNO
94908KDBQ DBQ20050506011510205/06/05 01:15:31  5-MIN KDBQ 060715Z AUTO 23008KT 10SM CLR 11/02 A3008 930 54 700 220/08 RMK AO2 TSNO
94908KDBQ DBQ20050506012010205/06/05 01:20:31  5-MIN KDBQ 060720Z AUTO 22008KT 10SM CLR 11/02 A3008 930 54 700 220/08 RMK AO2 TSNO
94908KDBQ DBQ20050506012510205/06/05 01:25:31  5-MIN KDBQ 060725Z AUTO 21010KT 10SM CLR 12/02 A3008 930 52 800 210/10 RMK AO2 TSNO
94908KDBQ DBQ20050506013010205/06/05 01:30:31  5-MIN KDBQ 060730Z AUTO 20011KT 10SM CLR 12/02 A3008 930 50 900 190/11 RMK AO2 TSNO
94908KDBQ DBQ20050506013510205/06/05 01:35:31  5-MIN KDBQ 060735Z AUTO 20009KT 10SM CLR 12/02 A3009 930 52 800 200/09 RMK AO2 TSNO
94908KDBQ DBQ20050506014010205/06/05 01:40:31  5-MIN KDBQ 060740Z AUTO 20009KT 10SM CLR 11/03 A3008 930 56 700 200/09 RMK AO2 TSNO
94908KDBQ DBQ20050506014510205/06/05 01:45:31  5-MIN KDBQ 060745Z AUTO 19009KT 10SM CLR 12/02 A3008 930 52 800 190/09 RMK AO2 TSNO
94908KDBQ DBQ20050506015011905/06/05 01:50:31  5-MIN KDBQ 060750Z AUTO 20008KT 10SM CLR 11/02 A3008 930 54 700 200/08 RMK AO2 SLP185 T01110022 TSNO
94908KDBQ DBQ20050506015511905/06/05 01:55:31  5-MIN KDBQ 060755Z AUTO 20007KT 10SM CLR 11/03 A3008 930 56 700 200/07 RMK AO2 SLP184 T01110028 TSNO
94908KDBQ DBQ20050506020010205/06/05 02:00:31  5-MIN KDBQ 060800Z AUTO 21008KT 10SM CLR 11/03 A3008 940 58 700 200/08 RMK AO2 TSNO
94908KDBQ DBQ20050506020510205/06/05 02:05:31  5-MIN KDBQ 060805Z AUTO 20008KT 10SM CLR 11/03 A3008 930 58 700 200/08 RMK AO2 TSNO
94908KDBQ DBQ20050506021010505/06/05 02:10:31  5-MIN KDBQ 060810Z AUTO 20011KT 10SM FEW065 12/03 A3007 940 54 800 200/11 RMK AO2 TSNO
94908KDBQ DBQ20050506021510505/06/05 02:15:31  5-MIN KDBQ 060815Z AUTO 21011KT 10SM SCT070 11/03 A3007 940 56 700 200/11 RMK AO2 TSNO
94908KDBQ DBQ20050506022010505/06/05 02:20:31  5-MIN KDBQ 060820Z AUTO 21009KT 10SM FEW070 12/03 A3008 940 54 800 210/09 RMK AO2 TSNO
94908KDBQ DBQ20050506022510505/06/05 02:25:31  5-MIN KDBQ 060825Z AUTO 20011KT 10SM FEW070 12/03 A3007 940 54 800 200/11 RMK AO2 TSNO
94908KDBQ DBQ20050506023010505/06/05 02:30:31  5-MIN KDBQ 060830Z AUTO 20011KT 10SM FEW070 12/03 A3007 940 54 800 200/11 RMK AO2 TSNO
94908KDBQ DBQ20050506023510505/06/05 02:35:31  5-MIN KDBQ 060835Z AUTO 20009KT 10SM FEW070 11/03 A3007 940 56 700 200/09 RMK AO2 TSNO
94908KDBQ DBQ20050506024010505/06/05 02:40:31  5-MIN KDBQ 060840Z AUTO 20009KT 10SM FEW065 11/03 A3007 940 56 700 200/09 RMK AO2 TSNO
94908KDBQ DBQ20050506024510205/06/05 02:45:31  5-MIN KDBQ 060845Z AUTO 20010KT 10SM CLR 11/03 A3007 940 58 700 200/10 RMK AO2 TSNO
94908KDBQ DBQ20050506025012805/06/05 02:50:31  5-MIN KDBQ 060850Z AUTO 20009KT 10SM FEW060 11/03 A3007 940 58 700 200/09 RMK AO2 SLP183 T01110033 58005 TSNO
94908KDBQ DBQ20050506025512805/06/05 02:55:31  5-MIN KDBQ 060855Z AUTO 20009KT 10SM SCT060 11/03 A3007 940 58 700 200/09 RMK AO2 SLP183 T01110033 56014 TSNO
94908KDBQ DBQ20050506030010505/06/05 03:00:31  5-MIN KDBQ 060900Z AUTO 19009KT 10SM BKN060 11/03 A3008 940 58 700 190/09 RMK AO2 TSNO
94908KDBQ DBQ20050506030511205/06/05 03:05:31  5-MIN KDBQ 060905Z AUTO 20008KT 10SM BKN060 BKN110 11/03 A3007 940 58 700 200/08 RMK AO2 TSNO
94908KDBQ DBQ20050506031011205/06/05 03:10:31  5-MIN KDBQ 060910Z AUTO 20009KT 10SM BKN060 BKN110 11/03 A3007 940 58 700 200/09 RMK AO2 TSNO
94908KDBQ DBQ20050506031510505/06/05 03:15:31  5-MIN KDBQ 060915Z AUTO 20008KT 10SM SCT060 11/04 A3007 940 61 700 200/08 RMK AO2 TSNO
94908KDBQ DBQ20050506032011205/06/05 03:20:31  5-MIN KDBQ 060920Z AUTO 20007KT 10SM SCT060 BKN090 11/04 A3007 940 61 700 200/07 RMK AO2 TSNO
94908KDBQ DBQ20050506032511205/06/05 03:25:31  5-MIN KDBQ 060925Z AUTO 20007KT 10SM SCT060 BKN090 11/04 A3007 940 61 700 200/07 RMK AO2 TSNO
94908KDBQ DBQ20050506033011205/06/05 03:30:31  5-MIN KDBQ 060930Z AUTO 20007KT 10SM FEW060 SCT090 11/04 A3007 940 61 700 200/07 RMK AO2 TSNO
94908KDBQ DBQ20050506033510505/06/05 03:35:31  5-MIN KDBQ 060935Z AUTO 20007KT 10SM FEW060 11/04 A3007 940 63 700 200/07 RMK AO2 TSNO
94908KDBQ DBQ20050506034010505/06/05 03:40:31  5-MIN KDBQ 060940Z AUTO 20007KT 10SM FEW090 11/04 A3007 940 63 700 200/07 RMK AO2 TSNO
94908KDBQ DBQ20050506034510505/06/05 03:45:31  5-MIN KDBQ 060945Z AUTO 20008KT 10SM FEW090 11/04 A3007 940 63 700 190/08 RMK AO2 TSNO
94908KDBQ DBQ20050506035012205/06/05 03:50:31  5-MIN KDBQ 060950Z AUTO 19009KT 10SM SCT110 11/04 A3006 950 61 700 190/09 RMK AO2 SLP180 T01110039 TSNO
94908KDBQ DBQ20050506035512205/06/05 03:55:31  5-MIN KDBQ 060955Z AUTO 19009KT 10SM FEW120 11/04 A3006 950 61 700 190/09 RMK AO2 SLP178 T01110039 TSNO
94908KDBQ DBQ20050506040010505/06/05 04:00:31  5-MIN KDBQ 061000Z AUTO 19009KT 10SM FEW120 11/04 A3006 950 63 700 190/09 RMK AO2 TSNO
94908KDBQ DBQ20050506040510505/06/05 04:05:31  5-MIN KDBQ 061005Z AUTO 20009KT 10SM FEW120 11/04 A3006 950 63 700 190/09 RMK AO2 TSNO
94908KDBQ DBQ20050506041010505/06/05 04:10:31  5-MIN KDBQ 061010Z AUTO 19009KT 10SM FEW120 11/04 A3006 950 63 800 190/09 RMK AO2 TSNO
94908KDBQ DBQ20050506041510505/06/05 04:15:31  5-MIN KDBQ 061015Z AUTO 20008KT 10SM FEW120 11/04 A3006 950 66 700 200/08 RMK AO2 TSNO
94908KDBQ DBQ20050506042010205/06/05 04:20:31  5-MIN KDBQ 061020Z AUTO 20008KT 10SM CLR 11/04 A3006 950 66 700 200/08 RMK AO2 TSNO
94908KDBQ DBQ20050506042510205/06/05 04:25:31  5-MIN KDBQ 061025Z AUTO 20008KT 10SM CLR 11/05 A3006 950 68 700 200/08 RMK AO2 TSNO
94908KDBQ DBQ20050506043010505/06/05 04:30:31  5-MIN KDBQ 061030Z AUTO 20008KT 10SM FEW100 11/05 A3006 950 68 700 200/08 RMK AO2 TSNO
94908KDBQ DBQ20050506043510505/06/05 04:35:31  5-MIN KDBQ 061035Z AUTO 19008KT 10SM FEW100 11/05 A3007 940 68 700 190/08 RMK AO2 TSNO
94908KDBQ DBQ20050506044010505/06/05 04:40:31  5-MIN KDBQ 061040Z AUTO 19008KT 10SM FEW100 11/05 A3007 940 68 700 190/08 RMK AO2 TSNO
94908KDBQ DBQ20050506044509605/06/05 04:45:31  5-MIN KDBQ 061045Z 19009KT 10SM FEW100 11/05 A3007 940  68 700 190/09 RMK AO2
94908KDBQ DBQ20050506045011305/06/05 04:50:31  5-MIN KDBQ 061050Z 19009KT 10SM FEW100 11/05 A3007 940  68 700 190/09 RMK AO2 SLP182 T01060050
94908KDBQ DBQ20050506045511305/06/05 04:55:31  5-MIN KDBQ 061055Z 19009KT 10SM FEW110 11/05 A3007 940  68 700 190/09 RMK AO2 SLP182 T01060050
94908KDBQ DBQ20050506050009605/06/05 05:00:31  5-MIN KDBQ 061100Z 19008KT 10SM FEW110 11/05 A3007 940  68 700 190/08 RMK AO2
94908KDBQ DBQ20050506050509605/06/05 05:05:31  5-MIN KDBQ 061105Z 19006KT 10SM FEW110 11/05 A3007 940  68 700 190/06 RMK AO2
94908KDBQ DBQ20050506051009605/06/05 05:10:31  5-MIN KDBQ 061110Z 19007KT 10SM FEW110 10/05 A3007 940  71 600 190/07 RMK AO2
94908KDBQ DBQ20050506051509605/06/05 05:15:31  5-MIN KDBQ 061115Z 19006KT 10SM SCT100 10/05 A3007 940  71 600 190/06 RMK AO2
94908KDBQ DBQ20050506052009605/06/05 05:20:31  5-MIN KDBQ 061120Z 19006KT 10SM BKN100 11/05 A3007 940  68 700 190/06 RMK AO2
94908KDBQ DBQ20050506052509605/06/05 05:25:31  5-MIN KDBQ 061125Z 19006KT 10SM BKN100 11/06 A3007 940  71 700 190/06 RMK AO2
94908KDBQ DBQ20050506053009605/06/05 05:30:31  5-MIN KDBQ 061130Z 19007KT 10SM BKN100 11/06 A3007 940  71 700 190/07 RMK AO2
94908KDBQ DBQ20050506053509605/06/05 05:35:31  5-MIN KDBQ 061135Z 20007KT 10SM OVC095 11/06 A3007 940  74 700 200/07 RMK AO2
94908KDBQ DBQ20050506054009605/06/05 05:40:31  5-MIN KDBQ 061140Z 20008KT 10SM OVC095 11/06 A3007 940  71 700 200/08 RMK AO2
94908KDBQ DBQ20050506054509605/06/05 05:45:31  5-MIN KDBQ 061145Z 20007KT 10SM OVC095 11/06 A3007 940  71 700 200/07 RMK AO2
94908KDBQ DBQ20050506055013105/06/05 05:50:31  5-MIN KDBQ 061150Z 20008KT 10SM OVC090 11/07 A3007 940  74 700 200/08 RMK AO2 SLP181 T01110067 10122 20100 56014
94908KDBQ DBQ20050506055513105/06/05 05:55:31  5-MIN KDBQ 061155Z 20008KT 10SM BKN090 11/07 A3007 940  77 700 200/08 RMK AO2 SLP183 T01060067 10122 20100 55001
94908KDBQ DBQ20050506060009605/06/05 06:00:31  5-MIN KDBQ 061200Z 20008KT 10SM BKN090 11/07 A3007 940  77 700 200/08 RMK AO2
94908KDBQ DBQ20050506060509605/06/05 06:05:31  5-MIN KDBQ 061205Z 20008KT 10SM BKN090 11/07 A3007 940  74 700 200/08 RMK AO2
94908KDBQ DBQ20050506061009605/06/05 06:10:31  5-MIN KDBQ 061210Z 20008KT 10SM BKN090 11/07 A3007 940  74 700 200/08 RMK AO2
94908KDBQ DBQ20050506061509605/06/05 06:15:31  5-MIN KDBQ 061215Z 20009KT 10SM BKN085 12/07 A3008 930  74 800 200/09 RMK AO2
94908KDBQ DBQ20050506062009605/06/05 06:20:31  5-MIN KDBQ 061220Z 20010KT 10SM BKN080 12/07 A3008 930  74 800 190/10 RMK AO2
94908KDBQ DBQ20050506062509605/06/05 06:25:31  5-MIN KDBQ 061225Z 20008KT 10SM BKN085 12/07 A3008 930  74 800 200/08 RMK AO2
94908KDBQ DBQ20050506063009605/06/05 06:30:31  5-MIN KDBQ 061230Z 20009KT 10SM OVC090 12/07 A3008 930  74 800 200/09 RMK AO2
94908KDBQ DBQ20050506063509605/06/05 06:35:31  5-MIN KDBQ 061235Z 20010KT 10SM BKN085 12/08 A3008 930  77 800 200/10 RMK AO2
94908KDBQ DBQ20050506064009605/06/05 06:40:31  5-MIN KDBQ 061240Z 20010KT 10SM BKN085 12/08 A3008 930  74 900 200/10 RMK AO2
94908KDBQ DBQ20050506064509605/06/05 06:45:31  5-MIN KDBQ 061245Z 20010KT 10SM SCT090 12/08 A3008 930  74 900 200/10 RMK AO2
94908KDBQ DBQ20050506065011305/06/05 06:50:31  5-MIN KDBQ 061250Z 20010KT 10SM BKN095 12/08 A3008 930  74 900 200/10 RMK AO2 SLP188 T01220078
94908KDBQ DBQ20050506065511305/06/05 06:55:31  5-MIN KDBQ 061255Z 20010KT 10SM BKN095 12/08 A3009 930  77 900 200/10 RMK AO2 SLP188 T01220083
94908KDBQ DBQ20050506070009605/06/05 07:00:31  5-MIN KDBQ 061300Z 20009KT 10SM BKN095 12/08 A3008 930  77 900 200/09 RMK AO2
94908KDBQ DBQ20050506070509705/06/05 07:05:31  5-MIN KDBQ 061305Z 21010KT 10SM BKN100 13/09 A3008 930  74 1000 210/10 RMK AO2
94908KDBQ DBQ20050506071009705/06/05 07:10:31  5-MIN KDBQ 061310Z 21010KT 10SM BKN095 13/09 A3009 930  74 1000 210/10 RMK AO2
94908KDBQ DBQ20050506071509705/06/05 07:15:31  5-MIN KDBQ 061315Z 22010KT 10SM OVC095 13/09 A3009 930  74 1000 210/10 RMK AO2
94908KDBQ DBQ20050506072009705/06/05 07:20:31  5-MIN KDBQ 061320Z 22010KT 10SM OVC095 14/09 A3009 930  74 1000 220/10 RMK AO2
94908KDBQ DBQ20050506072509705/06/05 07:25:31  5-MIN KDBQ 061325Z 22010KT 10SM OVC095 14/09 A3009 930  74 1100 220/10 RMK AO2
94908KDBQ DBQ20050506073009705/06/05 07:30:31  5-MIN KDBQ 061330Z 22012KT 10SM OVC095 14/10 A3009 930  74 1100 220/12 RMK AO2
94908KDBQ DBQ20050506073509705/06/05 07:35:31  5-MIN KDBQ 061335Z 22011KT 10SM OVC095 15/10 A3009 930  72 1200 220/11 RMK AO2
94908KDBQ DBQ20050506074009705/06/05 07:40:31  5-MIN KDBQ 061340Z 23014KT 10SM OVC095 15/10 A3008 930  72 1200 230/14 RMK AO2
94908KDBQ DBQ20050506074509505/06/05 07:45:31  5-MIN KDBQ 061345Z 23011KT 9SM OVC095 14/10 A3009 930 74 1100 230/11 RMK AO2
94908KDBQ DBQ20050506075011205/06/05 07:50:31  5-MIN KDBQ 061350Z 23011KT 9SM OVC095 15/10 A3009 930 72 1200 230/11 RMK AO2 SLP188 T01500100
94908KDBQ DBQ20050506075511205/06/05 07:55:31  5-MIN KDBQ 061355Z 23011KT 9SM OVC090 15/11 A3008 930 74 1200 230/11 RMK AO2 SLP187 T01500106
94908KDBQ DBQ20050506080009505/06/05 08:00:31  5-MIN KDBQ 061400Z 23013KT 9SM BKN095 16/11 A3008 930 72 1200 230/13 RMK AO2
94908KDBQ DBQ20050506080509505/06/05 08:05:31  5-MIN KDBQ 061405Z 24015KT 9SM SCT090 16/11 A3008 930 72 1300 240/15 RMK AO2
94908KDBQ DBQ20050506081009505/06/05 08:10:31  5-MIN KDBQ 061410Z 25015KT 9SM SCT090 17/11 A3008 930 69 1400 250/15 RMK AO2
94908KDBQ DBQ20050506081510105/06/05 08:15:31  5-MIN KDBQ 061415Z 24015G20KT 9SM FEW090 17/11 A3008 930 69 1400 240/15G20 RMK AO2
94908KDBQ DBQ20050506082010105/06/05 08:20:31  5-MIN KDBQ 061420Z 23013G20KT 9SM FEW090 17/11 A3008 930 67 1500 230/13G20 RMK AO2
94908KDBQ DBQ20050506082509505/06/05 08:25:31  5-MIN KDBQ 061425Z 24015KT 9SM FEW039 17/12 A3007 940 69 1500 240/15 RMK AO2
94908KDBQ DBQ20050506083009505/06/05 08:30:31  5-MIN KDBQ 061430Z 24015KT 8SM SCT039 17/12 A3008 940 69 1500 240/15 RMK AO2
94908KDBQ DBQ20050506083509505/06/05 08:35:31  5-MIN KDBQ 061435Z 24017KT 8SM BKN039 17/12 A3007 940 69 1500 240/17 RMK AO2
94908KDBQ DBQ20050506084009505/06/05 08:40:31  5-MIN KDBQ 061440Z 24017KT 8SM BKN039 17/12 A3007 940 69 1500 240/17 RMK AO2
94908KDBQ DBQ20050506084509505/06/05 08:45:31  5-MIN KDBQ 061445Z 24017KT 8SM BKN039 18/12 A3008 940 67 1500 230/17 RMK AO2
94908KDBQ DBQ20050506085011805/06/05 08:50:31  5-MIN KDBQ 061450Z 24019KT 8SM BKN039 18/12 A3008 940 67 1500 240/19 RMK AO2 SLP184 T01780117 55001
94908KDBQ DBQ20050506085511805/06/05 08:55:31  5-MIN KDBQ 061455Z 24015KT 8SM SCT039 18/12 A3008 940 65 1600 240/15 RMK AO2 SLP184 T01830117 50002
94908KDBQ DBQ20050506090009505/06/05 09:00:31  5-MIN KDBQ 061500Z 25017KT 8SM FEW039 18/12 A3007 940 65 1600 250/17 RMK AO2
94908KDBQ DBQ20050506090510105/06/05 09:05:31  5-MIN KDBQ 061505Z 24016G20KT 9SM FEW039 18/12 A3008 930 65 1600 240/16G20 RMK AO2
94908KDBQ DBQ20050506091009805/06/05 09:10:31  5-MIN KDBQ 061510Z 24016G20KT 9SM CLR 19/12 A3008 940 65 1600 240/16G20 RMK AO2
94908KDBQ DBQ20050506091509805/06/05 09:15:31  5-MIN KDBQ 061515Z 25017G22KT 9SM CLR 19/12 A3007 940 62 1600 240/17G22 RMK AO2
94908KDBQ DBQ20050506092009505/06/05 09:20:31  5-MIN KDBQ 061520Z 26016KT 9SM FEW026 19/12 A3007 940 65 1600 250/16 RMK AO2
94908KDBQ DBQ20050506092509505/06/05 09:25:31  5-MIN KDBQ 061525Z 24013KT 9SM FEW028 19/12 A3007 940 62 1600 240/13 RMK AO2
94908KDBQ DBQ20050506093010105/06/05 09:30:31  5-MIN KDBQ 061530Z 24016G21KT 9SM SCT028 19/12 A3007 940 62 1700 240/16G21 RMK AO2
94908KDBQ DBQ20050506093510905/06/05 09:35:31  5-MIN KDBQ 061535Z 24013G21KT 8SM SCT028 BKN037 18/12  A3007 940 65 1600 240/13G21 RMK AO2
94908KDBQ DBQ20050506094010205/06/05 09:40:31  5-MIN KDBQ 061540Z 24015KT 9SM SCT030 BKN040 19/12 A3007 940 62 1600 240/15 RMK AO2
94908KDBQ DBQ20050506094510205/06/05 09:45:31  5-MIN KDBQ 061545Z 25015KT 9SM SCT030 BKN038 19/12 A3008 930 62 1600 250/15 RMK AO2
94908KDBQ DBQ20050506095011905/06/05 09:50:31  5-MIN KDBQ 061550Z 24016KT 9SM SCT030 BKN038 19/12 A3008 930 62 1600 230/16 RMK AO2 SLP184 T01890117
94908KDBQ DBQ20050506095511905/06/05 09:55:31  5-MIN KDBQ 061555Z 26014KT 9SM FEW028 BKN038 19/12 A3008 930 62 1600 260/14 RMK AO2 SLP185 T01890117
94908KDBQ DBQ20050506100009505/06/05 10:00:31  5-MIN KDBQ 061600Z 25014KT 9SM BKN038 19/11 A3008 930 60 1600 240/14 RMK AO2
94908KDBQ DBQ20050506100509505/06/05 10:05:31  5-MIN KDBQ 061605Z 25014KT 9SM OVC040 19/11 A3008 930 60 1600 250/14 RMK AO2
94908KDBQ DBQ20050506101010105/06/05 10:10:31  5-MIN KDBQ 061610Z 25015G20KT 9SM OVC038 19/12 A3008 930 62 1600 250/15G20 RMK AO2
94908KDBQ DBQ20050506101510105/06/05 10:15:31  5-MIN KDBQ 061615Z 24013G20KT 9SM OVC038 19/11 A3008 930 60 1600 240/13G20 RMK AO2
94908KDBQ DBQ20050506102009505/06/05 10:20:31  5-MIN KDBQ 061620Z 25013KT 9SM OVC038 19/12 A3008 930 62 1600 250/13 RMK AO2
94908KDBQ DBQ20050506102509505/06/05 10:25:31  5-MIN KDBQ 061625Z 23016KT 9SM OVC038 19/11 A3008 930 60 1600 230/16 RMK AO2
94908KDBQ DBQ20050506103009705/06/05 10:30:31  5-MIN KDBQ 061630Z 23014KT 10SM OVC038 19/11 A3008 930  60 1600 230/14 RMK AO2
94908KDBQ DBQ20050506103510405/06/05 10:35:31  5-MIN KDBQ 061635Z 26012KT 10SM BKN038 OVC044 19/11  A3008 930 58 1700 260/12 RMK AO2
94908KDBQ DBQ20050506104009705/06/05 10:40:31  5-MIN KDBQ 061640Z 24013KT 10SM OVC038 19/11 A3008 940  58 1700 240/13 RMK AO2
94908KDBQ DBQ20050506104510405/06/05 10:45:31  5-MIN KDBQ 061645Z 24012KT 10SM BKN036 OVC044 19/12  A3007 940 60 1700 230/12 RMK AO2
94908KDBQ DBQ20050506105012105/06/05 10:50:31  5-MIN KDBQ 061650Z 26013KT 10SM BKN036 OVC046 21/12  A3007 940 56 1800 260/13 RMK AO2 SLP183 T02060117
94908KDBQ DBQ20050506105512105/06/05 10:55:31  5-MIN KDBQ 061655Z 23013KT 10SM BKN038 OVC046 20/12  A3007 940 58 1800 230/13 RMK AO2 SLP181 T02000117
94908KDBQ DBQ20050506110010405/06/05 11:00:31  5-MIN KDBQ 061700Z 25014KT 10SM SCT036 OVC048 20/12  A3007 940 60 1800 250/14 RMK AO2
94908KDBQ DBQ20050506110511005/06/05 11:05:31  5-MIN KDBQ 061705Z 23015G18KT 10SM BKN036 OVC048 20/12  A3007 940 58 1800 230/15G18 RMK AO2
94908KDBQ DBQ20050506111011005/06/05 11:10:31  5-MIN KDBQ 061710Z 24013G22KT 10SM BKN036 OVC048 19/12  A3007 940 60 1700 240/13G22 RMK AO2
94908KDBQ DBQ20050506111511005/06/05 11:15:31  5-MIN KDBQ 061715Z 23014G22KT 10SM SCT036 BKN048 21/12  A3006 950 58 1900 230/14G22 RMK AO2
94908KDBQ DBQ20050506112010405/06/05 11:20:31  5-MIN KDBQ 061720Z 25015KT 10SM FEW038 OVC048 21/12  A3006 950 56 1900 250/15 RMK AO2
94908KDBQ DBQ20050506112510405/06/05 11:25:31  5-MIN KDBQ 061725Z 25014KT 10SM FEW038 OVC048 21/11  A3006 950 54 1900 250/14 RMK AO2
94908KDBQ DBQ20050506113010405/06/05 11:30:31  5-MIN KDBQ 061730Z 24011KT 10SM FEW037 BKN048 21/12  A3006 950 56 1900 240/11 RMK AO2
94908KDBQ DBQ20050506113510305/06/05 11:35:31  5-MIN KDBQ 061735Z 25014G19KT 10SM BKN046 21/12 A3006  950 56 1900 250/14G19 RMK AO2
94908KDBQ DBQ20050506114010305/06/05 11:40:31  5-MIN KDBQ 061740Z 23010G19KT 10SM BKN046 21/12 A3006  950 54 1900 230/10G19 RMK AO2
94908KDBQ DBQ20050506114510305/06/05 11:45:31  5-MIN KDBQ 061745Z 24013G19KT 10SM BKN044 21/12 A3005  960 54 1900 230/13G19 RMK AO2
94908KDBQ DBQ20050506115013805/06/05 11:50:31  5-MIN KDBQ 061750Z 22011G19KT 10SM SCT044 22/12 A3005  960 52 2000 220/11G19 RMK AO2 SLP174 T02170117 10217 20106 50002
94908KDBQ DBQ20050506115513805/06/05 11:55:31  5-MIN KDBQ 061755Z 24013G18KT 10SM FEW044 22/12 A3005  960 52 2000 230/13G18 RMK AO2 SLP174 T02170117 10217 20106 58008
94908KDBQ DBQ20050506120009705/06/05 12:00:31  5-MIN KDBQ 061800Z 26014KT 10SM FEW044 21/11 A3005 960  52 1900 260/14 RMK AO2
94908KDBQ DBQ20050506120509705/06/05 12:05:31  5-MIN KDBQ 061805Z 25013KT 10SM FEW044 22/11 A3005 960  49 2000 250/13 RMK AO2
94908KDBQ DBQ20050506121009705/06/05 12:10:31  5-MIN KDBQ 061810Z 24014KT 10SM FEW047 22/12 A3005 960  51 2100 240/14 RMK AO2
94908KDBQ DBQ20050506121509705/06/05 12:15:31  5-MIN KDBQ 061815Z 23012KT 10SM SCT047 22/11 A3005 960  50 2000 230/12 RMK AO2
94908KDBQ DBQ20050506122009705/06/05 12:20:31  5-MIN KDBQ 061820Z 23013KT 10SM BKN047 21/11 A3004 960  52 1900 230/13 RMK AO2
94908KDBQ DBQ20050506122509705/06/05 12:25:31  5-MIN KDBQ 061825Z 26012KT 10SM BKN049 21/11 A3004 960  52 1900 260/12 RMK AO2
94908KDBQ DBQ20050506123009705/06/05 12:30:31  5-MIN KDBQ 061830Z 22013KT 10SM BKN049 21/11 A3004 960  52 1900 220/13 RMK AO2
94908KDBQ DBQ20050506123509705/06/05 12:35:31  5-MIN KDBQ 061835Z 22011KT 10SM BKN049 21/11 A3004 970  52 1900 220/11 RMK AO2
94908KDBQ DBQ20050506124009705/06/05 12:40:31  5-MIN KDBQ 061840Z 25013KT 10SM BKN049 22/11 A3004 970  50 2000 250/13 RMK AO2
94908KDBQ DBQ20050506124509705/06/05 12:45:31  5-MIN KDBQ 061845Z 25010KT 10SM BKN049 21/11 A3004 970  52 1900 250/10 RMK AO2
94908KDBQ DBQ20050506125011405/06/05 12:50:31  5-MIN KDBQ 061850Z 24009KT 10SM BKN049 21/11 A3004 970  52 1900 240/09 RMK AO2 SLP170 T02110111
94908KDBQ DBQ20050506125511405/06/05 12:55:31  5-MIN KDBQ 061855Z 24012KT 10SM BKN049 21/11 A3004 970  52 1900 240/12 RMK AO2 SLP170 T02110111
94908KDBQ DBQ20050506130009705/06/05 13:00:31  5-MIN KDBQ 061900Z 22011KT 10SM BKN049 21/11 A3004 970  52 1900 220/11 RMK AO2
94908KDBQ DBQ20050506130509705/06/05 13:05:31  5-MIN KDBQ 061905Z 25009KT 10SM BKN049 21/11 A3003 970  52 1900 250/09 RMK AO2
94908KDBQ DBQ20050506131009705/06/05 13:10:31  5-MIN KDBQ 061910Z 25011KT 10SM OVC049 21/11 A3003 970  52 1900 250/11 RMK AO2
94908KDBQ DBQ20050506131510305/06/05 13:15:31  5-MIN KDBQ 061915Z 23013G18KT 10SM BKN049 21/11 A3003  970 52 1900 230/13G18 RMK AO2
94908KDBQ DBQ20050506132010305/06/05 13:20:31  5-MIN KDBQ 061920Z 21009G18KT 10SM OVC049 22/12 A3003  970 52 2000 210/09G18 RMK AO2
94908KDBQ DBQ20050506132510405/06/05 13:25:31  5-MIN KDBQ 061925Z 21012KT 10SM BKN049 OVC060 22/12  A3003 980 52 2000 210/12 RMK AO2
94908KDBQ DBQ20050506133010405/06/05 13:30:31  5-MIN KDBQ 061930Z 20010KT 10SM BKN049 BKN060 22/11  A3003 980 50 2000 200/10 RMK AO2
94908KDBQ DBQ20050506133510405/06/05 13:35:31  5-MIN KDBQ 061935Z 21011KT 10SM BKN047 BKN060 22/11  A3003 980 50 2000 210/11 RMK AO2
94908KDBQ DBQ20050506134010405/06/05 13:40:31  5-MIN KDBQ 061940Z 23011KT 10SM BKN047 BKN060 22/12  A3003 980 51 2100 230/11 RMK AO2
94908KDBQ DBQ20050506134510405/06/05 13:45:31  5-MIN KDBQ 061945Z 22013KT 10SM BKN049 BKN060 22/12  A3002 980 51 2100 220/13 RMK AO2
94908KDBQ DBQ20050506135012105/06/05 13:50:31  5-MIN KDBQ 061950Z 25013KT 10SM SCT047 SCT060 23/12  A3002 990 49 2200 250/13 RMK AO2 SLP163 T02280117
94908KDBQ DBQ20050506135512105/06/05 13:55:31  5-MIN KDBQ 061955Z 22012KT 10SM FEW047 SCT055 23/12  A3002 990 51 2200 220/12 RMK AO2 SLP163 T02280122
94908KDBQ DBQ20050506140010305/06/05 14:00:31  5-MIN KDBQ 062000Z 23011G18KT 10SM FEW047 23/12 A3002  990 51 2200 230/11G18 RMK AO2
94908KDBQ DBQ20050506140510305/06/05 14:05:31  5-MIN KDBQ 062005Z 23009G18KT 10SM FEW047 23/12 A3001  990 51 2200 230/09G18 RMK AO2
94908KDBQ DBQ20050506141010005/06/05 14:10:31  5-MIN KDBQ 062010Z 23011G17KT 10SM CLR 23/12 A3001 990  47 2200 230/11G17 RMK AO2
94908KDBQ DBQ20050506141510005/06/05 14:15:31  5-MIN KDBQ 062015Z 23008G17KT 10SM CLR 23/12 A3001 990  49 2200 230/08G17 RMK AO2
94908KDBQ DBQ20050506142009405/06/05 14:20:31  5-MIN KDBQ 062020Z 23012KT 10SM CLR 23/12 A3001 990 51  2200 230/12 RMK AO2
94908KDBQ DBQ20050506142510305/06/05 14:25:31  5-MIN KDBQ 062025Z 24008G16KT 10SM FEW080 22/12 A3001  990 51 2100 240/08G16 RMK AO2
94908KDBQ DBQ20050506143011105/06/05 14:30:31  5-MIN KDBQ 062030Z 25012G16KT 10SM FEW065 SCT080 23/11  A3000 1000 47 2200 250/12G16 RMK AO2
94908KDBQ DBQ20050506143509705/06/05 14:35:31  5-MIN KDBQ 062035Z 23009KT 10SM FEW065 23/12 A3001 1000 49 2200 230/09 RMK AO2
94908KDBQ DBQ20050506144009705/06/05 14:40:31  5-MIN KDBQ 062040Z 25011KT 10SM FEW060 23/12 A3001 1000 49 2200 250/11 RMK AO2
94908KDBQ DBQ20050506144510405/06/05 14:45:31  5-MIN KDBQ 062045Z 23011G17KT 10SM SCT060 22/12 A3001  1000 51 2100 230/11G17 RMK AO2
94908KDBQ DBQ20050506145012805/06/05 14:50:31  5-MIN KDBQ 062050Z 22011KT 10SM FEW050 BKN060 23/12  A3001 1000 49 2200 220/11 RMK AO2 SLP159 T02280117 58008
94908KDBQ DBQ20050506145512805/06/05 14:55:31  5-MIN KDBQ 062055Z 24010KT 10SM FEW050 SCT060 23/12  A3000 1000 47 2200 240/10 RMK AO2 SLP158 T02330117 58015
94908KDBQ DBQ20050506150009705/06/05 15:00:31  5-MIN KDBQ 062100Z 23011KT 10SM FEW050 23/12 A3000 1000 49 2200 230/11 RMK AO2
94908KDBQ DBQ20050506150509705/06/05 15:05:31  5-MIN KDBQ 062105Z 23009KT 10SM FEW050 23/12 A3000 1000 49 2200 220/09 RMK AO2
94908KDBQ DBQ20050506151010505/06/05 15:10:31  5-MIN KDBQ 062110Z 24012KT 10SM FEW050 SCT090 22/12  A2999 1010 51 2100 240/12 RMK AO2
94908KDBQ DBQ20050506151509705/06/05 15:15:31  5-MIN KDBQ 062115Z 24014KT 10SM FEW095 23/12 A2999 1010 49 2200 240/14 RMK AO2
94908KDBQ DBQ20050506152009705/06/05 15:20:31  5-MIN KDBQ 062120Z 24012KT 10SM FEW095 23/11 A2999 1010 47 2200 240/12 RMK AO2
94908KDBQ DBQ20050506152510505/06/05 15:25:31  5-MIN KDBQ 062125Z 20009KT 10SM FEW060 SCT090 23/12  A2999 1010 47 2200 200/09 RMK AO2
94908KDBQ DBQ20050506153012005/06/05 15:30:31  5-MIN KDBQ 062130Z 22011KT 9SM -RA FEW037 SCT090 23/12  A2999 1010 51 2200 220/11 RMK AO2 RAB30 P0000
94908KDBQ DBQ20050506153512605/06/05 15:35:31  5-MIN KDBQ 062135Z 23010KT 9SM -RA FEW037 SCT070 BKN090 22/12 A2999 1010 52 2100 220/10 RMK AO2 RAB30 P0000
94908KDBQ DBQ20050506154012705/06/05 15:40:31  5-MIN KDBQ 062140Z 24010KT 10SM FEW035 SCT070 BKN090  22/11 A2999 1010 49 2100 240/10 RMK AO2 RAB30E40 P0000
94908KDBQ DBQ20050506154512705/06/05 15:45:31  5-MIN KDBQ 062145Z 24012KT 10SM FEW028 SCT060 BKN070  22/12 A2999 1020 51 2100 240/12 RMK AO2 RAB30E40 P0000
94908KDBQ DBQ20050507020510705/07/05 02:05:31  5-MIN KDBQ 070805Z AUTO 00000KT 9SM OVC080 12/10 A3000  1010 86 1000 000/00 RMK AO2 TSNO
94908KDBQ DBQ20050507021010705/07/05 02:10:31  5-MIN KDBQ 070810Z AUTO 00000KT 8SM BKN080 12/10 A3000  1010 86 1000 000/00 RMK AO2 TSNO
94908KDBQ DBQ20050507021510705/07/05 02:15:31  5-MIN KDBQ 070815Z AUTO 00000KT 8SM BKN080 12/10 A3000  1010 86 1000 000/00 RMK AO2 TSNO
94908KDBQ DBQ20050507022010705/07/05 02:20:31  5-MIN KDBQ 070820Z AUTO 00000KT 8SM SCT080 13/10 A3000  1000 83 1000 000/00 RMK AO2 TSNO
94908KDBQ DBQ20050507022510605/07/05 02:25:31  5-MIN KDBQ 070825Z AUTO 00000KT 8SM FEW080 12/10 A3000  1000 86 900 000/00 RMK AO2 TSNO
94908KDBQ DBQ20050507023010605/07/05 02:30:31  5-MIN KDBQ 070830Z AUTO 00000KT 8SM SCT080 12/10 A3000  1000 89 900 000/00 RMK AO2 TSNO
94908KDBQ DBQ20050507023510605/07/05 02:35:31  5-MIN KDBQ 070835Z AUTO 00000KT 8SM SCT080 12/10 A3000  1000 89 900 000/00 RMK AO2 TSNO
94908KDBQ DBQ20050507024010605/07/05 02:40:31  5-MIN KDBQ 070840Z AUTO 00000KT 8SM BKN080 12/10 A3000  1000 89 900 000/00 RMK AO2 TSNO
94908KDBQ DBQ20050507024510605/07/05 02:45:31  5-MIN KDBQ 070845Z AUTO 00000KT 8SM SCT080 12/10 A3000  1000 89 900 000/00 RMK AO2 TSNO
94908KDBQ DBQ20050507025012905/07/05 02:50:31  5-MIN KDBQ 070850Z AUTO 00000KT 8SM SCT080 12/09 A3000  1000 86 900 000/00 RMK AO2 SLP158 T01170094 51004 TSNO
94908KDBQ DBQ20050507025512905/07/05 02:55:31  5-MIN KDBQ 070855Z AUTO 00000KT 8SM SCT080 12/09 A3000  1000 86 900 000/00 RMK AO2 SLP157 T01170094 53001 TSNO
94908KDBQ DBQ20050507030010605/07/05 03:00:31  5-MIN KDBQ 070900Z AUTO 00000KT 8SM SCT080 12/10 A3000  1000 89 900 000/00 RMK AO2 TSNO
94908KDBQ DBQ20050507030510605/07/05 03:05:31  5-MIN KDBQ 070905Z AUTO 00000KT 8SM FEW080 12/10 A3000  1000 89 900 000/00 RMK AO2 TSNO
94908KDBQ DBQ20050507031010605/07/05 03:10:31  5-MIN KDBQ 070910Z AUTO 00000KT 8SM FEW080 11/10 A3000  1000 93 800 000/00 RMK AO2 TSNO
94908KDBQ DBQ20050507031510605/07/05 03:15:31  5-MIN KDBQ 070915Z AUTO 00000KT 8SM FEW080 12/10 A3000  1000 89 900 000/00 RMK AO2 TSNO
94908KDBQ DBQ20050507032010605/07/05 03:20:31  5-MIN KDBQ 070920Z AUTO 00000KT 8SM FEW080 12/10 A3000  1000 89 900 000/00 RMK AO2 TSNO
94908KDBQ DBQ20050507032510205/07/05 03:25:31  5-MIN KDBQ 070925Z AUTO 07003KT 9SM CLR 12/10 A3000 1000 86 900 060/03 RMK AO2 TSNO
94908KDBQ DBQ20050507033010305/07/05 03:30:31  5-MIN KDBQ 070930Z AUTO 07003KT 9SM CLR 13/11 A3000 1010 86 1000 070/03 RMK AO2 TSNO
94908KDBQ DBQ20050507033510305/07/05 03:35:31  5-MIN KDBQ 070935Z AUTO 00000KT 9SM CLR 13/11 A3000 1010 86 1000 000/00 RMK AO2 TSNO
94908KDBQ DBQ20050507034010305/07/05 03:40:31  5-MIN KDBQ 070940Z AUTO 00000KT 8SM CLR 12/11 A3000 1010 89 1000 000/00 RMK AO2 TSNO
94908KDBQ DBQ20050507034510305/07/05 03:45:31  5-MIN KDBQ 070945Z AUTO 00000KT 8SM CLR 12/11 A3000 1010 89 1000 000/00 RMK AO2 TSNO
94908KDBQ DBQ20050507035011905/07/05 03:50:31  5-MIN KDBQ 070950Z AUTO 00000KT 8SM CLR 12/11 A3000 1010 93 900 000/00 RMK AO2 SLP156 T01170106 TSNO
94908KDBQ DBQ20050507035512005/07/05 03:55:31  5-MIN KDBQ 070955Z AUTO 00000KT 8SM CLR 12/11 A3000 1010 89 1000 000/00 RMK AO2 SLP156 T01220106 TSNO
94908KDBQ DBQ20050507040010305/07/05 04:00:31  5-MIN KDBQ 071000Z AUTO 00000KT 7SM CLR 12/11 A2999 1010 89 1000 000/00 RMK AO2 TSNO
94908KDBQ DBQ20050507040510305/07/05 04:05:31  5-MIN KDBQ 071005Z AUTO 00000KT 7SM CLR 12/11 A3000 1010 89 1000 000/00 RMK AO2 TSNO
94908KDBQ DBQ20050507041010205/07/05 04:10:31  5-MIN KDBQ 071010Z AUTO 00000KT 7SM CLR 12/10 A3000 1010 89 900 000/00 RMK AO2 TSNO
94908KDBQ DBQ20050507041510305/07/05 04:15:31  5-MIN KDBQ 071015Z AUTO 04006KT 8SM CLR 12/11 A3000 1010 89 1000 040/06 RMK AO2 TSNO
94908KDBQ DBQ20050507042010305/07/05 04:20:31  5-MIN KDBQ 071020Z AUTO 04006KT 8SM CLR 13/11 A3000 1010 86 1000 040/06 RMK AO2 TSNO
94908KDBQ DBQ20050507042510305/07/05 04:25:31  5-MIN KDBQ 071025Z AUTO 05005KT 7SM CLR 13/11 A3000 1000 89 1000 040/05 RMK AO2 TSNO
94908KDBQ DBQ20050507043010305/07/05 04:30:31  5-MIN KDBQ 071030Z AUTO 04006KT 7SM CLR 13/11 A3000 1000 89 1000 040/06 RMK AO2 TSNO
94908KDBQ DBQ20050507043510305/07/05 04:35:31  5-MIN KDBQ 071035Z AUTO 03005KT 8SM CLR 13/11 A3000 1000 86 1100 030/05 RMK AO2 TSNO
94908KDBQ DBQ20050507044010305/07/05 04:40:31  5-MIN KDBQ 071040Z AUTO 06003KT 7SM CLR 13/11 A3000 1000 86 1100 060/03 RMK AO2 TSNO
94908KDBQ DBQ20050507044509405/07/05 04:45:31  5-MIN KDBQ 071045Z VRB04KT 7SM CLR 13/11 A3000 1000 86  1100 VRB/04 RMK AO2
94908KDBQ DBQ20050507045011105/07/05 04:50:31  5-MIN KDBQ 071050Z 03006KT 7SM CLR 14/11 A3001 1000 83  1100 030/06 RMK AO2 SLP161 T01390111
94908KDBQ DBQ20050507045511705/07/05 04:55:31  5-MIN KDBQ 071055Z 02009KT 6SM BR FEW055 13/11 A3001  1000 86 1000 020/09 RMK AO2 SLP162 T01280106
94908KDBQ DBQ20050507050010005/07/05 05:00:31  5-MIN KDBQ 071100Z 03008KT 5SM BR FEW050 13/11 A3001  1000 86 1000 030/08 RMK AO2
94908KDBQ DBQ20050507050509705/07/05 05:05:31  5-MIN KDBQ 071105Z 04005KT 5SM BR SCT050 12/11 A3001 990 89 900 040/05 RMK AO2
94908KDBQ DBQ20050507051010505/07/05 05:10:31  5-MIN KDBQ 071110Z 05005KT 5SM BR SCT050 SCT055 12/11  A3001 990 93 900 050/05 RMK AO2
94908KDBQ DBQ20050507051510505/07/05 05:15:31  5-MIN KDBQ 071115Z 05005KT 5SM BR SCT050 SCT090 12/11  A3001 990 89 900 050/05 RMK AO2
94908KDBQ DBQ20050507052011205/07/05 05:20:31  5-MIN KDBQ 071120Z 04006KT 5SM BR SCT050 SCT060 BKN090  12/11 A3002 990 93 900 040/06 RMK AO2
94908KDBQ DBQ20050507052511205/07/05 05:25:31  5-MIN KDBQ 071125Z 04005KT 5SM BR BKN050 BKN070 BKN090  12/11 A3001 990 89 900 040/05 RMK AO2
94908KDBQ DBQ20050507053011205/07/05 05:30:31  5-MIN KDBQ 071130Z 05005KT 5SM BR BKN050 BKN070 BKN090  12/11 A3002 990 89 900 050/05 RMK AO2
94908KDBQ DBQ20050507053511205/07/05 05:35:31  5-MIN KDBQ 071135Z 05005KT 5SM BR BKN050 BKN075 BKN090  12/11 A3002 990 89 900 050/05 RMK AO2
94908KDBQ DBQ20050507054011205/07/05 05:40:31  5-MIN KDBQ 071140Z 02005KT 5SM BR SCT050 SCT075 BKN090  12/11 A3002 990 89 900 020/05 RMK AO2
94908KDBQ DBQ20050507054510505/07/05 05:45:31  5-MIN KDBQ 071145Z 00000KT 5SM BR BKN055 BKN075 12/11  A3002 990 89 900 000/00 RMK AO2
94908KDBQ DBQ20050507055013805/07/05 05:50:31  5-MIN KDBQ 071150Z 04004KT 5SM BR BKN055 12/11 A3002 990 89 900 040/04 RMK AO2 SLP167 70018 T01220106 10139 20111 53001
94908KDBQ DBQ20050507055514605/07/05 05:55:31  5-MIN KDBQ 071155Z 04004KT 5SM BR BKN055 BKN070 12/11  A3002 990 89 900 040/04 RMK AO2 SLP167 70018 T01220106 10139 20111 53005
94908KDBQ DBQ20050507060010505/07/05 06:00:31  5-MIN KDBQ 071200Z 03004KT 5SM BR BKN060 BKN080 12/11  A3002 980 89 900 030/04 RMK AO2
94908KDBQ DBQ20050507060509705/07/05 06:05:31  5-MIN KDBQ 071205Z 03006KT 5SM BR SCT055 12/11 A3002 980 89 900 030/06 RMK AO2
94908KDBQ DBQ20050507061009705/07/05 06:10:31  5-MIN KDBQ 071210Z 03005KT 5SM BR SCT055 12/11 A3003 980 89 900 030/05 RMK AO2
94908KDBQ DBQ20050507061509705/07/05 06:15:31  5-MIN KDBQ 071215Z 03005KT 5SM BR SCT055 12/11 A3003 980 89 900 030/05 RMK AO2
94908KDBQ DBQ20050507062009705/07/05 06:20:31  5-MIN KDBQ 071220Z 00000KT 5SM BR FEW055 12/11 A3003 980 89 900 000/00 RMK AO2
94908KDBQ DBQ20050507062509705/07/05 06:25:31  5-MIN KDBQ 071225Z 04003KT 5SM BR FEW050 12/11 A3003 970 93 900 030/03 RMK AO2
94908KDBQ DBQ20050507063009705/07/05 06:30:31  5-MIN KDBQ 071230Z 04003KT 5SM BR FEW050 12/11 A3003 970 93 900 040/03 RMK AO2
94908KDBQ DBQ20050507063509805/07/05 06:35:31  5-MIN KDBQ 071235Z 00000KT 5SM BR FEW050 13/11 A3003 970 89 1000 000/00 RMK AO2
94908KDBQ DBQ20050507064010605/07/05 06:40:31  5-MIN KDBQ 071240Z 00000KT 5SM BR FEW050 SCT070 13/11  A3004 970 89 1000 000/00 RMK AO2
94908KDBQ DBQ20050507064511305/07/05 06:45:31  5-MIN KDBQ 071245Z 00000KT 5SM BR FEW050 SCT070 SCT090  13/11 A3004 970 89 1000 000/00 RMK AO2
94908KDBQ DBQ20050507065012305/07/05 06:50:31  5-MIN KDBQ 071250Z 00000KT 5SM BR FEW050 SCT090 13/11  A3004 970 89 1000 000/00 RMK AO2 SLP174 T01280111
94908KDBQ DBQ20050507065512305/07/05 06:55:31  5-MIN KDBQ 071255Z 00000KT 5SM BR FEW055 SCT090 13/11  A3004 970 89 1000 000/00 RMK AO2 SLP175 T01280111
94908KDBQ DBQ20050507070011305/07/05 07:00:31  5-MIN KDBQ 071300Z 00000KT 5SM BR FEW055 SCT070 BKN090  13/11 A3004 970 89 1000 000/00 RMK AO2
94908KDBQ DBQ20050507070511305/07/05 07:05:31  5-MIN KDBQ 071305Z 05005KT 5SM BR SCT055 BKN070 BKN090  13/11 A3004 970 89 1000 040/05 RMK AO2
94908KDBQ DBQ20050507071011305/07/05 07:10:31  5-MIN KDBQ 071310Z 05005KT 5SM BR FEW048 SCT060 BKN090  13/11 A3004 970 89 1000 050/05 RMK AO2
94908KDBQ DBQ20050507071510605/07/05 07:15:31  5-MIN KDBQ 071315Z 03006KT 5SM BR FEW048 SCT060 13/11  A3004 970 89 1000 030/06 RMK AO2
94908KDBQ DBQ20050507072010605/07/05 07:20:31  5-MIN KDBQ 071320Z 02004KT 5SM BR SCT047 BKN060 13/11  A3005 960 89 1000 020/04 RMK AO2
94908KDBQ DBQ20050507072511305/07/05 07:25:31  5-MIN KDBQ 071325Z 01003KT 5SM BR BKN049 BKN060 BKN090  13/11 A3005 960 89 1000 010/03 RMK AO2
94908KDBQ DBQ20050507073011305/07/05 07:30:31  5-MIN KDBQ 071330Z 00000KT 4SM BR BKN049 BKN065 BKN085  13/11 A3005 960 89 1000 000/00 RMK AO2
94908KDBQ DBQ20050507073512905/07/05 07:35:31  5-MIN KDBQ 071335Z 00000KT 3SM -RA BR FEW029 BKN049  BKN075 13/11 A3005 960 89 1000 000/00 RMK AO2 RAB35 P0000
94908KDBQ DBQ20050507074013205/07/05 07:40:31  5-MIN KDBQ 071340Z 00000KT 1 1/2SM +RA BR SCT024 SCT036 BKN049 13/11 A3005 960 89 1000 000/00 RMK AO2 RAB35 P0002
94908KDBQ DBQ20050507074513205/07/05 07:45:31  5-MIN KDBQ 071345Z 07003KT 1 1/4SM RA BR SCT024 BKN036  OVC048 13/11 A3005 960 89 1000 070/03 RMK AO2 RAB35 P0005
94908KDBQ DBQ20050507075014905/07/05 07:50:31  5-MIN KDBQ 071350Z 00000KT 2 1/2SM RA BR BKN024 BKN036  OVC048 13/12 A3005 960 93 1000 000/00 RMK AO2 RAB35 SLP176 P0006 T01280117
94908KDBQ DBQ20050507075514605/07/05 07:55:31  5-MIN KDBQ 071355Z 00000KT 3SM -RA BR BKN024 BKN036  OVC048 13/12 A3005 960 93 1000 000/00 RMK AO2 RAB35 SLP175 P0007 T01280117
94908KDBQ DBQ20050507080010805/07/05 08:00:31  5-MIN KDBQ 071400Z 00000KT 3SM -RA BR OVC024 13/12 A3004 960 93 1000 000/00 RMK AO2 P0000
94908KDBQ DBQ20050507080510805/07/05 08:05:31  5-MIN KDBQ 071405Z 00000KT 3SM -RA BR OVC022 13/12 A3005 960 93 1000 000/00 RMK AO2 P0000
94908KDBQ DBQ20050507081011605/07/05 08:10:31  5-MIN KDBQ 071410Z 04003KT 3SM -RA BR BKN022 BKN095  13/12 A3005 960 93 1000 040/03 RMK AO2 P0001
94908KDBQ DBQ20050507081511505/07/05 08:15:31  5-MIN KDBQ 071415Z 04003KT 3SM -RA BR BKN022 BKN095  12/11 A3005 960 93 900 040/03 RMK AO2 P0001
94908KDBQ DBQ20050507082011505/07/05 08:20:31  5-MIN KDBQ 071420Z 00000KT 3SM -RA BR SCT024 BKN095  12/11 A3005 960 93 900 000/00 RMK AO2 P0001
94908KDBQ DBQ20050507082511505/07/05 08:25:31  5-MIN KDBQ 071425Z 05003KT 3SM -RA BR BKN024 BKN095  12/11 A3005 960 93 900 050/03 RMK AO2 P0001
94908KDBQ DBQ20050507083011805/07/05 08:30:31  5-MIN KDBQ 071430Z 04005KT 2 1/2SM -RA BR BKN024 BKN095 12/11 A3005 960 93 900 040/05 RMK AO2 P0002
94908KDBQ DBQ20050507083511805/07/05 08:35:31  5-MIN KDBQ 071435Z 02007KT 2 1/2SM -RA BR BKN024 BKN095 12/11 A3005 960 93 900 020/07 RMK AO2 P0002
94908KDBQ DBQ20050507084011805/07/05 08:40:31  5-MIN KDBQ 071440Z 04005KT 2 1/2SM -RA BR BKN024 OVC095 12/11 A3005 960 93 900 030/05 RMK AO2 P0002
94908KDBQ DBQ20050507084511205/07/05 08:45:31  5-MIN KDBQ 071445Z 05004KT 2 1/2SM -RA BR OVC024 12/12  A3005 960 96 900 050/04 RMK AO2 P0003
94908KDBQ DBQ20050507085013505/07/05 08:50:31  5-MIN KDBQ 071450Z 04005KT 2SM RA BR OVC026 12/12 A3005 960 96 900 040/05 RMK AO2 SLP178 P0004 60011 T01220117 53005
94908KDBQ DBQ20050507085513605/07/05 08:55:31  5-MIN KDBQ 071455Z 04007KT 2SM -RA BR OVC026 12/12 A3005 960 96 900 040/07 RMK AO2 SLP178 P0005 60012 T01220117 51011
94908KDBQ DBQ20050507090011105/07/05 09:00:31  5-MIN KDBQ 071500Z 03006KT 1 3/4SM RA BR OVC024 12/12  A3005 950 96 900 030/06 RMK AO2 P0001
94908KDBQ DBQ20050507090511105/07/05 09:05:31  5-MIN KDBQ 071505Z 05010KT 1 3/4SM RA BR OVC024 12/12  A3005 960 96 900 040/10 RMK AO2 P0002
94908KDBQ DBQ20050507091011505/07/05 09:10:31  5-MIN KDBQ 071510Z 05011KT 2SM -RA BR BKN024 OVC055  12/12 A3004 970 96 900 050/11 RMK AO2 P0002
94908KDBQ DBQ20050507091511505/07/05 09:15:31  5-MIN KDBQ 071515Z 05008KT 2SM -RA BR BKN024 OVC055  12/12 A3004 970 96 900 050/08 RMK AO2 P0003
94908KDBQ DBQ20050507092012605/07/05 09:20:31  5-MIN KDBQ 071520Z 04005KT 2 1/2SM -RA BR SCT021 BKN055 BKN090 13/12 A3005 960 93 1000 040/05 RMK AO2 P0003
94908KDBQ DBQ20050507092512605/07/05 09:25:31  5-MIN KDBQ 071525Z 06007KT 2 1/2SM -RA BR SCT019 BKN060 BKN090 13/12 A3004 970 93 1000 060/07 RMK AO2 P0003
94908KDBQ DBQ20050507093011905/07/05 09:30:31  5-MIN KDBQ 071530Z 06006KT 2 1/2SM -RA BR FEW019 BKN060 13/12 A3005 960 93 1000 060/06 RMK AO2 P0003
94908KDBQ DBQ20050507093511605/07/05 09:35:31  5-MIN KDBQ 071535Z 05006KT 3SM -RA BR FEW019 SCT060  13/12 A3004 960 96 1000 050/06 RMK AO2 P0003
94908KDBQ DBQ20050507094012205/07/05 09:40:31  5-MIN KDBQ 071540Z 05007KT 2 1/2SM BR FEW019 SCT060  13/12 A3004 960 96 1000 050/07 RMK AO2 RAE36 P0003
94908KDBQ DBQ20050507094511405/07/05 09:45:31  5-MIN KDBQ 071545Z 06006KT 2 1/2SM BR FEW019 13/12 A3005 960 93 1000 060/06 RMK AO2 RAE36 P0003
94908KDBQ DBQ20050507095013105/07/05 09:50:31  5-MIN KDBQ 071550Z 07006KT 2 1/2SM BR FEW060 13/12 A3005 960 93 1000 070/06 RMK AO2 RAE36 SLP177 P0003 T01330122
94908KDBQ DBQ20050507095512405/07/05 09:55:31  5-MIN KDBQ 071555Z 07008KT 3SM BR CLR 13/12 A3005 960 93 1000 060/08 RMK AO2 RAE36 SLP176 P0003 T01330122
94908KDBQ DBQ20050507100009505/07/05 10:00:31  5-MIN KDBQ 071600Z 07007KT 3SM BR CLR 13/12 A3005 960 93 1000 070/07 RMK AO2
94908KDBQ DBQ20050507100509505/07/05 10:05:31  5-MIN KDBQ 071605Z 07008KT 3SM BR CLR 14/12 A3005 960 90 1100 070/08 RMK AO2
94908KDBQ DBQ20050507101009505/07/05 10:10:31  5-MIN KDBQ 071610Z 08008KT 3SM BR CLR 14/12 A3005 960 90 1100 080/08 RMK AO2
94908KDBQ DBQ20050507101509505/07/05 10:15:31  5-MIN KDBQ 071615Z 08007KT 3SM BR CLR 14/12 A3004 960 90 1100 080/07 RMK AO2
94908KDBQ DBQ20050507102009505/07/05 10:20:31  5-MIN KDBQ 071620Z 08007KT 3SM BR CLR 14/12 A3005 950 86 1200 080/07 RMK AO2
94908KDBQ DBQ20050507102509505/07/05 10:25:31  5-MIN KDBQ 071625Z 07007KT 3SM BR CLR 14/13 A3006 950 90 1200 070/07 RMK AO2
94908KDBQ DBQ20050507103009505/07/05 10:30:31  5-MIN KDBQ 071630Z 07006KT 4SM BR CLR 15/13 A3005 960 86 1200 060/06 RMK AO2
94908KDBQ DBQ20050507103509505/07/05 10:35:31  5-MIN KDBQ 071635Z 06006KT 4SM BR CLR 15/13 A3005 960 86 1200 060/06 RMK AO2
94908KDBQ DBQ20050507104009505/07/05 10:40:31  5-MIN KDBQ 071640Z 06007KT 4SM BR CLR 15/13 A3004 970 86 1200 050/07 RMK AO2
94908KDBQ DBQ20050507104509505/07/05 10:45:31  5-MIN KDBQ 071645Z 07006KT 4SM BR CLR 15/13 A3003 970 86 1200 070/06 RMK AO2
94908KDBQ DBQ20050507105011205/07/05 10:50:31  5-MIN KDBQ 071650Z 09009KT 4SM HZ CLR 16/13 A3004 970 83 1300 090/09 RMK AO2 SLP174 T01560128
94908KDBQ DBQ20050507105511205/07/05 10:55:31  5-MIN KDBQ 071655Z 09008KT 4SM HZ CLR 16/13 A3004 970 83 1300 090/08 RMK AO2 SLP172 T01560128
94908KDBQ DBQ20050507110009505/07/05 11:00:31  5-MIN KDBQ 071700Z 10008KT 4SM HZ CLR 16/13 A3004 970 83 1300 100/08 RMK AO2
94908KDBQ DBQ20050507110509505/07/05 11:05:31  5-MIN KDBQ 071705Z 10008KT 4SM HZ CLR 16/13 A3004 970 83 1400 100/08 RMK AO2
94908KDBQ DBQ20050507111009505/07/05 11:10:31  5-MIN KDBQ 071710Z 11008KT 4SM HZ CLR 16/13 A3004 970 83 1400 110/08 RMK AO2
94908KDBQ DBQ20050507111509505/07/05 11:15:31  5-MIN KDBQ 071715Z 10010KT 4SM HZ CLR 16/13 A3003 970 83 1400 100/10 RMK AO2
94908KDBQ DBQ20050507112009505/07/05 11:20:31  5-MIN KDBQ 071720Z 10008KT 5SM HZ CLR 17/13 A3003 980 80 1400 100/08 RMK AO2
94908KDBQ DBQ20050507112509505/07/05 11:25:31  5-MIN KDBQ 071725Z 11009KT 5SM HZ CLR 17/14 A3003 980 80 1500 110/09 RMK AO2
94908KDBQ DBQ20050507113009505/07/05 11:30:31  5-MIN KDBQ 071730Z 12009KT 5SM HZ CLR 17/13 A3003 980 80 1400 120/09 RMK AO2
94908KDBQ DBQ20050507113509505/07/05 11:35:31  5-MIN KDBQ 071735Z 11010KT 5SM HZ CLR 17/13 A3002 990 78 1500 110/10 RMK AO2
94908KDBQ DBQ20050507114009505/07/05 11:40:31  5-MIN KDBQ 071740Z 10009KT 5SM HZ CLR 17/13 A3002 990 78 1500 100/09 RMK AO2
94908KDBQ DBQ20050507114509505/07/05 11:45:31  5-MIN KDBQ 071745Z 12009KT 5SM HZ CLR 17/14 A3002 980 80 1500 110/09 RMK AO2
94908KDBQ DBQ20050507115013605/07/05 11:50:31  5-MIN KDBQ 071750Z 11009KT 5SM HZ CLR 17/13 A3002 990 78 1500 110/09 RMK AO2 SLP165 60015 T01720133 10172 20122 51011
94908KDBQ DBQ20050507115513605/07/05 11:55:31  5-MIN KDBQ 071755Z 12008KT 5SM HZ CLR 17/13 A3002 990 78 1500 120/08 RMK AO2 SLP164 60015 T01720133 10172 20122 58013
94908KDBQ DBQ20050507120009505/07/05 12:00:31  5-MIN KDBQ 071800Z 11009KT 5SM HZ CLR 18/14 A3001 990 78 1600 110/09 RMK AO2
94908KDBQ DBQ20050507120509505/07/05 12:05:31  5-MIN KDBQ 071805Z 12009KT 5SM HZ CLR 18/13 A3001 990 75 1600 120/09 RMK AO2
94908KDBQ DBQ20050507121009505/07/05 12:10:31  5-MIN KDBQ 071810Z 12009KT 5SM HZ CLR 18/13 A3001 990 75 1600 110/09 RMK AO2
94908KDBQ DBQ20050507121509505/07/05 12:15:31  5-MIN KDBQ 071815Z 12009KT 5SM HZ CLR 18/14 A3001 990 75 1700 120/09 RMK AO2
94908KDBQ DBQ20050507122009705/07/05 12:20:31  5-MIN KDBQ 071820Z 12010KT 5SM HZ CLR 19/14 A3001 1000  72 1700 120/10 RMK AO2
94908KDBQ DBQ20050507122509705/07/05 12:25:31  5-MIN KDBQ 071825Z 11011KT 6SM HZ CLR 19/14 A3001 1000  72 1700 110/11 RMK AO2
94908KDBQ DBQ20050507123009705/07/05 12:30:31  5-MIN KDBQ 071830Z 13009KT 6SM HZ CLR 19/14 A3000 1000  72 1700 130/09 RMK AO2
94908KDBQ DBQ20050507123509705/07/05 12:35:31  5-MIN KDBQ 071835Z 13010KT 6SM HZ CLR 19/14 A3001 1000  70 1800 120/10 RMK AO2
94908KDBQ DBQ20050507124009405/07/05 12:40:31  5-MIN KDBQ 071840Z 14011KT 7SM CLR 19/14 A3001 1000 70  1800 140/11 RMK AO2
94908KDBQ DBQ20050507124509405/07/05 12:45:31  5-MIN KDBQ 071845Z 13010KT 7SM CLR 20/14 A3000 1000 67  1900 130/10 RMK AO2
94908KDBQ DBQ20050507125011105/07/05 12:50:31  5-MIN KDBQ 071850Z 11012KT 7SM CLR 20/14 A3000 1000 67  1900 110/12 RMK AO2 SLP159 T02000139
94908KDBQ DBQ20050507125511105/07/05 12:55:31  5-MIN KDBQ 071855Z 12010KT 7SM CLR 21/14 A3000 1000 67  1900 120/10 RMK AO2 SLP158 T02060144
94908KDBQ DBQ20050507130009405/07/05 13:00:31  5-MIN KDBQ 071900Z 11011KT 7SM CLR 21/14 A3000 1000 67  1900 110/11 RMK AO2
94908KDBQ DBQ20050507130509405/07/05 13:05:31  5-MIN KDBQ 071905Z 11012KT 8SM CLR 21/14 A3000 1000 65  1900 110/12 RMK AO2
94908KDBQ DBQ20050507131009405/07/05 13:10:31  5-MIN KDBQ 071910Z 12010KT 8SM CLR 21/14 A3000 1000 65  1900 110/10 RMK AO2
94908KDBQ DBQ20050507131509405/07/05 13:15:31  5-MIN KDBQ 071915Z 11009KT 7SM CLR 21/14 A3000 1000 65  2000 110/09 RMK AO2
94908KDBQ DBQ20050507132009405/07/05 13:20:31  5-MIN KDBQ 071920Z 11009KT 7SM CLR 21/14 A2999 1010 65  2000 110/09 RMK AO2
94908KDBQ DBQ20050507132509405/07/05 13:25:31  5-MIN KDBQ 071925Z 11009KT 8SM CLR 22/14 A3000 1010 63  2100 110/09 RMK AO2
94908KDBQ DBQ20050507133009405/07/05 13:30:31  5-MIN KDBQ 071930Z 11010KT 8SM CLR 22/14 A2999 1010 63  2100 110/10 RMK AO2
94908KDBQ DBQ20050507133509405/07/05 13:35:31  5-MIN KDBQ 071935Z 12012KT 7SM CLR 22/15 A2999 1010 65  2100 110/12 RMK AO2
94908KDBQ DBQ20050507134009405/07/05 13:40:31  5-MIN KDBQ 071940Z 11011KT 8SM CLR 22/14 A2999 1020 63  2100 110/11 RMK AO2
94908KDBQ DBQ20050507134509405/07/05 13:45:31  5-MIN KDBQ 071945Z 12011KT 8SM CLR 22/14 A2998 1020 63  2100 120/11 RMK AO2
94908KDBQ DBQ20050507135011105/07/05 13:50:31  5-MIN KDBQ 071950Z 12011KT 8SM CLR 22/14 A2999 1020 61  2100 110/11 RMK AO2 SLP152 T02220144
94908KDBQ DBQ20050507135511105/07/05 13:55:31  5-MIN KDBQ 071955Z 11011KT 8SM CLR 22/14 A2998 1020 61  2100 110/11 RMK AO2 SLP151 T02220144
94908KDBQ DBQ20050507140009405/07/05 14:00:31  5-MIN KDBQ 072000Z 12011KT 8SM CLR 22/14 A2998 1020 61  2100 120/11 RMK AO2
94908KDBQ DBQ20050507142009405/07/05 14:20:31  5-MIN KDBQ 072020Z 11012KT 8SM CLR 23/14 A2997 1030 59  2200 110/12 RMK AO2
94908KDBQ DBQ20050507142509405/07/05 14:25:31  5-MIN KDBQ 072025Z 10010KT 9SM CLR 23/14 A2997 1040 59  2200 100/10 RMK AO2
94908KDBQ DBQ20050507143009405/07/05 14:30:31  5-MIN KDBQ 072030Z 11010KT 9SM CLR 23/14 A2996 1040 59  2200 110/10 RMK AO2
94908KDBQ DBQ20050507143509405/07/05 14:35:31  5-MIN KDBQ 072035Z 11010KT 9SM CLR 23/14 A2996 1040 59  2200 110/10 RMK AO2
94908KDBQ DBQ20050507144009405/07/05 14:40:31  5-MIN KDBQ 072040Z 09012KT 9SM CLR 23/14 A2996 1040 57  2300 090/12 RMK AO2
94908KDBQ DBQ20050507144509405/07/05 14:45:31  5-MIN KDBQ 072045Z 11010KT 9SM CLR 23/14 A2996 1040 57  2300 110/10 RMK AO2
94908KDBQ DBQ20050507145011705/07/05 14:50:31  5-MIN KDBQ 072050Z 10010KT 9SM CLR 23/15 A2996 1050 59  2300 100/10 RMK AO2 SLP141 T02330150 58013
94908KDBQ DBQ20050507145511705/07/05 14:55:31  5-MIN KDBQ 072055Z 09011KT 9SM CLR 23/15 A2995 1050 59  2300 090/11 RMK AO2 SLP140 T02330150 58021
94908KDBQ DBQ20050507150009405/07/05 15:00:31  5-MIN KDBQ 072100Z 10010KT 9SM CLR 23/14 A2995 1050 57  2300 100/10 RMK AO2
94908KDBQ DBQ20050507150509405/07/05 15:05:31  5-MIN KDBQ 072105Z 10009KT 9SM CLR 23/14 A2995 1050 57  2300 100/09 RMK AO2
94908KDBQ DBQ20050507151009405/07/05 15:10:31  5-MIN KDBQ 072110Z 11011KT 9SM CLR 23/14 A2994 1060 57  2300 110/11 RMK AO2
94908KDBQ DBQ20050507151509405/07/05 15:15:31  5-MIN KDBQ 072115Z 10011KT 9SM CLR 23/14 A2994 1060 57  2300 100/11 RMK AO2
94908KDBQ DBQ20050507152009405/07/05 15:20:31  5-MIN KDBQ 072120Z 11011KT 9SM CLR 24/14 A2994 1060 55  2400 100/11 RMK AO2
94908KDBQ DBQ20050507152509405/07/05 15:25:31  5-MIN KDBQ 072125Z 10012KT 10SM CLR 23/14 A2994 1060 57 2300 100/12 RMK AO2
94908KDBQ DBQ20050507153009405/07/05 15:30:31  5-MIN KDBQ 072130Z 10011KT 9SM CLR 24/14 A2994 1060 55  2400 100/11 RMK AO2
94908KDBQ DBQ20050507153509405/07/05 15:35:31  5-MIN KDBQ 072135Z 09011KT 10SM CLR 24/14 A2994 1060 55 2400 090/11 RMK AO2
94908KDBQ DBQ20050507154009405/07/05 15:40:31  5-MIN KDBQ 072140Z 12011KT 10SM CLR 24/14 A2994 1060 55 2400 120/11 RMK AO2
94908KDBQ DBQ20050507154509405/07/05 15:45:31  5-MIN KDBQ 072145Z 11010KT 9SM CLR 24/14 A2994 1060 55  2400 110/10 RMK AO2
94908KDBQ DBQ20050507155011105/07/05 15:50:31  5-MIN KDBQ 072150Z 11011KT 10SM CLR 24/14 A2994 1060 55 2400 100/11 RMK AO2 SLP134 T02390144
94908KDBQ DBQ20050507155511105/07/05 15:55:31  5-MIN KDBQ 072155Z 11011KT 10SM CLR 24/14 A2993 1070 55 2400 110/11 RMK AO2 SLP132 T02390144
94908KDBQ DBQ20050507160009405/07/05 16:00:31  5-MIN KDBQ 072200Z 11012KT 10SM CLR 24/14 A2993 1070 55 2400 110/12 RMK AO2
94908KDBQ DBQ20050507160509405/07/05 16:05:31  5-MIN KDBQ 072205Z 11010KT 9SM CLR 24/14 A2993 1070 55  2400 110/10 RMK AO2
94908KDBQ DBQ20050507161009405/07/05 16:10:31  5-MIN KDBQ 072210Z 12012KT 9SM CLR 23/14 A2993 1070 57  2300 110/12 RMK AO2
94908KDBQ DBQ20050507161509405/07/05 16:15:31  5-MIN KDBQ 072215Z 11013KT 9SM CLR 23/14 A2992 1080 55  2300 100/13 RMK AO2
94908KDBQ DBQ20050507162009405/07/05 16:20:31  5-MIN KDBQ 072220Z 11011KT 9SM CLR 23/14 A2992 1080 57  2300 110/11 RMK AO2
94908KDBQ DBQ20050507162509405/07/05 16:25:31  5-MIN KDBQ 072225Z 11010KT 9SM CLR 23/14 A2992 1080 59  2300 110/10 RMK AO2
94908KDBQ DBQ20050507163009405/07/05 16:30:31  5-MIN KDBQ 072230Z 11009KT 9SM CLR 23/14 A2992 1080 59  2300 110/09 RMK AO2
94908KDBQ DBQ20050507163509405/07/05 16:35:31  5-MIN KDBQ 072235Z 11011KT 9SM CLR 23/14 A2992 1080 57  2300 110/11 RMK AO2
94908KDBQ DBQ20050507164009405/07/05 16:40:31  5-MIN KDBQ 072240Z 11011KT 9SM CLR 23/14 A2992 1080 57  2300 110/11 RMK AO2
94908KDBQ DBQ20050507164509405/07/05 16:45:31  5-MIN KDBQ 072245Z 11011KT 9SM CLR 23/14 A2992 1080 57  2300 110/11 RMK AO2
94908KDBQ DBQ20050507165011105/07/05 16:50:31  5-MIN KDBQ 072250Z 12011KT 8SM CLR 23/14 A2992 1080 59  2300 110/11 RMK AO2 SLP129 T02280144
94908KDBQ DBQ20050507165511105/07/05 16:55:31  5-MIN KDBQ 072255Z 11009KT 8SM CLR 23/14 A2992 1080 59  2300 110/09 RMK AO2 SLP129 T02280144
94908KDBQ DBQ20050507170009405/07/05 17:00:31  5-MIN KDBQ 072300Z 12009KT 8SM CLR 23/15 A2992 1080 61  2300 120/09 RMK AO2
94908KDBQ DBQ20050507170509405/07/05 17:05:31  5-MIN KDBQ 072305Z 11009KT 8SM CLR 23/15 A2992 1080 61  2300 110/09 RMK AO2
94908KDBQ DBQ20050507171009405/07/05 17:10:31  5-MIN KDBQ 072310Z 11009KT 8SM CLR 23/15 A2992 1080 61  2300 110/09 RMK AO2
94908KDBQ DBQ20050507171509405/07/05 17:15:31  5-MIN KDBQ 072315Z 11009KT 8SM CLR 23/15 A2992 1080 61  2300 110/09 RMK AO2
94908KDBQ DBQ20050507172009405/07/05 17:20:31  5-MIN KDBQ 072320Z 12009KT 8SM CLR 23/15 A2992 1080 61  2300 120/09 RMK AO2
94908KDBQ DBQ20050507172509705/07/05 17:25:31  5-MIN KDBQ 072325Z 11008KT 8SM FEW095 23/15 A2992 1080  61 2300 110/08 RMK AO2
94908KDBQ DBQ20050507173009405/07/05 17:30:31  5-MIN KDBQ 072330Z 11011KT 8SM CLR 23/14 A2992 1080 59  2300 110/11 RMK AO2
94908KDBQ DBQ20050507173509405/07/05 17:35:31  5-MIN KDBQ 072335Z 11010KT 8SM CLR 23/14 A2992 1080 59  2300 110/10 RMK AO2
94908KDBQ DBQ20050507174009405/07/05 17:40:31  5-MIN KDBQ 072340Z 11011KT 8SM CLR 23/14 A2992 1080 59  2300 100/11 RMK AO2
94908KDBQ DBQ20050507174509405/07/05 17:45:31  5-MIN KDBQ 072345Z 10011KT 8SM CLR 23/14 A2991 1080 59  2300 100/11 RMK AO2
94908KDBQ DBQ20050507175013805/07/05 17:50:31  5-MIN KDBQ 072350Z AUTO 11011KT 8SM CLR 22/14 A2991 1090 61 2200 100/11 RMK AO2 SLP127 T02220144 10239 20172 58021 TSNO
94908KDBQ DBQ20050507175513805/07/05 17:55:31  5-MIN KDBQ 072355Z AUTO 11011KT 8SM CLR 22/14 A2992 1080 61 2200 110/11 RMK AO2 SLP128 T02220144 10239 20172 56012 TSNO
94908KDBQ DBQ20050507180010305/07/05 18:00:31  5-MIN KDBQ 080000Z AUTO 11011KT 8SM CLR 22/14 A2992 1080 61 2200 100/11 RMK AO2 TSNO
94908KDBQ DBQ20050507180510305/07/05 18:05:31  5-MIN KDBQ 080005Z AUTO 11009KT 8SM CLR 22/14 A2991 1080 63 2100 110/09 RMK AO2 TSNO
94908KDBQ DBQ20050507181010305/07/05 18:10:31  5-MIN KDBQ 080010Z AUTO 11010KT 8SM CLR 22/14 A2991 1080 63 2100 110/10 RMK AO2 TSNO
94908KDBQ DBQ20050507181510305/07/05 18:15:31  5-MIN KDBQ 080015Z AUTO 11011KT 8SM CLR 22/14 A2991 1090 61 2100 110/11 RMK AO2 TSNO
94908KDBQ DBQ20050507182010305/07/05 18:20:31  5-MIN KDBQ 080020Z AUTO 11008KT 8SM CLR 22/14 A2991 1080 61 2100 110/08 RMK AO2 TSNO
94908KDBQ DBQ20050507182510305/07/05 18:25:31  5-MIN KDBQ 080025Z AUTO 11009KT 8SM CLR 22/14 A2991 1080 61 2100 110/09 RMK AO2 TSNO
94908KDBQ DBQ20050507183010305/07/05 18:30:31  5-MIN KDBQ 080030Z AUTO 11010KT 8SM CLR 21/14 A2992 1080 65 2100 110/10 RMK AO2 TSNO
94908KDBQ DBQ20050507183510305/07/05 18:35:31  5-MIN KDBQ 080035Z AUTO 12008KT 7SM CLR 21/14 A2991 1090 65 2100 120/08 RMK AO2 TSNO
94908KDBQ DBQ20050507184010305/07/05 18:40:31  5-MIN KDBQ 080040Z AUTO 12008KT 7SM CLR 21/14 A2992 1080 67 2000 120/08 RMK AO2 TSNO
94908KDBQ DBQ20050507184510305/07/05 18:45:31  5-MIN KDBQ 080045Z AUTO 11008KT 7SM CLR 21/14 A2992 1080 67 2000 110/08 RMK AO2 TSNO
94908KDBQ DBQ20050507185012005/07/05 18:50:31  5-MIN KDBQ 080050Z AUTO 12009KT 7SM CLR 20/14 A2992 1080 67 2000 120/09 RMK AO2 SLP129 T02000139 TSNO
94908KDBQ DBQ20050507185512005/07/05 18:55:31  5-MIN KDBQ 080055Z AUTO 12009KT 7SM CLR 20/14 A2991 1080 67 2000 120/09 RMK AO2 SLP128 T02000139 TSNO
94908KDBQ DBQ20050507190010305/07/05 19:00:31  5-MIN KDBQ 080100Z AUTO 12008KT 7SM CLR 20/14 A2992 1080 67 2000 120/08 RMK AO2 TSNO
94908KDBQ DBQ20050507190510305/07/05 19:05:31  5-MIN KDBQ 080105Z AUTO 12010KT 8SM CLR 21/13 A2992 1080 63 2000 120/10 RMK AO2 TSNO
94908KDBQ DBQ20050507191010305/07/05 19:10:31  5-MIN KDBQ 080110Z AUTO 13008KT 8SM CLR 20/13 A2992 1080 65 2000 130/08 RMK AO2 TSNO
94908KDBQ DBQ20050507191510305/07/05 19:15:31  5-MIN KDBQ 080115Z AUTO 12009KT 7SM CLR 20/13 A2992 1080 65 2000 120/09 RMK AO2 TSNO
94908KDBQ DBQ20050507192010305/07/05 19:20:31  5-MIN KDBQ 080120Z AUTO 12011KT 8SM CLR 19/13 A2992 1080 67 1900 110/11 RMK AO2 TSNO
94908KDBQ DBQ20050507192510305/07/05 19:25:31  5-MIN KDBQ 080125Z AUTO 12009KT 9SM CLR 19/13 A2992 1080 70 1800 120/09 RMK AO2 TSNO
94908KDBQ DBQ20050507193010305/07/05 19:30:31  5-MIN KDBQ 080130Z AUTO 12009KT 9SM CLR 19/13 A2992 1080 67 1900 120/09 RMK AO2 TSNO
94908KDBQ DBQ20050507193510305/07/05 19:35:31  5-MIN KDBQ 080135Z AUTO 12009KT 9SM CLR 19/13 A2992 1080 67 1900 120/09 RMK AO2 TSNO
94908KDBQ DBQ20050507194010305/07/05 19:40:31  5-MIN KDBQ 080140Z AUTO 12009KT 9SM CLR 19/13 A2992 1080 67 1800 120/09 RMK AO2 TSNO
94908KDBQ DBQ20050507194510305/07/05 19:45:31  5-MIN KDBQ 080145Z AUTO 12013KT 9SM CLR 19/13 A2992 1080 67 1800 110/13 RMK AO2 TSNO
94908KDBQ DBQ20050507195012005/07/05 19:50:31  5-MIN KDBQ 080150Z AUTO 12012KT 9SM CLR 19/13 A2992 1080 67 1800 120/12 RMK AO2 SLP131 T01890128 TSNO
94908KDBQ DBQ20050507195512005/07/05 19:55:31  5-MIN KDBQ 080155Z AUTO 12011KT 9SM CLR 19/12 A2992 1080 65 1800 120/11 RMK AO2 SLP131 T01890122 TSNO
94908KDBQ DBQ20050507200010505/07/05 20:00:31  5-MIN KDBQ 080200Z AUTO 12011KT 10SM CLR 18/12 A2992  1080 67 1800 120/11 RMK AO2 TSNO
94908KDBQ DBQ20050507200510505/07/05 20:05:31  5-MIN KDBQ 080205Z AUTO 13010KT 10SM CLR 18/12 A2992  1080 67 1800 130/10 RMK AO2 TSNO
94908KDBQ DBQ20050507201010505/07/05 20:10:31  5-MIN KDBQ 080210Z AUTO 12012KT 10SM CLR 18/12 A2992  1080 65 1800 120/12 RMK AO2 TSNO
94908KDBQ DBQ20050507201510505/07/05 20:15:31  5-MIN KDBQ 080215Z AUTO 13012KT 10SM CLR 18/12 A2992  1080 65 1800 120/12 RMK AO2 TSNO
94908KDBQ DBQ20050507202010505/07/05 20:20:31  5-MIN KDBQ 080220Z AUTO 12013KT 10SM CLR 18/11 A2992  1070 62 1800 120/13 RMK AO2 TSNO
94908KDBQ DBQ20050507202510505/07/05 20:25:31  5-MIN KDBQ 080225Z AUTO 13011KT 10SM CLR 18/11 A2993  1070 62 1800 130/11 RMK AO2 TSNO
94908KDBQ DBQ20050507203010505/07/05 20:30:31  5-MIN KDBQ 080230Z AUTO 13009KT 10SM CLR 18/11 A2993  1070 64 1700 130/09 RMK AO2 TSNO
94908KDBQ DBQ20050507203510505/07/05 20:35:31  5-MIN KDBQ 080235Z AUTO 12011KT 10SM CLR 18/11 A2993  1070 64 1700 120/11 RMK AO2 TSNO
94908KDBQ DBQ20050507204010505/07/05 20:40:31  5-MIN KDBQ 080240Z AUTO 12011KT 10SM CLR 17/11 A2993  1070 67 1600 120/11 RMK AO2 TSNO
94908KDBQ DBQ20050507204510505/07/05 20:45:31  5-MIN KDBQ 080245Z AUTO 12012KT 10SM CLR 17/11 A2993  1070 67 1600 120/12 RMK AO2 TSNO
94908KDBQ DBQ20050507205012805/07/05 20:50:31  5-MIN KDBQ 080250Z AUTO 12012KT 10SM CLR 17/11 A2994  1060 67 1600 120/12 RMK AO2 SLP137 T01720111 56012 TSNO
94908KDBQ DBQ20050507205512805/07/05 20:55:31  5-MIN KDBQ 080255Z AUTO 12012KT 10SM CLR 17/11 A2993  1070 67 1600 120/12 RMK AO2 SLP134 T01720111 53004 TSNO
94908KDBQ DBQ20050507210010505/07/05 21:00:31  5-MIN KDBQ 080300Z AUTO 12011KT 10SM CLR 17/11 A2994  1060 64 1600 120/11 RMK AO2 TSNO
94908KDBQ DBQ20050507210510505/07/05 21:05:31  5-MIN KDBQ 080305Z AUTO 12011KT 10SM CLR 17/11 A2994  1060 64 1600 120/11 RMK AO2 TSNO
94908KDBQ DBQ20050507211010505/07/05 21:10:31  5-MIN KDBQ 080310Z AUTO 12012KT 10SM CLR 17/11 A2993  1070 67 1600 120/12 RMK AO2 TSNO
94908KDBQ DBQ20050507211510505/07/05 21:15:31  5-MIN KDBQ 080315Z AUTO 12011KT 10SM CLR 17/11 A2994  1060 67 1500 120/11 RMK AO2 TSNO
94908KDBQ DBQ20050507212010505/07/05 21:20:31  5-MIN KDBQ 080320Z AUTO 12012KT 10SM CLR 17/11 A2994  1060 67 1500 120/12 RMK AO2 TSNO
94908KDBQ DBQ20050507212510505/07/05 21:25:31  5-MIN KDBQ 080325Z AUTO 12011KT 10SM CLR 16/11 A2993  1070 69 1500 120/11 RMK AO2 TSNO
94908KDBQ DBQ20050507213010505/07/05 21:30:31  5-MIN KDBQ 080330Z AUTO 12011KT 10SM CLR 17/11 A2993  1070 67 1600 120/11 RMK AO2 TSNO
94908KDBQ DBQ20050507213510505/07/05 21:35:31  5-MIN KDBQ 080335Z AUTO 13011KT 10SM CLR 17/11 A2994  1060 67 1500 130/11 RMK AO2 TSNO
94908KDBQ DBQ20050507214010505/07/05 21:40:31  5-MIN KDBQ 080340Z AUTO 13012KT 10SM CLR 17/10 A2994  1060 64 1500 130/12 RMK AO2 TSNO
94908KDBQ DBQ20050507214510505/07/05 21:45:31  5-MIN KDBQ 080345Z AUTO 13011KT 10SM CLR 17/10 A2993  1070 64 1600 130/11 RMK AO2 TSNO
94908KDBQ DBQ20050507215012205/07/05 21:50:31  5-MIN KDBQ 080350Z AUTO 13012KT 10SM CLR 17/10 A2994  1060 64 1500 130/12 RMK AO2 SLP140 T01670100 TSNO
94908KDBQ DBQ20050507215512205/07/05 21:55:31  5-MIN KDBQ 080355Z AUTO 13012KT 10SM CLR 17/10 A2994  1060 64 1500 130/12 RMK AO2 SLP139 T01670100 TSNO
94908KDBQ DBQ20050507220010505/07/05 22:00:31  5-MIN KDBQ 080400Z AUTO 12012KT 10SM CLR 16/10 A2993  1070 67 1500 120/12 RMK AO2 TSNO
94908KDBQ DBQ20050507220510505/07/05 22:05:31  5-MIN KDBQ 080405Z AUTO 13012KT 10SM CLR 16/10 A2994  1060 67 1500 120/12 RMK AO2 TSNO
94908KDBQ DBQ20050507221010505/07/05 22:10:31  5-MIN KDBQ 080410Z AUTO 13012KT 10SM CLR 16/10 A2994  1060 67 1500 130/12 RMK AO2 TSNO
94908KDBQ DBQ20050507221510505/07/05 22:15:31  5-MIN KDBQ 080415Z AUTO 13014KT 10SM CLR 16/09 A2994  1060 64 1500 130/14 RMK AO2 TSNO
94908KDBQ DBQ20050507222010505/07/05 22:20:31  5-MIN KDBQ 080420Z AUTO 13015KT 10SM CLR 16/09 A2995  1050 64 1500 130/15 RMK AO2 TSNO
94908KDBQ DBQ20050507222510705/07/05 22:25:31  5-MIN KDBQ 080425Z AUTO 13015KT 10SM FEW070 16/09 A2994 1060 64 1500 130/15 RMK AO2 TSNO
94908KDBQ DBQ20050507223010705/07/05 22:30:31  5-MIN KDBQ 080430Z AUTO 13014KT 10SM SCT070 16/09 A2994 1060 64 1500 130/14 RMK AO2 TSNO
94908KDBQ DBQ20050507223510705/07/05 22:35:31  5-MIN KDBQ 080435Z AUTO 13013KT 10SM BKN075 16/09 A2995 1050 67 1400 130/13 RMK AO2 TSNO
94908KDBQ DBQ20050507224010705/07/05 22:40:31  5-MIN KDBQ 080440Z AUTO 13012KT 10SM BKN075 16/09 A2994 1060 67 1400 130/12 RMK AO2 TSNO
94908KDBQ DBQ20050507224510705/07/05 22:45:31  5-MIN KDBQ 080445Z AUTO 13013KT 10SM BKN070 16/09 A2994 1060 67 1400 130/13 RMK AO2 TSNO
94908KDBQ DBQ20050507225012405/07/05 22:50:31  5-MIN KDBQ 080450Z AUTO 13014KT 10SM OVC070 16/09 A2995 1050 67 1400 130/14 RMK AO2 SLP141 T01560094 TSNO
94908KDBQ DBQ20050507225512405/07/05 22:55:31  5-MIN KDBQ 080455Z AUTO 13014KT 10SM OVC070 16/09 A2994 1060 67 1400 130/14 RMK AO2 SLP137 T01560094 TSNO
94908KDBQ DBQ20050507230010705/07/05 23:00:31  5-MIN KDBQ 080500Z AUTO 13014KT 10SM OVC070 16/09 A2994 1060 67 1400 130/14 RMK AO2 TSNO
94908KDBQ DBQ20050507230510705/07/05 23:05:31  5-MIN KDBQ 080505Z AUTO 13014KT 10SM OVC070 16/09 A2995 1050 67 1400 130/14 RMK AO2 TSNO
94908KDBQ DBQ20050507231010705/07/05 23:10:31  5-MIN KDBQ 080510Z AUTO 13014KT 10SM OVC075 16/09 A2994 1060 67 1400 130/14 RMK AO2 TSNO
94908KDBQ DBQ20050507231510705/07/05 23:15:31  5-MIN KDBQ 080515Z AUTO 13013KT 10SM OVC075 16/09 A2994 1060 67 1400 130/13 RMK AO2 TSNO
94908KDBQ DBQ20050507232011405/07/05 23:20:31  5-MIN KDBQ 080520Z AUTO 13012KT 10SM BKN070 OVC085 15/09 A2995 1050 69 1300 130/12 RMK AO2 TSNO
94908KDBQ DBQ20050507232510705/07/05 23:25:31  5-MIN KDBQ 080525Z AUTO 13013KT 10SM OVC070 15/09 A2993 1070 69 1400 130/13 RMK AO2 TSNO
94908KDBQ DBQ20050507233010705/07/05 23:30:31  5-MIN KDBQ 080530Z AUTO 13013KT 10SM OVC070 15/09 A2993 1070 69 1400 130/13 RMK AO2 TSNO
94908KDBQ DBQ20050507233510705/07/05 23:35:31  5-MIN KDBQ 080535Z AUTO 13012KT 10SM OVC075 15/09 A2994 1060 69 1300 130/12 RMK AO2 TSNO
94908KDBQ DBQ20050507234010705/07/05 23:40:31  5-MIN KDBQ 080540Z AUTO 13013KT 10SM BKN075 15/09 A2993 1070 69 1400 130/13 RMK AO2 TSNO
94908KDBQ DBQ20050507234510705/07/05 23:45:31  5-MIN KDBQ 080545Z AUTO 13014KT 10SM BKN075 15/09 A2993 1070 69 1400 130/14 RMK AO2 TSNO
94908KDBQ DBQ20050507235015305/07/05 23:50:31  5-MIN KDBQ 080550Z AUTO 13012KT 10SM SCT075 14/09 A2994 1060 69 1300 130/12 RMK AO2 SLP137 T01440089 10222 20144 402390111 53004  TSNO
94908KDBQ DBQ20050507235515305/07/05 23:55:31  5-MIN KDBQ 080555Z AUTO 13012KT 10SM BKN080 14/09 A2993 1070 69 1300 130/12 RMK AO2 SLP133 T01440089 10222 20144 402390111 50000  TSNO
94908KDBQ DBQ20050508000010705/08/05 00:00:38  5-MIN KDBQ 080600Z AUTO 14011KT 10SM SCT080 14/09 A2993 1070 69 1300 130/11 RMK AO2 TSNO
94908KDBQ DBQ20050508000510705/08/05 00:05:31  5-MIN KDBQ 080605Z AUTO 15010KT 10SM FEW080 14/09 A2993 1070 72 1300 150/10 RMK AO2 TSNO
94908KDBQ DBQ20050508001010705/08/05 00:10:31  5-MIN KDBQ 080610Z AUTO 15011KT 10SM FEW085 14/09 A2993 1070 72 1300 150/11 RMK AO2 TSNO
94908KDBQ DBQ20050508001510705/08/05 00:15:32  5-MIN KDBQ 080615Z AUTO 15011KT 10SM FEW085 14/09 A2993 1070 71 1200 150/11 RMK AO2 TSNO
94908KDBQ DBQ20050508002010705/08/05 00:20:31  5-MIN KDBQ 080620Z AUTO 14012KT 10SM FEW085 14/09 A2993 1070 69 1300 140/12 RMK AO2 TSNO
94908KDBQ DBQ20050508002510705/08/05 00:25:31  5-MIN KDBQ 080625Z AUTO 14011KT 10SM FEW085 14/09 A2993 1070 69 1300 140/11 RMK AO2 TSNO
94908KDBQ DBQ20050508003010705/08/05 00:30:31  5-MIN KDBQ 080630Z AUTO 14013KT 10SM FEW085 14/09 A2994 1060 69 1300 140/13 RMK AO2 TSNO
94908KDBQ DBQ20050508003510705/08/05 00:35:31  5-MIN KDBQ 080635Z AUTO 14012KT 10SM FEW085 14/09 A2993 1070 71 1200 140/12 RMK AO2 TSNO
94908KDBQ DBQ20050508004010705/08/05 00:40:31  5-MIN KDBQ 080640Z AUTO 14011KT 10SM FEW090 14/09 A2993 1070 71 1200 130/11 RMK AO2 TSNO
94908KDBQ DBQ20050508004510705/08/05 00:45:31  5-MIN KDBQ 080645Z AUTO 14010KT 10SM SCT090 14/09 A2993 1070 74 1200 140/10 RMK AO2 TSNO
94908KDBQ DBQ20050508005012405/08/05 00:50:31  5-MIN KDBQ 080650Z AUTO 14010KT 10SM SCT090 14/09 A2992 1080 74 1200 140/10 RMK AO2 SLP131 T01390094 TSNO
94908KDBQ DBQ20050508005512405/08/05 00:55:31  5-MIN KDBQ 080655Z AUTO 14010KT 10SM FEW090 14/09 A2992 1080 74 1200 140/10 RMK AO2 SLP131 T01390094 TSNO
94908KDBQ DBQ20050508010010705/08/05 01:00:31  5-MIN KDBQ 080700Z AUTO 14011KT 10SM FEW090 14/09 A2992 1080 71 1200 140/11 RMK AO2 TSNO
94908KDBQ DBQ20050508010510705/08/05 01:05:31  5-MIN KDBQ 080705Z AUTO 14011KT 10SM FEW090 14/09 A2992 1080 71 1200 140/11 RMK AO2 TSNO
94908KDBQ DBQ20050508011010705/08/05 01:10:31  5-MIN KDBQ 080710Z AUTO 14012KT 10SM FEW090 14/09 A2992 1080 71 1200 140/12 RMK AO2 TSNO
94908KDBQ DBQ20050508011510505/08/05 01:15:31  5-MIN KDBQ 080715Z AUTO 14012KT 10SM CLR 14/09 A2992  1080 71 1200 140/12 RMK AO2 TSNO
94908KDBQ DBQ20050508012010505/08/05 01:20:31  5-MIN KDBQ 080720Z AUTO 14012KT 10SM CLR 14/09 A2991  1080 71 1200 140/12 RMK AO2 TSNO
94908KDBQ DBQ20050508012510505/08/05 01:25:31  5-MIN KDBQ 080725Z AUTO 14011KT 10SM CLR 14/09 A2991  1090 71 1200 130/11 RMK AO2 TSNO
94908KDBQ DBQ20050508013010505/08/05 01:30:31  5-MIN KDBQ 080730Z AUTO 14011KT 10SM CLR 14/09 A2991  1080 71 1200 140/11 RMK AO2 TSNO
94908KDBQ DBQ20050508013510505/08/05 01:35:31  5-MIN KDBQ 080735Z AUTO 14010KT 10SM CLR 14/09 A2991  1090 71 1200 140/10 RMK AO2 TSNO
94908KDBQ DBQ20050508014010505/08/05 01:40:31  5-MIN KDBQ 080740Z AUTO 14011KT 10SM CLR 14/09 A2991  1090 71 1200 140/11 RMK AO2 TSNO
94908KDBQ DBQ20050508014510505/08/05 01:45:31  5-MIN KDBQ 080745Z AUTO 14011KT 10SM CLR 14/09 A2991  1090 71 1300 140/11 RMK AO2 TSNO
94908KDBQ DBQ20050508015012205/08/05 01:50:31  5-MIN KDBQ 080750Z AUTO 14011KT 10SM CLR 13/09 A2991  1090 74 1200 140/11 RMK AO2 SLP125 T01330089 TSNO
94908KDBQ DBQ20050508015512205/08/05 01:55:31  5-MIN KDBQ 080755Z AUTO 14010KT 10SM CLR 13/09 A2992  1080 74 1200 140/10 RMK AO2 SLP128 T01330089 TSNO
94908KDBQ DBQ20050508020010505/08/05 02:00:31  5-MIN KDBQ 080800Z AUTO 14010KT 10SM CLR 13/09 A2990  1090 74 1200 140/10 RMK AO2 TSNO
94908KDBQ DBQ20050508020510505/08/05 02:05:31  5-MIN KDBQ 080805Z AUTO 14010KT 10SM CLR 13/09 A2991  1090 74 1200 140/10 RMK AO2 TSNO
94908KDBQ DBQ20050508021010505/08/05 02:10:31  5-MIN KDBQ 080810Z AUTO 14009KT 10SM CLR 13/09 A2990  1090 74 1200 140/09 RMK AO2 TSNO
94908KDBQ DBQ20050508021510505/08/05 02:15:31  5-MIN KDBQ 080815Z AUTO 14009KT 10SM CLR 13/09 A2991  1090 74 1200 140/09 RMK AO2 TSNO
94908KDBQ DBQ20050508022010505/08/05 02:20:31  5-MIN KDBQ 080820Z AUTO 14008KT 10SM CLR 13/09 A2991  1090 74 1200 140/08 RMK AO2 TSNO
94908KDBQ DBQ20050508022510505/08/05 02:25:31  5-MIN KDBQ 080825Z AUTO 15007KT 10SM CLR 13/09 A2991  1090 74 1200 150/07 RMK AO2 TSNO
94908KDBQ DBQ20050508023010505/08/05 02:30:31  5-MIN KDBQ 080830Z AUTO 16006KT 10SM CLR 13/09 A2991  1090 74 1200 160/06 RMK AO2 TSNO
94908KDBQ DBQ20050508023510505/08/05 02:35:31  5-MIN KDBQ 080835Z AUTO VRB05KT 10SM CLR 13/08 A2991  1090 71 1200 VRB/05 RMK AO2 TSNO
94908KDBQ DBQ20050508024010505/08/05 02:40:31  5-MIN KDBQ 080840Z AUTO VRB05KT 10SM CLR 13/09 A2991  1090 77 1100 VRB/05 RMK AO2 TSNO
94908KDBQ DBQ20050508024510505/08/05 02:45:31  5-MIN KDBQ 080845Z AUTO 22005KT 10SM CLR 13/09 A2991  1090 77 1100 220/05 RMK AO2 TSNO
94908KDBQ DBQ20050508025013005/08/05 02:50:31  5-MIN KDBQ 080850Z AUTO 21005KT 10SM FEW110 13/08 A2992 1070 71 1200 210/05 RMK AO2 SLP130 T01330083 50000 TSNO
94908KDBQ DBQ20050508025513005/08/05 02:55:31  5-MIN KDBQ 080855Z AUTO 21005KT 10SM SCT100 13/09 A2991 1090 74 1200 210/05 RMK AO2 SLP126 T01330089 58005 TSNO
94908KDBQ DBQ20050508030010705/08/05 03:00:31  5-MIN KDBQ 080900Z AUTO 22005KT 10SM BKN100 13/09 A2991 1090 74 1200 220/05 RMK AO2 TSNO
94908KDBQ DBQ20050508030510705/08/05 03:05:31  5-MIN KDBQ 080905Z AUTO 22006KT 10SM BKN100 13/09 A2991 1090 77 1100 210/06 RMK AO2 TSNO
94908KDBQ DBQ20050508031010705/08/05 03:10:31  5-MIN KDBQ 080910Z AUTO 20006KT 10SM BKN100 13/09 A2991 1090 77 1100 200/06 RMK AO2 TSNO
94908KDBQ DBQ20050508031510705/08/05 03:15:31  5-MIN KDBQ 080915Z AUTO 20008KT 10SM SCT100 13/09 A2991 1090 77 1100 200/08 RMK AO2 TSNO
94908KDBQ DBQ20050508032010705/08/05 03:20:31  5-MIN KDBQ 080920Z AUTO 18008KT 10SM SCT095 13/09 A2991 1090 77 1100 180/08 RMK AO2 TSNO
94908KDBQ DBQ20050508032510705/08/05 03:25:31  5-MIN KDBQ 080925Z AUTO 18009KT 10SM SCT100 13/08 A2991 1090 74 1100 180/09 RMK AO2 TSNO
94908KDBQ DBQ20050508033010705/08/05 03:30:31  5-MIN KDBQ 080930Z AUTO 21007KT 10SM BKN100 13/09 A2991 1080 77 1100 210/07 RMK AO2 TSNO
94908KDBQ DBQ20050508033510705/08/05 03:35:31  5-MIN KDBQ 080935Z AUTO 23006KT 10SM BKN100 12/09 A2992 1080 80 1000 230/06 RMK AO2 TSNO
94908KDBQ DBQ20050508034010705/08/05 03:40:31  5-MIN KDBQ 080940Z AUTO 22007KT 10SM SCT100 12/09 A2992 1080 80 1000 220/07 RMK AO2 TSNO
94908KDBQ DBQ20050508034510705/08/05 03:45:31  5-MIN KDBQ 080945Z AUTO 21006KT 10SM BKN100 12/09 A2992 1080 80 1000 210/06 RMK AO2 TSNO
94908KDBQ DBQ20050508035012405/08/05 03:50:31  5-MIN KDBQ 080950Z AUTO 21006KT 10SM BKN110 12/09 A2992 1080 80 1000 210/06 RMK AO2 SLP127 T01220089 TSNO
94908KDBQ DBQ20050508035512405/08/05 03:55:31  5-MIN KDBQ 080955Z AUTO 20007KT 9SM BKN110 12/09 A2992  1080 83 1000 200/07 RMK AO2 SLP128 T01220094 TSNO
94908KDBQ DBQ20050508040010705/08/05 04:00:31  5-MIN KDBQ 081000Z AUTO 20009KT 9SM BKN110 13/09 A2992  1080 80 1100 200/09 RMK AO2 TSNO
94908KDBQ DBQ20050508040510705/08/05 04:05:31  5-MIN KDBQ 081005Z AUTO 20009KT 10SM OVC110 13/09 A2992 1080 77 1200 200/09 RMK AO2 TSNO
94908KDBQ DBQ20050508041013005/08/05 04:10:31  5-MIN KDBQ 081010Z AUTO 21009KT 9SM -RA BKN100 OVC120  13/09 A2992 1080 77 1200 210/09 RMK AO2 RAB09 P0000 TSNO
94908KDBQ DBQ20050508041513005/08/05 04:15:31  5-MIN KDBQ 081015Z AUTO 20008KT 9SM -RA FEW075 OVC110  13/10 A2991 1080 80 1200 200/08 RMK AO2 RAB09 P0000 TSNO
94908KDBQ DBQ20050508042013805/08/05 04:20:31  5-MIN KDBQ 081020Z AUTO 20010KT 10SM -RA SCT065 BKN100  OVC120 13/10 A2992 1080 80 1200 200/10 RMK AO2 RAB09 P0000 TSNO
94908KDBQ DBQ20050508042513105/08/05 04:25:31  5-MIN KDBQ 081025Z AUTO 20008KT 10SM -RA FEW065 BKN100  13/10 A2991 1080 80 1200 200/08 RMK AO2 RAB09 P0000 TSNO
94908KDBQ DBQ20050508043012905/08/05 04:30:31  5-MIN KDBQ 081030Z AUTO 21009KT 10SM SCT070 BKN100 14/11 A2991 1080 80 1200 210/09 RMK AO2 RAB09E29 P0000 TSNO
94908KDBQ DBQ20050508043512905/08/05 04:35:31  5-MIN KDBQ 081035Z AUTO 22010KT 10SM BKN070 OVC100 14/11 A2991 1080 80 1300 220/10 RMK AO2 RAB09E29 P0000 TSNO
94908KDBQ DBQ20050508044012905/08/05 04:40:31  5-MIN KDBQ 081040Z AUTO 21011KT 10SM BKN070 BKN110 15/11 A2991 1080 77 1400 210/11 RMK AO2 RAB09E29 P0000 TSNO
94908KDBQ DBQ20050508044512905/08/05 04:45:31  5-MIN KDBQ 081045Z AUTO 21009KT 10SM SCT070 BKN110 15/11 A2992 1080 77 1400 200/09 RMK AO2 RAB09E29 P0000 TSNO
94908KDBQ DBQ20050508045014605/08/05 04:50:31  5-MIN KDBQ 081050Z AUTO 19009KT 10SM FEW075 OVC100 14/12 A2992 1080 83 1300 190/09 RMK AO2 RAB09E29 SLP128 P0000 T01440117 TSNO
94908KDBQ DBQ20050508045515505/08/05 04:55:31  5-MIN KDBQ 081055Z AUTO 20010KT 10SM FEW075 BKN100  OVC110 14/11 A2992 1080 80 1300 200/10 RMK AO2 RAB09E29 SLP128 P0000  T01440111 TSNO
94908KDBQ DBQ20050508050010305/08/05 05:00:31  5-MIN KDBQ 081100Z 20008KT 9SM FEW075 OVC100 14/12 A2992 1080 83 1300 200/08 RMK AO2
94908KDBQ DBQ20050508050510305/08/05 05:05:31  5-MIN KDBQ 081105Z 19008KT 9SM BKN100 OVC110 14/12 A2992 1080 83 1300 190/08 RMK AO2
94908KDBQ DBQ20050508051009705/08/05 05:10:31  5-MIN KDBQ 081110Z 19010KT 9SM OVC095 14/12 A2992 1080  83 1300 190/10 RMK AO2
94908KDBQ DBQ20050508051509705/08/05 05:15:31  5-MIN KDBQ 081115Z 18008KT 8SM OVC095 14/12 A2992 1080  83 1300 180/08 RMK AO2
94908KDBQ DBQ20050508052009705/08/05 05:20:31  5-MIN KDBQ 081120Z 19009KT 8SM OVC095 14/12 A2992 1080  83 1300 190/09 RMK AO2
94908KDBQ DBQ20050508052510305/08/05 05:25:31  5-MIN KDBQ 081125Z 17009KT 8SM BKN100 OVC120 14/12 A2992 1080 83 1300 170/09 RMK AO2
94908KDBQ DBQ20050508053009705/08/05 05:30:31  5-MIN KDBQ 081130Z 18009KT 8SM OVC100 14/12 A2992 1080  83 1300 180/09 RMK AO2
94908KDBQ DBQ20050508053509705/08/05 05:35:31  5-MIN KDBQ 081135Z 18009KT 8SM BKN110 14/12 A2992 1080  86 1300 180/09 RMK AO2
94908KDBQ DBQ20050508054009705/08/05 05:40:31  5-MIN KDBQ 081140Z 17011KT 8SM BKN110 14/12 A2991 1080  86 1300 170/11 RMK AO2
94908KDBQ DBQ20050508054509705/08/05 05:45:31  5-MIN KDBQ 081145Z 16010KT 8SM BKN110 15/12 A2993 1070  83 1400 160/10 RMK AO2
94908KDBQ DBQ20050508055014405/08/05 05:50:31  5-MIN KDBQ 081150Z 17009KT 8SM BKN110 14/12 A2991 1090  86 1300 160/09 RMK AO2 SLP126 60000 70015 T01440122 10150 20122 58005
94908KDBQ DBQ20050508055514405/08/05 05:55:31  5-MIN KDBQ 081155Z 18009KT 8SM BKN110 14/12 A2991 1080  86 1300 180/09 RMK AO2 SLP127 60000 70015 T01440122 10150 20122 50001
94908KDBQ DBQ20050508060009705/08/05 06:00:31  5-MIN KDBQ 081200Z 19009KT 8SM SCT110 14/12 A2993 1070  86 1300 190/09 RMK AO2
94908KDBQ DBQ20050508060509705/08/05 06:05:31  5-MIN KDBQ 081205Z 19009KT 8SM FEW090 14/12 A2992 1080  86 1300 190/09 RMK AO2
94908KDBQ DBQ20050508061009705/08/05 06:10:31  5-MIN KDBQ 081210Z 19009KT 8SM FEW090 15/12 A2992 1080  83 1400 190/09 RMK AO2
94908KDBQ DBQ20050508061509705/08/05 06:15:31  5-MIN KDBQ 081215Z 20008KT 8SM FEW110 15/13 A2993 1070  86 1400 190/08 RMK AO2
94908KDBQ DBQ20050508062009705/08/05 06:20:31  5-MIN KDBQ 081220Z 19007KT 8SM SCT110 16/13 A2992 1080  83 1400 190/07 RMK AO2
94908KDBQ DBQ20050508062509705/08/05 06:25:31  5-MIN KDBQ 081225Z 20008KT 9SM FEW120 16/13 A2991 1090  86 1400 190/08 RMK AO2
94908KDBQ DBQ20050508063009705/08/05 06:30:31  5-MIN KDBQ 081230Z 19008KT 9SM FEW120 16/13 A2992 1080  83 1500 190/08 RMK AO2
94908KDBQ DBQ20050508063509705/08/05 06:35:31  5-MIN KDBQ 081235Z 19007KT 9SM FEW120 16/13 A2992 1070  83 1400 190/07 RMK AO2
94908KDBQ DBQ20050508064009705/08/05 06:40:31  5-MIN KDBQ 081240Z 18007KT 9SM SCT120 16/13 A2993 1070  83 1400 180/07 RMK AO2
94908KDBQ DBQ20050508064509705/08/05 06:45:31  5-MIN KDBQ 081245Z 18008KT 9SM SCT120 16/13 A2992 1070  83 1500 180/08 RMK AO2
94908KDBQ DBQ20050508065011405/08/05 06:50:31  5-MIN KDBQ 081250Z 18010KT 9SM SCT120 17/13 A2993 1070  80 1600 180/10 RMK AO2 SLP131 T01670133
94908KDBQ DBQ20050508065511405/08/05 06:55:31  5-MIN KDBQ 081255Z 18007KT 9SM FEW120 17/13 A2993 1070  80 1600 180/07 RMK AO2 SLP131 T01670133
94908KDBQ DBQ20050508070009705/08/05 07:00:31  5-MIN KDBQ 081300Z 19008KT 9SM FEW120 17/13 A2993 1070  80 1600 190/08 RMK AO2
94908KDBQ DBQ20050508070509705/08/05 07:05:31  5-MIN KDBQ 081305Z 18010KT 9SM FEW120 17/13 A2993 1070  80 1600 180/10 RMK AO2
94908KDBQ DBQ20050508071009705/08/05 07:10:31  5-MIN KDBQ 081310Z 18009KT 9SM FEW110 17/13 A2993 1070  80 1600 180/09 RMK AO2
94908KDBQ DBQ20050508071509405/08/05 07:15:31  5-MIN KDBQ 081315Z 18009KT 9SM CLR 17/13 A2993 1070 80  1600 180/09 RMK AO2
94908KDBQ DBQ20050508072009405/08/05 07:20:31  5-MIN KDBQ 081320Z 18008KT 9SM CLR 17/13 A2993 1070 80  1500 180/08 RMK AO2
94908KDBQ DBQ20050508072509405/08/05 07:25:31  5-MIN KDBQ 081325Z 18010KT 9SM CLR 17/13 A2992 1080 80  1600 180/10 RMK AO2
94908KDBQ DBQ20050508073009405/08/05 07:30:31  5-MIN KDBQ 081330Z 18009KT 9SM CLR 17/13 A2994 1060 78  1600 180/09 RMK AO2
94908KDBQ DBQ20050508073509405/08/05 07:35:31  5-MIN KDBQ 081335Z 18009KT 10SM CLR 17/14 A2994 1060 80 1600 180/09 RMK AO2
94908KDBQ DBQ20050508074009405/08/05 07:40:31  5-MIN KDBQ 081340Z 18010KT 10SM CLR 18/14 A2994 1060 78 1700 180/10 RMK AO2
94908KDBQ DBQ20050508074509705/08/05 07:45:31  5-MIN KDBQ 081345Z 18009KT 10SM FEW080 18/14 A2993 1070 78 1700 180/09 RMK AO2
94908KDBQ DBQ20050508075011405/08/05 07:50:31  5-MIN KDBQ 081350Z 19008KT 10SM SCT080 18/14 A2993 1070 78 1700 190/08 RMK AO2 SLP134 T01830144
94908KDBQ DBQ20050508075511405/08/05 07:55:31  5-MIN KDBQ 081355Z 18008KT 10SM SCT080 18/14 A2993 1070 78 1700 180/08 RMK AO2 SLP133 T01830144
94908KDBQ DBQ20050508080009705/08/05 08:00:31  5-MIN KDBQ 081400Z 18010KT 10SM SCT080 18/14 A2993 1070 75 1700 180/10 RMK AO2
94908KDBQ DBQ20050508080509705/08/05 08:05:31  5-MIN KDBQ 081405Z 19009KT 10SM BKN080 19/14 A2993 1070 72 1800 190/09 RMK AO2
94908KDBQ DBQ20050508081009705/08/05 08:10:31  5-MIN KDBQ 081410Z 19010KT 10SM BKN085 19/14 A2993 1070 72 1800 190/10 RMK AO2
94908KDBQ DBQ20050508081509705/08/05 08:15:31  5-MIN KDBQ 081415Z 18010KT 10SM BKN085 19/14 A2993 1070 70 1900 180/10 RMK AO2
94908KDBQ DBQ20050508082009705/08/05 08:20:31  5-MIN KDBQ 081420Z 18009KT 10SM BKN085 19/13 A2992 1080 70 1800 170/09 RMK AO2
94908KDBQ DBQ20050508082509705/08/05 08:25:31  5-MIN KDBQ 081425Z 17013KT 10SM BKN085 19/14 A2992 1080 72 1900 170/13 RMK AO2
94908KDBQ DBQ20050508083009705/08/05 08:30:31  5-MIN KDBQ 081430Z 17012KT 10SM SCT085 20/14 A2992 1080 70 2000 170/12 RMK AO2
94908KDBQ DBQ20050508083509705/08/05 08:35:31  5-MIN KDBQ 081435Z 18013KT 10SM SCT085 21/14 A2992 1080 67 2000 180/13 RMK AO2
94908KDBQ DBQ20050508084009705/08/05 08:40:31  5-MIN KDBQ 081440Z 18014KT 10SM FEW085 21/14 A2992 1080 65 2000 180/14 RMK AO2
94908KDBQ DBQ20050508084509405/08/05 08:45:31  5-MIN KDBQ 081445Z 18012KT 10SM CLR 21/14 A2992 1080 65 2100 180/12 RMK AO2
94908KDBQ DBQ20050508085011705/08/05 08:50:31  5-MIN KDBQ 081450Z 19014KT 10SM CLR 21/14 A2992 1080 65 2100 180/14 RMK AO2 SLP128 T02110144 50001
94908KDBQ DBQ20050508085511705/08/05 08:55:31  5-MIN KDBQ 081455Z 18014KT 10SM CLR 21/14 A2992 1080 63 2100 180/14 RMK AO2 SLP127 T02110139 50001
94908KDBQ DBQ20050508090009405/08/05 09:00:31  5-MIN KDBQ 081500Z 18013KT 10SM CLR 22/15 A2992 1080 65 2100 180/13 RMK AO2
94908KDBQ DBQ20050508090509405/08/05 09:05:31  5-MIN KDBQ 081505Z 18012KT 10SM CLR 22/14 A2991 1080 63 2100 180/12 RMK AO2
94908KDBQ DBQ20050508091010005/08/05 09:10:31  5-MIN KDBQ 081510Z 19015G20KT 10SM CLR 22/14 A2991 1080 59 2200 190/15G20 RMK AO2
94908KDBQ DBQ20050508091510005/08/05 09:15:31  5-MIN KDBQ 081515Z 19013G20KT 10SM CLR 22/14 A2991 1080 59 2200 190/13G20 RMK AO2
94908KDBQ DBQ20050508092009405/08/05 09:20:31  5-MIN KDBQ 081520Z 19011KT 10SM CLR 22/14 A2992 1080 61 2200 190/11 RMK AO2
94908KDBQ DBQ20050508092509405/08/05 09:25:31  5-MIN KDBQ 081525Z 20012KT 10SM CLR 23/15 A2992 1080 61 2300 200/12 RMK AO2
94908KDBQ DBQ20050508093009405/08/05 09:30:31  5-MIN KDBQ 081530Z 19012KT 10SM CLR 22/14 A2991 1090 61 2200 190/12 RMK AO2
94908KDBQ DBQ20050508093509405/08/05 09:35:31  5-MIN KDBQ 081535Z 19011KT 10SM CLR 22/15 A2990 1090 63 2200 190/11 RMK AO2
94908KDBQ DBQ20050508094009405/08/05 09:40:31  5-MIN KDBQ 081540Z 20011KT 10SM CLR 22/15 A2990 1100 63 2200 200/11 RMK AO2
94908KDBQ DBQ20050508094509405/08/05 09:45:31  5-MIN KDBQ 081545Z 20010KT 10SM CLR 22/16 A2990 1100 65 2200 200/10 RMK AO2
94908KDBQ DBQ20050508095011105/08/05 09:50:31  5-MIN KDBQ 081550Z 19010KT 10SM CLR 23/15 A2990 1100 61 2300 190/10 RMK AO2 SLP121 T02280150
94908KDBQ DBQ20050508095511105/08/05 09:55:31  5-MIN KDBQ 081555Z 19011KT 10SM CLR 23/15 A2990 1100 61 2300 190/11 RMK AO2 SLP122 T02280150
94908KDBQ DBQ20050508100009405/08/05 10:00:31  5-MIN KDBQ 081600Z 20012KT 10SM CLR 23/14 A2990 1090 59 2300 190/12 RMK AO2
94908KDBQ DBQ20050508100510005/08/05 10:05:31  5-MIN KDBQ 081605Z 19015G19KT 10SM CLR 23/14 A2990 1090 57 2300 190/15G19 RMK AO2
94908KDBQ DBQ20050508101010005/08/05 10:10:31  5-MIN KDBQ 081610Z 20015G19KT 10SM CLR 23/14 A2990 1100 55 2400 200/15G19 RMK AO2
94908KDBQ DBQ20050508101509405/08/05 10:15:31  5-MIN KDBQ 081615Z 20016KT 10SM CLR 24/14 A2990 1100 55 2400 200/16 RMK AO2
94908KDBQ DBQ20050508102009405/08/05 10:20:31  5-MIN KDBQ 081620Z 19018KT 10SM CLR 24/14 A2990 1100 53 2400 190/18 RMK AO2
94908KDBQ DBQ20050508102509405/08/05 10:25:31  5-MIN KDBQ 081625Z 19014KT 10SM CLR 24/14 A2990 1090 55 2400 190/14 RMK AO2
94908KDBQ DBQ20050508103009405/08/05 10:30:31  5-MIN KDBQ 081630Z 20020KT 10SM CLR 24/14 A2990 1100 53 2400 200/20 RMK AO2
94908KDBQ DBQ20050508103509405/08/05 10:35:31  5-MIN KDBQ 081635Z 21015KT 10SM CLR 24/14 A2990 1100 53 2400 210/15 RMK AO2
94908KDBQ DBQ20050508104009405/08/05 10:40:31  5-MIN KDBQ 081640Z 21014KT 10SM CLR 24/14 A2990 1100 53 2500 210/14 RMK AO2
94908KDBQ DBQ20050508104509405/08/05 10:45:31  5-MIN KDBQ 081645Z 19014KT 10SM CLR 24/14 A2990 1100 53 2500 190/14 RMK AO2
94908KDBQ DBQ20050508105011405/08/05 10:50:31  5-MIN KDBQ 081650Z 20014KT 10SM FEW100 24/14 A2990 1100 53 2400 200/14 RMK AO2 SLP120 T02390139
94908KDBQ DBQ20050508105511405/08/05 10:55:31  5-MIN KDBQ 081655Z 21016KT 10SM FEW100 24/14 A2990 1100 55 2400 210/16 RMK AO2 SLP120 T02390144
94908KDBQ DBQ20050508110009705/08/05 11:00:31  5-MIN KDBQ 081700Z 19012KT 10SM FEW100 24/14 A2990 1100 53 2400 190/12 RMK AO2
94908KDBQ DBQ20050508110509705/08/05 11:05:31  5-MIN KDBQ 081705Z 19012KT 10SM FEW100 24/14 A2990 1100 55 2400 190/12 RMK AO2
94908KDBQ DBQ20050508111009705/08/05 11:10:31  5-MIN KDBQ 081710Z 19012KT 10SM FEW100 24/14 A2990 1100 55 2400 190/12 RMK AO2
94908KDBQ DBQ20050508111509705/08/05 11:15:31  5-MIN KDBQ 081715Z 20014KT 10SM FEW100 24/14 A2989 1100 53 2500 200/14 RMK AO2
94908KDBQ DBQ20050508112009405/08/05 11:20:31  5-MIN KDBQ 081720Z 20014KT 10SM CLR 24/14 A2989 1100 53 2500 190/14 RMK AO2
94908KDBQ DBQ20050508112509705/08/05 11:25:31  5-MIN KDBQ 081725Z 19013KT 10SM FEW060 24/14 A2989 1110 51 2500 190/13 RMK AO2
94908KDBQ DBQ20050508113010505/08/05 11:30:31  5-MIN KDBQ 081730Z 19012KT 10SM FEW055 SCT075 24/14  A2989 1110 51 2500 190/12 RMK AO2
94908KDBQ DBQ20050508113510505/08/05 11:35:31  5-MIN KDBQ 081735Z 18012KT 10SM FEW055 SCT070 26/15  A2988 1110 51 2600 180/12 RMK AO2
94908KDBQ DBQ20050508114009705/08/05 11:40:31  5-MIN KDBQ 081740Z 18015KT 10SM FEW055 26/14 A2988 1110 49 2600 180/15 RMK AO2
94908KDBQ DBQ20050508114510405/08/05 11:45:31  5-MIN KDBQ 081745Z 20014G20KT 10SM FEW055 26/14 A2988  1110 49 2600 200/14G20 RMK AO2
94908KDBQ DBQ20050508115013205/08/05 11:50:31  5-MIN KDBQ 081750Z 21015KT 10SM FEW055 25/14 A2988 1110 51 2600 210/15 RMK AO2 SLP115 T02500144 10256 20144 50001
94908KDBQ DBQ20050508115513205/08/05 11:55:31  5-MIN KDBQ 081755Z 20015KT 10SM FEW055 26/14 A2988 1120 49 2600 200/15 RMK AO2 SLP113 T02560144 10256 20144 58014
94908KDBQ DBQ20050508120009705/08/05 12:00:31  5-MIN KDBQ 081800Z 19013KT 10SM FEW055 26/14 A2988 1120 48 2600 190/13 RMK AO2
94908KDBQ DBQ20050508120509705/08/05 12:05:31  5-MIN KDBQ 081805Z 18013KT 10SM FEW055 26/14 A2987 1120 48 2600 180/13 RMK AO2
94908KDBQ DBQ20050508121009705/08/05 12:10:31  5-MIN KDBQ 081810Z 18014KT 10SM FEW055 26/14 A2987 1120 48 2700 180/14 RMK AO2
94908KDBQ DBQ20050508121509705/08/05 12:15:31  5-MIN KDBQ 081815Z 18014KT 10SM FEW055 26/14 A2987 1120 49 2600 180/14 RMK AO2
94908KDBQ DBQ20050508122010405/08/05 12:20:31  5-MIN KDBQ 081820Z 17016G22KT 10SM FEW055 26/14 A2987  1130 46 2700 170/16G22 RMK AO2
94908KDBQ DBQ20050508122510405/08/05 12:25:31  5-MIN KDBQ 081825Z 17016G22KT 10SM FEW055 26/14 A2988  1110 46 2700 170/16G22 RMK AO2
94908KDBQ DBQ20050508123010405/08/05 12:30:31  5-MIN KDBQ 081830Z 17019G23KT 10SM FEW055 26/14 A2988  1110 46 2700 170/19G23 RMK AO2
94908KDBQ DBQ20050508123510405/08/05 12:35:31  5-MIN KDBQ 081835Z 18019G23KT 10SM FEW055 26/14 A2987  1130 48 2600 180/19G23 RMK AO2
94908KDBQ DBQ20050508124010405/08/05 12:40:31  5-MIN KDBQ 081840Z 18017G22KT 10SM FEW055 25/13 A2988  1110 48 2600 180/17G22 RMK AO2
94908KDBQ DBQ20050508124510405/08/05 12:45:31  5-MIN KDBQ 081845Z 17015G22KT 10SM FEW055 25/14 A2988  1110 49 2600 170/15G22 RMK AO2
94908KDBQ DBQ20050508125012205/08/05 12:50:31  5-MIN KDBQ 081850Z 18016KT 10SM FEW055 SCT090 25/14  A2988 1110 49 2600 180/16 RMK AO2 SLP115 T02500139
94908KDBQ DBQ20050508125512805/08/05 12:55:31  5-MIN KDBQ 081855Z 18014G20KT 10SM FEW055 SCT095 25/14  A2988 1110 49 2600 180/14G20 RMK AO2 SLP115 T02500139
94908KDBQ DBQ20050508130010405/08/05 13:00:31  5-MIN KDBQ 081900Z 18016G23KT 10SM FEW055 25/14 A2988  1110 49 2600 180/16G23 RMK AO2
94908KDBQ DBQ20050508130510405/08/05 13:05:31  5-MIN KDBQ 081905Z 18020G23KT 10SM FEW095 25/14 A2988  1110 49 2600 180/20G23 RMK AO2
94908KDBQ DBQ20050508131010405/08/05 13:10:31  5-MIN KDBQ 081910Z 18016G25KT 10SM FEW090 24/14 A2988  1110 51 2500 180/16G25 RMK AO2
94908KDBQ DBQ20050508131510405/08/05 13:15:31  5-MIN KDBQ 081915Z 18016G25KT 10SM FEW090 24/14 A2989  1110 51 2500 180/16G25 RMK AO2
94908KDBQ DBQ20050508132010405/08/05 13:20:31  5-MIN KDBQ 081920Z 18020G24KT 10SM FEW090 25/14 A2989  1110 49 2600 180/20G24 RMK AO2
94908KDBQ DBQ20050508132510405/08/05 13:25:31  5-MIN KDBQ 081925Z 18016G24KT 10SM FEW090 24/14 A2988  1110 51 2500 180/16G24 RMK AO2
94908KDBQ DBQ20050508133010405/08/05 13:30:31  5-MIN KDBQ 081930Z 18014G22KT 10SM FEW090 24/14 A2989  1110 51 2500 180/14G22 RMK AO2
94908KDBQ DBQ20050508133509705/08/05 13:35:31  5-MIN KDBQ 081935Z 18014KT 10SM SCT085 24/14 A2988 1110 53 2500 180/14 RMK AO2
94908KDBQ DBQ20050508134009705/08/05 13:40:31  5-MIN KDBQ 081940Z 18012KT 10SM SCT085 24/14 A2988 1120 53 2500 180/12 RMK AO2
94908KDBQ DBQ20050508134509705/08/05 13:45:31  5-MIN KDBQ 081945Z 18014KT 10SM FEW090 25/15 A2987 1120 53 2600 180/14 RMK AO2
94908KDBQ DBQ20050508135011405/08/05 13:50:31  5-MIN KDBQ 081950Z 19013KT 10SM SCT090 24/14 A2988 1120 53 2500 190/13 RMK AO2 SLP114 T02440144
94908KDBQ DBQ20050508135511405/08/05 13:55:31  5-MIN KDBQ 081955Z 19013KT 10SM FEW085 25/14 A2987 1120 51 2600 190/13 RMK AO2 SLP112 T02500144
94908KDBQ DBQ20050508140009705/08/05 14:00:31  5-MIN KDBQ 082000Z 18015KT 10SM FEW090 25/14 A2987 1120 51 2600 180/15 RMK AO2
94908KDBQ DBQ20050508140509705/08/05 14:05:31  5-MIN KDBQ 082005Z 18014KT 10SM SCT090 24/14 A2987 1120 53 2500 180/14 RMK AO2
94908KDBQ DBQ20050508141010405/08/05 14:10:31  5-MIN KDBQ 082010Z 18018G21KT 10SM SCT085 24/14 A2987  1120 51 2500 180/18G21 RMK AO2
94908KDBQ DBQ20050508141509705/08/05 14:15:31  5-MIN KDBQ 082015Z 18017KT 10SM BKN080 24/14 A2987 1120 51 2500 170/17 RMK AO2
94908KDBQ DBQ20050508142009705/08/05 14:20:31  5-MIN KDBQ 082020Z 18015KT 10SM SCT080 24/14 A2987 1120 51 2500 180/15 RMK AO2
94908KDBQ DBQ20050508142509705/08/05 14:25:31  5-MIN KDBQ 082025Z 18014KT 10SM SCT080 24/14 A2987 1130 51 2500 180/14 RMK AO2
94908KDBQ DBQ20050508143010405/08/05 14:30:31  5-MIN KDBQ 082030Z 19018G22KT 10SM BKN080 24/14 A2987  1120 51 2500 190/18G22 RMK AO2
94908KDBQ DBQ20050508143510405/08/05 14:35:31  5-MIN KDBQ 082035Z 18015G22KT 10SM BKN080 24/14 A2987  1120 55 2400 180/15G22 RMK AO2
94908KDBQ DBQ20050508144010405/08/05 14:40:31  5-MIN KDBQ 082040Z 18013G20KT 10SM BKN080 24/14 A2987  1120 55 2400 180/13G20 RMK AO2
94908KDBQ DBQ20050508144509705/08/05 14:45:31  5-MIN KDBQ 082045Z 18012KT 10SM BKN080 24/14 A2987 1120 55 2400 180/12 RMK AO2
94908KDBQ DBQ20050508145012005/08/05 14:50:31  5-MIN KDBQ 082050Z 18011KT 10SM BKN080 24/14 A2987 1120 53 2500 180/11 RMK AO2 SLP112 T02440144 58014
94908KDBQ DBQ20050508145512005/08/05 14:55:31  5-MIN KDBQ 082055Z 19014KT 10SM BKN080 24/14 A2987 1120 51 2500 190/14 RMK AO2 SLP112 T02440139 58002
94908KDBQ DBQ20050508150010505/08/05 15:00:31  5-MIN KDBQ 082100Z 18012KT 10SM BKN080 BKN100 24/14  A2987 1120 55 2400 180/12 RMK AO2
94908KDBQ DBQ20050508150512005/08/05 15:05:31  5-MIN KDBQ 082105Z 18012KT 9SM -RA BKN075 BKN090 23/15  A2987 1130 59 2400 180/12 RMK AO2 RAB04 P0000
94908KDBQ DBQ20050508151012005/08/05 15:10:31  5-MIN KDBQ 082110Z 19011KT 7SM -RA FEW050 BKN080 23/16  A2988 1120 63 2300 190/11 RMK AO2 RAB04 P0000
94908KDBQ DBQ20050508151512005/08/05 15:15:31  5-MIN KDBQ 082115Z 19008KT 7SM -RA FEW050 BKN080 22/16  A2988 1120 68 2300 190/08 RMK AO2 RAB04 P0001
94908KDBQ DBQ20050508152012005/08/05 15:20:31  5-MIN KDBQ 082120Z 20008KT 8SM -RA FEW047 BKN080 22/17  A2988 1120 70 2300 200/08 RMK AO2 RAB04 P0001
94908KDBQ DBQ20050508152512005/08/05 15:25:31  5-MIN KDBQ 082125Z 19008KT 9SM -RA SCT060 OVC080 22/17  A2988 1120 70 2300 190/08 RMK AO2 RAB04 P0001
94908KDBQ DBQ20050508153012005/08/05 15:30:31  5-MIN KDBQ 082130Z 19008KT 9SM -RA FEW060 OVC085 22/17  A2988 1120 70 2300 190/08 RMK AO2 RAB04 P0001
94908KDBQ DBQ20050508153511805/08/05 15:35:31  5-MIN KDBQ 082135Z 19009KT 9SM FEW040 OVC085 22/16 A2987 1120 68 2300 190/09 RMK AO2 RAB04E32 P0001
94908KDBQ DBQ20050508154012605/08/05 15:40:31  5-MIN KDBQ 082140Z 20009KT 9SM -RA FEW043 SCT070 OVC085 22/16 A2988 1120 68 2300 190/09 RMK AO2 RAB04 P0001
94908KDBQ DBQ20050508154512705/08/05 15:45:31  5-MIN KDBQ 082145Z 20010KT 10SM -RA FEW047 SCT070 OVC085 22/16 A2988 1120 68 2300 200/10 RMK AO2 RAB04 P0001
94908KDBQ DBQ20050508155014405/08/05 15:50:31  5-MIN KDBQ 082150Z 21011KT 10SM FEW047 BKN070 OVC085  22/16 A2988 1120 70 2200 210/11 RMK AO2 RAB04E47 SLP116 P0001 T02170161
94908KDBQ DBQ20050508155517805/08/05 15:55:31  5-MIN KDBQ 082155Z 21019G22KT 10SM BKN070 OVC085 22/15  A2988 1120 65 2200 210/19G22 RMK AO2 RAB04E47 SLP116 TSRA W-NW MOV ESE OCNL LTGICCCG NW P0001 T02170150
94908KDBQ DBQ20050508160012205/08/05 16:00:31  5-MIN KDBQ 082200Z 20019KT 9SM -RA BKN070 OVC090 21/15  A2989 1110 68 2100 200/19 RMK AO2 RAB2159 P0000
94908KDBQ DBQ20050508160519805/08/05 16:05:31  5-MIN KDBQ 082205Z 20015G29KT 3SM +TSRA FEW011 BKN070  OVC090 20/16 A2989 1110 75 2000 200/15G29 RMK AO2 PK WND 17029/2203  TSB01RAB2159 TSRA OVHD MOV SE OCNL LTGICCCCG OVHD P0004
94908KDBQ DBQ20050508161019805/08/05 16:10:31  5-MIN KDBQ 082210Z 25016G29KT 3SM -TSRA FEW011 BKN070  OVC090 19/16 A2990 1100 78 1900 250/16G29 RMK AO2 PK WND 17029/2203  TSB01RAB2159 TSRA OVHD MOV SE OCNL LTGICCCCG OVHD P0006
94908KDBQ DBQ20050508161519405/08/05 16:15:31  5-MIN KDBQ 082215Z 25018G22KT 3SM -TSRA FEW013 BKN065  OVC090 19/16 A2989 1100 81 1900 250/18G22 RMK AO2 PK WND 17029/2203  TSB01RAB2159 TSRA NE MOV NE OCNL LTGICCCCG NE P0006
94908KDBQ DBQ20050508162020505/08/05 16:20:31  5-MIN KDBQ 082220Z 25014G22KT 9SM -TSRA FEW013 SCT065  OVC090 18/16 A2989 1110 84 1800 250/14G22 RMK AO2 PK WND 17029/2203 WSHFT  2203 TSB01RAB2159 TSRA NE MOV NE OCNL LTGICCCCG NE P0006
94908KDBQ DBQ20050508162517805/08/05 16:25:31  5-MIN KDBQ 082225Z 24016KT 8SM FEW013 SCT065 BKN090  19/16 A2988 1110 84 1900 240/16 RMK AO2 PK WND 17029/2203 WSHFT 2203  TSB01E21RAB2159E21 TSRA MVD NE P0006
94908KDBQ DBQ20050508163017805/08/05 16:30:31  5-MIN KDBQ 082230Z 24015KT 7SM -RA FEW026 BKN090 BKN110 19/17 A2988 1110 87 1900 240/15 RMK AO2 PK WND 17029/2203 WSHFT 2203  TSB01E21RAB2159 TSRA MVD NE P0006
94908KDBQ DBQ20050508163517505/08/05 16:35:31  5-MIN KDBQ 082235Z 24015KT 6SM -RA BR FEW050 SCT090  19/17 A2988 1110 87 1900 230/15 RMK AO2 PK WND 17029/2203 WSHFT 2203  TSB01E21RAB2159 TSRA MVD NE P0006
94908KDBQ DBQ20050508164016505/08/05 16:40:31  5-MIN KDBQ 082240Z 23014KT 7SM -RA SCT090 19/17 A2988  1110 90 1900 230/14 RMK AO2 PK WND 17029/2203 WSHFT 2203 TSB01E21RAB2159  TSRA MVD NE P0006
94908KDBQ DBQ20050508164517205/08/05 16:45:31  5-MIN KDBQ 082245Z 23012KT 7SM -RA FEW090 SCT110 19/17  A2988 1110 90 1900 230/12 RMK AO2 PK WND 17029/2203 WSHFT 2203  TSB01E21RAB2159 TSRA MVD NE P0006
94908KDBQ DBQ20050508165018705/08/05 16:50:31  5-MIN KDBQ 082250Z 23011KT 7SM FEW085 SCT110 19/17 A2988 1110 90 1900 220/11 RMK AO2 PK WND 17029/2203 WSHFT 2203  TSB01E21RAB2159E49 SLP118 TSRA MVD NE P0006 T01890172
94908KDBQ DBQ20050508165518705/08/05 16:55:31  5-MIN KDBQ 082255Z 22012KT 7SM FEW085 SCT100 19/17 A2988 1110 90 1900 220/12 RMK AO2 PK WND 17029/2203 WSHFT 2203  TSB01E21RAB2159E49 SLP118 TSRA MVD NE P0006 T01890172
94908KDBQ DBQ20050508170009705/08/05 17:00:31  5-MIN KDBQ 082300Z 22011KT 7SM BKN100 19/17 A2989 1110  87 1900 220/11 RMK AO2
94908KDBQ DBQ20050508170510305/08/05 17:05:31  5-MIN KDBQ 082305Z 22012KT 7SM FEW080 BKN100 19/17 A2989 1110 87 1900 220/12 RMK AO2
94908KDBQ DBQ20050508171011305/08/05 17:10:31  5-MIN KDBQ 082310Z 21012KT 7SM -RA BKN100 19/17 A2989  1110 87 1900 210/12 RMK AO2 RAB08 P0000
94908KDBQ DBQ20050508171512005/08/05 17:15:31  5-MIN KDBQ 082315Z 21012KT 7SM -RA FEW070 BKN100 19/17  A2989 1110 87 1900 210/12 RMK AO2 RAB08 P0000
94908KDBQ DBQ20050508172011805/08/05 17:20:31  5-MIN KDBQ 082320Z 21014KT 7SM FEW050 OVC100 19/17 A2989 1100 87 1900 200/14 RMK AO2 RAB08E18 P0000
94908KDBQ DBQ20050508172512305/08/05 17:25:31  5-MIN KDBQ 082325Z 20014KT 6SM -RA BR FEW041 OVC100  19/17 A2989 1110 87 1900 200/14 RMK AO2 RAB08 P0000
94908KDBQ DBQ20050508173012005/08/05 17:30:31  5-MIN KDBQ 082330Z 19013KT 6SM -RA FEW044 OVC100 19/16  A2988 1110 84 1900 190/13 RMK AO2 RAB08 P0000
94908KDBQ DBQ20050508173512605/08/05 17:35:31  5-MIN KDBQ 082335Z 18013KT 8SM -RA FEW040 BKN090 OVC110 19/16 A2989 1110 84 1900 180/13 RMK AO2 RAB08 P0000
94908KDBQ DBQ20050508174012005/08/05 17:40:31  5-MIN KDBQ 082340Z 17013KT 7SM -RA FEW043 OVC095 19/16  A2989 1110 84 1900 170/13 RMK AO2 RAB08 P0000
94908KDBQ DBQ20050508174512005/08/05 17:45:31  5-MIN KDBQ 082345Z 18012KT 7SM -RA FEW032 OVC090 19/16  A2989 1110 84 1900 170/12 RMK AO2 RAB08 P0000
94908KDBQ DBQ20050508175016105/08/05 17:50:31  5-MIN KDBQ 082350Z 18011KT 6SM -RA FEW028 OVC090 19/16  A2988 1110 84 1900 180/11 RMK AO2 RAB08 SLP117 P0001 60008 T01890161 10261 20183 58002
94908KDBQ DBQ20050508175516105/08/05 17:55:31  5-MIN KDBQ 082355Z 18011KT 6SM -RA SCT021 OVC090 19/16  A2988 1120 84 1900 180/11 RMK AO2 RAB08 SLP116 P0001 60008 T01890161 10261 20183 50003
94908KDBQ DBQ20050508180012005/08/05 18:00:31  5-MIN KDBQ 090000Z 18012KT 6SM -RA SCT019 BKN080 OVC090 19/16 A2988 1120 84 1900 180/12 RMK AO2 P0001
94908KDBQ DBQ20050508180511705/08/05 18:05:31  5-MIN KDBQ 090005Z 18013KT 6SM -RA BR SCT019 BKN090  18/16 A2987 1120 87 1800 170/13 RMK AO2 P0001
94908KDBQ DBQ20050508181011405/08/05 18:10:31  5-MIN KDBQ 090010Z 17013KT 7SM -RA SCT019 BKN085 18/16  A2987 1130 87 1800 170/13 RMK AO2 P0001
94908KDBQ DBQ20050508181511505/08/05 18:15:31  5-MIN KDBQ 090015Z 18012KT 8SM SCT025 SCT085 18/16 A2986 1130 87 1800 180/12 RMK AO2 RAE11 P0001
94908KDBQ DBQ20050508182010705/08/05 18:20:31  5-MIN KDBQ 090020Z 18010KT 7SM -RA SCT025 18/16 A2987  1130 87 1800 180/10 RMK AO2 P0001
94908KDBQ DBQ20050508182511405/08/05 18:25:31  5-MIN KDBQ 090025Z 18010KT 7SM -RA SCT027 SCT095 18/16  A2986 1130 87 1800 180/10 RMK AO2 P0001
94908KDBQ DBQ20050508183011505/08/05 18:30:31  5-MIN KDBQ 090030Z 18008KT 8SM FEW031 SCT100 18/16 A2986 1130 87 1800 180/08 RMK AO2 RAE28 P0001
94908KDBQ DBQ20050508183512505/08/05 18:35:31  5-MIN KDBQ 090035Z AUTO 19009KT 7SM FEW035 BKN100 18/16 A2985 1140 90 1800 190/09 RMK AO2 RAE28 P0001 TSNO
94908KDBQ DBQ20050508184012505/08/05 18:40:31  5-MIN KDBQ 090040Z AUTO 21007KT 7SM FEW050 BKN100 18/16 A2985 1150 90 1800 200/07 RMK AO2 RAE28 P0001 TSNO
94908KDBQ DBQ20050508184512905/08/05 18:45:31  5-MIN KDBQ 090045Z AUTO 21006KT 6SM BR FEW055 BKN110  18/16 A2985 1150 90 1800 210/06 RMK AO2 RAE28 P0001 TSNO
94908KDBQ DBQ20050508185013905/08/05 18:50:31  5-MIN KDBQ 090050Z AUTO 22006KT 6SM BR BKN110 17/16  A2986 1140 93 1700 220/06 RMK AO2 RAE28 SLP108 P0001 T01720161 TSNO
94908KDBQ DBQ20050508185513905/08/05 18:55:31  5-MIN KDBQ 090055Z AUTO 23004KT 6SM BR BKN110 17/16  A2984 1150 93 1700 220/04 RMK AO2 RAE28 SLP103 P0001 T01720161 TSNO
94908KDBQ DBQ20050508190011005/08/05 19:00:31  5-MIN KDBQ 090100Z AUTO 23004KT 6SM BR SCT110 17/16  A2984 1150 93 1700 230/04 RMK AO2 TSNO
94908KDBQ DBQ20050508190511005/08/05 19:05:31  5-MIN KDBQ 090105Z AUTO 22004KT 6SM BR FEW110 17/16  A2985 1140 90 1700 220/04 RMK AO2 TSNO
94908KDBQ DBQ20050508191011005/08/05 19:10:31  5-MIN KDBQ 090110Z AUTO 22005KT 6SM BR FEW110 17/16  A2986 1140 90 1700 210/05 RMK AO2 TSNO
94908KDBQ DBQ20050508191510705/08/05 19:15:31  5-MIN KDBQ 090115Z AUTO 21004KT 6SM BR CLR 17/16 A2984  1150 90 1700 200/04 RMK AO2 TSNO
94908KDBQ DBQ20050508192010705/08/05 19:20:31  5-MIN KDBQ 090120Z AUTO 17005KT 6SM BR CLR 17/16 A2985  1140 93 1600 170/05 RMK AO2 TSNO
94908KDBQ DBQ20050508192510705/08/05 19:25:31  5-MIN KDBQ 090125Z AUTO 16007KT 6SM BR CLR 17/16 A2985  1150 90 1700 160/07 RMK AO2 TSNO
94908KDBQ DBQ20050508193010305/08/05 19:30:31  5-MIN KDBQ 090130Z AUTO 16006KT 7SM CLR 17/16 A2984 1150 90 1700 160/06 RMK AO2 TSNO
94908KDBQ DBQ20050508193510305/08/05 19:35:31  5-MIN KDBQ 090135Z AUTO 18006KT 7SM CLR 17/16 A2984 1150 90 1700 180/06 RMK AO2 TSNO
94908KDBQ DBQ20050508194010305/08/05 19:40:31  5-MIN KDBQ 090140Z AUTO 18006KT 7SM CLR 17/16 A2985 1140 90 1700 180/06 RMK AO2 TSNO
94908KDBQ DBQ20050508194510305/08/05 19:45:31  5-MIN KDBQ 090145Z AUTO 19005KT 7SM CLR 17/16 A2985 1140 90 1700 190/05 RMK AO2 TSNO
94908KDBQ DBQ20050508195012405/08/05 19:50:31  5-MIN KDBQ 090150Z AUTO 18005KT 7SM SCT090 17/16 A2984  1150 90 1700 180/05 RMK AO2 SLP103 T01720156 TSNO
94908KDBQ DBQ20050508195512405/08/05 19:55:31  5-MIN KDBQ 090155Z AUTO 17006KT 7SM BKN090 17/16 A2985  1140 90 1700 170/06 RMK AO2 SLP106 T01720156 TSNO
94908KDBQ DBQ20050508200010705/08/05 20:00:31  5-MIN KDBQ 090200Z AUTO 18005KT 7SM BKN085 17/16 A2985  1140 90 1700 180/05 RMK AO2 TSNO
94908KDBQ DBQ20050508200510705/08/05 20:05:31  5-MIN KDBQ 090205Z AUTO 20005KT 8SM BKN090 17/16 A2985  1150 90 1700 200/05 RMK AO2 TSNO
94908KDBQ DBQ20050508201010705/08/05 20:10:31  5-MIN KDBQ 090210Z AUTO 22003KT 7SM OVC090 17/16 A2986  1140 93 1600 220/03 RMK AO2 TSNO
94908KDBQ DBQ20050508201510705/08/05 20:15:31  5-MIN KDBQ 090215Z AUTO 21005KT 7SM OVC090 17/16 A2986  1140 93 1600 210/05 RMK AO2 TSNO
94908KDBQ DBQ20050508202010705/08/05 20:20:31  5-MIN KDBQ 090220Z AUTO 20008KT 8SM OVC090 17/16 A2985  1150 90 1700 200/08 RMK AO2 TSNO
94908KDBQ DBQ20050508202510705/08/05 20:25:31  5-MIN KDBQ 090225Z AUTO 21008KT 9SM OVC090 17/15 A2986  1140 87 1700 210/08 RMK AO2 TSNO
94908KDBQ DBQ20050508203010705/08/05 20:30:31  5-MIN KDBQ 090230Z AUTO 21006KT 9SM OVC090 17/15 A2986  1140 87 1700 210/06 RMK AO2 TSNO
94908KDBQ DBQ20050508203510705/08/05 20:35:31  5-MIN KDBQ 090235Z AUTO 22006KT 9SM OVC090 17/15 A2985  1150 87 1700 220/06 RMK AO2 TSNO
94908KDBQ DBQ20050508204010705/08/05 20:40:31  5-MIN KDBQ 090240Z AUTO 23007KT 9SM OVC095 17/15 A2986  1140 87 1700 230/07 RMK AO2 TSNO
94908KDBQ DBQ20050508204510705/08/05 20:45:31  5-MIN KDBQ 090245Z AUTO 23007KT 9SM OVC095 17/15 A2985  1140 87 1700 220/07 RMK AO2 TSNO
94908KDBQ DBQ20050508205013605/08/05 20:50:31  5-MIN KDBQ 090250Z AUTO 22006KT 10SM OVC095 17/15 A2985 1140 87 1700 220/06 RMK AO2 SLP105 60001 T01720150 50003 TSNO
94908KDBQ DBQ20050508205513605/08/05 20:55:31  5-MIN KDBQ 090255Z AUTO 21005KT 10SM OVC095 17/15 A2986 1140 87 1700 200/05 RMK AO2 SLP107 60001 T01720150 55007 TSNO
94908KDBQ DBQ20050508210010705/08/05 21:00:31  5-MIN KDBQ 090300Z AUTO 00000KT 10SM OVC095 17/15 A2985 1140 87 1700 000/00 RMK AO2 TSNO
94908KDBQ DBQ20050508210510705/08/05 21:05:31  5-MIN KDBQ 090305Z AUTO 19004KT 10SM OVC090 17/15 A2985 1140 87 1700 190/04 RMK AO2 TSNO
94908KDBQ DBQ20050508211010705/08/05 21:10:31  5-MIN KDBQ 090310Z AUTO 20005KT 10SM OVC090 17/15 A2986 1140 90 1600 200/05 RMK AO2 TSNO
94908KDBQ DBQ20050508211511405/08/05 21:15:31  5-MIN KDBQ 090315Z AUTO 18006KT 10SM SCT080 OVC100 17/15 A2985 1150 90 1600 180/06 RMK AO2 TSNO
94908KDBQ DBQ20050508212011405/08/05 21:20:31  5-MIN KDBQ 090320Z AUTO 18006KT 10SM SCT080 OVC100 17/15 A2986 1140 87 1700 180/06 RMK AO2 TSNO
94908KDBQ DBQ20050508212511305/08/05 21:25:31  5-MIN KDBQ 090325Z AUTO 17006KT 9SM BKN080 OVC100 17/15 A2986 1140 90 1600 170/06 RMK AO2 TSNO
94908KDBQ DBQ20050508213011305/08/05 21:30:31  5-MIN KDBQ 090330Z AUTO 18005KT 9SM BKN080 OVC100 17/15 A2985 1150 90 1600 180/05 RMK AO2 TSNO
94908KDBQ DBQ20050508213511305/08/05 21:35:31  5-MIN KDBQ 090335Z AUTO 18005KT 9SM BKN075 OVC100 17/15 A2986 1140 90 1600 180/05 RMK AO2 TSNO
94908KDBQ DBQ20050508214011305/08/05 21:40:31  5-MIN KDBQ 090340Z AUTO 18005KT 9SM BKN075 OVC100 17/15 A2986 1140 90 1600 170/05 RMK AO2 TSNO
94908KDBQ DBQ20050508214510705/08/05 21:45:31  5-MIN KDBQ 090345Z AUTO 19006KT 9SM OVC075 17/15 A2985  1140 90 1600 190/06 RMK AO2 TSNO
94908KDBQ DBQ20050508215012405/08/05 21:50:31  5-MIN KDBQ 090350Z AUTO 20007KT 9SM OVC070 17/15 A2985  1140 90 1600 200/07 RMK AO2 SLP105 T01670150 TSNO
94908KDBQ DBQ20050508215514005/08/05 21:55:31  5-MIN KDBQ 090355Z AUTO 19006KT 9SM -RA OVC070 17/15  A2986 1130 90 1600 190/06 RMK AO2 RAB55 SLP109 P0000 T01670150 TSNO
94908KDBQ DBQ20050508220011705/08/05 22:00:31  5-MIN KDBQ 090400Z AUTO 20005KT 9SM -RA OVC070 17/15  A2986 1140 90 1600 190/05 RMK AO2 P0000 TSNO
94908KDBQ DBQ20050508220511905/08/05 22:05:31  5-MIN KDBQ 090405Z AUTO 20005KT 10SM OVC070 17/15 A2985 1140 90 1600 200/05 RMK AO2 RAE05 P0000 TSNO
94908KDBQ DBQ20050508221011905/08/05 22:10:31  5-MIN KDBQ 090410Z AUTO 21007KT 10SM OVC065 17/15 A2986 1130 90 1600 210/07 RMK AO2 RAE05 P0000 TSNO
94908KDBQ DBQ20050508221511905/08/05 22:15:31  5-MIN KDBQ 090415Z AUTO 20007KT 10SM OVC060 17/14 A2985 1140 83 1700 200/07 RMK AO2 RAE05 P0000 TSNO
94908KDBQ DBQ20050508222011905/08/05 22:20:31  5-MIN KDBQ 090420Z AUTO 20007KT 10SM OVC060 17/15 A2987 1130 90 1600 200/07 RMK AO2 RAE05 P0000 TSNO
94908KDBQ DBQ20050508222512605/08/05 22:25:31  5-MIN KDBQ 090425Z AUTO 21010KT 8SM -RA OVC065 17/15  A2988 1120 90 1600 200/10 RMK AO2 RAE05B24 P0000 TSNO
94908KDBQ DBQ20050508223013505/08/05 22:30:31  5-MIN KDBQ 090430Z AUTO 23007KT 6SM -RA BR BKN065 OVC080 17/14 A2986 1140 86 1600 230/07 RMK AO2 RAE05B24 P0002 TSNO
94908KDBQ DBQ20050508223512605/08/05 22:35:31  5-MIN KDBQ 090435Z AUTO 22006KT 8SM -RA OVC070 17/14  A2985 1140 86 1600 220/06 RMK AO2 RAE05B24 P0002 TSNO
94908KDBQ DBQ20050508224012605/08/05 22:40:31  5-MIN KDBQ 090440Z AUTO 21005KT 9SM -RA OVC070 17/14  A2986 1130 86 1600 210/05 RMK AO2 RAE05B24 P0002 TSNO
94908KDBQ DBQ20050508224512605/08/05 22:45:31  5-MIN KDBQ 090445Z AUTO 18005KT 9SM -RA OVC070 17/14  A2986 1140 86 1600 180/05 RMK AO2 RAE05B24 P0002 TSNO
94908KDBQ DBQ20050508225014305/08/05 22:50:31  5-MIN KDBQ 090450Z AUTO 18007KT 9SM -RA OVC075 17/14  A2987 1120 86 1600 180/07 RMK AO2 RAE05B24 SLP110 P0002 T01670144 TSNO
94908KDBQ DBQ20050508225515105/08/05 22:55:31  5-MIN KDBQ 090455Z AUTO 18005KT 9SM -RA FEW044 OVC070  17/14 A2988 1120 86 1600 180/05 RMK AO2 RAE05B24 SLP112 P0002 T01670144  TSNO
94908KDBQ DBQ20050508230012405/08/05 23:00:31  5-MIN KDBQ 090500Z AUTO 19006KT 7SM -RA SCT046 OVC070  17/14 A2987 1130 86 1600 190/06 RMK AO2 P0001 TSNO
94908KDBQ DBQ20050508230513105/08/05 23:05:31  5-MIN KDBQ 090505Z AUTO 23005KT 7SM -RA FEW044 BKN070  OVC090 17/14 A2987 1120 86 1600 230/05 RMK AO2 P0001 TSNO
94908KDBQ DBQ20050508231012605/08/05 23:10:31  5-MIN KDBQ 090510Z AUTO 24006KT 6SM -RA BR BKN046 OVC075 16/14 A2986 1130 90 1600 240/06 RMK AO2 P0001 TSNO
94908KDBQ DBQ20050508231512605/08/05 23:15:31  5-MIN KDBQ 090515Z AUTO 21006KT 6SM -RA BR BKN048 OVC080 16/14 A2987 1130 90 1600 210/06 RMK AO2 P0002 TSNO
94908KDBQ DBQ20050508232013105/08/05 23:20:31  5-MIN KDBQ 090520Z AUTO 20007KT 8SM -RA FEW045 BKN055  OVC090 16/14 A2988 1120 90 1500 200/07 RMK AO2 P0002 TSNO
94908KDBQ DBQ20050508232513205/08/05 23:25:31  5-MIN KDBQ 090525Z AUTO 20005KT 10SM -RA FEW045 SCT055  OVC090 16/14 A2987 1130 93 1500 200/05 RMK AO2 P0002 TSNO
94908KDBQ DBQ20050508233012605/08/05 23:30:31  5-MIN KDBQ 090530Z AUTO 18006KT 10SM SCT050 OVC095 16/14 A2986 1130 93 1500 180/06 RMK AO2 RAE26 P0002 TSNO
94908KDBQ DBQ20050508233512505/08/05 23:35:31  5-MIN KDBQ 090535Z AUTO 19005KT 9SM FEW050 OVC090 16/14 A2987 1120 93 1500 190/05 RMK AO2 RAE26 P0002 TSNO
94908KDBQ DBQ20050508234012405/08/05 23:40:31  5-MIN KDBQ 090540Z AUTO 20005KT 7SM -RA FEW065 OVC090  16/14 A2986 1140 93 1500 190/05 RMK AO2 P0002 TSNO
94908KDBQ DBQ20050508234512605/08/05 23:45:31  5-MIN KDBQ 090545Z AUTO 20006KT 6SM -RA BR FEW060 OVC090 16/14 A2986 1140 93 1500 200/06 RMK AO2 P0002 TSNO
94908KDBQ DBQ20050508235017705/08/05 23:50:31  5-MIN KDBQ 090550Z AUTO 20006KT 5SM -RA BR SCT055 OVC090 16/14 A2987 1130 93 1500 200/06 RMK AO2 SLP109 P0003 60006 T01560144 10189 20156 402610122 55007 TSNO
94908KDBQ DBQ20050508235517705/08/05 23:55:31  5-MIN KDBQ 090555Z AUTO 20009KT 5SM -RA BR FEW050 OVC090 16/14 A2986 1130 90 1600 190/09 RMK AO2 SLP107 P0004 60007 T01610144 10189 20156 402610122 50001 TSNO
94908KDBQ DBQ20050509000012605/09/05 00:00:38  5-MIN KDBQ 090600Z AUTO 19010KT 6SM -RA BR FEW055 OVC090 16/14 A2986 1140 90 1600 190/10 RMK AO2 P0000 TSNO
94908KDBQ DBQ20050509000512605/09/05 00:05:31  5-MIN KDBQ 090605Z AUTO 20010KT 6SM -RA BR BKN060 OVC090 16/15 A2986 1140 93 1600 200/10 RMK AO2 P0000 TSNO
94908KDBQ DBQ20050509001013305/09/05 00:10:31  5-MIN KDBQ 090610Z AUTO 21007KT 6SM -RA BR BKN060 BKN080 OVC095 16/14 A2985 1140 93 1500 210/07 RMK AO2 P0000 TSNO
94908KDBQ DBQ20050509001513305/09/05 00:15:33  5-MIN KDBQ 090615Z AUTO 19009KT 5SM -RA BR FEW021 BKN065 OVC090 16/14 A2985 1140 93 1500 190/09 RMK AO2 P0000 TSNO
94908KDBQ DBQ20050509002013205/09/05 00:20:31  5-MIN KDBQ 090620Z AUTO 18010KT 4SM RA BR FEW021 BKN060 OVC090 16/15 A2985 1150 93 1600 180/10 RMK AO2 P0001 TSNO
94908KDBQ DBQ20050509002513205/09/05 00:25:31  5-MIN KDBQ 090625Z AUTO 18009KT 3SM RA BR FEW021 BKN033 OVC085 16/15 A2984 1150 93 1600 170/09 RMK AO2 P0003 TSNO
94908KDBQ DBQ20050509003013205/09/05 00:30:31  5-MIN KDBQ 090630Z AUTO 17010KT 4SM RA BR FEW021 BKN042 OVC080 16/15 A2984 1160 93 1600 170/10 RMK AO2 P0004 TSNO
94908KDBQ DBQ20050509003513305/09/05 00:35:31  5-MIN KDBQ 090635Z AUTO 17011KT 4SM -RA BR FEW021 BKN042 OVC090 16/15 A2984 1160 93 1600 170/11 RMK AO2 P0004 TSNO
94908KDBQ DBQ20050509004013305/09/05 00:40:31  5-MIN KDBQ 090640Z AUTO 17010KT 4SM -RA BR FEW021 BKN043 OVC095 16/15 A2983 1160 93 1600 170/10 RMK AO2 P0005 TSNO
94908KDBQ DBQ20050509004512605/09/05 00:45:31  5-MIN KDBQ 090645Z AUTO 17010KT 4SM -RA BR BKN045 OVC100 16/15 A2983 1160 93 1600 170/10 RMK AO2 P0005 TSNO
94908KDBQ DBQ20050509005014305/09/05 00:50:31  5-MIN KDBQ 090650Z AUTO 16011KT 4SM -RA BR BKN047 OVC100 16/15 A2983 1160 93 1600 160/11 RMK AO2 SLP097 P0005 T01610150 TSNO
94908KDBQ DBQ20050509005514305/09/05 00:55:31  5-MIN KDBQ 090655Z AUTO 16011KT 4SM -RA BR BKN049 OVC100 16/15 A2983 1160 93 1600 160/11 RMK AO2 SLP096 P0006 T01610150 TSNO
94908KDBQ DBQ20050509010012605/09/05 01:00:31  5-MIN KDBQ 090700Z AUTO 15011KT 4SM -RA BR BKN049 OVC095 16/15 A2982 1170 93 1600 150/11 RMK AO2 P0000 TSNO
94908KDBQ DBQ20050509010512605/09/05 01:05:31  5-MIN KDBQ 090705Z AUTO 16011KT 4SM -RA BR SCT055 OVC095 16/15 A2982 1170 93 1600 150/11 RMK AO2 P0001 TSNO
94908KDBQ DBQ20050509011012605/09/05 01:10:31  5-MIN KDBQ 090710Z AUTO 15011KT 5SM -RA BR SCT055 OVC100 16/15 A2982 1170 93 1600 150/11 RMK AO2 P0001 TSNO
94908KDBQ DBQ20050509011512605/09/05 01:15:31  5-MIN KDBQ 090715Z AUTO 15012KT 5SM -RA BR SCT055 OVC100 16/15 A2982 1170 93 1600 150/12 RMK AO2 P0001 TSNO
94908KDBQ DBQ20050509012012605/09/05 01:20:31  5-MIN KDBQ 090720Z AUTO 14012KT 4SM -RA BR FEW055 OVC100 16/15 A2982 1170 93 1600 140/12 RMK AO2 P0001 TSNO
94908KDBQ DBQ20050509012512605/09/05 01:25:31  5-MIN KDBQ 090725Z AUTO 14011KT 4SM -RA BR FEW065 OVC100 16/15 A2982 1170 93 1600 140/11 RMK AO2 P0001 TSNO
94908KDBQ DBQ20050509013012605/09/05 01:30:31  5-MIN KDBQ 090730Z AUTO 14011KT 4SM -RA BR FEW065 OVC100 16/15 A2982 1170 93 1600 140/11 RMK AO2 P0001 TSNO
94908KDBQ DBQ20050509013512205/09/05 01:35:31  5-MIN KDBQ 090735Z AUTO 15012KT 4SM BR OVC095 16/15  A2982 1170 96 1500 140/12 RMK AO2 RAE32 P0001 TSNO
94908KDBQ DBQ20050509014012205/09/05 01:40:31  5-MIN KDBQ 090740Z AUTO 15010KT 5SM BR OVC095 16/14  A2982 1170 93 1500 150/10 RMK AO2 RAE32 P0001 TSNO
94908KDBQ DBQ20050509014512205/09/05 01:45:31  5-MIN KDBQ 090745Z AUTO 15011KT 5SM BR OVC095 16/14  A2982 1170 93 1500 150/11 RMK AO2 RAE32 P0001 TSNO
94908KDBQ DBQ20050509015013905/09/05 01:50:31  5-MIN KDBQ 090750Z AUTO 15010KT 6SM BR OVC090 16/14  A2982 1170 93 1500 150/10 RMK AO2 RAE32 SLP094 P0001 T01560144 TSNO
94908KDBQ DBQ20050509015513905/09/05 01:55:31  5-MIN KDBQ 090755Z AUTO 15010KT 6SM BR OVC090 16/14  A2982 1170 93 1500 140/10 RMK AO2 RAE32 SLP092 P0001 T01560144 TSNO
94908KDBQ DBQ20050509020011005/09/05 02:00:31  5-MIN KDBQ 090800Z AUTO 15011KT 6SM BR OVC085 17/14  A2982 1170 86 1700 150/11 RMK AO2 TSNO
94908KDBQ DBQ20050509020510705/09/05 02:05:31  5-MIN KDBQ 090805Z AUTO 14012KT 7SM OVC085 16/14 A2982  1170 93 1500 140/12 RMK AO2 TSNO
94908KDBQ DBQ20050509021010705/09/05 02:10:31  5-MIN KDBQ 090810Z AUTO 15011KT 7SM OVC085 16/14 A2982  1170 93 1500 150/11 RMK AO2 TSNO
94908KDBQ DBQ20050509021510705/09/05 02:15:31  5-MIN KDBQ 090815Z AUTO 15010KT 7SM OVC080 16/14 A2982  1170 93 1600 150/10 RMK AO2 TSNO
94908KDBQ DBQ20050509022010705/09/05 02:20:31  5-MIN KDBQ 090820Z AUTO 15010KT 7SM OVC080 16/14 A2982  1170 93 1600 150/10 RMK AO2 TSNO
94908KDBQ DBQ20050509022510705/09/05 02:25:31  5-MIN KDBQ 090825Z AUTO 14011KT 7SM OVC075 16/14 A2981  1180 93 1600 140/11 RMK AO2 TSNO
94908KDBQ DBQ20050509023010705/09/05 02:30:31  5-MIN KDBQ 090830Z AUTO 15009KT 7SM OVC075 16/14 A2981  1180 93 1600 150/09 RMK AO2 TSNO
94908KDBQ DBQ20050509023510705/09/05 02:35:31  5-MIN KDBQ 090835Z AUTO 15008KT 7SM OVC070 16/14 A2981  1180 93 1600 150/08 RMK AO2 TSNO
94908KDBQ DBQ20050509024011005/09/05 02:40:31  5-MIN KDBQ 090840Z AUTO 15007KT 6SM BR OVC070 16/14  A2981 1180 93 1600 150/07 RMK AO2 TSNO
94908KDBQ DBQ20050509024511005/09/05 02:45:31  5-MIN KDBQ 090845Z AUTO 15006KT 5SM BR OVC070 16/14  A2981 1180 93 1600 150/06 RMK AO2 TSNO
94908KDBQ DBQ20050509025013905/09/05 02:50:31  5-MIN KDBQ 090850Z AUTO 14008KT 5SM BR OVC070 16/14  A2981 1180 93 1600 140/08 RMK AO2 SLP089 60007 T01560144 50001 TSNO
94908KDBQ DBQ20050509025514605/09/05 02:55:31  5-MIN KDBQ 090855Z AUTO 14008KT 5SM BR BKN070 OVC080  16/14 A2980 1190 93 1600 140/08 RMK AO2 SLP088 60007 T01560144 56019 TSNO
94908KDBQ DBQ20050509030011705/09/05 03:00:31  5-MIN KDBQ 090900Z AUTO 14009KT 5SM BR BKN075 OVC085  16/14 A2980 1190 93 1600 140/09 RMK AO2 TSNO
94908KDBQ DBQ20050509030511705/09/05 03:05:31  5-MIN KDBQ 090905Z AUTO 14010KT 5SM BR SCT070 OVC085  16/14 A2979 1190 93 1600 140/10 RMK AO2 TSNO
94908KDBQ DBQ20050509031011705/09/05 03:10:31  5-MIN KDBQ 090910Z AUTO 14010KT 5SM BR OVC085 16/14  A2978 1200 93 1600 140/10 RMK AO2 PRESFR TSNO
94908KDBQ DBQ20050509031511705/09/05 03:15:31  5-MIN KDBQ 090915Z AUTO 13014KT 5SM BR OVC085 16/14  A2977 1210 93 1600 130/14 RMK AO2 PRESFR TSNO
94908KDBQ DBQ20050509032011005/09/05 03:20:31  5-MIN KDBQ 090920Z AUTO 14012KT 5SM BR OVC090 16/14  A2978 1210 93 1600 140/12 RMK AO2 TSNO
94908KDBQ DBQ20050509032511705/09/05 03:25:31  5-MIN KDBQ 090925Z AUTO 16011KT 5SM BR BKN090 OVC110  16/14 A2979 1200 93 1600 150/11 RMK AO2 TSNO
94908KDBQ DBQ20050509033011705/09/05 03:30:31  5-MIN KDBQ 090930Z AUTO 15011KT 5SM BR BKN090 OVC110  16/14 A2978 1210 93 1600 150/11 RMK AO2 TSNO
94908KDBQ DBQ20050509033511005/09/05 03:35:31  5-MIN KDBQ 090935Z AUTO 15012KT 5SM BR OVC100 16/14  A2978 1210 93 1600 150/12 RMK AO2 TSNO
94908KDBQ DBQ20050509034011005/09/05 03:40:31  5-MIN KDBQ 090940Z AUTO 16012KT 6SM BR OVC100 16/14  A2979 1200 93 1600 160/12 RMK AO2 TSNO
94908KDBQ DBQ20050509034511005/09/05 03:45:31  5-MIN KDBQ 090945Z AUTO 15013KT 6SM BR BKN110 16/14  A2978 1210 93 1600 150/13 RMK AO2 TSNO
94908KDBQ DBQ20050509035012705/09/05 03:50:31  5-MIN KDBQ 090950Z AUTO 16013KT 6SM BR BKN110 16/14  A2978 1210 93 1600 160/13 RMK AO2 SLP082 T01560144 TSNO
94908KDBQ DBQ20050509035512705/09/05 03:55:31  5-MIN KDBQ 090955Z AUTO 16013KT 6SM BR SCT110 16/14  A2978 1210 93 1600 160/13 RMK AO2 SLP080 T01560144 TSNO
94908KDBQ DBQ20050509040011005/09/05 04:00:31  5-MIN KDBQ 091000Z AUTO 16013KT 6SM BR SCT110 16/14  A2978 1210 93 1600 160/13 RMK AO2 TSNO
94908KDBQ DBQ20050509040511005/09/05 04:05:31  5-MIN KDBQ 091005Z AUTO 16012KT 6SM BR FEW110 16/14  A2978 1210 93 1600 160/12 RMK AO2 TSNO
94908KDBQ DBQ20050509041010705/09/05 04:10:31  5-MIN KDBQ 091010Z AUTO 16011KT 6SM BR CLR 16/14 A2978  1210 93 1600 160/11 RMK AO2 TSNO
94908KDBQ DBQ20050509041510705/09/05 04:15:31  5-MIN KDBQ 091015Z AUTO 16011KT 6SM BR CLR 16/14 A2978  1210 93 1600 160/11 RMK AO2 TSNO
94908KDBQ DBQ20050509042010705/09/05 04:20:31  5-MIN KDBQ 091020Z AUTO 16010KT 6SM BR CLR 16/14 A2978  1210 93 1600 150/10 RMK AO2 TSNO
94908KDBQ DBQ20050509042510705/09/05 04:25:31  5-MIN KDBQ 091025Z AUTO 16012KT 6SM BR CLR 16/14 A2978  1210 93 1600 150/12 RMK AO2 TSNO
94908KDBQ DBQ20050509043010705/09/05 04:30:31  5-MIN KDBQ 091030Z AUTO 16011KT 6SM BR CLR 16/14 A2978  1210 93 1600 160/11 RMK AO2 TSNO
94908KDBQ DBQ20050509043510705/09/05 04:35:31  5-MIN KDBQ 091035Z AUTO 16011KT 6SM BR CLR 16/14 A2977  1210 93 1600 160/11 RMK AO2 TSNO
94908KDBQ DBQ20050509044010705/09/05 04:40:31  5-MIN KDBQ 091040Z AUTO 16011KT 6SM BR CLR 16/14 A2977  1220 93 1600 160/11 RMK AO2 TSNO
94908KDBQ DBQ20050509044510705/09/05 04:45:31  5-MIN KDBQ 091045Z AUTO 16011KT 6SM BR CLR 16/14 A2977  1220 93 1600 160/11 RMK AO2 TSNO
94908KDBQ DBQ20050509045012405/09/05 04:50:31  5-MIN KDBQ 091050Z AUTO 16011KT 5SM BR CLR 16/14 A2977  1220 93 1600 160/11 RMK AO2 SLP079 T01560144 TSNO
94908KDBQ DBQ20050509045512405/09/05 04:55:31  5-MIN KDBQ 091055Z AUTO 16011KT 4SM BR CLR 16/14 A2977  1220 93 1600 160/11 RMK AO2 SLP079 T01560144 TSNO
94908KDBQ DBQ20050509050009705/09/05 05:00:31  5-MIN KDBQ 091100Z 16014KT 4SM BR CLR 16/14 A2978 1210  93 1600 160/14 RMK AO2
94908KDBQ DBQ20050509050509705/09/05 05:05:31  5-MIN KDBQ 091105Z 16012KT 4SM BR CLR 16/14 A2978 1210  93 1600 160/12 RMK AO2
94908KDBQ DBQ20050509051009705/09/05 05:10:31  5-MIN KDBQ 091110Z 16012KT 4SM BR CLR 16/14 A2978 1210  93 1600 160/12 RMK AO2
94908KDBQ DBQ20050509051509705/09/05 05:15:31  5-MIN KDBQ 091115Z 17011KT 3SM BR CLR 16/14 A2978 1200  93 1600 170/11 RMK AO2
94908KDBQ DBQ20050509052009705/09/05 05:20:31  5-MIN KDBQ 091120Z 17012KT 3SM BR CLR 16/14 A2978 1210  93 1600 170/12 RMK AO2
94908KDBQ DBQ20050509052510005/09/05 05:25:31  5-MIN KDBQ 091125Z 16013KT 3SM BR FEW009 16/14 A2978  1210 93 1600 160/13 RMK AO2
94908KDBQ DBQ20050509053010005/09/05 05:30:31  5-MIN KDBQ 091130Z 17012KT 3SM BR SCT009 16/14 A2978  1210 93 1600 170/12 RMK AO2
94908KDBQ DBQ20050509053510005/09/05 05:35:31  5-MIN KDBQ 091135Z 17011KT 3SM BR FEW009 16/14 A2978  1210 93 1600 170/11 RMK AO2
94908KDBQ DBQ20050509054010005/09/05 05:40:31  5-MIN KDBQ 091140Z 16012KT 3SM BR FEW009 16/14 A2978  1210 93 1600 160/12 RMK AO2
94908KDBQ DBQ20050509054511805/09/05 05:45:31  5-MIN KDBQ 091145Z 17011KT 2 1/2SM BR FEW009 SCT027  SCT032 16/14 A2979 1200 93 1600 170/11 RMK AO2
94908KDBQ DBQ20050509055016105/09/05 05:50:31  5-MIN KDBQ 091150Z 17012KT 3SM BR FEW009 BKN027 BKN032  16/15 A2978 1200 96 1600 170/12 RMK AO2 SLP083 60007 70022 T01560150 10167 20156 56019
94908KDBQ DBQ20050509055515405/09/05 05:55:31  5-MIN KDBQ 091155Z 17011KT 3SM BR FEW007 BKN027 16/15  A2979 1200 96 1600 170/11 RMK AO2 SLP084 60007 70022 T01560150 10167 20156 55005
94908KDBQ DBQ20050509060010705/09/05 06:00:31  5-MIN KDBQ 091200Z 17010KT 3SM BR FEW010 BKN027 16/15  A2979 1200 96 1600 170/10 RMK AO2
94908KDBQ DBQ20050509060510705/09/05 06:05:31  5-MIN KDBQ 091205Z 17011KT 3SM BR FEW012 BKN027 16/15  A2978 1200 96 1600 170/11 RMK AO2
94908KDBQ DBQ20050509061010705/09/05 06:10:31  5-MIN KDBQ 091210Z 17011KT 3SM BR FEW012 SCT027 16/15  A2978 1210 96 1600 170/11 RMK AO2
94908KDBQ DBQ20050509061510705/09/05 06:15:31  5-MIN KDBQ 091215Z 17012KT 3SM BR FEW007 SCT027 16/15  A2978 1210 93 1700 170/12 RMK AO2
94908KDBQ DBQ20050509062010705/09/05 06:20:31  5-MIN KDBQ 091220Z 18013KT 3SM BR FEW009 SCT027 16/15  A2978 1210 93 1700 170/13 RMK AO2
94908KDBQ DBQ20050509062510705/09/05 06:25:31  5-MIN KDBQ 091225Z 18013KT 4SM BR FEW009 SCT012 16/15  A2978 1210 93 1700 170/13 RMK AO2
94908KDBQ DBQ20050509063010705/09/05 06:30:31  5-MIN KDBQ 091230Z 17014KT 4SM BR FEW009 SCT014 16/15  A2978 1210 93 1700 170/14 RMK AO2
94908KDBQ DBQ20050509063510705/09/05 06:35:31  5-MIN KDBQ 091235Z 18013KT 4SM BR SCT009 SCT014 17/16  A2978 1210 93 1700 180/13 RMK AO2
94908KDBQ DBQ20050509064010705/09/05 06:40:31  5-MIN KDBQ 091240Z 18012KT 4SM BR SCT009 SCT014 17/15  A2978 1210 90 1700 180/12 RMK AO2
94908KDBQ DBQ20050509064511405/09/05 06:45:31  5-MIN KDBQ 091245Z 18015KT 4SM BR SCT009 SCT014 BKN026  17/15 A2979 1200 90 1700 180/15 RMK AO2
94908KDBQ DBQ20050509065013105/09/05 06:50:31  5-MIN KDBQ 091250Z 18012KT 4SM BR FEW009 SCT014 BKN026  17/15 A2979 1200 90 1700 180/12 RMK AO2 SLP085 T01670150
94908KDBQ DBQ20050509065513105/09/05 06:55:31  5-MIN KDBQ 091255Z 18015KT 4SM BR FEW009 SCT013 BKN026  17/15 A2979 1200 90 1700 180/15 RMK AO2 SLP085 T01670150
94908KDBQ DBQ20050509070011405/09/05 07:00:31  5-MIN KDBQ 091300Z 17015KT 4SM BR FEW008 SCT011 BKN026  17/16 A2979 1200 90 1800 170/15 RMK AO2
94908KDBQ DBQ20050509070512005/09/05 07:05:31  5-MIN KDBQ 091305Z 18014G19KT 5SM BR SCT010 BKN016  BKN026 17/16 A2978 1210 93 1700 180/14G19 RMK AO2
94908KDBQ DBQ20050509071011405/09/05 07:10:31  5-MIN KDBQ 091310Z 18015KT 5SM BR BKN013 BKN020 BKN026  17/15 A2978 1210 87 1800 180/15 RMK AO2
94908KDBQ DBQ20050509071511405/09/05 07:15:31  5-MIN KDBQ 091315Z 18014KT 5SM BR BKN013 BKN020 BKN026  17/16 A2978 1210 90 1800 180/14 RMK AO2
94908KDBQ DBQ20050509072012005/09/05 07:20:31  5-MIN KDBQ 091320Z 19015G20KT 5SM BR SCT013 BKN018  BKN026 17/16 A2978 1210 90 1800 180/15G20 RMK AO2
94908KDBQ DBQ20050509072511205/09/05 07:25:31  5-MIN KDBQ 091325Z 18015G20KT 5SM BR BKN013 BKN018 17/16 A2978 1210 90 1800 180/15G20 RMK AO2
94908KDBQ DBQ20050509073010005/09/05 07:30:31  5-MIN KDBQ 091330Z 18015KT 5SM BR BKN013 17/16 A2978  1210 90 1800 180/15 RMK AO2
94908KDBQ DBQ20050509073510005/09/05 07:35:31  5-MIN KDBQ 091335Z 19013KT 5SM BR BKN013 17/16 A2977  1210 90 1800 190/13 RMK AO2
94908KDBQ DBQ20050509074010005/09/05 07:40:31  5-MIN KDBQ 091340Z 18016KT 5SM BR BKN013 17/16 A2977  1220 90 1800 180/16 RMK AO2
94908KDBQ DBQ20050509074510005/09/05 07:45:31  5-MIN KDBQ 091345Z 18016KT 5SM BR BKN013 17/15 A2977  1220 87 1800 180/16 RMK AO2
94908KDBQ DBQ20050509075011705/09/05 07:50:31  5-MIN KDBQ 091350Z 18014KT 5SM BR OVC013 17/16 A2977  1220 90 1800 180/14 RMK AO2 SLP079 T01720156
94908KDBQ DBQ20050509075511705/09/05 07:55:31  5-MIN KDBQ 091355Z 18014KT 5SM BR OVC013 17/16 A2977  1220 90 1800 180/14 RMK AO2 SLP079 T01720156
94908KDBQ DBQ20050509080010005/09/05 08:00:31  5-MIN KDBQ 091400Z 18012KT 5SM BR OVC013 17/16 A2977  1210 90 1800 180/12 RMK AO2
94908KDBQ DBQ20050509080510005/09/05 08:05:31  5-MIN KDBQ 091405Z 18012KT 4SM BR OVC013 17/16 A2977  1220 90 1800 180/12 RMK AO2
94908KDBQ DBQ20050509081010005/09/05 08:10:31  5-MIN KDBQ 091410Z 18012KT 4SM BR OVC013 17/16 A2977  1220 90 1800 180/12 RMK AO2
94908KDBQ DBQ20050509081510005/09/05 08:15:31  5-MIN KDBQ 091415Z 18012KT 4SM BR OVC013 17/16 A2977  1220 90 1800 180/12 RMK AO2
94908KDBQ DBQ20050509082010005/09/05 08:20:31  5-MIN KDBQ 091420Z 18013KT 4SM BR OVC013 17/16 A2977  1220 90 1800 180/13 RMK AO2
94908KDBQ DBQ20050509082510005/09/05 08:25:31  5-MIN KDBQ 091425Z 18012KT 4SM BR OVC013 17/16 A2977  1220 90 1800 180/12 RMK AO2
94908KDBQ DBQ20050509083010005/09/05 08:30:31  5-MIN KDBQ 091430Z 18010KT 4SM BR OVC011 17/16 A2977  1220 90 1800 180/10 RMK AO2
94908KDBQ DBQ20050509083510005/09/05 08:35:31  5-MIN KDBQ 091435Z 19013KT 4SM BR OVC011 17/16 A2977  1220 90 1800 190/13 RMK AO2
94908KDBQ DBQ20050509084010005/09/05 08:40:31  5-MIN KDBQ 091440Z 19010KT 4SM BR OVC011 17/16 A2977  1220 90 1800 190/10 RMK AO2
94908KDBQ DBQ20050509084510705/09/05 08:45:31  5-MIN KDBQ 091445Z 19012KT 4SM BR BKN011 OVC017 17/16  A2977 1220 90 1800 190/12 RMK AO2
94908KDBQ DBQ20050509085013005/09/05 08:50:31  5-MIN KDBQ 091450Z 20012KT 4SM BR BKN013 OVC019 18/16  A2977 1220 87 1900 190/12 RMK AO2 SLP078 T01780156 55005
94908KDBQ DBQ20050509085513005/09/05 08:55:31  5-MIN KDBQ 091455Z 20012KT 4SM BR BKN013 OVC019 18/16  A2977 1220 87 1900 200/12 RMK AO2 SLP078 T01780156 58005
94908KDBQ DBQ20050509090010005/09/05 09:00:31  5-MIN KDBQ 091500Z 20010KT 4SM BR OVC013 17/16 A2977  1220 90 1800 200/10 RMK AO2
94908KDBQ DBQ20050509090511905/09/05 09:05:31  5-MIN KDBQ 091505Z 21010KT 4SM BR BKN010 OVC016 17/16  A2977 1220 90 1800 210/10 RMK AO2 CIG 008V012
94908KDBQ DBQ20050509091011905/09/05 09:10:31  5-MIN KDBQ 091510Z 20011KT 4SM BR BKN010 OVC016 18/16  A2977 1220 87 1900 200/11 RMK AO2 CIG 008V013
94908KDBQ DBQ20050509091510705/09/05 09:15:31  5-MIN KDBQ 091515Z 20010KT 4SM BR BKN010 OVC014 18/16  A2977 1220 90 1900 200/10 RMK AO2
94908KDBQ DBQ20050509092010005/09/05 09:20:31  5-MIN KDBQ 091520Z 20011KT 4SM BR OVC012 18/16 A2977  1220 90 1900 200/11 RMK AO2
94908KDBQ DBQ20050509092510705/09/05 09:25:31  5-MIN KDBQ 091525Z 19011KT 4SM BR BKN010 OVC017 18/16  A2977 1220 87 1900 190/11 RMK AO2
94908KDBQ DBQ20050509093012405/09/05 09:30:31  5-MIN KDBQ 091530Z 19015G19KT 4SM BR BKN010 OVC017 18/16 A2977 1220 87 1900 190/15G19 RMK AO2 CIG 008V014
94908KDBQ DBQ20050509093511405/09/05 09:35:31  5-MIN KDBQ 091535Z 19016KT 4SM BR SCT010 BKN017 OVC031  18/16 A2977 1220 87 1900 190/16 RMK AO2
94908KDBQ DBQ20050509094011405/09/05 09:40:31  5-MIN KDBQ 091540Z 19014KT 4SM BR FEW012 BKN017 OVC031  18/16 A2977 1220 87 1900 190/14 RMK AO2
94908KDBQ DBQ20050509094511405/09/05 09:45:31  5-MIN KDBQ 091545Z 19013KT 4SM BR FEW012 SCT017 OVC033  18/16 A2977 1220 87 1900 190/13 RMK AO2
94908KDBQ DBQ20050509095013705/09/05 09:50:31  5-MIN KDBQ 091550Z 20014G19KT 4SM BR FEW014 BKN029  OVC036 18/16 A2977 1220 87 1900 200/14G19 RMK AO2 SLP078 T01780156
94908KDBQ DBQ20050509095513705/09/05 09:55:31  5-MIN KDBQ 091555Z 20015G19KT 5SM HZ FEW015 BKN033  OVC044 18/15 A2977 1220 83 1900 200/15G19 RMK AO2 SLP077 T01780150
94908KDBQ DBQ20050509100010705/09/05 10:00:31  5-MIN KDBQ 091600Z 20015KT 5SM HZ BKN033 OVC046 18/16  A2976 1220 84 1900 200/15 RMK AO2
94908KDBQ DBQ20050509100511405/09/05 10:05:31  5-MIN KDBQ 091605Z 21012KT 5SM BR FEW014 BKN033 OVC046  18/16 A2977 1220 87 1900 210/12 RMK AO2
94908KDBQ DBQ20050509101011405/09/05 10:10:31  5-MIN KDBQ 091610Z 21012KT 5SM HZ FEW014 BKN035 OVC046  18/16 A2977 1220 84 1900 210/12 RMK AO2
94908KDBQ DBQ20050509101511405/09/05 10:15:31  5-MIN KDBQ 091615Z 21014KT 5SM HZ FEW014 BKN035 OVC046  18/15 A2977 1220 81 1900 210/14 RMK AO2
94908KDBQ DBQ20050509102011405/09/05 10:20:31  5-MIN KDBQ 091620Z 20011KT 6SM HZ FEW014 SCT029 BKN037  19/16 A2976 1220 81 2000 190/11 RMK AO2
94908KDBQ DBQ20050509102511105/09/05 10:25:31  5-MIN KDBQ 091625Z 20010KT 7SM FEW012 SCT029 BKN037  19/16 A2976 1230 81 2000 200/10 RMK AO2
94908KDBQ DBQ20050509103010305/09/05 10:30:31  5-MIN KDBQ 091630Z 18012KT 7SM FEW014 SCT037 19/16 A2975 1230 78 2100 180/12 RMK AO2
94908KDBQ DBQ20050509103510305/09/05 10:35:31  5-MIN KDBQ 091635Z 17011KT 7SM FEW014 SCT037 19/16 A2975 1240 78 2100 170/11 RMK AO2
94908KDBQ DBQ20050509104009705/09/05 10:40:31  5-MIN KDBQ 091640Z 19011KT 7SM FEW014 19/16 A2976 1230  81 2100 190/11 RMK AO2
94908KDBQ DBQ20050509104510305/09/05 10:45:31  5-MIN KDBQ 091645Z 20012G17KT 7SM FEW016 20/16 A2975  1230 78 2100 200/12G17 RMK AO2
94908KDBQ DBQ20050509105011405/09/05 10:50:31  5-MIN KDBQ 091650Z 18013KT 7SM FEW016 20/16 A2975 1240  78 2100 180/13 RMK AO2 SLP070 T02000161
94908KDBQ DBQ20050509105511405/09/05 10:55:31  5-MIN KDBQ 091655Z 19013KT 8SM FEW016 21/16 A2974 1240  73 2200 190/13 RMK AO2 SLP069 T02060156
94908KDBQ DBQ20050509110009705/09/05 11:00:31  5-MIN KDBQ 091700Z 18011KT 8SM FEW016 21/16 A2974 1240  75 2200 180/11 RMK AO2
94908KDBQ DBQ20050509110510305/09/05 11:05:31  5-MIN KDBQ 091705Z 18011G18KT 8SM FEW016 21/16 A2974  1250 73 2200 180/11G18 RMK AO2
94908KDBQ DBQ20050509111010005/09/05 11:10:31  5-MIN KDBQ 091710Z 18013G18KT 8SM CLR 21/16 A2974 1250  75 2200 180/13G18 RMK AO2
94908KDBQ DBQ20050509111509405/09/05 11:15:31  5-MIN KDBQ 091715Z 18016KT 8SM CLR 21/16 A2974 1250 73  2300 180/16 RMK AO2
94908KDBQ DBQ20050509112009705/09/05 11:20:31  5-MIN KDBQ 091720Z 20018KT 8SM FEW024 21/15 A2974 1250  68 2300 200/18 RMK AO2
94908KDBQ DBQ20050509112509705/09/05 11:25:31  5-MIN KDBQ 091725Z 19016KT 8SM FEW024 21/16 A2974 1250  73 2200 190/16 RMK AO2
94908KDBQ DBQ20050509113010305/09/05 11:30:31  5-MIN KDBQ 091730Z 19015KT 7SM SCT027 SCT033 21/16 A2974 1250 73 2200 190/15 RMK AO2
94908KDBQ DBQ20050509113511105/09/05 11:35:31  5-MIN KDBQ 091735Z 19014KT 7SM FEW025 SCT031 BKN042  21/15 A2973 1250 70 2200 190/14 RMK AO2
94908KDBQ DBQ20050509114011105/09/05 11:40:31  5-MIN KDBQ 091740Z 18017KT 8SM FEW025 BKN042 BKN100  21/15 A2973 1250 68 2300 180/17 RMK AO2
94908KDBQ DBQ20050509114511705/09/05 11:45:31  5-MIN KDBQ 091745Z 20015G21KT 8SM FEW025 SCT032 BKN042  21/15 A2973 1250 68 2300 200/15G21 RMK AO2
94908KDBQ DBQ20050509115015305/09/05 11:50:31  5-MIN KDBQ 091750Z 19017G21KT 8SM FEW025 SCT032 BKN042  21/16 A2973 1250 70 2300 190/17G21 RMK AO2 SLP065 T02110156 10211 20156  58005
94908KDBQ DBQ20050509115515305/09/05 11:55:31  5-MIN KDBQ 091755Z 19015G21KT 8SM FEW025 SCT033 BKN044  21/15 A2973 1250 70 2200 190/15G21 RMK AO2 SLP065 T02060150 10211 20156  58013
94908KDBQ DBQ20050509120011105/09/05 12:00:31  5-MIN KDBQ 091800Z 20016KT 8SM SCT031 BKN040 BKN048  21/15 A2973 1250 68 2300 200/16 RMK AO2
94908KDBQ DBQ20050509120511105/09/05 12:05:31  5-MIN KDBQ 091805Z 19016KT 8SM FEW029 BKN041 BKN049  21/15 A2973 1260 68 2300 190/16 RMK AO2
94908KDBQ DBQ20050509121011105/09/05 12:10:31  5-MIN KDBQ 091810Z 20019KT 8SM FEW029 BKN038 BKN047  21/15 A2973 1260 70 2200 200/19 RMK AO2
94908KDBQ DBQ20050509121511105/09/05 12:15:31  5-MIN KDBQ 091815Z 20017KT 9SM FEW029 SCT034 BKN044  22/16 A2972 1260 68 2400 200/17 RMK AO2
94908KDBQ DBQ20050509122011205/09/05 12:20:31  5-MIN KDBQ 091820Z 20015KT 10SM FEW029 SCT036 BKN050  22/15 A2972 1260 65 2400 200/15 RMK AO2
94908KDBQ DBQ20050509122511705/09/05 12:25:31  5-MIN KDBQ 091825Z 20015G21KT 9SM SCT031 BKN041 BKN050  22/15 A2972 1260 65 2400 200/15G21 RMK AO2
94908KDBQ DBQ20050509123011105/09/05 12:30:31  5-MIN KDBQ 091830Z 19018KT 9SM FEW029 BKN037 BKN050  22/15 A2972 1270 63 2400 190/18 RMK AO2
94908KDBQ DBQ20050509123510505/09/05 12:35:31  5-MIN KDBQ 091835Z 21017KT 10SM FEW029 BKN038 22/14  A2972 1270 63 2400 210/17 RMK AO2
94908KDBQ DBQ20050509124011205/09/05 12:40:31  5-MIN KDBQ 091840Z 19016KT 10SM SCT034 SCT044 BKN090  22/15 A2971 1270 63 2400 190/16 RMK AO2
94908KDBQ DBQ20050509124511205/09/05 12:45:31  5-MIN KDBQ 091845Z 20017KT 10SM SCT034 SCT045 BKN060  22/15 A2972 1270 65 2400 200/17 RMK AO2
94908KDBQ DBQ20050509125013405/09/05 12:50:31  5-MIN KDBQ 091850Z 19019G23KT 10SM SCT036 BKN045 BKN060 21/14 A2971 1270 65 2300 190/19G23 RMK AO2 SLP058 T02110144
94908KDBQ DBQ20050509125512905/09/05 12:55:31  5-MIN KDBQ 091855Z 19021KT 10SM FEW034 SCT042 BKN049  21/14 A2971 1270 63 2300 190/21 RMK AO2 SLP057 T02110139
94908KDBQ DBQ20050509130011205/09/05 13:00:31  5-MIN KDBQ 091900Z 20019KT 10SM FEW034 SCT044 BKN060  21/14 A2971 1270 63 2300 200/19 RMK AO2
94908KDBQ DBQ20050509130511705/09/05 13:05:31  5-MIN KDBQ 091905Z 19017G23KT 10SM FEW034 SCT045 BKN055 21/14 A2971 1270 65 2300 190/17G23 RMK AO2
94908KDBQ DBQ20050509131011205/09/05 13:10:31  5-MIN KDBQ 091910Z 21017KT 10SM FEW034 SCT045 BKN060  21/14 A2971 1270 65 2300 200/17 RMK AO2
94908KDBQ DBQ20050509131511205/09/05 13:15:31  5-MIN KDBQ 091915Z 21019KT 10SM FEW040 BKN065 OVC085  21/14 A2971 1270 63 2300 210/19 RMK AO2
94908KDBQ DBQ20050509132011205/09/05 13:20:31  5-MIN KDBQ 091920Z 22018KT 10SM SCT043 BKN065 OVC085  21/13 A2971 1270 63 2200 220/18 RMK AO2
94908KDBQ DBQ20050509132511705/09/05 13:25:31  5-MIN KDBQ 091925Z 22017G23KT 10SM FEW043 BKN060 OVC085 21/13 A2971 1270 61 2300 220/17G23 RMK AO2
94908KDBQ DBQ20050509133011705/09/05 13:30:31  5-MIN KDBQ 091930Z 22018G23KT 10SM FEW043 BKN065 BKN080 22/14 A2971 1270 61 2400 220/18G23 RMK AO2
94908KDBQ DBQ20050509133511705/09/05 13:35:31  5-MIN KDBQ 091935Z 21016G20KT 10SM FEW043 BKN065 BKN080 23/14 A2971 1270 59 2500 210/16G20 RMK AO2
94908KDBQ DBQ20050509134011705/09/05 13:40:31  5-MIN KDBQ 091940Z 21019G24KT 10SM FEW043 SCT065 SCT085 22/13 A2971 1270 58 2400 210/19G24 RMK AO2
94908KDBQ DBQ20050509134511105/09/05 13:45:31  5-MIN KDBQ 091945Z 21014G24KT 10SM SCT065 BKN085 21/13  A2971 1270 61 2300 210/14G24 RMK AO2
94908KDBQ DBQ20050509135012205/09/05 13:50:31  5-MIN KDBQ 091950Z 22013KT 10SM SCT060 BKN085 21/14  A2971 1270 63 2300 220/13 RMK AO2 SLP057 T02110139
94908KDBQ DBQ20050509135513405/09/05 13:55:31  5-MIN KDBQ 091955Z 22018G21KT 10SM FEW050 SCT065 BKN085 22/13 A2971 1280 58 2400 220/18G21 RMK AO2 SLP056 T02170133
94908KDBQ DBQ20050509140012905/09/05 14:00:31  5-MIN KDBQ 092000Z 22022G26KT 10SM FEW065 BKN085 21/13  A2970 1280 58 2300 220/22G26 RMK AO2 PK WND 22026/1956
94908KDBQ DBQ20050509140512905/09/05 14:05:31  5-MIN KDBQ 092005Z 22020G26KT 10SM FEW065 BKN085 21/12  A2971 1280 54 2300 220/20G26 RMK AO2 PK WND 22026/1956
94908KDBQ DBQ20050509141012905/09/05 14:10:31  5-MIN KDBQ 092010Z 22017G23KT 10SM FEW070 OVC085 21/12  A2971 1270 58 2300 220/17G23 RMK AO2 PK WND 22026/1956
94908KDBQ DBQ20050509141512205/09/05 14:15:31  5-MIN KDBQ 092015Z 22015G22KT 10SM OVC080 21/12 A2971  1270 58 2300 220/15G22 RMK AO2 PK WND 22026/1956
94908KDBQ DBQ20050509142011505/09/05 14:20:31  5-MIN KDBQ 092020Z 21015KT 10SM OVC085 21/13 A2971 1270 58 2300 210/15 RMK AO2 PK WND 22026/1956
94908KDBQ DBQ20050509142511505/09/05 14:25:31  5-MIN KDBQ 092025Z 22019KT 10SM OVC085 21/13 A2971 1270 58 2300 220/19 RMK AO2 PK WND 22026/1956
94908KDBQ DBQ20050509143012205/09/05 14:30:31  5-MIN KDBQ 092030Z 22017G20KT 10SM OVC085 22/13 A2971  1280 56 2400 220/17G20 RMK AO2 PK WND 22026/1956
94908KDBQ DBQ20050509143511505/09/05 14:35:31  5-MIN KDBQ 092035Z 22016KT 10SM OVC085 22/13 A2970 1280 54 2500 220/16 RMK AO2 PK WND 22026/1956
94908KDBQ DBQ20050509144012105/09/05 14:40:31  5-MIN KDBQ 0920m A29718G22KT 10SM BKN090 23/13 A2970  1280 55 2500 220/18G22 RMK AO2 PK WND 22026/1956
94908KDBQ DBQ20050509144512205/09/05 14:45:31  5-MIN KDBQ 092045Z 21015G23KT 10SM BKN090 23/13 A2970  1280 53 2500 210/15G23 RMK AO2 PK WND 22026/1956
94908KDBQ DBQ20050509145014505/09/05 14:50:31  5-MIN KDBQ 092050Z 21020G24KT 10SM BKN090 22/13 A2970  1280 54 2500 210/20G24 RMK AO2 PK WND 22026/1956 SLP054 T02220128 58013
94908KDBQ DBQ20050509145514505/09/05 14:55:31  5-MIN KDBQ 092055Z 21015G24KT 10SM BKN090 22/13 A2970  1280 54 2500 210/15G24 RMK AO2 PK WND 22026/1956 SLP054 T02220128 56010
94908KDBQ DBQ20050509150009705/09/05 15:00:31  5-MIN KDBQ 092100Z 20016KT 10SM BKN090 22/13 A2970 1280 54 2500 200/16 RMK AO2
94908KDBQ DBQ20050509150509705/09/05 15:05:31  5-MIN KDBQ 092105Z 21018KT 10SM SCT090 22/13 A2970 1280 54 2500 210/18 RMK AO2
94908KDBQ DBQ20050509151011105/09/05 15:10:31  5-MIN KDBQ 092110Z 21015G20KT 10SM FEW047 SCT090 22/13  A2970 1280 56 2500 210/15G20 RMK AO2
94908KDBQ DBQ20050509151511205/09/05 15:15:31  5-MIN KDBQ 092115Z 22020KT 10SM FEW049 SCT060 BKN090  22/12 A2970 1280 54 2400 210/20 RMK AO2
94908KDBQ DBQ20050509152011205/09/05 15:20:31  5-MIN KDBQ 092120 A29718KT 10SM FEW049 BKN060 BKN090  21/12 A2970 1290 56 2300 220/18 RMK AO2
94908KDBQ DBQ20050509152510305/09/05 15:25:31  5-MIN KDBQ 092125Z 210189 B BKN0KN090N0821/122/12 A2969 90 50 54 2400 210/89 RMK AO2
94908KDBQ DBQ20050509153010905/09/05 15:30:31  5-MIN KDBQ 092130Z 21017KT 10SM FEW0490KN0085  22/12970 1970 1280 54210/800 210/17 RMK AO2
94908KDBQ DBQ20050509153511305/09/05 15:35:31  5-MIN KDBQ 09213186KT 10SM SCT0KNBKN06KN060 OVC095  21/12 A2970 1280 2300 22300 210/16 RMK AO2
94908KDBQ DBQ20050509200011405/09/05 20:00:31  5-MIN KDBQ 100200Z AUTO 23007KT 10SM FEW055 OVC090 17/13 A2973 1260 75 1800 230/07 RMK AO2 TSNO
94908KDBQ DBQ20050509200510705/09/05 20:05:31  5-MIN KDBQ 100205Z AUTO 23006KT 10SM BKN090 17/13 A2973 1250 75 1800 230/06 RMK AO2 TSNO
94908KDBQ DBQ20050509201010705/09/05 20:10:31  5-MIN KDBQ 100210Z AUTO 24007KT 10SM OVC090 18/12 A2973 1250 69 1900 240/07 RMK AO2 TSNO
94908KDBQ DBQ20050509201510705/09/05 20:15:31  5-MIN KDBQ 100215Z AUTO 24007KT 10SM OVC090 17/12 A2974 1250 72 1800 240/07 RMK AO2 TSNO
94908KDBQ DBQ20050509202010705/09/05 20:20:31  5-MIN KDBQ 100220Z AUTO 24008KT 10SM OVC090 18/12 A2974 1250 69 1900 240/08 RMK AO2 TSNO
94908KDBQ DBQ20050509202510705/09/05 20:25:31  5-MIN KDBQ 100225Z AUTO 24007KT 10SM OVC085 18/12 A2974 1250 69 1900 240/07 RMK AO2 TSNO
94908KDBQ DBQ20050509203010705/09/05 20:30:31  5-MIN KDBQ 100230Z AUTO 24006KT 10SM OVC085 17/12 A2974 1250 72 1800 230/06 RMK AO2 TSNO
94908KDBQ DBQ20050509203510705/09/05 20:35:31  5-MIN KDBQ 100235Z AUTO 24007KT 10SM OVC085 17/12 A2974 1240 72 1800 230/07 RMK AO2 TSNO
94908KDBQ DBQ20050509204010705/09/05 20:40:31  5-MIN KDBQ 100240Z AUTO 23007KT 10SM OVC085 17/12 A2974 1240 72 1800 230/07 RMK AO2 TSNO
94908KDBQ DBQ20050509204510705/09/05 20:45:31  5-MIN KDBQ 100245Z AUTO 23006KT 10SM OVC085 18/12 A2974 1240 69 1900 230/06 RMK AO2 TSNO
94908KDBQ DBQ20050509205013005/09/05 20:50:31  5-MIN KDBQ 100250Z AUTO 23007KT 10SM OVC080 17/12 A2975 1240 72 1800 230/07 RMK AO2 SLP070 T01720122 52001 TSNO
94908KDBQ DBQ20050509205513005/09/05 20:55:31  5-MIN KDBQ 100255Z AUTO 24006KT 10SM OVC085 17/12 A2975 1240 72 1800 240/06 RMK AO2 SLP070 T01720122 53015 TSNO
94908KDBQ DBQ20050509210010705/09/05 21:00:31  5-MIN KDBQ 100300Z AUTO 24006KT 10SM OVC085 17/12 A2975 1240 72 1800 240/06 RMK AO2 TSNO
94908KDBQ DBQ20050509210510705/09/05 21:05:31  5-MIN KDBQ 100305Z AUTO 24006KT 10SM OVC080 17/12 A2975 1240 72 1800 240/06 RMK AO2 TSNO
94908KDBQ DBQ20050509211010705/09/05 21:10:31  5-MIN KDBQ 100310Z AUTO 24006KT 10SM OVC080 17/12 A2975 1240 69 1800 240/06 RMK AO2 TSNO
94908KDBQ DBQ20050509211510705/09/05 21:15:31  5-MIN KDBQ 100315Z AUTO 24006KT 10SM OVC085 17/12 A2975 1230 69 1800 240/06 RMK AO2 TSNO
94908KDBQ DBQ20050509212010705/09/05 21:20:31  5-MIN KDBQ 100320Z AUTO 25006KT 10SM OVC085 17/12 A2975 1230 69 1800 250/06 RMK AO2 TSNO
94908KDBQ DBQ20050509212510705/09/05 21:25:31  5-MIN KDBQ 100325Z AUTO 24005KT 10SM OVC085 17/12 A2975 1230 69 1800 240/05 RMK AO2 TSNO
94908KDBQ DBQ20050509213010705/09/05 21:30:31  5-MIN KDBQ 100330Z AUTO 23006KT 10SM OVC090 17/12 A2975 1230 72 1800 230/06 RMK AO2 TSNO
94908KDBQ DBQ20050509213510705/09/05 21:35:31  5-MIN KDBQ 100335Z AUTO 23005KT 10SM OVC085 17/12 A2975 1230 72 1800 230/05 RMK AO2 TSNO
94908KDBQ DBQ20050509214010705/09/05 21:40:31  5-MIN KDBQ 100340Z AUTO 23005KT 10SM OVC085 17/12 A2975 1230 72 1800 230/05 RMK AO2 TSNO
94908KDBQ DBQ20050509214510705/09/05 21:45:31  5-MIN KDBQ 100345Z AUTO 23005KT 10SM OVC085 17/12 A2975 1230 72 1800 230/05 RMK AO2 TSNO
94908KDBQ DBQ20050509215012405/09/05 21:50:31  5-MIN KDBQ 100350Z AUTO 24004KT 10SM OVC085 17/12 A2975 1230 75 1800 230/04 RMK AO2 SLP073 T01670122 TSNO
94908KDBQ DBQ20050509215512405/09/05 21:55:31  5-MIN KDBQ 100355Z AUTO 23004KT 10SM OVC085 17/12 A2975 1230 75 1800 230/04 RMK AO2 SLP073 T01670122 TSNO
94908KDBQ DBQ20050509220010705/09/05 22:00:31  5-MIN KDBQ 100400Z AUTO 23004KT 10SM OVC085 17/12 A2975 1230 75 1800 230/04 RMK AO2 TSNO
94908KDBQ DBQ20050509220510705/09/05 22:05:31  5-MIN KDBQ 100405Z AUTO 23004KT 10SM OVC085 17/12 A2975 1230 75 1800 230/04 RMK AO2 TSNO
94908KDBQ DBQ20050509221010705/09/05 22:10:31  5-MIN KDBQ 100410Z AUTO 24005KT 10SM OVC090 16/12 A2975 1230 77 1700 230/05 RMK AO2 TSNO
94908KDBQ DBQ20050509221510705/09/05 22:15:31  5-MIN KDBQ 100415Z AUTO 23005KT 10SM OVC090 16/12 A2975 1230 77 1700 230/05 RMK AO2 TSNO
94908KDBQ DBQ20050509222011405/09/05 22:20:31  5-MIN KDBQ 100420Z AUTO 23004KT 10SM FEW075 OVC090 17/12 A2975 1230 75 1800 220/04 RMK AO2 TSNO
94908KDBQ DBQ20050509222511405/09/05 22:25:31  5-MIN KDBQ 100425Z AUTO 23004KT 10SM FEW075 OVC090 17/12 A2975 1230 75 1800 230/04 RMK AO2 TSNO
94908KDBQ DBQ20050509223010705/09/05 22:30:31  5-MIN KDBQ 100430Z AUTO 23003KT 10SM OVC090 17/12 A2975 1230 72 1800 230/03 RMK AO2 TSNO
94908KDBQ DBQ20050509223511405/09/05 22:35:31  5-MIN KDBQ 100435Z AUTO 23003KT 10SM FEW075 OVC090 16/12 A2976 1230 77 1700 230/03 RMK AO2 TSNO
94908KDBQ DBQ20050509224011405/09/05 22:40:31  5-MIN KDBQ 100440Z AUTO 24004KT 10SM FEW075 OVC090 16/12 A2976 1230 77 1700 240/04 RMK AO2 TSNO
94908KDBQ DBQ20050509224510705/09/05 22:45:31  5-MIN KDBQ 100445Z AUTO 25005KT 10SM OVC085 16/12 A2976 1230 77 1700 250/05 RMK AO2 TSNO
94908KDBQ DBQ20050509225012405/09/05 22:50:31  5-MIN KDBQ 100450Z AUTO 25004KT 10SM OVC085 16/12 A2976 1230 77 1700 250/04 RMK AO2 SLP073 T01610122 TSNO
94908KDBQ DBQ20050509225512405/09/05 22:55:31  5-MIN KDBQ 100455Z AUTO 24004KT 10SM OVC085 16/12 A2975 1230 77 1700 240/04 RMK AO2 SLP072 T01610122 TSNO
94908KDBQ DBQ20050509230010705/09/05 23:00:31  5-MIN KDBQ 100500Z AUTO 25004KT 10SM OVC085 16/12 A2976 1230 77 1700 250/04 RMK AO2 TSNO
94908KDBQ DBQ20050509230510705/09/05 23:05:31  5-MIN KDBQ 100505Z AUTO 25006KT 10SM OVC090 16/12 A2976 1230 75 1700 250/06 RMK AO2 TSNO
94908KDBQ DBQ20050509231010705/09/05 23:10:31  5-MIN KDBQ 100510Z AUTO 25006KT 10SM OVC090 16/12 A2976 1230 75 1700 250/06 RMK AO2 TSNO
94908KDBQ DBQ20050509231510705/09/05 23:15:31  5-MIN KDBQ 100515Z AUTO 25006KT 10SM OVC090 16/12 A2976 1230 77 1600 250/06 RMK AO2 TSNO
94908KDBQ DBQ20050509232010705/09/05 23:20:31  5-MIN KDBQ 100520Z AUTO 26007KT 10SM BKN090 16/12 A2976 1230 77 1600 260/07 RMK AO2 TSNO
94908KDBQ DBQ20050509232510705/09/05 23:25:31  5-MIN KDBQ 100525Z AUTO 25007KT 10SM BKN090 16/12 A2976 1230 77 1600 250/07 RMK AO2 TSNO
94908KDBQ DBQ20050509233010705/09/05 23:30:31  5-MIN KDBQ 100530Z AUTO 25006KT 10SM SCT090 15/11 A2976 1230 77 1600 250/06 RMK AO2 TSNO
94908KDBQ DBQ20050509233510705/09/05 23:35:31  5-MIN KDBQ 100535Z AUTO 25007KT 10SM FEW090 14/11 A2975 1240 80 1500 250/07 RMK AO2 TSNO
94908KDBQ DBQ20050509234010705/09/05 23:40:31  5-MIN KDBQ 100540Z AUTO 26007KT 10SM FEW090 15/11 A2976 1230 77 1600 260/07 RMK AO2 TSNO
94908KDBQ DBQ20050509234510505/09/05 23:45:31  5-MIN KDBQ 100545Z AUTO 26007KT 10SM CLR 15/11 A2976  1230 77 1600 260/07 RMK AO2 TSNO
94908KDBQ DBQ20050509235015105/09/05 23:50:31  5-MIN KDBQ 100550Z AUTO 26008KT 10SM CLR 15/11 A2976  1220 77 1500 260/08 RMK AO2 SLP075 T01500111 10206 20144 402280144 53015  TSNO
94908KDBQ DBQ20050509235515305/09/05 23:55:31  5-MIN KDBQ 100555Z AUTO 25007KT 10SM FEW070 15/11 A2976 1220 77 1500 250/07 RMK AO2 SLP075 T01500111 10206 20144 402280144 53005  TSNO
94908KDBQ DBQ20050510000010705/10/05 00:00:38  5-MIN KDBQ 100600Z AUTO 25007KT 10SM SCT070 15/12 A2975 1230 80 1600 250/07 RMK AO2 TSNO
94908KDBQ DBQ20050510000510705/10/05 00:05:31  5-MIN KDBQ 100605Z AUTO 26008KT 10SM BKN070 16/12 A2976 1220 77 1600 260/08 RMK AO2 TSNO
94908KDBQ DBQ20050510001010705/10/05 00:10:31  5-MIN KDBQ 100610Z AUTO 26007KT 10SM BKN070 16/12 A2976 1230 77 1600 260/07 RMK AO2 TSNO
94908KDBQ DBQ20050510001510705/10/05 00:15:33  5-MIN KDBQ 100615Z AUTO 26007KT 10SM BKN070 16/11 A2976 1230 72 1700 260/07 RMK AO2 TSNO
94908KDBQ DBQ20050510002010705/10/05 00:20:31  5-MIN KDBQ 100620Z AUTO 26007KT 10SM BKN070 16/11 A2976 1230 74 1600 250/07 RMK AO2 TSNO
94908KDBQ DBQ20050510002510705/10/05 00:25:31  5-MIN KDBQ 100625Z AUTO 26007KT 10SM BKN070 15/11 A2975 1230 77 1600 260/07 RMK AO2 TSNO
94908KDBQ DBQ20050510003010705/10/05 00:30:31  5-MIN KDBQ 100630Z AUTO 26007KT 10SM BKN070 15/11 A2976 1230 77 1600 260/07 RMK AO2 TSNO
94908KDBQ DBQ20050510003510705/10/05 00:35:31  5-MIN KDBQ 100635Z AUTO 26008KT 10SM BKN070 15/11 A2976 1230 77 1600 260/08 RMK AO2 TSNO
94908KDBQ DBQ20050510004010705/10/05 00:40:31  5-MIN KDBQ 100640Z AUTO 26008KT 10SM SCT070 14/11 A2975 1240 80 1500 260/08 RMK AO2 TSNO
94908KDBQ DBQ20050510004510705/10/05 00:45:31  5-MIN KDBQ 100645Z AUTO 25008KT 10SM FEW070 14/11 A2976 1230 80 1500 250/08 RMK AO2 TSNO
94908KDBQ DBQ20050510005012405/10/05 00:50:31  5-MIN KDBQ 100650Z AUTO 25008KT 10SM FEW070 14/11 A2976 1230 80 1500 250/08 RMK AO2 SLP074 T01440111 TSNO
94908KDBQ DBQ20050510005512405/10/05 00:55:31  5-MIN KDBQ 100655Z AUTO 25008KT 10SM FEW070 14/11 A2975 1230 80 1500 250/08 RMK AO2 SLP071 T01440111 TSNO
94908KDBQ DBQ20050510010010505/10/05 01:00:31  5-MIN KDBQ 100700Z AUTO 24006KT 10SM CLR 14/11 A2976  1230 83 1400 240/06 RMK AO2 TSNO
94908KDBQ DBQ20050510010510505/10/05 01:05:31  5-MIN KDBQ 100705Z AUTO 25007KT 10SM CLR 14/11 A2976  1230 83 1400 240/07 RMK AO2 TSNO
94908KDBQ DBQ20050510011010505/10/05 01:10:31  5-MIN KDBQ 100710Z AUTO 25007KT 10SM CLR 14/11 A2976  1230 83 1400 240/07 RMK AO2 TSNO
94908KDBQ DBQ20050510011510505/10/05 01:15:31  5-MIN KDBQ 100715Z AUTO 24007KT 10SM CLR 14/11 A2975  1240 83 1400 240/07 RMK AO2 TSNO
94908KDBQ DBQ20050510012010505/10/05 01:20:31  5-MIN KDBQ 100720Z AUTO 24008KT 10SM CLR 14/11 A2976  1230 83 1400 240/08 RMK AO2 TSNO
94908KDBQ DBQ20050510012510505/10/05 01:25:31  5-MIN KDBQ 100725Z AUTO 24008KT 10SM CLR 14/11 A2975  1230 83 1400 240/08 RMK AO2 TSNO
94908KDBQ DBQ20050510013010505/10/05 01:30:31  5-MIN KDBQ 100730Z AUTO 25009KT 10SM CLR 14/11 A2975  1230 83 1400 240/09 RMK AO2 TSNO
94908KDBQ DBQ20050510013510505/10/05 01:35:31  5-MIN KDBQ 100735Z AUTO 25009KT 10SM CLR 14/11 A2976  1230 83 1400 240/09 RMK AO2 TSNO
94908KDBQ DBQ20050510014010505/10/05 01:40:31  5-MIN KDBQ 100740Z AUTO 25010KT 10SM CLR 14/11 A2975  1240 83 1400 250/10 RMK AO2 TSNO
94908KDBQ DBQ20050510014510505/10/05 01:45:31  5-MIN KDBQ 100745Z AUTO 26011KT 10SM CLR 14/11 A2976  1230 83 1400 250/11 RMK AO2 TSNO
94908KDBQ DBQ20050510015012205/10/05 01:50:31  5-MIN KDBQ 100750Z AUTO 26011KT 10SM CLR 14/11 A2975  1230 80 1500 260/11 RMK AO2 SLP072 T01440111 TSNO
94908KDBQ DBQ20050510015512205/10/05 01:55:31  5-MIN KDBQ 100755Z AUTO 26011KT 10SM CLR 14/11 A2976  1230 77 1500 260/11 RMK AO2 SLP073 T01440106 TSNO
94908KDBQ DBQ20050510020010505/10/05 02:00:31  5-MIN KDBQ 100800Z AUTO 26010KT 10SM CLR 14/11 A2976  1220 80 1400 260/10 RMK AO2 TSNO
94908KDBQ DBQ20050510020510505/10/05 02:05:31  5-MIN KDBQ 100805Z AUTO 26010KT 10SM CLR 14/11 A2976  1230 80 1400 260/10 RMK AO2 TSNO
94908KDBQ DBQ20050510021010505/10/05 02:10:31  5-MIN KDBQ 100810Z AUTO 27009KT 10SM CLR 14/11 A2976  1230 80 1400 270/09 RMK AO2 TSNO
94908KDBQ DBQ20050510021510505/10/05 02:15:31  5-MIN KDBQ 100815Z AUTO 26011KT 10SM CLR 14/11 A2977  1220 77 1500 260/11 RMK AO2 TSNO
94908KDBQ DBQ20050510022010505/10/05 02:20:31  5-MIN KDBQ 100820Z AUTO 27009KT 10SM CLR 14/11 A2976  1230 80 1400 270/09 RMK AO2 TSNO
94908KDBQ DBQ20050510022510505/10/05 02:25:31  5-MIN KDBQ 100825Z AUTO 27009KT 10SM CLR 14/11 A2977  1220 77 1500 270/09 RMK AO2 TSNO
94908KDBQ DBQ20050510023010505/10/05 02:30:31  5-MIN KDBQ 100830Z AUTO 26008KT 10SM CLR 14/11 A2977  1220 80 1400 260/08 RMK AO2 TSNO
94908KDBQ DBQ20050510023510505/10/05 02:35:31  5-MIN KDBQ 100835Z AUTO 26008KT 10SM CLR 14/11 A2976  1230 80 1400 260/08 RMK AO2 TSNO
94908KDBQ DBQ20050510024010505/10/05 02:40:31  5-MIN KDBQ 100840Z AUTO 26009KT 10SM CLR 14/11 A2977  1220 80 1400 260/09 RMK AO2 TSNO
94908KDBQ DBQ20050510024510505/10/05 02:45:31  5-MIN KDBQ 100845Z AUTO 27009KT 10SM CLR 14/11 A2976  1230 80 1400 260/09 RMK AO2 TSNO
94908KDBQ DBQ20050510025012805/10/05 02:50:31  5-MIN KDBQ 100850Z AUTO 27008KT 10SM CLR 14/11 A2977  1220 80 1400 260/08 RMK AO2 SLP077 T01390106 53005 TSNO
94908KDBQ DBQ20050510025512805/10/05 02:55:31  5-MIN KDBQ 100855Z AUTO 26009KT 10SM CLR 14/11 A2977  1220 80 1400 260/09 RMK AO2 SLP078 T01390106 53002 TSNO
94908KDBQ DBQ20050510030010505/10/05 03:00:31  5-MIN KDBQ 100900Z AUTO 27009KT 10SM CLR 14/11 A2976  1230 80 1400 260/09 RMK AO2 TSNO
94908KDBQ DBQ20050510030510505/10/05 03:05:31  5-MIN KDBQ 100905Z AUTO 27009KT 10SM CLR 14/11 A2977  1220 80 1400 260/09 RMK AO2 TSNO
94908KDBQ DBQ20050510031010505/10/05 03:10:31  5-MIN KDBQ 100910Z AUTO 27009KT 10SM CLR 14/11 A2976  1220 80 1400 260/09 RMK AO2 TSNO
94908KDBQ DBQ20050510031510505/10/05 03:15:31  5-MIN KDBQ 100915Z AUTO 26009KT 10SM CLR 13/11 A2977  1220 83 1300 260/09 RMK AO2 TSNO
94908KDBQ DBQ20050510032010505/10/05 03:20:31  5-MIN KDBQ 100920Z AUTO 26009KT 10SM CLR 14/11 A2978  1210 80 1400 260/09 RMK AO2 TSNO
94908KDBQ DBQ20050510032510505/10/05 03:25:31  5-MIN KDBQ 100925Z AUTO 26008KT 10SM CLR 13/11 A2977  1220 83 1300 260/08 RMK AO2 TSNO
94908KDBQ DBQ20050510033010505/10/05 03:30:31  5-MIN KDBQ 100930Z AUTO 26008KT 10SM CLR 13/11 A2978  1210 83 1300 260/08 RMK AO2 TSNO
94908KDBQ DBQ20050510033510505/10/05 03:35:31  5-MIN KDBQ 100935Z AUTO 26008KT 10SM CLR 13/11 A2977  1220 86 1300 260/08 RMK AO2 TSNO
94908KDBQ DBQ20050510034010505/10/05 03:40:31  5-MIN KDBQ 100940Z AUTO 25008KT 10SM CLR 13/11 A2978  1210 86 1300 250/08 RMK AO2 TSNO
94908KDBQ DBQ20050510034510505/10/05 03:45:31  5-MIN KDBQ 100945Z AUTO 25008KT 10SM CLR 12/11 A2978  1210 89 1200 250/08 RMK AO2 TSNO
94908KDBQ DBQ20050510035012205/10/05 03:50:31  5-MIN KDBQ 100950Z AUTO 24006KT 10SM CLR 12/10 A2977  1220 89 1100 240/06 RMK AO2 SLP079 T01170100 TSNO
94908KDBQ DBQ20050510035512205/10/05 03:55:31  5-MIN KDBQ 100955Z AUTO 25005KT 10SM CLR 12/10 A2978  1200 89 1100 250/05 RMK AO2 SLP084 T01170100 TSNO
94908KDBQ DBQ20050510040010505/10/05 04:00:31  5-MIN KDBQ 101000Z AUTO 26006KT 10SM CLR 12/10 A2977  1220 89 1100 260/06 RMK AO2 TSNO
94908KDBQ DBQ20050510040510505/10/05 04:05:31  5-MIN KDBQ 101005Z AUTO 25007KT 10SM CLR 12/10 A2978  1200 89 1100 250/07 RMK AO2 TSNO
94908KDBQ DBQ20050510041010505/10/05 04:10:31  5-MIN KDBQ 101010Z AUTO 23006KT 10SM CLR 11/09 A2979  1200 89 1100 230/06 RMK AO2 TSNO
94908KDBQ DBQ20050510041510505/10/05 04:15:31  5-MIN KDBQ 101015Z AUTO 24007KT 10SM CLR 11/09 A2979  1200 89 1100 240/07 RMK AO2 TSNO
94908KDBQ DBQ20050510042010505/10/05 04:20:31  5-MIN KDBQ 101020Z AUTO 24007KT 10SM CLR 11/09 A2978  1210 89 1100 240/07 RMK AO2 TSNO
94908KDBQ DBQ20050510042510505/10/05 04:25:31  5-MIN KDBQ 101025Z AUTO 25008KT 10SM CLR 11/09 A2978  1210 89 1100 250/08 RMK AO2 TSNO
94908KDBQ DBQ20050510043010505/10/05 04:30:31  5-MIN KDBQ 101030Z AUTO 26008KT 10SM CLR 12/10 A2978  1210 89 1100 260/08 RMK AO2 TSNO
94908KDBQ DBQ20050510043510505/10/05 04:35:31  5-MIN KDBQ 101035Z AUTO 25008KT 10SM CLR 12/10 A2978  1200 89 1100 250/08 RMK AO2 TSNO
94908KDBQ DBQ20050510044010505/10/05 04:40:31  5-MIN KDBQ 101040Z AUTO 26007KT 10SM CLR 12/10 A2979  1200 89 1100 260/07 RMK AO2 TSNO
94908KDBQ DBQ20050510044509405/10/05 04:45:31  5-MIN KDBQ 101045Z 25007KT 10SM CLR 12/10 A2979 1200 89 1100 250/07 RMK AO2
94908KDBQ DBQ20050510045011105/10/05 04:50:31  5-MIN KDBQ 101050Z 26006KT 10SM CLR 12/10 A2979 1200 89 1100 260/06 RMK AO2 SLP086 T01170100
94908KDBQ DBQ20050510045511105/10/05 04:55:31  5-MIN KDBQ 101055Z 26006KT 10SM CLR 12/10 A2979 1200 89 1100 260/06 RMK AO2 SLP086 T01170100
94908KDBQ DBQ20050510050009405/10/05 05:00:31  5-MIN KDBQ 101100Z 26008KT 10SM CLR 12/10 A2979 1200 89 1100 260/08 RMK AO2
94908KDBQ DBQ20050510050509405/10/05 05:05:31  5-MIN KDBQ 101105Z 26008KT 10SM CLR 12/10 A2979 1200 86 1200 260/08 RMK AO2
94908KDBQ DBQ20050510051009405/10/05 05:10:31  5-MIN KDBQ 101110Z 26008KT 10SM CLR 12/11 A2980 1190 89 1200 260/08 RMK AO2
94908KDBQ DBQ20050510051509405/10/05 05:15:31  5-MIN KDBQ 101115Z 26008KT 10SM CLR 12/11 A2980 1190 89 1200 260/08 RMK AO2
94908KDBQ DBQ20050510052009405/10/05 05:20:31  5-MIN KDBQ 101120Z 27008KT 10SM CLR 12/11 A2980 1190 89 1200 260/08 RMK AO2
94908KDBQ DBQ20050510052509405/10/05 05:25:31  5-MIN KDBQ 101125Z 27008KT 10SM CLR 12/11 A2980 1190 89 1200 270/08 RMK AO2
94908KDBQ DBQ20050510053009405/10/05 05:30:31  5-MIN KDBQ 101130Z 27008KT 10SM CLR 13/11 A2981 1180 86 1200 270/08 RMK AO2
94908KDBQ DBQ20050510053509405/10/05 05:35:31  5-MIN KDBQ 101135Z 27008KT 10SM CLR 13/11 A2981 1180 86 1200 270/08 RMK AO2
94908KDBQ DBQ20050510054009405/10/05 05:40:31  5-MIN KDBQ 101140Z 27009KT 10SM CLR 13/11 A2980 1190 86 1200 270/09 RMK AO2
94908KDBQ DBQ20050510054509405/10/05 05:45:31  5-MIN KDBQ 101145Z 27008KT 10SM CLR 13/11 A2980 1190 89 1200 270/08 RMK AO2
94908KDBQ DBQ20050510055012905/10/05 05:50:31  5-MIN KDBQ 101150Z 27007KT 10SM CLR 13/11 A2981 1180 89 1200 270/07 RMK AO2 SLP091 T01280111 10161 20111 53002
94908KDBQ DBQ20050510055512905/10/05 05:55:31  5-MIN KDBQ 101155Z 27008KT 10SM CLR 13/11 A2981 1180 86 1300 270/08 RMK AO2 SLP092 T01330111 10161 20111 53013
94908KDBQ DBQ20050510060010105/10/05 06:00:31  5-MIN KDBQ 101200Z 27007KT 10SM CLR 13/11 A2982 1170 86 1300 270/07 RMK AO2 PRESRR
94908KDBQ DBQ20050510060509405/10/05 06:05:31  5-MIN KDBQ 101205Z 28008KT 10SM CLR 13/11 A2982 1170 86 1300 280/08 RMK AO2
94908KDBQ DBQ20050510061009405/10/05 06:10:31  5-MIN KDBQ 101210Z 29007KT 10SM CLR 13/11 A2983 1160 86 1300 290/07 RMK AO2
94908KDBQ DBQ20050510061509705/10/05 06:15:31  5-MIN KDBQ 101215Z 29007KT 10SM FEW015 13/11 A2982 1170 86 1300 280/07 RMK AO2
94908KDBQ DBQ20050510062009705/10/05 06:20:31  5-MIN KDBQ 101220Z 28008KT 10SM BKN015 13/11 A2982 1170 86 1300 280/08 RMK AO2
94908KDBQ DBQ20050510062509705/10/05 06:25:31  5-MIN KDBQ 101225Z 28007KT 10SM BKN015 13/11 A2984 1160 86 1300 280/07 RMK AO2
94908KDBQ DBQ20050510063009705/10/05 06:30:31  5-MIN KDBQ 101230Z 29008KT 10SM BKN015 13/11 A2982 1170 86 1300 290/08 RMK AO2
94908KDBQ DBQ20050510063509705/10/05 06:35:31  5-MIN KDBQ 101235Z 28010KT 10SM OVC015 13/11 A2983 1170 86 1300 280/10 RMK AO2
94908KDBQ DBQ20050510064009705/10/05 06:40:31  5-MIN KDBQ 101240Z 27009KT 10SM BKN015 13/11 A2983 1160 86 1300 270/09 RMK AO2
94908KDBQ DBQ20050510064509705/10/05 06:45:31  5-MIN KDBQ 101245Z 28009KT 10SM BKN015 13/11 A2984 1150 86 1300 280/09 RMK AO2
94908KDBQ DBQ20050510065011405/10/05 06:50:31  5-MIN KDBQ 101250Z 28008KT 10SM SCT015 14/11 A2984 1150 83 1300 280/08 RMK AO2 SLP104 T01390111
94908KDBQ DBQ20050510065511405/10/05 06:55:31  5-MIN KDBQ 101255Z 30007KT 10SM SCT015 14/11 A2983 1160 83 1300 300/07 RMK AO2 SLP100 T01390111
94908KDBQ DBQ20050510070009705/10/05 07:00:31  5-MIN KDBQ 101300Z 29008KT 10SM BKN013 14/12 A2983 1160 86 1300 290/08 RMK AO2
94908KDBQ DBQ20050510070509705/10/05 07:05:31  5-MIN KDBQ 101305Z 28009KT 9SM BKN015 14/12 A2984 1150  86 1300 280/09 RMK AO2
94908KDBQ DBQ20050510071009705/10/05 07:10:31  5-MIN KDBQ 101310Z 28009KT 9SM BKN012 14/12 A2985 1150  86 1300 280/09 RMK AO2
94908KDBQ DBQ20050510071509705/10/05 07:15:31  5-MIN KDBQ 101315Z 27010KT 9SM BKN012 14/11 A2985 1150  83 1300 270/10 RMK AO2
94908KDBQ DBQ20050510072010905/10/05 07:20:31  5-MIN KDBQ 101320Z 28012KT 9SM OVC010 14/12 A2984 1150  86 1300 280/12 RMK AO2 CIG 010V013
94908KDBQ DBQ20050510072509705/10/05 07:25:31  5-MIN KDBQ 101325Z 29013KT 9SM OVC010 14/12 A2985 1140  86 1300 290/13 RMK AO2
94908KDBQ DBQ20050510073009705/10/05 07:30:31  5-MIN KDBQ 101330Z 29011KT 9SM OVC010 14/12 A2986 1140  86 1300 290/11 RMK AO2
94908KDBQ DBQ20050510073509705/10/05 07:35:31  5-MIN KDBQ 101335Z 28011KT 9SM OVC010 14/11 A2986 1140  83 1300 280/11 RMK AO2
94908KDBQ DBQ20050510074009705/10/05 07:40:31  5-MIN KDBQ 101340Z 28010KT 8SM OVC010 14/12 A2986 1130  86 1300 280/10 RMK AO2
94908KDBQ DBQ20050510074509705/10/05 07:45:31  5-MIN KDBQ 101345Z 28011KT 8SM OVC010 14/12 A2985 1140  86 1300 280/11 RMK AO2
94908KDBQ DBQ20050510075011405/10/05 07:50:31  5-MIN KDBQ 101350Z 28011KT 9SM OVC010 14/12 A2987 1130  86 1300 280/11 RMK AO2 SLP113 T01390117
94908KDBQ DBQ20050510075511405/10/05 07:55:31  5-MIN KDBQ 101355Z 29011KT 9SM OVC010 14/12 A2987 1130  86 1300 290/11 RMK AO2 SLP113 T01390117
94908KDBQ DBQ20050510210010705/10/05 21:00:31  5-MIN KDBQ 110300Z AUTO 03009KT 10SM SCT065 18/13 A2992 1080 70 1800 030/09 RMK AO2 TSNO
94908KDBQ DBQ20050510210510705/10/05 21:05:31  5-MIN KDBQ 110305Z AUTO 04010KT 10SM SCT065 18/13 A2992 1080 70 1800 030/10 RMK AO2 TSNO
94908KDBQ DBQ20050510211010705/10/05 21:10:31  5-MIN KDBQ 110310Z AUTO 04009KT 10SM BKN070 18/13 A2992 1080 70 1800 040/09 RMK AO2 TSNO
94908KDBQ DBQ20050510211510705/10/05 21:15:31  5-MIN KDBQ 110315Z AUTO 03009KT 10SM BKN070 19/13 A2992 1080 67 1800 030/09 RMK AO2 TSNO
94908KDBQ DBQ20050510212010705/10/05 21:20:31  5-MIN KDBQ 110320Z AUTO 03009KT 10SM BKN070 18/13 A2992 1070 70 1800 030/09 RMK AO2 TSNO
94908KDBQ DBQ20050510212510705/10/05 21:25:31  5-MIN KDBQ 110325Z AUTO 03009KT 10SM SCT070 18/13 A2992 1080 70 1800 030/09 RMK AO2 TSNO
94908KDBQ DBQ20050510213010705/10/05 21:30:31  5-MIN KDBQ 110330Z AUTO 04009KT 10SM SCT070 18/13 A2992 1080 70 1800 040/09 RMK AO2 TSNO
94908KDBQ DBQ20050510213510705/10/05 21:35:31  5-MIN KDBQ 110335Z AUTO 04008KT 10SM BKN070 18/13 A2992 1070 72 1700 040/08 RMK AO2 TSNO
94908KDBQ DBQ20050510214010705/10/05 21:40:31  5-MIN KDBQ 110340Z AUTO 04008KT 10SM BKN070 18/13 A2992 1080 70 1800 030/08 RMK AO2 TSNO
94908KDBQ DBQ20050510214511405/10/05 21:45:31  5-MIN KDBQ 110345Z AUTO 04008KT 10SM SCT070 BKN080 18/13 A2991 1080 70 1800 040/08 RMK AO2 TSNO
94908KDBQ DBQ20050510215013105/10/05 21:50:31  5-MIN KDBQ 110350Z AUTO 05008KT 10SM SCT070 SCT080 18/12 A2991 1090 69 1700 050/08 RMK AO2 SLP125 T01780122 TSNO
94908KDBQ DBQ20050510215512405/10/05 21:55:31  5-MIN KDBQ 110355Z AUTO 06007KT 10SM BKN075 18/12 A2991 1090 67 1800 060/07 RMK AO2 SLP125 T01830122 TSNO
94908KDBQ DBQ20050510220011405/10/05 22:00:31  5-MIN KDBQ 110400Z AUTO 05009KT 10SM BKN075 18/12 A2990 1100 67 1800 050/09 RMK AO2 PRESFR TSNO
94908KDBQ DBQ20050510220510705/10/05 22:05:31  5-MIN KDBQ 110405Z AUTO 05008KT 10SM SCT075 18/12 A2990 1100 67 1800 050/08 RMK AO2 TSNO
94908KDBQ DBQ20050510221010705/10/05 22:10:31  5-MIN KDBQ 110410Z AUTO 06007KT 10SM SCT075 18/12 A2990 1100 67 1800 060/07 RMK AO2 TSNO
94908KDBQ DBQ20050510221510705/10/05 22:15:31  5-MIN KDBQ 110415Z AUTO 06006KT 10SM BKN080 19/12 A2990 1100 65 1800 060/06 RMK AO2 TSNO
94908KDBQ DBQ20050510222010705/10/05 22:20:31  5-MIN KDBQ 110420Z AUTO 07006KT 10SM BKN080 19/12 A2990 1100 65 1800 070/06 RMK AO2 TSNO
94908KDBQ DBQ20050510222510705/10/05 22:25:31  5-MIN KDBQ 110425Z AUTO 08007KT 10SM BKN080 19/12 A2990 1100 65 1800 080/07 RMK AO2 TSNO
94908KDBQ DBQ20050510223010705/10/05 22:30:31  5-MIN KDBQ 110430Z AUTO 07007KT 10SM BKN080 18/12 A2990 1100 67 1800 070/07 RMK AO2 TSNO
94908KDBQ DBQ20050510223510705/10/05 22:35:31  5-MIN KDBQ 110435Z AUTO 08008KT 10SM OVC080 19/12 A2990 1100 65 1800 080/08 RMK AO2 TSNO
94908KDBQ DBQ20050510224010705/10/05 22:40:31  5-MIN KDBQ 110440Z AUTO 08007KT 10SM OVC080 19/12 A2989 1100 65 1900 070/07 RMK AO2 TSNO
94908KDBQ DBQ20050510224510705/10/05 22:45:31  5-MIN KDBQ 110445Z AUTO 08008KT 10SM OVC080 19/12 A2989 1110 65 1900 080/08 RMK AO2 TSNO
94908KDBQ DBQ20050510225012405/10/05 22:50:31  5-MIN KDBQ 110450Z AUTO 08009KT 10SM BKN080 18/12 A2988 1110 67 1800 070/09 RMK AO2 SLP116 T01830122 TSNO
94908KDBQ DBQ20050510225512405/10/05 22:55:31  5-MIN KDBQ 110455Z AUTO 08009KT 10SM BKN080 18/12 A2988 1110 67 1800 080/09 RMK AO2 SLP117 T01830122 TSNO
94908KDBQ DBQ20050510230010705/10/05 23:00:31  5-MIN KDBQ 110500Z AUTO 07009KT 10SM SCT080 19/12 A2988 1110 62 1900 070/09 RMK AO2 TSNO
94908KDBQ DBQ20050510230510705/10/05 23:05:31  5-MIN KDBQ 110505Z AUTO 07009KT 10SM SCT080 19/12 A2988 1110 62 1900 070/09 RMK AO2 TSNO
94908KDBQ DBQ20050510231010705/10/05 23:10:31  5-MIN KDBQ 110510Z AUTO 07010KT 10SM FEW080 19/12 A2988 1110 62 1900 070/10 RMK AO2 TSNO
94908KDBQ DBQ20050510231510705/10/05 23:15:31  5-MIN KDBQ 110515Z AUTO 08010KT 10SM FEW110 19/12 A2988 1110 60 1900 080/10 RMK AO2 TSNO
94908KDBQ DBQ20050510232010705/10/05 23:20:31  5-MIN KDBQ 110520Z AUTO 08009KT 10SM SCT110 19/12 A2989 1110 60 1900 080/09 RMK AO2 TSNO
94908KDBQ DBQ20050510232510705/10/05 23:25:31  5-MIN KDBQ 110525Z AUTO 07009KT 10SM SCT110 19/12 A2989 1110 60 1900 070/09 RMK AO2 TSNO
94908KDBQ DBQ20050510233010705/10/05 23:30:31  5-MIN KDBQ 110530Z AUTO 07009KT 10SM BKN110 19/12 A2988 1110 60 1900 070/09 RMK AO2 TSNO
94908KDBQ DBQ20050510233510705/10/05 23:35:31  5-MIN KDBQ 110535Z AUTO 08008KT 10SM BKN110 19/12 A2988 1120 60 1900 080/08 RMK AO2 TSNO
94908KDBQ DBQ20050510234010705/10/05 23:40:31  5-MIN KDBQ 110540Z AUTO 08009KT 10SM BKN110 19/12 A2988 1120 60 1900 080/09 RMK AO2 TSNO
94908KDBQ DBQ20050510234510705/10/05 23:45:31  5-MIN KDBQ 110545Z AUTO 07010KT 10SM BKN110 19/12 A2988 1120 60 1900 070/10 RMK AO2 TSNO
94908KDBQ DBQ20050510235016705/10/05 23:50:31  5-MIN KDBQ 110550Z AUTO 06009KT 10SM FEW070 SCT100  BKN110 19/12 A2988 1120 60 1900 060/09 RMK AO2 SLP113 T01940117 10239 20172 402440111 53014 TSNO
94908KDBQ DBQ20050510235516705/10/05 23:55:31  5-MIN KDBQ 110555Z AUTO 06010KT 10SM SCT070 SCT090  BKN110 19/12 A2988 1120 60 1900 050/10 RMK AO2 SLP113 T01940117 10239 20172 402440111 56014 TSNO
94908KDBQ DBQ20050511000012205/11/05 00:00:38  5-MIN KDBQ 110600Z AUTO 06008KT 10SM SCT070 BKN095  BKN120 19/12 A2988 1120 60 1900 060/08 RMK AO2 TSNO
94908KDBQ DBQ20050511000512205/11/05 00:05:31  5-MIN KDBQ 110605Z AUTO 07010KT 10SM SCT070 BKN100  BKN120 19/12 A2987 1130 60 1900 070/10 RMK AO2 TSNO
94908KDBQ DBQ20050511001012105/11/05 00:10:31  5-MIN KDBQ 110610Z AUTO 08013KT 10SM BKN065 BKN095 19/12 A2985 1140 60 2000 080/13 RMK AO2 PRESFR TSNO
94908KDBQ DBQ20050511001512105/11/05 00:15:31  5-MIN KDBQ 110615Z AUTO 09014KT 10SM BKN065 BKN095 19/12 A2985 1150 60 2000 090/14 RMK AO2 PRESFR TSNO
94908KDBQ DBQ20050511002011405/11/05 00:20:31  5-MIN KDBQ 110620Z AUTO 09014KT 10SM SCT070 BKN095 19/12 A2985 1150 60 2000 090/14 RMK AO2 TSNO
94908KDBQ DBQ20050511002511405/11/05 00:25:31  5-MIN KDBQ 110625Z AUTO 09014KT 10SM SCT070 SCT100 19/12 A2984 1150 60 2000 090/14 RMK AO2 TSNO
94908KDBQ DBQ20050511003010705/11/05 00:30:31  5-MIN KDBQ 110630Z AUTO 10013KT 10SM FEW070 19/12 A2984 1160 60 2000 100/13 RMK AO2 TSNO
94908KDBQ DBQ20050511003510705/11/05 00:35:31  5-MIN KDBQ 110635Z AUTO 10011KT 10SM FEW065 19/12 A2984 1150 60 2000 100/11 RMK AO2 TSNO
94908KDBQ DBQ20050511004010705/11/05 00:40:31  5-MIN KDBQ 110640Z AUTO 09008KT 10SM FEW110 19/12 A2986 1140 62 1900 090/08 RMK AO2 TSNO
94908KDBQ DBQ20050511004510705/11/05 00:45:31  5-MIN KDBQ 110645Z AUTO 07008KT 10SM FEW060 19/12 A2986 1130 62 1900 070/08 RMK AO2 TSNO
94908KDBQ DBQ20050511005012405/11/05 00:50:31  5-MIN KDBQ 110650Z AUTO 04008KT 10SM SCT060 19/12 A2986 1140 62 1900 040/08 RMK AO2 SLP105 T01890117 TSNO
94908KDBQ DBQ20050511005512405/11/05 00:55:31  5-MIN KDBQ 110655Z AUTO 06008KT 10SM BKN060 19/12 A2985 1140 62 1900 060/08 RMK AO2 SLP105 T01890117 TSNO
94908KDBQ DBQ20050511010010705/11/05 01:00:31  5-MIN KDBQ 110700Z AUTO 08009KT 10SM BKN060 19/12 A2985 1140 62 1900 080/09 RMK AO2 TSNO
94908KDBQ DBQ20050511010510705/11/05 01:05:31  5-MIN KDBQ 110705Z AUTO 08010KT 10SM BKN065 19/12 A2985 1140 62 1900 080/10 RMK AO2 TSNO
94908KDBQ DBQ20050511011010705/11/05 01:10:31  5-MIN KDBQ 110710Z AUTO 07009KT 10SM BKN060 18/12 A2986 1130 65 1800 060/09 RMK AO2 TSNO
94908KDBQ DBQ20050511011511405/11/05 01:15:31  5-MIN KDBQ 110715Z AUTO 05010KT 10SM BKN060 BKN085 18/12 A2987 1130 65 1800 050/10 RMK AO2 TSNO
94908KDBQ DBQ20050511012011405/11/05 01:20:31  5-MIN KDBQ 110720Z AUTO 03009KT 10SM SCT065 BKN090 18/12 A2986 1130 65 1800 030/09 RMK AO2 TSNO
94908KDBQ DBQ20050511012511405/11/05 01:25:31  5-MIN KDBQ 110725Z AUTO 04009KT 10SM SCT060 SCT090 17/12 A2986 1130 72 1700 040/09 RMK AO2 TSNO
94908KDBQ DBQ20050511013011405/11/05 01:30:31  5-MIN KDBQ 110730Z AUTO 07009KT 10SM FEW060 SCT090 18/12 A2986 1140 67 1800 070/09 RMK AO2 TSNO
94908KDBQ DBQ20050511013510705/11/05 01:35:31  5-MIN KDBQ 110735Z AUTO 06010KT 10SM FEW060 18/12 A2986 1140 67 1800 060/10 RMK AO2 TSNO
94908KDBQ DBQ20050511014010705/11/05 01:40:31  5-MIN KDBQ 110740Z AUTO 02010KT 10SM FEW060 18/12 A2987 1130 67 1800 020/10 RMK AO2 TSNO
94908KDBQ DBQ20050511014510705/11/05 01:45:31  5-MIN KDBQ 110745Z AUTO 02010KT 10SM FEW060 17/12 A2988 1120 72 1700 020/10 RMK AO2 TSNO
94908KDBQ DBQ20050511015013105/11/05 01:50:31  5-MIN KDBQ 110750Z AUTO 03009KT 10SM SCT060 17/12 A2989 1110 72 1700 030/09 RMK AO2 PRESRR SLP116 T01720122 TSNO
94908KDBQ DBQ20050511015512405/11/05 01:55:31  5-MIN KDBQ 110755Z AUTO 04008KT 10SM SCT060 17/12 A2989 1110 72 1700 030/08 RMK AO2 SLP118 T01720122 TSNO
94908KDBQ DBQ20050511020013305/11/05 02:00:31  5-MIN KDBQ 110800Z AUTO 03005KT 10SM -RA SCT055 BKN080  17/12 A2989 1100 72 1700 030/05 RMK AO2 RAB0758 P0000 TSNO
94908KDBQ DBQ20050511020513305/11/05 02:05:31  5-MIN KDBQ 110805Z AUTO 04009KT 10SM -RA SCT060 BKN085  17/12 A2989 1110 75 1600 040/09 RMK AO2 RAB0758 P0000 TSNO
94908KDBQ DBQ20050511021013305/11/05 02:10:31  5-MIN KDBQ 110810Z AUTO 05007KT 10SM -RA BKN060 OVC080  17/12 A2988 1110 75 1600 050/07 RMK AO2 RAB0758 P0000 TSNO
94908KDBQ DBQ20050511021513305/11/05 02:15:31  5-MIN KDBQ 110815Z AUTO 02009KT 10SM -RA BKN060 OVC080  16/12 A2990 1100 77 1500 020/09 RMK AO2 RAB0758 P0000 TSNO
94908KDBQ DBQ20050511022014705/11/05 02:20:31  5-MIN KDBQ 110820Z AUTO 35010KT 10SM -RA FEW055 BKN070  OVC100 16/12 A2993 1070 77 1500 350/10 RMK AO2 RAB0758 PRESRR P0000 TSNO
94908KDBQ DBQ20050511022514705/11/05 02:25:31  5-MIN KDBQ 110825Z AUTO 34011KT 10SM -RA FEW055 BKN075  OVC095 16/13 A2995 1060 80 1500 340/11 RMK AO2 RAB0758 PRESRR P0000 TSNO
94908KDBQ DBQ20050511023014005/11/05 02:30:31  5-MIN KDBQ 110830Z AUTO 34006KT 10SM -RA FEW055 BKN065  OVC100 16/12 A2995 1050 77 1500 340/06 RMK AO2 RAB0758 P0000 TSNO
94908KDBQ DBQ20050511023514505/11/05 02:35:31  5-MIN KDBQ 110835Z AUTO 36006KT 8SM RA FEW042 BKN060  OVC095 16/12 A2997 1040 77 1400 360/06 RMK AO2 RAB0758 PRESRR P0001 TSNO
94908KDBQ DBQ20050511024013805/11/05 02:40:31  5-MIN KDBQ 110840Z AUTO 33007KT 5SM RA FEW042 BKN049  OVC095 16/13 A2999 1010 83 1400 330/07 RMK AO2 RAB0758 P0003 TSNO
94908KDBQ DBQ20050511024513105/11/05 02:45:31  5-MIN KDBQ 110845Z AUTO 33007KT 3SM RA BKN046 OVC070  16/13 A2999 1010 83 1400 330/07 RMK AO2 RAB0758 P0004 TSNO
94908KDBQ DBQ20050511025016305/11/05 02:50:31  5-MIN KDBQ 110850Z AUTO 35007KT 3SM RA BR BKN044 OVC060 15/13 A3000 1010 86 1300 350/07 RMK AO2 RAB0758 SLP153 P0006 60006  T01500128 56014 TSNO
94908KDBQ DBQ20050511025516405/11/05 02:55:31  5-MIN KDBQ 110855Z AUTO 36008KT 3SM +RA BR BKN044 OVC050 15/13 A2999 1010 86 1300 360/08 RMK AO2 RAB0758 SLP154 P0008 60008  T01500128 53039 TSNO
94908KDBQ DBQ20050511030012605/11/05 03:00:31  5-MIN KDBQ 110900Z AUTO 36008KT 4SM +RA BR FEW024 OVC044 14/13 A3000 1000 93 1200 360/08 RMK AO2 P0003 TSNO
94908KDBQ DBQ20050511030512505/11/05 03:05:31  5-MIN KDBQ 110905Z AUTO 01007KT 4SM +RA BR FEW020 OVC042 14/13 A3001 990 93 1200 360/07 RMK AO2 P0005 TSNO
94908KDBQ DBQ20050511031012405/11/05 03:10:31  5-MIN KDBQ 110910Z AUTO 02007KT 4SM RA BR FEW023 OVC042 14/13 A3001 990 93 1200 020/07 RMK AO2 P0007 TSNO
94908KDBQ DBQ20050511031512605/11/05 03:15:31  5-MIN KDBQ 110915Z AUTO 04008KT 4SM +RA BR SCT025 OVC042 14/13 A3001 1000 93 1200 040/08 RMK AO2 P0009 TSNO
94908KDBQ DBQ20050511032012605/11/05 03:20:31  5-MIN KDBQ 110920Z AUTO 05014KT 4SM +RA BR BKN023 OVC042 14/13 A2999 1020 93 1200 050/14 RMK AO2 P0012 TSNO
94908KDBQ DBQ20050511032513205/11/05 03:25:31  5-MIN KDBQ 110925Z AUTO 05013KT 4SM RA BR BKN027 OVC042 14/13 A2998 1030 93 1200 050/13 RMK AO2 PRESFR P0014 TSNO
94908KDBQ DBQ20050511033013205/11/05 03:30:31  5-MIN KDBQ 110930Z AUTO 05017KT 4SM RA BR BKN025 OVC042 14/13 A2996 1040 93 1300 050/17 RMK AO2 PRESFR P0015 TSNO
94908KDBQ DBQ20050511033512505/11/05 03:35:31  5-MIN KDBQ 110935Z AUTO 04016KT 4SM RA BR BKN025 OVC042 14/13 A2995 1050 96 1200 040/16 RMK AO2 P0017 TSNO
94908KDBQ DBQ20050511034013305/11/05 03:40:31  5-MIN KDBQ 110940Z AUTO 04016KT 5SM -RA BR BKN027 BKN042 OVC100 14/13 A2995 1050 93 1200 040/16 RMK AO2 P0018 TSNO
94908KDBQ DBQ20050511034513305/11/05 03:45:31  5-MIN KDBQ 110945Z AUTO 04016KT 5SM -RA BR FEW007 BKN029 OVC095 14/13 A2996 1040 93 1200 040/16 RMK AO2 P0019 TSNO
94908KDBQ DBQ20050511035015805/11/05 03:50:31  5-MIN KDBQ 110950Z AUTO 04014G21KT 6SM -RA BR FEW007  BKN031 OVC095 14/13 A2997 1030 93 1200 040/14G21 RMK AO2 SLP145 P0019  T01390128 TSNO
94908KDBQ DBQ20050511035516505/11/05 03:55:31  5-MIN KDBQ 110955Z AUTO 04012G18KT 5SM -RA BR FEW007  BKN031 OVC090 14/13 A2998 1020 96 1200 040/12G18 RMK AO2 PRESRR SLP149  P0020 T01390133 TSNO
94908KDBQ DBQ20050511040013205/11/05 04:00:31  5-MIN KDBQ 111000Z AUTO 05010KT 5SM RA BR FEW007 BKN035 OVC090 14/13 A2998 1020 93 1200 050/10 RMK AO2 P0001 TSNO
94908KDBQ DBQ20050511040513905/11/05 04:05:31  5-MIN KDBQ 111005Z AUTO 06010KT 5SM RA BR FEW007 BKN080 OVC095 14/13 A3000 1010 93 1200 060/10 RMK AO2 PRESRR P0002 TSNO
94908KDBQ DBQ20050511041013205/11/05 04:10:31  5-MIN KDBQ 111010Z AUTO 05009KT 5SM RA BR FEW007 BKN080 OVC090 14/13 A3000 1010 93 1100 050/09 RMK AO2 P0003 TSNO
94908KDBQ DBQ20050511041513205/11/05 04:15:31  5-MIN KDBQ 111015Z AUTO 04013KT 4SM RA BR SCT035 BKN075 OVC090 14/13 A2998 1030 93 1200 040/13 RMK AO2 P0004 TSNO
94908KDBQ DBQ20050511042013205/11/05 04:20:31  5-MIN KDBQ 111020Z AUTO 03018KT 4SM RA BR SCT033 BKN080 OVC090 14/13 A2997 1030 93 1200 030/18 RMK AO2 P0006 TSNO
94908KDBQ DBQ20050511042513205/11/05 04:25:31  5-MIN KDBQ 111025Z AUTO 04016KT 4SM RA BR BKN033 BKN075 OVC090 14/13 A2999 1020 93 1200 040/16 RMK AO2 P0007 TSNO
94908KDBQ DBQ20050511043012605/11/05 04:30:31  5-MIN KDBQ 111030Z AUTO 05013KT 4SM +RA BR BKN029 OVC075 14/13 A2998 1020 96 1200 050/13 RMK AO2 P0009 TSNO
94908KDBQ DBQ20050511043513205/11/05 04:35:31  5-MIN KDBQ 111035Z AUTO 05011G20KT 3SM RA BR BKN029  OVC075 14/13 A2997 1030 96 1200 050/11G20 RMK AO2 P0013 TSNO
94908KDBQ DBQ20050511044013305/11/05 04:40:31  5-MIN KDBQ 111040Z AUTO 08018G22KT 4SM +RA BR BKN029  OVC065 14/13 A2999 1020 96 1200 080/18G22 RMK AO2 P0014 TSNO
94908KDBQ DBQ20050511044513205/11/05 04:45:31  5-MIN KDBQ 111045Z AUTO 06017G22KT 4SM RA BR BKN031  OVC090 14/13 A2997 1030 93 1200 060/17G22 RMK AO2 P0015 TSNO
94908KDBQ DBQ20050511045013605/11/05 04:50:31  5-MIN KDBQ 111050Z AUTO 03015KT 4SM RA BR OVC031 14/13  A2997 1040 93 1200 030/15 RMK AO2 SLP144 P0017 T01390128 TSNO
94908KDBQ DBQ20050511045512505/11/05 04:55:31  5-MIN KDBQ 111055Z 05012KT 5SM RA BR OVC033 14/13 A2997 1030 93 1200 050/12 RMK AO2 SLP147 P0018 T01390128
94908KDBQ DBQ20050511050010805/11/05 05:00:31  5-MIN KDBQ 111100Z 06013KT 5SM RA BR OVC037 14/13 A2998 1030 93 1200 060/13 RMK AO2 P0001
94908KDBQ DBQ20050511050510805/11/05 05:05:31  5-MIN KDBQ 111105Z 06009KT 4SM RA BR OVC035 14/13 A2998 1030 93 1200 050/09 RMK AO2 P0002
94908KDBQ DBQ20050511051010805/11/05 05:10:31  5-MIN KDBQ 111110Z 06009KT 4SM RA BR OVC033 14/13 A2997 1030 93 1200 060/09 RMK AO2 P0003
94908KDBQ DBQ20050511051511705/11/05 05:15:31  5-MIN KDBQ 111115Z 06009KT 4SM -RA BR BKN033 OVC075  14/13 A2997 1030 93 1200 060/09 RMK AO2 P0004
94908KDBQ DBQ20050511052011705/11/05 05:20:31  5-MIN KDBQ 111120Z 06008KT 4SM -RA BR BKN033 OVC075  14/13 A2997 1040 93 1200 060/08 RMK AO2 P0005
94908KDBQ DBQ20050511052511705/11/05 05:25:31  5-MIN KDBQ 111125Z 05010KT 3SM -RA BR BKN035 OVC070  14/13 A2996 1040 93 1200 050/10 RMK AO2 P0005
94908KDBQ DBQ20050511053012405/11/05 05:30:31  5-MIN KDBQ 111130Z 04013KT 3SM -RA BR BKN035 OVC075  14/13 A2993 1070 93 1200 040/13 RMK AO2 PRESFR P0005
94908KDBQ DBQ20050511053513105/11/05 05:35:31  5-MIN KDBQ 111135Z 04012KT 3SM -RA BR BKN035 BKN075  BKN100 14/13 A2992 1080 93 1200 040/12 RMK AO2 PRESFR P0006
94908KDBQ DBQ20050511054013105/11/05 05:40:31  5-MIN KDBQ 111140Z 03013KT 3SM -RA BR FEW003 SCT038  BKN070 14/13 A2991 1090 93 1300 030/13 RMK AO2 PRESFR P0006
94908KDBQ DBQ20050511054513405/11/05 05:45:31  5-MIN KDBQ 111145Z 04014KT 2 1/2SM -RA BR FEW001 BKN040 BKN070 14/13 A2989 1100 96 1300 040/14 RMK AO2 PRESFR P0006
94908KDBQ DBQ20050511055017205/11/05 05:50:31  5-MIN KDBQ 111150Z 05012KT 2SM -RA BR SCT001 BKN050  BKN100 14/13 A2991 1090 96 1300 050/12 RMK AO2 SLP125 P0006 60052 70052  T01390133 10194 20139 53039
94908KDBQ DBQ20050511055517505/11/05 05:55:31  5-MIN KDBQ 111155Z 08010KT 2 1/2SM -RA BR SCT003 BKN055 BKN100 14/13 A2992 1080 96 1200 070/10 RMK AO2 SLP129 P0006 60052 70052  T01390133 10194 20139 58024
94908KDBQ DBQ20050511060013105/11/05 06:00:31  5-MIN KDBQ 111200Z 04005KT 3SM -RA BR SCT003 BKN006  OVC100 14/13 A2994 1060 96 1200 040/05 RMK AO2 PRESRR P0000
94908KDBQ DBQ20050511060513105/11/05 06:05:31  5-MIN KDBQ 111205Z 01004KT 4SM -RA BR BKN003 BKN049  OVC100 14/13 A2996 1040 96 1200 010/04 RMK AO2 PRESRR P0000
94908KDBQ DBQ20050511061013005/11/05 06:10:31  5-MIN KDBQ 111210Z 01005KT 4SM RA BR SCT003 BKN007  OVC040 14/13 A2997 1030 93 1200 010/05 RMK AO2 PRESRR P0001
94908KDBQ DBQ20050511061512705/11/05 06:15:31  5-MIN KDBQ 111215Z 33009KT 2 1/2SM RA BR SCT003 OVC037  14/13 A2998 1020 96 1200 320/09 RMK AO2 PRESRR P0002
94908KDBQ DBQ20050511062011505/11/05 06:20:31  5-MIN KDBQ 111220Z 02009KT 2SM RA BR SCT005 OVC031 14/13 A2996 1050 96 1200 020/09 RMK AO2 P0004
94908KDBQ DBQ20050511062511505/11/05 06:25:31  5-MIN KDBQ 111225Z 08007KT 2SM RA BR FEW007 OVC027 14/13 A2996 1040 96 1200 070/07 RMK AO2 P0005
94908KDBQ DBQ20050511063012005/11/05 06:30:31  5-MIN KDBQ 111230Z 07007KT 2 1/2SM -RA BR SCT007 OVC024 14/13 A2996 1040 96 1200 070/07 RMK AO2 P0006
94908KDBQ DBQ20050511063511705/11/05 06:35:31  5-MIN KDBQ 111235Z 09005KT 3SM -RA BR BKN005 OVC024  14/13 A2996 1040 96 1200 090/05 RMK AO2 P0006
94908KDBQ DBQ20050511064011705/11/05 06:40:31  5-MIN KDBQ 111240Z 10005KT 4SM -RA BR BKN005 OVC024  14/13 A2997 1040 96 1200 100/05 RMK AO2 P0006
94908KDBQ DBQ20050511064512605/11/05 06:45:31  5-MIN KDBQ 111245Z 05006KT 5SM BR BKN005 BKN009 OVC024  14/13 A2996 1040 96 1200 050/06 RMK AO2 RAE44 P0006
94908KDBQ DBQ20050511065014105/11/05 06:50:31  5-MIN KDBQ 111250Z 05006KT 4SM -RA BR BKN005 BKN009  OVC041 14/13 A2996 1040 96 1200 050/06 RMK AO2 SLP142 P0006 T01390133
94908KDBQ DBQ20050511065513405/11/05 06:55:31  5-MIN KDBQ 111255Z 09005KT 4SM -RA BR BKN005 BKN100  14/13 A2996 1040 96 1200 090/05 RMK AO2 SLP144 P0006 T01390133
94908KDBQ DBQ20050511070011705/11/05 07:00:31  5-MIN KDBQ 111300Z 09003KT 5SM -RA BR BKN005 BKN100  14/13 A2997 1030 93 1200 090/03 RMK AO2 P0000
94908KDBQ DBQ20050511070512605/11/05 07:05:31  5-MIN KDBQ 111305Z 15004KT 5SM BR BKN005 BKN085 14/13  A2999 1020 93 1200 150/04 RMK AO2 RAE04 PRESRR P0000
94908KDBQ DBQ20050511071012605/11/05 07:10:31  5-MIN KDBQ 111310Z 15005KT 6SM BR SCT005 BKN080 14/13  A2999 1010 93 1200 150/05 RMK AO2 RAE04 PRESRR P0000
94908KDBQ DBQ20050511071513305/11/05 07:15:31  5-MIN KDBQ 111315Z 17007KT 6SM BR SCT005 BKN080 BKN100  14/13 A3000 1000 93 1200 170/07 RMK AO2 RAE04 PRESRR P0000
94908KDBQ DBQ20050511072013205/11/05 07:20:31  5-MIN KDBQ 111320Z 20010KT 6SM BR SCT005 BKN070 BKN085  14/13 A3002 990 93 1200 200/10 RMK AO2 RAE04 PRESRR P0000
94908KDBQ DBQ20050511072513305/11/05 07:25:31  5-MIN KDBQ 111325Z 17006KT 6SM -RA BR FEW005 BKN009  BKN070 14/13 A3001 1000 93 1200 170/06 RMK AO2 RAE04B22 P0000
94908KDBQ DBQ20050511073012505/11/05 07:30:31  5-MIN KDBQ 111330Z 18009KT 5SM -RA BR BKN007 OVC080  14/13 A3001 990 93 1200 180/09 RMK AO2 RAE04B22 P0001
94908KDBQ DBQ20050511073512505/11/05 07:35:31  5-MIN KDBQ 111335Z 18012KT 5SM -RA BR BKN007 OVC075  14/13 A3002 980 93 1200 180/12 RMK AO2 RAE04B22 P0001
94908KDBQ DBQ20050511074013705/11/05 07:40:31  5-MIN KDBQ 111340Z 16012KT 5SM -RA BR BKN007 OVC070  14/13 A3001 990 93 1200 150/12 RMK AO2 RAE04B22 CIG 005V011 P0001
94908KDBQ DBQ20050511074513005/11/05 07:45:31  5-MIN KDBQ 111345Z 14012KT 4SM -RA BR OVC007 14/13 A2999 1010 93 1200 130/12 RMK AO2 RAE04B22 CIG 005V013 P0001
94908KDBQ DBQ20050511075015105/11/05 07:50:31  5-MIN KDBQ 111350Z 15012KT 4SM -RA BR BKN007 BKN012  OVC038 14/13 A3001 1000 93 1100 150/12 RMK AO2 RAE04B22 SLP160 P0002  T01390128
94908KDBQ DBQ20050511075515005/11/05 07:55:31  5-MIN KDBQ 111355Z 15007KT 4SM -RA BR BKN007 BKN042  OVC075 14/13 A3002 990 93 1100 150/07 RMK AO2 RAE04B22 SLP165 P0002  T01390128
94908KDBQ DBQ20050511080012305/11/05 08:00:31  5-MIN KDBQ 111400Z 17008KT 5SM -RA BR SCT009 BKN031  OVC039 14/13 A3002 990 90 1200 170/08 RMK AO2 P0000
94908KDBQ DBQ20050511080511605/11/05 08:05:31  5-MIN KDBQ 111405Z 17010KT 5SM -RA BR SCT009 BKN023  14/13 A3002 990 93 1200 170/10 RMK AO2 P0000
94908KDBQ DBQ20050511081012305/11/05 08:10:31  5-MIN KDBQ 111410Z 17011KT 5SM -RA BR SCT009 BKN023  BKN038 14/13 A3002 980 93 1200 170/11 RMK AO2 P0001
94908KDBQ DBQ20050511081512205/11/05 08:15:31  5-MIN KDBQ 111415Z 16007KT 7SM FEW007 SCT027 SCT038  14/13 A3003 980 90 1200 160/07 RMK AO2 RAE15 P0001
94908KDBQ DBQ20050511082011405/11/05 08:20:31  5-MIN KDBQ 111420Z 14007KT 8SM FEW007 SCT024 14/13 A3003 980 90 1200 140/07 RMK AO2 RAE15 P0001
94908KDBQ DBQ20050511082510705/11/05 08:25:31  5-MIN KDBQ 111425Z 15005KT 8SM FEW007 14/13 A3004 970 93 1200 150/05 RMK AO2 RAE15 P0001
94908KDBQ DBQ20050511083011405/11/05 08:30:31  5-MIN KDBQ 111430Z 17004KT 8SM FEW007 SCT036 15/13 A3004 970 90 1200 170/04 RMK AO2 RAE15 P0001
94908KDBQ DBQ20050511083511405/11/05 08:35:31  5-MIN KDBQ 111435Z 15006KT 8SM FEW009 SCT036 15/13 A3004 970 90 1200 150/06 RMK AO2 RAE15 P0001
94908KDBQ DBQ20050511084010705/11/05 08:40:31  5-MIN KDBQ 111440Z 13007KT 8SM FEW009 15/13 A3004 970 86 1200 130/07 RMK AO2 RAE15 P0001
94908KDBQ DBQ20050511084510705/11/05 08:45:31  5-MIN KDBQ 111445Z 14007KT 8SM FEW036 15/13 A3004 970 86 1200 140/07 RMK AO2 RAE15 P0001
94908KDBQ DBQ20050511085013605/11/05 08:50:31  5-MIN KDBQ 111450Z 13004KT 8SM FEW036 15/13 A3004 970 86 1200 130/04 RMK AO2 RAE15 SLP172 P0001 60009 T01500128 58024
94908KDBQ DBQ20050511085513605/11/05 08:55:31  5-MIN KDBQ 111455Z 12006KT 8SM FEW010 15/13 A3005 960 86 1200 120/06 RMK AO2 RAE15 SLP173 P0001 60009 T01500128 51041
94908KDBQ DBQ20050511225514705/11/05 22:55:31  5-MIN KDBQ 120455Z AUTO 07015G22KT 10SM OVC090 08/02  A3026 760 63 200 070/15G22 RMK AO2 PK WND 06026/0431 SLP251 T00830017 TSNO
94908KDBQ DBQ20050511230011205/11/05 23:00:31  5-MIN KDBQ 120500Z AUTO 07017G22KT 10SM OVC090 08/02  A3026 770 63 200 060/17G22 RMK AO2 TSNO
94908KDBQ DBQ20050511230511205/11/05 23:05:31  5-MIN KDBQ 120505Z AUTO 07013G21KT 10SM OVC090 08/02  A3025 770 63 200 070/13G21 RMK AO2 TSNO
94908KDBQ DBQ20050511231011205/11/05 23:10:31  5-MIN KDBQ 120510Z AUTO 06018G25KT 10SM OVC090 08/02  A3025 770 63 200 060/18G25 RMK AO2 TSNO
94908KDBQ DBQ20050511231511205/11/05 23:15:31  5-MIN KDBQ 120515Z AUTO 07019G25KT 10SM OVC095 08/02  A3025 770 63 200 070/19G25 RMK AO2 TSNO
94908KDBQ DBQ20050511232011205/11/05 23:20:31  5-MIN KDBQ 120520Z AUTO 06013G24KT 10SM OVC095 08/02  A3026 770 63 200 060/13G24 RMK AO2 TSNO
94908KDBQ DBQ20050511232511205/11/05 23:25:31  5-MIN KDBQ 120525Z AUTO 07013KT 10SM FEW055 OVC095 08/02 A3026 760 63 200 060/13 RMK AO2 TSNO
94908KDBQ DBQ20050511233011205/11/05 23:30:31  5-MIN KDBQ 120530Z AUTO 07015KT 10SM FEW055 OVC100 08/02 A3026 760 63 200 060/15 RMK AO2 TSNO
94908KDBQ DBQ20050511233510505/11/05 23:35:31  5-MIN KDBQ 120535Z AUTO 06014KT 10SM OVC100 08/01 A3026 760 60 200 060/14 RMK AO2 TSNO
94908KDBQ DBQ20050511234010505/11/05 23:40:31  5-MIN KDBQ 120540Z AUTO 07015KT 10SM OVC095 08/01 A3026 760 60 200 070/15 RMK AO2 TSNO
94908KDBQ DBQ20050511234511205/11/05 23:45:31  5-MIN KDBQ 120545Z AUTO 07018G21KT 10SM OVC095 08/02  A3027 760 63 200 070/18G21 RMK AO2 TSNO
94908KDBQ DBQ20050511235015805/11/05 23:50:31  5-MIN KDBQ 120550Z AUTO 07013G21KT 10SM OVC095 08/02  A3027 760 65 100 070/13G21 RMK AO2 SLP254 T00780017 10111 20078 401940078  53017 TSNO
94908KDBQ DBQ20050511235515805/11/05 23:55:31  5-MIN KDBQ 120555Z AUTO 07018G22KT 10SM OVC090 08/01  A3027 760 62 100 070/18G22 RMK AO2 SLP254 T00780011 10111 20078 401940078  51018 TSNO
94908KDBQ DBQ20050512000011205/12/05 00:00:38  5-MIN KDBQ 120600Z AUTO 06014G22KT 10SM OVC095 08/01  A3027 760 62 100 060/14G22 RMK AO2 TSNO
94908KDBQ DBQ20050512000511205/12/05 00:05:31  5-MIN KDBQ 120605Z AUTO 07014G20KT 10SM OVC095 08/02  A3027 760 65 100 070/14G20 RMK AO2 TSNO
94908KDBQ DBQ20050512001011205/12/05 00:10:31  5-MIN KDBQ 120610Z AUTO 07013G20KT 10SM OVC095 08/02  A3027 750 65 100 060/13G20 RMK AO2 TSNO
94908KDBQ DBQ20050512001510505/12/05 00:15:33  5-MIN KDBQ 120615Z AUTO 07013KT 10SM OVC090 08/02 A3027 750 65 100 070/13 RMK AO2 TSNO
94908KDBQ DBQ20050512002010505/12/05 00:20:31  5-MIN KDBQ 120620Z AUTO 07013KT 10SM OVC095 08/02 A3027 750 65 100 070/13 RMK AO2 TSNO
94908KDBQ DBQ20050512002510505/12/05 00:25:31  5-MIN KDBQ 120625Z AUTO 06013KT 10SM OVC095 08/02 A3028 750 65 100 060/13 RMK AO2 TSNO
94908KDBQ DBQ20050512003011205/12/05 00:30:31  5-MIN KDBQ 120630Z AUTO 06014G19KT 10SM OVC095 08/02  A3027 750 65 100 060/14G19 RMK AO2 TSNO
94908KDBQ DBQ20050512003511205/12/05 00:35:31  5-MIN KDBQ 120635Z AUTO 07016G19KT 10SM OVC090 08/02  A3028 750 65 100 070/16G19 RMK AO2 TSNO
94908KDBQ DBQ20050512004010505/12/05 00:40:31  5-MIN KDBQ 120640Z AUTO 07011KT 10SM OVC095 08/02 A3028 750 65 100 070/11 RMK AO2 TSNO
94908KDBQ DBQ20050512004510505/12/05 00:45:31  5-MIN KDBQ 120645Z AUTO 07015KT 10SM OVC095 08/02 A3028 750 65 100 070/15 RMK AO2 TSNO
94908KDBQ DBQ20050512005012205/12/05 00:50:31  5-MIN KDBQ 120650Z AUTO 07014KT 10SM OVC095 08/02 A3028 750 65 100 070/14 RMK AO2 SLP256 T00780017 TSNO
94908KDBQ DBQ20050512005512205/12/05 00:55:31  5-MIN KDBQ 120655Z AUTO 07014KT 10SM OVC100 08/02 A3028 750 65 100 070/14 RMK AO2 SLP256 T00780017 TSNO
94908KDBQ DBQ20050512010011005/12/05 01:00:31  5-MIN KDBQ 120700Z AUTO 07016G20KT 10SM OVC100 07/02  A3028 750 68 0 070/16G20 RMK AO2 TSNO
94908KDBQ DBQ20050512010511005/12/05 01:05:31  5-MIN KDBQ 120705Z AUTO 07014G20KT 10SM OVC100 07/02  A3028 750 68 0 060/14G20 RMK AO2 TSNO
94908KDBQ DBQ20050512011010305/12/05 01:10:31  5-MIN KDBQ 120710Z AUTO 07013KT 10SM OVC100 07/02 A3028 750 68 0 070/13 RMK AO2 TSNO
94908KDBQ DBQ20050512011510305/12/05 01:15:31  5-MIN KDBQ 120715Z AUTO 07013KT 10SM OVC100 07/02 A3027 750 68 0 070/13 RMK AO2 TSNO
94908KDBQ DBQ20050512012011005/12/05 01:20:31  5-MIN KDBQ 120720Z AUTO 07017G22KT 10SM OVC100 07/02  A3028 750 68 0 070/17G22 RMK AO2 TSNO
94908KDBQ DBQ20050512012511005/12/05 01:25:31  5-MIN KDBQ 120725Z AUTO 07017G22KT 10SM OVC100 07/02  A3028 750 68 0 070/17G22 RMK AO2 TSNO
94908KDBQ DBQ20050512013010305/12/05 01:30:31  5-MIN KDBQ 120730Z AUTO 07015KT 10SM OVC095 07/02 A3028 750 68 0 070/15 RMK AO2 TSNO
94908KDBQ DBQ20050512013510305/12/05 01:35:31  5-MIN KDBQ 120735Z AUTO 07013KT 10SM OVC095 07/02 A3028 750 68 0 070/13 RMK AO2 TSNO
94908KDBQ DBQ20050512014011005/12/05 01:40:31  5-MIN KDBQ 120740Z AUTO 07016KT 10SM BKN095 OVC110 07/02 A3027 760 68 0 060/16 RMK AO2 TSNO
94908KDBQ DBQ20050512014511005/12/05 01:45:31  5-MIN KDBQ 120745Z AUTO 06015KT 10SM BKN095 OVC110 07/02 A3026 760 70 0 060/15 RMK AO2 TSNO
94908KDBQ DBQ20050512015014105/12/05 01:50:31  5-MIN KDBQ 120750Z AUTO 06016G23KT 10SM FEW021 BKN095  OVC110 07/02 A3026 760 70 0 060/16G23 RMK AO2 SLP253 T00670017 TSNO
94908KDBQ DBQ20050512015516005/12/05 01:55:31  5-MIN KDBQ 120755Z AUTO 06019G26KT 10SM SCT021 BKN095  OVC110 07/02 A3026 770 70 0 060/19G26 RMK AO2 PK WND 06026/0754 SLP251  T00670017 TSNO
94908KDBQ DBQ20050512020012405/12/05 02:00:31  5-MIN KDBQ 120800Z AUTO 06015G26KT 10SM BKN021 BKN095  OVC110 07/02 A3027 760 70 0 060/15G26 RMK AO2 TSNO
94908KDBQ DBQ20050512020511805/12/05 02:05:31  5-MIN KDBQ 120805Z AUTO 06014KT 10SM BKN021 BKN095  OVC110 07/02 A3027 750 70 0 060/14 RMK AO2 TSNO
94908KDBQ DBQ20050512021011705/12/05 02:10:31  5-MIN KDBQ 120810Z AUTO 06014G24KT 10SM BKN021 OVC110  06/02 A3026 760 73 0 060/14G24 RMK AO2 TSNO
94908KDBQ DBQ20050512021511005/12/05 02:15:31  5-MIN KDBQ 120815Z AUTO 07019G24KT 10SM OVC021 06/01  A3026 760 70 0 070/19G24 RMK AO2 TSNO
94908KDBQ DBQ20050512022011005/12/05 02:20:31  5-MIN KDBQ 120820Z AUTO 07015G24KT 10SM OVC021 06/01  A3027 760 70 0 060/15G24 RMK AO2 TSNO
94908KDBQ DBQ20050512022511005/12/05 02:25:31  5-MIN KDBQ 120825Z AUTO 06020G24KT 10SM OVC021 06/01  A3027 760 70 0 060/20G24 RMK AO2 TSNO
94908KDBQ DBQ20050512023011705/12/05 02:30:31  5-MIN KDBQ 120830Z AUTO 06017G24KT 10SM BKN021 OVC110  06/01 A3027 760 70 0 060/17G24 RMK AO2 TSNO
94908KDBQ DBQ20050512023511705/12/05 02:35:31  5-MIN KDBQ 120835Z AUTO 06014G23KT 10SM BKN021 OVC110  06/01 A3027 750 70 0 060/14G23 RMK AO2 TSNO
94908KDBQ DBQ20050512024011705/12/05 02:40:31  5-MIN KDBQ 120840Z AUTO 06021G24KT 10SM BKN021 OVC110  06/01 A3026 760 70 0 060/21G24 RMK AO2 TSNO
94908KDBQ DBQ20050512024513805/12/05 02:45:31  5-MIN KDBQ 120845Z AUTO 05023G29KT 10SM BKN021 OVC100  06/01 A3025 770 73 -100 050/23G29 RMK AO2 PK WND 06029/0844 TSNO
94908KDBQ DBQ20050512025016205/12/05 02:50:31  5-MIN KDBQ 120850Z AUTO 06021G29KT 10SM SCT021 OVC100  06/01 A3025 770 70 -100 060/21G29 RMK AO2 PK WND 06029/0844 SLP249  T00560006 51018 TSNO
94908KDBQ DBQ20050512025518405/12/05 02:55:31  5-MIN KDBQ 120855Z AUTO 06020G28KT 10SM -RA SCT021  OVC100 06/01 A3025 780 73 -100 060/20G28 RMK AO2 PK WND 06029/0844 RAB52  SLP248 P0000 60000 T00560011 58007 TSNO
94908KDBQ DBQ20050512030014905/12/05 03:00:31  5-MIN KDBQ 120900Z AUTO 06018G28KT 10SM -RA SCT021  OVC110 05/01 A3024 780 76 -100 060/18G28 RMK AO2 PK WND 06027/0858 P0000  TSNO
94908KDBQ DBQ20050512030514905/12/05 03:05:31  5-MIN KDBQ 120905Z AUTO 06015G27KT 10SM -RA FEW021  OVC110 05/01 A3024 780 76 -100 060/15G27 RMK AO2 PK WND 06027/0858 P0000  TSNO
94908KDBQ DBQ20050512031014005/12/05 03:10:31  5-MIN KDBQ 120910Z AUTO 06015G23KT 10SM -RA OVC100 05/02 A3024 790 79 -100 060/15G23 RMK AO2 PK WND 06027/0858 P0000 TSNO
94908KDBQ DBQ20050512031514305/12/05 03:15:31  5-MIN KDBQ 120915Z AUTO 06015G23KT 10SM OVC110 05/02  A3024 790 79 -100 060/15G23 RMK AO2 PK WND 06027/0858 RAE13 P0000 TSNO
94908KDBQ DBQ20050512032013605/12/05 03:20:31  5-MIN KDBQ 120920Z AUTO 06020KT 10SM BKN110 05/02 A3024 790 79 -100 060/20 RMK AO2 PK WND 06027/0858 RAE13 P0000 TSNO
94908KDBQ DBQ20050512032514305/12/05 03:25:31  5-MIN KDBQ 120925Z AUTO 07022G31KT 10SM BKN110 04/01  A3024 780 76 -200 070/22G31 RMK AO2 PK WND 06031/0922 RAE13 P0000 TSNO
94908KDBQ DBQ20050512033014305/12/05 03:30:31  5-MIN KDBQ 120930Z AUTO 06019G31KT 10SM SCT110 04/00  A3025 780 73 -200 060/19G31 RMK AO2 PK WND 06031/0922 RAE13 P0000 TSNO
94908KDBQ DBQ20050512033515805/12/05 03:35:31  5-MIN KDBQ 120935Z AUTO 06021G30KT 10SM FEW019 SCT110  04/00 A3026 770 73 -200 060/21G30 RMK AO2 PK WND 06031/0922 RAE13 PRESRR  P0000 TSNO
94908KDBQ DBQ20050512034015105/12/05 03:40:31  5-MIN KDBQ 120940Z AUTO 06017G28KT 10SM SCT019 SCT110  04/01 A3026 760 76 -200 060/17G28 RMK AO2 PK WND 06031/0922 RAE13 P0000  TSNO
94908KDBQ DBQ20050512034514305/12/05 03:45:31  5-MIN KDBQ 120945Z AUTO 06018G26KT 10SM BKN019 04/00  A3027 760 73 -200 060/18G26 RMK AO2 PK WND 06031/0922 RAE13 P0000 TSNO
94908KDBQ DBQ20050512035016105/12/05 03:50:31  5-MIN KDBQ 120950Z AUTO 05014G26KT 10SM BKN019 04/01  A3027 760 76 -200 050/14G26 RMK AO2 PK WND 06031/0922 RAE13 SLP255 P0000  T00440006 TSNO
94908KDBQ DBQ20050512035516105/12/05 03:55:31  5-MIN KDBQ 120955Z AUTO 05012G25KT 10SM BKN019 04/01  A3026 760 76 -200 050/12G25 RMK AO2 PK WND 06031/0922 RAE13 SLP255 P0000  T00440006 TSNO
94908KDBQ DBQ20050512040011305/12/05 04:00:31  5-MIN KDBQ 121000Z AUTO 06015G21KT 10SM BKN019 04/01  A3026 770 76 -200 060/15G21 RMK AO2 TSNO
94908KDBQ DBQ20050512040511305/12/05 04:05:31  5-MIN KDBQ 121005Z AUTO 06017G24KT 10SM OVC019 04/01  A3026 770 76 -200 060/17G24 RMK AO2 TSNO
94908KDBQ DBQ20050512041011305/12/05 04:10:31  5-MIN KDBQ 121010Z AUTO 06016G24KT 10SM OVC019 04/01  A3027 760 76 -200 060/16G24 RMK AO2 TSNO
94908KDBQ DBQ20050512041511305/12/05 04:15:31  5-MIN KDBQ 121015Z AUTO 06019G22KT 10SM BKN019 04/01  A3027 760 76 -200 060/19G22 RMK AO2 TSNO
94908KDBQ DBQ20050512042012005/12/05 04:20:31  5-MIN KDBQ 121020Z AUTO 05016G22KT 10SM BKN019 BKN047  04/01 A3027 750 79 -300 050/16G22 RMK AO2 TSNO
94908KDBQ DBQ20050512042512005/12/05 04:25:31  5-MIN KDBQ 121025Z AUTO 06016G23KT 10SM BKN019 BKN047  04/01 A3028 750 79 -300 060/16G23 RMK AO2 TSNO
94908KDBQ DBQ20050512043012705/12/05 04:30:31  5-MIN KDBQ 121030Z AUTO 05013G23KT 10SM SCT019 OVC049  04/00 A3029 740 76 -300 050/13G23 RMK AO2 PRESRR TSNO
94908KDBQ DBQ20050512043511305/12/05 04:35:31  5-MIN KDBQ 121035Z AUTO 05013KT 10SM FEW019 OVC049 04/00 A3029 740 76 -300 050/13 RMK AO2 TSNO
94908KDBQ DBQ20050512044012105/12/05 04:40:31  5-MIN KDBQ 121040Z AUTO 05017KT 10SM FEW017 BKN049  OVC090 04/01 A3028 750 79 -300 050/17 RMK AO2 TSNO
94908KDBQ DBQ20050512044511305/12/05 04:45:31  5-MIN KDBQ 121045Z AUTO 06015KT 10SM BKN049 OVC090 04/01 A3027 750 79 -300 050/15 RMK AO2 TSNO
94908KDBQ DBQ20050512045016005/12/05 04:50:31  5-MIN KDBQ 121050Z AUTO 05014G21KT 10SM -RA FEW039  BKN049 OVC100 04/01 A3027 760 79 -300 050/14G21 RMK AO2 RAB47 SLP257 P0000 T00390006 TSNO
94908KDBQ DBQ20050512045516005/12/05 04:55:31  5-MIN KDBQ 121055Z AUTO 06014G21KT 10SM -RA SCT039  BKN049 OVC100 03/01 A3028 750 82 -400 060/14G21 RMK AO2 RAB47 SLP260 P0000 T00330006 TSNO
94908KDBQ DBQ20050512050012505/12/05 05:00:31  5-MIN KDBQ 121100Z 06012G17KT 8SM RA SCT039 BKN049  OVC095 03/01 A3029 740 82 -400 060/12G17 RMK AO2 P0000
94908KDBQ DBQ20050512050512205/12/05 05:05:31  5-MIN KDBQ 121105Z 06011KT 6SM RA BR FEW030 BKN039  OVC095 03/01 A3029 730 85 -400 060/11 RMK AO2 P0001
94908KDBQ DBQ20050512051012305/12/05 05:10:31  5-MIN KDBQ 121110Z 05012KT 6SM -RA BR FEW030 BKN039  OVC095 03/01 A3029 740 85 -400 050/12 RMK AO2 P0001
94908KDBQ DBQ20050512051512605/12/05 05:15:31  5-MIN KDBQ 121115Z 06018G22KT 7SM -RA FEW030 BKN039  OVC095 03/01 A3027 750 85 -400 060/18G22 RMK AO2 P0002
94908KDBQ DBQ20050512052012605/12/05 05:20:31  5-MIN KDBQ 121120Z 06015G22KT 8SM -RA FEW030 BKN039  OVC095 03/01 A3028 740 85 -400 060/15G22 RMK AO2 P0002
94908KDBQ DBQ20050512052512705/12/05 05:25:31  5-MIN KDBQ 121125Z 06016G21KT 10SM -RA FEW030 BKN041  OVC090 03/01 A3028 740 85 -400 060/16G21 RMK AO2 P0002
94908KDBQ DBQ20050512053012705/12/05 05:30:31  5-MIN KDBQ 121130Z 07018G23KT 10SM -RA FEW030 BKN044  OVC095 03/01 A3028 750 85 -400 070/18G23 RMK AO2 P0002
94908KDBQ DBQ20050512053512705/12/05 05:35:31  5-MIN KDBQ 121135Z 07012G23KT 10SM -RA FEW037 SCT044  OVC095 03/01 A3027 760 85 -400 070/12G23 RMK AO2 P0002
94908KDBQ DBQ20050512054012705/12/05 05:40:31  5-MIN KDBQ 121140Z 07014G17KT 10SM -RA FEW033 SCT044  OVC090 03/02 A3028 750 89 -400 070/14G17 RMK AO2 P0002
94908KDBQ DBQ20050512054512705/12/05 05:45:31  5-MIN KDBQ 121145Z 06013G17KT 10SM -RA SCT033 BKN044  OVC090 03/01 A3028 750 85 -400 060/13G17 RMK AO2 P0002
94908KDBQ DBQ20050512055017105/12/05 05:50:31  5-MIN KDBQ 121150Z 07010KT 10SM BKN033 BKN044 OVC090  03/02 A3028 750 89 -400 070/10 RMK AO2 RAE49 SLP259 P0002 60002 70011  T00330017 10083 20033 58007
94908KDBQ DBQ20050512055516405/12/05 05:55:31  5-MIN KDBQ 121155Z 08011KT 10SM BKN031 OVC090 03/02  A3028 750 89 -400 080/11 RMK AO2 RAE49 SLP260 P0002 60002 70011 T00330017  10083 20033 51011
94908KDBQ DBQ20050512060010405/12/05 06:00:31  5-MIN KDBQ 121200Z 07014KT 10SM BKN031 OVC095 04/02  A3028 750 85 -300 070/14 RMK AO2
94908KDBQ DBQ20050512060509705/12/05 06:05:31  5-MIN KDBQ 121205Z 07014KT 10SM OVC031 04/02 A3028 750  85 -300 070/14 RMK AO2
94908KDBQ DBQ20050512061009705/12/05 06:10:31  5-MIN KDBQ 121210Z 07013KT 10SM OVC029 03/02 A3028 750  89 -400 070/13 RMK AO2
94908KDBQ DBQ20050512061509705/12/05 06:15:31  5-MIN KDBQ 121215Z 07014KT 10SM OVC029 04/02 A3028 740  85 -300 070/14 RMK AO2
94908KDBQ DBQ20050512062009705/12/05 06:20:31  5-MIN KDBQ 121220Z 06010KT 10SM OVC029 04/02 A3029 740  85 -300 060/10 RMK AO2
94908KDBQ DBQ20050512062510405/12/05 06:25:31  5-MIN KDBQ 121225Z 07009KT 10SM OVC029 04/02 A3030 730  85 -400 070/09 RMK AO2 PRESRR
94908KDBQ DBQ20050512063010405/12/05 06:30:31  5-MIN KDBQ 121230Z 06010KT 10SM FEW015 OVC029 04/02  A3031 720 85 -400 060/10 RMK AO2
94908KDBQ DBQ20050512063510405/12/05 06:35:31  5-MIN KDBQ 121235Z 07012KT 10SM FEW015 OVC029 04/02  A3030 730 85 -400 070/12 RMK AO2
94908KDBQ DBQ20050512064010405/12/05 06:40:31  5-MIN KDBQ 121240Z 07013KT 10SM FEW013 OVC029 04/02  A3030 730 85 -400 070/13 RMK AO2
94908KDBQ DBQ20050512064510405/12/05 06:45:31  5-MIN KDBQ 121245Z 06010KT 10SM FEW013 OVC029 04/02  A3030 730 85 -400 060/10 RMK AO2
94908KDBQ DBQ20050512065012105/12/05 06:50:31  5-MIN KDBQ 121250Z 07009KT 10SM FEW013 OVC029 04/02  A3030 720 85 -400 070/09 RMK AO2 SLP269 T00390017
94908KDBQ DBQ20050512065512105/12/05 06:55:31  5-MIN KDBQ 121255Z 07011KT 10SM FEW013 OVC029 04/02  A3030 730 85 -300 070/11 RMK AO2 SLP266 T00390017
94908KDBQ DBQ20050512070010405/12/05 07:00:31  5-MIN KDBQ 121300Z 06011KT 10SM FEW013 OVC029 04/02  A3030 730 89 -300 060/11 RMK AO2
94908KDBQ DBQ20050512070510405/12/05 07:05:31  5-MIN KDBQ 121305Z 06011KT 10SM FEW013 OVC027 04/02  A3030 730 89 -300 060/11 RMK AO2
94908KDBQ DBQ20050512071010405/12/05 07:10:31  5-MIN KDBQ 121310Z 06011KT 10SM FEW013 OVC027 04/02  A3029 740 89 -300 050/11 RMK AO2
94908KDBQ DBQ20050512071509705/12/05 07:15:31  5-MIN KDBQ 121315Z 06012KT 10SM OVC027 04/02 A3029 740  89 -300 060/12 RMK AO2
94908KDBQ DBQ20050512072009705/12/05 07:20:31  5-MIN KDBQ 121320Z 06012KT 10SM OVC027 04/02 A3029 740  85 -300 060/12 RMK AO2
94908KDBQ DBQ20050512072509705/12/05 07:25:31  5-MIN KDBQ 121325Z 06011KT 10SM OVC027 04/02 A3029 740  85 -300 060/11 RMK AO2
94908KDBQ DBQ20050512073009705/12/05 07:30:31  5-MIN KDBQ 121330Z 07012KT 10SM OVC027 04/02 A3028 750  85 -300 070/12 RMK AO2
94908KDBQ DBQ20050512073509705/12/05 07:35:31  5-MIN KDBQ 121335Z 07010KT 10SM OVC027 04/02 A3028 740  85 -300 070/10 RMK AO2
94908KDBQ DBQ20050512074010305/12/05 07:40:31  5-MIN KDBQ 121340Z 07012G17KT 10SM OVC027 04/02 A3028  740 85 -300 070/12G17 RMK AO2
94908KDBQ DBQ20050512074510305/12/05 07:45:31  5-MIN KDBQ 121345Z 07013G18KT 10SM OVC027 04/02 A3028  740 85 -300 070/13G18 RMK AO2
94908KDBQ DBQ20050512075012005/12/05 07:50:31  5-MIN KDBQ 121350Z 07014G18KT 10SM OVC027 04/02 A3028  750 85 -300 070/14G18 RMK AO2 SLP260 T00440022
94908KDBQ DBQ20050512075512005/12/05 07:55:31  5-MIN KDBQ 121355Z 08014G19KT 10SM OVC027 05/03 A3028  750 85 -200 080/14G19 RMK AO2 SLP259 T00500028
94908KDBQ DBQ20050512080010305/12/05 08:00:31  5-MIN KDBQ 121400Z 07015G19KT 10SM OVC025 05/03 A3027  750 85 -200 070/15G19 RMK AO2
94908KDBQ DBQ20050512080510305/12/05 08:05:31  5-MIN KDBQ 121405Z 08017G22KT 10SM OVC025 05/03 A3027  760 85 -200 080/17G22 RMK AO2
94908KDBQ DBQ20050512081010305/12/05 08:10:31  5-MIN KDBQ 121410Z 08018G22KT 10SM OVC025 05/03 A3027  760 85 -200 080/18G22 RMK AO2
94908KDBQ DBQ20050512081510305/12/05 08:15:31  5-MIN KDBQ 121415Z 08016G21KT 10SM OVC025 06/03 A3027  760 82 -100 080/16G21 RMK AO2
94908KDBQ DBQ20050512082010305/12/05 08:20:31  5-MIN KDBQ 121420Z 08014G21KT 10SM OVC025 06/03 A3027  760 82 -100 080/14G21 RMK AO2
94908KDBQ DBQ20050512082510305/12/05 08:25:31  5-MIN KDBQ 121425Z 08015G21KT 10SM OVC025 06/03 A3027  760 82 -100 080/15G21 RMK AO2
94908KDBQ DBQ20050512083009705/12/05 08:30:31  5-MIN KDBQ 121430Z 08014KT 10SM OVC025 06/03 A3027 760  82 -100 080/14 RMK AO2
94908KDBQ DBQ20050512083509705/12/05 08:35:31  5-MIN KDBQ 121435Z 08017KT 10SM OVC025 06/03 A3026 760  82 -100 080/17 RMK AO2
94908KDBQ DBQ20050512084009705/12/05 08:40:31  5-MIN KDBQ 121440Z 09016KT 10SM OVC025 06/03 A3027 760  82 -100 090/16 RMK AO2
94908KDBQ DBQ20050512084510405/12/05 08:45:31  5-MIN KDBQ 121445Z 08012KT 10SM FEW013 OVC025 06/03  A3027 750 85 -100 080/12 RMK AO2
94908KDBQ DBQ20050512085012705/12/05 08:50:31  5-MIN KDBQ 121450Z 08015KT 10SM FEW014 OVC025 06/03  A3028 750 85 -100 080/15 RMK AO2 SLP259 T00560033 51011
94908KDBQ DBQ20050512085512405/12/05 08:55:31  5-MIN KDBQ 121455Z 09013KT 10SM FEW014 OVC025 06/03  A3027 760 82 0 080/13 RMK AO2 SLP256 T00610033 58004
94908KDBQ DBQ20050512090010105/12/05 09:00:31  5-MIN KDBQ 121500Z 09015KT 10SM FEW014 OVC023 06/03  A3027 750 82 0 090/15 RMK AO2
94908KDBQ DBQ20050512090510705/12/05 09:05:31  5-MIN KDBQ 121505Z 09016G23KT 10SM FEW014 OVC023 06/03  A3027 750 82 0 090/16G23 RMK AO2
94908KDBQ DBQ20050512091010705/12/05 09:10:31  5-MIN KDBQ 121510Z 09014G23KT 10SM FEW014 OVC023 06/03  A3027 750 82 0 090/14G23 RMK AO2
94908KDBQ DBQ20050512091510105/12/05 09:15:31  5-MIN KDBQ 121515Z 09015KT 10SM FEW014 OVC023 06/03  A3027 750 82 0 080/15 RMK AO2
94908KDBQ DBQ20050512092010105/12/05 09:20:31  5-MIN KDBQ 121520Z 09015KT 10SM FEW014 OVC023 06/03  A3027 750 82 0 080/15 RMK AO2
94908KDBQ DBQ20050512092510705/12/05 09:25:31  5-MIN KDBQ 121525Z 08013G21KT 10SM FEW014 OVC023 06/03  A3027 760 82 0 080/13G21 RMK AO2
94908KDBQ DBQ20050512093010105/12/05 09:30:31  5-MIN KDBQ 121530Z 09019KT 10SM FEW014 OVC023 07/04  A3027 760 82 0 090/19 RMK AO2
94908KDBQ DBQ20050512093510705/12/05 09:35:31  5-MIN KDBQ 121535Z 09016G22KT 10SM FEW014 OVC021 07/04  A3027 760 82 0 090/16G22 RMK AO2
94908KDBQ DBQ20050512094010705/12/05 09:40:31  5-MIN KDBQ 121540Z 08015G22KT 10SM FEW014 OVC021 07/04  A3027 750 82 0 080/15G22 RMK AO2
94908KDBQ DBQ20050512094510705/12/05 09:45:31  5-MIN KDBQ 121545Z 09014G21KT 10SM FEW015 OVC021 07/04  A3029 740 82 0 090/14G21 RMK AO2
94908KDBQ DBQ20050512095012405/12/05 09:50:31  5-MIN KDBQ 121550Z 09015G21KT 10SM FEW015 OVC021 07/04  A3029 740 82 0 090/15G21 RMK AO2 SLP262 T00670039
94908KDBQ DBQ20050512095512405/12/05 09:55:31  5-MIN KDBQ 121555Z 09013G20KT 10SM FEW015 OVC021 07/04  A3029 740 82 0 080/13G20 RMK AO2 SLP262 T00670039
94908KDBQ DBQ20050512100010705/12/05 10:00:31  5-MIN KDBQ 121600Z 09016G22KT 10SM FEW015 OVC021 07/04  A3029 740 79 0 090/16G22 RMK AO2
94908KDBQ DBQ20050512100510705/12/05 10:05:31  5-MIN KDBQ 121605Z 09012G22KT 10SM SCT015 OVC021 07/04  A3030 730 79 0 090/12G22 RMK AO2
94908KDBQ DBQ20050512101010705/12/05 10:10:31  5-MIN KDBQ 121610Z 10012G18KT 10SM BKN015 OVC021 07/04  A3030 730 79 0 100/12G18 RMK AO2
94908KDBQ DBQ20050512101510705/12/05 10:15:31  5-MIN KDBQ 121615Z 09015G22KT 10SM BKN015 OVC021 07/04  A3029 740 79 0 090/15G22 RMK AO2
94908KDBQ DBQ20050512102010705/12/05 10:20:31  5-MIN KDBQ 121620Z 09012G22KT 10SM BKN015 OVC021 07/04  A3029 740 82 0 090/12G22 RMK AO2
94908KDBQ DBQ20050512102509405/12/05 10:25:31  5-MIN KDBQ 121625Z 10015KT 10SM OVC015 07/04 A3029 740  82 0 100/15 RMK AO2
94908KDBQ DBQ20050512103009405/12/05 10:30:31  5-MIN KDBQ 121630Z 09017KT 10SM OVC015 07/04 A3029 740  82 0 090/17 RMK AO2
94908KDBQ DBQ20050512103509405/12/05 10:35:31  5-MIN KDBQ 121635Z 09013KT 10SM OVC015 07/04 A3030 730  82 0 090/13 RMK AO2
94908KDBQ DBQ20050512104009605/12/05 10:40:31  5-MIN KDBQ 121640Z 10015KT 10SM OVC015 08/04 A3030 730  79 100 090/15 RMK AO2
94908KDBQ DBQ20050512104509605/12/05 10:45:31  5-MIN KDBQ 121645Z 11014KT 10SM OVC015 08/04 A3029 740  79 100 110/14 RMK AO2
94908KDBQ DBQ20050512105011305/12/05 10:50:31  5-MIN KDBQ 121650Z 10016KT 10SM OVC015 08/04 A3028 750  79 100 100/16 RMK AO2 SLP260 T00780044
94908KDBQ DBQ20050512105511305/12/05 10:55:31  5-MIN KDBQ 121655Z 11014KT 10SM OVC015 08/04 A3028 750  79 100 110/14 RMK AO2 SLP260 T00780044
94908KDBQ DBQ20050512110010205/12/05 11:00:31  5-MIN KDBQ 121700Z 10019G23KT 10SM OVC015 08/04 A3028  750 79 100 100/19G23 RMK AO2
94908KDBQ DBQ20050512110510205/12/05 11:05:31  5-MIN KDBQ 121705Z 10017G23KT 10SM OVC015 08/05 A3027  760 82 100 100/17G23 RMK AO2
94908KDBQ DBQ20050512111010205/12/05 11:10:31  5-MIN KDBQ 121710Z 10019G23KT 10SM OVC015 08/05 A3027  760 79 200 100/19G23 RMK AO2
94908KDBQ DBQ20050512111510205/12/05 11:15:31  5-MIN KDBQ 121715Z 10019G24KT 10SM OVC015 08/05 A3027  760 79 200 100/19G24 RMK AO2
94908KDBQ DBQ20050512112010205/12/05 11:20:31  5-MIN KDBQ 121720Z 09019G24KT 10SM OVC015 08/05 A3027  760 79 200 090/19G24 RMK AO2
94908KDBQ DBQ20050512112510205/12/05 11:25:31  5-MIN KDBQ 121725Z 10015G23KT 10SM OVC015 09/06 A3027  760 79 200 100/15G23 RMK AO2
94908KDBQ DBQ20050512113010205/12/05 11:30:31  5-MIN KDBQ 121730Z 10016G22KT 10SM OVC015 08/05 A3027  760 79 200 100/16G22 RMK AO2
94908KDBQ DBQ20050512113509605/12/05 11:35:31  5-MIN KDBQ 121735Z 11015KT 10SM OVC015 09/06 A3027 760  79 200 110/15 RMK AO2
94908KDBQ DBQ20050512114010205/12/05 11:40:31  5-MIN KDBQ 121740Z 10018G22KT 10SM OVC015 09/06 A3025  770 79 300 100/18G22 RMK AO2
94908KDBQ DBQ20050512114510205/12/05 11:45:31  5-MIN KDBQ 121745Z 11018G22KT 10SM OVC015 09/06 A3025  770 79 300 110/18G22 RMK AO2
94908KDBQ DBQ20050512115013705/12/05 11:50:31  5-MIN KDBQ 121750Z 10014G23KT 10SM OVC015 09/06 A3025  770 79 300 100/14G23 RMK AO2 SLP249 T00890056 10089 20033 58004
94908KDBQ DBQ20050512115513705/12/05 11:55:31  5-MIN KDBQ 121755Z 11013G23KT 10SM OVC015 09/06 A3026  770 79 300 110/13G23 RMK AO2 SLP251 T00890056 10089 20033 58004
94908KDBQ DBQ20050512120010205/12/05 12:00:31  5-MIN KDBQ 121800Z 11011G22KT 10SM OVC015 09/06 A3026  770 79 300 100/11G22 RMK AO2
94908KDBQ DBQ20050512120510205/12/05 12:05:31  5-MIN KDBQ 121805Z 11012G19KT 10SM OVC015 09/06 A3026  760 79 300 110/12G19 RMK AO2
94908KDBQ DBQ20050512121010305/12/05 12:10:31  5-MIN KDBQ 121810Z 12009KT 10SM OVC015 09/06 A3028 750  79 200 120/09 RMK AO2 PRESRR
94908KDBQ DBQ20050512121511805/12/05 12:15:31  5-MIN KDBQ 121815Z VRB04KT 7SM -RA OVC015 09/06 A3031  720 79 200 VRB/04 RMK AO2 RAB15 PRESRR P0000
94908KDBQ DBQ20050512122012505/12/05 12:20:31  5-MIN KDBQ 121820Z 22007KT 1 1/2SM +RA BR OVC015 08/06  A3033 700 86 100 220/07 RMK AO2 RAB15 PRESRR P0003
94908KDBQ DBQ20050512122512305/12/05 12:25:31  5-MIN KDBQ 121825Z 13010KT 3/4SM +RA BR FEW008 OVC015  08/07 A3030 720 89 100 130/10 RMK AO2 RAB15 P0017
94908KDBQ DBQ20050512123011305/12/05 12:30:31  5-MIN KDBQ 121830Z 10008KT 1SM +RA BR OVC015 08/06 A3028 750 86 200 100/08 RMK AO2 RAB15 P0024
94908KDBQ DBQ20050512123513105/12/05 12:35:31  5-MIN KDBQ 121835Z 10011KT 1 3/4SM RA BR BKN017 OVC025  08/07 A3027 760 89 200 100/11 RMK AO2 RAB15 PRESFR P0026
94908KDBQ DBQ20050512124013105/12/05 12:40:31  5-MIN KDBQ 121840Z 09014KT 2 1/2SM -RA BR BKN017 OVC025 08/07 A3023 790 89 200 090/14 RMK AO2 RAB15 PRESFR P0027
94908KDBQ DBQ20050512124513405/12/05 12:45:31  5-MIN KDBQ 121845Z 08017G21KT 4SM -RA BR BKN017 OVC025  08/07 A3021 820 89 200 080/17G21 RMK AO2 RAB15 PRESFR P0027
94908KDBQ DBQ20050512125013805/12/05 12:50:31  5-MIN KDBQ 121850Z 08015KT 5SM -RA BR BKN017 BKN025  08/07 A3021 810 89 200 080/15 RMK AO2 RAB15 SLP235 P0027 T00830067
94908KDBQ DBQ20050512125515205/12/05 12:55:31  5-MIN KDBQ 121855Z 09012G21KT 6SM -RA BR FEW014 SCT019  BKN025 08/07 A3023 800 89 200 090/12G21 RMK AO2 RAB15 SLP241 P0027  T00830067
94908KDBQ DBQ20050512130011505/12/05 13:00:31  5-MIN KDBQ 121900Z 09012KT 6SM -RA BR SCT019 BKN025  08/07 A3022 800 89 200 090/12 RMK AO2 P0000
94908KDBQ DBQ20050512130512505/12/05 13:05:31  5-MIN KDBQ 121905Z 10011G18KT 7SM -RA FEW011 BKN019  BKN100 09/07 A3023 790 86 300 100/11G18 RMK AO2 P0000
94908KDBQ DBQ20050512131012505/12/05 13:10:31  5-MIN KDBQ 121910Z 10014G19KT 8SM -RA FEW011 SCT019  SCT100 09/07 A3023 790 86 300 100/14G19 RMK AO2 P0000
94908KDBQ DBQ20050512131512005/12/05 13:15:31  5-MIN KDBQ 121915Z 10015G19KT 9SM FEW011 SCT040 09/07  A3022 800 86 300 100/15G19 RMK AO2 RAE13 P0000
94908KDBQ DBQ20050512132015305/12/05 13:20:31  5-MIN KDBQ 121920Z 11020G27KT 9SM FEW011 SCT047 SCT080  09/07 A3019 830 89 300 110/20G27 RMK AO2 PK WND 11027/1918 RAE13 PRESFR  P0000
94908KDBQ DBQ20050512132515305/12/05 13:25:31  5-MIN KDBQ 121925Z 10019G27KT 8SM FEW011 SCT046 SCT100  09/07 A3017 850 89 400 100/19G27 RMK AO2 PK WND 11027/1918 RAE13 PRESFR  P0000
94908KDBQ DBQ20050512133015305/12/05 13:30:31  5-MIN KDBQ 121930Z 11020G28KT 8SM FEW011 SCT075 SCT100  09/07 A3016 860 89 400 110/20G28 RMK AO2 PK WND 11028/1926 RAE13 PRESFR  P0000
94908KDBQ DBQ20050512133513005/12/05 13:35:31  5-MIN KDBQ 121935Z 11025G30KT 9SM FEW011 09/07 A3016 860 86 400 110/25G30 RMK AO2 PK WND 10030/1935 RAE13 P0000
94908KDBQ DBQ20050512134013905/12/05 13:40:31  5-MIN KDBQ 121940Z 12026G33KT 10SM FEW011 09/07 A3015  870 86 400 110/26G33 RMK AO2 PK WND 12033/1937 RAE13 PRESFR P0000
94908KDBQ DBQ20050512134513905/12/05 13:45:31  5-MIN KDBQ 121945Z 12029G36KT 10SM FEW075 09/07 A3014  880 86 500 120/29G36 RMK AO2 PK WND 12036/1943 RAE13 PRESFR P0000
94908KDBQ DBQ20050512135014605/12/05 13:50:31  5-MIN KDBQ 121950Z 12027G36KT 10SM CLR 09/07 A3014 870  86 500 110/27G36 RMK AO2 PK WND 12036/1943 RAE13 SLP213 P0000 T00940072
94908KDBQ DBQ20050512135514605/12/05 13:55:31  5-MIN KDBQ 121955Z 12028G35KT 10SM CLR 09/07 A3014 880  86 500 110/28G35 RMK AO2 PK WND 12036/1943 RAE13 SLP210 P0000 T00940072
94908KDBQ DBQ20050512140011705/12/05 14:00:31  5-MIN KDBQ 122000Z 11022G35KT 10SM CLR 10/07 A3014 880  83 500 110/22G35 RMK AO2 PK WND 11028/1956
94908KDBQ DBQ20050512140512005/12/05 14:05:31  5-MIN KDBQ 122005Z 11020G29KT 10SM FEW013 10/07 A3015  870 83 500 110/20G29 RMK AO2 PK WND 12029/2001
94908KDBQ DBQ20050512141012705/12/05 14:10:31  5-MIN KDBQ 122010Z 11023G30KT 10SM FEW013 SCT024 10/07  A3016 860 83 500 110/23G30 RMK AO2 PK WND 12030/2010
94908KDBQ DBQ20050512141512705/12/05 14:15:31  5-MIN KDBQ 122015Z 11016G30KT 10SM SCT017 BKN024 10/07  A3016 860 83 500 110/16G30 RMK AO2 PK WND 12030/2010
94908KDBQ DBQ20050512142012705/12/05 14:20:31  5-MIN KDBQ 122020Z 11016G27KT 10SM BKN017 BKN024 10/07  A3017 850 83 500 110/16G27 RMK AO2 PK WND 12030/2010
94908KDBQ DBQ20050512142512705/12/05 14:25:31  5-MIN KDBQ 122025Z 10012G24KT 10SM BKN017 BKN024 10/07  A3017 850 83 500 100/12G24 RMK AO2 PK WND 12030/2010
94908KDBQ DBQ20050512143013405/12/05 14:30:31  5-MIN KDBQ 122030Z 11014G23KT 10SM BKN015 OVC024 09/07  A3018 840 83 400 100/14G23 RMK AO2 PK WND 12030/2010 PRESRR
94908KDBQ DBQ20050512143512505/12/05 14:35:31  5-MIN KDBQ 122035Z 12014G19KT 9SM OVC015 09/07 A3021 820 83 400 120/14G19 RMK AO2 PK WND 12030/2010 PRESRR
94908KDBQ DBQ20050512144012505/12/05 14:40:31  5-MIN KDBQ 122040Z 12013G17KT 9SM OVC015 09/07 A3021 810 83 400 120/13G17 RMK AO2 PK WND 12030/2010 PRESRR
94908KDBQ DBQ20050512144511205/12/05 14:45:31  5-MIN KDBQ 122045Z 12015KT 9SM OVC015 09/07 A3022 810 83 400 120/15 RMK AO2 PK WND 12030/2010
94908KDBQ DBQ20050512145014705/12/05 14:50:31  5-MIN KDBQ 122050Z 11013G18KT 9SM OVC015 09/07 A3021 810 83 400 110/13G18 RMK AO2 PK WND 12030/2010 SLP238 60027 T00940067 58004
94908KDBQ DBQ20050512145514705/12/05 14:55:31  5-MIN KDBQ 122055Z 11013G18KT 9SM OVC015 09/07 A3021 820 83 400 110/13G18 RMK AO2 PK WND 12030/2010 SLP235 60027 T00940067 55017
94908KDBQ DBQ20050512150009405/12/05 15:00:31  5-MIN KDBQ 122100Z 11012KT 9SM OVC015 09/07 A3021 810 83 400 110/12 RMK AO2
94908KDBQ DBQ20050512150509405/12/05 15:05:31  5-MIN KDBQ 122105Z 11012KT 9SM OVC015 09/07 A3021 810 83 400 110/12 RMK AO2
94908KDBQ DBQ20050512151009405/12/05 15:10:31  5-MIN KDBQ 122110Z 11011KT 9SM OVC015 09/07 A3020 820 83 400 110/11 RMK AO2
94908KDBQ DBQ20050512151509405/12/05 15:15:31  5-MIN KDBQ 122115Z 09012KT 8SM OVC015 09/07 A3019 830 83 400 090/12 RMK AO2
94908KDBQ DBQ20050512152010105/12/05 15:20:31  5-MIN KDBQ 122120Z 09014KT 8SM OVC015 09/07 A3018 840 83 400 090/14 RMK AO2 PRESFR
94908KDBQ DBQ20050512152509405/12/05 15:25:31  5-MIN KDBQ 122125Z 10012KT 9SM OVC015 10/07 A3019 830 80 500 100/12 RMK AO2
94908KDBQ DBQ20050512153009405/12/05 15:30:31  5-MIN KDBQ 122130Z 08013KT 9SM OVC015 10/07 A3019 830 80 500 080/13 RMK AO2
94908KDBQ DBQ20050512153509405/12/05 15:35:31  5-MIN KDBQ 122135Z 08011KT 9SM OVC015 10/07 A3018 830 80 500 080/11 RMK AO2
94908KDBQ DBQ20050512154009405/12/05 15:40:31  5-MIN KDBQ 122140Z 08011KT 9SM OVC017 10/07 A3018 840 80 500 080/11 RMK AO2
94908KDBQ DBQ20050512154509405/12/05 15:45:31  5-MIN KDBQ 122145Z 08014KT 9SM OVC017 10/07 A3017 840 80 500 080/14 RMK AO2
94908KDBQ DBQ20050512155011105/12/05 15:50:31  5-MIN KDBQ 122150Z 07013KT 9SM OVC017 10/07 A3017 850 80 500 070/13 RMK AO2 SLP223 T01000067
94908KDBQ DBQ20050512155511105/12/05 15:55:31  5-MIN KDBQ 122155Z 08011KT 9SM OVC017 10/07 A3017 850 80 500 080/11 RMK AO2 SLP223 T01000067
94908KDBQ DBQ20050512160009405/12/05 16:00:31  5-MIN KDBQ 122200Z 08012KT 9SM OVC017 10/07 A3017 850 80 500 080/12 RMK AO2
94908KDBQ DBQ20050512160509405/12/05 16:05:31  5-MIN KDBQ 122205Z 09013KT 9SM OVC017 10/07 A3017 850 80 500 090/13 RMK AO2
94908KDBQ DBQ20050512161009405/12/05 16:10:31  5-MIN KDBQ 122210Z 08013KT 9SM OVC017 10/07 A3017 850 80 500 080/13 RMK AO2
94908KDBQ DBQ20050512161509405/12/05 16:15:31  5-MIN KDBQ 122215Z 08013KT 9SM OVC017 10/07 A3016 860 80 500 080/13 RMK AO2
94908KDBQ DBQ20050512162009405/12/05 16:20:31  5-MIN KDBQ 122220Z 08014KT 9SM OVC019 10/07 A3016 860 80 500 080/14 RMK AO2
94908KDBQ DBQ20050512162509405/12/05 16:25:31  5-MIN KDBQ 122225Z 08013KT 9SM OVC019 10/07 A3016 860 80 500 080/13 RMK AO2
94908KDBQ DBQ20050512163009405/12/05 16:30:31  5-MIN KDBQ 122230Z 08014KT 9SM OVC019 10/07 A3015 860 80 500 080/14 RMK AO2
94908KDBQ DBQ20050512163509405/12/05 16:35:31  5-MIN KDBQ 122235Z 08013KT 9SM OVC019 10/07 A3015 870 80 500 080/13 RMK AO2
94908KDBQ DBQ20050512164009405/12/05 16:40:31  5-MIN KDBQ 122240Z 08014KT 9SM OVC019 10/07 A3016 860 80 500 080/14 RMK AO2
94908KDBQ DBQ20050512164509405/12/05 16:45:31  5-MIN KDBQ 122245Z 09014KT 9SM OVC019 10/07 A3015 860 80 500 090/14 RMK AO2
94908KDBQ DBQ20050512165011105/12/05 16:50:31  5-MIN KDBQ 122250Z 09015KT 8SM OVC019 10/07 A3015 870 80 500 090/15 RMK AO2 SLP215 T01000067
94908KDBQ DBQ20050512165511705/12/05 16:55:31  5-MIN KDBQ 122255Z 08016G20KT 8SM OVC019 10/07 A3015 870 80 500 080/16G20 RMK AO2 SLP216 T01000067
94908KDBQ DBQ20050512170010005/12/05 17:00:31  5-MIN KDBQ 122300Z 09015G22KT 8SM OVC019 10/06 A3014 880 77 500 090/15G22 RMK AO2
94908KDBQ DBQ20050512170510005/12/05 17:05:31  5-MIN KDBQ 122305Z 09013G22KT 8SM OVC019 10/07 A3014 870 80 500 090/13G22 RMK AO2
94908KDBQ DBQ20050512171010005/12/05 17:10:31  5-MIN KDBQ 122310Z 09017G23KT 8SM OVC019 10/06 A3014 880 77 500 090/17G23 RMK AO2
94908KDBQ DBQ20050512171510005/12/05 17:15:31  5-MIN KDBQ 122315Z 10017G23KT 8SM OVC019 10/06 A3014 870 77 500 100/17G23 RMK AO2
94908KDBQ DBQ20050512172010005/12/05 17:20:31  5-MIN KDBQ 122320Z 08016G23KT 8SM OVC019 10/06 A3014 870 77 500 080/16G23 RMK AO2
94908KDBQ DBQ20050512172509405/12/05 17:25:31  5-MIN KDBQ 122325Z 09018KT 8SM OVC019 10/06 A3014 870 77 500 090/18 RMK AO2
94908KDBQ DBQ20050512173009405/12/05 17:30:31  5-MIN KDBQ 122330Z 09016KT 9SM OVC019 10/06 A3014 870 74 500 090/16 RMK AO2
94908KDBQ DBQ20050512173510005/12/05 17:35:31  5-MIN KDBQ 122335Z 08012G22KT 8SM OVC021 10/06 A3015 870 74 500 080/12G22 RMK AO2
94908KDBQ DBQ20050512174010005/12/05 17:40:31  5-MIN KDBQ 122340Z 09016G21KT 8SM OVC021 09/06 A3015 870 79 400 080/16G21 RMK AO2
94908KDBQ DBQ20050512174510005/12/05 17:45:31  5-MIN KDBQ 122345Z 09014G21KT 8SM OVC021 09/06 A3015 870 76 400 090/14G21 RMK AO2
94908KDBQ DBQ20050512175013505/12/05 17:50:31  5-MIN KDBQ 122350Z 09012KT 8SM OVC021 09/06 A3015 870 79 400 090/12 RMK AO2 SLP217 60027 T00940061 10100 20083 55017
94908KDBQ DBQ20050512175513505/12/05 17:55:31  5-MIN KDBQ 122355Z 09014KT 9SM OVC021 09/06 A3015 860 76 400 090/14 RMK AO2 SLP218 60027 T00940056 10100 20083 55018
94908KDBQ DBQ20050512180010105/12/05 18:00:31  5-MIN KDBQ 130000Z 10013KT 9SM BKN021 OVC030 09/06 A3015 870 76 400 090/13 RMK AO2
94908KDBQ DBQ20050512180510805/12/05 18:05:31  5-MIN KDBQ 130005Z 09016G20KT 9SM BKN021 OVC030 09/06  A3014 880 76 500 090/16G20 RMK AO2
94908KDBQ DBQ20050512181010805/12/05 18:10:31  5-MIN KDBQ 130010Z 09015G20KT 9SM SCT021 OVC030 09/06  A3014 880 76 500 090/15G20 RMK AO2
94908KDBQ DBQ20050512181510805/12/05 18:15:31  5-MIN KDBQ 130015Z 09018G21KT 9SM SCT021 OVC030 09/05  A3014 880 74 500 090/18G21 RMK AO2
94908KDBQ DBQ20050512182010905/12/05 18:20:31  5-MIN KDBQ 130020Z 10017G21KT 10SM SCT021 OVC030 09/05  A3014 880 74 500 100/17G21 RMK AO2
94908KDBQ DBQ20050512182510905/12/05 18:25:31  5-MIN KDBQ 130025Z 10016G23KT 10SM FEW021 OVC030 09/05  A3013 890 74 500 100/16G23 RMK AO2
94908KDBQ DBQ20050512183010905/12/05 18:30:31  5-MIN KDBQ 130030Z 09016G23KT 10SM FEW021 BKN030 09/05  A3013 890 74 500 090/16G23 RMK AO2
94908KDBQ DBQ20050512183510905/12/05 18:35:31  5-MIN KDBQ 130035Z 10012G21KT 10SM FEW021 BKN030 09/05  A3013 880 74 500 100/12G21 RMK AO2
94908KDBQ DBQ20050512184010905/12/05 18:40:31  5-MIN KDBQ 130040Z 10015G21KT 10SM FEW021 OVC032 09/05  A3013 890 74 500 090/15G21 RMK AO2
94908KDBQ DBQ20050512184510905/12/05 18:45:31  5-MIN KDBQ 130045Z 10013G21KT 10SM FEW021 OVC032 09/05  A3012 890 74 500 100/13G21 RMK AO2
94908KDBQ DBQ20050512185012905/12/05 18:50:31  5-MIN KDBQ 130050Z AUTO 09014G19KT 10SM BKN032 09/05  A3012 890 74 500 090/14G19 RMK AO2 SLP207 T00940050 TSNO
94908KDBQ DBQ20050512185512905/12/05 18:55:31  5-MIN KDBQ 130055Z AUTO 09015G19KT 10SM OVC032 09/05  A3013 890 74 500 090/15G19 RMK AO2 SLP210 T00940050 TSNO
94908KDBQ DBQ20050512190011205/12/05 19:00:31  5-MIN KDBQ 130100Z AUTO 09018G23KT 10SM OVC032 09/05  A3013 890 76 400 090/18G23 RMK AO2 TSNO
94908KDBQ DBQ20050512190511905/12/05 19:05:31  5-MIN KDBQ 130105Z AUTO 09016G23KT 10SM FEW024 OVC032  09/04 A3013 890 73 400 090/16G23 RMK AO2 TSNO
94908KDBQ DBQ20050512191011205/12/05 19:10:31  5-MIN KDBQ 130110Z AUTO 09017KT 10SM FEW024 OVC032 09/04 A3014 880 73 400 090/17 RMK AO2 TSNO
94908KDBQ DBQ20050512191511205/12/05 19:15:31  5-MIN KDBQ 130115Z AUTO 09013G19KT 10SM OVC032 09/04  A3014 880 73 400 090/13G19 RMK AO2 TSNO
94908KDBQ DBQ20050512192010505/12/05 19:20:31  5-MIN KDBQ 130120Z AUTO 09014KT 10SM OVC032 09/04 A3014 880 73 400 090/14 RMK AO2 TSNO
94908KDBQ DBQ20050512192510505/12/05 19:25:31  5-MIN KDBQ 130125Z AUTO 08013KT 10SM OVC032 09/04 A3013 880 73 400 080/13 RMK AO2 TSNO
94908KDBQ DBQ20050512193011205/12/05 19:30:31  5-MIN KDBQ 130130Z AUTO 08015G23KT 10SM OVC032 09/04  A3013 880 73 400 080/15G23 RMK AO2 TSNO
94908KDBQ DBQ20050512193511205/12/05 19:35:31  5-MIN KDBQ 130135Z AUTO 09014G23KT 10SM OVC032 09/04  A3013 890 73 400 090/14G23 RMK AO2 TSNO
94908KDBQ DBQ20050512194011205/12/05 19:40:31  5-MIN KDBQ 130140Z AUTO 09017G22KT 10SM OVC032 09/04  A3013 880 71 400 090/17G22 RMK AO2 TSNO
94908KDBQ DBQ20050512194511205/12/05 19:45:31  5-MIN KDBQ 130145Z AUTO 09016G22KT 10SM OVC032 09/04  A3013 880 71 400 090/16G22 RMK AO2 TSNO
94908KDBQ DBQ20050512195012905/12/05 19:50:31  5-MIN KDBQ 130150Z AUTO 09015G22KT 10SM OVC032 09/04  A3013 880 71 400 090/15G22 RMK AO2 SLP212 T00890039 TSNO
94908KDBQ DBQ20050512195512905/12/05 19:55:31  5-MIN KDBQ 130155Z AUTO 09013G24KT 10SM OVC030 09/04  A3014 880 71 400 090/13G24 RMK AO2 SLP211 T00890039 TSNO
94908KDBQ DBQ20050512200011205/12/05 20:00:31  5-MIN KDBQ 130200Z AUTO 09015G24KT 10SM OVC030 09/04  A3013 880 71 400 090/15G24 RMK AO2 TSNO
94908KDBQ DBQ20050512200511205/12/05 20:05:31  5-MIN KDBQ 130205Z AUTO 09012G20KT 10SM OVC030 09/04  A3013 880 71 400 090/12G20 RMK AO2 TSNO
94908KDBQ DBQ20050512201010505/12/05 20:10:31  5-MIN KDBQ 130210Z AUTO 09013KT 10SM OVC028 09/04 A3013 880 68 500 090/13 RMK AO2 TSNO
94908KDBQ DBQ20050512201510505/12/05 20:15:31  5-MIN KDBQ 130215Z AUTO 09014KT 10SM OVC028 09/04 A3013 890 68 500 090/14 RMK AO2 TSNO
94908KDBQ DBQ20050512202011205/12/05 20:20:31  5-MIN KDBQ 130220Z AUTO 09017G21KT 10SM OVC028 09/04  A3013 890 68 500 090/17G21 RMK AO2 TSNO
94908KDBQ DBQ20050512202511205/12/05 20:25:31  5-MIN KDBQ 130225Z AUTO 10014G21KT 10SM OVC028 09/04  A3012 890 71 400 090/14G21 RMK AO2 TSNO
94908KDBQ DBQ20050512203011205/12/05 20:30:31  5-MIN KDBQ 130230Z AUTO 10015G22KT 10SM OVC028 09/04  A3012 900 71 400 090/15G22 RMK AO2 TSNO
94908KDBQ DBQ20050512203511205/12/05 20:35:31  5-MIN KDBQ 130235Z AUTO 10015G23KT 10SM OVC028 09/04  A3011 900 71 400 100/15G23 RMK AO2 TSNO
94908KDBQ DBQ20050512204011905/12/05 20:40:31  5-MIN KDBQ 130240Z AUTO 11019G23KT 10SM BKN028 OVC100  09/03 A3011 900 68 400 100/19G23 RMK AO2 TSNO
94908KDBQ DBQ20050512204511905/12/05 20:45:31  5-MIN KDBQ 130245Z AUTO 11015G22KT 10SM BKN028 OVC100  09/03 A3011 900 68 400 100/15G22 RMK AO2 TSNO
94908KDBQ DBQ20050512205014205/12/05 20:50:31  5-MIN KDBQ 130250Z AUTO 11016G23KT 10SM SCT028 BKN100  09/03 A3011 900 68 400 100/16G23 RMK AO2 SLP203 T00890033 55018 TSNO
94908KDBQ DBQ20050512205514205/12/05 20:55:31  5-MIN KDBQ 130255Z AUTO 10017G23KT 10SM SCT028 BKN100  09/03 A3011 910 68 400 100/17G23 RMK AO2 SLP202 T00890033 58014 TSNO
94908KDBQ DBQ20050512210012605/12/05 21:00:31  5-MIN KDBQ 130300Z AUTO 10016G22KT 10SM FEW028 BKN100  OVC120 09/03 A3011 910 68 400 100/16G22 RMK AO2 TSNO
94908KDBQ DBQ20050512210511905/12/05 21:05:31  5-MIN KDBQ 130305Z AUTO 10016G22KT 10SM BKN100 BKN120  09/03 A3011 910 68 400 100/16G22 RMK AO2 TSNO
94908KDBQ DBQ20050512211010505/12/05 21:10:31  5-MIN KDBQ 130310Z AUTO 10013KT 10SM OVC095 09/03 A3010 910 68 400 100/13 RMK AO2 TSNO
94908KDBQ DBQ20050512211511205/12/05 21:15:31  5-MIN KDBQ 130315Z AUTO 10012KT 10SM BKN095 BKN110 09/03 A3010 910 68 400 100/12 RMK AO2 TSNO
94908KDBQ DBQ20050512212011205/12/05 21:20:31  5-MIN KDBQ 130320Z AUTO 10015KT 10SM BKN095 BKN110 09/03 A3010 910 68 400 100/15 RMK AO2 TSNO
94908KDBQ DBQ20050512212511205/12/05 21:25:31  5-MIN KDBQ 130325Z AUTO 10012KT 10SM SCT095 BKN110 09/03 A3010 910 68 400 100/12 RMK AO2 TSNO
94908KDBQ DBQ20050512213011205/12/05 21:30:31  5-MIN KDBQ 130330Z AUTO 10012KT 10SM BKN090 BKN110 09/03 A3010 910 68 400 100/12 RMK AO2 TSNO
94908KDBQ DBQ20050512213511205/12/05 21:35:31  5-MIN KDBQ 130335Z AUTO 10013KT 10SM BKN090 BKN120 09/03 A3009 920 68 400 100/13 RMK AO2 TSNO
94908KDBQ DBQ20050512214011205/12/05 21:40:31  5-MIN KDBQ 130340Z AUTO 09012KT 10SM BKN090 BKN110 09/03 A3009 920 68 400 090/12 RMK AO2 TSNO
94908KDBQ DBQ20050512214511905/12/05 21:45:31  5-MIN KDBQ 130345Z AUTO 10014G19KT 10SM BKN090 BKN110  09/03 A3009 920 68 400 100/14G19 RMK AO2 TSNO
94908KDBQ DBQ20050512215014305/12/05 21:50:31  5-MIN KDBQ 130350Z AUTO 09012G20KT 10SM FEW060 BKN090  OVC110 09/03 A3009 920 65 500 090/12G20 RMK AO2 SLP194 T00940033 TSNO
94908KDBQ DBQ20050512215514305/12/05 21:55:31  5-MIN KDBQ 130355Z AUTO 10012G20KT 10SM FEW030 SCT060  OVC090 09/03 A3008 930 65 500 100/12G20 RMK AO2 SLP192 T00940033 TSNO
94908KDBQ DBQ20050512220013605/12/05 22:00:31  5-MIN KDBQ 130400Z AUTO 09009KT 040V110 10SM SCT030  SCT060 OVC090 09/03 A3010 910 68 400 090/09 040V110 RMK AO2 TSNO
94908KDBQ DBQ20050512220513305/12/05 22:05:31  5-MIN KDBQ 130405Z AUTO 30018G21KT 10SM BKN032 BKN060  OVC090 09/03 A3017 850 65 400 300/18G21 RMK AO2 PRESRR TSNO
94908KDBQ DBQ20050512221012605/12/05 22:10:31  5-MIN KDBQ 130410Z AUTO VRB04G21KT 10SM BKN032 BKN060  OVC090 09/04 A3013 880 71 400 VRB/04G21 RMK AO2 TSNO
94908KDBQ DBQ20050512221511205/12/05 22:15:31  5-MIN KDBQ 130415Z AUTO 31009KT 10SM BKN032 OVC060 09/03 A3015 870 65 400 310/09 RMK AO2 TSNO
94908KDBQ DBQ20050512222010505/12/05 22:20:31  5-MIN KDBQ 130420Z AUTO 36005KT 10SM OVC034 09/03 A3014 880 65 500 360/05 RMK AO2 TSNO
94908KDBQ DBQ20050512222510505/12/05 22:25:31  5-MIN KDBQ 130425Z AUTO 33008KT 10SM OVC034 09/04 A3014 870 68 500 330/08 RMK AO2 TSNO
94908KDBQ DBQ20050512223010505/12/05 22:30:31  5-MIN KDBQ 130430Z AUTO 36005KT 10SM OVC034 09/03 A3014 880 65 500 360/05 RMK AO2 TSNO
94908KDBQ DBQ20050512223510505/12/05 22:35:31  5-MIN KDBQ 130435Z AUTO 33007KT 10SM OVC034 09/04 A3015 870 71 400 330/07 RMK AO2 TSNO
94908KDBQ DBQ20050512224010505/12/05 22:40:31  5-MIN KDBQ 130440Z AUTO 02007KT 10SM OVC034 09/04 A3013 880 71 400 020/07 RMK AO2 TSNO
94908KDBQ DBQ20050512224510505/12/05 22:45:31  5-MIN KDBQ 130445Z AUTO 02007KT 10SM OVC034 09/04 A3012 890 71 400 020/07 RMK AO2 TSNO
94908KDBQ DBQ20050512225012205/12/05 22:50:31  5-MIN KDBQ 130450Z AUTO 03006KT 10SM OVC034 09/04 A3012 890 71 400 030/06 RMK AO2 SLP206 T00890039 TSNO
94908KDBQ DBQ20050512225513805/12/05 22:55:31  5-MIN KDBQ 130455Z AUTO 36005KT 9SM -RA OVC034 09/04  A3013 890 71 400 360/05 RMK AO2 RAB54 SLP207 P0000 T00890039 TSNO
94908KDBQ DBQ20050512230011505/12/05 23:00:31  5-MIN KDBQ 130500Z AUTO 01006KT 9SM -RA OVC034 08/04  A3012 890 76 300 010/06 RMK AO2 P0001 TSNO
94908KDBQ DBQ20050512230511605/12/05 23:05:31  5-MIN KDBQ 130505Z AUTO 36007KT 10SM -RA OVC034 08/04  A3011 900 76 400 360/07 RMK AO2 P0001 TSNO
94908KDBQ DBQ20050512231011705/12/05 23:10:31  5-MIN KDBQ 130510Z AUTO 03005KT 10SM OVC034 08/04 A3011 910 73 400 030/05 RMK AO2 RAE07 P0001 TSNO
94908KDBQ DBQ20050512231511605/12/05 23:15:31  5-MIN KDBQ 130515Z AUTO 34009KT 10SM -RA OVC032 08/04  A3011 900 76 400 340/09 RMK AO2 P0001 TSNO
94908KDBQ DBQ20050512232011405/12/05 23:20:31  5-MIN KDBQ 130520Z AUTO 35007KT 8SM RA OVC032 08/04  A3011 910 79 300 350/07 RMK AO2 P0002 TSNO
94908KDBQ DBQ20050512232512205/12/05 23:25:31  5-MIN KDBQ 130525Z AUTO 01005KT 4SM -RA FEW013 OVC032  08/04 A3011 900 79 300 010/05 RMK AO2 P0002 TSNO
94908KDBQ DBQ20050512233012905/12/05 23:30:31  5-MIN KDBQ 130530Z AUTO 01008KT 2 1/2SM +RA BR FEW013  OVC032 07/05 A3010 910 89 200 010/08 RMK AO2 P0013 TSNO
94908KDBQ DBQ20050512233512805/12/05 23:35:31  5-MIN KDBQ 130535Z AUTO 04006KT 2 1/2SM RA BR FEW013  OVC030 07/05 A3009 920 86 200 040/06 RMK AO2 P0016 TSNO
94908KDBQ DBQ20050512234012405/12/05 23:40:31  5-MIN KDBQ 130540Z AUTO 02004KT 5SM -RA BR FEW013 OVC030 07/05 A3011 900 86 200 020/04 RMK AO2 P0016 TSNO
94908KDBQ DBQ20050512234512205/12/05 23:45:31  5-MIN KDBQ 130545Z AUTO 04006KT 7SM -RA FEW013 OVC028  07/05 A3010 920 86 200 030/06 RMK AO2 P0017 TSNO
94908KDBQ DBQ20050512235017505/12/05 23:50:31  5-MIN KDBQ 130550Z AUTO 05007KT 5SM RA BR FEW013 OVC028 07/05 A3009 920 86 200 050/07 RMK AO2 SLP194 P0018 60018 T00720050 10094  20067 401000033 58014 TSNO
94908KDBQ DBQ20050512235516905/12/05 23:55:31  5-MIN KDBQ 130555Z AUTO 06006KT 5SM RA BR OVC028 07/05  A3009 920 86 200 060/06 RMK AO2 SLP194 P0019 60019 T00720050 10094 20067  401000033 58007 TSNO
94908KDBQ DBQ20050513000013005/13/05 00:00:38  5-MIN KDBQ 130600Z AUTO 05008KT 6SM RA BR BKN028 OVC032 07/05 A3008 930 86 300 050/08 RMK AO2 PRESFR P0001 TSNO
94908KDBQ DBQ20050513000512405/13/05 00:05:31  5-MIN KDBQ 130605Z AUTO 06008KT 6SM -RA BR BKN028 OVC047 07/05 A3008 930 86 300 060/08 RMK AO2 P0002 TSNO
94908KDBQ DBQ20050513001013005/13/05 00:10:31  5-MIN KDBQ 130610Z AUTO 07008KT 6SM RA BR BKN028 BKN044 OVC055 07/05 A3008 930 86 300 070/08 RMK AO2 P0002 TSNO
94908KDBQ DBQ20050513001513705/13/05 00:15:34  5-MIN KDBQ 130615Z AUTO 07009KT 5SM RA BR BKN027 BKN033 OVC044 07/05 A3006 950 86 300 070/09 RMK AO2 PRESFR P0004 TSNO
94908KDBQ DBQ20050513002013005/13/05 00:20:31  5-MIN KDBQ 130620Z AUTO 05009KT 4SM RA BR SCT027 OVC037 07/06 A3005 960 93 200 050/09 RMK AO2 PRESFR P0006 TSNO
94908KDBQ DBQ20050513002512305/13/05 00:25:31  5-MIN KDBQ 130625Z AUTO 07010KT 5SM RA BR SCT025 OVC035 07/05 A3005 960 89 200 070/10 RMK AO2 P0007 TSNO
94908KDBQ DBQ20050513003013105/13/05 00:30:31  5-MIN KDBQ 130630Z AUTO 08012KT 5SM -RA BR SCT025 OVC047 07/05 A3002 980 89 300 070/12 RMK AO2 PRESFR P0008 TSNO
94908KDBQ DBQ20050513003513105/13/05 00:35:31  5-MIN KDBQ 130635Z AUTO 06009KT 6SM -RA BR FEW025 BKN060 OVC100 07/05 A3002 980 89 300 060/09 RMK AO2 P0008 TSNO
94908KDBQ DBQ20050513004013705/13/05 00:40:31  5-MIN KDBQ 130640Z AUTO 07012KT 7SM -RA FEW023 BKN060  OVC120 07/06 A3000 1000 93 300 070/12 RMK AO2 PRESFR P0008 TSNO
94908KDBQ DBQ20050513004513705/13/05 00:45:31  5-MIN KDBQ 130645Z AUTO 09014KT 7SM -RA FEW023 BKN070  OVC110 07/06 A2999 1010 93 300 080/14 RMK AO2 PRESFR P0008 TSNO
94908KDBQ DBQ20050513005015505/13/05 00:50:31  5-MIN KDBQ 130650Z AUTO 10015KT 8SM FEW023 BKN075 BKN090 07/06 A2998 1020 93 300 100/15 RMK AO2 RAE46 PRESFR SLP159 P0008 T00670056 TSNO
94908KDBQ DBQ20050513005515505/13/05 00:55:31  5-MIN KDBQ 130655Z AUTO 10015KT 7SM SCT080 SCT090 BKN120 07/06 A2998 1030 93 300 100/15 RMK AO2 RAE46 PRESFR SLP157 P0008 T00670056 TSNO
94908KDBQ DBQ20050513010012605/13/05 01:00:31  5-MIN KDBQ 130700Z AUTO 09014G21KT 7SM SCT085 BKN120  07/06 A2997 1040 93 400 090/14G21 RMK AO2 PRESFR TSNO
94908KDBQ DBQ20050513010512105/13/05 01:05:31  5-MIN KDBQ 130705Z AUTO 09013G21KT 6SM BR SCT090 BKN120 07/06 A2997 1030 93 400 090/13G21 RMK AO2 TSNO
94908KDBQ DBQ20050513011011605/13/05 01:10:31  5-MIN KDBQ 130710Z AUTO 10011KT 6SM BR SCT095 SCT120  07/06 A2998 1020 93 400 100/11 RMK AO2 TSNO
94908KDBQ DBQ20050513011512305/13/05 01:15:31  5-MIN KDBQ 130715Z AUTO 11013KT 5SM BR FEW007 SCT095  SCT120 07/06 A2998 1020 93 400 110/13 RMK AO2 TSNO
94908KDBQ DBQ20050513012011605/13/05 01:20:31  5-MIN KDBQ 130720Z AUTO 10011KT 5SM BR SCT007 BKN110  07/06 A2998 1020 93 400 100/11 RMK AO2 TSNO
94908KDBQ DBQ20050513012512305/13/05 01:25:31  5-MIN KDBQ 130725Z AUTO 11012KT 5SM BR SCT007 BKN011  BKN070 08/07 A2998 1020 93 400 110/12 RMK AO2 TSNO
94908KDBQ DBQ20050513013011605/13/05 01:30:31  5-MIN KDBQ 130730Z AUTO 12010KT 5SM BR BKN009 BKN050  08/07 A2998 1030 93 400 110/10 RMK AO2 TSNO
94908KDBQ DBQ20050513013510905/13/05 01:35:31  5-MIN KDBQ 130735Z AUTO 12011KT 5SM BR BKN009 08/07  A2998 1020 93 400 120/11 RMK AO2 TSNO
94908KDBQ DBQ20050513014011605/13/05 01:40:31  5-MIN KDBQ 130740Z AUTO 12009KT 5SM BR BKN009 BKN120  08/07 A2997 1030 93 500 120/09 RMK AO2 TSNO
94908KDBQ DBQ20050513014512305/13/05 01:45:31  5-MIN KDBQ 130745Z AUTO 12012KT 5SM BR SCT009 BKN012  BKN120 08/07 A2997 1030 93 500 120/12 RMK AO2 TSNO
94908KDBQ DBQ20050513015014005/13/05 01:50:31  5-MIN KDBQ 130750Z AUTO 11011KT 6SM BR SCT009 BKN014  OVC120 08/07 A2996 1040 93 500 110/11 RMK AO2 SLP151 T00780067 TSNO
94908KDBQ DBQ20050513015514505/13/05 01:55:31  5-MIN KDBQ 130755Z AUTO 12012G16KT 6SM BR FEW009 BKN012 OVC110 08/07 A2996 1040 93 500 120/12G16 RMK AO2 SLP152 T00780067 TSNO
94908KDBQ DBQ20050513020011605/13/05 02:00:31  5-MIN KDBQ 130800Z AUTO 13015KT 6SM BR BKN011 OVC120  08/07 A2997 1040 89 500 130/15 RMK AO2 TSNO
94908KDBQ DBQ20050513020512805/13/05 02:05:31  5-MIN KDBQ 130805Z AUTO 14009G17KT 6SM BR SCT011 BKN014 OVC120 08/07 A2997 1030 89 500 140/09G17 RMK AO2 TSNO
94908KDBQ DBQ20050513021011605/13/05 02:10:31  5-MIN KDBQ 130810Z AUTO 14010KT 5SM BR BKN012 OVC110  08/07 A2997 1030 89 500 140/10 RMK AO2 TSNO
94908KDBQ DBQ20050513021512305/13/05 02:15:31  5-MIN KDBQ 130815Z AUTO 14009KT 5SM BR BKN010 BKN015  OVC110 08/07 A2997 1030 93 500 140/09 RMK AO2 TSNO
94908KDBQ DBQ20050513022011605/13/05 02:20:31  5-MIN KDBQ 130820Z AUTO 13008KT 5SM BR BKN010 OVC015  08/07 A2997 1030 93 500 130/08 RMK AO2 TSNO
94908KDBQ DBQ20050513022511605/13/05 02:25:31  5-MIN KDBQ 130825Z AUTO 14007KT 5SM BR BKN010 OVC015  08/07 A2997 1030 93 500 140/07 RMK AO2 TSNO
94908KDBQ DBQ20050513023010905/13/05 02:30:31  5-MIN KDBQ 130830Z AUTO 15009KT 5SM BR OVC012 08/07  A2997 1040 93 500 150/09 RMK AO2 TSNO
94908KDBQ DBQ20050513023510905/13/05 02:35:31  5-MIN KDBQ 130835Z AUTO 13009KT 5SM BR OVC012 08/07  A2996 1040 93 500 130/09 RMK AO2 TSNO
94908KDBQ DBQ20050513024010905/13/05 02:40:31  5-MIN KDBQ 130840Z AUTO 15007KT 5SM BR OVC012 08/07  A2996 1040 93 500 150/07 RMK AO2 TSNO
94908KDBQ DBQ20050513024512105/13/05 02:45:31  5-MIN KDBQ 130845Z AUTO 14007KT 5SM BR OVC010 08/07  A2996 1040 93 500 140/07 RMK AO2 CIG 007V015 TSNO
94908KDBQ DBQ20050513025015105/13/05 02:50:31  5-MIN KDBQ 130850Z AUTO 14005KT 5SM BR OVC010 08/07  A2997 1040 93 500 140/05 RMK AO2 CIG 007V015 SLP152 60008 T00830072 58007  TSNO
94908KDBQ DBQ20050513025514505/13/05 02:55:31  5-MIN KDBQ 130855Z AUTO 14004KT 6SM BR BKN008 OVC012  09/07 A2997 1040 89 600 140/04 RMK AO2 SLP151 60008 T00890072 55040 TSNO
94908KDBQ DBQ20050513030012105/13/05 03:00:31  5-MIN KDBQ 130900Z AUTO 14004KT 6SM BR OVC008 09/07  A2997 1030 89 600 140/04 RMK AO2 CIG 007V011 TSNO
94908KDBQ DBQ20050513030513605/13/05 03:05:31  5-MIN KDBQ 130905Z AUTO 14005KT 5SM -RA BR OVC008 09/07 A2997 1040 89 600 140/05 RMK AO2 RAB03 CIG 007V012 P0000 TSNO
94908KDBQ DBQ20050513031012405/13/05 03:10:31  5-MIN KDBQ 130910Z AUTO 14006KT 5SM -RA BR OVC008 09/07 A2996 1040 89 600 140/06 RMK AO2 RAB03 P0000 TSNO
94908KDBQ DBQ20050513031512405/13/05 03:15:31  5-MIN KDBQ 130915Z AUTO 14007KT 5SM -RA BR OVC008 09/08 A2996 1040 93 600 140/07 RMK AO2 RAB03 P0000 TSNO
94908KDBQ DBQ20050513032012405/13/05 03:20:31  5-MIN KDBQ 130920Z AUTO 13006KT 5SM -RA BR OVC008 09/07 A2996 1040 89 600 130/06 RMK AO2 RAB03 P0000 TSNO
94908KDBQ DBQ20050513032512405/13/05 03:25:31  5-MIN KDBQ 130925Z AUTO 15006KT 5SM BR OVC008 09/08  A2997 1030 93 600 150/06 RMK AO2 RAB03E23 P0000 TSNO
94908KDBQ DBQ20050513033012405/13/05 03:30:31  5-MIN KDBQ 130930Z AUTO 16006KT 5SM BR OVC008 09/08  A2997 1030 93 600 160/06 RMK AO2 RAB03E23 P0000 TSNO
94908KDBQ DBQ20050513033512405/13/05 03:35:31  5-MIN KDBQ 130935Z AUTO 16006KT 5SM BR OVC008 09/08  A2996 1040 93 600 160/06 RMK AO2 RAB03E23 P0000 TSNO
94908KDBQ DBQ20050513034012405/13/05 03:40:31  5-MIN KDBQ 130940Z AUTO 16008KT 4SM BR OVC006 09/08  A2996 1040 93 600 150/08 RMK AO2 RAB03E23 P0000 TSNO
94908KDBQ DBQ20050513034512405/13/05 03:45:31  5-MIN KDBQ 130945Z AUTO 16008KT 5SM BR OVC006 09/08  A2996 1040 93 600 160/08 RMK AO2 RAB03E23 P0000 TSNO
94908KDBQ DBQ20050513035014105/13/05 03:50:31  5-MIN KDBQ 130950Z AUTO 15007KT 5SM BR OVC006 09/08  A2996 1040 93 600 150/07 RMK AO2 RAB03E23 SLP148 P0000 T00890078 TSNO
94908KDBQ DBQ20050513035514105/13/05 03:55:31  5-MIN KDBQ 130955Z AUTO 15004KT 4SM BR OVC006 09/08  A2996 1050 93 600 150/04 RMK AO2 RAB03E23 SLP148 P0000 T00890078 TSNO
94908KDBQ DBQ20050513040012605/13/05 04:00:31  5-MIN KDBQ 131000Z AUTO 14006KT 4SM -RA BR OVC006 09/08 A2995 1050 93 600 140/06 RMK AO2 RAB0959 P0000 TSNO
94908KDBQ DBQ20050513040512605/13/05 04:05:31  5-MIN KDBQ 131005Z AUTO 14004KT 4SM -RA BR OVC006 09/08 A2995 1050 93 600 140/04 RMK AO2 RAB0959 P0000 TSNO
94908KDBQ DBQ20050513041012605/13/05 04:10:31  5-MIN KDBQ 131010Z AUTO 15004KT 4SM -RA BR OVC006 09/08 A2995 1050 93 600 140/04 RMK AO2 RAB0959 P0001 TSNO
94908KDBQ DBQ20050513041512605/13/05 04:15:31  5-MIN KDBQ 131015Z AUTO 14005KT 4SM -RA BR OVC004 09/08 A2995 1050 93 600 140/05 RMK AO2 RAB0959 P0001 TSNO
94908KDBQ DBQ20050513042012605/13/05 04:20:31  5-MIN KDBQ 131020Z AUTO 14006KT 4SM -RA BR OVC004 09/08 A2995 1050 93 600 140/06 RMK AO2 RAB0959 P0001 TSNO
94908KDBQ DBQ20050513042512605/13/05 04:25:31  5-MIN KDBQ 131025Z AUTO 14006KT 3SM -RA BR OVC004 09/08 A2995 1050 93 600 140/06 RMK AO2 RAB0959 P0001 TSNO
94908KDBQ DBQ20050513043012605/13/05 04:30:31  5-MIN KDBQ 131030Z AUTO 15006KT 3SM -RA BR OVC004 09/08 A2995 1050 93 600 140/06 RMK AO2 RAB0959 P0001 TSNO
94908KDBQ DBQ20050513043512605/13/05 04:35:31  5-MIN KDBQ 131035Z AUTO 16005KT 3SM -RA BR OVC004 09/08 A2995 1050 93 600 160/05 RMK AO2 RAB0959 P0002 TSNO
94908KDBQ DBQ20050513044012605/13/05 04:40:31  5-MIN KDBQ 131040Z AUTO 14006KT 3SM -RA BR OVC004 09/08 A2994 1060 93 600 140/06 RMK AO2 RAB0959 P0002 TSNO
94908KDBQ DBQ20050513044512605/13/05 04:45:31  5-MIN KDBQ 131045Z AUTO 15007KT 3SM -RA BR OVC004 09/08 A2994 1060 93 600 150/07 RMK AO2 RAB0959 P0002 TSNO
94908KDBQ DBQ20050513045013305/13/05 04:50:31  5-MIN KDBQ 131050Z 15006KT 3SM -RA BR OVC004 09/08 A2994 1060 96 600 150/06 RMK AO2 RAB0959 SLP142 P0003 T00890083
94908KDBQ DBQ20050513045513305/13/05 04:55:31  5-MIN KDBQ 131055Z 16007KT 3SM -RA BR OVC004 09/08 A2994 1060 96 600 160/07 RMK AO2 RAB0959 SLP143 P0003 T00890083
94908KDBQ DBQ20050513050010805/13/05 05:00:31  5-MIN KDBQ 131100Z 15007KT 4SM -RA BR OVC004 09/08 A2994 1060 96 600 150/07 RMK AO2 P0000
94908KDBQ DBQ20050513050510805/13/05 05:05:31  5-MIN KDBQ 131105Z 15008KT 3SM -RA BR OVC004 09/08 A2993 1070 96 600 150/08 RMK AO2 P0000
94908KDBQ DBQ20050513051011305/13/05 05:10:31  5-MIN KDBQ 131110Z 15011KT 2 1/2SM -RA BR OVC004 09/08  A2993 1070 96 600 150/11 RMK AO2 P0000
94908KDBQ DBQ20050513051512005/13/05 05:15:31  5-MIN KDBQ 131115Z 15012KT 2SM -RA BR OVC004 09/08 A2993 1070 93 700 150/12 RMK AO2 VIS 1 3/4V3 P0000
94908KDBQ DBQ20050513052010805/13/05 05:20:31  5-MIN KDBQ 131120Z 15012KT 2SM -RA BR OVC002 09/09 A2993 1070 96 700 150/12 RMK AO2 P0000
94908KDBQ DBQ20050513052510805/13/05 05:25:31  5-MIN KDBQ 131125Z 16013KT 2SM -RA BR OVC002 09/09 A2992 1080 96 700 150/13 RMK AO2 P0000
94908KDBQ DBQ20050513053011805/13/05 05:30:31  5-MIN KDBQ 131130Z 15011KT 2SM BR OVC002 09/09 A2991  1090 96 700 140/11 RMK AO2 RAE27 PRESFR P0001
94908KDBQ DBQ20050513053512105/13/05 05:35:31  5-MIN KDBQ 131135Z 14011KT 1 3/4SM BR OVC002 09/09 A2990 1100 96 700 140/11 RMK AO2 RAE27 PRESFR P0001
94908KDBQ DBQ20050513054012105/13/05 05:40:31  5-MIN KDBQ 131140Z 13012KT 1 1/2SM BR OVC002 09/09 A2989 1110 96 700 130/12 RMK AO2 RAE27 PRESFR P0001
94908KDBQ DBQ20050513054512005/13/05 05:45:31  5-MIN KDBQ 131145Z 12014KT 1 1/2SM -RA BR OVC002 09/09  A2988 1110 96 800 120/14 RMK AO2 PRESFR P0001
94908KDBQ DBQ20050513055016705/13/05 05:50:31  5-MIN KDBQ 131150Z 13012KT 1 1/4SM -RA BR OVC002 09/09  A2988 1120 96 800 130/12 RMK AO2 PRESFR SLP121 P0001 60012 70058 T00940089 10094 20067 55040
94908KDBQ DBQ20050513055516205/13/05 05:55:31  5-MIN KDBQ 131155Z 13010KT 1SM -RA BR OVC002 09/09 A2987 1120 96 800 130/10 RMK AO2 PRESFR SLP119 P0001 60012 70058 T00940089 10094 20067 58031
94908KDBQ DBQ20050513060011105/13/05 06:00:31  5-MIN KDBQ 131200Z 13010KT 3/4SM -RA BR OVC002 09/09  A2987 1120 96 800 130/10 RMK AO2 P0000
94908KDBQ DBQ20050513060511305/13/05 06:05:31  5-MIN KDBQ 131205Z 14012KT 3/4SM BR OVC002 09/09 A2988  1110 96 800 140/12 RMK AO2 RAE04 P0000
94908KDBQ DBQ20050513061011305/13/05 06:10:31  5-MIN KDBQ 131210Z 14014KT 1/2SM FG OVC002 09/09 A2988  1120 96 800 140/14 RMK AO2 RAE04 P0000
94908KDBQ DBQ20050513061511305/13/05 06:15:31  5-MIN KDBQ 131215Z 13014KT 1/2SM FG OVC002 09/09 A2987  1120 96 800 130/14 RMK AO2 RAE04 P0001
94908KDBQ DBQ20050513062011305/13/05 06:20:31  5-MIN KDBQ 131220Z 15014KT 1/2SM FG OVC002 09/09 A2988  1110 96 800 150/14 RMK AO2 RAE04 P0001
94908KDBQ DBQ20050513062511405/13/05 06:25:31  5-MIN KDBQ 131225Z 14014KT 1/2SM FG OVC002 09/09 A2987  1120 100 800 140/14 RMK AO2 RAE04 P0001
94908KDBQ DBQ20050513063011405/13/05 06:30:31  5-MIN KDBQ 131230Z 15018KT 3/4SM BR OVC002 09/09 A2988  1120 100 800 140/18 RMK AO2 RAE04 P0001
94908KDBQ DBQ20050513063511405/13/05 06:35:31  5-MIN KDBQ 131235Z 15013KT 3/4SM BR OVC002 09/09 A2988  1120 100 800 140/13 RMK AO2 RAE04 P0001
94908KDBQ DBQ20050513064011305/13/05 06:40:31  5-MIN KDBQ 131240Z 15013KT 3/4SM BR OVC002 10/09 A2988  1110 96 800 150/13 RMK AO2 RAE04 P0001
94908KDBQ DBQ20050513064511905/13/05 06:45:31  5-MIN KDBQ 131245Z 15011G18KT 3/4SM BR OVC002 10/09  A2989 1110 96 800 150/11G18 RMK AO2 RAE04 P0001
94908KDBQ DBQ20050513065015105/13/05 06:50:31  5-MIN KDBQ 131250Z 15010G15KT 140V210 1SM BR OVC002  10/09 A2988 1110 96 800 150/10G15 140V210 RMK AO2 RAE04 SLP123 P0001  T01000094
94908KDBQ DBQ20050513065513505/13/05 06:55:31  5-MIN KDBQ 131255Z 26010KT 1SM BR OVC002 10/09 A2992  1080 96 800 260/10 RMK AO2 RAE04 PRESRR SLP135 P0001 T01000094
94908KDBQ DBQ20050513070010205/13/05 07:00:31  5-MIN KDBQ 131300Z VRB05KT 1 1/4SM BR OVC002 10/09 A2991 1090 96 800 VRB/05 RMK AO2
94908KDBQ DBQ20050513070510205/13/05 07:05:31  5-MIN KDBQ 131305Z VRB05KT 1 1/4SM BR OVC002 10/09 A2992 1080 96 800 VRB/05 RMK AO2
94908KDBQ DBQ20050513071009905/13/05 07:10:31  5-MIN KDBQ 131310Z 24005KT 1SM BR OVC002 10/09 A2991  1080 96 800 240/05 RMK AO2
94908KDBQ DBQ20050513071509905/13/05 07:15:31  5-MIN KDBQ 131315Z 19005KT 1SM BR OVC002 10/09 A2992  1080 96 800 190/05 RMK AO2
94908KDBQ DBQ20050513072009905/13/05 07:20:31  5-MIN KDBQ 131320Z 22004KT 1SM BR OVC002 10/09 A2993  1070 96 800 220/04 RMK AO2
94908KDBQ DBQ20050513072510105/13/05 07:25:31  5-MIN KDBQ 131325Z 22006KT 3/4SM BR OVC002 10/09 A2993  1070 96 800 220/06 RMK AO2
94908KDBQ DBQ20050513073010105/13/05 07:30:31  5-MIN KDBQ 131330Z 21006KT 3/4SM BR OVC002 10/09 A2993  1070 96 800 210/06 RMK AO2
94908KDBQ DBQ20050513073510105/13/05 07:35:31  5-MIN KDBQ 131335Z 22006KT 3/4SM BR OVC002 10/09 A2993  1070 96 800 220/06 RMK AO2
94908KDBQ DBQ20050513074010105/13/05 07:40:31  5-MIN KDBQ 131340Z 24004KT 1/2SM FG OVC002 10/09 A2992  1080 96 800 240/04 RMK AO2
94908KDBQ DBQ20050513074510205/13/05 07:45:31  5-MIN KDBQ 131345Z 00000KT 1/4SM FG OVC002 10/10 A2992  1080 100 800 000/00 RMK AO2
94908KDBQ DBQ20050513075011805/13/05 07:50:31  5-MIN KDBQ 131350Z 24003KT 1/4SM FG VV001 10/10 A2992  1080 100 800 240/03 RMK AO2 SLP137 T01000100
94908KDBQ DBQ20050513075511705/13/05 07:55:31  5-MIN KDBQ 131355Z 26006KT 1/4SM FG VV001 11/10 A2993  1070 96 800 250/06 RMK AO2 SLP138 T01060100
94908KDBQ DBQ20050513080010005/13/05 08:00:31  5-MIN KDBQ 131400Z 24006KT 1/4SM FG VV001 11/10 A2993  1070 96 800 240/06 RMK AO2
94908KDBQ DBQ20050513080510005/13/05 08:05:31  5-MIN KDBQ 131405Z 24005KT 1/4SM FG VV001 11/10 A2993  1070 96 800 240/05 RMK AO2
94908KDBQ DBQ20050513081010005/13/05 08:10:31  5-MIN KDBQ 131410Z 26005KT 1/4SM FG VV001 11/10 A2993  1070 96 800 250/05 RMK AO2
94908KDBQ DBQ20050513081510005/13/05 08:15:31  5-MIN KDBQ 131415Z 25003KT 1/4SM FG VV001 11/10 A2993  1070 96 800 250/03 RMK AO2
94908KDBQ DBQ20050513082010005/13/05 08:20:31  5-MIN KDBQ 131420Z 00000KT 1/4SM FG VV001 11/10 A2992  1080 96 800 000/00 RMK AO2
94908KDBQ DBQ20050513082510105/13/05 08:25:31  5-MIN KDBQ 131425Z 00000KT 1/4SM FG VV001 11/11 A2992  1080 100 800 000/00 RMK AO2
94908KDBQ DBQ20050513083010105/13/05 08:30:31  5-MIN KDBQ 131430Z 00000KT 1/4SM FG VV001 11/11 A2992  1080 100 800 000/00 RMK AO2
94908KDBQ DBQ20050513083510105/13/05 08:35:31  5-MIN KDBQ 131435Z 00000KT 1/4SM FG VV001 11/11 A2992  1080 100 800 000/00 RMK AO2
94908KDBQ DBQ20050513084010105/13/05 08:40:31  5-MIN KDBQ 131440Z 15003KT 1/4SM FG VV001 11/11 A2992  1080 100 800 150/03 RMK AO2
94908KDBQ DBQ20050513084510005/13/05 08:45:31  5-MIN KDBQ 131445Z 00000KT 1/4SM FG VV001 11/11 A2992  1080 96 900 000/00 RMK AO2
94908KDBQ DBQ20050513085012905/13/05 08:50:31  5-MIN KDBQ 131450Z 20003KT 1/4SM FG VV001 11/11 A2992  1080 96 900 200/03 RMK AO2 SLP136 60001 T01110106 58031
94908KDBQ DBQ20050513085513005/13/05 08:55:31  5-MIN KDBQ 131455Z 20003KT 1/4SM FG VV001 11/11 A2992  1080 100 900 200/03 RMK AO2 SLP136 60001 T01110111 50016
94908KDBQ DBQ20050513090010005/13/05 09:00:31  5-MIN KDBQ 131500Z 20003KT 1/4SM FG VV001 11/11 A2992  1080 96 900 200/03 RMK AO2
94908KDBQ DBQ20050513090510105/13/05 09:05:31  5-MIN KDBQ 131505Z 21003KT 1/4SM FG VV001 11/11 A2992  1080 100 900 210/03 RMK AO2
94908KDBQ DBQ20050513091010105/13/05 09:10:31  5-MIN KDBQ 131510Z 19004KT 1/4SM FG VV001 11/11 A2992  1080 100 900 190/04 RMK AO2
94908KDBQ DBQ20050513091510105/13/05 09:15:31  5-MIN KDBQ 131515Z VRB03KT 1/4SM FG VV001 12/11 A2992  1080 96 1000 VRB/03 RMK AO2
94908KDBQ DBQ20050513092010105/13/05 09:20:31  5-MIN KDBQ 131520Z 20004KT 1/4SM FG VV001 12/11 A2992  1080 96 1000 200/04 RMK AO2
94908KDBQ DBQ20050513092510205/13/05 09:25:31  5-MIN KDBQ 131525Z 18006KT 1/4SM FG OVC001 12/11 A2992  1080 96 1000 180/06 RMK AO2
94908KDBQ DBQ20050513093010105/13/05 09:30:31  5-MIN KDBQ 131530Z 16006KT 1/4SM FG VV001 12/11 A2992  1070 96 1000 160/06 RMK AO2
94908KDBQ DBQ20050513093510105/13/05 09:35:31  5-MIN KDBQ 131535Z 17005KT 1/4SM FG VV001 12/11 A2992  1080 96 1000 170/05 RMK AO2
94908KDBQ DBQ20050513094010105/13/05 09:40:31  5-MIN KDBQ 131540Z 18005KT 1/4SM FG VV001 12/11 A2993  1070 96 1000 170/05 RMK AO2
94908KDBQ DBQ20050513094510105/13/05 09:45:31  5-MIN KDBQ 131545Z 18005KT 1/4SM FG VV001 12/11 A2993  1070 96 1000 180/05 RMK AO2
94908KDBQ DBQ20050513095011805/13/05 09:50:31  5-MIN KDBQ 131550Z 17005KT 1/4SM FG VV001 12/11 A2992  1070 96 1000 170/05 RMK AO2 SLP136 T01170111
94908KDBQ DBQ20050513095511805/13/05 09:55:31  5-MIN KDBQ 131555Z 17005KT 1/4SM FG VV001 12/11 A2992  1080 96 1000 170/05 RMK AO2 SLP133 T01170111
94908KDBQ DBQ20050513100010105/13/05 10:00:31  5-MIN KDBQ 131600Z 14006KT 1/4SM FG VV001 12/11 A2991  1090 96 1000 140/06 RMK AO2
94908KDBQ DBQ20050513100510105/13/05 10:05:31  5-MIN KDBQ 131605Z 15005KT 1/4SM FG VV001 12/11 A2991  1090 96 1000 150/05 RMK AO2
94908KDBQ DBQ20050513101010205/13/05 10:10:31  5-MIN KDBQ 131610Z 15005KT 1/4SM FG VV001 12/12 A2991  1090 100 1000 150/05 RMK AO2
94908KDBQ DBQ20050513101510205/13/05 10:15:31  5-MIN KDBQ 131615Z 18004KT 1/4SM FG VV001 12/12 A2991  1090 100 1000 180/04 RMK AO2
94908KDBQ DBQ20050513102010205/13/05 10:20:31  5-MIN KDBQ 131620Z 16005KT 1/4SM FG VV001 12/12 A2991  1080 100 1000 150/05 RMK AO2
94908KDBQ DBQ20050513102510305/13/05 10:25:31  5-MIN KDBQ 131625Z 17004KT 1/4SM FG OVC001 12/12 A2991  1080 100 1000 170/04 RMK AO2
94908KDBQ DBQ20050513103010205/13/05 10:30:31  5-MIN KDBQ 131630Z 17005KT 1/2SM FG OVC001 12/12 A2992  1080 96 1000 170/05 RMK AO2
94908KDBQ DBQ20050513103510205/13/05 10:35:31  5-MIN KDBQ 131635Z 19004KT 3/4SM BR OVC001 12/12 A2992  1080 96 1000 190/04 RMK AO2
94908KDBQ DBQ20050513104010205/13/05 10:40:31  5-MIN KDBQ 131640Z 19005KT 3/4SM BR OVC001 12/12 A2992  1080 96 1000 190/05 RMK AO2
94908KDBQ DBQ20050513104510205/13/05 10:45:31  5-MIN KDBQ 131645Z 18005KT 3/4SM BR OVC001 12/12 A2992  1080 96 1000 180/05 RMK AO2
94908KDBQ DBQ20050513105012005/13/05 10:50:31  5-MIN KDBQ 131650Z 19005KT 3/4SM BR OVC001 12/12 A2992  1080 100 1000 190/05 RMK AO2 SLP133 T01220122
94908KDBQ DBQ20050513105512005/13/05 10:55:31  5-MIN KDBQ 131655Z 19005KT 1 1/4SM BR OVC001 13/12 A2991 1090 96 1100 190/05 RMK AO2 SLP132 T01280122
94908KDBQ DBQ20050513110010005/13/05 11:00:31  5-MIN KDBQ 131700Z 19007KT 2SM BR OVC001 13/12 A2991  1080 96 1100 190/07 RMK AO2
94908KDBQ DBQ20050513110510305/13/05 11:05:31  5-MIN KDBQ 131705Z 19007KT 1 1/2SM BR OVC001 13/12 A2992 1080 96 1100 190/07 RMK AO2
94908KDBQ DBQ20050513111010305/13/05 11:10:31  5-MIN KDBQ 131710Z 19007KT 1 1/2SM BR OVC001 13/12 A2992 1080 96 1100 190/07 RMK AO2
94908KDBQ DBQ20050513111510305/13/05 11:15:31  5-MIN KDBQ 131715Z 19008KT 1 1/2SM BR OVC001 13/12 A2992 1080 96 1100 190/08 RMK AO2
94908KDBQ DBQ20050513112010305/13/05 11:20:31  5-MIN KDBQ 131720Z 19007KT 1 1/2SM BR OVC001 13/12 A2992 1080 96 1100 190/07 RMK AO2
94908KDBQ DBQ20050513112510305/13/05 11:25:31  5-MIN KDBQ 131725Z 18008KT 1 1/2SM BR OVC001 13/12 A2991 1080 96 1100 180/08 RMK AO2
94908KDBQ DBQ20050513113010305/13/05 11:30:31  5-MIN KDBQ 131730Z 18010KT 1 1/2SM BR OVC001 13/12 A2991 1080 96 1100 180/10 RMK AO2
94908KDBQ DBQ20050513113512005/13/05 11:35:31  5-MIN KDBQ 131735Z 18009KT 1 3/4SM -RA BR OVC001 13/12  A2991 1090 96 1100 180/09 RMK AO2 RAB32 P0000
94908KDBQ DBQ20050513114011605/13/05 11:40:31  5-MIN KDBQ 131740Z 18010KT 2SM -RA BR OVC001 13/13 A2991 1090 100 1100 180/10 RMK AO2 RAB32 P0000
94908KDBQ DBQ20050513114512005/13/05 11:45:31  5-MIN KDBQ 131745Z 18011KT 1 3/4SM -RA BR OVC001 13/13  A2991 1090 96 1200 180/11 RMK AO2 RAB32 P0000
94908KDBQ DBQ20050513115016005/13/05 11:50:31  5-MIN KDBQ 131750Z 19010KT 2 1/2SM BR OVC001 13/13 A2990 1090 96 1200 190/10 RMK AO2 RAB32E46 SLP129 P0000 60001 T01330128 10133  20094 50016
94908KDBQ DBQ20050513115517205/13/05 11:55:31  5-MIN KDBQ 131755Z 18011KT 2 1/2SM BR OVC003 13/13 A2990 1100 96 1200 180/11 RMK AO2 RAB32E46 CIG 002V006 SLP127 P0000 60001  T01330128 10133 20094 58007
94908KDBQ DBQ20050513120011505/13/05 12:00:31  5-MIN KDBQ 131800Z 17009KT 2 1/2SM BR OVC003 13/13 A2989 1110 96 1200 170/09 RMK AO2 CIG 002V006
94908KDBQ DBQ20050513120511505/13/05 12:05:31  5-MIN KDBQ 131805Z 18010KT 2 1/2SM BR OVC003 13/13 A2989 1100 96 1200 180/10 RMK AO2 CIG 002V006
94908KDBQ DBQ20050513121011505/13/05 12:10:31  5-MIN KDBQ 131810Z 18007KT 2 1/2SM BR OVC003 13/13 A2989 1110 96 1200 180/07 RMK AO2 CIG 002V006
94908KDBQ DBQ20050513121510005/13/05 12:15:31  5-MIN KDBQ 131815Z 19009KT 3SM BR OVC003 14/13 A2989  1110 93 1300 190/09 RMK AO2
94908KDBQ DBQ20050513122010005/13/05 12:20:31  5-MIN KDBQ 131820Z 19011KT 3SM BR OVC003 13/13 A2989  1100 96 1200 190/11 RMK AO2
94908KDBQ DBQ20050513122511205/13/05 12:25:31  5-MIN KDBQ 131825Z 19010KT 3SM BR OVC003 14/13 A2989  1100 93 1300 190/10 RMK AO2 CIG 003V008
94908KDBQ DBQ20050513123011205/13/05 12:30:31  5-MIN KDBQ 131830Z 20010KT 3SM BR OVC003 14/13 A2989  1100 96 1300 200/10 RMK AO2 CIG 003V007
94908KDBQ DBQ20050513123511205/13/05 12:35:31  5-MIN KDBQ 131835Z 21008KT 3SM BR OVC003 14/13 A2989  1110 93 1300 210/08 RMK AO2 CIG 003V007
94908KDBQ DBQ20050513124010005/13/05 12:40:31  5-MIN KDBQ 131840Z 21009KT 3SM BR OVC005 14/13 A2988  1110 93 1300 200/09 RMK AO2
94908KDBQ DBQ20050513124511505/13/05 12:45:31  5-MIN KDBQ 131845Z 21009KT 3SM -RA BR OVC005 14/13 A2988 1120 93 1400 210/09 RMK AO2 RAB41 P0000
94908KDBQ DBQ20050513125014405/13/05 12:50:31  5-MIN KDBQ 131850Z 21008KT 4SM BR OVC005 14/13 A2988  1120 93 1400 210/08 RMK AO2 RAB41E50 CIG 003V008 SLP119 P0000 T01440133
94908KDBQ DBQ20050513125514405/13/05 12:55:31  5-MIN KDBQ 131855Z 21009KT 4SM BR OVC005 15/14 A2988  1120 93 1400 210/09 RMK AO2 RAB41E50 CIG 003V009 SLP120 P0000 T01500139
94908KDBQ DBQ20050513130011205/13/05 13:00:31  5-MIN KDBQ 131900Z 22008KT 4SM BR OVC005 15/13 A2988  1120 90 1400 210/08 RMK AO2 CIG 004V009
94908KDBQ DBQ20050513130511205/13/05 13:05:31  5-MIN KDBQ 131905Z 22009KT 4SM BR OVC005 15/14 A2988  1120 93 1400 220/09 RMK AO2 CIG 004V010
94908KDBQ DBQ20050513131010705/13/05 13:10:31  5-MIN KDBQ 131910Z 22009KT 4SM BR BKN005 OVC009 15/14  A2987 1120 93 1400 220/09 RMK AO2
94908KDBQ DBQ20050513131511205/13/05 13:15:31  5-MIN KDBQ 131915Z 24008KT 4SM BR OVC007 16/14 A2987  1120 90 1500 240/08 RMK AO2 CIG 004V010
94908KDBQ DBQ20050513132011205/13/05 13:20:31  5-MIN KDBQ 131920Z 23007KT 4SM BR OVC007 16/14 A2987  1120 90 1500 230/07 RMK AO2 CIG 004V010
94908KDBQ DBQ20050513132511205/13/05 13:25:31  5-MIN KDBQ 131925Z 24011KT 4SM BR OVC007 16/14 A2987  1120 90 1500 240/11 RMK AO2 CIG 005V012
94908KDBQ DBQ20050513133011905/13/05 13:30:31  5-MIN KDBQ 131930Z 23011KT 5SM BR BKN007 OVC014 16/14  A2987 1120 86 1600 230/11 RMK AO2 CIG 005V010
94908KDBQ DBQ20050513133511905/13/05 13:35:31  5-MIN KDBQ 131935Z 25011KT 5SM BR BKN009 OVC014 16/14  A2987 1120 86 1600 240/11 RMK AO2 CIG 005V012
94908KDBQ DBQ20050513134012605/13/05 13:40:31  5-MIN KDBQ 131940Z 24011KT 5SM BR BKN009 BKN014 OVC021  16/14 A2987 1130 86 1600 240/11 RMK AO2 CIG 005V011
94908KDBQ DBQ20050513134511905/13/05 13:45:31  5-MIN KDBQ 131945Z 25010KT 5SM BR BKN009 BKN021 16/14  A2987 1130 86 1600 250/10 RMK AO2 CIG 006V013
94908KDBQ DBQ20050513135013605/13/05 13:50:31  5-MIN KDBQ 131950Z 25010KT 5SM BR BKN009 BKN021 17/14  A2986 1130 86 1600 240/10 RMK AO2 CIG 007V013 SLP114 T01670144
94908KDBQ DBQ20050513135512405/13/05 13:55:31  5-MIN KDBQ 131955Z 23010KT 5SM BR BKN011 BKN021 17/14  A2986 1130 86 1600 230/10 RMK AO2 SLP114 T01670144
94908KDBQ DBQ20050513140010705/13/05 14:00:31  5-MIN KDBQ 132000Z 24010KT 5SM HZ BKN011 BKN021 17/14  A2986 1130 83 1700 240/10 RMK AO2
94908KDBQ DBQ20050513140510005/13/05 14:05:31  5-MIN KDBQ 132005Z 24011KT 5SM BR BKN011 17/14 A2986  1140 86 1600 240/11 RMK AO2
94908KDBQ DBQ20050513141010005/13/05 14:10:31  5-MIN KDBQ 132010Z 22012KT 6SM BR BKN011 17/15 A2986  1140 87 1700 220/12 RMK AO2
94908KDBQ DBQ20050513141510005/13/05 14:15:31  5-MIN KDBQ 132015Z 21010KT 6SM HZ BKN013 17/14 A2986  1140 83 1700 210/10 RMK AO2
94908KDBQ DBQ20050513142010005/13/05 14:20:31  5-MIN KDBQ 132020Z 23011KT 6SM BR OVC013 17/14 A2986  1140 86 1600 230/11 RMK AO2
94908KDBQ DBQ20050513142510005/13/05 14:25:31  5-MIN KDBQ 132025Z 23010KT 6SM HZ OVC013 17/14 A2986  1140 83 1700 230/10 RMK AO2
94908KDBQ DBQ20050513143010005/13/05 14:30:31  5-MIN KDBQ 132030Z 23012KT 6SM HZ OVC013 17/14 A2986  1130 83 1700 230/12 RMK AO2
94908KDBQ DBQ20050513143510005/13/05 14:35:31  5-MIN KDBQ 132035Z 24012KT 6SM HZ OVC013 18/14 A2986  1140 81 1800 240/12 RMK AO2
94908KDBQ DBQ20050513144010705/13/05 14:40:31  5-MIN KDBQ 132040Z 24012KT 6SM HZ BKN013 OVC021 17/14  A2986 1140 83 1700 240/12 RMK AO2
94908KDBQ DBQ20050513144510705/13/05 14:45:31  5-MIN KDBQ 132045Z 24011KT 6SM HZ BKN013 OVC020 17/14  A2985 1140 83 1700 240/11 RMK AO2
94908KDBQ DBQ20050513145014305/13/05 14:50:31  5-MIN KDBQ 132050Z 23010KT 6SM HZ SCT013 BKN018 OVC025  18/14 A2985 1140 81 1800 230/10 RMK AO2 SLP109 60000 T01780144 58007
94908KDBQ DBQ20050513145514005/13/05 14:55:31  5-MIN KDBQ 132055Z 25010KT 7SM SCT013 SCT017 OVC023  18/15 A2985 1140 83 1800 240/10 RMK AO2 SLP108 60000 T01780150 56016
94908KDBQ DBQ20050513150010305/13/05 15:00:31  5-MIN KDBQ 132100Z 23011KT 7SM SCT015 OVC023 18/15 A2985 1140 83 1800 230/11 RMK AO2
94908KDBQ DBQ20050513150510705/13/05 15:05:31  5-MIN KDBQ 132105Z 24013KT 6SM HZ SCT015 OVC021 18/15  A2985 1140 83 1800 240/13 RMK AO2
94908KDBQ DBQ20050513151010705/13/05 15:10:31  5-MIN KDBQ 132110Z 23011KT 6SM HZ BKN017 OVC025 17/14  A2985 1140 83 1700 230/11 RMK AO2
94908KDBQ DBQ20050513151510705/13/05 15:15:31  5-MIN KDBQ 132115Z 23010KT 6SM HZ BKN017 OVC024 17/14  A2985 1140 83 1700 230/10 RMK AO2
94908KDBQ DBQ20050513152010705/13/05 15:20:31  5-MIN KDBQ 132120Z 23008KT 6SM HZ BKN017 OVC024 17/14  A2985 1140 83 1700 230/08 RMK AO2
94908KDBQ DBQ20050513152510305/13/05 15:25:31  5-MIN KDBQ 132125Z 23008KT 7SM BKN017 OVC026 18/15 A2985 1140 83 1800 230/08 RMK AO2
94908KDBQ DBQ20050513153010705/13/05 15:30:31  5-MIN KDBQ 132130Z 23009KT 6SM HZ BKN017 OVC026 18/15  A2985 1140 83 1800 230/09 RMK AO2
94908KDBQ DBQ20050513153510705/13/05 15:35:31  5-MIN KDBQ 132135Z 24009KT 6SM HZ BKN017 OVC026 18/15  A2985 1140 83 1800 240/09 RMK AO2
94908KDBQ DBQ20050513154011405/13/05 15:40:31  5-MIN KDBQ 132140Z 25008KT 6SM HZ BKN017 BKN025 OVC034  18/16 A2985 1150 84 1800 250/08 RMK AO2
94908KDBQ DBQ20050513154511105/13/05 15:45:31  5-MIN KDBQ 132145Z 26012KT 7SM SCT017 BKN023 OVC032  19/16 A2984 1150 81 1900 260/12 RMK AO2
94908KDBQ DBQ20050513155012805/13/05 15:50:31  5-MIN KDBQ 132150Z 27012KT 9SM FEW019 BKN025 BKN032  19/16 A2985 1150 78 2000 270/12 RMK AO2 SLP106 T01940156
94908KDBQ DBQ20050513155512805/13/05 15:55:31  5-MIN KDBQ 132155Z 25012KT 9SM SCT019 SCT028 BKN035  19/15 A2985 1150 78 1900 250/12 RMK AO2 SLP108 T01890150
94908KDBQ DBQ20050513160011105/13/05 16:00:31  5-MIN KDBQ 132200Z 26011KT 9SM FEW017 BKN027 BKN035  18/15 A2984 1150 81 1800 260/11 RMK AO2
94908KDBQ DBQ20050513160511105/13/05 16:05:31  5-MIN KDBQ 132205Z 28016KT 9SM FEW017 SCT027 BKN035  19/15 A2985 1150 78 1900 280/16 RMK AO2
94908KDBQ DBQ20050513161011205/13/05 16:10:31  5-MIN KDBQ 132210Z 28013KT 10SM FEW017 SCT027 BKN035  19/14 A2985 1140 75 1900 280/13 RMK AO2
94908KDBQ DBQ20050513161511205/13/05 16:15:31  5-MIN KDBQ 132215Z 28013KT 10SM FEW017 SCT027 BKN035  19/14 A2985 1140 75 1900 280/13 RMK AO2
94908KDBQ DBQ20050513162011205/13/05 16:20:31  5-MIN KDBQ 132220Z 27012KT 10SM FEW017 SCT027 BKN035  19/15 A2985 1140 78 1900 270/12 RMK AO2
94908KDBQ DBQ20050513162511205/13/05 16:25:31  5-MIN KDBQ 132225Z 27012KT 10SM FEW020 SCT027 BKN035  18/14 A2985 1140 78 1800 260/12 RMK AO2
94908KDBQ DBQ20050513163011205/13/05 16:30:31  5-MIN KDBQ 132230Z 29012KT 10SM SCT020 SCT029 BKN035  18/14 A2985 1140 78 1800 280/12 RMK AO2
94908KDBQ DBQ20050513163511205/13/05 16:35:31  5-MIN KDBQ 132235Z 28013KT 10SM SCT020 SCT029 BKN035  18/14 A2985 1140 75 1800 280/13 RMK AO2
94908KDBQ DBQ20050513164011205/13/05 16:40:31  5-MIN KDBQ 132240Z 27012KT 10SM SCT020 SCT029 BKN035  18/14 A2985 1140 75 1800 270/12 RMK AO2
94908KDBQ DBQ20050513164511205/13/05 16:45:31  5-MIN KDBQ 132245Z 27011KT 10SM SCT020 SCT029 BKN035  18/14 A2985 1140 75 1800 270/11 RMK AO2
94908KDBQ DBQ20050513165012205/13/05 16:50:31  5-MIN KDBQ 132250Z 27012KT 10SM BKN022 BKN029 18/14  A2985 1140 75 1800 270/12 RMK AO2 SLP110 T01830139
94908KDBQ DBQ20050513165512005/13/05 16:55:31  5-MIN KDBQ 132255Z 27013KT 9SM FEW020 SCT027 18/14 A2985 1140 75 1800 270/13 RMK AO2 SLP110 T01830139
94908KDBQ DBQ20050513170011105/13/05 17:00:31  5-MIN KDBQ 132300Z 27011KT 9SM FEW020 SCT027 SCT033  18/14 A2985 1140 78 1800 270/11 RMK AO2
94908KDBQ DBQ20050513170510305/13/05 17:05:31  5-MIN KDBQ 132305Z 27011KT 8SM FEW022 BKN031 18/14 A2986 1140 78 1800 270/11 RMK AO2
94908KDBQ DBQ20050513171010305/13/05 17:10:31  5-MIN KDBQ 132310Z 28011KT 8SM BKN031 BKN041 18/14 A2985 1140 78 1800 280/11 RMK AO2
94908KDBQ DBQ20050513171510305/13/05 17:15:31  5-MIN KDBQ 132315Z 27010KT 8SM FEW031 BKN040 18/14 A2985 1140 78 1800 270/10 RMK AO2
94908KDBQ DBQ20050513172010305/13/05 17:20:31  5-MIN KDBQ 132320Z 28008KT 8SM SCT033 SCT042 17/14 A2985 1140 80 1700 280/08 RMK AO2
94908KDBQ DBQ20050513172510305/13/05 17:25:31  5-MIN KDBQ 132325Z 28011KT 7SM FEW021 BKN036 17/14 A2985 1140 80 1700 280/11 RMK AO2
94908KDBQ DBQ20050513173011105/13/05 17:30:31  5-MIN KDBQ 132330Z 28011KT 8SM FEW021 SCT028 BKN034  17/14 A2986 1140 80 1700 280/11 RMK AO2
94908KDBQ DBQ20050513173511105/13/05 17:35:31  5-MIN KDBQ 132335Z 29011KT 8SM SCT021 SCT028 BKN037  17/14 A2986 1130 80 1700 290/11 RMK AO2
94908KDBQ DBQ20050513174011105/13/05 17:40:31  5-MIN KDBQ 132340Z 28013KT 8SM SCT021 SCT028 BKN037  17/13 A2986 1130 78 1700 280/13 RMK AO2
94908KDBQ DBQ20050513174511105/13/05 17:45:31  5-MIN KDBQ 132345Z 29013KT 8SM SCT021 SCT028 BKN037  17/13 A2985 1140 80 1600 290/13 RMK AO2
94908KDBQ DBQ20050513175014405/13/05 17:50:31  5-MIN KDBQ 132350Z 29014KT 8SM FEW021 BKN028 17/13 A2987 1130 80 1600 290/14 RMK AO2 SLP115 60000 T01670133 10194 20133 56016
94908KDBQ DBQ20050513175514405/13/05 17:55:31  5-MIN KDBQ 132355Z 29013KT 8SM FEW021 OVC028 17/13 A2987 1120 80 1600 290/13 RMK AO2 SLP116 60000 T01670133 10194 20133 53007
94908KDBQ DBQ20050513180010305/13/05 18:00:31  5-MIN KDBQ 140000Z 29012KT 8SM FEW021 OVC028 17/13 A2988 1120 80 1600 290/12 RMK AO2
94908KDBQ DBQ20050513180510305/13/05 18:05:31  5-MIN KDBQ 140005Z 28011KT 8SM BKN025 OVC030 16/13 A2988 1120 80 1500 280/11 RMK AO2
94908KDBQ DBQ20050513181010305/13/05 18:10:31  5-MIN KDBQ 140010Z 28013KT 9SM SCT025 OVC030 16/13 A2988 1120 80 1500 280/13 RMK AO2
94908KDBQ DBQ20050513181510505/13/05 18:15:31  5-MIN KDBQ 140015Z 29012KT 10SM SCT025 OVC028 16/12  A2988 1120 77 1500 290/12 RMK AO2
94908KDBQ DBQ20050513182010505/13/05 18:20:31  5-MIN KDBQ 140020Z 29011KT 10SM SCT025 OVC028 16/12  A2988 1120 77 1500 290/11 RMK AO2
94908KDBQ DBQ20050513182510505/13/05 18:25:31  5-MIN KDBQ 140025Z 28010KT 10SM SCT025 OVC028 16/12  A2988 1120 77 1500 280/10 RMK AO2
94908KDBQ DBQ20050513183010505/13/05 18:30:31  5-MIN KDBQ 140030Z 28011KT 10SM SCT025 OVC028 16/12  A2988 1120 80 1500 280/11 RMK AO2
94908KDBQ DBQ20050513183510305/13/05 18:35:31  5-MIN KDBQ 140035Z 29009KT 9SM SCT025 OVC028 16/12 A2988 1120 80 1500 290/09 RMK AO2
94908KDBQ DBQ20050513184010305/13/05 18:40:31  5-MIN KDBQ 140040Z 29010KT 9SM SCT025 OVC028 16/12 A2988 1110 80 1500 290/10 RMK AO2
94908KDBQ DBQ20050513184510305/13/05 18:45:31  5-MIN KDBQ 140045Z 29011KT 8SM SCT025 OVC028 16/12 A2988 1110 80 1500 280/11 RMK AO2
94908KDBQ DBQ20050513185013005/13/05 18:50:31  5-MIN KDBQ 140050Z AUTO 29012KT 8SM SCT025 BKN034 16/12 A2988 1120 80 1500 290/12 RMK AO2 SLP120 T01560122 TSNO
94908KDBQ DBQ20050513185513005/13/05 18:55:31  5-MIN KDBQ 140055Z AUTO 28013KT 9SM BKN025 BKN034 16/12 A2988 1110 77 1500 280/13 RMK AO2 SLP122 T01560117 TSNO
94908KDBQ DBQ20050513190011305/13/05 19:00:31  5-MIN KDBQ 140100Z AUTO 29011KT 9SM BKN025 OVC032 15/12 A2989 1110 80 1400 290/11 RMK AO2 TSNO
94908KDBQ DBQ20050513190511405/13/05 19:05:31  5-MIN KDBQ 140105Z AUTO 29012KT 10SM BKN025 OVC032 15/12 A2989 1110 80 1400 290/12 RMK AO2 TSNO
94908KDBQ DBQ20050513191010705/13/05 19:10:31  5-MIN KDBQ 140110Z AUTO 28011KT 10SM OVC023 15/12 A2989 1110 80 1400 280/11 RMK AO2 TSNO
94908KDBQ DBQ20050513191510705/13/05 19:15:31  5-MIN KDBQ 140115Z AUTO 29012KT 10SM OVC023 15/12 A2988 1110 80 1400 290/12 RMK AO2 TSNO
94908KDBQ DBQ20050513192010705/13/05 19:20:31  5-MIN KDBQ 140120Z AUTO 29012KT 10SM OVC023 14/12 A2989 1110 83 1300 290/12 RMK AO2 TSNO
94908KDBQ DBQ20050513192510705/13/05 19:25:31  5-MIN KDBQ 140125Z AUTO 31015KT 10SM OVC023 14/12 A2989 1110 83 1300 310/15 RMK AO2 TSNO
94908KDBQ DBQ20050513193010705/13/05 19:30:31  5-MIN KDBQ 140130Z AUTO 30012KT 10SM OVC023 14/11 A2989 1110 80 1300 300/12 RMK AO2 TSNO
94908KDBQ DBQ20050513193510705/13/05 19:35:31  5-MIN KDBQ 140135Z AUTO 30009KT 10SM OVC023 14/11 A2989 1110 80 1300 290/09 RMK AO2 TSNO
94908KDBQ DBQ20050513194010705/13/05 19:40:31  5-MIN KDBQ 140140Z AUTO 28009KT 10SM OVC023 14/11 A2989 1110 83 1300 280/09 RMK AO2 TSNO
94908KDBQ DBQ20050513194510705/13/05 19:45:31  5-MIN KDBQ 140145Z AUTO 29011KT 10SM OVC025 14/11 A2989 1110 83 1300 290/11 RMK AO2 TSNO
94908KDBQ DBQ20050513195013105/13/05 19:50:31  5-MIN KDBQ 140150Z AUTO 30010KT 10SM FEW017 OVC025 14/11 A2989 1110 83 1300 300/10 RMK AO2 SLP123 T01390111 TSNO
94908KDBQ DBQ20050513195512405/13/05 19:55:31  5-MIN KDBQ 140155Z AUTO 29012KT 10SM OVC025 14/11 A2989 1110 83 1300 290/12 RMK AO2 SLP123 T01390111 TSNO
94908KDBQ DBQ20050513200011405/13/05 20:00:31  5-MIN KDBQ 140200Z AUTO 30014G18KT 10SM OVC025 14/11  A2989 1110 80 1300 300/14G18 RMK AO2 TSNO
94908KDBQ DBQ20050513200511405/13/05 20:05:31  5-MIN KDBQ 140205Z AUTO 29010G18KT 10SM OVC025 13/11  A2989 1110 83 1200 290/10G18 RMK AO2 TSNO
94908KDBQ DBQ20050513201010705/13/05 20:10:31  5-MIN KDBQ 140210Z AUTO 30014KT 10SM OVC027 13/11 A2989 1100 83 1200 300/14 RMK AO2 TSNO
94908KDBQ DBQ20050513201510705/13/05 20:15:31  5-MIN KDBQ 140215Z AUTO 30011KT 10SM OVC027 13/11 A2989 1100 83 1200 300/11 RMK AO2 TSNO
94908KDBQ DBQ20050513202010705/13/05 20:20:31  5-MIN KDBQ 140220Z AUTO 30011KT 10SM OVC027 13/10 A2989 1100 80 1200 300/11 RMK AO2 TSNO
94908KDBQ DBQ20050513202510705/13/05 20:25:31  5-MIN KDBQ 140225Z AUTO 30010KT 10SM OVC027 13/09 A2989 1110 77 1200 300/10 RMK AO2 TSNO
94908KDBQ DBQ20050513203010705/13/05 20:30:31  5-MIN KDBQ 140230Z AUTO 31009KT 10SM OVC027 13/09 A2989 1110 77 1200 300/09 RMK AO2 TSNO
94908KDBQ DBQ20050513203510705/13/05 20:35:31  5-MIN KDBQ 140235Z AUTO 30008KT 10SM OVC027 13/09 A2989 1110 80 1100 300/08 RMK AO2 TSNO
94908KDBQ DBQ20050513204010705/13/05 20:40:31  5-MIN KDBQ 140240Z AUTO 30009KT 10SM OVC029 13/09 A2989 1100 77 1100 300/09 RMK AO2 TSNO
94908KDBQ DBQ20050513204510705/13/05 20:45:31  5-MIN KDBQ 140245Z AUTO 30008KT 10SM BKN029 12/09 A2989 1100 80 1100 300/08 RMK AO2 TSNO
94908KDBQ DBQ20050513205013005/13/05 20:50:31  5-MIN KDBQ 140250Z AUTO 30008KT 10SM BKN029 12/09 A2989 1100 80 1100 300/08 RMK AO2 SLP124 T01220089 53007 TSNO
94908KDBQ DBQ20050513205513005/13/05 20:55:31  5-MIN KDBQ 140255Z AUTO 29007KT 10SM BKN029 12/09 A2989 1110 80 1100 290/07 RMK AO2 SLP124 T01220089 51006 TSNO
94908KDBQ DBQ20050513210010705/13/05 21:00:31  5-MIN KDBQ 140300Z AUTO 29006KT 10SM BKN031 12/09 A2989 1110 80 1100 290/06 RMK AO2 TSNO
94908KDBQ DBQ20050513210510705/13/05 21:05:31  5-MIN KDBQ 140305Z AUTO 30006KT 10SM SCT031 12/09 A2989 1100 83 1000 290/06 RMK AO2 TSNO
94908KDBQ DBQ20050513211010605/13/05 21:10:31  5-MIN KDBQ 140310Z AUTO 29005KT 10SM FEW031 11/09 A2989 1100 86 900 290/05 RMK AO2 TSNO
94908KDBQ DBQ20050513211510605/13/05 21:15:31  5-MIN KDBQ 140315Z AUTO 28005KT 10SM FEW031 11/08 A2990 1100 86 900 280/05 RMK AO2 TSNO
94908KDBQ DBQ20050513212010605/13/05 21:20:31  5-MIN KDBQ 140320Z AUTO 26005KT 10SM FEW031 11/08 A2990 1100 86 900 260/05 RMK AO2 TSNO
94908KDBQ DBQ20050513212510605/13/05 21:25:31  5-MIN KDBQ 140325Z AUTO 26006KT 10SM FEW031 10/08 A2990 1100 89 800 260/06 RMK AO2 TSNO
94908KDBQ DBQ20050513213010605/13/05 21:30:31  5-MIN KDBQ 140330Z AUTO 26006KT 10SM FEW039 10/08 A2990 1100 89 800 260/06 RMK AO2 TSNO
94908KDBQ DBQ20050513213510605/13/05 21:35:31  5-MIN KDBQ 140335Z AUTO 27005KT 10SM FEW039 10/08 A2990 1100 89 800 270/05 RMK AO2 TSNO
94908KDBQ DBQ20050513214010605/13/05 21:40:31  5-MIN KDBQ 140340Z AUTO 27005KT 10SM FEW039 11/08 A2989 1100 86 900 270/05 RMK AO2 TSNO
94908KDBQ DBQ20050513214510605/13/05 21:45:31  5-MIN KDBQ 140345Z AUTO 28005KT 10SM SCT037 11/08 A2989 1100 86 900 280/05 RMK AO2 TSNO
94908KDBQ DBQ20050513215012305/13/05 21:50:31  5-MIN KDBQ 140350Z AUTO 27003KT 10SM BKN037 11/09 A2989 1100 89 900 270/03 RMK AO2 SLP125 T01060089 TSNO
94908KDBQ DBQ20050513215512305/13/05 21:55:31  5-MIN KDBQ 140355Z AUTO 26004KT 10SM BKN037 11/09 A2989 1100 89 900 260/04 RMK AO2 SLP125 T01060089 TSNO
94908KDBQ DBQ20050513220010605/13/05 22:00:31  5-MIN KDBQ 140400Z AUTO 25004KT 10SM BKN037 11/09 A2990 1100 89 900 250/04 RMK AO2 TSNO
94908KDBQ DBQ20050513220511305/13/05 22:05:31  5-MIN KDBQ 140405Z AUTO 24004KT 10SM FEW030 OVC037 11/09 A2990 1100 89 900 240/04 RMK AO2 TSNO
94908KDBQ DBQ20050513221010605/13/05 22:10:31  5-MIN KDBQ 140410Z AUTO 24004KT 10SM OVC037 11/09 A2990 1100 89 900 240/04 RMK AO2 TSNO
94908KDBQ DBQ20050513221510605/13/05 22:15:31  5-MIN KDBQ 140415Z AUTO 24004KT 10SM OVC037 11/09 A2990 1100 89 900 240/04 RMK AO2 TSNO
94908KDBQ DBQ20050513222011305/13/05 22:20:31  5-MIN KDBQ 140420Z AUTO 25004KT 10SM SCT029 OVC037 11/09 A2990 1100 89 900 250/04 RMK AO2 TSNO
94908KDBQ DBQ20050513222511305/13/05 22:25:31  5-MIN KDBQ 140425Z AUTO 25003KT 10SM SCT029 OVC039 11/09 A2989 1100 93 900 250/03 RMK AO2 TSNO
94908KDBQ DBQ20050513223011305/13/05 22:30:31  5-MIN KDBQ 140430Z AUTO 25004KT 10SM FEW029 BKN039 11/09 A2989 1100 89 900 250/04 RMK AO2 TSNO
94908KDBQ DBQ20050513223511305/13/05 22:35:31  5-MIN KDBQ 140435Z AUTO 24004KT 10SM SCT029 BKN039 11/09 A2989 1100 89 900 240/04 RMK AO2 TSNO
94908KDBQ DBQ20050513224011305/13/05 22:40:31  5-MIN KDBQ 140440Z AUTO 24003KT 10SM BKN027 OVC039 11/09 A2989 1110 89 900 240/03 RMK AO2 TSNO
94908KDBQ DBQ20050513224511305/13/05 22:45:31  5-MIN KDBQ 140445Z AUTO 25003KT 10SM BKN027 OVC037 11/09 A2989 1110 93 900 250/03 RMK AO2 TSNO
94908KDBQ DBQ20050513225013005/13/05 22:50:31  5-MIN KDBQ 140450Z AUTO 25003KT 10SM BKN025 OVC035 11/09 A2989 1110 93 900 250/03 RMK AO2 SLP122 T01060094 TSNO
94908KDBQ DBQ20050513225513805/13/05 22:55:31  5-MIN KDBQ 140455Z AUTO 26004KT 10SM FEW017 BKN025  BKN032 11/09 A2989 1110 93 900 260/04 RMK AO2 SLP122 T01060094 TSNO
94908KDBQ DBQ20050513230011905/13/05 23:00:31  5-MIN KDBQ 140500Z AUTO 27004KT 9SM FEW017 SCT027 OVC032 11/09 A2988 1110 93 900 260/04 RMK AO2 TSNO
94908KDBQ DBQ20050513230512205/13/05 23:05:31  5-MIN KDBQ 140505Z AUTO 28008KT 10SM FEW017 SCT025  OVC032 11/09 A2988 1110 89 1000 270/08 RMK AO2 TSNO
94908KDBQ DBQ20050513231011405/13/05 23:10:31  5-MIN KDBQ 140510Z AUTO 28008KT 10SM FEW017 OVC032 11/09 A2988 1110 89 1000 280/08 RMK AO2 TSNO
94908KDBQ DBQ20050513231510705/13/05 23:15:31  5-MIN KDBQ 140515Z AUTO 28009KT 10SM OVC032 12/09 A2989 1110 86 1000 280/09 RMK AO2 TSNO
94908KDBQ DBQ20050513232010705/13/05 23:20:31  5-MIN KDBQ 140520Z AUTO 29009KT 10SM OVC032 12/09 A2989 1110 86 1000 280/09 RMK AO2 TSNO
94908KDBQ DBQ20050513232510705/13/05 23:25:31  5-MIN KDBQ 140525Z AUTO 28010KT 10SM OVC032 12/09 A2989 1110 86 1000 280/10 RMK AO2 TSNO
94908KDBQ DBQ20050513233010705/13/05 23:30:31  5-MIN KDBQ 140530Z AUTO 28010KT 10SM OVC032 12/09 A2989 1110 86 1000 280/10 RMK AO2 TSNO
94908KDBQ DBQ20050513233510705/13/05 23:35:31  5-MIN KDBQ 140535Z AUTO 28008KT 10SM OVC032 12/09 A2989 1100 86 1000 280/08 RMK AO2 TSNO
94908KDBQ DBQ20050513234010705/13/05 23:40:31  5-MIN KDBQ 140540Z AUTO 28009KT 10SM OVC032 12/09 A2989 1100 83 1000 280/09 RMK AO2 TSNO
94908KDBQ DBQ20050513234510705/13/05 23:45:31  5-MIN KDBQ 140545Z AUTO 29008KT 10SM OVC032 12/09 A2989 1110 83 1000 290/08 RMK AO2 TSNO
94908KDBQ DBQ20050513235015305/13/05 23:50:31  5-MIN KDBQ 140550Z AUTO 29009KT 10SM OVC032 12/09 A2989 1110 83 1000 290/09 RMK AO2 SLP123 T01170089 10167 20100 401940067 51006  TSNO
94908KDBQ DBQ20050513235515905/13/05 23:55:31  5-MIN KDBQ 140555Z AUTO 29008KT 10SM FEW021 OVC032 11/09 A2989 1110 86 900 280/08 RMK AO2 SLP123 T01110089 10167 20100 401940067  55001 TSNO
94908KDBQ DBQ20050514000012105/14/05 00:00:38  5-MIN KDBQ 140600Z AUTO 29009KT 10SM FEW021 SCT026  OVC032 11/09 A2989 1110 86 900 290/09 RMK AO2 TSNO
94908KDBQ DBQ20050514000511305/14/05 00:05:31  5-MIN KDBQ 140605Z AUTO 30014KT 10SM BKN027 OVC034 11/08 A2988 1110 80 900 300/14 RMK AO2 TSNO
94908KDBQ DBQ20050514001012105/14/05 00:10:31  5-MIN KDBQ 140610Z AUTO 30011KT 10SM FEW021 BKN027  OVC034 11/08 A2989 1110 80 900 300/11 RMK AO2 TSNO
94908KDBQ DBQ20050514001512105/14/05 00:15:33  5-MIN KDBQ 140615Z AUTO 29013KT 10SM SCT021 BKN027  OVC036 11/07 A2989 1110 77 900 290/13 RMK AO2 TSNO
94908KDBQ DBQ20050514002012105/14/05 00:20:31  5-MIN KDBQ 140620Z AUTO 29011KT 10SM FEW021 BKN027  OVC036 11/07 A2989 1110 77 900 290/11 RMK AO2 TSNO
94908KDBQ DBQ20050514002512105/14/05 00:25:31  5-MIN KDBQ 140625Z AUTO 29011KT 10SM FEW021 SCT027  OVC038 11/07 A2989 1110 77 900 290/11 RMK AO2 TSNO
94908KDBQ DBQ20050514003011305/14/05 00:30:31  5-MIN KDBQ 140630Z AUTO 29010KT 10SM FEW021 OVC038 11/07 A2989 1110 80 900 290/10 RMK AO2 TSNO
94908KDBQ DBQ20050514003511305/14/05 00:35:31  5-MIN KDBQ 140635Z AUTO 30010KT 10SM FEW023 OVC040 11/07 A2988 1110 80 900 290/10 RMK AO2 TSNO
94908KDBQ DBQ20050514004010605/14/05 00:40:31  5-MIN KDBQ 140640Z AUTO 30010KT 10SM OVC042 11/07 A2988 1120 77 900 290/10 RMK AO2 TSNO
94908KDBQ DBQ20050514004510605/14/05 00:45:31  5-MIN KDBQ 140645Z AUTO 29009KT 10SM OVC042 11/07 A2988 1110 77 900 290/09 RMK AO2 TSNO
94908KDBQ DBQ20050514005012305/14/05 00:50:31  5-MIN KDBQ 140650Z AUTO 28009KT 10SM OVC042 11/07 A2988 1110 77 900 280/09 RMK AO2 SLP121 T01060067 TSNO
94908KDBQ DBQ20050514005512305/14/05 00:55:31  5-MIN KDBQ 140655Z AUTO 28008KT 10SM OVC042 11/07 A2988 1110 77 900 280/08 RMK AO2 SLP121 T01060067 TSNO
94908KDBQ DBQ20050514010010605/14/05 01:00:31  5-MIN KDBQ 140700Z AUTO 28009KT 10SM OVC044 10/07 A2988 1110 80 800 280/09 RMK AO2 TSNO
94908KDBQ DBQ20050514010510605/14/05 01:05:31  5-MIN KDBQ 140705Z AUTO 29007KT 10SM OVC044 10/07 A2988 1110 80 800 290/07 RMK AO2 TSNO
94908KDBQ DBQ20050514011010605/14/05 01:10:31  5-MIN KDBQ 140710Z AUTO 29008KT 10SM OVC044 10/07 A2988 1120 80 800 290/08 RMK AO2 TSNO
94908KDBQ DBQ20050514011510605/14/05 01:15:31  5-MIN KDBQ 140715Z AUTO 28009KT 10SM OVC044 10/07 A2987 1120 80 800 280/09 RMK AO2 TSNO
94908KDBQ DBQ20050514012010605/14/05 01:20:31  5-MIN KDBQ 140720Z AUTO 29009KT 10SM BKN044 10/06 A2987 1120 77 800 290/09 RMK AO2 TSNO
94908KDBQ DBQ20050514012510605/14/05 01:25:31  5-MIN KDBQ 140725Z AUTO 29010KT 10SM BKN044 09/06 A2988 1120 79 800 290/10 RMK AO2 TSNO
94908KDBQ DBQ20050514013010605/14/05 01:30:31  5-MIN KDBQ 140730Z AUTO 29009KT 10SM SCT044 09/06 A2987 1120 76 800 290/09 RMK AO2 TSNO
94908KDBQ DBQ20050514013510605/14/05 01:35:31  5-MIN KDBQ 140735Z AUTO 29008KT 10SM FEW044 09/06 A2987 1120 76 800 290/08 RMK AO2 TSNO
94908KDBQ DBQ20050514014010605/14/05 01:40:31  5-MIN KDBQ 140740Z AUTO 29008KT 10SM FEW044 09/06 A2987 1120 79 700 290/08 RMK AO2 TSNO
94908KDBQ DBQ20050514014510405/14/05 01:45:31  5-MIN KDBQ 140745Z AUTO 29008KT 10SM CLR 09/06 A2987  1130 79 700 290/08 RMK AO2 TSNO
94908KDBQ DBQ20050514015012105/14/05 01:50:31  5-MIN KDBQ 140750Z AUTO 28008KT 10SM CLR 09/06 A2987  1130 79 700 280/08 RMK AO2 SLP116 T00890056 TSNO
94908KDBQ DBQ20050514015512105/14/05 01:55:31  5-MIN KDBQ 140755Z AUTO 29008KT 10SM CLR 09/06 A2987  1130 79 700 290/08 RMK AO2 SLP116 T00890056 TSNO
94908KDBQ DBQ20050514020010405/14/05 02:00:31  5-MIN KDBQ 140800Z AUTO 28008KT 10SM CLR 09/06 A2987  1130 79 700 280/08 RMK AO2 TSNO
94908KDBQ DBQ20050514020510405/14/05 02:05:31  5-MIN KDBQ 140805Z AUTO 28009KT 10SM CLR 08/06 A2987  1120 82 600 280/09 RMK AO2 TSNO
94908KDBQ DBQ20050514021010405/14/05 02:10:31  5-MIN KDBQ 140810Z AUTO 28009KT 10SM CLR 08/06 A2987  1120 82 600 280/09 RMK AO2 TSNO
94908KDBQ DBQ20050514021510405/14/05 02:15:31  5-MIN KDBQ 140815Z AUTO 28007KT 10SM CLR 08/06 A2987  1120 82 600 280/07 RMK AO2 TSNO
94908KDBQ DBQ20050514022010405/14/05 02:20:31  5-MIN KDBQ 140820Z AUTO 28008KT 10SM CLR 08/05 A2987  1120 82 600 280/08 RMK AO2 TSNO
94908KDBQ DBQ20050514022510405/14/05 02:25:31  5-MIN KDBQ 140825Z AUTO 28008KT 10SM CLR 08/05 A2987  1120 82 600 280/08 RMK AO2 TSNO
94908KDBQ DBQ20050514023010405/14/05 02:30:31  5-MIN KDBQ 140830Z AUTO 28008KT 10SM CLR 08/05 A2987  1120 82 600 280/08 RMK AO2 TSNO
94908KDBQ DBQ20050514023510405/14/05 02:35:31  5-MIN KDBQ 140835Z AUTO 29008KT 10SM CLR 08/05 A2987  1130 82 600 290/08 RMK AO2 TSNO
94908KDBQ DBQ20050514024010405/14/05 02:40:31  5-MIN KDBQ 140840Z AUTO 29008KT 10SM CLR 08/05 A2987  1130 82 600 290/08 RMK AO2 TSNO
94908KDBQ DBQ20050514024510405/14/05 02:45:31  5-MIN KDBQ 140845Z AUTO 29009KT 10SM CLR 08/05 A2987  1130 82 600 290/09 RMK AO2 TSNO
94908KDBQ DBQ20050514025012705/14/05 02:50:31  5-MIN KDBQ 140850Z AUTO 29007KT 10SM CLR 08/04 A2986  1130 79 600 280/07 RMK AO2 SLP114 T00780044 55001 TSNO
94908KDBQ DBQ20050514025512705/14/05 02:55:31  5-MIN KDBQ 140855Z AUTO 28007KT 10SM CLR 07/04 A2986  1130 82 500 280/07 RMK AO2 SLP114 T00720044 56008 TSNO
94908KDBQ DBQ20050514030010405/14/05 03:00:31  5-MIN KDBQ 140900Z AUTO 27007KT 10SM CLR 07/04 A2986  1130 82 500 270/07 RMK AO2 TSNO
94908KDBQ DBQ20050514030510405/14/05 03:05:31  5-MIN KDBQ 140905Z AUTO 27006KT 10SM CLR 07/04 A2987  1130 86 400 270/06 RMK AO2 TSNO
94908KDBQ DBQ20050514031010405/14/05 03:10:31  5-MIN KDBQ 140910Z AUTO 27007KT 10SM CLR 07/04 A2987  1130 86 400 270/07 RMK AO2 TSNO
94908KDBQ DBQ20050514031510405/14/05 03:15:31  5-MIN KDBQ 140915Z AUTO 28007KT 10SM CLR 07/04 A2987  1130 86 400 280/07 RMK AO2 TSNO
94908KDBQ DBQ20050514032010405/14/05 03:20:31  5-MIN KDBQ 140920Z AUTO 27008KT 10SM CLR 07/04 A2987  1130 86 400 270/08 RMK AO2 TSNO
94908KDBQ DBQ20050514032510405/14/05 03:25:31  5-MIN KDBQ 140925Z AUTO 27008KT 10SM CLR 07/04 A2987  1130 86 400 270/08 RMK AO2 TSNO
94908KDBQ DBQ20050514033010405/14/05 03:30:31  5-MIN KDBQ 140930Z AUTO 27008KT 10SM CLR 07/04 A2987  1120 86 400 270/08 RMK AO2 TSNO
94908KDBQ DBQ20050514033510405/14/05 03:35:31  5-MIN KDBQ 140935Z AUTO 27008KT 10SM CLR 07/04 A2987  1120 86 400 270/08 RMK AO2 TSNO
94908KDBQ DBQ20050514034010405/14/05 03:40:31  5-MIN KDBQ 140940Z AUTO 27008KT 10SM CLR 07/04 A2987  1120 86 400 270/08 RMK AO2 TSNO
94908KDBQ DBQ20050514034510405/14/05 03:45:31  5-MIN KDBQ 140945Z AUTO 27008KT 10SM CLR 07/04 A2987  1120 86 400 270/08 RMK AO2 TSNO
94908KDBQ DBQ20050514035012105/14/05 03:50:31  5-MIN KDBQ 140950Z AUTO 27008KT 10SM CLR 07/04 A2988  1120 86 400 260/08 RMK AO2 SLP117 T00670044 TSNO
94908KDBQ DBQ20050514035512105/14/05 03:55:31  5-MIN KDBQ 140955Z AUTO 27008KT 10SM CLR 07/04 A2987  1120 86 400 270/08 RMK AO2 SLP118 T00670044 TSNO
94908KDBQ DBQ20050514040010405/14/05 04:00:31  5-MIN KDBQ 141000Z AUTO 27008KT 10SM CLR 07/04 A2987  1120 86 400 270/08 RMK AO2 TSNO
94908KDBQ DBQ20050514040510405/14/05 04:05:31  5-MIN KDBQ 141005Z AUTO 27007KT 10SM CLR 06/04 A2988  1120 89 400 270/07 RMK AO2 TSNO
94908KDBQ DBQ20050514041010405/14/05 04:10:31  5-MIN KDBQ 141010Z AUTO 26007KT 10SM CLR 06/04 A2988  1120 89 400 260/07 RMK AO2 TSNO
94908KDBQ DBQ20050514041510405/14/05 04:15:31  5-MIN KDBQ 141015Z AUTO 26008KT 10SM CLR 06/04 A2987  1120 89 400 260/08 RMK AO2 TSNO
94908KDBQ DBQ20050514042010405/14/05 04:20:31  5-MIN KDBQ 141020Z AUTO 26007KT 10SM CLR 06/04 A2988  1120 89 400 260/07 RMK AO2 TSNO
94908KDBQ DBQ20050514042510405/14/05 04:25:31  5-MIN KDBQ 141025Z AUTO 26006KT 10SM CLR 06/04 A2988  1120 86 400 260/06 RMK AO2 TSNO
94908KDBQ DBQ20050514043010405/14/05 04:30:31  5-MIN KDBQ 141030Z AUTO 26007KT 10SM CLR 06/04 A2988  1110 86 400 260/07 RMK AO2 TSNO
94908KDBQ DBQ20050514043510405/14/05 04:35:31  5-MIN KDBQ 141035Z AUTO 26007KT 10SM CLR 06/04 A2988  1110 89 300 260/07 RMK AO2 TSNO
94908KDBQ DBQ20050514044010405/14/05 04:40:31  5-MIN KDBQ 141040Z AUTO 26007KT 10SM CLR 06/04 A2988  1120 86 400 260/07 RMK AO2 TSNO
94908KDBQ DBQ20050514044510405/14/05 04:45:31  5-MIN KDBQ 141045Z AUTO 27007KT 10SM CLR 06/04 A2988  1120 86 400 260/07 RMK AO2 TSNO
94908KDBQ DBQ20050514045011005/14/05 04:50:31  5-MIN KDBQ 141050Z 26007KT 10SM CLR 06/04 A2988 1110 86 400 260/07 RMK AO2 SLP121 T00610039
94908KDBQ DBQ20050514045511005/14/05 04:55:31  5-MIN KDBQ 141055Z 26007KT 10SM CLR 06/04 A2988 1110 86 300 260/07 RMK AO2 SLP121 T00610039
94908KDBQ DBQ20050514050009305/14/05 05:00:31  5-MIN KDBQ 141100Z 26007KT 10SM CLR 06/04 A2988 1110 86 300 260/07 RMK AO2
94908KDBQ DBQ20050514050509305/14/05 05:05:31  5-MIN KDBQ 141105Z 27007KT 10SM CLR 06/04 A2988 1110 89 300 270/07 RMK AO2
94908KDBQ DBQ20050514051009305/14/05 05:10:31  5-MIN KDBQ 141110Z 27007KT 10SM CLR 06/04 A2989 1110 89 300 270/07 RMK AO2
94908KDBQ DBQ20050514051509305/14/05 05:15:31  5-MIN KDBQ 141115Z 27007KT 10SM CLR 06/04 A2989 1110 89 300 270/07 RMK AO2
94908KDBQ DBQ20050514052009305/14/05 05:20:31  5-MIN KDBQ 141120Z 27008KT 10SM CLR 06/04 A2989 1100 89 300 270/08 RMK AO2
94908KDBQ DBQ20050514052509305/14/05 05:25:31  5-MIN KDBQ 141125Z 26006KT 10SM CLR 06/04 A2989 1110 89 300 260/06 RMK AO2
94908KDBQ DBQ20050514053009305/14/05 05:30:31  5-MIN KDBQ 141130Z 27008KT 10SM CLR 06/04 A2989 1110 89 300 260/08 RMK AO2
94908KDBQ DBQ20050514053509305/14/05 05:35:31  5-MIN KDBQ 141135Z 26008KT 10SM CLR 06/04 A2989 1110 89 300 260/08 RMK AO2
94908KDBQ DBQ20050514054009305/14/05 05:40:31  5-MIN KDBQ 141140Z 27008KT 10SM CLR 06/04 A2989 1110 89 300 270/08 RMK AO2
94908KDBQ DBQ20050514054509305/14/05 05:45:31  5-MIN KDBQ 141145Z 27008KT 10SM CLR 06/04 A2988 1120 89 400 270/08 RMK AO2
94908KDBQ DBQ20050514055013405/14/05 05:50:31  5-MIN KDBQ 141150Z 26008KT 10SM CLR 06/04 A2988 1120 89 400 260/08 RMK AO2 SLP120 70001 T00610044 10111 20056 56008
94908KDBQ DBQ20050514055513405/14/05 05:55:31  5-MIN KDBQ 141155Z 27009KT 10SM CLR 06/04 A2988 1120 89 400 270/09 RMK AO2 SLP119 70001 T00610044 10111 20056 50005
94908KDBQ DBQ20050514060009305/14/05 06:00:31  5-MIN KDBQ 141200Z 27009KT 10SM CLR 06/04 A2988 1120 89 400 270/09 RMK AO2
94908KDBQ DBQ20050514060509305/14/05 06:05:31  5-MIN KDBQ 141205Z 27008KT 10SM CLR 07/04 A2988 1120 86 400 270/08 RMK AO2
94908KDBQ DBQ20050514061009305/14/05 06:10:31  5-MIN KDBQ 141210Z 27009KT 10SM CLR 07/04 A2988 1120 86 400 270/09 RMK AO2
94908KDBQ DBQ20050514061509305/14/05 06:15:31  5-MIN KDBQ 141215Z 27009KT 10SM CLR 07/04 A2987 1120 82 500 270/09 RMK AO2
94908KDBQ DBQ20050514062009305/14/05 06:20:31  5-MIN KDBQ 141220Z 27009KT 10SM CLR 07/04 A2987 1120 82 500 260/09 RMK AO2
94908KDBQ DBQ20050514062509305/14/05 06:25:31  5-MIN KDBQ 141225Z 27009KT 10SM CLR 07/05 A2987 1120 86 500 270/09 RMK AO2
94908KDBQ DBQ20050514063009305/14/05 06:30:31  5-MIN KDBQ 141230Z 27010KT 10SM CLR 07/05 A2987 1130 86 500 270/10 RMK AO2
94908KDBQ DBQ20050514063509305/14/05 06:35:31  5-MIN KDBQ 141235Z 27010KT 10SM CLR 08/05 A2987 1130 82 600 270/10 RMK AO2
94908KDBQ DBQ20050514064009305/14/05 06:40:31  5-MIN KDBQ 141240Z 27010KT 10SM CLR 08/05 A2987 1130 82 600 270/10 RMK AO2
94908KDBQ DBQ20050514064509305/14/05 06:45:31  5-MIN KDBQ 141245Z 27010KT 10SM CLR 08/05 A2986 1130 82 600 270/10 RMK AO2
94908KDBQ DBQ20050514065011005/14/05 06:50:31  5-MIN KDBQ 141250Z 27010KT 10SM CLR 08/05 A2986 1130 79 600 270/10 RMK AO2 SLP114 T00830050
94908KDBQ DBQ20050514065511005/14/05 06:55:31  5-MIN KDBQ 141255Z 27009KT 10SM CLR 08/05 A2986 1130 79 600 270/09 RMK AO2 SLP113 T00830050
94908KDBQ DBQ20050514070009305/14/05 07:00:31  5-MIN KDBQ 141300Z 27009KT 10SM CLR 08/05 A2986 1130 79 600 270/09 RMK AO2
94908KDBQ DBQ20050514070509305/14/05 07:05:31  5-MIN KDBQ 141305Z 27009KT 10SM CLR 09/06 A2986 1130 79 700 270/09 RMK AO2
94908KDBQ DBQ20050514071009305/14/05 07:10:31  5-MIN KDBQ 141310Z 27008KT 10SM CLR 09/05 A2986 1130 76 700 270/08 RMK AO2
94908KDBQ DBQ20050514071509305/14/05 07:15:31  5-MIN KDBQ 141315Z 29011KT 10SM CLR 09/05 A2987 1120 76 700 290/11 RMK AO2
94908KDBQ DBQ20050514072009305/14/05 07:20:31  5-MIN KDBQ 141320Z 28011KT 10SM CLR 09/05 A2988 1120 74 800 280/11 RMK AO2
94908KDBQ DBQ20050514072509305/14/05 07:25:31  5-MIN KDBQ 141325Z 28013KT 10SM CLR 09/05 A2988 1120 74 800 280/13 RMK AO2
94908KDBQ DBQ20050514073009305/14/05 07:30:31  5-MIN KDBQ 141330Z 29009KT 10SM CLR 09/05 A2988 1120 74 800 280/09 RMK AO2
94908KDBQ DBQ20050514073509305/14/05 07:35:31  5-MIN KDBQ 141335Z 28011KT 10SM CLR 09/05 A2987 1120 74 800 280/11 RMK AO2
94908KDBQ DBQ20050514074009305/14/05 07:40:31  5-MIN KDBQ 141340Z 29011KT 10SM CLR 10/05 A2987 1120 71 800 290/11 RMK AO2
94908KDBQ DBQ20050514074509305/14/05 07:45:31  5-MIN KDBQ 141345Z 29010KT 10SM CLR 10/05 A2987 1120 71 800 290/10 RMK AO2
94908KDBQ DBQ20050514075011005/14/05 07:50:31  5-MIN KDBQ 141350Z 27010KT 10SM CLR 10/06 A2987 1130 74 800 270/10 RMK AO2 SLP115 T01000056
94908KDBQ DBQ20050514075511005/14/05 07:55:31  5-MIN KDBQ 141355Z 27008KT 10SM CLR 10/05 A2986 1130 71 800 270/08 RMK AO2 SLP113 T01000050
94908KDBQ DBQ20050514080009305/14/05 08:00:31  5-MIN KDBQ 141400Z 28009KT 10SM CLR 11/05 A2986 1130 68 900 280/09 RMK AO2
94908KDBQ DBQ20050514080509305/14/05 08:05:31  5-MIN KDBQ 141405Z 28009KT 10SM CLR 11/04 A2986 1140 66 900 270/09 RMK AO2
94908KDBQ DBQ20050514081009305/14/05 08:10:31  5-MIN KDBQ 141410Z 27009KT 10SM CLR 11/04 A2985 1140 66 900 270/09 RMK AO2
94908KDBQ DBQ20050514081509305/14/05 08:15:31  5-MIN KDBQ 141415Z 26011KT 10SM CLR 11/04 A2986 1140 66 900 260/11 RMK AO2
94908KDBQ DBQ20050514082009305/14/05 08:20:31  5-MIN KDBQ 141420Z 28012KT 10SM CLR 11/04 A2986 1130 66 900 280/12 RMK AO2
94908KDBQ DBQ20050514082509305/14/05 08:25:31  5-MIN KDBQ 141425Z 27012KT 10SM CLR 11/04 A2987 1130 66 900 270/12 RMK AO2
94908KDBQ DBQ20050514083009305/14/05 08:30:31  5-MIN KDBQ 141430Z 27013KT 10SM CLR 11/04 A2986 1130 63 900 270/13 RMK AO2
94908KDBQ DBQ20050514083509405/14/05 08:35:31  5-MIN KDBQ 141435Z 27014KT 10SM CLR 11/04 A2986 1130 61 1000 270/14 RMK AO2
94908KDBQ DBQ20050514084009405/14/05 08:40:31  5-MIN KDBQ 141440Z 28012KT 10SM CLR 11/04 A2986 1130 61 1000 280/12 RMK AO2
94908KDBQ DBQ20050514084509405/14/05 08:45:31  5-MIN KDBQ 141445Z 27012KT 10SM CLR 11/04 A2986 1140 63 1000 270/12 RMK AO2
94908KDBQ DBQ20050514085011705/14/05 08:50:31  5-MIN KDBQ 141450Z 26014KT 10SM CLR 11/04 A2986 1140 63 1000 260/14 RMK AO2 SLP113 T01110044 50005
94908KDBQ DBQ20050514085511705/14/05 08:55:31  5-MIN KDBQ 141455Z 26012KT 10SM CLR 12/04 A2985 1140 61 1100 260/12 RMK AO2 SLP110 T01170044 56009
94908KDBQ DBQ20050514090009405/14/05 09:00:31  5-MIN KDBQ 141500Z 26015KT 10SM CLR 12/04 A2985 1140 61 1100 260/15 RMK AO2
94908KDBQ DBQ20050514090509405/14/05 09:05:31  5-MIN KDBQ 141505Z 25015KT 10SM CLR 12/04 A2985 1140 61 1100 250/15 RMK AO2
94908KDBQ DBQ20050514091009405/14/05 09:10:31  5-MIN KDBQ 141510Z 25014KT 10SM CLR 12/04 A2985 1140 61 1100 250/14 RMK AO2
94908KDBQ DBQ20050514091509405/14/05 09:15:31  5-MIN KDBQ 141515Z 26014KT 10SM CLR 12/04 A2985 1150 61 1100 260/14 RMK AO2
94908KDBQ DBQ20050514092010005/14/05 09:20:31  5-MIN KDBQ 141520Z 26015G18KT 10SM CLR 12/04 A2984 1150 59 1100 260/15G18 RMK AO2
94908KDBQ DBQ20050514092510405/14/05 09:25:31  5-MIN KDBQ 141525Z 25014G18KT 10SM FEW100 12/04 A2985  1150 56 1100 250/14G18 RMK AO2
94908KDBQ DBQ20050514093009705/14/05 09:30:31  5-MIN KDBQ 141530Z 26014KT 10SM FEW100 12/04 A2984 1150 59 1100 260/14 RMK AO2
94908KDBQ DBQ20050514093509705/14/05 09:35:31  5-MIN KDBQ 141535Z 27014KT 10SM SCT100 12/05 A2985 1140 61 1100 270/14 RMK AO2
94908KDBQ DBQ20050514094010405/14/05 09:40:31  5-MIN KDBQ 141540Z 26015G21KT 10SM SCT100 12/05 A2985  1150 61 1100 260/15G21 RMK AO2
94908KDBQ DBQ20050514094510405/14/05 09:45:31  5-MIN KDBQ 141545Z 28015G21KT 10SM SCT100 12/05 A2984  1150 61 1100 280/15G21 RMK AO2
94908KDBQ DBQ20050514095011405/14/05 09:50:31  5-MIN KDBQ 141550Z 25013KT 10SM SCT100 13/06 A2984 1150 61 1200 250/13 RMK AO2 SLP106 T01280056
94908KDBQ DBQ20050514095512105/14/05 09:55:31  5-MIN KDBQ 141555Z 25015G19KT 10SM FEW100 13/06 A2984  1150 61 1200 250/15G19 RMK AO2 SLP106 T01280056
94908KDBQ DBQ20050514100010405/14/05 10:00:31  5-MIN KDBQ 141600Z 25013G19KT 10SM FEW100 13/05 A2984  1150 59 1200 250/13G19 RMK AO2
94908KDBQ DBQ20050514100511105/14/05 10:05:31  5-MIN KDBQ 141605Z 26016G20KT 10SM FEW036 SCT100 13/06  A2984 1150 61 1200 260/16G20 RMK AO2
94908KDBQ DBQ20050514101011105/14/05 10:10:31  5-MIN KDBQ 141610Z 26015G20KT 10SM FEW036 SCT085 13/05  A2984 1160 59 1200 260/15G20 RMK AO2
94908KDBQ DBQ20050514101511705/14/05 10:15:31  5-MIN KDBQ 141615Z 26015G20KT 10SM FEW036 SCT065 SCT085 12/05 A2984 1150 61 1100 260/15G20 RMK AO2
94908KDBQ DBQ20050514102011205/14/05 10:20:31  5-MIN KDBQ 141620Z 26015KT 10SM FEW036 SCT065 BKN085  13/06 A2983 1160 61 1200 250/15 RMK AO2
94908KDBQ DBQ20050514102511705/14/05 10:25:31  5-MIN KDBQ 141625Z 25018G21KT 10SM SCT036 BKN070 BKN085 13/06 A2983 1160 61 1200 250/18G21 RMK AO2
94908KDBQ DBQ20050514103011105/14/05 10:30:31  5-MIN KDBQ 141630Z 27014G21KT 10SM FEW036 BKN070 14/07  A2983 1160 61 1300 270/14G21 RMK AO2
94908KDBQ DBQ20050514103510505/14/05 10:35:31  5-MIN KDBQ 141635Z 25014KT 10SM FEW036 BKN070 13/06  A2983 1160 59 1300 250/14 RMK AO2
94908KDBQ DBQ20050514104010505/14/05 10:40:31  5-MIN KDBQ 141640Z 25012KT 10SM FEW034 BKN070 13/06  A2983 1170 59 1300 250/12 RMK AO2
94908KDBQ DBQ20050514104510505/14/05 10:45:31  5-MIN KDBQ 141645Z 24013KT 10SM FEW034 BKN075 13/06  A2982 1170 59 1300 240/13 RMK AO2
94908KDBQ DBQ20050514105012205/14/05 10:50:31  5-MIN KDBQ 141650Z 25016KT 10SM FEW038 BKN075 14/06  A2982 1170 59 1300 250/16 RMK AO2 SLP101 T01390061
94908KDBQ DBQ20050514105512805/14/05 10:55:31  5-MIN KDBQ 141655Z 26016G23KT 10SM SCT038 BKN070 13/06  A2982 1170 59 1300 260/16G23 RMK AO2 SLP100 T01330056
94908KDBQ DBQ20050514110012905/14/05 11:00:31  5-MIN KDBQ 141700Z 24021G26KT 10SM SCT038 BKN070 13/06  A2982 1170 61 1200 240/21G26 RMK AO2 PK WND 24026/1700
94908KDBQ DBQ20050514110513505/14/05 11:05:31  5-MIN KDBQ 141705Z 26016G26KT 10SM SCT038 BKN044 BKN070 12/06 A2982 1170 63 1200 260/16G26 RMK AO2 PK WND 24026/1700
94908KDBQ DBQ20050514111012305/14/05 11:10:31  5-MIN KDBQ 141710Z 27017KT 10SM BKN040 OVC070 12/06  A2982 1170 63 1200 270/17 RMK AO2 PK WND 24026/1700
94908KDBQ DBQ20050514111512205/14/05 11:15:31  5-MIN KDBQ 141715Z 27018G21KT 10SM OVC038 12/06 A2983  1170 66 1100 260/18G21 RMK AO2 PK WND 24026/1700
94908KDBQ DBQ20050514112012305/14/05 11:20:31  5-MIN KDBQ 141720Z 27016KT 10SM BKN035 OVC044 12/06  A2983 1170 66 1100 270/16 RMK AO2 PK WND 24026/1700
94908KDBQ DBQ20050514112512305/14/05 11:25:31  5-MIN KDBQ 141725Z 27018KT 10SM BKN035 OVC044 12/06  A2983 1160 66 1100 270/18 RMK AO2 PK WND 24026/1700
94908KDBQ DBQ20050514113012905/14/05 11:30:31  5-MIN KDBQ 141730Z 27018G23KT 10SM BKN030 OVC037 11/06  A2983 1160 68 1000 270/18G23 RMK AO2 PK WND 24026/1700
94908KDBQ DBQ20050514113512905/14/05 11:35:31  5-MIN KDBQ 141735Z 27020G26KT 10SM BKN028 OVC037 11/06  A2983 1160 71 1000 270/20G26 RMK AO2 PK WND 28026/1733
94908KDBQ DBQ20050514114014405/14/05 11:40:31  5-MIN KDBQ 141740Z 28022G26KT 10SM -RA BKN024 OVC034  11/06 A2984 1150 74 900 280/22G26 RMK AO2 PK WND 27026/1740 RAB37 P0000
94908KDBQ DBQ20050514114514405/14/05 11:45:31  5-MIN KDBQ 141745Z 28021G28KT 10SM -RA BKN024 OVC032  10/06 A2985 1150 77 900 280/21G28 RMK AO2 PK WND 29028/1745 RAB37 P0000
94908KDBQ DBQ20050514115018405/14/05 11:50:31  5-MIN KDBQ 141750Z 28018G28KT 10SM SCT020 OVC028 10/06  A2984 1150 74 900 280/18G28 RMK AO2 PK WND 29028/1745 RAB37E49 SLP109 P0000 60000 T01000056 10139 20061 56009
94908KDBQ DBQ20050514115518605/14/05 11:55:31  5-MIN KDBQ 141755Z 28015KT 10SM FEW020 BKN027 OVC055  11/06 A2984 1150 74 900 280/15 RMK AO2 PK WND 29028/1745 RAB37E49 SLP107  P0000 60000 T01060061 10139 20061 55003
94908KDBQ DBQ20050514120011705/14/05 12:00:31  5-MIN KDBQ 141800Z 29018G22KT 10SM FEW020 BKN027 BKN055 12/07 A2984 1150 68 1100 280/18G22 RMK AO2
94908KDBQ DBQ20050514120513505/14/05 12:05:31  5-MIN KDBQ 141805Z 29019G28KT 10SM FEW020 BKN027 BKN050 12/06 A2984 1150 68 1100 290/19G28 RMK AO2 PK WND 29028/1803
94908KDBQ DBQ20050514121013505/14/05 12:10:31  5-MIN KDBQ 141810Z 29018G28KT 10SM FEW020 BKN027 BKN050 12/06 A2984 1150 66 1100 290/18G28 RMK AO2 PK WND 29028/1803
94908KDBQ DBQ20050514121513505/14/05 12:15:31  5-MIN KDBQ 141815Z 28019G25KT 10SM FEW020 BKN027 BKN050 13/06 A2984 1160 63 1200 280/19G25 RMK AO2 PK WND 29028/1803
94908KDBQ DBQ20050514122013505/14/05 12:20:31  5-MIN KDBQ 141820Z 28021G28KT 10SM FEW020 BKN027 BKN050 12/04 A2984 1150 61 1100 280/21G28 RMK AO2 PK WND 28028/1816
94908KDBQ DBQ20050514122513505/14/05 12:25:31  5-MIN KDBQ 141825Z 29022G28KT 10SM FEW020 BKN027 BKN050 12/04 A2984 1150 59 1100 280/22G28 RMK AO2 PK WND 28028/1816
94908KDBQ DBQ20050514123013505/14/05 12:30:31  5-MIN KDBQ 141830Z 28021G32KT 10SM FEW020 BKN027 BKN050 12/03 A2984 1150 56 1100 280/21G32 RMK AO2 PK WND 28032/1826
94908KDBQ DBQ20050514123513505/14/05 12:35:31  5-MIN KDBQ 141835Z 28018G32KT 10SM FEW020 BKN027 BKN050 12/04 A2984 1150 56 1100 280/18G32 RMK AO2 PK WND 28032/1826
94908KDBQ DBQ20050514124013505/14/05 12:40:31  5-MIN KDBQ 141840Z 28026G30KT 10SM FEW020 BKN027 BKN050 12/03 A2985 1150 52 1100 280/26G30 RMK AO2 PK WND 28032/1826
94908KDBQ DBQ20050514124513505/14/05 12:45:31  5-MIN KDBQ 141845Z 28027G30KT 10SM FEW020 BKN027 BKN050 12/02 A2985 1150 52 1100 280/27G30 RMK AO2 PK WND 28032/1826
94908KDBQ DBQ20050514125015305/14/05 12:50:31  5-MIN KDBQ 141850Z 29026G34KT 10SM FEW020 BKN027 BKN050 12/03 A2984 1150 54 1100 290/26G34 RMK AO2 PK WND 29034/1848 SLP108  T01220033
94908KDBQ DBQ20050514125514605/14/05 12:55:31  5-MIN KDBQ 141855Z 29023G34KT 10SM FEW043 BKN055 12/03  A2985 1140 54 1100 290/23G34 RMK AO2 PK WND 29034/1848 SLP110 T01220033
94908KDBQ DBQ20050514130013505/14/05 13:00:31  5-MIN KDBQ 141900Z 30028G35KT 10SM FEW037 SCT045 BKN055 12/03 A2985 1150 56 1100 300/28G35 RMK AO2 PK WND 30035/1900
94908KDBQ DBQ20050514130513505/14/05 13:05:31  5-MIN KDBQ 141905Z 29026G35KT 10SM FEW037 SCT045 BKN060 11/03 A2986 1130 58 1000 290/26G35 RMK AO2 PK WND 30035/1900
94908KDBQ DBQ20050514131012905/14/05 13:10:31  5-MIN KDBQ 141910Z 29024G30KT 10SM FEW035 BKN060 12/04  A2986 1130 58 1000 290/24G30 RMK AO2 PK WND 30035/1900
94908KDBQ DBQ20050514131512905/14/05 13:15:31  5-MIN KDBQ 141915Z 29026G34KT 10SM FEW035 BKN060 12/03  A2986 1130 54 1000 280/26G34 RMK AO2 PK WND 30035/1900
94908KDBQ DBQ20050514132012805/14/05 13:20:31  5-MIN KDBQ 141920Z 29022G34KT 10SM FEW036 BKN060 11/03  A2986 1130 58 900 290/22G34 RMK AO2 PK WND 30035/1900
94908KDBQ DBQ20050514132512805/14/05 13:25:31  5-MIN KDBQ 141925Z 29023G31KT 10SM FEW036 BKN060 11/02  A2987 1120 56 900 290/23G31 RMK AO2 PK WND 30035/1900
94908KDBQ DBQ20050514133012805/14/05 13:30:31  5-MIN KDBQ 141930Z 29022G28KT 10SM FEW044 BKN060 11/02  A2987 1120 56 900 290/22G28 RMK AO2 PK WND 30035/1900
94908KDBQ DBQ20050514133512805/14/05 13:35:31  5-MIN KDBQ 141935Z 29020G29KT 10SM FEW044 BKN060 11/02  A2987 1120 56 900 290/20G29 RMK AO2 PK WND 30035/1900
94908KDBQ DBQ20050514134012805/14/05 13:40:31  5-MIN KDBQ 141940Z 28018G29KT 10SM FEW043 OVC055 11/03  A2988 1120 58 900 280/18G29 RMK AO2 PK WND 30035/1900
94908KDBQ DBQ20050514134512805/14/05 13:45:31  5-MIN KDBQ 141945Z 30022G27KT 10SM FEW043 OVC055 10/03  A2986 1130 60 800 290/22G27 RMK AO2 PK WND 30035/1900
94908KDBQ DBQ20050514135014505/14/05 13:50:31  5-MIN KDBQ 141950Z 28016G27KT 10SM SCT047 OVC055 10/03  A2988 1120 60 800 280/16G27 RMK AO2 PK WND 30035/1900 SLP121 T01000028
94908KDBQ DBQ20050514135515205/14/05 13:55:31  5-MIN KDBQ 141955Z 30020G24KT 10SM FEW033 BKN047 OVC055 09/03 A2988 1120 63 800 300/20G24 RMK AO2 PK WND 30035/1900 SLP121  T00940028
94908KDBQ DBQ20050514200012005/14/05 20:00:31  5-MIN KDBQ 150200Z AUTO 29016G20KT 10SM BKN035 OVC047  08/04 A2993 1070 76 600 290/16G20 RMK AO2 TSNO
94908KDBQ DBQ20050514200511305/14/05 20:05:31  5-MIN KDBQ 150205Z AUTO 29018KT 10SM BKN035 BKN047 08/04 A2993 1070 76 600 290/18 RMK AO2 TSNO
94908KDBQ DBQ20050514201010605/14/05 20:10:31  5-MIN KDBQ 150210Z AUTO 29014KT 10SM SCT035 08/04 A2993 1070 79 500 290/14 RMK AO2 TSNO
94908KDBQ DBQ20050514201511305/14/05 20:15:31  5-MIN KDBQ 150215Z AUTO 30014G21KT 10SM SCT033 08/04  A2993 1070 79 500 290/14G21 RMK AO2 TSNO
94908KDBQ DBQ20050514202011305/14/05 20:20:31  5-MIN KDBQ 150220Z AUTO 30013G21KT 10SM FEW035 08/04  A2993 1070 76 500 290/13G21 RMK AO2 TSNO
94908KDBQ DBQ20050514202510605/14/05 20:25:31  5-MIN KDBQ 150225Z AUTO 30014KT 10SM SCT032 08/04 A2993 1070 76 500 300/14 RMK AO2 TSNO
94908KDBQ DBQ20050514203010605/14/05 20:30:31  5-MIN KDBQ 150230Z AUTO 30013KT 10SM SCT032 08/04 A2994 1060 76 500 300/13 RMK AO2 TSNO
94908KDBQ DBQ20050514203510605/14/05 20:35:31  5-MIN KDBQ 150235Z AUTO 29011KT 10SM SCT032 07/04 A2994 1060 82 400 290/11 RMK AO2 TSNO
94908KDBQ DBQ20050514204010605/14/05 20:40:31  5-MIN KDBQ 150240Z AUTO 29011KT 10SM SCT030 07/04 A2994 1060 82 400 280/11 RMK AO2 TSNO
94908KDBQ DBQ20050514204510605/14/05 20:45:31  5-MIN KDBQ 150245Z AUTO 29013KT 10SM BKN030 08/04 A2994 1060 79 500 290/13 RMK AO2 TSNO
94908KDBQ DBQ20050514205013605/14/05 20:50:31  5-MIN KDBQ 150250Z AUTO 29013G18KT 10SM BKN030 08/04  A2994 1060 79 500 290/13G18 RMK AO2 SLP143 T00780044 51007 TSNO
94908KDBQ DBQ20050514205512905/14/05 20:55:31  5-MIN KDBQ 150255Z AUTO 30015KT 10SM BKN030 07/04 A2994 1060 82 400 300/15 RMK AO2 SLP142 T00720044 53009 TSNO
94908KDBQ DBQ20050514210011405/14/05 21:00:31  5-MIN KDBQ 150300Z AUTO 30014KT 10SM BKN030 07/04 A2994 1060 79 400 3Z AUTO 290114 RMK AO2 TSNO
94908KDBQ DBQ20050514210510605/14/05 21:05:31  5-MIN KDBQ 150305Z AUTO 29014KT 10SM BKN030 07/04 A2994 1060 79 400 290/14 RMK AO2 TSNO
94908KDBQ DBQ20050514211014505/14/05 21:10:31  5-MIN KDBQ 150310Z AUTO 29015KT 10SM BKN030 07/04 A2994 1060 79 400 290/15 4/05 /05 21:1510Z5Z AUTO 30013KT 10SM BKN032 0794 4
94908KDBQ DBQ20050514212507505/14/05 21:25:31  5-MIN KDBQ 150325Z AUTO 29013G19KT 10SM BKN080/14  1 004
94908KDBQ DBQ20050515035512305/15/05 03:55:31  5-MIN KDBQ 150955Z AUTO 30011KT 10SM OVC021 04/03 A2996 1040 89 100 300/11 RMK AO2 SLP152 T00440028 TSNO
94908KDBQ DBQ20050515040010605/15/05 04:00:31  5-MIN KDBQ 151000Z AUTO 30009KT 10SM BKN021 04/02 A2996 1040 85 100 300/09 RMK AO2 TSNO
94908KDBQ DBQ20050515040510405/15/05 04:05:31  5-MIN KDBQ 151005Z AUTO 30009KT 10SM BKN023 04/02 A2996 1040 89 0 300/09 RMK AO2 TSNO
94908KDBQ DBQ20050515041010405/15/05 04:10:31  5-MIN KDBQ 151010Z AUTO 31009KT 10SM BKN023 04/02 A2996 1040 89 0 300/09 RMK AO2 TSNO
94908KDBQ DBQ20050515041510405/15/05 04:15:31  5-MIN KDBQ 151015Z AUTO 31010KT 10SM SCT023 04/02 A2997 1040 89 0 310/10 RMK AO2 TSNO
94908KDBQ DBQ20050515042010405/15/05 04:20:31  5-MIN KDBQ 151020Z AUTO 31010KT 10SM FEW023 04/02 A2997 1040 89 0 310/10 RMK AO2 TSNO
94908KDBQ DBQ20050515042510405/15/05 04:25:31  5-MIN KDBQ 151025Z AUTO 31008KT 10SM FEW025 04/02 A2997 1030 89 0 310/08 RMK AO2 TSNO
94908KDBQ DBQ20050515043010405/15/05 04:30:31  5-MIN KDBQ 151030Z AUTO 31008KT 10SM FEW025 03/02 A2997 1030 92 0 310/08 RMK AO2 TSNO
94908KDBQ DBQ20050515043510205/15/05 04:35:31  5-MIN KDBQ 151035Z AUTO 31009KT 10SM CLR 03/02 A2997  1030 92 0 310/09 RMK AO2 TSNO
94908KDBQ DBQ20050515044010205/15/05 04:40:31  5-MIN KDBQ 151040Z AUTO 31009KT 10SM CLR 03/02 A2997  1030 89 0 310/09 RMK AO2 TSNO
94908KDBQ DBQ20050515044510205/15/05 04:45:31  5-MIN KDBQ 151045Z AUTO 31009KT 10SM CLR 03/02 A2997  1030 89 0 300/09 RMK AO2 TSNO
94908KDBQ DBQ20050515045011905/15/05 04:50:31  5-MIN KDBQ 151050Z AUTO 31010KT 10SM CLR 03/02 A2997  1030 89 0 310/10 RMK AO2 SLP157 T00330017 TSNO
94908KDBQ DBQ20050515045510805/15/05 04:55:31  5-MIN KDBQ 151055Z 31009KT 10SM CLR 03/02 A2998 1030 89 0 300/09 RMK AO2 SLP157 T00330017
94908KDBQ DBQ20050515050009105/15/05 05:00:31  5-MIN KDBQ 151100Z 30009KT 10SM CLR 03/02 A2998 1030 89 0 300/09 RMK AO2
94908KDBQ DBQ20050515050509105/15/05 05:05:31  5-MIN KDBQ 151105Z 31008KT 10SM CLR 03/02 A2998 1030 89 0 310/08 RMK AO2
94908KDBQ DBQ20050515051009105/15/05 05:10:31  5-MIN KDBQ 151110Z 31008KT 10SM CLR 03/02 A2998 1030 89 0 310/08 RMK AO2
94908KDBQ DBQ20050515051509405/15/05 05:15:31  5-MIN KDBQ 151115Z 30008KT 10SM CLR 03/02 A2998 1030 89 -100 300/08 RMK AO2
94908KDBQ DBQ20050515052009405/15/05 05:20:31  5-MIN KDBQ 151120Z 30008KT 10SM CLR 03/02 A2998 1020 92 -100 300/08 RMK AO2
94908KDBQ DBQ20050515052509105/15/05 05:25:31  5-MIN KDBQ 151125Z 30007KT 10SM CLR 04/02 A2998 1020 89 0 300/07 RMK AO2
94908KDBQ DBQ20050515053009105/15/05 05:30:31  5-MIN KDBQ 151130Z 31008KT 10SM CLR 04/02 A2998 1020 89 0 300/08 RMK AO2
94908KDBQ DBQ20050515053509105/15/05 05:35:31  5-MIN KDBQ 151135Z 31009KT 10SM CLR 04/02 A2999 1020 89 0 310/09 RMK AO2
94908KDBQ DBQ20050515054009105/15/05 05:40:31  5-MIN KDBQ 151140Z 30009KT 10SM CLR 04/02 A2999 1020 89 0 300/09 RMK AO2
94908KDBQ DBQ20050515054509105/15/05 05:45:31  5-MIN KDBQ 151145Z 31010KT 10SM CLR 04/02 A2999 1010 85 0 310/10 RMK AO2
94908KDBQ DBQ20050515055012605/15/05 05:50:31  5-MIN KDBQ 151150Z 31009KT 10SM CLR 04/03 A2999 1010 89 0 310/09 RMK AO2 SLP163 T00440028 10056 20033 53003
94908KDBQ DBQ20050515055512605/15/05 05:55:31  5-MIN KDBQ 151155Z 32009KT 10SM CLR 04/03 A3000 1010 89 0 310/09 RMK AO2 SLP164 T00440028 10056 20033 53015
94908KDBQ DBQ20050515060009305/15/05 06:00:31  5-MIN KDBQ 151200Z 32010KT 10SM CLR 05/03 A3000 1010 85 100 320/10 RMK AO2
94908KDBQ DBQ20050515060509305/15/05 06:05:31  5-MIN KDBQ 151205Z 32012KT 10SM CLR 05/03 A3000 1010 85 100 320/12 RMK AO2
94908KDBQ DBQ20050515061009305/15/05 06:10:31  5-MIN KDBQ 151210Z 31011KT 10SM CLR 05/03 A3000 1010 85 100 310/11 RMK AO2
94908KDBQ DBQ20050515061509305/15/05 06:15:31  5-MIN KDBQ 151215Z 32010KT 10SM CLR 05/03 A3000 1000 85 100 320/10 RMK AO2
94908KDBQ DBQ20050515062009305/15/05 06:20:31  5-MIN KDBQ 151220Z 31011KT 10SM CLR 06/03 A3000 1000 82 100 310/11 RMK AO2
94908KDBQ DBQ20050515062509305/15/05 06:25:31  5-MIN KDBQ 151225Z 31012KT 10SM CLR 06/03 A3000 1000 85 100 310/12 RMK AO2
94908KDBQ DBQ20050515063009305/15/05 06:30:31  5-MIN KDBQ 151230Z 31010KT 10SM CLR 06/03 A3000 1000 82 100 310/10 RMK AO2
94908KDBQ DBQ20050515063509305/15/05 06:35:31  5-MIN KDBQ 151235Z 32011KT 10SM CLR 06/03 A3001 1000 85 100 310/11 RMK AO2
94908KDBQ DBQ20050515064009605/15/05 06:40:31  5-MIN KDBQ 151240Z 32011KT 10SM FEW013 06/03 A3001 1000 85 100 320/11 RMK AO2
94908KDBQ DBQ20050515064509605/15/05 06:45:31  5-MIN KDBQ 151245Z 32010KT 10SM FEW013 06/03 A3001 1000 82 200 320/10 RMK AO2
94908KDBQ DBQ20050515065011305/15/05 06:50:31  5-MIN KDBQ 151250Z 32012KT 10SM FEW013 06/03 A3001 1000 82 200 320/12 RMK AO2 SLP167 T00610033
94908KDBQ DBQ20050515065511305/15/05 06:55:31  5-MIN KDBQ 151255Z 33013KT 10SM FEW013 07/03 A3001 1000 79 300 320/13 RMK AO2 SLP168 T00670033
94908KDBQ DBQ20050515070009605/15/05 07:00:31  5-MIN KDBQ 151300Z 33012KT 10SM FEW013 07/03 A3001 1000 79 300 320/12 RMK AO2
94908KDBQ DBQ20050515070509605/15/05 07:05:31  5-MIN KDBQ 151305Z 32012KT 10SM SCT013 07/03 A3001 990  79 300 320/12 RMK AO2
94908KDBQ DBQ20050515071009605/15/05 07:10:31  5-MIN KDBQ 151310Z 32013KT 10SM FEW013 07/03 A3001 990  79 300 320/13 RMK AO2
94908KDBQ DBQ20050515071509605/15/05 07:15:31  5-MIN KDBQ 151315Z 32010KT 10SM FEW013 07/03 A3002 990  76 300 320/10 RMK AO2
94908KDBQ DBQ20050515072009605/15/05 07:20:31  5-MIN KDBQ 151320Z 33012KT 10SM FEW013 07/03 A3002 990  79 300 330/12 RMK AO2
94908KDBQ DBQ20050515072509605/15/05 07:25:31  5-MIN KDBQ 151325Z 32012KT 10SM FEW013 07/03 A3002 990  76 300 320/12 RMK AO2
94908KDBQ DBQ20050515073009605/15/05 07:30:31  5-MIN KDBQ 151330Z 32012KT 10SM FEW013 07/03 A3002 990  76 300 320/12 RMK AO2
94908KDBQ DBQ20050515073509605/15/05 07:35:31  5-MIN KDBQ 151335Z 32012KT 10SM FEW017 07/03 A3002 990  76 300 320/12 RMK AO2
94908KDBQ DBQ20050515074009605/15/05 07:40:31  5-MIN KDBQ 151340Z 32012KT 10SM FEW017 07/03 A3002 990  73 300 320/12 RMK AO2
94908KDBQ DBQ20050515074510305/15/05 07:45:31  5-MIN KDBQ 151345Z 32013KT 10SM FEW017 SCT040 08/03  A3002 990 73 400 320/13 RMK AO2
94908KDBQ DBQ20050515075012005/15/05 07:50:31  5-MIN KDBQ 151350Z 32011KT 10SM FEW017 SCT040 08/03  A3002 990 73 400 320/11 RMK AO2 SLP171 T00780033
94908KDBQ DBQ20050515075512005/15/05 07:55:31  5-MIN KDBQ 151355Z 33011KT 10SM FEW017 BKN040 08/03  A3002 990 70 400 330/11 RMK AO2 SLP171 T00780028
94908KDBQ DBQ20050515080010305/15/05 08:00:31  5-MIN KDBQ 151400Z 33010KT 10SM FEW017 BKN040 08/03  A3002 990 73 400 330/10 RMK AO2
94908KDBQ DBQ20050515080510305/15/05 08:05:31  5-MIN KDBQ 151405Z 34013KT 10SM FEW020 BKN040 08/03  A3002 990 73 400 330/13 RMK AO2
94908KDBQ DBQ20050515081010305/15/05 08:10:31  5-MIN KDBQ 151410Z 34013KT 10SM FEW020 OVC040 08/03  A3002 990 73 400 340/13 RMK AO2
94908KDBQ DBQ20050515081510305/15/05 08:15:31  5-MIN KDBQ 151415Z 33010KT 10SM FEW020 OVC040 08/03  A3002 980 70 500 330/10 RMK AO2
94908KDBQ DBQ20050515082011005/15/05 08:20:31  5-MIN KDBQ 151420Z 35014KT 10SM SCT022 SCT029 OVC040  08/03 A3003 980 70 400 350/14 RMK AO2
94908KDBQ DBQ20050515082511005/15/05 08:25:31  5-MIN KDBQ 151425Z 34012KT 10SM FEW022 SCT029 OVC040  08/03 A3003 980 70 400 340/12 RMK AO2
94908KDBQ DBQ20050515083011005/15/05 08:30:31  5-MIN KDBQ 151430Z 34010KT 10SM FEW022 SCT030 OVC040  08/03 A3003 980 73 400 340/10 RMK AO2
94908KDBQ DBQ20050515083510305/15/05 08:35:31  5-MIN KDBQ 151435Z 34010KT 10SM SCT022 BKN040 08/03  A3003 980 73 400 340/10 RMK AO2
94908KDBQ DBQ20050515084010305/15/05 08:40:31  5-MIN KDBQ 151440Z 34012KT 10SM FEW022 BKN040 08/03  A3003 980 68 500 340/12 RMK AO2
94908KDBQ DBQ20050515084511005/15/05 08:45:31  5-MIN KDBQ 151445Z 33014KT 10SM FEW022 SCT029 BKN040  09/03 A3003 980 65 600 330/14 RMK AO2
94908KDBQ DBQ20050515085013305/15/05 08:50:31  5-MIN KDBQ 151450Z 34013KT 10SM FEW024 SCT029 BKN040  09/03 A3003 980 65 600 340/13 RMK AO2 SLP173 T00940033 53015
94908KDBQ DBQ20050515085512605/15/05 08:55:31  5-MIN KDBQ 151455Z 35011KT 10SM FEW026 BKN037 09/02  A3003 980 63 500 350/11 RMK AO2 SLP173 T00890022 51010
94908KDBQ DBQ20050515090010305/15/05 09:00:31  5-MIN KDBQ 151500Z 35011KT 10SM FEW026 BKN037 09/03  A3003 980 63 600 350/11 RMK AO2
94908KDBQ DBQ20050515090510305/15/05 09:05:31  5-MIN KDBQ 151505Z 35010KT 10SM FEW028 BKN037 09/02  A3003 980 63 500 350/10 RMK AO2
94908KDBQ DBQ20050515091010905/15/05 09:10:31  5-MIN KDBQ 151510Z 33014G18KT 10SM SCT028 BKN037 08/02  A3003 980 65 500 330/14G18 RMK AO2
94908KDBQ DBQ20050515091511005/15/05 09:15:31  5-MIN KDBQ 151515Z 32013KT 10SM SCT030 BKN038 BKN046  08/02 A3003 980 65 500 320/13 RMK AO2
94908KDBQ DBQ20050515092011505/15/05 09:20:31  5-MIN KDBQ 151520Z 34015G18KT 10SM FEW030 SCT038 BKN046 09/03 A3003 980 65 600 340/15G18 RMK AO2
94908KDBQ DBQ20050515092511505/15/05 09:25:31  5-MIN KDBQ 151525Z 33012G18KT 10SM FEW030 SCT038 BKN055 09/02 A3003 980 60 600 330/12G18 RMK AO2
94908KDBQ DBQ20050515093011005/15/05 09:30:31  5-MIN KDBQ 151530Z 33011KT 10SM FEW032 SCT038 OVC055  09/03 A3003 980 63 600 330/11 RMK AO2
94908KDBQ DBQ20050515093511005/15/05 09:35:31  5-MIN KDBQ 151535Z 31015KT 10SM FEW029 SCT039 OVC055  09/03 A3003 970 65 600 310/15 RMK AO2
94908KDBQ DBQ20050515094011005/15/05 09:40:31  5-MIN KDBQ 151540Z 31012KT 10SM FEW031 BKN048 OVC055  08/02 A3003 980 65 400 310/12 RMK AO2
94908KDBQ DBQ20050515094511005/15/05 09:45:31  5-MIN KDBQ 151545Z 33015KT 10SM FEW033 BKN048 OVC055  08/02 A3003 970 65 400 330/15 RMK AO2
94908KDBQ DBQ20050515095012705/15/05 09:50:31  5-MIN KDBQ 151550Z 33012KT 10SM FEW031 SCT040 OVC050  08/02 A3004 970 65 400 330/12 RMK AO2 SLP177 T00830022
94908KDBQ DBQ20050515095512705/15/05 09:55:31  5-MIN KDBQ 151555Z 33011KT 10SM FEW033 BKN048 OVC055  09/03 A3004 970 65 500 330/11 RMK AO2 SLP178 T00890028
94908KDBQ DBQ20050515100011005/15/05 10:00:31  5-MIN KDBQ 151600Z 32012KT 10SM FEW033 BKN045 OVC055  09/03 A3004 970 65 600 320/12 RMK AO2
94908KDBQ DBQ20050515100511005/15/05 10:05:31  5-MIN KDBQ 151605Z 32011KT 10SM FEW033 BKN049 OVC055  09/03 A3004 970 63 600 320/11 RMK AO2
94908KDBQ DBQ20050515101011505/15/05 10:10:31  5-MIN KDBQ 151610Z 33014G21KT 10SM FEW029 BKN046 OVC055 08/02 A3004 970 65 400 330/14G21 RMK AO2
94908KDBQ DBQ20050515101511505/15/05 10:15:31  5-MIN KDBQ 151615Z 33014G21KT 10SM FEW029 BKN046 OVC055 08/02 A3003 980 65 400 330/14G21 RMK AO2
94908KDBQ DBQ20050515102011005/15/05 10:20:31  5-MIN KDBQ 151620Z 33012KT 10SM FEW029 BKN035 OVC055  08/02 A3003 970 65 400 330/12 RMK AO2
94908KDBQ DBQ20050515102511005/15/05 10:25:31  5-MIN KDBQ 151625Z 32013KT 10SM FEW029 BKN035 OVC055  08/02 A3003 980 65 400 320/13 RMK AO2
94908KDBQ DBQ20050515103011005/15/05 10:30:31  5-MIN KDBQ 151630Z 32013KT 10SM FEW029 BKN035 OVC049  08/02 A3003 980 65 400 320/13 RMK AO2
94908KDBQ DBQ20050515103511005/15/05 10:35:31  5-MIN KDBQ 151635Z 33011KT 10SM FEW029 BKN035 OVC050  09/03 A3003 980 63 600 330/11 RMK AO2
94908KDBQ DBQ20050515104011005/15/05 10:40:31  5-MIN KDBQ 151640Z 31011KT 10SM SCT035 BKN045 OVC050  09/03 A3003 970 63 600 310/11 RMK AO2
94908KDBQ DBQ20050515104510305/15/05 10:45:31  5-MIN KDBQ 151645Z 32012KT 10SM SCT035 OVC050 09/03  A3003 970 65 600 320/12 RMK AO2
94908KDBQ DBQ20050515105012705/15/05 10:50:31  5-MIN KDBQ 151650Z 31015KT 10SM FEW029 BKN035 OVC050  09/02 A3003 970 63 500 310/15 RMK AO2 SLP177 T00890022
94908KDBQ DBQ20050515105512705/15/05 10:55:31  5-MIN KDBQ 151655Z 31013KT 10SM FEW029 BKN037 OVC050  08/02 A3003 970 65 400 310/13 RMK AO2 SLP177 T00830022
94908KDBQ DBQ20050515110011005/15/05 11:00:31  5-MIN KDBQ 151700Z 32013KT 10SM FEW029 BKN037 OVC050  08/02 A3003 970 65 400 310/13 RMK AO2
94908KDBQ DBQ20050515110511005/15/05 11:05:31  5-MIN KDBQ 151705Z 30010KT 10SM FEW029 BKN037 OVC050  09/03 A3004 970 63 600 300/10 RMK AO2
94908KDBQ DBQ20050515111011005/15/05 11:10:31  5-MIN KDBQ 151710Z 31010KT 10SM FEW029 SCT037 OVC050  09/03 A3004 970 65 600 310/10 RMK AO2
94908KDBQ DBQ20050515111510305/15/05 11:15:31  5-MIN KDBQ 151715Z 30012KT 10SM SCT037 OVC050 09/03  A3003 970 63 600 300/12 RMK AO2
94908KDBQ DBQ20050515112010305/15/05 11:20:31  5-MIN KDBQ 151720Z 30014KT 10SM FEW037 OVC050 09/03  A3003 970 63 600 300/14 RMK AO2
94908KDBQ DBQ20050515112510305/15/05 11:25:31  5-MIN KDBQ 151725Z 29011KT 10SM FEW037 OVC050 09/03  A3003 970 63 600 290/11 RMK AO2
94908KDBQ DBQ20050515113010305/15/05 11:30:31  5-MIN KDBQ 151730Z 31012KT 10SM SCT036 OVC050 09/02  A3003 980 63 500 310/12 RMK AO2
94908KDBQ DBQ20050515113510305/15/05 11:35:31  5-MIN KDBQ 151735Z 32010KT 10SM SCT038 OVC048 09/02  A3003 980 60 600 320/10 RMK AO2
94908KDBQ DBQ20050515114011005/15/05 11:40:31  5-MIN KDBQ 151740Z 30014KT 10SM FEW033 BKN046 OVC050  10/03 A3003 980 60 600 300/14 RMK AO2
94908KDBQ DBQ20050515114511005/15/05 11:45:31  5-MIN KDBQ 151745Z 30013KT 10SM FEW033 SCT042 OVC050  10/03 A3003 980 60 600 300/13 RMK AO2
94908KDBQ DBQ20050515115014405/15/05 11:50:31  5-MIN KDBQ 151750Z 30013G17KT 10SM SCT036 OVC050 10/03  A3003 980 60 700 300/13G17 RMK AO2 SLP175 T01000028 10100 20044 51010
94908KDBQ DBQ20050515115515005/15/05 11:55:31  5-MIN KDBQ 151755Z 31015G19KT 10SM SCT036 BKN045 OVC050 09/02 A3003 980 60 600 310/15G19 RMK AO2 SLP174 T00940022 10100 20044 50000
94908KDBQ DBQ20050515120010905/15/05 12:00:31  5-MIN KDBQ 151800Z 32013G19KT 10SM BKN038 OVC050 09/02  A3003 980 58 600 320/13G19 RMK AO2
94908KDBQ DBQ20050515120511005/15/05 12:05:31  5-MIN KDBQ 151805Z 31013KT 10SM BKN036 BKN045 OVC050  09/02 A3003 980 63 500 310/13 RMK AO2
94908KDBQ DBQ20050515121010305/15/05 12:10:31  5-MIN KDBQ 151810Z 30012KT 10SM BKN038 OVC050 09/02  A3003 980 60 600 300/12 RMK AO2
94908KDBQ DBQ20050515121510305/15/05 12:15:31  5-MIN KDBQ 151815Z 31012KT 10SM BKN038 OVC050 10/03  A3003 980 60 600 310/12 RMK AO2
94908KDBQ DBQ20050515122010305/15/05 12:20:31  5-MIN KDBQ 151820Z 31010KT 10SM SCT038 OVC050 10/02  A3003 980 58 700 310/10 RMK AO2
94908KDBQ DBQ20050515122510905/15/05 12:25:31  5-MIN KDBQ 151825Z 31015G20KT 10SM BKN038 OVC050 10/02  A3003 980 58 600 300/15G20 RMK AO2
94908KDBQ DBQ20050515123010905/15/05 12:30:31  5-MIN KDBQ 151830Z 30016G20KT 10SM BKN038 OVC050 09/02  A3003 970 58 600 300/16G20 RMK AO2
94908KDBQ DBQ20050515123510305/15/05 12:35:31  5-MIN KDBQ 151835Z 31014KT 10SM BKN038 OVC050 09/02  A3004 960 60 600 310/14 RMK AO2
94908KDBQ DBQ20050515124010305/15/05 12:40:31  5-MIN KDBQ 151840Z 31012KT 10SM BKN038 OVC050 09/02  A3004 970 60 600 310/12 RMK AO2
94908KDBQ DBQ20050515124510305/15/05 12:45:31  5-MIN KDBQ 151845Z 30011KT 10SM BKN038 OVC050 10/02  A3004 970 58 600 300/11 RMK AO2
94908KDBQ DBQ20050515125012005/15/05 12:50:31  5-MIN KDBQ 151850Z 31011KT 10SM BKN038 OVC050 10/03  A3004 970 60 600 310/11 RMK AO2 SLP179 T01000028
94908KDBQ DBQ20050515125512605/15/05 12:55:31  5-MIN KDBQ 151855Z 31013G18KT 10SM BKN038 OVC050 10/02  A3004 960 58 600 310/13G18 RMK AO2 SLP180 T01000022
94908KDBQ DBQ20050515130010905/15/05 13:00:31  5-MIN KDBQ 151900Z 31011G18KT 10SM SCT040 OVC050 11/02  A3004 970 56 700 310/11G18 RMK AO2
94908KDBQ DBQ20050515130510305/15/05 13:05:31  5-MIN KDBQ 151905Z 31013KT 10SM FEW041 OVC050 11/02  A3004 970 56 700 310/13 RMK AO2
94908KDBQ DBQ20050515131010305/15/05 13:10:31  5-MIN KDBQ 151910Z 31014KT 10SM SCT041 OVC050 10/02  A3004 970 58 600 310/14 RMK AO2
94908KDBQ DBQ20050515131510305/15/05 13:15:31  5-MIN KDBQ 151915Z 32012KT 10SM BKN039 OVC050 10/02  A3004 970 58 600 320/12 RMK AO2
94908KDBQ DBQ20050515132010305/15/05 13:20:31  5-MIN KDBQ 151920Z 30013KT 10SM SCT039 OVC050 10/03  A3004 970 60 600 300/13 RMK AO2
94908KDBQ DBQ20050515132510305/15/05 13:25:31  5-MIN KDBQ 151925Z 31011KT 10SM SCT037 OVC050 10/02  A3003 970 58 600 310/11 RMK AO2
94908KDBQ DBQ20050515133010305/15/05 13:30:31  5-MIN KDBQ 151930Z 33012KT 10SM SCT037 OVC050 10/02  A3004 970 58 600 330/12 RMK AO2
94908KDBQ DBQ20050515133510305/15/05 13:35:31  5-MIN KDBQ 151935Z 33012KT 10SM SCT039 OVC050 10/02  A3004 970 58 600 330/12 RMK AO2
94908KDBQ DBQ20050515134010305/15/05 13:40:31  5-MIN KDBQ 151940Z 33013KT 10SM SCT039 OVC050 10/02  A3004 960 58 600 330/13 RMK AO2
94908KDBQ DBQ20050515134510305/15/05 13:45:31  5-MIN KDBQ 151945Z 31013KT 10SM FEW039 OVC050 10/02  A3004 970 56 600 310/13 RMK AO2
94908KDBQ DBQ20050515135012005/15/05 13:50:31  5-MIN KDBQ 151950Z 29013KT 10SM FEW037 OVC050 10/02  A3004 970 58 600 290/13 RMK AO2 SLP179 T01000022
94908KDBQ DBQ20050515135512005/15/05 13:55:31  5-MIN KDBQ 151955Z 29013KT 10SM SCT040 OVC050 10/02  A3004 960 58 600 290/13 RMK AO2 SLP180 T01000022
94908KDBQ DBQ20050515140010305/15/05 14:00:31  5-MIN KDBQ 152000Z 31013KT 10SM BKN040 OVC050 09/02  A3004 960 60 600 300/13 RMK AO2
94908KDBQ DBQ20050515140510305/15/05 14:05:31  5-MIN KDBQ 152005Z 32013KT 10SM BKN042 OVC050 09/02  A3005 960 58 600 310/13 RMK AO2
94908KDBQ DBQ20050515141010305/15/05 14:10:31  5-MIN KDBQ 152010Z 31014KT 10SM BKN042 OVC050 10/02  A3005 960 58 600 310/14 RMK AO2
94908KDBQ DBQ20050515141510305/15/05 14:15:31  5-MIN KDBQ 152015Z 31012KT 10SM SCT042 OVC050 10/02  A3005 960 58 600 310/12 RMK AO2
94908KDBQ DBQ20050515142010305/15/05 14:20:31  5-MIN KDBQ 152020Z 30015KT 10SM SCT040 OVC050 10/02  A3005 960 58 600 300/15 RMK AO2
94908KDBQ DBQ20050515142510305/15/05 14:25:31  5-MIN KDBQ 152025Z 31012KT 10SM FEW040 OVC050 11/02  A3005 960 56 700 300/12 RMK AO2
94908KDBQ DBQ20050515143010305/15/05 14:30:31  5-MIN KDBQ 152030Z 30015KT 10SM FEW040 OVC050 11/02  A3004 970 54 700 300/15 RMK AO2
94908KDBQ DBQ20050515143510305/15/05 14:35:31  5-MIN KDBQ 152035Z 30015KT 10SM FEW040 OVC050 11/02  A3004 970 56 700 300/15 RMK AO2
94908KDBQ DBQ20050515144010305/15/05 14:40:31  5-MIN KDBQ 152040Z 31014KT 10SM FEW040 OVC055 11/02  A3004 970 56 700 310/14 RMK AO2
94908KDBQ DBQ20050515144509605/15/05 14:45:31  5-MIN KDBQ 152045Z 31013KT 10SM OVC055 11/03 A3004 960  58 700 310/13 RMK AO2
94908KDBQ DBQ20050515145011905/15/05 14:50:31  5-MIN KDBQ 152050Z 31013KT 10SM OVC055 11/03 A3005 960  56 800 310/13 RMK AO2 SLP179 T01110028 50000
94908KDBQ DBQ20050515145511905/15/05 14:55:31  5-MIN KDBQ 152055Z 31016KT 10SM OVC055 11/03 A3004 960  58 700 310/16 RMK AO2 SLP179 T01060028 51005
94908KDBQ DBQ20050515150010305/15/05 15:00:31  5-MIN KDBQ 152100Z 30014KT 10SM SCT047 OVC055 11/02  A3005 960 56 700 300/14 RMK AO2
94908KDBQ DBQ20050515150509605/15/05 15:05:31  5-MIN KDBQ 152105Z 31013KT 10SM OVC050 11/03 A3005 960  58 700 310/13 RMK AO2
94908KDBQ DBQ20050515151009605/15/05 15:10:31  5-MIN KDBQ 152110Z 32012KT 10SM OVC050 11/03 A3005 960  58 700 320/12 RMK AO2
94908KDBQ DBQ20050515151509605/15/05 15:15:31  5-MIN KDBQ 152115Z 31012KT 10SM OVC050 12/03 A3005 960  56 800 310/12 RMK AO2
94908KDBQ DBQ20050515152010305/15/05 15:20:31  5-MIN KDBQ 152120Z 31014KT 10SM FEW041 BKN050 12/03  A3004 960 56 800 310/14 RMK AO2
94908KDBQ DBQ20050515152510905/15/05 15:25:31  5-MIN KDBQ 152125Z 30013G18KT 10SM FEW039 BKN050 11/02  A3004 960 56 700 300/13G18 RMK AO2
94908KDBQ DBQ20050515153010905/15/05 15:30:31  5-MIN KDBQ 152130Z 30014G20KT 10SM SCT039 BKN050 12/03  A3004 970 54 800 300/14G20 RMK AO2
94908KDBQ DBQ20050515153510305/15/05 15:35:31  5-MIN KDBQ 152135Z 31015KT 10SM SCT041 BKN050 12/03  A3004 970 54 800 310/15 RMK AO2
94908KDBQ DBQ20050515154010305/15/05 15:40:31  5-MIN KDBQ 152140Z 31015KT 10SM SCT041 BKN050 11/02  A3004 970 54 800 310/15 RMK AO2
94908KDBQ DBQ20050515154509605/15/05 15:45:31  5-MIN KDBQ 152145Z 31011KT 10SM SCT041 11/02 A3004 960  56 700 310/11 RMK AO2
94908KDBQ DBQ20050515155012005/15/05 15:50:31  5-MIN KDBQ 152150Z 30012KT 10SM FEW038 SCT046 10/02  A3005 960 58 600 300/12 RMK AO2 SLP181 T01000022
94908KDBQ DBQ20050515155511305/15/05 15:55:31  5-MIN KDBQ 152155Z 31010KT 10SM SCT040 10/02 A3005 960  58 600 300/10 RMK AO2 SLP182 T01000022
94908KDBQ DBQ20050515160010305/15/05 16:00:31  5-MIN KDBQ 152200Z 31013KT 10SM SCT040 BKN049 10/02  A3005 960 58 600 310/13 RMK AO2
94908KDBQ DBQ20050515160510305/15/05 16:05:31  5-MIN KDBQ 152205Z 31013KT 10SM SCT040 SCT049 10/02  A3005 960 58 600 310/13 RMK AO2
94908KDBQ DBQ20050515161010305/15/05 16:10:31  5-MIN KDBQ 152210Z 30014KT 10SM FEW040 BKN049 11/02  A3005 960 56 700 300/14 RMK AO2
94908KDBQ DBQ20050515161510305/15/05 16:15:31  5-MIN KDBQ 152215Z 30013KT 10SM FEW040 BKN049 11/03  A3005 960 58 700 290/13 RMK AO2
94908KDBQ DBQ20050515162010305/15/05 16:20:31  5-MIN KDBQ 152220Z 30013KT 10SM FEW040 BKN049 11/03  A3005 960 58 700 300/13 RMK AO2
94908KDBQ DBQ20050515162510305/15/05 16:25:31  5-MIN KDBQ 152225Z 30013KT 10SM FEW040 BKN049 11/03  A3005 960 58 700 300/13 RMK AO2
94908KDBQ DBQ20050515163009605/15/05 16:30:31  5-MIN KDBQ 152230Z 31014KT 10SM SCT049 09/02 A3005 960  60 600 310/14 RMK AO2
94908KDBQ DBQ20050515163509605/15/05 16:35:31  5-MIN KDBQ 152235Z 31012KT 10SM BKN047 09/02 A3005 960  58 600 310/12 RMK AO2
94908KDBQ DBQ20050515164009605/15/05 16:40:31  5-MIN KDBQ 152240Z 31012KT 10SM BKN047 09/02 A3005 960  60 600 310/12 RMK AO2
94908KDBQ DBQ20050515164509605/15/05 16:45:31  5-MIN KDBQ 152245Z 32012KT 10SM BKN047 09/02 A3005 960  60 600 320/12 RMK AO2
94908KDBQ DBQ20050515165011305/15/05 16:50:31  5-MIN KDBQ 152250Z 33012KT 10SM SCT047 09/02 A3005 960  60 600 320/12 RMK AO2 SLP183 T00940022
94908KDBQ DBQ20050515165511305/15/05 16:55:31  5-MIN KDBQ 152255Z 31011KT 10SM BKN047 09/02 A3005 960  60 600 310/11 RMK AO2 SLP184 T00940022
94908KDBQ DBQ20050515170009605/15/05 17:00:31  5-MIN KDBQ 152300Z 32011KT 10SM BKN047 10/02 A3005 950  58 600 320/11 RMK AO2
94908KDBQ DBQ20050515170509605/15/05 17:05:31  5-MIN KDBQ 152305Z 31010KT 10SM BKN049 10/02 A3005 950  58 600 310/10 RMK AO2
94908KDBQ DBQ20050515171009605/15/05 17:10:31  5-MIN KDBQ 152310Z 31012KT 10SM BKN049 09/02 A3006 950  60 600 310/12 RMK AO2
94908KDBQ DBQ20050515171509605/15/05 17:15:31  5-MIN KDBQ 152315Z 31014KT 10SM BKN049 09/02 A3006 950  60 600 310/14 RMK AO2
94908KDBQ DBQ20050515172009605/15/05 17:20:31  5-MIN KDBQ 152320Z 32011KT 10SM OVC049 09/02 A3006 950  60 600 310/11 RMK AO2
94908KDBQ DBQ20050515172509605/15/05 17:25:31  5-MIN KDBQ 152325Z 30010KT 10SM OVC049 09/02 A3006 950  60 600 300/10 RMK AO2
94908KDBQ DBQ20050515173009605/15/05 17:30:31  5-MIN KDBQ 152330Z 31010KT 10SM BKN049 09/02 A3006 950  60 600 310/10 RMK AO2
94908KDBQ DBQ20050515173509605/15/05 17:35:31  5-MIN KDBQ 152335Z 31008KT 10SM BKN049 09/03 A3006 950  63 600 310/08 RMK AO2
94908KDBQ DBQ20050515174009605/15/05 17:40:31  5-MIN KDBQ 152340Z 31010KT 10SM OVC049 09/02 A3006 950  60 600 310/10 RMK AO2
94908KDBQ DBQ20050515174509605/15/05 17:45:31  5-MIN KDBQ 152345Z 32010KT 10SM BKN049 09/02 A3006 950  60 600 320/10 RMK AO2
94908KDBQ DBQ20050515175013105/15/05 17:50:31  5-MIN KDBQ 152350Z 32009KT 10SM BKN049 09/02 A3005 960  63 500 320/09 RMK AO2 SLP182 T00890022 10117 20089 51005
94908KDBQ DBQ20050515175513105/15/05 17:55:31  5-MIN KDBQ 152355Z 33008KT 10SM BKN049 09/02 A3006 950  63 500 330/08 RMK AO2 SLP185 T00890022 10117 20089 51004
94908KDBQ DBQ20050515180009605/15/05 18:00:31  5-MIN KDBQ 160000Z 32006KT 10SM OVC049 09/03 A3006 950  65 500 320/06 RMK AO2
94908KDBQ DBQ20050515180509605/15/05 18:05:31  5-MIN KDBQ 160005Z 32009KT 10SM OVC049 09/03 A3006 950  65 500 320/09 RMK AO2
94908KDBQ DBQ20050515181009605/15/05 18:10:31  5-MIN KDBQ 160010Z 31009KT 10SM OVC049 09/02 A3006 950  60 600 310/09 RMK AO2
94908KDBQ DBQ20050515181509605/15/05 18:15:31  5-MIN KDBQ 160015Z 31008KT 10SM OVC049 09/02 A3006 950  60 600 310/08 RMK AO2
94908KDBQ DBQ20050515182009605/15/05 18:20:31  5-MIN KDBQ 160020Z 31009KT 10SM OVC049 09/03 A3006 950  63 600 310/09 RMK AO2
94908KDBQ DBQ20050515182509605/15/05 18:25:31  5-MIN KDBQ 160025Z 32008KT 10SM OVC049 09/03 A3006 950  63 600 320/08 RMK AO2
94908KDBQ DBQ20050515183009605/15/05 18:30:31  5-MIN KDBQ 160030Z 31007KT 10SM BKN049 09/03 A3006 950  63 600 310/07 RMK AO2
94908KDBQ DBQ20050515183509605/15/05 18:35:31  5-MIN KDBQ 160035Z 31008KT 10SM BKN049 09/02 A3005 950  63 500 310/08 RMK AO2
94908KDBQ DBQ20050515184010505/15/05 18:40:31  5-MIN KDBQ 160040Z AUTO 30007KT 10SM SCT049 08/02 A3005 950 65 400 300/07 RMK AO2 TSNO
94908KDBQ DBQ20050515184510505/15/05 18:45:31  5-MIN KDBQ 160045Z AUTO 31008KT 10SM SCT049 08/03 A3005 950 70 400 300/08 RMK AO2 TSNO
94908KDBQ DBQ20050515185012205/15/05 18:50:31  5-MIN KDBQ 160050Z AUTO 31008KT 10SM FEW049 08/03 A3005 960 68 400 310/08 RMK AO2 SLP183 T00830028 TSNO
94908KDBQ DBQ20050515185511905/15/05 18:55:31  5-MIN KDBQ 160055Z AUTO 31007KT 10SM CLR 08/02 A3006 950 68 400 300/07 RMK AO2 SLP184 T00780022 TSNO
94908KDBQ DBQ20050515190010205/15/05 19:00:31  5-MIN KDBQ 160100Z AUTO 30006KT 10SM CLR 07/02 A3005 950 70 300 300/06 RMK AO2 TSNO
94908KDBQ DBQ20050515190510205/15/05 19:05:31  5-MIN KDBQ 160105Z AUTO 30005KT 10SM CLR 07/02 A3005 950 70 300 300/05 RMK AO2 TSNO
94908KDBQ DBQ20050515191010205/15/05 19:10:31  5-MIN KDBQ 160110Z AUTO 30006KT 10SM CLR 07/02 A3006 950 73 200 300/06 RMK AO2 TSNO
94908KDBQ DBQ20050515191510205/15/05 19:15:31  5-MIN KDBQ 160115Z AUTO 29006KT 10SM CLR 07/02 A3006 950 73 200 290/06 RMK AO2 TSNO
94908KDBQ DBQ20050515192010205/15/05 19:20:31  5-MIN KDBQ 160120Z AUTO 30007KT 10SM CLR 07/02 A3006 950 73 200 290/07 RMK AO2 TSNO
94908KDBQ DBQ20050515192510205/15/05 19:25:31  5-MIN KDBQ 160125Z AUTO 30006KT 10SM CLR 07/02 A3006 950 73 200 300/06 RMK AO2 TSNO
94908KDBQ DBQ20050515193010205/15/05 19:30:31  5-MIN KDBQ 160130Z AUTO 30006KT 10SM CLR 06/02 A3006 950 76 100 300/06 RMK AO2 TSNO
94908KDBQ DBQ20050515193510205/15/05 19:35:31  5-MIN KDBQ 160135Z AUTO 30007KT 10SM CLR 06/02 A3006 950 76 100 300/07 RMK AO2 TSNO
94908KDBQ DBQ20050515194010205/15/05 19:40:31  5-MIN KDBQ 160140Z AUTO 30006KT 10SM CLR 06/02 A3006 950 76 100 300/06 RMK AO2 TSNO
94908KDBQ DBQ20050515194510205/15/05 19:45:31  5-MIN KDBQ 160145Z AUTO 29007KT 10SM CLR 06/02 A3006 950 79 100 290/07 RMK AO2 TSNO
94908KDBQ DBQ20050515195011905/15/05 19:50:31  5-MIN KDBQ 160150Z AUTO 29006KT 10SM CLR 06/02 A3006 950 79 100 290/06 RMK AO2 SLP186 T00560022 TSNO
94908KDBQ DBQ20050515195511905/15/05 19:55:31  5-MIN KDBQ 160155Z AUTO 30006KT 10SM CLR 06/02 A3006 950 79 100 300/06 RMK AO2 SLP187 T00560022 TSNO
94908KDBQ DBQ20050515200010205/15/05 20:00:31  5-MIN KDBQ 160200Z AUTO 30006KT 10SM CLR 06/02 A3006 950 76 100 300/06 RMK AO2 TSNO
94908KDBQ DBQ20050515200510205/15/05 20:05:31  5-MIN KDBQ 160205Z AUTO 30006KT 10SM CLR 06/02 A3006 950 76 100 300/06 RMK AO2 TSNO
94908KDBQ DBQ20050515201010205/15/05 20:10:31  5-MIN KDBQ 160210Z AUTO 30006KT 10SM CLR 06/02 A3006 950 79 100 300/06 RMK AO2 TSNO
94908KDBQ DBQ20050515201510205/15/05 20:15:31  5-MIN KDBQ 160215Z AUTO 31005KT 10SM CLR 06/02 A3006 950 79 100 310/05 RMK AO2 TSNO
94908KDBQ DBQ20050515202010205/15/05 20:20:31  5-MIN KDBQ 160220Z AUTO 31005KT 10SM CLR 06/02 A3006 950 76 100 310/05 RMK AO2 TSNO
94908KDBQ DBQ20050515202510205/15/05 20:25:31  5-MIN KDBQ 160225Z AUTO 30006KT 10SM CLR 06/02 A3006 950 76 100 300/06 RMK AO2 TSNO
94908KDBQ DBQ20050515203010205/15/05 20:30:31  5-MIN KDBQ 160230Z AUTO 31006KT 10SM CLR 06/02 A3006 950 79 100 310/06 RMK AO2 TSNO
94908KDBQ DBQ20050515203510205/15/05 20:35:31  5-MIN KDBQ 160235Z AUTO 31006KT 10SM CLR 06/02 A3006 950 76 100 310/06 RMK AO2 TSNO
94908KDBQ DBQ20050515204010005/15/05 20:40:31  5-MIN KDBQ 160240Z AUTO 31006KT 10SM CLR 05/02 A3007 940 79 0 310/06 RMK AO2 TSNO
94908KDBQ DBQ20050515204510005/15/05 20:45:31  5-MIN KDBQ 160245Z AUTO 31005KT 10SM CLR 04/02 A3007 940 82 0 310/05 RMK AO2 TSNO
94908KDBQ DBQ20050515205012305/15/05 20:50:31  5-MIN KDBQ 160250Z AUTO 31006KT 10SM CLR 05/02 A3007 940 79 0 310/06 RMK AO2 SLP188 T00500017 51004 TSNO
94908KDBQ DBQ20050515205512305/15/05 20:55:31  5-MIN KDBQ 160255Z AUTO 31005KT 10SM CLR 05/02 A3007 940 79 0 310/05 RMK AO2 SLP188 T00500017 53003 TSNO
94908KDBQ DBQ20050515210010005/15/05 21:00:31  5-MIN KDBQ 160300Z AUTO 30004KT 10SM CLR 04/02 A3007 940 82 0 300/04 RMK AO2 TSNO
94908KDBQ DBQ20050515210510005/15/05 21:05:31  5-MIN KDBQ 160305Z AUTO 31004KT 10SM CLR 05/02 A3007 940 79 0 310/04 RMK AO2 TSNO
94908KDBQ DBQ20050515211010005/15/05 21:10:31  5-MIN KDBQ 160310Z AUTO 31005KT 10SM CLR 05/02 A3007 940 79 0 310/05 RMK AO2 TSNO
94908KDBQ DBQ20050515211510005/15/05 21:15:31  5-MIN KDBQ 160315Z AUTO 30004KT 10SM CLR 05/02 A3007 940 79 0 300/04 RMK AO2 TSNO
94908KDBQ DBQ20050515212010005/15/05 21:20:31  5-MIN KDBQ 160320Z AUTO 30004KT 10SM CLR 05/02 A3007 940 79 0 300/04 RMK AO2 TSNO
94908KDBQ DBQ20050515212510005/15/05 21:25:31  5-MIN KDBQ 160325Z AUTO 30004KT 10SM CLR 04/02 A3007 940 82 0 300/04 RMK AO2 TSNO
94908KDBQ DBQ20050515213010005/15/05 21:30:31  5-MIN KDBQ 160330Z AUTO 31004KT 10SM CLR 05/02 A3007 940 79 0 300/04 RMK AO2 TSNO
94908KDBQ DBQ20050515213510005/15/05 21:35:31  5-MIN KDBQ 160335Z AUTO 31005KT 10SM CLR 05/02 A3007 940 79 0 310/05 RMK AO2 TSNO
94908KDBQ DBQ20050515214010005/15/05 21:40:31  5-MIN KDBQ 160340Z AUTO 31004KT 10SM CLR 04/02 A3007 940 82 0 300/04 RMK AO2 TSNO
94908KDBQ DBQ20050515214510305/15/05 21:45:31  5-MIN KDBQ 160345Z AUTO 29004KT 10SM CLR 04/01 A3007 940 82 -100 290/04 RMK AO2 TSNO
94908KDBQ DBQ20050515215012005/15/05 21:50:31  5-MIN KDBQ 160350Z AUTO 00000KT 10SM CLR 04/01 A3008 940 82 -100 000/00 RMK AO2 SLP191 T00390011 TSNO
94908KDBQ DBQ20050515215511705/15/05 21:55:31  5-MIN KDBQ 160355Z AUTO 00000KT 10SM CLR 04/02 A3007 940 82 0 000/00 RMK AO2 SLP191 T00440017 TSNO
94908KDBQ DBQ20050515220010005/15/05 22:00:31  5-MIN KDBQ 160400Z AUTO 00000KT 10SM CLR 05/02 A3007 940 79 0 000/00 RMK AO2 TSNO
94908KDBQ DBQ20050515220510005/15/05 22:05:31  5-MIN KDBQ 160405Z AUTO 00000KT 10SM CLR 04/02 A3007 940 82 0 000/00 RMK AO2 TSNO
94908KDBQ DBQ20050515221010305/15/05 22:10:31  5-MIN KDBQ 160410Z AUTO 00000KT 10SM CLR 04/02 A3007 940 85 -100 000/00 RMK AO2 TSNO
94908KDBQ DBQ20050515221510305/15/05 22:15:31  5-MIN KDBQ 160415Z AUTO 00000KT 10SM CLR 04/02 A3007 940 85 -100 000/00 RMK AO2 TSNO
94908KDBQ DBQ20050515222010005/15/05 22:20:31  5-MIN KDBQ 160420Z AUTO 00000KT 10SM CLR 04/02 A3007 940 82 0 000/00 RMK AO2 TSNO
94908KDBQ DBQ20050515222510305/15/05 22:25:31  5-MIN KDBQ 160425Z AUTO 00000KT 10SM CLR 04/02 A3007 940 85 -100 000/00 RMK AO2 TSNO
94908KDBQ DBQ20050515223010305/15/05 22:30:31  5-MIN KDBQ 160430Z AUTO 00000KT 10SM CLR 03/01 A3007 940 85 -200 000/00 RMK AO2 TSNO
94908KDBQ DBQ20050515223510305/15/05 22:35:31  5-MIN KDBQ 160435Z AUTO 00000KT 10SM CLR 03/01 A3007 940 89 -200 000/00 RMK AO2 TSNO
94908KDBQ DBQ20050515224010305/15/05 22:40:31  5-MIN KDBQ 160440Z AUTO 00000KT 10SM CLR 03/01 A3007 940 85 -200 000/00 RMK AO2 TSNO
94908KDBQ DBQ20050515224510305/15/05 22:45:31  5-MIN KDBQ 160445Z AUTO 00000KT 10SM CLR 03/01 A3007 940 85 -200 000/00 RMK AO2 TSNO
94908KDBQ DBQ20050515225012005/15/05 22:50:31  5-MIN KDBQ 160450Z AUTO 00000KT 10SM CLR 03/02 A3008 940 89 -200 000/00 RMK AO2 SLP191 T00330017 TSNO
94908KDBQ DBQ20050515225512005/15/05 22:55:31  5-MIN KDBQ 160455Z AUTO 00000KT 10SM CLR 03/01 A3008 930 85 -200 000/00 RMK AO2 SLP192 T00330011 TSNO
94908KDBQ DBQ20050515230010305/15/05 23:00:31  5-MIN KDBQ 160500Z AUTO 00000KT 10SM CLR 04/01 A3008 930 82 -100 000/00 RMK AO2 TSNO
94908KDBQ DBQ20050515230510305/15/05 23:05:31  5-MIN KDBQ 160505Z AUTO 00000KT 10SM CLR 04/01 A3008 930 82 -100 000/00 RMK AO2 TSNO
94908KDBQ DBQ20050515231010305/15/05 23:10:31  5-MIN KDBQ 160510Z AUTO 00000KT 10SM CLR 03/01 A3007 940 85 -200 000/00 RMK AO2 TSNO
94908KDBQ DBQ20050515231510305/15/05 23:15:31  5-MIN KDBQ 160515Z AUTO 00000KT 10SM CLR 03/01 A3007 940 85 -200 000/00 RMK AO2 TSNO
94908KDBQ DBQ20050515232010305/15/05 23:20:31  5-MIN KDBQ 160520Z AUTO 00000KT 10SM CLR 03/01 A3007 940 85 -200 000/00 RMK AO2 TSNO
94908KDBQ DBQ20050515232510305/15/05 23:25:31  5-MIN KDBQ 160525Z AUTO 00000KT 10SM CLR 03/01 A3007 940 89 -200 000/00 RMK AO2 TSNO
94908KDBQ DBQ20050515233010305/15/05 23:30:31  5-MIN KDBQ 160530Z AUTO 00000KT 10SM CLR 03/01 A3008 940 89 -200 000/00 RMK AO2 TSNO
94908KDBQ DBQ20050515233510305/15/05 23:35:31  5-MIN KDBQ 160535Z AUTO 00000KT 10SM CLR 03/01 A3008 930 85 -200 000/00 RMK AO2 TSNO
94908KDBQ DBQ20050515234010305/15/05 23:40:31  5-MIN KDBQ 160540Z AUTO 00000KT 10SM CLR 03/01 A3008 930 85 -200 000/00 RMK AO2 TSNO
94908KDBQ DBQ20050515234510305/15/05 23:45:31  5-MIN KDBQ 160545Z AUTO 00000KT 10SM CLR 03/01 A3008 930 85 -200 000/00 RMK AO2 TSNO
94908KDBQ DBQ20050515235014805/15/05 23:50:31  5-MIN KDBQ 160550Z AUTO 00000KT 10SM CLR 03/01 A3007 940 89 -200 000/00 RMK AO2 SLP191 T00280011 10094 20028 401170028 53003 TSNO
94908KDBQ DBQ20050515235514805/15/05 23:55:31  5-MIN KDBQ 160555Z AUTO 00000KT 10SM CLR 03/01 A3007 940 85 -200 000/00 RMK AO2 SLP190 T00330011 10094 20028 401170028 50001 TSNO
94908KDBQ DBQ20050516000010305/16/05 00:00:38  5-MIN KDBQ 160600Z AUTO 00000KT 10SM CLR 03/01 A3007 940 89 -200 000/00 RMK AO2 TSNO
94908KDBQ DBQ20050516000511005/16/05 00:05:31  5-MIN KDBQ 160605Z AUTO 00000KT 10SM CLR 02/01 A3007 940 89 -300 000/00 RMK AO2 FZRANO TSNO
94908KDBQ DBQ20050516001011005/16/05 00:10:31  5-MIN KDBQ 160610Z AUTO 00000KT 10SM CLR 02/00 A3007 940 89 -400 000/00 RMK AO2 FZRANO TSNO
94908KDBQ DBQ20050516001511005/16/05 00:15:32  5-MIN KDBQ 160615Z AUTO 00000KT 10SM CLR 02/00 A3007 940 85 -300 000/00 RMK AO2 FZRANO TSNO
94908KDBQ DBQ20050516002010305/16/05 00:20:31  5-MIN KDBQ 160620Z AUTO 00000KT 10SM CLR 03/01 A3007 940 85 -200 000/00 RMK AO2 TSNO
94908KDBQ DBQ20050516002511005/16/05 00:25:31  5-MIN KDBQ 160625Z AUTO 00000KT 10SM CLR 02/01 A3007 940 89 -300 000/00 RMK AO2 FZRANO TSNO
94908KDBQ DBQ20050516003011005/16/05 00:30:31  5-MIN KDBQ 160630Z AUTO 00000KT 10SM CLR 02/01 A3007 940 89 -300 000/00 RMK AO2 FZRANO TSNO
94908KDBQ DBQ20050516003511005/16/05 00:35:31  5-MIN KDBQ 160635Z AUTO 00000KT 10SM CLR 02/00 A3007 940 89 -400 000/00 RMK AO2 FZRANO TSNO
94908KDBQ DBQ20050516004011005/16/05 00:40:31  5-MIN KDBQ 160640Z AUTO 00000KT 10SM CLR 02/00 A3007 940 89 -400 000/00 RMK AO2 FZRANO TSNO
94908KDBQ DBQ20050516004511005/16/05 00:45:31  5-MIN KDBQ 160645Z AUTO 00000KT 10SM CLR 02/00 A3007 940 89 -400 000/00 RMK AO2 FZRANO TSNO
94908KDBQ DBQ20050516005012605/16/05 00:50:31  5-MIN KDBQ 160650Z AUTO 00000KT 9SM CLR 02/00 A3007 940 89 -400 000/00 RMK AO2 SLP190 T00170000 FZRANO TSNO
94908KDBQ DBQ20050516005512705/16/05 00:55:31  5-MIN KDBQ 160655Z AUTO 00000KT 10SM CLR 02/01 A3007 940 92 -400 000/00 RMK AO2 SLP190 T00170006 FZRANO TSNO
94908KDBQ DBQ20050516010011005/16/05 01:00:31  5-MIN KDBQ 160700Z AUTO 00000KT 10SM CLR 02/01 A3007 940 92 -400 000/00 RMK AO2 FZRANO TSNO
94908KDBQ DBQ20050516010510905/16/05 01:05:31  5-MIN KDBQ 160705Z AUTO 00000KT 9SM CLR 02/01 A3007 940 89 -300 000/00 RMK AO2 FZRANO TSNO
94908KDBQ DBQ20050516011010905/16/05 01:10:31  5-MIN KDBQ 160710Z AUTO 00000KT 9SM CLR 02/01 A3007 940 89 -300 000/00 RMK AO2 FZRANO TSNO
94908KDBQ DBQ20050516011510905/16/05 01:15:31  5-MIN KDBQ 160715Z AUTO 00000KT 9SM CLR 02/01 A3007 940 89 -300 000/00 RMK AO2 FZRANO TSNO
94908KDBQ DBQ20050516012010905/16/05 01:20:31  5-MIN KDBQ 160720Z AUTO 00000KT 9SM CLR 02/00 A3007 940 89 -400 000/00 RMK AO2 FZRANO TSNO
94908KDBQ DBQ20050516012510905/16/05 01:25:31  5-MIN KDBQ 160725Z AUTO 00000KT 9SM CLR 02/01 A3007 940 89 -300 000/00 RMK AO2 FZRANO TSNO
94908KDBQ DBQ20050516013010905/16/05 01:30:31  5-MIN KDBQ 160730Z AUTO 00000KT 9SM CLR 02/01 A3007 940 89 -300 000/00 RMK AO2 FZRANO TSNO
94908KDBQ DBQ20050516013510905/16/05 01:35:31  5-MIN KDBQ 160735Z AUTO 00000KT 9SM CLR 02/01 A3007 940 89 -300 000/00 RMK AO2 FZRANO TSNO
94908KDBQ DBQ20050516014010905/16/05 01:40:31  5-MIN KDBQ 160740Z AUTO 00000KT 9SM CLR 02/01 A3007 940 89 -300 000/00 RMK AO2 FZRANO TSNO
94908KDBQ DBQ20050516014510905/16/05 01:45:31  5-MIN KDBQ 160745Z AUTO 00000KT 8SM CLR 02/01 A3007 940 92 -400 000/00 RMK AO2 FZRANO TSNO
94908KDBQ DBQ20050516015012605/16/05 01:50:31  5-MIN KDBQ 160750Z AUTO 00000KT 9SM CLR 02/00 A3007 940 89 -400 000/00 RMK AO2 SLP190 T00170000 FZRANO TSNO
94908KDBQ DBQ20050516015512605/16/05 01:55:31  5-MIN KDBQ 160755Z AUTO 00000KT 9SM CLR 02/00 A3007 940 89 -400 000/00 RMK AO2 SLP190 T00170000 FZRANO TSNO
94908KDBQ DBQ20050516020010905/16/05 02:00:31  5-MIN KDBQ 160800Z AUTO 00000KT 9SM CLR 02/00 A3007 940 89 -400 000/00 RMK AO2 FZRANO TSNO
94908KDBQ DBQ20050516020510905/16/05 02:05:31  5-MIN KDBQ 160805Z AUTO 00000KT 8SM CLR 02/00 A3007 940 89 -400 000/00 RMK AO2 FZRANO TSNO
94908KDBQ DBQ20050516021010905/16/05 02:10:31  5-MIN KDBQ 160810Z AUTO 21003KT 8SM CLR 02/01 A3008 940 92 -400 210/03 RMK AO2 FZRANO TSNO
94908KDBQ DBQ20050516021510905/16/05 02:15:31  5-MIN KDBQ 160815Z AUTO 21003KT 8SM CLR 01/00 A3008 930 92 -400 210/03 RMK AO2 FZRANO TSNO
94908KDBQ DBQ20050516022010905/16/05 02:20:31  5-MIN KDBQ 160820Z AUTO 21003KT 8SM CLR 02/00 A3008 940 89 -400 210/03 RMK AO2 FZRANO TSNO
94908KDBQ DBQ20050516022510905/16/05 02:25:31  5-MIN KDBQ 160825Z AUTO 20003KT 9SM CLR 02/00 A3008 930 89 -400 200/03 RMK AO2 FZRANO TSNO
94908KDBQ DBQ20050516023010905/16/05 02:30:31  5-MIN KDBQ 160830Z AUTO 21003KT 8SM CLR 02/00 A3008 930 89 -400 210/03 RMK AO2 FZRANO TSNO
94908KDBQ DBQ20050516023510905/16/05 02:35:31  5-MIN KDBQ 160835Z AUTO 21003KT 8SM CLR 02/00 A3008 930 89 -400 210/03 RMK AO2 FZRANO TSNO
94908KDBQ DBQ20050516024010905/16/05 02:40:31  5-MIN KDBQ 160840Z AUTO 21003KT 8SM CLR 01/00 A3008 930 92 -400 210/03 RMK AO2 FZRANO TSNO
94908KDBQ DBQ20050516024510905/16/05 02:45:31  5-MIN KDBQ 160845Z AUTO 22003KT 8SM CLR 01/00 A3008 930 92 -400 210/03 RMK AO2 FZRANO TSNO
94908KDBQ DBQ20050516025013205/16/05 02:50:31  5-MIN KDBQ 160850Z AUTO 00000KT 8SM CLR 01/00 A3008 930 92 -400 000/00 RMK AO2 SLP192 T00110000 50001 FZRANO TSNO
94908KDBQ DBQ20050516025513205/16/05 02:55:31  5-MIN KDBQ 160855Z AUTO 00000KT 7SM CLR 01/00 A3007 940 92 -400 000/00 RMK AO2 SLP191 T00110000 53001 FZRANO TSNO
94908KDBQ DBQ20050516030010905/16/05 03:00:31  5-MIN KDBQ 160900Z AUTO 00000KT 7SM CLR 01/00 A3008 930 92 -400 000/00 RMK AO2 FZRANO TSNO
94908KDBQ DBQ20050516030510905/16/05 03:05:31  5-MIN KDBQ 160905Z AUTO 00000KT 7SM CLR 02/00 A3008 930 89 -400 000/00 RMK AO2 FZRANO TSNO
94908KDBQ DBQ20050516031010905/16/05 03:10:31  5-MIN KDBQ 160910Z AUTO 19003KT 8SM CLR 02/00 A3008 940 89 -400 180/03 RMK AO2 FZRANO TSNO
94908KDBQ DBQ20050516031510905/16/05 03:15:31  5-MIN KDBQ 160915Z AUTO 20003KT 8SM CLR 02/00 A3008 940 89 -400 200/03 RMK AO2 FZRANO TSNO
94908KDBQ DBQ20050516032010905/16/05 03:20:31  5-MIN KDBQ 160920Z AUTO 00000KT 8SM CLR 02/00 A3008 930 89 -400 000/00 RMK AO2 FZRANO TSNO
94908KDBQ DBQ20050516032510905/16/05 03:25:31  5-MIN KDBQ 160925Z AUTO 00000KT 8SM CLR 01/00 A3008 930 92 -400 000/00 RMK AO2 FZRANO TSNO
94908KDBQ DBQ20050516033011005/16/05 03:30:31  5-MIN KDBQ 160930Z AUTO 00000KT 8SM CLR 01/M01 A3008 940 89 -400 000/00 RMK AO2 FZRANO TSNO
94908KDBQ DBQ20050516033511005/16/05 03:35:31  5-MIN KDBQ 160935Z AUTO 00000KT 8SM CLR 01/M01 A3007 940 92 -500 000/00 RMK AO2 FZRANO TSNO
94908KDBQ DBQ20050516034010905/16/05 03:40:31  5-MIN KDBQ 160940Z AUTO 00000KT 8SM CLR 01/00 A3007 940 92 -400 000/00 RMK AO2 FZRANO TSNO
94908KDBQ DBQ20050516034510905/16/05 03:45:31  5-MIN KDBQ 160945Z AUTO 00000KT 8SM CLR 02/00 A3008 940 89 -400 000/00 RMK AO2 FZRANO TSNO
94908KDBQ DBQ20050516035012605/16/05 03:50:31  5-MIN KDBQ 160950Z AUTO 00000KT 8SM CLR 02/00 A3008 930 89 -400 000/00 RMK AO2 SLP192 T00170000 FZRANO TSNO
94908KDBQ DBQ20050516035512605/16/05 03:55:31  5-MIN KDBQ 160955Z AUTO 00000KT 8SM CLR 02/00 A3008 930 89 -400 000/00 RMK AO2 SLP192 T00170000 FZRANO TSNO
94908KDBQ DBQ20050516040010905/16/05 04:00:31  5-MIN KDBQ 161000Z AUTO 00000KT 8SM CLR 01/00 A3008 940 92 -400 000/00 RMK AO2 FZRANO TSNO
94908KDBQ DBQ20050516040510905/16/05 04:05:31  5-MIN KDBQ 161005Z AUTO 00000KT 8SM CLR 02/00 A3007 940 89 -400 000/00 RMK AO2 FZRANO TSNO
94908KDBQ DBQ20050516041010905/16/05 04:10:31  5-MIN KDBQ 161010Z AUTO 00000KT 8SM CLR 02/00 A3007 940 89 -400 000/00 RMK AO2 FZRANO TSNO
94908KDBQ DBQ20050516041510905/16/05 04:15:31  5-MIN KDBQ 161015Z AUTO 00000KT 8SM CLR 02/00 A3007 940 89 -400 000/00 RMK AO2 FZRANO TSNO
94908KDBQ DBQ20050516042011005/16/05 04:20:31  5-MIN KDBQ 161020Z AUTO 00000KT 8SM CLR 01/M01 A3008 930 89 -400 000/00 RMK AO2 FZRANO TSNO
94908KDBQ DBQ20050516042511005/16/05 04:25:31  5-MIN KDBQ 161025Z AUTO 00000KT 8SM CLR 01/M01 A3008 930 89 -400 000/00 RMK AO2 FZRANO TSNO
94908KDBQ DBQ20050516043011005/16/05 04:30:31  5-MIN KDBQ 161030Z AUTO 00000KT 8SM CLR 01/M01 A3008 930 89 -400 000/00 RMK AO2 FZRANO TSNO
94908KDBQ DBQ20050516043511005/16/05 04:35:31  5-MIN KDBQ 161035Z AUTO 00000KT 8SM CLR 01/M01 A3008 930 92 -500 000/00 RMK AO2 FZRANO TSNO
94908KDBQ DBQ20050516044011005/16/05 04:40:31  5-MIN KDBQ 161040Z AUTO 00000KT 8SM CLR 01/M01 A3008 930 92 -500 000/00 RMK AO2 FZRANO TSNO
94908KDBQ DBQ20050516044511005/16/05 04:45:31  5-MIN KDBQ 161045Z AUTO 00000KT 7SM CLR 01/M01 A3008 930 92 -500 000/00 RMK AO2 FZRANO TSNO
94908KDBQ DBQ20050516045013005/16/05 04:50:31  5-MIN KDBQ 161050Z AUTO 00000KT 6SM BR CLR 01/M01 A3008 930 89 -400 000/00 RMK AO2 SLP194 T00111006 FZRANO TSNO
94908KDBQ DBQ20050516045511005/16/05 04:55:31  5-MIN KDBQ 161055Z 00000KT 7SM CLR 01/00 A3008 930 92  -400 000/00 RMK AO2 SLP194 T00110000
94908KDBQ DBQ20050516050009405/16/05 05:00:31  5-MIN KDBQ 161100Z 00000KT 8SM CLR 01/M01 A3008 930 89  -400 000/00 RMK AO2
94908KDBQ DBQ20050516050509305/16/05 05:05:31  5-MIN KDBQ 161105Z 00000KT 8SM CLR 01/00 A3008 930 92  -400 000/00 RMK AO2
94908KDBQ DBQ20050516051009305/16/05 05:10:31  5-MIN KDBQ 161110Z 00000KT 8SM CLR 01/00 A3008 930 92  -400 000/00 RMK AO2
94908KDBQ DBQ20050516051509405/16/05 05:15:31  5-MIN KDBQ 161115Z 00000KT 9SM CLR 02/M01 A3008 930 85  -400 000/00 RMK AO2
94908KDBQ DBQ20050516052009405/16/05 05:20:31  5-MIN KDBQ 161120Z 00000KT 10SM CLR 01/M01 A3009 920 89 -500 000/00 RMK AO2
94908KDBQ DBQ20050516052509405/16/05 05:25:31  5-MIN KDBQ 161125Z 00000KT 10SM CLR 01/M01 A3009 920 89 -500 000/00 RMK AO2
94908KDBQ DBQ20050516053009405/16/05 05:30:31  5-MIN KDBQ 161130Z 00000KT 10SM CLR 01/M01 A3009 920 89 -500 000/00 RMK AO2
94908KDBQ DBQ20050516053509405/16/05 05:35:31  5-MIN KDBQ 161135Z 00000KT 10SM CLR 02/M01 A3009 920 85 -400 000/00 RMK AO2
94908KDBQ DBQ20050516054009405/16/05 05:40:31  5-MIN KDBQ 161140Z 00000KT 10SM CLR 02/00 A3009 920 89  -400 000/00 RMK AO2
94908KDBQ DBQ20050516054509305/16/05 05:45:31  5-MIN KDBQ 161145Z 00000KT 9SM CLR 02/00 A3009 920 89  -400 000/00 RMK AO2
94908KDBQ DBQ20050516055012805/16/05 05:50:31  5-MIN KDBQ 161150Z 00000KT 9SM CLR 02/01 A3009 920 89  -300 000/00 RMK AO2 SLP197 T00220006 10033 20006 53001
94908KDBQ DBQ20050516055512805/16/05 05:55:31  5-MIN KDBQ 161155Z 00000KT 9SM CLR 02/00 A3009 920 85  -300 000/00 RMK AO2 SLP198 T00220000 10033 20006 53006
94908KDBQ DBQ20050516060009305/16/05 06:00:31  5-MIN KDBQ 161200Z 00000KT 9SM CLR 03/01 A3010 920 85  -300 000/00 RMK AO2
94908KDBQ DBQ20050516060509305/16/05 06:05:31  5-MIN KDBQ 161205Z 00000KT 8SM CLR 03/02 A3010 910 89  -200 000/00 RMK AO2
94908KDBQ DBQ20050516061009305/16/05 06:10:31  5-MIN KDBQ 161210Z 00000KT 8SM CLR 03/02 A3010 910 89  -200 000/00 RMK AO2
94908KDBQ DBQ20050516061509305/16/05 06:15:31  5-MIN KDBQ 161215Z 00000KT 8SM CLR 04/02 A3010 910 85  -100 000/00 RMK AO2
94908KDBQ DBQ20050516062009305/16/05 06:20:31  5-MIN KDBQ 161220Z 00000KT 8SM CLR 04/02 A3010 910 85  -100 000/00 RMK AO2
94908KDBQ DBQ20050516062509305/16/05 06:25:31  5-MIN KDBQ 161225Z 00000KT 9SM CLR 04/02 A3010 910 85  -100 000/00 RMK AO2
94908KDBQ DBQ20050516063008905/16/05 06:30:31  5-MIN KDBQ 161230Z 00000KT 9SM CLR 05/03 A3010 910 85 0 000/00 RMK AO2
94908KDBQ DBQ20050516063508905/16/05 06:35:31  5-MIN KDBQ 161235Z 00000KT 9SM CLR 05/03 A3011 910 85 0 000/00 RMK AO2
94908KDBQ DBQ20050516064009005/16/05 06:40:31  5-MIN KDBQ 161240Z 00000KT 10SM CLR 06/03 A3011 910 85 0 000/00 RMK AO2
94908KDBQ DBQ20050516064509305/16/05 06:45:31  5-MIN KDBQ 161245Z 00000KT 10SM CLR 06/03 A3011 910 82  100 000/00 RMK AO2
94908KDBQ DBQ20050516065011005/16/05 06:50:31  5-MIN KDBQ 161250Z 00000KT 10SM CLR 07/04 A3011 910 82  200 000/00 RMK AO2 SLP202 T00670039
94908KDBQ DBQ20050516065511005/16/05 06:55:31  5-MIN KDBQ 161255Z 00000KT 10SM CLR 07/04 A3011 900 86  200 000/00 RMK AO2 SLP202 T00670044
94908KDBQ DBQ20050516070009305/16/05 07:00:31  5-MIN KDBQ 161300Z 00000KT 10SM CLR 07/04 A3011 900 79  200 000/00 RMK AO2
94908KDBQ DBQ20050516070509305/16/05 07:05:31  5-MIN KDBQ 161305Z 00000KT 10SM CLR 08/04 A3011 900 79  300 000/00 RMK AO2
94908KDBQ DBQ20050516071009305/16/05 07:10:31  5-MIN KDBQ 161310Z 00000KT 10SM CLR 08/04 A3011 900 76  400 000/00 RMK AO2
94908KDBQ DBQ20050516071509305/16/05 07:15:31  5-MIN KDBQ 161315Z 00000KT 10SM CLR 08/04 A3011 900 76  400 000/00 RMK AO2
94908KDBQ DBQ20050516072009305/16/05 07:20:31  5-MIN KDBQ 161320Z 00000KT 10SM CLR 08/04 A3011 900 76  400 000/00 RMK AO2
94908KDBQ DBQ20050516072509305/16/05 07:25:31  5-MIN KDBQ 161325Z 00000KT 10SM CLR 09/04 A3011 900 73  400 000/00 RMK AO2
94908KDBQ DBQ20050516073009305/16/05 07:30:31  5-MIN KDBQ 161330Z 19004KT 10SM CLR 09/04 A3011 900 71  500 190/04 RMK AO2
94908KDBQ DBQ20050516073509305/16/05 07:35:31  5-MIN KDBQ 161335Z VRB03KT 10SM CLR 09/04 A3011 900 68  500 VRB/03 RMK AO2
94908KDBQ DBQ20050516074009305/16/05 07:40:31  5-MIN KDBQ 161340Z 16005KT 10SM CLR 09/03 A3011 900 65  500 160/05 RMK AO2
94908KDBQ DBQ20050516074509305/16/05 07:45:31  5-MIN KDBQ 161345Z 18004KT 10SM CLR 10/03 A3011 900 63  600 180/04 RMK AO2
94908KDBQ DBQ20050516075011005/16/05 07:50:31  5-MIN KDBQ 161350Z 19005KT 10SM CLR 10/04 A3011 900 65  600 190/05 RMK AO2 SLP203 T01000039
94908KDBQ DBQ20050516075511005/16/05 07:55:31  5-MIN KDBQ 161355Z 20005KT 10SM CLR 10/03 A3011 900 60  600 200/05 RMK AO2 SLP203 T01000028
94908KDBQ DBQ20050516080009305/16/05 08:00:31  5-MIN KDBQ 161400Z 20006KT 10SM CLR 10/03 A3011 900 60  600 200/06 RMK AO2
94908KDBQ DBQ20050516080509305/16/05 08:05:31  5-MIN KDBQ 161405Z 22006KT 10SM CLR 10/03 A3011 900 63  600 220/06 RMK AO2
94908KDBQ DBQ20050516081009305/16/05 08:10:31  5-MIN KDBQ 161410Z 19006KT 10SM CLR 11/03 A3011 900 61  600 190/06 RMK AO2
94908KDBQ DBQ20050516081509305/16/05 08:15:31  5-MIN KDBQ 161415Z 21007KT 10SM CLR 10/03 A3011 900 63  600 210/07 RMK AO2
94908KDBQ DBQ20050516082009305/16/05 08:20:31  5-MIN KDBQ 161420Z 22008KT 10SM CLR 10/03 A3011 900 63  600 220/08 RMK AO2
94908KDBQ DBQ20050516082509305/16/05 08:25:31  5-MIN KDBQ 161425Z 2 C05KT 10SM CLR 10/03 A3011 900 60  600 200/05 RMK AO2
94908KDBQ DBQ20050516083009305/16/05 08:30:31  5-MIN KDBQ 161430Z 19008KT 10SM CLR 11/03 A3012 900 61  600 190/08 RMK AO2
94908KDBQ DBQ20050516084009305/16/05 08:40:31  5-MIN KDBQ 161440Z 21006KT 10SM CLR 10/03 A3012 900 6 60600 210/06 RMK AO2
94908KDBQ DBQ20050516085011805/16/05 08:50:31  5-MIN KDBQ 161450Z 21009KT 10SM CLR 11/03 A3012 900 58 00 200 210/09 RMK AO2 SLP205 T01060028 53006
94908KDBQ DBQ20050516085511505/16/05 08:55:31  5-MIN KDBQ 161455Z 23007KT 10SM CLR 11/03 A3012 900 58 0600 230/07 RMK AO2 SLP205 T0160028 51007
94908KDBQ DBQ20050516090009305/16/05 09:00:31  5-MIN KDBQ 161500Z 25007KT 10SM CLR 11/03 A3011 900 58  600 240/07 RMK AO2
94908KDBQ DBQ20050516090509305/16/05 09:05:31  5-MIN KDBQ 161505Z VRB06KT 10SM CLR 11/03 A3011 900 58  700 VRB/06 RMK AO2
94908KDBQ DBQ20050516091009305/16/05 09:10:31  5-MIN KDBQ 161510Z 19006KT 10SM CLR 11/03 A3011 900 58 0700 190/06 RMK AO2
94908KDBQ DBQ20050516091507305/16/05 09:15:31  5-MIN KDBQ 161515Z 16005KT 10SM CLR 11/03 A3011 900 56
94908KDBQ DBQ20050516093009005/16/05 09:30:31  5-MIN KDBQ 161530Z 19007KT 16KT 10CLR 11/03 A3011 900 58 0700 190/07/06
94908KDBQ DBQ20050516175513805/16/05 17:55:31  5-MIN KDBQ 162355Z 13007KT 10SM BKN110 12/06 A2999 1010 66 1000 130/07 RMK AO2 SLP162 60000 T01220061 10133 20122 58012
94908KDBQ DBQ20050516180009705/16/05 18:00:31  5-MIN KDBQ 170000Z 14007KT 10SM BKN100 12/06 A2999 1010 66 1000 140/07 RMK AO2
94908KDBQ DBQ20050516180511205/16/05 18:05:31  5-MIN KDBQ 170005Z 13007KT 10SM FEW080 BKN100 BKN110  12/06 A2999 1010 66 1000 130/07 RMK AO2
94908KDBQ DBQ20050516181010405/16/05 18:10:31  5-MIN KDBQ 170010Z 13006KT 10SM FEW080 BKN100 12/06  A2999 1020 68 900 130/06 RMK AO2
94908KDBQ DBQ20050516181510405/16/05 18:15:31  5-MIN KDBQ 170015Z 13007KT 10SM FEW080 OVC100 12/07  A2998 1020 71 900 130/07 RMK AO2
94908KDBQ DBQ20050516182010405/16/05 18:20:31  5-MIN KDBQ 170020Z 13008KT 10SM FEW080 OVC100 12/06  A2998 1020 68 900 130/08 RMK AO2
94908KDBQ DBQ20050516182510405/16/05 18:25:31  5-MIN KDBQ 170025Z 12008KT 10SM FEW080 OVC100 12/06  A2998 1020 68 900 120/08 RMK AO2
94908KDBQ DBQ20050516183010405/16/05 18:30:31  5-MIN KDBQ 170030Z 12008KT 10SM FEW080 OVC100 12/07  A2998 1030 71 900 110/08 RMK AO2
94908KDBQ DBQ20050516183509605/16/05 18:35:31  5-MIN KDBQ 170035Z 13009KT 10SM OVC100 12/07 A2997 1030 71 900 120/09 RMK AO2
94908KDBQ DBQ20050516184009605/16/05 18:40:31  5-MIN KDBQ 170040Z 13010KT 10SM OVC110 12/06 A2997 1030 68 900 130/10 RMK AO2
94908KDBQ DBQ20050516184509605/16/05 18:45:31  5-MIN KDBQ 170045Z 12008KT 10SM OVC110 11/06 A2998 1030 71 800 120/08 RMK AO2
94908KDBQ DBQ20050516185012305/16/05 18:50:31  5-MIN KDBQ 170050Z AUTO 12006KT 10SM OVC110 11/06 A2998 1020 71 800 120/06 RMK AO2 SLP158 T01110061 TSNO
94908KDBQ DBQ20050516185512305/16/05 18:55:31  5-MIN KDBQ 170055Z AUTO 11004KT 10SM BKN110 11/06 A2999 1010 71 800 110/04 RMK AO2 SLP160 T01110061 TSNO
94908KDBQ DBQ20050516190010605/16/05 19:00:31  5-MIN KDBQ 170100Z AUTO 09005KT 10SM BKN110 11/06 A2999 1010 71 800 090/05 RMK AO2 TSNO
94908KDBQ DBQ20050516190510605/16/05 19:05:31  5-MIN KDBQ 170105Z AUTO 09005KT 10SM OVC110 11/06 A2999 1010 71 800 090/05 RMK AO2 TSNO
94908KDBQ DBQ20050516191010605/16/05 19:10:31  5-MIN KDBQ 170110Z AUTO 09004KT 10SM OVC110 11/07 A2999 1010 74 800 090/04 RMK AO2 TSNO
94908KDBQ DBQ20050516191510605/16/05 19:15:31  5-MIN KDBQ 170115Z AUTO 09005KT 10SM BKN110 11/07 A2999 1010 74 800 090/05 RMK AO2 TSNO
94908KDBQ DBQ20050516192010605/16/05 19:20:31  5-MIN KDBQ 170120Z AUTO 08004KT 10SM BKN110 11/07 A2999 1010 77 800 080/04 RMK AO2 TSNO
94908KDBQ DBQ20050516192510605/16/05 19:25:31  5-MIN KDBQ 170125Z AUTO 08005KT 10SM OVC110 11/06 A2999 1010 74 800 080/05 RMK AO2 TSNO
94908KDBQ DBQ20050516193010605/16/05 19:30:31  5-MIN KDBQ 170130Z AUTO 08004KT 10SM BKN110 11/06 A2999 1010 74 800 080/04 RMK AO2 TSNO
94908KDBQ DBQ20050516193510605/16/05 19:35:31  5-MIN KDBQ 170135Z AUTO 07004KT 10SM BKN110 11/06 A2999 1010 74 800 070/04 RMK AO2 TSNO
94908KDBQ DBQ20050516194010605/16/05 19:40:31  5-MIN KDBQ 170140Z AUTO 06004KT 10SM BKN110 11/07 A2999 1010 77 800 060/04 RMK AO2 TSNO
94908KDBQ DBQ20050516194510605/16/05 19:45:31  5-MIN KDBQ 170145Z AUTO 06003KT 10SM BKN120 11/06 A2999 1010 74 800 060/03 RMK AO2 TSNO
94908KDBQ DBQ20050516195012305/16/05 19:50:31  5-MIN KDBQ 170150Z AUTO 06004KT 10SM BKN120 11/06 A2999 1010 74 800 060/04 RMK AO2 SLP158 T01060061 TSNO
94908KDBQ DBQ20050516195512305/16/05 19:55:31  5-MIN KDBQ 170155Z AUTO 08005KT 10SM BKN120 11/06 A2999 1010 74 800 080/05 RMK AO2 SLP158 T01060061 TSNO
94908KDBQ DBQ20050516200010605/16/05 20:00:31  5-MIN KDBQ 170200Z AUTO 08005KT 10SM BKN120 10/06 A2999 1010 77 700 080/05 RMK AO2 TSNO
94908KDBQ DBQ20050516200510605/16/05 20:05:31  5-MIN KDBQ 170205Z AUTO 09005KT 10SM BKN120 10/06 A2999 1010 77 700 090/05 RMK AO2 TSNO
94908KDBQ DBQ20050516201010605/16/05 20:10:31  5-MIN KDBQ 170210Z AUTO 08005KT 10SM BKN120 10/06 A2999 1010 77 700 080/05 RMK AO2 TSNO
94908KDBQ DBQ20050516201510605/16/05 20:15:31  5-MIN KDBQ 170215Z AUTO 09004KT 10SM BKN120 10/06 A2999 1010 77 700 090/04 RMK AO2 TSNO
94908KDBQ DBQ20050516202010605/16/05 20:20:31  5-MIN KDBQ 170220Z AUTO 09004KT 10SM BKN120 10/06 A2999 1010 77 700 090/04 RMK AO2 TSNO
94908KDBQ DBQ20050516202510605/16/05 20:25:31  5-MIN KDBQ 170225Z AUTO 10004KT 10SM SCT120 10/06 A2999 1010 77 700 100/04 RMK AO2 TSNO
94908KDBQ DBQ20050516203010605/16/05 20:30:31  5-MIN KDBQ 170230Z AUTO 10005KT 10SM BKN120 10/06 A3000 1010 77 700 100/05 RMK AO2 TSNO
94908KDBQ DBQ20050516203510605/16/05 20:35:31  5-MIN KDBQ 170235Z AUTO 10004KT 10SM SCT120 10/06 A3000 1010 77 700 100/04 RMK AO2 TSNO
94908KDBQ DBQ20050516204010605/16/05 20:40:31  5-MIN KDBQ 170240Z AUTO 10005KT 10SM FEW120 10/06 A3000 1000 77 700 100/05 RMK AO2 TSNO
94908KDBQ DBQ20050516204510605/16/05 20:45:31  5-MIN KDBQ 170245Z AUTO 09005KT 10SM SCT120 10/06 A3000 1000 77 700 090/05 RMK AO2 TSNO
94908KDBQ DBQ20050516205012905/16/05 20:50:31  5-MIN KDBQ 170250Z AUTO 08004KT 10SM SCT120 09/06 A3000 1000 76 600 080/04 RMK AO2 SLP164 T00940056 58012 TSNO
94908KDBQ DBQ20050516205512905/16/05 20:55:31  5-MIN KDBQ 170255Z AUTO 08005KT 10SM FEW120 09/06 A3001 1000 76 600 080/05 RMK AO2 SLP165 T00940056 53004 TSNO
94908KDBQ DBQ20050516210010605/16/05 21:00:31  5-MIN KDBQ 170300Z AUTO 08005KT 10SM FEW120 09/06 A3001 1000 76 600 080/05 RMK AO2 TSNO
94908KDBQ DBQ20050516210510605/16/05 21:05:31  5-MIN KDBQ 170305Z AUTO 08005KT 10SM FEW120 09/06 A3001 1000 76 600 080/05 RMK AO2 TSNO
94908KDBQ DBQ20050516211010605/16/05 21:10:31  5-MIN KDBQ 170310Z AUTO 08005KT 10SM FEW120 09/06 A3000 1000 76 600 080/05 RMK AO2 TSNO
94908KDBQ DBQ20050516211510405/16/05 21:15:31  5-MIN KDBQ 170315Z AUTO 08004KT 10SM CLR 09/06 A3001  1000 76 600 080/04 RMK AO2 TSNO
94908KDBQ DBQ20050516212010405/16/05 21:20:31  5-MIN KDBQ 170320Z AUTO 08004KT 10SM CLR 09/05 A3001  1000 76 500 080/04 RMK AO2 TSNO
94908KDBQ DBQ20050516212510405/16/05 21:25:31  5-MIN KDBQ 170325Z AUTO 08005KT 10SM CLR 08/05 A3001  1000 79 500 080/05 RMK AO2 TSNO
94908KDBQ DBQ20050516213010405/16/05 21:30:31  5-MIN KDBQ 170330Z AUTO 09004KT 10SM CLR 08/05 A3001  1000 79 500 090/04 RMK AO2 TSNO
94908KDBQ DBQ20050516213510205/16/05 21:35:31  5-MIN KDBQ 170335Z AUTO 00000KT 9SM CLR 08/05 A3001 1000 79 500 000/00 RMK AO2 TSNO
94908KDBQ DBQ20050516214010205/16/05 21:40:31  5-MIN KDBQ 170340Z AUTO 00000KT 9SM CLR 08/05 A3001 1000 82 400 000/00 RMK AO2 TSNO
94908KDBQ DBQ20050516214510205/16/05 21:45:31  5-MIN KDBQ 170345Z AUTO 11003KT 9SM CLR 08/05 A3001 1000 82 400 100/03 RMK AO2 TSNO
94908KDBQ DBQ20050516215011905/16/05 21:50:31  5-MIN KDBQ 170350Z AUTO 11003KT 9SM CLR 08/05 A3001 1000 79 500 110/03 RMK AO2 SLP166 T00830050 TSNO
94908KDBQ DBQ20050516215511905/16/05 21:55:31  5-MIN KDBQ 170355Z AUTO 11004KT 9SM CLR 09/05 A3001 1000 76 500 110/04 RMK AO2 SLP166 T00890050 TSNO
94908KDBQ DBQ20050516220010205/16/05 22:00:31  5-MIN KDBQ 170400Z AUTO 10006KT 9SM CLR 09/05 A3001 1000 76 500 100/06 RMK AO2 TSNO
94908KDBQ DBQ20050516220510105/16/05 22:05:31  5-MIN KDBQ 170405Z AUTO 09008KT 9SM CLR 08/05 A3001 990 79 500 090/08 RMK AO2 TSNO
94908KDBQ DBQ20050516221010205/16/05 22:10:31  5-MIN KDBQ 170410Z AUTO 09007KT 10SM CLR 09/05 A3001 990 76 500 090/07 RMK AO2 TSNO
94908KDBQ DBQ20050516221510205/16/05 22:15:31  5-MIN KDBQ 170415Z AUTO 08008KT 10SM CLR 09/05 A3001 990 76 500 080/08 RMK AO2 TSNO
94908KDBQ DBQ20050516222010205/16/05 22:20:31  5-MIN KDBQ 170420Z AUTO 09007KT 10SM CLR 09/05 A3001 990 76 500 090/07 RMK AO2 TSNO
94908KDBQ DBQ20050516222510205/16/05 22:25:31  5-MIN KDBQ 170425Z AUTO 10007KT 10SM CLR 09/05 A3001 990 76 500 100/07 RMK AO2 TSNO
94908KDBQ DBQ20050516223010405/16/05 22:30:31  5-MIN KDBQ 170430Z AUTO 11008KT 10SM CLR 09/05 A3001  1000 76 500 100/08 RMK AO2 TSNO
94908KDBQ DBQ20050516223510405/16/05 22:35:31  5-MIN KDBQ 170435Z AUTO 11007KT 10SM CLR 09/05 A3001  1000 76 500 110/07 RMK AO2 TSNO
94908KDBQ DBQ20050516224010405/16/05 22:40:31  5-MIN KDBQ 170440Z AUTO 10008KT 10SM CLR 09/05 A3001  1000 76 500 100/08 RMK AO2 TSNO
94908KDBQ DBQ20050516224510405/16/05 22:45:31  5-MIN KDBQ 170445Z AUTO 10008KT 10SM CLR 09/05 A3001  1000 76 500 100/08 RMK AO2 TSNO
94908KDBQ DBQ20050516225012105/16/05 22:50:31  5-MIN KDBQ 170450Z AUTO 10009KT 10SM CLR 09/05 A3001  1000 76 500 100/09 RMK AO2 SLP165 T00890050 TSNO
94908KDBQ DBQ20050516225512105/16/05 22:55:31  5-MIN KDBQ 170455Z AUTO 10009KT 10SM CLR 09/05 A3001  1000 76 500 100/09 RMK AO2 SLP165 T00890050 TSNO
94908KDBQ DBQ20050516230010405/16/05 23:00:31  5-MIN KDBQ 170500Z AUTO 10009KT 10SM CLR 09/04 A3001  1000 73 500 100/09 RMK AO2 TSNO
94908KDBQ DBQ20050516230510405/16/05 23:05:31  5-MIN KDBQ 170505Z AUTO 11010KT 10SM CLR 09/04 A3001  1000 73 500 110/10 RMK AO2 TSNO
94908KDBQ DBQ20050516231010405/16/05 23:10:31  5-MIN KDBQ 170510Z AUTO 11009KT 10SM CLR 09/04 A3001  1000 73 500 110/09 RMK AO2 TSNO
94908KDBQ DBQ20050516231510405/16/05 23:15:31  5-MIN KDBQ 170515Z AUTO 11009KT 10SM CLR 08/04 A3001  1000 76 500 110/09 RMK AO2 TSNO
94908KDBQ DBQ20050516232010405/16/05 23:20:31  5-MIN KDBQ 170520Z AUTO 11009KT 10SM CLR 08/04 A3001  1000 76 500 110/09 RMK AO2 TSNO
94908KDBQ DBQ20050516232510405/16/05 23:25:31  5-MIN KDBQ 170525Z AUTO 11009KT 10SM CLR 08/04 A3001  1000 76 500 110/09 RMK AO2 TSNO
94908KDBQ DBQ20050516233010405/16/05 23:30:31  5-MIN KDBQ 170530Z AUTO 11008KT 10SM CLR 08/04 A3001  1000 76 500 110/08 RMK AO2 TSNO
94908KDBQ DBQ20050516233510405/16/05 23:35:31  5-MIN KDBQ 170535Z AUTO 11009KT 10SM CLR 09/04 A3001  1000 73 500 110/09 RMK AO2 TSNO
94908KDBQ DBQ20050516234010405/16/05 23:40:31  5-MIN KDBQ 170540Z AUTO 11009KT 10SM CLR 09/04 A3001  1000 73 500 110/09 RMK AO2 TSNO
94908KDBQ DBQ20050516234510405/16/05 23:45:31  5-MIN KDBQ 170545Z AUTO 11009KT 10SM CLR 09/04 A3001  1000 73 500 110/09 RMK AO2 TSNO
94908KDBQ DBQ20050516235015205/16/05 23:50:31  5-MIN KDBQ 170550Z AUTO 12009KT 10SM SCT090 09/04 A3001 1000 73 500 110/09 RMK AO2 SLP164 T00890044 10122 20078 401330006 53004  TSNO
94908KDBQ DBQ20050516235515205/16/05 23:55:31  5-MIN KDBQ 170555Z AUTO 12010KT 10SM BKN090 09/04 A3000 1000 73 500 110/10 RMK AO2 SLP163 T00890044 10122 20078 401330006 58000  TSNO
94908KDBQ DBQ20050517000010605/17/05 00:00:38  5-MIN KDBQ 170600Z AUTO 12010KT 10SM BKN095 09/04 A3000 1000 73 500 120/10 RMK AO2 TSNO
94908KDBQ DBQ20050517000510605/17/05 00:05:31  5-MIN KDBQ 170605Z AUTO 11010KT 10SM BKN095 09/04 A3000 1000 73 500 110/10 RMK AO2 TSNO
94908KDBQ DBQ20050517001010605/17/05 00:10:31  5-MIN KDBQ 170610Z AUTO 11010KT 10SM BKN090 09/04 A3000 1000 73 500 110/10 RMK AO2 TSNO
94908KDBQ DBQ20050517001510605/17/05 00:15:32  5-MIN KDBQ 170615Z AUTO 11011KT 10SM OVC090 09/04 A3000 1000 71 600 110/11 RMK AO2 TSNO
94908KDBQ DBQ20050517002010605/17/05 00:20:31  5-MIN KDBQ 170620Z AUTO 11010KT 10SM OVC095 09/04 A3001 1000 71 600 110/10 RMK AO2 TSNO
94908KDBQ DBQ20050517002510605/17/05 00:25:31  5-MIN KDBQ 170625Z AUTO 11010KT 10SM OVC095 09/04 A3001 1000 71 600 110/10 RMK AO2 TSNO
94908KDBQ DBQ20050517003010605/17/05 00:30:31  5-MIN KDBQ 170630Z AUTO 11010KT 10SM OVC095 09/04 A3000 1000 71 600 110/10 RMK AO2 TSNO
94908KDBQ DBQ20050517003510605/17/05 00:35:31  5-MIN KDBQ 170635Z AUTO 12010KT 10SM BKN095 09/04 A3000 1000 71 600 110/10 RMK AO2 TSNO
94908KDBQ DBQ20050517004010605/17/05 00:40:31  5-MIN KDBQ 170640Z AUTO 12011KT 10SM BKN095 09/04 A3000 1000 71 600 120/11 RMK AO2 TSNO
94908KDBQ DBQ20050517004510605/17/05 00:45:31  5-MIN KDBQ 170645Z AUTO 12010KT 10SM BKN090 09/04 A3000 1010 71 600 120/10 RMK AO2 TSNO
94908KDBQ DBQ20050517005012305/17/05 00:50:31  5-MIN KDBQ 170650Z AUTO 12010KT 10SM BKN090 09/04 A3000 1010 71 600 120/10 RMK AO2 SLP161 T00940044 TSNO
94908KDBQ DBQ20050517005512305/17/05 00:55:31  5-MIN KDBQ 170655Z AUTO 12011KT 10SM BKN090 09/04 A3000 1010 71 600 120/11 RMK AO2 SLP160 T00940044 TSNO
94908KDBQ DBQ20050517010010605/17/05 01:00:31  5-MIN KDBQ 170700Z AUTO 12010KT 10SM BKN085 09/05 A3000 1000 74 600 120/10 RMK AO2 TSNO
94908KDBQ DBQ20050517010510605/17/05 01:05:31  5-MIN KDBQ 170705Z AUTO 13010KT 10SM BKN085 09/05 A3000 1000 74 600 120/10 RMK AO2 TSNO
94908KDBQ DBQ20050517011010605/17/05 01:10:31  5-MIN KDBQ 170710Z AUTO 12010KT 10SM OVC085 09/05 A3000 1000 74 600 120/10 RMK AO2 TSNO
94908KDBQ DBQ20050517011510605/17/05 01:15:31  5-MIN KDBQ 170715Z AUTO 12011KT 10SM OVC085 09/05 A3000 1000 74 600 120/11 RMK AO2 TSNO
94908KDBQ DBQ20050517012011305/17/05 01:20:31  5-MIN KDBQ 170720Z AUTO 12011KT 10SM BKN090 OVC100 09/05 A3000 1000 74 600 120/11 RMK AO2 TSNO
94908KDBQ DBQ20050517012511305/17/05 01:25:31  5-MIN KDBQ 170725Z AUTO 12011KT 10SM BKN090 OVC100 09/05 A3000 1000 74 600 120/11 RMK AO2 TSNO
94908KDBQ DBQ20050517013011305/17/05 01:30:31  5-MIN KDBQ 170730Z AUTO 12011KT 10SM BKN090 OVC100 09/05 A3000 1000 74 600 120/11 RMK AO2 TSNO
94908KDBQ DBQ20050517013510605/17/05 01:35:31  5-MIN KDBQ 170735Z AUTO 12011KT 10SM OVC100 09/05 A3000 1000 74 600 120/11 RMK AO2 TSNO
94908KDBQ DBQ20050517014010605/17/05 01:40:31  5-MIN KDBQ 170740Z AUTO 12011KT 10SM OVC100 09/05 A3000 1000 74 600 120/11 RMK AO2 TSNO
94908KDBQ DBQ20050517014510605/17/05 01:45:31  5-MIN KDBQ 170745Z AUTO 13012KT 10SM OVC100 09/04 A3000 1000 71 600 130/12 RMK AO2 TSNO
94908KDBQ DBQ20050517015012305/17/05 01:50:31  5-MIN KDBQ 170750Z AUTO 12012KT 10SM OVC100 09/04 A3000 1010 71 600 120/12 RMK AO2 SLP162 T00940044 TSNO
94908KDBQ DBQ20050517015512305/17/05 01:55:31  5-MIN KDBQ 170755Z AUTO 13011KT 10SM OVC100 09/04 A3000 1010 71 600 120/11 RMK AO2 SLP161 T00940044 TSNO
94908KDBQ DBQ20050517020010605/17/05 02:00:31  5-MIN KDBQ 170800Z AUTO 13011KT 10SM OVC100 09/04 A3000 1010 71 600 120/11 RMK AO2 TSNO
94908KDBQ DBQ20050517020510605/17/05 02:05:31  5-MIN KDBQ 170805Z AUTO 13011KT 10SM OVC100 09/04 A3000 1010 71 600 130/11 RMK AO2 TSNO
94908KDBQ DBQ20050517021010605/17/05 02:10:31  5-MIN KDBQ 170810Z AUTO 13011KT 10SM OVC100 09/04 A3000 1010 71 600 130/11 RMK AO2 TSNO
94908KDBQ DBQ20050517021510605/17/05 02:15:31  5-MIN KDBQ 170815Z AUTO 13012KT 10SM OVC100 09/04 A3000 1010 71 600 130/12 RMK AO2 TSNO
94908KDBQ DBQ20050517022010605/17/05 02:20:31  5-MIN KDBQ 170820Z AUTO 13012KT 10SM OVC100 09/04 A3000 1010 68 600 130/12 RMK AO2 TSNO
94908KDBQ DBQ20050517022510605/17/05 02:25:31  5-MIN KDBQ 170825Z AUTO 13012KT 10SM OVC100 09/04 A3000 1010 71 600 130/12 RMK AO2 TSNO
94908KDBQ DBQ20050517023010605/17/05 02:30:31  5-MIN KDBQ 170830Z AUTO 13013KT 10SM OVC100 09/04 A3000 1010 71 600 130/13 RMK AO2 TSNO
94908KDBQ DBQ20050517023510605/17/05 02:35:31  5-MIN KDBQ 170835Z AUTO 13012KT 10SM OVC100 09/04 A3000 1010 71 600 130/12 RMK AO2 TSNO
94908KDBQ DBQ20050517024010605/17/05 02:40:31  5-MIN KDBQ 170840Z AUTO 13010KT 10SM OVC100 09/04 A3000 1010 71 600 130/10 RMK AO2 TSNO
94908KDBQ DBQ20050517024510605/17/05 02:45:31  5-MIN KDBQ 170845Z AUTO 13011KT 10SM OVC100 09/04 A3000 1010 71 600 130/11 RMK AO2 TSNO
94908KDBQ DBQ20050517025012905/17/05 02:50:31  5-MIN KDBQ 170850Z AUTO 14010KT 10SM OVC100 09/04 A3000 1010 71 600 140/10 RMK AO2 SLP161 T00890039 58000 TSNO
94908KDBQ DBQ20050517025512905/17/05 02:55:31  5-MIN KDBQ 170855Z AUTO 14010KT 10SM OVC100 09/04 A3000 1010 71 600 140/10 RMK AO2 SLP160 T00890039 56003 TSNO
94908KDBQ DBQ20050517030010605/17/05 03:00:31  5-MIN KDBQ 170900Z AUTO 14009KT 10SM OVC100 09/04 A3000 1010 71 600 130/09 RMK AO2 TSNO
94908KDBQ DBQ20050517030510605/17/05 03:05:31  5-MIN KDBQ 170905Z AUTO 14008KT 10SM BKN100 09/03 A3000 1010 68 600 130/08 RMK AO2 TSNO
94908KDBQ DBQ20050517031010605/17/05 03:10:31  5-MIN KDBQ 170910Z AUTO 13007KT 10SM BKN100 09/03 A3000 1010 68 600 130/07 RMK AO2 TSNO
94908KDBQ DBQ20050517031510605/17/05 03:15:31  5-MIN KDBQ 170915Z AUTO 14006KT 10SM BKN100 09/03 A3000 1010 68 600 140/06 RMK AO2 TSNO
94908KDBQ DBQ20050517032010605/17/05 03:20:31  5-MIN KDBQ 170920Z AUTO VRB03KT 10SM BKN100 08/04 A3000 1000 73 500 VRB/03 RMK AO2 TSNO
94908KDBQ DBQ20050517032510605/17/05 03:25:31  5-MIN KDBQ 170925Z AUTO VRB04KT 10SM FEW100 08/04 A3000 1000 73 500 VRB/04 RMK AO2 TSNO
94908KDBQ DBQ20050517033010605/17/05 03:30:31  5-MIN KDBQ 170930Z AUTO VRB04KT 10SM FEW100 08/03 A3000 1010 70 500 VRB/04 RMK AO2 TSNO
94908KDBQ DBQ20050517033511305/17/05 03:35:31  5-MIN KDBQ 170935Z AUTO 15005KT 10SM FEW080 SCT100 08/03 A3000 1010 70 500 150/05 RMK AO2 TSNO
94908KDBQ DBQ20050517034011305/17/05 03:40:31  5-MIN KDBQ 170940Z AUTO 14005KT 10SM SCT080 BKN100 08/03 A3000 1010 70 500 130/05 RMK AO2 TSNO
94908KDBQ DBQ20050517034510605/17/05 03:45:31  5-MIN KDBQ 170945Z AUTO 15005KT 10SM BKN080 08/03 A2999 1010 70 500 150/05 RMK AO2 TSNO
94908KDBQ DBQ20050517035012305/17/05 03:50:31  5-MIN KDBQ 170950Z AUTO 14005KT 10SM BKN080 08/03 A2999 1010 70 500 140/05 RMK AO2 SLP159 T00830033 TSNO
94908KDBQ DBQ20050517035512305/17/05 03:55:31  5-MIN KDBQ 170955Z AUTO 15006KT 10SM BKN080 08/03 A2999 1010 70 500 140/06 RMK AO2 SLP160 T00830033 TSNO
94908KDBQ DBQ20050517040010605/17/05 04:00:31  5-MIN KDBQ 171000Z AUTO 13007KT 10SM BKN080 08/03 A2999 1010 70 500 130/07 RMK AO2 TSNO
94908KDBQ DBQ20050517040510605/17/05 04:05:31  5-MIN KDBQ 171005Z AUTO 13007KT 10SM BKN080 08/03 A2999 1010 70 500 130/07 RMK AO2 TSNO
94908KDBQ DBQ20050517041010605/17/05 04:10:31  5-MIN KDBQ 171010Z AUTO 13008KT 10SM OVC080 08/03 A2999 1010 70 500 130/08 RMK AO2 TSNO
94908KDBQ DBQ20050517041510605/17/05 04:15:31  5-MIN KDBQ 171015Z AUTO 13010KT 10SM OVC080 08/03 A2999 1010 70 500 130/10 RMK AO2 TSNO
94908KDBQ DBQ20050517042010605/17/05 04:20:31  5-MIN KDBQ 171020Z AUTO 13010KT 10SM OVC080 08/03 A2999 1010 70 500 130/10 RMK AO2 TSNO
94908KDBQ DBQ20050517042510605/17/05 04:25:31  5-MIN KDBQ 171025Z AUTO 12011KT 10SM OVC080 08/03 A2999 1010 70 500 120/11 RMK AO2 TSNO
94908KDBQ DBQ20050517043009605/17/05 04:30:31  5-MIN KDBQ 171030Z 12010KT 10SM BKN080 08/03 A2999 1010 70 500 120/10 RMK AO2
94908KDBQ DBQ20050517043509605/17/05 04:35:31  5-MIN KDBQ 171035Z 12008KT 10SM BKN080 08/03 A3000 1010 70 500 120/08 RMK AO2
94908KDBQ DBQ20050517044009605/17/05 04:40:31  5-MIN KDBQ 171040Z 12007KT 10SM BKN080 08/03 A3000 1010 70 500 120/07 RMK AO2
94908KDBQ DBQ20050517044509605/17/05 04:45:31  5-MIN KDBQ 171045Z 10006KT 10SM BKN080 08/03 A2999 1010 73 400 100/06 RMK AO2
94908KDBQ DBQ20050517045011305/17/05 04:50:31  5-MIN KDBQ 171050Z 10005KT 10SM BKN080 08/03 A3000 1010 73 400 100/05 RMK AO2 SLP162 T00780033
94908KDBQ DBQ20050517045511305/17/05 04:55:31  5-MIN KDBQ 171055Z 09006KT 10SM SCT080 08/03 A3000 1010 73 400 090/06 RMK AO2 SLP162 T00780033
94908KDBQ DBQ20050517050009605/17/05 05:00:31  5-MIN KDBQ 171100Z 10005KT 10SM SCT080 08/03 A3000 1000 73 400 100/05 RMK AO2
94908KDBQ DBQ20050517050509605/17/05 05:05:31  5-MIN KDBQ 171105Z 10007KT 10SM SCT080 08/03 A3000 1000 73 400 100/07 RMK AO2
94908KDBQ DBQ20050517051009605/17/05 05:10:31  5-MIN KDBQ 171110Z 11006KT 10SM BKN080 08/03 A3000 1000 73 400 110/06 RMK AO2
94908KDBQ DBQ20050517051509605/17/05 05:15:31  5-MIN KDBQ 171115Z 10006KT 10SM BKN080 08/03 A3000 1000 73 400 100/06 RMK AO2
94908KDBQ DBQ20050517052009605/17/05 05:20:31  5-MIN KDBQ 171120Z 11006KT 10SM BKN080 08/03 A3000 1000 73 400 110/06 RMK AO2
94908KDBQ DBQ20050517052509605/17/05 05:25:31  5-MIN KDBQ 171125Z 12007KT 10SM BKN080 08/03 A3000 1000 73 400 120/07 RMK AO2
94908KDBQ DBQ20050517053009605/17/05 05:30:31  5-MIN KDBQ 171130Z 12006KT 10SM BKN080 08/03 A3000 1000 73 400 120/06 RMK AO2
94908KDBQ DBQ20050517053509605/17/05 05:35:31  5-MIN KDBQ 171135Z 13008KT 10SM SCT080 08/03 A3000 1000 73 400 130/08 RMK AO2
94908KDBQ DBQ20050517054009605/17/05 05:40:31  5-MIN KDBQ 171140Z 13010KT 10SM SCT080 08/03 A3000 1000 73 400 130/10 RMK AO2
94908KDBQ DBQ20050517054509605/17/05 05:45:31  5-MIN KDBQ 171145Z 13010KT 10SM FEW080 08/03 A3000 1000 73 400 130/10 RMK AO2
94908KDBQ DBQ20050517055013105/17/05 05:50:31  5-MIN KDBQ 171150Z 13008KT 10SM FEW080 08/03 A3000 1000 70 500 130/08 RMK AO2 SLP162 T00830033 10094 20078 56003
94908KDBQ DBQ20050517061509305/17/05 06:15:31  5-MIN KDBQ 171215Z 13009KT 10SM CLR 09/04 A3001 1000 68 600 130/09 RMK AO2
94908KDBQ DBQ20050517062009305/17/05 06:20:31  5-MIN KDBQ 171220Z 13011KT 10SM CLR 10/04 A3001 1000 68 700 130/11 RMK AO2
94908KDBQ DBQ20050517062509305/17/05 06:25:31  5-MIN KDBQ 171225Z 13010KT 10SM CLR 10/04 A3001 990 68  700 130/10 RMK AO2
94908KDBQ DBQ20050517063009305/17/05 06:30:31  5-MIN KDBQ 171230Z 13008KT 10SM CLR 11/04 A3000 1000 66 700 130/08 RMK AO2
94908KDBQ DBQ20050517063509305/17/05 06:35:31  5-MIN KDBQ 171235Z 13010KT 10SM CLR 11/04 A3001 990 66  700 130/10 RMK AO2
94908KDBQ DBQ20050517064009305/17/05 06:40:31  5-MIN KDBQ 171240Z 13009KT 10SM CLR 11/04 A3001 990 66  700 130/09 RMK AO2
94908KDBQ DBQ20050517064509305/17/05 06:45:31  5-MIN KDBQ 171245Z 14008KT 10SM CLR 11/05 A3001 990 68  700 140/08 RMK AO2
94908KDBQ DBQ20050517065011005/17/05 06:50:31  5-MIN KDBQ 171250Z 13007KT 10SM CLR 11/05 A3001 990 68  700 130/07 RMK AO2 SLP166 T01060050
94908KDBQ DBQ20050517065511005/17/05 06:55:31  5-MIN KDBQ 171255Z 13009KT 10SM CLR 11/05 A3001 990 68  700 130/09 RMK AO2 SLP166 T01060050
94908KDBQ DBQ20050517070009605/17/05 07:00:31  5-MIN KDBQ 171300Z 13006KT 10SM FEW080 11/05 A3001 990  68 700 130/06 RMK AO2
94908KDBQ DBQ20050517070509605/17/05 07:05:31  5-MIN KDBQ 171305Z 12008KT 10SM SCT080 11/05 A3001 1000 68 700 120/08 RMK AO2
94908KDBQ DBQ20050517071009605/17/05 07:10:31  5-MIN KDBQ 171310Z 13009KT 10SM BKN080 11/06 A3001 1000 68 800 130/09 RMK AO2
94908KDBQ DBQ20050517071509605/17/05 07:15:31  5-MIN KDBQ 171315Z 13009KT 10SM SCT080 11/06 A3001 1000 68 800 130/09 RMK AO2
94908KDBQ DBQ20050517072009605/17/05 07:20:31  5-MIN KDBQ 171320Z 13010KT 10SM SCT080 12/06 A3001 1000 66 900 130/10 RMK AO2
94908KDBQ DBQ20050517072509605/17/05 07:25:31  5-MIN KDBQ 171325Z 14009KT 10SM SCT080 12/06 A3000 1000 66 900 130/09 RMK AO2
94908KDBQ DBQ20050517073009605/17/05 07:30:31  5-MIN KDBQ 171330Z 13008KT 10SM FEW080 12/06 A3000 1000 66 900 130/08 RMK AO2
94908KDBQ DBQ20050517073509605/17/05 07:35:31  5-MIN KDBQ 171335Z 15009KT 10SM FEW080 12/06 A3001 1000 68 900 150/09 RMK AO2
94908KDBQ DBQ20050517074009305/17/05 07:40:31  5-MIN KDBQ 171340Z 14008KT 10SM CLR 12/06 A3001 1000 68 900 140/08 RMK AO2
94908KDBQ DBQ20050517074509305/17/05 07:45:31  5-MIN KDBQ 171345Z 16009KT 10SM CLR 12/06 A3001 1000 66 900 160/09 RMK AO2
94908KDBQ DBQ20050517075011005/17/05 07:50:31  5-MIN KDBQ 171350Z 16007KT 10SM CLR 12/06 A3001 1000 66 900 150/07 RMK AO2 SLP163 T01220061
94908KDBQ DBQ20050517075511005/17/05 07:55:31  5-MIN KDBQ 171355Z 16009KT 10SM CLR 12/06 A3001 1000 66 900 160/09 RMK AO2 SLP163 T01220061
94908KDBQ DBQ20050517080009305/17/05 08:00:31  5-MIN KDBQ 171400Z 16010KT 10SM CLR 12/07 A3001 1000 68 900 160/10 RMK AO2
94908KDBQ DBQ20050517080509405/17/05 08:05:31  5-MIN KDBQ 171405Z 16011KT 10SM CLR 13/07 A3000 1000 66 1000 160/11 RMK AO2
94908KDBQ DBQ20050517081009405/17/05 08:10:31  5-MIN KDBQ 171410Z 16011KT 10SM CLR 13/07 A3000 1000 66 1000 160/11 RMK AO2
94908KDBQ DBQ20050517081509405/17/05 08:15:31  5-MIN KDBQ 171415Z 17009KT 10SM CLR 13/07 A3000 1000 66 1000 160/09 RMK AO2
94908KDBQ DBQ20050517082009405/17/05 08:20:31  5-MIN KDBQ 171420Z 17010KT 10SM CLR 13/07 A3001 1000 66 1100 170/10 RMK AO2
94908KDBQ DBQ20050517082509405/17/05 08:25:31  5-MIN KDBQ 171425Z 17012KT 10SM CLR 13/07 A3001 1000 66 1100 160/12 RMK AO2
94908KDBQ DBQ20050517083009405/17/05 08:30:31  5-MIN KDBQ 171430Z 17013KT 10SM CLR 14/07 A3000 1000 64 1100 170/13 RMK AO2
94908KDBQ DBQ20050517083509405/17/05 08:35:31  5-MIN KDBQ 171435Z 16012KT 10SM CLR 14/08 A3000 1000 64 1200 160/12 RMK AO2
94908KDBQ DBQ20050517084009405/17/05 08:40:31  5-MIN KDBQ 171440Z 15013KT 10SM CLR 14/07 A3000 1000 61 1200 150/13 RMK AO2
94908KDBQ DBQ20050517084509705/17/05 08:45:31  5-MIN KDBQ 171445Z 17012KT 10SM FEW100 14/08 A3000 1000 64 1200 170/12 RMK AO2
94908KDBQ DBQ20050517085012005/17/05 08:50:31  5-MIN KDBQ 171450Z 15012KT 10SM SCT100 14/07 A3000 1000 61 1200 140/12 RMK AO2 SLP162 T01440072 53002
94908KDBQ DBQ20050517085512005/17/05 08:55:31  5-MIN KDBQ 171455Z 15013KT 10SM BKN100 14/07 A3000 1000 61 1200 150/13 RMK AO2 SLP161 T01440072 50000
94908KDBQ DBQ20050517090009705/17/05 09:00:31  5-MIN KDBQ 171500Z 16011KT 10SM BKN100 14/07 A3000 1010 61 1200 160/11 RMK AO2
94908KDBQ DBQ20050517090509705/17/05 09:05:31  5-MIN KDBQ 171505Z 16012KT 10SM BKN100 14/08 A3000 1000 64 1200 150/12 RMK AO2
94908KDBQ DBQ20050517091009705/17/05 09:10:31  5-MIN KDBQ 171510Z 16011KT 10SM BKN100 15/08 A3000 1000 62 1300 160/11 RMK AO2
94908KDBQ DBQ20050517091509705/17/05 09:15:31  5-MIN KDBQ 171515Z 16010KT 10SM OVC095 15/08 A3000 1010 62 1300 160/10 RMK AO2
94908KDBQ DBQ20050517092009705/17/05 09:20:31  5-MIN KDBQ 171520Z 16013KT 10SM OVC090 15/08 A3000 1010 62 1300 160/13 RMK AO2
94908KDBQ DBQ20050517092509705/17/05 09:25:31  5-MIN KDBQ 171525Z 16013KT 10SM BKN095 15/08 A3000 1010 62 1300 160/13 RMK AO2
94908KDBQ DBQ20050517093009705/17/05 09:30:31  5-MIN KDBQ 171530Z 16011KT 10SM BKN095 15/08 A3000 1000 62 1300 150/11 RMK AO2
94908KDBQ DBQ20050517093509705/17/05 09:35:31  5-MIN KDBQ 171535Z 15008KT 10SM BKN095 15/08 A3000 1000 64 1300 150/08 RMK AO2
94908KDBQ DBQ20050517094009705/17/05 09:40:31  5-MIN KDBQ 171540Z 17009KT 10SM BKN095 16/08 A3000 1000 62 1300 160/09 RMK AO2
94908KDBQ DBQ20050517094510505/17/05 09:45:31  5-MIN KDBQ 171545Z 17011KT 10SM FEW075 BKN090 16/08  A3001 1000 62 1300 170/11 RMK AO2
94908KDBQ DBQ20050517095012205/17/05 09:50:31  5-MIN KDBQ 171550Z 15011KT 10SM SCT075 BKN095 15/08  A3001 1000 64 1300 150/11 RMK AO2 SLP163 T01500083
94908KDBQ DBQ20050517095512205/17/05 09:55:31  5-MIN KDBQ 171555Z 14010KT 10SM BKN075 OVC095 15/08  A3001 1000 62 1300 140/10 RMK AO2 SLP164 T01500078
94908KDBQ DBQ20050517100010505/17/05 10:00:31  5-MIN KDBQ 171600Z 16010KT 10SM BKN075 OVC090 16/08  A3001 1000 62 1300 160/10 RMK AO2
94908KDBQ DBQ20050517100509705/17/05 10:05:31  5-MIN KDBQ 171605Z 15010KT 10SM BKN080 16/08 A3001 990  62 1300 150/10 RMK AO2
94908KDBQ DBQ20050517101009705/17/05 10:10:31  5-MIN KDBQ 171610Z 15010KT 10SM OVC075 16/08 A3001 990  62 1300 150/10 RMK AO2
94908KDBQ DBQ20050517101509705/17/05 10:15:31  5-MIN KDBQ 171615Z 16008KT 10SM OVC075 16/08 A3001 990  62 1300 160/08 RMK AO2
94908KDBQ DBQ20050517102009705/17/05 10:20:31  5-MIN KDBQ 171620Z 14011KT 10SM OVC075 16/08 A3001 990  62 1300 140/11 RMK AO2
94908KDBQ DBQ20050517102509705/17/05 10:25:31  5-MIN KDBQ 171625Z 15009KT 10SM OVC075 16/08 A3001 1000 62 1300 140/09 RMK AO2
94908KDBQ DBQ20050517103009705/17/05 10:30:31  5-MIN KDBQ 171630Z 14009KT 10SM OVC075 16/08 A3001 990  62 1300 140/09 RMK AO2
94908KDBQ DBQ20050517103509705/17/05 10:35:31  5-MIN KDBQ 171635Z 15009KT 10SM OVC080 16/09 A3001 1000 64 1300 150/09 RMK AO2
94908KDBQ DBQ20050517104009705/17/05 10:40:31  5-MIN KDBQ 171640Z 15009KT 10SM OVC080 16/09 A3001 1000 62 1400 140/09 RMK AO2
94908KDBQ DBQ20050517104510505/17/05 10:45:31  5-MIN KDBQ 171645Z 14009KT 10SM BKN080 OVC090 16/09  A3000 1000 62 1400 140/09 RMK AO2
94908KDBQ DBQ20050517105011405/17/05 10:50:31  5-MIN KDBQ 171650Z 14009KT 10SM BKN080 17/09 A3000 1000 60 1500 140/09 RMK AO2 SLP162 T01670089
94908KDBQ DBQ20050517105511405/17/05 10:55:31  5-MIN KDBQ 171655Z 15009KT 10SM BKN080 17/09 A3000 1010 62 1500 150/09 RMK AO2 SLP160 T01670094
94908KDBQ DBQ20050517110009705/17/05 11:00:31  5-MIN KDBQ 171700Z 15010KT 10SM BKN080 17/09 A3000 1010 60 1500 150/10 RMK AO2
94908KDBQ DBQ20050517110509705/17/05 11:05:31  5-MIN KDBQ 171705Z 15009KT 10SM BKN080 18/10 A3000 1010 60 1600 150/09 RMK AO2
94908KDBQ DBQ20050517111009705/17/05 11:10:31  5-MIN KDBQ 171710Z 14011KT 10SM SCT080 18/10 A2999 1010 60 1600 140/11 RMK AO2
94908KDBQ DBQ20050517111509705/17/05 11:15:31  5-MIN KDBQ 171715Z 15013KT 10SM FEW080 18/10 A2999 1010 58 1700 150/13 RMK AO2
94908KDBQ DBQ20050517112009705/17/05 11:20:31  5-MIN KDBQ 171720Z 15009KT 10SM FEW080 19/11 A2999 1020 56 1800 150/09 RMK AO2
94908KDBQ DBQ20050517112510005/17/05 11:25:31  5-MIN KDBQ 171725Z 16015G18KT 10SM CLR 19/11 A2999 1020 56 1800 160/15G18 RMK AO2
94908KDBQ DBQ20050517113010005/17/05 11:30:31  5-MIN KDBQ 171730Z 17015G19KT 10SM CLR 19/10 A2999 1020 54 1800 170/15G19 RMK AO2
94908KDBQ DBQ20050517113510005/17/05 11:35:31  5-MIN KDBQ 171735Z 16012G19KT 10SM CLR 20/10 A2998 1020 52 1900 150/12G19 RMK AO2
94908KDBQ DBQ20050517114009405/17/05 11:40:31  5-MIN KDBQ 171740Z 15012KT 10SM CLR 19/10 A2998 1020 54 1800 150/12 RMK AO2
94908KDBQ DBQ20050517114510005/17/05 11:45:31  5-MIN KDBQ 171745Z 16012G18KT 10SM CLR 21/11 A2997 1040 52 2000 160/12G18 RMK AO2
94908KDBQ DBQ20050517115013905/17/05 11:50:31  5-MIN KDBQ 171750Z 17012G18KT 10SM FEW080 20/10 A2997  1030 52 1900 170/12G18 RMK AO2 SLP149 T02000100 10206 20083 50000
94908KDBQ DBQ20050517115513205/17/05 11:55:31  5-MIN KDBQ 171755Z 17012KT 10SM SCT080 20/10 A2997 1040 52 1900 170/12 RMK AO2 SLP147 T02000100 10206 20083 58012
94908KDBQ DBQ20050517120009705/17/05 12:00:31  5-MIN KDBQ 171800Z 17014KT 10SM FEW080 21/10 A2996 1040 50 2000 170/14 RMK AO2
94908KDBQ DBQ20050517120509705/17/05 12:05:31  5-MIN KDBQ 171805Z 18014KT 10SM FEW080 21/10 A2996 1040 50 2000 180/14 RMK AO2
94908KDBQ DBQ20050517121009705/17/05 12:10:31  5-MIN KDBQ 171810Z 17015KT 10SM FEW080 21/09 A2995 1050 47 2000 170/15 RMK AO2
94908KDBQ DBQ20050517121509705/17/05 12:15:31  5-MIN KDBQ 171815Z 19012KT 10SM FEW080 21/09 A2996 1050 47 2000 190/12 RMK AO2
94908KDBQ DBQ20050517122009705/17/05 12:20:31  5-MIN KDBQ 171820Z 17014KT 10SM FEW080 22/10 A2996 1040 47 2100 170/14 RMK AO2
94908KDBQ DBQ20050517122510005/17/05 12:25:31  5-MIN KDBQ 171825Z 17015G19KT 10SM CLR 22/09 A2995 1050 45 2100 170/15G19 RMK AO2
94908KDBQ DBQ20050517123010005/17/05 12:30:31  5-MIN KDBQ 171830Z 15014G19KT 10SM CLR 22/09 A2995 1050 45 2100 150/14G19 RMK AO2
94908KDBQ DBQ20050517123509405/17/05 12:35:31  5-MIN KDBQ 171835Z 16013KT 10SM CLR 22/09 A2995 1050 45 2100 160/13 RMK AO2
94908KDBQ DBQ20050517124009405/17/05 12:40:31  5-MIN KDBQ 171840Z 16013KT 10SM CLR 22/09 A2995 1050 43 2200 160/13 RMK AO2
94908KDBQ DBQ20050517124509705/17/05 12:45:31  5-MIN KDBQ 171845Z 19013KT 10SM FEW100 21/09 A2994 1060 45 2000 180/13 RMK AO2
94908KDBQ DBQ20050517125011405/17/05 12:50:31  5-MIN KDBQ 171850Z 16015KT 10SM SCT100 22/09 A2994 1060 45 2100 160/15 RMK AO2 SLP139 T02170094
94908KDBQ DBQ20050517125512105/17/05 12:55:31  5-MIN KDBQ 171855Z 15013G17KT 10SM BKN100 22/09 A2995  1050 43 2100 150/13G17 RMK AO2 SLP140 T02170089
94908KDBQ DBQ20050517130010405/17/05 13:00:31  5-MIN KDBQ 171900Z 15014G18KT 10SM BKN100 21/09 A2995  1050 45 2000 150/14G18 RMK AO2
94908KDBQ DBQ20050517130509705/17/05 13:05:31  5-MIN KDBQ 171905Z 16014KT 10SM BKN100 21/09 A2995 1050 47 2000 160/14 RMK AO2
94908KDBQ DBQ20050517131009705/17/05 13:10:31  5-MIN KDBQ 171910Z 18011KT 10SM BKN100 22/09 A2995 1060 45 2100 180/11 RMK AO2
94908KDBQ DBQ20050517131509705/17/05 13:15:31  5-MIN KDBQ 171915Z 15013KT 10SM BKN100 22/09 A2994 1060 43 2100 150/13 RMK AO2
94908KDBQ DBQ20050517132009705/17/05 13:20:31  5-MIN KDBQ 171920Z 16013KT 10SM BKN100 22/08 A2994 1060 42 2100 160/13 RMK AO2
94908KDBQ DBQ20050517132510405/17/05 13:25:31  5-MIN KDBQ 171925Z 16011G19KT 10SM BKN100 22/09 A2996  1040 43 2200 160/11G19 RMK AO2
94908KDBQ DBQ20050517133009705/17/05 13:30:31  5-MIN KDBQ 171930Z 18014KT 10SM SCT100 22/09 A2996 1040 42 2200 180/14 RMK AO2
94908KDBQ DBQ20050517133510405/17/05 13:35:31  5-MIN KDBQ 171935Z 17014G21KT 10SM SCT100 22/09 A2996  1050 42 2200 170/14G21 RMK AO2
94908KDBQ DBQ20050517134010405/17/05 13:40:31  5-MIN KDBQ 171940Z 17014G21KT 10SM FEW100 22/08 A2995  1050 40 2200 170/14G21 RMK AO2
94908KDBQ DBQ20050517134509705/17/05 13:45:31  5-MIN KDBQ 171945Z 16013KT 10SM FEW100 22/08 A2995 1050 40 2200 160/13 RMK AO2
94908KDBQ DBQ20050517135011405/17/05 13:50:31  5-MIN KDBQ 171950Z 15010KT 10SM FEW100 22/08 A2995 1050 39 2200 140/10 RMK AO2 SLP141 T02220078
94908KDBQ DBQ20050517135511705/17/05 13:55:31  5-MIN KDBQ 171955Z 16013G20KT 10SM CLR 22/08 A2995 1050 39 2200 160/13G20 RMK AO2 SLP140 T02220078
94908KDBQ DBQ20050517140010005/17/05 14:00:31  5-MIN KDBQ 172000Z 15017G23KT 10SM CLR 22/08 A2994 1060 39 2200 150/17G23 RMK AO2
94908KDBQ DBQ20050517140510005/17/05 14:05:31  5-MIN KDBQ 172005Z 16015G23KT 10SM CLR 23/08 A2995 1060 39 2200 160/15G23 RMK AO2
94908KDBQ DBQ20050517141009405/17/05 14:10:31  5-MIN KDBQ 172010Z 16012KT 10SM CLR 23/08 A2994 1060 39 2200 150/12 RMK AO2
94908KDBQ DBQ20050517141510005/17/05 14:15:31  5-MIN KDBQ 172015Z 17014G21KT 10SM CLR 23/08 A2994 1060 37 2200 170/14G21 RMK AO2
94908KDBQ DBQ20050517142010005/17/05 14:20:31  5-MIN KDBQ 172020Z 16017G21KT 10SM CLR 23/07 A2994 1060 36 2200 160/17G21 RMK AO2
94908KDBQ DBQ20050517142509405/17/05 14:25:31  5-MIN KDBQ 172025Z 16014KT 10SM CLR 23/07 A2994 1060 36 2200 160/14 RMK AO2
94908KDBQ DBQ20050517143009405/17/05 14:30:31  5-MIN KDBQ 172030Z 15011KT 10SM CLR 23/07 A2994 1060 36 2200 150/11 RMK AO2
94908KDBQ DBQ20050517143510005/17/05 14:35:31  5-MIN KDBQ 172035Z 18014G18KT 10SM CLR 23/07 A2994 1060 36 2200 180/14G18 RMK AO2
94908KDBQ DBQ20050517144010005/17/05 14:40:31  5-MIN KDBQ 172040Z 16014G20KT 10SM CLR 22/08 A2994 1060 39 2200 160/14G20 RMK AO2
94908KDBQ DBQ20050517144510005/17/05 14:45:31  5-MIN KDBQ 172045Z 14014G20KT 10SM CLR 22/07 A2994 1060 37 2200 140/14G20 RMK AO2
94908KDBQ DBQ20050517145011705/17/05 14:50:31  5-MIN KDBQ 172050Z 17015KT 10SM CLR 22/07 A2993 1070 37 2200 170/15 RMK AO2 SLP136 T02220072 58012
94908KDBQ DBQ20050517145511705/17/05 14:55:31  5-MIN KDBQ 172055Z 16013KT 10SM CLR 22/07 A2993 1060 37 2200 160/13 RMK AO2 SLP136 T02220072 56010
94908KDBQ DBQ20050517150010005/17/05 15:00:31  5-MIN KDBQ 172100Z 16016G21KT 10SM CLR 22/07 A2993 1070 37 2200 160/16G21 RMK AO2
94908KDBQ DBQ20050517150510005/17/05 15:05:31  5-MIN KDBQ 172105Z 17016G21KT 10SM CLR 22/08 A2993 1070 39 2200 170/16G21 RMK AO2
94908KDBQ DBQ20050517151009405/17/05 15:10:31  5-MIN KDBQ 172110Z 16015KT 10SM CLR 22/07 A2993 1070 37 2200 160/15 RMK AO2
94908KDBQ DBQ20050517151510005/17/05 15:15:31  5-MIN KDBQ 172115Z 16016G22KT 10SM CLR 23/08 A2993 1070 37 2300 160/16G22 RMK AO2
94908KDBQ DBQ20050517152010005/17/05 15:20:31  5-MIN KDBQ 172120Z 15015G22KT 10SM CLR 22/07 A2993 1070 36 2200 150/15G22 RMK AO2
94908KDBQ DBQ20050517152509405/17/05 15:25:31  5-MIN KDBQ 172125Z 15014KT 10SM CLR 22/07 A2993 1070 36 2200 150/14 RMK AO2
94908KDBQ DBQ20050517153009405/17/05 15:30:31  5-MIN KDBQ 172130Z 18015KT 10SM CLR 22/07 A2993 1070 37 2100 180/15 RMK AO2
94908KDBQ DBQ20050517153509405/17/05 15:35:31  5-MIN KDBQ 172135Z 17014KT 10SM CLR 22/07 A2993 1070 39 2100 170/14 RMK AO2
94908KDBQ DBQ20050517154009405/17/05 15:40:31  5-MIN KDBQ 172140Z 16012KT 10SM CLR 22/07 A2993 1070 39 2100 160/12 RMK AO2
94908KDBQ DBQ20050517154510005/17/05 15:45:31  5-MIN KDBQ 172145Z 16011G17KT 10SM CLR 22/07 A2993 1070 39 2100 160/11G17 RMK AO2
94908KDBQ DBQ20050517155011105/17/05 15:50:31  5-MIN KDBQ 172150Z 16012KT 10SM CLR 22/07 A2993 1070 39 2100 160/12 RMK AO2 SLP134 T02170072
94908KDBQ DBQ20050517155511105/17/05 15:55:31  5-MIN KDBQ 172155Z 16013KT 10SM CLR 22/07 A2993 1070 39 2100 150/13 RMK AO2 SLP134 T02170072
94908KDBQ DBQ20050517160009405/17/05 16:00:31  5-MIN KDBQ 172200Z 15012KT 10SM CLR 22/07 A2993 1070 39 2100 150/12 RMK AO2
94908KDBQ DBQ20050517160509405/17/05 16:05:31  5-MIN KDBQ 172205Z 16012KT 10SM CLR 22/07 A2993 1070 39 2100 160/12 RMK AO2
94908KDBQ DBQ20050517161009405/17/05 16:10:31  5-MIN KDBQ 172210Z 15014KT 10SM CLR 22/08 A2992 1080 40 2100 150/14 RMK AO2
94908KDBQ DBQ20050517161509405/17/05 16:15:31  5-MIN KDBQ 172215Z 16014KT 10SM CLR 22/07 A2992 1080 37 2100 160/14 RMK AO2
94908KDBQ DBQ20050517162009405/17/05 16:20:31  5-MIN KDBQ 172220Z 16013KT 10SM CLR 22/07 A2992 1080 37 2100 150/13 RMK AO2
94908KDBQ DBQ20050517162509405/17/05 16:25:31  5-MIN KDBQ 172225Z 16014KT 10SM CLR 22/07 A2992 1080 37 2100 160/14 RMK AO2
94908KDBQ DBQ20050517163009405/17/05 16:30:31  5-MIN KDBQ 172230Z 16013KT 10SM CLR 22/07 A2992 1080 37 2100 160/13 RMK AO2
94908KDBQ DBQ20050517163509405/17/05 16:35:31  5-MIN KDBQ 172235Z 15013KT 10SM CLR 22/06 A2992 1080 36 2100 150/13 RMK AO2
94908KDBQ DBQ20050517164009405/17/05 16:40:31  5-MIN KDBQ 172240Z 15013KT 10SM CLR 22/07 A2992 1080 37 2100 150/13 RMK AO2
94908KDBQ DBQ20050517164509405/17/05 16:45:31  5-MIN KDBQ 172245Z 15012KT 10SM CLR 22/07 A2992 1080 37 2100 150/12 RMK AO2
94908KDBQ DBQ20050517165011105/17/05 16:50:31  5-MIN KDBQ 172250Z 15013KT 10SM CLR 22/07 A2992 1080 36 2200 150/13 RMK AO2 SLP130 T02220067
94908KDBQ DBQ20050517165511105/17/05 16:55:31  5-MIN KDBQ 172255Z 15011KT 10SM CLR 22/07 A2991 1080 36 2200 150/11 RMK AO2 SLP130 T02220067
94908KDBQ DBQ20050517170009405/17/05 17:00:31  5-MIN KDBQ 172300Z 15013KT 10SM CLR 22/07 A2991 1080 37 2100 150/13 RMK AO2
94908KDBQ DBQ20050517170509405/17/05 17:05:31  5-MIN KDBQ 172305Z 15010KT 10SM CLR 22/07 A2991 1090 37 2100 150/10 RMK AO2
94908KDBQ DBQ20050517171009405/17/05 17:10:31  5-MIN KDBQ 172310Z 15012KT 10SM CLR 22/06 A2991 1090 36 2200 150/12 RMK AO2
94908KDBQ DBQ20050517171509405/17/05 17:15:31  5-MIN KDBQ 172315Z 15010KT 10SM CLR 22/07 A2991 1090 37 2100 150/10 RMK AO2
94908KDBQ DBQ20050517172009405/17/05 17:20:31  5-MIN KDBQ 172320Z 15010KT 10SM CLR 21/07 A2991 1090 40 2100 150/10 RMK AO2
94908KDBQ DBQ20050517172509405/17/05 17:25:31  5-MIN KDBQ 172325Z 15011KT 10SM CLR 21/07 A2991 1090 38 2100 150/11 RMK AO2
94908KDBQ DBQ20050517173009405/17/05 17:30:31  5-MIN KDBQ 172330Z 15009KT 10SM CLR 21/06 A2991 1090 37 2100 150/09 RMK AO2
94908KDBQ DBQ20050517173509405/17/05 17:35:31  5-MIN KDBQ 172335Z 15009KT 10SM CLR 21/07 A2991 1080 38 2100 150/09 RMK AO2
94908KDBQ DBQ20050517174009405/17/05 17:40:31  5-MIN KDBQ 172340Z 15009KT 10SM CLR 21/07 A2991 1090 38 2100 150/09 RMK AO2
94908KDBQ DBQ20050517174509405/17/05 17:45:31  5-MIN KDBQ 172345Z 15009KT 10SM CLR 21/07 A2991 1090 41 2000 150/09 RMK AO2
94908KDBQ DBQ20050517175012905/17/05 17:50:31  5-MIN KDBQ 172350Z 15009KT 10SM CLR 21/07 A2991 1080 38 2100 150/09 RMK AO2 SLP130 T02110067 10228 20200 56010
94908KDBQ DBQ20050517175512905/17/05 17:55:31  5-MIN KDBQ 172355Z 16009KT 10SM CLR 21/07 A2991 1090 40 2000 160/09 RMK AO2 SLP128 T02060067 10228 20200 56008
94908KDBQ DBQ20050517180009405/17/05 18:00:31  5-MIN KDBQ 180000Z 15009KT 10SM CLR 21/07 A2991 1090 40 2000 150/09 RMK AO2
94908KDBQ DBQ20050517180509405/17/05 18:05:31  5-MIN KDBQ 180005Z 15009KT 10SM CLR 21/07 A2991 1090 41 2000 150/09 RMK AO2
94908KDBQ DBQ20050517181009405/17/05 18:10:31  5-MIN KDBQ 180010Z 15008KT 10SM CLR 21/07 A2991 1090 41 2000 150/08 RMK AO2
94908KDBQ DBQ20050517181509405/17/05 18:15:31  5-MIN KDBQ 180015Z 15008KT 10SM CLR 21/07 A2991 1090 41 2000 150/08 RMK AO2
94908KDBQ DBQ20050517182009405/17/05 18:20:31  5-MIN KDBQ 180020Z 15008KT 10SM CLR 21/08 A2991 1090 43 2000 150/08 RMK AO2
94908KDBQ DBQ20050517182509405/17/05 18:25:31  5-MIN KDBQ 180025Z 15007KT 10SM CLR 21/08 A2991 1090 45 2000 150/07 RMK AO2
94908KDBQ DBQ20050517183009405/17/05 18:30:31  5-MIN KDBQ 180030Z 15007KT 10SM CLR 21/08 A2991 1090 43 2000 150/07 RMK AO2
94908KDBQ DBQ20050517183510505/17/05 18:35:31  5-MIN KDBQ 180035Z AUTO 15007KT 10SM CLR 21/08 A2991  1090 45 2000 150/07 RMK AO2 TSNO
94908KDBQ DBQ20050517184010505/17/05 18:40:31  5-MIN KDBQ 180040Z AUTO 14007KT 10SM CLR 20/09 A2991  1090 48 2000 140/07 RMK AO2 TSNO
94908KDBQ DBQ20050517184510505/17/05 18:45:31  5-MIN KDBQ 180045Z AUTO 14007KT 10SM CLR 20/08 A2991  1090 46 2000 140/07 RMK AO2 TSNO
94908KDBQ DBQ20050517185012205/17/05 18:50:31  5-MIN KDBQ 180050Z AUTO 14007KT 10SM CLR 19/08 A2990  1090 48 1900 140/07 RMK AO2 SLP127 T01940083 TSNO
94908KDBQ DBQ20050517185512205/17/05 18:55:31  5-MIN KDBQ 180055Z AUTO 14008KT 10SM CLR 19/09 A2990  1090 50 1900 140/08 RMK AO2 SLP126 T01940089 TSNO
94908KDBQ DBQ20050517190010505/17/05 19:00:31  5-MIN KDBQ 180100Z AUTO 14008KT 10SM CLR 19/08 A2990  1090 50 1800 140/08 RMK AO2 TSNO
94908KDBQ DBQ20050517190510505/17/05 19:05:31  5-MIN KDBQ 180105Z AUTO 14007KT 10SM CLR 19/08 A2990  1090 50 1800 140/07 RMK AO2 TSNO
94908KDBQ DBQ20050517191010505/17/05 19:10:31  5-MIN KDBQ 180110Z AUTO 14008KT 10SM CLR 18/08 A2989  1100 52 1800 140/08 RMK AO2 TSNO
94908KDBQ DBQ20050517191510505/17/05 19:15:31  5-MIN KDBQ 180115Z AUTO 14008KT 10SM CLR 18/08 A2990  1100 52 1800 140/08 RMK AO2 TSNO
94908KDBQ DBQ20050517192010505/17/05 19:20:31  5-MIN KDBQ 180120Z AUTO 15008KT 10SM CLR 18/08 A2989  1110 52 1800 150/08 RMK AO2 TSNO
94908KDBQ DBQ20050517192510505/17/05 19:25:31  5-MIN KDBQ 180125Z AUTO 15008KT 10SM CLR 18/08 A2990  1100 51 1700 150/08 RMK AO2 TSNO
94908KDBQ DBQ20050517193010505/17/05 19:30:31  5-MIN KDBQ 180130Z AUTO 15008KT 10SM CLR 18/08 A2989  1110 51 1700 150/08 RMK AO2 TSNO
94908KDBQ DBQ20050517193510505/17/05 19:35:31  5-MIN KDBQ 180135Z AUTO 15008KT 10SM CLR 18/08 A2990  1100 51 1700 150/08 RMK AO2 TSNO
94908KDBQ DBQ20050517194010505/17/05 19:40:31  5-MIN KDBQ 180140Z AUTO 15008KT 10SM CLR 17/08 A2989  1110 53 1700 150/08 RMK AO2 TSNO
94908KDBQ DBQ20050517194510505/17/05 19:45:31  5-MIN KDBQ 180145Z AUTO 14007KT 10SM CLR 17/08 A2989  1110 53 1700 140/07 RMK AO2 TSNO
94908KDBQ DBQ20050517195012205/17/05 19:50:31  5-MIN KDBQ 180150Z AUTO 14008KT 10SM CLR 17/08 A2990  1090 53 1600 140/08 RMK AO2 SLP126 T01720078 TSNO
94908KDBQ DBQ20050517195512205/17/05 19:55:31  5-MIN KDBQ 180155Z AUTO 14008KT 10SM CLR 17/08 A2989  1100 53 1700 140/08 RMK AO2 SLP123 T01720078 TSNO
94908KDBQ DBQ20050517200010505/17/05 20:00:31  5-MIN KDBQ 180200Z AUTO 14008KT 10SM CLR 17/07 A2991  1090 51 1600 140/08 RMK AO2 TSNO
94908KDBQ DBQ20050517200510505/17/05 20:05:31  5-MIN KDBQ 180205Z AUTO 14007KT 10SM CLR 17/07 A2990  1100 51 1600 140/07 RMK AO2 TSNO
94908KDBQ DBQ20050517201010505/17/05 20:10:31  5-MIN KDBQ 180210Z AUTO 14008KT 10SM CLR 17/07 A2990  1090 51 1600 140/08 RMK AO2 TSNO
94908KDBQ DBQ20050517201510505/17/05 20:15:31  5-MIN KDBQ 180215Z AUTO 14008KT 10SM CLR 17/07 A2990  1090 51 1600 140/08 RMK AO2 TSNO
94908KDBQ DBQ20050517202010505/17/05 20:20:31  5-MIN KDBQ 180220Z AUTO 14007KT 10SM CLR 17/07 A2991  1090 53 1600 140/07 RMK AO2 TSNO
94908KDBQ DBQ20050517202510505/17/05 20:25:31  5-MIN KDBQ 180225Z AUTO 14008KT 10SM CLR 17/07 A2991  1090 53 1600 140/08 RMK AO2 TSNO
94908KDBQ DBQ20050517203010505/17/05 20:30:31  5-MIN KDBQ 180230Z AUTO 14007KT 10SM CLR 17/07 A2991  1090 51 1600 140/07 RMK AO2 TSNO
94908KDBQ DBQ20050517203510505/17/05 20:35:31  5-MIN KDBQ 180235Z AUTO 14008KT 10SM CLR 17/07 A2991  1090 53 1600 140/08 RMK AO2 TSNO
94908KDBQ DBQ20050517204010505/17/05 20:40:31  5-MIN KDBQ 180240Z AUTO 15007KT 10SM CLR 17/07 A2992  1080 53 1600 150/07 RMK AO2 TSNO
94908KDBQ DBQ20050517204510505/17/05 20:45:31  5-MIN KDBQ 180245Z AUTO 15007KT 10SM CLR 17/07 A2991  1090 53 1600 140/07 RMK AO2 TSNO
94908KDBQ DBQ20050517205012805/17/05 20:50:31  5-MIN KDBQ 180250Z AUTO 14008KT 10SM CLR 17/07 A2991  1090 53 1600 140/08 RMK AO2 SLP128 T01670072 56008 TSNO
94908KDBQ DBQ20050517205512805/17/05 20:55:31  5-MIN KDBQ 180255Z AUTO 14008KT 10SM CLR 17/07 A2992  1080 51 1600 140/08 RMK AO2 SLP132 T01670067 53004 TSNO
94908KDBQ DBQ20050517210010505/17/05 21:00:31  5-MIN KDBQ 180300Z AUTO 14008KT 10SM CLR 17/07 A2992  1080 51 1600 140/08 RMK AO2 TSNO
94908KDBQ DBQ20050517210510505/17/05 21:05:31  5-MIN KDBQ 180305Z AUTO 14008KT 10SM CLR 17/07 A2992  1080 51 1600 140/08 RMK AO2 TSNO
94908KDBQ DBQ20050517211010505/17/05 21:10:31  5-MIN KDBQ 180310Z AUTO 15007KT 10SM CLR 16/07 A2993  1070 55 1500 150/07 RMK AO2 TSNO
94908KDBQ DBQ20050517211510505/17/05 21:15:31  5-MIN KDBQ 180315Z AUTO 15007KT 10SM CLR 16/07 A2992  1080 55 1500 150/07 RMK AO2 TSNO
94908KDBQ DBQ20050517212010505/17/05 21:20:31  5-MIN KDBQ 180320Z AUTO 15007KT 10SM CLR 16/07 A2992  1080 55 1500 150/07 RMK AO2 TSNO
94908KDBQ DBQ20050517212510505/17/05 21:25:31  5-MIN KDBQ 180325Z AUTO 16008KT 10SM CLR 17/07 A2993  1070 51 1600 160/08 RMK AO2 TSNO
94908KDBQ DBQ20050517213010505/17/05 21:30:31  5-MIN KDBQ 180330Z AUTO 16009KT 10SM CLR 17/07 A2992  1080 49 1600 160/09 RMK AO2 TSNO
94908KDBQ DBQ20050517213510505/17/05 21:35:31  5-MIN KDBQ 180335Z AUTO 16009KT 10SM CLR 17/07 A2992  1080 49 1600 160/09 RMK AO2 TSNO
94908KDBQ DBQ20050517214010505/17/05 21:40:31  5-MIN KDBQ 180340Z AUTO 16009KT 10SM CLR 17/06 A2993  1070 49 1600 160/09 RMK AO2 TSNO
94908KDBQ DBQ20050517214510505/17/05 21:45:31  5-MIN KDBQ 180345Z AUTO 16009KT 10SM CLR 17/06 A2992  1080 49 1600 160/09 RMK AO2 TSNO
94908KDBQ DBQ20050517215012205/17/05 21:50:31  5-MIN KDBQ 180350Z AUTO 16009KT 10SM CLR 17/06 A2992  1080 49 1600 160/09 RMK AO2 SLP131 T01670061 TSNO
94908KDBQ DBQ20050517215512205/17/05 21:55:31  5-MIN KDBQ 180355Z AUTO 16009KT 10SM CLR 17/06 A2993  1070 49 1600 160/09 RMK AO2 SLP133 T01670061 TSNO
94908KDBQ DBQ20050517220010505/17/05 22:00:31  5-MIN KDBQ 180400Z AUTO 16009KT 10SM CLR 17/06 A2992  1070 49 1600 160/09 RMK AO2 TSNO
94908KDBQ DBQ20050517220510505/17/05 22:05:31  5-MIN KDBQ 180405Z AUTO 16009KT 10SM CLR 16/06 A2992  1070 51 1500 160/09 RMK AO2 TSNO
94908KDBQ DBQ20050517221010505/17/05 22:10:31  5-MIN KDBQ 180410Z AUTO 16010KT 10SM CLR 16/06 A2992  1080 51 1500 150/10 RMK AO2 TSNO
94908KDBQ DBQ20050517221510505/17/05 22:15:31  5-MIN KDBQ 180415Z AUTO 15009KT 10SM CLR 15/06 A2993  1070 55 1400 150/09 RMK AO2 TSNO
94908KDBQ DBQ20050517222010505/17/05 22:20:31  5-MIN KDBQ 180420Z AUTO 15010KT 10SM CLR 15/06 A2992  1080 55 1400 150/10 RMK AO2 TSNO
94908KDBQ DBQ20050517222510505/17/05 22:25:31  5-MIN KDBQ 180425Z AUTO 16010KT 10SM CLR 16/06 A2992  1070 53 1400 150/10 RMK AO2 TSNO
94908KDBQ DBQ20050517223010505/17/05 22:30:31  5-MIN KDBQ 180430Z AUTO 16010KT 10SM CLR 16/06 A2994  1060 51 1400 160/10 RMK AO2 TSNO
94908KDBQ DBQ20050517223510505/17/05 22:35:31  5-MIN KDBQ 180435Z AUTO 16010KT 10SM CLR 16/06 A2992  1080 49 1500 160/10 RMK AO2 TSNO
94908KDBQ DBQ20050517224010505/17/05 22:40:31  5-MIN KDBQ 180440Z AUTO 16011KT 10SM CLR 16/06 A2992  1070 49 1500 160/11 RMK AO2 TSNO
94908KDBQ DBQ20050517224510505/17/05 22:45:31  5-MIN KDBQ 180445Z AUTO 16010KT 10SM CLR 16/06 A2992  1070 51 1400 160/10 RMK AO2 TSNO
94908KDBQ DBQ20050517225012205/17/05 22:50:31  5-MIN KDBQ 180450Z AUTO 16011KT 10SM CLR 16/06 A2994  1060 51 1400 160/11 RMK AO2 SLP136 T01560056 TSNO
94908KDBQ DBQ20050517225512205/17/05 22:55:31  5-MIN KDBQ 180455Z AUTO 16012KT 10SM CLR 16/06 A2992  1070 51 1400 160/12 RMK AO2 SLP132 T01560056 TSNO
94908KDBQ DBQ20050517230010505/17/05 23:00:31  5-MIN KDBQ 180500Z AUTO 16011KT 10SM CLR 16/06 A2992  1080 51 1400 160/11 RMK AO2 TSNO
94908KDBQ DBQ20050517230510505/17/05 23:05:31  5-MIN KDBQ 180505Z AUTO 16011KT 10SM CLR 16/06 A2992  1080 51 1400 160/11 RMK AO2 TSNO
94908KDBQ DBQ20050517231010505/17/05 23:10:31  5-MIN KDBQ 180510Z AUTO 16011KT 10SM CLR 15/06 A2993  1070 53 1400 160/11 RMK AO2 TSNO
94908KDBQ DBQ20050517231510505/17/05 23:15:31  5-MIN KDBQ 180515Z AUTO 16011KT 10SM CLR 15/06 A2992  1080 53 1400 160/11 RMK AO2 TSNO
94908KDBQ DBQ20050517232010505/17/05 23:20:31  5-MIN KDBQ 180520Z AUTO 16010KT 10SM CLR 16/06 A2992  1080 51 1400 160/10 RMK AO2 TSNO
94908KDBQ DBQ20050517232510505/17/05 23:25:31  5-MIN KDBQ 180525Z AUTO 16011KT 10SM CLR 16/06 A2992  1080 53 1400 160/11 RMK AO2 TSNO
94908KDBQ DBQ20050517233010505/17/05 23:30:31  5-MIN KDBQ 180530Z AUTO 16011KT 10SM CLR 15/06 A2992  1080 55 1400 160/11 RMK AO2 TSNO
94908KDBQ DBQ20050517233510505/17/05 23:35:31  5-MIN KDBQ 180535Z AUTO 16011KT 10SM CLR 16/06 A2992  1070 53 1400 160/11 RMK AO2 TSNO
94908KDBQ DBQ20050517234010505/17/05 23:40:31  5-MIN KDBQ 180540Z AUTO 16010KT 10SM CLR 16/06 A2992  1070 53 1400 160/10 RMK AO2 TSNO
94908KDBQ DBQ20050517234510505/17/05 23:45:31  5-MIN KDBQ 180545Z AUTO 16011KT 10SM CLR 16/06 A2993  1070 53 1400 150/11 RMK AO2 TSNO
94908KDBQ DBQ20050517235015105/17/05 23:50:31  5-MIN KDBQ 180550Z AUTO 16011KT 10SM CLR 16/06 A2993  1070 53 1400 160/11 RMK AO2 SLP131 T01560061 10206 20150 402280078 53004  TSNO
94908KDBQ DBQ20050517235515105/17/05 23:55:31  5-MIN KDBQ 180555Z AUTO 16011KT 10SM CLR 16/06 A2993  1070 53 1400 160/11 RMK AO2 SLP132 T01560061 10206 20150 402280078 52002  TSNO
94908KDBQ DBQ20050518000010505/18/05 00:00:38  5-MIN KDBQ 180600Z AUTO 16012KT 10SM CLR 16/06 A2993  1070 53 1400 150/12 RMK AO2 TSNO
94908KDBQ DBQ20050518000510505/18/05 00:05:31  5-MIN KDBQ 180605Z AUTO 16011KT 10SM CLR 15/06 A2993  1070 55 1400 160/11 RMK AO2 TSNO
94908KDBQ DBQ20050518001010505/18/05 00:10:31  5-MIN KDBQ 180610Z AUTO 16011KT 10SM CLR 15/06 A2993  1070 55 1400 160/11 RMK AO2 TSNO
94908KDBQ DBQ20050518001510505/18/05 00:15:31  5-MIN KDBQ 180615Z AUTO 16012KT 10SM CLR 15/06 A2993  1070 55 1400 160/12 RMK AO2 TSNO
94908KDBQ DBQ20050518002010505/18/05 00:20:31  5-MIN KDBQ 180620Z AUTO 16011KT 10SM CLR 15/06 A2993  1070 55 1400 160/11 RMK AO2 TSNO
94908KDBQ DBQ20050518002510505/18/05 00:25:31  5-MIN KDBQ 180625Z AUTO 16011KT 10SM CLR 15/06 A2993  1070 55 1400 160/11 RMK AO2 TSNO
94908KDBQ DBQ20050518003010505/18/05 00:30:31  5-MIN KDBQ 180630Z AUTO 16011KT 10SM CLR 15/06 A2993  1070 55 1400 160/11 RMK AO2 TSNO
94908KDBQ DBQ20050518003510505/18/05 00:35:31  5-MIN KDBQ 180635Z AUTO 15011KT 10SM CLR 15/06 A2993  1070 55 1400 150/11 RMK AO2 TSNO
94908KDBQ DBQ20050518004010505/18/05 00:40:31  5-MIN KDBQ 180640Z AUTO 15011KT 10SM CLR 15/07 A2993  1070 57 1400 150/11 RMK AO2 TSNO
94908KDBQ DBQ20050518004510505/18/05 00:45:31  5-MIN KDBQ 180645Z AUTO 16012KT 10SM CLR 15/07 A2993  1070 57 1400 150/12 RMK AO2 TSNO
94908KDBQ DBQ20050518005012205/18/05 00:50:31  5-MIN KDBQ 180650Z AUTO 16012KT 10SM CLR 15/07 A2993  1070 57 1400 160/12 RMK AO2 SLP133 T01500067 TSNO
94908KDBQ DBQ20050518005512205/18/05 00:55:31  5-MIN KDBQ 180655Z AUTO 16010KT 10SM CLR 15/07 A2993  1070 57 1400 160/10 RMK AO2 SLP133 T01500067 TSNO
94908KDBQ DBQ20050518010010505/18/05 01:00:31  5-MIN KDBQ 180700Z AUTO 16011KT 10SM CLR 15/07 A2994  1060 57 1400 160/11 RMK AO2 TSNO
94908KDBQ DBQ20050518010510505/18/05 01:05:31  5-MIN KDBQ 180705Z AUTO 16010KT 10SM CLR 15/07 A2994  1060 57 1300 160/10 RMK AO2 TSNO
94908KDBQ DBQ20050518011010505/18/05 01:10:31  5-MIN KDBQ 180710Z AUTO 16010KT 10SM CLR 14/07 A2994  1060 59 1300 160/10 RMK AO2 TSNO
94908KDBQ DBQ20050518011510505/18/05 01:15:31  5-MIN KDBQ 180715Z AUTO 16010KT 10SM CLR 14/07 A2994  1060 59 1300 160/10 RMK AO2 TSNO
94908KDBQ DBQ20050518012010505/18/05 01:20:31  5-MIN KDBQ 180720Z AUTO 17010KT 10SM CLR 14/07 A2994  1060 61 1300 160/10 RMK AO2 TSNO
94908KDBQ DBQ20050518012510505/18/05 01:25:31  5-MIN KDBQ 180725Z AUTO 17010KT 10SM CLR 14/07 A2994  1060 64 1200 160/10 RMK AO2 TSNO
94908KDBQ DBQ20050518013010505/18/05 01:30:31  5-MIN KDBQ 180730Z AUTO 17009KT 10SM CLR 14/07 A2994  1060 64 1200 170/09 RMK AO2 TSNO
94908KDBQ DBQ20050518013510505/18/05 01:35:31  5-MIN KDBQ 180735Z AUTO 16009KT 10SM CLR 14/07 A2994  1060 64 1200 160/09 RMK AO2 TSNO
94908KDBQ DBQ20050518014010505/18/05 01:40:31  5-MIN KDBQ 180740Z AUTO 16010KT 10SM CLR 14/07 A2994  1060 64 1200 160/10 RMK AO2 TSNO
94908KDBQ DBQ20050518014510505/18/05 01:45:31  5-MIN KDBQ 180745Z AUTO 16010KT 10SM CLR 14/07 A2994  1060 64 1200 160/10 RMK AO2 TSNO
94908KDBQ DBQ20050518015012205/18/05 01:50:31  5-MIN KDBQ 180750Z AUTO 16010KT 10SM CLR 14/07 A2995  1050 64 1200 160/10 RMK AO2 SLP138 T01390072 TSNO
94908KDBQ DBQ20050518015512205/18/05 01:55:31  5-MIN KDBQ 180755Z AUTO 16011KT 10SM CLR 14/07 A2994  1060 64 1200 160/11 RMK AO2 SLP136 T01390072 TSNO
94908KDBQ DBQ20050518020010505/18/05 02:00:31  5-MIN KDBQ 180800Z AUTO 16010KT 10SM CLR 14/07 A2994  1060 64 1200 160/10 RMK AO2 TSNO
94908KDBQ DBQ20050518020510505/18/05 02:05:31  5-MIN KDBQ 180805Z AUTO 16010KT 10SM CLR 14/07 A2995  1060 64 1200 160/10 RMK AO2 TSNO
94908KDBQ DBQ20050518021010505/18/05 02:10:31  5-MIN KDBQ 180810Z AUTO 16011KT 10SM CLR 14/07 A2994  1060 61 1300 160/11 RMK AO2 TSNO
94908KDBQ DBQ20050518021510505/18/05 02:15:31  5-MIN KDBQ 180815Z AUTO 16011KT 10SM CLR 14/07 A2994  1060 61 1300 160/11 RMK AO2 TSNO
94908KDBQ DBQ20050518022010505/18/05 02:20:31  5-MIN KDBQ 180820Z AUTO 16010KT 10SM CLR 14/07 A2994  1060 61 1300 160/10 RMK AO2 TSNO
94908KDBQ DBQ20050518022510505/18/05 02:25:31  5-MIN KDBQ 180825Z AUTO 15010KT 10SM CLR 14/08 A2994  1060 66 1200 150/10 RMK AO2 TSNO
94908KDBQ DBQ20050518023010505/18/05 02:30:31  5-MIN KDBQ 180830Z AUTO 15010KT 10SM CLR 14/07 A2994  1060 64 1200 150/10 RMK AO2 TSNO
94908KDBQ DBQ20050518023510505/18/05 02:35:31  5-MIN KDBQ 180835Z AUTO 15010KT 10SM CLR 14/07 A2994  1060 61 1300 150/10 RMK AO2 TSNO
94908KDBQ DBQ20050518024010505/18/05 02:40:31  5-MIN KDBQ 180840Z AUTO 15010KT 10SM CLR 14/08 A2994  1060 64 1300 150/10 RMK AO2 TSNO
94908KDBQ DBQ20050518024510505/18/05 02:45:31  5-MIN KDBQ 180845Z AUTO 15010KT 10SM CLR 14/08 A2994  1060 66 1200 150/10 RMK AO2 TSNO
94908KDBQ DBQ20050518025012805/18/05 02:50:31  5-MIN KDBQ 180850Z AUTO 14011KT 10SM CLR 14/08 A2994  1060 66 1200 140/11 RMK AO2 SLP135 T01390078 52002 TSNO
94908KDBQ DBQ20050518025512805/18/05 02:55:31  5-MIN KDBQ 180855Z AUTO 14010KT 10SM CLR 13/08 A2994  1060 69 1100 140/10 RMK AO2 SLP136 T01330078 50004 TSNO
94908KDBQ DBQ20050518030010505/18/05 03:00:31  5-MIN KDBQ 180900Z AUTO 14011KT 10SM CLR 13/08 A2993  1070 69 1200 140/11 RMK AO2 TSNO
94908KDBQ DBQ20050518030510305/18/05 03:05:31  5-MIN KDBQ 180905Z AUTO 14011KT 9SM CLR 13/08 A2993 1070 69 1200 140/11 RMK AO2 TSNO
94908KDBQ DBQ20050518031010305/18/05 03:10:31  5-MIN KDBQ 180910Z AUTO 14011KT 9SM CLR 13/08 A2993 1070 69 1200 140/11 RMK AO2 TSNO
94908KDBQ DBQ20050518031510305/18/05 03:15:31  5-MIN KDBQ 180915Z AUTO 14011KT 9SM CLR 13/08 A2993 1070 69 1200 140/11 RMK AO2 TSNO
94908KDBQ DBQ20050518032010305/18/05 03:20:31  5-MIN KDBQ 180920Z AUTO 14012KT 9SM CLR 13/08 A2993 1070 69 1200 140/12 RMK AO2 TSNO
94908KDBQ DBQ20050518032510305/18/05 03:25:31  5-MIN KDBQ 180925Z AUTO 14011KT 9SM CLR 14/08 A2993 1070 66 1200 140/11 RMK AO2 TSNO
94908KDBQ DBQ20050518033010305/18/05 03:30:31  5-MIN KDBQ 180930Z AUTO 14011KT 9SM CLR 14/08 A2994 1060 66 1200 140/11 RMK AO2 TSNO
94908KDBQ DBQ20050518033510305/18/05 03:35:31  5-MIN KDBQ 180935Z AUTO 14010KT 9SM CLR 14/08 A2993 1070 66 1200 140/10 RMK AO2 TSNO
94908KDBQ DBQ20050518034010305/18/05 03:40:31  5-MIN KDBQ 180940Z AUTO 15010KT 9SM CLR 14/08 A2994 1060 66 1200 150/10 RMK AO2 TSNO
94908KDBQ DBQ20050518034510305/18/05 03:45:31  5-MIN KDBQ 180945Z AUTO 15011KT 9SM CLR 14/08 A2993 1070 66 1200 150/11 RMK AO2 TSNO
94908KDBQ DBQ20050518035012205/18/05 03:50:31  5-MIN KDBQ 180950Z AUTO 15011KT 10SM CLR 14/08 A2993  1070 64 1300 150/11 RMK AO2 SLP133 T01440078 TSNO
94908KDBQ DBQ20050518035512405/18/05 03:55:31  5-MIN KDBQ 180955Z AUTO 15011KT 10SM FEW110 14/08 A2993 1070 66 1200 150/11 RMK AO2 SLP133 T01390078 TSNO
94908KDBQ DBQ20050518040010705/18/05 04:00:31  5-MIN KDBQ 181000Z AUTO 15011KT 9SM FEW110 14/08 A2993  1070 66 1200 140/11 RMK AO2 TSNO
94908KDBQ DBQ20050518040510705/18/05 04:05:31  5-MIN KDBQ 181005Z AUTO 15011KT 9SM FEW110 14/08 A2994  1060 66 1200 150/11 RMK AO2 TSNO
94908KDBQ DBQ20050518041010705/18/05 04:10:31  5-MIN KDBQ 181010Z AUTO 15012KT 9SM SCT110 14/08 A2995  1050 66 1200 150/12 RMK AO2 TSNO
94908KDBQ DBQ20050518041510705/18/05 04:15:31  5-MIN KDBQ 181015Z AUTO 15012KT 10SM BKN110 14/08 A2995 1050 66 1200 150/12 RMK AO2 TSNO
94908KDBQ DBQ20050518042010705/18/05 04:20:31  5-MIN KDBQ 181020Z AUTO 16010KT 9SM BKN110 14/08 A2995  1050 66 1200 160/10 RMK AO2 TSNO
94908KDBQ DBQ20050518042510705/18/05 04:25:31  5-MIN KDBQ 181025Z AUTO 16012KT 9SM BKN110 14/08 A2995  1050 66 1200 160/12 RMK AO2 TSNO
94908KDBQ DBQ20050518043010705/18/05 04:30:31  5-MIN KDBQ 181030Z AUTO 15011KT 9SM BKN110 14/08 A2995  1050 66 1200 150/11 RMK AO2 TSNO
94908KDBQ DBQ20050518043510705/18/05 04:35:31  5-MIN KDBQ 181035Z AUTO 15012KT 9SM SCT110 14/08 A2995  1050 66 1200 150/12 RMK AO2 TSNO
94908KDBQ DBQ20050518044010705/18/05 04:40:31  5-MIN KDBQ 181040Z AUTO 15011KT 9SM FEW110 14/08 A2995  1050 66 1200 150/11 RMK AO2 TSNO
94908KDBQ DBQ20050518044510705/18/05 04:45:31  5-MIN KDBQ 181045Z AUTO 16011KT 9SM FEW110 14/08 A2995  1050 66 1200 160/11 RMK AO2 TSNO
94908KDBQ DBQ20050518045012405/18/05 04:50:31  5-MIN KDBQ 181050Z AUTO 15011KT 9SM SCT120 13/08 A2995  1050 69 1100 150/11 RMK AO2 SLP140 T01330078 TSNO
94908KDBQ DBQ20050518045511405/18/05 04:55:31  5-MIN KDBQ 181055Z 15013KT 8SM SCT120 14/08 A2995 1050  66 1200 150/13 RMK AO2 SLP139 T01390078
94908KDBQ DBQ20050518050009705/18/05 05:00:31  5-MIN KDBQ 181100Z 15012KT 8SM SCT120 14/08 A2995 1050  66 1200 150/12 RMK AO2
94908KDBQ DBQ20050518050509705/18/05 05:05:31  5-MIN KDBQ 181105Z 15011KT 9SM SCT120 14/08 A2995 1050  66 1200 150/11 RMK AO2
94908KDBQ DBQ20050518051009705/18/05 05:10:31  5-MIN KDBQ 181110Z 15012KT 9SM SCT120 14/08 A2995 1050  66 1200 150/12 RMK AO2
94908KDBQ DBQ20050518051509705/18/05 05:15:31  5-MIN KDBQ 181115Z 15011KT 9SM FEW120 14/08 A2996 1050  66 1200 150/11 RMK AO2
94908KDBQ DBQ20050518052009705/18/05 05:20:31  5-MIN KDBQ 181120Z 15012KT 9SM SCT110 14/08 A2996 1040  66 1200 150/12 RMK AO2
94908KDBQ DBQ20050518052509705/18/05 05:25:31  5-MIN KDBQ 181125Z 15011KT 9SM SCT110 14/08 A2996 1050  66 1200 150/11 RMK AO2
94908KDBQ DBQ20050518053009705/18/05 05:30:31  5-MIN KDBQ 181130Z 15013KT 9SM BKN110 14/08 A2996 1040  66 1200 150/13 RMK AO2
94908KDBQ DBQ20050518053509705/18/05 05:35:31  5-MIN KDBQ 181135Z 15013KT 9SM BKN110 14/08 A2995 1050  69 1200 140/13 RMK AO2
94908KDBQ DBQ20050518054009705/18/05 05:40:31  5-MIN KDBQ 181140Z 14012KT 9SM BKN110 14/08 A2995 1050  69 1200 140/12 RMK AO2
94908KDBQ DBQ20050518054509705/18/05 05:45:31  5-MIN KDBQ 181145Z 15012KT 9SM OVC100 14/08 A2995 1050  69 1200 150/12 RMK AO2
94908KDBQ DBQ20050518055013205/18/05 05:50:31  5-MIN KDBQ 181150Z 15013KT 9SM OVC100 14/08 A2995 1050  69 1200 150/13 RMK AO2 SLP140 T01390083 10156 20133 50004
94908KDBQ DBQ20050518055513205/18/05 05:55:31  5-MIN KDBQ 181155Z 15013KT 9SM OVC100 14/08 A2995 1050  66 1300 140/13 RMK AO2 SLP139 T01440083 10156 20133 53003
94908KDBQ DBQ20050518060009705/18/05 06:00:31  5-MIN KDBQ 181200Z 15012KT 9SM OVC110 14/08 A2995 1050  66 1300 140/12 RMK AO2
94908KDBQ DBQ20050518060509705/18/05 06:05:31  5-MIN KDBQ 181205Z 14013KT 9SM BKN100 14/08 A2994 1060  69 1200 140/13 RMK AO2
94908KDBQ DBQ20050518061009705/18/05 06:10:31  5-MIN KDBQ 181210Z 15014KT 9SM BKN110 14/08 A2994 1060  69 1200 150/14 RMK AO2
94908KDBQ DBQ20050518061509705/18/05 06:15:31  5-MIN KDBQ 181215Z 15013KT 9SM BKN110 14/08 A2994 1060  66 1300 150/13 RMK AO2
94908KDBQ DBQ20050518062009705/18/05 06:20:31  5-MIN KDBQ 181220Z 15012KT 9SM SCT110 14/08 A2994 1060  66 1300 150/12 RMK AO2
94908KDBQ DBQ20050518062509705/18/05 06:25:31  5-MIN KDBQ 181225Z 15014KT 9SM FEW110 14/08 A2994 1060  66 1300 150/14 RMK AO2
94908KDBQ DBQ20050518063009705/18/05 06:30:31  5-MIN KDBQ 181230Z 15014KT 9SM FEW110 14/08 A2994 1060  66 1300 150/14 RMK AO2
94908KDBQ DBQ20050518063509405/18/05 06:35:31  5-MIN KDBQ 181235Z 15015KT 9SM CLR 14/08 A2994 1060 66  1300 150/15 RMK AO2
94908KDBQ DBQ20050518064009405/18/05 06:40:31  5-MIN KDBQ 181240Z 15013KT 9SM CLR 15/09 A2994 1060 66  1300 150/13 RMK AO2
94908KDBQ DBQ20050518064509405/18/05 06:45:31  5-MIN KDBQ 181245Z 14015KT 10SM CLR 15/09 A2994 1060 66 1400 140/15 RMK AO2
94908KDBQ DBQ20050518065011105/18/05 06:50:31  5-MIN KDBQ 181250Z 15013KT 10SM CLR 16/09 A2994 1060 64 1400 150/13 RMK AO2 SLP134 T01560089
94908KDBQ DBQ20050518065511105/18/05 06:55:31  5-MIN KDBQ 181255Z 15015KT 10SM CLR 16/09 A2994 1060 64 1400 150/15 RMK AO2 SLP135 T01560089
94908KDBQ DBQ20050518070009405/18/05 07:00:31  5-MIN KDBQ 181300Z 15013KT 10SM CLR 16/09 A2994 1060 64 1400 150/13 RMK AO2
94908KDBQ DBQ20050518070509405/18/05 07:05:31  5-MIN KDBQ 181305Z 15015KT 10SM CLR 16/09 A2994 1060 64 1400 150/15 RMK AO2
94908KDBQ DBQ20050518071009405/18/05 07:10:31  5-MIN KDBQ 181310Z 15014KT 10SM CLR 16/09 A2994 1060 62 1500 150/14 RMK AO2
94908KDBQ DBQ20050518071509405/18/05 07:15:31  5-MIN KDBQ 181315Z 15013KT 10SM CLR 17/09 A2994 1060 62 1500 150/13 RMK AO2
94908KDBQ DBQ20050518072009405/18/05 07:20:31  5-MIN KDBQ 181320Z 16015KT 10SM CLR 17/09 A2994 1060 62 1500 150/15 RMK AO2
94908KDBQ DBQ20050518072510005/18/05 07:25:31  5-MIN KDBQ 181325Z 15015G19KT 10SM CLR 17/09 A2994 1060 62 1500 150/15G19 RMK AO2
94908KDBQ DBQ20050518073010005/18/05 07:30:31  5-MIN KDBQ 181330Z 15016G20KT 10SM CLR 17/09 A2994 1060 60 1500 150/16G20 RMK AO2
94908KDBQ DBQ20050518073509405/18/05 07:35:31  5-MIN KDBQ 181335Z 15016KT 10SM CLR 17/09 A2994 1060 62 1500 150/16 RMK AO2
94908KDBQ DBQ20050518074009405/18/05 07:40:31  5-MIN KDBQ 181340Z 15017KT 10SM CLR 17/09 A2995 1050 60 1600 150/17 RMK AO2
94908KDBQ DBQ20050518074509405/18/05 07:45:31  5-MIN KDBQ 181345Z 16015KT 10SM CLR 17/09 A2995 1050 60 1600 160/15 RMK AO2
94908KDBQ DBQ20050518075011405/18/05 07:50:31  5-MIN KDBQ 181350Z 15017KT 10SM FEW110 18/09 A2995 1050 58 1700 150/17 RMK AO2 SLP140 T01780094
94908KDBQ DBQ20050518075511405/18/05 07:55:31  5-MIN KDBQ 181355Z 15015KT 10SM FEW110 17/09 A2996 1050 57 1600 150/15 RMK AO2 SLP142 T01720089
94908KDBQ DBQ20050518080009705/18/05 08:00:31  5-MIN KDBQ 181400Z 16011KT 10SM FEW110 17/09 A2996 1040 60 1600 160/11 RMK AO2
94908KDBQ DBQ20050518080509705/18/05 08:05:31  5-MIN KDBQ 181405Z 16013KT 10SM FEW110 17/09 A2996 1040 60 1600 160/13 RMK AO2
94908KDBQ DBQ20050518081009705/18/05 08:10:31  5-MIN KDBQ 181410Z 16011KT 10SM FEW120 17/09 A2996 1040 60 1600 160/11 RMK AO2
94908KDBQ DBQ20050518081509705/18/05 08:15:31  5-MIN KDBQ 181415Z 16013KT 10SM FEW120 17/09 A2996 1040 60 1600 160/13 RMK AO2
94908KDBQ DBQ20050518082009405/18/05 08:20:31  5-MIN KDBQ 181420Z 16015KT 10SM CLR 17/09 A2996 1040 60 1600 160/15 RMK AO2
94908KDBQ DBQ20050518082509405/18/05 08:25:31  5-MIN KDBQ 181425Z 16015KT 10SM CLR 18/09 A2996 1040 58 1700 160/15 RMK AO2
94908KDBQ DBQ20050518083009405/18/05 08:30:31  5-MIN KDBQ 181430Z 16015KT 10SM CLR 18/10 A2996 1040 60 1700 160/15 RMK AO2
94908KDBQ DBQ20050518083509405/18/05 08:35:31  5-MIN KDBQ 181435Z 15015KT 10SM CLR 18/09 A2995 1050 58 1700 150/15 RMK AO2
94908KDBQ DBQ20050518084009705/18/05 08:40:31  5-MIN KDBQ 181440Z 16014KT 10SM FEW090 18/09 A2995 1050 58 1700 160/14 RMK AO2
94908KDBQ DBQ20050518084509405/18/05 08:45:31  5-MIN KDBQ 181445Z 15013KT 10SM CLR 18/09 A2995 1050 58 1700 150/13 RMK AO2
94908KDBQ DBQ20050518085011705/18/05 08:50:31  5-MIN KDBQ 181450Z 15012KT 10SM CLR 18/10 A2995 1050 58 1700 150/12 RMK AO2 SLP139 T01830100 53003
94908KDBQ DBQ20050518085511705/18/05 08:55:31  5-MIN KDBQ 181455Z 15016KT 10SM CLR 18/09 A2995 1050 56 1700 150/16 RMK AO2 SLP139 T01830094 56000
94908KDBQ DBQ20050518090009405/18/05 09:00:31  5-MIN KDBQ 181500Z 15012KT 10SM CLR 18/09 A2995 1050 56 1700 150/12 RMK AO2
94908KDBQ DBQ20050518090509405/18/05 09:05:31  5-MIN KDBQ 181505Z 15013KT 10SM CLR 18/09 A2995 1050 58 1700 150/13 RMK AO2
94908KDBQ DBQ20050518091009405/18/05 09:10:31  5-MIN KDBQ 181510Z 15013KT 10SM CLR 18/09 A2995 1050 58 1700 150/13 RMK AO2
94908KDBQ DBQ20050518091509405/18/05 09:15:31  5-MIN KDBQ 181515Z 15012KT 10SM CLR 18/09 A2995 1050 58 1700 150/12 RMK AO2
94908KDBQ DBQ20050518092009405/18/05 09:20:31  5-MIN KDBQ 181520Z 15012KT 10SM CLR 18/09 A2995 1050 56 1700 150/12 RMK AO2
94908KDBQ DBQ20050518092509405/18/05 09:25:31  5-MIN KDBQ 181525Z 15012KT 10SM CLR 18/09 A2995 1050 56 1700 150/12 RMK AO2
94908KDBQ DBQ20050518093009405/18/05 09:30:31  5-MIN KDBQ 181530Z 15014KT 10SM CLR 19/10 A2995 1050 56 1800 150/14 RMK AO2
94908KDBQ DBQ20050518093509405/18/05 09:35:31  5-MIN KDBQ 181535Z 15012KT 10SM CLR 19/10 A2994 1060 54 1900 140/12 RMK AO2
94908KDBQ DBQ20050518094009405/18/05 09:40:31  5-MIN KDBQ 181540Z 15016KT 10SM CLR 19/10 A2995 1050 54 1900 140/16 RMK AO2
94908KDBQ DBQ20050518094509405/18/05 09:45:31  5-MIN KDBQ 181545Z 14015KT 10SM CLR 19/10 A2994 1060 54 1900 140/15 RMK AO2
94908KDBQ DBQ20050518095011705/18/05 09:50:31  5-MIN KDBQ 181550Z 14016G23KT 10SM CLR 20/10 A2995 1050 52 1900 140/16G23 RMK AO2 SLP138 T02000100
94908KDBQ DBQ20050518095511705/18/05 09:55:31  5-MIN KDBQ 181555Z 15015G23KT 10SM CLR 21/10 A2994 1060 50 2000 150/15G23 RMK AO2 SLP137 T02060100
94908KDBQ DBQ20050518100010005/18/05 10:00:31  5-MIN KDBQ 181600Z 16016G21KT 10SM CLR 20/09 A2995 1060 50 1900 160/16G21 RMK AO2
94908KDBQ DBQ20050518100510005/18/05 10:05:31  5-MIN KDBQ 181605Z 15018G22KT 10SM CLR 21/10 A2995 1060 50 2000 150/18G22 RMK AO2
94908KDBQ DBQ20050518101010005/18/05 10:10:31  5-MIN KDBQ 181610Z 15014G22KT 10SM CLR 21/09 A2994 1060 48 2000 150/14G22 RMK AO2
94908KDBQ DBQ20050518101510005/18/05 10:15:31  5-MIN KDBQ 181615Z 15017G20KT 10SM CLR 21/10 A2994 1060 48 2100 150/17G20 RMK AO2
94908KDBQ DBQ20050518102009405/18/05 10:20:31  5-MIN KDBQ 181620Z 16019KT 10SM CLR 21/09 A2994 1060 47 2100 160/19 RMK AO2
94908KDBQ DBQ20050518102509405/18/05 10:25:31  5-MIN KDBQ 181625Z 15017KT 10SM CLR 21/09 A2994 1060 47 2100 140/17 RMK AO2
94908KDBQ DBQ20050518103009405/18/05 10:30:31  5-MIN KDBQ 181630Z 15019KT 10SM CLR 22/10 A2994 1060 47 2100 140/19 RMK AO2
94908KDBQ DBQ20050518103510005/18/05 10:35:31  5-MIN KDBQ 181635Z 16019G25KT 10SM CLR 22/09 A2993 1070 45 2100 160/19G25 RMK AO2
94908KDBQ DBQ20050518104010005/18/05 10:40:31  5-MIN KDBQ 181640Z 16019G25KT 10SM CLR 22/09 A2993 1070 45 2100 160/19G25 RMK AO2
94908KDBQ DBQ20050518104510005/18/05 10:45:31  5-MIN KDBQ 181645Z 16019G25KT 10SM CLR 22/09 A2993 1070 43 2100 160/19G25 RMK AO2
94908KDBQ DBQ20050518105011705/18/05 10:50:31  5-MIN KDBQ 181650Z 16016G25KT 10SM CLR 22/09 A2993 1070 45 2100 160/16G25 RMK AO2 SLP132 T02170094
94908KDBQ DBQ20050518105511105/18/05 10:55:31  5-MIN KDBQ 181655Z 16017KT 10SM CLR 22/09 A2992 1070 45 2100 160/17 RMK AO2 SLP130 T02170094
94908KDBQ DBQ20050518110010005/18/05 11:00:31  5-MIN KDBQ 181700Z 15017G24KT 10SM CLR 21/09 A2992 1080 45 2100 150/17G24 RMK AO2
94908KDBQ DBQ20050518110510005/18/05 11:05:31  5-MIN KDBQ 181705Z 15019G24KT 10SM CLR 22/09 A2992 1080 43 2100 150/19G24 RMK AO2
94908KDBQ DBQ20050518111009405/18/05 11:10:31  5-MIN KDBQ 181710Z 15021KT 10SM CLR 22/09 A2992 1080 42 2200 150/21 RMK AO2
94908KDBQ DBQ20050518111511805/18/05 11:15:31  5-MIN KDBQ 181715Z 15020G26KT 10SM CLR 23/09 A2991 1090 40 2300 150/20G26 RMK AO2 PK WND 15026/1712
94908KDBQ DBQ20050518112011805/18/05 11:20:31  5-MIN KDBQ 181720Z 15019G26KT 10SM CLR 23/09 A2991 1090 40 2300 140/19G26 RMK AO2 PK WND 15026/1712
94908KDBQ DBQ20050518112511805/18/05 11:25:31  5-MIN KDBQ 181725Z 16020G24KT 10SM CLR 22/08 A2991 1090 40 2200 160/20G24 RMK AO2 PK WND 15026/1712
94908KDBQ DBQ20050518113011805/18/05 11:30:31  5-MIN KDBQ 181730Z 16020G26KT 10SM CLR 22/08 A2990 1100 42 2200 160/20G26 RMK AO2 PK WND 15026/1728
94908KDBQ DBQ20050518113511805/18/05 11:35:31  5-MIN KDBQ 181735Z 16021G26KT 10SM CLR 22/09 A2990 1100 42 2200 160/21G26 RMK AO2 PK WND 15026/1728
94908KDBQ DBQ20050518114011805/18/05 11:40:31  5-MIN KDBQ 181740Z 16021G28KT 10SM CLR 22/08 A2989 1110 42 2200 160/21G28 RMK AO2 PK WND 15028/1739
94908KDBQ DBQ20050518114511805/18/05 11:45:31  5-MIN KDBQ 181745Z 15019G28KT 10SM CLR 22/08 A2989 1110 42 2200 150/19G28 RMK AO2 PK WND 15028/1739
94908KDBQ DBQ20050518115015405/18/05 11:50:31  5-MIN KDBQ 181750Z 15020G27KT 10SM CLR 22/08 A2989 1100 42 2200 150/20G27 RMK AO2 PK WND 15028/1739 SLP119 T02170083 10228 20139  56000
94908KDBQ DBQ20050518115515405/18/05 11:55:31  5-MIN KDBQ 181755Z 15020G25KT 10SM CLR 22/08 A2989 1100 42 2200 150/20G25 RMK AO2 PK WND 15028/1739 SLP120 T02170083 10228 20139  58018
94908KDBQ DBQ20050518120011805/18/05 12:00:31  5-MIN KDBQ 181800Z 15022G26KT 10SM CLR 22/08 A2990 1100 42 2200 150/22G26 RMK AO2 PK WND 15026/1759
94908KDBQ DBQ20050518120511805/18/05 12:05:31  5-MIN KDBQ 181805Z 16018G26KT 10SM CLR 22/08 A2990 1100 42 2200 160/18G26 RMK AO2 PK WND 15026/1759
94908KDBQ DBQ20050518121011205/18/05 12:10:31  5-MIN KDBQ 181810Z 15015KT 10SM CLR 22/08 A2990 1100 42 2200 150/15 RMK AO2 PK WND 15026/1759
94908KDBQ DBQ20050518121511205/18/05 12:15:31  5-MIN KDBQ 181815Z 16016KT 10SM CLR 22/08 A2991 1090 42 2200 160/16 RMK AO2 PK WND 15026/1759
94908KDBQ DBQ20050518122011205/18/05 12:20:31  5-MIN KDBQ 181820Z 15018KT 10SM CLR 21/08 A2990 1090 43 2100 150/18 RMK AO2 PK WND 15026/1759
94908KDBQ DBQ20050518122511805/18/05 12:25:31  5-MIN KDBQ 181825Z 16015G21KT 10SM CLR 22/09 A2990 1100 43 2200 160/15G21 RMK AO2 PK WND 15026/1759
94908KDBQ DBQ20050518123011205/18/05 12:30:31  5-MIN KDBQ 181830Z 16016KT 10SM CLR 22/09 A2990 1100 43 2200 160/16 RMK AO2 PK WND 15026/1759
94908KDBQ DBQ20050518123511205/18/05 12:35:31  5-MIN KDBQ 181835Z 16015KT 10SM CLR 22/09 A2990 1100 43 2200 160/15 RMK AO2 PK WND 15026/1759
94908KDBQ DBQ20050518124011505/18/05 12:40:31  5-MIN KDBQ 181840Z 16017KT 10SM FEW070 21/09 A2989 1100 45 2100 150/17 RMK AO2 PK WND 15026/1759
94908KDBQ DBQ20050518124513805/18/05 12:45:31  5-MIN KDBQ 181845Z 16014G23KT 10SM -RA FEW040 21/09  A2989 1110 45 2100 150/14G23 RMK AO2 PK WND 15026/1759 RAB43 P0000
94908KDBQ DBQ20050518125015605/18/05 12:50:31  5-MIN KDBQ 181850Z 16015G23KT 10SM -RA FEW040 21/09  A2989 1110 46 2000 160/15G23 RMK AO2 PK WND 15026/1759 RAB43 SLP119 P0000  T02060089
94908KDBQ DBQ20050518125515505/18/05 12:55:31  5-MIN KDBQ 181855Z 16014G22KT 10SM SCT038 21/09 A2989  1110 46 2000 160/14G22 RMK AO2 PK WND 15026/1759 RAB43E54 SLP118 P0000  T02060089
94908KDBQ DBQ20050518130009705/18/05 13:00:31  5-MIN KDBQ 181900Z 16014KT 10SM SCT035 21/09 A2989 1110 47 2100 160/14 RMK AO2
94908KDBQ DBQ20050518130510705/18/05 13:05:31  5-MIN KDBQ 181905Z 15016G21KT 10SM FEW033 21/09 A2989  1110 2800 150/0 150/16G21 RMK AO2
94908KDBQ DBQ20050518131009905/18/05 13:10:31  5-MIN KDBQ 181910Z 15015G2105/18W033 21/09 A2988  1110 45 2100 150/15G21 RMK AO2
94908KDBQ DBQ20050518131509205/18/05 13:15:31  5-MIN KDBQ 181915Z 1501621060 21/09 A2988 1110  4500 150/0 150/16 RMK AO2
94908KDBQ DBQ20050518132013505/18/05 13:20:31  5-MIN KDBQ 181920Z 16014Z 15016270 21/0921/09 9 11111102100 160/14 RMK AO205/18/05 13:2520:5Z 16012G2021110 0 2A2989
94908KDBQ DBQ20050518134510105/18/05 13:45:31  5-MIN KDBQ 181945Z 15014KT 10SM FEW110 02/09 A29 A298 11202 45 2200 150/14 RMK AO2
94908KDBQ DBQ20050518140006405/18/05 14:00:31  5-MIN KDBQ 182000Z 16013211298/09 A2987 7 210
94908KDBQ DBQ20050518200010705/18/05 20:00:31  5-MIN KDBQ 190200Z AUTO 14014KT 10SM OVC060 17/12 A2978 1200 69 1800 130/14 RMK AO2 TSNO
94908KDBQ DBQ20050518200510705/18/05 20:05:31  5-MIN KDBQ 190205Z AUTO 13013KT 10SM OVC060 17/11 A2978 1210 67 1800 130/13 RMK AO2 TSNO
94908KDBQ DBQ20050518201010705/18/05 20:10:31  5-MIN KDBQ 190210Z AUTO 13014KT 10SM OVC060 17/11 A2978 1210 69 1700 130/14 RMK AO2 TSNO
94908KDBQ DBQ20050518201510705/18/05 20:15:31  5-MIN KDBQ 190215Z AUTO 13015KT 10SM OVC060 17/11 A2978 1210 69 1700 130/15 RMK AO2 TSNO
94908KDBQ DBQ20050518202010705/18/05 20:20:31  5-MIN KDBQ 190220Z AUTO 13014KT 10SM OVC060 17/11 A2978 1210 69 1700 130/14 RMK AO2 TSNO
94908KDBQ DBQ20050518202510705/18/05 20:25:31  5-MIN KDBQ 190225Z AUTO 13013KT 10SM OVC060 17/11 A2978 1210 69 1700 130/13 RMK AO2 TSNO
94908KDBQ DBQ20050518203010705/18/05 20:30:31  5-MIN KDBQ 190230Z AUTO 13014KT 10SM OVC060 17/11 A2978 1210 69 1700 130/14 RMK AO2 TSNO
94908KDBQ DBQ20050518203510705/18/05 20:35:31  5-MIN KDBQ 190235Z AUTO 13013KT 10SM OVC060 17/11 A2978 1210 69 1700 130/13 RMK AO2 TSNO
94908KDBQ DBQ20050518204010705/18/05 20:40:31  5-MIN KDBQ 190240Z AUTO 13012KT 10SM OVC060 17/11 A2978 1210 69 1700 130/12 RMK AO2 TSNO
94908KDBQ DBQ20050518204510705/18/05 20:45:31  5-MIN KDBQ 190245Z AUTO 13011KT 10SM OVC060 17/11 A2978 1210 69 1700 130/11 RMK AO2 TSNO
94908KDBQ DBQ20050518205013605/18/05 20:50:31  5-MIN KDBQ 190250Z AUTO 13012KT 10SM OVC055 17/11 A2978 1210 69 1700 130/12 RMK AO2 SLP080 60010 T01670111 55014 TSNO
94908KDBQ DBQ20050518205513605/18/05 20:55:31  5-MIN KDBQ 190255Z AUTO 13014KT 10SM OVC055 17/11 A2977 1210 64 1800 130/14 RMK AO2 SLP079 60010 T01720106 58009 TSNO
94908KDBQ DBQ20050518210010705/18/05 21:00:31  5-MIN KDBQ 190300Z AUTO 13015KT 10SM OVC055 17/11 A2977 1220 64 1800 130/15 RMK AO2 TSNO
94908KDBQ DBQ20050518210510705/18/05 21:05:31  5-MIN KDBQ 190305Z AUTO 14016KT 10SM OVC055 17/11 A2977 1220 64 1800 140/16 RMK AO2 TSNO
94908KDBQ DBQ20050518211011405/18/05 21:10:31  5-MIN KDBQ 190310Z AUTO 13016G22KT 10SM OVC055 17/11  A2976 1230 64 1800 130/16G22 RMK AO2 TSNO
94908KDBQ DBQ20050518211512805/18/05 21:15:31  5-MIN KDBQ 190315Z AUTO 14014G22KT 10SM BKN055 BKN065  OVC085 17/11 A2976 1220 64 1800 140/14G22 RMK AO2 TSNO
94908KDBQ DBQ20050518212011405/18/05 21:20:31  5-MIN KDBQ 190320Z AUTO 14015KT 10SM BKN055 BKN065 17/11 A2976 1220 64 1800 130/15 RMK AO2 TSNO
94908KDBQ DBQ20050518212511405/18/05 21:25:31  5-MIN KDBQ 190325Z AUTO 14014KT 10SM BKN055 OVC065 17/11 A2976 1220 67 1700 140/14 RMK AO2 TSNO
94908KDBQ DBQ20050518213010705/18/05 21:30:31  5-MIN KDBQ 190330Z AUTO 14016KT 10SM OVC060 17/11 A2976 1220 64 1800 140/16 RMK AO2 TSNO
94908KDBQ DBQ20050518213511405/18/05 21:35:31  5-MIN KDBQ 190335Z AUTO 14016KT 10SM BKN060 OVC075 17/11 A2976 1230 64 1800 130/16 RMK AO2 TSNO
94908KDBQ DBQ20050518214011405/18/05 21:40:31  5-MIN KDBQ 190340Z AUTO 14015KT 10SM BKN060 OVC075 18/10 A2976 1230 60 1900 140/15 RMK AO2 TSNO
94908KDBQ DBQ20050518214510705/18/05 21:45:31  5-MIN KDBQ 190345Z AUTO 14017KT 10SM OVC060 17/11 A2975 1230 64 1800 140/17 RMK AO2 TSNO
94908KDBQ DBQ20050518215012405/18/05 21:50:31  5-MIN KDBQ 190350Z AUTO 14016KT 10SM OVC060 18/11 A2976 1230 62 1900 140/16 RMK AO2 SLP073 T01780106 TSNO
94908KDBQ DBQ20050518215512405/18/05 21:55:31  5-MIN KDBQ 190355Z AUTO 15014KT 10SM OVC055 18/10 A2976 1220 60 1900 150/14 RMK AO2 SLP074 T01780100 TSNO
94908KDBQ DBQ20050518220010705/18/05 22:00:31  5-MIN KDBQ 190400Z AUTO 16012KT 10SM OVC055 18/10 A2977 1210 60 1900 160/12 RMK AO2 TSNO
94908KDBQ DBQ20050518220514605/18/05 22:05:31  5-MIN KDBQ 190405Z AUTO 23009KT 200V260 10SM -RA OVC055 17/11 A2979 1200 64 1800 230/09 200V260 RMK AO2 RAB05 PRESRR P0000 TSNO
94908KDBQ DBQ20050518221012305/18/05 22:10:31  5-MIN KDBQ 190410Z AUTO 30008KT 8SM -RA OVC050 17/11  A2979 1200 69 1700 300/08 RMK AO2 RAB05 P0000 TSNO
94908KDBQ DBQ20050518221512305/18/05 22:15:31  5-MIN KDBQ 190415Z AUTO 28008KT 8SM -RA OVC050 16/12  A2979 1200 75 1600 270/08 RMK AO2 RAB05 P0000 TSNO
94908KDBQ DBQ20050518222014505/18/05 22:20:31  5-MIN KDBQ 190420Z AUTO 24009G14KT 200V270 9SM -RA  OVC050 18/11 A2980 1190 62 1800 240/09G14 200V270 RMK AO2 RAB05 P0001 TSNO
94908KDBQ DBQ20050518222514505/18/05 22:25:31  5-MIN KDBQ 190425Z AUTO 27010G14KT 210V300 8SM -RA  OVC050 17/11 A2980 1190 64 1800 270/10G14 210V300 RMK AO2 RAB05 P0001 TSNO
94908KDBQ DBQ20050518223012205/18/05 22:30:31  5-MIN KDBQ 190430Z AUTO 30008KT 5SM RA OVC050 16/12  A2981 1180 77 1600 300/08 RMK AO2 RAB05 P0003 TSNO
94908KDBQ DBQ20050518223512305/18/05 22:35:31  5-MIN KDBQ 190435Z AUTO 31006KT 4SM +RA OVC050 15/12  A2980 1190 83 1500 310/06 RMK AO2 RAB05 P0006 TSNO
94908KDBQ DBQ20050518224012305/18/05 22:40:31  5-MIN KDBQ 190440Z AUTO 30008KT 5SM -RA OVC050 15/12  A2981 1180 83 1500 300/08 RMK AO2 RAB05 P0006 TSNO
94908KDBQ DBQ20050518224513005/18/05 22:45:31  5-MIN KDBQ 190445Z AUTO 30010KT 7SM -RA BKN045 OVC050  15/12 A2982 1170 83 1500 300/10 RMK AO2 RAB05 P0007 TSNO
94908KDBQ DBQ20050518225014705/18/05 22:50:31  5-MIN KDBQ 190450Z AUTO 32008KT 7SM -RA BKN042 OVC050  14/12 A2982 1170 86 1400 320/08 RMK AO2 RAB05 SLP096 P0007 T01440122 TSNO
94908KDBQ DBQ20050518225514805/18/05 22:55:31  5-MIN KDBQ 190455Z AUTO 32004KT 6SM RA BR BKN042 OVC050 14/12 A2982 1170 86 1400 320/04 RMK AO2 RAB05 SLP095 P0007 T01440122 TSNO
94908KDBQ DBQ20050518230012505/18/05 23:00:31  5-MIN KDBQ 190500Z AUTO 19008KT 3SM RA BR FEW016 OVC042 14/13 A2982 1170 90 1400 180/08 RMK AO2 P0002 TSNO
94908KDBQ DBQ20050518230513105/18/05 23:05:31  5-MIN KDBQ 190505Z AUTO 16008KT 1 1/2SM +RA BR SCT011  OVC042 14/13 A2982 1180 90 1400 160/08 RMK AO2 P0013 TSNO
94908KDBQ DBQ20050518231013105/18/05 23:10:31  5-MIN KDBQ 190510Z AUTO 13007KT 1 1/2SM +RA BR BKN009  OVC040 14/13 A2981 1180 90 1400 130/07 RMK AO2 P0028 TSNO
94908KDBQ DBQ20050518231513805/18/05 23:15:31  5-MIN KDBQ 190515Z AUTO 00000KT 2 1/2SM -RA BR SCT009  BKN040 OVC050 14/13 A2981 1180 90 1400 000/00 RMK AO2 P0030 TSNO
94908KDBQ DBQ20050518232013205/18/05 23:20:31  5-MIN KDBQ 190520Z AUTO 00000KT 7SM SCT009 BKN042 OVC050 14/13 A2981 1180 90 1400 000/00 RMK AO2 RAE20 P0030 TSNO
94908KDBQ DBQ20050518232513205/18/05 23:25:31  5-MIN KDBQ 190525Z AUTO 14003KT 6SM RA BR SCT009 BKN040 OVC049 14/13 A2981 1180 90 1400 140/03 RMK AO2 P0030 TSNO
94908KDBQ DBQ20050518233012405/18/05 23:30:31  5-MIN KDBQ 190530Z AUTO 13006KT 6SM -RA FEW007 OVC042  15/12 A2980 1190 83 1500 130/06 RMK AO2 P0031 TSNO
94908KDBQ DBQ20050518233512405/18/05 23:35:31  5-MIN KDBQ 190535Z AUTO 13006KT 9SM -RA FEW009 OVC042  14/12 A2980 1190 86 1400 130/06 RMK AO2 P0031 TSNO
94908KDBQ DBQ20050518234012505/18/05 23:40:31  5-MIN KDBQ 190540Z AUTO 14007KT 9SM BKN040 OVC047 15/12 A2980 1190 83 1500 130/07 RMK AO2 RAE37 P0031 TSNO
94908KDBQ DBQ20050518234511905/18/05 23:45:31  5-MIN KDBQ 190545Z AUTO 13007KT 9SM OVC040 15/12 A2980  1190 83 1500 130/07 RMK AO2 RAE37 P0031 TSNO
94908KDBQ DBQ20050518235018305/18/05 23:50:31  5-MIN KDBQ 190550Z AUTO 14006KT 9SM BKN040 BKN048 OVC060 14/13 A2979 1200 90 1400 140/06 RMK AO2 RAE37 SLP085 P0031 60048 T01440128 10189 20144 402280133 58009 TSNO
94908KDBQ DBQ20050518235518305/18/05 23:55:31  5-MIN KDBQ 190555Z AUTO 13009KT 9SM BKN040 BKN060 OVC075 15/12 A2979 1200 83 1500 130/09 RMK AO2 RAE37 SLP084 P0031 60048 T01500122 10189 20144 402280133 50005 TSNO
94908KDBQ DBQ20050519000011305/19/05 00:00:38  5-MIN KDBQ 190600Z AUTO 14009KT 9SM BKN040 BKN050 15/12 A2979 1200 83 1500 140/09 RMK AO2 TSNO
94908KDBQ DBQ20050519000512005/19/05 00:05:31  5-MIN KDBQ 190605Z AUTO 14011KT 9SM BKN040 BKN050 BKN095 15/12 A2978 1210 83 1500 130/11 RMK AO2 TSNO
94908KDBQ DBQ20050519001012005/19/05 00:10:31  5-MIN KDBQ 190610Z AUTO 14012KT 9SM BKN040 BKN050 BKN065 14/12 A2977 1220 86 1500 130/12 RMK AO2 TSNO
94908KDBQ DBQ20050519001512005/19/05 00:15:31  5-MIN KDBQ 190615Z AUTO 13012KT 9SM BKN040 BKN050 BKN065 14/12 A2977 1220 86 1500 130/12 RMK AO2 TSNO
94908KDBQ DBQ20050519002010705/19/05 00:20:31  5-MIN KDBQ 190620Z AUTO 14013KT 9SM BKN040 15/12 A2977  1220 83 1500 130/13 RMK AO2 TSNO
94908KDBQ DBQ20050519002510705/19/05 00:25:31  5-MIN KDBQ 190625Z AUTO 13014KT 9SM BKN040 14/12 A2976  1230 86 1500 130/14 RMK AO2 TSNO
94908KDBQ DBQ20050519003010705/19/05 00:30:31  5-MIN KDBQ 190630Z AUTO 13013KT 9SM BKN042 15/12 A2976  1230 83 1600 130/13 RMK AO2 TSNO
94908KDBQ DBQ20050519003512005/19/05 00:35:31  5-MIN KDBQ 190635Z AUTO 13013KT 8SM BKN042 BKN055 OVC100 15/12 A2976 1230 83 1600 130/13 RMK AO2 TSNO
94908KDBQ DBQ20050519004013005/19/05 00:40:31  5-MIN KDBQ 190640Z AUTO 14014KT 7SM -RA BKN042 OVC095  14/13 A2975 1240 90 1500 130/14 RMK AO2 RAB36 P0000 TSNO
94908KDBQ DBQ20050519004514205/19/05 00:45:31  5-MIN KDBQ 190645Z AUTO 13013G21KT 7SM -RA SCT042 BKN055 OVC100 14/13 A2975 1240 90 1500 130/13G21 RMK AO2 RAB36 P0001 TSNO
94908KDBQ DBQ20050519005016005/19/05 00:50:31  5-MIN KDBQ 190650Z AUTO 14011G21KT 8SM -RA SCT042 SCT060 BKN100 14/13 A2975 1230 90 1500 140/11G21 RMK AO2 RAB36 SLP072 P0001  T01440128 TSNO
94908KDBQ DBQ20050519005515305/19/05 00:55:31  5-MIN KDBQ 190655Z AUTO 14011KT 8SM SCT038 BKN055 OVC100 14/13 A2976 1230 90 1500 140/11 RMK AO2 RAB36E53 SLP073 P0001 T01440128  TSNO
94908KDBQ DBQ20050519010012005/19/05 01:00:31  5-MIN KDBQ 190700Z AUTO 13014KT 8SM BKN036 BKN055 OVC100 15/13 A2976 1230 86 1600 130/14 RMK AO2 TSNO
94908KDBQ DBQ20050519010512005/19/05 01:05:31  5-MIN KDBQ 190705Z AUTO 14011KT 8SM BKN036 BKN055 OVC100 15/13 A2977 1220 86 1500 140/11 RMK AO2 TSNO
94908KDBQ DBQ20050519011013005/19/05 01:10:31  5-MIN KDBQ 190710Z AUTO 14008KT 7SM -RA BKN034 OVC100  15/13 A2977 1210 86 1500 140/08 RMK AO2 RAB08 P0000 TSNO
94908KDBQ DBQ20050519011513805/19/05 01:15:31  5-MIN KDBQ 190715Z AUTO 00000KT 5SM RA BR BKN034 BKN055 OVC100 15/13 A2978 1210 86 1500 000/00 RMK AO2 RAB08 P0001 TSNO
94908KDBQ DBQ20050519012016205/19/05 01:20:31  5-MIN KDBQ 190720Z AUTO 26007G15KT 210V300 5SM RA BR  BKN034 BKN055 OVC100 15/13 A2978 1210 86 1500 260/07G15 210V300 RMK AO2  RAB08 P0002 TSNO
94908KDBQ DBQ20050519012513905/19/05 01:25:31  5-MIN KDBQ 190725Z AUTO 17006G15KT 5SM -RA BR BKN034  OVC100 15/13 A2978 1210 86 1500 170/06G15 RMK AO2 RAB08 P0003 TSNO
94908KDBQ DBQ20050519013013205/19/05 01:30:31  5-MIN KDBQ 190730Z AUTO 18005KT 6SM -RA BR BKN032 OVC100 15/13 A2977 1210 86 1500 180/05 RMK AO2 RAB08 P0003 TSNO
94908KDBQ DBQ20050519013513705/19/05 01:35:31  5-MIN KDBQ 190735Z AUTO 14008KT 7SM -RA BKN031 BKN038  OVC100 15/13 A2977 1210 86 1500 140/08 RMK AO2 RAB08 P0003 TSNO
94908KDBQ DBQ20050519014013705/19/05 01:40:31  5-MIN KDBQ 190740Z AUTO 13005KT 8SM -RA BKN030 BKN038  OVC100 15/13 A2977 1220 86 1500 130/05 RMK AO2 RAB08 P0003 TSNO
94908KDBQ DBQ20050519014513705/19/05 01:45:31  5-MIN KDBQ 190745Z AUTO 14008KT 8SM -RA BKN028 BKN033  OVC100 15/13 A2977 1220 86 1500 140/08 RMK AO2 RAB08 P0003 TSNO
94908KDBQ DBQ20050519015014705/19/05 01:50:31  5-MIN KDBQ 190750Z AUTO 14009KT 8SM -RA BKN028 OVC033  15/13 A2977 1220 86 1500 140/09 RMK AO2 RAB08 SLP077 P0003 T01500128 TSNO
94908KDBQ DBQ20050519015514005/19/05 01:55:31  5-MIN KDBQ 190755Z AUTO 14008KT 8SM -RA OVC028 15/13  A2977 1220 86 1500 130/08 RMK AO2 RAB08 SLP077 P0003 T01500128 TSNO
94908KDBQ DBQ20050519020011705/19/05 02:00:31  5-MIN KDBQ 190800Z AUTO 14010KT 8SM -RA OVC028 15/13  A2977 1220 86 1500 140/10 RMK AO2 P0000 TSNO
94908KDBQ DBQ20050519020511905/19/05 02:05:31  5-MIN KDBQ 190805Z AUTO 14011KT 8SM OVC028 14/13 A2976  1230 90 1500 140/11 RMK AO2 RAE01 P0000 TSNO
94908KDBQ DBQ20050519021012505/19/05 02:10:31  5-MIN KDBQ 190810Z AUTO 14011KT 7SM BKN028 OVC070 14/13 A2976 1230 90 1500 140/11 RMK AO2 RAE01 P0000 TSNO
94908KDBQ DBQ20050519021512505/19/05 02:15:31  5-MIN KDBQ 190815Z AUTO 14010KT 7SM BKN028 OVC070 14/13 A2976 1230 90 1500 140/10 RMK AO2 RAE01 P0000 TSNO
94908KDBQ DBQ20050519022012505/19/05 02:20:31  5-MIN KDBQ 190820Z AUTO 14009KT 7SM BKN030 OVC070 14/13 A2976 1230 90 1500 140/09 RMK AO2 RAE01 P0000 TSNO
94908KDBQ DBQ20050519022512505/19/05 02:25:31  5-MIN KDBQ 190825Z AUTO 14010KT 7SM BKN030 OVC070 14/13 A2976 1230 90 1500 140/10 RMK AO2 RAE01 P0000 TSNO
94908KDBQ DBQ20050519023012505/19/05 02:30:31  5-MIN KDBQ 190830Z AUTO 14008KT 7SM BKN030 OVC070 14/13 A2976 1230 90 1500 140/08 RMK AO2 RAE01 P0000 TSNO
94908KDBQ DBQ20050519023513205/19/05 02:35:31  5-MIN KDBQ 190835Z AUTO 14008KT 7SM SCT028 BKN075 OVC095 14/13 A2976 1230 90 1500 140/08 RMK AO2 RAE01 P0000 TSNO
94908KDBQ DBQ20050519024013605/19/05 02:40:31  5-MIN KDBQ 190840Z AUTO 14006KT 6SM BR SCT028 BKN075  OVC090 14/13 A2976 1220 90 1500 140/06 RMK AO2 RAE01 P0000 TSNO
94908KDBQ DBQ20050519024513605/19/05 02:45:31  5-MIN KDBQ 190845Z AUTO 14007KT 6SM BR FEW028 BKN075  BKN090 14/13 A2976 1220 90 1500 140/07 RMK AO2 RAE01 P0000 TSNO
94908KDBQ DBQ20050519025016605/19/05 02:50:31  5-MIN KDBQ 190850Z AUTO 15006KT 6SM BR FEW028 SCT075  BKN090 14/13 A2976 1220 90 1500 150/06 RMK AO2 RAE01 SLP075 P0000 60004  T01440128 50005 TSNO
94908KDBQ DBQ20050519025515805/19/05 02:55:31  5-MIN KDBQ 190855Z AUTO VRB05KT 6SM BR SCT075 BKN090  14/13 A2976 1230 90 1500 VRB/05 RMK AO2 RAE01 SLP074 P0000 60004 T01440128 56010 TSNO
94908KDBQ DBQ20050519030011305/19/05 03:00:31  5-MIN KDBQ 190900Z AUTO 15007KT 7SM FEW075 BKN090 14/13 A2976 1230 90 1500 150/07 RMK AO2 TSNO
94908KDBQ DBQ20050519030511305/19/05 03:05:31  5-MIN KDBQ 190905Z AUTO 14007KT 7SM FEW075 BKN090 14/13 A2976 1230 90 1500 140/07 RMK AO2 TSNO
94908KDBQ DBQ20050519031011005/19/05 03:10:31  5-MIN KDBQ 190910Z AUTO 13007KT 6SM BR BKN090 14/13  A2975 1230 90 1500 130/07 RMK AO2 TSNO
94908KDBQ DBQ20050519031511005/19/05 03:15:31  5-MIN KDBQ 190915Z AUTO 14005KT 6SM BR BKN090 14/13  A2975 1230 93 1400 140/05 RMK AO2 TSNO
94908KDBQ DBQ20050519032011005/19/05 03:20:31  5-MIN KDBQ 190920Z AUTO 14006KT 6SM BR SCT090 14/13  A2975 1240 93 1400 130/06 RMK AO2 TSNO
94908KDBQ DBQ20050519032511005/19/05 03:25:31  5-MIN KDBQ 190925Z AUTO 14006KT 6SM BR FEW090 14/13  A2975 1240 93 1400 140/06 RMK AO2 TSNO
94908KDBQ DBQ20050519033011005/19/05 03:30:31  5-MIN KDBQ 190930Z AUTO 14006KT 6SM BR FEW090 14/13  A2975 1240 93 1400 140/06 RMK AO2 TSNO
94908KDBQ DBQ20050519033511005/19/05 03:35:31  5-MIN KDBQ 190935Z AUTO 14007KT 6SM BR FEW090 14/13  A2975 1240 93 1400 140/07 RMK AO2 TSNO
94908KDBQ DBQ20050519034011005/19/05 03:40:31  5-MIN KDBQ 190940Z AUTO 13005KT 6SM BR FEW090 14/13  A2975 1240 93 1400 130/05 RMK AO2 TSNO
94908KDBQ DBQ20050519034511005/19/05 03:45:31  5-MIN KDBQ 190945Z AUTO 13005KT 5SM BR FEW090 14/12  A2974 1240 90 1400 130/05 RMK AO2 TSNO
94908KDBQ DBQ20050519035012705/19/05 03:50:31  5-MIN KDBQ 190950Z AUTO 13007KT 5SM BR FEW090 14/12  A2974 1240 90 1400 130/07 RMK AO2 SLP068 T01390122 TSNO
94908KDBQ DBQ20050519035512705/19/05 03:55:31  5-MIN KDBQ 190955Z AUTO 13004KT 5SM BR FEW090 14/12  A2974 1240 90 1400 130/04 RMK AO2 SLP068 T01390122 TSNO
94908KDBQ DBQ20050519040011005/19/05 04:00:31  5-MIN KDBQ 191000Z AUTO 12004KT 5SM BR FEW090 14/12  A2974 1240 90 1400 120/04 RMK AO2 TSNO
94908KDBQ DBQ20050519040510705/19/05 04:05:31  5-MIN KDBQ 191005Z AUTO 12004KT 5SM BR CLR 14/12 A2975  1230 90 1400 120/04 RMK AO2 TSNO
94908KDBQ DBQ20050519041010705/19/05 04:10:31  5-MIN KDBQ 191010Z AUTO 13005KT 5SM BR CLR 14/12 A2975  1230 90 1400 130/05 RMK AO2 TSNO
94908KDBQ DBQ20050519041510705/19/05 04:15:31  5-MIN KDBQ 191015Z AUTO 13004KT 5SM BR CLR 14/12 A2975  1230 90 1400 130/04 RMK AO2 TSNO
94908KDBQ DBQ20050519042010705/19/05 04:20:31  5-MIN KDBQ 191020Z AUTO 13006KT 5SM BR CLR 13/12 A2975  1230 93 1400 130/06 RMK AO2 TSNO
94908KDBQ DBQ20050519042510705/19/05 04:25:31  5-MIN KDBQ 191025Z AUTO 13007KT 5SM BR CLR 13/12 A2976  1230 93 1400 130/07 RMK AO2 TSNO
94908KDBQ DBQ20050519043010705/19/05 04:30:31  5-MIN KDBQ 191030Z AUTO 13006KT 4SM BR CLR 13/12 A2976  1230 93 1400 130/06 RMK AO2 TSNO
94908KDBQ DBQ20050519043510705/19/05 04:35:31  5-MIN KDBQ 191035Z AUTO 14006KT 4SM BR CLR 13/12 A2976  1230 93 1400 140/06 RMK AO2 TSNO
94908KDBQ DBQ20050519044010705/19/05 04:40:31  5-MIN KDBQ 191040Z AUTO 13005KT 3SM BR CLR 13/12 A2976  1230 93 1400 130/05 RMK AO2 TSNO
94908KDBQ DBQ20050519044510705/19/05 04:45:31  5-MIN KDBQ 191045Z AUTO 13006KT 3SM BR CLR 13/12 A2976  1230 93 1400 130/06 RMK AO2 TSNO
94908KDBQ DBQ20050519045012405/19/05 04:50:31  5-MIN KDBQ 191050Z AUTO 13006KT 3SM BR CLR 13/12 A2976  1230 93 1400 130/06 RMK AO2 SLP074 T01330122 TSNO
94908KDBQ DBQ20050519045511805/19/05 04:55:31  5-MIN KDBQ 191055Z 16003KT 2 1/2SM BR CLR 13/12 A2976  1230 93 1400 160/03 RMK AO2 SLP074 T01330122
94908KDBQ DBQ20050519050010105/19/05 05:00:31  5-MIN KDBQ 191100Z 00000KT 2 1/2SM BR CLR 13/12 A2976  1230 96 1300 000/00 RMK AO2
94908KDBQ DBQ20050519050510105/19/05 05:05:31  5-MIN KDBQ 191105Z 00000KT 2 1/2SM BR CLR 13/12 A2976  1230 93 1400 000/00 RMK AO2
94908KDBQ DBQ20050519051010105/19/05 05:10:31  5-MIN KDBQ 191110Z 00000KT 2 1/2SM BR CLR 13/12 A2976  1230 93 1400 000/00 RMK AO2
94908KDBQ DBQ20050519051509705/19/05 05:15:31  5-MIN KDBQ 191115Z 00000KT 2SM BR CLR 13/12 A2976 1230  96 1300 000/00 RMK AO2
94908KDBQ DBQ20050519052009705/19/05 05:20:31  5-MIN KDBQ 191120Z 00000KT 2SM BR CLR 13/12 A2976 1230  96 1300 000/00 RMK AO2
94908KDBQ DBQ20050519052509705/19/05 05:25:31  5-MIN KDBQ 191125Z 00000KT 2SM BR CLR 13/12 A2976 1230  96 1300 000/00 RMK AO2
94908KDBQ DBQ20050519053010105/19/05 05:30:31  5-MIN KDBQ 191130Z 00000KT 1 3/4SM BR CLR 13/12 A2976  1230 96 1300 000/00 RMK AO2
94908KDBQ DBQ20050519053509705/19/05 05:35:31  5-MIN KDBQ 191135Z 00000KT 2SM BR CLR 13/13 A2976 1230  96 1400 000/00 RMK AO2
94908KDBQ DBQ20050519054009705/19/05 05:40:31  5-MIN KDBQ 191140Z 18003KT 2SM BR CLR 13/13 A2976 1230  96 1400 180/03 RMK AO2
94908KDBQ DBQ20050519054509705/19/05 05:45:31  5-MIN KDBQ 191145Z 00000KT 2SM BR CLR 14/13 A2976 1230  93 1400 000/00 RMK AO2
94908KDBQ DBQ20050519055014405/19/05 05:50:31  5-MIN KDBQ 191150Z 18003KT 2SM BR CLR 14/13 A2976 1230  96 1400 180/03 RMK AO2 SLP075 60004 70052 T01390133 10150 20128 56010
94908KDBQ DBQ20050519055514405/19/05 05:55:31  5-MIN KDBQ 191155Z 19004KT 2SM BR CLR 14/13 A2976 1230  96 1400 190/04 RMK AO2 SLP076 60004 70052 T01390133 10150 20128 53001
94908KDBQ DBQ20050519060009705/19/05 06:00:31  5-MIN KDBQ 191200Z 20003KT 2SM BR CLR 14/13 A2976 1220  93 1500 200/03 RMK AO2
94908KDBQ DBQ20050519060509705/19/05 06:05:31  5-MIN KDBQ 191205Z 18003KT 2SM BR CLR 14/13 A2976 1220  93 1500 180/03 RMK AO2
94908KDBQ DBQ20050519061010005/19/05 06:10:31  5-MIN KDBQ 191210Z 18003KT 2SM BR FEW003 14/14 A2976  1230 96 1500 170/03 RMK AO2
94908KDBQ DBQ20050519061510005/19/05 06:15:31  5-MIN KDBQ 191215Z 19003KT 2SM BR SCT003 15/14 A2976  1220 93 1500 180/03 RMK AO2
94908KDBQ DBQ20050519062010005/19/05 06:20:31  5-MIN KDBQ 191220Z 18004KT 2SM BR BKN003 15/14 A2977  1220 93 1500 180/04 RMK AO2
94908KDBQ DBQ20050519062510005/19/05 06:25:31  5-MIN KDBQ 191225Z 17003KT 2SM BR BKN003 15/14 A2977  1220 96 1500 170/03 RMK AO2
94908KDBQ DBQ20050519063010005/19/05 06:30:31  5-MIN KDBQ 191230Z 16004KT 2SM BR BKN003 15/14 A2977  1220 96 1500 160/04 RMK AO2
94908KDBQ DBQ20050519063510005/19/05 06:35:31  5-MIN KDBQ 191235Z 18005KT 2SM BR OVC003 16/14 A2977  1220 93 1600 180/05 RMK AO2
94908KDBQ DBQ20050519064010005/19/05 06:40:31  5-MIN KDBQ 191240Z 18005KT 2SM BR OVC003 16/14 A2976  1220 93 1600 180/05 RMK AO2
94908KDBQ DBQ20050519064510005/19/05 06:45:31  5-MIN KDBQ 191245Z 18005KT 2SM BR OVC003 16/15 A2977  1220 96 1600 180/05 RMK AO2
94908KDBQ DBQ20050519065012005/19/05 06:50:31  5-MIN KDBQ 191250Z 18006KT 2 1/2SM BR OVC003 16/15 A2977 1220 93 1700 180/06 RMK AO2 SLP079 T01610150
94908KDBQ DBQ20050519065512005/19/05 06:55:31  5-MIN KDBQ 191255Z 19005KT 2 1/2SM BR OVC003 16/15 A2977 1220 93 1700 190/05 RMK AO2 SLP078 T01610150
94908KDBQ DBQ20050519070010305/19/05 07:00:31  5-MIN KDBQ 191300Z 18007KT 2 1/2SM BR OVC003 16/15 A2977 1220 93 1700 180/07 RMK AO2
94908KDBQ DBQ20050519070510005/19/05 07:05:31  5-MIN KDBQ 191305Z 18006KT 2SM BR OVC003 16/15 A2977  1220 93 1700 180/06 RMK AO2
94908KDBQ DBQ20050519071010005/19/05 07:10:31  5-MIN KDBQ 191310Z 19006KT 2SM BR OVC003 16/15 A2977  1220 93 1700 190/06 RMK AO2
94908KDBQ DBQ20050519071510305/19/05 07:15:31  5-MIN KDBQ 191315Z 19006KT 1 3/4SM BR OVC003 16/15 A2977 1220 93 1700 190/06 RMK AO2
94908KDBQ DBQ20050519072010305/19/05 07:20:31  5-MIN KDBQ 191320Z 19006KT 1 3/4SM BR OVC003 16/16 A2977 1220 96 1700 190/06 RMK AO2
94908KDBQ DBQ20050519072510305/19/05 07:25:31  5-MIN KDBQ 191325Z 20006KT 1 3/4SM BR OVC003 17/16 A2977 1220 93 1700 200/06 RMK AO2
94908KDBQ DBQ20050519073010005/19/05 07:30:31  5-MIN KDBQ 191330Z 20006KT 2SM BR OVC003 17/16 A2977  1220 93 1700 200/06 RMK AO2
94908KDBQ DBQ20050519073510305/19/05 07:35:31  5-MIN KDBQ 191335Z 20007KT 1 3/4SM BR OVC003 17/16 A2977 1220 93 1700 200/07 RMK AO2
94908KDBQ DBQ20050519074010305/19/05 07:40:31  5-MIN KDBQ 191340Z 20007KT 1 3/4SM BR OVC003 17/16 A2977 1220 93 1700 200/07 RMK AO2
94908KDBQ DBQ20050519074510305/19/05 07:45:31  5-MIN KDBQ 191345Z 19006KT 1 1/4SM BR OVC003 17/16 A2977 1220 93 1700 190/06 RMK AO2
94908KDBQ DBQ20050519075012005/19/05 07:50:31  5-MIN KDBQ 191350Z 19006KT 1 1/4SM BR OVC003 16/16 A2977 1220 96 1700 190/06 RMK AO2 SLP079 T01610156
94908KDBQ DBQ20050519075512005/19/05 07:55:31  5-MIN KDBQ 191355Z 20006KT 1 1/4SM BR OVC003 17/16 A2977 1220 93 1700 200/06 RMK AO2 SLP079 T01670156
94908KDBQ DBQ20050519080010305/19/05 08:00:31  5-MIN KDBQ 191400Z 19006KT 1 1/4SM BR OVC003 17/16 A2977 1220 93 1700 180/06 RMK AO2
94908KDBQ DBQ20050519080510305/19/05 08:05:31  5-MIN KDBQ 191405Z 20006KT 1 1/4SM BR OVC003 17/16 A2977 1220 93 1700 200/06 RMK AO2
94908KDBQ DBQ20050519081010305/19/05 08:10:31  5-MIN KDBQ 191410Z 19005KT 1 1/4SM BR OVC003 17/16 A2977 1220 96 1700 190/05 RMK AO2
94908KDBQ DBQ20050519081510305/19/05 08:15:31  5-MIN KDBQ 191415Z 21007KT 1 1/2SM BR OVC003 17/16 A2977 1220 96 1700 210/07 RMK AO2
94908KDBQ DBQ20050519082010305/19/05 08:20:31  5-MIN KDBQ 191420Z 19007KT 1 1/2SM BR OVC003 17/16 A2976 1220 93 1800 190/07 RMK AO2
94908KDBQ DBQ20050519082510305/19/05 08:25:31  5-MIN KDBQ 191425Z 19006KT 1 1/2SM BR OVC003 17/16 A2976 1220 96 1700 190/06 RMK AO2
94908KDBQ DBQ20050519083010305/19/05 08:30:31  5-MIN KDBQ 191430Z 18007KT 1 1/2SM BR OVC003 17/16 A2976 1220 93 1800 180/07 RMK AO2
94908KDBQ DBQ20050519083510305/19/05 08:35:31  5-MIN KDBQ 191435Z 18006KT 1 1/2SM BR OVC003 17/16 A2976 1220 93 1800 180/06 RMK AO2
94908KDBQ DBQ20050519084010305/19/05 08:40:31  5-MIN KDBQ 191440Z 19007KT 1 3/4SM BR OVC003 17/17 A2976 1230 96 1800 180/07 RMK AO2
94908KDBQ DBQ20050519084510005/19/05 08:45:31  5-MIN KDBQ 191445Z 20008KT 2SM BR OVC003 18/17 A2976  1220 93 1900 200/08 RMK AO2
94908KDBQ DBQ20050519085012305/19/05 08:50:31  5-MIN KDBQ 191450Z 20007KT 2SM BR OVC003 18/17 A2976  1220 93 1900 190/07 RMK AO2 SLP077 T01780167 53001
94908KDBQ DBQ20050519085512605/19/05 08:55:31  5-MIN KDBQ 191455Z 19007KT 2 1/2SM BR OVC003 18/17 A2976 1220 90 1900 190/07 RMK AO2 SLP075 T01830167 50001
94908KDBQ DBQ20050519090010305/19/05 09:00:31  5-MIN KDBQ 191500Z 21007KT 2 1/2SM BR OVC003 18/17 A2976 1220 90 1900 210/07 RMK AO2
94908KDBQ DBQ20050519090510305/19/05 09:05:31  5-MIN KDBQ 191505Z 19006KT 2 1/2SM BR BKN003 18/17 A2976 1220 90 1900 190/06 RMK AO2
94908KDBQ DBQ20050519091010005/19/05 09:10:31  5-MIN KDBQ 191510Z 18007KT 3SM BR BKN003 19/17 A2976  1220 90 2000 180/07 RMK AO2
94908KDBQ DBQ20050519091510005/19/05 09:15:31  5-MIN KDBQ 191515Z 18008KT 3SM BR BKN003 19/17 A2976  1220 87 2100 180/08 RMK AO2
94908KDBQ DBQ20050519092010005/19/05 09:20:31  5-MIN KDBQ 191520Z 20008KT 4SM BR SCT003 19/17 A2976  1220 87 2100 200/08 RMK AO2
94908KDBQ DBQ20050519092510005/19/05 09:25:31  5-MIN KDBQ 191525Z 21009KT 4SM HZ FEW003 20/17 A2976  1220 84 2100 210/09 RMK AO2
94908KDBQ DBQ20050519093010005/19/05 09:30:31  5-MIN KDBQ 191530Z 21009KT 5SM BR FEW005 20/18 A2977  1220 87 2100 210/09 RMK AO2
94908KDBQ DBQ20050519093509705/19/05 09:35:31  5-MIN KDBQ 191535Z 22007KT 5SM HZ CLR 21/17 A2977 1220  81 2200 210/07 RMK AO2
94908KDBQ DBQ20050519094009705/19/05 09:40:31  5-MIN KDBQ 191540Z 23007KT 6SM HZ CLR 21/17 A2976 1220  81 2200 230/07 RMK AO2
94908KDBQ DBQ20050519094510005/19/05 09:45:31  5-MIN KDBQ 191545Z 23008KT 6SM HZ FEW095 21/17 A2977  1220 81 2200 220/08 RMK AO2
94908KDBQ DBQ20050519095011405/19/05 09:50:31  5-MIN KDBQ 191550Z 22007KT 7SM SCT095 21/17 A2976 1220  81 2200 220/07 RMK AO2 SLP075 T02060172
94908KDBQ DBQ20050519095511405/19/05 09:55:31  5-MIN KDBQ 191555Z 20007KT 8SM SCT095 21/17 A2976 1220  78 2300 200/07 RMK AO2 SLP075 T02110172
94908KDBQ DBQ20050519100009705/19/05 10:00:31  5-MIN KDBQ 191600Z 20007KT 9SM FEW095 21/17 A2977 1220  75 2300 190/07 RMK AO2
94908KDBQ DBQ20050519100509705/19/05 10:05:31  5-MIN KDBQ 191605Z 20008KT 9SM SCT095 22/17 A2976 1220  73 2300 200/08 RMK AO2
94908KDBQ DBQ20050519101009705/19/05 10:10:31  5-MIN KDBQ 191610Z 20007KT 9SM SCT095 21/16 A2976 1220  73 2300 200/07 RMK AO2
94908KDBQ DBQ20050519101509705/19/05 10:15:31  5-MIN KDBQ 191615Z 19007KT 9SM FEW095 22/16 A2976 1220  70 2300 190/07 RMK AO2
94908KDBQ DBQ20050519102010505/19/05 10:20:31  5-MIN KDBQ 191620Z 19008KT 10SM FEW070 SCT095 22/16  A2976 1230 68 2400 190/08 RMK AO2
94908KDBQ DBQ20050519102510505/19/05 10:25:31  5-MIN KDBQ 191625Z 20007KT 10SM FEW070 SCT090 22/16  A2976 1220 70 2300 200/07 RMK AO2
94908KDBQ DBQ20050519103009705/19/05 10:30:31  5-MIN KDBQ 191630Z 20008KT 10SM BKN095 22/16 A2976 1230 70 2300 200/08 RMK AO2
94908KDBQ DBQ20050519103509705/19/05 10:35:31  5-MIN KDBQ 191635Z 20007KT 10SM BKN090 22/16 A2976 1230 65 2400 200/07 RMK AO2
94908KDBQ DBQ20050519104009705/19/05 10:40:31  5-MIN KDBQ 191640Z 24009KT 10SM BKN095 22/15 A2976 1230 63 2400 240/09 RMK AO2
94908KDBQ DBQ20050519104510505/19/05 10:45:31  5-MIN KDBQ 191645Z 25007KT 10SM FEW070 BKN090 22/15  A2976 1230 63 2400 250/07 RMK AO2
94908KDBQ DBQ20050519105012205/19/05 10:50:31  5-MIN KDBQ 191650Z 24006KT 10SM FEW080 BKN090 22/15  A2976 1230 65 2300 240/06 RMK AO2 SLP074 T02170150
94908KDBQ DBQ20050519105512905/19/05 10:55:31  5-MIN KDBQ 191655Z 24006KT 10SM FEW055 SCT080 BKN090  22/15 A2976 1230 65 2300 230/06 RMK AO2 SLP074 T02170150
94908KDBQ DBQ20050519110011205/19/05 11:00:31  5-MIN KDBQ 191700Z 24008KT 10SM SCT055 SCT075 BKN090  22/15 A2976 1230 65 2300 240/08 RMK AO2
94908KDBQ DBQ20050519110510505/19/05 11:05:31  5-MIN KDBQ 191705Z 25009KT 10SM FEW048 OVC085 22/14  A2976 1230 63 2300 250/09 RMK AO2
94908KDBQ DBQ20050519111011205/19/05 11:10:31  5-MIN KDBQ 191710Z 24009KT 10SM FEW048 BKN080 OVC095  21/14 A2976 1230 65 2300 240/09 RMK AO2
94908KDBQ DBQ20050519111511205/19/05 11:15:31  5-MIN KDBQ 191715Z 25009KT 10SM FEW048 BKN075 OVC090  21/14 A2976 1230 65 2300 250/09 RMK AO2
94908KDBQ DBQ20050519112010505/19/05 11:20:31  5-MIN KDBQ 191720Z 26008KT 10SM FEW048 OVC075 21/14  A2976 1230 65 2300 260/08 RMK AO2
94908KDBQ DBQ20050519112511205/19/05 11:25:31  5-MIN KDBQ 191725Z 25007KT 10SM FEW055 BKN075 OVC090  21/14 A2976 1230 65 2300 250/07 RMK AO2
94908KDBQ DBQ20050519113012005/19/05 11:30:31  5-MIN KDBQ 191730Z 26006KT 10SM -RA SCT047 OVC080 21/14 A2976 1230 65 2300 260/06 RMK AO2 RAB28 P0000
94908KDBQ DBQ20050519113512005/19/05 11:35:31  5-MIN KDBQ 191735Z 25005KT 8SM -RA SCT032 BKN075 21/15  A2976 1230 68 2300 250/05 RMK AO2 RAB28 P0000
94908KDBQ DBQ20050519114012605/19/05 11:40:31  5-MIN KDBQ 191740Z 24009KT 8SM -RA SCT032 BKN046 BKN070 21/14 A2976 1230 65 2300 240/09 RMK AO2 RAB28 P0001
94908KDBQ DBQ20050519114512705/19/05 11:45:31  5-MIN KDBQ 191745Z 25006KT 10SM -RA SCT041 SCT075 BKN095 21/14 A2976 1230 65 2300 250/06 RMK AO2 RAB28 P0001
94908KDBQ DBQ20050519115016205/19/05 11:50:31  5-MIN KDBQ 191750Z 26005KT 10SM SCT045 BKN090 21/14  A2976 1230 65 2300 260/05 RMK AO2 RAB28E46 SLP073 P0001 60001 T02110144  10222 20139 50001
94908KDBQ DBQ20050519115516205/19/05 11:55:31  5-MIN KDBQ 191755Z 27005KT 10SM SCT041 BKN090 21/14  A2975 1230 65 2300 270/05 RMK AO2 RAB28E46 SLP072 P0001 60001 T02110144  10222 20139 58003
94908KDBQ DBQ20050519120010505/19/05 12:00:31  5-MIN KDBQ 191800Z 27004KT 10SM FEW055 BKN090 21/14  A2975 1240 65 2300 270/04 RMK AO2
94908KDBQ DBQ20050519120509705/19/05 12:05:31  5-MIN KDBQ 191805Z 27004KT 10SM BKN090 22/15 A2975 1240 65 2300 260/04 RMK AO2
94908KDBQ DBQ20050519121009705/19/05 12:10:31  5-MIN KDBQ 191810Z 25005KT 10SM BKN095 22/15 A2974 1240 63 2400 250/05 RMK AO2
94908KDBQ DBQ20050519121509705/19/05 12:15:31  5-MIN KDBQ 191815Z 25004KT 10SM BKN095 22/14 A2974 1250 61 2400 250/04 RMK AO2
94908KDBQ DBQ20050519122009705/19/05 12:20:31  5-MIN KDBQ 191820Z 27005KT 10SM SCT095 23/15 A2974 1240 61 2500 270/05 RMK AO2
94908KDBQ DBQ20050519122509705/19/05 12:25:31  5-MIN KDBQ 191825Z 27006KT 10SM FEW095 23/15 A2974 1250 61 2500 270/06 RMK AO2
94908KDBQ DBQ20050519123009705/19/05 12:30:31  5-MIN KDBQ 191830Z 27005KT 10SM FEW100 23/15 A2974 1250 61 2500 260/05 RMK AO2
94908KDBQ DBQ20050519123509705/19/05 12:35:31  5-MIN KDBQ 191835Z 27008KT 10SM FEW100 23/14 A2974 1250 59 2500 260/08 RMK AO2
94908KDBQ DBQ20050519124009405/19/05 12:40:31  5-MIN KDBQ 191840Z 27009KT 10SM CLR 23/14 A2974 1250 59 2500 270/09 RMK AO2
94908KDBQ DBQ20050519124509405/19/05 12:45:31  5-MIN KDBQ 191845Z 29009KT 10SM CLR 23/16 A2974 1250 61 2500 290/09 RMK AO2
94908KDBQ DBQ20050519125011105/19/05 12:50:31  5-MIN KDBQ 191850Z 28009KT 10SM CLR 23/15 A2974 1250 61 2500 280/09 RMK AO2 SLP067 T02280150
94908KDBQ DBQ20050519125511105/19/05 12:55:31  5-MIN KDBQ 191855Z 28009KT 10SM CLR 23/15 A2974 1250 61 2500 280/09 RMK AO2 SLP066 T02280150
94908KDBQ DBQ20050519130009405/19/05 13:00:31  5-MIN KDBQ 191900Z 28008KT 10SM CLR 23/14 A2973 1260 59 2500 280/08 RMK AO2
94908KDBQ DBQ20050519130509405/19/05 13:05:31  5-MIN KDBQ 191905Z 27009KT 10SM CLR 23/14 A2973 1260 57 2500 270/09 RMK AO2
94908KDBQ DBQ20050519131009405/19/05 13:10:31  5-MIN KDBQ 191910Z 28010KT 10SM CLR 23/14 A2973 1260 59 2500 280/10 RMK AO2
94908KDBQ DBQ20050519131509405/19/05 13:15:31  5-MIN KDBQ 191915Z 28008KT 10SM CLR 23/14 A2973 1260 57 2500 280/08 RMK AO2
94908KDBQ DBQ20050519132009405/19/05 13:20:31  5-MIN KDBQ 191920Z 31008KT 10SM CLR 23/14 A2973 1260 59 2500 310/08 RMK AO2
94908KDBQ DBQ20050519132509405/19/05 13:25:31  5-MIN KDBQ 191925Z 28008KT 10SM CLR 22/15 A2973 1260 63 2400 280/08 RMK AO2
94908KDBQ DBQ20050519133009405/19/05 13:30:31  5-MIN KDBQ 191930Z 31008KT 10SM CLR 22/15 A2973 1260 63 2400 310/08 RMK AO2
94908KDBQ DBQ20050519133509405/19/05 13:35:31  5-MIN KDBQ 191935Z 28008KT 10SM CLR 23/15 A2973 1260 61 2500 280/08 RMK AO2
94908KDBQ DBQ20050519134009405/19/05 13:40:31  5-MIN KDBQ 191940Z 30007KT 10SM CLR 23/16 A2973 1260 61 2600 300/07 RMK AO2
94908KDBQ DBQ20050519134509405/19/05 13:45:31  5-MIN KDBQ 191945Z 31007KT 10SM CLR 23/16 A2973 1260 61 2600 310/07 RMK AO2
94908KDBQ DBQ20050519135011405/19/05 13:50:31  5-MIN KDBQ 191950Z 31010KT 10SM FEW100 23/16 A2973 1260 61 2600 310/10 RMK AO2 SLP061 T02330156
94908KDBQ DBQ20050519135511405/19/05 13:55:31  5-MIN KDBQ 191955Z 30009KT 10SM FEW100 23/15 A2972 1260 61 2500 300/09 RMK AO2 SLP062 T02280150
94908KDBQ DBQ20050519140009705/19/05 14:00:31  5-MIN KDBQ 192000Z 32011KT 10SM FEW100 23/16 A2972 1260 61 2600 320/11 RMK AO2
94908KDBQ DBQ20050519140509705/19/05 14:05:31  5-MIN KDBQ 192005Z 30010KT 10SM FEW100 24/16 A2972 1260 59 2600 290/10 RMK AO2
94908KDBQ DBQ20050519141009705/19/05 14:10:31  5-MIN KDBQ 192010Z 31011KT 10SM FEW100 24/16 A2972 1260 59 2600 310/11 RMK AO2
94908KDBQ DBQ20050519141509705/19/05 14:15:31  5-MIN KDBQ 192015Z 28011KT 10SM FEW100 23/15 A2972 1270 59 2600 280/11 RMK AO2
94908KDBQ DBQ20050519142009705/19/05 14:20:31  5-MIN KDBQ 192020Z 30010KT 10SM FEW100 23/15 A2972 1260 59 2600 300/10 RMK AO2
94908KDBQ DBQ20050519142509705/19/05 14:25:31  5-MIN KDBQ 192025Z 30010KT 10SM FEW095 23/14 A2972 1270 57 2600 300/10 RMK AO2
94908KDBQ DBQ20050519143009705/19/05 14:30:31  5-MIN KDBQ 192030Z 30014KT 10SM SCT095 24/14 A2972 1270 55 2600 300/14 RMK AO2
94908KDBQ DBQ20050519143509705/19/05 14:35:31  5-MIN KDBQ 192035Z 31012KT 10SM SCT090 24/14 A2972 1270 55 2600 310/12 RMK AO2
94908KDBQ DBQ20050519144009705/19/05 14:40:31  5-MIN KDBQ 192040Z 30013KT 10SM SCT090 23/14 A2972 1260 55 2600 300/13 RMK AO2
94908KDBQ DBQ20050519144509705/19/05 14:45:31  5-MIN KDBQ 192045Z 32015KT 10SM BKN090 23/13 A2972 1260 55 2500 320/15 RMK AO2
94908KDBQ DBQ20050519145012005/19/05 14:50:31  5-MIN KDBQ 192050Z 31011KT 10SM BKN090 23/13 A2972 1270 55 2500 310/11 RMK AO2 SLP060 T02280133 58003
94908KDBQ DBQ20050519145512005/19/05 14:55:31  5-MIN KDBQ 192055Z 30012KT 10SM BKN090 24/13 A2972 1270 51 2600 300/12 RMK AO2 SLP059 T02390133 56012
94908KDBQ DBQ20050519150009705/19/05 15:00:31  5-MIN KDBQ 192100Z 31018KT 10SM BKN090 23/13 A2972 1260 51 2600 310/18 RMK AO2
94908KDBQ DBQ20050519150509705/19/05 15:05:31  5-MIN KDBQ 192105Z 30014KT 10SM BKN090 23/12 A2972 1260 47 2600 300/14 RMK AO2
94908KDBQ DBQ20050519151009705/19/05 15:10:31  5-MIN KDBQ 192110Z 32016KT 10SM BKN090 24/12 A2972 1260 46 2600 320/16 RMK AO2
94908KDBQ DBQ20050519151509705/19/05 15:15:31  5-MIN KDBQ 192115Z 30016KT 10SM SCT090 24/12 A2972 1260 47 2600 300/16 RMK AO2
94908KDBQ DBQ20050519152010405/19/05 15:20:31  5-MIN KDBQ 192120Z 29018G21KT 10SM SCT090 24/12 A2972  1260 46 2600 290/18G21 RMK AO2
94908KDBQ DBQ20050519152510405/19/05 15:25:31  5-MIN KDBQ 192125Z 30015G23KT 10SM FEW090 24/12 A2972  1260 46 2600 300/15G23 RMK AO2
94908KDBQ DBQ20050519153010405/19/05 15:30:31  5-MIN KDBQ 192130Z 30017G23KT 10SM FEW090 24/11 A2972  1260 44 2600 300/17G23 RMK AO2
94908KDBQ DBQ20050519153509405/19/05 15:35:31  5-MIN KDBQ 192135Z 29015KT 10SM CLR 23/12 A2972 1260 47 2600 290/15 RMK AO2
94908KDBQ DBQ20050519154010005/19/05 15:40:31  5-MIN KDBQ 192140Z 31013G20KT 10SM CLR 24/12 A2973 1260 47 2600 300/13G20 RMK AO2
94908KDBQ DBQ20050519154510005/19/05 15:45:31  5-MIN KDBQ 192145Z 30017G21KT 10SM CLR 24/12 A2972 1260 47 2600 300/17G21 RMK AO2
94908KDBQ DBQ20050519155011705/19/05 15:50:31  5-MIN KDBQ 192150Z 30015G21KT 10SM CLR 24/13 A2972 1260 49 2600 300/15G21 RMK AO2 SLP062 T02390128
94908KDBQ DBQ20050519155511105/19/05 15:55:31  5-MIN KDBQ 192155Z 29014KT 10SM CLR 23/13 A2972 1260 51 2600 290/14 RMK AO2 SLP062 T02330128
94908KDBQ DBQ20050519160009705/19/05 16:00:31  5-MIN KDBQ 192200Z 32011KT 10SM FEW049 23/13 A2973 1260 51 2600 320/11 RMK AO2
94908KDBQ DBQ20050519160509705/19/05 16:05:31  5-MIN KDBQ 192205Z 32012KT 10SM SCT049 23/13 A2973 1260 53 2500 320/12 RMK AO2
94908KDBQ DBQ20050519161009705/19/05 16:10:31  5-MIN KDBQ 192210Z 33011KT 10SM FEW049 23/13 A2973 1260 53 2600 330/11 RMK AO2
94908KDBQ DBQ20050519161509705/19/05 16:15:31  5-MIN KDBQ 192215Z 32012KT 10SM FEW049 22/13 A2973 1260 54 2400 320/12 RMK AO2
94908KDBQ DBQ20050519162009705/19/05 16:20:31  5-MIN KDBQ 192220Z 31014KT 10SM FEW049 22/12 A2973 1260 52 2400 310/14 RMK AO2
94908KDBQ DBQ20050519162509705/19/05 16:25:31  5-MIN KDBQ 192225Z 30012KT 10SM FEW049 22/13 A2973 1260 54 2400 300/12 RMK AO2
94908KDBQ DBQ20050519163009405/19/05 16:30:31  5-MIN KDBQ 192230Z 30013KT 10SM CLR 22/12 A2973 1260 54 2400 300/13 RMK AO2
94908KDBQ DBQ20050519163509405/19/05 16:35:31  5-MIN KDBQ 192235Z 30011KT 10SM CLR 22/12 A2973 1260 54 2400 300/11 RMK AO2
94908KDBQ DBQ20050519164009405/19/05 16:40:31  5-MIN KDBQ 192240Z 29011KT 10SM CLR 22/13 A2973 1260 56 2400 290/11 RMK AO2
94908KDBQ DBQ20050519164509705/19/05 16:45:31  5-MIN KDBQ 192245Z 30010KT 10SM FEW055 22/13 A2973 1260 56 2400 300/10 RMK AO2
94908KDBQ DBQ20050519165012205/19/05 16:50:31  5-MIN KDBQ 192250Z 30010KT 10SM SCT050 SCT060 22/13  A2973 1250 56 2400 300/10 RMK AO2 SLP064 T02170128
94908KDBQ DBQ20050519165511405/19/05 16:55:31  5-MIN KDBQ 192255Z 32009KT 10SM SCT050 22/13 A2973 1250 58 2400 320/09 RMK AO2 SLP065 T02170133
94908KDBQ DBQ20050519170010505/19/05 17:00:31  5-MIN KDBQ 192300Z 33006KT 10SM BKN050 BKN060 22/13  A2973 1250 58 2400 330/06 RMK AO2
94908KDBQ DBQ20050519170510505/19/05 17:05:31  5-MIN KDBQ 192305Z 33010KT 10SM BKN050 BKN060 22/13  A2974 1250 58 2400 330/10 RMK AO2
94908KDBQ DBQ20050519171010505/19/05 17:10:31  5-MIN KDBQ 192310Z 35008KT 10SM SCT048 BKN060 22/13  A2974 1250 58 2400 350/08 RMK AO2
94908KDBQ DBQ20050519171510905/19/05 17:15:31  5-MIN KDBQ 192315Z AUTO 34012KT 10SM BKN048 OVC060 21/13 A2974 1240 61 2300 340/12 RMK AO2
94908KDBQ DBQ20050519172010505/19/05 17:20:31  5-MIN KDBQ 192320Z 35014KT 10SM BKN046 BKN060 21/13  A2975 1240 63 2200 350/14 RMK AO2
94908KDBQ DBQ20050519172510505/19/05 17:25:31  5-MIN KDBQ 192325Z 36014KT 10SM BKN046 BKN060 20/14  A2974 1240 67 2200 360/14 RMK AO2
94908KDBQ DBQ20050519173011205/19/05 17:30:31  5-MIN KDBQ 192330Z 36013KT 10SM SCT046 BKN060 BKN095  19/14 A2974 1240 72 2100 360/13 RMK AO2
94908KDBQ DBQ20050519173511205/19/05 17:35:31  5-MIN KDBQ 192335Z 36010KT 10SM FEW046 SCT060 BKN095  19/14 A2975 1230 75 2000 360/10 RMK AO2
94908KDBQ DBQ20050519174010505/19/05 17:40:31  5-MIN KDBQ 192340Z 35009KT 10SM FEW046 BKN100 19/14  A2975 1230 75 2000 350/09 RMK AO2
94908KDBQ DBQ20050519174510505/19/05 17:45:31  5-MIN KDBQ 192345Z 36008KT 10SM FEW048 BKN100 19/14  A2976 1230 75 2000 360/08 RMK AO2
94908KDBQ DBQ20050519175014005/19/05 17:50:31  5-MIN KDBQ 192350Z 36007KT 10SM SCT070 BKN100 18/14  A2976 1230 75 1900 360/07 RMK AO2 SLP076 T01830139 10244 20183 56012
94908KDBQ DBQ20050519175514705/19/05 17:55:31  5-MIN KDBQ 192355Z 36007KT 10SM BKN065 BKN090 BKN110  18/14 A2976 1230 78 1900 360/07 RMK AO2 SLP077 T01830144 10244 20183 53015
94908KDBQ DBQ20050519180011205/19/05 18:00:31  5-MIN KDBQ 200000Z 36007KT 10SM SCT065 BKN090 OVC110  18/14 A2976 1220 78 1900 360/07 RMK AO2
94908KDBQ DBQ20050519180510505/19/05 18:05:31  5-MIN KDBQ 200005Z 36008KT 10SM SCT065 OVC095 18/14  A2977 1220 78 1900 360/08 RMK AO2
94908KDBQ DBQ20050519181010505/19/05 18:10:31  5-MIN KDBQ 200010Z 36008KT 10SM FEW065 OVC085 18/14  A2977 1220 78 1900 360/08 RMK AO2
94908KDBQ DBQ20050519181510505/19/05 18:15:31  5-MIN KDBQ 200015Z 36009KT 10SM FEW065 OVC085 18/15  A2977 1220 81 1900 360/09 RMK AO2
94908KDBQ DBQ20050519182011205/19/05 18:20:31  5-MIN KDBQ 200020Z 36007KT 10SM FEW050 SCT065 OVC090  18/14 A2977 1220 78 1900 360/07 RMK AO2
94908KDBQ DBQ20050519182511205/19/05 18:25:31  5-MIN KDBQ 200025Z 36007KT 10SM FEW050 SCT070 OVC090  18/15 A2977 1220 81 1900 360/07 RMK AO2
94908KDBQ DBQ20050519183011205/19/05 18:30:31  5-MIN KDBQ 200030Z 36007KT 10SM FEW050 SCT065 OVC085  18/15 A2977 1220 81 1900 360/07 RMK AO2
94908KDBQ DBQ20050519183512705/19/05 18:35:31  5-MIN KDBQ 200035Z 36008KT 10SM -RA BKN060 BKN080 OVC090 18/15 A2977 1210 81 1900 360/08 RMK AO2 RAB34 P0000
94908KDBQ DBQ20050519184012705/19/05 18:40:31  5-MIN KDBQ 200040Z 36006KT 10SM -RA SCT060 BKN075 OVC090 18/15 A2977 1220 83 1900 360/06 RMK AO2 RAB34 P0000
94908KDBQ DBQ20050519184513805/19/05 18:45:31  5-MIN KDBQ 200045Z AUTO 01005KT 10SM -RA FEW048 SCT065  OVC085 18/15 A2977 1220 83 1900 010/05 RMK AO2 RAB34 P0000 TSNO
94908KDBQ DBQ20050519185014605/19/05 18:50:31  5-MIN KDBQ 200050Z AUTO 36005KT 10SM SCT065 OVC085 18/15 A2977 1220 83 1900 360/05 RMK AO2 RAB34E47 SLP079 P0000 T01780150 TSNO
94908KDBQ DBQ20050519185515505/19/05 18:55:31  5-MIN KDBQ 200055Z AUTO 36005KT 10SM SCT065 BKN075  OVC110 18/15 A2977 1220 83 1900 360/05 RMK AO2 RAB34E47 SLP079 P0000  T01780150 TSNO
94908KDBQ DBQ20050519190012205/19/05 19:00:31  5-MIN KDBQ 200100Z AUTO 35005KT 10SM FEW060 BKN080  OVC110 18/16 A2977 1210 87 1900 350/05 RMK AO2 TSNO
94908KDBQ DBQ20050519190512205/19/05 19:05:31  5-MIN KDBQ 200105Z AUTO 34005KT 10SM FEW065 BKN085  OVC120 17/16 A2977 1210 90 1800 340/05 RMK AO2 TSNO
94908KDBQ DBQ20050519191012205/19/05 19:10:31  5-MIN KDBQ 200110Z AUTO 35005KT 10SM FEW065 BKN085  OVC120 17/16 A2976 1220 90 1800 350/05 RMK AO2 TSNO
94908KDBQ DBQ20050519191511405/19/05 19:15:31  5-MIN KDBQ 200115Z AUTO 35004KT 10SM BKN085 BKN120 17/15 A2977 1210 87 1800 350/04 RMK AO2 TSNO
94908KDBQ DBQ20050519192011405/19/05 19:20:31  5-MIN KDBQ 200120Z AUTO 35005KT 10SM BKN085 BKN120 17/15 A2976 1220 90 1700 350/05 RMK AO2 TSNO
94908KDBQ DBQ20050519192511405/19/05 19:25:31  5-MIN KDBQ 200125Z AUTO 35005KT 10SM BKN085 BKN110 17/14 A2978 1210 86 1700 350/05 RMK AO2 TSNO
94908KDBQ DBQ20050519193011405/19/05 19:30:31  5-MIN KDBQ 200130Z AUTO 35006KT 10SM SCT085 BKN110 16/14 A2977 1220 90 1700 350/06 RMK AO2 TSNO
94908KDBQ DBQ20050519193511405/19/05 19:35:31  5-MIN KDBQ 200135Z AUTO 34006KT 10SM SCT085 BKN110 16/14 A2978 1210 90 1700 340/06 RMK AO2 TSNO
94908KDBQ DBQ20050519194011405/19/05 19:40:31  5-MIN KDBQ 200140Z AUTO 34006KT 10SM FEW080 SCT110 16/14 A2977 1220 90 1700 340/06 RMK AO2 TSNO
94908KDBQ DBQ20050519194510705/19/05 19:45:31  5-MIN KDBQ 200145Z AUTO 35006KT 10SM FEW080 16/14 A2978 1210 86 1700 350/06 RMK AO2 TSNO
94908KDBQ DBQ20050519195012405/19/05 19:50:31  5-MIN KDBQ 200150Z AUTO 35006KT 10SM FEW110 16/14 A2977 1220 90 1600 350/06 RMK AO2 SLP080 T01560139 TSNO
94908KDBQ DBQ20050519195512205/19/05 19:55:31  5-MIN KDBQ 200155Z AUTO 36004KT 10SM CLR 16/14 A2978  1210 90 1600 360/04 RMK AO2 SLP082 T01560139 TSNO
94908KDBQ DBQ20050519200010505/19/05 20:00:31  5-MIN KDBQ 200200Z AUTO 35004KT 10SM CLR 16/14 A2977  1220 90 1600 350/04 RMK AO2 TSNO
94908KDBQ DBQ20050519200510505/19/05 20:05:31  5-MIN KDBQ 200205Z AUTO 01004KT 10SM CLR 16/14 A2978  1210 90 1600 010/04 RMK AO2 TSNO
94908KDBQ DBQ20050519201010505/19/05 20:10:31  5-MIN KDBQ 200210Z AUTO 01005KT 10SM CLR 16/14 A2978  1210 86 1700 010/05 RMK AO2 TSNO
94908KDBQ DBQ20050519201510505/19/05 20:15:31  5-MIN KDBQ 200215Z AUTO 01006KT 10SM CLR 16/14 A2978  1210 86 1700 010/06 RMK AO2 TSNO
94908KDBQ DBQ20050519202010505/19/05 20:20:31  5-MIN KDBQ 200220Z AUTO 01005KT 10SM CLR 16/14 A2978  1210 86 1700 010/05 RMK AO2 TSNO
94908KDBQ DBQ20050519202510505/19/05 20:25:31  5-MIN KDBQ 200225Z AUTO 36005KT 10SM CLR 16/14 A2978  1210 86 1700 360/05 RMK AO2 TSNO
94908KDBQ DBQ20050519203010505/19/05 20:30:31  5-MIN KDBQ 200230Z AUTO 01007KT 10SM CLR 16/14 A2980  1190 86 1600 010/07 RMK AO2 TSNO
94908KDBQ DBQ20050519203510505/19/05 20:35:31  5-MIN KDBQ 200235Z AUTO 01008KT 10SM CLR 16/14 A2979  1200 90 1700 010/08 RMK AO2 TSNO
94908KDBQ DBQ20050519204010505/19/05 20:40:31  5-MIN KDBQ 200240Z AUTO 01009KT 10SM CLR 16/14 A2979  1200 90 1600 010/09 RMK AO2 TSNO
94908KDBQ DBQ20050519204510505/19/05 20:45:31  5-MIN KDBQ 200245Z AUTO 02009KT 10SM CLR 16/14 A2979  1200 90 1600 020/09 RMK AO2 TSNO
94908KDBQ DBQ20050519205013405/19/05 20:50:31  5-MIN KDBQ 200250Z AUTO 03008KT 10SM CLR 17/14 A2979  1200 86 1700 030/08 RMK AO2 SLP086 60000 T01670144 53015 TSNO
94908KDBQ DBQ20050519205513405/19/05 20:55:31  5-MIN KDBQ 200255Z AUTO 03009KT 10SM CLR 16/14 A2979  1200 90 1600 030/09 RMK AO2 SLP086 60000 T01610144 53010 TSNO
94908KDBQ DBQ20050519210010505/19/05 21:00:31  5-MIN KDBQ 200300Z AUTO 03008KT 10SM CLR 16/14 A2980  1190 86 1600 030/08 RMK AO2 TSNO
94908KDBQ DBQ20050519210510505/19/05 21:05:31  5-MIN KDBQ 200305Z AUTO 03008KT 10SM CLR 16/14 A2980  1190 86 1600 030/08 RMK AO2 TSNO
94908KDBQ DBQ20050519211010505/19/05 21:10:31  5-MIN KDBQ 200310Z AUTO 03008KT 10SM CLR 16/14 A2980  1190 86 1600 030/08 RMK AO2 TSNO
94908KDBQ DBQ20050519211510505/19/05 21:15:31  5-MIN KDBQ 200315Z AUTO 04008KT 10SM CLR 16/14 A2980  1190 90 1600 040/08 RMK AO2 TSNO
94908KDBQ DBQ20050519212010505/19/05 21:20:31  5-MIN KDBQ 200320Z AUTO 04008KT 10SM CLR 16/14 A2981  1180 90 1600 040/08 RMK AO2 TSNO
94908KDBQ DBQ20050519212510505/19/05 21:25:31  5-MIN KDBQ 200325Z AUTO 04008KT 10SM CLR 16/14 A2980  1190 90 1600 040/08 RMK AO2 TSNO
94908KDBQ DBQ20050519213010505/19/05 21:30:31  5-MIN KDBQ 200330Z AUTO 04008KT 10SM CLR 16/14 A2980  1190 90 1600 030/08 RMK AO2 TSNO
94908KDBQ DBQ20050519213510505/19/05 21:35:31  5-MIN KDBQ 200335Z AUTO 03008KT 10SM CLR 16/14 A2982  1180 90 1600 030/08 RMK AO2 TSNO
94908KDBQ DBQ20050519214010505/19/05 21:40:31  5-MIN KDBQ 200340Z AUTO 03007KT 10SM CLR 15/14 A2981  1180 93 1500 030/07 RMK AO2 TSNO
94908KDBQ DBQ20050519214510305/19/05 21:45:31  5-MIN KDBQ 200345Z AUTO 03008KT 9SM CLR 15/13 A2981 1180 90 1500 030/08 RMK AO2 TSNO
94908KDBQ DBQ20050519215012005/19/05 21:50:31  5-MIN KDBQ 200350Z AUTO 03007KT 9SM CLR 15/13 A2981 1180 90 1500 030/07 RMK AO2 SLP092 T01500133 TSNO
94908KDBQ DBQ20050519215512005/19/05 21:55:31  5-MIN KDBQ 200355Z AUTO 03009KT 8SM CLR 15/13 A2982 1170 90 1500 030/09 RMK AO2 SLP096 T01500133 TSNO
94908KDBQ DBQ20050519220010305/19/05 22:00:31  5-MIN KDBQ 200400Z AUTO 03009KT 8SM CLR 15/13 A2981 1180 90 1500 030/09 RMK AO2 TSNO
94908KDBQ DBQ20050519220510305/19/05 22:05:31  5-MIN KDBQ 200405Z AUTO 03009KT 7SM CLR 15/13 A2981 1180 90 1500 030/09 RMK AO2 TSNO
94908KDBQ DBQ20050519221010305/19/05 22:10:31  5-MIN KDBQ 200410Z AUTO 04009KT 7SM CLR 15/13 A2981 1180 90 1500 040/09 RMK AO2 TSNO
94908KDBQ DBQ20050519221510705/19/05 22:15:31  5-MIN KDBQ 200415Z AUTO 04009KT 6SM BR CLR 15/13 A2983  1160 90 1500 040/09 RMK AO2 TSNO
94908KDBQ DBQ20050519222010705/19/05 22:20:31  5-MIN KDBQ 200420Z AUTO 04008KT 6SM BR CLR 15/13 A2982  1170 90 1500 040/08 RMK AO2 TSNO
94908KDBQ DBQ20050519222510705/19/05 22:25:31  5-MIN KDBQ 200425Z AUTO 03008KT 5SM BR CLR 15/13 A2982  1170 90 1500 030/08 RMK AO2 TSNO
94908KDBQ DBQ20050519223010705/19/05 22:30:31  5-MIN KDBQ 200430Z AUTO 03007KT 5SM BR CLR 14/13 A2982  1170 93 1400 030/07 RMK AO2 TSNO
94908KDBQ DBQ20050519223511005/19/05 22:35:31  5-MIN KDBQ 200435Z AUTO 03007KT 5SM BR FEW007 14/13  A2982 1170 93 1400 030/07 RMK AO2 TSNO
94908KDBQ DBQ20050519224011005/19/05 22:40:31  5-MIN KDBQ 200440Z AUTO 03007KT 4SM BR SCT007 14/13  A2983 1170 93 1400 030/07 RMK AO2 TSNO
94908KDBQ DBQ20050519224511005/19/05 22:45:31  5-MIN KDBQ 200445Z AUTO 04007KT 4SM BR BKN007 14/13  A2983 1160 93 1400 040/07 RMK AO2 TSNO
94908KDBQ DBQ20050519225012705/19/05 22:50:31  5-MIN KDBQ 200450Z AUTO 03006KT 4SM BR BKN007 14/14  A2983 1160 96 1400 030/06 RMK AO2 SLP098 T01440139 TSNO
94908KDBQ DBQ20050519225512705/19/05 22:55:31  5-MIN KDBQ 200455Z AUTO 03007KT 4SM BR BKN007 15/14  A2983 1160 93 1500 030/07 RMK AO2 SLP099 T01500139 TSNO
94908KDBQ DBQ20050519230011005/19/05 23:00:31  5-MIN KDBQ 200500Z AUTO 03008KT 4SM BR OVC007 15/14  A2984 1150 93 1500 030/08 RMK AO2 TSNO
94908KDBQ DBQ20050519230511005/19/05 23:05:31  5-MIN KDBQ 200505Z AUTO 02006KT 4SM BR OVC007 15/14  A2984 1160 93 1500 020/06 RMK AO2 TSNO
94908KDBQ DBQ20050519231011005/19/05 23:10:31  5-MIN KDBQ 200510Z AUTO 03010KT 4SM BR OVC007 15/14  A2984 1160 93 1500 030/10 RMK AO2 TSNO
94908KDBQ DBQ20050519231511005/19/05 23:15:31  5-MIN KDBQ 200515Z AUTO 03010KT 4SM BR OVC007 15/14  A2984 1150 93 1500 030/10 RMK AO2 TSNO
94908KDBQ DBQ20050519232011005/19/05 23:20:31  5-MIN KDBQ 200520Z AUTO 03010KT 4SM BR OVC007 15/14  A2984 1150 93 1500 030/10 RMK AO2 TSNO
94908KDBQ DBQ20050519232511005/19/05 23:25:31  5-MIN KDBQ 200525Z AUTO 03012KT 4SM BR OVC007 14/13  A2985 1140 93 1400 030/12 RMK AO2 TSNO
94908KDBQ DBQ20050519233011005/19/05 23:30:31  5-MIN KDBQ 200530Z AUTO 03010KT 4SM BR OVC007 14/13  A2984 1150 93 1400 030/10 RMK AO2 TSNO
94908KDBQ DBQ20050519233511005/19/05 23:35:31  5-MIN KDBQ 200535Z AUTO 03013KT 4SM BR OVC007 14/13  A2984 1150 93 1400 030/13 RMK AO2 TSNO
94908KDBQ DBQ20050519234012205/19/05 23:40:31  5-MIN KDBQ 200540Z AUTO 03013KT 4SM BR OVC007 14/13  A2984 1150 90 1400 030/13 RMK AO2 CIG 004V010 TSNO
94908KDBQ DBQ20050519234512205/19/05 23:45:31  5-MIN KDBQ 200545Z AUTO 03011KT 4SM BR OVC007 14/13  A2984 1150 90 1400 030/11 RMK AO2 CIG 004V010 TSNO
94908KDBQ DBQ20050519235016205/19/05 23:50:31  5-MIN KDBQ 200550Z AUTO 04010KT 4SM BR OVC007 14/13  A2984 1150 90 1400 040/10 RMK AO2 SLP102 60000 T01440128 10183 20144  402440128 53010 TSNO
94908KDBQ DBQ20050519235516205/19/05 23:55:31  5-MIN KDBQ 200555Z AUTO 04012KT 4SM BR OVC007 14/13  A2984 1150 90 1400 040/12 RMK AO2 SLP103 60000 T01440128 10183 20144  402440128 51016 TSNO
94908KDBQ DBQ20050520000012205/20/05 00:00:38  5-MIN KDBQ 200600Z AUTO 04010KT 4SM BR OVC007 14/13  A2984 1150 90 1400 040/10 RMK AO2 CIG 005V010 TSNO
94908KDBQ DBQ20050520000512805/20/05 00:05:31  5-MIN KDBQ 200605Z AUTO 04014G17KT 4SM BR OVC007 14/13  A2985 1150 93 1300 040/14G17 RMK AO2 CIG 005V010 TSNO
94908KDBQ DBQ20050520001011005/20/05 00:10:31  5-MIN KDBQ 200610Z AUTO 05012KT 4SM BR OVC007 14/13  A2985 1140 93 1300 050/12 RMK AO2 TSNO
94908KDBQ DBQ20050520001512205/20/05 00:15:32  5-MIN KDBQ 200615Z AUTO 06013KT 3SM BR OVC007 14/13  A2985 1140 93 1300 060/13 RMK AO2 CIG 005V010 TSNO
94908KDBQ DBQ20050520002012205/20/05 00:20:31  5-MIN KDBQ 200620Z AUTO 05012KT 3SM BR OVC005 13/12  A2985 1140 93 1300 050/12 RMK AO2 CIG 004V010 TSNO
94908KDBQ DBQ20050520002512205/20/05 00:25:31  5-MIN KDBQ 200625Z AUTO 05009KT 3SM BR OVC005 13/12  A2987 1130 93 1200 050/09 RMK AO2 CIG 004V010 TSNO
94908KDBQ DBQ20050520003012505/20/05 00:30:31  5-MIN KDBQ 200630Z AUTO 06012KT 2 1/2SM BR OVC005 13/12 A2986 1130 93 1200 050/12 RMK AO2 CIG 003V007 TSNO
94908KDBQ DBQ20050520003512505/20/05 00:35:31  5-MIN KDBQ 200635Z AUTO 06011KT 2 1/2SM BR OVC005 13/12 A2986 1130 93 1200 060/11 RMK AO2 CIG 003V007 TSNO
94908KDBQ DBQ20050520004011305/20/05 00:40:31  5-MIN KDBQ 200640Z AUTO 05011KT 2 1/2SM BR OVC003 13/12 A2987 1130 93 1200 050/11 RMK AO2 TSNO
94908KDBQ DBQ20050520004511005/20/05 00:45:31  5-MIN KDBQ 200645Z AUTO 04012KT 2SM BR OVC003 13/12  A2987 1130 96 1200 040/12 RMK AO2 TSNO
94908KDBQ DBQ20050520005012705/20/05 00:50:31  5-MIN KDBQ 200650Z AUTO 04013KT 2SM BR OVC003 13/12  A2987 1130 96 1200 040/13 RMK AO2 SLP112 T01280122 TSNO
94908KDBQ DBQ20050520005512705/20/05 00:55:31  5-MIN KDBQ 200655Z AUTO 03013KT 2SM BR OVC003 13/12  A2987 1120 96 1200 030/13 RMK AO2 SLP112 T01280122 TSNO
94908KDBQ DBQ20050520010011305/20/05 01:00:31  5-MIN KDBQ 200700Z AUTO 03015KT 1 3/4SM BR OVC003 13/12 A2987 1120 93 1200 030/15 RMK AO2 TSNO
94908KDBQ DBQ20050520010511305/20/05 01:05:31  5-MIN KDBQ 200705Z AUTO 04015KT 1 3/4SM BR OVC003 12/12 A2987 1130 96 1100 040/15 RMK AO2 TSNO
94908KDBQ DBQ20050520011011005/20/05 01:10:31  5-MIN KDBQ 200710Z AUTO 05016KT 2SM BR OVC003 12/12  A2987 1130 96 1100 050/16 RMK AO2 TSNO
94908KDBQ DBQ20050520011511305/20/05 01:15:31  5-MIN KDBQ 200715Z AUTO 05012KT 1 3/4SM BR OVC003 12/12 A2988 1120 96 1100 050/12 RMK AO2 TSNO
94908KDBQ DBQ20050520012011305/20/05 01:20:31  5-MIN KDBQ 200720Z AUTO 05016KT 1 3/4SM BR OVC003 12/12 A2987 1130 96 1100 050/16 RMK AO2 TSNO
94908KDBQ DBQ20050520012511305/20/05 01:25:31  5-MIN KDBQ 200725Z AUTO 05015KT 1 3/4SM BR OVC003 12/12 A2987 1120 96 1100 040/15 RMK AO2 TSNO
94908KDBQ DBQ20050520013011005/20/05 01:30:31  5-MIN KDBQ 200730Z AUTO 05017KT 2SM BR OVC003 12/12  A2987 1130 96 1100 050/17 RMK AO2 TSNO
94908KDBQ DBQ20050520013512205/20/05 01:35:31  5-MIN KDBQ 200735Z AUTO 05018KT 3SM BR OVC003 12/12  A2987 1130 96 1100 050/18 RMK AO2 CIG 002V005 TSNO
94908KDBQ DBQ20050520014012205/20/05 01:40:31  5-MIN KDBQ 200740Z AUTO 06014KT 4SM BR OVC003 12/11  A2987 1130 93 1100 050/14 RMK AO2 CIG 002V007 TSNO
94908KDBQ DBQ20050520014512205/20/05 01:45:31  5-MIN KDBQ 200745Z AUTO 04013KT 4SM BR OVC003 12/11  A2987 1120 93 1100 040/13 RMK AO2 CIG 002V007 TSNO
94908KDBQ DBQ20050520015012705/20/05 01:50:31  5-MIN KDBQ 200750Z AUTO 05013KT 3SM BR OVC003 12/11  A2988 1120 93 1100 040/13 RMK AO2 SLP115 T01220111 TSNO
94908KDBQ DBQ20050520015512705/20/05 01:55:31  5-MIN KDBQ 200755Z AUTO 05012KT 3SM BR OVC003 12/11  A2989 1110 93 1100 050/12 RMK AO2 SLP117 T01220111 TSNO
94908KDBQ DBQ20050520020011305/20/05 02:00:31  5-MIN KDBQ 200800Z AUTO 03011KT 2 1/2SM BR OVC005 12/12 A2989 1110 96 1100 030/11 RMK AO2 TSNO
94908KDBQ DBQ20050520020511305/20/05 02:05:31  5-MIN KDBQ 200805Z AUTO 03010KT 2 1/2SM BR OVC005 12/11 A2989 1100 93 1100 030/10 RMK AO2 TSNO
94908KDBQ DBQ20050520021011305/20/05 02:10:31  5-MIN KDBQ 200810Z AUTO 03013KT 2 1/2SM BR OVC005 12/11 A2989 1100 93 1100 030/13 RMK AO2 TSNO
94908KDBQ DBQ20050520021511305/20/05 02:15:31  5-MIN KDBQ 200815Z AUTO 04012KT 2 1/2SM BR OVC003 12/11 A2989 1100 93 1100 040/12 RMK AO2 TSNO
94908KDBQ DBQ20050520022012505/20/05 02:20:31  5-MIN KDBQ 200820Z AUTO 03013KT 2 1/2SM BR OVC003 12/11 A2990 1100 93 1100 030/13 RMK AO2 CIG 002V007 TSNO
94908KDBQ DBQ20050520022512205/20/05 02:25:31  5-MIN KDBQ 200825Z AUTO 04013KT 2SM BR OVC003 12/11  A2990 1100 93 1100 030/13 RMK AO2 CIG 002V007 TSNO
94908KDBQ DBQ20050520023012205/20/05 02:30:31  5-MIN KDBQ 200830Z AUTO 04012KT 2SM BR OVC003 12/11  A2990 1100 96 1000 040/12 RMK AO2 CIG 002V007 TSNO
94908KDBQ DBQ20050520023512205/20/05 02:35:31  5-MIN KDBQ 200835Z AUTO 04011KT 2SM BR OVC003 12/11  A2990 1100 96 1000 040/11 RMK AO2 CIG 002V007 TSNO
94908KDBQ DBQ20050520024012205/20/05 02:40:31  5-MIN KDBQ 200840Z AUTO 04011KT 2SM BR OVC003 12/11  A2990 1100 96 1000 040/11 RMK AO2 CIG 002V006 TSNO
94908KDBQ DBQ20050520024512505/20/05 02:45:31  5-MIN KDBQ 200845Z AUTO 04012KT 2 1/2SM BR OVC003 12/11 A2990 1100 96 1000 040/12 RMK AO2 CIG 002V006 TSNO
94908KDBQ DBQ20050520025014505/20/05 02:50:31  5-MIN KDBQ 200850Z AUTO 04012KT 3SM BR OVC003 12/11  A2990 1100 96 1000 040/12 RMK AO2 CIG 002V007 SLP122 T01170111 51016 TSNO
94908KDBQ DBQ20050520025514505/20/05 02:55:31  5-MIN KDBQ 200855Z AUTO 04012KT 3SM BR OVC003 12/11  A2989 1100 96 1000 040/12 RMK AO2 CIG 002V009 SLP120 T01170111 51017 TSNO
94908KDBQ DBQ20050520030012205/20/05 03:00:31  5-MIN KDBQ 200900Z AUTO 05011KT 3SM BR OVC003 12/11  A2989 1100 96 1000 050/11 RMK AO2 CIG 002V007 TSNO
94908KDBQ DBQ20050520030512205/20/05 03:05:31  5-MIN KDBQ 200905Z AUTO 05012KT 4SM BR OVC003 12/11  A2989 1100 96 1000 040/12 RMK AO2 CIG 002V009 TSNO
94908KDBQ DBQ20050520031012905/20/05 03:10:31  5-MIN KDBQ 200910Z AUTO 05011KT 4SM BR BKN005 OVC019  12/11 A2989 1100 96 1000 050/11 RMK AO2 CIG 002V009 TSNO
94908KDBQ DBQ20050520031512205/20/05 03:15:31  5-MIN KDBQ 200915Z AUTO 04011KT 4SM BR OVC005 12/11  A2989 1100 96 1000 040/11 RMK AO2 CIG 002V007 TSNO
94908KDBQ DBQ20050520032012205/20/05 03:20:31  5-MIN KDBQ 200920Z AUTO 04012KT 4SM BR OVC005 12/11  A2990 1100 93 1000 040/12 RMK AO2 CIG 003V009 TSNO
94908KDBQ DBQ20050520032512905/20/05 03:25:31  5-MIN KDBQ 200925Z AUTO 05011KT 4SM BR BKN005 OVC019  12/11 A2990 1100 93 1000 050/11 RMK AO2 CIG 003V009 TSNO
94908KDBQ DBQ20050520033012905/20/05 03:30:31  5-MIN KDBQ 200930Z AUTO 05012KT 5SM BR BKN005 OVC019  12/11 A2990 1100 93 1000 050/12 RMK AO2 CIG 003V009 TSNO
94908KDBQ DBQ20050520033511705/20/05 03:35:31  5-MIN KDBQ 200935Z AUTO 05013KT 5SM BR BKN005 OVC009  12/11 A2990 1100 93 1000 050/13 RMK AO2 TSNO
94908KDBQ DBQ20050520034012905/20/05 03:40:31  5-MIN KDBQ 200940Z AUTO 05013KT 5SM BR BKN005 OVC019  12/11 A2990 1100 93 1000 050/13 RMK AO2 CIG 004V009 TSNO
94908KDBQ DBQ20050520034512905/20/05 03:45:31  5-MIN KDBQ 200945Z AUTO 04012KT 5SM BR BKN007 OVC017  12/11 A2990 1100 93 1000 040/12 RMK AO2 CIG 005V009 TSNO
94908KDBQ DBQ20050520035014605/20/05 03:50:31  5-MIN KDBQ 200950Z AUTO 04012KT 5SM BR BKN007 OVC017  12/11 A2990 1090 93 1000 040/12 RMK AO2 CIG 005V009 SLP123 T01170106 TSNO
94908KDBQ DBQ20050520035514605/20/05 03:55:31  5-MIN KDBQ 200955Z AUTO 04011KT 5SM BR BKN007 OVC019  12/11 A2990 1090 93 1000 040/11 RMK AO2 CIG 005V009 SLP123 T01170106 TSNO
94908KDBQ DBQ20050520040013605/20/05 04:00:31  5-MIN KDBQ 201000Z AUTO 04013KT 5SM BR BKN007 BKN012  OVC019 12/11 A2991 1090 93 1000 040/13 RMK AO2 CIG 005V009 TSNO
94908KDBQ DBQ20050520040514305/20/05 04:05:31  5-MIN KDBQ 201005Z AUTO 04012KT 5SM BR BKN007 BKN012  OVC019 12/11 A2992 1080 93 1000 040/12 RMK AO2 CIG 006V009 PRESRR TSNO
94908KDBQ DBQ20050520041014305/20/05 04:10:31  5-MIN KDBQ 201010Z AUTO 04014KT 5SM BR BKN007 BKN012  OVC019 12/11 A2993 1070 93 1000 040/14 RMK AO2 CIG 006V009 PRESRR TSNO
94908KDBQ DBQ20050520041513605/20/05 04:15:31  5-MIN KDBQ 201015Z AUTO 04013KT 5SM BR BKN009 OVC017  12/10 A2994 1060 89 1000 040/13 RMK AO2 CIG 006V014 PRESRR TSNO
94908KDBQ DBQ20050520042012905/20/05 04:20:31  5-MIN KDBQ 201020Z AUTO 05014KT 5SM BR BKN009 OVC017  12/10 A2994 1060 89 1000 050/14 RMK AO2 CIG 006V011 TSNO
94908KDBQ DBQ20050520042512805/20/05 04:25:31  5-MIN KDBQ 201025Z AUTO 04013KT 6SM BR BKN009 OVC015  12/10 A2995 1060 89 900 040/13 RMK AO2 CIG 006V011 TSNO
94908KDBQ DBQ20050520043012105/20/05 04:30:31  5-MIN KDBQ 201030Z AUTO 05012KT 6SM BR OVC011 12/10  A2995 1050 89 900 050/12 RMK AO2 CIG 007V015 TSNO
94908KDBQ DBQ20050520043512805/20/05 04:35:31  5-MIN KDBQ 201035Z AUTO 05016KT 6SM BR BKN011 OVC015  12/09 A2994 1060 86 900 050/16 RMK AO2 CIG 007V014 TSNO
94908KDBQ DBQ20050520044010605/20/05 04:40:31  5-MIN KDBQ 201040Z AUTO 06013KT 7SM OVC013 12/09 A2995  1050 86 900 060/13 RMK AO2 TSNO
94908KDBQ DBQ20050520044510605/20/05 04:45:31  5-MIN KDBQ 201045Z AUTO 05014KT 8SM OVC013 12/09 A2995  1050 86 900 050/14 RMK AO2 TSNO
94908KDBQ DBQ20050520045011305/20/05 04:50:31  5-MIN KDBQ 201050Z 05014KT 8SM OVC013 12/09 A2995 1050  86 900 050/14 RMK AO2 SLP142 T01170094
94908KDBQ DBQ20050520045511305/20/05 04:55:31  5-MIN KDBQ 201055Z 04010KT 7SM OVC015 12/09 A2996 1040  86 900 040/10 RMK AO2 SLP143 T01170094
94908KDBQ DBQ20050520050009905/20/05 05:00:31  5-MIN KDBQ 201100Z 04009KT 6SM BR OVC015 11/09 A2996  1040 89 900 040/09 RMK AO2
94908KDBQ DBQ20050520050509905/20/05 05:05:31  5-MIN KDBQ 201105Z 04013KT 5SM BR OVC015 11/09 A2996  1040 89 900 040/13 RMK AO2
94908KDBQ DBQ20050520051009905/20/05 05:10:31  5-MIN KDBQ 201110Z 04010KT 4SM BR OVC013 11/09 A2996  1040 89 900 040/10 RMK AO2
94908KDBQ DBQ20050520051511805/20/05 05:15:31  5-MIN KDBQ 201115Z 04010KT 4SM BR BKN010 OVC015 11/09  A2997 1030 89 900 040/10 RMK AO2 CIG 007V013
94908KDBQ DBQ20050520052011805/20/05 05:20:31  5-MIN KDBQ 201120Z 04009KT 4SM BR BKN009 OVC014 11/09  A2997 1030 89 900 040/09 RMK AO2 CIG 007V011
94908KDBQ DBQ20050520052511105/20/05 05:25:31  5-MIN KDBQ 201125Z 04008KT 3SM BR OVC009 11/10 A2998  1030 93 800 040/08 RMK AO2 CIG 007V013
94908KDBQ DBQ20050520053011805/20/05 05:30:31  5-MIN KDBQ 201130Z 04009KT 3SM BR BKN009 OVC013 11/09  A2997 1030 89 800 040/09 RMK AO2 CIG 007V011
94908KDBQ DBQ20050520053511105/20/05 05:35:31  5-MIN KDBQ 201135Z 03010KT 3SM BR OVC009 11/09 A2998  1020 89 800 030/10 RMK AO2 CIG 007V013
94908KDBQ DBQ20050520054011105/20/05 05:40:31  5-MIN KDBQ 201140Z 03010KT 3SM BR OVC009 11/09 A2998  1020 89 800 030/10 RMK AO2 CIG 007V013
94908KDBQ DBQ20050520054511105/20/05 05:45:31  5-MIN KDBQ 201145Z 04010KT 4SM BR OVC009 11/09 A2999  1010 89 800 040/10 RMK AO2 CIG 007V013
94908KDBQ DBQ20050520055014005/20/05 05:50:31  5-MIN KDBQ 201150Z 04011KT 4SM BR OVC009 11/09 A2999  1010 89 800 040/11 RMK AO2 SLP155 70001 T01110094 10144 20111 51017
94908KDBQ DBQ20050520055514005/20/05 05:55:31  5-MIN KDBQ 201155Z 05010KT 4SM BR OVC009 11/09 A2999  1010 89 800 040/10 RMK AO2 SLP155 70001 T01110094 10144 20111 53031
94908KDBQ DBQ20050520060011105/20/05 06:00:31  5-MIN KDBQ 201200Z 04009KT 4SM BR OVC009 11/09 A2999  1010 89 800 040/09 RMK AO2 CIG 007V012
94908KDBQ DBQ20050520060511105/20/05 06:05:31  5-MIN KDBQ 201205Z 04010KT 4SM BR OVC009 11/09 A2999  1010 89 800 040/10 RMK AO2 CIG 007V012
94908KDBQ DBQ20050520061011105/20/05 06:10:31  5-MIN KDBQ 201210Z 05010KT 4SM BR OVC009 11/09 A2999  1010 89 800 050/10 RMK AO2 CIG 007V012
94908KDBQ DBQ20050520061511105/20/05 06:15:31  5-MIN KDBQ 201215Z 05010KT 4SM BR OVC009 11/09 A2999  1010 89 800 050/10 RMK AO2 CIG 007V012
94908KDBQ DBQ20050520062011105/20/05 06:20:31  5-MIN KDBQ 201220Z 05012KT 4SM BR OVC009 11/09 A2999  1010 89 800 050/12 RMK AO2 CIG 007V013
94908KDBQ DBQ20050520062509905/20/05 06:25:31  5-MIN KDBQ 201225Z 05011KT 4SM BR OVC009 11/09 A2999  1010 89 800 050/11 RMK AO2
94908KDBQ DBQ20050520063011105/20/05 06:30:31  5-MIN KDBQ 201230Z 05011KT 4SM BR OVC009 11/09 A2999  1010 89 800 050/11 RMK AO2 CIG 007V012
94908KDBQ DBQ20050520063511105/20/05 06:35:31  5-MIN KDBQ 201235Z 05010KT 4SM BR OVC009 11/09 A2999  1010 89 800 050/10 RMK AO2 CIG 007V011
94908KDBQ DBQ20050520064011805/20/05 06:40:31  5-MIN KDBQ 201240Z 05011KT 4SM BR BKN009 OVC015 11/09  A2999 1010 89 800 050/11 RMK AO2 CIG 007V012
94908KDBQ DBQ20050520064511805/20/05 06:45:31  5-MIN KDBQ 201245Z 05012KT 4SM BR BKN009 OVC015 11/09  A2999 1010 89 800 050/12 RMK AO2 CIG 007V013
94908KDBQ DBQ20050520065013505/20/05 06:50:31  5-MIN KDBQ 201250Z 05009KT 4SM BR BKN009 OVC015 11/09  A2999 1010 89 800 050/09 RMK AO2 CIG 007V012 SLP156 T01110094
94908KDBQ DBQ20050520065513505/20/05 06:55:31  5-MIN KDBQ 201255Z 04012KT 4SM BR BKN009 OVC013 11/09  A2999 1010 89 800 040/12 RMK AO2 CIG 007V012 SLP157 T01110094
94908KDBQ DBQ20050520070011805/20/05 07:00:31  5-MIN KDBQ 201300Z 05010KT 4SM BR BKN009 OVC013 11/09  A3000 1010 89 800 040/10 RMK AO2 CIG 007V010
94908KDBQ DBQ20050520070510605/20/05 07:05:31  5-MIN KDBQ 201305Z 04012KT 4SM BR BKN009 OVC013 11/09  A3000 1000 89 800 040/12 RMK AO2
94908KDBQ DBQ20050520071011805/20/05 07:10:31  5-MIN KDBQ 201310Z 04009KT 4SM BR BKN009 OVC013 11/09  A3000 1000 89 800 040/09 RMK AO2 CIG 007V012
94908KDBQ DBQ20050520071511805/20/05 07:15:31  5-MIN KDBQ 201315Z 04009KT 4SM BR BKN009 OVC015 11/09  A3000 1000 89 800 040/09 RMK AO2 CIG 007V013
94908KDBQ DBQ20050520072011805/20/05 07:20:31  5-MIN KDBQ 201320Z 05008KT 4SM BR BKN009 OVC015 11/10  A3001 1000 93 800 050/08 RMK AO2 CIG 007V012
94908KDBQ DBQ20050520072511805/20/05 07:25:31  5-MIN KDBQ 201325Z 04006KT 4SM BR BKN009 OVC015 11/10  A3001 1000 93 800 040/06 RMK AO2 CIG 007V012
94908KDBQ DBQ20050520073011705/20/05 07:30:31  5-MIN KDBQ 201330Z 03009KT 4SM BR BKN009 OVC015 12/10  A3001 990 89 900 030/09 RMK AO2 CIG 007V012
94908KDBQ DBQ20050520073511705/20/05 07:35:31  5-MIN KDBQ 201335Z 04007KT 4SM BR BKN009 OVC015 12/09  A3001 990 86 900 040/07 RMK AO2 CIG 007V014
94908KDBQ DBQ20050520074011705/20/05 07:40:31  5-MIN KDBQ 201340Z 04008KT 4SM BR BKN009 OVC015 12/09  A3001 990 86 900 040/08 RMK AO2 CIG 007V012
94908KDBQ DBQ20050520074511705/20/05 07:45:31  5-MIN KDBQ 201345Z 03008KT 5SM BR BKN009 OVC015 12/09  A3002 990 86 900 030/08 RMK AO2 CIG 007V012
94908KDBQ DBQ20050520075013405/20/05 07:50:31  5-MIN KDBQ 201350Z 02010KT 5SM BR BKN009 OVC015 12/10  A3002 990 89 900 020/10 RMK AO2 CIG 007V012 SLP166 T01170100
94908KDBQ DBQ20050520075513405/20/05 07:55:31  5-MIN KDBQ 201355Z 03009KT 5SM BR BKN009 OVC015 12/10  A3002 980 89 900 030/09 RMK AO2 CIG 008V012 SLP168 T01170100
94908KDBQ DBQ20050520080011705/20/05 08:00:31  5-MIN KDBQ 201400Z 04009KT 5SM BR BKN011 OVC015 12/09  A3002 980 86 900 040/09 RMK AO2 CIG 008V012
94908KDBQ DBQ20050520080511705/20/05 08:05:31  5-MIN KDBQ 201405Z 05007KT 5SM BR BKN011 OVC015 12/09  A3002 980 86 900 050/07 RMK AO2 CIG 008V012
94908KDBQ DBQ20050520081009705/20/05 08:10:31  5-MIN KDBQ 201410Z 04006KT 5SM BR OVC011 12/10 A3002 990 86 900 040/06 RMK AO2
94908KDBQ DBQ20050520081510605/20/05 08:15:31  5-MIN KDBQ 201415Z 04008KT 6SM BR BKN011 OVC024 13/11  A3002 990 86 1000 040/08 RMK AO2
94908KDBQ DBQ20050520082011805/20/05 08:20:31  5-MIN KDBQ 201420Z 03012KT 6SM HZ BKN011 OVC024 13/11  A3002 990 83 1100 030/12 RMK AO2 CIG 008V014
94908KDBQ DBQ20050520082510605/20/05 08:25:31  5-MIN KDBQ 201425Z 04012KT 6SM HZ BKN011 OVC024 13/10  A3001 990 83 1000 040/12 RMK AO2
94908KDBQ DBQ20050520083010605/20/05 08:30:31  5-MIN KDBQ 201430Z 03011KT 4SM HZ BKN009 OVC024 13/10  A3001 990 83 1000 030/11 RMK AO2
94908KDBQ DBQ20050520083510605/20/05 08:35:31  5-MIN KDBQ 201435Z 03011KT 4SM HZ BKN009 OVC024 13/10  A3001 990 80 1100 030/11 RMK AO2
94908KDBQ DBQ20050520084010705/20/05 08:40:31  5-MIN KDBQ 201440Z 03011KT 4SM HZ BKN009 OVC024 13/11  A3001 1000 83 1100 030/11 RMK AO2
94908KDBQ DBQ20050520084510705/20/05 08:45:31  5-MIN KDBQ 201445Z 05012KT 4SM HZ BKN009 OVC024 14/11  A3001 1000 80 1100 040/12 RMK AO2
94908KDBQ DBQ20050520085012905/20/05 08:50:31  5-MIN KDBQ 201450Z 04014KT 4SM HZ BKN010 OVC024 14/11  A3001 990 80 1100 040/14 RMK AO2 SLP163 T01390106 53031
94908KDBQ DBQ20050520085512905/20/05 08:55:31  5-MIN KDBQ 201455Z 05014KT 4SM HZ BKN020 OVC024 14/11  A3001 990 80 1100 040/14 RMK AO2 SLP164 T01390106 50008
94908KDBQ DBQ20050520090009505/20/05 09:00:31  5-MIN KDBQ 201500Z 04012KT 8SM BKN013 14/10 A3002 990 77 1100 040/12 RMK AO2
94908KDBQ DBQ20050520090509505/20/05 09:05:31  5-MIN KDBQ 201505Z 04011KT 8SM BKN013 14/11 A3002 990 77 1200 040/11 RMK AO2
94908KDBQ DBQ20050520091009505/20/05 09:10:31  5-MIN KDBQ 201510Z 05011KT 8SM BKN013 14/11 A3002 990 80 1100 050/11 RMK AO2
94908KDBQ DBQ20050520091509505/20/05 09:15:31  5-MIN KDBQ 201515Z 04012KT 8SM OVC013 14/11 A3002 990 80 1100 040/12 RMK AO2
94908KDBQ DBQ20050520092009505/20/05 09:20:31  5-MIN KDBQ 201520Z 05015KT 8SM OVC013 14/11 A3002 980 80 1100 050/15 RMK AO2
94908KDBQ DBQ20050520092509505/20/05 09:25:31  5-MIN KDBQ 201525Z 05013KT 8SM OVC015 14/10 A3002 980 77 1100 050/13 RMK AO2
94908KDBQ DBQ20050520093009505/20/05 09:30:31  5-MIN KDBQ 201530Z 04010KT 8SM OVC015 14/11 A3002 980 80 1100 030/10 RMK AO2
94908KDBQ DBQ20050520093509505/20/05 09:35:31  5-MIN KDBQ 201535Z 05011KT 8SM OVC015 14/11 A3003 980 80 1100 040/11 RMK AO2
94908KDBQ DBQ20050520094009505/20/05 09:40:31  5-MIN KDBQ 201540Z 03011KT 8SM OVC015 14/10 A3003 980 77 1100 030/11 RMK AO2
94908KDBQ DBQ20050520094509505/20/05 09:45:31  5-MIN KDBQ 201545Z 04012KT 8SM OVC013 14/11 A3003 970 77 1200 040/12 RMK AO2
94908KDBQ DBQ20050520095011205/20/05 09:50:31  5-MIN KDBQ 201550Z 04011KT 9SM OVC015 14/11 A3004 970 77 1200 040/11 RMK AO2 SLP171 T01440106
94908KDBQ DBQ20050520095511205/20/05 09:55:31  5-MIN KDBQ 201555Z 04012KT 9SM OVC015 15/11 A3004 970 74 1200 040/12 RMK AO2 SLP171 T01500106
94908KDBQ DBQ20050520100009505/20/05 10:00:31  5-MIN KDBQ 201600Z 03010KT 9SM OVC015 15/11 A3004 970 74 1200 030/10 RMK AO2
94908KDBQ DBQ20050520100509805/20/05 10:05:31  5-MIN KDBQ 201605Z 03010KT 6SM HZ BKN015 15/11 A3004 970 74 1200 030/10 RMK AO2
94908KDBQ DBQ20050520101009805/20/05 10:10:31  5-MIN KDBQ 201610Z 05011KT 6SM HZ BKN015 15/11 A3004 970 74 1200 050/11 RMK AO2
94908KDBQ DBQ20050520101509805/20/05 10:15:31  5-MIN KDBQ 201615Z 05009KT 6SM HZ BKN015 16/11 A3003 970 74 1300 050/09 RMK AO2
94908KDBQ DBQ20050520102009805/20/05 10:20:31  5-MIN KDBQ 201620Z 04008KT 6SM HZ BKN015 16/11 A3004 970 74 1300 040/08 RMK AO2
94908KDBQ DBQ20050520102509805/20/05 10:25:31  5-MIN KDBQ 201625Z 03010KT 6SM HZ BKN015 16/12 A3004 970 75 1400 020/10 RMK AO2
94908KDBQ DBQ20050520103009805/20/05 10:30:31  5-MIN KDBQ 201630Z 03010KT 6SM HZ BKN015 16/12 A3004 970 75 1400 030/10 RMK AO2
94908KDBQ DBQ20050520103509805/20/05 10:35:31  5-MIN KDBQ 201635Z 04011KT 6SM HZ BKN015 16/11 A3004 970 72 1400 030/11 RMK AO2
94908KDBQ DBQ20050520104009805/20/05 10:40:31  5-MIN KDBQ 201640Z 03013KT 6SM HZ BKN015 17/12 A3004 970 72 1400 030/13 RMK AO2
94908KDBQ DBQ20050520104509805/20/05 10:45:31  5-MIN KDBQ 201645Z 05012KT 6SM HZ BKN015 16/11 A3004 970 72 1400 050/12 RMK AO2
94908KDBQ DBQ20050520105011505/20/05 10:50:31  5-MIN KDBQ 201650Z 05013KT 6SM HZ BKN015 16/11 A3004 970 74 1300 040/13 RMK AO2 SLP173 T01560111
94908KDBQ DBQ20050520105511905/20/05 10:55:31  5-MIN KDBQ 201655Z 06012KT 8SM BKN019 OVC026 15/11 A3004 970 77 1200 060/12 RMK AO2 SLP173 T01500111
94908KDBQ DBQ20050520110010205/20/05 11:00:31  5-MIN KDBQ 201700Z 06008KT 8SM BKN019 OVC026 15/11 A3004 970 77 1200 050/08 RMK AO2
94908KDBQ DBQ20050520110509505/20/05 11:05:31  5-MIN KDBQ 201705Z 06013KT 8SM OVC019 16/11 A3004 970 74 1300 060/13 RMK AO2
94908KDBQ DBQ20050520111009505/20/05 11:10:31  5-MIN KDBQ 201710Z 05010KT 8SM OVC019 16/11 A3004 970 74 1300 050/10 RMK AO2
94908KDBQ DBQ20050520111509505/20/05 11:15:31  5-MIN KDBQ 201715Z 05010KT 8SM OVC021 16/11 A3004 960 74 1300 050/10 RMK AO2
94908KDBQ DBQ20050520112009505/20/05 11:20:31  5-MIN KDBQ 201720Z 05009KT 8SM OVC021 15/11 A3005 960 74 1200 040/09 RMK AO2
94908KDBQ DBQ20050520112509505/20/05 11:25:31  5-MIN KDBQ 201725Z 06011KT 8SM OVC021 15/11 A3005 960 77 1200 060/11 RMK AO2
94908KDBQ DBQ20050520113009505/20/05 11:30:31  5-MIN KDBQ 201730Z 05010KT 8SM OVC021 15/11 A3005 960 74 1200 050/10 RMK AO2
94908KDBQ DBQ20050520113509505/20/05 11:35:31  5-MIN KDBQ 201735Z 06010KT 8SM OVC021 15/11 A3005 960 77 1200 060/10 RMK AO2
94908KDBQ DBQ20050520114010205/20/05 11:40:31  5-MIN KDBQ 201740Z 07010KT 8SM BKN021 OVC026 16/11 A3005 960 74 1300 070/10 RMK AO2
94908KDBQ DBQ20050520114510205/20/05 11:45:31  5-MIN KDBQ 201745Z 05009KT 8SM BKN021 OVC026 16/11 A3005 960 72 1400 050/09 RMK AO2
94908KDBQ DBQ20050520115013005/20/05 11:50:31  5-MIN KDBQ 201750Z 05009KT 8SM OVC021 16/12 A3005 960 77 1300 040/09 RMK AO2 SLP177 T01560117 10167 20111 50008
94908KDBQ DBQ20050520115513705/20/05 11:55:31  5-MIN KDBQ 201755Z 05007KT 8SM BKN019 OVC025 16/11 A3005 960 74 1300 050/07 RMK AO2 SLP176 T01560111 10167 20111 51012
94908KDBQ DBQ20050520120010205/20/05 12:00:31  5-MIN KDBQ 201800Z 05009KT 8SM BKN021 OVC027 16/11 A3005 960 72 1400 050/09 RMK AO2
94908KDBQ DBQ20050520120510205/20/05 12:05:31  5-MIN KDBQ 201805Z 04009KT 8SM FEW018 OVC024 16/11 A3005 960 72 1400 040/09 RMK AO2
94908KDBQ DBQ20050520121010205/20/05 12:10:31  5-MIN KDBQ 201810Z 05007KT 8SM BKN022 OVC026 16/11 A3005 960 72 1400 050/07 RMK AO2
94908KDBQ DBQ20050520121510205/20/05 12:15:31  5-MIN KDBQ 201815Z 04007KT 8SM BKN020 OVC026 17/12 A3005 960 72 1400 040/07 RMK AO2
94908KDBQ DBQ20050520122009505/20/05 12:20:31  5-MIN KDBQ 201820Z 06006KT 8SM OVC024 16/12 A3005 960 75 1400 060/06 RMK AO2
94908KDBQ DBQ20050520122510205/20/05 12:25:31  5-MIN KDBQ 201825Z 08007KT 8SM BKN024 OVC028 17/12 A3005 960 72 1400 080/07 RMK AO2
94908KDBQ DBQ20050520123010205/20/05 12:30:31  5-MIN KDBQ 201830Z 03008KT 8SM BKN024 OVC030 17/12 A3005 960 69 1500 030/08 RMK AO2
94908KDBQ DBQ20050520123510205/20/05 12:35:31  5-MIN KDBQ 201835Z 04008KT 9SM BKN024 OVC030 17/12 A3004 960 69 1500 040/08 RMK AO2
94908KDBQ DBQ20050520124009505/20/05 12:40:31  5-MIN KDBQ 201840Z 05009KT 8SM OVC024 17/12 A3005 960 72 1400 050/09 RMK AO2
94908KDBQ DBQ20050520124510205/20/05 12:45:31  5-MIN KDBQ 201845Z 06009KT 8SM BKN024 OVC031 17/12 A3004 970 69 1500 050/09 RMK AO2
94908KDBQ DBQ20050520125011905/20/05 12:50:31  5-MIN KDBQ 201850Z 05009KT 8SM BKN024 OVC031 17/12 A3004 970 69 1500 050/09 RMK AO2 SLP173 T01720117
94908KDBQ DBQ20050520125511905/20/05 12:55:31  5-MIN KDBQ 201855Z 05008KT 8SM BKN024 OVC031 17/11 A3004 970 69 1400 050/08 RMK AO2 SLP173 T01670111
94908KDBQ DBQ20050520130010205/20/05 13:00:31  5-MIN KDBQ 201900Z 05008KT 8SM BKN024 BKN031 18/12 A3004 970 69 1600 050/08 RMK AO2
94908KDBQ DBQ20050520130511905/20/05 13:05:31  5-MIN KDBQ 201905Z 08008KT 020V100 9SM SCT024 BKN031  18/12 A3004 970 67 1600 080/08 020V100 RMK AO2
94908KDBQ DBQ20050520131010205/20/05 13:10:31  5-MIN KDBQ 201910Z 05009KT 8SM BKN024 BKN031 18/12 A3004 970 65 1600 050/09 RMK AO2
94908KDBQ DBQ20050520131510205/20/05 13:15:31  5-MIN KDBQ 201915Z 04010KT 9SM BKN024 BKN031 18/12 A3003 970 67 1600 040/10 RMK AO2
94908KDBQ DBQ20050520132010205/20/05 13:20:31  5-MIN KDBQ 201920Z 05009KT 9SM BKN024 BKN031 18/12 A3003 970 67 1600 050/09 RMK AO2
94908KDBQ DBQ20050520132510205/20/05 13:25:31  5-MIN KDBQ 201925Z 04010KT 9SM BKN024 BKN031 18/12 A3004 970 67 1600 040/10 RMK AO2
94908KDBQ DBQ20050520133010205/20/05 13:30:31  5-MIN KDBQ 201930Z 04007KT 9SM BKN024 BKN031 18/12 A3004 970 65 1600 040/07 RMK AO2
94908KDBQ DBQ20050520133511905/20/05 13:35:31  5-MIN KDBQ 201935Z 11007KT 060V150 9SM BKN024 BKN031  19/12 A3003 970 62 1700 110/07 060V150 RMK AO2
94908KDBQ DBQ20050520134010905/20/05 13:40:31  5-MIN KDBQ 201940Z 06011G16KT 9SM BKN024 BKN031 19/12  A3004 970 62 1700 060/11G16 RMK AO2
94908KDBQ DBQ20050520134511005/20/05 13:45:31  5-MIN KDBQ 201945Z 08008G16KT 10SM BKN024 BKN031 19/12  A3004 970 60 1800 080/08G16 RMK AO2
94908KDBQ DBQ20050520135011405/20/05 13:50:31  5-MIN KDBQ 201950Z 05006KT 10SM SCT031 19/12 A3004 970  60 1800 050/06 RMK AO2 SLP171 T01940117
94908KDBQ DBQ20050520135511205/20/05 13:55:31  5-MIN KDBQ 201955Z 06009KT 9SM BKN033 19/12 A3004 970 60 1800 060/09 RMK AO2 SLP171 T01940117
94908KDBQ DBQ20050520140009505/20/05 14:00:31  5-MIN KDBQ 202000Z 06006KT 9SM BKN033 19/11 A3004 970 60 1700 050/06 RMK AO2
94908KDBQ DBQ20050520140509505/20/05 14:05:31  5-MIN KDBQ 202005Z 06009KT 9SM BKN035 19/12 A3004 970 60 1700 060/09 RMK AO2
94908KDBQ DBQ20050520141009705/20/05 14:10:31  5-MIN KDBQ 202010Z 07006KT 10SM BKN037 19/11 A3004 970  60 1700 060/06 RMK AO2
94908KDBQ DBQ20050520141509705/20/05 14:15:31  5-MIN KDBQ 202015Z 08008KT 10SM OVC037 19/11 A3004 970  58 1700 080/08 RMK AO2
94908KDBQ DBQ20050520142009705/20/05 14:20:31  5-MIN KDBQ 202020Z 09006KT 10SM OVC039 19/11 A3004 970  56 1800 090/06 RMK AO2
94908KDBQ DBQ20050520142509705/20/05 14:25:31  5-MIN KDBQ 202025Z 10005KT 10SM OVC039 20/11 A3004 970  54 1800 090/05 RMK AO2
94908KDBQ DBQ20050520143009705/20/05 14:30:31  5-MIN KDBQ 202030Z VRB06KT 10SM OVC039 20/11 A3004 970  54 1800 VRB/06 RMK AO2
94908KDBQ DBQ20050520143509705/20/05 14:35:31  5-MIN KDBQ 202035Z 04010KT 10SM OVC039 19/11 A3003 970  58 1800 040/10 RMK AO2
94908KDBQ DBQ20050520144009705/20/05 14:40:31  5-MIN KDBQ 202040Z 06012KT 10SM OVC039 19/11 A3003 970  58 1800 060/12 RMK AO2
94908KDBQ DBQ20050520144509705/20/05 14:45:31  5-MIN KDBQ 202045Z 07007KT 10SM BKN039 20/11 A3003 980  54 1800 070/07 RMK AO2
94908KDBQ DBQ20050520145012005/20/05 14:50:31  5-MIN KDBQ 202050Z 09008KT 10SM SCT039 21/11 A3003 980  54 1900 090/08 RMK AO2 SLP168 T02060111 51012
94908KDBQ DBQ20050520145512005/20/05 14:55:31  5-MIN KDBQ 202055Z 04009KT 10SM SCT039 21/11 A3003 980  54 1900 040/09 RMK AO2 SLP167 T02060111 58008
94908KDBQ DBQ20050520150009705/20/05 15:00:31  5-MIN KDBQ 202100Z 07006KT 10SM FEW039 21/11 A3002 980  54 1900 070/06 RMK AO2
94908KDBQ DBQ20050520150511805/20/05 15:05:31  5-MIN KDBQ 202105Z 05009G16KT 020V100 10SM SCT041 21/11 A3002 980 54 1900 050/09G16 020V100 RMK AO2
94908KDBQ DBQ20050520151010305/20/05 15:10:31  5-MIN KDBQ 202110Z 05008G16KT 10SM FEW041 21/11 A3002  980 54 1900 040/08G16 RMK AO2
94908KDBQ DBQ20050520151509705/20/05 15:15:31  5-MIN KDBQ 202115Z 07009KT 10SM FEW041 21/11 A3002 980  54 1900 060/09 RMK AO2
94908KDBQ DBQ20050520152009705/20/05 15:20:31  5-MIN KDBQ 202120Z 04009KT 10SM FEW043 21/11 A3003 980  54 1900 040/09 RMK AO2
94908KDBQ DBQ20050520152509705/20/05 15:25:31  5-MIN KDBQ 202125Z 02009KT 10SM FEW043 21/11 A3003 980  54 1900 020/09 RMK AO2
94908KDBQ DBQ20050520153009705/20/05 15:30:31  5-MIN KDBQ 202130Z 01009KT 10SM SCT043 21/11 A3002 980  54 1900 010/09 RMK AO2
94908KDBQ DBQ20050520153509705/20/05 15:35:31  5-MIN KDBQ 202135Z 05009KT 10SM SCT043 21/11 A3003 980  52 2000 050/09 RMK AO2
94908KDBQ DBQ20050520154009705/20/05 15:40:31  5-MIN KDBQ 202140Z 05006KT 10SM BKN043 20/11 A3003 980  56 1800 050/06 RMK AO2
94908KDBQ DBQ20050520154509705/20/05 15:45:31  5-MIN KDBQ 202145Z 04004KT 10SM BKN043 21/11 A3003 980  52 1900 040/04 RMK AO2
94908KDBQ DBQ20050520155011405/20/05 15:50:31  5-MIN KDBQ 202150Z 08004KT 10SM BKN045 21/11 A3003 980  50 2000 070/04 RMK AO2 SLP166 T02110106
94908KDBQ DBQ20050520155511405/20/05 15:55:31  5-MIN KDBQ 202155Z 08008KT 10SM SCT045 21/11 A3003 980  50 2000 080/08 RMK AO2 SLP166 T02110106
94908KDBQ DBQ20050520160009705/20/05 16:00:31  5-MIN KDBQ 202200Z 08007KT 10SM SCT045 20/10 A3003 980  52 1800 070/07 RMK AO2
94908KDBQ DBQ20050520160509705/20/05 16:05:31  5-MIN KDBQ 202205Z 09006KT 10SM FEW045 21/10 A3003 980  50 1900 080/06 RMK AO2
94908KDBQ DBQ20050520161009705/20/05 16:10:31  5-MIN KDBQ 202210Z 06005KT 10SM SCT047 21/11 A3003 970  52 1900 050/05 RMK AO2
94908KDBQ DBQ20050520161509705/20/05 16:15:31  5-MIN KDBQ 202215Z 04009KT 10SM SCT047 22/11 A3004 970  50 2000 040/09 RMK AO2
94908KDBQ DBQ20050520162009705/20/05 16:20:31  5-MIN KDBQ 202220Z 04009KT 10SM BKN047 21/11 A3004 970  52 1900 030/09 RMK AO2
94908KDBQ DBQ20050520162509705/20/05 16:25:31  5-MIN KDBQ 202225Z 03008KT 10SM BKN047 21/10 A3004 970  50 1900 030/08 RMK AO2
94908KDBQ DBQ20050520163009705/20/05 16:30:31  5-MIN KDBQ 202230Z 06006KT 10SM SCT047 21/10 A3003 970  50 1900 060/06 RMK AO2
94908KDBQ DBQ20050520163509705/20/05 16:35:31  5-MIN KDBQ 202235Z 05007KT 10SM SCT047 21/10 A3003 970  48 1900 050/07 RMK AO2
94908KDBQ DBQ20050520164009705/20/05 16:40:31  5-MIN KDBQ 202240Z 07009KT 10SM SCT049 21/10 A3003 980  48 2000 070/09 RMK AO2
94908KDBQ DBQ20050520164509705/20/05 16:45:31  5-MIN KDBQ 202245Z 08007KT 10SM SCT049 21/10 A3003 980  48 2000 080/07 RMK AO2
94908KDBQ DBQ20050520165011405/20/05 16:50:31  5-MIN KDBQ 202250Z 04008KT 10SM FEW049 21/10 A3003 980  48 2000 040/08 RMK AO2 SLP167 T02110100
94908KDBQ DBQ20050520165511405/20/05 16:55:31  5-MIN KDBQ 202255Z 05007KT 10SM FEW049 21/10 A3003 980  48 2000 050/07 RMK AO2 SLP167 T02110100
94908KDBQ DBQ20050520170009705/20/05 17:00:31  5-MIN KDBQ 202300Z 06013KT 10SM FEW049 21/10 A3002 980  48 2000 060/13 RMK AO2
94908KDBQ DBQ20050520170509705/20/05 17:05:31  5-MIN KDBQ 202305Z 07008KT 10SM FEW049 21/09 A3002 980  48 1900 070/08 RMK AO2
94908KDBQ DBQ20050520171009405/20/05 17:10:31  5-MIN KDBQ 202310Z 09008KT 10SM CLR 21/09 A3002 980 47  2000 090/08 RMK AO2
94908KDBQ DBQ20050520171509405/20/05 17:15:31  5-MIN KDBQ 202315Z 06007KT 10SM CLR 21/09 A3002 980 47  2000 060/07 RMK AO2
94908KDBQ DBQ20050520172009405/20/05 17:20:31  5-MIN KDBQ 202320Z 06005KT 10SM CLR 21/09 A3003 980 47  2000 060/05 RMK AO2
94908KDBQ DBQ20050520172509405/20/05 17:25:31  5-MIN KDBQ 202325Z 07006KT 10SM CLR 21/10 A3002 980 48  2000 070/06 RMK AO2
94908KDBQ DBQ20050520173009405/20/05 17:30:31  5-MIN KDBQ 202330Z 06008KT 10SM CLR 21/09 A3003 980 48  1900 060/08 RMK AO2
94908KDBQ DBQ20050520173509405/20/05 17:35:31  5-MIN KDBQ 202335Z 05010KT 10SM CLR 21/09 A3003 980 48  1900 050/10 RMK AO2
94908KDBQ DBQ20050520174009405/20/05 17:40:31  5-MIN KDBQ 202340Z 05008KT 10SM CLR 21/09 A3003 980 48  1900 050/08 RMK AO2
94908KDBQ DBQ20050520174509405/20/05 17:45:31  5-MIN KDBQ 202345Z 05008KT 10SM CLR 21/09 A3003 980 46  1900 050/08 RMK AO2
94908KDBQ DBQ20050520175012905/20/05 17:50:31  5-MIN KDBQ 202350Z 06009KT 10SM CLR 21/09 A3003 980 46  1900 060/09 RMK AO2 SLP168 T02060089 10217 20156 58008
94908KDBQ DBQ20050520175513805/20/05 17:55:31  5-MIN KDBQ 202355Z AUTO 07007KT 10SM CLR 20/09 A3003 980 48 1800 070/07 RMK AO2 SLP167 T02000089 10217 20156 50000 TSNO
94908KDBQ DBQ20050520180010305/20/05 18:00:31  5-MIN KDBQ 210000Z AUTO 07006KT 10SM CLR 20/09 A3002 990 48 1800 070/06 RMK AO2 TSNO
94908KDBQ DBQ20050520180510305/20/05 18:05:31  5-MIN KDBQ 210005Z AUTO 08006KT 10SM CLR 20/10 A3002 980 52 1800 080/06 RMK AO2 TSNO
94908KDBQ DBQ20050520181010305/20/05 18:10:31  5-MIN KDBQ 210010Z AUTO 08005KT 10SM CLR 20/09 A3003 980 50 1800 080/05 RMK AO2 TSNO
94908KDBQ DBQ20050520181510305/20/05 18:15:31  5-MIN KDBQ 210015Z AUTO 09004KT 10SM CLR 20/09 A3003 980 50 1800 090/04 RMK AO2 TSNO
94908KDBQ DBQ20050520182010305/20/05 18:20:31  5-MIN KDBQ 210020Z AUTO 08005KT 10SM CLR 20/09 A3003 980 50 1800 080/05 RMK AO2 TSNO
94908KDBQ DBQ20050520182510305/20/05 18:25:31  5-MIN KDBQ 210025Z AUTO 07005KT 10SM CLR 19/09 A3003 980 52 1800 070/05 RMK AO2 TSNO
94908KDBQ DBQ20050520183010305/20/05 18:30:31  5-MIN KDBQ 210030Z AUTO 07007KT 10SM CLR 19/09 A3003 980 50 1800 070/07 RMK AO2 TSNO
94908KDBQ DBQ20050520183510305/20/05 18:35:31  5-MIN KDBQ 210035Z AUTO 07005KT 10SM CLR 19/09 A3003 970 54 1700 070/05 RMK AO2 TSNO
94908KDBQ DBQ20050520184010305/20/05 18:40:31  5-MIN KDBQ 210040Z AUTO 07005KT 10SM CLR 19/09 A3003 970 54 1700 060/05 RMK AO2 TSNO
94908KDBQ DBQ20050520184510305/20/05 18:45:31  5-MIN KDBQ 210045Z AUTO 06004KT 10SM CLR 19/09 A3004 970 54 1700 060/04 RMK AO2 TSNO
94908KDBQ DBQ20050520185012005/20/05 18:50:31  5-MIN KDBQ 210050Z AUTO 07005KT 10SM CLR 19/09 A3003 970 54 1700 070/05 RMK AO2 SLP171 T01890094 TSNO
94908KDBQ DBQ20050520185512005/20/05 18:55:31  5-MIN KDBQ 210055Z AUTO 06004KT 10SM CLR 18/09 A3004 970 54 1600 060/04 RMK AO2 SLP171 T01830089 TSNO
94908KDBQ DBQ20050520190010305/20/05 19:00:31  5-MIN KDBQ 210100Z AUTO 07005KT 10SM CLR 18/09 A3004 970 58 1600 070/05 RMK AO2 TSNO
94908KDBQ DBQ20050520190510305/20/05 19:05:31  5-MIN KDBQ 210105Z AUTO 07006KT 10SM CLR 18/09 A3004 970 54 1600 070/06 RMK AO2 TSNO
94908KDBQ DBQ20050520191010305/20/05 19:10:31  5-MIN KDBQ 210110Z AUTO 07006KT 10SM CLR 18/09 A3003 980 55 1600 060/06 RMK AO2 TSNO
94908KDBQ DBQ20050520191510305/20/05 19:15:31  5-MIN KDBQ 210115Z AUTO 07006KT 10SM CLR 17/09 A3004 970 57 1500 060/06 RMK AO2 TSNO
94908KDBQ DBQ20050520192010305/20/05 19:20:31  5-MIN KDBQ 210120Z AUTO 06006KT 10SM CLR 17/09 A3003 980 60 1400 060/06 RMK AO2 TSNO
94908KDBQ DBQ20050520192510305/20/05 19:25:31  5-MIN KDBQ 210125Z AUTO 06006KT 10SM CLR 17/08 A3005 960 57 1400 060/06 RMK AO2 TSNO
94908KDBQ DBQ20050520193010305/20/05 19:30:31  5-MIN KDBQ 210130Z AUTO 06006KT 10SM CLR 17/08 A3004 970 57 1400 060/06 RMK AO2 TSNO
94908KDBQ DBQ20050520193510305/20/05 19:35:31  5-MIN KDBQ 210135Z AUTO 07006KT 10SM CLR 17/08 A3005 960 57 1400 070/06 RMK AO2 TSNO
94908KDBQ DBQ20050520194010305/20/05 19:40:31  5-MIN KDBQ 210140Z AUTO 07006KT 10SM CLR 17/08 A3004 970 57 1400 070/06 RMK AO2 TSNO
94908KDBQ DBQ20050520194510305/20/05 19:45:31  5-MIN KDBQ 210145Z AUTO 08006KT 10SM CLR 16/08 A3005 960 59 1400 080/06 RMK AO2 TSNO
94908KDBQ DBQ20050520195012005/20/05 19:50:31  5-MIN KDBQ 210150Z AUTO 09006KT 10SM CLR 16/08 A3004 970 62 1300 090/06 RMK AO2 SLP173 T01560083 TSNO
94908KDBQ DBQ20050520195512005/20/05 19:55:31  5-MIN KDBQ 210155Z AUTO 09006KT 10SM CLR 16/08 A3005 960 59 1400 090/06 RMK AO2 SLP178 T01610083 TSNO
94908KDBQ DBQ20050520200010305/20/05 20:00:31  5-MIN KDBQ 210200Z AUTO 10006KT 10SM CLR 16/08 A3004 970 62 1300 090/06 RMK AO2 TSNO
94908KDBQ DBQ20050520200510305/20/05 20:05:31  5-MIN KDBQ 210205Z AUTO 10007KT 10SM CLR 16/08 A3005 960 62 1300 100/07 RMK AO2 TSNO
94908KDBQ DBQ20050520201010305/20/05 20:10:31  5-MIN KDBQ 210210Z AUTO 10006KT 10SM CLR 16/08 A3004 960 62 1300 100/06 RMK AO2 TSNO
94908KDBQ DBQ20050520201510305/20/05 20:15:31  5-MIN KDBQ 210215Z AUTO 10006KT 10SM CLR 15/08 A3006 950 64 1200 100/06 RMK AO2 TSNO
94908KDBQ DBQ20050520202010305/20/05 20:20:31  5-MIN KDBQ 210220Z AUTO 10006KT 10SM CLR 15/08 A3005 960 64 1200 100/06 RMK AO2 TSNO
94908KDBQ DBQ20050520202510305/20/05 20:25:31  5-MIN KDBQ 210225Z AUTO 10006KT 10SM CLR 15/08 A3006 950 64 1200 100/06 RMK AO2 TSNO
94908KDBQ DBQ20050520203010305/20/05 20:30:31  5-MIN KDBQ 210230Z AUTO 10006KT 10SM CLR 15/08 A3005 960 64 1200 100/06 RMK AO2 TSNO
94908KDBQ DBQ20050520203510305/20/05 20:35:31  5-MIN KDBQ 210235Z AUTO 10006KT 10SM CLR 15/08 A3006 950 64 1200 100/06 RMK AO2 TSNO
94908KDBQ DBQ20050520204010305/20/05 20:40:31  5-MIN KDBQ 210240Z AUTO 09006KT 10SM CLR 15/08 A3006 950 64 1200 090/06 RMK AO2 TSNO
94908KDBQ DBQ20050520204510305/20/05 20:45:31  5-MIN KDBQ 210245Z AUTO 10006KT 10SM CLR 15/08 A3006 950 64 1200 090/06 RMK AO2 TSNO
94908KDBQ DBQ20050520205012605/20/05 20:50:31  5-MIN KDBQ 210250Z AUTO 10006KT 10SM CLR 15/08 A3006 950 64 1200 090/06 RMK AO2 SLP179 T01500083 50000 TSNO
94908KDBQ DBQ20050520205512605/20/05 20:55:31  5-MIN KDBQ 210255Z AUTO 10006KT 10SM CLR 15/08 A3006 950 64 1200 090/06 RMK AO2 SLP181 T01500083 53012 TSNO
94908KDBQ DBQ20050520210010305/20/05 21:00:31  5-MIN KDBQ 210300Z AUTO 09007KT 10SM CLR 15/08 A3006 950 64 1200 090/07 RMK AO2 TSNO
94908KDBQ DBQ20050520210510305/20/05 21:05:31  5-MIN KDBQ 210305Z AUTO 09007KT 10SM CLR 14/08 A3006 950 66 1100 090/07 RMK AO2 TSNO
94908KDBQ DBQ20050520211010305/20/05 21:10:31  5-MIN KDBQ 210310Z AUTO 09006KT 10SM CLR 14/08 A3007 940 66 1100 090/06 RMK AO2 TSNO
94908KDBQ DBQ20050520211510305/20/05 21:15:31  5-MIN KDBQ 210315Z AUTO 10006KT 10SM CLR 14/08 A3007 940 66 1100 100/06 RMK AO2 TSNO
94908KDBQ DBQ20050520212010305/20/05 21:20:31  5-MIN KDBQ 210320Z AUTO 10006KT 10SM CLR 14/08 A3007 940 66 1100 100/06 RMK AO2 TSNO
94908KDBQ DBQ20050520212510305/20/05 21:25:31  5-MIN KDBQ 210325Z AUTO 10007KT 10SM CLR 14/09 A3006 950 69 1100 100/07 RMK AO2 TSNO
94908KDBQ DBQ20050520213010305/20/05 21:30:31  5-MIN KDBQ 210330Z AUTO 10007KT 10SM CLR 14/09 A3006 950 71 1100 100/07 RMK AO2 TSNO
94908KDBQ DBQ20050520213510305/20/05 21:35:31  5-MIN KDBQ 210335Z AUTO 10007KT 10SM CLR 14/09 A3006 950 71 1100 100/07 RMK AO2 TSNO
94908KDBQ DBQ20050520214010305/20/05 21:40:31  5-MIN KDBQ 210340Z AUTO 11007KT 10SM CLR 14/09 A3005 960 71 1100 100/07 RMK AO2 TSNO
94908KDBQ DBQ20050520214510305/20/05 21:45:31  5-MIN KDBQ 210345Z AUTO 11007KT 10SM CLR 14/09 A3007 940 69 1100 110/07 RMK AO2 TSNO
94908KDBQ DBQ20050521211010705/21/05 21:10:31  5-MIN KDBQ 220310Z AUTO 00000KT 9SM OVC100 14/12 A2994  1060 86 1300 000/00 RMK AO2 TSNO
94908KDBQ DBQ20050521211510705/21/05 21:15:31  5-MIN KDBQ 220315Z AUTO 00000KT 9SM OVC100 14/12 A2994  1060 86 1300 000/00 RMK AO2 TSNO
94908KDBQ DBQ20050521212010705/21/05 21:20:31  5-MIN KDBQ 220320Z AUTO 00000KT 9SM OVC100 14/12 A2995  1050 86 1300 000/00 RMK AO2 TSNO
94908KDBQ DBQ20050521212510705/21/05 21:25:31  5-MIN KDBQ 220325Z AUTO 00000KT 8SM OVC100 14/12 A2994  1060 86 1300 000/00 RMK AO2 TSNO
94908KDBQ DBQ20050521213010705/21/05 21:30:31  5-MIN KDBQ 220330Z AUTO 00000KT 8SM OVC100 14/12 A2994  1060 86 1300 000/00 RMK AO2 TSNO
94908KDBQ DBQ20050521213510705/21/05 21:35:31  5-MIN KDBQ 220335Z AUTO 00000KT 8SM OVC100 14/12 A2994  1060 86 1300 000/00 RMK AO2 TSNO
94908KDBQ DBQ20050521214010705/21/05 21:40:31  5-MIN KDBQ 220340Z AUTO 16003KT 8SM OVC100 14/12 A2995  1050 86 1300 160/03 RMK AO2 TSNO
94908KDBQ DBQ20050521214510705/21/05 21:45:31  5-MIN KDBQ 220345Z AUTO 15003KT 8SM OVC100 14/12 A2994  1060 83 1300 150/03 RMK AO2 TSNO
94908KDBQ DBQ20050521215012405/21/05 21:50:31  5-MIN KDBQ 220350Z AUTO 00000KT 8SM OVC100 14/12 A2994  1060 83 1300 000/00 RMK AO2 SLP137 T01440117 TSNO
94908KDBQ DBQ20050521215512405/21/05 21:55:31  5-MIN KDBQ 220355Z AUTO 14003KT 9SM OVC100 14/12 A2994  1060 83 1300 140/03 RMK AO2 SLP139 T01440117 TSNO
94908KDBQ DBQ20050521220010705/21/05 22:00:31  5-MIN KDBQ 220400Z AUTO 00000KT 9SM OVC100 14/12 A2995  1050 83 1300 000/00 RMK AO2 TSNO
94908KDBQ DBQ20050521220510705/21/05 22:05:31  5-MIN KDBQ 220405Z AUTO 00000KT 9SM OVC100 15/12 A2994  1060 80 1300 000/00 RMK AO2 TSNO
94908KDBQ DBQ20050521221010705/21/05 22:10:31  5-MIN KDBQ 220410Z AUTO 00000KT 9SM OVC100 14/12 A2994  1060 83 1300 000/00 RMK AO2 TSNO
94908KDBQ DBQ20050521221510705/21/05 22:15:31  5-MIN KDBQ 220415Z AUTO 00000KT 9SM OVC100 14/12 A2994  1060 83 1300 000/00 RMK AO2 TSNO
94908KDBQ DBQ20050521222010705/21/05 22:20:31  5-MIN KDBQ 220420Z AUTO 00000KT 9SM OVC100 14/12 A2995  1050 83 1300 000/00 RMK AO2 TSNO
94908KDBQ DBQ20050521222510705/21/05 22:25:31  5-MIN KDBQ 220425Z AUTO 00000KT 9SM OVC100 15/11 A2994  1060 77 1300 000/00 RMK AO2 TSNO
94908KDBQ DBQ20050521223010705/21/05 22:30:31  5-MIN KDBQ 220430Z AUTO 14003KT 9SM OVC100 15/11 A2994  1060 77 1400 140/03 RMK AO2 TSNO
94908KDBQ DBQ20050521223510705/21/05 22:35:31  5-MIN KDBQ 220435Z AUTO 12003KT 9SM OVC100 15/11 A2993  1070 77 1400 120/03 RMK AO2 TSNO
94908KDBQ DBQ20050521224010705/21/05 22:40:31  5-MIN KDBQ 220440Z AUTO 14003KT 9SM OVC100 14/11 A2993  1070 80 1300 130/03 RMK AO2 TSNO
94908KDBQ DBQ20050521224510705/21/05 22:45:31  5-MIN KDBQ 220445Z AUTO 13003KT 9SM OVC100 15/11 A2993  1070 77 1400 130/03 RMK AO2 TSNO
94908KDBQ DBQ20050521225012405/21/05 22:50:31  5-MIN KDBQ 220450Z AUTO 14004KT 9SM OVC100 15/11 A2993  1070 77 1400 140/04 RMK AO2 SLP135 T01500111 TSNO
94908KDBQ DBQ20050521225512405/21/05 22:55:31  5-MIN KDBQ 220455Z AUTO 14004KT 9SM OVC100 14/11 A2993  1070 80 1300 140/04 RMK AO2 SLP136 T01440111 TSNO
94908KDBQ DBQ20050521230010705/21/05 23:00:31  5-MIN KDBQ 220500Z AUTO 15004KT 9SM OVC100 14/11 A2993  1070 80 1300 140/04 RMK AO2 TSNO
94908KDBQ DBQ20050521230510705/21/05 23:05:31  5-MIN KDBQ 220505Z AUTO 14005KT 9SM OVC110 14/11 A2993  1070 80 1300 140/05 RMK AO2 TSNO
94908KDBQ DBQ20050521231010705/21/05 23:10:31  5-MIN KDBQ 220510Z AUTO 14006KT 9SM OVC110 15/11 A2994  1060 77 1300 140/06 RMK AO2 TSNO
94908KDBQ DBQ20050521231510705/21/05 23:15:31  5-MIN KDBQ 220515Z AUTO 15006KT 9SM OVC110 14/11 A2993  1070 80 1300 150/06 RMK AO2 TSNO
94908KDBQ DBQ20050521232010705/21/05 23:20:31  5-MIN KDBQ 220520Z AUTO 15006KT 9SM OVC110 14/11 A2992  1080 80 1300 150/06 RMK AO2 TSNO
94908KDBQ DBQ20050521232510705/21/05 23:25:31  5-MIN KDBQ 220525Z AUTO 15007KT 9SM BKN110 14/11 A2992  1080 80 1300 150/07 RMK AO2 TSNO
94908KDBQ DBQ20050521233010705/21/05 23:30:31  5-MIN KDBQ 220530Z AUTO 15007KT 9SM BKN110 14/11 A2993  1070 77 1300 150/07 RMK AO2 TSNO
94908KDBQ DBQ20050521233510705/21/05 23:35:31  5-MIN KDBQ 220535Z AUTO 15008KT 9SM SCT110 14/11 A2992  1080 77 1300 150/08 RMK AO2 TSNO
94908KDBQ DBQ20050521234010705/21/05 23:40:31  5-MIN KDBQ 220540Z AUTO 16008KT 9SM SCT110 14/11 A2991  1080 77 1300 160/08 RMK AO2 TSNO
94908KDBQ DBQ20050521234510705/21/05 23:45:31  5-MIN KDBQ 220545Z AUTO 16006KT 9SM FEW110 14/11 A2992  1080 77 1300 160/06 RMK AO2 TSNO
94908KDBQ DBQ20050521235015905/21/05 23:50:31  5-MIN KDBQ 220550Z AUTO 17007KT 9SM FEW110 14/11 A2992  1080 80 1200 160/07 RMK AO2 SLP130 60000 T01390106 10167 20139 401780089  53013 TSNO
94908KDBQ DBQ20050521235515905/21/05 23:55:31  5-MIN KDBQ 220555Z AUTO 16008KT 9SM SCT110 14/11 A2992  1080 80 1200 160/08 RMK AO2 SLP129 60000 T01390106 10167 20139 401780089  58009 TSNO
94908KDBQ DBQ20050522000010705/22/05 00:00:38  5-MIN KDBQ 220600Z AUTO 16008KT 9SM BKN110 14/11 A2992  1080 77 1300 160/08 RMK AO2 TSNO
94908KDBQ DBQ20050522000510705/22/05 00:05:31  5-MIN KDBQ 220605Z AUTO 16008KT 10SM BKN110 14/11 A2991 1090 77 1300 160/08 RMK AO2 TSNO
94908KDBQ DBQ20050522001010705/22/05 00:10:31  5-MIN KDBQ 220610Z AUTO 16009KT 10SM BKN110 14/11 A2990 1090 77 1300 160/09 RMK AO2 TSNO
94908KDBQ DBQ20050522001510705/22/05 00:15:33  5-MIN KDBQ 220615Z AUTO 16009KT 10SM OVC110 14/11 A2990 1100 77 1300 160/09 RMK AO2 TSNO
94908KDBQ DBQ20050522002010705/22/05 00:20:31  5-MIN KDBQ 220620Z AUTO 16009KT 10SM OVC110 14/11 A2990 1100 77 1300 160/09 RMK AO2 TSNO
94908KDBQ DBQ20050522002510705/22/05 00:25:31  5-MIN KDBQ 220625Z AUTO 17009KT 9SM OVC100 14/11 A2989  1100 77 1300 170/09 RMK AO2 TSNO
94908KDBQ DBQ20050522003010705/22/05 00:30:31  5-MIN KDBQ 220630Z AUTO 18007KT 10SM OVC100 14/11 A2990 1100 77 1300 180/07 RMK AO2 TSNO
94908KDBQ DBQ20050522003510705/22/05 00:35:31  5-MIN KDBQ 220635Z AUTO 17007KT 9SM OVC110 14/11 A2989  1110 77 1300 170/07 RMK AO2 TSNO
94908KDBQ DBQ20050522004010705/22/05 00:40:31  5-MIN KDBQ 220640Z AUTO 17008KT 10SM OVC110 14/11 A2988 1110 77 1300 170/08 RMK AO2 TSNO
94908KDBQ DBQ20050522004510705/22/05 00:45:31  5-MIN KDBQ 220645Z AUTO 17008KT 10SM OVC100 14/11 A2988 1120 77 1300 170/08 RMK AO2 TSNO
94908KDBQ DBQ20050522005012405/22/05 00:50:31  5-MIN KDBQ 220650Z AUTO 16010KT 10SM OVC100 14/10 A2988 1120 74 1400 160/10 RMK AO2 SLP116 T01440100 TSNO
94908KDBQ DBQ20050522005512405/22/05 00:55:31  5-MIN KDBQ 220655Z AUTO 16010KT 10SM OVC100 14/10 A2987 1120 74 1400 160/10 RMK AO2 SLP114 T01440100 TSNO
94908KDBQ DBQ20050522010010705/22/05 01:00:31  5-MIN KDBQ 220700Z AUTO 17009KT 10SM OVC100 14/10 A2988 1110 74 1300 170/09 RMK AO2 TSNO
94908KDBQ DBQ20050522010510705/22/05 01:05:31  5-MIN KDBQ 220705Z AUTO 17009KT 10SM OVC100 14/10 A2987 1120 74 1400 170/09 RMK AO2 TSNO
94908KDBQ DBQ20050522011010705/22/05 01:10:31  5-MIN KDBQ 220710Z AUTO 17007KT 10SM OVC100 14/11 A2987 1130 77 1400 170/07 RMK AO2 TSNO
94908KDBQ DBQ20050522011510705/22/05 01:15:31  5-MIN KDBQ 220715Z AUTO 17007KT 10SM OVC110 14/11 A2987 1130 77 1400 170/07 RMK AO2 TSNO
94908KDBQ DBQ20050522012010705/22/05 01:20:31  5-MIN KDBQ 220720Z AUTO 19005KT 10SM OVC110 14/11 A2987 1130 77 1400 190/05 RMK AO2 TSNO
94908KDBQ DBQ20050522012510705/22/05 01:25:31  5-MIN KDBQ 220725Z AUTO 20005KT 10SM OVC110 14/11 A2987 1120 80 1300 200/05 RMK AO2 TSNO
94908KDBQ DBQ20050522013010705/22/05 01:30:31  5-MIN KDBQ 220730Z AUTO 19006KT 9SM OVC110 14/11 A2988  1120 80 1300 190/06 RMK AO2 TSNO
94908KDBQ DBQ20050522013510705/22/05 01:35:31  5-MIN KDBQ 220735Z AUTO 19005KT 9SM OVC110 14/11 A2987  1120 80 1300 190/05 RMK AO2 TSNO
94908KDBQ DBQ20050522014010705/22/05 01:40:31  5-MIN KDBQ 220740Z AUTO 18006KT 9SM BKN120 13/11 A2987  1120 83 1200 180/06 RMK AO2 TSNO
94908KDBQ DBQ20050522014510705/22/05 01:45:31  5-MIN KDBQ 220745Z AUTO 18006KT 9SM BKN120 13/11 A2987  1120 83 1200 180/06 RMK AO2 TSNO
94908KDBQ DBQ20050522015012405/22/05 01:50:31  5-MIN KDBQ 220750Z AUTO 18007KT 9SM BKN110 13/11 A2987  1120 83 1200 180/07 RMK AO2 SLP115 T01330106 TSNO
94908KDBQ DBQ20050522015512405/22/05 01:55:31  5-MIN KDBQ 220755Z AUTO 19006KT 9SM BKN120 13/11 A2987  1130 83 1200 190/06 RMK AO2 SLP114 T01330106 TSNO
94908KDBQ DBQ20050522020010705/22/05 02:00:31  5-MIN KDBQ 220800Z AUTO 19007KT 9SM BKN120 13/11 A2987  1130 83 1200 190/07 RMK AO2 TSNO
94908KDBQ DBQ20050522020510705/22/05 02:05:31  5-MIN KDBQ 220805Z AUTO 19007KT 9SM BKN120 13/11 A2987  1130 83 1200 190/07 RMK AO2 TSNO
94908KDBQ DBQ20050522021011305/22/05 02:10:31  5-MIN KDBQ 220810Z AUTO 19008KT 8SM FEW055 BKN120 13/11 A2987 1130 83 1200 190/08 RMK AO2 TSNO
94908KDBQ DBQ20050522021511305/22/05 02:15:31  5-MIN KDBQ 220815Z AUTO 20007KT 9SM SCT055 BKN120 13/11 A2987 1130 83 1200 190/07 RMK AO2 TSNO
94908KDBQ DBQ20050522022011305/22/05 02:20:31  5-MIN KDBQ 220820Z AUTO 20007KT 9SM BKN055 OVC120 13/11 A2987 1130 83 1200 200/07 RMK AO2 TSNO
94908KDBQ DBQ20050522022511305/22/05 02:25:31  5-MIN KDBQ 220825Z AUTO 20008KT 9SM BKN055 OVC120 13/11 A2987 1130 83 1200 200/08 RMK AO2 TSNO
94908KDBQ DBQ20050522023010705/22/05 02:30:31  5-MIN KDBQ 220830Z AUTO 20008KT 9SM BKN055 14/11 A2987  1130 80 1300 200/08 RMK AO2 TSNO
94908KDBQ DBQ20050522023510705/22/05 02:35:31  5-MIN KDBQ 220835Z AUTO 19009KT 9SM OVC055 14/11 A2987  1130 80 1300 190/09 RMK AO2 TSNO
94908KDBQ DBQ20050522024010705/22/05 02:40:31  5-MIN KDBQ 220840Z AUTO 20008KT 9SM OVC060 14/11 A2988  1120 80 1300 200/08 RMK AO2 TSNO
94908KDBQ DBQ20050522024510705/22/05 02:45:31  5-MIN KDBQ 220845Z AUTO 20010KT 9SM OVC060 14/11 A2987  1130 77 1400 200/10 RMK AO2 TSNO
94908KDBQ DBQ20050522025013005/22/05 02:50:31  5-MIN KDBQ 220850Z AUTO 20008KT 10SM OVC060 14/11 A2987 1130 80 1300 200/08 RMK AO2 SLP113 T01390106 58009 TSNO
94908KDBQ DBQ20050522025513005/22/05 02:55:31  5-MIN KDBQ 220855Z AUTO 21009KT 10SM OVC060 14/11 A2986 1130 80 1300 210/09 RMK AO2 SLP113 T01390106 56017 TSNO
94908KDBQ DBQ20050522030010705/22/05 03:00:31  5-MIN KDBQ 220900Z AUTO 20010KT 10SM OVC055 14/11 A2986 1130 80 1300 200/10 RMK AO2 TSNO
94908KDBQ DBQ20050522030510705/22/05 03:05:31  5-MIN KDBQ 220905Z AUTO 21009KT 10SM OVC055 14/11 A2986 1130 77 1400 210/09 RMK AO2 TSNO
94908KDBQ DBQ20050522031010705/22/05 03:10:31  5-MIN KDBQ 220910Z AUTO 20010KT 10SM OVC055 14/11 A2986 1140 77 1400 200/10 RMK AO2 TSNO
94908KDBQ DBQ20050522031510705/22/05 03:15:31  5-MIN KDBQ 220915Z AUTO 20010KT 10SM OVC055 14/11 A2985 1140 77 1400 200/10 RMK AO2 TSNO
94908KDBQ DBQ20050522032011405/22/05 03:20:31  5-MIN KDBQ 220920Z AUTO 20010KT 10SM BKN055 OVC080 14/11 A2985 1140 80 1300 200/10 RMK AO2 TSNO
94908KDBQ DBQ20050522032511405/22/05 03:25:31  5-MIN KDBQ 220925Z AUTO 20011KT 10SM BKN060 BKN075 14/11 A2985 1140 80 1300 200/11 RMK AO2 TSNO
94908KDBQ DBQ20050522033011405/22/05 03:30:31  5-MIN KDBQ 220930Z AUTO 20010KT 10SM SCT060 BKN075 14/11 A2984 1150 80 1300 200/10 RMK AO2 TSNO
94908KDBQ DBQ20050522033511305/22/05 03:35:31  5-MIN KDBQ 220935Z AUTO 21010KT 9SM SCT060 BKN075 14/11 A2985 1150 80 1300 210/10 RMK AO2 TSNO
94908KDBQ DBQ20050522034011305/22/05 03:40:31  5-MIN KDBQ 220940Z AUTO 21009KT 9SM FEW060 BKN080 14/11 A2984 1150 80 1300 210/09 RMK AO2 TSNO
94908KDBQ DBQ20050522034512005/22/05 03:45:31  5-MIN KDBQ 220945Z AUTO 21009KT 9SM FEW065 SCT080 SCT095 13/11 A2984 1150 83 1300 210/09 RMK AO2 TSNO
94908KDBQ DBQ20050522035013005/22/05 03:50:31  5-MIN KDBQ 220950Z AUTO 21010KT 9SM FEW075 BKN095 14/11 A2984 1150 80 1300 200/10 RMK AO2 SLP105 T01390106 TSNO
94908KDBQ DBQ20050522035513005/22/05 03:55:31  5-MIN KDBQ 220955Z AUTO 21010KT 9SM FEW075 BKN095 14/11 A2984 1150 80 1300 210/10 RMK AO2 SLP104 T01390106 TSNO
94908KDBQ DBQ20050522040011305/22/05 04:00:31  5-MIN KDBQ 221000Z AUTO 21009KT 9SM FEW080 BKN095 14/11 A2984 1150 80 1300 210/09 RMK AO2 TSNO
94908KDBQ DBQ20050522040513005/22/05 04:05:31  5-MIN KDBQ 221005Z AUTO 21008KT 8SM -RA FEW060 BKN090  14/11 A2985 1140 80 1300 210/08 RMK AO2 RAB05 P0000 TSNO
94908KDBQ DBQ20050522041013005/22/05 04:10:31  5-MIN KDBQ 221010Z AUTO 20008KT 8SM -RA SCT065 OVC095  14/11 A2985 1140 83 1300 200/08 RMK AO2 RAB05 P0001 TSNO
94908KDBQ DBQ20050522041513005/22/05 04:15:31  5-MIN KDBQ 221015Z AUTO 20008KT 8SM -RA BKN065 OVC090  13/11 A2985 1150 86 1300 200/08 RMK AO2 RAB05 P0001 TSNO
94908KDBQ DBQ20050522042012805/22/05 04:20:31  5-MIN KDBQ 221020Z AUTO 21008KT 9SM BKN065 OVC095 13/11 A2985 1140 86 1300 200/08 RMK AO2 RAB05E20 P0001 TSNO
94908KDBQ DBQ20050522042512805/22/05 04:25:31  5-MIN KDBQ 221025Z AUTO 20007KT 9SM BKN065 OVC090 14/11 A2985 1140 83 1300 200/07 RMK AO2 RAB05E20 P0001 TSNO
94908KDBQ DBQ20050522043012205/22/05 04:30:31  5-MIN KDBQ 221030Z AUTO 21007KT 8SM OVC065 13/11 A2985  1140 86 1200 200/07 RMK AO2 RAB05E20 P0001 TSNO
94908KDBQ DBQ20050522043512205/22/05 04:35:31  5-MIN KDBQ 221035Z AUTO 21006KT 8SM OVC065 13/11 A2985  1140 86 1300 210/06 RMK AO2 RAB05E20 P0001 TSNO
94908KDBQ DBQ20050522044012205/22/05 04:40:31  5-MIN KDBQ 221040Z AUTO 22007KT 8SM OVC070 13/11 A2985  1140 86 1300 220/07 RMK AO2 RAB05E20 P0001 TSNO
94908KDBQ DBQ20050522044512205/22/05 04:45:31  5-MIN KDBQ 221045Z AUTO 22007KT 8SM OVC070 14/11 A2985  1140 83 1300 220/07 RMK AO2 RAB05E20 P0001 TSNO
94908KDBQ DBQ20050522045013905/22/05 04:50:31  5-MIN KDBQ 221050Z AUTO 22007KT 7SM OVC070 13/11 A2985  1150 86 1300 220/07 RMK AO2 RAB05E20 SLP107 P0001 T01330111 TSNO
94908KDBQ DBQ20050522045514205/22/05 04:55:31  5-MIN KDBQ 221055Z AUTO 22008KT 6SM BR OVC070 13/11  A2985 1150 86 1300 220/08 RMK AO2 RAB05E20 SLP107 P0001 T01330111 TSNO
94908KDBQ DBQ20050522050010005/22/05 05:00:31  5-MIN KDBQ 221100Z 21007KT 6SM HZ OVC070 14/11 A2985  1150 83 1300 210/07 RMK AO2
94908KDBQ DBQ20050522050510005/22/05 05:05:31  5-MIN KDBQ 221105Z 21007KT 6SM HZ OVC075 14/11 A2985  1150 83 1300 210/07 RMK AO2
94908KDBQ DBQ20050522051010705/22/05 05:10:31  5-MIN KDBQ 221110Z 21007KT 6SM HZ BKN080 OVC100 14/11  A2985 1150 83 1300 210/07 RMK AO2
94908KDBQ DBQ20050522051510705/22/05 05:15:31  5-MIN KDBQ 221115Z 22007KT 6SM BR BKN080 BKN100 13/11  A2985 1150 86 1300 220/07 RMK AO2
94908KDBQ DBQ20050522052010005/22/05 05:20:31  5-MIN KDBQ 221120Z 21007KT 6SM BR BKN075 13/11 A2985  1150 86 1300 210/07 RMK AO2
94908KDBQ DBQ20050522052510005/22/05 05:25:31  5-MIN KDBQ 221125Z 21006KT 6SM BR BKN080 13/11 A2985  1150 86 1300 200/06 RMK AO2
94908KDBQ DBQ20050522053010005/22/05 05:30:31  5-MIN KDBQ 221130Z 19006KT 6SM BR BKN080 13/11 A2985  1150 86 1300 190/06 RMK AO2
94908KDBQ DBQ20050522053510005/22/05 05:35:31  5-MIN KDBQ 221135Z 18006KT 6SM BR SCT080 13/11 A2984  1150 86 1300 180/06 RMK AO2
94908KDBQ DBQ20050522054010005/22/05 05:40:31  5-MIN KDBQ 221140Z 18006KT 6SM HZ SCT080 14/11 A2984  1150 83 1300 180/06 RMK AO2
94908KDBQ DBQ20050522054510005/22/05 05:45:31  5-MIN KDBQ 221145Z 19005KT 6SM HZ FEW080 14/11 A2984  1150 83 1300 190/05 RMK AO2
94908KDBQ DBQ20050522055014705/22/05 05:50:31  5-MIN KDBQ 221150Z 19007KT 6SM BR FEW080 14/12 A2984  1160 86 1300 190/07 RMK AO2 SLP102 60001 70025 T01390117 10144 20133 56017
94908KDBQ DBQ20050522055514405/22/05 05:55:31  5-MIN KDBQ 221155Z 18006KT 6SM BR CLR 14/12 A2983 1160  86 1300 180/06 RMK AO2 SLP101 60001 70025 T01390117 10144 20133 56010
94908KDBQ DBQ20050522060009705/22/05 06:00:31  5-MIN KDBQ 221200Z 20006KT 6SM BR CLR 14/12 A2983 1160  86 1300 190/06 RMK AO2
94908KDBQ DBQ20050522060509705/22/05 06:05:31  5-MIN KDBQ 221205Z 20006KT 6SM HZ CLR 14/12 A2983 1160  83 1400 200/06 RMK AO2
94908KDBQ DBQ20050522061009705/22/05 06:10:31  5-MIN KDBQ 221210Z 22006KT 6SM HZ CLR 14/12 A2983 1160  83 1400 220/06 RMK AO2
94908KDBQ DBQ20050522061509705/22/05 06:15:31  5-MIN KDBQ 221215Z 22007KT 6SM HZ CLR 14/12 A2983 1160  83 1400 220/07 RMK AO2
94908KDBQ DBQ20050522062009705/22/05 06:20:31  5-MIN KDBQ 221220Z 22009KT 5SM HZ CLR 15/12 A2983 1160  80 1500 220/09 RMK AO2
94908KDBQ DBQ20050522062509705/22/05 06:25:31  5-MIN KDBQ 221225Z 23008KT 5SM HZ CLR 15/12 A2983 1160  80 1500 230/08 RMK AO2
94908KDBQ DBQ20050522063009705/22/05 06:30:31  5-MIN KDBQ 221230Z 24007KT 6SM HZ CLR 15/12 A2983 1160  83 1500 240/07 RMK AO2
94908KDBQ DBQ20050522063509705/22/05 06:35:31  5-MIN KDBQ 221235Z 24008KT 6SM HZ CLR 15/12 A2984 1160  83 1500 240/08 RMK AO2
94908KDBQ DBQ20050522064009705/22/05 06:40:31  5-MIN KDBQ 221240Z 25009KT 6SM HZ CLR 16/12 A2984 1160  80 1500 250/09 RMK AO2
94908KDBQ DBQ20050522064509705/22/05 06:45:31  5-MIN KDBQ 221245Z 26008KT 6SM HZ CLR 16/12 A2984 1160  80 1500 250/08 RMK AO2
94908KDBQ DBQ20050522065011405/22/05 06:50:31  5-MIN KDBQ 221250Z 26011KT 6SM HZ CLR 16/13 A2984 1160  83 1500 260/11 RMK AO2 SLP102 T01560128
94908KDBQ DBQ20050522065511405/22/05 06:55:31  5-MIN KDBQ 221255Z 27011KT 6SM HZ CLR 16/13 A2983 1160  80 1600 270/11 RMK AO2 SLP101 T01610128
94908KDBQ DBQ20050522070009705/22/05 07:00:31  5-MIN KDBQ 221300Z 27011KT 6SM HZ CLR 16/13 A2984 1150  80 1600 270/11 RMK AO2
94908KDBQ DBQ20050522070509405/22/05 07:05:31  5-MIN KDBQ 221305Z 28013KT 7SM CLR 17/13 A2984 1150 77  1700 280/13 RMK AO2
94908KDBQ DBQ20050522071009405/22/05 07:10:31  5-MIN KDBQ 221310Z 28013KT 7SM CLR 17/13 A2985 1150 77  1600 270/13 RMK AO2
94908KDBQ DBQ20050522071509405/22/05 07:15:31  5-MIN KDBQ 221315Z 29011KT 7SM CLR 17/13 A2984 1150 80  1700 290/11 RMK AO2
94908KDBQ DBQ20050522072009405/22/05 07:20:31  5-MIN KDBQ 221320Z 28008KT 7SM CLR 17/13 A2985 1140 78  1700 280/08 RMK AO2
94908KDBQ DBQ20050522072509405/22/05 07:25:31  5-MIN KDBQ 221325Z 29010KT 8SM CLR 17/13 A2985 1140 75  1700 290/10 RMK AO2
94908KDBQ DBQ20050522073009405/22/05 07:30:31  5-MIN KDBQ 221330Z 28009KT 8SM CLR 18/13 A2985 1140 75  1800 280/09 RMK AO2
94908KDBQ DBQ20050522073509405/22/05 07:35:31  5-MIN KDBQ 221335Z 29010KT 9SM CLR 18/13 A2985 1140 70  1800 290/10 RMK AO2
94908KDBQ DBQ20050522074009405/22/05 07:40:31  5-MIN KDBQ 221340Z 30010KT 10SM CLR 18/13 A2985 1140 70 1800 300/10 RMK AO2
94908KDBQ DBQ20050522074509405/22/05 07:45:31  5-MIN KDBQ 221345Z 30011KT 10SM CLR 18/12 A2985 1140 67 1800 300/11 RMK AO2
94908KDBQ DBQ20050522075011105/22/05 07:50:31  5-MIN KDBQ 221350Z 30010KT 10SM CLR 19/13 A2985 1140 67 1900 300/10 RMK AO2 SLP105 T01890128
94908KDBQ DBQ20050522075511105/22/05 07:55:31  5-MIN KDBQ 221355Z 31012KT 10SM CLR 19/12 A2985 1150 65 1900 310/12 RMK AO2 SLP105 T01890122
94908KDBQ DBQ20050522080009405/22/05 08:00:31  5-MIN KDBQ 221400Z 31011KT 10SM CLR 19/12 A2985 1140 60 2000 310/11 RMK AO2
94908KDBQ DBQ20050522080509405/22/05 08:05:31  5-MIN KDBQ 221405Z 30010KT 10SM CLR 19/12 A2985 1150 60 2000 300/10 RMK AO2
94908KDBQ DBQ20050522081010005/22/05 08:10:31  5-MIN KDBQ 221410Z 30010G17KT 10SM CLR 19/12 A2985 1150 60 2000 300/10G17 RMK AO2
94908KDBQ DBQ20050522081509405/22/05 08:15:31  5-MIN KDBQ 221415Z 31012KT 10SM CLR 20/11 A2985 1150 56 2000 310/12 RMK AO2
94908KDBQ DBQ20050522082009405/22/05 08:20:31  5-MIN KDBQ 221420Z 30012KT 10SM CLR 20/11 A2985 1150 56 2000 300/12 RMK AO2
94908KDBQ DBQ20050522082509405/22/05 08:25:31  5-MIN KDBQ 221425Z 30013KT 10SM CLR 21/11 A2985 1150 54 2100 300/13 RMK AO2
94908KDBQ DBQ20050522083009405/22/05 08:30:31  5-MIN KDBQ 221430Z 31012KT 10SM CLR 21/11 A2985 1150 54 2100 310/12 RMK AO2
94908KDBQ DBQ20050522083509405/22/05 08:35:31  5-MIN KDBQ 221435Z 30014KT 10SM CLR 21/10 A2985 1150 50 2100 300/14 RMK AO2
94908KDBQ DBQ20050522084009405/22/05 08:40:31  5-MIN KDBQ 221440Z 30014KT 10SM CLR 21/11 A2984 1150 52 2100 300/14 RMK AO2
94908KDBQ DBQ20050522084509405/22/05 08:45:31  5-MIN KDBQ 221445Z 30013KT 10SM CLR 21/11 A2984 1150 52 2100 300/13 RMK AO2
94908KDBQ DBQ20050522085011705/22/05 08:50:31  5-MIN KDBQ 221450Z 31013KT 10SM CLR 21/11 A2984 1150 52 2200 300/13 RMK AO2 SLP102 T02110111 56010
94908KDBQ DBQ20050522085511705/22/05 08:55:31  5-MIN KDBQ 221455Z 30015KT 10SM CLR 21/11 A2984 1150 50 2200 300/15 RMK AO2 SLP102 T02110106 50002
94908KDBQ DBQ20050522090009405/22/05 09:00:31  5-MIN KDBQ 221500Z 31014KT 10SM CLR 21/10 A2984 1150 48 2200 310/14 RMK AO2
94908KDBQ DBQ20050522090509405/22/05 09:05:31  5-MIN KDBQ 221505Z 29012KT 10SM CLR 22/11 A2984 1150 50 2200 290/12 RMK AO2
94908KDBQ DBQ20050522091009405/22/05 09:10:31  5-MIN KDBQ 221510Z 30013KT 10SM CLR 21/11 A2984 1150 50 2200 300/13 RMK AO2
94908KDBQ DBQ20050522091509405/22/05 09:15:31  5-MIN KDBQ 221515Z 30010KT 10SM CLR 21/11 A2984 1150 50 2200 300/10 RMK AO2
94908KDBQ DBQ20050522092009405/22/05 09:20:31  5-MIN KDBQ 221520Z 29010KT 10SM CLR 22/12 A2984 1160 54 2200 290/10 RMK AO2
94908KDBQ DBQ20050522092509405/22/05 09:25:31  5-MIN KDBQ 221525Z 28011KT 10SM CLR 21/11 A2984 1160 52 2200 280/11 RMK AO2
94908KDBQ DBQ20050522093009405/22/05 09:30:31  5-MIN KDBQ 221530Z 29013KT 10SM CLR 22/11 A2983 1160 49 2200 290/13 RMK AO2
94908KDBQ DBQ20050522093509405/22/05 09:35:31  5-MIN KDBQ 221535Z 29013KT 10SM CLR 22/10 A2983 1160 47 2200 290/13 RMK AO2
94908KDBQ DBQ20050522094009405/22/05 09:40:31  5-MIN KDBQ 221540Z 30013KT 10SM CLR 22/09 A2983 1160 45 2200 300/13 RMK AO2
94908KDBQ DBQ20050522094509405/22/05 09:45:31  5-MIN KDBQ 221545Z 29014KT 10SM CLR 22/11 A2983 1160 49 2200 290/14 RMK AO2
94908KDBQ DBQ20050522095011105/22/05 09:50:31  5-MIN KDBQ 221550Z 29015KT 10SM CLR 22/09 A2983 1160 43 2300 290/15 RMK AO2 SLP098 T02220094
94908KDBQ DBQ20050522095511705/22/05 09:55:31  5-MIN KDBQ 221555Z 28019G23KT 10SM CLR 22/09 A2983 1160 43 2200 280/19G23 RMK AO2 SLP098 T02170089
94908KDBQ DBQ20050522100010005/22/05 10:00:31  5-MIN KDBQ 221600Z 29015G23KT 10SM CLR 22/09 A2983 1160 42 2300 290/15G23 RMK AO2
94908KDBQ DBQ20050522100509405/22/05 10:05:31  5-MIN KDBQ 221605Z 28015KT 10SM CLR 22/09 A2983 1160 42 2300 280/15 RMK AO2
94908KDBQ DBQ20050522101009405/22/05 10:10:31  5-MIN KDBQ 221610Z 28015KT 10SM CLR 22/09 A2983 1160 42 2300 280/15 RMK AO2
94908KDBQ DBQ20050522101510005/22/05 10:15:31  5-MIN KDBQ 221615Z 30016G23KT 10SM CLR 22/09 A2982 1170 42 2300 300/16G23 RMK AO2
94908KDBQ DBQ20050522102010005/22/05 10:20:31  5-MIN KDBQ 221620Z 29017G23KT 10SM CLR 22/09 A2983 1170 43 2300 290/17G23 RMK AO2
94908KDBQ DBQ20050522102510005/22/05 10:25:31  5-MIN KDBQ 221625Z 28018G23KT 10SM CLR 22/08 A2983 1160 39 2300 280/18G23 RMK AO2
94908KDBQ DBQ20050522103010005/22/05 10:30:31  5-MIN KDBQ 221630Z 28015G23KT 10SM CLR 22/08 A2982 1170 40 2300 280/15G23 RMK AO2
94908KDBQ DBQ20050522103510005/22/05 10:35:31  5-MIN KDBQ 221635Z 28016G24KT 10SM CLR 23/08 A2982 1170 39 2400 280/16G24 RMK AO2
94908KDBQ DBQ20050522104010005/22/05 10:40:31  5-MIN KDBQ 221640Z 28019G25KT 10SM CLR 23/08 A2982 1180 39 2400 280/19G25 RMK AO2
94908KDBQ DBQ20050522104510005/22/05 10:45:31  5-MIN KDBQ 221645Z 28018G25KT 10SM CLR 23/08 A2982 1170 39 2400 280/18G25 RMK AO2
94908KDBQ DBQ20050522105011705/22/05 10:50:31  5-MIN KDBQ 221650Z 28019G24KT 10SM CLR 23/08 A2982 1170 37 2400 280/19G24 RMK AO2 SLP093 T02280078
94908KDBQ DBQ20050522105511705/22/05 10:55:31  5-MIN KDBQ 221655Z 29015G24KT 10SM CLR 23/08 A2982 1170 39 2400 280/15G24 RMK AO2 SLP096 T02280083
94908KDBQ DBQ20050522110011805/22/05 11:00:31  5-MIN KDBQ 221700Z 29019G26KT 10SM CLR 23/08 A2981 1180 37 2400 290/19G26 RMK AO2 PK WND 29026/1700
94908KDBQ DBQ20050522110511805/22/05 11:05:31  5-MIN KDBQ 221705Z 28019G26KT 10SM CLR 23/07 A2982 1170 36 2400 280/19G26 RMK AO2 PK WND 29026/1700
94908KDBQ DBQ20050522111011805/22/05 11:10:31  5-MIN KDBQ 221710Z 29021G26KT 10SM CLR 23/08 A2981 1180 37 2400 280/21G26 RMK AO2 PK WND 28026/1710
94908KDBQ DBQ20050522111511805/22/05 11:15:31  5-MIN KDBQ 221715Z 29020G26KT 10SM CLR 23/07 A2981 1180 36 2400 290/20G26 RMK AO2 PK WND 28026/1710
94908KDBQ DBQ20050522112011805/22/05 11:20:31  5-MIN KDBQ 221720Z 28022G30KT 10SM CLR 23/07 A2981 1180 35 2500 280/22G30 RMK AO2 PK WND 27030/1720
94908KDBQ DBQ20050522112511805/22/05 11:25:31  5-MIN KDBQ 221725Z 28023G30KT 10SM CLR 23/06 A2981 1180 33 2400 280/23G30 RMK AO2 PK WND 27030/1720
94908KDBQ DBQ20050522113011805/22/05 11:30:31  5-MIN KDBQ 221730Z 28022G32KT 10SM CLR 23/07 A2981 1180 33 2500 280/22G32 RMK AO2 PK WND 28032/1730
94908KDBQ DBQ20050522113511805/22/05 11:35:31  5-MIN KDBQ 221735Z 29024G32KT 10SM CLR 23/06 A2981 1180 32 2400 290/24G32 RMK AO2 PK WND 28032/1730
94908KDBQ DBQ20050522114011805/22/05 11:40:31  5-MIN KDBQ 221740Z 29022G29KT 10SM CLR 23/07 A2981 1180 33 2500 290/22G29 RMK AO2 PK WND 28032/1730
94908KDBQ DBQ20050522114511805/22/05 11:45:31  5-MIN KDBQ 221745Z 29022G28KT 10SM CLR 23/07 A2981 1180 33 2500 290/22G28 RMK AO2 PK WND 28032/1730
94908KDBQ DBQ20050522115015405/22/05 11:50:31  5-MIN KDBQ 221750Z 30022G28KT 10SM CLR 23/07 A2981 1180 33 2500 300/22G28 RMK AO2 PK WND 28032/1730 SLP090 T02330067 10233 20139  50002
94908KDBQ DBQ20050522115515405/22/05 11:55:31  5-MIN KDBQ 221755Z 29024G30KT 10SM CLR 23/06 A2980 1190 32 2500 290/24G30 RMK AO2 PK WND 28032/1730 SLP087 T02330061 10233 20139  58014
94908KDBQ DBQ20050522120011805/22/05 12:00:31  5-MIN KDBQ 221800Z 28019G30KT 10SM CLR 23/08 A2979 1200 36 2500 280/19G30 RMK AO2 PK WND 30026/1756
94908KDBQ DBQ20050522120511805/22/05 12:05:31  5-MIN KDBQ 221805Z 28021G28KT 10SM CLR 23/07 A2979 1200 35 2500 280/21G28 RMK AO2 PK WND 28028/1805
94908KDBQ DBQ20050522121011805/22/05 12:10:31  5-MIN KDBQ 221810Z 29023G31KT 10SM CLR 23/07 A2980 1190 35 2500 290/23G31 RMK AO2 PK WND 27031/1807
94908KDBQ DBQ20050522121511805/22/05 12:15:31  5-MIN KDBQ 221815Z 28023G32KT 10SM CLR 23/07 A2979 1200 35 2500 280/23G32 RMK AO2 PK WND 28032/1813
94908KDBQ DBQ20050522122011805/22/05 12:20:31  5-MIN KDBQ 221820Z 28022G32KT 10SM CLR 23/07 A2979 1200 33 2500 280/22G32 RMK AO2 PK WND 28032/1813
94908KDBQ DBQ20050522122511805/22/05 12:25:31  5-MIN KDBQ 221825Z 27017G29KT 10SM CLR 23/08 A2979 1200 36 2500 270/17G29 RMK AO2 PK WND 28032/1813
94908KDBQ DBQ20050522123011805/22/05 12:30:31  5-MIN KDBQ 221830Z 28021G27KT 10SM CLR 23/08 A2979 1200 36 2500 280/21G27 RMK AO2 PK WND 28032/1813
94908KDBQ DBQ20050522123511805/22/05 12:35:31  5-MIN KDBQ 221835Z 28021G32KT 10SM CLR 23/08 A2978 1210 36 2500 280/21G32 RMK AO2 PK WND 27032/1835
94908KDBQ DBQ20050522124011805/22/05 12:40:31  5-MIN KDBQ 221840Z 30025G32KT 10SM CLR 23/07 A2979 1200 35 2500 290/25G32 RMK AO2 PK WND 27032/1835
94908KDBQ DBQ20050522124511805/22/05 12:45:31  5-MIN KDBQ 221845Z 29018G30KT 10SM CLR 23/07 A2979 1200 35 2500 290/18G30 RMK AO2 PK WND 27032/1835
94908KDBQ DBQ20050522125013505/22/05 12:50:31  5-MIN KDBQ 221850Z 29018G27KT 10SM CLR 24/08 A2979 1200 35 2500 280/18G27 RMK AO2 PK WND 27032/1835 SLP083 T02390078
94908KDBQ DBQ20050522125513505/22/05 12:55:31  5-MIN KDBQ 221855Z 30022G27KT 10SM CLR 24/08 A2979 1200 36 2500 300/22G27 RMK AO2 PK WND 27032/1835 SLP082 T02390083
94908KDBQ DBQ20050522130010005/22/05 13:00:31  5-MIN KDBQ 221900Z 28020G27KT 10SM CLR 23/08 A2978 1200 38 2500 280/20G27 RMK AO2
94908KDBQ DBQ20050522130510005/22/05 13:05:31  5-MIN KDBQ 221905Z 28021G25KT 10SM CLR 23/08 A2979 1200 38 2500 280/21G25 RMK AO2
94908KDBQ DBQ20050522131010005/22/05 13:10:31  5-MIN KDBQ 221910Z 29016G24KT 10SM CLR 23/09 A2978 1210 39 2500 290/16G24 RMK AO2
94908KDBQ DBQ20050522131511805/22/05 13:15:31  5-MIN KDBQ 221915Z 28022G26KT 10SM CLR 24/09 A2978 1210 39 2600 280/22G26 RMK AO2 PK WND 29026/1914
94908KDBQ DBQ20050522132011805/22/05 13:20:31  5-MIN KDBQ 221920Z 29015G26KT 10SM CLR 23/09 A2978 1200 41 2500 290/15G26 RMK AO2 PK WND 29026/1914
94908KDBQ DBQ20050522132511805/22/05 13:25:31  5-MIN KDBQ 221925Z 29017G26KT 10SM CLR 23/09 A2978 1210 41 2500 290/17G26 RMK AO2 PK WND 29026/1923
94908KDBQ DBQ20050522133011805/22/05 13:30:31  5-MIN KDBQ 221930Z 30025G30KT 10SM CLR 23/09 A2977 1220 41 2500 300/25G30 RMK AO2 PK WND 31030/1930
94908KDBQ DBQ20050522133511805/22/05 13:35:31  5-MIN KDBQ 221935Z 29021G33KT 10SM CLR 23/09 A2978 1210 41 2500 290/21G33 RMK AO2 PK WND 31033/1931
94908KDBQ DBQ20050522134011805/22/05 13:40:31  5-MIN KDBQ 221940Z 29019G33KT 10SM CLR 23/10 A2977 1210 42 2500 290/19G33 RMK AO2 PK WND 31033/1931
94908KDBQ DBQ20050522134511805/22/05 13:45:31  5-MIN KDBQ 221945Z 28022G28KT 10SM CLR 23/10 A2978 1210 42 2500 280/22G28 RMK AO2 PK WND 31033/1931
94908KDBQ DBQ20050522135013505/22/05 13:50:31  5-MIN KDBQ 221950Z 29023G28KT 10SM CLR 23/10 A2977 1220 44 2400 290/23G28 RMK AO2 PK WND 31033/1931 SLP078 T02280100
94908KDBQ DBQ20050522135513505/22/05 13:55:31  5-MIN KDBQ 221955Z 29024G29KT 10SM CLR 23/10 A2978 1210 44 2400 280/24G29 RMK AO2 PK WND 31033/1931 SLP081 T02280100
94908KDBQ DBQ20050522140011805/22/05 14:00:31  5-MIN KDBQ 222000Z 31024G29KT 10SM CLR 23/09 A2978 1210 42 2400 310/24G29 RMK AO2 PK WND 31029/1959
94908KDBQ DBQ20050522140511805/22/05 14:05:31  5-MIN KDBQ 222005Z 30019G29KT 10SM CLR 23/10 A2978 1210 42 2500 300/19G29 RMK AO2 PK WND 31029/1959
94908KDBQ DBQ20050522141011805/22/05 14:10:31  5-MIN KDBQ 222010Z 31022G27KT 10SM CLR 23/09 A2978 1210 42 2400 300/22G27 RMK AO2 PK WND 31029/1959
94908KDBQ DBQ20050522141511805/22/05 14:15:31  5-MIN KDBQ 222015Z 31017G25KT 10SM CLR 23/10 A2977 1210 44 2400 300/17G25 RMK AO2 PK WND 31029/1959
94908KDBQ DBQ20050522142011805/22/05 14:20:31  5-MIN KDBQ 222020Z 29020G27KT 10SM CLR 23/11 A2977 1220 44 2500 290/20G27 RMK AO2 PK WND 31029/1959
94908KDBQ DBQ20050522142511805/22/05 14:25:31  5-MIN KDBQ 222025Z 29023G27KT 10SM CLR 23/10 A2977 1220 44 2400 290/23G27 RMK AO2 PK WND 31029/1959
94908KDBQ DBQ20050522143011805/22/05 14:30:31  5-MIN KDBQ 222030Z 30023G29KT 10SM CLR 23/10 A2977 1220 44 2400 300/23G29 RMK AO2 PK WND 30029/2030
94908KDBQ DBQ20050522143511805/22/05 14:35:31  5-MIN KDBQ 222035Z 30023G29KT 10SM CLR 23/10 A2977 1220 44 2400 300/23G29 RMK AO2 PK WND 30029/2032
94908KDBQ DBQ20050522144011805/22/05 14:40:31  5-MIN KDBQ 222040Z 29019G29KT 10SM CLR 23/09 A2977 1220 42 2400 290/19G29 RMK AO2 PK WND 30029/2032
94908KDBQ DBQ20050522144511805/22/05 14:45:31  5-MIN KDBQ 222045Z 30023G26KT 10SM CLR 22/09 A2977 1220 43 2400 300/23G26 RMK AO2 PK WND 30029/2032
94908KDBQ DBQ20050522145014105/22/05 14:50:31  5-MIN KDBQ 222050Z 29021G26KT 10SM CLR 23/10 A2977 1220 44 2400 280/21G26 RMK AO2 PK WND 30029/2032 SLP076 T02280100 58014
94908KDBQ DBQ20050522145514105/22/05 14:55:31  5-MIN KDBQ 222055Z 31019G26KT 10SM CLR 23/11 A2977 1220 45 2400 310/19G26 RMK AO2 PK WND 30029/2032 SLP077 T02280106 56010
94908KDBQ DBQ20050522150010005/22/05 15:00:31  5-MIN KDBQ 222100Z 30021G25KT 10SM CLR 23/11 A2976 1220 45 2500 300/21G25 RMK AO2
94908KDBQ DBQ20050522150511805/22/05 15:05:31  5-MIN KDBQ 222105Z 29021G28KT 10SM CLR 23/11 A2977 1220 45 2400 290/21G28 RMK AO2 PK WND 29028/2104
94908KDBQ DBQ20050522151011805/22/05 15:10:31  5-MIN KDBQ 222110Z 29020G28KT 10SM CLR 23/11 A2977 1220 45 2400 290/20G28 RMK AO2 PK WND 29028/2104
94908KDBQ DBQ20050522151511805/22/05 15:15:31  5-MIN KDBQ 222115Z 30023G29KT 10SM CLR 23/11 A2977 1220 45 2400 300/23G29 RMK AO2 PK WND 30029/2111
94908KDBQ DBQ20050522152011805/22/05 15:20:31  5-MIN KDBQ 222120Z 30021G29KT 10SM CLR 23/11 A2977 1210 45 2400 300/21G29 RMK AO2 PK WND 30029/2111
94908KDBQ DBQ20050522152511805/22/05 15:25:31  5-MIN KDBQ 222125Z 30022G28KT 10SM CLR 23/10 A2977 1210 44 2400 300/22G28 RMK AO2 PK WND 30029/2111
94908KDBQ DBQ20050522153011805/22/05 15:30:31  5-MIN KDBQ 222130Z 30025G30KT 10SM CLR 23/10 A2977 1220 44 2400 300/25G30 RMK AO2 PK WND 30030/2130
94908KDBQ DBQ20050522153511805/22/05 15:35:31  5-MIN KDBQ 222135Z 31020G30KT 10SM CLR 23/10 A2978 1210 44 2400 310/20G30 RMK AO2 PK WND 30030/2130
94908KDBQ DBQ20050522154011805/22/05 15:40:31  5-MIN KDBQ 222140Z 30022G28KT 10SM CLR 23/09 A2977 1210 42 2400 300/22G28 RMK AO2 PK WND 30030/2130
94908KDBQ DBQ20050522154511805/22/05 15:45:31  5-MIN KDBQ 222145Z 31018G27KT 10SM CLR 23/10 A2977 1210 44 2400 310/18G27 RMK AO2 PK WND 30030/2130
94908KDBQ DBQ20050522155013505/22/05 15:50:31  5-MIN KDBQ 222150Z 31021G27KT 10SM CLR 23/10 A2977 1220 44 2400 310/21G27 RMK AO2 PK WND 30030/2130 SLP079 T02280100
94908KDBQ DBQ20050522155513905/22/05 15:55:31  5-MIN KDBQ 222155Z 31017G24KT 10SM FEW055 22/10 A2977  1220 45 2400 310/17G24 RMK AO2 PK WND 30030/2130 SLP078 T02220100
94908KDBQ DBQ20050522160010405/22/05 16:00:31  5-MIN KDBQ 222200Z 31019G24KT 10SM SCT055 22/10 A2977  1220 45 2400 310/19G24 RMK AO2
94908KDBQ DBQ20050522160510405/22/05 16:05:31  5-MIN KDBQ 222205Z 30017G25KT 10SM SCT055 22/10 A2977  1220 45 2400 300/17G25 RMK AO2
94908KDBQ DBQ20050522161010405/22/05 16:10:31  5-MIN KDBQ 222210Z 31016G25KT 10SM SCT055 22/10 A2977  1220 45 2400 310/16G25 RMK AO2
94908KDBQ DBQ20050522161510405/22/05 16:15:31  5-MIN KDBQ 222215Z 32016G25KT 10SM SCT055 22/10 A2977  1220 47 2300 320/16G25 RMK AO2
94908KDBQ DBQ20050522162010405/22/05 16:20:31  5-MIN KDBQ 222220Z 31018G23KT 10SM FEW055 22/10 A2977  1210 45 2400 310/18G23 RMK AO2
94908KDBQ DBQ20050522162509705/22/05 16:25:31  5-MIN KDBQ 222225Z 32018KT 10SM FEW055 22/09 A2976 1220 45 2300 310/18 RMK AO2
94908KDBQ DBQ20050522163009705/22/05 16:30:31  5-MIN KDBQ 222230Z 32016KT 10SM FEW055 22/10 A2977 1220 47 2300 320/16 RMK AO2
94908KDBQ DBQ20050522163510005/22/05 16:35:31  5-MIN KDBQ 222235Z 32016G22KT 10SM CLR 22/11 A2977 1220 47 2400 320/16G22 RMK AO2
94908KDBQ DBQ20050522164010005/22/05 16:40:31  5-MIN KDBQ 222240Z 31015G22KT 10SM CLR 22/10 A2977 1220 45 2400 310/15G22 RMK AO2
94908KDBQ DBQ20050522164510405/22/05 16:45:31  5-MIN KDBQ 222245Z 31014G22KT 10SM FEW060 22/10 A2977  1220 45 2400 310/14G22 RMK AO2
94908KDBQ DBQ20050522165012105/22/05 16:50:31  5-MIN KDBQ 222250Z 31018G22KT 10SM FEW060 22/10 A2977  1220 45 2400 310/18G22 RMK AO2 SLP077 T02220100
94908KDBQ DBQ20050522165511405/22/05 16:55:31  5-MIN KDBQ 222255Z 32017KT 10SM FEW060 22/10 A2977 1220 45 2400 320/17 RMK AO2 SLP078 T02220100
94908KDBQ DBQ20050522170010405/22/05 17:00:31  5-MIN KDBQ 222300Z 30020G24KT 10SM FEW060 22/10 A2977  1220 47 2300 300/20G24 RMK AO2
94908KDBQ DBQ20050522170510405/22/05 17:05:31  5-MIN KDBQ 222305Z 32016G24KT 10SM SCT060 22/09 A2977  1210 45 2300 320/16G24 RMK AO2
94908KDBQ DBQ20050522171010405/22/05 17:10:31  5-MIN KDBQ 222310Z 32012G24KT 10SM SCT060 22/10 A2977  1210 47 2300 310/12G24 RMK AO2
94908KDBQ DBQ20050522171510405/22/05 17:15:31  5-MIN KDBQ 222315Z 32018G22KT 10SM SCT060 22/09 A2977  1210 45 2300 310/18G22 RMK AO2
94908KDBQ DBQ20050522172010405/22/05 17:20:31  5-MIN KDBQ 222320Z 32017G23KT 10SM FEW060 22/09 A2977  1210 45 2300 320/17G23 RMK AO2
94908KDBQ DBQ20050522172510405/22/05 17:25:31  5-MIN KDBQ 222325Z 32015G23KT 10SM FEW060 22/09 A2976  1220 45 2300 320/15G23 RMK AO2
94908KDBQ DBQ20050522173010405/22/05 17:30:31  5-MIN KDBQ 222330Z 31016G21KT 10SM FEW060 22/09 A2977  1210 45 2300 310/16G21 RMK AO2
94908KDBQ DBQ20050522173510405/22/05 17:35:31  5-MIN KDBQ 222335Z 31015G21KT 10SM FEW060 22/09 A2977  1210 45 2300 310/15G21 RMK AO2
94908KDBQ DBQ20050522174009705/22/05 17:40:31  5-MIN KDBQ 222340Z 31014KT 10SM FEW060 22/09 A2977 1210 45 2300 310/14 RMK AO2
94908KDBQ DBQ20050522174509705/22/05 17:45:31  5-MIN KDBQ 222345Z 31013KT 10SM FEW060 22/09 A2978 1210 45 2300 310/13 RMK AO2
94908KDBQ DBQ20050522175013505/22/05 17:50:31  5-MIN KDBQ 222350Z 31014G19KT 10SM CLR 22/09 A2978 1210 45 2300 310/14G19 RMK AO2 SLP081 T02170094 10239 20211 56010
94908KDBQ DBQ20050522175513505/22/05 17:55:31  5-MIN KDBQ 222355Z 31014G18KT 10SM CLR 21/09 A2978 1210 47 2200 310/14G18 RMK AO2 SLP081 T02110094 10239 20211 53004
94908KDBQ DBQ20050522180010005/22/05 18:00:31  5-MIN KDBQ 230000Z 31013G19KT 10SM CLR 21/09 A2978 1210 47 2200 310/13G19 RMK AO2
94908KDBQ DBQ20050522180510005/22/05 18:05:31  5-MIN KDBQ 230005Z 31011G19KT 10SM CLR 21/09 A2978 1210 45 2200 310/11G19 RMK AO2
94908KDBQ DBQ20050522181009405/22/05 18:10:31  5-MIN KDBQ 230010Z 31012KT 10SM CLR 21/09 A2977 1220@47 2200 310/12 RMK AO2
94908KDBQ DBQ20050522181509405/22/05 18:15:31  5-MIN KDBQ 230015Z 31010KT 10SM CLR 21/09 A2978 1210 47 2200 310/10 RMK AO2
94908KDBQ DBQ20050522182009405/22/05 18:20:31  5-MIN KDBQ 230020Z 31013KT 10SM CLR 21/09 A2978 1210@47 2200 310/13 RMK AO2
94908KDBQ DBQ20050522182509405/22/05 18:25:31  5-MIN KDBQ 230025Z 30013KT 10SM CLR 21/09 A2978 1210 45 2200 300/13 RMK AO2
94908KDBQ DBQ20050522183009405/22/05 18:30:31  5-MIN KDBQ 230030Z 31012KT 10SM CLR 21/09 A2978 1210@45 2200 310/12 RMK AO2
94908KDBQ DBQ20050522183509405/22/05 18:35:31  5-MIN KDBQ 230035Z 31011KT 10SM CLR 21/09 A2978 1210@46 2200 310/11 RMK AO2
94908KDBQ DBQ20050522184009405/22/05 18:40:31  5-MIN KDBQ 230040Z 30008KT 10SM CLR 21/09 A2977 1210@46 2200 300/08 RMK AO2
94908KDBQ DBQ20050522184510505/22/05 18:45:31  5-MIN KDBQ 230045Z AUTO 30008KT 10SM CLR 21/09 A2978  1210 46 2200 300/08 RMK AO2 TSNO
94908KDBQ DBQ20050522185012205/22/05 18:50:31  5-MIN KDBQ 230050Z AUTO 30007KT 10SM CLR 20/09 A2978  1210 50 2100 300/07 RMK AO2 SLP079 T02000094 TSNO
94908KDBQ DBQ20050522185512205/22/05 18:55:31  5-MIN KDBQ 230055Z AUTO 30006KT 10SM CLR 19/09 A2977  1210@52 2100 300/06 RMK AO2 SLP079 T01940094 TSNO
94908KDBQ DBQ20050522190010505/22/05 19:00:31  5-MIN KDBQ 230100Z AUTO 30007KT 10SM CLR 19/09 A2977  1210 52 2100 300/07 RMK AO2 TSNO
94908KDBQ DBQ20050522190510505/22/05 19:05:31  5-MIN KDBQ 230105Z AUTO 30007KT 10SM CLR 19/09 A2978  1210 52 2100 300/07 RMK AO2 TSNO
94908KDBQ DBQ20050522191010505/22/05 19:10:31  5-MIN KDBQ 230110Z AUTO 30008KT 10SM CLR 19/09 A2977  1220 54 2000 300/08 RMK AO2 TSNO
94908KDBQ DBQ20050522191510505/22/05 19:15:31  5-MIN KDBQ 230115Z AUTO 30008KT 10SM CLR 19/09 A2977  1220 54 2000 300/08 RMK AO2 TSNO
94908KDBQ DBQ20050522192010505/22/05 19:20:31  5-MIN KDBQ 230120Z AUTO 30007KT 10SM CLR 18/09 A2977  1210 56 1900 300/07 RMK AO2 TSNO
94908KDBQ DBQ20050522192510505/22/05 19:25:31  5-MIN KDBQ 230125Z AUTO 29006KT 10SM CLR 18/09 A2976  1230 56 1900 290/06 RMK AO2 TSNO
94908KDBQ DBQ20050522193010505/22/05 19:30:31  5-MIN KDBQ 230130Z AUTO 29005KT 10SM CLR 18/09 A2976  1220 58 1900 290/05 RMK AO2 TSNO
94908KDBQ DBQ20050522193510505/22/05 19:35:31  5-MIN KDBQ 230135Z AUTO 28005KT 10SM CLR 17/09 A2976  1230 57 1800 280/05 RMK AO2 TSNO
94908KDBQ DBQ20050522194010505/22/05 19:40:31  5-MIN KDBQ 230140Z AUTO 27006KT 10SM CLR 17/09 A2976  1220 60 1800 270/06 RMK AO2 TSNO
94908KDBQ DBQ20050522194510505/22/05 19:45:31  5-MIN KDBQ 230145Z AUTO 26006KT 10SM CLR 17/09 A2976  1230 60 1800 260/06 RMK AO2 TSNO
94908KDBQ DBQ20050522195012205/22/05 19:50:31  5-MIN KDBQ 230150Z AUTO 26007KT 10SM CLR 17/09 A2977  1220 62 1700 260/07 RMK AO2 SLP076 T01670094 TSNO
94908KDBQ DBQ20050522195512205/22/05 19:55:31  5-MIN KDBQ 230155Z AUTO 26007KT 10SM CLR 17/09 A2976  1230 62 1700 260/07 RMK AO2 SLP074 T01670094 TSNO
94908KDBQ DBQ20050522200010505/22/05 20:00:31  5-MIN KDBQ 230200Z AUTO 25007KT 10SM CLR 16/09 A2976  1220 64 1700 250/07 RMK AO2 TSNO
94908KDBQ DBQ20050522200510505/22/05 20:05:31  5-MIN KDBQ 230205Z AUTO 26007KT 10SM CLR 16/09 A2976  1230 64 1700 260/07 RMK AO2 TSNO
94908KDBQ DBQ20050522201010505/22/05 20:10:31  5-MIN KDBQ 230210Z AUTO 27007KT 10SM CLR 16/09 A2977  1220 64 1700 260/07 RMK AO2 TSNO
94908KDBQ DBQ20050522201510505/22/05 20:15:31  5-MIN KDBQ 230215Z AUTO 27007KT 10SM CLR 17/09 A2977  1220 62 1700 270/07 RMK AO2 TSNO
94908KDBQ DBQ20050522202010505/22/05 20:20:31  5-MIN KDBQ 230220Z AUTO 27008KT 10SM CLR 17/09 A2977  1220 62 1700 270/08 RMK AO2 TSNO
94908KDBQ DBQ20050522202510505/22/05 20:25:31  5-MIN KDBQ 230225Z AUTO 27008KT 10SM CLR 17/09 A2977  1220 62 1700 270/08 RMK AO2 TSNO
94908KDBQ DBQ20050522203010505/22/05 20:30:31  5-MIN KDBQ 230230Z AUTO 27008KT 10SM CLR 17/09 A2977  1220 62 1700 270/08 RMK AO2 TSNO
94908KDBQ DBQ20050522203510505/22/05 20:35:31  5-MIN KDBQ 230235Z AUTO 27008KT 10SM CLR 16/09 A2977  1220 64 1700 260/08 RMK AO2 TSNO
94908KDBQ DBQ20050522204010505/22/05 20:40:31  5-MIN KDBQ 230240Z AUTO 26007KT 10SM CLR 16/09 A2978  1210 64 1700 260/07 RMK AO2 TSNO
94908KDBQ DBQ20050522204510505/22/05 20:45:31  5-MIN KDBQ 230245Z AUTO 26007KT 10SM CLR 16/09 A2976  1220 64 1700 260/07 RMK AO2 TSNO
94908KDBQ DBQ20050522205012805/22/05 20:50:31  5-MIN KDBQ 230250Z AUTO 25007KT 10SM CLR 16/09 A2978  1210 67 1600 250/07 RMK AO2 SLP079 T01560094 53004 TSNO
94908KDBQ DBQ20050522205512805/22/05 20:55:31  5-MIN KDBQ 230255Z AUTO 25007KT 10SM CLR 15/09 A2977  1220 69 1500 250/07 RMK AO2 SLP076 T01500094 55005 TSNO
94908KDBQ DBQ20050522210010505/22/05 21:00:31  5-MIN KDBQ 230300Z AUTO 26008KT 10SM CLR 16/09 A2978  1210 67 1600 260/08 RMK AO2 TSNO
94908KDBQ DBQ20050522210510505/22/05 21:05:31  5-MIN KDBQ 230305Z AUTO 26007KT 10SM CLR 16/09 A2977  1220 67 1600 260/07 RMK AO2 TSNO
94908KDBQ DBQ20050522211010505/22/05 21:10:31  5-MIN KDBQ 230310Z AUTO 26007KT 10SM CLR 16/09 A2977  1210 67 1600 260/07 RMK AO2 TSNO
94908KDBQ DBQ20050522211510505/22/05 21:15:31  5-MIN KDBQ 230315Z AUTO 27008KT 10SM CLR 16/09 A2976  1220 67 1600 270/08 RMK AO2 TSNO
94908KDBQ DBQ20050522212010505/22/05 21:20:31  5-MIN KDBQ 230320Z AUTO 27008KT 10SM CLR 16/09 A2976  1220 64 1700 270/08 RMK AO2 TSNO
94908KDBQ DBQ20050522212510505/22/05 21:25:31  5-MIN KDBQ 230325Z AUTO 27008KT 10SM CLR 16/09 A2976  1220 67 1600 260/08 RMK AO2 TSNO
94908KDBQ DBQ20050522213010505/22/05 21:30:31  5-MIN KDBQ 230330Z AUTO 26008KT 10SM CLR 16/09 A2976  1220 67 1600 260/08 RMK AO2 TSNO
94908KDBQ DBQ20050522213510505/22/05 21:35:31  5-MIN KDBQ 230335Z AUTO 26008KT 10SM CLR 15/09 A2976  1220 69 1500 260/08 RMK AO2 TSNO
94908KDBQ DBQ20050522214010505/22/05 21:40:31  5-MIN KDBQ 230340Z AUTO 26008KT 10SM CLR 15/09 A2976  1220 69 1500 260/08 RMK AO2 TSNO
94908KDBQ DBQ20050522214510505/22/05 21:45:31  5-MIN KDBQ 230345Z AUTO 27008KT 10SM CLR 15/09 A2977  1210 69 1500 260/08 RMK AO2 TSNO
94908KDBQ DBQ20050522215012205/22/05 21:50:31  5-MIN KDBQ 230350Z AUTO 27008KT 10SM CLR 16/09 A2976  1220 67 1600 270/08 RMK AO2 SLP076 T01560094 TSNO
94908KDBQ DBQ20050522215512205/22/05 21:55:31  5-MIN KDBQ 230355Z AUTO 27009KT 10SM CLR 16/09 A2976  1220 67 1600 270/09 RMK AO2 SLP075 T01560094 TSNO
94908KDBQ DBQ20050522220010505/22/05 22:00:31  5-MIN KDBQ 230400Z AUTO 27008KT 10SM CLR 16/09 A2977  1220 67 1600 270/08 RMK AO2 TSNO
94908KDBQ DBQ20050522220510505/22/05 22:05:31  5-MIN KDBQ 230405Z AUTO 28007KT 10SM CLR 16/09 A2976  1220 67 1600 280/07 RMK AO2 TSNO
94908KDBQ DBQ20050522221010505/22/05 22:10:31  5-MIN KDBQ 230410Z AUTO 28009KT 10SM CLR 16/09 A2976  1220 64 1700 280/09 RMK AO2 TSNO
94908KDBQ DBQ20050522221510505/22/05 22:15:31  5-MIN KDBQ 230415Z AUTO 29008KT 10SM CLR 16/09 A2976  1220 62 1700 290/08 RMK AO2 TSNO
94908KDBQ DBQ20050522222010505/22/05 22:20:31  5-MIN KDBQ 230420Z AUTO 29008KT 10SM CLR 16/09 A2976  1220 62 1700 290/08 RMK AO2 TSNO
94908KDBQ DBQ20050522222510505/22/05 22:25:31  5-MIN KDBQ 230425Z AUTO 29008KT 10SM CLR 16/09 A2977  1220 62 1700 290/08 RMK AO2 TSNO
94908KDBQ DBQ20050522223010505/22/05 22:30:31  5-MIN KDBQ 230430Z AUTO 29007KT 10SM CLR 16/09 A2976  1220 62 1700 290/07 RMK AO2 TSNO
94908KDBQ DBQ20050522223510505/22/05 22:35:31  5-MIN KDBQ 230435Z AUTO 29006KT 10SM CLR 16/09 A2976  1220 64 1600 290/06 RMK AO2 TSNO
94908KDBQ DBQ20050522224010505/22/05 22:40:31  5-MIN KDBQ 230440Z AUTO 28006KT 10SM CLR 15/09 A2976  1220 66 1500 280/06 RMK AO2 TSNO
94908KDBQ DBQ20050522224510505/22/05 22:45:31  5-MIN KDBQ 230445Z AUTO 29006KT 10SM CLR 15/09 A2976  1220 66 1500 280/06 RMK AO2 TSNO
94908KDBQ DBQ20050522225012205/22/05 22:50:31  5-MIN KDBQ 230450Z AUTO 29005KT 10SM CLR 15/09 A2976  1220 66 1500 290/05 RMK AO2 SLP075 T01500089 TSNO
94908KDBQ DBQ20050522225512205/22/05 22:55:31  5-MIN KDBQ 230455Z AUTO 29006KT 10SM CLR 15/09 A2976  1220 66 1500 280/06 RMK AO2 SLP075 T01500089 TSNO
94908KDBQ DBQ20050522230010505/22/05 23:00:31  5-MIN KDBQ 230500Z AUTO 29007KT 10SM CLR 15/09 A2976  1230 66 1600 290/07 RMK AO2 TSNO
94908KDBQ DBQ20050522230510505/22/05 23:05:31  5-MIN KDBQ 230505Z AUTO 29008KT 10SM CLR 16/09 A2976  1230 64 1600 290/08 RMK AO2 TSNO
94908KDBQ DBQ20050522231010505/22/05 23:10:31  5-MIN KDBQ 230510Z AUTO 29009KT 10SM CLR 16/09 A2976  1230 64 1600 290/09 RMK AO2 TSNO
94908KDBQ DBQ20050522231510505/22/05 23:15:31  5-MIN KDBQ 230515Z AUTO 29008KT 10SM CLR 16/09 A2977  1220 64 1600 290/08 RMK AO2 TSNO
94908KDBQ DBQ20050522232010505/22/05 23:20:31  5-MIN KDBQ 230520Z AUTO 29007KT 10SM CLR 16/09 A2976  1230 64 1600 290/07 RMK AO2 TSNO
94908KDBQ DBQ20050522232510505/22/05 23:25:31  5-MIN KDBQ 230525Z AUTO 29007KT 10SM CLR 15/09 A2976  1230 66 1600 290/07 RMK AO2 TSNO
94908KDBQ DBQ20050522233010505/22/05 23:30:31  5-MIN KDBQ 230530Z AUTO 29006KT 10SM CLR 15/09 A2976  1230 66 1600 290/06 RMK AO2 TSNO
94908KDBQ DBQ20050522233510505/22/05 23:35:31  5-MIN KDBQ 230535Z AUTO 30005KT 10SM CLR 15/09 A2976  1230 66 1600 300/05 RMK AO2 TSNO
94908KDBQ DBQ20050522234010505/22/05 23:40:31  5-MIN KDBQ 230540Z AUTO 30006KT 10SM CLR 14/09 A2976  1230 69 1500 300/06 RMK AO2 TSNO
94908KDBQ DBQ20050522234510505/22/05 23:45:31  5-MIN KDBQ 230545Z AUTO 30006KT 10SM CLR 14/09 A2976  1230 69 1500 300/06 RMK AO2 TSNO
94908KDBQ DBQ20050522235015105/22/05 23:50:31  5-MIN KDBQ 230550Z AUTO 29007KT 10SM CLR 14/09 A2975  1230 69 1500 290/07 RMK AO2 SLP072 T01440089 10217 20144 402390133 55005  TSNO
94908KDBQ DBQ20050522235515105/22/05 23:55:31  5-MIN KDBQ 230555Z AUTO 29007KT 10SM CLR 14/09 A2976  1220 69 1500 290/07 RMK AO2 SLP076 T01440089 10217 20144 402390133 55000  TSNO
94908KDBQ DBQ20050523000010505/23/05 00:00:38  5-MIN KDBQ 230600Z AUTO 29006KT 10SM CLR 14/09 A2975  1230 69 1500 290/06 RMK AO2 TSNO
94908KDBQ DBQ20050523000510505/23/05 00:05:31  5-MIN KDBQ 230605Z AUTO 30007KT 10SM CLR 14/09 A2975  1230 69 1500 300/07 RMK AO2 TSNO
94908KDBQ DBQ20050523001010505/23/05 00:10:31  5-MIN KDBQ 230610Z AUTO 30007KT 10SM CLR 14/09 A2975  1240 69 1500 300/07 RMK AO2 TSNO
94908KDBQ DBQ20050523001510505/23/05 00:15:32  5-MIN KDBQ 230615Z AUTO 29008KT 10SM CLR 14/09 A2975  1240 69 1500 290/08 RMK AO2 TSNO
94908KDBQ DBQ20050523002010505/23/05 00:20:31  5-MIN KDBQ 230620Z AUTO 29007KT 10SM CLR 14/09 A2975  1240 69 1500 290/07 RMK AO2 TSNO
94908KDBQ DBQ20050523002510505/23/05 00:25:31  5-MIN KDBQ 230625Z AUTO 29008KT 10SM CLR 14/09 A2974  1240 69 1500 290/08 RMK AO2 TSNO
94908KDBQ DBQ20050523003010505/23/05 00:30:31  5-MIN KDBQ 230630Z AUTO 30009KT 10SM CLR 14/09 A2974  1240 69 1500 290/09 RMK AO2 TSNO
94908KDBQ DBQ20050523003510505/23/05 00:35:31  5-MIN KDBQ 230635Z AUTO 30008KT 10SM CLR 14/09 A2974  1240 69 1500 300/08 RMK AO2 TSNO
94908KDBQ DBQ20050523004010505/23/05 00:40:31  5-MIN KDBQ 230640Z AUTO 30009KT 10SM CLR 14/09 A2974  1250 69 1500 290/09 RMK AO2 TSNO
94908KDBQ DBQ20050523004510505/23/05 00:45:31  5-MIN KDBQ 230645Z AUTO 29008KT 10SM CLR 14/09 A2974  1250 69 1500 290/08 RMK AO2 TSNO
94908KDBQ DBQ20050523005012205/23/05 00:50:31  5-MIN KDBQ 230650Z AUTO 29007KT 10SM CLR 14/08 A2974  1250 66 1500 290/07 RMK AO2 SLP065 T01440083 TSNO
94908KDBQ DBQ20050523005512205/23/05 00:55:31  5-MIN KDBQ 230655Z AUTO 29007KT 10SM CLR 14/08 A2974  1250 66 1500 290/07 RMK AO2 SLP065 T01440083 TSNO
94908KDBQ DBQ20050523010010505/23/05 01:00:31  5-MIN KDBQ 230700Z AUTO 30007KT 10SM CLR 14/09 A2973  1250 69 1500 300/07 RMK AO2 TSNO
94908KDBQ DBQ20050523010510505/23/05 01:05:31  5-MIN KDBQ 230705Z AUTO 30008KT 10SM CLR 14/09 A2973  1250 71 1500 300/08 RMK AO2 TSNO
94908KDBQ DBQ20050523011010505/23/05 01:10:31  5-MIN KDBQ 230710Z AUTO 29009KT 10SM CLR 14/08 A2974  1250 69 1400 290/09 RMK AO2 TSNO
94908KDBQ DBQ20050523011510505/23/05 01:15:31  5-MIN KDBQ 230715Z AUTO 29009KT 10SM CLR 14/08 A2973  1250 66 1500 290/09 RMK AO2 TSNO
94908KDBQ DBQ20050523012010505/23/05 01:20:31  5-MIN KDBQ 230720Z AUTO 30010KT 10SM CLR 14/08 A2973  1260 66 1500 290/10 RMK AO2 TSNO
94908KDBQ DBQ20050523012510505/23/05 01:25:31  5-MIN KDBQ 230725Z AUTO 30009KT 10SM CLR 14/08 A2973  1260 69 1500 300/09 RMK AO2 TSNO
94908KDBQ DBQ20050523013010505/23/05 01:30:31  5-MIN KDBQ 230730Z AUTO 30009KT 10SM CLR 14/08 A2973  1260 69 1500 290/09 RMK AO2 TSNO
94908KDBQ DBQ20050523013510505/23/05 01:35:31  5-MIN KDBQ 230735Z AUTO 30008KT 10SM CLR 14/08 A2973  1260 66 1500 300/08 RMK AO2 TSNO
94908KDBQ DBQ20050523014010505/23/05 01:40:31  5-MIN KDBQ 230740Z AUTO 30009KT 10SM CLR 14/08 A2973  1260 66 1500 300/09 RMK AO2 TSNO
94908KDBQ DBQ20050523014510505/23/05 01:45:31  5-MIN KDBQ 230745Z AUTO 30009KT 10SM CLR 14/08 A2973  1260 69 1500 300/09 RMK AO2 TSNO
94908KDBQ DBQ20050523015012205/23/05 01:50:31  5-MIN KDBQ 230750Z AUTO 30009KT 10SM CLR 14/08 A2973  1260 66 1500 300/09 RMK AO2 SLP063 T01440083 TSNO
94908KDBQ DBQ20050523015512205/23/05 01:55:31  5-MIN KDBQ 230755Z AUTO 30009KT 10SM CLR 14/08 A2972  1260 66 1500 300/09 RMK AO2 SLP062 T01440083 TSNO
94908KDBQ DBQ20050523020010505/23/05 02:00:31  5-MIN KDBQ 230800Z AUTO 30009KT 10SM CLR 14/08 A2972  1260 66 1500 300/09 RMK AO2 TSNO
94908KDBQ DBQ20050523020510505/23/05 02:05:31  5-MIN KDBQ 230805Z AUTO 30008KT 10SM CLR 14/08 A2973  1250 66 1500 300/08 RMK AO2 TSNO
94908KDBQ DBQ20050523021010505/23/05 02:10:31  5-MIN KDBQ 230810Z AUTO 29008KT 10SM CLR 14/08 A2972  1260 69 1500 290/08 RMK AO2 TSNO
94908KDBQ DBQ20050523021510505/23/05 02:15:31  5-MIN KDBQ 230815Z AUTO 30007KT 10SM CLR 14/08 A2972  1260 69 1500 300/07 RMK AO2 TSNO
94908KDBQ DBQ20050523022010505/23/05 02:20:31  5-MIN KDBQ 230820Z AUTO 30007KT 10SM CLR 13/08 A2972  1260 71 1400 300/07 RMK AO2 TSNO
94908KDBQ DBQ20050523022510505/23/05 02:25:31  5-MIN KDBQ 230825Z AUTO 30007KT 10SM CLR 13/08 A2972  1260 71 1400 300/07 RMK AO2 TSNO
94908KDBQ DBQ20050523023010505/23/05 02:30:31  5-MIN KDBQ 230830Z AUTO 30007KT 10SM CLR 13/08 A2973  1250 71 1400 300/07 RMK AO2 TSNO
94908KDBQ DBQ20050523023510505/23/05 02:35:31  5-MIN KDBQ 230835Z AUTO 30009KT 10SM CLR 13/08 A2972  1270 71 1400 300/09 RMK AO2 TSNO
94908KDBQ DBQ20050523024010505/23/05 02:40:31  5-MIN KDBQ 230840Z AUTO 30008KT 10SM CLR 14/08 A2972  1270 69 1500 300/08 RMK AO2 TSNO
94908KDBQ DBQ20050523024510505/23/05 02:45:31  5-MIN KDBQ 230845Z AUTO 30008KT 10SM CLR 14/08 A2972  1270 69 1500 300/08 RMK AO2 TSNO
94908KDBQ DBQ20050523025012805/23/05 02:50:31  5-MIN KDBQ 230850Z AUTO 30009KT 10SM CLR 14/08 A2972  1260 66 1500 300/09 RMK AO2 SLP061 T01390078 55000 TSNO
94908KDBQ DBQ20050523025512805/23/05 02:55:31  5-MIN KDBQ 230855Z AUTO 30009KT 10SM CLR 14/08 A2971  1270 64 1500 300/09 RMK AO2 SLP057 T01440078 56018 TSNO
94908KDBQ DBQ20050523030010505/23/05 03:00:31  5-MIN KDBQ 230900Z AUTO 30010KT 10SM CLR 14/08 A2971  1280 64 1500 300/10 RMK AO2 TSNO
94908KDBQ DBQ20050523030510505/23/05 03:05:31  5-MIN KDBQ 230905Z AUTO 30010KT 10SM CLR 14/08 A2970  1280 64 1600 300/10 RMK AO2 TSNO
94908KDBQ DBQ20050523031010505/23/05 03:10:31  5-MIN KDBQ 230910Z AUTO 31009KT 10SM CLR 14/08 A2970  1280 64 1600 300/09 RMK AO2 TSNO
94908KDBQ DBQ20050523031510505/23/05 03:15:31  5-MIN KDBQ 230915Z AUTO 32008KT 10SM CLR 14/08 A2970  1280 66 1500 310/08 RMK AO2 TSNO
94908KDBQ DBQ20050523032010505/23/05 03:20:31  5-MIN KDBQ 230920Z AUTO 32008KT 10SM CLR 14/08 A2970  1280 66 1500 320/08 RMK AO2 TSNO
94908KDBQ DBQ20050523032510505/23/05 03:25:31  5-MIN KDBQ 230925Z AUTO 32010KT 10SM CLR 14/08 A2970  1290 66 1500 320/10 RMK AO2 TSNO
94908KDBQ DBQ20050523033010505/23/05 03:30:31  5-MIN KDBQ 230930Z AUTO 32009KT 10SM CLR 14/08 A2970  1290 66 1500 320/09 RMK AO2 TSNO
94908KDBQ DBQ20050523033510505/23/05 03:35:31  5-MIN KDBQ 230935Z AUTO 32009KT 10SM CLR 14/08 A2970  1290 66 1500 320/09 RMK AO2 TSNO
94908KDBQ DBQ20050523034010505/23/05 03:40:31  5-MIN KDBQ 230940Z AUTO 32009KT 10SM CLR 14/08 A2969  1290 66 1500 320/09 RMK AO2 TSNO
94908KDBQ DBQ20050523034510505/23/05 03:45:31  5-MIN KDBQ 230945Z AUTO 31008KT 10SM CLR 14/08 A2969  1290 66 1500 310/08 RMK AO2 TSNO
94908KDBQ DBQ20050523035012205/23/05 03:50:31  5-MIN KDBQ 230950Z AUTO 31008KT 10SM CLR 14/08 A2969  1290 66 1500 310/08 RMK AO2 SLP051 T01390078 TSNO
94908KDBQ DBQ20050523035512205/23/05 03:55:31  5-MIN KDBQ 230955Z AUTO 31009KT 10SM CLR 13/08 A2969  1290 69 1400 310/09 RMK AO2 SLP050 T01330078 TSNO
94908KDBQ DBQ20050523040010505/23/05 04:00:31  5-MIN KDBQ 231000Z AUTO 30007KT 10SM CLR 13/08 A2969  1290 69 1400 300/07 RMK AO2 TSNO
94908KDBQ DBQ20050523040510505/23/05 04:05:31  5-MIN KDBQ 231005Z AUTO 30008KT 10SM CLR 13/08 A2970  1280 69 1400 300/08 RMK AO2 TSNO
94908KDBQ DBQ20050523041010505/23/05 04:10:31  5-MIN KDBQ 231010Z AUTO 30008KT 10SM CLR 13/08 A2970  1280 69 1400 300/08 RMK AO2 TSNO
94908KDBQ DBQ20050523041510505/23/05 04:15:31  5-MIN KDBQ 231015Z AUTO 31008KT 10SM CLR 13/08 A2970  1280 69 1400 310/08 RMK AO2 TSNO
94908KDBQ DBQ20050523042010505/23/05 04:20:31  5-MIN KDBQ 231020Z AUTO 30008KT 10SM CLR 13/08 A2970  1280 69 1400 300/08 RMK AO2 TSNO
94908KDBQ DBQ20050523042510505/23/05 04:25:31  5-MIN KDBQ 231025Z AUTO 31008KT 10SM CLR 13/08 A2970  1280 69 1400 300/08 RMK AO2 TSNO
94908KDBQ DBQ20050523043010505/23/05 04:30:31  5-MIN KDBQ 231030Z AUTO 31008KT 10SM CLR 13/08 A2970  1280 71 1400 310/08 RMK AO2 TSNO
94908KDBQ DBQ20050523043510505/23/05 04:35:31  5-MIN KDBQ 231035Z AUTO 31007KT 10SM CLR 13/08 A2970  1280 69 1400 310/07 RMK AO2 TSNO
94908KDBQ DBQ20050523044010505/23/05 04:40:31  5-MIN KDBQ 231040Z AUTO 32008KT 10SM CLR 13/07 A2970  1280 66 1400 310/08 RMK AO2 TSNO
94908KDBQ DBQ20050523044510505/23/05 04:45:31  5-MIN KDBQ 231045Z AUTO 31008KT 10SM CLR 13/07 A2971  1280 66 1400 310/08 RMK AO2 TSNO
94908KDBQ DBQ20050523045012205/23/05 04:50:31  5-MIN KDBQ 231050Z AUTO 32006KT 10SM CLR 13/07 A2971  1270 66 1400 320/06 RMK AO2 SLP057 T01330072 TSNO
94908KDBQ DBQ20050523045511105/23/05 04:55:31  5-MIN KDBQ 231055Z 31007KT 10SM CLR 13/07 A2971 1270 69 1300 310/07 RMK AO2 SLP058 T01280072
94908KDBQ DBQ20050523050009405/23/05 05:00:31  5-MIN KDBQ 231100Z 31009KT 10SM CLR 13/07 A2971 1270 66 1400 310/09 RMK AO2
94908KDBQ DBQ20050523050509405/23/05 05:05:31  5-MIN KDBQ 231105Z 30007KT 10SM CLR 13/07 A2972 1270 66 1400 300/07 RMK AO2
94908KDBQ DBQ20050523051009405/23/05 05:10:31  5-MIN KDBQ 231110Z 31007KT 10SM CLR 13/08 A2972 1270 69 1400 310/07 RMK AO2
94908KDBQ DBQ20050523051509405/23/05 05:15:31  5-MIN KDBQ 231115Z 31008KT 10SM CLR 13/07 A2972 1270 66 1400 310/08 RMK AO2
94908KDBQ DBQ20050523052009405/23/05 05:20:31  5-MIN KDBQ 231120Z 31009KT 10SM CLR 14/08 A2972 1260 66 1500 310/09 RMK AO2
94908KDBQ DBQ20050523052509405/23/05 05:25:31  5-MIN KDBQ 231125Z 31010KT 10SM CLR 14/07 A2972 1260 64 1500 310/10 RMK AO2
94908KDBQ DBQ20050523053009405/23/05 05:30:31  5-MIN KDBQ 231130Z 30008KT 10SM CLR 14/08 A2973 1260 66 1500 300/08 RMK AO2
94908KDBQ DBQ20050523053509405/23/05 05:35:31  5-MIN KDBQ 231135Z 31009KT 10SM CLR 14/08 A2974 1250 64 1500 310/09 RMK AO2
94908KDBQ DBQ20050523054009405/23/05 05:40:31  5-MIN KDBQ 231140Z 31009KT 10SM CLR 14/08 A2974 1250 64 1500 310/09 RMK AO2
94908KDBQ DBQ20050523054509405/23/05 05:45:31  5-MIN KDBQ 231145Z 29007KT 10SM CLR 14/08 A2974 1250 64 1500 290/07 RMK AO2
94908KDBQ DBQ20050523055012905/23/05 05:50:31  5-MIN KDBQ 231150Z 30007KT 10SM CLR 14/08 A2974 1240 66 1500 300/07 RMK AO2 SLP068 T01440083 10144 20128 56018
94908KDBQ DBQ20050523055512905/23/05 05:55:31  5-MIN KDBQ 231155Z 30008KT 10SM CLR 14/08 A2975 1240 66 1500 300/08 RMK AO2 SLP070 T01440083 10144 20128 53012
94908KDBQ DBQ20050523060009405/23/05 06:00:31  5-MIN KDBQ 231200Z 30008KT 10SM CLR 14/08 A2975 1240 66 1500 290/08 RMK AO2
94908KDBQ DBQ20050523060509405/23/05 06:05:31  5-MIN KDBQ 231205Z 29007KT 10SM CLR 14/08 A2975 1240 66 1500 290/07 RMK AO2
94908KDBQ DBQ20050523061009405/23/05 06:10:31  5-MIN KDBQ 231210Z 29008KT 10SM CLR 15/08 A2975 1240 64 1600 290/08 RMK AO2
94908KDBQ DBQ20050523061509405/23/05 06:15:31  5-MIN KDBQ 231215Z 30010KT 10SM CLR 15/08 A2975 1230 64 1600 290/10 RMK AO2
94908KDBQ DBQ20050523062009405/23/05 06:20:31  5-MIN KDBQ 231220Z 29009KT 10SM CLR 15/09 A2975 1230 66 1600 290/09 RMK AO2
94908KDBQ DBQ20050523062509405/23/05 06:25:31  5-MIN KDBQ 231225Z 31008KT 10SM CLR 15/09 A2976 1230 66 1600 310/08 RMK AO2
94908KDBQ DBQ20050523063009405/23/05 06:30:31  5-MIN KDBQ 231230Z 30010KT 10SM CLR 15/09 A2976 1230 66 1600 300/10 RMK AO2
94908KDBQ DBQ20050523063509405/23/05 06:35:31  5-MIN KDBQ 231235Z 30010KT 10SM CLR 15/09 A2976 1230 66 1600 300/10 RMK AO2
94908KDBQ DBQ20050523064009405/23/05 06:40:31  5-MIN KDBQ 231240Z 30009KT 10SM CLR 15/09 A2976 1230 66 1600 300/09 RMK AO2
94908KDBQ DBQ20050523064509405/23/05 06:45:31  5-MIN KDBQ 231245Z 31008KT 10SM CLR 16/09 A2976 1230 64 1600 300/08 RMK AO2
94908KDBQ DBQ20050523065011105/23/05 06:50:31  5-MIN KDBQ 231250Z 31006KT 10SM CLR 16/09 A2976 1230 67 1600 310/06 RMK AO2 SLP074 T01560094
94908KDBQ DBQ20050523065511105/23/05 06:55:31  5-MIN KDBQ 231255Z 31006KT 10SM CLR 16/09 A2976 1220 64 1600 300/06 RMK AO2 SLP075 T01560089
94908KDBQ DBQ20050523070009405/23/05 07:00:31  5-MIN KDBQ 231300Z 31010KT 10SM CLR 16/09 A2977 1220 64 1700 310/10 RMK AO2
94908KDBQ DBQ20050523070509405/23/05 07:05:31  5-MIN KDBQ 231305Z 31010KT 10SM CLR 16/09 A2977 1220 62 1700 310/10 RMK AO2
94908KDBQ DBQ20050523071009405/23/05 07:10:31  5-MIN KDBQ 231310Z 31011KT 10SM CLR 17/09 A2977 1210 60 1700 310/11 RMK AO2
94908KDBQ DBQ20050523071509405/23/05 07:15:31  5-MIN KDBQ 231315Z 34009KT 10SM CLR 17/09 A2977 1220 60 1700 340/09 RMK AO2
94908KDBQ DBQ20050523072009405/23/05 07:20:31  5-MIN KDBQ 231320Z 33009KT 10SM CLR 17/09 A2977 1220 60 1700 330/09 RMK AO2
94908KDBQ DBQ20050523072509405/23/05 07:25:31  5-MIN KDBQ 231325Z 32009KT 10SM CLR 17/09 A2977 1210 60 1700 320/09 RMK AO2
94908KDBQ DBQ20050523073009405/23/05 07:30:31  5-MIN KDBQ 231330Z 33011KT 10SM CLR 17/09 A2978 1210 60 1700 330/11 RMK AO2
94908KDBQ DBQ20050523073509405/23/05 07:35:31  5-MIN KDBQ 231335Z 32011KT 10SM CLR 17/09 A2978 1210 60 1800 310/11 RMK AO2
94908KDBQ DBQ20050523074009405/23/05 07:40:31  5-MIN KDBQ 231340Z 32012KT 10SM CLR 17/09 A2978 1210 60 1700 320/12 RMK AO2
94908KDBQ DBQ20050523074509405/23/05 07:45:31  5-MIN KDBQ 231345Z 32010KT 10SM CLR 17/09 A2978 1210 60 1800 320/10 RMK AO2
94908KDBQ DBQ20050523075011105/23/05 07:50:31  5-MIN KDBQ 231350Z 32009KT 10SM CLR 17/09 A2978 1210 60 1800 320/09 RMK AO2 SLP081 T01720094
94908KDBQ DBQ20050523075511105/23/05 07:55:31  5-MIN KDBQ 231355Z 33011KT 10SM CLR 17/09 A2978 1210 60 1800 330/11 RMK AO2 SLP082 T01720094
94908KDBQ DBQ20050523080009405/23/05 08:00:31  5-MIN KDBQ 231400Z 33012KT 10SM CLR 17/09 A2978 1210 60 1800 330/12 RMK AO2
94908KDBQ DBQ20050523080509405/23/05 08:05:31  5-MIN KDBQ 231405Z 31012KT 10SM CLR 17/09 A2978 1210 60 1800 310/12 RMK AO2
94908KDBQ DBQ20050523081009405/23/05 08:10:31  5-MIN KDBQ 231410Z 30013KT 10SM CLR 17/09 A2978 1210 60 1800 300/13 RMK AO2
94908KDBQ DBQ20050523081509405/23/05 08:15:31  5-MIN KDBQ 231415Z 31012KT 10SM CLR 18/09 A2978 1210 58 1900 310/12 RMK AO2
94908KDBQ DBQ20050523082009405/23/05 08:20:31  5-MIN KDBQ 231420Z 31014KT 10SM CLR 17/09 A2978 1210 60 1800 310/14 RMK AO2
94908KDBQ DBQ20050523082509405/23/05 08:25:31  5-MIN KDBQ 231425Z 31012KT 10SM CLR 18/09 A2978 1210 58 1900 310/12 RMK AO2
94908KDBQ DBQ20050523083009405/23/05 08:30:31  5-MIN KDBQ 231430Z 32013KT 10SM CLR 18/09 A2978 1210 58 1900 320/13 RMK AO2
94908KDBQ DBQ20050523083509405/23/05 08:35:31  5-MIN KDBQ 231435Z 33012KT 10SM CLR 18/10 A2977 1210 60 1900 320/12 RMK AO2
94908KDBQ DBQ20050523084009405/23/05 08:40:31  5-MIN KDBQ 231440Z 32010KT 10SM CLR 18/09 A2977 1220 58 1900 320/10 RMK AO2
94908KDBQ DBQ20050523084509405/23/05 08:45:31  5-MIN KDBQ 231445Z 30014KT 10SM CLR 18/10 A2977 1220 58 1900 300/14 RMK AO2
94908KDBQ DBQ20050523085011705/23/05 08:50:31  5-MIN KDBQ 231450Z 31011KT 10SM CLR 18/10 A2977 1220 58 1900 310/11 RMK AO2 SLP079 T01830100 53012
94908KDBQ DBQ20050523085511705/23/05 08:55:31  5-MIN KDBQ 231455Z 30012KT 10SM CLR 18/10 A2977 1210 58 1900 300/12 RMK AO2 SLP080 T01830100 50009
94908KDBQ DBQ20050523090010005/23/05 09:00:31  5-MIN KDBQ 231500Z 31014G19KT 10SM CLR 18/10 A2977 1210 58 1900 310/14G19 RMK AO2
94908KDBQ DBQ20050523090509405/23/05 09:05:31  5-MIN KDBQ 231505Z 29016KT 10SM CLR 18/09 A2978 1210 56 1900 290/16 RMK AO2
94908KDBQ DBQ20050523091009405/23/05 09:10:31  5-MIN KDBQ 231510Z 30014KT 10SM CLR 18/10 A2978 1210 58 1900 300/14 RMK AO2
94908KDBQ DBQ20050523091509405/23/05 09:15:31  5-MIN KDBQ 231515Z 31014KT 10SM CLR 18/09 A2978 1210 56 1900 310/14 RMK AO2
94908KDBQ DBQ20050523092009405/23/05 09:20:31  5-MIN KDBQ 231520Z 29014KT 10SM CLR 19/10 A2978 1210 56 2000 290/14 RMK AO2
94908KDBQ DBQ20050523092509405/23/05 09:25:31  5-MIN KDBQ 231525Z 30012KT 10SM CLR 19/10 A2978 1210 56 2000 300/12 RMK AO2
94908KDBQ DBQ20050523093009705/23/05 09:30:31  5-MIN KDBQ 231530Z 31015KT 10SM FEW040 19/11 A2978 1210 56 2000 300/15 RMK AO2
94908KDBQ DBQ20050523093510005/23/05 09:35:31  5-MIN KDBQ 231535Z 31014G20KT 10SM CLR 19/10 A2978 1210 56 2000 310/14G20 RMK AO2
94908KDBQ DBQ20050523094010005/23/05 09:40:31  5-MIN KDBQ 231540Z 32015G20KT 10SM CLR 19/10 A2978 1200 56 2000 320/15G20 RMK AO2
94908KDBQ DBQ20050523094510405/23/05 09:45:31  5-MIN KDBQ 231545Z 30017G20KT 10SM FEW041 19/10 A2978  1210 56 2000 300/17G20 RMK AO2
94908KDBQ DBQ20050523095011405/23/05 09:50:31  5-MIN KDBQ 231550Z 33015KT 10SM FEW041 19/10 A2978 1210 54 2000 330/15 RMK AO2 SLP081 T01940100
94908KDBQ DBQ20050523095511405/23/05 09:55:31  5-MIN KDBQ 231555Z 31015KT 10SM FEW041 19/10 A2978 1210 54 2000 310/15 RMK AO2 SLP082 T01940100
94908KDBQ DBQ20050523100009705/23/05 10:00:31  5-MIN KDBQ 231600Z 31016KT 10SM SCT043 19/10 A2978 1210 54 2000 310/16 RMK AO2
94908KDBQ DBQ20050523100509705/23/05 10:05:31  5-MIN KDBQ 231605Z 30015KT 10SM SCT043 19/10 A2978 1200 54 2000 300/15 RMK AO2
94908KDBQ DBQ20050523101010405/23/05 10:10:31  5-MIN KDBQ 231610Z 33014G21KT 10SM SCT043 19/10 A2979  1200 54 2000 330/14G21 RMK AO2
94908KDBQ DBQ20050523101510405/23/05 10:15:31  5-MIN KDBQ 231615Z 33014G21KT 10SM SCT041 20/11 A2979  1200 54 2100 330/14G21 RMK AO2
94908KDBQ DBQ20050523102009705/23/05 10:20:31  5-MIN KDBQ 231620Z 32014KT 10SM SCT043 19/10 A2979 1200 54 2000 320/14 RMK AO2
94908KDBQ DBQ20050523102509705/23/05 10:25:31  5-MIN KDBQ 231625Z 34014KT 10SM SCT043 19/10 A2978 1200 54 2000 340/14 RMK AO2
94908KDBQ DBQ20050523103010505/23/05 10:30:31  5-MIN KDBQ 231630Z 33015KT 10SM SCT043 BKN050 19/10  A2979 1200 54 2000 330/15 RMK AO2
94908KDBQ DBQ20050523103511105/23/05 10:35:31  5-MIN KDBQ 231635Z 35015G19KT 10SM BKN043 BKN050 19/10  A2979 1200 54 2000 350/15G19 RMK AO2
94908KDBQ DBQ20050523104010405/23/05 10:40:31  5-MIN KDBQ 231640Z 34016G19KT 10SM BKN045 19/09 A2979  1200 52 2000 340/16G19 RMK AO2
94908KDBQ DBQ20050523104509705/23/05 10:45:31  5-MIN KDBQ 231645Z 35017KT 10SM BKN045 20/10 A2979 1200 52 2100 350/17 RMK AO2
94908KDBQ DBQ20050523105011405/23/05 10:50:31  5-MIN KDBQ 231650Z 35017KT 10SM SCT045 20/09 A2979 1200 50 2100 350/17 RMK AO2 SLP085 T02000094
94908KDBQ DBQ20050523105511405/23/05 10:55:31  5-MIN KDBQ 231655Z 35013KT 10SM SCT045 21/10 A2979 1200 50 2200 340/13 RMK AO2 SLP085 T02060100
94908KDBQ DBQ20050523110009705/23/05 11:00:31  5-MIN KDBQ 231700Z 33017KT 10SM FEW045 21/10 A2979 1200 50 2200 330/17 RMK AO2
94908KDBQ DBQ20050523110510405/23/05 11:05:31  5-MIN KDBQ 231705Z 35013G19KT 10SM FEW045 20/10 A2979  1200 52 2100 340/13G19 RMK AO2
94908KDBQ DBQ20050523111009705/23/05 11:10:31  5-MIN KDBQ 231710Z 32015KT 10SM FEW047 21/10 A2979 1200 50 2200 320/15 RMK AO2
94908KDBQ DBQ20050523111509405/23/05 11:15:31  5-MIN KDBQ 231715Z 34017KT 10SM CLR 21/10 A2979 1200 50 2200 340/17 RMK AO2
94908KDBQ DBQ20050523112010005/23/05 11:20:31  5-MIN KDBQ 231720Z 35013G21KT 10SM CLR 21/10 A2980 1190 50 2200 350/13G21 RMK AO2
94908KDBQ DBQ20050523112510405/23/05 11:25:31  5-MIN KDBQ 231725Z 35015G21KT 10SM FEW048 21/11 A2980  1190 50 2200 350/15G21 RMK AO2
94908KDBQ DBQ20050523113009705/23/05 11:30:31  5-MIN KDBQ 231730Z 35014KT 10SM FEW050 21/10 A2980 1190 50 2200 350/14 RMK AO2
94908KDBQ DBQ20050523113509705/23/05 11:35:31  5-MIN KDBQ 231735Z 34016KT 10SM FEW050 21/10 A2980 1190 50 2100 340/16 RMK AO2
94908KDBQ DBQ20050523114010505/23/05 11:40:31  5-MIN KDBQ 231740Z 33016KT 10SM FEW050 SCT060 21/10  A2980 1190 50 2100 330/16 RMK AO2
94908KDBQ DBQ20050523114509705/23/05 11:45:31  5-MIN KDBQ 231745Z 33018KT 10SM SCT055 20/09 A2980 1190 50 2100 330/18 RMK AO2
94908KDBQ DBQ20050523115014605/23/05 11:50:31  5-MIN KDBQ 231750Z 32013G20KT 10SM FEW050 BKN060 21/10  A2980 1190 48 2200 320/13G20 RMK AO2 SLP088 T02110100 10211 20144 50009
94908KDBQ DBQ20050523115513905/23/05 11:55:31  5-MIN KDBQ 231755Z 32013G20KT 10SM BKN055 20/09 A2980  1190 50 2100 320/13G20 RMK AO2 SLP088 T02000094 10211 20144 51008
94908KDBQ DBQ20050523120010505/23/05 12:00:31  5-MIN KDBQ 231800Z 33013KT 10SM SCT049 BKN060 20/10  A2980 1190 52 2100 330/13 RMK AO2
94908KDBQ DBQ20050523120510505/23/05 12:05:31  5-MIN KDBQ 231805Z 33017KT 10SM BKN049 BKN060 21/10  A2980 1190 50 2200 330/17 RMK AO2
94908KDBQ DBQ20050523121010505/23/05 12:10:31  5-MIN KDBQ 231810Z 34014KT 10SM BKN049 BKN060 21/10  A2980 1190 48 2200 340/14 RMK AO2
94908KDBQ DBQ20050523121511105/23/05 12:15:31  5-MIN KDBQ 231815Z 34017G20KT 10SM BKN049 BKN060 21/11  A2980 1190 50 2200 340/17G20 RMK AO2
94908KDBQ DBQ20050523122010405/23/05 12:20:31  5-MIN KDBQ 231820Z 33012G21KT 10SM BKN049 21/10 A2980  1190 48 2200 330/12G21 RMK AO2
94908KDBQ DBQ20050523122510405/23/05 12:25:31  5-MIN KDBQ 231825Z 33017G21KT 10SM BKN049 20/10 A2981  1190 52 2100 330/17G21 RMK AO2
94908KDBQ DBQ20050523123010405/23/05 12:30:31  5-MIN KDBQ 231830Z 33013G21KT 10SM SCT049 21/11 A2981  1180 50 2200 320/13G21 RMK AO2
94908KDBQ DBQ20050523123510405/23/05 12:35:31  5-MIN KDBQ 231835Z 33015G19KT 10SM FEW049 22/11 A2981  1180 49 2300 330/15G19 RMK AO2
94908KDBQ DBQ20050523124010405/23/05 12:40:31  5-MIN KDBQ 231840Z 33015G19KT 10SM FEW049 21/11 A2981  1180 50 2200 330/15G19 RMK AO2
94908KDBQ DBQ20050523124509705/23/05 12:45:31  5-MIN KDBQ 231845Z 33014KT 10SM FEW049 21/10 A2981 1180 48 2200 330/14 RMK AO2
94908KDBQ DBQ20050523125012105/23/05 12:50:31  5-MIN KDBQ 231850Z 35016G21KT 10SM FEW049 20/10 A2981  1180 52 2100 350/16G21 RMK AO2 SLP093 T02000100
94908KDBQ DBQ20050523125512105/23/05 12:55:31  5-MIN KDBQ 231855Z 36015G21KT 10SM SCT055 21/10 A2981  1180 48 2200 350/15G21 RMK AO2 SLP093 T02110100
94908KDBQ DBQ20050523130009705/23/05 13:00:31  5-MIN KDBQ 231900Z 34015KT 10SM SCT055 20/10 A2981 1180 52 2100 340/15 RMK AO2
94908KDBQ DBQ20050523130509705/23/05 13:05:31  5-MIN KDBQ 231905Z 35014KT 10SM SCT050 21/11 A2981 1180 52 2200 350/14 RMK AO2
94908KDBQ DBQ20050523131010405/23/05 13:10:31  5-MIN KDBQ 231910Z 34014G20KT 10SM SCT055 21/10 A2981  1180 50 2100 340/14G20 RMK AO2
94908KDBQ DBQ20050523131510405/23/05 13:15:31  5-MIN KDBQ 231915Z 36015G20KT 10SM SCT055 21/10 A2981  1180 48 2200 360/15G20 RMK AO2
94908KDBQ DBQ20050523132011105/23/05 13:20:31  5-MIN KDBQ 231920Z 01013G19KT 10SM SCT050 SCT060 20/09  A2981 1180 50 2100 010/13G19 RMK AO2
94908KDBQ DBQ20050523132510405/23/05 13:25:31  5-MIN KDBQ 231925Z 36015G22KT 10SM BKN055 20/09 A2981  1180 50 2100 360/15G22 RMK AO2
94908KDBQ DBQ20050523133010405/23/05 13:30:31  5-MIN KDBQ 231930Z 01017G22KT 10SM SCT055 21/10 A2982  1170 48 2200 010/17G22 RMK AO2
94908KDBQ DBQ20050523133509705/23/05 13:35:31  5-MIN KDBQ 231935Z 36016KT 10SM FEW055 21/09 A2982 1180 47 2200 360/16 RMK AO2
94908KDBQ DBQ20050523134010405/23/05 13:40:31  5-MIN KDBQ 231940Z 34016G21KT 10SM SCT060 21/09 A2982  1170 46 2100 340/16G21 RMK AO2
94908KDBQ DBQ20050523234510405/23/05 23:45:31  5-MIN KDBQ 240545Z AUTO 03004KT 10SM CLR 11/08 A2994  1060 80 900 030/04 RMK AO2 TSNO
94908KDBQ DBQ20050523235015105/23/05 23:50:31  5-MIN KDBQ 240550Z AUTO 04004KT 10SM CLR 12/09 A2994  1060 80 1000 040/04 RMK AO2 SLP137 T01220089 10200 20111 402170111 51013  TSNO
94908KDBQ DBQ20050523235515105/23/05 23:55:31  5-MIN KDBQ 240555Z AUTO 04005KT 10SM CLR 13/09 A2994  1060 77 1100 040/05 RMK AO2 SLP136 T01280089 10200 20111 402170111 51014  TSNO
94908KDBQ DBQ20050524000010505/24/05 00:00:38  5-MIN KDBQ 240600Z AUTO 04005KT 10SM CLR 12/08 A2994  1060 77 1000 040/05 RMK AO2 TSNO
94908KDBQ DBQ20050524000510505/24/05 00:05:31  5-MIN KDBQ 240605Z AUTO 04005KT 10SM CLR 12/08 A2994  1060 80 1000 040/05 RMK AO2 TSNO
94908KDBQ DBQ20050524001010505/24/05 00:10:31  5-MIN KDBQ 240610Z AUTO 04005KT 10SM CLR 12/09 A2994  1060 83 1000 030/05 RMK AO2 TSNO
94908KDBQ DBQ20050524001510405/24/05 00:15:31  5-MIN KDBQ 240615Z AUTO 03006KT 10SM CLR 11/08 A2994  1060 83 900 030/06 RMK AO2 TSNO
94908KDBQ DBQ20050524002010405/24/05 00:20:31  5-MIN KDBQ 240620Z AUTO 03006KT 10SM CLR 11/08 A2994  1060 83 900 030/06 RMK AO2 TSNO
94908KDBQ DBQ20050524002510405/24/05 00:25:31  5-MIN KDBQ 240625Z AUTO 03006KT 10SM CLR 11/08 A2994  1060 83 900 030/06 RMK AO2 TSNO
94908KDBQ DBQ20050524003010405/24/05 00:30:31  5-MIN KDBQ 240630Z AUTO 04006KT 10SM CLR 11/08 A2994  1060 83 900 040/06 RMK AO2 TSNO
94908KDBQ DBQ20050524003510405/24/05 00:35:31  5-MIN KDBQ 240635Z AUTO 04006KT 10SM CLR 11/08 A2994  1060 83 900 040/06 RMK AO2 TSNO
94908KDBQ DBQ20050524004010405/24/05 00:40:31  5-MIN KDBQ 240640Z AUTO 05007KT 10SM CLR 11/08 A2994  1060 83 900 050/07 RMK AO2 TSNO
94908KDBQ DBQ20050524004510405/24/05 00:45:31  5-MIN KDBQ 240645Z AUTO 05006KT 10SM CLR 12/08 A2994  1060 80 900 050/06 RMK AO2 TSNO
94908KDBQ DBQ20050524005012105/24/05 00:50:31  5-MIN KDBQ 240650Z AUTO 06006KT 10SM CLR 12/08 A2995  1050 80 900 060/06 RMK AO2 SLP140 T01170083 TSNO
94908KDBQ DBQ20050524005512105/24/05 00:55:31  5-MIN KDBQ 240655Z AUTO 06006KT 10SM CLR 12/08 A2995  1050 80 900 060/06 RMK AO2 SLP139 T01170083 TSNO
94908KDBQ DBQ20050524010010405/24/05 01:00:31  5-MIN KDBQ 240700Z AUTO 06006KT 10SM CLR 12/08 A2995  1060 80 900 060/06 RMK AO2 TSNO
94908KDBQ DBQ20050524010510405/24/05 01:05:31  5-MIN KDBQ 240705Z AUTO 06007KT 10SM CLR 12/08 A2995  1060 80 900 060/07 RMK AO2 TSNO
94908KDBQ DBQ20050524011010205/24/05 01:10:31  5-MIN KDBQ 240710Z AUTO 06006KT 9SM CLR 12/08 A2994 1060 80 900 060/06 RMK AO2 TSNO
94908KDBQ DBQ20050524011510205/24/05 01:15:31  5-MIN KDBQ 240715Z AUTO 06006KT 9SM CLR 12/08 A2994 1060 80 900 060/06 RMK AO2 TSNO
94908KDBQ DBQ20050524012010205/24/05 01:20:31  5-MIN KDBQ 240720Z AUTO 06005KT 9SM CLR 12/08 A2995 1050 80 900 060/05 RMK AO2 TSNO
94908KDBQ DBQ20050524012510205/24/05 01:25:31  5-MIN KDBQ 240725Z AUTO 06005KT 9SM CLR 12/08 A2995 1050 80 900 060/05 RMK AO2 TSNO
94908KDBQ DBQ20050524013010205/24/05 01:30:31  5-MIN KDBQ 240730Z AUTO 06006KT 9SM CLR 11/08 A2994 1060 83 900 060/06 RMK AO2 TSNO
94908KDBQ DBQ20050524013510205/24/05 01:35:31  5-MIN KDBQ 240735Z AUTO 06005KT 9SM CLR 11/08 A2994 1060 80 900 060/05 RMK AO2 TSNO
94908KDBQ DBQ20050524014010205/24/05 01:40:31  5-MIN KDBQ 240740Z AUTO 05004KT 9SM CLR 11/08 A2995 1060 80 900 050/04 RMK AO2 TSNO
94908KDBQ DBQ20050524014510205/24/05 01:45:31  5-MIN KDBQ 240745Z AUTO 05003KT 9SM CLR 11/08 A2995 1050 80 900 050/03 RMK AO2 TSNO
94908KDBQ DBQ20050524015011905/24/05 01:50:31  5-MIN KDBQ 240750Z AUTO 06003KT 9SM CLR 11/08 A2995 1050 80 900 060/03 RMK AO2 SLP140 T01110078 TSNO
94908KDBQ DBQ20050524015511905/24/05 01:55:31  5-MIN KDBQ 240755Z AUTO 06003KT 9SM CLR 11/08 A2995 1050 83 900 060/03 RMK AO2 SLP141 T01110083 TSNO
94908KDBQ DBQ20050524020010205/24/05 02:00:31  5-MIN KDBQ 240800Z AUTO 06004KT 9SM CLR 11/08 A2995 1050 83 800 060/04 RMK AO2 TSNO
94908KDBQ DBQ20050524020510205/24/05 02:05:31  5-MIN KDBQ 240805Z AUTO 06004KT 9SM CLR 11/08 A2995 1050 83 800 060/04 RMK AO2 TSNO
94908KDBQ DBQ20050524021010205/24/05 02:10:31  5-MIN KDBQ 240810Z AUTO 06004KT 9SM CLR 11/08 A2995 1050 83 800 060/04 RMK AO2 TSNO
94908KDBQ DBQ20050524021510205/24/05 02:15:31  5-MIN KDBQ 240815Z AUTO 06005KT 9SM CLR 11/08 A2995 1050 83 800 060/05 RMK AO2 TSNO
94908KDBQ DBQ20050524022010205/24/05 02:20:31  5-MIN KDBQ 240820Z AUTO 06006KT 9SM CLR 11/08 A2995 1050 83 800 060/06 RMK AO2 TSNO
94908KDBQ DBQ20050524022510205/24/05 02:25:31  5-MIN KDBQ 240825Z AUTO 05005KT 9SM CLR 10/08 A2995 1050 86 700 050/05 RMK AO2 TSNO
94908KDBQ DBQ20050524023010205/24/05 02:30:31  5-MIN KDBQ 240830Z AUTO 05004KT 9SM CLR 10/08 A2995 1050 86 700 050/04 RMK AO2 TSNO
94908KDBQ DBQ20050524023510205/24/05 02:35:31  5-MIN KDBQ 240835Z AUTO 04004KT 8SM CLR 09/08 A2995 1050 89 700 040/04 RMK AO2 TSNO
94908KDBQ DBQ20050524024010205/24/05 02:40:31  5-MIN KDBQ 240840Z AUTO 04003KT 8SM CLR 10/08 A2996 1050 86 700 040/03 RMK AO2 TSNO
94908KDBQ DBQ20050524024510205/24/05 02:45:31  5-MIN KDBQ 240845Z AUTO 00000KT 8SM CLR 10/08 A2996 1040 89 700 000/00 RMK AO2 TSNO
94908KDBQ DBQ20050524025012505/24/05 02:50:31  5-MIN KDBQ 240850Z AUTO 00000KT 8SM CLR 10/08 A2995 1050 89 700 000/00 RMK AO2 SLP143 T01000083 51014 TSNO
94908KDBQ DBQ20050524025512505/24/05 02:55:31  5-MIN KDBQ 240855Z AUTO 00000KT 7SM CLR 10/08 A2996 1040 89 700 000/00 RMK AO2 SLP144 T01000083 53006 TSNO
94908KDBQ DBQ20050524030010205/24/05 03:00:31  5-MIN KDBQ 240900Z AUTO 00000KT 7SM CLR 08/07 A2996 1040 89 500 000/00 RMK AO2 TSNO
94908KDBQ DBQ20050524030510205/24/05 03:05:31  5-MIN KDBQ 240905Z AUTO 00000KT 7SM CLR 07/06 A2996 1040 93 300 000/00 RMK AO2 TSNO
94908KDBQ DBQ20050524031010605/24/05 03:10:31  5-MIN KDBQ 240910Z AUTO 00000KT 6SM BR CLR 08/06 A2997  1030 86 500 000/00 RMK AO2 TSNO
94908KDBQ DBQ20050524031510605/24/05 03:15:31  5-MIN KDBQ 240915Z AUTO 00000KT 6SM BR CLR 08/07 A2997  1030 89 500 000/00 RMK AO2 TSNO
94908KDBQ DBQ20050524032010605/24/05 03:20:31  5-MIN KDBQ 240920Z AUTO 00000KT 6SM BR CLR 08/07 A2997  1030 89 500 000/00 RMK AO2 TSNO
94908KDBQ DBQ20050524032510605/24/05 03:25:31  5-MIN KDBQ 240925Z AUTO 00000KT 6SM BR CLR 09/07 A2997  1040 89 600 000/00 RMK AO2 TSNO
94908KDBQ DBQ20050524033010605/24/05 03:30:31  5-MIN KDBQ 240930Z AUTO 00000KT 6SM BR CLR 09/07 A2997  1030 89 600 000/00 RMK AO2 TSNO
94908KDBQ DBQ20050524033510605/24/05 03:35:31  5-MIN KDBQ 240935Z AUTO 00000KT 6SM BR CLR 09/07 A2997  1030 89 600 000/00 RMK AO2 TSNO
94908KDBQ DBQ20050524034010605/24/05 03:40:31  5-MIN KDBQ 240940Z AUTO 06004KT 6SM BR CLR 09/07 A2997  1040 89 600 060/04 RMK AO2 TSNO
94908KDBQ DBQ20050524034510605/24/05 03:45:31  5-MIN KDBQ 240945Z AUTO 06006KT 6SM BR CLR 09/07 A2996  1040 89 600 050/06 RMK AO2 TSNO
94908KDBQ DBQ20050524035011905/24/05 03:50:31  5-MIN KDBQ 240950Z AUTO 05006KT 7SM CLR 09/07 A2996 1040 86 600 050/06 RMK AO2 SLP145 T00890067 TSNO
94908KDBQ DBQ20050524035511905/24/05 03:55:31  5-MIN KDBQ 240955Z AUTO 05006KT 7SM CLR 09/08 A2996 1040 89 700 050/06 RMK AO2 SLP145 T00940078 TSNO
94908KDBQ DBQ20050524040010205/24/05 04:00:31  5-MIN KDBQ 241000Z AUTO 04006KT 7SM CLR 09/08 A2997 1030 89 700 040/06 RMK AO2 TSNO
94908KDBQ DBQ20050524040510205/24/05 04:05:31  5-MIN KDBQ 241005Z AUTO 04006KT 7SM CLR 09/07 A2998 1020 89 600 040/06 RMK AO2 TSNO
94908KDBQ DBQ20050524041010905/24/05 04:10:31  5-MIN KDBQ 241010Z AUTO 04005KT 7SM CLR 09/08 A2999 1020 89 600 040/05 RMK AO2 PRESRR TSNO
94908KDBQ DBQ20050524041510205/24/05 04:15:31  5-MIN KDBQ 241015Z AUTO 03006KT 7SM CLR 09/07 A2999 1020 89 600 030/06 RMK AO2 TSNO
94908KDBQ DBQ20050524042010205/24/05 04:20:31  5-MIN KDBQ 241020Z AUTO 03005KT 7SM CLR 09/07 A2999 1010 89 600 030/05 RMK AO2 TSNO
94908KDBQ DBQ20050524042510605/24/05 04:25:31  5-MIN KDBQ 241025Z AUTO 02005KT 6SM BR CLR 09/07 A3000  1010 89 600 020/05 RMK AO2 TSNO
94908KDBQ DBQ20050524043010605/24/05 04:30:31  5-MIN KDBQ 241030Z AUTO 03006KT 5SM BR CLR 08/07 A3000  1010 93 500 030/06 RMK AO2 TSNO
94908KDBQ DBQ20050524043509605/24/05 04:35:31  5-MIN KDBQ 241035Z 03006KT 5SM BR CLR 08/07 A2999 1010  93 500 030/06 RMK AO2
94908KDBQ DBQ20050524044009605/24/05 04:40:31  5-MIN KDBQ 241040Z 04007KT 5SM BR CLR 09/07 A2999 1020  89 600 040/07 RMK AO2
94908KDBQ DBQ20050524044509605/24/05 04:45:31  5-MIN KDBQ 241045Z 04007KT 4SM BR CLR 09/08 A2999 1020  93 600 040/07 RMK AO2
94908KDBQ DBQ20050524045011305/24/05 04:50:31  5-MIN KDBQ 241050Z 04006KT 4SM BR CLR 09/08 A2999 1020  89 600 040/06 RMK AO2 SLP154 T00940078
94908KDBQ DBQ20050524045511305/24/05 04:55:31  5-MIN KDBQ 241055Z 04006KT 4SM BR CLR 09/08 A2999 1010  89 600 040/06 RMK AO2 SLP155 T00940078
94908KDBQ DBQ20050524050009605/24/05 05:00:31  5-MIN KDBQ 241100Z 04005KT 4SM BR CLR 09/08 A2999 1010  89 600 040/05 RMK AO2
94908KDBQ DBQ20050524050509605/24/05 05:05:31  5-MIN KDBQ 241105Z 04005KT 4SM BR CLR 09/08 A2999 1010  89 600 040/05 RMK AO2
94908KDBQ DBQ20050524051009605/24/05 05:10:31  5-MIN KDBQ 241110Z 04005KT 4SM BR CLR 10/08 A2999 1010  89 700 040/05 RMK AO2
94908KDBQ DBQ20050524051509605/24/05 05:15:31  5-MIN KDBQ 241115Z 05006KT 4SM BR CLR 10/08 A2999 1010  89 700 050/06 RMK AO2
94908KDBQ DBQ20050524052009605/24/05 05:20:31  5-MIN KDBQ 241120Z 06006KT 4SM BR CLR 10/08 A2998 1020  89 700 060/06 RMK AO2
94908KDBQ DBQ20050524052509605/24/05 05:25:31  5-MIN KDBQ 241125Z 06005KT 4SM BR CLR 11/09 A2999 1010  89 800 060/05 RMK AO2
94908KDBQ DBQ20050524053009605/24/05 05:30:31  5-MIN KDBQ 241130Z 05005KT 5SM BR CLR 11/09 A3000 1010  89 800 050/05 RMK AO2
94908KDBQ DBQ20050524053509605/24/05 05:35:31  5-MIN KDBQ 241135Z 05007KT 5SM BR CLR 11/09 A3000 1010  86 800 050/07 RMK AO2
94908KDBQ DBQ20050524054009605/24/05 05:40:31  5-MIN KDBQ 241140Z 04005KT 5SM HZ CLR 12/09 A3000 1000  83 900 040/05 RMK AO2
94908KDBQ DBQ20050524054509605/24/05 05:45:31  5-MIN KDBQ 241145Z 04005KT 5SM BR CLR 12/09 A3000 1000  86 900 030/05 RMK AO2
94908KDBQ DBQ20050524055013105/24/05 05:50:31  5-MIN KDBQ 241150Z 04006KT 5SM BR CLR 12/09 A3000 1010  86 900 040/06 RMK AO2 SLP157 T01170094 10128 20067 53006
94908KDBQ DBQ20050524055513105/24/05 05:55:31  5-MIN KDBQ 241155Z 04005KT 5SM BR CLR 12/09 A3000 1000  86 900 040/05 RMK AO2 SLP159 T01170094 10128 20067 53015
94908KDBQ DBQ20050524060009605/24/05 06:00:31  5-MIN KDBQ 241200Z 04006KT 6SM HZ CLR 12/09 A3000 1000  83 900 040/06 RMK AO2
94908KDBQ DBQ20050524060509705/24/05 06:05:31  5-MIN KDBQ 241205Z 04007KT 6SM HZ CLR 12/09 A3000 1010  83 1000 040/07 RMK AO2
94908KDBQ DBQ20050524061009605/24/05 06:10:31  5-MIN KDBQ 241210Z 04006KT 6SM HZ CLR 12/09 A3000 1000  83 900 040/06 RMK AO2
94908KDBQ DBQ20050524061509605/24/05 06:15:31  5-MIN KDBQ 241215Z 03007KT 6SM HZ CLR 12/09 A3001 1000  83 900 030/07 RMK AO2
94908KDBQ DBQ20050524062009605/24/05 06:20:31  5-MIN KDBQ 241220Z 03007KT 6SM HZ CLR 12/09 A3001 1000  83 900 030/07 RMK AO2
94908KDBQ DBQ20050524062509605/24/05 06:25:31  5-MIN KDBQ 241225Z 04007KT 6SM HZ CLR 12/09 A3001 1000  83 900 030/07 RMK AO2
94908KDBQ DBQ20050524063009705/24/05 06:30:31  5-MIN KDBQ 241230Z 04008KT 6SM HZ CLR 13/09 A3001 1000  80 1000 040/08 RMK AO2
94908KDBQ DBQ20050524063509705/24/05 06:35:31  5-MIN KDBQ 241235Z 04008KT 6SM HZ CLR 13/10 A3001 1000  83 1000 040/08 RMK AO2
94908KDBQ DBQ20050524064009705/24/05 06:40:31  5-MIN KDBQ 241240Z 05007KT 6SM HZ CLR 13/09 A3001 1000  80 1000 050/07 RMK AO2
94908KDBQ DBQ20050524064509705/24/05 06:45:31  5-MIN KDBQ 241245Z 04008KT 6SM HZ CLR 13/10 A3001 1000  83 1000 040/08 RMK AO2
94908KDBQ DBQ20050524065011205/24/05 06:50:31  5-MIN KDBQ 241250Z 04008KT 6SM HZ CLR 13/10 A3001 990 83 1000 040/08 RMK AO2 SLP162 T01280100
94908KDBQ DBQ20050524065511205/24/05 06:55:31  5-MIN KDBQ 241255Z 04007KT 6SM HZ CLR 13/10 A3002 990 80 1100 040/07 RMK AO2 SLP163 T01330100
94908KDBQ DBQ20050524070009505/24/05 07:00:31  5-MIN KDBQ 241300Z 05008KT 6SM HZ CLR 13/10 A3002 990 80 1100 050/08 RMK AO2
94908KDBQ DBQ20050524070509305/24/05 07:05:31  5-MIN KDBQ 241305Z 05006KT 7SM CLR 13/10 A3002 990 80  1100 050/06 RMK AO2
94908KDBQ DBQ20050524071009305/24/05 07:10:31  5-MIN KDBQ 241310Z 05005KT 7SM CLR 14/10 A3002 980 77  1100 050/05 RMK AO2
94908KDBQ DBQ20050524071509305/24/05 07:15:31  5-MIN KDBQ 241315Z 06006KT 7SM CLR 14/10 A3002 980 74  1200 060/06 RMK AO2
94908KDBQ DBQ20050524072009305/24/05 07:20:31  5-MIN KDBQ 241320Z 05005KT 8SM CLR 14/10 A3002 980 74  1200 050/05 RMK AO2
94908KDBQ DBQ20050524072509305/24/05 07:25:31  5-MIN KDBQ 241325Z 04006KT 8SM CLR 14/10 A3003 980 74  1200 040/06 RMK AO2
94908KDBQ DBQ20050524073009305/24/05 07:30:31  5-MIN KDBQ 241330Z 03005KT 8SM CLR 14/10 A3002 980 74  1200 030/05 RMK AO2
94908KDBQ DBQ20050524073509305/24/05 07:35:31  5-MIN KDBQ 241335Z 03006KT 8SM CLR 14/10 A3002 980 74  1200 030/06 RMK AO2
94908KDBQ DBQ20050524074009305/24/05 07:40:31  5-MIN KDBQ 241340Z 03005KT 8SM CLR 15/10 A3002 980 72  1300 030/05 RMK AO2
94908KDBQ DBQ20050524074509305/24/05 07:45:31  5-MIN KDBQ 241345Z 03004KT 8SM CLR 15/10 A3003 980 72  1200 030/04 RMK AO2
94908KDBQ DBQ20050524075011005/24/05 07:50:31  5-MIN KDBQ 241350Z 03006KT 8SM CLR 15/10 A3003 980 72  1200 030/06 RMK AO2 SLP167 T01500100
94908KDBQ DBQ20050524075511005/24/05 07:55:31  5-MIN KDBQ 241355Z 04006KT 8SM CLR 15/10 A3002 980 72  1300 030/06 RMK AO2 SLP166 T01500100
94908KDBQ DBQ20050524080009305/24/05 08:00:31  5-MIN KDBQ 241400Z 05006KT 8SM CLR 15/10 A3003 980 72  1200 050/06 RMK AO2
94908KDBQ DBQ20050524080509305/24/05 08:05:31  5-MIN KDBQ 241405Z 04006KT 8SM CLR 15/09 A3003 980 69  1200 040/06 RMK AO2
94908KDBQ DBQ20050524081009305/24/05 08:10:31  5-MIN KDBQ 241410Z 04007KT 9SM CLR 16/09 A3003 980 67  1300 040/07 RMK AO2
94908KDBQ DBQ20050524081509305/24/05 08:15:31  5-MIN KDBQ 241415Z 03006KT 9SM CLR 16/10 A3003 980 69  1300 030/06 RMK AO2
94908KDBQ DBQ20050524082009305/24/05 08:20:31  5-MIN KDBQ 241420Z 05006KT 9SM CLR 16/10 A3003 980 67  1400 050/06 RMK AO2
94908KDBQ DBQ20050524082509405/24/05 08:25:31  5-MIN KDBQ 241425Z 03007KT 10SM CLR 16/10 A3002 980 67  1400 030/07 RMK AO2
94908KDBQ DBQ20050524083009405/24/05 08:30:31  5-MIN KDBQ 241430Z 05008KT 10SM CLR 16/09 A3002 990 62  1400 050/08 RMK AO2
94908KDBQ DBQ20050524083509405/24/05 08:35:31  5-MIN KDBQ 241435Z 06005KT 10SM CLR 16/09 A3002 990 62  1400 060/05 RMK AO2
94908KDBQ DBQ20050524084009405/24/05 08:40:31  5-MIN KDBQ 241440Z VRB04KT 10SM CLR 17/09 A3002 980 62  1400 VRB/04 RMK AO2
94908KDBQ DBQ20050524084509405/24/05 08:45:31  5-MIN KDBQ 241445Z 06004KT 10SM CLR 17/09 A3002 980 60  1400 060/04 RMK AO2
94908KDBQ DBQ20050524085011705/24/05 08:50:31  5-MIN KDBQ 241450Z VRB05KT 10SM CLR 17/08 A3002 980 57  1400 VRB/05 RMK AO2 SLP166 T01670083 53015
94908KDBQ DBQ20050524085511705/24/05 08:55:31  5-MIN KDBQ 241455Z 03008KT 10SM CLR 17/09 A3002 980 57  1500 030/08 RMK AO2 SLP165 T01720089 50006
94908KDBQ DBQ20050524090009405/24/05 09:00:31  5-MIN KDBQ 241500Z VRB03KT 10SM CLR 17/08 A3002 980 53  1500 VRB/03 RMK AO2
94908KDBQ DBQ20050524090509405/24/05 09:05:31  5-MIN KDBQ 241505Z 03007KT 10SM CLR 18/09 A3003 980 58  1600 030/07 RMK AO2
94908KDBQ DBQ20050524091009405/24/05 09:10:31  5-MIN KDBQ 241510Z 03007KT 10SM CLR 18/09 A3003 980 55  1600 030/07 RMK AO2
94908KDBQ DBQ20050524091509405/24/05 09:15:31  5-MIN KDBQ 241515Z 07007KT 10SM CLR 18/09 A3003 980 55  1600 070/07 RMK AO2
94908KDBQ DBQ20050524092009405/24/05 09:20:31  5-MIN KDBQ 241520Z 06006KT 10SM CLR 18/09 A3003 970 55  1600 060/06 RMK AO2
94908KDBQ DBQ20050524092509405/24/05 09:25:31  5-MIN KDBQ 241525Z 05007KT 10SM CLR 18/09 A3003 980 55  1600 050/07 RMK AO2
94908KDBQ DBQ20050524093009405/24/05 09:30:31  5-MIN KDBQ 241530Z 06008KT 10SM CLR 18/08 A3003 980 53  1600 060/08 RMK AO2
94908KDBQ DBQ20050524093509405/24/05 09:35:31  5-MIN KDBQ 241535Z 07008KT 10SM CLR 18/09 A3003 980 55  1600 070/08 RMK AO2
94908KDBQ DBQ20050524094009405/24/05 09:40:31  5-MIN KDBQ 241540Z 03007KT 10SM CLR 18/09 A3003 980 55  1600 030/07 RMK AO2
94908KDBQ DBQ20050524094509405/24/05 09:45:31  5-MIN KDBQ 241545Z 02006KT 10SM CLR 18/09 A3003 980 54  1600 020/06 RMK AO2
94908KDBQ DBQ20050524095011105/24/05 09:50:31  5-MIN KDBQ 241550Z 04008KT 10SM CLR 18/09 A3003 980 54  1600 040/08 RMK AO2 SLP166 T01830089
94908KDBQ DBQ20050524095512605/24/05 09:55:31  5-MIN KDBQ 241555Z 06007KT 020V080 10SM CLR 18/08 A3003 980 52 1600 060/07 020V080 RMK AO2 SLP166 T01830083
94908KDBQ DBQ20050524100009405/24/05 10:00:31  5-MIN KDBQ 241600Z 04009KT 10SM CLR 18/09 A3002 980 54  1600 040/09 RMK AO2
94908KDBQ DBQ20050524100509405/24/05 10:05:31  5-MIN KDBQ 241605Z 05010KT 10SM CLR 18/08 A3002 990 50  1600 050/10 RMK AO2
94908KDBQ DBQ20050524101009405/24/05 10:10:31  5-MIN KDBQ 241610Z 06007KT 10SM CLR 19/08 A3002 990 50  1700 060/07 RMK AO2
94908KDBQ DBQ20050524101509405/24/05 10:15:31  5-MIN KDBQ 241615Z 08008KT 10SM CLR 19/08 A3002 990 50  1700 080/08 RMK AO2
94908KDBQ DBQ20050524102009405/24/05 10:20:31  5-MIN KDBQ 241620Z 05010KT 10SM CLR 19/09 A3002 990 50  1800 050/10 RMK AO2
94908KDBQ DBQ20050524102509405/24/05 10:25:31  5-MIN KDBQ 241625Z 05010KT 10SM CLR 19/08 A3002 990 48  1800 050/10 RMK AO2
94908KDBQ DBQ20050524103009405/24/05 10:30:31  5-MIN KDBQ 241630Z 07007KT 10SM CLR 19/08 A3001 990 48  1800 070/07 RMK AO2
94908KDBQ DBQ20050524103509405/24/05 10:35:31  5-MIN KDBQ 241635Z 08010KT 10SM CLR 19/08 A3002 990 48  1800 080/10 RMK AO2
94908KDBQ DBQ20050524104009405/24/05 10:40:31  5-MIN KDBQ 241640Z 08010KT 10SM CLR 19/08 A3002 990 50  1700 080/10 RMK AO2
94908KDBQ DBQ20050524104509405/24/05 10:45:31  5-MIN KDBQ 241645Z 07010KT 10SM CLR 19/08 A3002 990 48  1800 070/10 RMK AO2
94908KDBQ DBQ20050524105011405/24/05 10:50:31  5-MIN KDBQ 241650Z 08008KT 10SM FEW049 19/08 A3002 990  48 1800 080/08 RMK AO2 SLP163 T01940083
94908KDBQ DBQ20050524105511705/24/05 10:55:31  5-MIN KDBQ 241655Z 05008G14KT 10SM CLR 19/08 A3002 990  48 1800 050/08G14 RMK AO2 SLP163 T01940083
94908KDBQ DBQ20050524110010005/24/05 11:00:31  5-MIN KDBQ 241700Z 05010G14KT 10SM CLR 19/09 A3002 990  50 1800 050/10G14 RMK AO2
94908KDBQ DBQ20050524110509405/24/05 11:05:31  5-MIN KDBQ 241705Z 07009KT 10SM CLR 20/09 A3002 990 48  1800 060/09 RMK AO2
94908KDBQ DBQ20050524111010005/24/05 11:10:31  5-MIN KDBQ 241710Z 08009G14KT 10SM CLR 19/08 A3001 990  48 1800 080/09G14 RMK AO2
94908KDBQ DBQ20050524111510005/24/05 11:15:31  5-MIN KDBQ 241715Z 06010G15KT 10SM CLR 20/08 A3001 990  46 1800 060/10G15 RMK AO2
94908KDBQ DBQ20050524112010005/24/05 11:20:31  5-MIN KDBQ 241720Z 05007G15KT 10SM CLR 20/08 A3001 990  46 1800 050/07G15 RMK AO2
94908KDBQ DBQ20050524112509405/24/05 11:25:31  5-MIN KDBQ 241725Z 02007KT 10SM CLR 20/09 A3001 990 48  1800 020/07 RMK AO2
94908KDBQ DBQ20050524113009405/24/05 11:30:31  5-MIN KDBQ 241730Z 05007KT 10SM CLR 20/08 A3001 1000 46 1900 050/07 RMK AO2
94908KDBQ DBQ20050524113509405/24/05 11:35:31  5-MIN KDBQ 241735Z 08009KT 10SM CLR 20/08 A3001 1000 46 1800 080/09 RMK AO2
94908KDBQ DBQ20050524114009405/24/05 11:40:31  5-MIN KDBQ 241740Z 04010KT 10SM CLR 20/08 A3001 990 46  1800 030/10 RMK AO2
94908KDBQ DBQ20050524114509705/24/05 11:45:31  5-MIN KDBQ 241745Z 02009KT 10SM FEW050 21/08 A3001 990  45 1900 020/09 RMK AO2
94908KDBQ DBQ20050524115013805/24/05 11:50:31  5-MIN KDBQ 241750Z 06009G14KT 10SM FEW055 21/09 A3001  990 46 1900 060/09G14 RMK AO2 SLP161 T02060089 10206 20117 50006
94908KDBQ DBQ20050524115513805/24/05 11:55:31  5-MIN KDBQ 241755Z VRB06G14KT 10SM FEW055 21/08 A3001  990 43 1900 VRB/06G14 RMK AO2 SLP161 T02060078 10206 20117 58003
94908KDBQ DBQ20050524120010305/24/05 12:00:31  5-MIN KDBQ 241800Z 06011G14KT 10SM FEW055 21/08 A3002  990 45 1900 060/11G14 RMK AO2
94908KDBQ DBQ20050524120510305/24/05 12:05:31  5-MIN KDBQ 241805Z 11006G14KT 10SM FEW055 21/08 A3002  990 43 1900 110/06G14 RMK AO2
94908KDBQ DBQ20050524121009705/24/05 12:10:31  5-MIN KDBQ 241810Z 03009KT 10SM FEW055 21/07 A3002 990  41 1900 030/09 RMK AO2
94908KDBQ DBQ20050524121509705/24/05 12:15:31  5-MIN KDBQ 241815Z 05007KT 10SM FEW055 21/08 A3002 990  43 1900 050/07 RMK AO2
94908KDBQ DBQ20050524122009405/24/05 12:20:31  5-MIN KDBQ 241820Z 06010KT 10SM CLR 21/08 A3001 990 43  2000 060/10 RMK AO2
94908KDBQ DBQ20050524122509405/24/05 12:25:31  5-MIN KDBQ 241825Z 02010KT 10SM CLR 21/08 A3002 990 43  1900 020/10 RMK AO2
94908KDBQ DBQ20050524123009705/24/05 12:30:31  5-MIN KDBQ 241830Z 02006KT 10SM FEW055 21/08 A3001 990  43 1900 020/06 RMK AO2
94908KDBQ DBQ20050524123511305/24/05 12:35:31  5-MIN KDBQ 241835Z 06008KT 020V110 10SM FEW060 21/08  A3002 990 43 2000 060/08 020V110 RMK AO2
94908KDBQ DBQ20050524124009705/24/05 12:40:31  5-MIN KDBQ 241840Z 09008KT 10SM FEW060 21/08 A3002 990  43 1900 090/08 RMK AO2
94908KDBQ DBQ20050524124509705/24/05 12:45:31  5-MIN KDBQ 241845Z VRB06KT 10SM FEW060 21/07 A3002 990  40 1900 VRB/06 RMK AO2
94908KDBQ DBQ20050524125011405/24/05 12:50:31  5-MIN KDBQ 241850Z 05008KT 10SM FEW060 21/08 A3002 990  42 2000 050/08 RMK AO2 SLP163 T02110078
94908KDBQ DBQ20050524125511405/24/05 12:55:31  5-MIN KDBQ 241855Z 05009KT 10SM FEW060 21/08 A3002 990  43 2000 050/09 RMK AO2 SLP163 T02110083
94908KDBQ DBQ20050524130009705/24/05 13:00:31  5-MIN KDBQ 241900Z 02005KT 10SM FEW060 21/07 A3001 990  40 2000 020/05 RMK AO2
94908KDBQ DBQ20050524130509705/24/05 13:05:31  5-MIN KDBQ 241905Z 02003KT 10SM FEW060 21/07 A3001 990  40 2000 020/03 RMK AO2
94908KDBQ DBQ20050524131009705/24/05 13:10:31  5-MIN KDBQ 241910Z 09007KT 10SM FEW060 21/07 A3001 990  40 1900 090/07 RMK AO2
94908KDBQ DBQ20050524131509705/24/05 13:15:31  5-MIN KDBQ 241915Z 06009KT 10SM FEW060 21/07 A3001 990  40 2000 060/09 RMK AO2
94908KDBQ DBQ20050524132009705/24/05 13:20:31  5-MIN KDBQ 241920Z 05008KT 10SM FEW060 21/07 A3001 1000 40 2000 050/08 RMK AO2
94908KDBQ DBQ20050524132509705/24/05 13:25:31  5-MIN KDBQ 241925Z 09008KT 10SM SCT060 21/07 A3001 1000 40 2000 090/08 RMK AO2
94908KDBQ DBQ20050524133009705/24/05 13:30:31  5-MIN KDBQ 241930Z 04009KT 10SM BKN060 21/08 A3001 1000 43 1900 040/09 RMK AO2
94908KDBQ DBQ20050524133509705/24/05 13:35:31  5-MIN KDBQ 241935Z 03006KT 10SM SCT060 22/08 A3001 1000 40 2000 030/06 RMK AO2
94908KDBQ DBQ20050524134009705/24/05 13:40:31  5-MIN KDBQ 241940Z VRB03KT 10SM FEW060 22/07 A3001 1000 39 2000 VRB/03 RMK AO2
94908KDBQ DBQ20050524134509705/24/05 13:45:31  5-MIN KDBQ 241945Z VRB05KT 10SM FEW060 22/08 A3001 1000 40 2000 VRB/05 RMK AO2
94908KDBQ DBQ20050524135011405/24/05 13:50:31  5-MIN KDBQ 241950Z 04008KT 10SM FEW060 22/08 A3001 1000 40 2000 040/08 RMK AO2 SLP159 T02170078
94908KDBQ DBQ20050524135511405/24/05 13:55:31  5-MIN KDBQ 241955Z 04009KT 10SM FEW060 22/08 A3001 1000 42 2000 040/09 RMK AO2 SLP159 T02170083
94908KDBQ DBQ20050524140009405/24/05 14:00:31  5-MIN KDBQ 242000Z 04008KT 10SM CLR 22/08 A3001 1000 40 2000 040/08 RMK AO2
94908KDBQ DBQ20050524140509405/24/05 14:05:31  5-MIN KDBQ 242005Z 04009KT 10SM CLR 22/08 A3001 1000 40 2000 040/09 RMK AO2
94908KDBQ DBQ20050524141009705/24/05 14:10:31  5-MIN KDBQ 242010Z 04003KT 10SM FEW060 22/08 A3000 1000 42 2000 040/03 RMK AO2
94908KDBQ DBQ20050524141509705/24/05 14:15:31  5-MIN KDBQ 242015Z 06009KT 10SM FEW060 22/08 A3001 1000 40 2100 060/09 RMK AO2
94908KDBQ DBQ20050524142010405/24/05 14:20:31  5-MIN KDBQ 242020Z 09010G14KT 10SM SCT060 21/08 A3001  1000 42 2000 090/10G14 RMK AO2
94908KDBQ DBQ20050524142511905/24/05 14:25:31  5-MIN KDBQ 242025Z 11007G14KT 070V140 10SM SCT060 21/07 A3000 1000 40 2000 100/07G14 070V140 RMK AO2
94908KDBQ DBQ20050524143009705/24/05 14:30:31  5-MIN KDBQ 242030Z 09008KT 10SM BKN060 22/07 A3000 1000 39 2000 090/08 RMK AO2
94908KDBQ DBQ20050524143509705/24/05 14:35:31  5-MIN KDBQ 242035Z VRB04KT 10SM BKN060 22/07 A3000 1000 37 2100 VRB/04 RMK AO2
94908KDBQ DBQ20050524144009705/24/05 14:40:31  5-MIN KDBQ 242040Z 04011KT 10SM BKN060 22/08 A3000 1010 39 2100 040/11 RMK AO2
94908KDBQ DBQ20050524144509705/24/05 14:45:31  5-MIN KDBQ 242045Z 06008KT 10SM SCT060 21/08 A3000 1010 42 2000 060/08 RMK AO2
94908KDBQ DBQ20050524145012005/24/05 14:50:31  5-MIN KDBQ 242050Z 02006KT 10SM SCT060 22/08 A3000 1010 40 2100 010/06 RMK AO2 SLP158 T02170078 58003
94908KDBQ DBQ20050524145512005/24/05 14:55:31  5-MIN KDBQ 242055Z 06008KT 10SM FEW060 22/08 A3000 1010 40 2100 060/08 RMK AO2 SLP157 T02220083 58005
94908KDBQ DBQ20050524150009705/24/05 15:00:31  5-MIN KDBQ 242100Z 00000KT 10SM FEW060 22/07 A3000 1010 37 2100 000/00 RMK AO2
94908KDBQ DBQ20050524150509405/24/05 15:05:31  5-MIN KDBQ 242105Z 02005KT 10SM CLR 22/08 A3000 1010 39 2100 020/05 RMK AO2
94908KDBQ DBQ20050524151009705/24/05 15:10:31  5-MIN KDBQ 242110Z 36006KT 10SM FEW060 22/08 A2999 1010 40 2100 360/06 RMK AO2
94908KDBQ DBQ20050524151509705/24/05 15:15:31  5-MIN KDBQ 242115Z 01004KT 10SM FEW060 22/08 A2999 1010 39 2100 010/04 RMK AO2
94908KDBQ DBQ20050524152009705/24/05 15:20:31  5-MIN KDBQ 242120Z 07006KT 10SM SCT060 22/09 A2999 1010 42 2100 060/06 RMK AO2
94908KDBQ DBQ20050524152509705/24/05 15:25:31  5-MIN KDBQ 242125Z 07010KT 10SM BKN060 22/08 A2999 1010 42 2100 070/10 RMK AO2
94908KDBQ DBQ20050524153009705/24/05 15:30:31  5-MIN KDBQ 242130Z 07006KT 10SM SCT060 22/08 A2999 1010 42 2100 070/06 RMK AO2
94908KDBQ DBQ20050524153509705/24/05 15:35:31  5-MIN KDBQ 242135Z VRB03KT 10SM SCT060 22/07 A2999 1010 39 2100 VRB/03 RMK AO2
94908KDBQ DBQ20050524154009705/24/05 15:40:31  5-MIN KDBQ 242140Z 05008KT 10SM SCT060 22/08 A2999 1010 42 2100 050/08 RMK AO2
94908KDBQ DBQ20050524154509705/24/05 15:45:31  5-MIN KDBQ 242145Z 07009KT 10SM SCT060 22/08 A2999 1010 40 2100 060/09 RMK AO2
94908KDBQ DBQ20050524155011405/24/05 15:50:31  5-MIN KDBQ 242150Z 05009KT 10SM FEW060 21/08 A2999 1010 42 2000 050/09 RMK AO2 SLP156 T02110078
94908KDBQ DBQ20050524155511105/24/05 15:55:31  5-MIN KDBQ 242155Z 03006KT 10SM CLR 21/08 A2999 1010 43 2000 030/06 RMK AO2 SLP155 T02110083
94908KDBQ DBQ20050524160009405/24/05 16:00:31  5-MIN KDBQ 242200Z 01006KT 10SM CLR 22/08 A2999 1020 42 2100 010/06 RMK AO2
94908KDBQ DBQ20050524160509405/24/05 16:05:31  5-MIN KDBQ 242205Z 35006KT 10SM CLR 22/08 A2999 1020 40 2100 350/06 RMK AO2
94908KDBQ DBQ20050524161009405/24/05 16:10:31  5-MIN KDBQ 242210Z 03009KT 10SM CLR 22/08 A2999 1020 40 2100 030/09 RMK AO2
94908KDBQ DBQ20050524161509405/24/05 16:15:31  5-MIN KDBQ 242215Z 02008KT 10SM CLR 22/08 A2999 1020 42 2100 020/08 RMK AO2
94908KDBQ DBQ20050524162009405/24/05 16:20:31  5-MIN KDBQ 242220Z VRB04KT 10SM CLR 22/08 A2998 1020 40 2100 VRB/04 RMK AO2
94908KDBQ DBQ20050524162509405/24/05 16:25:31  5-MIN KDBQ 242225Z 04008KT 10SM CLR 22/08 A2998 1020 40 2100 040/08 RMK AO2
94908KDBQ DBQ20050524163009405/24/05 16:30:31  5-MIN KDBQ 242230Z 09005KT 10SM CLR 22/08 A2998 1020 40 2100 090/05 RMK AO2
94908KDBQ DBQ20050524163509705/24/05 16:35:31  5-MIN KDBQ 242235Z 08006KT 10SM FEW060 22/07 A2998 1030 39 2100 080/06 RMK AO2
94908KDBQ DBQ20050524164009705/24/05 16:40:31  5-MIN KDBQ 242240Z 09008KT 10SM FEW060 22/07 A2998 1030 39 2100 090/08 RMK AO2
94908KDBQ DBQ20050524164509705/24/05 16:45:31  5-MIN KDBQ 242245Z 03009KT 10SM FEW060 22/08 A2998 1030 40 2100 030/09 RMK AO2
94908KDBQ DBQ20050524165011405/24/05 16:50:31  5-MIN KDBQ 242250Z 05009KT 10SM FEW060 22/08 A2998 1030 40 2100 050/09 RMK AO2 SLP150 T02170078
94908KDBQ DBQ20050524165511405/24/05 16:55:31  5-MIN KDBQ 242255Z 07006KT 10SM FEW060 21/07 A2997 1030 40 2000 070/06 RMK AO2 SLP149 T02110072
94908KDBQ DBQ20050524170009705/24/05 17:00:31  5-MIN KDBQ 242300Z 05006KT 10SM FEW060 22/08 A2997 1030 40 2100 050/06 RMK AO2
94908KDBQ DBQ20050524170509705/24/05 17:05:31  5-MIN KDBQ 242305Z 08006KT 10SM FEW060 22/07 A2997 1030 39 2100 080/06 RMK AO2
94908KDBQ DBQ20050524171009405/24/05 17:10:31  5-MIN KDBQ 242310Z 06006KT 10SM CLR 22/07 A2998 1030 39 2100 060/06 RMK AO2
94908KDBQ DBQ20050524171509405/24/05 17:15:31  5-MIN KDBQ 242315Z 09007KT 10SM CLR 22/08 A2998 1030 40 2100 090/07 RMK AO2
94908KDBQ DBQ20050524172009705/24/05 17:20:31  5-MIN KDBQ 242320Z 07006KT 10SM FEW060 22/08 A2998 1030 40 2100 070/06 RMK AO2
94908KDBQ DBQ20050524172509705/24/05 17:25:31  5-MIN KDBQ 242325Z 05008KT 10SM FEW060 21/08 A2998 1020 43 2000 050/08 RMK AO2
94908KDBQ DBQ20050524173009405/24/05 17:30:31  5-MIN KDBQ 242330Z 08008KT 10SM CLR 21/08 A2998 1030 42 2000 080/08 RMK AO2
94908KDBQ DBQ20050524173509405/24/05 17:35:31  5-MIN KDBQ 242335Z 08008KT 10SM CLR 21/07 A2998 1030 40 2000 070/08 RMK AO2
94908KDBQ DBQ20050524174009405/24/05 17:40:31  5-MIN KDBQ 242340Z 06008KT 10SM CLR 21/07 A2998 1030 40 2000 050/08 RMK AO2
94908KDBQ DBQ20050524174509405/24/05 17:45:31  5-MIN KDBQ 242345Z 06006KT 10SM CLR 21/07 A2998 1030 40 2000 060/06 RMK AO2
94908KDBQ DBQ20050524175012905/24/05 17:50:31  5-MIN KDBQ 242350Z 06008KT 10SM CLR 21/08 A2998 1030 42 2000 060/08 RMK AO2 SLP149 T02110078 10228 20200 58005
94908KDBQ DBQ20050524175512905/24/05 17:55:31  5-MIN KDBQ 242355Z 07006KT 10SM CLR 21/07 A2998 1030 41 1900 070/06 RMK AO2 SLP150 T02060072 10228 20200 55007
94908KDBQ DBQ20050524180009405/24/05 18:00:31  5-MIN KDBQ 250000Z 07006KT 10SM CLR 21/08 A2998 1020 43 1900 070/06 RMK AO2
94908KDBQ DBQ20050524180509405/24/05 18:05:31  5-MIN KDBQ 250005Z 07007KT 10SM CLR 21/08 A2998 1020 45 1900 070/07 RMK AO2
94908KDBQ DBQ20050524181009405/24/05 18:10:31  5-MIN KDBQ 250010Z 05006KT 10SM CLR 21/08 A2998 1020 43 1900 050/06 RMK AO2
94908KDBQ DBQ20050524181509405/24/05 18:15:31  5-MIN KDBQ 250015Z 08006KT 10SM CLR 21/08 A2998 1020 43 1900 080/06 RMK AO2
94908KDBQ DBQ20050524182009405/24/05 18:20:31  5-MIN KDBQ 250020Z 08007KT 10SM CLR 21/08 A2998 1020 43 1900 080/07 RMK AO2
94908KDBQ DBQ20050524182509405/24/05 18:25:31  5-MIN KDBQ 250025Z 08007KT 10SM CLR 20/08 A2998 1020 45 1900 070/07 RMK AO2
94908KDBQ DBQ20050524183009405/24/05 18:30:31  5-MIN KDBQ 250030Z 07005KT 10SM CLR 20/08 A2998 1020 45 1900 070/05 RMK AO2
94908KDBQ DBQ20050524183509405/24/05 18:35:31  5-MIN KDBQ 250035Z 08005KT 10SM CLR 20/08 A2998 1020 46 1900 080/05 RMK AO2
94908KDBQ DBQ20050524184009405/24/05 18:40:31  5-MIN KDBQ 250040Z 07005KT 10SM CLR 20/08 A2998 1020 45 1900 070/05 RMK AO2
94908KDBQ DBQ20050524184509405/24/05 18:45:31  5-MIN KDBQ 250045Z 07004KT 10SM CLR 19/08 A2998 1020 48 1800 070/04 RMK AO2
94908KDBQ DBQ20050524185012205/24/05 18:50:31  5-MIN KDBQ 250050Z AUTO 08004KT 10SM CLR 19/08 A2998  1030 48 1800 080/04 RMK AO2 SLP150 T01940083 TSNO
94908KDBQ DBQ20050524185512205/24/05 18:55:31  5-MIN KDBQ 250055Z AUTO 08004KT 10SM CLR 19/08 A2998  1030 46 1800 080/04 RMK AO2 SLP149 T01940078 TSNO
94908KDBQ DBQ20050524190010505/24/05 19:00:31  5-MIN KDBQ 250100Z AUTO 07004KT 10SM CLR 19/08 A2998  1030 46 1800 070/04 RMK AO2 TSNO
94908KDBQ DBQ20050524190510505/24/05 19:05:31  5-MIN KDBQ 250105Z AUTO 08005KT 10SM CLR 19/08 A2998  1030 48 1800 080/05 RMK AO2 TSNO
94908KDBQ DBQ20050524191010505/24/05 19:10:31  5-MIN KDBQ 250110Z AUTO 07005KT 10SM CLR 18/08 A2996  1040 50 1700 070/05 RMK AO2 TSNO
94908KDBQ DBQ20050524191510505/24/05 19:15:31  5-MIN KDBQ 250115Z AUTO 08005KT 10SM CLR 19/08 A2997  1030 48 1800 080/05 RMK AO2 TSNO
94908KDBQ DBQ20050524192010505/24/05 19:20:31  5-MIN KDBQ 250120Z AUTO 09005KT 10SM CLR 18/08 A2997  1030 50 1700 080/05 RMK AO2 TSNO
94908KDBQ DBQ20050524192510505/24/05 19:25:31  5-MIN KDBQ 250125Z AUTO 09005KT 10SM CLR 18/08 A2997  1030 51 1600 090/05 RMK AO2 TSNO
94908KDBQ DBQ20050524193010505/24/05 19:30:31  5-MIN KDBQ 250130Z AUTO 09005KT 10SM CLR 17/08 A2997  1040 53 1600 090/05 RMK AO2 TSNO
94908KDBQ DBQ20050524193510505/24/05 19:35:31  5-MIN KDBQ 250135Z AUTO 09005KT 10SM CLR 17/08 A2997  1030 57 1500 090/05 RMK AO2 TSNO
94908KDBQ DBQ20050524194010505/24/05 19:40:31  5-MIN KDBQ 250140Z AUTO 08003KT 10SM CLR 16/08 A2997  1030 57 1400 080/03 RMK AO2 TSNO
94908KDBQ DBQ20050524194510505/24/05 19:45:31  5-MIN KDBQ 250145Z AUTO 08003KT 10SM CLR 17/08 A2998  1030 53 1600 080/03 RMK AO2 TSNO
94908KDBQ DBQ20050524195012205/24/05 19:50:31  5-MIN KDBQ 250150Z AUTO 07003KT 10SM CLR 17/08 A2998  1030 53 1600 070/03 RMK AO2 SLP150 T01720078 TSNO
94908KDBQ DBQ20050524195512205/24/05 19:55:31  5-MIN KDBQ 250155Z AUTO 07003KT 10SM CLR 17/08 A2998  1030 55 1500 070/03 RMK AO2 SLP150 T01670078 TSNO
94908KDBQ DBQ20050524200010505/24/05 20:00:31  5-MIN KDBQ 250200Z AUTO 07004KT 10SM CLR 17/07 A2998  1030 51 1600 070/04 RMK AO2 TSNO
94908KDBQ DBQ20050524200510505/24/05 20:05:31  5-MIN KDBQ 250205Z AUTO 08004KT 10SM CLR 17/07 A2998  1020 51 1600 080/04 RMK AO2 TSNO
94908KDBQ DBQ20050524201010505/24/05 20:10:31  5-MIN KDBQ 250210Z AUTO 08004KT 10SM CLR 17/07 A2998  1020 53 1500 080/04 RMK AO2 TSNO
94908KDBQ DBQ20050524201510505/24/05 20:15:31  5-MIN KDBQ 250215Z AUTO 08006KT 10SM CLR 17/07 A2998  1020 53 1500 080/06 RMK AO2 TSNO
94908KDBQ DBQ20050524202010505/24/05 20:20:31  5-MIN KDBQ 250220Z AUTO 08006KT 10SM CLR 16/07 A2998  1020 55 1400 080/06 RMK AO2 TSNO
94908KDBQ DBQ20050524202510505/24/05 20:25:31  5-MIN KDBQ 250225Z AUTO 09006KT 10SM CLR 16/08 A2998  1020 57 1400 090/06 RMK AO2 TSNO
94908KDBQ DBQ20050524203010505/24/05 20:30:31  5-MIN KDBQ 250230Z AUTO 09007KT 10SM CLR 16/08 A2998  1020 57 1400 090/07 RMK AO2 TSNO
94908KDBQ DBQ20050524203510505/24/05 20:35:31  5-MIN KDBQ 250235Z AUTO 09007KT 10SM CLR 16/08 A2998  1020 59 1400 090/07 RMK AO2 TSNO
94908KDBQ DBQ20050524204010505/24/05 20:40:31  5-MIN KDBQ 250240Z AUTO 09007KT 10SM CLR 16/08 A2999  1020 59 1400 090/07 RMK AO2 TSNO
94908KDBQ DBQ20050524204510505/24/05 20:45:31  5-MIN KDBQ 250245Z AUTO 09007KT 10SM CLR 16/08 A2999  1010 57 1400 090/07 RMK AO2 TSNO
94908KDBQ DBQ20050524205012805/24/05 20:50:31  5-MIN KDBQ 250250Z AUTO 09007KT 10SM CLR 16/08 A2999  1020 57 1400 090/07 RMK AO2 SLP153 T01610078 55007 TSNO
94908KDBQ DBQ20050524205512805/24/05 20:55:31  5-MIN KDBQ 250255Z AUTO 10007KT 10SM CLR 16/08 A2999  1010 59 1400 090/07 RMK AO2 SLP154 T01560078 53004 TSNO
94908KDBQ DBQ20050524210010505/24/05 21:00:31  5-MIN KDBQ 250300Z AUTO 09007KT 10SM CLR 16/08 A2999  1020 59 1400 090/07 RMK AO2 TSNO
94908KDBQ DBQ20050524210510505/24/05 21:05:31  5-MIN KDBQ 250305Z AUTO 10006KT 10SM CLR 16/08 A2999  1010 59 1400 100/06 RMK AO2 TSNO
94908KDBQ DBQ20050524211010505/24/05 21:10:31  5-MIN KDBQ 250310Z AUTO 10006KT 10SM CLR 16/08 A2999  1010 59 1400 100/06 RMK AO2 TSNO
94908KDBQ DBQ20050524211510505/24/05 21:15:31  5-MIN KDBQ 250315Z AUTO 10006KT 10SM CLR 16/08 A2999  1010 59 1400 100/06 RMK AO2 TSNO
94908KDBQ DBQ20050524212010505/24/05 21:20:31  5-MIN KDBQ 250320Z AUTO 10006KT 10SM CLR 16/08 A3000  1000 59 1300 100/06 RMK AO2 TSNO
94908KDBQ DBQ20050524212510505/24/05 21:25:31  5-MIN KDBQ 250325Z AUTO 10005KT 10SM CLR 16/08 A3000  1000 59 1300 100/05 RMK AO2 TSNO
94908KDBQ DBQ20050524213010505/24/05 21:30:31  5-MIN KDBQ 250330Z AUTO 09006KT 10SM CLR 16/08 A3001  1000 59 1300 090/06 RMK AO2 TSNO
94908KDBQ DBQ20050524213510505/24/05 21:35:31  5-MIN KDBQ 250335Z AUTO 09007KT 10SM CLR 15/08 A3000  1000 62 1300 090/07 RMK AO2 TSNO
94908KDBQ DBQ20050524214010505/24/05 21:40:31  5-MIN KDBQ 250340Z AUTO 09007KT 10SM CLR 15/08 A3001  1000 64 1300 090/07 RMK AO2 TSNO
94908KDBQ DBQ20050524214510305/24/05 21:45:31  5-MIN KDBQ 250345Z AUTO 10006KT 10SM CLR 15/08 A3001 990 64 1300 090/06 RMK AO2 TSNO
94908KDBQ DBQ20050524215012205/24/05 21:50:31  5-MIN KDBQ 250350Z AUTO 10006KT 10SM CLR 15/08 A3001  1000 64 1300 100/06 RMK AO2 SLP160 T01500083 TSNO
94908KDBQ DBQ20050524215512005/24/05 21:55:31  5-MIN KDBQ 250355Z AUTO 09006KT 10SM CLR 15/08 A3002 990 62 1300 090/06 RMK AO2 SLP164 T01500078 TSNO
94908KDBQ DBQ20050524220010505/24/05 22:00:31  5-MIN KDBQ 250400Z AUTO 09007KT 10SM CLR 15/08 A3001  1000 62 1300 090/07 RMK AO2 TSNO
94908KDBQ DBQ20050524220510305/24/05 22:05:31  5-MIN KDBQ 250405Z AUTO 09006KT 10SM CLR 15/08 A3001 990 62 1300 090/06 RMK AO2 TSNO
94908KDBQ DBQ20050524221010305/24/05 22:10:31  5-MIN KDBQ 250410Z AUTO 09006KT 10SM CLR 15/08 A3003 980 62 1200 090/06 RMK AO2 TSNO
94908KDBQ DBQ20050524221510305/24/05 22:15:31  5-MIN KDBQ 250415Z AUTO 09006KT 10SM CLR 15/08 A3002 990 62 1300 090/06 RMK AO2 TSNO
94908KDBQ DBQ20050524222010305/24/05 22:20:31  5-MIN KDBQ 250420Z AUTO 09007KT 10SM CLR 15/08 A3001 990 62 1300 090/07 RMK AO2 TSNO
94908KDBQ DBQ20050524222510305/24/05 22:25:31  5-MIN KDBQ 250425Z AUTO 09007KT 10SM CLR 14/08 A3001 990 64 1200 090/07 RMK AO2 TSNO
94908KDBQ DBQ20050524223010305/24/05 22:30:31  5-MIN KDBQ 250430Z AUTO 09006KT 10SM CLR 14/08 A3002 990 64 1200 090/06 RMK AO2 TSNO
94908KDBQ DBQ20050524223510305/24/05 22:35:31  5-MIN KDBQ 250435Z AUTO 09006KT 10SM CLR 15/08 A3002 990 62 1300 090/06 RMK AO2 TSNO
94908KDBQ DBQ20050524224010305/24/05 22:40:31  5-MIN KDBQ 250440Z AUTO 09006KT 10SM CLR 14/08 A3001 990 64 1200 090/06 RMK AO2 TSNO
94908KDBQ DBQ20050524224510305/24/05 22:45:31  5-MIN KDBQ 250445Z AUTO 09006KT 10SM CLR 14/08 A3002 990 64 1200 090/06 RMK AO2 TSNO
94908KDBQ DBQ20050524225012005/24/05 22:50:31  5-MIN KDBQ 250450Z AUTO 09005KT 10SM CLR 14/08 A3002 990 64 1200 090/05 RMK AO2 SLP162 T01440078 TSNO
94908KDBQ DBQ20050524225512005/24/05 22:55:31  5-MIN KDBQ 250455Z AUTO 09005KT 10SM CLR 14/08 A3002 990 64 1200 090/05 RMK AO2 SLP162 T01440078 TSNO
94908KDBQ DBQ20050524230010305/24/05 23:00:31  5-MIN KDBQ 250500Z AUTO 09005KT 10SM CLR 14/07 A3002 990 61 1200 090/05 RMK AO2 TSNO
94908KDBQ DBQ20050524230510305/24/05 23:05:31  5-MIN KDBQ 250505Z AUTO 10005KT 10SM CLR 14/07 A3002 990 61 1200 100/05 RMK AO2 TSNO
94908KDBQ DBQ20050524231010305/24/05 23:10:31  5-MIN KDBQ 250510Z AUTO 10007KT 10SM CLR 14/08 A3002 990 66 1100 100/07 RMK AO2 TSNO
94908KDBQ DBQ20050524231510305/24/05 23:15:31  5-MIN KDBQ 250515Z AUTO 11007KT 10SM CLR 14/08 A3002 980 66 1100 110/07 RMK AO2 TSNO
94908KDBQ DBQ20050524232010305/24/05 23:20:31  5-MIN KDBQ 250520Z AUTO 11009KT 10SM CLR 14/08 A3002 990 66 1100 110/09 RMK AO2 TSNO
94908KDBQ DBQ20050524232510305/24/05 23:25:31  5-MIN KDBQ 250525Z AUTO 12008KT 10SM CLR 14/08 A3002 990 66 1100 120/08 RMK AO2 TSNO
94908KDBQ DBQ20050524233010305/24/05 23:30:31  5-MIN KDBQ 250530Z AUTO 12009KT 10SM CLR 14/08 A3002 990 69 1100 120/09 RMK AO2 TSNO
94908KDBQ DBQ20050524233510305/24/05 23:35:31  5-MIN KDBQ 250535Z AUTO 12009KT 10SM CLR 14/08 A3002 990 64 1200 120/09 RMK AO2 TSNO
94908KDBQ DBQ20050524234010305/24/05 23:40:31  5-MIN KDBQ 250540Z AUTO 12009KT 10SM CLR 14/08 A3002 990 69 1100 120/09 RMK AO2 TSNO
94908KDBQ DBQ20050524234510305/24/05 23:45:31  5-MIN KDBQ 250545Z AUTO 12008KT 10SM CLR 14/08 A3002 990 69 1100 120/08 RMK AO2 TSNO
94908KDBQ DBQ20050524235014805/24/05 23:50:31  5-MIN KDBQ 250550Z AUTO 12008KT 10SM CLR 13/08 A3002 990 71 1100 120/08 RMK AO2 SLP163 T01330083 10206 20133 402280067 53004 TSNO
94908KDBQ DBQ20050524235514805/24/05 23:55:31  5-MIN KDBQ 250555Z AUTO 12008KT 10SM CLR 14/08 A3002 990 69 1100 120/08 RMK AO2 SLP163 T01390083 10206 20133 402280067 51009 TSNO
94908KDBQ DBQ20050525000010305/25/05 00:00:38  5-MIN KDBQ 250600Z AUTO 12008KT 10SM CLR 14/08 A3002 990 66 1100 120/08 RMK AO2 TSNO
94908KDBQ DBQ20050525000510305/25/05 00:05:31  5-MIN KDBQ 250605Z AUTO 12009KT 10SM CLR 14/08 A3002 980 66 1100 120/09 RMK AO2 TSNO
94908KDBQ DBQ20050525001010305/25/05 00:10:31  5-MIN KDBQ 250610Z AUTO 13008KT 10SM CLR 14/08 A3003 980 66 1100 130/08 RMK AO2 TSNO
94908KDBQ DBQ20050525001510305/25/05 00:15:31  5-MIN KDBQ 250615Z AUTO 13007KT 10SM CLR 14/08 A3004 970 66 1100 130/07 RMK AO2 TSNO
94908KDBQ DBQ20050525002010305/25/05 00:20:31  5-MIN KDBQ 250620Z AUTO 13006KT 10SM CLR 13/08 A3004 970 69 1000 130/06 RMK AO2 TSNO
94908KDBQ DBQ20050525002510305/25/05 00:25:31  5-MIN KDBQ 250625Z AUTO 14006KT 10SM CLR 13/08 A3004 970 69 1000 130/06 RMK AO2 TSNO
94908KDBQ DBQ20050525003010305/25/05 00:30:31  5-MIN KDBQ 250630Z AUTO 14008KT 10SM CLR 13/08 A3003 970 69 1000 140/08 RMK AO2 TSNO
94908KDBQ DBQ20050525003510305/25/05 00:35:31  5-MIN KDBQ 250635Z AUTO 14006KT 10SM CLR 13/08 A3003 970 71 1000 140/06 RMK AO2 TSNO
94908KDBQ DBQ20050525004010305/25/05 00:40:31  5-MIN KDBQ 250640Z AUTO 15006KT 10SM CLR 13/08 A3003 970 71 1000 150/06 RMK AO2 TSNO
94908KDBQ DBQ20050525004510305/25/05 00:45:31  5-MIN KDBQ 250645Z AUTO 15007KT 10SM CLR 13/08 A3004 970 71 1000 150/07 RMK AO2 TSNO
94908KDBQ DBQ20050525005011905/25/05 00:50:31  5-MIN KDBQ 250650Z AUTO 15003KT 10SM CLR 12/08 A3003 970 74 900 150/03 RMK AO2 SLP168 T01220078 TSNO
94908KDBQ DBQ20050525005511905/25/05 00:55:31  5-MIN KDBQ 250655Z AUTO 16003KT 10SM CLR 12/08 A3003 970 77 800 160/03 RMK AO2 SLP168 T01170078 TSNO
94908KDBQ DBQ20050525010010205/25/05 01:00:31  5-MIN KDBQ 250700Z AUTO 18003KT 10SM CLR 11/08 A3004 970 80 800 180/03 RMK AO2 TSNO
94908KDBQ DBQ20050525010510205/25/05 01:05:31  5-MIN KDBQ 250705Z AUTO 18004KT 10SM CLR 11/08 A3004 970 80 800 180/04 RMK AO2 TSNO
94908KDBQ DBQ20050525011010205/25/05 01:10:31  5-MIN KDBQ 250710Z AUTO 17004KT 10SM CLR 11/08 A3004 970 80 800 170/04 RMK AO2 TSNO
94908KDBQ DBQ20050525011510205/25/05 01:15:31  5-MIN KDBQ 250715Z AUTO 00000KT 10SM CLR 11/08 A3004 970 80 800 000/00 RMK AO2 TSNO
94908KDBQ DBQ20050525012010205/25/05 01:20:31  5-MIN KDBQ 250720Z AUTO 00000KT 10SM CLR 11/07 A3004 970 80 700 000/00 RMK AO2 TSNO
94908KDBQ DBQ20050525012510205/25/05 01:25:31  5-MIN KDBQ 250725Z AUTO 00000KT 10SM CLR 10/07 A3004 970 83 600 000/00 RMK AO2 TSNO
94908KDBQ DBQ20050525013010205/25/05 01:30:31  5-MIN KDBQ 250730Z AUTO 00000KT 10SM CLR 10/07 A3004 970 83 600 000/00 RMK AO2 TSNO
94908KDBQ DBQ20050525013510205/25/05 01:35:31  5-MIN KDBQ 250735Z AUTO 00000KT 10SM CLR 11/07 A3004 970 80 700 000/00 RMK AO2 TSNO
94908KDBQ DBQ20050525014010205/25/05 01:40:31  5-MIN KDBQ 250740Z AUTO 00000KT 10SM CLR 10/07 A3004 970 83 600 000/00 RMK AO2 TSNO
94908KDBQ DBQ20050525014510205/25/05 01:45:31  5-MIN KDBQ 250745Z AUTO 00000KT 10SM CLR 11/07 A3004 970 80 700 000/00 RMK AO2 TSNO
94908KDBQ DBQ20050525015011905/25/05 01:50:31  5-MIN KDBQ 250750Z AUTO 11003KT 10SM CLR 11/07 A3003 980 80 700 110/03 RMK AO2 SLP169 T01060072 TSNO
94908KDBQ DBQ20050525015511905/25/05 01:55:31  5-MIN KDBQ 250755Z AUTO 12005KT 10SM CLR 11/07 A3003 970 80 700 120/05 RMK AO2 SLP169 T01060072 TSNO
94908KDBQ DBQ20050525020010205/25/05 02:00:31  5-MIN KDBQ 250800Z AUTO 12006KT 10SM CLR 11/07 A3004 970 77 800 120/06 RMK AO2 TSNO
94908KDBQ DBQ20050525020510205/25/05 02:05:31  5-MIN KDBQ 250805Z AUTO 12007KT 10SM CLR 12/07 A3003 980 74 900 120/07 RMK AO2 TSNO
94908KDBQ DBQ20050525021010205/25/05 02:10:31  5-MIN KDBQ 250810Z AUTO 11007KT 10SM CLR 12/07 A3003 980 74 800 110/07 RMK AO2 TSNO
94908KDBQ DBQ20050525021510205/25/05 02:15:31  5-MIN KDBQ 250815Z AUTO 12007KT 10SM CLR 12/07 A3003 980 74 800 110/07 RMK AO2 TSNO
94908KDBQ DBQ20050525022010205/25/05 02:20:31  5-MIN KDBQ 250820Z AUTO 11007KT 10SM CLR 12/07 A3003 980 74 900 110/07 RMK AO2 TSNO
94908KDBQ DBQ20050525022510205/25/05 02:25:31  5-MIN KDBQ 250825Z AUTO 11007KT 10SM CLR 12/07 A3003 980 74 900 110/07 RMK AO2 TSNO
94908KDBQ DBQ20050525023010205/25/05 02:30:31  5-MIN KDBQ 250830Z AUTO 11006KT 10SM CLR 12/07 A3003 980 74 900 110/06 RMK AO2 TSNO
94908KDBQ DBQ20050525023510205/25/05 02:35:31  5-MIN KDBQ 250835Z AUTO 10005KT 10SM CLR 12/07 A3003 970 74 800 100/05 RMK AO2 TSNO
94908KDBQ DBQ20050525024010205/25/05 02:40:31  5-MIN KDBQ 250840Z AUTO 09005KT 10SM CLR 11/07 A3004 970 77 800 090/05 RMK AO2 TSNO
94908KDBQ DBQ20050525024510205/25/05 02:45:31  5-MIN KDBQ 250845Z AUTO 07006KT 10SM CLR 11/07 A3003 980 80 700 070/06 RMK AO2 TSNO
94908KDBQ DBQ20050525025012505/25/05 02:50:31  5-MIN KDBQ 250850Z AUTO 04005KT 10SM CLR 11/07 A3004 970 80 700 040/05 RMK AO2 SLP170 T01060072 51009 TSNO
94908KDBQ DBQ20050525025512505/25/05 02:55:31  5-MIN KDBQ 250855Z AUTO 04004KT 10SM CLR 10/07 A3004 970 83 600 040/04 RMK AO2 SLP171 T01000072 51006 TSNO
94908KDBQ DBQ20050525030010205/25/05 03:00:31  5-MIN KDBQ 250900Z AUTO 03004KT 10SM CLR 11/07 A3004 970 80 700 030/04 RMK AO2 TSNO
94908KDBQ DBQ20050525030510205/25/05 03:05:31  5-MIN KDBQ 250905Z AUTO 04003KT 10SM CLR 10/07 A3004 970 83 600 040/03 RMK AO2 TSNO
94908KDBQ DBQ20050525031010205/25/05 03:10:31  5-MIN KDBQ 250910Z AUTO 05005KT 10SM CLR 11/07 A3003 970 80 700 050/05 RMK AO2 TSNO
94908KDBQ DBQ20050525031510205/25/05 03:15:31  5-MIN KDBQ 250915Z AUTO 05005KT 10SM CLR 11/07 A3003 980 80 700 050/05 RMK AO2 TSNO
94908KDBQ DBQ20050525032010205/25/05 03:20:31  5-MIN KDBQ 250920Z AUTO 04004KT 10SM CLR 11/07 A3003 980 80 700 040/04 RMK AO2 TSNO
94908KDBQ DBQ20050525032510205/25/05 03:25:31  5-MIN KDBQ 250925Z AUTO 04004KT 10SM CLR 10/07 A3003 980 83 600 040/04 RMK AO2 TSNO
94908KDBQ DBQ20050525033010205/25/05 03:30:31  5-MIN KDBQ 250930Z AUTO 00000KT 10SM CLR 09/07 A3003 970 86 600 000/00 RMK AO2 TSNO
94908KDBQ DBQ20050525033510205/25/05 03:35:31  5-MIN KDBQ 250935Z AUTO 00000KT 10SM CLR 09/07 A3003 980 89 500 000/00 RMK AO2 TSNO
94908KDBQ DBQ20050525034010205/25/05 03:40:31  5-MIN KDBQ 250940Z AUTO 00000KT 10SM CLR 10/07 A3003 980 83 700 000/00 RMK AO2 TSNO
94908KDBQ DBQ20050525034510205/25/05 03:45:31  5-MIN KDBQ 250945Z AUTO 00000KT 10SM CLR 11/07 A3002 980 80 700 000/00 RMK AO2 TSNO
94908KDBQ DBQ20050525035011905/25/05 03:50:31  5-MIN KDBQ 250950Z AUTO 00000KT 10SM CLR 10/07 A3002 990 83 700 000/00 RMK AO2 SLP165 T01000072 TSNO
94908KDBQ DBQ20050525035511905/25/05 03:55:31  5-MIN KDBQ 250955Z AUTO 00000KT 10SM CLR 11/07 A3002 990 80 700 000/00 RMK AO2 SLP165 T01060072 TSNO
94908KDBQ DBQ20050525040010205/25/05 04:00:31  5-MIN KDBQ 251000Z AUTO 14003KT 10SM CLR 11/07 A3002 990 74 800 140/03 RMK AO2 TSNO
94908KDBQ DBQ20050525040510205/25/05 04:05:31  5-MIN KDBQ 251005Z AUTO 00000KT 10SM CLR 11/07 A3003 980 74 800 000/00 RMK AO2 TSNO
94908KDBQ DBQ20050525041010205/25/05 04:10:31  5-MIN KDBQ 251010Z AUTO 15003KT 10SM CLR 11/07 A3003 980 74 800 150/03 RMK AO2 TSNO
94908KDBQ DBQ20050525041510205/25/05 04:15:31  5-MIN KDBQ 251015Z AUTO 00000KT 10SM CLR 11/06 A3003 970 71 800 000/00 RMK AO2 TSNO
94908KDBQ DBQ20050525042010205/25/05 04:20:31  5-MIN KDBQ 251020Z AUTO 00000KT 10SM CLR 11/06 A3003 970 71 800 000/00 RMK AO2 TSNO
94908KDBQ DBQ20050525042510205/25/05 04:25:31  5-MIN KDBQ 251025Z AUTO 00000KT 10SM CLR 11/06 A3003 970 71 800 000/00 RMK AO2 TSNO
94908KDBQ DBQ20050525043010205/25/05 04:30:31  5-MIN KDBQ 251030Z AUTO 00000KT 10SM CLR 11/07 A3003 980 77 700 000/00 RMK AO2 TSNO
94908KDBQ DBQ20050525043510205/25/05 04:35:31  5-MIN KDBQ 251035Z AUTO 13003KT 10SM CLR 10/06 A3003 970 77 600 130/03 RMK AO2 TSNO
94908KDBQ DBQ20050525044010205/25/05 04:40:31  5-MIN KDBQ 251040Z AUTO 13004KT 10SM CLR 11/07 A3003 970 74 800 130/04 RMK AO2 TSNO
94908KDBQ DBQ20050525044510205/25/05 04:45:31  5-MIN KDBQ 251045Z AUTO 14004KT 10SM CLR 11/07 A3004 970 77 700 140/04 RMK AO2 TSNO
94908KDBQ DBQ20050525045011005/25/05 04:50:31  5-MIN KDBQ 251050Z 15003KT 10SM CLR 11/07 A3004 970 77  700 150/03 RMK AO2 SLP170 T01060067
94908KDBQ DBQ20050525045511005/25/05 04:55:31  5-MIN KDBQ 251055Z 00000KT 10SM CLR 11/07 A3004 970 77  700 000/00 RMK AO2 SLP171 T01060067
94908KDBQ DBQ20050525050009305/25/05 05:00:31  5-MIN KDBQ 251100Z 00000KT 10SM CLR 11/07 A3004 960 77  700 000/00 RMK AO2
94908KDBQ DBQ20050525050509305/25/05 05:05:31  5-MIN KDBQ 251105Z 00000KT 10SM CLR 11/07 A3005 960 77  700 000/00 RMK AO2
94908KDBQ DBQ20050525051009305/25/05 05:10:31  5-MIN KDBQ 251110Z 03003KT 10SM CLR 11/07 A3005 960 77  700 030/03 RMK AO2
94908KDBQ DBQ20050525051509305/25/05 05:15:31  5-MIN KDBQ 251115Z 06006KT 10SM CLR 11/07 A3006 950 77  700 060/06 RMK AO2
94908KDBQ DBQ20050525052009305/25/05 05:20:31  5-MIN KDBQ 251120Z 07005KT 10SM CLR 11/07 A3006 950 74  700 070/05 RMK AO2
94908KDBQ DBQ20050525052509305/25/05 05:25:31  5-MIN KDBQ 251125Z 08004KT 10SM CLR 12/07 A3006 950 71  800 080/04 RMK AO2
94908KDBQ DBQ20050525053009305/25/05 05:30:31  5-MIN KDBQ 251130Z 08004KT 10SM CLR 12/07 A3006 950 71  800 080/04 RMK AO2
94908KDBQ DBQ20050525053509305/25/05 05:35:31  5-MIN KDBQ 251135Z 09004KT 10SM CLR 12/07 A3007 940 74  800 090/04 RMK AO2
94908KDBQ DBQ20050525054009305/25/05 05:40:31  5-MIN KDBQ 251140Z 10004KT 10SM CLR 12/07 A3007 940 74  800 090/04 RMK AO2
94908KDBQ DBQ20050525054509305/25/05 05:45:31  5-MIN KDBQ 251145Z 10004KT 10SM CLR 12/07 A3007 940 74  800 100/04 RMK AO2
94908KDBQ DBQ20050525055012805/25/05 05:50:31  5-MIN KDBQ 251150Z 10004KT 10SM CLR 12/07 A3007 940 74  800 100/04 RMK AO2 SLP181 T01170072 10139 20089 51006
94908KDBQ DBQ20050525055512805/25/05 05:55:31  5-MIN KDBQ 251155Z 11004KT 10SM CLR 12/08 A3007 940 77  800 100/04 RMK AO2 SLP184 T01170078 10139 20089 53012
94908KDBQ DBQ20050525060009305/25/05 06:00:31  5-MIN KDBQ 251200Z 11007KT 10SM CLR 12/08 A3008 930 77  800 110/07 RMK AO2
94908KDBQ DBQ20050525060509305/25/05 06:05:31  5-MIN KDBQ 251205Z 11007KT 10SM CLR 12/08 A3007 940 77  800 110/07 RMK AO2
94908KDBQ DBQ20050525061009305/25/05 06:10:31  5-MIN KDBQ 251210Z 11006KT 10SM CLR 12/08 A3007 940 77  800 110/06 RMK AO2
94908KDBQ DBQ20050525061509305/25/05 06:15:31  5-MIN KDBQ 251215Z 12005KT 10SM CLR 12/08 A3007 940 74  900 120/05 RMK AO2
94908KDBQ DBQ20050525062009305/25/05 06:20:31  5-MIN KDBQ 251220Z 12006KT 10SM CLR 12/07 A3007 940 71  900 120/06 RMK AO2
94908KDBQ DBQ20050525062509305/25/05 06:25:31  5-MIN KDBQ 251225Z 12008KT 10SM CLR 12/07 A3007 940 71  900 120/08 RMK AO2
94908KDBQ DBQ20050525063009305/25/05 06:30:31  5-MIN KDBQ 251230Z 12008KT 10SM CLR 12/07 A3007 940 71  900 120/08 RMK AO2
94908KDBQ DBQ20050525063509305/25/05 06:35:31  5-MIN KDBQ 251235Z 13009KT 10SM CLR 12/07 A3007 940 71  900 130/09 RMK AO2
94908KDBQ DBQ20050525064009305/25/05 06:40:31  5-MIN KDBQ 251240Z 13009KT 10SM CLR 13/07 A3007 940 69  900 130/09 RMK AO2
94908KDBQ DBQ20050525064509305/25/05 06:45:31  5-MIN KDBQ 251245Z 13007KT 10SM CLR 13/07 A3007 940 69  900 130/07 RMK AO2
94908KDBQ DBQ20050525065011105/25/05 06:50:31  5-MIN KDBQ 251250Z 14007KT 10SM CLR 13/07 A3008 930 66  1000 140/07 RMK AO2 SLP184 T01330072
94908KDBQ DBQ20050525065511105/25/05 06:55:31  5-MIN KDBQ 251255Z 14007KT 10SM CLR 13/07 A3009 930 66  1000 140/07 RMK AO2 SLP186 T01330072
94908KDBQ DBQ20050525070009405/25/05 07:00:31  5-MIN KDBQ 251300Z 15008KT 10SM CLR 13/07 A3009 920 66  1000 150/08 RMK AO2
94908KDBQ DBQ20050525070510105/25/05 07:05:31  5-MIN KDBQ 251305Z 15007KT 10SM CLR 13/07 A3010 920 66  1000 150/07 RMK AO2 PRESRR
94908KDBQ DBQ20050525071010105/25/05 07:10:31  5-MIN KDBQ 251310Z 15005KT 10SM CLR 13/08 A3010 910 69  1000 150/05 RMK AO2 PRESRR
94908KDBQ DBQ20050525071509405/25/05 07:15:31  5-MIN KDBQ 251315Z 15007KT 10SM CLR 13/07 A3010 910 66  1000 150/07 RMK AO2
94908KDBQ DBQ20050525072009405/25/05 07:20:31  5-MIN KDBQ 251320Z 15006KT 10SM CLR 13/07 A3010 910 66  1000 150/06 RMK AO2
94908KDBQ DBQ20050525072509405/25/05 07:25:31  5-MIN KDBQ 251325Z 16005KT 10SM CLR 14/07 A3010 910 64  1000 150/05 RMK AO2
94908KDBQ DBQ20050525073009405/25/05 07:30:31  5-MIN KDBQ 251330Z 15006KT 10SM CLR 14/07 A3010 920 64  1000 150/06 RMK AO2
94908KDBQ DBQ20050525073509405/25/05 07:35:31  5-MIN KDBQ 251335Z 13005KT 10SM CLR 14/08 A3010 910 66  1000 130/05 RMK AO2
94908KDBQ DBQ20050525074009405/25/05 07:40:31  5-MIN KDBQ 251340Z 14005KT 10SM CLR 14/07 A3010 910 64  1000 140/05 RMK AO2
94908KDBQ DBQ20050525074509405/25/05 07:45:31  5-MIN KDBQ 251345Z 14006KT 10SM CLR 14/08 A3010 910 64  1100 140/06 RMK AO2
94908KDBQ DBQ20050525075011105/25/05 07:50:31  5-MIN KDBQ 251350Z 16005KT 10SM CLR 14/08 A3010 910 64  1100 160/05 RMK AO2 SLP192 T01440078
94908KDBQ DBQ20050525075511105/25/05 07:55:31  5-MIN KDBQ 251355Z 15007KT 10SM CLR 14/07 A3010 920 61  1100 150/07 RMK AO2 SLP191 T01440072
94908KDBQ DBQ20050525080009405/25/05 08:00:31  5-MIN KDBQ 251400Z 16007KT 10SM CLR 15/08 A3010 920 62  1200 160/07 RMK AO2
94908KDBQ DBQ20050525080509405/25/05 08:05:31  5-MIN KDBQ 251405Z 14008KT 10SM CLR 15/08 A3009 920 62  1200 140/08 RMK AO2
94908KDBQ DBQ20050525081009405/25/05 08:10:31  5-MIN KDBQ 251410Z 16007KT 10SM CLR 15/08 A3009 920 62  1200 160/07 RMK AO2
94908KDBQ DBQ20050525081509405/25/05 08:15:31  5-MIN KDBQ 251415Z 14007KT 10SM CLR 16/08 A3009 920 59  1200 140/07 RMK AO2
94908KDBQ DBQ20050525082009405/25/05 08:20:31  5-MIN KDBQ 251420Z 15007KT 10SM CLR 16/08 A3009 920 59  1200 150/07 RMK AO2
94908KDBQ DBQ20050525082509405/25/05 08:25:31  5-MIN KDBQ 251425Z 14009KT 10SM CLR 16/08 A3009 930 59  1200 140/09 RMK AO2
94908KDBQ DBQ20050525083009405/25/05 08:30:31  5-MIN KDBQ 251430Z 15009KT 10SM CLR 16/08 A3009 930 59  1200 150/09 RMK AO2
94908KDBQ DBQ20050525083509405/25/05 08:35:31  5-MIN KDBQ 251435Z 16007KT 10SM CLR 16/08 A3009 930 59  1300 160/07 RMK AO2
94908KDBQ DBQ20050525084009405/25/05 08:40:31  5-MIN KDBQ 251440Z 15008KT 10SM CLR 16/08 A3008 930 59  1300 150/08 RMK AO2
94908KDBQ DBQ20050525084509405/25/05 08:45:31  5-MIN KDBQ 251445Z 16007KT 10SM CLR 16/08 A3008 930 59  1300 160/07 RMK AO2
94908KDBQ DBQ20050525085011705/25/05 08:50:31  5-MIN KDBQ 251450Z 14008KT 10SM CLR 16/08 A3008 930 59  1300 140/08 RMK AO2 SLP187 T01610083 53012
94908KDBQ DBQ20050525085511705/25/05 08:55:31  5-MIN KDBQ 251455Z 14009KT 10SM CLR 16/08 A3008 930 59  1300 140/09 RMK AO2 SLP186 T01610083 50002
94908KDBQ DBQ20050525090009405/25/05 09:00:31  5-MIN KDBQ 251500Z 13007KT 10SM CLR 16/08 A3008 930 57  1300 130/07 RMK AO2
94908KDBQ DBQ20050525090509405/25/05 09:05:31  5-MIN KDBQ 251505Z 15007KT 10SM CLR 17/08 A3008 930 57  1400 150/07 RMK AO2
94908KDBQ DBQ20050525091009405/25/05 09:10:31  5-MIN KDBQ 251510Z 15009KT 10SM CLR 17/08 A3008 930 57  1400 150/09 RMK AO2
94908KDBQ DBQ20050525091509405/25/05 09:15:31  5-MIN KDBQ 251515Z 17008KT 10SM CLR 17/08 A3008 930 55  1400 170/08 RMK AO2
94908KDBQ DBQ20050525092009405/25/05 09:20:31  5-MIN KDBQ 251520Z 18008KT 10SM CLR 17/08 A3008 930 57  1400 170/08 RMK AO2
94908KDBQ DBQ20050525092509405/25/05 09:25:31  5-MIN KDBQ 251525Z 18008KT 10SM CLR 17/08 A3008 930 55  1400 180/08 RMK AO2
94908KDBQ DBQ20050525093009405/25/05 09:30:31  5-MIN KDBQ 251530Z 17009KT 10SM CLR 17/08 A3009 920 55  1400 170/09 RMK AO2
94908KDBQ DBQ20050525093509405/25/05 09:35:31  5-MIN KDBQ 251535Z 17007KT 10SM CLR 17/08 A3009 920 55  1400 160/07 RMK AO2
94908KDBQ DBQ20050525094009405/25/05 09:40:31  5-MIN KDBQ 251540Z 17007KT 10SM CLR 17/08 A3009 930 55  1400 170/07 RMK AO2
94908KDBQ DBQ20050525094509405/25/05 09:45:31  5-MIN KDBQ 251545Z 17008KT 10SM CLR 17/08 A3009 920 55  1400 170/08 RMK AO2
94908KDBQ DBQ20050525095011105/25/05 09:50:31  5-MIN KDBQ 251550Z 16008KT 10SM CLR 17/08 A3009 920 55  1400 160/08 RMK AO2 SLP188 T01720083
94908KDBQ DBQ20050525095511105/25/05 09:55:31  5-MIN KDBQ 251555Z 18007KT 10SM CLR 17/08 A3009 920 53  1400 180/07 RMK AO2 SLP189 T01720078
94908KDBQ DBQ20050525100009405/25/05 10:00:31  5-MIN KDBQ 251600Z 19008KT 10SM CLR 17/08 A3009 920 55  1400 180/08 RMK AO2
94908KDBQ DBQ20050525100509405/25/05 10:05:31  5-MIN KDBQ 251605Z 17008KT 10SM CLR 17/08 A3009 920 55  1400 170/08 RMK AO2
94908KDBQ DBQ20050525101009405/25/05 10:10:31  5-MIN KDBQ 251610Z 16007KT 10SM CLR 17/08 A3009 920 53  1400 150/07 RMK AO2
94908KDBQ DBQ20050525101509405/25/05 10:15:31  5-MIN KDBQ 251615Z 17008KT 10SM CLR 17/08 A3009 920 53  1400 170/08 RMK AO2
94908KDBQ DBQ20050525102009405/25/05 10:20:31  5-MIN KDBQ 251620Z 18008KT 10SM CLR 18/08 A3009 920 53  1500 180/08 RMK AO2
94908KDBQ DBQ20050525102509405/25/05 10:25:31  5-MIN KDBQ 251625Z 15006KT 10SM CLR 18/08 A3009 920 53  1500 150/06 RMK AO2
94908KDBQ DBQ20050525103009405/25/05 10:30:31  5-MIN KDBQ 251630Z 17010KT 10SM CLR 18/08 A3009 920 53  1500 170/10 RMK AO2
94908KDBQ DBQ20050525103509405/25/05 10:35:31  5-MIN KDBQ 251635Z 18006KT 10SM CLR 18/08 A3009 930 53  1500 180/06 RMK AO2
94908KDBQ DBQ20050525104009405/25/05 10:40:31  5-MIN KDBQ 251640Z 19008KT 10SM CLR 18/08 A3009 920 53  1500 190/08 RMK AO2
94908KDBQ DBQ20050525104509405/25/05 10:45:31  5-MIN KDBQ 251645Z 19007KT 10SM CLR 18/09 A3009 920 55  1500 190/07 RMK AO2
94908KDBQ DBQ20050525105011105/25/05 10:50:31  5-MIN KDBQ 251650Z 19008KT 10SM CLR 18/09 A3009 920 54  1600 190/08 RMK AO2 SLP187 T01830089
94908KDBQ DBQ20050525105511105/25/05 10:55:31  5-MIN KDBQ 251655Z 15008KT 10SM CLR 18/09 A3009 920 54  1600 150/08 RMK AO2 SLP188 T01830089
94908KDBQ DBQ20050525110009405/25/05 11:00:31  5-MIN KDBQ 251700Z VRB05KT 10SM CLR 18/08 A3009 920 51  1500 VRB/05 RMK AO2
94908KDBQ DBQ20050525110509405/25/05 11:05:31  5-MIN KDBQ 251705Z VRB05KT 10SM CLR 18/08 A3009 920 52  1600 VRB/05 RMK AO2
94908KDBQ DBQ20050525111009405/25/05 11:10:31  5-MIN KDBQ 251710Z 20007KT 10SM CLR 18/09 A3009 920 56  1600 200/07 RMK AO2
94908KDBQ DBQ20050525111509405/25/05 11:15:31  5-MIN KDBQ 251715Z 17009KT 10SM CLR 18/09 A3008 930 54  1600 170/09 RMK AO2
94908KDBQ DBQ20050525112009405/25/05 11:20:31  5-MIN KDBQ 251720Z 16006KT 10SM CLR 18/08 A3008 930 52  1600 160/06 RMK AO2
94908KDBQ DBQ20050525112510005/25/05 11:25:31  5-MIN KDBQ 251725Z 19009G15KT 10SM CLR 18/08 A3008 930  52 1600 190/09G15 RMK AO2
94908KDBQ DBQ20050525113010005/25/05 11:30:31  5-MIN KDBQ 251730Z 16008G15KT 10SM CLR 18/08 A3008 930  52 1600 160/08G15 RMK AO2
94908KDBQ DBQ20050525113509405/25/05 11:35:31  5-MIN KDBQ 251735Z 19007KT 10SM CLR 18/09 A3008 930 54  1600 190/07 RMK AO2
94908KDBQ DBQ20050525114009405/25/05 11:40:31  5-MIN KDBQ 251740Z 17008KT 10SM CLR 18/09 A3008 930 54  1600 170/08 RMK AO2
94908KDBQ DBQ20050525114509405/25/05 11:45:31  5-MIN KDBQ 251745Z VRB05KT 10SM CLR 18/08 A3008 940 52  1600 VRB/05 RMK AO2
94908KDBQ DBQ20050525115012905/25/05 11:50:31  5-MIN KDBQ 251750Z 16008KT 10SM CLR 19/08 A3007 940 50  1600 160/08 RMK AO2 SLP183 T01890083 10189 20117 50002
94908KDBQ DBQ20050525115512905/25/05 11:55:31  5-MIN KDBQ 251755Z 13006KT 10SM CLR 19/08 A3007 940 50  1700 130/06 RMK AO2 SLP182 T01890083 10189 20117 58003
94908KDBQ DBQ20050525120009405/25/05 12:00:31  5-MIN KDBQ 251800Z 16006KT 10SM CLR 18/08 A3007 940 52  1600 160/06 RMK AO2
94908KDBQ DBQ20050525120509405/25/05 12:05:31  5-MIN KDBQ 251805Z 20006KT 10SM CLR 18/08 A3007 940 50  1600 200/06 RMK AO2
94908KDBQ DBQ20050525121009405/25/05 12:10:31  5-MIN KDBQ 251810Z 19006KT 10SM CLR 19/08 A3007 940 50  1700 180/06 RMK AO2
94908KDBQ DBQ20050525121509405/25/05 12:15:31  5-MIN KDBQ 251815Z 13006KT 10SM CLR 19/09 A3007 940 52  1700 130/06 RMK AO2
94908KDBQ DBQ20050525122009405/25/05 12:20:31  5-MIN KDBQ 251820Z VRB06KT 10SM CLR 19/09 A3006 950 52  1700 VRB/06 RMK AO2
94908KDBQ DBQ20050525122509705/25/05 12:25:31  5-MIN KDBQ 251825Z 15008KT 10SM FEW042 19/09 A3006 950  52 1700 150/08 RMK AO2
94908KDBQ DBQ20050525123009705/25/05 12:30:31  5-MIN KDBQ 251830Z 13007KT 10SM FEW042 19/08 A3006 950  50 1700 130/07 RMK AO2
94908KDBQ DBQ20050525123509705/25/05 12:35:31  5-MIN KDBQ 251835Z 16007KT 10SM FEW042 19/08 A3006 950  50 1700 160/07 RMK AO2
94908KDBQ DBQ20050525124009405/25/05 12:40:31  5-MIN KDBQ 251840Z 16009KT 10SM CLR 19/09 A3006 950 50  1700 150/09 RMK AO2
94908KDBQ DBQ20050525124509405/25/05 12:45:31  5-MIN KDBQ 251845Z 14006KT 10SM CLR 19/09 A3006 950 52  1700 140/06 RMK AO2
94908KDBQ DBQ20050525125011405/25/05 12:50:31  5-MIN KDBQ 251850Z VRB05KT 10SM FEW042 19/08 A3005 960  50 1700 VRB/05 RMK AO2 SLP176 T01890083
94908KDBQ DBQ20050525125511405/25/05 12:55:31  5-MIN KDBQ 251855Z 18009KT 10SM FEW044 19/09 A3005 960  52 1700 180/09 RMK AO2 SLP174 T01890089
94908KDBQ DBQ20050525130009705/25/05 13:00:31  5-MIN KDBQ 251900Z 12005KT 10SM FEW044 19/09 A3005 960  52 1700 120/05 RMK AO2
94908KDBQ DBQ20050525130509705/25/05 13:05:31  5-MIN KDBQ 251905Z 16009KT 10SM FEW044 19/09 A3005 960  52 1700 160/09 RMK AO2
94908KDBQ DBQ20050525131011305/25/05 13:10:31  5-MIN KDBQ 251910Z 15007KT 110V180 10SM FEW044 18/08  A3005 960 52 1600 150/07 110V180 RMK AO2
94908KDBQ DBQ20050525131509705/25/05 13:15:31  5-MIN KDBQ 251915Z 16007KT 10SM FEW044 19/09 A3004 960  52 1700 160/07 RMK AO2
94908KDBQ DBQ20050525132009705/25/05 13:20:31  5-MIN KDBQ 251920Z 15008KT 10SM FEW044 19/09 A3004 970  52 1700 150/08 RMK AO2
94908KDBQ DBQ20050525132509705/25/05 13:25:31  5-MIN KDBQ 251925Z 12007KT 10SM FEW044 19/08 A3004 970  50 1700 120/07 RMK AO2
94908KDBQ DBQ20050525133009405/25/05 13:30:31  5-MIN KDBQ 251930Z 17007KT 10SM CLR 19/09 A3003 970 52  1700 170/07 RMK AO2
94908KDBQ DBQ20050525133509405/25/05 13:35:31  5-MIN KDBQ 251935Z 15009KT 10SM CLR 19/09 A3003 980 50  1800 150/09 RMK AO2
94908KDBQ DBQ20050525134009405/25/05 13:40:31  5-MIN KDBQ 251940Z 16005KT 10SM CLR 19/09 A3003 980 52  1700 160/05 RMK AO2
94908KDBQ DBQ20050525134510905/25/05 13:45:31  5-MIN KDBQ 251945Z 14007KT 120V180 10SM CLR 19/09 A3003 980 52 1700 140/07 120V180 RMK AO2
94908KDBQ DBQ20050525135011105/25/05 13:50:31  5-MIN KDBQ 251950Z 16008KT 10SM CLR 19/09 A3003 980 50  1800 160/08 RMK AO2 SLP168 T01940089
94908KDBQ DBQ20050525135511105/25/05 13:55:31  5-MIN KDBQ 251955Z 12007KT 10SM CLR 19/09 A3003 980 52  1700 120/07 RMK AO2 SLP168 T01890089
94908KDBQ DBQ20050525140009405/25/05 14:00:31  5-MIN KDBQ 252000Z 14010KT 10SM CLR 19/09 A3002 980 50  1800 140/10 RMK AO2
94908KDBQ DBQ20050525140509405/25/05 14:05:31  5-MIN KDBQ 252005Z 12008KT 10SM CLR 19/09 A3002 980 50  1800 120/08 RMK AO2
94908KDBQ DBQ20050525141009405/25/05 14:10:31  5-MIN KDBQ 252010Z 14008KT 10SM CLR 19/09 A3002 980 50  1800 140/08 RMK AO2
94908KDBQ DBQ20050525141509405/25/05 14:15:31  5-MIN KDBQ 252015Z 15008KT 10SM CLR 19/09 A3002 990 50  1800 150/08 RMK AO2
94908KDBQ DBQ20050525142009405/25/05 14:20:31  5-MIN KDBQ 252020Z 11007KT 10SM CLR 19/09 A3002 990 50  1800 100/07 RMK AO2
94908KDBQ DBQ20050525142509405/25/05 14:25:31  5-MIN KDBQ 252025Z 11010KT 10SM CLR 19/08 A3002 990 48  1800 110/10 RMK AO2
94908KDBQ DBQ20050525143009405/25/05 14:30:31  5-MIN KDBQ 252030Z 13008KT 10SM CLR 19/08 A3001 990 48  1800 130/08 RMK AO2
94908KDBQ DBQ20050525143509405/25/05 14:35:31  5-MIN KDBQ 252035Z 14010KT 10SM CLR 19/08 A3001 1000 48 1800 140/10 RMK AO2
94908KDBQ DBQ20050525144009405/25/05 14:40:31  5-MIN KDBQ 252040Z 13009KT 10SM CLR 19/08 A3000 1000 46 1800 130/09 RMK AO2
94908KDBQ DBQ20050525144509405/25/05 14:45:31  5-MIN KDBQ 252045Z 14011KT 10SM CLR 19/08 A3000 1000 48 1800 140/11 RMK AO2
94908KDBQ DBQ20050525145011705/25/05 14:50:31  5-MIN KDBQ 252050Z 14008KT 10SM CLR 20/08 A3000 1000 46 1900 140/08 RMK AO2 SLP159 T02000083 58003
94908KDBQ DBQ20050525145511705/25/05 14:55:31  5-MIN KDBQ 252055Z 14008KT 10SM CLR 21/09 A3000 1000 46 1900 140/08 RMK AO2 SLP159 T02060089 57022
94908KDBQ DBQ20050525150009405/25/05 15:00:31  5-MIN KDBQ 252100Z 14009KT 10SM CLR 20/09 A3000 1000 48 1900 140/09 RMK AO2
94908KDBQ DBQ20050525150509405/25/05 15:05:31  5-MIN KDBQ 252105Z 15009KT 10SM CLR 20/09 A3001 1000 48 1900 140/09 RMK AO2
94908KDBQ DBQ20050525151009405/25/05 15:10:31  5-MIN KDBQ 252110Z 16009KT 10SM CLR 20/09 A3001 1000 48 1900 160/09 RMK AO2
94908KDBQ DBQ20050525151509405/25/05 15:15:31  5-MIN KDBQ 252115Z 17006KT 10SM CLR 20/09 A3000 1000 48 1900 170/06 RMK AO2
94908KDBQ DBQ20050525152009405/25/05 15:20:31  5-MIN KDBQ 252120Z 17010KT 10SM CLR 20/09 A3000 1000 50 1900 170/10 RMK AO2
94908KDBQ DBQ20050525152509405/25/05 15:25:31  5-MIN KDBQ 252125Z 20009KT 10SM CLR 20/09 A3000 1000 50 1900 200/09 RMK AO2
94908KDBQ DBQ20050525153009405/25/05 15:30:31  5-MIN KDBQ 252130Z 20007KT 10SM CLR 20/10 A3000 1010 52 1900 200/07 RMK AO2
94908KDBQ DBQ20050525153509405/25/05 15:35:31  5-MIN KDBQ 252135Z 17009KT 10SM CLR 21/09 A3000 1010 48 1900 170/09 RMK AO2
94908KDBQ DBQ20050525154009405/25/05 15:40:31  5-MIN KDBQ 252140Z 16008KT 10SM CLR 20/09 A3000 1010 48 1900 160/08 RMK AO2
94908KDBQ DBQ20050525154509405/25/05 15:45:31  5-MIN KDBQ 252145Z 15008KT 10SM CLR 19/09 A2999 1010 50 1800 140/08 RMK AO2
94908KDBQ DBQ20050525155011105/25/05 15:50:31  5-MIN KDBQ 252150Z 17010KT 10SM CLR 19/09 A2999 1010 52 1800 170/10 RMK AO2 SLP157 T01940094
94908KDBQ DBQ20050525155511105/25/05 15:55:31  5-MIN KDBQ 252155Z 18006KT 10SM CLR 19/09 A2999 1010 50 1800 180/06 RMK AO2 SLP156 T01940089
94908KDBQ DBQ20050525160009405/25/05 16:00:31  5-MIN KDBQ 252200Z 17007KT 10SM CLR 19/09 A2999 1020 52 1800 170/07 RMK AO2
94908KDBQ DBQ20050525160509405/25/05 16:05:31  5-MIN KDBQ 252205Z 18008KT 10SM CLR 20/09 A2998 1020 50 1900 180/08 RMK AO2
94908KDBQ DBQ20050525161009405/25/05 16:10:31  5-MIN KDBQ 252210Z 17008KT 10SM CLR 20/09 A2998 1020 50 1900 170/08 RMK AO2
94908KDBQ DBQ20050525161509405/25/05 16:15:31  5-MIN KDBQ 252215Z 17009KT 10SM CLR 21/10 A2998 1020 50 1900 170/09 RMK AO2
94908KDBQ DBQ20050525162009405/25/05 16:20:31  5-MIN KDBQ 252220Z 17008KT 10SM CLR 21/09 A2998 1020 48 1900 170/08 RMK AO2
94908KDBQ DBQ20050525162509405/25/05 16:25:31  5-MIN KDBQ 252225Z 18009KT 10SM CLR 21/09 A2998 1020 46 1900 180/09 RMK AO2
94908KDBQ DBQ20050525163009405/25/05 16:30:31  5-MIN KDBQ 252230Z 19008KT 10SM CLR 21/10 A2998 1020 48 2000 190/08 RMK AO2
94908KDBQ DBQ20050525163509405/25/05 16:35:31  5-MIN KDBQ 252235Z VRB06KT 10SM CLR 21/10 A2998 1020 50 1900 VRB/06 RMK AO2
94908KDBQ DBQ20050525164009405/25/05 16:40:31  5-MIN KDBQ 252240Z 18008KT 10SM CLR 20/09 A2998 1020 50 1900 180/08 RMK AO2
94908KDBQ DBQ20050525164509405/25/05 16:45:31  5-MIN KDBQ 252245Z 17008KT 10SM CLR 21/09 A2998 1020 48 1900 170/08 RMK AO2
94908KDBQ DBQ20050525165011105/25/05 16:50:31  5-MIN KDBQ 252250Z 19007KT 10SM CLR 20/09 A2998 1020 50 1900 180/07 RMK AO2 SLP151 T02000094
94908KDBQ DBQ20050525165511105/25/05 16:55:31  5-MIN KDBQ 252255Z 14007KT 10SM CLR 21/09 A2998 1020 48 1900 140/07 RMK AO2 SLP151 T02060094
94908KDBQ DBQ20050525170009405/25/05 17:00:31  5-MIN KDBQ 252300Z 16006KT 10SM CLR 20/09 A2998 1030 48 1900 160/06 RMK AO2
94908KDBQ DBQ20050525170509405/25/05 17:05:31  5-MIN KDBQ 252305Z 17008KT 10SM CLR 20/09 A2997 1030 48 1900 170/08 RMK AO2
94908KDBQ DBQ20050525171009405/25/05 17:10:31  5-MIN KDBQ 252310Z 16007KT 10SM CLR 20/09 A2997 1030 50 1900 160/07 RMK AO2
94908KDBQ DBQ20050525171509405/25/05 17:15:31  5-MIN KDBQ 252315Z 17006KT 10SM CLR 20/09 A2997 1030 50 1900 170/06 RMK AO2
94908KDBQ DBQ20050525172009405/25/05 17:20:31  5-MIN KDBQ 252320Z 17006KT 10SM CLR 20/09 A2997 1040 50 1900 170/06 RMK AO2
94908KDBQ DBQ20050525172509405/25/05 17:25:31  5-MIN KDBQ 252325Z 17008KT 10SM CLR 20/09 A2996 1040 50 1900 170/08 RMK AO2
94908KDBQ DBQ20050525173009405/25/05 17:30:31  5-MIN KDBQ 252330Z 16007KT 10SM CLR 20/09 A2996 1040 50 1900 160/07 RMK AO2
94908KDBQ DBQ20050525173509405/25/05 17:35:31  5-MIN KDBQ 252335Z 15008KT 10SM CLR 21/10 A2996 1040 50 2000 150/08 RMK AO2
94908KDBQ DBQ20050525174009405/25/05 17:40:31  5-MIN KDBQ 252340Z 15008KT 10SM CLR 21/09 A2996 1050 48 2000 150/08 RMK AO2
94908KDBQ DBQ20050525174509405/25/05 17:45:31  5-MIN KDBQ 252345Z 15009KT 10SM CLR 21/09 A2995 1050 48 2000 150/09 RMK AO2
94908KDBQ DBQ20050525175012905/25/05 17:50:31  5-MIN KDBQ 252350Z 15008KT 10SM CLR 21/09 A2996 1050 48 2000 150/08 RMK AO2 SLP143 T02060094 10211 20183 57022
94908KDBQ DBQ20050525175512905/25/05 17:55:31  5-MIN KDBQ 252355Z 16011KT 10SM CLR 21/09 A2996 1050 46 2000 160/11 RMK AO2 SLP143 T02060089 10211 20183 58016
94908KDBQ DBQ20050525180009405/25/05 18:00:31  5-MIN KDBQ 260000Z 14010KT 10SM CLR 20/09 A2995 1050 50 1900 140/10 RMK AO2
94908KDBQ DBQ20050525180509405/25/05 18:05:31  5-MIN KDBQ 260005Z 15010KT 10SM CLR 20/09 A2995 1050 50 1900 150/10 RMK AO2
94908KDBQ DBQ20050525181009405/25/05 18:10:31  5-MIN KDBQ 260010Z 16007KT 10SM CLR 20/09 A2995 1050 50 1900 150/07 RMK AO2
94908KDBQ DBQ20050525181509405/25/05 18:15:31  5-MIN KDBQ 260015Z 15008KT 10SM CLR 20/09 A2995 1050 50 1900 150/08 RMK AO2
94908KDBQ DBQ20050525182009405/25/05 18:20:31  5-MIN KDBQ 260020Z 15007KT 10SM CLR 20/09 A2996 1050 50 1900 150/07 RMK AO2
94908KDBQ DBQ20050525182509405/25/05 18:25:31  5-MIN KDBQ 260025Z 16007KT 10SM CLR 19/10 A2995 1050 54 1800 150/07 RMK AO2
94908KDBQ DBQ20050525183009405/25/05 18:30:31  5-MIN KDBQ 260030Z 16007KT 10SM CLR 19/10 A2995 1050 54 1800 160/07 RMK AO2
94908KDBQ DBQ20050525183509705/25/05 18:35:31  5-MIN KDBQ 260035Z 16007KT 10SM FEW110 19/10 A2995 1050 54 1800 160/07 RMK AO2
94908KDBQ DBQ20050525184009705/25/05 18:40:31  5-MIN KDBQ 260040Z 17007KT 10SM FEW110 19/10 A2995 1050 54 1800 170/07 RMK AO2
94908KDBQ DBQ20050525184509705/25/05 18:45:31  5-MIN KDBQ 260045Z 17006KT 10SM SCT110 19/11 A2995 1050 56 1800 170/06 RMK AO2
94908KDBQ DBQ20050525185011405/25/05 18:50:31  5-MIN KDBQ 260050Z 17006KT 10SM BKN100 19/11 A2995 1050 56 1900 170/06 RMK AO2 SLP141 T01940106
94908KDBQ DBQ20050525185512405/25/05 18:55:31  5-MIN KDBQ 260055Z AUTO 17006KT 10SM BKN100 19/11 A2995 1050 56 1800 170/06 RMK AO2 SLP141 T01940106 TSNO
94908KDBQ DBQ20050525190010705/25/05 19:00:31  5-MIN KDBQ 260100Z AUTO 17006KT 10SM BKN110 19/11 A2995 1050 58 1800 160/06 RMK AO2 TSNO
94908KDBQ DBQ20050525190510705/25/05 19:05:31  5-MIN KDBQ 260105Z AUTO 17007KT 10SM BKN110 19/11 A2995 1050 58 1800 160/07 RMK AO2 TSNO
94908KDBQ DBQ20050525191011405/25/05 19:10:31  5-MIN KDBQ 260110Z AUTO 17007KT 10SM BKN100 OVC110 19/10 A2994 1060 56 1800 160/07 RMK AO2 TSNO
94908KDBQ DBQ20050525191511405/25/05 19:15:31  5-MIN KDBQ 260115Z AUTO 17006KT 10SM BKN095 OVC110 19/10 A2995 1050 56 1800 170/06 RMK AO2 TSNO
94908KDBQ DBQ20050525192011405/25/05 19:20:31  5-MIN KDBQ 260120Z AUTO 16006KT 10SM SCT090 OVC110 19/11 A2994 1060 58 1800 160/06 RMK AO2 TSNO
94908KDBQ DBQ20050525192511405/25/05 19:25:31  5-MIN KDBQ 260125Z AUTO 16006KT 10SM SCT090 OVC110 19/11 A2994 1060 58 1800 160/06 RMK AO2 TSNO
94908KDBQ DBQ20050525193011405/25/05 19:30:31  5-MIN KDBQ 260130Z AUTO 17006KT 10SM SCT090 OVC110 18/11 A2994 1060 60 1700 170/06 RMK AO2 TSNO
94908KDBQ DBQ20050525193510705/25/05 19:35:31  5-MIN KDBQ 260135Z AUTO 17006KT 10SM OVC100 18/11 A2994 1060 60 1700 170/06 RMK AO2 TSNO
94908KDBQ DBQ20050525194011405/25/05 19:40:31  5-MIN KDBQ 260140Z AUTO 17006KT 10SM SCT090 OVC100 18/11 A2994 1060 60 1700 170/06 RMK AO2 TSNO
94908KDBQ DBQ20050525194511405/25/05 19:45:31  5-MIN KDBQ 260145Z AUTO 16006KT 10SM FEW090 OVC100 18/11 A2994 1060 60 1700 160/06 RMK AO2 TSNO
94908KDBQ DBQ20050525195012405/25/05 19:50:31  5-MIN KDBQ 260150Z AUTO 16006KT 10SM OVC100 18/11 A2995 1050 62 1700 160/06 RMK AO2 SLP140 T01780106 TSNO
94908KDBQ DBQ20050525195512405/25/05 19:55:31  5-MIN KDBQ 260155Z AUTO 16007KT 10SM OVC100 18/11 A2993 1070 62 1700 150/07 RMK AO2 SLP134 T01780106 TSNO
94908KDBQ DBQ20050525200010705/25/05 20:00:31  5-MIN KDBQ 260200Z AUTO 15008KT 10SM OVC100 18/11 A2993 1070 62 1700 150/08 RMK AO2 TSNO
94908KDBQ DBQ20050525200510705/25/05 20:05:31  5-MIN KDBQ 260205Z AUTO 17007KT 10SM OVC100 18/11 A2994 1060 62 1700 160/07 RMK AO2 TSNO
94908KDBQ DBQ20050525201010705/25/05 20:10:31  5-MIN KDBQ 260210Z AUTO 17007KT 10SM OVC110 18/11 A2993 1070 62 1700 170/07 RMK AO2 TSNO
94908KDBQ DBQ20050525201511405/25/05 20:15:31  5-MIN KDBQ 260215Z AUTO 17006KT 10SM SCT080 OVC110 17/11 A2994 1060 64 1600 170/06 RMK AO2 TSNO
94908KDBQ DBQ20050525202011405/25/05 20:20:31  5-MIN KDBQ 260220Z AUTO 17007KT 10SM BKN075 OVC110 18/11 A2994 1060 62 1700 170/07 RMK AO2 TSNO
94908KDBQ DBQ20050525202511405/25/05 20:25:31  5-MIN KDBQ 260225Z AUTO 19006KT 10SM BKN075 OVC110 17/11 A2994 1060 64 1600 190/06 RMK AO2 TSNO
94908KDBQ DBQ20050525203011405/25/05 20:30:31  5-MIN KDBQ 260230Z AUTO 21004KT 10SM BKN070 OVC110 17/11 A2994 1060 67 1600 210/04 RMK AO2 TSNO
94908KDBQ DBQ20050525203510705/25/05 20:35:31  5-MIN KDBQ 260235Z AUTO 19005KT 10SM OVC070 17/11 A2994 1060 67 1600 190/05 RMK AO2 TSNO
94908KDBQ DBQ20050525204010705/25/05 20:40:31  5-MIN KDBQ 260240Z AUTO 19007KT 10SM OVC070 17/11 A2994 1060 64 1600 190/07 RMK AO2 TSNO
94908KDBQ DBQ20050525204510705/25/05 20:45:31  5-MIN KDBQ 260245Z AUTO 19007KT 10SM OVC070 18/11 A2995 1050 62 1700 190/07 RMK AO2 TSNO
94908KDBQ DBQ20050525205013005/25/05 20:50:31  5-MIN KDBQ 260250Z AUTO 19007KT 10SM OVC070 17/11 A2996 1050 64 1600 180/07 RMK AO2 SLP142 T01720106 58016 TSNO
94908KDBQ DBQ20050525205513005/25/05 20:55:31  5-MIN KDBQ 260255Z AUTO 18007KT 10SM OVC070 18/10 A2994 1060 60 1700 180/07 RMK AO2 SLP138 T01780100 55003 TSNO
94908KDBQ DBQ20050525210010705/25/05 21:00:31  5-MIN KDBQ 260300Z AUTO 18008KT 10SM OVC070 18/10 A2994 1060 60 1700 180/08 RMK AO2 TSNO
94908KDBQ DBQ20050525210510705/25/05 21:05:31  5-MIN KDBQ 260305Z AUTO 18008KT 10SM OVC070 18/10 A2994 1060 60 1700 180/08 RMK AO2 TSNO
94908KDBQ DBQ20050525211011405/25/05 21:10:31  5-MIN KDBQ 260310Z AUTO 19008KT 10SM BKN070 OVC095 18/10 A2996 1040 60 1700 180/08 RMK AO2 TSNO
94908KDBQ DBQ20050525211511405/25/05 21:15:31  5-MIN KDBQ 260315Z AUTO 18007KT 10SM BKN070 OVC095 18/10 A2994 1060 60 1700 180/07 RMK AO2 TSNO
94908KDBQ DBQ20050525212010705/25/05 21:20:31  5-MIN KDBQ 260320Z AUTO 17006KT 10SM OVC070 18/10 A2994 1060 60 1700 170/06 RMK AO2 TSNO
94908KDBQ DBQ20050525212510705/25/05 21:25:31  5-MIN KDBQ 260325Z AUTO 18008KT 10SM OVC070 17/11 A2994 1060 64 1600 180/08 RMK AO2 TSNO
94908KDBQ DBQ20050525213010705/25/05 21:30:31  5-MIN KDBQ 260330Z AUTO 19008KT 10SM OVC070 18/10 A2995 1050 60 1700 190/08 RMK AO2 TSNO
94908KDBQ DBQ20050525213510705/25/05 21:35:31  5-MIN KDBQ 260335Z AUTO 19008KT 10SM OVC065 18/10 A2994 1060 60 1700 190/08 RMK AO2 TSNO
94908KDBQ DBQ20050525214010705/25/05 21:40:31  5-MIN KDBQ 260340Z AUTO 19009KT 10SM OVC065 18/10 A2994 1060 60 1700 180/09 RMK AO2 TSNO
94908KDBQ DBQ20050525214510705/25/05 21:45:31  5-MIN KDBQ 260345Z AUTO 19008KT 10SM OVC065 18/10 A2994 1060 60 1700 190/08 RMK AO2 TSNO
94908KDBQ DBQ20050525215012405/25/05 21:50:31  5-MIN KDBQ 260350Z AUTO 20007KT 10SM OVC065 17/11 A2995 1050 64 1600 200/07 RMK AO2 SLP141 T01720106 TSNO
94908KDBQ DBQ20050525215512405/25/05 21:55:31  5-MIN KDBQ 260355Z AUTO 20007KT 10SM OVC065 17/10 A2994 1060 62 1600 200/07 RMK AO2 SLP137 T01720100 TSNO
94908KDBQ DBQ20050525220010705/25/05 22:00:31  5-MIN KDBQ 260400Z AUTO 19007KT 10SM OVC060 17/10 A2994 1060 62 1600 190/07 RMK AO2 TSNO
94908KDBQ DBQ20050525220510705/25/05 22:05:31  5-MIN KDBQ 260405Z AUTO 20008KT 10SM OVC060 17/10 A2994 1060 62 1600 190/08 RMK AO2 TSNO
94908KDBQ DBQ20050525221010705/25/05 22:10:31  5-MIN KDBQ 260410Z AUTO 19008KT 10SM OVC060 17/10 A2993 1070 62 1600 190/08 RMK AO2 TSNO
94908KDBQ DBQ20050525221510705/25/05 22:15:31  5-MIN KDBQ 260415Z AUTO 19009KT 10SM OVC060 18/10 A2993 1070 60 1700 190/09 RMK AO2 TSNO
94908KDBQ DBQ20050525222010705/25/05 22:20:31  5-MIN KDBQ 260420Z AUTO 19009KT 10SM OVC060 18/10 A2993 1070 60 1700 190/09 RMK AO2 TSNO
94908KDBQ DBQ20050525222512405/25/05 22:25:31  5-MIN KDBQ 260425Z AUTO 19008KT 10SM -RA OVC060 17/11  A2994 1060 64 1600 190/08 RMK AO2 RAB22 P0000 TSNO
94908KDBQ DBQ20050525223012405/25/05 22:30:31  5-MIN KDBQ 260430Z AUTO 18009KT 10SM -RA OVC060 17/11  A2993 1070 64 1600 180/09 RMK AO2 RAB22 P0000 TSNO
94908KDBQ DBQ20050525223512205/25/05 22:35:31  5-MIN KDBQ 260435Z AUTO 18009KT 10SM OVC060 17/10 A2993 1070 62 1600 180/09 RMK AO2 RAB22E32 P0000 TSNO
94908KDBQ DBQ20050525224012205/25/05 22:40:31  5-MIN KDBQ 260440Z AUTO 19010KT 10SM OVC060 17/10 A2993 1070 62 1600 190/10 RMK AO2 RAB22E32 P0000 TSNO
94908KDBQ DBQ20050525224512205/25/05 22:45:31  5-MIN KDBQ 260445Z AUTO 19009KT 10SM OVC055 17/10 A2993 1070 62 1600 190/09 RMK AO2 RAB22E32 P0000 TSNO
94908KDBQ DBQ20050525225013905/25/05 22:50:31  5-MIN KDBQ 260450Z AUTO 19008KT 10SM OVC060 17/10 A2993 1070 62 1600 190/08 RMK AO2 RAB22E32 SLP132 P0000 T01720100 TSNO
94908KDBQ DBQ20050525225513905/25/05 22:55:31  5-MIN KDBQ 260455Z AUTO 19008KT 10SM OVC055 17/10 A2993 1070 62 1600 190/08 RMK AO2 RAB22E32 SLP131 P0000 T01720100 TSNO
94908KDBQ DBQ20050525230011405/25/05 23:00:31  5-MIN KDBQ 260500Z AUTO 19008KT 10SM BKN060 OVC070 17/10 A2993 1070 62 1600 190/08 RMK AO2 TSNO
94908KDBQ DBQ20050525230511405/25/05 23:05:31  5-MIN KDBQ 260505Z AUTO 20008KT 10SM BKN060 OVC070 17/10 A2993 1070 62 1600 200/08 RMK AO2 TSNO
94908KDBQ DBQ20050525231010705/25/05 23:10:31  5-MIN KDBQ 260510Z AUTO 20008KT 10SM OVC055 17/11 A2993 1070 64 1600 200/08 RMK AO2 TSNO
94908KDBQ DBQ20050525231511405/25/05 23:15:31  5-MIN KDBQ 260515Z AUTO 21007KT 10SM BKN050 OVC070 17/11 A2992 1080 67 1600 210/07 RMK AO2 TSNO
94908KDBQ DBQ20050525232011405/25/05 23:20:31  5-MIN KDBQ 260520Z AUTO 21007KT 10SM BKN050 OVC070 17/11 A2992 1080 67 1600 210/07 RMK AO2 TSNO
94908KDBQ DBQ20050525232511405/25/05 23:25:31  5-MIN KDBQ 260525Z AUTO 21008KT 10SM BKN050 OVC070 17/11 A2992 1080 67 1600 210/08 RMK AO2 TSNO
94908KDBQ DBQ20050525233011405/25/05 23:30:31  5-MIN KDBQ 260530Z AUTO 21008KT 10SM BKN050 OVC075 17/11 A2992 1080 67 1600 210/08 RMK AO2 TSNO
94908KDBQ DBQ20050525233511405/25/05 23:35:31  5-MIN KDBQ 260535Z AUTO 21009KT 10SM BKN050 OVC075 17/11 A2992 1080 67 1600 210/09 RMK AO2 TSNO
94908KDBQ DBQ20050525234011405/25/05 23:40:31  5-MIN KDBQ 260540Z AUTO 22009KT 10SM BKN050 OVC075 17/10 A2992 1070 62 1600 220/09 RMK AO2 TSNO
94908KDBQ DBQ20050525234511405/25/05 23:45:31  5-MIN KDBQ 260545Z AUTO 23008KT 10SM BKN050 OVC070 17/11 A2993 1070 67 1600 230/08 RMK AO2 TSNO
94908KDBQ DBQ20050525235016605/25/05 23:50:31  5-MIN KDBQ 260550Z AUTO 23009KT 10SM BKN055 OVC070 17/11 A2993 1070 67 1600 230/09 RMK AO2 SLP131 60000 T01670106 10206 20167  402110089 55003 TSNO
94908KDBQ DBQ20050525235516605/25/05 23:55:31  5-MIN KDBQ 260555Z AUTO 23008KT 10SM BKN055 OVC070 17/11 A2993 1070 67 1600 230/08 RMK AO2 SLP131 60000 T01670106 10206 20167  402110089 56006 TSNO
94908KDBQ DBQ20050526000010705/26/05 00:00:38  5-MIN KDBQ 260600Z AUTO 23009KT 10SM OVC055 17/11 A2993 1070 67 1600 230/09 RMK AO2 TSNO
94908KDBQ DBQ20050526000511405/26/05 00:05:31  5-MIN KDBQ 260605Z AUTO 24008KT 10SM BKN055 OVC070 17/11 A2993 1070 67 1600 240/08 RMK AO2 TSNO
94908KDBQ DBQ20050526001012105/26/05 00:10:31  5-MIN KDBQ 260610Z AUTO 26012G18KT 10SM BKN055 OVC070  17/11 A2993 1070 64 1600 250/12G18 RMK AO2 TSNO
94908KDBQ DBQ20050526001511405/26/05 00:15:31  5-MIN KDBQ 260615Z AUTO 29013G18KT 10SM OVC055 17/12  A2994 1060 72 1500 290/13G18 RMK AO2 TSNO
94908KDBQ DBQ20050526002010705/26/05 00:20:31  5-MIN KDBQ 260620Z AUTO 29013KT 10SM OVC050 17/12 A2994 1060 75 1500 290/13 RMK AO2 TSNO
94908KDBQ DBQ20050526002511805/26/05 00:25:31  5-MIN KDBQ 260625Z AUTO 29013KT 10SM OVC050 16/13 A2994 1060 80 1500 290/13 RMK AO2 WSHFT 0608 TSNO
94908KDBQ DBQ20050526003011805/26/05 00:30:31  5-MIN KDBQ 260630Z AUTO 30010KT 10SM OVC050 16/13 A2994 1060 80 1500 300/10 RMK AO2 WSHFT 0608 TSNO
94908KDBQ DBQ20050526003511805/26/05 00:35:31  5-MIN KDBQ 260635Z AUTO 30011KT 10SM OVC050 16/13 A2994 1060 80 1500 300/11 RMK AO2 WSHFT 0608 TSNO
94908KDBQ DBQ20050526004011805/26/05 00:40:31  5-MIN KDBQ 260640Z AUTO 30012KT 10SM OVC050 16/13 A2995 1050 80 1500 290/12 RMK AO2 WSHFT 0608 TSNO
94908KDBQ DBQ20050526004512505/26/05 00:45:31  5-MIN KDBQ 260645Z AUTO 31011KT 10SM FEW015 OVC050 16/13 A2994 1060 80 1500 310/11 RMK AO2 WSHFT 0608 TSNO
94908KDBQ DBQ20050526005015005/26/05 00:50:31  5-MIN KDBQ 260650Z AUTO 30014KT 10SM SCT015 SCT022  OVC050 16/13 A2994 1060 83 1400 300/14 RMK AO2 WSHFT 0608 SLP138 T01560128 TSNO
94908KDBQ DBQ20050526005514205/26/05 00:55:31  5-MIN KDBQ 260655Z AUTO 30017KT 10SM BKN015 OVC050 15/12 A2995 1050 83 1300 300/17 RMK AO2 WSHFT 0608 SLP139 T01500122 TSNO
94908KDBQ DBQ20050526010011405/26/05 01:00:31  5-MIN KDBQ 260700Z AUTO 30015KT 10SM BKN017 OVC050 14/12 A2995 1050 83 1300 300/15 RMK AO2 TSNO
94908KDBQ DBQ20050526010512005/26/05 01:05:31  5-MIN KDBQ 260705Z AUTO 30014KT 8SM FEW010 BKN017 OVC050 14/12 A2995 1050 90 1200 300/14 RMK AO2 TSNO
94908KDBQ DBQ20050526011013205/26/05 01:10:31  5-MIN KDBQ 260710Z AUTO 31011KT 4SM -RA BR SCT010 OVC017 14/12 A2995 1050 90 1200 310/11 RMK AO2 RAB06 P0000 TSNO
94908KDBQ DBQ20050526011513905/26/05 01:15:31  5-MIN KDBQ 260715Z AUTO 31012KT 3SM -RA BR FEW007 BKN013 OVC017 13/12 A2996 1050 93 1100 310/12 RMK AO2 RAB06 P0000 TSNO
94908KDBQ DBQ20050526012014405/26/05 01:20:31  5-MIN KDBQ 260720Z AUTO 31010KT 3SM -RA BR BKN007 OVC017 13/12 A2995 1050 93 1100 310/10 RMK AO2 RAB06 CIG 006V011 P0001 TSNO
94908KDBQ DBQ20050526012514405/26/05 01:25:31  5-MIN KDBQ 260725Z AUTO 32011KT 4SM -RA BR BKN009 OVC017 13/12 A2995 1050 93 1100 320/11 RMK AO2 RAB06 CIG 005V011 P0001 TSNO
94908KDBQ DBQ20050526013013705/26/05 01:30:31  5-MIN KDBQ 260730Z AUTO 32011KT 7SM -RA SCT009 BKN012  OVC039 13/12 A2996 1050 89 1100 320/11 RMK AO2 RAB06 P0001 TSNO
94908KDBQ DBQ20050526013513705/26/05 01:35:31  5-MIN KDBQ 260735Z AUTO 33010KT 10SM SCT009 BKN020  OVC039 13/11 A2996 1040 89 1100 330/10 RMK AO2 RAB06E31 P0001 TSNO
94908KDBQ DBQ20050526014013705/26/05 01:40:31  5-MIN KDBQ 260740Z AUTO 32012KT 10SM SCT007 SCT017  OVC039 13/11 A2996 1040 86 1100 320/12 RMK AO2 RAB06E31 P0001 TSNO
94908KDBQ DBQ20050526014513705/26/05 01:45:31  5-MIN KDBQ 260745Z AUTO 32012KT 10SM FEW007 SCT027  OVC037 13/11 A2996 1040 86 1100 320/12 RMK AO2 RAB06E31 P0001 TSNO
94908KDBQ DBQ20050526015015505/26/05 01:50:31  5-MIN KDBQ 260750Z AUTO 32009KT 10SM FEW007 SCT027  OVC037 13/11 A2996 1040 86 1100 320/09 RMK AO2 RAB06E31 SLP143 P0001  T01280106 TSNO
94908KDBQ DBQ20050526015515505/26/05 01:55:31  5-MIN KDBQ 260755Z AUTO 32010KT 10SM SCT029 BKN037  OVC050 13/11 A2996 1050 86 1100 320/10 RMK AO2 RAB06E31 SLP143 P0001  T01280106 TSNO
94908KDBQ DBQ20050526020012205/26/05 02:00:31  5-MIN KDBQ 260800Z AUTO 32011KT 10SM SCT029 BKN039  OVC070 12/10 A2996 1040 86 1000 320/11 RMK AO2 TSNO
94908KDBQ DBQ20050526020512205/26/05 02:05:31  5-MIN KDBQ 260805Z AUTO 32010KT 10SM FEW029 BKN037  OVC070 12/10 A2996 1040 86 1000 320/10 RMK AO2 TSNO
94908KDBQ DBQ20050526021012205/26/05 02:10:31  5-MIN KDBQ 260810Z AUTO 33010KT 10SM FEW027 BKN050  OVC080 12/10 A2996 1040 86 1000 320/10 RMK AO2 TSNO
94908KDBQ DBQ20050526021512205/26/05 02:15:31  5-MIN KDBQ 260815Z AUTO 32012KT 10SM FEW032 BKN080  OVC090 12/09 A2996 1040 83 1000 320/12 RMK AO2 TSNO
94908KDBQ DBQ20050526022011305/26/05 02:20:31  5-MIN KDBQ 260820Z AUTO 32014KT 10SM FEW055 OVC085 12/09 A2996 1040 86 900 320/14 RMK AO2 TSNO
94908KDBQ DBQ20050526022511305/26/05 02:25:31  5-MIN KDBQ 260825Z AUTO 32016G21KT 10SM BKN085 12/09  A2996 1040 83 900 320/16G21 RMK AO2 TSNO
94908KDBQ DBQ20050526023011305/26/05 02:30:31  5-MIN KDBQ 260830Z AUTO 33015G21KT 10SM BKN090 12/09  A2996 1040 83 900 320/15G21 RMK AO2 TSNO
94908KDBQ DBQ20050526023510605/26/05 02:35:31  5-MIN KDBQ 260835Z AUTO 33012KT 10SM BKN090 12/09 A2997 1040 83 900 330/12 RMK AO2 TSNO
94908KDBQ DBQ20050526024010605/26/05 02:40:31  5-MIN KDBQ 260840Z AUTO 33013KT 10SM BKN090 11/09 A2997 1030 86 900 330/13 RMK AO2 TSNO
94908KDBQ DBQ20050526024510605/26/05 02:45:31  5-MIN KDBQ 260845Z AUTO 33013KT 10SM SCT090 11/09 A2997 1030 86 900 330/13 RMK AO2 TSNO
94908KDBQ DBQ20050526025013505/26/05 02:50:31  5-MIN KDBQ 260850Z AUTO 33013KT 10SM FEW090 11/08 A2997 1030 83 900 330/13 RMK AO2 SLP148 60001 T01110083 56006 TSNO
94908KDBQ DBQ20050526025513505/26/05 02:55:31  5-MIN KDBQ 260855Z AUTO 33015KT 10SM FEW095 11/08 A2997 1030 83 900 330/15 RMK AO2 SLP148 60001 T01110083 51014 TSNO
94908KDBQ DBQ20050526030010405/26/05 03:00:31  5-MIN KDBQ 260900Z AUTO 32013KT 10SM CLR 11/08 A2997  1030 86 800 320/13 RMK AO2 TSNO
94908KDBQ DBQ20050526030510405/26/05 03:05:31  5-MIN KDBQ 260905Z AUTO 32014KT 10SM CLR 11/08 A2997  1030 86 800 320/14 RMK AO2 TSNO
94908KDBQ DBQ20050526031010405/26/05 03:10:31  5-MIN KDBQ 260910Z AUTO 33015KT 10SM CLR 11/08 A2997  1030 86 800 320/15 RMK AO2 TSNO
94908KDBQ DBQ20050526031510405/26/05 03:15:31  5-MIN KDBQ 260915Z AUTO 32014KT 10SM CLR 11/08 A2997  1030 86 800 320/14 RMK AO2 TSNO
94908KDBQ DBQ20050526032010405/26/05 03:20:31  5-MIN KDBQ 260920Z AUTO 33014KT 10SM CLR 11/08 A2997  1030 86 800 320/14 RMK AO2 TSNO
94908KDBQ DBQ20050526032510405/26/05 03:25:31  5-MIN KDBQ 260925Z AUTO 33011KT 10SM CLR 11/08 A2997  1030 86 800 320/11 RMK AO2 TSNO
94908KDBQ DBQ20050526033010405/26/05 03:30:31  5-MIN KDBQ 260930Z AUTO 33011KT 10SM CLR 10/08 A2997  1030 89 700 330/11 RMK AO2 TSNO
94908KDBQ DBQ20050526033510405/26/05 03:35:31  5-MIN KDBQ 260935Z AUTO 33014KT 10SM CLR 11/08 A2997  1030 86 800 330/14 RMK AO2 TSNO
94908KDBQ DBQ20050526034010405/26/05 03:40:31  5-MIN KDBQ 260940Z AUTO 32011KT 10SM CLR 10/08 A2997  1030 89 700 320/11 RMK AO2 TSNO
94908KDBQ DBQ20050526034510405/26/05 03:45:31  5-MIN KDBQ 260945Z AUTO 32012KT 10SM CLR 10/08 A2997  1030 89 700 320/12 RMK AO2 TSNO
94908KDBQ DBQ20050526035012105/26/05 03:50:31  5-MIN KDBQ 260950Z AUTO 32014KT 10SM CLR 10/08 A2997  1030 89 700 320/14 RMK AO2 SLP150 T01000083 TSNO
94908KDBQ DBQ20050526035512105/26/05 03:55:31  5-MIN KDBQ 260955Z AUTO 33013KT 10SM CLR 10/08 A2998  1030 89 700 320/13 RMK AO2 SLP151 T01000083 TSNO
94908KDBQ DBQ20050526040010405/26/05 04:00:31  5-MIN KDBQ 261000Z AUTO 32012KT 10SM CLR 10/08 A2998  1020 86 700 320/12 RMK AO2 TSNO
94908KDBQ DBQ20050526040510405/26/05 04:05:31  5-MIN KDBQ 261005Z AUTO 32014KT 10SM CLR 10/08 A2999  1010 86 700 320/14 RMK AO2 TSNO
94908KDBQ DBQ20050526041010405/26/05 04:10:31  5-MIN KDBQ 261010Z AUTO 32014KT 10SM CLR 10/08 A2999  1010 86 700 320/14 RMK AO2 TSNO
94908KDBQ DBQ20050526041510905/26/05 04:15:31  5-MIN KDBQ 261015Z AUTO 32011G19KT 10SM CLR 10/08 A2999 1010 86 700 320/11G19 RMK AO2 TSNO
94908KDBQ DBQ20050526042010405/26/05 04:20:31  5-MIN KDBQ 261020Z AUTO 32012KT 10SM CLR 10/08 A2999  1010 86 700 320/12 RMK AO2 TSNO
94908KDBQ DBQ20050526042510405/26/05 04:25:31  5-MIN KDBQ 261025Z AUTO 32010KT 10SM CLR 09/08 A3000  1010 89 600 320/10 RMK AO2 TSNO
94908KDBQ DBQ20050526043010405/26/05 04:30:31  5-MIN KDBQ 261030Z AUTO 33010KT 10SM CLR 09/08 A3000  1010 89 600 330/10 RMK AO2 TSNO
94908KDBQ DBQ20050526043510405/26/05 04:35:31  5-MIN KDBQ 261035Z AUTO 32009KT 10SM CLR 09/08 A3000  1000 89 600 320/09 RMK AO2 TSNO
94908KDBQ DBQ20050526044010405/26/05 04:40:31  5-MIN KDBQ 261040Z AUTO 32009KT 10SM CLR 09/08 A3000  1000 89 600 320/09 RMK AO2 TSNO
94908KDBQ DBQ20050526044510405/26/05 04:45:31  5-MIN KDBQ 261045Z AUTO 32011KT 10SM CLR 09/08 A3000  1000 89 600 320/11 RMK AO2 TSNO
94908KDBQ DBQ20050526045011505/26/05 04:50:31  5-MIN KDBQ 261050Z 31010KT 10SM CLR 09/08 A3000 1000 89 600 310/10 RMK AO2 SLP160 T00940078 TSNO
94908KDBQ DBQ20050526045511005/26/05 04:55:31  5-MIN KDBQ 261055Z 31010KT 10SM CLR 09/08 A3000 1000 89 600 310/10 RMK AO2 SLP161 T00940078
94908KDBQ DBQ20050526050009305/26/05 05:00:31  5-MIN KDBQ 261100Z 32010KT 10SM CLR 09/08 A3000 1000 89 600 310/10 RMK AO2
94908KDBQ DBQ20050526050509305/26/05 05:05:31  5-MIN KDBQ 261105Z 31008KT 10SM CLR 09/08 A3001 1000 89 600 310/08 RMK AO2
94908KDBQ DBQ20050526051009305/26/05 05:10:31  5-MIN KDBQ 261110Z 32007KT 10SM CLR 09/08 A3001 1000 89 600 320/07 RMK AO2
94908KDBQ DBQ20050526051509305/26/05 05:15:31  5-MIN KDBQ 261115Z 32007KT 10SM CLR 09/08 A3000 1000 89 600 310/07 RMK AO2
94908KDBQ DBQ20050526052009305/26/05 05:20:31  5-MIN KDBQ 261120Z 31005KT 10SM CLR 10/08 A3000 1000 86 700 310/05 RMK AO2
94908KDBQ DBQ20050526052509305/26/05 05:25:31  5-MIN KDBQ 261125Z 32007KT 10SM CLR 10/08 A3000 1000 86 700 320/07 RMK AO2
94908KDBQ DBQ20050526053009305/26/05 05:30:31  5-MIN KDBQ 261130Z 31006KT 10SM CLR 10/08 A3000 1000 86 700 310/06 RMK AO2
94908KDBQ DBQ20050526053509305/26/05 05:35:31  5-MIN KDBQ 261135Z 31006KT 10SM CLR 10/08 A3000 1000 86 700 310/06 RMK AO2
94908KDBQ DBQ20050526054009305/26/05 05:40:31  5-MIN KDBQ 261140Z 31005KT 10SM CLR 10/08 A3000 1000 86 700 310/05 RMK AO2
94908KDBQ DBQ20050526054509305/26/05 05:45:31  5-MIN KDBQ 261145Z 31005KT 10SM CLR 10/08 A3000 1010 89 700 310/05 RMK AO2
94908KDBQ DBQ20050526055014005/26/05 05:50:31  5-MIN KDBQ 261150Z 30006KT 10SM CLR 11/08 A3000 1010 86 800 290/06 RMK AO2 SLP158 60001 70001 T01060083 10172 20094 51014
94908KDBQ DBQ20050526055514005/26/05 05:55:31  5-MIN KDBQ 261155Z 30006KT 10SM CLR 11/08 A3000 1000 86 700 300/06 RMK AO2 SLP159 60001 70001 T01060083 10172 20094 50010
94908KDBQ DBQ20050526060009305/26/05 06:00:31  5-MIN KDBQ 261200Z 30006KT 10SM CLR 11/08 A3000 1000 83 700 300/06 RMK AO2
94908KDBQ DBQ20050526060509305/26/05 06:05:31  5-MIN KDBQ 261205Z 29005KT 10SM CLR 11/08 A3000 1000 86 700 290/05 RMK AO2
94908KDBQ DBQ20050526061009305/26/05 06:10:31  5-MIN KDBQ 261210Z 29005KT 10SM CLR 11/08 A3000 1000 86 700 280/05 RMK AO2
94908KDBQ DBQ20050526061509305/26/05 06:15:31  5-MIN KDBQ 261215Z 27006KT 10SM CLR 11/08 A3000 1000 83 800 270/06 RMK AO2
94908KDBQ DBQ20050526062009305/26/05 06:20:31  5-MIN KDBQ 261220Z 29007KT 10SM CLR 11/08 A3000 1000 83 800 290/07 RMK AO2
94908KDBQ DBQ20050526062509305/26/05 06:25:31  5-MIN KDBQ 261225Z 28006KT 10SM CLR 12/08 A3000 1000 80 900 280/06 RMK AO2
94908KDBQ DBQ20050526063009305/26/05 06:30:31  5-MIN KDBQ 261230Z 28006KT 10SM CLR 12/08 A3000 1000 80 900 280/06 RMK AO2
94908KDBQ DBQ20050526063509305/26/05 06:35:31  5-MIN KDBQ 261235Z 28006KT 10SM CLR 12/08 A3000 1000 80 900 280/06 RMK AO2
94908KDBQ DBQ20050526064009305/26/05 06:40:31  5-MIN KDBQ 261240Z 29006KT 10SM CLR 12/08 A3000 1000 80 900 280/06 RMK AO2
94908KDBQ DBQ20050526064509305/26/05 06:45:31  5-MIN KDBQ 261245Z 29008KT 10SM CLR 12/08 A3000 1000 77 900 290/08 RMK AO2
94908KDBQ DBQ20050526065011105/26/05 06:50:31  5-MIN KDBQ 261250Z 29009KT 10SM CLR 13/08 A3001 1000 74 1000 290/09 RMK AO2 SLP160 T01280083
94908KDBQ DBQ20050526065511105/26/05 06:55:31  5-MIN KDBQ 261255Z 29010KT 10SM CLR 13/08 A3001 1000 74 1000 290/10 RMK AO2 SLP160 T01280083
94908KDBQ DBQ20050526070009405/26/05 07:00:31  5-MIN KDBQ 261300Z 28011KT 10SM CLR 13/08 A3001 1000 74 1000 280/11 RMK AO2
94908KDBQ DBQ20050526070509405/26/05 07:05:31  5-MIN KDBQ 261305Z 30013KT 10SM CLR 13/08 A3001 1000 71 1100 300/13 RMK AO2
94908KDBQ DBQ20050526071009405/26/05 07:10:31  5-MIN KDBQ 261310Z 29010KT 10SM CLR 13/08 A3001 1000 71 1100 290/10 RMK AO2
94908KDBQ DBQ20050526071509405/26/05 07:15:31  5-MIN KDBQ 261315Z 29010KT 10SM CLR 13/09 A3001 1000 74 1100 280/10 RMK AO2
94908KDBQ DBQ20050526072009405/26/05 07:20:31  5-MIN KDBQ 261320Z 28011KT 10SM CLR 14/09 A3001 1000 71 1100 280/11 RMK AO2
94908KDBQ DBQ20050526072509405/26/05 07:25:31  5-MIN KDBQ 261325Z 29013KT 10SM CLR 14/09 A3001 990 71  1100 290/13 RMK AO2
94908KDBQ DBQ20050526073010005/26/05 07:30:31  5-MIN KDBQ 261330Z 28014G18KT 10SM CLR 14/08 A3001 1000 69 1100 280/14G18 RMK AO2
94908KDBQ DBQ20050526073509405/26/05 07:35:31  5-MIN KDBQ 261335Z 29011KT 10SM CLR 14/08 A3001 990 69  1100 280/11 RMK AO2
94908KDBQ DBQ20050526074009405/26/05 07:40:31  5-MIN KDBQ 261340Z 29012KT 10SM CLR 14/09 A3001 990 69  1200 290/12 RMK AO2
94908KDBQ DBQ20050526074509405/26/05 07:45:31  5-MIN KDBQ 261345Z 29012KT 10SM CLR 14/08 A3001 1000 66 1200 290/12 RMK AO2
94908KDBQ DBQ20050526075011105/26/05 07:50:31  5-MIN KDBQ 261350Z 29010KT 10SM CLR 14/09 A3001 1000 69 1200 290/10 RMK AO2 SLP160 T01440089
94908KDBQ DBQ20050526075511105/26/05 07:55:31  5-MIN KDBQ 261355Z 29009KT 10SM CLR 15/09 A3000 1000 69 1300 290/09 RMK AO2 SLP158 T01500094
94908KDBQ DBQ20050526080009405/26/05 08:00:31  5-MIN KDBQ 261400Z 29011KT 10SM CLR 15/09 A3000 1000 66 1300 290/11 RMK AO2
94908KDBQ DBQ20050526080509405/26/05 08:05:31  5-MIN KDBQ 261405Z 29010KT 10SM CLR 15/09 A3000 1000 66 1300 290/10 RMK AO2
94908KDBQ DBQ20050526081009405/26/05 08:10:31  5-MIN KDBQ 261410Z 28011KT 10SM CLR 15/09 A3000 1000 66 1300 280/11 RMK AO2
94908KDBQ DBQ20050526081509405/26/05 08:15:31  5-MIN KDBQ 261415Z 27011KT 10SM CLR 15/09 A3000 1000 66 1300 270/11 RMK AO2
94908KDBQ DBQ20050526082009405/26/05 08:20:31  5-MIN KDBQ 261420Z 28012KT 10SM CLR 16/09 A3000 1000 67 1300 280/12 RMK AO2
94908KDBQ DBQ20050526082509405/26/05 08:25:31  5-MIN KDBQ 261425Z 28012KT 10SM CLR 16/09 A3000 1000 67 1300 280/12 RMK AO2
94908KDBQ DBQ20050526083009405/26/05 08:30:31  5-MIN KDBQ 261430Z 27013KT 10SM CLR 16/09 A3001 1000 67 1300 270/13 RMK AO2
94908KDBQ DBQ20050526083509405/26/05 08:35:31  5-MIN KDBQ 261435Z 29011KT 10SM CLR 16/09 A3000 1000 64 1400 290/11 RMK AO2
94908KDBQ DBQ20050526084009405/26/05 08:40:31  5-MIN KDBQ 261440Z 28011KT 10SM CLR 16/09 A3001 1000 64 1400 280/11 RMK AO2
94908KDBQ DBQ20050526084509405/26/05 08:45:31  5-MIN KDBQ 261445Z 28014KT 10SM CLR 16/09 A3000 1000 62 1400 270/14 RMK AO2
94908KDBQ DBQ20050526085011705/26/05 08:50:31  5-MIN KDBQ 261450Z 28012KT 10SM CLR 16/09 A3000 1000 62 1400 280/12 RMK AO2 SLP158 T01610089 50010
94908KDBQ DBQ20050526085511705/26/05 08:55:31  5-MIN KDBQ 261455Z 30014KT 10SM CLR 16/09 A3000 1000 62 1400 300/14 RMK AO2 SLP158 T01610089 51001
94908KDBQ DBQ20050526090009405/26/05 09:00:31  5-MIN KDBQ 261500Z 30013KT 10SM CLR 17/09 A3001 1000 60 1500 300/13 RMK AO2
94908KDBQ DBQ20050526090509405/26/05 09:05:31  5-MIN KDBQ 261505Z 28013KT 10SM CLR 17/09 A3001 1000 62 1500 280/13 RMK AO2
94908KDBQ DBQ20050526091009405/26/05 09:10:31  5-MIN KDBQ 261510Z 27012KT 10SM CLR 17/10 A3001 1000 64 1500 270/12 RMK AO2
94908KDBQ DBQ20050526091509405/26/05 09:15:31  5-MIN KDBQ 261515Z 27012KT 10SM CLR 17/09 A3000 1000 62 1500 270/12 RMK AO2
94908KDBQ DBQ20050526092009405/26/05 09:20:31  5-MIN KDBQ 261520Z 28011KT 10SM CLR 17/10 A3000 1000 62 1500 280/11 RMK AO2
94908KDBQ DBQ20050526092509405/26/05 09:25:31  5-MIN KDBQ 261525Z 28012KT 10SM CLR 17/09 A3001 1000 60 1500 280/12 RMK AO2
94908KDBQ DBQ20050526093009405/26/05 09:30:31  5-MIN KDBQ 261530Z 27011KT 10SM CLR 17/09 A3001 1000 60 1500 270/11 RMK AO2
94908KDBQ DBQ20050526093509405/26/05 09:35:31  5-MIN KDBQ 261535Z 29015KT 10SM CLR 17/09 A3000 1010 57 1500 290/15 RMK AO2
94908KDBQ DBQ20050526094009405/26/05 09:40:31  5-MIN KDBQ 261540Z 28012KT 10SM CLR 17/09 A3000 1000 60 1500 280/12 RMK AO2
94908KDBQ DBQ20050526094509405/26/05 09:45:31  5-MIN KDBQ 261545Z 28014KT 10SM CLR 18/09 A3000 1000 58 1600 280/14 RMK AO2
94908KDBQ DBQ20050526095011105/26/05 09:50:31  5-MIN KDBQ 261550Z 27014KT 10SM CLR 18/09 A3000 1000 58 1600 270/14 RMK AO2 SLP157 T01780094
94908KDBQ DBQ20050526095511105/26/05 09:55:31  5-MIN KDBQ 261555Z 28011KT 10SM CLR 18/09 A3000 1000 58 1600 280/11 RMK AO2 SLP156 T01780094
94908KDBQ DBQ20050526100010005/26/05 10:00:31  5-MIN KDBQ 261600Z 28012G18KT 10SM CLR 18/09 A3000 1000 56 1700 280/12G18 RMK AO2
94908KDBQ DBQ20050526100509405/26/05 10:05:31  5-MIN KDBQ 261605Z 28014KT 10SM CLR 18/09 A3000 1000 54 1700 280/14 RMK AO2
94908KDBQ DBQ20050526101009405/26/05 10:10:31  5-MIN KDBQ 261610Z 27012KT 10SM CLR 18/09 A3000 1000 56 1700 270/12 RMK AO2
94908KDBQ DBQ20050526101510005/26/05 10:15:31  5-MIN KDBQ 261615Z 29012G18KT 10SM CLR 19/09 A3000 1000 52 1700 290/12G18 RMK AO2
94908KDBQ DBQ20050526102010405/26/05 10:20:31  5-MIN KDBQ 261620Z 29015G21KT 10SM FEW048 18/08 A3000  1010 52 1700 290/15G21 RMK AO2
94908KDBQ DBQ20050526102511105/26/05 10:25:31  5-MIN KDBQ 261625Z 29013G21KT 10SM SCT048 SCT060 18/08  A3000 1000 51 1600 290/13G21 RMK AO2
94908KDBQ DBQ20050526103010505/26/05 10:30:31  5-MIN KDBQ 261630Z 29017KT 10SM SCT048 BKN060 18/08  A3000 1000 52 1700 290/17 RMK AO2
94908KDBQ DBQ20050526103510505/26/05 10:35:31  5-MIN KDBQ 261635Z 31014KT 10SM SCT048 BKN060 18/07  A3000 1000 48 1700 310/14 RMK AO2
94908KDBQ DBQ20050526104011105/26/05 10:40:31  5-MIN KDBQ 261640Z 27017G24KT 10SM SCT048 BKN060 19/08  A2999 1010 48 1700 270/17G24 RMK AO2
94908KDBQ DBQ20050526104511105/26/05 10:45:31  5-MIN KDBQ 261645Z 28015G24KT 10SM BKN050 BKN065 18/07  A3000 1000 48 1700 280/15G24 RMK AO2
94908KDBQ DBQ20050526105012205/26/05 10:50:31  5-MIN KDBQ 261650Z 30015KT 10SM SCT050 BKN060 19/07  A3000 1000 46 1700 300/15 RMK AO2 SLP156 T01890072
94908KDBQ DBQ20050526105512205/26/05 10:55:31  5-MIN KDBQ 261655Z 30013KT 10SM FEW050 BKN060 19/07  A3000 1000 43 1800 300/13 RMK AO2 SLP156 T01940067
94908KDBQ DBQ20050526110010505/26/05 11:00:31  5-MIN KDBQ 261700Z 29017KT 10SM FEW050 BKN060 20/07  A3000 1010 43 1900 290/17 RMK AO2
94908KDBQ DBQ20050526110510405/26/05 11:05:31  5-MIN KDBQ 261705Z 30020G23KT 10SM SCT060 19/07 A3000  1000 44 1800 300/20G23 RMK AO2
94908KDBQ DBQ20050526111010405/26/05 11:10:31  5-MIN KDBQ 261710Z 30015G23KT 10SM FEW060 19/07 A3000  1010 44 1700 300/15G23 RMK AO2
94908KDBQ DBQ20050526111509705/26/05 11:15:31  5-MIN KDBQ 261715Z 28018KT 10SM FEW060 19/07 A3000 1010 44 1800 280/18 RMK AO2
94908KDBQ DBQ20050526112010405/26/05 11:20:31  5-MIN KDBQ 261720Z 31014G21KT 10SM FEW060 20/07 A3000  1010 43 1900 310/14G21 RMK AO2
94908KDBQ DBQ20050526112510405/26/05 11:25:31  5-MIN KDBQ 261725Z 31015G21KT 10SM FEW060 20/07 A3000  1010 43 1900 310/15G21 RMK AO2
94908KDBQ DBQ20050526113010405/26/05 11:30:31  5-MIN KDBQ 261730Z 31017G23KT 10SM FEW060 20/06 A3000  1010 40 1900 310/17G23 RMK AO2
94908KDBQ DBQ20050526113510405/26/05 11:35:31  5-MIN KDBQ 261735Z 30016G23KT 10SM FEW060 20/07 A2999  1010 43 1900 300/16G23 RMK AO2
94908KDBQ DBQ20050526114010405/26/05 11:40:31  5-MIN KDBQ 261740Z 29017G24KT 10SM FEW060 20/07 A3000  1010 41 1900 290/17G24 RMK AO2
94908KDBQ DBQ20050526114510405/26/05 11:45:31  5-MIN KDBQ 261745Z 31015G24KT 10SM FEW060 20/06 A2999  1020 40 1900 300/15G24 RMK AO2
94908KDBQ DBQ20050526115013505/26/05 11:50:31  5-MIN KDBQ 261750Z 28017G20KT 10SM CLR 21/07 A2999 1010 41 1900 280/17G20 RMK AO2 SLP153 T02060072 10206 20106 51001
94908KDBQ DBQ20050526115513505/26/05 11:55:31  5-MIN KDBQ 261755Z 29016G22KT 10SM CLR 20/06 A2999 1020 40 1900 290/16G22 RMK AO2 SLP152 T02000061 10206 20106 58005
94908KDBQ DBQ20050526120010005/26/05 12:00:31  5-MIN KDBQ 261800Z 31013G22KT 10SM CLR 20/07 A2998 1020 41 1900 310/13G22 RMK AO2
94908KDBQ DBQ20050526120510405/26/05 12:05:31  5-MIN KDBQ 261805Z 30014G20KT 10SM FEW060 19/07 A2998  1020 43 1800 300/14G20 RMK AO2
94908KDBQ DBQ20050526121009705/26/05 12:10:31  5-MIN KDBQ 261810Z 29018KT 10SM SCT060 20/06 A2998 1020 38 1900 290/18 RMK AO2
94908KDBQ DBQ20050526121509705/26/05 12:15:31  5-MIN KDBQ 261815Z 29020KT 10SM SCT060 20/06 A2998 1020 40 1900 290/20 RMK AO2
94908KDBQ DBQ20050526122010405/26/05 12:20:31  5-MIN KDBQ 261820Z 31015G22KT 10SM SCT060 21/06 A2998  1030 38 1900 310/15G22 RMK AO2
94908KDBQ DBQ20050526122510405/26/05 12:25:31  5-MIN KDBQ 261825Z 30018G24KT 10SM SCT060 21/07 A2998  1030 40 2000 290/18G24 RMK AO2
94908KDBQ DBQ20050526123010405/26/05 12:30:31  5-MIN KDBQ 261830Z 29016G24KT 10SM SCT060 21/07 A2997  1030 40 2000 290/16G24 RMK AO2
94908KDBQ DBQ20050526123510405/26/05 12:35:31  5-MIN KDBQ 261835Z 30014G21KT 10SM FEW060 21/06 A2997  1030 38 2000 300/14G21 RMK AO2
94908KDBQ DBQ20050526124010405/26/05 12:40:31  5-MIN KDBQ 261840Z 31017G24KT 10SM SCT065 21/06 A2997  1030 38 2000 310/17G24 RMK AO2
94908KDBQ DBQ20050526124510405/26/05 12:45:31  5-MIN KDBQ 261845Z 32019G25KT 10SM SCT065 21/06 A2997  1030 37 2000 310/19G25 RMK AO2
94908KDBQ DBQ20050526125012105/26/05 12:50:31  5-MIN KDBQ 261850Z 31017G25KT 10SM SCT065 19/06 A2997  1030 40 1800 310/17G25 RMK AO2 SLP146 T01940056
94908KDBQ DBQ20050526125512105/26/05 12:55:31  5-MIN KDBQ 261855Z 28017G25KT 10SM SCT065 21/06 A2997  1040 37 2000 280/17G25 RMK AO2 SLP145 T02060056
94908KDBQ DBQ20050526130010405/26/05 13:00:31  5-MIN KDBQ 261900Z 30013G22KT 10SM SCT065 20/06 A2997  1030 38 1900 300/13G22 RMK AO2
94908KDBQ DBQ20050526130510405/26/05 13:05:31  5-MIN KDBQ 261905Z 31014G22KT 10SM BKN070 21/07 A2997  1040 40 2000 310/14G22 RMK AO2
94908KDBQ DBQ20050526131010405/26/05 13:10:31  5-MIN KDBQ 261910Z 31017G22KT 10SM BKN070 21/06 A2997  1040 38 2000 310/17G22 RMK AO2
94908KDBQ DBQ20050526131510405/26/05 13:15:31  5-MIN KDBQ 261915Z 31021G25KT 10SM BKN070 20/05 A2997  1030 37 1900 310/21G25 RMK AO2
94908KDBQ DBQ20050526132010405/26/05 13:20:31  5-MIN KDBQ 261920Z 29015G25KT 10SM SCT070 21/06 A2997  1030 37 2000 290/15G25 RMK AO2
94908KDBQ DBQ20050526132510405/26/05 13:25:31  5-MIN KDBQ 261925Z 30017G22KT 10SM SCT070 21/06 A2997  1030 37 2000 300/17G22 RMK AO2
94908KDBQ DBQ20050526133010405/26/05 13:30:31  5-MIN KDBQ 261930Z 30015G22KT 10SM SCT070 20/06 A2997  1040 38 1900 300/15G22 RMK AO2
94908KDBQ DBQ20050526133510405/26/05 13:35:31  5-MIN KDBQ 261935Z 31015G25KT 10SM FEW070 21/05 A2996  1040 34 2000 310/15G25 RMK AO2
94908KDBQ DBQ20050526134012205/26/05 13:40:31  5-MIN KDBQ 261940Z 30019G26KT 10SM FEW070 21/05 A2996  1040 34 2000 300/19G26 RMK AO2 PK WND 30026/1938
94908KDBQ DBQ20050526134511805/26/05 13:45:31  5-MIN KDBQ 261945Z 30020G26KT 10SM CLR 22/05 A2996 1040 33 2100 300/20G26 RMK AO2 PK WND 30026/1938
94908KDBQ DBQ20050526135013905/26/05 13:50:31  5-MIN KDBQ 261950Z 31015G21KT 10SM FEW075 20/04 A2996  1040 35 1900 310/15G21 RMK AO2 PK WND 30026/1938 SLP143 T02000044
94908KDBQ DBQ20050526135513205/26/05 13:55:31  5-MIN KDBQ 261955Z 31014KT 10SM SCT075 21/06 A2996 1050 37 2000 310/14 RMK AO2 PK WND 30026/1938 SLP142 T02060056
94908KDBQ DBQ20050526140010405/26/05 14:00:31  5-MIN KDBQ 262000Z 28015G20KT 10SM SCT080 22/07 A2995  1050 37 2100 280/15G20 RMK AO2
94908KDBQ DBQ20050526140510405/26/05 14:05:31  5-MIN KDBQ 262005Z 32015G20KT 10SM SCT080 20/05 A2996  1050 37 1900 310/15G20 RMK AO2
94908KDBQ DBQ20050526141009705/26/05 14:10:31  5-MIN KDBQ 262010Z 30013KT 10SM BKN080 19/05 A2996 1050 38 1800 300/13 RMK AO2
94908KDBQ DBQ20050526141509705/26/05 14:15:31  5-MIN KDBQ 262015Z 28016KT 10SM BKN080 21/06 A2995 1050 36 2000 280/16 RMK AO2
94908KDBQ DBQ20050526142010505/26/05 14:20:31  5-MIN KDBQ 262020Z 29016KT 10SM BKN080 BKN090 21/06  A2995 1050 37 2000 290/16 RMK AO2
94908KDBQ DBQ20050526142510505/26/05 14:25:31  5-MIN KDBQ 262025Z 30015KT 10SM BKN080 BKN090 20/05  A2995 1050 37 1900 300/15 RMK AO2
94908KDBQ DBQ20050526143009705/26/05 14:30:31  5-MIN KDBQ 262030Z 30014KT 10SM BKN080 20/06 A2995 1050 38 1900 300/14 RMK AO2
94908KDBQ DBQ20050526143510405/26/05 14:35:31  5-MIN KDBQ 262035Z 29011G19KT 10SM BKN080 20/06 A2995  1060 38 1900 290/11G19 RMK AO2
94908KDBQ DBQ20050526144009705/26/05 14:40:31  5-MIN KDBQ 262040Z 29015KT 10SM BKN080 21/06 A2994 1060 36 2100 290/15 RMK AO2
94908KDBQ DBQ20050526144510505/26/05 14:45:31  5-MIN KDBQ 262045Z 28014KT 10SM FEW075 BKN090 21/06  A2994 1060 36 2100 280/14 RMK AO2
94908KDBQ DBQ20050526145012005/26/05 14:50:31  5-MIN KDBQ 262050Z 30015KT 10SM BKN090 21/05 A2994 1060 34 2100 290/15 RMK AO2 SLP138 T02110050 58005
94908KDBQ DBQ20050526145512705/26/05 14:55:31  5-MIN KDBQ 262055Z 30013G23KT 10SM BKN085 22/05 A2994  1060 33 2100 300/13G23 RMK AO2 SLP137 T02170050 56016
94908KDBQ DBQ20050526150010405/26/05 15:00:31  5-MIN KDBQ 262100Z 30017G23KT 10SM BKN085 22/05 A2994  1060 33 2100 300/17G23 RMK AO2
94908KDBQ DBQ20050526150510405/26/05 15:05:31  5-MIN KDBQ 262105Z 30019G23KT 10SM BKN085 22/05 A2994  1060 33 2100 300/19G23 RMK AO2
94908KDBQ DBQ20050526151012205/26/05 15:10:31  5-MIN KDBQ 262110Z 30020G26KT 10SM BKN085 22/04 A2994  1060 31 2100 300/20G26 RMK AO2 PK WND 31026/2109
94908KDBQ DBQ20050526151512205/26/05 15:15:31  5-MIN KDBQ 262115Z 30016G26KT 10SM BKN085 21/03 A2994  1060 30 2000 300/16G26 RMK AO2 PK WND 31026/2109
94908KDBQ DBQ20050526152012205/26/05 15:20:31  5-MIN KDBQ 262120Z 30019G27KT 10SM BKN080 21/03 A2994  1060 32 2000 300/19G27 RMK AO2 PK WND 29027/2116
94908KDBQ DBQ20050526152512205/26/05 15:25:31  5-MIN KDBQ 262125Z 31019G27KT 10SM SCT080 22/04 A2994  1060 32 2100 310/19G27 RMK AO2 PK WND 29027/2116
94908KDBQ DBQ20050526153012205/26/05 15:30:31  5-MIN KDBQ 262130Z 30017G22KT 10SM SCT085 21/04 A2994  1060 33 2000 300/17G22 RMK AO2 PK WND 29027/2116
94908KDBQ DBQ20050526153512205/26/05 15:35:31  5-MIN KDBQ 262135Z 29016G22KT 10SM SCT085 21/04 A2994  1060 33 2100 290/16G22 RMK AO2 PK WND 29027/2116
94908KDBQ DBQ20050526154012205/26/05 15:40:31  5-MIN KDBQ 262140Z 29019G23KT 10SM SCT085 21/03 A2994  1060 30 2100 290/19G23 RMK AO2 PK WND 29027/2116
94908KDBQ DBQ20050526154512205/26/05 15:45:31  5-MIN KDBQ 262145Z 32018G23KT 10SM SCT080 21/04 A2994  1060 34 2000 320/18G23 RMK AO2 PK WND 29027/2116
94908KDBQ DBQ20050526155013205/26/05 15:50:31  5-MIN KDBQ 262150Z 32014KT 10SM SCT085 21/05 A2994 1060 34 2100 320/14 RMK AO2 PK WND 29027/2116 SLP137 T02110050
94908KDBQ DBQ20050526155513905/26/05 15:55:31  5-MIN KDBQ 262155Z 31017G21KT 10SM SCT085 21/04 A2994  1060 33 2100 310/17G21 RMK AO2 PK WND 29027/2116 SLP136 T02110044
94908KDBQ DBQ20050526160010405/26/05 16:00:31  5-MIN KDBQ 262200Z 31016G22KT 10SM SCT085 21/04 A2994  1060 33 2100 310/16G22 RMK AO2
94908KDBQ DBQ20050526160510405/26/05 16:05:31  5-MIN KDBQ 262205Z 30014G22KT 10SM SCT085 21/04 A2993  1070 33 2100 300/14G22 RMK AO2
94908KDBQ DBQ20050526161009705/26/05 16:10:31  5-MIN KDBQ 262210Z 29015KT 10SM FEW085 21/04 A2993 1070 33 2100 290/15 RMK AO2
94908KDBQ DBQ20050526161510405/26/05 16:15:31  5-MIN KDBQ 262215Z 30015G24KT 10SM FEW085 21/04 A2993  1070 33 2100 300/15G24 RMK AO2
94908KDBQ DBQ20050526162010405/26/05 16:20:31  5-MIN KDBQ 262220Z 31014G24KT 10SM FEW080 21/04 A2993  1070 32 2100 310/14G24 RMK AO2
94908KDBQ DBQ20050526162510005/26/05 16:25:31  5-MIN KDBQ 262225Z 30018G23KT 10SM CLR 21/04 A2993 1070 32 2100 300/18G23 RMK AO2
94908KDBQ DBQ20050526163010005/26/05 16:30:31  5-MIN KDBQ 262230Z 29015G23KT 10SM CLR 21/04 A2993 1070 32 2100 290/15G23 RMK AO2
94908KDBQ DBQ20050526163510005/26/05 16:35:31  5-MIN KDBQ 262235Z 30015G23KT 10SM CLR 21/03 A2992 1080 32 2000 300/15G23 RMK AO2
94908KDBQ DBQ20050526164009405/26/05 16:40:31  5-MIN KDBQ 262240Z 30012KT 10SM CLR 21/04 A2992 1080 33 2000 300/12 RMK AO2
94908KDBQ DBQ20050526164509405/26/05 16:45:31  5-MIN KDBQ 262245Z 32016KT 10SM CLR 21/05 A2992 1080 34 2100 320/16 RMK AO2
94908KDBQ DBQ20050526165011105/26/05 16:50:31  5-MIN KDBQ 262250Z 31014KT 10SM CLR 21/04 A2992 1080 33 2000 310/14 RMK AO2 SLP132 T02060039
94908KDBQ DBQ20050526165511405/26/05 16:55:31  5-MIN KDBQ 262255Z 30013KT 10SM FEW090 20/04 A2992 1080 34 1900 300/13 RMK AO2 SLP132 T02000039
94908KDBQ DBQ20050526170009705/26/05 17:00:31  5-MIN KDBQ 262300Z 30016KT 10SM SCT090 21/04 A2992 1080 33 2000 300/16 RMK AO2
94908KDBQ DBQ20050526170509705/26/05 17:05:31  5-MIN KDBQ 262305Z 30013KT 10SM FEW090 21/04 A2992 1080 33 2000 300/13 RMK AO2
94908KDBQ DBQ20050526171009705/26/05 17:10:31  5-MIN KDBQ 262310Z 30011KT 10SM SCT090 21/04 A2992 1080 33 2000 300/11 RMK AO2
94908KDBQ DBQ20050526171509705/26/05 17:15:31  5-MIN KDBQ 262315Z 31015KT 10SM SCT085 21/04 A2992 1080 33 2000 310/15 RMK AO2
94908KDBQ DBQ20050526172009705/26/05 17:20:31  5-MIN KDBQ 262320Z 30011KT 10SM SCT085 21/04 A2992 1080 34 2000 300/11 RMK AO2
94908KDBQ DBQ20050526172510405/26/05 17:25:31  5-MIN KDBQ 262325Z 30008G17KT 10SM SCT085 19/05 A2992  1080 39 1800 300/08G17 RMK AO2
94908KDBQ DBQ20050526173010405/26/05 17:30:31  5-MIN KDBQ 262330Z 29013G17KT 10SM SCT085 19/04 A2992  1080 37 1900 290/13G17 RMK AO2
94908KDBQ DBQ20050526173512205/26/05 17:35:31  5-MIN KDBQ 262335Z 29016G28KT 10SM BKN085 19/04 A2994  1060 37 1900 290/16G28 RMK AO2 PK WND 29028/2335
94908KDBQ DBQ20050526174013605/26/05 17:40:31  5-MIN KDBQ 262340Z 32026G38KT 10SM SCT075 BKN090 18/05  A2995 1050 41 1700 310/26G38 RMK AO2 PK WND 33038/2339 PRESRR
94908KDBQ DBQ20050526174513605/26/05 17:45:31  5-MIN KDBQ 262345Z 33025G38KT 10SM FEW075 BKN095 17/07  A2996 1040 51 1500 330/25G38 RMK AO2 PK WND 33038/2339 PRESRR
94908KDBQ DBQ20050526175017705/26/05 17:50:31  5-MIN KDBQ 262350Z 32026G35KT 10SM FEW075 BKN095 OVC110 16/07 A2997 1040 57 1400 320/26G35 RMK AO2 PK WND 33038/2339 PRESRR SLP148 T01560072 10217 20156 56016
94908KDBQ DBQ20050526175517105/26/05 17:55:31  5-MIN KDBQ 262355Z 32023G30KT 10SM FEW075 BKN090 OVC110 16/08 A2997 1040 59 1400 320/23G30 RMK AO2 PK WND 33038/2339 SLP149  T01560078 10217 20156 53009
94908KDBQ DBQ20050526180012405/26/05 18:00:31  5-MIN KDBQ 270000Z 31019G27KT 10SM FEW075 SCT095 BKN110 16/08 A2998 1030 59 1400 310/19G27 RMK AO2 PRESRR
94908KDBQ DBQ20050526180513505/26/05 18:05:31  5-MIN KDBQ 270005Z 32024G29KT 10SM FEW075 SCT100 SCT110 15/08 A2997 1030 62 1300 320/24G29 RMK AO2 PK WND 32029/0005
94908KDBQ DBQ20050526181012905/26/05 18:10:31  5-MIN KDBQ 270010Z 32021G30KT 10SM SCT090 SCT110 15/08  A2997 1040 62 1300 320/21G30 RMK AO2 PK WND 32030/0006
94908KDBQ DBQ20050526181512905/26/05 18:15:31  5-MIN KDBQ 270015Z 33018G30KT 10SM SCT075 BKN110 15/08  A2996 1040 62 1300 330/18G30 RMK AO2 PK WND 32030/0006
94908KDBQ DBQ20050526182014405/26/05 18:20:31  5-MIN KDBQ 270020Z 32013G28KT 9SM -RA BKN055 BKN110  14/08 A2996 1040 69 1200 320/13G28 RMK AO2 PK WND 32030/0006 RAB17 P0000
94908KDBQ DBQ20050526182515205/26/05 18:25:31  5-MIN KDBQ 270025Z 33010KT 9SM -RA SCT055 BKN090 BKN110 14/09 A2995 1050 71 1200 330/10 RMK AO2 PK WND 32030/0006 RAB17 PRESFR  P0000
94908KDBQ DBQ20050526183015305/26/05 18:30:31  5-MIN KDBQ 270030Z 31009KT 10SM -RA SCT065 BKN085 BKN110 14/09 A2994 1060 69 1300 310/09 RMK AO2 PK WND 32030/0006 RAB17 PRESFR  P0000
94908KDBQ DBQ20050526183513805/26/05 18:35:31  5-MIN KDBQ 270035Z 31006KT 10SM SCT060 BKN085 14/09  A2994 1060 69 1300 310/06 RMK AO2 PK WND 32030/0006 RAB17E31 P0000
94908KDBQ DBQ20050526184014505/26/05 18:40:31  5-MIN KDBQ 270040Z 31005KT 10SM FEW055 BKN085 BKN110  14/09 A2994 1060 69 1300 310/05 RMK AO2 PK WND 32030/0006 RAB17E31 P0000
94908KDBQ DBQ20050526184514505/26/05 18:45:31  5-MIN KDBQ 270045Z 33006KT 10SM FEW044 SCT085 BKN110  14/09 A2994 1060 69 1300 330/06 RMK AO2 PK WND 32030/0006 RAB17E31 P0000
94908KDBQ DBQ20050526185016405/26/05 18:50:31  5-MIN KDBQ 270050Z AUTO 33005KT 10SM FEW085 SCT110 14/09 A2993 1070 71 1200 330/05 RMK AO2 PK WND 32030/0006 RAB17E31 SLP137 P0000 T01390089 TSNO
94908KDBQ DBQ20050526185515805/26/05 18:55:31  5-MIN KDBQ 270055Z AUTO 00000KT 10SM FEW085 14/09 A2993 1070 71 1200 000/00 RMK AO2 PK WND 32030/0006 RAB17E31 SLP137 P0000  T01390089 TSNO
94908KDBQ DBQ20050526190010705/26/05 19:00:31  5-MIN KDBQ 270100Z AUTO 00000KT 10SM FEW085 14/09 A2993 1070 71 1200 000/00 RMK AO2 TSNO
94908KDBQ DBQ20050526190510505/26/05 19:05:31  5-MIN KDBQ 270105Z AUTO 00000KT 10SM CLR 14/09 A2992  1080 71 1200 000/00 RMK AO2 TSNO
94908KDBQ DBQ20050526191010505/26/05 19:10:31  5-MIN KDBQ 270110Z AUTO 00000KT 10SM CLR 14/09 A2992  1080 71 1200 000/00 RMK AO2 TSNO
94908KDBQ DBQ20050526191510505/26/05 19:15:31  5-MIN KDBQ 270115Z AUTO 22003KT 10SM CLR 13/09 A2992  1080 77 1200 220/03 RMK AO2 TSNO
94908KDBQ DBQ20050526192010505/26/05 19:20:31  5-MIN KDBQ 270120Z AUTO 00000KT 10SM CLR 13/09 A2992  1080 74 1200 000/00 RMK AO2 TSNO
94908KDBQ DBQ20050526192510505/26/05 19:25:31  5-MIN KDBQ 270125Z AUTO 00000KT 10SM CLR 13/09 A2993  1070 74 1200 000/00 RMK AO2 TSNO
94908KDBQ DBQ20050526193010505/26/05 19:30:31  5-MIN KDBQ 270130Z AUTO 00000KT 10SM CLR 13/09 A2992  1080 77 1100 000/00 RMK AO2 TSNO
94908KDBQ DBQ20050526193510505/26/05 19:35:31  5-MIN KDBQ 270135Z AUTO 00000KT 10SM CLR 13/09 A2992  1080 77 1100 000/00 RMK AO2 TSNO
94908KDBQ DBQ20050526194010505/26/05 19:40:31  5-MIN KDBQ 270140Z AUTO 00000KT 10SM CLR 12/08 A2992  1080 77 1000 000/00 RMK AO2 TSNO
94908KDBQ DBQ20050526194510505/26/05 19:45:31  5-MIN KDBQ 270145Z AUTO 00000KT 10SM CLR 13/09 A2992  1070 77 1100 000/00 RMK AO2 TSNO
94908KDBQ DBQ20050526195012205/26/05 19:50:31  5-MIN KDBQ 270150Z AUTO 00000KT 10SM CLR 13/08 A2992  1070 74 1100 000/00 RMK AO2 SLP134 T01280083 TSNO
94908KDBQ DBQ20050526195512205/26/05 19:55:31  5-MIN KDBQ 270155Z AUTO 00000KT 10SM CLR 12/08 A2993  1070 77 1000 000/00 RMK AO2 SLP135 T01220083 TSNO
94908KDBQ DBQ20050526200010505/26/05 20:00:31  5-MIN KDBQ 270200Z AUTO 00000KT 10SM CLR 12/08 A2993  1070 77 1000 000/00 RMK AO2 TSNO
94908KDBQ DBQ20050526200510505/26/05 20:05:31  5-MIN KDBQ 270205Z AUTO 00000KT 10SM CLR 12/09 A2993  1070 80 1000 000/00 RMK AO2 TSNO
94908KDBQ DBQ20050526201010505/26/05 20:10:31  5-MIN KDBQ 270210Z AUTO 00000KT 10SM CLR 12/09 A2993  1070 83 1000 000/00 RMK AO2 TSNO
94908KDBQ DBQ20050526201510505/26/05 20:15:31  5-MIN KDBQ 270215Z AUTO 00000KT 10SM CLR 12/09 A2994  1060 83 1000 000/00 RMK AO2 TSNO
94908KDBQ DBQ20050526202010505/26/05 20:20:31  5-MIN KDBQ 270220Z AUTO 24005KT 10SM CLR 12/09 A2993  1070 83 1000 230/05 RMK AO2 TSNO
94908KDBQ DBQ20050526202510505/26/05 20:25:31  5-MIN KDBQ 270225Z AUTO 23005KT 10SM CLR 12/09 A2993  1070 83 1000 230/05 RMK AO2 TSNO
94908KDBQ DBQ20050526203010405/26/05 20:30:31  5-MIN KDBQ 270230Z AUTO 23004KT 10SM CLR 11/09 A2993  1070 86 900 230/04 RMK AO2 TSNO
94908KDBQ DBQ20050526203510405/26/05 20:35:31  5-MIN KDBQ 270235Z AUTO 21004KT 10SM CLR 11/09 A2993  1070 86 900 210/04 RMK AO2 TSNO
94908KDBQ DBQ20050526204010605/26/05 20:40:31  5-MIN KDBQ 270240Z AUTO 22005KT 10SM FEW080 11/08 A2993 1070 83 900 220/05 RMK AO2 TSNO
94908KDBQ DBQ20050526204510605/26/05 20:45:31  5-MIN KDBQ 270245Z AUTO 22003KT 10SM SCT080 11/08 A2993 1070 83 900 220/03 RMK AO2 TSNO
94908KDBQ DBQ20050526205013505/26/05 20:50:31  5-MIN KDBQ 270250Z AUTO 22005KT 10SM BKN080 11/09 A2993 1070 86 900 220/05 RMK AO2 SLP135 60000 T01110089 53009 TSNO
94908KDBQ DBQ20050526205513505/26/05 20:55:31  5-MIN KDBQ 270255Z AUTO 22004KT 10SM BKN080 11/09 A2993 1070 86 900 220/04 RMK AO2 SLP135 60000 T01110089 56013 TSNO
94908KDBQ DBQ20050526210010605/26/05 21:00:31  5-MIN KDBQ 270300Z AUTO 22004KT 10SM BKN080 11/09 A2993 1070 86 900 220/04 RMK AO2 TSNO
94908KDBQ DBQ20050526210510605/26/05 21:05:31  5-MIN KDBQ 270305Z AUTO 22004KT 10SM BKN075 11/09 A2993 1070 86 900 220/04 RMK AO2 TSNO
94908KDBQ DBQ20050526211010605/26/05 21:10:31  5-MIN KDBQ 270310Z AUTO 00000KT 10SM BKN075 11/09 A2992 1070 86 900 000/00 RMK AO2 TSNO
94908KDBQ DBQ20050526211510705/26/05 21:15:31  5-MIN KDBQ 270315Z AUTO 21003KT 10SM BKN070 12/09 A2992 1080 83 1000 210/03 RMK AO2 TSNO
94908KDBQ DBQ20050526212010705/26/05 21:20:31  5-MIN KDBQ 270320Z AUTO 00000KT 10SM BKN070 12/09 A2992 1080 83 1000 000/00 RMK AO2 TSNO
94908KDBQ DBQ20050526212510705/26/05 21:25:31  5-MIN KDBQ 270325Z AUTO 00000KT 10SM BKN070 12/09 A2992 1080 83 1000 000/00 RMK AO2 TSNO
94908KDBQ DBQ20050526213010705/26/05 21:30:31  5-MIN KDBQ 270330Z AUTO 00000KT 10SM SCT070 12/09 A2991 1080 83 1000 000/00 RMK AO2 TSNO
94908KDBQ DBQ20050526213510705/26/05 21:35:31  5-MIN KDBQ 270335Z AUTO 20003KT 10SM FEW065 12/09 A2991 1080 83 1000 190/03 RMK AO2 TSNO
94908KDBQ DBQ20050526214010605/26/05 21:40:31  5-MIN KDBQ 270340Z AUTO 19004KT 10SM FEW065 11/08 A2991 1080 83 900 190/04 RMK AO2 TSNO
94908KDBQ DBQ20050526214510605/26/05 21:45:31  5-MIN KDBQ 270345Z AUTO 21003KT 10SM FEW065 11/08 A2992 1080 83 900 210/03 RMK AO2 TSNO
94908KDBQ DBQ20050526215012105/26/05 21:50:31  5-MIN KDBQ 270350Z AUTO 00000KT 10SM CLR 11/08 A2991  1080 83 900 000/00 RMK AO2 SLP129 T01110083 TSNO
94908KDBQ DBQ20050526215512105/26/05 21:55:31  5-MIN KDBQ 270355Z AUTO 00000KT 10SM CLR 11/08 A2991  1090 86 900 000/00 RMK AO2 SLP129 T01060083 TSNO
94908KDBQ DBQ20050526220010405/26/05 22:00:31  5-MIN KDBQ 270400Z AUTO 00000KT 10SM CLR 10/08 A2991  1090 89 800 000/00 RMK AO2 TSNO
94908KDBQ DBQ20050526220510405/26/05 22:05:31  5-MIN KDBQ 270405Z AUTO 00000KT 10SM CLR 09/08 A2991  1090 89 700 000/00 RMK AO2 TSNO
94908KDBQ DBQ20050526221010405/26/05 22:10:31  5-MIN KDBQ 270410Z AUTO 00000KT 10SM CLR 10/08 A2990  1090 89 800 000/00 RMK AO2 TSNO
94908KDBQ DBQ20050526221510405/26/05 22:15:31  5-MIN KDBQ 270415Z AUTO 00000KT 10SM CLR 11/08 A2990  1090 83 900 000/00 RMK AO2 TSNO
94908KDBQ DBQ20050526222010505/26/05 22:20:31  5-MIN KDBQ 270420Z AUTO 00000KT 10SM CLR 12/08 A2990  1100 80 1000 000/00 RMK AO2 TSNO
94908KDBQ DBQ20050526222510405/26/05 22:25:31  5-MIN KDBQ 270425Z AUTO 20003KT 10SM CLR 11/08 A2990  1100 83 900 190/03 RMK AO2 TSNO
94908KDBQ DBQ20050526223010405/26/05 22:30:31  5-MIN KDBQ 270430Z AUTO 21004KT 10SM CLR 11/08 A2990  1100 83 900 210/04 RMK AO2 TSNO
94908KDBQ DBQ20050526223510405/26/05 22:35:31  5-MIN KDBQ 270435Z AUTO 20004KT 10SM CLR 11/08 A2990  1100 83 900 200/04 RMK AO2 TSNO
94908KDBQ DBQ20050526224010405/26/05 22:40:31  5-MIN KDBQ 270440Z AUTO 21003KT 10SM CLR 11/08 A2990  1100 86 900 210/03 RMK AO2 TSNO
94908KDBQ DBQ20050526224510605/26/05 22:45:31  5-MIN KDBQ 270445Z AUTO 22005KT 10SM FEW100 11/08 A2990 1100 86 900 220/05 RMK AO2 TSNO
94908KDBQ DBQ20050526225012305/26/05 22:50:31  5-MIN KDBQ 270450Z AUTO 00000KT 10SM FEW100 11/08 A2990 1100 83 900 000/00 RMK AO2 SLP125 T01110083 TSNO
94908KDBQ DBQ20050526225512305/26/05 22:55:31  5-MIN KDBQ 270455Z AUTO 00000KT 10SM FEW100 11/08 A2990 1100 86 900 000/00 RMK AO2 SLP124 T01060083 TSNO
94908KDBQ DBQ20050526230010605/26/05 23:00:31  5-MIN KDBQ 270500Z AUTO 23005KT 10SM SCT100 11/08 A2990 1100 86 900 230/05 RMK AO2 TSNO
94908KDBQ DBQ20050526230510605/26/05 23:05:31  5-MIN KDBQ 270505Z AUTO 23005KT 10SM BKN110 11/08 A2989 1100 86 900 230/05 RMK AO2 TSNO
94908KDBQ DBQ20050526231010705/26/05 23:10:31  5-MIN KDBQ 270510Z AUTO 23007KT 10SM BKN110 12/08 A2989 1100 80 1000 230/07 RMK AO2 TSNO
94908KDBQ DBQ20050526231510705/26/05 23:15:31  5-MIN KDBQ 270515Z AUTO 24006KT 10SM BKN100 12/08 A2989 1110 80 1000 230/06 RMK AO2 TSNO
94908KDBQ DBQ20050526232010705/26/05 23:20:31  5-MIN KDBQ 270520Z AUTO 25008KT 10SM BKN110 12/08 A2989 1110 80 1000 250/08 RMK AO2 TSNO
94908KDBQ DBQ20050526232510705/26/05 23:25:31  5-MIN KDBQ 270525Z AUTO 25009KT 10SM BKN110 12/08 A2989 1110 77 1100 240/09 RMK AO2 TSNO
94908KDBQ DBQ20050526233010705/26/05 23:30:31  5-MIN KDBQ 270530Z AUTO 24008KT 10SM BKN110 12/08 A2989 1110 77 1100 240/08 RMK AO2 TSNO
94908KDBQ DBQ20050526233511405/26/05 23:35:31  5-MIN KDBQ 270535Z AUTO 24009KT 10SM SCT085 BKN110 12/08 A2989 1110 77 1100 240/09 RMK AO2 TSNO
94908KDBQ DBQ20050526234011405/26/05 23:40:31  5-MIN KDBQ 270540Z AUTO 24009KT 10SM BKN085 BKN110 12/08 A2989 1110 77 1100 240/09 RMK AO2 TSNO
94908KDBQ DBQ20050526234511405/26/05 23:45:31  5-MIN KDBQ 270545Z AUTO 25008KT 10SM BKN080 BKN110 12/08 A2989 1110 77 1100 250/08 RMK AO2 TSNO
94908KDBQ DBQ20050526235017305/26/05 23:50:31  5-MIN KDBQ 270550Z AUTO 25008KT 10SM BKN080 BKN095  OVC110 12/08 A2989 1110 77 1100 240/08 RMK AO2 SLP118 60000 T01220083 10156 20094 402170094 56013 TSNO
94908KDBQ DBQ20050526235516605/26/05 23:55:31  5-MIN KDBQ 270555Z AUTO 24007KT 10SM BKN080 BKN100 12/08 A2988 1110 77 1100 240/07 RMK AO2 SLP118 60000 T01220083 10156 20094  402170094 57014 TSNO
94908KDBQ DBQ20050527000010705/27/05 00:00:38  5-MIN KDBQ 270600Z AUTO 25007KT 10SM BKN080 12/08 A2988 1110 80 1000 250/07 RMK AO2 TSNO
94908KDBQ DBQ20050527000510705/27/05 00:05:31  5-MIN KDBQ 270605Z AUTO 25007KT 10SM SCT080 12/08 A2988 1120 77 1000 250/07 RMK AO2 TSNO
94908KDBQ DBQ20050527001011405/27/05 00:10:31  5-MIN KDBQ 270610Z AUTO 26009KT 10SM SCT080 SCT095 12/08 A2988 1120 77 1000 260/09 RMK AO2 TSNO
94908KDBQ DBQ20050527001511405/27/05 00:15:33  5-MIN KDBQ 270615Z AUTO 26009KT 10SM SCT080 SCT095 12/08 A2988 1120 74 1100 260/09 RMK AO2 TSNO
94908KDBQ DBQ20050527002010705/27/05 00:20:31  5-MIN KDBQ 270620Z AUTO 26011KT 10SM FEW080 13/07 A2988 1120 69 1200 260/11 RMK AO2 TSNO
94908KDBQ DBQ20050527002510705/27/05 00:25:31  5-MIN KDBQ 270625Z AUTO 26010KT 10SM FEW080 13/07 A2988 1120 69 1200 260/10 RMK AO2 TSNO
94908KDBQ DBQ20050527003010705/27/05 00:30:31  5-MIN KDBQ 270630Z AUTO 27009KT 10SM FEW080 12/07 A2988 1120 71 1100 270/09 RMK AO2 TSNO
94908KDBQ DBQ20050527003510705/27/05 00:35:31  5-MIN KDBQ 270635Z AUTO 28010KT 10SM FEW080 12/07 A2988 1110 71 1100 280/10 RMK AO2 TSNO
94908KDBQ DBQ20050527004010505/27/05 00:40:31  5-MIN KDBQ 270640Z AUTO 28010KT 10SM CLR 12/07 A2988  1110 71 1100 280/10 RMK AO2 TSNO
94908KDBQ DBQ20050527004510505/27/05 00:45:31  5-MIN KDBQ 270645Z AUTO 28013KT 10SM CLR 13/07 A2989  1110 69 1100 280/13 RMK AO2 TSNO
94908KDBQ DBQ20050527005012205/27/05 00:50:31  5-MIN KDBQ 270650Z AUTO 29010KT 10SM CLR 12/07 A2989  1110 71 1100 290/10 RMK AO2 SLP119 T01220072 TSNO
94908KDBQ DBQ20050527005512205/27/05 00:55:31  5-MIN KDBQ 270655Z AUTO 29011KT 10SM CLR 12/07 A2989  1110 71 1100 290/11 RMK AO2 SLP118 T01220072 TSNO
94908KDBQ DBQ20050527010010505/27/05 01:00:31  5-MIN KDBQ 270700Z AUTO 30010KT 10SM CLR 12/07 A2989  1110 71 1100 300/10 RMK AO2 TSNO
94908KDBQ DBQ20050527010510505/27/05 01:05:31  5-MIN KDBQ 270705Z AUTO 31009KT 10SM CLR 12/07 A2989  1110 74 1000 310/09 RMK AO2 TSNO
94908KDBQ DBQ20050527011010505/27/05 01:10:31  5-MIN KDBQ 270710Z AUTO 31008KT 10SM CLR 12/07 A2989  1110 74 1000 310/08 RMK AO2 TSNO
94908KDBQ DBQ20050527011510505/27/05 01:15:31  5-MIN KDBQ 270715Z AUTO 30007KT 10SM CLR 12/07 A2989  1110 74 1000 300/07 RMK AO2 TSNO
94908KDBQ DBQ20050527012010405/27/05 01:20:31  5-MIN KDBQ 270720Z AUTO 30006KT 10SM CLR 11/07 A2989  1110 77 900 300/06 RMK AO2 TSNO
94908KDBQ DBQ20050527012510405/27/05 01:25:31  5-MIN KDBQ 270725Z AUTO 30005KT 10SM CLR 11/07 A2989  1110 77 900 300/05 RMK AO2 TSNO
94908KDBQ DBQ20050527013010405/27/05 01:30:31  5-MIN KDBQ 270730Z AUTO 30005KT 10SM CLR 11/07 A2989  1110 80 900 300/05 RMK AO2 TSNO
94908KDBQ DBQ20050527013510405/27/05 01:35:31  5-MIN KDBQ 270735Z AUTO 30004KT 10SM CLR 11/07 A2989  1100 80 900 300/04 RMK AO2 TSNO
94908KDBQ DBQ20050527014010405/27/05 01:40:31  5-MIN KDBQ 270740Z AUTO 29005KT 10SM CLR 11/07 A2989  1100 80 900 290/05 RMK AO2 TSNO
94908KDBQ DBQ20050527014510405/27/05 01:45:31  5-MIN KDBQ 270745Z AUTO 29004KT 10SM CLR 11/07 A2989  1100 80 900 290/04 RMK AO2 TSNO
94908KDBQ DBQ20050527015012105/27/05 01:50:31  5-MIN KDBQ 270750Z AUTO 30003KT 10SM CLR 10/07 A2989  1100 83 800 300/03 RMK AO2 SLP122 T01000072 TSNO
94908KDBQ DBQ20050527015512105/27/05 01:55:31  5-MIN KDBQ 270755Z AUTO 00000KT 10SM CLR 10/07 A2989  1100 83 800 000/00 RMK AO2 SLP121 T01000072 TSNO
94908KDBQ DBQ20050527020010405/27/05 02:00:31  5-MIN KDBQ 270800Z AUTO 00000KT 10SM CLR 11/07 A2989  1100 80 900 000/00 RMK AO2 TSNO
94908KDBQ DBQ20050527020510405/27/05 02:05:31  5-MIN KDBQ 270805Z AUTO 00000KT 10SM CLR 10/07 A2989  1100 80 800 000/00 RMK AO2 TSNO
94908KDBQ DBQ20050527021010405/27/05 02:10:31  5-MIN KDBQ 270810Z AUTO 00000KT 10SM CLR 10/07 A2989  1100 83 800 000/00 RMK AO2 TSNO
94908KDBQ DBQ20050527021510405/27/05 02:15:31  5-MIN KDBQ 270815Z AUTO 32003KT 10SM CLR 10/07 A2990  1100 80 800 320/03 RMK AO2 TSNO
94908KDBQ DBQ20050527022010405/27/05 02:20:31  5-MIN KDBQ 270820Z AUTO 00000KT 10SM CLR 10/07 A2990  1100 83 800 000/00 RMK AO2 TSNO
94908KDBQ DBQ20050527022510405/27/05 02:25:31  5-MIN KDBQ 270825Z AUTO 00000KT 10SM CLR 10/07 A2990  1100 83 800 000/00 RMK AO2 TSNO
94908KDBQ DBQ20050527023010405/27/05 02:30:31  5-MIN KDBQ 270830Z AUTO 00000KT 10SM CLR 10/07 A2990  1100 83 800 000/00 RMK AO2 TSNO
94908KDBQ DBQ20050527023510405/27/05 02:35:31  5-MIN KDBQ 270835Z AUTO 27003KT 10SM CLR 09/07 A2990  1100 83 700 270/03 RMK AO2 TSNO
94908KDBQ DBQ20050527024010405/27/05 02:40:31  5-MIN KDBQ 270840Z AUTO 26005KT 10SM CLR 09/07 A2990  1100 83 700 260/05 RMK AO2 TSNO
94908KDBQ DBQ20050527024510405/27/05 02:45:31  5-MIN KDBQ 270845Z AUTO 26005KT 10SM CLR 09/07 A2990  1100 86 700 260/05 RMK AO2 TSNO
94908KDBQ DBQ20050527025012705/27/05 02:50:31  5-MIN KDBQ 270850Z AUTO 26005KT 10SM CLR 09/07 A2990  1100 86 700 260/05 RMK AO2 SLP126 T00890067 57014 TSNO
94908KDBQ DBQ20050527025512705/27/05 02:55:31  5-MIN KDBQ 270855Z AUTO 27004KT 10SM CLR 09/07 A2990  1090 86 700 270/04 RMK AO2 SLP125 T00890067 53006 TSNO
94908KDBQ DBQ20050527030010405/27/05 03:00:31  5-MIN KDBQ 270900Z AUTO 27006KT 10SM CLR 09/07 A2990  1090 86 700 270/06 RMK AO2 TSNO
94908KDBQ DBQ20050527030510405/27/05 03:05:31  5-MIN KDBQ 270905Z AUTO 27006KT 10SM CLR 09/07 A2991  1090 86 700 270/06 RMK AO2 TSNO
94908KDBQ DBQ20050527031010405/27/05 03:10:31  5-MIN KDBQ 270910Z AUTO 28008KT 10SM CLR 09/07 A2991  1090 83 700 270/08 RMK AO2 TSNO
94908KDBQ DBQ20050527031510405/27/05 03:15:31  5-MIN KDBQ 270915Z AUTO 28007KT 10SM CLR 09/07 A2991  1090 83 700 280/07 RMK AO2 TSNO
94908KDBQ DBQ20050527032010405/27/05 03:20:31  5-MIN KDBQ 270920Z AUTO 27007KT 10SM CLR 09/07 A2991  1090 83 700 270/07 RMK AO2 TSNO
94908KDBQ DBQ20050527032510405/27/05 03:25:31  5-MIN KDBQ 270925Z AUTO 28007KT 10SM CLR 09/07 A2991  1090 83 700 280/07 RMK AO2 TSNO
94908KDBQ DBQ20050527033010405/27/05 03:30:31  5-MIN KDBQ 270930Z AUTO 26008KT 10SM CLR 09/07 A2991  1090 83 700 260/08 RMK AO2 TSNO
94908KDBQ DBQ20050527033510405/27/05 03:35:31  5-MIN KDBQ 270935Z AUTO 26007KT 10SM CLR 09/07 A2991  1090 86 700 260/07 RMK AO2 TSNO
94908KDBQ DBQ20050527034010405/27/05 03:40:31  5-MIN KDBQ 270940Z AUTO 27006KT 10SM CLR 09/07 A2991  1090 86 700 270/06 RMK AO2 TSNO
94908KDBQ DBQ20050527034510405/27/05 03:45:31  5-MIN KDBQ 270945Z AUTO 27006KT 10SM CLR 09/07 A2991  1090 86 700 270/06 RMK AO2 TSNO
94908KDBQ DBQ20050527035012105/27/05 03:50:31  5-MIN KDBQ 270950Z AUTO 27006KT 10SM CLR 09/06 A2992  1080 83 600 270/06 RMK AO2 SLP130 T00890061 TSNO
94908KDBQ DBQ20050527035512105/27/05 03:55:31  5-MIN KDBQ 270955Z AUTO 26007KT 10SM CLR 09/06 A2992  1080 83 600 260/07 RMK AO2 SLP131 T00890061 TSNO
94908KDBQ DBQ20050527040010405/27/05 04:00:31  5-MIN KDBQ 271000Z AUTO 26007KT 10SM CLR 08/06 A2992  1070 86 600 260/07 RMK AO2 TSNO
94908KDBQ DBQ20050527040510405/27/05 04:05:31  5-MIN KDBQ 271005Z AUTO 27006KT 10SM CLR 08/06 A2993  1070 86 600 260/06 RMK AO2 TSNO
94908KDBQ DBQ20050527041010405/27/05 04:10:31  5-MIN KDBQ 271010Z AUTO 27005KT 10SM CLR 08/06 A2994  1060 86 600 270/05 RMK AO2 TSNO
94908KDBQ DBQ20050527041510405/27/05 04:15:31  5-MIN KDBQ 271015Z AUTO 29003KT 10SM CLR 08/06 A2993  1060 86 600 290/03 RMK AO2 TSNO
94908KDBQ DBQ20050527042010405/27/05 04:20:31  5-MIN KDBQ 271020Z AUTO 28003KT 10SM CLR 08/06 A2993  1070 86 600 280/03 RMK AO2 TSNO
94908KDBQ DBQ20050527042510405/27/05 04:25:31  5-MIN KDBQ 271025Z AUTO 29003KT 10SM CLR 08/06 A2993  1070 86 600 290/03 RMK AO2 TSNO
94908KDBQ DBQ20050527043010405/27/05 04:30:31  5-MIN KDBQ 271030Z AUTO 00000KT 10SM CLR 09/06 A2993  1070 83 600 000/00 RMK AO2 TSNO
94908KDBQ DBQ20050527043510405/27/05 04:35:31  5-MIN KDBQ 271035Z AUTO 29003KT 10SM CLR 09/06 A2993  1070 83 600 290/03 RMK AO2 TSNO
94908KDBQ DBQ20050527044010405/27/05 04:40:31  5-MIN KDBQ 271040Z AUTO 00000KT 10SM CLR 09/06 A2993  1070 83 600 000/00 RMK AO2 TSNO
94908KDBQ DBQ20050527044510405/27/05 04:45:31  5-MIN KDBQ 271045Z AUTO 28003KT 10SM CLR 09/06 A2994  1060 83 600 280/03 RMK AO2 TSNO
94908KDBQ DBQ20050527045012105/27/05 04:50:31  5-MIN KDBQ 271050Z AUTO 00000KT 10SM CLR 09/06 A2993  1070 83 600 000/00 RMK AO2 SLP137 T00890061 TSNO
94908KDBQ DBQ20050527045511005/27/05 04:55:31  5-MIN KDBQ 271055Z 27003KT 10SM CLR 08/06 A2993 1060 86 600 270/03 RMK AO2 SLP137 T00830061
94908KDBQ DBQ20050527050009305/27/05 05:00:31  5-MIN KDBQ 271100Z 28003KT 10SM CLR 08/06 A2994 1060 86 600 280/03 RMK AO2
94908KDBQ DBQ20050527050509305/27/05 05:05:31  5-MIN KDBQ 271105Z 28003KT 10SM CLR 09/06 A2994 1060 83 600 280/03 RMK AO2
94908KDBQ DBQ20050527051009305/27/05 05:10:31  5-MIN KDBQ 271110Z 26003KT 10SM CLR 08/06 A2994 1060 86 600 260/03 RMK AO2
94908KDBQ DBQ20050527051509305/27/05 05:15:31  5-MIN KDBQ 271115Z 00000KT 10SM CLR 08/06 A2994 1060 89 500 000/00 RMK AO2
94908KDBQ DBQ20050527052009305/27/05 05:20:31  5-MIN KDBQ 271120Z 21003KT 10SM CLR 08/06 A2994 1060 89 500 210/03 RMK AO2
94908KDBQ DBQ20050527052509305/27/05 05:25:31  5-MIN KDBQ 271125Z 00000KT 10SM CLR 08/07 A2994 1060 89 600 000/00 RMK AO2
94908KDBQ DBQ20050527053009305/27/05 05:30:31  5-MIN KDBQ 271130Z VRB03KT 10SM CLR 08/07 A2994 1060 89 600 VRB/03 RMK AO2
94908KDBQ DBQ20050527053509305/27/05 05:35:31  5-MIN KDBQ 271135Z 26007KT 10SM CLR 09/07 A2994 1060 89 600 260/07 RMK AO2
94908KDBQ DBQ20050527054009605/27/05 05:40:31  5-MIN KDBQ 271140Z 27007KT 10SM FEW065 09/07 A2994 1060 86 700 270/07 RMK AO2
94908KDBQ DBQ20050527054509605/27/05 05:45:31  5-MIN KDBQ 271145Z 27008KT 10SM FEW065 09/07 A2994 1060 86 700 270/08 RMK AO2
94908KDBQ DBQ20050527055013105/27/05 05:50:31  5-MIN KDBQ 271150Z 28008KT 10SM FEW065 09/07 A2994 1060 86 700 270/08 RMK AO2 SLP140 T00940072 10128 20078 53006
94908KDBQ DBQ20050527055513105/27/05 05:55:31  5-MIN KDBQ 271155Z 28008KT 10SM FEW065 09/07 A2993 1060 86 700 280/08 RMK AO2 SLP139 T00940072 10128 20078 51010
94908KDBQ DBQ20050527060009605/27/05 06:00:31  5-MIN KDBQ 271200Z 27008KT 10SM FEW065 10/07 A2994 1060 83 800 270/08 RMK AO2
94908KDBQ DBQ20050529115016905/29/05 11:50:31  5-MIN KDBQ 291750Z 16011KT 10SM FEW050 BKN070 OVC085  13/11 A2997 1030 83 1100 160/11 RMK AO2 RAB19E30 SLP151 P0000 60003  T01330106 10139 20100 51012
94908KDBQ DBQ20050529115516905/29/05 11:55:31  5-MIN KDBQ 291755Z 18009KT 10SM FEW050 BKN070 OVC085  13/11 A2997 1030 83 1100 170/09 RMK AO2 RAB19E30 SLP151 P0000 60003  T01330106 10139 20100 58001
94908KDBQ DBQ20050529120010505/29/05 12:00:31  5-MIN KDBQ 291800Z 17012KT 10SM BKN065 OVC080 14/11  A2997 1030 80 1200 170/12 RMK AO2
94908KDBQ DBQ20050529120510505/29/05 12:05:31  5-MIN KDBQ 291805Z 17010KT 10SM BKN065 OVC080 13/11  A2998 1030 86 1100 170/10 RMK AO2
94908KDBQ DBQ20050529121009705/29/05 12:10:31  5-MIN KDBQ 291810Z 17010KT 10SM OVC065 13/11 A2998 1020 86 1100 170/10 RMK AO2
94908KDBQ DBQ20050529121509705/29/05 12:15:31  5-MIN KDBQ 291815Z 17009KT 10SM OVC060 13/11 A2998 1020 83 1100 170/09 RMK AO2
94908KDBQ DBQ20050529122009705/29/05 12:20:31  5-MIN KDBQ 291820Z 17010KT 10SM OVC060 14/11 A2998 1030 80 1200 170/10 RMK AO2
94908KDBQ DBQ20050529122509705/29/05 12:25:31  5-MIN KDBQ 291825Z 17010KT 10SM OVC060 14/11 A2998 1030 80 1200 170/10 RMK AO2
94908KDBQ DBQ20050529123009705/29/05 12:30:31  5-MIN KDBQ 291830Z 17011KT 10SM OVC060 14/10 A2998 1030 77 1200 170/11 RMK AO2
94908KDBQ DBQ20050529123509705/29/05 12:35:31  5-MIN KDBQ 291835Z 18010KT 10SM OVC055 14/10 A2997 1030 77 1200 170/10 RMK AO2
94908KDBQ DBQ20050529124010505/29/05 12:40:31  5-MIN KDBQ 291840Z 17010KT 10SM BKN050 OVC060 14/11  A2998 1030 80 1200 170/10 RMK AO2
94908KDBQ DBQ20050529124510505/29/05 12:45:31  5-MIN KDBQ 291845Z 18010KT 10SM BKN050 OVC060 14/11  A2998 1030 80 1200 180/10 RMK AO2
94908KDBQ DBQ20050529125011405/29/05 12:50:31  5-MIN KDBQ 291850Z 18011KT 10SM OVC050 14/10 A2998 1030 77 1200 170/11 RMK AO2 SLP153 T01390100
94908KDBQ DBQ20050529125511405/29/05 12:55:31  5-MIN KDBQ 291855Z 19008KT 10SM OVC050 14/11 A2998 1030 80 1200 190/08 RMK AO2 SLP153 T01390106
94908KDBQ DBQ20050529130009705/29/05 13:00:31  5-MIN KDBQ 291900Z 18009KT 10SM OVC048 14/11 A2997 1030 80 1200 180/09 RMK AO2
94908KDBQ DBQ20050529130509705/29/05 13:05:31  5-MIN KDBQ 291905Z 18007KT 10SM OVC048 14/10 A2997 1030 77 1200 180/07 RMK AO2
94908KDBQ DBQ20050529131009705/29/05 13:10:31  5-MIN KDBQ 291910Z 18006KT 10SM OVC048 14/10 A2997 1030 77 1200 180/06 RMK AO2
94908KDBQ DBQ20050529131509705/29/05 13:15:31  5-MIN KDBQ 291915Z 17007KT 10SM OVC048 14/11 A2997 1040 77 1300 170/07 RMK AO2
94908KDBQ DBQ20050529132009705/29/05 13:20:31  5-MIN KDBQ 291920Z 17008KT 10SM OVC048 14/11 A2996 1040 77 1300 170/08 RMK AO2
94908KDBQ DBQ20050529132510505/29/05 13:25:31  5-MIN KDBQ 291925Z 18007KT 10SM BKN048 BKN060 15/11  A2996 1040 74 1300 170/07 RMK AO2
94908KDBQ DBQ20050529133010505/29/05 13:30:31  5-MIN KDBQ 291930Z 18008KT 10SM BKN048 BKN060 15/11  A2995 1050 74 1300 180/08 RMK AO2
94908KDBQ DBQ20050529133509705/29/05 13:35:31  5-MIN KDBQ 291935Z 19007KT 10SM SCT048 15/10 A2995 1050 72 1300 190/07 RMK AO2
94908KDBQ DBQ20050529134009705/29/05 13:40:31  5-MIN KDBQ 291940Z 16007KT 10SM FEW048 16/11 A2995 1050 72 1400 160/07 RMK AO2
94908KDBQ DBQ20050529134509705/29/05 13:45:31  5-MIN KDBQ 291945Z 17008KT 10SM FEW050 16/11 A2995 1050 74 1400 170/08 RMK AO2
94908KDBQ DBQ20050529135011105/29/05 13:50:31  5-MIN KDBQ 291950Z 15010KT 10SM CLR 16/11 A2995 1050 72 1400 150/10 RMK AO2 SLP143 T01560106
94908KDBQ DBQ20050529135511105/29/05 13:55:31  5-MIN KDBQ 291955Z 16010KT 10SM CLR 16/10 A2994 1060 69 1400 160/10 RMK AO2 SLP142 T01560100
94908KDBQ DBQ20050529140009405/29/05 14:00:31  5-MIN KDBQ 292000Z 17012KT 10SM CLR 16/11 A2994 1060 72 1400 170/12 RMK AO2
94908KDBQ DBQ20050529140509405/29/05 14:05:31  5-MIN KDBQ 292005Z 17012KT 10SM CLR 16/10 A2995 1060 69 1400 170/12 RMK AO2
94908KDBQ DBQ20050529141009405/29/05 14:10:31  5-MIN KDBQ 292010Z 18010KT 10SM CLR 16/10 A2995 1050 69 1400 180/10 RMK AO2
94908KDBQ DBQ20050529141509405/29/05 14:15:31  5-MIN KDBQ 292015Z 19011KT 10SM CLR 16/11 A2995 1050 72 1400 190/11 RMK AO2
94908KDBQ DBQ20050529142009405/29/05 14:20:31  5-MIN KDBQ 292020Z 19010KT 10SM CLR 16/11 A2995 1060 72 1400 180/10 RMK AO2
94908KDBQ DBQ20050529142509405/29/05 14:25:31  5-MIN KDBQ 292025Z 17010KT 10SM CLR 16/11 A2994 1060 72 1400 170/10 RMK AO2
94908KDBQ DBQ20050529143009405/29/05 14:30:31  5-MIN KDBQ 292030Z 18010KT 10SM CLR 16/11 A2994 1060 72 1400 180/10 RMK AO2
94908KDBQ DBQ20050529143509405/29/05 14:35:31  5-MIN KDBQ 292035Z 19009KT 10SM CLR 16/11 A2994 1060 72 1400 190/09 RMK AO2
94908KDBQ DBQ20050529144009405/29/05 14:40:31  5-MIN KDBQ 292040Z 19008KT 10SM CLR 16/11 A2994 1060 72 1500 190/08 RMK AO2
94908KDBQ DBQ20050529144509405/29/05 14:45:31  5-MIN KDBQ 292045Z 19008KT 10SM CLR 17/11 A2994 1060 69 1500 180/08 RMK AO2
94908KDBQ DBQ20050529145011705/29/05 14:50:31  5-MIN KDBQ 292050Z VRB06KT 10SM CLR 16/11 A2994 1060 69 1500 VRB/06 RMK AO2 SLP141 T01610106 58001
94908KDBQ DBQ20050529145511705/29/05 14:55:31  5-MIN KDBQ 292055Z 21008KT 10SM CLR 16/11 A2994 1060 69 1500 210/08 RMK AO2 SLP141 T01610106 58010
94908KDBQ DBQ20050529150009405/29/05 15:00:31  5-MIN KDBQ 292100Z 20007KT 10SM CLR 16/11 A2994 1060 72 1500 200/07 RMK AO2
94908KDBQ DBQ20050529150509405/29/05 15:05:31  5-MIN KDBQ 292105Z 20009KT 10SM CLR 16/11 A2993 1070 72 1500 200/09 RMK AO2
94908KDBQ DBQ20050529151009405/29/05 15:10:31  5-MIN KDBQ 292110Z 21009KT 10SM CLR 16/11 A2993 1060 72 1500 210/09 RMK AO2
94908KDBQ DBQ20050529151509405/29/05 15:15:31  5-MIN KDBQ 292115Z 22009KT 10SM CLR 17/11 A2993 1070 69 1500 220/09 RMK AO2
94908KDBQ DBQ20050529152009405/29/05 15:20:31  5-MIN KDBQ 292120Z 22010KT 10SM CLR 17/12 A2993 1070 72 1500 220/10 RMK AO2
94908KDBQ DBQ20050529152509405/29/05 15:25:31  5-MIN KDBQ 292125Z 22008KT 10SM CLR 17/12 A2993 1070 72 1600 220/08 RMK AO2
94908KDBQ DBQ20050529153009405/29/05 15:30:31  5-MIN KDBQ 292130Z 21008KT 10SM CLR 17/12 A2993 1070 72 1600 210/08 RMK AO2
94908KDBQ DBQ20050529153509405/29/05 15:35:31  5-MIN KDBQ 292135Z 22010KT 10SM CLR 17/12 A2993 1070 72 1600 220/10 RMK AO2
94908KDBQ DBQ20050529154009405/29/05 15:40:31  5-MIN KDBQ 292140Z 22008KT 10SM CLR 17/12 A2993 1070 72 1600 220/08 RMK AO2
94908KDBQ DBQ20050529154509405/29/05 15:45:31  5-MIN KDBQ 292145Z 22009KT 10SM CLR 17/12 A2993 1070 72 1600 220/09 RMK AO2
94908KDBQ DBQ20050529155011105/29/05 15:50:31  5-MIN KDBQ 292150Z 22008KT 10SM CLR 18/12 A2993 1070 69 1700 220/08 RMK AO2 SLP136 T01780122
94908KDBQ DBQ20050529155511105/29/05 15:55:31  5-MIN KDBQ 292155Z 21009KT 10SM CLR 18/12 A2993 1070 69 1700 210/09 RMK AO2 SLP136 T01780122
94908KDBQ DBQ20050529160009405/29/05 16:00:31  5-MIN KDBQ 292200Z 22007KT 10SM CLR 18/13 A2992 1080 72 1700 220/07 RMK AO2
94908KDBQ DBQ20050529160509405/29/05 16:05:31  5-MIN KDBQ 292205Z 23008KT 10SM CLR 18/13 A2992 1080 72 1700 230/08 RMK AO2
94908KDBQ DBQ20050529161009405/29/05 16:10:31  5-MIN KDBQ 292210Z 24008KT 10SM CLR 18/13 A2992 1080 72 1700 230/08 RMK AO2
94908KDBQ DBQ20050529161509405/29/05 16:15:31  5-MIN KDBQ 292215Z 22007KT 10SM CLR 18/13 A2992 1080 70 1800 220/07 RMK AO2
94908KDBQ DBQ20050529162009405/29/05 16:20:31  5-MIN KDBQ 292220Z 23008KT 10SM CLR 18/12 A2993 1070 69 1700 230/08 RMK AO2
94908KDBQ DBQ20050529162509405/29/05 16:25:31  5-MIN KDBQ 292225Z 25007KT 10SM CLR 18/12 A2993 1070 69 1700 250/07 RMK AO2
94908KDBQ DBQ20050529163009405/29/05 16:30:31  5-MIN KDBQ 292230Z VRB03KT 10SM CLR 18/12 A2993 1070 69 1700 VRB/03 RMK AO2
94908KDBQ DBQ20050529163509405/29/05 16:35:31  5-MIN KDBQ 292235Z 00000KT 10SM CLR 18/13 A2993 1070 72 1700 000/00 RMK AO2
94908KDBQ DBQ20050529164009405/29/05 16:40:31  5-MIN KDBQ 292240Z 24003KT 10SM CLR 18/13 A2993 1070 72 1700 240/03 RMK AO2
94908KDBQ DBQ20050529164509405/29/05 16:45:31  5-MIN KDBQ 292245Z 24003KT 10SM CLR 18/12 A2992 1080 69 1700 240/03 RMK AO2
94908KDBQ DBQ20050529165011105/29/05 16:50:31  5-MIN KDBQ 292250Z 27005KT 10SM CLR 18/12 A2993 1070 67 1700 270/05 RMK AO2 SLP136 T01830122
94908KDBQ DBQ20050529165511405/29/05 16:55:31  5-MIN KDBQ 292255Z 27005KT 10SM FEW026 18/12 A2993 1070 67 1700 270/05 RMK AO2 SLP136 T01830122
94908KDBQ DBQ20050529170009705/29/05 17:00:31  5-MIN KDBQ 292300Z 00000KT 10SM FEW028 18/12 A2993 1070 65 1700 000/00 RMK AO2
94908KDBQ DBQ20050529170509705/29/05 17:05:31  5-MIN KDBQ 292305Z VRB04KT 10SM SCT028 18/12 A2993 1070 65 1700 VRB/04 RMK AO2
94908KDBQ DBQ20050529171009705/29/05 17:10:31  5-MIN KDBQ 292310Z 25006KT 10SM SCT028 18/12 A2993 1070 65 1800 250/06 RMK AO2
94908KDBQ DBQ20050529171509705/29/05 17:15:31  5-MIN KDBQ 292315Z 23003KT 10SM FEW028 18/11 A2993 1070 62 1800 230/03 RMK AO2
94908KDBQ DBQ20050529172009705/29/05 17:20:31  5-MIN KDBQ 292320Z 28005KT 10SM FEW028 18/12 A2993 1070 65 1700 280/05 RMK AO2
94908KDBQ DBQ20050529172509705/29/05 17:25:31  5-MIN KDBQ 292325Z 28003KT 10SM FEW028 18/12 A2993 1070 65 1700 280/03 RMK AO2
94908KDBQ DBQ20050529173009705/29/05 17:30:31  5-MIN KDBQ 292330Z 28004KT 10SM FEW028 18/12 A2993 1070 67 1700 280/04 RMK AO2
94908KDBQ DBQ20050529173509405/29/05 17:35:31  5-MIN KDBQ 292335Z 00000KT 10SM CLR 18/11 A2993 1070 64 1700 000/00 RMK AO2
94908KDBQ DBQ20050529174009405/29/05 17:40:31  5-MIN KDBQ 292340Z 00000KT 10SM CLR 18/12 A2993 1070 67 1700 000/00 RMK AO2
94908KDBQ DBQ20050529174509405/29/05 17:45:31  5-MIN KDBQ 292345Z 00000KT 10SM CLR 18/12 A2993 1070 65 1700 000/00 RMK AO2
94908KDBQ DBQ20050529175012905/29/05 17:50:31  5-MIN KDBQ 292350Z 00000KT 10SM CLR 19/11 A2993 1070 60 1800 000/00 RMK AO2 SLP134 T01890111 10189 20133 58010
94908KDBQ DBQ20050529175512905/29/05 17:55:31  5-MIN KDBQ 292355Z 00000KT 10SM CLR 19/11 A2993 1070 60 1800 000/00 RMK AO2 SLP134 T01890111 10189 20133 56004
94908KDBQ DBQ20050529180009405/29/05 18:00:31  5-MIN KDBQ 300000Z 00000KT 10SM CLR 18/11 A2993 1070 62 1800 000/00 RMK AO2
94908KDBQ DBQ20050529180509405/29/05 18:05:31  5-MIN KDBQ 300005Z 00000KT 10SM CLR 18/11 A2993 1070 62 1700 000/00 RMK AO2
94908KDBQ DBQ20050529181009405/29/05 18:10:31  5-MIN KDBQ 300010Z 00000KT 10SM CLR 19/11 A2993 1070 60 1800 000/00 RMK AO2
94908KDBQ DBQ20050529181509405/29/05 18:15:31  5-MIN KDBQ 300015Z 00000KT 10SM CLR 19/12 A2992 1070 62 1800 000/00 RMK AO2
94908KDBQ DBQ20050529182009405/29/05 18:20:31  5-MIN KDBQ 300020Z 00000KT 10SM CLR 19/11 A2992 1070 60 1800 000/00 RMK AO2
94908KDBQ DBQ20050529182509405/29/05 18:25:31  5-MIN KDBQ 300025Z 00000KT 10SM CLR 18/11 A2992 1070 62 1800 000/00 RMK AO2
94908KDBQ DBQ20050529183009405/29/05 18:30:31  5-MIN KDBQ 300030Z 00000KT 10SM CLR 18/11 A2992 1070 62 1800 000/00 RMK AO2
94908KDBQ DBQ20050529183509405/29/05 18:35:31  5-MIN KDBQ 300035Z 00000KT 10SM CLR 19/11 A2992 1070 58 1800 000/00 RMK AO2
94908KDBQ DBQ20050529184009405/29/05 18:40:31  5-MIN KDBQ 300040Z 00000KT 10SM CLR 18/11 A2992 1070 62 1800 000/00 RMK AO2
94908KDBQ DBQ20050529184509405/29/05 18:45:31  5-MIN KDBQ 300045Z 00000KT 10SM CLR 18/11 A2993 1070 62 1800 000/00 RMK AO2
94908KDBQ DBQ20050529185011105/29/05 18:50:31  5-MIN KDBQ 300050Z 00000KT 10SM CLR 18/12 A2993 1070 67 1700 000/00 RMK AO2 SLP134 T01780117
94908KDBQ DBQ20050529185511105/29/05 18:55:31  5-MIN KDBQ 300055Z 15004KT 10SM CLR 18/12 A2993 1070 67 1700 150/04 RMK AO2 SLP134 T01780117
94908KDBQ DBQ20050529190010705/29/05 19:00:31  5-MIN KDBQ 300100Z AUTO 14003KT 10SM SCT100 17/12 A2993 1070 69 1600 140/03 RMK AO2 TSNO
94908KDBQ DBQ20050529190510705/29/05 19:05:31  5-MIN KDBQ 300105Z AUTO 15003KT 10SM BKN100 17/12 A2993 1070 69 1600 150/03 RMK AO2 TSNO
94908KDBQ DBQ20050529191010705/29/05 19:10:31  5-MIN KDBQ 300110Z AUTO 14004KT 10SM BKN100 17/11 A2992 1080 67 1600 140/04 RMK AO2 TSNO
94908KDBQ DBQ20050529191510705/29/05 19:15:31  5-MIN KDBQ 300115Z AUTO 14006KT 10SM BKN100 17/12 A2993 1070 72 1600 140/06 RMK AO2 TSNO
94908KDBQ DBQ20050529192010705/29/05 19:20:31  5-MIN KDBQ 300120Z AUTO 14006KT 10SM SCT100 16/12 A2991 1090 75 1500 140/06 RMK AO2 TSNO
94908KDBQ DBQ20050529192510705/29/05 19:25:31  5-MIN KDBQ 300125Z AUTO 14005KT 10SM SCT100 16/12 A2992 1080 75 1500 140/05 RMK AO2 TSNO
94908KDBQ DBQ20050529193010705/29/05 19:30:31  5-MIN KDBQ 300130Z AUTO 14006KT 10SM FEW100 16/12 A2991 1090 77 1400 140/06 RMK AO2 TSNO
94908KDBQ DBQ20050529193510705/29/05 19:35:31  5-MIN KDBQ 300135Z AUTO 13007KT 10SM FEW100 16/11 A2992 1080 74 1400 130/07 RMK AO2 TSNO
94908KDBQ DBQ20050529194010505/29/05 19:40:31  5-MIN KDBQ 300140Z AUTO 13006KT 10SM CLR 16/11 A2991  1090 72 1500 130/06 RMK AO2 TSNO
94908KDBQ DBQ20050529194510505/29/05 19:45:31  5-MIN KDBQ 300145Z AUTO 14006KT 10SM CLR 16/11 A2992  1080 74 1400 130/06 RMK AO2 TSNO
94908KDBQ DBQ20050529195012205/29/05 19:50:31  5-MIN KDBQ 300150Z AUTO 14006KT 10SM CLR 15/11 A2991  1090 77 1400 130/06 RMK AO2 SLP130 T01500111 TSNO
94908KDBQ DBQ20050529195512205/29/05 19:55:31  5-MIN KDBQ 300155Z AUTO 13007KT 10SM CLR 15/11 A2991  1080 77 1400 130/07 RMK AO2 SLP130 T01500111 TSNO
94908KDBQ DBQ20050529200010505/29/05 20:00:31  5-MIN KDBQ 300200Z AUTO 13006KT 10SM CLR 16/11 A2991  1090 74 1400 130/06 RMK AO2 TSNO
94908KDBQ DBQ20050529200510505/29/05 20:05:31  5-MIN KDBQ 300205Z AUTO 13006KT 10SM CLR 15/11 A2991  1090 77 1400 130/06 RMK AO2 TSNO
94908KDBQ DBQ20050529201010505/29/05 20:10:31  5-MIN KDBQ 300210Z AUTO 13006KT 10SM CLR 15/11 A2991  1090 77 1400 130/06 RMK AO2 TSNO
94908KDBQ DBQ20050529201510505/29/05 20:15:31  5-MIN KDBQ 300215Z AUTO 14007KT 10SM CLR 15/11 A2992  1080 77 1400 130/07 RMK AO2 TSNO
94908KDBQ DBQ20050529202010505/29/05 20:20:31  5-MIN KDBQ 300220Z AUTO 14007KT 10SM CLR 14/12 A2992  1080 83 1300 140/07 RMK AO2 TSNO
94908KDBQ DBQ20050529202510505/29/05 20:25:31  5-MIN KDBQ 300225Z AUTO 14008KT 10SM CLR 14/12 A2992  1080 83 1300 140/08 RMK AO2 TSNO
94908KDBQ DBQ20050529203010705/29/05 20:30:31  5-MIN KDBQ 300230Z AUTO 17009KT 10SM FEW070 14/12 A2993 1070 83 1300 170/09 RMK AO2 TSNO
94908KDBQ DBQ20050529203510705/29/05 20:35:31  5-MIN KDBQ 300235Z AUTO 17008KT 10SM SCT070 14/12 A2993 1070 83 1300 170/08 RMK AO2 TSNO
94908KDBQ DBQ20050529204010705/29/05 20:40:31  5-MIN KDBQ 300240Z AUTO 16006KT 10SM BKN070 14/12 A2994 1060 86 1300 160/06 RMK AO2 TSNO
94908KDBQ DBQ20050529204510705/29/05 20:45:31  5-MIN KDBQ 300245Z AUTO 23005KT 10SM BKN070 14/12 A2993 1070 90 1200 230/05 RMK AO2 TSNO
94908KDBQ DBQ20050529205013005/29/05 20:50:31  5-MIN KDBQ 300250Z AUTO 20004KT 10SM SCT070 14/12 A2993 1070 86 1200 200/04 RMK AO2 SLP136 T01390117 56004 TSNO
94908KDBQ DBQ20050529205513005/29/05 20:55:31  5-MIN KDBQ 300255Z AUTO 18004KT 10SM SCT070 14/12 A2994 1060 86 1200 180/04 RMK AO2 SLP139 T01390117 53004 TSNO
94908KDBQ DBQ20050529210010705/29/05 21:00:31  5-MIN KDBQ 300300Z AUTO 17004KT 10SM SCT070 14/12 A2993 1070 86 1200 170/04 RMK AO2 TSNO
94908KDBQ DBQ20050529210510705/29/05 21:05:31  5-MIN KDBQ 300305Z AUTO 17005KT 10SM FEW060 13/12 A2993 1070 89 1200 170/05 RMK AO2 TSNO
94908KDBQ DBQ20050529211010505/29/05 21:10:31  5-MIN KDBQ 300310Z AUTO 18003KT 10SM CLR 13/12 A2993  1070 89 1200 180/03 RMK AO2 TSNO
94908KDBQ DBQ20050529211510505/29/05 21:15:31  5-MIN KDBQ 300315Z AUTO 18003KT 10SM CLR 13/11 A2994  1060 89 1100 180/03 RMK AO2 TSNO
94908KDBQ DBQ20050529212010705/29/05 21:20:31  5-MIN KDBQ 300320Z AUTO 19003KT 10SM SCT075 13/11 A2994 1060 89 1100 190/03 RMK AO2 TSNO
94908KDBQ DBQ20050529212510705/29/05 21:25:31  5-MIN KDBQ 300325Z AUTO 20003KT 10SM SCT075 13/12 A2995 1060 89 1100 200/03 RMK AO2 TSNO
94908KDBQ DBQ20050529213011405/29/05 21:30:31  5-MIN KDBQ 300330Z AUTO 00000KT 10SM FEW060 SCT075 13/11 A2994 1060 86 1200 000/00 RMK AO2 TSNO
94908KDBQ DBQ20050529213510705/29/05 21:35:31  5-MIN KDBQ 300335Z AUTO 00000KT 10SM FEW070 13/11 A2993 1070 89 1100 000/00 RMK AO2 TSNO
94908KDBQ DBQ20050529214010705/29/05 21:40:31  5-MIN KDBQ 300340Z AUTO 00000KT 10SM FEW070 12/11 A2993 1070 93 1000 000/00 RMK AO2 TSNO
94908KDBQ DBQ20050529214510705/29/05 21:45:31  5-MIN KDBQ 300345Z AUTO 05004KT 10SM FEW075 12/11 A2994 1060 93 1000 050/04 RMK AO2 TSNO
94908KDBQ DBQ20050529215012205/29/05 21:50:31  5-MIN KDBQ 300350Z AUTO 05004KT 10SM CLR 13/11 A2993  1060 89 1100 050/04 RMK AO2 SLP138 T01280111 TSNO
94908KDBQ DBQ20050529215512205/29/05 21:55:31  5-MIN KDBQ 300355Z AUTO 04005KT 10SM CLR 13/11 A2994  1060 89 1100 040/05 RMK AO2 SLP138 T01280111 TSNO
94908KDBQ DBQ20050529220010505/29/05 22:00:31  5-MIN KDBQ 300400Z AUTO 03004KT 10SM CLR 12/11 A2993  1070 93 1000 030/04 RMK AO2 TSNO
94908KDBQ DBQ20050529220510505/29/05 22:05:31  5-MIN KDBQ 300405Z AUTO 03003KT 10SM CLR 12/11 A2993  1070 93 1000 030/03 RMK AO2 TSNO
94908KDBQ DBQ20050529221010505/29/05 22:10:31  5-MIN KDBQ 300410Z AUTO VRB03KT 10SM CLR 12/11 A2993  1070 93 1000 VRB/03 RMK AO2 TSNO
94908KDBQ DBQ20050529221510305/29/05 22:15:31  5-MIN KDBQ 300415Z AUTO 00000KT 9SM CLR 12/11 A2994 1060 93 1000 000/00 RMK AO2 TSNO
94908KDBQ DBQ20050529222010305/29/05 22:20:31  5-MIN KDBQ 300420Z AUTO 10003KT 9SM CLR 12/11 A2994 1060 93 1000 100/03 RMK AO2 TSNO
94908KDBQ DBQ20050529222510305/29/05 22:25:31  5-MIN KDBQ 300425Z AUTO 10003KT 8SM CLR 12/11 A2994 1060 93 1000 090/03 RMK AO2 TSNO
94908KDBQ DBQ20050529223010305/29/05 22:30:31  5-MIN KDBQ 300430Z AUTO 09003KT 8SM CLR 12/11 A2994 1060 93 1000 090/03 RMK AO2 TSNO
94908KDBQ DBQ20050529223510305/29/05 22:35:31  5-MIN KDBQ 300435Z AUTO 11003KT 8SM CLR 12/10 A2994 1060 89 1000 110/03 RMK AO2 TSNO
94908KDBQ DBQ20050529224010305/29/05 22:40:31  5-MIN KDBQ 300440Z AUTO 11003KT 9SM CLR 12/11 A2994 1060 89 1000 100/03 RMK AO2 TSNO
94908KDBQ DBQ20050529224510205/29/05 22:45:31  5-MIN KDBQ 300445Z AUTO 11004KT 9SM CLR 12/11 A2994 1060 93 900 110/04 RMK AO2 TSNO
94908KDBQ DBQ20050529225011905/29/05 22:50:31  5-MIN KDBQ 300450Z AUTO 10004KT 8SM CLR 12/11 A2994 1060 93 900 100/04 RMK AO2 SLP141 T01170106 TSNO
94908KDBQ DBQ20050529225512405/29/05 22:55:31  5-MIN KDBQ 300455Z AUTO 11004KT 8SM FEW075 12/11 A2994  1060 93 1000 110/04 RMK AO2 SLP141 T01170106 TSNO
94908KDBQ DBQ20050529230010605/29/05 23:00:31  5-MIN KDBQ 300500Z AUTO 12005KT 8SM SCT075 11/11 A2994  1060 96 900 120/05 RMK AO2 TSNO
94908KDBQ DBQ20050529230510705/29/05 23:05:31  5-MIN KDBQ 300505Z AUTO 13003KT 8SM SCT075 12/11 A2994  1060 93 1000 130/03 RMK AO2 TSNO
94908KDBQ DBQ20050529231010705/29/05 23:10:31  5-MIN KDBQ 300510Z AUTO 13004KT 8SM FEW075 12/11 A2994  1060 93 1000 130/04 RMK AO2 TSNO
94908KDBQ DBQ20050529231510605/29/05 23:15:31  5-MIN KDBQ 300515Z AUTO 00000KT 8SM FEW075 12/11 A2994  1060 93 900 000/00 RMK AO2 TSNO
94908KDBQ DBQ20050529232010605/29/05 23:20:31  5-MIN KDBQ 300520Z AUTO 00000KT 7SM FEW075 11/10 A2996  1050 96 800 000/00 RMK AO2 TSNO
94908KDBQ DBQ20050529232510605/29/05 23:25:31  5-MIN KDBQ 300525Z AUTO 05003KT 7SM FEW075 10/09 A2994  1060 96 800 050/03 RMK AO2 TSNO
94908KDBQ DBQ20050529233010205/29/05 23:30:31  5-MIN KDBQ 300530Z AUTO 00000KT 7SM CLR 11/10 A2994 1060 96 800 000/00 RMK AO2 TSNO
94908KDBQ DBQ20050529233510205/29/05 23:35:31  5-MIN KDBQ 300535Z AUTO 00000KT 7SM CLR 10/09 A2994 1060 93 800 000/00 RMK AO2 TSNO
94908KDBQ DBQ20050529234010205/29/05 23:40:31  5-MIN KDBQ 300540Z AUTO 00000KT 7SM CLR 11/10 A2994 1060 96 800 000/00 RMK AO2 TSNO
94908KDBQ DBQ20050529234510205/29/05 23:45:31  5-MIN KDBQ 300545Z AUTO 00000KT 7SM CLR 10/09 A2994 1060 96 800 000/00 RMK AO2 TSNO
94908KDBQ DBQ20050529235014705/29/05 23:50:31  5-MIN KDBQ 300550Z AUTO 00000KT 7SM CLR 10/09 A2994 1060 93 800 000/00 RMK AO2 SLP141 T01000089 10189 20100 401890067 53004 TSNO
94908KDBQ DBQ20050529235515205/29/05 23:55:31  5-MIN KDBQ 300555Z AUTO 00000KT 6SM BR CLR 09/08 A2994  1060 96 600 000/00 RMK AO2 SLP141 T00890083 10189 20089 401890067 56000  TSNO
94908KDBQ DBQ20050530000010605/30/05 00:00:38  5-MIN KDBQ 300600Z AUTO 00000KT 5SM BR CLR 10/09 A2994  1060 93 800 000/00 RMK AO2 TSNO
94908KDBQ DBQ20050530000510605/30/05 00:05:31  5-MIN KDBQ 300605Z AUTO 05003KT 5SM BR CLR 09/08 A2994  1060 96 600 040/03 RMK AO2 TSNO
94908KDBQ DBQ20050530001010605/30/05 00:10:31  5-MIN KDBQ 300610Z AUTO 04003KT 5SM BR CLR 09/08 A2994  1060 93 700 040/03 RMK AO2 TSNO
94908KDBQ DBQ20050530001510705/30/05 00:15:32  5-MIN KDBQ 300615Z AUTO 03003KT 4SM BR CLR 10/10 A2994  1060 100 800 030/03 RMK AO2 TSNO
94908KDBQ DBQ20050530002010605/30/05 00:20:31  5-MIN KDBQ 300620Z AUTO 05003KT 2SM BR CLR 09/09 A2994  1060 96 700 050/03 RMK AO2 TSNO
94908KDBQ DBQ20050530002511005/30/05 00:25:31  5-MIN KDBQ 300625Z AUTO 06003KT 1 3/4SM BR CLR 10/09  A2995 1050 96 700 060/03 RMK AO2 TSNO
94908KDBQ DBQ20050530003011005/30/05 00:30:31  5-MIN KDBQ 300630Z AUTO 04006KT 2 1/2SM BR CLR 09/09  A2995 1050 96 700 040/06 RMK AO2 TSNO
94908KDBQ DBQ20050530003510605/30/05 00:35:31  5-MIN KDBQ 300635Z AUTO 04007KT 3SM BR CLR 10/09 A2995  1050 93 700 040/07 RMK AO2 TSNO
94908KDBQ DBQ20050530004010605/30/05 00:40:31  5-MIN KDBQ 300640Z AUTO 04007KT 3SM BR CLR 11/10 A2995  1050 96 800 030/07 RMK AO2 TSNO
94908KDBQ DBQ20050530004510605/30/05 00:45:31  5-MIN KDBQ 300645Z AUTO 03007KT 3SM BR CLR 11/11 A2995  1050 96 900 030/07 RMK AO2 TSNO
94908KDBQ DBQ20050530005012605/30/05 00:50:31  5-MIN KDBQ 300650Z AUTO 01006KT 2SM BR FEW001 11/11  A2995 1050 96 900 010/06 RMK AO2 SLP144 T01110106 TSNO
94908KDBQ DBQ20050530005512905/30/05 00:55:31  5-MIN KDBQ 300655Z AUTO 01006KT 1 3/4SM BR BKN001 12/11 A2995 1050 96 900 010/06 RMK AO2 SLP145 T01170111 TSNO
94908KDBQ DBQ20050530010010705/30/05 01:00:31  5-MIN KDBQ 300700Z AUTO 01006KT 1SM BR VV001 12/11 A2995 1050 96 900 010/06 RMK AO2 TSNO
94908KDBQ DBQ20050530010511205/30/05 01:05:31  5-MIN KDBQ 300705Z AUTO 03004KT 3/4SM BR BKN001 12/12  A2995 1050 100 900 030/04 RMK AO2 TSNO
94908KDBQ DBQ20050530011011305/30/05 01:10:31  5-MIN KDBQ 300710Z AUTO 04005KT 1 1/4SM BR OVC003 12/12 A2995 1050 100 900 030/05 RMK AO2 TSNO
94908KDBQ DBQ20050530011511205/30/05 01:15:31  5-MIN KDBQ 300715Z AUTO 03006KT 1 3/4SM BR OVC003 12/11 A2996 1050 96 900 030/06 RMK AO2 TSNO
94908KDBQ DBQ20050530012011905/30/05 01:20:31  5-MIN KDBQ 300720Z AUTO 04006KT 1 3/4SM BR BKN003 OVC075 12/11 A2996 1040 96 900 040/06 RMK AO2 TSNO
94908KDBQ DBQ20050530012511605/30/05 01:25:31  5-MIN KDBQ 300725Z AUTO 04007KT 2SM BR BKN003 OVC075  12/11 A2996 1040 96 900 030/07 RMK AO2 TSNO
94908KDBQ DBQ20050530013012605/30/05 01:30:31  5-MIN KDBQ 300730Z AUTO 04007KT 2 1/2SM BR SCT003 BKN015 OVC075 12/11 A2996 1040 96 900 040/07 RMK AO2 TSNO
94908KDBQ DBQ20050530013512305/30/05 01:35:31  5-MIN KDBQ 300735Z AUTO 03007KT 2SM BR SCT003 SCT015  OVC075 12/11 A2996 1040 96 900 030/07 RMK AO2 TSNO
94908KDBQ DBQ20050530014011605/30/05 01:40:31  5-MIN KDBQ 300740Z AUTO 03007KT 2SM BR FEW003 OVC075  12/11 A2996 1040 96 900 030/07 RMK AO2 TSNO
94908KDBQ DBQ20050530014511905/30/05 01:45:31  5-MIN KDBQ 300745Z AUTO 03007KT 2 1/2SM BR FEW015 OVC075 12/11 A2996 1040 96 900 030/07 RMK AO2 TSNO
94908KDBQ DBQ20050530015013305/30/05 01:50:31  5-MIN KDBQ 300750Z AUTO 04006KT 3SM BR FEW015 OVC075  12/11 A2996 1040 96 900 040/06 RMK AO2 SLP147 T01170111 TSNO
94908KDBQ DBQ20050530015513305/30/05 01:55:31  5-MIN KDBQ 300755Z AUTO 05006KT 3SM BR FEW015 BKN075  12/11 A2996 1040 96 900 050/06 RMK AO2 SLP147 T01170111 TSNO
94908KDBQ DBQ20050530020010905/30/05 02:00:31  5-MIN KDBQ 300800Z AUTO 06005KT 3SM BR SCT075 11/11  A2996 1040 96 900 060/05 RMK AO2 TSNO
94908KDBQ DBQ20050530020510905/30/05 02:05:31  5-MIN KDBQ 300805Z AUTO 06005KT 4SM BR SCT075 11/11  A2996 1040 96 900 060/05 RMK AO2 TSNO
94908KDBQ DBQ20050530021010905/30/05 02:10:31  5-MIN KDBQ 300810Z AUTO 05005KT 4SM BR FEW075 11/10  A2996 1040 96 800 050/05 RMK AO2 TSNO
94908KDBQ DBQ20050530021510905/30/05 02:15:31  5-MIN KDBQ 300815Z AUTO 05005KT 5SM BR FEW075 11/10  A2996 1040 96 800 050/05 RMK AO2 TSNO
94908KDBQ DBQ20050530022010605/30/05 02:20:31  5-MIN KDBQ 300820Z AUTO 04006KT 6SM BR CLR 11/10 A2996  1040 96 800 040/06 RMK AO2 TSNO
94908KDBQ DBQ20050530022510605/30/05 02:25:31  5-MIN KDBQ 300825Z AUTO 04006KT 6SM BR CLR 11/10 A2996  1040 96 800 040/06 RMK AO2 TSNO
94908KDBQ DBQ20050530023010605/30/05 02:30:31  5-MIN KDBQ 300830Z AUTO 03007KT 6SM BR CLR 11/10 A2996  1040 96 800 030/07 RMK AO2 TSNO
94908KDBQ DBQ20050530023510605/30/05 02:35:31  5-MIN KDBQ 300835Z AUTO 03006KT 4SM BR CLR 11/10 A2996  1040 96 800 030/06 RMK AO2 TSNO
94908KDBQ DBQ20050530024010605/30/05 02:40:31  5-MIN KDBQ 300840Z AUTO 04005KT 3SM BR CLR 11/10 A2996  1040 96 800 040/05 RMK AO2 TSNO
94908KDBQ DBQ20050530024511005/30/05 02:45:31  5-MIN KDBQ 300845Z AUTO 03004KT 2 1/2SM BR CLR 10/09  A2996 1040 96 700 030/04 RMK AO2 TSNO
94908KDBQ DBQ20050530025012905/30/05 02:50:31  5-MIN KDBQ 300850Z AUTO 04004KT 2SM BR CLR 10/09 A2996  1040 96 700 040/04 RMK AO2 SLP148 T01000094 56000 TSNO
94908KDBQ DBQ20050530025513305/30/05 02:55:31  5-MIN KDBQ 300855Z AUTO 06003KT 2 1/2SM BR CLR 10/09  A2996 1040 96 700 060/03 RMK AO2 SLP147 T01000094 51008 TSNO
94908KDBQ DBQ20050530030011205/30/05 03:00:31  5-MIN KDBQ 300900Z AUTO 00000KT 1 1/2SM BR FEW001 10/09 A2996 1040 96 700 000/00 RMK AO2 TSNO
94908KDBQ DBQ20050530030511105/30/05 03:05:31  5-MIN KDBQ 300905Z AUTO 00000KT 1/2SM FG VV001 09/09  A2996 1040 100 600 000/00 RMK AO2 TSNO
94908KDBQ DBQ20050530031011005/30/05 03:10:31  5-MIN KDBQ 300910Z AUTO 00000KT 1/2SM FG VV001 10/09  A2996 1040 96 700 000/00 RMK AO2 TSNO
94908KDBQ DBQ20050530031511005/30/05 03:15:31  5-MIN KDBQ 300915Z AUTO 00000KT 3/4SM BR VV001 10/09  A2996 1040 96 700 000/00 RMK AO2 TSNO
94908KDBQ DBQ20050530032010905/30/05 03:20:31  5-MIN KDBQ 300920Z AUTO 00000KT 2SM BR FEW001 10/09  A2996 1040 96 700 000/00 RMK AO2 TSNO
94908KDBQ DBQ20050530032511205/30/05 03:25:31  5-MIN KDBQ 300925Z AUTO 00000KT 2 1/2SM BR FEW001 10/09 A2996 1040 93 700 000/00 RMK AO2 TSNO
94908KDBQ DBQ20050530033011005/30/05 03:30:31  5-MIN KDBQ 300930Z AUTO 00000KT 2SM BR FEW001 09/09  A2996 1040 100 700 000/00 RMK AO2 TSNO
94908KDBQ DBQ20050530033511105/30/05 03:35:31  5-MIN KDBQ 300935Z AUTO 00000KT 1/4SM FG VV001 08/08  A2997 1040 100 500 000/00 RMK AO2 TSNO
94908KDBQ DBQ20050530034011005/30/05 03:40:31  5-MIN KDBQ 300940Z AUTO 00000KT 1/4SM FG VV001 07/07  A2996 1040 96 400 000/00 RMK AO2 TSNO
94908KDBQ DBQ20050530034511005/30/05 03:45:31  5-MIN KDBQ 300945Z AUTO 00000KT 1/4SM FG VV001 09/08  A2997 1040 96 600 000/00 RMK AO2 TSNO
94908KDBQ DBQ20050530035012805/30/05 03:50:31  5-MIN KDBQ 300950Z AUTO 00000KT 1/4SM FG VV001 08/08  A2997 1040 100 500 000/00 RMK AO2 SLP148 T00830083 TSNO
94908KDBQ DBQ20050530035512805/30/05 03:55:31  5-MIN KDBQ 300955Z AUTO 00000KT 1/4SM FG VV001 07/07  A2997 1030 100 300 000/00 RMK AO2 SLP150 T00670067 TSNO
94908KDBQ DBQ20050530040011105/30/05 04:00:31  5-MIN KDBQ 301000Z AUTO 00000KT 1/4SM FG VV001 07/07  A2997 1030 100 400 000/00 RMK AO2 TSNO
94908KDBQ DBQ20050530040511005/30/05 04:05:31  5-MIN KDBQ 301005Z AUTO 00000KT 1/4SM FG VV001 08/07  A2998 1020 96 400 000/00 RMK AO2 TSNO
94908KDBQ DBQ20050530041011105/30/05 04:10:31  5-MIN KDBQ 301010Z AUTO 00000KT 1/4SM FG VV001 08/08  A2998 1020 100 400 000/00 RMK AO2 TSNO
94908KDBQ DBQ20050530041511105/30/05 04:15:31  5-MIN KDBQ 301015Z AUTO 00000KT 1/4SM FG VV001 07/07  A2998 1020 100 400 000/00 RMK AO2 TSNO
94908KDBQ DBQ20050530042011105/30/05 04:20:31  5-MIN KDBQ 301020Z AUTO 00000KT 1/4SM FG VV001 07/07  A2999 1020 100 300 000/00 RMK AO2 TSNO
94908KDBQ DBQ20050530042511105/30/05 04:25:31  5-MIN KDBQ 301025Z AUTO 00000KT 1/4SM FG VV001 07/07  A2999 1020 100 300 000/00 RMK AO2 TSNO
94908KDBQ DBQ20050530043011005/30/05 04:30:31  5-MIN KDBQ 301030Z AUTO 00000KT 1/4SM FG VV001 07/06  A2999 1010 96 300 000/00 RMK AO2 TSNO
94908KDBQ DBQ20050530043511105/30/05 04:35:31  5-MIN KDBQ 301035Z AUTO 27003KT M1/4SM FG VV001 07/06  A2999 1010 96 300 260/03 RMK AO2 TSNO
94908KDBQ DBQ20050530044011805/30/05 04:40:31  5-MIN KDBQ 301040Z AUTO 00000KT M1/4SM FG BKN001 OVC026 07/06 A3000 1010 96 300 000/00 RMK AO2 TSNO
94908KDBQ DBQ20050530044511805/30/05 04:45:31  5-MIN KDBQ 301045Z AUTO 00000KT M1/4SM FG BKN001 OVC026 08/07 A3000 1010 93 400 000/00 RMK AO2 TSNO
94908KDBQ DBQ20050530045012405/30/05 04:50:31  5-MIN KDBQ 301050Z 00000KT 1/4SM FG BKN001 BKN026 08/07 A3000 1010 96 400 000/00 RMK AO2 SLP160 T00780072
94908KDBQ DBQ20050530045511805/30/05 04:55:31  5-MIN KDBQ 301055Z 00000KT 1/4SM FG SCT001 07/07 A3000  1000 96 300 000/00 RMK AO2 SLP161 T00720067
94908KDBQ DBQ20050530050010705/30/05 05:00:31  5-MIN KDBQ 301100Z 03005KT 1/4SM FG SCT001 BKN027 07/06 A3000 1000 96 300 030/05 RMK AO2
94908KDBQ DBQ20050530050510005/30/05 05:05:31  5-MIN KDBQ 301105Z 05004KT 1/2SM FG VV001 08/07 A3000  1000 93 500 040/04 RMK AO2
94908KDBQ DBQ20050530051009905/30/05 05:10:31  5-MIN KDBQ 301110Z 03007KT 3SM BR FEW001 09/09 A3001  1000 96 600 030/07 RMK AO2
94908KDBQ DBQ20050530051509705/30/05 05:15:31  5-MIN KDBQ 301115Z 03007KT 2SM BR FEW001 09/09 A3001 990 96 600 030/07 RMK AO2
94908KDBQ DBQ20050530052009905/30/05 05:20:31  5-MIN KDBQ 301120Z 03008KT 1/2SM FG VV001 10/09 A3001  990 96 700 020/08 RMK AO2
94908KDBQ DBQ20050530052510005/30/05 05:25:31  5-MIN KDBQ 301125Z 02007KT 1/2SM FG VV001 10/10 A3002  990 100 700 020/07 RMK AO2
94908KDBQ DBQ20050530053009405/30/05 05:30:31  5-MIN KDBQ 301130Z 02007KT 2SM BR CLR 11/10 A3002 990 96 700 020/07 RMK AO2
94908KDBQ DBQ20050530053509405/30/05 05:35:31  5-MIN KDBQ 301135Z 02007KT 4SM BR CLR 11/10 A3002 990 96 700 020/07 RMK AO2
94908KDBQ DBQ20050530054009405/30/05 05:40:31  5-MIN KDBQ 301140Z 03005KT 5SM BR CLR 11/10 A3002 990 96 700 020/05 RMK AO2
94908KDBQ DBQ20050530054509405/30/05 05:45:31  5-MIN KDBQ 301145Z 03005KT 4SM BR CLR 11/10 A3002 990 96 700 030/05 RMK AO2
94908KDBQ DBQ20050530055013705/30/05 05:50:31  5-MIN KDBQ 301150Z 03005KT 3SM BR CLR 11/11 A3002 990  100 700 030/05 RMK AO2 SLP165 70003 T01060106 10117 20061 51008
94908KDBQ DBQ20050530055513505/30/05 05:55:31  5-MIN KDBQ 301155Z 02004KT 4SM BR CLR 11/11 A3002 990 96 800 020/04 RMK AO2 SLP165 70003 T01110106 10117 20061 53018
94908KDBQ DBQ20050530060009405/30/05 06:00:31  5-MIN KDBQ 301200Z 02006KT 5SM BR CLR 11/11 A3002 990 96 800 020/06 RMK AO2
94908KDBQ DBQ20050530060509205/30/05 06:05:31  5-MIN KDBQ 301205Z 02006KT 7SM CLR 11/11 A3002 990 96  800 020/06 RMK AO2
94908KDBQ DBQ20050530061009205/30/05 06:10:31  5-MIN KDBQ 301210Z 02008KT 8SM CLR 12/11 A3003 980 93  900 020/08 RMK AO2
94908KDBQ DBQ20050530061509205/30/05 06:15:31  5-MIN KDBQ 301215Z 03009KT 7SM CLR 12/11 A3003 980 96  900 030/09 RMK AO2
94908KDBQ DBQ20050530062009405/30/05 06:20:31  5-MIN KDBQ 301220Z 03009KT 6SM BR CLR 12/11 A3003 980 93 900 030/09 RMK AO2
94908KDBQ DBQ20050530062509405/30/05 06:25:31  5-MIN KDBQ 301225Z 03008KT 6SM BR CLR 12/11 A3003 980 93 900 030/08 RMK AO2
94908KDBQ DBQ20050530063009205/30/05 06:30:31  5-MIN KDBQ 301230Z 02007KT 7SM CLR 12/11 A3003 980 93  900 020/07 RMK AO2
94908KDBQ DBQ20050530063509205/30/05 06:35:31  5-MIN KDBQ 301235Z 01006KT 8SM CLR 12/11 A3003 980 93  900 010/06 RMK AO2
94908KDBQ DBQ20050530064009205/30/05 06:40:31  5-MIN KDBQ 301240Z 02004KT 9SM CLR 12/11 A3003 980 93  900 010/04 RMK AO2
94908KDBQ DBQ20050530064509205/30/05 06:45:31  5-MIN KDBQ 301245Z 01005KT 9SM CLR 12/11 A3003 980 89  900 010/05 RMK AO2
94908KDBQ DBQ20050530065011005/30/05 06:50:31  5-MIN KDBQ 301250Z 01005KT 9SM CLR 13/11 A3003 980 89  1000 010/05 RMK AO2 SLP169 T01280111
94908KDBQ DBQ20050530065511105/30/05 06:55:31  5-MIN KDBQ 301255Z 01005KT 10SM CLR 13/11 A3003 970 86  1000 010/05 RMK AO2 SLP169 T01330111
94908KDBQ DBQ20050530070009405/30/05 07:00:31  5-MIN KDBQ 301300Z 01005KT 10SM CLR 13/11 A3004 970 86  1000 010/05 RMK AO2
94908KDBQ DBQ20050530070509405/30/05 07:05:31  5-MIN KDBQ 301305Z 02006KT 10SM CLR 14/11 A3004 970 83  1100 020/06 RMK AO2
94908KDBQ DBQ20050530071009405/30/05 07:10:31  5-MIN KDBQ 301310Z 02005KT 10SM CLR 14/11 A3004 970 83  1100 020/05 RMK AO2
94908KDBQ DBQ20050530071509405/30/05 07:15:31  5-MIN KDBQ 301315Z 02006KT 10SM CLR 14/12 A3004 970 83  1200 020/06 RMK AO2
94908KDBQ DBQ20050530072009405/30/05 07:20:31  5-MIN KDBQ 301320Z 01006KT 10SM CLR 14/12 A3003 970 83  1200 010/06 RMK AO2
94908KDBQ DBQ20050530072509405/30/05 07:25:31  5-MIN KDBQ 301325Z 02006KT 10SM CLR 14/12 A3003 970 83  1200 020/06 RMK AO2
94908KDBQ DBQ20050530073009405/30/05 07:30:31  5-MIN KDBQ 301330Z 02005KT 10SM CLR 15/12 A3004 970 80  1200 010/05 RMK AO2
94908KDBQ DBQ20050530073509405/30/05 07:35:31  5-MIN KDBQ 301335Z 01005KT 10SM CLR 15/12 A3004 970 80  1200 010/05 RMK AO2
94908KDBQ DBQ20050530074009405/30/05 07:40:31  5-MIN KDBQ 301340Z 02004KT 10SM CLR 16/12 A3004 970 77  1300 020/04 RMK AO2
94908KDBQ DBQ20050530074509405/30/05 07:45:31  5-MIN KDBQ 301345Z 03005KT 10SM CLR 16/12 A3004 960 80  1300 030/05 RMK AO2
94908KDBQ DBQ20050530075011105/30/05 07:50:31  5-MIN KDBQ 301350Z 01004KT 10SM CLR 16/12 A3005 960 77  1400 010/04 RMK AO2 SLP174 T01610122
94908KDBQ DBQ20050530075511105/30/05 07:55:31  5-MIN KDBQ 301355Z 36003KT 10SM CLR 16/13 A3005 960 80  1400 360/03 RMK AO2 SLP174 T01610128
94908KDBQ DBQ20050530080009405/30/05 08:00:31  5-MIN KDBQ 301400Z 03004KT 10SM CLR 16/12 A3005 960 77  1400 030/04 RMK AO2
94908KDBQ DBQ20050530080509405/30/05 08:05:31  5-MIN KDBQ 301405Z 05004KT 10SM CLR 17/12 A3005 960 72  1400 050/04 RMK AO2
94908KDBQ DBQ20050530081009405/30/05 08:10:31  5-MIN KDBQ 301410Z 01006KT 10SM CLR 17/12 A3005 960 75  1400 010/06 RMK AO2
94908KDBQ DBQ20050530081509405/30/05 08:15:31  5-MIN KDBQ 301415Z 02004KT 10SM CLR 17/12 A3005 960 72  1400 020/04 RMK AO2
94908KDBQ DBQ20050530082009405/30/05 08:20:31  5-MIN KDBQ 301420Z 06005KT 10SM CLR 17/12 A3005 960 72  1400 060/05 RMK AO2
94908KDBQ DBQ20050530082509405/30/05 08:25:31  5-MIN KDBQ 301425Z 05005KT 10SM CLR 17/12 A3005 960 69  1500 050/05 RMK AO2
94908KDBQ DBQ20050530083009405/30/05 08:30:31  5-MIN KDBQ 301430Z 03004KT 10SM CLR 17/11 A3005 960 67  1500 030/04 RMK AO2
94908KDBQ DBQ20050530083509405/30/05 08:35:31  5-MIN KDBQ 301435Z VRB03KT 10SM CLR 17/11 A3005 960 67  1500 VRB/03 RMK AO2
94908KDBQ DBQ20050530084009405/30/05 08:40:31  5-MIN KDBQ 301440Z 03006KT 10SM CLR 17/11 A3005 960 67  1500 030/06 RMK AO2
94908KDBQ DBQ20050530084509405/30/05 08:45:31  5-MIN KDBQ 301445Z 05007KT 10SM CLR 18/12 A3005 960 67  1600 050/07 RMK AO2
94908KDBQ DBQ20050530085011705/30/05 08:50:31  5-MIN KDBQ 301450Z 02008KT 10SM CLR 18/12 A3005 960 67  1500 020/08 RMK AO2 SLP174 T01780117 53018
94908KDBQ DBQ20050530085511705/30/05 08:55:31  5-MIN KDBQ 301455Z 05007KT 10SM CLR 18/11 A3005 960 64  1500 050/07 RMK AO2 SLP175 T01780111 51010
94908KDBQ DBQ20050530090009405/30/05 09:00:31  5-MIN KDBQ 301500Z 05007KT 10SM CLR 18/11 A3005 960 62  1500 050/07 RMK AO2
94908KDBQ DBQ20050530090509405/30/05 09:05:31  5-MIN KDBQ 301505Z 05007KT 10SM CLR 18/11 A3005 960 62  1600 040/07 RMK AO2
94908KDBQ DBQ20050530091009405/30/05 09:10:31  5-MIN KDBQ 301510Z 03008KT 10SM CLR 18/11 A3005 960 60  1600 030/08 RMK AO2
94908KDBQ DBQ20050530091510905/30/05 09:15:31  5-MIN KDBQ 301515Z 03008KT 360V060 10SM CLR 18/10 A3005 960 58 1600 020/08 360V060 RMK AO2
94908KDBQ DBQ20050530092009405/30/05 09:20:31  5-MIN KDBQ 301520Z 04009KT 10SM CLR 18/10 A3005 960 58  1600 040/09 RMK AO2
94908KDBQ DBQ20050530092509405/30/05 09:25:31  5-MIN KDBQ 301525Z 03007KT 10SM CLR 18/09 A3005 960 56  1600 030/07 RMK AO2
94908KDBQ DBQ20050530093009405/30/05 09:30:31  5-MIN KDBQ 301530Z 04005KT 10SM CLR 19/11 A3005 960 58  1700 040/05 RMK AO2
94908KDBQ DBQ20050530093509405/30/05 09:35:31  5-MIN KDBQ 301535Z 05007KT 10SM CLR 18/11 A3005 960 60  1600 050/07 RMK AO2
94908KDBQ DBQ20050530094009405/30/05 09:40:31  5-MIN KDBQ 301540Z 04007KT 10SM CLR 18/11 A3005 960 60  1600 040/07 RMK AO2
94908KDBQ DBQ20050530094509405/30/05 09:45:31  5-MIN KDBQ 301545Z 01008KT 10SM CLR 19/11 A3005 960 58  1700 360/08 RMK AO2
94908KDBQ DBQ20050530095011105/30/05 09:50:31  5-MIN KDBQ 301550Z VRB05KT 10SM CLR 19/11 A3005 960 60  1700 VRB/05 RMK AO2 SLP174 T01890111
94908KDBQ DBQ20050530095511105/30/05 09:55:31  5-MIN KDBQ 301555Z VRB04KT 10SM CLR 19/11 A3005 960 60  1700 VRB/04 RMK AO2 SLP175 T01890111
94908KDBQ DBQ20050530100009405/30/05 10:00:31  5-MIN KDBQ 301600Z 03007KT 10SM CLR 19/11 A3005 960 60  1700 020/07 RMK AO2
94908KDBQ DBQ20050530100509405/30/05 10:05:31  5-MIN KDBQ 301605Z VRB04KT 10SM CLR 19/11 A3005 960 60  1700 VRB/04 RMK AO2
94908KDBQ DBQ20050530101009405/30/05 10:10:31  5-MIN KDBQ 301610Z 05007KT 10SM CLR 19/11 A3005 960 58  1700 040/07 RMK AO2
94908KDBQ DBQ20050530101509405/30/05 10:15:31  5-MIN KDBQ 301615Z VRB03KT 10SM CLR 19/10 A3005 960 54  1700 VRB/03 RMK AO2
94908KDBQ DBQ20050530102009405/30/05 10:20:31  5-MIN KDBQ 301620Z VRB03KT 10SM CLR 19/11 A3005 960 58  1700 VRB/03 RMK AO2
94908KDBQ DBQ20050530102509405/30/05 10:25:31  5-MIN KDBQ 301625Z 02008KT 10SM CLR 20/11 A3005 960 56  1800 020/08 RMK AO2
94908KDBQ DBQ20050530103009405/30/05 10:30:31  5-MIN KDBQ 301630Z 02006KT 10SM CLR 20/12 A3005 960 58  1800 020/06 RMK AO2
94908KDBQ DBQ20050530103509405/30/05 10:35:31  5-MIN KDBQ 301635Z 04004KT 10SM CLR 19/11 A3005 960 58  1700 040/04 RMK AO2
94908KDBQ DBQ20050530104009405/30/05 10:40:31  5-MIN KDBQ 301640Z 01005KT 10SM CLR 20/11 A3005 960 56  1800 010/05 RMK AO2
94908KDBQ DBQ20050530104509405/30/05 10:45:31  5-MIN KDBQ 301645Z 34003KT 10SM CLR 20/11 A3005 960 54  1800 340/03 RMK AO2
94908KDBQ DBQ20050530105011105/30/05 10:50:31  5-MIN KDBQ 301650Z 05005KT 10SM CLR 20/11 A3005 960 54  1800 050/05 RMK AO2 SLP175 T02000106
94908KDBQ DBQ20050530105511105/30/05 10:55:31  5-MIN KDBQ 301655Z 03006KT 10SM CLR 20/11 A3005 960 54  1800 030/06 RMK AO2 SLP174 T02000106
94908KDBQ DBQ20050530110009405/30/05 11:00:31  5-MIN KDBQ 301700Z 05003KT 10SM CLR 20/11 A3005 960 54  1800 050/03 RMK AO2
94908KDBQ DBQ20050530110509405/30/05 11:05:31  5-MIN KDBQ 301705Z 00000KT 10SM CLR 20/11 A3004 970 54  1800 000/00 RMK AO2
94908KDBQ DBQ20050530111009705/30/05 11:10:31  5-MIN KDBQ 301710Z 04007KT 10SM FEW043 21/11 A3004 960  54 1900 040/07 RMK AO2
94908KDBQ DBQ20050530111509705/30/05 11:15:31  5-MIN KDBQ 301715Z 03007KT 10SM FEW043 21/11 A3004 970  54 1900 030/07 RMK AO2
94908KDBQ DBQ20050530112009705/30/05 11:20:31  5-MIN KDBQ 301720Z 36004KT 10SM FEW043 21/11 A3004 970  54 1900 360/04 RMK AO2
94908KDBQ DBQ20050530112509705/30/05 11:25:31  5-MIN KDBQ 301725Z 35006KT 10SM FEW043 21/11 A3004 970  52 1900 350/06 RMK AO2
94908KDBQ DBQ20050530113009705/30/05 11:30:31  5-MIN KDBQ 301730Z 03008KT 10SM FEW043 21/11 A3004 970  52 1900 030/08 RMK AO2
94908KDBQ DBQ20050530113509705/30/05 11:35:31  5-MIN KDBQ 301735Z VRB03KT 10SM FEW043 21/11 A3004 970  52 1900 VRB/03 RMK AO2
94908KDBQ DBQ20050530114009405/30/05 11:40:31  5-MIN KDBQ 301740Z 04008KT 10SM CLR 21/11 A3004 970 52  1900 030/08 RMK AO2
94908KDBQ DBQ20050530114509405/30/05 11:45:31  5-MIN KDBQ 301745Z 05006KT 10SM CLR 21/11 A3004 970 50  1900 050/06 RMK AO2
94908KDBQ DBQ20050530115012905/30/05 11:50:31  5-MIN KDBQ 301750Z 13003KT 10SM CLR 21/09 A3004 970 48  1900 130/03 RMK AO2 SLP172 T02060094 10211 20111 51010
94908KDBQ DBQ20050530115512905/30/05 11:55:31  5-MIN KDBQ 301755Z VRB03KT 10SM CLR 21/09 A3004 970 46  1900 VRB/03 RMK AO2 SLP172 T02060089 10211 20111 58003
94908KDBQ DBQ20050530120009405/30/05 12:00:31  5-MIN KDBQ 301800Z 04008KT 10SM CLR 21/10 A3004 970 48  1900 040/08 RMK AO2
94908KDBQ DBQ20050530120509405/30/05 12:05:31  5-MIN KDBQ 301805Z 05003KT 10SM CLR 22/11 A3004 970 49  2000 050/03 RMK AO2
94908KDBQ DBQ20050530121009405/30/05 12:10:31  5-MIN KDBQ 301810Z 03004KT 10SM CLR 21/09 A3004 970 47  1900 030/04 RMK AO2
94908KDBQ DBQ20050530121509405/30/05 12:15:31  5-MIN KDBQ 301815Z VRB04KT 10SM CLR 21/09 A3003 970 47  1900 VRB/04 RMK AO2
94908KDBQ DBQ20050530122009405/30/05 12:20:31  5-MIN KDBQ 301820Z 07007KT 10SM CLR 21/09 A3003 970 47  2000 070/07 RMK AO2
94908KDBQ DBQ20050530122510905/30/05 12:25:31  5-MIN KDBQ 301825Z 02008KT 360V090 10SM CLR 21/10 A3003 970 48 1900 020/08 360V090 RMK AO2
94908KDBQ DBQ20050530123009405/30/05 12:30:31  5-MIN KDBQ 301830Z 01007KT 10SM CLR 22/09 A3004 970 45  2000 010/07 RMK AO2
94908KDBQ DBQ20050530123509405/30/05 12:35:31  5-MIN KDBQ 301835Z VRB03KT 10SM CLR 22/08 A3004 970 42  2000 VRB/03 RMK AO2
94908KDBQ DBQ20050530124010905/30/05 12:40:31  5-MIN KDBQ 301840Z 04007KT 020V080 10SM CLR 22/10 A3004 970 47 2000 040/07 020V080 RMK AO2
94908KDBQ DBQ20050530124509405/30/05 12:45:31  5-MIN KDBQ 301845Z VRB04KT 10SM CLR 22/09 A3003 970 43  2000 VRB/04 RMK AO2
94908KDBQ DBQ20050530125011105/30/05 12:50:31  5-MIN KDBQ 301850Z 06010KT 10SM CLR 22/09 A3004 970 43  2000 060/10 RMK AO2 SLP169 T02170089
94908KDBQ DBQ20050530125511105/30/05 12:55:31  5-MIN KDBQ 301855Z 04008KT 10SM CLR 22/09 A3004 970 42  2100 040/08 RMK AO2 SLP169 T02220089
94908KDBQ DBQ20050530130011305/30/05 13:00:31  5-MIN KDBQ 301900Z 02007KT 330V060 10SM FEW065 22/09  A3004 970 43 2100 020/07 330V060 RMK AO2
94908KDBQ DBQ20050530130509705/30/05 13:05:31  5-MIN KDBQ 301905Z VRB05KT 10SM FEW065 22/09 A3004 970  43 2000 VRB/05 RMK AO2
94908KDBQ DBQ20050530131009705/30/05 13:10:31  5-MIN KDBQ 301910Z 05005KT 10SM FEW065 22/10 A3004 970  45 2100 050/05 RMK AO2
94908KDBQ DBQ20050530131509705/30/05 13:15:31  5-MIN KDBQ 301915Z 01008KT 10SM FEW060 22/09 A3004 970  43 2100 010/08 RMK AO2
94908KDBQ DBQ20050530132009705/30/05 13:20:31  5-MIN KDBQ 301920Z 00000KT 10SM FEW060 22/09 A3004 970  42 2100 000/00 RMK AO2
94908KDBQ DBQ20050530132509705/30/05 13:25:31  5-MIN KDBQ 301925Z 08006KT 10SM SCT060 22/09 A3004 970  43 2000 070/06 RMK AO2
94908KDBQ DBQ20050530133009705/30/05 13:30:31  5-MIN KDBQ 301930Z 00000KT 10SM BKN060 21/09 A3004 970  45 1900 000/00 RMK AO2
94908KDBQ DBQ20050530133509705/30/05 13:35:31  5-MIN KDBQ 301935Z 04006KT 10SM SCT065 22/09 A3004 970  45 2000 040/06 RMK AO2
94908KDBQ DBQ20050530134009705/30/05 13:40:31  5-MIN KDBQ 301940Z VRB03KT 10SM BKN065 22/10 A3004 970  45 2100 VRB/03 RMK AO2
94908KDBQ DBQ20050530134509705/30/05 13:45:31  5-MIN KDBQ 301945Z 04004KT 10SM BKN065 22/09 A3004 970  42 2100 040/04 RMK AO2
94908KDBQ DBQ20050530135011405/30/05 13:50:31  5-MIN KDBQ 301950Z VRB04KT 10SM SCT065 22/09 A3004 970  42 2100 VRB/04 RMK AO2 SLP170 T02220089
94908KDBQ DBQ20050530135511405/30/05 13:55:31  5-MIN KDBQ 301955Z VRB05KT 10SM FEW070 22/08 A3004 970  39 2100 VRB/05 RMK AO2 SLP169 T02220078
94908KDBQ DBQ20050530140009705/30/05 14:00:31  5-MIN KDBQ 302000Z 05008KT 10SM SCT065 23/09 A3004 970  42 2100 050/08 RMK AO2
94908KDBQ DBQ20050530140510405/30/05 14:05:31  5-MIN KDBQ 302005Z 06005KT 10SM SCT060 SCT070 22/10  A3004 970 45 2100 060/05 RMK AO2
94908KDBQ DBQ20050530141009705/30/05 14:10:31  5-MIN KDBQ 302010Z 01005KT 10SM BKN060 22/09 A3004 970  45 2000 010/05 RMK AO2
94908KDBQ DBQ20050530141510405/30/05 14:15:31  5-MIN KDBQ 302015Z 05008KT 10SM SCT060 BKN070 22/09  A3003 980 45 2000 040/08 RMK AO2
94908KDBQ DBQ20050530142009705/30/05 14:20:31  5-MIN KDBQ 302020Z 07007KT 10SM SCT060 21/09 A3004 970  47 1900 070/07 RMK AO2
94908KDBQ DBQ20050530142509705/30/05 14:25:31  5-MIN KDBQ 302025Z 08005KT 10SM SCT060 22/10 A3004 970  45 2100 080/05 RMK AO2
94908KDBQ DBQ20050530143009705/30/05 14:30:31  5-MIN KDBQ 302030Z 09003KT 10SM SCT060 22/08 A3004 970  40 2100 090/03 RMK AO2
94908KDBQ DBQ20050530143509705/30/05 14:35:31  5-MIN KDBQ 302035Z VRB04KT 10SM SCT065 23/09 A3004 970  42 2100 VRB/04 RMK AO2
94908KDBQ DBQ20050530144009705/30/05 14:40:31  5-MIN KDBQ 302040Z 01005KT 10SM SCT065 22/10 A3004 970  45 2100 010/05 RMK AO2
94908KDBQ DBQ20050530144509705/30/05 14:45:31  5-MIN KDBQ 302045Z 06006KT 10SM BKN065 22/09 A3004 970  45 2000 060/06 RMK AO2
94908KDBQ DBQ20050530145012005/30/05 14:50:31  5-MIN KDBQ 302050Z 09006KT 10SM BKN065 21/09 A3003 980  45 2000 090/06 RMK AO2 SLP169 T02110089 58003
94908KDBQ DBQ20050530145512005/30/05 14:55:31  5-MIN KDBQ 302055Z 10005KT 10SM BKN065 21/08 A3004 970  43 1900 100/05 RMK AO2 SLP172 T02110083 53000
94908KDBQ DBQ20050530150009705/30/05 15:00:31  5-MIN KDBQ 302100Z 00000KT 10SM SCT065 21/08 A3004 970  43 1900 000/00 RMK AO2
94908KDBQ DBQ20050530150510405/30/05 15:05:31  5-MIN KDBQ 302105Z 03005KT 10SM SCT060 SCT075 23/09  A3004 970 42 2100 030/05 RMK AO2
94908KDBQ DBQ20050530151009705/30/05 15:10:31  5-MIN KDBQ 302110Z 07007KT 10SM FEW070 23/09 A3004 970  40 2100 070/07 RMK AO2
94908KDBQ DBQ20050530151509705/30/05 15:15:31  5-MIN KDBQ 302115Z 02003KT 10SM FEW060 23/09 A3004 970  40 2100 020/03 RMK AO2
94908KDBQ DBQ20050530152010405/30/05 15:20:31  5-MIN KDBQ 302120Z 01006KT 10SM FEW060 SCT080 23/09  A3004 970 41 2200 010/06 RMK AO2
94908KDBQ DBQ20050530152510405/30/05 15:25:31  5-MIN KDBQ 302125Z 00000KT 10SM SCT065 BKN080 23/08  A3004 970 39 2100 000/00 RMK AO2
94908KDBQ DBQ20050530153010405/30/05 15:30:31  5-MIN KDBQ 302130Z 02009KT 10SM BKN065 BKN080 23/09  A3004 970 41 2200 020/09 RMK AO2
94908KDBQ DBQ20050530153510405/30/05 15:35:31  5-MIN KDBQ 302135Z 03009KT 10SM SCT065 BKN080 23/09  A3004 970 42 2100 030/09 RMK AO2
94908KDBQ DBQ20050530154010405/30/05 15:40:31  5-MIN KDBQ 302140Z 04006KT 10SM SCT060 SCT080 22/09  A3003 980 43 2100 040/06 RMK AO2
94908KDBQ DBQ20050530154510405/30/05 15:45:31  5-MIN KDBQ 302145Z 02005KT 10SM SCT065 SCT080 23/10  A3004 970 44 2100 020/05 RMK AO2
94908KDBQ DBQ20050530155011405/30/05 15:50:31  5-MIN KDBQ 302150Z 03004KT 10SM BKN075 23/09 A3003 970  39 2200 020/04 RMK AO2 SLP170 T02330089
94908KDBQ DBQ20050530155512105/30/05 15:55:31  5-MIN KDBQ 302155Z 09006KT 10SM FEW065 BKN080 23/08  A3003 970 39 2100 090/06 RMK AO2 SLP171 T02280083
94908KDBQ DBQ20050530160009705/30/05 16:00:31  5-MIN KDBQ 302200Z 08009KT 10SM BKN075 23/09 A3004 970  40 2100 070/09 RMK AO2
94908KDBQ DBQ20050530160509705/30/05 16:05:31  5-MIN KDBQ 302205Z 08006KT 10SM SCT075 22/08 A3004 970  42 2000 080/06 RMK AO2
94908KDBQ DBQ20050530161009705/30/05 16:10:31  5-MIN KDBQ 302210Z 08006KT 10SM SCT075 22/08 A3004 970  40 2000 080/06 RMK AO2
94908KDBQ DBQ20050530161509705/30/05 16:15:31  5-MIN KDBQ 302215Z 06005KT 10SM SCT080 22/09 A3004 970  43 2000 060/05 RMK AO2
94908KDBQ DBQ20050530162009705/30/05 16:20:31  5-MIN KDBQ 302220Z 07004KT 10SM FEW075 22/08 A3004 970  40 2000 060/04 RMK AO2
94908KDBQ DBQ20050530162509705/30/05 16:25:31  5-MIN KDBQ 302225Z 05005KT 10SM FEW075 22/08 A3004 970  39 2100 050/05 RMK AO2
94908KDBQ DBQ20050530163009405/30/05 16:30:31  5-MIN KDBQ 302230Z 03005KT 10SM CLR 23/08 A3004 970 37  2100 020/05 RMK AO2
94908KDBQ DBQ20050530163509705/30/05 16:35:31  5-MIN KDBQ 302235Z 01004KT 10SM FEW080 23/08 A3003 970  37 2100 010/04 RMK AO2
94908KDBQ DBQ20050530164009705/30/05 16:40:31  5-MIN KDBQ 302240Z VRB06KT 10SM SCT080 23/08 A3003 970  38 2200 VRB/06 RMK AO2
94908KDBQ DBQ20050530164509705/30/05 16:45:31  5-MIN KDBQ 302245Z 10006KT 10SM BKN080 23/07 A3003 970  36 2100 100/06 RMK AO2
94908KDBQ DBQ20050530165011405/30/05 16:50:31  5-MIN KDBQ 302250Z 05005KT 10SM BKN080 23/07 A3003 980  36 2100 040/05 RMK AO2 SLP169 T02280072
94908KDBQ DBQ20050530165511405/30/05 16:55:31  5-MIN KDBQ 302255Z 02006KT 10SM BKN075 23/08 A3003 980  36 2200 020/06 RMK AO2 SLP169 T02330078
94908KDBQ DBQ20050530170011305/30/05 17:00:31  5-MIN KDBQ 302300Z 07008KT 040V100 10SM OVC075 23/08  A3003 980 39 2100 070/08 040V100 RMK AO2
94908KDBQ DBQ20050530170509705/30/05 17:05:31  5-MIN KDBQ 302305Z 09008KT 10SM BKN075 23/08 A3003 980  39 2100 090/08 RMK AO2
94908KDBQ DBQ20050530171009705/30/05 17:10:31  5-MIN KDBQ 302310Z 09008KT 10SM BKN075 22/08 A3003 980  39 2100 090/08 RMK AO2
94908KDBQ DBQ20050530171509705/30/05 17:15:31  5-MIN KDBQ 302315Z 08008KT 10SM SCT070 22/08 A3003 980  40 2100 080/08 RMK AO2
94908KDBQ DBQ20050530172009705/30/05 17:20:31  5-MIN KDBQ 302320Z 10006KT 10SM FEW075 22/08 A3003 980  40 2100 100/06 RMK AO2
94908KDBQ DBQ20050530172509705/30/05 17:25:31  5-MIN KDBQ 302325Z 09006KT 10SM FEW070 22/08 A3003 980  39 2100 090/06 RMK AO2
94908KDBQ DBQ20050530173009405/30/05 17:30:31  5-MIN KDBQ 302330Z 09005KT 10SM CLR 22/07 A3003 980 37  2100 090/05 RMK AO2
94908KDBQ DBQ20050530173509405/30/05 17:35:31  5-MIN KDBQ 302335Z 11006KT 10SM CLR 22/08 A3003 980 39  2100 110/06 RMK AO2
94908KDBQ DBQ20050530174009405/30/05 17:40:31  5-MIN KDBQ 302340Z 11006KT 10SM CLR 22/07 A3003 980 37  2100 100/06 RMK AO2
94908KDBQ DBQ20050530174509405/30/05 17:45:31  5-MIN KDBQ 302345Z 08007KT 10SM CLR 22/08 A3003 980 40  2100 080/07 RMK AO2
94908KDBQ DBQ20050530175012905/30/05 17:50:31  5-MIN KDBQ 302350Z 09005KT 10SM CLR 22/08 A3003 970 40  2100 090/05 RMK AO2 SLP168 T02220083 10233 20206 53000
94908KDBQ DBQ20050530175513805/30/05 17:55:31  5-MIN KDBQ 302355Z AUTO 11004KT 10SM CLR 22/08 A3003 970 39 2100 100/04 RMK AO2 SLP169 T02220078 10233 20206 55002 TSNO
94908KDBQ DBQ20050530180010305/30/05 18:00:31  5-MIN KDBQ 310000Z AUTO 09006KT 10SM CLR 22/08 A3003 970 40 2100 090/06 RMK AO2 TSNO
94908KDBQ DBQ20050530180510305/30/05 18:05:31  5-MIN KDBQ 310005Z AUTO 09005KT 10SM CLR 22/08 A3003 970 39 2100 090/05 RMK AO2 TSNO
94908KDBQ DBQ20050530181010305/30/05 18:10:31  5-MIN KDBQ 310010Z AUTO 09005KT 10SM CLR 22/08 A3004 970 39 2100 090/05 RMK AO2 TSNO
94908KDBQ DBQ20050530181510305/30/05 18:15:31  5-MIN KDBQ 310015Z AUTO 10004KT 10SM CLR 22/07 A3003 970 37 2100 100/04 RMK AO2 TSNO
94908KDBQ DBQ20050530182010305/30/05 18:20:31  5-MIN KDBQ 310020Z AUTO 09004KT 10SM CLR 22/08 A3003 970 40 2000 090/04 RMK AO2 TSNO
94908KDBQ DBQ20050530182510305/30/05 18:25:31  5-MIN KDBQ 310025Z AUTO 09004KT 10SM CLR 22/08 A3004 970 42 2000 090/04 RMK AO2 TSNO
94908KDBQ DBQ20050530183010305/30/05 18:30:31  5-MIN KDBQ 310030Z AUTO 09004KT 10SM CLR 22/09 A3004 970 43 2000 090/04 RMK AO2 TSNO
94908KDBQ DBQ20050530183510305/30/05 18:35:31  5-MIN KDBQ 310035Z AUTO 09004KT 10SM CLR 22/08 A3003 970 42 2000 080/04 RMK AO2 TSNO
94908KDBQ DBQ20050530184010305/30/05 18:40:31  5-MIN KDBQ 310040Z AUTO 09004KT 10SM CLR 22/08 A3004 970 42 2000 090/04 RMK AO2 TSNO
94908KDBQ DBQ20050530184510305/30/05 18:45:31  5-MIN KDBQ 310045Z AUTO 09004KT 10SM CLR 21/09 A3004 970 45 1900 090/04 RMK AO2 TSNO
94908KDBQ DBQ20050530185012005/30/05 18:50:31  5-MIN KDBQ 310050Z AUTO 09004KT 10SM CLR 21/09 A3004 970 45 1900 090/04 RMK AO2 SLP170 T02110089 TSNO
94908KDBQ DBQ20050530185512005/30/05 18:55:31  5-MIN KDBQ 310055Z AUTO 09003KT 10SM CLR 21/08 A3004 970 43 1900 090/03 RMK AO2 SLP170 T02110083 TSNO
94908KDBQ DBQ20050530190010305/30/05 19:00:31  5-MIN KDBQ 310100Z AUTO 09003KT 10SM CLR 21/08 A3004 970 43 1900 090/03 RMK AO2 TSNO
94908KDBQ DBQ20050530190510305/30/05 19:05:31  5-MIN KDBQ 310105Z AUTO 00000KT 10SM CLR 21/08 A3004 970 43 1900 000/00 RMK AO2 TSNO
94908KDBQ DBQ20050530191010305/30/05 19:10:31  5-MIN KDBQ 310110Z AUTO 00000KT 10SM CLR 21/08 A3004 970 43 1900 000/00 RMK AO2 TSNO
94908KDBQ DBQ20050530191510305/30/05 19:15:31  5-MIN KDBQ 310115Z AUTO 00000KT 10SM CLR 21/08 A3004 970 45 1900 000/00 RMK AO2 TSNO
94908KDBQ DBQ20050530192010305/30/05 19:20:31  5-MIN KDBQ 310120Z AUTO 00000KT 10SM CLR 21/08 A3003 980 45 1900 000/00 RMK AO2 TSNO
94908KDBQ DBQ20050530192510305/30/05 19:25:31  5-MIN KDBQ 310125Z AUTO 09003KT 10SM CLR 20/08 A3004 970 46 1800 080/03 RMK AO2 TSNO
94908KDBQ DBQ20050530193010305/30/05 19:30:31  5-MIN KDBQ 310130Z AUTO 00000KT 10SM CLR 20/08 A3003 980 46 1800 000/00 RMK AO2 TSNO
94908KDBQ DBQ20050530193510305/30/05 19:35:31  5-MIN KDBQ 310135Z AUTO 00000KT 10SM CLR 20/08 A3004 970 45 1800 000/00 RMK AO2 TSNO
94908KDBQ DBQ20050530194010305/30/05 19:40:31  5-MIN KDBQ 310140Z AUTO 00000KT 10SM CLR 19/08 A3003 980 46 1800 000/00 RMK AO2 TSNO
94908KDBQ DBQ20050530194510305/30/05 19:45:31  5-MIN KDBQ 310145Z AUTO 09004KT 10SM CLR 18/08 A3004 970 53 1600 090/04 RMK AO2 TSNO
94908KDBQ DBQ20050530195012005/30/05 19:50:31  5-MIN KDBQ 310150Z AUTO 09004KT 10SM CLR 18/08 A3003 970 53 1600 090/04 RMK AO2 SLP169 T01780083 TSNO
94908KDBQ DBQ20050530195512005/30/05 19:55:31  5-MIN KDBQ 310155Z AUTO 09004KT 10SM CLR 17/08 A3005 960 57 1400 090/04 RMK AO2 SLP173 T01670083 TSNO
94908KDBQ DBQ20050530200010305/30/05 20:00:31  5-MIN KDBQ 310200Z AUTO 09003KT 10SM CLR 17/08 A3004 970 57 1400 090/03 RMK AO2 TSNO
94908KDBQ DBQ20050530200510305/30/05 20:05:31  5-MIN KDBQ 310205Z AUTO 09003KT 10SM CLR 16/09 A3005 960 64 1300 090/03 RMK AO2 TSNO
94908KDBQ DBQ20050530201010305/30/05 20:10:31  5-MIN KDBQ 310210Z AUTO 10003KT 10SM CLR 17/08 A3004 970 57 1400 100/03 RMK AO2 TSNO
94908KDBQ DBQ20050530201510305/30/05 20:15:31  5-MIN KDBQ 310215Z AUTO 11003KT 10SM CLR 17/09 A3005 960 60 1400 110/03 RMK AO2 TSNO
94908KDBQ DBQ20050530202010305/30/05 20:20:31  5-MIN KDBQ 310220Z AUTO 11003KT 10SM CLR 17/09 A3004 970 60 1400 110/03 RMK AO2 TSNO
94908KDBQ DBQ20050530202510305/30/05 20:25:31  5-MIN KDBQ 310225Z AUTO 10003KT 10SM CLR 16/09 A3005 960 64 1300 100/03 RMK AO2 TSNO
94908KDBQ DBQ20050530203010305/30/05 20:30:31  5-MIN KDBQ 310230Z AUTO 00000KT 10SM CLR 14/09 A3005 960 69 1200 000/00 RMK AO2 TSNO
94908KDBQ DBQ20050530203510305/30/05 20:35:31  5-MIN KDBQ 310235Z AUTO 11003KT 10SM CLR 15/09 A3006 950 66 1200 110/03 RMK AO2 TSNO
94908KDBQ DBQ20050530204010305/30/05 20:40:31  5-MIN KDBQ 310240Z AUTO 00000KT 10SM CLR 16/08 A3005 960 62 1300 000/00 RMK AO2 TSNO
94908KDBQ DBQ20050530204510305/30/05 20:45:31  5-MIN KDBQ 310245Z AUTO 00000KT 10SM CLR 15/08 A3006 950 64 1200 000/00 RMK AO2 TSNO
94908KDBQ DBQ20050530205012605/30/05 20:50:31  5-MIN KDBQ 310250Z AUTO 00000KT 10SM CLR 14/09 A3006 950 69 1100 000/00 RMK AO2 SLP177 T01440089 55002 TSNO
94908KDBQ DBQ20050530205512605/30/05 20:55:31  5-MIN KDBQ 310255Z AUTO 00000KT 10SM CLR 14/09 A3006 950 69 1100 000/00 RMK AO2 SLP178 T01440089 53008 TSNO
94908KDBQ DBQ20050530210010305/30/05 21:00:31  5-MIN KDBQ 310300Z AUTO 00000KT 10SM CLR 14/09 A3006 950 69 1100 000/00 RMK AO2 TSNO
94908KDBQ DBQ20050530210510305/30/05 21:05:31  5-MIN KDBQ 310305Z AUTO 00000KT 10SM CLR 14/09 A3006 950 69 1100 000/00 RMK AO2 TSNO
94908KDBQ DBQ20050530211010305/30/05 21:10:31  5-MIN KDBQ 310310Z AUTO 00000KT 10SM CLR 14/08 A3006 950 66 1100 000/00 RMK AO2 TSNO
94908KDBQ DBQ20050530211510305/30/05 21:15:31  5-MIN KDBQ 310315Z AUTO 00000KT 10SM CLR 14/08 A3006 950 66 1100 000/00 RMK AO2 TSNO
94908KDBQ DBQ20050530212010305/30/05 21:20:31  5-MIN KDBQ 310320Z AUTO 00000KT 10SM CLR 14/08 A3007 940 64 1100 000/00 RMK AO2 TSNO
94908KDBQ DBQ20050530212510305/30/05 21:25:31  5-MIN KDBQ 310325Z AUTO 00000KT 10SM CLR 15/08 A3006 950 64 1200 000/00 RMK AO2 TSNO
94908KDBQ DBQ20050530213010305/30/05 21:30:31  5-MIN KDBQ 310330Z AUTO 00000KT 10SM CLR 15/08 A3006 950 64 1200 000/00 RMK AO2 TSNO
94908KDBQ DBQ20050530213510305/30/05 21:35:31  5-MIN KDBQ 310335Z AUTO 00000KT 10SM CLR 14/08 A3006 950 69 1100 000/00 RMK AO2 TSNO
94908KDBQ DBQ20050530214010305/30/05 21:40:31  5-MIN KDBQ 310340Z AUTO 00000KT 10SM CLR 14/08 A3006 950 69 1100 000/00 RMK AO2 TSNO
94908KDBQ DBQ20050530214510305/30/05 21:45:31  5-MIN KDBQ 310345Z AUTO 00000KT 10SM CLR 14/08 A3007 940 69 1100 000/00 RMK AO2 TSNO
94908KDBQ DBQ20050530215012005/30/05 21:50:31  5-MIN KDBQ 310350Z AUTO 09003KT 10SM CLR 14/08 A3006 950 69 1100 090/03 RMK AO2 SLP178 T01390083 TSNO
94908KDBQ DBQ20050530215512005/30/05 21:55:31  5-MIN KDBQ 310355Z AUTO 00000KT 10SM CLR 14/08 A3006 950 69 1100 000/00 RMK AO2 SLP177 T01390083 TSNO
94908KDBQ DBQ20050530220010305/30/05 22:00:31  5-MIN KDBQ 310400Z AUTO 00000KT 10SM CLR 14/08 A3007 940 66 1100 000/00 RMK AO2 TSNO
94908KDBQ DBQ20050530220510305/30/05 22:05:31  5-MIN KDBQ 310405Z AUTO 00000KT 10SM CLR 14/08 A3006 950 66 1100 000/00 RMK AO2 TSNO
94908KDBQ DBQ20050530221010305/30/05 22:10:31  5-MIN KDBQ 310410Z AUTO 00000KT 10SM CLR 14/08 A3006 950 66 1100 000/00 RMK AO2 TSNO
94908KDBQ DBQ20050530221510305/30/05 22:15:31  5-MIN KDBQ 310415Z AUTO 00000KT 10SM CLR 14/08 A3007 940 66 1100 000/00 RMK AO2 TSNO
94908KDBQ DBQ20050530222010305/30/05 22:20:31  5-MIN KDBQ 310420Z AUTO 00000KT 10SM CLR 14/08 A3006 950 66 1100 000/00 RMK AO2 TSNO
94908KDBQ DBQ20050530222510305/30/05 22:25:31  5-MIN KDBQ 310425Z AUTO 00000KT 10SM CLR 14/08 A3006 950 66 1100 000/00 RMK AO2 TSNO
94908KDBQ DBQ20050530223010305/30/05 22:30:31  5-MIN KDBQ 310430Z AUTO 00000KT 10SM CLR 14/08 A3008 930 66 1100 000/00 RMK AO2 TSNO
94908KDBQ DBQ20050530223510305/30/05 22:35:31  5-MIN KDBQ 310435Z AUTO 00000KT 10SM CLR 14/08 A3007 940 64 1100 000/00 RMK AO2 TSNO
94908KDBQ DBQ20050530224010305/30/05 22:40:31  5-MIN KDBQ 310440Z AUTO 00000KT 10SM CLR 14/08 A3007 940 64 1100 000/00 RMK AO2 TSNO
94908KDBQ DBQ20050530224510305/30/05 22:45:31  5-MIN KDBQ 310445Z AUTO 00000KT 10SM CLR 14/08 A3007 940 66 1100 000/00 RMK AO2 TSNO
94908KDBQ DBQ20050530225012005/30/05 22:50:31  5-MIN KDBQ 310450Z AUTO 00000KT 10SM CLR 14/08 A3008 930 66 1100 000/00 RMK AO2 SLP184 T01390078 TSNO
94908KDBQ DBQ20050530225512005/30/05 22:55:31  5-MIN KDBQ 310455Z AUTO 00000KT 10SM CLR 14/08 A3007 940 66 1100 000/00 RMK AO2 SLP181 T01390078 TSNO
94908KDBQ DBQ20050530230010305/30/05 23:00:31  5-MIN KDBQ 310500Z AUTO 00000KT 10SM CLR 14/08 A3007 940 66 1100 000/00 RMK AO2 TSNO
94908KDBQ DBQ20050530230510305/30/05 23:05:31  5-MIN KDBQ 310505Z AUTO 00000KT 10SM CLR 14/08 A3007 940 66 1100 000/00 RMK AO2 TSNO
94908KDBQ DBQ20050530231010305/30/05 23:10:31  5-MIN KDBQ 310510Z AUTO 08003KT 10SM CLR 14/08 A3008 930 66 1100 080/03 RMK AO2 TSNO
94908KDBQ DBQ20050530231510305/30/05 23:15:31  5-MIN KDBQ 310515Z AUTO 10003KT 10SM CLR 13/07 A3007 940 66 1000 100/03 RMK AO2 TSNO
94908KDBQ DBQ20050530232010305/30/05 23:20:31  5-MIN KDBQ 310520Z AUTO 09005KT 10SM CLR 14/07 A3007 940 64 1100 090/05 RMK AO2 TSNO
94908KDBQ DBQ20050530232510205/30/05 23:25:31  5-MIN KDBQ 310525Z AUTO 10005KT 10SM CLR 13/08 A3007 940 71 900 100/05 RMK AO2 TSNO
94908KDBQ DBQ20050530233010205/30/05 23:30:31  5-MIN KDBQ 310530Z AUTO 10004KT 10SM CLR 13/08 A3008 930 71 900 100/04 RMK AO2 TSNO
94908KDBQ DBQ20050530233510205/30/05 23:35:31  5-MIN KDBQ 310535Z AUTO 10004KT 10SM CLR 13/08 A3007 940 71 900 100/04 RMK AO2 TSNO
94908KDBQ DBQ20050530234010205/30/05 23:40:31  5-MIN KDBQ 310540Z AUTO 10005KT 10SM CLR 12/08 A3007 940 74 900 100/05 RMK AO2 TSNO
94908KDBQ DBQ20050530234510205/30/05 23:45:31  5-MIN KDBQ 310545Z AUTO 11003KT 10SM CLR 11/07 A3007 940 77 700 110/03 RMK AO2 TSNO
94908KDBQ DBQ20050530235014705/30/05 23:50:31  5-MIN KDBQ 310550Z AUTO 11004KT 10SM CLR 13/07 A3007 940 69 900 110/04 RMK AO2 SLP181 T01280072 10222 20111 402330061 53008 TSNO
94908KDBQ DBQ20050530235514805/30/05 23:55:31  5-MIN KDBQ 310555Z AUTO 11005KT 10SM CLR 13/08 A3008 930 69 1000 110/05 RMK AO2 SLP185 T01330078 10222 20111 402330061 53008 TSNO
94908KDBQ DBQ20050531000010305/31/05 00:00:38  5-MIN KDBQ 310600Z AUTO 11007KT 10SM CLR 13/07 A3007 940 66 1000 110/07 RMK AO2 TSNO
94908KDBQ DBQ20050531000510305/31/05 00:05:31  5-MIN KDBQ 310605Z AUTO 12008KT 10SM CLR 14/07 A3007 940 61 1100 120/08 RMK AO2 TSNO
94908KDBQ DBQ20050531001010305/31/05 00:10:31  5-MIN KDBQ 310610Z AUTO 12008KT 10SM CLR 15/08 A3008 930 62 1200 120/08 RMK AO2 TSNO
94908KDBQ DBQ20050531001510305/31/05 00:15:32  5-MIN KDBQ 310615Z AUTO 12008KT 10SM CLR 14/08 A3009 920 64 1100 120/08 RMK AO2 TSNO
94908KDBQ DBQ20050531002010305/31/05 00:20:31  5-MIN KDBQ 310620Z AUTO 13005KT 10SM CLR 14/08 A3008 930 64 1100 130/05 RMK AO2 TSNO
94908KDBQ DBQ20050531002510305/31/05 00:25:31  5-MIN KDBQ 310625Z AUTO 13006KT 10SM CLR 14/08 A3008 930 64 1100 130/06 RMK AO2 TSNO
94908KDBQ DBQ20050531003010305/31/05 00:30:31  5-MIN KDBQ 310630Z AUTO 13006KT 10SM CLR 14/08 A3008 930 64 1100 130/06 RMK AO2 TSNO
94908KDBQ DBQ20050531003510305/31/05 00:35:31  5-MIN KDBQ 310635Z AUTO 13006KT 10SM CLR 15/08 A3008 930 62 1200 130/06 RMK AO2 TSNO
94908KDBQ DBQ20050531004010305/31/05 00:40:31  5-MIN KDBQ 310640Z AUTO 13005KT 10SM CLR 15/08 A3008 930 62 1200 130/05 RMK AO2 TSNO
94908KDBQ DBQ20050531004510305/31/05 00:45:31  5-MIN KDBQ 310645Z AUTO 14006KT 10SM CLR 14/08 A3008 930 64 1100 140/06 RMK AO2 TSNO
94908KDBQ DBQ20050531005012005/31/05 00:50:31  5-MIN KDBQ 310650Z AUTO 14007KT 10SM CLR 14/08 A3008 940 64 1100 130/07 RMK AO2 SLP182 T01440078 TSNO
94908KDBQ DBQ20050531005512005/31/05 00:55:31  5-MIN KDBQ 310655Z AUTO 14007KT 10SM CLR 14/08 A3008 930 64 1100 140/07 RMK AO2 SLP182 T01440078 TSNO
94908KDBQ DBQ20050531010010305/31/05 01:00:31  5-MIN KDBQ 310700Z AUTO 14007KT 10SM CLR 14/08 A3007 940 64 1100 140/07 RMK AO2 TSNO
94908KDBQ DBQ20050531010510305/31/05 01:05:31  5-MIN KDBQ 310705Z AUTO 14007KT 10SM CLR 14/08 A3007 940 64 1100 140/07 RMK AO2 TSNO
94908KDBQ DBQ20050531011010305/31/05 01:10:31  5-MIN KDBQ 310710Z AUTO 14007KT 10SM CLR 14/08 A3008 940 64 1100 140/07 RMK AO2 TSNO
94908KDBQ DBQ20050531011510305/31/05 01:15:31  5-MIN KDBQ 310715Z AUTO 14006KT 10SM CLR 14/08 A3007 940 64 1100 140/06 RMK AO2 TSNO
94908KDBQ DBQ20050531012010305/31/05 01:20:31  5-MIN KDBQ 310720Z AUTO 14005KT 10SM CLR 14/08 A3007 940 64 1100 140/05 RMK AO2 TSNO
94908KDBQ DBQ20050531012510305/31/05 01:25:31  5-MIN KDBQ 310725Z AUTO 14005KT 10SM CLR 14/08 A3007 940 66 1100 140/05 RMK AO2 TSNO
94908KDBQ DBQ20050531013010305/31/05 01:30:31  5-MIN KDBQ 310730Z AUTO 15005KT 10SM CLR 13/08 A3007 940 69 1000 150/05 RMK AO2 TSNO
94908KDBQ DBQ20050531013510305/31/05 01:35:31  5-MIN KDBQ 310735Z AUTO 14005KT 10SM CLR 13/08 A3007 940 69 1000 140/05 RMK AO2 TSNO
94908KDBQ DBQ20050531014010305/31/05 01:40:31  5-MIN KDBQ 310740Z AUTO 15005KT 10SM CLR 13/08 A3007 940 69 1000 150/05 RMK AO2 TSNO
94908KDBQ DBQ20050531014510305/31/05 01:45:31  5-MIN KDBQ 310745Z AUTO 15004KT 10SM CLR 13/08 A3007 940 69 1000 150/04 RMK AO2 TSNO
94908KDBQ DBQ20050531015011905/31/05 01:50:31  5-MIN KDBQ 310750Z AUTO 00000KT 10SM CLR 13/08 A3007 940 71 900 000/00 RMK AO2 SLP180 T01280078 TSNO
94908KDBQ DBQ20050531015511905/31/05 01:55:31  5-MIN KDBQ 310755Z AUTO 00000KT 10SM CLR 13/07 A3007 940 69 900 000/00 RMK AO2 SLP181 T01280072 TSNO
94908KDBQ DBQ20050531020010205/31/05 02:00:31  5-MIN KDBQ 310800Z AUTO 00000KT 10SM CLR 12/07 A3007 940 71 900 000/00 RMK AO2 TSNO
94908KDBQ DBQ20050531020510305/31/05 02:05:31  5-MIN KDBQ 310805Z AUTO 14005KT 10SM CLR 13/07 A3007 940 66 1000 140/05 RMK AO2 TSNO
94908KDBQ DBQ20050531021010305/31/05 02:10:31  5-MIN KDBQ 310810Z AUTO 14005KT 10SM CLR 13/07 A3007 940 66 1000 140/05 RMK AO2 TSNO
94908KDBQ DBQ20050531021510205/31/05 02:15:31  5-MIN KDBQ 310815Z AUTO 14004KT 10SM CLR 13/07 A3007 940 69 900 140/04 RMK AO2 TSNO
94908KDBQ DBQ20050531022010305/31/05 02:20:31  5-MIN KDBQ 310820Z AUTO 14006KT 10SM CLR 13/07 A3008 930 66 1000 140/06 RMK AO2 TSNO
94908KDBQ DBQ20050531022510305/31/05 02:25:31  5-MIN KDBQ 310825Z AUTO 14006KT 10SM CLR 14/07 A3007 940 64 1100 140/06 RMK AO2 TSNO
94908KDBQ DBQ20050531023010305/31/05 02:30:31  5-MIN KDBQ 310830Z AUTO 13006KT 10SM CLR 14/07 A3007 940 64 1100 130/06 RMK AO2 TSNO
94908KDBQ DBQ20050531023510305/31/05 02:35:31  5-MIN KDBQ 310835Z AUTO 13005KT 10SM CLR 14/07 A3007 940 61 1100 130/05 RMK AO2 TSNO
94908KDBQ DBQ20050531024010305/31/05 02:40:31  5-MIN KDBQ 310840Z AUTO 13006KT 10SM CLR 14/07 A3008 930 64 1100 130/06 RMK AO2 TSNO
94908KDBQ DBQ20050531024510305/31/05 02:45:31  5-MIN KDBQ 310845Z AUTO 13005KT 10SM CLR 14/07 A3008 930 64 1100 130/05 RMK AO2 TSNO
94908KDBQ DBQ20050531025012605/31/05 02:50:31  5-MIN KDBQ 310850Z AUTO 13005KT 10SM CLR 14/07 A3008 930 64 1100 130/05 RMK AO2 SLP183 T01390072 53008 TSNO
94908KDBQ DBQ20050531025512605/31/05 02:55:31  5-MIN KDBQ 310855Z AUTO 14005KT 10SM CLR 14/07 A3008 930 61 1100 140/05 RMK AO2 SLP184 T01390067 55000 TSNO
94908KDBQ DBQ20050531030010305/31/05 03:00:31  5-MIN KDBQ 310900Z AUTO 14006KT 10SM CLR 13/07 A3008 930 66 1000 140/06 RMK AO2 TSNO
94908KDBQ DBQ20050531030510305/31/05 03:05:31  5-MIN KDBQ 310905Z AUTO 14005KT 10SM CLR 13/07 A3008 930 66 1000 140/05 RMK AO2 TSNO
94908KDBQ DBQ20050531031010305/31/05 03:10:31  5-MIN KDBQ 310910Z AUTO 15004KT 10SM CLR 13/07 A3008 930 66 1000 140/04 RMK AO2 TSNO
94908KDBQ DBQ20050531031510205/31/05 03:15:31  5-MIN KDBQ 310915Z AUTO 26003KT 10SM CLR 12/07 A3008 930 71 800 260/03 RMK AO2 TSNO
94908KDBQ DBQ20050531032010205/31/05 03:20:31  5-MIN KDBQ 310920Z AUTO 23003KT 10SM CLR 11/07 A3009 930 74 700 230/03 RMK AO2 TSNO
94908KDBQ DBQ20050531032510205/31/05 03:25:31  5-MIN KDBQ 310925Z AUTO 00000KT 10SM CLR 12/07 A3009 920 68 800 000/00 RMK AO2 TSNO
94908KDBQ DBQ20050531033010205/31/05 03:30:31  5-MIN KDBQ 310930Z AUTO 00000KT 10SM CLR 12/07 A3008 930 68 900 000/00 RMK AO2 TSNO
94908KDBQ DBQ20050531033510205/31/05 03:35:31  5-MIN KDBQ 310935Z AUTO 00000KT 10SM CLR 13/07 A3008 930 66 900 000/00 RMK AO2 TSNO
94908KDBQ DBQ20050531034010205/31/05 03:40:31  5-MIN KDBQ 310940Z AUTO 00000KT 10SM CLR 13/07 A3009 920 66 900 000/00 RMK AO2 TSNO
94908KDBQ DBQ20050531034510205/31/05 03:45:31  5-MIN KDBQ 310945Z AUTO 00000KT 10SM CLR 13/07 A3009 920 66 900 000/00 RMK AO2 TSNO
94908KDBQ DBQ20050531035011905/31/05 03:50:31  5-MIN KDBQ 310950Z AUTO 00000KT 10SM CLR 13/07 A3009 920 66 900 000/00 RMK AO2 SLP187 T01280067 TSNO
94908KDBQ DBQ20050531035511905/31/05 03:55:31  5-MIN KDBQ 310955Z AUTO 00000KT 10SM CLR 13/07 A3009 920 66 900 000/00 RMK AO2 SLP187 T01280067 TSNO
94908KDBQ DBQ20050531040010205/31/05 04:00:31  5-MIN KDBQ 311000Z AUTO 00000KT 10SM CLR 13/07 A3009 920 66 900 000/00 RMK AO2 TSNO
94908KDBQ DBQ20050531040510205/31/05 04:05:31  5-MIN KDBQ 311005Z AUTO 00000KT 10SM CLR 13/07 A3011 910 66 900 000/00 RMK AO2 TSNO
94908KDBQ DBQ20050531041010205/31/05 04:10:31  5-MIN KDBQ 311010Z AUTO 00000KT 10SM CLR 12/06 A3011 910 68 800 000/00 RMK AO2 TSNO
94908KDBQ DBQ20050531041510205/31/05 04:15:31  5-MIN KDBQ 311015Z AUTO 00000KT 10SM CLR 12/06 A3011 900 68 800 000/00 RMK AO2 TSNO
94908KDBQ DBQ20050531042010205/31/05 04:20:31  5-MIN KDBQ 311020Z AUTO 00000KT 10SM CLR 12/06 A3011 900 66 800 000/00 RMK AO2 TSNO
94908KDBQ DBQ20050531042510205/31/05 04:25:31  5-MIN KDBQ 311025Z AUTO 00000KT 10SM CLR 13/06 A3011 900 63 900 000/00 RMK AO2 TSNO
94908KDBQ DBQ20050531043010205/31/05 04:30:31  5-MIN KDBQ 311030Z AUTO 00000KT 10SM CLR 12/06 A3011 900 66 800 000/00 RMK AO2 TSNO
94908KDBQ DBQ20050531043510205/31/05 04:35:31  5-MIN KDBQ 311035Z AUTO 00000KT 10SM CLR 12/06 A3012 900 68 800 000/00 RMK AO2 TSNO
94908KDBQ DBQ20050531044010205/31/05 04:40:31  5-MIN KDBQ 311040Z AUTO 00000KT 10SM CLR 11/06 A3012 900 71 700 000/00 RMK AO2 TSNO
94908KDBQ DBQ20050531044510205/31/05 04:45:31  5-MIN KDBQ 311045Z AUTO 00000KT 10SM CLR 12/06 A3012 900 66 800 000/00 RMK AO2 TSNO
94908KDBQ DBQ20050531045011005/31/05 04:50:31  5-MIN KDBQ 311050Z 00000KT 10SM CLR 12/06 A3012 900 68  800 000/00 RMK AO2 SLP197 T01170061
94908KDBQ DBQ20050531045511005/31/05 04:55:31  5-MIN KDBQ 311055Z 00000KT 10SM CLR 12/06 A3012 900 68  800 000/00 RMK AO2 SLP196 T01170061
94908KDBQ DBQ20050531050009305/31/05 05:00:31  5-MIN KDBQ 311100Z 00000KT 10SM CLR 12/06 A3012 900 68  800 000/00 RMK AO2
94908KDBQ DBQ20050531050509305/31/05 05:05:31  5-MIN KDBQ 311105Z 00000KT 10SM CLR 13/06 A3012 900 63  900 000/00 RMK AO2
94908KDBQ DBQ20050531051009405/31/05 05:10:31  5-MIN KDBQ 311110Z 00000KT 10SM CLR 14/06 A3012 900 59  1000 000/00 RMK AO2
94908KDBQ DBQ20050531051509405/31/05 05:15:31  5-MIN KDBQ 311115Z 00000KT 10SM CLR 14/06 A3012 890 59  1000 000/00 RMK AO2
94908KDBQ DBQ20050531052009305/31/05 05:20:31  5-MIN KDBQ 311120Z 00000KT 10SM CLR 13/06 A3012 890 61  900 000/00 RMK AO2
94908KDBQ DBQ20050531052509405/31/05 05:25:31  5-MIN KDBQ 311125Z 00000KT 10SM CLR 14/07 A3012 890 61  1000 000/00 RMK AO2
94908KDBQ DBQ20050531053009405/31/05 05:30:31  5-MIN KDBQ 311130Z 00000KT 10SM CLR 14/07 A3012 890 64  1000 000/00 RMK AO2
94908KDBQ DBQ20050531053509405/31/05 05:35:31  5-MIN KDBQ 311135Z 00000KT 10SM CLR 14/07 A3012 900 64  1000 000/00 RMK AO2
94908KDBQ DBQ20050531054009405/31/05 05:40:31  5-MIN KDBQ 311140Z 00000KT 10SM CLR 14/07 A3012 890 61  1100 000/00 RMK AO2
94908KDBQ DBQ20050531054509405/31/05 05:45:31  5-MIN KDBQ 311145Z 00000KT 10SM CLR 14/07 A3012 890 61  1100 000/00 RMK AO2
94908KDBQ DBQ20050531055012905/31/05 05:50:31  5-MIN KDBQ 311150Z 00000KT 10SM CLR 14/08 A3013 890 69  1000 000/00 RMK AO2 SLP199 T01390083 10150 20111 55000
94908KDBQ DBQ20050531055512905/31/05 05:55:31  5-MIN KDBQ 311155Z 00000KT 10SM CLR 14/09 A3013 890 71  1000 000/00 RMK AO2 SLP200 T01390089 10150 20111 51016
94908KDBQ DBQ20050531060009405/31/05 06:00:31  5-MIN KDBQ 311200Z 00000KT 10SM CLR 14/08 A3013 880 66  1100 000/00 RMK AO2
94908KDBQ DBQ20050531060509405/31/05 06:05:31  5-MIN KDBQ 311205Z 00000KT 10SM CLR 14/09 A3012 890 69  1100 000/00 RMK AO2
94908KDBQ DBQ20050531061009405/31/05 06:10:31  5-MIN KDBQ 311210Z 00000KT 10SM CLR 15/09 A3013 880 66  1100 000/00 RMK AO2
94908KDBQ DBQ20050531061509405/31/05 06:15:31  5-MIN KDBQ 311215Z 00000KT 10SM CLR 15/09 A3013 880 66  1100 000/00 RMK AO2
94908KDBQ DBQ20050531062009405/31/05 06:20:31  5-MIN KDBQ 311220Z 00000KT 10SM CLR 16/09 A3014 880 64  1200 000/00 RMK AO2
94908KDBQ DBQ20050531062509405/31/05 06:25:31  5-MIN KDBQ 311225Z 00000KT 10SM CLR 16/08 A3013 890 59  1300 000/00 RMK AO2
94908KDBQ DBQ20050531063009405/31/05 06:30:31  5-MIN KDBQ 311230Z 00000KT 10SM CLR 16/08 A3014 880 59  1300 000/00 RMK AO2
94908KDBQ DBQ20050531063509405/31/05 06:35:31  5-MIN KDBQ 311235Z VRB03KT 10SM CLR 16/08 A3014 880 59  1300 VRB/03 RMK AO2
94908KDBQ DBQ20050531064009405/31/05 06:40:31  5-MIN KDBQ 311240Z VRB03KT 10SM CLR 16/08 A3014 870 59  1200 VRB/03 RMK AO2
94908KDBQ DBQ20050531064509405/31/05 06:45:31  5-MIN KDBQ 311245Z 11003KT 10SM CLR 16/07 A3014 870 55  1200 110/03 RMK AO2
94908KDBQ DBQ20050531065011105/31/05 06:50:31  5-MIN KDBQ 311250Z 11005KT 10SM CLR 16/07 A3014 870 55  1200 110/05 RMK AO2 SLP205 T01610072
94908KDBQ DBQ20050531065511105/31/05 06:55:31  5-MIN KDBQ 311255Z 11007KT 10SM CLR 17/07 A3014 870 53  1300 110/07 RMK AO2 SLP205 T01670072
94908KDBQ DBQ20050531070009405/31/05 07:00:31  5-MIN KDBQ 311300Z 12005KT 10SM CLR 17/08 A3015 870 55  1300 120/05 RMK AO2
94908KDBQ DBQ20050531070509405/31/05 07:05:31  5-MIN KDBQ 311305Z 12007KT 10SM CLR 17/07 A3015 870 51  1300 120/07 RMK AO2
94908KDBQ DBQ20050531071009405/31/05 07:10:31  5-MIN KDBQ 311310Z 13005KT 10SM CLR 17/07 A3015 870 51  1300 130/05 RMK AO2
94908KDBQ DBQ20050531071509405/31/05 07:15:31  5-MIN KDBQ 311315Z 13005KT 10SM CLR 17/07 A3015 870 49  1400 130/05 RMK AO2
94908KDBQ DBQ20050531072009405/31/05 07:20:31  5-MIN KDBQ 311320Z 13008KT 10SM CLR 17/07 A3015 870 49  1400 130/08 RMK AO2
94908KDBQ DBQ20050531072509405/31/05 07:25:31  5-MIN KDBQ 311325Z 13007KT 10SM CLR 18/06 A3015 870 46  1400 120/07 RMK AO2
94908KDBQ DBQ20050531073009405/31/05 07:30:31  5-MIN KDBQ 311330Z 12007KT 10SM CLR 18/07 A3015 870 48  1400 120/07 RMK AO2
94908KDBQ DBQ20050531073509405/31/05 07:35:31  5-MIN KDBQ 311335Z 12008KT 10SM CLR 18/06 A3014 870 46  1400 120/08 RMK AO2
94908KDBQ DBQ20050531074009405/31/05 07:40:31  5-MIN KDBQ 311340Z 12007KT 10SM CLR 18/06 A3015 870 44  1500 120/07 RMK AO2
94908KDBQ DBQ20050531074509405/31/05 07:45:31  5-MIN KDBQ 311345Z 12009KT 10SM CLR 18/06 A3015 870 44  1500 120/09 RMK AO2
94908KDBQ DBQ20050531075011105/31/05 07:50:31  5-MIN KDBQ 311350Z 13008KT 10SM CLR 18/06 A3015 870 44  1500 120/08 RMK AO2 SLP206 T01830061
94908KDBQ DBQ20050531075511105/31/05 07:55:31  5-MIN KDBQ 311355Z 13008KT 10SM CLR 18/06 A3015 870 42  1500 130/08 RMK AO2 SLP207 T01830056
94908KDBQ DBQ20050531080009405/31/05 08:00:31  5-MIN KDBQ 311400Z 14009KT 10SM CLR 18/06 A3015 870 42  1500 140/09 RMK AO2
94908KDBQ DBQ20050531080509405/31/05 08:05:31  5-MIN KDBQ 311405Z 13008KT 10SM CLR 19/06 A3015 870 43  1600 130/08 RMK AO2
94908KDBQ DBQ20050531081009405/31/05 08:10:31  5-MIN KDBQ 311410Z 14008KT 10SM CLR 19/06 A3015 870 43  1600 140/08 RMK AO2
94908KDBQ DBQ20050531081509405/31/05 08:15:31  5-MIN KDBQ 311415Z 13008KT 10SM CLR 19/06 A3015 870 43  1600 130/08 RMK AO2
94908KDBQ DBQ20050531082009405/31/05 08:20:31  5-MIN KDBQ 311420Z 14008KT 10SM CLR 19/07 A3015 870 44  1600 130/08 RMK AO2
94908KDBQ DBQ20050531082509405/31/05 08:25:31  5-MIN KDBQ 311425Z 13009KT 10SM CLR 19/07 A3014 870 44  1600 130/09 RMK AO2
94908KDBQ DBQ20050531083009405/31/05 08:30:31  5-MIN KDBQ 311430Z 14008KT 10SM CLR 19/07 A3014 870 43  1600 130/08 RMK AO2
94908KDBQ DBQ20050531083509405/31/05 08:35:31  5-MIN KDBQ 311435Z 12007KT 10SM CLR 19/07 A3014 870 43  1600 120/07 RMK AO2
94908KDBQ DBQ20050531084009405/31/05 08:40:31  5-MIN KDBQ 311440Z 14008KT 10SM CLR 19/07 A3014 870 43  1600 140/08 RMK AO2
94908KDBQ DBQ20050531084509405/31/05 08:45:31  5-MIN KDBQ 311445Z 13009KT 10SM CLR 19/07 A3014 870 43  1600 130/09 RMK AO2
94908KDBQ DBQ20050531085011705/31/05 08:50:31  5-MIN KDBQ 311450Z 13009KT 10SM CLR 20/07 A3014 880 43  1700 130/09 RMK AO2 SLP205 T02000072 51016
94908KDBQ DBQ20050531085511705/31/05 08:55:31  5-MIN KDBQ 311455Z 13010KT 10SM CLR 20/07 A3014 880 41  1700 130/10 RMK AO2 SLP204 T02000067 50003
94908KDBQ DBQ20050531090509405/31/05 09:05:31  5-MIN KDBQ 311505Z 12009KT 10SM CLR 20/07 A3014 880 43  1700 120/09 RMK AO2
94908KDBQ DBQ20050531091009405/31/05 09:10:31  5-MIN KDBQ 311510Z 12009KT 10SM CLR 21/07 A3014 870 41  1800 120/09 RMK AO2
94908KDBQ DBQ20050531091509405/31/05 09:15:31  5-MIN KDBQ 311515Z 12009KT 10SM CLR 21/07 A3014 880 41  1800 120/09 RMK AO2
94908KDBQ DBQ20050531092009405/31/05 09:20:31  5-MIN KDBQ 311520Z 12009KT 10SM CLR 21/07 A3014 880 41  1800 120/09 RMK AO2
94908KDBQ DBQ20050531092509405/31/05 09:25:31  5-MIN KDBQ 311525Z 12010KT 10SM CLR 21/07 A3014 880 41  1800 120/10 RMK AO2
94908KDBQ DBQ20050531093009405/31/05 09:30:31  5-MIN KDBQ 311530Z 13009KT 10SM CLR 21/07 A3014 880 40  1800 130/09 RMK AO2
94908KDBQ DBQ20050531093509405/31/05 09:35:31  5-MIN KDBQ 311535Z 13010KT 10SM CLR 21/07 A3014 880 41  1800 130/10 RMK AO2
94908KDBQ DBQ20050531094009405/31/05 09:40:31  5-MIN KDBQ 311540Z 14008KT 10SM CLR 21/07 A3014 880 40  1800 140/08 RMK AO2
94908KDBQ DBQ20050531094509405/31/05 09:45:31  5-MIN KDBQ 311545Z 15010KT 10SM CLR 21/08 A3014 880 42  1800 140/10 RMK AO2
94908KDBQ DBQ20050531095011105/31/05 09:50:31  5-MIN KDBQ 311550Z 13009KT 10SM CLR 21/08 A3013 880 42  1800 130/09 RMK AO2 SLP202 T02110078
94908KDBQ DBQ20050531095511105/31/05 09:55:31  5-MIN KDBQ 311555Z 14009KT 10SM CLR 21/08 A3013 880 42  1800 130/09 RMK AO2 SLP202 T02110078
94908KDBQ DBQ20050531100009405/31/05 10:00:31  5-MIN KDBQ 311600Z 13009KT 10SM CLR 21/08 A3014 880 42  1800 130/09 RMK AO2
94908KDBQ DBQ20050531100509405/31/05 10:05:31  5-MIN KDBQ 311605Z 13009KT 10SM CLR 22/08 A3013 880 40  1900 130/09 RMK AO2
94908KDBQ DBQ20050531101009405/31/05 10:10:31  5-MIN KDBQ 311610Z 14009KT 10SM CLR 22/08 A3014 880 42  1900 140/09 RMK AO2
94908KDBQ DBQ20050531101509405/31/05 10:15:31  5-MIN KDBQ 311615Z 14009KT 10SM CLR 22/08 A3014 880 42  1900 130/09 RMK AO2
94908KDBQ DBQ20050531102009405/31/05 10:20:31  5-MIN KDBQ 311620Z 15011KT 10SM CLR 22/08 A3014 880 42  1900 150/11 RMK AO2
94908KDBQ DBQ20050531102509405/31/05 10:25:31  5-MIN KDBQ 311625Z 14009KT 10SM CLR 22/09 A3014 880 43  1900 140/09 RMK AO2
94908KDBQ DBQ20050531103010905/31/05 10:30:31  5-MIN KDBQ 311630Z 15008KT 110V180 10SM CLR 22/08 A3014 880 42 1900 150/08 110V180 RMK AO2
94908KDBQ DBQ20050531103509405/31/05 10:35:31  5-MIN KDBQ 311635Z 11009KT 10SM CLR 22/09 A3014 880 42  2000 110/09 RMK AO2
94908KDBQ DBQ20050531104009405/31/05 10:40:31  5-MIN KDBQ 311640Z 13008KT 10SM CLR 22/08 A3014 880 42  1900 130/08 RMK AO2
94908KDBQ DBQ20050531104509405/31/05 10:45:31  5-MIN KDBQ 311645Z 12008KT 10SM CLR 22/08 A3014 880 40  2000 120/08 RMK AO2
94908KDBQ DBQ20050531105011105/31/05 10:50:31  5-MIN KDBQ 311650Z 13006KT 10SM CLR 22/08 A3014 880 42  1900 130/06 RMK AO2 SLP203 T02170083
94908KDBQ DBQ20050531105511105/31/05 10:55:31  5-MIN KDBQ 311655Z 10008KT 10SM CLR 22/08 A3014 880 40  2000 100/08 RMK AO2 SLP203 T02220083
94908KDBQ DBQ20050531110009405/31/05 11:00:31  5-MIN KDBQ 311700Z 11007KT 10SM CLR 22/08 A3014 880 40  2000 110/07 RMK AO2
94908KDBQ DBQ20050531110509405/31/05 11:05:31  5-MIN KDBQ 311705Z 11008KT 10SM CLR 23/08 A3014 880 39  2000 110/08 RMK AO2
94908KDBQ DBQ20050531111009405/31/05 11:10:31  5-MIN KDBQ 311710Z 10008KT 10SM CLR 23/08 A3013 880 37  2000 090/08 RMK AO2
94908KDBQ DBQ20050531111509405/31/05 11:15:31  5-MIN KDBQ 311715Z 10004KT 10SM CLR 22/08 A3013 880 39  2000 100/04 RMK AO2
94908KDBQ DBQ20050531112009405/31/05 11:20:31  5-MIN KDBQ 311720Z 13007KT 10SM CLR 22/07 A3013 880 37  2000 130/07 RMK AO2
94908KDBQ DBQ20050531112509405/31/05 11:25:31  5-MIN KDBQ 311725Z 14008KT 10SM CLR 23/07 A3013 880 35  2000 140/08 RMK AO2
94908KDBQ DBQ20050531113009405/31/05 11:30:31  5-MIN KDBQ 311730Z 14006KT 10SM CLR 23/08 A3013 890 36  2100 140/06 RMK AO2
94908KDBQ DBQ20050531113509405/31/05 11:35:31  5-MIN KDBQ 311735Z 13008KT 10SM CLR 23/08 A3013 890 36  2100 120/08 RMK AO2
94908KDBQ DBQ20050531114009405/31/05 11:40:31  5-MIN KDBQ 311740Z 17007KT 10SM CLR 23/08 A3013 890 39  2000 160/07 RMK AO2
94908KDBQ DBQ20050531114509405/31/05 11:45:31  5-MIN KDBQ 311745Z 14007KT 10SM CLR 23/09 A3012 890 39  2100 140/07 RMK AO2
94908KDBQ DBQ20050531115012905/31/05 11:50:31  5-MIN KDBQ 311750Z VRB05KT 10SM CLR 23/08 A3013 890 37  2000 VRB/05 RMK AO2 SLP199 T02280078 10233 20139 50003
94908KDBQ DBQ20050531115512905/31/05 11:55:31  5-MIN KDBQ 311755Z 12008KT 10SM CLR 23/07 A3012 890 36  2000 120/08 RMK AO2 SLP199 T02280072 10233 20139 58004
94908KDBQ DBQ20050531120009405/31/05 12:00:31  5-MIN KDBQ 311800Z 10009KT 10SM CLR 22/08 A3012 890 39  2000 100/09 RMK AO2
94908KDBQ DBQ20050531120509405/31/05 12:05:31  5-MIN KDBQ 311805Z 10009KT 10SM CLR 23/08 A3012 890 39  2000 100/09 RMK AO2
94908KDBQ DBQ20050531121009405/31/05 12:10:31  5-MIN KDBQ 311810Z 07006KT 10SM CLR 23/08 A3012 900 38  2100 070/06 RMK AO2
94908KDBQ DBQ20050531121509405/31/05 12:15:31  5-MIN KDBQ 311815Z VRB04KT 10SM CLR 23/09 A3012 900 39  2100 VRB/04 RMK AO2
94908KDBQ DBQ20050531122009405/31/05 12:20:31  5-MIN KDBQ 311820Z 10009KT 10SM CLR 23/09 A3012 890 41  2100 100/09 RMK AO2
94908KDBQ DBQ20050531122509405/31/05 12:25:31  5-MIN KDBQ 311825Z 07010KT 10SM CLR 23/10 A3012 900 42  2100 070/10 RMK AO2
94908KDBQ DBQ20050531123009405/31/05 12:30:31  5-MIN KDBQ 311830Z 09009KT 10SM CLR 24/09 A3012 900 39  2200 090/09 RMK AO2
94908KDBQ DBQ20050531123509405/31/05 12:35:31  5-MIN KDBQ 311835Z 11007KT 10SM CLR 23/09 A3012 900 39  2100 110/07 RMK AO2
94908KDBQ DBQ20050531124009405/31/05 12:40:31  5-MIN KDBQ 311840Z VRB05KT 10SM CLR 23/09 A3011 900 39  2100 VRB/05 RMK AO2
94908KDBQ DBQ20050531124509705/31/05 12:45:31  5-MIN KDBQ 311845Z 11012KT 10SM FEW060 23/09 A3011 900  39 2100 110/12 RMK AO2
94908KDBQ DBQ20050531125012005/31/05 12:50:31  5-MIN KDBQ 311850Z VRB06G14KT 10SM FEW060 23/09 A3011  900 39 2100 VRB/06G14 RMK AO2 SLP194 T02330089
94908KDBQ DBQ20050531125511405/31/05 12:55:31  5-MIN KDBQ 311855Z 11007KT 10SM FEW060 23/09 A3011 900  41 2100 110/07 RMK AO2 SLP193 T02330094
94908KDBQ DBQ20050531130009705/31/05 13:00:31  5-MIN KDBQ 311900Z 10008KT 10SM SCT060 23/09 A3011 910  39 2100 100/08 RMK AO2
94908KDBQ DBQ20050531130509705/31/05 13:05:31  5-MIN KDBQ 311905Z 06008KT 10SM SCT060 24/10 A3011 910  41 2200 060/08 RMK AO2
94908KDBQ DBQ20050531131009705/31/05 13:10:31  5-MIN KDBQ 311910Z 13010KT 10SM SCT060 24/10 A3010 910  41 2200 130/10 RMK AO2
94908KDBQ DBQ20050531131509705/31/05 13:15:31  5-MIN KDBQ 311915Z 13005KT 10SM SCT060 23/08 A3010 910  36 2100 130/05 RMK AO2
94908KDBQ DBQ20050531132011305/31/05 13:20:31  5-MIN KDBQ 311920Z 11008KT 080V160 10SM SCT060 24/09  A3010 910 38 2200 110/08 080V160 RMK AO2
94908KDBQ DBQ20050531132509705/31/05 13:25:31  5-MIN KDBQ 311925Z 08011KT 10SM SCT060 24/10 A3010 910  41 2200 080/11 RMK AO2
94908KDBQ DBQ20050531133011305/31/05 13:30:31  5-MIN KDBQ 311930Z 08007KT 060V120 10SM FEW060 23/09  A3010 910 41 2100 080/07 060V120 RMK AO2
94908KDBQ DBQ20050531133511305/31/05 13:35:31  5-MIN KDBQ 311935Z 11008KT 060V140 10SM FEW065 24/09  A3010 920 39 2200 110/08 060V140 RMK AO2
94908KDBQ DBQ20050531134009405/31/05 13:40:31  5-MIN KDBQ 311940Z 11006KT 10SM CLR 24/09 A3009 920 38  2200 110/06 RMK AO2
94908KDBQ DBQ20050531134511305/31/05 13:45:31  5-MIN KDBQ 311945Z 07008KT 040V130 10SM FEW065 24/09  A3009 920 39 2200 070/08 040V130 RMK AO2
94908KDBQ DBQ20050531135011405/31/05 13:50:31  5-MIN KDBQ 311950Z 12010KT 10SM SCT065 24/10 A3009 920  39 2300 120/10 RMK AO2 SLP188 T02440100
94908KDBQ DBQ20050531135511405/31/05 13:55:31  5-MIN KDBQ 311955Z 09010KT 10SM SCT065 23/09 A3009 920  39 2100 090/10 RMK AO2 SLP188 T02330089
94908KDBQ DBQ20050531140009705/31/05 14:00:31  5-MIN KDBQ 312000Z 10004KT 10SM SCT065 23/09 A3009 920  39 2100 100/04 RMK AO2
94908KDBQ DBQ20050531140509705/31/05 14:05:31  5-MIN KDBQ 312005Z 09009KT 10SM BKN065 23/09 A3009 920  39 2100 090/09 RMK AO2
94908KDBQ DBQ20050531141009705/31/05 14:10:31  5-MIN KDBQ 312010Z 13008KT 10SM BKN065 23/09 A3009 920  41 2100 120/08 RMK AO2
94908KDBQ DBQ20050531141509705/31/05 14:15:31  5-MIN KDBQ 312015Z 09008KT 10SM BKN065 24/09 A3009 920  38 2200 090/08 RMK AO2
94908KDBQ DBQ20050531142009705/31/05 14:20:31  5-MIN KDBQ 312020Z 08007KT 10SM SCT065 24/09 A3009 920  36 2300 080/07 RMK AO2
94908KDBQ DBQ20050531142509705/31/05 14:25:31  5-MIN KDBQ 312025Z 10010KT 10SM FEW060 23/08 A3009 920  38 2100 100/10 RMK AO2
94908KDBQ DBQ20050531143009705/31/05 14:30:31  5-MIN KDBQ 312030Z 08006KT 10SM FEW065 24/09 A3009 920  38 2200 080/06 RMK AO2
94908KDBQ DBQ20050531143509705/31/05 14:35:31  5-MIN KDBQ 312035Z VRB05KT 10SM FEW060 24/09 A3009 920  39 2200 VRB/05 RMK AO2
94908KDBQ DBQ20050531144009405/31/05 14:40:31  5-MIN KDBQ 312040Z 11007KT 10SM CLR 24/09 A3009 920 39  2200 110/07 RMK AO2
94908KDBQ DBQ20050531144509405/31/05 14:45:31  5-MIN KDBQ 312045Z 13008KT 10SM CLR 24/08 A3009 930 35  2300 130/08 RMK AO2
94908KDBQ DBQ20050531145011705/31/05 14:50:31  5-MIN KDBQ 312050Z 11010KT 10SM CLR 24/08 A3008 930 34  2300 110/10 RMK AO2 SLP184 T02440078 58004
94908KDBQ DBQ20050531145511705/31/05 14:55:31  5-MIN KDBQ 312055Z 11007KT 10SM CLR 24/08 A3008 930 34  2300 110/07 RMK AO2 SLP184 T02440078 56013
94908KDBQ DBQ20050531150009405/31/05 15:00:31  5-MIN KDBQ 312100Z 06005KT 10SM CLR 24/09 A3008 930 36  2300 060/05 RMK AO2
94908KDBQ DBQ20050531150509405/31/05 15:05:31  5-MIN KDBQ 312105Z 09009KT 10SM CLR 24/09 A3007 940 38  2300 090/09 RMK AO2
94908KDBQ DBQ20050531151009705/31/05 15:10:31  5-MIN KDBQ 312110Z 07009KT 10SM FEW070 24/09 A3007 940  38 2200 070/09 RMK AO2
94908KDBQ DBQ20050531151509705/31/05 15:15:31  5-MIN KDBQ 312115Z 08011KT 10SM FEW070 24/10 A3007 940  39 2300 080/11 RMK AO2
94908KDBQ DBQ20050531152009705/31/05 15:20:31  5-MIN KDBQ 312120Z 08009KT 10SM FEW065 24/09 A3007 940  36 2300 080/09 RMK AO2
94908KDBQ DBQ20050531152509705/31/05 15:25:31  5-MIN KDBQ 312125Z 08008KT 10SM FEW065 24/09 A3007 940  38 2300 080/08 RMK AO2
94908KDBQ DBQ20050531153009705/31/05 15:30:31  5-MIN KDBQ 312130Z 12006KT 10SM FEW065 24/08 A3007 940  35 2300 120/06 RMK AO2
94908KDBQ DBQ20050531153509705/31/05 15:35:31  5-MIN KDBQ 312135Z 07007KT 10SM FEW065 24/09 A3007 940  38 2300 070/07 RMK AO2
94908KDBQ DBQ20050531154011305/31/05 15:40:31  5-MIN KDBQ 312140Z 12007KT 060V130 10SM FEW065 24/09  A3006 950 36 2300 120/07 060V130 RMK AO2
94908KDBQ DBQ20050531154509405/31/05 15:45:31  5-MIN KDBQ 312145Z 11008KT 10SM CLR 25/09 A3006 950 35  2400 100/08 RMK AO2
94908KDBQ DBQ20050531155011105/31/05 15:50:31  5-MIN KDBQ 312150Z 08009KT 10SM CLR 24/09 A3006 950 38  2300 080/09 RMK AO2 SLP178 T02440094
94908KDBQ DBQ20050531155511105/31/05 15:55:31  5-MIN KDBQ 312155Z 08010KT 10SM CLR 24/09 A3006 950 36  2300 080/10 RMK AO2 SLP178 T02440089
94908KDBQ DBQ20050531160009405/31/05 16:00:31  5-MIN KDBQ 312200Z 10006KT 10SM CLR 24/09 A3006 950 36  2300 100/06 RMK AO2
94908KDBQ DBQ20050531160509405/31/05 16:05:31  5-MIN KDBQ 312205Z 07008KT 10SM CLR 24/10 A3006 950 39  2300 070/08 RMK AO2
94908KDBQ DBQ20050531161009405/31/05 16:10:31  5-MIN KDBQ 312210Z 08008KT 10SM CLR 24/09 A3006 950 39  2200 080/08 RMK AO2
94908KDBQ DBQ20050531161509405/31/05 16:15:31  5-MIN KDBQ 312215Z 10009KT 10SM CLR 24/09 A3006 950 39  2200 100/09 RMK AO2
94908KDBQ DBQ20050531162009405/31/05 16:20:31  5-MIN KDBQ 312220Z 10008KT 10SM CLR 24/09 A3006 950 38  2200 100/08 RMK AO2
94908KDBQ DBQ20050531162509405/31/05 16:25:31  5-MIN KDBQ 312225Z 12007KT 10SM CLR 24/09 A3006 950 36  2300 120/07 RMK AO2
94908KDBQ DBQ20050531163009405/31/05 16:30:31  5-MIN KDBQ 312230Z 10006KT 10SM CLR 24/08 A3006 950 35  2300 100/06 RMK AO2
94908KDBQ DBQ20050531163509405/31/05 16:35:31  5-MIN KDBQ 312235Z 12007KT 10SM CLR 24/09 A3005 960 36  2300 120/07 RMK AO2
94908KDBQ DBQ20050531164009405/31/05 16:40:31  5-MIN KDBQ 312240Z VRB04KT 10SM CLR 24/08 A3005 960 35  2300 VRB/04 RMK AO2
94908KDBQ DBQ20050531164509405/31/05 16:45:31  5-MIN KDBQ 312245Z 13007KT 10SM CLR 24/09 A3005 960 36  2300 130/07 RMK AO2
94908KDBQ DBQ20050531165011105/31/05 16:50:31  5-MIN KDBQ 312250Z 10010KT 10SM CLR 24/09 A3005 960 36  2300 100/10 RMK AO2 SLP173 T02440089
94908KDBQ DBQ20050531165511105/31/05 16:55:31  5-MIN KDBQ 312255Z 09008KT 10SM CLR 24/08 A3005 960 36  2200 080/08 RMK AO2 SLP173 T02390083
94908KDBQ DBQ20050531170009405/31/05 17:00:31  5-MIN KDBQ 312300Z 09007KT 10SM CLR 23/09 A3005 960 39  2200 080/07 RMK AO2
94908KDBQ DBQ20050531170509405/31/05 17:05:31  5-MIN KDBQ 312305Z 07007KT 10SM CLR 23/10 A3005 960 44  2100 070/07 RMK AO2
94908KDBQ DBQ20050531171009405/31/05 17:10:31  5-MIN KDBQ 312310Z 07006KT 10SM CLR 23/10 A3005 960 44  2100 060/06 RMK AO2
94908KDBQ DBQ20050531171509405/31/05 17:15:31  5-MIN KDBQ 312315Z 06006KT 10SM CLR 23/11 A3005 960 45  2100 060/06 RMK AO2
94908KDBQ DBQ20050531172009405/31/05 17:20:31  5-MIN KDBQ 312320Z 07008KT 10SM CLR 23/11 A3005 960 44  2200 070/08 RMK AO2
94908KDBQ DBQ20050531172509405/31/05 17:25:31  5-MIN KDBQ 312325Z 07007KT 10SM CLR 23/10 A3005 960 42  2200 070/07 RMK AO2
94908KDBQ DBQ20050531173009405/31/05 17:30:31  5-MIN KDBQ 312330Z 07006KT 10SM CLR 24/11 A3005 960 42  2200 070/06 RMK AO2
94908KDBQ DBQ20050531173509405/31/05 17:35:31  5-MIN KDBQ 312335Z 07007KT 10SM CLR 24/10 A3005 960 41  2200 070/07 RMK AO2
94908KDBQ DBQ20050531174009405/31/05 17:40:31  5-MIN KDBQ 312340Z 09007KT 10SM CLR 24/10 A3005 960 41  2300 090/07 RMK AO2
94908KDBQ DBQ20050531174509405/31/05 17:45:31  5-MIN KDBQ 312345Z 00000KT 10SM CLR 24/10 A3005 960 41  2300 000/00 RMK AO2
94908KDBQ DBQ20050531175012905/31/05 17:50:31  5-MIN KDBQ 312350Z 07005KT 10SM CLR 24/11 A3005 960 42  2200 070/05 RMK AO2 SLP172 T02390106 10250 20222 56013
94908KDBQ DBQ20050531175512905/31/05 17:55:31  5-MIN KDBQ 312355Z 08003KT 10SM CLR 24/10 A3005 960 41  2200 080/03 RMK AO2 SLP173 T02390100 10250 20222 56012
94908KDBQ DBQ20050531180009405/31/05 18:00:31  5-MIN KDBQ 010000Z 09007KT 10SM CLR 24/09 A3005 960 39  2200 090/07 RMK AO2
94908KDBQ DBQ20050531180509405/31/05 18:05:31  5-MIN KDBQ 010005Z 09008KT 10SM CLR 23/10 A3005 960 42  2200 090/08 RMK AO2
94908KDBQ DBQ20050531181009405/31/05 18:10:31  5-MIN KDBQ 010010Z 08008KT 10SM CLR 23/10 A3005 960 42  2200 080/08 RMK AO2
94908KDBQ DBQ20050531181509405/31/05 18:15:31  5-MIN KDBQ 010015Z 08008KT 10SM CLR 23/10 A3005 960 42  2200 080/08 RMK AO2
94908KDBQ DBQ20050531182009405/31/05 18:20:31  5-MIN KDBQ 010020Z 08007KT 10SM CLR 23/11 A3005 960 45  2100 080/07 RMK AO2
94908KDBQ DBQ20050531182509405/31/05 18:25:31  5-MIN KDBQ 010025Z 08006KT 10SM CLR 23/11 A3005 960 45  2100 080/06 RMK AO2
94908KDBQ DBQ20050531183009405/31/05 18:30:31  5-MIN KDBQ 010030Z 08007KT 10SM CLR 22/10 A3005 960 45  2100 080/07 RMK AO2
94908KDBQ DBQ20050531183509405/31/05 18:35:31  5-MIN KDBQ 010035Z 08007KT 10SM CLR 22/10 A3005 960 47  2000 080/07 RMK AO2
94908KDBQ DBQ20050531184009405/31/05 18:40:31  5-MIN KDBQ 010040Z 08007KT 10SM CLR 21/10 A3005 960 48  1900 080/07 RMK AO2
94908KDBQ DBQ20050531184509405/31/05 18:45:31  5-MIN KDBQ 010045Z 08006KT 10SM CLR 21/10 A3005 960 48  1900 080/06 RMK AO2
94908KDBQ DBQ20050531185012005/31/05 18:50:31  5-MIN KDBQ 010050Z AUTO 08007KT 10SM CLR 21/10 A3005 960 50 1900 080/07 RMK AO2 SLP174 T02060100 TSNO
94908KDBQ DBQ20050531185512005/31/05 18:55:31  5-MIN KDBQ 010055Z AUTO 08006KT 10SM CLR 21/10 A3005 950 50 1900 080/06 RMK AO2 SLP175 T02060100 TSNO
94908KDBQ DBQ20050531190010305/31/05 19:00:31  5-MIN KDBQ 010100Z AUTO 08006KT 10SM CLR 21/10 A3006 950 50 1900 080/06 RMK AO2 TSNO
94908KDBQ DBQ20050531190510305/31/05 19:05:31  5-MIN KDBQ 010105Z AUTO 08007KT 10SM CLR 21/10 A3006 950 50 1900 080/07 RMK AO2 TSNO
94908KDBQ DBQ20050531191010305/31/05 19:10:31  5-MIN KDBQ 010110Z AUTO 08008KT 10SM CLR 20/10 A3006 950 52 1800 080/08 RMK AO2 TSNO
94908KDBQ DBQ20050531191510305/31/05 19:15:31  5-MIN KDBQ 010115Z AUTO 08007KT 10SM CLR 20/10 A3005 960 52 1800 070/07 RMK AO2 TSNO
94908KDBQ DBQ20050531192010305/31/05 19:20:31  5-MIN KDBQ 010120Z AUTO 08007KT 10SM CLR 20/09 A3006 950 50 1800 080/07 RMK AO2 TSNO
94908KDBQ DBQ20050531192510305/31/05 19:25:31  5-MIN KDBQ 010125Z AUTO 08006KT 10SM CLR 20/09 A3006 950 50 1800 080/06 RMK AO2 TSNO
94908KDBQ DBQ20050531193010305/31/05 19:30:31  5-MIN KDBQ 010130Z AUTO 08006KT 10SM CLR 19/09 A3005 960 52 1700 080/06 RMK AO2 TSNO
94908KDBQ DBQ20050531193510305/31/05 19:35:31  5-MIN KDBQ 010135Z AUTO 08007KT 10SM CLR 19/09 A3006 950 52 1700 080/07 RMK AO2 TSNO
94908KDBQ DBQ20050531194010305/31/05 19:40:31  5-MIN KDBQ 010140Z AUTO 08007KT 10SM CLR 19/09 A3005 960 52 1700 080/07 RMK AO2 TSNO
94908KDBQ DBQ20050531194510305/31/05 19:45:31  5-MIN KDBQ 010145Z AUTO 08007KT 10SM CLR 19/10 A3006 950 54 1700 080/07 RMK AO2 TSNO
94908KDBQ DBQ20050531195012005/31/05 19:50:31  5-MIN KDBQ 010150Z AUTO 08007KT 10SM CLR 20/09 A3006 950 50 1800 080/07 RMK AO2 SLP175 T02000094 TSNO
94908KDBQ DBQ20050531195512005/31/05 19:55:31  5-MIN KDBQ 010155Z AUTO 08007KT 10SM CLR 19/10 A3005 960 54 1700 080/07 RMK AO2 SLP173 T01940100 TSNO
94908KDBQ DBQ20050531200010305/31/05 20:00:31  5-MIN KDBQ 010200Z AUTO 08007KT 10SM CLR 19/10 A3006 950 54 1700 080/07 RMK AO2 TSNO
94908KDBQ DBQ20050531200510305/31/05 20:05:31  5-MIN KDBQ 010205Z AUTO 08007KT 10SM CLR 19/10 A3005 960 54 1700 080/07 RMK AO2 TSNO
94908KDBQ DBQ20050531201010305/31/05 20:10:31  5-MIN KDBQ 010210Z AUTO 08007KT 10SM CLR 19/10 A3006 950 56 1700 080/07 RMK AO2 TSNO
94908KDBQ DBQ20050531201510305/31/05 20:15:31  5-MIN KDBQ 010215Z AUTO 09006KT 10SM CLR 19/10 A3006 950 56 1700 090/06 RMK AO2 TSNO
94908KDBQ DBQ20050531202010305/31/05 20:20:31  5-MIN KDBQ 010220Z AUTO 09006KT 10SM CLR 18/10 A3006 950 58 1600 090/06 RMK AO2 TSNO
94908KDBQ DBQ20050531202510305/31/05 20:25:31  5-MIN KDBQ 010225Z AUTO 09006KT 10SM CLR 18/10 A3007 940 58 1600 090/06 RMK AO2 TSNO
94908KDBQ DBQ20050531203010305/31/05 20:30:31  5-MIN KDBQ 010230Z AUTO 09007KT 10SM CLR 18/10 A3006 950 58 1600 090/07 RMK AO2 TSNO
94908KDBQ DBQ20050531203510305/31/05 20:35:31  5-MIN KDBQ 010235Z AUTO 09007KT 10SM CLR 18/10 A3007 940 58 1600 090/07 RMK AO2 TSNO
94908KDBQ DBQ20050531204010305/31/05 20:40:31  5-MIN KDBQ 010240Z AUTO 09008KT 10SM CLR 18/10 A3006 950 58 1600 090/08 RMK AO2 TSNO
94908KDBQ DBQ20050531204510305/31/05 20:45:31  5-MIN KDBQ 010245Z AUTO 09008KT 10SM CLR 18/10 A3006 950 58 1600 090/08 RMK AO2 TSNO
94908KDBQ DBQ20050531205012605/31/05 20:50:31  5-MIN KDBQ 010250Z AUTO 09008KT 10SM CLR 18/10 A3007 940 58 1600 090/08 RMK AO2 SLP178 T01830100 56012 TSNO
94908KDBQ DBQ20050531205512605/31/05 20:55:31  5-MIN KDBQ 010255Z AUTO 10009KT 10SM CLR 18/10 A3006 950 58 1600 090/09 RMK AO2 SLP177 T01830100 53005 TSNO
94908KDBQ DBQ20050531210010305/31/05 21:00:31  5-MIN KDBQ 010300Z AUTO 10009KT 10SM CLR 19/10 A3008 940 56 1600 100/09 RMK AO2 TSNO
94908KDBQ DBQ20050531210510305/31/05 21:05:31  5-MIN KDBQ 010305Z AUTO 10009KT 10SM CLR 19/09 A3007 940 54 1700 100/09 RMK AO2 TSNO
94908KDBQ DBQ20050531211010305/31/05 21:10:31  5-MIN KDBQ 010310Z AUTO 10009KT 10SM CLR 19/10 A3007 940 56 1700 100/09 RMK AO2 TSNO
94908KDBQ DBQ20050531211510305/31/05 21:15:31  5-MIN KDBQ 010315Z AUTO 11010KT 10SM CLR 19/10 A3007 940 56 1700 100/10 RMK AO2 TSNO
94908KDBQ DBQ20050531212010305/31/05 21:20:31  5-MIN KDBQ 010320Z AUTO 10009KT 10SM CLR 19/10 A3007 940 56 1700 100/09 RMK AO2 TSNO
94908KDBQ DBQ20050531212510305/31/05 21:25:31  5-MIN KDBQ 010325Z AUTO 11009KT 10SM CLR 18/10 A3008 930 58 1600 100/09 RMK AO2 TSNO
94908KDBQ DBQ20050531213010305/31/05 21:30:31  5-MIN KDBQ 010330Z AUTO 11009KT 10SM CLR 18/10 A3007 940 58 1600 110/09 RMK AO2 TSNO
94908KDBQ DBQ20050531213510305/31/05 21:35:31  5-MIN KDBQ 010335Z AUTO 11009KT 10SM CLR 18/10 A3007 940 58 1600 110/09 RMK AO2 TSNO
94908KDBQ DBQ20050531214010305/31/05 21:40:31  5-MIN KDBQ 010340Z AUTO 11009KT 10SM CLR 18/10 A3007 940 58 1600 110/09 RMK AO2 TSNO
94908KDBQ DBQ20050531214510305/31/05 21:45:31  5-MIN KDBQ 010345Z AUTO 11009KT 10SM CLR 18/10 A3007 940 58 1600 110/09 RMK AO2 TSNO
94908KDBQ DBQ20050531215012005/31/05 21:50:31  5-MIN KDBQ 010350Z AUTO 11009KT 10SM CLR 18/10 A3007 940 60 1500 110/09 RMK AO2 SLP180 T01780100 TSNO
94908KDBQ DBQ20050531215512005/31/05 21:55:31  5-MIN KDBQ 010355Z AUTO 11009KT 10SM CLR 18/10 A3006 950 60 1500 110/09 RMK AO2 SLP176 T01780100 TSNO
94908KDBQ DBQ20050531220010305/31/05 22:00:31  5-MIN KDBQ 010400Z AUTO 11008KT 10SM CLR 18/10 A3006 950 60 1500 110/08 RMK AO2 TSNO
94908KDBQ DBQ20050531220510305/31/05 22:05:31  5-MIN KDBQ 010405Z AUTO 11009KT 10SM CLR 18/10 A3007 940 60 1500 110/09 RMK AO2 TSNO
94908KDBQ DBQ20050531221010305/31/05 22:10:31  5-MIN KDBQ 010410Z AUTO 11009KT 10SM CLR 18/10 A3006 950 60 1500 110/09 RMK AO2 TSNO
94908KDBQ DBQ20050531221510305/31/05 22:15:31  5-MIN KDBQ 010415Z AUTO 11009KT 10SM CLR 18/10 A3006 950 60 1500 110/09 RMK AO2 TSNO
94908KDBQ DBQ20050531222010305/31/05 22:20:31  5-MIN KDBQ 010420Z AUTO 11009KT 10SM CLR 17/10 A3007 940 62 1500 110/09 RMK AO2 TSNO
94908KDBQ DBQ20050531222510305/31/05 22:25:31  5-MIN KDBQ 010425Z AUTO 11009KT 10SM CLR 17/09 A3007 940 60 1500 110/09 RMK AO2 TSNO
94908KDBQ DBQ20050531223010305/31/05 22:30:31  5-MIN KDBQ 010430Z AUTO 11008KT 10SM CLR 17/09 A3007 940 60 1500 110/08 RMK AO2 TSNO
94908KDBQ DBQ20050531223510305/31/05 22:35:31  5-MIN KDBQ 010435Z AUTO 11008KT 10SM CLR 17/09 A3006 950 60 1500 110/08 RMK AO2 TSNO
94908KDBQ DBQ20050531224010305/31/05 22:40:31  5-MIN KDBQ 010440Z AUTO 11008KT 10SM CLR 17/09 A3006 950 60 1500 110/08 RMK AO2 TSNO
94908KDBQ DBQ20050531224510305/31/05 22:45:31  5-MIN KDBQ 010445Z AUTO 11008KT 10SM CLR 17/09 A3007 940 60 1500 110/08 RMK AO2 TSNO
94908KDBQ DBQ20050531225012005/31/05 22:50:31  5-MIN KDBQ 010450Z AUTO 11008KT 10SM CLR 17/09 A3006 950 62 1400 100/08 RMK AO2 SLP175 T01670094 TSNO
94908KDBQ DBQ20050531225512005/31/05 22:55:31  5-MIN KDBQ 010455Z AUTO 10008KT 10SM CLR 17/09 A3006 950 62 1400 100/08 RMK AO2 SLP174 T01670094 TSNO
94908KDBQ DBQ20050531230010305/31/05 23:00:31  5-MIN KDBQ 010500Z AUTO 10008KT 10SM CLR 17/09 A3007 940 62 1400 100/08 RMK AO2 TSNO
94908KDBQ DBQ20050531230510305/31/05 23:05:31  5-MIN KDBQ 010505Z AUTO 10009KT 10SM CLR 17/09 A3006 950 62 1400 100/09 RMK AO2 TSNO
94908KDBQ DBQ20050531231010305/31/05 23:10:31  5-MIN KDBQ 010510Z AUTO 10008KT 10SM CLR 17/09 A3006 950 62 1400 100/08 RMK AO2 TSNO
94908KDBQ DBQ20050531231510305/31/05 23:15:31  5-MIN KDBQ 010515Z AUTO 10008KT 10SM CLR 17/09 A3007 940 62 1400 100/08 RMK AO2 TSNO
94908KDBQ DBQ20050531232010305/31/05 23:20:31  5-MIN KDBQ 010520Z AUTO 08008KT 10SM CLR 16/09 A3005 960 64 1300 080/08 RMK AO2 TSNO
94908KDBQ DBQ20050531232510305/31/05 23:25:31  5-MIN KDBQ 010525Z AUTO 09009KT 10SM CLR 16/09 A3005 960 64 1400 090/09 RMK AO2 TSNO
94908KDBQ DBQ20050531233010305/31/05 23:30:31  5-MIN KDBQ 010530Z AUTO 08007KT 10SM CLR 16/09 A3005 950 64 1300 080/07 RMK AO2 TSNO
94908KDBQ DBQ20050531233510305/31/05 23:35:31  5-MIN KDBQ 010535Z AUTO 08008KT 10SM CLR 16/09 A3005 960 64 1400 080/08 RMK AO2 TSNO
94908KDBQ DBQ20050531234010305/31/05 23:40:31  5-MIN KDBQ 010540Z AUTO 09008KT 10SM CLR 16/09 A3005 960 64 1400 090/08 RMK AO2 TSNO
94908KDBQ DBQ20050531234510305/31/05 23:45:31  5-MIN KDBQ 010545Z AUTO 08008KT 10SM CLR 16/09 A3005 960 64 1400 080/08 RMK AO2 TSNO
94908KDBQ DBQ20050531235014805/31/05 23:50:31  5-MIN KDBQ 010550Z AUTO 08008KT 10SM CLR 16/09 A3006 950 64 1300 080/08 RMK AO2 SLP175 T01610094 10239 20161 402500111 53005 TSNO
94908KDBQ DBQ20050531235514805/31/05 23:55:31  5-MIN KDBQ 010555Z AUTO 09007KT 10SM CLR 16/09 A3005 960 67 1300 090/07 RMK AO2 SLP171 T01560094 10239 20156 402500111 58005 TSNO
