94908KDBQ DBQ20080601000009906/01/08 00:00:49  5-MIN KDBQ 010600Z AUTO 00000KT 10SM CLR 13/11 A2992 1080 89 1100 000/00 RMK AO2
94908KDBQ DBQ20080601000509906/01/08 00:05:31  5-MIN KDBQ 010605Z AUTO 00000KT 10SM CLR 13/12 A2992 1080 93 1100 000/00 RMK AO2
94908KDBQ DBQ20080601001009906/01/08 00:10:31  5-MIN KDBQ 010610Z AUTO 00000KT 10SM CLR 13/12 A2992 1080 89 1200 000/00 RMK AO2
94908KDBQ DBQ20080601001509906/01/08 00:15:33  5-MIN KDBQ 010615Z AUTO 00000KT 10SM CLR 13/12 A2992 1080 93 1100 000/00 RMK AO2
94908KDBQ DBQ20080601002010206/01/08 00:20:31  5-MIN KDBQ 010620Z AUTO 33004KT 10SM FEW090 13/11 A2993 1070 89 1100 330/04 RMK AO2
94908KDBQ DBQ20080601002510206/01/08 00:25:31  5-MIN KDBQ 010625Z AUTO 34006KT 10SM SCT090 13/11 A2994 1060 89 1100 340/06 RMK AO2
94908KDBQ DBQ20080601003010206/01/08 00:30:31  5-MIN KDBQ 010630Z AUTO 36005KT 10SM FEW090 14/11 A2993 1070 83 1200 360/05 RMK AO2
94908KDBQ DBQ20080601003510206/01/08 00:35:31  5-MIN KDBQ 010635Z AUTO 36006KT 10SM FEW090 14/11 A2993 1070 80 1300 360/06 RMK AO2
94908KDBQ DBQ20080601004010206/01/08 00:40:31  5-MIN KDBQ 010640Z AUTO 01004KT 10SM FEW090 14/11 A2993 1070 83 1200 010/04 RMK AO2
94908KDBQ DBQ20080601004510206/01/08 00:45:31  5-MIN KDBQ 010645Z AUTO 02005KT 10SM FEW090 14/11 A2993 1070 83 1200 020/05 RMK AO2
94908KDBQ DBQ20080601005011906/01/08 00:50:31  5-MIN KDBQ 010650Z AUTO 02003KT 10SM FEW095 14/11 A2993 1070 83 1200 010/03 RMK AO2 SLP131 T01390111
94908KDBQ DBQ20080601005509906/01/08 00:55:31  5-MIN KDBQ 010655Z AUTO 00000KT 10SM CLR 14/11 A2993 1070 83 1200 000/00 RMK AO2
94908KDBQ DBQ20080601010009906/01/08 01:00:31  5-MIN KDBQ 010700Z AUTO 00000KT 10SM CLR 13/11 A2992 1080 89 1100 000/00 RMK AO2
94908KDBQ DBQ20080601010509906/01/08 01:05:31  5-MIN KDBQ 010705Z AUTO 00000KT 10SM CLR 13/11 A2992 1080 86 1200 000/00 RMK AO2
94908KDBQ DBQ20080601011009906/01/08 01:10:31  5-MIN KDBQ 010710Z AUTO 00000KT 10SM CLR 13/11 A2993 1070 86 1100 000/00 RMK AO2
94908KDBQ DBQ20080601011509906/01/08 01:15:31  5-MIN KDBQ 010715Z AUTO 00000KT 10SM CLR 13/11 A2992 1080 86 1100 000/00 RMK AO2
94908KDBQ DBQ20080601012009906/01/08 01:20:31  5-MIN KDBQ 010720Z AUTO 00000KT 10SM CLR 13/11 A2992 1080 89 1100 000/00 RMK AO2
94908KDBQ DBQ20080601012509906/01/08 01:25:31  5-MIN KDBQ 010725Z AUTO 35003KT 10SM CLR 12/11 A2992 1080 89 1000 340/03 RMK AO2
94908KDBQ DBQ20080601013009906/01/08 01:30:31  5-MIN KDBQ 010730Z AUTO 00000KT 10SM CLR 12/10 A2992 1080 89 1000 000/00 RMK AO2
94908KDBQ DBQ20080601013509906/01/08 01:35:31  5-MIN KDBQ 010735Z AUTO 00000KT 10SM CLR 12/10 A2992 1080 86 1000 000/00 RMK AO2
94908KDBQ DBQ20080601014009906/01/08 01:40:31  5-MIN KDBQ 010740Z AUTO 00000KT 10SM CLR 12/11 A2992 1080 89 1000 000/00 RMK AO2
94908KDBQ DBQ20080601014509906/01/08 01:45:31  5-MIN KDBQ 010745Z AUTO 00000KT 10SM CLR 12/10 A2992 1080 86 1000 000/00 RMK AO2
94908KDBQ DBQ20080601015011606/01/08 01:50:31  5-MIN KDBQ 010750Z AUTO 00000KT 10SM CLR 12/10 A2991 1090 86 1100 000/00 RMK AO2 SLP126 T01220100
94908KDBQ DBQ20080601015509906/01/08 01:55:31  5-MIN KDBQ 010755Z AUTO 22003KT 10SM CLR 12/11 A2991 1080 89 1000 220/03 RMK AO2
94908KDBQ DBQ20080601020009906/01/08 02:00:31  5-MIN KDBQ 010800Z AUTO 22003KT 10SM CLR 12/11 A2991 1090 93 1000 220/03 RMK AO2
94908KDBQ DBQ20080601020509906/01/08 02:05:31  5-MIN KDBQ 010805Z AUTO 00000KT 10SM CLR 12/11 A2991 1090 93 1000 000/00 RMK AO2
94908KDBQ DBQ20080601021009906/01/08 02:10:31  5-MIN KDBQ 010810Z AUTO 21003KT 10SM CLR 12/11 A2991 1090 93 1000 210/03 RMK AO2
94908KDBQ DBQ20080601021509906/01/08 02:15:31  5-MIN KDBQ 010815Z AUTO 00000KT 10SM CLR 12/11 A2991 1090 89 1100 000/00 RMK AO2
94908KDBQ DBQ20080601022009906/01/08 02:20:31  5-MIN KDBQ 010820Z AUTO 21003KT 10SM CLR 12/11 A2991 1090 93 1000 210/03 RMK AO2
94908KDBQ DBQ20080601022509906/01/08 02:25:31  5-MIN KDBQ 010825Z AUTO 00000KT 10SM CLR 12/11 A2991 1090 93 1000 000/00 RMK AO2
94908KDBQ DBQ20080601023009906/01/08 02:30:31  5-MIN KDBQ 010830Z AUTO 00000KT 10SM CLR 12/11 A2991 1090 93 1000 000/00 RMK AO2
94908KDBQ DBQ20080601023509906/01/08 02:35:31  5-MIN KDBQ 010835Z AUTO 00000KT 10SM CLR 12/11 A2991 1090 89 1100 000/00 RMK AO2
94908KDBQ DBQ20080601024009906/01/08 02:40:31  5-MIN KDBQ 010840Z AUTO 00000KT 10SM CLR 12/11 A2991 1090 93 1000 000/00 RMK AO2
94908KDBQ DBQ20080601024509906/01/08 02:45:31  5-MIN KDBQ 010845Z AUTO 22003KT 10SM CLR 12/11 A2991 1090 93 1000 220/03 RMK AO2
94908KDBQ DBQ20080601025012206/01/08 02:50:31  5-MIN KDBQ 010850Z AUTO 22003KT 10SM CLR 12/11 A2991 1090 93 1000 220/03 RMK AO2 SLP126 T01170106 50001
94908KDBQ DBQ20080601025509906/01/08 02:55:31  5-MIN KDBQ 010855Z AUTO 22003KT 10SM CLR 12/11 A2991 1090 93 1000 220/03 RMK AO2
94908KDBQ DBQ20080601030009906/01/08 03:00:31  5-MIN KDBQ 010900Z AUTO 00000KT 10SM CLR 12/11 A2991 1080 93 1000 000/00 RMK AO2
94908KDBQ DBQ20080601030509906/01/08 03:05:31  5-MIN KDBQ 010905Z AUTO 00000KT 10SM CLR 12/11 A2991 1090 93 1000 000/00 RMK AO2
94908KDBQ DBQ20080601031009906/01/08 03:10:31  5-MIN KDBQ 010910Z AUTO 00000KT 10SM CLR 12/11 A2992 1080 93 1000 000/00 RMK AO2
94908KDBQ DBQ20080601031509906/01/08 03:15:31  5-MIN KDBQ 010915Z AUTO 20003KT 10SM CLR 12/10 A2992 1080 89 1000 200/03 RMK AO2
94908KDBQ DBQ20080601032009906/01/08 03:20:31  5-MIN KDBQ 010920Z AUTO 21006KT 10SM CLR 12/11 A2992 1080 93 1000 210/06 RMK AO2
94908KDBQ DBQ20080601032509906/01/08 03:25:31  5-MIN KDBQ 010925Z AUTO 22007KT 10SM CLR 12/11 A2991 1090 93 1000 220/07 RMK AO2
94908KDBQ DBQ20080601033009706/01/08 03:30:31  5-MIN KDBQ 010930Z AUTO 22006KT 9SM CLR 11/11 A2991 1090 96 900 220/06 RMK AO2
94908KDBQ DBQ20080601033509806/01/08 03:35:31  5-MIN KDBQ 010935Z AUTO 22005KT 8SM CLR 12/11 A2991 1090 93 1000 220/05 RMK AO2
94908KDBQ DBQ20080601034009706/01/08 03:40:31  5-MIN KDBQ 010940Z AUTO 22003KT 9SM CLR 11/11 A2991 1080 96 900 220/03 RMK AO2
94908KDBQ DBQ20080601034509806/01/08 03:45:31  5-MIN KDBQ 010945Z AUTO 22004KT 9SM CLR 12/11 A2992 1080 93 1000 220/04 RMK AO2
94908KDBQ DBQ20080601035011506/01/08 03:50:31  5-MIN KDBQ 010950Z AUTO 22004KT 9SM CLR 12/11 A2991 1080 93 1000 220/04 RMK AO2 SLP127 T01170106
94908KDBQ DBQ20080601035509706/01/08 03:55:31  5-MIN KDBQ 010955Z AUTO 23006KT 8SM CLR 11/11 A2991 1080 96 900 220/06 RMK AO2
94908KDBQ DBQ20080601040009706/01/08 04:00:31  5-MIN KDBQ 011000Z AUTO 23007KT 7SM CLR 11/11 A2991 1080 96 900 230/07 RMK AO2
94908KDBQ DBQ20080601040510006/01/08 04:05:31  5-MIN KDBQ 011005Z AUTO 23005KT 6SM BR CLR 11/11 A2992 1080 96 900 230/05 RMK AO2
94908KDBQ DBQ20080601041010006/01/08 04:10:31  5-MIN KDBQ 011010Z AUTO 23004KT 6SM BR CLR 11/11 A2992 1080 96 900 230/04 RMK AO2
94908KDBQ DBQ20080601041510006/01/08 04:15:31  5-MIN KDBQ 011015Z AUTO 22003KT 6SM BR CLR 11/11 A2992 1080 96 900 220/03 RMK AO2
94908KDBQ DBQ20080601042009706/01/08 04:20:31  5-MIN KDBQ 011020Z AUTO 21003KT 7SM CLR 11/11 A2992 1080 96 900 210/03 RMK AO2
94908KDBQ DBQ20080601042509806/01/08 04:25:31  5-MIN KDBQ 011025Z AUTO 00000KT 8SM CLR 12/11 A2993 1070 93 1000 000/00 RMK AO2
94908KDBQ DBQ20080601043009806/01/08 04:30:31  5-MIN KDBQ 011030Z AUTO 00000KT 8SM CLR 12/11 A2993 1070 93 1000 000/00 RMK AO2
94908KDBQ DBQ20080601043509706/01/08 04:35:31  5-MIN KDBQ 011035Z AUTO 03004KT 7SM CLR 11/09 A2993 1070 93 800 030/04 RMK AO2
94908KDBQ DBQ20080601044009706/01/08 04:40:31  5-MIN KDBQ 011040Z AUTO 04006KT 7SM CLR 11/10 A2993 1070 93 900 040/06 RMK AO2
94908KDBQ DBQ20080601044509806/01/08 04:45:31  5-MIN KDBQ 011045Z AUTO 04004KT 7SM CLR 12/11 A2993 1070 93 1000 040/04 RMK AO2
94908KDBQ DBQ20080601045011306/01/08 04:50:31  5-MIN KDBQ 011050Z 00000KT 5SM BR CLR 12/11 A2994 1060 93 1000 000/00 RMK AO2 SLP134 T01170106
94908KDBQ DBQ20080601045509606/01/08 04:55:31  5-MIN KDBQ 011055Z 05004KT 4SM BR CLR 12/11 A2994 1060 93 1000 050/04 RMK AO2
94908KDBQ DBQ20080601050009606/01/08 05:00:31  5-MIN KDBQ 011100Z 05004KT 4SM BR CLR 12/11 A2994 1060 93 1000 050/04 RMK AO2
94908KDBQ DBQ20080601050509606/01/08 05:05:31  5-MIN KDBQ 011105Z 05005KT 4SM BR CLR 12/11 A2994 1060 96 1000 050/05 RMK AO2
94908KDBQ DBQ20080601051009606/01/08 05:10:31  5-MIN KDBQ 011110Z 05004KT 6SM BR CLR 12/11 A2994 1060 93 1000 050/04 RMK AO2
94908KDBQ DBQ20080601051509606/01/08 05:15:31  5-MIN KDBQ 011115Z 04004KT 6SM BR CLR 12/12 A2995 1060 96 1000 040/04 RMK AO2
94908KDBQ DBQ20080601052009606/01/08 05:20:31  5-MIN KDBQ 011120Z 03004KT 6SM BR CLR 13/12 A2995 1050 93 1100 030/04 RMK AO2
94908KDBQ DBQ20080601052509306/01/08 05:25:31  5-MIN KDBQ 011125Z 04004KT 7SM CLR 13/12 A2995 1050 89 1100 040/04 RMK AO2
94908KDBQ DBQ20080601053009306/01/08 05:30:31  5-MIN KDBQ 011130Z 05003KT 7SM CLR 13/12 A2995 1050 93 1100 050/03 RMK AO2
94908KDBQ DBQ20080601053509306/01/08 05:35:31  5-MIN KDBQ 011135Z 00000KT 7SM CLR 13/12 A2995 1050 93 1100 000/00 RMK AO2
94908KDBQ DBQ20080601054009306/01/08 05:40:31  5-MIN KDBQ 011140Z 00000KT 7SM CLR 14/13 A2995 1050 93 1200 000/00 RMK AO2
94908KDBQ DBQ20080601054509606/01/08 05:45:31  5-MIN KDBQ 011145Z 00000KT 6SM BR CLR 14/13 A2996 1040 90 1300 000/00 RMK AO2
94908KDBQ DBQ20080601055013706/01/08 05:50:31  5-MIN KDBQ 011150Z 00000KT 6SM BR CLR 14/13 A2996 1040 90 1300 000/00 RMK AO2 SLP141 70015 T01440128 10144 20106 58001
94908KDBQ DBQ20080601055509306/01/08 05:55:31  5-MIN KDBQ 011155Z 00000KT 7SM CLR 14/13 A2996 1040 90 1300 000/00 RMK AO2
94908KDBQ DBQ20080601060009306/01/08 06:00:31  5-MIN KDBQ 011200Z 00000KT 8SM CLR 15/13 A2996 1040 86 1300 000/00 RMK AO2
94908KDBQ DBQ20080601060509306/01/08 06:05:31  5-MIN KDBQ 011205Z 00000KT 8SM CLR 15/13 A2996 1040 90 1300 000/00 RMK AO2
94908KDBQ DBQ20080601061009306/01/08 06:10:31  5-MIN KDBQ 011210Z 00000KT 9SM CLR 16/13 A2997 1040 86 1400 000/00 RMK AO2
94908KDBQ DBQ20080601061509406/01/08 06:15:31  5-MIN KDBQ 011215Z 00000KT 10SM CLR 16/13 A2997 1040 86 1400 000/00 RMK AO2
94908KDBQ DBQ20080601062009406/01/08 06:20:31  5-MIN KDBQ 011220Z 00000KT 10SM CLR 16/13 A2997 1030 86 1400 000/00 RMK AO2
94908KDBQ DBQ20080601062509406/01/08 06:25:31  5-MIN KDBQ 011225Z 00000KT 10SM CLR 16/13 A2997 1030 86 1400 000/00 RMK AO2
94908KDBQ DBQ20080601063009406/01/08 06:30:31  5-MIN KDBQ 011230Z 00000KT 10SM CLR 16/13 A2997 1030 86 1400 000/00 RMK AO2
94908KDBQ DBQ20080601063509306/01/08 06:35:31  5-MIN KDBQ 011235Z 00000KT 9SM CLR 17/14 A2997 1030 83 1500 000/00 RMK AO2
94908KDBQ DBQ20080601064009306/01/08 06:40:31  5-MIN KDBQ 011240Z 00000KT 9SM CLR 17/14 A2997 1030 83 1500 000/00 RMK AO2
94908KDBQ DBQ20080601064509306/01/08 06:45:31  5-MIN KDBQ 011245Z 00000KT 9SM CLR 17/14 A2998 1030 83 1500 000/00 RMK AO2
94908KDBQ DBQ20080601065011006/01/08 06:50:31  5-MIN KDBQ 011250Z 00000KT 9SM CLR 17/14 A2998 1030 83 1600 000/00 RMK AO2 SLP148 T01720144
94908KDBQ DBQ20080601065509406/01/08 06:55:31  5-MIN KDBQ 011255Z 00000KT 10SM CLR 17/14 A2998 1030 83 1600 000/00 RMK AO2
94908KDBQ DBQ20080601070009406/01/08 07:00:31  5-MIN KDBQ 011300Z 00000KT 10SM CLR 18/14 A2998 1030 81 1600 000/00 RMK AO2
94908KDBQ DBQ20080601070509406/01/08 07:05:31  5-MIN KDBQ 011305Z 00000KT 10SM CLR 18/14 A2998 1020 81 1600 000/00 RMK AO2
94908KDBQ DBQ20080601071009406/01/08 07:10:31  5-MIN KDBQ 011310Z 00000KT 10SM CLR 18/14 A2998 1020 81 1600 000/00 RMK AO2
94908KDBQ DBQ20080601071509406/01/08 07:15:31  5-MIN KDBQ 011315Z 00000KT 10SM CLR 18/14 A2998 1020 78 1700 000/00 RMK AO2
94908KDBQ DBQ20080601072009406/01/08 07:20:31  5-MIN KDBQ 011320Z 00000KT 10SM CLR 18/14 A2998 1020 78 1700 000/00 RMK AO2
94908KDBQ DBQ20080601072509406/01/08 07:25:31  5-MIN KDBQ 011325Z 00000KT 10SM CLR 18/14 A2998 1020 78 1700 000/00 RMK AO2
94908KDBQ DBQ20080601073009406/01/08 07:30:31  5-MIN KDBQ 011330Z 00000KT 10SM CLR 18/14 A2998 1020 78 1700 000/00 RMK AO2
94908KDBQ DBQ20080601073509406/01/08 07:35:31  5-MIN KDBQ 011335Z 00000KT 10SM CLR 18/14 A2998 1020 78 1700 000/00 RMK AO2
94908KDBQ DBQ20080601074009406/01/08 07:40:31  5-MIN KDBQ 011340Z 00000KT 10SM CLR 18/14 A2998 1030 78 1700 000/00 RMK AO2
94908KDBQ DBQ20080601074509406/01/08 07:45:31  5-MIN KDBQ 011345Z 00000KT 10SM CLR 19/15 A2998 1030 78 1800 000/00 RMK AO2
94908KDBQ DBQ20080601075011106/01/08 07:50:31  5-MIN KDBQ 011350Z 00000KT 10SM CLR 19/16 A2998 1030 81 1800 000/00 RMK AO2 SLP149 T01890156
94908KDBQ DBQ20080601075509406/01/08 07:55:31  5-MIN KDBQ 011355Z 00000KT 10SM CLR 19/15 A2998 1020 75 1800 000/00 RMK AO2
94908KDBQ DBQ20080601080009406/01/08 08:00:31  5-MIN KDBQ 011400Z 00000KT 10SM CLR 20/15 A2998 1020 72 1900 000/00 RMK AO2
94908KDBQ DBQ20080601080509406/01/08 08:05:31  5-MIN KDBQ 011405Z 00000KT 10SM CLR 20/15 A2998 1020 72 1900 000/00 RMK AO2
94908KDBQ DBQ20080601081009406/01/08 08:10:31  5-MIN KDBQ 011410Z 00000KT 10SM CLR 20/14 A2998 1020 67 1900 000/00 RMK AO2
94908KDBQ DBQ20080601081509406/01/08 08:15:31  5-MIN KDBQ 011415Z 00000KT 10SM CLR 20/14 A2998 1020 67 1900 000/00 RMK AO2
94908KDBQ DBQ20080601082009406/01/08 08:20:31  5-MIN KDBQ 011420Z 00000KT 10SM CLR 20/15 A2998 1030 72 1900 000/00 RMK AO2
94908KDBQ DBQ20080601082509406/01/08 08:25:31  5-MIN KDBQ 011425Z 00000KT 10SM CLR 20/14 A2997 1030 70 1900 000/00 RMK AO2
94908KDBQ DBQ20080601083009406/01/08 08:30:31  5-MIN KDBQ 011430Z 00000KT 10SM CLR 21/15 A2998 1030 70 2000 000/00 RMK AO2
94908KDBQ DBQ20080601083509406/01/08 08:35:31  5-MIN KDBQ 011435Z 00000KT 10SM CLR 21/15 A2998 1030 70 2000 000/00 RMK AO2
94908KDBQ DBQ20080601084009406/01/08 08:40:31  5-MIN KDBQ 011440Z 00000KT 10SM CLR 21/15 A2997 1030 70 2000 000/00 RMK AO2
94908KDBQ DBQ20080601084509406/01/08 08:45:31  5-MIN KDBQ 011445Z 00000KT 10SM CLR 21/14 A2998 1030 65 2000 000/00 RMK AO2
94908KDBQ DBQ20080601085011706/01/08 08:50:31  5-MIN KDBQ 011450Z 03003KT 10SM CLR 22/16 A2997 1030 70 2100 030/03 RMK AO2 SLP147 T02170161 53018
94908KDBQ DBQ20080601085509406/01/08 08:55:31  5-MIN KDBQ 011455Z 03003KT 10SM CLR 22/16 A2997 1030 68 2100 030/03 RMK AO2
94908KDBQ DBQ20080601090009406/01/08 09:00:31  5-MIN KDBQ 011500Z 00000KT 10SM CLR 22/16 A2997 1030 70 2100 000/00 RMK AO2
94908KDBQ DBQ20080601090509406/01/08 09:05:31  5-MIN KDBQ 011505Z 04003KT 10SM CLR 22/16 A2997 1040 70 2100 040/03 RMK AO2
94908KDBQ DBQ20080601091009406/01/08 09:10:31  5-MIN KDBQ 011510Z 05004KT 10SM CLR 22/16 A2997 1030 70 2100 040/04 RMK AO2
94908KDBQ DBQ20080601091509406/01/08 09:15:31  5-MIN KDBQ 011515Z 03004KT 10SM CLR 22/16 A2996 1040 70 2100 020/04 RMK AO2
94908KDBQ DBQ20080601092009406/01/08 09:20:31  5-MIN KDBQ 011520Z 02004KT 10SM CLR 22/16 A2996 1040 70 2100 010/04 RMK AO2
94908KDBQ DBQ20080601092509406/01/08 09:25:31  5-MIN KDBQ 011525Z 00000KT 10SM CLR 22/16 A2997 1030 68 2200 000/00 RMK AO2
94908KDBQ DBQ20080601093009406/01/08 09:30:31  5-MIN KDBQ 011530Z 00000KT 10SM CLR 22/16 A2997 1040 68 2200 000/00 RMK AO2
94908KDBQ DBQ20080601093509406/01/08 09:35:31  5-MIN KDBQ 011535Z 00000KT 10SM CLR 22/16 A2997 1040 70 2100 000/00 RMK AO2
94908KDBQ DBQ20080601094009406/01/08 09:40:31  5-MIN KDBQ 011540Z 00000KT 10SM CLR 23/17 A2996 1040 68 2200 000/00 RMK AO2
94908KDBQ DBQ20080601094509406/01/08 09:45:31  5-MIN KDBQ 011545Z 00000KT 10SM CLR 23/16 A2996 1040 63 2200 000/00 RMK AO2
94908KDBQ DBQ20080601095011106/01/08 09:50:31  5-MIN KDBQ 011550Z 36003KT 10SM CLR 23/17 A2996 1040 68 2200 360/03 RMK AO2 SLP144 T02280167
94908KDBQ DBQ20080601095509406/01/08 09:55:31  5-MIN KDBQ 011555Z 01003KT 10SM CLR 23/16 A2997 1040 63 2300 010/03 RMK AO2
94908KDBQ DBQ20080601100009406/01/08 10:00:31  5-MIN KDBQ 011600Z 00000KT 10SM CLR 23/16 A2997 1040 65 2200 000/00 RMK AO2
94908KDBQ DBQ20080601100509406/01/08 10:05:31  5-MIN KDBQ 011605Z 28003KT 10SM CLR 23/16 A2997 1030 65 2200 280/03 RMK AO2
94908KDBQ DBQ20080601101009406/01/08 10:10:31  5-MIN KDBQ 011610Z 32003KT 10SM CLR 23/16 A2997 1030 65 2200 320/03 RMK AO2
94908KDBQ DBQ20080601101509406/01/08 10:15:31  5-MIN KDBQ 011615Z 34004KT 10SM CLR 23/16 A2997 1040 63 2300 340/04 RMK AO2
94908KDBQ DBQ20080601102009406/01/08 10:20:31  5-MIN KDBQ 011620Z 00000KT 10SM CLR 23/16 A2997 1030 61 2300 000/00 RMK AO2
94908KDBQ DBQ20080601102509406/01/08 10:25:31  5-MIN KDBQ 011625Z 00000KT 10SM CLR 23/16 A2997 1030 63 2300 000/00 RMK AO2
94908KDBQ DBQ20080601103009406/01/08 10:30:31  5-MIN KDBQ 011630Z 01003KT 10SM CLR 23/16 A2997 1030 61 2300 010/03 RMK AO2
94908KDBQ DBQ20080601103509406/01/08 10:35:31  5-MIN KDBQ 011635Z 34004KT 10SM CLR 24/16 A2997 1030 61 2300 340/04 RMK AO2
94908KDBQ DBQ20080601104009406/01/08 10:40:31  5-MIN KDBQ 011640Z 36003KT 10SM CLR 24/16 A2997 1040 61 2300 360/03 RMK AO2
94908KDBQ DBQ20080601104509406/01/08 10:45:31  5-MIN KDBQ 011645Z VRB03KT 10SM CLR 24/16 A2997 1040 61 2300 VRB/03 RMK AO2
94908KDBQ DBQ20080601105011106/01/08 10:50:31  5-MIN KDBQ 011650Z VRB03KT 10SM CLR 23/16 A2997 1030 61 2300 VRB/03 RMK AO2 SLP145 T02330156
94908KDBQ DBQ20080601105509406/01/08 10:55:31  5-MIN KDBQ 011655Z 33003KT 10SM CLR 24/15 A2997 1030 57 2300 330/03 RMK AO2
94908KDBQ DBQ20080601110009406/01/08 11:00:31  5-MIN KDBQ 011700Z 00000KT 10SM CLR 24/15 A2997 1030 57 2300 000/00 RMK AO2
94908KDBQ DBQ20080601110509406/01/08 11:05:31  5-MIN KDBQ 011705Z 00000KT 10SM CLR 24/14 A2997 1030 55 2300 000/00 RMK AO2
94908KDBQ DBQ20080601111009406/01/08 11:10:31  5-MIN KDBQ 011710Z 30003KT 10SM CLR 24/16 A2997 1030 59 2300 300/03 RMK AO2
94908KDBQ DBQ20080601111509406/01/08 11:15:31  5-MIN KDBQ 011715Z 35003KT 10SM CLR 24/16 A2997 1030 61 2300 340/03 RMK AO2
94908KDBQ DBQ20080601112009406/01/08 11:20:31  5-MIN KDBQ 011720Z 00000KT 10SM CLR 24/15 A2997 1030 57 2300 000/00 RMK AO2
94908KDBQ DBQ20080601112509406/01/08 11:25:31  5-MIN KDBQ 011725Z VRB03KT 10SM CLR 24/14 A2997 1030 53 2400 VRB/03 RMK AO2
94908KDBQ DBQ20080601113009406/01/08 11:30:31  5-MIN KDBQ 011730Z VRB03KT 10SM CLR 24/14 A2997 1030 53 2400 VRB/03 RMK AO2
94908KDBQ DBQ20080601113509406/01/08 11:35:31  5-MIN KDBQ 011735Z VRB03KT 10SM CLR 24/15 A2997 1030 55 2400 VRB/03 RMK AO2
94908KDBQ DBQ20080601114009406/01/08 11:40:31  5-MIN KDBQ 011740Z 00000KT 10SM CLR 24/14 A2997 1030 51 2400 000/00 RMK AO2
94908KDBQ DBQ20080601114509406/01/08 11:45:31  5-MIN KDBQ 011745Z 23006KT 10SM CLR 24/14 A2997 1030 53 2400 230/06 RMK AO2
94908KDBQ DBQ20080601115012906/01/08 11:50:31  5-MIN KDBQ 011750Z 21004KT 10SM CLR 24/14 A2997 1030 53 2400 210/04 RMK AO2 SLP145 T02440144 10244 20144 50003
94908KDBQ DBQ20080601115509406/01/08 11:55:31  5-MIN KDBQ 011755Z 22005KT 10SM CLR 24/15 A2997 1040 55 2400 220/05 RMK AO2
94908KDBQ DBQ20080601120009406/01/08 12:00:31  5-MIN KDBQ 011800Z 00000KT 10SM CLR 24/14 A2997 1040 51 2400 000/00 RMK AO2
94908KDBQ DBQ20080601120509406/01/08 12:05:31  5-MIN KDBQ 011805Z 23006KT 10SM CLR 24/14 A2997 1040 53 2400 230/06 RMK AO2
94908KDBQ DBQ20080601121009406/01/08 12:10:31  5-MIN KDBQ 011810Z 25007KT 10SM CLR 25/15 A2997 1040 53 2500 250/07 RMK AO2
94908KDBQ DBQ20080601121509406/01/08 12:15:31  5-MIN KDBQ 011815Z 24005KT 10SM CLR 24/14 A2997 1040 53 2400 240/05 RMK AO2
94908KDBQ DBQ20080601122009406/01/08 12:20:31  5-MIN KDBQ 011820Z 24005KT 10SM CLR 24/14 A2997 1040 53 2400 240/05 RMK AO2
94908KDBQ DBQ20080601122509406/01/08 12:25:31  5-MIN KDBQ 011825Z 28006KT 10SM CLR 25/14 A2997 1040 51 2500 280/06 RMK AO2
94908KDBQ DBQ20080601123009406/01/08 12:30:31  5-MIN KDBQ 011830Z 29006KT 10SM CLR 25/14 A2997 1040 51 2500 290/06 RMK AO2
94908KDBQ DBQ20080601123509406/01/08 12:35:31  5-MIN KDBQ 011835Z 21006KT 10SM CLR 25/14 A2996 1040 51 2500 210/06 RMK AO2
94908KDBQ DBQ20080601124009406/01/08 12:40:31  5-MIN KDBQ 011840Z 26006KT 10SM CLR 26/15 A2996 1040 51 2500 260/06 RMK AO2
94908KDBQ DBQ20080601124509406/01/08 12:45:31  5-MIN KDBQ 011845Z 26006KT 10SM CLR 26/14 A2996 1040 48 2500 260/06 RMK AO2
94908KDBQ DBQ20080601125011106/01/08 12:50:31  5-MIN KDBQ 011850Z 27007KT 10SM CLR 26/13 A2996 1040 46 2500 270/07 RMK AO2 SLP143 T02560133
94908KDBQ DBQ20080601125509406/01/08 12:55:31  5-MIN KDBQ 011855Z 26005KT 10SM CLR 26/14 A2996 1040 48 2500 260/05 RMK AO2
94908KDBQ DBQ20080601130009406/01/08 13:00:31  5-MIN KDBQ 011900Z 26009KT 10SM CLR 26/14 A2996 1040 48 2500 260/09 RMK AO2
94908KDBQ DBQ20080601130509406/01/08 13:05:31  5-MIN KDBQ 011905Z 24006KT 10SM CLR 26/13 A2996 1040 44 2500 230/06 RMK AO2
94908KDBQ DBQ20080601131009406/01/08 13:10:31  5-MIN KDBQ 011910Z 29007KT 10SM CLR 26/12 A2996 1040 41 2600 290/07 RMK AO2
94908KDBQ DBQ20080601131509406/01/08 13:15:31  5-MIN KDBQ 011915Z 28004KT 10SM CLR 26/12 A2996 1040 41 2600 280/04 RMK AO2
94908KDBQ DBQ20080601132009406/01/08 13:20:31  5-MIN KDBQ 011920Z 28004KT 10SM CLR 26/13 A2996 1040 44 2500 280/04 RMK AO2
94908KDBQ DBQ20080601132509406/01/08 13:25:31  5-MIN KDBQ 011925Z 28007KT 10SM CLR 26/13 A2996 1050 44 2600 280/07 RMK AO2
94908KDBQ DBQ20080601133009406/01/08 13:30:31  5-MIN KDBQ 011930Z 29005KT 10SM CLR 27/13 A2996 1050 41 2700 290/05 RMK AO2
94908KDBQ DBQ20080601133509406/01/08 13:35:31  5-MIN KDBQ 011935Z 28006KT 10SM CLR 26/13 A2995 1050 44 2600 280/06 RMK AO2
94908KDBQ DBQ20080601134009406/01/08 13:40:31  5-MIN KDBQ 011940Z VRB06KT 10SM CLR 26/13 A2995 1050 43 2600 VRB/06 RMK AO2
94908KDBQ DBQ20080601134509406/01/08 13:45:31  5-MIN KDBQ 011945Z 27009KT 10SM CLR 26/13 A2995 1050 43 2600 270/09 RMK AO2
94908KDBQ DBQ20080601135011106/01/08 13:50:31  5-MIN KDBQ 011950Z VRB04KT 10SM CLR 26/12 A2995 1050 40 2600 VRB/04 RMK AO2 SLP138 T02610117
94908KDBQ DBQ20080601135509406/01/08 13:55:31  5-MIN KDBQ 011955Z 31008KT 10SM CLR 27/14 A2995 1050 45 2700 310/08 RMK AO2
94908KDBQ DBQ20080601140009406/01/08 14:00:31  5-MIN KDBQ 012000Z 31009KT 10SM CLR 27/14 A2995 1050 45 2700 310/09 RMK AO2
94908KDBQ DBQ20080601140509406/01/08 14:05:31  5-MIN KDBQ 012005Z 32009KT 10SM CLR 26/13 A2995 1050 43 2600 310/09 RMK AO2
94908KDBQ DBQ20080601141009406/01/08 14:10:31  5-MIN KDBQ 012010Z 32007KT 10SM CLR 27/13 A2995 1060 43 2700 320/07 RMK AO2
94908KDBQ DBQ20080601141509406/01/08 14:15:31  5-MIN KDBQ 012015Z 31010KT 10SM CLR 27/13 A2994 1060 43 2700 300/10 RMK AO2
94908KDBQ DBQ20080601142009406/01/08 14:20:31  5-MIN KDBQ 012020Z 29006KT 10SM CLR 27/13 A2994 1060 41 2700 290/06 RMK AO2
94908KDBQ DBQ20080601142509406/01/08 14:25:31  5-MIN KDBQ 012025Z VRB05KT 10SM CLR 27/13 A2994 1060 41 2700 VRB/05 RMK AO2
94908KDBQ DBQ20080601143009406/01/08 14:30:31  5-MIN KDBQ 012030Z VRB06KT 10SM CLR 27/12 A2994 1060 40 2700 VRB/06 RMK AO2
94908KDBQ DBQ20080601143509406/01/08 14:35:31  5-MIN KDBQ 012035Z 32009KT 10SM CLR 26/13 A2994 1060 43 2600 320/09 RMK AO2
94908KDBQ DBQ20080601144009406/01/08 14:40:31  5-MIN KDBQ 012040Z 33006KT 10SM CLR 27/13 A2994 1060 41 2700 330/06 RMK AO2
94908KDBQ DBQ20080601144509406/01/08 14:45:31  5-MIN KDBQ 012045Z 32004KT 10SM CLR 27/13 A2993 1070 41 2700 320/04 RMK AO2
94908KDBQ DBQ20080601145013506/01/08 14:50:31  5-MIN KDBQ 012050Z 25005KT 10SM CLR 27/13 A2993 1070 43 2700 250/05 RMK AO2 SLP132 CB DSTNT NW MOV E T02670133 56001
94908KDBQ DBQ20080601145509406/01/08 14:55:31  5-MIN KDBQ 012055Z 34004KT 10SM CLR 27/12 A2993 1070 40 2700 340/04 RMK AO2
94908KDBQ DBQ20080601150009406/01/08 15:00:31  5-MIN KDBQ 012100Z VRB03KT 10SM CLR 27/12 A2993 1070 39 2800 VRB/03 RMK AO2
94908KDBQ DBQ20080601150509706/01/08 15:05:31  5-MIN KDBQ 012105Z 31003KT 10SM FEW065 27/13 A2993 1070 40 2800 310/03 RMK AO2
94908KDBQ DBQ20080601151009706/01/08 15:10:31  5-MIN KDBQ 012110Z 31006KT 10SM FEW065 27/13 A2993 1070 42 2800 310/06 RMK AO2
94908KDBQ DBQ20080601151509706/01/08 15:15:31  5-MIN KDBQ 012115Z 30007KT 10SM FEW070 27/13 A2993 1070 41 2700 300/07 RMK AO2
94908KDBQ DBQ20080601152009706/01/08 15:20:31  5-MIN KDBQ 012120Z 29005KT 10SM FEW070 27/13 A2993 1070 40 2800 290/05 RMK AO2
94908KDBQ DBQ20080601152509706/01/08 15:25:31  5-MIN KDBQ 012125Z 32008KT 10SM FEW070 27/13 A2993 1070 41 2700 320/08 RMK AO2
94908KDBQ DBQ20080601153009406/01/08 15:30:31  5-MIN KDBQ 012130Z 33010KT 10SM CLR 27/13 A2993 1070 42 2800 330/10 RMK AO2
94908KDBQ DBQ20080601153509406/01/08 15:35:31  5-MIN KDBQ 012135Z 34007KT 10SM CLR 27/12 A2993 1070 37 2800 330/07 RMK AO2
94908KDBQ DBQ20080601154010306/01/08 15:40:31  5-MIN KDBQ 012140Z 33010G15KT 10SM FEW080 26/12 A2993 1070 41 2600 320/10G15 RMK AO2
94908KDBQ DBQ20080601154510306/01/08 15:45:31  5-MIN KDBQ 012145Z 34013G22KT 10SM SCT070 25/13 A2993 1070 48 2500 340/13G22 RMK AO2
94908KDBQ DBQ20080601155012006/01/08 15:50:31  5-MIN KDBQ 012150Z 35007G22KT 10SM FEW070 25/14 A2993 1070 49 2500 350/07G22 RMK AO2 SLP131 T02500139
94908KDBQ DBQ20080601155509706/01/08 15:55:31  5-MIN KDBQ 012155Z 35009KT 10SM FEW070 25/14 A2993 1070 51 2500 350/09 RMK AO2
94908KDBQ DBQ20080601160009706/01/08 16:00:31  5-MIN KDBQ 012200Z 36005KT 10SM FEW070 24/14 A2993 1070 51 2400 360/05 RMK AO2
94908KDBQ DBQ20080601160509706/01/08 16:05:31  5-MIN KDBQ 012205Z 02004KT 10SM FEW070 25/14 A2993 1070 49 2500 020/04 RMK AO2
94908KDBQ DBQ20080601161009706/01/08 16:10:31  5-MIN KDBQ 012210Z 02006KT 10SM FEW070 25/14 A2993 1070 51 2500 020/06 RMK AO2
94908KDBQ DBQ20080601161509406/01/08 16:15:31  5-MIN KDBQ 012215Z 02006KT 10SM CLR 25/14 A2993 1070 51 2500 010/06 RMK AO2
94908KDBQ DBQ20080601162009406/01/08 16:20:31  5-MIN KDBQ 012220Z 04005KT 10SM CLR 25/14 A2993 1070 49 2500 040/05 RMK AO2
94908KDBQ DBQ20080601162509406/01/08 16:25:31  5-MIN KDBQ 012225Z 04006KT 10SM CLR 25/14 A2993 1070 51 2500 040/06 RMK AO2
94908KDBQ DBQ20080601163009406/01/08 16:30:31  5-MIN KDBQ 012230Z 02006KT 10SM CLR 25/14 A2993 1070 49 2500 020/06 RMK AO2
94908KDBQ DBQ20080601163509406/01/08 16:35:31  5-MIN KDBQ 012235Z 03006KT 10SM CLR 25/15 A2992 1080 53 2500 020/06 RMK AO2
94908KDBQ DBQ20080601164009406/01/08 16:40:31  5-MIN KDBQ 012240Z 03005KT 10SM CLR 25/14 A2992 1080 51 2500 030/05 RMK AO2
94908KDBQ DBQ20080601164509406/01/08 16:45:31  5-MIN KDBQ 012245Z 03005KT 10SM CLR 25/15 A2992 1080 53 2500 030/05 RMK AO2
94908KDBQ DBQ20080601165011106/01/08 16:50:31  5-MIN KDBQ 012250Z 04004KT 10SM CLR 25/14 A2992 1080 51 2500 040/04 RMK AO2 SLP129 T02500144
94908KDBQ DBQ20080601165509406/01/08 16:55:31  5-MIN KDBQ 012255Z 04003KT 10SM CLR 26/14 A2992 1080 49 2600 040/03 RMK AO2
94908KDBQ DBQ20080601170009406/01/08 17:00:31  5-MIN KDBQ 012300Z 06003KT 10SM CLR 26/14 A2992 1080 49 2600 050/03 RMK AO2
94908KDBQ DBQ20080601170509406/01/08 17:05:31  5-MIN KDBQ 012305Z 04003KT 10SM CLR 26/14 A2992 1080 49 2600 040/03 RMK AO2
94908KDBQ DBQ20080601171009406/01/08 17:10:31  5-MIN KDBQ 012310Z 04003KT 10SM CLR 26/14 A2992 1080 49 2600 040/03 RMK AO2
94908KDBQ DBQ20080601171509406/01/08 17:15:31  5-MIN KDBQ 012315Z 05003KT 10SM CLR 26/14 A2992 1080 49 2600 050/03 RMK AO2
94908KDBQ DBQ20080601172009406/01/08 17:20:31  5-MIN KDBQ 012320Z 01003KT 10SM CLR 26/14 A2992 1080 49 2600 010/03 RMK AO2
94908KDBQ DBQ20080601172509406/01/08 17:25:31  5-MIN KDBQ 012325Z 00000KT 10SM CLR 26/13 A2992 1080 46 2600 000/00 RMK AO2
94908KDBQ DBQ20080601173009406/01/08 17:30:31  5-MIN KDBQ 012330Z 00000KT 10SM CLR 26/14 A2992 1080 49 2600 000/00 RMK AO2
94908KDBQ DBQ20080601173509406/01/08 17:35:31  5-MIN KDBQ 012335Z 00000KT 10SM CLR 26/13 A2992 1080 46 2600 000/00 RMK AO2
94908KDBQ DBQ20080601174009406/01/08 17:40:31  5-MIN KDBQ 012340Z 00000KT 10SM CLR 26/14 A2992 1080 49 2600 000/00 RMK AO2
94908KDBQ DBQ20080601174509406/01/08 17:45:31  5-MIN KDBQ 012345Z 00000KT 10SM CLR 26/14 A2992 1080 48 2600 000/00 RMK AO2
94908KDBQ DBQ20080601175012906/01/08 17:50:31  5-MIN KDBQ 012350Z 36003KT 10SM CLR 26/14 A2991 1080 48 2600 360/03 RMK AO2 SLP126 T02560139 10272 20244 58012
94908KDBQ DBQ20080601175509406/01/08 17:55:31  5-MIN KDBQ 012355Z 00000KT 10SM CLR 25/15 A2991 1080 53 2500 000/00 RMK AO2
94908KDBQ DBQ20080601180009906/01/08 18:00:31  5-MIN KDBQ 020000Z AUTO 35003KT 10SM CLR 25/16 A2991 1080 55 2500 350/03 RMK AO2
94908KDBQ DBQ20080601180509406/01/08 18:05:31  5-MIN KDBQ 020005Z 00000KT 10SM CLR 25/14 A2991 1080 51 2500 000/00 RMK AO2
94908KDBQ DBQ20080601181009406/01/08 18:10:31  5-MIN KDBQ 020010Z 00000KT 10SM CLR 25/15 A2992 1080 53 2500 000/00 RMK AO2
94908KDBQ DBQ20080601181509406/01/08 18:15:31  5-MIN KDBQ 020015Z 00000KT 10SM CLR 25/16 A2992 1080 55 2500 000/00 RMK AO2
94908KDBQ DBQ20080601182009406/01/08 18:20:31  5-MIN KDBQ 020020Z 00000KT 10SM CLR 25/16 A2992 1080 55 2500 000/00 RMK AO2
94908KDBQ DBQ20080601182509406/01/08 18:25:31  5-MIN KDBQ 020025Z 00000KT 10SM CLR 25/15 A2992 1080 53 2500 000/00 RMK AO2
94908KDBQ DBQ20080601183009406/01/08 18:30:31  5-MIN KDBQ 020030Z 36003KT 10SM CLR 24/14 A2992 1080 53 2500 360/03 RMK AO2
94908KDBQ DBQ20080601183509406/01/08 18:35:31  5-MIN KDBQ 020035Z 36003KT 10SM CLR 24/14 A2992 1080 51 2500 360/03 RMK AO2
94908KDBQ DBQ20080601184009406/01/08 18:40:31  5-MIN KDBQ 020040Z 00000KT 10SM CLR 24/14 A2992 1080 55 2400 000/00 RMK AO2
94908KDBQ DBQ20080601184509406/01/08 18:45:31  5-MIN KDBQ 020045Z 00000KT 10SM CLR 24/14 A2992 1080 53 2400 000/00 RMK AO2
94908KDBQ DBQ20080601185011106/01/08 18:50:31  5-MIN KDBQ 020050Z 00000KT 10SM CLR 24/13 A2992 1080 51 2400 000/00 RMK AO2 SLP127 T02390133
94908KDBQ DBQ20080601185509906/01/08 18:55:31  5-MIN KDBQ 020055Z AUTO 00000KT 10SM CLR 24/13 A2992 1080 49 2400 000/00 RMK AO2
94908KDBQ DBQ20080601190009906/01/08 19:00:31  5-MIN KDBQ 020100Z AUTO 00000KT 10SM CLR 24/12 A2992 1080 46 2400 000/00 RMK AO2
94908KDBQ DBQ20080601190509906/01/08 19:05:31  5-MIN KDBQ 020105Z AUTO 00000KT 10SM CLR 23/12 A2992 1080 47 2300 000/00 RMK AO2
94908KDBQ DBQ20080601191009906/01/08 19:10:31  5-MIN KDBQ 020110Z AUTO 00000KT 10SM CLR 23/11 A2992 1080 45 2300 000/00 RMK AO2
94908KDBQ DBQ20080601191509906/01/08 19:15:31  5-MIN KDBQ 020115Z AUTO 00000KT 10SM CLR 23/11 A2992 1080 47 2300 000/00 RMK AO2
94908KDBQ DBQ20080601192009906/01/08 19:20:31  5-MIN KDBQ 020120Z AUTO 00000KT 10SM CLR 22/11 A2992 1080 49 2200 000/00 RMK AO2
94908KDBQ DBQ20080601192509906/01/08 19:25:31  5-MIN KDBQ 020125Z AUTO 00000KT 10SM CLR 22/14 A2992 1080 59 2200 000/00 RMK AO2
94908KDBQ DBQ20080601193009906/01/08 19:30:31  5-MIN KDBQ 020130Z AUTO 00000KT 10SM CLR 22/14 A2992 1070 61 2200 000/00 RMK AO2
94908KDBQ DBQ20080601193509906/01/08 19:35:31  5-MIN KDBQ 020135Z AUTO 00000KT 10SM CLR 22/14 A2993 1070 63 2100 000/00 RMK AO2
94908KDBQ DBQ20080601194009906/01/08 19:40:31  5-MIN KDBQ 020140Z AUTO 00000KT 10SM CLR 21/14 A2993 1070 65 2100 000/00 RMK AO2
94908KDBQ DBQ20080601194509906/01/08 19:45:31  5-MIN KDBQ 020145Z AUTO 00000KT 10SM CLR 21/14 A2993 1070 65 2000 000/00 RMK AO2
94908KDBQ DBQ20080601195011606/01/08 19:50:31  5-MIN KDBQ 020150Z AUTO 00000KT 10SM CLR 21/14 A2993 1070 65 2100 000/00 RMK AO2 SLP132 T02110144
94908KDBQ DBQ20080601195509906/01/08 19:55:31  5-MIN KDBQ 020155Z AUTO 00000KT 10SM CLR 21/14 A2993 1070 67 2000 000/00 RMK AO2
94908KDBQ DBQ20080601200009906/01/08 20:00:31  5-MIN KDBQ 020200Z AUTO 00000KT 10SM CLR 20/14 A2993 1070 67 1900 000/00 RMK AO2
94908KDBQ DBQ20080601200509906/01/08 20:05:31  5-MIN KDBQ 020205Z AUTO 00000KT 10SM CLR 19/14 A2993 1060 70 1900 000/00 RMK AO2
94908KDBQ DBQ20080601201009906/01/08 20:10:31  5-MIN KDBQ 020210Z AUTO 00000KT 10SM CLR 19/14 A2994 1060 72 1900 000/00 RMK AO2
94908KDBQ DBQ20080601201509906/01/08 20:15:31  5-MIN KDBQ 020215Z AUTO 00000KT 10SM CLR 19/14 A2994 1060 72 1900 000/00 RMK AO2
94908KDBQ DBQ20080601202009906/01/08 20:20:31  5-MIN KDBQ 020220Z AUTO 00000KT 10SM CLR 19/15 A2994 1060 75 1900 000/00 RMK AO2
94908KDBQ DBQ20080601202509906/01/08 20:25:31  5-MIN KDBQ 020225Z AUTO 00000KT 10SM CLR 19/15 A2994 1060 75 1900 000/00 RMK AO2
94908KDBQ DBQ20080601203009906/01/08 20:30:31  5-MIN KDBQ 020230Z AUTO 00000KT 10SM CLR 19/15 A2994 1060 75 1900 000/00 RMK AO2
94908KDBQ DBQ20080601203509906/01/08 20:35:31  5-MIN KDBQ 020235Z AUTO 00000KT 10SM CLR 19/15 A2994 1060 78 1800 000/00 RMK AO2
94908KDBQ DBQ20080601204009906/01/08 20:40:31  5-MIN KDBQ 020240Z AUTO 00000KT 10SM CLR 19/14 A2995 1050 75 1800 000/00 RMK AO2
94908KDBQ DBQ20080601204509906/01/08 20:45:31  5-MIN KDBQ 020245Z AUTO 00000KT 10SM CLR 19/14 A2995 1050 75 1800 000/00 RMK AO2
94908KDBQ DBQ20080601205012206/01/08 20:50:31  5-MIN KDBQ 020250Z AUTO 00000KT 10SM CLR 19/14 A2995 1050 70 1900 000/00 RMK AO2 SLP138 T01940139 58006
94908KDBQ DBQ20080601205509906/01/08 20:55:31  5-MIN KDBQ 020255Z AUTO 00000KT 10SM CLR 19/14 A2995 1050 72 1800 000/00 RMK AO2
94908KDBQ DBQ20080601210009906/01/08 21:00:31  5-MIN KDBQ 020300Z AUTO 00000KT 10SM CLR 18/14 A2996 1050 75 1700 000/00 RMK AO2
94908KDBQ DBQ20080601210509906/01/08 21:05:31  5-MIN KDBQ 020305Z AUTO 00000KT 10SM CLR 18/14 A2996 1040 75 1700 000/00 RMK AO2
94908KDBQ DBQ20080601211009906/01/08 21:10:31  5-MIN KDBQ 020310Z AUTO 00000KT 10SM CLR 19/14 A2996 1040 72 1800 000/00 RMK AO2
94908KDBQ DBQ20080601211509906/01/08 21:15:31  5-MIN KDBQ 020315Z AUTO 00000KT 10SM CLR 18/14 A2996 1040 78 1700 000/00 RMK AO2
94908KDBQ DBQ20080601212009906/01/08 21:20:31  5-MIN KDBQ 020320Z AUTO 00000KT 10SM CLR 18/14 A2996 1040 75 1700 000/00 RMK AO2
94908KDBQ DBQ20080601212509906/01/08 21:25:31  5-MIN KDBQ 020325Z AUTO 00000KT 10SM CLR 18/14 A2996 1050 75 1700 000/00 RMK AO2
94908KDBQ DBQ20080601213009906/01/08 21:30:31  5-MIN KDBQ 020330Z AUTO 00000KT 10SM CLR 18/14 A2996 1040 75 1700 000/00 RMK AO2
94908KDBQ DBQ20080601213509906/01/08 21:35:31  5-MIN KDBQ 020335Z AUTO 00000KT 10SM CLR 18/14 A2996 1040 75 1700 000/00 RMK AO2
94908KDBQ DBQ20080601214009906/01/08 21:40:31  5-MIN KDBQ 020340Z AUTO 00000KT 10SM CLR 18/14 A2996 1040 75 1700 000/00 RMK AO2
94908KDBQ DBQ20080601214509906/01/08 21:45:31  5-MIN KDBQ 020345Z AUTO 00000KT 10SM CLR 18/14 A2996 1040 78 1700 000/00 RMK AO2
94908KDBQ DBQ20080601215011606/01/08 21:50:31  5-MIN KDBQ 020350Z AUTO 00000KT 10SM CLR 17/14 A2996 1040 80 1600 000/00 RMK AO2 SLP141 T01720139
94908KDBQ DBQ20080601215509906/01/08 21:55:31  5-MIN KDBQ 020355Z AUTO 00000KT 10SM CLR 17/13 A2996 1040 78 1600 000/00 RMK AO2
94908KDBQ DBQ20080601220009906/01/08 22:00:31  5-MIN KDBQ 020400Z AUTO 00000KT 10SM CLR 17/13 A2996 1040 78 1600 000/00 RMK AO2
94908KDBQ DBQ20080601220509906/01/08 22:05:31  5-MIN KDBQ 020405Z AUTO 00000KT 10SM CLR 17/14 A2996 1040 80 1600 000/00 RMK AO2
94908KDBQ DBQ20080601221009906/01/08 22:10:31  5-MIN KDBQ 020410Z AUTO 00000KT 10SM CLR 17/14 A2997 1040 80 1600 000/00 RMK AO2
94908KDBQ DBQ20080601221509906/01/08 22:15:31  5-MIN KDBQ 020415Z AUTO 00000KT 10SM CLR 17/14 A2997 1030 83 1600 000/00 RMK AO2
94908KDBQ DBQ20080601222009906/01/08 22:20:31  5-MIN KDBQ 020420Z AUTO 00000KT 10SM CLR 18/14 A2997 1040 78 1600 000/00 RMK AO2
94908KDBQ DBQ20080601222509906/01/08 22:25:31  5-MIN KDBQ 020425Z AUTO 00000KT 10SM CLR 17/13 A2997 1030 78 1600 000/00 RMK AO2
94908KDBQ DBQ20080601223009906/01/08 22:30:31  5-MIN KDBQ 020430Z AUTO 00000KT 10SM CLR 17/13 A2997 1040 78 1600 000/00 RMK AO2
94908KDBQ DBQ20080601223509906/01/08 22:35:31  5-MIN KDBQ 020435Z AUTO 00000KT 10SM CLR 17/14 A2997 1030 80 1600 000/00 RMK AO2
94908KDBQ DBQ20080601224009906/01/08 22:40:31  5-MIN KDBQ 020440Z AUTO 00000KT 10SM CLR 17/13 A2997 1030 78 1600 000/00 RMK AO2
94908KDBQ DBQ20080601224509906/01/08 22:45:31  5-MIN KDBQ 020445Z AUTO 00000KT 10SM CLR 17/13 A2997 1030 80 1500 000/00 RMK AO2
94908KDBQ DBQ20080601225011606/01/08 22:50:31  5-MIN KDBQ 020450Z AUTO 00000KT 10SM CLR 17/13 A2997 1030 80 1500 000/00 RMK AO2 SLP145 T01670133
94908KDBQ DBQ20080601225509906/01/08 22:55:31  5-MIN KDBQ 020455Z AUTO 00000KT 10SM CLR 17/14 A2997 1030 80 1600 000/00 RMK AO2
94908KDBQ DBQ20080601230009906/01/08 23:00:31  5-MIN KDBQ 020500Z AUTO 00000KT 10SM CLR 17/14 A2997 1030 80 1600 000/00 RMK AO2
94908KDBQ DBQ20080601230509906/01/08 23:05:31  5-MIN KDBQ 020505Z AUTO 00000KT 10SM CLR 17/14 A2997 1030 83 1500 000/00 RMK AO2
94908KDBQ DBQ20080601231009906/01/08 23:10:31  5-MIN KDBQ 020510Z AUTO 00000KT 10SM CLR 17/13 A2997 1030 80 1500 000/00 RMK AO2
94908KDBQ DBQ20080601231509906/01/08 23:15:31  5-MIN KDBQ 020515Z AUTO 00000KT 10SM CLR 17/14 A2997 1030 83 1500 000/00 RMK AO2
94908KDBQ DBQ20080601232009906/01/08 23:20:31  5-MIN KDBQ 020520Z AUTO 00000KT 10SM CLR 17/14 A2997 1030 83 1500 000/00 RMK AO2
94908KDBQ DBQ20080601232509906/01/08 23:25:31  5-MIN KDBQ 020525Z AUTO 00000KT 10SM CLR 16/13 A2997 1030 86 1400 000/00 RMK AO2
94908KDBQ DBQ20080601233009906/01/08 23:30:31  5-MIN KDBQ 020530Z AUTO 00000KT 10SM CLR 16/14 A2997 1030 86 1400 000/00 RMK AO2
94908KDBQ DBQ20080601233509906/01/08 23:35:31  5-MIN KDBQ 020535Z AUTO 00000KT 10SM CLR 16/14 A2997 1030 86 1400 000/00 RMK AO2
94908KDBQ DBQ20080601234009906/01/08 23:40:31  5-MIN KDBQ 020540Z AUTO 00000KT 10SM CLR 16/14 A2997 1030 86 1400 000/00 RMK AO2
94908KDBQ DBQ20080601234509906/01/08 23:45:31  5-MIN KDBQ 020545Z AUTO 00000KT 10SM CLR 17/14 A2997 1030 83 1500 000/00 RMK AO2
94908KDBQ DBQ20080601235014406/01/08 23:50:31  5-MIN KDBQ 020550Z AUTO 00000KT 10SM CLR 17/14 A2997 1030 83 1500 000/00 RMK AO2 SLP144 T01670139 10250 20156 402720106 53013
94908KDBQ DBQ20080601235509906/01/08 23:55:31  5-MIN KDBQ 020555Z AUTO 00000KT 10SM CLR 17/14 A2996 1040 83 1500 000/00 RMK AO2
94908KDBQ DBQ20080602000009906/02/08 00:00:38  5-MIN KDBQ 020600Z AUTO 00000KT 10SM CLR 17/14 A2996 1040 83 1500 000/00 RMK AO2
94908KDBQ DBQ20080602000509906/02/08 00:05:31  5-MIN KDBQ 020605Z AUTO 00000KT 10SM CLR 17/14 A2996 1040 83 1500 000/00 RMK AO2
94908KDBQ DBQ20080602001009906/02/08 00:10:31  5-MIN KDBQ 020610Z AUTO 00000KT 10SM CLR 16/13 A2996 1040 83 1500 000/00 RMK AO2
94908KDBQ DBQ20080602001509906/02/08 00:15:31  5-MIN KDBQ 020615Z AUTO 00000KT 10SM CLR 16/14 A2996 1040 86 1500 000/00 RMK AO2
94908KDBQ DBQ20080602002009906/02/08 00:20:31  5-MIN KDBQ 020620Z AUTO 00000KT 10SM CLR 16/13 A2996 1040 83 1500 000/00 RMK AO2
94908KDBQ DBQ20080602002509906/02/08 00:25:31  5-MIN KDBQ 020625Z AUTO 00000KT 10SM CLR 16/14 A2996 1040 86 1500 000/00 RMK AO2
94908KDBQ DBQ20080602003009906/02/08 00:30:31  5-MIN KDBQ 020630Z AUTO 00000KT 10SM CLR 16/14 A2996 1040 86 1500 000/00 RMK AO2
94908KDBQ DBQ20080602003509906/02/08 00:35:31  5-MIN KDBQ 020635Z AUTO 00000KT 10SM CLR 17/13 A2996 1040 80 1500 000/00 RMK AO2
94908KDBQ DBQ20080602004009906/02/08 00:40:31  5-MIN KDBQ 020640Z AUTO 00000KT 10SM CLR 17/14 A2996 1040 83 1500 000/00 RMK AO2
94908KDBQ DBQ20080602004509906/02/08 00:45:31  5-MIN KDBQ 020645Z AUTO 00000KT 10SM CLR 17/13 A2996 1040 80 1500 000/00 RMK AO2
94908KDBQ DBQ20080602005011606/02/08 00:50:31  5-MIN KDBQ 020650Z AUTO 00000KT 10SM CLR 16/13 A2996 1040 86 1400 000/00 RMK AO2 SLP140 T01560133
94908KDBQ DBQ20080602005509906/02/08 00:55:31  5-MIN KDBQ 020655Z AUTO 00000KT 10SM CLR 16/13 A2995 1050 86 1400 000/00 RMK AO2
94908KDBQ DBQ20080602010009906/02/08 01:00:31  5-MIN KDBQ 020700Z AUTO 00000KT 10SM CLR 16/13 A2995 1050 86 1400 000/00 RMK AO2
94908KDBQ DBQ20080602010509906/02/08 01:05:31  5-MIN KDBQ 020705Z AUTO 00000KT 10SM CLR 16/13 A2996 1050 83 1500 000/00 RMK AO2
94908KDBQ DBQ20080602011009906/02/08 01:10:31  5-MIN KDBQ 020710Z AUTO 00000KT 10SM CLR 16/13 A2996 1050 80 1500 000/00 RMK AO2
94908KDBQ DBQ20080602011509906/02/08 01:15:31  5-MIN KDBQ 020715Z AUTO 00000KT 10SM CLR 16/13 A2995 1050 80 1500 000/00 RMK AO2
94908KDBQ DBQ20080602012009906/02/08 01:20:31  5-MIN KDBQ 020720Z AUTO 00000KT 10SM CLR 16/13 A2996 1050 80 1500 000/00 RMK AO2
94908KDBQ DBQ20080602012509906/02/08 01:25:31  5-MIN KDBQ 020725Z AUTO 00000KT 10SM CLR 16/13 A2995 1050 80 1500 000/00 RMK AO2
94908KDBQ DBQ20080602013009906/02/08 01:30:31  5-MIN KDBQ 020730Z AUTO 00000KT 10SM CLR 16/13 A2995 1050 80 1500 000/00 RMK AO2
94908KDBQ DBQ20080602013509906/02/08 01:35:31  5-MIN KDBQ 020735Z AUTO 00000KT 10SM CLR 16/13 A2995 1050 80 1500 000/00 RMK AO2
94908KDBQ DBQ20080602014009906/02/08 01:40:31  5-MIN KDBQ 020740Z AUTO 00000KT 10SM CLR 16/13 A2995 1050 80 1500 000/00 RMK AO2
94908KDBQ DBQ20080602014509906/02/08 01:45:31  5-MIN KDBQ 020745Z AUTO 00000KT 10SM CLR 16/13 A2995 1050 83 1400 000/00 RMK AO2
94908KDBQ DBQ20080602015011606/02/08 01:50:31  5-MIN KDBQ 020750Z AUTO 00000KT 10SM CLR 16/13 A2995 1050 80 1500 000/00 RMK AO2 SLP137 T01610128
94908KDBQ DBQ20080602015509906/02/08 01:55:31  5-MIN KDBQ 020755Z AUTO 00000KT 10SM CLR 16/13 A2995 1050 80 1500 000/00 RMK AO2
94908KDBQ DBQ20080602020009906/02/08 02:00:31  5-MIN KDBQ 020800Z AUTO 00000KT 10SM CLR 16/13 A2995 1050 83 1400 000/00 RMK AO2
94908KDBQ DBQ20080602020509906/02/08 02:05:31  5-MIN KDBQ 020805Z AUTO 00000KT 10SM CLR 15/12 A2995 1050 83 1300 000/00 RMK AO2
94908KDBQ DBQ20080602021009906/02/08 02:10:31  5-MIN KDBQ 020810Z AUTO 00000KT 10SM CLR 16/12 A2995 1050 77 1500 000/00 RMK AO2
94908KDBQ DBQ20080602021509906/02/08 02:15:31  5-MIN KDBQ 020815Z AUTO 00000KT 10SM CLR 16/13 A2995 1050 83 1400 000/00 RMK AO2
94908KDBQ DBQ20080602022009906/02/08 02:20:31  5-MIN KDBQ 020820Z AUTO 00000KT 10SM CLR 16/13 A2995 1050 83 1400 000/00 RMK AO2
94908KDBQ DBQ20080602022509906/02/08 02:25:31  5-MIN KDBQ 020825Z AUTO 00000KT 10SM CLR 16/13 A2995 1050 83 1400 000/00 RMK AO2
94908KDBQ DBQ20080602023009906/02/08 02:30:31  5-MIN KDBQ 020830Z AUTO 00000KT 10SM CLR 16/13 A2995 1050 80 1500 000/00 RMK AO2
94908KDBQ DBQ20080602023509906/02/08 02:35:31  5-MIN KDBQ 020835Z AUTO 00000KT 10SM CLR 16/13 A2995 1050 80 1500 000/00 RMK AO2
94908KDBQ DBQ20080602024009906/02/08 02:40:31  5-MIN KDBQ 020840Z AUTO 00000KT 10SM CLR 15/12 A2995 1050 80 1300 000/00 RMK AO2
94908KDBQ DBQ20080602024509906/02/08 02:45:31  5-MIN KDBQ 020845Z AUTO 00000KT 10SM CLR 16/12 A2995 1050 80 1400 000/00 RMK AO2
94908KDBQ DBQ20080602025012206/02/08 02:50:31  5-MIN KDBQ 020850Z AUTO 00000KT 10SM CLR 16/12 A2995 1050 77 1500 000/00 RMK AO2 SLP135 T01610122 50004
94908KDBQ DBQ20080602025509906/02/08 02:55:31  5-MIN KDBQ 020855Z AUTO 00000KT 10SM CLR 16/12 A2994 1060 80 1400 000/00 RMK AO2
94908KDBQ DBQ20080602030009906/02/08 03:00:31  5-MIN KDBQ 020900Z AUTO 00000KT 10SM CLR 16/12 A2994 1060 80 1400 000/00 RMK AO2
94908KDBQ DBQ20080602030509906/02/08 03:05:31  5-MIN KDBQ 020905Z AUTO 00000KT 10SM CLR 14/12 A2994 1060 83 1300 000/00 RMK AO2
94908KDBQ DBQ20080602031009906/02/08 03:10:31  5-MIN KDBQ 020910Z AUTO 04003KT 10SM CLR 15/12 A2995 1060 83 1300 040/03 RMK AO2
94908KDBQ DBQ20080602031509906/02/08 03:15:31  5-MIN KDBQ 020915Z AUTO 04004KT 10SM CLR 15/13 A2995 1050 86 1300 040/04 RMK AO2
94908KDBQ DBQ20080602032009906/02/08 03:20:31  5-MIN KDBQ 020920Z AUTO 06003KT 10SM CLR 14/13 A2995 1060 90 1300 050/03 RMK AO2
94908KDBQ DBQ20080602032509906/02/08 03:25:31  5-MIN KDBQ 020925Z AUTO 00000KT 10SM CLR 15/13 A2994 1060 86 1300 000/00 RMK AO2
94908KDBQ DBQ20080602033009906/02/08 03:30:31  5-MIN KDBQ 020930Z AUTO 00000KT 10SM CLR 15/13 A2994 1060 86 1300 000/00 RMK AO2
94908KDBQ DBQ20080602033509906/02/08 03:35:31  5-MIN KDBQ 020935Z AUTO 00000KT 10SM CLR 15/13 A2994 1060 86 1300 000/00 RMK AO2
94908KDBQ DBQ20080602034009906/02/08 03:40:31  5-MIN KDBQ 020940Z AUTO 00000KT 10SM CLR 15/13 A2994 1060 86 1300 000/00 RMK AO2
94908KDBQ DBQ20080602034509906/02/08 03:45:31  5-MIN KDBQ 020945Z AUTO 00000KT 10SM CLR 14/13 A2994 1060 90 1300 000/00 RMK AO2
94908KDBQ DBQ20080602035011606/02/08 03:50:31  5-MIN KDBQ 020950Z AUTO 00000KT 10SM CLR 14/12 A2994 1060 86 1300 000/00 RMK AO2 SLP134 T01440122
94908KDBQ DBQ20080602035509906/02/08 03:55:31  5-MIN KDBQ 020955Z AUTO 00000KT 10SM CLR 14/12 A2994 1060 86 1300 000/00 RMK AO2
94908KDBQ DBQ20080602040009906/02/08 04:00:31  5-MIN KDBQ 021000Z AUTO 00000KT 10SM CLR 13/12 A2994 1060 89 1100 000/00 RMK AO2
94908KDBQ DBQ20080602040509906/02/08 04:05:31  5-MIN KDBQ 021005Z AUTO 00000KT 10SM CLR 13/12 A2994 1060 89 1100 000/00 RMK AO2
94908KDBQ DBQ20080602041009906/02/08 04:10:31  5-MIN KDBQ 021010Z AUTO 00000KT 10SM CLR 14/12 A2994 1060 86 1200 000/00 RMK AO2
94908KDBQ DBQ20080602041509906/02/08 04:15:31  5-MIN KDBQ 021015Z AUTO 00000KT 10SM CLR 13/12 A2994 1060 89 1200 000/00 RMK AO2
94908KDBQ DBQ20080602042009906/02/08 04:20:31  5-MIN KDBQ 021020Z AUTO 04004KT 10SM CLR 14/12 A2994 1060 83 1300 040/04 RMK AO2
94908KDBQ DBQ20080602042509906/02/08 04:25:31  5-MIN KDBQ 021025Z AUTO 00000KT 10SM CLR 13/11 A2995 1050 89 1100 000/00 RMK AO2
94908KDBQ DBQ20080602043009906/02/08 04:30:31  5-MIN KDBQ 021030Z AUTO 02003KT 10SM CLR 13/11 A2995 1050 89 1100 020/03 RMK AO2
94908KDBQ DBQ20080602043509906/02/08 04:35:31  5-MIN KDBQ 021035Z AUTO 03004KT 10SM CLR 13/11 A2995 1050 89 1100 030/04 RMK AO2
94908KDBQ DBQ20080602044009906/02/08 04:40:31  5-MIN KDBQ 021040Z AUTO 04004KT 10SM CLR 13/12 A2995 1050 89 1100 040/04 RMK AO2
94908KDBQ DBQ20080602044509906/02/08 04:45:31  5-MIN KDBQ 021045Z AUTO 04003KT 10SM CLR 14/12 A2995 1050 86 1200 040/03 RMK AO2
94908KDBQ DBQ20080602045011106/02/08 04:50:31  5-MIN KDBQ 021050Z 00000KT 10SM CLR 14/12 A2995 1050 90 1200 000/00 RMK AO2 SLP139 T01390122
94908KDBQ DBQ20080602045509406/02/08 04:55:31  5-MIN KDBQ 021055Z 00000KT 10SM CLR 14/12 A2995 1050 90 1200 000/00 RMK AO2
94908KDBQ DBQ20080602050009406/02/08 05:00:31  5-MIN KDBQ 021100Z 00000KT 10SM CLR 14/12 A2995 1050 86 1300 000/00 RMK AO2
94908KDBQ DBQ20080602050509406/02/08 05:05:31  5-MIN KDBQ 021105Z 11003KT 10SM CLR 15/12 A2995 1050 83 1300 110/03 RMK AO2
94908KDBQ DBQ20080602051009406/02/08 05:10:31  5-MIN KDBQ 021110Z 10003KT 10SM CLR 16/13 A2995 1050 83 1400 100/03 RMK AO2
94908KDBQ DBQ20080602051509406/02/08 05:15:31  5-MIN KDBQ 021115Z 00000KT 10SM CLR 16/13 A2996 1050 83 1400 000/00 RMK AO2
94908KDBQ DBQ20080602052009406/02/08 05:20:31  5-MIN KDBQ 021120Z 00000KT 10SM CLR 16/13 A2996 1050 80 1500 000/00 RMK AO2
94908KDBQ DBQ20080602052509406/02/08 05:25:31  5-MIN KDBQ 021125Z 00000KT 10SM CLR 17/13 A2995 1050 80 1500 000/00 RMK AO2
94908KDBQ DBQ20080602053009406/02/08 05:30:31  5-MIN KDBQ 021130Z 00000KT 10SM CLR 17/13 A2995 1050 80 1500 000/00 RMK AO2
94908KDBQ DBQ20080602053509406/02/08 05:35:31  5-MIN KDBQ 021135Z 00000KT 10SM CLR 17/13 A2995 1050 80 1500 000/00 RMK AO2
94908KDBQ DBQ20080602054009406/02/08 05:40:31  5-MIN KDBQ 021140Z 00000KT 10SM CLR 17/14 A2995 1050 86 1500 000/00 RMK AO2
94908KDBQ DBQ20080602054509406/02/08 05:45:31  5-MIN KDBQ 021145Z 00000KT 10SM CLR 17/15 A2995 1050 90 1500 000/00 RMK AO2
94908KDBQ DBQ20080602055012906/02/08 05:50:31  5-MIN KDBQ 021150Z 00000KT 10SM CLR 17/15 A2996 1050 90 1500 000/00 RMK AO2 SLP139 T01670150 10172 20122 56006
94908KDBQ DBQ20080602055509406/02/08 05:55:31  5-MIN KDBQ 021155Z 00000KT 10SM CLR 17/14 A2996 1050 80 1600 000/00 RMK AO2
94908KDBQ DBQ20080602060009406/02/08 06:00:31  5-MIN KDBQ 021200Z 00000KT 10SM CLR 18/14 A2996 1050 78 1700 000/00 RMK AO2
94908KDBQ DBQ20080602060509406/02/08 06:05:31  5-MIN KDBQ 021205Z 00000KT 10SM CLR 18/14 A2995 1050 81 1700 000/00 RMK AO2
94908KDBQ DBQ20080602061009406/02/08 06:10:31  5-MIN KDBQ 021210Z 00000KT 10SM CLR 18/15 A2996 1040 83 1600 000/00 RMK AO2
94908KDBQ DBQ20080602061509406/02/08 06:15:31  5-MIN KDBQ 021215Z 00000KT 10SM CLR 18/16 A2996 1040 87 1600 000/00 RMK AO2
94908KDBQ DBQ20080602062009406/02/08 06:20:31  5-MIN KDBQ 021220Z 00000KT 10SM CLR 18/16 A2997 1030 87 1600 000/00 RMK AO2
94908KDBQ DBQ20080602062509406/02/08 06:25:31  5-MIN KDBQ 021225Z 00000KT 10SM CLR 18/16 A2997 1030 87 1600 000/00 RMK AO2
94908KDBQ DBQ20080602063009406/02/08 06:30:31  5-MIN KDBQ 021230Z 00000KT 10SM CLR 18/15 A2997 1030 81 1700 000/00 RMK AO2
94908KDBQ DBQ20080602063509406/02/08 06:35:31  5-MIN KDBQ 021235Z 21003KT 10SM CLR 18/15 A2997 1030 81 1700 210/03 RMK AO2
94908KDBQ DBQ20080602064009406/02/08 06:40:31  5-MIN KDBQ 021240Z 00000KT 10SM CLR 18/15 A2997 1030 81 1700 000/00 RMK AO2
94908KDBQ DBQ20080602064509406/02/08 06:45:31  5-MIN KDBQ 021245Z 00000KT 10SM CLR 19/15 A2997 1030 78 1800 000/00 RMK AO2
94908KDBQ DBQ20080602065011106/02/08 06:50:31  5-MIN KDBQ 021250Z 00000KT 10SM CLR 19/16 A2997 1030 81 1800 000/00 RMK AO2 SLP143 T01890156
94908KDBQ DBQ20080602065509406/02/08 06:55:31  5-MIN KDBQ 021255Z 00000KT 10SM CLR 19/16 A2997 1030 78 1800 000/00 RMK AO2
94908KDBQ DBQ20080602070009406/02/08 07:00:31  5-MIN KDBQ 021300Z 00000KT 10SM CLR 19/16 A2997 1040 81 1800 000/00 RMK AO2
94908KDBQ DBQ20080602070509406/02/08 07:05:31  5-MIN KDBQ 021305Z 00000KT 10SM CLR 19/16 A2997 1030 81 1800 000/00 RMK AO2
94908KDBQ DBQ20080602071009406/02/08 07:10:31  5-MIN KDBQ 021310Z 00000KT 10SM CLR 19/16 A2997 1040 78 1800 000/00 RMK AO2
94908KDBQ DBQ20080602071509406/02/08 07:15:31  5-MIN KDBQ 021315Z 00000KT 10SM CLR 19/16 A2997 1040 81 1800 000/00 RMK AO2
94908KDBQ DBQ20080602072009406/02/08 07:20:31  5-MIN KDBQ 021320Z 00000KT 10SM CLR 20/16 A2996 1040 78 1900 000/00 RMK AO2
94908KDBQ DBQ20080602072509406/02/08 07:25:31  5-MIN KDBQ 021325Z 00000KT 10SM CLR 20/17 A2997 1030 81 1900 000/00 RMK AO2
94908KDBQ DBQ20080602073009406/02/08 07:30:31  5-MIN KDBQ 021330Z 00000KT 10SM CLR 21/17 A2997 1040 78 2000 000/00 RMK AO2
94908KDBQ DBQ20080602073509406/02/08 07:35:31  5-MIN KDBQ 021335Z 00000KT 10SM CLR 21/17 A2997 1040 78 2000 000/00 RMK AO2
94908KDBQ DBQ20080602074009406/02/08 07:40:31  5-MIN KDBQ 021340Z 00000KT 10SM CLR 21/16 A2997 1030 73 2000 000/00 RMK AO2
94908KDBQ DBQ20080602074509406/02/08 07:45:31  5-MIN KDBQ 021345Z 00000KT 10SM CLR 21/16 A2996 1040 70 2000 000/00 RMK AO2
94908KDBQ DBQ20080602075011106/02/08 07:50:31  5-MIN KDBQ 021350Z 00000KT 10SM CLR 21/16 A2996 1040 73 2000 000/00 RMK AO2 SLP142 T02110161
94908KDBQ DBQ20080602075509406/02/08 07:55:31  5-MIN KDBQ 021355Z 00000KT 10SM CLR 22/17 A2996 1040 73 2100 000/00 RMK AO2
94908KDBQ DBQ20080602080009406/02/08 08:00:31  5-MIN KDBQ 021400Z 00000KT 10SM CLR 22/16 A2997 1040 70 2100 000/00 RMK AO2
94908KDBQ DBQ20080602080509406/02/08 08:05:31  5-MIN KDBQ 021405Z 00000KT 10SM CLR 22/16 A2997 1040 70 2100 000/00 RMK AO2
94908KDBQ DBQ20080602081009406/02/08 08:10:31  5-MIN KDBQ 021410Z 00000KT 10SM CLR 22/16 A2997 1030 68 2100 000/00 RMK AO2
94908KDBQ DBQ20080602081509406/02/08 08:15:31  5-MIN KDBQ 021415Z 00000KT 10SM CLR 22/16 A2997 1030 68 2100 000/00 RMK AO2
94908KDBQ DBQ20080602082009406/02/08 08:20:31  5-MIN KDBQ 021420Z 00000KT 10SM CLR 22/16 A2997 1030 65 2100 000/00 RMK AO2
94908KDBQ DBQ20080602082509406/02/08 08:25:31  5-MIN KDBQ 021425Z 00000KT 10SM CLR 22/17 A2997 1030 70 2100 000/00 RMK AO2
94908KDBQ DBQ20080602083009406/02/08 08:30:31  5-MIN KDBQ 021430Z 00000KT 10SM CLR 22/17 A2997 1030 70 2100 000/00 RMK AO2
94908KDBQ DBQ20080602083509406/02/08 08:35:31  5-MIN KDBQ 021435Z 00000KT 10SM CLR 22/17 A2997 1030 70 2100 000/00 RMK AO2
94908KDBQ DBQ20080602084009406/02/08 08:40:31  5-MIN KDBQ 021440Z 16003KT 10SM CLR 22/17 A2997 1030 70 2100 150/03 RMK AO2
94908KDBQ DBQ20080602084509406/02/08 08:45:31  5-MIN KDBQ 021445Z 19003KT 10SM CLR 23/17 A2997 1030 68 2200 190/03 RMK AO2
94908KDBQ DBQ20080602085011706/02/08 08:50:31  5-MIN KDBQ 021450Z 00000KT 10SM CLR 23/17 A2997 1030 68 2200 000/00 RMK AO2 SLP144 T02280167 53003
94908KDBQ DBQ20080602085509406/02/08 08:55:31  5-MIN KDBQ 021455Z VRB03KT 10SM CLR 23/17 A2997 1030 68 2200 VRB/03 RMK AO2
94908KDBQ DBQ20080602090009406/02/08 09:00:31  5-MIN KDBQ 021500Z 00000KT 10SM CLR 23/16 A2997 1030 65 2200 000/00 RMK AO2
94908KDBQ DBQ20080602090509406/02/08 09:05:31  5-MIN KDBQ 021505Z 21003KT 10SM CLR 23/17 A2997 1040 68 2200 210/03 RMK AO2
94908KDBQ DBQ20080602091009406/02/08 09:10:31  5-MIN KDBQ 021510Z 00000KT 10SM CLR 23/17 A2997 1030 66 2300 000/00 RMK AO2
94908KDBQ DBQ20080602091509406/02/08 09:15:31  5-MIN KDBQ 021515Z 00000KT 10SM CLR 23/17 A2997 1040 66 2300 000/00 RMK AO2
94908KDBQ DBQ20080602092009406/02/08 09:20:31  5-MIN KDBQ 021520Z 00000KT 10SM CLR 23/17 A2996 1040 66 2300 000/00 RMK AO2
94908KDBQ DBQ20080602092509406/02/08 09:25:31  5-MIN KDBQ 021525Z 18003KT 10SM CLR 23/17 A2996 1040 66 2300 180/03 RMK AO2
94908KDBQ DBQ20080602093009406/02/08 09:30:31  5-MIN KDBQ 021530Z 17003KT 10SM CLR 23/17 A2996 1040 66 2300 170/03 RMK AO2
94908KDBQ DBQ20080602093509406/02/08 09:35:31  5-MIN KDBQ 021535Z VRB04KT 10SM CLR 24/16 A2995 1050 61 2400 VRB/04 RMK AO2
94908KDBQ DBQ20080602094009406/02/08 09:40:31  5-MIN KDBQ 021540Z 00000KT 10SM CLR 24/16 A2995 1050 61 2400 000/00 RMK AO2
94908KDBQ DBQ20080602094509406/02/08 09:45:31  5-MIN KDBQ 021545Z 14004KT 10SM CLR 24/16 A2995 1060 59 2400 140/04 RMK AO2
94908KDBQ DBQ20080602095011106/02/08 09:50:31  5-MIN KDBQ 021550Z 15003KT 10SM CLR 24/16 A2995 1050 57 2400 150/03 RMK AO2 SLP136 T02440156
94908KDBQ DBQ20080602095509406/02/08 09:55:31  5-MIN KDBQ 021555Z 15003KT 10SM CLR 24/16 A2994 1060 57 2400 150/03 RMK AO2
94908KDBQ DBQ20080602100009406/02/08 10:00:31  5-MIN KDBQ 021600Z 18003KT 10SM CLR 25/15 A2994 1060 53 2500 180/03 RMK AO2
94908KDBQ DBQ20080602100509406/02/08 10:05:31  5-MIN KDBQ 021605Z 00000KT 10SM CLR 25/15 A2994 1060 53 2500 000/00 RMK AO2
94908KDBQ DBQ20080602101009406/02/08 10:10:31  5-MIN KDBQ 021610Z 00000KT 10SM CLR 25/14 A2994 1060 51 2500 000/00 RMK AO2
94908KDBQ DBQ20080602101509406/02/08 10:15:31  5-MIN KDBQ 021615Z 00000KT 10SM CLR 25/15 A2994 1060 53 2500 000/00 RMK AO2
94908KDBQ DBQ20080602102009406/02/08 10:20:31  5-MIN KDBQ 021620Z 00000KT 10SM CLR 26/14 A2994 1060 48 2600 000/00 RMK AO2
94908KDBQ DBQ20080602102509406/02/08 10:25:31  5-MIN KDBQ 021625Z 00000KT 10SM CLR 26/14 A2994 1060 46 2600 000/00 RMK AO2
94908KDBQ DBQ20080602103009406/02/08 10:30:31  5-MIN KDBQ 021630Z 00000KT 10SM CLR 26/15 A2994 1060 50 2600 000/00 RMK AO2
94908KDBQ DBQ20080602103509406/02/08 10:35:31  5-MIN KDBQ 021635Z 16003KT 10SM CLR 26/14 A2994 1060 46 2600 160/03 RMK AO2
94908KDBQ DBQ20080602104009406/02/08 10:40:31  5-MIN KDBQ 021640Z 19004KT 10SM CLR 26/13 A2993 1060 43 2600 190/04 RMK AO2
94908KDBQ DBQ20080602104509406/02/08 10:45:31  5-MIN KDBQ 021645Z 00000KT 10SM CLR 26/13 A2994 1060 43 2600 000/00 RMK AO2
94908KDBQ DBQ20080602105011106/02/08 10:50:31  5-MIN KDBQ 021650Z 18006KT 10SM CLR 27/13 A2994 1060 43 2700 180/06 RMK AO2 SLP132 T02670133
94908KDBQ DBQ20080602105509406/02/08 10:55:31  5-MIN KDBQ 021655Z 00000KT 10SM CLR 27/11 A2994 1060 36 2700 000/00 RMK AO2
94908KDBQ DBQ20080602110009406/02/08 11:00:31  5-MIN KDBQ 021700Z 17005KT 10SM CLR 27/11 A2993 1070 34 2800 170/05 RMK AO2
94908KDBQ DBQ20080602110509406/02/08 11:05:31  5-MIN KDBQ 021705Z 18004KT 10SM CLR 27/12 A2994 1060 38 2700 180/04 RMK AO2
94908KDBQ DBQ20080602111009406/02/08 11:10:31  5-MIN KDBQ 021710Z 19004KT 10SM CLR 27/11 A2994 1060 37 2700 190/04 RMK AO2
94908KDBQ DBQ20080602111509406/02/08 11:15:31  5-MIN KDBQ 021715Z 19006KT 10SM CLR 27/11 A2994 1060 37 2700 190/06 RMK AO2
94908KDBQ DBQ20080602112009406/02/08 11:20:31  5-MIN KDBQ 021720Z 20007KT 10SM CLR 26/11 A2994 1060 38 2600 200/07 RMK AO2
94908KDBQ DBQ20080602112509406/02/08 11:25:31  5-MIN KDBQ 021725Z 21009KT 10SM CLR 26/12 A2993 1070 43 2600 210/09 RMK AO2
94908KDBQ DBQ20080602113009406/02/08 11:30:31  5-MIN KDBQ 021730Z 20006KT 10SM CLR 25/13 A2993 1070 46 2500 200/06 RMK AO2
94908KDBQ DBQ20080602113509406/02/08 11:35:31  5-MIN KDBQ 021735Z 21007KT 10SM CLR 25/13 A2993 1070 48 2500 210/07 RMK AO2
94908KDBQ DBQ20080602114009406/02/08 11:40:31  5-MIN KDBQ 021740Z 21006KT 10SM CLR 25/13 A2993 1070 48 2500 210/06 RMK AO2
94908KDBQ DBQ20080602114509406/02/08 11:45:31  5-MIN KDBQ 021745Z 22007KT 10SM CLR 25/14 A2993 1070 49 2500 210/07 RMK AO2
94908KDBQ DBQ20080602115012906/02/08 11:50:31  5-MIN KDBQ 021750Z 21006KT 10SM CLR 25/14 A2994 1060 49 2500 210/06 RMK AO2 SLP132 T02500139 10272 20172 51004
94908KDBQ DBQ20080602115509406/02/08 11:55:31  5-MIN KDBQ 021755Z 21006KT 10SM CLR 25/14 A2994 1060 51 2500 210/06 RMK AO2
94908KDBQ DBQ20080602120009406/02/08 12:00:31  5-MIN KDBQ 021800Z 21006KT 10SM CLR 25/15 A2994 1060 53 2500 210/06 RMK AO2
94908KDBQ DBQ20080602120509406/02/08 12:05:31  5-MIN KDBQ 021805Z 21005KT 10SM CLR 25/15 A2994 1060 53 2500 210/05 RMK AO2
94908KDBQ DBQ20080602121009406/02/08 12:10:31  5-MIN KDBQ 021810Z 20006KT 10SM CLR 25/14 A2994 1060 51 2500 200/06 RMK AO2
94908KDBQ DBQ20080602121509406/02/08 12:15:31  5-MIN KDBQ 021815Z 20005KT 10SM CLR 25/14 A2993 1060 51 2500 200/05 RMK AO2
94908KDBQ DBQ20080602122009406/02/08 12:20:31  5-MIN KDBQ 021820Z 20005KT 10SM CLR 25/15 A2993 1070 53 2500 200/05 RMK AO2
94908KDBQ DBQ20080602122509406/02/08 12:25:31  5-MIN KDBQ 021825Z 20005KT 10SM CLR 25/15 A2993 1070 53 2500 200/05 RMK AO2
94908KDBQ DBQ20080602123009406/02/08 12:30:31  5-MIN KDBQ 021830Z 20006KT 10SM CLR 26/15 A2993 1070 51 2600 200/06 RMK AO2
94908KDBQ DBQ20080602123509406/02/08 12:35:31  5-MIN KDBQ 021835Z 20006KT 10SM CLR 25/14 A2993 1070 51 2500 200/06 RMK AO2
94908KDBQ DBQ20080602124009406/02/08 12:40:31  5-MIN KDBQ 021840Z 20007KT 10SM CLR 25/14 A2993 1070 51 2500 200/07 RMK AO2
94908KDBQ DBQ20080602124509406/02/08 12:45:31  5-MIN KDBQ 021845Z 20006KT 10SM CLR 24/15 A2992 1080 55 2500 200/06 RMK AO2
94908KDBQ DBQ20080602125011106/02/08 12:50:31  5-MIN KDBQ 021850Z 20007KT 10SM CLR 25/15 A2992 1080 53 2500 200/07 RMK AO2 SLP128 T02500150
94908KDBQ DBQ20080602125509406/02/08 12:55:31  5-MIN KDBQ 021855Z 21010KT 10SM CLR 25/14 A2992 1080 49 2500 210/10 RMK AO2
94908KDBQ DBQ20080602130009406/02/08 13:00:31  5-MIN KDBQ 021900Z 22009KT 10SM CLR 25/12 A2992 1080 43 2500 220/09 RMK AO2
94908KDBQ DBQ20080602130509706/02/08 13:05:31  5-MIN KDBQ 021905Z 21008KT 10SM FEW100 24/13 A2992 1080 47 2500 210/08 RMK AO2
94908KDBQ DBQ20080602131010306/02/08 13:10:31  5-MIN KDBQ 021910Z 22011G18KT 10SM FEW095 24/08 A2992 1080 34 2500 220/11G18 RMK AO2
94908KDBQ DBQ20080602131510306/02/08 13:15:31  5-MIN KDBQ 021915Z 22015G20KT 10SM FEW090 24/08 A2991 1090 35 2500 220/15G20 RMK AO2
94908KDBQ DBQ20080602132010306/02/08 13:20:31  5-MIN KDBQ 021920Z 24018G23KT 10SM FEW090 22/11 A2992 1080 49 2200 240/18G23 RMK AO2
94908KDBQ DBQ20080602132510306/02/08 13:25:31  5-MIN KDBQ 021925Z 20010G23KT 10SM SCT090 23/11 A2992 1070 45 2300 200/10G23 RMK AO2
94908KDBQ DBQ20080602133010306/02/08 13:30:31  5-MIN KDBQ 021930Z 16008G15KT 10SM BKN090 23/10 A2992 1070 42 2300 150/08G15 RMK AO2
94908KDBQ DBQ20080602133509706/02/08 13:35:31  5-MIN KDBQ 021935Z 12003KT 10SM BKN090 24/07 A2992 1080 33 2500 120/03 RMK AO2
94908KDBQ DBQ20080602134009706/02/08 13:40:31  5-MIN KDBQ 021940Z 00000KT 10SM BKN090 24/09 A2992 1080 36 2500 000/00 RMK AO2
94908KDBQ DBQ20080602134509706/02/08 13:45:31  5-MIN KDBQ 021945Z 00000KT 10SM BKN090 24/12 A2992 1080 46 2400 000/00 RMK AO2
94908KDBQ DBQ20080602135011406/02/08 13:50:31  5-MIN KDBQ 021950Z 35004KT 10SM BKN090 23/14 A2991 1090 55 2300 350/04 RMK AO2 SLP125 T02330139
94908KDBQ DBQ20080602135509706/02/08 13:55:31  5-MIN KDBQ 021955Z 35004KT 10SM BKN090 23/13 A2991 1090 53 2300 350/04 RMK AO2
94908KDBQ DBQ20080602140010406/02/08 14:00:31  5-MIN KDBQ 022000Z 34005KT 10SM FEW065 BKN090 23/13 A2991 1090 53 2300 340/05 RMK AO2
94908KDBQ DBQ20080602140510306/02/08 14:05:31  5-MIN KDBQ 022005Z VRB03KT 9SM FEW060 BKN090 22/13 A2991 1090 56 2200 VRB/03 RMK AO2
94908KDBQ DBQ20080602141013406/02/08 14:10:31  5-MIN KDBQ 022010Z 22024G31KT 9SM SCT065 SCT080 BKN095 22/14 A2991 1080 61 2100 220/24G31 RMK AO2 PK WND 23031/2010
94908KDBQ DBQ20080602141514406/02/08 14:15:31  5-MIN KDBQ 022015Z 23020G31KT 10SM -RA FEW065 BKN085 21/16 A2993 1070 73 2000 230/20G31 RMK AO2 PK WND 23031/2010 RAB14 P0000
94908KDBQ DBQ20080602142015006/02/08 14:20:31  5-MIN KDBQ 022020Z 23017G29KT 9SM -RA FEW042 SCT060 BKN085 19/16 A2993 1070 81 1900 230/17G29 RMK AO2 PK WND 23031/2010 RAB14 P0000
94908KDBQ DBQ20080602142516806/02/08 14:25:31  5-MIN KDBQ 022025Z 23015G25KT 9SM -RA FEW042 SCT060 BKN080 19/17 A2994 1060 84 1900 230/15G25 RMK AO2 PK WND 23031/2010 WSHFT 2007 RAB14 PRESRR P0000
94908KDBQ DBQ20080602143014906/02/08 14:30:31  5-MIN KDBQ 022030Z 23014KT 10SM -RA FEW040 BKN080 19/16 A2994 1060 78 1900 230/14 RMK AO2 PK WND 23031/2010 WSHFT 2007 RAB14 P0000
94908KDBQ DBQ20080602143516206/02/08 14:35:31  5-MIN KDBQ 022035Z 24011G19KT 10SM -RA FEW038 SCT070 OVC085 19/16 A2994 1060 81 1900 240/11G19 RMK AO2 PK WND 23031/2010 WSHFT 2007 RAB14 P0000
94908KDBQ DBQ20080602144015506/02/08 14:40:31  5-MIN KDBQ 022040Z 24010KT 9SM -RA FEW036 SCT050 OVC080 19/17 A2994 1060 84 1900 240/10 RMK AO2 PK WND 23031/2010 WSHFT 2007 RAB14 P0000
94908KDBQ DBQ20080602144515506/02/08 14:45:31  5-MIN KDBQ 022045Z 25008KT 8SM -RA SCT036 SCT050 OVC080 19/17 A2994 1060 84 1900 250/08 RMK AO2 PK WND 23031/2010 WSHFT 2007 RAB14 P0000
94908KDBQ DBQ20080602145018406/02/08 14:50:31  5-MIN KDBQ 022050Z 24008KT 7SM -RA SCT036 SCT048 OVC080 19/17 A2994 1060 84 1900 240/08 RMK AO2 PK WND 23031/2010 WSHFT 2007 RAB14 SLP135 P0001 60001 T01940167 56011
94908KDBQ DBQ20080602145512006/02/08 14:55:31  5-MIN KDBQ 022055Z 23007KT 8SM -RA SCT034 SCT050 OVC080 19/17 A2994 1060 87 1900 230/07 RMK AO2 P0000
94908KDBQ DBQ20080602150012006/02/08 15:00:31  5-MIN KDBQ 022100Z 23005KT 9SM -RA SCT038 BKN050 OVC080 19/17 A2994 1060 87 1900 230/05 RMK AO2 P0000
94908KDBQ DBQ20080602150512006/02/08 15:05:31  5-MIN KDBQ 022105Z 22003KT 9SM -RA BKN038 BKN050 OVC100 19/17 A2994 1060 87 1900 220/03 RMK AO2 P0000
94908KDBQ DBQ20080602151012006/02/08 15:10:31  5-MIN KDBQ 022110Z 00000KT 9SM -RA SCT036 BKN080 BKN100 20/17 A2994 1060 84 1900 000/00 RMK AO2 P0000
94908KDBQ DBQ20080602151512306/02/08 15:15:31  5-MIN KDBQ 022115Z 00000KT 10SM SCT038 SCT060 BKN080 20/17 A2993 1070 84 1900 000/00 RMK AO2 RAE14 P0000
94908KDBQ DBQ20080602152012306/02/08 15:20:31  5-MIN KDBQ 022120Z 00000KT 10SM SCT037 SCT055 BKN095 20/17 A2993 1070 84 1900 000/00 RMK AO2 RAE14 P0000
94908KDBQ DBQ20080602152511306/02/08 15:25:31  5-MIN KDBQ 022125Z 07003KT 8SM -RA SCT033 BKN090 20/17 A2992 1080 84 2000 070/03 RMK AO2 P0000
94908KDBQ DBQ20080602153011306/02/08 15:30:31  5-MIN KDBQ 022130Z 00000KT 8SM -RA SCT031 BKN095 20/17 A2992 1080 84 2000 000/00 RMK AO2 P0000
94908KDBQ DBQ20080602153511306/02/08 15:35:31  5-MIN KDBQ 022135Z 00000KT 9SM -RA FEW031 BKN095 20/17 A2992 1080 84 2000 000/00 RMK AO2 P0000
94908KDBQ DBQ20080602154012306/02/08 15:40:31  5-MIN KDBQ 022140Z 00000KT 10SM FEW031 SCT070 BKN095 20/17 A2991 1090 84 2000 000/00 RMK AO2 RAE38 P0000
94908KDBQ DBQ20080602154512206/02/08 15:45:31  5-MIN KDBQ 022145Z 33003KT 9SM FEW031 SCT075 BKN090 20/18 A2991 1090 87 2000 330/03 RMK AO2 RAE38 P0000
94908KDBQ DBQ20080602155013706/02/08 15:50:31  5-MIN KDBQ 022150Z 35004KT 8SM -RA FEW028 SCT075 BKN090 20/18 A2990 1100 87 2000 350/04 RMK AO2 SLP124 P0000 T02000178
94908KDBQ DBQ20080602155511306/02/08 15:55:31  5-MIN KDBQ 022155Z 36003KT 8SM -RA FEW075 BKN095 20/18 A2990 1090 87 2000 360/03 RMK AO2 P0001
94908KDBQ DBQ20080602160011306/02/08 16:00:31  5-MIN KDBQ 022200Z 03005KT 7SM -RA FEW075 BKN095 20/18 A2989 1100 87 2000 020/05 RMK AO2 P0001
94908KDBQ DBQ20080602160511806/02/08 16:05:31  5-MIN KDBQ 022205Z 03006KT 6SM BR FEW075 BKN095 19/18 A2989 1110 93 1900 030/06 RMK AO2 RAE02 P0001
94908KDBQ DBQ20080602161011806/02/08 16:10:31  5-MIN KDBQ 022210Z 03006KT 6SM BR BKN095 19/18 A2988 1110 90 1900 030/06 RMK AO2 RAE02 PRESFR P0001
94908KDBQ DBQ20080602163511106/02/08 16:35:31  5-MIN KDBQ 022235Z 01007KT 6SM BR BKN100 19/18 A2987 1120 90 1900 010/07 RMK AO2 RAE02 P0001
94908KDBQ DBQ20080602164011106/02/08 16:40:31  5-MIN KDBQ 022240Z 01005KT 6SM BR BKN100 19/18 A2987 1130 90 1900 010/05 RMK AO2 RAE02 P0001
94908KDBQ DBQ20080602164510806/02/08 16:45:31  5-MIN KDBQ 022245Z 01005KT 7SM OVC095 19/18 A2987 1130 90 1900 010/05 RMK AO2 RAE02 P0001
94908KDBQ DBQ20080602165012506/02/08 16:50:31  5-MIN KDBQ 022250Z 01007KT 9SM OVC095 19/17 A2986 1140 87 2000 010/07 RMK AO2 RAE02 SLP109 P0001 T01940172
94908KDBQ DBQ20080602165509706/02/08 16:55:31  5-MIN KDBQ 022255Z 36006KT 10SM OVC095 19/17 A2986 1130 84 2000 360/06 RMK AO2
94908KDBQ DBQ20080602170009706/02/08 17:00:31  5-MIN KDBQ 022300Z 36006KT 10SM OVC100 19/17 A2985 1140 87 2000 360/06 RMK AO2
94908KDBQ DBQ20080602170509606/02/08 17:05:31  5-MIN KDBQ 022305Z 36007KT 8SM OVC100 19/17 A2986 1140 87 2000 360/07 RMK AO2
94908KDBQ DBQ20080602171009606/02/08 17:10:31  5-MIN KDBQ 022310Z 02006KT 7SM OVC100 19/18 A2985 1140 90 2000 020/06 RMK AO2
94908KDBQ DBQ20080602171509906/02/08 17:15:31  5-MIN KDBQ 022315Z 02007KT 6SM BR OVC100 19/18 A2985 1140 93 1900 020/07 RMK AO2
94908KDBQ DBQ20080602172009606/02/08 17:20:31  5-MIN KDBQ 022320Z 03007KT 7SM OVC100 19/17 A2985 1140 90 1900 030/07 RMK AO2
94908KDBQ DBQ20080602172509906/02/08 17:25:31  5-MIN KDBQ 022325Z 03009KT 6SM BR OVC100 19/18 A2985 1150 93 1900 030/09 RMK AO2
94908KDBQ DBQ20080602173009906/02/08 17:30:31  5-MIN KDBQ 022330Z 03010KT 6SM BR OVC100 19/18 A2984 1150 93 1900 030/10 RMK AO2
94908KDBQ DBQ20080602173509906/02/08 17:35:31  5-MIN KDBQ 022335Z 04009KT 6SM BR OVC100 19/17 A2984 1150 90 1900 040/09 RMK AO2
94908KDBQ DBQ20080602174009906/02/08 17:40:31  5-MIN KDBQ 022340Z 03008KT 6SM BR OVC110 19/18 A2984 1150 93 1900 030/08 RMK AO2
94908KDBQ DBQ20080602174509606/02/08 17:45:31  5-MIN KDBQ 022345Z 03008KT 8SM OVC110 19/17 A2984 1150 87 1900 030/08 RMK AO2
94908KDBQ DBQ20080602175013706/02/08 17:50:31  5-MIN KDBQ 022350Z 03007KT 8SM OVC110 19/17 A2984 1150 87 1900 030/07 RMK AO2 SLP103 60002 T01890167 10256 20189 53002
94908KDBQ DBQ20080602175509606/02/08 17:55:31  5-MIN KDBQ 022355Z 02008KT 9SM OVC110 19/17 A2984 1150 87 1900 020/08 RMK AO2
94908KDBQ DBQ20080602180009706/02/08 18:00:31  5-MIN KDBQ 030000Z 03008KT 10SM OVC110 18/16 A2984 1150 87 1800 030/08 RMK AO2
94908KDBQ DBQ20080602180509706/02/08 18:05:31  5-MIN KDBQ 030005Z 04007KT 10SM OVC110 18/16 A2984 1150 84 1800 030/07 RMK AO2
94908KDBQ DBQ20080602181009706/02/08 18:10:31  5-MIN KDBQ 030010Z 04007KT 10SM OVC110 18/16 A2985 1150 87 1800 030/07 RMK AO2
94908KDBQ DBQ20080602181509706/02/08 18:15:31  5-MIN KDBQ 030015Z 03008KT 10SM OVC110 18/16 A2985 1150 87 1800 030/08 RMK AO2
94908KDBQ DBQ20080602182009706/02/08 18:20:31  5-MIN KDBQ 030020Z 03009KT 10SM OVC110 18/16 A2985 1140 87 1800 030/09 RMK AO2
94908KDBQ DBQ20080602182509706/02/08 18:25:31  5-MIN KDBQ 030025Z 03008KT 10SM OVC110 18/16 A2985 1150 87 1800 030/08 RMK AO2
94908KDBQ DBQ20080602183009706/02/08 18:30:31  5-MIN KDBQ 030030Z 02008KT 10SM OVC110 18/16 A2985 1140 87 1800 020/08 RMK AO2
94908KDBQ DBQ20080602183510206/02/08 18:35:31  5-MIN KDBQ 030035Z AUTO 02007KT 10SM OVC110 18/16 A2985 1150 87 1800 020/07 RMK AO2
94908KDBQ DBQ20080602184010206/02/08 18:40:31  5-MIN KDBQ 030040Z AUTO 02007KT 10SM OVC110 18/15 A2985 1140 83 1800 020/07 RMK AO2
94908KDBQ DBQ20080602184510206/02/08 18:45:31  5-MIN KDBQ 030045Z AUTO 03008KT 10SM OVC110 18/15 A2985 1150 83 1800 030/08 RMK AO2
94908KDBQ DBQ20080602185011906/02/08 18:50:31  5-MIN KDBQ 030050Z AUTO 03007KT 10SM OVC110 18/15 A2985 1140 83 1800 030/07 RMK AO2 SLP105 T01780150
94908KDBQ DBQ20080602185510206/02/08 18:55:31  5-MIN KDBQ 030055Z AUTO 02008KT 10SM OVC110 18/15 A2985 1150 83 1800 020/08 RMK AO2
94908KDBQ DBQ20080602190010206/02/08 19:00:31  5-MIN KDBQ 030100Z AUTO 03007KT 10SM OVC110 17/15 A2985 1150 87 1700 030/07 RMK AO2
94908KDBQ DBQ20080602190510206/02/08 19:05:31  5-MIN KDBQ 030105Z AUTO 04008KT 10SM OVC110 17/15 A2985 1150 87 1700 030/08 RMK AO2
94908KDBQ DBQ20080602191010206/02/08 19:10:31  5-MIN KDBQ 030110Z AUTO 04008KT 10SM OVC110 17/15 A2985 1150 87 1700 040/08 RMK AO2
94908KDBQ DBQ20080602191510206/02/08 19:15:31  5-MIN KDBQ 030115Z AUTO 04008KT 10SM OVC110 17/16 A2984 1150 90 1700 040/08 RMK AO2
94908KDBQ DBQ20080602192010206/02/08 19:20:31  5-MIN KDBQ 030120Z AUTO 04008KT 10SM OVC110 17/15 A2984 1150 87 1700 040/08 RMK AO2
94908KDBQ DBQ20080602192510206/02/08 19:25:31  5-MIN KDBQ 030125Z AUTO 04009KT 10SM OVC110 18/14 A2984 1150 81 1800 040/09 RMK AO2
94908KDBQ DBQ20080602193010206/02/08 19:30:31  5-MIN KDBQ 030130Z AUTO 04009KT 10SM OVC110 18/14 A2984 1150 78 1800 040/09 RMK AO2
94908KDBQ DBQ20080602193510206/02/08 19:35:31  5-MIN KDBQ 030135Z AUTO 04008KT 10SM OVC110 17/14 A2984 1150 83 1700 040/08 RMK AO2
94908KDBQ DBQ20080602194010206/02/08 19:40:31  5-MIN KDBQ 030140Z AUTO 04008KT 10SM OVC110 17/14 A2984 1150 83 1700 040/08 RMK AO2
94908KDBQ DBQ20080602194510206/02/08 19:45:31  5-MIN KDBQ 030145Z AUTO 04008KT 10SM OVC110 17/14 A2984 1150 80 1700 040/08 RMK AO2
94908KDBQ DBQ20080602195011906/02/08 19:50:31  5-MIN KDBQ 030150Z AUTO 04007KT 10SM OVC110 17/14 A2984 1150 80 1700 040/07 RMK AO2 SLP102 T01720139
94908KDBQ DBQ20080602195510206/02/08 19:55:31  5-MIN KDBQ 030155Z AUTO 04008KT 10SM OVC110 17/14 A2984 1150 80 1700 040/08 RMK AO2
94908KDBQ DBQ20080602200010206/02/08 20:00:31  5-MIN KDBQ 030200Z AUTO 05008KT 10SM OVC110 17/14 A2984 1150 80 1700 040/08 RMK AO2
94908KDBQ DBQ20080602200510206/02/08 20:05:31  5-MIN KDBQ 030205Z AUTO 05007KT 10SM OVC110 17/14 A2984 1150 80 1700 050/07 RMK AO2
94908KDBQ DBQ20080602201010206/02/08 20:10:31  5-MIN KDBQ 030210Z AUTO 04007KT 10SM OVC110 17/14 A2984 1150 80 1700 040/07 RMK AO2
94908KDBQ DBQ20080602201510206/02/08 20:15:31  5-MIN KDBQ 030215Z AUTO 04009KT 10SM OVC110 17/14 A2985 1150 80 1700 040/09 RMK AO2
94908KDBQ DBQ20080602202010206/02/08 20:20:31  5-MIN KDBQ 030220Z AUTO 04008KT 10SM OVC100 17/14 A2985 1140 80 1700 040/08 RMK AO2
94908KDBQ DBQ20080602202510206/02/08 20:25:31  5-MIN KDBQ 030225Z AUTO 04008KT 10SM OVC100 17/14 A2985 1140 80 1700 040/08 RMK AO2
94908KDBQ DBQ20080602203010206/02/08 20:30:31  5-MIN KDBQ 030230Z AUTO 04008KT 10SM OVC100 17/14 A2985 1140 83 1700 040/08 RMK AO2
94908KDBQ DBQ20080602203510206/02/08 20:35:31  5-MIN KDBQ 030235Z AUTO 03008KT 10SM OVC100 17/14 A2985 1140 83 1700 030/08 RMK AO2
94908KDBQ DBQ20080602204010206/02/08 20:40:31  5-MIN KDBQ 030240Z AUTO 03009KT 10SM OVC100 17/14 A2986 1140 83 1700 020/09 RMK AO2
94908KDBQ DBQ20080602204510206/02/08 20:45:31  5-MIN KDBQ 030245Z AUTO 03010KT 10SM OVC100 17/14 A2986 1140 83 1700 030/10 RMK AO2
94908KDBQ DBQ20080602205012506/02/08 20:50:31  5-MIN KDBQ 030250Z AUTO 03010KT 10SM OVC110 17/14 A2986 1140 83 1700 030/10 RMK AO2 SLP106 T01720144 56033
94908KDBQ DBQ20080602205510206/02/08 20:55:31  5-MIN KDBQ 030255Z AUTO 03009KT 10SM OVC110 17/14 A2986 1140 83 1700 030/09 RMK AO2
94908KDBQ DBQ20080602210010206/02/08 21:00:31  5-MIN KDBQ 030300Z AUTO 03010KT 10SM OVC110 17/14 A2985 1140 83 1700 030/10 RMK AO2
94908KDBQ DBQ20080602210510206/02/08 21:05:31  5-MIN KDBQ 030305Z AUTO 04009KT 10SM OVC110 17/14 A2985 1140 83 1700 040/09 RMK AO2
94908KDBQ DBQ20080602211010206/02/08 21:10:31  5-MIN KDBQ 030310Z AUTO 04010KT 10SM OVC110 17/14 A2985 1140 80 1700 040/10 RMK AO2
94908KDBQ DBQ20080602211510206/02/08 21:15:31  5-MIN KDBQ 030315Z AUTO 04009KT 10SM BKN120 17/13 A2985 1140 78 1700 040/09 RMK AO2
94908KDBQ DBQ20080602212010206/02/08 21:20:31  5-MIN KDBQ 030320Z AUTO 04011KT 10SM BKN120 17/13 A2985 1140 78 1700 040/11 RMK AO2
94908KDBQ DBQ20080602212510206/02/08 21:25:31  5-MIN KDBQ 030325Z AUTO 05011KT 10SM SCT120 17/13 A2985 1140 75 1700 050/11 RMK AO2
94908KDBQ DBQ20080602213010206/02/08 21:30:31  5-MIN KDBQ 030330Z AUTO 05010KT 10SM FEW120 17/13 A2985 1140 75 1700 050/10 RMK AO2
94908KDBQ DBQ20080602213510206/02/08 21:35:31  5-MIN KDBQ 030335Z AUTO 05011KT 10SM FEW120 17/13 A2985 1140 75 1700 050/11 RMK AO2
94908KDBQ DBQ20080602214009906/02/08 21:40:31  5-MIN KDBQ 030340Z AUTO 05010KT 10SM CLR 17/13 A2985 1150 75 1700 050/10 RMK AO2
94908KDBQ DBQ20080602214509906/02/08 21:45:31  5-MIN KDBQ 030345Z AUTO 05010KT 10SM CLR 17/13 A2984 1150 75 1700 050/10 RMK AO2
94908KDBQ DBQ20080602215011606/02/08 21:50:31  5-MIN KDBQ 030350Z AUTO 05011KT 10SM CLR 17/13 A2985 1150 75 1700 050/11 RMK AO2 SLP102 T01720128
94908KDBQ DBQ20080602215509906/02/08 21:55:31  5-MIN KDBQ 030355Z AUTO 05010KT 10SM CLR 17/13 A2985 1150 75 1700 050/10 RMK AO2
94908KDBQ DBQ20080602220009906/02/08 22:00:31  5-MIN KDBQ 030400Z AUTO 06009KT 10SM CLR 17/13 A2984 1150 75 1700 060/09 RMK AO2
94908KDBQ DBQ20080602220509906/02/08 22:05:31  5-MIN KDBQ 030405Z AUTO 06009KT 10SM CLR 17/13 A2985 1150 75 1700 060/09 RMK AO2
94908KDBQ DBQ20080602221009906/02/08 22:10:31  5-MIN KDBQ 030410Z AUTO 07010KT 10SM CLR 17/13 A2984 1150 75 1700 070/10 RMK AO2
94908KDBQ DBQ20080602221509906/02/08 22:15:31  5-MIN KDBQ 030415Z AUTO 07010KT 10SM CLR 17/13 A2984 1150 75 1700 070/10 RMK AO2
94908KDBQ DBQ20080602222009906/02/08 22:20:31  5-MIN KDBQ 030420Z AUTO 06009KT 10SM CLR 17/13 A2984 1160 75 1700 060/09 RMK AO2
94908KDBQ DBQ20080602222509906/02/08 22:25:31  5-MIN KDBQ 030425Z AUTO 06009KT 10SM CLR 17/13 A2984 1160 75 1700 060/09 RMK AO2
94908KDBQ DBQ20080602223009906/02/08 22:30:31  5-MIN KDBQ 030430Z AUTO 06009KT 10SM CLR 17/13 A2983 1160 77 1700 060/09 RMK AO2
94908KDBQ DBQ20080602223509906/02/08 22:35:31  5-MIN KDBQ 030435Z AUTO 06009KT 10SM CLR 17/13 A2984 1160 77 1700 060/09 RMK AO2
94908KDBQ DBQ20080602224009906/02/08 22:40:31  5-MIN KDBQ 030440Z AUTO 06009KT 10SM CLR 17/13 A2983 1160 77 1700 050/09 RMK AO2
94908KDBQ DBQ20080602224509906/02/08 22:45:31  5-MIN KDBQ 030445Z AUTO 06010KT 10SM CLR 17/13 A2983 1160 77 1700 060/10 RMK AO2
94908KDBQ DBQ20080602225011906/02/08 22:50:31  5-MIN KDBQ 030450Z AUTO 05008KT 10SM FEW070 17/13 A2984 1160 77 1700 050/08 RMK AO2 SLP097 T01670128
94908KDBQ DBQ20080602225510206/02/08 22:55:31  5-MIN KDBQ 030455Z AUTO 05010KT 10SM SCT070 17/13 A2983 1160 77 1700 050/10 RMK AO2
94908KDBQ DBQ20080602230010206/02/08 23:00:31  5-MIN KDBQ 030500Z AUTO 06009KT 10SM BKN065 17/13 A2983 1160 77 1700 060/09 RMK AO2
94908KDBQ DBQ20080602230510206/02/08 23:05:31  5-MIN KDBQ 030505Z AUTO 06009KT 10SM BKN065 17/13 A2983 1160 77 1700 060/09 RMK AO2
94908KDBQ DBQ20080602231010206/02/08 23:10:31  5-MIN KDBQ 030510Z AUTO 06009KT 10SM BKN070 17/13 A2983 1160 77 1700 060/09 RMK AO2
94908KDBQ DBQ20080602231510206/02/08 23:15:31  5-MIN KDBQ 030515Z AUTO 06009KT 10SM OVC070 17/13 A2983 1160 77 1700 060/09 RMK AO2
94908KDBQ DBQ20080602232010206/02/08 23:20:31  5-MIN KDBQ 030520Z AUTO 07009KT 10SM BKN070 17/13 A2982 1170 77 1700 060/09 RMK AO2
94908KDBQ DBQ20080602232510206/02/08 23:25:31  5-MIN KDBQ 030525Z AUTO 07008KT 10SM BKN070 17/13 A2982 1170 77 1700 070/08 RMK AO2
94908KDBQ DBQ20080602233010206/02/08 23:30:31  5-MIN KDBQ 030530Z AUTO 07008KT 10SM BKN070 17/13 A2981 1180 77 1700 070/08 RMK AO2
94908KDBQ DBQ20080602233510206/02/08 23:35:31  5-MIN KDBQ 030535Z AUTO 06009KT 10SM SCT070 16/13 A2981 1180 80 1600 060/09 RMK AO2
94908KDBQ DBQ20080602234010206/02/08 23:40:31  5-MIN KDBQ 030540Z AUTO 06009KT 10SM SCT070 16/13 A2981 1180 80 1600 050/09 RMK AO2
94908KDBQ DBQ20080602234510206/02/08 23:45:31  5-MIN KDBQ 030545Z AUTO 06009KT 10SM SCT065 17/13 A2981 1180 77 1700 060/09 RMK AO2
94908KDBQ DBQ20080602235014706/02/08 23:50:31  5-MIN KDBQ 030550Z AUTO 07010KT 10SM FEW060 16/13 A2981 1180 80 1600 060/10 RMK AO2 SLP088 T01610128 10189 20161 402720122 53004
94908KDBQ DBQ20080602235510206/02/08 23:55:31  5-MIN KDBQ 030555Z AUTO 06011KT 10SM SCT060 16/13 A2981 1190 80 1600 060/11 RMK AO2
94908KDBQ DBQ20080603000010206/03/08 00:00:38  5-MIN KDBQ 030600Z AUTO 06012KT 10SM BKN065 17/13 A2980 1190 77 1700 060/12 RMK AO2
94908KDBQ DBQ20080603000510206/03/08 00:05:31  5-MIN KDBQ 030605Z AUTO 06011KT 10SM BKN065 17/13 A2980 1190 77 1700 060/11 RMK AO2
94908KDBQ DBQ20080603001010206/03/08 00:10:31  5-MIN KDBQ 030610Z AUTO 06010KT 10SM BKN065 17/13 A2980 1190 77 1700 060/10 RMK AO2
94908KDBQ DBQ20080603001510206/03/08 00:15:32  5-MIN KDBQ 030615Z AUTO 06009KT 10SM BKN065 17/13 A2980 1190 77 1700 060/09 RMK AO2
94908KDBQ DBQ20080603002010206/03/08 00:20:31  5-MIN KDBQ 030620Z AUTO 05008KT 10SM BKN065 16/13 A2979 1200 80 1600 050/08 RMK AO2
94908KDBQ DBQ20080603002510206/03/08 00:25:31  5-MIN KDBQ 030625Z AUTO 05010KT 10SM BKN065 16/13 A2979 1200 80 1600 050/10 RMK AO2
94908KDBQ DBQ20080603003010206/03/08 00:30:31  5-MIN KDBQ 030630Z AUTO 05010KT 10SM BKN065 16/13 A2979 1200 80 1600 050/10 RMK AO2
94908KDBQ DBQ20080603003510906/03/08 00:35:31  5-MIN KDBQ 030635Z AUTO 04008KT 10SM BKN070 OVC080 16/13 A2979 1200 80 1600 040/08 RMK AO2
94908KDBQ DBQ20080603004010906/03/08 00:40:31  5-MIN KDBQ 030640Z AUTO 03010KT 10SM BKN065 OVC080 16/13 A2979 1200 80 1600 030/10 RMK AO2
94908KDBQ DBQ20080603004510906/03/08 00:45:31  5-MIN KDBQ 030645Z AUTO 04012KT 10SM BKN065 OVC080 16/13 A2978 1210 80 1700 040/12 RMK AO2
94908KDBQ DBQ20080603005012606/03/08 00:50:31  5-MIN KDBQ 030650Z AUTO 05012KT 10SM BKN065 BKN080 16/13 A2977 1210 80 1700 050/12 RMK AO2 SLP077 T01610128
94908KDBQ DBQ20080603005510906/03/08 00:55:31  5-MIN KDBQ 030655Z AUTO 06011KT 10SM BKN065 BKN080 16/13 A2977 1210 80 1700 060/11 RMK AO2
94908KDBQ DBQ20080603010010906/03/08 01:00:31  5-MIN KDBQ 030700Z AUTO 04008KT 10SM SCT065 BKN080 16/13 A2977 1220 83 1600 040/08 RMK AO2
94908KDBQ DBQ20080603010510906/03/08 01:05:31  5-MIN KDBQ 030705Z AUTO 04009KT 10SM SCT065 BKN080 15/13 A2978 1210 86 1500 030/09 RMK AO2
94908KDBQ DBQ20080603011010906/03/08 01:10:31  5-MIN KDBQ 030710Z AUTO 04009KT 10SM FEW065 SCT080 15/13 A2978 1210 86 1500 040/09 RMK AO2
94908KDBQ DBQ20080603011510206/03/08 01:15:31  5-MIN KDBQ 030715Z AUTO 04008KT 10SM FEW065 15/13 A2978 1210 86 1500 040/08 RMK AO2
94908KDBQ DBQ20080603012010206/03/08 01:20:31  5-MIN KDBQ 030720Z AUTO 04008KT 10SM FEW065 15/13 A2978 1210 86 1500 040/08 RMK AO2
94908KDBQ DBQ20080603012509906/03/08 01:25:31  5-MIN KDBQ 030725Z AUTO 04008KT 10SM CLR 14/13 A2977 1220 90 1500 040/08 RMK AO2
94908KDBQ DBQ20080603013009906/03/08 01:30:31  5-MIN KDBQ 030730Z AUTO 05009KT 10SM CLR 14/13 A2976 1230 90 1500 040/09 RMK AO2
94908KDBQ DBQ20080603013509906/03/08 01:35:31  5-MIN KDBQ 030735Z AUTO 04009KT 10SM CLR 15/13 A2976 1230 86 1600 040/09 RMK AO2
94908KDBQ DBQ20080603014009906/03/08 01:40:31  5-MIN KDBQ 030740Z AUTO 04009KT 10SM CLR 15/13 A2976 1220 86 1500 040/09 RMK AO2
94908KDBQ DBQ20080603014509906/03/08 01:45:31  5-MIN KDBQ 030745Z AUTO 04008KT 10SM CLR 14/13 A2976 1230 90 1500 040/08 RMK AO2
94908KDBQ DBQ20080603015011606/03/08 01:50:31  5-MIN KDBQ 030750Z AUTO 05009KT 10SM CLR 14/13 A2976 1230 90 1500 040/09 RMK AO2 SLP075 T01440128
94908KDBQ DBQ20080603015509906/03/08 01:55:31  5-MIN KDBQ 030755Z AUTO 04009KT 10SM CLR 14/13 A2976 1230 90 1500 040/09 RMK AO2
94908KDBQ DBQ20080603020009906/03/08 02:00:31  5-MIN KDBQ 030800Z AUTO 04008KT 10SM CLR 14/13 A2976 1230 90 1500 040/08 RMK AO2
94908KDBQ DBQ20080603020509906/03/08 02:05:31  5-MIN KDBQ 030805Z AUTO 04008KT 10SM CLR 14/13 A2976 1230 90 1500 040/08 RMK AO2
94908KDBQ DBQ20080603021009906/03/08 02:10:31  5-MIN KDBQ 030810Z AUTO 04007KT 10SM CLR 14/13 A2976 1220 90 1500 040/07 RMK AO2
94908KDBQ DBQ20080603021509906/03/08 02:15:31  5-MIN KDBQ 030815Z AUTO 04008KT 10SM CLR 14/13 A2977 1220 90 1500 040/08 RMK AO2
94908KDBQ DBQ20080603022009906/03/08 02:20:31  5-MIN KDBQ 030820Z AUTO 04008KT 10SM CLR 14/13 A2977 1220 90 1500 040/08 RMK AO2
94908KDBQ DBQ20080603022509906/03/08 02:25:31  5-MIN KDBQ 030825Z AUTO 05009KT 10SM CLR 14/13 A2976 1220 90 1500 050/09 RMK AO2
94908KDBQ DBQ20080603023009906/03/08 02:30:31  5-MIN KDBQ 030830Z AUTO 05008KT 10SM CLR 14/12 A2976 1230 86 1500 050/08 RMK AO2
94908KDBQ DBQ20080603023509906/03/08 02:35:31  5-MIN KDBQ 030835Z AUTO 06009KT 10SM CLR 14/12 A2976 1230 86 1500 050/09 RMK AO2
94908KDBQ DBQ20080603024009906/03/08 02:40:31  5-MIN KDBQ 030840Z AUTO 06009KT 10SM CLR 15/12 A2976 1230 83 1600 060/09 RMK AO2
94908KDBQ DBQ20080603024509906/03/08 02:45:31  5-MIN KDBQ 030845Z AUTO 06011KT 10SM CLR 15/12 A2975 1240 83 1600 060/11 RMK AO2
94908KDBQ DBQ20080603025012206/03/08 02:50:31  5-MIN KDBQ 030850Z AUTO 06010KT 10SM CLR 15/12 A2974 1240 83 1600 060/10 RMK AO2 SLP069 T01500122 58017
94908KDBQ DBQ20080603025510606/03/08 02:55:31  5-MIN KDBQ 030855Z AUTO 06011KT 10SM CLR 15/12 A2974 1250 83 1600 060/11 RMK AO2 PRESFR
94908KDBQ DBQ20080603030009906/03/08 03:00:31  5-MIN KDBQ 030900Z AUTO 06012KT 10SM CLR 15/12 A2974 1250 83 1600 060/12 RMK AO2
94908KDBQ DBQ20080603030509906/03/08 03:05:31  5-MIN KDBQ 030905Z AUTO 06011KT 10SM CLR 15/12 A2974 1250 83 1600 060/11 RMK AO2
94908KDBQ DBQ20080603031009906/03/08 03:10:31  5-MIN KDBQ 030910Z AUTO 06011KT 10SM CLR 15/12 A2974 1250 83 1600 060/11 RMK AO2
94908KDBQ DBQ20080603031509906/03/08 03:15:31  5-MIN KDBQ 030915Z AUTO 08010KT 10SM CLR 14/12 A2974 1250 86 1500 080/10 RMK AO2
94908KDBQ DBQ20080603032009906/03/08 03:20:31  5-MIN KDBQ 030920Z AUTO 08011KT 10SM CLR 15/12 A2974 1250 83 1600 080/11 RMK AO2
94908KDBQ DBQ20080603032509906/03/08 03:25:31  5-MIN KDBQ 030925Z AUTO 08011KT 10SM CLR 15/12 A2974 1250 83 1600 080/11 RMK AO2
94908KDBQ DBQ20080603033009906/03/08 03:30:31  5-MIN KDBQ 030930Z AUTO 08010KT 10SM CLR 15/12 A2974 1240 83 1600 080/10 RMK AO2
94908KDBQ DBQ20080603033509906/03/08 03:35:31  5-MIN KDBQ 030935Z AUTO 08011KT 10SM CLR 15/12 A2974 1250 83 1600 080/11 RMK AO2
94908KDBQ DBQ20080603034009906/03/08 03:40:31  5-MIN KDBQ 030940Z AUTO 08012KT 10SM CLR 15/12 A2973 1250 83 1600 080/12 RMK AO2
94908KDBQ DBQ20080603034510506/03/08 03:45:31  5-MIN KDBQ 030945Z AUTO 09014G19KT 10SM CLR 15/12 A2974 1250 83 1600 090/14G19 RMK AO2
94908KDBQ DBQ20080603035012206/03/08 03:50:31  5-MIN KDBQ 030950Z AUTO 09012G19KT 10SM CLR 15/12 A2973 1250 83 1600 090/12G19 RMK AO2 SLP065 T01500122
94908KDBQ DBQ20080603035509906/03/08 03:55:31  5-MIN KDBQ 030955Z AUTO 09013KT 10SM CLR 15/12 A2974 1240 83 1600 080/13 RMK AO2
94908KDBQ DBQ20080603040009906/03/08 04:00:31  5-MIN KDBQ 031000Z AUTO 08013KT 10SM CLR 15/12 A2974 1250 83 1600 080/13 RMK AO2
94908KDBQ DBQ20080603040510806/03/08 04:05:31  5-MIN KDBQ 031005Z AUTO 08013G19KT 10SM FEW041 15/12 A2974 1240 83 1600 080/13G19 RMK AO2
94908KDBQ DBQ20080603041010806/03/08 04:10:31  5-MIN KDBQ 031010Z AUTO 08011G19KT 10SM FEW041 15/12 A2974 1250 83 1600 080/11G19 RMK AO2
94908KDBQ DBQ20080603041511506/03/08 04:15:31  5-MIN KDBQ 031015Z AUTO 08009G18KT 10SM FEW043 SCT110 16/12 A2974 1240 80 1600 080/09G18 RMK AO2
94908KDBQ DBQ20080603042011506/03/08 04:20:31  5-MIN KDBQ 031020Z AUTO 08010G17KT 10SM FEW034 BKN110 16/12 A2974 1240 80 1600 080/10G17 RMK AO2
94908KDBQ DBQ20080603042511606/03/08 04:25:31  5-MIN KDBQ 031025Z AUTO 08011KT 10SM SCT034 SCT042 BKN110 16/12 A2975 1240 80 1600 080/11 RMK AO2
94908KDBQ DBQ20080603043011606/03/08 04:30:31  5-MIN KDBQ 031030Z AUTO 08009KT 10SM BKN034 BKN042 BKN110 16/12 A2975 1240 80 1600 080/09 RMK AO2
94908KDBQ DBQ20080603043511506/03/08 04:35:31  5-MIN KDBQ 031035Z AUTO 08013G17KT 10SM BKN037 OVC110 16/12 A2974 1240 80 1600 080/13G17 RMK AO2
94908KDBQ DBQ20080603044011006/03/08 04:40:31  5-MIN KDBQ 031040Z 06010G17KT 10SM BKN037 OVC110 16/12 A2974 1250 77 1600 060/10G17 RMK AO2
94908KDBQ DBQ20080603044510406/03/08 04:45:31  5-MIN KDBQ 031045Z 06012KT 10SM BKN037 OVC049 16/12 A2973 1250 77 1700 060/12 RMK AO2
94908KDBQ DBQ20080603045013406/03/08 04:50:31  5-MIN KDBQ 031050Z 06008G16KT 10SM BKN037 BKN049 OVC100 16/12 A2973 1250 77 1600 060/08G16 RMK AO2 SLP065 T01560117
94908KDBQ DBQ20080603045511106/03/08 04:55:31  5-MIN KDBQ 031055Z 06009KT 10SM SCT037 BKN049 BKN100 16/12 A2973 1260 77 1700 060/09 RMK AO2
94908KDBQ DBQ20080603050011106/03/08 05:00:31  5-MIN KDBQ 031100Z 06009KT 10SM SCT039 SCT049 BKN100 16/12 A2973 1250 77 1600 060/09 RMK AO2
94908KDBQ DBQ20080603050511106/03/08 05:05:31  5-MIN KDBQ 031105Z 06008KT 10SM FEW039 SCT049 BKN100 16/12 A2974 1250 77 1600 060/08 RMK AO2
94908KDBQ DBQ20080603051010406/03/08 05:10:31  5-MIN KDBQ 031110Z 05009KT 10SM FEW048 SCT100 15/12 A2973 1250 80 1600 050/09 RMK AO2
94908KDBQ DBQ20080603051509706/03/08 05:15:31  5-MIN KDBQ 031115Z 06008KT 10SM FEW100 16/12 A2973 1250 77 1600 060/08 RMK AO2
94908KDBQ DBQ20080603052009706/03/08 05:20:31  5-MIN KDBQ 031120Z 06010KT 10SM FEW100 16/12 A2973 1260 77 1700 060/10 RMK AO2
94908KDBQ DBQ20080603052510006/03/08 05:25:31  5-MIN KDBQ 031125Z 07011G17KT 10SM CLR 16/12 A2972 1270 77 1700 070/11G17 RMK AO2
94908KDBQ DBQ20080603053009406/03/08 05:30:31  5-MIN KDBQ 031130Z 06010KT 10SM CLR 16/12 A2972 1270 77 1700 060/10 RMK AO2
94908KDBQ DBQ20080603053509406/03/08 05:35:31  5-MIN KDBQ 031135Z 07011KT 10SM CLR 16/12 A2972 1270 77 1700 070/11 RMK AO2
94908KDBQ DBQ20080603054009406/03/08 05:40:31  5-MIN KDBQ 031140Z 07012KT 10SM CLR 16/12 A2971 1270 77 1700 070/12 RMK AO2
94908KDBQ DBQ20080603054509406/03/08 05:45:31  5-MIN KDBQ 031145Z 08010KT 10SM CLR 16/12 A2971 1270 77 1700 080/10 RMK AO2
94908KDBQ DBQ20080603055013506/03/08 05:50:31  5-MIN KDBQ 031150Z 08013KT 10SM CLR 16/12 A2971 1270 77 1700 080/13 RMK AO2 SLP059 70002 T01560117 10167 20144 56022
94908KDBQ DBQ20080603055509406/03/08 05:55:31  5-MIN KDBQ 031155Z 07011KT 10SM CLR 16/11 A2971 1280 74 1700 070/11 RMK AO2
94908KDBQ DBQ20080603060009406/03/08 06:00:31  5-MIN KDBQ 031200Z 07012KT 10SM CLR 15/11 A2971 1280 77 1600 070/12 RMK AO2
94908KDBQ DBQ20080603060509406/03/08 06:05:31  5-MIN KDBQ 031205Z 06012KT 10SM CLR 16/11 A2972 1260 74 1700 060/12 RMK AO2
94908KDBQ DBQ20080603061009406/03/08 06:10:31  5-MIN KDBQ 031210Z 06011KT 10SM CLR 16/11 A2972 1270 74 1700 060/11 RMK AO2
94908KDBQ DBQ20080603061509406/03/08 06:15:31  5-MIN KDBQ 031215Z 07010KT 10SM CLR 15/11 A2972 1260 77 1600 070/10 RMK AO2
94908KDBQ DBQ20080603062009406/03/08 06:20:31  5-MIN KDBQ 031220Z 06010KT 10SM CLR 16/11 A2972 1260 74 1700 060/10 RMK AO2
94908KDBQ DBQ20080603062511206/03/08 06:25:31  5-MIN KDBQ 031225Z 05011KT 10SM CLR 15/11 A2971 1270 77 1600 050/11 RMK AO2 LTG DSNT SW AND W
94908KDBQ DBQ20080603063011206/03/08 06:30:31  5-MIN KDBQ 031230Z 04009KT 10SM CLR 15/11 A2971 1270 77 1600 040/09 RMK AO2 LTG DSNT SW AND W
94908KDBQ DBQ20080603063511206/03/08 06:35:31  5-MIN KDBQ 031235Z 04011KT 10SM CLR 15/12 A2972 1260 80 1600 040/11 RMK AO2 LTG DSNT SW AND W
94908KDBQ DBQ20080603064011206/03/08 06:40:31  5-MIN KDBQ 031240Z 04011KT 10SM CLR 15/11 A2972 1260 77 1600 040/11 RMK AO2 LTG DSNT W AND NW
94908KDBQ DBQ20080603064511506/03/08 06:45:31  5-MIN KDBQ 031245Z 04013KT 10SM FEW100 15/11 A2971 1270 77 1600 040/13 RMK AO2 LTG DSNT W AND NW
94908KDBQ DBQ20080603065013806/03/08 06:50:31  5-MIN KDBQ 031250Z 04015G20KT 10SM SCT100 14/11 A2969 1290 80 1600 030/15G20 RMK AO2 LTG DSNT W AND NW SLP054 T01440111
94908KDBQ DBQ20080603065512506/03/08 06:55:31  5-MIN KDBQ 031255Z 04014G20KT 10SM -RA BKN100 14/11 A2969 1290 80 1600 040/14G20 RMK AO2 LTG DSNT SW P0000
94908KDBQ DBQ20080603070012506/03/08 07:00:31  5-MIN KDBQ 031300Z 04013KT 10SM -RA BKN100 14/11 A2969 1290 80 1600 040/13 RMK AO2 LTG DSNT SW AND W P0000
94908KDBQ DBQ20080603070516206/03/08 07:05:31  5-MIN KDBQ 031305Z 04016G20KT 10SM VCTS -RA FEW065 BKN100 14/11 A2970 1290 80 1600 040/16G20 RMK AO2 LTG DSNT SW AND W TSB02 OCNL LTGCC W P0000
94908KDBQ DBQ20080603071015706/03/08 07:10:31  5-MIN KDBQ 031310Z 04014G20KT 8SM VCTS -RA SCT050 OVC100 14/11 A2971 1270 83 1500 040/14G20 RMK AO2 LTG DSNT S-NW TSB02 OCNL LTGCC W P0000
94908KDBQ DBQ20080603071516706/03/08 07:15:31  5-MIN KDBQ 031315Z 03008G18KT 4SM VCTS +RA BR BKN041 OVC100 14/12 A2973 1250 86 1500 020/08G18 RMK AO2 LTG DSNT S-NW TSB02 PRESRR OCNL LTGCC W P0002
94908KDBQ DBQ20080603072015806/03/08 07:20:31  5-MIN KDBQ 031320Z 03007KT 3SM RA BR BKN035 OVC100 14/12 A2975 1240 86 1400 030/07 RMK AO2 LTG DSNT S-NW TSB02E17 PRESRR OCNL LTGCC W P0004
94908KDBQ DBQ20080603072515106/03/08 07:25:31  5-MIN KDBQ 031325Z 03008KT 3SM RA BR BKN033 OVC100 14/12 A2975 1230 86 1400 030/08 RMK AO2 LTG DSNT SE-W TSB02E17 OCNL LTGCC W P0006
94908KDBQ DBQ20080603073014006/03/08 07:30:31  5-MIN KDBQ 031330Z 03007KT 4SM VCTS -RA BR OVC038 14/12 A2976 1230 86 1400 030/07 RMK AO2 LTG DSNT SE-W TSB02E17B29 P0007
94908KDBQ DBQ20080603073515606/03/08 07:35:31  5-MIN KDBQ 031335Z 04006KT 4SM VCTS RA BR OVC038 14/12 A2976 1220 90 1400 040/06 RMK AO2 LTG DSNT ALQDS TSB02E17B29 OCNL LTGCC OVHD P0008
94908KDBQ DBQ20080603074015606/03/08 07:40:31  5-MIN KDBQ 031340Z 04008KT 4SM VCTS RA BR OVC034 14/12 A2976 1220 90 1400 040/08 RMK AO2 LTG DSNT ALQDS TSB02E17B29 OCNL LTGCC OVHD P0010
94908KDBQ DBQ20080603074515406/03/08 07:45:31  5-MIN KDBQ 031345Z 04006KT 3SM RA BR OVC030 13/12 A2977 1220 93 1300 040/06 RMK AO2 LTG DSNT ALQDS TSB02E17B29E44 OCNL LTGCC OVHD P0011
94908KDBQ DBQ20080603075017206/03/08 07:50:31  5-MIN KDBQ 031350Z 04008KT 3SM +RA BR OVC030 13/12 A2977 1220 93 1300 040/08 RMK AO2 LTG DSNT ALQDS TSB02E17B29E44 SLP080 OCNL LTGCC OVHD P0014 T01330122
94908KDBQ DBQ20080603075512306/03/08 07:55:31  5-MIN KDBQ 031355Z 03009KT 3SM RA BR OVC030 13/12 A2977 1220 93 1300 030/09 RMK AO2 LTG DSNT ALQDS P0000
94908KDBQ DBQ20080603080012306/03/08 08:00:31  5-MIN KDBQ 031400Z 03008KT 3SM RA BR OVC028 13/12 A2976 1220 93 1400 030/08 RMK AO2 LTG DSNT ALQDS P0002
94908KDBQ DBQ20080603080512406/03/08 08:05:31  5-MIN KDBQ 031405Z 04010KT 3SM +RA BR OVC030 13/12 A2976 1230 93 1400 040/10 RMK AO2 LTG DSNT ALQDS P0005
94908KDBQ DBQ20080603081012306/03/08 08:10:31  5-MIN KDBQ 031410Z 03010KT 3SM RA BR OVC030 13/12 A2976 1230 93 1400 030/10 RMK AO2 LTG DSNT ALQDS P0006
94908KDBQ DBQ20080603081512306/03/08 08:15:31  5-MIN KDBQ 031415Z 04010KT 3SM RA BR OVC030 13/12 A2975 1230 93 1400 040/10 RMK AO2 LTG DSNT ALQDS P0009
94908KDBQ DBQ20080603082012306/03/08 08:20:31  5-MIN KDBQ 031420Z 04011KT 3SM RA BR OVC030 13/12 A2975 1240 93 1400 040/11 RMK AO2 LTG DSNT ALQDS P0010
94908KDBQ DBQ20080603082512306/03/08 08:25:31  5-MIN KDBQ 031425Z 04011KT 3SM RA BR OVC030 13/12 A2975 1240 93 1400 040/11 RMK AO2 LTG DSNT ALQDS P0012
94908KDBQ DBQ20080603083012306/03/08 08:30:31  5-MIN KDBQ 031430Z 04009KT 4SM RA BR OVC030 13/12 A2975 1240 93 1400 040/09 RMK AO2 LTG DSNT ALQDS P0013
94908KDBQ DBQ20080603083512306/03/08 08:35:31  5-MIN KDBQ 031435Z 05010KT 4SM RA BR OVC030 13/12 A2975 1240 93 1400 050/10 RMK AO2 LTG DSNT ALQDS P0015
94908KDBQ DBQ20080603084012306/03/08 08:40:31  5-MIN KDBQ 031440Z 06009KT 4SM RA BR OVC030 13/12 A2975 1240 93 1400 060/09 RMK AO2 LTG DSNT ALQDS P0016
94908KDBQ DBQ20080603084512206/03/08 08:45:31  5-MIN KDBQ 031445Z 07012KT 4SM RA BR OVC030 13/12 A2974 1250 93 1400 060/12 RMK AO2 LTG DSNT SE-W P0018
94908KDBQ DBQ20080603085010806/03/08 08:50:31  5-MIN KDBQ 031450Z 07011KT 4SM RA BR OVC028 13/12 A2973 1250 93 1400 070/11 RMK AO2 P0020
94908KDBQ DBQ20080603085510806/03/08 08:55:31  5-MIN KDBQ 031455Z 08010KT 3SM RA BR OVC028 13/12 A2973 1260 93 1400 080/10 RMK AO2 P0001
94908KDBQ DBQ20080603090010806/03/08 09:00:31  5-MIN KDBQ 031500Z 08011KT 3SM RA BR OVC028 14/12 A2973 1260 90 1500 080/11 RMK AO2 P0003
94908KDBQ DBQ20080603090510806/03/08 09:05:31  5-MIN KDBQ 031505Z 10011KT 4SM RA BR OVC028 13/12 A2972 1270 93 1400 100/11 RMK AO2 P0004
94908KDBQ DBQ20080603091012106/03/08 09:10:31  5-MIN KDBQ 031510Z 11016G21KT 4SM RA BR OVC028 13/12 A2969 1290 93 1400 110/16G21 RMK AO2 PRESFR P0006
94908KDBQ DBQ20080603091513906/03/08 09:15:31  5-MIN KDBQ 031515Z 12022G30KT 4SM RA BR OVC032 13/12 A2964 1340 93 1500 120/22G30 RMK AO2 PK WND 12030/1515 PRESFR P0007
94908KDBQ DBQ20080603092013906/03/08 09:20:31  5-MIN KDBQ 031520Z 12025G32KT 4SM RA BR OVC032 13/12 A2960 1370 93 1500 120/25G32 RMK AO2 PK WND 12032/1519 PRESFR P0008
94908KDBQ DBQ20080603092513906/03/08 09:25:31  5-MIN KDBQ 031525Z 12023G32KT 3SM RA BR OVC030 13/12 A2960 1380 93 1500 120/23G32 RMK AO2 PK WND 13032/1524 PRESFR P0008
94908KDBQ DBQ20080603093014006/03/08 09:30:31  5-MIN KDBQ 031530Z 12026G35KT 4SM -RA BR BKN030 13/12 A2958 1400 93 1600 120/26G35 RMK AO2 PK WND 12035/1530 PRESFR P0010
94908KDBQ DBQ20080603093513706/03/08 09:35:31  5-MIN KDBQ 031535Z 11024G35KT 7SM -RA BKN036 13/12 A2956 1420 93 1600 110/24G35 RMK AO2 PK WND 12035/1530 PRESFR P0010
94908KDBQ DBQ20080603094013906/03/08 09:40:31  5-MIN KDBQ 031540Z 11024G36KT 8SM BKN040 13/12 A2955 1430 93 1600 110/24G36 RMK AO2 PK WND 11036/1538 RAE39 PRESFR P0010
94908KDBQ DBQ20080603094513206/03/08 09:45:31  5-MIN KDBQ 031545Z 11021G36KT 9SM SCT034 13/12 A2956 1410 93 1600 110/21G36 RMK AO2 PK WND 11036/1538 RAE39 P0010
94908KDBQ DBQ20080603095014906/03/08 09:50:31  5-MIN KDBQ 031550Z 11018G29KT 9SM SCT034 14/13 A2956 1410 93 1700 110/18G29 RMK AO2 PK WND 11036/1538 RAE39 SLP007 P0010 T01390128
94908KDBQ DBQ20080603095511506/03/08 09:55:31  5-MIN KDBQ 031555Z 09015G26KT 9SM FEW041 14/13 A2959 1390 93 1600 090/15G26 RMK AO2 PRESRR P0001
94908KDBQ DBQ20080603100010806/03/08 10:00:31  5-MIN KDBQ 031600Z 05012G19KT 9SM FEW060 14/13 A2959 1390 90 1700 050/12G19 RMK AO2 P0001
94908KDBQ DBQ20080603100511906/03/08 10:05:31  5-MIN KDBQ 031605Z 05013G19KT 9SM SCT010 14/13 A2959 1390 93 1600 050/13G19 RMK AO2 WSHFT 1549 P0001
94908KDBQ DBQ20080603101013106/03/08 10:10:31  5-MIN KDBQ 031610Z 06012G20KT 9SM BKN010 14/13 A2959 1380 90 1700 060/12G20 RMK AO2 WSHFT 1549 CIG 008V013 P0001
94908KDBQ DBQ20080603101513106/03/08 10:15:31  5-MIN KDBQ 031615Z 04011G21KT 9SM BKN010 14/13 A2959 1390 93 1700 040/11G21 RMK AO2 WSHFT 1549 CIG 008V013 P0001
94908KDBQ DBQ20080603102013106/03/08 10:20:31  5-MIN KDBQ 031620Z 04011G21KT 9SM BKN010 15/13 A2959 1380 90 1700 040/11G21 RMK AO2 WSHFT 1549 CIG 008V013 P0001
94908KDBQ DBQ20080603102512506/03/08 10:25:31  5-MIN KDBQ 031625Z 03012KT 8SM OVC010 15/13 A2959 1390 90 1700 030/12 RMK AO2 WSHFT 1549 CIG 008V013 P0001
94908KDBQ DBQ20080603103012506/03/08 10:30:31  5-MIN KDBQ 031630Z 04010KT 7SM OVC010 15/13 A2959 1390 90 1700 040/10 RMK AO2 WSHFT 1549 CIG 008V013 P0001
94908KDBQ DBQ20080603103513106/03/08 10:35:31  5-MIN KDBQ 031635Z 05009G17KT 7SM OVC010 15/14 A2960 1380 93 1700 040/09G17 RMK AO2 WSHFT 1549 CIG 008V013 P0001
94908KDBQ DBQ20080603104011306/03/08 10:40:31  5-MIN KDBQ 031640Z 04010KT 8SM OVC012 16/14 A2960 1370 90 1800 040/10 RMK AO2 WSHFT 1549 P0001
94908KDBQ DBQ20080603104511306/03/08 10:45:31  5-MIN KDBQ 031645Z 03010KT 8SM OVC012 16/14 A2961 1370 90 1800 030/10 RMK AO2 WSHFT 1549 P0001
94908KDBQ DBQ20080603105013206/03/08 10:50:31  5-MIN KDBQ 031650Z 04012KT 8SM BKN009 OVC012 16/14 A2960 1370 90 1800 040/12 RMK AO2 WSHFT 1549 CIG 006V011 P0001
94908KDBQ DBQ20080603105511506/03/08 10:55:31  5-MIN KDBQ 031655Z 04014KT 9SM BKN009 OVC012 16/13 A2961 1370 86 1800 040/14 RMK AO2 CIG 006V012
94908KDBQ DBQ20080603110011506/03/08 11:00:31  5-MIN KDBQ 031700Z 05013KT 9SM BKN009 OVC012 16/13 A2962 1360 86 1800 050/13 RMK AO2 CIG 006V012
94908KDBQ DBQ20080603110511006/03/08 11:05:31  5-MIN KDBQ 031705Z 05011G18KT 10SM BKN009 OVC012 16/13 A2962 1360 86 1800 050/11G18 RMK AO2
94908KDBQ DBQ20080603111011006/03/08 11:10:31  5-MIN KDBQ 031710Z 04014G18KT 10SM BKN009 OVC012 16/13 A2962 1350 86 1800 040/14G18 RMK AO2
94908KDBQ DBQ20080603111511006/03/08 11:15:31  5-MIN KDBQ 031715Z 05015G22KT 10SM BKN009 OVC012 16/13 A2963 1350 86 1800 050/15G22 RMK AO2
94908KDBQ DBQ20080603112011006/03/08 11:20:31  5-MIN KDBQ 031720Z 04011G22KT 10SM BKN009 OVC012 16/14 A2963 1340 86 1800 040/11G22 RMK AO2
94908KDBQ DBQ20080603112511006/03/08 11:25:31  5-MIN KDBQ 031725Z 04012G18KT 10SM BKN009 OVC012 16/14 A2964 1340 86 1800 040/12G18 RMK AO2
94908KDBQ DBQ20080603113011006/03/08 11:30:31  5-MIN KDBQ 031730Z 05012G18KT 10SM BKN009 OVC012 16/14 A2964 1330 86 1800 050/12G18 RMK AO2
94908KDBQ DBQ20080603113510406/03/08 11:35:31  5-MIN KDBQ 031735Z 05012KT 10SM BKN009 OVC012 17/14 A2965 1330 83 1900 050/12 RMK AO2
94908KDBQ DBQ20080603114011006/03/08 11:40:31  5-MIN KDBQ 031740Z 05012G17KT 10SM BKN009 OVC012 17/14 A2965 1330 83 1900 050/12G17 RMK AO2
94908KDBQ DBQ20080603114511006/03/08 11:45:31  5-MIN KDBQ 031745Z 07013G17KT 10SM BKN009 OVC012 16/13 A2966 1320 83 1800 060/13G17 RMK AO2
94908KDBQ DBQ20080603115014506/03/08 11:50:31  5-MIN KDBQ 031750Z 06011KT 10SM BKN009 OVC012 16/13 A2966 1320 83 1800 060/11 RMK AO2 SLP042 60047 T01610133 10167 20133 50013
94908KDBQ DBQ20080603115510206/03/08 11:55:31  5-MIN KDBQ 031755Z 06013G18KT 9SM OVC012 16/13 A2966 1320 83 1800 060/13G18 RMK AO2
94908KDBQ DBQ20080603120009606/03/08 12:00:31  5-MIN KDBQ 031800Z 06013KT 9SM OVC012 17/13 A2966 1320 80 1900 060/13 RMK AO2
94908KDBQ DBQ20080603120509606/03/08 12:05:31  5-MIN KDBQ 031805Z 06011KT 9SM OVC012 17/14 A2966 1320 83 1900 050/11 RMK AO2
94908KDBQ DBQ20080603121009606/03/08 12:10:31  5-MIN KDBQ 031810Z 06012KT 9SM OVC012 17/14 A2967 1310 83 1900 060/12 RMK AO2
94908KDBQ DBQ20080603121509606/03/08 12:15:31  5-MIN KDBQ 031815Z 05013KT 9SM OVC012 17/13 A2967 1310 80 1800 050/13 RMK AO2
94908KDBQ DBQ20080603122009606/03/08 12:20:31  5-MIN KDBQ 031820Z 06012KT 9SM OVC012 17/13 A2967 1310 80 1800 060/12 RMK AO2
94908KDBQ DBQ20080603122510206/03/08 12:25:31  5-MIN KDBQ 031825Z 06010G18KT 9SM OVC014 17/13 A2968 1300 80 1800 060/10G18 RMK AO2
94908KDBQ DBQ20080603123009606/03/08 12:30:31  5-MIN KDBQ 031830Z 05011KT 8SM OVC014 17/13 A2968 1300 80 1800 050/11 RMK AO2
94908KDBQ DBQ20080603123510206/03/08 12:35:31  5-MIN KDBQ 031835Z 05007G16KT 8SM OVC014 16/13 A2969 1300 83 1800 050/07G16 RMK AO2
94908KDBQ DBQ20080603124009606/03/08 12:40:31  5-MIN KDBQ 031840Z 05007KT 8SM OVC014 17/13 A2969 1290 80 1800 050/07 RMK AO2
94908KDBQ DBQ20080603124509606/03/08 12:45:31  5-MIN KDBQ 031845Z 05008KT 8SM OVC014 16/13 A2970 1290 83 1800 050/08 RMK AO2
94908KDBQ DBQ20080603125011306/03/08 12:50:31  5-MIN KDBQ 031850Z 05009KT 8SM OVC014 16/13 A2969 1290 83 1800 050/09 RMK AO2 SLP053 T01610133
94908KDBQ DBQ20080603125509606/03/08 12:55:31  5-MIN KDBQ 031855Z 05009KT 8SM OVC014 16/13 A2970 1290 83 1800 050/09 RMK AO2
94908KDBQ DBQ20080603130009606/03/08 13:00:31  5-MIN KDBQ 031900Z 06012KT 8SM OVC014 16/13 A2969 1290 83 1800 060/12 RMK AO2
94908KDBQ DBQ20080603130509606/03/08 13:05:31  5-MIN KDBQ 031905Z 05011KT 8SM OVC014 16/13 A2969 1290 83 1800 050/11 RMK AO2
94908KDBQ DBQ20080603131009606/03/08 13:10:31  5-MIN KDBQ 031910Z 06012KT 7SM OVC014 16/13 A2969 1290 83 1800 060/12 RMK AO2
94908KDBQ DBQ20080603131509606/03/08 13:15:31  5-MIN KDBQ 031915Z 06012KT 7SM OVC014 16/13 A2968 1300 83 1800 050/12 RMK AO2
94908KDBQ DBQ20080603132009606/03/08 13:20:31  5-MIN KDBQ 031920Z 06010KT 7SM OVC014 17/13 A2969 1300 80 1800 060/10 RMK AO2
94908KDBQ DBQ20080603132509606/03/08 13:25:31  5-MIN KDBQ 031925Z 05010KT 7SM OVC014 17/13 A2968 1300 80 1800 050/10 RMK AO2
94908KDBQ DBQ20080603133009606/03/08 13:30:31  5-MIN KDBQ 031930Z 05011KT 7SM OVC014 17/14 A2968 1300 83 1800 040/11 RMK AO2
94908KDBQ DBQ20080603133509606/03/08 13:35:31  5-MIN KDBQ 031935Z 05011KT 7SM OVC014 17/13 A2968 1300 80 1800 050/11 RMK AO2
94908KDBQ DBQ20080603134009606/03/08 13:40:31  5-MIN KDBQ 031940Z 04011KT 7SM OVC014 17/14 A2967 1310 83 1800 040/11 RMK AO2
94908KDBQ DBQ20080603134509606/03/08 13:45:31  5-MIN KDBQ 031945Z 04010KT 8SM OVC014 17/14 A2967 1310 83 1800 040/10 RMK AO2
94908KDBQ DBQ20080603135011306/03/08 13:50:31  5-MIN KDBQ 031950Z 04010KT 8SM OVC014 17/14 A2967 1310 80 1900 040/10 RMK AO2 SLP046 T01720139
94908KDBQ DBQ20080603135509606/03/08 13:55:31  5-MIN KDBQ 031955Z 04011KT 8SM OVC014 17/14 A2967 1310 80 1900 040/11 RMK AO2
94908KDBQ DBQ20080603140009606/03/08 14:00:31  5-MIN KDBQ 032000Z 05010KT 8SM OVC014 17/14 A2967 1310 80 1900 050/10 RMK AO2
94908KDBQ DBQ20080603140510206/03/08 14:05:31  5-MIN KDBQ 032005Z 05012G17KT 8SM OVC014 17/14 A2967 1310 80 1900 050/12G17 RMK AO2
94908KDBQ DBQ20080603141010206/03/08 14:10:31  5-MIN KDBQ 032010Z 05012G17KT 8SM OVC014 17/14 A2967 1310 80 1900 040/12G17 RMK AO2
94908KDBQ DBQ20080603141509606/03/08 14:15:31  5-MIN KDBQ 032015Z 05015KT 8SM OVC014 18/14 A2967 1310 78 2000 040/15 RMK AO2
94908KDBQ DBQ20080603142010306/03/08 14:20:31  5-MIN KDBQ 032020Z 05013KT 8SM BKN014 OVC029 18/14 A2966 1320 78 2000 050/13 RMK AO2
94908KDBQ DBQ20080603142510306/03/08 14:25:31  5-MIN KDBQ 032025Z 05013KT 8SM BKN014 OVC029 18/14 A2967 1310 78 2000 050/13 RMK AO2
94908KDBQ DBQ20080603143010306/03/08 14:30:31  5-MIN KDBQ 032030Z 05014KT 8SM BKN014 OVC029 18/14 A2967 1320 78 2000 050/14 RMK AO2
94908KDBQ DBQ20080603143510906/03/08 14:35:31  5-MIN KDBQ 032035Z 05012G18KT 8SM BKN014 OVC029 18/14 A2967 1310 78 2000 050/12G18 RMK AO2
94908KDBQ DBQ20080603144010306/03/08 14:40:31  5-MIN KDBQ 032040Z 05011KT 8SM BKN014 OVC029 18/14 A2967 1310 78 2000 050/11 RMK AO2
94908KDBQ DBQ20080603144510306/03/08 14:45:31  5-MIN KDBQ 032045Z 04013KT 8SM BKN014 OVC029 18/14 A2966 1320 78 2000 040/13 RMK AO2
94908KDBQ DBQ20080603145012606/03/08 14:50:31  5-MIN KDBQ 032050Z 04012KT 9SM BKN014 OVC029 18/14 A2966 1320 78 2000 040/12 RMK AO2 SLP042 T01780139 55023
94908KDBQ DBQ20080603145510306/03/08 14:55:31  5-MIN KDBQ 032055Z 05013KT 9SM BKN014 OVC029 18/14 A2966 1320 78 2000 050/13 RMK AO2
94908KDBQ DBQ20080603150010306/03/08 15:00:31  5-MIN KDBQ 032100Z 06012KT 9SM BKN014 OVC029 18/14 A2966 1320 78 2000 060/12 RMK AO2
94908KDBQ DBQ20080603150510306/03/08 15:05:31  5-MIN KDBQ 032105Z 05012KT 9SM BKN014 OVC029 18/14 A2966 1320 78 2000 050/12 RMK AO2
94908KDBQ DBQ20080603151009606/03/08 15:10:31  5-MIN KDBQ 032110Z 06012KT 9SM OVC014 18/14 A2966 1320 78 2000 060/12 RMK AO2
94908KDBQ DBQ20080603151509606/03/08 15:15:31  5-MIN KDBQ 032115Z 06012KT 9SM OVC014 18/14 A2965 1330 78 2000 060/12 RMK AO2
94908KDBQ DBQ20080603152009606/03/08 15:20:31  5-MIN KDBQ 032120Z 06011KT 9SM OVC014 18/14 A2966 1320 78 2000 060/11 RMK AO2
94908KDBQ DBQ20080603152509606/03/08 15:25:31  5-MIN KDBQ 032125Z 06011KT 9SM OVC014 18/14 A2966 1320 78 2100 060/11 RMK AO2
94908KDBQ DBQ20080603153010306/03/08 15:30:31  5-MIN KDBQ 032130Z 06013KT 9SM BKN014 OVC029 18/14 A2965 1330 78 2000 060/13 RMK AO2
94908KDBQ DBQ20080603153510306/03/08 15:35:31  5-MIN KDBQ 032135Z 06013KT 9SM BKN014 OVC029 18/14 A2965 1330 78 2000 060/13 RMK AO2
94908KDBQ DBQ20080603154010306/03/08 15:40:31  5-MIN KDBQ 032140Z 05012KT 9SM BKN016 OVC029 18/14 A2965 1330 78 2000 050/12 RMK AO2
94908KDBQ DBQ20080603154510306/03/08 15:45:31  5-MIN KDBQ 032145Z 06010KT 9SM SCT016 OVC029 18/14 A2965 1330 78 2000 060/10 RMK AO2
94908KDBQ DBQ20080603155010306/03/08 15:50:31  5-MIN KDBQ 032150Z 06014KT 9SM FEW016 OVC031 18/14 A2965 1330 78 2100 060/14 RMK AO2
94908KDBQ DBQ20080603155510306/03/08 15:55:31  5-MIN KDBQ 032155Z 07011KT 9SM FEW016 OVC031 18/14 A2965 1330 78 2000 070/11 RMK AO2
94908KDBQ DBQ20080603160010306/03/08 16:00:31  5-MIN KDBQ 032200Z 07012KT 9SM FEW016 OVC031 18/14 A2965 1330 78 2000 070/12 RMK AO2
94908KDBQ DBQ20080603160510306/03/08 16:05:31  5-MIN KDBQ 032205Z 07010KT 8SM FEW016 OVC031 18/14 A2965 1330 81 2000 070/10 RMK AO2
94908KDBQ DBQ20080603161010306/03/08 16:10:31  5-MIN KDBQ 032210Z 07012KT 8SM FEW016 OVC031 18/14 A2965 1330 78 2000 070/12 RMK AO2
94908KDBQ DBQ20080603161510906/03/08 16:15:31  5-MIN KDBQ 032215Z 07011G16KT 8SM FEW016 OVC031 18/14 A2965 1330 78 2000 070/11G16 RMK AO2
94908KDBQ DBQ20080603162010906/03/08 16:20:31  5-MIN KDBQ 032220Z 07013G17KT 8SM FEW016 OVC031 18/14 A2965 1330 78 2000 070/13G17 RMK AO2
94908KDBQ DBQ20080603162510306/03/08 16:25:31  5-MIN KDBQ 032225Z 07012KT 8SM FEW016 OVC031 18/14 A2965 1330 78 2000 060/12 RMK AO2
94908KDBQ DBQ20080603163010306/03/08 16:30:31  5-MIN KDBQ 032230Z 06010KT 8SM FEW016 OVC031 18/14 A2965 1330 78 2000 060/10 RMK AO2
94908KDBQ DBQ20080603163510306/03/08 16:35:31  5-MIN KDBQ 032235Z 07012KT 8SM FEW016 OVC031 18/14 A2965 1330 78 2000 070/12 RMK AO2
94908KDBQ DBQ20080603164010306/03/08 16:40:31  5-MIN KDBQ 032240Z 06011KT 8SM FEW016 OVC031 18/14 A2965 1330 78 2000 060/11 RMK AO2
94908KDBQ DBQ20080603164510306/03/08 16:45:31  5-MIN KDBQ 032245Z 06010KT 8SM FEW016 OVC031 18/14 A2966 1320 78 2000 060/10 RMK AO2
94908KDBQ DBQ20080603165012006/03/08 16:50:31  5-MIN KDBQ 032250Z 06011KT 8SM FEW016 OVC031 18/14 A2966 1320 78 2000 060/11 RMK AO2 SLP040 T01780139
94908KDBQ DBQ20080603165510306/03/08 16:55:31  5-MIN KDBQ 032255Z 06009KT 8SM FEW016 OVC031 18/14 A2965 1330 78 2000 060/09 RMK AO2
94908KDBQ DBQ20080603170010306/03/08 17:00:31  5-MIN KDBQ 032300Z 05009KT 8SM FEW016 OVC031 18/14 A2965 1330 78 2000 050/09 RMK AO2
94908KDBQ DBQ20080603170509606/03/08 17:05:31  5-MIN KDBQ 032305Z 05010KT 8SM OVC031 18/14 A2965 1330 78 2000 050/10 RMK AO2
94908KDBQ DBQ20080603171009606/03/08 17:10:31  5-MIN KDBQ 032310Z 05013KT 8SM OVC031 17/14 A2965 1330 80 1900 050/13 RMK AO2
94908KDBQ DBQ20080603171509606/03/08 17:15:31  5-MIN KDBQ 032315Z 06011KT 8SM OVC031 17/14 A2965 1330 80 1900 060/11 RMK AO2
94908KDBQ DBQ20080603172009606/03/08 17:20:31  5-MIN KDBQ 032320Z 07011KT 8SM OVC031 17/14 A2965 1330 80 1900 070/11 RMK AO2
94908KDBQ DBQ20080603172509606/03/08 17:25:31  5-MIN KDBQ 032325Z 06010KT 8SM OVC031 17/14 A2965 1330 80 1900 060/10 RMK AO2
94908KDBQ DBQ20080603173009606/03/08 17:30:31  5-MIN KDBQ 032330Z 07009KT 8SM OVC031 17/14 A2965 1330 80 1900 060/09 RMK AO2
94908KDBQ DBQ20080603173509606/03/08 17:35:31  5-MIN KDBQ 032335Z 07008KT 8SM OVC033 17/14 A2966 1320 80 1900 070/08 RMK AO2
94908KDBQ DBQ20080603174009606/03/08 17:40:31  5-MIN KDBQ 032340Z 06007KT 8SM OVC033 17/14 A2966 1320 80 1900 060/07 RMK AO2
94908KDBQ DBQ20080603174509606/03/08 17:45:31  5-MIN KDBQ 032345Z 06009KT 8SM OVC031 17/14 A2965 1330 80 1900 060/09 RMK AO2
94908KDBQ DBQ20080603175013106/03/08 17:50:31  5-MIN KDBQ 032350Z 07010KT 8SM OVC033 17/14 A2966 1320 80 1900 070/10 RMK AO2 SLP040 T01720139 10183 20161 50001
94908KDBQ DBQ20080603175509606/03/08 17:55:31  5-MIN KDBQ 032355Z 06008KT 8SM OVC033 17/14 A2966 1320 80 1900 060/08 RMK AO2
94908KDBQ DBQ20080603180009606/03/08 18:00:31  5-MIN KDBQ 040000Z 07009KT 8SM OVC033 17/14 A2966 1320 80 1900 070/09 RMK AO2
94908KDBQ DBQ20080603180509606/03/08 18:05:31  5-MIN KDBQ 040005Z 06009KT 8SM OVC035 17/14 A2966 1320 80 1900 060/09 RMK AO2
94908KDBQ DBQ20080603181009606/03/08 18:10:31  5-MIN KDBQ 040010Z 07009KT 8SM OVC035 17/14 A2966 1320 80 1900 070/09 RMK AO2
94908KDBQ DBQ20080603181509606/03/08 18:15:31  5-MIN KDBQ 040015Z 06009KT 8SM OVC035 17/14 A2966 1320 80 1900 060/09 RMK AO2
94908KDBQ DBQ20080603182009606/03/08 18:20:31  5-MIN KDBQ 040020Z 06009KT 8SM OVC035 17/14 A2966 1320 80 1900 060/09 RMK AO2
94908KDBQ DBQ20080603182509606/03/08 18:25:31  5-MIN KDBQ 040025Z 07008KT 8SM OVC035 17/14 A2966 1320 80 1900 060/08 RMK AO2
94908KDBQ DBQ20080603183009606/03/08 18:30:31  5-MIN KDBQ 040030Z 07011KT 8SM OVC035 17/14 A2966 1320 80 1900 070/11 RMK AO2
94908KDBQ DBQ20080603183509606/03/08 18:35:31  5-MIN KDBQ 040035Z 06010KT 8SM OVC035 17/14 A2966 1320 80 1900 060/10 RMK AO2
94908KDBQ DBQ20080603184009606/03/08 18:40:31  5-MIN KDBQ 040040Z 06009KT 8SM OVC035 17/14 A2966 1320 80 1900 060/09 RMK AO2
94908KDBQ DBQ20080603184509606/03/08 18:45:31  5-MIN KDBQ 040045Z 06009KT 8SM OVC035 17/14 A2966 1320 80 1900 060/09 RMK AO2
94908KDBQ DBQ20080603185011306/03/08 18:50:31  5-MIN KDBQ 040050Z 06009KT 8SM OVC035 17/14 A2965 1330 80 1900 060/09 RMK AO2 SLP040 T01720139
94908KDBQ DBQ20080603185509606/03/08 18:55:31  5-MIN KDBQ 040055Z 05009KT 8SM OVC035 17/14 A2965 1330 80 1900 050/09 RMK AO2
94908KDBQ DBQ20080603190010606/03/08 19:00:31  5-MIN KDBQ 040100Z AUTO 05009KT 8SM OVC035 17/14 A2965 1330 80 1900 050/09 RMK AO2 TSNO
94908KDBQ DBQ20080603190510606/03/08 19:05:31  5-MIN KDBQ 040105Z AUTO 06010KT 8SM OVC035 17/14 A2965 1330 83 1900 050/10 RMK AO2 TSNO
94908KDBQ DBQ20080603191010606/03/08 19:10:31  5-MIN KDBQ 040110Z AUTO 05009KT 8SM OVC035 17/14 A2965 1330 83 1900 050/09 RMK AO2 TSNO
94908KDBQ DBQ20080603191511306/03/08 19:15:31  5-MIN KDBQ 040115Z AUTO 06008KT 8SM BKN035 OVC075 17/14 A2965 1330 83 1900 060/08 RMK AO2 TSNO
94908KDBQ DBQ20080603192011306/03/08 19:20:31  5-MIN KDBQ 040120Z AUTO 07007KT 7SM BKN035 OVC075 17/14 A2965 1330 83 1900 070/07 RMK AO2 TSNO
94908KDBQ DBQ20080603192511306/03/08 19:25:31  5-MIN KDBQ 040125Z AUTO 07008KT 7SM BKN035 OVC075 17/14 A2965 1330 83 1900 070/08 RMK AO2 TSNO
94908KDBQ DBQ20080603193011306/03/08 19:30:31  5-MIN KDBQ 040130Z AUTO 06008KT 7SM BKN037 OVC075 17/14 A2965 1330 83 1900 060/08 RMK AO2 TSNO
94908KDBQ DBQ20080603193511306/03/08 19:35:31  5-MIN KDBQ 040135Z AUTO 06010KT 7SM SCT037 OVC075 17/14 A2964 1340 83 1900 060/10 RMK AO2 TSNO
94908KDBQ DBQ20080603194011306/03/08 19:40:31  5-MIN KDBQ 040140Z AUTO 06010KT 7SM FEW037 OVC075 17/13 A2964 1340 80 1900 060/10 RMK AO2 TSNO
94908KDBQ DBQ20080603194511306/03/08 19:45:31  5-MIN KDBQ 040145Z AUTO 06010KT 7SM FEW037 OVC075 17/13 A2964 1340 80 1900 060/10 RMK AO2 TSNO
94908KDBQ DBQ20080603195013006/03/08 19:50:31  5-MIN KDBQ 040150Z AUTO 06011KT 7SM FEW037 OVC070 17/13 A2964 1340 80 1900 060/11 RMK AO2 SLP036 T01670133 TSNO
94908KDBQ DBQ20080603195511306/03/08 19:55:31  5-MIN KDBQ 040155Z AUTO 05008KT 8SM FEW037 BKN070 17/13 A2964 1340 80 1900 050/08 RMK AO2 TSNO
94908KDBQ DBQ20080603200010606/03/08 20:00:31  5-MIN KDBQ 040200Z AUTO 05009KT 8SM BKN070 16/13 A2964 1340 83 1800 050/09 RMK AO2 TSNO
94908KDBQ DBQ20080603200510606/03/08 20:05:31  5-MIN KDBQ 040205Z AUTO 05010KT 8SM BKN070 16/13 A2964 1340 83 1800 050/10 RMK AO2 TSNO
94908KDBQ DBQ20080603201010606/03/08 20:10:31  5-MIN KDBQ 040210Z AUTO 04011KT 8SM BKN070 16/13 A2963 1350 83 1800 040/11 RMK AO2 TSNO
94908KDBQ DBQ20080603201510606/03/08 20:15:31  5-MIN KDBQ 040215Z AUTO 04010KT 8SM BKN070 16/13 A2963 1350 83 1800 040/10 RMK AO2 TSNO
94908KDBQ DBQ20080603202010606/03/08 20:20:31  5-MIN KDBQ 040220Z AUTO 05011KT 8SM SCT070 16/13 A2963 1350 86 1800 050/11 RMK AO2 TSNO
94908KDBQ DBQ20080603202510606/03/08 20:25:31  5-MIN KDBQ 040225Z AUTO 05012KT 8SM FEW070 16/13 A2963 1350 83 1800 050/12 RMK AO2 TSNO
94908KDBQ DBQ20080603203010606/03/08 20:30:31  5-MIN KDBQ 040230Z AUTO 05010KT 9SM FEW070 16/13 A2963 1350 83 1800 050/10 RMK AO2 TSNO
94908KDBQ DBQ20080603203510606/03/08 20:35:31  5-MIN KDBQ 040235Z AUTO 05009KT 8SM FEW070 16/13 A2963 1350 86 1800 050/09 RMK AO2 TSNO
94908KDBQ DBQ20080603204010306/03/08 20:40:31  5-MIN KDBQ 040240Z AUTO 04010KT 8SM CLR 16/13 A2963 1350 86 1800 040/10 RMK AO2 TSNO
94908KDBQ DBQ20080603204510306/03/08 20:45:31  5-MIN KDBQ 040245Z AUTO 04011KT 8SM CLR 16/13 A2962 1360 86 1800 040/11 RMK AO2 TSNO
94908KDBQ DBQ20080603205012606/03/08 20:50:31  5-MIN KDBQ 040250Z AUTO 04010KT 8SM CLR 16/13 A2962 1350 86 1800 040/10 RMK AO2 SLP030 T01560133 56003 TSNO
94908KDBQ DBQ20080603205510306/03/08 20:55:31  5-MIN KDBQ 040255Z AUTO 04008KT 8SM CLR 16/13 A2963 1350 86 1800 040/08 RMK AO2 TSNO
94908KDBQ DBQ20080603210010306/03/08 21:00:31  5-MIN KDBQ 040300Z AUTO 04011KT 8SM CLR 16/13 A2962 1350 86 1800 040/11 RMK AO2 TSNO
94908KDBQ DBQ20080603210510306/03/08 21:05:31  5-MIN KDBQ 040305Z AUTO 05009KT 8SM CLR 16/13 A2963 1350 86 1800 050/09 RMK AO2 TSNO
94908KDBQ DBQ20080603211010306/03/08 21:10:31  5-MIN KDBQ 040310Z AUTO 06010KT 8SM CLR 16/13 A2963 1350 86 1800 060/10 RMK AO2 TSNO
94908KDBQ DBQ20080603211510306/03/08 21:15:31  5-MIN KDBQ 040315Z AUTO 06009KT 8SM CLR 16/13 A2963 1350 86 1800 060/09 RMK AO2 TSNO
94908KDBQ DBQ20080603212010606/03/08 21:20:31  5-MIN KDBQ 040320Z AUTO 06011KT 8SM FEW065 16/13 A2963 1350 86 1800 060/11 RMK AO2 TSNO
94908KDBQ DBQ20080603212510306/03/08 21:25:31  5-MIN KDBQ 040325Z AUTO 05010KT 7SM CLR 15/13 A2963 1350 90 1700 050/10 RMK AO2 TSNO
94908KDBQ DBQ20080603213010306/03/08 21:30:31  5-MIN KDBQ 040330Z AUTO 04008KT 7SM CLR 15/13 A2963 1350 90 1700 040/08 RMK AO2 TSNO
94908KDBQ DBQ20080603213510306/03/08 21:35:31  5-MIN KDBQ 040335Z AUTO 05007KT 7SM CLR 15/13 A2963 1350 90 1700 050/07 RMK AO2 TSNO
94908KDBQ DBQ20080603214010606/03/08 21:40:31  5-MIN KDBQ 040340Z AUTO 05007KT 7SM SCT013 15/13 A2963 1350 90 1700 050/07 RMK AO2 TSNO
94908KDBQ DBQ20080603214510606/03/08 21:45:31  5-MIN KDBQ 040345Z AUTO 06007KT 7SM BKN013 16/13 A2963 1350 86 1800 050/07 RMK AO2 TSNO
94908KDBQ DBQ20080603215010606/03/08 21:50:31  5-MIN KDBQ 040350Z AUTO 05008KT 7SM BKN013 15/13 A2963 1350 90 1700 050/08 RMK AO2 TSNO
94908KDBQ DBQ20080603215510606/03/08 21:55:31  5-MIN KDBQ 040355Z AUTO 04008KT 7SM BKN013 16/13 A2963 1350 86 1800 040/08 RMK AO2 TSNO
94908KDBQ DBQ20080603220010606/03/08 22:00:31  5-MIN KDBQ 040400Z AUTO 05008KT 7SM OVC013 16/13 A2963 1350 86 1800 050/08 RMK AO2 TSNO
94908KDBQ DBQ20080603220510606/03/08 22:05:31  5-MIN KDBQ 040405Z AUTO 06006KT 7SM OVC011 16/13 A2963 1340 86 1800 060/06 RMK AO2 TSNO
94908KDBQ DBQ20080603221010606/03/08 22:10:31  5-MIN KDBQ 040410Z AUTO 06008KT 7SM OVC011 16/13 A2963 1340 86 1800 060/08 RMK AO2 TSNO
94908KDBQ DBQ20080603221510606/03/08 22:15:31  5-MIN KDBQ 040415Z AUTO 05008KT 7SM OVC011 16/13 A2964 1340 86 1800 050/08 RMK AO2 TSNO
94908KDBQ DBQ20080603222010606/03/08 22:20:31  5-MIN KDBQ 040420Z AUTO 06007KT 7SM OVC011 16/13 A2964 1340 86 1800 060/07 RMK AO2 TSNO
94908KDBQ DBQ20080603222510606/03/08 22:25:31  5-MIN KDBQ 040425Z AUTO 06009KT 7SM OVC011 16/13 A2964 1340 86 1800 050/09 RMK AO2 TSNO
94908KDBQ DBQ20080603223010606/03/08 22:30:31  5-MIN KDBQ 040430Z AUTO 06008KT 7SM OVC011 16/13 A2964 1340 86 1800 060/08 RMK AO2 TSNO
94908KDBQ DBQ20080603223510606/03/08 22:35:31  5-MIN KDBQ 040435Z AUTO 06008KT 7SM OVC011 16/13 A2964 1340 86 1800 060/08 RMK AO2 TSNO
94908KDBQ DBQ20080603224010606/03/08 22:40:31  5-MIN KDBQ 040440Z AUTO 07007KT 7SM OVC011 16/13 A2964 1330 86 1700 070/07 RMK AO2 TSNO
94908KDBQ DBQ20080603224510606/03/08 22:45:31  5-MIN KDBQ 040445Z AUTO 06008KT 7SM OVC011 15/13 A2964 1340 90 1700 060/08 RMK AO2 TSNO
94908KDBQ DBQ20080603225012306/03/08 22:50:31  5-MIN KDBQ 040450Z AUTO 06007KT 7SM OVC011 15/13 A2964 1340 90 1700 060/07 RMK AO2 SLP036 T01500133 TSNO
94908KDBQ DBQ20080603225510606/03/08 22:55:31  5-MIN KDBQ 040455Z AUTO 06007KT 7SM OVC009 15/13 A2965 1330 90 1700 060/07 RMK AO2 TSNO
94908KDBQ DBQ20080603230010606/03/08 23:00:31  5-MIN KDBQ 040500Z AUTO 06007KT 7SM OVC009 15/13 A2965 1330 90 1700 060/07 RMK AO2 TSNO
94908KDBQ DBQ20080603230510606/03/08 23:05:31  5-MIN KDBQ 040505Z AUTO 05007KT 7SM OVC009 15/13 A2965 1330 90 1700 050/07 RMK AO2 TSNO
94908KDBQ DBQ20080603231010606/03/08 23:10:31  5-MIN KDBQ 040510Z AUTO 05007KT 7SM OVC009 15/13 A2964 1340 90 1700 050/07 RMK AO2 TSNO
94908KDBQ DBQ20080603231510906/03/08 23:15:31  5-MIN KDBQ 040515Z AUTO 06010KT 6SM BR OVC009 15/13 A2964 1340 90 1700 060/10 RMK AO2 TSNO
94908KDBQ DBQ20080603232010906/03/08 23:20:31  5-MIN KDBQ 040520Z AUTO 06009KT 6SM BR OVC009 15/13 A2964 1340 90 1700 060/09 RMK AO2 TSNO
94908KDBQ DBQ20080603232510906/03/08 23:25:31  5-MIN KDBQ 040525Z AUTO 06007KT 6SM BR OVC009 15/13 A2964 1340 90 1700 060/07 RMK AO2 TSNO
94908KDBQ DBQ20080603233010906/03/08 23:30:31  5-MIN KDBQ 040530Z AUTO 05008KT 6SM BR OVC009 15/13 A2963 1340 90 1700 050/08 RMK AO2 TSNO
94908KDBQ DBQ20080603233510906/03/08 23:35:31  5-MIN KDBQ 040535Z AUTO 05008KT 6SM BR OVC009 15/13 A2963 1350 90 1700 050/08 RMK AO2 TSNO
94908KDBQ DBQ20080603234010906/03/08 23:40:31  5-MIN KDBQ 040540Z AUTO 05010KT 6SM BR OVC009 15/13 A2963 1350 90 1700 050/10 RMK AO2 TSNO
94908KDBQ DBQ20080603234510906/03/08 23:45:31  5-MIN KDBQ 040545Z AUTO 06009KT 6SM BR OVC009 15/13 A2963 1350 90 1700 060/09 RMK AO2 TSNO
94908KDBQ DBQ20080603235015406/03/08 23:50:31  5-MIN KDBQ 040550Z AUTO 05008KT 6SM BR OVC009 15/13 A2963 1350 90 1700 050/08 RMK AO2 SLP031 T01500133 10172 20150 401830133 58009 TSNO
94908KDBQ DBQ20080603235510906/03/08 23:55:31  5-MIN KDBQ 040555Z AUTO 05009KT 5SM BR OVC007 15/13 A2963 1350 90 1700 050/09 RMK AO2 TSNO
94908KDBQ DBQ20080604000010906/04/08 00:00:38  5-MIN KDBQ 040600Z AUTO 04008KT 5SM BR OVC007 15/13 A2962 1360 90 1700 040/08 RMK AO2 TSNO
94908KDBQ DBQ20080604000510906/04/08 00:05:31  5-MIN KDBQ 040605Z AUTO 05008KT 5SM BR OVC007 15/13 A2962 1360 90 1700 040/08 RMK AO2 TSNO
94908KDBQ DBQ20080604001010906/04/08 00:10:31  5-MIN KDBQ 040610Z AUTO 04009KT 5SM BR OVC007 15/13 A2962 1360 90 1700 040/09 RMK AO2 TSNO
94908KDBQ DBQ20080604001510906/04/08 00:15:33  5-MIN KDBQ 040615Z AUTO 05008KT 5SM BR OVC007 15/13 A2961 1370 90 1700 050/08 RMK AO2 TSNO
94908KDBQ DBQ20080604002010906/04/08 00:20:31  5-MIN KDBQ 040620Z AUTO 05007KT 5SM BR OVC007 15/13 A2961 1360 90 1700 050/07 RMK AO2 TSNO
94908KDBQ DBQ20080604002510906/04/08 00:25:31  5-MIN KDBQ 040625Z AUTO 04008KT 4SM BR OVC007 15/13 A2962 1360 90 1700 040/08 RMK AO2 TSNO
94908KDBQ DBQ20080604003010906/04/08 00:30:31  5-MIN KDBQ 040630Z AUTO 04007KT 4SM BR OVC007 14/13 A2961 1360 93 1700 040/07 RMK AO2 TSNO
94908KDBQ DBQ20080604003510906/04/08 00:35:31  5-MIN KDBQ 040635Z AUTO 04008KT 4SM BR OVC005 14/13 A2961 1370 93 1700 040/08 RMK AO2 TSNO
94908KDBQ DBQ20080604004010906/04/08 00:40:31  5-MIN KDBQ 040640Z AUTO 05007KT 4SM BR OVC005 14/13 A2961 1370 93 1700 040/07 RMK AO2 TSNO
94908KDBQ DBQ20080604004510906/04/08 00:45:31  5-MIN KDBQ 040645Z AUTO 05008KT 4SM BR OVC005 14/13 A2960 1370 93 1700 050/08 RMK AO2 TSNO
94908KDBQ DBQ20080604005012606/04/08 00:50:31  5-MIN KDBQ 040650Z AUTO 05007KT 4SM BR OVC005 14/13 A2960 1380 93 1700 050/07 RMK AO2 SLP022 T01440133 TSNO
94908KDBQ DBQ20080604005510906/04/08 00:55:31  5-MIN KDBQ 040655Z AUTO 04008KT 3SM BR OVC005 14/13 A2960 1380 93 1700 040/08 RMK AO2 TSNO
94908KDBQ DBQ20080604010010906/04/08 01:00:31  5-MIN KDBQ 040700Z AUTO 04007KT 3SM BR OVC003 14/13 A2960 1380 93 1700 040/07 RMK AO2 TSNO
94908KDBQ DBQ20080604010510906/04/08 01:05:31  5-MIN KDBQ 040705Z AUTO 04009KT 3SM BR OVC003 14/13 A2960 1380 93 1700 040/09 RMK AO2 TSNO
94908KDBQ DBQ20080604011010906/04/08 01:10:31  5-MIN KDBQ 040710Z AUTO 05007KT 3SM BR OVC003 14/13 A2960 1370 93 1700 050/07 RMK AO2 TSNO
94908KDBQ DBQ20080604011511306/04/08 01:15:31  5-MIN KDBQ 040715Z AUTO 04007KT 2 1/2SM BR OVC003 14/13 A2960 1370 93 1700 040/07 RMK AO2 TSNO
94908KDBQ DBQ20080604012011306/04/08 01:20:31  5-MIN KDBQ 040720Z AUTO 05008KT 2 1/2SM BR OVC003 14/13 A2960 1380 93 1700 050/08 RMK AO2 TSNO
94908KDBQ DBQ20080604012510906/04/08 01:25:31  5-MIN KDBQ 040725Z AUTO 05007KT 2SM BR OVC003 14/13 A2960 1380 93 1700 050/07 RMK AO2 TSNO
94908KDBQ DBQ20080604013010906/04/08 01:30:31  5-MIN KDBQ 040730Z AUTO 05007KT 2SM BR OVC003 14/14 A2960 1380 96 1700 050/07 RMK AO2 TSNO
94908KDBQ DBQ20080604013510906/04/08 01:35:31  5-MIN KDBQ 040735Z AUTO 05006KT 2SM BR OVC003 14/13 A2960 1380 93 1700 040/06 RMK AO2 TSNO
94908KDBQ DBQ20080605025513606/05/08 02:55:31  5-MIN KDBQ 050855Z AUTO 23006KT 3SM VCTS BR FEW010 BKN040 BKN050 21/20 A2959 1390 97 2400 230/06 RMK AO2 LTG DSNT W-N
94908KDBQ DBQ20080605030014106/05/08 03:00:31  5-MIN KDBQ 050900Z AUTO 17007KT 2 1/2SM VCTS BR FEW010 BKN043 BKN070 21/19 A2959 1390 93 2400 170/07 RMK AO2 LTG DSNT SW-N
94908KDBQ DBQ20080605030514206/05/08 03:05:31  5-MIN KDBQ 050905Z AUTO 17007KT 2 1/2SM BR FEW010 BKN045 BKN070 21/19 A2958 1390 93 2400 170/07 RMK AO2 LTG DSNT SW-N TSE05
94908KDBQ DBQ20080605031015106/05/08 03:10:31  5-MIN KDBQ 050910Z AUTO 19006KT 2 1/2SM VCTS BR FEW010 SCT047 BKN080 21/20 A2958 1390 97 2400 190/06 RMK AO2 LTG DSNT ALQDS TSE05B10
94908KDBQ DBQ20080605031514906/05/08 03:15:31  5-MIN KDBQ 050915Z AUTO 16006KT 2 1/2SM TS BR FEW010 SCT037 BKN050 21/20 A2958 1390 97 2400 160/06 RMK AO2 LTG DSNT ALQDS TSE05B10
94908KDBQ DBQ20080605032014906/05/08 03:20:31  5-MIN KDBQ 050920Z AUTO 20003KT 2 1/2SM TS BR FEW010 BKN040 OVC090 21/20 A2960 1380 97 2400 200/03 RMK AO2 LTG DSNT ALQDS TSE05B10
94908KDBQ DBQ20080605032517206/05/08 03:25:31  5-MIN KDBQ 050925Z AUTO 29008KT 220V310 2 1/2SM TS BR FEW005 BKN037 OVC090 21/20 A2962 1360 97 2400 290/08 220V310 RMK AO2 LTG DSNT ALQDS TSE05B10 PRESRR
94908KDBQ DBQ20080605033015706/05/08 03:30:31  5-MIN KDBQ 050930Z AUTO 35008G16KT 2 1/2SM VCTS BR SCT003 BKN023 BKN037 21/19 A2961 1370 93 2400 350/08G16 RMK AO2 LTG DSNT ALQDS TSE05B10
94908KDBQ DBQ20080605033515106/05/08 03:35:31  5-MIN KDBQ 050935Z AUTO 01007G15KT 3SM TS BR SCT005 BKN023 OVC060 20/19 A2960 1370 93 2300 010/07G15 RMK AO2 LTG DSNT ALQDS TSE05B10
94908KDBQ DBQ20080605034016406/05/08 03:40:31  5-MIN KDBQ 050940Z AUTO 05006G15KT 3SM TSRA BR SCT007 BKN021 OVC039 19/19 A2961 1370 97 2200 040/06G15 RMK AO2 LTG DSNT ALQDS TSE05B10RAB36 P0001
94908KDBQ DBQ20080605034515906/05/08 03:45:31  5-MIN KDBQ 050945Z AUTO 04006KT 2SM +TSRA BR FEW005 BKN012 OVC024 19/18 A2960 1380 93 2300 030/06 RMK AO2 LTG DSNT ALQDS TSE05B10RAB36 P0010
94908KDBQ DBQ20080605035017606/05/08 03:50:31  5-MIN KDBQ 050950Z AUTO 03006KT 3SM -TSRA BR FEW005 BKN039 OVC070 19/18 A2959 1390 93 2300 030/06 RMK AO2 LTG DSNT ALQDS TSE05B10RAB36 SLP015 P0010 T01940183
94908KDBQ DBQ20080605035514506/05/08 03:55:31  5-MIN KDBQ 050955Z AUTO 01005KT 6SM -TSRA BR FEW005 BKN046 OVC075 19/18 A2958 1390 93 2300 010/05 RMK AO2 LTG DSNT ALQDS P0000
94908KDBQ DBQ20080605040014506/05/08 04:00:31  5-MIN KDBQ 051000Z AUTO 10003KT 6SM -TSRA BR FEW007 BKN040 BKN075 19/18 A2961 1370 93 2200 100/03 RMK AO2 LTG DSNT ALQDS P0000
94908KDBQ DBQ20080605040513806/05/08 04:05:31  5-MIN KDBQ 051005Z AUTO 11006KT 6SM -TSRA BR BKN038 BKN110 19/18 A2961 1370 97 2200 110/06 RMK AO2 LTG DSNT ALQDS P0000
94908KDBQ DBQ20080605041015006/05/08 04:10:31  5-MIN KDBQ 051010Z AUTO 12004KT 6SM VCTS BR SCT043 BKN080 BKN110 19/18 A2961 1370 93 2200 120/04 RMK AO2 LTG DSNT ALQDS RAE06 P0000
94908KDBQ DBQ20080605041514906/05/08 04:15:31  5-MIN KDBQ 051015Z AUTO 11004KT 5SM -RA BR SCT055 BKN085 BKN110 19/18 A2961 1370 93 2200 110/04 RMK AO2 LTG DSNT ALQDS TSE15 P0000
94908KDBQ DBQ20080605042014106/05/08 04:20:31  5-MIN KDBQ 051020Z AUTO 10005KT 4SM RA BR SCT040 BKN080 19/18 A2961 1370 93 2200 090/05 RMK AO2 LTG DSNT ALQDS TSE15 P0000
94908KDBQ DBQ20080605042514906/05/08 04:25:31  5-MIN KDBQ 051025Z AUTO 04006KT 4SM -RA BR SCT036 SCT048 BKN080 19/18 A2961 1360 93 2200 040/06 RMK AO2 LTG DSNT ALQDS TSE15 P0001
94908KDBQ DBQ20080605043014906/05/08 04:30:31  5-MIN KDBQ 051030Z AUTO 36005KT 4SM -RA BR SCT036 BKN080 OVC110 19/18 A2962 1360 97 2200 360/05 RMK AO2 LTG DSNT ALQDS TSE15 P0002
94908KDBQ DBQ20080605043514806/05/08 04:35:31  5-MIN KDBQ 051035Z AUTO 06003KT 3SM RA BR SCT036 BKN060 OVC110 19/18 A2962 1360 97 2200 060/03 RMK AO2 LTG DSNT ALQDS TSE15 P0003
94908KDBQ DBQ20080605044015206/05/08 04:40:31  5-MIN KDBQ 051040Z AUTO 36004KT 2 1/2SM RA BR FEW001 BKN032 OVC080 19/18 A2963 1350 97 2200 360/04 RMK AO2 LTG DSNT ALQDS TSE15 P0004
94908KDBQ DBQ20080605044515606/05/08 04:45:31  5-MIN KDBQ 051045Z AUTO 36007KT 2SM VCTS RA BR FEW001 BKN030 OVC060 19/18 A2963 1350 97 2200 360/07 RMK AO2 LTG DSNT ALQDS TSE15B43 P0006
94908KDBQ DBQ20080605045017306/05/08 04:50:31  5-MIN KDBQ 051050Z AUTO 04008KT 2SM VCTS RA BR FEW001 BKN024 OVC060 19/18 A2962 1350 97 2200 040/08 RMK AO2 LTG DSNT ALQDS TSE15B43 SLP027 P0008 T01890183
94908KDBQ DBQ20080605045515306/05/08 04:55:31  5-MIN KDBQ 051055Z 36008KT 2 1/2SM VCTS RA BR FEW001 BKN022 OVC060 19/18 A2965 1330 97 2100 360/08 RMK AO2 LTG DSNT ALQDS PRESRR P0000
94908KDBQ DBQ20080605050014306/05/08 05:00:31  5-MIN KDBQ 051100Z 33009KT 3SM -TSRA BR FEW001 BKN022 OVC046 19/18 A2968 1310 97 2100 330/09 RMK AO2 TSE1059B00 PRESRR P0001
94908KDBQ DBQ20080605050513606/05/08 05:05:31  5-MIN KDBQ 051105Z 00000KT 2SM +TSRA BR FEW001 BKN016 OVC046 19/18 A2967 1310 97 2100 000/00 RMK AO2 TSE1059B00 P0006
94908KDBQ DBQ20080605051014006/05/08 05:10:31  5-MIN KDBQ 051110Z 06005KT 1 3/4SM +TSRA BR FEW001 BKN014 OVC046 19/18 A2966 1320 97 2100 060/05 RMK AO2 TSE1059B00 P0010
94908KDBQ DBQ20080605051514006/05/08 05:15:31  5-MIN KDBQ 051115Z 06005KT 2 1/2SM +TSRA BR FEW001 BKN014 OVC046 19/18 A2967 1310 97 2100 060/05 RMK AO2 TSE1059B00 P0015
94908KDBQ DBQ20080605052013506/05/08 05:20:31  5-MIN KDBQ 051120Z 06006KT 4SM TSRA BR FEW001 BKN020 OVC046 19/18 A2965 1330 97 2100 060/06 RMK AO2 TSE1059B00 P0016
94908KDBQ DBQ20080605052512806/05/08 05:25:31  5-MIN KDBQ 051125Z 08004KT 5SM TSRA BR BKN024 OVC046 19/18 A2964 1340 97 2100 080/04 RMK AO2 TSE1059B00 P0018
94908KDBQ DBQ20080605053012806/05/08 05:30:31  5-MIN KDBQ 051130Z 09007KT 4SM TSRA BR BKN024 OVC055 19/18 A2964 1340 97 2100 090/07 RMK AO2 TSE1059B00 P0019
94908KDBQ DBQ20080605053512106/05/08 05:35:31  5-MIN KDBQ 051135Z 13011KT 4SM TSRA BR OVC028 19/18 A2965 1330 97 2100 120/11 RMK AO2 TSE1059B00 P0021
94908KDBQ DBQ20080605054012106/05/08 05:40:31  5-MIN KDBQ 051140Z 10011KT 5SM TSRA BR OVC030 19/18 A2962 1360 93 2200 100/11 RMK AO2 TSE1059B00 P0022
94908KDBQ DBQ20080605054512106/05/08 05:45:31  5-MIN KDBQ 051145Z 11013KT 5SM TSRA BR OVC036 19/18 A2962 1360 97 2200 110/13 RMK AO2 TSE1059B00 P0023
94908KDBQ DBQ20080605055019206/05/08 05:50:31  5-MIN KDBQ 051150Z 11011KT 7SM -TSRA OVC046 19/18 A2961 1370 97 2200 110/11 RMK AO2 TSE1059B00 SLP020 TSTMS OVHD FREQ LTGICCCCG P0024 60044 70045 T01890183 10211 20189 55010
94908KDBQ DBQ20080605055511606/05/08 05:55:31  5-MIN KDBQ 051155Z 10011KT 10SM -TSRA BKN048 19/18 A2959 1380 97 2200 100/11 RMK AO2 PRESFR P0000
94908KDBQ DBQ20080605060010906/05/08 06:00:31  5-MIN KDBQ 051200Z 09009KT 10SM -TSRA BKN049 19/18 A2959 1380 97 2200 090/09 RMK AO2 P0000
94908KDBQ DBQ20080605060513406/05/08 06:05:31  5-MIN KDBQ 051205Z 08010KT 10SM TS BKN060 19/18 A2958 1400 97 2200 080/10 RMK AO2 LTG DSNT NE-SE RAE02 PRESFR P0000
94908KDBQ DBQ20080605061012706/05/08 06:10:31  5-MIN KDBQ 051210Z 08008KT 10SM VCTS -RA BKN065 19/18 A2958 1390 93 2200 080/08 RMK AO2 LTG DSNT NE-SE P0000
94908KDBQ DBQ20080605061512806/05/08 06:15:31  5-MIN KDBQ 051215Z 10007KT 10SM -RA SCT070 19/18 A2961 1370 93 2200 090/07 RMK AO2 LTG DSNT NE-SE TSE11 P0000
94908KDBQ DBQ20080605062012906/05/08 06:20:31  5-MIN KDBQ 051220Z 08004KT 10SM FEW070 19/18 A2961 1370 93 2200 080/04 RMK AO2 LTG DSNT NE-SE TSE11RAE17 P0000
94908KDBQ DBQ20080605062512906/05/08 06:25:31  5-MIN KDBQ 051225Z 00000KT 10SM SCT080 19/18 A2962 1360 93 2200 000/00 RMK AO2 LTG DSNT NE-SE TSE11RAE17 P0000
94908KDBQ DBQ20080605063014006/05/08 06:30:31  5-MIN KDBQ 051230Z 21003KT 10SM BKN075 19/18 A2964 1340 93 2100 210/03 RMK AO2 LTG DSNT NE AND SE TSE11RAE17 PRESRR P0000
94908KDBQ DBQ20080605063513906/05/08 06:35:31  5-MIN KDBQ 051235Z 23003KT 10SM BKN070 19/18 A2964 1340 93 2100 230/03 RMK AO2 LTG DSNT E AND SE TSE11RAE17 PRESRR P0000
94908KDBQ DBQ20080605064013206/05/08 06:40:31  5-MIN KDBQ 051240Z 20005KT 10SM BKN070 19/18 A2965 1330 93 2100 200/05 RMK AO2 LTG DSNT E AND SW TSE11RAE17 P0000
94908KDBQ DBQ20080605064513906/05/08 06:45:31  5-MIN KDBQ 051245Z 21005KT 10SM SCT055 BKN075 19/18 A2965 1330 93 2100 210/05 RMK AO2 LTG DSNT E AND SW TSE11RAE17 P0000
94908KDBQ DBQ20080605065015006/05/08 06:50:31  5-MIN KDBQ 051250Z 19007KT 10SM BKN055 OVC075 19/18 A2965 1330 93 2100 190/07 RMK AO2 LTG DSNT SW TSE11RAE17 SLP036 P0000 T01890178
94908KDBQ DBQ20080605065512906/05/08 06:55:31  5-MIN KDBQ 051255Z 17012KT 10SM BKN060 BKN070 OVC090 19/18 A2963 1350 93 2200 170/12 RMK AO2 LTG DSNT SW AND W
94908KDBQ DBQ20080605070014206/05/08 07:00:31  5-MIN KDBQ 051300Z 19007KT 10SM VCTS BKN060 BKN080 OVC100 19/18 A2966 1320 93 2100 190/07 RMK AO2 LTG DSNT SW AND W TSB1257
94908KDBQ DBQ20080605070514806/05/08 07:05:31  5-MIN KDBQ 051305Z 23006KT 9SM VCTS FEW049 BKN060 OVC100 19/18 A2967 1310 97 2100 230/06 RMK AO2 LTG DSNT SW AND W TSB1257 PRESRR
94908KDBQ DBQ20080605071014906/05/08 07:10:31  5-MIN KDBQ 051310Z VRB04KT 4SM TSRA BR SCT040 BKN049 OVC095 19/18 A2964 1340 97 2100 VRB/04 RMK AO2 LTG DSNT SW TSB1257RAB06 P0000
94908KDBQ DBQ20080605071515106/05/08 07:15:31  5-MIN KDBQ 051315Z 08010G16KT 3SM +TSRA BR BKN037 BKN050 OVC095 19/18 A2957 1400 97 2200 080/10G16 RMK AO2 TSB1257RAB06 PRESFR P0003
94908KDBQ DBQ20080605072015506/05/08 07:20:31  5-MIN KDBQ 051320Z 17013G20KT 4SM -TSRA BR BKN034 BKN050 OVC095 19/18 A2962 1360 93 2200 160/13G20 RMK AO2 LTG DSNT E TSB1257RAB06 P0004
94908KDBQ DBQ20080605072515306/05/08 07:25:31  5-MIN KDBQ 051325Z 16012G20KT 8SM -RA BKN034 BKN050 BKN100 19/18 A2960 1370 93 2200 160/12G20 RMK AO2 LTG DSNT E TSB1257E24RAB06 P0004
94908KDBQ DBQ20080605073014106/05/08 07:30:31  5-MIN KDBQ 051330Z 16011KT 10SM -RA SCT032 SCT050 19/18 A2960 1370 93 2200 160/11 RMK AO2 LTG DSNT E TSB1257E24RAB06 P0004
94908KDBQ DBQ20080605073512206/05/08 07:35:31  5-MIN KDBQ 051335Z 15011KT 10SM SCT032 19/18 A2960 1370 90 2200 150/11 RMK AO2 TSB1257E24RAB06E31 P0004
94908KDBQ DBQ20080605074012206/05/08 07:40:31  5-MIN KDBQ 051340Z 15008KT 10SM FEW029 19/18 A2960 1370 90 2200 150/08 RMK AO2 TSB1257E24RAB06E31 P0004
94908KDBQ DBQ20080605074512206/05/08 07:45:31  5-MIN KDBQ 051345Z 15011KT 10SM FEW026 19/18 A2960 1380 90 2300 140/11 RMK AO2 TSB1257E24RAB06E31 P0004
94908KDBQ DBQ20080605075013606/05/08 07:50:31  5-MIN KDBQ 051350Z 15014KT 10SM CLR 19/18 A2960 1380 90 2300 150/14 RMK AO2 TSB1257E24RAB06E31 SLP017 P0004 T01940178
94908KDBQ DBQ20080605075509406/05/08 07:55:31  5-MIN KDBQ 051355Z 15015KT 10SM CLR 20/18 A2959 1380 87 2300 150/15 RMK AO2
94908KDBQ DBQ20080605080009406/05/08 08:00:31  5-MIN KDBQ 051400Z 15012KT 10SM CLR 20/18 A2959 1380 87 2300 150/12 RMK AO2
94908KDBQ DBQ20080605080510006/05/08 08:05:31  5-MIN KDBQ 051405Z 15015G19KT 10SM CLR 20/18 A2960 1380 87 2300 150/15G19 RMK AO2
94908KDBQ DBQ20080605081009406/05/08 08:10:31  5-MIN KDBQ 051410Z 16012KT 10SM CLR 20/18 A2960 1380 90 2300 150/12 RMK AO2
94908KDBQ DBQ20080605081509406/05/08 08:15:31  5-MIN KDBQ 051415Z 16013KT 10SM CLR 21/18 A2960 1380 87 2400 160/13 RMK AO2
94908KDBQ DBQ20080605082009406/05/08 08:20:31  5-MIN KDBQ 051420Z 16015KT 10SM CLR 21/18 A2959 1380 87 2400 160/15 RMK AO2
94908KDBQ DBQ20080605082510006/05/08 08:25:31  5-MIN KDBQ 051425Z 16015G20KT 10SM CLR 21/18 A2959 1380 87 2400 160/15G20 RMK AO2
94908KDBQ DBQ20080605083010006/05/08 08:30:31  5-MIN KDBQ 051430Z 16014G21KT 10SM CLR 21/19 A2959 1380 87 2500 160/14G21 RMK AO2
94908KDBQ DBQ20080605083510006/05/08 08:35:31  5-MIN KDBQ 051435Z 16016G21KT 10SM CLR 22/19 A2959 1390 84 2500 160/16G21 RMK AO2
94908KDBQ DBQ20080605084010006/05/08 08:40:31  5-MIN KDBQ 051440Z 16016G22KT 10SM CLR 22/19 A2959 1390 84 2500 160/16G22 RMK AO2
94908KDBQ DBQ20080605084510006/05/08 08:45:31  5-MIN KDBQ 051445Z 16017G24KT 10SM CLR 22/19 A2959 1390 84 2500 160/17G24 RMK AO2
94908KDBQ DBQ20080605085012906/05/08 08:50:31  5-MIN KDBQ 051450Z 16014G24KT 10SM CLR 22/19 A2960 1380 84 2600 160/14G24 RMK AO2 SLP016 60004 T02220194 50005
94908KDBQ DBQ20080605085510006/05/08 08:55:31  5-MIN KDBQ 051455Z 16015G20KT 10SM CLR 23/19 A2960 1380 81 2600 160/15G20 RMK AO2
94908KDBQ DBQ20080605090010006/05/08 09:00:31  5-MIN KDBQ 051500Z 16016G23KT 10SM CLR 23/20 A2960 1380 84 2600 160/16G23 RMK AO2
94908KDBQ DBQ20080605090510006/05/08 09:05:31  5-MIN KDBQ 051505Z 17016G23KT 10SM CLR 23/20 A2960 1370 84 2600 170/16G23 RMK AO2
94908KDBQ DBQ20080605091009406/05/08 09:10:31  5-MIN KDBQ 051510Z 17016KT 10SM CLR 23/20 A2960 1370 81 2700 170/16 RMK AO2
94908KDBQ DBQ20080605091510006/05/08 09:15:31  5-MIN KDBQ 051515Z 18018G22KT 10SM CLR 23/21 A2960 1370 84 2700 170/18G22 RMK AO2
94908KDBQ DBQ20080605092010306/05/08 09:20:31  5-MIN KDBQ 051520Z 18017G22KT 10SM FEW013 23/21 A2960 1370 84 2700 170/17G22 RMK AO2
94908KDBQ DBQ20080605092510306/05/08 09:25:31  5-MIN KDBQ 051525Z 18016G24KT 10SM FEW013 23/21 A2960 1370 84 2700 180/16G24 RMK AO2
94908KDBQ DBQ20080605093010306/05/08 09:30:31  5-MIN KDBQ 051530Z 18015G24KT 10SM SCT013 23/21 A2960 1370 84 2700 180/15G24 RMK AO2
94908KDBQ DBQ20080605093512106/05/08 09:35:31  5-MIN KDBQ 051535Z 18020G28KT 10SM SCT013 24/21 A2960 1380 84 2800 180/20G28 RMK AO2 PK WND 18028/1535
94908KDBQ DBQ20080605094012106/05/08 09:40:31  5-MIN KDBQ 051540Z 18021G28KT 10SM BKN013 24/21 A2960 1370 84 2800 180/21G28 RMK AO2 PK WND 18028/1535
94908KDBQ DBQ20080605094512106/05/08 09:45:31  5-MIN KDBQ 051545Z 19019G27KT 10SM BKN013 24/21 A2961 1370 81 2800 190/19G27 RMK AO2 PK WND 18028/1535
94908KDBQ DBQ20080605095013806/05/08 09:50:31  5-MIN KDBQ 051550Z 19019G25KT 10SM BKN013 24/21 A2960 1370 81 2800 190/19G25 RMK AO2 PK WND 18028/1535 SLP018 T02440211
94908KDBQ DBQ20080605095510306/05/08 09:55:31  5-MIN KDBQ 051555Z 19018G25KT 10SM BKN013 24/22 A2961 1370 84 2800 190/18G25 RMK AO2
94908KDBQ DBQ20080605100012106/05/08 10:00:31  5-MIN KDBQ 051600Z 19022G28KT 10SM BKN013 25/22 A2961 1370 81 2900 190/22G28 RMK AO2 PK WND 19028/1559
94908KDBQ DBQ20080605100512106/05/08 10:05:31  5-MIN KDBQ 051605Z 19018G28KT 10SM BKN013 25/22 A2961 1370 81 2900 190/18G28 RMK AO2 PK WND 19028/1559
94908KDBQ DBQ20080605101012106/05/08 10:10:31  5-MIN KDBQ 051610Z 19023G27KT 10SM SCT013 26/22 A2961 1370 79 2900 190/23G27 RMK AO2 PK WND 19028/1559
94908KDBQ DBQ20080605101512106/05/08 10:15:31  5-MIN KDBQ 051615Z 20019G27KT 10SM BKN013 26/22 A2960 1370 79 2900 200/19G27 RMK AO2 PK WND 19028/1559
94908KDBQ DBQ20080605102012106/05/08 10:20:31  5-MIN KDBQ 051620Z 19021G27KT 10SM BKN013 26/22 A2960 1370 79 2900 190/21G27 RMK AO2 PK WND 19028/1559
94908KDBQ DBQ20080605102512106/05/08 10:25:31  5-MIN KDBQ 051625Z 20017G27KT 10SM BKN013 26/22 A2960 1380 81 2900 200/17G27 RMK AO2 PK WND 19028/1559
94908KDBQ DBQ20080605103012106/05/08 10:30:31  5-MIN KDBQ 051630Z 20019G25KT 10SM BKN013 26/22 A2960 1370 81 2900 200/19G25 RMK AO2 PK WND 19028/1559
94908KDBQ DBQ20080605103512106/05/08 10:35:31  5-MIN KDBQ 051635Z 20021G25KT 10SM BKN013 26/22 A2960 1380 79 2900 200/21G25 RMK AO2 PK WND 19028/1559
94908KDBQ DBQ20080605104012106/05/08 10:40:31  5-MIN KDBQ 051640Z 19016G26KT 10SM BKN013 26/22 A2960 1370 81 2900 190/16G26 RMK AO2 PK WND 19028/1559
94908KDBQ DBQ20080605104512106/05/08 10:45:31  5-MIN KDBQ 051645Z 19019G26KT 10SM BKN020 26/22 A2960 1380 79 3000 190/19G26 RMK AO2 PK WND 19028/1559
94908KDBQ DBQ20080605105013806/05/08 10:50:31  5-MIN KDBQ 051650Z 20019G25KT 10SM BKN020 26/22 A2960 1370 79 3000 200/19G25 RMK AO2 PK WND 19028/1559 SLP017 T02610222
94908KDBQ DBQ20080605105512106/05/08 10:55:31  5-MIN KDBQ 051655Z 20023G28KT 10SM BKN020 27/23 A2960 1370 79 3100 200/23G28 RMK AO2 PK WND 20028/1654
94908KDBQ DBQ20080605110012106/05/08 11:00:31  5-MIN KDBQ 051700Z 20024G30KT 10SM BKN022 26/22 A2960 1370 79 3000 200/24G30 RMK AO2 PK WND 20030/1700
94908KDBQ DBQ20080605110512106/05/08 11:05:31  5-MIN KDBQ 051705Z 20021G30KT 10SM BKN022 27/22 A2960 1370 73 3100 200/21G30 RMK AO2 PK WND 20030/1700
94908KDBQ DBQ20080605111012106/05/08 11:10:31  5-MIN KDBQ 051710Z 20022G29KT 10SM BKN022 27/22 A2961 1370 76 3100 200/22G29 RMK AO2 PK WND 20030/1700
94908KDBQ DBQ20080605111512106/05/08 11:15:31  5-MIN KDBQ 051715Z 20021G29KT 10SM BKN022 26/22 A2961 1370 76 3000 200/21G29 RMK AO2 PK WND 20030/1700
94908KDBQ DBQ20080605112012106/05/08 11:20:31  5-MIN KDBQ 051720Z 20021G27KT 10SM OVC024 26/22 A2961 1370 76 3000 200/21G27 RMK AO2 PK WND 20030/1700
94908KDBQ DBQ20080605112512806/05/08 11:25:31  5-MIN KDBQ 051725Z 20020G27KT 10SM BKN024 OVC028 27/22 A2962 1360 73 3000 200/20G27 RMK AO2 PK WND 20030/1700
94908KDBQ DBQ20080605113012806/05/08 11:30:31  5-MIN KDBQ 051730Z 20020G27KT 10SM BKN024 OVC028 27/22 A2961 1360 76 3100 200/20G27 RMK AO2 PK WND 20030/1700
94908KDBQ DBQ20080605113512806/05/08 11:35:31  5-MIN KDBQ 051735Z 20017G30KT 10SM BKN024 OVC028 27/22 A2962 1360 76 3000 200/17G30 RMK AO2 PK WND 20030/1732
94908KDBQ DBQ20080605114012106/05/08 11:40:31  5-MIN KDBQ 051740Z 20020G30KT 10SM OVC026 27/22 A2962 1360 76 3000 200/20G30 RMK AO2 PK WND 20030/1732
94908KDBQ DBQ20080605114512106/05/08 11:45:31  5-MIN KDBQ 051745Z 20024G30KT 10SM BKN025 27/22 A2962 1360 76 3000 200/24G30 RMK AO2 PK WND 20030/1744
94908KDBQ DBQ20080605115016206/05/08 11:50:31  5-MIN KDBQ 051750Z 21021G30KT 10SM BKN025 27/22 A2962 1360 76 3000 210/21G30 RMK AO2 PK WND 20030/1744 SLP024 60004 T02670222 10267 20189 58002
94908KDBQ DBQ20080605115510306/05/08 11:55:31  5-MIN KDBQ 051755Z 21019G26KT 10SM BKN025 27/22 A2963 1350 76 3000 200/19G26 RMK AO2
94908KDBQ DBQ20080605120011606/05/08 12:00:31  5-MIN KDBQ 051800Z 20019G25KT 10SM BKN025 OVC029 27/22 A2963 1350 76 3000 200/19G25 RMK AO2 P0001
94908KDBQ DBQ20080605120513406/05/08 12:05:31  5-MIN KDBQ 051805Z 21017G27KT 10SM BKN025 OVC031 27/22 A2963 1350 74 3100 200/17G27 RMK AO2 PK WND 20027/1801 P0001
94908KDBQ DBQ20080605121013406/05/08 12:10:31  5-MIN KDBQ 051810Z 20020G27KT 10SM BKN025 OVC031 27/22 A2963 1350 74 3100 200/20G27 RMK AO2 PK WND 20027/1801 P0001
94908KDBQ DBQ20080605121513406/05/08 12:15:31  5-MIN KDBQ 051815Z 21019G26KT 10SM SCT025 BKN031 28/22 A2963 1350 71 3200 200/19G26 RMK AO2 PK WND 20027/1801 P0001
94908KDBQ DBQ20080605122013406/05/08 12:20:31  5-MIN KDBQ 051820Z 20017G26KT 10SM BKN025 BKN033 28/22 A2963 1340 71 3200 200/17G26 RMK AO2 PK WND 20027/1801 P0001
94908KDBQ DBQ20080605122513406/05/08 12:25:31  5-MIN KDBQ 051825Z 21017G23KT 10SM BKN027 BKN033 27/22 A2964 1340 74 3100 200/17G23 RMK AO2 PK WND 20027/1801 P0001
94908KDBQ DBQ20080605123012806/05/08 12:30:31  5-MIN KDBQ 051830Z 20018KT 10SM BKN027 BKN033 28/22 A2964 1340 71 3200 200/18 RMK AO2 PK WND 20027/1801 P0001
94908KDBQ DBQ20080605123513406/05/08 12:35:31  5-MIN KDBQ 051835Z 21019G24KT 10SM BKN027 BKN033 28/22 A2963 1350 71 3200 210/19G24 RMK AO2 PK WND 20027/1801 P0001
94908KDBQ DBQ20080605124012706/05/08 12:40:31  5-MIN KDBQ 051840Z 21017G25KT 10SM BKN027 28/22 A2964 1340 71 3100 210/17G25 RMK AO2 PK WND 20027/1801 P0001
94908KDBQ DBQ20080605124512706/05/08 12:45:31  5-MIN KDBQ 051845Z 22018G25KT 10SM BKN027 27/22 A2963 1340 74 3100 220/18G25 RMK AO2 PK WND 20027/1801 P0001
94908KDBQ DBQ20080605125015106/05/08 12:50:31  5-MIN KDBQ 051850Z 21015G25KT 10SM BKN027 OVC033 27/22 A2964 1340 74 3100 200/15G25 RMK AO2 PK WND 20027/1801 SLP030 P0001 T02720222
94908KDBQ DBQ20080605125511006/05/08 12:55:31  5-MIN KDBQ 051855Z 21017G24KT 10SM BKN029 OVC035 27/22 A2964 1340 74 3100 210/17G24 RMK AO2
94908KDBQ DBQ20080605130011006/05/08 13:00:31  5-MIN KDBQ 051900Z 20018G24KT 10SM BKN029 OVC037 27/22 A2964 1340 74 3100 200/18G24 RMK AO2
94908KDBQ DBQ20080605130511006/05/08 13:05:31  5-MIN KDBQ 051905Z 20017G23KT 10SM BKN029 OVC038 28/22 A2964 1340 71 3100 200/17G23 RMK AO2
94908KDBQ DBQ20080605131011006/05/08 13:10:31  5-MIN KDBQ 051910Z 19015G23KT 10SM BKN026 OVC034 27/22 A2964 1340 74 3100 190/15G23 RMK AO2
94908KDBQ DBQ20080605131510406/05/08 13:15:31  5-MIN KDBQ 051915Z 19016KT 10SM BKN026 OVC034 27/22 A2964 1340 76 3000 190/16 RMK AO2
94908KDBQ DBQ20080605132010406/05/08 13:20:31  5-MIN KDBQ 051920Z 20016KT 10SM BKN026 OVC034 27/22 A2964 1340 76 3000 200/16 RMK AO2
94908KDBQ DBQ20080605132510406/05/08 13:25:31  5-MIN KDBQ 051925Z 19014KT 10SM SCT028 OVC036 27/22 A2964 1340 76 3000 190/14 RMK AO2
94908KDBQ DBQ20080605133011006/05/08 13:30:31  5-MIN KDBQ 051930Z 19013G19KT 10SM BKN028 OVC036 27/22 A2964 1340 76 3000 190/13G19 RMK AO2
94908KDBQ DBQ20080605133511006/05/08 13:35:31  5-MIN KDBQ 051935Z 19015G21KT 10SM BKN028 OVC036 27/22 A2964 1340 76 3000 190/15G21 RMK AO2
94908KDBQ DBQ20080605134011006/05/08 13:40:31  5-MIN KDBQ 051940Z 20016G21KT 10SM BKN028 OVC036 27/22 A2964 1340 76 3000 200/16G21 RMK AO2
94908KDBQ DBQ20080605134510406/05/08 13:45:31  5-MIN KDBQ 051945Z 19015KT 10SM BKN028 OVC036 27/22 A2964 1340 74 3100 190/15 RMK AO2
94908KDBQ DBQ20080605135012706/05/08 13:50:31  5-MIN KDBQ 051950Z 19015G21KT 10SM BKN028 OVC036 27/22 A2963 1340 74 3100 190/15G21 RMK AO2 SLP027 T02720222
94908KDBQ DBQ20080605135511706/05/08 13:55:31  5-MIN KDBQ 051955Z 19014G21KT 10SM SCT030 BKN040 OVC049 27/22 A2963 1350 74 3100 190/14G21 RMK AO2
94908KDBQ DBQ20080605140011706/05/08 14:00:31  5-MIN KDBQ 052000Z 19016G22KT 10SM FEW030 BKN040 OVC049 27/22 A2963 1350 74 3100 190/16G22 RMK AO2
94908KDBQ DBQ20080605140511706/05/08 14:05:31  5-MIN KDBQ 052005Z 20013G22KT 10SM FEW030 SCT038 OVC047 27/22 A2964 1340 74 3100 190/13G22 RMK AO2
94908KDBQ DBQ20080605141010406/05/08 14:10:31  5-MIN KDBQ 052010Z 19014KT 10SM FEW035 OVC047 28/22 A2964 1340 71 3100 190/14 RMK AO2
94908KDBQ DBQ20080605141511006/05/08 14:15:31  5-MIN KDBQ 052015Z 19016G20KT 10SM SCT034 OVC047 27/22 A2964 1340 74 3100 190/16G20 RMK AO2
94908KDBQ DBQ20080605142011006/05/08 14:20:31  5-MIN KDBQ 052020Z 19018G22KT 10SM SCT034 OVC047 27/22 A2964 1340 74 3100 190/18G22 RMK AO2
94908KDBQ DBQ20080605142511006/05/08 14:25:31  5-MIN KDBQ 052025Z 19013G22KT 10SM FEW031 OVC047 27/22 A2964 1340 74 3100 190/13G22 RMK AO2
94908KDBQ DBQ20080605143011006/05/08 14:30:31  5-MIN KDBQ 052030Z 20014G20KT 10SM SCT032 OVC047 27/23 A2964 1330 76 3100 200/14G20 RMK AO2
94908KDBQ DBQ20080605143511006/05/08 14:35:31  5-MIN KDBQ 052035Z 20015G21KT 10SM BKN032 OVC047 27/22 A2964 1330 76 3000 200/15G21 RMK AO2
94908KDBQ DBQ20080605144011706/05/08 14:40:31  5-MIN KDBQ 052040Z 20014G21KT 10SM BKN032 BKN044 OVC050 27/22 A2964 1330 76 3000 200/14G21 RMK AO2
94908KDBQ DBQ20080605144511106/05/08 14:45:31  5-MIN KDBQ 052045Z 20014KT 10SM SCT034 BKN047 OVC055 27/22 A2965 1330 76 3000 200/14 RMK AO2
94908KDBQ DBQ20080605145014006/05/08 14:50:31  5-MIN KDBQ 052050Z 20015KT 10SM FEW034 BKN049 OVC060 27/22 A2964 1340 74 3100 200/15 RMK AO2 SLP031 60001 T02720222 53007
94908KDBQ DBQ20080605145511106/05/08 14:55:31  5-MIN KDBQ 052055Z 20013KT 10SM SCT034 SCT045 OVC055 27/23 A2964 1330 76 3100 200/13 RMK AO2
94908KDBQ DBQ20080605150011106/05/08 15:00:31  5-MIN KDBQ 052100Z 20014KT 10SM FEW036 SCT045 OVC055 27/23 A2964 1330 76 3100 200/14 RMK AO2
94908KDBQ DBQ20080605150510406/05/08 15:05:31  5-MIN KDBQ 052105Z 20013KT 10SM FEW038 OVC055 28/23 A2964 1330 74 3100 200/13 RMK AO2
94908KDBQ DBQ20080605151010406/05/08 15:10:31  5-MIN KDBQ 052110Z 20014KT 10SM FEW035 OVC055 28/22 A2964 1340 71 3100 200/14 RMK AO2
94908KDBQ DBQ20080605151511106/05/08 15:15:31  5-MIN KDBQ 052115Z 20012KT 10SM FEW035 SCT050 OVC060 28/23 A2964 1340 74 3100 200/12 RMK AO2
94908KDBQ DBQ20080605152011006/05/08 15:20:31  5-MIN KDBQ 052120Z 20015G23KT 10SM FEW033 BKN055 28/23 A2964 1340 74 3100 200/15G23 RMK AO2
94908KDBQ DBQ20080605152511006/05/08 15:25:31  5-MIN KDBQ 052125Z 20016G24KT 10SM FEW033 BKN055 28/22 A2964 1340 69 3200 200/16G24 RMK AO2
94908KDBQ DBQ20080605153011006/05/08 15:30:31  5-MIN KDBQ 052130Z 20014G24KT 10SM FEW033 BKN055 28/22 A2964 1340 69 3100 200/14G24 RMK AO2
94908KDBQ DBQ20080605153511006/05/08 15:35:31  5-MIN KDBQ 052135Z 21018G22KT 10SM FEW033 BKN055 28/22 A2963 1340 69 3200 210/18G22 RMK AO2
94908KDBQ DBQ20080605154011006/05/08 15:40:31  5-MIN KDBQ 052140Z 20014G22KT 10SM FEW033 BKN055 28/22 A2963 1340 69 3200 200/14G22 RMK AO2
94908KDBQ DBQ20080605154511006/05/08 15:45:31  5-MIN KDBQ 052145Z 19013G20KT 10SM FEW034 SCT055 28/22 A2963 1340 71 3200 190/13G20 RMK AO2
94908KDBQ DBQ20080605155013806/05/08 15:50:31  5-MIN KDBQ 052150Z 20018G27KT 10SM BKN055 28/22 A2963 1350 66 3200 200/18G27 RMK AO2 PK WND 19027/2147 SLP027 T02830217
94908KDBQ DBQ20080605155510306/05/08 15:55:31  5-MIN KDBQ 052155Z 19017G27KT 10SM BKN055 28/22 A2963 1350 66 3200 190/17G27 RMK AO2
94908KDBQ DBQ20080605160010306/05/08 16:00:31  5-MIN KDBQ 052200Z 20017G25KT 10SM SCT055 28/22 A2964 1340 66 3200 200/17G25 RMK AO2
94908KDBQ DBQ20080605160509706/05/08 16:05:31  5-MIN KDBQ 052205Z 20017KT 10SM FEW055 28/22 A2963 1340 66 3200 200/17 RMK AO2
94908KDBQ DBQ20080605161010306/05/08 16:10:31  5-MIN KDBQ 052210Z 20018G24KT 10SM SCT060 28/22 A2964 1340 66 3200 200/18G24 RMK AO2
94908KDBQ DBQ20080605161510306/05/08 16:15:31  5-MIN KDBQ 052215Z 20021G25KT 10SM BKN060 28/21 A2964 1340 64 3200 200/21G25 RMK AO2
94908KDBQ DBQ20080605162010306/05/08 16:20:31  5-MIN KDBQ 052220Z 20017G25KT 10SM BKN060 28/22 A2964 1340 66 3200 200/17G25 RMK AO2
94908KDBQ DBQ20080605162509706/05/08 16:25:31  5-MIN KDBQ 052225Z 19014KT 10SM BKN060 28/22 A2964 1340 69 3100 190/14 RMK AO2
94908KDBQ DBQ20080605163009706/05/08 16:30:31  5-MIN KDBQ 052230Z 20014KT 10SM BKN060 27/21 A2964 1340 69 3100 190/14 RMK AO2
94908KDBQ DBQ20080605163509706/05/08 16:35:31  5-MIN KDBQ 052235Z 19013KT 10SM SCT060 28/22 A2964 1340 69 3200 190/13 RMK AO2
94908KDBQ DBQ20080605164009706/05/08 16:40:31  5-MIN KDBQ 052240Z 19014KT 10SM SCT060 28/22 A2964 1340 66 3200 190/14 RMK AO2
94908KDBQ DBQ20080605164510306/05/08 16:45:31  5-MIN KDBQ 052245Z 20017G21KT 10SM FEW060 28/22 A2964 1340 66 3200 200/17G21 RMK AO2
94908KDBQ DBQ20080605165011406/05/08 16:50:31  5-MIN KDBQ 052250Z 20016KT 10SM FEW060 28/22 A2964 1340 66 3200 200/16 RMK AO2 SLP030 T02830217
94908KDBQ DBQ20080605165510006/05/08 16:55:31  5-MIN KDBQ 052255Z 20014G21KT 10SM CLR 28/22 A2964 1340 66 3200 200/14G21 RMK AO2
94908KDBQ DBQ20080605170010006/05/08 17:00:31  5-MIN KDBQ 052300Z 20015G21KT 10SM CLR 28/22 A2964 1340 66 3200 200/15G21 RMK AO2
94908KDBQ DBQ20080605170510306/05/08 17:05:31  5-MIN KDBQ 052305Z 20013G21KT 10SM FEW048 28/22 A2964 1340 66 3200 200/13G21 RMK AO2
94908KDBQ DBQ20080605171009706/05/08 17:10:31  5-MIN KDBQ 052310Z 20014KT 10SM FEW048 28/22 A2964 1340 69 3200 200/14 RMK AO2
94908KDBQ DBQ20080605171510006/05/08 17:15:31  5-MIN KDBQ 052315Z 19015G20KT 10SM CLR 28/22 A2964 1340 66 3200 190/15G20 RMK AO2
94908KDBQ DBQ20080605172010006/05/08 17:20:31  5-MIN KDBQ 052320Z 19016G22KT 10SM CLR 28/22 A2964 1340 66 3200 190/16G22 RMK AO2
94908KDBQ DBQ20080605172510006/05/08 17:25:31  5-MIN KDBQ 052325Z 20014G22KT 10SM CLR 28/21 A2964 1340 64 3200 200/14G22 RMK AO2
94908KDBQ DBQ20080605173010006/05/08 17:30:31  5-MIN KDBQ 052330Z 19015G22KT 10SM CLR 28/21 A2964 1340 64 3200 190/15G22 RMK AO2
94908KDBQ DBQ20080605173510306/05/08 17:35:31  5-MIN KDBQ 052335Z 19012G22KT 10SM FEW070 28/21 A2964 1340 64 3200 190/12G22 RMK AO2
94908KDBQ DBQ20080605174009706/05/08 17:40:31  5-MIN KDBQ 052340Z 19011KT 10SM FEW070 28/22 A2964 1340 66 3200 190/11 RMK AO2
94908KDBQ DBQ20080605174509706/05/08 17:45:31  5-MIN KDBQ 052345Z 19010KT 10SM FEW070 28/22 A2963 1340 66 3200 190/10 RMK AO2
94908KDBQ DBQ20080605175013806/05/08 17:50:31  5-MIN KDBQ 052350Z 19013KT 10SM FEW070 28/22 A2963 1340 66 3200 190/13 RMK AO2 SLP027 60001 T02830217 10289 20267 52006
94908KDBQ DBQ20080605175509706/05/08 17:55:31  5-MIN KDBQ 052355Z 19014KT 10SM FEW070 28/21 A2963 1340 66 3200 190/14 RMK AO2
94908KDBQ DBQ20080605180009706/05/08 18:00:31  5-MIN KDBQ 060000Z 18014KT 10SM FEW070 28/21 A2963 1350 66 3200 180/14 RMK AO2
94908KDBQ DBQ20080605180510306/05/08 18:05:31  5-MIN KDBQ 060005Z 18011G19KT 10SM FEW070 28/21 A2963 1340 66 3200 180/11G19 RMK AO2
94908KDBQ DBQ20080605181010306/05/08 18:10:31  5-MIN KDBQ 060010Z 19013G19KT 10SM FEW070 28/21 A2964 1340 66 3100 190/13G19 RMK AO2
94908KDBQ DBQ20080605181509706/05/08 18:15:31  5-MIN KDBQ 060015Z 19012KT 10SM FEW070 27/21 A2965 1330 69 3100 190/12 RMK AO2
94908KDBQ DBQ20080605182009706/05/08 18:20:31  5-MIN KDBQ 060020Z 19011KT 10SM FEW047 27/21 A2965 1330 69 3100 190/11 RMK AO2
94908KDBQ DBQ20080605182511006/05/08 18:25:31  5-MIN KDBQ 060025Z 19013G18KT 10SM FEW047 SCT070 27/21 A2965 1330 69 3100 190/13G18 RMK AO2
94908KDBQ DBQ20080605183011006/05/08 18:30:31  5-MIN KDBQ 060030Z 18011G18KT 10SM FEW047 SCT070 27/21 A2964 1340 69 3100 180/11G18 RMK AO2
94908KDBQ DBQ20080605183509706/05/08 18:35:31  5-MIN KDBQ 060035Z 18012KT 10SM FEW047 27/21 A2964 1340 69 3100 180/12 RMK AO2
94908KDBQ DBQ20080605184010206/05/08 18:40:31  5-MIN KDBQ 060040Z AUTO 18011KT 10SM FEW047 27/21 A2964 1340 71 3000 180/11 RMK AO2
94908KDBQ DBQ20080605184510206/05/08 18:45:31  5-MIN KDBQ 060045Z AUTO 18011KT 10SM FEW047 27/21 A2965 1330 66 3100 180/11 RMK AO2
94908KDBQ DBQ20080605185011906/05/08 18:50:31  5-MIN KDBQ 060050Z AUTO 18011KT 10SM FEW075 27/21 A2965 1330 69 3000 170/11 RMK AO2 SLP033 T02670206
94908KDBQ DBQ20080605185510206/05/08 18:55:31  5-MIN KDBQ 060055Z AUTO 17010KT 10SM FEW075 27/21 A2965 1330 71 3000 170/10 RMK AO2
94908KDBQ DBQ20080605190010206/05/08 19:00:31  5-MIN KDBQ 060100Z AUTO 17009KT 10SM FEW075 26/21 A2965 1330 73 2900 170/09 RMK AO2
94908KDBQ DBQ20080605190510206/05/08 19:05:31  5-MIN KDBQ 060105Z AUTO 16009KT 10SM FEW075 26/21 A2965 1330 76 2900 160/09 RMK AO2
94908KDBQ DBQ20080605191010206/05/08 19:10:31  5-MIN KDBQ 060110Z AUTO 16009KT 10SM FEW075 26/21 A2964 1340 73 3000 160/09 RMK AO2
94908KDBQ DBQ20080605191510206/05/08 19:15:31  5-MIN KDBQ 060115Z AUTO 17011KT 10SM FEW075 26/21 A2964 1340 73 3000 170/11 RMK AO2
94908KDBQ DBQ20080605192009906/05/08 19:20:31  5-MIN KDBQ 060120Z AUTO 17010KT 10SM CLR 26/21 A2965 1330 76 2900 170/10 RMK AO2
94908KDBQ DBQ20080605192510206/05/08 19:25:31  5-MIN KDBQ 060125Z AUTO 17009KT 10SM FEW050 26/21 A2965 1330 76 2900 170/09 RMK AO2
94908KDBQ DBQ20080605193010206/05/08 19:30:31  5-MIN KDBQ 060130Z AUTO 17009KT 10SM SCT050 26/21 A2965 1330 76 2900 170/09 RMK AO2
94908KDBQ DBQ20080605193510206/05/08 19:35:31  5-MIN KDBQ 060135Z AUTO 17010KT 10SM FEW055 26/21 A2966 1320 76 2900 170/10 RMK AO2
94908KDBQ DBQ20080605194010206/05/08 19:40:31  5-MIN KDBQ 060140Z AUTO 17011KT 10SM FEW050 26/21 A2966 1320 76 2900 170/11 RMK AO2
94908KDBQ DBQ20080605194510906/05/08 19:45:31  5-MIN KDBQ 060145Z AUTO 17011KT 10SM FEW050 SCT075 26/21 A2966 1320 73 2900 170/11 RMK AO2
94908KDBQ DBQ20080605195012606/05/08 19:50:31  5-MIN KDBQ 060150Z AUTO 18010KT 10SM FEW050 SCT075 26/21 A2966 1320 73 2900 180/10 RMK AO2 SLP038 T02560206
94908KDBQ DBQ20080605195510206/05/08 19:55:31  5-MIN KDBQ 060155Z AUTO 18011KT 10SM FEW075 26/21 A2967 1310 73 2900 180/11 RMK AO2
94908KDBQ DBQ20080605200010206/05/08 20:00:31  5-MIN KDBQ 060200Z AUTO 17011KT 10SM SCT075 26/21 A2967 1310 73 2900 170/11 RMK AO2
94908KDBQ DBQ20080605200510906/05/08 20:05:31  5-MIN KDBQ 060205Z AUTO 18011KT 10SM FEW060 SCT075 26/21 A2967 1310 73 2900 170/11 RMK AO2
94908KDBQ DBQ20080605201010906/05/08 20:10:31  5-MIN KDBQ 060210Z AUTO 18013KT 10SM FEW060 SCT075 26/21 A2967 1310 71 2900 180/13 RMK AO2
94908KDBQ DBQ20080605201511606/05/08 20:15:31  5-MIN KDBQ 060215Z AUTO 18012KT 10SM FEW044 SCT060 SCT080 26/21 A2967 1310 71 2900 180/12 RMK AO2
94908KDBQ DBQ20080605202011606/05/08 20:20:31  5-MIN KDBQ 060220Z AUTO 18011KT 10SM FEW046 SCT055 BKN075 26/21 A2967 1310 71 2900 170/11 RMK AO2
94908KDBQ DBQ20080605202511606/05/08 20:25:31  5-MIN KDBQ 060225Z AUTO 17012KT 10SM FEW046 SCT055 BKN080 26/21 A2967 1310 73 2900 170/12 RMK AO2
94908KDBQ DBQ20080605203010906/05/08 20:30:31  5-MIN KDBQ 060230Z AUTO 17011KT 10SM FEW046 BKN080 26/21 A2967 1310 73 2900 170/11 RMK AO2
94908KDBQ DBQ20080605203510906/05/08 20:35:31  5-MIN KDBQ 060235Z AUTO 17011KT 10SM FEW046 BKN080 25/21 A2967 1310 76 2800 170/11 RMK AO2
94908KDBQ DBQ20080605204010906/05/08 20:40:31  5-MIN KDBQ 060240Z AUTO 17011KT 10SM FEW048 BKN080 25/21 A2967 1310 76 2800 170/11 RMK AO2
94908KDBQ DBQ20080605204510906/05/08 20:45:31  5-MIN KDBQ 060245Z AUTO 17011KT 10SM FEW048 BKN080 25/21 A2968 1310 76 2800 170/11 RMK AO2
94908KDBQ DBQ20080605205012506/05/08 20:50:31  5-MIN KDBQ 060250Z AUTO 17012KT 10SM BKN080 25/21 A2967 1310 76 2800 170/12 RMK AO2 SLP041 T02500206 56003
94908KDBQ DBQ20080605205510206/05/08 20:55:31  5-MIN KDBQ 060255Z AUTO 17012KT 10SM BKN080 25/21 A2967 1310 76 2800 160/12 RMK AO2
94908KDBQ DBQ20080605210010206/05/08 21:00:31  5-MIN KDBQ 060300Z AUTO 16012KT 10SM SCT080 25/21 A2967 1310 76 2800 160/12 RMK AO2
94908KDBQ DBQ20080605210510206/05/08 21:05:31  5-MIN KDBQ 060305Z AUTO 16012KT 10SM SCT080 25/21 A2967 1310 76 2800 160/12 RMK AO2
94908KDBQ DBQ20080605211010206/05/08 21:10:31  5-MIN KDBQ 060310Z AUTO 16014KT 10SM SCT080 25/21 A2967 1310 76 2800 160/14 RMK AO2
94908KDBQ DBQ20080605211510206/05/08 21:15:31  5-MIN KDBQ 060315Z AUTO 16011KT 10SM BKN080 25/21 A2967 1310 76 2800 160/11 RMK AO2
94908KDBQ DBQ20080605212010206/05/08 21:20:31  5-MIN KDBQ 060320Z AUTO 16013KT 10SM BKN080 25/21 A2967 1310 76 2800 160/13 RMK AO2
94908KDBQ DBQ20080605212510206/05/08 21:25:31  5-MIN KDBQ 060325Z AUTO 16011KT 10SM BKN085 25/21 A2967 1310 76 2800 160/11 RMK AO2
94908KDBQ DBQ20080605213010206/05/08 21:30:31  5-MIN KDBQ 060330Z AUTO 16012KT 10SM BKN085 25/21 A2967 1320 76 2800 160/12 RMK AO2
94908KDBQ DBQ20080605213510206/05/08 21:35:31  5-MIN KDBQ 060335Z AUTO 16012KT 10SM BKN085 25/21 A2967 1310 76 2800 160/12 RMK AO2
94908KDBQ DBQ20080605214010206/05/08 21:40:31  5-MIN KDBQ 060340Z AUTO 16013KT 10SM SCT085 25/21 A2966 1320 76 2800 160/13 RMK AO2
94908KDBQ DBQ20080605214510206/05/08 21:45:31  5-MIN KDBQ 060345Z AUTO 16012KT 10SM SCT085 25/21 A2966 1320 76 2800 160/12 RMK AO2
94908KDBQ DBQ20080605215011906/05/08 21:50:31  5-MIN KDBQ 060350Z AUTO 16014KT 10SM FEW085 25/21 A2966 1320 76 2800 160/14 RMK AO2 SLP034 T02500206
94908KDBQ DBQ20080605215510506/05/08 21:55:31  5-MIN KDBQ 060355Z AUTO 16013G19KT 10SM CLR 25/21 A2966 1320 76 2800 160/13G19 RMK AO2
94908KDBQ DBQ20080605220010506/05/08 22:00:31  5-MIN KDBQ 060400Z AUTO 16014G19KT 10SM CLR 25/21 A2966 1320 76 2800 160/14G19 RMK AO2
94908KDBQ DBQ20080605220509906/05/08 22:05:31  5-MIN KDBQ 060405Z AUTO 16015KT 10SM CLR 25/21 A2965 1330 76 2800 160/15 RMK AO2
94908KDBQ DBQ20080605221009906/05/08 22:10:31  5-MIN KDBQ 060410Z AUTO 16013KT 10SM CLR 25/21 A2965 1330 76 2800 160/13 RMK AO2
94908KDBQ DBQ20080605221509906/05/08 22:15:31  5-MIN KDBQ 060415Z AUTO 16014KT 10SM CLR 25/21 A2965 1330 76 2800 160/14 RMK AO2
94908KDBQ DBQ20080605222009906/05/08 22:20:31  5-MIN KDBQ 060420Z AUTO 16013KT 10SM CLR 25/21 A2965 1330 76 2800 160/13 RMK AO2
94908KDBQ DBQ20080605222510806/05/08 22:25:31  5-MIN KDBQ 060425Z AUTO 17015G21KT 10SM FEW090 25/21 A2965 1330 76 2800 160/15G21 RMK AO2
94908KDBQ DBQ20080605223010806/05/08 22:30:31  5-MIN KDBQ 060430Z AUTO 17014G21KT 10SM FEW090 25/21 A2964 1340 76 2800 160/14G21 RMK AO2
94908KDBQ DBQ20080605223510206/05/08 22:35:31  5-MIN KDBQ 060435Z AUTO 16016KT 10SM FEW090 25/21 A2964 1340 76 2800 160/16 RMK AO2
94908KDBQ DBQ20080605224010806/05/08 22:40:31  5-MIN KDBQ 060440Z AUTO 16015G21KT 10SM FEW090 25/21 A2963 1340 76 2800 160/15G21 RMK AO2
94908KDBQ DBQ20080605224510806/05/08 22:45:31  5-MIN KDBQ 060445Z AUTO 16016G21KT 10SM FEW090 25/21 A2963 1340 76 2800 160/16G21 RMK AO2
94908KDBQ DBQ20080605225011906/05/08 22:50:31  5-MIN KDBQ 060450Z AUTO 17014KT 10SM FEW090 25/21 A2965 1330 76 2800 170/14 RMK AO2 SLP030 T02500206
94908KDBQ DBQ20080605225510206/05/08 22:55:31  5-MIN KDBQ 060455Z AUTO 17014KT 10SM SCT090 25/21 A2965 1330 76 2800 170/14 RMK AO2
94908KDBQ DBQ20080605230010206/05/08 23:00:31  5-MIN KDBQ 060500Z AUTO 17014KT 10SM BKN090 24/21 A2965 1330 78 2800 170/14 RMK AO2
94908KDBQ DBQ20080605230510206/05/08 23:05:31  5-MIN KDBQ 060505Z AUTO 17014KT 10SM BKN090 24/21 A2965 1330 78 2800 170/14 RMK AO2
94908KDBQ DBQ20080605231010206/05/08 23:10:31  5-MIN KDBQ 060510Z AUTO 16015KT 10SM BKN090 24/21 A2964 1340 78 2800 160/15 RMK AO2
94908KDBQ DBQ20080605231510206/05/08 23:15:31  5-MIN KDBQ 060515Z AUTO 16014KT 10SM BKN090 24/21 A2964 1340 78 2800 160/14 RMK AO2
94908KDBQ DBQ20080605232010206/05/08 23:20:31  5-MIN KDBQ 060520Z AUTO 16015KT 10SM BKN090 24/21 A2964 1340 78 2800 160/15 RMK AO2
94908KDBQ DBQ20080605232510206/05/08 23:25:31  5-MIN KDBQ 060525Z AUTO 16014KT 10SM SCT090 24/20 A2964 1340 76 2800 160/14 RMK AO2
94908KDBQ DBQ20080605233010206/05/08 23:30:31  5-MIN KDBQ 060530Z AUTO 17013KT 10SM FEW090 24/20 A2964 1330 76 2800 170/13 RMK AO2
94908KDBQ DBQ20080605233510206/05/08 23:35:31  5-MIN KDBQ 060535Z AUTO 17014KT 10SM FEW090 24/21 A2965 1330 78 2800 170/14 RMK AO2
94908KDBQ DBQ20080605234010206/05/08 23:40:31  5-MIN KDBQ 060540Z AUTO 17014KT 10SM FEW085 24/21 A2964 1340 78 2800 170/14 RMK AO2
94908KDBQ DBQ20080605234510806/05/08 23:45:31  5-MIN KDBQ 060545Z AUTO 16015G22KT 10SM FEW085 24/21 A2964 1340 78 2800 160/15G22 RMK AO2
94908KDBQ DBQ20080605235015006/05/08 23:50:31  5-MIN KDBQ 060550Z AUTO 17017G22KT 10SM CLR 24/21 A2964 1340 78 2800 170/17G22 RMK AO2 SLP028 T02440206 10278 20244 402890189 51013
94908KDBQ DBQ20080605235509906/05/08 23:55:31  5-MIN KDBQ 060555Z AUTO 17017KT 10SM CLR 24/21 A2964 1340 78 2800 160/17 RMK AO2
94908KDBQ DBQ20080606000009906/06/08 00:00:38  5-MIN KDBQ 060600Z AUTO 17017KT 10SM CLR 24/21 A2963 1350 78 2800 170/17 RMK AO2
94908KDBQ DBQ20080606000509906/06/08 00:05:31  5-MIN KDBQ 060605Z AUTO 17018KT 10SM CLR 24/21 A2963 1350 78 2800 170/18 RMK AO2
94908KDBQ DBQ20080606001009906/06/08 00:10:31  5-MIN KDBQ 060610Z AUTO 17017KT 10SM CLR 24/21 A2963 1350 78 2800 170/17 RMK AO2
94908KDBQ DBQ20080606001510506/06/08 00:15:37  5-MIN KDBQ 060615Z AUTO 17019G24KT 10SM CLR 24/21 A2963 1340 78 2800 170/19G24 RMK AO2
94908KDBQ DBQ20080606002010506/06/08 00:20:31  5-MIN KDBQ 060620Z AUTO 18018G25KT 10SM CLR 24/21 A2964 1340 78 2800 170/18G25 RMK AO2
94908KDBQ DBQ20080606002512306/06/08 00:25:31  5-MIN KDBQ 060625Z AUTO 17021G28KT 10SM CLR 24/21 A2964 1340 78 2800 170/21G28 RMK AO2 PK WND 17028/0625
94908KDBQ DBQ20080606003012306/06/08 00:30:31  5-MIN KDBQ 060630Z AUTO 18018G28KT 10SM CLR 24/21 A2964 1340 78 2800 180/18G28 RMK AO2 PK WND 17028/0625
94908KDBQ DBQ20080606003512606/06/08 00:35:31  5-MIN KDBQ 060635Z AUTO 17020G25KT 10SM FEW090 24/21 A2963 1340 78 2800 170/20G25 RMK AO2 PK WND 17028/0625
94908KDBQ DBQ20080606004012306/06/08 00:40:31  5-MIN KDBQ 060640Z AUTO 17019G25KT 10SM CLR 24/21 A2963 1350 78 2800 170/19G25 RMK AO2 PK WND 17028/0625
94908KDBQ DBQ20080606004512606/06/08 00:45:31  5-MIN KDBQ 060645Z AUTO 18019G25KT 10SM FEW090 24/21 A2964 1340 78 2800 180/19G25 RMK AO2 PK WND 17028/0625
94908KDBQ DBQ20080606005014306/06/08 00:50:31  5-MIN KDBQ 060650Z AUTO 18017G25KT 10SM FEW090 24/21 A2963 1340 78 2800 180/17G25 RMK AO2 PK WND 17028/0625 SLP026 T02440206
94908KDBQ DBQ20080606005510806/06/08 00:55:31  5-MIN KDBQ 060655Z AUTO 17016G24KT 10SM SCT090 24/21 A2963 1350 78 2800 170/16G24 RMK AO2
94908KDBQ DBQ20080606010010806/06/08 01:00:31  5-MIN KDBQ 060700Z AUTO 17018G23KT 10SM SCT090 24/21 A2963 1350 78 2800 170/18G23 RMK AO2
94908KDBQ DBQ20080606010510806/06/08 01:05:31  5-MIN KDBQ 060705Z AUTO 17018G25KT 10SM FEW090 24/21 A2963 1350 78 2800 170/18G25 RMK AO2
94908KDBQ DBQ20080606011010806/06/08 01:10:31  5-MIN KDBQ 060710Z AUTO 17016G25KT 10SM FEW090 24/21 A2963 1350 78 2800 170/16G25 RMK AO2
94908KDBQ DBQ20080606011510806/06/08 01:15:31  5-MIN KDBQ 060715Z AUTO 17018G24KT 10SM FEW090 24/21 A2962 1350 78 2800 170/18G24 RMK AO2
94908KDBQ DBQ20080606012010206/06/08 01:20:31  5-MIN KDBQ 060720Z AUTO 17017KT 10SM FEW090 24/21 A2962 1350 81 2700 170/17 RMK AO2
94908KDBQ DBQ20080606012510506/06/08 01:25:31  5-MIN KDBQ 060725Z AUTO 17018G25KT 10SM CLR 24/21 A2962 1360 78 2800 170/18G25 RMK AO2
94908KDBQ DBQ20080606013010506/06/08 01:30:31  5-MIN KDBQ 060730Z AUTO 17017G25KT 10SM CLR 24/21 A2962 1360 78 2800 170/17G25 RMK AO2
94908KDBQ DBQ20080606013510506/06/08 01:35:31  5-MIN KDBQ 060735Z AUTO 17019G25KT 10SM CLR 24/21 A2962 1360 78 2800 170/19G25 RMK AO2
94908KDBQ DBQ20080606014010506/06/08 01:40:31  5-MIN KDBQ 060740Z AUTO 17017G25KT 10SM CLR 24/21 A2961 1360 81 2700 170/17G25 RMK AO2
94908KDBQ DBQ20080606014510806/06/08 01:45:31  5-MIN KDBQ 060745Z AUTO 17017G25KT 10SM FEW080 24/21 A2961 1360 81 2700 170/17G25 RMK AO2
94908KDBQ DBQ20080606015011906/06/08 01:50:31  5-MIN KDBQ 060750Z AUTO 16016KT 10SM FEW080 24/21 A2961 1370 81 2800 160/16 RMK AO2 SLP017 T02390206
94908KDBQ DBQ20080606015510206/06/08 01:55:31  5-MIN KDBQ 060755Z AUTO 17018KT 10SM FEW080 24/21 A2961 1370 81 2800 170/18 RMK AO2
94908KDBQ DBQ20080606020010806/06/08 02:00:31  5-MIN KDBQ 060800Z AUTO 17017G24KT 10SM SCT080 24/21 A2961 1370 81 2800 170/17G24 RMK AO2
94908KDBQ DBQ20080606020510806/06/08 02:05:31  5-MIN KDBQ 060805Z AUTO 17020G25KT 10SM BKN080 24/21 A2960 1370 81 2800 170/20G25 RMK AO2
94908KDBQ DBQ20080606021010806/06/08 02:10:31  5-MIN KDBQ 060810Z AUTO 17018G25KT 10SM BKN085 24/21 A2961 1370 81 2800 170/18G25 RMK AO2
94908KDBQ DBQ20080606021510806/06/08 02:15:31  5-MIN KDBQ 060815Z AUTO 17018G25KT 10SM BKN090 24/21 A2961 1370 81 2700 170/18G25 RMK AO2
94908KDBQ DBQ20080606022010806/06/08 02:20:31  5-MIN KDBQ 060820Z AUTO 17018G25KT 10SM SCT090 24/21 A2961 1370 81 2800 170/18G25 RMK AO2
94908KDBQ DBQ20080606022513306/06/08 02:25:31  5-MIN KDBQ 060825Z AUTO 17020G27KT 10SM SCT085 BKN100 24/21 A2960 1370 81 2800 170/20G27 RMK AO2 PK WND 17027/0821
94908KDBQ DBQ20080606023012606/06/08 02:30:31  5-MIN KDBQ 060830Z AUTO 17019G27KT 10SM SCT090 24/21 A2960 1370 81 2800 170/19G27 RMK AO2 PK WND 17027/0821
94908KDBQ DBQ20080606023512606/06/08 02:35:31  5-MIN KDBQ 060835Z AUTO 17019G27KT 10SM SCT095 24/21 A2961 1370 81 2800 170/19G27 RMK AO2 PK WND 18027/0831
94908KDBQ DBQ20080606024014006/06/08 02:40:31  5-MIN KDBQ 060840Z AUTO 18021G30KT 10SM FEW038 SCT048 SCT100 24/21 A2962 1360 78 2800 180/21G30 RMK AO2 PK WND 20030/0840
94908KDBQ DBQ20080606024516206/06/08 02:45:31  5-MIN KDBQ 060845Z AUTO 24025G53KT 5SM +RA FEW021 SCT037 BKN075 22/19 A2963 1340 84 2500 240/25G53 RMK AO2 PK WND 21053/0841 RAB43 PRESRR P0000
94908KDBQ DBQ20080606025017306/06/08 02:50:31  5-MIN KDBQ 060850Z AUTO 23025G53KT 4SM +RA FEW018 SCT037 BKN046 21/18 A2964 1330 84 2300 230/25G53 RMK AO2 PK WND 21053/0841 WSHFT 0833 RAB43 PRESRR P0002
94908KDBQ DBQ20080606025516306/06/08 02:55:31  5-MIN KDBQ 060855Z AUTO 23022G33KT 4SM +RA BR SCT022 BKN038 BKN046 20/18 A2965 1330 87 2300 230/22G33 RMK AO2 PK WND 24027/0854 WSHFT 0840 P0002
94908KDBQ DBQ20080606030018006/06/08 03:00:31  5-MIN KDBQ 060900Z AUTO 21017G31KT 4SM RA BR SCT022 BKN041 OVC090 20/18 A2967 1310 87 2200 210/17G31 RMK AO2 PK WND 24027/0854 WSHFT 0840 LTG DSNT W PRESRR P0002
94908KDBQ DBQ20080606030517106/06/08 03:05:31  5-MIN KDBQ 060905Z AUTO 21016G24KT 7SM -RA SCT021 BKN046 OVC060 19/18 A2966 1320 90 2200 210/16G24 RMK AO2 PK WND 24027/0854 WSHFT 0840 LTG DSNT W P0004
94908KDBQ DBQ20080606031017906/06/08 03:10:31  5-MIN KDBQ 060910Z AUTO 21015G24KT 10SM -RA FEW021 BKN043 OVC080 19/18 A2965 1330 90 2200 210/15G24 RMK AO2 PK WND 24027/0854 WSHFT 0840 LTG DSNT SW AND W P0004
94908KDBQ DBQ20080606031518106/06/08 03:15:31  5-MIN KDBQ 060915Z AUTO 21015G21KT 10SM FEW021 BKN048 OVC080 19/18 A2965 1330 90 2200 210/15G21 RMK AO2 PK WND 24027/0854 WSHFT 0840 LTG DSNT SW AND W RAE15 P0004
94908KDBQ DBQ20080606032017506/06/08 03:20:31  5-MIN KDBQ 060920Z AUTO 20014KT 10SM FEW025 SCT048 OVC065 19/18 A2965 1330 90 2200 200/14 RMK AO2 PK WND 24027/0854 WSHFT 0840 LTG DSNT SW AND W RAE15 P0004
94908KDBQ DBQ20080606032517406/06/08 03:25:31  5-MIN KDBQ 060925Z AUTO 21018G22KT 10SM FEW047 OVC070 19/18 A2967 1310 90 2200 210/18G22 RMK AO2 PK WND 24027/0854 WSHFT 0840 LTG DSNT SW AND W RAE15 P0004
94908KDBQ DBQ20080606033018106/06/08 03:30:31  5-MIN KDBQ 060930Z AUTO 21015G22KT 10SM FEW044 OVC070 19/18 A2967 1310 90 2200 210/15G22 RMK AO2 PK WND 24027/0854 WSHFT 0840 LTG DSNT NE AND SW AND W RAE15 P0004
94908KDBQ DBQ20080606033520506/06/08 03:35:31  5-MIN KDBQ 060935Z AUTO 20015G22KT 10SM VCTS -RA FEW050 SCT060 OVC075 19/18 A2967 1310 90 2200 200/15G22 RMK AO2 PK WND 24027/0854 WSHFT 0840 LTG DSNT NE AND SW AND W TSB32RAE15B31 P0004
94908KDBQ DBQ20080606034019606/06/08 03:40:31  5-MIN KDBQ 060940Z AUTO 20015G22KT 6SM VCTS RA BR FEW020 BKN065 OVC080 19/18 A2966 1320 90 2200 200/15G22 RMK AO2 PK WND 24027/0854 WSHFT 0840 LTG DSNT ALQDS TSB32RAE15B31 P0004
94908KDBQ DBQ20080606034519006/06/08 03:45:31  5-MIN KDBQ 060945Z AUTO 20017G23KT 4SM VCTS +RA BR SCT020 OVC070 19/18 A2966 1320 90 2200 190/17G23 RMK AO2 PK WND 24027/0854 WSHFT 0840 LTG DSNT ALQDS TSB32RAE15B31 P0008
94908KDBQ DBQ20080606035022006/06/08 03:50:31  5-MIN KDBQ 060950Z AUTO 19014G23KT 5SM VCTS -RA BR SCT024 BKN060 OVC080 19/18 A2965 1330 93 2100 190/14G23 RMK AO2 PK WND 24027/0854 WSHFT 0840 LTG DSNT ALQDS TSB32E47B49RAE15B31 SLP034 P0009 T01890178
94908KDBQ DBQ20080606035514906/06/08 03:55:31  5-MIN KDBQ 060955Z AUTO 18016G21KT 6SM VCTS RA BR BKN030 BKN060 OVC080 19/18 A2965 1330 93 2100 180/16G21 RMK AO2 LTG DSNT S P0000
94908KDBQ DBQ20080606040015606/06/08 04:00:31  5-MIN KDBQ 061000Z AUTO 18014G22KT 6SM VCTS RA BR BKN037 BKN060 OVC080 19/18 A2964 1340 90 2200 180/14G22 RMK AO2 LTG DSNT N PRESFR P0001
94908KDBQ DBQ20080606040514406/06/08 04:05:31  5-MIN KDBQ 061005Z AUTO 19018G25KT 6SM -RA BR BKN039 OVC085 19/18 A2964 1340 90 2200 190/18G25 RMK AO2 LTG DSNT N TSE05 P0001
94908KDBQ DBQ20080606041014306/06/08 04:10:31  5-MIN KDBQ 061010Z AUTO 18016G25KT 6SM RA BR OVC037 19/17 A2963 1350 87 2200 180/16G25 RMK AO2 LTG DSNT N TSE05 PRESFR P0004
94908KDBQ DBQ20080606041512506/06/08 04:15:31  5-MIN KDBQ 061015Z AUTO 18017G25KT 6SM RA BR OVC039 19/18 A2962 1360 90 2200 170/17G25 RMK AO2 TSE05 P0005
94908KDBQ DBQ20080606042012206/06/08 04:20:31  5-MIN KDBQ 061020Z AUTO 17018G24KT 7SM RA OVC041 19/18 A2962 1360 90 2200 170/18G24 RMK AO2 TSE05 P0005
94908KDBQ DBQ20080606042514106/06/08 04:25:31  5-MIN KDBQ 061025Z AUTO 18020G27KT 8SM -RA OVC043 19/18 A2962 1360 90 2200 180/20G27 RMK AO2 PK WND 18027/1025 TSE05 P0006
94908KDBQ DBQ20080606043014106/06/08 04:30:31  5-MIN KDBQ 061030Z AUTO 17017G27KT 9SM -RA OVC039 19/18 A2961 1360 90 2200 170/17G27 RMK AO2 PK WND 18027/1025 TSE05 P0007
94908KDBQ DBQ20080606043514206/06/08 04:35:31  5-MIN KDBQ 061035Z AUTO 17019G28KT 10SM -RA BKN037 19/17 A2961 1370 87 2200 170/19G28 RMK AO2 PK WND 17028/1035 TSE05 P0007
94908KDBQ DBQ20080606044014206/06/08 04:40:31  5-MIN KDBQ 061040Z AUTO 17019G28KT 10SM -RA BKN035 19/17 A2961 1370 87 2200 170/19G28 RMK AO2 PK WND 17028/1035 TSE05 P0007
94908KDBQ DBQ20080606044514906/06/08 04:45:31  5-MIN KDBQ 061045Z AUTO 17020G27KT 10SM -RA BKN031 BKN110 19/17 A2960 1370 87 2200 170/20G27 RMK AO2 PK WND 17028/1035 TSE05 P0007
94908KDBQ DBQ20080606045015906/06/08 04:50:31  5-MIN KDBQ 061050Z AUTO 17019G25KT 10SM -RA BKN038 19/18 A2960 1380 90 2300 170/19G25 RMK AO2 PK WND 17028/1035 TSE05 SLP015 P0007 T01940178
94908KDBQ DBQ20080606045512006/06/08 04:55:31  5-MIN KDBQ 061055Z 16018G25KT 10SM -RA BKN044 19/18 A2959 1390 90 2300 160/18G25 RMK AO2 PRESFR P0000
94908KDBQ DBQ20080606050013106/06/08 05:00:31  5-MIN KDBQ 061100Z 17020G26KT 10SM -RA BKN048 19/17 A2958 1390 87 2300 170/20G26 RMK AO2 PK WND 17026/1100 P0000
94908KDBQ DBQ20080606050513106/06/08 05:05:31  5-MIN KDBQ 061105Z 17020G27KT 10SM -RA OVC048 19/17 A2960 1370 87 2200 170/20G27 RMK AO2 PK WND 17027/1104 P0000
94908KDBQ DBQ20080606051013106/06/08 05:10:31  5-MIN KDBQ 061110Z 17018G27KT 10SM -RA OVC048 19/17 A2959 1390 87 2300 170/18G27 RMK AO2 PK WND 17027/1104 P0000
94908KDBQ DBQ20080606051513006/06/08 05:15:31  5-MIN KDBQ 061115Z 17016G26KT 8SM -RA OVC048 19/17 A2958 1390 87 2300 170/16G26 RMK AO2 PK WND 17027/1104 P0002
94908KDBQ DBQ20080606052013006/06/08 05:20:31  5-MIN KDBQ 061120Z 17014G22KT 8SM -RA OVC050 19/17 A2960 1370 87 2200 170/14G22 RMK AO2 PK WND 17027/1104 P0002
94908KDBQ DBQ20080606052513806/06/08 05:25:31  5-MIN KDBQ 061125Z 19017G22KT 10SM -RA BKN055 19/18 A2963 1350 90 2200 190/17G22 RMK AO2 PK WND 17027/1104 PRESRR P0002
94908KDBQ DBQ20080606053013306/06/08 05:30:31  5-MIN KDBQ 061130Z 18014G22KT 10SM BKN050 19/17 A2962 1360 87 2200 180/14G22 RMK AO2 PK WND 17027/1104 RAE28 P0002
94908KDBQ DBQ20080606053512706/06/08 05:35:31  5-MIN KDBQ 061135Z 17015KT 10SM SCT050 19/17 A2960 1370 87 2200 170/15 RMK AO2 PK WND 17027/1104 RAE28 P0002
94908KDBQ DBQ20080606054013306/06/08 05:40:31  5-MIN KDBQ 061140Z 18014G20KT 10SM SCT055 19/17 A2962 1360 87 2200 180/14G20 RMK AO2 PK WND 17027/1104 RAE28 P0002
94908KDBQ DBQ20080606054513306/06/08 05:45:31  5-MIN KDBQ 061145Z 17019G23KT 10SM FEW070 19/17 A2962 1360 87 2200 170/19G23 RMK AO2 PK WND 17027/1104 RAE28 P0002
94908KDBQ DBQ20080606055017706/06/08 05:50:31  5-MIN KDBQ 061150Z 18017G23KT 10SM CLR 19/17 A2962 1360 87 2200 180/17G23 RMK AO2 PK WND 17027/1104 RAE28 SLP023 P0002 60024 70029 T01940172 10244 20189 53001
94908KDBQ DBQ20080606055510006/06/08 05:55:31  5-MIN KDBQ 061155Z 18018G24KT 10SM CLR 19/17 A2962 1360 87 2200 180/18G24 RMK AO2
94908KDBQ DBQ20080606060011806/06/08 06:00:31  5-MIN KDBQ 061200Z 17018G27KT 10SM CLR 19/17 A2961 1370 87 2200 170/18G27 RMK AO2 PK WND 18027/1157
94908KDBQ DBQ20080606060512106/06/08 06:05:31  5-MIN KDBQ 061205Z 17018G27KT 10SM FEW085 19/17 A2961 1370 87 2200 170/18G27 RMK AO2 PK WND 18027/1157
94908KDBQ DBQ20080606061012106/06/08 06:10:31  5-MIN KDBQ 061210Z 16022G30KT 10SM SCT090 20/17 A2961 1370 84 2300 160/22G30 RMK AO2 PK WND 16030/1210
94908KDBQ DBQ20080606061512106/06/08 06:15:31  5-MIN KDBQ 061215Z 18024G33KT 10SM BKN090 20/17 A2961 1370 84 2300 180/24G33 RMK AO2 PK WND 16033/1213
94908KDBQ DBQ20080606062012106/06/08 06:20:31  5-MIN KDBQ 061220Z 18022G33KT 10SM BKN090 21/17 A2960 1370 81 2400 180/22G33 RMK AO2 PK WND 19033/1217
94908KDBQ DBQ20080606062512106/06/08 06:25:31  5-MIN KDBQ 061225Z 19020G33KT 10SM BKN090 21/17 A2960 1380 81 2400 180/20G33 RMK AO2 PK WND 19033/1217
94908KDBQ DBQ20080606063012106/06/08 06:30:31  5-MIN KDBQ 061230Z 19022G31KT 10SM OVC090 21/17 A2959 1380 81 2400 190/22G31 RMK AO2 PK WND 19033/1217
94908KDBQ DBQ20080606063512806/06/08 06:35:31  5-MIN KDBQ 061235Z 19022G31KT 10SM SCT080 OVC090 21/17 A2960 1380 78 2400 190/22G31 RMK AO2 PK WND 19033/1217
94908KDBQ DBQ20080606064012806/06/08 06:40:31  5-MIN KDBQ 061240Z 19019G29KT 10SM SCT075 OVC090 21/18 A2960 1380 81 2400 190/19G29 RMK AO2 PK WND 19033/1217
94908KDBQ DBQ20080606064512106/06/08 06:45:31  5-MIN KDBQ 061245Z 19018G25KT 10SM OVC085 21/18 A2960 1380 81 2400 180/18G25 RMK AO2 PK WND 19033/1217
94908KDBQ DBQ20080606065014506/06/08 06:50:31  5-MIN KDBQ 061250Z 18017G25KT 10SM SCT075 OVC090 21/18 A2959 1380 81 2400 180/17G25 RMK AO2 PK WND 19033/1217 SLP014 T02110178
94908KDBQ DBQ20080606065511006/06/08 06:55:31  5-MIN KDBQ 061255Z 19018G24KT 10SM SCT075 BKN090 22/18 A2960 1380 78 2500 190/18G24 RMK AO2
94908KDBQ DBQ20080606070011706/06/08 07:00:31  5-MIN KDBQ 061300Z 19018G25KT 10SM FEW050 BKN075 BKN090 21/18 A2960 1380 81 2400 190/18G25 RMK AO2
94908KDBQ DBQ20080606070511706/06/08 07:05:31  5-MIN KDBQ 061305Z 19019G25KT 10SM SCT050 BKN065 BKN085 21/18 A2960 1380 81 2400 190/19G25 RMK AO2
94908KDBQ DBQ20080606071011706/06/08 07:10:31  5-MIN KDBQ 061310Z 19018G24KT 10SM SCT050 BKN065 BKN085 21/18 A2960 1380 81 2400 190/18G24 RMK AO2
94908KDBQ DBQ20080606071511706/06/08 07:15:31  5-MIN KDBQ 061315Z 19016G24KT 10SM BKN050 BKN060 BKN080 21/18 A2960 1370 81 2400 190/16G24 RMK AO2
94908KDBQ DBQ20080606072010406/06/08 07:20:31  5-MIN KDBQ 061320Z 19019KT 10SM BKN050 BKN060 21/18 A2960 1370 81 2400 190/19 RMK AO2
94908KDBQ DBQ20080606072512106/06/08 07:25:31  5-MIN KDBQ 061325Z 19019G26KT 10SM OVC055 21/18 A2960 1380 81 2400 190/19G26 RMK AO2 PK WND 19026/1324
94908KDBQ DBQ20080606073012806/06/08 07:30:31  5-MIN KDBQ 061330Z 19019G26KT 10SM SCT050 BKN060 22/18 A2961 1370 78 2500 190/19G26 RMK AO2 PK WND 18026/1326
94908KDBQ DBQ20080606073512806/06/08 07:35:31  5-MIN KDBQ 061335Z 19020G28KT 10SM FEW050 OVC060 22/18 A2961 1370 78 2500 190/20G28 RMK AO2 PK WND 19028/1335
94908KDBQ DBQ20080606074012806/06/08 07:40:31  5-MIN KDBQ 061340Z 19019G30KT 10SM FEW050 OVC060 22/18 A2960 1370 78 2500 190/19G30 RMK AO2 PK WND 20030/1338
94908KDBQ DBQ20080606074512806/06/08 07:45:31  5-MIN KDBQ 061345Z 19021G30KT 10SM FEW031 BKN060 22/18 A2960 1370 78 2600 190/21G30 RMK AO2 PK WND 20030/1338
94908KDBQ DBQ20080606075014506/06/08 07:50:31  5-MIN KDBQ 061350Z 19019G26KT 10SM SCT031 BKN060 22/18 A2961 1370 78 2600 190/19G26 RMK AO2 PK WND 20030/1338 SLP018 T02220183
94908KDBQ DBQ20080606075512806/06/08 07:55:31  5-MIN KDBQ 061355Z 19022G31KT 10SM BKN031 OVC060 22/18 A2961 1370 78 2600 190/22G31 RMK AO2 PK WND 19027/1354
94908KDBQ DBQ20080606080012806/06/08 08:00:31  5-MIN KDBQ 061400Z 19019G31KT 10SM BKN031 OVC060 22/18 A2961 1370 81 2500 190/19G31 RMK AO2 PK WND 19027/1356
94908KDBQ DBQ20080606080512806/06/08 08:05:31  5-MIN KDBQ 061405Z 19020G27KT 10SM BKN031 OVC060 22/18 A2961 1360 81 2500 180/20G27 RMK AO2 PK WND 18027/1405
94908KDBQ DBQ20080606081012106/06/08 08:10:31  5-MIN KDBQ 061410Z 18022G28KT 10SM OVC029 22/18 A2961 1370 81 2500 180/22G28 RMK AO2 PK WND 19028/1410
94908KDBQ DBQ20080606081512806/06/08 08:15:31  5-MIN KDBQ 061415Z 19022G31KT 10SM BKN027 OVC032 22/18 A2961 1370 81 2500 190/22G31 RMK AO2 PK WND 19031/1412
94908KDBQ DBQ20080606082012806/06/08 08:20:31  5-MIN KDBQ 061420Z 19022G31KT 10SM BKN027 OVC032 22/18 A2961 1370 81 2500 190/22G31 RMK AO2 PK WND 19031/1412
94908KDBQ DBQ20080606082512106/06/08 08:25:31  5-MIN KDBQ 061425Z 19021G28KT 10SM OVC026 22/18 A2961 1370 81 2500 190/21G28 RMK AO2 PK WND 19031/1412
94908KDBQ DBQ20080606083012106/06/08 08:30:31  5-MIN KDBQ 061430Z 19022G30KT 10SM OVC026 22/18 A2961 1370 81 2500 190/22G30 RMK AO2 PK WND 19031/1412
94908KDBQ DBQ20080606083512106/06/08 08:35:31  5-MIN KDBQ 061435Z 19021G30KT 10SM OVC024 22/18 A2961 1360 81 2500 190/21G30 RMK AO2 PK WND 19031/1412
94908KDBQ DBQ20080606084012106/06/08 08:40:31  5-MIN KDBQ 061440Z 19024G31KT 10SM OVC024 22/18 A2961 1370 78 2600 190/24G31 RMK AO2 PK WND 20031/1439
94908KDBQ DBQ20080606084512106/06/08 08:45:31  5-MIN KDBQ 061445Z 19024G31KT 10SM OVC024 22/18 A2961 1370 78 2600 190/24G31 RMK AO2 PK WND 20031/1439
94908KDBQ DBQ20080606085014406/06/08 08:50:31  5-MIN KDBQ 061450Z 19023G31KT 10SM OVC024 22/19 A2961 1370 81 2600 190/23G31 RMK AO2 PK WND 19031/1450 SLP019 T02220189 55006
94908KDBQ DBQ20080606085512106/06/08 08:55:31  5-MIN KDBQ 061455Z 20022G31KT 10SM OVC024 22/19 A2961 1370 81 2600 190/22G31 RMK AO2 PK WND 20028/1455
94908KDBQ DBQ20080606090012106/06/08 09:00:31  5-MIN KDBQ 061500Z 20025G33KT 10SM OVC024 23/19 A2961 1370 78 2600 200/25G33 RMK AO2 PK WND 21033/1500
94908KDBQ DBQ20080606090512806/06/08 09:05:31  5-MIN KDBQ 061505Z 20024G33KT 10SM BKN024 OVC030 23/19 A2961 1370 78 2600 200/24G33 RMK AO2 PK WND 21033/1500
94908KDBQ DBQ20080606091012806/06/08 09:10:31  5-MIN KDBQ 061510Z 20023G32KT 10SM BKN024 OVC029 23/19 A2961 1370 78 2600 200/23G32 RMK AO2 PK WND 21033/1500
94908KDBQ DBQ20080606091512806/06/08 09:15:31  5-MIN KDBQ 061515Z 20022G32KT 10SM BKN024 OVC029 23/19 A2961 1360 78 2600 200/22G32 RMK AO2 PK WND 21033/1500
94908KDBQ DBQ20080606092012806/06/08 09:20:31  5-MIN KDBQ 061520Z 20024G31KT 10SM BKN024 OVC029 23/19 A2962 1360 78 2600 200/24G31 RMK AO2 PK WND 21033/1500
94908KDBQ DBQ20080606092512806/06/08 09:25:31  5-MIN KDBQ 061525Z 20023G31KT 10SM BKN024 OVC028 23/19 A2962 1360 78 2600 200/23G31 RMK AO2 PK WND 21033/1500
94908KDBQ DBQ20080606093013506/06/08 09:30:31  5-MIN KDBQ 061530Z 20028G33KT 10SM BKN022 BKN028 OVC034 23/19 A2961 1360 76 2700 200/28G33 RMK AO2 PK WND 20033/1529
94908KDBQ DBQ20080606093513506/06/08 09:35:31  5-MIN KDBQ 061535Z 20022G34KT 10SM SCT022 BKN028 OVC034 24/19 A2961 1370 73 2800 200/22G34 RMK AO2 PK WND 21034/1533
94908KDBQ DBQ20080606094012806/06/08 09:40:31  5-MIN KDBQ 061540Z 20021G34KT 10SM BKN024 OVC034 23/19 A2962 1360 78 2700 200/21G34 RMK AO2 PK WND 21034/1533
94908KDBQ DBQ20080606094513506/06/08 09:45:31  5-MIN KDBQ 061545Z 21020G32KT 10SM SCT024 BKN028 OVC035 23/19 A2962 1360 78 2700 210/20G32 RMK AO2 PK WND 21034/1533
94908KDBQ DBQ20080606095015206/06/08 09:50:31  5-MIN KDBQ 061550Z 21020G28KT 10SM FEW024 BKN028 OVC038 24/19 A2961 1360 76 2700 210/20G28 RMK AO2 PK WND 21034/1533 SLP019 T02390194
94908KDBQ DBQ20080606095511706/06/08 09:55:31  5-MIN KDBQ 061555Z 21020G27KT 10SM SCT024 BKN030 BKN039 24/19 A2961 1360 76 2700 200/20G27 RMK AO2
94908KDBQ DBQ20080606100010406/06/08 10:00:31  5-MIN KDBQ 061600Z 20018KT 10SM BKN026 BKN032 24/20 A2962 1360 76 2800 200/18 RMK AO2
94908KDBQ DBQ20080606100512806/06/08 10:05:31  5-MIN KDBQ 061605Z 21024G31KT 10SM BKN024 BKN033 24/19 A2961 1370 73 2800 210/24G31 RMK AO2 PK WND 20031/1605
94908KDBQ DBQ20080606101012806/06/08 10:10:31  5-MIN KDBQ 061610Z 21021G32KT 10SM BKN026 BKN033 24/19 A2962 1360 73 2800 210/21G32 RMK AO2 PK WND 21032/1606
94908KDBQ DBQ20080606101512806/06/08 10:15:31  5-MIN KDBQ 061615Z 20026G32KT 10SM SCT026 BKN034 24/19 A2962 1360 73 2800 200/26G32 RMK AO2 PK WND 19032/1614
94908KDBQ DBQ20080606102013506/06/08 10:20:31  5-MIN KDBQ 061620Z 21028G38KT 10SM BKN029 BKN036 BKN046 25/19 A2962 1360 68 2900 210/28G38 RMK AO2 PK WND 21038/1617
94908KDBQ DBQ20080606102513506/06/08 10:25:31  5-MIN KDBQ 061625Z 21028G38KT 10SM FEW025 SCT030 BKN038 25/19 A2961 1370 68 2900 210/28G38 RMK AO2 PK WND 21038/1617
94908KDBQ DBQ20080606103013506/06/08 10:30:31  5-MIN KDBQ 061630Z 21024G41KT 10SM FEW028 BKN036 BKN044 25/19 A2962 1360 68 2900 200/24G41 RMK AO2 PK WND 20041/1626
94908KDBQ DBQ20080606103513506/06/08 10:35:31  5-MIN KDBQ 061635Z 21024G41KT 10SM FEW028 BKN036 BKN046 26/19 A2962 1360 66 2900 200/24G41 RMK AO2 PK WND 20041/1626
94908KDBQ DBQ20080606104012806/06/08 10:40:31  5-MIN KDBQ 061640Z 20023G35KT 10SM BKN033 BKN046 25/19 A2962 1350 68 2900 200/23G35 RMK AO2 PK WND 20041/1626
94908KDBQ DBQ20080606104513506/06/08 10:45:31  5-MIN KDBQ 061645Z 21023G33KT 10SM FEW030 SCT038 BKN046 26/19 A2962 1350 68 2900 210/23G33 RMK AO2 PK WND 20041/1626
94908KDBQ DBQ20080606105014506/06/08 10:50:31  5-MIN KDBQ 061650Z 21020G31KT 10SM SCT033 SCT044 26/19 A2962 1360 68 2900 210/20G31 RMK AO2 PK WND 20041/1626 SLP022 T02560194
94908KDBQ DBQ20080606105512806/06/08 10:55:31  5-MIN KDBQ 061655Z 20029G34KT 10SM SCT033 SCT044 26/19 A2962 1360 64 3000 200/29G34 RMK AO2 PK WND 21034/1655
94908KDBQ DBQ20080606110012806/06/08 11:00:31  5-MIN KDBQ 061700Z 20026G35KT 10SM SCT033 SCT042 25/18 A2963 1350 66 2900 200/26G35 RMK AO2 PK WND 20035/1658
94908KDBQ DBQ20080606110512806/06/08 11:05:31  5-MIN KDBQ 061705Z 20023G35KT 10SM SCT033 BKN042 26/19 A2963 1350 66 2900 200/23G35 RMK AO2 PK WND 20035/1658
94908KDBQ DBQ20080606111012806/06/08 11:10:31  5-MIN KDBQ 061710Z 21020G30KT 10SM SCT033 BKN042 25/19 A2963 1350 68 2800 210/20G30 RMK AO2 PK WND 20035/1658
94908KDBQ DBQ20080606111512106/06/08 11:15:31  5-MIN KDBQ 061715Z 21021G30KT 10SM SCT033 26/19 A2963 1350 64 3000 210/21G30 RMK AO2 PK WND 20035/1658
94908KDBQ DBQ20080606112012106/06/08 11:20:31  5-MIN KDBQ 061720Z 21021G32KT 10SM SCT033 26/18 A2963 1350 62 3000 210/21G32 RMK AO2 PK WND 20035/1658
94908KDBQ DBQ20080606112512106/06/08 11:25:31  5-MIN KDBQ 061725Z 21019G32KT 10SM SCT033 26/19 A2963 1340 64 3000 210/19G32 RMK AO2 PK WND 20035/1658
94908KDBQ DBQ20080606113013506/06/08 11:30:31  5-MIN KDBQ 061730Z 20026G35KT 10SM SCT033 SCT043 BKN050 26/18 A2963 1350 64 2900 200/26G35 RMK AO2 PK WND 22035/1729
94908KDBQ DBQ20080606113513506/06/08 11:35:31  5-MIN KDBQ 061735Z 21021G35KT 10SM FEW030 SCT036 BKN055 26/18 A2964 1340 64 2900 210/21G35 RMK AO2 PK WND 22035/1729
94908KDBQ DBQ20080606114012806/06/08 11:40:31  5-MIN KDBQ 061740Z 21023G33KT 10SM SCT038 BKN049 26/18 A2963 1350 62 3000 210/23G33 RMK AO2 PK WND 22035/1729
94908KDBQ DBQ20080606114512806/06/08 11:45:31  5-MIN KDBQ 061745Z 21021G33KT 10SM SCT038 BKN049 26/18 A2963 1350 61 2900 210/21G33 RMK AO2 PK WND 22035/1729
94908KDBQ DBQ20080606115017006/06/08 11:50:31  5-MIN KDBQ 061750Z 21018G31KT 10SM SCT038 BKN049 BKN055 26/18 A2964 1340 64 2900 210/18G31 RMK AO2 PK WND 22035/1729 SLP028 T02560183 10261 20194 56005
94908KDBQ DBQ20080606115512806/06/08 11:55:31  5-MIN KDBQ 061755Z 22022G29KT 10SM SCT038 BKN049 26/18 A2963 1350 62 3000 220/22G29 RMK AO2 PK WND 22029/1755
94908KDBQ DBQ20080606120013506/06/08 12:00:31  5-MIN KDBQ 061800Z 21024G32KT 10SM SCT038 BKN048 BKN055 26/17 A2963 1350 57 3000 210/24G32 RMK AO2 PK WND 21032/1800
94908KDBQ DBQ20080606120513506/06/08 12:05:31  5-MIN KDBQ 061805Z 22028G36KT 10SM FEW038 BKN048 BKN055 27/17 A2963 1350 55 3000 210/28G36 RMK AO2 PK WND 21036/1804
94908KDBQ DBQ20080606121013506/06/08 12:10:31  5-MIN KDBQ 061810Z 21028G37KT 10SM FEW036 SCT047 BKN060 27/17 A2964 1340 53 3000 210/28G37 RMK AO2 PK WND 22037/1808
94908KDBQ DBQ20080606121513506/06/08 12:15:31  5-MIN KDBQ 061815Z 21022G37KT 10SM FEW036 SCT045 SCT060 27/17 A2963 1350 55 3000 210/22G37 RMK AO2 PK WND 22037/1808
94908KDBQ DBQ20080606122012806/06/08 12:20:31  5-MIN KDBQ 061820Z 21018G34KT 10SM FEW044 SCT050 26/18 A2964 1340 59 3000 210/18G34 RMK AO2 PK WND 22037/1808
94908KDBQ DBQ20080606122512806/06/08 12:25:31  5-MIN KDBQ 061825Z 22022G31KT 10SM SCT046 SCT060 26/17 A2964 1340 57 3000 220/22G31 RMK AO2 PK WND 22037/1808
94908KDBQ DBQ20080606123012806/06/08 12:30:31  5-MIN KDBQ 061830Z 22020G31KT 10SM FEW044 SCT055 27/18 A2963 1340 57 3000 220/20G31 RMK AO2 PK WND 22037/1808
94908KDBQ DBQ20080606123512806/06/08 12:35:31  5-MIN KDBQ 061835Z 21025G31KT 10SM FEW044 SCT055 27/17 A2964 1340 55 3000 210/25G31 RMK AO2 PK WND 22037/1808
94908KDBQ DBQ20080606124012806/06/08 12:40:31  5-MIN KDBQ 061840Z 21021G32KT 10SM FEW044 SCT055 27/17 A2964 1340 53 3000 210/21G32 RMK AO2 PK WND 22037/1808
94908KDBQ DBQ20080606124512806/06/08 12:45:31  5-MIN KDBQ 061845Z 22025G33KT 10SM FEW044 SCT055 27/17 A2963 1350 53 3000 220/25G33 RMK AO2 PK WND 22037/1808
94908KDBQ DBQ20080606125014506/06/08 12:50:31  5-MIN KDBQ 061850Z 21023G33KT 10SM FEW044 SCT055 26/16 A2964 1340 53 3000 210/23G33 RMK AO2 PK WND 22037/1808 SLP028 T02610161
94908KDBQ DBQ20080606125512806/06/08 12:55:31  5-MIN KDBQ 061855Z 22020G30KT 10SM FEW047 BKN060 26/17 A2963 1350 55 3000 220/20G30 RMK AO2 PK WND 22026/1854
94908KDBQ DBQ20080606130012806/06/08 13:00:31  5-MIN KDBQ 061900Z 23022G30KT 10SM FEW050 SCT060 27/18 A2964 1340 57 3000 230/22G30 RMK AO2 PK WND 23027/1900
94908KDBQ DBQ20080606130512106/06/08 13:05:31  5-MIN KDBQ 061905Z 23025G32KT 10SM SCT055 26/17 A2963 1350 57 3000 230/25G32 RMK AO2 PK WND 23032/1905
94908KDBQ DBQ20080606131012806/06/08 13:10:31  5-MIN KDBQ 061910Z 22017G32KT 10SM FEW047 SCT055 26/17 A2963 1340 57 3000 220/17G32 RMK AO2 PK WND 23032/1905
94908KDBQ DBQ20080606131512806/06/08 13:15:31  5-MIN KDBQ 061915Z 22021G26KT 10SM SCT047 BKN055 25/17 A2965 1330 59 2800 220/21G26 RMK AO2 PK WND 23032/1905
94908KDBQ DBQ20080606132012806/06/08 13:20:31  5-MIN KDBQ 061920Z 23016G26KT 10SM BKN047 BKN055 26/17 A2965 1330 59 2900 230/16G26 RMK AO2 PK WND 23032/1905
94908KDBQ DBQ20080606132512806/06/08 13:25:31  5-MIN KDBQ 061925Z 22018G26KT 10SM SCT047 BKN060 26/17 A2966 1320 59 2900 220/18G26 RMK AO2 PK WND 23032/1905
94908KDBQ DBQ20080606133012806/06/08 13:30:31  5-MIN KDBQ 061930Z 23022G30KT 10SM SCT047 BKN060 26/17 A2966 1320 57 2900 230/22G30 RMK AO2 PK WND 23032/1905
94908KDBQ DBQ20080606133512806/06/08 13:35:31  5-MIN KDBQ 061935Z 23022G32KT 10SM SCT047 BKN060 26/17 A2965 1330 57 2900 230/22G32 RMK AO2 PK WND 23032/1932
94908KDBQ DBQ20080606134012806/06/08 13:40:31  5-MIN KDBQ 061940Z 23022G32KT 10SM SCT047 BKN060 26/17 A2965 1330 55 2900 230/22G32 RMK AO2 PK WND 23032/1932
94908KDBQ DBQ20080606134512806/06/08 13:45:31  5-MIN KDBQ 061945Z 24018G30KT 10SM FEW049 SCT060 27/18 A2966 1320 57 3000 240/18G30 RMK AO2 PK WND 23032/1932
94908KDBQ DBQ20080606135014506/06/08 13:50:31  5-MIN KDBQ 061950Z 23023G29KT 10SM FEW047 SCT060 26/17 A2966 1320 57 2900 230/23G29 RMK AO2 PK WND 23032/1932 SLP037 T02610172
94908KDBQ DBQ20080606135512806/06/08 13:55:31  5-MIN KDBQ 061955Z 23021G29KT 10SM FEW047 SCT060 26/17 A2967 1310 57 2900 230/21G29 RMK AO2 PK WND 23026/1955
94908KDBQ DBQ20080606140012106/06/08 14:00:31  5-MIN KDBQ 062000Z 23022G30KT 10SM FEW047 26/17 A2966 1320 57 2900 230/22G30 RMK AO2 PK WND 23030/2000
94908KDBQ DBQ20080606140512106/06/08 14:05:31  5-MIN KDBQ 062005Z 23020G30KT 10SM FEW047 26/17 A2966 1320 57 2900 230/20G30 RMK AO2 PK WND 23030/2005
94908KDBQ DBQ20080606141012106/06/08 14:10:31  5-MIN KDBQ 062010Z 24023G30KT 10SM FEW060 27/17 A2966 1320 55 3000 240/23G30 RMK AO2 PK WND 23030/2005
94908KDBQ DBQ20080606141512106/06/08 14:15:31  5-MIN KDBQ 062015Z 23021G29KT 10SM FEW060 27/17 A2967 1310 55 3000 230/21G29 RMK AO2 PK WND 23030/2005
94908KDBQ DBQ20080606142012106/06/08 14:20:31  5-MIN KDBQ 062020Z 24023G29KT 10SM FEW050 27/17 A2968 1310 53 3000 230/23G29 RMK AO2 PK WND 23030/2005
94908KDBQ DBQ20080606142512806/06/08 14:25:31  5-MIN KDBQ 062025Z 24020G29KT 10SM FEW050 SCT060 26/17 A2967 1310 57 2900 230/20G29 RMK AO2 PK WND 23030/2005
94908KDBQ DBQ20080606143012206/06/08 14:30:31  5-MIN KDBQ 062030Z 23021KT 10SM FEW050 SCT060 26/17 A2967 1310 55 2900 230/21 RMK AO2 PK WND 23030/2005
94908KDBQ DBQ20080606143512806/06/08 14:35:31  5-MIN KDBQ 062035Z 23021G26KT 10SM FEW048 SCT060 26/17 A2968 1300 55 2900 230/21G26 RMK AO2 PK WND 23030/2005
94908KDBQ DBQ20080606144012806/06/08 14:40:31  5-MIN KDBQ 062040Z 23024G30KT 10SM FEW048 SCT060 26/16 A2968 1300 53 2900 230/24G30 RMK AO2 PK WND 23030/2040
94908KDBQ DBQ20080606144512806/06/08 14:45:31  5-MIN KDBQ 062045Z 23022G30KT 10SM FEW048 SCT060 26/17 A2967 1310 55 2900 230/22G30 RMK AO2 PK WND 23030/2040
94908KDBQ DBQ20080606145015106/06/08 14:50:31  5-MIN KDBQ 062050Z 23022G29KT 10SM FEW050 BKN060 26/16 A2968 1300 55 2900 230/22G29 RMK AO2 PK WND 23030/2040 SLP044 T02560161 53009
94908KDBQ DBQ20080606145512106/06/08 14:55:31  5-MIN KDBQ 062055Z 24022G29KT 10SM SCT055 26/17 A2968 1310 55 2900 240/22G29 RMK AO2 PK WND 24027/2054
94908KDBQ DBQ20080606150012106/06/08 15:00:31  5-MIN KDBQ 062100Z 24025G32KT 10SM FEW055 27/17 A2967 1310 53 3000 240/25G32 RMK AO2 PK WND 24032/2100
94908KDBQ DBQ20080606150512806/06/08 15:05:31  5-MIN KDBQ 062105Z 24024G32KT 10SM FEW049 SCT060 26/16 A2968 1300 55 2800 240/24G32 RMK AO2 PK WND 24032/2100
94908KDBQ DBQ20080606151012806/06/08 15:10:31  5-MIN KDBQ 062110Z 24023G31KT 10SM FEW045 SCT060 26/16 A2968 1300 53 2900 230/23G31 RMK AO2 PK WND 24032/2100
94908KDBQ DBQ20080606151512106/06/08 15:15:31  5-MIN KDBQ 062115Z 23020G31KT 10SM SCT060 26/16 A2969 1300 55 2800 230/20G31 RMK AO2 PK WND 24032/2100
94908KDBQ DBQ20080606152012806/06/08 15:20:31  5-MIN KDBQ 062120Z 23019G27KT 10SM FEW046 SCT060 26/17 A2968 1300 57 2900 230/19G27 RMK AO2 PK WND 24032/2100
94908KDBQ DBQ20080606152512806/06/08 15:25:31  5-MIN KDBQ 062125Z 24024G29KT 10SM FEW046 SCT055 26/16 A2967 1310 55 2900 230/24G29 RMK AO2 PK WND 24032/2100
94908KDBQ DBQ20080606153012806/06/08 15:30:31  5-MIN KDBQ 062130Z 24020G29KT 10SM SCT049 BKN060 25/16 A2968 1300 57 2800 230/20G29 RMK AO2 PK WND 24032/2100
94908KDBQ DBQ20080606153512106/06/08 15:35:31  5-MIN KDBQ 062135Z 23022G27KT 10SM BKN055 25/17 A2968 1300 59 2800 230/22G27 RMK AO2 PK WND 24032/2100
94908KDBQ DBQ20080606154012106/06/08 15:40:31  5-MIN KDBQ 062140Z 23018G26KT 10SM SCT055 26/16 A2968 1300 55 2800 230/18G26 RMK AO2 PK WND 24032/2100
94908KDBQ DBQ20080606154512806/06/08 15:45:31  5-MIN KDBQ 062145Z 23019G26KT 10SM SCT050 SCT060 25/17 A2969 1290 59 2800 230/19G26 RMK AO2 PK WND 24032/2100
94908KDBQ DBQ20080606155014506/06/08 15:50:31  5-MIN KDBQ 062150Z 23016G24KT 10SM SCT050 BKN055 24/16 A2969 1290 59 2700 230/16G24 RMK AO2 PK WND 24032/2100 SLP048 T02440161
94908KDBQ DBQ20080606155511006/06/08 15:55:31  5-MIN KDBQ 062155Z 23018G26KT 10SM SCT048 BKN055 25/16 A2969 1290 57 2800 230/18G26 RMK AO2
94908KDBQ DBQ20080606160011006/06/08 16:00:31  5-MIN KDBQ 062200Z 24015G26KT 10SM FEW048 SCT055 24/16 A2968 1300 59 2700 230/15G26 RMK AO2
94908KDBQ DBQ20080606160511006/06/08 16:05:31  5-MIN KDBQ 062205Z 24015G23KT 10SM FEW048 SCT055 24/17 A2969 1290 61 2700 240/15G23 RMK AO2
94908KDBQ DBQ20080606161012806/06/08 16:10:31  5-MIN KDBQ 062210Z 24017G28KT 10SM SCT048 SCT055 24/16 A2969 1290 59 2700 240/17G28 RMK AO2 PK WND 24028/2206
94908KDBQ DBQ20080606161512806/06/08 16:15:31  5-MIN KDBQ 062215Z 23019G28KT 10SM FEW048 SCT055 25/17 A2969 1290 59 2800 230/19G28 RMK AO2 PK WND 24028/2206
94908KDBQ DBQ20080606162012806/06/08 16:20:31  5-MIN KDBQ 062220Z 24015G24KT 10SM FEW048 SCT055 24/16 A2969 1290 59 2700 240/15G24 RMK AO2 PK WND 24028/2206
94908KDBQ DBQ20080606162512106/06/08 16:25:31  5-MIN KDBQ 062225Z 24019G27KT 10SM FEW048 26/16 A2970 1290 55 2800 230/19G27 RMK AO2 PK WND 24028/2206
94908KDBQ DBQ20080606163012106/06/08 16:30:31  5-MIN KDBQ 062230Z 23021G27KT 10SM FEW048 26/17 A2970 1290 57 2800 230/21G27 RMK AO2 PK WND 24028/2206
94908KDBQ DBQ20080606163512106/06/08 16:35:31  5-MIN KDBQ 062235Z 23019G26KT 10SM FEW046 25/17 A2970 1280 59 2800 230/19G26 RMK AO2 PK WND 24028/2206
94908KDBQ DBQ20080606164012106/06/08 16:40:31  5-MIN KDBQ 062240Z 23016G25KT 10SM FEW046 25/17 A2971 1280 59 2800 230/16G25 RMK AO2 PK WND 24028/2206
94908KDBQ DBQ20080606164512106/06/08 16:45:31  5-MIN KDBQ 062245Z 24016G23KT 10SM FEW049 25/17 A2970 1280 61 2800 240/16G23 RMK AO2 PK WND 24028/2206
94908KDBQ DBQ20080606165014506/06/08 16:50:31  5-MIN KDBQ 062250Z 24018G24KT 10SM FEW045 SCT055 25/16 A2971 1270 57 2800 240/18G24 RMK AO2 PK WND 24028/2206 SLP054 T02500161
94908KDBQ DBQ20080606165511006/06/08 16:55:31  5-MIN KDBQ 062255Z 24017G24KT 10SM FEW045 SCT055 24/17 A2971 1280 63 2600 240/17G24 RMK AO2
94908KDBQ DBQ20080606170011006/06/08 17:00:31  5-MIN KDBQ 062300Z 24017G24KT 10SM FEW045 SCT055 25/17 A2971 1270 59 2800 240/17G24 RMK AO2
94908KDBQ DBQ20080606170511006/06/08 17:05:31  5-MIN KDBQ 062305Z 24019G24KT 10SM SCT047 SCT055 24/16 A2972 1270 59 2700 240/19G24 RMK AO2
94908KDBQ DBQ20080606171011006/06/08 17:10:31  5-MIN KDBQ 062310Z 24016G24KT 10SM SCT049 BKN060 24/16 A2972 1260 57 2700 240/16G24 RMK AO2
94908KDBQ DBQ20080606171511006/06/08 17:15:31  5-MIN KDBQ 062315Z 24017G23KT 10SM SCT049 BKN060 24/16 A2972 1260 57 2700 240/17G23 RMK AO2
94908KDBQ DBQ20080606172011006/06/08 17:20:31  5-MIN KDBQ 062320Z 24017G24KT 10SM FEW049 SCT055 24/16 A2972 1260 59 2600 240/17G24 RMK AO2
94908KDBQ DBQ20080606172510306/06/08 17:25:31  5-MIN KDBQ 062325Z 24016G24KT 10SM SCT049 24/16 A2973 1250 59 2600 240/16G24 RMK AO2
94908KDBQ DBQ20080606173010306/06/08 17:30:31  5-MIN KDBQ 062330Z 25014G22KT 10SM FEW049 23/16 A2973 1250 61 2500 250/14G22 RMK AO2
94908KDBQ DBQ20080606173510306/06/08 17:35:31  5-MIN KDBQ 062335Z 24014G20KT 10SM FEW055 24/16 A2973 1250 59 2600 240/14G20 RMK AO2
94908KDBQ DBQ20080606174009706/06/08 17:40:31  5-MIN KDBQ 062340Z 24014KT 10SM FEW055 23/16 A2973 1260 63 2600 240/14 RMK AO2
94908KDBQ DBQ20080606174509706/06/08 17:45:31  5-MIN KDBQ 062345Z 24015KT 10SM FEW055 23/16 A2973 1250 61 2500 240/15 RMK AO2
94908KDBQ DBQ20080606175013506/06/08 17:50:31  5-MIN KDBQ 062350Z 25014G21KT 10SM CLR 24/16 A2973 1250 61 2600 240/14G21 RMK AO2 SLP063 T02390161 10267 20233 53013
94908KDBQ DBQ20080606175510006/06/08 17:55:31  5-MIN KDBQ 062355Z 25014G21KT 10SM CLR 24/16 A2973 1250 59 2600 250/14G21 RMK AO2
94908KDBQ DBQ20080606180010006/06/08 18:00:31  5-MIN KDBQ 070000Z 24018G22KT 10SM CLR 24/16 A2974 1250 61 2600 240/18G22 RMK AO2
94908KDBQ DBQ20080606180510006/06/08 18:05:31  5-MIN KDBQ 070005Z 24014G22KT 10SM CLR 23/16 A2973 1250 61 2500 240/14G22 RMK AO2
94908KDBQ DBQ20080606181009406/06/08 18:10:31  5-MIN KDBQ 070010Z 24014KT 10SM CLR 23/16 A2974 1240 61 2500 240/14 RMK AO2
94908KDBQ DBQ20080606181509406/06/08 18:15:31  5-MIN KDBQ 070015Z 24013KT 10SM CLR 23/16 A2975 1240 61 2500 230/13 RMK AO2
94908KDBQ DBQ20080606182009706/06/08 18:20:31  5-MIN KDBQ 070020Z 23013KT 10SM FEW049 23/16 A2974 1240 63 2500 230/13 RMK AO2
94908KDBQ DBQ20080606182509706/06/08 18:25:31  5-MIN KDBQ 070025Z 23011KT 10SM FEW049 23/16 A2975 1240 63 2500 230/11 RMK AO2
94908KDBQ DBQ20080606183009706/06/08 18:30:31  5-MIN KDBQ 070030Z 23010KT 10SM FEW049 23/16 A2975 1240 65 2500 230/10 RMK AO2
94908KDBQ DBQ20080606183509706/06/08 18:35:31  5-MIN KDBQ 070035Z 23010KT 10SM FEW049 23/16 A2975 1230 65 2500 230/10 RMK AO2
94908KDBQ DBQ20080606184010206/06/08 18:40:31  5-MIN KDBQ 070040Z AUTO 23011KT 10SM FEW049 23/16 A2975 1230 65 2500 230/11 RMK AO2
94908KDBQ DBQ20080606184510206/06/08 18:45:31  5-MIN KDBQ 070045Z AUTO 23012KT 10SM FEW049 23/16 A2976 1230 63 2500 230/12 RMK AO2
94908KDBQ DBQ20080606185011606/06/08 18:50:31  5-MIN KDBQ 070050Z AUTO 23011KT 10SM CLR 22/16 A2976 1230 68 2400 230/11 RMK AO2 SLP071 T02220161
94908KDBQ DBQ20080606185509906/06/08 18:55:31  5-MIN KDBQ 070055Z AUTO 24011KT 10SM CLR 22/16 A2976 1230 68 2400 240/11 RMK AO2
94908KDBQ DBQ20080606190009906/06/08 19:00:31  5-MIN KDBQ 070100Z AUTO 24010KT 10SM CLR 22/16 A2976 1220 68 2400 240/10 RMK AO2
94908KDBQ DBQ20080606190509906/06/08 19:05:31  5-MIN KDBQ 070105Z AUTO 24010KT 10SM CLR 22/16 A2977 1220 70 2300 240/10 RMK AO2
94908KDBQ DBQ20080606191009906/06/08 19:10:31  5-MIN KDBQ 070110Z AUTO 24008KT 10SM CLR 22/16 A2977 1220 70 2300 240/08 RMK AO2
94908KDBQ DBQ20080606191509906/06/08 19:15:31  5-MIN KDBQ 070115Z AUTO 24009KT 10SM CLR 22/16 A2977 1220 70 2300 240/09 RMK AO2
94908KDBQ DBQ20080606192009906/06/08 19:20:31  5-MIN KDBQ 070120Z AUTO 24008KT 10SM CLR 21/16 A2977 1210 73 2200 240/08 RMK AO2
94908KDBQ DBQ20080606192509906/06/08 19:25:31  5-MIN KDBQ 070125Z AUTO 24008KT 10SM CLR 21/16 A2978 1210 73 2200 240/08 RMK AO2
94908KDBQ DBQ20080606193009906/06/08 19:30:31  5-MIN KDBQ 070130Z AUTO 24007KT 10SM CLR 21/16 A2978 1210 75 2200 240/07 RMK AO2
94908KDBQ DBQ20080606193509906/06/08 19:35:31  5-MIN KDBQ 070135Z AUTO 24007KT 10SM CLR 21/16 A2978 1210 75 2200 240/07 RMK AO2
94908KDBQ DBQ20080606194009906/06/08 19:40:31  5-MIN KDBQ 070140Z AUTO 24007KT 10SM CLR 21/16 A2978 1210 75 2200 240/07 RMK AO2
94908KDBQ DBQ20080606194509906/06/08 19:45:31  5-MIN KDBQ 070145Z AUTO 25007KT 10SM CLR 21/16 A2979 1200 73 2200 250/07 RMK AO2
94908KDBQ DBQ20080606195011606/06/08 19:50:31  5-MIN KDBQ 070150Z AUTO 26006KT 10SM CLR 20/16 A2979 1200 75 2100 260/06 RMK AO2 SLP082 T02000156
94908KDBQ DBQ20080606195509906/06/08 19:55:31  5-MIN KDBQ 070155Z AUTO 24007KT 10SM CLR 20/16 A2980 1190 75 2100 240/07 RMK AO2
94908KDBQ DBQ20080606200009906/06/08 20:00:31  5-MIN KDBQ 070200Z AUTO 23005KT 10SM CLR 19/16 A2980 1190 78 2000 230/05 RMK AO2
94908KDBQ DBQ20080606200509906/06/08 20:05:31  5-MIN KDBQ 070205Z AUTO 23005KT 10SM CLR 19/16 A2981 1180 78 2000 220/05 RMK AO2
94908KDBQ DBQ20080606201009906/06/08 20:10:31  5-MIN KDBQ 070210Z AUTO 23005KT 10SM CLR 19/16 A2981 1180 78 2000 230/05 RMK AO2
94908KDBQ DBQ20080606201509906/06/08 20:15:31  5-MIN KDBQ 070215Z AUTO 23005KT 10SM CLR 19/16 A2981 1180 78 2000 230/05 RMK AO2
94908KDBQ DBQ20080606202009906/06/08 20:20:31  5-MIN KDBQ 070220Z AUTO 24004KT 10SM CLR 19/16 A2981 1180 81 1900 240/04 RMK AO2
94908KDBQ DBQ20080606202509906/06/08 20:25:31  5-MIN KDBQ 070225Z AUTO 25006KT 10SM CLR 19/16 A2981 1180 81 1900 250/06 RMK AO2
94908KDBQ DBQ20080606203009906/06/08 20:30:31  5-MIN KDBQ 070230Z AUTO 25006KT 10SM CLR 18/16 A2982 1170 84 1900 240/06 RMK AO2
94908KDBQ DBQ20080606203509906/06/08 20:35:31  5-MIN KDBQ 070235Z AUTO 25005KT 10SM CLR 18/16 A2982 1170 84 1900 250/05 RMK AO2
94908KDBQ DBQ20080606204009906/06/08 20:40:31  5-MIN KDBQ 070240Z AUTO 25005KT 10SM CLR 18/16 A2983 1170 84 1900 250/05 RMK AO2
94908KDBQ DBQ20080606204509906/06/08 20:45:31  5-MIN KDBQ 070245Z AUTO 23004KT 10SM CLR 18/16 A2983 1160 84 1900 230/04 RMK AO2
94908KDBQ DBQ20080606205012206/06/08 20:50:31  5-MIN KDBQ 070250Z AUTO 24003KT 10SM CLR 18/16 A2983 1160 84 1900 230/03 RMK AO2 SLP098 T01830156 53020
94908KDBQ DBQ20080606205509906/06/08 20:55:31  5-MIN KDBQ 070255Z AUTO 23003KT 10SM CLR 19/16 A2984 1150 81 1900 230/03 RMK AO2
94908KDBQ DBQ20080606210009906/06/08 21:00:31  5-MIN KDBQ 070300Z AUTO 23003KT 10SM CLR 19/16 A2984 1150 81 1900 230/03 RMK AO2
94908KDBQ DBQ20080606210509906/06/08 21:05:31  5-MIN KDBQ 070305Z AUTO 00000KT 10SM CLR 19/16 A2984 1150 81 1900 000/00 RMK AO2
94908KDBQ DBQ20080606211009906/06/08 21:10:31  5-MIN KDBQ 070310Z AUTO 22003KT 10SM CLR 18/15 A2984 1150 81 1800 210/03 RMK AO2
94908KDBQ DBQ20080606211509906/06/08 21:15:31  5-MIN KDBQ 070315Z AUTO 21003KT 10SM CLR 18/15 A2984 1150 81 1800 210/03 RMK AO2
94908KDBQ DBQ20080606212009906/06/08 21:20:31  5-MIN KDBQ 070320Z AUTO 21003KT 10SM CLR 18/15 A2985 1150 83 1800 210/03 RMK AO2
94908KDBQ DBQ20080606212509906/06/08 21:25:31  5-MIN KDBQ 070325Z AUTO 22003KT 10SM CLR 18/16 A2985 1150 84 1800 220/03 RMK AO2
94908KDBQ DBQ20080606213009906/06/08 21:30:31  5-MIN KDBQ 070330Z AUTO 00000KT 10SM CLR 18/16 A2985 1150 84 1800 000/00 RMK AO2
94908KDBQ DBQ20080606213509906/06/08 21:35:31  5-MIN KDBQ 070335Z AUTO 22003KT 10SM CLR 18/16 A2985 1150 84 1800 220/03 RMK AO2
94908KDBQ DBQ20080606214009906/06/08 21:40:31  5-MIN KDBQ 070340Z AUTO 23003KT 10SM CLR 18/16 A2985 1150 84 1800 230/03 RMK AO2
94908KDBQ DBQ20080606214509906/06/08 21:45:31  5-MIN KDBQ 070345Z AUTO 24003KT 10SM CLR 18/16 A2985 1140 87 1800 240/03 RMK AO2
94908KDBQ DBQ20080606215011606/06/08 21:50:31  5-MIN KDBQ 070350Z AUTO 23003KT 10SM CLR 17/16 A2985 1140 90 1700 230/03 RMK AO2 SLP103 T01720156
94908KDBQ DBQ20080606215509906/06/08 21:55:31  5-MIN KDBQ 070355Z AUTO 00000KT 10SM CLR 18/16 A2985 1140 87 1800 000/00 RMK AO2
94908KDBQ DBQ20080606220009906/06/08 22:00:31  5-MIN KDBQ 070400Z AUTO 20003KT 10SM CLR 18/16 A2985 1140 87 1800 200/03 RMK AO2
94908KDBQ DBQ20080606220509906/06/08 22:05:31  5-MIN KDBQ 070405Z AUTO 19004KT 10SM CLR 17/16 A2985 1140 93 1600 190/04 RMK AO2
94908KDBQ DBQ20080606221009906/06/08 22:10:31  5-MIN KDBQ 070410Z AUTO 20003KT 10SM CLR 17/16 A2985 1140 90 1700 200/03 RMK AO2
94908KDBQ DBQ20080606221509906/06/08 22:15:31  5-MIN KDBQ 070415Z AUTO 21003KT 10SM CLR 18/16 A2985 1140 87 1800 210/03 RMK AO2
94908KDBQ DBQ20080606222009906/06/08 22:20:31  5-MIN KDBQ 070420Z AUTO 21003KT 10SM CLR 18/16 A2986 1140 87 1800 210/03 RMK AO2
94908KDBQ DBQ20080606222509906/06/08 22:25:31  5-MIN KDBQ 070425Z AUTO 00000KT 10SM CLR 18/16 A2986 1140 87 1800 000/00 RMK AO2
94908KDBQ DBQ20080606223009906/06/08 22:30:31  5-MIN KDBQ 070430Z AUTO 23003KT 10SM CLR 18/15 A2986 1140 83 1800 230/03 RMK AO2
94908KDBQ DBQ20080606223509906/06/08 22:35:31  5-MIN KDBQ 070435Z AUTO 23003KT 10SM CLR 18/16 A2986 1130 87 1800 230/03 RMK AO2
94908KDBQ DBQ20080606224009906/06/08 22:40:31  5-MIN KDBQ 070440Z AUTO 23003KT 10SM CLR 18/16 A2986 1140 87 1800 230/03 RMK AO2
94908KDBQ DBQ20080606224509906/06/08 22:45:31  5-MIN KDBQ 070445Z AUTO 22003KT 10SM CLR 17/16 A2986 1130 90 1700 220/03 RMK AO2
94908KDBQ DBQ20080606225011606/06/08 22:50:31  5-MIN KDBQ 070450Z AUTO 20003KT 10SM CLR 16/15 A2986 1130 93 1600 200/03 RMK AO2 SLP107 T01610150
94908KDBQ DBQ20080606225509906/06/08 22:55:31  5-MIN KDBQ 070455Z AUTO 21004KT 10SM CLR 16/15 A2986 1140 93 1600 210/04 RMK AO2
94908KDBQ DBQ20080606230009906/06/08 23:00:31  5-MIN KDBQ 070500Z AUTO 20003KT 10SM CLR 17/15 A2986 1130 90 1600 200/03 RMK AO2
94908KDBQ DBQ20080606230509906/06/08 23:05:31  5-MIN KDBQ 070505Z AUTO 19004KT 10SM CLR 17/15 A2986 1140 90 1600 190/04 RMK AO2
94908KDBQ DBQ20080606231009906/06/08 23:10:31  5-MIN KDBQ 070510Z AUTO 19003KT 10SM CLR 17/14 A2986 1130 83 1700 190/03 RMK AO2
94908KDBQ DBQ20080606231509906/06/08 23:15:31  5-MIN KDBQ 070515Z AUTO 18003KT 10SM CLR 17/14 A2986 1130 83 1700 180/03 RMK AO2
94908KDBQ DBQ20080606232009906/06/08 23:20:31  5-MIN KDBQ 070520Z AUTO 18004KT 10SM CLR 17/14 A2986 1130 86 1600 180/04 RMK AO2
94908KDBQ DBQ20080606232509906/06/08 23:25:31  5-MIN KDBQ 070525Z AUTO 19003KT 10SM CLR 17/14 A2986 1130 86 1600 190/03 RMK AO2
94908KDBQ DBQ20080606233009906/06/08 23:30:31  5-MIN KDBQ 070530Z AUTO 18004KT 10SM CLR 17/14 A2987 1130 86 1600 180/04 RMK AO2
94908KDBQ DBQ20080606233509906/06/08 23:35:31  5-MIN KDBQ 070535Z AUTO 18004KT 10SM CLR 17/14 A2987 1130 86 1600 180/04 RMK AO2
94908KDBQ DBQ20080606234009906/06/08 23:40:31  5-MIN KDBQ 070540Z AUTO 18005KT 10SM CLR 17/14 A2987 1130 86 1600 180/05 RMK AO2
94908KDBQ DBQ20080606234509906/06/08 23:45:31  5-MIN KDBQ 070545Z AUTO 18005KT 10SM CLR 17/14 A2987 1130 86 1600 180/05 RMK AO2
94908KDBQ DBQ20080606235014406/06/08 23:50:31  5-MIN KDBQ 070550Z AUTO 18005KT 10SM CLR 17/14 A2987 1130 86 1600 180/05 RMK AO2 SLP109 T01670144 10239 20161 402670161 53034
94908KDBQ DBQ20080606235509906/06/08 23:55:31  5-MIN KDBQ 070555Z AUTO 18005KT 10SM CLR 17/14 A2987 1120 86 1600 180/05 RMK AO2
94908KDBQ DBQ20080607000009906/07/08 00:00:38  5-MIN KDBQ 070600Z AUTO 18006KT 10SM CLR 17/15 A2987 1120 90 1600 180/06 RMK AO2
94908KDBQ DBQ20080607000509906/07/08 00:05:31  5-MIN KDBQ 070605Z AUTO 18006KT 10SM CLR 17/15 A2987 1130 87 1700 170/06 RMK AO2
94908KDBQ DBQ20080607001009906/07/08 00:10:31  5-MIN KDBQ 070610Z AUTO 17006KT 10SM CLR 17/15 A2987 1120 87 1700 170/06 RMK AO2
94908KDBQ DBQ20080607001509906/07/08 00:15:35  5-MIN KDBQ 070615Z AUTO 18006KT 10SM CLR 17/15 A2987 1130 87 1700 180/06 RMK AO2
94908KDBQ DBQ20080607002009906/07/08 00:20:31  5-MIN KDBQ 070620Z AUTO 18007KT 10SM CLR 17/15 A2987 1130 87 1700 180/07 RMK AO2
94908KDBQ DBQ20080607002509906/07/08 00:25:31  5-MIN KDBQ 070625Z AUTO 18006KT 10SM CLR 17/15 A2986 1130 87 1700 180/06 RMK AO2
94908KDBQ DBQ20080607003009906/07/08 00:30:31  5-MIN KDBQ 070630Z AUTO 19005KT 10SM CLR 17/15 A2986 1130 87 1700 190/05 RMK AO2
94908KDBQ DBQ20080607003509906/07/08 00:35:31  5-MIN KDBQ 070635Z AUTO 19004KT 10SM CLR 17/15 A2986 1130 90 1600 190/04 RMK AO2
94908KDBQ DBQ20080607004009906/07/08 00:40:31  5-MIN KDBQ 070640Z AUTO 21003KT 10SM CLR 17/15 A2986 1140 90 1600 210/03 RMK AO2
94908KDBQ DBQ20080607004509906/07/08 00:45:31  5-MIN KDBQ 070645Z AUTO 20005KT 10SM CLR 16/14 A2986 1140 90 1600 200/05 RMK AO2
94908KDBQ DBQ20080607005011606/07/08 00:50:31  5-MIN KDBQ 070650Z AUTO 19005KT 10SM CLR 17/14 A2985 1140 86 1600 180/05 RMK AO2 SLP103 T01670144
94908KDBQ DBQ20080607005509906/07/08 00:55:31  5-MIN KDBQ 070655Z AUTO 21003KT 10SM CLR 17/14 A2986 1140 86 1600 200/03 RMK AO2
94908KDBQ DBQ20080607010009906/07/08 01:00:31  5-MIN KDBQ 070700Z AUTO 22003KT 10SM CLR 16/14 A2986 1140 90 1600 220/03 RMK AO2
94908KDBQ DBQ20080607010509906/07/08 01:05:31  5-MIN KDBQ 070705Z AUTO 20004KT 10SM CLR 16/14 A2986 1140 90 1600 200/04 RMK AO2
94908KDBQ DBQ20080607011009906/07/08 01:10:31  5-MIN KDBQ 070710Z AUTO 19005KT 10SM CLR 16/14 A2986 1140 90 1600 190/05 RMK AO2
94908KDBQ DBQ20080607011509906/07/08 01:15:31  5-MIN KDBQ 070715Z AUTO 18005KT 10SM CLR 16/14 A2985 1140 90 1600 180/05 RMK AO2
94908KDBQ DBQ20080607012009906/07/08 01:20:31  5-MIN KDBQ 070720Z AUTO 18005KT 10SM CLR 16/14 A2985 1140 90 1600 180/05 RMK AO2
94908KDBQ DBQ20080607012509906/07/08 01:25:31  5-MIN KDBQ 070725Z AUTO 18006KT 10SM CLR 16/14 A2985 1140 90 1600 180/06 RMK AO2
94908KDBQ DBQ20080607013009906/07/08 01:30:31  5-MIN KDBQ 070730Z AUTO 18006KT 10SM CLR 16/14 A2985 1140 90 1600 170/06 RMK AO2
94908KDBQ DBQ20080607013509906/07/08 01:35:31  5-MIN KDBQ 070735Z AUTO 18006KT 10SM CLR 16/14 A2985 1140 90 1600 180/06 RMK AO2
94908KDBQ DBQ20080607014009906/07/08 01:40:31  5-MIN KDBQ 070740Z AUTO 19007KT 10SM CLR 16/15 A2985 1140 93 1600 190/07 RMK AO2
94908KDBQ DBQ20080607014509906/07/08 01:45:31  5-MIN KDBQ 070745Z AUTO 20006KT 10SM CLR 17/15 A2985 1140 90 1600 200/06 RMK AO2
94908KDBQ DBQ20080607015011606/07/08 01:50:31  5-MIN KDBQ 070750Z AUTO 20006KT 10SM CLR 17/15 A2985 1140 90 1600 200/06 RMK AO2 SLP103 T01670150
94908KDBQ DBQ20080607015509906/07/08 01:55:31  5-MIN KDBQ 070755Z AUTO 19006KT 10SM CLR 17/15 A2985 1140 90 1600 190/06 RMK AO2
94908KDBQ DBQ20080607020009906/07/08 02:00:31  5-MIN KDBQ 070800Z AUTO 18005KT 10SM CLR 17/15 A2985 1140 87 1700 180/05 RMK AO2
94908KDBQ DBQ20080607020509906/07/08 02:05:31  5-MIN KDBQ 070805Z AUTO 18006KT 10SM CLR 17/15 A2985 1150 90 1600 180/06 RMK AO2
94908KDBQ DBQ20080607021009906/07/08 02:10:31  5-MIN KDBQ 070810Z AUTO 18006KT 10SM CLR 17/15 A2985 1150 90 1600 180/06 RMK AO2
94908KDBQ DBQ20080607021509906/07/08 02:15:31  5-MIN KDBQ 070815Z AUTO 18007KT 10SM CLR 17/15 A2985 1150 90 1600 180/07 RMK AO2
94908KDBQ DBQ20080607022009906/07/08 02:20:31  5-MIN KDBQ 070820Z AUTO 19007KT 10SM CLR 17/15 A2985 1150 90 1600 190/07 RMK AO2
94908KDBQ DBQ20080607022509906/07/08 02:25:31  5-MIN KDBQ 070825Z AUTO 19007KT 10SM CLR 17/16 A2984 1150 93 1700 190/07 RMK AO2
94908KDBQ DBQ20080607023009906/07/08 02:30:31  5-MIN KDBQ 070830Z AUTO 19006KT 10SM CLR 17/16 A2985 1150 93 1600 190/06 RMK AO2
94908KDBQ DBQ20080607023509906/07/08 02:35:31  5-MIN KDBQ 070835Z AUTO 19007KT 10SM CLR 17/16 A2985 1150 93 1600 190/07 RMK AO2
94908KDBQ DBQ20080607024009906/07/08 02:40:31  5-MIN KDBQ 070840Z AUTO 20005KT 10SM CLR 17/16 A2984 1150 93 1700 200/05 RMK AO2
94908KDBQ DBQ20080607024509906/07/08 02:45:31  5-MIN KDBQ 070845Z AUTO 19005KT 10SM CLR 17/16 A2984 1150 93 1700 190/05 RMK AO2
94908KDBQ DBQ20080607025012206/07/08 02:50:31  5-MIN KDBQ 070850Z AUTO 20007KT 10SM CLR 17/16 A2985 1150 93 1600 200/07 RMK AO2 SLP101 T01670156 51009
94908KDBQ DBQ20080607025509906/07/08 02:55:31  5-MIN KDBQ 070855Z AUTO 19006KT 10SM CLR 17/16 A2984 1150 90 1700 190/06 RMK AO2
94908KDBQ DBQ20080607030009906/07/08 03:00:31  5-MIN KDBQ 070900Z AUTO 19006KT 10SM CLR 17/16 A2984 1150 93 1700 190/06 RMK AO2
94908KDBQ DBQ20080607030509906/07/08 03:05:31  5-MIN KDBQ 070905Z AUTO 19005KT 10SM CLR 17/16 A2984 1150 93 1700 190/05 RMK AO2
94908KDBQ DBQ20080607031009906/07/08 03:10:31  5-MIN KDBQ 070910Z AUTO 19005KT 10SM CLR 17/16 A2984 1150 93 1700 190/05 RMK AO2
94908KDBQ DBQ20080607031509906/07/08 03:15:31  5-MIN KDBQ 070915Z AUTO 20006KT 10SM CLR 17/15 A2984 1150 90 1700 190/06 RMK AO2
94908KDBQ DBQ20080607032009906/07/08 03:20:31  5-MIN KDBQ 070920Z AUTO 18005KT 10SM CLR 17/16 A2984 1150 93 1700 180/05 RMK AO2
94908KDBQ DBQ20080607032509906/07/08 03:25:31  5-MIN KDBQ 070925Z AUTO 17007KT 10SM CLR 17/16 A2984 1150 90 1700 170/07 RMK AO2
94908KDBQ DBQ20080607033009906/07/08 03:30:31  5-MIN KDBQ 070930Z AUTO 17008KT 10SM CLR 17/16 A2984 1150 90 1700 170/08 RMK AO2
94908KDBQ DBQ20080607033509906/07/08 03:35:31  5-MIN KDBQ 070935Z AUTO 16009KT 10SM CLR 17/16 A2984 1150 90 1700 160/09 RMK AO2
94908KDBQ DBQ20080607034009906/07/08 03:40:31  5-MIN KDBQ 070940Z AUTO 16008KT 10SM CLR 17/16 A2984 1150 90 1700 160/08 RMK AO2
94908KDBQ DBQ20080607034509906/07/08 03:45:31  5-MIN KDBQ 070945Z AUTO 17006KT 10SM CLR 17/16 A2984 1150 90 1700 170/06 RMK AO2
94908KDBQ DBQ20080607035011606/07/08 03:50:31  5-MIN KDBQ 070950Z AUTO 17008KT 10SM CLR 17/16 A2984 1150 93 1700 170/08 RMK AO2 SLP101 T01670156
94908KDBQ DBQ20080607035509906/07/08 03:55:31  5-MIN KDBQ 070955Z AUTO 18006KT 10SM CLR 17/16 A2985 1150 93 1600 180/06 RMK AO2
94908KDBQ DBQ20080607040009906/07/08 04:00:31  5-MIN KDBQ 071000Z AUTO 18006KT 10SM CLR 17/16 A2985 1150 93 1600 180/06 RMK AO2
94908KDBQ DBQ20080607040509906/07/08 04:05:31  5-MIN KDBQ 071005Z AUTO 20004KT 10SM CLR 17/16 A2984 1150 93 1700 190/04 RMK AO2
94908KDBQ DBQ20080607041009906/07/08 04:10:31  5-MIN KDBQ 071010Z AUTO 20005KT 10SM CLR 17/16 A2984 1150 93 1700 200/05 RMK AO2
94908KDBQ DBQ20080607041509906/07/08 04:15:31  5-MIN KDBQ 071015Z AUTO 19007KT 10SM CLR 17/16 A2984 1150 93 1700 190/07 RMK AO2
94908KDBQ DBQ20080607042009906/07/08 04:20:31  5-MIN KDBQ 071020Z AUTO 19006KT 10SM CLR 17/16 A2984 1150 93 1700 190/06 RMK AO2
94908KDBQ DBQ20080607042509906/07/08 04:25:31  5-MIN KDBQ 071025Z AUTO 18007KT 10SM CLR 17/16 A2984 1150 93 1700 180/07 RMK AO2
94908KDBQ DBQ20080607043009906/07/08 04:30:31  5-MIN KDBQ 071030Z AUTO 18008KT 10SM CLR 17/16 A2984 1150 93 1700 180/08 RMK AO2
94908KDBQ DBQ20080607043509906/07/08 04:35:31  5-MIN KDBQ 071035Z AUTO 18008KT 10SM CLR 17/16 A2985 1150 93 1600 180/08 RMK AO2
94908KDBQ DBQ20080607044009906/07/08 04:40:31  5-MIN KDBQ 071040Z AUTO 18007KT 10SM CLR 17/16 A2985 1150 90 1700 180/07 RMK AO2
94908KDBQ DBQ20080607044509906/07/08 04:45:31  5-MIN KDBQ 071045Z AUTO 18007KT 10SM CLR 17/16 A2985 1150 93 1600 180/07 RMK AO2
94908KDBQ DBQ20080607045011606/07/08 04:50:31  5-MIN KDBQ 071050Z AUTO 18007KT 10SM CLR 17/16 A2985 1150 90 1700 170/07 RMK AO2 SLP102 T01720156
94908KDBQ DBQ20080607045509906/07/08 04:55:31  5-MIN KDBQ 071055Z AUTO 18007KT 10SM CLR 17/16 A2985 1140 90 1700 180/07 RMK AO2
94908KDBQ DBQ20080607050009406/07/08 05:00:31  5-MIN KDBQ 071100Z 18006KT 10SM CLR 17/16 A2985 1140 90 1700 180/06 RMK AO2
94908KDBQ DBQ20080607050509406/07/08 05:05:31  5-MIN KDBQ 071105Z 18007KT 10SM CLR 17/16 A2985 1140 93 1700 180/07 RMK AO2
94908KDBQ DBQ20080607051009406/07/08 05:10:31  5-MIN KDBQ 071110Z 19006KT 10SM CLR 17/16 A2985 1140 93 1700 190/06 RMK AO2
94908KDBQ DBQ20080607051509406/07/08 05:15:31  5-MIN KDBQ 071115Z 18006KT 10SM CLR 17/16 A2985 1140 93 1700 180/06 RMK AO2
94908KDBQ DBQ20080607052009406/07/08 05:20:31  5-MIN KDBQ 071120Z 17007KT 10SM CLR 18/16 A2986 1140 90 1800 170/07 RMK AO2
94908KDBQ DBQ20080607052509406/07/08 05:25:31  5-MIN KDBQ 071125Z 17007KT 10SM CLR 18/16 A2985 1140 90 1800 170/07 RMK AO2
94908KDBQ DBQ20080607053009406/07/08 05:30:31  5-MIN KDBQ 071130Z 17008KT 10SM CLR 18/16 A2985 1140 90 1800 170/08 RMK AO2
94908KDBQ DBQ20080607053509406/07/08 05:35:31  5-MIN KDBQ 071135Z 17007KT 10SM CLR 18/16 A2985 1140 87 1800 160/07 RMK AO2
94908KDBQ DBQ20080607054009406/07/08 05:40:31  5-MIN KDBQ 071140Z 17005KT 10SM CLR 18/17 A2985 1140 90 1800 170/05 RMK AO2
94908KDBQ DBQ20080607054509406/07/08 05:45:31  5-MIN KDBQ 071145Z 17008KT 10SM CLR 18/17 A2986 1140 90 1800 170/08 RMK AO2
94908KDBQ DBQ20080607055012906/07/08 05:50:31  5-MIN KDBQ 071150Z 17008KT 10SM CLR 19/17 A2986 1130 87 1900 170/08 RMK AO2 SLP105 T01890167 10189 20161 56007
94908KDBQ DBQ20080607055509406/07/08 05:55:31  5-MIN KDBQ 071155Z 17010KT 10SM CLR 19/17 A2986 1130 87 1900 170/10 RMK AO2
94908KDBQ DBQ20080607060009406/07/08 06:00:31  5-MIN KDBQ 071200Z 17010KT 10SM CLR 19/17 A2986 1130 87 1900 170/10 RMK AO2
94908KDBQ DBQ20080607060509706/07/08 06:05:31  5-MIN KDBQ 071205Z 17010KT 10SM FEW026 19/17 A2986 1130 90 1900 170/10 RMK AO2
94908KDBQ DBQ20080607061010406/07/08 06:10:31  5-MIN KDBQ 071210Z 16011KT 10SM FEW026 SCT035 19/17 A2986 1130 87 2000 160/11 RMK AO2
94908KDBQ DBQ20080607061511106/07/08 06:15:31  5-MIN KDBQ 071215Z 16010KT 10SM SCT012 SCT026 BKN033 19/17 A2986 1130 87 2000 160/10 RMK AO2
94908KDBQ DBQ20080607062012306/07/08 06:20:31  5-MIN KDBQ 071220Z 17011KT 10SM BKN010 BKN026 BKN035 19/17 A2986 1130 87 1900 160/11 RMK AO2 CIG 009V014
94908KDBQ DBQ20080607062512306/07/08 06:25:31  5-MIN KDBQ 071225Z 16010KT 10SM BKN010 BKN026 OVC035 19/18 A2986 1130 90 2000 160/10 RMK AO2 CIG 008V014
94908KDBQ DBQ20080607063012306/07/08 06:30:31  5-MIN KDBQ 071230Z 16009KT 10SM BKN010 BKN026 OVC035 19/18 A2986 1130 90 2000 160/09 RMK AO2 CIG 008V014
94908KDBQ DBQ20080607063511606/07/08 06:35:31  5-MIN KDBQ 071235Z 17010KT 10SM BKN010 BKN030 20/18 A2986 1130 87 2000 170/10 RMK AO2 CIG 008V016
94908KDBQ DBQ20080607064011606/07/08 06:40:31  5-MIN KDBQ 071240Z 16011KT 10SM BKN010 BKN016 20/18 A2986 1140 90 2000 160/11 RMK AO2 CIG 008V012
94908KDBQ DBQ20080607064510406/07/08 06:45:31  5-MIN KDBQ 071245Z 16011KT 10SM SCT010 SCT016 20/18 A2986 1140 90 2000 160/11 RMK AO2
94908KDBQ DBQ20080607065009706/07/08 06:50:31  5-MIN KDBQ 071250Z 16011KT 10SM SCT008 21/18 A2985 1140 87 2100 160/11 RMK AO2
94908KDBQ DBQ20080607065511506/07/08 06:55:31  5-MIN KDBQ 071255Z 16012G18KT 10SM BKN008 21/19 A2985 1140 90 2100 160/12G18 RMK AO2 CIG 006V010
94908KDBQ DBQ20080607070011506/07/08 07:00:31  5-MIN KDBQ 071300Z 16012G18KT 10SM BKN008 21/19 A2985 1140 90 2100 160/12G18 RMK AO2 CIG 005V011
94908KDBQ DBQ20080607070511606/07/08 07:05:31  5-MIN KDBQ 071305Z 17012KT 10SM BKN008 BKN023 21/19 A2985 1140 90 2200 170/12 RMK AO2 CIG 005V011
94908KDBQ DBQ20080607071010406/07/08 07:10:31  5-MIN KDBQ 071310Z 16011KT 10SM SCT006 BKN025 21/19 A2985 1140 90 2200 160/11 RMK AO2
94908KDBQ DBQ20080607071511006/07/08 07:15:31  5-MIN KDBQ 071315Z 17012KT 9SM SCT006 BKN025 OVC031 21/19 A2985 1140 90 2200 170/12 RMK AO2
94908KDBQ DBQ20080607072010306/07/08 07:20:31  5-MIN KDBQ 071320Z 18011KT 8SM SCT006 OVC025 22/20 A2985 1140 90 2200 170/11 RMK AO2
94908KDBQ DBQ20080607072510306/07/08 07:25:31  5-MIN KDBQ 071325Z 17014KT 8SM SCT006 OVC025 22/20 A2985 1140 90 2200 170/14 RMK AO2
94908KDBQ DBQ20080607073010306/07/08 07:30:31  5-MIN KDBQ 071330Z 17014KT 8SM SCT006 OVC023 22/20 A2985 1140 90 2200 160/14 RMK AO2
94908KDBQ DBQ20080607073511606/07/08 07:35:31  5-MIN KDBQ 071335Z 16013G20KT 7SM SCT006 BKN013 OVC023 22/20 A2985 1140 90 2200 160/13G20 RMK AO2
94908KDBQ DBQ20080607074012806/07/08 07:40:31  5-MIN KDBQ 071340Z 17011G20KT 7SM BKN006 BKN013 OVC023 22/21 A2985 1140 90 2300 170/11G20 RMK AO2 CIG 005V009
94908KDBQ DBQ20080607074512806/07/08 07:45:31  5-MIN KDBQ 071345Z 17012G19KT 7SM BKN006 BKN013 OVC023 22/21 A2985 1140 90 2300 170/12G19 RMK AO2 CIG 005V009
94908KDBQ DBQ20080607075013806/07/08 07:50:31  5-MIN KDBQ 071350Z 17012G19KT 7SM BKN008 OVC013 22/21 A2985 1140 90 2300 170/12G19 RMK AO2 CIG 005V011 SLP104 T02220206
94908KDBQ DBQ20080607075512406/07/08 07:55:31  5-MIN KDBQ 071355Z 17012G19KT 6SM BR BKN008 OVC013 22/21 A2985 1150 90 2300 170/12G19 RMK AO2 CIG 005V011
94908KDBQ DBQ20080607080011106/07/08 08:00:31  5-MIN KDBQ 071400Z 17013KT 6SM BR OVC006 22/21 A2985 1150 90 2300 170/13 RMK AO2 CIG 005V011
94908KDBQ DBQ20080607080511106/07/08 08:05:31  5-MIN KDBQ 071405Z 17012KT 6SM BR OVC006 23/21 A2985 1150 87 2300 170/12 RMK AO2 CIG 005V011
94908KDBQ DBQ20080607081011706/07/08 08:10:31  5-MIN KDBQ 071410Z 17011G19KT 6SM BR OVC006 23/21 A2984 1150 90 2400 170/11G19 RMK AO2 CIG 005V011
94908KDBQ DBQ20080607081511406/07/08 08:15:31  5-MIN KDBQ 071415Z 18015G19KT 7SM OVC006 23/21 A2984 1150 87 2400 180/15G19 RMK AO2 CIG 005V011
94908KDBQ DBQ20080607082512106/07/08 08:25:31  5-MIN KDBQ 071425Z 18012G20KT 7SM BKN008 OVC012 24/21 A2984 1160 84 2500 180/12G20 RMK AO2 CIG 005V010
94908KDBQ DBQ20080607083012106/07/08 08:30:31  5-MIN KDBQ 071430Z 17013G20KT 7SM BKN008 OVC012 24/22 A2984 1160 87 2500 170/13G20 RMK AO2 CIG 005V010
94908KDBQ DBQ20080607083510806/07/08 08:35:31  5-MIN KDBQ 071435Z 18015KT 8SM OVC008 24/22 A2983 1160 87 2500 180/15 RMK AO2 CIG 006V013
94908KDBQ DBQ20080607084010806/07/08 08:40:31  5-MIN KDBQ 071440Z 18013KT 8SM OVC008 24/22 A2983 1160 84 2600 180/13 RMK AO2 CIG 006V013
94908KDBQ DBQ20080607084511506/07/08 08:45:31  5-MIN KDBQ 071445Z 19013KT 8SM BKN008 OVC013 24/22 A2983 1160 84 2600 190/13 RMK AO2 CIG 006V011
94908KDBQ DBQ20080607085012106/07/08 08:50:31  5-MIN KDBQ 071450Z 19017G22KT 9SM BKN010 OVC014 25/22 A2983 1160 84 2600 190/17G22 RMK AO2 CIG 006V012
94908KDBQ DBQ20080607085510206/07/08 08:55:31  5-MIN KDBQ 071455Z 18015G22KT 9SM OVC010 25/22 A2983 1160 84 2600 180/15G22 RMK AO2
94908KDBQ DBQ20080607090009606/07/08 09:00:31  5-MIN KDBQ 071500Z 19015KT 9SM OVC010 25/22 A2983 1160 84 2600 180/15 RMK AO2
94908KDBQ DBQ20080607090509606/07/08 09:05:31  5-MIN KDBQ 071505Z 19015KT 9SM OVC010 25/22 A2983 1160 84 2600 190/15 RMK AO2
94908KDBQ DBQ20080607091009606/07/08 09:10:31  5-MIN KDBQ 071510Z 19016KT 9SM OVC012 26/22 A2983 1160 81 2700 190/16 RMK AO2
94908KDBQ DBQ20080607091510206/07/08 09:15:31  5-MIN KDBQ 071515Z 20016G23KT 9SM OVC012 25/22 A2983 1160 84 2600 200/16G23 RMK AO2
94908KDBQ DBQ20080607092010206/07/08 09:20:31  5-MIN KDBQ 071520Z 19014G23KT 9SM OVC012 26/22 A2982 1170 81 2700 190/14G23 RMK AO2
94908KDBQ DBQ20080607092510206/07/08 09:25:31  5-MIN KDBQ 071525Z 19015G20KT 9SM OVC012 26/23 A2983 1170 84 2700 190/15G20 RMK AO2
94908KDBQ DBQ20080607093010206/07/08 09:30:31  5-MIN KDBQ 071530Z 19016G20KT 9SM OVC014 26/23 A2982 1170 81 2800 190/16G20 RMK AO2
94908KDBQ DBQ20080607093510206/07/08 09:35:31  5-MIN KDBQ 071535Z 19017G21KT 9SM OVC014 26/23 A2982 1170 81 2800 190/17G21 RMK AO2
94908KDBQ DBQ20080607094010206/07/08 09:40:31  5-MIN KDBQ 071540Z 19017G21KT 9SM OVC014 26/23 A2982 1170 81 2800 190/17G21 RMK AO2
94908KDBQ DBQ20080607094510206/07/08 09:45:31  5-MIN KDBQ 071545Z 19014G21KT 9SM OVC014 27/23 A2982 1170 79 2800 190/14G21 RMK AO2
94908KDBQ DBQ20080607095012006/07/08 09:50:31  5-MIN KDBQ 071550Z 20016G22KT 10SM OVC014 27/23 A2982 1170 79 2800 190/16G22 RMK AO2 SLP092 T02670228
94908KDBQ DBQ20080607095510306/07/08 09:55:31  5-MIN KDBQ 071555Z 20017G22KT 10SM OVC014 26/23 A2982 1170 81 2800 200/17G22 RMK AO2
94908KDBQ DBQ20080607100009606/07/08 10:00:31  5-MIN KDBQ 071600Z 19018KT 9SM OVC014 26/23 A2982 1170 81 2800 190/18 RMK AO2
94908KDBQ DBQ20080607100509606/07/08 10:05:31  5-MIN KDBQ 071605Z 20016KT 9SM OVC016 26/23 A2982 1170 81 2800 200/16 RMK AO2
94908KDBQ DBQ20080607101009706/07/08 10:10:31  5-MIN KDBQ 071610Z 19017KT 10SM OVC016 27/23 A2982 1170 79 2800 190/17 RMK AO2
94908KDBQ DBQ20080607101510406/07/08 10:15:31  5-MIN KDBQ 071615Z 18014KT 10SM BKN016 OVC021 27/23 A2982 1170 79 2800 180/14 RMK AO2
94908KDBQ DBQ20080607102009706/07/08 10:20:31  5-MIN KDBQ 071620Z 18014KT 10SM BKN018 27/23 A2982 1170 76 2900 180/14 RMK AO2
94908KDBQ DBQ20080607102510306/07/08 10:25:31  5-MIN KDBQ 071625Z 18015G19KT 10SM BKN018 27/23 A2981 1180 79 2900 180/15G19 RMK AO2
94908KDBQ DBQ20080607103009706/07/08 10:30:31  5-MIN KDBQ 071630Z 18016KT 10SM OVC018 27/23 A2981 1180 76 2900 180/16 RMK AO2
94908KDBQ DBQ20080607103509706/07/08 10:35:31  5-MIN KDBQ 071635Z 18014KT 10SM BKN018 27/23 A2981 1180 76 2900 180/14 RMK AO2
94908KDBQ DBQ20080607104010406/07/08 10:40:31  5-MIN KDBQ 071640Z 18014KT 10SM BKN018 BKN060 27/23 A2981 1180 79 2900 180/14 RMK AO2
94908KDBQ DBQ20080607104510306/07/08 10:45:31  5-MIN KDBQ 071645Z 19014G20KT 10SM BKN018 28/23 A2981 1180 76 3000 180/14G20 RMK AO2
94908KDBQ DBQ20080607105012006/07/08 10:50:31  5-MIN KDBQ 071650Z 19013G19KT 10SM BKN018 28/24 A2980 1190 76 3000 180/13G19 RMK AO2 SLP086 T02830239
94908KDBQ DBQ20080607105510306/07/08 10:55:31  5-MIN KDBQ 071655Z 18017G23KT 10SM BKN018 28/24 A2980 1190 76 3000 180/17G23 RMK AO2
94908KDBQ DBQ20080607110009706/07/08 11:00:31  5-MIN KDBQ 071700Z 18017KT 10SM BKN018 29/24 A2980 1190 74 3100 180/17 RMK AO2
94908KDBQ DBQ20080607110510306/07/08 11:05:31  5-MIN KDBQ 071705Z 19019G24KT 10SM BKN018 28/23 A2980 1190 74 3000 180/19G24 RMK AO2
94908KDBQ DBQ20080607111010306/07/08 11:10:31  5-MIN KDBQ 071710Z 18015G24KT 10SM BKN018 29/24 A2979 1200 74 3100 180/15G24 RMK AO2
94908KDBQ DBQ20080607111510306/07/08 11:15:31  5-MIN KDBQ 071715Z 19020G25KT 10SM BKN018 29/23 A2979 1200 71 3100 190/20G25 RMK AO2
94908KDBQ DBQ20080607112012106/07/08 11:20:31  5-MIN KDBQ 071720Z 19021G26KT 10SM BKN018 29/23 A2979 1200 71 3100 190/21G26 RMK AO2 PK WND 19026/1720
94908KDBQ DBQ20080607112512106/07/08 11:25:31  5-MIN KDBQ 071725Z 19017G26KT 10SM BKN018 29/23 A2978 1200 69 3200 190/17G26 RMK AO2 PK WND 19026/1722
94908KDBQ DBQ20080607113012106/07/08 11:30:31  5-MIN KDBQ 071730Z 18017G26KT 10SM BKN018 29/24 A2978 1200 71 3200 180/17G26 RMK AO2 PK WND 19026/1722
94908KDBQ DBQ20080607113512806/07/08 11:35:31  5-MIN KDBQ 071735Z 18019G24KT 10SM BKN023 BKN028 29/24 A2978 1210 71 3200 180/19G24 RMK AO2 PK WND 19026/1722
94908KDBQ DBQ20080607114012106/07/08 11:40:31  5-MIN KDBQ 071740Z 19019G25KT 10SM BKN023 29/23 A2978 1210 71 3100 190/19G25 RMK AO2 PK WND 19026/1722
94908KDBQ DBQ20080607114512806/07/08 11:45:31  5-MIN KDBQ 071745Z 18019G28KT 10SM BKN023 BKN031 29/23 A2978 1210 71 3100 180/19G28 RMK AO2 PK WND 18028/1743
94908KDBQ DBQ20080607115016306/07/08 11:50:31  5-MIN KDBQ 071750Z 19020G28KT 10SM BKN023 BKN031 29/24 A2977 1220 71 3200 180/20G28 RMK AO2 PK WND 18028/1743 SLP074 T02940239 10294 20189 55007
94908KDBQ DBQ20080607115511006/07/08 11:55:31  5-MIN KDBQ 071755Z 18020G26KT 10SM BKN023 BKN031 29/24 A2977 1220 71 3200 180/20G26 RMK AO2
94908KDBQ DBQ20080607120013506/07/08 12:00:31  5-MIN KDBQ 071800Z 19021G28KT 10SM BKN023 BKN029 BKN037 29/23 A2976 1220 69 3200 180/21G28 RMK AO2 PK WND 18028/1758
94908KDBQ DBQ20080607120513506/07/08 12:05:31  5-MIN KDBQ 071805Z 19022G31KT 10SM SCT023 BKN029 BKN037 30/24 A2976 1220 69 3300 190/22G31 RMK AO2 PK WND 19031/1803
94908KDBQ DBQ20080607121013506/07/08 12:10:31  5-MIN KDBQ 071810Z 19018G31KT 10SM BKN023 BKN029 BKN037 29/23 A2976 1230 69 3200 190/18G31 RMK AO2 PK WND 19031/1803
94908KDBQ DBQ20080607121513506/07/08 12:15:31  5-MIN KDBQ 071815Z 20021G28KT 10SM BKN023 BKN029 BKN037 30/24 A2976 1230 69 3300 200/21G28 RMK AO2 PK WND 19031/1803
94908KDBQ DBQ20080607122013506/07/08 12:20:31  5-MIN KDBQ 071820Z 20019G28KT 10SM BKN023 BKN029 BKN037 30/24 A2976 1230 69 3300 200/19G28 RMK AO2 PK WND 19031/1803
94908KDBQ DBQ20080607122513506/07/08 12:25:31  5-MIN KDBQ 071825Z 19025G30KT 10SM BKN023 BKN029 BKN037 30/24 A2975 1230 69 3300 190/25G30 RMK AO2 PK WND 19031/1803
94908KDBQ DBQ20080607123013506/07/08 12:30:31  5-MIN KDBQ 071830Z 19026G32KT 10SM BKN023 BKN029 BKN037 30/23 A2975 1240 67 3300 190/26G32 RMK AO2 PK WND 19032/1830
94908KDBQ DBQ20080607123513506/07/08 12:35:31  5-MIN KDBQ 071835Z 20025G32KT 10SM BKN023 BKN029 BKN037 30/23 A2975 1240 67 3300 200/25G32 RMK AO2 PK WND 20032/1834
94908KDBQ DBQ20080607124013506/07/08 12:40:31  5-MIN KDBQ 071840Z 20022G32KT 10SM BKN023 BKN029 BKN037 29/23 A2975 1240 69 3200 190/22G32 RMK AO2 PK WND 20032/1834
94908KDBQ DBQ20080607124513506/07/08 12:45:31  5-MIN KDBQ 071845Z 19021G29KT 10SM BKN023 BKN029 BKN037 30/23 A2975 1240 67 3300 190/21G29 RMK AO2 PK WND 20032/1834
94908KDBQ DBQ20080607125014506/07/08 12:50:31  5-MIN KDBQ 071850Z 20020G28KT 10SM BKN029 BKN034 30/24 A2975 1240 69 3300 200/20G28 RMK AO2 PK WND 20032/1834 SLP066 T03000239
94908KDBQ DBQ20080607125512806/07/08 12:55:31  5-MIN KDBQ 071855Z 20023G29KT 10SM SCT029 BKN034 30/24 A2974 1250 69 3300 200/23G29 RMK AO2 PK WND 20029/1854
94908KDBQ DBQ20080607130013506/07/08 13:00:31  5-MIN KDBQ 071900Z 20021G29KT 10SM SCT029 BKN034 BKN042 30/24 A2974 1240 69 3300 200/21G29 RMK AO2 PK WND 19029/1900
94908KDBQ DBQ20080607130512806/07/08 13:05:31  5-MIN KDBQ 071905Z 20020G30KT 10SM SCT029 BKN038 30/24 A2974 1250 69 3300 200/20G30 RMK AO2 PK WND 19030/1901
94908KDBQ DBQ20080607131013506/07/08 13:10:31  5-MIN KDBQ 071910Z 20018G30KT 10SM SCT029 BKN038 BKN048 30/24 A2974 1250 69 3300 200/18G30 RMK AO2 PK WND 19030/1901
94908KDBQ DBQ20080607131513506/07/08 13:15:31  5-MIN KDBQ 071915Z 19021G26KT 10SM SCT029 BKN037 BKN047 30/24 A2974 1250 69 3300 190/21G26 RMK AO2 PK WND 19030/1901
94908KDBQ DBQ20080607132013506/07/08 13:20:31  5-MIN KDBQ 071920Z 19020G27KT 10SM SCT029 BKN039 BKN047 30/24 A2973 1250 69 3300 190/20G27 RMK AO2 PK WND 19030/1901
94908KDBQ DBQ20080607132513506/07/08 13:25:31  5-MIN KDBQ 071925Z 20017G27KT 10SM SCT029 BKN039 BKN047 30/24 A2973 1250 69 3300 200/17G27 RMK AO2 PK WND 19030/1901
94908KDBQ DBQ20080607133012906/07/08 13:30:31  5-MIN KDBQ 071930Z 21018KT 10SM SCT029 BKN036 BKN047 30/24 A2973 1250 69 3300 200/18 RMK AO2 PK WND 19030/1901
94908KDBQ DBQ20080607133513506/07/08 13:35:31  5-MIN KDBQ 071935Z 21018G27KT 10SM SCT030 BKN038 BKN047 30/24 A2973 1250 69 3300 210/18G27 RMK AO2 PK WND 19030/1901
94908KDBQ DBQ20080607134012806/07/08 13:40:31  5-MIN KDBQ 071940Z 20020G27KT 10SM BKN033 BKN045 31/24 A2973 1250 67 3300 200/20G27 RMK AO2 PK WND 19030/1901
94908KDBQ DBQ20080607134512806/07/08 13:45:31  5-MIN KDBQ 071945Z 21019G25KT 10SM BKN033 BKN045 31/24 A2974 1250 65 3400 210/19G25 RMK AO2 PK WND 19030/1901
94908KDBQ DBQ20080607135014506/07/08 13:50:31  5-MIN KDBQ 071950Z 21017G27KT 10SM BKN033 BKN043 30/23 A2974 1250 67 3300 210/17G27 RMK AO2 PK WND 19030/1901 SLP063 T03000233
94908KDBQ DBQ20080607135512806/07/08 13:55:31  5-MIN KDBQ 071955Z 21022G27KT 10SM BKN035 BKN050 30/23 A2974 1240 67 3300 210/22G27 RMK AO2 PK WND 21027/1954
94908KDBQ DBQ20080607140013506/07/08 14:00:31  5-MIN KDBQ 072000Z 21017G27KT 10SM SCT035 BKN045 BKN060 30/23 A2974 1250 67 3300 210/17G27 RMK AO2 PK WND 21027/1954
94908KDBQ DBQ20080607140513506/07/08 14:05:31  5-MIN KDBQ 072005Z 21017G26KT 10SM SCT035 BKN042 BKN055 30/23 A2974 1250 67 3300 210/17G26 RMK AO2 PK WND 21027/1954
94908KDBQ DBQ20080607141012806/07/08 14:10:31  5-MIN KDBQ 072010Z 22016G26KT 10SM BKN035 BKN046 31/24 A2972 1260 67 3400 220/16G26 RMK AO2 PK WND 21027/1954
94908KDBQ DBQ20080607141512806/07/08 14:15:31  5-MIN KDBQ 072015Z 22019G24KT 10SM SCT035 BKN046 31/23 A2972 1260 63 3400 220/19G24 RMK AO2 PK WND 21027/1954
94908KDBQ DBQ20080607142012806/07/08 14:20:31  5-MIN KDBQ 072020Z 22015G24KT 10SM SCT035 SCT046 31/23 A2972 1260 63 3400 220/15G24 RMK AO2 PK WND 21027/1954
94908KDBQ DBQ20080607142512806/07/08 14:25:31  5-MIN KDBQ 072025Z 23016G29KT 10SM FEW035 SCT044 31/24 A2971 1270 65 3400 230/16G29 RMK AO2 PK WND 24029/2021
94908KDBQ DBQ20080607143012106/07/08 14:30:31  5-MIN KDBQ 072030Z 23018G29KT 10SM SCT035 31/23 A2972 1270 65 3400 230/18G29 RMK AO2 PK WND 24029/2021
94908KDBQ DBQ20080607143512806/07/08 14:35:31  5-MIN KDBQ 072035Z 23018G24KT 10SM FEW035 SCT049 31/23 A2972 1270 63 3400 220/18G24 RMK AO2 PK WND 24029/2021
94908KDBQ DBQ20080607144012106/07/08 14:40:31  5-MIN KDBQ 072040Z 22014G23KT 10SM FEW035 31/23 A2972 1270 65 3400 220/14G23 RMK AO2 PK WND 24029/2021
94908KDBQ DBQ20080607144512106/07/08 14:45:31  5-MIN KDBQ 072045Z 22012G20KT 10SM FEW037 30/23 A2973 1260 65 3300 220/12G20 RMK AO2 PK WND 24029/2021
94908KDBQ DBQ20080607145015106/07/08 14:50:31  5-MIN KDBQ 072050Z 19018G28KT 10SM FEW020 SCT035 28/23 A2974 1250 74 3000 190/18G28 RMK AO2 PK WND 24029/2021 SLP064 T02780228 58020
94908KDBQ DBQ20080607145511006/07/08 14:55:31  5-MIN KDBQ 072055Z 18019G28KT 10SM FEW020 BKN035 26/23 A2974 1250 84 2800 180/19G28 RMK AO2
94908KDBQ DBQ20080607150013906/07/08 15:00:31  5-MIN KDBQ 072100Z 18020G27KT 10SM FEW025 BKN035 25/22 A2973 1250 84 2700 180/20G27 RMK AO2 PK WND 17027/2057 WSHFT 2045
94908KDBQ DBQ20080607150516106/07/08 15:05:31  5-MIN KDBQ 072105Z 19014G27KT 8SM -RA FEW020 SCT025 BKN035 24/23 A2974 1240 90 2700 190/14G27 RMK AO2 PK WND 17027/2101 WSHFT 2045 RAB03 P0000
94908KDBQ DBQ20080607151016106/07/08 15:10:31  5-MIN KDBQ 072110Z 19014G27KT 8SM -RA FEW012 BKN035 OVC041 25/23 A2974 1250 90 2700 190/14G27 RMK AO2 PK WND 17027/2101 WSHFT 2045 RAB03 P0000
94908KDBQ DBQ20080607151516006/07/08 15:15:31  5-MIN KDBQ 072115Z 20020G29KT 8SM FEW012 SCT024 BKN033 26/24 A2973 1250 87 2900 200/20G29 RMK AO2 PK WND 19029/2112 WSHFT 2045 RAB03E14 P0000
94908KDBQ DBQ20080607152015406/07/08 15:20:31  5-MIN KDBQ 072120Z 19023G29KT 10SM FEW012 BKN033 27/24 A2973 1260 84 2900 190/23G29 RMK AO2 PK WND 19029/2120 WSHFT 2045 RAB03E14 P0000
94908KDBQ DBQ20080607152516106/07/08 15:25:31  5-MIN KDBQ 072125Z 19022G29KT 10SM FEW012 SCT025 BKN055 26/23 A2973 1260 84 2900 180/22G29 RMK AO2 PK WND 19029/2120 WSHFT 2045 RAB03E14 P0000
94908KDBQ DBQ20080607153016306/07/08 15:30:31  5-MIN KDBQ 072130Z 18018G29KT 4SM RA BR FEW012 SCT024 BKN030 25/23 A2973 1260 90 2700 180/18G29 RMK AO2 PK WND 19029/2127 WSHFT 2045 RAB03 P0000
94908KDBQ DBQ20080607153516306/07/08 15:35:31  5-MIN KDBQ 072135Z 18017G29KT 4SM RA BR FEW012 SCT030 SCT041 26/23 A2973 1260 87 2800 180/17G29 RMK AO2 PK WND 19029/2127 WSHFT 2045 RAB03 P0004
94908KDBQ DBQ20080607154014706/07/08 15:40:31  5-MIN KDBQ 072140Z 18019G24KT 10SM FEW024 26/23 A2973 1260 87 2800 180/19G24 RMK AO2 PK WND 19029/2127 WSHFT 2045 RAB03E40 P0004
94908KDBQ DBQ20080607154515406/07/08 15:45:31  5-MIN KDBQ 072145Z 19017G24KT 10SM FEW024 SCT042 26/24 A2973 1260 87 2900 190/17G24 RMK AO2 PK WND 19029/2127 WSHFT 2045 RAB03E40 P0004
94908KDBQ DBQ20080607155017806/07/08 15:50:31  5-MIN KDBQ 072150Z 19017G23KT 10SM FEW024 SCT042 SCT060 26/24 A2972 1260 90 2900 190/17G23 RMK AO2 PK WND 19029/2127 WSHFT 2045 RAB03E40 SLP058 P0004 T02610244
94908KDBQ DBQ20080607155511706/07/08 15:55:31  5-MIN KDBQ 072155Z 19017G23KT 10SM FEW032 SCT042 SCT060 27/24 A2972 1260 87 2900 190/17G23 RMK AO2
94908KDBQ DBQ20080607160010306/07/08 16:00:31  5-MIN KDBQ 072200Z 19019G23KT 10SM FEW034 27/24 A2972 1260 87 2900 190/19G23 RMK AO2
94908KDBQ DBQ20080607160511706/07/08 16:05:31  5-MIN KDBQ 072205Z 19014G22KT 10SM FEW031 SCT040 SCT060 26/24 A2972 1270 90 2900 190/14G22 RMK AO2
94908KDBQ DBQ20080607161011106/07/08 16:10:31  5-MIN KDBQ 072210Z 19016KT 10SM SCT033 SCT043 BKN060 27/24 A2972 1270 87 2900 190/16 RMK AO2
94908KDBQ DBQ20080607161510406/07/08 16:15:31  5-MIN KDBQ 072215Z 19015KT 10SM FEW031 SCT060 27/24 A2972 1270 87 2900 190/15 RMK AO2
94908KDBQ DBQ20080607162011706/07/08 16:20:31  5-MIN KDBQ 072220Z 19014G20KT 10SM FEW031 SCT039 BKN070 27/24 A2972 1270 84 3000 190/14G20 RMK AO2
94908KDBQ DBQ20080607162511706/07/08 16:25:31  5-MIN KDBQ 072225Z 19014G20KT 10SM FEW034 SCT041 SCT055 28/25 A2971 1270 84 3100 190/14G20 RMK AO2
94908KDBQ DBQ20080607163011006/07/08 16:30:31  5-MIN KDBQ 072230Z 20013G20KT 10SM FEW036 SCT055 28/25 A2972 1270 84 3100 200/13G20 RMK AO2
94908KDBQ DBQ20080607163510306/07/08 16:35:31  5-MIN KDBQ 072235Z 20016G21KT 10SM FEW037 27/24 A2971 1270 84 3000 200/16G21 RMK AO2
94908KDBQ DBQ20080607164011006/07/08 16:40:31  5-MIN KDBQ 072240Z 20016G22KT 10SM FEW037 SCT065 28/24 A2971 1270 82 3100 200/16G22 RMK AO2
94908KDBQ DBQ20080607164511006/07/08 16:45:31  5-MIN KDBQ 072245Z 21015G22KT 10SM FEW037 SCT055 28/24 A2972 1270 79 3100 200/15G22 RMK AO2
94908KDBQ DBQ20080607165013406/07/08 16:50:31  5-MIN KDBQ 072250Z 20017G23KT 10SM FEW037 SCT048 SCT060 28/24 A2972 1270 76 3100 200/17G23 RMK AO2 SLP056 T02830239
94908KDBQ DBQ20080607165511706/07/08 16:55:31  5-MIN KDBQ 072255Z 20017G23KT 10SM FEW029 SCT048 BKN060 28/24 A2972 1270 79 3100 200/17G23 RMK AO2
94908KDBQ DBQ20080607170011706/07/08 17:00:31  5-MIN KDBQ 072300Z 21018G25KT 10SM FEW029 SCT047 SCT060 28/24 A2971 1270 76 3100 210/18G25 RMK AO2
94908KDBQ DBQ20080607170511006/07/08 17:05:31  5-MIN KDBQ 072305Z 21019G25KT 10SM FEW029 SCT049 28/24 A2972 1260 76 3100 210/19G25 RMK AO2
94908KDBQ DBQ20080607171011706/07/08 17:10:31  5-MIN KDBQ 072310Z 22014G24KT 10SM FEW035 SCT049 BKN065 28/23 A2971 1270 74 3100 220/14G24 RMK AO2
94908KDBQ DBQ20080607171511706/07/08 17:15:31  5-MIN KDBQ 072315Z 21014G23KT 10SM FEW035 SCT047 SCT060 28/23 A2972 1270 74 3100 210/14G23 RMK AO2
94908KDBQ DBQ20080607172011006/07/08 17:20:31  5-MIN KDBQ 072320Z 21014G23KT 10SM FEW036 SCT060 28/23 A2972 1260 74 3100 210/14G23 RMK AO2
94908KDBQ DBQ20080607172512806/07/08 17:25:31  5-MIN KDBQ 072325Z 21020G26KT 10SM FEW048 SCT060 28/23 A2972 1260 74 3100 210/20G26 RMK AO2 PK WND 20026/2324
94908KDBQ DBQ20080607173012806/07/08 17:30:31  5-MIN KDBQ 072330Z 22019G26KT 10SM SCT046 SCT060 28/23 A2972 1270 71 3100 210/19G26 RMK AO2 PK WND 22026/2328
94908KDBQ DBQ20080607173512806/07/08 17:35:31  5-MIN KDBQ 072335Z 22020G26KT 10SM SCT044 BKN060 28/23 A2973 1260 71 3100 220/20G26 RMK AO2 PK WND 22026/2328
94908KDBQ DBQ20080607174013506/07/08 17:40:31  5-MIN KDBQ 072340Z 22015G27KT 10SM FEW034 SCT046 BKN060 28/22 A2973 1260 69 3100 220/15G27 RMK AO2 PK WND 22027/2337
94908KDBQ DBQ20080607174513506/07/08 17:45:31  5-MIN KDBQ 072345Z 21012G27KT 10SM SCT034 BKN044 BKN060 28/23 A2973 1260 74 3000 210/12G27 RMK AO2 PK WND 22027/2337
94908KDBQ DBQ20080607175017006/07/08 17:50:31  5-MIN KDBQ 072350Z 21013KT 10SM SCT034 BKN044 BKN055 28/23 A2972 1260 74 3100 210/13 RMK AO2 PK WND 22027/2337 SLP058 60004 T02780228 10311 20244 56012
94908KDBQ DBQ20080607175512206/07/08 17:55:31  5-MIN KDBQ 072355Z AUTO 20018G22KT 10SM FEW034 SCT046 BKN055 28/23 A2971 1270 74 3100 200/18G22 RMK AO2
94908KDBQ DBQ20080607180012206/07/08 18:00:31  5-MIN KDBQ 080000Z AUTO 21017G24KT 10SM FEW034 SCT044 BKN055 28/23 A2972 1270 74 3100 210/17G24 RMK AO2
94908KDBQ DBQ20080607180512206/07/08 18:05:31  5-MIN KDBQ 080005Z AUTO 21016G24KT 10SM FEW034 SCT047 BKN055 28/23 A2972 1260 74 3100 200/16G24 RMK AO2
94908KDBQ DBQ20080607181011506/07/08 18:10:31  5-MIN KDBQ 080010Z AUTO 21019G25KT 10SM FEW034 SCT050 28/23 A2972 1260 74 3100 210/19G25 RMK AO2
94908KDBQ DBQ20080607181511506/07/08 18:15:31  5-MIN KDBQ 080015Z AUTO 21016G25KT 10SM FEW034 SCT050 28/23 A2972 1260 74 3100 210/16G25 RMK AO2
94908KDBQ DBQ20080607182011506/07/08 18:20:31  5-MIN KDBQ 080020Z AUTO 21017G22KT 10SM FEW036 SCT050 28/23 A2972 1270 74 3100 210/17G22 RMK AO2
94908KDBQ DBQ20080607182514006/07/08 18:25:31  5-MIN KDBQ 080025Z AUTO 21019G27KT 10SM FEW036 SCT043 BKN060 28/22 A2972 1260 71 3100 210/19G27 RMK AO2 PK WND 22027/0025
94908KDBQ DBQ20080607183014006/07/08 18:30:31  5-MIN KDBQ 080030Z AUTO 22020G27KT 10SM FEW040 SCT050 BKN060 28/22 A2973 1260 71 3000 220/20G27 RMK AO2 PK WND 22027/0026
94908KDBQ DBQ20080607183513306/07/08 18:35:31  5-MIN KDBQ 080035Z AUTO 21018G27KT 10SM FEW042 SCT065 28/22 A2973 1250 71 3000 210/18G27 RMK AO2 PK WND 22027/0026
94908KDBQ DBQ20080607184013406/07/08 18:40:31  5-MIN KDBQ 080040Z AUTO 22016KT 10SM FEW040 SCT048 BKN065 27/22 A2973 1250 74 3000 220/16 RMK AO2 PK WND 22027/0026
94908KDBQ DBQ20080607184513406/07/08 18:45:31  5-MIN KDBQ 080045Z AUTO 21016KT 10SM SCT040 BKN050 BKN065 27/22 A2973 1260 74 3000 210/16 RMK AO2 PK WND 22027/0026
94908KDBQ DBQ20080607185015106/07/08 18:50:31  5-MIN KDBQ 080050Z AUTO 22014KT 10SM SCT043 BKN060 BKN070 27/22 A2974 1250 74 3000 210/14 RMK AO2 PK WND 22027/0026 SLP062 T02720222
94908KDBQ DBQ20080607185511606/07/08 18:55:31  5-MIN KDBQ 080055Z AUTO 22013KT 10SM FEW043 BKN060 BKN070 27/22 A2975 1240 74 3000 220/13 RMK AO2
94908KDBQ DBQ20080607190012906/07/08 19:00:31  5-MIN KDBQ 080100Z AUTO 22014G19KT 10SM FEW043 BKN055 BKN070 27/22 A2976 1230 74 3000 220/14G19 RMK AO2 PRESRR
94908KDBQ DBQ20080607190512906/07/08 19:05:31  5-MIN KDBQ 080105Z AUTO 22013G19KT 10SM FEW043 BKN060 BKN085 27/22 A2976 1230 74 2900 220/13G19 RMK AO2 PRESRR
94908KDBQ DBQ20080607191012206/07/08 19:10:31  5-MIN KDBQ 080110Z AUTO 22013G17KT 10SM FEW041 BKN055 BKN085 27/22 A2976 1230 74 3000 220/13G17 RMK AO2
94908KDBQ DBQ20080607191512206/07/08 19:15:31  5-MIN KDBQ 080115Z AUTO 22013G19KT 10SM FEW046 BKN060 BKN075 27/22 A2976 1230 71 3000 220/13G19 RMK AO2
94908KDBQ DBQ20080607192012206/07/08 19:20:31  5-MIN KDBQ 080120Z AUTO 22017G23KT 10SM FEW042 SCT055 SCT080 27/22 A2975 1240 71 3000 210/17G23 RMK AO2
94908KDBQ DBQ20080607192511506/07/08 19:25:31  5-MIN KDBQ 080125Z AUTO 22014G23KT 10SM FEW042 SCT055 27/22 A2975 1230 71 3000 220/14G23 RMK AO2
94908KDBQ DBQ20080607193011506/07/08 19:30:31  5-MIN KDBQ 080130Z AUTO 21015G23KT 10SM FEW042 SCT055 27/22 A2975 1230 73 2900 210/15G23 RMK AO2
94908KDBQ DBQ20080607193510206/07/08 19:35:31  5-MIN KDBQ 080135Z AUTO 21014KT 10SM FEW045 27/22 A2976 1230 73 2900 210/14 RMK AO2
94908KDBQ DBQ20080607194010806/07/08 19:40:31  5-MIN KDBQ 080140Z AUTO 21012G19KT 10SM FEW050 27/22 A2976 1220 73 2900 210/12G19 RMK AO2
94908KDBQ DBQ20080607194510506/07/08 19:45:31  5-MIN KDBQ 080145Z AUTO 21012G19KT 10SM CLR 27/22 A2976 1230 73 2900 210/12G19 RMK AO2
94908KDBQ DBQ20080607195012206/07/08 19:50:31  5-MIN KDBQ 080150Z AUTO 21017G21KT 10SM CLR 27/22 A2977 1220 73 2900 210/17G21 RMK AO2 SLP072 T02670217
94908KDBQ DBQ20080607195510506/07/08 19:55:31  5-MIN KDBQ 080155Z AUTO 21013G21KT 10SM CLR 27/22 A2977 1220 73 2900 210/13G21 RMK AO2
94908KDBQ DBQ20080607200010206/07/08 20:00:31  5-MIN KDBQ 080200Z AUTO 21014KT 10SM FEW085 27/22 A2978 1210 73 2900 210/14 RMK AO2
94908KDBQ DBQ20080607200510206/07/08 20:05:31  5-MIN KDBQ 080205Z AUTO 21015KT 10SM SCT085 27/22 A2978 1210 73 2900 210/15 RMK AO2
94908KDBQ DBQ20080607201010806/07/08 20:10:31  5-MIN KDBQ 080210Z AUTO 21015G20KT 10SM BKN085 27/22 A2978 1210 73 2900 210/15G20 RMK AO2
94908KDBQ DBQ20080607201510806/07/08 20:15:31  5-MIN KDBQ 080215Z AUTO 21012G20KT 10SM BKN085 27/22 A2978 1210 73 2900 210/12G20 RMK AO2
94908KDBQ DBQ20080607202010206/07/08 20:20:31  5-MIN KDBQ 080220Z AUTO 20013KT 10SM BKN085 27/22 A2978 1210 73 2900 200/13 RMK AO2
94908KDBQ DBQ20080607202510806/07/08 20:25:31  5-MIN KDBQ 080225Z AUTO 20015G21KT 10SM OVC085 27/22 A2978 1210 73 2900 200/15G21 RMK AO2
94908KDBQ DBQ20080607203010206/07/08 20:30:31  5-MIN KDBQ 080230Z AUTO 21014KT 10SM OVC085 27/22 A2979 1200 73 2800 210/14 RMK AO2
94908KDBQ DBQ20080607203510206/07/08 20:35:31  5-MIN KDBQ 080235Z AUTO 21014KT 10SM OVC085 27/22 A2979 1200 73 2800 210/14 RMK AO2
94908KDBQ DBQ20080607204010206/07/08 20:40:31  5-MIN KDBQ 080240Z AUTO 21014KT 10SM BKN085 27/22 A2979 1200 73 2800 200/14 RMK AO2
94908KDBQ DBQ20080607204510206/07/08 20:45:31  5-MIN KDBQ 080245Z AUTO 20013KT 10SM BKN085 26/22 A2979 1200 76 2800 200/13 RMK AO2
94908KDBQ DBQ20080607205012506/07/08 20:50:31  5-MIN KDBQ 080250Z AUTO 20012KT 10SM BKN085 26/22 A2979 1200 76 2800 200/12 RMK AO2 SLP080 T02610217 56006
94908KDBQ DBQ20080607205510206/07/08 20:55:31  5-MIN KDBQ 080255Z AUTO 21012KT 10SM SCT085 26/22 A2980 1190 76 2800 200/12 RMK AO2
94908KDBQ DBQ20080607210010206/07/08 21:00:31  5-MIN KDBQ 080300Z AUTO 21012KT 10SM FEW085 26/22 A2980 1190 76 2800 210/12 RMK AO2
94908KDBQ DBQ20080607210510206/07/08 21:05:31  5-MIN KDBQ 080305Z AUTO 21012KT 10SM FEW090 26/22 A2981 1180 76 2800 210/12 RMK AO2
94908KDBQ DBQ20080607211010206/07/08 21:10:31  5-MIN KDBQ 080310Z AUTO 21011KT 10SM FEW090 26/22 A2981 1180 76 2800 210/11 RMK AO2
94908KDBQ DBQ20080607211510906/07/08 21:15:31  5-MIN KDBQ 080315Z AUTO 21010KT 10SM FEW070 SCT085 26/22 A2982 1170 76 2800 210/10 RMK AO2
94908KDBQ DBQ20080607212012106/07/08 21:20:31  5-MIN KDBQ 080320Z AUTO 21009KT 10SM SCT070 BKN085 26/22 A2982 1170 76 2800 210/09 RMK AO2 LTG DSNT NW
94908KDBQ DBQ20080607212512706/07/08 21:25:31  5-MIN KDBQ 080325Z AUTO 21009KT 10SM BKN070 BKN085 26/22 A2982 1170 76 2800 210/09 RMK AO2 LTG DSNT N AND NW
94908KDBQ DBQ20080607213012706/07/08 21:30:31  5-MIN KDBQ 080330Z AUTO 21010KT 10SM BKN070 BKN090 26/22 A2983 1170 76 2800 210/10 RMK AO2 LTG DSNT N AND NW
94908KDBQ DBQ20080607213512706/07/08 21:35:31  5-MIN KDBQ 080335Z AUTO 21010KT 10SM SCT070 BKN090 26/22 A2983 1160 79 2700 210/10 RMK AO2 LTG DSNT N AND NW
94908KDBQ DBQ20080607214012406/07/08 21:40:31  5-MIN KDBQ 080340Z AUTO 20009KT 10SM SCT070 BKN085 26/22 A2983 1160 79 2700 200/09 RMK AO2 LTG DSNT NW-NE
94908KDBQ DBQ20080607214512306/07/08 21:45:31  5-MIN KDBQ 080345Z AUTO 20007KT 10SM FEW070 SCT085 26/22 A2983 1160 79 2700 200/07 RMK AO2 LTG DSNT W-NE
94908KDBQ DBQ20080607215014706/07/08 21:50:31  5-MIN KDBQ 080350Z AUTO 21005KT 10SM FEW045 SCT065 SCT080 25/22 A2984 1150 81 2600 210/05 RMK AO2 LTG DSNT W-NE SLP097 T02500217
94908KDBQ DBQ20080607215513706/07/08 21:55:31  5-MIN KDBQ 080355Z AUTO VRB04KT 10SM FEW038 SCT045 BKN065 26/22 A2985 1140 79 2700 VRB/04 RMK AO2 LTG DSNT W-NE PRESRR
94908KDBQ DBQ20080607220012906/07/08 22:00:31  5-MIN KDBQ 080400Z AUTO 02012G16KT 10SM BKN038 BKN065 24/21 A2985 1150 78 2500 020/12G16 RMK AO2 LTG DSNT W-NE
94908KDBQ DBQ20080607220513606/07/08 22:05:31  5-MIN KDBQ 080405Z AUTO 02010G16KT 10SM FEW026 SCT035 BKN042 23/17 A2985 1150 70 2400 010/10G16 RMK AO2 LTG DSNT W-NE
94908KDBQ DBQ20080607221013606/07/08 22:10:31  5-MIN KDBQ 080410Z AUTO 35009G16KT 10SM SCT024 BKN035 OVC065 22/17 A2986 1140 70 2300 350/09G16 RMK AO2 LTG DSNT W-NE
94908KDBQ DBQ20080607221513106/07/08 22:15:31  5-MIN KDBQ 080415Z AUTO 35009KT 10SM BKN024 BKN037 OVC045 22/17 A2987 1120 70 2300 350/09 RMK AO2 LTG DSNT NW-NE
94908KDBQ DBQ20080607222013706/07/08 22:20:31  5-MIN KDBQ 080420Z AUTO 35013G18KT 10SM BKN024 OVC037 22/17 A2988 1110 75 2200 350/13G18 RMK AO2 LTG DSNT NW-NE PRESRR
94908KDBQ DBQ20080607222514006/07/08 22:25:31  5-MIN KDBQ 080425Z AUTO 33016G20KT 10SM BKN024 OVC033 22/17 A2990 1100 73 2200 330/16G20 RMK AO2 LTG DSNT N AND NW PRESRR
94908KDBQ DBQ20080607223017306/07/08 22:30:31  5-MIN KDBQ 080430Z AUTO 31017G27KT 8SM -RA SCT024 BKN033 OVC040 21/17 A2991 1090 75 2100 300/17G27 RMK AO2 PK WND 33027/0427 LTG DSNT N RAB30 PRESRR P0000
94908KDBQ DBQ20080607223516906/07/08 22:35:31  5-MIN KDBQ 080435Z AUTO 29013G27KT 3SM +RA BR FEW010 BKN024 OVC040 19/18 A2991 1080 90 1900 290/13G27 RMK AO2 PK WND 33027/0427 LTG DSNT N RAB30 P0002
94908KDBQ DBQ20080607224019106/07/08 22:40:31  5-MIN KDBQ 080440Z AUTO 28008G19KT 1 1/4SM +RA BR SCT008 BKN026 OVC040 19/18 A2990 1100 93 1800 280/08G19 RMK AO2 PK WND 33027/0427 WSHFT 0424 LTG DSNT N AND NE RAB30 P0013
94908KDBQ DBQ20080607224518406/07/08 22:45:31  5-MIN KDBQ 080445Z AUTO 30008KT 1 1/2SM RA BR SCT010 BKN029 OVC050 19/18 A2989 1110 93 1900 300/08 RMK AO2 PK WND 33027/0427 WSHFT 0424 LTG DSNT N AND NE RAB30 P0021
94908KDBQ DBQ20080607225019706/07/08 22:50:31  5-MIN KDBQ 080450Z AUTO 29006KT 4SM VCTS RA BR SCT010 BKN029 OVC065 19/18 A2988 1110 93 1900 290/06 RMK AO2 PK WND 33027/0427 WSHFT 0424 LTG DSNT N AND NE TSB47RAB30 PRESFR P0023
94908KDBQ DBQ20080607225514806/07/08 22:55:31  5-MIN KDBQ 080455Z AUTO 31003KT 7SM VCTS -RA SCT010 SCT037 OVC055 19/17 A2988 1120 90 1900 310/03 RMK AO2 LTG DSNT N AND NE P0000
94908KDBQ DBQ20080607230014806/07/08 23:00:31  5-MIN KDBQ 080500Z AUTO 26003KT 9SM VCTS -RA SCT014 BKN055 OVC075 19/17 A2989 1100 90 1900 250/03 RMK AO2 LTG DSNT N AND NE P0000
94908KDBQ DBQ20080607230514606/07/08 23:05:31  5-MIN KDBQ 080505Z AUTO 16004KT 5SM +RA BR SCT027 BKN050 OVC060 19/17 A2987 1120 90 1900 160/04 RMK AO2 LTG DSNT NE TSE02 P0002
94908KDBQ DBQ20080607231014606/07/08 23:10:31  5-MIN KDBQ 080510Z AUTO 23004KT 5SM -RA BR SCT031 BKN055 OVC090 19/17 A2988 1120 90 1900 230/04 RMK AO2 LTG DSNT NE TSE02 P0003
94908KDBQ DBQ20080607231514406/07/08 23:15:31  5-MIN KDBQ 080515Z AUTO 20003KT 10SM -RA SCT040 BKN055 OVC090 19/17 A2987 1130 90 1900 200/03 RMK AO2 LTG DSNT NE TSE02 P0003
94908KDBQ DBQ20080607232013806/07/08 23:20:31  5-MIN KDBQ 080520Z AUTO 00000KT 10SM SCT047 BKN060 18/17 A2987 1120 93 1800 000/00 RMK AO2 LTG DSNT NE TSE02RAE18 P0003
94908KDBQ DBQ20080607232514506/07/08 23:25:31  5-MIN KDBQ 080525Z AUTO 00000KT 10SM SCT045 BKN060 BKN080 18/17 A2987 1120 93 1800 000/00 RMK AO2 LTG DSNT NE TSE02RAE18 P0003
94908KDBQ DBQ20080607233014406/07/08 23:30:31  5-MIN KDBQ 080530Z AUTO 00000KT 10SM FEW043 SCT060 SCT080 19/17 A2987 1130 90 1900 000/00 RMK AO2 LTG DSNT W TSE02RAE18 P0003
94908KDBQ DBQ20080607233513706/07/08 23:35:31  5-MIN KDBQ 080535Z AUTO 18004KT 10SM FEW055 SCT080 18/18 A2987 1130 96 1800 180/04 RMK AO2 LTG DSNT W TSE02RAE18 P0003
94908KDBQ DBQ20080607234013706/07/08 23:40:31  5-MIN KDBQ 080540Z AUTO 18004KT 10SM SCT065 SCT080 18/17 A2987 1120 93 1800 170/04 RMK AO2 LTG DSNT W TSE02RAE18 P0003
94908KDBQ DBQ20080607234513706/07/08 23:45:31  5-MIN KDBQ 080545Z AUTO 16004KT 10SM BKN055 BKN075 19/18 A2987 1120 93 1900 160/04 RMK AO2 LTG DSNT W TSE02RAE18 P0003
94908KDBQ DBQ20080607235018806/07/08 23:50:31  5-MIN KDBQ 080550Z AUTO 14003KT 10SM BKN055 BKN075 19/17 A2987 1130 90 1900 140/03 RMK AO2 LTG DSNT W TSE02RAE18 SLP106 P0003 60026 T01890172 10278 20183 403110161 53025
94908KDBQ DBQ20080607235512806/07/08 23:55:31  5-MIN KDBQ 080555Z AUTO 13004KT 10SM FEW049 BKN060 BKN075 19/18 A2987 1130 93 1900 130/04 RMK AO2 LTG DSNT NW
94908KDBQ DBQ20080608000013406/08/08 00:00:38  5-MIN KDBQ 080600Z AUTO 15003KT 10SM FEW041 BKN055 OVC070 19/18 A2987 1130 93 1900 150/03 RMK AO2 LTG DSNT E AND NW
94908KDBQ DBQ20080608000513406/08/08 00:05:31  5-MIN KDBQ 080605Z AUTO 27004KT 10SM SCT039 BKN048 OVC070 19/18 A2989 1110 93 1900 270/04 RMK AO2 LTG DSNT E AND NW
94908KDBQ DBQ20080608001012606/08/08 00:10:31  5-MIN KDBQ 080610Z AUTO 27005KT 10SM BKN037 OVC050 19/18 A2989 1110 93 1900 270/05 RMK AO2 LTG DSNT N AND E
94908KDBQ DBQ20080608001514306/08/08 00:15:34  5-MIN KDBQ 080615Z AUTO 24003KT 6SM RA BR BKN037 OVC048 19/18 A2988 1110 93 1900 240/03 RMK AO2 LTG DSNT N AND E RAB14 P0000
94908KDBQ DBQ20080608002013806/08/08 00:20:31  5-MIN KDBQ 080620Z AUTO 25003KT 3SM -RA BR BKN037 OVC048 19/18 A2988 1120 93 1900 250/03 RMK AO2 LTG DSNT N RAB14 P0004
94908KDBQ DBQ20080608002512006/08/08 00:25:31  5-MIN KDBQ 080625Z AUTO 20003KT 4SM -RA BR OVC037 19/18 A2987 1120 90 1900 190/03 RMK AO2 RAB14 P0004
94908KDBQ DBQ20080608003012506/08/08 00:30:31  5-MIN KDBQ 080630Z AUTO 16006KT 10SM -RA OVC037 19/18 A2986 1130 90 2000 160/06 RMK AO2 RAB14 PRESFR P0004
94908KDBQ DBQ20080608003511706/08/08 00:35:31  5-MIN KDBQ 080635Z AUTO 15007KT 10SM OVC037 19/18 A2986 1130 93 1900 150/07 RMK AO2 RAB14E33 P0004
94908KDBQ DBQ20080608004013106/08/08 00:40:31  5-MIN KDBQ 080640Z AUTO 15007KT 10SM BKN035 OVC045 19/18 A2985 1150 93 1900 150/07 RMK AO2 RAB14E33 PRESFR P0004
94908KDBQ DBQ20080608004513106/08/08 00:45:31  5-MIN KDBQ 080645Z AUTO 15007KT 10SM BKN039 OVC047 19/17 A2984 1150 87 2000 150/07 RMK AO2 RAB14E33 PRESFR P0004
94908KDBQ DBQ20080608005014106/08/08 00:50:31  5-MIN KDBQ 080650Z AUTO 15007KT 10SM BKN039 OVC047 19/18 A2984 1150 90 2000 140/07 RMK AO2 RAB14E33 SLP096 P0004 T01940178
94908KDBQ DBQ20080608005510906/08/08 00:55:31  5-MIN KDBQ 080655Z AUTO 14007KT 10SM BKN039 OVC047 19/18 A2983 1160 90 2000 140/07 RMK AO2
94908KDBQ DBQ20080608010010906/08/08 01:00:31  5-MIN KDBQ 080700Z AUTO 14007KT 10SM BKN039 OVC047 19/18 A2983 1160 90 2000 140/07 RMK AO2
94908KDBQ DBQ20080608010510906/08/08 01:05:31  5-MIN KDBQ 080705Z AUTO 14006KT 10SM BKN041 OVC050 19/18 A2982 1170 90 2000 140/06 RMK AO2
94908KDBQ DBQ20080608011010906/08/08 01:10:31  5-MIN KDBQ 080710Z AUTO 14009KT 10SM BKN043 OVC050 19/18 A2982 1170 90 2000 140/09 RMK AO2
94908KDBQ DBQ20080608011510906/08/08 01:15:31  5-MIN KDBQ 080715Z AUTO 15008KT 10SM BKN045 OVC055 19/18 A2982 1170 93 1900 150/08 RMK AO2
94908KDBQ DBQ20080608012011606/08/08 01:20:31  5-MIN KDBQ 080720Z AUTO 15006KT 10SM SCT041 BKN049 OVC060 19/18 A2982 1170 90 2000 150/06 RMK AO2
94908KDBQ DBQ20080608012511606/08/08 01:25:31  5-MIN KDBQ 080725Z AUTO 14009KT 10SM FEW041 BKN049 OVC060 19/18 A2982 1170 90 2000 140/09 RMK AO2
94908KDBQ DBQ20080608013010906/08/08 01:30:31  5-MIN KDBQ 080730Z AUTO 14008KT 10SM FEW043 OVC049 19/18 A2982 1180 90 2000 140/08 RMK AO2
94908KDBQ DBQ20080608013510906/08/08 01:35:31  5-MIN KDBQ 080735Z AUTO 13006KT 10SM BKN049 OVC055 19/18 A2981 1180 90 2000 130/06 RMK AO2
94908KDBQ DBQ20080608014010906/08/08 01:40:31  5-MIN KDBQ 080740Z AUTO 14006KT 10SM SCT043 OVC050 19/18 A2981 1180 90 2000 140/06 RMK AO2
94908KDBQ DBQ20080608014510906/08/08 01:45:31  5-MIN KDBQ 080745Z AUTO 14007KT 10SM BKN041 OVC050 19/18 A2981 1180 90 2000 140/07 RMK AO2
94908KDBQ DBQ20080608015012606/08/08 01:50:31  5-MIN KDBQ 080750Z AUTO 13008KT 10SM BKN039 OVC050 19/18 A2980 1190 90 2000 130/08 RMK AO2 SLP083 T01940178
94908KDBQ DBQ20080608015510906/08/08 01:55:31  5-MIN KDBQ 080755Z AUTO 14006KT 10SM BKN039 OVC048 19/18 A2980 1190 90 2000 140/06 RMK AO2
94908KDBQ DBQ20080608020010206/08/08 02:00:31  5-MIN KDBQ 080800Z AUTO 14007KT 10SM OVC039 19/18 A2980 1190 90 2000 130/07 RMK AO2
94908KDBQ DBQ20080608020510206/08/08 02:05:31  5-MIN KDBQ 080805Z AUTO 14008KT 10SM OVC039 19/18 A2980 1190 90 2000 140/08 RMK AO2
94908KDBQ DBQ20080608021010206/08/08 02:10:31  5-MIN KDBQ 080810Z AUTO 13007KT 10SM OVC037 19/18 A2980 1190 90 2000 130/07 RMK AO2
94908KDBQ DBQ20080608021510206/08/08 02:15:31  5-MIN KDBQ 080815Z AUTO 13007KT 10SM OVC037 19/18 A2979 1200 90 2000 130/07 RMK AO2
94908KDBQ DBQ20080608022010206/08/08 02:20:31  5-MIN KDBQ 080820Z AUTO 14007KT 10SM OVC035 19/18 A2979 1200 90 2000 130/07 RMK AO2
94908KDBQ DBQ20080608022510206/08/08 02:25:31  5-MIN KDBQ 080825Z AUTO 14007KT 10SM OVC035 19/18 A2979 1200 90 2000 140/07 RMK AO2
94908KDBQ DBQ20080608023010206/08/08 02:30:31  5-MIN KDBQ 080830Z AUTO 13007KT 10SM OVC037 19/18 A2979 1200 90 2000 130/07 RMK AO2
94908KDBQ DBQ20080608023510206/08/08 02:35:31  5-MIN KDBQ 080835Z AUTO 13007KT 10SM OVC037 19/18 A2980 1190 90 2000 130/07 RMK AO2
94908KDBQ DBQ20080608024010206/08/08 02:40:31  5-MIN KDBQ 080840Z AUTO 13009KT 10SM OVC037 19/18 A2980 1190 90 2000 130/09 RMK AO2
94908KDBQ DBQ20080608024510206/08/08 02:45:31  5-MIN KDBQ 080845Z AUTO 14008KT 10SM OVC037 19/18 A2980 1190 90 2000 130/08 RMK AO2
94908KDBQ DBQ20080608025013106/08/08 02:50:31  5-MIN KDBQ 080850Z AUTO 13010KT 10SM OVC037 19/18 A2979 1200 90 2000 130/10 RMK AO2 SLP081 60004 T01940178 50025
94908KDBQ DBQ20080608025510206/08/08 02:55:31  5-MIN KDBQ 080855Z AUTO 14009KT 10SM OVC037 19/18 A2979 1200 90 2000 140/09 RMK AO2
94908KDBQ DBQ20080608030010206/08/08 03:00:31  5-MIN KDBQ 080900Z AUTO 14009KT 10SM OVC037 19/18 A2980 1190 90 2000 140/09 RMK AO2
94908KDBQ DBQ20080608030510206/08/08 03:05:31  5-MIN KDBQ 080905Z AUTO 14009KT 10SM OVC037 19/18 A2979 1200 90 2000 140/09 RMK AO2
94908KDBQ DBQ20080608031010206/08/08 03:10:31  5-MIN KDBQ 080910Z AUTO 13010KT 10SM OVC039 19/18 A2980 1190 90 2000 130/10 RMK AO2
94908KDBQ DBQ20080608031510806/08/08 03:15:31  5-MIN KDBQ 080915Z AUTO 13011G16KT 10SM OVC037 19/18 A2979 1200 90 2000 130/11G16 RMK AO2
94908KDBQ DBQ20080608032010206/08/08 03:20:31  5-MIN KDBQ 080920Z AUTO 13011KT 10SM OVC037 19/18 A2979 1200 90 2000 130/11 RMK AO2
94908KDBQ DBQ20080608032511606/08/08 03:25:31  5-MIN KDBQ 080925Z AUTO 13011KT 10SM BKN039 BKN050 OVC060 20/18 A2979 1200 87 2100 130/11 RMK AO2
94908KDBQ DBQ20080608033011606/08/08 03:30:31  5-MIN KDBQ 080930Z AUTO 13010KT 10SM BKN039 BKN050 OVC060 20/18 A2979 1200 87 2100 130/10 RMK AO2
94908KDBQ DBQ20080608033510906/08/08 03:35:31  5-MIN KDBQ 080935Z AUTO 13012KT 10SM BKN039 OVC055 19/18 A2979 1200 90 2000 130/12 RMK AO2
94908KDBQ DBQ20080608034010906/08/08 03:40:31  5-MIN KDBQ 080940Z AUTO 13012KT 10SM BKN039 OVC095 19/18 A2979 1200 90 2000 130/12 RMK AO2
94908KDBQ DBQ20080608034510906/08/08 03:45:31  5-MIN KDBQ 080945Z AUTO 13014KT 10SM BKN039 OVC095 19/18 A2978 1210 90 2000 130/14 RMK AO2
94908KDBQ DBQ20080608035012606/08/08 03:50:31  5-MIN KDBQ 080950Z AUTO 13012KT 10SM BKN037 OVC095 20/18 A2979 1200 87 2100 130/12 RMK AO2 SLP080 T02000178
94908KDBQ DBQ20080608035511506/08/08 03:55:31  5-MIN KDBQ 080955Z AUTO 14010G18KT 10SM BKN037 OVC095 19/18 A2979 1200 90 2000 140/10G18 RMK AO2
94908KDBQ DBQ20080608040011606/08/08 04:00:31  5-MIN KDBQ 081000Z AUTO 14011KT 10SM BKN035 BKN043 OVC090 20/18 A2979 1200 87 2100 140/11 RMK AO2
94908KDBQ DBQ20080608040511606/08/08 04:05:31  5-MIN KDBQ 081005Z AUTO 14009KT 10SM FEW027 BKN037 OVC090 20/18 A2980 1190 90 2100 140/09 RMK AO2
94908KDBQ DBQ20080608041011606/08/08 04:10:31  5-MIN KDBQ 081010Z AUTO 15011KT 10SM FEW027 BKN037 OVC048 20/18 A2979 1200 90 2100 140/11 RMK AO2
94908KDBQ DBQ20080608041511606/08/08 04:15:31  5-MIN KDBQ 081015Z AUTO 15010KT 10SM SCT031 BKN039 OVC055 20/18 A2980 1190 90 2100 150/10 RMK AO2
94908KDBQ DBQ20080608042011606/08/08 04:20:31  5-MIN KDBQ 081020Z AUTO 14010KT 10SM BKN031 BKN039 OVC060 20/18 A2979 1200 90 2100 140/10 RMK AO2
94908KDBQ DBQ20080608042511606/08/08 04:25:31  5-MIN KDBQ 081025Z AUTO 15012KT 10SM BKN030 BKN039 OVC060 21/19 A2980 1190 90 2200 150/12 RMK AO2
94908KDBQ DBQ20080608043010906/08/08 04:30:31  5-MIN KDBQ 081030Z AUTO 15009KT 10SM BKN030 OVC039 21/19 A2980 1190 90 2200 150/09 RMK AO2
94908KDBQ DBQ20080608043511606/08/08 04:35:31  5-MIN KDBQ 081035Z AUTO 15011KT 10SM BKN030 BKN040 BKN055 21/19 A2980 1190 90 2200 150/11 RMK AO2
94908KDBQ DBQ20080608044011606/08/08 04:40:31  5-MIN KDBQ 081040Z AUTO 15011KT 10SM BKN030 BKN075 BKN095 21/19 A2980 1190 90 2200 150/11 RMK AO2
94908KDBQ DBQ20080608044511106/08/08 04:45:31  5-MIN KDBQ 081045Z 15011KT 10SM SCT030 BKN075 BKN095 21/19 A2979 1200 90 2200 140/11 RMK AO2
94908KDBQ DBQ20080608045012106/08/08 04:50:31  5-MIN KDBQ 081050Z 15010KT 10SM SCT030 BKN095 21/19 A2979 1200 93 2200 150/10 RMK AO2 SLP081 T02060194
94908KDBQ DBQ20080608045511106/08/08 04:55:31  5-MIN KDBQ 081055Z 15012KT 10SM FEW030 SCT060 BKN095 21/19 A2979 1200 93 2200 150/12 RMK AO2
94908KDBQ DBQ20080608050010406/08/08 05:00:31  5-MIN KDBQ 081100Z 14013KT 10SM FEW030 BKN100 21/19 A2978 1210 93 2200 140/13 RMK AO2
94908KDBQ DBQ20080608050510406/08/08 05:05:31  5-MIN KDBQ 081105Z 14011KT 10SM FEW075 SCT100 21/19 A2977 1210 93 2200 140/11 RMK AO2
94908KDBQ DBQ20080608051009706/08/08 05:10:31  5-MIN KDBQ 081110Z 14012KT 10SM FEW100 21/19 A2978 1210 93 2200 140/12 RMK AO2
94908KDBQ DBQ20080608051510306/08/08 05:15:31  5-MIN KDBQ 081115Z 14013G19KT 10SM FEW060 21/19 A2977 1210 90 2200 140/13G19 RMK AO2
94908KDBQ DBQ20080608052009706/08/08 05:20:31  5-MIN KDBQ 081120Z 15012KT 10SM FEW060 21/19 A2977 1210 90 2200 140/12 RMK AO2
94908KDBQ DBQ20080608052509706/08/08 05:25:31  5-MIN KDBQ 081125Z 15014KT 10SM FEW060 21/19 A2978 1210 90 2200 150/14 RMK AO2
94908KDBQ DBQ20080608053009706/08/08 05:30:31  5-MIN KDBQ 081130Z 15012KT 10SM FEW065 21/19 A2977 1220 90 2200 150/12 RMK AO2
94908KDBQ DBQ20080608053510406/08/08 05:35:31  5-MIN KDBQ 081135Z 16012KT 10SM FEW065 SCT110 21/19 A2976 1220 90 2300 160/12 RMK AO2
94908KDBQ DBQ20080608054010406/08/08 05:40:31  5-MIN KDBQ 081140Z 15012KT 10SM FEW060 SCT100 21/19 A2976 1220 90 2300 150/12 RMK AO2
94908KDBQ DBQ20080608054509706/08/08 05:45:31  5-MIN KDBQ 081145Z 16011KT 10SM FEW060 21/20 A2976 1230 93 2300 150/11 RMK AO2
94908KDBQ DBQ20080608055014406/08/08 05:50:31  5-MIN KDBQ 081150Z 16011KT 10SM FEW065 21/20 A2976 1230 93 2300 160/11 RMK AO2 SLP069 60004 70034 T02110200 10211 20189 56026
94908KDBQ DBQ20080608055509706/08/08 05:55:31  5-MIN KDBQ 081155Z 16012KT 10SM FEW065 21/20 A2976 1230 93 2300 160/12 RMK AO2
94908KDBQ DBQ20080608060011506/08/08 06:00:31  5-MIN KDBQ 081200Z 16012KT 10SM FEW070 21/20 A2975 1230 93 2300 160/12 RMK AO2 LTG DSNT W AND NW
94908KDBQ DBQ20080608060511506/08/08 06:05:31  5-MIN KDBQ 081205Z 15012KT 10SM FEW070 21/20 A2975 1240 93 2300 150/12 RMK AO2 LTG DSNT W AND NW
94908KDBQ DBQ20080608061009406/08/08 06:10:31  5-MIN KDBQ 081210Z 16013KT 10SM CLR 22/20 A2975 1240 90 2300 160/13 RMK AO2
94908KDBQ DBQ20080608061511206/08/08 06:15:31  5-MIN KDBQ 081215Z 16011KT 10SM CLR 22/20 A2974 1240 90 2300 160/11 RMK AO2 LTG DSNT W AND NW
94908KDBQ DBQ20080608062011206/08/08 06:20:31  5-MIN KDBQ 081220Z 16012KT 10SM CLR 22/20 A2974 1250 90 2400 160/12 RMK AO2 LTG DSNT W AND NW
94908KDBQ DBQ20080608062511506/08/08 06:25:31  5-MIN KDBQ 081225Z 15013KT 10SM FEW027 22/20 A2973 1250 90 2400 150/13 RMK AO2 LTG DSNT W AND NW
94908KDBQ DBQ20080608063011606/08/08 06:30:31  5-MIN KDBQ 081230Z 16012KT 10SM FEW029 22/20 A2972 1260 90 2400 160/12 RMK AO2 LTG DSNT NW PRESFR
94908KDBQ DBQ20080608063510806/08/08 06:35:31  5-MIN KDBQ 081235Z 15013KT 9SM FEW029 22/20 A2972 1260 90 2400 150/13 RMK AO2 LTG DSNT NW
94908KDBQ DBQ20080608064013006/08/08 06:40:31  5-MIN KDBQ 081240Z 16010KT 9SM -RA SCT027 22/20 A2972 1260 90 2400 160/10 RMK AO2 LTG DSNT N AND NW RAB38 P0000
94908KDBQ DBQ20080608064511906/08/08 06:45:31  5-MIN KDBQ 081245Z 16012KT 9SM -RA SCT027 SCT095 22/21 A2972 1270 93 2400 160/12 RMK AO2 RAB38 P0000
94908KDBQ DBQ20080608065014906/08/08 06:50:31  5-MIN KDBQ 081250Z 17013G19KT 10SM SCT027 SCT055 BKN090 22/21 A2972 1270 93 2400 170/13G19 RMK AO2 RAB38E50 SLP055 P0000 T02170206
94908KDBQ DBQ20080608065511706/08/08 06:55:31  5-MIN KDBQ 081255Z 17014G20KT 10SM SCT029 BKN050 BKN090 22/21 A2972 1270 90 2400 170/14G20 RMK AO2
94908KDBQ DBQ20080608070011606/08/08 07:00:31  5-MIN KDBQ 081300Z 18012G20KT 9SM BKN029 BKN050 BKN090 22/21 A2972 1260 90 2400 170/12G20 RMK AO2
94908KDBQ DBQ20080608070511006/08/08 07:05:31  5-MIN KDBQ 081305Z 18013KT 9SM BKN027 BKN050 OVC090 22/21 A2973 1260 90 2400 180/13 RMK AO2
94908KDBQ DBQ20080608071011006/08/08 07:10:31  5-MIN KDBQ 081310Z 18012KT 9SM SCT024 BKN030 OVC090 22/21 A2973 1260 90 2400 170/12 RMK AO2
94908KDBQ DBQ20080608071511006/08/08 07:15:31  5-MIN KDBQ 081315Z 19012KT 9SM FEW021 BKN027 OVC050 22/21 A2973 1250 90 2400 190/12 RMK AO2
94908KDBQ DBQ20080608072019006/08/08 07:20:31  5-MIN KDBQ 081320Z 20019G32KT 2 1/2SM TSRA BR FEW006 BKN025 OVC030 22/21 A2973 1260 93 2400 200/19G32 RMK AO2 PK WND 21032/1320 TSB17RAB17 FQT LTG OHD TS OHD MOVG NE P0005
94908KDBQ DBQ20080608072519006/08/08 07:25:31  5-MIN KDBQ 081325Z 22021G35KT 1 1/2SM TSRA BR SCT008 BKN024 OVC029 22/22 A2973 1250 97 2400 210/21G35 RMK AO2 PK WND 21035/1322 TSB17RAB17 FQT LTG OHD TS OHD MOVG NE P0018
94908KDBQ DBQ20080608073019606/08/08 07:30:31  5-MIN KDBQ 081330Z 22017G35KT 2SM TSRA BR FEW010 BKN021 OVC026 22/21 A2975 1240 97 2300 220/17G35 RMK AO2 PK WND 21035/1322 TSB17RAB17 PRESRR OCNL LTGCC OHD TS OHD MOVG NE P0023
94908KDBQ DBQ20080608073518806/08/08 07:35:31  5-MIN KDBQ 081335Z 22013G22KT 3SM TSRA BR FEW008 SCT018 OVC024 22/21 A2975 1230 97 2300 220/13G22 RMK AO2 PK WND 21035/1322 TSB17RAB17 FQT LTGCC OHD TS OHD MOVG NE P0025
94908KDBQ DBQ20080608074020706/08/08 07:40:31  5-MIN KDBQ 081340Z 23017G25KT 2 1/2SM TSRA BR FEW006 BKN018 OVC024 22/21 A2976 1230 97 2300 230/17G25 RMK AO2 PK WND 21035/1322 VIS 2V4 TSB17RAB17 PRESRR FQT LTGCC OHD TS OHD MOVG NE P0028
94908KDBQ DBQ20080608074519206/08/08 07:45:31  5-MIN KDBQ 081345Z 25010G25KT 1 3/4SM TSRA BR SCT006 BKN016 OVC026 22/21 A2976 1230 97 2300 240/10G25 RMK AO2 PK WND 21035/1322 TSB17RAB17 FQT LTGCC OHD TS OHD MOVG NE P0034
94908KDBQ DBQ20080608075020906/08/08 07:50:31  5-MIN KDBQ 081350Z 25010G20KT 1 1/4SM TSRA BR SCT006 BKN014 OVC026 22/21 A2976 1230 97 2300 250/10G20 RMK AO2 PK WND 21035/1322 TSB17RAB17 SLP068 FQT LTGCC OHD TS OHD MOVG NE P0048 T02170211
94908KDBQ DBQ20080608075513006/08/08 07:55:31  5-MIN KDBQ 081355Z 28013G20KT 1SM TSRA BR SCT006 OVC014 21/21 A2978 1210 97 2200 280/13G20 RMK AO2 PRESRR P0010
94908KDBQ DBQ20080608080015106/08/08 08:00:31  5-MIN KDBQ 081400Z 33019G26KT 3/4SM TSRA BR BKN008 OVC014 20/20 A2980 1190 100 2100 330/19G26 RMK AO2 PK WND 33026/1359 PRESRR P0023
94908KDBQ DBQ20080608080515006/08/08 08:05:31  5-MIN KDBQ 081405Z 34016G27KT 3/4SM TSRA BR BKN006 BKN009 OVC014 18/18 A2979 1190 96 1900 340/16G27 RMK AO2 PK WND 35027/1402 P0048
94908KDBQ DBQ20080608081018306/08/08 08:10:31  5-MIN KDBQ 081410Z 35019G29KT 3/4SM TSRA BR BKN006 OVC009 18/18 A2979 1200 100 1800 350/19G29 RMK AO2 PK WND 36029/1408 WSHFT 1352 FQT LTGCC OHD TS OHD MOV NE P0075
94908KDBQ DBQ20080608081518206/08/08 08:15:31  5-MIN KDBQ 081415Z 35021G32KT 3/4SM TSRA BR BKN006 OVC009 18/17 A2982 1170 96 1800 350/21G32 RMK AO2 PK WND 35032/1413 WSHFT 1352 FQT LTGCC OHD TS OHD MOV NE P0100
94908KDBQ DBQ20080608082018106/08/08 08:20:31  5-MIN KDBQ 081420Z 36019G32KT 1SM TSRA BR BKN006 OVC009 18/18 A2981 1180 100 1800 360/19G32 RMK AO2 PK WND 35032/1413 WSHFT 1352 FQT LTGCC OHD TS OHD MOV NE P0114
94908KDBQ DBQ20080608082518806/08/08 08:25:31  5-MIN KDBQ 081425Z 01021G28KT 2SM TSRA BR BKN006 OVC013 18/17 A2982 1170 96 1800 010/21G28 RMK AO2 PK WND 35032/1413 WSHFT 1352 VIS 1V3 FQT LTGCC OHD TS OHD MOV NE P0120
94908KDBQ DBQ20080608083018006/08/08 08:30:31  5-MIN KDBQ 081430Z 02015G28KT 3SM TSRA BR SCT006 OVC009 18/17 A2982 1170 96 1800 020/15G28 RMK AO2 PK WND 35032/1413 WSHFT 1352 OCNL LTGCC NE TS OHD MOV NE P0122
94908KDBQ DBQ20080608083517706/08/08 08:35:31  5-MIN KDBQ 081435Z 35020G27KT 7SM TSRA BKN009 OVC013 18/18 A2987 1120 100 1700 350/20G27 RMK AO2 PK WND 35032/1413 WSHFT 1352 OCNL LTGCC NE TS NE MOV NE P0122
94908KDBQ DBQ20080608084018006/08/08 08:40:31  5-MIN KDBQ 081440Z 35016G26KT 4SM TSRA BR BKN009 OVC013 18/18 A2988 1120 100 1700 350/16G26 RMK AO2 PK WND 35032/1413 WSHFT 1352 OCNL LTGCC NE TS NE MOV NE P0124
94908KDBQ DBQ20080608084518406/08/08 08:45:31  5-MIN KDBQ 081445Z 35017G26KT 1 1/4SM TSRA BR BKN009 OVC038 18/18 A2988 1120 100 1700 350/17G26 RMK AO2 PK WND 35032/1413 WSHFT 1352 OCNL LTGCC NE TS NE MOV NE P0135
94908KDBQ DBQ20080608085019106/08/08 08:50:31  5-MIN KDBQ 081450Z 36016G26KT 1 1/4SM TSRA BR SCT009 BKN017 OVC050 18/18 A2987 1130 100 1800 360/16G26 RMK AO2 PK WND 35032/1413 WSHFT 1352 OCNL LTGCC NE TS NE MOV NE P0138
94908KDBQ DBQ20080608085512406/08/08 08:55:31  5-MIN KDBQ 081455Z 01016G25KT 4SM TSRA BR SCT009 OVC023 18/18 A2985 1140 100 1800 010/16G25 RMK AO2 P0001
94908KDBQ DBQ20080608090013806/08/08 09:00:31  5-MIN KDBQ 081500Z 04018G22KT 5SM -RA BR FEW009 OVC023 18/18 A2981 1180 100 1800 040/18G22 RMK AO2 TSE1456 PRESFR P0002
94908KDBQ DBQ20080608090512706/08/08 09:05:31  5-MIN KDBQ 081505Z 03014G22KT 8SM -RA FEW009 BKN029 18/18 A2984 1160 96 1900 030/14G22 RMK AO2 TSE1456 P0002
94908KDBQ DBQ20080608091012806/08/08 09:10:31  5-MIN KDBQ 081510Z 03015G21KT 10SM -RA FEW009 BKN040 18/18 A2983 1160 96 1900 030/15G21 RMK AO2 TSE1456 P0002
94908KDBQ DBQ20080608091512806/08/08 09:15:31  5-MIN KDBQ 081515Z 03014G25KT 10SM -RA FEW011 BKN045 18/18 A2983 1160 96 1900 030/14G25 RMK AO2 TSE1456 P0002
94908KDBQ DBQ20080608092012906/08/08 09:20:31  5-MIN KDBQ 081520Z 02013G25KT 10SM FEW011 BKN049 18/18 A2984 1160 96 1900 020/13G25 RMK AO2 TSE1456RAE19 P0002
94908KDBQ DBQ20080608092513606/08/08 09:25:31  5-MIN KDBQ 081525Z 02014G21KT 10SM FEW011 BKN060 BKN070 18/18 A2984 1150 96 1800 020/14G21 RMK AO2 TSE1456RAE19 P0002
94908KDBQ DBQ20080608093012806/08/08 09:30:31  5-MIN KDBQ 081530Z 03014G21KT 10SM -RA FEW011 BKN060 18/18 A2985 1140 96 1800 030/14G21 RMK AO2 TSE1456 P0002
94908KDBQ DBQ20080608093512706/08/08 09:35:31  5-MIN KDBQ 081535Z 03012KT 9SM RA FEW011 BKN047 BKN065 18/18 A2985 1150 96 1800 030/12 RMK AO2 TSE1456 P0002
94908KDBQ DBQ20080608094012806/08/08 09:40:31  5-MIN KDBQ 081540Z 02013KT 7SM -RA FEW011 BKN039 BKN055 18/18 A2984 1150 96 1800 020/13 RMK AO2 TSE1456 P0003
94908KDBQ DBQ20080608094512806/08/08 09:45:31  5-MIN KDBQ 081545Z 03013KT 7SM -RA BKN032 BKN070 BKN110 18/18 A2983 1160 96 1900 030/13 RMK AO2 TSE1456 P0004
94908KDBQ DBQ20080608095015106/08/08 09:50:31  5-MIN KDBQ 081550Z 03011G18KT 9SM -RA SCT031 BKN070 BKN110 18/18 A2984 1150 96 1800 030/11G18 RMK AO2 TSE1456 SLP100 P0004 T01830178
94908KDBQ DBQ20080608095512006/08/08 09:55:31  5-MIN KDBQ 081555Z 04007G17KT 10SM -RA SCT035 BKN100 18/18 A2985 1150 96 1800 040/07G17 RMK AO2 P0000
94908KDBQ DBQ20080608100011406/08/08 10:00:31  5-MIN KDBQ 081600Z 06009KT 9SM -RA BKN035 BKN100 18/18 A2984 1150 100 1900 050/09 RMK AO2 P0001
94908KDBQ DBQ20080608100512106/08/08 10:05:31  5-MIN KDBQ 081605Z 08014G19KT 5SM RA BR BKN029 BKN110 18/18 A2981 1180 96 1900 080/14G19 RMK AO2 P0001
94908KDBQ DBQ20080608101012206/08/08 10:10:31  5-MIN KDBQ 081610Z 07012G20KT 6SM -RA BR BKN029 BKN110 18/18 A2981 1180 96 1900 070/12G20 RMK AO2 P0003
94908KDBQ DBQ20080608101512106/08/08 10:15:31  5-MIN KDBQ 081615Z 04011G20KT 10SM -RA BKN029 BKN110 18/18 A2980 1190 100 1900 040/11G20 RMK AO2 P0003
94908KDBQ DBQ20080608102011606/08/08 10:20:31  5-MIN KDBQ 081620Z 04010KT 10SM BKN029 BKN110 19/18 A2981 1180 97 1900 040/10 RMK AO2 RAE17 P0003
94908KDBQ DBQ20080608102511606/08/08 10:25:31  5-MIN KDBQ 081625Z 06009KT 10SM FEW029 BKN110 19/18 A2981 1190 97 2000 060/09 RMK AO2 RAE17 P0003
94908KDBQ DBQ20080608103011606/08/08 10:30:31  5-MIN KDBQ 081630Z 07013KT 10SM FEW048 SCT110 19/18 A2980 1190 97 2000 070/13 RMK AO2 RAE17 P0003
94908KDBQ DBQ20080608103510906/08/08 10:35:31  5-MIN KDBQ 081635Z 08014KT 10SM SCT110 19/18 A2979 1200 97 2000 070/14 RMK AO2 RAE17 P0003
94908KDBQ DBQ20080608104011506/08/08 10:40:31  5-MIN KDBQ 081640Z 08011G18KT 10SM FEW110 19/18 A2979 1200 97 2000 070/11G18 RMK AO2 RAE17 P0003
94908KDBQ DBQ20080608104511506/08/08 10:45:31  5-MIN KDBQ 081645Z 08012G18KT 10SM FEW110 19/18 A2978 1200 93 2000 080/12G18 RMK AO2 RAE17 P0003
94908KDBQ DBQ20080608105012606/08/08 10:50:31  5-MIN KDBQ 081650Z 08014KT 10SM FEW110 19/18 A2978 1210 93 2000 080/14 RMK AO2 RAE17 SLP080 P0003 T01940183
94908KDBQ DBQ20080608105509706/08/08 10:55:31  5-MIN KDBQ 081655Z 09010KT 10SM FEW110 19/18 A2979 1200 93 2000 080/10 RMK AO2
94908KDBQ DBQ20080608110009706/08/08 11:00:31  5-MIN KDBQ 081700Z 08011KT 10SM FEW110 19/18 A2979 1200 93 2000 080/11 RMK AO2
94908KDBQ DBQ20080608110509706/08/08 11:05:31  5-MIN KDBQ 081705Z 08009KT 10SM FEW110 19/18 A2979 1200 93 2000 070/09 RMK AO2
94908KDBQ DBQ20080608111009706/08/08 11:10:31  5-MIN KDBQ 081710Z 09009KT 10SM FEW065 19/18 A2978 1210 93 2000 080/09 RMK AO2
94908KDBQ DBQ20080608111512006/08/08 11:15:31  5-MIN KDBQ 081715Z 10008KT 10SM -RA SCT032 SCT110 19/18 A2978 1200 93 2000 090/08 RMK AO2 RAB15 P0000
94908KDBQ DBQ20080608112012006/08/08 11:20:31  5-MIN KDBQ 081720Z 10013KT 10SM -RA SCT039 19/18 A2975 1240 93 2100 100/13 RMK AO2 RAB15 PRESFR P0000
94908KDBQ DBQ20080608112511306/08/08 11:25:31  5-MIN KDBQ 081725Z 11014KT 10SM -RA FEW046 19/18 A2975 1240 93 2100 110/14 RMK AO2 RAB15 P0000
94908KDBQ DBQ20080608113011206/08/08 11:30:31  5-MIN KDBQ 081730Z 12011KT 10SM FEW036 19/18 A2975 1230 93 2100 110/11 RMK AO2 RAB15E26 P0000
94908KDBQ DBQ20080608113511206/08/08 11:35:31  5-MIN KDBQ 081735Z 11013KT 10SM FEW036 19/18 A2975 1240 93 2100 110/13 RMK AO2 RAB15E26 P0000
94908KDBQ DBQ20080608114011806/08/08 11:40:31  5-MIN KDBQ 081740Z 13015G19KT 10SM FEW065 19/18 A2976 1220 93 2100 130/15G19 RMK AO2 RAB15E26 P0000
94908KDBQ DBQ20080608114512506/08/08 11:45:31  5-MIN KDBQ 081745Z 14012G19KT 10SM FEW110 19/19 A2977 1220 97 2100 140/12G19 RMK AO2 RAB15E26 PRESRR P0000
94908KDBQ DBQ20080608115016606/08/08 11:50:31  5-MIN KDBQ 081750Z 15015G19KT 10SM FEW120 20/19 A2978 1210 93 2100 150/15G19 RMK AO2 RAB15E26 PRESRR SLP079 P0000 60206 T02000189 10222 20178 53034
94908KDBQ DBQ20080608115510306/08/08 11:55:31  5-MIN KDBQ 081755Z 16016G21KT 10SM SCT110 20/19 A2978 1210 97 2100 160/16G21 RMK AO2
94908KDBQ DBQ20080608120010306/08/08 12:00:31  5-MIN KDBQ 081800Z 16014G21KT 10SM SCT110 20/19 A2978 1210 97 2100 150/14G21 RMK AO2
94908KDBQ DBQ20080608120509706/08/08 12:05:31  5-MIN KDBQ 081805Z 15011KT 10SM BKN110 21/19 A2977 1210 93 2200 150/11 RMK AO2
94908KDBQ DBQ20080608121009706/08/08 12:10:31  5-MIN KDBQ 081810Z 15013KT 10SM SCT110 21/19 A2978 1210 93 2200 150/13 RMK AO2
94908KDBQ DBQ20080608121509706/08/08 12:15:31  5-MIN KDBQ 081815Z 17010KT 10SM SCT110 21/20 A2979 1200 93 2200 160/10 RMK AO2
94908KDBQ DBQ20080608122009706/08/08 12:20:31  5-MIN KDBQ 081820Z 16007KT 10SM SCT110 21/19 A2979 1200 87 2200 150/07 RMK AO2
94908KDBQ DBQ20080608122509706/08/08 12:25:31  5-MIN KDBQ 081825Z 16007KT 10SM SCT100 22/19 A2979 1200 84 2300 160/07 RMK AO2
94908KDBQ DBQ20080608123010406/08/08 12:30:31  5-MIN KDBQ 081830Z 16009KT 10SM FEW048 BKN100 22/18 A2980 1190 81 2300 160/09 RMK AO2
94908KDBQ DBQ20080608123510406/08/08 12:35:31  5-MIN KDBQ 081835Z 17009KT 10SM SCT048 BKN100 22/19 A2979 1200 84 2300 170/09 RMK AO2
94908KDBQ DBQ20080608124011006/08/08 12:40:31  5-MIN KDBQ 081840Z 17010G15KT 10SM BKN046 BKN100 21/19 A2979 1200 87 2200 170/10G15 RMK AO2
94908KDBQ DBQ20080608124510406/08/08 12:45:31  5-MIN KDBQ 081845Z 16008KT 10SM BKN046 BKN095 21/18 A2978 1210 84 2200 160/08 RMK AO2
94908KDBQ DBQ20080608125012806/08/08 12:50:31  5-MIN KDBQ 081850Z 16011KT 10SM BKN046 OVC095 22/19 A2977 1220 84 2300 160/11 RMK AO2 PRESFR SLP077 T02170189
94908KDBQ DBQ20080608125509706/08/08 12:55:31  5-MIN KDBQ 081855Z 16011KT 10SM OVC046 22/19 A2977 1210 84 2300 160/11 RMK AO2
94908KDBQ DBQ20080608130010406/08/08 13:00:31  5-MIN KDBQ 081900Z 17013KT 10SM BKN046 OVC060 22/19 A2977 1220 81 2400 170/13 RMK AO2
94908KDBQ DBQ20080608130511106/08/08 13:05:31  5-MIN KDBQ 081905Z 17012KT 10SM BKN044 BKN050 OVC065 22/19 A2976 1220 81 2400 170/12 RMK AO2
94908KDBQ DBQ20080608131010406/08/08 13:10:31  5-MIN KDBQ 081910Z 16014KT 10SM BKN046 BKN060 22/19 A2975 1230 81 2400 160/14 RMK AO2
94908KDBQ DBQ20080608131511806/08/08 13:15:31  5-MIN KDBQ 081915Z 16012KT 10SM SCT044 BKN050 BKN065 22/19 A2975 1240 81 2400 160/12 RMK AO2 PRESFR
94908KDBQ DBQ20080608132011706/08/08 13:20:31  5-MIN KDBQ 081920Z 16016G22KT 10SM FEW044 SCT050 BKN070 23/19 A2974 1240 81 2500 160/16G22 RMK AO2
94908KDBQ DBQ20080608132511706/08/08 13:25:31  5-MIN KDBQ 081925Z 17019G23KT 10SM FEW042 BKN065 23/19 A2973 1250 78 2500 170/19G23 RMK AO2 PRESFR
94908KDBQ DBQ20080608133011006/08/08 13:30:31  5-MIN KDBQ 081930Z 17017G23KT 10SM FEW042 SCT065 23/19 A2974 1250 78 2500 170/17G23 RMK AO2
94908KDBQ DBQ20080608133510306/08/08 13:35:31  5-MIN KDBQ 081935Z 17017G23KT 10SM FEW042 23/20 A2973 1250 81 2500 170/17G23 RMK AO2
94908KDBQ DBQ20080608134010306/08/08 13:40:31  5-MIN KDBQ 081940Z 16018G23KT 10SM FEW070 24/21 A2973 1260 81 2600 160/18G23 RMK AO2
94908KDBQ DBQ20080608134510306/08/08 13:45:31  5-MIN KDBQ 081945Z 17018G22KT 10SM FEW075 24/19 A2973 1250 76 2600 170/18G22 RMK AO2
94908KDBQ DBQ20080608135012006/08/08 13:50:31  5-MIN KDBQ 081950Z 17016G22KT 10SM FEW065 24/20 A2974 1250 78 2600 170/16G22 RMK AO2 SLP063 T02390200
94908KDBQ DBQ20080608135511006/08/08 13:55:31  5-MIN KDBQ 081955Z 17014G22KT 10SM SCT037 SCT060 24/20 A2974 1250 78 2600 170/14G22 RMK AO2
94908KDBQ DBQ20080608140011006/08/08 14:00:31  5-MIN KDBQ 082000Z 17014G21KT 10SM SCT037 BKN060 24/20 A2973 1250 78 2600 170/14G21 RMK AO2
94908KDBQ DBQ20080608140511006/08/08 14:05:31  5-MIN KDBQ 082005Z 17013G22KT 10SM SCT037 BKN065 24/20 A2973 1250 76 2700 170/13G22 RMK AO2
94908KDBQ DBQ20080608141011006/08/08 14:10:31  5-MIN KDBQ 082010Z 17018G22KT 10SM SCT037 BKN065 25/21 A2973 1260 76 2700 160/18G22 RMK AO2
94908KDBQ DBQ20080608141511006/08/08 14:15:31  5-MIN KDBQ 082015Z 17019G23KT 10SM SCT037 BKN060 24/20 A2973 1260 76 2700 170/19G23 RMK AO2
94908KDBQ DBQ20080608142011706/08/08 14:20:31  5-MIN KDBQ 082020Z 17017G23KT 10SM BKN039 BKN046 BKN060 24/20 A2972 1260 76 2700 160/17G23 RMK AO2
94908KDBQ DBQ20080608142511006/08/08 14:25:31  5-MIN KDBQ 082025Z 17017G22KT 10SM BKN041 BKN065 24/20 A2972 1260 76 2700 170/17G22 RMK AO2
94908KDBQ DBQ20080608143011706/08/08 14:30:31  5-MIN KDBQ 082030Z 17015G22KT 10SM BKN039 BKN046 BKN060 24/20 A2972 1260 76 2700 170/15G22 RMK AO2
94908KDBQ DBQ20080608143511706/08/08 14:35:31  5-MIN KDBQ 082035Z 16015G20KT 10SM BKN039 BKN046 BKN065 24/20 A2972 1260 76 2700 160/15G20 RMK AO2
94908KDBQ DBQ20080608144011706/08/08 14:40:31  5-MIN KDBQ 082040Z 17016G24KT 10SM SCT039 BKN046 BKN065 24/20 A2972 1270 76 2700 170/16G24 RMK AO2
94908KDBQ DBQ20080608144511706/08/08 14:45:31  5-MIN KDBQ 082045Z 16019G24KT 10SM SCT037 SCT045 OVC070 24/19 A2972 1270 73 2700 160/19G24 RMK AO2
94908KDBQ DBQ20080608145014006/08/08 14:50:31  5-MIN KDBQ 082050Z 16018G24KT 10SM FEW037 SCT045 BKN055 24/19 A2971 1270 73 2700 160/18G24 RMK AO2 SLP056 T02440194 56027
94908KDBQ DBQ20080608145511706/08/08 14:55:31  5-MIN KDBQ 082055Z 16014G23KT 10SM FEW039 SCT055 BKN070 24/20 A2971 1270 76 2700 160/14G23 RMK AO2
94908KDBQ DBQ20080608150011106/08/08 15:00:31  5-MIN KDBQ 082100Z 17013KT 10SM FEW039 SCT050 BKN070 24/20 A2971 1280 76 2700 170/13 RMK AO2
94908KDBQ DBQ20080608150511706/08/08 15:05:31  5-MIN KDBQ 082105Z 17013G19KT 10SM FEW041 SCT050 BKN070 24/20 A2970 1280 78 2600 170/13G19 RMK AO2
94908KDBQ DBQ20080608151011706/08/08 15:10:31  5-MIN KDBQ 082110Z 16015G21KT 10SM SCT045 BKN060 BKN070 24/20 A2971 1280 76 2700 160/15G21 RMK AO2
94908KDBQ DBQ20080608151511006/08/08 15:15:31  5-MIN KDBQ 082115Z 17014G21KT 10SM SCT045 BKN060 24/20 A2971 1270 76 2700 160/14G21 RMK AO2
94908KDBQ DBQ20080608152011006/08/08 15:20:31  5-MIN KDBQ 082120Z 16013G20KT 10SM SCT045 BKN060 24/20 A2972 1270 78 2600 160/13G20 RMK AO2
94908KDBQ DBQ20080608152510406/08/08 15:25:31  5-MIN KDBQ 082125Z 17013KT 10SM FEW045 BKN060 24/20 A2972 1270 76 2700 170/13 RMK AO2
94908KDBQ DBQ20080608153010406/08/08 15:30:31  5-MIN KDBQ 082130Z 16013KT 10SM SCT045 BKN060 24/21 A2972 1260 78 2700 160/13 RMK AO2
94908KDBQ DBQ20080608153510406/08/08 15:35:31  5-MIN KDBQ 082135Z 16010KT 10SM FEW047 OVC065 24/21 A2972 1270 78 2700 160/10 RMK AO2
94908KDBQ DBQ20080608154010406/08/08 15:40:31  5-MIN KDBQ 082140Z 16011KT 10SM FEW045 BKN060 24/21 A2972 1270 78 2700 160/11 RMK AO2
94908KDBQ DBQ20080608154511006/08/08 15:45:31  5-MIN KDBQ 082145Z 17014G19KT 10SM FEW045 BKN060 25/21 A2972 1270 76 2800 170/14G19 RMK AO2
94908KDBQ DBQ20080608155012706/08/08 15:50:31  5-MIN KDBQ 082150Z 17012G19KT 10SM FEW047 BKN060 25/21 A2971 1270 76 2800 170/12G19 RMK AO2 SLP055 T02500206
94908KDBQ DBQ20080608155510406/08/08 15:55:31  5-MIN KDBQ 082155Z 16011KT 10SM SCT047 OVC060 25/21 A2971 1270 76 2800 160/11 RMK AO2
94908KDBQ DBQ20080608160010406/08/08 16:00:31  5-MIN KDBQ 082200Z 17011KT 10SM FEW045 BKN055 25/21 A2971 1280 76 2800 170/11 RMK AO2
94908KDBQ DBQ20080608160510406/08/08 16:05:31  5-MIN KDBQ 082205Z 16010KT 10SM SCT047 BKN055 25/21 A2971 1280 76 2800 160/10 RMK AO2
94908KDBQ DBQ20080608161010406/08/08 16:10:31  5-MIN KDBQ 082210Z 17012KT 10SM FEW047 BKN055 25/21 A2970 1280 79 2800 170/12 RMK AO2
94908KDBQ DBQ20080608161511106/08/08 16:15:31  5-MIN KDBQ 082215Z 17012KT 10SM FEW045 BKN055 BKN090 25/21 A2970 1280 79 2800 170/12 RMK AO2
94908KDBQ DBQ20080608162011106/08/08 16:20:31  5-MIN KDBQ 082220Z 17011KT 10SM FEW045 BKN055 BKN075 25/21 A2970 1280 79 2800 170/11 RMK AO2
94908KDBQ DBQ20080608162511106/08/08 16:25:31  5-MIN KDBQ 082225Z 17010KT 10SM FEW040 BKN055 BKN080 25/21 A2971 1280 79 2800 170/10 RMK AO2
94908KDBQ DBQ20080608163011106/08/08 16:30:31  5-MIN KDBQ 082230Z 17008KT 10SM FEW040 SCT047 BKN060 25/22 A2970 1280 81 2800 170/08 RMK AO2
94908KDBQ DBQ20080608163511106/08/08 16:35:31  5-MIN KDBQ 082235Z 17008KT 10SM FEW040 SCT047 BKN060 25/22 A2970 1280 81 2800 170/08 RMK AO2
94908KDBQ DBQ20080608164011106/08/08 16:40:31  5-MIN KDBQ 082240Z 17008KT 10SM FEW036 SCT045 BKN060 25/22 A2970 1280 81 2800 170/08 RMK AO2
94908KDBQ DBQ20080608164512206/08/08 16:45:31  5-MIN KDBQ 082245Z 16008KT 10SM FEW036 BKN047 BKN060 25/22 A2969 1290 81 2800 160/08 RMK AO2 LTG DSNT N
94908KDBQ DBQ20080608165014606/08/08 16:50:31  5-MIN KDBQ 082250Z 15009KT 10SM FEW038 BKN047 OVC100 24/22 A2968 1300 84 2700 150/09 RMK AO2 LTG DSNT N PRESFR SLP045 T02440217
94908KDBQ DBQ20080608165512406/08/08 16:55:31  5-MIN KDBQ 082255Z 15009KT 10SM FEW036 BKN060 OVC100 24/21 A2969 1300 81 2700 150/09 RMK AO2 LTG DSNT W-N
94908KDBQ DBQ20080608170012906/08/08 17:00:31  5-MIN KDBQ 082300Z 15009KT 10SM FEW036 SCT060 OVC095 24/21 A2969 1290 81 2700 150/09 RMK AO2 LTG DSNT W AND NW
94908KDBQ DBQ20080608170512906/08/08 17:05:31  5-MIN KDBQ 082305Z 16008KT 10SM FEW036 SCT060 OVC095 24/22 A2969 1290 84 2700 150/08 RMK AO2 LTG DSNT W AND NW
94908KDBQ DBQ20080608171011706/08/08 17:10:31  5-MIN KDBQ 082310Z 16007KT 10SM FEW048 OVC095 25/22 A2969 1290 81 2800 160/07 RMK AO2 LTG DSNT W-N
94908KDBQ DBQ20080608171511006/08/08 17:15:31  5-MIN KDBQ 082315Z 15006KT 10SM OVC095 25/22 A2969 1290 81 2800 150/06 RMK AO2 LTG DSNT W-N
94908KDBQ DBQ20080608172011006/08/08 17:20:31  5-MIN KDBQ 082320Z 15006KT 10SM OVC095 25/22 A2969 1290 81 2800 150/06 RMK AO2 LTG DSNT W-N
94908KDBQ DBQ20080608172511906/08/08 17:25:31  5-MIN KDBQ 082325Z 16007KT 10SM FEW060 OVC095 25/22 A2969 1290 81 2800 160/07 RMK AO2 LTG DSNT ALQDS
94908KDBQ DBQ20080608173012606/08/08 17:30:31  5-MIN KDBQ 082330Z 16007KT 10SM FEW041 SCT060 OVC095 25/22 A2969 1290 81 2800 160/07 RMK AO2 LTG DSNT ALQDS
94908KDBQ DBQ20080608173515406/08/08 17:35:31  5-MIN KDBQ 082335Z 15006KT 10SM SCT041 BKN060 OVC095 25/22 A2968 1300 81 2800 150/06 RMK AO2 LTG DSNT ALQDS TSTMS SW-N MOV NE LTGICCCCG
94908KDBQ DBQ20080608174015206/08/08 17:40:31  5-MIN KDBQ 082340Z 15006KT 10SM BKN041 BKN060 OVC095 25/22 A2969 1300 81 2800 150/06 RMK AO2 LTG DSNT W-N TSTMS SW-N MOV NE LTGICCCCG
94908KDBQ DBQ20080608174517006/08/08 17:45:31  5-MIN KDBQ 082345Z 25007KT 150V310 10SM BKN039 BKN060 OVC095 25/22 A2970 1290 81 2800 250/07 150V310 RMK AO2 LTG DSNT ALQDS TSTMS SW-N MOV NE LTGICCCCG
94908KDBQ DBQ20080608175016906/08/08 17:50:31  5-MIN KDBQ 082350Z 33010G19KT 10SM TS FEW017 BKN039 OVC060 23/18 A2969 1300 73 2600 330/10G19 RMK AO2 LTG DSNT ALQDS TSB48 TSTMS SW-N MOV NE LTGICCCCG
94908KDBQ DBQ20080608175512806/08/08 17:55:31  5-MIN KDBQ 082355Z 28012G19KT 10SM TS SCT021 OVC039 23/18 A2970 1280 73 2500 280/12G19 RMK AO2 LTG DSNT ALQDS
94908KDBQ DBQ20080608180014406/08/08 18:00:31  5-MIN KDBQ 090000Z 33009G21KT 260V060 10SM TS BKN023 OVC039 22/18 A2967 1310 78 2400 330/09G21 260V060 RMK AO2 LTG DSNT ALQDS
94908KDBQ DBQ20080608180513506/08/08 18:05:31  5-MIN KDBQ 090005Z 31011G25KT 10SM TS SCT021 BKN027 OVC037 22/18 A2971 1280 78 2400 300/11G25 RMK AO2 LTG DSNT ALQDS
94908KDBQ DBQ20080608181014206/08/08 18:10:31  5-MIN KDBQ 090010Z 32013G25KT 10SM TS FEW018 BKN029 OVC035 21/18 A2972 1270 84 2300 320/13G25 RMK AO2 LTG DSNT ALQDS PRESRR
94908KDBQ DBQ20080608181514206/08/08 18:15:31  5-MIN KDBQ 090015Z 31012G18KT 10SM TS SCT021 BKN027 OVC033 21/18 A2973 1250 84 2300 310/12G18 RMK AO2 LTG DSNT ALQDS PRESRR
94908KDBQ DBQ20080608182016906/08/08 18:20:31  5-MIN KDBQ 090020Z 31019G27KT 5SM TSRA BR BKN023 OVC032 21/19 A2975 1230 90 2200 310/19G27 RMK AO2 PK WND 30027/0019 LTG DSNT ALQDS RAB19 PRESRR P0000
94908KDBQ DBQ20080608182517906/08/08 18:25:31  5-MIN KDBQ 090025Z 29028G36KT 2SM TSRA BR FEW010 BKN021 OVC032 20/19 A2975 1240 93 2100 290/28G36 RMK AO2 PK WND 28036/0025 VIS 1/2V5 LTG DSNT ALQDS RAB19 P0004
94908KDBQ DBQ20080608183018406/08/08 18:30:31  5-MIN KDBQ 090030Z 28014G36KT 1 1/2SM +TSRA BR SCT009 BKN021 OVC028 19/18 A2970 1280 93 2100 280/14G36 RMK AO2 PK WND 28036/0025 VIS 1/2V5 LTG DSNT ALQDS RAB19 P0017
94908KDBQ DBQ20080608183516906/08/08 18:35:31  5-MIN KDBQ 090035Z 28018G27KT 2SM TSRA BR FEW012 BKN023 OVC028 19/18 A2972 1270 93 2100 280/18G27 RMK AO2 PK WND 28036/0025 LTG DSNT ALQDS RAB19 P0019
94908KDBQ DBQ20080608184017006/08/08 18:40:31  5-MIN KDBQ 090040Z 29013G27KT 6SM -TSRA BR FEW012 BKN036 OVC070 19/18 A2971 1280 97 2100 280/13G27 RMK AO2 PK WND 28036/0025 LTG DSNT ALQDS RAB19 P0020
94908KDBQ DBQ20080608184516406/08/08 18:45:31  5-MIN KDBQ 090045Z 26010KT 6SM -TSRA BR FEW012 BKN036 OVC110 19/18 A2971 1270 97 2100 260/10 RMK AO2 PK WND 28036/0025 LTG DSNT ALQDS RAB19 P0021
94908KDBQ DBQ20080608185017906/08/08 18:50:31  5-MIN KDBQ 090050Z 25009KT 10SM -TSRA FEW012 BKN036 OVC110 19/18 A2971 1280 93 2100 250/09 RMK AO2 PK WND 28036/0025 LTG DSNT ALQDS RAB19 SLP054 P0021 T01940183
94908KDBQ DBQ20080608185514406/08/08 18:55:31  5-MIN KDBQ 090055Z AUTO 23007KT 6SM TSRA BR BKN034 OVC110 19/18 A2968 1300 97 2100 230/07 RMK AO2 LTG DSNT ALQDS PRESFR P0001
94908KDBQ DBQ20080608190013806/08/08 19:00:31  5-MIN KDBQ 090100Z AUTO 21008KT 5SM TSRA BR BKN039 OVC110 19/19 A2969 1290 100 2100 210/08 RMK AO2 LTG DSNT ALQDS P0002
94908KDBQ DBQ20080608190513606/08/08 19:05:31  5-MIN KDBQ 090105Z AUTO 19010KT 9SM -TSRA BKN044 OVC110 19/19 A2970 1290 100 2100 190/10 RMK AO2 LTG DSNT ALQDS P0003
94908KDBQ DBQ20080608191013706/08/08 19:10:31  5-MIN KDBQ 090110Z AUTO 19009KT 10SM -TSRA BKN049 OVC110 19/19 A2969 1290 100 2100 190/09 RMK AO2 LTG DSNT ALQDS P0003
94908KDBQ DBQ20080608191513306/08/08 19:15:31  5-MIN KDBQ 090115Z AUTO 19010KT 10SM VCTS -RA OVC049 19/19 A2970 1280 100 2100 190/10 RMK AO2 LTG DSNT ALQDS P0004
94908KDBQ DBQ20080608192013206/08/08 19:20:31  5-MIN KDBQ 090120Z AUTO 18009KT 10SM VCTS -RA OVC049 20/19 A2970 1280 97 2200 180/09 RMK AO2 LTG DSNT ALQDS P0004
94908KDBQ DBQ20080608192513306/08/08 19:25:31  5-MIN KDBQ 090125Z AUTO 17010KT 10SM VCTS -RA OVC055 19/19 A2971 1280 100 2100 160/10 RMK AO2 LTG DSNT ALQDS P0004
94908KDBQ DBQ20080608193013206/08/08 19:30:31  5-MIN KDBQ 090130Z AUTO 17009KT 10SM VCTS -RA OVC060 20/19 A2971 1270 97 2200 170/09 RMK AO2 LTG DSNT ALQDS P0004
94908KDBQ DBQ20080608193513206/08/08 19:35:31  5-MIN KDBQ 090135Z AUTO 16011KT 9SM VCTS -RA OVC060 19/19 A2971 1270 100 2100 160/11 RMK AO2 LTG DSNT ALQDS P0005
94908KDBQ DBQ20080608194014006/08/08 19:40:31  5-MIN KDBQ 090140Z AUTO 17014G22KT 6SM VCTS RA BR OVC050 19/19 A2971 1270 100 2100 170/14G22 RMK AO2 LTG DSNT ALQDS P0006
94908KDBQ DBQ20080608194513906/08/08 19:45:31  5-MIN KDBQ 090145Z AUTO 20014G22KT 5SM VCTS RA BR OVC044 20/19 A2970 1280 93 2200 190/14G22 RMK AO2 LTG DSNT ALQDS P0008
94908KDBQ DBQ20080608195015706/08/08 19:50:31  5-MIN KDBQ 090150Z AUTO 22018G25KT 6SM VCTS -RA BR OVC048 20/19 A2970 1280 93 2200 210/18G25 RMK AO2 LTG DSNT ALQDS SLP053 P0009 T02000189
94908KDBQ DBQ20080608195514706/08/08 19:55:31  5-MIN KDBQ 090155Z AUTO 21019G25KT 8SM VCTS RA OVC044 20/19 A2970 1280 93 2200 210/19G25 RMK AO2 WSHFT 0140 LTG DSNT ALQDS P0001
94908KDBQ DBQ20080608200014406/08/08 20:00:31  5-MIN KDBQ 090200Z AUTO 20013G25KT 8SM TSRA OVC038 19/19 A2970 1280 97 2100 200/13G25 RMK AO2 WSHFT 0140 LTG DSNT ALQDS P0001
94908KDBQ DBQ20080608200513806/08/08 20:05:31  5-MIN KDBQ 090205Z AUTO 20013KT 7SM TSRA OVC033 19/19 A2970 1280 97 2100 200/13 RMK AO2 WSHFT 0140 LTG DSNT ALQDS P0001
94908KDBQ DBQ20080608201014906/08/08 20:10:31  5-MIN KDBQ 090210Z AUTO 22007G18KT 5SM +TSRA BR OVC031 19/19 A2969 1290 100 2100 220/07G18 RMK AO2 WSHFT 0140 LTG DSNT ALQDS P0005
94908KDBQ DBQ20080608201515006/08/08 20:15:31  5-MIN KDBQ 090215Z AUTO 24007KT 6SM -TSRA BR BKN034 OVC080 19/19 A2969 1290 100 2100 240/07 RMK AO2 WSHFT 0140 LTG DSNT ALQDS P0006
94908KDBQ DBQ20080608202016006/08/08 20:20:31  5-MIN KDBQ 090220Z AUTO 19013G16KT 10SM -TSRA BKN034 BKN060 OVC080 20/19 A2971 1270 97 2200 190/13G16 RMK AO2 WSHFT 0140 LTG DSNT ALQDS P0006
94908KDBQ DBQ20080608202516606/08/08 20:25:31  5-MIN KDBQ 090225Z AUTO 20013G17KT 6SM VCTS +RA BR SCT028 BKN060 OVC080 19/19 A2972 1270 100 2100 200/13G17 RMK AO2 WSHFT 0140 LTG DSNT ALQDS P0007
94908KDBQ DBQ20080608203016606/08/08 20:30:31  5-MIN KDBQ 090230Z AUTO 21010KT 4SM VCTS RA BR SCT028 BKN035 OVC060 19/19 A2972 1260 100 2100 210/10 RMK AO2 WSHFT 0140 LTG DSNT ALQDS PRESRR P0012
94908KDBQ DBQ20080608203516006/08/08 20:35:31  5-MIN KDBQ 090235Z AUTO 20006KT 4SM VCTS +RA BR SCT026 BKN035 OVC060 19/19 A2971 1270 100 2100 200/06 RMK AO2 WSHFT 0140 LTG DSNT ALQDS P0013
94908KDBQ DBQ20080608204015706/08/08 20:40:31  5-MIN KDBQ 090240Z AUTO 17007KT 5SM -TSRA BR SCT026 BKN033 OVC080 19/19 A2970 1280 100 2100 170/07 RMK AO2 WSHFT 0140 LTG DSNT ALQDS P0015
94908KDBQ DBQ20080608204515406/08/08 20:45:31  5-MIN KDBQ 090245Z AUTO 17006KT 9SM -TSRA SCT024 BKN036 BKN048 19/19 A2971 1280 100 2100 170/06 RMK AO2 WSHFT 0140 LTG DSNT ALQDS P0015
94908KDBQ DBQ20080608205018706/08/08 20:50:31  5-MIN KDBQ 090250Z AUTO 18009KT 10SM TS SCT026 BKN048 BKN060 19/19 A2971 1270 100 2100 180/09 RMK AO2 WSHFT 0140 LTG DSNT ALQDS RAE49 SLP057 P0015 60045 T01940194 58010
94908KDBQ DBQ20080608205514606/08/08 20:55:31  5-MIN KDBQ 090255Z AUTO 18006KT 9SM VCTS -RA SCT026 SCT048 BKN060 19/19 A2970 1280 100 2100 180/06 RMK AO2 LTG DSNT ALQDS P0000
94908KDBQ DBQ20080608210013806/08/08 21:00:31  5-MIN KDBQ 090300Z AUTO 16006KT 8SM VCTS RA SCT025 OVC050 19/19 A2969 1290 100 2100 160/06 RMK AO2 LTG DSNT ALQDS P0001
94908KDBQ DBQ20080608210514506/08/08 21:05:31  5-MIN KDBQ 090305Z AUTO 14006KT 8SM VCTS RA FEW025 BKN046 19/19 A2967 1310 100 2200 140/06 RMK AO2 LTG DSNT ALQDS PRESFR P0002
94908KDBQ DBQ20080608211014606/08/08 21:10:31  5-MIN KDBQ 090310Z AUTO 12008KT 8SM RA FEW023 BKN044 19/19 A2965 1330 100 2200 120/08 RMK AO2 LTG DSNT ALQDS TSE06 PRESFR P0003
94908KDBQ DBQ20080608211515106/08/08 21:15:31  5-MIN KDBQ 090315Z AUTO 18006KT 9SM VCTS -RA BKN045 OVC110 19/19 A2967 1310 100 2200 170/06 RMK AO2 LTG DSNT NE AND E TSE06B12 P0004
94908KDBQ DBQ20080608212015906/08/08 21:20:31  5-MIN KDBQ 090320Z AUTO 23008KT 10SM VCTS -RA FEW025 BKN043 OVC070 19/19 A2970 1280 100 2100 230/08 RMK AO2 LTG DSNT NE AND E TSE06B12 P0004
94908KDBQ DBQ20080608212515906/08/08 21:25:31  5-MIN KDBQ 090325Z AUTO 20007KT 10SM VCTS -RA SCT017 BKN039 OVC075 19/19 A2970 1280 100 2100 200/07 RMK AO2 LTG DSNT E TSE06B12 PRESRR P0004
94908KDBQ DBQ20080608213015106/08/08 21:30:31  5-MIN KDBQ 090330Z AUTO 21009KT 10SM SCT015 BKN037 BKN075 19/19 A2970 1280 100 2100 210/09 RMK AO2 LTG DSNT E TSE06B12E27RAE26 P0004
94908KDBQ DBQ20080608213515106/08/08 21:35:31  5-MIN KDBQ 090335Z AUTO 21009KT 10SM BKN015 BKN039 BKN075 19/19 A2971 1270 100 2100 200/09 RMK AO2 LTG DSNT E TSE06B12E27RAE26 P0004
94908KDBQ DBQ20080608214013306/08/08 21:40:31  5-MIN KDBQ 090340Z AUTO 20008KT 10SM BKN013 BKN045 20/20 A2971 1270 100 2200 200/08 RMK AO2 TSE06B12E27RAE26 P0004
94908KDBQ DBQ20080608214512606/08/08 21:45:31  5-MIN KDBQ 090345Z AUTO 18010KT 10SM BKN013 20/20 A2971 1270 100 2200 180/10 RMK AO2 TSE06B12E27RAE26 P0004
94908KDBQ DBQ20080608215014306/08/08 21:50:31  5-MIN KDBQ 090350Z AUTO 17011KT 10SM OVC013 20/20 A2970 1280 100 2200 170/11 RMK AO2 TSE06B12E27RAE26 SLP053 P0004 T02000200
94908KDBQ DBQ20080608215511006/08/08 21:55:31  5-MIN KDBQ 090355Z AUTO 18010KT 10SM BKN013 OVC018 20/20 A2971 1270 100 2200 180/10 RMK AO2
94908KDBQ DBQ20080608220011006/08/08 22:00:31  5-MIN KDBQ 090400Z AUTO 19009KT 10SM BKN011 OVC018 20/20 A2972 1260 100 2200 180/09 RMK AO2
94908KDBQ DBQ20080608220512606/08/08 22:05:31  5-MIN KDBQ 090405Z AUTO 18010KT 10SM -RA BKN011 OVC016 20/20 A2971 1270 100 2200 180/10 RMK AO2 RAB05 P0000
94908KDBQ DBQ20080608221012606/08/08 22:10:31  5-MIN KDBQ 090410Z AUTO 18009KT 10SM -RA BKN011 OVC017 20/20 A2970 1280 100 2200 170/09 RMK AO2 RAB05 P0000
94908KDBQ DBQ20080608221513106/08/08 22:15:31  5-MIN KDBQ 090415Z AUTO 19013G17KT 10SM BKN011 OVC017 20/20 A2972 1270 100 2200 180/13G17 RMK AO2 RAB05E14 P0000
94908KDBQ DBQ20080608222012506/08/08 22:20:31  5-MIN KDBQ 090420Z AUTO 19011KT 10SM BKN011 OVC017 20/20 A2972 1270 100 2200 190/11 RMK AO2 RAB05E14 P0000
94908KDBQ DBQ20080608222511806/08/08 22:25:31  5-MIN KDBQ 090425Z AUTO 19013KT 10SM OVC011 20/20 A2971 1270 100 2200 190/13 RMK AO2 RAB05E14 P0000
94908KDBQ DBQ20080608223011806/08/08 22:30:31  5-MIN KDBQ 090430Z AUTO 19015KT 10SM OVC011 20/20 A2972 1270 100 2200 190/15 RMK AO2 RAB05E14 P0000
94908KDBQ DBQ20080608223513006/08/08 22:35:31  5-MIN KDBQ 090435Z AUTO 19014KT 10SM OVC011 20/20 A2972 1270 100 2200 190/14 RMK AO2 RAB05E14 CIG 009V016 P0000
94908KDBQ DBQ20080608224013006/08/08 22:40:31  5-MIN KDBQ 090440Z AUTO 19014KT 10SM OVC011 20/20 A2972 1270 100 2200 190/14 RMK AO2 RAB05E14 CIG 008V013 P0000
94908KDBQ DBQ20080608224513606/08/08 22:45:31  5-MIN KDBQ 090445Z AUTO 19016G21KT 10SM OVC011 20/20 A2972 1260 100 2200 190/16G21 RMK AO2 RAB05E14 CIG 008V013 P0000
94908KDBQ DBQ20080608225013606/08/08 22:50:31  5-MIN KDBQ 090450Z AUTO 20016G21KT 10SM OVC008 20/20 A2972 1260 100 2200 200/16G21 RMK AO2 RAB05E14 CIG 007V011 P0000
94908KDBQ DBQ20080608225512506/08/08 22:55:31  5-MIN KDBQ 090455Z AUTO 20017G21KT 9SM OVC008 20/20 A2972 1260 100 2200 200/17G21 RMK AO2 CIG 005V011 TSNO
94908KDBQ DBQ20080608230012206/08/08 23:00:31  5-MIN KDBQ 090500Z AUTO 20016KT 4SM BR OVC008 20/20 A2972 1260 100 2200 200/16 RMK AO2 CIG 005V011 TSNO
94908KDBQ DBQ20080608230512806/08/08 23:05:31  5-MIN KDBQ 090505Z AUTO 20018G23KT 3SM BR OVC008 19/19 A2972 1270 100 2100 200/18G23 RMK AO2 CIG 004V010 TSNO
94908KDBQ DBQ20080608231016206/08/08 23:10:31  5-MIN KDBQ 090510Z AUTO 21020G26KT 3SM -RA BR OVC008 19/19 A2971 1270 100 2100 210/20G26 RMK AO2 PK WND 21026/0509 RAB06 CIG 004V010 P0000 TSNO
94908KDBQ DBQ20080608231516106/08/08 23:15:31  5-MIN KDBQ 090515Z AUTO 21019G26KT 4SM -RA BR OVC008 19/19 A2971 1280 97 2100 210/19G26 RMK AO2 PK WND 21026/0509 RAB06 CIG 004V010 P0000 TSNO
94908KDBQ DBQ20080608232015706/08/08 23:20:31  5-MIN KDBQ 090520Z AUTO 21014G23KT 4SM -RA BR OVC008 19/19 A2971 1280 100 2100 210/14G23 RMK AO2 PK WND 21026/0509 RAB06 CIG 004V012 P0000
94908KDBQ DBQ20080608232516406/08/08 23:25:31  5-MIN KDBQ 090525Z AUTO 21015G22KT 6SM -RA BR BKN008 OVC020 19/19 A2972 1270 100 2100 210/15G22 RMK AO2 PK WND 21026/0509 RAB06 CIG 004V012 P0000
94908KDBQ DBQ20080608233016206/08/08 23:30:31  5-MIN KDBQ 090530Z AUTO 22013G20KT 9SM BKN008 OVC020 19/19 A2973 1260 100 2000 220/13G20 RMK AO2 PK WND 21026/0509 RAB06E26 CIG 004V012 P0000 $
94908KDBQ DBQ20080608233515606/08/08 23:35:31  5-MIN KDBQ 090535Z AUTO 20012KT 9SM BKN008 OVC020 19/19 A2972 1270 100 2100 200/12 RMK AO2 PK WND 21026/0509 RAB06E26 CIG 004V012 P0001 $
94908KDBQ DBQ20080608234015606/08/08 23:40:31  5-MIN KDBQ 090540Z AUTO 21013KT 8SM BKN008 OVC020 19/19 A2972 1270 100 2100 200/13 RMK AO2 PK WND 21026/0509 RAB06E26 CIG 004V012 P0001 $
94908KDBQ DBQ20080608234514906/08/08 23:45:31  5-MIN KDBQ 090545Z AUTO 22014KT 7SM OVC006 19/19 A2972 1260 100 2000 220/14 RMK AO2 PK WND 21026/0509 RAB06E26 CIG 004V010 P0001 $
94908KDBQ DBQ20080608235019106/08/08 23:50:31  5-MIN KDBQ 090550Z AUTO 21009KT 6SM BR OVC006 19/19 A2972 1270 100 2100 210/09 RMK AO2 PK WND 21026/0509 RAB06E26 SLP059 P0001 60050 T01890189 10228 20189 402500178 50007 $
94908KDBQ DBQ20080608235510706/08/08 23:55:31  5-MIN KDBQ 090555Z AUTO 22012KT 5SM BR OVC006 19/19 A2973 1260 100 2000 220/12 RMK AO2 $
94908KDBQ DBQ20080609000010706/09/08 00:00:38  5-MIN KDBQ 090600Z AUTO 23012KT 5SM BR OVC006 19/19 A2973 1250 100 2000 230/12 RMK AO2 $
94908KDBQ DBQ20080609000510406/09/08 00:05:31  5-MIN KDBQ 090605Z AUTO 22013KT 7SM OVC006 19/19 A2973 1260 100 2000 220/13 RMK AO2 $
94908KDBQ DBQ20080609001010406/09/08 00:10:31  5-MIN KDBQ 090610Z AUTO 21012KT 7SM OVC006 19/19 A2973 1250 100 2000 210/12 RMK AO2 $
94908KDBQ DBQ20080609001510706/09/08 00:15:34  5-MIN KDBQ 090615Z AUTO 21012KT 5SM BR OVC006 19/19 A2973 1260 100 2000 210/12 RMK AO2 $
94908KDBQ DBQ20080609002010706/09/08 00:20:31  5-MIN KDBQ 090620Z AUTO 21012KT 3SM BR OVC006 19/19 A2973 1250 100 2000 210/12 RMK AO2 $
94908KDBQ DBQ20080609002510706/09/08 00:25:31  5-MIN KDBQ 090625Z AUTO 21010KT 4SM BR OVC004 19/19 A2973 1260 100 2000 210/10 RMK AO2 $
94908KDBQ DBQ20080609003010706/09/08 00:30:31  5-MIN KDBQ 090630Z AUTO 22013KT 5SM BR OVC004 19/19 A2973 1250 100 2000 220/13 RMK AO2 $
94908KDBQ DBQ20080609003510706/09/08 00:35:31  5-MIN KDBQ 090635Z AUTO 22011KT 6SM BR OVC004 19/19 A2973 1250 100 2000 220/11 RMK AO2 $
94908KDBQ DBQ20080609004010706/09/08 00:40:31  5-MIN KDBQ 090640Z AUTO 22011KT 5SM BR OVC004 19/19 A2974 1250 100 2000 220/11 RMK AO2 $
94908KDBQ DBQ20080609004510706/09/08 00:45:31  5-MIN KDBQ 090645Z AUTO 23009KT 5SM BR OVC004 19/19 A2973 1250 100 2000 230/09 RMK AO2 $
94908KDBQ DBQ20080609005012106/09/08 00:50:31  5-MIN KDBQ 090650Z AUTO 23009KT 7SM OVC004 19/19 A2973 1250 100 2000 230/09 RMK AO2 SLP063 T01890189 $
94908KDBQ DBQ20080609005510406/09/08 00:55:31  5-MIN KDBQ 090655Z AUTO 23008KT 8SM OVC004 19/19 A2973 1260 100 2000 230/08 RMK AO2 $
94908KDBQ DBQ20080609010010406/09/08 01:00:31  5-MIN KDBQ 090700Z AUTO 23008KT 8SM OVC004 19/19 A2973 1250 100 2000 230/08 RMK AO2 $
94908KDBQ DBQ20080609010510406/09/08 01:05:31  5-MIN KDBQ 090705Z AUTO 23009KT 8SM OVC004 19/19 A2974 1250 100 2000 230/09 RMK AO2 $
94908KDBQ DBQ20080609011010406/09/08 01:10:31  5-MIN KDBQ 090710Z AUTO 23011KT 8SM OVC004 19/19 A2974 1240 100 2000 230/11 RMK AO2 $
94908KDBQ DBQ20080609011510406/09/08 01:15:31  5-MIN KDBQ 090715Z AUTO 23009KT 8SM OVC004 19/19 A2975 1240 100 2000 230/09 RMK AO2 $
94908KDBQ DBQ20080609012010406/09/08 01:20:31  5-MIN KDBQ 090720Z AUTO 24008KT 7SM OVC004 19/19 A2974 1250 100 2000 230/08 RMK AO2 $
94908KDBQ DBQ20080609012511106/09/08 01:25:31  5-MIN KDBQ 090725Z AUTO 23008KT 7SM BKN004 OVC009 19/19 A2974 1250 100 2000 230/08 RMK AO2 $
94908KDBQ DBQ20080609013011106/09/08 01:30:31  5-MIN KDBQ 090730Z AUTO 23008KT 7SM BKN004 OVC009 19/19 A2974 1250 100 2000 220/08 RMK AO2 $
94908KDBQ DBQ20080609013511406/09/08 01:35:31  5-MIN KDBQ 090735Z AUTO 23008KT 6SM BR BKN004 OVC009 19/19 A2975 1240 100 2000 230/08 RMK AO2 $
94908KDBQ DBQ20080609014013006/09/08 01:40:31  5-MIN KDBQ 090740Z AUTO 23007KT 5SM -RA BR BKN004 OVC009 19/19 A2975 1240 100 2000 230/07 RMK AO2 RAB37 P0000 $
94908KDBQ DBQ20080609014513006/09/08 01:45:31  5-MIN KDBQ 090745Z AUTO 23007KT 4SM -RA BR BKN004 OVC009 19/19 A2975 1240 100 2000 230/07 RMK AO2 RAB37 P0000 $
94908KDBQ DBQ20080609015014706/09/08 01:50:31  5-MIN KDBQ 090750Z AUTO 23007KT 3SM -RA BR BKN004 OVC009 19/19 A2975 1240 100 2000 230/07 RMK AO2 RAB37 SLP067 P0000 T01890189 $
94908KDBQ DBQ20080609015513306/09/08 01:55:31  5-MIN KDBQ 090755Z AUTO 23007KT 2 1/2SM -RA BR OVC004 19/19 A2975 1240 100 2000 230/07 RMK AO2 CIG 002V008 P0001 $
94908KDBQ DBQ20080609020012906/09/08 02:00:31  5-MIN KDBQ 090800Z AUTO 25007KT 3SM -RA BR OVC004 19/19 A2975 1240 100 2000 250/07 RMK AO2 CIG 002V007 P0001 $
94908KDBQ DBQ20080609020512906/09/08 02:05:31  5-MIN KDBQ 090805Z AUTO 25008KT 3SM -RA BR OVC004 19/19 A2975 1240 100 2000 250/08 RMK AO2 CIG 002V007 P0001 $
94908KDBQ DBQ20080609021013606/09/08 02:10:31  5-MIN KDBQ 090810Z AUTO 25008KT 3SM -RA BR BKN004 OVC010 19/19 A2975 1240 100 2100 240/08 RMK AO2 CIG 002V007 P0002 $
94908KDBQ DBQ20080609021513806/09/08 02:15:31  5-MIN KDBQ 090815Z AUTO 24007KT 5SM BR BKN004 OVC010 19/19 A2975 1230 100 2100 240/07 RMK AO2 RAE13 CIG 002V007 P0002 $
94908KDBQ DBQ20080609022013806/09/08 02:20:31  5-MIN KDBQ 090820Z AUTO 25007KT 6SM BR BKN004 OVC010 19/19 A2975 1230 100 2100 240/07 RMK AO2 RAE13 CIG 002V009 P0002 $
94908KDBQ DBQ20080609022514506/09/08 02:25:31  5-MIN KDBQ 090825Z AUTO 25006KT 5SM BR SCT004 BKN010 OVC020 19/19 A2975 1230 100 2100 240/06 RMK AO2 RAE13 CIG 008V014 P0002 $
94908KDBQ DBQ20080609023013306/09/08 02:30:31  5-MIN KDBQ 090830Z AUTO 25006KT 5SM BR FEW004 BKN020 OVC027 19/19 A2975 1230 100 2100 250/06 RMK AO2 RAE13 P0002 $
94908KDBQ DBQ20080609023513306/09/08 02:35:31  5-MIN KDBQ 090835Z AUTO 24005KT 6SM BR FEW006 BKN022 OVC027 19/19 A2975 1240 100 2100 240/05 RMK AO2 RAE13 P0002 $
94908KDBQ DBQ20080609024013006/09/08 02:40:31  5-MIN KDBQ 090840Z AUTO 24006KT 7SM FEW006 BKN027 OVC034 19/19 A2975 1240 100 2100 240/06 RMK AO2 RAE13 P0002 $
94908KDBQ DBQ20080609024513006/09/08 02:45:31  5-MIN KDBQ 090845Z AUTO 24006KT 7SM FEW008 SCT021 OVC036 19/19 A2975 1240 100 2100 240/06 RMK AO2 RAE13 P0002 $
94908KDBQ DBQ20080609025015906/09/08 02:50:31  5-MIN KDBQ 090850Z AUTO 24006KT 7SM FEW006 BKN027 OVC036 19/19 A2976 1230 100 2000 240/06 RMK AO2 RAE13 SLP070 P0002 60002 T01890189 51007 $
94908KDBQ DBQ20080609025512106/09/08 02:55:31  5-MIN KDBQ 090855Z AUTO 24006KT 6SM BR SCT004 BKN027 OVC038 19/19 A2976 1230 100 2000 240/06 RMK AO2 $
94908KDBQ DBQ20080609030012106/09/08 03:00:31  5-MIN KDBQ 090900Z AUTO 24006KT 6SM BR SCT004 BKN027 OVC039 19/19 A2976 1230 100 2000 240/06 RMK AO2 $
94908KDBQ DBQ20080609030512106/09/08 03:05:31  5-MIN KDBQ 090905Z AUTO 24007KT 6SM BR SCT004 BKN036 OVC043 19/19 A2976 1230 100 2000 240/07 RMK AO2 $
94908KDBQ DBQ20080609031509306/09/08 03:15:31  5-MIN KDBQ 090915Z AUTO 24006KT 19/19 A2976 1230 100 2000 240/06 RMK AO2 $
94908KDBQ DBQ20080609032009306/09/08 03:20:31  5-MIN KDBQ 090920Z AUTO 24007KT 19/19 A2976 1230 100 2000 240/07 RMK AO2 $
94908KDBQ DBQ20080609032509706/09/08 03:25:31  5-MIN KDBQ 090925Z AUTO 24007KT 7SM 19/19 A2976 1230 100 2000 240/07 RMK AO2 $
94908KDBQ DBQ20080609033009706/09/08 03:30:31  5-MIN KDBQ 090930Z AUTO 24006KT 7SM 19/19 A2975 1240 100 2000 240/06 RMK AO2 $
94908KDBQ DBQ20080609033509706/09/08 03:35:31  5-MIN KDBQ 090935Z AUTO 24007KT 8SM 19/19 A2975 1230 100 2000 240/07 RMK AO2 $
94908KDBQ DBQ20080609034009706/09/08 03:40:31  5-MIN KDBQ 090940Z AUTO 25007KT 8SM 19/19 A2975 1240 100 2000 250/07 RMK AO2 $
94908KDBQ DBQ20080609034511106/09/08 03:45:31  5-MIN KDBQ 090945Z AUTO 25007KT 8SM FEW004 SCT047 19/19 A2975 1230 100 2000 250/07 RMK AO2 $
94908KDBQ DBQ20080609035011106/09/08 03:50:31  5-MIN KDBQ 090950Z AUTO 26007KT 8SM FEW004 SCT047 19/19 A2975 1230 100 2000 260/07 RMK AO2 $
94908KDBQ DBQ20080609035510406/09/08 03:55:31  5-MIN KDBQ 090955Z AUTO 26008KT 8SM FEW005 19/19 A2976 1230 100 2000 260/08 RMK AO2 $
94908KDBQ DBQ20080609040010406/09/08 04:00:31  5-MIN KDBQ 091000Z AUTO 26008KT 8SM SCT005 19/19 A2976 1230 100 2000 260/08 RMK AO2 $
94908KDBQ DBQ20080609040511606/09/08 04:05:31  5-MIN KDBQ 091005Z AUTO 26008KT 9SM BKN007 19/19 A2976 1230 100 2000 260/08 RMK AO2 CIG 004V009 $
94908KDBQ DBQ20080609041011606/09/08 04:10:31  5-MIN KDBQ 091010Z AUTO 26009KT 9SM BKN007 19/19 A2976 1230 100 2000 260/09 RMK AO2 CIG 004V010 $
94908KDBQ DBQ20080609041510506/09/08 04:15:31  5-MIN KDBQ 091015Z AUTO 27010KT 10SM SCT007 19/19 A2977 1220 100 2000 270/10 RMK AO2 $
94908KDBQ DBQ20080609042010506/09/08 04:20:31  5-MIN KDBQ 091020Z AUTO 26009KT 10SM SCT007 19/19 A2977 1220 100 2000 260/09 RMK AO2 $
94908KDBQ DBQ20080609042510506/09/08 04:25:31  5-MIN KDBQ 091025Z AUTO 27010KT 10SM BKN007 19/19 A2977 1220 100 2000 270/10 RMK AO2 $
94908KDBQ DBQ20080609043010506/09/08 04:30:31  5-MIN KDBQ 091030Z AUTO 27009KT 10SM SCT007 19/19 A2977 1220 100 2000 260/09 RMK AO2 $
94908KDBQ DBQ20080609043510406/09/08 04:35:31  5-MIN KDBQ 091035Z AUTO 26008KT 9SM SCT007 19/19 A2977 1220 100 2000 260/08 RMK AO2 $
94908KDBQ DBQ20080609044010406/09/08 04:40:31  5-MIN KDBQ 091040Z AUTO 26007KT 8SM FEW007 19/19 A2977 1220 100 2000 260/07 RMK AO2 $
94908KDBQ DBQ20080609044510406/09/08 04:45:31  5-MIN KDBQ 091045Z AUTO 26008KT 8SM FEW007 19/19 A2977 1210 100 2000 260/08 RMK AO2 $
94908KDBQ DBQ20080609045011606/09/08 04:50:31  5-MIN KDBQ 091050Z 25006KT 8SM FEW007 19/19 A2977 1220 100 2000 250/06 RMK AO2 SLP076 T01890189 $
94908KDBQ DBQ20080609045509906/09/08 04:55:31  5-MIN KDBQ 091055Z 25006KT 8SM FEW007 19/19 A2978 1210 100 2000 250/06 RMK AO2 $
94908KDBQ DBQ20080609050009906/09/08 05:00:31  5-MIN KDBQ 091100Z 25006KT 8SM FEW110 19/19 A2978 1210 100 2000 250/06 RMK AO2 $
94908KDBQ DBQ20080609050509606/09/08 05:05:31  5-MIN KDBQ 091105Z 24007KT 8SM CLR 19/19 A2978 1210 100 2000 240/07 RMK AO2 $
94908KDBQ DBQ20080609051009606/09/08 05:10:31  5-MIN KDBQ 091110Z 24006KT 7SM CLR 19/19 A2978 1200 100 2000 230/06 RMK AO2 $
94908KDBQ DBQ20080609051509606/09/08 05:15:31  5-MIN KDBQ 091115Z 23006KT 7SM CLR 18/18 A2978 1200 100 1900 230/06 RMK AO2 $
94908KDBQ DBQ20080609052009906/09/08 05:20:31  5-MIN KDBQ 091120Z 24007KT 6SM BR CLR 19/19 A2979 1200 100 2000 240/07 RMK AO2 $
94908KDBQ DBQ20080609052509606/09/08 05:25:31  5-MIN KDBQ 091125Z 24007KT 7SM CLR 19/19 A2979 1200 100 2000 240/07 RMK AO2 $
94908KDBQ DBQ20080609053009606/09/08 05:30:31  5-MIN KDBQ 091130Z 24007KT 7SM CLR 19/19 A2980 1190 100 2000 240/07 RMK AO2 $
94908KDBQ DBQ20080609053509906/09/08 05:35:31  5-MIN KDBQ 091135Z 24006KT 7SM FEW004 19/19 A2980 1190 100 2000 240/06 RMK AO2 $
94908KDBQ DBQ20080609054010206/09/08 05:40:31  5-MIN KDBQ 091140Z 23005KT 6SM BR SCT004 19/19 A2980 1190 100 2000 230/05 RMK AO2 $
94908KDBQ DBQ20080609054510206/09/08 05:45:31  5-MIN KDBQ 091145Z 23006KT 6SM BR SCT004 19/19 A2980 1190 100 2000 230/06 RMK AO2 $
94908KDBQ DBQ20080609055010206/09/08 05:50:31  5-MIN KDBQ 091150Z 24006KT 6SM BR BKN004 19/19 A2980 1190 100 2000 240/06 RMK AO2 $
94908KDBQ DBQ20080609055510206/09/08 05:55:31  5-MIN KDBQ 091155Z 24007KT 6SM BR BKN004 19/19 A2980 1190 100 2000 230/07 RMK AO2 $
94908KDBQ DBQ20080609060010006/09/08 06:00:31  5-MIN KDBQ 091200Z 24006KT 6SM BR OVC004 19/19 A2980 1190 100 2000 240/06 RMK AO2
94908KDBQ DBQ20080609060511206/09/08 06:05:31  5-MIN KDBQ 091205Z 24007KT 6SM BR OVC004 19/19 A2980 1190 100 2000 230/07 RMK AO2 CIG 002V007
94908KDBQ DBQ20080609061011206/09/08 06:10:31  5-MIN KDBQ 091210Z 24006KT 6SM BR OVC004 19/19 A2980 1190 100 2000 240/06 RMK AO2 CIG 002V007
94908KDBQ DBQ20080609061510006/09/08 06:15:31  5-MIN KDBQ 091215Z 24007KT 6SM BR OVC004 19/19 A2980 1190 100 2000 240/07 RMK AO2
94908KDBQ DBQ20080609062011206/09/08 06:20:31  5-MIN KDBQ 091220Z 24007KT 6SM BR OVC004 19/19 A2980 1190 100 2000 240/07 RMK AO2 CIG 003V007
94908KDBQ DBQ20080609062510006/09/08 06:25:31  5-MIN KDBQ 091225Z 25009KT 6SM BR OVC004 19/19 A2981 1180 100 2000 250/09 RMK AO2
94908KDBQ DBQ20080609063011206/09/08 06:30:31  5-MIN KDBQ 091230Z 25008KT 6SM BR OVC004 19/19 A2981 1180 100 2000 250/08 RMK AO2 CIG 003V007
94908KDBQ DBQ20080609063511206/09/08 06:35:31  5-MIN KDBQ 091235Z 26007KT 6SM BR BKN004 19/19 A2981 1180 100 2000 250/07 RMK AO2 CIG 003V007
94908KDBQ DBQ20080609064011206/09/08 06:40:31  5-MIN KDBQ 091240Z 25008KT 6SM BR BKN004 19/19 A2981 1180 100 2000 250/08 RMK AO2 CIG 003V007
94908KDBQ DBQ20080609064510906/09/08 06:45:31  5-MIN KDBQ 091245Z 26008KT 7SM BKN004 19/19 A2981 1180 100 2000 260/08 RMK AO2 CIG 003V007
94908KDBQ DBQ20080609065009706/09/08 06:50:31  5-MIN KDBQ 091250Z 25007KT 7SM SCT004 19/19 A2981 1180 100 2000 250/07 RMK AO2
94908KDBQ DBQ20080609065509706/09/08 06:55:31  5-MIN KDBQ 091255Z 25008KT 7SM SCT004 19/19 A2981 1180 100 2000 250/08 RMK AO2
94908KDBQ DBQ20080609070009606/09/08 07:00:31  5-MIN KDBQ 091300Z 24007KT 8SM FEW004 19/19 A2982 1170 97 2000 240/07 RMK AO2
94908KDBQ DBQ20080609070509606/09/08 07:05:31  5-MIN KDBQ 091305Z 24008KT 8SM FEW004 19/19 A2982 1170 97 2000 240/08 RMK AO2
94908KDBQ DBQ20080609071009406/09/08 07:10:31  5-MIN KDBQ 091310Z 23007KT 8SM CLR 19/19 A2982 1170 100 2000 230/07 RMK AO2
94908KDBQ DBQ20080609071509406/09/08 07:15:31  5-MIN KDBQ 091315Z 23007KT 8SM CLR 19/19 A2982 1170 100 2000 230/07 RMK AO2
94908KDBQ DBQ20080609072009406/09/08 07:20:31  5-MIN KDBQ 091320Z 22007KT 8SM CLR 19/19 A2982 1170 100 2000 220/07 RMK AO2
94908KDBQ DBQ20080609072509406/09/08 07:25:31  5-MIN KDBQ 091325Z 22006KT 8SM CLR 19/19 A2982 1170 100 2000 220/06 RMK AO2
94908KDBQ DBQ20080609073009406/09/08 07:30:31  5-MIN KDBQ 091330Z 23007KT 7SM CLR 19/19 A2982 1170 100 2000 230/07 RMK AO2
94908KDBQ DBQ20080609073509406/09/08 07:35:31  5-MIN KDBQ 091335Z 23006KT 8SM CLR 19/19 A2982 1170 100 2000 230/06 RMK AO2
94908KDBQ DBQ20080609074009406/09/08 07:40:31  5-MIN KDBQ 091340Z 23004KT 8SM CLR 19/19 A2982 1180 100 2000 230/04 RMK AO2
94908KDBQ DBQ20080609074509306/09/08 07:45:31  5-MIN KDBQ 091345Z 25006KT 7SM CLR 19/19 A2982 1170 97 2000 240/06 RMK AO2
94908KDBQ DBQ20080609075011006/09/08 07:50:31  5-MIN KDBQ 091350Z 25006KT 8SM CLR 19/18 A2982 1170 93 2000 250/06 RMK AO2 SLP092 T01940183
94908KDBQ DBQ20080609075509306/09/08 07:55:31  5-MIN KDBQ 091355Z 24007KT 8SM CLR 19/18 A2981 1180 93 2000 240/07 RMK AO2
94908KDBQ DBQ20080609080009306/09/08 08:00:31  5-MIN KDBQ 091400Z 24008KT 9SM CLR 20/18 A2981 1180 90 2100 240/08 RMK AO2
94908KDBQ DBQ20080609080509306/09/08 08:05:31  5-MIN KDBQ 091405Z 25009KT 9SM CLR 19/18 A2981 1180 93 2000 250/09 RMK AO2
94908KDBQ DBQ20080609081009306/09/08 08:10:31  5-MIN KDBQ 091410Z 25008KT 9SM CLR 19/18 A2981 1180 93 2000 250/08 RMK AO2
94908KDBQ DBQ20080609081509406/09/08 08:15:31  5-MIN KDBQ 091415Z 25008KT 10SM CLR 20/18 A2981 1180 90 2100 250/08 RMK AO2
94908KDBQ DBQ20080609082009706/09/08 08:20:31  5-MIN KDBQ 091420Z 25009KT 10SM FEW009 20/18 A2981 1180 90 2100 250/09 RMK AO2
94908KDBQ DBQ20080609082509706/09/08 08:25:31  5-MIN KDBQ 091425Z 25007KT 10SM FEW009 20/18 A2982 1170 90 2100 240/07 RMK AO2
94908KDBQ DBQ20080609083009706/09/08 08:30:31  5-MIN KDBQ 091430Z 25009KT 10SM FEW009 20/18 A2982 1170 87 2100 250/09 RMK AO2
94908KDBQ DBQ20080609083509706/09/08 08:35:31  5-MIN KDBQ 091435Z 25007KT 10SM FEW009 20/18 A2982 1170 90 2100 250/07 RMK AO2
94908KDBQ DBQ20080609084009706/09/08 08:40:31  5-MIN KDBQ 091440Z 25009KT 10SM FEW009 20/18 A2982 1170 90 2100 240/09 RMK AO2
94908KDBQ DBQ20080609084509706/09/08 08:45:31  5-MIN KDBQ 091445Z 26010KT 10SM FEW009 20/18 A2982 1170 87 2100 260/10 RMK AO2
94908KDBQ DBQ20080609085011106/09/08 08:50:31  5-MIN KDBQ 091450Z 25011KT 10SM CLR 20/18 A2982 1170 87 2100 250/11 RMK AO2 SLP094 T02000178
94908KDBQ DBQ20080609085509706/09/08 08:55:31  5-MIN KDBQ 091455Z 25008KT 10SM FEW095 20/18 A2982 1170 87 2100 250/08 RMK AO2
94908KDBQ DBQ20080609090009706/09/08 09:00:31  5-MIN KDBQ 091500Z 24009KT 10SM FEW090 21/18 A2982 1170 84 2100 240/09 RMK AO2
94908KDBQ DBQ20080609090509706/09/08 09:05:31  5-MIN KDBQ 091505Z 23009KT 10SM FEW090 21/18 A2982 1170 84 2100 230/09 RMK AO2
94908KDBQ DBQ20080609091009706/09/08 09:10:31  5-MIN KDBQ 091510Z 24010KT 10SM SCT095 21/17 A2981 1180 81 2100 240/10 RMK AO2
94908KDBQ DBQ20080609091509706/09/08 09:15:31  5-MIN KDBQ 091515Z 24010KT 10SM SCT095 21/17 A2982 1170 81 2100 240/10 RMK AO2
94908KDBQ DBQ20080609092009706/09/08 09:20:31  5-MIN KDBQ 091520Z 25009KT 10SM SCT095 21/17 A2982 1170 81 2100 250/09 RMK AO2
94908KDBQ DBQ20080609092509706/09/08 09:25:31  5-MIN KDBQ 091525Z 23008KT 10SM SCT095 21/18 A2982 1170 81 2200 230/08 RMK AO2
94908KDBQ DBQ20080609093009706/09/08 09:30:31  5-MIN KDBQ 091530Z 23009KT 10SM FEW095 21/17 A2982 1170 78 2200 230/09 RMK AO2
94908KDBQ DBQ20080609093509706/09/08 09:35:31  5-MIN KDBQ 091535Z 24010KT 10SM FEW095 21/17 A2982 1170 78 2200 240/10 RMK AO2
94908KDBQ DBQ20080609094009706/09/08 09:40:31  5-MIN KDBQ 091540Z 25009KT 10SM FEW100 21/17 A2983 1170 78 2200 250/09 RMK AO2
94908KDBQ DBQ20080609094509706/09/08 09:45:31  5-MIN KDBQ 091545Z 24010KT 10SM SCT100 21/17 A2982 1170 78 2200 240/10 RMK AO2
94908KDBQ DBQ20080609095011406/09/08 09:50:31  5-MIN KDBQ 091550Z 25010KT 10SM SCT100 21/17 A2983 1160 75 2200 250/10 RMK AO2 SLP096 T02110167
94908KDBQ DBQ20080609095509706/09/08 09:55:31  5-MIN KDBQ 091555Z 26010KT 10SM BKN100 21/17 A2983 1160 75 2200 260/10 RMK AO2
94908KDBQ DBQ20080609100009706/09/08 10:00:31  5-MIN KDBQ 091600Z 25009KT 10SM BKN100 21/17 A2983 1160 78 2100 250/09 RMK AO2
94908KDBQ DBQ20080609100509706/09/08 10:05:31  5-MIN KDBQ 091605Z 27008KT 10SM BKN100 21/17 A2983 1160 78 2100 270/08 RMK AO2
94908KDBQ DBQ20080609101009706/09/08 10:10:31  5-MIN KDBQ 091610Z 26009KT 10SM OVC100 21/17 A2983 1160 78 2100 260/09 RMK AO2
94908KDBQ DBQ20080609101509706/09/08 10:15:31  5-MIN KDBQ 091615Z 25009KT 10SM OVC100 21/17 A2983 1160 78 2100 250/09 RMK AO2
94908KDBQ DBQ20080609102009706/09/08 10:20:31  5-MIN KDBQ 091620Z 24009KT 10SM OVC100 21/17 A2984 1150 78 2100 240/09 RMK AO2
94908KDBQ DBQ20080609102509706/09/08 10:25:31  5-MIN KDBQ 091625Z 24009KT 10SM OVC110 21/17 A2984 1150 78 2100 240/09 RMK AO2
94908KDBQ DBQ20080609103009706/09/08 10:30:31  5-MIN KDBQ 091630Z 25009KT 10SM OVC110 21/17 A2984 1150 78 2100 250/09 RMK AO2
94908KDBQ DBQ20080609103509706/09/08 10:35:31  5-MIN KDBQ 091635Z 25009KT 10SM OVC110 21/17 A2985 1150 78 2100 250/09 RMK AO2
94908KDBQ DBQ20080609104009706/09/08 10:40:31  5-MIN KDBQ 091640Z 25009KT 10SM OVC110 21/17 A2985 1140 78 2100 250/09 RMK AO2
94908KDBQ DBQ20080609104509706/09/08 10:45:31  5-MIN KDBQ 091645Z 25009KT 10SM OVC110 21/17 A2985 1140 78 2100 250/09 RMK AO2
94908KDBQ DBQ20080609105011406/09/08 10:50:31  5-MIN KDBQ 091650Z 25007KT 10SM OVC110 21/17 A2985 1140 78 2100 250/07 RMK AO2 SLP104 T02060167
94908KDBQ DBQ20080609105509706/09/08 10:55:31  5-MIN KDBQ 091655Z 25009KT 10SM OVC110 21/17 A2985 1140 78 2100 240/09 RMK AO2
94908KDBQ DBQ20080609110009706/09/08 11:00:31  5-MIN KDBQ 091700Z 25009KT 10SM OVC110 21/17 A2985 1140 78 2100 250/09 RMK AO2
94908KDBQ DBQ20080609110506806/09/08 11:05:31  5-MIN KDBQ 091705Z 25008KT M M M 250/08 RMK AO2 $
94908KDBQ DBQ20080609111008706/09/08 11:10:31  5-MIN KDBQ 091710Z 25009KT 21/17 A2986 1140 81 2100 250/09 RMK AO2 $
94908KDBQ DBQ20080609111509206/09/08 11:15:31  5-MIN KDBQ 091715Z 26008KT 10SM 21/17 A2985 1140 78 2100 260/08 RMK AO2 $
94908KDBQ DBQ20080609112009206/09/08 11:20:31  5-MIN KDBQ 091720Z 25009KT 10SM 21/17 A2985 1140 78 2100 250/09 RMK AO2 $
94908KDBQ DBQ20080609112509206/09/08 11:25:31  5-MIN KDBQ 091725Z 24008KT 10SM 21/17 A2985 1150 81 2100 240/08 RMK AO2 $
94908KDBQ DBQ20080609113009606/09/08 11:30:31  5-MIN KDBQ 091730Z 24008KT 10SM CLR 21/17 A2985 1150 78 2100 240/08 RMK AO2 $
94908KDBQ DBQ20080609113509606/09/08 11:35:31  5-MIN KDBQ 091735Z 24008KT 10SM CLR 21/17 A2985 1140 81 2100 240/08 RMK AO2 $
94908KDBQ DBQ20080609114009606/09/08 11:40:31  5-MIN KDBQ 091740Z 24007KT 10SM CLR 21/17 A2985 1140 78 2200 240/07 RMK AO2 $
94908KDBQ DBQ20080609114509606/09/08 11:45:31  5-MIN KDBQ 091745Z 26006KT 10SM CLR 21/17 A2985 1140 75 2200 250/06 RMK AO2 $
94908KDBQ DBQ20080609115012806/09/08 11:50:31  5-MIN KDBQ 091750Z 24009KT 10SM BKN120 21/17 A2985 1140 75 2200 240/09 RMK AO2 SLP105 T02110167 10211 20189 $
94908KDBQ DBQ20080609115509906/09/08 11:55:31  5-MIN KDBQ 091755Z 24009KT 10SM BKN120 21/16 A2985 1140 73 2200 240/09 RMK AO2 $
94908KDBQ DBQ20080609120009906/09/08 12:00:31  5-MIN KDBQ 091800Z 24009KT 10SM SCT120 21/16 A2985 1140 73 2200 240/09 RMK AO2 $
94908KDBQ DBQ20080609120509906/09/08 12:05:31  5-MIN KDBQ 091805Z 24008KT 10SM FEW120 21/16 A2985 1140 73 2200 240/08 RMK AO2 $
94908KDBQ DBQ20080609121009906/09/08 12:10:31  5-MIN KDBQ 091810Z 25007KT 10SM FEW120 22/17 A2985 1140 73 2200 250/07 RMK AO2 $
94908KDBQ DBQ20080609121509906/09/08 12:15:31  5-MIN KDBQ 091815Z 25006KT 10SM FEW120 22/17 A2985 1140 70 2300 250/06 RMK AO2 $
94908KDBQ DBQ20080609122009606/09/08 12:20:31  5-MIN KDBQ 091820Z 25008KT 10SM CLR 22/17 A2985 1140 70 2300 250/08 RMK AO2 $
94908KDBQ DBQ20080609122509606/09/08 12:25:31  5-MIN KDBQ 091825Z 25009KT 10SM CLR 22/16 A2985 1140 70 2200 250/09 RMK AO2 $
94908KDBQ DBQ20080609123009606/09/08 12:30:31  5-MIN KDBQ 091830Z 25008KT 10SM CLR 22/16 A2985 1150 70 2200 250/08 RMK AO2 $
94908KDBQ DBQ20080609123509606/09/08 12:35:31  5-MIN KDBQ 091835Z 25009KT 10SM CLR 22/16 A2985 1140 68 2300 250/09 RMK AO2 $
94908KDBQ DBQ20080609124009606/09/08 12:40:31  5-MIN KDBQ 091840Z 24008KT 10SM CLR 22/16 A2985 1150 65 2300 240/08 RMK AO2 $
94908KDBQ DBQ20080609124509606/09/08 12:45:31  5-MIN KDBQ 091845Z 27009KT 10SM CLR 23/16 A2984 1150 63 2400 270/09 RMK AO2 $
94908KDBQ DBQ20080609125011306/09/08 12:50:31  5-MIN KDBQ 091850Z 26010KT 10SM CLR 23/15 A2984 1150 59 2400 260/10 RMK AO2 SLP100 T02330150 $
94908KDBQ DBQ20080609125509606/09/08 12:55:31  5-MIN KDBQ 091855Z 26009KT 10SM CLR 23/15 A2984 1150 59 2400 260/09 RMK AO2 $
94908KDBQ DBQ20080609130009906/09/08 13:00:31  5-MIN KDBQ 091900Z 25010KT 10SM FEW039 23/16 A2984 1150 61 2400 250/10 RMK AO2 $
94908KDBQ DBQ20080609130509906/09/08 13:05:31  5-MIN KDBQ 091905Z 26010KT 10SM FEW039 23/16 A2984 1150 61 2400 260/10 RMK AO2 $
94908KDBQ DBQ20080609131009606/09/08 13:10:31  5-MIN KDBQ 091910Z 26012KT 10SM CLR 23/15 A2984 1150 59 2400 260/12 RMK AO2 $
94908KDBQ DBQ20080609131509606/09/08 13:15:31  5-MIN KDBQ 091915Z 26008KT 10SM CLR 23/15 A2984 1160 59 2400 260/08 RMK AO2 $
94908KDBQ DBQ20080609132009606/09/08 13:20:31  5-MIN KDBQ 091920Z 24012KT 10SM CLR 24/16 A2984 1160 59 2500 240/12 RMK AO2 $
94908KDBQ DBQ20080609132509606/09/08 13:25:31  5-MIN KDBQ 091925Z 26009KT 10SM CLR 23/15 A2984 1150 59 2400 260/09 RMK AO2 $
94908KDBQ DBQ20080609133009606/09/08 13:30:31  5-MIN KDBQ 091930Z 25010KT 10SM CLR 23/14 A2983 1160 57 2400 250/10 RMK AO2 $
94908KDBQ DBQ20080609133509606/09/08 13:35:31  5-MIN KDBQ 091935Z 26008KT 10SM CLR 23/14 A2983 1160 59 2400 260/08 RMK AO2 $
94908KDBQ DBQ20080609134009606/09/08 13:40:31  5-MIN KDBQ 091940Z 25009KT 10SM CLR 23/15 A2983 1160 59 2400 250/09 RMK AO2 $
94908KDBQ DBQ20080609134509606/09/08 13:45:31  5-MIN KDBQ 091945Z 24008KT 10SM CLR 23/15 A2984 1160 61 2400 240/08 RMK AO2 $
94908KDBQ DBQ20080609135011106/09/08 13:50:31  5-MIN KDBQ 091950Z 24009KT 10SM CLR 23/15 A2983 1160 61 2400 240/09 RMK AO2 SLP097 T02280150
94908KDBQ DBQ20080609135509406/09/08 13:55:31  5-MIN KDBQ 091955Z 24009KT 10SM CLR 23/15 A2983 1160 61 2400 240/09 RMK AO2
94908KDBQ DBQ20080609140009406/09/08 14:00:31  5-MIN KDBQ 092000Z 24008KT 10SM CLR 23/15 A2983 1160 61 2400 240/08 RMK AO2
94908KDBQ DBQ20080609140509406/09/08 14:05:31  5-MIN KDBQ 092005Z 23008KT 10SM CLR 23/15 A2983 1160 61 2400 230/08 RMK AO2
94908KDBQ DBQ20080609141009406/09/08 14:10:31  5-MIN KDBQ 092010Z 23008KT 10SM CLR 23/15 A2983 1160 61 2400 230/08 RMK AO2
94908KDBQ DBQ20080609141509406/09/08 14:15:31  5-MIN KDBQ 092015Z 24008KT 10SM CLR 23/15 A2983 1160 61 2400 240/08 RMK AO2
94908KDBQ DBQ20080609142009406/09/08 14:20:31  5-MIN KDBQ 092020Z 24009KT 10SM CLR 23/15 A2983 1160 59 2400 240/09 RMK AO2
94908KDBQ DBQ20080609142509406/09/08 14:25:31  5-MIN KDBQ 092025Z 24009KT 10SM CLR 23/15 A2983 1160 61 2400 240/09 RMK AO2
94908KDBQ DBQ20080609143009406/09/08 14:30:31  5-MIN KDBQ 092030Z 24008KT 10SM CLR 22/14 A2983 1160 61 2300 240/08 RMK AO2
94908KDBQ DBQ20080609143509406/09/08 14:35:31  5-MIN KDBQ 092035Z 24008KT 10SM CLR 22/15 A2983 1160 63 2300 240/08 RMK AO2
94908KDBQ DBQ20080609144009406/09/08 14:40:31  5-MIN KDBQ 092040Z 23008KT 10SM CLR 22/15 A2983 1160 63 2300 230/08 RMK AO2
94908KDBQ DBQ20080609144509406/09/08 14:45:31  5-MIN KDBQ 092045Z 22007KT 10SM CLR 22/15 A2983 1160 63 2300 220/07 RMK AO2
94908KDBQ DBQ20080609145011106/09/08 14:50:31  5-MIN KDBQ 092050Z 22007KT 10SM CLR 22/15 A2983 1160 63 2300 220/07 RMK AO2 SLP097 T02220150
94908KDBQ DBQ20080609145509406/09/08 14:55:31  5-MIN KDBQ 092055Z 22006KT 10SM CLR 22/16 A2983 1160 65 2300 220/06 RMK AO2
94908KDBQ DBQ20080609150009406/09/08 15:00:31  5-MIN KDBQ 092100Z 22009KT 10SM CLR 22/16 A2983 1160 65 2300 220/09 RMK AO2
94908KDBQ DBQ20080609150509406/09/08 15:05:31  5-MIN KDBQ 092105Z 22008KT 10SM CLR 22/16 A2983 1160 65 2300 210/08 RMK AO2
94908KDBQ DBQ20080609151009406/09/08 15:10:31  5-MIN KDBQ 092110Z 21009KT 10SM CLR 22/16 A2984 1160 65 2300 210/09 RMK AO2
94908KDBQ DBQ20080609151509406/09/08 15:15:31  5-MIN KDBQ 092115Z 21009KT 10SM CLR 22/15 A2983 1160 63 2300 210/09 RMK AO2
94908KDBQ DBQ20080609152009406/09/08 15:20:31  5-MIN KDBQ 092120Z 21007KT 10SM CLR 22/16 A2983 1160 65 2300 210/07 RMK AO2
94908KDBQ DBQ20080609152509406/09/08 15:25:31  5-MIN KDBQ 092125Z 22006KT 10SM CLR 22/16 A2983 1160 68 2200 210/06 RMK AO2
94908KDBQ DBQ20080609153009406/09/08 15:30:31  5-MIN KDBQ 092130Z 22007KT 10SM CLR 22/16 A2983 1160 65 2300 210/07 RMK AO2
94908KDBQ DBQ20080609153509406/09/08 15:35:31  5-MIN KDBQ 092135Z 21006KT 10SM CLR 22/16 A2983 1160 68 2300 210/06 RMK AO2
94908KDBQ DBQ20080609154009406/09/08 15:40:31  5-MIN KDBQ 092140Z 21008KT 10SM CLR 23/16 A2983 1170 65 2400 210/08 RMK AO2
94908KDBQ DBQ20080609154509406/09/08 15:45:31  5-MIN KDBQ 092145Z 21008KT 10SM CLR 23/16 A2983 1170 65 2400 210/08 RMK AO2
94908KDBQ DBQ20080609155011306/09/08 15:50:31  5-MIN KDBQ 092150Z 20009KT 10SM CLR 22/16 A2983 1170 68 2300 200/09 RMK AO2 SLP095 T02220161 $
94908KDBQ DBQ20080609155509606/09/08 15:55:31  5-MIN KDBQ 092155Z 20009KT 10SM CLR 22/16 A2982 1170 65 2300 200/09 RMK AO2 $
94908KDBQ DBQ20080609160009606/09/08 16:00:31  5-MIN KDBQ 092200Z 21010KT 10SM CLR 22/16 A2982 1170 68 2300 210/10 RMK AO2 $
94908KDBQ DBQ20080609160509606/09/08 16:05:31  5-MIN KDBQ 092205Z 21009KT 10SM CLR 22/16 A2982 1170 68 2300 210/09 RMK AO2 $
94908KDBQ DBQ20080609161009606/09/08 16:10:31  5-MIN KDBQ 092210Z 21009KT 10SM CLR 23/16 A2982 1170 65 2400 210/09 RMK AO2 $
94908KDBQ DBQ20080609161509606/09/08 16:15:31  5-MIN KDBQ 092215Z 21008KT 10SM CLR 22/16 A2982 1170 68 2300 200/08 RMK AO2 $
94908KDBQ DBQ20080609162009606/09/08 16:20:31  5-MIN KDBQ 092220Z 21008KT 10SM CLR 22/16 A2982 1170 68 2300 210/08 RMK AO2 $
94908KDBQ DBQ20080609162509606/09/08 16:25:31  5-MIN KDBQ 092225Z 20007KT 10SM CLR 23/16 A2981 1180 65 2400 200/07 RMK AO2 $
94908KDBQ DBQ20080609163009606/09/08 16:30:31  5-MIN KDBQ 092230Z 20009KT 10SM CLR 23/16 A2981 1180 65 2400 200/09 RMK AO2 $
94908KDBQ DBQ20080609163509606/09/08 16:35:31  5-MIN KDBQ 092235Z 21008KT 10SM CLR 22/16 A2981 1180 68 2300 200/08 RMK AO2 $
94908KDBQ DBQ20080609164009606/09/08 16:40:31  5-MIN KDBQ 092240Z 21008KT 10SM CLR 22/16 A2981 1180 68 2300 210/08 RMK AO2 $
94908KDBQ DBQ20080609164509606/09/08 16:45:31  5-MIN KDBQ 092245Z 21008KT 10SM CLR 22/16 A2981 1180 68 2300 210/08 RMK AO2 $
94908KDBQ DBQ20080609165011306/09/08 16:50:31  5-MIN KDBQ 092250Z 21008KT 10SM CLR 22/16 A2981 1180 68 2300 210/08 RMK AO2 SLP089 T02170156 $
94908KDBQ DBQ20080609165509606/09/08 16:55:31  5-MIN KDBQ 092255Z 21009KT 10SM CLR 22/16 A2981 1180 68 2300 210/09 RMK AO2 $
94908KDBQ DBQ20080609170009606/09/08 17:00:31  5-MIN KDBQ 092300Z 21008KT 10SM CLR 22/16 A2981 1180 68 2300 210/08 RMK AO2 $
94908KDBQ DBQ20080609170509606/09/08 17:05:31  5-MIN KDBQ 092305Z 21008KT 10SM CLR 22/16 A2981 1180 70 2300 210/08 RMK AO2 $
94908KDBQ DBQ20080609171009606/09/08 17:10:31  5-MIN KDBQ 092310Z 21007KT 10SM CLR 22/16 A2981 1180 70 2300 210/07 RMK AO2 $
94908KDBQ DBQ20080609171509606/09/08 17:15:31  5-MIN KDBQ 092315Z 22007KT 10SM CLR 22/16 A2981 1180 68 2300 210/07 RMK AO2 $
94908KDBQ DBQ20080609172009606/09/08 17:20:31  5-MIN KDBQ 092320Z 21007KT 10SM CLR 22/17 A2981 1180 70 2300 210/07 RMK AO2 $
94908KDBQ DBQ20080609172509606/09/08 17:25:31  5-MIN KDBQ 092325Z 22007KT 10SM CLR 22/17 A2981 1180 70 2300 210/07 RMK AO2 $
94908KDBQ DBQ20080609173009606/09/08 17:30:31  5-MIN KDBQ 092330Z 21009KT 10SM CLR 22/16 A2981 1180 68 2300 210/09 RMK AO2 $
94908KDBQ DBQ20080609173509606/09/08 17:35:31  5-MIN KDBQ 092335Z 21006KT 10SM CLR 22/17 A2981 1180 70 2300 210/06 RMK AO2 $
94908KDBQ DBQ20080609174009606/09/08 17:40:31  5-MIN KDBQ 092340Z 21008KT 10SM CLR 22/17 A2981 1190 73 2300 210/08 RMK AO2 $
94908KDBQ DBQ20080609174509606/09/08 17:45:31  5-MIN KDBQ 092345Z 21007KT 10SM CLR 22/17 A2981 1180 73 2300 210/07 RMK AO2 $
94908KDBQ DBQ20080609175013106/09/08 17:50:31  5-MIN KDBQ 092350Z 21008KT 10SM CLR 22/17 A2981 1180 73 2300 210/08 RMK AO2 SLP088 T02170167 10239 20211 56007 $
94908KDBQ DBQ20080609175509606/09/08 17:55:31  5-MIN KDBQ 092355Z 21008KT 10SM CLR 22/17 A2981 1180 73 2300 210/08 RMK AO2 $
94908KDBQ DBQ20080609180009606/09/08 18:00:31  5-MIN KDBQ 100000Z 21008KT 10SM CLR 21/17 A2981 1180 75 2200 210/08 RMK AO2 $
94908KDBQ DBQ20080609180509606/09/08 18:05:31  5-MIN KDBQ 100005Z 22007KT 10SM CLR 21/17 A2981 1180 78 2200 210/07 RMK AO2 $
94908KDBQ DBQ20080609181009606/09/08 18:10:31  5-MIN KDBQ 100010Z 21007KT 10SM CLR 21/17 A2981 1180 75 2200 210/07 RMK AO2 $
94908KDBQ DBQ20080609181509606/09/08 18:15:31  5-MIN KDBQ 100015Z 21009KT 10SM CLR 21/17 A2981 1180 75 2200 210/09 RMK AO2 $
94908KDBQ DBQ20080609182009606/09/08 18:20:31  5-MIN KDBQ 100020Z 21007KT 10SM CLR 21/17 A2981 1180 75 2200 210/07 RMK AO2 $
94908KDBQ DBQ20080609182509606/09/08 18:25:31  5-MIN KDBQ 100025Z 21007KT 10SM CLR 21/17 A2981 1180 75 2200 200/07 RMK AO2 $
94908KDBQ DBQ20080609183009606/09/08 18:30:31  5-MIN KDBQ 100030Z 20005KT 10SM CLR 21/17 A2980 1190 78 2200 200/05 RMK AO2 $
94908KDBQ DBQ20080609183509606/09/08 18:35:31  5-MIN KDBQ 100035Z 20006KT 10SM CLR 21/17 A2980 1190 81 2100 200/06 RMK AO2 $
94908KDBQ DBQ20080609184009606/09/08 18:40:31  5-MIN KDBQ 100040Z 20007KT 10SM CLR 21/17 A2981 1180 81 2100 200/07 RMK AO2 $
94908KDBQ DBQ20080609184509906/09/08 18:45:31  5-MIN KDBQ 100045Z 19006KT 10SM FEW021 21/18 A2981 1180 84 2100 190/06 RMK AO2 $
94908KDBQ DBQ20080609185011606/09/08 18:50:31  5-MIN KDBQ 100050Z 18007KT 10SM FEW021 21/18 A2981 1180 84 2100 180/07 RMK AO2 SLP090 T02060178 $
94908KDBQ DBQ20080609185510606/09/08 18:55:31  5-MIN KDBQ 100055Z 21010KT 10SM FEW021 SCT120 21/18 A2981 1180 84 2100 210/10 RMK AO2 $
94908KDBQ DBQ20080609190011706/09/08 19:00:31  5-MIN KDBQ 100100Z AUTO 22013G18KT 10SM FEW021 SCT120 21/14 A2981 1180 65 2200 220/13G18 RMK AO2 $
94908KDBQ DBQ20080609190510406/09/08 19:05:31  5-MIN KDBQ 100105Z AUTO 23012KT 10SM FEW021 21/12 A2982 1170 56 2100 230/12 RMK AO2 $
94908KDBQ DBQ20080609191011006/09/08 19:10:31  5-MIN KDBQ 100110Z AUTO 23011G17KT 10SM FEW021 20/11 A2982 1170 54 2100 230/11G17 RMK AO2 $
94908KDBQ DBQ20080609191510406/09/08 19:15:31  5-MIN KDBQ 100115Z AUTO 23008KT 10SM FEW120 19/11 A2983 1170 56 2000 230/08 RMK AO2 $
94908KDBQ DBQ20080609192010406/09/08 19:20:31  5-MIN KDBQ 100120Z AUTO 23006KT 10SM FEW120 19/11 A2982 1170 58 1900 230/06 RMK AO2 $
94908KDBQ DBQ20080609192510406/09/08 19:25:31  5-MIN KDBQ 100125Z AUTO 22005KT 10SM FEW110 19/11 A2982 1170 58 1900 220/05 RMK AO2 $
94908KDBQ DBQ20080609193010406/09/08 19:30:31  5-MIN KDBQ 100130Z AUTO 21005KT 10SM FEW120 19/11 A2982 1170 58 1900 210/05 RMK AO2 $
94908KDBQ DBQ20080609193510406/09/08 19:35:31  5-MIN KDBQ 100135Z AUTO 20004KT 10SM FEW120 19/11 A2982 1170 58 1900 190/04 RMK AO2 $
94908KDBQ DBQ20080609194010406/09/08 19:40:31  5-MIN KDBQ 100140Z AUTO 21007KT 10SM FEW110 19/11 A2982 1170 58 1900 200/07 RMK AO2 $
94908KDBQ DBQ20080609194510406/09/08 19:45:31  5-MIN KDBQ 100145Z AUTO 22005KT 10SM SCT095 19/10 A2982 1170 56 1900 220/05 RMK AO2 $
94908KDBQ DBQ20080609195012106/09/08 19:50:31  5-MIN KDBQ 100150Z AUTO 24005KT 10SM BKN095 18/11 A2982 1170 60 1900 240/05 RMK AO2 SLP094 T01830106 $
94908KDBQ DBQ20080609195510406/09/08 19:55:31  5-MIN KDBQ 100155Z AUTO 25004KT 10SM BKN100 18/11 A2982 1170 62 1900 250/04 RMK AO2 $
94908KDBQ DBQ20080609200010406/09/08 20:00:31  5-MIN KDBQ 100200Z AUTO 27005KT 10SM BKN095 18/12 A2982 1180 67 1800 270/05 RMK AO2 $
94908KDBQ DBQ20080609200510406/09/08 20:05:31  5-MIN KDBQ 100205Z AUTO 27005KT 10SM BKN095 18/11 A2982 1170 64 1800 270/05 RMK AO2 $
94908KDBQ DBQ20080609201010406/09/08 20:10:31  5-MIN KDBQ 100210Z AUTO 26006KT 10SM SCT090 18/11 A2982 1170 64 1800 260/06 RMK AO2 $
94908KDBQ DBQ20080609201510406/09/08 20:15:31  5-MIN KDBQ 100215Z AUTO 28006KT 10SM SCT100 18/11 A2982 1170 64 1800 280/06 RMK AO2 $
94908KDBQ DBQ20080609202010406/09/08 20:20:31  5-MIN KDBQ 100220Z AUTO 28006KT 10SM FEW100 18/11 A2982 1170 60 1900 280/06 RMK AO2 $
94908KDBQ DBQ20080609202510406/09/08 20:25:31  5-MIN KDBQ 100225Z AUTO 27006KT 10SM FEW110 18/11 A2982 1170 60 1900 260/06 RMK AO2 $
94908KDBQ DBQ20080609203010406/09/08 20:30:31  5-MIN KDBQ 100230Z AUTO 27007KT 10SM SCT110 18/11 A2982 1170 62 1900 270/07 RMK AO2 $
94908KDBQ DBQ20080609203510406/09/08 20:35:31  5-MIN KDBQ 100235Z AUTO 27008KT 10SM SCT110 18/11 A2982 1170 62 1900 270/08 RMK AO2 $
94908KDBQ DBQ20080609204010406/09/08 20:40:31  5-MIN KDBQ 100240Z AUTO 28010KT 10SM SCT110 18/11 A2983 1160 62 1900 280/10 RMK AO2 $
94908KDBQ DBQ20080609204510406/09/08 20:45:31  5-MIN KDBQ 100245Z AUTO 27009KT 10SM BKN110 18/11 A2983 1160 62 1900 270/09 RMK AO2 $
94908KDBQ DBQ20080609205012706/09/08 20:50:31  5-MIN KDBQ 100250Z AUTO 29011KT 10SM BKN110 18/11 A2983 1160 62 1900 280/11 RMK AO2 SLP098 T01830111 56007 $
94908KDBQ DBQ20080609205510406/09/08 20:55:31  5-MIN KDBQ 100255Z AUTO 29010KT 10SM BKN110 18/11 A2983 1160 62 1900 280/10 RMK AO2 $
94908KDBQ DBQ20080609210010406/09/08 21:00:31  5-MIN KDBQ 100300Z AUTO 29009KT 10SM BKN110 18/11 A2983 1160 62 1900 280/09 RMK AO2 $
94908KDBQ DBQ20080609210510406/09/08 21:05:31  5-MIN KDBQ 100305Z AUTO 28009KT 10SM BKN110 18/11 A2983 1160 64 1800 280/09 RMK AO2 $
94908KDBQ DBQ20080609211010406/09/08 21:10:31  5-MIN KDBQ 100310Z AUTO 28011KT 10SM BKN110 18/12 A2984 1160 67 1800 280/11 RMK AO2 $
94908KDBQ DBQ20080609211510406/09/08 21:15:31  5-MIN KDBQ 100315Z AUTO 29009KT 10SM BKN110 18/12 A2983 1160 67 1800 290/09 RMK AO2 $
94908KDBQ DBQ20080609212010406/09/08 21:20:31  5-MIN KDBQ 100320Z AUTO 28010KT 10SM BKN110 18/12 A2983 1160 67 1800 280/10 RMK AO2 $
94908KDBQ DBQ20080609212510406/09/08 21:25:31  5-MIN KDBQ 100325Z AUTO 27010KT 10SM SCT100 17/12 A2983 1160 69 1700 270/10 RMK AO2 $
94908KDBQ DBQ20080609213010406/09/08 21:30:31  5-MIN KDBQ 100330Z AUTO 27009KT 10SM FEW100 17/12 A2983 1160 69 1700 270/09 RMK AO2 $
94908KDBQ DBQ20080609213510406/09/08 21:35:31  5-MIN KDBQ 100335Z AUTO 27009KT 10SM FEW100 17/12 A2984 1150 69 1700 270/09 RMK AO2 $
94908KDBQ DBQ20080609214010106/09/08 21:40:31  5-MIN KDBQ 100340Z AUTO 25008KT 10SM CLR 17/11 A2984 1150 67 1700 250/08 RMK AO2 $
94908KDBQ DBQ20080609214510106/09/08 21:45:31  5-MIN KDBQ 100345Z AUTO 25008KT 10SM CLR 17/12 A2984 1150 72 1700 250/08 RMK AO2 $
94908KDBQ DBQ20080609215011806/09/08 21:50:31  5-MIN KDBQ 100350Z AUTO 23008KT 10SM CLR 17/12 A2985 1150 72 1600 230/08 RMK AO2 SLP103 T01670117 $
94908KDBQ DBQ20080609215510106/09/08 21:55:31  5-MIN KDBQ 100355Z AUTO 22008KT 10SM CLR 17/12 A2984 1150 69 1700 220/08 RMK AO2 $
94908KDBQ DBQ20080609220010106/09/08 22:00:31  5-MIN KDBQ 100400Z AUTO 21006KT 10SM CLR 17/12 A2985 1150 75 1600 210/06 RMK AO2 $
94908KDBQ DBQ20080609220510106/09/08 22:05:31  5-MIN KDBQ 100405Z AUTO 22006KT 10SM CLR 17/12 A2984 1150 75 1700 220/06 RMK AO2 $
94908KDBQ DBQ20080609221010106/09/08 22:10:31  5-MIN KDBQ 100410Z AUTO 22005KT 10SM CLR 17/12 A2984 1150 75 1700 220/05 RMK AO2 $
94908KDBQ DBQ20080609221510106/09/08 22:15:31  5-MIN KDBQ 100415Z AUTO 21004KT 10SM CLR 16/12 A2983 1160 77 1600 210/04 RMK AO2 $
94908KDBQ DBQ20080609222010106/09/08 22:20:31  5-MIN KDBQ 100420Z AUTO 21005KT 10SM CLR 16/12 A2983 1160 75 1600 210/05 RMK AO2 $
94908KDBQ DBQ20080609222510106/09/08 22:25:31  5-MIN KDBQ 100425Z AUTO 23005KT 10SM CLR 17/12 A2983 1160 72 1700 230/05 RMK AO2 $
94908KDBQ DBQ20080609223010106/09/08 22:30:31  5-MIN KDBQ 100430Z AUTO 22003KT 10SM CLR 16/12 A2983 1160 75 1600 220/03 RMK AO2 $
94908KDBQ DBQ20080609223510106/09/08 22:35:31  5-MIN KDBQ 100435Z AUTO 22003KT 10SM CLR 16/12 A2984 1160 77 1600 220/03 RMK AO2 $
94908KDBQ DBQ20080609224010106/09/08 22:40:31  5-MIN KDBQ 100440Z AUTO 24005KT 10SM CLR 16/12 A2984 1160 80 1500 240/05 RMK AO2 $
94908KDBQ DBQ20080609224510106/09/08 22:45:31  5-MIN KDBQ 100445Z AUTO 22005KT 10SM CLR 16/12 A2983 1160 77 1600 220/05 RMK AO2 $
94908KDBQ DBQ20080609225011806/09/08 22:50:31  5-MIN KDBQ 100450Z AUTO 21003KT 10SM CLR 16/12 A2983 1160 77 1600 210/03 RMK AO2 SLP098 T01610122 $
94908KDBQ DBQ20080609225510106/09/08 22:55:31  5-MIN KDBQ 100455Z AUTO 00000KT 10SM CLR 16/12 A2983 1170 77 1600 000/00 RMK AO2 $
94908KDBQ DBQ20080609230010106/09/08 23:00:31  5-MIN KDBQ 100500Z AUTO 00000KT 10SM CLR 16/12 A2982 1170 77 1600 000/00 RMK AO2 $
94908KDBQ DBQ20080609230510106/09/08 23:05:31  5-MIN KDBQ 100505Z AUTO 23003KT 10SM CLR 16/12 A2982 1170 77 1600 230/03 RMK AO2 $
94908KDBQ DBQ20080609231010106/09/08 23:10:31  5-MIN KDBQ 100510Z AUTO 24003KT 10SM CLR 16/12 A2983 1170 80 1500 240/03 RMK AO2 $
94908KDBQ DBQ20080609231510106/09/08 23:15:31  5-MIN KDBQ 100515Z AUTO 25004KT 10SM CLR 16/12 A2983 1160 80 1500 250/04 RMK AO2 $
94908KDBQ DBQ20080609232010106/09/08 23:20:31  5-MIN KDBQ 100520Z AUTO 24005KT 10SM CLR 16/12 A2983 1160 80 1500 240/05 RMK AO2 $
94908KDBQ DBQ20080609232510106/09/08 23:25:31  5-MIN KDBQ 100525Z AUTO 23004KT 10SM CLR 16/12 A2983 1160 80 1500 230/04 RMK AO2 $
94908KDBQ DBQ20080609233010106/09/08 23:30:31  5-MIN KDBQ 100530Z AUTO 22004KT 10SM CLR 16/12 A2983 1160 80 1500 220/04 RMK AO2 $
94908KDBQ DBQ20080609233511206/09/08 23:35:31  5-MIN KDBQ 100535Z AUTO 23005KT 10SM CLR 16/12 A2983 1160 80 1500 230/05 RMK AO2 LTG DSNT E $
94908KDBQ DBQ20080609234011206/09/08 23:40:31  5-MIN KDBQ 100540Z AUTO 22006KT 10SM CLR 16/12 A2983 1160 80 1500 220/06 RMK AO2 LTG DSNT E $
94908KDBQ DBQ20080609234511206/09/08 23:45:31  5-MIN KDBQ 100545Z AUTO 21005KT 10SM CLR 16/12 A2983 1160 80 1500 210/05 RMK AO2 LTG DSNT E $
94908KDBQ DBQ20080609235014606/09/08 23:50:31  5-MIN KDBQ 100550Z AUTO 21006KT 10SM CLR 15/12 A2983 1160 80 1500 210/06 RMK AO2 SLP100 T01500117 10217 20150 402390150 53007 $
94908KDBQ DBQ20080609235510106/09/08 23:55:31  5-MIN KDBQ 100555Z AUTO 21006KT 10SM CLR 15/12 A2984 1150 80 1500 210/06 RMK AO2 $
94908KDBQ DBQ20080610000010106/10/08 00:00:38  5-MIN KDBQ 100600Z AUTO 20006KT 10SM CLR 15/12 A2984 1160 80 1500 200/06 RMK AO2 $
94908KDBQ DBQ20080610000510106/10/08 00:05:31  5-MIN KDBQ 100605Z AUTO 20005KT 10SM CLR 15/12 A2984 1150 80 1500 200/05 RMK AO2 $
94908KDBQ DBQ20080610001010106/10/08 00:10:31  5-MIN KDBQ 100610Z AUTO 20007KT 10SM CLR 14/12 A2984 1150 83 1400 200/07 RMK AO2 $
94908KDBQ DBQ20080610001510106/10/08 00:15:31  5-MIN KDBQ 100615Z AUTO 19009KT 10SM CLR 15/12 A2985 1150 80 1500 190/09 RMK AO2 $
94908KDBQ DBQ20080610002011206/10/08 00:20:31  5-MIN KDBQ 100620Z AUTO 21008KT 10SM CLR 15/11 A2985 1150 77 1500 210/08 RMK AO2 LTG DSNT W $
94908KDBQ DBQ20080610002511206/10/08 00:25:31  5-MIN KDBQ 100625Z AUTO 22007KT 10SM CLR 15/11 A2985 1140 77 1500 220/07 RMK AO2 LTG DSNT W $
94908KDBQ DBQ20080610003011506/10/08 00:30:31  5-MIN KDBQ 100630Z AUTO 23008KT 10SM FEW090 15/11 A2986 1140 77 1400 220/08 RMK AO2 LTG DSNT W $
94908KDBQ DBQ20080610003512206/10/08 00:35:31  5-MIN KDBQ 100635Z AUTO 23007KT 10SM FEW034 SCT090 15/12 A2985 1140 80 1400 230/07 RMK AO2 LTG DSNT W $
94908KDBQ DBQ20080610004012906/10/08 00:40:31  5-MIN KDBQ 100640Z AUTO 22009KT 10SM FEW034 SCT075 BKN090 15/12 A2985 1140 80 1400 220/09 RMK AO2 LTG DSNT W $
94908KDBQ DBQ20080610004512206/10/08 00:45:31  5-MIN KDBQ 100645Z AUTO 22009KT 10SM FEW080 BKN090 16/11 A2986 1140 74 1500 220/09 RMK AO2 LTG DSNT W $
94908KDBQ DBQ20080610005013906/10/08 00:50:31  5-MIN KDBQ 100650Z AUTO 22010KT 10SM FEW080 SCT090 16/11 A2985 1140 74 1500 220/10 RMK AO2 LTG DSNT W SLP105 T01560111 $
94908KDBQ DBQ20080610005512206/10/08 00:55:31  5-MIN KDBQ 100655Z AUTO 22010KT 10SM FEW075 SCT090 16/11 A2985 1140 74 1500 220/10 RMK AO2 LTG DSNT W $
94908KDBQ DBQ20080610010012106/10/08 01:00:31  5-MIN KDBQ 100700Z AUTO 22009G17KT 10SM FEW075 16/12 A2984 1150 77 1500 220/09G17 RMK AO2 LTG DSNT W $
94908KDBQ DBQ20080610010511606/10/08 01:05:31  5-MIN KDBQ 100705Z AUTO 22011KT 10SM FEW080 16/12 A2984 1150 77 1500 220/11 RMK AO2 LTG DSNT SW $
94908KDBQ DBQ20080610011011606/10/08 01:10:31  5-MIN KDBQ 100710Z AUTO 23011KT 10SM FEW100 16/12 A2985 1150 77 1500 230/11 RMK AO2 LTG DSNT SW $
94908KDBQ DBQ20080610011511606/10/08 01:15:31  5-MIN KDBQ 100715Z AUTO 23012KT 10SM FEW120 16/12 A2985 1140 77 1500 230/12 RMK AO2 LTG DSNT SW $
94908KDBQ DBQ20080610012011606/10/08 01:20:31  5-MIN KDBQ 100720Z AUTO 23013KT 10SM SCT110 16/12 A2985 1140 80 1500 220/13 RMK AO2 LTG DSNT SW $
94908KDBQ DBQ20080610012513506/10/08 01:25:31  5-MIN KDBQ 100725Z AUTO 23013G20KT 10SM SCT095 BKN120 16/12 A2985 1140 80 1500 230/13G20 RMK AO2 LTG DSNT S AND SW $
94908KDBQ DBQ20080610013013506/10/08 01:30:31  5-MIN KDBQ 100730Z AUTO 24016G20KT 10SM FEW055 BKN090 BKN120 16/12 A2985 1140 80 1500 240/16G20 RMK AO2 LTG DSNT S $
94908KDBQ DBQ20080610013513506/10/08 01:35:31  5-MIN KDBQ 100735Z AUTO 23014G23KT 10SM SCT060 BKN095 BKN120 16/12 A2986 1140 80 1500 230/14G23 RMK AO2 LTG DSNT S $
94908KDBQ DBQ20080610014015106/10/08 01:40:31  5-MIN KDBQ 100740Z AUTO 23014G23KT 10SM -RA BKN060 BKN095 OVC120 15/12 A2985 1140 83 1400 230/14G23 RMK AO2 LTG DSNT S RAB40 P0000 $
94908KDBQ DBQ20080610014514406/10/08 01:45:31  5-MIN KDBQ 100745Z AUTO 22016G22KT 10SM -RA BKN060 OVC090 15/13 A2985 1150 86 1500 220/16G22 RMK AO2 LTG DSNT S RAB40 P0000 $
94908KDBQ DBQ20080610015017706/10/08 01:50:31  5-MIN KDBQ 100750Z AUTO 22015G22KT 6SM +RA BR FEW035 BKN060 OVC090 14/13 A2985 1150 90 1400 220/15G22 RMK AO2 LTG DSNT SE AND S RAB40 SLP104 P0000 T01440128 $
94908KDBQ DBQ20080610015513406/10/08 01:55:31  5-MIN KDBQ 100755Z AUTO 23014G20KT 6SM -RA BR OVC060 14/13 A2985 1140 90 1400 230/14G20 RMK AO2 LTG DSNT SE P0000 $
94908KDBQ DBQ20080610020011906/10/08 02:00:31  5-MIN KDBQ 100800Z AUTO 25012KT 10SM -RA OVC070 14/12 A2987 1130 86 1400 250/12 RMK AO2 P0001 TSNO $
94908KDBQ DBQ20080610020513606/10/08 02:05:31  5-MIN KDBQ 100805Z AUTO 26008G17KT 10SM SCT065 OVC080 14/12 A2987 1120 86 1400 260/08G17 RMK AO2 RAE04 PRESRR P0001 $
94908KDBQ DBQ20080610021013506/10/08 02:10:31  5-MIN KDBQ 100810Z AUTO 25009KT 10SM FEW065 OVC080 14/12 A2988 1120 86 1400 250/09 RMK AO2 RAE04 PRESRR P0001 TSNO $
94908KDBQ DBQ20080610021512106/10/08 02:15:31  5-MIN KDBQ 100815Z AUTO 25009KT 10SM OVC080 14/12 A2988 1120 83 1400 250/09 RMK AO2 RAE04 P0001 TSNO $
94908KDBQ DBQ20080610022012106/10/08 02:20:31  5-MIN KDBQ 100820Z AUTO 24011KT 10SM OVC085 14/12 A2988 1110 86 1300 240/11 RMK AO2 RAE04 P0001 TSNO $
94908KDBQ DBQ20080610022513506/10/08 02:25:31  5-MIN KDBQ 100825Z AUTO 23011KT 10SM -RA OVC090 14/12 A2988 1110 86 1300 230/11 RMK AO2 LTG DSNT SW RAE04B25 P0001 $
94908KDBQ DBQ20080610023013506/10/08 02:30:31  5-MIN KDBQ 100830Z AUTO 23013KT 10SM -RA OVC080 14/12 A2989 1110 86 1300 230/13 RMK AO2 LTG DSNT SW RAE04B25 P0001 $
94908KDBQ DBQ20080610023513406/10/08 02:35:31  5-MIN KDBQ 100835Z AUTO 24014G18KT 10SM -RA OVC080 14/11 A2988 1110 80 1300 240/14G18 RMK AO2 RAE04B25 P0001 TSNO $
94908KDBQ DBQ20080610024013406/10/08 02:40:31  5-MIN KDBQ 100840Z AUTO 22010G18KT 10SM -RA OVC070 14/11 A2988 1110 80 1300 220/10G18 RMK AO2 RAE04B25 P0001 TSNO $
94908KDBQ DBQ20080610024514806/10/08 02:45:31  5-MIN KDBQ 100845Z AUTO 18009G16KT 10SM -RA BKN065 OVC080 14/12 A2987 1130 83 1400 170/09G16 RMK AO2 LTG DSNT SW RAE04B25 P0001 $
94908KDBQ DBQ20080610025017206/10/08 02:50:31  5-MIN KDBQ 100850Z AUTO 22012G17KT 10SM -RA BKN065 BKN080 OVC090 15/11 A2987 1130 77 1400 220/12G17 RMK AO2 RAE04B25 SLP110 P0002 60004 T01500111 51002 $
94908KDBQ DBQ20080610025512706/10/08 02:55:31  5-MIN KDBQ 100855Z AUTO 19020G25KT 10SM -RA BKN075 OVC095 14/12 A2986 1140 83 1400 190/20G25 RMK AO2 P0000 $
94908KDBQ DBQ20080610030012406/10/08 03:00:31  5-MIN KDBQ 100900Z AUTO 20018G25KT 10SM OVC085 14/12 A2986 1140 90 1300 200/18G25 RMK AO2 RAE0857 P0000 $
94908KDBQ DBQ20080610030511806/10/08 03:05:31  5-MIN KDBQ 100905Z AUTO 20017KT 10SM OVC090 14/12 A2985 1140 90 1300 190/17 RMK AO2 RAE0857 P0000 $
94908KDBQ DBQ20080610031011806/10/08 03:10:31  5-MIN KDBQ 100910Z AUTO 20017KT 10SM OVC100 14/12 A2985 1140 90 1300 190/17 RMK AO2 RAE0857 P0000 $
94908KDBQ DBQ20080610031511806/10/08 03:15:31  5-MIN KDBQ 100915Z AUTO 20016KT 10SM OVC100 14/12 A2985 1140 90 1300 200/16 RMK AO2 RAE0857 P0000 $
94908KDBQ DBQ20080610032011806/10/08 03:20:31  5-MIN KDBQ 100920Z AUTO 19017KT 10SM OVC100 14/12 A2984 1150 90 1300 190/17 RMK AO2 RAE0857 P0000 $
94908KDBQ DBQ20080610032511806/10/08 03:25:31  5-MIN KDBQ 100925Z AUTO 19015KT 10SM OVC100 14/12 A2984 1150 90 1300 190/15 RMK AO2 RAE0857 P0000 $
94908KDBQ DBQ20080610033012306/10/08 03:30:31  5-MIN KDBQ 100930Z AUTO 19016KT 10SM OVC100 14/12 A2984 1160 90 1300 190/16 RMK AO2 RAE0857 P0000 TSNO $
94908KDBQ DBQ20080610033512306/10/08 03:35:31  5-MIN KDBQ 100935Z AUTO 19016KT 10SM OVC100 14/12 A2983 1160 90 1300 190/16 RMK AO2 RAE0857 P0000 TSNO $
94908KDBQ DBQ20080610034012306/10/08 03:40:31  5-MIN KDBQ 100940Z AUTO 19013KT 10SM OVC095 14/12 A2983 1160 90 1300 190/13 RMK AO2 RAE0857 P0000 TSNO $
94908KDBQ DBQ20080610034514406/10/08 03:45:31  5-MIN KDBQ 100945Z AUTO 17016G22KT 9SM -RA FEW060 OVC090 14/12 A2981 1180 90 1400 170/16G22 RMK AO2 RAE0857B44 PRESFR P0000 $
94908KDBQ DBQ20080610035017206/10/08 03:50:31  5-MIN KDBQ 100950Z AUTO 18016G28KT 9SM -RA FEW060 OVC090 14/12 A2980 1190 83 1400 170/16G28 RMK AO2 PK WND 17028/0946 RAE0857B44 SLP090 P0000 T01440117 $
94908KDBQ DBQ20080610035513206/10/08 03:55:31  5-MIN KDBQ 100955Z AUTO 14010G28KT 10SM -RA FEW060 OVC100 14/12 A2981 1180 86 1400 140/10G28 RMK AO2 P0000 TSNO $
94908KDBQ DBQ20080610040013106/10/08 04:00:31  5-MIN KDBQ 101000Z AUTO 17012G18KT 10SM FEW060 OVC100 14/12 A2982 1170 83 1400 170/12G18 RMK AO2 RAE0958 P0000 $
94908KDBQ DBQ20080610040513106/10/08 04:05:31  5-MIN KDBQ 101005Z AUTO 17011G18KT 10SM FEW060 BKN100 14/12 A2983 1160 83 1400 170/11G18 RMK AO2 RAE0958 P0000 $
94908KDBQ DBQ20080610041013206/10/08 04:10:31  5-MIN KDBQ 101010Z AUTO 19007KT 10SM FEW060 BKN100 14/12 A2984 1160 90 1300 190/07 RMK AO2 RAE0958 PRESRR P0000 $
94908KDBQ DBQ20080610041511806/10/08 04:15:31  5-MIN KDBQ 101015Z AUTO 20006KT 10SM SCT110 14/12 A2984 1150 90 1300 200/06 RMK AO2 RAE0958 P0000 $
94908KDBQ DBQ20080610042011806/10/08 04:20:31  5-MIN KDBQ 101020Z AUTO 21007KT 10SM SCT110 14/12 A2984 1150 90 1300 200/07 RMK AO2 RAE0958 P0000 $
94908KDBQ DBQ20080610042511806/10/08 04:25:31  5-MIN KDBQ 101025Z AUTO 19006KT 10SM FEW110 14/12 A2985 1150 90 1300 190/06 RMK AO2 RAE0958 P0000 $
94908KDBQ DBQ20080610043011506/10/08 04:30:31  5-MIN KDBQ 101030Z AUTO 21006KT 10SM CLR 14/12 A2985 1150 90 1300 210/06 RMK AO2 RAE0958 P0000 $
94908KDBQ DBQ20080610043511506/10/08 04:35:31  5-MIN KDBQ 101035Z AUTO 21006KT 10SM CLR 14/12 A2985 1150 90 1300 200/06 RMK AO2 RAE0958 P0000 $
94908KDBQ DBQ20080610044011006/10/08 04:40:31  5-MIN KDBQ 101040Z 22006KT 10SM CLR 14/12 A2985 1140 90 1300 210/06 RMK AO2 RAE0958 P0000 $
94908KDBQ DBQ20080610044511006/10/08 04:45:31  5-MIN KDBQ 101045Z 22006KT 10SM CLR 14/12 A2985 1140 86 1300 220/06 RMK AO2 RAE0958 P0000 $
94908KDBQ DBQ20080610045012706/10/08 04:50:31  5-MIN KDBQ 101050Z 23006KT 10SM CLR 14/12 A2986 1140 86 1300 220/06 RMK AO2 RAE0958 SLP107 P0000 T01390117 $
94908KDBQ DBQ20080610045509606/10/08 04:55:31  5-MIN KDBQ 101055Z 22005KT 10SM CLR 14/12 A2985 1140 86 1300 220/05 RMK AO2 $
94908KDBQ DBQ20080610050009606/10/08 05:00:31  5-MIN KDBQ 101100Z 22006KT 10SM CLR 13/11 A2986 1140 86 1200 220/06 RMK AO2 $
94908KDBQ DBQ20080610050509606/10/08 05:05:31  5-MIN KDBQ 101105Z 22007KT 10SM CLR 13/11 A2986 1140 86 1200 220/07 RMK AO2 $
94908KDBQ DBQ20080610051009606/10/08 05:10:31  5-MIN KDBQ 101110Z 24006KT 10SM CLR 13/11 A2986 1130 86 1200 230/06 RMK AO2 $
94908KDBQ DBQ20080610051509606/10/08 05:15:31  5-MIN KDBQ 101115Z 24008KT 10SM CLR 13/12 A2987 1130 89 1200 240/08 RMK AO2 $
94908KDBQ DBQ20080610052009606/10/08 05:20:31  5-MIN KDBQ 101120Z 25009KT 10SM CLR 13/11 A2987 1130 86 1200 250/09 RMK AO2 $
94908KDBQ DBQ20080610052509606/10/08 05:25:31  5-MIN KDBQ 101125Z 23007KT 10SM CLR 13/12 A2987 1120 89 1200 230/07 RMK AO2 $
94908KDBQ DBQ20080610053009606/10/08 05:30:31  5-MIN KDBQ 101130Z 24008KT 10SM CLR 13/12 A2987 1120 89 1200 240/08 RMK AO2 $
94908KDBQ DBQ20080610053509606/10/08 05:35:31  5-MIN KDBQ 101135Z 24007KT 10SM CLR 13/12 A2987 1120 89 1200 240/07 RMK AO2 $
94908KDBQ DBQ20080610054009606/10/08 05:40:31  5-MIN KDBQ 101140Z 25007KT 10SM CLR 13/12 A2988 1120 93 1200 250/07 RMK AO2 $
94908KDBQ DBQ20080610054509606/10/08 05:45:31  5-MIN KDBQ 101145Z 25007KT 10SM CLR 13/12 A2988 1120 89 1200 250/07 RMK AO2 $
94908KDBQ DBQ20080610055014306/10/08 05:50:31  5-MIN KDBQ 101150Z 24008KT 10SM CLR 13/12 A2988 1110 89 1200 240/08 RMK AO2 SLP116 60004 70004 T01330117 10156 20128 51008 $
94908KDBQ DBQ20080610055509606/10/08 05:55:31  5-MIN KDBQ 101155Z 23009KT 10SM CLR 14/12 A2988 1110 86 1300 230/09 RMK AO2 $
94908KDBQ DBQ20080610060009606/10/08 06:00:31  5-MIN KDBQ 101200Z 23009KT 10SM CLR 14/12 A2988 1110 90 1300 230/09 RMK AO2 $
94908KDBQ DBQ20080610060509606/10/08 06:05:31  5-MIN KDBQ 101205Z 23009KT 10SM CLR 14/12 A2989 1110 90 1300 230/09 RMK AO2 $
94908KDBQ DBQ20080610061009606/10/08 06:10:31  5-MIN KDBQ 101210Z 23008KT 10SM CLR 14/12 A2989 1110 86 1300 230/08 RMK AO2 $
94908KDBQ DBQ20080610061509606/10/08 06:15:31  5-MIN KDBQ 101215Z 24009KT 10SM CLR 14/12 A2989 1110 86 1300 240/09 RMK AO2 $
94908KDBQ DBQ20080610062009606/10/08 06:20:31  5-MIN KDBQ 101220Z 24009KT 10SM CLR 14/12 A2989 1110 86 1300 230/09 RMK AO2 $
94908KDBQ DBQ20080610062509606/10/08 06:25:31  5-MIN KDBQ 101225Z 24008KT 10SM CLR 15/12 A2989 1110 83 1400 240/08 RMK AO2 $
94908KDBQ DBQ20080610063009606/10/08 06:30:31  5-MIN KDBQ 101230Z 25009KT 10SM CLR 15/12 A2989 1110 83 1400 250/09 RMK AO2 $
94908KDBQ DBQ20080610063509606/10/08 06:35:31  5-MIN KDBQ 101235Z 25012KT 10SM CLR 16/12 A2990 1100 80 1500 250/12 RMK AO2 $
94908KDBQ DBQ20080610064009606/10/08 06:40:31  5-MIN KDBQ 101240Z 25010KT 10SM CLR 16/12 A2989 1100 77 1500 250/10 RMK AO2 $
94908KDBQ DBQ20080610064509606/10/08 06:45:31  5-MIN KDBQ 101245Z 26010KT 10SM CLR 16/12 A2990 1100 80 1500 250/10 RMK AO2 $
94908KDBQ DBQ20080610065011306/10/08 06:50:31  5-MIN KDBQ 101250Z 26011KT 10SM CLR 16/12 A2990 1100 77 1500 260/11 RMK AO2 SLP120 T01610122 $
94908KDBQ DBQ20080610065510206/10/08 06:55:31  5-MIN KDBQ 101255Z 26015G19KT 10SM CLR 16/12 A2990 1100 75 1500 260/15G19 RMK AO2 $
94908KDBQ DBQ20080610070010206/10/08 07:00:31  5-MIN KDBQ 101300Z 26013G19KT 10SM CLR 16/12 A2990 1090 75 1500 260/13G19 RMK AO2 $
94908KDBQ DBQ20080610070510206/10/08 07:05:31  5-MIN KDBQ 101305Z 25018G21KT 10SM CLR 16/12 A2991 1090 77 1500 250/18G21 RMK AO2 $
94908KDBQ DBQ20080610071010206/10/08 07:10:31  5-MIN KDBQ 101310Z 24014G21KT 10SM CLR 16/12 A2990 1090 77 1500 240/14G21 RMK AO2 $
94908KDBQ DBQ20080610071509606/10/08 07:15:31  5-MIN KDBQ 101315Z 25013KT 10SM CLR 16/12 A2991 1090 77 1500 250/13 RMK AO2 $
94908KDBQ DBQ20080610072009606/10/08 07:20:31  5-MIN KDBQ 101320Z 24014KT 10SM CLR 16/12 A2990 1090 77 1500 240/14 RMK AO2 $
94908KDBQ DBQ20080610072509606/10/08 07:25:31  5-MIN KDBQ 101325Z 24017KT 10SM CLR 16/12 A2990 1090 77 1500 240/17 RMK AO2 $
94908KDBQ DBQ20080610073009606/10/08 07:30:31  5-MIN KDBQ 101330Z 24015KT 10SM CLR 16/12 A2991 1090 77 1500 230/15 RMK AO2 $
94908KDBQ DBQ20080610073509606/10/08 07:35:31  5-MIN KDBQ 101335Z 24011KT 10SM CLR 16/13 A2991 1090 80 1500 240/11 RMK AO2 $
94908KDBQ DBQ20080610074010206/10/08 07:40:31  5-MIN KDBQ 101340Z 24017G20KT 10SM CLR 16/12 A2991 1090 77 1500 240/17G20 RMK AO2 $
94908KDBQ DBQ20080610074509606/10/08 07:45:31  5-MIN KDBQ 101345Z 24013KT 10SM CLR 16/13 A2991 1090 80 1500 240/13 RMK AO2 $
94908KDBQ DBQ20080610075011306/10/08 07:50:31  5-MIN KDBQ 101350Z 25013KT 10SM CLR 17/13 A2991 1090 77 1600 250/13 RMK AO2 SLP125 T01670128 $
94908KDBQ DBQ20080610075509606/10/08 07:55:31  5-MIN KDBQ 101355Z 23012KT 10SM CLR 17/13 A2991 1090 80 1600 230/12 RMK AO2 $
94908KDBQ DBQ20080610080009606/10/08 08:00:31  5-MIN KDBQ 101400Z 24011KT 10SM CLR 17/13 A2991 1090 80 1600 230/11 RMK AO2 $
94908KDBQ DBQ20080610080509606/10/08 08:05:31  5-MIN KDBQ 101405Z 24013KT 10SM CLR 17/13 A2991 1090 78 1600 240/13 RMK AO2 $
94908KDBQ DBQ20080610081010206/10/08 08:10:31  5-MIN KDBQ 101410Z 24011G18KT 10SM CLR 17/13 A2991 1090 75 1600 240/11G18 RMK AO2 $
94908KDBQ DBQ20080610081510206/10/08 08:15:31  5-MIN KDBQ 101415Z 24016G19KT 10SM CLR 18/13 A2991 1080 72 1700 230/16G19 RMK AO2 $
94908KDBQ DBQ20080610082009606/10/08 08:20:31  5-MIN KDBQ 101420Z 24014KT 10SM CLR 18/13 A2992 1080 72 1700 240/14 RMK AO2 $
94908KDBQ DBQ20080610082510206/10/08 08:25:31  5-MIN KDBQ 101425Z 24012G19KT 10SM CLR 18/13 A2991 1090 72 1700 240/12G19 RMK AO2 $
94908KDBQ DBQ20080610083009606/10/08 08:30:31  5-MIN KDBQ 101430Z 24013KT 10SM CLR 18/13 A2991 1090 72 1700 240/13 RMK AO2 $
94908KDBQ DBQ20080610083509606/10/08 08:35:31  5-MIN KDBQ 101435Z 24013KT 10SM CLR 18/13 A2991 1090 72 1700 240/13 RMK AO2 $
94908KDBQ DBQ20080610084009606/10/08 08:40:31  5-MIN KDBQ 101440Z 25012KT 10SM CLR 18/13 A2992 1080 72 1800 250/12 RMK AO2 $
94908KDBQ DBQ20080610084509606/10/08 08:45:31  5-MIN KDBQ 101445Z 24011KT 10SM CLR 18/13 A2992 1080 72 1800 240/11 RMK AO2 $
94908KDBQ DBQ20080610085012506/10/08 08:50:31  5-MIN KDBQ 101450Z 24016G19KT 10SM CLR 18/13 A2992 1080 70 1800 240/16G19 RMK AO2 SLP129 T01830128 53006 $
94908KDBQ DBQ20080610085509606/10/08 08:55:31  5-MIN KDBQ 101455Z 25013KT 10SM CLR 19/12 A2992 1080 65 1800 240/13 RMK AO2 $
94908KDBQ DBQ20080610090009606/10/08 09:00:31  5-MIN KDBQ 101500Z 25016KT 10SM CLR 19/13 A2992 1080 67 1800 250/16 RMK AO2 $
94908KDBQ DBQ20080610090510206/10/08 09:05:31  5-MIN KDBQ 101505Z 26013G20KT 10SM CLR 19/13 A2992 1080 67 1800 260/13G20 RMK AO2 $
94908KDBQ DBQ20080610091009606/10/08 09:10:31  5-MIN KDBQ 101510Z 25015KT 10SM CLR 19/13 A2992 1080 65 1900 240/15 RMK AO2 $
94908KDBQ DBQ20080610091510206/10/08 09:15:31  5-MIN KDBQ 101515Z 25014G19KT 10SM CLR 19/13 A2992 1080 65 1900 240/14G19 RMK AO2 $
94908KDBQ DBQ20080610092010206/10/08 09:20:31  5-MIN KDBQ 101520Z 26013G19KT 10SM CLR 19/13 A2992 1070 67 1900 260/13G19 RMK AO2 $
94908KDBQ DBQ20080610092509606/10/08 09:25:31  5-MIN KDBQ 101525Z 24014KT 10SM CLR 20/13 A2993 1070 65 1900 240/14 RMK AO2 $
94908KDBQ DBQ20080610093009606/10/08 09:30:31  5-MIN KDBQ 101530Z 25014KT 10SM CLR 20/13 A2992 1070 65 1900 250/14 RMK AO2 $
94908KDBQ DBQ20080610093509606/10/08 09:35:31  5-MIN KDBQ 101535Z 25013KT 10SM CLR 20/13 A2993 1070 65 1900 250/13 RMK AO2 $
94908KDBQ DBQ20080610094009606/10/08 09:40:31  5-MIN KDBQ 101540Z 25012KT 10SM CLR 21/14 A2993 1070 65 2000 240/12 RMK AO2 $
94908KDBQ DBQ20080610094510206/10/08 09:45:31  5-MIN KDBQ 101545Z 24013G17KT 10SM CLR 21/14 A2993 1070 65 2000 240/13G17 RMK AO2 $
94908KDBQ DBQ20080610095011306/10/08 09:50:31  5-MIN KDBQ 101550Z 25013KT 10SM CLR 21/14 A2993 1070 65 2000 250/13 RMK AO2 SLP132 T02060139 $
94908KDBQ DBQ20080610095510206/10/08 09:55:31  5-MIN KDBQ 101555Z 24017G21KT 10SM CLR 21/14 A2993 1070 63 2100 240/17G21 RMK AO2 $
94908KDBQ DBQ20080610100010206/10/08 10:00:31  5-MIN KDBQ 101600Z 24014G21KT 10SM CLR 21/14 A2993 1070 65 2000 240/14G21 RMK AO2 $
94908KDBQ DBQ20080610100509606/10/08 10:05:31  5-MIN KDBQ 101605Z 24014KT 10SM CLR 21/14 A2993 1070 65 2000 240/14 RMK AO2 $
94908KDBQ DBQ20080610101010206/10/08 10:10:31  5-MIN KDBQ 101610Z 24016G20KT 10SM CLR 21/14 A2993 1070 63 2100 240/16G20 RMK AO2 $
94908KDBQ DBQ20080610101510206/10/08 10:15:31  5-MIN KDBQ 101615Z 24015G20KT 10SM CLR 21/14 A2993 1070 63 2100 240/15G20 RMK AO2 $
94908KDBQ DBQ20080610102010206/10/08 10:20:31  5-MIN KDBQ 101620Z 24015G21KT 10SM CLR 21/14 A2993 1070 63 2100 240/15G21 RMK AO2 $
94908KDBQ DBQ20080610102510206/10/08 10:25:31  5-MIN KDBQ 101625Z 25017G22KT 10SM CLR 21/14 A2993 1070 63 2100 250/17G22 RMK AO2 $
94908KDBQ DBQ20080610103010206/10/08 10:30:31  5-MIN KDBQ 101630Z 24016G22KT 10SM CLR 21/14 A2993 1070 63 2100 240/16G22 RMK AO2 $
94908KDBQ DBQ20080610103510206/10/08 10:35:31  5-MIN KDBQ 101635Z 25013G20KT 10SM CLR 21/14 A2993 1070 63 2100 250/13G20 RMK AO2 $
94908KDBQ DBQ20080610104009606/10/08 10:40:31  5-MIN KDBQ 101640Z 25012KT 10SM CLR 21/14 A2993 1070 63 2100 250/12 RMK AO2 $
94908KDBQ DBQ20080610104510206/10/08 10:45:31  5-MIN KDBQ 101645Z 24012G18KT 10SM CLR 22/14 A2993 1070 63 2100 240/12G18 RMK AO2 $
94908KDBQ DBQ20080610105011306/10/08 10:50:31  5-MIN KDBQ 101650Z 25013KT 10SM CLR 22/14 A2994 1060 63 2100 250/13 RMK AO2 SLP135 T02170144 $
94908KDBQ DBQ20080610105509606/10/08 10:55:31  5-MIN KDBQ 101655Z 24012KT 10SM CLR 22/14 A2994 1060 63 2100 240/12 RMK AO2 $
94908KDBQ DBQ20080610110010206/10/08 11:00:31  5-MIN KDBQ 101700Z 26014G19KT 10SM CLR 22/14 A2994 1060 61 2200 260/14G19 RMK AO2 $
94908KDBQ DBQ20080610110510206/10/08 11:05:31  5-MIN KDBQ 101705Z 27012G19KT 10SM CLR 22/14 A2994 1060 61 2100 270/12G19 RMK AO2 $
94908KDBQ DBQ20080610111010206/10/08 11:10:31  5-MIN KDBQ 101710Z 25011G19KT 10SM CLR 22/14 A2994 1060 61 2100 240/11G19 RMK AO2 $
94908KDBQ DBQ20080610111510206/10/08 11:15:31  5-MIN KDBQ 101715Z 23011G19KT 10SM CLR 22/14 A2993 1060 61 2200 230/11G19 RMK AO2 $
94908KDBQ DBQ20080610112009606/10/08 11:20:31  5-MIN KDBQ 101720Z 25011KT 10SM CLR 22/14 A2993 1070 61 2200 240/11 RMK AO2 $
94908KDBQ DBQ20080610112509606/10/08 11:25:31  5-MIN KDBQ 101725Z 24011KT 10SM CLR 22/14 A2993 1070 59 2200 240/11 RMK AO2 $
94908KDBQ DBQ20080610113009606/10/08 11:30:31  5-MIN KDBQ 101730Z 25009KT 10SM CLR 22/14 A2993 1070 59 2200 250/09 RMK AO2 $
94908KDBQ DBQ20080610113509606/10/08 11:35:31  5-MIN KDBQ 101735Z 26009KT 10SM CLR 23/14 A2993 1070 59 2300 260/09 RMK AO2 $
94908KDBQ DBQ20080610114009606/10/08 11:40:31  5-MIN KDBQ 101740Z 26010KT 10SM CLR 23/14 A2994 1060 59 2200 250/10 RMK AO2 $
94908KDBQ DBQ20080610114509606/10/08 11:45:31  5-MIN KDBQ 101745Z 25010KT 10SM CLR 23/14 A2994 1060 57 2200 250/10 RMK AO2 $
94908KDBQ DBQ20080610115013706/10/08 11:50:31  5-MIN KDBQ 101750Z 25010G18KT 10SM CLR 23/14 A2994 1060 57 2200 250/10G18 RMK AO2 SLP135 T02280139 10228 20139 51011 $
94908KDBQ DBQ20080610115510206/10/08 11:55:31  5-MIN KDBQ 101755Z 25015G21KT 10SM CLR 23/14 A2994 1060 55 2300 250/15G21 RMK AO2 $
94908KDBQ DBQ20080610120010206/10/08 12:00:31  5-MIN KDBQ 101800Z 27012G21KT 10SM CLR 23/13 A2994 1060 55 2300 270/12G21 RMK AO2 $
94908KDBQ DBQ20080610120510206/10/08 12:05:31  5-MIN KDBQ 101805Z 25014G19KT 10SM CLR 23/13 A2994 1060 55 2200 250/14G19 RMK AO2 $
94908KDBQ DBQ20080610121009606/10/08 12:10:31  5-MIN KDBQ 101810Z 25013KT 10SM CLR 23/14 A2994 1060 57 2200 250/13 RMK AO2 $
94908KDBQ DBQ20080610121509606/10/08 12:15:31  5-MIN KDBQ 101815Z 25013KT 10SM CLR 23/14 A2994 1060 55 2300 250/13 RMK AO2 $
94908KDBQ DBQ20080610122009606/10/08 12:20:31  5-MIN KDBQ 101820Z 26010KT 10SM CLR 23/14 A2994 1060 55 2300 260/10 RMK AO2 $
94908KDBQ DBQ20080610122509606/10/08 12:25:31  5-MIN KDBQ 101825Z 24011KT 10SM CLR 23/14 A2994 1060 55 2300 240/11 RMK AO2 $
94908KDBQ DBQ20080610123009606/10/08 12:30:31  5-MIN KDBQ 101830Z 24013KT 10SM CLR 24/14 A2993 1070 55 2400 240/13 RMK AO2 $
94908KDBQ DBQ20080610123510206/10/08 12:35:31  5-MIN KDBQ 101835Z 26011G17KT 10SM CLR 23/14 A2993 1070 55 2300 260/11G17 RMK AO2 $
94908KDBQ DBQ20080610124010206/10/08 12:40:31  5-MIN KDBQ 101840Z 24014G17KT 10SM CLR 24/14 A2993 1070 55 2400 240/14G17 RMK AO2 $
94908KDBQ DBQ20080610124510206/10/08 12:45:31  5-MIN KDBQ 101845Z 24011G19KT 10SM CLR 24/14 A2993 1070 53 2400 240/11G19 RMK AO2 $
94908KDBQ DBQ20080610125011906/10/08 12:50:31  5-MIN KDBQ 101850Z 25011G19KT 10SM CLR 24/14 A2993 1070 55 2400 240/11G19 RMK AO2 SLP131 T02390144 $
94908KDBQ DBQ20080610130008706/10/08 13:00:31  5-MIN KDBQ 101900Z 24010KT 24/14 A2993 1070 55 2400 240/10 RMK AO2 $
94908KDBQ DBQ20080610130508706/10/08 13:05:31  5-MIN KDBQ 101905Z 26008KT 24/14 A2993 1070 53 2400 260/08 RMK AO2 $
94908KDBQ DBQ20080610131010006/10/08 13:10:31  5-MIN KDBQ 101910Z 25012G17KT 10SM CLR 24/14 A2992 1080 53 2400 250/12G17 RMK AO2
94908KDBQ DBQ20080610131510006/10/08 13:15:31  5-MIN KDBQ 101915Z 24011G17KT 10SM CLR 24/14 A2992 1070 55 2400 240/11G17 RMK AO2
94908KDBQ DBQ20080610132009406/10/08 13:20:31  5-MIN KDBQ 101920Z 25009KT 10SM CLR 24/14 A2992 1070 53 2400 250/09 RMK AO2
94908KDBQ DBQ20080610132509406/10/08 13:25:31  5-MIN KDBQ 101925Z 24010KT 10SM CLR 24/14 A2992 1080 53 2500 240/10 RMK AO2
94908KDBQ DBQ20080610133009406/10/08 13:30:31  5-MIN KDBQ 101930Z 25010KT 10SM CLR 24/14 A2992 1080 51 2500 250/10 RMK AO2
94908KDBQ DBQ20080613013511106/13/08 01:35:31  5-MIN KDBQ 130735Z AUTO 19005KT 3SM BR BKN001 BKN006 18/17 A2985 1140 96 1800 190/05 RMK AO2
94908KDBQ DBQ20080613014012306/13/08 01:40:31  5-MIN KDBQ 130740Z AUTO 24006KT 2 1/2SM BR BKN001 OVC006 17/17 A2986 1130 100 1700 240/06 RMK AO2 PRESRR
94908KDBQ DBQ20080613014510406/13/08 01:45:31  5-MIN KDBQ 130745Z AUTO 25005KT 3SM BR BKN001 18/17 A2986 1130 96 1800 250/05 RMK AO2
94908KDBQ DBQ20080613015011106/13/08 01:50:31  5-MIN KDBQ 130750Z AUTO 23004KT 4SM BR BKN001 OVC007 18/17 A2986 1140 96 1800 230/04 RMK AO2
94908KDBQ DBQ20080613015511106/13/08 01:55:31  5-MIN KDBQ 130755Z AUTO 22004KT 6SM BR BKN001 OVC007 18/17 A2985 1140 96 1800 220/04 RMK AO2
94908KDBQ DBQ20080613020011206/13/08 02:00:31  5-MIN KDBQ 130800Z AUTO 21005KT 6SM BR SCT001 OVC007 18/18 A2986 1140 100 1800 210/05 RMK AO2
94908KDBQ DBQ20080613020511706/13/08 02:05:31  5-MIN KDBQ 130805Z AUTO 23005KT 6SM BR OVC005 18/18 A2987 1130 100 1800 230/05 RMK AO2 CIG 001V009
94908KDBQ DBQ20080613021012406/13/08 02:10:31  5-MIN KDBQ 130810Z AUTO 22005KT 6SM BR BKN004 OVC009 18/18 A2987 1130 100 1800 220/05 RMK AO2 CIG 001V007
94908KDBQ DBQ20080613021513006/13/08 02:15:31  5-MIN KDBQ 130815Z AUTO 21005KT 5SM BR BKN004 OVC007 18/18 A2988 1120 96 1800 210/05 RMK AO2 CIG 001V006 PRESRR
94908KDBQ DBQ20080613022011806/13/08 02:20:31  5-MIN KDBQ 130820Z AUTO 21005KT 5SM BR BKN002 OVC007 18/18 A2989 1110 96 1800 200/05 RMK AO2 PRESRR
94908KDBQ DBQ20080613022512306/13/08 02:25:31  5-MIN KDBQ 130825Z AUTO 19006KT 4SM BR BKN002 OVC007 18/18 A2989 1100 96 1800 190/06 RMK AO2 CIG 001V006
94908KDBQ DBQ20080613023011706/13/08 02:30:31  5-MIN KDBQ 130830Z AUTO 21006KT 3SM BR OVC002 18/18 A2990 1100 100 1800 210/06 RMK AO2 CIG 001V008
94908KDBQ DBQ20080613023510806/13/08 02:35:31  5-MIN KDBQ 130835Z AUTO 21006KT 2 1/2SM BR OVC002 19/18 A2990 1100 97 1800 210/06 RMK AO2
94908KDBQ DBQ20080613024011106/13/08 02:40:31  5-MIN KDBQ 130840Z AUTO 21006KT 3SM BR BKN002 OVC005 19/18 A2990 1100 97 1800 210/06 RMK AO2
94908KDBQ DBQ20080613024511106/13/08 02:45:31  5-MIN KDBQ 130845Z AUTO 22006KT 4SM BR BKN002 OVC005 19/18 A2990 1100 97 1800 220/06 RMK AO2
94908KDBQ DBQ20080613025014606/13/08 02:50:31  5-MIN KDBQ 130850Z AUTO 21007KT 5SM BR BKN002 OVC005 19/18 A2990 1100 97 1800 210/07 RMK AO2 CIG 001V005 SLP119 T01890183 55009
94908KDBQ DBQ20080613025513006/13/08 02:55:31  5-MIN KDBQ 130855Z AUTO 21008KT 6SM BR BKN002 BKN007 OVC013 19/18 A2991 1090 97 1800 210/08 RMK AO2 CIG 001V005
94908KDBQ DBQ20080613030012006/13/08 03:00:31  5-MIN KDBQ 130900Z AUTO 21008KT 8SM BKN002 OVC011 19/18 A2991 1090 97 1800 210/08 RMK AO2 CIG 001V007
94908KDBQ DBQ20080613030512006/13/08 03:05:31  5-MIN KDBQ 130905Z AUTO 21009KT 9SM BKN004 OVC011 19/18 A2992 1080 97 1800 210/09 RMK AO2 CIG 001V007
94908KDBQ DBQ20080613031012706/13/08 03:10:31  5-MIN KDBQ 130910Z AUTO 21009KT 9SM SCT004 BKN008 OVC011 19/18 A2991 1090 97 1800 210/09 RMK AO2 CIG 006V010
94908KDBQ DBQ20080613031511606/13/08 03:15:31  5-MIN KDBQ 130915Z AUTO 21008KT 10SM FEW004 SCT007 OVC011 19/18 A2991 1090 97 1800 210/08 RMK AO2
94908KDBQ DBQ20080613032010906/13/08 03:20:31  5-MIN KDBQ 130920Z AUTO 21008KT 10SM FEW004 OVC011 19/18 A2991 1090 97 1800 210/08 RMK AO2
94908KDBQ DBQ20080613032510906/13/08 03:25:31  5-MIN KDBQ 130925Z AUTO 21009KT 10SM SCT004 OVC011 19/18 A2991 1090 97 1800 210/09 RMK AO2
94908KDBQ DBQ20080613033010806/13/08 03:30:31  5-MIN KDBQ 130930Z AUTO 21008KT 9SM SCT004 OVC011 19/18 A2991 1090 97 1800 210/08 RMK AO2
94908KDBQ DBQ20080613033510806/13/08 03:35:31  5-MIN KDBQ 130935Z AUTO 21008KT 9SM SCT004 OVC011 19/18 A2990 1100 97 1800 210/08 RMK AO2
94908KDBQ DBQ20080613034010806/13/08 03:40:31  5-MIN KDBQ 130940Z AUTO 21006KT 9SM SCT004 OVC011 19/18 A2989 1100 97 1900 210/06 RMK AO2
94908KDBQ DBQ20080613034510806/13/08 03:45:31  5-MIN KDBQ 130945Z AUTO 21007KT 9SM SCT004 OVC011 19/18 A2989 1100 97 1900 200/07 RMK AO2
94908KDBQ DBQ20080613035012506/13/08 03:50:31  5-MIN KDBQ 130950Z AUTO 21007KT 9SM SCT004 OVC011 19/18 A2990 1100 97 1900 210/07 RMK AO2 SLP118 T01890183
94908KDBQ DBQ20080613035512006/13/08 03:55:31  5-MIN KDBQ 130955Z AUTO 21006KT 9SM FEW006 BKN011 19/18 A2989 1110 97 1900 210/06 RMK AO2 CIG 008V014
94908KDBQ DBQ20080613040011306/13/08 04:00:31  5-MIN KDBQ 131000Z AUTO 22005KT 9SM BKN009 19/18 A2989 1110 93 1900 220/05 RMK AO2 CIG 004V013
94908KDBQ DBQ20080613040510806/13/08 04:05:31  5-MIN KDBQ 131005Z AUTO 22005KT 9SM SCT005 BKN009 19/18 A2988 1110 93 1900 220/05 RMK AO2
94908KDBQ DBQ20080613041012006/13/08 04:10:31  5-MIN KDBQ 131010Z AUTO 22006KT 9SM BKN005 BKN009 19/18 A2988 1120 97 1900 220/06 RMK AO2 CIG 004V008
94908KDBQ DBQ20080613041512006/13/08 04:15:31  5-MIN KDBQ 131015Z AUTO 23005KT 8SM BKN005 BKN009 18/18 A2989 1110 96 1800 230/05 RMK AO2 CIG 003V007
94908KDBQ DBQ20080613042011306/13/08 04:20:31  5-MIN KDBQ 131020Z AUTO 21005KT 7SM BKN005 18/18 A2988 1110 96 1800 210/05 RMK AO2 CIG 003V007
94908KDBQ DBQ20080613042510406/13/08 04:25:31  5-MIN KDBQ 131025Z AUTO 20006KT 6SM BR BKN005 18/18 A2989 1110 96 1800 200/06 RMK AO2
94908KDBQ DBQ20080613043010406/13/08 04:30:31  5-MIN KDBQ 131030Z AUTO 20006KT 6SM BR OVC005 18/18 A2989 1110 96 1800 200/06 RMK AO2
94908KDBQ DBQ20080613043510406/13/08 04:35:31  5-MIN KDBQ 131035Z AUTO 19006KT 5SM BR OVC005 18/18 A2989 1100 96 1800 190/06 RMK AO2
94908KDBQ DBQ20080613044010406/13/08 04:40:31  5-MIN KDBQ 131040Z AUTO 20006KT 5SM BR OVC005 19/18 A2990 1100 97 1900 200/06 RMK AO2
94908KDBQ DBQ20080613044510406/13/08 04:45:31  5-MIN KDBQ 131045Z AUTO 22005KT 4SM BR OVC005 19/18 A2990 1100 97 1800 220/05 RMK AO2
94908KDBQ DBQ20080613045010406/13/08 04:50:31  5-MIN KDBQ 131050Z AUTO 22008KT 4SM BR OVC003 19/18 A2990 1100 97 1800 220/08 RMK AO2
94908KDBQ DBQ20080613045511606/13/08 04:55:31  5-MIN KDBQ 131055Z AUTO 23008KT 4SM BR OVC003 19/18 A2991 1090 97 1800 230/08 RMK AO2 CIG 002V006
94908KDBQ DBQ20080613050009906/13/08 05:00:31  5-MIN KDBQ 131100Z 23007KT 4SM BR OVC003 19/18 A2990 1090 97 1800 230/07 RMK AO2
94908KDBQ DBQ20080613050509906/13/08 05:05:31  5-MIN KDBQ 131105Z 23006KT 4SM BR OVC003 19/18 A2990 1100 97 1800 230/06 RMK AO2
94908KDBQ DBQ20080613051009906/13/08 05:10:31  5-MIN KDBQ 131110Z 23007KT 4SM BR OVC003 19/18 A2990 1100 97 1800 230/07 RMK AO2
94908KDBQ DBQ20080613051509906/13/08 05:15:31  5-MIN KDBQ 131115Z 23007KT 3SM BR OVC003 19/18 A2990 1090 97 1800 230/07 RMK AO2
94908KDBQ DBQ20080613052009906/13/08 05:20:31  5-MIN KDBQ 131120Z 22007KT 3SM BR OVC003 19/18 A2990 1100 97 1800 220/07 RMK AO2
94908KDBQ DBQ20080613052509906/13/08 05:25:31  5-MIN KDBQ 131125Z 23008KT 3SM BR OVC003 19/18 A2989 1100 97 1900 230/08 RMK AO2
94908KDBQ DBQ20080613053009906/13/08 05:30:31  5-MIN KDBQ 131130Z 23008KT 3SM BR OVC003 19/18 A2990 1100 97 1800 220/08 RMK AO2
94908KDBQ DBQ20080613053509906/13/08 05:35:31  5-MIN KDBQ 131135Z 22008KT 3SM BR OVC003 19/18 A2990 1100 97 1800 220/08 RMK AO2
94908KDBQ DBQ20080613054009906/13/08 05:40:31  5-MIN KDBQ 131140Z 22008KT 3SM BR OVC003 19/18 A2991 1090 97 1800 210/08 RMK AO2
94908KDBQ DBQ20080613054509906/13/08 05:45:31  5-MIN KDBQ 131145Z 21009KT 3SM BR OVC003 19/18 A2990 1090 97 1800 210/09 RMK AO2
94908KDBQ DBQ20080613055014006/13/08 05:50:31  5-MIN KDBQ 131150Z 22007KT 3SM BR OVC003 19/18 A2990 1100 97 1800 220/07 RMK AO2 SLP119 70190 T01890183 10189 20172 53020
94908KDBQ DBQ20080613055509906/13/08 05:55:31  5-MIN KDBQ 131155Z 20008KT 3SM BR OVC003 19/18 A2989 1100 97 1900 200/08 RMK AO2
94908KDBQ DBQ20080613060009906/13/08 06:00:31  5-MIN KDBQ 131200Z 21008KT 4SM BR BKN003 19/18 A2990 1100 97 1800 200/08 RMK AO2
94908KDBQ DBQ20080613060509906/13/08 06:05:31  5-MIN KDBQ 131205Z 22008KT 5SM BR BKN003 19/18 A2990 1100 97 1800 220/08 RMK AO2
94908KDBQ DBQ20080613061009906/13/08 06:10:31  5-MIN KDBQ 131210Z 23008KT 6SM BR SCT003 19/18 A2990 1100 97 1800 230/08 RMK AO2
94908KDBQ DBQ20080613061509906/13/08 06:15:31  5-MIN KDBQ 131215Z 23008KT 6SM BR FEW003 19/18 A2990 1100 97 1800 230/08 RMK AO2
94908KDBQ DBQ20080613062009906/13/08 06:20:31  5-MIN KDBQ 131220Z 23009KT 6SM BR FEW003 19/18 A2990 1100 97 1800 230/09 RMK AO2
94908KDBQ DBQ20080613062509306/13/08 06:25:31  5-MIN KDBQ 131225Z 23009KT 7SM CLR 19/18 A2990 1100 97 1800 230/09 RMK AO2
94908KDBQ DBQ20080613063009306/13/08 06:30:31  5-MIN KDBQ 131230Z 23008KT 8SM CLR 19/18 A2990 1100 97 1800 230/08 RMK AO2
94908KDBQ DBQ20080613063509306/13/08 06:35:31  5-MIN KDBQ 131235Z 24008KT 8SM CLR 19/18 A2990 1100 97 1800 240/08 RMK AO2
94908KDBQ DBQ20080613064009306/13/08 06:40:31  5-MIN KDBQ 131240Z 24010KT 9SM CLR 19/18 A2991 1090 93 1800 240/10 RMK AO2
94908KDBQ DBQ20080613064509406/13/08 06:45:31  5-MIN KDBQ 131245Z 22009KT 10SM CLR 19/18 A2991 1090 97 1800 220/09 RMK AO2
94908KDBQ DBQ20080613065011106/13/08 06:50:31  5-MIN KDBQ 131250Z 22009KT 10SM CLR 19/18 A2992 1080 97 1800 210/09 RMK AO2 SLP126 T01890183
94908KDBQ DBQ20080613065509306/13/08 06:55:31  5-MIN KDBQ 131255Z 23010KT 9SM CLR 19/18 A2992 1080 97 1800 230/10 RMK AO2
94908KDBQ DBQ20080613070009306/13/08 07:00:31  5-MIN KDBQ 131300Z 22010KT 9SM CLR 19/18 A2992 1080 93 1900 220/10 RMK AO2
94908KDBQ DBQ20080613070509306/13/08 07:05:31  5-MIN KDBQ 131305Z 21010KT 9SM CLR 19/18 A2992 1080 93 1900 210/10 RMK AO2
94908KDBQ DBQ20080613071009306/13/08 07:10:31  5-MIN KDBQ 131310Z 21010KT 9SM CLR 19/18 A2991 1090 93 1900 210/10 RMK AO2
94908KDBQ DBQ20080613071509406/13/08 07:15:31  5-MIN KDBQ 131315Z 21011KT 10SM CLR 19/18 A2992 1080 90 1900 210/11 RMK AO2
94908KDBQ DBQ20080613072009406/13/08 07:20:31  5-MIN KDBQ 131320Z 21011KT 10SM CLR 19/18 A2992 1080 90 1900 210/11 RMK AO2
94908KDBQ DBQ20080613072509406/13/08 07:25:31  5-MIN KDBQ 131325Z 21011KT 10SM CLR 19/18 A2992 1080 93 1900 210/11 RMK AO2
94908KDBQ DBQ20080613073009406/13/08 07:30:31  5-MIN KDBQ 131330Z 21010KT 10SM CLR 19/18 A2992 1080 93 1900 210/10 RMK AO2
94908KDBQ DBQ20080613073509406/13/08 07:35:31  5-MIN KDBQ 131335Z 21010KT 10SM CLR 19/18 A2992 1080 90 1900 210/10 RMK AO2
94908KDBQ DBQ20080613074009406/13/08 07:40:31  5-MIN KDBQ 131340Z 23009KT 10SM CLR 19/18 A2992 1080 90 1900 230/09 RMK AO2
94908KDBQ DBQ20080613074509406/13/08 07:45:31  5-MIN KDBQ 131345Z 22010KT 10SM CLR 19/18 A2992 1080 90 1900 220/10 RMK AO2
94908KDBQ DBQ20080613075011106/13/08 07:50:31  5-MIN KDBQ 131350Z 23009KT 10SM CLR 19/18 A2992 1080 90 1900 230/09 RMK AO2 SLP126 T01940178
94908KDBQ DBQ20080613075509406/13/08 07:55:31  5-MIN KDBQ 131355Z 23011KT 10SM CLR 19/18 A2992 1080 90 1900 230/11 RMK AO2
94908KDBQ DBQ20080613080009406/13/08 08:00:31  5-MIN KDBQ 131400Z 24010KT 10SM CLR 20/18 A2992 1080 87 2000 240/10 RMK AO2
94908KDBQ DBQ20080613080509406/13/08 08:05:31  5-MIN KDBQ 131405Z 24008KT 10SM CLR 20/18 A2991 1080 90 2000 230/08 RMK AO2
94908KDBQ DBQ20080613081009406/13/08 08:10:31  5-MIN KDBQ 131410Z 25010KT 10SM CLR 20/18 A2991 1080 87 2000 250/10 RMK AO2
94908KDBQ DBQ20080613081509406/13/08 08:15:31  5-MIN KDBQ 131415Z 25009KT 10SM CLR 20/18 A2992 1080 87 2000 240/09 RMK AO2
94908KDBQ DBQ20080613082009406/13/08 08:20:31  5-MIN KDBQ 131420Z 25009KT 10SM CLR 20/18 A2992 1080 87 2000 250/09 RMK AO2
94908KDBQ DBQ20080613082509406/13/08 08:25:31  5-MIN KDBQ 131425Z 25012KT 10SM CLR 20/18 A2991 1090 87 2000 250/12 RMK AO2
94908KDBQ DBQ20080613083009406/13/08 08:30:31  5-MIN KDBQ 131430Z 25012KT 10SM CLR 20/18 A2992 1080 87 2000 250/12 RMK AO2
94908KDBQ DBQ20080613083509406/13/08 08:35:31  5-MIN KDBQ 131435Z 25010KT 10SM CLR 20/18 A2992 1080 90 2000 250/10 RMK AO2
94908KDBQ DBQ20080613084009406/13/08 08:40:31  5-MIN KDBQ 131440Z 25010KT 10SM CLR 21/18 A2992 1080 87 2000 250/10 RMK AO2
94908KDBQ DBQ20080613084509406/13/08 08:45:31  5-MIN KDBQ 131445Z 26011KT 10SM CLR 21/18 A2992 1080 87 2000 250/11 RMK AO2
94908KDBQ DBQ20080613085011706/13/08 08:50:31  5-MIN KDBQ 131450Z 26009KT 10SM CLR 21/18 A2992 1080 87 2000 260/09 RMK AO2 SLP126 T02060183 58002
94908KDBQ DBQ20080613085509406/13/08 08:55:31  5-MIN KDBQ 131455Z 26011KT 10SM CLR 21/18 A2992 1080 84 2000 260/11 RMK AO2
94908KDBQ DBQ20080613090009406/13/08 09:00:31  5-MIN KDBQ 131500Z 26009KT 10SM CLR 21/18 A2991 1080 84 2000 260/09 RMK AO2
94908KDBQ DBQ20080613090509406/13/08 09:05:31  5-MIN KDBQ 131505Z 27008KT 10SM CLR 21/18 A2991 1080 87 2000 270/08 RMK AO2
94908KDBQ DBQ20080613091009406/13/08 09:10:31  5-MIN KDBQ 131510Z 27009KT 10SM CLR 21/18 A2992 1080 87 2000 270/09 RMK AO2
94908KDBQ DBQ20080613091509706/13/08 09:15:31  5-MIN KDBQ 131515Z 27010KT 10SM FEW011 21/18 A2992 1080 84 2000 270/10 RMK AO2
94908KDBQ DBQ20080613092009706/13/08 09:20:31  5-MIN KDBQ 131520Z 27011KT 10SM FEW011 21/18 A2992 1080 84 2000 260/11 RMK AO2
94908KDBQ DBQ20080613092509706/13/08 09:25:31  5-MIN KDBQ 131525Z 26009KT 10SM FEW011 21/18 A2992 1080 84 2000 260/09 RMK AO2
94908KDBQ DBQ20080613093009706/13/08 09:30:31  5-MIN KDBQ 131530Z 27008KT 10SM FEW011 21/18 A2992 1080 84 2000 270/08 RMK AO2
94908KDBQ DBQ20080613093509706/13/08 09:35:31  5-MIN KDBQ 131535Z 28009KT 10SM FEW011 21/18 A2992 1080 81 2100 280/09 RMK AO2
94908KDBQ DBQ20080613094009706/13/08 09:40:31  5-MIN KDBQ 131540Z 28008KT 10SM SCT013 21/18 A2992 1070 81 2100 280/08 RMK AO2
94908KDBQ DBQ20080613094509706/13/08 09:45:31  5-MIN KDBQ 131545Z 27008KT 10SM SCT013 21/18 A2992 1070 81 2100 270/08 RMK AO2
94908KDBQ DBQ20080613095011406/13/08 09:50:31  5-MIN KDBQ 131550Z 27009KT 10SM SCT013 21/18 A2993 1070 81 2100 270/09 RMK AO2 SLP130 T02110178
94908KDBQ DBQ20080613095509706/13/08 09:55:31  5-MIN KDBQ 131555Z 27008KT 10SM FEW013 21/18 A2993 1070 81 2100 270/08 RMK AO2
94908KDBQ DBQ20080613100009706/13/08 10:00:31  5-MIN KDBQ 131600Z 27009KT 10SM FEW013 21/18 A2993 1070 81 2100 270/09 RMK AO2
94908KDBQ DBQ20080613100509706/13/08 10:05:31  5-MIN KDBQ 131605Z 28009KT 10SM FEW013 21/17 A2993 1070 75 2100 270/09 RMK AO2
94908KDBQ DBQ20080613101009706/13/08 10:10:31  5-MIN KDBQ 131610Z 27008KT 10SM FEW015 22/17 A2993 1070 75 2100 270/08 RMK AO2
94908KDBQ DBQ20080613101509406/13/08 10:15:31  5-MIN KDBQ 131615Z 28010KT 10SM CLR 22/16 A2994 1060 70 2100 280/10 RMK AO2
94908KDBQ DBQ20080613102009406/13/08 10:20:31  5-MIN KDBQ 131620Z 27009KT 10SM CLR 22/16 A2995 1060 68 2100 270/09 RMK AO2
94908KDBQ DBQ20080613102509406/13/08 10:25:31  5-MIN KDBQ 131625Z 27008KT 10SM CLR 22/16 A2995 1050 70 2100 270/08 RMK AO2
94908KDBQ DBQ20080613103009406/13/08 10:30:31  5-MIN KDBQ 131630Z 27009KT 10SM CLR 22/16 A2994 1060 70 2100 270/09 RMK AO2
94908KDBQ DBQ20080613103509406/13/08 10:35:31  5-MIN KDBQ 131635Z 28009KT 10SM CLR 22/16 A2994 1060 70 2100 280/09 RMK AO2
94908KDBQ DBQ20080613104009406/13/08 10:40:31  5-MIN KDBQ 131640Z 29008KT 10SM CLR 22/16 A2994 1060 68 2200 290/08 RMK AO2
94908KDBQ DBQ20080613104509406/13/08 10:45:31  5-MIN KDBQ 131645Z 28009KT 10SM CLR 22/15 A2994 1060 65 2100 280/09 RMK AO2
94908KDBQ DBQ20080613105011106/13/08 10:50:31  5-MIN KDBQ 131650Z 28010KT 10SM CLR 22/14 A2994 1060 59 2200 280/10 RMK AO2 SLP135 T02220139
94908KDBQ DBQ20080613105509406/13/08 10:55:31  5-MIN KDBQ 131655Z 28010KT 10SM CLR 22/14 A2995 1060 59 2200 280/10 RMK AO2
94908KDBQ DBQ20080613110009406/13/08 11:00:31  5-MIN KDBQ 131700Z 28010KT 10SM CLR 23/14 A2994 1060 57 2200 280/10 RMK AO2
94908KDBQ DBQ20080613110509406/13/08 11:05:31  5-MIN KDBQ 131705Z 28010KT 10SM CLR 22/13 A2994 1060 56 2200 280/10 RMK AO2
94908KDBQ DBQ20080613111009406/13/08 11:10:31  5-MIN KDBQ 131710Z 27010KT 10SM CLR 22/13 A2994 1060 54 2200 270/10 RMK AO2
94908KDBQ DBQ20080613111509406/13/08 11:15:31  5-MIN KDBQ 131715Z 28008KT 10SM CLR 22/12 A2994 1060 54 2100 280/08 RMK AO2
94908KDBQ DBQ20080613112009406/13/08 11:20:31  5-MIN KDBQ 131720Z 28009KT 10SM CLR 22/12 A2994 1060 54 2100 280/09 RMK AO2
94908KDBQ DBQ20080613112509406/13/08 11:25:31  5-MIN KDBQ 131725Z 29008KT 10SM CLR 22/12 A2994 1060 54 2100 290/08 RMK AO2
94908KDBQ DBQ20080613113009406/13/08 11:30:31  5-MIN KDBQ 131730Z 30007KT 10SM CLR 22/12 A2994 1060 52 2200 300/07 RMK AO2
94908KDBQ DBQ20080613113509406/13/08 11:35:31  5-MIN KDBQ 131735Z 30008KT 10SM CLR 22/12 A2993 1070 52 2200 300/08 RMK AO2
94908KDBQ DBQ20080613114009406/13/08 11:40:31  5-MIN KDBQ 131740Z 30009KT 10SM CLR 23/13 A2993 1070 53 2300 300/09 RMK AO2
94908KDBQ DBQ20080613114509406/13/08 11:45:31  5-MIN KDBQ 131745Z 29010KT 10SM CLR 23/12 A2993 1070 51 2300 290/10 RMK AO2
94908KDBQ DBQ20080613115012906/13/08 11:50:31  5-MIN KDBQ 131750Z 29013KT 10SM CLR 22/12 A2993 1070 51 2200 290/13 RMK AO2 SLP132 T02220117 10228 20189 50007
94908KDBQ DBQ20080613115509406/13/08 11:55:31  5-MIN KDBQ 131755Z 28012KT 10SM CLR 23/11 A2993 1070 47 2300 280/12 RMK AO2
94908KDBQ DBQ20080613120009406/13/08 12:00:31  5-MIN KDBQ 131800Z 28010KT 10SM CLR 23/12 A2993 1070 49 2300 280/10 RMK AO2
94908KDBQ DBQ20080613120509406/13/08 12:05:31  5-MIN KDBQ 131805Z 29008KT 10SM CLR 23/12 A2992 1080 51 2300 290/08 RMK AO2
94908KDBQ DBQ20080613121009406/13/08 12:10:31  5-MIN KDBQ 131810Z 29010KT 10SM CLR 23/12 A2992 1080 49 2300 290/10 RMK AO2
94908KDBQ DBQ20080613121509406/13/08 12:15:31  5-MIN KDBQ 131815Z 29012KT 10SM CLR 23/12 A2992 1080 47 2300 290/12 RMK AO2
94908KDBQ DBQ20080613122009406/13/08 12:20:31  5-MIN KDBQ 131820Z 31009KT 10SM CLR 23/12 A2992 1080 47 2300 310/09 RMK AO2
94908KDBQ DBQ20080613122510006/13/08 12:25:31  5-MIN KDBQ 131825Z 30009G15KT 10SM CLR 23/12 A2992 1080 47 2300 300/09G15 RMK AO2
94908KDBQ DBQ20080613123009406/13/08 12:30:31  5-MIN KDBQ 131830Z 30008KT 10SM CLR 23/12 A2992 1080 49 2300 300/08 RMK AO2
94908KDBQ DBQ20080613123510006/13/08 12:35:31  5-MIN KDBQ 131835Z 30011G16KT 10SM CLR 23/12 A2992 1080 47 2300 300/11G16 RMK AO2
94908KDBQ DBQ20080613124009406/13/08 12:40:31  5-MIN KDBQ 131840Z 29011KT 10SM CLR 24/12 A2992 1080 47 2400 290/11 RMK AO2
94908KDBQ DBQ20080613124509406/13/08 12:45:31  5-MIN KDBQ 131845Z 28013KT 10SM CLR 24/11 A2992 1080 44 2400 280/13 RMK AO2
94908KDBQ DBQ20080613125011106/13/08 12:50:31  5-MIN KDBQ 131850Z 28009KT 10SM CLR 24/11 A2992 1080 44 2400 270/09 RMK AO2 SLP127 T02390111
94908KDBQ DBQ20080613125509406/13/08 12:55:31  5-MIN KDBQ 131855Z 28009KT 10SM CLR 24/12 A2992 1080 47 2400 280/09 RMK AO2
94908KDBQ DBQ20080613130010006/13/08 13:00:31  5-MIN KDBQ 131900Z 28009G17KT 10SM CLR 24/12 A2992 1080 47 2400 280/09G17 RMK AO2
94908KDBQ DBQ20080613130509406/13/08 13:05:31  5-MIN KDBQ 131905Z 27010KT 10SM CLR 24/12 A2992 1080 46 2400 270/10 RMK AO2
94908KDBQ DBQ20080613131009406/13/08 13:10:31  5-MIN KDBQ 131910Z 28012KT 10SM CLR 24/12 A2992 1080 46 2500 280/12 RMK AO2
94908KDBQ DBQ20080613131509406/13/08 13:15:31  5-MIN KDBQ 131915Z 29010KT 10SM CLR 24/12 A2992 1080 46 2400 290/10 RMK AO2
94908KDBQ DBQ20080613132010006/13/08 13:20:31  5-MIN KDBQ 131920Z 28012G17KT 10SM CLR 23/12 A2992 1080 47 2300 280/12G17 RMK AO2
94908KDBQ DBQ20080613132510006/13/08 13:25:31  5-MIN KDBQ 131925Z 29013G20KT 10SM CLR 23/11 A2991 1080 45 2300 290/13G20 RMK AO2
94908KDBQ DBQ20080613133010006/13/08 13:30:31  5-MIN KDBQ 131930Z 29010G20KT 10SM CLR 24/10 A2991 1090 41 2400 290/10G20 RMK AO2
94908KDBQ DBQ20080613133510006/13/08 13:35:31  5-MIN KDBQ 131935Z 27014G17KT 10SM CLR 24/11 A2991 1090 42 2500 270/14G17 RMK AO2
94908KDBQ DBQ20080613134010006/13/08 13:40:31  5-MIN KDBQ 131940Z 27014G19KT 10SM CLR 24/09 A2991 1090 39 2400 270/14G19 RMK AO2
94908KDBQ DBQ20080613134510006/13/08 13:45:31  5-MIN KDBQ 131945Z 29012G19KT 10SM CLR 24/10 A2991 1090 41 2400 290/12G19 RMK AO2
94908KDBQ DBQ20080613135011106/13/08 13:50:31  5-MIN KDBQ 131950Z 28013KT 10SM CLR 24/10 A2991 1090 41 2400 280/13 RMK AO2 SLP124 T02390100
94908KDBQ DBQ20080613135510006/13/08 13:55:31  5-MIN KDBQ 131955Z 28016G20KT 10SM CLR 24/11 A2991 1090 42 2500 280/16G20 RMK AO2
94908KDBQ DBQ20080613140010006/13/08 14:00:31  5-MIN KDBQ 132000Z 29012G20KT 10SM CLR 24/11 A2991 1090 42 2400 290/12G20 RMK AO2
94908KDBQ DBQ20080613140510006/13/08 14:05:31  5-MIN KDBQ 132005Z 28012G19KT 10SM CLR 24/11 A2991 1090 42 2400 280/12G19 RMK AO2
94908KDBQ DBQ20080613141010006/13/08 14:10:31  5-MIN KDBQ 132010Z 30013G19KT 10SM CLR 24/11 A2991 1090 44 2400 300/13G19 RMK AO2
94908KDBQ DBQ20080613141510006/13/08 14:15:31  5-MIN KDBQ 132015Z 29013G20KT 10SM CLR 24/11 A2991 1090 41 2500 290/13G20 RMK AO2
94908KDBQ DBQ20080613142010006/13/08 14:20:31  5-MIN KDBQ 132020Z 30012G20KT 10SM CLR 24/11 A2991 1090 44 2400 300/12G20 RMK AO2
94908KDBQ DBQ20080613142510006/13/08 14:25:31  5-MIN KDBQ 132025Z 30015G19KT 10SM CLR 24/11 A2991 1090 44 2400 300/15G19 RMK AO2
94908KDBQ DBQ20080613143010006/13/08 14:30:31  5-MIN KDBQ 132030Z 29014G21KT 10SM CLR 24/11 A2991 1090 42 2400 290/14G21 RMK AO2
94908KDBQ DBQ20080613143510006/13/08 14:35:31  5-MIN KDBQ 132035Z 28014G21KT 10SM CLR 24/11 A2991 1090 42 2400 280/14G21 RMK AO2
94908KDBQ DBQ20080613144010006/13/08 14:40:31  5-MIN KDBQ 132040Z 28014G20KT 10SM CLR 24/11 A2990 1090 44 2400 280/14G20 RMK AO2
94908KDBQ DBQ20080613144510006/13/08 14:45:31  5-MIN KDBQ 132045Z 28014G20KT 10SM CLR 24/11 A2991 1090 42 2400 280/14G20 RMK AO2
94908KDBQ DBQ20080613145012306/13/08 14:50:31  5-MIN KDBQ 132050Z 26012G20KT 10SM CLR 24/11 A2991 1090 42 2400 260/12G20 RMK AO2 SLP122 T02390106 50005
94908KDBQ DBQ20080613145509406/13/08 14:55:31  5-MIN KDBQ 132055Z 28012KT 10SM CLR 24/11 A2991 1090 42 2400 280/12 RMK AO2
94908KDBQ DBQ20080613150009406/13/08 15:00:31  5-MIN KDBQ 132100Z 28012KT 10SM CLR 24/11 A2990 1100 44 2400 280/12 RMK AO2
94908KDBQ DBQ20080613150509406/13/08 15:05:31  5-MIN KDBQ 132105Z 28011KT 10SM CLR 24/11 A2990 1090 42 2400 280/11 RMK AO2
94908KDBQ DBQ20080613151010006/13/08 15:10:31  5-MIN KDBQ 132110Z 28012G18KT 10SM CLR 24/11 A2990 1100 42 2500 280/12G18 RMK AO2
94908KDBQ DBQ20080613151510006/13/08 15:15:31  5-MIN KDBQ 132115Z 27011G18KT 10SM CLR 24/11 A2990 1090 42 2400 270/11G18 RMK AO2
94908KDBQ DBQ20080613152009406/13/08 15:20:31  5-MIN KDBQ 132120Z 27010KT 10SM CLR 24/11 A2991 1090 44 2400 270/10 RMK AO2
94908KDBQ DBQ20080613152510006/13/08 15:25:31  5-MIN KDBQ 132125Z 28015G19KT 10SM CLR 24/11 A2990 1100 42 2500 280/15G19 RMK AO2
94908KDBQ DBQ20080613153010006/13/08 15:30:31  5-MIN KDBQ 132130Z 29011G19KT 10SM CLR 24/12 A2990 1100 44 2500 290/11G19 RMK AO2
94908KDBQ DBQ20080613153510006/13/08 15:35:31  5-MIN KDBQ 132135Z 28015G20KT 10SM CLR 24/11 A2990 1100 42 2500 280/15G20 RMK AO2
94908KDBQ DBQ20080613154010006/13/08 15:40:31  5-MIN KDBQ 132140Z 28015G20KT 10SM CLR 24/10 A2989 1100 41 2400 270/15G20 RMK AO2
94908KDBQ DBQ20080613154510006/13/08 15:45:31  5-MIN KDBQ 132145Z 28016G21KT 10SM CLR 24/10 A2990 1100 41 2400 280/16G21 RMK AO2
94908KDBQ DBQ20080613155011706/13/08 15:50:31  5-MIN KDBQ 132150Z 27013G21KT 10SM CLR 24/11 A2990 1100 44 2400 270/13G21 RMK AO2 SLP119 T02390111
94908KDBQ DBQ20080613155510006/13/08 15:55:31  5-MIN KDBQ 132155Z 27014G20KT 10SM CLR 24/11 A2990 1100 44 2400 270/14G20 RMK AO2
94908KDBQ DBQ20080613160010006/13/08 16:00:31  5-MIN KDBQ 132200Z 27012G19KT 10SM CLR 24/11 A2990 1100 44 2400 270/12G19 RMK AO2
94908KDBQ DBQ20080613160509406/13/08 16:05:31  5-MIN KDBQ 132205Z 28014KT 10SM CLR 24/11 A2990 1090 44 2400 280/14 RMK AO2
94908KDBQ DBQ20080613161009406/13/08 16:10:31  5-MIN KDBQ 132210Z 29012KT 10SM CLR 24/11 A2990 1090 44 2400 290/12 RMK AO2
94908KDBQ DBQ20080613161509406/13/08 16:15:31  5-MIN KDBQ 132215Z 29015KT 10SM CLR 24/11 A2990 1090 44 2400 290/15 RMK AO2
94908KDBQ DBQ20080613162009406/13/08 16:20:31  5-MIN KDBQ 132220Z 28012KT 10SM CLR 24/11 A2990 1090 44 2400 280/12 RMK AO2
94908KDBQ DBQ20080613162510006/13/08 16:25:31  5-MIN KDBQ 132225Z 28010G19KT 10SM CLR 24/11 A2990 1090 44 2400 280/10G19 RMK AO2
94908KDBQ DBQ20080613163010006/13/08 16:30:31  5-MIN KDBQ 132230Z 29013G19KT 10SM CLR 24/12 A2991 1090 46 2400 280/13G19 RMK AO2
94908KDBQ DBQ20080613163510006/13/08 16:35:31  5-MIN KDBQ 132235Z 28013G19KT 10SM CLR 23/11 A2991 1090 45 2300 280/13G19 RMK AO2
94908KDBQ DBQ20080613164009406/13/08 16:40:31  5-MIN KDBQ 132240Z 28011KT 10SM CLR 23/11 A2990 1090 45 2300 280/11 RMK AO2
94908KDBQ DBQ20080613164510006/13/08 16:45:31  5-MIN KDBQ 132245Z 29011G17KT 10SM CLR 24/12 A2990 1090 46 2400 290/11G17 RMK AO2
94908KDBQ DBQ20080613165011706/13/08 16:50:31  5-MIN KDBQ 132250Z 29010G17KT 10SM CLR 23/12 A2990 1090 47 2300 280/10G17 RMK AO2 SLP122 T02330117
94908KDBQ DBQ20080613165509406/13/08 16:55:31  5-MIN KDBQ 132255Z 28012KT 10SM CLR 23/11 A2990 1090 45 2300 280/12 RMK AO2
94908KDBQ DBQ20080613170009406/13/08 17:00:31  5-MIN KDBQ 132300Z 29011KT 10SM CLR 23/11 A2991 1090 45 2300 290/11 RMK AO2
94908KDBQ DBQ20080613170509406/13/08 17:05:31  5-MIN KDBQ 132305Z 29010KT 10SM CLR 23/11 A2991 1090 45 2300 290/10 RMK AO2
94908KDBQ DBQ20080613171010006/13/08 17:10:31  5-MIN KDBQ 132310Z 29013G19KT 10SM CLR 23/11 A2991 1090 45 2300 290/13G19 RMK AO2
94908KDBQ DBQ20080613171510006/13/08 17:15:31  5-MIN KDBQ 132315Z 28011G19KT 10SM CLR 23/11 A2991 1090 45 2300 280/11G19 RMK AO2
94908KDBQ DBQ20080613172009406/13/08 17:20:31  5-MIN KDBQ 132320Z 28013KT 10SM CLR 23/11 A2991 1090 45 2300 280/13 RMK AO2
94908KDBQ DBQ20080613172510006/13/08 17:25:31  5-MIN KDBQ 132325Z 27013G21KT 10SM CLR 23/10 A2991 1080 44 2300 270/13G21 RMK AO2
94908KDBQ DBQ20080613173010006/13/08 17:30:31  5-MIN KDBQ 132330Z 27014G21KT 10SM CLR 23/11 A2992 1080 45 2300 260/14G21 RMK AO2
94908KDBQ DBQ20080613173510006/13/08 17:35:31  5-MIN KDBQ 132335Z 28014G19KT 10SM CLR 23/09 A2992 1080 42 2300 280/14G19 RMK AO2
94908KDBQ DBQ20080613174009406/13/08 17:40:31  5-MIN KDBQ 132340Z 28012KT 10SM CLR 23/09 A2992 1080 42 2300 280/12 RMK AO2
94908KDBQ DBQ20080613174509406/13/08 17:45:31  5-MIN KDBQ 132345Z 27012KT 10SM CLR 22/10 A2992 1080 45 2200 270/12 RMK AO2
94908KDBQ DBQ20080613175013506/13/08 17:50:31  5-MIN KDBQ 132350Z 28013G19KT 10SM CLR 22/10 A2992 1080 45 2200 280/13G19 RMK AO2 SLP127 T02220100 10244 20222 56009
94908KDBQ DBQ20080613175510006/13/08 17:55:31  5-MIN KDBQ 132355Z 28011G19KT 10SM CLR 22/11 A2992 1080 47 2200 280/11G19 RMK AO2
94908KDBQ DBQ20080613180009406/13/08 18:00:31  5-MIN KDBQ 140000Z 28010KT 10SM CLR 22/11 A2992 1080 47 2200 280/10 RMK AO2
94908KDBQ DBQ20080613180509406/13/08 18:05:31  5-MIN KDBQ 140005Z 28009KT 10SM CLR 22/11 A2992 1080 49 2200 280/09 RMK AO2
94908KDBQ DBQ20080613181009406/13/08 18:10:31  5-MIN KDBQ 140010Z 27007KT 10SM CLR 22/11 A2992 1080 49 2200 270/07 RMK AO2
94908KDBQ DBQ20080613181509406/13/08 18:15:31  5-MIN KDBQ 140015Z 27008KT 10SM CLR 22/12 A2992 1080 52 2100 270/08 RMK AO2
94908KDBQ DBQ20080613182009406/13/08 18:20:31  5-MIN KDBQ 140020Z 28007KT 10SM CLR 22/12 A2992 1080 52 2100 270/07 RMK AO2
94908KDBQ DBQ20080613182509406/13/08 18:25:31  5-MIN KDBQ 140025Z 28008KT 10SM CLR 22/12 A2992 1080 52 2100 270/08 RMK AO2
94908KDBQ DBQ20080613183009406/13/08 18:30:31  5-MIN KDBQ 140030Z 27006KT 10SM CLR 22/12 A2992 1080 52 2100 270/06 RMK AO2
94908KDBQ DBQ20080613183509406/13/08 18:35:31  5-MIN KDBQ 140035Z 27006KT 10SM CLR 21/12 A2992 1080 56 2100 270/06 RMK AO2
94908KDBQ DBQ20080613184009406/13/08 18:40:31  5-MIN KDBQ 140040Z 27007KT 10SM CLR 21/12 A2993 1070 54 2100 270/07 RMK AO2
94908KDBQ DBQ20080613184509906/13/08 18:45:31  5-MIN KDBQ 140045Z AUTO 27006KT 10SM CLR 21/12 A2993 1070 54 2100 270/06 RMK AO2
94908KDBQ DBQ20080613185011606/13/08 18:50:31  5-MIN KDBQ 140050Z AUTO 27006KT 10SM CLR 21/12 A2994 1060 58 2000 270/06 RMK AO2 SLP133 T02060122
94908KDBQ DBQ20080613185509906/13/08 18:55:31  5-MIN KDBQ 140055Z AUTO 26006KT 10SM CLR 21/12 A2993 1070 58 2000 260/06 RMK AO2
94908KDBQ DBQ20080613190009906/13/08 19:00:31  5-MIN KDBQ 140100Z AUTO 25005KT 10SM CLR 20/12 A2993 1070 60 1900 250/05 RMK AO2
94908KDBQ DBQ20080613190509906/13/08 19:05:31  5-MIN KDBQ 140105Z AUTO 26005KT 10SM CLR 20/13 A2994 1060 65 1900 250/05 RMK AO2
94908KDBQ DBQ20080613191009906/13/08 19:10:31  5-MIN KDBQ 140110Z AUTO 26005KT 10SM CLR 19/13 A2994 1060 67 1900 260/05 RMK AO2
94908KDBQ DBQ20080613191509906/13/08 19:15:31  5-MIN KDBQ 140115Z AUTO 26006KT 10SM CLR 19/13 A2994 1060 65 1900 260/06 RMK AO2
94908KDBQ DBQ20080613192009906/13/08 19:20:31  5-MIN KDBQ 140120Z AUTO 25006KT 10SM CLR 19/13 A2994 1060 67 1800 250/06 RMK AO2
94908KDBQ DBQ20080613192509906/13/08 19:25:31  5-MIN KDBQ 140125Z AUTO 25006KT 10SM CLR 19/13 A2994 1060 67 1800 250/06 RMK AO2
94908KDBQ DBQ20080613193009906/13/08 19:30:31  5-MIN KDBQ 140130Z AUTO 25006KT 10SM CLR 18/13 A2994 1060 70 1700 250/06 RMK AO2
94908KDBQ DBQ20080613193509906/13/08 19:35:31  5-MIN KDBQ 140135Z AUTO 26006KT 10SM CLR 18/13 A2994 1060 70 1700 260/06 RMK AO2
94908KDBQ DBQ20080613194009906/13/08 19:40:31  5-MIN KDBQ 140140Z AUTO 26007KT 10SM CLR 18/13 A2995 1050 70 1700 260/07 RMK AO2
94908KDBQ DBQ20080613194509906/13/08 19:45:31  5-MIN KDBQ 140145Z AUTO 26006KT 10SM CLR 18/12 A2994 1060 67 1700 260/06 RMK AO2
94908KDBQ DBQ20080613195011606/13/08 19:50:31  5-MIN KDBQ 140150Z AUTO 26006KT 10SM CLR 18/12 A2994 1060 67 1700 260/06 RMK AO2 SLP137 T01830122
94908KDBQ DBQ20080613195509906/13/08 19:55:31  5-MIN KDBQ 140155Z AUTO 26006KT 10SM CLR 18/12 A2995 1050 67 1700 260/06 RMK AO2
94908KDBQ DBQ20080613200009906/13/08 20:00:31  5-MIN KDBQ 140200Z AUTO 26006KT 10SM CLR 18/12 A2995 1050 67 1700 260/06 RMK AO2
94908KDBQ DBQ20080613200509906/13/08 20:05:31  5-MIN KDBQ 140205Z AUTO 26006KT 10SM CLR 18/12 A2995 1050 69 1700 260/06 RMK AO2
94908KDBQ DBQ20080613201009906/13/08 20:10:31  5-MIN KDBQ 140210Z AUTO 26006KT 10SM CLR 18/12 A2995 1050 69 1700 250/06 RMK AO2
94908KDBQ DBQ20080613201509906/13/08 20:15:31  5-MIN KDBQ 140215Z AUTO 26005KT 10SM CLR 18/12 A2995 1050 69 1700 250/05 RMK AO2
94908KDBQ DBQ20080613202009906/13/08 20:20:31  5-MIN KDBQ 140220Z AUTO 25005KT 10SM CLR 17/12 A2995 1050 72 1600 250/05 RMK AO2
94908KDBQ DBQ20080613202509906/13/08 20:25:31  5-MIN KDBQ 140225Z AUTO 23003KT 10SM CLR 18/12 A2996 1040 69 1700 230/03 RMK AO2
94908KDBQ DBQ20080613203009906/13/08 20:30:31  5-MIN KDBQ 140230Z AUTO 00000KT 10SM CLR 18/13 A2996 1050 72 1700 000/00 RMK AO2
94908KDBQ DBQ20080613203509906/13/08 20:35:31  5-MIN KDBQ 140235Z AUTO 20003KT 10SM CLR 17/13 A2996 1040 75 1600 200/03 RMK AO2
94908KDBQ DBQ20080613204009906/13/08 20:40:31  5-MIN KDBQ 140240Z AUTO 20004KT 10SM CLR 17/12 A2996 1050 72 1600 200/04 RMK AO2
94908KDBQ DBQ20080613204509906/13/08 20:45:31  5-MIN KDBQ 140245Z AUTO 21004KT 10SM CLR 17/12 A2996 1040 72 1600 210/04 RMK AO2
94908KDBQ DBQ20080613205012206/13/08 20:50:31  5-MIN KDBQ 140250Z AUTO 22003KT 10SM CLR 17/12 A2996 1040 72 1600 220/03 RMK AO2 SLP142 T01720122 53005
94908KDBQ DBQ20080613205509906/13/08 20:55:31  5-MIN KDBQ 140255Z AUTO 23004KT 10SM CLR 17/12 A2996 1040 75 1500 220/04 RMK AO2
94908KDBQ DBQ20080613210009906/13/08 21:00:31  5-MIN KDBQ 140300Z AUTO 24003KT 10SM CLR 17/12 A2996 1040 75 1500 240/03 RMK AO2
94908KDBQ DBQ20080613210509906/13/08 21:05:31  5-MIN KDBQ 140305Z AUTO 24003KT 10SM CLR 17/12 A2996 1040 75 1500 240/03 RMK AO2
94908KDBQ DBQ20080613211009906/13/08 21:10:31  5-MIN KDBQ 140310Z AUTO 24003KT 10SM CLR 17/13 A2996 1040 77 1500 240/03 RMK AO2
94908KDBQ DBQ20080613211509906/13/08 21:15:31  5-MIN KDBQ 140315Z AUTO 23004KT 10SM CLR 17/13 A2996 1040 77 1500 230/04 RMK AO2
94908KDBQ DBQ20080613212009906/13/08 21:20:31  5-MIN KDBQ 140320Z AUTO 22003KT 10SM CLR 16/13 A2997 1040 80 1400 220/03 RMK AO2
94908KDBQ DBQ20080613212509906/13/08 21:25:31  5-MIN KDBQ 140325Z AUTO 22003KT 10SM CLR 17/13 A2996 1040 77 1500 220/03 RMK AO2
94908KDBQ DBQ20080613213009906/13/08 21:30:31  5-MIN KDBQ 140330Z AUTO 21003KT 10SM CLR 16/13 A2996 1040 80 1500 210/03 RMK AO2
94908KDBQ DBQ20080613213509906/13/08 21:35:31  5-MIN KDBQ 140335Z AUTO 21003KT 10SM CLR 16/13 A2996 1040 83 1400 210/03 RMK AO2
94908KDBQ DBQ20080613214009906/13/08 21:40:31  5-MIN KDBQ 140340Z AUTO 21003KT 10SM CLR 16/13 A2996 1040 80 1500 210/03 RMK AO2
94908KDBQ DBQ20080613214509906/13/08 21:45:31  5-MIN KDBQ 140345Z AUTO 22003KT 10SM CLR 16/13 A2996 1040 80 1500 210/03 RMK AO2
94908KDBQ DBQ20080613215011606/13/08 21:50:31  5-MIN KDBQ 140350Z AUTO 22003KT 10SM CLR 16/12 A2996 1040 77 1500 210/03 RMK AO2 SLP143 T01610122
94908KDBQ DBQ20080613215509906/13/08 21:55:31  5-MIN KDBQ 140355Z AUTO 00000KT 10SM CLR 16/12 A2996 1040 77 1500 000/00 RMK AO2
94908KDBQ DBQ20080613220009906/13/08 22:00:31  5-MIN KDBQ 140400Z AUTO 21003KT 10SM CLR 16/12 A2996 1040 77 1500 210/03 RMK AO2
94908KDBQ DBQ20080613220509906/13/08 22:05:31  5-MIN KDBQ 140405Z AUTO 21003KT 10SM CLR 16/12 A2996 1040 77 1500 210/03 RMK AO2
94908KDBQ DBQ20080613221009906/13/08 22:10:31  5-MIN KDBQ 140410Z AUTO 21003KT 10SM CLR 16/12 A2996 1040 77 1500 210/03 RMK AO2
94908KDBQ DBQ20080613221509906/13/08 22:15:31  5-MIN KDBQ 140415Z AUTO 21003KT 10SM CLR 16/12 A2996 1040 80 1400 210/03 RMK AO2
94908KDBQ DBQ20080613222009906/13/08 22:20:31  5-MIN KDBQ 140420Z AUTO 20003KT 10SM CLR 16/12 A2996 1040 80 1400 200/03 RMK AO2
94908KDBQ DBQ20080613222509906/13/08 22:25:31  5-MIN KDBQ 140425Z AUTO 21004KT 10SM CLR 16/12 A2996 1040 80 1400 200/04 RMK AO2
94908KDBQ DBQ20080613223009906/13/08 22:30:31  5-MIN KDBQ 140430Z AUTO 21004KT 10SM CLR 16/12 A2996 1040 80 1400 210/04 RMK AO2
94908KDBQ DBQ20080613223509906/13/08 22:35:31  5-MIN KDBQ 140435Z AUTO 22004KT 10SM CLR 16/12 A2996 1040 80 1400 220/04 RMK AO2
94908KDBQ DBQ20080613224009906/13/08 22:40:31  5-MIN KDBQ 140440Z AUTO 22004KT 10SM CLR 16/12 A2996 1040 77 1400 220/04 RMK AO2
94908KDBQ DBQ20080613224509906/13/08 22:45:31  5-MIN KDBQ 140445Z AUTO 21003KT 10SM CLR 16/12 A2996 1040 80 1400 210/03 RMK AO2
94908KDBQ DBQ20080613225011606/13/08 22:50:31  5-MIN KDBQ 140450Z AUTO 21003KT 10SM CLR 16/12 A2996 1040 80 1400 210/03 RMK AO2 SLP143 T01560122
94908KDBQ DBQ20080613225509906/13/08 22:55:31  5-MIN KDBQ 140455Z AUTO 21003KT 10SM CLR 15/12 A2996 1040 83 1300 210/03 RMK AO2
94908KDBQ DBQ20080613230009906/13/08 23:00:31  5-MIN KDBQ 140500Z AUTO 21004KT 10SM CLR 15/12 A2996 1040 83 1300 210/04 RMK AO2
94908KDBQ DBQ20080613230509906/13/08 23:05:31  5-MIN KDBQ 140505Z AUTO 21004KT 10SM CLR 15/12 A2996 1040 83 1300 210/04 RMK AO2
94908KDBQ DBQ20080613231009906/13/08 23:10:31  5-MIN KDBQ 140510Z AUTO 21004KT 10SM CLR 14/12 A2996 1040 86 1300 210/04 RMK AO2
94908KDBQ DBQ20080613231509906/13/08 23:15:31  5-MIN KDBQ 140515Z AUTO 22004KT 10SM CLR 15/12 A2996 1040 83 1300 210/04 RMK AO2
94908KDBQ DBQ20080613232009906/13/08 23:20:31  5-MIN KDBQ 140520Z AUTO 22004KT 10SM CLR 14/12 A2996 1040 86 1300 220/04 RMK AO2
94908KDBQ DBQ20080613232509906/13/08 23:25:31  5-MIN KDBQ 140525Z AUTO 22004KT 10SM CLR 14/12 A2996 1040 86 1300 220/04 RMK AO2
94908KDBQ DBQ20080613233009906/13/08 23:30:31  5-MIN KDBQ 140530Z AUTO 23005KT 10SM CLR 14/12 A2996 1040 90 1200 230/05 RMK AO2
94908KDBQ DBQ20080613233509906/13/08 23:35:31  5-MIN KDBQ 140535Z AUTO 23004KT 10SM CLR 14/12 A2996 1040 86 1300 230/04 RMK AO2
94908KDBQ DBQ20080613234009906/13/08 23:40:31  5-MIN KDBQ 140540Z AUTO 23004KT 10SM CLR 14/12 A2996 1040 86 1300 220/04 RMK AO2
94908KDBQ DBQ20080613234509906/13/08 23:45:31  5-MIN KDBQ 140545Z AUTO 22004KT 10SM CLR 14/12 A2996 1040 83 1300 220/04 RMK AO2
94908KDBQ DBQ20080613235014406/13/08 23:50:31  5-MIN KDBQ 140550Z AUTO 21004KT 10SM CLR 14/12 A2996 1040 83 1300 210/04 RMK AO2 SLP142 T01440117 10222 20139 402440139 53014
94908KDBQ DBQ20080613235509906/13/08 23:55:31  5-MIN KDBQ 140555Z AUTO 21003KT 10SM CLR 14/12 A2996 1040 83 1300 210/03 RMK AO2
94908KDBQ DBQ20080614000009906/14/08 00:00:38  5-MIN KDBQ 140600Z AUTO 21004KT 10SM CLR 14/12 A2996 1040 83 1300 210/04 RMK AO2
94908KDBQ DBQ20080614000509906/14/08 00:05:31  5-MIN KDBQ 140605Z AUTO 22004KT 10SM CLR 14/12 A2996 1040 83 1300 220/04 RMK AO2
94908KDBQ DBQ20080614001009906/14/08 00:10:31  5-MIN KDBQ 140610Z AUTO 23004KT 10SM CLR 14/12 A2996 1040 83 1300 230/04 RMK AO2
94908KDBQ DBQ20080614001509906/14/08 00:15:31  5-MIN KDBQ 140615Z AUTO 22004KT 10SM CLR 14/12 A2996 1040 83 1300 220/04 RMK AO2
94908KDBQ DBQ20080614002009906/14/08 00:20:31  5-MIN KDBQ 140620Z AUTO 22004KT 10SM CLR 14/12 A2996 1040 86 1200 220/04 RMK AO2
94908KDBQ DBQ20080614003009906/14/08 00:30:31  5-MIN KDBQ 140630Z AUTO 22004KT 10SM CLR 14/12 A2996 1040 86 1200 220/04 RMK AO2
94908KDBQ DBQ20080614003509906/14/08 00:35:31  5-MIN KDBQ 140635Z AUTO 22004KT 10SM CLR 14/12 A2996 1040 86 1200 220/04 RMK AO2
94908KDBQ DBQ20080614004009906/14/08 00:40:31  5-MIN KDBQ 140640Z AUTO 23004KT 10SM CLR 14/12 A2996 1040 86 1200 230/04 RMK AO2
94908KDBQ DBQ20080614004509906/14/08 00:45:31  5-MIN KDBQ 140645Z AUTO 23004KT 10SM CLR 14/12 A2996 1040 83 1300 230/04 RMK AO2
94908KDBQ DBQ20080614005011606/14/08 00:50:31  5-MIN KDBQ 140650Z AUTO 23004KT 10SM CLR 14/12 A2996 1040 86 1200 230/04 RMK AO2 SLP141 T01390117
94908KDBQ DBQ20080614005509906/14/08 00:55:31  5-MIN KDBQ 140655Z AUTO 23004KT 10SM CLR 14/12 A2996 1050 86 1200 230/04 RMK AO2
94908KDBQ DBQ20080614010009906/14/08 01:00:31  5-MIN KDBQ 140700Z AUTO 22003KT 10SM CLR 14/12 A2996 1040 86 1200 220/03 RMK AO2
94908KDBQ DBQ20080614010509906/14/08 01:05:31  5-MIN KDBQ 140705Z AUTO 22003KT 10SM CLR 14/11 A2996 1040 83 1200 220/03 RMK AO2
94908KDBQ DBQ20080614011009906/14/08 01:10:31  5-MIN KDBQ 140710Z AUTO 22003KT 10SM CLR 14/11 A2996 1050 83 1200 220/03 RMK AO2
94908KDBQ DBQ20080614011509906/14/08 01:15:31  5-MIN KDBQ 140715Z AUTO 22004KT 10SM CLR 14/11 A2996 1050 83 1200 220/04 RMK AO2
94908KDBQ DBQ20080614012009906/14/08 01:20:31  5-MIN KDBQ 140720Z AUTO 23004KT 10SM CLR 14/11 A2995 1050 80 1200 230/04 RMK AO2
94908KDBQ DBQ20080614012509906/14/08 01:25:31  5-MIN KDBQ 140725Z AUTO 23004KT 10SM CLR 14/11 A2995 1050 80 1200 230/04 RMK AO2
94908KDBQ DBQ20080614013009906/14/08 01:30:31  5-MIN KDBQ 140730Z AUTO 23004KT 10SM CLR 14/11 A2995 1050 80 1200 230/04 RMK AO2
94908KDBQ DBQ20080614013509906/14/08 01:35:31  5-MIN KDBQ 140735Z AUTO 23003KT 10SM CLR 14/11 A2995 1050 80 1200 230/03 RMK AO2
94908KDBQ DBQ20080614014009906/14/08 01:40:31  5-MIN KDBQ 140740Z AUTO 22003KT 10SM CLR 14/11 A2995 1050 80 1200 220/03 RMK AO2
94908KDBQ DBQ20080614014509906/14/08 01:45:31  5-MIN KDBQ 140745Z AUTO 22003KT 10SM CLR 14/11 A2995 1050 80 1200 220/03 RMK AO2
94908KDBQ DBQ20080614015011606/14/08 01:50:31  5-MIN KDBQ 140750Z AUTO 22003KT 10SM CLR 14/11 A2995 1050 77 1300 220/03 RMK AO2 SLP139 T01440106
94908KDBQ DBQ20080614015509906/14/08 01:55:31  5-MIN KDBQ 140755Z AUTO 21003KT 10SM CLR 14/11 A2995 1050 80 1200 210/03 RMK AO2
94908KDBQ DBQ20080614020009906/14/08 02:00:31  5-MIN KDBQ 140800Z AUTO 21003KT 10SM CLR 14/11 A2996 1050 80 1200 210/03 RMK AO2
94908KDBQ DBQ20080614020509906/14/08 02:05:31  5-MIN KDBQ 140805Z AUTO 21003KT 10SM CLR 14/11 A2996 1050 80 1200 210/03 RMK AO2
94908KDBQ DBQ20080614021009906/14/08 02:10:31  5-MIN KDBQ 140810Z AUTO 21003KT 10SM CLR 14/11 A2995 1050 80 1200 210/03 RMK AO2
94908KDBQ DBQ20080614021509906/14/08 02:15:31  5-MIN KDBQ 140815Z AUTO 21003KT 10SM CLR 14/11 A2995 1050 80 1200 210/03 RMK AO2
94908KDBQ DBQ20080614022009906/14/08 02:20:31  5-MIN KDBQ 140820Z AUTO 21004KT 10SM CLR 14/11 A2995 1050 80 1200 210/04 RMK AO2
94908KDBQ DBQ20080614022509906/14/08 02:25:31  5-MIN KDBQ 140825Z AUTO 22003KT 10SM CLR 14/11 A2996 1050 80 1200 220/03 RMK AO2
94908KDBQ DBQ20080614023009906/14/08 02:30:31  5-MIN KDBQ 140830Z AUTO 23003KT 10SM CLR 14/11 A2996 1050 80 1200 220/03 RMK AO2
94908KDBQ DBQ20080614023509906/14/08 02:35:31  5-MIN KDBQ 140835Z AUTO 23003KT 10SM CLR 14/11 A2996 1050 80 1200 230/03 RMK AO2
94908KDBQ DBQ20080614024009906/14/08 02:40:31  5-MIN KDBQ 140840Z AUTO 23003KT 10SM CLR 14/11 A2995 1050 80 1200 230/03 RMK AO2
94908KDBQ DBQ20080614024509906/14/08 02:45:31  5-MIN KDBQ 140845Z AUTO 24003KT 10SM CLR 14/11 A2995 1050 77 1300 230/03 RMK AO2
94908KDBQ DBQ20080614025012206/14/08 02:50:31  5-MIN KDBQ 140850Z AUTO 23003KT 10SM CLR 14/11 A2995 1050 77 1300 230/03 RMK AO2 SLP139 T01440106 58001
94908KDBQ DBQ20080614025509906/14/08 02:55:31  5-MIN KDBQ 140855Z AUTO 22003KT 10SM CLR 14/11 A2995 1050 80 1200 220/03 RMK AO2
94908KDBQ DBQ20080614030009906/14/08 03:00:31  5-MIN KDBQ 140900Z AUTO 20004KT 10SM CLR 13/11 A2995 1050 83 1100 200/04 RMK AO2
94908KDBQ DBQ20080614030509906/14/08 03:05:31  5-MIN KDBQ 140905Z AUTO 17006KT 10SM CLR 13/11 A2995 1050 86 1100 170/06 RMK AO2
94908KDBQ DBQ20080614031009906/14/08 03:10:31  5-MIN KDBQ 140910Z AUTO 20006KT 10SM CLR 13/10 A2995 1050 80 1100 200/06 RMK AO2
94908KDBQ DBQ20080614031509906/14/08 03:15:31  5-MIN KDBQ 140915Z AUTO 19006KT 10SM CLR 13/10 A2995 1050 80 1100 190/06 RMK AO2
94908KDBQ DBQ20080614032009906/14/08 03:20:31  5-MIN KDBQ 140920Z AUTO 20005KT 10SM CLR 13/10 A2995 1050 83 1100 200/05 RMK AO2
94908KDBQ DBQ20080614032509906/14/08 03:25:31  5-MIN KDBQ 140925Z AUTO 21005KT 10SM CLR 13/10 A2995 1050 80 1100 210/05 RMK AO2
94908KDBQ DBQ20080614033009906/14/08 03:30:31  5-MIN KDBQ 140930Z AUTO 20005KT 10SM CLR 13/10 A2995 1050 80 1100 200/05 RMK AO2
94908KDBQ DBQ20080614033509906/14/08 03:35:31  5-MIN KDBQ 140935Z AUTO 20005KT 10SM CLR 13/10 A2995 1050 83 1100 200/05 RMK AO2
94908KDBQ DBQ20080614034009906/14/08 03:40:31  5-MIN KDBQ 140940Z AUTO 19005KT 10SM CLR 13/10 A2995 1050 83 1100 190/05 RMK AO2
94908KDBQ DBQ20080614034509906/14/08 03:45:31  5-MIN KDBQ 140945Z AUTO 19006KT 10SM CLR 13/10 A2995 1050 83 1100 190/06 RMK AO2
94908KDBQ DBQ20080614035011606/14/08 03:50:31  5-MIN KDBQ 140950Z AUTO 21007KT 10SM CLR 13/10 A2995 1050 83 1100 200/07 RMK AO2 SLP140 T01280100
94908KDBQ DBQ20080614035509906/14/08 03:55:31  5-MIN KDBQ 140955Z AUTO 21006KT 10SM CLR 13/10 A2995 1050 83 1100 210/06 RMK AO2
94908KDBQ DBQ20080614040009906/14/08 04:00:31  5-MIN KDBQ 141000Z AUTO 20006KT 10SM CLR 12/10 A2995 1050 86 1000 200/06 RMK AO2
94908KDBQ DBQ20080614040509906/14/08 04:05:31  5-MIN KDBQ 141005Z AUTO 21005KT 10SM CLR 12/10 A2995 1050 86 1000 210/05 RMK AO2
94908KDBQ DBQ20080614041009906/14/08 04:10:31  5-MIN KDBQ 141010Z AUTO 21006KT 10SM CLR 12/10 A2995 1050 86 1000 210/06 RMK AO2
94908KDBQ DBQ20080614041509906/14/08 04:15:31  5-MIN KDBQ 141015Z AUTO 21006KT 10SM CLR 12/10 A2996 1050 86 1000 210/06 RMK AO2
94908KDBQ DBQ20080614042009906/14/08 04:20:31  5-MIN KDBQ 141020Z AUTO 21005KT 10SM CLR 12/10 A2996 1040 86 1000 210/05 RMK AO2
94908KDBQ DBQ20080614042509906/14/08 04:25:31  5-MIN KDBQ 141025Z AUTO 21005KT 10SM CLR 12/10 A2996 1040 86 1000 210/05 RMK AO2
94908KDBQ DBQ20080614043009906/14/08 04:30:31  5-MIN KDBQ 141030Z AUTO 20006KT 10SM CLR 12/10 A2996 1040 86 1000 200/06 RMK AO2
94908KDBQ DBQ20080614043509906/14/08 04:35:31  5-MIN KDBQ 141035Z AUTO 20006KT 10SM CLR 12/10 A2996 1040 86 1000 200/06 RMK AO2
94908KDBQ DBQ20080614044009906/14/08 04:40:31  5-MIN KDBQ 141040Z AUTO 20006KT 10SM CLR 12/10 A2996 1040 86 1000 200/06 RMK AO2
94908KDBQ DBQ20080614044509906/14/08 04:45:31  5-MIN KDBQ 141045Z AUTO 20006KT 10SM CLR 13/11 A2996 1040 86 1100 200/06 RMK AO2
94908KDBQ DBQ20080614045011106/14/08 04:50:31  5-MIN KDBQ 141050Z 20006KT 10SM CLR 13/11 A2997 1040 86 1100 200/06 RMK AO2 SLP144 T01280106
94908KDBQ DBQ20080614045509406/14/08 04:55:31  5-MIN KDBQ 141055Z 20005KT 10SM CLR 13/11 A2997 1040 86 1100 200/05 RMK AO2
94908KDBQ DBQ20080614050009406/14/08 05:00:31  5-MIN KDBQ 141100Z 21004KT 10SM CLR 13/11 A2997 1030 86 1100 210/04 RMK AO2
94908KDBQ DBQ20080614050509406/14/08 05:05:31  5-MIN KDBQ 141105Z 21003KT 10SM CLR 13/11 A2997 1040 86 1100 210/03 RMK AO2
94908KDBQ DBQ20080614051009406/14/08 05:10:31  5-MIN KDBQ 141110Z 00000KT 10SM CLR 13/11 A2997 1040 86 1100 000/00 RMK AO2
94908KDBQ DBQ20080614051509406/14/08 05:15:31  5-MIN KDBQ 141115Z 21003KT 10SM CLR 13/11 A2997 1030 83 1100 210/03 RMK AO2
94908KDBQ DBQ20080614052009406/14/08 05:20:31  5-MIN KDBQ 141120Z 21004KT 10SM CLR 13/11 A2997 1030 86 1100 210/04 RMK AO2
94908KDBQ DBQ20080614052509406/14/08 05:25:31  5-MIN KDBQ 141125Z 21004KT 10SM CLR 13/11 A2997 1030 86 1100 210/04 RMK AO2
94908KDBQ DBQ20080614053009406/14/08 05:30:31  5-MIN KDBQ 141130Z 22004KT 10SM CLR 13/11 A2997 1030 86 1100 220/04 RMK AO2
94908KDBQ DBQ20080614053509406/14/08 05:35:31  5-MIN KDBQ 141135Z 22005KT 10SM CLR 14/11 A2997 1030 83 1200 220/05 RMK AO2
94908KDBQ DBQ20080614054009406/14/08 05:40:31  5-MIN KDBQ 141140Z 22006KT 10SM CLR 14/11 A2997 1030 83 1200 220/06 RMK AO2
94908KDBQ DBQ20080614054509406/14/08 05:45:31  5-MIN KDBQ 141145Z 22005KT 10SM CLR 14/12 A2997 1030 86 1200 220/05 RMK AO2
94908KDBQ DBQ20080614055012906/14/08 05:50:31  5-MIN KDBQ 141150Z 22005KT 10SM CLR 14/12 A2997 1030 83 1200 220/05 RMK AO2 SLP146 T01440117 10144 20122 56002
94908KDBQ DBQ20080614055509406/14/08 05:55:31  5-MIN KDBQ 141155Z 22006KT 10SM CLR 15/12 A2997 1030 80 1300 210/06 RMK AO2
94908KDBQ DBQ20080614060009406/14/08 06:00:31  5-MIN KDBQ 141200Z 22006KT 10SM CLR 15/12 A2997 1030 80 1300 210/06 RMK AO2
94908KDBQ DBQ20080614060509406/14/08 06:05:31  5-MIN KDBQ 141205Z 21006KT 10SM CLR 16/12 A2997 1030 80 1400 210/06 RMK AO2
94908KDBQ DBQ20080614061009406/14/08 06:10:31  5-MIN KDBQ 141210Z 21007KT 10SM CLR 16/12 A2997 1030 75 1400 210/07 RMK AO2
94908KDBQ DBQ20080614061509406/14/08 06:15:31  5-MIN KDBQ 141215Z 22007KT 10SM CLR 16/12 A2997 1030 75 1400 220/07 RMK AO2
94908KDBQ DBQ20080614062009406/14/08 06:20:31  5-MIN KDBQ 141220Z 22007KT 10SM CLR 16/12 A2997 1030 77 1400 220/07 RMK AO2
94908KDBQ DBQ20080614062509406/14/08 06:25:31  5-MIN KDBQ 141225Z 22007KT 10SM CLR 17/12 A2997 1030 75 1500 220/07 RMK AO2
94908KDBQ DBQ20080614063009406/14/08 06:30:31  5-MIN KDBQ 141230Z 22007KT 10SM CLR 17/12 A2997 1030 75 1500 220/07 RMK AO2
94908KDBQ DBQ20080614063509406/14/08 06:35:31  5-MIN KDBQ 141235Z 23007KT 10SM CLR 17/12 A2997 1030 72 1600 230/07 RMK AO2
94908KDBQ DBQ20080614064009406/14/08 06:40:31  5-MIN KDBQ 141240Z 23008KT 10SM CLR 17/12 A2997 1030 72 1600 220/08 RMK AO2
94908KDBQ DBQ20080614064509406/14/08 06:45:31  5-MIN KDBQ 141245Z 23008KT 10SM CLR 18/13 A2997 1030 72 1600 230/08 RMK AO2
94908KDBQ DBQ20080614065011106/14/08 06:50:31  5-MIN KDBQ 141250Z 23010KT 10SM CLR 18/13 A2997 1030 70 1700 230/10 RMK AO2 SLP145 T01830128
94908KDBQ DBQ20080614065509406/14/08 06:55:31  5-MIN KDBQ 141255Z 23010KT 10SM CLR 18/13 A2997 1030 70 1700 230/10 RMK AO2
94908KDBQ DBQ20080614070009406/14/08 07:00:31  5-MIN KDBQ 141300Z 23010KT 10SM CLR 18/13 A2997 1030 70 1700 230/10 RMK AO2
94908KDBQ DBQ20080614070509406/14/08 07:05:31  5-MIN KDBQ 141305Z 22010KT 10SM CLR 19/12 A2997 1030 65 1800 220/10 RMK AO2
94908KDBQ DBQ20080614071009406/14/08 07:10:31  5-MIN KDBQ 141310Z 23009KT 10SM CLR 19/12 A2997 1030 65 1800 220/09 RMK AO2
94908KDBQ DBQ20080614071509406/14/08 07:15:31  5-MIN KDBQ 141315Z 23010KT 10SM CLR 19/13 A2997 1030 65 1800 220/10 RMK AO2
94908KDBQ DBQ20080614072009406/14/08 07:20:31  5-MIN KDBQ 141320Z 23011KT 10SM CLR 19/12 A2997 1030 62 1800 220/11 RMK AO2
94908KDBQ DBQ20080614072510006/14/08 07:25:31  5-MIN KDBQ 141325Z 22011G21KT 10SM CLR 19/12 A2997 1030 62 1800 220/11G21 RMK AO2
94908KDBQ DBQ20080614073010006/14/08 07:30:31  5-MIN KDBQ 141330Z 22010G21KT 10SM CLR 20/13 A2997 1030 63 1900 220/10G21 RMK AO2
94908KDBQ DBQ20080614073509406/14/08 07:35:31  5-MIN KDBQ 141335Z 23010KT 10SM CLR 20/13 A2997 1030 63 1900 220/10 RMK AO2
94908KDBQ DBQ20080614074009406/14/08 07:40:31  5-MIN KDBQ 141340Z 22011KT 10SM CLR 20/13 A2997 1030 63 1900 220/11 RMK AO2
94908KDBQ DBQ20080614074509406/14/08 07:45:31  5-MIN KDBQ 141345Z 23010KT 10SM CLR 21/13 A2997 1030 60 2000 230/10 RMK AO2
94908KDBQ DBQ20080614075011106/14/08 07:50:31  5-MIN KDBQ 141350Z 24011KT 10SM CLR 21/12 A2997 1030 58 2000 230/11 RMK AO2 SLP145 T02060122
94908KDBQ DBQ20080614075509406/14/08 07:55:31  5-MIN KDBQ 141355Z 23011KT 10SM CLR 21/13 A2997 1030 61 2000 230/11 RMK AO2
94908KDBQ DBQ20080614080009406/14/08 08:00:31  5-MIN KDBQ 141400Z 23014KT 10SM CLR 21/12 A2997 1030 56 2000 230/14 RMK AO2
94908KDBQ DBQ20080614080509406/14/08 08:05:31  5-MIN KDBQ 141405Z 23012KT 10SM CLR 21/12 A2997 1030 56 2000 230/12 RMK AO2
94908KDBQ DBQ20080614081009406/14/08 08:10:31  5-MIN KDBQ 141410Z 23012KT 10SM CLR 21/13 A2997 1030 58 2000 230/12 RMK AO2
94908KDBQ DBQ20080614081510006/14/08 08:15:31  5-MIN KDBQ 141415Z 23013G18KT 10SM CLR 22/13 A2997 1030 56 2100 230/13G18 RMK AO2
94908KDBQ DBQ20080614082009406/14/08 08:20:31  5-MIN KDBQ 141420Z 24014KT 10SM CLR 22/12 A2997 1030 54 2100 240/14 RMK AO2
94908KDBQ DBQ20080614082509406/14/08 08:25:31  5-MIN KDBQ 141425Z 24012KT 10SM CLR 22/12 A2997 1040 54 2100 240/12 RMK AO2
94908KDBQ DBQ20080614083010006/14/08 08:30:31  5-MIN KDBQ 141430Z 23014G18KT 10SM CLR 22/13 A2996 1040 54 2200 230/14G18 RMK AO2
94908KDBQ DBQ20080614083510006/14/08 08:35:31  5-MIN KDBQ 141435Z 23013G18KT 10SM CLR 22/13 A2996 1040 54 2200 230/13G18 RMK AO2
94908KDBQ DBQ20080614084009406/14/08 08:40:31  5-MIN KDBQ 141440Z 23012KT 10SM CLR 23/13 A2996 1040 53 2200 230/12 RMK AO2
94908KDBQ DBQ20080614084509406/14/08 08:45:31  5-MIN KDBQ 141445Z 24014KT 10SM CLR 23/12 A2996 1040 51 2200 240/14 RMK AO2
94908KDBQ DBQ20080614085011706/14/08 08:50:31  5-MIN KDBQ 141450Z 23013KT 10SM CLR 23/13 A2996 1040 53 2200 230/13 RMK AO2 SLP142 T02280128 53005
94908KDBQ DBQ20080614085509406/14/08 08:55:31  5-MIN KDBQ 141455Z 23012KT 10SM CLR 23/13 A2996 1040 51 2300 230/12 RMK AO2
94908KDBQ DBQ20080614090010006/14/08 09:00:31  5-MIN KDBQ 141500Z 24015G21KT 10SM CLR 23/12 A2996 1040 49 2300 230/15G21 RMK AO2
94908KDBQ DBQ20080614090510006/14/08 09:05:31  5-MIN KDBQ 141505Z 24013G21KT 10SM CLR 23/13 A2996 1040 51 2300 240/13G21 RMK AO2
94908KDBQ DBQ20080614091009406/14/08 09:10:31  5-MIN KDBQ 141510Z 24015KT 10SM CLR 23/13 A2996 1040 51 2300 240/15 RMK AO2
94908KDBQ DBQ20080614091509406/14/08 09:15:31  5-MIN KDBQ 141515Z 25016KT 10SM CLR 24/13 A2996 1040 49 2300 250/16 RMK AO2
94908KDBQ DBQ20080614092010006/14/08 09:20:31  5-MIN KDBQ 141520Z 24016G22KT 10SM CLR 24/12 A2996 1040 47 2300 240/16G22 RMK AO2
94908KDBQ DBQ20080614092510006/14/08 09:25:31  5-MIN KDBQ 141525Z 24015G22KT 10SM CLR 24/13 A2996 1040 49 2300 240/15G22 RMK AO2
94908KDBQ DBQ20080614093010006/14/08 09:30:31  5-MIN KDBQ 141530Z 24017G21KT 10SM CLR 24/12 A2996 1040 47 2300 240/17G21 RMK AO2
94908KDBQ DBQ20080614093509406/14/08 09:35:31  5-MIN KDBQ 141535Z 25015KT 10SM CLR 24/12 A2996 1040 46 2400 250/15 RMK AO2
94908KDBQ DBQ20080614094009406/14/08 09:40:31  5-MIN KDBQ 141540Z 24015KT 10SM CLR 24/13 A2996 1040 47 2400 240/15 RMK AO2
94908KDBQ DBQ20080614094510006/14/08 09:45:31  5-MIN KDBQ 141545Z 24014G22KT 10SM CLR 24/13 A2996 1040 47 2400 240/14G22 RMK AO2
94908KDBQ DBQ20080614095011706/14/08 09:50:31  5-MIN KDBQ 141550Z 24015G22KT 10SM CLR 24/13 A2996 1040 49 2400 240/15G22 RMK AO2 SLP141 T02440133
94908KDBQ DBQ20080614095510006/14/08 09:55:31  5-MIN KDBQ 141555Z 24016G22KT 10SM CLR 24/13 A2996 1040 47 2400 230/16G22 RMK AO2
94908KDBQ DBQ20080614100010006/14/08 10:00:31  5-MIN KDBQ 141600Z 23018G23KT 10SM CLR 24/12 A2996 1040 46 2400 230/18G23 RMK AO2
94908KDBQ DBQ20080614100510006/14/08 10:05:31  5-MIN KDBQ 141605Z 24016G23KT 10SM CLR 25/12 A2996 1040 44 2500 240/16G23 RMK AO2
94908KDBQ DBQ20080614101010006/14/08 10:10:31  5-MIN KDBQ 141610Z 25015G21KT 10SM CLR 25/13 A2996 1040 46 2500 250/15G21 RMK AO2
94908KDBQ DBQ20080614101510006/14/08 10:15:31  5-MIN KDBQ 141615Z 23013G21KT 10SM CLR 25/13 A2996 1040 48 2500 230/13G21 RMK AO2
94908KDBQ DBQ20080614102009406/14/08 10:20:31  5-MIN KDBQ 141620Z 24016KT 10SM CLR 25/13 A2996 1050 48 2500 240/16 RMK AO2
94908KDBQ DBQ20080614102510006/14/08 10:25:31  5-MIN KDBQ 141625Z 23012G19KT 10SM CLR 25/13 A2995 1050 48 2500 230/12G19 RMK AO2
94908KDBQ DBQ20080614103010006/14/08 10:30:31  5-MIN KDBQ 141630Z 24016G21KT 10SM CLR 26/13 A2996 1050 46 2500 240/16G21 RMK AO2
94908KDBQ DBQ20080614103510006/14/08 10:35:31  5-MIN KDBQ 141635Z 23012G21KT 10SM CLR 26/14 A2996 1050 48 2500 230/12G21 RMK AO2
94908KDBQ DBQ20080614104010006/14/08 10:40:31  5-MIN KDBQ 141640Z 23014G24KT 10SM CLR 26/13 A2995 1050 44 2500 230/14G24 RMK AO2
94908KDBQ DBQ20080614104510006/14/08 10:45:31  5-MIN KDBQ 141645Z 21015G24KT 10SM CLR 26/13 A2995 1050 44 2500 210/15G24 RMK AO2
94908KDBQ DBQ20080614105011106/14/08 10:50:31  5-MIN KDBQ 141650Z 22013KT 10SM CLR 26/13 A2995 1050 46 2500 220/13 RMK AO2 SLP138 T02560133
94908KDBQ DBQ20080614105510006/14/08 10:55:31  5-MIN KDBQ 141655Z 23014G20KT 10SM CLR 26/13 A2995 1050 46 2500 230/14G20 RMK AO2
94908KDBQ DBQ20080614110010006/14/08 11:00:31  5-MIN KDBQ 141700Z 23016G21KT 10SM CLR 26/13 A2995 1050 44 2600 230/16G21 RMK AO2
94908KDBQ DBQ20080614110510006/14/08 11:05:31  5-MIN KDBQ 141705Z 23014G21KT 10SM CLR 26/13 A2995 1050 44 2500 230/14G21 RMK AO2
94908KDBQ DBQ20080614111009406/14/08 11:10:31  5-MIN KDBQ 141710Z 23015KT 10SM CLR 26/13 A2995 1050 43 2600 230/15 RMK AO2
94908KDBQ DBQ20080614111509406/14/08 11:15:31  5-MIN KDBQ 141715Z 23015KT 10SM CLR 26/13 A2995 1050 43 2600 230/15 RMK AO2
94908KDBQ DBQ20080614112009406/14/08 11:20:31  5-MIN KDBQ 141720Z 23016KT 10SM CLR 26/13 A2995 1050 43 2600 230/16 RMK AO2
94908KDBQ DBQ20080614112510006/14/08 11:25:31  5-MIN KDBQ 141725Z 24013G22KT 10SM CLR 26/13 A2995 1050 44 2600 240/13G22 RMK AO2
94908KDBQ DBQ20080614113010006/14/08 11:30:31  5-MIN KDBQ 141730Z 24015G22KT 10SM CLR 27/13 A2995 1050 41 2700 240/15G22 RMK AO2
94908KDBQ DBQ20080614113510006/14/08 11:35:31  5-MIN KDBQ 141735Z 24017G23KT 10SM CLR 27/13 A2995 1050 41 2700 240/17G23 RMK AO2
94908KDBQ DBQ20080614114010006/14/08 11:40:31  5-MIN KDBQ 141740Z 24016G23KT 10SM CLR 27/12 A2994 1060 40 2700 230/16G23 RMK AO2
94908KDBQ DBQ20080614114510006/14/08 11:45:31  5-MIN KDBQ 141745Z 24016G22KT 10SM CLR 27/13 A2995 1050 43 2700 230/16G22 RMK AO2
94908KDBQ DBQ20080614115013506/14/08 11:50:31  5-MIN KDBQ 141750Z 23016G22KT 10SM CLR 27/13 A2994 1060 41 2700 230/16G22 RMK AO2 SLP135 T02670128 10267 20150 58003
94908KDBQ DBQ20080614115510006/14/08 11:55:31  5-MIN KDBQ 141755Z 23015G22KT 10SM CLR 27/13 A2995 1050 41 2700 230/15G22 RMK AO2
94908KDBQ DBQ20080614120010006/14/08 12:00:31  5-MIN KDBQ 141800Z 23015G24KT 10SM CLR 27/13 A2994 1060 41 2700 230/15G24 RMK AO2
94908KDBQ DBQ20080614120510006/14/08 12:05:31  5-MIN KDBQ 141805Z 23018G24KT 10SM CLR 27/13 A2994 1060 41 2700 230/18G24 RMK AO2
94908KDBQ DBQ20080614121010006/14/08 12:10:31  5-MIN KDBQ 141810Z 23018G23KT 10SM CLR 26/13 A2994 1060 43 2600 230/18G23 RMK AO2
94908KDBQ DBQ20080614121509406/14/08 12:15:31  5-MIN KDBQ 141815Z 23016KT 10SM CLR 26/13 A2994 1060 43 2600 230/16 RMK AO2
94908KDBQ DBQ20080614122010006/14/08 12:20:31  5-MIN KDBQ 141820Z 23016G22KT 10SM CLR 27/13 A2994 1060 41 2700 230/16G22 RMK AO2
94908KDBQ DBQ20080614122510006/14/08 12:25:31  5-MIN KDBQ 141825Z 23018G23KT 10SM CLR 27/13 A2993 1070 40 2800 230/18G23 RMK AO2
94908KDBQ DBQ20080614123010006/14/08 12:30:31  5-MIN KDBQ 141830Z 23012G23KT 10SM CLR 27/13 A2993 1070 43 2700 230/12G23 RMK AO2
94908KDBQ DBQ20080614123509406/14/08 12:35:31  5-MIN KDBQ 141835Z 23014KT 10SM CLR 27/14 A2993 1070 43 2800 230/14 RMK AO2
94908KDBQ DBQ20080614124010006/14/08 12:40:31  5-MIN KDBQ 141840Z 22016G22KT 10SM CLR 27/14 A2992 1070 43 2800 220/16G22 RMK AO2
94908KDBQ DBQ20080614124510006/14/08 12:45:31  5-MIN KDBQ 141845Z 22016G22KT 10SM CLR 27/13 A2992 1080 42 2800 220/16G22 RMK AO2
94908KDBQ DBQ20080614125011706/14/08 12:50:31  5-MIN KDBQ 141850Z 23017G24KT 10SM CLR 27/13 A2993 1070 40 2800 220/17G24 RMK AO2 SLP129 T02720128
94908KDBQ DBQ20080614125510006/14/08 12:55:31  5-MIN KDBQ 141855Z 23015G24KT 10SM CLR 27/13 A2992 1080 40 2800 230/15G24 RMK AO2
94908KDBQ DBQ20080614130010006/14/08 13:00:31  5-MIN KDBQ 141900Z 24018G24KT 10SM CLR 27/13 A2992 1080 40 2800 240/18G24 RMK AO2
94908KDBQ DBQ20080614130510306/14/08 13:05:31  5-MIN KDBQ 141905Z 23018G24KT 10SM FEW090 26/12 A2992 1080 40 2600 230/18G24 RMK AO2
94908KDBQ DBQ20080614131010306/14/08 13:10:31  5-MIN KDBQ 141910Z 23016G24KT 10SM FEW020 26/12 A2992 1080 43 2600 230/16G24 RMK AO2
94908KDBQ DBQ20080614131512606/14/08 13:15:31  5-MIN KDBQ 141915Z 23013G24KT 10SM -RA FEW022 SCT095 24/13 A2992 1080 49 2500 230/13G24 RMK AO2 RAB12 P0000
94908KDBQ DBQ20080614132011906/14/08 13:20:31  5-MIN KDBQ 141920Z 23015G23KT 10SM -RA FEW044 25/13 A2992 1080 46 2500 230/15G23 RMK AO2 RAB12 P0000
94908KDBQ DBQ20080614132512506/14/08 13:25:31  5-MIN KDBQ 141925Z 22013G23KT 10SM FEW060 SCT100 26/12 A2992 1080 41 2600 220/13G23 RMK AO2 RAB12E22 P0000
94908KDBQ DBQ20080614133011906/14/08 13:30:31  5-MIN KDBQ 141930Z 23011KT 10SM FEW060 SCT100 26/12 A2992 1080 43 2600 230/11 RMK AO2 RAB12E22 P0000
94908KDBQ DBQ20080614133511906/14/08 13:35:31  5-MIN KDBQ 141935Z 23012KT 10SM FEW060 SCT100 25/13 A2991 1090 46 2500 220/12 RMK AO2 RAB12E22 P0000
94908KDBQ DBQ20080614134011206/14/08 13:40:31  5-MIN KDBQ 141940Z 22009KT 10SM FEW075 25/13 A2991 1090 46 2500 220/09 RMK AO2 RAB12E22 P0000
94908KDBQ DBQ20080614134511206/14/08 13:45:31  5-MIN KDBQ 141945Z 22009KT 10SM FEW095 26/13 A2991 1090 46 2600 210/09 RMK AO2 RAB12E22 P0000
94908KDBQ DBQ20080614135012906/14/08 13:50:31  5-MIN KDBQ 141950Z 22012KT 10SM SCT085 26/13 A2991 1090 44 2600 210/12 RMK AO2 RAB12E22 SLP125 P0000 T02560128
94908KDBQ DBQ20080614135510306/14/08 13:55:31  5-MIN KDBQ 141955Z 22013G19KT 10SM SCT085 27/13 A2991 1090 41 2700 220/13G19 RMK AO2
94908KDBQ DBQ20080614140010306/14/08 14:00:31  5-MIN KDBQ 142000Z 22017G24KT 10SM SCT085 27/12 A2990 1100 40 2700 220/17G24 RMK AO2
94908KDBQ DBQ20080614140510306/14/08 14:05:31  5-MIN KDBQ 142005Z 22017G24KT 10SM SCT085 27/13 A2990 1100 40 2800 220/17G24 RMK AO2
94908KDBQ DBQ20080614141010306/14/08 14:10:31  5-MIN KDBQ 142010Z 22013G22KT 10SM BKN085 27/12 A2990 1100 40 2700 220/13G22 RMK AO2
94908KDBQ DBQ20080614141510306/14/08 14:15:31  5-MIN KDBQ 142015Z 21017G22KT 10SM SCT085 27/12 A2990 1100 39 2800 210/17G22 RMK AO2
94908KDBQ DBQ20080614142010306/14/08 14:20:31  5-MIN KDBQ 142020Z 22018G24KT 10SM SCT085 26/12 A2989 1100 40 2700 220/18G24 RMK AO2
94908KDBQ DBQ20080614142512106/14/08 14:25:31  5-MIN KDBQ 142025Z 23016G26KT 10SM FEW085 27/12 A2989 1110 38 2700 230/16G26 RMK AO2 PK WND 23026/2025
94908KDBQ DBQ20080614143012106/14/08 14:30:31  5-MIN KDBQ 142030Z 23016G26KT 10SM FEW080 26/11 A2989 1110 38 2700 230/16G26 RMK AO2 PK WND 23026/2025
94908KDBQ DBQ20080614143512106/14/08 14:35:31  5-MIN KDBQ 142035Z 22012G24KT 10SM SCT080 26/12 A2989 1110 41 2600 220/12G24 RMK AO2 PK WND 23026/2025
94908KDBQ DBQ20080614144012106/14/08 14:40:31  5-MIN KDBQ 142040Z 22013G20KT 10SM SCT080 25/11 A2988 1110 41 2600 220/13G20 RMK AO2 PK WND 23026/2025
94908KDBQ DBQ20080614144512706/14/08 14:45:31  5-MIN KDBQ 142045Z 22012KT 10SM FEW080 25/12 A2988 1120 43 2600 220/12 RMK AO2 PK WND 23026/2025 LTG DSNT SW
94908KDBQ DBQ20080614145016206/14/08 14:50:31  5-MIN KDBQ 142050Z 22015KT 10SM FEW080 25/11 A2988 1120 41 2600 210/15 RMK AO2 PK WND 23026/2025 LTG DSNT S AND SW SLP114 60000 T02500111 58007
94908KDBQ DBQ20080614145511806/14/08 14:55:31  5-MIN KDBQ 142055Z 22016G20KT 10SM SCT080 25/11 A2988 1120 41 2600 220/16G20 RMK AO2 LTG DSNT ALQDS
94908KDBQ DBQ20080614150012906/14/08 15:00:31  5-MIN KDBQ 142100Z 22015G22KT 10SM VCTS BKN080 25/11 A2988 1120 41 2600 220/15G22 RMK AO2 LTG DSNT ALQDS TSB00
94908KDBQ DBQ20080614150513506/14/08 15:05:31  5-MIN KDBQ 142105Z 22014G22KT 10SM VCTS BKN080 25/11 A2988 1120 41 2600 220/14G22 RMK AO2 LTG DSNT ALQDS TSB00E01B02
94908KDBQ DBQ20080614151012906/14/08 15:10:31  5-MIN KDBQ 142110Z 22017KT 10SM VCTS BKN080 24/11 A2988 1110 42 2500 220/17 RMK AO2 LTG DSNT NW-NE TSB00E01B02
94908KDBQ DBQ20080614151513506/14/08 15:15:31  5-MIN KDBQ 142115Z 23016G22KT 10SM VCTS BKN085 24/12 A2988 1110 46 2400 230/16G22 RMK AO2 LTG DSNT NW-NE TSB00E01B02
94908KDBQ DBQ20080614152015006/14/08 15:20:31  5-MIN KDBQ 142120Z 24017G23KT 10SM VCTS -RA OVC085 23/13 A2989 1110 55 2300 230/17G23 RMK AO2 LTG DSNT NW-NE TSB00E01B02RAB17 P0000
94908KDBQ DBQ20080614152516406/14/08 15:25:31  5-MIN KDBQ 142125Z 23015G23KT 10SM VCTS -RA BKN075 OVC090 22/13 A2990 1100 56 2200 230/15G23 RMK AO2 LTG DSNT ALQDS TSB00E01B02RAB17 PRESRR P0000
94908KDBQ DBQ20080614153015506/14/08 15:30:31  5-MIN KDBQ 142130Z 26012G21KT 10SM -RA SCT065 OVC090 22/13 A2990 1100 58 2200 260/12G21 RMK AO2 LTG DSNT ALQDS TSB00E01B02E26RAB17 P0000
94908KDBQ DBQ20080614153517906/14/08 15:35:31  5-MIN KDBQ 142135Z 27017G32KT 10SM -RA SCT065 OVC090 22/14 A2992 1080 61 2100 270/17G32 RMK AO2 PK WND 27032/2135 LTG DSNT N-SE TSB00E01B02E26RAB17 PRESRR P0000
94908KDBQ DBQ20080614154018106/14/08 15:40:31  5-MIN KDBQ 142140Z 28014G32KT 8SM RA SCT060 BKN075 OVC090 22/12 A2991 1090 52 2100 280/14G32 RMK AO2 PK WND 27032/2135 LTG DSNT N AND NE TSB00E01B02E26RAB17 P0000
94908KDBQ DBQ20080614154518206/14/08 15:45:31  5-MIN KDBQ 142145Z 27008G25KT 9SM -RA SCT055 SCT075 BKN090 22/12 A2991 1090 51 2200 270/08G25 RMK AO2 PK WND 27032/2135 LTG DSNT N AND NE TSB00E01B02E26RAB17 P0000
94908KDBQ DBQ20080614155019306/14/08 15:50:31  5-MIN KDBQ 142150Z 26006KT 10SM FEW046 SCT090 BKN110 22/13 A2991 1080 54 2200 260/06 RMK AO2 PK WND 27032/2135 LTG DSNT N AND NE TSB00E01B02E26RAB17E48 SLP127 P0000 T02220128
94908KDBQ DBQ20080614155512406/14/08 15:55:31  5-MIN KDBQ 142155Z 25003KT 10SM FEW041 SCT095 BKN110 22/13 A2991 1090 56 2200 250/03 RMK AO2 LTG DSNT N-E
94908KDBQ DBQ20080614160012906/14/08 16:00:31  5-MIN KDBQ 142200Z 25004KT 10SM FEW036 SCT080 BKN110 23/14 A2990 1090 57 2300 250/04 RMK AO2 LTG DSNT NE AND E
94908KDBQ DBQ20080614160511706/14/08 16:05:31  5-MIN KDBQ 142205Z 23011G15KT 10SM FEW036 SCT090 SCT110 24/14 A2990 1100 53 2500 220/11G15 RMK AO2
94908KDBQ DBQ20080614161011006/14/08 16:10:31  5-MIN KDBQ 142210Z 22011G15KT 10SM FEW085 25/14 A2989 1110 49 2600 220/11G15 RMK AO2 PRESFR
94908KDBQ DBQ20080614161510306/14/08 16:15:31  5-MIN KDBQ 142215Z 22014G19KT 10SM FEW085 25/14 A2989 1110 49 2600 220/14G19 RMK AO2
94908KDBQ DBQ20080614162010306/14/08 16:20:31  5-MIN KDBQ 142220Z 22017G21KT 10SM FEW085 24/13 A2989 1110 49 2500 220/17G21 RMK AO2
94908KDBQ DBQ20080614162510306/14/08 16:25:31  5-MIN KDBQ 142225Z 23018G21KT 10SM FEW085 24/13 A2988 1110 47 2500 230/18G21 RMK AO2
94908KDBQ DBQ20080614163011806/14/08 16:30:31  5-MIN KDBQ 142230Z 23022G29KT 10SM CLR 24/13 A2989 1110 47 2500 230/22G29 RMK AO2 PK WND 22029/2229
94908KDBQ DBQ20080614163511806/14/08 16:35:31  5-MIN KDBQ 142235Z 24023G31KT 10SM CLR 24/12 A2989 1110 47 2400 240/23G31 RMK AO2 PK WND 23031/2234
94908KDBQ DBQ20080614164011806/14/08 16:40:31  5-MIN KDBQ 142240Z 23021G31KT 10SM CLR 24/12 A2988 1120 47 2400 230/21G31 RMK AO2 PK WND 23031/2234
94908KDBQ DBQ20080614164511806/14/08 16:45:31  5-MIN KDBQ 142245Z 23020G27KT 10SM CLR 23/13 A2988 1110 51 2400 230/20G27 RMK AO2 PK WND 23031/2234
94908KDBQ DBQ20080614165013506/14/08 16:50:31  5-MIN KDBQ 142250Z 23019G27KT 10SM CLR 23/13 A2989 1100 53 2300 230/19G27 RMK AO2 PK WND 23031/2234 SLP120 T02280128
94908KDBQ DBQ20080614165510006/14/08 16:55:31  5-MIN KDBQ 142255Z 23017G25KT 10SM CLR 23/13 A2989 1110 53 2300 230/17G25 RMK AO2
94908KDBQ DBQ20080614170009406/14/08 17:00:31  5-MIN KDBQ 142300Z 24017KT 10SM CLR 23/13 A2989 1100 55 2300 240/17 RMK AO2
94908KDBQ DBQ20080614170510006/14/08 17:05:31  5-MIN KDBQ 142305Z 23012G21KT 10SM CLR 23/14 A2989 1110 57 2300 230/12G21 RMK AO2
94908KDBQ DBQ20080614171010006/14/08 17:10:31  5-MIN KDBQ 142310Z 22013G22KT 10SM CLR 22/13 A2989 1110 56 2200 220/13G22 RMK AO2
94908KDBQ DBQ20080614171510006/14/08 17:15:31  5-MIN KDBQ 142315Z 22011G22KT 10SM CLR 22/14 A2989 1110 59 2200 210/11G22 RMK AO2
94908KDBQ DBQ20080614172010006/14/08 17:20:31  5-MIN KDBQ 142320Z 22011G19KT 10SM CLR 22/14 A2989 1110 59 2200 220/11G19 RMK AO2
94908KDBQ DBQ20080614172510006/14/08 17:25:31  5-MIN KDBQ 142325Z 23011G19KT 10SM CLR 22/13 A2989 1110 56 2200 230/11G19 RMK AO2
94908KDBQ DBQ20080614173010006/14/08 17:30:31  5-MIN KDBQ 142330Z 23009G17KT 10SM CLR 22/14 A2989 1110 59 2200 220/09G17 RMK AO2
94908KDBQ DBQ20080614173509406/14/08 17:35:31  5-MIN KDBQ 142335Z 21011KT 10SM CLR 22/14 A2989 1110 59 2200 200/11 RMK AO2
94908KDBQ DBQ20080614174009406/14/08 17:40:31  5-MIN KDBQ 142340Z 21011KT 10SM CLR 22/14 A2989 1110 59 2200 210/11 RMK AO2
94908KDBQ DBQ20080614174509406/14/08 17:45:31  5-MIN KDBQ 142345Z 23012KT 10SM CLR 22/14 A2989 1110 59 2200 220/12 RMK AO2
94908KDBQ DBQ20080614175014106/14/08 17:50:31  5-MIN KDBQ 142350Z 21008G16KT 10SM CLR 22/14 A2989 1100 61 2200 210/08G16 RMK AO2 SLP120 60000 T02220144 10272 20217 58021
94908KDBQ DBQ20080614175510006/14/08 17:55:31  5-MIN KDBQ 142355Z 21011G16KT 10SM CLR 22/14 A2990 1100 61 2200 210/11G16 RMK AO2
94908KDBQ DBQ20080614180009406/14/08 18:00:31  5-MIN KDBQ 150000Z 20013KT 10SM CLR 22/14 A2990 1100 63 2200 200/13 RMK AO2
94908KDBQ DBQ20080614180509406/14/08 18:05:31  5-MIN KDBQ 150005Z 20013KT 10SM CLR 22/14 A2990 1100 63 2200 200/13 RMK AO2
94908KDBQ DBQ20080614181009406/14/08 18:10:31  5-MIN KDBQ 150010Z 21012KT 10SM CLR 22/14 A2990 1100 63 2200 200/12 RMK AO2
94908KDBQ DBQ20080614181509406/14/08 18:15:31  5-MIN KDBQ 150015Z 21013KT 10SM CLR 22/14 A2990 1100 61 2200 210/13 RMK AO2
94908KDBQ DBQ20080614182009406/14/08 18:20:31  5-MIN KDBQ 150020Z 21012KT 10SM CLR 21/14 A2990 1100 65 2100 210/12 RMK AO2
94908KDBQ DBQ20080614182509406/14/08 18:25:31  5-MIN KDBQ 150025Z 21012KT 10SM CLR 21/14 A2990 1100 65 2100 210/12 RMK AO2
94908KDBQ DBQ20080614183009406/14/08 18:30:31  5-MIN KDBQ 150030Z 21011KT 10SM CLR 21/14 A2990 1100 65 2100 210/11 RMK AO2
94908KDBQ DBQ20080614183509406/14/08 18:35:31  5-MIN KDBQ 150035Z 20011KT 10SM CLR 21/14 A2990 1100 65 2100 200/11 RMK AO2
94908KDBQ DBQ20080614184009406/14/08 18:40:31  5-MIN KDBQ 150040Z 20010KT 10SM CLR 21/14 A2990 1090 67 2000 200/10 RMK AO2
94908KDBQ DBQ20080614184509406/14/08 18:45:31  5-MIN KDBQ 150045Z 20010KT 10SM CLR 21/14 A2990 1090 67 2000 200/10 RMK AO2
94908KDBQ DBQ20080614185011606/14/08 18:50:31  5-MIN KDBQ 150050Z AUTO 20010KT 10SM CLR 21/14 A2990 1100 67 2000 200/10 RMK AO2 SLP121 T02060144
94908KDBQ DBQ20080614185509906/14/08 18:55:31  5-MIN KDBQ 150055Z AUTO 20009KT 10SM CLR 21/15 A2990 1100 70 2000 200/09 RMK AO2
94908KDBQ DBQ20080614190009906/14/08 19:00:31  5-MIN KDBQ 150100Z AUTO 20008KT 10SM CLR 20/15 A2990 1100 72 2000 200/08 RMK AO2
94908KDBQ DBQ20080614190509906/14/08 19:05:31  5-MIN KDBQ 150105Z AUTO 19009KT 10SM CLR 20/15 A2990 1100 72 2000 190/09 RMK AO2
94908KDBQ DBQ20080614191009906/14/08 19:10:31  5-MIN KDBQ 150110Z AUTO 20009KT 10SM CLR 20/14 A2990 1090 70 2000 190/09 RMK AO2
94908KDBQ DBQ20080614191509906/14/08 19:15:31  5-MIN KDBQ 150115Z AUTO 20009KT 10SM CLR 19/14 A2990 1100 72 1900 200/09 RMK AO2
94908KDBQ DBQ20080614192009906/14/08 19:20:31  5-MIN KDBQ 150120Z AUTO 20010KT 10SM CLR 19/14 A2990 1100 72 1900 200/10 RMK AO2
94908KDBQ DBQ20080614192509906/14/08 19:25:31  5-MIN KDBQ 150125Z AUTO 20009KT 10SM CLR 19/14 A2990 1100 72 1900 200/09 RMK AO2
94908KDBQ DBQ20080614193009906/14/08 19:30:31  5-MIN KDBQ 150130Z AUTO 20009KT 10SM CLR 19/14 A2990 1100 72 1900 200/09 RMK AO2
94908KDBQ DBQ20080614193509906/14/08 19:35:31  5-MIN KDBQ 150135Z AUTO 20009KT 10SM CLR 19/14 A2990 1100 75 1800 200/09 RMK AO2
94908KDBQ DBQ20080614194009906/14/08 19:40:31  5-MIN KDBQ 150140Z AUTO 20009KT 10SM CLR 19/14 A2990 1100 75 1900 200/09 RMK AO2
94908KDBQ DBQ20080614194509906/14/08 19:45:31  5-MIN KDBQ 150145Z AUTO 20008KT 10SM CLR 19/14 A2990 1100 75 1800 200/08 RMK AO2
94908KDBQ DBQ20080614195011606/14/08 19:50:31  5-MIN KDBQ 150150Z AUTO 20007KT 10SM CLR 18/14 A2990 1100 78 1800 200/07 RMK AO2 SLP120 T01830144
94908KDBQ DBQ20080614195509906/14/08 19:55:31  5-MIN KDBQ 150155Z AUTO 20007KT 10SM CLR 18/14 A2990 1100 78 1800 200/07 RMK AO2
94908KDBQ DBQ20080614200009906/14/08 20:00:31  5-MIN KDBQ 150200Z AUTO 20007KT 10SM CLR 18/14 A2990 1100 78 1800 200/07 RMK AO2
94908KDBQ DBQ20080614200509906/14/08 20:05:31  5-MIN KDBQ 150205Z AUTO 20006KT 10SM CLR 18/14 A2990 1100 81 1700 200/06 RMK AO2
94908KDBQ DBQ20080614201009906/14/08 20:10:31  5-MIN KDBQ 150210Z AUTO 21007KT 10SM CLR 18/14 A2990 1090 81 1700 210/07 RMK AO2
94908KDBQ DBQ20080614201509906/14/08 20:15:31  5-MIN KDBQ 150215Z AUTO 20007KT 10SM CLR 18/14 A2990 1090 78 1800 200/07 RMK AO2
94908KDBQ DBQ20080614202009906/14/08 20:20:31  5-MIN KDBQ 150220Z AUTO 20006KT 10SM CLR 18/14 A2991 1090 81 1700 200/06 RMK AO2
94908KDBQ DBQ20080614202509906/14/08 20:25:31  5-MIN KDBQ 150225Z AUTO 21005KT 10SM CLR 17/14 A2991 1090 83 1600 210/05 RMK AO2
94908KDBQ DBQ20080614203009906/14/08 20:30:31  5-MIN KDBQ 150230Z AUTO 21004KT 10SM CLR 17/14 A2991 1090 83 1600 210/04 RMK AO2
94908KDBQ DBQ20080614203509906/14/08 20:35:31  5-MIN KDBQ 150235Z AUTO 21005KT 10SM CLR 17/14 A2991 1090 80 1600 210/05 RMK AO2
94908KDBQ DBQ20080614204009906/14/08 20:40:31  5-MIN KDBQ 150240Z AUTO 20005KT 10SM CLR 17/14 A2991 1090 80 1600 200/05 RMK AO2
94908KDBQ DBQ20080614204509906/14/08 20:45:31  5-MIN KDBQ 150245Z AUTO 20005KT 10SM CLR 17/14 A2991 1090 80 1600 200/05 RMK AO2
94908KDBQ DBQ20080614205012206/14/08 20:50:31  5-MIN KDBQ 150250Z AUTO 20006KT 10SM CLR 17/14 A2991 1090 83 1600 200/06 RMK AO2 SLP125 T01670139 51005
94908KDBQ DBQ20080614205509906/14/08 20:55:31  5-MIN KDBQ 150255Z AUTO 20006KT 10SM CLR 17/14 A2991 1090 83 1600 200/06 RMK AO2
94908KDBQ DBQ20080614210009906/14/08 21:00:31  5-MIN KDBQ 150300Z AUTO 21006KT 10SM CLR 16/14 A2991 1090 86 1500 200/06 RMK AO2
94908KDBQ DBQ20080614210509906/14/08 21:05:31  5-MIN KDBQ 150305Z AUTO 20005KT 10SM CLR 16/14 A2991 1090 86 1500 200/05 RMK AO2
94908KDBQ DBQ20080614211009906/14/08 21:10:31  5-MIN KDBQ 150310Z AUTO 20005KT 10SM CLR 17/14 A2991 1090 83 1600 200/05 RMK AO2
94908KDBQ DBQ20080614211509906/14/08 21:15:31  5-MIN KDBQ 150315Z AUTO 20006KT 10SM CLR 17/14 A2991 1090 83 1600 200/06 RMK AO2
94908KDBQ DBQ20080614212009906/14/08 21:20:31  5-MIN KDBQ 150320Z AUTO 20006KT 10SM CLR 17/14 A2991 1090 83 1600 200/06 RMK AO2
94908KDBQ DBQ20080614212509906/14/08 21:25:31  5-MIN KDBQ 150325Z AUTO 20006KT 10SM CLR 17/14 A2991 1090 83 1600 200/06 RMK AO2
94908KDBQ DBQ20080614213009906/14/08 21:30:31  5-MIN KDBQ 150330Z AUTO 20006KT 10SM CLR 16/14 A2991 1090 86 1500 200/06 RMK AO2
94908KDBQ DBQ20080614213509906/14/08 21:35:31  5-MIN KDBQ 150335Z AUTO 20006KT 10SM CLR 16/14 A2991 1090 86 1500 200/06 RMK AO2
94908KDBQ DBQ20080614214009906/14/08 21:40:31  5-MIN KDBQ 150340Z AUTO 20006KT 10SM CLR 16/14 A2991 1090 86 1500 200/06 RMK AO2
94908KDBQ DBQ20080614214509906/14/08 21:45:31  5-MIN KDBQ 150345Z AUTO 20004KT 10SM CLR 16/14 A2991 1090 86 1500 200/04 RMK AO2
94908KDBQ DBQ20080614215011606/14/08 21:50:31  5-MIN KDBQ 150350Z AUTO 19004KT 10SM CLR 16/14 A2991 1090 86 1500 190/04 RMK AO2 SLP124 T01610139
94908KDBQ DBQ20080614215509906/14/08 21:55:31  5-MIN KDBQ 150355Z AUTO 20004KT 10SM CLR 17/14 A2991 1080 83 1600 200/04 RMK AO2
94908KDBQ DBQ20080614220009906/14/08 22:00:31  5-MIN KDBQ 150400Z AUTO 19003KT 10SM CLR 17/14 A2991 1080 83 1600 190/03 RMK AO2
94908KDBQ DBQ20080614220509906/14/08 22:05:31  5-MIN KDBQ 150405Z AUTO 20003KT 10SM CLR 17/14 A2991 1090 83 1600 190/03 RMK AO2
94908KDBQ DBQ20080614221009906/14/08 22:10:31  5-MIN KDBQ 150410Z AUTO 19004KT 10SM CLR 17/14 A2991 1090 83 1600 190/04 RMK AO2
94908KDBQ DBQ20080614221509906/14/08 22:15:31  5-MIN KDBQ 150415Z AUTO 19005KT 10SM CLR 17/14 A2991 1090 83 1600 190/05 RMK AO2
94908KDBQ DBQ20080614222009906/14/08 22:20:31  5-MIN KDBQ 150420Z AUTO 19006KT 10SM CLR 16/14 A2991 1090 90 1400 190/06 RMK AO2
94908KDBQ DBQ20080614222509906/14/08 22:25:31  5-MIN KDBQ 150425Z AUTO 20006KT 10SM CLR 16/14 A2991 1090 90 1400 190/06 RMK AO2
94908KDBQ DBQ20080614223009906/14/08 22:30:31  5-MIN KDBQ 150430Z AUTO 19006KT 10SM CLR 16/14 A2991 1090 90 1500 190/06 RMK AO2
94908KDBQ DBQ20080614223509906/14/08 22:35:31  5-MIN KDBQ 150435Z AUTO 19006KT 10SM CLR 16/14 A2991 1090 90 1500 190/06 RMK AO2
94908KDBQ DBQ20080614224009906/14/08 22:40:31  5-MIN KDBQ 150440Z AUTO 19006KT 10SM CLR 16/14 A2991 1090 90 1400 190/06 RMK AO2
94908KDBQ DBQ20080614224509906/14/08 22:45:31  5-MIN KDBQ 150445Z AUTO 19006KT 10SM CLR 16/14 A2991 1090 90 1500 190/06 RMK AO2
94908KDBQ DBQ20080614225011606/14/08 22:50:31  5-MIN KDBQ 150450Z AUTO 19006KT 10SM CLR 16/14 A2990 1100 86 1500 190/06 RMK AO2 SLP121 T01610139
94908KDBQ DBQ20080614225509906/14/08 22:55:31  5-MIN KDBQ 150455Z AUTO 19006KT 10SM CLR 16/14 A2990 1100 86 1500 190/06 RMK AO2
94908KDBQ DBQ20080614230009906/14/08 23:00:31  5-MIN KDBQ 150500Z AUTO 19006KT 10SM CLR 16/14 A2990 1100 86 1500 190/06 RMK AO2
94908KDBQ DBQ20080614230509906/14/08 23:05:31  5-MIN KDBQ 150505Z AUTO 19006KT 10SM CLR 16/14 A2990 1100 86 1500 190/06 RMK AO2
94908KDBQ DBQ20080614231009906/14/08 23:10:31  5-MIN KDBQ 150510Z AUTO 20006KT 10SM CLR 16/14 A2990 1100 86 1500 200/06 RMK AO2
94908KDBQ DBQ20080614231509906/14/08 23:15:31  5-MIN KDBQ 150515Z AUTO 19007KT 10SM CLR 16/14 A2990 1100 86 1500 190/07 RMK AO2
94908KDBQ DBQ20080614232009906/14/08 23:20:31  5-MIN KDBQ 150520Z AUTO 19007KT 10SM CLR 16/14 A2989 1100 86 1500 190/07 RMK AO2
94908KDBQ DBQ20080614232509906/14/08 23:25:31  5-MIN KDBQ 150525Z AUTO 20007KT 10SM CLR 16/14 A2990 1100 86 1500 200/07 RMK AO2
94908KDBQ DBQ20080614233009906/14/08 23:30:31  5-MIN KDBQ 150530Z AUTO 20006KT 10SM CLR 17/14 A2990 1100 83 1600 200/06 RMK AO2
94908KDBQ DBQ20080614233509906/14/08 23:35:31  5-MIN KDBQ 150535Z AUTO 21005KT 10SM CLR 16/14 A2990 1100 86 1500 210/05 RMK AO2
94908KDBQ DBQ20080614234009906/14/08 23:40:31  5-MIN KDBQ 150540Z AUTO 21005KT 10SM CLR 16/14 A2990 1100 86 1500 210/05 RMK AO2
94908KDBQ DBQ20080614234509906/14/08 23:45:31  5-MIN KDBQ 150545Z AUTO 20004KT 10SM CLR 16/14 A2989 1100 86 1500 200/04 RMK AO2
94908KDBQ DBQ20080614235014406/14/08 23:50:31  5-MIN KDBQ 150550Z AUTO 20005KT 10SM CLR 16/13 A2989 1100 86 1500 200/05 RMK AO2 SLP118 T01560133 10222 20156 402720122 53006
94908KDBQ DBQ20080614235509906/14/08 23:55:31  5-MIN KDBQ 150555Z AUTO 20006KT 10SM CLR 16/13 A2990 1100 83 1500 200/06 RMK AO2
94908KDBQ DBQ20080615000009906/15/08 00:00:38  5-MIN KDBQ 150600Z AUTO 20005KT 10SM CLR 16/14 A2990 1100 86 1500 200/05 RMK AO2
94908KDBQ DBQ20080615000509906/15/08 00:05:31  5-MIN KDBQ 150605Z AUTO 21005KT 10SM CLR 16/13 A2990 1100 86 1500 200/05 RMK AO2
94908KDBQ DBQ20080615001009906/15/08 00:10:31  5-MIN KDBQ 150610Z AUTO 20005KT 10SM CLR 16/13 A2990 1100 86 1500 200/05 RMK AO2
94908KDBQ DBQ20080615001509906/15/08 00:15:32  5-MIN KDBQ 150615Z AUTO 21005KT 10SM CLR 16/13 A2990 1100 86 1500 210/05 RMK AO2
94908KDBQ DBQ20080615002009906/15/08 00:20:31  5-MIN KDBQ 150620Z AUTO 20005KT 10SM CLR 16/13 A2989 1100 86 1500 200/05 RMK AO2
94908KDBQ DBQ20080615002509906/15/08 00:25:31  5-MIN KDBQ 150625Z AUTO 20005KT 10SM CLR 16/14 A2989 1100 90 1500 200/05 RMK AO2
94908KDBQ DBQ20080615003009906/15/08 00:30:31  5-MIN KDBQ 150630Z AUTO 20005KT 10SM CLR 16/14 A2989 1100 90 1500 200/05 RMK AO2
94908KDBQ DBQ20080615003509906/15/08 00:35:31  5-MIN KDBQ 150635Z AUTO 20005KT 10SM CLR 16/14 A2989 1110 90 1500 200/05 RMK AO2
94908KDBQ DBQ20080615004009906/15/08 00:40:31  5-MIN KDBQ 150640Z AUTO 20005KT 10SM CLR 16/14 A2989 1110 86 1500 200/05 RMK AO2
94908KDBQ DBQ20080615004509906/15/08 00:45:31  5-MIN KDBQ 150645Z AUTO 20006KT 10SM CLR 16/14 A2989 1110 86 1500 200/06 RMK AO2
94908KDBQ DBQ20080615005011606/15/08 00:50:31  5-MIN KDBQ 150650Z AUTO 20005KT 10SM CLR 16/14 A2989 1110 86 1500 200/05 RMK AO2 SLP115 T01610139
94908KDBQ DBQ20080615005510206/15/08 00:55:31  5-MIN KDBQ 150655Z AUTO 20005KT 10SM FEW110 16/14 A2989 1110 90 1500 200/05 RMK AO2
94908KDBQ DBQ20080615010010206/15/08 01:00:31  5-MIN KDBQ 150700Z AUTO 20004KT 10SM FEW110 16/14 A2988 1110 90 1500 200/04 RMK AO2
94908KDBQ DBQ20080615010510206/15/08 01:05:31  5-MIN KDBQ 150705Z AUTO 20004KT 10SM FEW110 16/14 A2988 1120 90 1500 200/04 RMK AO2
94908KDBQ DBQ20080615011010206/15/08 01:10:31  5-MIN KDBQ 150710Z AUTO 20004KT 10SM FEW110 16/14 A2988 1120 90 1500 200/04 RMK AO2
94908KDBQ DBQ20080615011510206/15/08 01:15:31  5-MIN KDBQ 150715Z AUTO 20004KT 10SM FEW120 16/14 A2987 1120 90 1600 200/04 RMK AO2
94908KDBQ DBQ20080615012010206/15/08 01:20:31  5-MIN KDBQ 150720Z AUTO 20004KT 10SM FEW120 16/14 A2987 1120 90 1600 200/04 RMK AO2
94908KDBQ DBQ20080615012510206/15/08 01:25:31  5-MIN KDBQ 150725Z AUTO 20003KT 10SM SCT110 16/14 A2987 1120 90 1600 200/03 RMK AO2
94908KDBQ DBQ20080615013010206/15/08 01:30:31  5-MIN KDBQ 150730Z AUTO 00000KT 10SM SCT110 16/14 A2988 1120 90 1500 000/00 RMK AO2
94908KDBQ DBQ20080615013510806/15/08 01:35:31  5-MIN KDBQ 150735Z AUTO 33015G20KT 10SM BKN110 16/14 A2989 1100 90 1500 330/15G20 RMK AO2
94908KDBQ DBQ20080615014010806/15/08 01:40:31  5-MIN KDBQ 150740Z AUTO VRB06G22KT 10SM BKN110 18/14 A2988 1110 78 1800 VRB/06G22 RMK AO2
94908KDBQ DBQ20080615014510806/15/08 01:45:31  5-MIN KDBQ 150745Z AUTO 34012G22KT 10SM BKN110 18/14 A2990 1100 78 1800 340/12G22 RMK AO2
94908KDBQ DBQ20080615015013006/15/08 01:50:31  5-MIN KDBQ 150750Z AUTO 00000KT 10SM BKN110 18/14 A2989 1100 81 1700 000/00 RMK AO2 LTG DSNT W SLP116 T01780144
94908KDBQ DBQ20080615015511306/15/08 01:55:31  5-MIN KDBQ 150755Z AUTO VRB03KT 10SM BKN110 17/15 A2989 1110 87 1700 VRB/03 RMK AO2 LTG DSNT W
94908KDBQ DBQ20080615020011306/15/08 02:00:31  5-MIN KDBQ 150800Z AUTO 00000KT 10SM OVC110 17/14 A2988 1110 83 1700 000/00 RMK AO2 LTG DSNT W
94908KDBQ DBQ20080615020511906/15/08 02:05:31  5-MIN KDBQ 150805Z AUTO 24003KT 9SM FEW075 OVC110 17/15 A2990 1100 87 1700 240/03 RMK AO2 LTG DSNT W
94908KDBQ DBQ20080615021014506/15/08 02:10:31  5-MIN KDBQ 150810Z AUTO 08003KT 5SM +TSRA BR SCT040 OVC100 17/15 A2988 1120 90 1600 080/03 RMK AO2 LTG DSNT W TSB07RAB06 P0002
94908KDBQ DBQ20080615021515906/15/08 02:15:31  5-MIN KDBQ 150815Z AUTO VRB03KT 5SM -TSRA BR SCT035 BKN100 OVC110 17/15 A2988 1120 87 1700 VRB/03 RMK AO2 LTG DSNT W AND NW TSB07RAB06 P0003
94908KDBQ DBQ20080615022015006/15/08 02:20:31  5-MIN KDBQ 150820Z AUTO 17004KT 10SM -TSRA FEW045 OVC095 17/15 A2989 1110 90 1600 170/04 RMK AO2 LTG DSNT W AND NW TSB07RAB06 P0003
94908KDBQ DBQ20080615022514906/15/08 02:25:31  5-MIN KDBQ 150825Z AUTO 20006KT 10SM VCTS SCT065 BKN095 17/15 A2989 1110 90 1600 190/06 RMK AO2 LTG DSNT SW-NW TSB07RAB06E21 P0003
94908KDBQ DBQ20080615023014206/15/08 02:30:31  5-MIN KDBQ 150830Z AUTO 20004KT 10SM VCTS BKN090 17/15 A2988 1110 87 1700 200/04 RMK AO2 LTG DSNT SW-NW TSB07RAB06E21 P0003
94908KDBQ DBQ20080615023514006/15/08 02:35:31  5-MIN KDBQ 150835Z AUTO 22004KT 10SM BKN095 17/15 A2988 1110 90 1600 220/04 RMK AO2 LTG DSNT ALQDS TSB07E34RAB06E21 P0003
94908KDBQ DBQ20080615024015606/15/08 02:40:31  5-MIN KDBQ 150840Z AUTO 25004KT 10SM SCT085 OVC110 17/15 A2989 1110 90 1600 250/04 RMK AO2 LTG DSNT E AND W AND NW TSB07E34RAB06E21 P0003
94908KDBQ DBQ20080615024516206/15/08 02:45:31  5-MIN KDBQ 150845Z AUTO 00000KT 9SM -RA SCT090 OVC110 17/15 A2989 1110 90 1600 000/00 RMK AO2 LTG DSNT E AND W AND NW TSB07E34RAB06E21B45 P0003
94908KDBQ DBQ20080615025018506/15/08 02:50:31  5-MIN KDBQ 150850Z AUTO 28004KT 7SM -RA FEW080 OVC100 17/15 A2990 1100 90 1600 280/04 RMK AO2 LTG DSNT W AND NW TSB07E34RAB06E21B45 SLP120 P0003 60003 T01670150 58004
94908KDBQ DBQ20080615025515006/15/08 02:55:31  5-MIN KDBQ 150855Z AUTO 31009KT 7SM -RA FEW065 SCT080 OVC100 17/15 A2992 1080 90 1600 310/09 RMK AO2 LTG DSNT W AND NW PRESRR P0000
94908KDBQ DBQ20080615030013606/15/08 03:00:31  5-MIN KDBQ 150900Z AUTO 29006KT 7SM -RA SCT065 OVC085 17/16 A2992 1080 90 1600 290/06 RMK AO2 LTG DSNT W AND NW P0001
94908KDBQ DBQ20080615030515406/15/08 03:05:31  5-MIN KDBQ 150905Z AUTO 23003KT 4SM +TSRA BR SCT040 BKN070 OVC095 17/16 A2991 1090 90 1600 230/03 RMK AO2 LTG DSNT W AND NW TSB03 P0003
94908KDBQ DBQ20080615031016406/15/08 03:10:31  5-MIN KDBQ 150910Z AUTO 16006KT 2SM TSRA BR BKN034 BKN065 OVC095 17/16 A2991 1090 90 1600 160/06 RMK AO2 VIS 3/4V4 LTG DSNT NE AND NW TSB03 P0005
94908KDBQ DBQ20080615031517206/15/08 03:15:31  5-MIN KDBQ 150915Z AUTO 11010G15KT 2 1/2SM +TSRA BKN030 OVC065 18/15 A2987 1130 83 1800 110/10G15 RMK AO2 VIS 3/4V4 LTG DSNT NE AND NW TSB03 PRESFR P0006
94908KDBQ DBQ20080615032014606/15/08 03:20:31  5-MIN KDBQ 150920Z AUTO 04010G15KT 5SM -TSRA BKN026 BKN065 18/13 A2987 1130 72 1800 040/10G15 RMK AO2 LTG DSNT W-NE TSB03 P0009
94908KDBQ DBQ20080615032514306/15/08 03:25:31  5-MIN KDBQ 150925Z AUTO 36011KT 10SM -RA SCT026 BKN065 17/14 A2988 1120 86 1600 360/11 RMK AO2 LTG DSNT ALQDS TSB03E25 P0009
94908KDBQ DBQ20080615033013706/15/08 03:30:31  5-MIN KDBQ 150930Z AUTO 03008KT 10SM SCT026 17/15 A2987 1120 90 1600 030/08 RMK AO2 LTG DSNT ALQDS TSB03E25RAE27 P0009
94908KDBQ DBQ20080615033513706/15/08 03:35:31  5-MIN KDBQ 150935Z AUTO 03007KT 10SM SCT060 17/15 A2987 1120 90 1600 030/07 RMK AO2 LTG DSNT ALQDS TSB03E25RAE27 P0009
94908KDBQ DBQ20080615034013706/15/08 03:40:31  5-MIN KDBQ 150940Z AUTO 04008KT 10SM BKN080 17/15 A2986 1130 90 1600 040/08 RMK AO2 LTG DSNT ALQDS TSB03E25RAE27 P0009
94908KDBQ DBQ20080615034514406/15/08 03:45:31  5-MIN KDBQ 150945Z AUTO 01007KT 10SM FEW070 BKN100 17/15 A2989 1110 90 1600 010/07 RMK AO2 LTG DSNT ALQDS TSB03E25RAE27 P0009
94908KDBQ DBQ20080615035019306/15/08 03:50:31  5-MIN KDBQ 150950Z AUTO 31020G29KT 10SM -TSRA FEW049 SCT070 BKN100 17/15 A2995 1050 90 1500 310/20G29 RMK AO2 PK WND 32029/0947 LTG DSNT SW-N TSB03E25B48RAE27B47 PRESRR P0009
94908KDBQ DBQ20080615035517206/15/08 03:55:31  5-MIN KDBQ 150955Z AUTO 31018G29KT 5SM +TSRA FEW049 SCT060 BKN075 17/14 A2997 1030 83 1600 310/18G29 RMK AO2 PK WND 30026/0955 LTG DSNT SW-N PRESRR P0001
94908KDBQ DBQ20080615040018106/15/08 04:00:31  5-MIN KDBQ 151000Z AUTO 32021G34KT 1 3/4SM +TSRA BR BKN050 OVC070 16/14 A2998 1020 90 1400 320/21G34 RMK AO2 PK WND 32034/0958 WSHFT 0946 LTG DSNT SW PRESRR P0008
94908KDBQ DBQ20080615040518706/15/08 04:05:31  5-MIN KDBQ 151005Z AUTO 34014G34KT 1 3/4SM +TSRA BR BKN037 BKN050 OVC070 16/14 A2998 1020 90 1400 340/14G34 RMK AO2 PK WND 32034/0958 WSHFT 0946 LTG DSNT S AND SW P0015
94908KDBQ DBQ20080615041018006/15/08 04:10:31  5-MIN KDBQ 151010Z AUTO 34010G26KT 4SM +TSRA BR BKN029 BKN050 OVC065 16/14 A2999 1020 86 1400 340/10G26 RMK AO2 PK WND 32034/0958 WSHFT 0946 LTG DSNT ALQDS P0017
94908KDBQ DBQ20080615041516706/15/08 04:15:31  5-MIN KDBQ 151015Z AUTO 35004KT 4SM +TSRA BR BKN022 OVC055 16/14 A2997 1030 86 1400 350/04 RMK AO2 PK WND 32034/0958 WSHFT 0946 LTG DSNT ALQDS P0019
94908KDBQ DBQ20080615042015906/15/08 04:20:31  5-MIN KDBQ 151020Z AUTO 02003KT 4SM TSRA BR OVC022 16/14 A2997 1040 86 1400 020/03 RMK AO2 PK WND 32034/0958 WSHFT 0946 LTG DSNT ALQDS P0022
94908KDBQ DBQ20080615042516206/15/08 04:25:31  5-MIN KDBQ 151025Z AUTO 00000KT 5SM VCTS RA BR OVC024 16/14 A2997 1030 90 1400 000/00 RMK AO2 PK WND 32034/0958 WSHFT 0946 LTG DSNT ALQDS P0023
94908KDBQ DBQ20080615043016206/15/08 04:30:31  5-MIN KDBQ 151030Z AUTO 23007KT 5SM VCTS RA BR OVC026 16/14 A2997 1030 90 1400 230/07 RMK AO2 PK WND 32034/0958 WSHFT 0946 LTG DSNT ALQDS P0024
94908KDBQ DBQ20080615043516306/15/08 04:35:31  5-MIN KDBQ 151035Z AUTO 21008KT 4SM VCTS +RA BR OVC024 16/14 A2997 1030 93 1400 210/08 RMK AO2 PK WND 32034/0958 WSHFT 0946 LTG DSNT ALQDS P0026
94908KDBQ DBQ20080615044016006/15/08 04:40:31  5-MIN KDBQ 151040Z AUTO 20008KT 4SM +TSRA BR OVC024 16/14 A2996 1040 93 1400 200/08 RMK AO2 PK WND 32034/0958 WSHFT 0946 LTG DSNT ALQDS P0029
94908KDBQ DBQ20080615044516306/15/08 04:45:31  5-MIN KDBQ 151045Z AUTO 16020G27KT 5SM TSRA BR OVC024 16/14 A2984 1150 93 1500 160/20G27 RMK AO2 PK WND 32034/0958 WSHFT 0946 LTG DSNT E-S P0031
94908KDBQ DBQ20080615045016506/15/08 04:50:31  5-MIN KDBQ 151050Z 15019G27KT 6SM TSRA BR BKN030 OVC100 16/14 A2982 1170 90 1600 150/19G27 RMK AO2 PK WND 32034/0958 WSHFT 0946 LTG DSNT E-S P0031
94908KDBQ DBQ20080615045513706/15/08 04:55:31  5-MIN KDBQ 151055Z 15013G26KT 8SM -RA BKN035 BKN100 16/14 A2982 1170 86 1600 150/13G26 RMK AO2 LTG DSNT E AND SE P0000
94908KDBQ DBQ20080615050014506/15/08 05:00:31  5-MIN KDBQ 151100Z 16015G26KT 10SM SCT034 BKN100 16/14 A2983 1160 86 1600 160/15G26 RMK AO2 WSHFT 1042 LTG DSNT SE RAE00 P0000
94908KDBQ DBQ20080615050514506/15/08 05:05:31  5-MIN KDBQ 151105Z 14012G20KT 10SM SCT036 SCT110 16/14 A2983 1160 86 1600 140/12G20 RMK AO2 WSHFT 1042 LTG DSNT SE RAE00 P0000
94908KDBQ DBQ20080615051013906/15/08 05:10:31  5-MIN KDBQ 151110Z 15013KT 10SM FEW044 SCT110 16/14 A2983 1160 86 1600 150/13 RMK AO2 WSHFT 1042 LTG DSNT SE RAE00 P0000
94908KDBQ DBQ20080615051513806/15/08 05:15:31  5-MIN KDBQ 151115Z 19006G17KT 10SM FEW090 16/14 A2985 1150 86 1600 190/06G17 RMK AO2 WSHFT 1042 LTG DSNT SE RAE00 P0000
94908KDBQ DBQ20080615052012906/15/08 05:20:31  5-MIN KDBQ 151120Z VRB06KT 10SM CLR 16/14 A2985 1140 86 1600 VRB/06 RMK AO2 WSHFT 1042 LTG DSNT SE RAE00 P0000
94908KDBQ DBQ20080615052512006/15/08 05:25:31  5-MIN KDBQ 151125Z 17005KT 10SM FEW080 16/14 A2985 1140 86 1600 170/05 RMK AO2 WSHFT 1042 RAE00 P0000
94908KDBQ DBQ20080615053012706/15/08 05:30:31  5-MIN KDBQ 151130Z 24006KT 10SM SCT080 16/14 A2986 1130 90 1500 240/06 RMK AO2 WSHFT 1042 RAE00 PRESRR P0000
94908KDBQ DBQ20080615053512706/15/08 05:35:31  5-MIN KDBQ 151135Z 20008KT 10SM SCT080 SCT100 16/14 A2987 1130 86 1600 200/08 RMK AO2 WSHFT 1042 RAE00 P0000
94908KDBQ DBQ20080615054012706/15/08 05:40:31  5-MIN KDBQ 151140Z 20007KT 10SM SCT080 BKN100 16/14 A2987 1130 90 1600 200/07 RMK AO2 WSHFT 1042 RAE00 P0000
94908KDBQ DBQ20080615054512706/15/08 05:45:31  5-MIN KDBQ 151145Z 20007KT 10SM SCT080 BKN100 16/14 A2987 1130 93 1500 200/07 RMK AO2 WSHFT 1042 RAE00 P0000
94908KDBQ DBQ20080615055017406/15/08 05:50:31  5-MIN KDBQ 151150Z 21007KT 10SM FEW080 SCT100 16/14 A2987 1130 93 1500 210/07 RMK AO2 WSHFT 1042 RAE00 SLP112 P0000 60044 70044 T01560144 10189 20156 53004
94908KDBQ DBQ20080615055510406/15/08 05:55:31  5-MIN KDBQ 151155Z 21005KT 10SM FEW080 SCT100 16/14 A2987 1130 90 1600 210/05 RMK AO2
94908KDBQ DBQ20080615060009706/15/08 06:00:31  5-MIN KDBQ 151200Z 21007KT 10SM FEW080 16/14 A2987 1130 90 1600 200/07 RMK AO2
94908KDBQ DBQ20080615060509706/15/08 06:05:31  5-MIN KDBQ 151205Z 22005KT 10SM FEW100 16/14 A2987 1120 90 1600 220/05 RMK AO2
94908KDBQ DBQ20080615061010606/15/08 06:10:31  5-MIN KDBQ 151210Z 22005KT 10SM CLR 16/14 A2987 1120 90 1600 220/05 RMK AO2 LTG DSNT NE
94908KDBQ DBQ20080615061510606/15/08 06:15:31  5-MIN KDBQ 151215Z 22005KT 10SM CLR 16/14 A2987 1120 90 1600 220/05 RMK AO2 LTG DSNT NE
94908KDBQ DBQ20080615062010606/15/08 06:20:31  5-MIN KDBQ 151220Z 22004KT 10SM CLR 16/14 A2988 1120 90 1500 220/04 RMK AO2 LTG DSNT NE
94908KDBQ DBQ20080615062509406/15/08 06:25:31  5-MIN KDBQ 151225Z 22004KT 10SM CLR 16/15 A2988 1120 93 1500 220/04 RMK AO2
94908KDBQ DBQ20080615063009406/15/08 06:30:31  5-MIN KDBQ 151230Z 22006KT 10SM CLR 16/14 A2988 1110 90 1500 220/06 RMK AO2
94908KDBQ DBQ20080615063509406/15/08 06:35:31  5-MIN KDBQ 151235Z 21006KT 10SM CLR 16/15 A2989 1110 93 1500 210/06 RMK AO2
94908KDBQ DBQ20080615064009706/15/08 06:40:31  5-MIN KDBQ 151240Z 20008KT 10SM FEW046 17/15 A2988 1110 90 1600 200/08 RMK AO2
94908KDBQ DBQ20080615064509706/15/08 06:45:31  5-MIN KDBQ 151245Z 21009KT 10SM FEW046 17/16 A2988 1110 90 1700 200/09 RMK AO2
94908KDBQ DBQ20080615065011406/15/08 06:50:31  5-MIN KDBQ 151250Z 20008KT 10SM SCT046 17/15 A2988 1110 87 1700 200/08 RMK AO2 SLP117 T01720150
94908KDBQ DBQ20080615065509706/15/08 06:55:31  5-MIN KDBQ 151255Z 21009KT 10SM BKN046 17/15 A2989 1110 90 1600 210/09 RMK AO2
94908KDBQ DBQ20080615070009706/15/08 07:00:31  5-MIN KDBQ 151300Z 21009KT 10SM BKN046 17/15 A2989 1110 90 1600 210/09 RMK AO2
94908KDBQ DBQ20080615070509706/15/08 07:05:31  5-MIN KDBQ 151305Z 20010KT 10SM BKN046 17/15 A2989 1110 87 1700 200/10 RMK AO2
94908KDBQ DBQ20080615071009706/15/08 07:10:31  5-MIN KDBQ 151310Z 19008KT 10SM OVC044 17/15 A2988 1110 87 1700 190/08 RMK AO2
94908KDBQ DBQ20080615071509706/15/08 07:15:31  5-MIN KDBQ 151315Z 20007KT 10SM OVC044 17/15 A2989 1110 87 1700 200/07 RMK AO2
94908KDBQ DBQ20080615072009706/15/08 07:20:31  5-MIN KDBQ 151320Z 20009KT 10SM OVC044 17/15 A2989 1110 87 1700 200/09 RMK AO2
94908KDBQ DBQ20080615072510406/15/08 07:25:31  5-MIN KDBQ 151325Z 19006KT 10SM BKN041 OVC049 17/16 A2989 1110 90 1700 190/06 RMK AO2
94908KDBQ DBQ20080615073010406/15/08 07:30:31  5-MIN KDBQ 151330Z 19009KT 10SM BKN039 OVC049 18/16 A2989 1110 87 1700 190/09 RMK AO2
94908KDBQ DBQ20080615073509706/15/08 07:35:31  5-MIN KDBQ 151335Z 20010KT 10SM OVC039 18/16 A2989 1110 87 1700 190/10 RMK AO2
94908KDBQ DBQ20080615074009706/15/08 07:40:31  5-MIN KDBQ 151340Z 19011KT 10SM OVC039 18/16 A2988 1110 87 1700 190/11 RMK AO2
94908KDBQ DBQ20080615074510406/15/08 07:45:31  5-MIN KDBQ 151345Z 19013KT 10SM BKN041 OVC049 18/16 A2988 1120 84 1800 190/13 RMK AO2
94908KDBQ DBQ20080615075011406/15/08 07:50:31  5-MIN KDBQ 151350Z 20011KT 10SM BKN041 18/16 A2988 1120 84 1800 190/11 RMK AO2 SLP115 T01830156
94908KDBQ DBQ20080615075509706/15/08 07:55:31  5-MIN KDBQ 151355Z 19011KT 10SM BKN041 18/16 A2988 1120 84 1800 190/11 RMK AO2
94908KDBQ DBQ20080615080009706/15/08 08:00:31  5-MIN KDBQ 151400Z 20012KT 10SM BKN041 19/16 A2988 1120 81 1900 190/12 RMK AO2
94908KDBQ DBQ20080615080509706/15/08 08:05:31  5-MIN KDBQ 151405Z 20011KT 10SM SCT041 19/16 A2987 1120 84 1900 200/11 RMK AO2
94908KDBQ DBQ20080615081009706/15/08 08:10:31  5-MIN KDBQ 151410Z 20011KT 10SM FEW041 19/16 A2987 1120 81 1900 200/11 RMK AO2
94908KDBQ DBQ20080615081509706/15/08 08:15:31  5-MIN KDBQ 151415Z 20013KT 10SM FEW041 20/16 A2987 1120 78 2000 200/13 RMK AO2
94908KDBQ DBQ20080615082009406/15/08 08:20:31  5-MIN KDBQ 151420Z 19012KT 10SM CLR 20/16 A2987 1130 78 2000 190/12 RMK AO2
94908KDBQ DBQ20080615082509406/15/08 08:25:31  5-MIN KDBQ 151425Z 19010KT 10SM CLR 20/16 A2986 1130 78 2000 190/10 RMK AO2
94908KDBQ DBQ20080615083009406/15/08 08:30:31  5-MIN KDBQ 151430Z 19010KT 10SM CLR 21/16 A2986 1130 75 2100 190/10 RMK AO2
94908KDBQ DBQ20080615083509406/15/08 08:35:31  5-MIN KDBQ 151435Z 19011KT 10SM CLR 21/16 A2986 1140 75 2100 190/11 RMK AO2
94908KDBQ DBQ20080615084009406/15/08 08:40:31  5-MIN KDBQ 151440Z 20010KT 10SM CLR 20/16 A2986 1130 78 2000 200/10 RMK AO2
94908KDBQ DBQ20080615084509406/15/08 08:45:31  5-MIN KDBQ 151445Z 21011KT 10SM CLR 20/16 A2986 1130 78 2000 210/11 RMK AO2
94908KDBQ DBQ20080615085011706/15/08 08:50:31  5-MIN KDBQ 151450Z 20010KT 10SM CLR 21/17 A2986 1140 78 2100 200/10 RMK AO2 SLP107 T02060167 55013
94908KDBQ DBQ20080615085509406/15/08 08:55:31  5-MIN KDBQ 151455Z 20011KT 10SM CLR 21/17 A2985 1140 78 2200 190/11 RMK AO2
94908KDBQ DBQ20080615090009406/15/08 09:00:31  5-MIN KDBQ 151500Z 21013KT 10SM CLR 21/17 A2985 1140 75 2200 210/13 RMK AO2
94908KDBQ DBQ20080615090509406/15/08 09:05:31  5-MIN KDBQ 151505Z 20013KT 10SM CLR 22/17 A2985 1140 73 2200 200/13 RMK AO2
94908KDBQ DBQ20080615091009406/15/08 09:10:31  5-MIN KDBQ 151510Z 21010KT 10SM CLR 21/17 A2986 1140 75 2100 210/10 RMK AO2
94908KDBQ DBQ20080615091509406/15/08 09:15:31  5-MIN KDBQ 151515Z 24009KT 10SM CLR 22/17 A2985 1140 75 2200 230/09 RMK AO2
94908KDBQ DBQ20080615092009406/15/08 09:20:31  5-MIN KDBQ 151520Z 22011KT 10SM CLR 22/17 A2985 1140 73 2300 220/11 RMK AO2
94908KDBQ DBQ20080615092509406/15/08 09:25:31  5-MIN KDBQ 151525Z 21011KT 10SM CLR 23/18 A2985 1150 73 2400 210/11 RMK AO2
94908KDBQ DBQ20080615093009406/15/08 09:30:31  5-MIN KDBQ 151530Z 22010KT 10SM CLR 23/18 A2985 1150 73 2400 220/10 RMK AO2
94908KDBQ DBQ20080615093509406/15/08 09:35:31  5-MIN KDBQ 151535Z 21011KT 10SM CLR 23/18 A2985 1150 73 2400 210/11 RMK AO2
94908KDBQ DBQ20080615094010006/15/08 09:40:31  5-MIN KDBQ 151540Z 22013G19KT 10SM CLR 23/18 A2984 1150 70 2400 220/13G19 RMK AO2
94908KDBQ DBQ20080615094510006/15/08 09:45:31  5-MIN KDBQ 151545Z 22012G19KT 10SM CLR 23/18 A2984 1150 73 2400 220/12G19 RMK AO2
94908KDBQ DBQ20080615095011706/15/08 09:50:31  5-MIN KDBQ 151550Z 23010G18KT 10SM CLR 23/18 A2984 1150 73 2400 230/10G18 RMK AO2 SLP101 T02280178
94908KDBQ DBQ20080615095509406/15/08 09:55:31  5-MIN KDBQ 151555Z 22014KT 10SM CLR 22/18 A2985 1150 75 2300 210/14 RMK AO2
94908KDBQ DBQ20080615100009406/15/08 10:00:31  5-MIN KDBQ 151600Z 22011KT 10SM CLR 22/18 A2985 1140 78 2200 220/11 RMK AO2
94908KDBQ DBQ20080615100509406/15/08 10:05:31  5-MIN KDBQ 151605Z 22012KT 10SM CLR 22/18 A2985 1140 78 2200 220/12 RMK AO2
94908KDBQ DBQ20080615101009406/15/08 10:10:31  5-MIN KDBQ 151610Z 23011KT 10SM CLR 22/18 A2985 1140 75 2300 230/11 RMK AO2
94908KDBQ DBQ20080615101509406/15/08 10:15:31  5-MIN KDBQ 151615Z 23009KT 10SM CLR 22/18 A2986 1140 75 2300 230/09 RMK AO2
94908KDBQ DBQ20080615102009406/15/08 10:20:31  5-MIN KDBQ 151620Z 23013KT 10SM CLR 22/18 A2986 1130 75 2300 230/13 RMK AO2
94908KDBQ DBQ20080615102509406/15/08 10:25:31  5-MIN KDBQ 151625Z 24015KT 10SM CLR 22/18 A2987 1130 75 2300 240/15 RMK AO2
94908KDBQ DBQ20080615103010006/15/08 10:30:31  5-MIN KDBQ 151630Z 24009G19KT 10SM CLR 22/18 A2987 1130 75 2300 240/09G19 RMK AO2
94908KDBQ DBQ20080615103509406/15/08 10:35:31  5-MIN KDBQ 151635Z 24009KT 10SM CLR 22/18 A2986 1130 78 2300 240/09 RMK AO2
94908KDBQ DBQ20080615104009406/15/08 10:40:31  5-MIN KDBQ 151640Z 24008KT 10SM CLR 23/18 A2986 1130 76 2300 240/08 RMK AO2
94908KDBQ DBQ20080615104509406/15/08 10:45:31  5-MIN KDBQ 151645Z 24011KT 10SM CLR 23/19 A2986 1130 76 2400 240/11 RMK AO2
94908KDBQ DBQ20080615105011106/15/08 10:50:31  5-MIN KDBQ 151650Z 24012KT 10SM CLR 23/18 A2985 1140 76 2300 240/12 RMK AO2 SLP105 T02280183
94908KDBQ DBQ20080615105509406/15/08 10:55:31  5-MIN KDBQ 151655Z 23014KT 10SM CLR 23/18 A2985 1150 73 2400 230/14 RMK AO2
94908KDBQ DBQ20080615110009406/15/08 11:00:31  5-MIN KDBQ 151700Z 25011KT 10SM CLR 23/19 A2985 1140 76 2400 250/11 RMK AO2
94908KDBQ DBQ20080615110509406/15/08 11:05:31  5-MIN KDBQ 151705Z 25012KT 10SM CLR 23/19 A2985 1140 76 2400 240/12 RMK AO2
94908KDBQ DBQ20080615111009406/15/08 11:10:31  5-MIN KDBQ 151710Z 25013KT 10SM CLR 24/19 A2987 1130 73 2500 250/13 RMK AO2
94908KDBQ DBQ20080615111510006/15/08 11:15:31  5-MIN KDBQ 151715Z 26010G17KT 10SM CLR 24/19 A2987 1120 76 2400 260/10G17 RMK AO2
94908KDBQ DBQ20080615112010306/15/08 11:20:31  5-MIN KDBQ 151720Z 26014G20KT 10SM FEW022 24/19 A2987 1130 73 2500 260/14G20 RMK AO2
94908KDBQ DBQ20080615112510306/15/08 11:25:31  5-MIN KDBQ 151725Z 27013G20KT 10SM FEW022 23/18 A2988 1110 76 2300 270/13G20 RMK AO2
94908KDBQ DBQ20080615113009706/15/08 11:30:31  5-MIN KDBQ 151730Z 26013KT 10SM FEW022 23/18 A2988 1120 76 2300 260/13 RMK AO2
94908KDBQ DBQ20080615113509706/15/08 11:35:31  5-MIN KDBQ 151735Z 27010KT 10SM FEW022 23/18 A2988 1120 76 2300 270/10 RMK AO2
94908KDBQ DBQ20080615114010306/15/08 11:40:31  5-MIN KDBQ 151740Z 27012G16KT 10SM FEW022 23/18 A2988 1110 76 2300 270/12G16 RMK AO2
94908KDBQ DBQ20080615114509706/15/08 11:45:31  5-MIN KDBQ 151745Z 27008KT 10SM FEW022 23/18 A2989 1110 73 2400 270/08 RMK AO2
94908KDBQ DBQ20080615115012906/15/08 11:50:31  5-MIN KDBQ 151750Z 26011KT 10SM CLR 23/19 A2989 1110 78 2300 260/11 RMK AO2 SLP118 T02280189 10244 20161 58005
94908KDBQ DBQ20080615115509406/15/08 11:55:31  5-MIN KDBQ 151755Z 27012KT 10SM CLR 23/18 A2989 1110 76 2300 270/12 RMK AO2
94908KDBQ DBQ20080615120009406/15/08 12:00:31  5-MIN KDBQ 151800Z 26009KT 10SM CLR 23/18 A2988 1110 76 2300 260/09 RMK AO2
94908KDBQ DBQ20080615120509406/15/08 12:05:31  5-MIN KDBQ 151805Z 25010KT 10SM CLR 23/18 A2988 1120 76 2300 250/10 RMK AO2
94908KDBQ DBQ20080615121009406/15/08 12:10:31  5-MIN KDBQ 151810Z 25010KT 10SM CLR 23/19 A2988 1120 76 2400 250/10 RMK AO2
94908KDBQ DBQ20080615121509406/15/08 12:15:31  5-MIN KDBQ 151815Z 25010KT 10SM CLR 23/19 A2987 1120 76 2400 250/10 RMK AO2
94908KDBQ DBQ20080615122009406/15/08 12:20:31  5-MIN KDBQ 151820Z 26011KT 10SM CLR 23/18 A2988 1120 73 2400 250/11 RMK AO2
94908KDBQ DBQ20080615122509406/15/08 12:25:31  5-MIN KDBQ 151825Z 26012KT 10SM CLR 23/18 A2988 1120 73 2400 260/12 RMK AO2
94908KDBQ DBQ20080615123009406/15/08 12:30:31  5-MIN KDBQ 151830Z 26013KT 10SM CLR 23/18 A2989 1110 76 2300 260/13 RMK AO2
94908KDBQ DBQ20080615123509406/15/08 12:35:31  5-MIN KDBQ 151835Z 27012KT 10SM CLR 23/18 A2989 1110 76 2300 270/12 RMK AO2
94908KDBQ DBQ20080615124009406/15/08 12:40:31  5-MIN KDBQ 151840Z 28013KT 10SM CLR 23/18 A2989 1110 73 2400 280/13 RMK AO2
94908KDBQ DBQ20080615124510006/15/08 12:45:31  5-MIN KDBQ 151845Z 28012G17KT 10SM CLR 24/19 A2989 1110 73 2400 280/12G17 RMK AO2
94908KDBQ DBQ20080615125011706/15/08 12:50:31  5-MIN KDBQ 151850Z 28009G17KT 10SM CLR 24/19 A2989 1110 73 2400 280/09G17 RMK AO2 SLP117 T02390189
94908KDBQ DBQ20080615125510006/15/08 12:55:31  5-MIN KDBQ 151855Z 28014G18KT 10SM CLR 24/18 A2988 1110 71 2400 280/14G18 RMK AO2
94908KDBQ DBQ20080615130010006/15/08 13:00:31  5-MIN KDBQ 151900Z 29011G18KT 10SM CLR 24/19 A2988 1120 73 2400 290/11G18 RMK AO2
94908KDBQ DBQ20080615130510106/15/08 13:05:31  5-MIN KDBQ 151905Z 29010KT 10SM CLR 24/19 A2987 1130 73 2500 290/10 RMK AO2 PRESFR
94908KDBQ DBQ20080615131009406/15/08 13:10:31  5-MIN KDBQ 151910Z 28010KT 10SM CLR 25/19 A2986 1130 68 2600 280/10 RMK AO2
94908KDBQ DBQ20080615131509406/15/08 13:15:31  5-MIN KDBQ 151915Z 28013KT 10SM CLR 25/19 A2986 1130 68 2600 270/13 RMK AO2
94908KDBQ DBQ20080615132009406/15/08 13:20:31  5-MIN KDBQ 151920Z 27010KT 10SM CLR 24/18 A2985 1140 68 2500 270/10 RMK AO2
94908KDBQ DBQ20080615132509406/15/08 13:25:31  5-MIN KDBQ 151925Z 26012KT 10SM CLR 25/19 A2985 1140 68 2600 260/12 RMK AO2
94908KDBQ DBQ20080615133010106/15/08 13:30:31  5-MIN KDBQ 151930Z 26010KT 10SM CLR 25/18 A2984 1150 66 2600 260/10 RMK AO2 PRESFR
94908KDBQ DBQ20080615133509406/15/08 13:35:31  5-MIN KDBQ 151935Z 25010KT 10SM CLR 24/18 A2983 1160 68 2600 250/10 RMK AO2
94908KDBQ DBQ20080615134010106/15/08 13:40:31  5-MIN KDBQ 151940Z 25007KT 10SM CLR 24/19 A2983 1160 71 2600 250/07 RMK AO2 PRESFR
94908KDBQ DBQ20080615134509406/15/08 13:45:31  5-MIN KDBQ 151945Z 24009KT 10SM CLR 25/19 A2983 1160 68 2600 240/09 RMK AO2
94908KDBQ DBQ20080615135011806/15/08 13:50:31  5-MIN KDBQ 151950Z 25011KT 10SM CLR 25/19 A2982 1170 68 2600 240/11 RMK AO2 PRESFR SLP091 T02500189
94908KDBQ DBQ20080615135510106/15/08 13:55:31  5-MIN KDBQ 151955Z 23012KT 10SM CLR 24/18 A2981 1180 68 2600 230/12 RMK AO2 PRESFR
94908KDBQ DBQ20080615140009406/15/08 14:00:31  5-MIN KDBQ 152000Z 24014KT 10SM CLR 24/18 A2982 1170 68 2500 240/14 RMK AO2
94908KDBQ DBQ20080615140509406/15/08 14:05:31  5-MIN KDBQ 152005Z 24012KT 10SM CLR 24/18 A2982 1170 68 2500 240/12 RMK AO2
94908KDBQ DBQ20080615141009406/15/08 14:10:31  5-MIN KDBQ 152010Z 23014KT 10SM CLR 24/17 A2981 1180 66 2500 230/14 RMK AO2
94908KDBQ DBQ20080615141509406/15/08 14:15:31  5-MIN KDBQ 152015Z 23009KT 10SM CLR 24/18 A2981 1180 68 2500 230/09 RMK AO2
94908KDBQ DBQ20080615142009406/15/08 14:20:31  5-MIN KDBQ 152020Z 24011KT 10SM CLR 24/18 A2981 1180 68 2600 240/11 RMK AO2
94908KDBQ DBQ20080615142509406/15/08 14:25:31  5-MIN KDBQ 152025Z 24009KT 10SM CLR 24/18 A2981 1180 71 2500 240/09 RMK AO2
94908KDBQ DBQ20080615143010006/15/08 14:30:31  5-MIN KDBQ 152030Z 22014G19KT 10SM CLR 24/19 A2981 1180 73 2500 220/14G19 RMK AO2
94908KDBQ DBQ20080615143510006/15/08 14:35:31  5-MIN KDBQ 152035Z 24014G19KT 10SM CLR 24/19 A2981 1180 73 2500 240/14G19 RMK AO2
94908KDBQ DBQ20080615144009406/15/08 14:40:31  5-MIN KDBQ 152040Z 24013KT 10SM CLR 24/18 A2981 1190 66 2600 240/13 RMK AO2
94908KDBQ DBQ20080615144509406/15/08 14:45:31  5-MIN KDBQ 152045Z 24014KT 10SM CLR 25/18 A2981 1180 66 2600 240/14 RMK AO2
94908KDBQ DBQ20080615145011706/15/08 14:50:31  5-MIN KDBQ 152050Z 26013KT 10SM CLR 26/19 A2981 1180 66 2700 260/13 RMK AO2 SLP091 T02560189 53012
94908KDBQ DBQ20080615145509406/15/08 14:55:31  5-MIN KDBQ 152055Z 26014KT 10SM CLR 26/18 A2982 1170 62 2800 260/14 RMK AO2
94908KDBQ DBQ20080615150010006/15/08 15:00:31  5-MIN KDBQ 152100Z 27010G17KT 10SM CLR 26/18 A2982 1170 62 2800 270/10G17 RMK AO2
94908KDBQ DBQ20080615150510006/15/08 15:05:31  5-MIN KDBQ 152105Z 28014G17KT 10SM CLR 26/19 A2983 1160 64 2700 280/14G17 RMK AO2
94908KDBQ DBQ20080615151010006/15/08 15:10:31  5-MIN KDBQ 152110Z 27015G20KT 10SM CLR 26/18 A2983 1170 62 2700 270/15G20 RMK AO2
94908KDBQ DBQ20080615151510006/15/08 15:15:31  5-MIN KDBQ 152115Z 28016G20KT 10SM CLR 26/18 A2982 1170 62 2800 280/16G20 RMK AO2
94908KDBQ DBQ20080615152010006/15/08 15:20:31  5-MIN KDBQ 152120Z 29015G20KT 10SM CLR 26/18 A2983 1170 61 2700 280/15G20 RMK AO2
94908KDBQ DBQ20080615152510306/15/08 15:25:31  5-MIN KDBQ 152125Z 29013G22KT 10SM FEW041 25/18 A2983 1160 64 2600 290/13G22 RMK AO2
94908KDBQ DBQ20080615153010306/15/08 15:30:31  5-MIN KDBQ 152130Z 29013G22KT 10SM FEW041 25/18 A2983 1160 64 2600 290/13G22 RMK AO2
94908KDBQ DBQ20080615153510306/15/08 15:35:31  5-MIN KDBQ 152135Z 29012G22KT 10SM FEW041 26/19 A2983 1160 64 2700 290/12G22 RMK AO2
94908KDBQ DBQ20080615154010306/15/08 15:40:31  5-MIN KDBQ 152140Z 32014G21KT 10SM FEW031 26/19 A2983 1160 66 2700 320/14G21 RMK AO2
94908KDBQ DBQ20080615154510306/15/08 15:45:31  5-MIN KDBQ 152145Z 31018G21KT 10SM FEW031 25/19 A2983 1160 68 2600 310/18G21 RMK AO2
94908KDBQ DBQ20080615155012006/15/08 15:50:31  5-MIN KDBQ 152150Z 31015G22KT 10SM FEW041 24/18 A2983 1160 68 2600 310/15G22 RMK AO2 SLP097 T02440183
94908KDBQ DBQ20080615155510006/15/08 15:55:31  5-MIN KDBQ 152155Z 30016G19KT 10SM CLR 25/19 A2983 1160 68 2600 300/16G19 RMK AO2
94908KDBQ DBQ20080615160010006/15/08 16:00:31  5-MIN KDBQ 152200Z 31014G20KT 10SM CLR 25/18 A2983 1160 66 2600 310/14G20 RMK AO2
94908KDBQ DBQ20080615160510006/15/08 16:05:31  5-MIN KDBQ 152205Z 30013G20KT 10SM CLR 25/18 A2983 1160 64 2600 300/13G20 RMK AO2
94908KDBQ DBQ20080615161010006/15/08 16:10:31  5-MIN KDBQ 152210Z 30011G19KT 10SM CLR 25/18 A2983 1160 66 2600 300/11G19 RMK AO2
94908KDBQ DBQ20080615161510006/15/08 16:15:31  5-MIN KDBQ 152215Z 30014G20KT 10SM CLR 25/18 A2983 1170 66 2600 300/14G20 RMK AO2
94908KDBQ DBQ20080615162010006/15/08 16:20:31  5-MIN KDBQ 152220Z 31013G20KT 10SM CLR 25/18 A2983 1160 66 2600 300/13G20 RMK AO2
94908KDBQ DBQ20080615162509406/15/08 16:25:31  5-MIN KDBQ 152225Z 30013KT 10SM CLR 25/18 A2983 1160 64 2600 300/13 RMK AO2
94908KDBQ DBQ20080615163009406/15/08 16:30:31  5-MIN KDBQ 152230Z 30014KT 10SM CLR 24/17 A2983 1160 63 2600 300/14 RMK AO2
94908KDBQ DBQ20080615163510006/15/08 16:35:31  5-MIN KDBQ 152235Z 30015G20KT 10SM CLR 24/17 A2983 1160 61 2600 300/15G20 RMK AO2
94908KDBQ DBQ20080615164010006/15/08 16:40:31  5-MIN KDBQ 152240Z 30012G20KT 10SM CLR 24/17 A2983 1160 61 2600 300/12G20 RMK AO2
94908KDBQ DBQ20080615164510006/15/08 16:45:31  5-MIN KDBQ 152245Z 29013G20KT 10SM CLR 24/16 A2983 1160 57 2600 290/13G20 RMK AO2
94908KDBQ DBQ20080615165011706/15/08 16:50:31  5-MIN KDBQ 152250Z 30016G22KT 10SM CLR 24/14 A2983 1160 53 2600 300/16G22 RMK AO2 SLP097 T02440144
94908KDBQ DBQ20080615165510006/15/08 16:55:31  5-MIN KDBQ 152255Z 30014G22KT 10SM CLR 24/14 A2983 1160 53 2600 300/14G22 RMK AO2
94908KDBQ DBQ20080615170010006/15/08 17:00:31  5-MIN KDBQ 152300Z 29018G23KT 10SM CLR 24/13 A2983 1160 49 2600 290/18G23 RMK AO2
94908KDBQ DBQ20080615170510006/15/08 17:05:31  5-MIN KDBQ 152305Z 29015G23KT 10SM CLR 24/13 A2983 1160 49 2600 290/15G23 RMK AO2
94908KDBQ DBQ20080615171010006/15/08 17:10:31  5-MIN KDBQ 152310Z 29012G22KT 10SM CLR 24/14 A2983 1160 51 2600 290/12G22 RMK AO2
94908KDBQ DBQ20080615171510006/15/08 17:15:31  5-MIN KDBQ 152315Z 29012G19KT 10SM CLR 24/14 A2983 1160 51 2600 290/12G19 RMK AO2
94908KDBQ DBQ20080615172010006/15/08 17:20:31  5-MIN KDBQ 152320Z 29014G19KT 10SM CLR 24/14 A2983 1160 51 2600 290/14G19 RMK AO2
94908KDBQ DBQ20080615172510006/15/08 17:25:31  5-MIN KDBQ 152325Z 29011G19KT 10SM CLR 24/14 A2983 1160 53 2500 280/11G19 RMK AO2
94908KDBQ DBQ20080615173010006/15/08 17:30:31  5-MIN KDBQ 152330Z 29011G17KT 10SM CLR 24/14 A2984 1160 55 2500 290/11G17 RMK AO2
94908KDBQ DBQ20080615173510006/15/08 17:35:31  5-MIN KDBQ 152335Z 30014G17KT 10SM CLR 24/14 A2984 1150 55 2500 300/14G17 RMK AO2
94908KDBQ DBQ20080615174010006/15/08 17:40:31  5-MIN KDBQ 152340Z 30012G17KT 10SM CLR 24/14 A2984 1150 53 2500 300/12G17 RMK AO2
94908KDBQ DBQ20080615174510006/15/08 17:45:31  5-MIN KDBQ 152345Z 30014G18KT 10SM CLR 24/13 A2984 1150 51 2500 300/14G18 RMK AO2
94908KDBQ DBQ20080615175013506/15/08 17:50:31  5-MIN KDBQ 152350Z 30014G21KT 10SM CLR 23/13 A2984 1150 53 2400 300/14G21 RMK AO2 SLP102 T02330133 10261 20228 55023
94908KDBQ DBQ20080615175510006/15/08 17:55:31  5-MIN KDBQ 152355Z 29013G21KT 10SM CLR 23/13 A2985 1150 53 2400 290/13G21 RMK AO2
94908KDBQ DBQ20080615180009406/15/08 18:00:31  5-MIN KDBQ 160000Z 30012KT 10SM CLR 23/13 A2984 1150 53 2400 300/12 RMK AO2
94908KDBQ DBQ20080615180509406/15/08 18:05:31  5-MIN KDBQ 160005Z 30012KT 10SM CLR 23/13 A2984 1150 51 2400 300/12 RMK AO2
94908KDBQ DBQ20080615181009406/15/08 18:10:31  5-MIN KDBQ 160010Z 31010KT 10SM CLR 23/13 A2984 1150 55 2400 310/10 RMK AO2
94908KDBQ DBQ20080615181510006/15/08 18:15:31  5-MIN KDBQ 160015Z 31014G18KT 10SM CLR 23/13 A2984 1150 53 2400 310/14G18 RMK AO2
94908KDBQ DBQ20080615182010006/15/08 18:20:31  5-MIN KDBQ 160020Z 30013G19KT 10SM CLR 23/12 A2984 1150 51 2400 300/13G19 RMK AO2
94908KDBQ DBQ20080615182509406/15/08 18:25:31  5-MIN KDBQ 160025Z 30012KT 10SM CLR 23/12 A2985 1150 51 2400 300/12 RMK AO2
94908KDBQ DBQ20080615183009406/15/08 18:30:31  5-MIN KDBQ 160030Z 30011KT 10SM CLR 22/13 A2985 1150 54 2300 300/11 RMK AO2
94908KDBQ DBQ20080615183509406/15/08 18:35:31  5-MIN KDBQ 160035Z 29009KT 10SM CLR 22/13 A2985 1150 54 2300 290/09 RMK AO2
94908KDBQ DBQ20080615184009406/15/08 18:40:31  5-MIN KDBQ 160040Z 29008KT 10SM CLR 22/13 A2985 1140 58 2200 290/08 RMK AO2
94908KDBQ DBQ20080615184509406/15/08 18:45:31  5-MIN KDBQ 160045Z 30009KT 10SM CLR 22/13 A2985 1140 56 2200 300/09 RMK AO2
94908KDBQ DBQ20080615185011606/15/08 18:50:31  5-MIN KDBQ 160050Z AUTO 30009KT 10SM CLR 22/13 A2985 1140 56 2200 300/09 RMK AO2 SLP104 T02170128
94908KDBQ DBQ20080615185509906/15/08 18:55:31  5-MIN KDBQ 160055Z AUTO 30009KT 10SM CLR 22/13 A2985 1140 56 2200 290/09 RMK AO2
94908KDBQ DBQ20080615190009906/15/08 19:00:31  5-MIN KDBQ 160100Z AUTO 30011KT 10SM CLR 22/13 A2986 1140 56 2200 300/11 RMK AO2
94908KDBQ DBQ20080615190509906/15/08 19:05:31  5-MIN KDBQ 160105Z AUTO 30009KT 10SM CLR 21/13 A2986 1140 58 2200 300/09 RMK AO2
94908KDBQ DBQ20080615191009906/15/08 19:10:31  5-MIN KDBQ 160110Z AUTO 31007KT 10SM CLR 21/13 A2985 1140 60 2100 300/07 RMK AO2
94908KDBQ DBQ20080615191509906/15/08 19:15:31  5-MIN KDBQ 160115Z AUTO 31007KT 10SM CLR 21/13 A2985 1140 60 2100 310/07 RMK AO2
94908KDBQ DBQ20080615192009906/15/08 19:20:31  5-MIN KDBQ 160120Z AUTO 31008KT 10SM CLR 21/12 A2985 1140 58 2100 310/08 RMK AO2
94908KDBQ DBQ20080615192509906/15/08 19:25:31  5-MIN KDBQ 160125Z AUTO 31008KT 10SM CLR 20/12 A2985 1140 60 2000 310/08 RMK AO2
94908KDBQ DBQ20080615193009906/15/08 19:30:31  5-MIN KDBQ 160130Z AUTO 32008KT 10SM CLR 20/12 A2986 1140 60 2000 320/08 RMK AO2
94908KDBQ DBQ20080615193509906/15/08 19:35:31  5-MIN KDBQ 160135Z AUTO 32008KT 10SM CLR 19/12 A2986 1130 62 2000 320/08 RMK AO2
94908KDBQ DBQ20080615194009906/15/08 19:40:31  5-MIN KDBQ 160140Z AUTO 32008KT 10SM CLR 19/12 A2986 1140 62 2000 320/08 RMK AO2
94908KDBQ DBQ20080615194509906/15/08 19:45:31  5-MIN KDBQ 160145Z AUTO 32007KT 10SM CLR 19/12 A2986 1140 65 1900 320/07 RMK AO2
94908KDBQ DBQ20080615195011606/15/08 19:50:31  5-MIN KDBQ 160150Z AUTO 32008KT 10SM CLR 19/12 A2986 1130 60 2000 320/08 RMK AO2 SLP110 T01940117
94908KDBQ DBQ20080615195509906/15/08 19:55:31  5-MIN KDBQ 160155Z AUTO 32009KT 10SM CLR 19/12 A2986 1130 60 2000 320/09 RMK AO2
94908KDBQ DBQ20080615200009906/15/08 20:00:31  5-MIN KDBQ 160200Z AUTO 32010KT 10SM CLR 19/11 A2987 1130 58 1900 310/10 RMK AO2
94908KDBQ DBQ20080615200509906/15/08 20:05:31  5-MIN KDBQ 160205Z AUTO 32009KT 10SM CLR 19/11 A2987 1130 58 1900 320/09 RMK AO2
94908KDBQ DBQ20080615201009906/15/08 20:10:31  5-MIN KDBQ 160210Z AUTO 32010KT 10SM CLR 19/11 A2987 1120 56 1900 320/10 RMK AO2
94908KDBQ DBQ20080615201509906/15/08 20:15:31  5-MIN KDBQ 160215Z AUTO 32010KT 10SM CLR 19/11 A2987 1120 58 1900 320/10 RMK AO2
94908KDBQ DBQ20080615202009906/15/08 20:20:31  5-MIN KDBQ 160220Z AUTO 32008KT 10SM CLR 19/11 A2988 1120 58 1900 320/08 RMK AO2
94908KDBQ DBQ20080615202509906/15/08 20:25:31  5-MIN KDBQ 160225Z AUTO 32007KT 10SM CLR 18/11 A2988 1120 60 1800 320/07 RMK AO2
94908KDBQ DBQ20080615203009906/15/08 20:30:31  5-MIN KDBQ 160230Z AUTO 32007KT 10SM CLR 18/11 A2988 1120 62 1700 320/07 RMK AO2
94908KDBQ DBQ20080615203509906/15/08 20:35:31  5-MIN KDBQ 160235Z AUTO 32008KT 10SM CLR 18/11 A2988 1110 62 1700 320/08 RMK AO2
94908KDBQ DBQ20080615204009906/15/08 20:40:31  5-MIN KDBQ 160240Z AUTO 32008KT 10SM CLR 18/11 A2988 1120 62 1700 320/08 RMK AO2
94908KDBQ DBQ20080615204509906/15/08 20:45:31  5-MIN KDBQ 160245Z AUTO 32008KT 10SM CLR 18/10 A2988 1110 60 1700 320/08 RMK AO2
94908KDBQ DBQ20080615205012206/15/08 20:50:31  5-MIN KDBQ 160250Z AUTO 32009KT 10SM CLR 18/10 A2988 1110 58 1800 320/09 RMK AO2 SLP115 T01830100 51008
94908KDBQ DBQ20080615205509906/15/08 20:55:31  5-MIN KDBQ 160255Z AUTO 32007KT 10SM CLR 18/10 A2989 1110 58 1800 310/07 RMK AO2
94908KDBQ DBQ20080615210009906/15/08 21:00:31  5-MIN KDBQ 160300Z AUTO 32007KT 10SM CLR 18/10 A2989 1110 60 1700 320/07 RMK AO2
94908KDBQ DBQ20080615210509906/15/08 21:05:31  5-MIN KDBQ 160305Z AUTO 32006KT 10SM CLR 17/10 A2989 1110 62 1700 320/06 RMK AO2
94908KDBQ DBQ20080615211009906/15/08 21:10:31  5-MIN KDBQ 160310Z AUTO 32007KT 10SM CLR 17/10 A2989 1110 62 1700 320/07 RMK AO2
94908KDBQ DBQ20080615211509906/15/08 21:15:31  5-MIN KDBQ 160315Z AUTO 32008KT 10SM CLR 18/10 A2989 1110 60 1700 320/08 RMK AO2
94908KDBQ DBQ20080615212009906/15/08 21:20:31  5-MIN KDBQ 160320Z AUTO 32007KT 10SM CLR 18/10 A2989 1110 60 1700 320/07 RMK AO2
94908KDBQ DBQ20080615212509906/15/08 21:25:31  5-MIN KDBQ 160325Z AUTO 32007KT 10SM CLR 18/10 A2989 1110 60 1700 320/07 RMK AO2
94908KDBQ DBQ20080615213009906/15/08 21:30:31  5-MIN KDBQ 160330Z AUTO 33008KT 10SM CLR 18/10 A2989 1110 60 1700 330/08 RMK AO2
94908KDBQ DBQ20080615213509906/15/08 21:35:31  5-MIN KDBQ 160335Z AUTO 33007KT 10SM CLR 18/10 A2989 1110 60 1700 320/07 RMK AO2
94908KDBQ DBQ20080615214009906/15/08 21:40:31  5-MIN KDBQ 160340Z AUTO 33007KT 10SM CLR 18/10 A2989 1110 60 1700 330/07 RMK AO2
94908KDBQ DBQ20080615214509906/15/08 21:45:31  5-MIN KDBQ 160345Z AUTO 33008KT 10SM CLR 17/10 A2989 1110 62 1700 330/08 RMK AO2
94908KDBQ DBQ20080615215011606/15/08 21:50:31  5-MIN KDBQ 160350Z AUTO 33008KT 10SM CLR 17/10 A2988 1110 62 1700 330/08 RMK AO2 SLP115 T01720100
94908KDBQ DBQ20080615215509906/15/08 21:55:31  5-MIN KDBQ 160355Z AUTO 33007KT 10SM CLR 17/09 A2989 1110 60 1700 330/07 RMK AO2
94908KDBQ DBQ20080615220009906/15/08 22:00:31  5-MIN KDBQ 160400Z AUTO 33007KT 10SM CLR 17/09 A2989 1110 60 1700 330/07 RMK AO2
94908KDBQ DBQ20080615220509906/15/08 22:05:31  5-MIN KDBQ 160405Z AUTO 33007KT 10SM CLR 17/10 A2989 1110 62 1700 330/07 RMK AO2
94908KDBQ DBQ20080615221009906/15/08 22:10:31  5-MIN KDBQ 160410Z AUTO 34008KT 10SM CLR 17/09 A2989 1110 60 1700 340/08 RMK AO2
94908KDBQ DBQ20080615221509906/15/08 22:15:31  5-MIN KDBQ 160415Z AUTO 34008KT 10SM CLR 18/09 A2989 1110 55 1700 340/08 RMK AO2
94908KDBQ DBQ20080615222009906/15/08 22:20:31  5-MIN KDBQ 160420Z AUTO 33008KT 10SM CLR 17/09 A2989 1110 57 1700 330/08 RMK AO2
94908KDBQ DBQ20080615222509906/15/08 22:25:31  5-MIN KDBQ 160425Z AUTO 33009KT 10SM CLR 18/09 A2989 1100 55 1700 330/09 RMK AO2
94908KDBQ DBQ20080615223009906/15/08 22:30:31  5-MIN KDBQ 160430Z AUTO 33008KT 10SM CLR 18/09 A2989 1110 55 1700 330/08 RMK AO2
94908KDBQ DBQ20080615223509906/15/08 22:35:31  5-MIN KDBQ 160435Z AUTO 32010KT 10SM CLR 18/08 A2989 1100 52 1800 320/10 RMK AO2
94908KDBQ DBQ20080615224009906/15/08 22:40:31  5-MIN KDBQ 160440Z AUTO 32010KT 10SM CLR 19/08 A2989 1100 50 1900 320/10 RMK AO2
94908KDBQ DBQ20080615224509906/15/08 22:45:31  5-MIN KDBQ 160445Z AUTO 32010KT 10SM CLR 19/08 A2990 1100 48 1800 320/10 RMK AO2
94908KDBQ DBQ20080615225011606/15/08 22:50:31  5-MIN KDBQ 160450Z AUTO 32009KT 10SM CLR 19/08 A2990 1100 50 1800 310/09 RMK AO2 SLP119 T01890083
94908KDBQ DBQ20080615225509906/15/08 22:55:31  5-MIN KDBQ 160455Z AUTO 32008KT 10SM CLR 19/08 A2989 1100 50 1900 320/08 RMK AO2
94908KDBQ DBQ20080615230009906/15/08 23:00:31  5-MIN KDBQ 160500Z AUTO 31009KT 10SM CLR 19/08 A2989 1100 50 1900 310/09 RMK AO2
94908KDBQ DBQ20080615230509906/15/08 23:05:31  5-MIN KDBQ 160505Z AUTO 32008KT 10SM CLR 19/08 A2989 1100 50 1900 310/08 RMK AO2
94908KDBQ DBQ20080615231009906/15/08 23:10:31  5-MIN KDBQ 160510Z AUTO 31009KT 10SM CLR 19/08 A2990 1100 50 1900 310/09 RMK AO2
94908KDBQ DBQ20080615231509906/15/08 23:15:31  5-MIN KDBQ 160515Z AUTO 32008KT 10SM CLR 19/08 A2989 1100 50 1900 320/08 RMK AO2
94908KDBQ DBQ20080615232009906/15/08 23:20:31  5-MIN KDBQ 160520Z AUTO 31008KT 10SM CLR 18/09 A2989 1100 54 1800 310/08 RMK AO2
94908KDBQ DBQ20080615232509906/15/08 23:25:31  5-MIN KDBQ 160525Z AUTO 31007KT 10SM CLR 18/09 A2989 1110 54 1800 310/07 RMK AO2
94908KDBQ DBQ20080615233009906/15/08 23:30:31  5-MIN KDBQ 160530Z AUTO 31007KT 10SM CLR 18/09 A2989 1110 54 1800 310/07 RMK AO2
94908KDBQ DBQ20080615233509906/15/08 23:35:31  5-MIN KDBQ 160535Z AUTO 31006KT 10SM CLR 18/09 A2989 1110 55 1700 310/06 RMK AO2
94908KDBQ DBQ20080615234009906/15/08 23:40:31  5-MIN KDBQ 160540Z AUTO 31008KT 10SM CLR 18/09 A2989 1110 55 1700 300/08 RMK AO2
94908KDBQ DBQ20080615234509906/15/08 23:45:31  5-MIN KDBQ 160545Z AUTO 31008KT 10SM CLR 18/09 A2989 1110 54 1800 300/08 RMK AO2
94908KDBQ DBQ20080615235014406/15/08 23:50:31  5-MIN KDBQ 160550Z AUTO 30008KT 10SM CLR 18/09 A2989 1110 54 1800 300/08 RMK AO2 SLP117 T01830089 10233 20172 402610156 53013
94908KDBQ DBQ20080615235509906/15/08 23:55:31  5-MIN KDBQ 160555Z AUTO 30008KT 10SM CLR 18/09 A2989 1110 54 1800 300/08 RMK AO2
94908KDBQ DBQ20080616000009906/16/08 00:00:38  5-MIN KDBQ 160600Z AUTO 31007KT 10SM CLR 18/09 A2989 1110 55 1700 310/07 RMK AO2
94908KDBQ DBQ20080616000509906/16/08 00:05:31  5-MIN KDBQ 160605Z AUTO 31009KT 10SM CLR 18/09 A2989 1110 54 1800 310/09 RMK AO2
94908KDBQ DBQ20080616001009906/16/08 00:10:31  5-MIN KDBQ 160610Z AUTO 31009KT 10SM CLR 18/09 A2989 1110 54 1800 310/09 RMK AO2
94908KDBQ DBQ20080616001509906/16/08 00:15:36  5-MIN KDBQ 160615Z AUTO 32010KT 10SM CLR 19/09 A2989 1110 52 1900 320/10 RMK AO2
94908KDBQ DBQ20080616002009906/16/08 00:20:31  5-MIN KDBQ 160620Z AUTO 33010KT 10SM CLR 18/09 A2989 1110 54 1800 330/10 RMK AO2
94908KDBQ DBQ20080616002509906/16/08 00:25:31  5-MIN KDBQ 160625Z AUTO 33010KT 10SM CLR 18/09 A2989 1110 54 1800 330/10 RMK AO2
94908KDBQ DBQ20080616003009906/16/08 00:30:31  5-MIN KDBQ 160630Z AUTO 33011KT 10SM CLR 18/09 A2989 1110 54 1800 330/11 RMK AO2
94908KDBQ DBQ20080616003509906/16/08 00:35:31  5-MIN KDBQ 160635Z AUTO 33009KT 10SM CLR 18/09 A2988 1110 54 1800 330/09 RMK AO2
94908KDBQ DBQ20080616004009906/16/08 00:40:31  5-MIN KDBQ 160640Z AUTO 34008KT 10SM CLR 18/09 A2989 1110 55 1700 340/08 RMK AO2
94908KDBQ DBQ20080616004509906/16/08 00:45:31  5-MIN KDBQ 160645Z AUTO 34007KT 10SM CLR 17/09 A2989 1110 60 1700 340/07 RMK AO2
94908KDBQ DBQ20080616005011606/16/08 00:50:31  5-MIN KDBQ 160650Z AUTO 34009KT 10SM CLR 17/09 A2989 1110 62 1600 340/09 RMK AO2 SLP116 T01670094
94908KDBQ DBQ20080616005509906/16/08 00:55:31  5-MIN KDBQ 160655Z AUTO 34008KT 10SM CLR 17/09 A2988 1110 62 1600 340/08 RMK AO2
94908KDBQ DBQ20080616010009906/16/08 01:00:31  5-MIN KDBQ 160700Z AUTO 34008KT 10SM CLR 16/09 A2989 1110 64 1500 340/08 RMK AO2
94908KDBQ DBQ20080616010509906/16/08 01:05:31  5-MIN KDBQ 160705Z AUTO 34009KT 10SM CLR 16/09 A2989 1110 64 1500 340/09 RMK AO2
94908KDBQ DBQ20080616011009906/16/08 01:10:31  5-MIN KDBQ 160710Z AUTO 34009KT 10SM CLR 16/09 A2988 1110 64 1500 340/09 RMK AO2
94908KDBQ DBQ20080616011509906/16/08 01:15:31  5-MIN KDBQ 160715Z AUTO 34009KT 10SM CLR 16/09 A2989 1110 64 1500 340/09 RMK AO2
94908KDBQ DBQ20080616012009906/16/08 01:20:31  5-MIN KDBQ 160720Z AUTO 34008KT 10SM CLR 16/09 A2989 1100 64 1500 340/08 RMK AO2
94908KDBQ DBQ20080616012509906/16/08 01:25:31  5-MIN KDBQ 160725Z AUTO 34008KT 10SM CLR 16/09 A2989 1100 64 1500 340/08 RMK AO2
94908KDBQ DBQ20080616013009906/16/08 01:30:31  5-MIN KDBQ 160730Z AUTO 34009KT 10SM CLR 16/09 A2990 1100 64 1500 340/09 RMK AO2
94908KDBQ DBQ20080616013509906/16/08 01:35:31  5-MIN KDBQ 160735Z AUTO 34009KT 10SM CLR 16/09 A2990 1100 64 1500 340/09 RMK AO2
94908KDBQ DBQ20080616014009906/16/08 01:40:31  5-MIN KDBQ 160740Z AUTO 34009KT 10SM CLR 16/09 A2990 1100 64 1500 340/09 RMK AO2
94908KDBQ DBQ20080616014509906/16/08 01:45:31  5-MIN KDBQ 160745Z AUTO 34009KT 10SM CLR 17/09 A2990 1100 62 1600 340/09 RMK AO2
94908KDBQ DBQ20080616015011606/16/08 01:50:31  5-MIN KDBQ 160750Z AUTO 34010KT 10SM CLR 17/09 A2990 1100 62 1600 340/10 RMK AO2 SLP120 T01670094
94908KDBQ DBQ20080616015509906/16/08 01:55:31  5-MIN KDBQ 160755Z AUTO 34010KT 10SM CLR 17/09 A2990 1100 62 1600 340/10 RMK AO2
94908KDBQ DBQ20080616020009906/16/08 02:00:31  5-MIN KDBQ 160800Z AUTO 34009KT 10SM CLR 17/09 A2990 1090 62 1600 330/09 RMK AO2
94908KDBQ DBQ20080616020509906/16/08 02:05:31  5-MIN KDBQ 160805Z AUTO 33011KT 10SM CLR 17/09 A2990 1090 62 1600 330/11 RMK AO2
94908KDBQ DBQ20080616021009906/16/08 02:10:31  5-MIN KDBQ 160810Z AUTO 34010KT 10SM CLR 17/09 A2990 1090 57 1600 340/10 RMK AO2
94908KDBQ DBQ20080616021509906/16/08 02:15:31  5-MIN KDBQ 160815Z AUTO 34010KT 10SM CLR 17/09 A2990 1090 62 1600 340/10 RMK AO2
94908KDBQ DBQ20080616022009906/16/08 02:20:31  5-MIN KDBQ 160820Z AUTO 34010KT 10SM CLR 17/09 A2991 1090 62 1600 340/10 RMK AO2
94908KDBQ DBQ20080616022509906/16/08 02:25:31  5-MIN KDBQ 160825Z AUTO 34009KT 10SM CLR 17/09 A2991 1090 62 1600 340/09 RMK AO2
94908KDBQ DBQ20080616023009906/16/08 02:30:31  5-MIN KDBQ 160830Z AUTO 34008KT 10SM CLR 17/09 A2990 1090 62 1600 340/08 RMK AO2
94908KDBQ DBQ20080616023509906/16/08 02:35:31  5-MIN KDBQ 160835Z AUTO 34009KT 10SM CLR 17/09 A2991 1090 62 1600 340/09 RMK AO2
94908KDBQ DBQ20080616024009906/16/08 02:40:31  5-MIN KDBQ 160840Z AUTO 34009KT 10SM CLR 16/09 A2991 1090 64 1500 340/09 RMK AO2
94908KDBQ DBQ20080616024509906/16/08 02:45:31  5-MIN KDBQ 160845Z AUTO 34008KT 10SM CLR 16/09 A2991 1090 64 1500 340/08 RMK AO2
94908KDBQ DBQ20080616025012206/16/08 02:50:31  5-MIN KDBQ 160850Z AUTO 34007KT 10SM CLR 16/10 A2991 1090 67 1500 330/07 RMK AO2 SLP124 T01610100 50002
94908KDBQ DBQ20080616025509906/16/08 02:55:31  5-MIN KDBQ 160855Z AUTO 34007KT 10SM CLR 16/10 A2991 1090 69 1400 340/07 RMK AO2
94908KDBQ DBQ20080616030009906/16/08 03:00:31  5-MIN KDBQ 160900Z AUTO 34007KT 10SM CLR 16/10 A2991 1090 69 1400 340/07 RMK AO2
94908KDBQ DBQ20080616030509906/16/08 03:05:31  5-MIN KDBQ 160905Z AUTO 33006KT 10SM CLR 16/10 A2991 1090 69 1400 330/06 RMK AO2
94908KDBQ DBQ20080616031009906/16/08 03:10:31  5-MIN KDBQ 160910Z AUTO 33006KT 10SM CLR 15/10 A2991 1090 72 1400 330/06 RMK AO2
94908KDBQ DBQ20080616031509906/16/08 03:15:31  5-MIN KDBQ 160915Z AUTO 33005KT 10SM CLR 15/10 A2991 1090 72 1400 330/05 RMK AO2
94908KDBQ DBQ20080616032009906/16/08 03:20:31  5-MIN KDBQ 160920Z AUTO 32006KT 10SM CLR 15/10 A2991 1090 72 1400 320/06 RMK AO2
94908KDBQ DBQ20080616032509906/16/08 03:25:31  5-MIN KDBQ 160925Z AUTO 32006KT 10SM CLR 15/10 A2991 1090 72 1400 320/06 RMK AO2
94908KDBQ DBQ20080616033009906/16/08 03:30:31  5-MIN KDBQ 160930Z AUTO 31006KT 10SM CLR 14/10 A2991 1090 74 1300 310/06 RMK AO2
94908KDBQ DBQ20080616033509906/16/08 03:35:31  5-MIN KDBQ 160935Z AUTO 31007KT 10SM CLR 15/10 A2991 1090 72 1400 310/07 RMK AO2
94908KDBQ DBQ20080616034009906/16/08 03:40:31  5-MIN KDBQ 160940Z AUTO 31007KT 10SM CLR 15/10 A2991 1080 72 1400 310/07 RMK AO2
94908KDBQ DBQ20080616034509906/16/08 03:45:31  5-MIN KDBQ 160945Z AUTO 32008KT 10SM CLR 15/10 A2992 1080 72 1400 320/08 RMK AO2
94908KDBQ DBQ20080616035011606/16/08 03:50:31  5-MIN KDBQ 160950Z AUTO 31007KT 10SM CLR 15/10 A2992 1080 72 1400 310/07 RMK AO2 SLP127 T01500100
94908KDBQ DBQ20080616035509906/16/08 03:55:31  5-MIN KDBQ 160955Z AUTO 32007KT 10SM CLR 14/10 A2992 1080 74 1300 320/07 RMK AO2
94908KDBQ DBQ20080616040009906/16/08 04:00:31  5-MIN KDBQ 161000Z AUTO 32007KT 10SM CLR 14/10 A2992 1080 74 1300 320/07 RMK AO2
94908KDBQ DBQ20080616040509906/16/08 04:05:31  5-MIN KDBQ 161005Z AUTO 32008KT 10SM CLR 14/10 A2992 1080 74 1300 320/08 RMK AO2
94908KDBQ DBQ20080616041009906/16/08 04:10:31  5-MIN KDBQ 161010Z AUTO 32008KT 10SM CLR 14/10 A2992 1080 74 1300 320/08 RMK AO2
94908KDBQ DBQ20080616041509906/16/08 04:15:31  5-MIN KDBQ 161015Z AUTO 33009KT 10SM CLR 14/10 A2992 1080 74 1300 320/09 RMK AO2
94908KDBQ DBQ20080616042009906/16/08 04:20:31  5-MIN KDBQ 161020Z AUTO 32008KT 10SM CLR 14/10 A2992 1070 74 1300 320/08 RMK AO2
94908KDBQ DBQ20080616042509906/16/08 04:25:31  5-MIN KDBQ 161025Z AUTO 32008KT 10SM CLR 14/10 A2993 1070 74 1300 320/08 RMK AO2
94908KDBQ DBQ20080616043009906/16/08 04:30:31  5-MIN KDBQ 161030Z AUTO 31008KT 10SM CLR 14/10 A2993 1070 74 1300 310/08 RMK AO2
94908KDBQ DBQ20080616043509906/16/08 04:35:31  5-MIN KDBQ 161035Z AUTO 32008KT 10SM CLR 14/10 A2993 1070 77 1200 320/08 RMK AO2
94908KDBQ DBQ20080616044009906/16/08 04:40:31  5-MIN KDBQ 161040Z AUTO 31007KT 10SM CLR 14/10 A2993 1070 77 1200 310/07 RMK AO2
94908KDBQ DBQ20080616044509406/16/08 04:45:31  5-MIN KDBQ 161045Z 32007KT 10SM CLR 14/10 A2993 1070 77 1200 320/07 RMK AO2
94908KDBQ DBQ20080616045011106/16/08 04:50:31  5-MIN KDBQ 161050Z 31007KT 10SM CLR 14/10 A2993 1070 77 1200 310/07 RMK AO2 SLP132 T01390100
94908KDBQ DBQ20080616045509406/16/08 04:55:31  5-MIN KDBQ 161055Z 31006KT 10SM CLR 14/10 A2993 1070 77 1200 310/06 RMK AO2
94908KDBQ DBQ20080616050009406/16/08 05:00:31  5-MIN KDBQ 161100Z 31006KT 10SM CLR 14/10 A2994 1060 77 1200 310/06 RMK AO2
94908KDBQ DBQ20080616050509406/16/08 05:05:31  5-MIN KDBQ 161105Z 30006KT 10SM CLR 14/10 A2994 1060 77 1200 300/06 RMK AO2
94908KDBQ DBQ20080616051009406/16/08 05:10:31  5-MIN KDBQ 161110Z 30005KT 10SM CLR 14/11 A2994 1060 80 1200 300/05 RMK AO2
94908KDBQ DBQ20080616051509406/16/08 05:15:31  5-MIN KDBQ 161115Z 31006KT 10SM CLR 14/11 A2994 1060 80 1200 310/06 RMK AO2
94908KDBQ DBQ20080616052009406/16/08 05:20:31  5-MIN KDBQ 161120Z 32010KT 10SM CLR 14/10 A2994 1060 74 1300 320/10 RMK AO2
94908KDBQ DBQ20080616052509406/16/08 05:25:31  5-MIN KDBQ 161125Z 31011KT 10SM CLR 14/10 A2994 1060 74 1300 310/11 RMK AO2
94908KDBQ DBQ20080616053009406/16/08 05:30:31  5-MIN KDBQ 161130Z 31006KT 10SM CLR 15/11 A2994 1060 74 1300 310/06 RMK AO2
94908KDBQ DBQ20080616053509406/16/08 05:35:31  5-MIN KDBQ 161135Z 31009KT 10SM CLR 14/11 A2994 1060 77 1300 310/09 RMK AO2
94908KDBQ DBQ20080616054009406/16/08 05:40:31  5-MIN KDBQ 161140Z 31008KT 10SM CLR 15/11 A2994 1060 74 1300 310/08 RMK AO2
94908KDBQ DBQ20080616054509406/16/08 05:45:31  5-MIN KDBQ 161145Z 32008KT 10SM CLR 15/11 A2995 1060 74 1300 320/08 RMK AO2
94908KDBQ DBQ20080616055012906/16/08 05:50:31  5-MIN KDBQ 161150Z 32009KT 10SM CLR 15/11 A2994 1060 74 1300 320/09 RMK AO2 SLP136 T01500106 10189 20139 53006
94908KDBQ DBQ20080616055509406/16/08 05:55:31  5-MIN KDBQ 161155Z 32010KT 10SM CLR 15/11 A2994 1060 74 1300 320/10 RMK AO2
94908KDBQ DBQ20080616060009406/16/08 06:00:31  5-MIN KDBQ 161200Z 33010KT 10SM CLR 15/11 A2994 1060 77 1300 330/10 RMK AO2
94908KDBQ DBQ20080616060509406/16/08 06:05:31  5-MIN KDBQ 161205Z 33011KT 10SM CLR 15/11 A2995 1050 77 1300 320/11 RMK AO2
94908KDBQ DBQ20080616061009406/16/08 06:10:31  5-MIN KDBQ 161210Z 33011KT 10SM CLR 15/11 A2995 1050 77 1300 330/11 RMK AO2
94908KDBQ DBQ20080616061509406/16/08 06:15:31  5-MIN KDBQ 161215Z 33011KT 10SM CLR 15/11 A2995 1050 77 1300 330/11 RMK AO2
94908KDBQ DBQ20080616062009406/16/08 06:20:31  5-MIN KDBQ 161220Z 33010KT 10SM CLR 16/11 A2995 1050 74 1400 330/10 RMK AO2
94908KDBQ DBQ20080616062510006/16/08 06:25:31  5-MIN KDBQ 161225Z 34010G18KT 10SM CLR 16/11 A2995 1050 74 1400 340/10G18 RMK AO2
94908KDBQ DBQ20080616063010006/16/08 06:30:31  5-MIN KDBQ 161230Z 34010G18KT 10SM CLR 16/11 A2995 1050 74 1400 340/10G18 RMK AO2
94908KDBQ DBQ20080616063510006/16/08 06:35:31  5-MIN KDBQ 161235Z 33014G17KT 10SM CLR 16/11 A2996 1050 74 1400 330/14G17 RMK AO2
94908KDBQ DBQ20080616064010006/16/08 06:40:31  5-MIN KDBQ 161240Z 34011G17KT 10SM CLR 16/11 A2996 1040 74 1400 340/11G17 RMK AO2
94908KDBQ DBQ20080616064509706/16/08 06:45:31  5-MIN KDBQ 161245Z 34011KT 10SM FEW029 16/12 A2996 1040 77 1400 340/11 RMK AO2
94908KDBQ DBQ20080616065012106/16/08 06:50:31  5-MIN KDBQ 161250Z 34011KT 10SM FEW029 SCT037 16/12 A2996 1040 77 1400 340/11 RMK AO2 SLP144 T01560117
94908KDBQ DBQ20080616065510406/16/08 06:55:31  5-MIN KDBQ 161255Z 34012KT 10SM FEW029 SCT037 16/12 A2997 1040 75 1400 330/12 RMK AO2
94908KDBQ DBQ20080616070010406/16/08 07:00:31  5-MIN KDBQ 161300Z 33012KT 10SM FEW029 SCT036 16/12 A2997 1030 75 1400 330/12 RMK AO2
94908KDBQ DBQ20080616070509706/16/08 07:05:31  5-MIN KDBQ 161305Z 33011KT 10SM BKN036 16/12 A2997 1030 75 1400 330/11 RMK AO2
94908KDBQ DBQ20080616071010306/16/08 07:10:31  5-MIN KDBQ 161310Z 33014G17KT 10SM SCT034 16/12 A2997 1030 75 1400 330/14G17 RMK AO2
94908KDBQ DBQ20080616071510306/16/08 07:15:31  5-MIN KDBQ 161315Z 33010G17KT 10SM SCT035 16/12 A2997 1030 75 1400 330/10G17 RMK AO2
94908KDBQ DBQ20080616072009706/16/08 07:20:31  5-MIN KDBQ 161320Z 33013KT 10SM FEW037 16/12 A2998 1030 75 1400 330/13 RMK AO2
94908KDBQ DBQ20080616072509706/16/08 07:25:31  5-MIN KDBQ 161325Z 33011KT 10SM FEW037 16/12 A2998 1030 75 1400 330/11 RMK AO2
94908KDBQ DBQ20080616073009706/16/08 07:30:31  5-MIN KDBQ 161330Z 33013KT 10SM FEW022 16/11 A2998 1020 72 1400 330/13 RMK AO2
94908KDBQ DBQ20080616073511006/16/08 07:35:31  5-MIN KDBQ 161335Z 33011G17KT 10SM FEW022 SCT041 16/11 A2998 1020 72 1400 330/11G17 RMK AO2
94908KDBQ DBQ20080616075012806/16/08 07:50:31  5-MIN KDBQ 161350Z 33011KT 10SM FEW024 SCT030 BKN043 17/11 A2998 1020 67 1500 330/11 RMK AO2 SLP150 T01670106
94908KDBQ DBQ20080616075510406/16/08 07:55:31  5-MIN KDBQ 161355Z 32013KT 10SM BKN024 BKN043 17/11 A2999 1020 67 1500 320/13 RMK AO2
94908KDBQ DBQ20080616080010406/16/08 08:00:31  5-MIN KDBQ 161400Z 32012KT 10SM BKN024 BKN043 16/09 A2999 1010 67 1400 320/12 RMK AO2
94908KDBQ DBQ20080616080511006/16/08 08:05:31  5-MIN KDBQ 161405Z 33013G18KT 10SM BKN024 BKN043 16/09 A2999 1010 67 1400 330/13G18 RMK AO2
94908KDBQ DBQ20080616081011006/16/08 08:10:31  5-MIN KDBQ 161410Z 33013G18KT 10SM BKN024 BKN043 16/09 A2999 1010 62 1400 330/13G18 RMK AO2
94908KDBQ DBQ20080616081511006/16/08 08:15:31  5-MIN KDBQ 161415Z 35013G21KT 10SM BKN024 BKN043 17/09 A2998 1020 57 1600 350/13G21 RMK AO2
94908KDBQ DBQ20080616082011006/16/08 08:20:31  5-MIN KDBQ 161420Z 35013G21KT 10SM BKN024 BKN043 17/09 A2999 1020 57 1600 350/13G21 RMK AO2
94908KDBQ DBQ20080616082511006/16/08 08:25:31  5-MIN KDBQ 161425Z 34012G20KT 10SM BKN024 BKN043 17/09 A2999 1010 60 1600 330/12G20 RMK AO2
94908KDBQ DBQ20080616083011006/16/08 08:30:31  5-MIN KDBQ 161430Z 33011G18KT 10SM BKN024 BKN043 16/09 A2999 1010 62 1400 330/11G18 RMK AO2
94908KDBQ DBQ20080616083511006/16/08 08:35:31  5-MIN KDBQ 161435Z 34011G18KT 10SM BKN024 BKN043 16/08 A2999 1020 59 1400 330/11G18 RMK AO2
94908KDBQ DBQ20080616084011006/16/08 08:40:31  5-MIN KDBQ 161440Z 34012G18KT 10SM BKN024 BKN043 16/08 A2999 1020 59 1400 340/12G18 RMK AO2
94908KDBQ DBQ20080616084511006/16/08 08:45:31  5-MIN KDBQ 161445Z 33013G18KT 10SM BKN024 BKN043 16/08 A2999 1020 59 1400 330/13G18 RMK AO2
94908KDBQ DBQ20080616085012706/16/08 08:50:31  5-MIN KDBQ 161450Z 33013KT 10SM BKN024 BKN043 17/08 A2999 1020 57 1500 330/13 RMK AO2 SLP152 T01670083 53011
94908KDBQ DBQ20080616085509706/16/08 08:55:31  5-MIN KDBQ 161455Z 34010KT 10SM FEW037 17/08 A2999 1020 57 1500 340/10 RMK AO2
94908KDBQ DBQ20080616090010306/16/08 09:00:31  5-MIN KDBQ 161500Z 35012G17KT 10SM FEW037 17/09 A2999 1010 57 1500 340/12G17 RMK AO2
94908KDBQ DBQ20080616090509706/16/08 09:05:31  5-MIN KDBQ 161505Z 34012KT 10SM FEW037 17/08 A2999 1020 55 1600 340/12 RMK AO2
94908KDBQ DBQ20080616091009706/16/08 09:10:31  5-MIN KDBQ 161510Z 35010KT 10SM FEW037 18/09 A2999 1010 58 1600 350/10 RMK AO2
94908KDBQ DBQ20080616091510006/16/08 09:15:31  5-MIN KDBQ 161515Z 34012G17KT 10SM CLR 18/09 A2999 1010 55 1600 330/12G17 RMK AO2
94908KDBQ DBQ20080616092010006/16/08 09:20:31  5-MIN KDBQ 161520Z 36010G17KT 10SM CLR 18/09 A3000 1010 58 1600 360/10G17 RMK AO2
94908KDBQ DBQ20080616092510006/16/08 09:25:31  5-MIN KDBQ 161525Z 35012G17KT 10SM CLR 18/09 A3000 1010 55 1600 350/12G17 RMK AO2
94908KDBQ DBQ20080616093010006/16/08 09:30:31  5-MIN KDBQ 161530Z 33012G17KT 10SM CLR 18/08 A3000 1010 53 1600 320/12G17 RMK AO2
94908KDBQ DBQ20080616093509406/16/08 09:35:31  5-MIN KDBQ 161535Z 35010KT 10SM CLR 18/08 A3000 1000 53 1600 350/10 RMK AO2
94908KDBQ DBQ20080616094009606/16/08 09:40:31  5-MIN KDBQ 161540Z 34011KT 10SM FEW042 18/08 A3001 990 53 1600 340/11 RMK AO2
94908KDBQ DBQ20080616094509606/16/08 09:45:31  5-MIN KDBQ 161545Z 32012KT 10SM SCT042 17/09 A3001 990 57 1500 320/12 RMK AO2
94908KDBQ DBQ20080616095011306/16/08 09:50:31  5-MIN KDBQ 161550Z 32010KT 10SM BKN042 17/08 A3001 990 55 1500 320/10 RMK AO2 SLP161 T01670078
94908KDBQ DBQ20080616095509706/16/08 09:55:31  5-MIN KDBQ 161555Z 34012KT 10SM BKN044 17/08 A3001 1000 53 1500 340/12 RMK AO2
94908KDBQ DBQ20080616100010206/16/08 10:00:31  5-MIN KDBQ 161600Z 32009G16KT 10SM SCT044 18/08 A3001 990 53 1600 320/09G16 RMK AO2
94908KDBQ DBQ20080616100510206/16/08 10:05:31  5-MIN KDBQ 161605Z 33012G18KT 10SM SCT044 18/08 A3001 990 53 1600 330/12G18 RMK AO2
94908KDBQ DBQ20080616101010206/16/08 10:10:31  5-MIN KDBQ 161610Z 34010G18KT 10SM SCT044 18/08 A3001 990 53 1600 340/10G18 RMK AO2
94908KDBQ DBQ20080616101510306/16/08 10:15:31  5-MIN KDBQ 161615Z 34012G17KT 10SM FEW044 18/09 A3001 1000 54 1700 340/12G17 RMK AO2
94908KDBQ DBQ20080616102010306/16/08 10:20:31  5-MIN KDBQ 161620Z 34010G17KT 10SM FEW044 18/09 A3001 1000 54 1700 340/10G17 RMK AO2
94908KDBQ DBQ20080616102509706/16/08 10:25:31  5-MIN KDBQ 161625Z 34011KT 10SM FEW044 18/09 A3001 1000 54 1700 330/11 RMK AO2
94908KDBQ DBQ20080616103010006/16/08 10:30:31  5-MIN KDBQ 161630Z 35008G17KT 10SM CLR 18/09 A3001 1000 54 1700 350/08G17 RMK AO2
94908KDBQ DBQ20080616103509406/16/08 10:35:31  5-MIN KDBQ 161635Z 32014KT 10SM CLR 18/09 A3000 1000 54 1700 320/14 RMK AO2
94908KDBQ DBQ20080616104009406/16/08 10:40:31  5-MIN KDBQ 161640Z 34010KT 10SM CLR 18/09 A3000 1000 54 1700 340/10 RMK AO2
94908KDBQ DBQ20080616104509706/16/08 10:45:31  5-MIN KDBQ 161645Z 33012KT 10SM FEW043 18/09 A3000 1000 54 1700 330/12 RMK AO2
94908KDBQ DBQ20080616105011406/16/08 10:50:31  5-MIN KDBQ 161650Z 31007KT 10SM FEW043 18/09 A3001 1000 56 1700 310/07 RMK AO2 SLP158 T01830094
94908KDBQ DBQ20080616105510306/16/08 10:55:31  5-MIN KDBQ 161655Z 33013G17KT 10SM FEW043 18/09 A3000 1000 54 1700 330/13G17 RMK AO2
94908KDBQ DBQ20080616110009706/16/08 11:00:31  5-MIN KDBQ 161700Z 34012KT 10SM FEW043 18/08 A3001 1000 52 1700 340/12 RMK AO2
94908KDBQ DBQ20080616110510306/16/08 11:05:31  5-MIN KDBQ 161705Z 34010G16KT 10SM FEW043 19/09 A3000 1000 54 1700 340/10G16 RMK AO2
94908KDBQ DBQ20080616111010306/16/08 11:10:31  5-MIN KDBQ 161710Z 32011G16KT 10SM SCT043 18/09 A3000 1000 56 1700 310/11G16 RMK AO2
94908KDBQ DBQ20080616111510306/16/08 11:15:31  5-MIN KDBQ 161715Z 34012G18KT 10SM FEW043 19/09 A3000 1000 52 1700 340/12G18 RMK AO2
94908KDBQ DBQ20080616112010306/16/08 11:20:31  5-MIN KDBQ 161720Z 34012G18KT 10SM FEW043 19/09 A3001 1000 52 1700 330/12G18 RMK AO2
94908KDBQ DBQ20080616112510306/16/08 11:25:31  5-MIN KDBQ 161725Z 34008G18KT 10SM FEW043 19/10 A3001 1000 54 1800 340/08G18 RMK AO2
94908KDBQ DBQ20080616113010306/16/08 11:30:31  5-MIN KDBQ 161730Z 33008G14KT 10SM FEW043 19/09 A3000 1000 54 1700 330/08G14 RMK AO2
94908KDBQ DBQ20080616113510306/16/08 11:35:31  5-MIN KDBQ 161735Z 33015G19KT 10SM FEW043 19/09 A3000 1000 54 1700 330/15G19 RMK AO2
94908KDBQ DBQ20080616114010306/16/08 11:40:31  5-MIN KDBQ 161740Z 31011G19KT 10SM FEW045 19/09 A3000 1000 54 1700 310/11G19 RMK AO2
94908KDBQ DBQ20080616114510306/16/08 11:45:31  5-MIN KDBQ 161745Z 32014G19KT 10SM FEW045 19/09 A3001 1000 52 1800 320/14G19 RMK AO2
94908KDBQ DBQ20080616115013806/16/08 11:50:31  5-MIN KDBQ 161750Z 34011G19KT 10SM FEW045 19/09 A3001 1000 52 1800 340/11G19 RMK AO2 SLP159 T01940094 10194 20150 51014
94908KDBQ DBQ20080616115510306/16/08 11:55:31  5-MIN KDBQ 161755Z 33012G18KT 10SM FEW045 19/09 A3000 1000 52 1800 330/12G18 RMK AO2
94908KDBQ DBQ20080616120010306/16/08 12:00:31  5-MIN KDBQ 161800Z 33011G18KT 10SM SCT045 19/09 A3000 1000 52 1800 330/11G18 RMK AO2
94908KDBQ DBQ20080616120510306/16/08 12:05:31  5-MIN KDBQ 161805Z 32010G18KT 10SM SCT045 20/09 A3001 1000 50 1900 320/10G18 RMK AO2
94908KDBQ DBQ20080616121010306/16/08 12:10:31  5-MIN KDBQ 161810Z 33014G20KT 10SM FEW048 20/09 A3001 1000 50 1900 330/14G20 RMK AO2
94908KDBQ DBQ20080616121510306/16/08 12:15:31  5-MIN KDBQ 161815Z 33013G21KT 10SM FEW048 19/09 A3000 1000 50 1800 330/13G21 RMK AO2
94908KDBQ DBQ20080616122010306/16/08 12:20:31  5-MIN KDBQ 161820Z 32012G21KT 10SM SCT048 19/09 A3000 1010 50 1800 320/12G21 RMK AO2
94908KDBQ DBQ20080616122509706/16/08 12:25:31  5-MIN KDBQ 161825Z 33013KT 10SM SCT048 19/09 A3000 1000 52 1700 330/13 RMK AO2
94908KDBQ DBQ20080616123010306/16/08 12:30:31  5-MIN KDBQ 161830Z 34013G19KT 10SM FEW048 20/09 A3000 1000 50 1900 340/13G19 RMK AO2
94908KDBQ DBQ20080616123510306/16/08 12:35:31  5-MIN KDBQ 161835Z 31013G21KT 10SM FEW048 20/09 A3000 1010 48 1900 310/13G21 RMK AO2
94908KDBQ DBQ20080616124010306/16/08 12:40:31  5-MIN KDBQ 161840Z 32012G21KT 10SM FEW048 20/09 A3000 1010 48 1900 310/12G21 RMK AO2
94908KDBQ DBQ20080616124510306/16/08 12:45:31  5-MIN KDBQ 161845Z 32013G19KT 10SM FEW048 20/09 A3000 1000 50 1900 320/13G19 RMK AO2
94908KDBQ DBQ20080616125011406/16/08 12:50:31  5-MIN KDBQ 161850Z 32014KT 10SM FEW048 20/09 A3000 1000 50 1900 320/14 RMK AO2 SLP156 T02000094
94908KDBQ DBQ20080616125510306/16/08 12:55:31  5-MIN KDBQ 161855Z 31017G21KT 10SM FEW048 20/09 A3000 1000 48 1900 310/17G21 RMK AO2
94908KDBQ DBQ20080616130010306/16/08 13:00:31  5-MIN KDBQ 161900Z 32015G21KT 10SM FEW048 20/09 A3000 1000 48 1900 320/15G21 RMK AO2
94908KDBQ DBQ20080616130509706/16/08 13:05:31  5-MIN KDBQ 161905Z 33013KT 10SM FEW050 20/08 A3000 1010 46 1900 330/13 RMK AO2
94908KDBQ DBQ20080616131009706/16/08 13:10:31  5-MIN KDBQ 161910Z 32014KT 10SM FEW050 20/09 A3000 1000 48 1900 320/14 RMK AO2
94908KDBQ DBQ20080616131510306/16/08 13:15:31  5-MIN KDBQ 161915Z 31013G19KT 10SM SCT050 20/09 A3000 1000 48 1900 310/13G19 RMK AO2
94908KDBQ DBQ20080616132010306/16/08 13:20:31  5-MIN KDBQ 161920Z 32015G22KT 10SM FEW050 20/08 A3000 1000 46 1900 310/15G22 RMK AO2
94908KDBQ DBQ20080616132510306/16/08 13:25:31  5-MIN KDBQ 161925Z 30014G22KT 10SM FEW050 20/08 A3000 1010 46 1900 300/14G22 RMK AO2
94908KDBQ DBQ20080616133009706/16/08 13:30:31  5-MIN KDBQ 161930Z 31012KT 10SM FEW050 21/08 A3000 1010 45 1900 310/12 RMK AO2
94908KDBQ DBQ20080616133510306/16/08 13:35:31  5-MIN KDBQ 161935Z 33015G24KT 10SM FEW050 21/08 A2999 1010 45 1900 330/15G24 RMK AO2
94908KDBQ DBQ20080616134010306/16/08 13:40:31  5-MIN KDBQ 161940Z 30012G24KT 10SM FEW050 21/09 A2999 1010 46 1900 300/12G24 RMK AO2
94908KDBQ DBQ20080616134510006/16/08 13:45:31  5-MIN KDBQ 161945Z 32013G21KT 10SM CLR 21/08 A3000 1000 45 1900 320/13G21 RMK AO2
94908KDBQ DBQ20080616135011706/16/08 13:50:31  5-MIN KDBQ 161950Z 32016G22KT 10SM CLR 21/09 A2999 1010 45 2000 310/16G22 RMK AO2 SLP154 T02110089
94908KDBQ DBQ20080616135510006/16/08 13:55:31  5-MIN KDBQ 161955Z 33017G23KT 10SM CLR 21/08 A2999 1010 45 1900 330/17G23 RMK AO2
94908KDBQ DBQ20080616140010006/16/08 14:00:31  5-MIN KDBQ 162000Z 33015G23KT 10SM CLR 21/08 A3000 1010 45 1900 330/15G23 RMK AO2
94908KDBQ DBQ20080616140509406/16/08 14:05:31  5-MIN KDBQ 162005Z 32015KT 10SM CLR 21/08 A2999 1010 45 1900 320/15 RMK AO2
94908KDBQ DBQ20080616141010006/16/08 14:10:31  5-MIN KDBQ 162010Z 32014G19KT 10SM CLR 21/08 A2999 1010 45 1900 320/14G19 RMK AO2
94908KDBQ DBQ20080616141510006/16/08 14:15:31  5-MIN KDBQ 162015Z 33015G20KT 10SM CLR 20/08 A3000 1010 45 1900 320/15G20 RMK AO2
94908KDBQ DBQ20080616142010006/16/08 14:20:31  5-MIN KDBQ 162020Z 32013G20KT 10SM CLR 21/08 A3000 1010 45 1900 320/13G20 RMK AO2
94908KDBQ DBQ20080616142510306/16/08 14:25:31  5-MIN KDBQ 162025Z 31012G18KT 10SM FEW055 21/09 A2999 1010 46 1900 310/12G18 RMK AO2
94908KDBQ DBQ20080616143010306/16/08 14:30:31  5-MIN KDBQ 162030Z 32012G21KT 10SM SCT055 21/09 A2999 1020 46 1900 320/12G21 RMK AO2
94908KDBQ DBQ20080616143510306/16/08 14:35:31  5-MIN KDBQ 162035Z 31014G21KT 10SM FEW055 21/08 A2999 1020 45 1900 310/14G21 RMK AO2
94908KDBQ DBQ20080616144010306/16/08 14:40:31  5-MIN KDBQ 162040Z 32014G21KT 10SM FEW055 21/08 A2999 1020 43 1900 320/14G21 RMK AO2
94908KDBQ DBQ20080616144510306/16/08 14:45:31  5-MIN KDBQ 162045Z 31013G21KT 10SM FEW055 21/08 A2999 1010 43 2000 310/13G21 RMK AO2
94908KDBQ DBQ20080616145012006/16/08 14:50:31  5-MIN KDBQ 162050Z 30014KT 10SM FEW055 21/08 A2999 1020 43 2000 300/14 RMK AO2 SLP152 T02110083 51006
94908KDBQ DBQ20080616145509706/16/08 14:55:31  5-MIN KDBQ 162055Z 30013KT 10SM FEW060 21/08 A2998 1020 43 2000 290/13 RMK AO2
94908KDBQ DBQ20080616150010306/16/08 15:00:31  5-MIN KDBQ 162100Z 31016G23KT 10SM SCT060 21/08 A2999 1020 43 2000 300/16G23 RMK AO2
94908KDBQ DBQ20080616150510306/16/08 15:05:31  5-MIN KDBQ 162105Z 31013G24KT 10SM SCT065 20/08 A2999 1020 45 1900 310/13G24 RMK AO2
94908KDBQ DBQ20080616151010306/16/08 15:10:31  5-MIN KDBQ 162110Z 31012G24KT 10SM SCT065 21/08 A2998 1020 43 2000 310/12G24 RMK AO2
94908KDBQ DBQ20080616151510306/16/08 15:15:31  5-MIN KDBQ 162115Z 31015G21KT 10SM SCT065 21/08 A2998 1020 45 1900 310/15G21 RMK AO2
94908KDBQ DBQ20080616152010306/16/08 15:20:31  5-MIN KDBQ 162120Z 31013G21KT 10SM SCT065 21/08 A2999 1020 45 1900 310/13G21 RMK AO2
94908KDBQ DBQ20080616152509706/16/08 15:25:31  5-MIN KDBQ 162125Z 29012KT 10SM SCT065 21/08 A2999 1020 43 2000 290/12 RMK AO2
94908KDBQ DBQ20080616153010306/16/08 15:30:31  5-MIN KDBQ 162130Z 31010G18KT 10SM SCT065 22/09 A2998 1020 43 2100 310/10G18 RMK AO2
94908KDBQ DBQ20080616153510306/16/08 15:35:31  5-MIN KDBQ 162135Z 30010G18KT 10SM BKN070 21/08 A2999 1020 45 1900 300/10G18 RMK AO2
94908KDBQ DBQ20080616154010306/16/08 15:40:31  5-MIN KDBQ 162140Z 31010G17KT 10SM BKN065 21/09 A2998 1030 46 1900 310/10G17 RMK AO2
94908KDBQ DBQ20080616154510306/16/08 15:45:31  5-MIN KDBQ 162145Z 31011G17KT 10SM BKN065 21/09 A2998 1020 45 2000 310/11G17 RMK AO2
94908KDBQ DBQ20080616155012006/16/08 15:50:31  5-MIN KDBQ 162150Z 31013G19KT 10SM BKN065 22/09 A2998 1030 45 2100 310/13G19 RMK AO2 SLP148 T02170094
94908KDBQ DBQ20080616155510306/16/08 15:55:31  5-MIN KDBQ 162155Z 29015G23KT 10SM BKN065 22/08 A2998 1030 42 2100 290/15G23 RMK AO2
94908KDBQ DBQ20080616160010306/16/08 16:00:31  5-MIN KDBQ 162200Z 31014G23KT 10SM BKN065 21/08 A2998 1020 43 2000 310/14G23 RMK AO2
94908KDBQ DBQ20080616160510306/16/08 16:05:31  5-MIN KDBQ 162205Z 30015G23KT 10SM BKN065 22/08 A2998 1020 42 2100 300/15G23 RMK AO2
94908KDBQ DBQ20080616161010306/16/08 16:10:31  5-MIN KDBQ 162210Z 31014G22KT 10SM BKN065 21/08 A2998 1020 43 1900 310/14G22 RMK AO2
94908KDBQ DBQ20080616161510306/16/08 16:15:31  5-MIN KDBQ 162215Z 31016G22KT 10SM SCT065 22/08 A2998 1020 42 2100 300/16G22 RMK AO2
94908KDBQ DBQ20080616162010306/16/08 16:20:31  5-MIN KDBQ 162220Z 31014G21KT 10SM SCT065 21/08 A2998 1020 42 2000 310/14G21 RMK AO2
94908KDBQ DBQ20080616162509706/16/08 16:25:31  5-MIN KDBQ 162225Z 31015KT 10SM SCT065 22/08 A2998 1020 42 2100 310/15 RMK AO2
94908KDBQ DBQ20080616163010306/16/08 16:30:31  5-MIN KDBQ 162230Z 33014G19KT 10SM SCT065 22/08 A2998 1020 42 2100 330/14G19 RMK AO2
94908KDBQ DBQ20080616163510306/16/08 16:35:31  5-MIN KDBQ 162235Z 32010G19KT 10SM SCT065 22/09 A2998 1020 43 2100 310/10G19 RMK AO2
94908KDBQ DBQ20080616164010306/16/08 16:40:31  5-MIN KDBQ 162240Z 31012G18KT 10SM FEW065 21/08 A2998 1020 43 2000 310/12G18 RMK AO2
94908KDBQ DBQ20080616164510306/16/08 16:45:31  5-MIN KDBQ 162245Z 33012G21KT 10SM FEW065 20/08 A2999 1020 45 1900 330/12G21 RMK AO2
94908KDBQ DBQ20080616165012006/16/08 16:50:31  5-MIN KDBQ 162250Z 33012G21KT 10SM SCT070 21/08 A2998 1020 42 2000 320/12G21 RMK AO2 SLP150 T02110078
94908KDBQ DBQ20080616165509706/16/08 16:55:31  5-MIN KDBQ 162255Z 33011KT 10SM SCT070 20/08 A2998 1020 46 1900 330/11 RMK AO2
94908KDBQ DBQ20080616170009706/16/08 17:00:31  5-MIN KDBQ 162300Z 32010KT 10SM SCT070 20/08 A2999 1020 45 1900 320/10 RMK AO2
94908KDBQ DBQ20080616170510306/16/08 17:05:31  5-MIN KDBQ 162305Z 32014G19KT 10SM BKN070 21/08 A2998 1020 42 2000 320/14G19 RMK AO2
94908KDBQ DBQ20080616171010306/16/08 17:10:31  5-MIN KDBQ 162310Z 31013G19KT 10SM SCT070 22/08 A2999 1020 40 2100 310/13G19 RMK AO2
94908KDBQ DBQ20080616171509706/16/08 17:15:31  5-MIN KDBQ 162315Z 34011KT 10SM BKN070 22/08 A2998 1020 42 2100 330/11 RMK AO2
94908KDBQ DBQ20080616172010306/16/08 17:20:31  5-MIN KDBQ 162320Z 33013G18KT 10SM BKN070 22/08 A2999 1020 42 2100 330/13G18 RMK AO2
94908KDBQ DBQ20080616172510306/16/08 17:25:31  5-MIN KDBQ 162325Z 34009G18KT 10SM BKN065 21/08 A2998 1020 43 2000 340/09G18 RMK AO2
94908KDBQ DBQ20080616173009706/16/08 17:30:31  5-MIN KDBQ 162330Z 34009KT 10SM BKN070 20/09 A2999 1010 48 1900 340/09 RMK AO2
94908KDBQ DBQ20080616173509706/16/08 17:35:31  5-MIN KDBQ 162335Z 34008KT 10SM BKN070 20/08 A2999 1020 46 1900 340/08 RMK AO2
94908KDBQ DBQ20080616174009706/16/08 17:40:31  5-MIN KDBQ 162340Z 33007KT 10SM BKN070 20/09 A2999 1010 48 1900 330/07 RMK AO2
94908KDBQ DBQ20080616174509706/16/08 17:45:31  5-MIN KDBQ 162345Z 34007KT 10SM BKN070 21/09 A2999 1010 45 2000 340/07 RMK AO2
94908KDBQ DBQ20080616175013206/16/08 17:50:31  5-MIN KDBQ 162350Z 35005KT 10SM BKN070 21/09 A2999 1010 45 2000 350/05 RMK AO2 SLP153 T02110089 10217 20189 56008
94908KDBQ DBQ20080616175509706/16/08 17:55:31  5-MIN KDBQ 162355Z 35006KT 10SM BKN070 21/09 A2999 1020 48 1900 340/06 RMK AO2
94908KDBQ DBQ20080616180009706/16/08 18:00:31  5-MIN KDBQ 170000Z 34008KT 10SM BKN070 21/09 A2999 1010 48 1900 340/08 RMK AO2
94908KDBQ DBQ20080616180509706/16/08 18:05:31  5-MIN KDBQ 170005Z 35007KT 10SM SCT070 21/09 A2999 1010 46 1900 350/07 RMK AO2
94908KDBQ DBQ20080616181010306/16/08 18:10:31  5-MIN KDBQ 170010Z 34008G15KT 10SM SCT070 21/08 A2999 1010 45 1900 340/08G15 RMK AO2
94908KDBQ DBQ20080616181510306/16/08 18:15:31  5-MIN KDBQ 170015Z 33007G15KT 10SM FEW070 20/08 A2999 1010 46 1900 330/07G15 RMK AO2
94908KDBQ DBQ20080616182009706/16/08 18:20:31  5-MIN KDBQ 170020Z 34005KT 10SM FEW070 20/09 A3000 1010 48 1900 340/05 RMK AO2
94908KDBQ DBQ20080616182509406/16/08 18:25:31  5-MIN KDBQ 170025Z 33007KT 10SM CLR 20/09 A3000 1010 48 1900 330/07 RMK AO2
94908KDBQ DBQ20080616183009406/16/08 18:30:31  5-MIN KDBQ 170030Z 33009KT 10SM CLR 20/08 A3000 1000 46 1900 320/09 RMK AO2
94908KDBQ DBQ20080616183509406/16/08 18:35:31  5-MIN KDBQ 170035Z 34008KT 10SM CLR 20/08 A3000 1000 46 1900 330/08 RMK AO2
94908KDBQ DBQ20080616184009406/16/08 18:40:31  5-MIN KDBQ 170040Z 35008KT 10SM CLR 19/08 A3000 1000 48 1800 340/08 RMK AO2
94908KDBQ DBQ20080616184509406/16/08 18:45:31  5-MIN KDBQ 170045Z 35006KT 10SM CLR 19/09 A3000 1000 50 1800 350/06 RMK AO2
94908KDBQ DBQ20080616185011106/16/08 18:50:31  5-MIN KDBQ 170050Z 36006KT 10SM CLR 19/09 A3000 1000 50 1800 360/06 RMK AO2 SLP158 T01940089
94908KDBQ DBQ20080616185509406/16/08 18:55:31  5-MIN KDBQ 170055Z 35008KT 10SM CLR 19/09 A3001 1000 52 1700 350/08 RMK AO2
94908KDBQ DBQ20080616190009406/16/08 19:00:31  5-MIN KDBQ 170100Z 35007KT 10SM CLR 18/09 A3001 1000 54 1700 350/07 RMK AO2
94908KDBQ DBQ20080616190509406/16/08 19:05:31  5-MIN KDBQ 170105Z 36008KT 10SM CLR 18/09 A3001 1000 54 1700 360/08 RMK AO2
94908KDBQ DBQ20080616191009306/16/08 19:10:31  5-MIN KDBQ 170110Z 01008KT 10SM CLR 18/09 A3001 990 54 1700 010/08 RMK AO2
94908KDBQ DBQ20080616191509306/16/08 19:15:31  5-MIN KDBQ 170115Z 01007KT 10SM CLR 18/09 A3001 990 54 1700 010/07 RMK AO2
94908KDBQ DBQ20080616192009306/16/08 19:20:31  5-MIN KDBQ 170120Z 01006KT 10SM CLR 18/09 A3001 990 55 1600 360/06 RMK AO2
94908KDBQ DBQ20080616192509306/16/08 19:25:31  5-MIN KDBQ 170125Z 01008KT 10SM CLR 18/09 A3002 990 55 1600 010/08 RMK AO2
94908KDBQ DBQ20080616193009306/16/08 19:30:31  5-MIN KDBQ 170130Z 36006KT 10SM CLR 17/09 A3002 990 60 1500 360/06 RMK AO2
94908KDBQ DBQ20080616193509306/16/08 19:35:31  5-MIN KDBQ 170135Z 36006KT 10SM CLR 17/09 A3002 990 62 1500 360/06 RMK AO2
94908KDBQ DBQ20080616194009306/16/08 19:40:31  5-MIN KDBQ 170140Z 36006KT 10SM CLR 17/09 A3002 980 62 1400 360/06 RMK AO2
94908KDBQ DBQ20080616194509306/16/08 19:45:31  5-MIN KDBQ 170145Z 36006KT 10SM CLR 16/09 A3002 980 64 1400 360/06 RMK AO2
94908KDBQ DBQ20080616195011006/16/08 19:50:31  5-MIN KDBQ 170150Z 36006KT 10SM CLR 16/09 A3003 980 64 1400 360/06 RMK AO2 SLP166 T01610094
94908KDBQ DBQ20080616195509306/16/08 19:55:31  5-MIN KDBQ 170155Z 36007KT 10SM CLR 16/09 A3003 980 67 1300 360/07 RMK AO2
94908KDBQ DBQ20080616200009306/16/08 20:00:31  5-MIN KDBQ 170200Z 36007KT 10SM CLR 16/09 A3003 980 67 1300 360/07 RMK AO2
94908KDBQ DBQ20080616200509306/16/08 20:05:31  5-MIN KDBQ 170205Z 36007KT 10SM CLR 15/09 A3003 980 69 1200 360/07 RMK AO2
94908KDBQ DBQ20080616201009306/16/08 20:10:31  5-MIN KDBQ 170210Z 36006KT 10SM CLR 15/09 A3003 970 69 1200 360/06 RMK AO2
94908KDBQ DBQ20080616201509306/16/08 20:15:31  5-MIN KDBQ 170215Z 36006KT 10SM CLR 15/09 A3003 980 69 1200 360/06 RMK AO2
94908KDBQ DBQ20080616202009306/16/08 20:20:31  5-MIN KDBQ 170220Z 01006KT 10SM CLR 15/09 A3004 970 69 1200 010/06 RMK AO2
94908KDBQ DBQ20080616202509306/16/08 20:25:31  5-MIN KDBQ 170225Z 01006KT 10SM CLR 15/09 A3004 970 69 1200 360/06 RMK AO2
94908KDBQ DBQ20080616203009306/16/08 20:30:31  5-MIN KDBQ 170230Z 36005KT 10SM CLR 15/09 A3004 970 69 1200 360/05 RMK AO2
94908KDBQ DBQ20080616203509306/16/08 20:35:31  5-MIN KDBQ 170235Z 36006KT 10SM CLR 14/09 A3004 960 72 1200 360/06 RMK AO2
94908KDBQ DBQ20080616204009306/16/08 20:40:31  5-MIN KDBQ 170240Z 36006KT 10SM CLR 14/09 A3005 960 72 1200 360/06 RMK AO2
94908KDBQ DBQ20080616204509306/16/08 20:45:31  5-MIN KDBQ 170245Z 36006KT 10SM CLR 14/09 A3005 960 74 1100 350/06 RMK AO2
94908KDBQ DBQ20080616205011606/16/08 20:50:31  5-MIN KDBQ 170250Z 36006KT 10SM CLR 14/09 A3005 960 74 1100 360/06 RMK AO2 SLP175 T01390094 53002
94908KDBQ DBQ20080616205509306/16/08 20:55:31  5-MIN KDBQ 170255Z 36006KT 10SM CLR 14/09 A3005 960 74 1100 360/06 RMK AO2
94908KDBQ DBQ20080616210009306/16/08 21:00:31  5-MIN KDBQ 170300Z 36006KT 10SM CLR 14/09 A3005 960 74 1100 360/06 RMK AO2
94908KDBQ DBQ20080616210509306/16/08 21:05:31  5-MIN KDBQ 170305Z 36006KT 10SM CLR 14/09 A3006 950 74 1100 360/06 RMK AO2
94908KDBQ DBQ20080616211009306/16/08 21:10:31  5-MIN KDBQ 170310Z 35006KT 10SM CLR 14/09 A3006 950 74 1100 350/06 RMK AO2
94908KDBQ DBQ20080616211509806/16/08 21:15:31  5-MIN KDBQ 170315Z AUTO 35005KT 10SM CLR 14/09 A3006 950 74 1100 350/05 RMK AO2
94908KDBQ DBQ20080616212010306/16/08 21:20:31  5-MIN KDBQ 170320Z AUTO 36004KT 10SM CLR 14/09 A3006 950 74 1100 360/04 RMK AO2 TSNO
94908KDBQ DBQ20080616212510306/16/08 21:25:31  5-MIN KDBQ 170325Z AUTO 35004KT 10SM CLR 14/09 A3006 950 74 1100 350/04 RMK AO2 TSNO
94908KDBQ DBQ20080616213010306/16/08 21:30:31  5-MIN KDBQ 170330Z AUTO 36004KT 10SM CLR 14/09 A3006 950 74 1100 350/04 RMK AO2 TSNO
94908KDBQ DBQ20080616213510306/16/08 21:35:31  5-MIN KDBQ 170335Z AUTO 35004KT 10SM CLR 14/09 A3006 950 74 1100 340/04 RMK AO2 TSNO
94908KDBQ DBQ20080616214010306/16/08 21:40:31  5-MIN KDBQ 170340Z AUTO 35004KT 10SM CLR 14/09 A3006 950 74 1100 350/04 RMK AO2 TSNO
94908KDBQ DBQ20080616214510306/16/08 21:45:31  5-MIN KDBQ 170345Z AUTO 35005KT 10SM CLR 13/09 A3006 950 74 1000 350/05 RMK AO2 TSNO
94908KDBQ DBQ20080616215012006/16/08 21:50:31  5-MIN KDBQ 170350Z AUTO 35005KT 10SM CLR 13/09 A3006 950 77 1000 350/05 RMK AO2 SLP180 T01330094 TSNO
94908KDBQ DBQ20080616215510306/16/08 21:55:31  5-MIN KDBQ 170355Z AUTO 36005KT 10SM CLR 13/09 A3006 950 77 1000 350/05 RMK AO2 TSNO
94908KDBQ DBQ20080616220010306/16/08 22:00:31  5-MIN KDBQ 170400Z AUTO 35005KT 10SM CLR 13/09 A3006 950 77 1000 350/05 RMK AO2 TSNO
94908KDBQ DBQ20080616220510206/16/08 22:05:31  5-MIN KDBQ 170405Z AUTO 34005KT 10SM CLR 13/09 A3006 950 77 900 340/05 RMK AO2 TSNO
94908KDBQ DBQ20080616221010206/16/08 22:10:31  5-MIN KDBQ 170410Z AUTO 33005KT 10SM CLR 13/09 A3006 950 77 900 330/05 RMK AO2 TSNO
94908KDBQ DBQ20080616221510206/16/08 22:15:31  5-MIN KDBQ 170415Z AUTO 33005KT 10SM CLR 13/09 A3006 950 80 900 330/05 RMK AO2 TSNO
94908KDBQ DBQ20080616222010206/16/08 22:20:31  5-MIN KDBQ 170420Z AUTO 34005KT 10SM CLR 12/09 A3006 950 83 900 330/05 RMK AO2 TSNO
94908KDBQ DBQ20080616222510206/16/08 22:25:31  5-MIN KDBQ 170425Z AUTO 33005KT 10SM CLR 12/09 A3006 950 80 900 330/05 RMK AO2 TSNO
94908KDBQ DBQ20080616223010206/16/08 22:30:31  5-MIN KDBQ 170430Z AUTO 34005KT 10SM CLR 12/09 A3006 950 83 900 340/05 RMK AO2 TSNO
94908KDBQ DBQ20080616223510206/16/08 22:35:31  5-MIN KDBQ 170435Z AUTO 34005KT 10SM CLR 12/09 A3006 950 80 900 340/05 RMK AO2 TSNO
94908KDBQ DBQ20080616224010206/16/08 22:40:31  5-MIN KDBQ 170440Z AUTO 34005KT 10SM CLR 12/09 A3006 950 80 900 340/05 RMK AO2 TSNO
94908KDBQ DBQ20080616224510206/16/08 22:45:31  5-MIN KDBQ 170445Z AUTO 34005KT 10SM CLR 12/09 A3007 940 80 900 340/05 RMK AO2 TSNO
94908KDBQ DBQ20080616225011906/16/08 22:50:31  5-MIN KDBQ 170450Z AUTO 33005KT 10SM CLR 12/09 A3007 940 80 900 330/05 RMK AO2 SLP181 T01220089 TSNO
94908KDBQ DBQ20080616225510206/16/08 22:55:31  5-MIN KDBQ 170455Z AUTO 33004KT 10SM CLR 13/09 A3007 940 77 900 330/04 RMK AO2 TSNO
94908KDBQ DBQ20080616230010306/16/08 23:00:31  5-MIN KDBQ 170500Z AUTO 34003KT 10SM CLR 13/09 A3007 940 74 1000 340/03 RMK AO2 TSNO
94908KDBQ DBQ20080616230510306/16/08 23:05:31  5-MIN KDBQ 170505Z AUTO 33003KT 10SM CLR 13/08 A3007 940 71 1000 330/03 RMK AO2 TSNO
94908KDBQ DBQ20080616231010306/16/08 23:10:31  5-MIN KDBQ 170510Z AUTO 33003KT 10SM CLR 14/08 A3007 940 69 1100 330/03 RMK AO2 TSNO
94908KDBQ DBQ20080616231510306/16/08 23:15:31  5-MIN KDBQ 170515Z AUTO 00000KT 10SM CLR 14/08 A3007 940 69 1100 000/00 RMK AO2 TSNO
94908KDBQ DBQ20080616232010306/16/08 23:20:31  5-MIN KDBQ 170520Z AUTO 00000KT 10SM CLR 14/08 A3007 940 69 1100 000/00 RMK AO2 TSNO
94908KDBQ DBQ20080616232510306/16/08 23:25:31  5-MIN KDBQ 170525Z AUTO 00000KT 10SM CLR 13/08 A3006 950 71 1000 000/00 RMK AO2 TSNO
94908KDBQ DBQ20080616233010206/16/08 23:30:31  5-MIN KDBQ 170530Z AUTO 00000KT 10SM CLR 12/08 A3006 940 77 900 000/00 RMK AO2 TSNO
94908KDBQ DBQ20080616233510206/16/08 23:35:31  5-MIN KDBQ 170535Z AUTO 00000KT 10SM CLR 13/09 A3006 950 77 900 000/00 RMK AO2 TSNO
94908KDBQ DBQ20080616234010206/16/08 23:40:31  5-MIN KDBQ 170540Z AUTO 00000KT 10SM CLR 12/09 A3006 950 80 900 000/00 RMK AO2 TSNO
94908KDBQ DBQ20080616234510206/16/08 23:45:31  5-MIN KDBQ 170545Z AUTO 00000KT 10SM CLR 12/09 A3006 950 80 900 000/00 RMK AO2 TSNO
94908KDBQ DBQ20080616235014706/16/08 23:50:31  5-MIN KDBQ 170550Z AUTO 00000KT 10SM CLR 13/09 A3006 950 77 900 000/00 RMK AO2 SLP179 T01280089 10211 20117 402170117 53021 TSNO
94908KDBQ DBQ20080616235510206/16/08 23:55:31  5-MIN KDBQ 170555Z AUTO 00000KT 10SM CLR 12/08 A3006 950 77 900 000/00 RMK AO2 TSNO
94908KDBQ DBQ20080617000010206/17/08 00:00:38  5-MIN KDBQ 170600Z AUTO 00000KT 10SM CLR 12/08 A3006 950 77 900 000/00 RMK AO2 TSNO
94908KDBQ DBQ20080617000510206/17/08 00:05:31  5-MIN KDBQ 170605Z AUTO 00000KT 10SM CLR 12/08 A3006 950 77 900 000/00 RMK AO2 TSNO
94908KDBQ DBQ20080617001010206/17/08 00:10:31  5-MIN KDBQ 170610Z AUTO 00000KT 10SM CLR 12/08 A3006 950 80 800 000/00 RMK AO2 TSNO
94908KDBQ DBQ20080617001510206/17/08 00:15:31  5-MIN KDBQ 170615Z AUTO 00000KT 10SM CLR 12/09 A3006 950 83 800 000/00 RMK AO2 TSNO
94908KDBQ DBQ20080617002010206/17/08 00:20:31  5-MIN KDBQ 170620Z AUTO 00000KT 10SM CLR 11/09 A3006 950 86 700 000/00 RMK AO2 TSNO
94908KDBQ DBQ20080617002510206/17/08 00:25:31  5-MIN KDBQ 170625Z AUTO 00000KT 10SM CLR 12/09 A3006 950 83 800 000/00 RMK AO2 TSNO
94908KDBQ DBQ20080617003010206/17/08 00:30:31  5-MIN KDBQ 170630Z AUTO 00000KT 10SM CLR 12/09 A3006 950 83 800 000/00 RMK AO2 TSNO
94908KDBQ DBQ20080617003510206/17/08 00:35:31  5-MIN KDBQ 170635Z AUTO 00000KT 10SM CLR 12/09 A3006 950 83 800 000/00 RMK AO2 TSNO
94908KDBQ DBQ20080617004010206/17/08 00:40:31  5-MIN KDBQ 170640Z AUTO 00000KT 10SM CLR 11/09 A3006 950 89 800 000/00 RMK AO2 TSNO
94908KDBQ DBQ20080617004510206/17/08 00:45:31  5-MIN KDBQ 170645Z AUTO 00000KT 10SM CLR 11/09 A3006 950 89 700 000/00 RMK AO2 TSNO
94908KDBQ DBQ20080617005011906/17/08 00:50:31  5-MIN KDBQ 170650Z AUTO 00000KT 10SM CLR 12/09 A3006 950 86 800 000/00 RMK AO2 SLP178 T01170094 TSNO
94908KDBQ DBQ20080617005510206/17/08 00:55:31  5-MIN KDBQ 170655Z AUTO 00000KT 10SM CLR 11/09 A3006 950 86 700 000/00 RMK AO2 TSNO
94908KDBQ DBQ20080617010010206/17/08 01:00:31  5-MIN KDBQ 170700Z AUTO 22003KT 10SM CLR 11/09 A3006 950 89 700 220/03 RMK AO2 TSNO
94908KDBQ DBQ20080617010510206/17/08 01:05:31  5-MIN KDBQ 170705Z AUTO 00000KT 10SM CLR 11/09 A3006 950 89 700 000/00 RMK AO2 TSNO
94908KDBQ DBQ20080617011010206/17/08 01:10:31  5-MIN KDBQ 170710Z AUTO 00000KT 10SM CLR 11/09 A3006 950 89 700 000/00 RMK AO2 TSNO
94908KDBQ DBQ20080617011510206/17/08 01:15:31  5-MIN KDBQ 170715Z AUTO 00000KT 10SM CLR 11/09 A3006 950 89 700 000/00 RMK AO2 TSNO
94908KDBQ DBQ20080617012010206/17/08 01:20:31  5-MIN KDBQ 170720Z AUTO 00000KT 10SM CLR 11/09 A3006 950 89 700 000/00 RMK AO2 TSNO
94908KDBQ DBQ20080617012510206/17/08 01:25:31  5-MIN KDBQ 170725Z AUTO 00000KT 10SM CLR 11/09 A3006 950 89 700 000/00 RMK AO2 TSNO
94908KDBQ DBQ20080617013010206/17/08 01:30:31  5-MIN KDBQ 170730Z AUTO 00000KT 10SM CLR 11/09 A3006 950 89 700 000/00 RMK AO2 TSNO
94908KDBQ DBQ20080617013510206/17/08 01:35:31  5-MIN KDBQ 170735Z AUTO 00000KT 10SM CLR 11/09 A3006 950 89 700 000/00 RMK AO2 TSNO
94908KDBQ DBQ20080617014010206/17/08 01:40:31  5-MIN KDBQ 170740Z AUTO 00000KT 10SM CLR 11/09 A3007 940 89 700 000/00 RMK AO2 TSNO
94908KDBQ DBQ20080617014510206/17/08 01:45:31  5-MIN KDBQ 170745Z AUTO 00000KT 10SM CLR 11/09 A3007 940 89 700 000/00 RMK AO2 TSNO
94908KDBQ DBQ20080617015011906/17/08 01:50:31  5-MIN KDBQ 170750Z AUTO 00000KT 10SM CLR 11/09 A3007 940 86 700 000/00 RMK AO2 SLP181 T01110089 TSNO
94908KDBQ DBQ20080617015510206/17/08 01:55:31  5-MIN KDBQ 170755Z AUTO 00000KT 10SM CLR 11/09 A3006 950 86 700 000/00 RMK AO2 TSNO
94908KDBQ DBQ20080617020010206/17/08 02:00:31  5-MIN KDBQ 170800Z AUTO 00000KT 10SM CLR 11/08 A3007 940 86 700 000/00 RMK AO2 TSNO
94908KDBQ DBQ20080617020510206/17/08 02:05:31  5-MIN KDBQ 170805Z AUTO 00000KT 10SM CLR 11/08 A3007 940 86 700 000/00 RMK AO2 TSNO
94908KDBQ DBQ20080617021010206/17/08 02:10:31  5-MIN KDBQ 170810Z AUTO 00000KT 10SM CLR 11/08 A3007 940 83 700 000/00 RMK AO2 TSNO
94908KDBQ DBQ20080617021510206/17/08 02:15:31  5-MIN KDBQ 170815Z AUTO 00000KT 10SM CLR 11/09 A3007 940 86 700 000/00 RMK AO2 TSNO
94908KDBQ DBQ20080617022010206/17/08 02:20:31  5-MIN KDBQ 170820Z AUTO 00000KT 10SM CLR 11/09 A3007 940 86 700 000/00 RMK AO2 TSNO
94908KDBQ DBQ20080617022510206/17/08 02:25:31  5-MIN KDBQ 170825Z AUTO 00000KT 10SM CLR 11/09 A3007 940 86 700 000/00 RMK AO2 TSNO
94908KDBQ DBQ20080617023010206/17/08 02:30:31  5-MIN KDBQ 170830Z AUTO 00000KT 10SM CLR 11/08 A3007 940 86 700 000/00 RMK AO2 TSNO
94908KDBQ DBQ20080617023510206/17/08 02:35:31  5-MIN KDBQ 170835Z AUTO 00000KT 10SM CLR 11/08 A3007 940 86 700 000/00 RMK AO2 TSNO
94908KDBQ DBQ20080617024010206/17/08 02:40:31  5-MIN KDBQ 170840Z AUTO 00000KT 10SM CLR 11/08 A3007 940 86 700 000/00 RMK AO2 TSNO
94908KDBQ DBQ20080617024510206/17/08 02:45:31  5-MIN KDBQ 170845Z AUTO 00000KT 10SM CLR 11/08 A3007 940 86 700 000/00 RMK AO2 TSNO
94908KDBQ DBQ20080617025012506/17/08 02:50:31  5-MIN KDBQ 170850Z AUTO 00000KT 10SM CLR 11/08 A3007 940 83 700 000/00 RMK AO2 SLP181 T01110083 50003 TSNO
94908KDBQ DBQ20080617025510206/17/08 02:55:31  5-MIN KDBQ 170855Z AUTO 30003KT 10SM CLR 11/08 A3007 940 83 700 300/03 RMK AO2 TSNO
94908KDBQ DBQ20080617030010206/17/08 03:00:31  5-MIN KDBQ 170900Z AUTO 30004KT 10SM CLR 12/08 A3007 940 80 800 300/04 RMK AO2 TSNO
94908KDBQ DBQ20080617030510206/17/08 03:05:31  5-MIN KDBQ 170905Z AUTO 30004KT 10SM CLR 12/08 A3007 940 80 800 300/04 RMK AO2 TSNO
94908KDBQ DBQ20080617031010206/17/08 03:10:31  5-MIN KDBQ 170910Z AUTO 30006KT 10SM CLR 12/08 A3007 940 80 800 300/06 RMK AO2 TSNO
94908KDBQ DBQ20080617031510206/17/08 03:15:31  5-MIN KDBQ 170915Z AUTO 30007KT 10SM CLR 11/08 A3007 940 83 700 300/07 RMK AO2 TSNO
94908KDBQ DBQ20080617032010206/17/08 03:20:31  5-MIN KDBQ 170920Z AUTO 31007KT 10SM CLR 11/08 A3007 940 83 700 310/07 RMK AO2 TSNO
94908KDBQ DBQ20080617032510206/17/08 03:25:31  5-MIN KDBQ 170925Z AUTO 31006KT 10SM CLR 11/08 A3007 940 83 700 310/06 RMK AO2 TSNO
94908KDBQ DBQ20080617033010206/17/08 03:30:31  5-MIN KDBQ 170930Z AUTO 31006KT 10SM CLR 11/08 A3007 940 83 700 310/06 RMK AO2 TSNO
94908KDBQ DBQ20080617033510206/17/08 03:35:31  5-MIN KDBQ 170935Z AUTO 30007KT 10SM CLR 12/08 A3007 940 80 800 300/07 RMK AO2 TSNO
94908KDBQ DBQ20080617034010206/17/08 03:40:31  5-MIN KDBQ 170940Z AUTO 30006KT 10SM CLR 11/08 A3007 940 83 700 300/06 RMK AO2 TSNO
94908KDBQ DBQ20080617034510206/17/08 03:45:31  5-MIN KDBQ 170945Z AUTO 29006KT 10SM CLR 12/08 A3007 940 80 800 290/06 RMK AO2 TSNO
94908KDBQ DBQ20080617035011906/17/08 03:50:31  5-MIN KDBQ 170950Z AUTO 29006KT 10SM CLR 12/08 A3007 940 80 800 290/06 RMK AO2 SLP181 T01170083 TSNO
94908KDBQ DBQ20080617035510206/17/08 03:55:31  5-MIN KDBQ 170955Z AUTO 29006KT 10SM CLR 12/08 A3007 940 80 800 290/06 RMK AO2 TSNO
94908KDBQ DBQ20080617040010206/17/08 04:00:31  5-MIN KDBQ 171000Z AUTO 29006KT 10SM CLR 11/08 A3007 940 83 700 290/06 RMK AO2 TSNO
94908KDBQ DBQ20080617040510206/17/08 04:05:31  5-MIN KDBQ 171005Z AUTO 30007KT 10SM CLR 12/08 A3007 940 80 800 300/07 RMK AO2 TSNO
94908KDBQ DBQ20080617041010206/17/08 04:10:31  5-MIN KDBQ 171010Z AUTO 30007KT 10SM CLR 12/08 A3007 940 80 800 290/07 RMK AO2 TSNO
94908KDBQ DBQ20080617041510206/17/08 04:15:31  5-MIN KDBQ 171015Z AUTO 30006KT 10SM CLR 11/08 A3007 940 83 700 300/06 RMK AO2 TSNO
94908KDBQ DBQ20080617042010206/17/08 04:20:31  5-MIN KDBQ 171020Z AUTO 30006KT 10SM CLR 12/08 A3008 930 80 800 300/06 RMK AO2 TSNO
94908KDBQ DBQ20080617042510206/17/08 04:25:31  5-MIN KDBQ 171025Z AUTO 30007KT 10SM CLR 12/08 A3008 930 80 800 300/07 RMK AO2 TSNO
94908KDBQ DBQ20080617043010206/17/08 04:30:31  5-MIN KDBQ 171030Z AUTO 30006KT 10SM CLR 11/08 A3008 930 83 700 300/06 RMK AO2 TSNO
94908KDBQ DBQ20080617043510206/17/08 04:35:31  5-MIN KDBQ 171035Z AUTO 30006KT 10SM CLR 11/08 A3008 930 83 700 300/06 RMK AO2 TSNO
94908KDBQ DBQ20080617044009206/17/08 04:40:31  5-MIN KDBQ 171040Z 30005KT 10SM CLR 11/08 A3008 930 83 700 300/05 RMK AO2
94908KDBQ DBQ20080617044509206/17/08 04:45:31  5-MIN KDBQ 171045Z 30005KT 10SM CLR 11/08 A3008 930 83 700 300/05 RMK AO2
94908KDBQ DBQ20080617045010906/17/08 04:50:31  5-MIN KDBQ 171050Z 30005KT 10SM CLR 11/08 A3008 930 83 700 300/05 RMK AO2 SLP186 T01110083
94908KDBQ DBQ20080617045509206/17/08 04:55:31  5-MIN KDBQ 171055Z 29005KT 10SM CLR 11/08 A3008 930 83 700 290/05 RMK AO2
94908KDBQ DBQ20080617050009206/17/08 05:00:31  5-MIN KDBQ 171100Z 30005KT 10SM CLR 12/08 A3008 930 80 800 290/05 RMK AO2
94908KDBQ DBQ20080617050509206/17/08 05:05:31  5-MIN KDBQ 171105Z 29005KT 10SM CLR 12/08 A3008 930 80 800 290/05 RMK AO2
94908KDBQ DBQ20080617051009206/17/08 05:10:31  5-MIN KDBQ 171110Z 27003KT 10SM CLR 12/08 A3008 930 80 800 270/03 RMK AO2
94908KDBQ DBQ20080617051509206/17/08 05:15:31  5-MIN KDBQ 171115Z 23004KT 10SM CLR 11/09 A3009 930 89 700 230/04 RMK AO2
94908KDBQ DBQ20080617052009206/17/08 05:20:31  5-MIN KDBQ 171120Z 23004KT 10SM CLR 11/09 A3009 930 89 700 230/04 RMK AO2
94908KDBQ DBQ20080617052509206/17/08 05:25:31  5-MIN KDBQ 171125Z 23004KT 10SM CLR 11/09 A3009 930 86 700 230/04 RMK AO2
94908KDBQ DBQ20080617053009206/17/08 05:30:31  5-MIN KDBQ 171130Z 00000KT 10SM CLR 11/09 A3009 930 86 700 000/00 RMK AO2
94908KDBQ DBQ20080617053509206/17/08 05:35:31  5-MIN KDBQ 171135Z 00000KT 10SM CLR 12/09 A3009 920 86 800 000/00 RMK AO2
94908KDBQ DBQ20080617054009206/17/08 05:40:31  5-MIN KDBQ 171140Z 07004KT 10SM CLR 12/09 A3009 920 83 800 070/04 RMK AO2
94908KDBQ DBQ20080617054509206/17/08 05:45:31  5-MIN KDBQ 171145Z 00000KT 10SM CLR 12/09 A3009 920 83 800 000/00 RMK AO2
94908KDBQ DBQ20080617055012706/17/08 05:50:31  5-MIN KDBQ 171150Z 00000KT 10SM CLR 13/10 A3009 920 83 900 000/00 RMK AO2 SLP189 T01280100 10128 20106 53002
94908KDBQ DBQ20080617055509206/17/08 05:55:31  5-MIN KDBQ 171155Z 00000KT 10SM CLR 13/10 A3010 920 83 900 000/00 RMK AO2
94908KDBQ DBQ20080617060009206/17/08 06:00:31  5-MIN KDBQ 171200Z 00000KT 10SM CLR 13/10 A3010 920 83 900 000/00 RMK AO2
94908KDBQ DBQ20080617060509306/17/08 06:05:31  5-MIN KDBQ 171205Z 00000KT 10SM CLR 13/09 A3009 920 77 1000 000/00 RMK AO2
94908KDBQ DBQ20080617061009306/17/08 06:10:31  5-MIN KDBQ 171210Z 00000KT 10SM CLR 13/10 A3009 920 80 1000 000/00 RMK AO2
94908KDBQ DBQ20080617061509306/17/08 06:15:31  5-MIN KDBQ 171215Z 00000KT 10SM CLR 14/09 A3010 920 74 1000 000/00 RMK AO2
94908KDBQ DBQ20080617062009306/17/08 06:20:31  5-MIN KDBQ 171220Z 00000KT 10SM CLR 14/11 A3010 920 77 1100 000/00 RMK AO2
94908KDBQ DBQ20080617062509306/17/08 06:25:31  5-MIN KDBQ 171225Z 34004KT 10SM CLR 15/10 A3010 920 72 1200 340/04 RMK AO2
94908KDBQ DBQ20080617063009306/17/08 06:30:31  5-MIN KDBQ 171230Z 33004KT 10SM CLR 15/09 A3010 910 69 1200 330/04 RMK AO2
94908KDBQ DBQ20080617063509306/17/08 06:35:31  5-MIN KDBQ 171235Z 33006KT 10SM CLR 15/09 A3010 910 69 1200 330/06 RMK AO2
94908KDBQ DBQ20080617064009306/17/08 06:40:31  5-MIN KDBQ 171240Z 33007KT 10SM CLR 15/09 A3010 910 66 1200 330/07 RMK AO2
94908KDBQ DBQ20080617064509306/17/08 06:45:31  5-MIN KDBQ 171245Z 33006KT 10SM CLR 16/09 A3010 910 64 1200 330/06 RMK AO2
94908KDBQ DBQ20080617065011006/17/08 06:50:31  5-MIN KDBQ 171250Z 33006KT 10SM CLR 16/09 A3010 910 67 1200 330/06 RMK AO2 SLP192 T01560094
94908KDBQ DBQ20080617065509306/17/08 06:55:31  5-MIN KDBQ 171255Z 33006KT 10SM CLR 16/09 A3010 910 67 1200 330/06 RMK AO2
94908KDBQ DBQ20080617070009306/17/08 07:00:31  5-MIN KDBQ 171300Z 33008KT 10SM CLR 16/09 A3010 910 64 1300 330/08 RMK AO2
94908KDBQ DBQ20080617070509306/17/08 07:05:31  5-MIN KDBQ 171305Z 33006KT 10SM CLR 16/09 A3010 910 64 1300 330/06 RMK AO2
94908KDBQ DBQ20080617071009306/17/08 07:10:31  5-MIN KDBQ 171310Z 33007KT 10SM CLR 16/09 A3010 910 64 1300 330/07 RMK AO2
94908KDBQ DBQ20080617071509306/17/08 07:15:31  5-MIN KDBQ 171315Z 34007KT 10SM CLR 17/09 A3010 910 62 1400 340/07 RMK AO2
94908KDBQ DBQ20080617072009306/17/08 07:20:31  5-MIN KDBQ 171320Z 33007KT 10SM CLR 17/09 A3010 910 62 1400 330/07 RMK AO2
94908KDBQ DBQ20080617072509306/17/08 07:25:31  5-MIN KDBQ 171325Z 34008KT 10SM CLR 17/09 A3010 910 62 1400 330/08 RMK AO2
94908KDBQ DBQ20080617073009306/17/08 07:30:31  5-MIN KDBQ 171330Z 33007KT 10SM CLR 17/09 A3011 910 60 1400 320/07 RMK AO2
94908KDBQ DBQ20080617073509306/17/08 07:35:31  5-MIN KDBQ 171335Z 34006KT 10SM CLR 17/09 A3011 910 57 1400 340/06 RMK AO2
94908KDBQ DBQ20080617074009306/17/08 07:40:31  5-MIN KDBQ 171340Z 34007KT 10SM CLR 17/09 A3011 910 60 1400 340/07 RMK AO2
94908KDBQ DBQ20080617074509306/17/08 07:45:31  5-MIN KDBQ 171345Z 32006KT 10SM CLR 18/09 A3010 910 55 1500 320/06 RMK AO2
94908KDBQ DBQ20080617075011006/17/08 07:50:31  5-MIN KDBQ 171350Z 34004KT 10SM CLR 18/09 A3010 910 58 1500 340/04 RMK AO2 SLP192 T01780094
94908KDBQ DBQ20080617075509306/17/08 07:55:31  5-MIN KDBQ 171355Z 34006KT 10SM CLR 18/09 A3010 910 55 1500 340/06 RMK AO2
94908KDBQ DBQ20080617080009306/17/08 08:00:31  5-MIN KDBQ 171400Z 32006KT 10SM CLR 18/09 A3010 910 55 1500 320/06 RMK AO2
94908KDBQ DBQ20080617080509306/17/08 08:05:31  5-MIN KDBQ 171405Z 33006KT 10SM CLR 18/09 A3010 910 56 1600 330/06 RMK AO2
94908KDBQ DBQ20080617081009306/17/08 08:10:31  5-MIN KDBQ 171410Z 34006KT 10SM CLR 18/08 A3011 910 53 1500 340/06 RMK AO2
94908KDBQ DBQ20080617081509306/17/08 08:15:31  5-MIN KDBQ 171415Z 33005KT 10SM CLR 18/09 A3011 910 54 1500 330/05 RMK AO2
94908KDBQ DBQ20080617082009306/17/08 08:20:31  5-MIN KDBQ 171420Z 33006KT 10SM CLR 18/09 A3011 900 54 1500 330/06 RMK AO2
94908KDBQ DBQ20080617082509306/17/08 08:25:31  5-MIN KDBQ 171425Z 34005KT 10SM CLR 18/09 A3010 910 54 1500 340/05 RMK AO2
94908KDBQ DBQ20080617083009306/17/08 08:30:31  5-MIN KDBQ 171430Z 32006KT 10SM CLR 19/09 A3011 910 54 1600 320/06 RMK AO2
94908KDBQ DBQ20080617083509306/17/08 08:35:31  5-MIN KDBQ 171435Z 32005KT 10SM CLR 19/08 A3011 910 50 1600 320/05 RMK AO2
94908KDBQ DBQ20080617084009306/17/08 08:40:31  5-MIN KDBQ 171440Z 32006KT 10SM CLR 19/09 A3010 910 52 1700 320/06 RMK AO2
94908KDBQ DBQ20080617084509306/17/08 08:45:31  5-MIN KDBQ 171445Z 32007KT 10SM CLR 19/09 A3011 910 50 1700 320/07 RMK AO2
94908KDBQ DBQ20080617085011606/17/08 08:50:31  5-MIN KDBQ 171450Z 31005KT 10SM CLR 19/09 A3011 910 52 1700 310/05 RMK AO2 SLP193 T01940094 53008
94908KDBQ DBQ20080617085509306/17/08 08:55:31  5-MIN KDBQ 171455Z 31007KT 10SM CLR 19/08 A3011 910 48 1700 310/07 RMK AO2
94908KDBQ DBQ20080617090009306/17/08 09:00:31  5-MIN KDBQ 171500Z 31008KT 10SM CLR 20/09 A3010 910 48 1700 310/08 RMK AO2
94908KDBQ DBQ20080617090509306/17/08 09:05:31  5-MIN KDBQ 171505Z 30008KT 10SM CLR 19/08 A3010 910 48 1700 300/08 RMK AO2
94908KDBQ DBQ20080617091009306/17/08 09:10:31  5-MIN KDBQ 171510Z 30011KT 10SM CLR 20/08 A3010 910 46 1700 300/11 RMK AO2
94908KDBQ DBQ20080617091509306/17/08 09:15:31  5-MIN KDBQ 171515Z 31007KT 10SM CLR 20/08 A3010 910 46 1700 310/07 RMK AO2
94908KDBQ DBQ20080617092009306/17/08 09:20:31  5-MIN KDBQ 171520Z 34008KT 10SM CLR 20/08 A3010 910 46 1700 340/08 RMK AO2
94908KDBQ DBQ20080617092509306/17/08 09:25:31  5-MIN KDBQ 171525Z 33008KT 10SM CLR 21/08 A3010 910 45 1800 320/08 RMK AO2
94908KDBQ DBQ20080617093009306/17/08 09:30:31  5-MIN KDBQ 171530Z 30011KT 10SM CLR 21/08 A3009 920 43 1800 300/11 RMK AO2
94908KDBQ DBQ20080617093509306/17/08 09:35:31  5-MIN KDBQ 171535Z 31011KT 10SM CLR 21/08 A3009 920 43 1800 310/11 RMK AO2
94908KDBQ DBQ20080617094009306/17/08 09:40:31  5-MIN KDBQ 171540Z 32009KT 10SM CLR 21/08 A3009 920 43 1800 320/09 RMK AO2
94908KDBQ DBQ20080617094509906/17/08 09:45:31  5-MIN KDBQ 171545Z 32009G16KT 10SM CLR 21/08 A3009 920 45 1800 320/09G16 RMK AO2
94908KDBQ DBQ20080617095011606/17/08 09:50:31  5-MIN KDBQ 171550Z 34010G16KT 10SM CLR 21/08 A3009 920 43 1900 340/10G16 RMK AO2 SLP189 T02110083
94908KDBQ DBQ20080617095509906/17/08 09:55:31  5-MIN KDBQ 171555Z 34010G16KT 10SM CLR 21/08 A3009 920 43 1900 340/10G16 RMK AO2
94908KDBQ DBQ20080617100009906/17/08 10:00:31  5-MIN KDBQ 171600Z 32011G16KT 10SM CLR 21/08 A3009 920 43 1900 310/11G16 RMK AO2
94908KDBQ DBQ20080617100509906/17/08 10:05:31  5-MIN KDBQ 171605Z 33012G18KT 10SM CLR 21/08 A3009 920 42 1900 330/12G18 RMK AO2
94908KDBQ DBQ20080617101009906/17/08 10:10:31  5-MIN KDBQ 171610Z 34012G18KT 10SM CLR 21/08 A3009 920 43 1900 340/12G18 RMK AO2
94908KDBQ DBQ20080617101509306/17/08 10:15:31  5-MIN KDBQ 171615Z 36014KT 10SM CLR 21/08 A3009 920 42 1900 360/14 RMK AO2
94908KDBQ DBQ20080617102009306/17/08 10:20:31  5-MIN KDBQ 171620Z 33014KT 10SM CLR 21/08 A3009 920 42 1900 330/14 RMK AO2
94908KDBQ DBQ20080617102509906/17/08 10:25:31  5-MIN KDBQ 171625Z 36010G18KT 10SM CLR 21/08 A3009 920 42 1900 360/10G18 RMK AO2
94908KDBQ DBQ20080617103009906/17/08 10:30:31  5-MIN KDBQ 171630Z 34013G21KT 10SM CLR 21/08 A3009 920 42 1900 340/13G21 RMK AO2
94908KDBQ DBQ20080617103509906/17/08 10:35:31  5-MIN KDBQ 171635Z 34014G21KT 10SM CLR 21/07 A3010 910 40 1900 340/14G21 RMK AO2
94908KDBQ DBQ20080617104009906/17/08 10:40:31  5-MIN KDBQ 171640Z 32015G18KT 10SM CLR 21/08 A3010 910 42 1900 320/15G18 RMK AO2
94908KDBQ DBQ20080617104509906/17/08 10:45:31  5-MIN KDBQ 171645Z 33013G18KT 10SM CLR 21/07 A3010 910 40 1900 330/13G18 RMK AO2
94908KDBQ DBQ20080617105011606/17/08 10:50:31  5-MIN KDBQ 171650Z 34015G21KT 10SM CLR 22/07 A3010 920 39 1900 340/15G21 RMK AO2 SLP190 T02170072
94908KDBQ DBQ20080617105509906/17/08 10:55:31  5-MIN KDBQ 171655Z 34010G22KT 10SM CLR 21/07 A3009 920 40 1900 340/10G22 RMK AO2
94908KDBQ DBQ20080617110009906/17/08 11:00:31  5-MIN KDBQ 171700Z 32011G22KT 10SM CLR 22/08 A3009 920 40 1900 320/11G22 RMK AO2
94908KDBQ DBQ20080617110509906/17/08 11:05:31  5-MIN KDBQ 171705Z 31010G16KT 10SM CLR 22/08 A3008 930 42 2000 310/10G16 RMK AO2
94908KDBQ DBQ20080617111009906/17/08 11:10:31  5-MIN KDBQ 171710Z 31011G16KT 10SM CLR 22/08 A3008 930 40 2000 310/11G16 RMK AO2
94908KDBQ DBQ20080617111509306/17/08 11:15:31  5-MIN KDBQ 171715Z 31011KT 10SM CLR 22/08 A3008 930 42 2000 310/11 RMK AO2
94908KDBQ DBQ20080617112009906/17/08 11:20:31  5-MIN KDBQ 171720Z 31006G16KT 10SM CLR 22/09 A3008 930 43 2000 310/06G16 RMK AO2
94908KDBQ DBQ20080617112509906/17/08 11:25:31  5-MIN KDBQ 171725Z 32014G20KT 10SM CLR 22/09 A3008 930 42 2000 320/14G20 RMK AO2
94908KDBQ DBQ20080617113011506/17/08 11:30:31  5-MIN KDBQ 171730Z 33009G20KT 280V360 10SM CLR 22/08 A3008 930 40 2000 330/09G20 280V360 RMK AO2
94908KDBQ DBQ20080617113509306/17/08 11:35:31  5-MIN KDBQ 171735Z 35010KT 10SM CLR 22/09 A3008 930 42 2000 350/10 RMK AO2
94908KDBQ DBQ20080617114009306/17/08 11:40:31  5-MIN KDBQ 171740Z 34009KT 10SM CLR 22/09 A3008 930 43 2000 340/09 RMK AO2
94908KDBQ DBQ20080617114509606/17/08 11:45:31  5-MIN KDBQ 171745Z 30006KT 10SM FEW060 22/09 A3008 930 45 2000 300/06 RMK AO2
94908KDBQ DBQ20080617115013706/17/08 11:50:31  5-MIN KDBQ 171750Z 27011G14KT 10SM FEW060 22/09 A3008 930 43 2000 270/11G14 RMK AO2 SLP184 T02220094 10222 20128 51004
94908KDBQ DBQ20080617115510206/17/08 11:55:31  5-MIN KDBQ 171755Z 34007G14KT 10SM FEW060 22/08 A3008 930 40 2000 340/07G14 RMK AO2
94908KDBQ DBQ20080617120009606/17/08 12:00:31  5-MIN KDBQ 171800Z VRB06KT 10SM FEW060 22/09 A3008 930 42 2000 VRB/06 RMK AO2
94908KDBQ DBQ20080617120510206/17/08 12:05:31  5-MIN KDBQ 171805Z 32007G21KT 10SM SCT060 22/09 A3008 930 42 2000 320/07G21 RMK AO2
94908KDBQ DBQ20080617121010206/17/08 12:10:31  5-MIN KDBQ 171810Z 30011G21KT 10SM SCT060 22/09 A3008 930 42 2000 300/11G21 RMK AO2
94908KDBQ DBQ20080617121510206/17/08 12:15:31  5-MIN KDBQ 171815Z 29007G18KT 10SM FEW060 22/08 A3008 930 39 2000 290/07G18 RMK AO2
94908KDBQ DBQ20080617122009606/17/08 12:20:31  5-MIN KDBQ 171820Z 32011KT 10SM FEW060 23/08 A3008 930 39 2100 310/11 RMK AO2
94908KDBQ DBQ20080617122510206/17/08 12:25:31  5-MIN KDBQ 171825Z 28013G19KT 10SM FEW060 23/09 A3008 930 40 2100 280/13G19 RMK AO2
94908KDBQ DBQ20080617123010206/17/08 12:30:31  5-MIN KDBQ 171830Z 30011G19KT 10SM FEW060 23/09 A3008 940 40 2100 300/11G19 RMK AO2
94908KDBQ DBQ20080617123510206/17/08 12:35:31  5-MIN KDBQ 171835Z 30011G17KT 10SM FEW065 22/09 A3008 930 42 2000 300/11G17 RMK AO2
94908KDBQ DBQ20080617124010206/17/08 12:40:31  5-MIN KDBQ 171840Z 30011G17KT 10SM SCT065 23/09 A3007 940 40 2100 300/11G17 RMK AO2
94908KDBQ DBQ20080617124510206/17/08 12:45:31  5-MIN KDBQ 171845Z 31012G20KT 10SM SCT065 22/08 A3007 940 39 2000 310/12G20 RMK AO2
94908KDBQ DBQ20080617125011906/17/08 12:50:31  5-MIN KDBQ 171850Z 31011G20KT 10SM SCT065 23/08 A3007 940 39 2100 310/11G20 RMK AO2 SLP182 T02280083
94908KDBQ DBQ20080617125509606/17/08 12:55:31  5-MIN KDBQ 171855Z 31009KT 10SM FEW065 22/08 A3007 940 40 2000 310/09 RMK AO2
94908KDBQ DBQ20080617130010206/17/08 13:00:31  5-MIN KDBQ 171900Z 27013G17KT 10SM FEW065 23/09 A3007 940 40 2100 270/13G17 RMK AO2
94908KDBQ DBQ20080617130510206/17/08 13:05:31  5-MIN KDBQ 171905Z 31011G16KT 10SM FEW065 23/08 A3007 940 39 2100 310/11G16 RMK AO2
94908KDBQ DBQ20080617131009606/17/08 13:10:31  5-MIN KDBQ 171910Z 29010KT 10SM FEW065 23/09 A3007 940 40 2100 290/10 RMK AO2
94908KDBQ DBQ20080617131509906/17/08 13:15:31  5-MIN KDBQ 171915Z 27016G20KT 10SM CLR 23/08 A3006 950 39 2100 270/16G20 RMK AO2
94908KDBQ DBQ20080617132009906/17/08 13:20:31  5-MIN KDBQ 171920Z 28010G20KT 10SM CLR 23/09 A3006 950 40 2100 280/10G20 RMK AO2
94908KDBQ DBQ20080617132509906/17/08 13:25:31  5-MIN KDBQ 171925Z 29014G19KT 10SM CLR 23/08 A3006 950 39 2100 290/14G19 RMK AO2
94908KDBQ DBQ20080617133009906/17/08 13:30:31  5-MIN KDBQ 171930Z 31010G19KT 10SM CLR 23/08 A3006 950 37 2100 310/10G19 RMK AO2
94908KDBQ DBQ20080617133509306/17/08 13:35:31  5-MIN KDBQ 171935Z 29010KT 10SM CLR 23/08 A3006 950 39 2100 290/10 RMK AO2
94908KDBQ DBQ20080617134010106/17/08 13:40:31  5-MIN KDBQ 171940Z AUTO 30009KT 10SM FEW070 23/09 A3006 950 40 2100 300/09 RMK AO2
94908KDBQ DBQ20080617134511206/17/08 13:45:31  5-MIN KDBQ 171945Z AUTO 31012G16KT 10SM FEW070 23/08 A3006 950 36 2200 310/12G16 RMK AO2 TSNO
94908KDBQ DBQ20080617135012606/17/08 13:50:31  5-MIN KDBQ 171950Z AUTO 30010G16KT 10SM CLR 23/08 A3006 950 38 2200 300/10G16 RMK AO2 SLP177 T02330083 TSNO
94908KDBQ DBQ20080617135511806/17/08 13:55:31  5-MIN KDBQ 171955Z 31013G20KT 270V340 10SM FEW070 23/08 A3006 950 36 2200 310/13G20 270V340 RMK AO2
94908KDBQ DBQ20080617140010206/17/08 14:00:31  5-MIN KDBQ 172000Z 31010G20KT 10SM FEW070 23/08 A3006 950 37 2100 310/10G20 RMK AO2
94908KDBQ DBQ20080617140510206/17/08 14:05:31  5-MIN KDBQ 172005Z 28009G19KT 10SM FEW070 23/08 A3006 950 36 2200 280/09G19 RMK AO2
94908KDBQ DBQ20080617141010206/17/08 14:10:31  5-MIN KDBQ 172010Z 30014G20KT 10SM FEW070 23/08 A3006 950 36 2200 300/14G20 RMK AO2
94908KDBQ DBQ20080617141510206/17/08 14:15:31  5-MIN KDBQ 172015Z 31011G20KT 10SM FEW070 23/08 A3005 960 36 2200 310/11G20 RMK AO2
94908KDBQ DBQ20080617142010206/17/08 14:20:31  5-MIN KDBQ 172020Z 29011G17KT 10SM FEW070 23/08 A3005 960 36 2200 290/11G17 RMK AO2
94908KDBQ DBQ20080617142510206/17/08 14:25:31  5-MIN KDBQ 172025Z 30015G20KT 10SM FEW070 23/07 A3005 960 35 2200 300/15G20 RMK AO2
94908KDBQ DBQ20080617143009906/17/08 14:30:31  5-MIN KDBQ 172030Z 31015G20KT 10SM CLR 23/07 A3005 960 35 2200 310/15G20 RMK AO2
94908KDBQ DBQ20080617143508606/17/08 14:35:31  5-MIN KDBQ 172035Z 31012KT 23/08 A3005 960 36 2200 300/12 RMK AO2 $
94908KDBQ DBQ20080617144008606/17/08 14:40:31  5-MIN KDBQ 172040Z 32012KT 23/08 A3005 960 36 2200 320/12 RMK AO2 $
94908KDBQ DBQ20080617144510106/17/08 14:45:31  5-MIN KDBQ 172045Z 33011G18KT 10SM CLR 23/08 A3004 960 36 2200 320/11G18 RMK AO2 $
94908KDBQ DBQ20080617145011206/17/08 14:50:31  5-MIN KDBQ 172050Z 31012KT 10SM CLR 24/08 A3004 970 35 2300 310/12 RMK AO2 SLP170 T02390078 $
94908KDBQ DBQ20080617145509706/17/08 14:55:31  5-MIN KDBQ 172055Z 32011G19KT 10SM 24/08 A3004 970 35 2300 320/11G19 RMK AO2 $
94908KDBQ DBQ20080617150009706/17/08 15:00:31  5-MIN KDBQ 172100Z 31011G19KT 10SM 23/08 A3004 970 36 2200 310/11G19 RMK AO2 $
94908KDBQ DBQ20080617150509106/17/08 15:05:31  5-MIN KDBQ 172105Z 30012KT 10SM 23/07 A3004 970 35 2200 300/12 RMK AO2 $
94908KDBQ DBQ20080617151009806/17/08 15:10:31  5-MIN KDBQ 172110Z 30011KT 10SM SCT080 23/08 A3004 970 36 2200 300/11 RMK AO2 $
94908KDBQ DBQ20080617151510406/17/08 15:15:31  5-MIN KDBQ 172115Z 29012G18KT 10SM FEW080 24/08 A3004 970 36 2300 290/12G18 RMK AO2 $
94908KDBQ DBQ20080617152010406/17/08 15:20:31  5-MIN KDBQ 172120Z 31010G18KT 10SM SCT080 24/08 A3003 970 35 2300 310/10G18 RMK AO2 $
94908KDBQ DBQ20080617152510406/17/08 15:25:31  5-MIN KDBQ 172125Z 30014G19KT 10SM SCT080 24/08 A3003 970 36 2300 300/14G19 RMK AO2 $
94908KDBQ DBQ20080617153010406/17/08 15:30:31  5-MIN KDBQ 172130Z 31011G19KT 10SM SCT080 23/07 A3003 970 35 2200 310/11G19 RMK AO2 $
94908KDBQ DBQ20080617153509806/17/08 15:35:31  5-MIN KDBQ 172135Z 32010KT 10SM FEW075 24/08 A3003 980 35 2300 320/10 RMK AO2 $
94908KDBQ DBQ20080617154010406/17/08 15:40:31  5-MIN KDBQ 172140Z 31011G17KT 10SM FEW075 23/08 A3003 980 36 2200 310/11G17 RMK AO2 $
94908KDBQ DBQ20080617154509806/17/08 15:45:31  5-MIN KDBQ 172145Z 31013KT 10SM FEW075 23/08 A3003 980 36 2200 310/13 RMK AO2 $
94908KDBQ DBQ20080617155011506/17/08 15:50:31  5-MIN KDBQ 172150Z 33012KT 10SM FEW080 23/08 A3003 980 36 2200 330/12 RMK AO2 SLP166 T02330078 $
94908KDBQ DBQ20080617155509806/17/08 15:55:31  5-MIN KDBQ 172155Z 32010KT 10SM FEW080 23/08 A3003 980 36 2200 320/10 RMK AO2 $
94908KDBQ DBQ20080617160009806/17/08 16:00:31  5-MIN KDBQ 172200Z 33011KT 10SM FEW080 23/08 A3002 980 36 2200 330/11 RMK AO2 $
94908KDBQ DBQ20080617160509806/17/08 16:05:31  5-MIN KDBQ 172205Z 31007KT 10SM SCT080 24/08 A3002 980 36 2300 310/07 RMK AO2 $
94908KDBQ DBQ20080617161010406/17/08 16:10:31  5-MIN KDBQ 172210Z 30018G23KT 10SM BKN075 24/08 A3002 990 35 2300 300/18G23 RMK AO2 $
94908KDBQ DBQ20080617161510406/17/08 16:15:31  5-MIN KDBQ 172215Z 32014G23KT 10SM SCT080 23/08 A3002 990 36 2200 320/14G23 RMK AO2 $
94908KDBQ DBQ20080617162009806/17/08 16:20:31  5-MIN KDBQ 172220Z 32013KT 10SM SCT080 23/07 A3002 990 36 2200 320/13 RMK AO2 $
94908KDBQ DBQ20080617162509806/17/08 16:25:31  5-MIN KDBQ 172225Z 33010KT 10SM SCT080 23/08 A3002 990 37 2200 320/10 RMK AO2 $
94908KDBQ DBQ20080617163009806/17/08 16:30:31  5-MIN KDBQ 172230Z 34007KT 10SM FEW080 23/08 A3001 990 38 2200 340/07 RMK AO2 $
94908KDBQ DBQ20080617165011606/17/08 16:50:31  5-MIN KDBQ 172250Z 34009KT 10SM FEW075 23/09 A3001 1000 39 2200 340/09 RMK AO2 SLP159 T02330089 $
94908KDBQ DBQ20080617165509906/17/08 16:55:31  5-MIN KDBQ 172255Z 34008KT 10SM FEW075 23/09 A3000 1000 40 2200 340/08 RMK AO2 $
94908KDBQ DBQ20080617170009906/17/08 17:00:31  5-MIN KDBQ 172300Z 34006KT 10SM FEW075 22/09 A3000 1000 43 2100 340/06 RMK AO2 $
94908KDBQ DBQ20080617170509906/17/08 17:05:31  5-MIN KDBQ 172305Z 34008KT 10SM FEW075 23/10 A3000 1000 44 2200 340/08 RMK AO2 $
94908KDBQ DBQ20080617171009906/17/08 17:10:31  5-MIN KDBQ 172310Z 34008KT 10SM FEW075 23/09 A3000 1000 39 2200 340/08 RMK AO2 $
94908KDBQ DBQ20080617171509906/17/08 17:15:31  5-MIN KDBQ 172315Z 34008KT 10SM FEW080 23/09 A3000 1000 40 2200 340/08 RMK AO2 $
94908KDBQ DBQ20080617172009906/17/08 17:20:31  5-MIN KDBQ 172320Z 33008KT 10SM FEW075 22/09 A3000 1010 42 2100 330/08 RMK AO2 $
94908KDBQ DBQ20080617172509906/17/08 17:25:31  5-MIN KDBQ 172325Z 34006KT 10SM FEW075 22/09 A3000 1010 43 2100 340/06 RMK AO2 $
94908KDBQ DBQ20080617173009906/17/08 17:30:31  5-MIN KDBQ 172330Z 32005KT 10SM FEW075 22/11 A3000 1010 49 2100 320/05 RMK AO2 $
94908KDBQ DBQ20080617173509906/17/08 17:35:31  5-MIN KDBQ 172335Z 34004KT 10SM FEW075 22/11 A3000 1010 49 2100 330/04 RMK AO2 $
94908KDBQ DBQ20080617174009906/17/08 17:40:31  5-MIN KDBQ 172340Z 34005KT 10SM FEW075 23/09 A2999 1010 42 2200 330/05 RMK AO2 $
94908KDBQ DBQ20080617174509606/17/08 17:45:31  5-MIN KDBQ 172345Z 33008KT 10SM CLR 23/09 A2999 1010 42 2200 330/08 RMK AO2 $
94908KDBQ DBQ20080617175012506/17/08 17:50:31  5-MIN KDBQ 172350Z 33006KT 10SM CLR 23/10 A2999 1010 44 2200 330/06 RMK AO2 SLP154 T02280100 10244 20217 $
94908KDBQ DBQ20080617175509606/17/08 17:55:31  5-MIN KDBQ 172355Z 32005KT 10SM CLR 23/10 A2999 1010 44 2200 320/05 RMK AO2 $
94908KDBQ DBQ20080617180009606/17/08 18:00:31  5-MIN KDBQ 180000Z 34005KT 10SM CLR 23/11 A2999 1010 45 2200 340/05 RMK AO2 $
94908KDBQ DBQ20080617180509606/17/08 18:05:31  5-MIN KDBQ 180005Z 33006KT 10SM CLR 23/09 A2999 1010 42 2200 330/06 RMK AO2 $
94908KDBQ DBQ20080617181009606/17/08 18:10:31  5-MIN KDBQ 180010Z 34004KT 10SM CLR 22/10 A2999 1010 45 2100 340/04 RMK AO2 $
94908KDBQ DBQ20080617181509606/17/08 18:15:31  5-MIN KDBQ 180015Z 34005KT 10SM CLR 22/11 A2999 1010 47 2100 330/05 RMK AO2 $
94908KDBQ DBQ20080617182009606/17/08 18:20:31  5-MIN KDBQ 180020Z 34004KT 10SM CLR 22/11 A2999 1010 49 2100 340/04 RMK AO2 $
94908KDBQ DBQ20080617182509606/17/08 18:25:31  5-MIN KDBQ 180025Z 33006KT 10SM CLR 22/11 A2999 1020 49 2100 330/06 RMK AO2 $
94908KDBQ DBQ20080617183009606/17/08 18:30:31  5-MIN KDBQ 180030Z 32004KT 10SM CLR 22/10 A2999 1020 47 2100 320/04 RMK AO2 $
94908KDBQ DBQ20080617183509606/17/08 18:35:31  5-MIN KDBQ 180035Z 32006KT 10SM CLR 22/10 A2999 1020 47 2100 320/06 RMK AO2 $
94908KDBQ DBQ20080617184009606/17/08 18:40:31  5-MIN KDBQ 180040Z 31005KT 10SM CLR 22/10 A2999 1020 47 2100 310/05 RMK AO2 $
94908KDBQ DBQ20080617184509606/17/08 18:45:31  5-MIN KDBQ 180045Z 31004KT 10SM CLR 21/11 A2998 1020 50 2000 310/04 RMK AO2 $
94908KDBQ DBQ20080617185011806/17/08 18:50:31  5-MIN KDBQ 180050Z AUTO 31004KT 10SM CLR 21/11 A2998 1020 52 2000 310/04 RMK AO2 SLP150 T02110111 $
94908KDBQ DBQ20080617185510106/17/08 18:55:31  5-MIN KDBQ 180055Z AUTO 30004KT 10SM CLR 21/11 A2998 1020 52 2000 300/04 RMK AO2 $
94908KDBQ DBQ20080617190010106/17/08 19:00:31  5-MIN KDBQ 180100Z AUTO 31004KT 10SM CLR 21/11 A2999 1020 54 1900 300/04 RMK AO2 $
94908KDBQ DBQ20080617190510106/17/08 19:05:31  5-MIN KDBQ 180105Z AUTO 31004KT 10SM CLR 20/11 A2998 1020 56 1900 310/04 RMK AO2 $
94908KDBQ DBQ20080617191010106/17/08 19:10:31  5-MIN KDBQ 180110Z AUTO 31004KT 10SM CLR 20/11 A2998 1020 56 1900 310/04 RMK AO2 $
94908KDBQ DBQ20080617191510106/17/08 19:15:31  5-MIN KDBQ 180115Z AUTO 32004KT 10SM CLR 19/11 A2999 1020 58 1800 320/04 RMK AO2 $
94908KDBQ DBQ20080617192010106/17/08 19:20:31  5-MIN KDBQ 180120Z AUTO 32004KT 10SM CLR 19/11 A2998 1020 58 1800 320/04 RMK AO2 $
94908KDBQ DBQ20080617192510106/17/08 19:25:31  5-MIN KDBQ 180125Z AUTO 32004KT 10SM CLR 19/11 A2998 1020 58 1800 320/04 RMK AO2 $
94908KDBQ DBQ20080617193010106/17/08 19:30:31  5-MIN KDBQ 180130Z AUTO 31004KT 10SM CLR 19/11 A2999 1020 58 1800 310/04 RMK AO2 $
94908KDBQ DBQ20080617193510106/17/08 19:35:31  5-MIN KDBQ 180135Z AUTO 31003KT 10SM CLR 19/11 A2998 1020 60 1800 310/03 RMK AO2 $
94908KDBQ DBQ20080617194010106/17/08 19:40:31  5-MIN KDBQ 180140Z AUTO 00000KT 10SM CLR 19/11 A2998 1020 58 1700 000/00 RMK AO2 $
94908KDBQ DBQ20080617194510106/17/08 19:45:31  5-MIN KDBQ 180145Z AUTO 30003KT 10SM CLR 19/11 A2998 1020 56 1800 300/03 RMK AO2 $
94908KDBQ DBQ20080617195011806/17/08 19:50:31  5-MIN KDBQ 180150Z AUTO 30003KT 10SM CLR 19/11 A2999 1020 58 1700 300/03 RMK AO2 SLP151 T01890106 $
94908KDBQ DBQ20080617195510106/17/08 19:55:31  5-MIN KDBQ 180155Z AUTO 30005KT 10SM CLR 18/11 A2998 1020 60 1700 300/05 RMK AO2 $
94908KDBQ DBQ20080617200010106/17/08 20:00:31  5-MIN KDBQ 180200Z AUTO 30005KT 10SM CLR 18/11 A2998 1020 60 1700 300/05 RMK AO2 $
94908KDBQ DBQ20080617200509906/17/08 20:05:31  5-MIN KDBQ 180205Z AUTO 30004KT 10SM CLR 18/11 A2998 1020 60 1700 290/04 RMK AO2
94908KDBQ DBQ20080617201009906/17/08 20:10:31  5-MIN KDBQ 180210Z AUTO 30005KT 10SM CLR 18/11 A2998 1020 62 1600 300/05 RMK AO2
94908KDBQ DBQ20080617201509906/17/08 20:15:31  5-MIN KDBQ 180215Z AUTO 30005KT 10SM CLR 17/11 A2998 1020 64 1600 300/05 RMK AO2
94908KDBQ DBQ20080617202009906/17/08 20:20:31  5-MIN KDBQ 180220Z AUTO 30005KT 10SM CLR 18/11 A2998 1020 62 1600 300/05 RMK AO2
94908KDBQ DBQ20080617202509906/17/08 20:25:31  5-MIN KDBQ 180225Z AUTO 30005KT 10SM CLR 17/11 A2999 1020 64 1600 300/05 RMK AO2
94908KDBQ DBQ20080617203009906/17/08 20:30:31  5-MIN KDBQ 180230Z AUTO 30005KT 10SM CLR 17/11 A2999 1020 64 1600 300/05 RMK AO2
94908KDBQ DBQ20080617203509906/17/08 20:35:31  5-MIN KDBQ 180235Z AUTO 30006KT 10SM CLR 17/11 A2999 1010 64 1600 300/06 RMK AO2
94908KDBQ DBQ20080617204009906/17/08 20:40:31  5-MIN KDBQ 180240Z AUTO 30006KT 10SM CLR 17/11 A2999 1020 64 1600 300/06 RMK AO2
94908KDBQ DBQ20080617204509906/17/08 20:45:31  5-MIN KDBQ 180245Z AUTO 30005KT 10SM CLR 17/11 A2999 1010 64 1600 300/05 RMK AO2
94908KDBQ DBQ20080617205012206/17/08 20:50:31  5-MIN KDBQ 180250Z AUTO 30006KT 10SM CLR 17/10 A2999 1020 64 1500 300/06 RMK AO2 SLP152 T01670100 56016
94908KDBQ DBQ20080617205509906/17/08 20:55:31  5-MIN KDBQ 180255Z AUTO 31005KT 10SM CLR 17/10 A2999 1010 62 1500 310/05 RMK AO2
94908KDBQ DBQ20080617210009906/17/08 21:00:31  5-MIN KDBQ 180300Z AUTO 31005KT 10SM CLR 17/10 A2999 1010 62 1600 310/05 RMK AO2
94908KDBQ DBQ20080617210509906/17/08 21:05:31  5-MIN KDBQ 180305Z AUTO 31005KT 10SM CLR 17/10 A2999 1020 64 1500 310/05 RMK AO2
94908KDBQ DBQ20080617211009906/17/08 21:10:31  5-MIN KDBQ 180310Z AUTO 30005KT 10SM CLR 17/10 A2999 1010 64 1500 300/05 RMK AO2
94908KDBQ DBQ20080617211509906/17/08 21:15:31  5-MIN KDBQ 180315Z AUTO 30006KT 10SM CLR 17/10 A2999 1010 64 1500 300/06 RMK AO2
94908KDBQ DBQ20080617212009906/17/08 21:20:31  5-MIN KDBQ 180320Z AUTO 30006KT 10SM CLR 17/10 A2999 1010 64 1500 300/06 RMK AO2
94908KDBQ DBQ20080617212509906/17/08 21:25:31  5-MIN KDBQ 180325Z AUTO 30006KT 10SM CLR 17/10 A2999 1010 64 1500 290/06 RMK AO2
94908KDBQ DBQ20080617213009906/17/08 21:30:31  5-MIN KDBQ 180330Z AUTO 30006KT 10SM CLR 17/10 A2999 1010 64 1500 300/06 RMK AO2
94908KDBQ DBQ20080617213509906/17/08 21:35:31  5-MIN KDBQ 180335Z AUTO 30006KT 10SM CLR 16/10 A2999 1010 67 1400 300/06 RMK AO2
94908KDBQ DBQ20080617214009906/17/08 21:40:31  5-MIN KDBQ 180340Z AUTO 31006KT 10SM CLR 17/10 A2999 1010 64 1500 310/06 RMK AO2
94908KDBQ DBQ20080617214509906/17/08 21:45:31  5-MIN KDBQ 180345Z AUTO 30006KT 10SM CLR 17/10 A2999 1010 64 1500 300/06 RMK AO2
94908KDBQ DBQ20080617215011606/17/08 21:50:31  5-MIN KDBQ 180350Z AUTO 30006KT 10SM CLR 17/10 A2999 1010 64 1500 300/06 RMK AO2 SLP153 T01670100
94908KDBQ DBQ20080617215509906/17/08 21:55:31  5-MIN KDBQ 180355Z AUTO 30006KT 10SM CLR 17/10 A2999 1010 64 1500 300/06 RMK AO2
94908KDBQ DBQ20080617220009906/17/08 22:00:31  5-MIN KDBQ 180400Z AUTO 30006KT 10SM CLR 17/10 A2999 1020 64 1500 300/06 RMK AO2
94908KDBQ DBQ20080617220509906/17/08 22:05:31  5-MIN KDBQ 180405Z AUTO 30005KT 10SM CLR 17/10 A2998 1020 64 1500 300/05 RMK AO2
94908KDBQ DBQ20080617221009906/17/08 22:10:31  5-MIN KDBQ 180410Z AUTO 29006KT 10SM CLR 16/10 A2999 1020 67 1400 290/06 RMK AO2
94908KDBQ DBQ20080617221509906/17/08 22:15:31  5-MIN KDBQ 180415Z AUTO 29005KT 10SM CLR 17/10 A2998 1020 64 1500 280/05 RMK AO2
94908KDBQ DBQ20080617222010206/17/08 22:20:31  5-MIN KDBQ 180420Z AUTO 27004KT 10SM SCT100 17/10 A2998 1020 64 1500 270/04 RMK AO2
94908KDBQ DBQ20080617222510206/17/08 22:25:31  5-MIN KDBQ 180425Z AUTO 27003KT 10SM BKN100 16/10 A2998 1020 67 1400 270/03 RMK AO2
94908KDBQ DBQ20080617223010206/17/08 22:30:31  5-MIN KDBQ 180430Z AUTO 00000KT 10SM BKN100 17/10 A2998 1020 64 1500 000/00 RMK AO2
94908KDBQ DBQ20080617223510206/17/08 22:35:31  5-MIN KDBQ 180435Z AUTO 29004KT 10SM BKN100 16/10 A2998 1020 67 1400 290/04 RMK AO2
94908KDBQ DBQ20080617224010206/17/08 22:40:31  5-MIN KDBQ 180440Z AUTO 29005KT 10SM OVC100 16/10 A2998 1020 67 1400 290/05 RMK AO2
94908KDBQ DBQ20080617224510206/17/08 22:45:31  5-MIN KDBQ 180445Z AUTO 30005KT 10SM OVC100 16/11 A2998 1020 69 1400 290/05 RMK AO2
94908KDBQ DBQ20080617225011906/17/08 22:50:31  5-MIN KDBQ 180450Z AUTO 29005KT 10SM OVC100 17/11 A2998 1020 67 1500 290/05 RMK AO2 SLP151 T01670106
94908KDBQ DBQ20080617225510206/17/08 22:55:31  5-MIN KDBQ 180455Z AUTO 29005KT 10SM BKN100 16/11 A2998 1020 69 1400 290/05 RMK AO2
94908KDBQ DBQ20080617230010206/17/08 23:00:31  5-MIN KDBQ 180500Z AUTO 29005KT 10SM BKN100 16/11 A2998 1020 69 1400 290/05 RMK AO2
94908KDBQ DBQ20080617230510206/17/08 23:05:31  5-MIN KDBQ 180505Z AUTO 30005KT 10SM BKN100 16/10 A2998 1020 67 1400 290/05 RMK AO2
94908KDBQ DBQ20080617231010206/17/08 23:10:31  5-MIN KDBQ 180510Z AUTO 30005KT 10SM BKN100 16/10 A2999 1020 67 1400 300/05 RMK AO2
94908KDBQ DBQ20080617231510206/17/08 23:15:31  5-MIN KDBQ 180515Z AUTO 30005KT 10SM SCT100 16/10 A2998 1020 67 1400 290/05 RMK AO2
94908KDBQ DBQ20080617232010206/17/08 23:20:31  5-MIN KDBQ 180520Z AUTO 29006KT 10SM SCT100 16/10 A2999 1020 69 1400 290/06 RMK AO2
94908KDBQ DBQ20080617232510206/17/08 23:25:31  5-MIN KDBQ 180525Z AUTO 29006KT 10SM FEW100 16/10 A2999 1020 69 1400 290/06 RMK AO2
94908KDBQ DBQ20080617233010206/17/08 23:30:31  5-MIN KDBQ 180530Z AUTO 29005KT 10SM FEW100 16/10 A2998 1020 69 1400 290/05 RMK AO2
94908KDBQ DBQ20080617233510206/17/08 23:35:31  5-MIN KDBQ 180535Z AUTO 29006KT 10SM FEW100 16/10 A2999 1020 69 1400 290/06 RMK AO2
94908KDBQ DBQ20080617234010206/17/08 23:40:31  5-MIN KDBQ 180540Z AUTO 29005KT 10SM FEW100 16/10 A2999 1020 69 1400 290/05 RMK AO2
94908KDBQ DBQ20080617234510206/17/08 23:45:31  5-MIN KDBQ 180545Z AUTO 28005KT 10SM FEW100 15/10 A2999 1020 72 1300 280/05 RMK AO2
94908KDBQ DBQ20080617235014406/17/08 23:50:31  5-MIN KDBQ 180550Z AUTO 28005KT 10SM CLR 15/10 A2999 1020 72 1300 280/05 RMK AO2 SLP152 T01500100 10228 20150 402440106 55002
94908KDBQ DBQ20080617235509906/17/08 23:55:31  5-MIN KDBQ 180555Z AUTO 28004KT 10SM CLR 14/10 A2998 1020 74 1200 280/04 RMK AO2
94908KDBQ DBQ20080618000009906/18/08 00:00:38  5-MIN KDBQ 180600Z AUTO 28004KT 10SM CLR 14/11 A2999 1020 77 1200 280/04 RMK AO2
94908KDBQ DBQ20080618000509906/18/08 00:05:31  5-MIN KDBQ 180605Z AUTO 28005KT 10SM CLR 15/10 A2998 1020 72 1300 280/05 RMK AO2
94908KDBQ DBQ20080618001009906/18/08 00:10:31  5-MIN KDBQ 180610Z AUTO 28004KT 10SM CLR 15/10 A2998 1020 72 1300 280/04 RMK AO2
94908KDBQ DBQ20080618001509906/18/08 00:15:32  5-MIN KDBQ 180615Z AUTO 29004KT 10SM CLR 15/10 A2998 1020 72 1300 290/04 RMK AO2
94908KDBQ DBQ20080618002009906/18/08 00:20:31  5-MIN KDBQ 180620Z AUTO 29004KT 10SM CLR 15/10 A2998 1020 72 1300 290/04 RMK AO2
94908KDBQ DBQ20080618002509906/18/08 00:25:31  5-MIN KDBQ 180625Z AUTO 27003KT 10SM CLR 15/10 A2998 1030 72 1300 270/03 RMK AO2
94908KDBQ DBQ20080618003009906/18/08 00:30:31  5-MIN KDBQ 180630Z AUTO 23003KT 10SM CLR 14/10 A2998 1020 74 1200 230/03 RMK AO2
94908KDBQ DBQ20080618003509906/18/08 00:35:31  5-MIN KDBQ 180635Z AUTO 22005KT 10SM CLR 13/11 A2998 1030 83 1100 220/05 RMK AO2
94908KDBQ DBQ20080618004009906/18/08 00:40:31  5-MIN KDBQ 180640Z AUTO 23005KT 10SM CLR 13/11 A2998 1020 86 1000 230/05 RMK AO2
94908KDBQ DBQ20080618004509906/18/08 00:45:31  5-MIN KDBQ 180645Z AUTO 22005KT 10SM CLR 13/11 A2998 1020 86 1000 220/05 RMK AO2
94908KDBQ DBQ20080618005011606/18/08 00:50:31  5-MIN KDBQ 180650Z AUTO 23004KT 10SM CLR 13/11 A2998 1020 83 1100 230/04 RMK AO2 SLP149 T01330106
94908KDBQ DBQ20080618005509906/18/08 00:55:31  5-MIN KDBQ 180655Z AUTO 24004KT 10SM CLR 13/11 A2998 1020 83 1100 230/04 RMK AO2
94908KDBQ DBQ20080618010009906/18/08 01:00:31  5-MIN KDBQ 180700Z AUTO 23003KT 10SM CLR 14/11 A2998 1020 80 1200 230/03 RMK AO2
94908KDBQ DBQ20080618010509906/18/08 01:05:31  5-MIN KDBQ 180705Z AUTO 00000KT 10SM CLR 14/11 A2998 1030 77 1200 000/00 RMK AO2
94908KDBQ DBQ20080618011010206/18/08 01:10:31  5-MIN KDBQ 180710Z AUTO 00000KT 10SM FEW100 14/11 A2998 1030 77 1200 000/00 RMK AO2
94908KDBQ DBQ20080618011510206/18/08 01:15:31  5-MIN KDBQ 180715Z AUTO 00000KT 10SM FEW100 14/11 A2998 1030 77 1200 000/00 RMK AO2
94908KDBQ DBQ20080618012009906/18/08 01:20:31  5-MIN KDBQ 180720Z AUTO 00000KT 10SM CLR 14/11 A2998 1030 77 1200 000/00 RMK AO2
94908KDBQ DBQ20080618012509906/18/08 01:25:31  5-MIN KDBQ 180725Z AUTO 00000KT 10SM CLR 14/11 A2997 1030 77 1200 000/00 RMK AO2
94908KDBQ DBQ20080618013009906/18/08 01:30:31  5-MIN KDBQ 180730Z AUTO 00000KT 10SM CLR 14/11 A2997 1030 80 1200 000/00 RMK AO2
94908KDBQ DBQ20080618013509906/18/08 01:35:31  5-MIN KDBQ 180735Z AUTO 00000KT 10SM CLR 14/11 A2997 1030 80 1200 000/00 RMK AO2
94908KDBQ DBQ20080618014009906/18/08 01:40:31  5-MIN KDBQ 180740Z AUTO 00000KT 10SM CLR 14/11 A2997 1030 80 1200 000/00 RMK AO2
94908KDBQ DBQ20080618014509906/18/08 01:45:31  5-MIN KDBQ 180745Z AUTO 00000KT 10SM CLR 14/11 A2997 1030 80 1200 000/00 RMK AO2
94908KDBQ DBQ20080618015011606/18/08 01:50:31  5-MIN KDBQ 180750Z AUTO 00000KT 10SM CLR 14/11 A2997 1030 80 1200 000/00 RMK AO2 SLP146 T01390106
94908KDBQ DBQ20080618015509906/18/08 01:55:31  5-MIN KDBQ 180755Z AUTO 00000KT 10SM CLR 13/11 A2997 1030 83 1100 000/00 RMK AO2
94908KDBQ DBQ20080618020009906/18/08 02:00:31  5-MIN KDBQ 180800Z AUTO 00000KT 10SM CLR 14/11 A2997 1030 80 1200 000/00 RMK AO2
94908KDBQ DBQ20080618020509906/18/08 02:05:31  5-MIN KDBQ 180805Z AUTO 00000KT 10SM CLR 13/10 A2997 1040 83 1100 000/00 RMK AO2
94908KDBQ DBQ20080618021009906/18/08 02:10:31  5-MIN KDBQ 180810Z AUTO 21007KT 10SM CLR 12/10 A2996 1040 86 1000 210/07 RMK AO2
94908KDBQ DBQ20080618021509906/18/08 02:15:31  5-MIN KDBQ 180815Z AUTO 28004KT 10SM CLR 12/10 A2996 1040 86 1000 270/04 RMK AO2
94908KDBQ DBQ20080618022009906/18/08 02:20:31  5-MIN KDBQ 180820Z AUTO 23005KT 10SM CLR 13/10 A2996 1040 80 1100 230/05 RMK AO2
94908KDBQ DBQ20080618022509906/18/08 02:25:31  5-MIN KDBQ 180825Z AUTO 25004KT 10SM CLR 12/10 A2996 1040 86 1000 250/04 RMK AO2
94908KDBQ DBQ20080618023009906/18/08 02:30:31  5-MIN KDBQ 180830Z AUTO 22005KT 10SM CLR 12/10 A2996 1040 86 1000 220/05 RMK AO2
94908KDBQ DBQ20080618023509906/18/08 02:35:31  5-MIN KDBQ 180835Z AUTO 23003KT 10SM CLR 13/10 A2995 1050 83 1100 230/03 RMK AO2
94908KDBQ DBQ20080618024009906/18/08 02:40:31  5-MIN KDBQ 180840Z AUTO 00000KT 10SM CLR 13/10 A2995 1050 83 1100 000/00 RMK AO2
94908KDBQ DBQ20080618024509906/18/08 02:45:31  5-MIN KDBQ 180845Z AUTO 00000KT 10SM CLR 13/10 A2995 1050 83 1100 000/00 RMK AO2
94908KDBQ DBQ20080618025012206/18/08 02:50:31  5-MIN KDBQ 180850Z AUTO 23003KT 10SM CLR 13/10 A2995 1050 80 1100 220/03 RMK AO2 SLP140 T01330100 55001
94908KDBQ DBQ20080618025509906/18/08 02:55:31  5-MIN KDBQ 180855Z AUTO 22004KT 10SM CLR 13/10 A2995 1050 80 1100 220/04 RMK AO2
94908KDBQ DBQ20080618030009906/18/08 03:00:31  5-MIN KDBQ 180900Z AUTO 23003KT 10SM CLR 13/10 A2995 1050 83 1100 230/03 RMK AO2
94908KDBQ DBQ20080618030509906/18/08 03:05:31  5-MIN KDBQ 180905Z AUTO 24003KT 10SM CLR 13/10 A2995 1050 83 1100 240/03 RMK AO2
94908KDBQ DBQ20080618031009906/18/08 03:10:31  5-MIN KDBQ 180910Z AUTO 24004KT 10SM CLR 13/10 A2995 1050 80 1100 240/04 RMK AO2
94908KDBQ DBQ20080618031509906/18/08 03:15:31  5-MIN KDBQ 180915Z AUTO 00000KT 10SM CLR 14/10 A2995 1050 77 1200 000/00 RMK AO2
94908KDBQ DBQ20080618032009906/18/08 03:20:31  5-MIN KDBQ 180920Z AUTO 24003KT 10SM CLR 13/10 A2995 1050 80 1100 240/03 RMK AO2
94908KDBQ DBQ20080618032509906/18/08 03:25:31  5-MIN KDBQ 180925Z AUTO 25003KT 10SM CLR 14/10 A2995 1050 77 1200 250/03 RMK AO2
94908KDBQ DBQ20080618033009906/18/08 03:30:31  5-MIN KDBQ 180930Z AUTO 00000KT 10SM CLR 13/10 A2995 1050 80 1100 000/00 RMK AO2
94908KDBQ DBQ20080618033509906/18/08 03:35:31  5-MIN KDBQ 180935Z AUTO 28003KT 10SM CLR 13/09 A2995 1050 77 1100 280/03 RMK AO2
94908KDBQ DBQ20080618034009906/18/08 03:40:31  5-MIN KDBQ 180940Z AUTO 28004KT 10SM CLR 13/09 A2995 1050 77 1100 280/04 RMK AO2
94908KDBQ DBQ20080618034509906/18/08 03:45:31  5-MIN KDBQ 180945Z AUTO 28003KT 10SM CLR 13/09 A2995 1050 77 1100 270/03 RMK AO2
94908KDBQ DBQ20080618035011606/18/08 03:50:31  5-MIN KDBQ 180950Z AUTO 28003KT 10SM CLR 14/09 A2995 1050 74 1200 280/03 RMK AO2 SLP139 T01390094
94908KDBQ DBQ20080618035509906/18/08 03:55:31  5-MIN KDBQ 180955Z AUTO 29003KT 10SM CLR 13/09 A2995 1050 77 1100 290/03 RMK AO2
94908KDBQ DBQ20080618040009906/18/08 04:00:31  5-MIN KDBQ 181000Z AUTO 30003KT 10SM CLR 13/09 A2995 1050 77 1100 300/03 RMK AO2
94908KDBQ DBQ20080618040509906/18/08 04:05:31  5-MIN KDBQ 181005Z AUTO 31003KT 10SM CLR 13/09 A2995 1050 77 1100 310/03 RMK AO2
94908KDBQ DBQ20080618041009906/18/08 04:10:31  5-MIN KDBQ 181010Z AUTO 31003KT 10SM CLR 13/09 A2995 1050 74 1100 310/03 RMK AO2
94908KDBQ DBQ20080618041509906/18/08 04:15:31  5-MIN KDBQ 181015Z AUTO 00000KT 10SM CLR 13/09 A2995 1050 74 1100 000/00 RMK AO2
94908KDBQ DBQ20080618042009906/18/08 04:20:31  5-MIN KDBQ 181020Z AUTO 00000KT 10SM CLR 13/09 A2995 1050 77 1100 000/00 RMK AO2
94908KDBQ DBQ20080618042509906/18/08 04:25:31  5-MIN KDBQ 181025Z AUTO 31003KT 10SM CLR 13/09 A2995 1050 80 1100 310/03 RMK AO2
94908KDBQ DBQ20080618043009906/18/08 04:30:31  5-MIN KDBQ 181030Z AUTO 31005KT 10SM CLR 13/09 A2995 1050 77 1100 310/05 RMK AO2
94908KDBQ DBQ20080618043509906/18/08 04:35:31  5-MIN KDBQ 181035Z AUTO 31006KT 10SM CLR 13/09 A2996 1050 77 1100 310/06 RMK AO2
94908KDBQ DBQ20080618044009906/18/08 04:40:31  5-MIN KDBQ 181040Z AUTO 31006KT 10SM CLR 13/09 A2996 1050 74 1100 310/06 RMK AO2
94908KDBQ DBQ20080618044509406/18/08 04:45:31  5-MIN KDBQ 181045Z 31006KT 10SM CLR 13/09 A2996 1040 74 1100 310/06 RMK AO2
94908KDBQ DBQ20080618045011106/18/08 04:50:31  5-MIN KDBQ 181050Z 31005KT 10SM CLR 14/09 A2996 1040 71 1200 310/05 RMK AO2 SLP142 T01390089
94908KDBQ DBQ20080618045509406/18/08 04:55:31  5-MIN KDBQ 181055Z 32004KT 10SM CLR 13/09 A2996 1040 74 1100 320/04 RMK AO2
94908KDBQ DBQ20080618050009406/18/08 05:00:31  5-MIN KDBQ 181100Z 00000KT 10SM CLR 14/09 A2996 1040 71 1200 000/00 RMK AO2
94908KDBQ DBQ20080618050509406/18/08 05:05:31  5-MIN KDBQ 181105Z 00000KT 10SM CLR 14/09 A2996 1040 69 1300 000/00 RMK AO2
94908KDBQ DBQ20080618051009406/18/08 05:10:31  5-MIN KDBQ 181110Z 00000KT 10SM CLR 14/09 A2997 1040 69 1300 000/00 RMK AO2
94908KDBQ DBQ20080618051509406/18/08 05:15:31  5-MIN KDBQ 181115Z 00000KT 10SM CLR 14/09 A2997 1040 74 1200 000/00 RMK AO2
94908KDBQ DBQ20080618052009406/18/08 05:20:31  5-MIN KDBQ 181120Z 32003KT 10SM CLR 14/09 A2997 1030 74 1200 310/03 RMK AO2
94908KDBQ DBQ20080618052509406/18/08 05:25:31  5-MIN KDBQ 181125Z VRB03KT 10SM CLR 14/09 A2997 1030 72 1200 VRB/03 RMK AO2
94908KDBQ DBQ20080618053009406/18/08 05:30:31  5-MIN KDBQ 181130Z 00000KT 10SM CLR 15/09 A2997 1030 69 1300 000/00 RMK AO2
94908KDBQ DBQ20080618053509406/18/08 05:35:31  5-MIN KDBQ 181135Z 20004KT 10SM CLR 14/10 A2997 1030 77 1200 200/04 RMK AO2
94908KDBQ DBQ20080618054009406/18/08 05:40:31  5-MIN KDBQ 181140Z 20003KT 10SM CLR 14/11 A2997 1030 80 1200 190/03 RMK AO2
94908KDBQ DBQ20080618054509406/18/08 05:45:31  5-MIN KDBQ 181145Z 19003KT 10SM CLR 14/11 A2997 1030 77 1200 190/03 RMK AO2
94908KDBQ DBQ20080618055012906/18/08 05:50:31  5-MIN KDBQ 181150Z 20003KT 10SM CLR 15/11 A2997 1030 74 1300 200/03 RMK AO2 SLP146 T01500106 10150 20122 58010
94908KDBQ DBQ20080618055509406/18/08 05:55:31  5-MIN KDBQ 181155Z 20003KT 10SM CLR 15/11 A2997 1030 74 1300 200/03 RMK AO2
94908KDBQ DBQ20080618060009406/18/08 06:00:31  5-MIN KDBQ 181200Z 00000KT 10SM CLR 16/11 A2997 1030 74 1400 000/00 RMK AO2
94908KDBQ DBQ20080618060509406/18/08 06:05:31  5-MIN KDBQ 181205Z 00000KT 10SM CLR 16/11 A2997 1030 74 1400 000/00 RMK AO2
94908KDBQ DBQ20080618061009406/18/08 06:10:31  5-MIN KDBQ 181210Z 00000KT 10SM CLR 16/11 A2997 1030 69 1400 000/00 RMK AO2
94908KDBQ DBQ20080618061509406/18/08 06:15:31  5-MIN KDBQ 181215Z 00000KT 10SM CLR 17/11 A2997 1030 69 1500 000/00 RMK AO2
94908KDBQ DBQ20080618062009406/18/08 06:20:31  5-MIN KDBQ 181220Z 00000KT 10SM CLR 17/11 A2997 1030 67 1600 000/00 RMK AO2
94908KDBQ DBQ20080618062509406/18/08 06:25:31  5-MIN KDBQ 181225Z 00000KT 10SM CLR 17/11 A2997 1030 64 1600 000/00 RMK AO2
94908KDBQ DBQ20080618063009406/18/08 06:30:31  5-MIN KDBQ 181230Z 00000KT 10SM CLR 18/11 A2998 1030 62 1600 000/00 RMK AO2
94908KDBQ DBQ20080618063509406/18/08 06:35:31  5-MIN KDBQ 181235Z 34005KT 10SM CLR 18/11 A2998 1030 62 1700 340/05 RMK AO2
94908KDBQ DBQ20080618064009406/18/08 06:40:31  5-MIN KDBQ 181240Z 33004KT 10SM CLR 18/11 A2998 1030 60 1700 330/04 RMK AO2
94908KDBQ DBQ20080618064509406/18/08 06:45:31  5-MIN KDBQ 181245Z 34004KT 10SM CLR 18/11 A2998 1030 62 1700 340/04 RMK AO2
94908KDBQ DBQ20080618065011106/18/08 06:50:31  5-MIN KDBQ 181250Z 34006KT 10SM CLR 18/11 A2998 1020 60 1700 340/06 RMK AO2 SLP148 T01830106
94908KDBQ DBQ20080618065509406/18/08 06:55:31  5-MIN KDBQ 181255Z 34006KT 10SM CLR 19/11 A2998 1020 58 1800 340/06 RMK AO2
94908KDBQ DBQ20080618070009406/18/08 07:00:31  5-MIN KDBQ 181300Z 34005KT 10SM CLR 19/11 A2998 1020 58 1800 340/05 RMK AO2
94908KDBQ DBQ20080618070509406/18/08 07:05:31  5-MIN KDBQ 181305Z 34005KT 10SM CLR 19/11 A2998 1020 58 1800 340/05 RMK AO2
94908KDBQ DBQ20080618071009406/18/08 07:10:31  5-MIN KDBQ 181310Z 34006KT 10SM CLR 19/11 A2998 1020 58 1700 340/06 RMK AO2
94908KDBQ DBQ20080618071509406/18/08 07:15:31  5-MIN KDBQ 181315Z 34005KT 10SM CLR 19/11 A2999 1020 58 1700 340/05 RMK AO2
94908KDBQ DBQ20080618072009406/18/08 07:20:31  5-MIN KDBQ 181320Z 34007KT 10SM CLR 19/11 A2998 1020 56 1800 340/07 RMK AO2
94908KDBQ DBQ20080618072509406/18/08 07:25:31  5-MIN KDBQ 181325Z 35006KT 10SM CLR 19/11 A2999 1020 58 1800 340/06 RMK AO2
94908KDBQ DBQ20080618073009406/18/08 07:30:31  5-MIN KDBQ 181330Z 34006KT 10SM CLR 19/11 A2999 1020 58 1800 340/06 RMK AO2
94908KDBQ DBQ20080618073509406/18/08 07:35:31  5-MIN KDBQ 181335Z 33007KT 10SM CLR 19/12 A2999 1020 60 1800 330/07 RMK AO2
94908KDBQ DBQ20080618074009406/18/08 07:40:31  5-MIN KDBQ 181340Z 34008KT 10SM CLR 19/11 A2998 1020 58 1800 340/08 RMK AO2
94908KDBQ DBQ20080618074509406/18/08 07:45:31  5-MIN KDBQ 181345Z 33008KT 10SM CLR 20/11 A2999 1020 56 1900 330/08 RMK AO2
94908KDBQ DBQ20080618075011106/18/08 07:50:31  5-MIN KDBQ 181350Z 34009KT 10SM CLR 20/11 A2999 1020 56 1900 340/09 RMK AO2 SLP150 T02000111
94908KDBQ DBQ20080618075509406/18/08 07:55:31  5-MIN KDBQ 181355Z 33006KT 10SM CLR 20/11 A2998 1020 56 1900 330/06 RMK AO2
94908KDBQ DBQ20080618080009406/18/08 08:00:31  5-MIN KDBQ 181400Z 35007KT 10SM CLR 21/11 A2999 1020 54 1900 350/07 RMK AO2
94908KDBQ DBQ20080618080509406/18/08 08:05:31  5-MIN KDBQ 181405Z 34006KT 10SM CLR 21/11 A2998 1020 54 1900 340/06 RMK AO2
94908KDBQ DBQ20080618081009406/18/08 08:10:31  5-MIN KDBQ 181410Z 35008KT 10SM CLR 21/11 A2998 1020 54 1900 350/08 RMK AO2
94908KDBQ DBQ20080618081509406/18/08 08:15:31  5-MIN KDBQ 181415Z 36006KT 10SM CLR 21/12 A2998 1020 56 1900 360/06 RMK AO2
94908KDBQ DBQ20080618082009406/18/08 08:20:31  5-MIN KDBQ 181420Z 36006KT 10SM CLR 21/12 A2999 1020 54 2000 360/06 RMK AO2
94908KDBQ DBQ20080618082509406/18/08 08:25:31  5-MIN KDBQ 181425Z 36006KT 10SM CLR 21/12 A2999 1020 56 2000 360/06 RMK AO2
94908KDBQ DBQ20080618083009406/18/08 08:30:31  5-MIN KDBQ 181430Z 36008KT 10SM CLR 21/12 A2998 1020 54 2000 360/08 RMK AO2
94908KDBQ DBQ20080618083509406/18/08 08:35:31  5-MIN KDBQ 181435Z 36006KT 10SM CLR 21/12 A2998 1020 54 2000 360/06 RMK AO2
94908KDBQ DBQ20080618084009406/18/08 08:40:31  5-MIN KDBQ 181440Z 33007KT 10SM CLR 21/12 A2999 1020 54 2000 330/07 RMK AO2
94908KDBQ DBQ20080618084509406/18/08 08:45:31  5-MIN KDBQ 181445Z 33008KT 10SM CLR 22/12 A2998 1020 52 2100 330/08 RMK AO2
94908KDBQ DBQ20080618085011706/18/08 08:50:31  5-MIN KDBQ 181450Z 35005KT 10SM CLR 22/12 A2999 1020 54 2100 350/05 RMK AO2 SLP150 T02170122 53005
94908KDBQ DBQ20080618085509406/18/08 08:55:31  5-MIN KDBQ 181455Z 33007KT 10SM CLR 22/12 A2998 1020 54 2100 330/07 RMK AO2
94908KDBQ DBQ20080618090009406/18/08 09:00:31  5-MIN KDBQ 181500Z 34008KT 10SM CLR 22/12 A2999 1020 52 2100 340/08 RMK AO2
94908KDBQ DBQ20080618090509406/18/08 09:05:31  5-MIN KDBQ 181505Z 36008KT 10SM CLR 22/12 A2999 1010 52 2100 350/08 RMK AO2
94908KDBQ DBQ20080618091009406/18/08 09:10:31  5-MIN KDBQ 181510Z 36008KT 10SM CLR 22/12 A2999 1010 52 2100 360/08 RMK AO2
94908KDBQ DBQ20080618091509406/18/08 09:15:31  5-MIN KDBQ 181515Z 32009KT 10SM CLR 22/12 A2999 1020 51 2100 320/09 RMK AO2
94908KDBQ DBQ20080618092009406/18/08 09:20:31  5-MIN KDBQ 181520Z 35010KT 10SM CLR 22/11 A2999 1020 50 2100 350/10 RMK AO2
94908KDBQ DBQ20080618092509406/18/08 09:25:31  5-MIN KDBQ 181525Z 34006KT 10SM CLR 22/11 A2999 1020 49 2100 340/06 RMK AO2
94908KDBQ DBQ20080618093009406/18/08 09:30:31  5-MIN KDBQ 181530Z 34007KT 10SM CLR 22/12 A2999 1020 51 2100 340/07 RMK AO2
94908KDBQ DBQ20080618093509406/18/08 09:35:31  5-MIN KDBQ 181535Z 34006KT 10SM CLR 23/12 A2999 1020 49 2200 330/06 RMK AO2
94908KDBQ DBQ20080618094009406/18/08 09:40:31  5-MIN KDBQ 181540Z 33007KT 10SM CLR 23/12 A2998 1020 49 2200 330/07 RMK AO2
94908KDBQ DBQ20080618094509406/18/08 09:45:31  5-MIN KDBQ 181545Z 33009KT 10SM CLR 23/11 A2998 1020 47 2200 330/09 RMK AO2
94908KDBQ DBQ20080618095011106/18/08 09:50:31  5-MIN KDBQ 181550Z 34008KT 10SM CLR 23/11 A2999 1020 45 2200 340/08 RMK AO2 SLP150 T02280106
94908KDBQ DBQ20080618095509406/18/08 09:55:31  5-MIN KDBQ 181555Z 33010KT 10SM CLR 23/11 A2999 1020 47 2200 330/10 RMK AO2
94908KDBQ DBQ20080618100009406/18/08 10:00:31  5-MIN KDBQ 181600Z 33007KT 10SM CLR 23/11 A2999 1020 47 2200 330/07 RMK AO2
94908KDBQ DBQ20080618100511006/18/08 10:05:31  5-MIN KDBQ 181605Z 34008KT 300V010 10SM CLR 23/11 A2999 1020 44 2300 340/08 300V010 RMK AO2
94908KDBQ DBQ20080618101009406/18/08 10:10:31  5-MIN KDBQ 181610Z 32008KT 10SM CLR 23/11 A2998 1020 45 2300 320/08 RMK AO2
94908KDBQ DBQ20080618101509406/18/08 10:15:31  5-MIN KDBQ 181615Z 34008KT 10SM CLR 23/10 A2998 1020 42 2300 340/08 RMK AO2
94908KDBQ DBQ20080618102009406/18/08 10:20:31  5-MIN KDBQ 181620Z 33010KT 10SM CLR 23/09 A2998 1020 41 2300 330/10 RMK AO2
94908KDBQ DBQ20080618102509406/18/08 10:25:31  5-MIN KDBQ 181625Z 35007KT 10SM CLR 23/10 A2998 1020 42 2300 350/07 RMK AO2
94908KDBQ DBQ20080618103010006/18/08 10:30:31  5-MIN KDBQ 181630Z 33010G15KT 10SM CLR 24/10 A2998 1030 41 2300 320/10G15 RMK AO2
94908KDBQ DBQ20080618103510006/18/08 10:35:31  5-MIN KDBQ 181635Z 35009G15KT 10SM CLR 24/10 A2998 1020 41 2300 350/09G15 RMK AO2
94908KDBQ DBQ20080618104009406/18/08 10:40:31  5-MIN KDBQ 181640Z 34011KT 10SM CLR 24/10 A2998 1020 41 2300 340/11 RMK AO2
94908KDBQ DBQ20080618104509406/18/08 10:45:31  5-MIN KDBQ 181645Z 34008KT 10SM CLR 24/11 A2998 1020 42 2300 340/08 RMK AO2
94908KDBQ DBQ20080618105011106/18/08 10:50:31  5-MIN KDBQ 181650Z 32008KT 10SM CLR 24/11 A2998 1020 42 2300 320/08 RMK AO2 SLP147 T02390106
94908KDBQ DBQ20080618105509406/18/08 10:55:31  5-MIN KDBQ 181655Z 33008KT 10SM CLR 24/11 A2998 1020 41 2400 330/08 RMK AO2
94908KDBQ DBQ20080618110009406/18/08 11:00:31  5-MIN KDBQ 181700Z 32009KT 10SM CLR 24/10 A2998 1030 41 2300 320/09 RMK AO2
94908KDBQ DBQ20080618110511006/18/08 11:05:31  5-MIN KDBQ 181705Z 34011KT 310V010 10SM CLR 24/10 A2998 1020 41 2300 340/11 310V010 RMK AO2
94908KDBQ DBQ20080618111009406/18/08 11:10:31  5-MIN KDBQ 181710Z 32011KT 10SM CLR 24/11 A2998 1020 42 2300 320/11 RMK AO2
94908KDBQ DBQ20080618111510006/18/08 11:15:31  5-MIN KDBQ 181715Z 32012G18KT 10SM CLR 24/11 A2998 1020 41 2400 320/12G18 RMK AO2
94908KDBQ DBQ20080618112010006/18/08 11:20:31  5-MIN KDBQ 181720Z 34012G20KT 10SM CLR 24/10 A2998 1020 41 2300 340/12G20 RMK AO2
94908KDBQ DBQ20080618112510006/18/08 11:25:31  5-MIN KDBQ 181725Z 34014G20KT 10SM CLR 24/10 A2998 1020 41 2300 340/14G20 RMK AO2
94908KDBQ DBQ20080618113010006/18/08 11:30:31  5-MIN KDBQ 181730Z 34012G19KT 10SM CLR 24/09 A2998 1020 39 2300 340/12G19 RMK AO2
94908KDBQ DBQ20080618113510006/18/08 11:35:31  5-MIN KDBQ 181735Z 33012G20KT 10SM CLR 24/09 A2998 1020 39 2300 330/12G20 RMK AO2
94908KDBQ DBQ20080618114010006/18/08 11:40:31  5-MIN KDBQ 181740Z 33015G20KT 10SM CLR 24/11 A2998 1020 41 2400 330/15G20 RMK AO2
94908KDBQ DBQ20080618114510006/18/08 11:45:31  5-MIN KDBQ 181745Z 33015G20KT 10SM CLR 24/09 A2998 1030 38 2400 330/15G20 RMK AO2
94908KDBQ DBQ20080618115013506/18/08 11:50:31  5-MIN KDBQ 181750Z 34012G20KT 10SM CLR 24/10 A2998 1030 39 2400 330/12G20 RMK AO2 SLP147 T02440100 10244 20150 50004
94908KDBQ DBQ20080618115509406/18/08 11:55:31  5-MIN KDBQ 181755Z 34013KT 10SM CLR 24/10 A2997 1030 39 2400 340/13 RMK AO2
94908KDBQ DBQ20080618120010006/18/08 12:00:31  5-MIN KDBQ 181800Z 32016G22KT 10SM CLR 24/09 A2997 1030 38 2400 320/16G22 RMK AO2
94908KDBQ DBQ20080618120510006/18/08 12:05:31  5-MIN KDBQ 181805Z 34013G22KT 10SM CLR 24/10 A2997 1030 39 2400 340/13G22 RMK AO2
94908KDBQ DBQ20080618121010006/18/08 12:10:31  5-MIN KDBQ 181810Z 35009G18KT 10SM CLR 24/10 A2997 1030 39 2400 350/09G18 RMK AO2
94908KDBQ DBQ20080618121510006/18/08 12:15:31  5-MIN KDBQ 181815Z 34013G18KT 10SM CLR 24/10 A2997 1030 39 2400 340/13G18 RMK AO2
94908KDBQ DBQ20080618122010006/18/08 12:20:31  5-MIN KDBQ 181820Z 36011G18KT 10SM CLR 24/10 A2997 1040 39 2400 360/11G18 RMK AO2
94908KDBQ DBQ20080618122510006/18/08 12:25:31  5-MIN KDBQ 181825Z 36015G18KT 10SM CLR 24/10 A2997 1040 39 2400 360/15G18 RMK AO2
94908KDBQ DBQ20080618123010006/18/08 12:30:31  5-MIN KDBQ 181830Z 33008G18KT 10SM CLR 24/11 A2996 1040 41 2400 320/08G18 RMK AO2
94908KDBQ DBQ20080618123510006/18/08 12:35:31  5-MIN KDBQ 181835Z 34011G16KT 10SM CLR 25/11 A2996 1040 39 2500 340/11G16 RMK AO2
94908KDBQ DBQ20080618124010006/18/08 12:40:31  5-MIN KDBQ 181840Z 34006G16KT 10SM CLR 24/11 A2996 1040 41 2400 340/06G16 RMK AO2
94908KDBQ DBQ20080618124510006/18/08 12:45:31  5-MIN KDBQ 181845Z 32009G15KT 10SM CLR 25/11 A2996 1040 39 2500 320/09G15 RMK AO2
94908KDBQ DBQ20080618125011706/18/08 12:50:31  5-MIN KDBQ 181850Z 33011G14KT 10SM CLR 25/11 A2996 1040 41 2500 320/11G14 RMK AO2 SLP142 T02500111
94908KDBQ DBQ20080618125509406/18/08 12:55:31  5-MIN KDBQ 181855Z 33009KT 10SM CLR 25/11 A2996 1040 39 2500 320/09 RMK AO2
94908KDBQ DBQ20080618130010306/18/08 13:00:31  5-MIN KDBQ 181900Z 32011G15KT 10SM FEW065 25/11 A2996 1040 39 2500 320/11G15 RMK AO2
94908KDBQ DBQ20080618130510306/18/08 13:05:31  5-MIN KDBQ 181905Z 34012G15KT 10SM FEW065 26/11 A2996 1040 40 2500 340/12G15 RMK AO2
94908KDBQ DBQ20080618131010306/18/08 13:10:31  5-MIN KDBQ 181910Z 34011G17KT 10SM FEW065 24/11 A2996 1040 41 2400 340/11G17 RMK AO2
94908KDBQ DBQ20080618131510306/18/08 13:15:31  5-MIN KDBQ 181915Z 34011G17KT 10SM SCT065 23/11 A2996 1040 45 2200 340/11G17 RMK AO2
94908KDBQ DBQ20080618132009706/18/08 13:20:31  5-MIN KDBQ 181920Z 34011KT 10SM FEW065 24/10 A2995 1050 39 2400 340/11 RMK AO2
94908KDBQ DBQ20080618132510306/18/08 13:25:31  5-MIN KDBQ 181925Z 32011G17KT 10SM SCT070 25/11 A2995 1050 39 2500 320/11G17 RMK AO2
94908KDBQ DBQ20080618133010306/18/08 13:30:31  5-MIN KDBQ 181930Z 35009G17KT 10SM FEW070 25/10 A2995 1050 38 2500 350/09G17 RMK AO2
94908KDBQ DBQ20080618133509706/18/08 13:35:31  5-MIN KDBQ 181935Z 33008KT 10SM FEW070 26/11 A2995 1050 40 2500 330/08 RMK AO2
94908KDBQ DBQ20080618134010306/18/08 13:40:31  5-MIN KDBQ 181940Z 35010G17KT 10SM SCT070 24/11 A2995 1050 41 2400 350/10G17 RMK AO2
94908KDBQ DBQ20080618134511306/18/08 13:45:31  5-MIN KDBQ 181945Z AUTO 35010G17KT 10SM SCT065 24/11 A2995 1050 42 2400 340/10G17 RMK AO2 TSNO
94908KDBQ DBQ20080618135011406/18/08 13:50:31  5-MIN KDBQ 181950Z 34008KT 10SM SCT065 26/12 A2995 1050 41 2500 340/08 RMK AO2 SLP138 T02560117
94908KDBQ DBQ20080618135509706/18/08 13:55:31  5-MIN KDBQ 181955Z 33010KT 10SM FEW070 26/11 A2995 1050 38 2500 330/10 RMK AO2
94908KDBQ DBQ20080618140010306/18/08 14:00:31  5-MIN KDBQ 182000Z 33012G17KT 10SM SCT070 26/11 A2995 1050 38 2500 330/12G17 RMK AO2
94908KDBQ DBQ20080618140510306/18/08 14:05:31  5-MIN KDBQ 182005Z 34011G17KT 10SM SCT070 26/11 A2995 1060 40 2600 340/11G17 RMK AO2
94908KDBQ DBQ20080618141010306/18/08 14:10:31  5-MIN KDBQ 182010Z 34010G15KT 10SM SCT065 26/11 A2995 1060 38 2600 330/10G15 RMK AO2
94908KDBQ DBQ20080618141510306/18/08 14:15:31  5-MIN KDBQ 182015Z 36015G20KT 10SM SCT070 24/10 A2994 1060 39 2400 350/15G20 RMK AO2
94908KDBQ DBQ20080618142010306/18/08 14:20:31  5-MIN KDBQ 182020Z 33009G21KT 10SM SCT065 24/11 A2994 1060 41 2400 330/09G21 RMK AO2
94908KDBQ DBQ20080618142510306/18/08 14:25:31  5-MIN KDBQ 182025Z 32015G21KT 10SM SCT065 25/10 A2994 1060 38 2500 320/15G21 RMK AO2
94908KDBQ DBQ20080618143010306/18/08 14:30:31  5-MIN KDBQ 182030Z 32011G19KT 10SM FEW070 24/09 A2994 1060 38 2400 320/11G19 RMK AO2
94908KDBQ DBQ20080618143510306/18/08 14:35:31  5-MIN KDBQ 182035Z 32014G18KT 10SM FEW070 26/10 A2994 1060 37 2600 320/14G18 RMK AO2
94908KDBQ DBQ20080618144010306/18/08 14:40:31  5-MIN KDBQ 182040Z 33013G18KT 10SM FEW070 25/09 A2994 1060 35 2500 330/13G18 RMK AO2
94908KDBQ DBQ20080618144509406/18/08 14:45:31  5-MIN KDBQ 182045Z 34014KT 10SM CLR 26/09 A2994 1060 35 2600 340/14 RMK AO2
94908KDBQ DBQ20080618145011706/18/08 14:50:31  5-MIN KDBQ 182050Z 31010KT 10SM CLR 26/09 A2993 1070 35 2600 310/10 RMK AO2 SLP131 T02560094 58003
94908KDBQ DBQ20080618145510006/18/08 14:55:31  5-MIN KDBQ 182055Z 31013G17KT 10SM CLR 26/09 A2993 1070 35 2600 310/13G17 RMK AO2
94908KDBQ DBQ20080618150010006/18/08 15:00:31  5-MIN KDBQ 182100Z 34011G17KT 10SM CLR 26/10 A2993 1070 37 2600 340/11G17 RMK AO2
94908KDBQ DBQ20080618150510006/18/08 15:05:31  5-MIN KDBQ 182105Z 33010G17KT 10SM CLR 25/08 A2993 1070 34 2500 330/10G17 RMK AO2
94908KDBQ DBQ20080618151009406/18/08 15:10:31  5-MIN KDBQ 182110Z 30011KT 10SM CLR 25/08 A2993 1070 34 2500 300/11 RMK AO2
94908KDBQ DBQ20080618151509406/18/08 15:15:31  5-MIN KDBQ 182115Z 33010KT 10SM CLR 26/09 A2993 1070 34 2600 330/10 RMK AO2
94908KDBQ DBQ20080618152010006/18/08 15:20:31  5-MIN KDBQ 182120Z 35010G16KT 10SM CLR 25/09 A2993 1070 35 2500 340/10G16 RMK AO2
94908KDBQ DBQ20080618152510006/18/08 15:25:31  5-MIN KDBQ 182125Z 33010G16KT 10SM CLR 26/09 A2993 1070 34 2600 330/10G16 RMK AO2
94908KDBQ DBQ20080618153009406/18/08 15:30:31  5-MIN KDBQ 182130Z 33010KT 10SM CLR 25/08 A2993 1070 34 2500 320/10 RMK AO2
94908KDBQ DBQ20080618153509406/18/08 15:35:31  5-MIN KDBQ 182135Z 35008KT 10SM CLR 26/09 A2993 1070 34 2600 350/08 RMK AO2
94908KDBQ DBQ20080618154010006/18/08 15:40:31  5-MIN KDBQ 182140Z 34011G16KT 10SM CLR 26/09 A2992 1070 34 2600 340/11G16 RMK AO2
94908KDBQ DBQ20080618154509406/18/08 15:45:31  5-MIN KDBQ 182145Z 32010KT 10SM CLR 26/09 A2992 1070 34 2600 320/10 RMK AO2
94908KDBQ DBQ20080618155011106/18/08 15:50:31  5-MIN KDBQ 182150Z 30010KT 10SM CLR 25/09 A2992 1080 35 2500 300/10 RMK AO2 SLP129 T02500089
94908KDBQ DBQ20080618155509406/18/08 15:55:31  5-MIN KDBQ 182155Z 32011KT 10SM CLR 25/09 A2992 1080 35 2500 320/11 RMK AO2
94908KDBQ DBQ20080618160010006/18/08 16:00:31  5-MIN KDBQ 182200Z 32012G17KT 10SM CLR 25/08 A2992 1080 34 2500 320/12G17 RMK AO2
94908KDBQ DBQ20080618160509406/18/08 16:05:31  5-MIN KDBQ 182205Z 32009KT 10SM CLR 25/08 A2992 1080 33 2500 320/09 RMK AO2
94908KDBQ DBQ20080618161010006/18/08 16:10:31  5-MIN KDBQ 182210Z 35008G15KT 10SM CLR 26/09 A2992 1080 34 2600 350/08G15 RMK AO2
94908KDBQ DBQ20080618161510006/18/08 16:15:31  5-MIN KDBQ 182215Z 33011G15KT 10SM CLR 25/08 A2991 1090 34 2500 330/11G15 RMK AO2
94908KDBQ DBQ20080618162009406/18/08 16:20:31  5-MIN KDBQ 182220Z 35010KT 10SM CLR 25/08 A2991 1080 34 2500 350/10 RMK AO2
94908KDBQ DBQ20080618162509406/18/08 16:25:31  5-MIN KDBQ 182225Z 35011KT 10SM CLR 25/08 A2991 1090 34 2500 350/11 RMK AO2
94908KDBQ DBQ20080618163009406/18/08 16:30:31  5-MIN KDBQ 182230Z 33009KT 10SM CLR 25/08 A2991 1080 34 2500 330/09 RMK AO2
94908KDBQ DBQ20080618163509406/18/08 16:35:31  5-MIN KDBQ 182235Z 34010KT 10SM CLR 25/08 A2991 1090 33 2500 340/10 RMK AO2
94908KDBQ DBQ20080618164009406/18/08 16:40:31  5-MIN KDBQ 182240Z 36011KT 10SM CLR 25/08 A2991 1090 34 2500 360/11 RMK AO2
94908KDBQ DBQ20080618164509406/18/08 16:45:31  5-MIN KDBQ 182245Z 36011KT 10SM CLR 25/08 A2991 1090 33 2500 360/11 RMK AO2
94908KDBQ DBQ20080618165011106/18/08 16:50:31  5-MIN KDBQ 182250Z 35008KT 10SM CLR 24/08 A2991 1090 34 2500 350/08 RMK AO2 SLP124 T02440078
94908KDBQ DBQ20080618165509406/18/08 16:55:31  5-MIN KDBQ 182255Z 36009KT 10SM CLR 25/08 A2991 1090 33 2500 360/09 RMK AO2
94908KDBQ DBQ20080618170009406/18/08 17:00:31  5-MIN KDBQ 182300Z 34007KT 10SM CLR 25/08 A2991 1090 34 2500 340/07 RMK AO2
94908KDBQ DBQ20080618170510006/18/08 17:05:31  5-MIN KDBQ 182305Z 35009G15KT 10SM CLR 24/08 A2991 1080 34 2500 350/09G15 RMK AO2
94908KDBQ DBQ20080618171009406/18/08 17:10:31  5-MIN KDBQ 182310Z 34008KT 10SM CLR 24/08 A2992 1080 34 2500 340/08 RMK AO2
94908KDBQ DBQ20080618171509406/18/08 17:15:31  5-MIN KDBQ 182315Z 34007KT 10SM CLR 24/08 A2992 1080 35 2500 340/07 RMK AO2
94908KDBQ DBQ20080618172009406/18/08 17:20:31  5-MIN KDBQ 182320Z 35008KT 10SM CLR 24/08 A2992 1080 34 2500 350/08 RMK AO2
94908KDBQ DBQ20080618172509406/18/08 17:25:31  5-MIN KDBQ 182325Z 34008KT 10SM CLR 24/08 A2992 1080 34 2500 340/08 RMK AO2
94908KDBQ DBQ20080618173009406/18/08 17:30:31  5-MIN KDBQ 182330Z 35007KT 10SM CLR 24/08 A2992 1080 35 2500 350/07 RMK AO2
94908KDBQ DBQ20080618173509406/18/08 17:35:31  5-MIN KDBQ 182335Z 35006KT 10SM CLR 24/08 A2992 1080 36 2400 350/06 RMK AO2
94908KDBQ DBQ20080618174009406/18/08 17:40:31  5-MIN KDBQ 182340Z 34007KT 10SM CLR 24/08 A2992 1080 35 2400 340/07 RMK AO2
94908KDBQ DBQ20080618174509406/18/08 17:45:31  5-MIN KDBQ 182345Z 34008KT 10SM CLR 24/08 A2991 1090 35 2400 340/08 RMK AO2
94908KDBQ DBQ20080618175012906/18/08 17:50:31  5-MIN KDBQ 182350Z 35006KT 10SM CLR 24/09 A2991 1080 38 2400 350/06 RMK AO2 SLP126 T02390089 10256 20228 58015
94908KDBQ DBQ20080618175509406/18/08 17:55:31  5-MIN KDBQ 182355Z 35008KT 10SM CLR 24/08 A2991 1090 36 2400 350/08 RMK AO2
94908KDBQ DBQ20080618180009406/18/08 18:00:31  5-MIN KDBQ 190000Z 35008KT 10SM CLR 23/08 A2991 1080 36 2300 350/08 RMK AO2
94908KDBQ DBQ20080618180509406/18/08 18:05:31  5-MIN KDBQ 190005Z 35008KT 10SM CLR 23/08 A2991 1090 36 2300 350/08 RMK AO2
94908KDBQ DBQ20080618181009406/18/08 18:10:31  5-MIN KDBQ 190010Z 36007KT 10SM CLR 23/08 A2991 1090 37 2300 360/07 RMK AO2
94908KDBQ DBQ20080618181509406/18/08 18:15:31  5-MIN KDBQ 190015Z 01006KT 10SM CLR 23/08 A2991 1090 37 2300 010/06 RMK AO2
94908KDBQ DBQ20080618182009406/18/08 18:20:31  5-MIN KDBQ 190020Z 01007KT 10SM CLR 23/07 A2991 1090 36 2300 010/07 RMK AO2
94908KDBQ DBQ20080618182509406/18/08 18:25:31  5-MIN KDBQ 190025Z 36007KT 10SM CLR 22/07 A2991 1080 37 2200 360/07 RMK AO2
94908KDBQ DBQ20080618183009406/18/08 18:30:31  5-MIN KDBQ 190030Z 36006KT 10SM CLR 22/07 A2991 1090 36 2200 360/06 RMK AO2
94908KDBQ DBQ20080618183509406/18/08 18:35:31  5-MIN KDBQ 190035Z 36006KT 10SM CLR 22/07 A2991 1090 37 2200 360/06 RMK AO2
94908KDBQ DBQ20080618184009406/18/08 18:40:31  5-MIN KDBQ 190040Z 35007KT 10SM CLR 22/07 A2991 1090 39 2100 350/07 RMK AO2
94908KDBQ DBQ20080618184509406/18/08 18:45:31  5-MIN KDBQ 190045Z 35007KT 10SM CLR 22/08 A2991 1080 40 2100 350/07 RMK AO2
94908KDBQ DBQ20080618185011106/18/08 18:50:31  5-MIN KDBQ 190050Z 35007KT 10SM CLR 21/07 A2991 1080 40 2100 350/07 RMK AO2 SLP126 T02110072
94908KDBQ DBQ20080618185509906/18/08 18:55:31  5-MIN KDBQ 190055Z AUTO 35006KT 10SM CLR 21/08 A2991 1080 43 2000 340/06 RMK AO2
94908KDBQ DBQ20080618190009906/18/08 19:00:31  5-MIN KDBQ 190100Z AUTO 34007KT 10SM CLR 21/08 A2991 1080 43 2000 340/07 RMK AO2
94908KDBQ DBQ20080618190509906/18/08 19:05:31  5-MIN KDBQ 190105Z AUTO 35008KT 10SM CLR 20/08 A2991 1080 45 2000 350/08 RMK AO2
94908KDBQ DBQ20080618191009906/18/08 19:10:31  5-MIN KDBQ 190110Z AUTO 35006KT 10SM CLR 19/07 A2991 1080 44 1900 350/06 RMK AO2
94908KDBQ DBQ20080618191509906/18/08 19:15:31  5-MIN KDBQ 190115Z AUTO 35006KT 10SM CLR 19/08 A2992 1080 46 1900 340/06 RMK AO2
94908KDBQ DBQ20080618192009906/18/08 19:20:31  5-MIN KDBQ 190120Z AUTO 35006KT 10SM CLR 18/08 A2992 1080 52 1800 350/06 RMK AO2
94908KDBQ DBQ20080618192509906/18/08 19:25:31  5-MIN KDBQ 190125Z AUTO 35006KT 10SM CLR 18/09 A2992 1080 55 1700 350/06 RMK AO2
94908KDBQ DBQ20080618193009906/18/08 19:30:31  5-MIN KDBQ 190130Z AUTO 34007KT 10SM CLR 18/08 A2992 1080 53 1700 340/07 RMK AO2
94908KDBQ DBQ20080618193509906/18/08 19:35:31  5-MIN KDBQ 190135Z AUTO 35006KT 10SM CLR 17/08 A2992 1080 55 1600 350/06 RMK AO2
94908KDBQ DBQ20080618194009906/18/08 19:40:31  5-MIN KDBQ 190140Z AUTO 35007KT 10SM CLR 17/08 A2992 1080 57 1600 350/07 RMK AO2
94908KDBQ DBQ20080618194509906/18/08 19:45:31  5-MIN KDBQ 190145Z AUTO 34006KT 10SM CLR 17/08 A2992 1080 55 1600 340/06 RMK AO2
94908KDBQ DBQ20080618195011606/18/08 19:50:31  5-MIN KDBQ 190150Z AUTO 34006KT 10SM CLR 17/08 A2992 1080 57 1600 340/06 RMK AO2 SLP130 T01670083
94908KDBQ DBQ20080618195509906/18/08 19:55:31  5-MIN KDBQ 190155Z AUTO 34005KT 10SM CLR 17/08 A2992 1080 55 1600 340/05 RMK AO2
94908KDBQ DBQ20080618200009906/18/08 20:00:31  5-MIN KDBQ 190200Z AUTO 35006KT 10SM CLR 17/08 A2992 1080 55 1600 350/06 RMK AO2
94908KDBQ DBQ20080618200509906/18/08 20:05:31  5-MIN KDBQ 190205Z AUTO 35005KT 10SM CLR 16/08 A2992 1080 59 1400 350/05 RMK AO2
94908KDBQ DBQ20080618201009906/18/08 20:10:31  5-MIN KDBQ 190210Z AUTO 35005KT 10SM CLR 17/07 A2993 1070 53 1600 350/05 RMK AO2
94908KDBQ DBQ20080618201509906/18/08 20:15:31  5-MIN KDBQ 190215Z AUTO 35006KT 10SM CLR 17/07 A2993 1070 53 1600 350/06 RMK AO2
94908KDBQ DBQ20080618202009906/18/08 20:20:31  5-MIN KDBQ 190220Z AUTO 35005KT 10SM CLR 16/07 A2993 1070 55 1500 350/05 RMK AO2
94908KDBQ DBQ20080618202509906/18/08 20:25:31  5-MIN KDBQ 190225Z AUTO 35005KT 10SM CLR 17/07 A2993 1070 51 1600 350/05 RMK AO2
94908KDBQ DBQ20080618203009906/18/08 20:30:31  5-MIN KDBQ 190230Z AUTO 36005KT 10SM CLR 17/07 A2993 1070 53 1600 360/05 RMK AO2
94908KDBQ DBQ20080618203509906/18/08 20:35:31  5-MIN KDBQ 190235Z AUTO 36005KT 10SM CLR 17/07 A2993 1070 51 1500 360/05 RMK AO2
94908KDBQ DBQ20080618204009906/18/08 20:40:31  5-MIN KDBQ 190240Z AUTO 36004KT 10SM CLR 17/07 A2994 1060 49 1600 360/04 RMK AO2
94908KDBQ DBQ20080618204509906/18/08 20:45:31  5-MIN KDBQ 190245Z AUTO 36004KT 10SM CLR 17/06 A2993 1070 47 1600 360/04 RMK AO2
94908KDBQ DBQ20080618205012206/18/08 20:50:31  5-MIN KDBQ 190250Z AUTO 36004KT 10SM CLR 17/07 A2994 1060 51 1500 360/04 RMK AO2 SLP133 T01670067 55006
94908KDBQ DBQ20080618205509906/18/08 20:55:31  5-MIN KDBQ 190255Z AUTO 01004KT 10SM CLR 16/07 A2993 1070 57 1400 010/04 RMK AO2
94908KDBQ DBQ20080618210009906/18/08 21:00:31  5-MIN KDBQ 190300Z AUTO 01003KT 10SM CLR 16/07 A2994 1060 57 1400 010/03 RMK AO2
94908KDBQ DBQ20080618210509906/18/08 21:05:31  5-MIN KDBQ 190305Z AUTO 35003KT 10SM CLR 16/07 A2994 1060 55 1400 350/03 RMK AO2
94908KDBQ DBQ20080618211009906/18/08 21:10:31  5-MIN KDBQ 190310Z AUTO 00000KT 10SM CLR 15/07 A2994 1060 59 1300 000/00 RMK AO2
94908KDBQ DBQ20080618211509906/18/08 21:15:31  5-MIN KDBQ 190315Z AUTO 00000KT 10SM CLR 14/09 A2995 1050 71 1200 000/00 RMK AO2
94908KDBQ DBQ20080618212009906/18/08 21:20:31  5-MIN KDBQ 190320Z AUTO 00000KT 10SM CLR 15/08 A2995 1050 64 1300 000/00 RMK AO2
94908KDBQ DBQ20080618212509906/18/08 21:25:31  5-MIN KDBQ 190325Z AUTO 00000KT 10SM CLR 14/08 A2995 1050 64 1300 000/00 RMK AO2
94908KDBQ DBQ20080618213009906/18/08 21:30:31  5-MIN KDBQ 190330Z AUTO 00000KT 10SM CLR 16/08 A2995 1060 59 1400 000/00 RMK AO2
94908KDBQ DBQ20080618213509906/18/08 21:35:31  5-MIN KDBQ 190335Z AUTO 00000KT 10SM CLR 15/08 A2995 1050 62 1300 000/00 RMK AO2
94908KDBQ DBQ20080618214009906/18/08 21:40:31  5-MIN KDBQ 190340Z AUTO 00000KT 10SM CLR 14/09 A2995 1050 74 1200 000/00 RMK AO2
94908KDBQ DBQ20080618214509906/18/08 21:45:31  5-MIN KDBQ 190345Z AUTO 00000KT 10SM CLR 14/10 A2995 1050 77 1200 000/00 RMK AO2
94908KDBQ DBQ20080618215011606/18/08 21:50:31  5-MIN KDBQ 190350Z AUTO 00000KT 10SM CLR 14/10 A2995 1050 77 1200 000/00 RMK AO2 SLP140 T01390100
94908KDBQ DBQ20080618215509906/18/08 21:55:31  5-MIN KDBQ 190355Z AUTO 00000KT 10SM CLR 14/09 A2995 1050 72 1300 000/00 RMK AO2
94908KDBQ DBQ20080618220009906/18/08 22:00:31  5-MIN KDBQ 190400Z AUTO 00000KT 10SM CLR 14/09 A2996 1050 72 1300 000/00 RMK AO2
94908KDBQ DBQ20080618220509906/18/08 22:05:31  5-MIN KDBQ 190405Z AUTO 00000KT 10SM CLR 14/08 A2995 1050 69 1200 000/00 RMK AO2
94908KDBQ DBQ20080618221009906/18/08 22:10:31  5-MIN KDBQ 190410Z AUTO 00000KT 10SM CLR 14/09 A2996 1050 71 1200 000/00 RMK AO2
94908KDBQ DBQ20080618221509906/18/08 22:15:31  5-MIN KDBQ 190415Z AUTO 00000KT 10SM CLR 14/09 A2995 1050 71 1200 000/00 RMK AO2
94908KDBQ DBQ20080618222009906/18/08 22:20:31  5-MIN KDBQ 190420Z AUTO 00000KT 10SM CLR 14/08 A2995 1050 64 1300 000/00 RMK AO2
94908KDBQ DBQ20080618222509906/18/08 22:25:31  5-MIN KDBQ 190425Z AUTO 00000KT 10SM CLR 13/09 A2995 1050 77 1100 000/00 RMK AO2
94908KDBQ DBQ20080618223009906/18/08 22:30:31  5-MIN KDBQ 190430Z AUTO 00000KT 10SM CLR 13/09 A2995 1050 77 1100 000/00 RMK AO2
94908KDBQ DBQ20080618223509906/18/08 22:35:31  5-MIN KDBQ 190435Z AUTO 00000KT 10SM CLR 14/09 A2995 1050 74 1200 000/00 RMK AO2
94908KDBQ DBQ20080618224009906/18/08 22:40:31  5-MIN KDBQ 190440Z AUTO 00000KT 10SM CLR 14/09 A2995 1050 71 1200 000/00 RMK AO2
94908KDBQ DBQ20080618224509906/18/08 22:45:31  5-MIN KDBQ 190445Z AUTO 00000KT 10SM CLR 13/09 A2995 1050 74 1100 000/00 RMK AO2
94908KDBQ DBQ20080618225011606/18/08 22:50:31  5-MIN KDBQ 190450Z AUTO 00000KT 10SM CLR 13/09 A2995 1050 74 1100 000/00 RMK AO2 SLP141 T01330089
94908KDBQ DBQ20080618225509906/18/08 22:55:31  5-MIN KDBQ 190455Z AUTO 00000KT 10SM CLR 13/08 A2995 1050 71 1100 000/00 RMK AO2
94908KDBQ DBQ20080618230009906/18/08 23:00:31  5-MIN KDBQ 190500Z AUTO 01003KT 10SM CLR 14/07 A2995 1050 61 1300 010/03 RMK AO2
94908KDBQ DBQ20080618230509906/18/08 23:05:31  5-MIN KDBQ 190505Z AUTO 01003KT 10SM CLR 15/07 A2995 1050 59 1300 010/03 RMK AO2
94908KDBQ DBQ20080618231009906/18/08 23:10:31  5-MIN KDBQ 190510Z AUTO 00000KT 10SM CLR 13/08 A2995 1050 74 1100 000/00 RMK AO2
94908KDBQ DBQ20080618231509906/18/08 23:15:31  5-MIN KDBQ 190515Z AUTO 00000KT 10SM CLR 13/09 A2995 1050 80 1100 000/00 RMK AO2
94908KDBQ DBQ20080618232009906/18/08 23:20:31  5-MIN KDBQ 190520Z AUTO 00000KT 10SM CLR 13/09 A2995 1050 77 1100 000/00 RMK AO2
94908KDBQ DBQ20080618232509906/18/08 23:25:31  5-MIN KDBQ 190525Z AUTO 00000KT 10SM CLR 13/09 A2995 1050 74 1100 000/00 RMK AO2
94908KDBQ DBQ20080618233009906/18/08 23:30:31  5-MIN KDBQ 190530Z AUTO 00000KT 10SM CLR 14/08 A2995 1050 69 1200 000/00 RMK AO2
94908KDBQ DBQ20080618233509906/18/08 23:35:31  5-MIN KDBQ 190535Z AUTO 00000KT 10SM CLR 13/08 A2995 1050 71 1100 000/00 RMK AO2
94908KDBQ DBQ20080618234009906/18/08 23:40:31  5-MIN KDBQ 190540Z AUTO 00000KT 10SM CLR 13/09 A2995 1050 74 1100 000/00 RMK AO2
94908KDBQ DBQ20080618234509906/18/08 23:45:31  5-MIN KDBQ 190545Z AUTO 00000KT 10SM CLR 13/09 A2995 1050 74 1100 000/00 RMK AO2
94908KDBQ DBQ20080618235014406/18/08 23:50:31  5-MIN KDBQ 190550Z AUTO 00000KT 10SM CLR 13/08 A2995 1050 71 1100 000/00 RMK AO2 SLP138 T01330083 10239 20128 402560122 53006
94908KDBQ DBQ20080618235509906/18/08 23:55:31  5-MIN KDBQ 190555Z AUTO 00000KT 10SM CLR 13/08 A2994 1060 74 1100 000/00 RMK AO2
94908KDBQ DBQ20080619000009906/19/08 00:00:38  5-MIN KDBQ 190600Z AUTO 00000KT 10SM CLR 14/08 A2994 1060 69 1200 000/00 RMK AO2
94908KDBQ DBQ20080619000509906/19/08 00:05:31  5-MIN KDBQ 190605Z AUTO 00000KT 10SM CLR 13/08 A2994 1060 71 1200 000/00 RMK AO2
94908KDBQ DBQ20080619001009906/19/08 00:10:31  5-MIN KDBQ 190610Z AUTO 00000KT 10SM CLR 13/08 A2994 1060 71 1200 000/00 RMK AO2
94908KDBQ DBQ20080619001509906/19/08 00:15:31  5-MIN KDBQ 190615Z AUTO 00000KT 10SM CLR 12/09 A2994 1060 80 1000 000/00 RMK AO2
94908KDBQ DBQ20080619002009906/19/08 00:20:31  5-MIN KDBQ 190620Z AUTO 00000KT 10SM CLR 12/09 A2994 1060 80 1000 000/00 RMK AO2
94908KDBQ DBQ20080619002509906/19/08 00:25:31  5-MIN KDBQ 190625Z AUTO 00000KT 10SM CLR 13/08 A2994 1060 74 1100 000/00 RMK AO2
94908KDBQ DBQ20080619003009906/19/08 00:30:31  5-MIN KDBQ 190630Z AUTO 00000KT 10SM CLR 13/08 A2994 1060 71 1100 000/00 RMK AO2
94908KDBQ DBQ20080619003509906/19/08 00:35:31  5-MIN KDBQ 190635Z AUTO 00000KT 10SM CLR 13/08 A2994 1060 71 1100 000/00 RMK AO2
94908KDBQ DBQ20080619004009906/19/08 00:40:31  5-MIN KDBQ 190640Z AUTO 00000KT 10SM CLR 13/08 A2994 1060 71 1100 000/00 RMK AO2
94908KDBQ DBQ20080619004509906/19/08 00:45:31  5-MIN KDBQ 190645Z AUTO 00000KT 10SM CLR 13/09 A2994 1060 77 1100 000/00 RMK AO2
94908KDBQ DBQ20080619005011606/19/08 00:50:31  5-MIN KDBQ 190650Z AUTO 00000KT 10SM CLR 13/09 A2995 1050 77 1100 000/00 RMK AO2 SLP138 T01280089
94908KDBQ DBQ20080619005509906/19/08 00:55:31  5-MIN KDBQ 190655Z AUTO 00000KT 10SM CLR 12/09 A2995 1050 83 1000 000/00 RMK AO2
94908KDBQ DBQ20080619010009906/19/08 01:00:31  5-MIN KDBQ 190700Z AUTO 00000KT 10SM CLR 13/09 A2995 1050 80 1100 000/00 RMK AO2
94908KDBQ DBQ20080619010509906/19/08 01:05:31  5-MIN KDBQ 190705Z AUTO 00000KT 10SM CLR 13/09 A2995 1050 77 1100 000/00 RMK AO2
94908KDBQ DBQ20080619011009906/19/08 01:10:31  5-MIN KDBQ 190710Z AUTO 00000KT 10SM CLR 13/09 A2995 1050 77 1100 000/00 RMK AO2
94908KDBQ DBQ20080619011509906/19/08 01:15:31  5-MIN KDBQ 190715Z AUTO 00000KT 10SM CLR 13/09 A2995 1050 77 1100 000/00 RMK AO2
94908KDBQ DBQ20080619012009906/19/08 01:20:31  5-MIN KDBQ 190720Z AUTO 00000KT 10SM CLR 12/09 A2995 1050 80 1000 000/00 RMK AO2
94908KDBQ DBQ20080619012509906/19/08 01:25:31  5-MIN KDBQ 190725Z AUTO 00000KT 10SM CLR 12/09 A2995 1050 80 1000 000/00 RMK AO2
94908KDBQ DBQ20080619013009906/19/08 01:30:31  5-MIN KDBQ 190730Z AUTO 00000KT 10SM CLR 12/09 A2995 1050 80 1000 000/00 RMK AO2
94908KDBQ DBQ20080619013509806/19/08 01:35:31  5-MIN KDBQ 190735Z AUTO 00000KT 10SM CLR 12/09 A2995 1050 83 900 000/00 RMK AO2
94908KDBQ DBQ20080619014009906/19/08 01:40:31  5-MIN KDBQ 190740Z AUTO 00000KT 10SM CLR 12/09 A2995 1050 80 1000 000/00 RMK AO2
94908KDBQ DBQ20080619014509906/19/08 01:45:31  5-MIN KDBQ 190745Z AUTO 00000KT 10SM CLR 12/09 A2995 1050 80 1000 000/00 RMK AO2
94908KDBQ DBQ20080619015011606/19/08 01:50:31  5-MIN KDBQ 190750Z AUTO 00000KT 10SM CLR 12/09 A2995 1050 80 1000 000/00 RMK AO2 SLP140 T01220089
94908KDBQ DBQ20080619015509806/19/08 01:55:31  5-MIN KDBQ 190755Z AUTO 00000KT 10SM CLR 12/08 A2995 1050 80 900 000/00 RMK AO2
94908KDBQ DBQ20080619020009806/19/08 02:00:31  5-MIN KDBQ 190800Z AUTO 00000KT 10SM CLR 12/08 A2995 1050 80 900 000/00 RMK AO2
94908KDBQ DBQ20080619020509906/19/08 02:05:31  5-MIN KDBQ 190805Z AUTO 00000KT 10SM CLR 12/08 A2995 1050 77 1000 000/00 RMK AO2
94908KDBQ DBQ20080619021009906/19/08 02:10:31  5-MIN KDBQ 190810Z AUTO 00000KT 10SM CLR 12/08 A2995 1050 77 1000 000/00 RMK AO2
94908KDBQ DBQ20080619021509906/19/08 02:15:31  5-MIN KDBQ 190815Z AUTO 00000KT 10SM CLR 12/08 A2995 1050 77 1000 000/00 RMK AO2
94908KDBQ DBQ20080619022009806/19/08 02:20:31  5-MIN KDBQ 190820Z AUTO 00000KT 10SM CLR 12/08 A2994 1060 80 900 000/00 RMK AO2
94908KDBQ DBQ20080619022509806/19/08 02:25:31  5-MIN KDBQ 190825Z AUTO 00000KT 10SM CLR 12/08 A2994 1060 77 900 000/00 RMK AO2
94908KDBQ DBQ20080619023009806/19/08 02:30:31  5-MIN KDBQ 190830Z AUTO 00000KT 10SM CLR 12/08 A2994 1060 77 900 000/00 RMK AO2
94908KDBQ DBQ20080619023509906/19/08 02:35:31  5-MIN KDBQ 190835Z AUTO 00000KT 10SM CLR 12/08 A2995 1060 74 1000 000/00 RMK AO2
94908KDBQ DBQ20080619024009806/19/08 02:40:31  5-MIN KDBQ 190840Z AUTO 00000KT 10SM CLR 11/08 A2995 1060 80 900 000/00 RMK AO2
94908KDBQ DBQ20080619024509806/19/08 02:45:31  5-MIN KDBQ 190845Z AUTO 00000KT 10SM CLR 11/08 A2994 1060 83 800 000/00 RMK AO2
94908KDBQ DBQ20080619025012106/19/08 02:50:31  5-MIN KDBQ 190850Z AUTO 00000KT 10SM CLR 11/08 A2994 1060 80 900 000/00 RMK AO2 SLP135 T01110078 50003
94908KDBQ DBQ20080619025509906/19/08 02:55:31  5-MIN KDBQ 190855Z AUTO 00000KT 10SM CLR 12/08 A2993 1060 77 1000 000/00 RMK AO2
94908KDBQ DBQ20080619030009806/19/08 03:00:31  5-MIN KDBQ 190900Z AUTO 00000KT 10SM CLR 11/08 A2994 1060 80 900 000/00 RMK AO2
94908KDBQ DBQ20080619030509806/19/08 03:05:31  5-MIN KDBQ 190905Z AUTO 00000KT 10SM CLR 11/08 A2993 1070 80 900 000/00 RMK AO2
94908KDBQ DBQ20080619031009806/19/08 03:10:31  5-MIN KDBQ 190910Z AUTO 00000KT 10SM CLR 11/07 A2993 1070 80 800 000/00 RMK AO2
94908KDBQ DBQ20080619031509806/19/08 03:15:31  5-MIN KDBQ 190915Z AUTO 00000KT 10SM CLR 11/08 A2993 1070 83 800 000/00 RMK AO2
94908KDBQ DBQ20080619032009806/19/08 03:20:31  5-MIN KDBQ 190920Z AUTO 00000KT 10SM CLR 11/08 A2994 1060 80 900 000/00 RMK AO2
94908KDBQ DBQ20080619032509806/19/08 03:25:31  5-MIN KDBQ 190925Z AUTO 00000KT 10SM CLR 11/08 A2994 1060 80 900 000/00 RMK AO2
94908KDBQ DBQ20080619033009906/19/08 03:30:31  5-MIN KDBQ 190930Z AUTO 00000KT 10SM CLR 12/07 A2994 1060 74 1000 000/00 RMK AO2
94908KDBQ DBQ20080619033509906/19/08 03:35:31  5-MIN KDBQ 190935Z AUTO 00000KT 10SM CLR 12/08 A2994 1060 77 1000 000/00 RMK AO2
94908KDBQ DBQ20080619034009806/19/08 03:40:31  5-MIN KDBQ 190940Z AUTO 00000KT 10SM CLR 12/08 A2994 1060 77 900 000/00 RMK AO2
94908KDBQ DBQ20080619034509806/19/08 03:45:31  5-MIN KDBQ 190945Z AUTO 00000KT 10SM CLR 11/08 A2994 1060 80 900 000/00 RMK AO2
94908KDBQ DBQ20080619035011506/19/08 03:50:31  5-MIN KDBQ 190950Z AUTO 00000KT 10SM CLR 11/08 A2995 1050 80 900 000/00 RMK AO2 SLP138 T01110078
94908KDBQ DBQ20080619035509806/19/08 03:55:31  5-MIN KDBQ 190955Z AUTO 00000KT 10SM CLR 12/07 A2995 1050 74 900 000/00 RMK AO2
94908KDBQ DBQ20080619040009806/19/08 04:00:31  5-MIN KDBQ 191000Z AUTO 00000KT 10SM CLR 11/07 A2995 1050 80 800 000/00 RMK AO2
94908KDBQ DBQ20080619040509806/19/08 04:05:31  5-MIN KDBQ 191005Z AUTO 00000KT 10SM CLR 11/07 A2995 1050 77 900 000/00 RMK AO2
94908KDBQ DBQ20080619041009806/19/08 04:10:31  5-MIN KDBQ 191010Z AUTO 00000KT 10SM CLR 11/08 A2995 1050 80 900 000/00 RMK AO2
94908KDBQ DBQ20080619041509806/19/08 04:15:31  5-MIN KDBQ 191015Z AUTO 00000KT 10SM CLR 11/08 A2995 1050 80 900 000/00 RMK AO2
94908KDBQ DBQ20080619042009806/19/08 04:20:31  5-MIN KDBQ 191020Z AUTO 00000KT 10SM CLR 11/08 A2995 1050 83 800 000/00 RMK AO2
94908KDBQ DBQ20080619042509806/19/08 04:25:31  5-MIN KDBQ 191025Z AUTO 00000KT 10SM CLR 10/08 A2995 1050 86 700 000/00 RMK AO2
94908KDBQ DBQ20080619043009806/19/08 04:30:31  5-MIN KDBQ 191030Z AUTO 00000KT 10SM CLR 10/08 A2995 1050 86 700 000/00 RMK AO2
94908KDBQ DBQ20080619043509806/19/08 04:35:31  5-MIN KDBQ 191035Z AUTO 00000KT 10SM CLR 11/08 A2996 1050 83 800 000/00 RMK AO2
94908KDBQ DBQ20080619044009806/19/08 04:40:31  5-MIN KDBQ 191040Z AUTO 00000KT 10SM CLR 10/08 A2996 1040 86 700 000/00 RMK AO2
94908KDBQ DBQ20080619044509806/19/08 04:45:31  5-MIN KDBQ 191045Z AUTO 00000KT 10SM CLR 09/07 A2996 1040 86 700 000/00 RMK AO2
94908KDBQ DBQ20080619045011506/19/08 04:50:31  5-MIN KDBQ 191050Z AUTO 00000KT 10SM CLR 11/08 A2996 1040 83 800 000/00 RMK AO2 SLP144 T01060078
94908KDBQ DBQ20080619045509306/19/08 04:55:31  5-MIN KDBQ 191055Z 00000KT 10SM CLR 11/08 A2996 1040 83 800 000/00 RMK AO2
94908KDBQ DBQ20080619050009306/19/08 05:00:31  5-MIN KDBQ 191100Z 00000KT 10SM CLR 11/08 A2997 1030 83 800 000/00 RMK AO2
94908KDBQ DBQ20080619050509306/19/08 05:05:31  5-MIN KDBQ 191105Z 00000KT 10SM CLR 11/08 A2997 1030 80 800 000/00 RMK AO2
94908KDBQ DBQ20080619051009306/19/08 05:10:31  5-MIN KDBQ 191110Z 00000KT 10SM CLR 12/08 A2998 1020 80 900 000/00 RMK AO2
94908KDBQ DBQ20080619051509306/19/08 05:15:31  5-MIN KDBQ 191115Z 00000KT 10SM CLR 12/08 A2998 1020 80 900 000/00 RMK AO2
94908KDBQ DBQ20080619052009306/19/08 05:20:31  5-MIN KDBQ 191120Z 00000KT 10SM CLR 12/09 A2998 1020 83 900 000/00 RMK AO2
94908KDBQ DBQ20080619052509406/19/08 05:25:31  5-MIN KDBQ 191125Z 00000KT 10SM CLR 12/09 A2998 1020 80 1000 000/00 RMK AO2
94908KDBQ DBQ20080619053009406/19/08 05:30:31  5-MIN KDBQ 191130Z 00000KT 10SM CLR 12/09 A2998 1030 80 1000 000/00 RMK AO2
94908KDBQ DBQ20080619053509406/19/08 05:35:31  5-MIN KDBQ 191135Z 09004KT 10SM CLR 13/09 A2997 1030 80 1100 080/04 RMK AO2
94908KDBQ DBQ20080619054009406/19/08 05:40:31  5-MIN KDBQ 191140Z 07004KT 10SM CLR 13/09 A2997 1040 77 1100 070/04 RMK AO2
94908KDBQ DBQ20080619054509406/19/08 05:45:31  5-MIN KDBQ 191145Z 00000KT 10SM CLR 14/10 A2997 1040 77 1200 000/00 RMK AO2
94908KDBQ DBQ20080619055012906/19/08 05:50:31  5-MIN KDBQ 191150Z 00000KT 10SM CLR 14/11 A2996 1040 77 1300 000/00 RMK AO2 SLP143 T01440106 10144 20094 58002
94908KDBQ DBQ20080619055509406/19/08 05:55:31  5-MIN KDBQ 191155Z 00000KT 10SM CLR 15/11 A2996 1040 77 1300 000/00 RMK AO2
94908KDBQ DBQ20080619060009406/19/08 06:00:31  5-MIN KDBQ 191200Z 00000KT 10SM CLR 16/11 A2996 1040 72 1400 000/00 RMK AO2
94908KDBQ DBQ20080619060509406/19/08 06:05:31  5-MIN KDBQ 191205Z 00000KT 10SM CLR 17/09 A2996 1040 62 1500 000/00 RMK AO2
94908KDBQ DBQ20080619061009406/19/08 06:10:31  5-MIN KDBQ 191210Z 00000KT 10SM CLR 17/11 A2996 1040 67 1500 000/00 RMK AO2
94908KDBQ DBQ20080619061509406/19/08 06:15:31  5-MIN KDBQ 191215Z 00000KT 10SM CLR 16/10 A2997 1040 67 1400 000/00 RMK AO2
94908KDBQ DBQ20080619062009406/19/08 06:20:31  5-MIN KDBQ 191220Z 00000KT 10SM CLR 16/10 A2997 1040 67 1400 000/00 RMK AO2
94908KDBQ DBQ20080619062509406/19/08 06:25:31  5-MIN KDBQ 191225Z 00000KT 10SM CLR 16/12 A2997 1040 75 1400 000/00 RMK AO2
94908KDBQ DBQ20080619063009406/19/08 06:30:31  5-MIN KDBQ 191230Z 00000KT 10SM CLR 17/10 A2996 1040 64 1500 000/00 RMK AO2
94908KDBQ DBQ20080619063509406/19/08 06:35:31  5-MIN KDBQ 191235Z 00000KT 10SM CLR 17/09 A2997 1030 60 1600 000/00 RMK AO2
94908KDBQ DBQ20080619064009406/19/08 06:40:31  5-MIN KDBQ 191240Z 00000KT 10SM CLR 17/09 A2997 1030 60 1600 000/00 RMK AO2
94908KDBQ DBQ20080619064509406/19/08 06:45:31  5-MIN KDBQ 191245Z 00000KT 10SM CLR 18/09 A2997 1030 58 1600 000/00 RMK AO2
94908KDBQ DBQ20080619065011106/19/08 06:50:31  5-MIN KDBQ 191250Z 00000KT 10SM CLR 18/09 A2998 1030 54 1700 000/00 RMK AO2 SLP147 T01830089
94908KDBQ DBQ20080619065509406/19/08 06:55:31  5-MIN KDBQ 191255Z 00000KT 10SM CLR 18/09 A2998 1020 55 1600 000/00 RMK AO2
94908KDBQ DBQ20080619070009406/19/08 07:00:31  5-MIN KDBQ 191300Z 00000KT 10SM CLR 18/09 A2998 1020 54 1700 000/00 RMK AO2
94908KDBQ DBQ20080619070509406/19/08 07:05:31  5-MIN KDBQ 191305Z 00000KT 10SM CLR 18/09 A2999 1010 54 1700 000/00 RMK AO2
94908KDBQ DBQ20080619071009406/19/08 07:10:31  5-MIN KDBQ 191310Z 00000KT 10SM CLR 18/09 A2999 1010 54 1700 000/00 RMK AO2
94908KDBQ DBQ20080619071509406/19/08 07:15:31  5-MIN KDBQ 191315Z 00000KT 10SM CLR 18/09 A2999 1010 54 1700 000/00 RMK AO2
94908KDBQ DBQ20080619072009406/19/08 07:20:31  5-MIN KDBQ 191320Z 00000KT 10SM CLR 19/09 A2999 1010 54 1700 000/00 RMK AO2
94908KDBQ DBQ20080619072509406/19/08 07:25:31  5-MIN KDBQ 191325Z 00000KT 10SM CLR 19/09 A2999 1010 52 1800 000/00 RMK AO2
94908KDBQ DBQ20080619073009406/19/08 07:30:31  5-MIN KDBQ 191330Z 00000KT 10SM CLR 20/09 A3000 1010 48 1900 000/00 RMK AO2
94908KDBQ DBQ20080619073509406/19/08 07:35:31  5-MIN KDBQ 191335Z 00000KT 10SM CLR 20/09 A2999 1010 48 1900 000/00 RMK AO2
94908KDBQ DBQ20080619074009406/19/08 07:40:31  5-MIN KDBQ 191340Z 00000KT 10SM CLR 20/08 A2999 1010 46 1900 000/00 RMK AO2
94908KDBQ DBQ20080619074509406/19/08 07:45:31  5-MIN KDBQ 191345Z 00000KT 10SM CLR 20/08 A2999 1010 46 1900 000/00 RMK AO2
94908KDBQ DBQ20080619075011106/19/08 07:50:31  5-MIN KDBQ 191350Z 00000KT 10SM CLR 21/08 A2999 1010 45 1900 000/00 RMK AO2 SLP154 T02060083
94908KDBQ DBQ20080619075509406/19/08 07:55:31  5-MIN KDBQ 191355Z 00000KT 10SM CLR 21/07 A3000 1010 41 1900 000/00 RMK AO2
94908KDBQ DBQ20080619080009406/19/08 08:00:31  5-MIN KDBQ 191400Z 00000KT 10SM CLR 21/07 A3000 1010 41 1900 000/00 RMK AO2
94908KDBQ DBQ20080619080509406/19/08 08:05:31  5-MIN KDBQ 191405Z 00000KT 10SM CLR 21/08 A3000 1000 43 2000 000/00 RMK AO2
94908KDBQ DBQ20080619081009406/19/08 08:10:31  5-MIN KDBQ 191410Z 00000KT 10SM CLR 22/08 A3000 1010 40 2100 000/00 RMK AO2
94908KDBQ DBQ20080619081509406/19/08 08:15:31  5-MIN KDBQ 191415Z 00000KT 10SM CLR 21/07 A3000 1010 40 2000 000/00 RMK AO2
94908KDBQ DBQ20080619082009406/19/08 08:20:31  5-MIN KDBQ 191420Z 32003KT 10SM CLR 21/07 A2999 1010 38 2000 320/03 RMK AO2
94908KDBQ DBQ20080619082509406/19/08 08:25:31  5-MIN KDBQ 191425Z 00000KT 10SM CLR 22/07 A3000 1010 37 2100 000/00 RMK AO2
94908KDBQ DBQ20080619083009406/19/08 08:30:31  5-MIN KDBQ 191430Z 00000KT 10SM CLR 22/08 A2999 1010 40 2100 000/00 RMK AO2
94908KDBQ DBQ20080619083509406/19/08 08:35:31  5-MIN KDBQ 191435Z 32003KT 10SM CLR 22/08 A2999 1010 42 2100 320/03 RMK AO2
94908KDBQ DBQ20080619084009406/19/08 08:40:31  5-MIN KDBQ 191440Z 00000KT 10SM CLR 22/08 A2999 1010 40 2100 000/00 RMK AO2
94908KDBQ DBQ20080619084509406/19/08 08:45:31  5-MIN KDBQ 191445Z 00000KT 10SM CLR 22/07 A2999 1010 37 2100 000/00 RMK AO2
94908KDBQ DBQ20080619085011706/19/08 08:50:31  5-MIN KDBQ 191450Z 01003KT 10SM CLR 23/07 A2999 1010 36 2200 010/03 RMK AO2 SLP153 T02280072 51009
94908KDBQ DBQ20080619085509406/19/08 08:55:31  5-MIN KDBQ 191455Z 33003KT 10SM CLR 23/06 A2999 1020 33 2200 330/03 RMK AO2
94908KDBQ DBQ20080619090009406/19/08 09:00:31  5-MIN KDBQ 191500Z 00000KT 10SM CLR 23/06 A2999 1020 33 2200 000/00 RMK AO2
94908KDBQ DBQ20080619090509406/19/08 09:05:31  5-MIN KDBQ 191505Z 30004KT 10SM CLR 23/06 A2998 1020 33 2200 300/04 RMK AO2
94908KDBQ DBQ20080619091009406/19/08 09:10:31  5-MIN KDBQ 191510Z 33003KT 10SM CLR 23/06 A2998 1020 33 2200 330/03 RMK AO2
94908KDBQ DBQ20080619091509406/19/08 09:15:31  5-MIN KDBQ 191515Z 00000KT 10SM CLR 23/06 A2998 1020 32 2300 000/00 RMK AO2
94908KDBQ DBQ20080619092009406/19/08 09:20:31  5-MIN KDBQ 191520Z 00000KT 10SM CLR 23/05 A2998 1030 31 2200 000/00 RMK AO2
94908KDBQ DBQ20080619092509406/19/08 09:25:31  5-MIN KDBQ 191525Z 33004KT 10SM CLR 23/05 A2998 1020 31 2200 330/04 RMK AO2
94908KDBQ DBQ20080619093009406/19/08 09:30:31  5-MIN KDBQ 191530Z VRB03KT 10SM CLR 23/05 A2998 1030 31 2200 VRB/03 RMK AO2
94908KDBQ DBQ20080619093509406/19/08 09:35:31  5-MIN KDBQ 191535Z 01004KT 10SM CLR 23/06 A2998 1030 31 2300 010/04 RMK AO2
94908KDBQ DBQ20080619094009406/19/08 09:40:31  5-MIN KDBQ 191540Z 00000KT 10SM CLR 23/06 A2998 1020 31 2300 000/00 RMK AO2
94908KDBQ DBQ20080619094509406/19/08 09:45:31  5-MIN KDBQ 191545Z 31003KT 10SM CLR 23/06 A2998 1020 31 2300 310/03 RMK AO2
94908KDBQ DBQ20080619095011106/19/08 09:50:31  5-MIN KDBQ 191550Z 30003KT 10SM CLR 23/06 A2998 1020 31 2300 300/03 RMK AO2 SLP149 T02330056
94908KDBQ DBQ20080619095509406/19/08 09:55:31  5-MIN KDBQ 191555Z VRB03KT 10SM CLR 23/04 A2998 1020 29 2300 VRB/03 RMK AO2
94908KDBQ DBQ20080619100009406/19/08 10:00:31  5-MIN KDBQ 191600Z 00000KT 10SM CLR 23/04 A2998 1020 29 2300 000/00 RMK AO2
94908KDBQ DBQ20080619100509406/19/08 10:05:31  5-MIN KDBQ 191605Z 00000KT 10SM CLR 23/03 A2998 1020 26 2300 000/00 RMK AO2
94908KDBQ DBQ20080619101009406/19/08 10:10:31  5-MIN KDBQ 191610Z VRB04KT 10SM CLR 24/04 A2998 1020 28 2300 VRB/04 RMK AO2
94908KDBQ DBQ20080619101509406/19/08 10:15:31  5-MIN KDBQ 191615Z 29003KT 10SM CLR 23/04 A2998 1020 29 2300 290/03 RMK AO2
94908KDBQ DBQ20080619102009406/19/08 10:20:31  5-MIN KDBQ 191620Z 28005KT 10SM CLR 23/04 A2999 1020 29 2300 280/05 RMK AO2
94908KDBQ DBQ20080619102509406/19/08 10:25:31  5-MIN KDBQ 191625Z 00000KT 10SM CLR 24/04 A2999 1020 27 2300 000/00 RMK AO2
94908KDBQ DBQ20080619103009406/19/08 10:30:31  5-MIN KDBQ 191630Z 32004KT 10SM CLR 24/04 A2999 1020 28 2300 320/04 RMK AO2
94908KDBQ DBQ20080619103509406/19/08 10:35:31  5-MIN KDBQ 191635Z 00000KT 10SM CLR 24/03 A2999 1020 26 2300 000/00 RMK AO2
94908KDBQ DBQ20080619104009406/19/08 10:40:31  5-MIN KDBQ 191640Z 00000KT 10SM CLR 23/03 A2999 1020 25 2300 000/00 RMK AO2
94908KDBQ DBQ20080619104509406/19/08 10:45:31  5-MIN KDBQ 191645Z 36005KT 10SM CLR 24/04 A2999 1020 28 2300 360/05 RMK AO2
94908KDBQ DBQ20080619105011106/19/08 10:50:31  5-MIN KDBQ 191650Z 02003KT 10SM CLR 24/04 A2999 1020 27 2400 010/03 RMK AO2 SLP152 T02440044
94908KDBQ DBQ20080619105509406/19/08 10:55:31  5-MIN KDBQ 191655Z 00000KT 10SM CLR 24/04 A2999 1020 27 2300 000/00 RMK AO2
94908KDBQ DBQ20080619110009406/19/08 11:00:31  5-MIN KDBQ 191700Z 03005KT 10SM CLR 24/06 A2998 1020 29 2400 030/05 RMK AO2
94908KDBQ DBQ20080619110509406/19/08 11:05:31  5-MIN KDBQ 191705Z 33006KT 10SM CLR 24/07 A2998 1020 31 2400 330/06 RMK AO2
94908KDBQ DBQ20080619111009406/19/08 11:10:31  5-MIN KDBQ 191710Z 33004KT 10SM CLR 24/06 A2998 1020 30 2400 330/04 RMK AO2
94908KDBQ DBQ20080619111509406/19/08 11:15:31  5-MIN KDBQ 191715Z 00000KT 10SM CLR 24/06 A2998 1020 29 2400 000/00 RMK AO2
94908KDBQ DBQ20080619112009406/19/08 11:20:31  5-MIN KDBQ 191720Z VRB03KT 10SM CLR 24/06 A2998 1020 29 2400 VRB/03 RMK AO2
94908KDBQ DBQ20080619112509406/19/08 11:25:31  5-MIN KDBQ 191725Z 35005KT 10SM CLR 24/06 A2998 1020 29 2400 340/05 RMK AO2
94908KDBQ DBQ20080619113009406/19/08 11:30:31  5-MIN KDBQ 191730Z VRB03KT 10SM CLR 24/06 A2998 1030 30 2400 VRB/03 RMK AO2
94908KDBQ DBQ20080619113509406/19/08 11:35:31  5-MIN KDBQ 191735Z VRB05KT 10SM CLR 25/07 A2998 1030 30 2500 VRB/05 RMK AO2
94908KDBQ DBQ20080619114009406/19/08 11:40:31  5-MIN KDBQ 191740Z VRB06KT 10SM CLR 24/07 A2998 1030 31 2400 VRB/06 RMK AO2
94908KDBQ DBQ20080619114509406/19/08 11:45:31  5-MIN KDBQ 191745Z 29005KT 10SM CLR 24/07 A2998 1030 33 2400 290/05 RMK AO2
94908KDBQ DBQ20080619115012906/19/08 11:50:31  5-MIN KDBQ 191750Z 00000KT 10SM CLR 24/05 A2997 1030 29 2300 000/00 RMK AO2 SLP147 T02390050 10250 20150 50009
94908KDBQ DBQ20080619115509406/19/08 11:55:31  5-MIN KDBQ 191755Z 32009KT 10SM CLR 24/07 A2997 1030 31 2400 320/09 RMK AO2
94908KDBQ DBQ20080619120009406/19/08 12:00:31  5-MIN KDBQ 191800Z 36008KT 10SM CLR 24/07 A2997 1030 31 2400 360/08 RMK AO2
94908KDBQ DBQ20080619120509406/19/08 12:05:31  5-MIN KDBQ 191805Z 33005KT 10SM CLR 24/07 A2997 1030 31 2400 330/05 RMK AO2
94908KDBQ DBQ20080619121009406/19/08 12:10:31  5-MIN KDBQ 191810Z 00000KT 10SM CLR 24/06 A2997 1040 30 2400 000/00 RMK AO2
94908KDBQ DBQ20080619121509406/19/08 12:15:31  5-MIN KDBQ 191815Z 00000KT 10SM CLR 25/07 A2997 1040 31 2500 000/00 RMK AO2
94908KDBQ DBQ20080619122009406/19/08 12:20:31  5-MIN KDBQ 191820Z VRB03KT 10SM CLR 24/06 A2996 1040 29 2400 VRB/03 RMK AO2
94908KDBQ DBQ20080619122509406/19/08 12:25:31  5-MIN KDBQ 191825Z VRB05KT 10SM CLR 25/07 A2997 1040 30 2500 VRB/05 RMK AO2
94908KDBQ DBQ20080619123009406/19/08 12:30:31  5-MIN KDBQ 191830Z 01005KT 10SM CLR 25/07 A2996 1040 31 2500 010/05 RMK AO2
94908KDBQ DBQ20080619123509406/19/08 12:35:31  5-MIN KDBQ 191835Z 36008KT 10SM CLR 26/07 A2996 1040 30 2500 360/08 RMK AO2
94908KDBQ DBQ20080619124009406/19/08 12:40:31  5-MIN KDBQ 191840Z 35007KT 10SM CLR 26/07 A2996 1040 30 2500 350/07 RMK AO2
94908KDBQ DBQ20080619124509706/19/08 12:45:31  5-MIN KDBQ 191845Z 01006KT 10SM FEW100 25/07 A2996 1040 31 2500 010/06 RMK AO2
94908KDBQ DBQ20080619125011406/19/08 12:50:31  5-MIN KDBQ 191850Z 35008KT 10SM FEW100 26/07 A2996 1040 30 2500 350/08 RMK AO2 SLP141 T02560072
94908KDBQ DBQ20080619125509406/19/08 12:55:31  5-MIN KDBQ 191855Z 33006KT 10SM CLR 25/08 A2996 1040 33 2500 330/06 RMK AO2
94908KDBQ DBQ20080619130009406/19/08 13:00:31  5-MIN KDBQ 191900Z 00000KT 10SM CLR 25/07 A2996 1040 30 2500 000/00 RMK AO2
94908KDBQ DBQ20080619130509406/19/08 13:05:31  5-MIN KDBQ 191905Z 01008KT 10SM CLR 25/07 A2996 1050 31 2500 010/08 RMK AO2
94908KDBQ DBQ20080619131009406/19/08 13:10:31  5-MIN KDBQ 191910Z 03004KT 10SM CLR 26/08 A2995 1050 33 2500 030/04 RMK AO2
94908KDBQ DBQ20080619131509406/19/08 13:15:31  5-MIN KDBQ 191915Z 34004KT 10SM CLR 26/08 A2995 1050 32 2500 340/04 RMK AO2
94908KDBQ DBQ20080619132009406/19/08 13:20:31  5-MIN KDBQ 191920Z 35005KT 10SM CLR 26/08 A2995 1050 32 2500 350/05 RMK AO2
94908KDBQ DBQ20080619132509406/19/08 13:25:31  5-MIN KDBQ 191925Z 32006KT 10SM CLR 26/08 A2995 1050 32 2500 320/06 RMK AO2
94908KDBQ DBQ20080619133009406/19/08 13:30:31  5-MIN KDBQ 191930Z 33005KT 10SM CLR 25/08 A2995 1050 33 2500 330/05 RMK AO2
94908KDBQ DBQ20080619133509406/19/08 13:35:31  5-MIN KDBQ 191935Z 31006KT 10SM CLR 25/08 A2995 1050 33 2500 310/06 RMK AO2
94908KDBQ DBQ20080619134009406/19/08 13:40:31  5-MIN KDBQ 191940Z 34005KT 10SM CLR 25/07 A2995 1050 31 2500 340/05 RMK AO2
94908KDBQ DBQ20080619134509406/19/08 13:45:31  5-MIN KDBQ 191945Z 31004KT 10SM CLR 26/07 A2995 1060 30 2600 310/04 RMK AO2
94908KDBQ DBQ20080619135011106/19/08 13:50:31  5-MIN KDBQ 191950Z 31003KT 10SM CLR 26/07 A2994 1060 30 2600 300/03 RMK AO2 SLP137 T02560072
94908KDBQ DBQ20080619135509406/19/08 13:55:31  5-MIN KDBQ 191955Z 05007KT 10SM CLR 26/07 A2994 1060 30 2600 050/07 RMK AO2
94908KDBQ DBQ20080619140009406/19/08 14:00:31  5-MIN KDBQ 192000Z 03005KT 10SM CLR 26/08 A2995 1060 32 2600 030/05 RMK AO2
94908KDBQ DBQ20080619140509406/19/08 14:05:31  5-MIN KDBQ 192005Z 00000KT 10SM CLR 26/07 A2995 1050 30 2500 000/00 RMK AO2
94908KDBQ DBQ20080619141009406/19/08 14:10:31  5-MIN KDBQ 192010Z 07005KT 10SM CLR 26/07 A2995 1050 30 2600 070/05 RMK AO2
94908KDBQ DBQ20080619141509406/19/08 14:15:31  5-MIN KDBQ 192015Z VRB05KT 10SM CLR 26/07 A2995 1060 29 2600 VRB/05 RMK AO2
94908KDBQ DBQ20080619142009406/19/08 14:20:31  5-MIN KDBQ 192020Z 08004KT 10SM CLR 26/07 A2994 1060 30 2600 080/04 RMK AO2
94908KDBQ DBQ20080619142509406/19/08 14:25:31  5-MIN KDBQ 192025Z 05006KT 10SM CLR 26/07 A2994 1060 29 2600 050/06 RMK AO2
94908KDBQ DBQ20080619143009406/19/08 14:30:31  5-MIN KDBQ 192030Z VRB03KT 10SM CLR 26/08 A2994 1060 31 2600 VRB/03 RMK AO2
94908KDBQ DBQ20080619143509406/19/08 14:35:31  5-MIN KDBQ 192035Z 34006KT 10SM CLR 26/08 A2994 1060 31 2600 340/06 RMK AO2
94908KDBQ DBQ20080619144009406/19/08 14:40:31  5-MIN KDBQ 192040Z 34004KT 10SM CLR 26/08 A2994 1060 32 2600 330/04 RMK AO2
94908KDBQ DBQ20080619144509406/19/08 14:45:31  5-MIN KDBQ 192045Z 33007KT 10SM CLR 26/08 A2994 1060 32 2600 330/07 RMK AO2
94908KDBQ DBQ20080619145011706/19/08 14:50:31  5-MIN KDBQ 192050Z 31007KT 10SM CLR 26/07 A2994 1060 30 2600 310/07 RMK AO2 SLP135 T02560072 57005
94908KDBQ DBQ20080619145509406/19/08 14:55:31  5-MIN KDBQ 192055Z 30006KT 10SM CLR 26/08 A2994 1060 32 2600 300/06 RMK AO2
94908KDBQ DBQ20080619150009406/19/08 15:00:31  5-MIN KDBQ 192100Z 30004KT 10SM CLR 26/07 A2993 1070 30 2600 300/04 RMK AO2
94908KDBQ DBQ20080619150509406/19/08 15:05:31  5-MIN KDBQ 192105Z 00000KT 10SM CLR 26/07 A2993 1070 29 2600 000/00 RMK AO2
94908KDBQ DBQ20080619151009406/19/08 15:10:31  5-MIN KDBQ 192110Z VRB05KT 10SM CLR 26/07 A2993 1070 29 2600 VRB/05 RMK AO2
94908KDBQ DBQ20080619151509406/19/08 15:15:31  5-MIN KDBQ 192115Z VRB03KT 10SM CLR 26/07 A2993 1070 28 2600 VRB/03 RMK AO2
94908KDBQ DBQ20080619152009406/19/08 15:20:31  5-MIN KDBQ 192120Z 01006KT 10SM CLR 26/07 A2993 1070 29 2600 010/06 RMK AO2
94908KDBQ DBQ20080619152509406/19/08 15:25:31  5-MIN KDBQ 192125Z 00000KT 10SM CLR 26/08 A2993 1070 31 2600 000/00 RMK AO2
94908KDBQ DBQ20080619153009406/19/08 15:30:31  5-MIN KDBQ 192130Z VRB03KT 10SM CLR 26/07 A2993 1070 28 2600 VRB/03 RMK AO2
94908KDBQ DBQ20080619153509406/19/08 15:35:31  5-MIN KDBQ 192135Z 01004KT 10SM CLR 26/07 A2993 1070 29 2600 010/04 RMK AO2
94908KDBQ DBQ20080619154009406/19/08 15:40:31  5-MIN KDBQ 192140Z 00000KT 10SM CLR 26/07 A2993 1070 28 2600 000/00 RMK AO2
94908KDBQ DBQ20080619154509406/19/08 15:45:31  5-MIN KDBQ 192145Z VRB04KT 10SM CLR 26/07 A2993 1070 28 2600 VRB/04 RMK AO2
94908KDBQ DBQ20080619155011106/19/08 15:50:31  5-MIN KDBQ 192150Z VRB05KT 10SM CLR 26/07 A2992 1070 29 2600 VRB/05 RMK AO2 SLP130 T02560067
94908KDBQ DBQ20080619155509406/19/08 15:55:31  5-MIN KDBQ 192155Z VRB03KT 10SM CLR 26/08 A2992 1080 31 2600 VRB/03 RMK AO2
94908KDBQ DBQ20080619160009406/19/08 16:00:31  5-MIN KDBQ 192200Z VRB03KT 10SM CLR 26/08 A2992 1080 31 2600 VRB/03 RMK AO2
94908KDBQ DBQ20080619160509406/19/08 16:05:31  5-MIN KDBQ 192205Z 01007KT 10SM CLR 26/08 A2993 1070 32 2600 010/07 RMK AO2
94908KDBQ DBQ20080619161009406/19/08 16:10:31  5-MIN KDBQ 192210Z 36005KT 10SM CLR 26/07 A2993 1070 30 2600 360/05 RMK AO2
94908KDBQ DBQ20080619161509406/19/08 16:15:31  5-MIN KDBQ 192215Z 02004KT 10SM CLR 26/08 A2993 1070 31 2600 020/04 RMK AO2
94908KDBQ DBQ20080619162009406/19/08 16:20:31  5-MIN KDBQ 192220Z 33006KT 10SM CLR 26/08 A2993 1070 32 2600 330/06 RMK AO2
94908KDBQ DBQ20080619162509406/19/08 16:25:31  5-MIN KDBQ 192225Z 36005KT 10SM CLR 26/08 A2993 1070 32 2600 360/05 RMK AO2
94908KDBQ DBQ20080619163009406/19/08 16:30:31  5-MIN KDBQ 192230Z 01007KT 10SM CLR 26/08 A2992 1080 31 2600 010/07 RMK AO2
94908KDBQ DBQ20080619163509406/19/08 16:35:31  5-MIN KDBQ 192235Z 01004KT 10SM CLR 26/08 A2992 1080 31 2600 010/04 RMK AO2
94908KDBQ DBQ20080619164009406/19/08 16:40:31  5-MIN KDBQ 192240Z 00000KT 10SM CLR 26/07 A2993 1070 29 2600 000/00 RMK AO2
94908KDBQ DBQ20080619164509406/19/08 16:45:31  5-MIN KDBQ 192245Z 04003KT 10SM CLR 26/07 A2993 1070 29 2600 040/03 RMK AO2
94908KDBQ DBQ20080619165011106/19/08 16:50:31  5-MIN KDBQ 192250Z VRB05KT 10SM CLR 26/08 A2992 1080 32 2600 VRB/05 RMK AO2 SLP130 T02610083
94908KDBQ DBQ20080619165509406/19/08 16:55:31  5-MIN KDBQ 192255Z 35003KT 10SM CLR 26/08 A2992 1080 32 2600 350/03 RMK AO2
94908KDBQ DBQ20080619170009406/19/08 17:00:31  5-MIN KDBQ 192300Z 35005KT 10SM CLR 26/08 A2992 1080 33 2600 350/05 RMK AO2
94908KDBQ DBQ20080619170509406/19/08 17:05:31  5-MIN KDBQ 192305Z 34005KT 10SM CLR 26/08 A2992 1080 32 2600 340/05 RMK AO2
94908KDBQ DBQ20080619171009406/19/08 17:10:31  5-MIN KDBQ 192310Z 02003KT 10SM CLR 26/08 A2992 1080 32 2600 020/03 RMK AO2
94908KDBQ DBQ20080619171509406/19/08 17:15:31  5-MIN KDBQ 192315Z 00000KT 10SM CLR 26/08 A2992 1080 32 2600 000/00 RMK AO2
94908KDBQ DBQ20080619172009406/19/08 17:20:31  5-MIN KDBQ 192320Z 00000KT 10SM CLR 26/06 A2992 1080 28 2600 000/00 RMK AO2
94908KDBQ DBQ20080619172509406/19/08 17:25:31  5-MIN KDBQ 192325Z 00000KT 10SM CLR 26/07 A2992 1080 29 2600 000/00 RMK AO2
94908KDBQ DBQ20080619173009406/19/08 17:30:31  5-MIN KDBQ 192330Z 00000KT 10SM CLR 26/06 A2992 1080 28 2600 000/00 RMK AO2
94908KDBQ DBQ20080619173509406/19/08 17:35:31  5-MIN KDBQ 192335Z 10003KT 10SM CLR 25/06 A2992 1080 29 2500 100/03 RMK AO2
94908KDBQ DBQ20080619174009406/19/08 17:40:31  5-MIN KDBQ 192340Z 00000KT 10SM CLR 25/06 A2992 1080 29 2500 000/00 RMK AO2
94908KDBQ DBQ20080619174509406/19/08 17:45:31  5-MIN KDBQ 192345Z 00000KT 10SM CLR 25/06 A2992 1080 29 2500 000/00 RMK AO2
94908KDBQ DBQ20080619175012906/19/08 17:50:31  5-MIN KDBQ 192350Z 00000KT 10SM CLR 25/06 A2992 1080 29 2500 000/00 RMK AO2 SLP129 T02500061 10261 20244 56012
94908KDBQ DBQ20080619175509406/19/08 17:55:31  5-MIN KDBQ 192355Z 00000KT 10SM CLR 25/07 A2993 1070 31 2500 000/00 RMK AO2
94908KDBQ DBQ20080619180009406/19/08 18:00:31  5-MIN KDBQ 200000Z 00000KT 10SM CLR 25/07 A2993 1070 31 2500 000/00 RMK AO2
94908KDBQ DBQ20080619180509406/19/08 18:05:31  5-MIN KDBQ 200005Z 16004KT 10SM CLR 25/07 A2993 1070 31 2500 160/04 RMK AO2
94908KDBQ DBQ20080619181009406/19/08 18:10:31  5-MIN KDBQ 200010Z 00000KT 10SM CLR 25/07 A2993 1070 31 2500 000/00 RMK AO2
94908KDBQ DBQ20080619181509406/19/08 18:15:31  5-MIN KDBQ 200015Z 20003KT 10SM CLR 24/08 A2994 1060 35 2400 200/03 RMK AO2
94908KDBQ DBQ20080619182009406/19/08 18:20:31  5-MIN KDBQ 200020Z 00000KT 10SM CLR 24/09 A2994 1060 36 2400 000/00 RMK AO2
94908KDBQ DBQ20080619182509406/19/08 18:25:31  5-MIN KDBQ 200025Z 00000KT 10SM CLR 24/08 A2994 1060 35 2400 000/00 RMK AO2
94908KDBQ DBQ20080619183009406/19/08 18:30:31  5-MIN KDBQ 200030Z 00000KT 10SM CLR 25/09 A2993 1070 37 2500 000/00 RMK AO2
94908KDBQ DBQ20080619183509406/19/08 18:35:31  5-MIN KDBQ 200035Z 00000KT 10SM CLR 25/09 A2993 1070 35 2500 000/00 RMK AO2
94908KDBQ DBQ20080619184009406/19/08 18:40:31  5-MIN KDBQ 200040Z 08003KT 10SM CLR 24/09 A2992 1070 39 2400 080/03 RMK AO2
94908KDBQ DBQ20080619184509406/19/08 18:45:31  5-MIN KDBQ 200045Z 09003KT 10SM CLR 24/10 A2992 1080 41 2400 090/03 RMK AO2
94908KDBQ DBQ20080619185011106/19/08 18:50:31  5-MIN KDBQ 200050Z 10003KT 10SM CLR 23/11 A2992 1080 44 2300 100/03 RMK AO2 SLP127 T02330106
94908KDBQ DBQ20080619185509406/19/08 18:55:31  5-MIN KDBQ 200055Z 12003KT 10SM CLR 23/10 A2992 1080 42 2300 120/03 RMK AO2
94908KDBQ DBQ20080619190009406/19/08 19:00:31  5-MIN KDBQ 200100Z 12003KT 10SM CLR 23/10 A2992 1080 44 2300 120/03 RMK AO2
94908KDBQ DBQ20080619190509406/19/08 19:05:31  5-MIN KDBQ 200105Z 13004KT 10SM CLR 23/11 A2992 1080 45 2300 120/04 RMK AO2
94908KDBQ DBQ20080619191009406/19/08 19:10:31  5-MIN KDBQ 200110Z 13003KT 10SM CLR 23/09 A2992 1080 42 2300 130/03 RMK AO2
94908KDBQ DBQ20080619191509406/19/08 19:15:31  5-MIN KDBQ 200115Z 13004KT 10SM CLR 23/10 A2992 1080 44 2300 130/04 RMK AO2
94908KDBQ DBQ20080619192009406/19/08 19:20:31  5-MIN KDBQ 200120Z 13004KT 10SM CLR 22/10 A2992 1080 45 2200 130/04 RMK AO2
94908KDBQ DBQ20080619192509406/19/08 19:25:31  5-MIN KDBQ 200125Z 14003KT 10SM CLR 22/10 A2992 1080 45 2200 130/03 RMK AO2
94908KDBQ DBQ20080619193009406/19/08 19:30:31  5-MIN KDBQ 200130Z 00000KT 10SM CLR 22/11 A2992 1080 47 2200 000/00 RMK AO2
94908KDBQ DBQ20080619193509406/19/08 19:35:31  5-MIN KDBQ 200135Z 12003KT 10SM CLR 22/10 A2992 1080 47 2100 120/03 RMK AO2
94908KDBQ DBQ20080619194009406/19/08 19:40:31  5-MIN KDBQ 200140Z 13004KT 10SM CLR 22/10 A2992 1080 47 2100 120/04 RMK AO2
94908KDBQ DBQ20080619194509406/19/08 19:45:31  5-MIN KDBQ 200145Z 13003KT 10SM CLR 22/09 A2992 1080 45 2100 130/03 RMK AO2
94908KDBQ DBQ20080619195011106/19/08 19:50:31  5-MIN KDBQ 200150Z 14004KT 10SM CLR 21/10 A2992 1080 48 2100 140/04 RMK AO2 SLP125 T02110100
94908KDBQ DBQ20080619195509406/19/08 19:55:31  5-MIN KDBQ 200155Z 14004KT 10SM CLR 21/11 A2992 1080 50 2100 140/04 RMK AO2
94908KDBQ DBQ20080619200009406/19/08 20:00:31  5-MIN KDBQ 200200Z 15003KT 10SM CLR 21/10 A2992 1080 48 2100 150/03 RMK AO2
94908KDBQ DBQ20080619200509406/19/08 20:05:31  5-MIN KDBQ 200205Z 16003KT 10SM CLR 21/11 A2992 1080 52 2000 160/03 RMK AO2
94908KDBQ DBQ20080619201009406/19/08 20:10:31  5-MIN KDBQ 200210Z 00000KT 10SM CLR 19/11 A2992 1080 58 1900 000/00 RMK AO2
94908KDBQ DBQ20080619201509406/19/08 20:15:31  5-MIN KDBQ 200215Z 00000KT 10SM CLR 18/11 A2993 1070 62 1800 000/00 RMK AO2
94908KDBQ DBQ20080619202009406/19/08 20:20:31  5-MIN KDBQ 200220Z 00000KT 10SM CLR 18/11 A2993 1070 62 1800 000/00 RMK AO2
94908KDBQ DBQ20080619202509406/19/08 20:25:31  5-MIN KDBQ 200225Z 00000KT 10SM CLR 19/11 A2993 1070 60 1800 000/00 RMK AO2
94908KDBQ DBQ20080619203009406/19/08 20:30:31  5-MIN KDBQ 200230Z 00000KT 10SM CLR 18/11 A2993 1070 62 1800 000/00 RMK AO2
94908KDBQ DBQ20080619203509406/19/08 20:35:31  5-MIN KDBQ 200235Z 15003KT 10SM CLR 19/11 A2993 1070 60 1800 150/03 RMK AO2
94908KDBQ DBQ20080619204009406/19/08 20:40:31  5-MIN KDBQ 200240Z 00000KT 10SM CLR 19/11 A2993 1070 60 1800 000/00 RMK AO2
94908KDBQ DBQ20080619204509406/19/08 20:45:31  5-MIN KDBQ 200245Z 00000KT 10SM CLR 19/11 A2993 1070 56 1900 000/00 RMK AO2
94908KDBQ DBQ20080619205011706/19/08 20:50:31  5-MIN KDBQ 200250Z 00000KT 10SM CLR 19/11 A2993 1070 58 1800 000/00 RMK AO2 SLP131 T01890106 55004
94908KDBQ DBQ20080619205509406/19/08 20:55:31  5-MIN KDBQ 200255Z 00000KT 10SM CLR 18/11 A2993 1070 60 1700 000/00 RMK AO2
94908KDBQ DBQ20080619210009406/19/08 21:00:31  5-MIN KDBQ 200300Z 00000KT 10SM CLR 17/11 A2994 1060 67 1600 000/00 RMK AO2
94908KDBQ DBQ20080619210509406/19/08 21:05:31  5-MIN KDBQ 200305Z 00000KT 10SM CLR 17/11 A2994 1060 67 1600 000/00 RMK AO2
94908KDBQ DBQ20080619211009406/19/08 21:10:31  5-MIN KDBQ 200310Z 00000KT 10SM CLR 18/11 A2994 1060 62 1700 000/00 RMK AO2
94908KDBQ DBQ20080619211509906/19/08 21:15:31  5-MIN KDBQ 200315Z AUTO 00000KT 10SM CLR 18/11 A2995 1050 64 1700 000/00 RMK AO2
94908KDBQ DBQ20080619212010406/19/08 21:20:31  5-MIN KDBQ 200320Z AUTO 00000KT 10SM CLR 17/11 A2995 1060 67 1600 000/00 RMK AO2 TSNO
94908KDBQ DBQ20080619212510406/19/08 21:25:31  5-MIN KDBQ 200325Z AUTO 00000KT 10SM CLR 18/10 A2995 1050 58 1700 000/00 RMK AO2 TSNO
94908KDBQ DBQ20080619213010406/19/08 21:30:31  5-MIN KDBQ 200330Z AUTO 00000KT 10SM CLR 18/11 A2995 1050 60 1700 000/00 RMK AO2 TSNO
94908KDBQ DBQ20080619213510406/19/08 21:35:31  5-MIN KDBQ 200335Z AUTO 00000KT 10SM CLR 19/10 A2995 1050 56 1800 000/00 RMK AO2 TSNO
94908KDBQ DBQ20080619214010406/19/08 21:40:31  5-MIN KDBQ 200340Z AUTO 00000KT 10SM CLR 18/10 A2995 1050 58 1700 000/00 RMK AO2 TSNO
94908KDBQ DBQ20080619214510406/19/08 21:45:31  5-MIN KDBQ 200345Z AUTO 00000KT 10SM CLR 18/10 A2995 1050 58 1700 000/00 RMK AO2 TSNO
94908KDBQ DBQ20080619215012106/19/08 21:50:31  5-MIN KDBQ 200350Z AUTO 00000KT 10SM CLR 19/10 A2995 1050 56 1800 000/00 RMK AO2 SLP138 T01890100 TSNO
94908KDBQ DBQ20080619215510406/19/08 21:55:31  5-MIN KDBQ 200355Z AUTO 00000KT 10SM CLR 19/10 A2996 1050 56 1800 000/00 RMK AO2 TSNO
94908KDBQ DBQ20080619220010406/19/08 22:00:31  5-MIN KDBQ 200400Z AUTO 00000KT 10SM CLR 19/10 A2996 1050 56 1800 000/00 RMK AO2 TSNO
94908KDBQ DBQ20080619220510406/19/08 22:05:31  5-MIN KDBQ 200405Z AUTO 00000KT 10SM CLR 18/10 A2996 1040 58 1700 000/00 RMK AO2 TSNO
94908KDBQ DBQ20080619221010406/19/08 22:10:31  5-MIN KDBQ 200410Z AUTO 00000KT 10SM CLR 18/10 A2996 1040 58 1700 000/00 RMK AO2 TSNO
94908KDBQ DBQ20080619221510406/19/08 22:15:31  5-MIN KDBQ 200415Z AUTO 23003KT 10SM CLR 19/09 A2996 1040 54 1800 230/03 RMK AO2 TSNO
94908KDBQ DBQ20080619222010406/19/08 22:20:31  5-MIN KDBQ 200420Z AUTO 00000KT 10SM CLR 17/11 A2996 1040 67 1600 000/00 RMK AO2 TSNO
94908KDBQ DBQ20080619222510406/19/08 22:25:31  5-MIN KDBQ 200425Z AUTO 00000KT 10SM CLR 17/11 A2996 1040 67 1600 000/00 RMK AO2 TSNO
94908KDBQ DBQ20080619223010406/19/08 22:30:31  5-MIN KDBQ 200430Z AUTO 00000KT 10SM CLR 17/11 A2997 1040 67 1600 000/00 RMK AO2 TSNO
94908KDBQ DBQ20080619223510406/19/08 22:35:31  5-MIN KDBQ 200435Z AUTO 00000KT 10SM CLR 17/11 A2997 1040 67 1600 000/00 RMK AO2 TSNO
94908KDBQ DBQ20080619224010406/19/08 22:40:31  5-MIN KDBQ 200440Z AUTO 20003KT 10SM CLR 18/11 A2996 1040 64 1600 200/03 RMK AO2 TSNO
94908KDBQ DBQ20080619224510406/19/08 22:45:31  5-MIN KDBQ 200445Z AUTO 00000KT 10SM CLR 17/11 A2997 1040 67 1600 000/00 RMK AO2 TSNO
94908KDBQ DBQ20080619225012106/19/08 22:50:31  5-MIN KDBQ 200450Z AUTO 00000KT 10SM CLR 17/11 A2996 1040 67 1600 000/00 RMK AO2 SLP141 T01720111 TSNO
94908KDBQ DBQ20080619225510406/19/08 22:55:31  5-MIN KDBQ 200455Z AUTO 00000KT 10SM CLR 18/11 A2996 1040 62 1600 000/00 RMK AO2 TSNO
94908KDBQ DBQ20080619230010406/19/08 23:00:31  5-MIN KDBQ 200500Z AUTO 00000KT 10SM CLR 18/11 A2996 1040 60 1700 000/00 RMK AO2 TSNO
94908KDBQ DBQ20080619230510406/19/08 23:05:31  5-MIN KDBQ 200505Z AUTO 00000KT 10SM CLR 17/10 A2996 1040 62 1600 000/00 RMK AO2 TSNO
94908KDBQ DBQ20080619231010406/19/08 23:10:31  5-MIN KDBQ 200510Z AUTO 00000KT 10SM CLR 17/10 A2995 1050 64 1500 000/00 RMK AO2 TSNO
94908KDBQ DBQ20080619231510406/19/08 23:15:31  5-MIN KDBQ 200515Z AUTO 00000KT 10SM CLR 17/11 A2996 1050 64 1600 000/00 RMK AO2 TSNO
94908KDBQ DBQ20080619232010406/19/08 23:20:31  5-MIN KDBQ 200520Z AUTO 00000KT 10SM CLR 17/12 A2996 1050 69 1600 000/00 RMK AO2 TSNO
94908KDBQ DBQ20080619232510406/19/08 23:25:31  5-MIN KDBQ 200525Z AUTO 21003KT 10SM CLR 17/11 A2996 1050 67 1600 210/03 RMK AO2 TSNO
94908KDBQ DBQ20080619233010406/19/08 23:30:31  5-MIN KDBQ 200530Z AUTO 00000KT 10SM CLR 16/12 A2995 1050 75 1500 000/00 RMK AO2 TSNO
94908KDBQ DBQ20080619233510406/19/08 23:35:31  5-MIN KDBQ 200535Z AUTO 00000KT 10SM CLR 17/12 A2995 1050 72 1500 000/00 RMK AO2 TSNO
94908KDBQ DBQ20080619234010406/19/08 23:40:31  5-MIN KDBQ 200540Z AUTO 21003KT 10SM CLR 17/11 A2995 1050 69 1500 210/03 RMK AO2 TSNO
94908KDBQ DBQ20080619234510406/19/08 23:45:31  5-MIN KDBQ 200545Z AUTO 00000KT 10SM CLR 16/12 A2995 1050 75 1500 000/00 RMK AO2 TSNO
94908KDBQ DBQ20080619235014906/19/08 23:50:31  5-MIN KDBQ 200550Z AUTO 21003KT 10SM CLR 16/11 A2995 1050 72 1500 210/03 RMK AO2 SLP139 T01610111 10250 20161 402610094 53002 TSNO
94908KDBQ DBQ20080619235510406/19/08 23:55:31  5-MIN KDBQ 200555Z AUTO 22003KT 10SM CLR 15/12 A2996 1050 80 1300 220/03 RMK AO2 TSNO
94908KDBQ DBQ20080620000010406/20/08 00:00:38  5-MIN KDBQ 200600Z AUTO 21003KT 10SM CLR 16/12 A2995 1050 80 1400 210/03 RMK AO2 TSNO
94908KDBQ DBQ20080620000510406/20/08 00:05:31  5-MIN KDBQ 200605Z AUTO 20003KT 10SM CLR 16/12 A2995 1050 77 1400 200/03 RMK AO2 TSNO
94908KDBQ DBQ20080620001010406/20/08 00:10:31  5-MIN KDBQ 200610Z AUTO 00000KT 10SM CLR 16/12 A2995 1050 75 1500 000/00 RMK AO2 TSNO
94908KDBQ DBQ20080620001510406/20/08 00:15:31  5-MIN KDBQ 200615Z AUTO 19003KT 10SM CLR 16/11 A2995 1050 74 1400 190/03 RMK AO2 TSNO
94908KDBQ DBQ20080620002010406/20/08 00:20:31  5-MIN KDBQ 200620Z AUTO 20003KT 10SM CLR 16/11 A2995 1050 74 1400 200/03 RMK AO2 TSNO
94908KDBQ DBQ20080620002510406/20/08 00:25:31  5-MIN KDBQ 200625Z AUTO 20003KT 10SM CLR 16/11 A2995 1050 72 1400 200/03 RMK AO2 TSNO
94908KDBQ DBQ20080620003010406/20/08 00:30:31  5-MIN KDBQ 200630Z AUTO 21003KT 10SM CLR 16/11 A2995 1050 69 1500 210/03 RMK AO2 TSNO
94908KDBQ DBQ20080620003510406/20/08 00:35:31  5-MIN KDBQ 200635Z AUTO 21004KT 10SM CLR 16/11 A2995 1050 72 1400 210/04 RMK AO2 TSNO
94908KDBQ DBQ20080620004010406/20/08 00:40:31  5-MIN KDBQ 200640Z AUTO 22003KT 10SM CLR 16/11 A2994 1060 72 1400 220/03 RMK AO2 TSNO
94908KDBQ DBQ20080620004510406/20/08 00:45:31  5-MIN KDBQ 200645Z AUTO 22003KT 10SM CLR 14/11 A2994 1060 80 1300 220/03 RMK AO2 TSNO
94908KDBQ DBQ20080620005012106/20/08 00:50:31  5-MIN KDBQ 200650Z AUTO 21003KT 10SM CLR 14/12 A2994 1060 83 1300 200/03 RMK AO2 SLP135 T01440117 TSNO
94908KDBQ DBQ20080620005510406/20/08 00:55:31  5-MIN KDBQ 200655Z AUTO 21004KT 10SM CLR 15/12 A2994 1060 80 1300 200/04 RMK AO2 TSNO
94908KDBQ DBQ20080620010010406/20/08 01:00:31  5-MIN KDBQ 200700Z AUTO 21004KT 10SM CLR 15/11 A2994 1060 77 1300 210/04 RMK AO2 TSNO
94908KDBQ DBQ20080620010510406/20/08 01:05:31  5-MIN KDBQ 200705Z AUTO 21004KT 10SM CLR 14/11 A2994 1060 80 1300 210/04 RMK AO2 TSNO
94908KDBQ DBQ20080620011010406/20/08 01:10:31  5-MIN KDBQ 200710Z AUTO 21005KT 10SM CLR 14/11 A2994 1060 77 1300 210/05 RMK AO2 TSNO
94908KDBQ DBQ20080620011510406/20/08 01:15:31  5-MIN KDBQ 200715Z AUTO 21005KT 10SM CLR 14/11 A2994 1060 77 1300 210/05 RMK AO2 TSNO
94908KDBQ DBQ20080620012010406/20/08 01:20:31  5-MIN KDBQ 200720Z AUTO 23006KT 10SM CLR 14/11 A2994 1060 80 1200 230/06 RMK AO2 TSNO
94908KDBQ DBQ20080620012510406/20/08 01:25:31  5-MIN KDBQ 200725Z AUTO 23007KT 10SM CLR 14/11 A2994 1060 77 1300 230/07 RMK AO2 TSNO
94908KDBQ DBQ20080620013010406/20/08 01:30:31  5-MIN KDBQ 200730Z AUTO 23008KT 10SM CLR 14/11 A2994 1060 80 1200 230/08 RMK AO2 TSNO
94908KDBQ DBQ20080620013510406/20/08 01:35:31  5-MIN KDBQ 200735Z AUTO 22008KT 10SM CLR 14/11 A2993 1070 77 1300 220/08 RMK AO2 TSNO
94908KDBQ DBQ20080620014010406/20/08 01:40:31  5-MIN KDBQ 200740Z AUTO 22007KT 10SM CLR 14/11 A2993 1070 77 1300 220/07 RMK AO2 TSNO
94908KDBQ DBQ20080620014510406/20/08 01:45:31  5-MIN KDBQ 200745Z AUTO 22006KT 10SM CLR 14/11 A2993 1070 77 1300 220/06 RMK AO2 TSNO
94908KDBQ DBQ20080620015012106/20/08 01:50:31  5-MIN KDBQ 200750Z AUTO 22006KT 10SM CLR 14/11 A2993 1070 77 1300 220/06 RMK AO2 SLP133 T01440106 TSNO
94908KDBQ DBQ20080620015510406/20/08 01:55:31  5-MIN KDBQ 200755Z AUTO 22005KT 10SM CLR 14/11 A2994 1060 77 1300 220/05 RMK AO2 TSNO
94908KDBQ DBQ20080620020010406/20/08 02:00:31  5-MIN KDBQ 200800Z AUTO 22006KT 10SM CLR 14/11 A2994 1060 77 1300 220/06 RMK AO2 TSNO
94908KDBQ DBQ20080620020510406/20/08 02:05:31  5-MIN KDBQ 200805Z AUTO 22005KT 10SM CLR 14/11 A2994 1060 77 1300 220/05 RMK AO2 TSNO
94908KDBQ DBQ20080620021010406/20/08 02:10:31  5-MIN KDBQ 200810Z AUTO 21005KT 10SM CLR 14/11 A2994 1060 77 1300 210/05 RMK AO2 TSNO
94908KDBQ DBQ20080620021510406/20/08 02:15:31  5-MIN KDBQ 200815Z AUTO 21005KT 10SM CLR 14/11 A2994 1060 77 1300 210/05 RMK AO2 TSNO
94908KDBQ DBQ20080620022010406/20/08 02:20:31  5-MIN KDBQ 200820Z AUTO 22004KT 10SM CLR 14/11 A2994 1060 77 1300 220/04 RMK AO2 TSNO
94908KDBQ DBQ20080620022510406/20/08 02:25:31  5-MIN KDBQ 200825Z AUTO 22004KT 10SM CLR 14/11 A2994 1060 77 1300 220/04 RMK AO2 TSNO
94908KDBQ DBQ20080620023010406/20/08 02:30:31  5-MIN KDBQ 200830Z AUTO 22005KT 10SM CLR 14/11 A2994 1060 77 1300 220/05 RMK AO2 TSNO
94908KDBQ DBQ20080620023510406/20/08 02:35:31  5-MIN KDBQ 200835Z AUTO 23005KT 10SM CLR 14/11 A2994 1060 77 1300 220/05 RMK AO2 TSNO
94908KDBQ DBQ20080620024010406/20/08 02:40:31  5-MIN KDBQ 200840Z AUTO 23004KT 10SM CLR 15/11 A2994 1060 74 1300 230/04 RMK AO2 TSNO
94908KDBQ DBQ20080620024510406/20/08 02:45:31  5-MIN KDBQ 200845Z AUTO 22003KT 10SM CLR 15/10 A2994 1060 72 1300 220/03 RMK AO2 TSNO
94908KDBQ DBQ20080620025012706/20/08 02:50:31  5-MIN KDBQ 200850Z AUTO 21003KT 10SM CLR 15/11 A2994 1060 74 1300 210/03 RMK AO2 SLP135 T01500106 50006 TSNO
94908KDBQ DBQ20080620025510406/20/08 02:55:31  5-MIN KDBQ 200855Z AUTO 21003KT 10SM CLR 15/11 A2994 1060 74 1300 210/03 RMK AO2 TSNO
94908KDBQ DBQ20080620030010406/20/08 03:00:31  5-MIN KDBQ 200900Z AUTO 00000KT 10SM CLR 15/11 A2995 1050 74 1300 000/00 RMK AO2 TSNO
94908KDBQ DBQ20080620030510406/20/08 03:05:31  5-MIN KDBQ 200905Z AUTO 00000KT 10SM CLR 16/10 A2995 1050 69 1400 000/00 RMK AO2 TSNO
94908KDBQ DBQ20080620031010406/20/08 03:10:31  5-MIN KDBQ 200910Z AUTO 00000KT 10SM CLR 16/10 A2995 1050 67 1500 000/00 RMK AO2 TSNO
94908KDBQ DBQ20080620031510406/20/08 03:15:31  5-MIN KDBQ 200915Z AUTO 00000KT 10SM CLR 16/10 A2995 1050 67 1500 000/00 RMK AO2 TSNO
94908KDBQ DBQ20080620032010406/20/08 03:20:31  5-MIN KDBQ 200920Z AUTO 00000KT 10SM CLR 16/10 A2995 1050 69 1400 000/00 RMK AO2 TSNO
94908KDBQ DBQ20080620032510406/20/08 03:25:31  5-MIN KDBQ 200925Z AUTO 00000KT 10SM CLR 15/10 A2995 1050 72 1300 000/00 RMK AO2 TSNO
94908KDBQ DBQ20080620033010406/20/08 03:30:31  5-MIN KDBQ 200930Z AUTO 00000KT 10SM CLR 15/11 A2995 1050 74 1300 000/00 RMK AO2 TSNO
94908KDBQ DBQ20080620033510406/20/08 03:35:31  5-MIN KDBQ 200935Z AUTO 00000KT 10SM CLR 15/11 A2995 1050 74 1300 000/00 RMK AO2 TSNO
94908KDBQ DBQ20080620034010406/20/08 03:40:31  5-MIN KDBQ 200940Z AUTO 00000KT 10SM CLR 15/11 A2995 1050 74 1300 000/00 RMK AO2 TSNO
94908KDBQ DBQ20080620034510406/20/08 03:45:31  5-MIN KDBQ 200945Z AUTO 00000KT 10SM CLR 15/11 A2995 1050 74 1300 000/00 RMK AO2 TSNO
94908KDBQ DBQ20080620035012106/20/08 03:50:31  5-MIN KDBQ 200950Z AUTO 00000KT 10SM CLR 15/11 A2995 1050 74 1300 000/00 RMK AO2 SLP138 T01500106 TSNO
94908KDBQ DBQ20080620035510406/20/08 03:55:31  5-MIN KDBQ 200955Z AUTO 00000KT 10SM CLR 14/11 A2995 1050 77 1300 000/00 RMK AO2 TSNO
94908KDBQ DBQ20080620040010406/20/08 04:00:31  5-MIN KDBQ 201000Z AUTO 00000KT 10SM CLR 15/11 A2995 1050 74 1300 000/00 RMK AO2 TSNO
94908KDBQ DBQ20080620040510406/20/08 04:05:31  5-MIN KDBQ 201005Z AUTO 00000KT 10SM CLR 14/11 A2995 1050 77 1300 000/00 RMK AO2 TSNO
94908KDBQ DBQ20080620041010406/20/08 04:10:31  5-MIN KDBQ 201010Z AUTO 00000KT 10SM CLR 15/11 A2995 1050 74 1300 000/00 RMK AO2 TSNO
94908KDBQ DBQ20080620041510406/20/08 04:15:31  5-MIN KDBQ 201015Z AUTO 00000KT 10SM CLR 14/11 A2995 1050 80 1200 000/00 RMK AO2 TSNO
94908KDBQ DBQ20080620042010406/20/08 04:20:31  5-MIN KDBQ 201020Z AUTO 00000KT 10SM CLR 14/11 A2995 1050 80 1200 000/00 RMK AO2 TSNO
94908KDBQ DBQ20080620042510406/20/08 04:25:31  5-MIN KDBQ 201025Z AUTO 00000KT 10SM CLR 14/11 A2995 1050 80 1200 000/00 RMK AO2 TSNO
94908KDBQ DBQ20080620043010406/20/08 04:30:31  5-MIN KDBQ 201030Z AUTO 00000KT 10SM CLR 14/11 A2995 1050 83 1200 000/00 RMK AO2 TSNO
94908KDBQ DBQ20080620043510406/20/08 04:35:31  5-MIN KDBQ 201035Z AUTO 00000KT 10SM CLR 14/11 A2995 1050 83 1200 000/00 RMK AO2 TSNO
94908KDBQ DBQ20080620044009406/20/08 04:40:31  5-MIN KDBQ 201040Z 00000KT 10SM CLR 14/11 A2995 1050 83 1200 000/00 RMK AO2
94908KDBQ DBQ20080620044509406/20/08 04:45:31  5-MIN KDBQ 201045Z 00000KT 10SM CLR 14/11 A2996 1040 80 1300 000/00 RMK AO2
94908KDBQ DBQ20080620045011106/20/08 04:50:31  5-MIN KDBQ 201050Z 00000KT 10SM CLR 14/12 A2996 1040 83 1300 000/00 RMK AO2 SLP140 T01440117
94908KDBQ DBQ20080620045509406/20/08 04:55:31  5-MIN KDBQ 201055Z 00000KT 10SM CLR 14/12 A2996 1040 86 1200 000/00 RMK AO2
94908KDBQ DBQ20080620050009406/20/08 05:00:31  5-MIN KDBQ 201100Z 00000KT 10SM CLR 14/12 A2996 1040 86 1200 000/00 RMK AO2
94908KDBQ DBQ20080620050509406/20/08 05:05:31  5-MIN KDBQ 201105Z 00000KT 10SM CLR 14/12 A2996 1040 86 1200 000/00 RMK AO2
94908KDBQ DBQ20080620051009406/20/08 05:10:31  5-MIN KDBQ 201110Z 00000KT 10SM CLR 14/12 A2996 1040 86 1200 000/00 RMK AO2
94908KDBQ DBQ20080620051509406/20/08 05:15:31  5-MIN KDBQ 201115Z 00000KT 10SM CLR 14/12 A2996 1040 83 1300 000/00 RMK AO2
94908KDBQ DBQ20080620052009406/20/08 05:20:31  5-MIN KDBQ 201120Z 00000KT 10SM CLR 15/12 A2997 1040 83 1300 000/00 RMK AO2
94908KDBQ DBQ20080620052509406/20/08 05:25:31  5-MIN KDBQ 201125Z 00000KT 10SM CLR 15/12 A2997 1040 83 1300 000/00 RMK AO2
94908KDBQ DBQ20080620053009406/20/08 05:30:31  5-MIN KDBQ 201130Z 00000KT 10SM CLR 15/12 A2997 1040 83 1300 000/00 RMK AO2
94908KDBQ DBQ20080620053509406/20/08 05:35:31  5-MIN KDBQ 201135Z 00000KT 10SM CLR 16/12 A2997 1040 80 1400 000/00 RMK AO2
94908KDBQ DBQ20080620054009406/20/08 05:40:31  5-MIN KDBQ 201140Z 00000KT 10SM CLR 15/12 A2997 1030 83 1300 000/00 RMK AO2
94908KDBQ DBQ20080620054509406/20/08 05:45:31  5-MIN KDBQ 201145Z 21003KT 10SM CLR 15/12 A2997 1040 83 1300 210/03 RMK AO2
94908KDBQ DBQ20080620055012906/20/08 05:50:31  5-MIN KDBQ 201150Z 00000KT 10SM CLR 16/12 A2997 1040 80 1400 000/00 RMK AO2 SLP143 T01560122 10161 20139 55002
94908KDBQ DBQ20080620055509406/20/08 05:55:31  5-MIN KDBQ 201155Z 00000KT 10SM CLR 16/13 A2997 1030 83 1400 000/00 RMK AO2
94908KDBQ DBQ20080620060009406/20/08 06:00:31  5-MIN KDBQ 201200Z 21003KT 10SM CLR 16/13 A2997 1030 80 1400 210/03 RMK AO2
94908KDBQ DBQ20080620060509406/20/08 06:05:31  5-MIN KDBQ 201205Z 00000KT 10SM CLR 16/13 A2997 1030 83 1400 000/00 RMK AO2
94908KDBQ DBQ20080620061009406/20/08 06:10:31  5-MIN KDBQ 201210Z 00000KT 10SM CLR 17/13 A2997 1030 80 1500 000/00 RMK AO2
94908KDBQ DBQ20080620061509406/20/08 06:15:31  5-MIN KDBQ 201215Z 21003KT 10SM CLR 17/13 A2997 1030 80 1500 210/03 RMK AO2
94908KDBQ DBQ20080620062009406/20/08 06:20:31  5-MIN KDBQ 201220Z 22004KT 10SM CLR 17/13 A2997 1030 80 1500 220/04 RMK AO2
94908KDBQ DBQ20080620062509406/20/08 06:25:31  5-MIN KDBQ 201225Z 22003KT 10SM CLR 17/14 A2997 1030 80 1600 220/03 RMK AO2
94908KDBQ DBQ20080620063009406/20/08 06:30:31  5-MIN KDBQ 201230Z 00000KT 10SM CLR 18/14 A2997 1030 81 1600 000/00 RMK AO2
94908KDBQ DBQ20080620063509406/20/08 06:35:31  5-MIN KDBQ 201235Z 00000KT 10SM CLR 18/14 A2997 1030 78 1700 000/00 RMK AO2
94908KDBQ DBQ20080620064009406/20/08 06:40:31  5-MIN KDBQ 201240Z 20004KT 10SM CLR 19/14 A2997 1030 75 1800 200/04 RMK AO2
94908KDBQ DBQ20080620064509406/20/08 06:45:31  5-MIN KDBQ 201245Z 21004KT 10SM CLR 19/15 A2997 1030 78 1800 210/04 RMK AO2
94908KDBQ DBQ20080620065011106/20/08 06:50:31  5-MIN KDBQ 201250Z 21005KT 10SM CLR 19/16 A2997 1030 78 1800 210/05 RMK AO2 SLP143 T01940156
94908KDBQ DBQ20080620065509406/20/08 06:55:31  5-MIN KDBQ 201255Z 22004KT 10SM CLR 19/16 A2997 1030 78 1800 220/04 RMK AO2
94908KDBQ DBQ20080620070009406/20/08 07:00:31  5-MIN KDBQ 201300Z 24003KT 10SM CLR 19/16 A2997 1030 78 1800 230/03 RMK AO2
94908KDBQ DBQ20080620070509406/20/08 07:05:31  5-MIN KDBQ 201305Z 24003KT 10SM CLR 19/16 A2997 1030 78 1800 240/03 RMK AO2
94908KDBQ DBQ20080620071009406/20/08 07:10:31  5-MIN KDBQ 201310Z 23004KT 10SM CLR 19/16 A2998 1020 78 1800 230/04 RMK AO2
94908KDBQ DBQ20080620071509406/20/08 07:15:31  5-MIN KDBQ 201315Z 22005KT 10SM CLR 20/16 A2998 1030 75 1900 220/05 RMK AO2
94908KDBQ DBQ20080620072009406/20/08 07:20:31  5-MIN KDBQ 201320Z 21006KT 10SM CLR 20/16 A2998 1030 75 1900 210/06 RMK AO2
94908KDBQ DBQ20080620072509706/20/08 07:25:31  5-MIN KDBQ 201325Z 21006KT 10SM FEW095 21/16 A2998 1030 73 1900 200/06 RMK AO2
94908KDBQ DBQ20080620073009706/20/08 07:30:31  5-MIN KDBQ 201330Z 21005KT 10SM SCT095 20/16 A2998 1020 75 1900 210/05 RMK AO2
94908KDBQ DBQ20080620073509706/20/08 07:35:31  5-MIN KDBQ 201335Z 20004KT 10SM BKN095 21/16 A2998 1030 75 1900 200/04 RMK AO2
94908KDBQ DBQ20080620074009706/20/08 07:40:31  5-MIN KDBQ 201340Z 21006KT 10SM SCT095 21/16 A2998 1030 73 1900 210/06 RMK AO2
94908KDBQ DBQ20080620074509706/20/08 07:45:31  5-MIN KDBQ 201345Z 21005KT 10SM SCT100 21/16 A2998 1020 75 1900 210/05 RMK AO2
94908KDBQ DBQ20080620075011406/20/08 07:50:31  5-MIN KDBQ 201350Z 20006KT 10SM SCT100 21/16 A2998 1020 73 2000 200/06 RMK AO2 SLP147 T02110161
94908KDBQ DBQ20080620075509706/20/08 07:55:31  5-MIN KDBQ 201355Z 20006KT 10SM FEW100 22/16 A2998 1030 70 2100 200/06 RMK AO2
94908KDBQ DBQ20080620080009706/20/08 08:00:31  5-MIN KDBQ 201400Z 22007KT 10SM FEW100 21/16 A2998 1030 73 2000 220/07 RMK AO2
94908KDBQ DBQ20080620080509406/20/08 08:05:31  5-MIN KDBQ 201405Z 22006KT 10SM CLR 22/16 A2998 1020 70 2100 220/06 RMK AO2
94908KDBQ DBQ20080620081009406/20/08 08:10:31  5-MIN KDBQ 201410Z 22006KT 10SM CLR 22/17 A2998 1020 73 2100 220/06 RMK AO2
94908KDBQ DBQ20080620081509706/20/08 08:15:31  5-MIN KDBQ 201415Z 21007KT 10SM FEW120 22/17 A2998 1020 73 2100 210/07 RMK AO2
94908KDBQ DBQ20080620082009706/20/08 08:20:31  5-MIN KDBQ 201420Z 21007KT 10SM SCT110 22/17 A2998 1020 70 2100 210/07 RMK AO2
94908KDBQ DBQ20080620082509706/20/08 08:25:31  5-MIN KDBQ 201425Z 21006KT 10SM SCT110 22/17 A2998 1020 73 2100 210/06 RMK AO2
94908KDBQ DBQ20080620083009706/20/08 08:30:31  5-MIN KDBQ 201430Z 20006KT 10SM FEW110 22/17 A2998 1030 73 2100 200/06 RMK AO2
94908KDBQ DBQ20080620083509706/20/08 08:35:31  5-MIN KDBQ 201435Z 22006KT 10SM FEW110 22/17 A2998 1020 73 2100 220/06 RMK AO2
94908KDBQ DBQ20080620084009706/20/08 08:40:31  5-MIN KDBQ 201440Z 22005KT 10SM FEW110 22/17 A2998 1030 73 2100 220/05 RMK AO2
94908KDBQ DBQ20080620084509706/20/08 08:45:31  5-MIN KDBQ 201445Z 21006KT 10SM FEW110 23/17 A2998 1030 70 2200 210/06 RMK AO2
94908KDBQ DBQ20080620085012006/20/08 08:50:31  5-MIN KDBQ 201450Z 21006KT 10SM FEW120 23/17 A2998 1030 70 2200 210/06 RMK AO2 SLP146 T02280172 53009
94908KDBQ DBQ20080620085509706/20/08 08:55:31  5-MIN KDBQ 201455Z 21006KT 10SM FEW120 23/17 A2998 1030 68 2300 210/06 RMK AO2
94908KDBQ DBQ20080620090009406/20/08 09:00:31  5-MIN KDBQ 201500Z 20008KT 10SM CLR 24/17 A2997 1030 66 2300 200/08 RMK AO2
94908KDBQ DBQ20080620090509406/20/08 09:05:31  5-MIN KDBQ 201505Z 21006KT 10SM CLR 24/18 A2997 1030 68 2300 210/06 RMK AO2
94908KDBQ DBQ20080620091009406/20/08 09:10:31  5-MIN KDBQ 201510Z 21008KT 10SM CLR 24/17 A2998 1030 66 2300 210/08 RMK AO2
94908KDBQ DBQ20080620091509406/20/08 09:15:31  5-MIN KDBQ 201515Z 21008KT 10SM CLR 24/18 A2998 1030 68 2300 210/08 RMK AO2
94908KDBQ DBQ20080620092009706/20/08 09:20:31  5-MIN KDBQ 201520Z 21008KT 10SM FEW120 24/17 A2998 1030 66 2300 210/08 RMK AO2
94908KDBQ DBQ20080620092509706/20/08 09:25:31  5-MIN KDBQ 201525Z 20008KT 10SM FEW120 24/18 A2998 1030 68 2300 200/08 RMK AO2
94908KDBQ DBQ20080620093009706/20/08 09:30:31  5-MIN KDBQ 201530Z 21008KT 10SM FEW120 24/17 A2998 1020 66 2300 210/08 RMK AO2
94908KDBQ DBQ20080620093509706/20/08 09:35:31  5-MIN KDBQ 201535Z 22008KT 10SM FEW120 24/18 A2998 1030 66 2400 220/08 RMK AO2
94908KDBQ DBQ20080620094009706/20/08 09:40:31  5-MIN KDBQ 201540Z 22009KT 10SM FEW120 24/18 A2998 1020 66 2400 220/09 RMK AO2
94908KDBQ DBQ20080620094509706/20/08 09:45:31  5-MIN KDBQ 201545Z 23007KT 10SM FEW120 24/18 A2998 1020 66 2400 230/07 RMK AO2
94908KDBQ DBQ20080620095011106/20/08 09:50:31  5-MIN KDBQ 201550Z 22009KT 10SM CLR 25/18 A2998 1020 64 2500 220/09 RMK AO2 SLP146 T02500178
94908KDBQ DBQ20080620095509406/20/08 09:55:31  5-MIN KDBQ 201555Z 22010KT 10SM CLR 25/17 A2998 1020 61 2500 220/10 RMK AO2
94908KDBQ DBQ20080620100009406/20/08 10:00:31  5-MIN KDBQ 201600Z 21010KT 10SM CLR 25/17 A2998 1020 61 2400 210/10 RMK AO2
94908KDBQ DBQ20080620100509406/20/08 10:05:31  5-MIN KDBQ 201605Z 22009KT 10SM CLR 25/18 A2998 1020 64 2500 220/09 RMK AO2
94908KDBQ DBQ20080620101009406/20/08 10:10:31  5-MIN KDBQ 201610Z 20010KT 10SM CLR 25/18 A2998 1020 64 2500 200/10 RMK AO2
94908KDBQ DBQ20080620205012206/20/08 20:50:31  5-MIN KDBQ 210250Z AUTO 00000KT 10SM CLR 19/16 A2999 1010 81 1800 000/00 RMK AO2 SLP150 T01940161 56006
94908KDBQ DBQ20080620205509906/20/08 20:55:31  5-MIN KDBQ 210255Z AUTO 23004KT 10SM CLR 19/16 A2999 1010 81 1800 220/04 RMK AO2
94908KDBQ DBQ20080620210009906/20/08 21:00:31  5-MIN KDBQ 210300Z AUTO 22004KT 10SM CLR 19/16 A2999 1010 81 1700 220/04 RMK AO2
94908KDBQ DBQ20080620210509906/20/08 21:05:31  5-MIN KDBQ 210305Z AUTO 23004KT 10SM CLR 19/16 A3000 1010 81 1700 230/04 RMK AO2
94908KDBQ DBQ20080620211009906/20/08 21:10:31  5-MIN KDBQ 210310Z AUTO 23004KT 10SM CLR 19/16 A3000 1010 81 1700 220/04 RMK AO2
94908KDBQ DBQ20080620211509906/20/08 21:15:31  5-MIN KDBQ 210315Z AUTO 23004KT 10SM CLR 19/16 A3000 1010 81 1700 230/04 RMK AO2
94908KDBQ DBQ20080620212009906/20/08 21:20:31  5-MIN KDBQ 210320Z AUTO 23003KT 10SM CLR 19/16 A3000 1000 81 1700 230/03 RMK AO2
94908KDBQ DBQ20080620212509906/20/08 21:25:31  5-MIN KDBQ 210325Z AUTO 23004KT 10SM CLR 19/16 A3000 1010 81 1700 230/04 RMK AO2
94908KDBQ DBQ20080620213009906/20/08 21:30:31  5-MIN KDBQ 210330Z AUTO 23003KT 10SM CLR 19/16 A3000 1000 81 1700 230/03 RMK AO2
94908KDBQ DBQ20080620213509906/20/08 21:35:31  5-MIN KDBQ 210335Z AUTO 22003KT 10SM CLR 18/15 A3000 1010 81 1700 220/03 RMK AO2
94908KDBQ DBQ20080620214009906/20/08 21:40:31  5-MIN KDBQ 210340Z AUTO 22003KT 10SM CLR 18/15 A3000 1010 81 1700 220/03 RMK AO2
94908KDBQ DBQ20080620214509906/20/08 21:45:31  5-MIN KDBQ 210345Z AUTO 23003KT 10SM CLR 18/15 A3000 1000 83 1600 230/03 RMK AO2
94908KDBQ DBQ20080620215011606/20/08 21:50:31  5-MIN KDBQ 210350Z AUTO 00000KT 10SM CLR 18/15 A3000 1010 83 1600 000/00 RMK AO2 SLP153 T01780150
94908KDBQ DBQ20080620215509906/20/08 21:55:31  5-MIN KDBQ 210355Z AUTO 00000KT 10SM CLR 18/15 A3000 1010 83 1600 000/00 RMK AO2
94908KDBQ DBQ20080620220009906/20/08 22:00:31  5-MIN KDBQ 210400Z AUTO 00000KT 10SM CLR 18/15 A3000 1010 83 1600 000/00 RMK AO2
94908KDBQ DBQ20080620220509906/20/08 22:05:31  5-MIN KDBQ 210405Z AUTO 00000KT 10SM CLR 18/16 A3000 1010 84 1700 000/00 RMK AO2
94908KDBQ DBQ20080620221009906/20/08 22:10:31  5-MIN KDBQ 210410Z AUTO 00000KT 10SM CLR 18/15 A2999 1010 81 1700 000/00 RMK AO2
94908KDBQ DBQ20080620221509906/20/08 22:15:31  5-MIN KDBQ 210415Z AUTO 00000KT 10SM CLR 18/16 A3000 1010 84 1700 000/00 RMK AO2
94908KDBQ DBQ20080620222009906/20/08 22:20:31  5-MIN KDBQ 210420Z AUTO 20003KT 10SM CLR 18/16 A2999 1010 84 1700 200/03 RMK AO2
94908KDBQ DBQ20080620222509906/20/08 22:25:31  5-MIN KDBQ 210425Z AUTO 21003KT 10SM CLR 18/16 A2999 1010 84 1700 210/03 RMK AO2
94908KDBQ DBQ20080620223009906/20/08 22:30:31  5-MIN KDBQ 210430Z AUTO 00000KT 10SM CLR 18/16 A2999 1010 84 1700 000/00 RMK AO2
94908KDBQ DBQ20080620223509906/20/08 22:35:31  5-MIN KDBQ 210435Z AUTO 00000KT 10SM CLR 18/15 A2999 1010 81 1700 000/00 RMK AO2
94908KDBQ DBQ20080620224009906/20/08 22:40:31  5-MIN KDBQ 210440Z AUTO 00000KT 10SM CLR 18/15 A2999 1010 81 1700 000/00 RMK AO2
94908KDBQ DBQ20080620224509906/20/08 22:45:31  5-MIN KDBQ 210445Z AUTO 00000KT 10SM CLR 18/15 A3000 1010 81 1700 000/00 RMK AO2
94908KDBQ DBQ20080620225011606/20/08 22:50:31  5-MIN KDBQ 210450Z AUTO 00000KT 10SM CLR 18/15 A2999 1010 83 1600 000/00 RMK AO2 SLP151 T01780150
94908KDBQ DBQ20080620225509906/20/08 22:55:31  5-MIN KDBQ 210455Z AUTO 20003KT 10SM CLR 18/15 A3000 1010 83 1600 200/03 RMK AO2
94908KDBQ DBQ20080620230009906/20/08 23:00:31  5-MIN KDBQ 210500Z AUTO 00000KT 10SM CLR 18/15 A3000 1010 83 1600 000/00 RMK AO2
94908KDBQ DBQ20080620230509906/20/08 23:05:31  5-MIN KDBQ 210505Z AUTO 00000KT 10SM CLR 18/16 A3000 1010 84 1700 000/00 RMK AO2
94908KDBQ DBQ20080620231009906/20/08 23:10:31  5-MIN KDBQ 210510Z AUTO VRB06KT 10SM CLR 18/15 A3000 1000 81 1700 VRB/06 RMK AO2
94908KDBQ DBQ20080620231509906/20/08 23:15:31  5-MIN KDBQ 210515Z AUTO 00000KT 10SM CLR 18/15 A3001 1000 81 1700 000/00 RMK AO2
94908KDBQ DBQ20080620232009906/20/08 23:20:31  5-MIN KDBQ 210520Z AUTO 03005KT 10SM CLR 18/15 A3000 1000 81 1700 030/05 RMK AO2
94908KDBQ DBQ20080620232509906/20/08 23:25:31  5-MIN KDBQ 210525Z AUTO 04004KT 10SM CLR 18/16 A3001 1000 87 1600 040/04 RMK AO2
94908KDBQ DBQ20080620233009906/20/08 23:30:31  5-MIN KDBQ 210530Z AUTO 05004KT 10SM CLR 18/16 A3001 1000 87 1600 050/04 RMK AO2
94908KDBQ DBQ20080620233509906/20/08 23:35:31  5-MIN KDBQ 210535Z AUTO 00000KT 10SM CLR 18/15 A3001 1000 83 1600 000/00 RMK AO2
94908KDBQ DBQ20080620234009906/20/08 23:40:31  5-MIN KDBQ 210540Z AUTO 08003KT 10SM CLR 18/15 A3000 1000 83 1600 070/03 RMK AO2
94908KDBQ DBQ20080620234509906/20/08 23:45:31  5-MIN KDBQ 210545Z AUTO 00000KT 10SM CLR 18/15 A3000 1000 83 1600 000/00 RMK AO2
94908KDBQ DBQ20080620235014406/20/08 23:50:31  5-MIN KDBQ 210550Z AUTO 00000KT 10SM CLR 18/15 A3000 1000 83 1600 000/00 RMK AO2 SLP154 T01780150 10244 20172 402890139 53013
94908KDBQ DBQ20080620235509906/20/08 23:55:31  5-MIN KDBQ 210555Z AUTO 00000KT 10SM CLR 18/15 A3000 1000 81 1700 000/00 RMK AO2
94908KDBQ DBQ20080621000009906/21/08 00:00:38  5-MIN KDBQ 210600Z AUTO 00000KT 10SM CLR 18/15 A3000 1000 81 1700 000/00 RMK AO2
94908KDBQ DBQ20080621000509906/21/08 00:05:31  5-MIN KDBQ 210605Z AUTO 00000KT 10SM CLR 18/15 A3000 1000 83 1600 000/00 RMK AO2
94908KDBQ DBQ20080621001009906/21/08 00:10:31  5-MIN KDBQ 210610Z AUTO 05003KT 10SM CLR 18/15 A3000 1010 83 1600 050/03 RMK AO2
94908KDBQ DBQ20080621001509906/21/08 00:15:33  5-MIN KDBQ 210615Z AUTO 04003KT 10SM CLR 17/15 A3000 1000 87 1500 030/03 RMK AO2
94908KDBQ DBQ20080621002009906/21/08 00:20:31  5-MIN KDBQ 210620Z AUTO 01006KT 10SM CLR 17/15 A3001 1000 87 1500 010/06 RMK AO2
94908KDBQ DBQ20080621002509806/21/08 00:25:31  5-MIN KDBQ 210625Z AUTO 35007KT 10SM CLR 17/16 A3001 990 90 1500 350/07 RMK AO2
94908KDBQ DBQ20080621003009906/21/08 00:30:31  5-MIN KDBQ 210630Z AUTO 04004KT 10SM CLR 18/16 A3000 1000 87 1600 040/04 RMK AO2
94908KDBQ DBQ20080621003509906/21/08 00:35:31  5-MIN KDBQ 210635Z AUTO 05005KT 10SM CLR 18/16 A3000 1000 84 1700 050/05 RMK AO2
94908KDBQ DBQ20080621004009906/21/08 00:40:31  5-MIN KDBQ 210640Z AUTO 05006KT 10SM CLR 18/16 A2999 1010 84 1700 050/06 RMK AO2
94908KDBQ DBQ20080621004509906/21/08 00:45:31  5-MIN KDBQ 210645Z AUTO 04005KT 10SM CLR 18/16 A3000 1010 84 1700 040/05 RMK AO2
94908KDBQ DBQ20080621005011906/21/08 00:50:31  5-MIN KDBQ 210650Z AUTO 05005KT 10SM FEW110 18/16 A2999 1010 84 1700 040/05 RMK AO2 SLP151 T01830156
94908KDBQ DBQ20080621005510206/21/08 00:55:31  5-MIN KDBQ 210655Z AUTO 06005KT 10SM SCT110 18/16 A3000 1010 84 1700 060/05 RMK AO2
94908KDBQ DBQ20080621010010206/21/08 01:00:31  5-MIN KDBQ 210700Z AUTO 06003KT 10SM BKN110 19/16 A3000 1010 81 1700 060/03 RMK AO2
94908KDBQ DBQ20080621010510206/21/08 01:05:31  5-MIN KDBQ 210705Z AUTO 02005KT 10SM BKN100 18/16 A3000 1010 84 1700 020/05 RMK AO2
94908KDBQ DBQ20080621011011406/21/08 01:10:31  5-MIN KDBQ 210710Z AUTO 36011G14KT 10SM BKN100 18/16 A3002 990 87 1600 350/11G14 RMK AO2 PRESRR
94908KDBQ DBQ20080621011510706/21/08 01:15:31  5-MIN KDBQ 210715Z AUTO 01009G17KT 10SM OVC100 18/16 A3002 990 84 1600 010/09G17 RMK AO2
94908KDBQ DBQ20080621012010706/21/08 01:20:31  5-MIN KDBQ 210720Z AUTO 02007G17KT 10SM OVC100 18/15 A3002 990 81 1600 010/07G17 RMK AO2
94908KDBQ DBQ20080621012510106/21/08 01:25:31  5-MIN KDBQ 210725Z AUTO 01007KT 10SM OVC100 18/15 A3002 980 81 1600 360/07 RMK AO2
94908KDBQ DBQ20080621013010106/21/08 01:30:31  5-MIN KDBQ 210730Z AUTO 01007KT 10SM OVC100 18/14 A3002 990 78 1600 010/07 RMK AO2
94908KDBQ DBQ20080621013510106/21/08 01:35:31  5-MIN KDBQ 210735Z AUTO 03009KT 10SM OVC100 18/14 A3002 990 78 1600 030/09 RMK AO2
94908KDBQ DBQ20080621014010206/21/08 01:40:31  5-MIN KDBQ 210740Z AUTO 04008KT 10SM BKN100 18/14 A3001 1000 75 1700 040/08 RMK AO2
94908KDBQ DBQ20080621014510906/21/08 01:45:31  5-MIN KDBQ 210745Z AUTO 06008KT 10SM BKN100 18/14 A3000 1000 75 1700 060/08 RMK AO2 PRESFR
94908KDBQ DBQ20080621015011906/21/08 01:50:31  5-MIN KDBQ 210750Z AUTO 06007KT 10SM BKN110 18/14 A3000 1000 78 1700 060/07 RMK AO2 SLP156 T01830144
94908KDBQ DBQ20080621015510206/21/08 01:55:31  5-MIN KDBQ 210755Z AUTO 05006KT 10SM BKN110 18/14 A3001 1000 75 1700 050/06 RMK AO2
94908KDBQ DBQ20080621020010206/21/08 02:00:31  5-MIN KDBQ 210800Z AUTO 02009KT 10SM SCT110 18/14 A3001 1000 78 1600 020/09 RMK AO2
94908KDBQ DBQ20080621020510206/21/08 02:05:31  5-MIN KDBQ 210805Z AUTO 36008KT 10SM FEW120 18/14 A3001 1000 78 1600 360/08 RMK AO2
94908KDBQ DBQ20080621021010106/21/08 02:10:31  5-MIN KDBQ 210810Z AUTO 01007KT 10SM FEW110 18/14 A3001 990 81 1600 010/07 RMK AO2
94908KDBQ DBQ20080621021510106/21/08 02:15:31  5-MIN KDBQ 210815Z AUTO 01006KT 10SM SCT110 18/14 A3002 990 78 1600 360/06 RMK AO2
94908KDBQ DBQ20080621022010106/21/08 02:20:31  5-MIN KDBQ 210820Z AUTO 36005KT 10SM BKN100 18/14 A3002 990 78 1600 360/05 RMK AO2
94908KDBQ DBQ20080621022510106/21/08 02:25:31  5-MIN KDBQ 210825Z AUTO 03003KT 10SM BKN100 18/14 A3001 990 78 1600 030/03 RMK AO2
94908KDBQ DBQ20080621023010206/21/08 02:30:31  5-MIN KDBQ 210830Z AUTO 05003KT 10SM BKN100 18/14 A3001 1000 78 1600 050/03 RMK AO2
94908KDBQ DBQ20080621023510106/21/08 02:35:31  5-MIN KDBQ 210835Z AUTO 03003KT 10SM BKN100 18/14 A3002 990 78 1600 030/03 RMK AO2
94908KDBQ DBQ20080621024010106/21/08 02:40:31  5-MIN KDBQ 210840Z AUTO 32008KT 10SM BKN100 17/14 A3002 980 83 1400 320/08 RMK AO2
94908KDBQ DBQ20080621024510106/21/08 02:45:31  5-MIN KDBQ 210845Z AUTO 33006KT 10SM SCT100 17/14 A3002 980 83 1400 330/06 RMK AO2
94908KDBQ DBQ20080621025012406/21/08 02:50:31  5-MIN KDBQ 210850Z AUTO 33006KT 10SM FEW110 17/14 A3002 990 80 1500 330/06 RMK AO2 SLP163 T01720139 53002
94908KDBQ DBQ20080621025510106/21/08 02:55:31  5-MIN KDBQ 210855Z AUTO 33005KT 10SM FEW110 17/14 A3002 980 80 1500 330/05 RMK AO2
94908KDBQ DBQ20080621030009806/21/08 03:00:31  5-MIN KDBQ 210900Z AUTO 34005KT 10SM CLR 17/14 A3002 980 83 1400 340/05 RMK AO2
94908KDBQ DBQ20080621030509806/21/08 03:05:31  5-MIN KDBQ 210905Z AUTO 36005KT 10SM CLR 17/13 A3002 990 80 1500 360/05 RMK AO2
94908KDBQ DBQ20080621031009806/21/08 03:10:31  5-MIN KDBQ 210910Z AUTO 34007KT 10SM CLR 17/13 A3002 980 80 1400 340/07 RMK AO2
94908KDBQ DBQ20080621031510106/21/08 03:15:31  5-MIN KDBQ 210915Z AUTO 33006KT 10SM FEW120 17/13 A3002 980 75 1500 330/06 RMK AO2
94908KDBQ DBQ20080621032010106/21/08 03:20:31  5-MIN KDBQ 210920Z AUTO 33007KT 10SM SCT110 18/13 A3002 980 72 1600 330/07 RMK AO2
94908KDBQ DBQ20080621032510806/21/08 03:25:31  5-MIN KDBQ 210925Z AUTO 33009KT 10SM SCT095 BKN120 18/13 A3003 980 70 1600 330/09 RMK AO2
94908KDBQ DBQ20080621033010806/21/08 03:30:31  5-MIN KDBQ 210930Z AUTO 33009KT 10SM BKN090 BKN120 18/13 A3003 980 70 1600 330/09 RMK AO2
94908KDBQ DBQ20080621033510806/21/08 03:35:31  5-MIN KDBQ 210935Z AUTO 33010KT 10SM BKN090 BKN120 19/13 A3002 980 67 1700 330/10 RMK AO2
94908KDBQ DBQ20080621034010806/21/08 03:40:31  5-MIN KDBQ 210940Z AUTO 33007KT 10SM BKN095 BKN120 18/13 A3002 980 70 1600 330/07 RMK AO2
94908KDBQ DBQ20080621034510106/21/08 03:45:31  5-MIN KDBQ 210945Z AUTO 33007KT 10SM BKN100 18/13 A3002 990 70 1600 330/07 RMK AO2
94908KDBQ DBQ20080621035012506/21/08 03:50:31  5-MIN KDBQ 210950Z AUTO 34006KT 10SM SCT090 BKN110 18/13 A3002 980 70 1600 340/06 RMK AO2 SLP161 T01830128
94908KDBQ DBQ20080621035510806/21/08 03:55:31  5-MIN KDBQ 210955Z AUTO 35006KT 10SM BKN095 BKN110 18/13 A3002 990 75 1600 350/06 RMK AO2
94908KDBQ DBQ20080621040010106/21/08 04:00:31  5-MIN KDBQ 211000Z AUTO 36005KT 10SM BKN100 18/13 A3002 990 72 1600 350/05 RMK AO2
94908KDBQ DBQ20080621040510806/21/08 04:05:31  5-MIN KDBQ 211005Z AUTO 36005KT 10SM BKN095 BKN110 18/13 A3002 990 75 1600 360/05 RMK AO2
94908KDBQ DBQ20080621041011506/21/08 04:10:31  5-MIN KDBQ 211010Z AUTO 35005KT 10SM FEW080 BKN100 BKN110 18/13 A3002 980 75 1600 350/05 RMK AO2
94908KDBQ DBQ20080621041510806/21/08 04:15:31  5-MIN KDBQ 211015Z AUTO 36006KT 10SM FEW080 OVC100 18/13 A3002 990 75 1600 360/06 RMK AO2
94908KDBQ DBQ20080621042012406/21/08 04:20:31  5-MIN KDBQ 211020Z AUTO 01005KT 10SM -RA FEW075 OVC100 18/13 A3002 990 75 1600 010/05 RMK AO2 RAB18 P0000
94908KDBQ DBQ20080621042511706/21/08 04:25:31  5-MIN KDBQ 211025Z AUTO 02004KT 10SM -RA OVC090 17/13 A3002 980 78 1500 010/04 RMK AO2 RAB18 P0000
94908KDBQ DBQ20080621043011706/21/08 04:30:31  5-MIN KDBQ 211030Z AUTO 00000KT 10SM -RA OVC095 17/14 A3002 980 80 1500 000/00 RMK AO2 RAB18 P0000
94908KDBQ DBQ20080621043511606/21/08 04:35:31  5-MIN KDBQ 211035Z AUTO 00000KT 10SM OVC095 18/13 A3002 980 75 1600 000/00 RMK AO2 RAB18E35 P0000
94908KDBQ DBQ20080621044011606/21/08 04:40:31  5-MIN KDBQ 211040Z AUTO 00000KT 10SM OVC095 18/13 A3002 980 75 1600 000/00 RMK AO2 RAB18E35 P0000
94908KDBQ DBQ20080621044511606/21/08 04:45:31  5-MIN KDBQ 211045Z AUTO 07003KT 10SM OVC095 18/14 A3003 980 78 1600 060/03 RMK AO2 RAB18E35 P0000
94908KDBQ DBQ20080621045012806/21/08 04:50:31  5-MIN KDBQ 211050Z 00000KT 10SM OVC100 17/14 A3003 980 80 1500 000/00 RMK AO2 RAB18E35 SLP164 P0000 T01720139
94908KDBQ DBQ20080621045509606/21/08 04:55:31  5-MIN KDBQ 211055Z 00000KT 10SM OVC095 17/14 A3003 980 80 1500 000/00 RMK AO2
94908KDBQ DBQ20080621050009606/21/08 05:00:31  5-MIN KDBQ 211100Z 00000KT 10SM OVC100 18/14 A3003 980 78 1600 000/00 RMK AO2
94908KDBQ DBQ20080621050510306/21/08 05:05:31  5-MIN KDBQ 211105Z 00000KT 10SM BKN100 OVC110 18/14 A3003 980 78 1600 000/00 RMK AO2
94908KDBQ DBQ20080621051010306/21/08 05:10:31  5-MIN KDBQ 211110Z 00000KT 10SM BKN100 BKN110 18/14 A3002 980 78 1600 000/00 RMK AO2
94908KDBQ DBQ20080621051509606/21/08 05:15:31  5-MIN KDBQ 211115Z 00000KT 10SM BKN100 18/14 A3003 980 78 1600 000/00 RMK AO2
94908KDBQ DBQ20080621052009606/21/08 05:20:31  5-MIN KDBQ 211120Z 00000KT 10SM OVC110 18/14 A3003 980 78 1600 000/00 RMK AO2
94908KDBQ DBQ20080621052509606/21/08 05:25:31  5-MIN KDBQ 211125Z 34003KT 10SM OVC110 18/13 A3003 980 75 1600 340/03 RMK AO2
94908KDBQ DBQ20080621053009606/21/08 05:30:31  5-MIN KDBQ 211130Z 34004KT 10SM BKN110 17/14 A3003 980 83 1500 340/04 RMK AO2
94908KDBQ DBQ20080621053509606/21/08 05:35:31  5-MIN KDBQ 211135Z 34004KT 10SM BKN110 17/14 A3003 980 83 1500 340/04 RMK AO2
94908KDBQ DBQ20080621054009606/21/08 05:40:31  5-MIN KDBQ 211140Z 34005KT 10SM SCT110 17/14 A3003 970 83 1500 340/05 RMK AO2
94908KDBQ DBQ20080621054509606/21/08 05:45:31  5-MIN KDBQ 211145Z 34005KT 10SM SCT110 17/14 A3003 980 83 1500 340/05 RMK AO2
94908KDBQ DBQ20080621055013706/21/08 05:50:31  5-MIN KDBQ 211150Z 33004KT 10SM FEW110 17/14 A3004 970 83 1500 330/04 RMK AO2 SLP166 60000 T01720144 10189 20167 53007
94908KDBQ DBQ20080621055509306/21/08 05:55:31  5-MIN KDBQ 211155Z 33004KT 10SM CLR 18/14 A3004 970 81 1600 330/04 RMK AO2
94908KDBQ DBQ20080621060009306/21/08 06:00:31  5-MIN KDBQ 211200Z 32004KT 10SM CLR 18/14 A3003 970 81 1600 320/04 RMK AO2
94908KDBQ DBQ20080621060509306/21/08 06:05:31  5-MIN KDBQ 211205Z 31004KT 10SM CLR 18/14 A3004 970 81 1600 310/04 RMK AO2
94908KDBQ DBQ20080621061009306/21/08 06:10:31  5-MIN KDBQ 211210Z 31006KT 10SM CLR 18/14 A3003 970 78 1600 310/06 RMK AO2
94908KDBQ DBQ20080621061509306/21/08 06:15:31  5-MIN KDBQ 211215Z 31005KT 10SM CLR 19/14 A3004 970 72 1700 310/05 RMK AO2
94908KDBQ DBQ20080621062009306/21/08 06:20:31  5-MIN KDBQ 211220Z 31007KT 10SM CLR 19/13 A3004 970 67 1800 310/07 RMK AO2
94908KDBQ DBQ20080621062509306/21/08 06:25:31  5-MIN KDBQ 211225Z 31007KT 10SM CLR 19/13 A3003 970 67 1800 300/07 RMK AO2
94908KDBQ DBQ20080621063009306/21/08 06:30:31  5-MIN KDBQ 211230Z 31008KT 10SM CLR 20/14 A3004 970 67 1800 310/08 RMK AO2
94908KDBQ DBQ20080621063509306/21/08 06:35:31  5-MIN KDBQ 211235Z 31007KT 10SM CLR 20/14 A3004 970 67 1800 310/07 RMK AO2
94908KDBQ DBQ20080621064009306/21/08 06:40:31  5-MIN KDBQ 211240Z 32008KT 10SM CLR 20/14 A3004 970 67 1800 320/08 RMK AO2
94908KDBQ DBQ20080621064509306/21/08 06:45:31  5-MIN KDBQ 211245Z 32009KT 10SM CLR 20/14 A3004 970 67 1800 320/09 RMK AO2
94908KDBQ DBQ20080621065011006/21/08 06:50:31  5-MIN KDBQ 211250Z 32009KT 10SM CLR 20/14 A3004 970 67 1800 320/09 RMK AO2 SLP167 T02000139
94908KDBQ DBQ20080621065509306/21/08 06:55:31  5-MIN KDBQ 211255Z 32010KT 10SM CLR 21/14 A3004 960 65 1900 320/10 RMK AO2
94908KDBQ DBQ20080621070009306/21/08 07:00:31  5-MIN KDBQ 211300Z 32009KT 10SM CLR 21/13 A3004 970 63 1900 320/09 RMK AO2
94908KDBQ DBQ20080621070509306/21/08 07:05:31  5-MIN KDBQ 211305Z 32008KT 10SM CLR 21/13 A3004 970 61 1900 320/08 RMK AO2
94908KDBQ DBQ20080621071009306/21/08 07:10:31  5-MIN KDBQ 211310Z 33010KT 10SM CLR 21/13 A3004 970 61 1900 320/10 RMK AO2
94908KDBQ DBQ20080621071509306/21/08 07:15:31  5-MIN KDBQ 211315Z 32009KT 10SM CLR 21/13 A3004 970 61 1900 320/09 RMK AO2
94908KDBQ DBQ20080621072009306/21/08 07:20:31  5-MIN KDBQ 211320Z 33008KT 10SM CLR 22/13 A3004 970 58 2000 330/08 RMK AO2
94908KDBQ DBQ20080621072509306/21/08 07:25:31  5-MIN KDBQ 211325Z 33012KT 10SM CLR 22/13 A3005 960 56 2000 330/12 RMK AO2
94908KDBQ DBQ20080621073009306/21/08 07:30:31  5-MIN KDBQ 211330Z 33010KT 10SM CLR 22/13 A3004 970 56 2000 330/10 RMK AO2
94908KDBQ DBQ20080621073509306/21/08 07:35:31  5-MIN KDBQ 211335Z 32010KT 10SM CLR 22/12 A3004 960 52 2100 320/10 RMK AO2
94908KDBQ DBQ20080621074009306/21/08 07:40:31  5-MIN KDBQ 211340Z 33011KT 10SM CLR 22/12 A3004 960 52 2100 330/11 RMK AO2
94908KDBQ DBQ20080621074509306/21/08 07:45:31  5-MIN KDBQ 211345Z 33009KT 10SM CLR 22/12 A3004 970 52 2100 330/09 RMK AO2
94908KDBQ DBQ20080621075011006/21/08 07:50:31  5-MIN KDBQ 211350Z 33011KT 10SM CLR 22/13 A3004 960 54 2100 330/11 RMK AO2 SLP168 T02220128
94908KDBQ DBQ20080621075509906/21/08 07:55:31  5-MIN KDBQ 211355Z 33011G16KT 10SM CLR 23/12 A3004 960 51 2100 330/11G16 RMK AO2
94908KDBQ DBQ20080621080009906/21/08 08:00:31  5-MIN KDBQ 211400Z 34010G16KT 10SM CLR 23/12 A3005 960 51 2100 330/10G16 RMK AO2
94908KDBQ DBQ20080621080509306/21/08 08:05:31  5-MIN KDBQ 211405Z 33011KT 10SM CLR 23/12 A3005 960 49 2100 330/11 RMK AO2
94908KDBQ DBQ20080621081009306/21/08 08:10:31  5-MIN KDBQ 211410Z 34007KT 10SM CLR 23/12 A3005 960 47 2200 340/07 RMK AO2
94908KDBQ DBQ20080621081509306/21/08 08:15:31  5-MIN KDBQ 211415Z 33007KT 10SM CLR 23/12 A3005 960 47 2200 330/07 RMK AO2
94908KDBQ DBQ20080621082009306/21/08 08:20:31  5-MIN KDBQ 211420Z 34011KT 10SM CLR 23/11 A3005 960 45 2200 340/11 RMK AO2
94908KDBQ DBQ20080621082509906/21/08 08:25:31  5-MIN KDBQ 211425Z 34013G17KT 10SM CLR 23/11 A3005 960 44 2200 340/13G17 RMK AO2
94908KDBQ DBQ20080621083009906/21/08 08:30:31  5-MIN KDBQ 211430Z 33010G17KT 10SM CLR 23/11 A3005 960 44 2200 320/10G17 RMK AO2
94908KDBQ DBQ20080621083509906/21/08 08:35:31  5-MIN KDBQ 211435Z 34010G17KT 10SM CLR 24/10 A3005 960 41 2300 340/10G17 RMK AO2
94908KDBQ DBQ20080621084009306/21/08 08:40:31  5-MIN KDBQ 211440Z 34011KT 10SM CLR 24/10 A3005 960 41 2200 340/11 RMK AO2
94908KDBQ DBQ20080621084509306/21/08 08:45:31  5-MIN KDBQ 211445Z 33009KT 10SM CLR 24/10 A3005 960 41 2200 330/09 RMK AO2
94908KDBQ DBQ20080621085011606/21/08 08:50:31  5-MIN KDBQ 211450Z 33011KT 10SM CLR 24/09 A3005 960 39 2200 330/11 RMK AO2 SLP170 T02390094 53005
94908KDBQ DBQ20080621085509906/21/08 08:55:31  5-MIN KDBQ 211455Z 32012G17KT 10SM CLR 24/09 A3005 960 38 2300 320/12G17 RMK AO2
94908KDBQ DBQ20080621090009306/21/08 09:00:31  5-MIN KDBQ 211500Z 33011KT 10SM CLR 24/10 A3005 960 39 2300 330/11 RMK AO2
94908KDBQ DBQ20080621090509306/21/08 09:05:31  5-MIN KDBQ 211505Z 35012KT 10SM CLR 24/09 A3005 960 38 2300 350/12 RMK AO2
94908KDBQ DBQ20080621091009306/21/08 09:10:31  5-MIN KDBQ 211510Z 33011KT 10SM CLR 24/09 A3005 960 38 2300 330/11 RMK AO2
94908KDBQ DBQ20080621091509906/21/08 09:15:31  5-MIN KDBQ 211515Z 34008G17KT 10SM CLR 25/11 A3005 960 39 2400 340/08G17 RMK AO2
94908KDBQ DBQ20080621092009906/21/08 09:20:31  5-MIN KDBQ 211520Z 35014G19KT 10SM CLR 25/10 A3005 960 38 2400 340/14G19 RMK AO2
94908KDBQ DBQ20080621092509906/21/08 09:25:31  5-MIN KDBQ 211525Z 33015G21KT 10SM CLR 24/09 A3005 960 38 2300 330/15G21 RMK AO2
94908KDBQ DBQ20080621093009906/21/08 09:30:31  5-MIN KDBQ 211530Z 34014G21KT 10SM CLR 24/09 A3005 960 36 2300 340/14G21 RMK AO2
94908KDBQ DBQ20080621093509906/21/08 09:35:31  5-MIN KDBQ 211535Z 33014G21KT 10SM CLR 24/08 A3005 960 35 2300 330/14G21 RMK AO2
94908KDBQ DBQ20080621094009906/21/08 09:40:31  5-MIN KDBQ 211540Z 36014G21KT 10SM CLR 25/09 A3005 960 35 2400 350/14G21 RMK AO2
94908KDBQ DBQ20080621094509306/21/08 09:45:31  5-MIN KDBQ 211545Z 34012KT 10SM CLR 25/09 A3005 960 37 2400 340/12 RMK AO2
94908KDBQ DBQ20080621095011006/21/08 09:50:31  5-MIN KDBQ 211550Z 35010KT 10SM CLR 26/09 A3005 960 35 2400 350/10 RMK AO2 SLP169 T02560094
94908KDBQ DBQ20080621095509906/21/08 09:55:31  5-MIN KDBQ 211555Z 33009G16KT 10SM CLR 26/09 A3005 960 35 2400 330/09G16 RMK AO2
94908KDBQ DBQ20080621100009306/21/08 10:00:31  5-MIN KDBQ 211600Z 32011KT 10SM CLR 25/09 A3005 960 35 2400 320/11 RMK AO2
94908KDBQ DBQ20080621100509306/21/08 10:05:31  5-MIN KDBQ 211605Z 32015KT 10SM CLR 25/09 A3005 960 35 2400 320/15 RMK AO2
94908KDBQ DBQ20080621101009906/21/08 10:10:31  5-MIN KDBQ 211610Z 32016G21KT 10SM CLR 25/09 A3005 960 35 2400 320/16G21 RMK AO2
94908KDBQ DBQ20080621101509906/21/08 10:15:31  5-MIN KDBQ 211615Z 32012G21KT 10SM CLR 25/09 A3005 960 35 2400 320/12G21 RMK AO2
94908KDBQ DBQ20080621102009306/21/08 10:20:31  5-MIN KDBQ 211620Z 31013KT 10SM CLR 26/09 A3005 960 34 2400 310/13 RMK AO2
94908KDBQ DBQ20080621102509906/21/08 10:25:31  5-MIN KDBQ 211625Z 33013G19KT 10SM CLR 26/09 A3005 960 34 2400 330/13G19 RMK AO2
94908KDBQ DBQ20080621103009906/21/08 10:30:31  5-MIN KDBQ 211630Z 31015G19KT 10SM CLR 26/09 A3005 960 34 2400 310/15G19 RMK AO2
94908KDBQ DBQ20080621103510206/21/08 10:35:31  5-MIN KDBQ 211635Z 33015G19KT 10SM FEW075 26/09 A3005 960 34 2400 330/15G19 RMK AO2
94908KDBQ DBQ20080621104010206/21/08 10:40:31  5-MIN KDBQ 211640Z 33011G19KT 10SM FEW075 25/09 A3005 960 35 2400 330/11G19 RMK AO2
94908KDBQ DBQ20080621104510206/21/08 10:45:31  5-MIN KDBQ 211645Z 31013G19KT 10SM FEW075 26/09 A3005 960 34 2400 310/13G19 RMK AO2
94908KDBQ DBQ20080621105011906/21/08 10:50:31  5-MIN KDBQ 211650Z 31014G21KT 10SM FEW075 26/09 A3005 960 34 2400 310/14G21 RMK AO2 SLP169 T02560089
94908KDBQ DBQ20080621105510206/21/08 10:55:31  5-MIN KDBQ 211655Z 32015G23KT 10SM FEW075 25/08 A3005 960 34 2400 320/15G23 RMK AO2
94908KDBQ DBQ20080621110010206/21/08 11:00:31  5-MIN KDBQ 211700Z 32017G23KT 10SM FEW080 26/09 A3005 960 34 2400 320/17G23 RMK AO2
94908KDBQ DBQ20080621110510206/21/08 11:05:31  5-MIN KDBQ 211705Z 33014G22KT 10SM FEW080 26/09 A3005 960 33 2500 330/14G22 RMK AO2
94908KDBQ DBQ20080621111010206/21/08 11:10:31  5-MIN KDBQ 211710Z 32013G22KT 10SM SCT080 25/09 A3005 960 35 2400 320/13G22 RMK AO2
94908KDBQ DBQ20080621111510206/21/08 11:15:31  5-MIN KDBQ 211715Z 34012G20KT 10SM SCT080 26/09 A3004 960 34 2400 340/12G20 RMK AO2
94908KDBQ DBQ20080621112010206/21/08 11:20:31  5-MIN KDBQ 211720Z 33014G20KT 10SM SCT080 26/10 A3004 960 37 2400 330/14G20 RMK AO2
94908KDBQ DBQ20080621112510206/21/08 11:25:31  5-MIN KDBQ 211725Z 33012G19KT 10SM BKN080 25/09 A3004 970 35 2400 330/12G19 RMK AO2
94908KDBQ DBQ20080621113010206/21/08 11:30:31  5-MIN KDBQ 211730Z 33013G19KT 10SM SCT080 26/09 A3004 970 34 2500 330/13G19 RMK AO2
94908KDBQ DBQ20080621113510206/21/08 11:35:31  5-MIN KDBQ 211735Z 32017G22KT 10SM SCT075 26/08 A3004 960 31 2500 320/17G22 RMK AO2
94908KDBQ DBQ20080621114012006/21/08 11:40:31  5-MIN KDBQ 211740Z 32018G26KT 10SM SCT080 26/07 A3004 970 30 2400 320/18G26 RMK AO2 PK WND 32026/1740
94908KDBQ DBQ20080621114512006/21/08 11:45:31  5-MIN KDBQ 211745Z 33013G26KT 10SM FEW080 26/07 A3004 970 29 2500 320/13G26 RMK AO2 PK WND 32026/1740
94908KDBQ DBQ20080621115015506/21/08 11:50:31  5-MIN KDBQ 211750Z 30015G22KT 10SM FEW075 26/08 A3004 960 32 2500 300/15G22 RMK AO2 PK WND 32026/1740 SLP168 T02610083 10261 20178 51004
94908KDBQ DBQ20080621115509906/21/08 11:55:31  5-MIN KDBQ 211755Z 32014G22KT 10SM CLR 26/10 A3004 970 36 2500 310/14G22 RMK AO2
94908KDBQ DBQ20080621120009906/21/08 12:00:31  5-MIN KDBQ 211800Z 31013G19KT 10SM CLR 26/09 A3004 970 34 2500 310/13G19 RMK AO2
94908KDBQ DBQ20080621120510206/21/08 12:05:31  5-MIN KDBQ 211805Z 30012G19KT 10SM FEW080 26/09 A3003 970 34 2500 300/12G19 RMK AO2
94908KDBQ DBQ20080621121009606/21/08 12:10:31  5-MIN KDBQ 211810Z 30012KT 10SM FEW080 26/09 A3003 970 33 2500 300/12 RMK AO2
94908KDBQ DBQ20080621121510206/21/08 12:15:31  5-MIN KDBQ 211815Z 31017G21KT 10SM FEW080 27/09 A3004 970 33 2600 310/17G21 RMK AO2
94908KDBQ DBQ20080621122010206/21/08 12:20:31  5-MIN KDBQ 211820Z 32015G22KT 10SM FEW080 26/09 A3003 970 33 2500 320/15G22 RMK AO2
94908KDBQ DBQ20080621122510206/21/08 12:25:31  5-MIN KDBQ 211825Z 31013G22KT 10SM FEW080 26/09 A3003 980 34 2500 310/13G22 RMK AO2
94908KDBQ DBQ20080621123010206/21/08 12:30:31  5-MIN KDBQ 211830Z 32013G21KT 10SM FEW100 27/10 A3003 980 34 2600 320/13G21 RMK AO2
94908KDBQ DBQ20080621123510206/21/08 12:35:31  5-MIN KDBQ 211835Z 31014G20KT 10SM FEW100 26/09 A3003 980 34 2500 310/14G20 RMK AO2
94908KDBQ DBQ20080621124009906/21/08 12:40:31  5-MIN KDBQ 211840Z 31011G20KT 10SM CLR 26/09 A3003 980 34 2500 310/11G20 RMK AO2
94908KDBQ DBQ20080621124509906/21/08 12:45:31  5-MIN KDBQ 211845Z 29013G18KT 10SM CLR 27/10 A3002 990 34 2600 290/13G18 RMK AO2
94908KDBQ DBQ20080621125011606/21/08 12:50:31  5-MIN KDBQ 211850Z 31013G21KT 10SM CLR 26/09 A3002 980 33 2500 310/13G21 RMK AO2 SLP161 T02610089
94908KDBQ DBQ20080621125509906/21/08 12:55:31  5-MIN KDBQ 211855Z 31015G21KT 10SM CLR 26/09 A3002 980 33 2500 310/15G21 RMK AO2
94908KDBQ DBQ20080621130009906/21/08 13:00:31  5-MIN KDBQ 211900Z 31014G21KT 10SM CLR 27/09 A3003 980 32 2600 310/14G21 RMK AO2
94908KDBQ DBQ20080621130509906/21/08 13:05:31  5-MIN KDBQ 211905Z 31012G20KT 10SM CLR 27/09 A3002 980 32 2600 310/12G20 RMK AO2
94908KDBQ DBQ20080621131009906/21/08 13:10:31  5-MIN KDBQ 211910Z 31015G20KT 10SM CLR 27/09 A3002 980 32 2600 310/15G20 RMK AO2
94908KDBQ DBQ20080621131509906/21/08 13:15:31  5-MIN KDBQ 211915Z 29014G20KT 10SM CLR 27/09 A3002 990 32 2600 290/14G20 RMK AO2
94908KDBQ DBQ20080621132009906/21/08 13:20:31  5-MIN KDBQ 211920Z 31014G20KT 10SM CLR 26/09 A3002 990 33 2500 300/14G20 RMK AO2
94908KDBQ DBQ20080621132509906/21/08 13:25:31  5-MIN KDBQ 211925Z 33016G22KT 10SM CLR 27/09 A3002 990 32 2600 330/16G22 RMK AO2
94908KDBQ DBQ20080621133009906/21/08 13:30:31  5-MIN KDBQ 211930Z 32014G22KT 10SM CLR 26/09 A3002 990 34 2500 320/14G22 RMK AO2
94908KDBQ DBQ20080621133510206/21/08 13:35:31  5-MIN KDBQ 211935Z 29015G21KT 10SM FEW075 26/09 A3001 990 33 2500 290/15G21 RMK AO2
94908KDBQ DBQ20080621134010206/21/08 13:40:31  5-MIN KDBQ 211940Z 31015G21KT 10SM FEW075 26/09 A3001 990 33 2500 310/15G21 RMK AO2
94908KDBQ DBQ20080621134509906/21/08 13:45:31  5-MIN KDBQ 211945Z 33013G19KT 10SM CLR 26/08 A3001 990 32 2500 320/13G19 RMK AO2
94908KDBQ DBQ20080621135011006/21/08 13:50:31  5-MIN KDBQ 211950Z 31014KT 10SM CLR 27/09 A3001 990 32 2600 310/14 RMK AO2 SLP157 T02670089
94908KDBQ DBQ20080621135509706/21/08 13:55:31  5-MIN KDBQ 211955Z 32012KT 10SM SCT080 26/08 A3001 1000 32 2500 320/12 RMK AO2
94908KDBQ DBQ20080621140009706/21/08 14:00:31  5-MIN KDBQ 212000Z 28014KT 10SM FEW080 26/09 A3001 1000 33 2500 280/14 RMK AO2
94908KDBQ DBQ20080621140509706/21/08 14:05:31  5-MIN KDBQ 212005Z 30014KT 10SM FEW080 27/08 A3001 1000 29 2600 300/14 RMK AO2
94908KDBQ DBQ20080621141010306/21/08 14:10:31  5-MIN KDBQ 212010Z 31013G22KT 10SM FEW080 27/08 A3001 1000 31 2600 310/13G22 RMK AO2
94908KDBQ DBQ20080621141510306/21/08 14:15:31  5-MIN KDBQ 212015Z 31009G22KT 10SM FEW080 27/09 A3000 1000 32 2600 310/09G22 RMK AO2
94908KDBQ DBQ20080621142010306/21/08 14:20:31  5-MIN KDBQ 212020Z 33013G20KT 10SM FEW080 26/08 A3000 1000 32 2600 320/13G20 RMK AO2
94908KDBQ DBQ20080621142510006/21/08 14:25:31  5-MIN KDBQ 212025Z 32010G17KT 10SM CLR 27/09 A3000 1010 31 2700 320/10G17 RMK AO2
94908KDBQ DBQ20080621143009706/21/08 14:30:31  5-MIN KDBQ 212030Z 30011KT 10SM FEW085 27/09 A3000 1010 31 2700 300/11 RMK AO2
94908KDBQ DBQ20080621143510306/21/08 14:35:31  5-MIN KDBQ 212035Z 29014G19KT 10SM FEW085 27/08 A2999 1010 29 2600 290/14G19 RMK AO2
94908KDBQ DBQ20080621144010306/21/08 14:40:31  5-MIN KDBQ 212040Z 32012G19KT 10SM FEW085 27/08 A3000 1010 29 2600 320/12G19 RMK AO2
94908KDBQ DBQ20080621144509706/21/08 14:45:31  5-MIN KDBQ 212045Z 31012KT 10SM FEW085 27/08 A2999 1010 31 2600 300/12 RMK AO2
94908KDBQ DBQ20080621145012606/21/08 14:50:31  5-MIN KDBQ 212050Z 30014G18KT 10SM FEW085 27/08 A2999 1010 30 2700 300/14G18 RMK AO2 SLP150 T02720083 58003
94908KDBQ DBQ20080621145510306/21/08 14:55:31  5-MIN KDBQ 212055Z 30015G20KT 10SM FEW085 27/08 A2999 1010 29 2600 300/15G20 RMK AO2
94908KDBQ DBQ20080621150010006/21/08 15:00:31  5-MIN KDBQ 212100Z 31012G20KT 10SM CLR 27/08 A2999 1010 30 2700 310/12G20 RMK AO2
94908KDBQ DBQ20080621150510006/21/08 15:05:31  5-MIN KDBQ 212105Z 30017G23KT 10SM CLR 27/08 A2999 1010 29 2700 300/17G23 RMK AO2
94908KDBQ DBQ20080621151010006/21/08 15:10:31  5-MIN KDBQ 212110Z 31016G23KT 10SM CLR 27/08 A2999 1020 29 2700 310/16G23 RMK AO2
94908KDBQ DBQ20080621151510006/21/08 15:15:31  5-MIN KDBQ 212115Z 31015G21KT 10SM CLR 27/08 A2999 1020 29 2600 310/15G21 RMK AO2
94908KDBQ DBQ20080621152010006/21/08 15:20:31  5-MIN KDBQ 212120Z 31018G24KT 10SM CLR 27/08 A2999 1020 29 2700 300/18G24 RMK AO2
94908KDBQ DBQ20080621152510006/21/08 15:25:31  5-MIN KDBQ 212125Z 32012G24KT 10SM CLR 27/08 A2999 1020 29 2600 320/12G24 RMK AO2
94908KDBQ DBQ20080621153010006/21/08 15:30:31  5-MIN KDBQ 212130Z 32011G19KT 10SM CLR 27/08 A2998 1020 30 2700 320/11G19 RMK AO2
94908KDBQ DBQ20080621153510006/21/08 15:35:31  5-MIN KDBQ 212135Z 31014G19KT 10SM CLR 27/08 A2998 1020 31 2600 310/14G19 RMK AO2
94908KDBQ DBQ20080621154010006/21/08 15:40:31  5-MIN KDBQ 212140Z 31015G22KT 10SM CLR 27/08 A2998 1020 31 2600 310/15G22 RMK AO2
94908KDBQ DBQ20080621154510006/21/08 15:45:31  5-MIN KDBQ 212145Z 31009G22KT 10SM CLR 27/08 A2998 1020 29 2600 310/09G22 RMK AO2
94908KDBQ DBQ20080621155011706/21/08 15:50:31  5-MIN KDBQ 212150Z 33013G18KT 10SM CLR 27/09 A2998 1020 32 2700 330/13G18 RMK AO2 SLP147 T02720094
94908KDBQ DBQ20080621155509406/21/08 15:55:31  5-MIN KDBQ 212155Z 32013KT 10SM CLR 27/08 A2998 1020 31 2600 320/13 RMK AO2
94908KDBQ DBQ20080621160009406/21/08 16:00:31  5-MIN KDBQ 212200Z 32013KT 10SM CLR 27/09 A2998 1020 32 2600 320/13 RMK AO2
94908KDBQ DBQ20080621160510006/21/08 16:05:31  5-MIN KDBQ 212205Z 33012G16KT 10SM CLR 27/09 A2998 1020 33 2600 330/12G16 RMK AO2
94908KDBQ DBQ20080621161010006/21/08 16:10:31  5-MIN KDBQ 212210Z 33009G16KT 10SM CLR 26/09 A2998 1020 34 2500 330/09G16 RMK AO2
94908KDBQ DBQ20080621161509706/21/08 16:15:31  5-MIN KDBQ 212215Z 32009KT 10SM FEW085 26/09 A2998 1020 34 2600 320/09 RMK AO2
94908KDBQ DBQ20080621162010306/21/08 16:20:31  5-MIN KDBQ 212220Z 33013G17KT 10SM FEW085 26/09 A2998 1020 34 2600 330/13G17 RMK AO2
94908KDBQ DBQ20080621162510306/21/08 16:25:31  5-MIN KDBQ 212225Z 32014G19KT 10SM FEW085 26/08 A2998 1020 32 2500 320/14G19 RMK AO2
94908KDBQ DBQ20080621163010306/21/08 16:30:31  5-MIN KDBQ 212230Z 33010G19KT 10SM FEW085 25/08 A2998 1020 33 2500 330/10G19 RMK AO2
94908KDBQ DBQ20080621163510306/21/08 16:35:31  5-MIN KDBQ 212235Z 32012G18KT 10SM FEW085 25/08 A2998 1020 33 2500 320/12G18 RMK AO2
94908KDBQ DBQ20080621164009706/21/08 16:40:31  5-MIN KDBQ 212240Z 32012KT 10SM FEW085 25/08 A2998 1020 34 2500 320/12 RMK AO2
94908KDBQ DBQ20080621164510006/21/08 16:45:31  5-MIN KDBQ 212245Z 34009G17KT 10SM CLR 25/09 A2998 1020 37 2500 340/09G17 RMK AO2
94908KDBQ DBQ20080621165011106/21/08 16:50:31  5-MIN KDBQ 212250Z 34012KT 10SM CLR 25/10 A2998 1030 38 2500 340/12 RMK AO2 SLP146 T02500100
94908KDBQ DBQ20080621165509406/21/08 16:55:31  5-MIN KDBQ 212255Z 34009KT 10SM CLR 24/10 A2998 1030 39 2400 340/09 RMK AO2
94908KDBQ DBQ20080621170009406/21/08 17:00:31  5-MIN KDBQ 212300Z 34010KT 10SM CLR 25/11 A2998 1030 39 2500 340/10 RMK AO2
94908KDBQ DBQ20080621170509406/21/08 17:05:31  5-MIN KDBQ 212305Z 33010KT 10SM CLR 26/11 A2998 1030 38 2500 330/10 RMK AO2
94908KDBQ DBQ20080621171009406/21/08 17:10:31  5-MIN KDBQ 212310Z 33009KT 10SM CLR 26/10 A2998 1030 37 2500 330/09 RMK AO2
94908KDBQ DBQ20080621171509406/21/08 17:15:31  5-MIN KDBQ 212315Z 35008KT 10SM CLR 25/11 A2998 1030 41 2500 350/08 RMK AO2
94908KDBQ DBQ20080621172009406/21/08 17:20:31  5-MIN KDBQ 212320Z 35011KT 10SM CLR 24/10 A2997 1030 39 2400 350/11 RMK AO2
94908KDBQ DBQ20080621172509406/21/08 17:25:31  5-MIN KDBQ 212325Z 33010KT 10SM CLR 24/11 A2997 1030 41 2400 330/10 RMK AO2
94908KDBQ DBQ20080621173009406/21/08 17:30:31  5-MIN KDBQ 212330Z 34009KT 10SM CLR 25/11 A2997 1030 39 2500 340/09 RMK AO2
94908KDBQ DBQ20080621173509406/21/08 17:35:31  5-MIN KDBQ 212335Z 33010KT 10SM CLR 24/10 A2997 1030 39 2400 330/10 RMK AO2
94908KDBQ DBQ20080621174009406/21/08 17:40:31  5-MIN KDBQ 212340Z 34009KT 10SM CLR 24/10 A2997 1030 41 2300 340/09 RMK AO2
94908KDBQ DBQ20080621174509406/21/08 17:45:31  5-MIN KDBQ 212345Z 34007KT 10SM CLR 23/11 A2997 1030 44 2300 340/07 RMK AO2
94908KDBQ DBQ20080621175013406/21/08 17:50:31  5-MIN KDBQ 212350Z AUTO 34007KT 10SM CLR 23/11 A2997 1030 44 2300 340/07 RMK AO2 SLP145 T02330106 10272 20233 58016
94908KDBQ DBQ20080621175509906/21/08 17:55:31  5-MIN KDBQ 212355Z AUTO 35007KT 10SM CLR 23/11 A2997 1030 44 2300 350/07 RMK AO2
94908KDBQ DBQ20080621180009906/21/08 18:00:31  5-MIN KDBQ 220000Z AUTO 34007KT 10SM CLR 23/10 A2997 1030 42 2300 340/07 RMK AO2
94908KDBQ DBQ20080621180509906/21/08 18:05:31  5-MIN KDBQ 220005Z AUTO 34006KT 10SM CLR 23/11 A2997 1030 45 2200 340/06 RMK AO2
94908KDBQ DBQ20080621181009906/21/08 18:10:31  5-MIN KDBQ 220010Z AUTO 35007KT 10SM CLR 23/11 A2997 1030 45 2200 340/07 RMK AO2
94908KDBQ DBQ20080621181509906/21/08 18:15:31  5-MIN KDBQ 220015Z AUTO 34005KT 10SM CLR 22/11 A2997 1030 49 2100 340/05 RMK AO2
94908KDBQ DBQ20080621182009906/21/08 18:20:31  5-MIN KDBQ 220020Z AUTO 34007KT 10SM CLR 22/11 A2997 1030 49 2100 340/07 RMK AO2
94908KDBQ DBQ20080621182509906/21/08 18:25:31  5-MIN KDBQ 220025Z AUTO 33006KT 10SM CLR 22/10 A2997 1030 45 2100 330/06 RMK AO2
94908KDBQ DBQ20080621183009906/21/08 18:30:31  5-MIN KDBQ 220030Z AUTO 33005KT 10SM CLR 22/11 A2997 1030 47 2100 330/05 RMK AO2
94908KDBQ DBQ20080621183509906/21/08 18:35:31  5-MIN KDBQ 220035Z AUTO 33005KT 10SM CLR 22/11 A2997 1030 50 2100 330/05 RMK AO2
94908KDBQ DBQ20080621184009906/21/08 18:40:31  5-MIN KDBQ 220040Z AUTO 34006KT 10SM CLR 22/11 A2997 1030 49 2100 340/06 RMK AO2
94908KDBQ DBQ20080621184509906/21/08 18:45:31  5-MIN KDBQ 220045Z AUTO 34006KT 10SM CLR 22/11 A2997 1030 47 2100 340/06 RMK AO2
94908KDBQ DBQ20080621185011606/21/08 18:50:31  5-MIN KDBQ 220050Z AUTO 33006KT 10SM CLR 22/11 A2997 1030 47 2100 330/06 RMK AO2 SLP145 T02220106
94908KDBQ DBQ20080621185509906/21/08 18:55:31  5-MIN KDBQ 220055Z AUTO 34006KT 10SM CLR 22/11 A2997 1030 47 2100 340/06 RMK AO2
94908KDBQ DBQ20080621190009906/21/08 19:00:31  5-MIN KDBQ 220100Z AUTO 34005KT 10SM CLR 22/11 A2997 1030 47 2100 340/05 RMK AO2
94908KDBQ DBQ20080621190509906/21/08 19:05:31  5-MIN KDBQ 220105Z AUTO 34005KT 10SM CLR 22/11 A2997 1030 47 2100 330/05 RMK AO2
94908KDBQ DBQ20080621191009906/21/08 19:10:31  5-MIN KDBQ 220110Z AUTO 34005KT 10SM CLR 22/11 A2997 1030 49 2100 340/05 RMK AO2
94908KDBQ DBQ20080621191509906/21/08 19:15:31  5-MIN KDBQ 220115Z AUTO 34005KT 10SM CLR 21/11 A2997 1030 50 2000 340/05 RMK AO2
94908KDBQ DBQ20080621192009906/21/08 19:20:31  5-MIN KDBQ 220120Z AUTO 33004KT 10SM CLR 21/11 A2997 1030 50 2000 330/04 RMK AO2
94908KDBQ DBQ20080621192509906/21/08 19:25:31  5-MIN KDBQ 220125Z AUTO 33004KT 10SM CLR 21/11 A2997 1030 52 2000 320/04 RMK AO2
94908KDBQ DBQ20080621193009906/21/08 19:30:31  5-MIN KDBQ 220130Z AUTO 32004KT 10SM CLR 21/10 A2997 1030 50 2000 320/04 RMK AO2
94908KDBQ DBQ20080621193509906/21/08 19:35:31  5-MIN KDBQ 220135Z AUTO 33004KT 10SM CLR 21/10 A2997 1030 48 2000 330/04 RMK AO2
94908KDBQ DBQ20080621194009906/21/08 19:40:31  5-MIN KDBQ 220140Z AUTO 32004KT 10SM CLR 21/09 A2997 1030 48 2000 320/04 RMK AO2
94908KDBQ DBQ20080621194509906/21/08 19:45:31  5-MIN KDBQ 220145Z AUTO 32004KT 10SM CLR 21/09 A2997 1030 48 2000 320/04 RMK AO2
94908KDBQ DBQ20080621195011606/21/08 19:50:31  5-MIN KDBQ 220150Z AUTO 31004KT 10SM CLR 20/09 A2997 1030 50 1900 310/04 RMK AO2 SLP144 T02000094
94908KDBQ DBQ20080621195509906/21/08 19:55:31  5-MIN KDBQ 220155Z AUTO 31004KT 10SM CLR 20/09 A2997 1030 50 1900 310/04 RMK AO2
94908KDBQ DBQ20080621200009906/21/08 20:00:31  5-MIN KDBQ 220200Z AUTO 32003KT 10SM CLR 20/09 A2997 1030 50 1900 320/03 RMK AO2
94908KDBQ DBQ20080621200509906/21/08 20:05:31  5-MIN KDBQ 220205Z AUTO 00000KT 10SM CLR 19/09 A2997 1030 52 1800 000/00 RMK AO2
94908KDBQ DBQ20080621201009906/21/08 20:10:31  5-MIN KDBQ 220210Z AUTO 00000KT 10SM CLR 18/09 A2997 1030 56 1700 000/00 RMK AO2
94908KDBQ DBQ20080621201509906/21/08 20:15:31  5-MIN KDBQ 220215Z AUTO 00000KT 10SM CLR 17/10 A2997 1030 62 1600 000/00 RMK AO2
94908KDBQ DBQ20080621202009906/21/08 20:20:31  5-MIN KDBQ 220220Z AUTO 00000KT 10SM CLR 18/11 A2997 1030 60 1700 000/00 RMK AO2
94908KDBQ DBQ20080621202509906/21/08 20:25:31  5-MIN KDBQ 220225Z AUTO 00000KT 10SM CLR 18/11 A2997 1030 62 1700 000/00 RMK AO2
94908KDBQ DBQ20080621203009906/21/08 20:30:31  5-MIN KDBQ 220230Z AUTO 00000KT 10SM CLR 18/11 A2997 1030 60 1700 000/00 RMK AO2
94908KDBQ DBQ20080621203509906/21/08 20:35:31  5-MIN KDBQ 220235Z AUTO 00000KT 10SM CLR 18/11 A2997 1030 64 1600 000/00 RMK AO2
94908KDBQ DBQ20080621204009906/21/08 20:40:31  5-MIN KDBQ 220240Z AUTO 00000KT 10SM CLR 18/11 A2998 1030 60 1700 000/00 RMK AO2
94908KDBQ DBQ20080621204509906/21/08 20:45:31  5-MIN KDBQ 220245Z AUTO 00000KT 10SM CLR 18/10 A2998 1030 60 1600 000/00 RMK AO2
94908KDBQ DBQ20080621205012206/21/08 20:50:31  5-MIN KDBQ 220250Z AUTO 00000KT 10SM CLR 17/11 A2998 1020 64 1600 000/00 RMK AO2 SLP147 T01720106 56006
94908KDBQ DBQ20080621205509906/21/08 20:55:31  5-MIN KDBQ 220255Z AUTO 00000KT 10SM CLR 17/10 A2998 1020 62 1600 000/00 RMK AO2
94908KDBQ DBQ20080621210009906/21/08 21:00:31  5-MIN KDBQ 220300Z AUTO 00000KT 10SM CLR 17/10 A2998 1020 62 1600 000/00 RMK AO2
94908KDBQ DBQ20080621210509906/21/08 21:05:31  5-MIN KDBQ 220305Z AUTO 00000KT 10SM CLR 16/11 A2998 1020 72 1400 000/00 RMK AO2
94908KDBQ DBQ20080621211009906/21/08 21:10:31  5-MIN KDBQ 220310Z AUTO 00000KT 10SM CLR 17/11 A2999 1020 69 1500 000/00 RMK AO2
94908KDBQ DBQ20080621211509906/21/08 21:15:31  5-MIN KDBQ 220315Z AUTO 00000KT 10SM CLR 16/12 A2998 1020 75 1400 000/00 RMK AO2
94908KDBQ DBQ20080621212009906/21/08 21:20:31  5-MIN KDBQ 220320Z AUTO 00000KT 10SM CLR 16/12 A2998 1020 75 1400 000/00 RMK AO2
94908KDBQ DBQ20080621212509906/21/08 21:25:31  5-MIN KDBQ 220325Z AUTO 00000KT 10SM CLR 17/12 A2998 1020 72 1500 000/00 RMK AO2
94908KDBQ DBQ20080621213009906/21/08 21:30:31  5-MIN KDBQ 220330Z AUTO 00000KT 10SM CLR 17/12 A2999 1020 72 1500 000/00 RMK AO2
94908KDBQ DBQ20080621213509906/21/08 21:35:31  5-MIN KDBQ 220335Z AUTO 00000KT 10SM CLR 17/12 A2998 1020 72 1500 000/00 RMK AO2
94908KDBQ DBQ20080621214009906/21/08 21:40:31  5-MIN KDBQ 220340Z AUTO 00000KT 10SM CLR 16/12 A2999 1020 75 1400 000/00 RMK AO2
94908KDBQ DBQ20080621214509906/21/08 21:45:31  5-MIN KDBQ 220345Z AUTO 00000KT 10SM CLR 17/11 A2999 1020 69 1500 000/00 RMK AO2
94908KDBQ DBQ20080621215011606/21/08 21:50:31  5-MIN KDBQ 220350Z AUTO 00000KT 10SM CLR 16/11 A2998 1020 72 1400 000/00 RMK AO2 SLP148 T01610111
94908KDBQ DBQ20080621215509906/21/08 21:55:31  5-MIN KDBQ 220355Z AUTO 00000KT 10SM CLR 16/11 A2998 1020 72 1400 000/00 RMK AO2
94908KDBQ DBQ20080621220009906/21/08 22:00:31  5-MIN KDBQ 220400Z AUTO 00000KT 10SM CLR 16/11 A2998 1020 72 1400 000/00 RMK AO2
94908KDBQ DBQ20080621220509906/21/08 22:05:31  5-MIN KDBQ 220405Z AUTO 00000KT 10SM CLR 16/11 A2998 1020 72 1400 000/00 RMK AO2
94908KDBQ DBQ20080621221009906/21/08 22:10:31  5-MIN KDBQ 220410Z AUTO 00000KT 10SM CLR 16/11 A2998 1020 74 1400 000/00 RMK AO2
94908KDBQ DBQ20080621221509906/21/08 22:15:31  5-MIN KDBQ 220415Z AUTO 00000KT 10SM CLR 16/12 A2998 1020 77 1400 000/00 RMK AO2
94908KDBQ DBQ20080621222009906/21/08 22:20:31  5-MIN KDBQ 220420Z AUTO 00000KT 10SM CLR 16/11 A2998 1020 72 1400 000/00 RMK AO2
94908KDBQ DBQ20080621222509906/21/08 22:25:31  5-MIN KDBQ 220425Z AUTO 00000KT 10SM CLR 16/11 A2999 1020 74 1400 000/00 RMK AO2
94908KDBQ DBQ20080621223009906/21/08 22:30:31  5-MIN KDBQ 220430Z AUTO 00000KT 10SM CLR 16/11 A2998 1020 72 1400 000/00 RMK AO2
94908KDBQ DBQ20080621223509906/21/08 22:35:31  5-MIN KDBQ 220435Z AUTO 00000KT 10SM CLR 16/11 A2999 1020 74 1400 000/00 RMK AO2
94908KDBQ DBQ20080621224009906/21/08 22:40:31  5-MIN KDBQ 220440Z AUTO 00000KT 10SM CLR 16/11 A2999 1020 69 1400 000/00 RMK AO2
94908KDBQ DBQ20080621224509906/21/08 22:45:31  5-MIN KDBQ 220445Z AUTO 00000KT 10SM CLR 16/10 A2998 1020 67 1400 000/00 RMK AO2
94908KDBQ DBQ20080621225011606/21/08 22:50:31  5-MIN KDBQ 220450Z AUTO 00000KT 10SM CLR 16/11 A2998 1020 69 1400 000/00 RMK AO2 SLP148 T01610106
94908KDBQ DBQ20080621225509906/21/08 22:55:31  5-MIN KDBQ 220455Z AUTO 00000KT 10SM CLR 16/11 A2999 1020 72 1400 000/00 RMK AO2
94908KDBQ DBQ20080621230009906/21/08 23:00:31  5-MIN KDBQ 220500Z AUTO 23003KT 10SM CLR 15/12 A2999 1020 80 1300 230/03 RMK AO2
94908KDBQ DBQ20080621230509906/21/08 23:05:31  5-MIN KDBQ 220505Z AUTO 22003KT 10SM CLR 14/11 A2998 1020 80 1200 220/03 RMK AO2
94908KDBQ DBQ20080621231009906/21/08 23:10:31  5-MIN KDBQ 220510Z AUTO 22003KT 10SM CLR 14/12 A2998 1020 83 1200 220/03 RMK AO2
94908KDBQ DBQ20080621231509906/21/08 23:15:31  5-MIN KDBQ 220515Z AUTO 23003KT 10SM CLR 14/12 A2998 1020 83 1200 230/03 RMK AO2
94908KDBQ DBQ20080621232009906/21/08 23:20:31  5-MIN KDBQ 220520Z AUTO 22003KT 10SM CLR 15/12 A2998 1020 80 1300 220/03 RMK AO2
94908KDBQ DBQ20080621232509906/21/08 23:25:31  5-MIN KDBQ 220525Z AUTO 00000KT 10SM CLR 15/12 A2998 1020 80 1300 000/00 RMK AO2
94908KDBQ DBQ20080621233009906/21/08 23:30:31  5-MIN KDBQ 220530Z AUTO 00000KT 10SM CLR 14/12 A2998 1030 83 1200 000/00 RMK AO2
94908KDBQ DBQ20080621233509906/21/08 23:35:31  5-MIN KDBQ 220535Z AUTO 00000KT 10SM CLR 15/11 A2998 1020 77 1300 000/00 RMK AO2
94908KDBQ DBQ20080621234009906/21/08 23:40:31  5-MIN KDBQ 220540Z AUTO 00000KT 10SM CLR 15/11 A2998 1030 77 1300 000/00 RMK AO2
94908KDBQ DBQ20080621234509906/21/08 23:45:31  5-MIN KDBQ 220545Z AUTO 00000KT 10SM CLR 15/11 A2997 1030 77 1300 000/00 RMK AO2
94908KDBQ DBQ20080621235014406/21/08 23:50:31  5-MIN KDBQ 220550Z AUTO 00000KT 10SM CLR 15/12 A2997 1030 80 1300 000/00 RMK AO2 SLP145 T01500117 10233 20144 402720144 53002
94908KDBQ DBQ20080621235509906/21/08 23:55:31  5-MIN KDBQ 220555Z AUTO 00000KT 10SM CLR 16/12 A2997 1030 77 1400 000/00 RMK AO2
94908KDBQ DBQ20080622000009906/22/08 00:00:38  5-MIN KDBQ 220600Z AUTO 00000KT 10SM CLR 15/12 A2997 1040 80 1300 000/00 RMK AO2
94908KDBQ DBQ20080622000509906/22/08 00:05:31  5-MIN KDBQ 220605Z AUTO 00000KT 10SM CLR 15/12 A2997 1040 80 1300 000/00 RMK AO2
94908KDBQ DBQ20080622001009906/22/08 00:10:31  5-MIN KDBQ 220610Z AUTO 00000KT 10SM CLR 15/12 A2997 1040 80 1300 000/00 RMK AO2
94908KDBQ DBQ20080622001509906/22/08 00:15:31  5-MIN KDBQ 220615Z AUTO 21003KT 10SM CLR 15/12 A2996 1040 80 1300 210/03 RMK AO2
94908KDBQ DBQ20080622002009906/22/08 00:20:31  5-MIN KDBQ 220620Z AUTO 21003KT 10SM CLR 14/12 A2996 1040 83 1300 210/03 RMK AO2
94908KDBQ DBQ20080622002509906/22/08 00:25:31  5-MIN KDBQ 220625Z AUTO 21003KT 10SM CLR 14/12 A2996 1040 83 1300 210/03 RMK AO2
94908KDBQ DBQ20080622003009906/22/08 00:30:31  5-MIN KDBQ 220630Z AUTO 22003KT 10SM CLR 14/12 A2996 1040 86 1200 220/03 RMK AO2
94908KDBQ DBQ20080622003509906/22/08 00:35:31  5-MIN KDBQ 220635Z AUTO 22004KT 10SM CLR 14/12 A2996 1040 83 1300 210/04 RMK AO2
94908KDBQ DBQ20080622004009906/22/08 00:40:31  5-MIN KDBQ 220640Z AUTO 21004KT 10SM CLR 14/12 A2996 1040 83 1300 210/04 RMK AO2
94908KDBQ DBQ20080622004509906/22/08 00:45:31  5-MIN KDBQ 220645Z AUTO 21004KT 10SM CLR 14/12 A2996 1050 83 1300 200/04 RMK AO2
94908KDBQ DBQ20080622005011606/22/08 00:50:31  5-MIN KDBQ 220650Z AUTO 21003KT 10SM CLR 14/12 A2995 1050 86 1200 210/03 RMK AO2 SLP138 T01390117
94908KDBQ DBQ20080622005509906/22/08 00:55:31  5-MIN KDBQ 220655Z AUTO 21004KT 10SM CLR 14/12 A2995 1050 83 1300 210/04 RMK AO2
94908KDBQ DBQ20080622010009906/22/08 01:00:31  5-MIN KDBQ 220700Z AUTO 22003KT 10SM CLR 14/12 A2995 1050 83 1300 220/03 RMK AO2
94908KDBQ DBQ20080622010509906/22/08 01:05:31  5-MIN KDBQ 220705Z AUTO 22003KT 10SM CLR 14/12 A2995 1050 83 1300 220/03 RMK AO2
94908KDBQ DBQ20080622011009906/22/08 01:10:31  5-MIN KDBQ 220710Z AUTO 00000KT 10SM CLR 14/12 A2995 1050 83 1300 000/00 RMK AO2
94908KDBQ DBQ20080622011509906/22/08 01:15:31  5-MIN KDBQ 220715Z AUTO 21003KT 10SM CLR 15/12 A2994 1060 80 1300 210/03 RMK AO2
94908KDBQ DBQ20080622012009906/22/08 01:20:31  5-MIN KDBQ 220720Z AUTO 00000KT 10SM CLR 15/12 A2995 1050 80 1300 000/00 RMK AO2
94908KDBQ DBQ20080622012509906/22/08 01:25:31  5-MIN KDBQ 220725Z AUTO 21003KT 10SM CLR 15/12 A2995 1060 80 1300 210/03 RMK AO2
94908KDBQ DBQ20080622013009906/22/08 01:30:31  5-MIN KDBQ 220730Z AUTO 00000KT 10SM CLR 14/12 A2994 1060 83 1300 000/00 RMK AO2
94908KDBQ DBQ20080622013509906/22/08 01:35:31  5-MIN KDBQ 220735Z AUTO 00000KT 10SM CLR 14/11 A2995 1060 83 1200 000/00 RMK AO2
94908KDBQ DBQ20080622014009906/22/08 01:40:31  5-MIN KDBQ 220740Z AUTO 00000KT 10SM CLR 14/11 A2994 1060 83 1200 000/00 RMK AO2
94908KDBQ DBQ20080622014509906/22/08 01:45:31  5-MIN KDBQ 220745Z AUTO 00000KT 10SM CLR 14/11 A2994 1060 83 1200 000/00 RMK AO2
94908KDBQ DBQ20080622015011606/22/08 01:50:31  5-MIN KDBQ 220750Z AUTO 00000KT 10SM CLR 14/11 A2994 1060 80 1300 000/00 RMK AO2 SLP133 T01440111
94908KDBQ DBQ20080622015509906/22/08 01:55:31  5-MIN KDBQ 220755Z AUTO 28003KT 10SM CLR 15/11 A2994 1060 77 1300 280/03 RMK AO2
94908KDBQ DBQ20080622020009906/22/08 02:00:31  5-MIN KDBQ 220800Z AUTO 28005KT 10SM CLR 14/11 A2994 1060 77 1300 280/05 RMK AO2
94908KDBQ DBQ20080622020509906/22/08 02:05:31  5-MIN KDBQ 220805Z AUTO 31008KT 10SM CLR 15/10 A2994 1060 72 1300 300/08 RMK AO2
94908KDBQ DBQ20080622021009906/22/08 02:10:31  5-MIN KDBQ 220810Z AUTO 31008KT 10SM CLR 15/11 A2994 1060 74 1300 310/08 RMK AO2
94908KDBQ DBQ20080622021509906/22/08 02:15:31  5-MIN KDBQ 220815Z AUTO 31007KT 10SM CLR 15/11 A2994 1060 74 1300 310/07 RMK AO2
94908KDBQ DBQ20080622022009906/22/08 02:20:31  5-MIN KDBQ 220820Z AUTO 31007KT 10SM CLR 15/11 A2994 1060 74 1300 310/07 RMK AO2
94908KDBQ DBQ20080622022509906/22/08 02:25:31  5-MIN KDBQ 220825Z AUTO 31007KT 10SM CLR 15/10 A2994 1060 72 1300 310/07 RMK AO2
94908KDBQ DBQ20080622023009906/22/08 02:30:31  5-MIN KDBQ 220830Z AUTO 32008KT 10SM CLR 16/10 A2994 1060 69 1400 320/08 RMK AO2
94908KDBQ DBQ20080622023509906/22/08 02:35:31  5-MIN KDBQ 220835Z AUTO 33008KT 10SM CLR 15/10 A2994 1060 72 1400 330/08 RMK AO2
94908KDBQ DBQ20080622024009906/22/08 02:40:31  5-MIN KDBQ 220840Z AUTO 33008KT 10SM CLR 16/11 A2994 1060 72 1400 330/08 RMK AO2
94908KDBQ DBQ20080622024509906/22/08 02:45:31  5-MIN KDBQ 220845Z AUTO 34008KT 10SM CLR 16/11 A2993 1070 72 1400 330/08 RMK AO2
94908KDBQ DBQ20080622025012206/22/08 02:50:31  5-MIN KDBQ 220850Z AUTO 34007KT 10SM CLR 16/11 A2994 1060 72 1400 340/07 RMK AO2 SLP132 T01560106 58002
94908KDBQ DBQ20080622025509906/22/08 02:55:31  5-MIN KDBQ 220855Z AUTO 34008KT 10SM CLR 16/11 A2994 1060 72 1400 340/08 RMK AO2
94908KDBQ DBQ20080622030009906/22/08 03:00:31  5-MIN KDBQ 220900Z AUTO 34008KT 10SM CLR 16/11 A2994 1060 72 1400 340/08 RMK AO2
94908KDBQ DBQ20080622030509906/22/08 03:05:31  5-MIN KDBQ 220905Z AUTO 34007KT 10SM CLR 16/11 A2994 1060 72 1400 340/07 RMK AO2
94908KDBQ DBQ20080622031009906/22/08 03:10:31  5-MIN KDBQ 220910Z AUTO 34007KT 10SM CLR 15/11 A2994 1060 74 1300 340/07 RMK AO2
94908KDBQ DBQ20080622031509906/22/08 03:15:31  5-MIN KDBQ 220915Z AUTO 34007KT 10SM CLR 15/11 A2994 1060 74 1300 340/07 RMK AO2
94908KDBQ DBQ20080622032009906/22/08 03:20:31  5-MIN KDBQ 220920Z AUTO 34007KT 10SM CLR 15/11 A2994 1060 74 1300 340/07 RMK AO2
94908KDBQ DBQ20080622032509906/22/08 03:25:31  5-MIN KDBQ 220925Z AUTO 34007KT 10SM CLR 15/11 A2994 1060 74 1300 340/07 RMK AO2
94908KDBQ DBQ20080622033009906/22/08 03:30:31  5-MIN KDBQ 220930Z AUTO 34006KT 10SM CLR 15/11 A2994 1060 74 1300 340/06 RMK AO2
94908KDBQ DBQ20080622033509906/22/08 03:35:31  5-MIN KDBQ 220935Z AUTO 35005KT 10SM CLR 15/11 A2994 1060 74 1300 350/05 RMK AO2
94908KDBQ DBQ20080622034009906/22/08 03:40:31  5-MIN KDBQ 220940Z AUTO 01003KT 10SM CLR 14/11 A2995 1060 80 1200 010/03 RMK AO2
94908KDBQ DBQ20080622034509906/22/08 03:45:31  5-MIN KDBQ 220945Z AUTO 02004KT 10SM CLR 14/10 A2994 1060 74 1300 020/04 RMK AO2
94908KDBQ DBQ20080622035011606/22/08 03:50:31  5-MIN KDBQ 220950Z AUTO 02004KT 10SM CLR 15/10 A2994 1060 72 1300 020/04 RMK AO2 SLP135 T01500100
94908KDBQ DBQ20080622035509906/22/08 03:55:31  5-MIN KDBQ 220955Z AUTO 02003KT 10SM CLR 16/10 A2994 1060 69 1400 020/03 RMK AO2
94908KDBQ DBQ20080622040009906/22/08 04:00:31  5-MIN KDBQ 221000Z AUTO 01004KT 10SM CLR 15/10 A2994 1060 72 1300 010/04 RMK AO2
94908KDBQ DBQ20080622040509906/22/08 04:05:31  5-MIN KDBQ 221005Z AUTO 01004KT 10SM CLR 15/10 A2994 1060 72 1300 010/04 RMK AO2
94908KDBQ DBQ20080622041009906/22/08 04:10:31  5-MIN KDBQ 221010Z AUTO 01004KT 10SM CLR 14/10 A2995 1060 74 1300 010/04 RMK AO2
94908KDBQ DBQ20080622041509906/22/08 04:15:31  5-MIN KDBQ 221015Z AUTO 03003KT 10SM CLR 15/10 A2994 1060 72 1300 030/03 RMK AO2
94908KDBQ DBQ20080622042009906/22/08 04:20:31  5-MIN KDBQ 221020Z AUTO 01003KT 10SM CLR 14/10 A2995 1050 74 1300 010/03 RMK AO2
94908KDBQ DBQ20080622042509906/22/08 04:25:31  5-MIN KDBQ 221025Z AUTO 35005KT 10SM CLR 13/10 A2995 1050 80 1100 350/05 RMK AO2
94908KDBQ DBQ20080622043009906/22/08 04:30:31  5-MIN KDBQ 221030Z AUTO 34006KT 10SM CLR 13/09 A2995 1050 77 1100 340/06 RMK AO2
94908KDBQ DBQ20080622043509906/22/08 04:35:31  5-MIN KDBQ 221035Z AUTO 34007KT 10SM CLR 14/10 A2996 1040 77 1200 330/07 RMK AO2
94908KDBQ DBQ20080622044009906/22/08 04:40:31  5-MIN KDBQ 221040Z AUTO 34007KT 10SM CLR 15/10 A2996 1040 72 1300 330/07 RMK AO2
94908KDBQ DBQ20080622044509906/22/08 04:45:31  5-MIN KDBQ 221045Z AUTO 33006KT 10SM CLR 15/10 A2996 1040 72 1300 330/06 RMK AO2
94908KDBQ DBQ20080622045011606/22/08 04:50:31  5-MIN KDBQ 221050Z AUTO 35007KT 10SM CLR 14/10 A2996 1040 74 1300 340/07 RMK AO2 SLP142 T01440100
94908KDBQ DBQ20080622045509906/22/08 04:55:31  5-MIN KDBQ 221055Z AUTO 36006KT 10SM CLR 14/10 A2996 1040 74 1300 360/06 RMK AO2
94908KDBQ DBQ20080622050009906/22/08 05:00:31  5-MIN KDBQ 221100Z AUTO 36007KT 10SM CLR 15/10 A2996 1040 72 1300 360/07 RMK AO2
94908KDBQ DBQ20080622050509906/22/08 05:05:31  5-MIN KDBQ 221105Z AUTO 36005KT 10SM CLR 15/10 A2997 1040 72 1300 360/05 RMK AO2
94908KDBQ DBQ20080622051010206/22/08 05:10:31  5-MIN KDBQ 221110Z AUTO 36005KT 10SM FEW120 16/11 A2996 1040 72 1400 360/05 RMK AO2
94908KDBQ DBQ20080622051510206/22/08 05:15:31  5-MIN KDBQ 221115Z AUTO 01004KT 10SM FEW120 16/11 A2996 1040 69 1400 010/04 RMK AO2
94908KDBQ DBQ20080622052009906/22/08 05:20:31  5-MIN KDBQ 221120Z AUTO 01003KT 10SM CLR 17/11 A2996 1040 67 1500 010/03 RMK AO2
94908KDBQ DBQ20080622052510206/22/08 05:25:31  5-MIN KDBQ 221125Z AUTO 00000KT 10SM FEW120 17/11 A2996 1040 67 1500 000/00 RMK AO2
94908KDBQ DBQ20080622053010206/22/08 05:30:31  5-MIN KDBQ 221130Z AUTO 00000KT 10SM SCT120 16/11 A2996 1040 72 1500 000/00 RMK AO2
94908KDBQ DBQ20080622053510206/22/08 05:35:31  5-MIN KDBQ 221135Z AUTO 00000KT 10SM BKN110 16/12 A2996 1040 75 1500 000/00 RMK AO2
94908KDBQ DBQ20080622054010206/22/08 05:40:31  5-MIN KDBQ 221140Z AUTO 00000KT 10SM SCT110 16/12 A2996 1040 75 1500 000/00 RMK AO2
94908KDBQ DBQ20080622054510206/22/08 05:45:31  5-MIN KDBQ 221145Z AUTO 00000KT 10SM SCT110 16/12 A2997 1040 80 1400 000/00 RMK AO2
94908KDBQ DBQ20080622055013706/22/08 05:50:31  5-MIN KDBQ 221150Z AUTO 25003KT 10SM SCT110 15/12 A2997 1040 83 1300 250/03 RMK AO2 SLP144 T01500122 10167 20133 56010
94908KDBQ DBQ20080622055509706/22/08 05:55:31  5-MIN KDBQ 221155Z 26003KT 10SM BKN120 15/12 A2997 1040 80 1300 260/03 RMK AO2
94908KDBQ DBQ20080622060009706/22/08 06:00:31  5-MIN KDBQ 221200Z 24004KT 10SM BKN120 15/12 A2997 1030 83 1300 240/04 RMK AO2
94908KDBQ DBQ20080622060509706/22/08 06:05:31  5-MIN KDBQ 221205Z 25005KT 10SM BKN110 15/12 A2997 1040 83 1300 250/05 RMK AO2
94908KDBQ DBQ20080622061009706/22/08 06:10:31  5-MIN KDBQ 221210Z 25005KT 10SM BKN110 15/12 A2997 1030 83 1300 250/05 RMK AO2
94908KDBQ DBQ20080622061509706/22/08 06:15:31  5-MIN KDBQ 221215Z 24004KT 10SM BKN110 15/12 A2997 1040 83 1300 230/04 RMK AO2
94908KDBQ DBQ20080622062009706/22/08 06:20:31  5-MIN KDBQ 221220Z 24004KT 10SM OVC110 16/12 A2997 1030 80 1400 240/04 RMK AO2
94908KDBQ DBQ20080622062509706/22/08 06:25:31  5-MIN KDBQ 221225Z 27004KT 10SM OVC110 16/13 A2997 1030 80 1400 270/04 RMK AO2
94908KDBQ DBQ20080622063009706/22/08 06:30:31  5-MIN KDBQ 221230Z 29005KT 10SM OVC110 17/12 A2997 1030 72 1600 290/05 RMK AO2
94908KDBQ DBQ20080622063509706/22/08 06:35:31  5-MIN KDBQ 221235Z 29007KT 10SM BKN110 18/11 A2997 1030 64 1600 290/07 RMK AO2
94908KDBQ DBQ20080622064009706/22/08 06:40:31  5-MIN KDBQ 221240Z 30008KT 10SM SCT110 18/11 A2997 1030 62 1600 300/08 RMK AO2
94908KDBQ DBQ20080622064509706/22/08 06:45:31  5-MIN KDBQ 221245Z 30008KT 10SM SCT110 18/11 A2997 1030 60 1700 300/08 RMK AO2
94908KDBQ DBQ20080622065011406/22/08 06:50:31  5-MIN KDBQ 221250Z 30006KT 10SM FEW110 18/11 A2998 1030 62 1700 300/06 RMK AO2 SLP146 T01830111
94908KDBQ DBQ20080622065509706/22/08 06:55:31  5-MIN KDBQ 221255Z 29007KT 10SM FEW110 19/11 A2997 1030 60 1800 290/07 RMK AO2
94908KDBQ DBQ20080622070009406/22/08 07:00:31  5-MIN KDBQ 221300Z 31008KT 10SM CLR 19/11 A2998 1030 60 1800 310/08 RMK AO2
94908KDBQ DBQ20080622070509406/22/08 07:05:31  5-MIN KDBQ 221305Z 32008KT 10SM CLR 19/11 A2997 1030 56 1800 310/08 RMK AO2
94908KDBQ DBQ20080622071009406/22/08 07:10:31  5-MIN KDBQ 221310Z 31009KT 10SM CLR 19/11 A2998 1020 56 1800 310/09 RMK AO2
94908KDBQ DBQ20080622071509406/22/08 07:15:31  5-MIN KDBQ 221315Z 31008KT 10SM CLR 19/11 A2998 1020 56 1800 310/08 RMK AO2
94908KDBQ DBQ20080622072009406/22/08 07:20:31  5-MIN KDBQ 221320Z 31009KT 10SM CLR 19/11 A2998 1020 56 1800 310/09 RMK AO2
94908KDBQ DBQ20080622072509406/22/08 07:25:31  5-MIN KDBQ 221325Z 31008KT 10SM CLR 19/11 A2998 1020 56 1800 310/08 RMK AO2
94908KDBQ DBQ20080622073009406/22/08 07:30:31  5-MIN KDBQ 221330Z 31008KT 10SM CLR 20/11 A2998 1020 54 1900 310/08 RMK AO2
94908KDBQ DBQ20080622073509406/22/08 07:35:31  5-MIN KDBQ 221335Z 33009KT 10SM CLR 20/11 A2998 1020 54 1900 330/09 RMK AO2
94908KDBQ DBQ20080622074009406/22/08 07:40:31  5-MIN KDBQ 221340Z 31009KT 10SM CLR 21/11 A2998 1020 52 1900 310/09 RMK AO2
94908KDBQ DBQ20080622074509406/22/08 07:45:31  5-MIN KDBQ 221345Z 31009KT 10SM CLR 21/11 A2998 1020 52 1900 310/09 RMK AO2
94908KDBQ DBQ20080622075011106/22/08 07:50:31  5-MIN KDBQ 221350Z 31009KT 10SM CLR 21/11 A2998 1020 52 1900 310/09 RMK AO2 SLP149 T02060106
94908KDBQ DBQ20080622075509406/22/08 07:55:31  5-MIN KDBQ 221355Z 29010KT 10SM CLR 21/11 A2998 1020 52 1900 290/10 RMK AO2
94908KDBQ DBQ20080622080009406/22/08 08:00:31  5-MIN KDBQ 221400Z 31010KT 10SM CLR 21/11 A2998 1020 52 1900 310/10 RMK AO2
94908KDBQ DBQ20080622080509406/22/08 08:05:31  5-MIN KDBQ 221405Z 31010KT 10SM CLR 21/11 A2998 1020 52 1900 310/10 RMK AO2
94908KDBQ DBQ20080622081009406/22/08 08:10:31  5-MIN KDBQ 221410Z 31007KT 10SM CLR 21/11 A2998 1030 52 2000 310/07 RMK AO2
94908KDBQ DBQ20080622081509406/22/08 08:15:31  5-MIN KDBQ 221415Z 30008KT 10SM CLR 21/11 A2998 1020 52 2000 300/08 RMK AO2
94908KDBQ DBQ20080622082009406/22/08 08:20:31  5-MIN KDBQ 221420Z 31007KT 10SM CLR 21/11 A2998 1030 50 2000 310/07 RMK AO2
94908KDBQ DBQ20080622082509406/22/08 08:25:31  5-MIN KDBQ 221425Z 31006KT 10SM CLR 22/11 A2998 1020 50 2100 310/06 RMK AO2
94908KDBQ DBQ20080622083009406/22/08 08:30:31  5-MIN KDBQ 221430Z 30010KT 10SM CLR 22/11 A2998 1030 50 2100 300/10 RMK AO2
94908KDBQ DBQ20080622083509406/22/08 08:35:31  5-MIN KDBQ 221435Z 30010KT 10SM CLR 22/11 A2997 1030 49 2100 300/10 RMK AO2
94908KDBQ DBQ20080622084009406/22/08 08:40:31  5-MIN KDBQ 221440Z 29009KT 10SM CLR 22/11 A2997 1030 49 2100 290/09 RMK AO2
94908KDBQ DBQ20080622084509406/22/08 08:45:31  5-MIN KDBQ 221445Z 31010KT 10SM CLR 22/10 A2997 1030 47 2100 310/10 RMK AO2
94908KDBQ DBQ20080622085011706/22/08 08:50:31  5-MIN KDBQ 221450Z 29009KT 10SM CLR 22/11 A2997 1030 49 2100 290/09 RMK AO2 SLP145 T02170106 53009
94908KDBQ DBQ20080622085509406/22/08 08:55:31  5-MIN KDBQ 221455Z 30011KT 10SM CLR 22/11 A2997 1030 47 2100 300/11 RMK AO2
94908KDBQ DBQ20080622090009406/22/08 09:00:31  5-MIN KDBQ 221500Z 31009KT 10SM CLR 22/11 A2997 1030 47 2100 310/09 RMK AO2
94908KDBQ DBQ20080622090509406/22/08 09:05:31  5-MIN KDBQ 221505Z 31009KT 10SM CLR 23/11 A2997 1030 47 2200 310/09 RMK AO2
94908KDBQ DBQ20080622091009406/22/08 09:10:31  5-MIN KDBQ 221510Z 32010KT 10SM CLR 22/11 A2997 1030 47 2100 320/10 RMK AO2
94908KDBQ DBQ20080622091509406/22/08 09:15:31  5-MIN KDBQ 221515Z 32011KT 10SM CLR 23/11 A2997 1030 45 2200 320/11 RMK AO2
94908KDBQ DBQ20080622092009406/22/08 09:20:31  5-MIN KDBQ 221520Z 31011KT 10SM CLR 23/11 A2997 1030 47 2200 310/11 RMK AO2
94908KDBQ DBQ20080622092510006/22/08 09:25:31  5-MIN KDBQ 221525Z 32013G17KT 10SM CLR 23/11 A2997 1030 45 2200 320/13G17 RMK AO2
94908KDBQ DBQ20080622093009406/22/08 09:30:31  5-MIN KDBQ 221530Z 30011KT 10SM CLR 23/11 A2997 1030 45 2200 300/11 RMK AO2
94908KDBQ DBQ20080622093509406/22/08 09:35:31  5-MIN KDBQ 221535Z 32013KT 10SM CLR 23/11 A2997 1040 47 2200 320/13 RMK AO2
94908KDBQ DBQ20080622094009406/22/08 09:40:31  5-MIN KDBQ 221540Z 34011KT 10SM CLR 23/11 A2997 1040 45 2300 340/11 RMK AO2
94908KDBQ DBQ20080622094509406/22/08 09:45:31  5-MIN KDBQ 221545Z 32011KT 10SM CLR 23/11 A2997 1040 47 2200 320/11 RMK AO2
94908KDBQ DBQ20080622095011106/22/08 09:50:31  5-MIN KDBQ 221550Z 30014KT 10SM CLR 23/11 A2997 1030 47 2200 300/14 RMK AO2 SLP144 T02280111
94908KDBQ DBQ20080622095509406/22/08 09:55:31  5-MIN KDBQ 221555Z 33012KT 10SM CLR 23/11 A2996 1040 45 2200 330/12 RMK AO2
94908KDBQ DBQ20080622100010006/22/08 10:00:31  5-MIN KDBQ 221600Z 33010G17KT 10SM CLR 23/11 A2996 1040 47 2200 330/10G17 RMK AO2
94908KDBQ DBQ20080622100509406/22/08 10:05:31  5-MIN KDBQ 221605Z 31010KT 10SM CLR 23/12 A2996 1040 47 2300 310/10 RMK AO2
94908KDBQ DBQ20080622101010006/22/08 10:10:31  5-MIN KDBQ 221610Z 33009G17KT 10SM CLR 23/11 A2997 1040 45 2300 330/09G17 RMK AO2
94908KDBQ DBQ20080622101510006/22/08 10:15:31  5-MIN KDBQ 221615Z 32010G17KT 10SM CLR 23/11 A2997 1040 45 2300 320/10G17 RMK AO2
94908KDBQ DBQ20080622102010006/22/08 10:20:31  5-MIN KDBQ 221620Z 33010G17KT 10SM CLR 23/11 A2997 1040 45 2300 330/10G17 RMK AO2
94908KDBQ DBQ20080622102510006/22/08 10:25:31  5-MIN KDBQ 221625Z 33007G18KT 10SM CLR 23/11 A2996 1040 45 2300 330/07G18 RMK AO2
94908KDBQ DBQ20080622103011606/22/08 10:30:31  5-MIN KDBQ 221630Z 33009G18KT 290V360 10SM CLR 24/12 A2996 1040 46 2300 330/09G18 290V360 RMK AO2
94908KDBQ DBQ20080622103510006/22/08 10:35:31  5-MIN KDBQ 221635Z 31012G16KT 10SM CLR 24/11 A2996 1040 44 2300 310/12G16 RMK AO2
94908KDBQ DBQ20080622104009406/22/08 10:40:31  5-MIN KDBQ 221640Z 32010KT 10SM CLR 23/10 A2996 1040 42 2300 320/10 RMK AO2
94908KDBQ DBQ20080622104510306/22/08 10:45:31  5-MIN KDBQ 221645Z 35012G18KT 10SM FEW060 24/11 A2996 1040 44 2300 350/12G18 RMK AO2
94908KDBQ DBQ20080622105012006/22/08 10:50:31  5-MIN KDBQ 221650Z 34009G18KT 10SM FEW060 23/11 A2996 1040 44 2300 340/09G18 RMK AO2 SLP142 T02330106
94908KDBQ DBQ20080622105510306/22/08 10:55:31  5-MIN KDBQ 221655Z 34014G20KT 10SM FEW060 24/11 A2996 1040 42 2300 340/14G20 RMK AO2
94908KDBQ DBQ20080622110011006/22/08 11:00:31  5-MIN KDBQ 221700Z 35013G20KT 10SM FEW060 SCT075 24/10 A2996 1040 41 2300 340/13G20 RMK AO2
94908KDBQ DBQ20080622110511006/22/08 11:05:31  5-MIN KDBQ 221705Z 34010G18KT 10SM SCT060 BKN075 23/09 A2996 1040 42 2200 330/10G18 RMK AO2
94908KDBQ DBQ20080622111010406/22/08 11:10:31  5-MIN KDBQ 221710Z 35008KT 10SM SCT060 BKN080 23/10 A2996 1040 42 2300 350/08 RMK AO2
94908KDBQ DBQ20080622111510406/22/08 11:15:31  5-MIN KDBQ 221715Z 35010KT 10SM SCT060 BKN075 24/11 A2996 1050 42 2400 350/10 RMK AO2
94908KDBQ DBQ20080622112010406/22/08 11:20:31  5-MIN KDBQ 221720Z 34007KT 10SM BKN060 BKN075 22/10 A2995 1050 45 2200 340/07 RMK AO2
94908KDBQ DBQ20080622112510406/22/08 11:25:31  5-MIN KDBQ 221725Z 31009KT 10SM SCT060 BKN075 23/11 A2995 1050 44 2300 310/09 RMK AO2
94908KDBQ DBQ20080622113010406/22/08 11:30:31  5-MIN KDBQ 221730Z 33013KT 10SM SCT060 SCT090 24/11 A2995 1050 42 2400 330/13 RMK AO2
94908KDBQ DBQ20080622113511706/22/08 11:35:31  5-MIN KDBQ 221735Z 33010G15KT 10SM SCT065 SCT080 BKN090 23/10 A2995 1050 42 2300 330/10G15 RMK AO2
94908KDBQ DBQ20080622114011106/22/08 11:40:31  5-MIN KDBQ 221740Z 33011KT 10SM FEW060 SCT075 SCT090 24/11 A2995 1050 42 2400 330/11 RMK AO2
94908KDBQ DBQ20080622114511106/22/08 11:45:31  5-MIN KDBQ 221745Z 32011KT 10SM SCT060 SCT080 SCT090 23/10 A2995 1050 42 2300 320/11 RMK AO2
94908KDBQ DBQ20080622115014606/22/08 11:50:31  5-MIN KDBQ 221750Z 33010KT 10SM FEW060 SCT080 SCT090 24/11 A2995 1050 42 2400 330/10 RMK AO2 SLP137 T02390106 10239 20150 50001
94908KDBQ DBQ20080622115510406/22/08 11:55:31  5-MIN KDBQ 221755Z 32011KT 10SM FEW060 SCT085 24/09 A2994 1060 39 2400 320/11 RMK AO2
94908KDBQ DBQ20080622120010406/22/08 12:00:31  5-MIN KDBQ 221800Z 32011KT 10SM FEW065 SCT085 24/11 A2994 1060 42 2400 320/11 RMK AO2
94908KDBQ DBQ20080622120509706/22/08 12:05:31  5-MIN KDBQ 221805Z 32011KT 10SM FEW060 24/11 A2994 1060 41 2400 310/11 RMK AO2
94908KDBQ DBQ20080622121010306/22/08 12:10:31  5-MIN KDBQ 221810Z 31010G18KT 10SM FEW060 24/10 A2994 1060 41 2400 310/10G18 RMK AO2
94908KDBQ DBQ20080622121510306/22/08 12:15:31  5-MIN KDBQ 221815Z 30010G18KT 10SM FEW060 24/10 A2994 1060 39 2400 300/10G18 RMK AO2
94908KDBQ DBQ20080622122010006/22/08 12:20:31  5-MIN KDBQ 221820Z 30014G19KT 10SM CLR 25/11 A2994 1060 41 2500 300/14G19 RMK AO2
94908KDBQ DBQ20080622122510006/22/08 12:25:31  5-MIN KDBQ 221825Z 31011G19KT 10SM CLR 24/10 A2994 1060 39 2400 310/11G19 RMK AO2
94908KDBQ DBQ20080622123009406/22/08 12:30:31  5-MIN KDBQ 221830Z 31014KT 10SM CLR 24/10 A2994 1060 39 2400 310/14 RMK AO2
94908KDBQ DBQ20080622123510306/22/08 12:35:31  5-MIN KDBQ 221835Z 33012G20KT 10SM FEW060 24/11 A2994 1060 41 2400 330/12G20 RMK AO2
94908KDBQ DBQ20080622124010306/22/08 12:40:31  5-MIN KDBQ 221840Z 33009G20KT 10SM FEW060 25/11 A2994 1060 39 2500 330/09G20 RMK AO2
94908KDBQ DBQ20080622124510006/22/08 12:45:31  5-MIN KDBQ 221845Z 32010G15KT 10SM CLR 25/11 A2993 1060 39 2500 320/10G15 RMK AO2
94908KDBQ DBQ20080622125012006/22/08 12:50:31  5-MIN KDBQ 221850Z 31013G17KT 10SM FEW065 24/10 A2993 1070 41 2400 310/13G17 RMK AO2 SLP133 T02390100
94908KDBQ DBQ20080622125510306/22/08 12:55:31  5-MIN KDBQ 221855Z 33008G17KT 10SM FEW065 24/10 A2993 1070 41 2400 320/08G17 RMK AO2
94908KDBQ DBQ20080622130009706/22/08 13:00:31  5-MIN KDBQ 221900Z 33009KT 10SM FEW060 25/11 A2993 1070 39 2500 330/09 RMK AO2
94908KDBQ DBQ20080622130510306/22/08 13:05:31  5-MIN KDBQ 221905Z 30014G18KT 10SM FEW065 25/10 A2993 1070 38 2500 300/14G18 RMK AO2
94908KDBQ DBQ20080622131011006/22/08 13:10:31  5-MIN KDBQ 221910Z 32009G18KT 10SM FEW065 SCT095 25/10 A2993 1070 38 2500 310/09G18 RMK AO2
94908KDBQ DBQ20080622131511706/22/08 13:15:31  5-MIN KDBQ 221915Z 32010G16KT 10SM FEW065 SCT080 SCT095 24/10 A2993 1070 39 2500 320/10G16 RMK AO2
94908KDBQ DBQ20080622132011006/22/08 13:20:31  5-MIN KDBQ 221920Z 32013G21KT 10SM FEW070 SCT080 24/09 A2992 1080 38 2500 320/13G21 RMK AO2
94908KDBQ DBQ20080622132510306/22/08 13:25:31  5-MIN KDBQ 221925Z 31009G21KT 10SM SCT070 25/10 A2992 1080 38 2500 310/09G21 RMK AO2
94908KDBQ DBQ20080622133011006/22/08 13:30:31  5-MIN KDBQ 221930Z 34012G17KT 10SM FEW070 SCT085 25/11 A2992 1080 39 2500 340/12G17 RMK AO2
94908KDBQ DBQ20080622133511006/22/08 13:35:31  5-MIN KDBQ 221935Z 31013G17KT 10SM SCT070 BKN085 25/11 A2992 1080 39 2500 310/13G17 RMK AO2
94908KDBQ DBQ20080622134011006/22/08 13:40:31  5-MIN KDBQ 221940Z 31011G18KT 10SM SCT070 SCT085 25/11 A2992 1080 39 2500 310/11G18 RMK AO2
94908KDBQ DBQ20080622134511006/22/08 13:45:31  5-MIN KDBQ 221945Z 31013G18KT 10SM FEW070 SCT090 24/09 A2992 1080 39 2400 300/13G18 RMK AO2
94908KDBQ DBQ20080622135012006/22/08 13:50:31  5-MIN KDBQ 221950Z 33012G18KT 10SM FEW070 24/10 A2992 1080 41 2400 330/12G18 RMK AO2 SLP128 T02390100
94908KDBQ DBQ20080622135509706/22/08 13:55:31  5-MIN KDBQ 221955Z 31013KT 10SM FEW070 24/11 A2992 1080 41 2500 310/13 RMK AO2
94908KDBQ DBQ20080622140009706/22/08 14:00:31  5-MIN KDBQ 222000Z 31010KT 10SM FEW070 24/10 A2992 1080 41 2400 310/10 RMK AO2
94908KDBQ DBQ20080622140510406/22/08 14:05:31  5-MIN KDBQ 222005Z 32009KT 10SM FEW060 SCT110 24/11 A2992 1080 42 2400 320/09 RMK AO2
94908KDBQ DBQ20080622141011006/22/08 14:10:31  5-MIN KDBQ 222010Z 34012G17KT 10SM FEW060 SCT110 24/11 A2992 1080 42 2500 340/12G17 RMK AO2
94908KDBQ DBQ20080622141509706/22/08 14:15:31  5-MIN KDBQ 222015Z 34013KT 10SM FEW090 24/11 A2992 1080 41 2500 340/13 RMK AO2
94908KDBQ DBQ20080622142010306/22/08 14:20:31  5-MIN KDBQ 222020Z 35010G18KT 10SM FEW090 24/11 A2992 1080 41 2500 350/10G18 RMK AO2
94908KDBQ DBQ20080622142509706/22/08 14:25:31  5-MIN KDBQ 222025Z 35013KT 10SM FEW090 24/11 A2992 1080 42 2400 350/13 RMK AO2
94908KDBQ DBQ20080622143009706/22/08 14:30:31  5-MIN KDBQ 222030Z 33012KT 10SM FEW110 24/11 A2991 1080 42 2400 330/12 RMK AO2
94908KDBQ DBQ20080622143509706/22/08 14:35:31  5-MIN KDBQ 222035Z 35012KT 10SM FEW110 23/10 A2991 1080 42 2300 340/12 RMK AO2
94908KDBQ DBQ20080622144009406/22/08 14:40:31  5-MIN KDBQ 222040Z 32010KT 10SM CLR 23/09 A2992 1080 42 2300 320/10 RMK AO2
94908KDBQ DBQ20080622144510306/22/08 14:45:31  5-MIN KDBQ 222045Z 32012G18KT 10SM FEW085 23/10 A2992 1080 42 2300 320/12G18 RMK AO2
94908KDBQ DBQ20080622145012006/22/08 14:50:31  5-MIN KDBQ 222050Z 34010KT 10SM FEW080 24/11 A2991 1080 42 2400 340/10 RMK AO2 SLP126 T02390106 58008
94908KDBQ DBQ20080622145509706/22/08 14:55:31  5-MIN KDBQ 222055Z 31010KT 10SM FEW080 24/11 A2992 1080 41 2500 310/10 RMK AO2
94908KDBQ DBQ20080622150010306/22/08 15:00:31  5-MIN KDBQ 222100Z 31011G15KT 10SM FEW110 25/11 A2991 1080 39 2500 310/11G15 RMK AO2
94908KDBQ DBQ20080622150510306/22/08 15:05:31  5-MIN KDBQ 222105Z 32012G18KT 10SM FEW110 25/11 A2991 1080 39 2500 320/12G18 RMK AO2
94908KDBQ DBQ20080622151010306/22/08 15:10:31  5-MIN KDBQ 222110Z 34015G19KT 10SM FEW100 24/11 A2991 1090 41 2500 340/15G19 RMK AO2
94908KDBQ DBQ20080622151510306/22/08 15:15:31  5-MIN KDBQ 222115Z 33010G19KT 10SM FEW110 24/10 A2991 1090 39 2500 330/10G19 RMK AO2
94908KDBQ DBQ20080622152010306/22/08 15:20:31  5-MIN KDBQ 222120Z 34012G17KT 10SM FEW110 23/10 A2991 1090 44 2300 340/12G17 RMK AO2
94908KDBQ DBQ20080622152509706/22/08 15:25:31  5-MIN KDBQ 222125Z 35012KT 10SM FEW100 23/10 A2991 1090 44 2300 350/12 RMK AO2
94908KDBQ DBQ20080622153009706/22/08 15:30:31  5-MIN KDBQ 222130Z 33010KT 10SM FEW095 24/11 A2991 1090 41 2500 320/10 RMK AO2
94908KDBQ DBQ20080622153510306/22/08 15:35:31  5-MIN KDBQ 222135Z 32008G15KT 10SM FEW110 24/10 A2991 1080 41 2400 320/08G15 RMK AO2
94908KDBQ DBQ20080622154009706/22/08 15:40:31  5-MIN KDBQ 222140Z 33011KT 10SM SCT100 23/10 A2991 1080 44 2300 330/11 RMK AO2
94908KDBQ DBQ20080622154510306/22/08 15:45:31  5-MIN KDBQ 222145Z 32010G15KT 10SM SCT100 24/10 A2991 1080 41 2400 320/10G15 RMK AO2
94908KDBQ DBQ20080622155012006/22/08 15:50:31  5-MIN KDBQ 222150Z 34011G17KT 10SM SCT100 23/10 A2991 1080 42 2300 340/11G17 RMK AO2 SLP126 T02330100
94908KDBQ DBQ20080622155510306/22/08 15:55:31  5-MIN KDBQ 222155Z 34008G17KT 10SM FEW100 23/10 A2991 1080 42 2300 340/08G17 RMK AO2
94908KDBQ DBQ20080622160010306/22/08 16:00:31  5-MIN KDBQ 222200Z 34012G17KT 10SM SCT100 24/11 A2991 1080 42 2400 340/12G17 RMK AO2
94908KDBQ DBQ20080622160510306/22/08 16:05:31  5-MIN KDBQ 222205Z 34011G17KT 10SM BKN100 24/11 A2991 1090 41 2500 340/11G17 RMK AO2
94908KDBQ DBQ20080622161009706/22/08 16:10:31  5-MIN KDBQ 222210Z 33009KT 10SM SCT100 24/11 A2991 1090 41 2500 330/09 RMK AO2
94908KDBQ DBQ20080622161509706/22/08 16:15:31  5-MIN KDBQ 222215Z 33013KT 10SM FEW100 24/10 A2991 1090 39 2500 330/13 RMK AO2
94908KDBQ DBQ20080622162009706/22/08 16:20:31  5-MIN KDBQ 222220Z 33009KT 10SM FEW100 24/10 A2991 1090 41 2400 330/09 RMK AO2
94908KDBQ DBQ20080622162509706/22/08 16:25:31  5-MIN KDBQ 222225Z 34012KT 10SM FEW100 24/10 A2991 1090 39 2500 340/12 RMK AO2
94908KDBQ DBQ20080622163012306/22/08 16:30:31  5-MIN KDBQ 222230Z 33010G18KT 10SM FEW100 24/10 A2991 1090 39 2500 330/10G18 RMK AO2 CB NW AND NE MOV SE
94908KDBQ DBQ20080622163512006/22/08 16:35:31  5-MIN KDBQ 222235Z 33011G18KT 10SM CLR 23/10 A2991 1090 42 2300 330/11G18 RMK AO2 CB NW AND NE MOV SE
94908KDBQ DBQ20080622164012306/22/08 16:40:31  5-MIN KDBQ 222240Z 34010G18KT 10SM FEW095 23/09 A2990 1090 42 2300 330/10G18 RMK AO2 CB NW AND NE MOV SE
94908KDBQ DBQ20080622164512406/22/08 16:45:31  5-MIN KDBQ 222245Z 34012KT 10SM FEW070 SCT100 23/10 A2991 1090 42 2300 340/12 RMK AO2 CB NW AND NE MOV SE
94908KDBQ DBQ20080622165014106/22/08 16:50:31  5-MIN KDBQ 222250Z 34010KT 10SM SCT070 BKN100 23/10 A2991 1090 44 2300 330/10 RMK AO2 SLP125 CB NW AND NE MOV SE T02280100
94908KDBQ DBQ20080622165511106/22/08 16:55:31  5-MIN KDBQ 222255Z 34013KT 10SM SCT070 SCT080 BKN095 22/09 A2991 1090 43 2200 340/13 RMK AO2
94908KDBQ DBQ20080622170011706/22/08 17:00:31  5-MIN KDBQ 222300Z 33018G24KT 10SM SCT065 BKN080 BKN095 22/09 A2991 1080 42 2200 330/18G24 RMK AO2
94908KDBQ DBQ20080622170511006/22/08 17:05:31  5-MIN KDBQ 222305Z 34013G24KT 10SM SCT070 OVC085 21/10 A2991 1080 48 2100 340/13G24 RMK AO2
94908KDBQ DBQ20080622171011006/22/08 17:10:31  5-MIN KDBQ 222310Z 36013G20KT 10SM SCT070 OVC090 21/10 A2992 1080 48 2100 360/13G20 RMK AO2
94908KDBQ DBQ20080622171511006/22/08 17:15:31  5-MIN KDBQ 222315Z 02013G20KT 10SM FEW065 OVC090 21/11 A2992 1080 50 2100 020/13G20 RMK AO2
94908KDBQ DBQ20080622172011706/22/08 17:20:31  5-MIN KDBQ 222320Z 02013G20KT 10SM FEW065 BKN085 OVC100 21/11 A2992 1080 52 2100 020/13G20 RMK AO2
94908KDBQ DBQ20080622172511706/22/08 17:25:31  5-MIN KDBQ 222325Z 02010G17KT 10SM FEW065 BKN090 OVC110 22/12 A2992 1080 52 2100 020/10G17 RMK AO2
94908KDBQ DBQ20080622173010406/22/08 17:30:31  5-MIN KDBQ 222330Z 02010KT 10SM BKN090 OVC110 22/12 A2992 1070 52 2100 020/10 RMK AO2
94908KDBQ DBQ20080622173510406/22/08 17:35:31  5-MIN KDBQ 222335Z 03010KT 10SM SCT090 BKN110 21/12 A2992 1070 54 2100 030/10 RMK AO2
94908KDBQ DBQ20080622174010406/22/08 17:40:31  5-MIN KDBQ 222340Z 02011KT 10SM FEW090 BKN110 21/12 A2993 1070 56 2000 020/11 RMK AO2
94908KDBQ DBQ20080622174510306/22/08 17:45:31  5-MIN KDBQ 222345Z 02009G15KT 10SM BKN110 21/12 A2993 1070 56 2000 010/09G15 RMK AO2
94908KDBQ DBQ20080622175013206/22/08 17:50:31  5-MIN KDBQ 222350Z 01009KT 10SM BKN110 21/12 A2993 1070 56 2000 010/09 RMK AO2 SLP133 T02060117 10250 20206 56010
94908KDBQ DBQ20080622175509706/22/08 17:55:31  5-MIN KDBQ 222355Z 36008KT 10SM BKN100 21/12 A2993 1070 56 2000 360/08 RMK AO2
94908KDBQ DBQ20080622180009706/22/08 18:00:31  5-MIN KDBQ 230000Z 36008KT 10SM BKN100 21/11 A2993 1070 54 2000 360/08 RMK AO2
94908KDBQ DBQ20080622180509706/22/08 18:05:31  5-MIN KDBQ 230005Z 36007KT 10SM OVC110 21/12 A2993 1070 56 2000 360/07 RMK AO2
94908KDBQ DBQ20080622181009706/22/08 18:10:31  5-MIN KDBQ 230010Z 01006KT 10SM OVC110 21/11 A2993 1070 54 2000 010/06 RMK AO2
94908KDBQ DBQ20080622181509706/22/08 18:15:31  5-MIN KDBQ 230015Z 01007KT 10SM OVC110 21/11 A2993 1070 52 2100 360/07 RMK AO2
94908KDBQ DBQ20080622182009706/22/08 18:20:31  5-MIN KDBQ 230020Z 01006KT 10SM BKN110 21/11 A2993 1070 54 2000 360/06 RMK AO2
94908KDBQ DBQ20080622182509706/22/08 18:25:31  5-MIN KDBQ 230025Z 01006KT 10SM BKN110 20/11 A2993 1070 56 1900 010/06 RMK AO2
94908KDBQ DBQ20080622183009706/22/08 18:30:31  5-MIN KDBQ 230030Z 36006KT 10SM SCT110 19/11 A2993 1070 58 1900 360/06 RMK AO2
94908KDBQ DBQ20080622183509706/22/08 18:35:31  5-MIN KDBQ 230035Z 36006KT 10SM SCT110 19/11 A2994 1060 56 1900 360/06 RMK AO2
94908KDBQ DBQ20080622184009706/22/08 18:40:31  5-MIN KDBQ 230040Z 36008KT 10SM SCT100 19/11 A2994 1060 56 1900 360/08 RMK AO2
94908KDBQ DBQ20080622184509706/22/08 18:45:31  5-MIN KDBQ 230045Z 35007KT 10SM SCT100 19/11 A2994 1060 58 1900 350/07 RMK AO2
94908KDBQ DBQ20080622185011406/22/08 18:50:31  5-MIN KDBQ 230050Z 35007KT 10SM SCT100 19/11 A2994 1060 58 1900 350/07 RMK AO2 SLP136 T01940111
94908KDBQ DBQ20080622185510206/22/08 18:55:31  5-MIN KDBQ 230055Z AUTO 35006KT 10SM SCT100 19/11 A2994 1060 58 1900 350/06 RMK AO2
94908KDBQ DBQ20080622190010206/22/08 19:00:31  5-MIN KDBQ 230100Z AUTO 35006KT 10SM SCT100 19/11 A2994 1060 58 1900 350/06 RMK AO2
94908KDBQ DBQ20080622190510206/22/08 19:05:31  5-MIN KDBQ 230105Z AUTO 36006KT 10SM SCT100 19/11 A2994 1060 58 1900 360/06 RMK AO2
94908KDBQ DBQ20080622191010206/22/08 19:10:31  5-MIN KDBQ 230110Z AUTO 36006KT 10SM SCT100 19/11 A2994 1060 60 1800 360/06 RMK AO2
94908KDBQ DBQ20080622191510206/22/08 19:15:31  5-MIN KDBQ 230115Z AUTO 35007KT 10SM FEW100 19/11 A2994 1060 60 1800 350/07 RMK AO2
94908KDBQ DBQ20080622192010206/22/08 19:20:31  5-MIN KDBQ 230120Z AUTO 35006KT 10SM FEW100 19/11 A2994 1060 60 1800 350/06 RMK AO2
94908KDBQ DBQ20080622192510206/22/08 19:25:31  5-MIN KDBQ 230125Z AUTO 35008KT 10SM FEW100 19/11 A2994 1060 60 1800 350/08 RMK AO2
94908KDBQ DBQ20080622193010206/22/08 19:30:31  5-MIN KDBQ 230130Z AUTO 35007KT 10SM FEW100 19/11 A2994 1060 60 1800 350/07 RMK AO2
94908KDBQ DBQ20080622193509906/22/08 19:35:31  5-MIN KDBQ 230135Z AUTO 35007KT 10SM CLR 18/11 A2994 1060 62 1700 350/07 RMK AO2
94908KDBQ DBQ20080622194009906/22/08 19:40:31  5-MIN KDBQ 230140Z AUTO 35008KT 10SM CLR 18/11 A2994 1060 62 1700 350/08 RMK AO2
94908KDBQ DBQ20080622194509906/22/08 19:45:31  5-MIN KDBQ 230145Z AUTO 36008KT 10SM CLR 18/11 A2995 1050 62 1700 350/08 RMK AO2
94908KDBQ DBQ20080622195011606/22/08 19:50:31  5-MIN KDBQ 230150Z AUTO 35007KT 10SM CLR 18/11 A2995 1050 62 1700 350/07 RMK AO2 SLP138 T01830111
94908KDBQ DBQ20080622195509906/22/08 19:55:31  5-MIN KDBQ 230155Z AUTO 35007KT 10SM CLR 18/11 A2995 1050 64 1700 350/07 RMK AO2
94908KDBQ DBQ20080622200009906/22/08 20:00:31  5-MIN KDBQ 230200Z AUTO 35007KT 10SM CLR 18/11 A2995 1050 64 1700 350/07 RMK AO2
94908KDBQ DBQ20080622200509906/22/08 20:05:31  5-MIN KDBQ 230205Z AUTO 35007KT 10SM CLR 17/11 A2995 1050 67 1600 350/07 RMK AO2
94908KDBQ DBQ20080622201009906/22/08 20:10:31  5-MIN KDBQ 230210Z AUTO 35008KT 10SM CLR 17/11 A2996 1040 67 1600 350/08 RMK AO2
94908KDBQ DBQ20080622201509906/22/08 20:15:31  5-MIN KDBQ 230215Z AUTO 35007KT 10SM CLR 17/11 A2996 1040 67 1600 350/07 RMK AO2
94908KDBQ DBQ20080622202009906/22/08 20:20:31  5-MIN KDBQ 230220Z AUTO 35007KT 10SM CLR 17/12 A2996 1040 69 1600 350/07 RMK AO2
94908KDBQ DBQ20080622202509906/22/08 20:25:31  5-MIN KDBQ 230225Z AUTO 35006KT 10SM CLR 17/12 A2996 1040 72 1500 350/06 RMK AO2
94908KDBQ DBQ20080622203009906/22/08 20:30:31  5-MIN KDBQ 230230Z AUTO 35006KT 10SM CLR 17/12 A2996 1040 72 1500 350/06 RMK AO2
94908KDBQ DBQ20080622203509906/22/08 20:35:31  5-MIN KDBQ 230235Z AUTO 34006KT 10SM CLR 16/12 A2997 1040 75 1400 340/06 RMK AO2
94908KDBQ DBQ20080622204009906/22/08 20:40:31  5-MIN KDBQ 230240Z AUTO 35005KT 10SM CLR 16/12 A2996 1040 75 1400 350/05 RMK AO2
94908KDBQ DBQ20080622204509906/22/08 20:45:31  5-MIN KDBQ 230245Z AUTO 34006KT 10SM CLR 16/12 A2996 1040 75 1400 340/06 RMK AO2
94908KDBQ DBQ20080622205012206/22/08 20:50:31  5-MIN KDBQ 230250Z AUTO 33006KT 10SM CLR 16/12 A2996 1040 77 1400 330/06 RMK AO2 SLP144 T01560117 53006
94908KDBQ DBQ20080622205509906/22/08 20:55:31  5-MIN KDBQ 230255Z AUTO 32005KT 10SM CLR 16/12 A2996 1040 77 1400 320/05 RMK AO2
94908KDBQ DBQ20080622210009906/22/08 21:00:31  5-MIN KDBQ 230300Z AUTO 32005KT 10SM CLR 16/12 A2996 1040 75 1500 320/05 RMK AO2
94908KDBQ DBQ20080622210509906/22/08 21:05:31  5-MIN KDBQ 230305Z AUTO 33005KT 10SM CLR 16/12 A2997 1040 77 1400 330/05 RMK AO2
94908KDBQ DBQ20080622211009906/22/08 21:10:31  5-MIN KDBQ 230310Z AUTO 32005KT 10SM CLR 16/12 A2996 1040 77 1400 320/05 RMK AO2
94908KDBQ DBQ20080622211509906/22/08 21:15:31  5-MIN KDBQ 230315Z AUTO 32005KT 10SM CLR 16/12 A2997 1030 77 1400 320/05 RMK AO2
94908KDBQ DBQ20080622212009906/22/08 21:20:31  5-MIN KDBQ 230320Z AUTO 32005KT 10SM CLR 16/12 A2997 1030 77 1400 320/05 RMK AO2
94908KDBQ DBQ20080622212509906/22/08 21:25:31  5-MIN KDBQ 230325Z AUTO 32005KT 10SM CLR 16/12 A2997 1030 77 1400 320/05 RMK AO2
94908KDBQ DBQ20080622213009906/22/08 21:30:31  5-MIN KDBQ 230330Z AUTO 32004KT 10SM CLR 16/12 A2997 1030 77 1400 320/04 RMK AO2
94908KDBQ DBQ20080622213509906/22/08 21:35:31  5-MIN KDBQ 230335Z AUTO 31003KT 10SM CLR 16/12 A2997 1030 75 1400 310/03 RMK AO2
94908KDBQ DBQ20080622214009906/22/08 21:40:31  5-MIN KDBQ 230340Z AUTO 31003KT 10SM CLR 16/12 A2997 1030 75 1400 310/03 RMK AO2
94908KDBQ DBQ20080622214509906/22/08 21:45:31  5-MIN KDBQ 230345Z AUTO 32003KT 10SM CLR 16/12 A2997 1040 75 1400 320/03 RMK AO2
94908KDBQ DBQ20080622215011606/22/08 21:50:31  5-MIN KDBQ 230350Z AUTO 32003KT 10SM CLR 16/12 A2997 1030 75 1400 320/03 RMK AO2 SLP145 T01610117
94908KDBQ DBQ20080622215509906/22/08 21:55:31  5-MIN KDBQ 230355Z AUTO 32005KT 10SM CLR 16/12 A2997 1030 77 1400 320/05 RMK AO2
94908KDBQ DBQ20080622220009906/22/08 22:00:31  5-MIN KDBQ 230400Z AUTO 33006KT 10SM CLR 16/12 A2997 1030 77 1400 320/06 RMK AO2
94908KDBQ DBQ20080622220509906/22/08 22:05:31  5-MIN KDBQ 230405Z AUTO 34006KT 10SM CLR 16/12 A2997 1030 77 1400 340/06 RMK AO2
94908KDBQ DBQ20080622221009906/22/08 22:10:31  5-MIN KDBQ 230410Z AUTO 34005KT 10SM CLR 16/12 A2997 1030 77 1400 340/05 RMK AO2
94908KDBQ DBQ20080622221509906/22/08 22:15:31  5-MIN KDBQ 230415Z AUTO 33004KT 10SM CLR 15/12 A2997 1030 80 1300 330/04 RMK AO2
94908KDBQ DBQ20080622222009906/22/08 22:20:31  5-MIN KDBQ 230420Z AUTO 33005KT 10SM CLR 15/12 A2997 1030 80 1300 330/05 RMK AO2
94908KDBQ DBQ20080622222509906/22/08 22:25:31  5-MIN KDBQ 230425Z AUTO 33006KT 10SM CLR 15/12 A2997 1030 80 1300 330/06 RMK AO2
94908KDBQ DBQ20080622223009906/22/08 22:30:31  5-MIN KDBQ 230430Z AUTO 33006KT 10SM CLR 16/12 A2997 1030 77 1400 330/06 RMK AO2
94908KDBQ DBQ20080622223509906/22/08 22:35:31  5-MIN KDBQ 230435Z AUTO 34006KT 10SM CLR 16/12 A2998 1030 77 1400 330/06 RMK AO2
94908KDBQ DBQ20080622224009906/22/08 22:40:31  5-MIN KDBQ 230440Z AUTO 35005KT 10SM CLR 16/12 A2998 1020 77 1400 350/05 RMK AO2
94908KDBQ DBQ20080622224509906/22/08 22:45:31  5-MIN KDBQ 230445Z AUTO 01005KT 10SM CLR 14/11 A2998 1020 80 1200 010/05 RMK AO2
94908KDBQ DBQ20080622225011606/22/08 22:50:31  5-MIN KDBQ 230450Z AUTO 01003KT 10SM CLR 15/11 A2998 1020 77 1300 010/03 RMK AO2 SLP150 T01500111
94908KDBQ DBQ20080622225509906/22/08 22:55:31  5-MIN KDBQ 230455Z AUTO 02004KT 10SM CLR 16/11 A2999 1020 74 1400 020/04 RMK AO2
94908KDBQ DBQ20080622230009906/22/08 23:00:31  5-MIN KDBQ 230500Z AUTO 01004KT 10SM CLR 16/11 A2999 1020 72 1400 010/04 RMK AO2
94908KDBQ DBQ20080622230509906/22/08 23:05:31  5-MIN KDBQ 230505Z AUTO 36005KT 10SM CLR 15/11 A2999 1020 77 1300 360/05 RMK AO2
94908KDBQ DBQ20080622231009906/22/08 23:10:31  5-MIN KDBQ 230510Z AUTO 02005KT 10SM CLR 14/11 A2999 1020 80 1200 020/05 RMK AO2
94908KDBQ DBQ20080622231509906/22/08 23:15:31  5-MIN KDBQ 230515Z AUTO 03005KT 10SM CLR 15/11 A2999 1020 77 1300 030/05 RMK AO2
94908KDBQ DBQ20080622232009906/22/08 23:20:31  5-MIN KDBQ 230520Z AUTO 01005KT 10SM CLR 16/11 A2999 1020 74 1400 010/05 RMK AO2
94908KDBQ DBQ20080622232509906/22/08 23:25:31  5-MIN KDBQ 230525Z AUTO 01004KT 10SM CLR 15/11 A2999 1020 77 1300 010/04 RMK AO2
94908KDBQ DBQ20080622233009906/22/08 23:30:31  5-MIN KDBQ 230530Z AUTO 02004KT 10SM CLR 15/11 A2999 1020 77 1300 020/04 RMK AO2
94908KDBQ DBQ20080622233509906/22/08 23:35:31  5-MIN KDBQ 230535Z AUTO 36004KT 10SM CLR 16/11 A2999 1020 74 1400 360/04 RMK AO2
94908KDBQ DBQ20080622234009906/22/08 23:40:31  5-MIN KDBQ 230540Z AUTO 35003KT 10SM CLR 15/11 A2999 1020 77 1300 350/03 RMK AO2
94908KDBQ DBQ20080622234509906/22/08 23:45:31  5-MIN KDBQ 230545Z AUTO 36003KT 10SM CLR 15/11 A2999 1020 77 1300 360/03 RMK AO2
94908KDBQ DBQ20080622235014406/22/08 23:50:31  5-MIN KDBQ 230550Z AUTO 35003KT 10SM CLR 16/11 A2999 1010 74 1400 350/03 RMK AO2 SLP152 T01560111 10211 20144 402500133 53009
94908KDBQ DBQ20080622235509906/22/08 23:55:31  5-MIN KDBQ 230555Z AUTO 34003KT 10SM CLR 16/11 A2999 1010 74 1400 340/03 RMK AO2
94908KDBQ DBQ20080623000009906/23/08 00:00:38  5-MIN KDBQ 230600Z AUTO 34003KT 10SM CLR 15/11 A2999 1010 77 1300 340/03 RMK AO2
94908KDBQ DBQ20080623000509906/23/08 00:05:31  5-MIN KDBQ 230605Z AUTO 36003KT 10SM CLR 15/11 A2999 1010 77 1300 360/03 RMK AO2
94908KDBQ DBQ20080623001009906/23/08 00:10:31  5-MIN KDBQ 230610Z AUTO 36003KT 10SM CLR 15/11 A2999 1010 77 1300 350/03 RMK AO2
94908KDBQ DBQ20080623001509906/23/08 00:15:31  5-MIN KDBQ 230615Z AUTO 35004KT 10SM CLR 15/11 A2999 1010 77 1300 340/04 RMK AO2
94908KDBQ DBQ20080623002009906/23/08 00:20:31  5-MIN KDBQ 230620Z AUTO 34004KT 10SM CLR 14/11 A2999 1010 80 1200 340/04 RMK AO2
94908KDBQ DBQ20080623002509906/23/08 00:25:31  5-MIN KDBQ 230625Z AUTO 34004KT 10SM CLR 14/11 A2999 1010 83 1200 340/04 RMK AO2
94908KDBQ DBQ20080623003009906/23/08 00:30:31  5-MIN KDBQ 230630Z AUTO 35004KT 10SM CLR 14/11 A2999 1010 80 1200 350/04 RMK AO2
94908KDBQ DBQ20080623003509906/23/08 00:35:31  5-MIN KDBQ 230635Z AUTO 35004KT 10SM CLR 14/11 A2999 1010 80 1200 350/04 RMK AO2
94908KDBQ DBQ20080623004009906/23/08 00:40:31  5-MIN KDBQ 230640Z AUTO 36004KT 10SM CLR 14/11 A2999 1010 80 1200 360/04 RMK AO2
94908KDBQ DBQ20080623004509906/23/08 00:45:31  5-MIN KDBQ 230645Z AUTO 36004KT 10SM CLR 14/11 A2999 1010 80 1200 360/04 RMK AO2
94908KDBQ DBQ20080623005011606/23/08 00:50:31  5-MIN KDBQ 230650Z AUTO 36004KT 10SM CLR 14/11 A2999 1010 83 1200 360/04 RMK AO2 SLP154 T01390111
94908KDBQ DBQ20080623005509906/23/08 00:55:31  5-MIN KDBQ 230655Z AUTO 35003KT 10SM CLR 14/11 A3000 1010 83 1200 350/03 RMK AO2
94908KDBQ DBQ20080623010009906/23/08 01:00:31  5-MIN KDBQ 230700Z AUTO 34005KT 10SM CLR 14/11 A3000 1010 80 1200 340/05 RMK AO2
94908KDBQ DBQ20080623010509906/23/08 01:05:31  5-MIN KDBQ 230705Z AUTO 34005KT 10SM CLR 14/11 A3000 1010 83 1200 340/05 RMK AO2
94908KDBQ DBQ20080623011009906/23/08 01:10:31  5-MIN KDBQ 230710Z AUTO 36005KT 10SM CLR 13/11 A2999 1010 86 1100 350/05 RMK AO2
94908KDBQ DBQ20080623011509906/23/08 01:15:31  5-MIN KDBQ 230715Z AUTO 36004KT 10SM CLR 13/11 A2999 1010 86 1100 360/04 RMK AO2
94908KDBQ DBQ20080623012009906/23/08 01:20:31  5-MIN KDBQ 230720Z AUTO 36004KT 10SM CLR 14/11 A2999 1010 83 1200 360/04 RMK AO2
94908KDBQ DBQ20080623012509906/23/08 01:25:31  5-MIN KDBQ 230725Z AUTO 01004KT 10SM CLR 14/11 A2999 1010 80 1200 360/04 RMK AO2
94908KDBQ DBQ20080623013009906/23/08 01:30:31  5-MIN KDBQ 230730Z AUTO 01004KT 10SM CLR 14/11 A2999 1010 80 1200 360/04 RMK AO2
94908KDBQ DBQ20080623013509906/23/08 01:35:31  5-MIN KDBQ 230735Z AUTO 36003KT 10SM CLR 14/11 A2999 1010 80 1200 360/03 RMK AO2
94908KDBQ DBQ20080623014009906/23/08 01:40:31  5-MIN KDBQ 230740Z AUTO 34003KT 10SM CLR 14/11 A2999 1010 80 1200 340/03 RMK AO2
94908KDBQ DBQ20080623014509906/23/08 01:45:31  5-MIN KDBQ 230745Z AUTO 34004KT 10SM CLR 14/11 A2999 1010 80 1200 340/04 RMK AO2
94908KDBQ DBQ20080623015011606/23/08 01:50:31  5-MIN KDBQ 230750Z AUTO 35003KT 10SM CLR 14/11 A2999 1010 80 1200 350/03 RMK AO2 SLP153 T01440111
94908KDBQ DBQ20080623015509906/23/08 01:55:31  5-MIN KDBQ 230755Z AUTO 36003KT 10SM CLR 14/11 A2999 1010 80 1200 360/03 RMK AO2
94908KDBQ DBQ20080623020009906/23/08 02:00:31  5-MIN KDBQ 230800Z AUTO 02003KT 10SM CLR 15/11 A2999 1010 77 1300 010/03 RMK AO2
94908KDBQ DBQ20080623020509906/23/08 02:05:31  5-MIN KDBQ 230805Z AUTO 01003KT 10SM CLR 14/11 A3000 1010 80 1200 010/03 RMK AO2
94908KDBQ DBQ20080623021009906/23/08 02:10:31  5-MIN KDBQ 230810Z AUTO 01003KT 10SM CLR 14/11 A3000 1010 80 1200 010/03 RMK AO2
94908KDBQ DBQ20080623021509906/23/08 02:15:31  5-MIN KDBQ 230815Z AUTO 36003KT 10SM CLR 14/11 A3000 1000 80 1200 360/03 RMK AO2
94908KDBQ DBQ20080623022009906/23/08 02:20:31  5-MIN KDBQ 230820Z AUTO 01003KT 10SM CLR 15/11 A3000 1000 77 1300 010/03 RMK AO2
94908KDBQ DBQ20080623022509906/23/08 02:25:31  5-MIN KDBQ 230825Z AUTO 02003KT 10SM CLR 16/11 A3000 1000 74 1300 010/03 RMK AO2
94908KDBQ DBQ20080623023009906/23/08 02:30:31  5-MIN KDBQ 230830Z AUTO 01003KT 10SM CLR 15/11 A3001 1000 77 1300 010/03 RMK AO2
94908KDBQ DBQ20080623023509906/23/08 02:35:31  5-MIN KDBQ 230835Z AUTO 01003KT 10SM CLR 15/11 A3001 1000 77 1300 010/03 RMK AO2
94908KDBQ DBQ20080623024009806/23/08 02:40:31  5-MIN KDBQ 230840Z AUTO 01003KT 10SM CLR 14/11 A3001 990 80 1200 010/03 RMK AO2
94908KDBQ DBQ20080623024509906/23/08 02:45:31  5-MIN KDBQ 230845Z AUTO 02003KT 10SM CLR 14/11 A3001 1000 80 1200 020/03 RMK AO2
94908KDBQ DBQ20080623025012106/23/08 02:50:31  5-MIN KDBQ 230850Z AUTO 00000KT 10SM CLR 14/11 A3001 990 80 1200 000/00 RMK AO2 SLP160 T01440111 53010
94908KDBQ DBQ20080623025509806/23/08 02:55:31  5-MIN KDBQ 230855Z AUTO 00000KT 10SM CLR 15/12 A3001 990 80 1300 000/00 RMK AO2
94908KDBQ DBQ20080623030009806/23/08 03:00:31  5-MIN KDBQ 230900Z AUTO 01003KT 10SM CLR 15/12 A3002 990 80 1300 010/03 RMK AO2
94908KDBQ DBQ20080623030509806/23/08 03:05:31  5-MIN KDBQ 230905Z AUTO 36003KT 10SM CLR 15/12 A3002 990 80 1300 360/03 RMK AO2
94908KDBQ DBQ20080623031009806/23/08 03:10:31  5-MIN KDBQ 230910Z AUTO 36003KT 10SM CLR 14/12 A3002 990 83 1200 360/03 RMK AO2
94908KDBQ DBQ20080623031509806/23/08 03:15:31  5-MIN KDBQ 230915Z AUTO 36003KT 10SM CLR 14/12 A3002 990 86 1100 360/03 RMK AO2
94908KDBQ DBQ20080623032009806/23/08 03:20:31  5-MIN KDBQ 230920Z AUTO 00000KT 10SM CLR 13/11 A3002 990 86 1100 000/00 RMK AO2
94908KDBQ DBQ20080623032509806/23/08 03:25:31  5-MIN KDBQ 230925Z AUTO 00000KT 10SM CLR 14/12 A3002 990 86 1100 000/00 RMK AO2
94908KDBQ DBQ20080623033009806/23/08 03:30:31  5-MIN KDBQ 230930Z AUTO 36003KT 10SM CLR 14/12 A3002 990 86 1100 360/03 RMK AO2
94908KDBQ DBQ20080623033509806/23/08 03:35:31  5-MIN KDBQ 230935Z AUTO 36003KT 10SM CLR 14/12 A3002 990 83 1200 360/03 RMK AO2
94908KDBQ DBQ20080623083509306/23/08 08:35:31  5-MIN KDBQ 231435Z 00000KT 10SM CLR 19/13 A3006 950 67 1700 000/00 RMK AO2
94908KDBQ DBQ20080623084009306/23/08 08:40:31  5-MIN KDBQ 231440Z VRB05KT 10SM CLR 20/13 A3007 940 65 1800 VRB/05 RMK AO2
94908KDBQ DBQ20080623084509306/23/08 08:45:31  5-MIN KDBQ 231445Z 04007KT 10SM CLR 20/13 A3006 950 65 1800 040/07 RMK AO2
94908KDBQ DBQ20080623085011606/23/08 08:50:31  5-MIN KDBQ 231450Z 03005KT 10SM CLR 20/13 A3006 950 65 1800 030/05 RMK AO2 SLP177 T02000133 51009
94908KDBQ DBQ20080623085509306/23/08 08:55:31  5-MIN KDBQ 231455Z 07005KT 10SM CLR 20/13 A3006 950 65 1800 070/05 RMK AO2
94908KDBQ DBQ20080623090009306/23/08 09:00:31  5-MIN KDBQ 231500Z VRB03KT 10SM CLR 20/13 A3006 950 65 1800 VRB/03 RMK AO2
94908KDBQ DBQ20080623090509306/23/08 09:05:31  5-MIN KDBQ 231505Z 00000KT 10SM CLR 19/13 A3007 940 65 1700 000/00 RMK AO2
94908KDBQ DBQ20080623091009606/23/08 09:10:31  5-MIN KDBQ 231510Z 07005KT 10SM FEW027 20/13 A3007 940 63 1800 070/05 RMK AO2
94908KDBQ DBQ20080623091509606/23/08 09:15:31  5-MIN KDBQ 231515Z 00000KT 10SM FEW027 20/13 A3007 940 65 1800 000/00 RMK AO2
94908KDBQ DBQ20080623092010306/23/08 09:20:31  5-MIN KDBQ 231520Z 02005KT 10SM FEW027 SCT033 21/13 A3007 940 61 1900 020/05 RMK AO2
94908KDBQ DBQ20080623092509606/23/08 09:25:31  5-MIN KDBQ 231525Z 09003KT 10SM BKN030 21/13 A3008 930 63 1800 090/03 RMK AO2
94908KDBQ DBQ20080623093009606/23/08 09:30:31  5-MIN KDBQ 231530Z VRB04KT 10SM SCT028 21/13 A3008 930 61 1900 VRB/04 RMK AO2
94908KDBQ DBQ20080623093509606/23/08 09:35:31  5-MIN KDBQ 231535Z 35006KT 10SM SCT028 21/13 A3008 930 61 1900 340/06 RMK AO2
94908KDBQ DBQ20080623094009606/23/08 09:40:31  5-MIN KDBQ 231540Z VRB04KT 10SM SCT028 21/13 A3008 930 58 1900 VRB/04 RMK AO2
94908KDBQ DBQ20080623094509606/23/08 09:45:31  5-MIN KDBQ 231545Z 05003KT 10SM SCT028 22/13 A3008 930 58 2000 050/03 RMK AO2
94908KDBQ DBQ20080623095012006/23/08 09:50:31  5-MIN KDBQ 231550Z 02006KT 10SM SCT030 BKN036 22/13 A3008 930 56 2000 020/06 RMK AO2 SLP182 T02220133
94908KDBQ DBQ20080623095510306/23/08 09:55:31  5-MIN KDBQ 231555Z 34005KT 10SM FEW028 SCT036 22/13 A3008 930 58 2000 340/05 RMK AO2
94908KDBQ DBQ20080623100010306/23/08 10:00:31  5-MIN KDBQ 231600Z VRB05KT 10SM FEW028 SCT036 22/13 A3009 920 58 2000 VRB/05 RMK AO2
94908KDBQ DBQ20080623100509606/23/08 10:05:31  5-MIN KDBQ 231605Z 35007KT 10SM SCT036 22/13 A3009 920 56 2000 340/07 RMK AO2
94908KDBQ DBQ20080623101009606/23/08 10:10:31  5-MIN KDBQ 231610Z 01005KT 10SM SCT036 22/13 A3009 920 56 1900 360/05 RMK AO2
94908KDBQ DBQ20080623101509606/23/08 10:15:31  5-MIN KDBQ 231615Z 33006KT 10SM SCT034 22/13 A3009 920 56 1900 330/06 RMK AO2
94908KDBQ DBQ20080623102009606/23/08 10:20:31  5-MIN KDBQ 231620Z 35007KT 10SM SCT034 22/13 A3009 920 58 1900 340/07 RMK AO2
94908KDBQ DBQ20080623102509606/23/08 10:25:31  5-MIN KDBQ 231625Z 34006KT 10SM BKN034 21/13 A3009 920 60 1800 340/06 RMK AO2
94908KDBQ DBQ20080623103009606/23/08 10:30:31  5-MIN KDBQ 231630Z 35007KT 10SM BKN036 21/13 A3009 920 58 1900 350/07 RMK AO2
94908KDBQ DBQ20080623103509606/23/08 10:35:31  5-MIN KDBQ 231635Z 36007KT 10SM BKN036 21/13 A3010 920 58 1900 360/07 RMK AO2
94908KDBQ DBQ20080623104009606/23/08 10:40:31  5-MIN KDBQ 231640Z 36007KT 10SM BKN036 22/13 A3010 910 56 1900 360/07 RMK AO2
94908KDBQ DBQ20080623104509606/23/08 10:45:31  5-MIN KDBQ 231645Z 31004KT 10SM SCT036 21/12 A3010 910 56 1900 310/04 RMK AO2
94908KDBQ DBQ20080623105011306/23/08 10:50:31  5-MIN KDBQ 231650Z 33007KT 10SM SCT036 22/13 A3011 910 58 1900 330/07 RMK AO2 SLP192 T02170133
94908KDBQ DBQ20080623105509606/23/08 10:55:31  5-MIN KDBQ 231655Z 33004KT 10SM SCT036 21/12 A3011 910 56 1900 330/04 RMK AO2
94908KDBQ DBQ20080623110009606/23/08 11:00:31  5-MIN KDBQ 231700Z VRB04KT 10SM SCT038 21/12 A3011 910 56 1900 VRB/04 RMK AO2
94908KDBQ DBQ20080623110509606/23/08 11:05:31  5-MIN KDBQ 231705Z 34008KT 10SM BKN036 22/13 A3011 910 58 1900 340/08 RMK AO2
94908KDBQ DBQ20080623111011906/23/08 11:10:31  5-MIN KDBQ 231710Z 36007KT 310V020 10SM BKN036 BKN045 21/13 A3011 910 58 1900 360/07 310V020 RMK AO2
94908KDBQ DBQ20080623111510306/23/08 11:15:31  5-MIN KDBQ 231715Z VRB05KT 10SM SCT038 BKN045 22/13 A3010 910 56 1900 VRB/05 RMK AO2
94908KDBQ DBQ20080623112009606/23/08 11:20:31  5-MIN KDBQ 231720Z 00000KT 10SM SCT038 22/12 A3011 910 52 2000 000/00 RMK AO2
94908KDBQ DBQ20080623112510306/23/08 11:25:31  5-MIN KDBQ 231725Z VRB03KT 10SM SCT038 SCT046 23/13 A3011 910 53 2100 VRB/03 RMK AO2
94908KDBQ DBQ20080623113009606/23/08 11:30:31  5-MIN KDBQ 231730Z 36006KT 10SM SCT038 22/13 A3011 910 56 2000 360/06 RMK AO2
94908KDBQ DBQ20080623113509606/23/08 11:35:31  5-MIN KDBQ 231735Z 36004KT 10SM FEW041 23/13 A3010 910 53 2100 350/04 RMK AO2
94908KDBQ DBQ20080623114009606/23/08 11:40:31  5-MIN KDBQ 231740Z 36004KT 10SM SCT041 23/13 A3010 910 53 2100 360/04 RMK AO2
94908KDBQ DBQ20080623114510306/23/08 11:45:31  5-MIN KDBQ 231745Z 34004KT 10SM BKN041 BKN048 22/13 A3011 910 56 1900 330/04 RMK AO2
94908KDBQ DBQ20080623115013806/23/08 11:50:31  5-MIN KDBQ 231750Z 36005KT 10SM SCT041 BKN048 22/13 A3011 900 56 1900 360/05 RMK AO2 SLP193 T02170128 10233 20156 51008
94908KDBQ DBQ20080623115509606/23/08 11:55:31  5-MIN KDBQ 231755Z VRB05KT 10SM SCT043 23/13 A3011 900 55 2100 VRB/05 RMK AO2
94908KDBQ DBQ20080623120010306/23/08 12:00:31  5-MIN KDBQ 231800Z VRB05KT 10SM SCT041 SCT050 24/14 A3011 900 53 2200 VRB/05 RMK AO2
94908KDBQ DBQ20080623120510306/23/08 12:05:31  5-MIN KDBQ 231805Z 36009KT 10SM SCT040 BKN050 23/13 A3011 900 55 2000 360/09 RMK AO2
94908KDBQ DBQ20080623121010306/23/08 12:10:31  5-MIN KDBQ 231810Z 03004KT 10SM FEW040 BKN050 23/13 A3012 900 51 2100 030/04 RMK AO2
94908KDBQ DBQ20080623121511006/23/08 12:15:31  5-MIN KDBQ 231815Z 02005KT 10SM FEW040 BKN050 BKN060 23/13 A3012 900 51 2100 020/05 RMK AO2
94908KDBQ DBQ20080623122010306/23/08 12:20:31  5-MIN KDBQ 231820Z 36007KT 10SM BKN045 BKN055 22/12 A3011 900 52 2000 360/07 RMK AO2
94908KDBQ DBQ20080623122511006/23/08 12:25:31  5-MIN KDBQ 231825Z 00000KT 10SM SCT041 BKN049 BKN060 23/13 A3011 910 53 2100 000/00 RMK AO2
94908KDBQ DBQ20080623123010306/23/08 12:30:31  5-MIN KDBQ 231830Z 31003KT 10SM SCT043 SCT055 23/12 A3010 910 51 2100 310/03 RMK AO2
94908KDBQ DBQ20080623123510306/23/08 12:35:31  5-MIN KDBQ 231835Z VRB03KT 10SM FEW043 SCT055 23/12 A3010 910 49 2100 VRB/03 RMK AO2
94908KDBQ DBQ20080623124009606/23/08 12:40:31  5-MIN KDBQ 231840Z 04010KT 10SM FEW043 24/13 A3010 910 49 2200 030/10 RMK AO2
94908KDBQ DBQ20080623124509606/23/08 12:45:31  5-MIN KDBQ 231845Z 04006KT 10SM FEW043 23/12 A3009 920 49 2100 040/06 RMK AO2
94908KDBQ DBQ20080623125011006/23/08 12:50:31  5-MIN KDBQ 231850Z 01005KT 10SM CLR 24/12 A3009 920 47 2200 010/05 RMK AO2 SLP187 T02390122
94908KDBQ DBQ20080623125509306/23/08 12:55:31  5-MIN KDBQ 231855Z 06004KT 10SM CLR 23/12 A3008 930 49 2100 060/04 RMK AO2
94908KDBQ DBQ20080623130009306/23/08 13:00:31  5-MIN KDBQ 231900Z 03008KT 10SM CLR 24/12 A3008 930 47 2200 030/08 RMK AO2
94908KDBQ DBQ20080623130509606/23/08 13:05:31  5-MIN KDBQ 231905Z 04007KT 10SM FEW046 23/13 A3008 930 51 2100 040/07 RMK AO2
94908KDBQ DBQ20080623131009606/23/08 13:10:31  5-MIN KDBQ 231910Z 04008KT 10SM FEW046 23/13 A3008 930 51 2100 040/08 RMK AO2
94908KDBQ DBQ20080623131509306/23/08 13:15:31  5-MIN KDBQ 231915Z 03004KT 10SM CLR 24/13 A3008 930 49 2200 030/04 RMK AO2
94908KDBQ DBQ20080623132009306/23/08 13:20:31  5-MIN KDBQ 231920Z 06008KT 10SM CLR 24/13 A3008 930 49 2300 060/08 RMK AO2
94908KDBQ DBQ20080623132509306/23/08 13:25:31  5-MIN KDBQ 231925Z 01006KT 10SM CLR 24/13 A3008 930 49 2200 010/06 RMK AO2
94908KDBQ DBQ20080623133010906/23/08 13:30:31  5-MIN KDBQ 231930Z 05007KT 010V110 10SM CLR 24/13 A3008 930 49 2200 050/07 010V110 RMK AO2
94908KDBQ DBQ20080623133509306/23/08 13:35:31  5-MIN KDBQ 231935Z 04006KT 10SM CLR 24/12 A3008 930 47 2200 040/06 RMK AO2
94908KDBQ DBQ20080623134009306/23/08 13:40:31  5-MIN KDBQ 231940Z 05008KT 10SM CLR 24/12 A3008 930 47 2200 050/08 RMK AO2
94908KDBQ DBQ20080623134509306/23/08 13:45:31  5-MIN KDBQ 231945Z 07007KT 10SM CLR 24/12 A3008 930 47 2200 070/07 RMK AO2
94908KDBQ DBQ20080623135011006/23/08 13:50:31  5-MIN KDBQ 231950Z 09006KT 10SM CLR 24/12 A3008 930 46 2200 090/06 RMK AO2 SLP184 T02390117
94908KDBQ DBQ20080623135509306/23/08 13:55:31  5-MIN KDBQ 231955Z 03005KT 10SM CLR 24/12 A3009 930 46 2300 030/05 RMK AO2
94908KDBQ DBQ20080623140009306/23/08 14:00:31  5-MIN KDBQ 232000Z 05006KT 10SM CLR 24/12 A3008 930 46 2200 040/06 RMK AO2
94908KDBQ DBQ20080623140509306/23/08 14:05:31  5-MIN KDBQ 232005Z VRB03KT 10SM CLR 24/12 A3009 930 46 2200 VRB/03 RMK AO2
94908KDBQ DBQ20080623141009306/23/08 14:10:31  5-MIN KDBQ 232010Z 06004KT 10SM CLR 24/12 A3009 920 46 2200 060/04 RMK AO2
94908KDBQ DBQ20080623141509306/23/08 14:15:31  5-MIN KDBQ 232015Z 00000KT 10SM CLR 24/13 A3009 920 47 2300 000/00 RMK AO2
94908KDBQ DBQ20080623142009306/23/08 14:20:31  5-MIN KDBQ 232020Z 29005KT 10SM CLR 24/12 A3009 920 47 2200 290/05 RMK AO2
94908KDBQ DBQ20080623142509306/23/08 14:25:31  5-MIN KDBQ 232025Z VRB04KT 10SM CLR 24/12 A3009 920 46 2200 VRB/04 RMK AO2
94908KDBQ DBQ20080623143009306/23/08 14:30:31  5-MIN KDBQ 232030Z 06005KT 10SM CLR 24/12 A3009 920 46 2300 060/05 RMK AO2
94908KDBQ DBQ20080623143509306/23/08 14:35:31  5-MIN KDBQ 232035Z 05003KT 10SM CLR 24/12 A3009 920 46 2300 050/03 RMK AO2
94908KDBQ DBQ20080623144009306/23/08 14:40:31  5-MIN KDBQ 232040Z VRB03KT 10SM CLR 24/13 A3009 920 47 2300 VRB/03 RMK AO2
94908KDBQ DBQ20080623144509606/23/08 14:45:31  5-MIN KDBQ 232045Z 00000KT 10SM FEW048 24/12 A3009 920 46 2300 000/00 RMK AO2
94908KDBQ DBQ20080623145011906/23/08 14:50:31  5-MIN KDBQ 232050Z VRB03KT 10SM FEW048 24/12 A3009 920 46 2300 VRB/03 RMK AO2 SLP185 T02440122 51016
94908KDBQ DBQ20080623145509306/23/08 14:55:31  5-MIN KDBQ 232055Z VRB03KT 10SM CLR 24/12 A3009 920 46 2300 VRB/03 RMK AO2
94908KDBQ DBQ20080623150009606/23/08 15:00:31  5-MIN KDBQ 232100Z VRB05KT 10SM FEW048 25/13 A3009 920 46 2300 VRB/05 RMK AO2
94908KDBQ DBQ20080623150509606/23/08 15:05:31  5-MIN KDBQ 232105Z 06007KT 10SM SCT048 25/13 A3009 920 46 2300 050/07 RMK AO2
94908KDBQ DBQ20080623151009606/23/08 15:10:31  5-MIN KDBQ 232110Z 06004KT 10SM SCT048 24/13 A3009 920 47 2300 060/04 RMK AO2
94908KDBQ DBQ20080623151509606/23/08 15:15:31  5-MIN KDBQ 232115Z 09004KT 10SM BKN048 24/12 A3010 920 46 2300 090/04 RMK AO2
94908KDBQ DBQ20080623152009606/23/08 15:20:31  5-MIN KDBQ 232120Z 03004KT 10SM BKN048 24/12 A3009 920 46 2300 030/04 RMK AO2
94908KDBQ DBQ20080623152509606/23/08 15:25:31  5-MIN KDBQ 232125Z 00000KT 10SM SCT048 24/12 A3010 920 47 2200 000/00 RMK AO2
94908KDBQ DBQ20080623153009606/23/08 15:30:31  5-MIN KDBQ 232130Z 00000KT 10SM SCT048 24/12 A3010 910 44 2300 000/00 RMK AO2
94908KDBQ DBQ20080623153509606/23/08 15:35:31  5-MIN KDBQ 232135Z VRB04KT 10SM BKN050 24/12 A3010 910 46 2300 VRB/04 RMK AO2
94908KDBQ DBQ20080623154009606/23/08 15:40:31  5-MIN KDBQ 232140Z VRB04KT 10SM BKN050 24/13 A3010 910 47 2300 VRB/04 RMK AO2
94908KDBQ DBQ20080623154509606/23/08 15:45:31  5-MIN KDBQ 232145Z 08005KT 10SM BKN050 24/13 A3010 910 47 2300 080/05 RMK AO2
94908KDBQ DBQ20080623155011306/23/08 15:50:31  5-MIN KDBQ 232150Z 09004KT 10SM BKN050 24/12 A3010 910 46 2200 090/04 RMK AO2 SLP190 T02390117
94908KDBQ DBQ20080623155509606/23/08 15:55:31  5-MIN KDBQ 232155Z 11005KT 10SM BKN050 24/12 A3010 910 44 2300 110/05 RMK AO2
94908KDBQ DBQ20080623160009606/23/08 16:00:31  5-MIN KDBQ 232200Z 00000KT 10SM BKN050 24/12 A3010 910 44 2300 000/00 RMK AO2
94908KDBQ DBQ20080623160509606/23/08 16:05:31  5-MIN KDBQ 232205Z VRB05KT 10SM BKN050 24/12 A3010 910 44 2300 VRB/05 RMK AO2
94908KDBQ DBQ20080623161009606/23/08 16:10:31  5-MIN KDBQ 232210Z 06004KT 10SM BKN050 25/12 A3010 910 43 2300 060/04 RMK AO2
94908KDBQ DBQ20080623161509606/23/08 16:15:31  5-MIN KDBQ 232215Z 06004KT 10SM BKN050 24/12 A3010 910 46 2300 050/04 RMK AO2
94908KDBQ DBQ20080623162009606/23/08 16:20:31  5-MIN KDBQ 232220Z 03007KT 10SM BKN050 25/12 A3010 910 44 2300 030/07 RMK AO2
94908KDBQ DBQ20080623162509606/23/08 16:25:31  5-MIN KDBQ 232225Z 06004KT 10SM BKN050 25/12 A3010 910 44 2300 060/04 RMK AO2
94908KDBQ DBQ20080623163009606/23/08 16:30:31  5-MIN KDBQ 232230Z VRB04KT 10SM BKN050 25/12 A3010 910 44 2300 VRB/04 RMK AO2
94908KDBQ DBQ20080623163509606/23/08 16:35:31  5-MIN KDBQ 232235Z VRB04KT 10SM BKN050 25/12 A3010 910 44 2300 VRB/04 RMK AO2
94908KDBQ DBQ20080623164009606/23/08 16:40:31  5-MIN KDBQ 232240Z 01003KT 10SM BKN055 24/12 A3010 910 46 2300 360/03 RMK AO2
94908KDBQ DBQ20080623164509606/23/08 16:45:31  5-MIN KDBQ 232245Z 03003KT 10SM SCT055 24/12 A3010 910 47 2200 030/03 RMK AO2
94908KDBQ DBQ20080623165011306/23/08 16:50:31  5-MIN KDBQ 232250Z 03003KT 10SM FEW055 24/12 A3010 910 44 2300 030/03 RMK AO2 SLP190 T02440117
94908KDBQ DBQ20080623165509606/23/08 16:55:31  5-MIN KDBQ 232255Z 34003KT 10SM FEW055 24/12 A3010 910 44 2300 340/03 RMK AO2
94908KDBQ DBQ20080623170009606/23/08 17:00:31  5-MIN KDBQ 232300Z 00000KT 10SM FEW055 24/12 A3010 910 44 2300 000/00 RMK AO2
94908KDBQ DBQ20080623170509306/23/08 17:05:31  5-MIN KDBQ 232305Z 01003KT 10SM CLR 25/12 A3010 910 43 2300 010/03 RMK AO2
94908KDBQ DBQ20080623171009306/23/08 17:10:31  5-MIN KDBQ 232310Z 34003KT 10SM CLR 24/12 A3010 910 44 2300 340/03 RMK AO2
94908KDBQ DBQ20080623171509306/23/08 17:15:31  5-MIN KDBQ 232315Z 02003KT 10SM CLR 25/12 A3010 910 44 2300 020/03 RMK AO2
94908KDBQ DBQ20080623172009306/23/08 17:20:31  5-MIN KDBQ 232320Z 00000KT 10SM CLR 25/12 A3010 910 43 2300 000/00 RMK AO2
94908KDBQ DBQ20080623172509306/23/08 17:25:31  5-MIN KDBQ 232325Z 00000KT 10SM CLR 25/12 A3010 910 43 2300 000/00 RMK AO2
94908KDBQ DBQ20080623173009306/23/08 17:30:31  5-MIN KDBQ 232330Z 00000KT 10SM CLR 24/11 A3010 910 44 2200 000/00 RMK AO2
94908KDBQ DBQ20080623173509306/23/08 17:35:31  5-MIN KDBQ 232335Z 07004KT 10SM CLR 24/12 A3010 920 44 2300 070/04 RMK AO2
94908KDBQ DBQ20080623174009306/23/08 17:40:31  5-MIN KDBQ 232340Z 06003KT 10SM CLR 24/12 A3010 920 46 2300 060/03 RMK AO2
94908KDBQ DBQ20080623174509306/23/08 17:45:31  5-MIN KDBQ 232345Z 04003KT 10SM CLR 24/12 A3009 920 46 2200 040/03 RMK AO2
94908KDBQ DBQ20080623175012806/23/08 17:50:31  5-MIN KDBQ 232350Z 00000KT 10SM CLR 24/12 A3010 920 47 2200 000/00 RMK AO2 SLP188 T02390122 10256 20222 55007
94908KDBQ DBQ20080623175509306/23/08 17:55:31  5-MIN KDBQ 232355Z 07003KT 10SM CLR 23/13 A3009 920 51 2100 060/03 RMK AO2
94908KDBQ DBQ20080623180009306/23/08 18:00:31  5-MIN KDBQ 240000Z 07004KT 10SM CLR 23/13 A3009 920 53 2100 070/04 RMK AO2
94908KDBQ DBQ20080623180509306/23/08 18:05:31  5-MIN KDBQ 240005Z 08003KT 10SM CLR 23/12 A3009 920 51 2100 080/03 RMK AO2
94908KDBQ DBQ20080623181009306/23/08 18:10:31  5-MIN KDBQ 240010Z 08003KT 10SM CLR 23/12 A3009 920 51 2100 080/03 RMK AO2
94908KDBQ DBQ20080623181509306/23/08 18:15:31  5-MIN KDBQ 240015Z 08003KT 10SM CLR 23/12 A3009 920 51 2100 080/03 RMK AO2
94908KDBQ DBQ20080623182009306/23/08 18:20:31  5-MIN KDBQ 240020Z 00000KT 10SM CLR 23/12 A3009 920 51 2100 000/00 RMK AO2
94908KDBQ DBQ20080623182509306/23/08 18:25:31  5-MIN KDBQ 240025Z 00000KT 10SM CLR 23/13 A3010 920 53 2100 000/00 RMK AO2
94908KDBQ DBQ20080623183009306/23/08 18:30:31  5-MIN KDBQ 240030Z 00000KT 10SM CLR 23/13 A3010 910 53 2100 000/00 RMK AO2
94908KDBQ DBQ20080623183509306/23/08 18:35:31  5-MIN KDBQ 240035Z 00000KT 10SM CLR 23/13 A3010 910 53 2100 000/00 RMK AO2
94908KDBQ DBQ20080623184009306/23/08 18:40:31  5-MIN KDBQ 240040Z 00000KT 10SM CLR 22/13 A3011 910 58 1900 000/00 RMK AO2
94908KDBQ DBQ20080623184509306/23/08 18:45:31  5-MIN KDBQ 240045Z 00000KT 10SM CLR 22/13 A3011 900 58 1900 000/00 RMK AO2
94908KDBQ DBQ20080623185011006/23/08 18:50:31  5-MIN KDBQ 240050Z 00000KT 10SM CLR 22/13 A3011 900 54 2000 000/00 RMK AO2 SLP192 T02220128
94908KDBQ DBQ20080623185509306/23/08 18:55:31  5-MIN KDBQ 240055Z 00000KT 10SM CLR 21/13 A3011 900 58 1900 000/00 RMK AO2
94908KDBQ DBQ20080623190009806/23/08 19:00:31  5-MIN KDBQ 240100Z AUTO 00000KT 10SM CLR 22/12 A3011 900 54 1900 000/00 RMK AO2
94908KDBQ DBQ20080623190509806/23/08 19:05:31  5-MIN KDBQ 240105Z AUTO 00000KT 10SM CLR 22/12 A3011 900 52 1900 000/00 RMK AO2
94908KDBQ DBQ20080623191009806/23/08 19:10:31  5-MIN KDBQ 240110Z AUTO 00000KT 10SM CLR 22/12 A3011 900 54 1900 000/00 RMK AO2
94908KDBQ DBQ20080623191509806/23/08 19:15:31  5-MIN KDBQ 240115Z AUTO 00000KT 10SM CLR 21/14 A3011 900 65 1800 000/00 RMK AO2
94908KDBQ DBQ20080623192009806/23/08 19:20:31  5-MIN KDBQ 240120Z AUTO 00000KT 10SM CLR 21/14 A3011 900 65 1800 000/00 RMK AO2
94908KDBQ DBQ20080623192509806/23/08 19:25:31  5-MIN KDBQ 240125Z AUTO 00000KT 10SM CLR 20/13 A3011 900 65 1700 000/00 RMK AO2
94908KDBQ DBQ20080623193009806/23/08 19:30:31  5-MIN KDBQ 240130Z AUTO 00000KT 10SM CLR 21/12 A3011 900 56 1900 000/00 RMK AO2
94908KDBQ DBQ20080623193509806/23/08 19:35:31  5-MIN KDBQ 240135Z AUTO 00000KT 10SM CLR 22/12 A3011 900 54 1900 000/00 RMK AO2
94908KDBQ DBQ20080623194009806/23/08 19:40:31  5-MIN KDBQ 240140Z AUTO 00000KT 10SM CLR 21/12 A3011 900 58 1800 000/00 RMK AO2
94908KDBQ DBQ20080623194509806/23/08 19:45:31  5-MIN KDBQ 240145Z AUTO 00000KT 10SM CLR 20/13 A3011 900 63 1700 000/00 RMK AO2
94908KDBQ DBQ20080623195011506/23/08 19:50:31  5-MIN KDBQ 240150Z AUTO 00000KT 10SM CLR 20/14 A3012 900 67 1700 000/00 RMK AO2 SLP195 T02000139
94908KDBQ DBQ20080623195509806/23/08 19:55:31  5-MIN KDBQ 240155Z AUTO 00000KT 10SM CLR 20/14 A3012 900 67 1700 000/00 RMK AO2
94908KDBQ DBQ20080623200009806/23/08 20:00:31  5-MIN KDBQ 240200Z AUTO 00000KT 10SM CLR 21/13 A3012 900 63 1800 000/00 RMK AO2
94908KDBQ DBQ20080623200509806/23/08 20:05:31  5-MIN KDBQ 240205Z AUTO 00000KT 10SM CLR 19/13 A3012 890 67 1700 000/00 RMK AO2
94908KDBQ DBQ20080623201009806/23/08 20:10:31  5-MIN KDBQ 240210Z AUTO 00000KT 10SM CLR 19/14 A3012 890 72 1600 000/00 RMK AO2
94908KDBQ DBQ20080623201509806/23/08 20:15:31  5-MIN KDBQ 240215Z AUTO 00000KT 10SM CLR 19/14 A3013 890 70 1700 000/00 RMK AO2
94908KDBQ DBQ20080623202009806/23/08 20:20:31  5-MIN KDBQ 240220Z AUTO 00000KT 10SM CLR 19/14 A3013 890 70 1700 000/00 RMK AO2
94908KDBQ DBQ20080623202509806/23/08 20:25:31  5-MIN KDBQ 240225Z AUTO 00000KT 10SM CLR 19/14 A3013 890 70 1700 000/00 RMK AO2
94908KDBQ DBQ20080623203009806/23/08 20:30:31  5-MIN KDBQ 240230Z AUTO 00000KT 10SM CLR 19/14 A3013 880 70 1600 000/00 RMK AO2
94908KDBQ DBQ20080623203509806/23/08 20:35:31  5-MIN KDBQ 240235Z AUTO 00000KT 10SM CLR 19/14 A3013 880 70 1600 000/00 RMK AO2
94908KDBQ DBQ20080623204009806/23/08 20:40:31  5-MIN KDBQ 240240Z AUTO 00000KT 10SM CLR 19/13 A3013 880 67 1600 000/00 RMK AO2
94908KDBQ DBQ20080623204509806/23/08 20:45:31  5-MIN KDBQ 240245Z AUTO 00000KT 10SM CLR 19/13 A3013 880 67 1600 000/00 RMK AO2
94908KDBQ DBQ20080623205012106/23/08 20:50:31  5-MIN KDBQ 240250Z AUTO 00000KT 10SM CLR 19/13 A3014 880 70 1600 000/00 RMK AO2 SLP202 T01890133 50002
94908KDBQ DBQ20080623205509806/23/08 20:55:31  5-MIN KDBQ 240255Z AUTO 00000KT 10SM CLR 19/13 A3014 880 70 1600 000/00 RMK AO2
94908KDBQ DBQ20080623210009806/23/08 21:00:31  5-MIN KDBQ 240300Z AUTO 00000KT 10SM CLR 18/14 A3014 880 75 1500 000/00 RMK AO2
94908KDBQ DBQ20080623210509806/23/08 21:05:31  5-MIN KDBQ 240305Z AUTO 00000KT 10SM CLR 18/14 A3014 880 78 1400 000/00 RMK AO2
94908KDBQ DBQ20080623211009806/23/08 21:10:31  5-MIN KDBQ 240310Z AUTO 00000KT 10SM CLR 18/14 A3014 870 75 1500 000/00 RMK AO2
94908KDBQ DBQ20080623211509806/23/08 21:15:31  5-MIN KDBQ 240315Z AUTO 00000KT 10SM CLR 18/13 A3015 870 75 1400 000/00 RMK AO2
94908KDBQ DBQ20080623212009806/23/08 21:20:31  5-MIN KDBQ 240320Z AUTO 00000KT 10SM CLR 18/14 A3015 870 78 1400 000/00 RMK AO2
94908KDBQ DBQ20080623212509806/23/08 21:25:31  5-MIN KDBQ 240325Z AUTO 00000KT 10SM CLR 18/14 A3015 870 75 1500 000/00 RMK AO2
94908KDBQ DBQ20080623213009806/23/08 21:30:31  5-MIN KDBQ 240330Z AUTO 00000KT 10SM CLR 18/14 A3015 870 78 1400 000/00 RMK AO2
94908KDBQ DBQ20080623213509806/23/08 21:35:31  5-MIN KDBQ 240335Z AUTO 00000KT 10SM CLR 18/14 A3015 870 78 1400 000/00 RMK AO2
94908KDBQ DBQ20080623214009806/23/08 21:40:31  5-MIN KDBQ 240340Z AUTO 00000KT 10SM CLR 17/14 A3015 870 80 1400 000/00 RMK AO2
94908KDBQ DBQ20080623214509806/23/08 21:45:31  5-MIN KDBQ 240345Z AUTO 00000KT 10SM CLR 18/14 A3014 870 78 1400 000/00 RMK AO2
94908KDBQ DBQ20080623215011506/23/08 21:50:31  5-MIN KDBQ 240350Z AUTO 00000KT 10SM CLR 17/14 A3015 870 80 1400 000/00 RMK AO2 SLP205 T01720139
94908KDBQ DBQ20080623215509806/23/08 21:55:31  5-MIN KDBQ 240355Z AUTO 00000KT 10SM CLR 17/13 A3015 870 78 1400 000/00 RMK AO2
94908KDBQ DBQ20080623220009806/23/08 22:00:31  5-MIN KDBQ 240400Z AUTO 00000KT 10SM CLR 17/13 A3015 870 78 1400 000/00 RMK AO2
94908KDBQ DBQ20080623220509806/23/08 22:05:31  5-MIN KDBQ 240405Z AUTO 00000KT 10SM CLR 17/13 A3014 870 80 1300 000/00 RMK AO2
94908KDBQ DBQ20080623221009806/23/08 22:10:31  5-MIN KDBQ 240410Z AUTO 00000KT 10SM CLR 17/13 A3015 870 80 1300 000/00 RMK AO2
94908KDBQ DBQ20080623221509806/23/08 22:15:31  5-MIN KDBQ 240415Z AUTO 00000KT 10SM CLR 17/13 A3015 870 80 1300 000/00 RMK AO2
94908KDBQ DBQ20080623222009806/23/08 22:20:31  5-MIN KDBQ 240420Z AUTO 00000KT 10SM CLR 17/13 A3015 870 80 1300 000/00 RMK AO2
94908KDBQ DBQ20080623222509806/23/08 22:25:31  5-MIN KDBQ 240425Z AUTO 00000KT 10SM CLR 17/13 A3015 870 80 1300 000/00 RMK AO2
94908KDBQ DBQ20080623223009806/23/08 22:30:31  5-MIN KDBQ 240430Z AUTO 00000KT 10SM CLR 17/13 A3015 870 77 1300 000/00 RMK AO2
94908KDBQ DBQ20080623223509806/23/08 22:35:31  5-MIN KDBQ 240435Z AUTO 00000KT 10SM CLR 17/13 A3015 870 77 1300 000/00 RMK AO2
94908KDBQ DBQ20080623224009806/23/08 22:40:31  5-MIN KDBQ 240440Z AUTO 00000KT 10SM CLR 17/13 A3015 860 77 1300 000/00 RMK AO2
94908KDBQ DBQ20080623224509806/23/08 22:45:31  5-MIN KDBQ 240445Z AUTO 00000KT 10SM CLR 16/13 A3015 870 80 1200 000/00 RMK AO2
94908KDBQ DBQ20080623225011506/23/08 22:50:31  5-MIN KDBQ 240450Z AUTO 00000KT 10SM CLR 17/12 A3015 860 75 1300 000/00 RMK AO2 SLP207 T01670122
94908KDBQ DBQ20080623225509806/23/08 22:55:31  5-MIN KDBQ 240455Z AUTO 00000KT 10SM CLR 17/12 A3015 870 72 1400 000/00 RMK AO2
94908KDBQ DBQ20080623230009806/23/08 23:00:31  5-MIN KDBQ 240500Z AUTO 00000KT 10SM CLR 16/13 A3015 870 80 1200 000/00 RMK AO2
94908KDBQ DBQ20080623230509806/23/08 23:05:31  5-MIN KDBQ 240505Z AUTO 00000KT 10SM CLR 16/13 A3014 870 83 1200 000/00 RMK AO2
94908KDBQ DBQ20080623231009806/23/08 23:10:31  5-MIN KDBQ 240510Z AUTO 00000KT 10SM CLR 16/13 A3015 870 80 1200 000/00 RMK AO2
94908KDBQ DBQ20080623231509806/23/08 23:15:31  5-MIN KDBQ 240515Z AUTO 00000KT 10SM CLR 16/13 A3014 870 80 1200 000/00 RMK AO2
94908KDBQ DBQ20080623232009806/23/08 23:20:31  5-MIN KDBQ 240520Z AUTO 00000KT 10SM CLR 16/12 A3015 870 77 1200 000/00 RMK AO2
94908KDBQ DBQ20080623232509806/23/08 23:25:31  5-MIN KDBQ 240525Z AUTO 12003KT 10SM CLR 17/12 A3014 870 75 1300 120/03 RMK AO2
94908KDBQ DBQ20080623233009806/23/08 23:30:31  5-MIN KDBQ 240530Z AUTO 13003KT 10SM CLR 17/12 A3015 870 75 1300 130/03 RMK AO2
94908KDBQ DBQ20080623233509806/23/08 23:35:31  5-MIN KDBQ 240535Z AUTO 00000KT 10SM CLR 16/12 A3015 870 77 1200 000/00 RMK AO2
94908KDBQ DBQ20080623234009806/23/08 23:40:31  5-MIN KDBQ 240540Z AUTO 00000KT 10SM CLR 15/12 A3015 870 83 1100 000/00 RMK AO2
94908KDBQ DBQ20080623234509806/23/08 23:45:31  5-MIN KDBQ 240545Z AUTO 00000KT 10SM CLR 16/12 A3015 870 77 1200 000/00 RMK AO2
94908KDBQ DBQ20080623235014306/23/08 23:50:31  5-MIN KDBQ 240550Z AUTO 00000KT 10SM CLR 16/12 A3015 870 77 1200 000/00 RMK AO2 SLP207 T01610122 10233 20150 402560128 53014
94908KDBQ DBQ20080623235509806/23/08 23:55:31  5-MIN KDBQ 240555Z AUTO 12003KT 10SM CLR 17/12 A3014 870 75 1300 120/03 RMK AO2
94908KDBQ DBQ20080624000009806/24/08 00:00:38  5-MIN KDBQ 240600Z AUTO 00000KT 10SM CLR 17/12 A3015 870 72 1400 000/00 RMK AO2
94908KDBQ DBQ20080624000509806/24/08 00:05:31  5-MIN KDBQ 240605Z AUTO 14004KT 10SM CLR 17/12 A3014 870 72 1400 140/04 RMK AO2
94908KDBQ DBQ20080624001009806/24/08 00:10:31  5-MIN KDBQ 240610Z AUTO 15004KT 10SM CLR 18/12 A3015 870 69 1400 150/04 RMK AO2
94908KDBQ DBQ20080624001509806/24/08 00:15:31  5-MIN KDBQ 240615Z AUTO 15003KT 10SM CLR 18/12 A3015 870 69 1400 140/03 RMK AO2
94908KDBQ DBQ20080624002009806/24/08 00:20:31  5-MIN KDBQ 240620Z AUTO 00000KT 10SM CLR 17/13 A3015 860 77 1300 000/00 RMK AO2
94908KDBQ DBQ20080624002509806/24/08 00:25:31  5-MIN KDBQ 240625Z AUTO 00000KT 10SM CLR 17/12 A3016 860 72 1400 000/00 RMK AO2
94908KDBQ DBQ20080624003009806/24/08 00:30:31  5-MIN KDBQ 240630Z AUTO 00000KT 10SM CLR 18/12 A3015 870 69 1400 000/00 RMK AO2
94908KDBQ DBQ20080624003509806/24/08 00:35:31  5-MIN KDBQ 240635Z AUTO 15004KT 10SM CLR 18/13 A3015 860 72 1400 150/04 RMK AO2
94908KDBQ DBQ20080624004009806/24/08 00:40:31  5-MIN KDBQ 240640Z AUTO 15005KT 10SM CLR 18/13 A3015 860 70 1500 150/05 RMK AO2
94908KDBQ DBQ20080624004509806/24/08 00:45:31  5-MIN KDBQ 240645Z AUTO 15005KT 10SM CLR 18/13 A3015 870 70 1500 150/05 RMK AO2
94908KDBQ DBQ20080624005011506/24/08 00:50:31  5-MIN KDBQ 240650Z AUTO 16004KT 10SM CLR 18/13 A3015 870 70 1500 160/04 RMK AO2 SLP206 T01830128
94908KDBQ DBQ20080624005509806/24/08 00:55:31  5-MIN KDBQ 240655Z AUTO 00000KT 10SM CLR 17/13 A3015 870 78 1400 000/00 RMK AO2
94908KDBQ DBQ20080624010009806/24/08 01:00:31  5-MIN KDBQ 240700Z AUTO 00000KT 10SM CLR 17/13 A3015 860 78 1400 000/00 RMK AO2
94908KDBQ DBQ20080624010509806/24/08 01:05:31  5-MIN KDBQ 240705Z AUTO 00000KT 10SM CLR 17/13 A3015 860 75 1400 000/00 RMK AO2
94908KDBQ DBQ20080624011009806/24/08 01:10:31  5-MIN KDBQ 240710Z AUTO 16003KT 10SM CLR 17/13 A3015 860 75 1400 160/03 RMK AO2
94908KDBQ DBQ20080624011509806/24/08 01:15:31  5-MIN KDBQ 240715Z AUTO 00000KT 10SM CLR 17/13 A3015 860 78 1400 000/00 RMK AO2
94908KDBQ DBQ20080624012009806/24/08 01:20:31  5-MIN KDBQ 240720Z AUTO 00000KT 10SM CLR 17/13 A3015 870 78 1400 000/00 RMK AO2
94908KDBQ DBQ20080624012509806/24/08 01:25:31  5-MIN KDBQ 240725Z AUTO 00000KT 10SM CLR 17/13 A3015 860 78 1400 000/00 RMK AO2
94908KDBQ DBQ20080624013009806/24/08 01:30:31  5-MIN KDBQ 240730Z AUTO 00000KT 10SM CLR 17/13 A3015 870 78 1400 000/00 RMK AO2
94908KDBQ DBQ20080624013509806/24/08 01:35:31  5-MIN KDBQ 240735Z AUTO 00000KT 10SM CLR 17/13 A3015 860 78 1400 000/00 RMK AO2
94908KDBQ DBQ20080624014009806/24/08 01:40:31  5-MIN KDBQ 240740Z AUTO 16004KT 10SM CLR 17/13 A3015 870 78 1400 160/04 RMK AO2
94908KDBQ DBQ20080624014509806/24/08 01:45:31  5-MIN KDBQ 240745Z AUTO 16005KT 10SM CLR 18/13 A3015 860 72 1400 160/05 RMK AO2
94908KDBQ DBQ20080624015011506/24/08 01:50:31  5-MIN KDBQ 240750Z AUTO 15005KT 10SM CLR 18/13 A3015 870 70 1500 150/05 RMK AO2 SLP205 T01830128
94908KDBQ DBQ20080624015509806/24/08 01:55:31  5-MIN KDBQ 240755Z AUTO 15005KT 10SM CLR 18/13 A3015 860 70 1500 150/05 RMK AO2
94908KDBQ DBQ20080624020009806/24/08 02:00:31  5-MIN KDBQ 240800Z AUTO 15005KT 10SM CLR 18/13 A3015 870 70 1500 150/05 RMK AO2
94908KDBQ DBQ20080624020509806/24/08 02:05:31  5-MIN KDBQ 240805Z AUTO 16005KT 10SM CLR 18/13 A3015 860 70 1500 160/05 RMK AO2
94908KDBQ DBQ20080624021009806/24/08 02:10:31  5-MIN KDBQ 240810Z AUTO 16006KT 10SM CLR 18/13 A3015 860 70 1500 160/06 RMK AO2
94908KDBQ DBQ20080624021509806/24/08 02:15:31  5-MIN KDBQ 240815Z AUTO 17005KT 10SM CLR 18/13 A3015 860 70 1500 170/05 RMK AO2
94908KDBQ DBQ20080624022009806/24/08 02:20:31  5-MIN KDBQ 240820Z AUTO 18004KT 10SM CLR 17/13 A3016 860 78 1400 180/04 RMK AO2
94908KDBQ DBQ20080624022509806/24/08 02:25:31  5-MIN KDBQ 240825Z AUTO 17004KT 10SM CLR 17/13 A3015 860 78 1400 170/04 RMK AO2
94908KDBQ DBQ20080624023009806/24/08 02:30:31  5-MIN KDBQ 240830Z AUTO 16005KT 10SM CLR 18/13 A3015 860 70 1500 160/05 RMK AO2
94908KDBQ DBQ20080624023509806/24/08 02:35:31  5-MIN KDBQ 240835Z AUTO 16006KT 10SM CLR 18/13 A3015 860 70 1500 160/06 RMK AO2
94908KDBQ DBQ20080624024009806/24/08 02:40:31  5-MIN KDBQ 240840Z AUTO 16006KT 10SM CLR 18/13 A3016 860 70 1500 160/06 RMK AO2
94908KDBQ DBQ20080624024509806/24/08 02:45:31  5-MIN KDBQ 240845Z AUTO 17005KT 10SM CLR 18/13 A3015 860 70 1500 170/05 RMK AO2
94908KDBQ DBQ20080624025012106/24/08 02:50:31  5-MIN KDBQ 240850Z AUTO 17005KT 10SM CLR 18/13 A3016 860 70 1500 170/05 RMK AO2 SLP206 T01830128 50002
94908KDBQ DBQ20080624025509806/24/08 02:55:31  5-MIN KDBQ 240855Z AUTO 17006KT 10SM CLR 18/13 A3015 860 70 1500 170/06 RMK AO2
94908KDBQ DBQ20080624030009806/24/08 03:00:31  5-MIN KDBQ 240900Z AUTO 16006KT 10SM CLR 18/13 A3015 860 72 1400 160/06 RMK AO2
94908KDBQ DBQ20080624030509806/24/08 03:05:31  5-MIN KDBQ 240905Z AUTO 17006KT 10SM CLR 18/12 A3016 860 67 1500 170/06 RMK AO2
94908KDBQ DBQ20080624031009806/24/08 03:10:31  5-MIN KDBQ 240910Z AUTO 17005KT 10SM CLR 18/13 A3016 860 72 1400 170/05 RMK AO2
94908KDBQ DBQ20080624031509806/24/08 03:15:31  5-MIN KDBQ 240915Z AUTO 17005KT 10SM CLR 18/13 A3016 860 72 1400 170/05 RMK AO2
94908KDBQ DBQ20080624032009806/24/08 03:20:31  5-MIN KDBQ 240920Z AUTO 17005KT 10SM CLR 18/13 A3015 860 72 1400 170/05 RMK AO2
94908KDBQ DBQ20080624032509806/24/08 03:25:31  5-MIN KDBQ 240925Z AUTO 17004KT 10SM CLR 18/13 A3016 860 72 1400 170/04 RMK AO2
94908KDBQ DBQ20080624033009806/24/08 03:30:31  5-MIN KDBQ 240930Z AUTO 17004KT 10SM CLR 18/13 A3015 860 72 1400 170/04 RMK AO2
94908KDBQ DBQ20080624033509806/24/08 03:35:31  5-MIN KDBQ 240935Z AUTO 17005KT 10SM CLR 18/13 A3015 870 72 1400 170/05 RMK AO2
94908KDBQ DBQ20080624034009806/24/08 03:40:31  5-MIN KDBQ 240940Z AUTO 16007KT 10SM CLR 18/13 A3015 860 72 1400 160/07 RMK AO2
94908KDBQ DBQ20080624034509806/24/08 03:45:31  5-MIN KDBQ 240945Z AUTO 16007KT 10SM CLR 18/13 A3015 870 72 1400 160/07 RMK AO2
94908KDBQ DBQ20080624035011506/24/08 03:50:31  5-MIN KDBQ 240950Z AUTO 16007KT 10SM CLR 18/13 A3015 870 72 1400 160/07 RMK AO2 SLP206 T01780128
94908KDBQ DBQ20080624035509806/24/08 03:55:31  5-MIN KDBQ 240955Z AUTO 16008KT 10SM CLR 18/13 A3015 860 72 1400 160/08 RMK AO2
94908KDBQ DBQ20080624040009806/24/08 04:00:31  5-MIN KDBQ 241000Z AUTO 16007KT 10SM CLR 18/13 A3015 860 72 1400 160/07 RMK AO2
94908KDBQ DBQ20080624040509806/24/08 04:05:31  5-MIN KDBQ 241005Z AUTO 15008KT 10SM CLR 18/13 A3015 870 72 1400 150/08 RMK AO2
94908KDBQ DBQ20080624041009806/24/08 04:10:31  5-MIN KDBQ 241010Z AUTO 15008KT 10SM CLR 18/13 A3015 870 72 1400 150/08 RMK AO2
94908KDBQ DBQ20080624041509806/24/08 04:15:31  5-MIN KDBQ 241015Z AUTO 16008KT 10SM CLR 18/13 A3015 860 72 1400 160/08 RMK AO2
94908KDBQ DBQ20080624042009806/24/08 04:20:31  5-MIN KDBQ 241020Z AUTO 16008KT 10SM CLR 18/13 A3016 860 72 1400 160/08 RMK AO2
94908KDBQ DBQ20080624042509806/24/08 04:25:31  5-MIN KDBQ 241025Z AUTO 16007KT 10SM CLR 17/13 A3016 860 75 1400 160/07 RMK AO2
94908KDBQ DBQ20080624043009806/24/08 04:30:31  5-MIN KDBQ 241030Z AUTO 16007KT 10SM CLR 17/13 A3016 860 75 1400 160/07 RMK AO2
94908KDBQ DBQ20080624043509806/24/08 04:35:31  5-MIN KDBQ 241035Z AUTO 17007KT 10SM CLR 17/13 A3016 860 75 1400 160/07 RMK AO2
94908KDBQ DBQ20080624044009806/24/08 04:40:31  5-MIN KDBQ 241040Z AUTO 17007KT 10SM CLR 17/13 A3016 850 75 1400 170/07 RMK AO2
94908KDBQ DBQ20080624044509806/24/08 04:45:31  5-MIN KDBQ 241045Z AUTO 16008KT 10SM CLR 17/13 A3016 860 75 1400 160/08 RMK AO2
94908KDBQ DBQ20080624045011006/24/08 04:50:31  5-MIN KDBQ 241050Z 17007KT 10SM CLR 17/13 A3017 850 75 1300 160/07 RMK AO2 SLP211 T01720128
94908KDBQ DBQ20080624045509306/24/08 04:55:31  5-MIN KDBQ 241055Z 16006KT 10SM CLR 17/13 A3017 850 78 1300 160/06 RMK AO2
94908KDBQ DBQ20080624050009306/24/08 05:00:31  5-MIN KDBQ 241100Z 17007KT 10SM CLR 17/13 A3017 850 78 1300 160/07 RMK AO2
94908KDBQ DBQ20080624050509306/24/08 05:05:31  5-MIN KDBQ 241105Z 16006KT 10SM CLR 17/13 A3017 850 78 1300 160/06 RMK AO2
94908KDBQ DBQ20080624051009306/24/08 05:10:31  5-MIN KDBQ 241110Z 16006KT 10SM CLR 17/13 A3017 850 78 1300 160/06 RMK AO2
94908KDBQ DBQ20080624051509306/24/08 05:15:31  5-MIN KDBQ 241115Z 17007KT 10SM CLR 17/13 A3017 850 78 1300 170/07 RMK AO2
94908KDBQ DBQ20080624052009306/24/08 05:20:31  5-MIN KDBQ 241120Z 18006KT 10SM CLR 17/13 A3018 840 78 1300 180/06 RMK AO2
94908KDBQ DBQ20080624052509306/24/08 05:25:31  5-MIN KDBQ 241125Z 20005KT 10SM CLR 17/13 A3018 840 78 1300 200/05 RMK AO2
94908KDBQ DBQ20080624053009306/24/08 05:30:31  5-MIN KDBQ 241130Z 20005KT 10SM CLR 17/14 A3018 840 80 1300 200/05 RMK AO2
94908KDBQ DBQ20080624053509306/24/08 05:35:31  5-MIN KDBQ 241135Z 20005KT 10SM CLR 17/14 A3018 840 80 1300 200/05 RMK AO2
94908KDBQ DBQ20080624054009306/24/08 05:40:31  5-MIN KDBQ 241140Z 18004KT 10SM CLR 17/14 A3018 840 80 1300 180/04 RMK AO2
94908KDBQ DBQ20080624054509306/24/08 05:45:31  5-MIN KDBQ 241145Z 19004KT 10SM CLR 17/14 A3018 840 80 1300 190/04 RMK AO2
94908KDBQ DBQ20080624055012806/24/08 05:50:31  5-MIN KDBQ 241150Z 18005KT 10SM CLR 17/14 A3017 840 80 1300 180/05 RMK AO2 SLP213 T01720139 10183 20167 51004
94908KDBQ DBQ20080624055509606/24/08 05:55:31  5-MIN KDBQ 241155Z 18005KT 10SM FEW110 17/14 A3017 840 80 1300 180/05 RMK AO2
94908KDBQ DBQ20080624060009606/24/08 06:00:31  5-MIN KDBQ 241200Z 18005KT 10SM FEW110 17/14 A3018 840 80 1300 170/05 RMK AO2
94908KDBQ DBQ20080624060509606/24/08 06:05:31  5-MIN KDBQ 241205Z 17006KT 10SM FEW110 17/13 A3017 850 78 1300 170/06 RMK AO2
94908KDBQ DBQ20080624061009306/24/08 06:10:31  5-MIN KDBQ 241210Z 17004KT 10SM CLR 17/13 A3017 850 78 1300 170/04 RMK AO2
94908KDBQ DBQ20080624061509306/24/08 06:15:31  5-MIN KDBQ 241215Z 17005KT 10SM CLR 17/13 A3018 840 78 1300 170/05 RMK AO2
94908KDBQ DBQ20080624062009306/24/08 06:20:31  5-MIN KDBQ 241220Z 18003KT 10SM CLR 18/14 A3018 840 78 1400 180/03 RMK AO2
94908KDBQ DBQ20080624062509306/24/08 06:25:31  5-MIN KDBQ 241225Z 19003KT 10SM CLR 18/14 A3018 840 78 1400 190/03 RMK AO2
94908KDBQ DBQ20080624063009306/24/08 06:30:31  5-MIN KDBQ 241230Z 19003KT 10SM CLR 18/14 A3018 840 75 1500 190/03 RMK AO2
94908KDBQ DBQ20080624063509306/24/08 06:35:31  5-MIN KDBQ 241235Z 17006KT 10SM CLR 19/14 A3018 840 72 1500 170/06 RMK AO2
94908KDBQ DBQ20080624064009306/24/08 06:40:31  5-MIN KDBQ 241240Z 18007KT 10SM CLR 19/14 A3018 840 72 1600 180/07 RMK AO2
94908KDBQ DBQ20080624064509306/24/08 06:45:31  5-MIN KDBQ 241245Z 18007KT 10SM CLR 19/14 A3018 840 72 1500 180/07 RMK AO2
94908KDBQ DBQ20080624065011006/24/08 06:50:31  5-MIN KDBQ 241250Z 18006KT 10SM CLR 19/14 A3018 840 72 1500 180/06 RMK AO2 SLP216 T01890139
94908KDBQ DBQ20080624065509306/24/08 06:55:31  5-MIN KDBQ 241255Z 18006KT 10SM CLR 19/14 A3018 840 72 1500 180/06 RMK AO2
94908KDBQ DBQ20080624070009306/24/08 07:00:31  5-MIN KDBQ 241300Z 18005KT 10SM CLR 19/14 A3018 840 70 1600 180/05 RMK AO2
94908KDBQ DBQ20080624070509306/24/08 07:05:31  5-MIN KDBQ 241305Z 18007KT 10SM CLR 19/14 A3018 840 70 1600 180/07 RMK AO2
94908KDBQ DBQ20080624071009306/24/08 07:10:31  5-MIN KDBQ 241310Z 18007KT 10SM CLR 20/14 A3018 840 67 1700 180/07 RMK AO2
94908KDBQ DBQ20080624071509306/24/08 07:15:31  5-MIN KDBQ 241315Z 17008KT 10SM CLR 20/14 A3018 840 67 1700 170/08 RMK AO2
94908KDBQ DBQ20080624072009306/24/08 07:20:31  5-MIN KDBQ 241320Z 19007KT 10SM CLR 21/14 A3018 840 65 1700 180/07 RMK AO2
94908KDBQ DBQ20080624072509306/24/08 07:25:31  5-MIN KDBQ 241325Z 18007KT 10SM CLR 21/14 A3019 830 65 1700 180/07 RMK AO2
94908KDBQ DBQ20080624073009306/24/08 07:30:31  5-MIN KDBQ 241330Z 18008KT 10SM CLR 21/14 A3019 830 65 1700 180/08 RMK AO2
94908KDBQ DBQ20080624073509306/24/08 07:35:31  5-MIN KDBQ 241335Z 17007KT 10SM CLR 21/14 A3018 830 65 1700 170/07 RMK AO2
94908KDBQ DBQ20080624074009306/24/08 07:40:31  5-MIN KDBQ 241340Z 17007KT 10SM CLR 21/14 A3019 830 63 1800 170/07 RMK AO2
94908KDBQ DBQ20080624074509306/24/08 07:45:31  5-MIN KDBQ 241345Z 17007KT 10SM CLR 21/14 A3019 830 63 1800 170/07 RMK AO2
94908KDBQ DBQ20080624075011006/24/08 07:50:31  5-MIN KDBQ 241350Z 17007KT 10SM CLR 21/14 A3019 830 63 1800 170/07 RMK AO2 SLP218 T02110139
94908KDBQ DBQ20080624075509306/24/08 07:55:31  5-MIN KDBQ 241355Z 17007KT 10SM CLR 22/14 A3019 830 63 1800 170/07 RMK AO2
94908KDBQ DBQ20080624080009306/24/08 08:00:31  5-MIN KDBQ 241400Z 17005KT 10SM CLR 22/14 A3019 830 63 1800 170/05 RMK AO2
94908KDBQ DBQ20080624080509306/24/08 08:05:31  5-MIN KDBQ 241405Z 18006KT 10SM CLR 22/14 A3019 830 63 1800 170/06 RMK AO2
94908KDBQ DBQ20080624081009306/24/08 08:10:31  5-MIN KDBQ 241410Z 18008KT 10SM CLR 22/14 A3019 830 61 1900 180/08 RMK AO2
94908KDBQ DBQ20080624081509306/24/08 08:15:31  5-MIN KDBQ 241415Z 17008KT 10SM CLR 22/14 A3019 830 63 1800 170/08 RMK AO2
94908KDBQ DBQ20080624082009306/24/08 08:20:31  5-MIN KDBQ 241420Z 18007KT 10SM CLR 23/14 A3020 820 59 2000 180/07 RMK AO2
94908KDBQ DBQ20080624082509606/24/08 08:25:31  5-MIN KDBQ 241425Z 20008KT 10SM FEW070 23/14 A3020 820 59 2000 190/08 RMK AO2
94908KDBQ DBQ20080624083009606/24/08 08:30:31  5-MIN KDBQ 241430Z 19008KT 10SM FEW070 22/14 A3019 830 59 1900 190/08 RMK AO2
94908KDBQ DBQ20080624083509606/24/08 08:35:31  5-MIN KDBQ 241435Z 19009KT 10SM SCT070 22/14 A3020 830 59 1900 190/09 RMK AO2
94908KDBQ DBQ20080624084009606/24/08 08:40:31  5-MIN KDBQ 241440Z 18008KT 10SM FEW070 22/14 A3020 820 61 1900 180/08 RMK AO2
94908KDBQ DBQ20080624084509606/24/08 08:45:31  5-MIN KDBQ 241445Z 20008KT 10SM FEW070 22/14 A3020 820 61 1900 200/08 RMK AO2
94908KDBQ DBQ20080624085011906/24/08 08:50:31  5-MIN KDBQ 241450Z 19009KT 10SM FEW070 22/14 A3019 830 61 1900 190/09 RMK AO2 SLP220 T02220144 53005
94908KDBQ DBQ20080624085509606/24/08 08:55:31  5-MIN KDBQ 241455Z 20008KT 10SM FEW070 23/14 A3019 830 59 2000 200/08 RMK AO2
94908KDBQ DBQ20080624090009606/24/08 09:00:31  5-MIN KDBQ 241500Z 19007KT 10SM FEW070 23/14 A3019 830 59 2000 180/07 RMK AO2
94908KDBQ DBQ20080624090509306/24/08 09:05:31  5-MIN KDBQ 241505Z 18007KT 10SM CLR 23/14 A3019 830 59 2000 180/07 RMK AO2
94908KDBQ DBQ20080624091009306/24/08 09:10:31  5-MIN KDBQ 241510Z 20007KT 10SM CLR 23/15 A3019 830 59 2000 200/07 RMK AO2
94908KDBQ DBQ20080624091509306/24/08 09:15:31  5-MIN KDBQ 241515Z 21010KT 10SM CLR 23/15 A3019 830 59 2000 210/10 RMK AO2
94908KDBQ DBQ20080624092009306/24/08 09:20:31  5-MIN KDBQ 241520Z 21008KT 10SM CLR 23/14 A3019 830 57 2000 210/08 RMK AO2
94908KDBQ DBQ20080624092509306/24/08 09:25:31  5-MIN KDBQ 241525Z 20009KT 10SM CLR 23/14 A3019 830 57 2000 200/09 RMK AO2
94908KDBQ DBQ20080624093009306/24/08 09:30:31  5-MIN KDBQ 241530Z 21010KT 10SM CLR 23/14 A3019 830 57 2000 210/10 RMK AO2
94908KDBQ DBQ20080624093509306/24/08 09:35:31  5-MIN KDBQ 241535Z 21009KT 10SM CLR 23/15 A3019 830 59 2000 210/09 RMK AO2
94908KDBQ DBQ20080624094009306/24/08 09:40:31  5-MIN KDBQ 241540Z 19009KT 10SM CLR 24/15 A3019 830 57 2100 190/09 RMK AO2
94908KDBQ DBQ20080624094509306/24/08 09:45:31  5-MIN KDBQ 241545Z 18006KT 10SM CLR 24/15 A3019 830 57 2100 180/06 RMK AO2
94908KDBQ DBQ20080624095011006/24/08 09:50:31  5-MIN KDBQ 241550Z 19009KT 10SM CLR 24/16 A3019 830 59 2100 190/09 RMK AO2 SLP219 T02390156
94908KDBQ DBQ20080624095509606/24/08 09:55:31  5-MIN KDBQ 241555Z 22008KT 10SM FEW100 24/16 A3019 830 59 2100 220/08 RMK AO2
94908KDBQ DBQ20080624100009306/24/08 10:00:31  5-MIN KDBQ 241600Z 22008KT 10SM CLR 24/15 A3019 830 57 2100 220/08 RMK AO2
94908KDBQ DBQ20080624100509306/24/08 10:05:31  5-MIN KDBQ 241605Z 19008KT 10SM CLR 24/16 A3019 830 57 2200 190/08 RMK AO2
94908KDBQ DBQ20080624101009306/24/08 10:10:31  5-MIN KDBQ 241610Z 18006KT 10SM CLR 24/16 A3019 830 59 2100 180/06 RMK AO2
94908KDBQ DBQ20080624101509306/24/08 10:15:31  5-MIN KDBQ 241615Z 21008KT 10SM CLR 24/16 A3019 830 57 2200 200/08 RMK AO2
94908KDBQ DBQ20080624102009306/24/08 10:20:31  5-MIN KDBQ 241620Z 19008KT 10SM CLR 24/16 A3019 830 57 2200 180/08 RMK AO2
94908KDBQ DBQ20080624102509306/24/08 10:25:31  5-MIN KDBQ 241625Z 21009KT 10SM CLR 24/16 A3018 830 57 2200 210/09 RMK AO2
94908KDBQ DBQ20080624103009306/24/08 10:30:31  5-MIN KDBQ 241630Z 19010KT 10SM CLR 24/15 A3018 830 55 2200 190/10 RMK AO2
94908KDBQ DBQ20080624103509306/24/08 10:35:31  5-MIN KDBQ 241635Z 20011KT 10SM CLR 25/15 A3018 840 53 2200 200/11 RMK AO2
94908KDBQ DBQ20080624104009306/24/08 10:40:31  5-MIN KDBQ 241640Z 19009KT 10SM CLR 25/15 A3018 840 53 2200 190/09 RMK AO2
94908KDBQ DBQ20080624104509306/24/08 10:45:31  5-MIN KDBQ 241645Z 22008KT 10SM CLR 25/15 A3018 840 53 2200 220/08 RMK AO2
94908KDBQ DBQ20080624105011006/24/08 10:50:31  5-MIN KDBQ 241650Z 20006KT 10SM CLR 25/15 A3017 840 53 2200 200/06 RMK AO2 SLP214 T02500150
94908KDBQ DBQ20080624105509306/24/08 10:55:31  5-MIN KDBQ 241655Z 21009KT 10SM CLR 25/15 A3018 840 53 2200 210/09 RMK AO2
94908KDBQ DBQ20080624110009306/24/08 11:00:31  5-MIN KDBQ 241700Z 20008KT 10SM CLR 25/15 A3018 840 53 2200 200/08 RMK AO2
94908KDBQ DBQ20080624110510906/24/08 11:05:31  5-MIN KDBQ 241705Z 20008KT 180V240 10SM CLR 25/15 A3018 840 53 2200 200/08 180V240 RMK AO2
94908KDBQ DBQ20080624111009306/24/08 11:10:31  5-MIN KDBQ 241710Z 20009KT 10SM CLR 26/15 A3017 850 51 2300 200/09 RMK AO2
94908KDBQ DBQ20080624111509306/24/08 11:15:31  5-MIN KDBQ 241715Z 20009KT 10SM CLR 26/15 A3017 850 51 2300 200/09 RMK AO2
94908KDBQ DBQ20080624112009306/24/08 11:20:31  5-MIN KDBQ 241720Z 19008KT 10SM CLR 26/15 A3017 850 51 2300 190/08 RMK AO2
94908KDBQ DBQ20080624112509306/24/08 11:25:31  5-MIN KDBQ 241725Z 19006KT 10SM CLR 26/15 A3017 850 51 2300 190/06 RMK AO2
94908KDBQ DBQ20080624113009906/24/08 11:30:31  5-MIN KDBQ 241730Z 20007G14KT 10SM CLR 26/14 A3017 850 49 2300 190/07G14 RMK AO2
94908KDBQ DBQ20080624113509306/24/08 11:35:31  5-MIN KDBQ 241735Z 21009KT 10SM CLR 26/14 A3016 860 49 2300 210/09 RMK AO2
94908KDBQ DBQ20080624114009306/24/08 11:40:31  5-MIN KDBQ 241740Z 19009KT 10SM CLR 26/14 A3016 850 49 2300 190/09 RMK AO2
94908KDBQ DBQ20080624114509306/24/08 11:45:31  5-MIN KDBQ 241745Z 21009KT 10SM CLR 26/14 A3016 850 49 2300 200/09 RMK AO2
94908KDBQ DBQ20080624115013106/24/08 11:50:31  5-MIN KDBQ 241750Z 22009KT 10SM FEW049 26/14 A3016 860 49 2300 220/09 RMK AO2 SLP209 T02560144 10261 20172 51006
94908KDBQ DBQ20080624115509606/24/08 11:55:31  5-MIN KDBQ 241755Z 22011KT 10SM FEW049 26/13 A3016 860 44 2400 220/11 RMK AO2
94908KDBQ DBQ20080624120009606/24/08 12:00:31  5-MIN KDBQ 241800Z 19011KT 10SM FEW049 26/13 A3016 860 44 2400 190/11 RMK AO2
94908KDBQ DBQ20080624120510206/24/08 12:05:31  5-MIN KDBQ 241805Z 20010G15KT 10SM FEW049 26/13 A3016 860 44 2400 200/10G15 RMK AO2
94908KDBQ DBQ20080624121009606/24/08 12:10:31  5-MIN KDBQ 241810Z 20012KT 10SM FEW049 26/14 A3015 860 46 2400 200/12 RMK AO2
94908KDBQ DBQ20080624121509606/24/08 12:15:31  5-MIN KDBQ 241815Z 20008KT 10SM FEW049 26/14 A3015 860 46 2400 200/08 RMK AO2
94908KDBQ DBQ20080624122009606/24/08 12:20:31  5-MIN KDBQ 241820Z 17008KT 10SM FEW049 26/14 A3015 870 46 2400 170/08 RMK AO2
94908KDBQ DBQ20080624122510306/24/08 12:25:31  5-MIN KDBQ 241825Z 19009KT 10SM FEW049 SCT080 26/14 A3015 870 49 2300 190/09 RMK AO2
94908KDBQ DBQ20080624123010306/24/08 12:30:31  5-MIN KDBQ 241830Z 19008KT 10SM FEW049 SCT080 26/13 A3015 870 44 2400 190/08 RMK AO2
94908KDBQ DBQ20080624123510306/24/08 12:35:31  5-MIN KDBQ 241835Z 18007KT 10SM FEW049 SCT080 26/13 A3015 870 43 2400 170/07 RMK AO2
94908KDBQ DBQ20080624124010306/24/08 12:40:31  5-MIN KDBQ 241840Z 17007KT 10SM FEW055 SCT080 26/14 A3014 870 46 2400 170/07 RMK AO2
94908KDBQ DBQ20080624124510306/24/08 12:45:31  5-MIN KDBQ 241845Z 17011KT 10SM FEW060 BKN080 26/13 A3014 870 44 2400 170/11 RMK AO2
94908KDBQ DBQ20080624125012006/24/08 12:50:31  5-MIN KDBQ 241850Z 17007KT 10SM FEW060 SCT080 26/13 A3014 870 44 2400 170/07 RMK AO2 SLP202 T02610133
94908KDBQ DBQ20080624125511806/24/08 12:55:31  5-MIN KDBQ 241855Z 21010G17KT 160V230 10SM FEW060 26/13 A3014 880 43 2400 210/10G17 160V230 RMK AO2
94908KDBQ DBQ20080624130010206/24/08 13:00:31  5-MIN KDBQ 241900Z 23008G17KT 10SM FEW060 26/13 A3014 880 44 2400 220/08G17 RMK AO2
94908KDBQ DBQ20080624130510906/24/08 13:05:31  5-MIN KDBQ 241905Z 18009G17KT 10SM FEW060 SCT100 26/13 A3014 880 44 2400 180/09G17 RMK AO2
94908KDBQ DBQ20080624131010206/24/08 13:10:31  5-MIN KDBQ 241910Z 19010G15KT 10SM SCT055 27/13 A3014 880 43 2500 190/10G15 RMK AO2
94908KDBQ DBQ20080624131510206/24/08 13:15:31  5-MIN KDBQ 241915Z 19010G16KT 10SM FEW055 26/13 A3013 880 43 2400 190/10G16 RMK AO2
94908KDBQ DBQ20080624132010206/24/08 13:20:31  5-MIN KDBQ 241920Z 20008G16KT 10SM FEW055 26/13 A3014 880 43 2400 200/08G16 RMK AO2
94908KDBQ DBQ20080624132509606/24/08 13:25:31  5-MIN KDBQ 241925Z 16010KT 10SM FEW055 26/13 A3013 880 43 2400 160/10 RMK AO2
94908KDBQ DBQ20080624133009606/24/08 13:30:31  5-MIN KDBQ 241930Z 17006KT 10SM SCT060 26/12 A3013 890 43 2300 160/06 RMK AO2
94908KDBQ DBQ20080624133509606/24/08 13:35:31  5-MIN KDBQ 241935Z 20009KT 10SM FEW060 27/13 A3013 890 41 2500 200/09 RMK AO2
94908KDBQ DBQ20080624134009606/24/08 13:40:31  5-MIN KDBQ 241940Z 22007KT 10SM FEW060 27/12 A3012 890 40 2500 220/07 RMK AO2
94908KDBQ DBQ20080624134509606/24/08 13:45:31  5-MIN KDBQ 241945Z 20008KT 10SM FEW060 27/12 A3012 890 38 2500 200/08 RMK AO2
94908KDBQ DBQ20080624135011306/24/08 13:50:31  5-MIN KDBQ 241950Z 17007KT 10SM FEW060 27/12 A3012 890 40 2500 170/07 RMK AO2 SLP195 T02670122
94908KDBQ DBQ20080624135509606/24/08 13:55:31  5-MIN KDBQ 241955Z 16006KT 10SM FEW060 27/12 A3012 890 38 2500 160/06 RMK AO2
94908KDBQ DBQ20080624140009306/24/08 14:00:31  5-MIN KDBQ 242000Z 16010KT 10SM CLR 27/12 A3012 890 39 2500 160/10 RMK AO2
94908KDBQ DBQ20080624140509306/24/08 14:05:31  5-MIN KDBQ 242005Z 14007KT 10SM CLR 27/12 A3012 890 39 2500 140/07 RMK AO2
94908KDBQ DBQ20080624141009306/24/08 14:10:31  5-MIN KDBQ 242010Z 16007KT 10SM CLR 27/12 A3012 890 39 2500 160/07 RMK AO2
94908KDBQ DBQ20080624141510906/24/08 14:15:31  5-MIN KDBQ 242015Z 22007KT 160V250 10SM CLR 27/13 A3012 900 40 2500 220/07 160V250 RMK AO2
94908KDBQ DBQ20080624142009306/24/08 14:20:31  5-MIN KDBQ 242020Z 23008KT 10SM CLR 27/13 A3012 900 40 2500 230/08 RMK AO2
94908KDBQ DBQ20080624142509306/24/08 14:25:31  5-MIN KDBQ 242025Z VRB06KT 10SM CLR 27/13 A3011 900 40 2500 VRB/06 RMK AO2
94908KDBQ DBQ20080624143009306/24/08 14:30:31  5-MIN KDBQ 242030Z 16011KT 10SM CLR 27/13 A3011 900 40 2600 160/11 RMK AO2
94908KDBQ DBQ20080624143509906/24/08 14:35:31  5-MIN KDBQ 242035Z VRB05G14KT 10SM CLR 28/13 A3012 900 39 2600 VRB/05G14 RMK AO2
94908KDBQ DBQ20080624144009306/24/08 14:40:31  5-MIN KDBQ 242040Z 19008KT 10SM CLR 27/13 A3011 900 41 2500 190/08 RMK AO2
94908KDBQ DBQ20080624144509306/24/08 14:45:31  5-MIN KDBQ 242045Z 17009KT 10SM CLR 27/13 A3011 900 41 2500 170/09 RMK AO2
94908KDBQ DBQ20080624145011606/24/08 14:50:31  5-MIN KDBQ 242050Z 15007KT 10SM CLR 27/13 A3012 900 41 2500 150/07 RMK AO2 SLP193 T02670128 58010
94908KDBQ DBQ20080624145509306/24/08 14:55:31  5-MIN KDBQ 242055Z 18007KT 10SM CLR 27/12 A3012 900 40 2500 180/07 RMK AO2
94908KDBQ DBQ20080624150009306/24/08 15:00:31  5-MIN KDBQ 242100Z 16009KT 10SM CLR 27/13 A3012 900 42 2500 160/09 RMK AO2
94908KDBQ DBQ20080624150509906/24/08 15:05:31  5-MIN KDBQ 242105Z 17007G14KT 10SM CLR 27/13 A3012 900 41 2500 170/07G14 RMK AO2
94908KDBQ DBQ20080624151009306/24/08 15:10:31  5-MIN KDBQ 242110Z 16007KT 10SM CLR 27/13 A3011 900 41 2500 160/07 RMK AO2
94908KDBQ DBQ20080624151509906/24/08 15:15:31  5-MIN KDBQ 242115Z 17009G16KT 10SM CLR 27/13 A3011 900 40 2500 170/09G16 RMK AO2
94908KDBQ DBQ20080624152009906/24/08 15:20:31  5-MIN KDBQ 242120Z 19010G16KT 10SM CLR 27/13 A3011 900 40 2500 190/10G16 RMK AO2
94908KDBQ DBQ20080624152509906/24/08 15:25:31  5-MIN KDBQ 242125Z 19010G17KT 10SM CLR 27/13 A3011 900 42 2500 190/10G17 RMK AO2
94908KDBQ DBQ20080624153009306/24/08 15:30:31  5-MIN KDBQ 242130Z 19010KT 10SM CLR 27/13 A3012 900 42 2500 190/10 RMK AO2
94908KDBQ DBQ20080624153510206/24/08 15:35:31  5-MIN KDBQ 242135Z 17010G17KT 10SM FEW060 27/13 A3012 900 43 2500 170/10G17 RMK AO2
94908KDBQ DBQ20080624154009606/24/08 15:40:31  5-MIN KDBQ 242140Z 19009KT 10SM SCT060 27/14 A3011 900 45 2500 190/09 RMK AO2
94908KDBQ DBQ20080624154509606/24/08 15:45:31  5-MIN KDBQ 242145Z 18008KT 10SM FEW060 27/14 A3011 900 45 2500 180/08 RMK AO2
94908KDBQ DBQ20080624155011906/24/08 15:50:31  5-MIN KDBQ 242150Z 21013G17KT 10SM FEW060 27/14 A3011 900 45 2500 210/13G17 RMK AO2 SLP191 T02670139
94908KDBQ DBQ20080624155509606/24/08 15:55:31  5-MIN KDBQ 242155Z 20013KT 10SM FEW060 27/14 A3011 900 46 2500 190/13 RMK AO2
94908KDBQ DBQ20080624160009606/24/08 16:00:31  5-MIN KDBQ 242200Z 19013KT 10SM FEW060 27/14 A3011 900 45 2500 190/13 RMK AO2
94908KDBQ DBQ20080624160509606/24/08 16:05:31  5-MIN KDBQ 242205Z 20014KT 10SM FEW060 26/14 A3011 910 46 2400 200/14 RMK AO2
94908KDBQ DBQ20080624161009906/24/08 16:10:31  5-MIN KDBQ 242210Z 19013G18KT 10SM CLR 26/14 A3011 910 46 2400 190/13G18 RMK AO2
94908KDBQ DBQ20080624161509906/24/08 16:15:31  5-MIN KDBQ 242215Z 19009G18KT 10SM CLR 27/14 A3011 910 45 2500 180/09G18 RMK AO2
94908KDBQ DBQ20080624162009906/24/08 16:20:31  5-MIN KDBQ 242220Z 18011G17KT 10SM CLR 27/13 A3010 910 43 2500 180/11G17 RMK AO2
94908KDBQ DBQ20080624162509306/24/08 16:25:31  5-MIN KDBQ 242225Z 18011KT 10SM CLR 26/13 A3010 910 44 2400 180/11 RMK AO2
94908KDBQ DBQ20080624163009306/24/08 16:30:31  5-MIN KDBQ 242230Z 20011KT 10SM CLR 26/13 A3010 910 44 2400 200/11 RMK AO2
94908KDBQ DBQ20080624163509306/24/08 16:35:31  5-MIN KDBQ 242235Z 19011KT 10SM CLR 27/14 A3010 910 45 2500 190/11 RMK AO2
94908KDBQ DBQ20080624164009306/24/08 16:40:31  5-MIN KDBQ 242240Z 20011KT 10SM CLR 27/14 A3010 910 45 2500 200/11 RMK AO2
94908KDBQ DBQ20080624164509306/24/08 16:45:31  5-MIN KDBQ 242245Z 20011KT 10SM CLR 26/14 A3010 920 48 2400 200/11 RMK AO2
94908KDBQ DBQ20080624165011006/24/08 16:50:31  5-MIN KDBQ 242250Z 20011KT 10SM CLR 26/14 A3009 920 46 2400 200/11 RMK AO2 SLP185 T02610139
94908KDBQ DBQ20080624165509306/24/08 16:55:31  5-MIN KDBQ 242255Z 20010KT 10SM CLR 26/14 A3009 920 46 2400 200/10 RMK AO2
94908KDBQ DBQ20080624170009306/24/08 17:00:31  5-MIN KDBQ 242300Z 19010KT 10SM CLR 26/14 A3009 920 48 2400 190/10 RMK AO2
94908KDBQ DBQ20080624170509306/24/08 17:05:31  5-MIN KDBQ 242305Z 18011KT 10SM CLR 26/14 A3009 920 48 2500 180/11 RMK AO2
94908KDBQ DBQ20080624171009306/24/08 17:10:31  5-MIN KDBQ 242310Z 18009KT 10SM CLR 26/14 A3009 920 46 2500 180/09 RMK AO2
94908KDBQ DBQ20080624171509306/24/08 17:15:31  5-MIN KDBQ 242315Z 17009KT 10SM CLR 26/14 A3009 920 49 2400 170/09 RMK AO2
94908KDBQ DBQ20080624172009306/24/08 17:20:31  5-MIN KDBQ 242320Z 17009KT 10SM CLR 26/14 A3009 920 48 2400 170/09 RMK AO2
94908KDBQ DBQ20080624172509306/24/08 17:25:31  5-MIN KDBQ 242325Z 17010KT 10SM CLR 26/14 A3009 920 49 2400 170/10 RMK AO2
94908KDBQ DBQ20080624173009306/24/08 17:30:31  5-MIN KDBQ 242330Z 19011KT 10SM CLR 26/14 A3009 930 48 2500 180/11 RMK AO2
94908KDBQ DBQ20080624173509306/24/08 17:35:31  5-MIN KDBQ 242335Z 18009KT 10SM CLR 26/14 A3008 930 48 2500 180/09 RMK AO2
94908KDBQ DBQ20080624174009906/24/08 17:40:31  5-MIN KDBQ 242340Z 17010G15KT 10SM CLR 26/14 A3008 930 48 2500 170/10G15 RMK AO2
94908KDBQ DBQ20080624174509906/24/08 17:45:31  5-MIN KDBQ 242345Z 17009G15KT 10SM CLR 26/14 A3008 930 48 2500 170/09G15 RMK AO2
94908KDBQ DBQ20080624175012806/24/08 17:50:31  5-MIN KDBQ 242350Z 18010KT 10SM CLR 26/14 A3008 930 46 2500 180/10 RMK AO2 SLP181 T02610139 10278 20256 56015
94908KDBQ DBQ20080624175509306/24/08 17:55:31  5-MIN KDBQ 242355Z 17009KT 10SM CLR 26/14 A3008 930 48 2500 160/09 RMK AO2
94908KDBQ DBQ20080624180009306/24/08 18:00:31  5-MIN KDBQ 250000Z 18009KT 10SM CLR 26/14 A3008 930 46 2500 180/09 RMK AO2
94908KDBQ DBQ20080624180509306/24/08 18:05:31  5-MIN KDBQ 250005Z 18008KT 10SM CLR 26/14 A3008 930 48 2500 180/08 RMK AO2
94908KDBQ DBQ20080624181009306/24/08 18:10:31  5-MIN KDBQ 250010Z 19011KT 10SM CLR 26/14 A3008 930 49 2400 190/11 RMK AO2
94908KDBQ DBQ20080624181509306/24/08 18:15:31  5-MIN KDBQ 250015Z 20011KT 10SM CLR 26/14 A3008 930 49 2400 200/11 RMK AO2
94908KDBQ DBQ20080624182009606/24/08 18:20:31  5-MIN KDBQ 250020Z 20010KT 10SM FEW065 26/14 A3008 930 49 2400 200/10 RMK AO2
94908KDBQ DBQ20080624182509606/24/08 18:25:31  5-MIN KDBQ 250025Z 19009KT 10SM SCT065 26/14 A3008 930 49 2400 190/09 RMK AO2
94908KDBQ DBQ20080624183009606/24/08 18:30:31  5-MIN KDBQ 250030Z 19009KT 10SM SCT060 25/14 A3008 930 51 2300 180/09 RMK AO2
94908KDBQ DBQ20080624183509606/24/08 18:35:31  5-MIN KDBQ 250035Z 18008KT 10SM SCT060 25/14 A3008 930 49 2300 180/08 RMK AO2
94908KDBQ DBQ20080624184009606/24/08 18:40:31  5-MIN KDBQ 250040Z 18005KT 10SM SCT065 25/14 A3008 930 51 2300 180/05 RMK AO2
94908KDBQ DBQ20080624184509606/24/08 18:45:31  5-MIN KDBQ 250045Z 18007KT 10SM SCT065 25/14 A3008 930 51 2300 180/07 RMK AO2
94908KDBQ DBQ20080624185011306/24/08 18:50:31  5-MIN KDBQ 250050Z 18006KT 10SM FEW060 25/14 A3008 930 51 2300 180/06 RMK AO2 SLP180 T02500144
94908KDBQ DBQ20080624185509606/24/08 18:55:31  5-MIN KDBQ 250055Z 18006KT 10SM FEW060 24/14 A3008 930 53 2300 180/06 RMK AO2
94908KDBQ DBQ20080624190010306/24/08 19:00:31  5-MIN KDBQ 250100Z AUTO 18005KT 10SM CLR 24/14 A3008 930 53 2300 180/05 RMK AO2 TSNO
94908KDBQ DBQ20080624190510306/24/08 19:05:31  5-MIN KDBQ 250105Z AUTO 17005KT 10SM CLR 24/15 A3008 930 57 2200 170/05 RMK AO2 TSNO
94908KDBQ DBQ20080624191010306/24/08 19:10:31  5-MIN KDBQ 250110Z AUTO 17005KT 10SM CLR 24/14 A3008 930 55 2200 170/05 RMK AO2 TSNO
94908KDBQ DBQ20080624191510306/24/08 19:15:31  5-MIN KDBQ 250115Z AUTO 17006KT 10SM CLR 24/14 A3008 930 55 2200 170/06 RMK AO2 TSNO
94908KDBQ DBQ20080624192010306/24/08 19:20:31  5-MIN KDBQ 250120Z AUTO 17005KT 10SM CLR 24/14 A3008 940 55 2200 170/05 RMK AO2 TSNO
94908KDBQ DBQ20080624192510306/24/08 19:25:31  5-MIN KDBQ 250125Z AUTO 17005KT 10SM CLR 23/15 A3008 940 59 2200 170/05 RMK AO2 TSNO
94908KDBQ DBQ20080624193010306/24/08 19:30:31  5-MIN KDBQ 250130Z AUTO 18005KT 10SM CLR 23/15 A3008 930 59 2200 180/05 RMK AO2 TSNO
94908KDBQ DBQ20080624193510306/24/08 19:35:31  5-MIN KDBQ 250135Z AUTO 17006KT 10SM CLR 23/15 A3008 930 61 2100 170/06 RMK AO2 TSNO
94908KDBQ DBQ20080624194010306/24/08 19:40:31  5-MIN KDBQ 250140Z AUTO 17006KT 10SM CLR 23/15 A3008 930 59 2200 170/06 RMK AO2 TSNO
94908KDBQ DBQ20080624194510306/24/08 19:45:31  5-MIN KDBQ 250145Z AUTO 18006KT 10SM CLR 23/15 A3008 930 61 2100 180/06 RMK AO2 TSNO
94908KDBQ DBQ20080624195012006/24/08 19:50:31  5-MIN KDBQ 250150Z AUTO 18005KT 10SM CLR 23/15 A3007 940 61 2100 180/05 RMK AO2 SLP179 T02280150 TSNO
94908KDBQ DBQ20080624195510306/24/08 19:55:31  5-MIN KDBQ 250155Z AUTO 19005KT 10SM CLR 22/15 A3007 940 65 2000 180/05 RMK AO2 TSNO
94908KDBQ DBQ20080624200010306/24/08 20:00:31  5-MIN KDBQ 250200Z AUTO 19006KT 10SM CLR 22/15 A3007 940 65 2000 190/06 RMK AO2 TSNO
94908KDBQ DBQ20080624200510306/24/08 20:05:31  5-MIN KDBQ 250205Z AUTO 18006KT 10SM CLR 22/15 A3007 940 65 2000 180/06 RMK AO2 TSNO
94908KDBQ DBQ20080624201010306/24/08 20:10:31  5-MIN KDBQ 250210Z AUTO 19007KT 10SM CLR 22/16 A3007 940 65 2000 180/07 RMK AO2 TSNO
94908KDBQ DBQ20080624201510306/24/08 20:15:31  5-MIN KDBQ 250215Z AUTO 19006KT 10SM CLR 22/16 A3007 940 68 2000 180/06 RMK AO2 TSNO
94908KDBQ DBQ20080624202010306/24/08 20:20:31  5-MIN KDBQ 250220Z AUTO 18006KT 10SM CLR 22/16 A3007 940 68 2000 180/06 RMK AO2 TSNO
94908KDBQ DBQ20080624202510306/24/08 20:25:31  5-MIN KDBQ 250225Z AUTO 18006KT 10SM CLR 22/16 A3007 940 68 2000 180/06 RMK AO2 TSNO
94908KDBQ DBQ20080624203010306/24/08 20:30:31  5-MIN KDBQ 250230Z AUTO 18006KT 10SM CLR 22/16 A3008 930 68 2000 170/06 RMK AO2 TSNO
94908KDBQ DBQ20080624203510306/24/08 20:35:31  5-MIN KDBQ 250235Z AUTO 17006KT 10SM CLR 22/16 A3008 940 70 2000 170/06 RMK AO2 TSNO
94908KDBQ DBQ20080624204010306/24/08 20:40:31  5-MIN KDBQ 250240Z AUTO 17006KT 10SM CLR 22/16 A3007 940 70 2000 170/06 RMK AO2 TSNO
94908KDBQ DBQ20080624204510306/24/08 20:45:31  5-MIN KDBQ 250245Z AUTO 16005KT 10SM CLR 22/16 A3007 940 70 2000 160/05 RMK AO2 TSNO
94908KDBQ DBQ20080624205012606/24/08 20:50:31  5-MIN KDBQ 250250Z AUTO 16005KT 10SM CLR 21/16 A3007 940 73 1900 160/05 RMK AO2 SLP178 T02110161 58012 TSNO
94908KDBQ DBQ20080624205510306/24/08 20:55:31  5-MIN KDBQ 250255Z AUTO 16005KT 10SM CLR 21/16 A3007 940 73 1900 160/05 RMK AO2 TSNO
94908KDBQ DBQ20080624210010306/24/08 21:00:31  5-MIN KDBQ 250300Z AUTO 16005KT 10SM CLR 21/16 A3007 940 73 1900 160/05 RMK AO2 TSNO
94908KDBQ DBQ20080624210510306/24/08 21:05:31  5-MIN KDBQ 250305Z AUTO 17006KT 10SM CLR 21/16 A3007 940 73 1900 170/06 RMK AO2 TSNO
94908KDBQ DBQ20080624211010306/24/08 21:10:31  5-MIN KDBQ 250310Z AUTO 17006KT 10SM CLR 21/16 A3007 940 73 1900 170/06 RMK AO2 TSNO
94908KDBQ DBQ20080624211510306/24/08 21:15:31  5-MIN KDBQ 250315Z AUTO 17006KT 10SM CLR 21/16 A3007 940 73 1900 170/06 RMK AO2 TSNO
94908KDBQ DBQ20080624212010306/24/08 21:20:31  5-MIN KDBQ 250320Z AUTO 17005KT 10SM CLR 21/16 A3006 950 73 1900 170/05 RMK AO2 TSNO
94908KDBQ DBQ20080624212510306/24/08 21:25:31  5-MIN KDBQ 250325Z AUTO 17005KT 10SM CLR 21/16 A3006 950 75 1900 170/05 RMK AO2 TSNO
94908KDBQ DBQ20080624213010306/24/08 21:30:31  5-MIN KDBQ 250330Z AUTO 17006KT 10SM CLR 21/16 A3006 950 75 1900 170/06 RMK AO2 TSNO
94908KDBQ DBQ20080624213510306/24/08 21:35:31  5-MIN KDBQ 250335Z AUTO 17006KT 10SM CLR 21/16 A3006 950 75 1900 170/06 RMK AO2 TSNO
94908KDBQ DBQ20080624214010306/24/08 21:40:31  5-MIN KDBQ 250340Z AUTO 17006KT 10SM CLR 21/16 A3006 950 75 1900 170/06 RMK AO2 TSNO
94908KDBQ DBQ20080624214510306/24/08 21:45:31  5-MIN KDBQ 250345Z AUTO 18006KT 10SM CLR 21/17 A3006 950 78 1900 170/06 RMK AO2 TSNO
94908KDBQ DBQ20080624215012006/24/08 21:50:31  5-MIN KDBQ 250350Z AUTO 18005KT 10SM CLR 20/17 A3006 950 81 1800 180/05 RMK AO2 SLP174 T02000167 TSNO
94908KDBQ DBQ20080624215510306/24/08 21:55:31  5-MIN KDBQ 250355Z AUTO 16004KT 10SM CLR 20/17 A3006 950 81 1800 160/04 RMK AO2 TSNO
94908KDBQ DBQ20080624220010306/24/08 22:00:31  5-MIN KDBQ 250400Z AUTO 16005KT 10SM CLR 20/17 A3006 950 81 1800 160/05 RMK AO2 TSNO
94908KDBQ DBQ20080624220510306/24/08 22:05:31  5-MIN KDBQ 250405Z AUTO 18005KT 10SM CLR 20/17 A3006 950 81 1800 170/05 RMK AO2 TSNO
94908KDBQ DBQ20080624221010306/24/08 22:10:31  5-MIN KDBQ 250410Z AUTO 18006KT 10SM CLR 19/17 A3006 950 84 1700 180/06 RMK AO2 TSNO
94908KDBQ DBQ20080624221510306/24/08 22:15:31  5-MIN KDBQ 250415Z AUTO 18006KT 10SM CLR 19/17 A3006 950 84 1700 180/06 RMK AO2 TSNO
94908KDBQ DBQ20080624222010306/24/08 22:20:31  5-MIN KDBQ 250420Z AUTO 18006KT 10SM CLR 20/17 A3006 950 81 1800 180/06 RMK AO2 TSNO
94908KDBQ DBQ20080624222510306/24/08 22:25:31  5-MIN KDBQ 250425Z AUTO 17005KT 10SM CLR 20/17 A3006 950 81 1800 170/05 RMK AO2 TSNO
94908KDBQ DBQ20080624223010606/24/08 22:30:31  5-MIN KDBQ 250430Z AUTO 17004KT 10SM FEW110 20/17 A3006 950 81 1800 170/04 RMK AO2 TSNO
94908KDBQ DBQ20080624223510606/24/08 22:35:31  5-MIN KDBQ 250435Z AUTO 18004KT 10SM SCT110 20/17 A3006 950 81 1800 180/04 RMK AO2 TSNO
94908KDBQ DBQ20080624224010606/24/08 22:40:31  5-MIN KDBQ 250440Z AUTO 19004KT 10SM BKN110 19/17 A3006 950 84 1700 190/04 RMK AO2 TSNO
94908KDBQ DBQ20080624224510606/24/08 22:45:31  5-MIN KDBQ 250445Z AUTO 19005KT 10SM BKN110 19/17 A3006 950 84 1700 180/05 RMK AO2 TSNO
94908KDBQ DBQ20080624225012306/24/08 22:50:31  5-MIN KDBQ 250450Z AUTO 18003KT 10SM BKN110 19/17 A3006 950 84 1700 170/03 RMK AO2 SLP174 T01940167 TSNO
94908KDBQ DBQ20080624225510606/24/08 22:55:31  5-MIN KDBQ 250455Z AUTO 16004KT 10SM OVC110 20/17 A3006 950 81 1800 160/04 RMK AO2 TSNO
94908KDBQ DBQ20080624230010606/24/08 23:00:31  5-MIN KDBQ 250500Z AUTO 17004KT 10SM OVC110 20/17 A3006 950 81 1800 170/04 RMK AO2 TSNO
94908KDBQ DBQ20080624230510606/24/08 23:05:31  5-MIN KDBQ 250505Z AUTO 18005KT 10SM OVC110 20/17 A3006 950 81 1800 180/05 RMK AO2 TSNO
94908KDBQ DBQ20080624231010606/24/08 23:10:31  5-MIN KDBQ 250510Z AUTO 18005KT 10SM BKN110 19/17 A3006 950 84 1700 180/05 RMK AO2 TSNO
94908KDBQ DBQ20080624231510606/24/08 23:15:31  5-MIN KDBQ 250515Z AUTO 18005KT 10SM BKN110 19/17 A3006 950 84 1700 180/05 RMK AO2 TSNO
94908KDBQ DBQ20080624232010606/24/08 23:20:31  5-MIN KDBQ 250520Z AUTO 18006KT 10SM SCT110 19/17 A3006 950 87 1700 180/06 RMK AO2 TSNO
94908KDBQ DBQ20080624232511306/24/08 23:25:31  5-MIN KDBQ 250525Z AUTO 18006KT 10SM FEW055 SCT110 20/17 A3006 950 84 1800 180/06 RMK AO2 TSNO
94908KDBQ DBQ20080624233011306/24/08 23:30:31  5-MIN KDBQ 250530Z AUTO 18005KT 10SM SCT055 SCT110 20/17 A3006 950 84 1800 180/05 RMK AO2 TSNO
94908KDBQ DBQ20080624233510606/24/08 23:35:31  5-MIN KDBQ 250535Z AUTO 18006KT 10SM FEW055 20/17 A3005 960 84 1800 180/06 RMK AO2 TSNO
94908KDBQ DBQ20080624234010606/24/08 23:40:31  5-MIN KDBQ 250540Z AUTO 18005KT 10SM FEW055 20/17 A3005 960 84 1800 170/05 RMK AO2 TSNO
94908KDBQ DBQ20080624234510606/24/08 23:45:31  5-MIN KDBQ 250545Z AUTO 17006KT 10SM FEW055 20/17 A3005 960 84 1800 170/06 RMK AO2 TSNO
94908KDBQ DBQ20080624235015106/24/08 23:50:31  5-MIN KDBQ 250550Z AUTO 17006KT 10SM FEW055 20/17 A3004 960 84 1800 170/06 RMK AO2 SLP168 T02000172 10261 20194 402780167 58003 TSNO
94908KDBQ DBQ20080624235510306/24/08 23:55:31  5-MIN KDBQ 250555Z AUTO 17006KT 10SM CLR 20/17 A3005 960 84 1800 170/06 RMK AO2 TSNO
94908KDBQ DBQ20080625000010606/25/08 00:00:38  5-MIN KDBQ 250600Z AUTO 16005KT 10SM SCT050 20/17 A3005 960 84 1800 160/05 RMK AO2 TSNO
94908KDBQ DBQ20080625000510606/25/08 00:05:31  5-MIN KDBQ 250605Z AUTO 16004KT 10SM SCT050 20/17 A3005 960 84 1800 160/04 RMK AO2 TSNO
94908KDBQ DBQ20080625001010606/25/08 00:10:31  5-MIN KDBQ 250610Z AUTO 15005KT 10SM SCT050 20/17 A3004 970 84 1800 150/05 RMK AO2 TSNO
94908KDBQ DBQ20080625001511306/25/08 00:15:31  5-MIN KDBQ 250615Z AUTO 15006KT 10SM SCT055 SCT110 20/17 A3004 960 84 1800 150/06 RMK AO2 TSNO
94908KDBQ DBQ20080625002012006/25/08 00:20:31  5-MIN KDBQ 250620Z AUTO 15007KT 10SM SCT055 SCT100 BKN110 20/17 A3005 960 84 1800 140/07 RMK AO2 TSNO
94908KDBQ DBQ20080625002512006/25/08 00:25:31  5-MIN KDBQ 250625Z AUTO 15008KT 10SM SCT055 SCT065 BKN100 20/17 A3004 960 84 1800 150/08 RMK AO2 TSNO
94908KDBQ DBQ20080625003011306/25/08 00:30:31  5-MIN KDBQ 250630Z AUTO 16007KT 10SM SCT060 BKN100 20/17 A3005 960 84 1800 160/07 RMK AO2 TSNO
94908KDBQ DBQ20080625003512006/25/08 00:35:31  5-MIN KDBQ 250635Z AUTO 16008KT 10SM FEW055 SCT070 BKN100 21/17 A3005 960 81 1900 160/08 RMK AO2 TSNO
94908KDBQ DBQ20080625004012006/25/08 00:40:31  5-MIN KDBQ 250640Z AUTO 16006KT 10SM SCT065 BKN100 OVC110 21/17 A3004 970 81 1900 160/06 RMK AO2 TSNO
94908KDBQ DBQ20080625004512006/25/08 00:45:31  5-MIN KDBQ 250645Z AUTO 16006KT 10SM SCT070 BKN100 BKN110 20/17 A3004 970 84 1800 160/06 RMK AO2 TSNO
94908KDBQ DBQ20080625005013006/25/08 00:50:31  5-MIN KDBQ 250650Z AUTO 16006KT 10SM FEW070 BKN100 20/17 A3003 970 84 1800 160/06 RMK AO2 SLP163 T02000172 TSNO
94908KDBQ DBQ20080625005511306/25/08 00:55:31  5-MIN KDBQ 250655Z AUTO 16006KT 10SM FEW070 BKN100 21/17 A3003 980 81 1900 160/06 RMK AO2 TSNO
94908KDBQ DBQ20080625010011306/25/08 01:00:31  5-MIN KDBQ 250700Z AUTO 17007KT 10SM FEW070 BKN100 20/17 A3004 970 84 1800 170/07 RMK AO2 TSNO
94908KDBQ DBQ20080625010510606/25/08 01:05:31  5-MIN KDBQ 250705Z AUTO 17007KT 10SM BKN100 20/17 A3003 970 84 1800 170/07 RMK AO2 TSNO
94908KDBQ DBQ20080625011010606/25/08 01:10:31  5-MIN KDBQ 250710Z AUTO 17007KT 10SM OVC100 20/17 A3004 970 84 1800 170/07 RMK AO2 TSNO
94908KDBQ DBQ20080625011510606/25/08 01:15:31  5-MIN KDBQ 250715Z AUTO 17007KT 10SM OVC100 20/17 A3004 970 84 1800 170/07 RMK AO2 TSNO
94908KDBQ DBQ20080625012010606/25/08 01:20:31  5-MIN KDBQ 250720Z AUTO 18008KT 10SM BKN100 20/17 A3003 970 84 1800 180/08 RMK AO2 TSNO
94908KDBQ DBQ20080625012511206/25/08 01:25:31  5-MIN KDBQ 250725Z AUTO 19012G15KT 10SM BKN100 20/17 A3003 970 84 1800 190/12G15 RMK AO2 TSNO
94908KDBQ DBQ20080625013010606/25/08 01:30:31  5-MIN KDBQ 250730Z AUTO 19013KT 10SM BKN100 20/17 A3003 980 81 1800 190/13 RMK AO2 TSNO
94908KDBQ DBQ20080625013511206/25/08 01:35:31  5-MIN KDBQ 250735Z AUTO 18011G17KT 10SM BKN100 20/17 A3003 980 81 1800 180/11G17 RMK AO2 TSNO
94908KDBQ DBQ20080625014010606/25/08 01:40:31  5-MIN KDBQ 250740Z AUTO 18011KT 10SM BKN100 20/17 A3003 980 81 1800 180/11 RMK AO2 TSNO
94908KDBQ DBQ20080625014510606/25/08 01:45:31  5-MIN KDBQ 250745Z AUTO 18010KT 10SM BKN100 20/17 A3003 980 81 1800 180/10 RMK AO2 TSNO
94908KDBQ DBQ20080625015012306/25/08 01:50:31  5-MIN KDBQ 250750Z AUTO 18009KT 10SM BKN100 20/17 A3003 980 84 1800 180/09 RMK AO2 SLP162 T02000172 TSNO
94908KDBQ DBQ20080625015510606/25/08 01:55:31  5-MIN KDBQ 250755Z AUTO 18009KT 10SM BKN100 20/17 A3003 980 84 1800 180/09 RMK AO2 TSNO
94908KDBQ DBQ20080625020010606/25/08 02:00:31  5-MIN KDBQ 250800Z AUTO 18009KT 10SM OVC100 20/17 A3003 980 84 1800 180/09 RMK AO2 TSNO
94908KDBQ DBQ20080625020510606/25/08 02:05:31  5-MIN KDBQ 250805Z AUTO 19009KT 10SM BKN100 20/17 A3003 980 84 1800 180/09 RMK AO2 TSNO
94908KDBQ DBQ20080625021010606/25/08 02:10:31  5-MIN KDBQ 250810Z AUTO 19009KT 10SM BKN100 20/17 A3003 980 84 1800 190/09 RMK AO2 TSNO
94908KDBQ DBQ20080625021511306/25/08 02:15:31  5-MIN KDBQ 250815Z AUTO 19010KT 10SM FEW048 BKN100 20/17 A3003 980 84 1800 190/10 RMK AO2 TSNO
94908KDBQ DBQ20080625022011306/25/08 02:20:31  5-MIN KDBQ 250820Z AUTO 19010KT 10SM FEW050 BKN100 20/17 A3002 990 84 1800 190/10 RMK AO2 TSNO
94908KDBQ DBQ20080625022511306/25/08 02:25:31  5-MIN KDBQ 250825Z AUTO 19009KT 10SM FEW048 BKN100 20/17 A3002 990 84 1800 190/09 RMK AO2 TSNO
94908KDBQ DBQ20080625023011306/25/08 02:30:31  5-MIN KDBQ 250830Z AUTO 19007KT 10SM FEW050 BKN100 19/17 A3002 990 87 1800 190/07 RMK AO2 TSNO
94908KDBQ DBQ20080625023511306/25/08 02:35:31  5-MIN KDBQ 250835Z AUTO 18009KT 10SM FEW050 SCT100 19/17 A3001 990 87 1800 180/09 RMK AO2 TSNO
94908KDBQ DBQ20080625024010606/25/08 02:40:31  5-MIN KDBQ 250840Z AUTO 18008KT 10SM FEW050 19/17 A3001 990 87 1800 180/08 RMK AO2 TSNO
94908KDBQ DBQ20080625024510606/25/08 02:45:31  5-MIN KDBQ 250845Z AUTO 18009KT 10SM FEW095 19/17 A3001 990 87 1800 180/09 RMK AO2 TSNO
94908KDBQ DBQ20080625025012606/25/08 02:50:31  5-MIN KDBQ 250850Z AUTO 18009KT 10SM CLR 19/17 A3001 990 87 1800 180/09 RMK AO2 SLP156 T01940172 58009 TSNO
94908KDBQ DBQ20080625025510306/25/08 02:55:31  5-MIN KDBQ 250855Z AUTO 18008KT 10SM CLR 19/17 A3001 990 87 1800 170/08 RMK AO2 TSNO
94908KDBQ DBQ20080625030010306/25/08 03:00:31  5-MIN KDBQ 250900Z AUTO 17008KT 10SM CLR 19/17 A3001 990 87 1800 170/08 RMK AO2 TSNO
94908KDBQ DBQ20080625030510306/25/08 03:05:31  5-MIN KDBQ 250905Z AUTO 17008KT 10SM CLR 19/17 A3001 990 87 1800 170/08 RMK AO2 TSNO
94908KDBQ DBQ20080625031010306/25/08 03:10:31  5-MIN KDBQ 250910Z AUTO 17007KT 10SM CLR 19/17 A3001 990 90 1700 170/07 RMK AO2 TSNO
94908KDBQ DBQ20080625031510306/25/08 03:15:31  5-MIN KDBQ 250915Z AUTO 18006KT 10SM CLR 19/17 A3002 990 90 1700 170/06 RMK AO2 TSNO
94908KDBQ DBQ20080625032010306/25/08 03:20:31  5-MIN KDBQ 250920Z AUTO 18005KT 10SM CLR 19/17 A3002 980 90 1700 170/05 RMK AO2 TSNO
94908KDBQ DBQ20080625032510306/25/08 03:25:31  5-MIN KDBQ 250925Z AUTO 18005KT 10SM CLR 19/17 A3003 980 90 1700 180/05 RMK AO2 TSNO
94908KDBQ DBQ20080625033010306/25/08 03:30:31  5-MIN KDBQ 250930Z AUTO 19003KT 10SM CLR 19/17 A3002 980 90 1700 190/03 RMK AO2 TSNO
94908KDBQ DBQ20080625033510306/25/08 03:35:31  5-MIN KDBQ 250935Z AUTO 00000KT 10SM CLR 19/17 A3002 990 90 1700 000/00 RMK AO2 TSNO
94908KDBQ DBQ20080625034010306/25/08 03:40:31  5-MIN KDBQ 250940Z AUTO 21003KT 10SM CLR 18/17 A3002 990 93 1600 210/03 RMK AO2 TSNO
94908KDBQ DBQ20080625034510306/25/08 03:45:31  5-MIN KDBQ 250945Z AUTO 20004KT 10SM CLR 19/17 A3003 980 90 1700 200/04 RMK AO2 TSNO
94908KDBQ DBQ20080625035012006/25/08 03:50:31  5-MIN KDBQ 250950Z AUTO 20004KT 10SM CLR 18/17 A3003 980 90 1600 190/04 RMK AO2 SLP162 T01830167 TSNO
94908KDBQ DBQ20080625035510606/25/08 03:55:31  5-MIN KDBQ 250955Z AUTO 19003KT 10SM FEW070 18/17 A3003 980 90 1600 190/03 RMK AO2 TSNO
94908KDBQ DBQ20080625040010606/25/08 04:00:31  5-MIN KDBQ 251000Z AUTO 19003KT 10SM SCT070 19/17 A3003 980 90 1700 190/03 RMK AO2 TSNO
94908KDBQ DBQ20080625040510606/25/08 04:05:31  5-MIN KDBQ 251005Z AUTO 00000KT 10SM BKN070 19/17 A3003 980 90 1700 000/00 RMK AO2 TSNO
94908KDBQ DBQ20080625041010606/25/08 04:10:31  5-MIN KDBQ 251010Z AUTO 19003KT 10SM BKN070 19/17 A3003 980 90 1700 190/03 RMK AO2 TSNO
94908KDBQ DBQ20080625041510606/25/08 04:15:31  5-MIN KDBQ 251015Z AUTO 20004KT 10SM BKN070 19/17 A3002 980 90 1700 200/04 RMK AO2 TSNO
94908KDBQ DBQ20080625042010606/25/08 04:20:31  5-MIN KDBQ 251020Z AUTO 19005KT 10SM OVC075 19/17 A3003 980 90 1700 190/05 RMK AO2 TSNO
94908KDBQ DBQ20080625042511306/25/08 04:25:31  5-MIN KDBQ 251025Z AUTO 17006KT 10SM SCT070 OVC080 19/17 A3002 980 90 1700 170/06 RMK AO2 TSNO
94908KDBQ DBQ20080625043010606/25/08 04:30:31  5-MIN KDBQ 251030Z AUTO 17008KT 10SM OVC080 19/17 A3003 980 90 1700 170/08 RMK AO2 TSNO
94908KDBQ DBQ20080625043510606/25/08 04:35:31  5-MIN KDBQ 251035Z AUTO 17009KT 10SM OVC085 19/17 A3002 980 90 1700 170/09 RMK AO2 TSNO
94908KDBQ DBQ20080625044010606/25/08 04:40:31  5-MIN KDBQ 251040Z AUTO 17008KT 10SM OVC080 19/17 A3002 980 90 1700 170/08 RMK AO2 TSNO
94908KDBQ DBQ20080625044511306/25/08 04:45:31  5-MIN KDBQ 251045Z AUTO 17008KT 10SM BKN085 OVC100 19/17 A3002 980 90 1700 170/08 RMK AO2 TSNO
94908KDBQ DBQ20080625045012706/25/08 04:50:31  5-MIN KDBQ 251050Z 18009KT 10SM FEW020 BKN085 OVC100 19/17 A3002 980 90 1700 180/09 RMK AO2 SLP161 T01890172
94908KDBQ DBQ20080625045511006/25/08 04:55:31  5-MIN KDBQ 251055Z 18008KT 10SM SCT017 BKN085 OVC100 19/17 A3002 980 90 1700 180/08 RMK AO2
94908KDBQ DBQ20080625050011006/25/08 05:00:31  5-MIN KDBQ 251100Z 19008KT 10SM BKN015 BKN085 OVC100 19/17 A3003 980 90 1700 190/08 RMK AO2
94908KDBQ DBQ20080625050511006/25/08 05:05:31  5-MIN KDBQ 251105Z 18009KT 10SM BKN015 BKN085 OVC100 19/17 A3003 980 87 1800 180/09 RMK AO2
94908KDBQ DBQ20080625051011006/25/08 05:10:31  5-MIN KDBQ 251110Z 19010KT 10SM BKN015 BKN020 OVC100 19/17 A3003 980 87 1800 190/10 RMK AO2
94908KDBQ DBQ20080625051511006/25/08 05:15:31  5-MIN KDBQ 251115Z 20010KT 10SM BKN015 BKN020 OVC100 19/17 A3002 980 87 1800 200/10 RMK AO2
94908KDBQ DBQ20080625052011006/25/08 05:20:31  5-MIN KDBQ 251120Z 20010KT 10SM BKN015 BKN020 OVC100 19/17 A3002 990 87 1800 200/10 RMK AO2
94908KDBQ DBQ20080625052511006/25/08 05:25:31  5-MIN KDBQ 251125Z 20010KT 10SM BKN015 BKN020 OVC100 19/17 A3002 990 87 1800 200/10 RMK AO2
94908KDBQ DBQ20080625053011006/25/08 05:30:31  5-MIN KDBQ 251130Z 20010KT 10SM BKN015 BKN020 OVC100 19/17 A3002 990 87 1800 200/10 RMK AO2
94908KDBQ DBQ20080625053511006/25/08 05:35:31  5-MIN KDBQ 251135Z 20010KT 10SM BKN015 BKN020 OVC100 19/17 A3002 990 87 1800 200/10 RMK AO2
94908KDBQ DBQ20080625054011006/25/08 05:40:31  5-MIN KDBQ 251140Z 20008KT 10SM BKN015 BKN020 OVC100 19/17 A3002 990 87 1800 200/08 RMK AO2
94908KDBQ DBQ20080625054511006/25/08 05:45:31  5-MIN KDBQ 251145Z 20008KT 10SM BKN015 BKN020 OVC100 19/17 A3002 980 87 1800 200/08 RMK AO2
94908KDBQ DBQ20080625055013106/25/08 05:50:31  5-MIN KDBQ 251150Z 21008KT 10SM OVC015 19/17 A3003 980 87 1800 210/08 RMK AO2 SLP162 T01940172 10206 20183 58012
94908KDBQ DBQ20080625055510306/25/08 05:55:31  5-MIN KDBQ 251155Z 20008KT 10SM FEW008 OVC015 19/17 A3003 980 87 1800 200/08 RMK AO2
94908KDBQ DBQ20080625060010306/25/08 06:00:31  5-MIN KDBQ 251200Z 20008KT 10SM FEW008 OVC015 19/17 A3002 980 87 1800 200/08 RMK AO2
94908KDBQ DBQ20080625060510306/25/08 06:05:31  5-MIN KDBQ 251205Z 20005KT 10SM FEW008 OVC017 19/18 A3002 980 90 1800 200/05 RMK AO2
94908KDBQ DBQ20080625061010306/25/08 06:10:31  5-MIN KDBQ 251210Z 20007KT 10SM SCT008 OVC017 19/18 A3002 990 90 1800 200/07 RMK AO2
94908KDBQ DBQ20080625061510306/25/08 06:15:31  5-MIN KDBQ 251215Z 20007KT 10SM SCT008 OVC017 19/18 A3002 990 90 1800 200/07 RMK AO2
94908KDBQ DBQ20080625062010306/25/08 06:20:31  5-MIN KDBQ 251220Z 21007KT 10SM SCT008 OVC015 19/18 A3002 990 90 1800 210/07 RMK AO2
94908KDBQ DBQ20080625062509606/25/08 06:25:31  5-MIN KDBQ 251225Z 22007KT 10SM OVC013 19/18 A3001 990 90 1800 220/07 RMK AO2
94908KDBQ DBQ20080625063009606/25/08 06:30:31  5-MIN KDBQ 251230Z 20007KT 10SM OVC013 19/18 A3001 990 90 1800 200/07 RMK AO2
94908KDBQ DBQ20080625063509606/25/08 06:35:31  5-MIN KDBQ 251235Z 20009KT 10SM OVC011 19/18 A3001 990 90 1800 200/09 RMK AO2
94908KDBQ DBQ20080625064010806/25/08 06:40:31  5-MIN KDBQ 251240Z 20007KT 10SM OVC011 19/18 A3001 990 90 1800 200/07 RMK AO2 CIG 008V013
94908KDBQ DBQ20080625064509606/25/08 06:45:31  5-MIN KDBQ 251245Z 21008KT 10SM OVC011 19/18 A3002 990 90 1800 210/08 RMK AO2
94908KDBQ DBQ20080625065011306/25/08 06:50:31  5-MIN KDBQ 251250Z 21006KT 10SM OVC011 19/18 A3001 990 90 1800 210/06 RMK AO2 SLP157 T01940178
94908KDBQ DBQ20080625065511606/25/08 06:55:31  5-MIN KDBQ 251255Z 21007KT 10SM BKN009 OVC013 19/18 A3001 1000 90 1800 210/07 RMK AO2 CIG 007V011
94908KDBQ DBQ20080625070010906/25/08 07:00:31  5-MIN KDBQ 251300Z 22008KT 10SM OVC009 19/18 A3001 1000 90 1800 220/08 RMK AO2 CIG 007V013
94908KDBQ DBQ20080625070511606/25/08 07:05:31  5-MIN KDBQ 251305Z 22009KT 10SM BKN009 OVC013 19/18 A3000 1000 90 1800 220/09 RMK AO2 CIG 007V011
94908KDBQ DBQ20080625071010906/25/08 07:10:31  5-MIN KDBQ 251310Z 23006KT 10SM OVC009 19/18 A3000 1000 90 1800 230/06 RMK AO2 CIG 007V011
94908KDBQ DBQ20080625071510906/25/08 07:15:31  5-MIN KDBQ 251315Z 24006KT 10SM OVC009 19/18 A3001 1000 90 1800 240/06 RMK AO2 CIG 007V012
94908KDBQ DBQ20080625072010806/25/08 07:20:31  5-MIN KDBQ 251320Z 25007KT 9SM OVC009 19/18 A3001 1000 90 1800 250/07 RMK AO2 CIG 006V012
94908KDBQ DBQ20080625072510806/25/08 07:25:31  5-MIN KDBQ 251325Z 22007KT 9SM OVC007 19/18 A3000 1000 90 1800 220/07 RMK AO2 CIG 006V013
94908KDBQ DBQ20080625073010906/25/08 07:30:31  5-MIN KDBQ 251330Z 22005KT 10SM OVC007 19/18 A3000 1000 90 1800 220/05 RMK AO2 CIG 006V011
94908KDBQ DBQ20080625073510806/25/08 07:35:31  5-MIN KDBQ 251335Z 24005KT 9SM OVC007 19/18 A3000 1010 90 1800 240/05 RMK AO2 CIG 006V009
94908KDBQ DBQ20080625074010806/25/08 07:40:31  5-MIN KDBQ 251340Z 23003KT 8SM OVC007 19/18 A3000 1000 90 1800 230/03 RMK AO2 CIG 005V010
94908KDBQ DBQ20080625074510806/25/08 07:45:31  5-MIN KDBQ 251345Z 19003KT 8SM OVC007 19/18 A3000 1000 90 1800 190/03 RMK AO2 CIG 005V010
94908KDBQ DBQ20080625075012506/25/08 07:50:31  5-MIN KDBQ 251350Z 20004KT 9SM OVC007 19/18 A3001 1000 93 1800 200/04 RMK AO2 CIG 005V010 SLP157 T01940183
94908KDBQ DBQ20080625075510906/25/08 07:55:31  5-MIN KDBQ 251355Z 19004KT 10SM OVC007 19/18 A3001 1000 90 1800 190/04 RMK AO2 CIG 005V011
94908KDBQ DBQ20080625080010906/25/08 08:00:31  5-MIN KDBQ 251400Z 20004KT 10SM OVC007 20/18 A3001 1000 90 1900 200/04 RMK AO2 CIG 005V011
94908KDBQ DBQ20080625080510906/25/08 08:05:31  5-MIN KDBQ 251405Z 22005KT 10SM OVC007 21/18 A3001 1000 87 1900 210/05 RMK AO2 CIG 005V011
94908KDBQ DBQ20080625081010806/25/08 08:10:31  5-MIN KDBQ 251410Z 24003KT 10SM OVC009 20/18 A3001 990 90 1800 240/03 RMK AO2 CIG 005V011
94908KDBQ DBQ20080625081510806/25/08 08:15:31  5-MIN KDBQ 251415Z 23005KT 10SM OVC009 20/18 A3001 990 87 1800 230/05 RMK AO2 CIG 005V011
94908KDBQ DBQ20080625082011506/25/08 08:20:31  5-MIN KDBQ 251420Z 22006KT 10SM BKN009 OVC014 21/18 A3001 990 87 1900 220/06 RMK AO2 CIG 006V011
94908KDBQ DBQ20080625082511606/25/08 08:25:31  5-MIN KDBQ 251425Z 21004KT 10SM BKN009 OVC014 21/18 A3001 1000 87 1900 210/04 RMK AO2 CIG 006V011
94908KDBQ DBQ20080625083011606/25/08 08:30:31  5-MIN KDBQ 251430Z 21006KT 10SM BKN009 OVC014 21/18 A3001 1000 87 1900 210/06 RMK AO2 CIG 007V011
94908KDBQ DBQ20080625083509706/25/08 08:35:31  5-MIN KDBQ 251435Z 21006KT 10SM OVC012 21/18 A3001 1000 84 1900 210/06 RMK AO2
94908KDBQ DBQ20080625084011106/25/08 08:40:31  5-MIN KDBQ 251440Z 22005KT 10SM SCT009 BKN014 OVC020 21/18 A3001 1000 87 1900 220/05 RMK AO2
94908KDBQ DBQ20080625084510406/25/08 08:45:31  5-MIN KDBQ 251445Z 23006KT 10SM SCT009 OVC016 21/18 A3001 1000 87 1900 230/06 RMK AO2
94908KDBQ DBQ20080625085011106/25/08 08:50:31  5-MIN KDBQ 251450Z 23007KT 10SM FEW009 BKN014 OVC020 21/18 A3001 1000 84 1900 230/07 RMK AO2
94908KDBQ DBQ20080625085510406/25/08 08:55:31  5-MIN KDBQ 251455Z 22005KT 10SM SCT014 OVC020 21/18 A2999 1010 84 2000 220/05 RMK AO2
94908KDBQ DBQ20080625090010406/25/08 09:00:31  5-MIN KDBQ 251500Z 22006KT 10SM FEW009 OVC020 21/18 A2999 1010 84 2000 220/06 RMK AO2
94908KDBQ DBQ20080625090510406/25/08 09:05:31  5-MIN KDBQ 251505Z 23006KT 10SM FEW009 OVC020 21/18 A2999 1020 84 2000 230/06 RMK AO2
94908KDBQ DBQ20080625091010406/25/08 09:10:31  5-MIN KDBQ 251510Z 21006KT 10SM FEW012 BKN020 22/19 A2998 1020 81 2100 210/06 RMK AO2
94908KDBQ DBQ20080625091510406/25/08 09:15:31  5-MIN KDBQ 251515Z 22005KT 10SM FEW012 BKN020 22/18 A2999 1020 81 2100 220/05 RMK AO2
94908KDBQ DBQ20080625092010406/25/08 09:20:31  5-MIN KDBQ 251520Z VRB04KT 10SM FEW012 BKN020 22/18 A2999 1020 78 2100 VRB/04 RMK AO2
94908KDBQ DBQ20080625092510406/25/08 09:25:31  5-MIN KDBQ 251525Z 22004KT 10SM FEW012 BKN018 22/18 A2998 1020 78 2100 220/04 RMK AO2
94908KDBQ DBQ20080625093010406/25/08 09:30:31  5-MIN KDBQ 251530Z VRB03KT 10SM FEW012 SCT018 22/18 A2998 1020 78 2100 VRB/03 RMK AO2
94908KDBQ DBQ20080625093510406/25/08 09:35:31  5-MIN KDBQ 251535Z 20006KT 10SM SCT016 BKN021 22/18 A2998 1020 81 2100 200/06 RMK AO2
94908KDBQ DBQ20080625094009706/25/08 09:40:31  5-MIN KDBQ 251540Z 21006KT 10SM BKN016 22/18 A2999 1020 78 2100 210/06 RMK AO2
94908KDBQ DBQ20080625094509706/25/08 09:45:31  5-MIN KDBQ 251545Z VRB03KT 10SM BKN016 22/18 A2998 1020 81 2100 VRB/03 RMK AO2
94908KDBQ DBQ20080625095011406/25/08 09:50:31  5-MIN KDBQ 251550Z 20006KT 10SM BKN016 22/18 A2997 1030 78 2100 200/06 RMK AO2 SLP146 T02170178
94908KDBQ DBQ20080625095509706/25/08 09:55:31  5-MIN KDBQ 251555Z 20005KT 10SM BKN018 22/18 A2997 1030 75 2100 200/05 RMK AO2
94908KDBQ DBQ20080625100009706/25/08 10:00:31  5-MIN KDBQ 251600Z 22007KT 10SM OVC018 23/18 A2998 1030 76 2200 220/07 RMK AO2
94908KDBQ DBQ20080625100511306/25/08 10:05:31  5-MIN KDBQ 251605Z 23007KT 210V270 10SM OVC018 22/18 A2998 1030 78 2100 230/07 210V270 RMK AO2
94908KDBQ DBQ20080625101009706/25/08 10:10:31  5-MIN KDBQ 251610Z VRB03KT 10SM OVC018 22/18 A2998 1030 78 2100 VRB/03 RMK AO2
94908KDBQ DBQ20080625101509706/25/08 10:15:31  5-MIN KDBQ 251615Z 20003KT 10SM OVC018 23/18 A2997 1030 73 2200 200/03 RMK AO2
94908KDBQ DBQ20080625102009706/25/08 10:20:31  5-MIN KDBQ 251620Z 23004KT 10SM BKN020 23/18 A2997 1030 73 2200 230/04 RMK AO2
94908KDBQ DBQ20080625102509706/25/08 10:25:31  5-MIN KDBQ 251625Z 21003KT 10SM BKN020 23/18 A2997 1030 73 2200 200/03 RMK AO2
94908KDBQ DBQ20080625103009706/25/08 10:30:31  5-MIN KDBQ 251630Z 00000KT 10SM BKN020 23/18 A2997 1030 70 2300 000/00 RMK AO2
94908KDBQ DBQ20080625103509706/25/08 10:35:31  5-MIN KDBQ 251635Z 21005KT 10SM BKN020 23/18 A2997 1030 73 2300 210/05 RMK AO2
94908KDBQ DBQ20080625104009706/25/08 10:40:31  5-MIN KDBQ 251640Z 19003KT 10SM BKN020 23/18 A2997 1030 70 2300 190/03 RMK AO2
94908KDBQ DBQ20080625104509706/25/08 10:45:31  5-MIN KDBQ 251645Z 00000KT 10SM BKN020 23/18 A2998 1030 73 2300 000/00 RMK AO2
94908KDBQ DBQ20080625105011406/25/08 10:50:31  5-MIN KDBQ 251650Z 24003KT 10SM BKN020 23/18 A2998 1030 73 2300 240/03 RMK AO2 SLP145 T02330183
94908KDBQ DBQ20080625105509706/25/08 10:55:31  5-MIN KDBQ 251655Z 21007KT 10SM BKN020 24/18 A2997 1030 71 2300 210/07 RMK AO2
94908KDBQ DBQ20080625110009706/25/08 11:00:31  5-MIN KDBQ 251700Z 20005KT 10SM BKN020 24/18 A2997 1030 68 2400 190/05 RMK AO2
94908KDBQ DBQ20080625110509706/25/08 11:05:31  5-MIN KDBQ 251705Z VRB03KT 10SM BKN020 24/18 A2997 1030 71 2300 VRB/03 RMK AO2
94908KDBQ DBQ20080625111009706/25/08 11:10:31  5-MIN KDBQ 251710Z 24006KT 10SM BKN020 24/18 A2997 1030 71 2300 240/06 RMK AO2
94908KDBQ DBQ20080625111509706/25/08 11:15:31  5-MIN KDBQ 251715Z 22005KT 10SM BKN022 24/18 A2997 1030 68 2400 220/05 RMK AO2
94908KDBQ DBQ20080625112009706/25/08 11:20:31  5-MIN KDBQ 251720Z 21007KT 10SM BKN022 24/18 A2997 1030 68 2400 210/07 RMK AO2
94908KDBQ DBQ20080625112509706/25/08 11:25:31  5-MIN KDBQ 251725Z 21008KT 10SM BKN022 24/18 A2997 1030 68 2400 210/08 RMK AO2
94908KDBQ DBQ20080625113011306/25/08 11:30:31  5-MIN KDBQ 251730Z 21007KT 170V230 10SM SCT024 25/18 A2997 1030 66 2500 210/07 170V230 RMK AO2
94908KDBQ DBQ20080625113509706/25/08 11:35:31  5-MIN KDBQ 251735Z 20005KT 10SM BKN024 25/18 A2997 1040 66 2500 200/05 RMK AO2
94908KDBQ DBQ20080625114009706/25/08 11:40:31  5-MIN KDBQ 251740Z 19007KT 10SM BKN024 25/18 A2996 1040 66 2500 190/07 RMK AO2
94908KDBQ DBQ20080625114509706/25/08 11:45:31  5-MIN KDBQ 251745Z 22005KT 10SM BKN024 24/18 A2997 1040 66 2400 220/05 RMK AO2
94908KDBQ DBQ20080625115013206/25/08 11:50:31  5-MIN KDBQ 251750Z 21005KT 10SM BKN024 25/18 A2997 1030 66 2500 210/05 RMK AO2 SLP142 T02500183 10250 20194 58004
94908KDBQ DBQ20080625115509706/25/08 11:55:31  5-MIN KDBQ 251755Z 19008KT 10SM BKN026 24/18 A2997 1040 68 2400 190/08 RMK AO2
94908KDBQ DBQ20080625120009706/25/08 12:00:31  5-MIN KDBQ 251800Z 21008KT 10SM BKN026 25/19 A2997 1030 68 2500 210/08 RMK AO2
94908KDBQ DBQ20080625120509706/25/08 12:05:31  5-MIN KDBQ 251805Z 23008KT 10SM BKN026 24/18 A2997 1040 68 2400 230/08 RMK AO2
94908KDBQ DBQ20080625121009706/25/08 12:10:31  5-MIN KDBQ 251810Z 23006KT 10SM BKN026 24/18 A2997 1030 68 2400 230/06 RMK AO2
94908KDBQ DBQ20080625121509706/25/08 12:15:31  5-MIN KDBQ 251815Z 21007KT 10SM BKN026 25/19 A2997 1030 68 2500 210/07 RMK AO2
94908KDBQ DBQ20080625122009706/25/08 12:20:31  5-MIN KDBQ 251820Z 22009KT 10SM BKN026 25/19 A2997 1030 68 2500 220/09 RMK AO2
94908KDBQ DBQ20080625122509706/25/08 12:25:31  5-MIN KDBQ 251825Z 20008KT 10SM BKN026 25/18 A2997 1030 66 2500 200/08 RMK AO2
94908KDBQ DBQ20080625123010406/25/08 12:30:31  5-MIN KDBQ 251830Z 21008KT 10SM BKN028 BKN033 25/18 A2997 1030 66 2500 210/08 RMK AO2
94908KDBQ DBQ20080625123510406/25/08 12:35:31  5-MIN KDBQ 251835Z 20007KT 10SM BKN028 OVC033 25/19 A2998 1030 68 2500 190/07 RMK AO2
94908KDBQ DBQ20080625124010406/25/08 12:40:31  5-MIN KDBQ 251840Z 22007KT 10SM SCT027 OVC031 25/19 A2997 1030 68 2500 220/07 RMK AO2
94908KDBQ DBQ20080625124510406/25/08 12:45:31  5-MIN KDBQ 251845Z 20007KT 10SM SCT027 OVC031 25/19 A2998 1030 68 2500 200/07 RMK AO2
94908KDBQ DBQ20080625125012106/25/08 12:50:31  5-MIN KDBQ 251850Z 22007KT 10SM SCT027 BKN033 26/19 A2998 1020 66 2500 220/07 RMK AO2 SLP146 T02560189
94908KDBQ DBQ20080625125510406/25/08 12:55:31  5-MIN KDBQ 251855Z 22005KT 10SM FEW025 BKN033 25/19 A2998 1020 68 2500 220/05 RMK AO2
94908KDBQ DBQ20080625130010406/25/08 13:00:31  5-MIN KDBQ 251900Z 21006KT 10SM FEW025 OVC033 25/19 A2998 1020 68 2500 210/06 RMK AO2
94908KDBQ DBQ20080625130510406/25/08 13:05:31  5-MIN KDBQ 251905Z 23010KT 10SM FEW025 BKN033 26/19 A2998 1030 66 2500 230/10 RMK AO2
94908KDBQ DBQ20080625131010406/25/08 13:10:31  5-MIN KDBQ 251910Z 23009KT 10SM SCT028 BKN034 26/19 A2998 1030 66 2500 230/09 RMK AO2
94908KDBQ DBQ20080625131510406/25/08 13:15:31  5-MIN KDBQ 251915Z 20007KT 10SM SCT028 BKN034 26/19 A2998 1030 66 2500 200/07 RMK AO2
94908KDBQ DBQ20080625132010406/25/08 13:20:31  5-MIN KDBQ 251920Z 21007KT 10SM SCT030 BKN037 26/19 A2997 1030 66 2600 210/07 RMK AO2
94908KDBQ DBQ20080625132512606/25/08 13:25:31  5-MIN KDBQ 251925Z 23009G15KT 190V260 10SM SCT028 SCT035 26/19 A2997 1030 66 2600 230/09G15 190V260 RMK AO2
94908KDBQ DBQ20080625133010306/25/08 13:30:31  5-MIN KDBQ 251930Z 22008G15KT 10SM SCT031 27/19 A2997 1030 62 2700 220/08G15 RMK AO2
94908KDBQ DBQ20080625133509706/25/08 13:35:31  5-MIN KDBQ 251935Z 23006KT 10SM SCT029 26/19 A2997 1030 64 2600 220/06 RMK AO2
94908KDBQ DBQ20080625134009706/25/08 13:40:31  5-MIN KDBQ 251940Z 23007KT 10SM SCT031 27/19 A2996 1040 62 2700 230/07 RMK AO2
94908KDBQ DBQ20080625134510206/25/08 13:45:31  5-MIN KDBQ 251945Z AUTO 21009KT 10SM SCT031 27/19 A2996 1040 62 2700 210/09 RMK AO2
94908KDBQ DBQ20080625135012406/25/08 13:50:31  5-MIN KDBQ 251950Z AUTO 23010KT 10SM SCT031 27/19 A2997 1040 62 2700 230/10 RMK AO2 SLP140 T02670189 TSNO
94908KDBQ DBQ20080625135510306/25/08 13:55:31  5-MIN KDBQ 251955Z 22009G15KT 10SM FEW031 27/19 A2997 1040 62 2700 220/09G15 RMK AO2
94908KDBQ DBQ20080625140010306/25/08 14:00:31  5-MIN KDBQ 252000Z 25008G15KT 10SM FEW031 27/19 A2997 1040 62 2700 250/08G15 RMK AO2
94908KDBQ DBQ20080625140509706/25/08 14:05:31  5-MIN KDBQ 252005Z 20009KT 10SM FEW033 27/19 A2997 1040 62 2700 200/09 RMK AO2
94908KDBQ DBQ20080625141009706/25/08 14:10:31  5-MIN KDBQ 252010Z 21010KT 10SM FEW033 27/19 A2997 1030 64 2700 210/10 RMK AO2
94908KDBQ DBQ20080625141509706/25/08 14:15:31  5-MIN KDBQ 252015Z 23008KT 10SM FEW033 27/19 A2996 1040 60 2700 230/08 RMK AO2
94908KDBQ DBQ20080625142009706/25/08 14:20:31  5-MIN KDBQ 252020Z 22010KT 10SM FEW033 27/19 A2996 1040 62 2700 220/10 RMK AO2
94908KDBQ DBQ20080625142510306/25/08 14:25:31  5-MIN KDBQ 252025Z 23006G15KT 10SM FEW033 28/19 A2996 1040 60 2800 230/06G15 RMK AO2
94908KDBQ DBQ20080625143009706/25/08 14:30:31  5-MIN KDBQ 252030Z 22008KT 10SM FEW033 27/19 A2996 1040 60 2700 220/08 RMK AO2
94908KDBQ DBQ20080625143509706/25/08 14:35:31  5-MIN KDBQ 252035Z 21010KT 10SM FEW033 27/19 A2996 1040 62 2700 210/10 RMK AO2
94908KDBQ DBQ20080625144009706/25/08 14:40:31  5-MIN KDBQ 252040Z 21010KT 10SM SCT033 28/19 A2996 1050 60 2800 210/10 RMK AO2
94908KDBQ DBQ20080625144509706/25/08 14:45:31  5-MIN KDBQ 252045Z 22007KT 10SM FEW033 28/19 A2996 1040 58 2800 220/07 RMK AO2
94908KDBQ DBQ20080625145012006/25/08 14:50:31  5-MIN KDBQ 252050Z 22009KT 10SM FEW033 28/19 A2996 1040 58 2800 220/09 RMK AO2 SLP138 T02780189 56011
94908KDBQ DBQ20080625145509706/25/08 14:55:31  5-MIN KDBQ 252055Z 23008KT 10SM FEW033 28/19 A2996 1040 60 2800 230/08 RMK AO2
94908KDBQ DBQ20080625150009706/25/08 15:00:31  5-MIN KDBQ 252100Z 20008KT 10SM FEW033 28/19 A2996 1040 58 2800 200/08 RMK AO2
94908KDBQ DBQ20080625150509706/25/08 15:05:31  5-MIN KDBQ 252105Z 23008KT 10SM FEW033 28/19 A2996 1040 58 2800 230/08 RMK AO2
94908KDBQ DBQ20080625151009406/25/08 15:10:31  5-MIN KDBQ 252110Z 24007KT 10SM CLR 28/19 A2996 1050 58 2900 240/07 RMK AO2
94908KDBQ DBQ20080625151509406/25/08 15:15:31  5-MIN KDBQ 252115Z 21009KT 10SM CLR 28/19 A2995 1050 58 2900 210/09 RMK AO2
94908KDBQ DBQ20080625152009406/25/08 15:20:31  5-MIN KDBQ 252120Z 20008KT 10SM CLR 28/19 A2996 1050 58 2900 200/08 RMK AO2
94908KDBQ DBQ20080625152509406/25/08 15:25:31  5-MIN KDBQ 252125Z 23009KT 10SM CLR 28/19 A2995 1050 58 2900 230/09 RMK AO2
94908KDBQ DBQ20080625153009406/25/08 15:30:31  5-MIN KDBQ 252130Z 23009KT 10SM CLR 28/19 A2996 1050 58 2800 230/09 RMK AO2
94908KDBQ DBQ20080625153509406/25/08 15:35:31  5-MIN KDBQ 252135Z 23007KT 10SM CLR 28/19 A2995 1050 58 2900 230/07 RMK AO2
94908KDBQ DBQ20080625154009406/25/08 15:40:31  5-MIN KDBQ 252140Z 23010KT 10SM CLR 28/19 A2995 1050 60 2800 220/10 RMK AO2
94908KDBQ DBQ20080625154509406/25/08 15:45:31  5-MIN KDBQ 252145Z 21011KT 10SM CLR 27/19 A2995 1050 60 2700 210/11 RMK AO2
94908KDBQ DBQ20080625155011106/25/08 15:50:31  5-MIN KDBQ 252150Z 21009KT 10SM CLR 28/19 A2995 1050 60 2800 210/09 RMK AO2 SLP135 T02780194
94908KDBQ DBQ20080625155509406/25/08 15:55:31  5-MIN KDBQ 252155Z 24010KT 10SM CLR 28/19 A2995 1050 58 2800 240/10 RMK AO2
94908KDBQ DBQ20080625160009406/25/08 16:00:31  5-MIN KDBQ 252200Z 22007KT 10SM CLR 28/19 A2995 1050 58 2900 220/07 RMK AO2
94908KDBQ DBQ20080625160509406/25/08 16:05:31  5-MIN KDBQ 252205Z 23007KT 10SM CLR 28/19 A2995 1050 56 2900 220/07 RMK AO2
94908KDBQ DBQ20080625161009406/25/08 16:10:31  5-MIN KDBQ 252210Z 24009KT 10SM CLR 28/19 A2995 1050 56 2900 230/09 RMK AO2
94908KDBQ DBQ20080625161509406/25/08 16:15:31  5-MIN KDBQ 252215Z 23008KT 10SM CLR 28/19 A2995 1050 56 2900 230/08 RMK AO2
94908KDBQ DBQ20080625162009406/25/08 16:20:31  5-MIN KDBQ 252220Z 23009KT 10SM CLR 28/19 A2995 1050 58 2900 230/09 RMK AO2
94908KDBQ DBQ20080625162509406/25/08 16:25:31  5-MIN KDBQ 252225Z 23008KT 10SM CLR 28/19 A2995 1050 58 2900 230/08 RMK AO2
94908KDBQ DBQ20080625163010006/25/08 16:30:31  5-MIN KDBQ 252230Z 24009G14KT 10SM CLR 28/19 A2995 1050 58 2900 240/09G14 RMK AO2
94908KDBQ DBQ20080625163510006/25/08 16:35:31  5-MIN KDBQ 252235Z 22008G14KT 10SM CLR 28/19 A2995 1050 56 2900 220/08G14 RMK AO2
94908KDBQ DBQ20080625164009406/25/08 16:40:31  5-MIN KDBQ 252240Z 25008KT 10SM CLR 28/19 A2994 1060 56 2900 240/08 RMK AO2
94908KDBQ DBQ20080625164509406/25/08 16:45:31  5-MIN KDBQ 252245Z 23007KT 10SM CLR 28/19 A2994 1060 58 2900 230/07 RMK AO2
94908KDBQ DBQ20080625165011106/25/08 16:50:31  5-MIN KDBQ 252250Z 22010KT 10SM CLR 28/19 A2994 1060 60 2800 220/10 RMK AO2 SLP133 T02780194
94908KDBQ DBQ20080625165509406/25/08 16:55:31  5-MIN KDBQ 252255Z 22008KT 10SM CLR 28/19 A2994 1060 58 2900 220/08 RMK AO2
94908KDBQ DBQ20080625170009406/25/08 17:00:31  5-MIN KDBQ 252300Z 23010KT 10SM CLR 28/19 A2994 1060 60 2800 230/10 RMK AO2
94908KDBQ DBQ20080625170509406/25/08 17:05:31  5-MIN KDBQ 252305Z 23008KT 10SM CLR 27/19 A2994 1060 60 2700 230/08 RMK AO2
94908KDBQ DBQ20080625171009406/25/08 17:10:31  5-MIN KDBQ 252310Z 24010KT 10SM CLR 27/19 A2994 1060 60 2700 240/10 RMK AO2
94908KDBQ DBQ20080625171509406/25/08 17:15:31  5-MIN KDBQ 252315Z 23007KT 10SM CLR 28/19 A2994 1060 58 2900 230/07 RMK AO2
94908KDBQ DBQ20080625172009406/25/08 17:20:31  5-MIN KDBQ 252320Z 22006KT 10SM CLR 28/19 A2994 1060 60 2800 220/06 RMK AO2
94908KDBQ DBQ20080625172509406/25/08 17:25:31  5-MIN KDBQ 252325Z 22008KT 10SM CLR 28/19 A2994 1060 60 2800 220/08 RMK AO2
94908KDBQ DBQ20080625173009406/25/08 17:30:31  5-MIN KDBQ 252330Z 22007KT 10SM CLR 28/20 A2994 1060 62 2800 220/07 RMK AO2
94908KDBQ DBQ20080625173509406/25/08 17:35:31  5-MIN KDBQ 252335Z 22006KT 10SM CLR 28/19 A2994 1060 60 2800 220/06 RMK AO2
94908KDBQ DBQ20080625174009406/25/08 17:40:31  5-MIN KDBQ 252340Z 23007KT 10SM CLR 28/20 A2994 1060 62 2800 230/07 RMK AO2
94908KDBQ DBQ20080625174509406/25/08 17:45:31  5-MIN KDBQ 252345Z 22007KT 10SM CLR 27/19 A2994 1060 62 2700 220/07 RMK AO2
94908KDBQ DBQ20080625175012906/25/08 17:50:31  5-MIN KDBQ 252350Z 22004KT 10SM CLR 27/20 A2994 1060 64 2700 220/04 RMK AO2 SLP131 T02720200 10283 20244 58002
94908KDBQ DBQ20080625175509406/25/08 17:55:31  5-MIN KDBQ 252355Z 21005KT 10SM CLR 27/20 A2994 1060 64 2700 210/05 RMK AO2
94908KDBQ DBQ20080625180009406/25/08 18:00:31  5-MIN KDBQ 260000Z 21005KT 10SM CLR 27/20 A2994 1060 64 2700 210/05 RMK AO2
94908KDBQ DBQ20080625180509406/25/08 18:05:31  5-MIN KDBQ 260005Z 21004KT 10SM CLR 27/20 A2994 1060 64 2700 210/04 RMK AO2
94908KDBQ DBQ20080625181009406/25/08 18:10:31  5-MIN KDBQ 260010Z 20004KT 10SM CLR 27/20 A2994 1060 64 2800 200/04 RMK AO2
94908KDBQ DBQ20080625181509406/25/08 18:15:31  5-MIN KDBQ 260015Z 21005KT 10SM CLR 27/21 A2994 1060 69 2700 210/05 RMK AO2
94908KDBQ DBQ20080625182009406/25/08 18:20:31  5-MIN KDBQ 260020Z 20004KT 10SM CLR 27/21 A2994 1060 69 2700 200/04 RMK AO2
94908KDBQ DBQ20080625182509406/25/08 18:25:31  5-MIN KDBQ 260025Z 20004KT 10SM CLR 27/21 A2993 1070 69 2700 190/04 RMK AO2
94908KDBQ DBQ20080625183009406/25/08 18:30:31  5-MIN KDBQ 260030Z 20004KT 10SM CLR 27/21 A2994 1060 69 2700 200/04 RMK AO2
94908KDBQ DBQ20080625183509406/25/08 18:35:31  5-MIN KDBQ 260035Z 20004KT 10SM CLR 27/21 A2993 1070 69 2700 200/04 RMK AO2
94908KDBQ DBQ20080625184009406/25/08 18:40:31  5-MIN KDBQ 260040Z 19004KT 10SM CLR 26/21 A2993 1070 71 2600 190/04 RMK AO2
94908KDBQ DBQ20080625184509406/25/08 18:45:31  5-MIN KDBQ 260045Z 17004KT 10SM CLR 26/21 A2993 1070 71 2600 170/04 RMK AO2
94908KDBQ DBQ20080625185011106/25/08 18:50:31  5-MIN KDBQ 260050Z 17005KT 10SM CLR 27/21 A2992 1070 69 2700 170/05 RMK AO2 SLP127 T02670206
94908KDBQ DBQ20080625185509406/25/08 18:55:31  5-MIN KDBQ 260055Z 18004KT 10SM CLR 26/21 A2993 1070 71 2600 170/04 RMK AO2
94908KDBQ DBQ20080625190009906/25/08 19:00:31  5-MIN KDBQ 260100Z AUTO 18004KT 10SM CLR 26/21 A2993 1070 71 2600 180/04 RMK AO2
94908KDBQ DBQ20080625190509906/25/08 19:05:31  5-MIN KDBQ 260105Z AUTO 17003KT 10SM CLR 26/21 A2992 1080 71 2600 170/03 RMK AO2
94908KDBQ DBQ20080625191009906/25/08 19:10:31  5-MIN KDBQ 260110Z AUTO 00000KT 10SM CLR 26/21 A2992 1080 71 2600 000/00 RMK AO2
94908KDBQ DBQ20080625191509906/25/08 19:15:31  5-MIN KDBQ 260115Z AUTO 19003KT 10SM CLR 26/21 A2992 1080 71 2600 190/03 RMK AO2
94908KDBQ DBQ20080625192009906/25/08 19:20:31  5-MIN KDBQ 260120Z AUTO 00000KT 10SM CLR 26/21 A2992 1080 73 2600 000/00 RMK AO2
94908KDBQ DBQ20080625192509906/25/08 19:25:31  5-MIN KDBQ 260125Z AUTO 19003KT 10SM CLR 26/21 A2992 1080 73 2600 190/03 RMK AO2
94908KDBQ DBQ20080625193009906/25/08 19:30:31  5-MIN KDBQ 260130Z AUTO 19003KT 10SM CLR 26/21 A2992 1080 73 2600 190/03 RMK AO2
94908KDBQ DBQ20080625193509906/25/08 19:35:31  5-MIN KDBQ 260135Z AUTO 00000KT 10SM CLR 26/21 A2992 1080 73 2600 000/00 RMK AO2
94908KDBQ DBQ20080625194009906/25/08 19:40:31  5-MIN KDBQ 260140Z AUTO 20003KT 10SM CLR 26/21 A2992 1080 73 2600 190/03 RMK AO2
94908KDBQ DBQ20080625194509906/25/08 19:45:31  5-MIN KDBQ 260145Z AUTO 19003KT 10SM CLR 26/21 A2991 1080 73 2600 190/03 RMK AO2
94908KDBQ DBQ20080625195011606/25/08 19:50:31  5-MIN KDBQ 260150Z AUTO 19004KT 10SM CLR 25/21 A2992 1080 76 2500 190/04 RMK AO2 SLP125 T02500206
94908KDBQ DBQ20080625195509906/25/08 19:55:31  5-MIN KDBQ 260155Z AUTO 19003KT 10SM CLR 25/21 A2992 1080 76 2500 190/03 RMK AO2
94908KDBQ DBQ20080625200009906/25/08 20:00:31  5-MIN KDBQ 260200Z AUTO 20004KT 10SM CLR 25/21 A2992 1080 76 2500 190/04 RMK AO2
94908KDBQ DBQ20080625200509906/25/08 20:05:31  5-MIN KDBQ 260205Z AUTO 21004KT 10SM CLR 25/21 A2993 1070 76 2500 210/04 RMK AO2
94908KDBQ DBQ20080625201009906/25/08 20:10:31  5-MIN KDBQ 260210Z AUTO 21004KT 10SM CLR 25/21 A2993 1070 76 2500 210/04 RMK AO2
94908KDBQ DBQ20080625201509906/25/08 20:15:31  5-MIN KDBQ 260215Z AUTO 20005KT 10SM CLR 25/21 A2992 1080 76 2500 200/05 RMK AO2
94908KDBQ DBQ20080625202009906/25/08 20:20:31  5-MIN KDBQ 260220Z AUTO 20004KT 10SM CLR 24/21 A2992 1080 81 2500 190/04 RMK AO2
94908KDBQ DBQ20080625202509906/25/08 20:25:31  5-MIN KDBQ 260225Z AUTO 19004KT 10SM CLR 24/21 A2992 1080 81 2500 190/04 RMK AO2
94908KDBQ DBQ20080625203009906/25/08 20:30:31  5-MIN KDBQ 260230Z AUTO 18004KT 10SM CLR 24/21 A2992 1080 78 2500 180/04 RMK AO2
94908KDBQ DBQ20080625203509906/25/08 20:35:31  5-MIN KDBQ 260235Z AUTO 18005KT 10SM CLR 24/21 A2992 1080 78 2500 180/05 RMK AO2
94908KDBQ DBQ20080625204009906/25/08 20:40:31  5-MIN KDBQ 260240Z AUTO 18005KT 10SM CLR 24/21 A2992 1080 78 2500 180/05 RMK AO2
94908KDBQ DBQ20080625204509906/25/08 20:45:31  5-MIN KDBQ 260245Z AUTO 18007KT 10SM CLR 24/21 A2992 1080 78 2500 180/07 RMK AO2
94908KDBQ DBQ20080625205012206/25/08 20:50:31  5-MIN KDBQ 260250Z AUTO 18009KT 10SM CLR 25/21 A2992 1070 76 2500 180/09 RMK AO2 SLP127 T02500206 56007
94908KDBQ DBQ20080625205509906/25/08 20:55:31  5-MIN KDBQ 260255Z AUTO 19008KT 10SM CLR 25/21 A2993 1070 76 2500 190/08 RMK AO2
94908KDBQ DBQ20080625210009906/25/08 21:00:31  5-MIN KDBQ 260300Z AUTO 19006KT 10SM CLR 25/21 A2993 1070 76 2500 190/06 RMK AO2
94908KDBQ DBQ20080625210509906/25/08 21:05:31  5-MIN KDBQ 260305Z AUTO 19006KT 10SM CLR 25/21 A2993 1070 76 2500 190/06 RMK AO2
94908KDBQ DBQ20080625211009906/25/08 21:10:31  5-MIN KDBQ 260310Z AUTO 20005KT 10SM CLR 25/21 A2993 1070 76 2500 200/05 RMK AO2
94908KDBQ DBQ20080625211509906/25/08 21:15:31  5-MIN KDBQ 260315Z AUTO 18004KT 10SM CLR 25/21 A2992 1080 76 2500 180/04 RMK AO2
94908KDBQ DBQ20080625212009906/25/08 21:20:31  5-MIN KDBQ 260320Z AUTO 18003KT 10SM CLR 25/21 A2992 1080 76 2500 180/03 RMK AO2
94908KDBQ DBQ20080625212509906/25/08 21:25:31  5-MIN KDBQ 260325Z AUTO 19004KT 10SM CLR 25/21 A2992 1080 76 2500 190/04 RMK AO2
94908KDBQ DBQ20080625213009906/25/08 21:30:31  5-MIN KDBQ 260330Z AUTO 19005KT 10SM CLR 24/21 A2992 1080 78 2500 190/05 RMK AO2
94908KDBQ DBQ20080625213509906/25/08 21:35:31  5-MIN KDBQ 260335Z AUTO 19004KT 10SM CLR 24/21 A2991 1080 78 2500 180/04 RMK AO2
94908KDBQ DBQ20080625214009906/25/08 21:40:31  5-MIN KDBQ 260340Z AUTO 18004KT 10SM CLR 24/21 A2991 1090 81 2500 180/04 RMK AO2
94908KDBQ DBQ20080625214509906/25/08 21:45:31  5-MIN KDBQ 260345Z AUTO 19005KT 10SM CLR 24/21 A2991 1090 81 2500 190/05 RMK AO2
94908KDBQ DBQ20080625215011506/25/08 21:50:31  5-MIN KDBQ 260350Z AUTO 19004KT 9SM CLR 24/21 A2990 1090 81 2500 190/04 RMK AO2 SLP119 T02440211
94908KDBQ DBQ20080625215509806/25/08 21:55:31  5-MIN KDBQ 260355Z AUTO 19004KT 9SM CLR 24/21 A2990 1100 81 2500 190/04 RMK AO2
94908KDBQ DBQ20080625220009806/25/08 22:00:31  5-MIN KDBQ 260400Z AUTO 20004KT 9SM CLR 24/21 A2990 1100 81 2500 190/04 RMK AO2
94908KDBQ DBQ20080625220509806/25/08 22:05:31  5-MIN KDBQ 260405Z AUTO 19004KT 9SM CLR 24/21 A2989 1110 81 2500 190/04 RMK AO2
94908KDBQ DBQ20080625221009806/25/08 22:10:31  5-MIN KDBQ 260410Z AUTO 21008KT 9SM CLR 24/21 A2989 1110 81 2500 210/08 RMK AO2
94908KDBQ DBQ20080625221509806/25/08 22:15:31  5-MIN KDBQ 260415Z AUTO 22008KT 9SM CLR 24/21 A2989 1110 81 2500 220/08 RMK AO2
94908KDBQ DBQ20080625222011106/25/08 22:20:31  5-MIN KDBQ 260420Z AUTO 24007KT 10SM CLR 24/20 A2989 1110 76 2500 240/07 RMK AO2 LTG DSNT SW
94908KDBQ DBQ20080625222511106/25/08 22:25:31  5-MIN KDBQ 260425Z AUTO 25008KT 10SM CLR 24/19 A2989 1110 73 2500 250/08 RMK AO2 LTG DSNT SW
94908KDBQ DBQ20080625223011706/25/08 22:30:31  5-MIN KDBQ 260430Z AUTO 25006KT 10SM CLR 24/18 A2989 1100 68 2400 250/06 RMK AO2 LTG DSNT S AND SW
94908KDBQ DBQ20080625223511006/25/08 22:35:31  5-MIN KDBQ 260435Z AUTO 25005KT 10SM CLR 24/17 A2989 1110 66 2400 240/05 RMK AO2 LTG DSNT S
94908KDBQ DBQ20080625224011006/25/08 22:40:31  5-MIN KDBQ 260440Z AUTO 23005KT 10SM CLR 23/17 A2989 1110 68 2400 230/05 RMK AO2 LTG DSNT S
94908KDBQ DBQ20080625224509906/25/08 22:45:31  5-MIN KDBQ 260445Z AUTO 24006KT 10SM CLR 23/17 A2989 1100 68 2400 240/06 RMK AO2
94908KDBQ DBQ20080625225011606/25/08 22:50:31  5-MIN KDBQ 260450Z AUTO 25006KT 10SM CLR 23/17 A2990 1100 70 2300 250/06 RMK AO2 SLP117 T02280172
94908KDBQ DBQ20080625225511006/25/08 22:55:31  5-MIN KDBQ 260455Z AUTO 26006KT 10SM CLR 23/17 A2991 1090 68 2300 260/06 RMK AO2 LTG DSNT S
94908KDBQ DBQ20080625230011006/25/08 23:00:31  5-MIN KDBQ 260500Z AUTO 26006KT 10SM CLR 24/17 A2991 1090 63 2400 260/06 RMK AO2 LTG DSNT S
94908KDBQ DBQ20080625230511006/25/08 23:05:31  5-MIN KDBQ 260505Z AUTO 25006KT 10SM CLR 23/17 A2991 1090 66 2300 250/06 RMK AO2 LTG DSNT S
94908KDBQ DBQ20080625231011006/25/08 23:10:31  5-MIN KDBQ 260510Z AUTO 21005KT 10SM CLR 23/17 A2990 1100 68 2300 210/05 RMK AO2 LTG DSNT S
94908KDBQ DBQ20080625231511006/25/08 23:15:31  5-MIN KDBQ 260515Z AUTO 22005KT 10SM CLR 23/17 A2990 1090 68 2300 220/05 RMK AO2 LTG DSNT S
94908KDBQ DBQ20080625232011006/25/08 23:20:31  5-MIN KDBQ 260520Z AUTO 25003KT 10SM CLR 23/17 A2991 1090 68 2300 250/03 RMK AO2 LTG DSNT S
94908KDBQ DBQ20080625232511006/25/08 23:25:31  5-MIN KDBQ 260525Z AUTO 21003KT 10SM CLR 23/17 A2990 1090 68 2300 210/03 RMK AO2 LTG DSNT S
94908KDBQ DBQ20080625233011006/25/08 23:30:31  5-MIN KDBQ 260530Z AUTO 19003KT 10SM CLR 23/17 A2990 1090 68 2300 190/03 RMK AO2 LTG DSNT S
94908KDBQ DBQ20080625233511006/25/08 23:35:31  5-MIN KDBQ 260535Z AUTO 20004KT 10SM CLR 22/17 A2991 1090 73 2200 200/04 RMK AO2 LTG DSNT S
94908KDBQ DBQ20080625234009906/25/08 23:40:31  5-MIN KDBQ 260540Z AUTO 21003KT 10SM CLR 22/17 A2990 1090 73 2200 210/03 RMK AO2
94908KDBQ DBQ20080625234509906/25/08 23:45:31  5-MIN KDBQ 260545Z AUTO 20006KT 10SM CLR 22/17 A2990 1100 73 2200 200/06 RMK AO2
94908KDBQ DBQ20080625235014406/25/08 23:50:31  5-MIN KDBQ 260550Z AUTO 19008KT 10SM CLR 22/17 A2990 1100 75 2200 190/08 RMK AO2 SLP118 T02170172 10272 20217 402830183 55004
94908KDBQ DBQ20080625235509906/25/08 23:55:31  5-MIN KDBQ 260555Z AUTO 21007KT 10SM CLR 22/17 A2991 1090 73 2200 210/07 RMK AO2
94908KDBQ DBQ20080626000009906/26/08 00:00:38  5-MIN KDBQ 260600Z AUTO 21007KT 10SM CLR 22/17 A2991 1090 73 2200 210/07 RMK AO2
94908KDBQ DBQ20080626000509906/26/08 00:05:31  5-MIN KDBQ 260605Z AUTO 20008KT 10SM CLR 22/17 A2992 1080 73 2200 200/08 RMK AO2
94908KDBQ DBQ20080626001009906/26/08 00:10:31  5-MIN KDBQ 260610Z AUTO 19007KT 10SM CLR 22/17 A2991 1080 75 2100 190/07 RMK AO2
94908KDBQ DBQ20080626001509906/26/08 00:15:32  5-MIN KDBQ 260615Z AUTO 20009KT 10SM CLR 22/17 A2992 1080 75 2100 200/09 RMK AO2
94908KDBQ DBQ20080626002009906/26/08 00:20:31  5-MIN KDBQ 260620Z AUTO 20008KT 10SM CLR 22/17 A2992 1080 75 2100 200/08 RMK AO2
94908KDBQ DBQ20080626002509906/26/08 00:25:31  5-MIN KDBQ 260625Z AUTO 21007KT 10SM CLR 22/17 A2993 1070 75 2100 210/07 RMK AO2
94908KDBQ DBQ20080626003009906/26/08 00:30:31  5-MIN KDBQ 260630Z AUTO 21006KT 10SM CLR 22/17 A2993 1070 75 2100 210/06 RMK AO2
94908KDBQ DBQ20080626003509906/26/08 00:35:31  5-MIN KDBQ 260635Z AUTO 21007KT 10SM CLR 22/17 A2993 1070 75 2100 210/07 RMK AO2
94908KDBQ DBQ20080626004009906/26/08 00:40:31  5-MIN KDBQ 260640Z AUTO 20007KT 10SM CLR 21/17 A2993 1070 78 2100 200/07 RMK AO2
94908KDBQ DBQ20080626004509906/26/08 00:45:31  5-MIN KDBQ 260645Z AUTO 21006KT 10SM CLR 21/17 A2993 1070 78 2100 210/06 RMK AO2
94908KDBQ DBQ20080626005011606/26/08 00:50:31  5-MIN KDBQ 260650Z AUTO 23005KT 10SM CLR 21/17 A2993 1070 78 2100 230/05 RMK AO2 SLP129 T02110172
94908KDBQ DBQ20080626005509906/26/08 00:55:31  5-MIN KDBQ 260655Z AUTO 22005KT 10SM CLR 21/17 A2993 1070 78 2100 220/05 RMK AO2
94908KDBQ DBQ20080626010009906/26/08 01:00:31  5-MIN KDBQ 260700Z AUTO 24004KT 10SM CLR 21/17 A2993 1070 78 2100 240/04 RMK AO2
94908KDBQ DBQ20080626010509906/26/08 01:05:31  5-MIN KDBQ 260705Z AUTO 25005KT 10SM CLR 21/17 A2992 1070 81 2000 250/05 RMK AO2
94908KDBQ DBQ20080626011009906/26/08 01:10:31  5-MIN KDBQ 260710Z AUTO 24005KT 10SM CLR 21/17 A2992 1080 81 2000 240/05 RMK AO2
94908KDBQ DBQ20080626011509906/26/08 01:15:31  5-MIN KDBQ 260715Z AUTO 23006KT 10SM CLR 21/17 A2992 1080 81 2000 230/06 RMK AO2
94908KDBQ DBQ20080626012009906/26/08 01:20:31  5-MIN KDBQ 260720Z AUTO 24007KT 10SM CLR 21/17 A2992 1080 78 2100 240/07 RMK AO2
94908KDBQ DBQ20080626012509906/26/08 01:25:31  5-MIN KDBQ 260725Z AUTO 24009KT 10SM CLR 21/17 A2992 1080 78 2100 240/09 RMK AO2
94908KDBQ DBQ20080626013009906/26/08 01:30:31  5-MIN KDBQ 260730Z AUTO 25010KT 10SM CLR 22/17 A2992 1070 73 2100 250/10 RMK AO2
94908KDBQ DBQ20080626013509906/26/08 01:35:31  5-MIN KDBQ 260735Z AUTO 26009KT 10SM CLR 21/17 A2993 1070 75 2100 250/09 RMK AO2
94908KDBQ DBQ20080626014009906/26/08 01:40:31  5-MIN KDBQ 260740Z AUTO 26010KT 10SM CLR 21/17 A2993 1070 75 2100 260/10 RMK AO2
94908KDBQ DBQ20080626014509906/26/08 01:45:31  5-MIN KDBQ 260745Z AUTO 25010KT 10SM CLR 21/17 A2993 1070 75 2100 250/10 RMK AO2
94908KDBQ DBQ20080626015011606/26/08 01:50:31  5-MIN KDBQ 260750Z AUTO 24010KT 10SM CLR 21/17 A2993 1070 75 2100 240/10 RMK AO2 SLP128 T02110167
94908KDBQ DBQ20080626015509906/26/08 01:55:31  5-MIN KDBQ 260755Z AUTO 24008KT 10SM CLR 21/17 A2993 1070 75 2100 240/08 RMK AO2
94908KDBQ DBQ20080626020010506/26/08 02:00:31  5-MIN KDBQ 260800Z AUTO 25010G16KT 10SM CLR 21/17 A2993 1070 75 2100 250/10G16 RMK AO2
94908KDBQ DBQ20080626020509906/26/08 02:05:31  5-MIN KDBQ 260805Z AUTO 24011KT 10SM CLR 21/17 A2994 1060 78 2000 240/11 RMK AO2
94908KDBQ DBQ20080626021009906/26/08 02:10:31  5-MIN KDBQ 260810Z AUTO 24010KT 10SM CLR 21/17 A2994 1060 75 2100 240/10 RMK AO2
94908KDBQ DBQ20080626021509906/26/08 02:15:31  5-MIN KDBQ 260815Z AUTO 24008KT 10SM CLR 21/17 A2994 1060 78 2000 240/08 RMK AO2
94908KDBQ DBQ20080626022009906/26/08 02:20:31  5-MIN KDBQ 260820Z AUTO 24009KT 10SM CLR 21/17 A2995 1050 78 2000 240/09 RMK AO2
94908KDBQ DBQ20080626022509906/26/08 02:25:31  5-MIN KDBQ 260825Z AUTO 24007KT 10SM CLR 21/17 A2995 1050 78 2000 240/07 RMK AO2
94908KDBQ DBQ20080626023009906/26/08 02:30:31  5-MIN KDBQ 260830Z AUTO 24007KT 10SM CLR 21/17 A2995 1050 78 2000 240/07 RMK AO2
94908KDBQ DBQ20080626023509906/26/08 02:35:31  5-MIN KDBQ 260835Z AUTO 26006KT 10SM CLR 21/17 A2995 1050 78 2000 250/06 RMK AO2
94908KDBQ DBQ20080626024009906/26/08 02:40:31  5-MIN KDBQ 260840Z AUTO 25006KT 10SM CLR 20/17 A2994 1060 81 1900 250/06 RMK AO2
94908KDBQ DBQ20080626024510206/26/08 02:45:31  5-MIN KDBQ 260845Z AUTO 22005KT 10SM FEW060 20/17 A2994 1060 81 1900 220/05 RMK AO2
94908KDBQ DBQ20080626025012506/26/08 02:50:31  5-MIN KDBQ 260850Z AUTO 23004KT 10SM FEW060 20/17 A2994 1060 81 1900 230/04 RMK AO2 SLP133 T02000167 56008
94908KDBQ DBQ20080626025510206/26/08 02:55:31  5-MIN KDBQ 260855Z AUTO 24005KT 10SM FEW060 20/17 A2994 1060 81 1900 240/05 RMK AO2
94908KDBQ DBQ20080626030010206/26/08 03:00:31  5-MIN KDBQ 260900Z AUTO 24006KT 10SM FEW060 20/17 A2994 1060 81 1900 240/06 RMK AO2
94908KDBQ DBQ20080626030510206/26/08 03:05:31  5-MIN KDBQ 260905Z AUTO 24004KT 10SM SCT060 20/17 A2994 1060 81 1900 240/04 RMK AO2
94908KDBQ DBQ20080626031010206/26/08 03:10:31  5-MIN KDBQ 260910Z AUTO 23004KT 10SM BKN060 20/17 A2994 1060 81 1900 230/04 RMK AO2
94908KDBQ DBQ20080626031510206/26/08 03:15:31  5-MIN KDBQ 260915Z AUTO 19003KT 10SM BKN060 19/17 A2994 1060 84 1900 190/03 RMK AO2
94908KDBQ DBQ20080626032010206/26/08 03:20:31  5-MIN KDBQ 260920Z AUTO 20003KT 10SM BKN060 19/17 A2994 1060 84 1900 200/03 RMK AO2
94908KDBQ DBQ20080626032510206/26/08 03:25:31  5-MIN KDBQ 260925Z AUTO 00000KT 10SM BKN060 19/17 A2995 1050 84 1900 000/00 RMK AO2
94908KDBQ DBQ20080626033010206/26/08 03:30:31  5-MIN KDBQ 260930Z AUTO 00000KT 10SM OVC060 19/17 A2995 1050 84 1900 000/00 RMK AO2
94908KDBQ DBQ20080626033510206/26/08 03:35:31  5-MIN KDBQ 260935Z AUTO 26004KT 10SM OVC060 20/17 A2994 1060 81 1900 260/04 RMK AO2
94908KDBQ DBQ20080626034010206/26/08 03:40:31  5-MIN KDBQ 260940Z AUTO 27004KT 10SM BKN060 20/17 A2994 1060 81 1900 270/04 RMK AO2
94908KDBQ DBQ20080626034510206/26/08 03:45:31  5-MIN KDBQ 260945Z AUTO 27004KT 10SM BKN060 20/17 A2994 1060 81 1900 270/04 RMK AO2
94908KDBQ DBQ20080626035011906/26/08 03:50:31  5-MIN KDBQ 260950Z AUTO 22004KT 10SM BKN060 20/17 A2994 1060 81 1900 220/04 RMK AO2 SLP133 T02000167
94908KDBQ DBQ20080626035510206/26/08 03:55:31  5-MIN KDBQ 260955Z AUTO 22003KT 10SM BKN060 19/17 A2995 1050 84 1900 220/03 RMK AO2
94908KDBQ DBQ20080626040010206/26/08 04:00:31  5-MIN KDBQ 261000Z AUTO 24003KT 10SM BKN060 19/17 A2995 1050 84 1900 240/03 RMK AO2
94908KDBQ DBQ20080626040510206/26/08 04:05:31  5-MIN KDBQ 261005Z AUTO 25004KT 10SM BKN060 19/17 A2995 1050 84 1900 250/04 RMK AO2
94908KDBQ DBQ20080626041010206/26/08 04:10:31  5-MIN KDBQ 261010Z AUTO 26005KT 10SM BKN060 19/17 A2996 1050 84 1800 260/05 RMK AO2
94908KDBQ DBQ20080626041510206/26/08 04:15:31  5-MIN KDBQ 261015Z AUTO 27006KT 10SM BKN060 20/17 A2995 1060 81 1900 260/06 RMK AO2
94908KDBQ DBQ20080626042010206/26/08 04:20:31  5-MIN KDBQ 261020Z AUTO 27005KT 10SM BKN060 19/17 A2995 1060 84 1900 270/05 RMK AO2
94908KDBQ DBQ20080626042510206/26/08 04:25:31  5-MIN KDBQ 261025Z AUTO 27007KT 10SM BKN065 19/17 A2995 1050 84 1900 270/07 RMK AO2
94908KDBQ DBQ20080626043010206/26/08 04:30:31  5-MIN KDBQ 261030Z AUTO 27006KT 10SM BKN065 19/17 A2995 1060 84 1900 270/06 RMK AO2
94908KDBQ DBQ20080626043510206/26/08 04:35:31  5-MIN KDBQ 261035Z AUTO 27006KT 10SM BKN065 19/17 A2995 1050 84 1900 270/06 RMK AO2
94908KDBQ DBQ20080626044010206/26/08 04:40:31  5-MIN KDBQ 261040Z AUTO 26005KT 10SM SCT065 19/17 A2994 1060 84 1900 260/05 RMK AO2
94908KDBQ DBQ20080626044510206/26/08 04:45:31  5-MIN KDBQ 261045Z AUTO 25004KT 10SM FEW070 19/17 A2994 1060 84 1900 250/04 RMK AO2
94908KDBQ DBQ20080626045011406/26/08 04:50:31  5-MIN KDBQ 261050Z 26003KT 10SM FEW070 19/17 A2994 1060 84 1900 260/03 RMK AO2 SLP130 T01940167
94908KDBQ DBQ20080626045509706/26/08 04:55:31  5-MIN KDBQ 261055Z 27003KT 10SM FEW070 19/17 A2993 1070 84 1900 270/03 RMK AO2
94908KDBQ DBQ20080626050009406/26/08 05:00:31  5-MIN KDBQ 261100Z 29004KT 10SM CLR 19/17 A2994 1060 84 1900 290/04 RMK AO2
94908KDBQ DBQ20080626050509406/26/08 05:05:31  5-MIN KDBQ 261105Z 29003KT 10SM CLR 19/17 A2993 1070 84 1900 290/03 RMK AO2
94908KDBQ DBQ20080626051009406/26/08 05:10:31  5-MIN KDBQ 261110Z 00000KT 10SM CLR 19/17 A2994 1060 84 1900 000/00 RMK AO2
94908KDBQ DBQ20080626051509406/26/08 05:15:31  5-MIN KDBQ 261115Z 00000KT 10SM CLR 19/17 A2994 1060 84 1900 000/00 RMK AO2
94908KDBQ DBQ20080626052009406/26/08 05:20:31  5-MIN KDBQ 261120Z 16003KT 10SM CLR 19/17 A2994 1060 84 1900 160/03 RMK AO2
94908KDBQ DBQ20080626052509406/26/08 05:25:31  5-MIN KDBQ 261125Z 15004KT 10SM CLR 19/17 A2994 1060 87 1900 150/04 RMK AO2
94908KDBQ DBQ20080626053009406/26/08 05:30:31  5-MIN KDBQ 261130Z 17004KT 10SM CLR 19/17 A2994 1060 87 1900 170/04 RMK AO2
94908KDBQ DBQ20080626053509406/26/08 05:35:31  5-MIN KDBQ 261135Z 19004KT 10SM CLR 19/17 A2994 1060 87 1900 190/04 RMK AO2
94908KDBQ DBQ20080626054009406/26/08 05:40:31  5-MIN KDBQ 261140Z 23003KT 10SM CLR 19/17 A2994 1060 87 1900 230/03 RMK AO2
94908KDBQ DBQ20080626054509406/26/08 05:45:31  5-MIN KDBQ 261145Z 21004KT 10SM CLR 19/17 A2994 1060 87 1900 210/04 RMK AO2
94908KDBQ DBQ20080626055012906/26/08 05:50:31  5-MIN KDBQ 261150Z 19004KT 10SM CLR 19/17 A2994 1060 87 1900 190/04 RMK AO2 SLP132 T01940172 10222 20189 51013
94908KDBQ DBQ20080626055509406/26/08 05:55:31  5-MIN KDBQ 261155Z 22003KT 10SM CLR 19/17 A2994 1060 87 1900 220/03 RMK AO2
94908KDBQ DBQ20080626060009406/26/08 06:00:31  5-MIN KDBQ 261200Z 27003KT 10SM CLR 19/17 A2994 1060 87 1900 270/03 RMK AO2
94908KDBQ DBQ20080626060509406/26/08 06:05:31  5-MIN KDBQ 261205Z 29003KT 10SM CLR 19/17 A2994 1060 87 1900 290/03 RMK AO2
94908KDBQ DBQ20080626061009406/26/08 06:10:31  5-MIN KDBQ 261210Z 00000KT 10SM CLR 20/17 A2994 1060 84 1900 000/00 RMK AO2
94908KDBQ DBQ20080626061509406/26/08 06:15:31  5-MIN KDBQ 261215Z 25003KT 10SM CLR 21/18 A2994 1060 84 2000 250/03 RMK AO2
94908KDBQ DBQ20080626062009406/26/08 06:20:31  5-MIN KDBQ 261220Z 28004KT 10SM CLR 21/18 A2994 1060 81 2100 280/04 RMK AO2
94908KDBQ DBQ20080626062509406/26/08 06:25:31  5-MIN KDBQ 261225Z 27004KT 10SM CLR 21/17 A2993 1060 78 2100 270/04 RMK AO2
94908KDBQ DBQ20080626063009406/26/08 06:30:31  5-MIN KDBQ 261230Z 28003KT 10SM CLR 22/18 A2993 1070 78 2100 270/03 RMK AO2
94908KDBQ DBQ20080626063509406/26/08 06:35:31  5-MIN KDBQ 261235Z 28005KT 10SM CLR 22/17 A2993 1070 75 2100 270/05 RMK AO2
94908KDBQ DBQ20080626064009406/26/08 06:40:31  5-MIN KDBQ 261240Z 28005KT 10SM CLR 22/18 A2993 1070 78 2100 270/05 RMK AO2
94908KDBQ DBQ20080626064509406/26/08 06:45:31  5-MIN KDBQ 261245Z 27006KT 10SM CLR 22/18 A2993 1070 75 2200 270/06 RMK AO2
94908KDBQ DBQ20080626065011106/26/08 06:50:31  5-MIN KDBQ 261250Z 26006KT 10SM CLR 22/18 A2993 1070 75 2200 260/06 RMK AO2 SLP126 T02220178
94908KDBQ DBQ20080626065509406/26/08 06:55:31  5-MIN KDBQ 261255Z 25004KT 10SM CLR 22/18 A2992 1080 75 2200 250/04 RMK AO2
94908KDBQ DBQ20080626070009406/26/08 07:00:31  5-MIN KDBQ 261300Z 24005KT 10SM CLR 22/18 A2992 1080 75 2200 240/05 RMK AO2
94908KDBQ DBQ20080626070509406/26/08 07:05:31  5-MIN KDBQ 261305Z 24003KT 10SM CLR 22/18 A2992 1080 75 2200 240/03 RMK AO2
94908KDBQ DBQ20080626071009406/26/08 07:10:31  5-MIN KDBQ 261310Z 25005KT 10SM CLR 22/18 A2992 1080 78 2200 250/05 RMK AO2
94908KDBQ DBQ20080626071509406/26/08 07:15:31  5-MIN KDBQ 261315Z 27005KT 10SM CLR 23/18 A2992 1080 76 2300 270/05 RMK AO2
94908KDBQ DBQ20080626072009406/26/08 07:20:31  5-MIN KDBQ 261320Z 27004KT 10SM CLR 23/18 A2992 1080 73 2300 270/04 RMK AO2
94908KDBQ DBQ20080626072509406/26/08 07:25:31  5-MIN KDBQ 261325Z 25004KT 10SM CLR 23/18 A2992 1080 73 2300 250/04 RMK AO2
94908KDBQ DBQ20080626073009406/26/08 07:30:31  5-MIN KDBQ 261330Z 25005KT 10SM CLR 23/18 A2992 1080 76 2300 250/05 RMK AO2
94908KDBQ DBQ20080626073509406/26/08 07:35:31  5-MIN KDBQ 261335Z 26005KT 10SM CLR 23/18 A2992 1080 76 2300 260/05 RMK AO2
94908KDBQ DBQ20080626074009406/26/08 07:40:31  5-MIN KDBQ 261340Z 29005KT 10SM CLR 23/18 A2992 1080 73 2300 280/05 RMK AO2
94908KDBQ DBQ20080626074509406/26/08 07:45:31  5-MIN KDBQ 261345Z 27005KT 10SM CLR 23/18 A2992 1080 73 2300 270/05 RMK AO2
94908KDBQ DBQ20080626075011106/26/08 07:50:31  5-MIN KDBQ 261350Z VRB03KT 10SM CLR 23/18 A2992 1080 73 2300 VRB/03 RMK AO2 SLP123 T02330183
94908KDBQ DBQ20080626075509406/26/08 07:55:31  5-MIN KDBQ 261355Z 27005KT 10SM CLR 24/19 A2991 1080 73 2400 270/05 RMK AO2
94908KDBQ DBQ20080626080009406/26/08 08:00:31  5-MIN KDBQ 261400Z 27005KT 10SM CLR 23/18 A2992 1080 73 2300 270/05 RMK AO2
94908KDBQ DBQ20080626080509406/26/08 08:05:31  5-MIN KDBQ 261405Z 28005KT 10SM CLR 24/18 A2991 1080 71 2400 280/05 RMK AO2
94908KDBQ DBQ20080626081009406/26/08 08:10:31  5-MIN KDBQ 261410Z 26005KT 10SM CLR 24/18 A2992 1080 71 2400 260/05 RMK AO2
94908KDBQ DBQ20080626081509406/26/08 08:15:31  5-MIN KDBQ 261415Z 27006KT 10SM CLR 24/19 A2992 1080 73 2400 270/06 RMK AO2
94908KDBQ DBQ20080626082009406/26/08 08:20:31  5-MIN KDBQ 261420Z 27006KT 10SM CLR 24/19 A2992 1080 73 2400 270/06 RMK AO2
94908KDBQ DBQ20080626082509406/26/08 08:25:31  5-MIN KDBQ 261425Z 25006KT 10SM CLR 24/19 A2992 1080 73 2400 250/06 RMK AO2
94908KDBQ DBQ20080626083009406/26/08 08:30:31  5-MIN KDBQ 261430Z 26007KT 10SM CLR 24/19 A2992 1080 71 2500 260/07 RMK AO2
94908KDBQ DBQ20080626083509406/26/08 08:35:31  5-MIN KDBQ 261435Z 25008KT 10SM CLR 24/19 A2992 1070 71 2500 250/08 RMK AO2
94908KDBQ DBQ20080626084009406/26/08 08:40:31  5-MIN KDBQ 261440Z 28007KT 10SM CLR 24/19 A2993 1070 71 2400 280/07 RMK AO2
94908KDBQ DBQ20080626084509406/26/08 08:45:31  5-MIN KDBQ 261445Z 27007KT 10SM CLR 25/19 A2993 1070 68 2500 270/07 RMK AO2
94908KDBQ DBQ20080626085011706/26/08 08:50:31  5-MIN KDBQ 261450Z 27006KT 10SM CLR 24/19 A2992 1070 71 2500 260/06 RMK AO2 SLP126 T02440189 55000
94908KDBQ DBQ20080626085509406/26/08 08:55:31  5-MIN KDBQ 261455Z 25008KT 10SM CLR 24/19 A2992 1080 71 2500 250/08 RMK AO2
94908KDBQ DBQ20080626090009406/26/08 09:00:31  5-MIN KDBQ 261500Z 26007KT 10SM CLR 24/19 A2993 1070 71 2400 260/07 RMK AO2
94908KDBQ DBQ20080626090509406/26/08 09:05:31  5-MIN KDBQ 261505Z 27007KT 10SM CLR 25/19 A2993 1070 68 2500 270/07 RMK AO2
94908KDBQ DBQ20080626091009406/26/08 09:10:31  5-MIN KDBQ 261510Z 29006KT 10SM CLR 25/19 A2993 1070 68 2500 290/06 RMK AO2
94908KDBQ DBQ20080626091509406/26/08 09:15:31  5-MIN KDBQ 261515Z 28007KT 10SM CLR 25/19 A2993 1070 71 2500 280/07 RMK AO2
94908KDBQ DBQ20080626092009406/26/08 09:20:31  5-MIN KDBQ 261520Z 29009KT 10SM CLR 26/19 A2993 1070 68 2600 290/09 RMK AO2
94908KDBQ DBQ20080626092509406/26/08 09:25:31  5-MIN KDBQ 261525Z 29008KT 10SM CLR 26/19 A2993 1070 68 2600 280/08 RMK AO2
94908KDBQ DBQ20080626093009306/26/08 09:30:31  5-MIN KDBQ 261530Z 29007KT 8SM CLR 26/19 A2993 1070 68 2600 290/07 RMK AO2
94908KDBQ DBQ20080626093509306/26/08 09:35:31  5-MIN KDBQ 261535Z 30008KT 8SM CLR 26/19 A2993 1070 68 2600 300/08 RMK AO2
94908KDBQ DBQ20080626094009406/26/08 09:40:31  5-MIN KDBQ 261540Z 29008KT 10SM CLR 26/19 A2993 1070 68 2600 290/08 RMK AO2
94908KDBQ DBQ20080626094509406/26/08 09:45:31  5-MIN KDBQ 261545Z 29006KT 10SM CLR 26/19 A2992 1080 66 2600 290/06 RMK AO2
94908KDBQ DBQ20080626095011106/26/08 09:50:31  5-MIN KDBQ 261550Z 30007KT 10SM CLR 26/19 A2992 1070 68 2600 300/07 RMK AO2 SLP126 T02560194
94908KDBQ DBQ20080626095509406/26/08 09:55:31  5-MIN KDBQ 261555Z 30010KT 10SM CLR 26/19 A2993 1070 66 2600 300/10 RMK AO2
94908KDBQ DBQ20080626100009406/26/08 10:00:31  5-MIN KDBQ 261600Z 29010KT 10SM CLR 26/18 A2993 1070 61 2600 290/10 RMK AO2
94908KDBQ DBQ20080626100509406/26/08 10:05:31  5-MIN KDBQ 261605Z 31010KT 10SM CLR 26/18 A2993 1070 62 2600 310/10 RMK AO2
94908KDBQ DBQ20080626101009406/26/08 10:10:31  5-MIN KDBQ 261610Z 29010KT 10SM CLR 26/18 A2992 1070 64 2600 290/10 RMK AO2
94908KDBQ DBQ20080626101509406/26/08 10:15:31  5-MIN KDBQ 261615Z 30009KT 10SM CLR 26/18 A2993 1070 59 2600 290/09 RMK AO2
94908KDBQ DBQ20080626102009406/26/08 10:20:31  5-MIN KDBQ 261620Z 29009KT 10SM CLR 26/18 A2993 1070 62 2600 290/09 RMK AO2
94908KDBQ DBQ20080626102509406/26/08 10:25:31  5-MIN KDBQ 261625Z 29009KT 10SM CLR 26/18 A2993 1070 62 2600 290/09 RMK AO2
94908KDBQ DBQ20080626103009406/26/08 10:30:31  5-MIN KDBQ 261630Z 28010KT 10SM CLR 26/18 A2994 1060 62 2600 270/10 RMK AO2
94908KDBQ DBQ20080626103509406/26/08 10:35:31  5-MIN KDBQ 261635Z 28009KT 10SM CLR 26/18 A2994 1060 59 2600 280/09 RMK AO2
94908KDBQ DBQ20080626104009406/26/08 10:40:31  5-MIN KDBQ 261640Z 28011KT 10SM CLR 26/18 A2994 1060 61 2600 280/11 RMK AO2
94908KDBQ DBQ20080626104509406/26/08 10:45:31  5-MIN KDBQ 261645Z 29009KT 10SM CLR 26/18 A2994 1060 61 2600 290/09 RMK AO2
94908KDBQ DBQ20080626105011106/26/08 10:50:31  5-MIN KDBQ 261650Z 27010KT 10SM CLR 26/18 A2994 1060 61 2600 270/10 RMK AO2 SLP132 T02560178
94908KDBQ DBQ20080626105509406/26/08 10:55:31  5-MIN KDBQ 261655Z 28007KT 10SM CLR 26/18 A2994 1060 61 2600 270/07 RMK AO2
94908KDBQ DBQ20080626110009406/26/08 11:00:31  5-MIN KDBQ 261700Z 27011KT 10SM CLR 26/18 A2994 1060 61 2600 270/11 RMK AO2
94908KDBQ DBQ20080626110509406/26/08 11:05:31  5-MIN KDBQ 261705Z 27007KT 10SM CLR 26/18 A2994 1060 61 2600 270/07 RMK AO2
94908KDBQ DBQ20080626111009406/26/08 11:10:31  5-MIN KDBQ 261710Z 26008KT 10SM CLR 25/18 A2994 1060 64 2500 260/08 RMK AO2
94908KDBQ DBQ20080626111509406/26/08 11:15:31  5-MIN KDBQ 261715Z 27009KT 10SM CLR 25/18 A2994 1060 64 2500 260/09 RMK AO2
94908KDBQ DBQ20080626112009406/26/08 11:20:31  5-MIN KDBQ 261720Z 26009KT 10SM CLR 25/18 A2994 1060 64 2500 260/09 RMK AO2
94908KDBQ DBQ20080626112509706/26/08 11:25:31  5-MIN KDBQ 261725Z 28007KT 10SM FEW055 25/17 A2994 1060 61 2500 280/07 RMK AO2
94908KDBQ DBQ20080626113009706/26/08 11:30:31  5-MIN KDBQ 261730Z 27007KT 10SM FEW055 25/18 A2994 1060 64 2500 270/07 RMK AO2
94908KDBQ DBQ20080626113509706/26/08 11:35:31  5-MIN KDBQ 261735Z 26006KT 10SM FEW060 25/18 A2994 1060 64 2500 260/06 RMK AO2
94908KDBQ DBQ20080626114009706/26/08 11:40:31  5-MIN KDBQ 261740Z 27006KT 10SM SCT060 25/18 A2994 1060 64 2500 270/06 RMK AO2
94908KDBQ DBQ20080626114509706/26/08 11:45:31  5-MIN KDBQ 261745Z 27006KT 10SM BKN060 25/18 A2994 1060 66 2500 270/06 RMK AO2
94908KDBQ DBQ20080626115013206/26/08 11:50:31  5-MIN KDBQ 261750Z 27007KT 10SM BKN060 25/18 A2994 1060 66 2500 270/07 RMK AO2 SLP132 T02500183 10261 20194 55006
94908KDBQ DBQ20080626115509706/26/08 11:55:31  5-MIN KDBQ 261755Z 27007KT 10SM BKN060 25/18 A2994 1060 66 2500 270/07 RMK AO2
94908KDBQ DBQ20080626120009706/26/08 12:00:31  5-MIN KDBQ 261800Z 26006KT 10SM BKN060 25/18 A2994 1060 66 2500 260/06 RMK AO2
94908KDBQ DBQ20080626120509706/26/08 12:05:31  5-MIN KDBQ 261805Z 26006KT 10SM BKN060 25/18 A2993 1070 66 2500 260/06 RMK AO2
94908KDBQ DBQ20080626121009706/26/08 12:10:31  5-MIN KDBQ 261810Z 26006KT 10SM BKN060 25/18 A2993 1070 66 2500 260/06 RMK AO2
94908KDBQ DBQ20080626121509706/26/08 12:15:31  5-MIN KDBQ 261815Z 28010KT 10SM SCT060 26/18 A2993 1070 64 2600 280/10 RMK AO2
94908KDBQ DBQ20080626122009706/26/08 12:20:31  5-MIN KDBQ 261820Z 27009KT 10SM FEW060 26/18 A2993 1070 64 2600 270/09 RMK AO2
94908KDBQ DBQ20080626122509706/26/08 12:25:31  5-MIN KDBQ 261825Z 26008KT 10SM FEW065 26/18 A2992 1080 64 2600 260/08 RMK AO2
94908KDBQ DBQ20080626123009706/26/08 12:30:31  5-MIN KDBQ 261830Z 27010KT 10SM FEW060 26/18 A2992 1080 64 2600 270/10 RMK AO2
94908KDBQ DBQ20080626123509706/26/08 12:35:31  5-MIN KDBQ 261835Z 28009KT 10SM FEW060 26/18 A2992 1070 64 2600 280/09 RMK AO2
94908KDBQ DBQ20080626124009706/26/08 12:40:31  5-MIN KDBQ 261840Z 25011KT 10SM SCT060 26/19 A2992 1080 64 2600 250/11 RMK AO2
94908KDBQ DBQ20080626124509706/26/08 12:45:31  5-MIN KDBQ 261845Z 27012KT 10SM FEW060 26/19 A2992 1080 64 2600 260/12 RMK AO2
94908KDBQ DBQ20080626125011406/26/08 12:50:31  5-MIN KDBQ 261850Z 27011KT 10SM FEW060 26/18 A2992 1080 62 2600 270/11 RMK AO2 SLP125 T02610183
94908KDBQ DBQ20080626125509706/26/08 12:55:31  5-MIN KDBQ 261855Z 28011KT 10SM FEW060 26/18 A2992 1080 64 2600 280/11 RMK AO2
94908KDBQ DBQ20080626130010306/26/08 13:00:31  5-MIN KDBQ 261900Z 25013G19KT 10SM FEW060 26/18 A2992 1080 64 2600 250/13G19 RMK AO2
94908KDBQ DBQ20080626130510006/26/08 13:05:31  5-MIN KDBQ 261905Z 27014G19KT 10SM CLR 26/18 A2992 1080 64 2600 270/14G19 RMK AO2
94908KDBQ DBQ20080626131009406/26/08 13:10:31  5-MIN KDBQ 261910Z 29010KT 10SM CLR 25/18 A2992 1080 66 2500 290/10 RMK AO2
94908KDBQ DBQ20080626131509406/26/08 13:15:31  5-MIN KDBQ 261915Z 27010KT 10SM CLR 25/18 A2992 1080 66 2500 270/10 RMK AO2
94908KDBQ DBQ20080626132009406/26/08 13:20:31  5-MIN KDBQ 261920Z 27010KT 10SM CLR 24/18 A2992 1080 68 2500 270/10 RMK AO2
94908KDBQ DBQ20080626132509406/26/08 13:25:31  5-MIN KDBQ 261925Z 27008KT 10SM CLR 24/18 A2992 1080 68 2500 270/08 RMK AO2
94908KDBQ DBQ20080626133009406/26/08 13:30:31  5-MIN KDBQ 261930Z 28011KT 10SM CLR 24/18 A2992 1080 68 2500 280/11 RMK AO2
94908KDBQ DBQ20080626133509406/26/08 13:35:31  5-MIN KDBQ 261935Z 27010KT 10SM CLR 24/18 A2991 1090 68 2500 270/10 RMK AO2
94908KDBQ DBQ20080626134009406/26/08 13:40:31  5-MIN KDBQ 261940Z 27007KT 10SM CLR 24/18 A2991 1090 68 2500 270/07 RMK AO2
94908KDBQ DBQ20080626134509406/26/08 13:45:31  5-MIN KDBQ 261945Z 26007KT 10SM CLR 24/18 A2991 1090 68 2500 260/07 RMK AO2
94908KDBQ DBQ20080626135011106/26/08 13:50:31  5-MIN KDBQ 261950Z 27005KT 10SM CLR 24/18 A2990 1090 68 2500 270/05 RMK AO2 SLP120 T02440183
94908KDBQ DBQ20080626135509406/26/08 13:55:31  5-MIN KDBQ 261955Z 27006KT 10SM CLR 24/19 A2990 1090 71 2500 270/06 RMK AO2
94908KDBQ DBQ20080626140009406/26/08 14:00:31  5-MIN KDBQ 262000Z 27006KT 10SM CLR 24/18 A2990 1090 68 2500 270/06 RMK AO2
94908KDBQ DBQ20080626140509406/26/08 14:05:31  5-MIN KDBQ 262005Z 27007KT 10SM CLR 24/18 A2990 1100 68 2500 270/07 RMK AO2
94908KDBQ DBQ20080626141009406/26/08 14:10:31  5-MIN KDBQ 262010Z 24010KT 10SM CLR 24/18 A2990 1100 68 2500 240/10 RMK AO2
94908KDBQ DBQ20080626141509406/26/08 14:15:31  5-MIN KDBQ 262015Z 25009KT 10SM CLR 24/18 A2990 1100 68 2500 250/09 RMK AO2
94908KDBQ DBQ20080626142009406/26/08 14:20:31  5-MIN KDBQ 262020Z 26005KT 10SM CLR 24/18 A2989 1100 68 2500 260/05 RMK AO2
94908KDBQ DBQ20080626142509406/26/08 14:25:31  5-MIN KDBQ 262025Z 24006KT 10SM CLR 24/18 A2989 1100 68 2500 240/06 RMK AO2
94908KDBQ DBQ20080626143009406/26/08 14:30:31  5-MIN KDBQ 262030Z 22003KT 10SM CLR 24/18 A2989 1110 66 2500 220/03 RMK AO2
94908KDBQ DBQ20080626143509406/26/08 14:35:31  5-MIN KDBQ 262035Z 00000KT 10SM CLR 24/18 A2989 1110 66 2500 000/00 RMK AO2
94908KDBQ DBQ20080626144009406/26/08 14:40:31  5-MIN KDBQ 262040Z 24004KT 10SM CLR 24/18 A2989 1100 66 2500 240/04 RMK AO2
94908KDBQ DBQ20080626144509406/26/08 14:45:31  5-MIN KDBQ 262045Z 25004KT 10SM CLR 24/18 A2989 1100 66 2500 250/04 RMK AO2
94908KDBQ DBQ20080626145011706/26/08 14:50:31  5-MIN KDBQ 262050Z 00000KT 10SM CLR 24/18 A2989 1100 66 2500 000/00 RMK AO2 SLP117 T02440178 50006
94908KDBQ DBQ20080626145509406/26/08 14:55:31  5-MIN KDBQ 262055Z 27003KT 10SM CLR 24/17 A2989 1100 63 2500 270/03 RMK AO2
94908KDBQ DBQ20080626150009406/26/08 15:00:31  5-MIN KDBQ 262100Z VRB03KT 10SM CLR 25/18 A2989 1110 64 2600 VRB/03 RMK AO2
94908KDBQ DBQ20080626150509406/26/08 15:05:31  5-MIN KDBQ 262105Z 20003KT 10SM CLR 25/17 A2989 1110 61 2600 190/03 RMK AO2
94908KDBQ DBQ20080626151009406/26/08 15:10:31  5-MIN KDBQ 262110Z 20004KT 10SM CLR 25/17 A2989 1110 61 2600 200/04 RMK AO2
94908KDBQ DBQ20080626151509406/26/08 15:15:31  5-MIN KDBQ 262115Z 24007KT 10SM CLR 25/18 A2990 1100 64 2500 240/07 RMK AO2
94908KDBQ DBQ20080626152009406/26/08 15:20:31  5-MIN KDBQ 262120Z 23006KT 10SM CLR 24/17 A2990 1100 63 2500 230/06 RMK AO2
94908KDBQ DBQ20080626152509406/26/08 15:25:31  5-MIN KDBQ 262125Z 23005KT 10SM CLR 24/17 A2990 1100 63 2500 230/05 RMK AO2
94908KDBQ DBQ20080626153009406/26/08 15:30:31  5-MIN KDBQ 262130Z 27004KT 10SM CLR 24/17 A2989 1110 61 2500 270/04 RMK AO2
94908KDBQ DBQ20080626153509406/26/08 15:35:31  5-MIN KDBQ 262135Z 26003KT 10SM CLR 24/17 A2989 1110 61 2500 260/03 RMK AO2
94908KDBQ DBQ20080626154009706/26/08 15:40:31  5-MIN KDBQ 262140Z 30004KT 10SM FEW110 24/17 A2989 1110 61 2500 300/04 RMK AO2
94908KDBQ DBQ20080626154509706/26/08 15:45:31  5-MIN KDBQ 262145Z 26004KT 10SM SCT120 24/17 A2989 1110 63 2500 260/04 RMK AO2
94908KDBQ DBQ20080626155011406/26/08 15:50:31  5-MIN KDBQ 262150Z 24004KT 10SM SCT120 24/17 A2988 1110 63 2500 240/04 RMK AO2 SLP113 T02440172
94908KDBQ DBQ20080626155509706/26/08 15:55:31  5-MIN KDBQ 262155Z 22005KT 10SM FEW120 25/17 A2988 1120 61 2600 220/05 RMK AO2
94908KDBQ DBQ20080626160009706/26/08 16:00:31  5-MIN KDBQ 262200Z 22006KT 10SM FEW120 25/17 A2988 1120 61 2600 220/06 RMK AO2
94908KDBQ DBQ20080626160509706/26/08 16:05:31  5-MIN KDBQ 262205Z 21006KT 10SM FEW120 24/17 A2988 1120 63 2500 210/06 RMK AO2
94908KDBQ DBQ20080626161009706/26/08 16:10:31  5-MIN KDBQ 262210Z 22006KT 10SM FEW120 24/18 A2988 1120 66 2500 220/06 RMK AO2
94908KDBQ DBQ20080626161509406/26/08 16:15:31  5-MIN KDBQ 262215Z 22009KT 10SM CLR 24/17 A2988 1120 63 2500 220/09 RMK AO2
94908KDBQ DBQ20080626162009406/26/08 16:20:31  5-MIN KDBQ 262220Z 21007KT 10SM CLR 24/17 A2987 1120 63 2500 210/07 RMK AO2
94908KDBQ DBQ20080626162509406/26/08 16:25:31  5-MIN KDBQ 262225Z 22009KT 10SM CLR 24/18 A2987 1120 66 2500 210/09 RMK AO2
94908KDBQ DBQ20080626163009406/26/08 16:30:31  5-MIN KDBQ 262230Z 22007KT 10SM CLR 24/17 A2987 1120 63 2500 220/07 RMK AO2
94908KDBQ DBQ20080626163509406/26/08 16:35:31  5-MIN KDBQ 262235Z 21008KT 10SM CLR 24/17 A2987 1120 63 2500 210/08 RMK AO2
94908KDBQ DBQ20080626164009406/26/08 16:40:31  5-MIN KDBQ 262240Z 22007KT 10SM CLR 24/17 A2987 1120 63 2500 220/07 RMK AO2
94908KDBQ DBQ20080626164509406/26/08 16:45:31  5-MIN KDBQ 262245Z 22009KT 10SM CLR 24/17 A2987 1120 61 2500 220/09 RMK AO2
94908KDBQ DBQ20080626165011106/26/08 16:50:31  5-MIN KDBQ 262250Z 22009KT 10SM CLR 24/17 A2987 1120 61 2500 220/09 RMK AO2 SLP109 T02440167
94908KDBQ DBQ20080626165509406/26/08 16:55:31  5-MIN KDBQ 262255Z 21008KT 10SM CLR 24/17 A2987 1130 61 2500 210/08 RMK AO2
94908KDBQ DBQ20080626170009406/26/08 17:00:31  5-MIN KDBQ 262300Z 21007KT 10SM CLR 24/17 A2987 1130 63 2500 210/07 RMK AO2
94908KDBQ DBQ20080626170509406/26/08 17:05:31  5-MIN KDBQ 262305Z 21007KT 10SM CLR 24/17 A2987 1130 63 2500 210/07 RMK AO2
94908KDBQ DBQ20080626171009406/26/08 17:10:31  5-MIN KDBQ 262310Z 21007KT 10SM CLR 24/17 A2987 1130 63 2500 210/07 RMK AO2
94908KDBQ DBQ20080626171509406/26/08 17:15:31  5-MIN KDBQ 262315Z 22006KT 10SM CLR 24/18 A2987 1130 66 2500 220/06 RMK AO2
94908KDBQ DBQ20080626172009406/26/08 17:20:31  5-MIN KDBQ 262320Z 22006KT 10SM CLR 24/18 A2986 1130 66 2500 220/06 RMK AO2
94908KDBQ DBQ20080626172509406/26/08 17:25:31  5-MIN KDBQ 262325Z 21006KT 10SM CLR 24/18 A2986 1130 68 2500 210/06 RMK AO2
94908KDBQ DBQ20080626173009406/26/08 17:30:31  5-MIN KDBQ 262330Z 23007KT 10SM CLR 24/18 A2986 1130 68 2500 230/07 RMK AO2
94908KDBQ DBQ20080626173509406/26/08 17:35:31  5-MIN KDBQ 262335Z 22006KT 10SM CLR 24/18 A2986 1130 68 2500 220/06 RMK AO2
94908KDBQ DBQ20080626174009406/26/08 17:40:31  5-MIN KDBQ 262340Z 23006KT 10SM CLR 24/17 A2986 1140 66 2500 230/06 RMK AO2
94908KDBQ DBQ20080626174509406/26/08 17:45:31  5-MIN KDBQ 262345Z 23007KT 10SM CLR 24/17 A2986 1140 63 2500 230/07 RMK AO2
94908KDBQ DBQ20080626175012906/26/08 17:50:31  5-MIN KDBQ 262350Z 23006KT 10SM CLR 24/17 A2985 1140 66 2500 230/06 RMK AO2 SLP103 T02390172 10261 20239 56015
94908KDBQ DBQ20080626175509406/26/08 17:55:31  5-MIN KDBQ 262355Z 22006KT 10SM CLR 24/17 A2986 1140 63 2500 220/06 RMK AO2
94908KDBQ DBQ20080626180009406/26/08 18:00:31  5-MIN KDBQ 270000Z 23006KT 10SM CLR 24/17 A2986 1140 63 2500 230/06 RMK AO2
94908KDBQ DBQ20080626180509406/26/08 18:05:31  5-MIN KDBQ 270005Z 23006KT 10SM CLR 23/17 A2986 1130 66 2400 230/06 RMK AO2
94908KDBQ DBQ20080626181009406/26/08 18:10:31  5-MIN KDBQ 270010Z 23007KT 10SM CLR 23/17 A2986 1130 66 2400 230/07 RMK AO2
94908KDBQ DBQ20080626181509406/26/08 18:15:31  5-MIN KDBQ 270015Z 23005KT 10SM CLR 23/16 A2987 1130 63 2400 230/05 RMK AO2
94908KDBQ DBQ20080626182009406/26/08 18:20:31  5-MIN KDBQ 270020Z 24005KT 10SM CLR 23/16 A2987 1130 63 2400 240/05 RMK AO2
94908KDBQ DBQ20080626182509406/26/08 18:25:31  5-MIN KDBQ 270025Z 25004KT 10SM CLR 23/17 A2986 1130 66 2400 250/04 RMK AO2
94908KDBQ DBQ20080626183009406/26/08 18:30:31  5-MIN KDBQ 270030Z 25006KT 10SM CLR 23/17 A2986 1130 68 2300 250/06 RMK AO2
94908KDBQ DBQ20080626183509406/26/08 18:35:31  5-MIN KDBQ 270035Z 25007KT 10SM CLR 23/16 A2987 1130 65 2300 250/07 RMK AO2
94908KDBQ DBQ20080626184009406/26/08 18:40:31  5-MIN KDBQ 270040Z 25006KT 10SM CLR 23/16 A2987 1130 65 2300 250/06 RMK AO2
94908KDBQ DBQ20080626184509406/26/08 18:45:31  5-MIN KDBQ 270045Z 26005KT 10SM CLR 23/16 A2987 1130 65 2300 260/05 RMK AO2
94908KDBQ DBQ20080626185011106/26/08 18:50:31  5-MIN KDBQ 270050Z 25004KT 10SM CLR 23/17 A2987 1130 68 2300 250/04 RMK AO2 SLP108 T02280167
94908KDBQ DBQ20080626185509406/26/08 18:55:31  5-MIN KDBQ 270055Z 24003KT 10SM CLR 22/17 A2987 1130 70 2300 240/03 RMK AO2
94908KDBQ DBQ20080626190009906/26/08 19:00:31  5-MIN KDBQ 270100Z AUTO 24004KT 10SM CLR 22/17 A2987 1130 70 2300 240/04 RMK AO2
94908KDBQ DBQ20080626190509906/26/08 19:05:31  5-MIN KDBQ 270105Z AUTO 24004KT 10SM CLR 22/17 A2986 1130 73 2200 230/04 RMK AO2
94908KDBQ DBQ20080626191009906/26/08 19:10:31  5-MIN KDBQ 270110Z AUTO 23005KT 10SM CLR 22/17 A2986 1140 73 2200 230/05 RMK AO2
94908KDBQ DBQ20080626191509906/26/08 19:15:31  5-MIN KDBQ 270115Z AUTO 22004KT 10SM CLR 22/16 A2986 1140 70 2200 220/04 RMK AO2
94908KDBQ DBQ20080626192009906/26/08 19:20:31  5-MIN KDBQ 270120Z AUTO 22003KT 10SM CLR 22/17 A2986 1140 73 2200 220/03 RMK AO2
94908KDBQ DBQ20080626192509906/26/08 19:25:31  5-MIN KDBQ 270125Z AUTO 22003KT 10SM CLR 22/17 A2986 1140 73 2200 220/03 RMK AO2
94908KDBQ DBQ20080626193009906/26/08 19:30:31  5-MIN KDBQ 270130Z AUTO 22003KT 10SM CLR 21/17 A2986 1140 75 2100 220/03 RMK AO2
94908KDBQ DBQ20080626193509906/26/08 19:35:31  5-MIN KDBQ 270135Z AUTO 21004KT 10SM CLR 21/16 A2986 1130 73 2100 210/04 RMK AO2
94908KDBQ DBQ20080626194009906/26/08 19:40:31  5-MIN KDBQ 270140Z AUTO 21003KT 10SM CLR 21/17 A2986 1130 75 2100 210/03 RMK AO2
94908KDBQ DBQ20080626194509906/26/08 19:45:31  5-MIN KDBQ 270145Z AUTO 21003KT 10SM CLR 21/17 A2986 1140 75 2100 210/03 RMK AO2
94908KDBQ DBQ20080626195011606/26/08 19:50:31  5-MIN KDBQ 270150Z AUTO 22003KT 10SM CLR 21/16 A2986 1140 73 2100 220/03 RMK AO2 SLP104 T02110161
94908KDBQ DBQ20080626195509906/26/08 19:55:31  5-MIN KDBQ 270155Z AUTO 22003KT 10SM CLR 21/16 A2986 1140 75 2100 220/03 RMK AO2
94908KDBQ DBQ20080626200009906/26/08 20:00:31  5-MIN KDBQ 270200Z AUTO 21003KT 10SM CLR 21/16 A2986 1140 75 2100 210/03 RMK AO2
94908KDBQ DBQ20080626200509906/26/08 20:05:31  5-MIN KDBQ 270205Z AUTO 21003KT 10SM CLR 21/16 A2986 1140 75 2100 210/03 RMK AO2
94908KDBQ DBQ20080626201009906/26/08 20:10:31  5-MIN KDBQ 270210Z AUTO 21003KT 10SM CLR 20/17 A2986 1140 81 2000 210/03 RMK AO2
94908KDBQ DBQ20080626201509906/26/08 20:15:31  5-MIN KDBQ 270215Z AUTO 21003KT 10SM CLR 20/17 A2986 1140 81 2000 200/03 RMK AO2
94908KDBQ DBQ20080626202009906/26/08 20:20:31  5-MIN KDBQ 270220Z AUTO 22003KT 10SM CLR 20/17 A2986 1140 81 2000 220/03 RMK AO2
94908KDBQ DBQ20080626202509906/26/08 20:25:31  5-MIN KDBQ 270225Z AUTO 22003KT 10SM CLR 20/17 A2986 1140 81 2000 210/03 RMK AO2
94908KDBQ DBQ20080626203009906/26/08 20:30:31  5-MIN KDBQ 270230Z AUTO 21003KT 10SM CLR 20/16 A2986 1140 78 2000 210/03 RMK AO2
94908KDBQ DBQ20080626203509906/26/08 20:35:31  5-MIN KDBQ 270235Z AUTO 21003KT 10SM CLR 20/16 A2985 1140 78 2000 210/03 RMK AO2
94908KDBQ DBQ20080626204009906/26/08 20:40:31  5-MIN KDBQ 270240Z AUTO 21003KT 10SM CLR 19/16 A2985 1140 81 2000 210/03 RMK AO2
94908KDBQ DBQ20080626204509906/26/08 20:45:31  5-MIN KDBQ 270245Z AUTO 21003KT 10SM CLR 19/16 A2986 1130 81 2000 210/03 RMK AO2
94908KDBQ DBQ20080626205012206/26/08 20:50:31  5-MIN KDBQ 270250Z AUTO 22003KT 10SM CLR 19/16 A2986 1140 81 2000 220/03 RMK AO2 SLP105 T01940161 58012
94908KDBQ DBQ20080626205509906/26/08 20:55:31  5-MIN KDBQ 270255Z AUTO 21003KT 10SM CLR 19/16 A2985 1140 81 2000 210/03 RMK AO2
94908KDBQ DBQ20080626210009906/26/08 21:00:31  5-MIN KDBQ 270300Z AUTO 20003KT 10SM CLR 19/16 A2985 1140 81 2000 200/03 RMK AO2
94908KDBQ DBQ20080626210509906/26/08 21:05:31  5-MIN KDBQ 270305Z AUTO 18004KT 10SM CLR 19/16 A2985 1140 81 2000 180/04 RMK AO2
94908KDBQ DBQ20080626211009906/26/08 21:10:31  5-MIN KDBQ 270310Z AUTO 18003KT 10SM CLR 19/16 A2985 1140 81 2000 180/03 RMK AO2
94908KDBQ DBQ20080626211509906/26/08 21:15:31  5-MIN KDBQ 270315Z AUTO 19003KT 10SM CLR 19/16 A2985 1140 81 2000 190/03 RMK AO2
94908KDBQ DBQ20080626212009906/26/08 21:20:31  5-MIN KDBQ 270320Z AUTO 20004KT 10SM CLR 19/16 A2985 1150 81 2000 200/04 RMK AO2
94908KDBQ DBQ20080626212509906/26/08 21:25:31  5-MIN KDBQ 270325Z AUTO 19003KT 10SM CLR 19/16 A2985 1140 84 1900 190/03 RMK AO2
94908KDBQ DBQ20080626213009906/26/08 21:30:31  5-MIN KDBQ 270330Z AUTO 20003KT 10SM CLR 19/17 A2984 1150 87 1900 190/03 RMK AO2
94908KDBQ DBQ20080626213509906/26/08 21:35:31  5-MIN KDBQ 270335Z AUTO 20005KT 10SM CLR 19/16 A2985 1150 84 1900 200/05 RMK AO2
94908KDBQ DBQ20080626214009906/26/08 21:40:31  5-MIN KDBQ 270340Z AUTO 20005KT 10SM CLR 18/16 A2985 1150 87 1800 200/05 RMK AO2
94908KDBQ DBQ20080626214509906/26/08 21:45:31  5-MIN KDBQ 270345Z AUTO 20005KT 10SM CLR 19/16 A2984 1150 84 1900 200/05 RMK AO2
94908KDBQ DBQ20080626215011606/26/08 21:50:31  5-MIN KDBQ 270350Z AUTO 22008KT 10SM CLR 19/17 A2985 1150 87 1900 220/08 RMK AO2 SLP101 T01890167
94908KDBQ DBQ20080626215509906/26/08 21:55:31  5-MIN KDBQ 270355Z AUTO 21006KT 10SM CLR 19/17 A2985 1150 87 1900 210/06 RMK AO2
94908KDBQ DBQ20080626220009906/26/08 22:00:31  5-MIN KDBQ 270400Z AUTO 21006KT 10SM CLR 19/17 A2984 1150 87 1900 210/06 RMK AO2
94908KDBQ DBQ20080626220509906/26/08 22:05:31  5-MIN KDBQ 270405Z AUTO 20005KT 10SM CLR 19/17 A2984 1150 87 1900 200/05 RMK AO2
94908KDBQ DBQ20080626221009906/26/08 22:10:31  5-MIN KDBQ 270410Z AUTO 21005KT 10SM CLR 18/17 A2984 1150 90 1800 210/05 RMK AO2
94908KDBQ DBQ20080626221509906/26/08 22:15:31  5-MIN KDBQ 270415Z AUTO 21006KT 10SM CLR 18/17 A2985 1150 90 1800 210/06 RMK AO2
94908KDBQ DBQ20080626222009906/26/08 22:20:31  5-MIN KDBQ 270420Z AUTO 21006KT 10SM CLR 18/17 A2985 1150 90 1800 210/06 RMK AO2
94908KDBQ DBQ20080626222509906/26/08 22:25:31  5-MIN KDBQ 270425Z AUTO 21006KT 10SM CLR 19/17 A2985 1150 87 1900 210/06 RMK AO2
94908KDBQ DBQ20080626223009906/26/08 22:30:31  5-MIN KDBQ 270430Z AUTO 21006KT 10SM CLR 19/17 A2985 1140 87 1900 210/06 RMK AO2
94908KDBQ DBQ20080626223509906/26/08 22:35:31  5-MIN KDBQ 270435Z AUTO 21006KT 10SM CLR 19/17 A2985 1140 87 1900 210/06 RMK AO2
94908KDBQ DBQ20080626224009906/26/08 22:40:31  5-MIN KDBQ 270440Z AUTO 21006KT 10SM CLR 18/17 A2985 1140 90 1800 210/06 RMK AO2
94908KDBQ DBQ20080626224509906/26/08 22:45:31  5-MIN KDBQ 270445Z AUTO 20005KT 10SM CLR 18/17 A2985 1140 90 1800 200/05 RMK AO2
94908KDBQ DBQ20080626225011606/26/08 22:50:31  5-MIN KDBQ 270450Z AUTO 20005KT 10SM CLR 18/17 A2985 1140 90 1800 200/05 RMK AO2 SLP101 T01830167
94908KDBQ DBQ20080626225509906/26/08 22:55:31  5-MIN KDBQ 270455Z AUTO 20005KT 10SM CLR 18/17 A2984 1150 90 1800 190/05 RMK AO2
94908KDBQ DBQ20080626230009906/26/08 23:00:31  5-MIN KDBQ 270500Z AUTO 19006KT 10SM CLR 18/17 A2984 1150 90 1800 190/06 RMK AO2
94908KDBQ DBQ20080626230509906/26/08 23:05:31  5-MIN KDBQ 270505Z AUTO 20006KT 10SM CLR 18/17 A2985 1150 90 1800 200/06 RMK AO2
94908KDBQ DBQ20080626231009906/26/08 23:10:31  5-MIN KDBQ 270510Z AUTO 20005KT 10SM CLR 18/17 A2984 1150 90 1800 190/05 RMK AO2
94908KDBQ DBQ20080626231509906/26/08 23:15:31  5-MIN KDBQ 270515Z AUTO 20005KT 10SM CLR 18/17 A2984 1150 90 1800 200/05 RMK AO2
94908KDBQ DBQ20080626232009906/26/08 23:20:31  5-MIN KDBQ 270520Z AUTO 21004KT 10SM CLR 18/17 A2984 1150 90 1900 210/04 RMK AO2
94908KDBQ DBQ20080626232509906/26/08 23:25:31  5-MIN KDBQ 270525Z AUTO 22004KT 10SM CLR 18/17 A2984 1150 90 1900 210/04 RMK AO2
94908KDBQ DBQ20080626233009906/26/08 23:30:31  5-MIN KDBQ 270530Z AUTO 20005KT 10SM CLR 18/17 A2984 1150 90 1800 200/05 RMK AO2
94908KDBQ DBQ20080626233509906/26/08 23:35:31  5-MIN KDBQ 270535Z AUTO 20005KT 10SM CLR 18/17 A2984 1150 93 1800 200/05 RMK AO2
94908KDBQ DBQ20080626234009906/26/08 23:40:31  5-MIN KDBQ 270540Z AUTO 20005KT 10SM CLR 18/17 A2984 1160 93 1800 190/05 RMK AO2
94908KDBQ DBQ20080626234509906/26/08 23:45:31  5-MIN KDBQ 270545Z AUTO 19005KT 10SM CLR 17/16 A2983 1160 93 1700 190/05 RMK AO2
94908KDBQ DBQ20080626235014406/26/08 23:50:31  5-MIN KDBQ 270550Z AUTO 19006KT 10SM CLR 18/17 A2983 1160 93 1800 190/06 RMK AO2 SLP095 T01780167 10239 20172 402610172 50000
94908KDBQ DBQ20080626235509906/26/08 23:55:31  5-MIN KDBQ 270555Z AUTO 21006KT 10SM CLR 18/17 A2984 1150 93 1800 210/06 RMK AO2
94908KDBQ DBQ20080627000009906/27/08 00:00:38  5-MIN KDBQ 270600Z AUTO 21005KT 10SM CLR 18/17 A2984 1150 93 1800 210/05 RMK AO2
94908KDBQ DBQ20080627000509906/27/08 00:05:31  5-MIN KDBQ 270605Z AUTO 21005KT 10SM CLR 18/17 A2984 1150 93 1800 210/05 RMK AO2
94908KDBQ DBQ20080627001009906/27/08 00:10:31  5-MIN KDBQ 270610Z AUTO 22005KT 10SM CLR 18/17 A2984 1150 93 1800 220/05 RMK AO2
94908KDBQ DBQ20080627001509906/27/08 00:15:31  5-MIN KDBQ 270615Z AUTO 22005KT 10SM CLR 18/17 A2984 1150 93 1800 220/05 RMK AO2
94908KDBQ DBQ20080627002009906/27/08 00:20:31  5-MIN KDBQ 270620Z AUTO 21006KT 10SM CLR 18/17 A2984 1150 93 1800 210/06 RMK AO2
94908KDBQ DBQ20080627002509906/27/08 00:25:31  5-MIN KDBQ 270625Z AUTO 21006KT 10SM CLR 18/17 A2984 1150 93 1800 210/06 RMK AO2
94908KDBQ DBQ20080627003009806/27/08 00:30:31  5-MIN KDBQ 270630Z AUTO 20006KT 9SM CLR 18/17 A2984 1150 93 1800 200/06 RMK AO2
94908KDBQ DBQ20080627003509806/27/08 00:35:31  5-MIN KDBQ 270635Z AUTO 19006KT 9SM CLR 17/16 A2983 1160 93 1700 190/06 RMK AO2
94908KDBQ DBQ20080627004009806/27/08 00:40:31  5-MIN KDBQ 270640Z AUTO 19005KT 8SM CLR 18/17 A2983 1160 93 1800 190/05 RMK AO2
94908KDBQ DBQ20080627004509806/27/08 00:45:31  5-MIN KDBQ 270645Z AUTO 20005KT 8SM CLR 17/17 A2983 1160 96 1700 200/05 RMK AO2
94908KDBQ DBQ20080627005011506/27/08 00:50:31  5-MIN KDBQ 270650Z AUTO 20005KT 7SM CLR 17/17 A2983 1160 96 1700 200/05 RMK AO2 SLP097 T01720167
94908KDBQ DBQ20080627005509806/27/08 00:55:31  5-MIN KDBQ 270655Z AUTO 22005KT 8SM CLR 18/17 A2984 1150 93 1800 220/05 RMK AO2
94908KDBQ DBQ20080627010009806/27/08 01:00:31  5-MIN KDBQ 270700Z AUTO 23005KT 7SM CLR 17/17 A2984 1150 96 1700 230/05 RMK AO2
94908KDBQ DBQ20080627010509806/27/08 01:05:31  5-MIN KDBQ 270705Z AUTO 21005KT 7SM CLR 17/17 A2984 1150 96 1700 210/05 RMK AO2
94908KDBQ DBQ20080627011009806/27/08 01:10:31  5-MIN KDBQ 270710Z AUTO 20006KT 7SM CLR 17/17 A2984 1150 96 1700 200/06 RMK AO2
94908KDBQ DBQ20080627011510106/27/08 01:15:31  5-MIN KDBQ 270715Z AUTO 19006KT 6SM BR CLR 17/16 A2983 1160 93 1700 190/06 RMK AO2
94908KDBQ DBQ20080627012010106/27/08 01:20:31  5-MIN KDBQ 270720Z AUTO 19006KT 6SM BR CLR 17/16 A2984 1160 93 1700 190/06 RMK AO2
94908KDBQ DBQ20080627012510106/27/08 01:25:31  5-MIN KDBQ 270725Z AUTO 20004KT 6SM BR CLR 17/16 A2984 1160 93 1700 200/04 RMK AO2
94908KDBQ DBQ20080627013009806/27/08 01:30:31  5-MIN KDBQ 270730Z AUTO 21005KT 7SM CLR 17/16 A2984 1150 93 1700 210/05 RMK AO2
94908KDBQ DBQ20080627013509806/27/08 01:35:31  5-MIN KDBQ 270735Z AUTO 21006KT 7SM CLR 17/16 A2984 1160 93 1700 210/06 RMK AO2
94908KDBQ DBQ20080627014009806/27/08 01:40:31  5-MIN KDBQ 270740Z AUTO 21006KT 7SM CLR 17/16 A2983 1160 93 1700 210/06 RMK AO2
94908KDBQ DBQ20080627014509806/27/08 01:45:31  5-MIN KDBQ 270745Z AUTO 21007KT 7SM CLR 17/16 A2984 1160 93 1700 200/07 RMK AO2
94908KDBQ DBQ20080627015011506/27/08 01:50:31  5-MIN KDBQ 270750Z AUTO 21008KT 7SM CLR 17/17 A2984 1160 96 1700 210/08 RMK AO2 SLP099 T01720167
94908KDBQ DBQ20080627015509806/27/08 01:55:31  5-MIN KDBQ 270755Z AUTO 20007KT 8SM CLR 18/17 A2983 1160 93 1800 200/07 RMK AO2
94908KDBQ DBQ20080627020009806/27/08 02:00:31  5-MIN KDBQ 270800Z AUTO 21006KT 7SM CLR 17/17 A2984 1160 96 1700 210/06 RMK AO2
94908KDBQ DBQ20080627020510106/27/08 02:05:31  5-MIN KDBQ 270805Z AUTO 21006KT 7SM FEW075 17/17 A2984 1160 96 1700 210/06 RMK AO2
94908KDBQ DBQ20080627021010106/27/08 02:10:31  5-MIN KDBQ 270810Z AUTO 20005KT 7SM SCT075 18/17 A2983 1160 93 1800 200/05 RMK AO2
94908KDBQ DBQ20080627021510106/27/08 02:15:31  5-MIN KDBQ 270815Z AUTO 19005KT 7SM SCT075 17/17 A2983 1160 96 1700 190/05 RMK AO2
94908KDBQ DBQ20080627022010406/27/08 02:20:31  5-MIN KDBQ 270820Z AUTO 19005KT 6SM BR SCT075 17/17 A2983 1170 96 1700 190/05 RMK AO2
94908KDBQ DBQ20080627022510406/27/08 02:25:31  5-MIN KDBQ 270825Z AUTO 19006KT 6SM BR SCT070 17/17 A2982 1170 96 1700 190/06 RMK AO2
94908KDBQ DBQ20080627023010406/27/08 02:30:31  5-MIN KDBQ 270830Z AUTO 20005KT 6SM BR SCT070 17/17 A2982 1170 96 1700 190/05 RMK AO2
94908KDBQ DBQ20080627023511106/27/08 02:35:31  5-MIN KDBQ 270835Z AUTO 19005KT 6SM BR FEW060 SCT075 17/16 A2982 1170 93 1700 190/05 RMK AO2
94908KDBQ DBQ20080627024011106/27/08 02:40:31  5-MIN KDBQ 270840Z AUTO 21004KT 6SM BR SCT060 SCT075 17/16 A2982 1170 93 1700 210/04 RMK AO2
94908KDBQ DBQ20080627024510406/27/08 02:45:31  5-MIN KDBQ 270845Z AUTO 21004KT 6SM BR BKN060 17/17 A2982 1170 96 1700 210/04 RMK AO2
94908KDBQ DBQ20080627025012406/27/08 02:50:31  5-MIN KDBQ 270850Z AUTO 20003KT 7SM BKN060 18/17 A2982 1170 93 1800 190/03 RMK AO2 SLP092 T01780167 58006
94908KDBQ DBQ20080627025510106/27/08 02:55:31  5-MIN KDBQ 270855Z AUTO 19004KT 7SM BKN060 18/17 A2981 1180 93 1800 190/04 RMK AO2
94908KDBQ DBQ20080627030011106/27/08 03:00:31  5-MIN KDBQ 270900Z AUTO 20003KT 6SM BR SCT060 BKN075 18/17 A2982 1170 93 1800 200/03 RMK AO2
94908KDBQ DBQ20080627030510806/27/08 03:05:31  5-MIN KDBQ 270905Z AUTO 21004KT 7SM SCT060 BKN075 18/17 A2981 1180 93 1800 210/04 RMK AO2
94908KDBQ DBQ20080627031010806/27/08 03:10:31  5-MIN KDBQ 270910Z AUTO 20003KT 7SM SCT055 OVC075 18/17 A2981 1180 93 1800 200/03 RMK AO2
94908KDBQ DBQ20080627031510806/27/08 03:15:31  5-MIN KDBQ 270915Z AUTO 19004KT 7SM FEW055 BKN075 18/17 A2980 1190 93 1800 190/04 RMK AO2
94908KDBQ DBQ20080627032010806/27/08 03:20:31  5-MIN KDBQ 270920Z AUTO 20005KT 7SM FEW055 BKN080 18/17 A2980 1190 93 1800 190/05 RMK AO2
94908KDBQ DBQ20080627032510106/27/08 03:25:31  5-MIN KDBQ 270925Z AUTO 19006KT 7SM BKN080 18/17 A2980 1190 93 1800 190/06 RMK AO2
94908KDBQ DBQ20080627033010106/27/08 03:30:31  5-MIN KDBQ 270930Z AUTO 18004KT 7SM SCT080 18/17 A2979 1200 93 1800 180/04 RMK AO2
94908KDBQ DBQ20080627033510106/27/08 03:35:31  5-MIN KDBQ 270935Z AUTO 17004KT 7SM SCT080 18/17 A2979 1200 93 1800 170/04 RMK AO2
94908KDBQ DBQ20080627034010106/27/08 03:40:31  5-MIN KDBQ 270940Z AUTO 17003KT 7SM FEW080 18/17 A2979 1200 93 1800 170/03 RMK AO2
94908KDBQ DBQ20080627034510106/27/08 03:45:31  5-MIN KDBQ 270945Z AUTO 17004KT 7SM FEW080 18/17 A2980 1190 93 1800 170/04 RMK AO2
94908KDBQ DBQ20080627035011806/27/08 03:50:31  5-MIN KDBQ 270950Z AUTO 17004KT 7SM FEW050 18/17 A2980 1190 93 1800 170/04 RMK AO2 SLP085 T01780167
94908KDBQ DBQ20080627035510806/27/08 03:55:31  5-MIN KDBQ 270955Z AUTO 17004KT 7SM FEW050 SCT075 18/17 A2980 1190 93 1800 170/04 RMK AO2
94908KDBQ DBQ20080627040010806/27/08 04:00:31  5-MIN KDBQ 271000Z AUTO 17005KT 7SM FEW050 BKN075 18/17 A2980 1190 93 1800 170/05 RMK AO2
94908KDBQ DBQ20080627040511106/27/08 04:05:31  5-MIN KDBQ 271005Z AUTO 17005KT 6SM BR FEW050 BKN075 18/17 A2980 1190 93 1800 170/05 RMK AO2
94908KDBQ DBQ20080627041011106/27/08 04:10:31  5-MIN KDBQ 271010Z AUTO 18004KT 6SM BR FEW050 BKN075 18/17 A2980 1190 93 1800 180/04 RMK AO2
94908KDBQ DBQ20080627041511106/27/08 04:15:31  5-MIN KDBQ 271015Z AUTO 18004KT 6SM BR SCT050 BKN070 18/17 A2980 1190 93 1800 180/04 RMK AO2
94908KDBQ DBQ20080627042011106/27/08 04:20:31  5-MIN KDBQ 271020Z AUTO 20008KT 6SM BR SCT050 OVC070 18/17 A2981 1180 93 1800 200/08 RMK AO2
94908KDBQ DBQ20080627042511106/27/08 04:25:31  5-MIN KDBQ 271025Z AUTO 20007KT 5SM BR BKN050 OVC075 18/17 A2981 1180 96 1800 200/07 RMK AO2
94908KDBQ DBQ20080627043011106/27/08 04:30:31  5-MIN KDBQ 271030Z AUTO 19007KT 5SM BR BKN050 OVC070 18/17 A2980 1190 93 1900 190/07 RMK AO2
94908KDBQ DBQ20080627043511106/27/08 04:35:31  5-MIN KDBQ 271035Z AUTO 19007KT 5SM BR BKN050 BKN070 18/17 A2979 1190 93 1900 190/07 RMK AO2
94908KDBQ DBQ20080627044011106/27/08 04:40:31  5-MIN KDBQ 271040Z AUTO 19006KT 5SM BR SCT050 BKN065 18/17 A2979 1200 93 1900 190/06 RMK AO2
94908KDBQ DBQ20080627044511106/27/08 04:45:31  5-MIN KDBQ 271045Z AUTO 18005KT 5SM BR SCT050 SCT065 18/17 A2978 1200 93 1900 180/05 RMK AO2
94908KDBQ DBQ20080627045012306/27/08 04:50:31  5-MIN KDBQ 271050Z 19004KT 5SM BR FEW050 SCT065 18/17 A2978 1210 93 1900 190/04 RMK AO2 SLP078 T01830172
94908KDBQ DBQ20080627045509906/27/08 04:55:31  5-MIN KDBQ 271055Z 18004KT 5SM BR FEW050 18/17 A2978 1210 93 1900 180/04 RMK AO2
94908KDBQ DBQ20080627050009906/27/08 05:00:31  5-MIN KDBQ 271100Z 15003KT 5SM BR FEW065 18/17 A2978 1210 93 1900 150/03 RMK AO2
94908KDBQ DBQ20080627050509606/27/08 05:05:31  5-MIN KDBQ 271105Z 15003KT 6SM BR CLR 18/17 A2978 1210 93 1900 140/03 RMK AO2
94908KDBQ DBQ20080627051009606/27/08 05:10:31  5-MIN KDBQ 271110Z 19004KT 6SM BR CLR 18/17 A2979 1200 93 1900 180/04 RMK AO2
94908KDBQ DBQ20080627051509906/27/08 05:15:31  5-MIN KDBQ 271115Z 18003KT 6SM BR FEW090 18/17 A2979 1200 93 1900 180/03 RMK AO2
94908KDBQ DBQ20080627052009906/27/08 05:20:31  5-MIN KDBQ 271120Z 17005KT 6SM BR FEW090 18/17 A2978 1210 93 1900 170/05 RMK AO2
94908KDBQ DBQ20080627052509606/27/08 05:25:31  5-MIN KDBQ 271125Z 17006KT 6SM BR CLR 18/17 A2978 1210 93 1900 170/06 RMK AO2
94908KDBQ DBQ20080627053009606/27/08 05:30:31  5-MIN KDBQ 271130Z 18004KT 6SM BR CLR 18/17 A2978 1210 93 1900 180/04 RMK AO2
94908KDBQ DBQ20080627053509606/27/08 05:35:31  5-MIN KDBQ 271135Z 18005KT 5SM BR CLR 18/17 A2978 1210 93 1900 180/05 RMK AO2
94908KDBQ DBQ20080627054009606/27/08 05:40:31  5-MIN KDBQ 271140Z 19006KT 5SM BR CLR 19/18 A2979 1200 93 2000 190/06 RMK AO2
94908KDBQ DBQ20080627054509906/27/08 05:45:31  5-MIN KDBQ 271145Z 18007KT 5SM BR FEW070 19/18 A2979 1200 93 2000 180/07 RMK AO2
94908KDBQ DBQ20080627055013406/27/08 05:50:31  5-MIN KDBQ 271150Z 19007KT 5SM BR FEW065 19/18 A2979 1200 93 2000 190/07 RMK AO2 SLP082 T01890178 10189 20172 58007
94908KDBQ DBQ20080627055509906/27/08 05:55:31  5-MIN KDBQ 271155Z 20007KT 5SM BR FEW065 19/18 A2979 1200 93 2000 200/07 RMK AO2
94908KDBQ DBQ20080627060009906/27/08 06:00:31  5-MIN KDBQ 271200Z 19006KT 6SM BR SCT065 19/18 A2979 1200 93 2000 190/06 RMK AO2
94908KDBQ DBQ20080627060510606/27/08 06:05:31  5-MIN KDBQ 271205Z 20009KT 6SM BR SCT060 BKN070 19/18 A2979 1200 93 2000 200/09 RMK AO2
94908KDBQ DBQ20080627061010606/27/08 06:10:31  5-MIN KDBQ 271210Z 20008KT 6SM BR BKN060 BKN085 19/18 A2979 1200 90 2000 200/08 RMK AO2
94908KDBQ DBQ20080627061510306/27/08 06:15:31  5-MIN KDBQ 271215Z 19008KT 7SM BKN060 BKN080 19/18 A2979 1200 90 2000 190/08 RMK AO2
94908KDBQ DBQ20080627062009606/27/08 06:20:31  5-MIN KDBQ 271220Z 19008KT 8SM SCT060 19/18 A2979 1200 90 2000 190/08 RMK AO2
94908KDBQ DBQ20080627062509606/27/08 06:25:31  5-MIN KDBQ 271225Z 17008KT 9SM SCT060 19/18 A2979 1200 90 2000 170/08 RMK AO2
94908KDBQ DBQ20080627063009606/27/08 06:30:31  5-MIN KDBQ 271230Z 17008KT 9SM SCT060 19/18 A2978 1210 90 2000 160/08 RMK AO2
94908KDBQ DBQ20080627063509606/27/08 06:35:31  5-MIN KDBQ 271235Z 17008KT 9SM FEW065 19/18 A2978 1210 90 2000 170/08 RMK AO2
94908KDBQ DBQ20080627064009306/27/08 06:40:31  5-MIN KDBQ 271240Z 18007KT 9SM CLR 19/18 A2978 1210 93 2000 170/07 RMK AO2
94908KDBQ DBQ20080627064509306/27/08 06:45:31  5-MIN KDBQ 271245Z 18008KT 9SM CLR 20/18 A2978 1210 90 2100 180/08 RMK AO2
94908KDBQ DBQ20080627065012206/27/08 06:50:31  5-MIN KDBQ 271250Z 18008KT 9SM CLR 20/18 A2979 1200 90 2100 180/08 RMK AO2 LTG DSNT NW SLP081 T02000183
94908KDBQ DBQ20080627065510506/27/08 06:55:31  5-MIN KDBQ 271255Z 20007KT 9SM CLR 20/18 A2979 1200 90 2100 200/07 RMK AO2 LTG DSNT NW
94908KDBQ DBQ20080627070010606/27/08 07:00:31  5-MIN KDBQ 271300Z 21006KT 10SM CLR 20/18 A2979 1200 90 2100 210/06 RMK AO2 LTG DSNT NW
94908KDBQ DBQ20080627070510606/27/08 07:05:31  5-MIN KDBQ 271305Z 22007KT 10SM CLR 20/18 A2979 1200 90 2100 220/07 RMK AO2 LTG DSNT NW
94908KDBQ DBQ20080627071010906/27/08 07:10:31  5-MIN KDBQ 271310Z 23007KT 10SM FEW090 20/18 A2979 1200 90 2100 230/07 RMK AO2 LTG DSNT NW
94908KDBQ DBQ20080627071510906/27/08 07:15:31  5-MIN KDBQ 271315Z 24008KT 10SM SCT095 20/18 A2980 1190 90 2100 240/08 RMK AO2 LTG DSNT NW
94908KDBQ DBQ20080627072011506/27/08 07:20:31  5-MIN KDBQ 271320Z 24008KT 10SM SCT100 20/18 A2980 1190 90 2100 240/08 RMK AO2 LTG DSNT N AND NW
94908KDBQ DBQ20080627072511506/27/08 07:25:31  5-MIN KDBQ 271325Z 24007KT 10SM SCT100 20/18 A2980 1190 90 2100 240/07 RMK AO2 LTG DSNT N AND NW
94908KDBQ DBQ20080627073012206/27/08 07:30:31  5-MIN KDBQ 271330Z 23005KT 10SM FEW034 SCT095 20/18 A2981 1180 90 2100 230/05 RMK AO2 LTG DSNT N AND NW
94908KDBQ DBQ20080627073512406/27/08 07:35:31  5-MIN KDBQ 271335Z 23004KT 10SM FEW034 SCT095 BKN120 20/18 A2981 1180 90 2100 230/04 RMK AO2 LTG DSNT W-N
94908KDBQ DBQ20080627074011006/27/08 07:40:31  5-MIN KDBQ 271340Z 00000KT 10SM SCT110 20/18 A2981 1180 90 2100 000/00 RMK AO2 LTG DSNT W-N
94908KDBQ DBQ20080627074511006/27/08 07:45:31  5-MIN KDBQ 271345Z 31003KT 10SM FEW110 20/18 A2981 1180 90 2100 310/03 RMK AO2 LTG DSNT W-N
94908KDBQ DBQ20080627075012806/27/08 07:50:31  5-MIN KDBQ 271350Z 34004KT 10SM FEW120 20/18 A2981 1180 90 2100 340/04 RMK AO2 LTG DSNT SW-N SLP089 T02000183
94908KDBQ DBQ20080627075511506/27/08 07:55:31  5-MIN KDBQ 271355Z 31005KT 10SM FEW120 20/18 A2982 1170 90 2100 310/05 RMK AO2 LTG DSNT N AND SW
94908KDBQ DBQ20080627080011106/27/08 08:00:31  5-MIN KDBQ 271400Z 30007KT 10SM FEW110 20/18 A2983 1160 90 2100 300/07 RMK AO2 LTG DSNT SW-N
94908KDBQ DBQ20080627080511006/27/08 08:05:31  5-MIN KDBQ 271405Z 28007KT 9SM FEW032 20/18 A2983 1160 90 2100 280/07 RMK AO2 LTG DSNT SW-N
94908KDBQ DBQ20080627081012606/27/08 08:10:31  5-MIN KDBQ 271410Z 31004KT 8SM -RA FEW029 19/18 A2982 1180 93 2000 310/04 RMK AO2 LTG DSNT SW-N RAB06 P0000
94908KDBQ DBQ20080627081512606/27/08 08:15:31  5-MIN KDBQ 271415Z 31003KT 8SM -RA FEW029 19/18 A2981 1180 93 2000 310/03 RMK AO2 LTG DSNT SW-N RAB06 P0000
94908KDBQ DBQ20080627082012406/27/08 08:20:31  5-MIN KDBQ 271420Z 28003KT 7SM -RA FEW029 19/18 A2981 1180 93 2000 280/03 RMK AO2 LTG DSNT SW RAB06 P0001
94908KDBQ DBQ20080627082512706/27/08 08:25:31  5-MIN KDBQ 271425Z 27004KT 4SM -RA BR FEW029 19/18 A2982 1170 93 2000 270/04 RMK AO2 LTG DSNT SW RAB06 P0001
94908KDBQ DBQ20080627083011506/27/08 08:30:31  5-MIN KDBQ 271430Z 31003KT 5SM -RA BR FEW021 19/18 A2981 1180 93 2000 310/03 RMK AO2 RAB06 P0001
94908KDBQ DBQ20080627083511506/27/08 08:35:31  5-MIN KDBQ 271435Z 04004KT 5SM -RA BR SCT025 19/18 A2980 1190 93 2000 040/04 RMK AO2 RAB06 P0001
94908KDBQ DBQ20080627084012006/27/08 08:40:31  5-MIN KDBQ 271440Z 07005KT 10SM -RA FEW025 19/18 A2979 1200 93 2000 070/05 RMK AO2 RAB06 PRESFR P0001
94908KDBQ DBQ20080627084511306/27/08 08:45:31  5-MIN KDBQ 271445Z 09003KT 10SM -RA FEW031 19/18 A2979 1200 93 2000 090/03 RMK AO2 RAB06 P0001
94908KDBQ DBQ20080627085014706/27/08 08:50:31  5-MIN KDBQ 271450Z 14004KT 8SM FEW044 SCT095 19/18 A2979 1200 93 2000 140/04 RMK AO2 RAB06E46 SLP084 P0001 60001 T01940183 55010
94908KDBQ DBQ20080627085510306/27/08 08:55:31  5-MIN KDBQ 271455Z 13007KT 7SM SCT050 BKN100 20/18 A2978 1210 90 2100 130/07 RMK AO2
94908KDBQ DBQ20080627090010306/27/08 09:00:31  5-MIN KDBQ 271500Z 13007KT 7SM SCT070 BKN110 20/18 A2978 1200 90 2100 130/07 RMK AO2
94908KDBQ DBQ20080627090510306/27/08 09:05:31  5-MIN KDBQ 271505Z 11008KT 9SM SCT090 SCT110 20/18 A2977 1220 90 2100 110/08 RMK AO2
94908KDBQ DBQ20080627091010406/27/08 09:10:31  5-MIN KDBQ 271510Z 13008KT 10SM FEW085 SCT110 21/18 A2977 1220 87 2200 130/08 RMK AO2
94908KDBQ DBQ20080627091510406/27/08 09:15:31  5-MIN KDBQ 271515Z 15009KT 10SM FEW085 SCT110 21/19 A2977 1220 90 2200 150/09 RMK AO2
94908KDBQ DBQ20080627092009706/27/08 09:20:31  5-MIN KDBQ 271520Z 16009KT 10SM FEW085 21/19 A2977 1210 87 2200 160/09 RMK AO2
94908KDBQ DBQ20080627092509706/27/08 09:25:31  5-MIN KDBQ 271525Z 17010KT 10SM FEW110 22/19 A2977 1210 84 2300 170/10 RMK AO2
94908KDBQ DBQ20080627093009406/27/08 09:30:31  5-MIN KDBQ 271530Z 16009KT 10SM CLR 22/19 A2977 1220 84 2300 160/09 RMK AO2
94908KDBQ DBQ20080627093509406/27/08 09:35:31  5-MIN KDBQ 271535Z 18011KT 10SM CLR 22/19 A2977 1220 84 2300 180/11 RMK AO2
94908KDBQ DBQ20080627094009406/27/08 09:40:31  5-MIN KDBQ 271540Z 18011KT 10SM CLR 22/18 A2976 1230 78 2400 180/11 RMK AO2
94908KDBQ DBQ20080627094510106/27/08 09:45:31  5-MIN KDBQ 271545Z 17009KT 10SM CLR 22/18 A2975 1230 78 2400 170/09 RMK AO2 PRESFR
94908KDBQ DBQ20080627095011106/27/08 09:50:31  5-MIN KDBQ 271550Z 19011KT 10SM CLR 23/18 A2975 1240 76 2500 180/11 RMK AO2 SLP068 T02280183
94908KDBQ DBQ20080627095509406/27/08 09:55:31  5-MIN KDBQ 271555Z 19010KT 10SM CLR 23/18 A2975 1240 73 2500 180/10 RMK AO2
94908KDBQ DBQ20080627100010006/27/08 10:00:31  5-MIN KDBQ 271600Z 19015G18KT 10SM CLR 24/18 A2975 1240 68 2700 190/15G18 RMK AO2
94908KDBQ DBQ20080627100510006/27/08 10:05:31  5-MIN KDBQ 271605Z 19012G20KT 10SM CLR 25/18 A2974 1240 66 2700 190/12G20 RMK AO2
94908KDBQ DBQ20080627101010006/27/08 10:10:31  5-MIN KDBQ 271610Z 18013G20KT 10SM CLR 24/18 A2974 1250 68 2700 180/13G20 RMK AO2
94908KDBQ DBQ20080627101509406/27/08 10:15:31  5-MIN KDBQ 271615Z 17011KT 10SM CLR 24/18 A2973 1250 66 2700 170/11 RMK AO2
94908KDBQ DBQ20080627102010006/27/08 10:20:31  5-MIN KDBQ 271620Z 18014G19KT 10SM CLR 24/18 A2973 1260 68 2700 180/14G19 RMK AO2
94908KDBQ DBQ20080627102510006/27/08 10:25:31  5-MIN KDBQ 271625Z 19015G21KT 10SM CLR 24/18 A2973 1260 68 2700 180/15G21 RMK AO2
94908KDBQ DBQ20080627103010006/27/08 10:30:31  5-MIN KDBQ 271630Z 18017G22KT 10SM CLR 25/18 A2973 1260 66 2700 180/17G22 RMK AO2
94908KDBQ DBQ20080627103510006/27/08 10:35:31  5-MIN KDBQ 271635Z 17017G22KT 10SM CLR 26/19 A2972 1260 66 2800 170/17G22 RMK AO2
94908KDBQ DBQ20080627104010006/27/08 10:40:31  5-MIN KDBQ 271640Z 16016G21KT 10SM CLR 26/18 A2971 1270 64 2800 160/16G21 RMK AO2
94908KDBQ DBQ20080627104510006/27/08 10:45:31  5-MIN KDBQ 271645Z 18016G21KT 10SM CLR 26/19 A2971 1270 64 2900 180/16G21 RMK AO2
94908KDBQ DBQ20080627105011706/27/08 10:50:31  5-MIN KDBQ 271650Z 16016G24KT 10SM CLR 26/19 A2971 1270 64 2900 160/16G24 RMK AO2 SLP054 T02610189
94908KDBQ DBQ20080627105510006/27/08 10:55:31  5-MIN KDBQ 271655Z 17015G24KT 10SM CLR 26/19 A2971 1270 64 2900 170/15G24 RMK AO2
94908KDBQ DBQ20080627110009406/27/08 11:00:31  5-MIN KDBQ 271700Z 17015KT 10SM CLR 26/18 A2971 1270 64 2800 170/15 RMK AO2
94908KDBQ DBQ20080627110510006/27/08 11:05:31  5-MIN KDBQ 271705Z 16015G20KT 10SM CLR 26/19 A2971 1280 66 2800 160/15G20 RMK AO2
94908KDBQ DBQ20080627111010006/27/08 11:10:31  5-MIN KDBQ 271710Z 17014G22KT 10SM CLR 26/18 A2971 1280 64 2800 170/14G22 RMK AO2
94908KDBQ DBQ20080627111510006/27/08 11:15:31  5-MIN KDBQ 271715Z 18014G22KT 10SM CLR 26/18 A2971 1270 62 2900 170/14G22 RMK AO2
94908KDBQ DBQ20080627112010006/27/08 11:20:31  5-MIN KDBQ 271720Z 18018G23KT 10SM CLR 27/18 A2972 1270 60 2900 180/18G23 RMK AO2
94908KDBQ DBQ20080627112510006/27/08 11:25:31  5-MIN KDBQ 271725Z 18016G23KT 10SM CLR 26/18 A2972 1260 59 2900 180/16G23 RMK AO2
94908KDBQ DBQ20080627113010006/27/08 11:30:31  5-MIN KDBQ 271730Z 18017G24KT 10SM CLR 26/18 A2972 1260 59 2900 180/17G24 RMK AO2
94908KDBQ DBQ20080627113510006/27/08 11:35:31  5-MIN KDBQ 271735Z 19020G25KT 10SM CLR 27/18 A2972 1260 60 2900 190/20G25 RMK AO2
94908KDBQ DBQ20080627114010006/27/08 11:40:31  5-MIN KDBQ 271740Z 18018G25KT 10SM CLR 27/18 A2972 1260 57 2900 180/18G25 RMK AO2
94908KDBQ DBQ20080627114509406/27/08 11:45:31  5-MIN KDBQ 271745Z 17016KT 10SM CLR 26/18 A2973 1260 62 2900 170/16 RMK AO2
94908KDBQ DBQ20080627115014106/27/08 11:50:31  5-MIN KDBQ 271750Z 18015G21KT 10SM CLR 26/19 A2973 1260 64 2900 180/15G21 RMK AO2 SLP060 60001 T02610189 10267 20189 58001
94908KDBQ DBQ20080627115510006/27/08 11:55:31  5-MIN KDBQ 271755Z 19015G21KT 10SM CLR 26/19 A2973 1260 66 2800 180/15G21 RMK AO2
94908KDBQ DBQ20080627120010306/27/08 12:00:31  5-MIN KDBQ 271800Z 19017G22KT 10SM FEW026 26/19 A2972 1260 66 2800 190/17G22 RMK AO2
94908KDBQ DBQ20080627120510306/27/08 12:05:31  5-MIN KDBQ 271805Z 18018G23KT 10SM FEW026 25/19 A2972 1260 68 2700 180/18G23 RMK AO2
94908KDBQ DBQ20080627121010306/27/08 12:10:31  5-MIN KDBQ 271810Z 18017G23KT 10SM FEW024 24/19 A2972 1260 71 2700 180/17G23 RMK AO2
94908KDBQ DBQ20080627121509706/27/08 12:15:31  5-MIN KDBQ 271815Z 19018KT 10SM FEW024 24/19 A2972 1260 71 2700 190/18 RMK AO2
94908KDBQ DBQ20080627122010306/27/08 12:20:31  5-MIN KDBQ 271820Z 19015G22KT 10SM SCT022 24/19 A2972 1260 73 2700 190/15G22 RMK AO2
94908KDBQ DBQ20080627122509706/27/08 12:25:31  5-MIN KDBQ 271825Z 19013KT 10SM BKN022 24/19 A2972 1260 73 2700 190/13 RMK AO2
94908KDBQ DBQ20080627123009706/27/08 12:30:31  5-MIN KDBQ 271830Z 19017KT 10SM BKN020 24/19 A2972 1260 73 2700 190/17 RMK AO2
94908KDBQ DBQ20080627123510306/27/08 12:35:31  5-MIN KDBQ 271835Z 19014G21KT 10SM BKN020 24/19 A2972 1260 76 2600 190/14G21 RMK AO2
94908KDBQ DBQ20080627124010306/27/08 12:40:31  5-MIN KDBQ 271840Z 19019G22KT 10SM BKN020 24/20 A2972 1270 78 2600 190/19G22 RMK AO2
94908KDBQ DBQ20080627124510306/27/08 12:45:31  5-MIN KDBQ 271845Z 19015G22KT 10SM BKN020 24/20 A2972 1260 78 2600 190/15G22 RMK AO2
94908KDBQ DBQ20080627125012006/27/08 12:50:31  5-MIN KDBQ 271850Z 21011G20KT 10SM BKN020 24/20 A2974 1240 78 2600 200/11G20 RMK AO2 SLP066 T02390200
94908KDBQ DBQ20080627125512006/27/08 12:55:31  5-MIN KDBQ 271855Z 22009KT 10SM -RA BKN017 23/20 A2975 1240 81 2500 220/09 RMK AO2 RAB55 PRESRR P0000
94908KDBQ DBQ20080627130011406/27/08 13:00:31  5-MIN KDBQ 271900Z 22010KT 9SM -RA BKN015 23/21 A2976 1230 84 2500 220/10 RMK AO2 RAB1855 P0000
94908KDBQ DBQ20080627130511406/27/08 13:05:31  5-MIN KDBQ 271905Z 21011KT 8SM -RA BKN015 23/21 A2976 1230 84 2500 210/11 RMK AO2 RAB1855 P0000
94908KDBQ DBQ20080627131011406/27/08 13:10:31  5-MIN KDBQ 271910Z 21010KT 7SM -RA BKN015 23/21 A2976 1230 90 2500 210/10 RMK AO2 RAB1855 P0000
94908KDBQ DBQ20080627131512006/27/08 13:15:31  5-MIN KDBQ 271915Z 22012G17KT 7SM -RA BKN015 23/21 A2975 1230 90 2500 220/12G17 RMK AO2 RAB1855 P0001
94908KDBQ DBQ20080627132013406/27/08 13:20:31  5-MIN KDBQ 271920Z 22014G20KT 7SM -RA BKN015 BKN023 OVC035 23/21 A2975 1240 87 2500 220/14G20 RMK AO2 RAB1855 P0001
94908KDBQ DBQ20080627132513706/27/08 13:25:31  5-MIN KDBQ 271925Z 22014G20KT 6SM -RA BR BKN015 BKN026 BKN035 23/21 A2975 1240 90 2500 220/14G20 RMK AO2 RAB1855 P0001
94908KDBQ DBQ20080627133013706/27/08 13:30:31  5-MIN KDBQ 271930Z 22011G18KT 6SM -RA BR FEW013 BKN019 BKN026 23/21 A2975 1230 90 2500 220/11G18 RMK AO2 RAB1855 P0001
94908KDBQ DBQ20080627133513106/27/08 13:35:31  5-MIN KDBQ 271935Z 22012KT 6SM -RA BR FEW013 BKN021 BKN035 23/21 A2976 1230 90 2500 220/12 RMK AO2 RAB1855 P0001
94908KDBQ DBQ20080627134013006/27/08 13:40:31  5-MIN KDBQ 271940Z 22012KT 6SM BR SCT013 BKN021 BKN027 23/21 A2976 1230 90 2500 220/12 RMK AO2 RAB1855E38 P0001
94908KDBQ DBQ20080627134513006/27/08 13:45:31  5-MIN KDBQ 271945Z 22013KT 6SM BR FEW013 SCT020 BKN027 23/21 A2976 1230 90 2500 220/13 RMK AO2 RAB1855E38 P0001
94908KDBQ DBQ20080627135015406/27/08 13:50:31  5-MIN KDBQ 271950Z 23013G19KT 6SM -RA BR FEW015 SCT020 BKN029 23/21 A2975 1230 87 2500 230/13G19 RMK AO2 RAB1855 SLP071 P0001 T02280206
94908KDBQ DBQ20080627135512606/27/08 13:55:31  5-MIN KDBQ 271955Z 23013G19KT 7SM -RA FEW015 SCT020 BKN028 23/21 A2975 1230 87 2500 230/13G19 RMK AO2 P0000
94908KDBQ DBQ20080627140012006/27/08 14:00:31  5-MIN KDBQ 272000Z 23012KT 8SM -RA FEW015 SCT021 BKN026 23/21 A2975 1230 87 2500 230/12 RMK AO2 P0000
94908KDBQ DBQ20080627140512006/27/08 14:05:31  5-MIN KDBQ 272005Z 25010KT 8SM -RA FEW015 SCT021 BKN026 23/21 A2975 1230 87 2500 250/10 RMK AO2 P0000
94908KDBQ DBQ20080627141012606/27/08 14:10:31  5-MIN KDBQ 272010Z 26012G19KT 8SM -RA FEW015 SCT020 BKN027 23/21 A2975 1230 87 2500 250/12G19 RMK AO2 P0000
94908KDBQ DBQ20080627141512606/27/08 14:15:31  5-MIN KDBQ 272015Z 25014G19KT 9SM -RA FEW020 BKN027 BKN034 23/20 A2975 1240 84 2500 250/14G19 RMK AO2 P0001
94908KDBQ DBQ20080627142012106/27/08 14:20:31  5-MIN KDBQ 272020Z 25012KT 10SM -RA FEW020 BKN027 BKN034 23/20 A2975 1240 81 2500 250/12 RMK AO2 P0001
94908KDBQ DBQ20080627142510906/27/08 14:25:31  5-MIN KDBQ 272025Z 25013KT 10SM FEW020 23/20 A2975 1240 81 2500 250/13 RMK AO2 RAE24 P0001
94908KDBQ DBQ20080627143010906/27/08 14:30:31  5-MIN KDBQ 272030Z 25014KT 10SM FEW020 23/20 A2975 1240 81 2500 250/14 RMK AO2 RAE24 P0001
94908KDBQ DBQ20080627143511506/27/08 14:35:31  5-MIN KDBQ 272035Z 26013G20KT 10SM FEW022 23/19 A2975 1240 78 2500 260/13G20 RMK AO2 RAE24 P0001
94908KDBQ DBQ20080627144011206/27/08 14:40:31  5-MIN KDBQ 272040Z 25012G20KT 10SM CLR 23/19 A2974 1240 78 2500 250/12G20 RMK AO2 RAE24 P0001
94908KDBQ DBQ20080627144510606/27/08 14:45:31  5-MIN KDBQ 272045Z 25013KT 10SM CLR 23/19 A2974 1250 81 2500 250/13 RMK AO2 RAE24 P0001
94908KDBQ DBQ20080627145013506/27/08 14:50:31  5-MIN KDBQ 272050Z 25010KT 10SM CLR 23/19 A2974 1250 78 2500 250/10 RMK AO2 RAE24 SLP064 P0001 60002 T02330194 55018
94908KDBQ DBQ20080627145509406/27/08 14:55:31  5-MIN KDBQ 272055Z 25011KT 10SM CLR 23/19 A2973 1250 78 2500 250/11 RMK AO2
94908KDBQ DBQ20080627150009406/27/08 15:00:31  5-MIN KDBQ 272100Z 25013KT 10SM CLR 24/19 A2974 1250 76 2600 250/13 RMK AO2
94908KDBQ DBQ20080627150509406/27/08 15:05:31  5-MIN KDBQ 272105Z 25010KT 10SM CLR 24/20 A2973 1250 76 2700 250/10 RMK AO2
94908KDBQ DBQ20080627151009906/27/08 15:10:31  5-MIN KDBQ 272110Z 25015G19KT 9SM CLR 24/19 A2973 1260 73 2700 250/15G19 RMK AO2
94908KDBQ DBQ20080627151509906/27/08 15:15:31  5-MIN KDBQ 272115Z 25016G21KT 9SM CLR 25/19 A2973 1250 71 2700 250/16G21 RMK AO2
94908KDBQ DBQ20080627152010006/27/08 15:20:31  5-MIN KDBQ 272120Z 25017G21KT 10SM CLR 25/19 A2973 1260 71 2700 250/17G21 RMK AO2
94908KDBQ DBQ20080627152509706/27/08 15:25:31  5-MIN KDBQ 272125Z 26014KT 10SM FEW023 25/19 A2973 1260 71 2700 260/14 RMK AO2
94908KDBQ DBQ20080627153010306/27/08 15:30:31  5-MIN KDBQ 272130Z 25013G20KT 10SM FEW023 26/19 A2972 1260 68 2800 250/13G20 RMK AO2
94908KDBQ DBQ20080627153509706/27/08 15:35:31  5-MIN KDBQ 272135Z 26012KT 10SM SCT026 26/19 A2972 1260 68 2800 260/12 RMK AO2
94908KDBQ DBQ20080627154009706/27/08 15:40:31  5-MIN KDBQ 272140Z 25013KT 10SM SCT024 26/19 A2972 1260 68 2800 250/13 RMK AO2
94908KDBQ DBQ20080627154509706/27/08 15:45:31  5-MIN KDBQ 272145Z 25011KT 10SM SCT026 26/19 A2971 1270 68 2800 250/11 RMK AO2
94908KDBQ DBQ20080627155012106/27/08 15:50:31  5-MIN KDBQ 272150Z 25013KT 10SM SCT026 SCT031 26/19 A2971 1270 66 2900 250/13 RMK AO2 SLP054 T02610194
94908KDBQ DBQ20080627155510406/27/08 15:55:31  5-MIN KDBQ 272155Z 25012KT 10SM FEW026 SCT031 26/19 A2971 1270 66 2900 250/12 RMK AO2
94908KDBQ DBQ20080627160009706/27/08 16:00:31  5-MIN KDBQ 272200Z 24012KT 10SM SCT026 26/19 A2970 1280 66 2900 240/12 RMK AO2
94908KDBQ DBQ20080627160509706/27/08 16:05:31  5-MIN KDBQ 272205Z 24012KT 10SM SCT028 26/19 A2970 1280 66 2800 240/12 RMK AO2
94908KDBQ DBQ20080627161009706/27/08 16:10:31  5-MIN KDBQ 272210Z 23015KT 10SM SCT028 26/19 A2970 1280 66 2900 230/15 RMK AO2
94908KDBQ DBQ20080627161510306/27/08 16:15:31  5-MIN KDBQ 272215Z 25012G18KT 10SM FEW028 26/19 A2970 1280 64 2900 240/12G18 RMK AO2
94908KDBQ DBQ20080627162009706/27/08 16:20:31  5-MIN KDBQ 272220Z 24011KT 10SM FEW028 26/19 A2970 1290 64 2900 240/11 RMK AO2
94908KDBQ DBQ20080627162510306/27/08 16:25:31  5-MIN KDBQ 272225Z 25013G18KT 10SM FEW028 26/19 A2970 1290 66 2800 250/13G18 RMK AO2
94908KDBQ DBQ20080627163010306/27/08 16:30:31  5-MIN KDBQ 272230Z 25010G18KT 10SM FEW028 26/19 A2969 1290 64 2900 250/10G18 RMK AO2
94908KDBQ DBQ20080627163510306/27/08 16:35:31  5-MIN KDBQ 272235Z 23012G17KT 10SM FEW028 26/19 A2969 1290 66 2900 230/12G17 RMK AO2
94908KDBQ DBQ20080627164010306/27/08 16:40:31  5-MIN KDBQ 272240Z 23009G17KT 10SM FEW028 26/19 A2969 1290 66 2900 230/09G17 RMK AO2
94908KDBQ DBQ20080627164509706/27/08 16:45:31  5-MIN KDBQ 272245Z 23012KT 10SM FEW028 26/19 A2969 1290 66 2900 230/12 RMK AO2
94908KDBQ DBQ20080627165011406/27/08 16:50:31  5-MIN KDBQ 272250Z 24009KT 10SM FEW028 26/19 A2969 1290 64 2900 240/09 RMK AO2 SLP048 T02610189
94908KDBQ DBQ20080627165509706/27/08 16:55:31  5-MIN KDBQ 272255Z 24013KT 10SM FEW028 26/19 A2969 1290 64 2900 240/13 RMK AO2
94908KDBQ DBQ20080627170009706/27/08 17:00:31  5-MIN KDBQ 272300Z 23011KT 10SM FEW028 26/19 A2969 1300 64 2900 230/11 RMK AO2
94908KDBQ DBQ20080627170509406/27/08 17:05:31  5-MIN KDBQ 272305Z 23012KT 10SM CLR 26/19 A2968 1300 64 2900 230/12 RMK AO2
94908KDBQ DBQ20080627171009406/27/08 17:10:31  5-MIN KDBQ 272310Z 23011KT 10SM CLR 26/19 A2968 1300 64 2900 230/11 RMK AO2
94908KDBQ DBQ20080627171509406/27/08 17:15:31  5-MIN KDBQ 272315Z 22010KT 10SM CLR 26/19 A2968 1300 64 2900 220/10 RMK AO2
94908KDBQ DBQ20080627172009406/27/08 17:20:31  5-MIN KDBQ 272320Z 22007KT 10SM CLR 26/19 A2968 1310 64 2900 220/07 RMK AO2
94908KDBQ DBQ20080627172509406/27/08 17:25:31  5-MIN KDBQ 272325Z 22008KT 10SM CLR 26/19 A2967 1310 66 2900 220/08 RMK AO2
94908KDBQ DBQ20080627173009406/27/08 17:30:31  5-MIN KDBQ 272330Z 22010KT 10SM CLR 26/18 A2967 1310 62 2900 220/10 RMK AO2
94908KDBQ DBQ20080627173509406/27/08 17:35:31  5-MIN KDBQ 272335Z 22009KT 10SM CLR 26/19 A2967 1310 64 2900 220/09 RMK AO2
94908KDBQ DBQ20080627174009406/27/08 17:40:31  5-MIN KDBQ 272340Z 23009KT 10SM CLR 26/18 A2967 1310 62 2900 230/09 RMK AO2
94908KDBQ DBQ20080627174509406/27/08 17:45:31  5-MIN KDBQ 272345Z 23010KT 10SM CLR 26/18 A2967 1310 62 2900 230/10 RMK AO2
94908KDBQ DBQ20080627175013506/27/08 17:50:31  5-MIN KDBQ 272350Z 22008KT 10SM CLR 26/18 A2967 1310 62 2900 220/08 RMK AO2 SLP040 60002 T02610183 10267 20228 50002
94908KDBQ DBQ20080627175509406/27/08 17:55:31  5-MIN KDBQ 272355Z 22008KT 10SM CLR 26/19 A2967 1310 64 2900 220/08 RMK AO2
94908KDBQ DBQ20080627180009406/27/08 18:00:31  5-MIN KDBQ 280000Z 23010KT 10SM CLR 26/18 A2967 1310 62 2900 220/10 RMK AO2
94908KDBQ DBQ20080627180509406/27/08 18:05:31  5-MIN KDBQ 280005Z 23009KT 10SM CLR 26/18 A2967 1310 64 2900 230/09 RMK AO2
94908KDBQ DBQ20080627181009406/27/08 18:10:31  5-MIN KDBQ 280010Z 23010KT 10SM CLR 26/18 A2967 1310 61 2900 230/10 RMK AO2
94908KDBQ DBQ20080627181509406/27/08 18:15:31  5-MIN KDBQ 280015Z 23008KT 10SM CLR 26/18 A2967 1310 61 2900 230/08 RMK AO2
94908KDBQ DBQ20080627182009406/27/08 18:20:31  5-MIN KDBQ 280020Z 23008KT 10SM CLR 26/18 A2968 1310 64 2900 230/08 RMK AO2
94908KDBQ DBQ20080627182509906/27/08 18:25:31  5-MIN KDBQ 280025Z AUTO 23007KT 10SM CLR 26/18 A2968 1300 61 2900 230/07 RMK AO2
94908KDBQ DBQ20080627183009906/27/08 18:30:31  5-MIN KDBQ 280030Z AUTO 22010KT 10SM CLR 26/18 A2968 1300 61 2800 220/10 RMK AO2
94908KDBQ DBQ20080627183511106/27/08 18:35:31  5-MIN KDBQ 280035Z AUTO 22008KT 10SM CLR 25/18 A2969 1290 64 2800 220/08 RMK AO2 LTG DSNT NW
94908KDBQ DBQ20080627184011106/27/08 18:40:31  5-MIN KDBQ 280040Z AUTO 22008KT 10SM CLR 25/18 A2969 1290 66 2800 220/08 RMK AO2 LTG DSNT NW
94908KDBQ DBQ20080627184511106/27/08 18:45:31  5-MIN KDBQ 280045Z AUTO 22007KT 10SM CLR 24/18 A2969 1290 68 2700 210/07 RMK AO2 LTG DSNT NW
94908KDBQ DBQ20080627185011606/27/08 18:50:31  5-MIN KDBQ 280050Z AUTO 22007KT 10SM CLR 24/18 A2969 1290 68 2700 220/07 RMK AO2 SLP049 T02440183
94908KDBQ DBQ20080627185509906/27/08 18:55:31  5-MIN KDBQ 280055Z AUTO 21007KT 10SM CLR 24/18 A2970 1290 71 2600 210/07 RMK AO2
94908KDBQ DBQ20080627190009906/27/08 19:00:31  5-MIN KDBQ 280100Z AUTO 22006KT 10SM CLR 24/18 A2970 1280 71 2600 210/06 RMK AO2
94908KDBQ DBQ20080627190509906/27/08 19:05:31  5-MIN KDBQ 280105Z AUTO 22007KT 10SM CLR 24/18 A2971 1280 71 2600 220/07 RMK AO2
94908KDBQ DBQ20080627191009906/27/08 19:10:31  5-MIN KDBQ 280110Z AUTO 22007KT 10SM CLR 24/18 A2971 1270 71 2600 220/07 RMK AO2
94908KDBQ DBQ20080627191509906/27/08 19:15:31  5-MIN KDBQ 280115Z AUTO 21007KT 10SM CLR 24/18 A2971 1270 71 2600 210/07 RMK AO2
94908KDBQ DBQ20080627192009906/27/08 19:20:31  5-MIN KDBQ 280120Z AUTO 20007KT 10SM CLR 23/18 A2970 1280 73 2600 200/07 RMK AO2
94908KDBQ DBQ20080627192511006/27/08 19:25:31  5-MIN KDBQ 280125Z AUTO 20008KT 10SM CLR 23/18 A2970 1280 73 2600 200/08 RMK AO2 LTG DSNT W
94908KDBQ DBQ20080627193011006/27/08 19:30:31  5-MIN KDBQ 280130Z AUTO 20009KT 10SM CLR 23/18 A2970 1290 73 2600 200/09 RMK AO2 LTG DSNT W
94908KDBQ DBQ20080627193511706/27/08 19:35:31  5-MIN KDBQ 280135Z AUTO 20010KT 10SM CLR 23/18 A2970 1290 73 2600 200/10 RMK AO2 LTG DSNT W AND NW
94908KDBQ DBQ20080627194011706/27/08 19:40:31  5-MIN KDBQ 280140Z AUTO 20010KT 10SM CLR 23/18 A2969 1290 73 2600 190/10 RMK AO2 LTG DSNT W AND NW
94908KDBQ DBQ20080627194511706/27/08 19:45:31  5-MIN KDBQ 280145Z AUTO 20010KT 10SM CLR 23/19 A2970 1290 76 2600 200/10 RMK AO2 LTG DSNT W AND NW
94908KDBQ DBQ20080627195013706/27/08 19:50:31  5-MIN KDBQ 280150Z AUTO 20010KT 10SM FEW120 23/19 A2970 1280 76 2600 200/10 RMK AO2 LTG DSNT W AND NW SLP050 T02330189
94908KDBQ DBQ20080627195511606/27/08 19:55:31  5-MIN KDBQ 280155Z AUTO 20009KT 10SM SCT120 23/19 A2970 1280 76 2600 200/09 RMK AO2 LTG DSNT SW-N
94908KDBQ DBQ20080627200012706/27/08 20:00:31  5-MIN KDBQ 280200Z AUTO 20009KT 10SM VCTS BKN110 23/19 A2970 1280 76 2600 200/09 RMK AO2 LTG DSNT SW-N TSB00
94908KDBQ DBQ20080627200513206/27/08 20:05:31  5-MIN KDBQ 280205Z AUTO 22010KT 10SM TS FEW050 BKN110 23/19 A2971 1270 76 2600 210/10 RMK AO2 LTG DSNT SW-N TSB00
94908KDBQ DBQ20080627201016506/27/08 20:10:31  5-MIN KDBQ 280210Z AUTO 24014G19KT 3SM +TSRA FEW007 SCT050 BKN110 23/19 A2975 1240 81 2500 240/14G19 RMK AO2 LTG DSNT SW-N TSB00RAB08 PRESRR P0000
94908KDBQ DBQ20080627201518506/27/08 20:15:31  5-MIN KDBQ 280215Z AUTO 24012G24KT 210V300 1 3/4SM +TSRA FEW005 SCT050 BKN110 21/17 A2976 1230 78 2300 240/12G24 210V300 RMK AO2 LTG DSNT SW-N TSB00RAB08 PRESRR P0018
94908KDBQ DBQ20080627202019206/27/08 20:20:31  5-MIN KDBQ 280220Z AUTO 33017G33KT 1 3/4SM +TSRA SCT003 BKN050 BKN110 19/16 A2975 1240 81 2100 330/17G33 RMK AO2 PK WND 32033/0216 WSHFT 0204 LTG DSNT ALQDS TSB00RAB08 P0020
94908KDBQ DBQ20080627202519506/27/08 20:25:31  5-MIN KDBQ 280225Z AUTO 32010G33KT 1 3/4SM +TSRA BR SCT005 BKN048 BKN110 19/17 A2974 1240 87 2000 320/10G33 RMK AO2 PK WND 32033/0216 WSHFT 0204 LTG DSNT NW-NE TSB00RAB08 P0030
94908KDBQ DBQ20080627203021706/27/08 20:30:31  5-MIN KDBQ 280230Z AUTO 31007G15KT 280V340 1 3/4SM +TSRA BR BKN009 BKN038 OVC048 18/17 A2972 1260 90 2000 310/07G15 280V340 RMK AO2 PK WND 32033/0216 WSHFT 0204 LTG DSNT W-NE TSB00RAB08 PRESFR P0036
94908KDBQ DBQ20080627203519706/27/08 20:35:31  5-MIN KDBQ 280235Z AUTO VRB03KT 2SM +TSRA BR BKN009 BKN036 OVC048 19/17 A2972 1270 90 2100 VRB/03 RMK AO2 PK WND 32033/0216 WSHFT 0204 VIS 1 1/4V3 LTG DSNT ALQDS TSB00RAB08 P0044
94908KDBQ DBQ20080627204018406/27/08 20:40:31  5-MIN KDBQ 280240Z AUTO 00000KT 3SM TSRA BR SCT007 BKN036 OVC046 19/17 A2972 1270 90 2100 000/00 RMK AO2 PK WND 32033/0216 WSHFT 0204 LTG DSNT ALQDS TSB00RAB08 P0046
94908KDBQ DBQ20080627204518806/27/08 20:45:31  5-MIN KDBQ 280245Z AUTO VRB03KT 7SM VCTS -RA SCT009 BKN036 OVC046 19/17 A2972 1260 90 2000 VRB/03 RMK AO2 PK WND 32033/0216 WSHFT 0204 LTG DSNT NE AND E TSB00RAB08 P0047
94908KDBQ DBQ20080627205021806/27/08 20:50:31  5-MIN KDBQ 280250Z AUTO 20006KT 10SM VCTS -RA FEW013 BKN036 OVC046 19/17 A2972 1260 90 2000 190/06 RMK AO2 PK WND 32033/0216 WSHFT 0204 LTG DSNT NE AND E TSB00RAB08 SLP060 P0047 60047 T01890172 56021
94908KDBQ DBQ20080627205513906/27/08 20:55:31  5-MIN KDBQ 280255Z AUTO 21006KT 10SM VCTS FEW016 BKN036 OVC047 19/17 A2972 1260 90 2000 210/06 RMK AO2 LTG DSNT NE AND E
94908KDBQ DBQ20080627210012806/27/08 21:00:31  5-MIN KDBQ 280300Z AUTO 23005KT 10SM BKN036 BKN047 19/18 A2972 1270 90 2100 230/05 RMK AO2 LTG DSNT E TSE0258
94908KDBQ DBQ20080627210512806/27/08 21:05:31  5-MIN KDBQ 280305Z AUTO 23005KT 10SM SCT036 SCT046 19/18 A2972 1260 90 2100 230/05 RMK AO2 LTG DSNT E TSE0258
94908KDBQ DBQ20080627211012106/27/08 21:10:31  5-MIN KDBQ 280310Z AUTO 23004KT 10SM FEW036 19/18 A2972 1260 90 2100 230/04 RMK AO2 LTG DSNT E TSE0258
94908KDBQ DBQ20080627211512106/27/08 21:15:31  5-MIN KDBQ 280315Z AUTO 23005KT 10SM FEW036 19/18 A2972 1260 93 2000 230/05 RMK AO2 LTG DSNT E TSE0258
94908KDBQ DBQ20080627212011006/27/08 21:20:31  5-MIN KDBQ 280320Z AUTO 23005KT 10SM FEW040 19/18 A2973 1260 93 2000 230/05 RMK AO2 TSE0258
94908KDBQ DBQ20080627212511706/27/08 21:25:31  5-MIN KDBQ 280325Z AUTO 20005KT 10SM FEW040 SCT110 19/18 A2972 1260 93 2100 200/05 RMK AO2 TSE0258
94908KDBQ DBQ20080627213011006/27/08 21:30:31  5-MIN KDBQ 280330Z AUTO 19006KT 10SM SCT110 19/18 A2971 1270 93 2100 190/06 RMK AO2 TSE0258
94908KDBQ DBQ20080627213511006/27/08 21:35:31  5-MIN KDBQ 280335Z AUTO 20007KT 10SM BKN110 19/18 A2971 1270 93 2100 190/07 RMK AO2 TSE0258
94908KDBQ DBQ20080627214011006/27/08 21:40:31  5-MIN KDBQ 280340Z AUTO 20007KT 10SM BKN110 19/18 A2971 1270 90 2100 200/07 RMK AO2 TSE0258
94908KDBQ DBQ20080627214511006/27/08 21:45:31  5-MIN KDBQ 280345Z AUTO 20005KT 10SM BKN110 19/18 A2971 1270 93 2100 200/05 RMK AO2 TSE0258
94908KDBQ DBQ20080627215012706/27/08 21:50:31  5-MIN KDBQ 280350Z AUTO 23005KT 10SM BKN110 19/18 A2972 1260 93 2000 230/05 RMK AO2 TSE0258 SLP059 T01890178
94908KDBQ DBQ20080627215510206/27/08 21:55:31  5-MIN KDBQ 280355Z AUTO 25005KT 10SM BKN100 19/18 A2972 1260 93 2000 250/05 RMK AO2
94908KDBQ DBQ20080627220010206/27/08 22:00:31  5-MIN KDBQ 280400Z AUTO 24006KT 10SM BKN100 19/18 A2972 1260 93 2000 240/06 RMK AO2
94908KDBQ DBQ20080627220510206/27/08 22:05:31  5-MIN KDBQ 280405Z AUTO 24007KT 10SM SCT110 19/18 A2973 1260 93 2000 240/07 RMK AO2
94908KDBQ DBQ20080627221010206/27/08 22:10:31  5-MIN KDBQ 280410Z AUTO 25007KT 10SM FEW100 19/18 A2973 1260 93 2000 250/07 RMK AO2
94908KDBQ DBQ20080627221510906/27/08 22:15:31  5-MIN KDBQ 280415Z AUTO 25008KT 10SM SCT095 SCT110 19/18 A2973 1250 90 2100 250/08 RMK AO2
94908KDBQ DBQ20080627222010206/27/08 22:20:31  5-MIN KDBQ 280420Z AUTO 25009KT 10SM SCT095 19/18 A2973 1250 93 2100 250/09 RMK AO2
94908KDBQ DBQ20080627222510206/27/08 22:25:31  5-MIN KDBQ 280425Z AUTO 26009KT 10SM FEW090 19/18 A2973 1250 93 2100 250/09 RMK AO2
94908KDBQ DBQ20080627223510206/27/08 22:35:31  5-MIN KDBQ 280435Z AUTO 26009KT 10SM FEW095 19/18 A2973 1250 93 2100 250/09 RMK AO2
94908KDBQ DBQ20080627224010206/27/08 22:40:31  5-MIN KDBQ 280440Z AUTO 25009KT 10SM FEW095 19/18 A2973 1260 93 2100 250/09 RMK AO2
94908KDBQ DBQ20080627224510206/27/08 22:45:31  5-MIN KDBQ 280445Z AUTO 25009KT 10SM FEW090 19/18 A2973 1260 93 2100 250/09 RMK AO2
94908KDBQ DBQ20080627225011906/27/08 22:50:31  5-MIN KDBQ 280450Z AUTO 26009KT 10SM FEW090 19/18 A2973 1260 93 2100 260/09 RMK AO2 SLP060 T01940183
94908KDBQ DBQ20080627225509906/27/08 22:55:31  5-MIN KDBQ 280455Z AUTO 26010KT 10SM CLR 19/18 A2973 1250 93 2100 260/10 RMK AO2
94908KDBQ DBQ20080627230010206/27/08 23:00:31  5-MIN KDBQ 280500Z AUTO 26010KT 10SM FEW090 19/18 A2973 1250 93 2100 260/10 RMK AO2
94908KDBQ DBQ20080627230510206/27/08 23:05:31  5-MIN KDBQ 280505Z AUTO 27010KT 10SM FEW085 19/18 A2973 1250 90 2100 260/10 RMK AO2
94908KDBQ DBQ20080627231010206/27/08 23:10:31  5-MIN KDBQ 280510Z AUTO 27011KT 10SM FEW085 19/18 A2973 1260 90 2100 270/11 RMK AO2
94908KDBQ DBQ20080627231510206/27/08 23:15:31  5-MIN KDBQ 280515Z AUTO 27011KT 10SM FEW090 19/18 A2973 1250 90 2100 270/11 RMK AO2
94908KDBQ DBQ20080627232010206/27/08 23:20:31  5-MIN KDBQ 280520Z AUTO 27012KT 10SM FEW090 19/18 A2973 1260 90 2100 270/12 RMK AO2
94908KDBQ DBQ20080627232510206/27/08 23:25:31  5-MIN KDBQ 280525Z AUTO 27011KT 10SM FEW090 19/18 A2973 1250 90 2100 270/11 RMK AO2
94908KDBQ DBQ20080627233009906/27/08 23:30:31  5-MIN KDBQ 280530Z AUTO 27009KT 10SM CLR 19/18 A2973 1260 90 2100 270/09 RMK AO2
94908KDBQ DBQ20080627233509906/27/08 23:35:31  5-MIN KDBQ 280535Z AUTO 27008KT 10SM CLR 19/18 A2973 1260 90 2100 270/08 RMK AO2
94908KDBQ DBQ20080627234009906/27/08 23:40:31  5-MIN KDBQ 280540Z AUTO 27009KT 10SM CLR 19/18 A2973 1250 90 2100 260/09 RMK AO2
94908KDBQ DBQ20080627234509906/27/08 23:45:31  5-MIN KDBQ 280545Z AUTO 26009KT 10SM CLR 19/18 A2973 1260 90 2100 260/09 RMK AO2
94908KDBQ DBQ20080627235015006/27/08 23:50:31  5-MIN KDBQ 280550Z AUTO 27010KT 10SM CLR 19/18 A2973 1260 90 2100 260/10 RMK AO2 SLP061 60047 T01940178 10261 20183 402670172 51018
94908KDBQ DBQ20080627235509906/27/08 23:55:31  5-MIN KDBQ 280555Z AUTO 27010KT 10SM CLR 19/18 A2973 1250 93 2100 270/10 RMK AO2
94908KDBQ DBQ20080628000009906/28/08 00:00:38  5-MIN KDBQ 280600Z AUTO 28010KT 10SM CLR 19/18 A2973 1250 93 2100 270/10 RMK AO2
94908KDBQ DBQ20080628000509906/28/08 00:05:31  5-MIN KDBQ 280605Z AUTO 28010KT 10SM CLR 19/18 A2973 1250 93 2100 280/10 RMK AO2
94908KDBQ DBQ20080628001009906/28/08 00:10:31  5-MIN KDBQ 280610Z AUTO 27009KT 10SM CLR 19/18 A2973 1250 93 2100 270/09 RMK AO2
94908KDBQ DBQ20080628001509906/28/08 00:15:32  5-MIN KDBQ 280615Z AUTO 28011KT 10SM CLR 19/18 A2973 1250 93 2100 270/11 RMK AO2
94908KDBQ DBQ20080628002009906/28/08 00:20:31  5-MIN KDBQ 280620Z AUTO 27010KT 10SM CLR 19/18 A2973 1250 90 2100 270/10 RMK AO2
94908KDBQ DBQ20080628002509906/28/08 00:25:31  5-MIN KDBQ 280625Z AUTO 27009KT 10SM CLR 19/18 A2973 1260 90 2100 270/09 RMK AO2
94908KDBQ DBQ20080628003009906/28/08 00:30:31  5-MIN KDBQ 280630Z AUTO 28009KT 10SM CLR 19/18 A2972 1260 90 2100 270/09 RMK AO2
94908KDBQ DBQ20080628003509906/28/08 00:35:31  5-MIN KDBQ 280635Z AUTO 28008KT 10SM CLR 19/18 A2972 1260 93 2000 280/08 RMK AO2
94908KDBQ DBQ20080628004009906/28/08 00:40:31  5-MIN KDBQ 280640Z AUTO 28009KT 10SM CLR 19/18 A2972 1270 93 2100 280/09 RMK AO2
94908KDBQ DBQ20080628004509906/28/08 00:45:31  5-MIN KDBQ 280645Z AUTO 27008KT 10SM CLR 19/17 A2972 1260 90 2100 270/08 RMK AO2
94908KDBQ DBQ20080628005011606/28/08 00:50:31  5-MIN KDBQ 280650Z AUTO 27009KT 10SM CLR 19/17 A2972 1260 90 2000 270/09 RMK AO2 SLP058 T01890172
94908KDBQ DBQ20080628005509906/28/08 00:55:31  5-MIN KDBQ 280655Z AUTO 27009KT 10SM CLR 19/17 A2972 1270 90 2100 270/09 RMK AO2
94908KDBQ DBQ20080628010009906/28/08 01:00:31  5-MIN KDBQ 280700Z AUTO 27009KT 10SM CLR 19/17 A2972 1260 90 2000 270/09 RMK AO2
94908KDBQ DBQ20080628010509906/28/08 01:05:31  5-MIN KDBQ 280705Z AUTO 27010KT 10SM CLR 19/17 A2971 1270 90 2100 270/10 RMK AO2
94908KDBQ DBQ20080628011009906/28/08 01:10:31  5-MIN KDBQ 280710Z AUTO 27009KT 10SM CLR 19/17 A2972 1270 90 2100 270/09 RMK AO2
94908KDBQ DBQ20080628011509906/28/08 01:15:31  5-MIN KDBQ 280715Z AUTO 26009KT 10SM CLR 19/17 A2971 1270 87 2100 260/09 RMK AO2
94908KDBQ DBQ20080628012009906/28/08 01:20:31  5-MIN KDBQ 280720Z AUTO 27008KT 10SM CLR 18/17 A2972 1270 90 2000 270/08 RMK AO2
94908KDBQ DBQ20080628012509906/28/08 01:25:31  5-MIN KDBQ 280725Z AUTO 26009KT 10SM CLR 18/17 A2971 1270 90 2000 260/09 RMK AO2
94908KDBQ DBQ20080628013009906/28/08 01:30:31  5-MIN KDBQ 280730Z AUTO 27010KT 10SM CLR 18/17 A2971 1270 90 2000 270/10 RMK AO2
94908KDBQ DBQ20080628013509906/28/08 01:35:31  5-MIN KDBQ 280735Z AUTO 26008KT 10SM CLR 18/17 A2971 1280 90 2000 260/08 RMK AO2
94908KDBQ DBQ20080628014009906/28/08 01:40:31  5-MIN KDBQ 280740Z AUTO 26009KT 10SM CLR 18/17 A2971 1270 90 2000 260/09 RMK AO2
94908KDBQ DBQ20080628014509906/28/08 01:45:31  5-MIN KDBQ 280745Z AUTO 27009KT 10SM CLR 18/17 A2971 1280 90 2000 270/09 RMK AO2
94908KDBQ DBQ20080628015011606/28/08 01:50:31  5-MIN KDBQ 280750Z AUTO 27009KT 10SM CLR 18/17 A2971 1270 90 2000 270/09 RMK AO2 SLP055 T01830167
94908KDBQ DBQ20080628015509906/28/08 01:55:31  5-MIN KDBQ 280755Z AUTO 27008KT 10SM CLR 18/16 A2970 1280 87 2000 270/08 RMK AO2
94908KDBQ DBQ20080628020009906/28/08 02:00:31  5-MIN KDBQ 280800Z AUTO 27010KT 10SM CLR 18/16 A2971 1280 87 2000 270/10 RMK AO2
94908KDBQ DBQ20080628020509906/28/08 02:05:31  5-MIN KDBQ 280805Z AUTO 27009KT 10SM CLR 18/16 A2970 1280 87 2000 270/09 RMK AO2
94908KDBQ DBQ20080628021009906/28/08 02:10:31  5-MIN KDBQ 280810Z AUTO 27010KT 10SM CLR 18/16 A2971 1280 90 1900 270/10 RMK AO2
94908KDBQ DBQ20080628021509906/28/08 02:15:31  5-MIN KDBQ 280815Z AUTO 27009KT 10SM CLR 18/16 A2971 1280 90 1900 270/09 RMK AO2
94908KDBQ DBQ20080628022009906/28/08 02:20:31  5-MIN KDBQ 280820Z AUTO 27009KT 10SM CLR 18/16 A2971 1280 90 1900 270/09 RMK AO2
94908KDBQ DBQ20080628022509906/28/08 02:25:31  5-MIN KDBQ 280825Z AUTO 27010KT 10SM CLR 18/16 A2970 1280 90 1900 270/10 RMK AO2
94908KDBQ DBQ20080628023009906/28/08 02:30:31  5-MIN KDBQ 280830Z AUTO 28010KT 10SM CLR 18/16 A2970 1280 90 1900 280/10 RMK AO2
94908KDBQ DBQ20080628023509906/28/08 02:35:31  5-MIN KDBQ 280835Z AUTO 28011KT 10SM CLR 18/16 A2970 1280 90 1900 270/11 RMK AO2
94908KDBQ DBQ20080628024009906/28/08 02:40:31  5-MIN KDBQ 280840Z AUTO 28010KT 10SM CLR 18/16 A2970 1280 90 1900 280/10 RMK AO2
94908KDBQ DBQ20080628024509906/28/08 02:45:31  5-MIN KDBQ 280845Z AUTO 27011KT 10SM CLR 18/16 A2970 1280 90 1900 270/11 RMK AO2
94908KDBQ DBQ20080628025012206/28/08 02:50:31  5-MIN KDBQ 280850Z AUTO 27011KT 10SM CLR 18/16 A2971 1280 90 1900 270/11 RMK AO2 SLP055 T01780161 52002
94908KDBQ DBQ20080628025509906/28/08 02:55:31  5-MIN KDBQ 280855Z AUTO 27011KT 10SM CLR 18/16 A2971 1280 90 1900 270/11 RMK AO2
94908KDBQ DBQ20080628030009906/28/08 03:00:31  5-MIN KDBQ 280900Z AUTO 27011KT 10SM CLR 18/16 A2971 1270 90 1900 270/11 RMK AO2
94908KDBQ DBQ20080628030509906/28/08 03:05:31  5-MIN KDBQ 280905Z AUTO 27010KT 10SM CLR 18/16 A2971 1270 90 1900 270/10 RMK AO2
94908KDBQ DBQ20080628031009906/28/08 03:10:31  5-MIN KDBQ 280910Z AUTO 26010KT 10SM CLR 18/16 A2972 1270 90 1900 260/10 RMK AO2
94908KDBQ DBQ20080628031509906/28/08 03:15:31  5-MIN KDBQ 280915Z AUTO 26010KT 10SM CLR 18/16 A2972 1260 90 1900 260/10 RMK AO2
94908KDBQ DBQ20080628032009906/28/08 03:20:31  5-MIN KDBQ 280920Z AUTO 26010KT 10SM CLR 18/16 A2972 1260 90 1900 260/10 RMK AO2
94908KDBQ DBQ20080628032509906/28/08 03:25:31  5-MIN KDBQ 280925Z AUTO 26008KT 10SM CLR 18/16 A2972 1260 90 1900 260/08 RMK AO2
94908KDBQ DBQ20080628033009906/28/08 03:30:31  5-MIN KDBQ 280930Z AUTO 27009KT 10SM CLR 18/16 A2972 1270 90 1900 270/09 RMK AO2
94908KDBQ DBQ20080628033509906/28/08 03:35:31  5-MIN KDBQ 280935Z AUTO 27009KT 10SM CLR 18/16 A2972 1260 90 1900 270/09 RMK AO2
94908KDBQ DBQ20080628034009906/28/08 03:40:31  5-MIN KDBQ 280940Z AUTO 27010KT 10SM CLR 18/16 A2972 1270 90 1900 270/10 RMK AO2
94908KDBQ DBQ20080628034509906/28/08 03:45:31  5-MIN KDBQ 280945Z AUTO 27008KT 10SM CLR 18/16 A2972 1270 90 1900 270/08 RMK AO2
94908KDBQ DBQ20080628035011606/28/08 03:50:31  5-MIN KDBQ 280950Z AUTO 27009KT 10SM CLR 17/16 A2972 1270 93 1900 270/09 RMK AO2 SLP056 T01720161
94908KDBQ DBQ20080628035509906/28/08 03:55:31  5-MIN KDBQ 280955Z AUTO 27008KT 10SM CLR 17/16 A2972 1260 93 1900 260/08 RMK AO2
94908KDBQ DBQ20080628040009906/28/08 04:00:31  5-MIN KDBQ 281000Z AUTO 27010KT 10SM CLR 18/16 A2973 1260 90 1900 270/10 RMK AO2
94908KDBQ DBQ20080628040509906/28/08 04:05:31  5-MIN KDBQ 281005Z AUTO 26008KT 10SM CLR 17/16 A2973 1250 93 1800 260/08 RMK AO2
94908KDBQ DBQ20080628041009906/28/08 04:10:31  5-MIN KDBQ 281010Z AUTO 26008KT 10SM CLR 17/16 A2973 1250 93 1800 260/08 RMK AO2
94908KDBQ DBQ20080628041509906/28/08 04:15:31  5-MIN KDBQ 281015Z AUTO 27007KT 10SM CLR 17/16 A2973 1250 93 1800 260/07 RMK AO2
94908KDBQ DBQ20080628042009906/28/08 04:20:31  5-MIN KDBQ 281020Z AUTO 26008KT 10SM CLR 17/16 A2974 1250 93 1800 260/08 RMK AO2
94908KDBQ DBQ20080628042509906/28/08 04:25:31  5-MIN KDBQ 281025Z AUTO 26009KT 10SM CLR 17/16 A2974 1250 93 1800 260/09 RMK AO2
94908KDBQ DBQ20080628043009906/28/08 04:30:31  5-MIN KDBQ 281030Z AUTO 25007KT 10SM CLR 17/16 A2974 1250 90 1800 250/07 RMK AO2
94908KDBQ DBQ20080628043509906/28/08 04:35:31  5-MIN KDBQ 281035Z AUTO 26007KT 10SM CLR 17/16 A2973 1250 90 1800 260/07 RMK AO2
94908KDBQ DBQ20080628044009906/28/08 04:40:31  5-MIN KDBQ 281040Z AUTO 25006KT 10SM CLR 17/16 A2973 1250 90 1800 250/06 RMK AO2
94908KDBQ DBQ20080628044509906/28/08 04:45:31  5-MIN KDBQ 281045Z AUTO 25006KT 10SM CLR 17/16 A2974 1250 90 1800 250/06 RMK AO2
94908KDBQ DBQ20080628045011606/28/08 04:50:31  5-MIN KDBQ 281050Z AUTO 24006KT 10SM CLR 17/16 A2974 1250 93 1800 240/06 RMK AO2 SLP064 T01670156
94908KDBQ DBQ20080628045509906/28/08 04:55:31  5-MIN KDBQ 281055Z AUTO 25006KT 10SM CLR 17/16 A2974 1240 93 1800 250/06 RMK AO2
94908KDBQ DBQ20080628050009906/28/08 05:00:31  5-MIN KDBQ 281100Z AUTO 25006KT 10SM CLR 17/16 A2974 1250 93 1800 250/06 RMK AO2
94908KDBQ DBQ20080628050509906/28/08 05:05:31  5-MIN KDBQ 281105Z AUTO 25007KT 10SM CLR 17/16 A2974 1250 93 1800 250/07 RMK AO2
94908KDBQ DBQ20080628051009906/28/08 05:10:31  5-MIN KDBQ 281110Z AUTO 26009KT 10SM CLR 17/16 A2974 1240 90 1800 260/09 RMK AO2
94908KDBQ DBQ20080628051509906/28/08 05:15:31  5-MIN KDBQ 281115Z AUTO 26010KT 10SM CLR 17/16 A2975 1240 90 1800 260/10 RMK AO2
94908KDBQ DBQ20080628052009406/28/08 05:20:31  5-MIN KDBQ 281120Z 27010KT 10SM CLR 17/16 A2974 1240 90 1800 260/10 RMK AO2
94908KDBQ DBQ20080628052509406/28/08 05:25:31  5-MIN KDBQ 281125Z 27010KT 10SM CLR 17/16 A2975 1240 90 1800 270/10 RMK AO2
94908KDBQ DBQ20080628053009406/28/08 05:30:31  5-MIN KDBQ 281130Z 28010KT 10SM CLR 17/16 A2975 1240 90 1800 280/10 RMK AO2
94908KDBQ DBQ20080628053509406/28/08 05:35:31  5-MIN KDBQ 281135Z 27011KT 10SM CLR 17/15 A2976 1230 87 1800 270/11 RMK AO2
94908KDBQ DBQ20080628054009406/28/08 05:40:31  5-MIN KDBQ 281140Z 27009KT 10SM CLR 17/15 A2976 1230 87 1800 270/09 RMK AO2
94908KDBQ DBQ20080628054509406/28/08 05:45:31  5-MIN KDBQ 281145Z 28010KT 10SM CLR 17/15 A2976 1230 87 1800 280/10 RMK AO2
94908KDBQ DBQ20080628055013506/28/08 05:50:31  5-MIN KDBQ 281150Z 28011KT 10SM CLR 18/15 A2976 1230 83 1900 280/11 RMK AO2 SLP071 70050 T01780150 10194 20167 55006
94908KDBQ DBQ20080628055509406/28/08 05:55:31  5-MIN KDBQ 281155Z 28011KT 10SM CLR 18/14 A2975 1230 81 1900 280/11 RMK AO2
94908KDBQ DBQ20080628060009406/28/08 06:00:31  5-MIN KDBQ 281200Z 28010KT 10SM CLR 18/14 A2976 1230 81 1900 280/10 RMK AO2
94908KDBQ DBQ20080628060509406/28/08 06:05:31  5-MIN KDBQ 281205Z 29011KT 10SM CLR 18/14 A2976 1220 78 1900 290/11 RMK AO2
94908KDBQ DBQ20080628061010006/28/08 06:10:31  5-MIN KDBQ 281210Z 29012G18KT 10SM CLR 18/14 A2976 1230 78 1900 290/12G18 RMK AO2
94908KDBQ DBQ20080628061509406/28/08 06:15:31  5-MIN KDBQ 281215Z 29011KT 10SM CLR 18/13 A2977 1220 75 1900 290/11 RMK AO2
94908KDBQ DBQ20080628062009406/28/08 06:20:31  5-MIN KDBQ 281220Z 29011KT 10SM CLR 18/13 A2977 1220 75 1900 290/11 RMK AO2
94908KDBQ DBQ20080628062510006/28/08 06:25:31  5-MIN KDBQ 281225Z 29012G20KT 10SM CLR 18/13 A2977 1220 75 1900 290/12G20 RMK AO2
94908KDBQ DBQ20080628063010006/28/08 06:30:31  5-MIN KDBQ 281230Z 29012G20KT 10SM CLR 18/13 A2976 1220 75 1900 280/12G20 RMK AO2
94908KDBQ DBQ20080628063509406/28/08 06:35:31  5-MIN KDBQ 281235Z 29012KT 10SM CLR 18/13 A2977 1220 70 1900 290/12 RMK AO2
94908KDBQ DBQ20080628064010006/28/08 06:40:31  5-MIN KDBQ 281240Z 29011G18KT 10SM CLR 18/13 A2977 1220 70 1900 290/11G18 RMK AO2
94908KDBQ DBQ20080628064510006/28/08 06:45:31  5-MIN KDBQ 281245Z 29013G18KT 10SM CLR 18/13 A2977 1220 70 1900 290/13G18 RMK AO2
94908KDBQ DBQ20080628065011706/28/08 06:50:31  5-MIN KDBQ 281250Z 29010G17KT 10SM CLR 18/13 A2977 1220 70 1900 290/10G17 RMK AO2 SLP074 T01830128
94908KDBQ DBQ20080628065509406/28/08 06:55:31  5-MIN KDBQ 281255Z 29011KT 10SM CLR 19/13 A2977 1220 70 2000 290/11 RMK AO2
94908KDBQ DBQ20080628070009406/28/08 07:00:31  5-MIN KDBQ 281300Z 29009KT 10SM CLR 19/13 A2977 1220 67 2000 290/09 RMK AO2
94908KDBQ DBQ20080628070509406/28/08 07:05:31  5-MIN KDBQ 281305Z 29011KT 10SM CLR 19/13 A2977 1220 70 2000 280/11 RMK AO2
94908KDBQ DBQ20080628071010006/28/08 07:10:31  5-MIN KDBQ 281310Z 28008G16KT 10SM CLR 19/13 A2977 1210 67 2000 280/08G16 RMK AO2
94908KDBQ DBQ20080628071510006/28/08 07:15:31  5-MIN KDBQ 281315Z 28009G16KT 10SM CLR 19/13 A2977 1220 67 2100 280/09G16 RMK AO2
94908KDBQ DBQ20080628072009406/28/08 07:20:31  5-MIN KDBQ 281320Z 27009KT 10SM CLR 19/13 A2978 1210 67 2000 270/09 RMK AO2
94908KDBQ DBQ20080628072510006/28/08 07:25:31  5-MIN KDBQ 281325Z 28013G18KT 10SM CLR 19/13 A2977 1210 67 2100 280/13G18 RMK AO2
94908KDBQ DBQ20080628073010006/28/08 07:30:31  5-MIN KDBQ 281330Z 29010G18KT 10SM CLR 19/13 A2978 1210 65 2000 290/10G18 RMK AO2
94908KDBQ DBQ20080628073510006/28/08 07:35:31  5-MIN KDBQ 281335Z 29013G19KT 10SM CLR 19/13 A2978 1210 65 2000 290/13G19 RMK AO2
94908KDBQ DBQ20080628074010006/28/08 07:40:31  5-MIN KDBQ 281340Z 29012G19KT 10SM CLR 20/13 A2977 1210 65 2100 290/12G19 RMK AO2
94908KDBQ DBQ20080628074510006/28/08 07:45:31  5-MIN KDBQ 281345Z 29011G18KT 10SM CLR 20/13 A2977 1210 63 2100 290/11G18 RMK AO2
94908KDBQ DBQ20080628075011106/28/08 07:50:31  5-MIN KDBQ 281350Z 28013KT 10SM CLR 21/13 A2978 1210 60 2200 280/13 RMK AO2 SLP077 T02060128
94908KDBQ DBQ20080628075510006/28/08 07:55:31  5-MIN KDBQ 281355Z 28011G19KT 10SM CLR 20/13 A2977 1210 63 2100 280/11G19 RMK AO2
94908KDBQ DBQ20080628080010006/28/08 08:00:31  5-MIN KDBQ 281400Z 28013G19KT 10SM CLR 21/13 A2978 1210 60 2200 280/13G19 RMK AO2
94908KDBQ DBQ20080628080510006/28/08 08:05:31  5-MIN KDBQ 281405Z 28013G21KT 10SM CLR 21/12 A2977 1210 58 2200 280/13G21 RMK AO2
94908KDBQ DBQ20080628081010006/28/08 08:10:31  5-MIN KDBQ 281410Z 28012G21KT 10SM CLR 21/13 A2978 1210 60 2200 280/12G21 RMK AO2
94908KDBQ DBQ20080628081509406/28/08 08:15:31  5-MIN KDBQ 281415Z 28013KT 10SM CLR 21/12 A2978 1210 58 2200 280/13 RMK AO2
94908KDBQ DBQ20080628082009406/28/08 08:20:31  5-MIN KDBQ 281420Z 29014KT 10SM CLR 21/12 A2978 1210 58 2200 280/14 RMK AO2
94908KDBQ DBQ20080628082509406/28/08 08:25:31  5-MIN KDBQ 281425Z 28013KT 10SM CLR 21/12 A2978 1210 54 2200 280/13 RMK AO2
94908KDBQ DBQ20080628083010006/28/08 08:30:31  5-MIN KDBQ 281430Z 29011G20KT 10SM CLR 21/12 A2977 1210 56 2200 290/11G20 RMK AO2
94908KDBQ DBQ20080628083510006/28/08 08:35:31  5-MIN KDBQ 281435Z 28010G16KT 10SM CLR 21/12 A2978 1210 56 2200 280/10G16 RMK AO2
94908KDBQ DBQ20080628084010006/28/08 08:40:31  5-MIN KDBQ 281440Z 30011G16KT 10SM CLR 22/12 A2977 1220 52 2300 290/11G16 RMK AO2
94908KDBQ DBQ20080628084510006/28/08 08:45:31  5-MIN KDBQ 281445Z 29012G17KT 10SM CLR 22/12 A2977 1220 54 2300 290/12G17 RMK AO2
94908KDBQ DBQ20080628085012306/28/08 08:50:31  5-MIN KDBQ 281450Z 29013G17KT 10SM CLR 22/11 A2977 1220 50 2300 290/13G17 RMK AO2 SLP075 T02170111 53016
94908KDBQ DBQ20080628085509406/28/08 08:55:31  5-MIN KDBQ 281455Z 30009KT 10SM CLR 22/11 A2976 1220 49 2300 300/09 RMK AO2
94908KDBQ DBQ20080628090009406/28/08 09:00:31  5-MIN KDBQ 281500Z 29011KT 10SM CLR 22/11 A2976 1230 47 2400 290/11 RMK AO2
94908KDBQ DBQ20080628090509406/28/08 09:05:31  5-MIN KDBQ 281505Z 31010KT 10SM CLR 22/11 A2976 1230 47 2400 300/10 RMK AO2
94908KDBQ DBQ20080628091009406/28/08 09:10:31  5-MIN KDBQ 281510Z 29006KT 10SM CLR 22/11 A2976 1230 49 2400 290/06 RMK AO2
94908KDBQ DBQ20080628091509406/28/08 09:15:31  5-MIN KDBQ 281515Z 27010KT 10SM CLR 23/12 A2976 1230 49 2500 270/10 RMK AO2
94908KDBQ DBQ20080628092009406/28/08 09:20:31  5-MIN KDBQ 281520Z 26010KT 10SM CLR 23/11 A2976 1230 47 2500 260/10 RMK AO2
94908KDBQ DBQ20080628092509406/28/08 09:25:31  5-MIN KDBQ 281525Z 27011KT 10SM CLR 23/11 A2975 1230 47 2500 270/11 RMK AO2
94908KDBQ DBQ20080628093009406/28/08 09:30:31  5-MIN KDBQ 281530Z 25010KT 10SM CLR 23/12 A2975 1230 49 2500 250/10 RMK AO2
94908KDBQ DBQ20080628093509406/28/08 09:35:31  5-MIN KDBQ 281535Z 26009KT 10SM CLR 23/11 A2975 1240 45 2500 260/09 RMK AO2
94908KDBQ DBQ20080628094009406/28/08 09:40:31  5-MIN KDBQ 281540Z 25011KT 10SM CLR 23/11 A2975 1240 47 2500 250/11 RMK AO2
94908KDBQ DBQ20080628094509406/28/08 09:45:31  5-MIN KDBQ 281545Z 24010KT 10SM CLR 23/11 A2975 1240 45 2500 240/10 RMK AO2
94908KDBQ DBQ20080628095011106/28/08 09:50:31  5-MIN KDBQ 281550Z 26013KT 10SM CLR 23/11 A2975 1240 47 2500 260/13 RMK AO2 SLP068 T02280111
94908KDBQ DBQ20080628095510006/28/08 09:55:31  5-MIN KDBQ 281555Z 25010G16KT 10SM CLR 22/10 A2974 1240 45 2400 250/10G16 RMK AO2
94908KDBQ DBQ20080628100010006/28/08 10:00:31  5-MIN KDBQ 281600Z 27010G16KT 10SM CLR 23/11 A2975 1240 47 2500 270/10G16 RMK AO2
94908KDBQ DBQ20080628100510006/28/08 10:05:31  5-MIN KDBQ 281605Z 25010G16KT 10SM CLR 24/12 A2975 1240 46 2600 250/10G16 RMK AO2
94908KDBQ DBQ20080628101010006/28/08 10:10:31  5-MIN KDBQ 281610Z 25014G18KT 10SM CLR 24/11 A2974 1240 44 2600 250/14G18 RMK AO2
94908KDBQ DBQ20080628101510006/28/08 10:15:31  5-MIN KDBQ 281615Z 23014G20KT 10SM CLR 23/11 A2974 1250 44 2500 230/14G20 RMK AO2
94908KDBQ DBQ20080628102010006/28/08 10:20:31  5-MIN KDBQ 281620Z 25014G20KT 10SM CLR 24/11 A2974 1250 42 2600 250/14G20 RMK AO2
94908KDBQ DBQ20080628102510006/28/08 10:25:31  5-MIN KDBQ 281625Z 24013G19KT 10SM CLR 24/11 A2973 1250 42 2600 240/13G19 RMK AO2
94908KDBQ DBQ20080628103009406/28/08 10:30:31  5-MIN KDBQ 281630Z 25013KT 10SM CLR 24/11 A2973 1250 42 2600 250/13 RMK AO2
94908KDBQ DBQ20080628103510006/28/08 10:35:31  5-MIN KDBQ 281635Z 24010G19KT 10SM CLR 24/11 A2973 1260 42 2700 240/10G19 RMK AO2
94908KDBQ DBQ20080628104010006/28/08 10:40:31  5-MIN KDBQ 281640Z 25014G19KT 10SM CLR 24/11 A2973 1260 42 2600 250/14G19 RMK AO2
94908KDBQ DBQ20080628104510006/28/08 10:45:31  5-MIN KDBQ 281645Z 25012G19KT 10SM CLR 23/11 A2973 1260 45 2500 250/12G19 RMK AO2
94908KDBQ DBQ20080628105011406/28/08 10:50:31  5-MIN KDBQ 281650Z 26013KT 10SM FEW110 23/11 A2972 1260 47 2500 250/13 RMK AO2 SLP060 T02280111
94908KDBQ DBQ20080628105510306/28/08 10:55:31  5-MIN KDBQ 281655Z 24012G18KT 10SM FEW110 24/11 A2971 1270 44 2600 240/12G18 RMK AO2
94908KDBQ DBQ20080628110011006/28/08 11:00:31  5-MIN KDBQ 281700Z 25016G23KT 10SM FEW100 24/12 A2971 1280 44 2700 250/16G23 RMK AO2 PRESFR
94908KDBQ DBQ20080628110510706/28/08 11:05:31  5-MIN KDBQ 281705Z 25018G24KT 10SM CLR 24/10 A2970 1280 39 2700 240/18G24 RMK AO2 PRESFR
94908KDBQ DBQ20080628111010006/28/08 11:10:31  5-MIN KDBQ 281710Z 25014G24KT 10SM CLR 24/11 A2970 1280 41 2700 240/14G24 RMK AO2
94908KDBQ DBQ20080628111511806/28/08 11:15:31  5-MIN KDBQ 281715Z 26022G28KT 10SM CLR 24/11 A2970 1290 41 2700 260/22G28 RMK AO2 PK WND 26028/1713
94908KDBQ DBQ20080628112012106/28/08 11:20:31  5-MIN KDBQ 281720Z 26020G28KT 10SM FEW065 23/11 A2969 1290 44 2600 260/20G28 RMK AO2 PK WND 26028/1713
94908KDBQ DBQ20080628112512106/28/08 11:25:31  5-MIN KDBQ 281725Z 25014G27KT 10SM FEW065 23/11 A2969 1290 45 2500 250/14G27 RMK AO2 PK WND 26028/1713
94908KDBQ DBQ20080628113012106/28/08 11:30:31  5-MIN KDBQ 281730Z 25017G26KT 10SM FEW095 24/12 A2968 1300 47 2700 250/17G26 RMK AO2 PK WND 26028/1713
94908KDBQ DBQ20080628113512106/28/08 11:35:31  5-MIN KDBQ 281735Z 25017G24KT 10SM FEW095 23/12 A2969 1290 49 2600 250/17G24 RMK AO2 PK WND 26028/1713
94908KDBQ DBQ20080628114012106/28/08 11:40:31  5-MIN KDBQ 281740Z 26018G24KT 10SM FEW070 23/12 A2969 1300 51 2500 260/18G24 RMK AO2 PK WND 26028/1713
94908KDBQ DBQ20080628114514406/28/08 11:45:31  5-MIN KDBQ 281745Z 26014G24KT 10SM -RA FEW050 SCT065 22/13 A2969 1290 54 2500 260/14G24 RMK AO2 PK WND 26028/1713 RAB45 P0000
94908KDBQ DBQ20080628115015106/28/08 11:50:31  5-MIN KDBQ 281750Z 27016G22KT 10SM -TSRA SCT049 SCT065 21/13 A2970 1280 63 2300 270/16G22 RMK AO2 PK WND 26028/1713 TSB50RAB45 P0000
94908KDBQ DBQ20080628115512206/28/08 11:55:31  5-MIN KDBQ 281755Z 27014G21KT 10SM -TSRA FEW048 SCT060 21/14 A2970 1290 65 2300 270/14G21 RMK AO2 P0000
94908KDBQ DBQ20080628120012706/28/08 12:00:31  5-MIN KDBQ 281800Z 27019G25KT 10SM TS FEW048 SCT055 23/14 A2969 1290 59 2500 270/19G25 RMK AO2 RAE1759 P0000
94908KDBQ DBQ20080628120516506/28/08 12:05:31  5-MIN KDBQ 281805Z 27020G26KT 10SM FEW050 SCT060 23/14 A2969 1290 59 2500 260/20G26 RMK AO2 PK WND 27026/1805 LTG DSNT NE AND E TSE05RAE1759 P0000
94908KDBQ DBQ20080628121016806/28/08 12:10:31  5-MIN KDBQ 281810Z 27025G29KT 10SM SCT050 SCT065 SCT100 22/14 A2969 1290 61 2400 270/25G29 RMK AO2 PK WND 27029/1810 LTG DSNT NW-E TSE05RAE1759 P0000
94908KDBQ DBQ20080628121516106/28/08 12:15:31  5-MIN KDBQ 281815Z 27019G29KT 10SM SCT055 BKN100 22/14 A2968 1300 59 2500 270/19G29 RMK AO2 PK WND 27029/1810 LTG DSNT NW-E TSE05RAE1759 P0000
94908KDBQ DBQ20080628122015906/28/08 12:20:31  5-MIN KDBQ 281820Z 26017G29KT 10SM FEW055 SCT080 23/14 A2970 1280 55 2600 260/17G29 RMK AO2 PK WND 26029/1817 LTG DSNT NW TSE05RAE1759 P0000
94908KDBQ DBQ20080628122514006/28/08 12:25:31  5-MIN KDBQ 281825Z 26026G35KT 10SM FEW055 23/13 A2968 1300 51 2600 260/26G35 RMK AO2 PK WND 27035/1824 TSE05RAE1759 P0000
94908KDBQ DBQ20080628123014006/28/08 12:30:31  5-MIN KDBQ 281830Z 26025G35KT 10SM FEW055 23/12 A2968 1300 47 2600 260/25G35 RMK AO2 PK WND 27035/1824 TSE05RAE1759 P0000
94908KDBQ DBQ20080628123515806/28/08 12:35:31  5-MIN KDBQ 281835Z 25027G36KT 10SM FEW055 SCT070 24/12 A2969 1290 46 2700 250/27G36 RMK AO2 PK WND 25036/1835 LTG DSNT N TSE05RAE1759 P0000
94908KDBQ DBQ20080628124015706/28/08 12:40:31  5-MIN KDBQ 281840Z 26023G41KT 10SM SCT055 23/11 A2968 1300 44 2600 260/23G41 RMK AO2 PK WND 26041/1836 LTG DSNT N AND E TSE05RAE1759 P0000
94908KDBQ DBQ20080628124515706/28/08 12:45:31  5-MIN KDBQ 281845Z 26027G41KT 10SM FEW055 24/11 A2968 1300 42 2700 260/27G41 RMK AO2 PK WND 26041/1836 LTG DSNT N AND E TSE05RAE1759 P0000
94908KDBQ DBQ20080628125016806/28/08 12:50:31  5-MIN KDBQ 281850Z 26029G37KT 10SM FEW060 23/10 A2969 1290 44 2500 260/29G37 RMK AO2 PK WND 26041/1836 LTG DSNT E TSE05RAE1759 SLP050 P0000 T02280100
94908KDBQ DBQ20080628125513806/28/08 12:55:31  5-MIN KDBQ 281855Z 27029G36KT 10SM -RA FEW037 SCT060 21/11 A2970 1290 52 2300 270/29G36 RMK AO2 PK WND 28036/1854 P0000
94908KDBQ DBQ20080628130013806/28/08 13:00:31  5-MIN KDBQ 281900Z 27018G36KT 10SM -RA FEW032 SCT060 19/12 A2970 1280 62 2100 270/18G36 RMK AO2 PK WND 28036/1854 P0000
94908KDBQ DBQ20080628130513806/28/08 13:05:31  5-MIN KDBQ 281905Z 28020G32KT 10SM -RA FEW024 22/13 A2971 1270 56 2400 280/20G32 RMK AO2 PK WND 28036/1854 PRESRR P0000
94908KDBQ DBQ20080628131013306/28/08 13:10:31  5-MIN KDBQ 281910Z 27024G31KT 10SM FEW060 22/13 A2971 1270 54 2400 270/24G31 RMK AO2 PK WND 28036/1854 RAE06 P0000
94908KDBQ DBQ20080628131513306/28/08 13:15:31  5-MIN KDBQ 281915Z 27029G36KT 10SM FEW060 23/12 A2971 1270 49 2500 270/29G36 RMK AO2 PK WND 28036/1914 RAE06 P0000
94908KDBQ DBQ20080628132013006/28/08 13:20:31  5-MIN KDBQ 281920Z 28027G36KT 10SM CLR 22/11 A2972 1270 49 2400 280/27G36 RMK AO2 PK WND 29036/1919 RAE06 P0000
94908KDBQ DBQ20080628132513306/28/08 13:25:31  5-MIN KDBQ 281925Z 28027G36KT 10SM FEW060 22/11 A2971 1280 47 2400 270/27G36 RMK AO2 PK WND 29036/1919 RAE06 P0000
94908KDBQ DBQ20080628133013306/28/08 13:30:31  5-MIN KDBQ 281930Z 27027G39KT 10SM FEW060 23/09 A2970 1280 42 2500 270/27G39 RMK AO2 PK WND 28039/1928 RAE06 P0000
94908KDBQ DBQ20080628133513006/28/08 13:35:31  5-MIN KDBQ 281935Z 27028G39KT 10SM CLR 23/09 A2970 1280 40 2500 270/28G39 RMK AO2 PK WND 28039/1928 RAE06 P0000
94908KDBQ DBQ20080628134013006/28/08 13:40:31  5-MIN KDBQ 281940Z 27026G37KT 10SM CLR 23/09 A2972 1270 40 2500 270/26G37 RMK AO2 PK WND 28039/1928 RAE06 P0000
94908KDBQ DBQ20080628134513306/28/08 13:45:31  5-MIN KDBQ 281945Z 27029G37KT 10SM FEW060 23/09 A2972 1260 40 2500 270/29G37 RMK AO2 PK WND 28039/1928 RAE06 P0000
94908KDBQ DBQ20080628135015006/28/08 13:50:31  5-MIN KDBQ 281950Z 27025G37KT 10SM FEW060 22/08 A2972 1260 42 2400 270/25G37 RMK AO2 PK WND 28039/1928 RAE06 SLP060 P0000 T02170083
94908KDBQ DBQ20080628135512106/28/08 13:55:31  5-MIN KDBQ 281955Z 29029G36KT 10SM FEW065 22/09 A2973 1260 42 2400 290/29G36 RMK AO2 PK WND 30036/1954
94908KDBQ DBQ20080628140012106/28/08 14:00:31  5-MIN KDBQ 282000Z 28028G36KT 10SM FEW065 22/09 A2973 1260 42 2400 280/28G36 RMK AO2 PK WND 27036/1958
94908KDBQ DBQ20080628140512806/28/08 14:05:31  5-MIN KDBQ 282005Z 28025G36KT 10SM FEW065 SCT085 22/08 A2974 1250 42 2400 280/25G36 RMK AO2 PK WND 27036/2003
94908KDBQ DBQ20080628141012806/28/08 14:10:31  5-MIN KDBQ 282010Z 28024G36KT 10SM FEW065 SCT090 22/09 A2972 1260 43 2400 270/24G36 RMK AO2 PK WND 27036/2003
94908KDBQ DBQ20080628141512806/28/08 14:15:31  5-MIN KDBQ 282015Z 27022G37KT 10SM FEW065 SCT090 22/09 A2974 1250 43 2400 270/22G37 RMK AO2 PK WND 26037/2012
94908KDBQ DBQ20080628142012106/28/08 14:20:31  5-MIN KDBQ 282020Z 27027G37KT 10SM FEW085 22/09 A2974 1250 42 2400 270/27G37 RMK AO2 PK WND 26037/2012
94908KDBQ DBQ20080628142512106/28/08 14:25:31  5-MIN KDBQ 282025Z 28024G39KT 10SM SCT085 22/08 A2973 1250 40 2400 280/24G39 RMK AO2 PK WND 28039/2023
94908KDBQ DBQ20080628143012106/28/08 14:30:31  5-MIN KDBQ 282030Z 27025G39KT 10SM FEW090 22/09 A2972 1260 42 2400 270/25G39 RMK AO2 PK WND 28039/2023
94908KDBQ DBQ20080628143512106/28/08 14:35:31  5-MIN KDBQ 282035Z 28026G38KT 10SM FEW090 22/09 A2973 1250 42 2400 280/26G38 RMK AO2 PK WND 28039/2023
94908KDBQ DBQ20080628144012106/28/08 14:40:31  5-MIN KDBQ 282040Z 27022G38KT 10SM FEW090 22/09 A2973 1250 42 2400 270/22G38 RMK AO2 PK WND 28039/2023
94908KDBQ DBQ20080628144512106/28/08 14:45:31  5-MIN KDBQ 282045Z 28020G34KT 10SM FEW060 23/10 A2974 1250 44 2500 280/20G34 RMK AO2 PK WND 28039/2023
94908KDBQ DBQ20080628145015006/28/08 14:50:31  5-MIN KDBQ 282050Z 28028G35KT 10SM FEW060 22/09 A2974 1250 42 2400 280/28G35 RMK AO2 PK WND 28039/2023 SLP066 60000 T02220089 58020
94908KDBQ DBQ20080628145512106/28/08 14:55:31  5-MIN KDBQ 282055Z 28026G36KT 10SM FEW060 22/09 A2974 1240 42 2400 280/26G36 RMK AO2 PK WND 28035/2054
94908KDBQ DBQ20080628150012806/28/08 15:00:31  5-MIN KDBQ 282100Z 28021G36KT 10SM FEW060 SCT095 22/09 A2975 1240 45 2300 280/21G36 RMK AO2 PK WND 28035/2054
94908KDBQ DBQ20080628150512806/28/08 15:05:31  5-MIN KDBQ 282105Z 27024G31KT 10SM FEW060 SCT090 22/09 A2974 1240 45 2300 270/24G31 RMK AO2 PK WND 28035/2054
94908KDBQ DBQ20080628151012806/28/08 15:10:31  5-MIN KDBQ 282110Z 27023G32KT 10SM FEW060 SCT090 21/09 A2974 1250 47 2300 270/23G32 RMK AO2 PK WND 28035/2054
94908KDBQ DBQ20080628151512806/28/08 15:15:31  5-MIN KDBQ 282115Z 26022G32KT 10SM FEW060 SCT090 21/09 A2974 1250 47 2300 260/22G32 RMK AO2 PK WND 28035/2054
94908KDBQ DBQ20080628152012806/28/08 15:20:31  5-MIN KDBQ 282120Z 28019G27KT 10SM FEW060 BKN090 22/10 A2973 1250 47 2400 270/19G27 RMK AO2 PK WND 28035/2054
94908KDBQ DBQ20080628152512806/28/08 15:25:31  5-MIN KDBQ 282125Z 28022G31KT 10SM FEW055 BKN090 22/09 A2974 1240 45 2300 280/22G31 RMK AO2 PK WND 28035/2054
94908KDBQ DBQ20080628153012806/28/08 15:30:31  5-MIN KDBQ 282130Z 27019G31KT 10SM FEW060 BKN090 22/10 A2973 1250 45 2400 270/19G31 RMK AO2 PK WND 28035/2054
94908KDBQ DBQ20080628153512806/28/08 15:35:31  5-MIN KDBQ 282135Z 26023G29KT 10SM FEW055 SCT090 22/10 A2973 1250 45 2400 260/23G29 RMK AO2 PK WND 28035/2054
94908KDBQ DBQ20080628154012806/28/08 15:40:31  5-MIN KDBQ 282140Z 27021G33KT 10SM FEW055 SCT090 21/09 A2974 1250 45 2300 260/21G33 RMK AO2 PK WND 28035/2054
94908KDBQ DBQ20080628154512806/28/08 15:45:31  5-MIN KDBQ 282145Z 27019G33KT 10SM FEW060 SCT090 22/09 A2973 1250 45 2400 270/19G33 RMK AO2 PK WND 28035/2054
94908KDBQ DBQ20080628155014506/28/08 15:50:31  5-MIN KDBQ 282150Z 27021G29KT 10SM FEW060 SCT090 22/09 A2973 1250 45 2400 260/21G29 RMK AO2 PK WND 28035/2054 SLP063 T02170094
94908KDBQ DBQ20080628155512106/28/08 15:55:31  5-MIN KDBQ 282155Z 26024G34KT 10SM FEW060 22/09 A2973 1260 43 2400 260/24G34 RMK AO2 PK WND 26031/2154
94908KDBQ DBQ20080628160013506/28/08 16:00:31  5-MIN KDBQ 282200Z 27021G34KT 10SM FEW060 SCT070 SCT090 22/09 A2974 1250 43 2300 270/21G34 RMK AO2 PK WND 26031/2154
94908KDBQ DBQ20080628160512806/28/08 16:05:31  5-MIN KDBQ 282205Z 27020G29KT 10SM SCT060 BKN090 21/09 A2974 1250 47 2300 270/20G29 RMK AO2 PK WND 26031/2154
94908KDBQ DBQ20080628161013506/28/08 16:10:31  5-MIN KDBQ 282210Z 26019G29KT 10SM SCT060 BKN075 BKN090 21/09 A2973 1250 45 2300 260/19G29 RMK AO2 PK WND 26031/2154
94908KDBQ DBQ20080628161512806/28/08 16:15:31  5-MIN KDBQ 282215Z 27018G27KT 10SM SCT060 BKN075 22/09 A2973 1260 45 2400 270/18G27 RMK AO2 PK WND 26031/2154
94908KDBQ DBQ20080628162012806/28/08 16:20:31  5-MIN KDBQ 282220Z 28023G31KT 10SM SCT055 BKN070 22/09 A2973 1260 43 2400 280/23G31 RMK AO2 PK WND 28031/2219
94908KDBQ DBQ20080628162512806/28/08 16:25:31  5-MIN KDBQ 282225Z 28017G31KT 10SM SCT055 SCT070 22/09 A2974 1250 43 2400 280/17G31 RMK AO2 PK WND 28031/2219
94908KDBQ DBQ20080628163012806/28/08 16:30:31  5-MIN KDBQ 282230Z 27022G31KT 10SM SCT055 SCT070 22/09 A2973 1260 43 2400 270/22G31 RMK AO2 PK WND 28031/2227
94908KDBQ DBQ20080628163512106/28/08 16:35:31  5-MIN KDBQ 282235Z 27021G31KT 10SM FEW060 22/09 A2972 1260 43 2400 270/21G31 RMK AO2 PK WND 28031/2227
94908KDBQ DBQ20080628164012806/28/08 16:40:31  5-MIN KDBQ 282240Z 27018G30KT 10SM FEW055 SCT100 21/09 A2974 1250 46 2200 270/18G30 RMK AO2 PK WND 28031/2227
94908KDBQ DBQ20080628164512806/28/08 16:45:31  5-MIN KDBQ 282245Z 26018G30KT 10SM FEW060 SCT095 21/09 A2973 1250 46 2200 260/18G30 RMK AO2 PK WND 28031/2227
94908KDBQ DBQ20080628165014506/28/08 16:50:31  5-MIN KDBQ 282250Z 27020G30KT 10SM FEW060 BKN090 21/09 A2973 1260 48 2200 270/20G30 RMK AO2 PK WND 28031/2227 SLP063 T02060094
94908KDBQ DBQ20080628165512106/28/08 16:55:31  5-MIN KDBQ 282255Z 26020G28KT 10SM BKN090 21/09 A2972 1260 48 2200 250/20G28 RMK AO2 PK WND 26026/2255
94908KDBQ DBQ20080628170012106/28/08 17:00:31  5-MIN KDBQ 282300Z 27020G27KT 10SM BKN090 21/09 A2972 1260 48 2200 270/20G27 RMK AO2 PK WND 25027/2256
94908KDBQ DBQ20080628170512106/28/08 17:05:31  5-MIN KDBQ 282305Z 27014G27KT 10SM BKN090 21/09 A2973 1260 48 2200 270/14G27 RMK AO2 PK WND 25027/2256
94908KDBQ DBQ20080628171012806/28/08 17:10:31  5-MIN KDBQ 282310Z 27013G21KT 10SM SCT075 BKN090 21/10 A2973 1250 50 2200 270/13G21 RMK AO2 PK WND 25027/2256
94908KDBQ DBQ20080628171512806/28/08 17:15:31  5-MIN KDBQ 282315Z 26014G21KT 10SM BKN070 BKN090 21/10 A2972 1260 50 2200 260/14G21 RMK AO2 PK WND 25027/2256
94908KDBQ DBQ20080628172012806/28/08 17:20:31  5-MIN KDBQ 282320Z 26015G21KT 10SM BKN070 BKN085 21/11 A2973 1260 52 2200 260/15G21 RMK AO2 PK WND 25027/2256
94908KDBQ DBQ20080628172512806/28/08 17:25:31  5-MIN KDBQ 282325Z 26016G25KT 10SM BKN070 BKN085 21/10 A2972 1270 50 2200 260/16G25 RMK AO2 PK WND 25027/2256
94908KDBQ DBQ20080628173012806/28/08 17:30:31  5-MIN KDBQ 282330Z 26013G25KT 10SM BKN070 OVC090 21/11 A2972 1260 52 2200 260/13G25 RMK AO2 PK WND 25027/2256
94908KDBQ DBQ20080628173513506/28/08 17:35:31  5-MIN KDBQ 282335Z 26015G21KT 10SM FEW050 BKN060 OVC075 21/11 A2972 1260 52 2200 260/15G21 RMK AO2 PK WND 25027/2256
94908KDBQ DBQ20080628174014406/28/08 17:40:31  5-MIN KDBQ 282340Z 26016G21KT 10SM -RA SCT050 OVC070 19/11 A2972 1260 58 2100 260/16G21 RMK AO2 PK WND 25027/2256 RAB37 P0000
94908KDBQ DBQ20080628174514406/28/08 17:45:31  5-MIN KDBQ 282345Z 26021G28KT 10SM -RA BKN050 OVC070 19/12 A2973 1260 62 2000 260/21G28 RMK AO2 PK WND 26028/2344 RAB37 P0000
94908KDBQ DBQ20080628175019106/28/08 17:50:31  5-MIN KDBQ 282350Z 28016G28KT 10SM SCT050 SCT060 OVC080 19/11 A2973 1260 58 2100 280/16G28 RMK AO2 PK WND 26028/2344 RAB37E50 SLP063 P0000 60000 T01940111 10239 20189 53012
94908KDBQ DBQ20080628175511706/28/08 17:55:31  5-MIN KDBQ 282355Z 27014G23KT 10SM SCT050 SCT060 OVC085 19/12 A2972 1260 62 2100 270/14G23 RMK AO2
94908KDBQ DBQ20080628180011706/28/08 18:00:31  5-MIN KDBQ 290000Z 26013G23KT 10SM SCT050 BKN080 OVC095 18/12 A2972 1260 65 2000 260/13G23 RMK AO2
94908KDBQ DBQ20080628180511706/28/08 18:05:31  5-MIN KDBQ 290005Z 28014G19KT 10SM FEW050 SCT070 OVC085 18/12 A2972 1260 65 2000 270/14G19 RMK AO2
94908KDBQ DBQ20080628181011106/28/08 18:10:31  5-MIN KDBQ 290010Z 27012KT 10SM SCT050 BKN070 OVC085 18/12 A2973 1260 67 2000 270/12 RMK AO2
94908KDBQ DBQ20080628181513306/28/08 18:15:31  5-MIN KDBQ 290015Z 29014G19KT 10SM -RA SCT050 SCT065 OVC080 18/13 A2973 1250 72 1900 280/14G19 RMK AO2 RAB11 P0000
94908KDBQ DBQ20080628182012606/28/08 18:20:31  5-MIN KDBQ 290020Z 28014KT 9SM -RA FEW050 BKN070 OVC085 17/13 A2973 1250 78 1800 280/14 RMK AO2 RAB11 P0000
94908KDBQ DBQ20080628182513106/28/08 18:25:31  5-MIN KDBQ 290025Z 28013G21KT 7SM RA SCT050 BKN070 OVC085 16/13 A2973 1260 83 1700 280/13G21 RMK AO2 RAB11 P0000
94908KDBQ DBQ20080628183013206/28/08 18:30:31  5-MIN KDBQ 290030Z 27012G22KT 8SM -RA FEW048 BKN060 OVC080 16/14 A2973 1260 86 1700 270/12G22 RMK AO2 RAB11 P0000
94908KDBQ DBQ20080628183513206/28/08 18:35:31  5-MIN KDBQ 290035Z 27010G22KT 10SM FEW049 BKN060 OVC090 16/14 A2972 1260 86 1700 270/10G22 RMK AO2 RAB11E34 P0000
94908KDBQ DBQ20080628184013106/28/08 18:40:31  5-MIN KDBQ 290040Z AUTO 27010KT 10SM SCT060 BKN080 OVC090 16/14 A2972 1260 86 1700 270/10 RMK AO2 RAB11E34 P0000
94908KDBQ DBQ20080628184513106/28/08 18:45:31  5-MIN KDBQ 290045Z AUTO 27009KT 10SM FEW050 BKN065 OVC090 17/14 A2972 1270 83 1800 270/09 RMK AO2 RAB11E34 P0000
94908KDBQ DBQ20080628185014806/28/08 18:50:31  5-MIN KDBQ 290050Z AUTO 27013KT 10SM BKN060 BKN080 OVC090 17/14 A2971 1270 83 1800 270/13 RMK AO2 RAB11E34 SLP058 P0000 T01670139
94908KDBQ DBQ20080628185511606/28/08 18:55:31  5-MIN KDBQ 290055Z AUTO 27009KT 10SM FEW060 BKN080 OVC095 17/14 A2971 1270 83 1800 270/09 RMK AO2
94908KDBQ DBQ20080628190011606/28/08 19:00:31  5-MIN KDBQ 290100Z AUTO 27008KT 10SM FEW044 BKN065 OVC090 17/14 A2970 1280 83 1800 270/08 RMK AO2
94908KDBQ DBQ20080628190511606/28/08 19:05:31  5-MIN KDBQ 290105Z AUTO 27008KT 10SM SCT042 BKN065 OVC090 17/14 A2970 1280 83 1800 270/08 RMK AO2
94908KDBQ DBQ20080628191012206/28/08 19:10:31  5-MIN KDBQ 290110Z AUTO 26008G14KT 10SM SCT040 BKN050 OVC090 17/14 A2970 1280 83 1800 260/08G14 RMK AO2
94908KDBQ DBQ20080628191513706/28/08 19:15:31  5-MIN KDBQ 290115Z AUTO 26010G15KT 5SM -RA SCT038 BKN046 OVC090 17/14 A2970 1280 83 1800 250/10G15 RMK AO2 RAB14 P0000
94908KDBQ DBQ20080628192014006/28/08 19:20:31  5-MIN KDBQ 290120Z AUTO 25010G16KT 4SM -RA BR FEW032 BKN041 OVC055 16/14 A2970 1280 90 1800 250/10G16 RMK AO2 RAB14 P0001
94908KDBQ DBQ20080628192513006/28/08 19:25:31  5-MIN KDBQ 290125Z AUTO 24008G16KT 8SM -RA SCT032 OVC042 16/14 A2969 1290 90 1800 240/08G16 RMK AO2 RAB14 P0001
94908KDBQ DBQ20080628193012406/28/08 19:30:31  5-MIN KDBQ 290130Z AUTO 25009KT 10SM FEW031 OVC043 16/14 A2969 1290 90 1800 250/09 RMK AO2 RAB14E27 P0001
94908KDBQ DBQ20080628193512406/28/08 19:35:31  5-MIN KDBQ 290135Z AUTO 24009KT 10SM FEW028 OVC041 16/14 A2969 1290 90 1800 240/09 RMK AO2 RAB14E27 P0001
94908KDBQ DBQ20080628194013106/28/08 19:40:31  5-MIN KDBQ 290140Z AUTO 24008KT 10SM FEW030 BKN039 OVC046 16/14 A2969 1300 90 1800 240/08 RMK AO2 RAB14E27 P0001
94908KDBQ DBQ20080628194512406/28/08 19:45:31  5-MIN KDBQ 290145Z AUTO 23009KT 10SM SCT030 OVC040 16/14 A2968 1300 86 1800 230/09 RMK AO2 RAB14E27 P0001
94908KDBQ DBQ20080628195014106/28/08 19:50:31  5-MIN KDBQ 290150Z AUTO 24008KT 10SM SCT030 OVC040 16/14 A2968 1300 86 1800 240/08 RMK AO2 RAB14E27 SLP046 P0001 T01610139
94908KDBQ DBQ20080628195511606/28/08 19:55:31  5-MIN KDBQ 290155Z AUTO 22008KT 10SM FEW030 BKN039 OVC055 16/14 A2967 1310 86 1800 220/08 RMK AO2
94908KDBQ DBQ20080628200011606/28/08 20:00:31  5-MIN KDBQ 290200Z AUTO 22008KT 10SM BKN032 BKN041 OVC055 16/14 A2967 1310 90 1800 220/08 RMK AO2
94908KDBQ DBQ20080628200510906/28/08 20:05:31  5-MIN KDBQ 290205Z AUTO 22007KT 10SM BKN032 OVC041 16/14 A2967 1310 90 1800 220/07 RMK AO2
94908KDBQ DBQ20080628201010806/28/08 20:10:31  5-MIN KDBQ 290210Z AUTO 22008KT 8SM FEW027 OVC035 16/14 A2967 1310 90 1800 220/08 RMK AO2
94908KDBQ DBQ20080628201513906/28/08 20:15:31  5-MIN KDBQ 290215Z AUTO 22009G15KT 4SM RA BR FEW025 SCT030 OVC035 16/14 A2966 1320 90 1800 220/09G15 RMK AO2 RAB12 P0000
94908KDBQ DBQ20080628202012706/28/08 20:20:31  5-MIN KDBQ 290220Z AUTO 22010KT 4SM -RA BR BKN027 OVC033 16/14 A2966 1320 90 1800 220/10 RMK AO2 RAB12 P0002
94908KDBQ DBQ20080628202513106/28/08 20:25:31  5-MIN KDBQ 290225Z AUTO 22013KT 8SM -RA FEW021 BKN027 OVC033 16/14 A2966 1320 90 1800 220/13 RMK AO2 RAB12 P0002
94908KDBQ DBQ20080628203013106/28/08 20:30:31  5-MIN KDBQ 290230Z AUTO 22011KT 10SM FEW021 BKN027 OVC034 16/14 A2966 1320 90 1800 220/11 RMK AO2 RAB12E26 P0002
94908KDBQ DBQ20080628203512306/28/08 20:35:31  5-MIN KDBQ 290235Z AUTO 22012G17KT 10SM OVC027 16/14 A2965 1330 90 1800 220/12G17 RMK AO2 RAB12E26 P0002
94908KDBQ DBQ20080628204012406/28/08 20:40:31  5-MIN KDBQ 290240Z AUTO 22013KT 10SM FEW021 OVC027 16/14 A2965 1330 90 1800 210/13 RMK AO2 RAB12E26 P0002
94908KDBQ DBQ20080628204512406/28/08 20:45:31  5-MIN KDBQ 290245Z AUTO 21012KT 10SM BKN027 OVC032 17/14 A2965 1330 86 1900 210/12 RMK AO2 RAB12E26 P0002
94908KDBQ DBQ20080628205014606/28/08 20:50:31  5-MIN KDBQ 290250Z AUTO 21010KT 10SM OVC027 16/14 A2965 1330 90 1800 210/10 RMK AO2 RAB12E26 SLP037 P0002 60003 T01610144 57003
94908KDBQ DBQ20080628205510206/28/08 20:55:31  5-MIN KDBQ 290255Z AUTO 21012KT 10SM OVC027 16/14 A2965 1330 90 1800 210/12 RMK AO2
94908KDBQ DBQ20080628210010206/28/08 21:00:31  5-MIN KDBQ 290300Z AUTO 20010KT 10SM OVC027 16/14 A2965 1330 90 1800 200/10 RMK AO2
94908KDBQ DBQ20080628210510206/28/08 21:05:31  5-MIN KDBQ 290305Z AUTO 20011KT 10SM OVC027 16/14 A2964 1340 90 1800 200/11 RMK AO2
94908KDBQ DBQ20080628211010206/28/08 21:10:31  5-MIN KDBQ 290310Z AUTO 20011KT 10SM OVC027 16/14 A2964 1340 90 1800 200/11 RMK AO2
94908KDBQ DBQ20080628211510206/28/08 21:15:31  5-MIN KDBQ 290315Z AUTO 20010KT 10SM OVC027 16/14 A2964 1340 90 1800 200/10 RMK AO2
94908KDBQ DBQ20080628212010206/28/08 21:20:31  5-MIN KDBQ 290320Z AUTO 21011KT 10SM OVC027 16/14 A2964 1340 90 1800 210/11 RMK AO2
94908KDBQ DBQ20080628212510206/28/08 21:25:31  5-MIN KDBQ 290325Z AUTO 21012KT 10SM OVC027 16/14 A2964 1340 90 1800 210/12 RMK AO2
94908KDBQ DBQ20080628213010106/28/08 21:30:31  5-MIN KDBQ 290330Z AUTO 21010KT 8SM OVC027 16/14 A2964 1340 90 1800 210/10 RMK AO2
94908KDBQ DBQ20080628213510106/28/08 21:35:31  5-MIN KDBQ 290335Z AUTO 21011KT 8SM OVC027 16/14 A2963 1340 90 1800 210/11 RMK AO2
94908KDBQ DBQ20080628214010806/28/08 21:40:31  5-MIN KDBQ 290340Z AUTO 22011KT 8SM BKN024 OVC029 16/14 A2964 1340 90 1800 220/11 RMK AO2
94908KDBQ DBQ20080628214513306/28/08 21:45:31  5-MIN KDBQ 290345Z AUTO 23013G18KT 5SM -RA BR BKN020 OVC029 16/14 A2964 1340 90 1800 230/13G18 RMK AO2 RAB41 P0000
94908KDBQ DBQ20080628215014906/28/08 21:50:31  5-MIN KDBQ 290350Z AUTO 23014G21KT 3SM RA BR BKN020 OVC027 16/15 A2963 1350 93 1800 230/14G21 RMK AO2 RAB41 SLP028 P0000 T01610150
94908KDBQ DBQ20080628215512706/28/08 21:55:31  5-MIN KDBQ 290355Z AUTO 23011G21KT 4SM -RA BR BKN020 OVC027 16/15 A2963 1350 93 1800 230/11G21 RMK AO2 P0000
94908KDBQ DBQ20080628220011706/28/08 22:00:31  5-MIN KDBQ 290400Z AUTO 24011G18KT 8SM -RA OVC020 16/16 A2963 1350 96 1800 230/11G18 RMK AO2 P0001
94908KDBQ DBQ20080628220512006/28/08 22:05:31  5-MIN KDBQ 290405Z AUTO 24013G20KT 10SM OVC020 17/16 A2963 1350 93 1900 240/13G20 RMK AO2 RAE02 P0001
94908KDBQ DBQ20080628221011706/28/08 22:10:31  5-MIN KDBQ 290410Z AUTO 25018G21KT 7SM -RA OVC020 17/16 A2962 1350 96 1900 250/18G21 RMK AO2 P0001
94908KDBQ DBQ20080628221511706/28/08 22:15:31  5-MIN KDBQ 290415Z AUTO 24011G21KT 7SM -RA OVC023 17/16 A2963 1350 96 1900 240/11G21 RMK AO2 P0001
94908KDBQ DBQ20080628222012106/28/08 22:20:31  5-MIN KDBQ 290420Z AUTO 23010KT 10SM BKN023 OVC028 17/16 A2963 1350 96 1900 230/10 RMK AO2 RAE19 P0001
94908KDBQ DBQ20080628222511406/28/08 22:25:31  5-MIN KDBQ 290425Z AUTO 24010KT 10SM OVC021 17/16 A2963 1350 96 1900 240/10 RMK AO2 RAE19 P0001
94908KDBQ DBQ20080628223011406/28/08 22:30:31  5-MIN KDBQ 290430Z AUTO 24011KT 10SM OVC021 17/16 A2963 1350 96 1900 240/11 RMK AO2 RAE19 P0001
94908KDBQ DBQ20080628223512106/28/08 22:35:31  5-MIN KDBQ 290435Z AUTO 24010KT 10SM BKN019 OVC025 17/16 A2962 1360 96 1900 240/10 RMK AO2 RAE19 P0001
94908KDBQ DBQ20080628224012706/28/08 22:40:31  5-MIN KDBQ 290440Z AUTO 24014G19KT 10SM BKN018 OVC023 17/16 A2962 1360 93 2000 240/14G19 RMK AO2 RAE19 P0001
94908KDBQ DBQ20080628224512706/28/08 22:45:31  5-MIN KDBQ 290445Z AUTO 25014G19KT 10SM BKN016 OVC023 17/16 A2962 1360 93 2000 250/14G19 RMK AO2 RAE19 P0001
94908KDBQ DBQ20080628225013706/28/08 22:50:31  5-MIN KDBQ 290450Z AUTO 25013G21KT 10SM OVC016 17/17 A2963 1350 96 2000 250/13G21 RMK AO2 RAE19 SLP028 P0001 T01720167
94908KDBQ DBQ20080628225510806/28/08 22:55:31  5-MIN KDBQ 290455Z AUTO 25013G21KT 10SM OVC016 18/17 A2962 1350 90 2100 250/13G21 RMK AO2
94908KDBQ DBQ20080628230010806/28/08 23:00:31  5-MIN KDBQ 290500Z AUTO 25015G21KT 10SM OVC016 17/17 A2963 1350 96 2000 250/15G21 RMK AO2
94908KDBQ DBQ20080628230510906/28/08 23:05:31  5-MIN KDBQ 290505Z AUTO 26013KT 10SM BKN014 OVC020 17/17 A2963 1350 96 2000 260/13 RMK AO2
94908KDBQ DBQ20080628231011506/28/08 23:10:31  5-MIN KDBQ 290510Z AUTO 26015G22KT 10SM BKN014 OVC020 17/17 A2963 1350 96 2000 260/15G22 RMK AO2
94908KDBQ DBQ20080628231511506/28/08 23:15:31  5-MIN KDBQ 290515Z AUTO 26012G22KT 10SM BKN014 OVC020 17/17 A2963 1350 96 2000 260/12G22 RMK AO2
94908KDBQ DBQ20080628232011506/28/08 23:20:31  5-MIN KDBQ 290520Z AUTO 26013G19KT 10SM BKN014 OVC020 17/17 A2963 1350 96 2000 260/13G19 RMK AO2
94908KDBQ DBQ20080628232512706/28/08 23:25:31  5-MIN KDBQ 290525Z AUTO 25015G19KT 10SM BKN014 OVC022 17/17 A2963 1350 96 2000 250/15G19 RMK AO2 CIG 009V019
94908KDBQ DBQ20080628233010906/28/08 23:30:31  5-MIN KDBQ 290530Z AUTO 26013KT 10SM FEW011 OVC019 17/17 A2963 1350 96 2000 260/13 RMK AO2
94908KDBQ DBQ20080628233511506/28/08 23:35:31  5-MIN KDBQ 290535Z AUTO 26012G18KT 10SM FEW011 OVC019 17/17 A2963 1350 96 2000 260/12G18 RMK AO2
94908KDBQ DBQ20080628234012206/28/08 23:40:31  5-MIN KDBQ 290540Z AUTO 25011G18KT 10SM FEW011 BKN019 OVC025 17/17 A2963 1350 96 2000 250/11G18 RMK AO2
94908KDBQ DBQ20080628234510906/28/08 23:45:31  5-MIN KDBQ 290545Z AUTO 25011KT 10SM BKN019 OVC027 17/17 A2963 1350 96 2000 250/11 RMK AO2
94908KDBQ DBQ20080628235017406/28/08 23:50:31  5-MIN KDBQ 290550Z AUTO 25010G16KT 10SM FEW013 BKN019 OVC027 17/17 A2963 1350 100 1900 250/10G16 RMK AO2 SLP030 60005 T01670167 10189 20161 402440161 58025
94908KDBQ DBQ20080628235511706/28/08 23:55:31  5-MIN KDBQ 290555Z AUTO 26008KT 10SM FEW010 BKN019 OVC027 17/17 A2963 1350 100 1900 260/08 RMK AO2
94908KDBQ DBQ20080629000013706/29/08 00:00:38  5-MIN KDBQ 290600Z AUTO 27006KT 4SM -RA BR FEW008 BKN012 OVC027 17/17 A2963 1350 100 1900 270/06 RMK AO2 RAB0558 P0000
94908KDBQ DBQ20080629000513706/29/08 00:05:31  5-MIN KDBQ 290605Z AUTO VRB04KT 4SM -RA BR SCT008 BKN012 OVC018 17/17 A2964 1340 100 1900 VRB/04 RMK AO2 RAB0558 P0000
94908KDBQ DBQ20080629001014606/29/08 00:10:31  5-MIN KDBQ 290610Z AUTO 28007KT 10SM BKN008 BKN014 OVC018 17/17 A2964 1340 100 1900 270/07 RMK AO2 RAB0558E10 CIG 007V012 P0000
94908KDBQ DBQ20080629001514606/29/08 00:15:34  5-MIN KDBQ 290615Z AUTO 28005KT 10SM BKN010 BKN014 OVC019 17/17 A2963 1340 100 1900 280/05 RMK AO2 RAB0558E10 CIG 007V012 P0000
94908KDBQ DBQ20080629002013906/29/08 00:20:31  5-MIN KDBQ 290620Z AUTO 01010G15KT 9SM SCT009 BKN012 OVC019 17/17 A2965 1330 100 1900 010/10G15 RMK AO2 RAB0558E10 P0000
94908KDBQ DBQ20080629002514106/29/08 00:25:31  5-MIN KDBQ 290625Z AUTO 02012G18KT 5SM RA BR SCT007 BKN012 OVC019 16/15 A2965 1330 96 1700 020/12G18 RMK AO2 RAB0558 P0001
94908KDBQ DBQ20080629003014206/29/08 00:30:31  5-MIN KDBQ 290630Z AUTO 03009G18KT 4SM -RA BR FEW007 BKN012 OVC021 15/14 A2965 1330 96 1700 030/09G18 RMK AO2 RAB0558 P0001
94908KDBQ DBQ20080629003513706/29/08 00:35:31  5-MIN KDBQ 290635Z AUTO 03008KT 5SM -RA BR SCT010 BKN022 OVC038 14/14 A2965 1330 100 1600 030/08 RMK AO2 RAB0558 P0001
94908KDBQ DBQ20080629004013306/29/08 00:40:31  5-MIN KDBQ 290640Z AUTO 01007KT 9SM FEW005 BKN022 OVC038 14/14 A2966 1320 100 1600 010/07 RMK AO2 RAB0558E40 P0001
94908KDBQ DBQ20080629004513406/29/08 00:45:31  5-MIN KDBQ 290645Z AUTO 36009KT 10SM BKN005 BKN013 OVC032 14/14 A2966 1320 100 1600 360/09 RMK AO2 RAB0558E40 P0001
94908KDBQ DBQ20080629005015106/29/08 00:50:31  5-MIN KDBQ 290650Z AUTO 36007KT 10SM BKN005 BKN010 OVC032 14/14 A2966 1320 100 1600 360/07 RMK AO2 RAB0558E40 SLP042 P0001 T01440144
94908KDBQ DBQ20080629005511706/29/08 00:55:31  5-MIN KDBQ 290655Z AUTO 35009KT 10SM BKN005 BKN021 OVC030 14/14 A2967 1310 100 1600 350/09 RMK AO2
94908KDBQ DBQ20080629010011706/29/08 01:00:31  5-MIN KDBQ 290700Z AUTO 35008KT 10SM BKN005 BKN009 OVC032 14/14 A2967 1310 100 1600 350/08 RMK AO2
94908KDBQ DBQ20080629010511006/29/08 01:05:31  5-MIN KDBQ 290705Z AUTO 35009KT 10SM BKN005 OVC009 14/14 A2967 1310 100 1600 350/09 RMK AO2
94908KDBQ DBQ20080629011011506/29/08 01:10:31  5-MIN KDBQ 290710Z AUTO 35008KT 10SM OVC005 14/14 A2968 1310 100 1600 350/08 RMK AO2 CIG 003V010
94908KDBQ DBQ20080629011512206/29/08 01:15:31  5-MIN KDBQ 290715Z AUTO 35010KT 10SM BKN005 OVC019 14/14 A2968 1300 100 1600 350/10 RMK AO2 CIG 003V010
94908KDBQ DBQ20080629012012206/29/08 01:20:31  5-MIN KDBQ 290720Z AUTO 34009KT 10SM BKN005 OVC013 14/14 A2968 1300 100 1600 340/09 RMK AO2 CIG 003V010
94908KDBQ DBQ20080629012512206/29/08 01:25:31  5-MIN KDBQ 290725Z AUTO 35009KT 10SM BKN005 OVC013 14/14 A2968 1300 100 1600 340/09 RMK AO2 CIG 003V010
94908KDBQ DBQ20080629013012206/29/08 01:30:31  5-MIN KDBQ 290730Z AUTO 35008KT 10SM BKN005 OVC013 14/14 A2968 1300 100 1600 350/08 RMK AO2 CIG 003V008
94908KDBQ DBQ20080629013512106/29/08 01:35:31  5-MIN KDBQ 290735Z AUTO 34007KT 9SM BKN007 OVC013 14/14 A2969 1300 100 1600 340/07 RMK AO2 CIG 003V011
94908KDBQ DBQ20080629014012806/29/08 01:40:31  5-MIN KDBQ 290740Z AUTO 35010KT 9SM BKN005 BKN009 OVC013 14/14 A2969 1290 100 1600 340/10 RMK AO2 CIG 004V007
94908KDBQ DBQ20080629014512806/29/08 01:45:31  5-MIN KDBQ 290745Z AUTO 34008KT 10SM BKN005 BKN009 OVC013 15/14 A2969 1290 96 1600 340/08 RMK AO2 CIG 004V007
94908KDBQ DBQ20080629015013806/29/08 01:50:31  5-MIN KDBQ 290750Z AUTO 34010KT 10SM BKN007 OVC013 15/14 A2969 1290 96 1600 340/10 RMK AO2 CIG 004V010 SLP051 T01500144
94908KDBQ DBQ20080629015512206/29/08 01:55:31  5-MIN KDBQ 290755Z AUTO 35009KT 10SM BKN007 OVC011 15/15 A2969 1290 100 1600 340/09 RMK AO2 CIG 004V009
94908KDBQ DBQ20080629020012106/29/08 02:00:31  5-MIN KDBQ 290800Z AUTO 34009KT 10SM BKN007 OVC011 15/14 A2969 1290 96 1600 340/09 RMK AO2 CIG 004V009
94908KDBQ DBQ20080629020511406/29/08 02:05:31  5-MIN KDBQ 290805Z AUTO 34010KT 10SM OVC009 15/14 A2970 1290 96 1600 340/10 RMK AO2 CIG 004V013
94908KDBQ DBQ20080629021011406/29/08 02:10:31  5-MIN KDBQ 290810Z AUTO 34008KT 10SM BKN009 15/14 A2969 1290 96 1600 340/08 RMK AO2 CIG 004V013
94908KDBQ DBQ20080629021512206/29/08 02:15:31  5-MIN KDBQ 290815Z AUTO 34009KT 10SM BKN009 BKN013 14/14 A2970 1280 100 1600 330/09 RMK AO2 CIG 006V011
94908KDBQ DBQ20080629022010206/29/08 02:20:31  5-MIN KDBQ 290820Z AUTO 33009KT 10SM BKN011 15/14 A2970 1280 96 1600 330/09 RMK AO2
94908KDBQ DBQ20080629022511406/29/08 02:25:31  5-MIN KDBQ 290825Z AUTO 34009KT 10SM BKN011 14/14 A2970 1280 96 1600 330/09 RMK AO2 CIG 007V014
94908KDBQ DBQ20080629023011406/29/08 02:30:31  5-MIN KDBQ 290830Z AUTO 34008KT 10SM BKN009 14/14 A2970 1280 96 1600 340/08 RMK AO2 CIG 007V014
94908KDBQ DBQ20080629023511406/29/08 02:35:31  5-MIN KDBQ 290835Z AUTO 34011KT 10SM BKN009 14/13 A2971 1280 93 1500 340/11 RMK AO2 CIG 007V014
94908KDBQ DBQ20080629024012106/29/08 02:40:31  5-MIN KDBQ 290840Z AUTO 33008KT 10SM BKN009 OVC013 14/14 A2971 1280 96 1500 330/08 RMK AO2 CIG 007V011
94908KDBQ DBQ20080629024511406/29/08 02:45:31  5-MIN KDBQ 290845Z AUTO 33008KT 10SM OVC009 14/14 A2971 1270 96 1500 330/08 RMK AO2 CIG 007V012
94908KDBQ DBQ20080629025014306/29/08 02:50:31  5-MIN KDBQ 290850Z AUTO 33009KT 10SM BKN009 14/13 A2971 1270 93 1500 330/09 RMK AO2 CIG 007V012 SLP058 60001 T01440133 55006
94908KDBQ DBQ20080629025511406/29/08 02:55:31  5-MIN KDBQ 290855Z AUTO 33008KT 10SM BKN009 14/13 A2971 1270 93 1500 330/08 RMK AO2 CIG 007V012
94908KDBQ DBQ20080629030011406/29/08 03:00:31  5-MIN KDBQ 290900Z AUTO 33010KT 10SM OVC009 14/13 A2972 1270 93 1500 330/10 RMK AO2 CIG 007V012
94908KDBQ DBQ20080629030512006/29/08 03:05:31  5-MIN KDBQ 290905Z AUTO 33011G17KT 10SM BKN009 14/13 A2972 1270 93 1500 330/11G17 RMK AO2 CIG 007V012
94908KDBQ DBQ20080629031011406/29/08 03:10:31  5-MIN KDBQ 290910Z AUTO 34010KT 10SM BKN009 14/13 A2971 1270 93 1500 340/10 RMK AO2 CIG 007V012
94908KDBQ DBQ20080629031510106/29/08 03:15:31  5-MIN KDBQ 290915Z AUTO 34010KT 9SM BKN009 14/13 A2971 1270 96 1500 330/10 RMK AO2
94908KDBQ DBQ20080629032010106/29/08 03:20:31  5-MIN KDBQ 290920Z AUTO 33009KT 9SM SCT009 14/13 A2972 1270 93 1500 330/09 RMK AO2
94908KDBQ DBQ20080629032510106/29/08 03:25:31  5-MIN KDBQ 290925Z AUTO 33008KT 8SM SCT009 14/13 A2972 1270 93 1500 320/08 RMK AO2
94908KDBQ DBQ20080629033010106/29/08 03:30:31  5-MIN KDBQ 290930Z AUTO 32009KT 8SM BKN009 14/13 A2972 1260 96 1500 320/09 RMK AO2
94908KDBQ DBQ20080629033510106/29/08 03:35:31  5-MIN KDBQ 290935Z AUTO 32009KT 8SM SCT007 14/13 A2972 1260 96 1500 320/09 RMK AO2
94908KDBQ DBQ20080629034010106/29/08 03:40:31  5-MIN KDBQ 290940Z AUTO 32008KT 8SM FEW007 14/13 A2972 1260 96 1500 320/08 RMK AO2
94908KDBQ DBQ20080629034510106/29/08 03:45:31  5-MIN KDBQ 290945Z AUTO 31007KT 7SM FEW007 14/13 A2972 1260 93 1500 310/07 RMK AO2
94908KDBQ DBQ20080629035011806/29/08 03:50:31  5-MIN KDBQ 290950Z AUTO 31007KT 7SM FEW007 14/13 A2973 1260 93 1500 310/07 RMK AO2 SLP063 T01390128
94908KDBQ DBQ20080629035510106/29/08 03:55:31  5-MIN KDBQ 290955Z AUTO 31008KT 7SM FEW007 14/13 A2973 1250 93 1500 300/08 RMK AO2
94908KDBQ DBQ20080629040010106/29/08 04:00:31  5-MIN KDBQ 291000Z AUTO 31008KT 7SM FEW007 14/13 A2973 1260 93 1500 310/08 RMK AO2
94908KDBQ DBQ20080629040510106/29/08 04:05:31  5-MIN KDBQ 291005Z AUTO 32008KT 7SM SCT007 14/13 A2973 1250 93 1500 320/08 RMK AO2
94908KDBQ DBQ20080629041010106/29/08 04:10:31  5-MIN KDBQ 291010Z AUTO 31007KT 7SM SCT007 14/13 A2973 1250 93 1500 310/07 RMK AO2
94908KDBQ DBQ20080629041510106/29/08 04:15:31  5-MIN KDBQ 291015Z AUTO 31008KT 7SM FEW007 14/13 A2974 1250 93 1500 310/08 RMK AO2
94908KDBQ DBQ20080629042010406/29/08 04:20:31  5-MIN KDBQ 291020Z AUTO 31009KT 6SM BR FEW007 14/13 A2974 1250 93 1400 310/09 RMK AO2
94908KDBQ DBQ20080629042510406/29/08 04:25:31  5-MIN KDBQ 291025Z AUTO 31007KT 6SM BR FEW007 14/13 A2974 1250 93 1400 310/07 RMK AO2
94908KDBQ DBQ20080629043010406/29/08 04:30:31  5-MIN KDBQ 291030Z AUTO 31007KT 5SM BR FEW007 14/13 A2974 1250 93 1400 310/07 RMK AO2
94908KDBQ DBQ20080629043510406/29/08 04:35:31  5-MIN KDBQ 291035Z AUTO 30007KT 6SM BR FEW007 14/13 A2974 1250 93 1400 300/07 RMK AO2
94908KDBQ DBQ20080629044010106/29/08 04:40:31  5-MIN KDBQ 291040Z AUTO 30007KT 6SM BR CLR 13/13 A2974 1250 96 1400 300/07 RMK AO2
94908KDBQ DBQ20080629044510106/29/08 04:45:31  5-MIN KDBQ 291045Z AUTO 30006KT 6SM BR CLR 13/13 A2974 1240 96 1400 300/06 RMK AO2
94908KDBQ DBQ20080629045011806/29/08 04:50:31  5-MIN KDBQ 291050Z AUTO 30006KT 6SM BR CLR 13/13 A2975 1240 96 1400 300/06 RMK AO2 SLP070 T01330128
94908KDBQ DBQ20080629045510106/29/08 04:55:31  5-MIN KDBQ 291055Z AUTO 30006KT 6SM BR CLR 13/13 A2974 1240 96 1400 300/06 RMK AO2
94908KDBQ DBQ20080629050009606/29/08 05:00:31  5-MIN KDBQ 291100Z 29006KT 6SM BR CLR 13/13 A2975 1240 96 1400 290/06 RMK AO2
94908KDBQ DBQ20080629050509606/29/08 05:05:31  5-MIN KDBQ 291105Z 28006KT 6SM BR CLR 14/13 A2975 1240 93 1400 280/06 RMK AO2
94908KDBQ DBQ20080629051009606/29/08 05:10:31  5-MIN KDBQ 291110Z 28005KT 6SM BR CLR 14/13 A2975 1240 93 1400 280/05 RMK AO2
94908KDBQ DBQ20080629051509606/29/08 05:15:31  5-MIN KDBQ 291115Z 30007KT 6SM BR CLR 14/13 A2975 1230 93 1400 300/07 RMK AO2
94908KDBQ DBQ20080629052009606/29/08 05:20:31  5-MIN KDBQ 291120Z 30006KT 6SM BR CLR 14/13 A2975 1240 96 1400 300/06 RMK AO2
94908KDBQ DBQ20080629052509306/29/08 05:25:31  5-MIN KDBQ 291125Z 30007KT 7SM CLR 14/13 A2976 1230 96 1400 290/07 RMK AO2
94908KDBQ DBQ20080629053009306/29/08 05:30:31  5-MIN KDBQ 291130Z 30007KT 7SM CLR 14/13 A2976 1230 93 1500 300/07 RMK AO2
94908KDBQ DBQ20080629053509306/29/08 05:35:31  5-MIN KDBQ 291135Z 30010KT 7SM CLR 14/13 A2976 1230 93 1500 290/10 RMK AO2
94908KDBQ DBQ20080629054009306/29/08 05:40:31  5-MIN KDBQ 291140Z 30010KT 8SM CLR 14/13 A2976 1230 93 1500 300/10 RMK AO2
94908KDBQ DBQ20080629054509306/29/08 05:45:31  5-MIN KDBQ 291145Z 30009KT 8SM CLR 14/13 A2976 1230 93 1500 290/09 RMK AO2
94908KDBQ DBQ20080629055014006/29/08 05:50:31  5-MIN KDBQ 291150Z 31010KT 8SM CLR 14/13 A2976 1230 93 1500 300/10 RMK AO2 SLP074 60001 70006 T01440133 10167 20133 51027
94908KDBQ DBQ20080629055509306/29/08 05:55:31  5-MIN KDBQ 291155Z 30010KT 8SM CLR 15/13 A2976 1230 90 1600 300/10 RMK AO2
94908KDBQ DBQ20080629060009306/29/08 06:00:31  5-MIN KDBQ 291200Z 30010KT 8SM CLR 15/14 A2976 1230 93 1600 300/10 RMK AO2
94908KDBQ DBQ20080629060509306/29/08 06:05:31  5-MIN KDBQ 291205Z 31009KT 8SM CLR 15/14 A2976 1220 93 1500 310/09 RMK AO2
94908KDBQ DBQ20080629061009306/29/08 06:10:31  5-MIN KDBQ 291210Z 31009KT 9SM CLR 15/14 A2976 1220 93 1500 310/09 RMK AO2
94908KDBQ DBQ20080629061509606/29/08 06:15:31  5-MIN KDBQ 291215Z 30009KT 9SM FEW008 15/14 A2977 1220 93 1500 300/09 RMK AO2
94908KDBQ DBQ20080629062009606/29/08 06:20:31  5-MIN KDBQ 291220Z 31008KT 9SM SCT008 15/14 A2977 1220 93 1500 310/08 RMK AO2
94908KDBQ DBQ20080629062509606/29/08 06:25:31  5-MIN KDBQ 291225Z 31008KT 9SM SCT008 15/14 A2977 1220 93 1500 310/08 RMK AO2
94908KDBQ DBQ20080629063009606/29/08 06:30:31  5-MIN KDBQ 291230Z 31009KT 9SM BKN008 16/14 A2977 1210 90 1600 310/09 RMK AO2
94908KDBQ DBQ20080629063509706/29/08 06:35:31  5-MIN KDBQ 291235Z 33011KT 10SM BKN008 16/14 A2978 1210 90 1600 320/11 RMK AO2
94908KDBQ DBQ20080629064010906/29/08 06:40:31  5-MIN KDBQ 291240Z 32010KT 10SM BKN008 16/14 A2978 1210 90 1600 320/10 RMK AO2 CIG 007V011
94908KDBQ DBQ20080629064510906/29/08 06:45:31  5-MIN KDBQ 291245Z 32010KT 10SM BKN008 16/14 A2978 1210 90 1600 320/10 RMK AO2 CIG 007V011
94908KDBQ DBQ20080629065011306/29/08 06:50:31  5-MIN KDBQ 291250Z 32008KT 9SM BKN008 16/14 A2978 1210 93 1600 320/08 RMK AO2 SLP084 T01560144
94908KDBQ DBQ20080629065510806/29/08 06:55:31  5-MIN KDBQ 291255Z 32010KT 9SM OVC008 16/14 A2978 1210 90 1600 310/10 RMK AO2 CIG 007V012
94908KDBQ DBQ20080629070010906/29/08 07:00:31  5-MIN KDBQ 291300Z 32008KT 10SM OVC008 16/14 A2978 1200 86 1700 320/08 RMK AO2 CIG 007V012
94908KDBQ DBQ20080629070510906/29/08 07:05:31  5-MIN KDBQ 291305Z 33009KT 10SM BKN008 16/14 A2978 1210 90 1700 330/09 RMK AO2 CIG 007V012
94908KDBQ DBQ20080629071010906/29/08 07:10:31  5-MIN KDBQ 291310Z 32008KT 10SM BKN008 17/14 A2979 1200 86 1700 310/08 RMK AO2 CIG 007V012
94908KDBQ DBQ20080629071510906/29/08 07:15:31  5-MIN KDBQ 291315Z 33007KT 10SM BKN008 17/14 A2979 1200 86 1700 330/07 RMK AO2 CIG 007V012
94908KDBQ DBQ20080629072010906/29/08 07:20:31  5-MIN KDBQ 291320Z 32008KT 10SM BKN008 17/14 A2979 1200 86 1700 320/08 RMK AO2 CIG 008V012
94908KDBQ DBQ20080629072510406/29/08 07:25:31  5-MIN KDBQ 291325Z 32010KT 10SM BKN008 BKN014 17/14 A2979 1200 83 1800 310/10 RMK AO2
94908KDBQ DBQ20080629073510406/29/08 07:35:31  5-MIN KDBQ 291335Z 31012KT 10SM BKN008 BKN014 17/14 A2980 1190 83 1800 310/12 RMK AO2
94908KDBQ DBQ20080629074010406/29/08 07:40:31  5-MIN KDBQ 291340Z 32013KT 10SM BKN008 BKN014 17/14 A2981 1190 86 1700 320/13 RMK AO2
94908KDBQ DBQ20080629074510406/29/08 07:45:31  5-MIN KDBQ 291345Z 32013KT 10SM BKN008 BKN014 17/14 A2981 1180 86 1700 310/13 RMK AO2
94908KDBQ DBQ20080629075012106/29/08 07:50:31  5-MIN KDBQ 291350Z 33014KT 10SM BKN008 BKN014 17/14 A2981 1180 86 1700 330/14 RMK AO2 SLP093 T01670144
94908KDBQ DBQ20080629075509706/29/08 07:55:31  5-MIN KDBQ 291355Z 32012KT 10SM OVC012 16/14 A2981 1180 86 1600 320/12 RMK AO2
94908KDBQ DBQ20080629080009706/29/08 08:00:31  5-MIN KDBQ 291400Z 32012KT 10SM OVC012 17/14 A2981 1180 83 1700 320/12 RMK AO2
94908KDBQ DBQ20080629080509706/29/08 08:05:31  5-MIN KDBQ 291405Z 31011KT 10SM OVC012 16/14 A2981 1180 86 1600 310/11 RMK AO2
94908KDBQ DBQ20080629081009706/29/08 08:10:31  5-MIN KDBQ 291410Z 32010KT 10SM OVC010 16/14 A2981 1180 86 1600 320/10 RMK AO2
94908KDBQ DBQ20080629081510306/29/08 08:15:31  5-MIN KDBQ 291415Z 31009G17KT 10SM OVC010 17/14 A2982 1170 83 1700 310/09G17 RMK AO2
94908KDBQ DBQ20080629082009706/29/08 08:20:31  5-MIN KDBQ 291420Z 33007KT 10SM OVC012 17/14 A2982 1170 83 1700 330/07 RMK AO2
94908KDBQ DBQ20080629082511606/29/08 08:25:31  5-MIN KDBQ 291425Z 32008KT 10SM BKN010 OVC016 17/14 A2982 1170 83 1700 320/08 RMK AO2 CIG 009V012
94908KDBQ DBQ20080629083010306/29/08 08:30:31  5-MIN KDBQ 291430Z 32012G16KT 10SM OVC013 17/14 A2982 1170 83 1700 320/12G16 RMK AO2
94908KDBQ DBQ20080629083511006/29/08 08:35:31  5-MIN KDBQ 291435Z 34010G16KT 10SM BKN013 OVC017 17/14 A2982 1170 83 1700 340/10G16 RMK AO2
94908KDBQ DBQ20080629084009706/29/08 08:40:31  5-MIN KDBQ 291440Z 33010KT 10SM OVC015 17/14 A2983 1170 80 1700 330/10 RMK AO2
94908KDBQ DBQ20080629084510406/29/08 08:45:31  5-MIN KDBQ 291445Z 33012KT 10SM BKN015 OVC021 17/14 A2983 1160 80 1700 330/12 RMK AO2
94908KDBQ DBQ20080629085012706/29/08 08:50:31  5-MIN KDBQ 291450Z 33010KT 10SM BKN015 OVC022 17/14 A2983 1160 80 1700 330/10 RMK AO2 SLP098 T01720139 51015
94908KDBQ DBQ20080629085511106/29/08 08:55:31  5-MIN KDBQ 291455Z 33007KT 10SM BKN015 BKN022 OVC045 18/14 A2983 1170 81 1800 330/07 RMK AO2
94908KDBQ DBQ20080629090011106/29/08 09:00:31  5-MIN KDBQ 291500Z 35011KT 10SM SCT015 BKN022 OVC045 18/14 A2983 1160 78 1900 340/11 RMK AO2
94908KDBQ DBQ20080629090511106/29/08 09:05:31  5-MIN KDBQ 291505Z 34010KT 10SM SCT015 BKN023 OVC043 18/14 A2983 1160 78 1800 340/10 RMK AO2
94908KDBQ DBQ20080629091011106/29/08 09:10:31  5-MIN KDBQ 291510Z 33010KT 10SM FEW017 BKN025 OVC043 18/14 A2983 1170 78 1900 330/10 RMK AO2
94908KDBQ DBQ20080629091511706/29/08 09:15:31  5-MIN KDBQ 291515Z 34010G17KT 10SM SCT020 BKN025 OVC043 18/14 A2983 1160 78 1800 340/10G17 RMK AO2
94908KDBQ DBQ20080629092011706/29/08 09:20:31  5-MIN KDBQ 291520Z 33009G17KT 10SM SCT020 BKN024 OVC043 18/14 A2983 1160 81 1800 330/09G17 RMK AO2
94908KDBQ DBQ20080629092511106/29/08 09:25:31  5-MIN KDBQ 291525Z 32008KT 10SM BKN020 BKN034 OVC043 18/14 A2983 1160 78 1800 320/08 RMK AO2
94908KDBQ DBQ20080629093011106/29/08 09:30:31  5-MIN KDBQ 291530Z 31011KT 10SM BKN020 BKN034 OVC043 17/14 A2984 1160 80 1700 310/11 RMK AO2
94908KDBQ DBQ20080629093511106/29/08 09:35:31  5-MIN KDBQ 291535Z 30010KT 10SM BKN020 BKN034 OVC043 17/14 A2984 1150 83 1700 300/10 RMK AO2
94908KDBQ DBQ20080629094011706/29/08 09:40:31  5-MIN KDBQ 291540Z 32012G18KT 10SM BKN019 BKN025 OVC032 17/14 A2984 1150 83 1700 320/12G18 RMK AO2
94908KDBQ DBQ20080629094511706/29/08 09:45:31  5-MIN KDBQ 291545Z 33013G18KT 10SM SCT019 BKN028 OVC035 17/14 A2984 1150 83 1700 330/13G18 RMK AO2
94908KDBQ DBQ20080629095012706/29/08 09:50:31  5-MIN KDBQ 291550Z 32009G18KT 10SM BKN019 OVC028 17/14 A2984 1150 83 1700 310/09G18 RMK AO2 SLP104 T01720144
94908KDBQ DBQ20080629095510406/29/08 09:55:31  5-MIN KDBQ 291555Z 32010KT 10SM BKN019 OVC028 17/14 A2984 1150 83 1700 320/10 RMK AO2
94908KDBQ DBQ20080629100010406/29/08 10:00:31  5-MIN KDBQ 291600Z 32009KT 10SM BKN019 OVC028 17/14 A2985 1140 83 1700 320/09 RMK AO2
94908KDBQ DBQ20080629100511006/29/08 10:05:31  5-MIN KDBQ 291605Z 31014G19KT 10SM BKN019 OVC028 18/14 A2985 1140 81 1800 310/14G19 RMK AO2
94908KDBQ DBQ20080629101011006/29/08 10:10:31  5-MIN KDBQ 291610Z 33015G19KT 10SM BKN019 OVC028 17/14 A2985 1140 80 1700 330/15G19 RMK AO2
94908KDBQ DBQ20080629101511006/29/08 10:15:31  5-MIN KDBQ 291615Z 33010G19KT 10SM BKN019 OVC028 18/14 A2985 1140 78 1800 330/10G19 RMK AO2
94908KDBQ DBQ20080629102011006/29/08 10:20:31  5-MIN KDBQ 291620Z 32011G17KT 10SM BKN019 OVC028 18/14 A2986 1140 78 1800 320/11G17 RMK AO2
94908KDBQ DBQ20080629102511006/29/08 10:25:31  5-MIN KDBQ 291625Z 33011G17KT 10SM BKN019 OVC028 18/14 A2986 1140 78 1800 330/11G17 RMK AO2
94908KDBQ DBQ20080629103010406/29/08 10:30:31  5-MIN KDBQ 291630Z 32011KT 10SM BKN019 OVC028 18/14 A2985 1140 75 1800 320/11 RMK AO2
94908KDBQ DBQ20080629103511006/29/08 10:35:31  5-MIN KDBQ 291635Z 33014G18KT 10SM BKN019 OVC028 18/14 A2986 1140 75 1800 330/14G18 RMK AO2
94908KDBQ DBQ20080629104011006/29/08 10:40:31  5-MIN KDBQ 291640Z 32012G18KT 10SM BKN019 OVC028 19/14 A2986 1130 72 1900 320/12G18 RMK AO2
94908KDBQ DBQ20080629104510406/29/08 10:45:31  5-MIN KDBQ 291645Z 33014KT 10SM BKN019 OVC028 19/14 A2986 1140 70 2000 320/14 RMK AO2
94908KDBQ DBQ20080629105013406/29/08 10:50:31  5-MIN KDBQ 291650Z 32012G20KT 10SM BKN022 BKN030 OVC038 19/14 A2986 1130 72 2000 320/12G20 RMK AO2 SLP110 T01940144
94908KDBQ DBQ20080629105511706/29/08 10:55:31  5-MIN KDBQ 291655Z 32013G20KT 10SM BKN022 BKN030 OVC038 19/14 A2987 1130 75 1900 320/13G20 RMK AO2
94908KDBQ DBQ20080629110011706/29/08 11:00:31  5-MIN KDBQ 291700Z 33016G20KT 10SM BKN022 BKN030 OVC038 19/14 A2986 1130 72 1900 330/16G20 RMK AO2
94908KDBQ DBQ20080629110511706/29/08 11:05:31  5-MIN KDBQ 291705Z 33017G22KT 10SM BKN022 BKN030 OVC038 19/14 A2987 1130 72 1900 330/17G22 RMK AO2
94908KDBQ DBQ20080629111011706/29/08 11:10:31  5-MIN KDBQ 291710Z 33013G23KT 10SM BKN022 BKN030 OVC038 19/14 A2987 1120 72 1900 330/13G23 RMK AO2
94908KDBQ DBQ20080629111511706/29/08 11:15:31  5-MIN KDBQ 291715Z 33012G23KT 10SM BKN022 BKN030 OVC038 19/14 A2987 1130 72 1900 330/12G23 RMK AO2
94908KDBQ DBQ20080629112011706/29/08 11:20:31  5-MIN KDBQ 291720Z 32014G20KT 10SM BKN022 BKN030 OVC038 19/14 A2987 1120 72 1900 320/14G20 RMK AO2
94908KDBQ DBQ20080629112511706/29/08 11:25:31  5-MIN KDBQ 291725Z 31015G20KT 10SM BKN022 BKN030 OVC038 18/14 A2988 1120 75 1800 310/15G20 RMK AO2
94908KDBQ DBQ20080629113011706/29/08 11:30:31  5-MIN KDBQ 291730Z 32013G20KT 10SM BKN022 BKN030 OVC038 19/14 A2987 1120 75 1900 320/13G20 RMK AO2
94908KDBQ DBQ20080629113511706/29/08 11:35:31  5-MIN KDBQ 291735Z 32014G20KT 10SM BKN022 BKN030 OVC038 19/14 A2988 1120 72 1900 320/14G20 RMK AO2
94908KDBQ DBQ20080629114011706/29/08 11:40:31  5-MIN KDBQ 291740Z 33014G20KT 10SM BKN022 BKN030 OVC038 19/14 A2988 1120 72 1900 330/14G20 RMK AO2
94908KDBQ DBQ20080629114511706/29/08 11:45:31  5-MIN KDBQ 291745Z 32014G19KT 10SM BKN022 BKN030 OVC038 19/14 A2987 1120 72 1900 320/14G19 RMK AO2
94908KDBQ DBQ20080629115015206/29/08 11:50:31  5-MIN KDBQ 291750Z 33013G20KT 10SM BKN024 BKN035 OVC046 19/14 A2987 1120 70 1900 330/13G20 RMK AO2 SLP113 T01940139 10194 20144 51022
94908KDBQ DBQ20080629115511706/29/08 11:55:31  5-MIN KDBQ 291755Z 32019G25KT 10SM BKN024 BKN035 BKN046 21/14 A2988 1120 67 2100 320/19G25 RMK AO2
94908KDBQ DBQ20080629120011706/29/08 12:00:31  5-MIN KDBQ 291800Z 33014G25KT 10SM BKN024 BKN035 BKN046 21/14 A2987 1120 65 2100 330/14G25 RMK AO2
94908KDBQ DBQ20080629120511706/29/08 12:05:31  5-MIN KDBQ 291805Z 33011G19KT 10SM BKN024 BKN035 BKN046 21/14 A2987 1130 65 2100 330/11G19 RMK AO2
94908KDBQ DBQ20080629121011706/29/08 12:10:31  5-MIN KDBQ 291810Z 33016G20KT 10SM BKN024 BKN035 BKN046 21/14 A2987 1120 65 2100 330/16G20 RMK AO2
94908KDBQ DBQ20080629121513506/29/08 12:15:31  5-MIN KDBQ 291815Z 32014G26KT 10SM BKN024 BKN035 BKN046 20/14 A2988 1120 67 2000 320/14G26 RMK AO2 PK WND 33026/1812
94908KDBQ DBQ20080629122013506/29/08 12:20:31  5-MIN KDBQ 291820Z 33014G26KT 10SM BKN024 BKN035 BKN046 19/14 A2988 1120 70 1900 330/14G26 RMK AO2 PK WND 33026/1812
94908KDBQ DBQ20080629122513506/29/08 12:25:31  5-MIN KDBQ 291825Z 33013G22KT 10SM BKN024 BKN035 BKN046 20/13 A2988 1120 65 2000 330/13G22 RMK AO2 PK WND 33026/1812
94908KDBQ DBQ20080629123013506/29/08 12:30:31  5-MIN KDBQ 291830Z 34013G22KT 10SM BKN024 BKN035 BKN046 21/14 A2988 1120 65 2100 340/13G22 RMK AO2 PK WND 33026/1812
94908KDBQ DBQ20080629123513506/29/08 12:35:31  5-MIN KDBQ 291835Z 33016G22KT 10SM BKN024 BKN035 BKN046 21/14 A2987 1120 65 2100 330/16G22 RMK AO2 PK WND 33026/1812
94908KDBQ DBQ20080629124013506/29/08 12:40:31  5-MIN KDBQ 291840Z 32012G22KT 10SM BKN024 BKN035 BKN046 22/14 A2987 1120 63 2200 320/12G22 RMK AO2 PK WND 33026/1812
94908KDBQ DBQ20080629124513506/29/08 12:45:31  5-MIN KDBQ 291845Z 32017G21KT 10SM BKN024 BKN035 BKN046 21/14 A2988 1120 63 2100 320/17G21 RMK AO2 PK WND 33026/1812
94908KDBQ DBQ20080629125013506/29/08 12:50:31  5-MIN KDBQ 291850Z 34018G24KT 10SM SCT031 BKN042 BKN050 20/14 A2987 1120 67 2000 340/18G24 RMK AO2 PK WND 33026/1812
94908KDBQ DBQ20080629125511706/29/08 12:55:31  5-MIN KDBQ 291855Z 33014G24KT 10SM FEW031 SCT042 BKN050 21/14 A2988 1120 65 2100 330/14G24 RMK AO2
94908KDBQ DBQ20080629130011706/29/08 13:00:31  5-MIN KDBQ 291900Z 34016G20KT 10SM FEW031 SCT040 BKN050 21/13 A2987 1120 63 2100 340/16G20 RMK AO2
94908KDBQ DBQ20080629130511706/29/08 13:05:31  5-MIN KDBQ 291905Z 34017G22KT 10SM SCT031 BKN040 OVC050 21/13 A2988 1110 63 2100 340/17G22 RMK AO2
94908KDBQ DBQ20080629131011706/29/08 13:10:31  5-MIN KDBQ 291910Z 34017G24KT 10SM SCT031 SCT040 OVC050 22/14 A2988 1120 59 2300 330/17G24 RMK AO2
94908KDBQ DBQ20080629131511706/29/08 13:15:31  5-MIN KDBQ 291915Z 34018G24KT 10SM FEW031 SCT040 BKN055 22/14 A2987 1120 59 2300 340/18G24 RMK AO2
94908KDBQ DBQ20080629132011006/29/08 13:20:31  5-MIN KDBQ 291920Z 34017G22KT 10SM FEW036 BKN055 22/14 A2987 1120 59 2300 340/17G22 RMK AO2
94908KDBQ DBQ20080629132511706/29/08 13:25:31  5-MIN KDBQ 291925Z 35015G22KT 10SM FEW036 BKN046 OVC055 22/14 A2988 1120 61 2200 350/15G22 RMK AO2
94908KDBQ DBQ20080629133011706/29/08 13:30:31  5-MIN KDBQ 291930Z 36013G21KT 10SM FEW034 BKN046 OVC055 21/13 A2988 1110 63 2100 360/13G21 RMK AO2
94908KDBQ DBQ20080629133511706/29/08 13:35:31  5-MIN KDBQ 291935Z 34013G21KT 10SM FEW035 BKN046 OVC055 21/14 A2988 1110 65 2100 340/13G21 RMK AO2
94908KDBQ DBQ20080629134011706/29/08 13:40:31  5-MIN KDBQ 291940Z 35010G18KT 10SM FEW035 BKN046 OVC055 21/14 A2988 1110 65 2100 350/10G18 RMK AO2
94908KDBQ DBQ20080629134511706/29/08 13:45:31  5-MIN KDBQ 291945Z 35012G17KT 10SM FEW035 BKN045 OVC050 21/14 A2989 1110 65 2100 350/12G17 RMK AO2
94908KDBQ DBQ20080629135013406/29/08 13:50:31  5-MIN KDBQ 291950Z 35010G17KT 10SM FEW035 BKN045 OVC050 20/14 A2988 1110 67 2000 350/10G17 RMK AO2 SLP116 T02000139
94908KDBQ DBQ20080629135510406/29/08 13:55:31  5-MIN KDBQ 291955Z 35008KT 10SM BKN040 OVC050 20/14 A2989 1110 67 2000 350/08 RMK AO2
94908KDBQ DBQ20080629140010406/29/08 14:00:31  5-MIN KDBQ 292000Z 35009KT 10SM BKN040 OVC050 20/14 A2989 1110 67 2000 350/09 RMK AO2
94908KDBQ DBQ20080629140511106/29/08 14:05:31  5-MIN KDBQ 292005Z 35009KT 10SM SCT035 BKN044 OVC055 20/14 A2988 1110 67 2000 340/09 RMK AO2
94908KDBQ DBQ20080629141011106/29/08 14:10:31  5-MIN KDBQ 292010Z 34012KT 10SM FEW035 BKN046 OVC060 21/14 A2989 1110 63 2100 340/12 RMK AO2
94908KDBQ DBQ20080629141511106/29/08 14:15:31  5-MIN KDBQ 292015Z 34011KT 10SM FEW035 SCT043 OVC060 21/14 A2989 1110 63 2100 340/11 RMK AO2
94908KDBQ DBQ20080629142010406/29/08 14:20:31  5-MIN KDBQ 292020Z 34011KT 10SM FEW036 OVC060 21/14 A2989 1110 65 2000 340/11 RMK AO2
94908KDBQ DBQ20080629142510306/29/08 14:25:31  5-MIN KDBQ 292025Z 34014G19KT 10SM OVC060 21/14 A2989 1110 65 2100 340/14G19 RMK AO2
94908KDBQ DBQ20080629143011006/29/08 14:30:31  5-MIN KDBQ 292030Z 34012G19KT 10SM FEW050 OVC060 21/13 A2989 1110 63 2000 340/12G19 RMK AO2
94908KDBQ DBQ20080629143510306/29/08 14:35:31  5-MIN KDBQ 292035Z 35016G20KT 10SM OVC060 21/14 A2988 1110 63 2100 350/16G20 RMK AO2
94908KDBQ DBQ20080629144011006/29/08 14:40:31  5-MIN KDBQ 292040Z 35012G20KT 10SM BKN060 OVC075 22/14 A2989 1110 61 2200 350/12G20 RMK AO2
94908KDBQ DBQ20080629144510406/29/08 14:45:31  5-MIN KDBQ 292045Z 35014KT 10SM BKN060 OVC075 22/14 A2989 1110 59 2200 350/14 RMK AO2
94908KDBQ DBQ20080629145013306/29/08 14:50:31  5-MIN KDBQ 292050Z 36014G21KT 10SM BKN060 OVC075 22/14 A2989 1110 61 2200 360/14G21 RMK AO2 SLP117 T02170139 51016
94908KDBQ DBQ20080629145510306/29/08 14:55:31  5-MIN KDBQ 292055Z 36012G21KT 10SM OVC065 21/13 A2989 1100 63 2000 360/12G21 RMK AO2
94908KDBQ DBQ20080629150011006/29/08 15:00:31  5-MIN KDBQ 292100Z 36011G20KT 10SM FEW055 OVC070 21/13 A2989 1110 63 2000 350/11G20 RMK AO2
94908KDBQ DBQ20080629150509706/29/08 15:05:31  5-MIN KDBQ 292105Z 36011KT 10SM OVC070 20/13 A2989 1110 65 2000 360/11 RMK AO2
94908KDBQ DBQ20080629151009706/29/08 15:10:31  5-MIN KDBQ 292110Z 35011KT 10SM OVC070 20/13 A2989 1100 65 2000 350/11 RMK AO2
94908KDBQ DBQ20080629151509706/29/08 15:15:31  5-MIN KDBQ 292115Z 34008KT 10SM OVC070 20/14 A2989 1100 67 2000 340/08 RMK AO2
94908KDBQ DBQ20080629152009706/29/08 15:20:31  5-MIN KDBQ 292120Z 34008KT 10SM OVC065 20/14 A2990 1100 67 2000 340/08 RMK AO2
94908KDBQ DBQ20080629152510406/29/08 15:25:31  5-MIN KDBQ 292125Z 33011KT 10SM BKN065 OVC080 21/14 A2990 1100 65 2000 330/11 RMK AO2
94908KDBQ DBQ20080629153011106/29/08 15:30:31  5-MIN KDBQ 292130Z 33008KT 10SM FEW039 BKN070 OVC080 21/14 A2990 1100 65 2000 330/08 RMK AO2
94908KDBQ DBQ20080629153511106/29/08 15:35:31  5-MIN KDBQ 292135Z 33008KT 10SM FEW039 BKN070 OVC080 21/14 A2990 1100 65 2100 330/08 RMK AO2
94908KDBQ DBQ20080629154011706/29/08 15:40:31  5-MIN KDBQ 292140Z 33014G18KT 10SM FEW039 SCT060 OVC080 21/14 A2990 1090 65 2100 330/14G18 RMK AO2
94908KDBQ DBQ20080629154511706/29/08 15:45:31  5-MIN KDBQ 292145Z 35012G18KT 10SM FEW037 SCT060 BKN080 21/14 A2990 1100 65 2100 350/12G18 RMK AO2
94908KDBQ DBQ20080629155012706/29/08 15:50:31  5-MIN KDBQ 292150Z 34016G21KT 10SM SCT037 BKN080 22/14 A2990 1100 61 2200 340/16G21 RMK AO2 SLP122 T02220144
94908KDBQ DBQ20080629155511006/29/08 15:55:31  5-MIN KDBQ 292155Z 36016G22KT 10SM SCT037 BKN080 22/14 A2990 1100 61 2200 360/16G22 RMK AO2
94908KDBQ DBQ20080629160011006/29/08 16:00:31  5-MIN KDBQ 292200Z 01013G22KT 10SM FEW037 BKN080 22/14 A2990 1100 61 2200 010/13G22 RMK AO2
94908KDBQ DBQ20080629160511006/29/08 16:05:31  5-MIN KDBQ 292205Z 36011G19KT 10SM FEW035 BKN080 22/14 A2991 1090 59 2200 350/11G19 RMK AO2
94908KDBQ DBQ20080629161011006/29/08 16:10:31  5-MIN KDBQ 292210Z 35014G18KT 10SM FEW035 BKN080 23/14 A2990 1090 57 2300 350/14G18 RMK AO2
94908KDBQ DBQ20080629161510306/29/08 16:15:31  5-MIN KDBQ 292215Z 36013G19KT 10SM SCT080 22/14 A2991 1090 59 2200 360/13G19 RMK AO2
94908KDBQ DBQ20080629162009706/29/08 16:20:31  5-MIN KDBQ 292220Z 35013KT 10SM SCT080 22/14 A2991 1090 61 2200 350/13 RMK AO2
94908KDBQ DBQ20080629162509706/29/08 16:25:31  5-MIN KDBQ 292225Z 35013KT 10SM SCT075 22/14 A2991 1090 61 2200 350/13 RMK AO2
94908KDBQ DBQ20080629163010306/29/08 16:30:31  5-MIN KDBQ 292230Z 35015G20KT 10SM BKN070 22/14 A2991 1090 61 2200 350/15G20 RMK AO2
94908KDBQ DBQ20080629163510306/29/08 16:35:31  5-MIN KDBQ 292235Z 35010G20KT 10SM BKN070 22/14 A2992 1080 61 2100 350/10G20 RMK AO2
94908KDBQ DBQ20080629164010306/29/08 16:40:31  5-MIN KDBQ 292240Z 35013G18KT 10SM SCT065 22/14 A2991 1080 61 2100 350/13G18 RMK AO2
94908KDBQ DBQ20080629164511706/29/08 16:45:31  5-MIN KDBQ 292245Z 34014G20KT 10SM FEW048 SCT060 BKN070 22/13 A2991 1090 58 2200 340/14G20 RMK AO2
94908KDBQ DBQ20080629165012706/29/08 16:50:31  5-MIN KDBQ 292250Z 34016G22KT 10SM FEW048 BKN065 21/13 A2992 1080 61 2100 340/16G22 RMK AO2 SLP129 T02110133
94908KDBQ DBQ20080629165511706/29/08 16:55:31  5-MIN KDBQ 292255Z 35014G22KT 10SM FEW046 BKN060 BKN070 21/13 A2991 1080 61 2100 350/14G22 RMK AO2
94908KDBQ DBQ20080629170010406/29/08 17:00:31  5-MIN KDBQ 292300Z 35014KT 10SM FEW046 BKN060 22/13 A2992 1080 58 2100 350/14 RMK AO2
94908KDBQ DBQ20080629170511006/29/08 17:05:31  5-MIN KDBQ 292305Z 35012G20KT 10SM FEW046 BKN060 22/14 A2992 1080 61 2100 350/12G20 RMK AO2
94908KDBQ DBQ20080629171011006/29/08 17:10:31  5-MIN KDBQ 292310Z 35014G19KT 10SM FEW046 BKN065 22/14 A2991 1080 59 2200 350/14G19 RMK AO2
94908KDBQ DBQ20080629171511006/29/08 17:15:31  5-MIN KDBQ 292315Z 36012G21KT 10SM FEW044 BKN065 22/13 A2992 1080 58 2100 360/12G21 RMK AO2
94908KDBQ DBQ20080629172011006/29/08 17:20:31  5-MIN KDBQ 292320Z 35011G21KT 10SM FEW045 SCT065 22/14 A2992 1070 61 2100 350/11G21 RMK AO2
94908KDBQ DBQ20080629172511006/29/08 17:25:31  5-MIN KDBQ 292325Z 35010G17KT 10SM FEW045 SCT065 22/14 A2992 1080 61 2100 350/10G17 RMK AO2
94908KDBQ DBQ20080629173011706/29/08 17:30:31  5-MIN KDBQ 292330Z 35014G21KT 10SM FEW045 SCT070 BKN090 21/13 A2992 1080 61 2100 350/14G21 RMK AO2
94908KDBQ DBQ20080629173511006/29/08 17:35:31  5-MIN KDBQ 292335Z 36013G21KT 10SM FEW070 BKN090 21/13 A2993 1070 61 2100 360/13G21 RMK AO2
94908KDBQ DBQ20080629174011006/29/08 17:40:31  5-MIN KDBQ 292340Z 35009G17KT 10SM FEW043 BKN090 21/14 A2993 1070 63 2100 350/09G17 RMK AO2
94908KDBQ DBQ20080629174510406/29/08 17:45:31  5-MIN KDBQ 292345Z 34011KT 10SM FEW041 BKN095 21/14 A2993 1070 63 2100 330/11 RMK AO2
94908KDBQ DBQ20080629175015206/29/08 17:50:31  5-MIN KDBQ 292350Z 34011G19KT 10SM FEW041 SCT050 BKN095 21/14 A2993 1070 63 2100 340/11G19 RMK AO2 SLP133 T02110139 10228 20194 53006
94908KDBQ DBQ20080629175511006/29/08 17:55:31  5-MIN KDBQ 292355Z 34010G19KT 10SM FEW041 BKN090 21/14 A2993 1070 65 2100 340/10G19 RMK AO2
94908KDBQ DBQ20080629180010406/29/08 18:00:31  5-MIN KDBQ 300000Z 34007KT 10SM FEW041 BKN090 21/14 A2994 1060 67 2000 330/07 RMK AO2
94908KDBQ DBQ20080629180510406/29/08 18:05:31  5-MIN KDBQ 300005Z 35008KT 10SM FEW041 BKN095 21/14 A2993 1070 67 2000 340/08 RMK AO2
94908KDBQ DBQ20080629181010406/29/08 18:10:31  5-MIN KDBQ 300010Z 36007KT 10SM FEW045 BKN095 21/14 A2994 1060 67 2000 350/07 RMK AO2
94908KDBQ DBQ20080629181510406/29/08 18:15:31  5-MIN KDBQ 300015Z 36010KT 10SM FEW043 SCT095 21/14 A2994 1060 65 2100 360/10 RMK AO2
94908KDBQ DBQ20080629182009706/29/08 18:20:31  5-MIN KDBQ 300020Z 36008KT 10SM SCT095 21/14 A2994 1060 65 2000 360/08 RMK AO2
94908KDBQ DBQ20080629182509706/29/08 18:25:31  5-MIN KDBQ 300025Z 36007KT 10SM SCT095 21/14 A2994 1060 65 2100 360/07 RMK AO2
94908KDBQ DBQ20080629183009706/29/08 18:30:31  5-MIN KDBQ 300030Z 36011KT 10SM SCT095 21/14 A2995 1050 63 2000 360/11 RMK AO2
94908KDBQ DBQ20080629183510206/29/08 18:35:31  5-MIN KDBQ 300035Z 01008KT 10SM SCT095 22/14 A2995 1060 61 2100 010/08 RMK AO2 TSNO
94908KDBQ DBQ20080629184009706/29/08 18:40:31  5-MIN KDBQ 300040Z 36007KT 10SM BKN095 21/14 A2995 1050 63 2000 360/07 RMK AO2
94908KDBQ DBQ20080629184509706/29/08 18:45:31  5-MIN KDBQ 300045Z 36008KT 10SM BKN095 22/14 A2995 1050 61 2100 360/08 RMK AO2
94908KDBQ DBQ20080629185011406/29/08 18:50:31  5-MIN KDBQ 300050Z 36006KT 10SM BKN095 21/14 A2995 1050 63 2000 360/06 RMK AO2 SLP139 T02110139
94908KDBQ DBQ20080629185510206/29/08 18:55:31  5-MIN KDBQ 300055Z AUTO 36007KT 10SM BKN095 21/14 A2995 1050 63 2000 360/07 RMK AO2
94908KDBQ DBQ20080629190010206/29/08 19:00:31  5-MIN KDBQ 300100Z AUTO 36006KT 10SM BKN095 21/14 A2995 1050 65 2000 360/06 RMK AO2
94908KDBQ DBQ20080629190510206/29/08 19:05:31  5-MIN KDBQ 300105Z AUTO 36005KT 10SM SCT100 20/14 A2995 1050 67 1900 360/05 RMK AO2
94908KDBQ DBQ20080629191010206/29/08 19:10:31  5-MIN KDBQ 300110Z AUTO 36005KT 10SM FEW100 19/14 A2995 1050 70 1800 360/05 RMK AO2
94908KDBQ DBQ20080629191510206/29/08 19:15:31  5-MIN KDBQ 300115Z AUTO 35006KT 10SM FEW100 19/14 A2996 1040 70 1800 350/06 RMK AO2
94908KDBQ DBQ20080629192009906/29/08 19:20:31  5-MIN KDBQ 300120Z AUTO 35005KT 10SM CLR 19/14 A2995 1050 70 1800 350/05 RMK AO2
94908KDBQ DBQ20080629192509906/29/08 19:25:31  5-MIN KDBQ 300125Z AUTO 35006KT 10SM CLR 19/14 A2996 1040 72 1800 350/06 RMK AO2
94908KDBQ DBQ20080629193009906/29/08 19:30:31  5-MIN KDBQ 300130Z AUTO 35006KT 10SM CLR 18/14 A2996 1050 75 1700 340/06 RMK AO2
94908KDBQ DBQ20080629193509906/29/08 19:35:31  5-MIN KDBQ 300135Z AUTO 34005KT 10SM CLR 18/14 A2996 1040 75 1700 340/05 RMK AO2
94908KDBQ DBQ20080629194011106/29/08 19:40:31  5-MIN KDBQ 300140Z AUTO 34006KT 10SM CLR 18/14 A2995 1050 78 1700 340/06 RMK AO2 LTG DSNT SW
94908KDBQ DBQ20080629194511106/29/08 19:45:31  5-MIN KDBQ 300145Z AUTO 34006KT 10SM CLR 18/14 A2996 1040 78 1700 340/06 RMK AO2 LTG DSNT SW
94908KDBQ DBQ20080629195013106/29/08 19:50:31  5-MIN KDBQ 300150Z AUTO 33006KT 10SM FEW050 18/14 A2996 1040 78 1700 330/06 RMK AO2 LTG DSNT SW SLP142 T01780139
94908KDBQ DBQ20080629195510206/29/08 19:55:31  5-MIN KDBQ 300155Z AUTO 33007KT 10SM FEW050 18/14 A2996 1040 78 1600 330/07 RMK AO2
94908KDBQ DBQ20080629200010206/29/08 20:00:31  5-MIN KDBQ 300200Z AUTO 33007KT 10SM FEW050 17/14 A2997 1040 80 1600 330/07 RMK AO2
94908KDBQ DBQ20080629200510206/29/08 20:05:31  5-MIN KDBQ 300205Z AUTO 33007KT 10SM FEW050 17/14 A2997 1040 80 1600 330/07 RMK AO2
94908KDBQ DBQ20080629201010206/29/08 20:10:31  5-MIN KDBQ 300210Z AUTO 32008KT 10SM FEW050 18/14 A2997 1040 78 1600 320/08 RMK AO2
94908KDBQ DBQ20080629201510206/29/08 20:15:31  5-MIN KDBQ 300215Z AUTO 33007KT 10SM FEW050 18/14 A2997 1030 75 1700 330/07 RMK AO2
94908KDBQ DBQ20080629202009906/29/08 20:20:31  5-MIN KDBQ 300220Z AUTO 32007KT 10SM CLR 18/14 A2997 1030 75 1700 320/07 RMK AO2
94908KDBQ DBQ20080629202509906/29/08 20:25:31  5-MIN KDBQ 300225Z AUTO 33006KT 10SM CLR 18/14 A2998 1030 78 1600 320/06 RMK AO2
94908KDBQ DBQ20080629203009906/29/08 20:30:31  5-MIN KDBQ 300230Z AUTO 33007KT 10SM CLR 18/14 A2997 1030 78 1600 330/07 RMK AO2
94908KDBQ DBQ20080629203509906/29/08 20:35:31  5-MIN KDBQ 300235Z AUTO 33006KT 10SM CLR 18/14 A2998 1020 78 1600 330/06 RMK AO2
94908KDBQ DBQ20080629204009906/29/08 20:40:31  5-MIN KDBQ 300240Z AUTO 33006KT 10SM CLR 18/13 A2998 1020 75 1600 330/06 RMK AO2
94908KDBQ DBQ20080629204509906/29/08 20:45:31  5-MIN KDBQ 300245Z AUTO 33006KT 10SM CLR 18/13 A2999 1020 75 1600 330/06 RMK AO2
94908KDBQ DBQ20080629205012206/29/08 20:50:31  5-MIN KDBQ 300250Z AUTO 33007KT 10SM CLR 18/13 A2998 1020 75 1600 330/07 RMK AO2 SLP150 T01780133 53014
94908KDBQ DBQ20080629205509906/29/08 20:55:31  5-MIN KDBQ 300255Z AUTO 34008KT 10SM CLR 18/13 A2999 1020 72 1700 340/08 RMK AO2
94908KDBQ DBQ20080629210009906/29/08 21:00:31  5-MIN KDBQ 300300Z AUTO 33008KT 10SM CLR 18/13 A2999 1020 72 1700 330/08 RMK AO2
94908KDBQ DBQ20080629210509906/29/08 21:05:31  5-MIN KDBQ 300305Z AUTO 33007KT 10SM CLR 18/13 A2999 1020 72 1700 330/07 RMK AO2
94908KDBQ DBQ20080629211009906/29/08 21:10:31  5-MIN KDBQ 300310Z AUTO 33008KT 10SM CLR 18/14 A2999 1010 78 1600 330/08 RMK AO2
94908KDBQ DBQ20080629211509906/29/08 21:15:31  5-MIN KDBQ 300315Z AUTO 33007KT 10SM CLR 18/14 A2999 1020 78 1600 330/07 RMK AO2
94908KDBQ DBQ20080629212009906/29/08 21:20:31  5-MIN KDBQ 300320Z AUTO 33008KT 10SM CLR 18/13 A2999 1010 75 1600 330/08 RMK AO2
94908KDBQ DBQ20080629212509906/29/08 21:25:31  5-MIN KDBQ 300325Z AUTO 34008KT 10SM CLR 18/13 A2999 1010 75 1600 330/08 RMK AO2
94908KDBQ DBQ20080629213009906/29/08 21:30:31  5-MIN KDBQ 300330Z AUTO 34008KT 10SM CLR 18/13 A3000 1010 75 1600 330/08 RMK AO2
94908KDBQ DBQ20080629213509906/29/08 21:35:31  5-MIN KDBQ 300335Z AUTO 34009KT 10SM CLR 18/13 A3000 1000 75 1600 340/09 RMK AO2
94908KDBQ DBQ20080629214009906/29/08 21:40:31  5-MIN KDBQ 300340Z AUTO 34010KT 10SM CLR 18/13 A3000 1010 75 1600 340/10 RMK AO2
94908KDBQ DBQ20080629214509906/29/08 21:45:31  5-MIN KDBQ 300345Z AUTO 34011KT 10SM CLR 18/13 A3000 1000 72 1700 340/11 RMK AO2
94908KDBQ DBQ20080629215011606/29/08 21:50:31  5-MIN KDBQ 300350Z AUTO 34009KT 10SM CLR 18/13 A3000 1000 72 1700 340/09 RMK AO2 SLP156 T01830133
94908KDBQ DBQ20080629215509906/29/08 21:55:31  5-MIN KDBQ 300355Z AUTO 34007KT 10SM CLR 18/13 A3000 1000 75 1600 340/07 RMK AO2
94908KDBQ DBQ20080629220009906/29/08 22:00:31  5-MIN KDBQ 300400Z AUTO 34007KT 10SM CLR 18/13 A3000 1000 75 1600 340/07 RMK AO2
94908KDBQ DBQ20080629220509906/29/08 22:05:31  5-MIN KDBQ 300405Z AUTO 34007KT 10SM CLR 18/13 A3000 1000 75 1600 340/07 RMK AO2
94908KDBQ DBQ20080629221009906/29/08 22:10:31  5-MIN KDBQ 300410Z AUTO 35007KT 10SM CLR 17/13 A3000 1000 78 1500 350/07 RMK AO2
94908KDBQ DBQ20080629221509906/29/08 22:15:31  5-MIN KDBQ 300415Z AUTO 35005KT 10SM CLR 17/13 A3000 1000 75 1500 350/05 RMK AO2
94908KDBQ DBQ20080629222009906/29/08 22:20:31  5-MIN KDBQ 300420Z AUTO 35005KT 10SM CLR 17/13 A3000 1000 75 1500 350/05 RMK AO2
94908KDBQ DBQ20080629222509906/29/08 22:25:31  5-MIN KDBQ 300425Z AUTO 35004KT 10SM CLR 17/13 A3000 1000 77 1500 350/04 RMK AO2
94908KDBQ DBQ20080629223009906/29/08 22:30:31  5-MIN KDBQ 300430Z AUTO 36004KT 10SM CLR 16/13 A3001 1000 80 1400 350/04 RMK AO2
94908KDBQ DBQ20080629223509906/29/08 22:35:31  5-MIN KDBQ 300435Z AUTO 35004KT 10SM CLR 16/13 A3001 1000 80 1400 350/04 RMK AO2
94908KDBQ DBQ20080629224009906/29/08 22:40:31  5-MIN KDBQ 300440Z AUTO 35004KT 10SM CLR 16/13 A3001 1000 80 1400 350/04 RMK AO2
94908KDBQ DBQ20080629224509906/29/08 22:45:31  5-MIN KDBQ 300445Z AUTO 01003KT 10SM CLR 16/13 A3001 1000 80 1400 010/03 RMK AO2
94908KDBQ DBQ20080629225011506/29/08 22:50:31  5-MIN KDBQ 300450Z AUTO 36003KT 10SM CLR 16/13 A3001 990 80 1400 360/03 RMK AO2 SLP160 T01610128
94908KDBQ DBQ20080629225509906/29/08 22:55:31  5-MIN KDBQ 300455Z AUTO 36003KT 10SM CLR 16/13 A3001 1000 80 1400 360/03 RMK AO2
94908KDBQ DBQ20080629230009806/29/08 23:00:31  5-MIN KDBQ 300500Z AUTO 36003KT 10SM CLR 16/13 A3001 990 80 1400 360/03 RMK AO2
94908KDBQ DBQ20080629230509906/29/08 23:05:31  5-MIN KDBQ 300505Z AUTO 36003KT 10SM CLR 16/13 A3001 1000 80 1400 360/03 RMK AO2
94908KDBQ DBQ20080629231009806/29/08 23:10:31  5-MIN KDBQ 300510Z AUTO 35003KT 10SM CLR 16/13 A3001 990 80 1400 350/03 RMK AO2
94908KDBQ DBQ20080629231509806/29/08 23:15:31  5-MIN KDBQ 300515Z AUTO 34004KT 10SM CLR 16/13 A3001 990 80 1400 340/04 RMK AO2
94908KDBQ DBQ20080629232009906/29/08 23:20:31  5-MIN KDBQ 300520Z AUTO 35004KT 10SM CLR 16/13 A3001 1000 83 1300 350/04 RMK AO2
94908KDBQ DBQ20080629232509806/29/08 23:25:31  5-MIN KDBQ 300525Z AUTO 36003KT 10SM CLR 16/13 A3001 990 83 1300 360/03 RMK AO2
94908KDBQ DBQ20080629233009806/29/08 23:30:31  5-MIN KDBQ 300530Z AUTO 01004KT 10SM CLR 16/13 A3001 990 83 1300 010/04 RMK AO2
94908KDBQ DBQ20080629233509806/29/08 23:35:31  5-MIN KDBQ 300535Z AUTO 02004KT 10SM CLR 16/13 A3001 990 83 1300 010/04 RMK AO2
94908KDBQ DBQ20080629234009806/29/08 23:40:31  5-MIN KDBQ 300540Z AUTO 02004KT 10SM CLR 16/13 A3001 990 80 1400 010/04 RMK AO2
94908KDBQ DBQ20080629234509806/29/08 23:45:31  5-MIN KDBQ 300545Z AUTO 02004KT 10SM CLR 16/13 A3002 990 80 1400 020/04 RMK AO2
94908KDBQ DBQ20080629235014306/29/08 23:50:31  5-MIN KDBQ 300550Z AUTO 02004KT 10SM CLR 16/13 A3001 990 83 1300 020/04 RMK AO2 SLP161 T01560128 10217 20156 402280133 53017
94908KDBQ DBQ20080629235509806/29/08 23:55:31  5-MIN KDBQ 300555Z AUTO 02004KT 10SM CLR 16/12 A3002 990 80 1300 020/04 RMK AO2
94908KDBQ DBQ20080630000009806/30/08 00:00:38  5-MIN KDBQ 300600Z AUTO 01004KT 10SM CLR 16/12 A3002 990 80 1300 010/04 RMK AO2
94908KDBQ DBQ20080630000509806/30/08 00:05:31  5-MIN KDBQ 300605Z AUTO 02004KT 10SM CLR 16/12 A3002 990 80 1300 020/04 RMK AO2
94908KDBQ DBQ20080630001009806/30/08 00:10:31  5-MIN KDBQ 300610Z AUTO 04003KT 10SM CLR 16/12 A3002 990 80 1300 040/03 RMK AO2
94908KDBQ DBQ20080630001509806/30/08 00:15:33  5-MIN KDBQ 300615Z AUTO 04003KT 10SM CLR 16/12 A3002 990 80 1300 040/03 RMK AO2
94908KDBQ DBQ20080630002010006/30/08 00:20:31  5-MIN KDBQ 300620Z AUTO 02003KT 10SM CLR 16/12 A3002 990 77 1400 020/03 RMK AO2 $
94908KDBQ DBQ20080630002510006/30/08 00:25:31  5-MIN KDBQ 300625Z AUTO 01003KT 10SM CLR 16/13 A3002 990 80 1400 010/03 RMK AO2 $
94908KDBQ DBQ20080630003010006/30/08 00:30:31  5-MIN KDBQ 300630Z AUTO 02003KT 10SM CLR 16/12 A3002 990 77 1400 020/03 RMK AO2 $
94908KDBQ DBQ20080630003510006/30/08 00:35:31  5-MIN KDBQ 300635Z AUTO 02003KT 10SM CLR 16/12 A3002 990 77 1400 020/03 RMK AO2 $
94908KDBQ DBQ20080630004010006/30/08 00:40:31  5-MIN KDBQ 300640Z AUTO 01003KT 10SM CLR 16/12 A3002 990 77 1400 010/03 RMK AO2 $
94908KDBQ DBQ20080630004510006/30/08 00:45:31  5-MIN KDBQ 300645Z AUTO 36004KT 10SM CLR 16/12 A3002 990 77 1400 360/04 RMK AO2 $
94908KDBQ DBQ20080630005011706/30/08 00:50:31  5-MIN KDBQ 300650Z AUTO 36004KT 10SM CLR 16/13 A3002 990 80 1400 360/04 RMK AO2 SLP162 T01610128 $
94908KDBQ DBQ20080630005510006/30/08 00:55:31  5-MIN KDBQ 300655Z AUTO 36004KT 10SM CLR 16/13 A3002 990 83 1300 360/04 RMK AO2 $
94908KDBQ DBQ20080630010010006/30/08 01:00:31  5-MIN KDBQ 300700Z AUTO 36004KT 10SM CLR 16/13 A3002 990 83 1300 360/04 RMK AO2 $
94908KDBQ DBQ20080630010510006/30/08 01:05:31  5-MIN KDBQ 300705Z AUTO 36004KT 10SM CLR 16/13 A3002 990 83 1300 360/04 RMK AO2 $
94908KDBQ DBQ20080630011009806/30/08 01:10:31  5-MIN KDBQ 300710Z AUTO 36004KT 10SM CLR 16/13 A3002 990 83 1300 360/04 RMK AO2
94908KDBQ DBQ20080630011509806/30/08 01:15:31  5-MIN KDBQ 300715Z AUTO 35004KT 10SM CLR 16/13 A3002 980 83 1300 350/04 RMK AO2
94908KDBQ DBQ20080630012009806/30/08 01:20:31  5-MIN KDBQ 300720Z AUTO 35003KT 10SM CLR 16/13 A3002 990 83 1300 350/03 RMK AO2
94908KDBQ DBQ20080630012509806/30/08 01:25:31  5-MIN KDBQ 300725Z AUTO 00000KT 10SM CLR 16/13 A3002 980 83 1300 000/00 RMK AO2
94908KDBQ DBQ20080630013009806/30/08 01:30:31  5-MIN KDBQ 300730Z AUTO 00000KT 10SM CLR 16/13 A3002 980 83 1300 000/00 RMK AO2
94908KDBQ DBQ20080630013509806/30/08 01:35:31  5-MIN KDBQ 300735Z AUTO 00000KT 10SM CLR 16/13 A3002 980 83 1300 000/00 RMK AO2
94908KDBQ DBQ20080630014009806/30/08 01:40:31  5-MIN KDBQ 300740Z AUTO 00000KT 10SM CLR 16/13 A3002 990 80 1400 000/00 RMK AO2
94908KDBQ DBQ20080630014509806/30/08 01:45:31  5-MIN KDBQ 300745Z AUTO 00000KT 10SM CLR 16/13 A3002 980 80 1400 000/00 RMK AO2
94908KDBQ DBQ20080630015011506/30/08 01:50:31  5-MIN KDBQ 300750Z AUTO 00000KT 10SM CLR 16/13 A3002 990 80 1400 000/00 RMK AO2 SLP162 T01610128
94908KDBQ DBQ20080630015509806/30/08 01:55:31  5-MIN KDBQ 300755Z AUTO 00000KT 10SM CLR 16/12 A3002 990 80 1300 000/00 RMK AO2
94908KDBQ DBQ20080630020009806/30/08 02:00:31  5-MIN KDBQ 300800Z AUTO 00000KT 10SM CLR 14/12 A3002 990 86 1200 000/00 RMK AO2
94908KDBQ DBQ20080630020509806/30/08 02:05:31  5-MIN KDBQ 300805Z AUTO 00000KT 10SM CLR 14/12 A3002 990 86 1200 000/00 RMK AO2
94908KDBQ DBQ20080630021009806/30/08 02:10:31  5-MIN KDBQ 300810Z AUTO 00000KT 10SM CLR 14/12 A3002 990 86 1200 000/00 RMK AO2
94908KDBQ DBQ20080630021509806/30/08 02:15:31  5-MIN KDBQ 300815Z AUTO 00000KT 10SM CLR 14/12 A3002 990 86 1200 000/00 RMK AO2
94908KDBQ DBQ20080630022009806/30/08 02:20:31  5-MIN KDBQ 300820Z AUTO 00000KT 10SM CLR 13/12 A3002 990 89 1100 000/00 RMK AO2
94908KDBQ DBQ20080630022509806/30/08 02:25:31  5-MIN KDBQ 300825Z AUTO 00000KT 10SM CLR 13/12 A3002 980 93 1000 000/00 RMK AO2
94908KDBQ DBQ20080630023009806/30/08 02:30:31  5-MIN KDBQ 300830Z AUTO 00000KT 10SM CLR 13/11 A3002 990 89 1000 000/00 RMK AO2
94908KDBQ DBQ20080630023509806/30/08 02:35:31  5-MIN KDBQ 300835Z AUTO 00000KT 10SM CLR 13/11 A3003 980 89 1000 000/00 RMK AO2
94908KDBQ DBQ20080630024009806/30/08 02:40:31  5-MIN KDBQ 300840Z AUTO 00000KT 10SM CLR 13/11 A3003 980 89 1000 000/00 RMK AO2
94908KDBQ DBQ20080630024509806/30/08 02:45:31  5-MIN KDBQ 300845Z AUTO 00000KT 10SM CLR 13/11 A3003 980 86 1100 000/00 RMK AO2
94908KDBQ DBQ20080630025012106/30/08 02:50:31  5-MIN KDBQ 300850Z AUTO 00000KT 10SM CLR 13/11 A3003 980 86 1100 000/00 RMK AO2 SLP166 T01330111 51010
94908KDBQ DBQ20080630025509806/30/08 02:55:31  5-MIN KDBQ 300855Z AUTO 00000KT 10SM CLR 13/11 A3003 980 86 1000 000/00 RMK AO2
94908KDBQ DBQ20080630030009706/30/08 03:00:31  5-MIN KDBQ 300900Z AUTO 00000KT 10SM CLR 12/11 A3003 980 93 900 000/00 RMK AO2
94908KDBQ DBQ20080630030509706/30/08 03:05:31  5-MIN KDBQ 300905Z AUTO 00000KT 10SM CLR 12/11 A3003 980 93 900 000/00 RMK AO2
94908KDBQ DBQ20080630031009706/30/08 03:10:31  5-MIN KDBQ 300910Z AUTO 00000KT 10SM CLR 12/11 A3003 970 93 900 000/00 RMK AO2
94908KDBQ DBQ20080630031510006/30/08 03:15:31  5-MIN KDBQ 300915Z AUTO 00000KT 10SM FEW090 12/11 A3003 970 93 900 000/00 RMK AO2
94908KDBQ DBQ20080630032010106/30/08 03:20:31  5-MIN KDBQ 300920Z AUTO 00000KT 10SM SCT090 13/12 A3003 970 93 1000 000/00 RMK AO2
94908KDBQ DBQ20080630032510106/30/08 03:25:31  5-MIN KDBQ 300925Z AUTO 00000KT 10SM BKN090 13/12 A3003 970 93 1000 000/00 RMK AO2
94908KDBQ DBQ20080630033010106/30/08 03:30:31  5-MIN KDBQ 300930Z AUTO 00000KT 10SM BKN090 13/12 A3003 970 89 1000 000/00 RMK AO2
94908KDBQ DBQ20080630033510106/30/08 03:35:31  5-MIN KDBQ 300935Z AUTO 00000KT 10SM BKN090 13/12 A3003 970 89 1000 000/00 RMK AO2
94908KDBQ DBQ20080630034010106/30/08 03:40:31  5-MIN KDBQ 300940Z AUTO 00000KT 10SM OVC090 14/12 A3003 970 90 1100 000/00 RMK AO2
94908KDBQ DBQ20080630034510106/30/08 03:45:31  5-MIN KDBQ 300945Z AUTO 00000KT 10SM OVC090 14/12 A3003 980 90 1100 000/00 RMK AO2
94908KDBQ DBQ20080630035011806/30/08 03:50:31  5-MIN KDBQ 300950Z AUTO 00000KT 10SM OVC090 14/12 A3003 970 90 1100 000/00 RMK AO2 SLP167 T01390122
94908KDBQ DBQ20080630035510106/30/08 03:55:31  5-MIN KDBQ 300955Z AUTO 00000KT 10SM OVC090 13/12 A3003 970 93 1000 000/00 RMK AO2
94908KDBQ DBQ20080630040010106/30/08 04:00:31  5-MIN KDBQ 301000Z AUTO 00000KT 10SM OVC090 13/12 A3003 970 93 1000 000/00 RMK AO2
94908KDBQ DBQ20080630040510106/30/08 04:05:31  5-MIN KDBQ 301005Z AUTO 00000KT 10SM OVC095 14/12 A3003 970 90 1100 000/00 RMK AO2
94908KDBQ DBQ20080630041010106/30/08 04:10:31  5-MIN KDBQ 301010Z AUTO 00000KT 10SM OVC095 14/12 A3003 970 90 1100 000/00 RMK AO2
94908KDBQ DBQ20080630041510106/30/08 04:15:31  5-MIN KDBQ 301015Z AUTO 00000KT 10SM OVC095 14/12 A3004 970 86 1200 000/00 RMK AO2
94908KDBQ DBQ20080630042010106/30/08 04:20:31  5-MIN KDBQ 301020Z AUTO 00000KT 10SM OVC095 14/12 A3004 970 90 1100 000/00 RMK AO2
94908KDBQ DBQ20080630042510106/30/08 04:25:31  5-MIN KDBQ 301025Z AUTO 00000KT 10SM BKN095 14/12 A3004 970 90 1100 000/00 RMK AO2
94908KDBQ DBQ20080630043010106/30/08 04:30:31  5-MIN KDBQ 301030Z AUTO 00000KT 10SM BKN095 13/12 A3004 970 89 1000 000/00 RMK AO2
94908KDBQ DBQ20080630043510106/30/08 04:35:31  5-MIN KDBQ 301035Z AUTO 00000KT 10SM SCT095 14/12 A3004 970 86 1100 000/00 RMK AO2
94908KDBQ DBQ20080630044010106/30/08 04:40:31  5-MIN KDBQ 301040Z AUTO 00000KT 10SM SCT095 14/12 A3004 970 86 1100 000/00 RMK AO2
94908KDBQ DBQ20080630044509606/30/08 04:45:31  5-MIN KDBQ 301045Z 00000KT 10SM FEW095 14/12 A3004 960 90 1100 000/00 RMK AO2
94908KDBQ DBQ20080630045011006/30/08 04:50:31  5-MIN KDBQ 301050Z 00000KT 10SM CLR 13/12 A3004 960 89 1000 000/00 RMK AO2 SLP172 T01330117
94908KDBQ DBQ20080630045509306/30/08 04:55:31  5-MIN KDBQ 301055Z 00000KT 10SM CLR 13/11 A3005 960 89 1000 000/00 RMK AO2
94908KDBQ DBQ20080630050009306/30/08 05:00:31  5-MIN KDBQ 301100Z 00000KT 10SM CLR 13/11 A3005 960 89 1000 000/00 RMK AO2
94908KDBQ DBQ20080630050509306/30/08 05:05:31  5-MIN KDBQ 301105Z 00000KT 10SM CLR 13/12 A3005 960 89 1000 000/00 RMK AO2
94908KDBQ DBQ20080630051009306/30/08 05:10:31  5-MIN KDBQ 301110Z 00000KT 10SM CLR 14/12 A3005 960 90 1100 000/00 RMK AO2
94908KDBQ DBQ20080630051509306/30/08 05:15:31  5-MIN KDBQ 301115Z 00000KT 10SM CLR 14/12 A3005 960 90 1100 000/00 RMK AO2
94908KDBQ DBQ20080630052009606/30/08 05:20:31  5-MIN KDBQ 301120Z 00000KT 10SM FEW090 14/12 A3005 960 86 1200 000/00 RMK AO2
94908KDBQ DBQ20080630052509606/30/08 05:25:31  5-MIN KDBQ 301125Z 00000KT 10SM FEW090 14/12 A3005 960 86 1200 000/00 RMK AO2
94908KDBQ DBQ20080630053009606/30/08 05:30:31  5-MIN KDBQ 301130Z 00000KT 10SM SCT090 14/13 A3005 960 90 1200 000/00 RMK AO2
94908KDBQ DBQ20080630053509606/30/08 05:35:31  5-MIN KDBQ 301135Z 00000KT 10SM BKN090 15/13 A3005 960 86 1200 000/00 RMK AO2
94908KDBQ DBQ20080630054009606/30/08 05:40:31  5-MIN KDBQ 301140Z 00000KT 10SM BKN090 16/13 A3005 950 86 1300 000/00 RMK AO2
94908KDBQ DBQ20080630054509606/30/08 05:45:31  5-MIN KDBQ 301145Z 00000KT 10SM BKN090 16/13 A3005 950 86 1300 000/00 RMK AO2
94908KDBQ DBQ20080630055013106/30/08 05:50:31  5-MIN KDBQ 301150Z 00000KT 10SM SCT090 16/14 A3005 950 90 1300 000/00 RMK AO2 SLP175 T01560139 10161 20122 53004
94908KDBQ DBQ20080630055509606/30/08 05:55:31  5-MIN KDBQ 301155Z 00000KT 10SM SCT090 16/14 A3005 960 86 1300 000/00 RMK AO2
94908KDBQ DBQ20080630060009606/30/08 06:00:31  5-MIN KDBQ 301200Z 00000KT 10SM SCT090 16/14 A3006 950 86 1300 000/00 RMK AO2
94908KDBQ DBQ20080630060509606/30/08 06:05:31  5-MIN KDBQ 301205Z 00000KT 10SM BKN085 17/14 A3006 950 86 1400 000/00 RMK AO2
94908KDBQ DBQ20080630061009606/30/08 06:10:31  5-MIN KDBQ 301210Z 00000KT 10SM SCT085 16/14 A3006 950 86 1300 000/00 RMK AO2
94908KDBQ DBQ20080630061509606/30/08 06:15:31  5-MIN KDBQ 301215Z 00000KT 10SM FEW085 16/14 A3006 950 86 1300 000/00 RMK AO2
94908KDBQ DBQ20080630062009606/30/08 06:20:31  5-MIN KDBQ 301220Z 00000KT 10SM FEW085 17/14 A3006 950 83 1400 000/00 RMK AO2
94908KDBQ DBQ20080630062509606/30/08 06:25:31  5-MIN KDBQ 301225Z 00000KT 10SM FEW085 17/14 A3006 950 86 1400 000/00 RMK AO2
94908KDBQ DBQ20080630063009606/30/08 06:30:31  5-MIN KDBQ 301230Z 24003KT 10SM FEW085 17/15 A3006 950 87 1500 240/03 RMK AO2
94908KDBQ DBQ20080630063509306/30/08 06:35:31  5-MIN KDBQ 301235Z VRB03KT 10SM CLR 18/15 A3006 950 83 1500 VRB/03 RMK AO2
94908KDBQ DBQ20080630064009306/30/08 06:40:31  5-MIN KDBQ 301240Z 29003KT 10SM CLR 19/14 A3007 940 72 1700 290/03 RMK AO2
94908KDBQ DBQ20080630064509306/30/08 06:45:31  5-MIN KDBQ 301245Z 29004KT 10SM CLR 19/14 A3007 940 75 1700 290/04 RMK AO2
94908KDBQ DBQ20080630065011006/30/08 06:50:31  5-MIN KDBQ 301250Z 31004KT 10SM CLR 19/14 A3006 950 70 1700 310/04 RMK AO2 SLP176 T01940139
94908KDBQ DBQ20080630065509306/30/08 06:55:31  5-MIN KDBQ 301255Z 30004KT 10SM CLR 19/14 A3007 940 72 1700 300/04 RMK AO2
94908KDBQ DBQ20080630070009306/30/08 07:00:31  5-MIN KDBQ 301300Z 32004KT 10SM CLR 20/14 A3007 940 70 1800 320/04 RMK AO2
94908KDBQ DBQ20080630070509306/30/08 07:05:31  5-MIN KDBQ 301305Z 32005KT 10SM CLR 20/14 A3007 940 67 1800 320/05 RMK AO2
94908KDBQ DBQ20080630071009306/30/08 07:10:31  5-MIN KDBQ 301310Z 32004KT 10SM CLR 21/14 A3007 940 65 1800 320/04 RMK AO2
94908KDBQ DBQ20080630071509306/30/08 07:15:31  5-MIN KDBQ 301315Z 33006KT 10SM CLR 21/14 A3007 940 65 1800 330/06 RMK AO2
94908KDBQ DBQ20080630072009306/30/08 07:20:31  5-MIN KDBQ 301320Z 33007KT 10SM CLR 21/14 A3007 940 65 1800 330/07 RMK AO2
94908KDBQ DBQ20080630072509306/30/08 07:25:31  5-MIN KDBQ 301325Z 32005KT 10SM CLR 21/14 A3007 940 65 1800 320/05 RMK AO2
94908KDBQ DBQ20080630073009306/30/08 07:30:31  5-MIN KDBQ 301330Z 33005KT 10SM CLR 21/14 A3007 940 65 1900 330/05 RMK AO2
94908KDBQ DBQ20080630073509306/30/08 07:35:31  5-MIN KDBQ 301335Z 34006KT 10SM CLR 21/14 A3008 930 65 1900 340/06 RMK AO2
94908KDBQ DBQ20080630074009306/30/08 07:40:31  5-MIN KDBQ 301340Z 34005KT 10SM CLR 21/14 A3007 940 65 1900 340/05 RMK AO2
94908KDBQ DBQ20080630074509306/30/08 07:45:31  5-MIN KDBQ 301345Z 34005KT 10SM CLR 22/14 A3008 930 63 2000 340/05 RMK AO2
94908KDBQ DBQ20080630075011006/30/08 07:50:31  5-MIN KDBQ 301350Z 34006KT 10SM CLR 22/15 A3007 940 65 2000 340/06 RMK AO2 SLP181 T02170150
94908KDBQ DBQ20080630075509306/30/08 07:55:31  5-MIN KDBQ 301355Z 33005KT 10SM CLR 22/14 A3008 930 63 2000 330/05 RMK AO2
94908KDBQ DBQ20080630080009306/30/08 08:00:31  5-MIN KDBQ 301400Z 34005KT 10SM CLR 22/14 A3008 930 63 2000 340/05 RMK AO2
94908KDBQ DBQ20080630080509306/30/08 08:05:31  5-MIN KDBQ 301405Z 34007KT 10SM CLR 22/14 A3008 930 61 2000 340/07 RMK AO2
94908KDBQ DBQ20080630081009306/30/08 08:10:31  5-MIN KDBQ 301410Z 35006KT 10SM CLR 22/14 A3008 930 61 2000 350/06 RMK AO2
94908KDBQ DBQ20080630081509306/30/08 08:15:31  5-MIN KDBQ 301415Z 32007KT 10SM CLR 22/14 A3008 930 61 2000 320/07 RMK AO2
94908KDBQ DBQ20080630082009306/30/08 08:20:31  5-MIN KDBQ 301420Z 33006KT 10SM CLR 22/14 A3008 930 61 2000 330/06 RMK AO2
94908KDBQ DBQ20080630082509306/30/08 08:25:31  5-MIN KDBQ 301425Z 32006KT 10SM CLR 22/14 A3008 930 61 2000 320/06 RMK AO2
94908KDBQ DBQ20080630083009306/30/08 08:30:31  5-MIN KDBQ 301430Z 32005KT 10SM CLR 22/14 A3008 930 61 2000 320/05 RMK AO2
94908KDBQ DBQ20080630083509306/30/08 08:35:31  5-MIN KDBQ 301435Z 30005KT 10SM CLR 23/14 A3008 930 59 2100 300/05 RMK AO2
94908KDBQ DBQ20080630084009306/30/08 08:40:31  5-MIN KDBQ 301440Z VRB04KT 10SM CLR 23/14 A3008 930 59 2100 VRB/04 RMK AO2
94908KDBQ DBQ20080630084509306/30/08 08:45:31  5-MIN KDBQ 301445Z 34006KT 10SM CLR 23/15 A3008 930 61 2100 340/06 RMK AO2
94908KDBQ DBQ20080630085011606/30/08 08:50:31  5-MIN KDBQ 301450Z 33006KT 10SM CLR 23/14 A3008 930 57 2200 330/06 RMK AO2 SLP181 T02330144 53008
94908KDBQ DBQ20080630085509306/30/08 08:55:31  5-MIN KDBQ 301455Z 36005KT 10SM CLR 23/14 A3008 930 57 2200 360/05 RMK AO2
94908KDBQ DBQ20080630090009306/30/08 09:00:31  5-MIN KDBQ 301500Z 35006KT 10SM CLR 23/14 A3008 930 57 2100 350/06 RMK AO2
94908KDBQ DBQ20080630090509306/30/08 09:05:31  5-MIN KDBQ 301505Z VRB05KT 10SM CLR 23/14 A3008 930 57 2200 VRB/05 RMK AO2
94908KDBQ DBQ20080630091009306/30/08 09:10:31  5-MIN KDBQ 301510Z 35006KT 10SM CLR 24/15 A3008 930 57 2200 350/06 RMK AO2
94908KDBQ DBQ20080630091509306/30/08 09:15:31  5-MIN KDBQ 301515Z 35005KT 10SM CLR 23/14 A3008 930 57 2200 350/05 RMK AO2
94908KDBQ DBQ20080630092009306/30/08 09:20:31  5-MIN KDBQ 301520Z 34006KT 10SM CLR 23/14 A3008 930 57 2200 340/06 RMK AO2
94908KDBQ DBQ20080630092509306/30/08 09:25:31  5-MIN KDBQ 301525Z 34007KT 10SM CLR 24/15 A3008 930 57 2200 340/07 RMK AO2
94908KDBQ DBQ20080630093009306/30/08 09:30:31  5-MIN KDBQ 301530Z 33007KT 10SM CLR 24/14 A3008 930 55 2200 330/07 RMK AO2
94908KDBQ DBQ20080630093509306/30/08 09:35:31  5-MIN KDBQ 301535Z 34006KT 10SM CLR 24/14 A3008 930 55 2200 340/06 RMK AO2
94908KDBQ DBQ20080630094009306/30/08 09:40:31  5-MIN KDBQ 301540Z 33005KT 10SM CLR 24/15 A3008 930 55 2300 330/05 RMK AO2
94908KDBQ DBQ20080630094509306/30/08 09:45:31  5-MIN KDBQ 301545Z 35007KT 10SM CLR 24/14 A3008 930 53 2200 350/07 RMK AO2
94908KDBQ DBQ20080630095011006/30/08 09:50:31  5-MIN KDBQ 301550Z 33009KT 10SM CLR 24/14 A3008 930 53 2200 330/09 RMK AO2 SLP181 T02390139
94908KDBQ DBQ20080630095509306/30/08 09:55:31  5-MIN KDBQ 301555Z 32008KT 10SM CLR 24/14 A3008 930 53 2200 320/08 RMK AO2
94908KDBQ DBQ20080630100009306/30/08 10:00:31  5-MIN KDBQ 301600Z 32009KT 10SM CLR 24/13 A3008 930 49 2300 310/09 RMK AO2
94908KDBQ DBQ20080630100509306/30/08 10:05:31  5-MIN KDBQ 301605Z 33010KT 10SM CLR 24/14 A3008 930 51 2300 330/10 RMK AO2
94908KDBQ DBQ20080630101009306/30/08 10:10:31  5-MIN KDBQ 301610Z 32011KT 10SM CLR 24/14 A3008 930 51 2300 320/11 RMK AO2
94908KDBQ DBQ20080630101509906/30/08 10:15:31  5-MIN KDBQ 301615Z 33013G17KT 10SM CLR 24/13 A3008 930 49 2300 330/13G17 RMK AO2
94908KDBQ DBQ20080630102009906/30/08 10:20:31  5-MIN KDBQ 301620Z 33010G17KT 10SM CLR 24/13 A3008 930 49 2300 330/10G17 RMK AO2
94908KDBQ DBQ20080630102509306/30/08 10:25:31  5-MIN KDBQ 301625Z 34011KT 10SM CLR 24/12 A3008 930 46 2300 340/11 RMK AO2
94908KDBQ DBQ20080630103009306/30/08 10:30:31  5-MIN KDBQ 301630Z 33011KT 10SM CLR 24/13 A3008 930 47 2300 330/11 RMK AO2
94908KDBQ DBQ20080630103509306/30/08 10:35:31  5-MIN KDBQ 301635Z 34010KT 10SM CLR 25/12 A3008 930 44 2300 340/10 RMK AO2
94908KDBQ DBQ20080630104009906/30/08 10:40:31  5-MIN KDBQ 301640Z 33011G16KT 10SM CLR 25/13 A3008 930 46 2300 330/11G16 RMK AO2
94908KDBQ DBQ20080630104509906/30/08 10:45:31  5-MIN KDBQ 301645Z 33011G16KT 10SM CLR 24/12 A3008 930 46 2300 330/11G16 RMK AO2
94908KDBQ DBQ20080630105011006/30/08 10:50:31  5-MIN KDBQ 301650Z 35010KT 10SM CLR 24/12 A3008 930 44 2300 340/10 RMK AO2 SLP181 T02440117
94908KDBQ DBQ20080630105509306/30/08 10:55:31  5-MIN KDBQ 301655Z 35008KT 10SM CLR 24/11 A3008 930 42 2300 350/08 RMK AO2
94908KDBQ DBQ20080630110009306/30/08 11:00:31  5-MIN KDBQ 301700Z 32014KT 10SM CLR 26/12 A3008 930 43 2400 320/14 RMK AO2
94908KDBQ DBQ20080630110509606/30/08 11:05:31  5-MIN KDBQ 301705Z 34011KT 10SM FEW060 25/11 A3008 930 41 2300 340/11 RMK AO2
94908KDBQ DBQ20080630111009606/30/08 11:10:31  5-MIN KDBQ 301710Z 34010KT 10SM FEW060 24/11 A3008 930 44 2200 340/10 RMK AO2
94908KDBQ DBQ20080630111509606/30/08 11:15:31  5-MIN KDBQ 301715Z 35012KT 10SM FEW060 25/12 A3008 930 43 2300 340/12 RMK AO2
94908KDBQ DBQ20080630112009606/30/08 11:20:31  5-MIN KDBQ 301720Z 33010KT 10SM FEW060 25/12 A3008 940 43 2300 320/10 RMK AO2
94908KDBQ DBQ20080630112510206/30/08 11:25:31  5-MIN KDBQ 301725Z 32012G18KT 10SM FEW060 25/12 A3008 930 43 2300 320/12G18 RMK AO2
94908KDBQ DBQ20080630113010206/30/08 11:30:31  5-MIN KDBQ 301730Z 33010G18KT 10SM FEW060 24/12 A3007 940 44 2300 330/10G18 RMK AO2
94908KDBQ DBQ20080630113509606/30/08 11:35:31  5-MIN KDBQ 301735Z 34011KT 10SM FEW060 25/12 A3008 930 44 2300 340/11 RMK AO2
94908KDBQ DBQ20080630114009906/30/08 11:40:31  5-MIN KDBQ 301740Z 33008G17KT 10SM CLR 25/12 A3008 930 44 2300 330/08G17 RMK AO2
94908KDBQ DBQ20080630114509906/30/08 11:45:31  5-MIN KDBQ 301745Z 34012G16KT 10SM CLR 25/12 A3008 940 44 2300 340/12G16 RMK AO2
94908KDBQ DBQ20080630115013406/30/08 11:50:31  5-MIN KDBQ 301750Z 32011G16KT 10SM CLR 25/11 A3008 940 41 2300 320/11G16 RMK AO2 SLP180 T02500111 10256 20161 51008
94908KDBQ DBQ20080630115509606/30/08 11:55:31  5-MIN KDBQ 301755Z 33009KT 10SM FEW060 25/12 A3007 940 44 2300 330/09 RMK AO2
94908KDBQ DBQ20080630120010206/30/08 12:00:31  5-MIN KDBQ 301800Z 35010G18KT 10SM FEW060 25/12 A3007 940 43 2300 340/10G18 RMK AO2
94908KDBQ DBQ20080630120510206/30/08 12:05:31  5-MIN KDBQ 301805Z 34011G18KT 10SM FEW060 26/11 A3007 940 40 2400 340/11G18 RMK AO2
94908KDBQ DBQ20080630121009606/30/08 12:10:31  5-MIN KDBQ 301810Z 35012KT 10SM FEW060 25/11 A3007 940 41 2300 340/12 RMK AO2
94908KDBQ DBQ20080630121509606/30/08 12:15:31  5-MIN KDBQ 301815Z 33010KT 10SM FEW060 25/11 A3007 940 41 2300 330/10 RMK AO2
94908KDBQ DBQ20080630122009606/30/08 12:20:31  5-MIN KDBQ 301820Z 33010KT 10SM FEW060 25/11 A3007 940 41 2300 330/10 RMK AO2
94908KDBQ DBQ20080630122509606/30/08 12:25:31  5-MIN KDBQ 301825Z 35009KT 10SM SCT060 26/12 A3007 940 41 2400 350/09 RMK AO2
94908KDBQ DBQ20080630123009606/30/08 12:30:31  5-MIN KDBQ 301830Z 35012KT 10SM FEW060 25/11 A3007 940 39 2300 350/12 RMK AO2
94908KDBQ DBQ20080630123509606/30/08 12:35:31  5-MIN KDBQ 301835Z 32011KT 10SM FEW060 26/11 A3007 940 40 2400 320/11 RMK AO2
94908KDBQ DBQ20080630124010206/30/08 12:40:31  5-MIN KDBQ 301840Z 33011G16KT 10SM FEW060 25/11 A3007 940 41 2300 320/11G16 RMK AO2
94908KDBQ DBQ20080630124510206/30/08 12:45:31  5-MIN KDBQ 301845Z 34012G16KT 10SM FEW060 25/11 A3007 940 41 2300 340/12G16 RMK AO2
94908KDBQ DBQ20080630125011006/30/08 12:50:31  5-MIN KDBQ 301850Z 32011KT 10SM CLR 26/12 A3007 940 41 2400 320/11 RMK AO2 SLP178 T02560117
94908KDBQ DBQ20080630125509306/30/08 12:55:31  5-MIN KDBQ 301855Z 32012KT 10SM CLR 26/12 A3007 940 41 2400 320/12 RMK AO2
94908KDBQ DBQ20080630130009906/30/08 13:00:31  5-MIN KDBQ 301900Z 30007G15KT 10SM CLR 25/11 A3007 940 41 2400 300/07G15 RMK AO2
94908KDBQ DBQ20080630130510206/30/08 13:05:31  5-MIN KDBQ 301905Z 36010G15KT 10SM FEW060 25/12 A3007 940 43 2400 360/10G15 RMK AO2
94908KDBQ DBQ20080630131010206/30/08 13:10:31  5-MIN KDBQ 301910Z 34010G15KT 10SM FEW060 26/12 A3006 950 41 2400 340/10G15 RMK AO2
94908KDBQ DBQ20080630131509606/30/08 13:15:31  5-MIN KDBQ 301915Z 34010KT 10SM FEW060 26/11 A3006 950 40 2400 340/10 RMK AO2
94908KDBQ DBQ20080630132009606/30/08 13:20:31  5-MIN KDBQ 301920Z 01009KT 10SM FEW060 26/11 A3006 950 40 2400 010/09 RMK AO2
94908KDBQ DBQ20080630132509606/30/08 13:25:31  5-MIN KDBQ 301925Z 35011KT 10SM FEW060 26/11 A3006 950 40 2400 350/11 RMK AO2
94908KDBQ DBQ20080630133009606/30/08 13:30:31  5-MIN KDBQ 301930Z 35011KT 10SM FEW060 26/11 A3006 950 40 2400 350/11 RMK AO2
94908KDBQ DBQ20080630133509606/30/08 13:35:31  5-MIN KDBQ 301935Z 35006KT 10SM FEW060 25/11 A3006 950 39 2400 350/06 RMK AO2
94908KDBQ DBQ20080630134010206/30/08 13:40:31  5-MIN KDBQ 301940Z 34010G15KT 10SM FEW060 26/11 A3006 950 40 2400 330/10G15 RMK AO2
94908KDBQ DBQ20080630134509906/30/08 13:45:31  5-MIN KDBQ 301945Z 32009G15KT 10SM CLR 26/11 A3006 950 38 2400 320/09G15 RMK AO2
94908KDBQ DBQ20080630135011606/30/08 13:50:31  5-MIN KDBQ 301950Z 32012G16KT 10SM CLR 26/09 A3006 950 35 2400 320/12G16 RMK AO2 SLP175 T02560094
94908KDBQ DBQ20080630135509306/30/08 13:55:31  5-MIN KDBQ 301955Z 32011KT 10SM CLR 26/10 A3006 950 37 2400 320/11 RMK AO2
94908KDBQ DBQ20080630140009906/30/08 14:00:31  5-MIN KDBQ 302000Z 34010G15KT 10SM CLR 26/10 A3006 950 37 2400 340/10G15 RMK AO2
94908KDBQ DBQ20080630140509306/30/08 14:05:31  5-MIN KDBQ 302005Z 34010KT 10SM CLR 26/10 A3006 950 37 2400 340/10 RMK AO2
94908KDBQ DBQ20080630141009306/30/08 14:10:31  5-MIN KDBQ 302010Z 35011KT 10SM CLR 26/11 A3006 950 38 2400 350/11 RMK AO2
94908KDBQ DBQ20080630141509306/30/08 14:15:31  5-MIN KDBQ 302015Z 36008KT 10SM CLR 26/11 A3006 950 40 2400 360/08 RMK AO2
94908KDBQ DBQ20080630142009306/30/08 14:20:31  5-MIN KDBQ 302020Z 33009KT 10SM CLR 26/12 A3006 950 40 2500 330/09 RMK AO2
94908KDBQ DBQ20080630142509306/30/08 14:25:31  5-MIN KDBQ 302025Z 32010KT 10SM CLR 26/11 A3006 950 38 2400 320/10 RMK AO2
94908KDBQ DBQ20080630143009306/30/08 14:30:31  5-MIN KDBQ 302030Z 32008KT 10SM CLR 26/11 A3006 950 38 2500 320/08 RMK AO2
94908KDBQ DBQ20080630143509306/30/08 14:35:31  5-MIN KDBQ 302035Z 31007KT 10SM CLR 26/11 A3006 950 38 2400 310/07 RMK AO2
94908KDBQ DBQ20080630144009306/30/08 14:40:31  5-MIN KDBQ 302040Z 30007KT 10SM CLR 26/11 A3006 950 40 2400 300/07 RMK AO2
94908KDBQ DBQ20080630144510906/30/08 14:45:31  5-MIN KDBQ 302045Z 34009KT 300V360 10SM CLR 26/11 A3006 950 40 2400 340/09 300V360 RMK AO2
94908KDBQ DBQ20080630145011606/30/08 14:50:31  5-MIN KDBQ 302050Z VRB06KT 10SM CLR 26/11 A3006 950 38 2500 VRB/06 RMK AO2 SLP176 T02610111 58002
94908KDBQ DBQ20080630145509306/30/08 14:55:31  5-MIN KDBQ 302055Z 34008KT 10SM CLR 26/11 A3006 950 40 2400 340/08 RMK AO2
94908KDBQ DBQ20080630150009306/30/08 15:00:31  5-MIN KDBQ 302100Z 36010KT 10SM CLR 26/11 A3006 950 40 2400 360/10 RMK AO2
94908KDBQ DBQ20080630150509306/30/08 15:05:31  5-MIN KDBQ 302105Z 34008KT 10SM CLR 26/11 A3006 950 40 2400 340/08 RMK AO2
94908KDBQ DBQ20080630151009306/30/08 15:10:31  5-MIN KDBQ 302110Z VRB06KT 10SM CLR 26/11 A3006 950 38 2400 VRB/06 RMK AO2
94908KDBQ DBQ20080630151509306/30/08 15:15:31  5-MIN KDBQ 302115Z 31004KT 10SM CLR 26/11 A3006 950 38 2500 310/04 RMK AO2
94908KDBQ DBQ20080630152009306/30/08 15:20:31  5-MIN KDBQ 302120Z 33005KT 10SM CLR 26/12 A3005 960 40 2500 330/05 RMK AO2
94908KDBQ DBQ20080630152509306/30/08 15:25:31  5-MIN KDBQ 302125Z 29006KT 10SM CLR 25/11 A3005 950 39 2400 280/06 RMK AO2
94908KDBQ DBQ20080630153009306/30/08 15:30:31  5-MIN KDBQ 302130Z 29006KT 10SM CLR 26/11 A3006 950 38 2400 290/06 RMK AO2
94908KDBQ DBQ20080630153509306/30/08 15:35:31  5-MIN KDBQ 302135Z 34005KT 10SM CLR 26/11 A3006 950 38 2400 340/05 RMK AO2
94908KDBQ DBQ20080630154009306/30/08 15:40:31  5-MIN KDBQ 302140Z 35005KT 10SM CLR 26/11 A3005 960 38 2400 350/05 RMK AO2
94908KDBQ DBQ20080630154509306/30/08 15:45:31  5-MIN KDBQ 302145Z 36007KT 10SM CLR 26/11 A3005 960 38 2500 360/07 RMK AO2
94908KDBQ DBQ20080630155011006/30/08 15:50:31  5-MIN KDBQ 302150Z 01008KT 10SM CLR 26/11 A3005 960 40 2400 010/08 RMK AO2 SLP173 T02560111
94908KDBQ DBQ20080630155509306/30/08 15:55:31  5-MIN KDBQ 302155Z VRB03KT 10SM CLR 26/11 A3005 960 38 2400 VRB/03 RMK AO2
94908KDBQ DBQ20080630160009306/30/08 16:00:31  5-MIN KDBQ 302200Z 31007KT 10SM CLR 26/10 A3005 960 37 2400 310/07 RMK AO2
94908KDBQ DBQ20080630160509306/30/08 16:05:31  5-MIN KDBQ 302205Z 29005KT 10SM CLR 26/09 A3005 960 34 2400 280/05 RMK AO2
94908KDBQ DBQ20080630161009306/30/08 16:10:31  5-MIN KDBQ 302210Z 33008KT 10SM CLR 26/10 A3005 960 37 2400 330/08 RMK AO2
94908KDBQ DBQ20080630161509906/30/08 16:15:31  5-MIN KDBQ 302215Z 34004G14KT 10SM CLR 26/11 A3005 960 38 2400 340/04G14 RMK AO2
94908KDBQ DBQ20080630162009306/30/08 16:20:31  5-MIN KDBQ 302220Z 33006KT 10SM CLR 26/10 A3005 960 37 2400 330/06 RMK AO2
94908KDBQ DBQ20080630162509306/30/08 16:25:31  5-MIN KDBQ 302225Z 33006KT 10SM CLR 26/10 A3005 960 37 2400 330/06 RMK AO2
94908KDBQ DBQ20080630163009306/30/08 16:30:31  5-MIN KDBQ 302230Z 33007KT 10SM CLR 26/09 A3004 960 35 2400 330/07 RMK AO2
94908KDBQ DBQ20080630163509306/30/08 16:35:31  5-MIN KDBQ 302235Z 33008KT 10SM CLR 26/10 A3004 970 37 2400 330/08 RMK AO2
94908KDBQ DBQ20080630164009306/30/08 16:40:31  5-MIN KDBQ 302240Z 35006KT 10SM CLR 26/10 A3004 970 37 2400 350/06 RMK AO2
94908KDBQ DBQ20080630164509306/30/08 16:45:31  5-MIN KDBQ 302245Z 33004KT 10SM CLR 26/09 A3004 970 35 2400 330/04 RMK AO2
94908KDBQ DBQ20080630165011006/30/08 16:50:31  5-MIN KDBQ 302250Z 35008KT 10SM CLR 26/09 A3004 970 35 2400 350/08 RMK AO2 SLP169 T02560094
94908KDBQ DBQ20080630165509306/30/08 16:55:31  5-MIN KDBQ 302255Z 34006KT 10SM CLR 26/09 A3004 970 35 2400 340/06 RMK AO2
94908KDBQ DBQ20080630170009306/30/08 17:00:31  5-MIN KDBQ 302300Z 35005KT 10SM CLR 26/09 A3004 970 34 2400 350/05 RMK AO2
94908KDBQ DBQ20080630170509306/30/08 17:05:31  5-MIN KDBQ 302305Z 33006KT 10SM CLR 26/09 A3004 970 34 2400 330/06 RMK AO2
94908KDBQ DBQ20080630171009306/30/08 17:10:31  5-MIN KDBQ 302310Z 35005KT 10SM CLR 25/09 A3004 970 37 2400 350/05 RMK AO2
94908KDBQ DBQ20080630171509306/30/08 17:15:31  5-MIN KDBQ 302315Z 34006KT 10SM CLR 26/09 A3004 970 35 2400 340/06 RMK AO2
94908KDBQ DBQ20080630172009306/30/08 17:20:31  5-MIN KDBQ 302320Z 35005KT 10SM CLR 26/09 A3004 970 35 2400 350/05 RMK AO2
94908KDBQ DBQ20080630172509306/30/08 17:25:31  5-MIN KDBQ 302325Z 34004KT 10SM CLR 25/09 A3004 970 35 2400 340/04 RMK AO2
94908KDBQ DBQ20080630173009306/30/08 17:30:31  5-MIN KDBQ 302330Z 32003KT 10SM CLR 25/09 A3004 970 35 2400 320/03 RMK AO2
94908KDBQ DBQ20080630173509306/30/08 17:35:31  5-MIN KDBQ 302335Z 36005KT 10SM CLR 26/10 A3004 970 37 2400 360/05 RMK AO2
94908KDBQ DBQ20080630174009306/30/08 17:40:31  5-MIN KDBQ 302340Z 36005KT 10SM CLR 25/09 A3004 970 37 2400 360/05 RMK AO2
94908KDBQ DBQ20080630174509306/30/08 17:45:31  5-MIN KDBQ 302345Z 01005KT 10SM CLR 25/10 A3004 970 38 2400 010/05 RMK AO2
94908KDBQ DBQ20080630175012806/30/08 17:50:31  5-MIN KDBQ 302350Z 35006KT 10SM CLR 25/10 A3004 970 38 2400 350/06 RMK AO2 SLP167 T02500100 10261 20250 56004
94908KDBQ DBQ20080630175509306/30/08 17:55:31  5-MIN KDBQ 302355Z 34005KT 10SM CLR 24/10 A3003 970 39 2300 340/05 RMK AO2
94908KDBQ DBQ20080630180009306/30/08 18:00:31  5-MIN KDBQ 010000Z 35004KT 10SM CLR 24/10 A3003 970 39 2300 350/04 RMK AO2
94908KDBQ DBQ20080630180509306/30/08 18:05:31  5-MIN KDBQ 010005Z 36004KT 10SM CLR 24/11 A3003 970 41 2300 360/04 RMK AO2
94908KDBQ DBQ20080630181009306/30/08 18:10:31  5-MIN KDBQ 010010Z 35004KT 10SM CLR 24/11 A3003 970 41 2300 350/04 RMK AO2
94908KDBQ DBQ20080630181509306/30/08 18:15:31  5-MIN KDBQ 010015Z 36006KT 10SM CLR 24/11 A3003 970 41 2300 360/06 RMK AO2
94908KDBQ DBQ20080630182009306/30/08 18:20:31  5-MIN KDBQ 010020Z 36004KT 10SM CLR 24/11 A3003 970 42 2300 360/04 RMK AO2
94908KDBQ DBQ20080630182509306/30/08 18:25:31  5-MIN KDBQ 010025Z 36004KT 10SM CLR 24/11 A3004 970 42 2300 350/04 RMK AO2
94908KDBQ DBQ20080630183009306/30/08 18:30:31  5-MIN KDBQ 010030Z 35003KT 10SM CLR 24/11 A3004 970 44 2300 350/03 RMK AO2
94908KDBQ DBQ20080630183509306/30/08 18:35:31  5-MIN KDBQ 010035Z 35004KT 10SM CLR 24/12 A3004 970 46 2300 350/04 RMK AO2
94908KDBQ DBQ20080630184009306/30/08 18:40:31  5-MIN KDBQ 010040Z 35004KT 10SM CLR 24/12 A3004 970 46 2300 350/04 RMK AO2
94908KDBQ DBQ20080630184509306/30/08 18:45:31  5-MIN KDBQ 010045Z 35004KT 10SM CLR 23/12 A3004 970 47 2200 350/04 RMK AO2
94908KDBQ DBQ20080630185011006/30/08 18:50:31  5-MIN KDBQ 010050Z 34004KT 10SM CLR 23/12 A3004 970 49 2100 340/04 RMK AO2 SLP166 T02280117
94908KDBQ DBQ20080630185509806/30/08 18:55:31  5-MIN KDBQ 010055Z AUTO 35005KT 10SM CLR 23/12 A3003 970 49 2100 340/05 RMK AO2
94908KDBQ DBQ20080630190009806/30/08 19:00:31  5-MIN KDBQ 010100Z AUTO 34004KT 10SM CLR 22/12 A3003 970 51 2100 340/04 RMK AO2
94908KDBQ DBQ20080630190509806/30/08 19:05:31  5-MIN KDBQ 010105Z AUTO 35003KT 10SM CLR 22/11 A3004 970 49 2100 350/03 RMK AO2
94908KDBQ DBQ20080630191009806/30/08 19:10:31  5-MIN KDBQ 010110Z AUTO 35003KT 10SM CLR 22/11 A3004 970 49 2100 350/03 RMK AO2
94908KDBQ DBQ20080630191509806/30/08 19:15:31  5-MIN KDBQ 010115Z AUTO 34003KT 10SM CLR 22/11 A3004 970 49 2100 340/03 RMK AO2
94908KDBQ DBQ20080630192009806/30/08 19:20:31  5-MIN KDBQ 010120Z AUTO 34003KT 10SM CLR 22/11 A3004 970 47 2100 340/03 RMK AO2
94908KDBQ DBQ20080630192509806/30/08 19:25:31  5-MIN KDBQ 010125Z AUTO 34003KT 10SM CLR 22/11 A3004 970 47 2100 340/03 RMK AO2
94908KDBQ DBQ20080630193009806/30/08 19:30:31  5-MIN KDBQ 010130Z AUTO 34003KT 10SM CLR 22/11 A3004 970 49 2000 340/03 RMK AO2
94908KDBQ DBQ20080630193509806/30/08 19:35:31  5-MIN KDBQ 010135Z AUTO 34003KT 10SM CLR 22/10 A3004 970 45 2100 340/03 RMK AO2
94908KDBQ DBQ20080630194009806/30/08 19:40:31  5-MIN KDBQ 010140Z AUTO 33003KT 10SM CLR 21/11 A3004 970 50 1900 330/03 RMK AO2
94908KDBQ DBQ20080630194509806/30/08 19:45:31  5-MIN KDBQ 010145Z AUTO 32003KT 10SM CLR 21/11 A3004 970 54 1900 320/03 RMK AO2
94908KDBQ DBQ20080630195011506/30/08 19:50:31  5-MIN KDBQ 010150Z AUTO 32003KT 10SM CLR 20/12 A3004 970 58 1800 320/03 RMK AO2 SLP166 T02000117
94908KDBQ DBQ20080630195509806/30/08 19:55:31  5-MIN KDBQ 010155Z AUTO 32003KT 10SM CLR 20/11 A3004 970 56 1800 320/03 RMK AO2
94908KDBQ DBQ20080630200009806/30/08 20:00:31  5-MIN KDBQ 010200Z AUTO 32003KT 10SM CLR 20/11 A3004 970 56 1800 320/03 RMK AO2
94908KDBQ DBQ20080630200509806/30/08 20:05:31  5-MIN KDBQ 010205Z AUTO 33003KT 10SM CLR 18/12 A3004 970 65 1600 330/03 RMK AO2
94908KDBQ DBQ20080630201009806/30/08 20:10:31  5-MIN KDBQ 010210Z AUTO 35003KT 10SM CLR 18/11 A3004 960 62 1600 340/03 RMK AO2
94908KDBQ DBQ20080630201509806/30/08 20:15:31  5-MIN KDBQ 010215Z AUTO 35004KT 10SM CLR 19/11 A3005 960 58 1700 350/04 RMK AO2
94908KDBQ DBQ20080630202009806/30/08 20:20:31  5-MIN KDBQ 010220Z AUTO 36004KT 10SM CLR 19/10 A3005 960 54 1700 360/04 RMK AO2
94908KDBQ DBQ20080630202509806/30/08 20:25:31  5-MIN KDBQ 010225Z AUTO 01003KT 10SM CLR 19/10 A3005 960 56 1700 010/03 RMK AO2
94908KDBQ DBQ20080630203009806/30/08 20:30:31  5-MIN KDBQ 010230Z AUTO 00000KT 10SM CLR 19/09 A3005 960 52 1700 000/00 RMK AO2
94908KDBQ DBQ20080630203509806/30/08 20:35:31  5-MIN KDBQ 010235Z AUTO 00000KT 10SM CLR 19/10 A3005 960 56 1700 000/00 RMK AO2
94908KDBQ DBQ20080630204009806/30/08 20:40:31  5-MIN KDBQ 010240Z AUTO 00000KT 10SM CLR 19/11 A3005 960 58 1700 000/00 RMK AO2
94908KDBQ DBQ20080630204509806/30/08 20:45:31  5-MIN KDBQ 010245Z AUTO 00000KT 10SM CLR 17/12 A3005 960 72 1400 000/00 RMK AO2
94908KDBQ DBQ20080630205012106/30/08 20:50:31  5-MIN KDBQ 010250Z AUTO 00000KT 10SM CLR 17/12 A3005 960 75 1400 000/00 RMK AO2 SLP173 T01670122 56008
94908KDBQ DBQ20080630205509806/30/08 20:55:31  5-MIN KDBQ 010255Z AUTO 00000KT 10SM CLR 17/12 A3005 960 72 1500 000/00 RMK AO2
94908KDBQ DBQ20080630210009806/30/08 21:00:31  5-MIN KDBQ 010300Z AUTO 00000KT 10SM CLR 17/12 A3005 960 72 1500 000/00 RMK AO2
94908KDBQ DBQ20080630210509806/30/08 21:05:31  5-MIN KDBQ 010305Z AUTO 00000KT 10SM CLR 17/12 A3005 950 75 1400 000/00 RMK AO2
94908KDBQ DBQ20080630211009806/30/08 21:10:31  5-MIN KDBQ 010310Z AUTO 00000KT 10SM CLR 16/12 A3005 950 77 1300 000/00 RMK AO2
94908KDBQ DBQ20080630211509806/30/08 21:15:31  5-MIN KDBQ 010315Z AUTO 00000KT 10SM CLR 16/12 A3006 950 77 1300 000/00 RMK AO2
94908KDBQ DBQ20080630212009806/30/08 21:20:31  5-MIN KDBQ 010320Z AUTO 00000KT 10SM CLR 16/12 A3006 950 77 1300 000/00 RMK AO2
94908KDBQ DBQ20080630212509806/30/08 21:25:31  5-MIN KDBQ 010325Z AUTO 00000KT 10SM CLR 16/12 A3006 950 77 1300 000/00 RMK AO2
94908KDBQ DBQ20080630213009806/30/08 21:30:31  5-MIN KDBQ 010330Z AUTO 00000KT 10SM CLR 15/12 A3005 950 83 1200 000/00 RMK AO2
94908KDBQ DBQ20080630213509806/30/08 21:35:31  5-MIN KDBQ 010335Z AUTO 00000KT 10SM CLR 16/12 A3006 950 75 1300 000/00 RMK AO2
94908KDBQ DBQ20080630214009806/30/08 21:40:31  5-MIN KDBQ 010340Z AUTO 00000KT 10SM CLR 16/12 A3005 950 77 1300 000/00 RMK AO2
94908KDBQ DBQ20080630214509806/30/08 21:45:31  5-MIN KDBQ 010345Z AUTO 00000KT 10SM CLR 16/12 A3006 950 80 1300 000/00 RMK AO2
94908KDBQ DBQ20080630215011506/30/08 21:50:31  5-MIN KDBQ 010350Z AUTO 00000KT 10SM CLR 16/12 A3005 960 77 1300 000/00 RMK AO2 SLP173 T01560117
94908KDBQ DBQ20080630215509806/30/08 21:55:31  5-MIN KDBQ 010355Z AUTO 00000KT 10SM CLR 16/12 A3005 950 77 1300 000/00 RMK AO2
94908KDBQ DBQ20080630220009806/30/08 22:00:31  5-MIN KDBQ 010400Z AUTO 00000KT 10SM CLR 16/12 A3005 960 77 1300 000/00 RMK AO2
94908KDBQ DBQ20080630220509806/30/08 22:05:31  5-MIN KDBQ 010405Z AUTO 00000KT 10SM CLR 16/11 A3005 960 74 1300 000/00 RMK AO2
94908KDBQ DBQ20080630221009806/30/08 22:10:31  5-MIN KDBQ 010410Z AUTO 00000KT 10SM CLR 15/12 A3005 960 80 1200 000/00 RMK AO2
94908KDBQ DBQ20080630221509806/30/08 22:15:31  5-MIN KDBQ 010415Z AUTO 00000KT 10SM CLR 14/12 A3005 960 83 1200 000/00 RMK AO2
94908KDBQ DBQ20080630222009806/30/08 22:20:31  5-MIN KDBQ 010420Z AUTO 00000KT 10SM CLR 14/11 A3005 960 83 1100 000/00 RMK AO2
94908KDBQ DBQ20080630222509806/30/08 22:25:31  5-MIN KDBQ 010425Z AUTO 00000KT 10SM CLR 14/11 A3005 960 80 1200 000/00 RMK AO2
94908KDBQ DBQ20080630223009806/30/08 22:30:31  5-MIN KDBQ 010430Z AUTO 00000KT 10SM CLR 14/12 A3005 960 83 1200 000/00 RMK AO2
94908KDBQ DBQ20080630223509806/30/08 22:35:31  5-MIN KDBQ 010435Z AUTO 00000KT 10SM CLR 14/12 A3005 960 83 1200 000/00 RMK AO2
94908KDBQ DBQ20080630224009806/30/08 22:40:31  5-MIN KDBQ 010440Z AUTO 00000KT 10SM CLR 14/12 A3005 960 83 1200 000/00 RMK AO2
94908KDBQ DBQ20080630224509806/30/08 22:45:31  5-MIN KDBQ 010445Z AUTO 00000KT 10SM CLR 15/12 A3005 960 80 1200 000/00 RMK AO2
94908KDBQ DBQ20080630225011506/30/08 22:50:31  5-MIN KDBQ 010450Z AUTO 00000KT 10SM CLR 14/12 A3005 960 83 1200 000/00 RMK AO2 SLP173 T01440117
94908KDBQ DBQ20080630225509806/30/08 22:55:31  5-MIN KDBQ 010455Z AUTO 00000KT 10SM CLR 14/12 A3005 960 86 1100 000/00 RMK AO2
94908KDBQ DBQ20080630230009806/30/08 23:00:31  5-MIN KDBQ 010500Z AUTO 00000KT 10SM CLR 14/11 A3005 960 83 1100 000/00 RMK AO2
94908KDBQ DBQ20080630230509806/30/08 23:05:31  5-MIN KDBQ 010505Z AUTO 00000KT 10SM CLR 14/11 A3005 960 83 1100 000/00 RMK AO2
94908KDBQ DBQ20080630231009806/30/08 23:10:31  5-MIN KDBQ 010510Z AUTO 00000KT 10SM CLR 14/11 A3005 960 80 1200 000/00 RMK AO2
94908KDBQ DBQ20080630231509806/30/08 23:15:31  5-MIN KDBQ 010515Z AUTO 00000KT 10SM CLR 14/11 A3005 960 80 1200 000/00 RMK AO2
94908KDBQ DBQ20080630232009806/30/08 23:20:31  5-MIN KDBQ 010520Z AUTO 00000KT 10SM CLR 14/11 A3005 960 83 1100 000/00 RMK AO2
94908KDBQ DBQ20080630232509806/30/08 23:25:31  5-MIN KDBQ 010525Z AUTO 00000KT 10SM CLR 14/11 A3005 960 80 1200 000/00 RMK AO2
94908KDBQ DBQ20080630233009806/30/08 23:30:31  5-MIN KDBQ 010530Z AUTO 00000KT 10SM CLR 14/11 A3005 960 83 1100 000/00 RMK AO2
94908KDBQ DBQ20080630233509806/30/08 23:35:31  5-MIN KDBQ 010535Z AUTO 00000KT 10SM CLR 13/11 A3005 960 86 1000 000/00 RMK AO2
94908KDBQ DBQ20080630234009806/30/08 23:40:31  5-MIN KDBQ 010540Z AUTO 00000KT 10SM CLR 13/11 A3005 960 86 1000 000/00 RMK AO2
94908KDBQ DBQ20080630234509806/30/08 23:45:31  5-MIN KDBQ 010545Z AUTO 00000KT 10SM CLR 13/11 A3005 960 86 1000 000/00 RMK AO2
94908KDBQ DBQ20080630235014306/30/08 23:50:31  5-MIN KDBQ 010550Z AUTO 00000KT 10SM CLR 13/11 A3005 960 86 1000 000/00 RMK AO2 SLP172 T01330111 10244 20133 402610122 53005
94908KDBQ DBQ20080630235509806/30/08 23:55:31  5-MIN KDBQ 010555Z AUTO 00000KT 10SM CLR 14/12 A3005 960 86 1100 000/00 RMK AO2
