94908KDBQ DBQ20060309132010303/09/06 13:20:31  5-MIN KDBQ 091920Z 01009KT 1 1/4SM BR OVC001 03/03 A2931 1640 100 700 010/09 RMK AO2
94908KDBQ DBQ20060309132510303/09/06 13:25:31  5-MIN KDBQ 091925Z 01008KT 1 1/4SM BR OVC001 03/03 A2932 1640 100 700 010/08 RMK AO2
94908KDBQ DBQ20060309133009903/09/06 13:30:31  5-MIN KDBQ 091930Z 36007KT 1SM BR OVC001 03/03 A2931 1650 100 700 360/07 RMK AO2
94908KDBQ DBQ20060309133509903/09/06 13:35:31  5-MIN KDBQ 091935Z 03008KT 1SM BR OVC001 03/03 A2931 1650 100 700 030/08 RMK AO2
94908KDBQ DBQ20060309134010303/09/06 13:40:31  5-MIN KDBQ 091940Z 01008KT 1 1/4SM BR OVC001 03/03 A2931 1650 100 700 010/08 RMK AO2
94908KDBQ DBQ20060309134510303/09/06 13:45:31  5-MIN KDBQ 091945Z 01006KT 1 1/4SM BR OVC001 03/03 A2930 1660 100 700 010/06 RMK AO2
94908KDBQ DBQ20060309135011603/09/06 13:50:31  5-MIN KDBQ 091950Z 01007KT 1SM BR OVC001 03/03 A2930 1650 100 700 010/07 RMK AO2 SLP930 T00330033
94908KDBQ DBQ20060309135511603/09/06 13:55:31  5-MIN KDBQ 091955Z 01008KT 1SM BR OVC001 03/03 A2930 1660 100 700 010/08 RMK AO2 SLP928 T00330033
94908KDBQ DBQ20060309140010303/09/06 14:00:31  5-MIN KDBQ 092000Z 02008KT 1 1/4SM BR OVC001 03/03 A2929 1660 100 700 020/08 RMK AO2
94908KDBQ DBQ20060309140510603/09/06 14:05:31  5-MIN KDBQ 092005Z 36008KT 1SM BR OVC001 04/04 A2928 1680 100 800 360/08 RMK AO2 PRESFR
94908KDBQ DBQ20060309141010103/09/06 14:10:31  5-MIN KDBQ 092010Z 01008KT 3/4SM BR OVC001 03/03 A2928 1680 100 700 010/08 RMK AO2
94908KDBQ DBQ20060309141510103/09/06 14:15:31  5-MIN KDBQ 092015Z 01009KT 3/4SM BR OVC001 03/03 A2928 1670 100 700 360/09 RMK AO2
94908KDBQ DBQ20060309142010103/09/06 14:20:31  5-MIN KDBQ 092020Z 02008KT 1/2SM FG OVC001 03/03 A2928 1680 100 700 020/08 RMK AO2
94908KDBQ DBQ20060309142510103/09/06 14:25:31  5-MIN KDBQ 092025Z 01010KT 1/2SM FG OVC001 03/03 A2927 1680 100 700 010/10 RMK AO2
94908KDBQ DBQ20060309143010103/09/06 14:30:31  5-MIN KDBQ 092030Z 01009KT 1/2SM FG OVC001 03/03 A2928 1670 100 700 010/09 RMK AO2
94908KDBQ DBQ20060309143510103/09/06 14:35:31  5-MIN KDBQ 092035Z 02010KT 1/2SM FG OVC001 03/03 A2928 1670 100 700 020/10 RMK AO2
94908KDBQ DBQ20060309144010103/09/06 14:40:31  5-MIN KDBQ 092040Z 02010KT 1/2SM FG OVC001 03/03 A2929 1670 100 700 010/10 RMK AO2
94908KDBQ DBQ20060309144510103/09/06 14:45:31  5-MIN KDBQ 092045Z 01008KT 3/4SM BR OVC001 03/03 A2928 1670 100 700 010/08 RMK AO2
94908KDBQ DBQ20060309145012403/09/06 14:50:31  5-MIN KDBQ 092050Z 02011KT 3/4SM BR OVC001 03/03 A2928 1670 100 700 020/11 RMK AO2 SLP923 T00330033 58004
94908KDBQ DBQ20060309145512403/09/06 14:55:31  5-MIN KDBQ 092055Z 02011KT 3/4SM BR OVC001 03/03 A2928 1680 100 700 020/11 RMK AO2 SLP921 T00330033 58019
94908KDBQ DBQ20060309150010903/09/06 15:00:31  5-MIN KDBQ 092100Z AUTO 01010KT 1SM BR OVC001 03/03 A2928 1670 100 700 010/10 RMK AO2 TSNO
94908KDBQ DBQ20060309150510903/09/06 15:05:31  5-MIN KDBQ 092105Z AUTO 01010KT 1SM BR OVC001 03/03 A2929 1670 100 700 010/10 RMK AO2 TSNO
94908KDBQ DBQ20060309151010903/09/06 15:10:31  5-MIN KDBQ 092110Z AUTO 01009KT 1SM BR OVC001 03/03 A2929 1670 100 700 010/09 RMK AO2 TSNO
94908KDBQ DBQ20060309151510903/09/06 15:15:31  5-MIN KDBQ 092115Z AUTO 01010KT 1SM BR OVC001 03/03 A2929 1670 100 700 010/10 RMK AO2 TSNO
94908KDBQ DBQ20060309152010803/09/06 15:20:31  5-MIN KDBQ 092120Z AUTO 02012KT 1SM BR OVC001 03/03 A2928 1680 96 700 020/12 RMK AO2 TSNO
94908KDBQ DBQ20060309152510003/09/06 15:25:31  5-MIN KDBQ 092125Z 02011KT 3/4SM BR OVC001 03/03 A2928 1680 96 700 010/11 RMK AO2
94908KDBQ DBQ20060309153010103/09/06 15:30:31  5-MIN KDBQ 092130Z 02010KT 3/4SM BR OVC001 03/03 A2928 1670 100 700 020/10 RMK AO2
94908KDBQ DBQ20060309153510003/09/06 15:35:31  5-MIN KDBQ 092135Z 01010KT 3/4SM BR OVC001 03/03 A2928 1670 96 700 010/10 RMK AO2
94908KDBQ DBQ20060309154010003/09/06 15:40:31  5-MIN KDBQ 092140Z 01009KT 3/4SM BR OVC001 03/03 A2928 1670 96 700 010/09 RMK AO2
94908KDBQ DBQ20060309154510003/09/06 15:45:31  5-MIN KDBQ 092145Z 01012KT 1/2SM FG OVC001 03/03 A2928 1670 96 700 010/12 RMK AO2
94908KDBQ DBQ20060309155011703/09/06 15:50:31  5-MIN KDBQ 092150Z 01011KT 1/2SM FG OVC001 03/03 A2928 1670 96 700 010/11 RMK AO2 SLP922 T00330028
94908KDBQ DBQ20060309155511703/09/06 15:55:31  5-MIN KDBQ 092155Z 02012KT 1/2SM FG OVC001 03/03 A2928 1670 96 700 020/12 RMK AO2 SLP923 T00330028
94908KDBQ DBQ20060309160010003/09/06 16:00:31  5-MIN KDBQ 092200Z 02013KT 1/2SM FG OVC001 03/03 A2928 1680 96 700 010/13 RMK AO2
94908KDBQ DBQ20060309160510003/09/06 16:05:31  5-MIN KDBQ 092205Z 02012KT 1/2SM FG OVC001 03/03 A2928 1670 96 700 020/12 RMK AO2
94908KDBQ DBQ20060309161010003/09/06 16:10:31  5-MIN KDBQ 092210Z 02013KT 1/2SM FG OVC001 03/03 A2928 1670 96 700 020/13 RMK AO2
94908KDBQ DBQ20060309161510003/09/06 16:15:31  5-MIN KDBQ 092215Z 02012KT 1/2SM FG OVC001 03/03 A2928 1670 96 700 010/12 RMK AO2
94908KDBQ DBQ20060309162010003/09/06 16:20:31  5-MIN KDBQ 092220Z 02014KT 1/2SM FG OVC001 03/03 A2928 1670 96 700 020/14 RMK AO2
94908KDBQ DBQ20060309162510003/09/06 16:25:31  5-MIN KDBQ 092225Z 02014KT 1/2SM FG OVC001 03/03 A2928 1680 96 700 020/14 RMK AO2
94908KDBQ DBQ20060309163010003/09/06 16:30:31  5-MIN KDBQ 092230Z 02012KT 3/4SM BR OVC001 03/03 A2928 1680 96 700 020/12 RMK AO2
94908KDBQ DBQ20060309163510003/09/06 16:35:31  5-MIN KDBQ 092235Z 02012KT 3/4SM BR OVC001 03/03 A2928 1680 96 700 020/12 RMK AO2
94908KDBQ DBQ20060309164010003/09/06 16:40:31  5-MIN KDBQ 092240Z 02013KT 3/4SM BR OVC001 03/03 A2928 1680 96 700 020/13 RMK AO2
94908KDBQ DBQ20060309164510003/09/06 16:45:31  5-MIN KDBQ 092245Z 02014KT 3/4SM BR OVC001 03/03 A2928 1680 96 700 020/14 RMK AO2
94908KDBQ DBQ20060309165011703/09/06 16:50:31  5-MIN KDBQ 092250Z 02013KT 1/2SM FG OVC001 03/03 A2928 1680 96 700 020/13 RMK AO2 SLP921 T00330028
94908KDBQ DBQ20060309165511703/09/06 16:55:31  5-MIN KDBQ 092255Z 02013KT 1/2SM FG OVC001 03/03 A2928 1680 96 700 020/13 RMK AO2 SLP922 T00330028
94908KDBQ DBQ20060309170010003/09/06 17:00:31  5-MIN KDBQ 092300Z 02013KT 1/2SM FG OVC001 03/03 A2928 1680 96 700 020/13 RMK AO2
94908KDBQ DBQ20060309170510003/09/06 17:05:31  5-MIN KDBQ 092305Z 02013KT 3/4SM BR OVC001 03/03 A2927 1680 96 700 020/13 RMK AO2
94908KDBQ DBQ20060309171010003/09/06 17:10:31  5-MIN KDBQ 092310Z 03012KT 3/4SM BR OVC001 03/03 A2927 1680 96 700 030/12 RMK AO2
94908KDBQ DBQ20060309171510003/09/06 17:15:31  5-MIN KDBQ 092315Z 03012KT 3/4SM BR OVC001 03/03 A2927 1680 96 700 030/12 RMK AO2
94908KDBQ DBQ20060309172010403/09/06 17:20:31  5-MIN KDBQ 092320Z 02014G18KT 1SM BR OVC001 03/03 A2927 1690 96 700 020/14G18 RMK AO2
94908KDBQ DBQ20060309172511403/09/06 17:25:31  5-MIN KDBQ 092325Z 02014KT 1 1/4SM BR OVC001 03/03 A2927 1680 96 700 020/14 RMK AO2 CIG 001V005
94908KDBQ DBQ20060309173011403/09/06 17:30:31  5-MIN KDBQ 092330Z 02013KT 1 3/4SM BR OVC001 04/03 A2927 1680 92 800 020/13 RMK AO2 CIG 001V005
94908KDBQ DBQ20060309173511003/09/06 17:35:31  5-MIN KDBQ 092335Z 02011KT 2SM BR OVC003 04/03 A2928 1680 92 800 020/11 RMK AO2 CIG 001V005
94908KDBQ DBQ20060309174011403/09/06 17:40:31  5-MIN KDBQ 092340Z 02011KT 2 1/2SM BR OVC005 04/03 A2928 1670 92 800 010/11 RMK AO2 CIG 001V008
94908KDBQ DBQ20060309174511403/09/06 17:45:31  5-MIN KDBQ 092345Z 02011KT 2 1/2SM BR OVC005 04/03 A2928 1670 92 800 020/11 RMK AO2 CIG 001V009
94908KDBQ DBQ20060309175011003/09/06 17:50:31  5-MIN KDBQ 092350Z 02014KT 3SM BR OVC005 04/03 A2928 1680 92 800 020/14 RMK AO2 CIG 002V009
94908KDBQ DBQ20060309175514503/09/06 17:55:31  5-MIN KDBQ 092355Z 01012KT 3SM BR OVC005 04/03 A2928 1680 92 800 010/12 RMK AO2 CIG 002V009 SLP922 T00390028 10039 20033 51000
94908KDBQ DBQ20060309180011003/09/06 18:00:31  5-MIN KDBQ 100000Z 02012KT 3SM BR OVC005 04/03 A2928 1670 92 800 020/12 RMK AO2 CIG 004V008
94908KDBQ DBQ20060309180509803/09/06 18:05:31  5-MIN KDBQ 100005Z 02013KT 3SM BR OVC005 04/03 A2928 1680 92 800 020/13 RMK AO2
94908KDBQ DBQ20060309181011203/09/06 18:10:31  5-MIN KDBQ 100010Z 03011KT 3SM BR BKN005 BKN010 OVC026 04/03 A2928 1670 92 800 030/11 RMK AO2
94908KDBQ DBQ20060309181511703/09/06 18:15:31  5-MIN KDBQ 100015Z 02013KT 4SM BR BKN007 OVC037 04/03 A2928 1680 92 800 020/13 RMK AO2 CIG 005V011
94908KDBQ DBQ20060309182011703/09/06 18:20:31  5-MIN KDBQ 100020Z 03012KT 4SM BR BKN007 OVC037 04/03 A2927 1680 92 800 030/12 RMK AO2 CIG 005V011
94908KDBQ DBQ20060309182512403/09/06 18:25:31  5-MIN KDBQ 100025Z 02012KT 5SM BR BKN007 BKN025 OVC035 04/03 A2928 1680 92 800 020/12 RMK AO2 CIG 005V011
94908KDBQ DBQ20060309183011203/09/06 18:30:31  5-MIN KDBQ 100030Z 03012KT 5SM BR SCT009 BKN025 OVC035 04/03 A2928 1680 92 800 020/12 RMK AO2
94908KDBQ DBQ20060309183510503/09/06 18:35:31  5-MIN KDBQ 100035Z 02012KT 5SM BR SCT009 OVC035 04/03 A2928 1670 92 800 020/12 RMK AO2
94908KDBQ DBQ20060309184010503/09/06 18:40:31  5-MIN KDBQ 100040Z 02012KT 5SM BR SCT009 OVC035 04/03 A2928 1670 92 800 020/12 RMK AO2
94908KDBQ DBQ20060309184510503/09/06 18:45:31  5-MIN KDBQ 100045Z 02012KT 5SM BR BKN009 OVC033 04/03 A2928 1670 92 800 020/12 RMK AO2
94908KDBQ DBQ20060309185012203/09/06 18:50:31  5-MIN KDBQ 100050Z 02012KT 5SM BR BKN009 BKN033 04/03 A2928 1680 92 800 020/12 RMK AO2 SLP921 T00390028
94908KDBQ DBQ20060309185512203/09/06 18:55:31  5-MIN KDBQ 100055Z 02012KT 5SM BR BKN009 BKN033 04/03 A2928 1680 92 800 020/12 RMK AO2 SLP922 T00390028
94908KDBQ DBQ20060309190010503/09/06 19:00:31  5-MIN KDBQ 100100Z 01013KT 5SM BR BKN009 BKN033 04/03 A2928 1670 92 800 010/13 RMK AO2
94908KDBQ DBQ20060309190510503/09/06 19:05:31  5-MIN KDBQ 100105Z 02012KT 5SM BR SCT009 BKN110 04/02 A2928 1670 89 800 020/12 RMK AO2
94908KDBQ DBQ20060309191010503/09/06 19:10:31  5-MIN KDBQ 100110Z 02013KT 5SM BR SCT009 BKN110 04/02 A2928 1680 89 800 020/13 RMK AO2
94908KDBQ DBQ20060309191510503/09/06 19:15:31  5-MIN KDBQ 100115Z 01013KT 5SM BR FEW009 SCT110 04/02 A2928 1670 89 800 010/13 RMK AO2
94908KDBQ DBQ20060309192010503/09/06 19:20:31  5-MIN KDBQ 100120Z 01013KT 5SM BR SCT009 SCT110 04/02 A2928 1670 89 800 010/13 RMK AO2
94908KDBQ DBQ20060309192510503/09/06 19:25:31  5-MIN KDBQ 100125Z 02012KT 5SM BR SCT009 BKN110 04/02 A2928 1670 89 800 020/12 RMK AO2
94908KDBQ DBQ20060309193010503/09/06 19:30:31  5-MIN KDBQ 100130Z 02012KT 5SM BR FEW009 BKN110 03/02 A2928 1680 92 700 020/12 RMK AO2
94908KDBQ DBQ20060309193510503/09/06 19:35:31  5-MIN KDBQ 100135Z 02012KT 5SM BR FEW009 BKN110 03/02 A2928 1670 92 700 010/12 RMK AO2
94908KDBQ DBQ20060309194010503/09/06 19:40:31  5-MIN KDBQ 100140Z 02011KT 5SM BR FEW009 SCT120 03/02 A2928 1670 92 700 020/11 RMK AO2
94908KDBQ DBQ20060309194510503/09/06 19:45:31  5-MIN KDBQ 100145Z 01011KT 5SM BR FEW009 SCT120 03/02 A2929 1670 92 700 010/11 RMK AO2
94908KDBQ DBQ20060309195012203/09/06 19:50:31  5-MIN KDBQ 100150Z 01011KT 5SM BR FEW009 BKN120 03/02 A2929 1670 92 700 010/11 RMK AO2 SLP925 T00330022
94908KDBQ DBQ20060309195512503/09/06 19:55:31  5-MIN KDBQ 100155Z AUTO 01009KT 5SM BR BKN120 03/02 A2930 1660 92 700 010/09 RMK AO2 SLP927 T00330022 TSNO
94908KDBQ DBQ20060309200010803/09/06 20:00:31  5-MIN KDBQ 100200Z AUTO 01010KT 4SM BR BKN120 03/02 A2930 1660 92 700 010/10 RMK AO2 TSNO
94908KDBQ DBQ20060309200510803/09/06 20:05:31  5-MIN KDBQ 100205Z AUTO 01009KT 4SM BR BKN120 03/02 A2930 1660 92 700 010/09 RMK AO2 TSNO
94908KDBQ DBQ20060309201011503/09/06 20:10:31  5-MIN KDBQ 100210Z AUTO 01008KT 4SM BR FEW010 BKN120 03/02 A2930 1650 96 600 010/08 RMK AO2 TSNO
94908KDBQ DBQ20060309201512203/09/06 20:15:31  5-MIN KDBQ 100215Z AUTO 01007KT 4SM BR FEW008 SCT013 OVC120 03/02 A2931 1650 92 700 010/07 RMK AO2 TSNO
94908KDBQ DBQ20060309202011503/09/06 20:20:31  5-MIN KDBQ 100220Z AUTO 01007KT 4SM BR SCT010 OVC110 03/02 A2931 1650 92 700 010/07 RMK AO2 TSNO
94908KDBQ DBQ20060309202511503/09/06 20:25:31  5-MIN KDBQ 100225Z AUTO 01008KT 4SM BR BKN010 OVC120 03/02 A2931 1650 92 700 010/08 RMK AO2 TSNO
94908KDBQ DBQ20060309203011503/09/06 20:30:31  5-MIN KDBQ 100230Z AUTO 01008KT 4SM BR BKN010 OVC110 03/02 A2931 1650 92 700 010/08 RMK AO2 TSNO
94908KDBQ DBQ20060309203512703/09/06 20:35:31  5-MIN KDBQ 100235Z AUTO 36008KT 4SM BR BKN008 OVC110 03/02 A2931 1650 92 700 360/08 RMK AO2 CIG 007V013 TSNO
94908KDBQ DBQ20060309204012003/09/06 20:40:31  5-MIN KDBQ 100240Z AUTO 36009KT 4SM BR OVC008 03/02 A2931 1650 92 700 360/09 RMK AO2 CIG 007V013 TSNO
94908KDBQ DBQ20060309204510803/09/06 20:45:31  5-MIN KDBQ 100245Z AUTO 01008KT 5SM BR OVC008 03/02 A2931 1650 92 700 360/08 RMK AO2 TSNO
94908KDBQ DBQ20060309205013103/09/06 20:50:31  5-MIN KDBQ 100250Z AUTO 01009KT 5SM BR OVC008 03/02 A2931 1640 92 700 360/09 RMK AO2 SLP933 T00330022 51000 TSNO
94908KDBQ DBQ20060309205513103/09/06 20:55:31  5-MIN KDBQ 100255Z AUTO 01009KT 5SM BR OVC008 03/02 A2932 1640 92 700 010/09 RMK AO2 SLP934 T00330022 53012 TSNO
94908KDBQ DBQ20060309210012003/09/06 21:00:31  5-MIN KDBQ 100300Z AUTO 36008KT 5SM BR OVC008 03/02 A2932 1640 92 700 360/08 RMK AO2 CIG 007V012 TSNO
94908KDBQ DBQ20060309210510803/09/06 21:05:31  5-MIN KDBQ 100305Z AUTO 36009KT 5SM BR OVC008 03/02 A2932 1640 92 700 360/09 RMK AO2 TSNO
94908KDBQ DBQ20060309211010803/09/06 21:10:31  5-MIN KDBQ 100310Z AUTO 36008KT 5SM BR OVC008 03/02 A2932 1640 92 700 360/08 RMK AO2 TSNO
94908KDBQ DBQ20060309211511503/09/06 21:15:31  5-MIN KDBQ 100315Z AUTO 36007KT 5SM BR BKN008 OVC012 03/02 A2933 1630 92 600 360/07 RMK AO2 TSNO
94908KDBQ DBQ20060309212012003/09/06 21:20:31  5-MIN KDBQ 100320Z AUTO 36007KT 5SM BR OVC010 03/02 A2933 1630 92 600 360/07 RMK AO2 CIG 008V013 TSNO
94908KDBQ DBQ20060309212511503/09/06 21:25:31  5-MIN KDBQ 100325Z AUTO 01006KT 5SM BR BKN010 OVC013 03/02 A2933 1630 92 600 010/06 RMK AO2 TSNO
94908KDBQ DBQ20060309213010803/09/06 21:30:31  5-MIN KDBQ 100330Z AUTO 01006KT 5SM BR OVC013 03/02 A2933 1630 92 600 010/06 RMK AO2 TSNO
94908KDBQ DBQ20060309213510803/09/06 21:35:31  5-MIN KDBQ 100335Z AUTO 01006KT 5SM BR OVC013 03/02 A2933 1630 92 600 010/06 RMK AO2 TSNO
94908KDBQ DBQ20060309214010803/09/06 21:40:31  5-MIN KDBQ 100340Z AUTO 01006KT 5SM BR OVC013 03/02 A2934 1620 92 600 360/06 RMK AO2 TSNO
94908KDBQ DBQ20060309214510803/09/06 21:45:31  5-MIN KDBQ 100345Z AUTO 01006KT 5SM BR OVC013 03/02 A2934 1620 92 600 010/06 RMK AO2 TSNO
94908KDBQ DBQ20060309215010803/09/06 21:50:31  5-MIN KDBQ 100350Z AUTO 01006KT 5SM BR OVC015 02/02 A2934 1620 96 500 010/06 RMK AO2 TSNO
94908KDBQ DBQ20060309215512503/09/06 21:55:31  5-MIN KDBQ 100355Z AUTO 01006KT 5SM BR OVC015 02/02 A2934 1620 96 500 010/06 RMK AO2 SLP943 T00220017 TSNO
94908KDBQ DBQ20060309220010803/09/06 22:00:31  5-MIN KDBQ 100400Z AUTO 01006KT 5SM BR OVC015 02/02 A2934 1620 96 500 010/06 RMK AO2 TSNO
94908KDBQ DBQ20060309220510803/09/06 22:05:31  5-MIN KDBQ 100405Z AUTO 01005KT 5SM BR OVC015 02/02 A2934 1620 96 500 010/05 RMK AO2 TSNO
94908KDBQ DBQ20060309221010803/09/06 22:10:31  5-MIN KDBQ 100410Z AUTO 01005KT 5SM BR OVC015 02/02 A2934 1620 96 500 010/05 RMK AO2 TSNO
94908KDBQ DBQ20060309221510803/09/06 22:15:31  5-MIN KDBQ 100415Z AUTO 36005KT 5SM BR OVC015 02/02 A2934 1620 96 500 360/05 RMK AO2 TSNO
94908KDBQ DBQ20060309222010803/09/06 22:20:31  5-MIN KDBQ 100420Z AUTO 36005KT 5SM BR OVC015 02/01 A2935 1610 92 500 360/05 RMK AO2 TSNO
94908KDBQ DBQ20060309222510803/09/06 22:25:31  5-MIN KDBQ 100425Z AUTO 35006KT 5SM BR OVC017 02/02 A2935 1610 96 500 350/06 RMK AO2 TSNO
94908KDBQ DBQ20060309223010803/09/06 22:30:31  5-MIN KDBQ 100430Z AUTO 34007KT 5SM BR OVC017 02/01 A2935 1610 92 500 340/07 RMK AO2 TSNO
94908KDBQ DBQ20060309223511503/09/06 22:35:31  5-MIN KDBQ 100435Z AUTO 34007KT 5SM BR BKN017 BKN024 02/01 A2936 1600 92 500 340/07 RMK AO2 TSNO
94908KDBQ DBQ20060309224011503/09/06 22:40:31  5-MIN KDBQ 100440Z AUTO 34006KT 5SM BR BKN017 BKN024 02/01 A2936 1600 92 400 340/06 RMK AO2 TSNO
94908KDBQ DBQ20060309224510803/09/06 22:45:31  5-MIN KDBQ 100445Z AUTO 34007KT 5SM BR SCT017 02/01 A2936 1600 92 400 330/07 RMK AO2 TSNO
94908KDBQ DBQ20060309225010803/09/06 22:50:31  5-MIN KDBQ 100450Z AUTO 34006KT 5SM BR SCT017 02/01 A2936 1600 92 400 340/06 RMK AO2 TSNO
94908KDBQ DBQ20060309225512503/09/06 22:55:31  5-MIN KDBQ 100455Z AUTO 33008KT 5SM BR FEW019 02/01 A2937 1590 92 400 330/08 RMK AO2 SLP953 T00170006 TSNO
94908KDBQ DBQ20060309230010503/09/06 23:00:31  5-MIN KDBQ 100500Z AUTO 33009KT 6SM BR CLR 02/01 A2937 1590 92 400 330/09 RMK AO2 TSNO
94908KDBQ DBQ20060309230510503/09/06 23:05:31  5-MIN KDBQ 100505Z AUTO 33009KT 6SM BR CLR 02/01 A2937 1590 92 400 330/09 RMK AO2 TSNO
94908KDBQ DBQ20060309231010503/09/06 23:10:31  5-MIN KDBQ 100510Z AUTO 33009KT 6SM BR CLR 02/01 A2937 1590 92 400 330/09 RMK AO2 TSNO
94908KDBQ DBQ20060309231510503/09/06 23:15:31  5-MIN KDBQ 100515Z AUTO 33010KT 6SM BR CLR 02/01 A2938 1590 92 400 330/10 RMK AO2 TSNO
94908KDBQ DBQ20060309232010503/09/06 23:20:31  5-MIN KDBQ 100520Z AUTO 33010KT 6SM BR CLR 02/01 A2938 1580 92 400 330/10 RMK AO2 TSNO
94908KDBQ DBQ20060309232510203/09/06 23:25:31  5-MIN KDBQ 100525Z AUTO 33010KT 7SM CLR 02/01 A2938 1580 92 400 330/10 RMK AO2 TSNO
94908KDBQ DBQ20060309233010203/09/06 23:30:31  5-MIN KDBQ 100530Z AUTO 33011KT 7SM CLR 02/01 A2939 1580 89 400 330/11 RMK AO2 TSNO
94908KDBQ DBQ20060309233510203/09/06 23:35:31  5-MIN KDBQ 100535Z AUTO 33011KT 7SM CLR 02/01 A2939 1570 89 400 330/11 RMK AO2 TSNO
94908KDBQ DBQ20060309234010203/09/06 23:40:31  5-MIN KDBQ 100540Z AUTO 34010KT 7SM CLR 02/01 A2939 1570 89 400 330/10 RMK AO2 TSNO
94908KDBQ DBQ20060309234510203/09/06 23:45:31  5-MIN KDBQ 100545Z AUTO 34011KT 7SM CLR 02/00 A2939 1570 85 400 340/11 RMK AO2 TSNO
94908KDBQ DBQ20060309235014703/09/06 23:50:31  5-MIN KDBQ 100550Z AUTO 34010KT 7SM CLR 02/00 A2939 1570 85 400 340/10 RMK AO2 SLP961 T00220000 10039 20017 400560017 53012 TSNO
94908KDBQ DBQ20060309235514703/09/06 23:55:31  5-MIN KDBQ 100555Z AUTO 34009KT 7SM CLR 02/00 A2939 1570 85 400 340/09 RMK AO2 SLP961 T00220000 10039 20017 400560017 53025 TSNO
94908KDBQ DBQ20060310000010203/10/06 00:00:38  5-MIN KDBQ 100600Z AUTO 34009KT 7SM CLR 02/00 A2940 1570 85 400 340/09 RMK AO2 TSNO
94908KDBQ DBQ20060310000510503/10/06 00:05:31  5-MIN KDBQ 100605Z AUTO 34009KT 6SM BR CLR 02/00 A2940 1560 85 400 340/09 RMK AO2 TSNO
94908KDBQ DBQ20060310001010503/10/06 00:10:31  5-MIN KDBQ 100610Z AUTO 35008KT 6SM BR CLR 02/00 A2940 1560 85 400 350/08 RMK AO2 TSNO
94908KDBQ DBQ20060310001510503/10/06 00:15:32  5-MIN KDBQ 100615Z AUTO 35009KT 6SM BR CLR 02/00 A2940 1560 89 400 350/09 RMK AO2 TSNO
94908KDBQ DBQ20060310002010503/10/06 00:20:31  5-MIN KDBQ 100620Z AUTO 35009KT 6SM BR CLR 02/00 A2940 1560 89 400 350/09 RMK AO2 TSNO
94908KDBQ DBQ20060310002510503/10/06 00:25:31  5-MIN KDBQ 100625Z AUTO 34011KT 6SM BR CLR 02/00 A2941 1560 89 400 340/11 RMK AO2 TSNO
94908KDBQ DBQ20060310003010503/10/06 00:30:31  5-MIN KDBQ 100630Z AUTO 34011KT 6SM BR CLR 02/00 A2941 1560 85 400 340/11 RMK AO2 TSNO
94908KDBQ DBQ20060310003510503/10/06 00:35:31  5-MIN KDBQ 100635Z AUTO 35010KT 5SM BR CLR 02/01 A2941 1550 89 400 350/10 RMK AO2 TSNO
94908KDBQ DBQ20060310004010503/10/06 00:40:31  5-MIN KDBQ 100640Z AUTO 34010KT 5SM BR CLR 02/00 A2941 1550 85 400 340/10 RMK AO2 TSNO
94908KDBQ DBQ20060310004510503/10/06 00:45:31  5-MIN KDBQ 100645Z AUTO 33011KT 5SM BR CLR 02/01 A2942 1540 89 400 330/11 RMK AO2 TSNO
94908KDBQ DBQ20060310005012203/10/06 00:50:31  5-MIN KDBQ 100650Z AUTO 33011KT 5SM BR CLR 02/01 A2942 1540 89 400 330/11 RMK AO2 SLP972 T00220006 TSNO
94908KDBQ DBQ20060310005512203/10/06 00:55:31  5-MIN KDBQ 100655Z AUTO 34012KT 5SM BR CLR 02/01 A2942 1540 89 400 340/12 RMK AO2 SLP972 T00220006 TSNO
94908KDBQ DBQ20060310010010503/10/06 01:00:31  5-MIN KDBQ 100700Z AUTO 34010KT 5SM BR CLR 02/01 A2942 1540 89 400 340/10 RMK AO2 TSNO
94908KDBQ DBQ20060310010510503/10/06 01:05:31  5-MIN KDBQ 100705Z AUTO 35009KT 5SM BR CLR 02/00 A2942 1540 89 300 350/09 RMK AO2 TSNO
94908KDBQ DBQ20060310011010503/10/06 01:10:31  5-MIN KDBQ 100710Z AUTO 36009KT 5SM BR CLR 02/00 A2942 1540 89 300 360/09 RMK AO2 TSNO
94908KDBQ DBQ20060310011510503/10/06 01:15:31  5-MIN KDBQ 100715Z AUTO 35007KT 5SM BR CLR 02/00 A2943 1540 89 300 350/07 RMK AO2 TSNO
94908KDBQ DBQ20060310012010503/10/06 01:20:31  5-MIN KDBQ 100720Z AUTO 35008KT 5SM BR CLR 02/00 A2944 1530 89 300 350/08 RMK AO2 TSNO
94908KDBQ DBQ20060310012510503/10/06 01:25:31  5-MIN KDBQ 100725Z AUTO 35007KT 5SM BR CLR 02/00 A2944 1530 89 300 350/07 RMK AO2 TSNO
94908KDBQ DBQ20060310013010503/10/06 01:30:31  5-MIN KDBQ 100730Z AUTO 36007KT 5SM BR CLR 02/00 A2944 1530 89 300 360/07 RMK AO2 TSNO
94908KDBQ DBQ20060310013510503/10/06 01:35:31  5-MIN KDBQ 100735Z AUTO 36007KT 5SM BR CLR 02/00 A2945 1520 89 300 360/07 RMK AO2 TSNO
94908KDBQ DBQ20060310014010503/10/06 01:40:31  5-MIN KDBQ 100740Z AUTO 36006KT 5SM BR CLR 02/00 A2945 1510 89 300 350/06 RMK AO2 TSNO
94908KDBQ DBQ20060310014510503/10/06 01:45:31  5-MIN KDBQ 100745Z AUTO 34005KT 5SM BR CLR 02/00 A2946 1510 89 300 340/05 RMK AO2 TSNO
94908KDBQ DBQ20060310015013003/10/06 01:50:31  5-MIN KDBQ 100750Z AUTO 33006KT 6SM BR CLR 02/M01 A2947 1500 85 300 330/06 RMK AO2 PRESRR SLP986 T00171006 TSNO
94908KDBQ DBQ20060310015512303/10/06 01:55:31  5-MIN KDBQ 100755Z AUTO 32006KT 6SM BR CLR 02/M01 A2947 1500 85 300 320/06 RMK AO2 SLP988 T00171006 TSNO
94908KDBQ DBQ20060310020010603/10/06 02:00:31  5-MIN KDBQ 100800Z AUTO 32007KT 6SM BR CLR 02/M01 A2947 1490 85 300 320/07 RMK AO2 TSNO
94908KDBQ DBQ20060310020510603/10/06 02:05:31  5-MIN KDBQ 100805Z AUTO 31006KT 6SM BR CLR 02/M01 A2948 1490 85 300 310/06 RMK AO2 TSNO
94908KDBQ DBQ20060310021010603/10/06 02:10:31  5-MIN KDBQ 100810Z AUTO 30004KT 6SM BR CLR 02/M01 A2948 1490 85 300 300/04 RMK AO2 TSNO
94908KDBQ DBQ20060310021510603/10/06 02:15:31  5-MIN KDBQ 100815Z AUTO 30004KT 6SM BR CLR 01/M01 A2948 1490 89 200 300/04 RMK AO2 TSNO
94908KDBQ DBQ20060310022010603/10/06 02:20:31  5-MIN KDBQ 100820Z AUTO 30005KT 6SM BR CLR 01/M01 A2948 1490 89 100 290/05 RMK AO2 TSNO
94908KDBQ DBQ20060310022510603/10/06 02:25:31  5-MIN KDBQ 100825Z AUTO 28004KT 5SM BR CLR 01/M01 A2948 1490 89 200 280/04 RMK AO2 TSNO
94908KDBQ DBQ20060310023010603/10/06 02:30:31  5-MIN KDBQ 100830Z AUTO 30003KT 5SM BR CLR 01/M01 A2948 1480 85 200 300/03 RMK AO2 TSNO
94908KDBQ DBQ20060310023510603/10/06 02:35:31  5-MIN KDBQ 100835Z AUTO 30003KT 5SM BR CLR 01/M01 A2949 1480 89 100 300/03 RMK AO2 TSNO
94908KDBQ DBQ20060310024010603/10/06 02:40:31  5-MIN KDBQ 100840Z AUTO 30005KT 5SM BR CLR 01/M01 A2949 1480 89 100 300/05 RMK AO2 TSNO
94908KDBQ DBQ20060310024510603/10/06 02:45:31  5-MIN KDBQ 100845Z AUTO 30005KT 6SM BR CLR 01/M01 A2949 1480 89 100 300/05 RMK AO2 TSNO
94908KDBQ DBQ20060310025012903/10/06 02:50:31  5-MIN KDBQ 100850Z AUTO VRB03KT 6SM BR CLR 01/M01 A2949 1480 89 100 VRB/03 RMK AO2 SLP995 T00061011 53025 TSNO
94908KDBQ DBQ20060310025512903/10/06 02:55:31  5-MIN KDBQ 100855Z AUTO VRB03KT 6SM BR CLR 01/M01 A2949 1480 89 100 VRB/03 RMK AO2 SLP995 T00061011 51032 TSNO
94908KDBQ DBQ20060310030010603/10/06 03:00:31  5-MIN KDBQ 100900Z AUTO 00000KT 6SM BR CLR 01/M01 A2949 1470 89 100 000/00 RMK AO2 TSNO
94908KDBQ DBQ20060310030510403/10/06 03:05:31  5-MIN KDBQ 100905Z AUTO 14004KT 5SM BR CLR 00/M01 A2950 1470 92 0 140/04 RMK AO2 TSNO
94908KDBQ DBQ20060310031010403/10/06 03:10:31  5-MIN KDBQ 100910Z AUTO 15003KT 5SM BR CLR 00/M01 A2950 1470 92 0 150/03 RMK AO2 TSNO
94908KDBQ DBQ20060310031510403/10/06 03:15:31  5-MIN KDBQ 100915Z AUTO 00000KT 5SM BR CLR 00/M02 A2950 1470 88 0 000/00 RMK AO2 TSNO
94908KDBQ DBQ20060310032010603/10/06 03:20:31  5-MIN KDBQ 100920Z AUTO 11003KT 5SM BR CLR 01/M01 A2949 1480 89 100 110/03 RMK AO2 TSNO
94908KDBQ DBQ20060310032510603/10/06 03:25:31  5-MIN KDBQ 100925Z AUTO 05004KT 6SM BR CLR 01/M01 A2949 1480 89 100 050/04 RMK AO2 TSNO
94908KDBQ DBQ20060310033010603/10/06 03:30:31  5-MIN KDBQ 100930Z AUTO 00000KT 6SM BR CLR 01/M01 A2950 1470 85 200 000/00 RMK AO2 TSNO
94908KDBQ DBQ20060310033510303/10/06 03:35:31  5-MIN KDBQ 100935Z AUTO 00000KT 7SM CLR 01/M01 A2950 1470 89 100 000/00 RMK AO2 TSNO
94908KDBQ DBQ20060310034010303/10/06 03:40:31  5-MIN KDBQ 100940Z AUTO 00000KT 7SM CLR 01/M02 A2950 1470 85 100 000/00 RMK AO2 TSNO
94908KDBQ DBQ20060310034510303/10/06 03:45:31  5-MIN KDBQ 100945Z AUTO 00000KT 7SM CLR 01/M02 A2951 1460 82 200 000/00 RMK AO2 TSNO
94908KDBQ DBQ20060310035012003/10/06 03:50:31  5-MIN KDBQ 100950Z AUTO 00000KT 7SM CLR 01/M02 A2951 1460 82 200 000/00 RMK AO2 SLP003 T00111017 TSNO
94908KDBQ DBQ20060310035512003/10/06 03:55:31  5-MIN KDBQ 100955Z AUTO 00000KT 7SM CLR 01/M02 A2952 1450 85 100 000/00 RMK AO2 SLP003 T00061017 TSNO
94908KDBQ DBQ20060310040010303/10/06 04:00:31  5-MIN KDBQ 101000Z AUTO 00000KT 7SM CLR 01/M02 A2952 1450 82 200 000/00 RMK AO2 TSNO
94908KDBQ DBQ20060310040510303/10/06 04:05:31  5-MIN KDBQ 101005Z AUTO 00000KT 7SM CLR 01/M02 A2952 1450 82 100 000/00 RMK AO2 TSNO
94908KDBQ DBQ20060310041010303/10/06 04:10:31  5-MIN KDBQ 101010Z AUTO 00000KT 7SM CLR 01/M02 A2953 1450 82 100 000/00 RMK AO2 TSNO
94908KDBQ DBQ20060310041510303/10/06 04:15:31  5-MIN KDBQ 101015Z AUTO 35003KT 7SM CLR 01/M02 A2952 1450 82 200 350/03 RMK AO2 TSNO
94908KDBQ DBQ20060310042010303/10/06 04:20:31  5-MIN KDBQ 101020Z AUTO 33004KT 7SM CLR 01/M02 A2953 1440 82 100 330/04 RMK AO2 TSNO
94908KDBQ DBQ20060310042510303/10/06 04:25:31  5-MIN KDBQ 101025Z AUTO 00000KT 8SM CLR 01/M02 A2954 1430 82 100 000/00 RMK AO2 TSNO
94908KDBQ DBQ20060310043010903/10/06 04:30:31  5-MIN KDBQ 101030Z AUTO 24005KT 7SM CLR M01/M02 A2955 1420 88 0 240/05 RMK AO2 PRESRR TSNO
94908KDBQ DBQ20060310043510803/10/06 04:35:31  5-MIN KDBQ 101035Z AUTO 23006KT 6SM BR CLR M01/M03 A2955 1420 88 -100 230/06 RMK AO2 TSNO
94908KDBQ DBQ20060310044010803/10/06 04:40:31  5-MIN KDBQ 101040Z AUTO 25004KT 6SM BR CLR M01/M03 A2955 1420 88 -100 250/04 RMK AO2 TSNO
94908KDBQ DBQ20060310044510803/10/06 04:45:31  5-MIN KDBQ 101045Z AUTO 25004KT 6SM BR CLR M01/M03 A2956 1420 88 -100 250/04 RMK AO2 TSNO
94908KDBQ DBQ20060310045012503/10/06 04:50:31  5-MIN KDBQ 101050Z AUTO 25003KT 6SM BR CLR M01/M02 A2956 1410 92 -100 250/03 RMK AO2 SLP019 T10111022 TSNO
94908KDBQ DBQ20060310045512503/10/06 04:55:31  5-MIN KDBQ 101055Z AUTO 22003KT 5SM BR CLR M02/M03 A2956 1410 92 -200 220/03 RMK AO2 SLP020 T10171028 TSNO
94908KDBQ DBQ20060310050010803/10/06 05:00:31  5-MIN KDBQ 101100Z AUTO 00000KT 5SM BR CLR M01/M02 A2956 1410 92 -100 000/00 RMK AO2 TSNO
94908KDBQ DBQ20060310050510803/10/06 05:05:31  5-MIN KDBQ 101105Z AUTO 00000KT 5SM BR CLR M01/M02 A2956 1410 88 -100 000/00 RMK AO2 TSNO
94908KDBQ DBQ20060310051010803/10/06 05:10:31  5-MIN KDBQ 101110Z AUTO 00000KT 6SM BR CLR M01/M02 A2957 1410 88 -100 000/00 RMK AO2 TSNO
94908KDBQ DBQ20060310051510803/10/06 05:15:31  5-MIN KDBQ 101115Z AUTO 23003KT 6SM BR CLR M01/M02 A2957 1400 92 -100 230/03 RMK AO2 TSNO
94908KDBQ DBQ20060310052010803/10/06 05:20:31  5-MIN KDBQ 101120Z AUTO 24004KT 6SM BR CLR M02/M03 A2958 1390 96 -300 240/04 RMK AO2 TSNO
94908KDBQ DBQ20060310052510803/10/06 05:25:31  5-MIN KDBQ 101125Z AUTO 22003KT 5SM BR CLR M02/M03 A2958 1400 92 -200 220/03 RMK AO2 TSNO
94908KDBQ DBQ20060310053010803/10/06 05:30:31  5-MIN KDBQ 101130Z AUTO 21004KT 5SM BR CLR M01/M03 A2958 1390 88 -100 210/04 RMK AO2 TSNO
94908KDBQ DBQ20060310053510803/10/06 05:35:31  5-MIN KDBQ 101135Z AUTO 24004KT 5SM BR CLR M02/M03 A2959 1380 92 -200 240/04 RMK AO2 TSNO
94908KDBQ DBQ20060310054010803/10/06 05:40:31  5-MIN KDBQ 101140Z AUTO 24006KT 4SM BR CLR M03/M03 A2960 1370 96 -400 240/06 RMK AO2 TSNO
94908KDBQ DBQ20060310054509803/10/06 05:45:31  5-MIN KDBQ 101145Z 23006KT 4SM BR CLR M03/M03 A2960 1370 96 -400 230/06 RMK AO2
94908KDBQ DBQ20060310055013303/10/06 05:50:31  5-MIN KDBQ 101150Z 23004KT 4SM BR CLR M02/M03 A2961 1370 92 -300 230/04 RMK AO2 SLP036 T10221033 10022 21028 51032
94908KDBQ DBQ20060310055513303/10/06 05:55:31  5-MIN KDBQ 101155Z 23005KT 4SM BR CLR M02/M03 A2962 1360 92 -300 230/05 RMK AO2 SLP038 T10171028 10022 21028 53041
94908KDBQ DBQ20060310060009803/10/06 06:00:31  5-MIN KDBQ 101200Z 22004KT 4SM BR CLR M02/M03 A2962 1360 96 -300 220/04 RMK AO2
94908KDBQ DBQ20060310060509803/10/06 06:05:31  5-MIN KDBQ 101205Z 22004KT 4SM BR CLR M02/M03 A2963 1350 96 -300 220/04 RMK AO2
94908KDBQ DBQ20060310061010503/10/06 06:10:31  5-MIN KDBQ 101210Z 23005KT 4SM BR CLR M02/M03 A2963 1350 96 -300 220/05 RMK AO2 PRESRR
94908KDBQ DBQ20060310061510503/10/06 06:15:31  5-MIN KDBQ 101215Z 23007KT 4SM BR CLR M03/M04 A2964 1340 92 -400 230/07 RMK AO2 PRESRR
94908KDBQ DBQ20060310062010503/10/06 06:20:31  5-MIN KDBQ 101220Z 23008KT 4SM BR CLR M02/M03 A2965 1330 92 -400 230/08 RMK AO2 PRESRR
94908KDBQ DBQ20060310062509803/10/06 06:25:31  5-MIN KDBQ 101225Z 23005KT 4SM BR CLR M02/M03 A2966 1320 88 -300 230/05 RMK AO2
94908KDBQ DBQ20060310063009803/10/06 06:30:31  5-MIN KDBQ 101230Z 23004KT 3SM BR CLR M02/M03 A2966 1320 92 -300 230/04 RMK AO2
94908KDBQ DBQ20060310063509803/10/06 06:35:31  5-MIN KDBQ 101235Z 22004KT 3SM BR CLR M02/M03 A2966 1320 92 -300 220/04 RMK AO2
94908KDBQ DBQ20060310064009803/10/06 06:40:31  5-MIN KDBQ 101240Z 19003KT 3SM BR CLR M02/M03 A2966 1320 92 -400 190/03 RMK AO2
94908KDBQ DBQ20060310064509803/10/06 06:45:31  5-MIN KDBQ 101245Z 00000KT 3SM BR CLR M02/M03 A2966 1320 92 -300 000/00 RMK AO2
94908KDBQ DBQ20060310065011503/10/06 06:50:31  5-MIN KDBQ 101250Z 00000KT 3SM BR CLR M01/M03 A2966 1320 88 -200 000/00 RMK AO2 SLP055 T10111028
94908KDBQ DBQ20060310065511503/10/06 06:55:31  5-MIN KDBQ 101255Z 20004KT 3SM BR CLR M02/M03 A2967 1310 92 -300 200/04 RMK AO2 SLP057 T10171028
94908KDBQ DBQ20060310070009803/10/06 07:00:31  5-MIN KDBQ 101300Z 20005KT 3SM BR CLR M02/M03 A2968 1300 92 -300 200/05 RMK AO2
94908KDBQ DBQ20060310070510503/10/06 07:05:31  5-MIN KDBQ 101305Z 19005KT 3SM BR CLR M02/M03 A2968 1300 92 -300 190/05 RMK AO2 PRESRR
94908KDBQ DBQ20060310071009803/10/06 07:10:31  5-MIN KDBQ 101310Z 21003KT 3SM BR CLR M01/M03 A2969 1300 88 -300 210/03 RMK AO2
94908KDBQ DBQ20060310071509803/10/06 07:15:31  5-MIN KDBQ 101315Z 20003KT 3SM BR CLR M01/M03 A2969 1290 88 -300 200/03 RMK AO2
94908KDBQ DBQ20060310072009803/10/06 07:20:31  5-MIN KDBQ 101320Z 00000KT 3SM BR CLR M01/M02 A2969 1290 92 -300 000/00 RMK AO2
94908KDBQ DBQ20060310072509803/10/06 07:25:31  5-MIN KDBQ 101325Z 00000KT 3SM BR CLR M01/M02 A2969 1290 92 -300 000/00 RMK AO2
94908KDBQ DBQ20060310073009803/10/06 07:30:31  5-MIN KDBQ 101330Z 00000KT 3SM BR CLR M01/M02 A2969 1290 92 -300 000/00 RMK AO2
94908KDBQ DBQ20060310073509803/10/06 07:35:31  5-MIN KDBQ 101335Z 00000KT 4SM BR CLR M01/M02 A2970 1290 88 -200 000/00 RMK AO2
94908KDBQ DBQ20060310074009803/10/06 07:40:31  5-MIN KDBQ 101340Z 00000KT 4SM BR CLR M01/M02 A2970 1290 92 -200 000/00 RMK AO2
94908KDBQ DBQ20060310074509803/10/06 07:45:31  5-MIN KDBQ 101345Z 00000KT 4SM BR CLR M01/M02 A2970 1280 92 -200 000/00 RMK AO2
94908KDBQ DBQ20060310075011403/10/06 07:50:31  5-MIN KDBQ 101350Z 00000KT 4SM BR CLR 00/M02 A2970 1280 88 -100 000/00 RMK AO2 SLP066 T00001017
94908KDBQ DBQ20060310075511403/10/06 07:55:31  5-MIN KDBQ 101355Z 00000KT 4SM BR CLR 00/M02 A2970 1290 88 -100 000/00 RMK AO2 SLP066 T00001017
94908KDBQ DBQ20060310080009703/10/06 08:00:31  5-MIN KDBQ 101400Z 00000KT 4SM BR CLR 01/M02 A2970 1280 85 -100 000/00 RMK AO2
94908KDBQ DBQ20060310080509703/10/06 08:05:31  5-MIN KDBQ 101405Z 00000KT 5SM BR CLR 01/M01 A2971 1280 89 -100 000/00 RMK AO2
94908KDBQ DBQ20060310081009703/10/06 08:10:31  5-MIN KDBQ 101410Z 00000KT 5SM BR CLR 01/M01 A2971 1270 89 -100 000/00 RMK AO2
94908KDBQ DBQ20060310081509403/10/06 08:15:31  5-MIN KDBQ 101415Z 00000KT 5SM BR CLR 01/M01 A2971 1270 85 0 000/00 RMK AO2
94908KDBQ DBQ20060310082009403/10/06 08:20:31  5-MIN KDBQ 101420Z 00000KT 5SM BR CLR 01/M01 A2971 1270 85 0 000/00 RMK AO2
94908KDBQ DBQ20060310082509403/10/06 08:25:31  5-MIN KDBQ 101425Z 00000KT 5SM BR CLR 02/M01 A2972 1270 85 0 000/00 RMK AO2
94908KDBQ DBQ20060310083009403/10/06 08:30:31  5-MIN KDBQ 101430Z 22004KT 5SM BR CLR 02/M01 A2972 1260 85 0 220/04 RMK AO2
94908KDBQ DBQ20060310083509403/10/06 08:35:31  5-MIN KDBQ 101435Z 23004KT 5SM BR CLR 02/M01 A2973 1260 85 0 230/04 RMK AO2
94908KDBQ DBQ20060310084009303/10/06 08:40:31  5-MIN KDBQ 101440Z 22004KT 5SM BR CLR 02/00 A2973 1260 89 0 220/04 RMK AO2
94908KDBQ DBQ20060310084509303/10/06 08:45:31  5-MIN KDBQ 101445Z 20003KT 5SM BR CLR 02/00 A2973 1260 89 0 200/03 RMK AO2
94908KDBQ DBQ20060310085011603/10/06 08:50:31  5-MIN KDBQ 101450Z 00000KT 5SM BR CLR 02/00 A2973 1260 85 0 000/00 RMK AO2 SLP076 T00220000 53041
94908KDBQ DBQ20060310085511603/10/06 08:55:31  5-MIN KDBQ 101455Z 20003KT 5SM BR CLR 02/01 A2973 1250 89 0 200/03 RMK AO2 SLP077 T00220006 51038
94908KDBQ DBQ20060310090009503/10/06 09:00:31  5-MIN KDBQ 101500Z 00000KT 6SM HZ CLR 03/00 A2973 1250 82 100 000/00 RMK AO2
94908KDBQ DBQ20060310090509503/10/06 09:05:31  5-MIN KDBQ 101505Z 00000KT 6SM HZ CLR 03/00 A2973 1250 82 100 000/00 RMK AO2
94908KDBQ DBQ20060310091009203/10/06 09:10:31  5-MIN KDBQ 101510Z 19003KT 7SM CLR 03/00 A2974 1250 82 100 180/03 RMK AO2
94908KDBQ DBQ20060310091509203/10/06 09:15:31  5-MIN KDBQ 101515Z 18004KT 7SM CLR 03/01 A2974 1240 82 200 180/04 RMK AO2
94908KDBQ DBQ20060310092009203/10/06 09:20:31  5-MIN KDBQ 101520Z 16003KT 7SM CLR 03/01 A2974 1240 82 200 160/03 RMK AO2
94908KDBQ DBQ20060310092509203/10/06 09:25:31  5-MIN KDBQ 101525Z VRB03KT 7SM CLR 04/01 A2974 1240 82 200 VRB/03 RMK AO2
94908KDBQ DBQ20060310093009203/10/06 09:30:31  5-MIN KDBQ 101530Z 18004KT 7SM CLR 04/01 A2974 1240 82 200 180/04 RMK AO2
94908KDBQ DBQ20060310093509203/10/06 09:35:31  5-MIN KDBQ 101535Z 16004KT 7SM CLR 04/02 A2975 1240 82 300 160/04 RMK AO2
94908KDBQ DBQ20060310094009203/10/06 09:40:31  5-MIN KDBQ 101540Z 20005KT 7SM CLR 04/02 A2975 1240 82 300 200/05 RMK AO2
94908KDBQ DBQ20060310094509203/10/06 09:45:31  5-MIN KDBQ 101545Z VRB03KT 7SM CLR 04/02 A2975 1240 82 300 VRB/03 RMK AO2
94908KDBQ DBQ20060310095010903/10/06 09:50:31  5-MIN KDBQ 101550Z 20004KT 8SM CLR 05/02 A2975 1230 79 400 190/04 RMK AO2 SLP083 T00500017
94908KDBQ DBQ20060310095510903/10/06 09:55:31  5-MIN KDBQ 101555Z 21005KT 8SM CLR 05/02 A2976 1230 79 400 210/05 RMK AO2 SLP084 T00500017
94908KDBQ DBQ20060310100009203/10/06 10:00:31  5-MIN KDBQ 101600Z 19004KT 9SM CLR 06/02 A2976 1230 76 400 190/04 RMK AO2
94908KDBQ DBQ20060310100509203/10/06 10:05:31  5-MIN KDBQ 101605Z VRB04KT 9SM CLR 06/01 A2976 1230 73 400 VRB/04 RMK AO2
94908KDBQ DBQ20060310101009303/10/06 10:10:31  5-MIN KDBQ 101610Z 19005KT 10SM CLR 06/01 A2976 1230 70 400 190/05 RMK AO2
94908KDBQ DBQ20060310101509303/10/06 10:15:31  5-MIN KDBQ 101615Z 18005KT 10SM CLR 06/01 A2976 1230 67 500 180/05 RMK AO2
94908KDBQ DBQ20060310102009303/10/06 10:20:31  5-MIN KDBQ 101620Z VRB05KT 10SM CLR 06/01 A2976 1230 67 500 VRB/05 RMK AO2
94908KDBQ DBQ20060310102509303/10/06 10:25:31  5-MIN KDBQ 101625Z 20005KT 10SM CLR 06/01 A2976 1220 70 500 190/05 RMK AO2
94908KDBQ DBQ20060310103009303/10/06 10:30:31  5-MIN KDBQ 101630Z 19005KT 10SM CLR 07/02 A2977 1220 70 500 190/05 RMK AO2
94908KDBQ DBQ20060310103509303/10/06 10:35:31  5-MIN KDBQ 101635Z 19006KT 10SM CLR 07/01 A2977 1220 67 500 190/06 RMK AO2
94908KDBQ DBQ20060310104009303/10/06 10:40:31  5-MIN KDBQ 101640Z 19006KT 10SM CLR 07/01 A2977 1220 67 500 190/06 RMK AO2
94908KDBQ DBQ20060310104509303/10/06 10:45:31  5-MIN KDBQ 101645Z 21006KT 10SM CLR 07/01 A2977 1210 67 500 210/06 RMK AO2
94908KDBQ DBQ20060310105011003/10/06 10:50:31  5-MIN KDBQ 101650Z 22007KT 10SM CLR 07/01 A2978 1210 65 600 220/07 RMK AO2 SLP091 T00720011
94908KDBQ DBQ20060310105511003/10/06 10:55:31  5-MIN KDBQ 101655Z 20005KT 10SM CLR 07/01 A2978 1210 65 600 200/05 RMK AO2 SLP091 T00720011
94908KDBQ DBQ20060310110010903/10/06 11:00:31  5-MIN KDBQ 101700Z 20007KT 170V250 10SM CLR 08/01 A2977 1210 62 700 200/07 170V250 RMK AO2
94908KDBQ DBQ20060310110509303/10/06 11:05:31  5-MIN KDBQ 101705Z VRB04KT 10SM CLR 07/01 A2977 1210 65 600 VRB/04 RMK AO2
94908KDBQ DBQ20060310111009303/10/06 11:10:31  5-MIN KDBQ 101710Z 21006KT 10SM CLR 08/01 A2978 1210 62 700 210/06 RMK AO2
94908KDBQ DBQ20060310111509303/10/06 11:15:31  5-MIN KDBQ 101715Z 24006KT 10SM CLR 08/01 A2978 1210 62 700 230/06 RMK AO2
94908KDBQ DBQ20060310112009303/10/06 11:20:31  5-MIN KDBQ 101720Z 22008KT 10SM CLR 08/01 A2979 1200 62 700 220/08 RMK AO2
94908KDBQ DBQ20060310112509303/10/06 11:25:31  5-MIN KDBQ 101725Z 22006KT 10SM CLR 08/01 A2979 1200 62 700 220/06 RMK AO2
94908KDBQ DBQ20060310113009303/10/06 11:30:31  5-MIN KDBQ 101730Z 23008KT 10SM CLR 08/02 A2979 1200 63 700 230/08 RMK AO2
94908KDBQ DBQ20060310113509303/10/06 11:35:31  5-MIN KDBQ 101735Z 22006KT 10SM CLR 08/01 A2979 1200 60 700 220/06 RMK AO2
94908KDBQ DBQ20060310114009303/10/06 11:40:31  5-MIN KDBQ 101740Z 22007KT 10SM CLR 08/01 A2979 1200 60 700 220/07 RMK AO2
94908KDBQ DBQ20060310114509303/10/06 11:45:31  5-MIN KDBQ 101745Z 22005KT 10SM CLR 08/02 A2978 1200 63 700 220/05 RMK AO2
94908KDBQ DBQ20060310115012803/10/06 11:50:31  5-MIN KDBQ 101750Z 20005KT 10SM CLR 09/02 A2979 1200 60 800 200/05 RMK AO2 SLP092 T00890017 10089 21028 51038
94908KDBQ DBQ20060310115512803/10/06 11:55:31  5-MIN KDBQ 101755Z 22006KT 10SM CLR 09/02 A2979 1200 60 800 220/06 RMK AO2 SLP093 T00890017 10089 21028 51019
94908KDBQ DBQ20060310120009303/10/06 12:00:31  5-MIN KDBQ 101800Z 21005KT 10SM CLR 09/01 A2979 1200 56 800 210/05 RMK AO2
94908KDBQ DBQ20060310120510903/10/06 12:05:31  5-MIN KDBQ 101805Z 19007KT 170V230 10SM CLR 09/01 A2979 1200 56 900 190/07 170V230 RMK AO2
94908KDBQ DBQ20060310121009303/10/06 12:10:31  5-MIN KDBQ 101810Z 18007KT 10SM CLR 09/01 A2979 1200 56 900 180/07 RMK AO2
94908KDBQ DBQ20060310121509303/10/06 12:15:31  5-MIN KDBQ 101815Z 20008KT 10SM CLR 09/01 A2978 1200 56 900 200/08 RMK AO2
94908KDBQ DBQ20060310122009303/10/06 12:20:31  5-MIN KDBQ 101820Z 19008KT 10SM CLR 10/01 A2978 1200 52 900 190/08 RMK AO2
94908KDBQ DBQ20060310122509303/10/06 12:25:31  5-MIN KDBQ 101825Z 20009KT 10SM CLR 10/01 A2978 1200 52 900 200/09 RMK AO2
94908KDBQ DBQ20060310123009303/10/06 12:30:31  5-MIN KDBQ 101830Z 17011KT 10SM CLR 10/02 A2978 1210 56 900 170/11 RMK AO2
94908KDBQ DBQ20060310123509403/10/06 12:35:31  5-MIN KDBQ 101835Z 18009KT 10SM CLR 11/02 A2978 1210 54 1000 180/09 RMK AO2
94908KDBQ DBQ20060310124009303/10/06 12:40:31  5-MIN KDBQ 101840Z 20008KT 10SM CLR 10/01 A2978 1210 54 900 200/08 RMK AO2
94908KDBQ DBQ20060310124509403/10/06 12:45:31  5-MIN KDBQ 101845Z 19009KT 10SM CLR 11/01 A2978 1210 50 1000 190/09 RMK AO2
94908KDBQ DBQ20060310125011103/10/06 12:50:31  5-MIN KDBQ 101850Z 17008KT 10SM CLR 11/02 A2978 1210 54 1000 170/08 RMK AO2 SLP089 T01060017
94908KDBQ DBQ20060310125511103/10/06 12:55:31  5-MIN KDBQ 101855Z 18009KT 10SM CLR 11/01 A2977 1220 50 1000 180/09 RMK AO2 SLP088 T01060006
94908KDBQ DBQ20060310130009403/10/06 13:00:31  5-MIN KDBQ 101900Z 17008KT 10SM CLR 11/00 A2977 1210 48 1000 170/08 RMK AO2
94908KDBQ DBQ20060310130509403/10/06 13:05:31  5-MIN KDBQ 101905Z 18007KT 10SM CLR 11/01 A2977 1220 50 1000 180/07 RMK AO2
94908KDBQ DBQ20060310131009403/10/06 13:10:31  5-MIN KDBQ 101910Z 20009KT 10SM CLR 11/01 A2977 1220 48 1100 200/09 RMK AO2
94908KDBQ DBQ20060310131509403/10/06 13:15:31  5-MIN KDBQ 101915Z 17009KT 10SM CLR 11/01 A2977 1220 50 1000 170/09 RMK AO2
94908KDBQ DBQ20060310132009403/10/06 13:20:31  5-MIN KDBQ 101920Z 17010KT 10SM CLR 11/02 A2977 1220 52 1100 170/10 RMK AO2
94908KDBQ DBQ20060310132509403/10/06 13:25:31  5-MIN KDBQ 101925Z 19009KT 10SM CLR 11/01 A2977 1220 48 1100 190/09 RMK AO2
94908KDBQ DBQ20060310133009403/10/06 13:30:31  5-MIN KDBQ 101930Z 19010KT 10SM CLR 11/01 A2977 1220 48 1100 190/10 RMK AO2
94908KDBQ DBQ20060310133509403/10/06 13:35:31  5-MIN KDBQ 101935Z 20007KT 10SM CLR 11/00 A2977 1210 46 1100 200/07 RMK AO2
94908KDBQ DBQ20060310134009403/10/06 13:40:31  5-MIN KDBQ 101940Z VRB06KT 10SM CLR 11/01 A2977 1210 48 1100 VRB/06 RMK AO2
94908KDBQ DBQ20060310134509403/10/06 13:45:31  5-MIN KDBQ 101945Z 18010KT 10SM CLR 11/01 A2977 1210 48 1100 180/10 RMK AO2
94908KDBQ DBQ20060310135011103/10/06 13:50:31  5-MIN KDBQ 101950Z 19009KT 10SM CLR 12/01 A2978 1210 48 1100 190/09 RMK AO2 SLP089 T01170011
94908KDBQ DBQ20060310135511203/10/06 13:55:31  5-MIN KDBQ 101955Z 20008KT 10SM CLR 11/M01 A2978 1210 44 1100 200/08 RMK AO2 SLP089 T01111006
94908KDBQ DBQ20060310140009403/10/06 14:00:31  5-MIN KDBQ 102000Z 17009KT 10SM CLR 12/00 A2977 1210 44 1100 170/09 RMK AO2
94908KDBQ DBQ20060310140509403/10/06 14:05:31  5-MIN KDBQ 102005Z 18009KT 10SM CLR 11/01 A2978 1210 48 1100 180/09 RMK AO2
94908KDBQ DBQ20060310141009403/10/06 14:10:31  5-MIN KDBQ 102010Z 18011KT 10SM CLR 12/01 A2978 1210 46 1100 180/11 RMK AO2
94908KDBQ DBQ20060310141509403/10/06 14:15:31  5-MIN KDBQ 102015Z 19009KT 10SM CLR 12/00 A2978 1210 44 1100 190/09 RMK AO2
94908KDBQ DBQ20060310142009403/10/06 14:20:31  5-MIN KDBQ 102020Z 18008KT 10SM CLR 12/01 A2978 1210 48 1100 180/08 RMK AO2
94908KDBQ DBQ20060310142509403/10/06 14:25:31  5-MIN KDBQ 102025Z 19008KT 10SM CLR 12/01 A2978 1210 46 1100 190/08 RMK AO2
94908KDBQ DBQ20060310143009403/10/06 14:30:31  5-MIN KDBQ 102030Z 19008KT 10SM CLR 12/01 A2978 1210 46 1100 190/08 RMK AO2
94908KDBQ DBQ20060310143509403/10/06 14:35:31  5-MIN KDBQ 102035Z 19010KT 10SM CLR 12/01 A2978 1210 46 1100 190/10 RMK AO2
94908KDBQ DBQ20060310144009403/10/06 14:40:31  5-MIN KDBQ 102040Z 19009KT 10SM CLR 12/01 A2978 1210 46 1100 190/09 RMK AO2
94908KDBQ DBQ20060310144509403/10/06 14:45:31  5-MIN KDBQ 102045Z 17010KT 10SM CLR 12/01 A2978 1210 48 1100 170/10 RMK AO2
94908KDBQ DBQ20060310145011703/10/06 14:50:31  5-MIN KDBQ 102050Z 16009KT 10SM CLR 12/02 A2978 1210 50 1100 160/09 RMK AO2 SLP091 T01170017 51019
94908KDBQ DBQ20060310145511703/10/06 14:55:31  5-MIN KDBQ 102055Z 16011KT 10SM CLR 12/01 A2978 1200 48 1100 150/11 RMK AO2 SLP092 T01170011 55001
94908KDBQ DBQ20060310150009403/10/06 15:00:31  5-MIN KDBQ 102100Z 16010KT 10SM CLR 12/01 A2978 1200 46 1100 160/10 RMK AO2
94908KDBQ DBQ20060310150509403/10/06 15:05:31  5-MIN KDBQ 102105Z 18009KT 10SM CLR 12/01 A2978 1210 48 1100 170/09 RMK AO2
94908KDBQ DBQ20060310151009403/10/06 15:10:31  5-MIN KDBQ 102110Z 17009KT 10SM CLR 12/00 A2978 1200 44 1100 160/09 RMK AO2
94908KDBQ DBQ20060310151509403/10/06 15:15:31  5-MIN KDBQ 102115Z 17008KT 10SM CLR 12/01 A2979 1200 46 1100 170/08 RMK AO2
94908KDBQ DBQ20060310152009403/10/06 15:20:31  5-MIN KDBQ 102120Z 16010KT 10SM CLR 12/01 A2979 1200 46 1100 160/10 RMK AO2
94908KDBQ DBQ20060310152509403/10/06 15:25:31  5-MIN KDBQ 102125Z 16010KT 10SM CLR 12/00 A2979 1200 44 1100 160/10 RMK AO2
94908KDBQ DBQ20060310153009503/10/06 15:30:31  5-MIN KDBQ 102130Z 17009KT 10SM CLR 12/M01 A2979 1200 42 1100 170/09 RMK AO2
94908KDBQ DBQ20060310153509403/10/06 15:35:31  5-MIN KDBQ 102135Z 16008KT 10SM CLR 12/01 A2979 1200 46 1100 160/08 RMK AO2
94908KDBQ DBQ20060310154009403/10/06 15:40:31  5-MIN KDBQ 102140Z 16011KT 10SM CLR 12/00 A2979 1200 44 1100 160/11 RMK AO2
94908KDBQ DBQ20060310154509403/10/06 15:45:31  5-MIN KDBQ 102145Z 17010KT 10SM CLR 12/00 A2979 1200 44 1100 170/10 RMK AO2
94908KDBQ DBQ20060310155011103/10/06 15:50:31  5-MIN KDBQ 102150Z 16010KT 10SM CLR 12/00 A2979 1200 44 1100 160/10 RMK AO2 SLP094 T01170000
94908KDBQ DBQ20060310155511103/10/06 15:55:31  5-MIN KDBQ 102155Z 16009KT 10SM CLR 12/01 A2979 1200 46 1100 160/09 RMK AO2 SLP094 T01170006
94908KDBQ DBQ20060310160009403/10/06 16:00:31  5-MIN KDBQ 102200Z 17009KT 10SM CLR 12/01 A2979 1200 48 1100 170/09 RMK AO2
94908KDBQ DBQ20060310160509403/10/06 16:05:31  5-MIN KDBQ 102205Z 16010KT 10SM CLR 12/01 A2979 1200 46 1100 160/10 RMK AO2
94908KDBQ DBQ20060310161009403/10/06 16:10:31  5-MIN KDBQ 102210Z 15009KT 10SM CLR 12/00 A2979 1200 44 1100 150/09 RMK AO2
94908KDBQ DBQ20060310161509403/10/06 16:15:31  5-MIN KDBQ 102215Z 17011KT 10SM CLR 12/00 A2979 1200 44 1100 160/11 RMK AO2
94908KDBQ DBQ20060310162009503/10/06 16:20:31  5-MIN KDBQ 102220Z 17011KT 10SM CLR 12/M01 A2979 1200 42 1100 170/11 RMK AO2
94908KDBQ DBQ20060310162509503/10/06 16:25:31  5-MIN KDBQ 102225Z 17010KT 10SM CLR 12/M01 A2979 1200 42 1100 170/10 RMK AO2
94908KDBQ DBQ20060310163009403/10/06 16:30:31  5-MIN KDBQ 102230Z 17011KT 10SM CLR 12/00 A2979 1200 44 1100 170/11 RMK AO2
94908KDBQ DBQ20060310163509403/10/06 16:35:31  5-MIN KDBQ 102235Z 16012KT 10SM CLR 12/01 A2979 1190 46 1100 160/12 RMK AO2
94908KDBQ DBQ20060310164009403/10/06 16:40:31  5-MIN KDBQ 102240Z 16009KT 10SM CLR 11/00 A2980 1190 46 1100 160/09 RMK AO2
94908KDBQ DBQ20060310164509403/10/06 16:45:31  5-MIN KDBQ 102245Z 16009KT 10SM CLR 11/01 A2980 1190 48 1000 160/09 RMK AO2
94908KDBQ DBQ20060310165011103/10/06 16:50:31  5-MIN KDBQ 102250Z 16011KT 10SM CLR 11/01 A2980 1190 48 1000 150/11 RMK AO2 SLP099 T01110006
94908KDBQ DBQ20060310165511103/10/06 16:55:31  5-MIN KDBQ 102255Z 16009KT 10SM CLR 11/01 A2980 1190 50 1000 160/09 RMK AO2 SLP100 T01060006
94908KDBQ DBQ20060310170009403/10/06 17:00:31  5-MIN KDBQ 102300Z 16009KT 10SM CLR 11/01 A2980 1190 50 1000 150/09 RMK AO2
94908KDBQ DBQ20060310170509403/10/06 17:05:31  5-MIN KDBQ 102305Z 15011KT 10SM CLR 11/01 A2980 1190 52 1000 150/11 RMK AO2
94908KDBQ DBQ20060310171009403/10/06 17:10:31  5-MIN KDBQ 102310Z 15009KT 10SM CLR 11/01 A2980 1190 52 1000 140/09 RMK AO2
94908KDBQ DBQ20060310171509303/10/06 17:15:31  5-MIN KDBQ 102315Z 14008KT 10SM CLR 10/01 A2980 1190 54 900 140/08 RMK AO2
94908KDBQ DBQ20060310172009303/10/06 17:20:31  5-MIN KDBQ 102320Z 14009KT 10SM CLR 10/01 A2980 1190 54 900 140/09 RMK AO2
94908KDBQ DBQ20060310172509303/10/06 17:25:31  5-MIN KDBQ 102325Z 14008KT 10SM CLR 09/01 A2981 1190 56 800 140/08 RMK AO2
94908KDBQ DBQ20060310173009303/10/06 17:30:31  5-MIN KDBQ 102330Z 14008KT 10SM CLR 09/01 A2981 1180 58 800 140/08 RMK AO2
94908KDBQ DBQ20060310173509303/10/06 17:35:31  5-MIN KDBQ 102335Z 15008KT 10SM CLR 09/01 A2981 1190 58 800 140/08 RMK AO2
94908KDBQ DBQ20060310174009303/10/06 17:40:31  5-MIN KDBQ 102340Z 15007KT 10SM CLR 09/01 A2981 1180 56 800 140/07 RMK AO2
94908KDBQ DBQ20060310174509303/10/06 17:45:31  5-MIN KDBQ 102345Z 14007KT 10SM CLR 09/01 A2981 1180 56 800 140/07 RMK AO2
94908KDBQ DBQ20060310175012803/10/06 17:50:31  5-MIN KDBQ 102350Z 14007KT 10SM CLR 08/01 A2981 1180 58 700 140/07 RMK AO2 SLP102 T00830006 10117 20083 55001
94908KDBQ DBQ20060310175512803/10/06 17:55:31  5-MIN KDBQ 102355Z 13008KT 10SM CLR 09/00 A2981 1180 53 800 130/08 RMK AO2 SLP102 T00890000 10117 20083 51008
94908KDBQ DBQ20060310180009303/10/06 18:00:31  5-MIN KDBQ 110000Z 13008KT 10SM CLR 09/00 A2981 1180 53 800 130/08 RMK AO2
94908KDBQ DBQ20060310180509303/10/06 18:05:31  5-MIN KDBQ 110005Z 13005KT 10SM CLR 08/01 A2981 1180 58 700 130/05 RMK AO2
94908KDBQ DBQ20060310181009303/10/06 18:10:31  5-MIN KDBQ 110010Z 13006KT 10SM CLR 08/01 A2981 1180 60 600 120/06 RMK AO2
94908KDBQ DBQ20060310181509303/10/06 18:15:31  5-MIN KDBQ 110015Z 13007KT 10SM CLR 08/01 A2982 1180 60 600 130/07 RMK AO2
94908KDBQ DBQ20060310182009303/10/06 18:20:31  5-MIN KDBQ 110020Z 13006KT 10SM CLR 07/01 A2982 1170 62 600 130/06 RMK AO2
94908KDBQ DBQ20060310182509303/10/06 18:25:31  5-MIN KDBQ 110025Z 13006KT 10SM CLR 07/01 A2982 1170 62 600 130/06 RMK AO2
94908KDBQ DBQ20060310183009303/10/06 18:30:31  5-MIN KDBQ 110030Z 14007KT 10SM CLR 07/01 A2982 1170 62 600 140/07 RMK AO2
94908KDBQ DBQ20060310183509303/10/06 18:35:31  5-MIN KDBQ 110035Z 13008KT 10SM CLR 07/01 A2982 1170 62 600 130/08 RMK AO2
94908KDBQ DBQ20060310184009303/10/06 18:40:31  5-MIN KDBQ 110040Z 13009KT 10SM CLR 08/01 A2982 1170 60 600 130/09 RMK AO2
94908KDBQ DBQ20060310184509303/10/06 18:45:31  5-MIN KDBQ 110045Z 13008KT 10SM CLR 08/01 A2982 1170 60 600 130/08 RMK AO2
94908KDBQ DBQ20060310185011003/10/06 18:50:31  5-MIN KDBQ 110050Z 13007KT 10SM CLR 08/00 A2982 1170 55 700 130/07 RMK AO2 SLP108 T00830000
94908KDBQ DBQ20060310185511003/10/06 18:55:31  5-MIN KDBQ 110055Z 13007KT 10SM CLR 08/01 A2983 1170 60 600 130/07 RMK AO2 SLP109 T00780006
94908KDBQ DBQ20060310190009303/10/06 19:00:31  5-MIN KDBQ 110100Z 14007KT 10SM CLR 07/01 A2983 1160 62 500 140/07 RMK AO2
94908KDBQ DBQ20060310190509303/10/06 19:05:31  5-MIN KDBQ 110105Z 14009KT 10SM CLR 07/01 A2983 1160 65 500 140/09 RMK AO2
94908KDBQ DBQ20060310191009303/10/06 19:10:31  5-MIN KDBQ 110110Z 14009KT 10SM CLR 07/01 A2984 1160 62 500 140/09 RMK AO2
94908KDBQ DBQ20060310191509303/10/06 19:15:31  5-MIN KDBQ 110115Z 14008KT 10SM CLR 07/01 A2984 1160 62 500 140/08 RMK AO2
94908KDBQ DBQ20060310192009303/10/06 19:20:31  5-MIN KDBQ 110120Z 13009KT 10SM CLR 07/01 A2984 1150 62 500 130/09 RMK AO2
94908KDBQ DBQ20060310192509303/10/06 19:25:31  5-MIN KDBQ 110125Z 13010KT 10SM CLR 08/01 A2984 1150 60 600 130/10 RMK AO2
94908KDBQ DBQ20060310193009303/10/06 19:30:31  5-MIN KDBQ 110130Z 13010KT 10SM CLR 08/00 A2984 1150 58 600 130/10 RMK AO2
94908KDBQ DBQ20060310193509303/10/06 19:35:31  5-MIN KDBQ 110135Z 13010KT 10SM CLR 08/00 A2984 1150 58 600 130/10 RMK AO2
94908KDBQ DBQ20060310194009303/10/06 19:40:31  5-MIN KDBQ 110140Z 13010KT 10SM CLR 08/00 A2984 1150 58 600 130/10 RMK AO2
94908KDBQ DBQ20060310194509303/10/06 19:45:31  5-MIN KDBQ 110145Z 13010KT 10SM CLR 08/01 A2984 1150 60 600 130/10 RMK AO2
94908KDBQ DBQ20060310195012003/10/06 19:50:31  5-MIN KDBQ 110150Z AUTO 14010KT 10SM CLR 08/01 A2984 1150 60 600 140/10 RMK AO2 SLP114 T00780006 TSNO
94908KDBQ DBQ20060310195512003/10/06 19:55:31  5-MIN KDBQ 110155Z AUTO 13010KT 10SM CLR 08/01 A2985 1150 60 600 130/10 RMK AO2 SLP115 T00780006 TSNO
94908KDBQ DBQ20060310200010303/10/06 20:00:31  5-MIN KDBQ 110200Z AUTO 13009KT 10SM CLR 08/01 A2985 1150 60 600 130/09 RMK AO2 TSNO
94908KDBQ DBQ20060310200510303/10/06 20:05:31  5-MIN KDBQ 110205Z AUTO 13010KT 10SM CLR 08/01 A2985 1140 60 600 130/10 RMK AO2 TSNO
94908KDBQ DBQ20060310201010303/10/06 20:10:31  5-MIN KDBQ 110210Z AUTO 13011KT 10SM CLR 08/01 A2985 1140 60 600 130/11 RMK AO2 TSNO
94908KDBQ DBQ20060310201510303/10/06 20:15:31  5-MIN KDBQ 110215Z AUTO 14010KT 10SM CLR 08/01 A2985 1140 60 600 130/10 RMK AO2 TSNO
94908KDBQ DBQ20060310202010303/10/06 20:20:31  5-MIN KDBQ 110220Z AUTO 14009KT 10SM CLR 07/01 A2986 1130 62 500 140/09 RMK AO2 TSNO
94908KDBQ DBQ20060310202510303/10/06 20:25:31  5-MIN KDBQ 110225Z AUTO 14010KT 10SM CLR 07/01 A2986 1130 62 500 140/10 RMK AO2 TSNO
94908KDBQ DBQ20060310203010303/10/06 20:30:31  5-MIN KDBQ 110230Z AUTO 13010KT 10SM CLR 07/01 A2986 1130 62 500 130/10 RMK AO2 TSNO
94908KDBQ DBQ20060310203510303/10/06 20:35:31  5-MIN KDBQ 110235Z AUTO 13010KT 10SM CLR 08/01 A2986 1140 60 600 130/10 RMK AO2 TSNO
94908KDBQ DBQ20060310204010303/10/06 20:40:31  5-MIN KDBQ 110240Z AUTO 14009KT 10SM CLR 07/01 A2986 1130 62 500 130/09 RMK AO2 TSNO
94908KDBQ DBQ20060310204510303/10/06 20:45:31  5-MIN KDBQ 110245Z AUTO 13010KT 10SM CLR 07/01 A2986 1130 62 500 130/10 RMK AO2 TSNO
94908KDBQ DBQ20060310205012603/10/06 20:50:31  5-MIN KDBQ 110250Z AUTO 13010KT 10SM CLR 07/01 A2986 1130 62 500 130/10 RMK AO2 SLP119 T00720006 51008 TSNO
94908KDBQ DBQ20060310205512603/10/06 20:55:31  5-MIN KDBQ 110255Z AUTO 13011KT 10SM CLR 07/01 A2986 1130 62 500 130/11 RMK AO2 SLP120 T00720006 51018 TSNO
94908KDBQ DBQ20060310210010303/10/06 21:00:31  5-MIN KDBQ 110300Z AUTO 13010KT 10SM CLR 07/01 A2986 1130 62 500 130/10 RMK AO2 TSNO
94908KDBQ DBQ20060310210510303/10/06 21:05:31  5-MIN KDBQ 110305Z AUTO 13010KT 10SM CLR 07/01 A2986 1140 62 500 130/10 RMK AO2 TSNO
94908KDBQ DBQ20060310211010303/10/06 21:10:31  5-MIN KDBQ 110310Z AUTO 13010KT 10SM CLR 07/01 A2986 1130 62 500 130/10 RMK AO2 TSNO
94908KDBQ DBQ20060310211510303/10/06 21:15:31  5-MIN KDBQ 110315Z AUTO 13011KT 10SM CLR 07/01 A2986 1140 62 500 130/11 RMK AO2 TSNO
94908KDBQ DBQ20060310212010303/10/06 21:20:31  5-MIN KDBQ 110320Z AUTO 13011KT 10SM CLR 07/01 A2986 1130 62 500 130/11 RMK AO2 TSNO
94908KDBQ DBQ20060310212510303/10/06 21:25:31  5-MIN KDBQ 110325Z AUTO 13012KT 10SM CLR 07/01 A2986 1130 62 500 130/12 RMK AO2 TSNO
94908KDBQ DBQ20060310213010303/10/06 21:30:31  5-MIN KDBQ 110330Z AUTO 13011KT 10SM CLR 07/01 A2986 1130 62 500 130/11 RMK AO2 TSNO
94908KDBQ DBQ20060310213510303/10/06 21:35:31  5-MIN KDBQ 110335Z AUTO 13012KT 10SM CLR 07/01 A2986 1130 62 500 130/12 RMK AO2 TSNO
94908KDBQ DBQ20060310214010303/10/06 21:40:31  5-MIN KDBQ 110340Z AUTO 13013KT 10SM CLR 08/01 A2986 1130 60 600 130/13 RMK AO2 TSNO
94908KDBQ DBQ20060310214510303/10/06 21:45:31  5-MIN KDBQ 110345Z AUTO 13012KT 10SM CLR 07/01 A2986 1130 62 500 130/12 RMK AO2 TSNO
94908KDBQ DBQ20060310215012003/10/06 21:50:31  5-MIN KDBQ 110350Z AUTO 13012KT 10SM CLR 07/01 A2986 1130 62 500 130/12 RMK AO2 SLP118 T00720006 TSNO
94908KDBQ DBQ20060310215512003/10/06 21:55:31  5-MIN KDBQ 110355Z AUTO 13012KT 10SM CLR 07/01 A2986 1130 62 500 130/12 RMK AO2 SLP118 T00720006 TSNO
94908KDBQ DBQ20060310220010303/10/06 22:00:31  5-MIN KDBQ 110400Z AUTO 14012KT 10SM CLR 07/01 A2986 1130 62 500 130/12 RMK AO2 TSNO
94908KDBQ DBQ20060310220510303/10/06 22:05:31  5-MIN KDBQ 110405Z AUTO 14011KT 10SM CLR 07/01 A2986 1130 65 500 140/11 RMK AO2 TSNO
94908KDBQ DBQ20060310221010303/10/06 22:10:31  5-MIN KDBQ 110410Z AUTO 14011KT 10SM CLR 07/01 A2987 1130 65 500 140/11 RMK AO2 TSNO
94908KDBQ DBQ20060310221510303/10/06 22:15:31  5-MIN KDBQ 110415Z AUTO 13011KT 10SM CLR 07/01 A2987 1130 65 500 130/11 RMK AO2 TSNO
94908KDBQ DBQ20060310222010303/10/06 22:20:31  5-MIN KDBQ 110420Z AUTO 13012KT 10SM CLR 07/01 A2987 1130 65 500 130/12 RMK AO2 TSNO
94908KDBQ DBQ20060310222510303/10/06 22:25:31  5-MIN KDBQ 110425Z AUTO 13012KT 10SM CLR 07/01 A2987 1130 65 500 130/12 RMK AO2 TSNO
94908KDBQ DBQ20060310223010303/10/06 22:30:31  5-MIN KDBQ 110430Z AUTO 13012KT 10SM CLR 07/02 A2987 1130 68 500 130/12 RMK AO2 TSNO
94908KDBQ DBQ20060310223510303/10/06 22:35:31  5-MIN KDBQ 110435Z AUTO 13012KT 10SM CLR 07/02 A2987 1130 68 500 130/12 RMK AO2 TSNO
94908KDBQ DBQ20060310224010303/10/06 22:40:31  5-MIN KDBQ 110440Z AUTO 14012KT 10SM CLR 07/02 A2987 1130 68 500 140/12 RMK AO2 TSNO
94908KDBQ DBQ20060310224510303/10/06 22:45:31  5-MIN KDBQ 110445Z AUTO 13012KT 10SM CLR 07/02 A2986 1130 68 500 130/12 RMK AO2 TSNO
94908KDBQ DBQ20060310225012003/10/06 22:50:31  5-MIN KDBQ 110450Z AUTO 13011KT 10SM CLR 07/02 A2986 1130 68 500 130/11 RMK AO2 SLP118 T00720017 TSNO
94908KDBQ DBQ20060310225512003/10/06 22:55:31  5-MIN KDBQ 110455Z AUTO 13011KT 10SM CLR 07/02 A2986 1130 70 500 130/11 RMK AO2 SLP118 T00720022 TSNO
94908KDBQ DBQ20060310230010303/10/06 23:00:31  5-MIN KDBQ 110500Z AUTO 13013KT 10SM CLR 07/02 A2986 1130 70 500 130/13 RMK AO2 TSNO
94908KDBQ DBQ20060310230510303/10/06 23:05:31  5-MIN KDBQ 110505Z AUTO 13013KT 10SM CLR 07/02 A2987 1130 70 500 130/13 RMK AO2 TSNO
94908KDBQ DBQ20060310231010303/10/06 23:10:31  5-MIN KDBQ 110510Z AUTO 13012KT 10SM CLR 07/02 A2987 1130 73 400 130/12 RMK AO2 TSNO
94908KDBQ DBQ20060310231510303/10/06 23:15:31  5-MIN KDBQ 110515Z AUTO 13012KT 10SM CLR 07/02 A2986 1130 73 400 130/12 RMK AO2 TSNO
94908KDBQ DBQ20060310232010303/10/06 23:20:31  5-MIN KDBQ 110520Z AUTO 13012KT 10SM CLR 07/02 A2987 1130 73 400 130/12 RMK AO2 TSNO
94908KDBQ DBQ20060310232510303/10/06 23:25:31  5-MIN KDBQ 110525Z AUTO 13012KT 10SM CLR 07/02 A2987 1130 73 400 130/12 RMK AO2 TSNO
94908KDBQ DBQ20060310233010303/10/06 23:30:31  5-MIN KDBQ 110530Z AUTO 13012KT 10SM CLR 07/03 A2986 1130 76 400 130/12 RMK AO2 TSNO
94908KDBQ DBQ20060310233510303/10/06 23:35:31  5-MIN KDBQ 110535Z AUTO 13012KT 10SM CLR 07/03 A2986 1130 76 400 130/12 RMK AO2 TSNO
94908KDBQ DBQ20060310234010303/10/06 23:40:31  5-MIN KDBQ 110540Z AUTO 13014KT 10SM CLR 07/03 A2986 1140 76 400 130/14 RMK AO2 TSNO
94908KDBQ DBQ20060310234510303/10/06 23:45:31  5-MIN KDBQ 110545Z AUTO 13012KT 10SM CLR 07/03 A2986 1140 73 500 130/12 RMK AO2 TSNO
94908KDBQ DBQ20060310235014803/10/06 23:50:31  5-MIN KDBQ 110550Z AUTO 13012KT 10SM CLR 07/03 A2986 1140 76 400 130/12 RMK AO2 SLP116 T00670028 10089 20067 401171028 51018 TSNO
94908KDBQ DBQ20060310235514803/10/06 23:55:31  5-MIN KDBQ 110555Z AUTO 13013KT 10SM CLR 07/03 A2986 1140 76 500 130/13 RMK AO2 SLP115 T00720033 10089 20067 401171028 58002 TSNO
94908KDBQ DBQ20060311000010203/11/06 00:00:38  5-MIN KDBQ 110600Z AUTO 13013KT 9SM CLR 07/03 A2986 1140 79 400 130/13 RMK AO2 TSNO
94908KDBQ DBQ20060311000510503/11/06 00:05:31  5-MIN KDBQ 110605Z AUTO 13013KT 9SM FEW120 07/03 A2986 1140 76 500 130/13 RMK AO2 TSNO
94908KDBQ DBQ20060311001010503/11/06 00:10:31  5-MIN KDBQ 110610Z AUTO 13013KT 9SM FEW120 07/03 A2986 1140 76 500 130/13 RMK AO2 TSNO
94908KDBQ DBQ20060311001510503/11/06 00:15:31  5-MIN KDBQ 110615Z AUTO 13012KT 9SM SCT120 07/03 A2986 1140 76 500 130/12 RMK AO2 TSNO
94908KDBQ DBQ20060311002010503/11/06 00:20:31  5-MIN KDBQ 110620Z AUTO 13012KT 9SM SCT120 07/03 A2985 1140 76 500 130/12 RMK AO2 TSNO
94908KDBQ DBQ20060311002510503/11/06 00:25:31  5-MIN KDBQ 110625Z AUTO 13013KT 9SM SCT120 07/03 A2985 1140 76 500 130/13 RMK AO2 TSNO
94908KDBQ DBQ20060311003010503/11/06 00:30:31  5-MIN KDBQ 110630Z AUTO 13013KT 9SM SCT120 07/04 A2985 1140 79 500 130/13 RMK AO2 TSNO
94908KDBQ DBQ20060311003510503/11/06 00:35:31  5-MIN KDBQ 110635Z AUTO 13015KT 8SM SCT120 07/04 A2985 1140 79 500 130/15 RMK AO2 TSNO
94908KDBQ DBQ20060311004010503/11/06 00:40:31  5-MIN KDBQ 110640Z AUTO 14014KT 8SM BKN120 07/04 A2985 1140 79 500 140/14 RMK AO2 TSNO
94908KDBQ DBQ20060311004510503/11/06 00:45:31  5-MIN KDBQ 110645Z AUTO 13014KT 8SM BKN120 07/04 A2985 1150 79 500 130/14 RMK AO2 TSNO
94908KDBQ DBQ20060311005012203/11/06 00:50:31  5-MIN KDBQ 110650Z AUTO 14013KT 8SM BKN120 07/04 A2985 1150 79 500 140/13 RMK AO2 SLP111 T00720039 TSNO
94908KDBQ DBQ20060311005512203/11/06 00:55:31  5-MIN KDBQ 110655Z AUTO 14014KT 8SM BKN120 07/04 A2984 1150 79 500 140/14 RMK AO2 SLP111 T00720039 TSNO
94908KDBQ DBQ20060311010010503/11/06 01:00:31  5-MIN KDBQ 110700Z AUTO 13014KT 8SM BKN120 07/04 A2984 1150 82 500 130/14 RMK AO2 TSNO
94908KDBQ DBQ20060311010511103/11/06 01:05:31  5-MIN KDBQ 110705Z AUTO 14012G20KT 8SM BKN120 07/04 A2984 1150 82 500 140/12G20 RMK AO2 TSNO
94908KDBQ DBQ20060311011011103/11/06 01:10:31  5-MIN KDBQ 110710Z AUTO 13015G20KT 8SM SCT120 07/04 A2984 1150 82 500 130/15G20 RMK AO2 TSNO
94908KDBQ DBQ20060311011510503/11/06 01:15:31  5-MIN KDBQ 110715Z AUTO 13014KT 8SM FEW120 07/04 A2984 1150 82 500 130/14 RMK AO2 TSNO
94908KDBQ DBQ20060311012010503/11/06 01:20:31  5-MIN KDBQ 110720Z AUTO 13013KT 8SM FEW120 07/04 A2984 1160 82 500 130/13 RMK AO2 TSNO
94908KDBQ DBQ20060311012510503/11/06 01:25:31  5-MIN KDBQ 110725Z AUTO 14014KT 8SM FEW120 07/04 A2984 1160 82 500 130/14 RMK AO2 TSNO
94908KDBQ DBQ20060311013010203/11/06 01:30:31  5-MIN KDBQ 110730Z AUTO 13015KT 8SM CLR 07/04 A2984 1160 82 500 130/15 RMK AO2 TSNO
94908KDBQ DBQ20060311013510203/11/06 01:35:31  5-MIN KDBQ 110735Z AUTO 13015KT 8SM CLR 07/04 A2983 1160 82 500 130/15 RMK AO2 TSNO
94908KDBQ DBQ20060311014010803/11/06 01:40:31  5-MIN KDBQ 110740Z AUTO 13014G20KT 8SM CLR 07/04 A2983 1160 82 500 130/14G20 RMK AO2 TSNO
94908KDBQ DBQ20060311014510203/11/06 01:45:31  5-MIN KDBQ 110745Z AUTO 13014KT 8SM CLR 07/04 A2983 1160 82 500 130/14 RMK AO2 TSNO
94908KDBQ DBQ20060311015011903/11/06 01:50:31  5-MIN KDBQ 110750Z AUTO 13015KT 7SM CLR 07/04 A2983 1160 82 500 130/15 RMK AO2 SLP104 T00720044 TSNO
94908KDBQ DBQ20060311015511903/11/06 01:55:31  5-MIN KDBQ 110755Z AUTO 13015KT 7SM CLR 07/04 A2982 1170 82 600 130/15 RMK AO2 SLP103 T00720044 TSNO
94908KDBQ DBQ20060311020010803/11/06 02:00:31  5-MIN KDBQ 110800Z AUTO 13016G20KT 7SM CLR 07/04 A2983 1170 82 500 130/16G20 RMK AO2 TSNO
94908KDBQ DBQ20060311020510803/11/06 02:05:31  5-MIN KDBQ 110805Z AUTO 14014G20KT 7SM CLR 07/04 A2983 1170 82 500 140/14G20 RMK AO2 TSNO
94908KDBQ DBQ20060311021010203/11/06 02:10:31  5-MIN KDBQ 110810Z AUTO 13014KT 7SM CLR 07/04 A2982 1170 86 500 130/14 RMK AO2 TSNO
94908KDBQ DBQ20060311021510203/11/06 02:15:31  5-MIN KDBQ 110815Z AUTO 13014KT 7SM CLR 07/04 A2983 1170 86 500 130/14 RMK AO2 TSNO
94908KDBQ DBQ20060311022010203/11/06 02:20:31  5-MIN KDBQ 110820Z AUTO 13013KT 7SM CLR 07/04 A2983 1160 86 500 130/13 RMK AO2 TSNO
94908KDBQ DBQ20060311022510203/11/06 02:25:31  5-MIN KDBQ 110825Z AUTO 13016KT 7SM CLR 07/04 A2983 1170 86 500 130/16 RMK AO2 TSNO
94908KDBQ DBQ20060311023010203/11/06 02:30:31  5-MIN KDBQ 110830Z AUTO 13015KT 7SM CLR 07/04 A2983 1160 82 500 130/15 RMK AO2 TSNO
94908KDBQ DBQ20060311023510203/11/06 02:35:31  5-MIN KDBQ 110835Z AUTO 14014KT 7SM CLR 07/04 A2983 1170 82 500 140/14 RMK AO2 TSNO
94908KDBQ DBQ20060311024010503/11/06 02:40:31  5-MIN KDBQ 110840Z AUTO 13015KT 7SM FEW120 07/04 A2982 1170 82 600 130/15 RMK AO2 TSNO
94908KDBQ DBQ20060311024510503/11/06 02:45:31  5-MIN KDBQ 110845Z AUTO 13015KT 7SM SCT120 07/04 A2982 1170 82 600 130/15 RMK AO2 TSNO
94908KDBQ DBQ20060311025012803/11/06 02:50:31  5-MIN KDBQ 110850Z AUTO 13014KT 7SM FEW120 07/04 A2982 1170 82 600 130/14 RMK AO2 SLP101 T00720044 58002 TSNO
94908KDBQ DBQ20060311025512803/11/06 02:55:31  5-MIN KDBQ 110855Z AUTO 13013KT 7SM SCT120 07/04 A2981 1180 82 600 130/13 RMK AO2 SLP099 T00720044 56015 TSNO
94908KDBQ DBQ20060311030011103/11/06 03:00:31  5-MIN KDBQ 110900Z AUTO 13014G20KT 7SM SCT120 07/04 A2981 1180 82 600 130/14G20 RMK AO2 TSNO
94908KDBQ DBQ20060311030511403/11/06 03:05:31  5-MIN KDBQ 110905Z AUTO 13017G20KT 6SM HZ FEW120 07/04 A2980 1190 82 600 130/17G20 RMK AO2 TSNO
94908KDBQ DBQ20060311031010803/11/06 03:10:31  5-MIN KDBQ 110910Z AUTO 13015KT 6SM HZ FEW120 07/04 A2980 1190 82 600 130/15 RMK AO2 TSNO
94908KDBQ DBQ20060311031510803/11/06 03:15:31  5-MIN KDBQ 110915Z AUTO 13015KT 6SM HZ FEW120 07/04 A2980 1190 82 600 130/15 RMK AO2 TSNO
94908KDBQ DBQ20060311032010803/11/06 03:20:31  5-MIN KDBQ 110920Z AUTO 13016KT 6SM HZ FEW110 07/04 A2980 1190 82 600 120/16 RMK AO2 TSNO
94908KDBQ DBQ20060311032510503/11/06 03:25:31  5-MIN KDBQ 110925Z AUTO 13015KT 6SM HZ CLR 07/04 A2980 1190 82 600 120/15 RMK AO2 TSNO
94908KDBQ DBQ20060311033011103/11/06 03:30:31  5-MIN KDBQ 110930Z AUTO 12010G19KT 6SM HZ CLR 07/04 A2981 1180 82 600 120/10G19 RMK AO2 TSNO
94908KDBQ DBQ20060311033510803/11/06 03:35:31  5-MIN KDBQ 110935Z AUTO VRB06KT 6SM BR FEW110 07/04 A2981 1180 86 500 VRB/06 RMK AO2 TSNO
94908KDBQ DBQ20060311034010803/11/06 03:40:31  5-MIN KDBQ 110940Z AUTO 13009KT 6SM BR FEW110 07/04 A2981 1180 86 500 120/09 RMK AO2 TSNO
94908KDBQ DBQ20060311034510803/11/06 03:45:31  5-MIN KDBQ 110945Z AUTO 13010KT 6SM BR SCT110 07/04 A2980 1190 86 500 120/10 RMK AO2 TSNO
94908KDBQ DBQ20060311035013103/11/06 03:50:31  5-MIN KDBQ 110950Z AUTO 12014G17KT 6SM BR FEW110 07/04 A2980 1190 86 500 120/14G17 RMK AO2 SLP094 T00670044 TSNO
94908KDBQ DBQ20060311035513203/11/06 03:55:31  5-MIN KDBQ 110955Z AUTO 12012KT 6SM BR SCT110 07/04 A2979 1200 86 500 120/12 RMK AO2 PRESFR SLP090 T00670044 TSNO
94908KDBQ DBQ20060311040012603/11/06 04:00:31  5-MIN KDBQ 111000Z AUTO 13010KT 6SM -RA BR FEW110 07/04 A2980 1190 86 500 130/10 RMK AO2 RAB0956 P0000 TSNO
94908KDBQ DBQ20060311040512503/11/06 04:05:31  5-MIN KDBQ 111005Z AUTO 15007KT 6SM BR FEW120 07/04 A2979 1200 86 500 150/07 RMK AO2 RAB0956E05 P0000 TSNO
94908KDBQ DBQ20060311041012503/11/06 04:10:31  5-MIN KDBQ 111010Z AUTO 13010KT 6SM BR FEW120 07/04 A2979 1200 86 500 130/10 RMK AO2 RAB0956E05 P0000 TSNO
94908KDBQ DBQ20060311041512503/11/06 04:15:31  5-MIN KDBQ 111015Z AUTO 13009KT 6SM BR FEW120 07/04 A2979 1200 86 500 130/09 RMK AO2 RAB0956E05 P0000 TSNO
94908KDBQ DBQ20060311042012503/11/06 04:20:31  5-MIN KDBQ 111020Z AUTO 13009KT 6SM BR FEW120 07/04 A2979 1200 86 500 130/09 RMK AO2 RAB0956E05 P0000 TSNO
94908KDBQ DBQ20060311042512503/11/06 04:25:31  5-MIN KDBQ 111025Z AUTO 12009KT 5SM BR FEW120 07/04 A2979 1200 86 500 120/09 RMK AO2 RAB0956E05 P0000 TSNO
94908KDBQ DBQ20060311043012503/11/06 04:30:31  5-MIN KDBQ 111030Z AUTO 13010KT 5SM BR FEW120 07/04 A2978 1210 86 500 130/10 RMK AO2 RAB0956E05 P0000 TSNO
94908KDBQ DBQ20060311043512503/11/06 04:35:31  5-MIN KDBQ 111035Z AUTO 12010KT 5SM BR FEW120 07/04 A2978 1210 86 500 120/10 RMK AO2 RAB0956E05 P0000 TSNO
94908KDBQ DBQ20060311044012503/11/06 04:40:31  5-MIN KDBQ 111040Z AUTO 12010KT 5SM BR SCT110 07/04 A2978 1210 86 500 120/10 RMK AO2 RAB0956E05 P0000 TSNO
94908KDBQ DBQ20060311044512503/11/06 04:45:31  5-MIN KDBQ 111045Z AUTO 12010KT 5SM BR SCT110 07/04 A2978 1210 86 500 120/10 RMK AO2 RAB0956E05 P0000 TSNO
94908KDBQ DBQ20060311045014203/11/06 04:50:31  5-MIN KDBQ 111050Z AUTO 13010KT 5SM BR FEW110 07/04 A2978 1210 86 500 130/10 RMK AO2 RAB0956E05 SLP087 P0000 T00670044 TSNO
94908KDBQ DBQ20060311045514203/11/06 04:55:31  5-MIN KDBQ 111055Z AUTO 12010KT 5SM BR FEW110 07/04 A2978 1210 86 500 110/10 RMK AO2 RAB0956E05 SLP087 P0000 T00670044 TSNO
94908KDBQ DBQ20060311050010803/11/06 05:00:31  5-MIN KDBQ 111100Z AUTO 11009KT 5SM BR SCT110 07/04 A2977 1220 86 500 110/09 RMK AO2 TSNO
94908KDBQ DBQ20060311050510803/11/06 05:05:31  5-MIN KDBQ 111105Z AUTO 12007KT 5SM BR SCT110 07/04 A2977 1210 86 500 110/07 RMK AO2 TSNO
94908KDBQ DBQ20060311051010803/11/06 05:10:31  5-MIN KDBQ 111110Z AUTO 11009KT 5SM BR FEW120 07/04 A2978 1210 86 500 110/09 RMK AO2 TSNO
94908KDBQ DBQ20060311051510803/11/06 05:15:31  5-MIN KDBQ 111115Z AUTO 12007KT 5SM HZ SCT110 07/04 A2977 1210 82 600 120/07 RMK AO2 TSNO
94908KDBQ DBQ20060311052010803/11/06 05:20:31  5-MIN KDBQ 111120Z AUTO 12009KT 5SM BR SCT110 07/04 A2978 1210 86 500 120/09 RMK AO2 TSNO
94908KDBQ DBQ20060311052510803/11/06 05:25:31  5-MIN KDBQ 111125Z AUTO 12009KT 5SM HZ FEW120 07/04 A2977 1220 82 600 120/09 RMK AO2 TSNO
94908KDBQ DBQ20060311053010803/11/06 05:30:31  5-MIN KDBQ 111130Z AUTO 13011KT 5SM BR FEW110 07/04 A2977 1220 86 500 130/11 RMK AO2 TSNO
94908KDBQ DBQ20060311053510803/11/06 05:35:31  5-MIN KDBQ 111135Z AUTO 13010KT 5SM BR FEW110 07/04 A2976 1220 86 600 130/10 RMK AO2 TSNO
94908KDBQ DBQ20060311054010803/11/06 05:40:31  5-MIN KDBQ 111140Z AUTO 13010KT 5SM BR FEW110 07/04 A2976 1220 86 600 130/10 RMK AO2 TSNO
94908KDBQ DBQ20060311054510503/11/06 05:45:31  5-MIN KDBQ 111145Z AUTO 13010KT 5SM BR CLR 07/04 A2976 1220 86 600 130/10 RMK AO2 TSNO
94908KDBQ DBQ20060311055014603/11/06 05:50:31  5-MIN KDBQ 111150Z AUTO 13009KT 5SM BR CLR 07/04 A2976 1220 86 600 120/09 RMK AO2 SLP084 60000 T00670044 10078 20067 56015 TSNO
94908KDBQ DBQ20060311055513603/11/06 05:55:31  5-MIN KDBQ 111155Z 12010KT 5SM BR CLR 07/04 A2976 1230 86 600 120/10 RMK AO2 SLP084 60000 T00670044 10078 20067 56017
94908KDBQ DBQ20060311060009503/11/06 06:00:31  5-MIN KDBQ 111200Z 12012KT 5SM BR CLR 07/04 A2976 1230 86 600 120/12 RMK AO2
94908KDBQ DBQ20060311060509503/11/06 06:05:31  5-MIN KDBQ 111205Z 13012KT 5SM BR CLR 07/04 A2976 1230 86 600 130/12 RMK AO2
94908KDBQ DBQ20060311061009503/11/06 06:10:31  5-MIN KDBQ 111210Z 13014KT 5SM BR CLR 07/04 A2976 1230 86 600 120/14 RMK AO2
94908KDBQ DBQ20060311061509503/11/06 06:15:31  5-MIN KDBQ 111215Z 13013KT 5SM BR CLR 07/04 A2976 1230 86 600 130/13 RMK AO2
94908KDBQ DBQ20060311062009503/11/06 06:20:31  5-MIN KDBQ 111220Z 14011KT 5SM BR CLR 07/04 A2976 1230 86 600 130/11 RMK AO2
94908KDBQ DBQ20060311062509503/11/06 06:25:31  5-MIN KDBQ 111225Z 14012KT 4SM BR CLR 06/04 A2976 1230 86 500 140/12 RMK AO2
94908KDBQ DBQ20060311063009503/11/06 06:30:31  5-MIN KDBQ 111230Z 13011KT 4SM BR CLR 07/04 A2975 1230 86 600 130/11 RMK AO2
94908KDBQ DBQ20060311063509503/11/06 06:35:31  5-MIN KDBQ 111235Z 13013KT 4SM BR CLR 07/04 A2975 1230 86 600 130/13 RMK AO2
94908KDBQ DBQ20060311064010403/11/06 06:40:31  5-MIN KDBQ 111240Z 13016G21KT 4SM BR FEW110 07/04 A2975 1230 86 600 130/16G21 RMK AO2
94908KDBQ DBQ20060311064510403/11/06 06:45:31  5-MIN KDBQ 111245Z 13014G21KT 4SM BR FEW110 07/04 A2975 1230 86 600 130/14G21 RMK AO2
94908KDBQ DBQ20060311065012103/11/06 06:50:31  5-MIN KDBQ 111250Z 13016G22KT 4SM BR FEW110 07/04 A2975 1240 86 600 130/16G22 RMK AO2 SLP079 T00670044
94908KDBQ DBQ20060311065511503/11/06 06:55:31  5-MIN KDBQ 111255Z 13016KT 4SM HZ FEW110 07/04 A2975 1240 82 600 130/16 RMK AO2 SLP079 T00720044
94908KDBQ DBQ20060311070010403/11/06 07:00:31  5-MIN KDBQ 111300Z 14017G22KT 4SM HZ FEW110 07/04 A2975 1240 82 600 140/17G22 RMK AO2
94908KDBQ DBQ20060311070510403/11/06 07:05:31  5-MIN KDBQ 111305Z 14017G22KT 4SM HZ FEW110 07/04 A2975 1240 82 600 140/17G22 RMK AO2
94908KDBQ DBQ20060311071010403/11/06 07:10:31  5-MIN KDBQ 111310Z 14018G23KT 5SM HZ FEW110 07/04 A2975 1230 82 600 140/18G23 RMK AO2
94908KDBQ DBQ20060311071510103/11/06 07:15:31  5-MIN KDBQ 111315Z 15018G24KT 5SM HZ CLR 07/04 A2975 1230 82 600 140/18G24 RMK AO2
94908KDBQ DBQ20060311072010103/11/06 07:20:31  5-MIN KDBQ 111320Z 15017G24KT 5SM HZ CLR 07/04 A2975 1230 82 600 140/17G24 RMK AO2
94908KDBQ DBQ20060311072509503/11/06 07:25:31  5-MIN KDBQ 111325Z 15017KT 5SM HZ CLR 07/04 A2975 1240 82 600 150/17 RMK AO2
94908KDBQ DBQ20060311073009503/11/06 07:30:31  5-MIN KDBQ 111330Z 15017KT 5SM HZ CLR 07/04 A2975 1240 82 600 150/17 RMK AO2
94908KDBQ DBQ20060311073509503/11/06 07:35:31  5-MIN KDBQ 111335Z 15017KT 5SM HZ CLR 07/04 A2975 1240 82 600 150/17 RMK AO2
94908KDBQ DBQ20060311074010103/11/06 07:40:31  5-MIN KDBQ 111340Z 15018G22KT 5SM HZ CLR 07/04 A2975 1240 82 600 150/18G22 RMK AO2
94908KDBQ DBQ20060311074510103/11/06 07:45:31  5-MIN KDBQ 111345Z 15017G22KT 5SM HZ CLR 08/04 A2975 1240 79 700 150/17G22 RMK AO2
94908KDBQ DBQ20060311075011203/11/06 07:50:31  5-MIN KDBQ 111350Z 15018KT 5SM HZ CLR 08/04 A2975 1240 79 700 150/18 RMK AO2 SLP079 T00780044
94908KDBQ DBQ20060311075511203/11/06 07:55:31  5-MIN KDBQ 111355Z 15015KT 5SM HZ CLR 08/04 A2975 1240 79 700 150/15 RMK AO2 SLP080 T00780044
94908KDBQ DBQ20060311080009803/11/06 08:00:31  5-MIN KDBQ 111400Z 15016KT 5SM HZ FEW110 08/05 A2975 1240 82 700 140/16 RMK AO2
94908KDBQ DBQ20060311080509803/11/06 08:05:31  5-MIN KDBQ 111405Z 15017KT 5SM HZ FEW110 08/05 A2975 1240 79 800 140/17 RMK AO2
94908KDBQ DBQ20060311081009503/11/06 08:10:31  5-MIN KDBQ 111410Z 15018KT 6SM HZ CLR 09/05 A2975 1240 76 800 150/18 RMK AO2
94908KDBQ DBQ20060311081510403/11/06 08:15:31  5-MIN KDBQ 111415Z 15016G22KT 6SM HZ FEW110 09/06 A2975 1240 76 900 150/16G22 RMK AO2
94908KDBQ DBQ20060311082010403/11/06 08:20:31  5-MIN KDBQ 111420Z 15017G22KT 6SM HZ FEW110 09/06 A2975 1240 76 900 150/17G22 RMK AO2
94908KDBQ DBQ20060311082509303/11/06 08:25:31  5-MIN KDBQ 111425Z 15019KT 7SM CLR 10/06 A2975 1240 74 1000 150/19 RMK AO2
94908KDBQ DBQ20060311083011703/11/06 08:30:31  5-MIN KDBQ 111430Z 15018G26KT 7SM CLR 10/06 A2975 1240 74 1000 150/18G26 RMK AO2 PK WND 15026/1426
94908KDBQ DBQ20060311083511703/11/06 08:35:31  5-MIN KDBQ 111435Z 16018G26KT 8SM CLR 11/06 A2975 1240 74 1000 160/18G26 RMK AO2 PK WND 15026/1426
94908KDBQ DBQ20060311084012003/11/06 08:40:31  5-MIN KDBQ 111440Z 16019G26KT 8SM FEW110 11/06 A2975 1240 71 1000 150/19G26 RMK AO2 PK WND 16026/1436
94908KDBQ DBQ20060311084512003/11/06 08:45:31  5-MIN KDBQ 111445Z 15018G26KT 8SM FEW110 11/06 A2974 1240 71 1000 150/18G26 RMK AO2 PK WND 16026/1436
94908KDBQ DBQ20060311085014303/11/06 08:50:31  5-MIN KDBQ 111450Z 15019G25KT 8SM FEW110 11/06 A2974 1240 74 1000 150/19G25 RMK AO2 PK WND 16026/1436 SLP077 T01060061 56017
94908KDBQ DBQ20060311085513703/11/06 08:55:31  5-MIN KDBQ 111455Z 15020KT 8SM FEW110 11/06 A2974 1240 74 1000 150/20 RMK AO2 PK WND 16026/1436 SLP076 T01060061 56006
94908KDBQ DBQ20060311090010203/11/06 09:00:31  5-MIN KDBQ 111500Z 16017G24KT 8SM FEW110 11/06 A2974 1250 74 1000 160/17G24 RMK AO2
94908KDBQ DBQ20060311090510203/11/06 09:05:31  5-MIN KDBQ 111505Z 16019G24KT 8SM FEW110 11/06 A2974 1240 74 1000 160/19G24 RMK AO2
94908KDBQ DBQ20060311091010203/11/06 09:10:31  5-MIN KDBQ 111510Z 16017G23KT 8SM FEW110 11/07 A2974 1240 74 1100 150/17G23 RMK AO2
94908KDBQ DBQ20060311091509603/11/06 09:15:31  5-MIN KDBQ 111515Z 16017KT 8SM FEW110 12/07 A2975 1240 71 1200 160/17 RMK AO2
94908KDBQ DBQ20060311092009303/11/06 09:20:31  5-MIN KDBQ 111520Z 16016KT 8SM CLR 12/07 A2974 1240 71 1200 160/16 RMK AO2
94908KDBQ DBQ20060311092509303/11/06 09:25:31  5-MIN KDBQ 111525Z 16018KT 8SM CLR 12/07 A2974 1240 71 1200 160/18 RMK AO2
94908KDBQ DBQ20060311093009903/11/06 09:30:31  5-MIN KDBQ 111530Z 16018G22KT 8SM CLR 12/07 A2974 1240 71 1200 160/18G22 RMK AO2
94908KDBQ DBQ20060311093509903/11/06 09:35:31  5-MIN KDBQ 111535Z 15017G22KT 8SM CLR 12/07 A2974 1240 68 1200 150/17G22 RMK AO2
94908KDBQ DBQ20060311094009903/11/06 09:40:31  5-MIN KDBQ 111540Z 16016G20KT 9SM CLR 12/07 A2974 1240 71 1200 160/16G20 RMK AO2
94908KDBQ DBQ20060311094509303/11/06 09:45:31  5-MIN KDBQ 111545Z 16018KT 9SM CLR 13/07 A2974 1240 69 1300 160/18 RMK AO2
94908KDBQ DBQ20060311095011003/11/06 09:50:31  5-MIN KDBQ 111550Z 17017KT 9SM CLR 13/07 A2975 1240 69 1300 160/17 RMK AO2 SLP076 T01280072
94908KDBQ DBQ20060311095511103/11/06 09:55:31  5-MIN KDBQ 111555Z 17016KT 10SM CLR 13/07 A2975 1240 66 1400 160/16 RMK AO2 SLP076 T01330072
94908KDBQ DBQ20060311100010003/11/06 10:00:31  5-MIN KDBQ 111600Z 16017G21KT 10SM CLR 13/07 A2975 1240 66 1400 160/17G21 RMK AO2
94908KDBQ DBQ20060311100510003/11/06 10:05:31  5-MIN KDBQ 111605Z 17016G21KT 10SM CLR 14/07 A2974 1240 64 1400 170/16G21 RMK AO2
94908KDBQ DBQ20060311101010003/11/06 10:10:31  5-MIN KDBQ 111610Z 16017G21KT 10SM CLR 14/08 A2974 1250 66 1400 160/17G21 RMK AO2
94908KDBQ DBQ20060311101509403/11/06 10:15:31  5-MIN KDBQ 111615Z 17017KT 10SM CLR 14/08 A2974 1250 66 1400 160/17 RMK AO2
94908KDBQ DBQ20060311102009403/11/06 10:20:31  5-MIN KDBQ 111620Z 17016KT 10SM CLR 14/08 A2974 1240 64 1500 170/16 RMK AO2
94908KDBQ DBQ20060311102509403/11/06 10:25:31  5-MIN KDBQ 111625Z 17018KT 10SM CLR 14/08 A2974 1240 64 1500 170/18 RMK AO2
94908KDBQ DBQ20060311103010003/11/06 10:30:31  5-MIN KDBQ 111630Z 16017G22KT 10SM CLR 15/08 A2974 1240 64 1600 160/17G22 RMK AO2
94908KDBQ DBQ20060311103510003/11/06 10:35:31  5-MIN KDBQ 111635Z 17019G22KT 10SM CLR 15/08 A2975 1240 64 1600 170/19G22 RMK AO2
94908KDBQ DBQ20060311104010003/11/06 10:40:31  5-MIN KDBQ 111640Z 17019G22KT 10SM CLR 15/08 A2975 1240 64 1600 170/19G22 RMK AO2
94908KDBQ DBQ20060311104509403/11/06 10:45:31  5-MIN KDBQ 111645Z 17019KT 10SM CLR 15/08 A2975 1240 64 1600 160/19 RMK AO2
94908KDBQ DBQ20060311105011703/11/06 10:50:31  5-MIN KDBQ 111650Z 16016G22KT 10SM CLR 15/09 A2975 1240 66 1600 160/16G22 RMK AO2 SLP077 T01500089
94908KDBQ DBQ20060311105511703/11/06 10:55:31  5-MIN KDBQ 111655Z 17018G23KT 10SM CLR 15/08 A2975 1240 64 1600 170/18G23 RMK AO2 SLP077 T01500083
94908KDBQ DBQ20060311110009403/11/06 11:00:31  5-MIN KDBQ 111700Z 16019KT 10SM CLR 15/09 A2975 1230 66 1600 150/19 RMK AO2
94908KDBQ DBQ20060311110510003/11/06 11:05:31  5-MIN KDBQ 111705Z 16017G22KT 10SM CLR 16/09 A2975 1240 64 1600 160/17G22 RMK AO2
94908KDBQ DBQ20060311111010003/11/06 11:10:31  5-MIN KDBQ 111710Z 17019G23KT 10SM CLR 16/09 A2975 1230 62 1700 160/19G23 RMK AO2
94908KDBQ DBQ20060311111510003/11/06 11:15:31  5-MIN KDBQ 111715Z 17019G24KT 10SM CLR 16/09 A2976 1230 64 1700 170/19G24 RMK AO2
94908KDBQ DBQ20060311112010003/11/06 11:20:31  5-MIN KDBQ 111720Z 16018G24KT 10SM CLR 16/09 A2975 1230 62 1700 160/18G24 RMK AO2
94908KDBQ DBQ20060311112509403/11/06 11:25:31  5-MIN KDBQ 111725Z 16018KT 10SM CLR 16/09 A2975 1230 64 1700 160/18 RMK AO2
94908KDBQ DBQ20060311113010003/11/06 11:30:31  5-MIN KDBQ 111730Z 16020G23KT 10SM CLR 16/09 A2976 1230 64 1700 160/20G23 RMK AO2
94908KDBQ DBQ20060311113510003/11/06 11:35:31  5-MIN KDBQ 111735Z 17018G23KT 10SM CLR 17/10 A2976 1230 64 1700 170/18G23 RMK AO2
94908KDBQ DBQ20060311114010003/11/06 11:40:31  5-MIN KDBQ 111740Z 18018G23KT 10SM CLR 17/10 A2975 1230 62 1800 180/18G23 RMK AO2
94908KDBQ DBQ20060311114510003/11/06 11:45:31  5-MIN KDBQ 111745Z 17020G24KT 10SM CLR 17/10 A2975 1240 62 1800 170/20G24 RMK AO2
94908KDBQ DBQ20060311115013503/11/06 11:50:31  5-MIN KDBQ 111750Z 17019G25KT 10SM CLR 18/10 A2975 1240 60 1900 170/19G25 RMK AO2 SLP074 T01780100 10178 20061 56006
94908KDBQ DBQ20060311115515303/11/06 11:55:31  5-MIN KDBQ 111755Z 17020G26KT 10SM CLR 18/10 A2974 1240 60 1900 170/20G26 RMK AO2 PK WND 18026/1755 SLP074 T01780100 10178 20061 50001
94908KDBQ DBQ20060311120010003/11/06 12:00:31  5-MIN KDBQ 111800Z 16016G26KT 10SM CLR 18/11 A2974 1240 62 1900 160/16G26 RMK AO2
94908KDBQ DBQ20060311120510003/11/06 12:05:31  5-MIN KDBQ 111805Z 16019G24KT 10SM CLR 18/11 A2974 1240 60 2000 160/19G24 RMK AO2
94908KDBQ DBQ20060311121010003/11/06 12:10:31  5-MIN KDBQ 111810Z 17018G24KT 10SM CLR 18/11 A2974 1250 60 2000 170/18G24 RMK AO2
94908KDBQ DBQ20060311121510003/11/06 12:15:31  5-MIN KDBQ 111815Z 18020G25KT 10SM CLR 19/11 A2974 1250 58 2000 180/20G25 RMK AO2
94908KDBQ DBQ20060311122009403/11/06 12:20:31  5-MIN KDBQ 111820Z 19022KT 10SM CLR 18/11 A2974 1250 60 2000 190/22 RMK AO2
94908KDBQ DBQ20060311122509403/11/06 12:25:31  5-MIN KDBQ 111825Z 18021KT 10SM CLR 18/11 A2973 1260 60 2000 180/21 RMK AO2
94908KDBQ DBQ20060311123010003/11/06 12:30:31  5-MIN KDBQ 111830Z 18019G25KT 10SM CLR 18/11 A2973 1250 60 2000 180/19G25 RMK AO2
94908KDBQ DBQ20060311123511803/11/06 12:35:31  5-MIN KDBQ 111835Z 17021G26KT 10SM CLR 18/11 A2973 1250 60 2000 170/21G26 RMK AO2 PK WND 17026/1832
94908KDBQ DBQ20060311124011803/11/06 12:40:31  5-MIN KDBQ 111840Z 19020G26KT 10SM CLR 18/11 A2973 1250 60 2000 190/20G26 RMK AO2 PK WND 17026/1832
94908KDBQ DBQ20060311124511803/11/06 12:45:31  5-MIN KDBQ 111845Z 19020G25KT 10SM CLR 19/11 A2974 1250 58 2000 190/20G25 RMK AO2 PK WND 17026/1832
94908KDBQ DBQ20060311125013503/11/06 12:50:31  5-MIN KDBQ 111850Z 19019G25KT 10SM CLR 18/11 A2973 1250 60 2000 190/19G25 RMK AO2 PK WND 17026/1832 SLP070 T01830106
94908KDBQ DBQ20060311125513503/11/06 12:55:31  5-MIN KDBQ 111855Z 18018G25KT 10SM CLR 19/11 A2972 1260 58 2000 180/18G25 RMK AO2 PK WND 17026/1832 SLP066 T01890106
94908KDBQ DBQ20060311130009403/11/06 13:00:31  5-MIN KDBQ 111900Z 19018KT 10SM CLR 18/11 A2973 1250 60 2000 190/18 RMK AO2
94908KDBQ DBQ20060311130511803/11/06 13:05:31  5-MIN KDBQ 111905Z 18018G26KT 10SM CLR 18/11 A2973 1250 60 2000 180/18G26 RMK AO2 PK WND 19026/1903
94908KDBQ DBQ20060311131011803/11/06 13:10:31  5-MIN KDBQ 111910Z 18020G26KT 10SM CLR 18/11 A2973 1250 62 1900 180/20G26 RMK AO2 PK WND 19026/1903
94908KDBQ DBQ20060311131511803/11/06 13:15:31  5-MIN KDBQ 111915Z 18021G25KT 10SM CLR 18/11 A2973 1250 62 1900 180/21G25 RMK AO2 PK WND 19026/1903
94908KDBQ DBQ20060311132011803/11/06 13:20:31  5-MIN KDBQ 111920Z 18018G25KT 10SM CLR 18/11 A2973 1260 62 2000 180/18G25 RMK AO2 PK WND 19026/1903
94908KDBQ DBQ20060311132511203/11/06 13:25:31  5-MIN KDBQ 111925Z 19021KT 10SM CLR 18/11 A2973 1260 62 2000 180/21 RMK AO2 PK WND 19026/1903
94908KDBQ DBQ20060311133011803/11/06 13:30:31  5-MIN KDBQ 111930Z 18019G23KT 10SM CLR 18/11 A2973 1250 64 1900 180/19G23 RMK AO2 PK WND 19026/1903
94908KDBQ DBQ20060311133511203/11/06 13:35:31  5-MIN KDBQ 111935Z 18018KT 10SM CLR 18/11 A2973 1250 62 2000 180/18 RMK AO2 PK WND 19026/1903
94908KDBQ DBQ20060311134011203/11/06 13:40:31  5-MIN KDBQ 111940Z 18016KT 10SM CLR 18/11 A2973 1260 62 2000 180/16 RMK AO2 PK WND 19026/1903
94908KDBQ DBQ20060311134511803/11/06 13:45:31  5-MIN KDBQ 111945Z 19020G24KT 10SM CLR 18/11 A2973 1250 62 2000 190/20G24 RMK AO2 PK WND 19026/1903
94908KDBQ DBQ20060311135013503/11/06 13:50:31  5-MIN KDBQ 111950Z 18018G24KT 10SM CLR 19/11 A2973 1250 60 2000 180/18G24 RMK AO2 PK WND 19026/1903 SLP069 T01890111
94908KDBQ DBQ20060311135512903/11/06 13:55:31  5-MIN KDBQ 111955Z 19017KT 10SM CLR 19/11 A2974 1250 60 2000 190/17 RMK AO2 PK WND 19026/1903 SLP070 T01890111
94908KDBQ DBQ20060311140009403/11/06 14:00:31  5-MIN KDBQ 112000Z 19019KT 10SM CLR 19/11 A2974 1250 60 2000 190/19 RMK AO2
94908KDBQ DBQ20060311140509403/11/06 14:05:31  5-MIN KDBQ 112005Z 19017KT 10SM CLR 19/12 A2974 1250 62 2000 190/17 RMK AO2
94908KDBQ DBQ20060311141010003/11/06 14:10:31  5-MIN KDBQ 112010Z 19018G23KT 10SM CLR 19/12 A2974 1240 60 2100 190/18G23 RMK AO2
94908KDBQ DBQ20060311141510303/11/06 14:15:31  5-MIN KDBQ 112015Z 19018G25KT 10SM FEW034 19/11 A2974 1250 60 2000 190/18G25 RMK AO2
94908KDBQ DBQ20060311142010303/11/06 14:20:31  5-MIN KDBQ 112020Z 19018G25KT 10SM FEW034 19/11 A2975 1240 58 2100 190/18G25 RMK AO2
94908KDBQ DBQ20060311142509703/11/06 14:25:31  5-MIN KDBQ 112025Z 20018KT 10SM FEW034 19/11 A2975 1230 58 2100 200/18 RMK AO2
94908KDBQ DBQ20060311143010403/11/06 14:30:31  5-MIN KDBQ 112030Z 20018KT 10SM FEW036 SCT047 19/11 A2976 1230 60 2000 200/18 RMK AO2
94908KDBQ DBQ20060311143510403/11/06 14:35:31  5-MIN KDBQ 112035Z 20016KT 10SM SCT036 BKN047 19/11 A2975 1230 60 2000 200/16 RMK AO2
94908KDBQ DBQ20060311144011003/11/06 14:40:31  5-MIN KDBQ 112040Z 20019G24KT 10SM FEW036 SCT045 19/11 A2975 1230 56 2100 200/19G24 RMK AO2
94908KDBQ DBQ20060311144510403/11/06 14:45:31  5-MIN KDBQ 112045Z 20021KT 10SM FEW041 SCT048 19/11 A2975 1230 56 2100 200/21 RMK AO2
94908KDBQ DBQ20060311145012603/11/06 14:50:31  5-MIN KDBQ 112050Z 21020G25KT 10SM FEW041 19/11 A2975 1230 56 2100 210/20G25 RMK AO2 SLP075 T01940106 50001
94908KDBQ DBQ20060311145512003/11/06 14:55:31  5-MIN KDBQ 112055Z 21017KT 10SM FEW041 19/11 A2975 1230 58 2000 210/17 RMK AO2 SLP076 T01890106 53003
94908KDBQ DBQ20060311150009703/11/06 15:00:31  5-MIN KDBQ 112100Z 21017KT 10SM FEW041 19/11 A2976 1230 56 2100 210/17 RMK AO2
94908KDBQ DBQ20060311150509403/11/06 15:05:31  5-MIN KDBQ 112105Z 20014KT 10SM CLR 19/11 A2976 1230 56 2100 200/14 RMK AO2
94908KDBQ DBQ20060311151010003/11/06 15:10:31  5-MIN KDBQ 112110Z 21019G22KT 10SM CLR 19/11 A2976 1230 58 2100 210/19G22 RMK AO2
94908KDBQ DBQ20060311151510003/11/06 15:15:31  5-MIN KDBQ 112115Z 22018G22KT 10SM CLR 19/11 A2976 1230 56 2100 220/18G22 RMK AO2
94908KDBQ DBQ20060311152009403/11/06 15:20:31  5-MIN KDBQ 112120Z 22016KT 10SM CLR 20/11 A2976 1230 54 2100 220/16 RMK AO2
94908KDBQ DBQ20060311152509403/11/06 15:25:31  5-MIN KDBQ 112125Z 22016KT 10SM CLR 19/11 A2976 1230 56 2100 220/16 RMK AO2
94908KDBQ DBQ20060311153009403/11/06 15:30:31  5-MIN KDBQ 112130Z 22014KT 10SM CLR 19/10 A2976 1230 54 2100 210/14 RMK AO2
94908KDBQ DBQ20060311153509403/11/06 15:35:31  5-MIN KDBQ 112135Z 20012KT 10SM CLR 19/11 A2976 1230 56 2100 200/12 RMK AO2
94908KDBQ DBQ20060311154009403/11/06 15:40:31  5-MIN KDBQ 112140Z 20014KT 10SM CLR 19/11 A2976 1230 56 2100 200/14 RMK AO2
94908KDBQ DBQ20060311154509403/11/06 15:45:31  5-MIN KDBQ 112145Z 21012KT 10SM CLR 19/10 A2976 1230 54 2100 210/12 RMK AO2
94908KDBQ DBQ20060311155011103/11/06 15:50:31  5-MIN KDBQ 112150Z 21010KT 10SM CLR 19/10 A2975 1230 56 2000 200/10 RMK AO2 SLP077 T01890100
94908KDBQ DBQ20060311155511103/11/06 15:55:31  5-MIN KDBQ 112155Z 22009KT 10SM CLR 19/11 A2976 1230 58 2000 220/09 RMK AO2 SLP079 T01890106
94908KDBQ DBQ20060311160009403/11/06 16:00:31  5-MIN KDBQ 112200Z 22008KT 10SM CLR 19/11 A2976 1220 58 2000 220/08 RMK AO2
94908KDBQ DBQ20060311160509403/11/06 16:05:31  5-MIN KDBQ 112205Z 22010KT 10SM CLR 19/11 A2976 1220 58 2000 220/10 RMK AO2
94908KDBQ DBQ20060311161009403/11/06 16:10:31  5-MIN KDBQ 112210Z 22009KT 10SM CLR 19/11 A2976 1220 58 2000 220/09 RMK AO2
94908KDBQ DBQ20060311161509403/11/06 16:15:31  5-MIN KDBQ 112215Z 23007KT 10SM CLR 19/11 A2977 1220 58 2000 230/07 RMK AO2
94908KDBQ DBQ20060311162009403/11/06 16:20:31  5-MIN KDBQ 112220Z 24007KT 10SM CLR 19/11 A2977 1220 60 2000 240/07 RMK AO2
94908KDBQ DBQ20060311162509403/11/06 16:25:31  5-MIN KDBQ 112225Z 24007KT 10SM CLR 19/11 A2977 1220 58 2000 240/07 RMK AO2
94908KDBQ DBQ20060311163009403/11/06 16:30:31  5-MIN KDBQ 112230Z 26007KT 10SM CLR 18/11 A2977 1220 62 1900 260/07 RMK AO2
94908KDBQ DBQ20060311163509403/11/06 16:35:31  5-MIN KDBQ 112235Z 27007KT 10SM CLR 18/11 A2977 1220 62 1900 260/07 RMK AO2
94908KDBQ DBQ20060311164009403/11/06 16:40:31  5-MIN KDBQ 112240Z 25006KT 10SM CLR 18/11 A2977 1210 62 1900 250/06 RMK AO2
94908KDBQ DBQ20060311164509403/11/06 16:45:31  5-MIN KDBQ 112245Z 27007KT 10SM CLR 18/11 A2977 1220 62 1900 270/07 RMK AO2
94908KDBQ DBQ20060311165011103/11/06 16:50:31  5-MIN KDBQ 112250Z 28009KT 10SM CLR 18/11 A2977 1220 60 1900 280/09 RMK AO2 SLP083 T01830106
94908KDBQ DBQ20060311165511103/11/06 16:55:31  5-MIN KDBQ 112255Z 28009KT 10SM CLR 18/10 A2977 1220 58 1900 280/09 RMK AO2 SLP083 T01830100
94908KDBQ DBQ20060311170009403/11/06 17:00:31  5-MIN KDBQ 112300Z 28007KT 10SM CLR 18/10 A2977 1220 60 1900 280/07 RMK AO2
94908KDBQ DBQ20060311170509403/11/06 17:05:31  5-MIN KDBQ 112305Z 28006KT 10SM CLR 18/10 A2976 1220 60 1900 280/06 RMK AO2
94908KDBQ DBQ20060311171009403/11/06 17:10:31  5-MIN KDBQ 112310Z 26005KT 10SM CLR 18/09 A2976 1220 58 1900 260/05 RMK AO2
94908KDBQ DBQ20060311171509403/11/06 17:15:31  5-MIN KDBQ 112315Z 28005KT 10SM CLR 17/09 A2976 1230 60 1800 280/05 RMK AO2
94908KDBQ DBQ20060311172009403/11/06 17:20:31  5-MIN KDBQ 112320Z 30006KT 10SM CLR 17/09 A2976 1230 60 1800 300/06 RMK AO2
94908KDBQ DBQ20060311172509403/11/06 17:25:31  5-MIN KDBQ 112325Z 29007KT 10SM CLR 17/09 A2977 1220 62 1700 290/07 RMK AO2
94908KDBQ DBQ20060311173009403/11/06 17:30:31  5-MIN KDBQ 112330Z 28008KT 10SM CLR 17/09 A2978 1210 62 1700 280/08 RMK AO2
94908KDBQ DBQ20060311173509403/11/06 17:35:31  5-MIN KDBQ 112335Z 29009KT 10SM CLR 17/09 A2978 1210 60 1700 290/09 RMK AO2
94908KDBQ DBQ20060311174009403/11/06 17:40:31  5-MIN KDBQ 112340Z 30011KT 10SM CLR 16/09 A2978 1210 62 1700 300/11 RMK AO2
94908KDBQ DBQ20060311174509403/11/06 17:45:31  5-MIN KDBQ 112345Z 31012KT 10SM CLR 16/09 A2979 1200 64 1600 310/12 RMK AO2
94908KDBQ DBQ20060311175012903/11/06 17:50:31  5-MIN KDBQ 112350Z 31011KT 10SM CLR 16/08 A2979 1200 62 1600 310/11 RMK AO2 SLP089 T01560083 10200 20156 53003
94908KDBQ DBQ20060311175512903/11/06 17:55:31  5-MIN KDBQ 112355Z 31010KT 10SM CLR 16/08 A2978 1200 62 1600 310/10 RMK AO2 SLP088 T01560083 10200 20156 53010
94908KDBQ DBQ20060311180009403/11/06 18:00:31  5-MIN KDBQ 120000Z 31013KT 10SM CLR 15/08 A2979 1200 64 1500 310/13 RMK AO2
94908KDBQ DBQ20060311180509403/11/06 18:05:31  5-MIN KDBQ 120005Z 31011KT 10SM CLR 14/08 A2979 1200 66 1500 310/11 RMK AO2
94908KDBQ DBQ20060311181009403/11/06 18:10:31  5-MIN KDBQ 120010Z 32010KT 10SM CLR 14/08 A2979 1200 66 1500 320/10 RMK AO2
94908KDBQ DBQ20060311181509403/11/06 18:15:31  5-MIN KDBQ 120015Z 33009KT 10SM CLR 14/08 A2979 1200 64 1500 330/09 RMK AO2
94908KDBQ DBQ20060311182009403/11/06 18:20:31  5-MIN KDBQ 120020Z 33009KT 10SM CLR 14/08 A2979 1200 66 1400 320/09 RMK AO2
94908KDBQ DBQ20060311182509403/11/06 18:25:31  5-MIN KDBQ 120025Z 32009KT 10SM CLR 14/08 A2980 1190 66 1400 320/09 RMK AO2
94908KDBQ DBQ20060311183009403/11/06 18:30:31  5-MIN KDBQ 120030Z 32008KT 10SM CLR 14/08 A2980 1190 66 1400 310/08 RMK AO2
94908KDBQ DBQ20060311183509403/11/06 18:35:31  5-MIN KDBQ 120035Z 30009KT 10SM CLR 14/08 A2981 1180 66 1400 300/09 RMK AO2
94908KDBQ DBQ20060311184010103/11/06 18:40:31  5-MIN KDBQ 120040Z 29006KT 10SM CLR 14/08 A2981 1180 66 1400 290/06 RMK AO2 PRESRR
94908KDBQ DBQ20060311184511103/11/06 18:45:31  5-MIN KDBQ 120045Z AUTO 30007KT 10SM CLR 13/08 A2982 1170 69 1300 300/07 RMK AO2 PRESRR TSNO
94908KDBQ DBQ20060311185012103/11/06 18:50:31  5-MIN KDBQ 120050Z AUTO 31006KT 10SM CLR 13/08 A2983 1170 69 1300 310/06 RMK AO2 SLP104 T01330078 TSNO
94908KDBQ DBQ20060311185512103/11/06 18:55:31  5-MIN KDBQ 120055Z AUTO 32006KT 10SM CLR 13/08 A2983 1160 69 1300 310/06 RMK AO2 SLP103 T01330078 TSNO
94908KDBQ DBQ20060311190010403/11/06 19:00:31  5-MIN KDBQ 120100Z AUTO 32004KT 10SM CLR 13/08 A2983 1160 71 1200 320/04 RMK AO2 TSNO
94908KDBQ DBQ20060311190510403/11/06 19:05:31  5-MIN KDBQ 120105Z AUTO 31005KT 10SM CLR 13/08 A2984 1160 71 1200 310/05 RMK AO2 TSNO
94908KDBQ DBQ20060311191010403/11/06 19:10:31  5-MIN KDBQ 120110Z AUTO 32005KT 10SM CLR 13/08 A2984 1150 71 1200 320/05 RMK AO2 TSNO
94908KDBQ DBQ20060311191510403/11/06 19:15:31  5-MIN KDBQ 120115Z AUTO 32005KT 10SM CLR 12/08 A2984 1150 74 1100 320/05 RMK AO2 TSNO
94908KDBQ DBQ20060311192010403/11/06 19:20:31  5-MIN KDBQ 120120Z AUTO 31006KT 10SM CLR 12/08 A2985 1140 74 1100 310/06 RMK AO2 TSNO
94908KDBQ DBQ20060311192510403/11/06 19:25:31  5-MIN KDBQ 120125Z AUTO 31005KT 10SM CLR 12/08 A2985 1140 74 1100 310/05 RMK AO2 TSNO
94908KDBQ DBQ20060311193010403/11/06 19:30:31  5-MIN KDBQ 120130Z AUTO 31005KT 10SM CLR 12/07 A2985 1150 71 1100 310/05 RMK AO2 TSNO
94908KDBQ DBQ20060311193510403/11/06 19:35:31  5-MIN KDBQ 120135Z AUTO 31008KT 10SM CLR 12/07 A2985 1150 71 1100 310/08 RMK AO2 TSNO
94908KDBQ DBQ20060311194010403/11/06 19:40:31  5-MIN KDBQ 120140Z AUTO 30008KT 10SM CLR 12/07 A2985 1150 71 1100 300/08 RMK AO2 TSNO
94908KDBQ DBQ20060311194510403/11/06 19:45:31  5-MIN KDBQ 120145Z AUTO 30006KT 10SM CLR 12/07 A2985 1140 74 1100 300/06 RMK AO2 TSNO
94908KDBQ DBQ20060311195012103/11/06 19:50:31  5-MIN KDBQ 120150Z AUTO 31008KT 10SM CLR 12/07 A2985 1140 74 1100 310/08 RMK AO2 SLP113 T01170072 TSNO
94908KDBQ DBQ20060311195512103/11/06 19:55:31  5-MIN KDBQ 120155Z AUTO 31008KT 10SM CLR 11/07 A2985 1140 77 1000 310/08 RMK AO2 SLP113 T01110072 TSNO
94908KDBQ DBQ20060311200010403/11/06 20:00:31  5-MIN KDBQ 120200Z AUTO 32008KT 10SM CLR 11/07 A2985 1140 77 1000 320/08 RMK AO2 TSNO
94908KDBQ DBQ20060311200510403/11/06 20:05:31  5-MIN KDBQ 120205Z AUTO 32009KT 10SM CLR 11/07 A2985 1140 77 1000 320/09 RMK AO2 TSNO
94908KDBQ DBQ20060311201011003/11/06 20:10:31  5-MIN KDBQ 120210Z AUTO 33014G18KT 10SM CLR 11/07 A2985 1140 77 1000 330/14G18 RMK AO2 TSNO
94908KDBQ DBQ20060311201510903/11/06 20:15:31  5-MIN KDBQ 120215Z AUTO 33012G18KT 9SM CLR 11/07 A2985 1140 77 1000 330/12G18 RMK AO2 TSNO
94908KDBQ DBQ20060311202010303/11/06 20:20:31  5-MIN KDBQ 120220Z AUTO 33009KT 9SM CLR 11/07 A2985 1140 77 1000 330/09 RMK AO2 TSNO
94908KDBQ DBQ20060311202510203/11/06 20:25:31  5-MIN KDBQ 120225Z AUTO 33012KT 9SM CLR 11/07 A2985 1140 80 900 330/12 RMK AO2 TSNO
94908KDBQ DBQ20060311203010303/11/06 20:30:31  5-MIN KDBQ 120230Z AUTO 33014KT 9SM CLR 12/07 A2986 1140 74 1000 330/14 RMK AO2 TSNO
94908KDBQ DBQ20060311203510303/11/06 20:35:31  5-MIN KDBQ 120235Z AUTO 33013KT 9SM CLR 11/07 A2986 1140 77 1000 330/13 RMK AO2 TSNO
94908KDBQ DBQ20060311204010303/11/06 20:40:31  5-MIN KDBQ 120240Z AUTO 33013KT 9SM CLR 11/07 A2986 1140 77 1000 330/13 RMK AO2 TSNO
94908KDBQ DBQ20060311204510803/11/06 20:45:31  5-MIN KDBQ 120245Z AUTO 33017G20KT 8SM CLR 11/07 A2986 1130 77 900 330/17G20 RMK AO2 TSNO
94908KDBQ DBQ20060311205013103/11/06 20:50:31  5-MIN KDBQ 120250Z AUTO 34014G20KT 8SM CLR 11/07 A2986 1130 77 900 340/14G20 RMK AO2 SLP115 T01060067 53010 TSNO
94908KDBQ DBQ20060311205513103/11/06 20:55:31  5-MIN KDBQ 120255Z AUTO 34015G21KT 8SM CLR 11/07 A2986 1130 77 900 340/15G21 RMK AO2 SLP116 T01060067 51026 TSNO
94908KDBQ DBQ20060311210010803/11/06 21:00:31  5-MIN KDBQ 120300Z AUTO 33016G21KT 8SM CLR 11/07 A2987 1130 77 900 330/16G21 RMK AO2 TSNO
94908KDBQ DBQ20060311210510203/11/06 21:05:31  5-MIN KDBQ 120305Z AUTO 34013KT 8SM CLR 11/07 A2987 1130 77 900 340/13 RMK AO2 TSNO
94908KDBQ DBQ20060311211010203/11/06 21:10:31  5-MIN KDBQ 120310Z AUTO 33015KT 8SM CLR 10/07 A2987 1120 80 800 330/15 RMK AO2 TSNO
94908KDBQ DBQ20060311211510203/11/06 21:15:31  5-MIN KDBQ 120315Z AUTO 35013KT 8SM CLR 10/07 A2988 1120 80 800 350/13 RMK AO2 TSNO
94908KDBQ DBQ20060311212010203/11/06 21:20:31  5-MIN KDBQ 120320Z AUTO 35013KT 8SM CLR 10/07 A2988 1120 80 800 350/13 RMK AO2 TSNO
94908KDBQ DBQ20060311212510203/11/06 21:25:31  5-MIN KDBQ 120325Z AUTO 35013KT 7SM CLR 10/07 A2988 1110 80 800 350/13 RMK AO2 TSNO
94908KDBQ DBQ20060311213010203/11/06 21:30:31  5-MIN KDBQ 120330Z AUTO 35013KT 7SM CLR 09/06 A2989 1110 79 700 350/13 RMK AO2 TSNO
94908KDBQ DBQ20060311213510203/11/06 21:35:31  5-MIN KDBQ 120335Z AUTO 35015KT 7SM CLR 09/06 A2989 1100 79 700 340/15 RMK AO2 TSNO
94908KDBQ DBQ20060311214010203/11/06 21:40:31  5-MIN KDBQ 120340Z AUTO 34016KT 7SM CLR 09/06 A2990 1100 83 700 340/16 RMK AO2 TSNO
94908KDBQ DBQ20060311214510203/11/06 21:45:31  5-MIN KDBQ 120345Z AUTO 34017KT 7SM CLR 08/06 A2990 1100 82 600 340/17 RMK AO2 TSNO
94908KDBQ DBQ20060311215011903/11/06 21:50:31  5-MIN KDBQ 120350Z AUTO 35017KT 7SM CLR 08/05 A2990 1100 79 600 350/17 RMK AO2 SLP128 T00830050 TSNO
94908KDBQ DBQ20060311215511903/11/06 21:55:31  5-MIN KDBQ 120355Z AUTO 34017KT 7SM CLR 08/05 A2991 1090 82 500 340/17 RMK AO2 SLP130 T00780050 TSNO
94908KDBQ DBQ20060311220010203/11/06 22:00:31  5-MIN KDBQ 120400Z AUTO 34014KT 7SM CLR 08/04 A2991 1090 79 500 340/14 RMK AO2 TSNO
94908KDBQ DBQ20060311220510203/11/06 22:05:31  5-MIN KDBQ 120405Z AUTO 34017KT 7SM CLR 08/04 A2991 1090 79 500 330/17 RMK AO2 TSNO
94908KDBQ DBQ20060311221010803/11/06 22:10:31  5-MIN KDBQ 120410Z AUTO 34020G24KT 8SM CLR 07/04 A2991 1080 79 400 330/20G24 RMK AO2 TSNO
94908KDBQ DBQ20060311221510803/11/06 22:15:31  5-MIN KDBQ 120415Z AUTO 34016G24KT 8SM CLR 07/04 A2992 1080 82 400 340/16G24 RMK AO2 TSNO
94908KDBQ DBQ20060311222010203/11/06 22:20:31  5-MIN KDBQ 120420Z AUTO 34015KT 9SM CLR 07/03 A2992 1080 79 400 340/15 RMK AO2 TSNO
94908KDBQ DBQ20060311222510203/11/06 22:25:31  5-MIN KDBQ 120425Z AUTO 34016KT 9SM CLR 06/03 A2992 1080 82 300 340/16 RMK AO2 TSNO
94908KDBQ DBQ20060311223010203/11/06 22:30:31  5-MIN KDBQ 120430Z AUTO 34016KT 9SM CLR 06/03 A2992 1080 79 300 340/16 RMK AO2 TSNO
94908KDBQ DBQ20060311223510203/11/06 22:35:31  5-MIN KDBQ 120435Z AUTO 34017KT 9SM CLR 06/03 A2993 1070 82 200 340/17 RMK AO2 TSNO
94908KDBQ DBQ20060311224010203/11/06 22:40:31  5-MIN KDBQ 120440Z AUTO 34017KT 9SM CLR 06/02 A2993 1070 79 200 340/17 RMK AO2 TSNO
94908KDBQ DBQ20060311224510303/11/06 22:45:31  5-MIN KDBQ 120445Z AUTO 34016KT 10SM CLR 06/02 A2993 1070 79 200 340/16 RMK AO2 TSNO
94908KDBQ DBQ20060311225012003/11/06 22:50:31  5-MIN KDBQ 120450Z AUTO 34014KT 10SM CLR 05/02 A2993 1070 82 200 340/14 RMK AO2 SLP141 T00500022 TSNO
94908KDBQ DBQ20060311225512003/11/06 22:55:31  5-MIN KDBQ 120455Z AUTO 34018KT 10SM CLR 05/02 A2994 1060 79 200 330/18 RMK AO2 SLP141 T00500017 TSNO
94908KDBQ DBQ20060311230010303/11/06 23:00:31  5-MIN KDBQ 120500Z AUTO 34017KT 10SM CLR 04/02 A2994 1060 82 100 330/17 RMK AO2 TSNO
94908KDBQ DBQ20060311230510303/11/06 23:05:31  5-MIN KDBQ 120505Z AUTO 34021KT 10SM CLR 04/02 A2994 1060 82 100 340/21 RMK AO2 TSNO
94908KDBQ DBQ20060311231010103/11/06 23:10:31  5-MIN KDBQ 120510Z AUTO 34019KT 10SM CLR 04/01 A2994 1060 82 0 340/19 RMK AO2 TSNO
94908KDBQ DBQ20060311231510103/11/06 23:15:31  5-MIN KDBQ 120515Z AUTO 34019KT 10SM CLR 04/01 A2994 1060 82 0 340/19 RMK AO2 TSNO
94908KDBQ DBQ20060311232010103/11/06 23:20:31  5-MIN KDBQ 120520Z AUTO 34017KT 10SM CLR 04/01 A2995 1050 82 0 340/17 RMK AO2 TSNO
94908KDBQ DBQ20060311232510103/11/06 23:25:31  5-MIN KDBQ 120525Z AUTO 35017KT 10SM CLR 03/01 A2995 1050 82 0 350/17 RMK AO2 TSNO
94908KDBQ DBQ20060311233010103/11/06 23:30:31  5-MIN KDBQ 120530Z AUTO 35016KT 10SM CLR 03/01 A2996 1050 82 0 350/16 RMK AO2 TSNO
94908KDBQ DBQ20060311233510703/11/06 23:35:31  5-MIN KDBQ 120535Z AUTO 35014G21KT 10SM CLR 03/01 A2995 1050 82 0 350/14G21 RMK AO2 TSNO
94908KDBQ DBQ20060311234010403/11/06 23:40:31  5-MIN KDBQ 120540Z AUTO 36014KT 10SM CLR 03/01 A2996 1040 85 -100 360/14 RMK AO2 TSNO
94908KDBQ DBQ20060311234510403/11/06 23:45:31  5-MIN KDBQ 120545Z AUTO 36014KT 10SM CLR 03/01 A2996 1040 85 -100 360/14 RMK AO2 TSNO
94908KDBQ DBQ20060311235014903/11/06 23:50:31  5-MIN KDBQ 120550Z AUTO 01012KT 10SM CLR 03/00 A2997 1040 82 -100 010/12 RMK AO2 SLP150 T00280000 10150 20028 402000028 51026 TSNO
94908KDBQ DBQ20060311235514903/11/06 23:55:31  5-MIN KDBQ 120555Z AUTO 02011KT 10SM CLR 03/00 A2997 1040 82 -100 020/11 RMK AO2 SLP150 T00280000 10150 20028 402000028 51034 TSNO
94908KDBQ DBQ20060312000010403/12/06 00:00:38  5-MIN KDBQ 120600Z AUTO 02011KT 10SM CLR 03/00 A2997 1040 82 -100 010/11 RMK AO2 TSNO
94908KDBQ DBQ20060312000510403/12/06 00:05:31  5-MIN KDBQ 120605Z AUTO 02010KT 10SM CLR 03/00 A2997 1030 82 -100 020/10 RMK AO2 TSNO
94908KDBQ DBQ20060312001010403/12/06 00:10:31  5-MIN KDBQ 120610Z AUTO 02009KT 10SM CLR 03/00 A2997 1030 82 -100 020/09 RMK AO2 TSNO
94908KDBQ DBQ20060312001510503/12/06 00:15:31  5-MIN KDBQ 120615Z AUTO 02010KT 10SM CLR 03/M01 A2997 1030 79 -100 010/10 RMK AO2 TSNO
94908KDBQ DBQ20060312002010503/12/06 00:20:31  5-MIN KDBQ 120620Z AUTO 03011KT 10SM CLR 03/M01 A2997 1030 79 -100 030/11 RMK AO2 TSNO
94908KDBQ DBQ20060312002510503/12/06 00:25:31  5-MIN KDBQ 120625Z AUTO 02008KT 10SM CLR 03/M01 A2998 1030 79 -100 020/08 RMK AO2 TSNO
94908KDBQ DBQ20060312003010503/12/06 00:30:31  5-MIN KDBQ 120630Z AUTO 04009KT 10SM CLR 02/M01 A2997 1030 82 -200 040/09 RMK AO2 TSNO
94908KDBQ DBQ20060312003510503/12/06 00:35:31  5-MIN KDBQ 120635Z AUTO 03012KT 10SM CLR 02/M01 A2997 1030 82 -200 030/12 RMK AO2 TSNO
94908KDBQ DBQ20060312004010503/12/06 00:40:31  5-MIN KDBQ 120640Z AUTO 03011KT 10SM CLR 02/M01 A2997 1030 82 -200 030/11 RMK AO2 TSNO
94908KDBQ DBQ20060312004510503/12/06 00:45:31  5-MIN KDBQ 120645Z AUTO 02012KT 10SM CLR 02/M01 A2997 1030 82 -200 020/12 RMK AO2 TSNO
94908KDBQ DBQ20060312005012203/12/06 00:50:31  5-MIN KDBQ 120650Z AUTO 02012KT 10SM CLR 02/M01 A2997 1030 78 -200 020/12 RMK AO2 SLP153 T00221011 TSNO
94908KDBQ DBQ20060312005512203/12/06 00:55:31  5-MIN KDBQ 120655Z AUTO 03013KT 10SM CLR 02/M01 A2997 1030 78 -200 030/13 RMK AO2 SLP153 T00221011 TSNO
94908KDBQ DBQ20060312010010503/12/06 01:00:31  5-MIN KDBQ 120700Z AUTO 02012KT 10SM CLR 02/M01 A2998 1030 78 -200 020/12 RMK AO2 TSNO
94908KDBQ DBQ20060312010510503/12/06 01:05:31  5-MIN KDBQ 120705Z AUTO 02012KT 10SM CLR 02/M01 A2998 1020 78 -200 020/12 RMK AO2 TSNO
94908KDBQ DBQ20060312011010503/12/06 01:10:31  5-MIN KDBQ 120710Z AUTO 02012KT 10SM CLR 02/M01 A2998 1020 78 -200 020/12 RMK AO2 TSNO
94908KDBQ DBQ20060312011510503/12/06 01:15:31  5-MIN KDBQ 120715Z AUTO 02012KT 10SM CLR 02/M01 A2998 1020 82 -300 020/12 RMK AO2 TSNO
94908KDBQ DBQ20060312012010503/12/06 01:20:31  5-MIN KDBQ 120720Z AUTO 02013KT 10SM CLR 02/M01 A2998 1020 82 -300 020/13 RMK AO2 TSNO
94908KDBQ DBQ20060312012510503/12/06 01:25:31  5-MIN KDBQ 120725Z AUTO 02013KT 10SM CLR 02/M01 A2998 1020 82 -300 020/13 RMK AO2 TSNO
94908KDBQ DBQ20060312013010503/12/06 01:30:31  5-MIN KDBQ 120730Z AUTO 02014KT 10SM CLR 02/M01 A2998 1020 82 -300 020/14 RMK AO2 TSNO
94908KDBQ DBQ20060312013511103/12/06 01:35:31  5-MIN KDBQ 120735Z AUTO 02015G20KT 10SM CLR 02/M01 A2998 1020 82 -300 020/15G20 RMK AO2 TSNO
94908KDBQ DBQ20060312014011103/12/06 01:40:31  5-MIN KDBQ 120740Z AUTO 02016G20KT 10SM CLR 02/M01 A2998 1020 82 -300 020/16G20 RMK AO2 TSNO
94908KDBQ DBQ20060312014510503/12/06 01:45:31  5-MIN KDBQ 120745Z AUTO 02014KT 10SM CLR 02/M01 A2998 1020 82 -300 020/14 RMK AO2 TSNO
94908KDBQ DBQ20060312015012203/12/06 01:50:31  5-MIN KDBQ 120750Z AUTO 02015KT 10SM CLR 02/M01 A2999 1020 82 -300 020/15 RMK AO2 SLP158 T00171011 TSNO
94908KDBQ DBQ20060312015512203/12/06 01:55:31  5-MIN KDBQ 120755Z AUTO 02015KT 10SM CLR 02/M01 A2999 1010 82 -300 020/15 RMK AO2 SLP159 T00171011 TSNO
94908KDBQ DBQ20060312020010503/12/06 02:00:31  5-MIN KDBQ 120800Z AUTO 02014KT 10SM CLR 02/M01 A2999 1020 82 -300 020/14 RMK AO2 TSNO
94908KDBQ DBQ20060312020510503/12/06 02:05:31  5-MIN KDBQ 120805Z AUTO 02013KT 10SM CLR 02/M02 A2999 1020 78 -300 020/13 RMK AO2 TSNO
94908KDBQ DBQ20060312021010503/12/06 02:10:31  5-MIN KDBQ 120810Z AUTO 02015KT 10SM CLR 02/M02 A2998 1020 78 -300 020/15 RMK AO2 TSNO
94908KDBQ DBQ20060312021510503/12/06 02:15:31  5-MIN KDBQ 120815Z AUTO 02014KT 10SM CLR 02/M02 A2998 1020 78 -300 020/14 RMK AO2 TSNO
94908KDBQ DBQ20060312022010503/12/06 02:20:31  5-MIN KDBQ 120820Z AUTO 02014KT 10SM CLR 02/M02 A2998 1030 78 -300 020/14 RMK AO2 TSNO
94908KDBQ DBQ20060312022510503/12/06 02:25:31  5-MIN KDBQ 120825Z AUTO 02015KT 10SM CLR 02/M02 A2998 1020 78 -300 020/15 RMK AO2 TSNO
94908KDBQ DBQ20060312023010503/12/06 02:30:31  5-MIN KDBQ 120830Z AUTO 02015KT 10SM CLR 02/M02 A2998 1030 78 -300 020/15 RMK AO2 TSNO
94908KDBQ DBQ20060312023510503/12/06 02:35:31  5-MIN KDBQ 120835Z AUTO 02016KT 10SM CLR 01/M02 A2998 1030 82 -300 020/16 RMK AO2 TSNO
94908KDBQ DBQ20060312024010503/12/06 02:40:31  5-MIN KDBQ 120840Z AUTO 02016KT 10SM CLR 01/M02 A2998 1030 82 -300 020/16 RMK AO2 TSNO
94908KDBQ DBQ20060312024510503/12/06 02:45:31  5-MIN KDBQ 120845Z AUTO 02015KT 10SM CLR 01/M02 A2998 1030 82 -300 020/15 RMK AO2 TSNO
94908KDBQ DBQ20060312025012803/12/06 02:50:31  5-MIN KDBQ 120850Z AUTO 02014KT 10SM CLR 01/M02 A2998 1030 82 -300 020/14 RMK AO2 SLP153 T00111017 51034 TSNO
94908KDBQ DBQ20060312025512803/12/06 02:55:31  5-MIN KDBQ 120855Z AUTO 02014KT 10SM CLR 01/M02 A2997 1030 82 -300 020/14 RMK AO2 SLP154 T00111017 50002 TSNO
94908KDBQ DBQ20060312030010503/12/06 03:00:31  5-MIN KDBQ 120900Z AUTO 02014KT 10SM CLR 01/M02 A2997 1030 82 -300 020/14 RMK AO2 TSNO
94908KDBQ DBQ20060312030510503/12/06 03:05:31  5-MIN KDBQ 120905Z AUTO 02015KT 10SM CLR 01/M02 A2997 1030 82 -300 020/15 RMK AO2 TSNO
94908KDBQ DBQ20060312031010503/12/06 03:10:31  5-MIN KDBQ 120910Z AUTO 02014KT 10SM CLR 01/M02 A2997 1040 82 -300 020/14 RMK AO2 TSNO
94908KDBQ DBQ20060312031510503/12/06 03:15:31  5-MIN KDBQ 120915Z AUTO 03014KT 10SM CLR 01/M02 A2996 1040 82 -300 030/14 RMK AO2 TSNO
94908KDBQ DBQ20060312032010503/12/06 03:20:31  5-MIN KDBQ 120920Z AUTO 03012KT 10SM CLR 01/M02 A2996 1040 82 -300 030/12 RMK AO2 TSNO
94908KDBQ DBQ20060312032510503/12/06 03:25:31  5-MIN KDBQ 120925Z AUTO 03013KT 10SM CLR 01/M02 A2996 1040 82 -300 030/13 RMK AO2 TSNO
94908KDBQ DBQ20060312033010503/12/06 03:30:31  5-MIN KDBQ 120930Z AUTO 03012KT 10SM CLR 01/M02 A2997 1040 85 -400 030/12 RMK AO2 TSNO
94908KDBQ DBQ20060312033510503/12/06 03:35:31  5-MIN KDBQ 120935Z AUTO 03013KT 10SM CLR 01/M02 A2997 1040 85 -400 030/13 RMK AO2 TSNO
94908KDBQ DBQ20060312034010503/12/06 03:40:31  5-MIN KDBQ 120940Z AUTO 03013KT 10SM CLR 01/M02 A2997 1040 85 -400 030/13 RMK AO2 TSNO
94908KDBQ DBQ20060312034510503/12/06 03:45:31  5-MIN KDBQ 120945Z AUTO 03011KT 10SM CLR 01/M02 A2997 1030 85 -400 030/11 RMK AO2 TSNO
94908KDBQ DBQ20060312035012203/12/06 03:50:31  5-MIN KDBQ 120950Z AUTO 03012KT 10SM CLR 01/M02 A2998 1030 85 -400 030/12 RMK AO2 SLP155 T00061017 TSNO
94908KDBQ DBQ20060312035512203/12/06 03:55:31  5-MIN KDBQ 120955Z AUTO 02013KT 10SM CLR 01/M02 A2998 1030 85 -400 020/13 RMK AO2 SLP155 T00061017 TSNO
94908KDBQ DBQ20060312040010503/12/06 04:00:31  5-MIN KDBQ 121000Z AUTO 02013KT 10SM CLR 01/M02 A2998 1020 85 -400 020/13 RMK AO2 TSNO
94908KDBQ DBQ20060312040510503/12/06 04:05:31  5-MIN KDBQ 121005Z AUTO 02013KT 10SM CLR 01/M02 A2998 1020 85 -400 020/13 RMK AO2 TSNO
94908KDBQ DBQ20060312041010503/12/06 04:10:31  5-MIN KDBQ 121010Z AUTO 02013KT 10SM CLR 01/M02 A2999 1020 82 -400 020/13 RMK AO2 TSNO
94908KDBQ DBQ20060312041510503/12/06 04:15:31  5-MIN KDBQ 121015Z AUTO 02013KT 10SM CLR 01/M02 A2999 1020 78 -300 020/13 RMK AO2 TSNO
94908KDBQ DBQ20060312042010503/12/06 04:20:31  5-MIN KDBQ 121020Z AUTO 02014KT 10SM CLR 01/M02 A2998 1020 78 -300 020/14 RMK AO2 TSNO
94908KDBQ DBQ20060312042510503/12/06 04:25:31  5-MIN KDBQ 121025Z AUTO 02014KT 10SM CLR 01/M02 A2998 1020 82 -400 020/14 RMK AO2 TSNO
94908KDBQ DBQ20060312043010503/12/06 04:30:31  5-MIN KDBQ 121030Z AUTO 03015KT 10SM CLR 01/M02 A2999 1020 82 -400 020/15 RMK AO2 TSNO
94908KDBQ DBQ20060312043510503/12/06 04:35:31  5-MIN KDBQ 121035Z AUTO 03014KT 10SM CLR 01/M02 A2999 1020 82 -400 020/14 RMK AO2 TSNO
94908KDBQ DBQ20060312044010503/12/06 04:40:31  5-MIN KDBQ 121040Z AUTO 02013KT 10SM CLR 01/M02 A2999 1010 82 -400 020/13 RMK AO2 TSNO
94908KDBQ DBQ20060312044510503/12/06 04:45:31  5-MIN KDBQ 121045Z AUTO 02014KT 10SM CLR 01/M02 A2999 1010 82 -400 020/14 RMK AO2 TSNO
94908KDBQ DBQ20060312045012903/12/06 04:50:31  5-MIN KDBQ 121050Z AUTO 02012KT 10SM CLR 01/M02 A3001 1000 82 -400 020/12 RMK AO2 PRESRR SLP165 T00061022 TSNO
94908KDBQ DBQ20060312045512203/12/06 04:55:31  5-MIN KDBQ 121055Z AUTO 02013KT 10SM CLR 01/M02 A3001 1000 82 -400 020/13 RMK AO2 SLP165 T00061022 TSNO
94908KDBQ DBQ20060312050010503/12/06 05:00:31  5-MIN KDBQ 121100Z AUTO 02013KT 10SM CLR 01/M02 A3001 1000 82 -400 020/13 RMK AO2 TSNO
94908KDBQ DBQ20060312050510503/12/06 05:05:31  5-MIN KDBQ 121105Z AUTO 03012KT 10SM CLR 01/M02 A3001 1000 82 -400 030/12 RMK AO2 TSNO
94908KDBQ DBQ20060312051010503/12/06 05:10:31  5-MIN KDBQ 121110Z AUTO 03012KT 10SM CLR 01/M02 A3001 1000 82 -400 030/12 RMK AO2 TSNO
94908KDBQ DBQ20060312051510503/12/06 05:15:31  5-MIN KDBQ 121115Z AUTO 03013KT 10SM CLR 00/M02 A3001 1000 85 -500 020/13 RMK AO2 TSNO
94908KDBQ DBQ20060312052010503/12/06 05:20:31  5-MIN KDBQ 121120Z AUTO 03012KT 10SM CLR 01/M02 A3001 1000 82 -400 030/12 RMK AO2 TSNO
94908KDBQ DBQ20060312052510503/12/06 05:25:31  5-MIN KDBQ 121125Z AUTO 03011KT 10SM CLR 00/M02 A3001 1000 85 -500 030/11 RMK AO2 TSNO
94908KDBQ DBQ20060312053010503/12/06 05:30:31  5-MIN KDBQ 121130Z AUTO 03013KT 10SM CLR 00/M02 A3001 1000 85 -500 030/13 RMK AO2 TSNO
94908KDBQ DBQ20060312053510503/12/06 05:35:31  5-MIN KDBQ 121135Z AUTO 03012KT 10SM CLR 00/M02 A3000 1000 85 -500 030/12 RMK AO2 TSNO
94908KDBQ DBQ20060312054010503/12/06 05:40:31  5-MIN KDBQ 121140Z AUTO 03013KT 10SM CLR 00/M02 A3000 1010 85 -500 030/13 RMK AO2 TSNO
94908KDBQ DBQ20060312054510403/12/06 05:45:31  5-MIN KDBQ 121145Z AUTO 03013KT 9SM CLR 00/M02 A3000 1000 85 -500 030/13 RMK AO2 TSNO
94908KDBQ DBQ20060312055012903/12/06 05:50:31  5-MIN KDBQ 121150Z 03015KT 9SM CLR 00/M02 A3000 1010 85 -500 030/15 RMK AO2 SLP163 T00001022 10028 20000 50002
94908KDBQ DBQ20060312055512903/12/06 05:55:31  5-MIN KDBQ 121155Z 03015KT 9SM CLR 00/M02 A3000 1010 85 -500 030/15 RMK AO2 SLP164 T00001022 10028 20000 50008
94908KDBQ DBQ20060312060009403/12/06 06:00:31  5-MIN KDBQ 121200Z 03014KT 9SM CLR 00/M02 A3000 1000 85 -500 030/14 RMK AO2
94908KDBQ DBQ20060312060509503/12/06 06:05:31  5-MIN KDBQ 121205Z 03015KT 10SM CLR 00/M02 A3000 1010 85 -500 030/15 RMK AO2
94908KDBQ DBQ20060312061009503/12/06 06:10:31  5-MIN KDBQ 121210Z 03014KT 10SM CLR 00/M02 A2999 1010 85 -500 030/14 RMK AO2
94908KDBQ DBQ20060312061509503/12/06 06:15:31  5-MIN KDBQ 121215Z 03014KT 10SM CLR 00/M02 A2999 1010 85 -500 030/14 RMK AO2
94908KDBQ DBQ20060312062009503/12/06 06:20:31  5-MIN KDBQ 121220Z 04012KT 9SM CLR M01/M02 A3000 1010 88 -600 030/12 RMK AO2
94908KDBQ DBQ20060312062509503/12/06 06:25:31  5-MIN KDBQ 121225Z 04013KT 8SM CLR M01/M02 A3000 1010 88 -600 030/13 RMK AO2
94908KDBQ DBQ20060312063009503/12/06 06:30:31  5-MIN KDBQ 121230Z 04013KT 8SM CLR M01/M02 A2999 1010 88 -600 040/13 RMK AO2
94908KDBQ DBQ20060312063509503/12/06 06:35:31  5-MIN KDBQ 121235Z 04013KT 8SM CLR M01/M02 A2999 1020 88 -500 040/13 RMK AO2
94908KDBQ DBQ20060312064009403/12/06 06:40:31  5-MIN KDBQ 121240Z 04012KT 9SM CLR 00/M02 A3000 1010 85 -500 040/12 RMK AO2
94908KDBQ DBQ20060312064509403/12/06 06:45:31  5-MIN KDBQ 121245Z 04011KT 9SM CLR 00/M03 A3001 1000 81 -500 040/11 RMK AO2
94908KDBQ DBQ20060312065011203/12/06 06:50:31  5-MIN KDBQ 121250Z 04010KT 10SM CLR 00/M03 A3000 1000 81 -500 040/10 RMK AO2 SLP167 T00001028
94908KDBQ DBQ20060312065511203/12/06 06:55:31  5-MIN KDBQ 121255Z 05010KT 10SM CLR 00/M03 A3001 1000 81 -500 040/10 RMK AO2 SLP168 T00001028
94908KDBQ DBQ20060312070009503/12/06 07:00:31  5-MIN KDBQ 121300Z 04010KT 10SM CLR 00/M03 A3001 1000 81 -500 040/10 RMK AO2
94908KDBQ DBQ20060312070509503/12/06 07:05:31  5-MIN KDBQ 121305Z 04011KT 10SM CLR 01/M03 A3001 1000 78 -400 040/11 RMK AO2
94908KDBQ DBQ20060312071009503/12/06 07:10:31  5-MIN KDBQ 121310Z 04011KT 10SM CLR 01/M02 A3000 1000 82 -400 040/11 RMK AO2
94908KDBQ DBQ20060312071509503/12/06 07:15:31  5-MIN KDBQ 121315Z 04011KT 10SM CLR 01/M02 A3000 1000 82 -400 040/11 RMK AO2
94908KDBQ DBQ20060312072009503/12/06 07:20:31  5-MIN KDBQ 121320Z 05011KT 10SM CLR 01/M02 A3001 1000 82 -400 050/11 RMK AO2
94908KDBQ DBQ20060312072509403/12/06 07:25:31  5-MIN KDBQ 121325Z 04012KT 10SM CLR 01/M02 A3001 990 82 -400 040/12 RMK AO2
94908KDBQ DBQ20060312073009503/12/06 07:30:31  5-MIN KDBQ 121330Z 04013KT 10SM CLR 01/M03 A3001 1000 75 -400 040/13 RMK AO2
94908KDBQ DBQ20060312073509503/12/06 07:35:31  5-MIN KDBQ 121335Z 04012KT 10SM CLR 01/M02 A3001 1000 78 -400 030/12 RMK AO2
94908KDBQ DBQ20060312074009503/12/06 07:40:31  5-MIN KDBQ 121340Z 03013KT 10SM CLR 01/M02 A3001 1000 82 -400 030/13 RMK AO2
94908KDBQ DBQ20060312074509403/12/06 07:45:31  5-MIN KDBQ 121345Z 03012KT 10SM CLR 01/M02 A3001 990 78 -400 030/12 RMK AO2
94908KDBQ DBQ20060312075011103/12/06 07:50:31  5-MIN KDBQ 121350Z 04012KT 10SM CLR 01/M02 A3002 990 78 -400 040/12 RMK AO2 SLP172 T00111022
94908KDBQ DBQ20060312075511103/12/06 07:55:31  5-MIN KDBQ 121355Z 03013KT 10SM CLR 01/M02 A3002 980 78 -400 030/13 RMK AO2 SLP173 T00111022
94908KDBQ DBQ20060312080009403/12/06 08:00:31  5-MIN KDBQ 121400Z 04014KT 10SM CLR 02/M02 A3002 980 75 -300 030/14 RMK AO2
94908KDBQ DBQ20060312080509403/12/06 08:05:31  5-MIN KDBQ 121405Z 03013KT 10SM CLR 02/M02 A3002 980 75 -300 030/13 RMK AO2
94908KDBQ DBQ20060312081009403/12/06 08:10:31  5-MIN KDBQ 121410Z 03014KT 10SM CLR 02/M03 A3002 990 72 -300 030/14 RMK AO2
94908KDBQ DBQ20060312081509403/12/06 08:15:31  5-MIN KDBQ 121415Z 03013KT 10SM CLR 02/M03 A3002 980 72 -300 030/13 RMK AO2
94908KDBQ DBQ20060312082009403/12/06 08:20:31  5-MIN KDBQ 121420Z 04013KT 10SM CLR 02/M02 A3003 980 72 -200 040/13 RMK AO2
94908KDBQ DBQ20060312082509403/12/06 08:25:31  5-MIN KDBQ 121425Z 04014KT 10SM CLR 02/M02 A3003 980 72 -200 040/14 RMK AO2
94908KDBQ DBQ20060312083009403/12/06 08:30:31  5-MIN KDBQ 121430Z 04014KT 10SM CLR 02/M03 A3002 990 69 -200 040/14 RMK AO2
94908KDBQ DBQ20060312083509403/12/06 08:35:31  5-MIN KDBQ 121435Z 04013KT 10SM CLR 03/M03 A3002 980 67 -200 030/13 RMK AO2
94908KDBQ DBQ20060312084009403/12/06 08:40:31  5-MIN KDBQ 121440Z 03014KT 10SM CLR 03/M02 A3003 980 69 -200 030/14 RMK AO2
94908KDBQ DBQ20060312084509403/12/06 08:45:31  5-MIN KDBQ 121445Z 03015KT 10SM CLR 03/M03 A3002 980 67 -200 030/15 RMK AO2
94908KDBQ DBQ20060312085011703/12/06 08:50:31  5-MIN KDBQ 121450Z 04016KT 10SM CLR 03/M03 A3002 980 67 -200 040/16 RMK AO2 SLP174 T00281028 50008
94908KDBQ DBQ20060312085511703/12/06 08:55:31  5-MIN KDBQ 121455Z 05015KT 10SM CLR 03/M03 A3002 990 64 -100 040/15 RMK AO2 SLP172 T00331028 50008
94908KDBQ DBQ20060312090009403/12/06 09:00:31  5-MIN KDBQ 121500Z 05014KT 10SM CLR 03/M03 A3002 980 61 -100 050/14 RMK AO2
94908KDBQ DBQ20060312090509403/12/06 09:05:31  5-MIN KDBQ 121505Z 05016KT 10SM CLR 03/M03 A3002 990 61 -100 050/16 RMK AO2
94908KDBQ DBQ20060312091009103/12/06 09:10:31  5-MIN KDBQ 121510Z 05017KT 10SM CLR 04/M03 A3002 990 59 0 050/17 RMK AO2
94908KDBQ DBQ20060312091509103/12/06 09:15:31  5-MIN KDBQ 121515Z 06016KT 10SM CLR 04/M03 A3002 990 59 0 050/16 RMK AO2
94908KDBQ DBQ20060312092009103/12/06 09:20:31  5-MIN KDBQ 121520Z 06016KT 10SM CLR 04/M04 A3002 980 57 0 060/16 RMK AO2
94908KDBQ DBQ20060312092509103/12/06 09:25:31  5-MIN KDBQ 121525Z 05014KT 10SM CLR 04/M03 A3002 980 57 0 050/14 RMK AO2
94908KDBQ DBQ20060312093009103/12/06 09:30:31  5-MIN KDBQ 121530Z 05017KT 10SM CLR 04/M03 A3002 990 57 0 050/17 RMK AO2
94908KDBQ DBQ20060312093509103/12/06 09:35:31  5-MIN KDBQ 121535Z 05013KT 10SM CLR 04/M03 A3001 990 57 0 050/13 RMK AO2
94908KDBQ DBQ20060312094009203/12/06 09:40:31  5-MIN KDBQ 121540Z 05015KT 10SM CLR 04/M04 A3001 1000 55 0 050/15 RMK AO2
94908KDBQ DBQ20060312094509203/12/06 09:45:31  5-MIN KDBQ 121545Z 05016KT 10SM CLR 04/M04 A3001 1000 55 0 050/16 RMK AO2
94908KDBQ DBQ20060312095010903/12/06 09:50:31  5-MIN KDBQ 121550Z 05013KT 10SM CLR 04/M04 A3000 1010 55 0 050/13 RMK AO2 SLP165 T00441039
94908KDBQ DBQ20060312095511603/12/06 09:55:31  5-MIN KDBQ 121555Z 05015KT 10SM CLR 04/M04 A2999 1010 55 0 050/15 RMK AO2 PRESFR SLP163 T00441039
94908KDBQ DBQ20060312100010003/12/06 10:00:31  5-MIN KDBQ 121600Z 05014G19KT 10SM CLR 05/M03 A2999 1010 55 100 050/14G19 RMK AO2
94908KDBQ DBQ20060312100509403/12/06 10:05:31  5-MIN KDBQ 121605Z 05016KT 10SM CLR 06/M04 A2999 1020 50 200 050/16 RMK AO2
94908KDBQ DBQ20060312101010003/12/06 10:10:31  5-MIN KDBQ 121610Z 06015G20KT 10SM CLR 05/M04 A2998 1020 50 100 060/15G20 RMK AO2
94908KDBQ DBQ20060312101510003/12/06 10:15:31  5-MIN KDBQ 121615Z 06017G20KT 10SM CLR 05/M04 A2998 1020 50 100 060/17G20 RMK AO2
94908KDBQ DBQ20060312102009403/12/06 10:20:31  5-MIN KDBQ 121620Z 05012KT 10SM CLR 06/M04 A2998 1020 48 200 050/12 RMK AO2
94908KDBQ DBQ20060312102509403/12/06 10:25:31  5-MIN KDBQ 121625Z 05013KT 10SM CLR 06/M04 A2998 1020 48 200 050/13 RMK AO2
94908KDBQ DBQ20060312103010003/12/06 10:30:31  5-MIN KDBQ 121630Z 05016G21KT 10SM CLR 06/M04 A2999 1010 46 200 050/16G21 RMK AO2
94908KDBQ DBQ20060312103510003/12/06 10:35:31  5-MIN KDBQ 121635Z 06012G21KT 10SM CLR 06/M05 A2999 1020 45 200 050/12G21 RMK AO2
94908KDBQ DBQ20060312104010003/12/06 10:40:31  5-MIN KDBQ 121640Z 06016G20KT 10SM CLR 07/M04 A2999 1010 45 300 060/16G20 RMK AO2
94908KDBQ DBQ20060312104510003/12/06 10:45:31  5-MIN KDBQ 121645Z 06015G19KT 10SM CLR 07/M06 A2999 1020 41 300 060/15G19 RMK AO2
94908KDBQ DBQ20060312105011703/12/06 10:50:31  5-MIN KDBQ 121650Z 07012G19KT 10SM CLR 07/M06 A2999 1010 41 300 070/12G19 RMK AO2 SLP163 T00671056
94908KDBQ DBQ20060312105511103/12/06 10:55:31  5-MIN KDBQ 121655Z 06012KT 10SM CLR 07/M05 A2999 1010 43 300 060/12 RMK AO2 SLP163 T00671050
94908KDBQ DBQ20060312110009403/12/06 11:00:31  5-MIN KDBQ 121700Z 07011KT 10SM CLR 07/M05 A3000 1010 41 400 060/11 RMK AO2
94908KDBQ DBQ20060312110510003/12/06 11:05:31  5-MIN KDBQ 121705Z 08016G20KT 10SM CLR 07/M06 A3000 1000 40 300 080/16G20 RMK AO2
94908KDBQ DBQ20060312111009403/12/06 11:10:31  5-MIN KDBQ 121710Z 08017KT 10SM CLR 07/M06 A3000 1010 40 400 080/17 RMK AO2
94908KDBQ DBQ20060312111509403/12/06 11:15:31  5-MIN KDBQ 121715Z 08014KT 10SM CLR 07/M06 A3000 1000 40 300 070/14 RMK AO2
94908KDBQ DBQ20060312112009403/12/06 11:20:31  5-MIN KDBQ 121720Z 06015KT 10SM CLR 08/M06 A3001 1000 38 400 060/15 RMK AO2
94908KDBQ DBQ20060312112509403/12/06 11:25:31  5-MIN KDBQ 121725Z 06014KT 10SM CLR 08/M06 A3000 1010 36 400 060/14 RMK AO2
94908KDBQ DBQ20060312113009403/12/06 11:30:31  5-MIN KDBQ 121730Z 06015KT 10SM CLR 08/M06 A2999 1010 38 400 060/15 RMK AO2
94908KDBQ DBQ20060312113509403/12/06 11:35:31  5-MIN KDBQ 121735Z 07015KT 10SM CLR 08/M06 A2999 1010 36 400 070/15 RMK AO2
94908KDBQ DBQ20060312114009403/12/06 11:40:31  5-MIN KDBQ 121740Z 08013KT 10SM CLR 08/M06 A2999 1020 38 400 080/13 RMK AO2
94908KDBQ DBQ20060312114509403/12/06 11:45:31  5-MIN KDBQ 121745Z 07012KT 10SM CLR 08/M06 A2999 1020 36 400 070/12 RMK AO2
94908KDBQ DBQ20060312115012903/12/06 11:50:31  5-MIN KDBQ 121750Z 07013KT 10SM CLR 08/M06 A2998 1020 35 500 070/13 RMK AO2 SLP161 T00831061 10083 21006 50008
94908KDBQ DBQ20060312115512903/12/06 11:55:31  5-MIN KDBQ 121755Z 06014KT 10SM CLR 08/M06 A2998 1020 36 400 060/14 RMK AO2 SLP160 T00781061 10083 21006 56013
94908KDBQ DBQ20060312120009403/12/06 12:00:31  5-MIN KDBQ 121800Z 07013KT 10SM CLR 08/M06 A2999 1020 36 400 070/13 RMK AO2
94908KDBQ DBQ20060312120509403/12/06 12:05:31  5-MIN KDBQ 121805Z 08014KT 10SM CLR 08/M06 A2999 1020 36 400 080/14 RMK AO2
94908KDBQ DBQ20060312121009403/12/06 12:10:31  5-MIN KDBQ 121810Z 07016KT 10SM CLR 08/M07 A2998 1020 35 400 070/16 RMK AO2
94908KDBQ DBQ20060312121509403/12/06 12:15:31  5-MIN KDBQ 121815Z 08014KT 10SM CLR 08/M06 A2998 1030 36 400 080/14 RMK AO2
94908KDBQ DBQ20060312122009403/12/06 12:20:31  5-MIN KDBQ 121820Z 08014KT 10SM CLR 08/M06 A2998 1020 38 400 080/14 RMK AO2
94908KDBQ DBQ20060312122509403/12/06 12:25:31  5-MIN KDBQ 121825Z 08012KT 10SM CLR 08/M06 A2998 1020 36 400 080/12 RMK AO2
94908KDBQ DBQ20060312123009703/12/06 12:30:31  5-MIN KDBQ 121830Z 08014KT 10SM FEW100 08/M06 A2998 1020 36 400 080/14 RMK AO2
94908KDBQ DBQ20060312123510303/12/06 12:35:31  5-MIN KDBQ 121835Z 07012G18KT 10SM FEW100 08/M06 A2998 1030 36 400 070/12G18 RMK AO2
94908KDBQ DBQ20060312124010303/12/06 12:40:31  5-MIN KDBQ 121840Z 08013G19KT 10SM FEW100 08/M06 A2997 1030 36 500 080/13G19 RMK AO2
94908KDBQ DBQ20060312124509403/12/06 12:45:31  5-MIN KDBQ 121845Z 07012KT 10SM CLR 07/M06 A2996 1040 38 400 070/12 RMK AO2
94908KDBQ DBQ20060312125012103/12/06 12:50:31  5-MIN KDBQ 121850Z 09014KT 10SM FEW095 07/M06 A2995 1050 38 400 090/14 RMK AO2 PRESFR SLP151 T00721061
94908KDBQ DBQ20060312125511403/12/06 12:55:31  5-MIN KDBQ 121855Z 08011KT 10SM FEW090 07/M06 A2997 1030 40 400 080/11 RMK AO2 SLP156 T00721056
94908KDBQ DBQ20060312130009703/12/06 13:00:31  5-MIN KDBQ 121900Z 09011KT 10SM FEW090 07/M05 A2997 1040 41 400 090/11 RMK AO2
94908KDBQ DBQ20060312130509703/12/06 13:05:31  5-MIN KDBQ 121905Z 09012KT 10SM FEW032 08/M04 A2996 1040 41 500 090/12 RMK AO2
94908KDBQ DBQ20060312131010403/12/06 13:10:31  5-MIN KDBQ 121910Z 09010KT 10SM SCT032 SCT100 08/M05 A2996 1040 40 500 090/10 RMK AO2
94908KDBQ DBQ20060312131510403/12/06 13:15:31  5-MIN KDBQ 121915Z 08014KT 10SM BKN032 BKN100 07/M05 A2995 1050 41 400 080/14 RMK AO2
94908KDBQ DBQ20060312132011803/12/06 13:20:31  5-MIN KDBQ 121920Z 10016KT 10SM FEW028 BKN032 BKN100 07/M05 A2993 1070 41 400 100/16 RMK AO2 PRESFR
94908KDBQ DBQ20060312132510403/12/06 13:25:31  5-MIN KDBQ 121925Z 09016KT 10SM BKN031 BKN075 07/M04 A2992 1080 43 400 090/16 RMK AO2
94908KDBQ DBQ20060312133012003/12/06 13:30:31  5-MIN KDBQ 121930Z 08014KT 10SM -RA BKN031 BKN070 07/M04 A2992 1080 45 400 080/14 RMK AO2 RAB30 P0000
94908KDBQ DBQ20060312133512703/12/06 13:35:31  5-MIN KDBQ 121935Z 06009KT 10SM -RA SCT029 SCT034 BKN070 07/M03 A2991 1090 47 500 060/09 RMK AO2 RAB30 P0000
94908KDBQ DBQ20060312134013303/12/06 13:40:31  5-MIN KDBQ 121940Z 08013G17KT 10SM -RA FEW029 SCT034 BKN075 07/M03 A2991 1080 47 400 080/13G17 RMK AO2 RAB30 P0000
94908KDBQ DBQ20060312134512603/12/06 13:45:31  5-MIN KDBQ 121945Z 05014KT 10SM FEW029 SCT070 BKN085 07/M03 A2990 1100 49 400 050/14 RMK AO2 RAB30E42 P0000
94908KDBQ DBQ20060312135015603/12/06 13:50:31  5-MIN KDBQ 121950Z 05016G19KT 10SM FEW027 SCT070 BKN085 07/M03 A2989 1110 49 400 050/16G19 RMK AO2 RAB30E42 PRESFR SLP130 P0000 T00671033
94908KDBQ DBQ20060312135514903/12/06 13:55:31  5-MIN KDBQ 121955Z 07012G19KT 10SM SCT027 BKN070 BKN085 07/M03 A2991 1090 47 500 070/12G19 RMK AO2 RAB30E42 SLP136 P0000 T00721033
94908KDBQ DBQ20060312140010403/12/06 14:00:31  5-MIN KDBQ 122000Z 07014KT 10SM BKN027 BKN080 07/M03 A2990 1100 47 500 070/14 RMK AO2
94908KDBQ DBQ20060312140510403/12/06 14:05:31  5-MIN KDBQ 122005Z 07013KT 10SM BKN024 BKN085 07/M03 A2990 1100 49 400 070/13 RMK AO2
94908KDBQ DBQ20060312141010403/12/06 14:10:31  5-MIN KDBQ 122010Z 07012KT 10SM BKN024 BKN085 07/M03 A2989 1110 51 400 070/12 RMK AO2
94908KDBQ DBQ20060312141511003/12/06 14:15:31  5-MIN KDBQ 122015Z 08009G18KT 10SM BKN024 BKN085 07/M03 A2989 1100 51 400 080/09G18 RMK AO2
94908KDBQ DBQ20060312142010403/12/06 14:20:31  5-MIN KDBQ 122020Z 07011KT 10SM BKN024 BKN085 07/M03 A2988 1110 51 400 070/11 RMK AO2
94908KDBQ DBQ20060312142512703/12/06 14:25:31  5-MIN KDBQ 122025Z 07016KT 10SM -RA BKN024 BKN085 07/M02 A2987 1130 55 400 070/16 RMK AO2 RAB22 PRESFR P0000
94908KDBQ DBQ20060312143012703/12/06 14:30:31  5-MIN KDBQ 122030Z 06013KT 10SM -RA BKN029 BKN055 06/M01 A2986 1130 60 400 060/13 RMK AO2 RAB22 PRESFR P0000
94908KDBQ DBQ20060312143513403/12/06 14:35:31  5-MIN KDBQ 122035Z 07014KT 10SM -RA BKN029 BKN060 BKN075 06/M01 A2985 1140 60 400 060/14 RMK AO2 RAB22 PRESFR P0000
94908KDBQ DBQ20060312144012003/12/06 14:40:31  5-MIN KDBQ 122040Z 06014KT 10SM -RA BKN029 BKN065 06/M01 A2986 1130 60 400 060/14 RMK AO2 RAB22 P0000
94908KDBQ DBQ20060312144512003/12/06 14:45:31  5-MIN KDBQ 122045Z 06014KT 10SM -RA BKN029 BKN065 06/M01 A2986 1130 62 400 060/14 RMK AO2 RAB22 P0000
94908KDBQ DBQ20060312145012003/12/06 14:50:31  5-MIN KDBQ 122050Z 07014KT 10SM -RA FEW027 BKN070 06/M01 A2986 1130 62 400 070/14 RMK AO2 RAB22 P0000
94908KDBQ DBQ20060312145515603/12/06 14:55:31  5-MIN KDBQ 122055Z 06015KT 10SM -RA FEW027 SCT049 BKN070 06/M01 A2985 1150 65 300 060/15 RMK AO2 RAB22 SLP116 P0000 60000 T00561006 58044
94908KDBQ DBQ20060312150012603/12/06 15:00:31  5-MIN KDBQ 122100Z 07014KT 9SM -RA FEW027 SCT040 OVC070 06/00 A2983 1160 67 300 060/14 RMK AO2 PRESFR P0001
94908KDBQ DBQ20060312150511903/12/06 15:05:31  5-MIN KDBQ 122105Z 07015KT 9SM -RA FEW027 BKN042 OVC080 06/00 A2984 1160 67 300 070/15 RMK AO2 P0001
94908KDBQ DBQ20060312151012703/12/06 15:10:31  5-MIN KDBQ 122110Z 07016KT 10SM -RA SCT025 BKN043 OVC065 06/00 A2981 1180 67 400 070/16 RMK AO2 PRESFR P0001
94908KDBQ DBQ20060312151512003/12/06 15:15:31  5-MIN KDBQ 122115Z 06016KT 10SM -RA SCT025 BKN037 OVC070 06/01 A2982 1170 67 400 060/16 RMK AO2 P0001
94908KDBQ DBQ20060312152011903/12/06 15:20:31  5-MIN KDBQ 122120Z 05015G22KT 10SM -RA SCT025 BKN033 06/01 A2982 1170 67 400 050/15G22 RMK AO2 P0001
94908KDBQ DBQ20060312152511903/12/06 15:25:31  5-MIN KDBQ 122125Z 05015G22KT 10SM -RA SCT025 BKN031 06/01 A2981 1180 67 400 050/15G22 RMK AO2 P0001
94908KDBQ DBQ20060312153012603/12/06 15:30:31  5-MIN KDBQ 122130Z 05016G21KT 10SM -RA BKN025 BKN031 06/01 A2978 1210 67 500 050/16G21 RMK AO2 PRESFR P0001
94908KDBQ DBQ20060312153511203/12/06 15:35:31  5-MIN KDBQ 122135Z 05017G22KT 10SM -RA BKN025 06/01 A2979 1200 67 500 050/17G22 RMK AO2 P0002
94908KDBQ DBQ20060312154011203/12/06 15:40:31  5-MIN KDBQ 122140Z 06016G22KT 10SM -RA BKN025 06/01 A2979 1200 70 400 060/16G22 RMK AO2 P0002
94908KDBQ DBQ20060312154511903/12/06 15:45:31  5-MIN KDBQ 122145Z 06020G24KT 10SM -RA BKN023 BKN028 06/01 A2979 1200 70 400 060/20G24 RMK AO2 P0002
94908KDBQ DBQ20060312155013803/12/06 15:50:31  5-MIN KDBQ 122150Z 06017G24KT 10SM BKN023 BKN110 06/00 A2977 1220 67 400 060/17G24 RMK AO2 RAE48 SLP090 P0002 T00560000
94908KDBQ DBQ20060312155514503/12/06 15:55:31  5-MIN KDBQ 122155Z 06017G25KT 10SM SCT023 BKN110 06/01 A2977 1220 70 400 060/17G25 RMK AO2 RAE48 PRESFR SLP088 P0002 T00560006
94908KDBQ DBQ20060312160010903/12/06 16:00:31  5-MIN KDBQ 122200Z 07016G25KT 10SM FEW023 BKN100 06/00 A2977 1220 65 500 070/16G25 RMK AO2
94908KDBQ DBQ20060312160511003/12/06 16:05:31  5-MIN KDBQ 122205Z 06015G24KT 10SM FEW023 BKN100 06/M01 A2977 1220 62 500 060/15G24 RMK AO2
94908KDBQ DBQ20060312161011003/12/06 16:10:31  5-MIN KDBQ 122210Z 06018G24KT 10SM FEW023 BKN100 06/M01 A2977 1220 65 400 060/18G24 RMK AO2
94908KDBQ DBQ20060312161512803/12/06 16:15:31  5-MIN KDBQ 122215Z 07020G29KT 10SM FEW023 BKN100 06/M01 A2976 1220 60 500 070/20G29 RMK AO2 PK WND 07029/2213
94908KDBQ DBQ20060312162012803/12/06 16:20:31  5-MIN KDBQ 122220Z 06020G29KT 10SM BKN100 06/M02 A2974 1240 59 400 060/20G29 RMK AO2 PK WND 07029/2213 PRESFR
94908KDBQ DBQ20060312162512803/12/06 16:25:31  5-MIN KDBQ 122225Z 07020G27KT 10SM FEW021 OVC095 06/M02 A2975 1240 59 400 060/20G27 RMK AO2 PK WND 07029/2213
94908KDBQ DBQ20060312163012803/12/06 16:30:31  5-MIN KDBQ 122230Z 07021G27KT 10SM FEW021 OVC090 06/M02 A2975 1230 55 500 070/21G27 RMK AO2 PK WND 07029/2213
94908KDBQ DBQ20060312163513503/12/06 16:35:31  5-MIN KDBQ 122235Z 08021G26KT 10SM FEW021 BKN090 OVC110 06/M02 A2974 1240 55 500 080/21G26 RMK AO2 PK WND 07029/2213
94908KDBQ DBQ20060312164013503/12/06 16:40:31  5-MIN KDBQ 122240Z 07021G26KT 10SM FEW021 BKN095 06/M02 A2972 1270 57 500 070/21G26 RMK AO2 PK WND 07029/2213 PRESFR
94908KDBQ DBQ20060312164512203/12/06 16:45:31  5-MIN KDBQ 122245Z 06020KT 10SM SCT021 BKN090 06/M03 A2972 1270 55 500 060/20 RMK AO2 PK WND 07029/2213
94908KDBQ DBQ20060312165012803/12/06 16:50:31  5-MIN KDBQ 122250Z 07022G28KT 10SM BKN021 BKN090 06/M03 A2971 1270 53 500 070/22G28 RMK AO2 PK WND 07029/2213
94908KDBQ DBQ20060312165517003/12/06 16:55:31  5-MIN KDBQ 122255Z 06022G28KT 10SM BKN021 BKN090 06/M03 A2971 1270 55 500 060/22G28 RMK AO2 PK WND 07029/2213 SLP069 OCNL LTGICCCCG SW MOV NE T00561028
94908KDBQ DBQ20060312170012803/12/06 17:00:31  5-MIN KDBQ 122300Z 05017G28KT 10SM -RA BKN021 BKN090 06/M03 A2972 1270 55 500 050/17G28 RMK AO2 RAB2256 P0000
94908KDBQ DBQ20060312170512103/12/06 17:05:31  5-MIN KDBQ 122305Z 05017G25KT 10SM -RA OVC021 06/M02 A2972 1260 57 500 050/17G25 RMK AO2 RAB2256 P0000
94908KDBQ DBQ20060312171012803/12/06 17:10:31  5-MIN KDBQ 122310Z 06015G23KT 10SM -RA OVC021 06/M02 A2975 1240 59 400 060/15G23 RMK AO2 RAB2256 PRESRR P0000
94908KDBQ DBQ20060312171515903/12/06 17:15:31  5-MIN KDBQ 122315Z 06013G23KT 6SM TSRA OVC023 05/M01 A2975 1230 64 400 060/13G23 RMK AO2 TSB12RAB2256 TSRA SW MOC NE OCNL LTGICCCCG SW P0001
94908KDBQ DBQ20060312172018203/12/06 17:20:31  5-MIN KDBQ 122320Z 06021G27KT 2 1/2SM +TSRA OVC023 04/M01 A2971 1270 70 300 060/21G27 RMK AO2 PK WND 05027/2320 TSB12RAB2256 TSRA SW MOC NE OCNL LTGICCCCG SW P0007
94908KDBQ DBQ20060312172518103/12/06 17:25:31  5-MIN KDBQ 122325Z 06016G27KT 2 1/2SM +TSRA OVC023 04/01 A2972 1270 82 300 060/16G27 RMK AO2 PK WND 05027/2320 TSB12RAB2256 TSRA SW MOC NE OCNL LTGICCCCG SW P0011
94908KDBQ DBQ20060312173018103/12/06 17:30:31  5-MIN KDBQ 122330Z 04017G24KT 2 1/2SM +TSRA OVC023 04/01 A2974 1250 82 200 040/17G24 RMK AO2 PK WND 05027/2320 TSB12RAB2256 TSRA SW MOC NE OCNL LTGICCCCG SW P0014
94908KDBQ DBQ20060312173518303/12/06 17:35:31  5-MIN KDBQ 122335Z 01014G22KT 2 1/2SM TSRA BR OVC023 04/02 A2976 1230 85 200 010/14G22 RMK AO2 PK WND 05027/2320 TSB12RAB2256 TSRA SW MOC NE OCNL LTGICCCCG SW P0017
94908KDBQ DBQ20060312174018403/12/06 17:40:31  5-MIN KDBQ 122340Z 06017G27KT 2 1/2SM +TSRA BR OVC023 04/02 A2976 1230 85 200 050/17G27 RMK AO2 PK WND 05027/2340 TSB12RAB2256 TSRA SW MOC NE OCNL LTGICCCCG SW P0018
94908KDBQ DBQ20060312174518403/12/06 17:45:31  5-MIN KDBQ 122345Z 08024G30KT 2 1/2SM +TSRA BR OVC023 03/01 A2972 1260 85 200 080/24G30 RMK AO2 PK WND 08030/2345 TSB12RAB2256 TSRA SW MOC NE OCNL LTGICCCCG SW P0025
94908KDBQ DBQ20060312175023903/12/06 17:50:31  5-MIN KDBQ 122350Z 06019G30KT 2 1/2SM +TSRA BR BKN023 BKN035 OVC042 03/01 A2973 1250 85 200 060/19G30 RMK AO2 PK WND 08030/2345 TSB12RAB2256 SLP078 TSRA SW MOC NE OCNL LTGICCCCG SW P0032 60034 T00330011 10078 20033 58044
94908KDBQ DBQ20060312175520303/12/06 17:55:31  5-MIN KDBQ 122355Z 05017G29KT 2 1/2SM BR BKN021 OVC040 03/02 A2973 1260 92 100 050/17G29 RMK AO2 PK WND 08030/2345 TSB12E54RAB2256RAEMM SLP077 P0033 60035 T00280017 10078 20028 55039 $
94908KDBQ DBQ20060312180013803/12/06 18:00:31  5-MIN KDBQ 130000Z 05016G27KT 5SM -RA BR SCT021 BKN029 OVC037 03/02 A2973 1260 92 100 050/16G27 RMK AO2 RAB2356 P0000 $
94908KDBQ DBQ20060312180515603/12/06 18:05:31  5-MIN KDBQ 130005Z 05015G26KT 6SM -RA BR SCT021 BKN029 OVC036 03/02 A2972 1260 92 100 050/15G26 RMK AO2 PK WND 06026/0003 RAB2356 P0000 $
94908KDBQ DBQ20060312181015303/12/06 18:10:31  5-MIN KDBQ 130010Z 07016G26KT 8SM -RA FEW018 BKN026 OVC040 03/02 A2972 1260 92 100 060/16G26 RMK AO2 PK WND 06026/0003 RAB2356 P0001 $
94908KDBQ DBQ20060312181516103/12/06 18:15:31  5-MIN KDBQ 130015Z 08016G23KT 10SM UP SCT024 BKN029 OVC040 03/01 A2973 1260 89 100 080/16G23 RMK AO2 PK WND 06026/0003 RAB2356E13UPB13 P0001 $
94908KDBQ DBQ20060312182015403/12/06 18:20:31  5-MIN KDBQ 130020Z 08016G22KT 10SM BKN026 OVC032 03/02 A2973 1260 89 200 080/16G22 RMK AO2 PK WND 06026/0003 RAB2356E13UPB13E18 P0001 $
94908KDBQ DBQ20060312182514703/12/06 18:25:31  5-MIN KDBQ 130025Z 09014G21KT 10SM OVC028 03/02 A2973 1260 89 200 080/14G21 RMK AO2 PK WND 06026/0003 RAB2356E13UPB13E18 P0001 $
94908KDBQ DBQ20060312183015403/12/06 18:30:31  5-MIN KDBQ 130030Z 08019G24KT 10SM BKN026 OVC034 03/02 A2972 1270 89 200 080/19G24 RMK AO2 PK WND 06026/0003 RAB2356E13UPB13E18 P0001 $
94908KDBQ DBQ20060312183516103/12/06 18:35:31  5-MIN KDBQ 130035Z 07020G30KT 10SM BKN026 BKN034 03/01 A2971 1280 89 100 070/20G30 RMK AO2 PK WND 07030/0035 RAB2356E13UPB13E18 PRESFR P0001 $
94908KDBQ DBQ20060312184015403/12/06 18:40:31  5-MIN KDBQ 130040Z 08022G30KT 10SM BKN026 BKN034 03/01 A2970 1280 89 100 080/22G30 RMK AO2 PK WND 07030/0035 RAB2356E13UPB13E18 P0001 $
94908KDBQ DBQ20060312184515403/12/06 18:45:31  5-MIN KDBQ 130045Z 08019G24KT 10SM BKN026 BKN034 03/01 A2970 1290 89 200 080/19G24 RMK AO2 PK WND 07030/0035 RAB2356E13UPB13E18 P0001 $
94908KDBQ DBQ20060312185015403/12/06 18:50:31  5-MIN KDBQ 130050Z 08017G24KT 10SM SCT029 BKN037 03/01 A2970 1290 89 200 070/17G24 RMK AO2 PK WND 07030/0035 RAB2356E13UPB13E18 P0001 $
94908KDBQ DBQ20060312185516503/12/06 18:55:31  5-MIN KDBQ 130055Z 08017KT 10SM BKN029 BKN037 03/00 A2969 1290 79 200 080/17 RMK AO2 PK WND 07030/0035 RAB2356E13UPB13E18 SLP064 P0001 T00330000 $
94908KDBQ DBQ20060312190012203/12/06 19:00:31  5-MIN KDBQ 130100Z AUTO 06015G22KT 10SM BKN027 BKN035 03/M01 A2969 1300 79 200 060/15G22 RMK AO2 TSNO $
94908KDBQ DBQ20060312190512203/12/06 19:05:31  5-MIN KDBQ 130105Z AUTO 06014G21KT 10SM BKN027 BKN035 03/M01 A2968 1300 79 200 060/14G21 RMK AO2 TSNO $
94908KDBQ DBQ20060312191012203/12/06 19:10:31  5-MIN KDBQ 130110Z AUTO 07014G21KT 10SM BKN027 BKN035 03/M01 A2968 1300 75 200 060/14G21 RMK AO2 TSNO $
94908KDBQ DBQ20060312191511503/12/06 19:15:31  5-MIN KDBQ 130115Z AUTO 07012G19KT 10SM BKN027 03/M01 A2968 1300 75 200 070/12G19 RMK AO2 TSNO $
94908KDBQ DBQ20060312192011503/12/06 19:20:31  5-MIN KDBQ 130120Z AUTO 06012G19KT 10SM SCT027 03/M01 A2969 1290 79 200 060/12G19 RMK AO2 TSNO $
94908KDBQ DBQ20060312192511603/12/06 19:25:31  5-MIN KDBQ 130125Z AUTO 07011KT 10SM FEW027 SCT033 03/M01 A2970 1290 79 200 070/11 RMK AO2 TSNO $
94908KDBQ DBQ20060312193011603/12/06 19:30:31  5-MIN KDBQ 130130Z AUTO 06013KT 10SM SCT025 BKN033 03/M01 A2969 1290 79 200 060/13 RMK AO2 TSNO $
94908KDBQ DBQ20060312193511603/12/06 19:35:31  5-MIN KDBQ 130135Z AUTO 05014KT 10SM SCT022 BKN033 03/M01 A2968 1300 79 200 050/14 RMK AO2 TSNO $
94908KDBQ DBQ20060312194012903/12/06 19:40:31  5-MIN KDBQ 130140Z AUTO 05016G21KT 10SM BKN020 BKN033 03/M01 A2966 1320 79 200 050/16G21 RMK AO2 PRESFR TSNO $
94908KDBQ DBQ20060312194512303/12/06 19:45:31  5-MIN KDBQ 130145Z AUTO 05015KT 10SM BKN018 BKN024 BKN033 03/M01 A2966 1320 75 200 050/15 RMK AO2 TSNO $
94908KDBQ DBQ20060312195014703/12/06 19:50:31  5-MIN KDBQ 130150Z AUTO 05017KT 10SM BKN016 BKN022 OVC033 03/M01 A2965 1330 75 200 050/17 RMK AO2 PRESFR SLP048 T00281011 TSNO $
94908KDBQ DBQ20060312195513903/12/06 19:55:31  5-MIN KDBQ 130155Z AUTO 03011G22KT 10SM BKN016 OVC022 03/M01 A2966 1320 75 200 030/11G22 RMK AO2 SLP054 T00281011 TSNO $
94908KDBQ DBQ20060312200010903/12/06 20:00:31  5-MIN KDBQ 130200Z AUTO 05016KT 10SM OVC016 03/M01 A2965 1330 75 200 050/16 RMK AO2 TSNO $
94908KDBQ DBQ20060312200513003/12/06 20:05:31  5-MIN KDBQ 130205Z AUTO 06019G25KT 10SM UP OVC014 03/M01 A2964 1340 75 200 060/19G25 RMK AO2 UPB02 P0000 TSNO $
94908KDBQ DBQ20060312201012403/12/06 20:10:31  5-MIN KDBQ 130210Z AUTO 05020KT 10SM UP OVC014 03/M01 A2963 1350 75 200 050/20 RMK AO2 UPB02 P0000 TSNO $
94908KDBQ DBQ20060312201513003/12/06 20:15:31  5-MIN KDBQ 130215Z AUTO 04011G25KT 10SM OVC014 03/M01 A2966 1320 75 200 040/11G25 RMK AO2 UPB02E14 P0000 TSNO $
94908KDBQ DBQ20060312202013003/12/06 20:20:31  5-MIN KDBQ 130220Z AUTO 06016G19KT 10SM OVC014 03/M01 A2965 1330 72 300 060/16G19 RMK AO2 UPB02E14 P0000 TSNO $
94908KDBQ DBQ20060312202513303/12/06 20:25:31  5-MIN KDBQ 130225Z AUTO 05017KT 10SM -RA OVC014 03/M01 A2963 1350 79 200 050/17 RMK AO2 UPB02E14RAB21 P0000 TSNO $
94908KDBQ DBQ20060312205516703/12/06 20:55:31  5-MIN KDBQ 130255Z AUTO 05012G21KT 10SM OVC014 03/M01 A2962 1360 79 200 040/12G21 RMK AO2 UPB02E14RAB21E34 SLP038 P0000 60001 T00281006 58036 TSNO $
94908KDBQ DBQ20060312210010903/12/06 21:00:31  5-MIN KDBQ 130300Z AUTO 05013KT 10SM OVC014 03/M01 A2962 1360 79 200 050/13 RMK AO2 TSNO $
94908KDBQ DBQ20060312210510903/12/06 21:05:31  5-MIN KDBQ 130305Z AUTO 02013KT 10SM OVC014 03/M01 A2964 1340 79 200 020/13 RMK AO2 TSNO $
94908KDBQ DBQ20060312211012303/12/06 21:10:31  5-MIN KDBQ 130310Z AUTO 03016KT 9SM -RA OVC014 03/00 A2961 1360 82 300 030/16 RMK AO2 RAB10 P0000 TSNO $
94908KDBQ DBQ20060312211512803/12/06 21:15:31  5-MIN KDBQ 130315Z AUTO 04012G20KT 7SM RA OVC014 03/00 A2961 1360 82 200 040/12G20 RMK AO2 RAB10 P0000 TSNO $
94908KDBQ DBQ20060312212012803/12/06 21:20:31  5-MIN KDBQ 130320Z AUTO 03012G20KT 6SM RA OVC014 03/00 A2962 1360 82 200 030/12G20 RMK AO2 RAB10 P0002 TSNO $
94908KDBQ DBQ20060312212513003/12/06 21:25:31  5-MIN KDBQ 130325Z AUTO 05013KT 7SM -RA OVC014 03/00 A2960 1380 82 300 050/13 RMK AO2 RAB10 PRESFR P0003 TSNO $
94908KDBQ DBQ20060312213012303/12/06 21:30:31  5-MIN KDBQ 130330Z AUTO 02013KT 9SM -RA OVC014 03/00 A2962 1360 82 200 020/13 RMK AO2 RAB10 P0003 TSNO $
94908KDBQ DBQ20060312213512303/12/06 21:35:31  5-MIN KDBQ 130335Z AUTO 02012KT 9SM -RA OVC014 03/01 A2962 1360 85 200 020/12 RMK AO2 RAB10 P0003 TSNO $
94908KDBQ DBQ20060312214012403/12/06 21:40:31  5-MIN KDBQ 130340Z AUTO 04013KT 10SM -RA OVC014 03/00 A2961 1360 82 300 040/13 RMK AO2 RAB10 P0003 TSNO $
94908KDBQ DBQ20060312214512403/12/06 21:45:31  5-MIN KDBQ 130345Z AUTO 03014KT 10SM -RA OVC014 03/01 A2962 1360 85 200 020/14 RMK AO2 RAB10 P0003 TSNO $
94908KDBQ DBQ20060312215014103/12/06 21:50:31  5-MIN KDBQ 130350Z AUTO 03015KT 10SM -RA OVC014 03/01 A2961 1360 85 300 030/15 RMK AO2 RAB10 SLP036 P0004 T00280006 TSNO $
94908KDBQ DBQ20060312215514003/12/06 21:55:31  5-MIN KDBQ 130355Z AUTO 02018KT 9SM -RA OVC014 03/01 A2961 1370 85 300 020/18 RMK AO2 RAB10 SLP033 P0004 T00280006 TSNO $
94908KDBQ DBQ20060312220011603/12/06 22:00:31  5-MIN KDBQ 130400Z AUTO 03018KT 7SM RA OVC014 03/01 A2960 1380 85 300 030/18 RMK AO2 P0001 TSNO $
94908KDBQ DBQ20060312220513403/12/06 22:05:31  5-MIN KDBQ 130405Z AUTO 02023KT 7SM RA OVC014 03/01 A2960 1380 85 300 020/23 RMK AO2 PK WND 02026/0405 P0002 TSNO $
94908KDBQ DBQ20060312221014803/12/06 22:10:31  5-MIN KDBQ 130410Z AUTO 03022G28KT 7SM -RA OVC014 03/01 A2957 1400 85 300 030/22G28 RMK AO2 PK WND 02028/0406 PRESFR P0002 TSNO $
94908KDBQ DBQ20060312221514403/12/06 22:15:31  5-MIN KDBQ 130415Z AUTO 04018KT 6SM RA BR OVC014 02/01 A2956 1420 89 200 040/18 RMK AO2 PK WND 02028/0406 PRESFR P0003 TSNO $
94908KDBQ DBQ20060312222014403/12/06 22:20:31  5-MIN KDBQ 130420Z AUTO 04017KT 6SM RA BR BKN014 OVC080 02/01 A2956 1410 89 200 040/17 RMK AO2 PK WND 02028/0406 P0004 TSNO $
94908KDBQ DBQ20060312222513503/12/06 22:25:31  5-MIN KDBQ 130425Z AUTO 03017KT 7SM -RA OVC014 02/01 A2957 1400 92 200 030/17 RMK AO2 PK WND 02028/0406 P0005 TSNO $
94908KDBQ DBQ20060312223013503/12/06 22:30:31  5-MIN KDBQ 130430Z AUTO 04017KT 8SM -RA OVC014 02/01 A2955 1420 92 300 040/17 RMK AO2 PK WND 02028/0406 P0005 TSNO $
94908KDBQ DBQ20060312223513503/12/06 22:35:31  5-MIN KDBQ 130435Z AUTO 04015KT 8SM -RA OVC014 02/02 A2956 1420 96 200 040/15 RMK AO2 PK WND 02028/0406 P0005 TSNO $
94908KDBQ DBQ20060312224014503/12/06 22:40:31  5-MIN KDBQ 130440Z AUTO 05012KT 8SM UP OVC014 02/02 A2955 1420 96 300 050/12 RMK AO2 PK WND 02028/0406 RAE36UPB36 P0005 TSNO $
94908KDBQ DBQ20060312224514503/12/06 22:45:31  5-MIN KDBQ 130445Z AUTO 04014KT 7SM OVC012 02/02 A2955 1430 96 300 040/14 RMK AO2 PK WND 02028/0406 RAE36UPB36E41 P0005 TSNO $
94908KDBQ DBQ20060312225016803/12/06 22:50:31  5-MIN KDBQ 130450Z AUTO 04019G23KT 8SM OVC012 02/02 A2953 1440 96 300 040/19G23 RMK AO2 PK WND 02028/0406 RAE36UPB36E41 SLP007 P0005 T00220017 TSNO $
94908KDBQ DBQ20060312225516203/12/06 22:55:31  5-MIN KDBQ 130455Z AUTO 04021KT 8SM OVC012 03/02 A2953 1440 92 300 040/21 RMK AO2 PK WND 02028/0406 RAE36UPB36E41 SLP006 P0005 T00280017 TSNO $
94908KDBQ DBQ20060312230012503/12/06 23:00:31  5-MIN KDBQ 130500Z AUTO 04019KT 9SM OVC010 03/02 A2952 1450 92 400 040/19 RMK AO2 CIG 009V013 P0001 TSNO $
94908KDBQ DBQ20060312230512503/12/06 23:05:31  5-MIN KDBQ 130505Z AUTO 04019KT 9SM OVC010 03/01 A2952 1450 89 400 040/19 RMK AO2 CIG 009V013 P0001 TSNO $
94908KDBQ DBQ20060312231011303/12/06 23:10:31  5-MIN KDBQ 130510Z AUTO 05020KT 9SM OVC010 03/01 A2952 1450 89 400 050/20 RMK AO2 P0001 TSNO $
94908KDBQ DBQ20060312231511303/12/06 23:15:31  5-MIN KDBQ 130515Z AUTO 05021KT 9SM OVC010 03/01 A2952 1460 89 400 050/21 RMK AO2 P0001 TSNO $
94908KDBQ DBQ20060312232011403/12/06 23:20:31  5-MIN KDBQ 130520Z AUTO 05021KT 10SM OVC010 04/02 A2951 1460 85 500 050/21 RMK AO2 P0001 TSNO $
94908KDBQ DBQ20060312232512103/12/06 23:25:31  5-MIN KDBQ 130525Z AUTO 05020KT 10SM OVC010 04/02 A2950 1470 85 500 050/20 RMK AO2 PRESFR P0001 TSNO $
94908KDBQ DBQ20060312233013803/12/06 23:30:31  5-MIN KDBQ 130530Z AUTO 06018G26KT 10SM OVC010 04/02 A2951 1460 85 600 060/18G26 RMK AO2 PK WND 06026/0528 P0001 TSNO $
94908KDBQ DBQ20060312233513803/12/06 23:35:31  5-MIN KDBQ 130535Z AUTO 06015G26KT 10SM OVC010 04/03 A2951 1460 89 600 060/15G26 RMK AO2 PK WND 06026/0528 P0001 TSNO $
94908KDBQ DBQ20060312234013803/12/06 23:40:31  5-MIN KDBQ 130540Z AUTO 06016G23KT 10SM OVC010 05/03 A2950 1470 89 700 060/16G23 RMK AO2 PK WND 06026/0528 P0001 TSNO $
94908KDBQ DBQ20060312234513203/12/06 23:45:31  5-MIN KDBQ 130545Z AUTO 06017KT 10SM OVC008 05/03 A2949 1480 89 700 060/17 RMK AO2 PK WND 06026/0528 P0001 TSNO $
94908KDBQ DBQ20060312235014203/12/06 23:50:31  5-MIN KDBQ 130550Z AUTO 06015KT 10SM OVC008 05/03 A2950 1470 89 700 060/15 RMK AO2 PK WND 06026/0528 P0001 400831006 TSNO $
94908KDBQ DBQ20060312235518903/12/06 23:55:31  5-MIN KDBQ 130555Z AUTO 06017G23KT 10SM OVC008 05/04 A2949 1470 92 700 060/17G23 RMK AO2 PK WND 06026/0528 SLP993 P0001 60011 T00500039 10050 20022 400831006 56037 TSNO $
94908KDBQ DBQ20060313000011403/13/06 00:00:38  5-MIN KDBQ 130600Z AUTO 06016G23KT 10SM OVC008 06/04 A2949 1480 89 700 060/16G23 RMK AO2 TSNO $
94908KDBQ DBQ20060313000510803/13/06 00:05:31  5-MIN KDBQ 130605Z AUTO 05015KT 10SM OVC008 06/04 A2948 1480 89 700 050/15 RMK AO2 TSNO $
94908KDBQ DBQ20060313001010703/13/06 00:10:31  5-MIN KDBQ 130610Z AUTO 05015KT 9SM OVC008 06/04 A2949 1480 89 700 050/15 RMK AO2 TSNO $
94908KDBQ DBQ20060313001510703/13/06 00:15:34  5-MIN KDBQ 130615Z AUTO 05016KT 9SM OVC008 05/04 A2949 1480 92 700 040/16 RMK AO2 TSNO $
94908KDBQ DBQ20060313002010703/13/06 00:20:31  5-MIN KDBQ 130620Z AUTO 04013KT 9SM OVC008 05/03 A2950 1470 89 700 040/13 RMK AO2 TSNO $
94908KDBQ DBQ20060313002510703/13/06 00:25:31  5-MIN KDBQ 130625Z AUTO 04015KT 9SM OVC008 05/03 A2948 1480 89 700 040/15 RMK AO2 TSNO $
94908KDBQ DBQ20060313003010703/13/06 00:30:31  5-MIN KDBQ 130630Z AUTO 03015KT 8SM OVC008 04/03 A2948 1490 92 600 030/15 RMK AO2 TSNO $
94908KDBQ DBQ20060313003511403/13/06 00:35:31  5-MIN KDBQ 130635Z AUTO 03016KT 7SM OVC006 04/03 A2946 1510 92 600 030/16 RMK AO2 PRESFR TSNO $
94908KDBQ DBQ20060313004010703/13/06 00:40:31  5-MIN KDBQ 130640Z AUTO 03013KT 7SM OVC006 04/03 A2947 1500 92 600 030/13 RMK AO2 TSNO $
94908KDBQ DBQ20060313004511003/13/06 00:45:31  5-MIN KDBQ 130645Z AUTO 02013KT 6SM BR OVC006 04/03 A2948 1490 92 600 020/13 RMK AO2 TSNO $
94908KDBQ DBQ20060313005014603/13/06 00:50:31  5-MIN KDBQ 130650Z AUTO 03012KT 6SM BR OVC006 04/03 A2950 1470 92 500 030/12 RMK AO2 CIG 003V007 PRESRR SLP994 T00390028 TSNO $
94908KDBQ DBQ20060313005512703/13/06 00:55:31  5-MIN KDBQ 130655Z AUTO 03015KT 5SM BR OVC006 04/03 A2949 1470 92 500 020/15 RMK AO2 SLP993 T00390028 TSNO $
94908KDBQ DBQ20060313010012203/13/06 01:00:31  5-MIN KDBQ 130700Z AUTO 03016KT 5SM BR OVC006 03/03 A2949 1480 96 500 030/16 RMK AO2 CIG 003V007 TSNO $
94908KDBQ DBQ20060313010512203/13/06 01:05:31  5-MIN KDBQ 130705Z AUTO 03015KT 5SM BR OVC006 03/03 A2949 1480 96 500 030/15 RMK AO2 CIG 003V007 TSNO $
94908KDBQ DBQ20060313011012203/13/06 01:10:31  5-MIN KDBQ 130710Z AUTO 03017KT 5SM BR OVC006 03/02 A2950 1470 92 500 030/17 RMK AO2 CIG 003V007 TSNO $
94908KDBQ DBQ20060313011513803/13/06 01:15:31  5-MIN KDBQ 130715Z AUTO 02018KT 5SM -RA BR OVC006 03/02 A2949 1480 92 500 020/18 RMK AO2 RAB15 CIG 003V006 P0000 TSNO $
94908KDBQ DBQ20060313012013803/13/06 01:20:31  5-MIN KDBQ 130720Z AUTO 03016KT 5SM -RA BR OVC004 03/02 A2950 1470 92 500 020/16 RMK AO2 RAB15 CIG 003V006 P0000 TSNO $
94908KDBQ DBQ20060313012513803/13/06 01:25:31  5-MIN KDBQ 130725Z AUTO 04014KT 5SM -RA BR OVC004 03/02 A2951 1460 92 400 040/14 RMK AO2 RAB15 CIG 003V006 P0000 TSNO $
94908KDBQ DBQ20060313013013703/13/06 01:30:31  5-MIN KDBQ 130730Z AUTO 03014KT 4SM RA BR OVC004 03/02 A2950 1470 92 400 030/14 RMK AO2 RAB15 CIG 003V006 P0000 TSNO $
94908KDBQ DBQ20060313013514503/13/06 01:35:31  5-MIN KDBQ 130735Z AUTO 04019KT 4SM -RA BR OVC004 03/02 A2947 1500 92 500 040/19 RMK AO2 RAB15 CIG 003V006 PRESFR P0001 TSNO $
94908KDBQ DBQ20060313014014503/13/06 01:40:31  5-MIN KDBQ 130740Z AUTO 05021KT 3SM -RA BR OVC004 03/02 A2944 1530 96 500 050/21 RMK AO2 RAB15 CIG 002V006 PRESFR P0001 TSNO $
94908KDBQ DBQ20060313014514503/13/06 01:45:31  5-MIN KDBQ 130745Z AUTO 05019KT 4SM -RA BR OVC004 03/02 A2943 1530 96 500 050/19 RMK AO2 RAB15 CIG 002V006 PRESFR P0001 TSNO $
94908KDBQ DBQ20060313015015603/13/06 01:50:31  5-MIN KDBQ 130750Z AUTO 05020KT 4SM BR BKN002 OVC006 03/02 A2942 1550 96 500 050/20 RMK AO2 RAB15E47 PRESFR SLP967 P0001 T00280022 TSNO $
94908KDBQ DBQ20060313015516903/13/06 01:55:31  5-MIN KDBQ 130755Z AUTO 04019G24KT 4SM -RA BR OVC004 03/02 A2941 1550 96 500 040/19G24 RMK AO2 RAB15UPB51E53 CIG 002V006 SLP966 P0001 T00280022 TSNO $
94908KDBQ DBQ20060313020014503/13/06 02:00:31  5-MIN KDBQ 130800Z AUTO 04017G24KT 5SM -RA BR BKN002 OVC006 03/02 A2943 1540 92 500 040/17G24 RMK AO2 CIG 002V005 P0000 TSNO $
94908KDBQ DBQ20060313020512203/13/06 02:05:31  5-MIN KDBQ 130805Z AUTO 04016KT 5SM BR OVC002 03/02 A2943 1540 92 500 040/16 RMK AO2 RAE03 P0000 TSNO $
94908KDBQ DBQ20060313021012903/13/06 02:10:31  5-MIN KDBQ 130810Z AUTO 05013KT 4SM BR OVC002 03/02 A2946 1510 92 500 040/13 RMK AO2 RAE03 PRESRR P0000 TSNO $
94908KDBQ DBQ20060313021512203/13/06 02:15:31  5-MIN KDBQ 130815Z AUTO 04012KT 4SM BR OVC002 03/03 A2946 1510 96 500 040/12 RMK AO2 RAE03 P0000 TSNO $
94908KDBQ DBQ20060313022012203/13/06 02:20:31  5-MIN KDBQ 130820Z AUTO 05010KT 5SM BR OVC002 03/03 A2945 1520 96 500 050/10 RMK AO2 RAE03 P0000 TSNO $
94908KDBQ DBQ20060313022512903/13/06 02:25:31  5-MIN KDBQ 130825Z AUTO 02009KT 4SM -RA BR OVC002 03/03 A2945 1520 96 500 020/09 RMK AO2 RAE03B25 P0000 TSNO $
94908KDBQ DBQ20060313023013603/13/06 02:30:31  5-MIN KDBQ 130830Z AUTO 05010KT 3SM -RA BR OVC002 03/03 A2943 1540 96 500 050/10 RMK AO2 RAE03B25 PRESFR P0001 TSNO $
94908KDBQ DBQ20060313023512903/13/06 02:35:31  5-MIN KDBQ 130835Z AUTO 07010KT 3SM -RA BR OVC002 03/03 A2945 1520 96 500 070/10 RMK AO2 RAE03B25 P0002 TSNO $
94908KDBQ DBQ20060313024012903/13/06 02:40:31  5-MIN KDBQ 130840Z AUTO 05010KT 3SM -RA BR OVC002 03/03 A2943 1540 96 500 050/10 RMK AO2 RAE03B25 P0003 TSNO $
94908KDBQ DBQ20060313024513503/13/06 02:45:31  5-MIN KDBQ 130845Z AUTO 06015KT 3SM BR OVC002 03/03 A2941 1560 96 600 060/15 RMK AO2 RAE03B25E44 PRESFR P0003 TSNO $
94908KDBQ DBQ20060313025015703/13/06 02:50:31  5-MIN KDBQ 130850Z AUTO 06014KT 3SM BR OVC002 03/03 A2940 1560 96 600 060/14 RMK AO2 RAE03B25E44 SLP963 P0003 60004 T00330028 56037 TSNO $
94908KDBQ DBQ20060313025516403/13/06 02:55:31  5-MIN KDBQ 130855Z AUTO 05013KT 3SM BR OVC002 03/03 A2939 1570 96 600 050/13 RMK AO2 RAE03B25E44 PRESFR SLP960 P0003 60004 T00330028 58034 TSNO $
94908KDBQ DBQ20060313030011703/13/06 03:00:31  5-MIN KDBQ 130900Z AUTO 05013KT 3SM BR OVC002 03/03 A2938 1580 96 600 050/13 RMK AO2 PRESFR TSNO $
94908KDBQ DBQ20060313030511703/13/06 03:05:31  5-MIN KDBQ 130905Z AUTO 06013KT 3SM BR OVC002 03/03 A2938 1580 96 600 060/13 RMK AO2 PRESFR TSNO $
94908KDBQ DBQ20060313031011003/13/06 03:10:31  5-MIN KDBQ 130910Z AUTO 06011KT 3SM BR OVC002 04/03 A2937 1590 96 700 060/11 RMK AO2 TSNO $
94908KDBQ DBQ20060313031511003/13/06 03:15:31  5-MIN KDBQ 130915Z AUTO 05010KT 3SM BR OVC002 04/03 A2938 1580 96 700 050/10 RMK AO2 TSNO $
94908KDBQ DBQ20060313032011403/13/06 03:20:31  5-MIN KDBQ 130920Z AUTO 03010KT 2 1/2SM BR OVC002 04/03 A2938 1580 96 700 030/10 RMK AO2 TSNO $
94908KDBQ DBQ20060313032511103/13/06 03:25:31  5-MIN KDBQ 130925Z AUTO 03012KT 1SM BR OVC002 03/03 A2938 1580 100 600 030/12 RMK AO2 TSNO $
94908KDBQ DBQ20060313033011203/13/06 03:30:31  5-MIN KDBQ 130930Z AUTO 02012KT 1/2SM FG OVC002 03/03 A2937 1590 96 600 020/12 RMK AO2 TSNO $
94908KDBQ DBQ20060313033511103/13/06 03:35:31  5-MIN KDBQ 130935Z AUTO 03011KT 1/2SM FG VV001 03/03 A2936 1600 96 600 030/11 RMK AO2 TSNO $
94908KDBQ DBQ20060313034011803/13/06 03:40:31  5-MIN KDBQ 130940Z AUTO 03015KT 1/2SM FG VV001 03/03 A2935 1610 96 600 020/15 RMK AO2 PRESFR TSNO $
94908KDBQ DBQ20060313034511803/13/06 03:45:31  5-MIN KDBQ 130945Z AUTO 04012KT 1/4SM FG VV001 03/03 A2934 1620 96 600 040/12 RMK AO2 PRESFR TSNO $
94908KDBQ DBQ20060313035012803/13/06 03:50:31  5-MIN KDBQ 130950Z AUTO 04014KT 1/4SM FG VV001 03/03 A2934 1620 96 600 040/14 RMK AO2 SLP941 T00330028 TSNO $
94908KDBQ DBQ20060313035513503/13/06 03:55:31  5-MIN KDBQ 130955Z AUTO 03016KT 1/4SM FG VV001 03/03 A2933 1630 96 700 030/16 RMK AO2 PRESFR SLP938 T00330028 TSNO $
94908KDBQ DBQ20060313040011103/13/06 04:00:31  5-MIN KDBQ 131000Z AUTO 03014KT 1/4SM FG VV001 03/03 A2933 1630 96 600 030/14 RMK AO2 TSNO $
94908KDBQ DBQ20060313040511803/13/06 04:05:31  5-MIN KDBQ 131005Z AUTO 05012KT 1/4SM FG VV001 03/03 A2932 1640 96 700 050/12 RMK AO2 PRESFR TSNO $
94908KDBQ DBQ20060313041011103/13/06 04:10:31  5-MIN KDBQ 131010Z AUTO 05014KT 1/4SM FG VV001 03/03 A2931 1650 96 700 050/14 RMK AO2 TSNO $
94908KDBQ DBQ20060313041511103/13/06 04:15:31  5-MIN KDBQ 131015Z AUTO 05011KT 1/4SM FG VV001 03/03 A2931 1650 96 700 050/11 RMK AO2 TSNO $
94908KDBQ DBQ20060313042011103/13/06 04:20:31  5-MIN KDBQ 131020Z AUTO 06009KT 1/4SM FG VV001 03/03 A2930 1650 96 700 060/09 RMK AO2 TSNO $
94908KDBQ DBQ20060313042511203/13/06 04:25:31  5-MIN KDBQ 131025Z AUTO 06011KT 1/4SM FG VV001 03/03 A2931 1650 100 700 060/11 RMK AO2 TSNO $
94908KDBQ DBQ20060313043011203/13/06 04:30:31  5-MIN KDBQ 131030Z AUTO 06013KT 1/4SM FG VV001 03/03 A2930 1650 100 700 060/13 RMK AO2 TSNO $
94908KDBQ DBQ20060313043511203/13/06 04:35:31  5-MIN KDBQ 131035Z AUTO 31008KT 1/4SM FG VV001 03/03 A2932 1640 100 700 310/08 RMK AO2 TSNO $
94908KDBQ DBQ20060313044011203/13/06 04:40:31  5-MIN KDBQ 131040Z AUTO 04010KT 1/4SM FG VV001 03/03 A2931 1650 100 700 040/10 RMK AO2 TSNO $
94908KDBQ DBQ20060313044511203/13/06 04:45:31  5-MIN KDBQ 131045Z AUTO 07012KT 1/4SM FG VV001 03/03 A2929 1660 100 700 070/12 RMK AO2 TSNO $
94908KDBQ DBQ20060313045012803/13/06 04:50:31  5-MIN KDBQ 131050Z AUTO VRB04KT 1/4SM FG VV001 04/03 A2930 1660 96 800 VRB/04 RMK AO2 SLP928 T00390033 TSNO $
94908KDBQ DBQ20060313045512803/13/06 04:55:31  5-MIN KDBQ 131055Z AUTO 02004KT 1/4SM FG VV001 04/03 A2930 1650 96 700 020/04 RMK AO2 SLP929 T00390033 TSNO $
94908KDBQ DBQ20060313050011203/13/06 05:00:31  5-MIN KDBQ 131100Z AUTO 08009KT 1/4SM FG VV001 03/03 A2929 1660 100 700 080/09 RMK AO2 TSNO $
94908KDBQ DBQ20060313050511103/13/06 05:05:31  5-MIN KDBQ 131105Z AUTO 09011KT 1/4SM FG VV001 04/03 A2929 1670 96 800 090/11 RMK AO2 TSNO $
94908KDBQ DBQ20060313051012703/13/06 05:10:31  5-MIN KDBQ 131110Z AUTO 09009KT 020V100 1/2SM FG VV001 04/03 A2929 1670 96 800 090/09 020V100 RMK AO2 TSNO $
94908KDBQ DBQ20060313051512403/13/06 05:15:31  5-MIN KDBQ 131115Z AUTO 10013G17KT 1/2SM FG VV001 04/04 A2927 1690 96 900 100/13G17 RMK AO2 PRESFR TSNO $
94908KDBQ DBQ20060313052011803/13/06 05:20:31  5-MIN KDBQ 131120Z AUTO 10010KT 1/2SM FG VV001 04/04 A2926 1690 96 900 100/10 RMK AO2 PRESFR TSNO $
94908KDBQ DBQ20060313052511103/13/06 05:25:31  5-MIN KDBQ 131125Z AUTO 11011KT 1/2SM FG VV001 05/04 A2926 1690 96 900 110/11 RMK AO2 TSNO $
94908KDBQ DBQ20060313053011103/13/06 05:30:31  5-MIN KDBQ 131130Z AUTO 11010KT 1/2SM FG VV001 05/04 A2926 1690 96 900 110/10 RMK AO2 TSNO $
94908KDBQ DBQ20060313053511103/13/06 05:35:31  5-MIN KDBQ 131135Z AUTO 11008KT 1/2SM FG VV001 05/04 A2926 1690 96 900 110/08 RMK AO2 TSNO $
94908KDBQ DBQ20060313054011103/13/06 05:40:31  5-MIN KDBQ 131140Z AUTO 12007KT 1/2SM FG VV001 05/04 A2927 1690 96 900 120/07 RMK AO2 TSNO $
94908KDBQ DBQ20060313054511203/13/06 05:45:31  5-MIN KDBQ 131145Z AUTO 12005KT 1/2SM FG VV001 05/05 A2928 1680 100 900 120/05 RMK AO2 TSNO $
94908KDBQ DBQ20060313055015903/13/06 05:50:31  5-MIN KDBQ 131150Z AUTO 00000KT 1/2SM FG VV001 06/05 A2928 1680 96 1000 000/00 RMK AO2 SLP921 60004 70050 T00560050 10056 20028 58034 TSNO $
94908KDBQ DBQ20060313055515903/13/06 05:55:31  5-MIN KDBQ 131155Z AUTO VRB03KT 1/2SM FG VV001 06/05 A2928 1680 96 1000 VRB/03 RMK AO2 SLP922 60004 70050 T00560050 10056 20028 58019 TSNO $
94908KDBQ DBQ20060313060011503/13/06 06:00:31  5-MIN KDBQ 131200Z 24009G14KT 1/2SM FG VV001 06/05 A2930 1660 96 1000 240/09G14 RMK AO2 PRESRR $
94908KDBQ DBQ20060313060513903/13/06 06:05:31  5-MIN KDBQ 131205Z 20009G15KT 170V250 1/2SM -RA FG VV001 05/04 A2929 1670 96 900 200/09G15 170V250 RMK AO2 RAB02 P0000 $
94908KDBQ DBQ20060313061013203/13/06 06:10:31  5-MIN KDBQ 131210Z 21007G15KT 1/4SM -RA FG BKN001 OVC006 06/05 A2928 1670 96 1000 210/07G15 RMK AO2 RAB02 P0000 $
94908KDBQ DBQ20060313061512603/13/06 06:15:31  5-MIN KDBQ 131215Z 19011KT 1/2SM -RA FG BKN001 OVC006 06/06 A2928 1680 96 1000 190/11 RMK AO2 RAB02 P0000 $
94908KDBQ DBQ20060313062012403/13/06 06:20:31  5-MIN KDBQ 131220Z 20009KT 1SM BR BKN001 OVC005 06/06 A2928 1680 100 1000 200/09 RMK AO2 RAB02E19 P0000 $
94908KDBQ DBQ20060313062512103/13/06 06:25:31  5-MIN KDBQ 131225Z 21011KT 1 3/4SM BR OVC001 06/06 A2928 1680 100 1000 200/11 RMK AO2 RAB02E19 P0000 $
94908KDBQ DBQ20060313063011603/13/06 06:30:31  5-MIN KDBQ 131230Z 21016KT 2SM BR OVC001 07/07 A2927 1680 96 1200 210/16 RMK AO2 RAB02E19 P0000 $
94908KDBQ DBQ20060313063512203/13/06 06:35:31  5-MIN KDBQ 131235Z 22016G23KT 3SM BR OVC003 07/07 A2927 1680 96 1200 220/16G23 RMK AO2 RAB02E19 P0000 $
94908KDBQ DBQ20060313064014103/13/06 06:40:31  5-MIN KDBQ 131240Z 22017G23KT 4SM BR BKN005 OVC008 07/07 A2927 1690 96 1200 210/17G23 RMK AO2 RAB02E19 CIG 001V006 P0000 $
94908KDBQ DBQ20060313064514203/13/06 06:45:31  5-MIN KDBQ 131245Z 21017KT 4SM BR BKN004 OVC008 08/07 A2925 1700 93 1300 210/17 RMK AO2 RAB02E19 CIG 001V007 PRESFR P0000 $
94908KDBQ DBQ20060313065014503/13/06 06:50:31  5-MIN KDBQ 131250Z 22017KT 4SM BR OVC006 08/07 A2925 1700 93 1300 210/17 RMK AO2 RAB02E19 CIG 001V010 SLP911 P0000 T00780067 $
94908KDBQ DBQ20060313065516903/13/06 06:55:31  5-MIN KDBQ 131255Z 22022G28KT 5SM BR OVC006 08/07 A2926 1700 93 1300 220/22G28 RMK AO2 PK WND 23028/1254 RAB02E19 CIG 002V010 SLP912 P0000 T00780067 $
94908KDBQ DBQ20060313070013703/13/06 07:00:31  5-MIN KDBQ 131300Z 23023G29KT 5SM BR OVC006 08/07 A2925 1700 93 1300 230/23G29 RMK AO2 PK WND 23029/1300 CIG 004V010 $
94908KDBQ DBQ20060313070513703/13/06 07:05:31  5-MIN KDBQ 131305Z 23025G31KT 4SM BR OVC006 08/07 A2925 1700 93 1300 230/25G31 RMK AO2 PK WND 22031/1305 CIG 004V010 $
94908KDBQ DBQ20060313071013703/13/06 07:10:31  5-MIN KDBQ 131310Z 24026G32KT 4SM BR OVC006 07/07 A2925 1700 96 1200 240/26G32 RMK AO2 PK WND 24032/1309 CIG 004V010 $
94908KDBQ DBQ20060313071513703/13/06 07:15:31  5-MIN KDBQ 131315Z 25034G41KT 4SM BR OVC006 07/06 A2925 1710 96 1200 250/34G41 RMK AO2 PK WND 24041/1312 CIG 004V009 $
94908KDBQ DBQ20060313072013703/13/06 07:20:31  5-MIN KDBQ 131320Z 25031G41KT 5SM BR OVC006 06/06 A2926 1690 96 1100 250/31G41 RMK AO2 PK WND 24041/1312 CIG 004V011 $
94908KDBQ DBQ20060313072513703/13/06 07:25:31  5-MIN KDBQ 131325Z 25026G39KT 6SM BR OVC006 06/04 A2926 1690 92 1000 240/26G39 RMK AO2 PK WND 24041/1312 CIG 004V011 $
94908KDBQ DBQ20060313073013103/13/06 07:30:31  5-MIN KDBQ 131330Z 25029G37KT 7SM OVC008 05/04 A2927 1680 96 900 250/29G37 RMK AO2 PK WND 24041/1312 CIG 004V011
94908KDBQ DBQ20060313073513803/13/06 07:35:31  5-MIN KDBQ 131335Z 25028G35KT 7SM OVC008 05/04 A2928 1670 96 900 240/28G35 RMK AO2 PK WND 24041/1312 CIG 005V011 PRESRR
94908KDBQ DBQ20060313074012603/13/06 07:40:31  5-MIN KDBQ 131340Z 25026G33KT 7SM OVC008 05/04 A2929 1670 96 900 250/26G33 RMK AO2 PK WND 24041/1312 PRESRR
94908KDBQ DBQ20060313074511903/13/06 07:45:31  5-MIN KDBQ 131345Z 25026G33KT 8SM OVC008 05/04 A2928 1670 96 900 250/26G33 RMK AO2 PK WND 24041/1312
94908KDBQ DBQ20060313075013603/13/06 07:50:31  5-MIN KDBQ 131350Z 25026G33KT 8SM OVC008 05/04 A2930 1660 96 900 250/26G33 RMK AO2 PK WND 24041/1312 SLP928 T00500044
94908KDBQ DBQ20060313075513603/13/06 07:55:31  5-MIN KDBQ 131355Z 25028G34KT 9SM OVC008 05/04 A2930 1660 92 900 250/28G34 RMK AO2 PK WND 24041/1312 SLP929 T00500039
94908KDBQ DBQ20060313080012003/13/06 08:00:31  5-MIN KDBQ 131400Z 25025G34KT 10SM OVC008 05/04 A2931 1650 92 900 250/25G34 RMK AO2 PK WND 25033/1357
94908KDBQ DBQ20060313080512003/13/06 08:05:31  5-MIN KDBQ 131405Z 25024G33KT 10SM OVC008 04/04 A2931 1650 96 800 250/24G33 RMK AO2 PK WND 25033/1401
94908KDBQ DBQ20060313081012003/13/06 08:10:31  5-MIN KDBQ 131410Z 25022G33KT 10SM OVC008 04/04 A2931 1650 96 800 250/22G33 RMK AO2 PK WND 25033/1406
94908KDBQ DBQ20060313081512003/13/06 08:15:31  5-MIN KDBQ 131415Z 25023G33KT 10SM OVC008 04/04 A2932 1640 96 800 250/23G33 RMK AO2 PK WND 25033/1406
94908KDBQ DBQ20060313082012003/13/06 08:20:31  5-MIN KDBQ 131420Z 25022G29KT 10SM OVC008 04/04 A2932 1640 96 800 250/22G29 RMK AO2 PK WND 25033/1406
94908KDBQ DBQ20060313082512003/13/06 08:25:31  5-MIN KDBQ 131425Z 25023G30KT 10SM OVC008 04/03 A2932 1640 89 800 250/23G30 RMK AO2 PK WND 25033/1406
94908KDBQ DBQ20060313083012003/13/06 08:30:31  5-MIN KDBQ 131430Z 25026G34KT 10SM OVC010 04/03 A2933 1630 89 800 250/26G34 RMK AO2 PK WND 25034/1429
94908KDBQ DBQ20060313083512003/13/06 08:35:31  5-MIN KDBQ 131435Z 25029G34KT 10SM OVC010 04/02 A2932 1640 89 700 250/29G34 RMK AO2 PK WND 25034/1429
94908KDBQ DBQ20060313084012003/13/06 08:40:31  5-MIN KDBQ 131440Z 25028G36KT 10SM OVC010 04/02 A2933 1630 85 700 250/28G36 RMK AO2 PK WND 25036/1439
94908KDBQ DBQ20060313084512003/13/06 08:45:31  5-MIN KDBQ 131445Z 25027G36KT 10SM OVC010 04/02 A2933 1630 85 700 240/27G36 RMK AO2 PK WND 25036/1439
94908KDBQ DBQ20060313085016103/13/06 08:50:31  5-MIN KDBQ 131450Z 25023G28KT 10SM OVC010 03/02 A2934 1620 89 600 240/23G28 RMK AO2 PK WND 25036/1439 CIG 008V012 SLP941 60000 T00330017 58019
94908KDBQ DBQ20060313085514903/13/06 08:55:31  5-MIN KDBQ 131455Z 24027G31KT 10SM OVC008 03/02 A2934 1620 89 600 240/27G31 RMK AO2 PK WND 25036/1439 SLP941 60000 T00330017 53018
94908KDBQ DBQ20060313090013203/13/06 09:00:31  5-MIN KDBQ 131500Z 25025G31KT 10SM OVC008 03/02 A2933 1630 89 600 250/25G31 RMK AO2 PK WND 24030/1500 CIG 008V014
94908KDBQ DBQ20060313090513203/13/06 09:05:31  5-MIN KDBQ 131505Z 24028G33KT 10SM OVC008 03/02 A2934 1620 89 600 240/28G33 RMK AO2 PK WND 24033/1505 CIG 008V012
94908KDBQ DBQ20060313091012003/13/06 09:10:31  5-MIN KDBQ 131510Z 24023G33KT 10SM OVC008 03/02 A2934 1620 89 600 240/23G33 RMK AO2 PK WND 25033/1508
94908KDBQ DBQ20060313091512003/13/06 09:15:31  5-MIN KDBQ 131515Z 24024G33KT 10SM OVC008 03/02 A2934 1620 89 600 240/24G33 RMK AO2 PK WND 26033/1512
94908KDBQ DBQ20060313092011903/13/06 09:20:31  5-MIN KDBQ 131520Z 24025G33KT 9SM OVC008 03/02 A2935 1610 89 600 240/25G33 RMK AO2 PK WND 26033/1512
94908KDBQ DBQ20060313092511903/13/06 09:25:31  5-MIN KDBQ 131525Z 25024G30KT 9SM OVC008 03/01 A2935 1610 85 600 250/24G30 RMK AO2 PK WND 26033/1512
94908KDBQ DBQ20060313093012003/13/06 09:30:31  5-MIN KDBQ 131530Z 25028G34KT 10SM OVC008 03/01 A2934 1620 85 600 250/28G34 RMK AO2 PK WND 26034/1530
94908KDBQ DBQ20060313093512003/13/06 09:35:31  5-MIN KDBQ 131535Z 25026G34KT 10SM OVC008 03/01 A2935 1610 85 600 250/26G34 RMK AO2 PK WND 26034/1530
94908KDBQ DBQ20060313094012003/13/06 09:40:31  5-MIN KDBQ 131540Z 24023G33KT 10SM OVC008 03/01 A2935 1610 85 600 240/23G33 RMK AO2 PK WND 26034/1530
94908KDBQ DBQ20060313094512003/13/06 09:45:31  5-MIN KDBQ 131545Z 24024G31KT 10SM OVC008 03/01 A2936 1610 85 600 240/24G31 RMK AO2 PK WND 26034/1530
94908KDBQ DBQ20060313095013703/13/06 09:50:31  5-MIN KDBQ 131550Z 25027G32KT 10SM OVC008 03/01 A2936 1600 85 600 250/27G32 RMK AO2 PK WND 26034/1530 SLP948 T00330011
94908KDBQ DBQ20060313095513703/13/06 09:55:31  5-MIN KDBQ 131555Z 26021G32KT 10SM OVC008 03/01 A2936 1600 85 600 250/21G32 RMK AO2 PK WND 26034/1530 SLP948 T00330011
94908KDBQ DBQ20060313100012003/13/06 10:00:31  5-MIN KDBQ 131600Z 25028G35KT 10SM OVC013 03/01 A2936 1600 85 600 250/28G35 RMK AO2 PK WND 26035/1600
94908KDBQ DBQ20060313100512003/13/06 10:05:31  5-MIN KDBQ 131605Z 25026G35KT 10SM OVC013 03/01 A2936 1600 82 600 250/26G35 RMK AO2 PK WND 26035/1600
94908KDBQ DBQ20060313101013403/13/06 10:10:31  5-MIN KDBQ 131610Z 24026G31KT 10SM BKN013 BKN017 OVC023 03/01 A2936 1600 82 600 240/26G31 RMK AO2 PK WND 26035/1600
94908KDBQ DBQ20060313101513403/13/06 10:15:31  5-MIN KDBQ 131615Z 25024G31KT 10SM BKN013 BKN017 OVC023 03/01 A2937 1590 82 600 250/24G31 RMK AO2 PK WND 26035/1600
94908KDBQ DBQ20060313102013403/13/06 10:20:31  5-MIN KDBQ 131620Z 25027G30KT 10SM BKN013 BKN018 OVC024 03/01 A2938 1580 82 600 250/27G30 RMK AO2 PK WND 26035/1600
94908KDBQ DBQ20060313102513403/13/06 10:25:31  5-MIN KDBQ 131625Z 26023G31KT 10SM SCT013 BKN018 OVC024 03/01 A2938 1580 82 600 260/23G31 RMK AO2 PK WND 26035/1600
94908KDBQ DBQ20060313103013403/13/06 10:30:31  5-MIN KDBQ 131630Z 26025G31KT 10SM BKN016 BKN024 OVC028 03/01 A2938 1580 82 600 260/25G31 RMK AO2 PK WND 26035/1600
94908KDBQ DBQ20060313103512703/13/06 10:35:31  5-MIN KDBQ 131635Z 25024G30KT 10SM BKN018 OVC026 03/01 A2939 1580 82 600 250/24G30 RMK AO2 PK WND 26035/1600
94908KDBQ DBQ20060313104012003/13/06 10:40:31  5-MIN KDBQ 131640Z 26023G30KT 10SM OVC016 03/01 A2938 1580 82 600 260/23G30 RMK AO2 PK WND 26035/1600
94908KDBQ DBQ20060313104512003/13/06 10:45:31  5-MIN KDBQ 131645Z 25027G30KT 10SM OVC016 03/01 A2940 1570 85 500 250/27G30 RMK AO2 PK WND 26035/1600
94908KDBQ DBQ20060313105012703/13/06 10:50:31  5-MIN KDBQ 131650Z 26024G30KT 10SM BKN014 OVC019 03/01 A2940 1560 85 500 260/24G30 RMK AO2 PK WND 26035/1600
94908KDBQ DBQ20060313105514403/13/06 10:55:31  5-MIN KDBQ 131655Z 26023G28KT 10SM BKN012 OVC019 03/01 A2940 1570 85 500 260/23G28 RMK AO2 PK WND 26035/1600 SLP963 T00280006
94908KDBQ DBQ20060313110012703/13/06 11:00:31  5-MIN KDBQ 131700Z 25023G28KT 10SM BKN012 OVC019 03/01 A2940 1560 82 600 250/23G28 RMK AO2 PK WND 25028/1700
94908KDBQ DBQ20060313110512103/13/06 11:05:31  5-MIN KDBQ 131705Z 25026KT 10SM BKN014 OVC019 03/01 A2940 1560 82 600 250/26 RMK AO2 PK WND 26029/1705
94908KDBQ DBQ20060313111012703/13/06 11:10:31  5-MIN KDBQ 131710Z 25023G30KT 10SM BKN014 OVC021 03/01 A2941 1560 82 600 250/23G30 RMK AO2 PK WND 25030/1708
94908KDBQ DBQ20060313111513403/13/06 11:15:31  5-MIN KDBQ 131715Z 26024G30KT 10SM SCT014 BKN019 OVC027 03/01 A2941 1550 82 600 260/24G30 RMK AO2 PK WND 25030/1708
94908KDBQ DBQ20060313112012703/13/06 11:20:31  5-MIN KDBQ 131720Z 26028G34KT 10SM BKN016 OVC022 03/00 A2942 1550 79 500 260/28G34 RMK AO2 PK WND 26034/1719
94908KDBQ DBQ20060313112513503/13/06 11:25:31  5-MIN KDBQ 131725Z 26025G34KT 10SM BKN018 OVC025 03/M01 A2943 1540 79 500 260/25G34 RMK AO2 PK WND 26034/1719 PRESRR
94908KDBQ DBQ20060313113013503/13/06 11:30:31  5-MIN KDBQ 131730Z 27025G29KT 10SM BKN016 BKN022 OVC026 03/M01 A2943 1540 79 500 270/25G29 RMK AO2 PK WND 26034/1719
94908KDBQ DBQ20060313113512803/13/06 11:35:31  5-MIN KDBQ 131735Z 26021G29KT 10SM BKN018 OVC026 03/M01 A2943 1530 79 500 260/21G29 RMK AO2 PK WND 26034/1719
94908KDBQ DBQ20060313114012803/13/06 11:40:31  5-MIN KDBQ 131740Z 26026G32KT 10SM BKN018 OVC023 03/M01 A2944 1530 79 500 260/26G32 RMK AO2 PK WND 26034/1719
94908KDBQ DBQ20060313114512803/13/06 11:45:31  5-MIN KDBQ 131745Z 26024G32KT 10SM BKN018 OVC023 03/M01 A2944 1530 79 500 260/24G32 RMK AO2 PK WND 26034/1719
94908KDBQ DBQ20060313115015603/13/06 11:50:31  5-MIN KDBQ 131750Z 27019KT 10SM OVC018 03/M01 A2944 1530 79 500 270/19 RMK AO2 PK WND 26034/1719 SLP976 60000 T00281006 10078 20028 53018
94908KDBQ DBQ20060313115516903/13/06 11:55:31  5-MIN KDBQ 131755Z 27024G29KT 10SM BKN018 OVC023 03/M01 A2945 1520 79 400 260/24G29 RMK AO2 PK WND 26034/1719 SLP979 60000 T00281006 10078 20028 53029
94908KDBQ DBQ20060313120012803/13/06 12:00:31  5-MIN KDBQ 131800Z 27023G31KT 10SM BKN018 OVC023 03/M01 A2945 1520 79 400 270/23G31 RMK AO2 PK WND 26031/1757
94908KDBQ DBQ20060313120512803/13/06 12:05:31  5-MIN KDBQ 131805Z 28026G36KT 10SM BKN018 OVC022 03/M01 A2945 1510 76 500 280/26G36 RMK AO2 PK WND 28036/1805
94908KDBQ DBQ20060313121013503/13/06 12:10:31  5-MIN KDBQ 131810Z 29028G37KT 10SM BKN018 BKN028 OVC035 03/M01 A2945 1510 76 500 290/28G37 RMK AO2 PK WND 30037/1809
94908KDBQ DBQ20060313121513503/13/06 12:15:31  5-MIN KDBQ 131815Z 28023G37KT 10SM BKN018 BKN028 OVC035 03/M01 A2946 1500 79 400 280/23G37 RMK AO2 PK WND 30037/1809
94908KDBQ DBQ20060313122012803/13/06 12:20:31  5-MIN KDBQ 131820Z 28023G30KT 10SM BKN018 OVC028 03/M01 A2946 1500 79 400 280/23G30 RMK AO2 PK WND 30037/1809
94908KDBQ DBQ20060313122513503/13/06 12:25:31  5-MIN KDBQ 131825Z 27028G33KT 10SM BKN018 BKN025 OVC037 03/M01 A2947 1500 76 500 270/28G33 RMK AO2 PK WND 30037/1809
94908KDBQ DBQ20060313123013503/13/06 12:30:31  5-MIN KDBQ 131830Z 28029G35KT 10SM BKN018 BKN025 OVC037 03/M01 A2947 1490 79 400 280/29G35 RMK AO2 PK WND 30037/1809
94908KDBQ DBQ20060313123513503/13/06 12:35:31  5-MIN KDBQ 131835Z 28027G35KT 10SM BKN018 BKN027 OVC037 03/M01 A2948 1490 75 400 280/27G35 RMK AO2 PK WND 30037/1809
94908KDBQ DBQ20060313124012803/13/06 12:40:31  5-MIN KDBQ 131840Z 28025G35KT 10SM BKN018 OVC023 02/M01 A2949 1480 78 300 280/25G35 RMK AO2 PK WND 30037/1809
94908KDBQ DBQ20060313124512803/13/06 12:45:31  5-MIN KDBQ 131845Z 29025G35KT 10SM BKN016 OVC023 02/M01 A2949 1480 78 300 290/25G35 RMK AO2 PK WND 30037/1809
94908KDBQ DBQ20060313125014503/13/06 12:50:31  5-MIN KDBQ 131850Z 28024G33KT 10SM BKN016 OVC021 02/M02 A2949 1480 78 300 280/24G33 RMK AO2 PK WND 30037/1809 SLP995 T00171017
94908KDBQ DBQ20060313125513803/13/06 12:55:31  5-MIN KDBQ 131855Z 28027G40KT 10SM OVC016 02/M02 A2949 1470 78 300 280/27G40 RMK AO2 PK WND 27040/1853 SLP996 T00171017
94908KDBQ DBQ20060313130012103/13/06 13:00:31  5-MIN KDBQ 131900Z 27027G40KT 10SM OVC016 02/M02 A2950 1470 78 200 270/27G40 RMK AO2 PK WND 27032/1900
94908KDBQ DBQ20060313130512103/13/06 13:05:31  5-MIN KDBQ 131905Z 28029G34KT 10SM OVC016 02/M02 A2950 1470 75 200 280/29G34 RMK AO2 PK WND 29034/1904
94908KDBQ DBQ20060313131012103/13/06 13:10:31  5-MIN KDBQ 131910Z 29026G34KT 10SM OVC016 02/M02 A2951 1460 78 200 290/26G34 RMK AO2 PK WND 28034/1906
94908KDBQ DBQ20060313131512103/13/06 13:15:31  5-MIN KDBQ 131915Z 28027G34KT 10SM OVC016 02/M02 A2951 1460 75 200 280/27G34 RMK AO2 PK WND 28034/1906
94908KDBQ DBQ20060313132012103/13/06 13:20:31  5-MIN KDBQ 131920Z 29023G32KT 10SM OVC016 01/M02 A2951 1460 78 200 290/23G32 RMK AO2 PK WND 28034/1906
94908KDBQ DBQ20060313132512103/13/06 13:25:31  5-MIN KDBQ 131925Z 29028G33KT 10SM OVC016 01/M02 A2952 1450 78 200 290/28G33 RMK AO2 PK WND 28034/1906
94908KDBQ DBQ20060313133012103/13/06 13:30:31  5-MIN KDBQ 131930Z 28026G33KT 10SM OVC016 01/M02 A2952 1450 78 100 280/26G33 RMK AO2 PK WND 28034/1906
94908KDBQ DBQ20060313133512103/13/06 13:35:31  5-MIN KDBQ 131935Z 29023G33KT 10SM OVC016 01/M02 A2952 1450 78 100 290/23G33 RMK AO2 PK WND 28034/1906
94908KDBQ DBQ20060313134012103/13/06 13:40:31  5-MIN KDBQ 131940Z 28024G32KT 10SM OVC016 01/M02 A2953 1450 78 100 280/24G32 RMK AO2 PK WND 28034/1906
94908KDBQ DBQ20060313134512103/13/06 13:45:31  5-MIN KDBQ 131945Z 29024G32KT 10SM OVC016 01/M02 A2953 1440 78 100 280/24G32 RMK AO2 PK WND 28034/1906
94908KDBQ DBQ20060313135013803/13/06 13:50:31  5-MIN KDBQ 131950Z 29023G31KT 10SM OVC016 02/M02 A2953 1440 75 200 290/23G31 RMK AO2 PK WND 28034/1906 SLP009 T00171022
94908KDBQ DBQ20060313135513803/13/06 13:55:31  5-MIN KDBQ 131955Z 29024G31KT 10SM OVC018 02/M02 A2954 1440 75 200 290/24G31 RMK AO2 PK WND 28034/1906 SLP010 T00171022
94908KDBQ DBQ20060313140012103/13/06 14:00:31  5-MIN KDBQ 132000Z 29024G31KT 10SM OVC018 02/M02 A2954 1430 75 200 290/24G31 RMK AO2 PK WND 30030/1958
94908KDBQ DBQ20060313140512103/13/06 14:05:31  5-MIN KDBQ 132005Z 29020G30KT 10SM OVC018 02/M02 A2954 1430 75 200 280/20G30 RMK AO2 PK WND 29030/2002
94908KDBQ DBQ20060313141012103/13/06 14:10:31  5-MIN KDBQ 132010Z 29023G30KT 10SM OVC018 02/M02 A2955 1430 75 200 290/23G30 RMK AO2 PK WND 29030/2002
94908KDBQ DBQ20060313141512103/13/06 14:15:31  5-MIN KDBQ 132015Z 29026G31KT 10SM OVC018 02/M02 A2955 1420 75 200 290/26G31 RMK AO2 PK WND 28031/2015
94908KDBQ DBQ20060313142012103/13/06 14:20:31  5-MIN KDBQ 132020Z 29024G32KT 10SM OVC018 02/M02 A2956 1420 75 200 290/24G32 RMK AO2 PK WND 29032/2018
94908KDBQ DBQ20060313142512803/13/06 14:25:31  5-MIN KDBQ 132025Z 29022G32KT 10SM OVC018 01/M03 A2956 1410 75 100 290/22G32 RMK AO2 PK WND 29032/2018 PRESRR
94908KDBQ DBQ20060313143012103/13/06 14:30:31  5-MIN KDBQ 132030Z 29020G30KT 10SM OVC020 01/M03 A2956 1410 75 100 290/20G30 RMK AO2 PK WND 29032/2018
94908KDBQ DBQ20060313143512103/13/06 14:35:31  5-MIN KDBQ 132035Z 28019G28KT 10SM OVC020 01/M03 A2957 1400 75 100 280/19G28 RMK AO2 PK WND 29032/2018
94908KDBQ DBQ20060313144012103/13/06 14:40:31  5-MIN KDBQ 132040Z 29024G30KT 10SM OVC018 01/M03 A2957 1400 75 100 280/24G30 RMK AO2 PK WND 29032/2018
94908KDBQ DBQ20060313144511903/13/06 14:45:31  5-MIN KDBQ 132045Z 29026G32KT 10SM OVC018 01/M03 A2958 1400 75 0 290/26G32 RMK AO2 PK WND 28032/2044
94908KDBQ DBQ20060313145014203/13/06 14:50:31  5-MIN KDBQ 132050Z 29024G32KT 10SM OVC018 01/M03 A2958 1390 75 0 290/24G32 RMK AO2 PK WND 28032/2044 SLP026 T00061033 53029
94908KDBQ DBQ20060313145514203/13/06 14:55:31  5-MIN KDBQ 132055Z 29025G29KT 10SM OVC018 01/M03 A2959 1390 75 0 290/25G29 RMK AO2 PK WND 28032/2044 SLP027 T00061033 53046
94908KDBQ DBQ20060313150012103/13/06 15:00:31  5-MIN KDBQ 132100Z 29024G29KT 10SM OVC018 01/M03 A2959 1380 72 100 290/24G29 RMK AO2 PK WND 29027/2059
94908KDBQ DBQ20060313150511903/13/06 15:05:31  5-MIN KDBQ 132105Z 29022G27KT 10SM OVC018 01/M03 A2959 1380 75 0 290/22G27 RMK AO2 PK WND 29027/2059
94908KDBQ DBQ20060313151011903/13/06 15:10:31  5-MIN KDBQ 132110Z 29024G31KT 10SM OVC018 01/M03 A2960 1380 75 0 290/24G31 RMK AO2 PK WND 28031/2108
94908KDBQ DBQ20060313151511903/13/06 15:15:31  5-MIN KDBQ 132115Z 30022G31KT 10SM OVC018 01/M03 A2961 1370 75 0 300/22G31 RMK AO2 PK WND 28031/2108
94908KDBQ DBQ20060313152011903/13/06 15:20:31  5-MIN KDBQ 132120Z 29023G31KT 10SM OVC018 01/M03 A2961 1370 75 0 280/23G31 RMK AO2 PK WND 30031/2116
94908KDBQ DBQ20060313152511903/13/06 15:25:31  5-MIN KDBQ 132125Z 29021G31KT 10SM OVC018 01/M03 A2961 1360 75 0 290/21G31 RMK AO2 PK WND 30031/2116
94908KDBQ DBQ20060313153011903/13/06 15:30:31  5-MIN KDBQ 132130Z 29024G30KT 10SM OVC018 01/M03 A2962 1360 75 0 290/24G30 RMK AO2 PK WND 30031/2116
94908KDBQ DBQ20060313153511903/13/06 15:35:31  5-MIN KDBQ 132135Z 29022G30KT 10SM OVC018 00/M04 A2962 1360 75 0 280/22G30 RMK AO2 PK WND 30031/2116
94908KDBQ DBQ20060313154012203/13/06 15:40:31  5-MIN KDBQ 132140Z 29023G29KT 10SM OVC018 00/M04 A2962 1360 75 -100 290/23G29 RMK AO2 PK WND 30031/2116
94908KDBQ DBQ20060313154512203/13/06 15:45:31  5-MIN KDBQ 132145Z 29024G30KT 10SM OVC018 00/M04 A2962 1350 75 -100 290/24G30 RMK AO2 PK WND 30031/2116
94908KDBQ DBQ20060313155013903/13/06 15:50:31  5-MIN KDBQ 132150Z 29021G30KT 10SM OVC018 00/M04 A2963 1350 75 -100 290/21G30 RMK AO2 PK WND 30031/2116 SLP043 T00001039
94908KDBQ DBQ20060313155513903/13/06 15:55:31  5-MIN KDBQ 132155Z 29021G32KT 10SM OVC018 00/M04 A2964 1340 75 -100 290/21G32 RMK AO2 PK WND 29032/2152 SLP046 T00001039
94908KDBQ DBQ20060313160010403/13/06 16:00:31  5-MIN KDBQ 132200Z 30020G32KT 10SM OVC018 00/M04 A2964 1340 75 -100 300/20G32 RMK AO2
94908KDBQ DBQ20060313160510403/13/06 16:05:31  5-MIN KDBQ 132205Z 30017G24KT 10SM OVC018 00/M04 A2964 1340 75 -100 300/17G24 RMK AO2
94908KDBQ DBQ20060313161012203/13/06 16:10:31  5-MIN KDBQ 132210Z 29023G26KT 10SM OVC018 00/M04 A2965 1330 75 -100 290/23G26 RMK AO2 PK WND 30026/2210
94908KDBQ DBQ20060313161512303/13/06 16:15:31  5-MIN KDBQ 132215Z 28019G27KT 10SM OVC018 M01/M04 A2965 1330 78 -200 280/19G27 RMK AO2 PK WND 28027/2213
94908KDBQ DBQ20060313162012303/13/06 16:20:31  5-MIN KDBQ 132220Z 30022G31KT 10SM OVC018 M01/M04 A2965 1330 78 -200 300/22G31 RMK AO2 PK WND 28031/2217
94908KDBQ DBQ20060313162512203/13/06 16:25:31  5-MIN KDBQ 132225Z 29024G32KT 10SM OVC018 00/M04 A2966 1320 75 -100 290/24G32 RMK AO2 PK WND 29032/2224
94908KDBQ DBQ20060313163012303/13/06 16:30:31  5-MIN KDBQ 132230Z 28028G32KT 10SM OVC020 M01/M04 A2966 1320 78 -200 280/28G32 RMK AO2 PK WND 29032/2230
94908KDBQ DBQ20060313163512303/13/06 16:35:31  5-MIN KDBQ 132235Z 29025G35KT 10SM OVC018 M01/M04 A2966 1320 78 -200 290/25G35 RMK AO2 PK WND 29035/2233
94908KDBQ DBQ20060313164012303/13/06 16:40:31  5-MIN KDBQ 132240Z 29026G35KT 10SM OVC018 M01/M04 A2967 1320 75 -200 290/26G35 RMK AO2 PK WND 29035/2233
94908KDBQ DBQ20060313164512303/13/06 16:45:31  5-MIN KDBQ 132245Z 29030G35KT 10SM OVC018 M01/M04 A2967 1310 75 -200 290/30G35 RMK AO2 PK WND 29035/2244
94908KDBQ DBQ20060313165014003/13/06 16:50:31  5-MIN KDBQ 132250Z 29024G35KT 10SM OVC018 M01/M04 A2968 1300 75 -200 290/24G35 RMK AO2 PK WND 29035/2244 SLP059 T10061044
94908KDBQ DBQ20060313165514003/13/06 16:55:31  5-MIN KDBQ 132255Z 29026G34KT 10SM OVC018 M01/M04 A2968 1300 75 -200 290/26G34 RMK AO2 PK WND 29035/2244 SLP061 T10061044
94908KDBQ DBQ20060313170012303/13/06 17:00:31  5-MIN KDBQ 132300Z 29025G34KT 10SM OVC018 M01/M04 A2968 1300 75 -200 290/25G34 RMK AO2 PK WND 29030/2300
94908KDBQ DBQ20060313170512303/13/06 17:05:31  5-MIN KDBQ 132305Z 30023G30KT 10SM OVC018 M01/M04 A2969 1290 75 -200 300/23G30 RMK AO2 PK WND 29030/2300
94908KDBQ DBQ20060313171012303/13/06 17:10:31  5-MIN KDBQ 132310Z 29023G30KT 10SM OVC018 M01/M04 A2970 1290 75 -200 290/23G30 RMK AO2 PK WND 30030/2307
94908KDBQ DBQ20060313171512303/13/06 17:15:31  5-MIN KDBQ 132315Z 29022G30KT 10SM OVC018 M01/M04 A2970 1280 75 -200 290/22G30 RMK AO2 PK WND 30030/2307
94908KDBQ DBQ20060313172012303/13/06 17:20:31  5-MIN KDBQ 132320Z 30024G30KT 10SM OVC018 M01/M04 A2970 1280 78 -300 300/24G30 RMK AO2 PK WND 29030/2317
94908KDBQ DBQ20060313172512303/13/06 17:25:31  5-MIN KDBQ 132325Z 30020G30KT 10SM OVC018 M01/M04 A2971 1270 78 -300 300/20G30 RMK AO2 PK WND 29030/2317
94908KDBQ DBQ20060313173012303/13/06 17:30:31  5-MIN KDBQ 132330Z 30016G28KT 10SM OVC018 M01/M04 A2971 1270 78 -300 300/16G28 RMK AO2 PK WND 29030/2317
94908KDBQ DBQ20060313173512303/13/06 17:35:31  5-MIN KDBQ 132335Z 29022G27KT 10SM OVC018 M01/M04 A2972 1270 78 -300 290/22G27 RMK AO2 PK WND 29030/2317
94908KDBQ DBQ20060313174012303/13/06 17:40:31  5-MIN KDBQ 132340Z 30019G29KT 10SM OVC018 M01/M05 A2972 1260 75 -300 300/19G29 RMK AO2 PK WND 29030/2317
94908KDBQ DBQ20060313174512303/13/06 17:45:31  5-MIN KDBQ 132345Z 29022G29KT 10SM OVC018 M01/M05 A2973 1260 75 -300 290/22G29 RMK AO2 PK WND 29030/2317
94908KDBQ DBQ20060313175015803/13/06 17:50:31  5-MIN KDBQ 132350Z 30019G28KT 10SM OVC018 M01/M05 A2973 1260 75 -300 290/19G28 RMK AO2 PK WND 29030/2317 SLP076 T10111050 10033 21011 53046
94908KDBQ DBQ20060313175515803/13/06 17:55:31  5-MIN KDBQ 132355Z 30021G26KT 10SM OVC018 M01/M05 A2973 1250 75 -300 300/21G26 RMK AO2 PK WND 29030/2317 SLP078 T10111050 10033 21011 53049
94908KDBQ DBQ20060313180012303/13/06 18:00:31  5-MIN KDBQ 140000Z 28023G28KT 10SM OVC018 M02/M05 A2974 1250 78 -400 280/23G28 RMK AO2 PK WND 28028/2359
94908KDBQ DBQ20060313180512303/13/06 18:05:31  5-MIN KDBQ 140005Z 29022G30KT 10SM OVC018 M02/M05 A2974 1250 78 -400 290/22G30 RMK AO2 PK WND 28030/0001
94908KDBQ DBQ20060313181012303/13/06 18:10:31  5-MIN KDBQ 140010Z 28019G30KT 10SM OVC018 M02/M05 A2974 1250 78 -400 280/19G30 RMK AO2 PK WND 28030/0001
94908KDBQ DBQ20060313181512303/13/06 18:15:31  5-MIN KDBQ 140015Z 29019G27KT 10SM OVC016 M02/M05 A2975 1240 81 -500 290/19G27 RMK AO2 PK WND 28030/0001
94908KDBQ DBQ20060313182012203/13/06 18:20:31  5-MIN KDBQ 140020Z 29021G28KT 9SM OVC016 M02/M06 A2975 1240 78 -500 290/21G28 RMK AO2 PK WND 28030/0001
94908KDBQ DBQ20060313182512303/13/06 18:25:31  5-MIN KDBQ 140025Z 28021G29KT 10SM OVC016 M02/M06 A2975 1230 78 -500 280/21G29 RMK AO2 PK WND 28030/0001
94908KDBQ DBQ20060313183012303/13/06 18:30:31  5-MIN KDBQ 140030Z 29019G29KT 10SM OVC016 M02/M06 A2976 1230 78 -500 290/19G29 RMK AO2 PK WND 28030/0001
94908KDBQ DBQ20060313183512303/13/06 18:35:31  5-MIN KDBQ 140035Z 29019G28KT 10SM OVC018 M02/M06 A2976 1230 78 -500 280/19G28 RMK AO2 PK WND 28030/0001
94908KDBQ DBQ20060313184012303/13/06 18:40:31  5-MIN KDBQ 140040Z 28019G27KT 10SM OVC018 M02/M06 A2976 1220 78 -500 280/19G27 RMK AO2 PK WND 28030/0001
94908KDBQ DBQ20060313184512303/13/06 18:45:31  5-MIN KDBQ 140045Z 28023G28KT 10SM OVC018 M02/M06 A2977 1220 78 -500 280/23G28 RMK AO2 PK WND 28030/0001
94908KDBQ DBQ20060313185014703/13/06 18:50:31  5-MIN KDBQ 140050Z 29019G28KT 10SM BKN018 OVC023 M03/M06 A2977 1220 81 -600 280/19G28 RMK AO2 PK WND 28030/0001 SLP090 T10281056
94908KDBQ DBQ20060313185514703/13/06 18:55:31  5-MIN KDBQ 140055Z 29019G27KT 10SM BKN018 OVC023 M03/M06 A2977 1220 81 -600 290/19G27 RMK AO2 PK WND 28030/0001 SLP090 T10281056
94908KDBQ DBQ20060313190012303/13/06 19:00:31  5-MIN KDBQ 140100Z 29016G28KT 10SM OVC018 M03/M06 A2977 1220 81 -600 290/16G28 RMK AO2 PK WND 29028/0056
94908KDBQ DBQ20060313190512303/13/06 19:05:31  5-MIN KDBQ 140105Z 28021G28KT 10SM OVC018 M03/M06 A2978 1210 78 -600 280/21G28 RMK AO2 PK WND 29028/0056
94908KDBQ DBQ20060313191013303/13/06 19:10:31  5-MIN KDBQ 140110Z AUTO 29018G26KT 10SM OVC018 M03/M06 A2978 1210 78 -600 290/18G26 RMK AO2 PK WND 29028/0056 TSNO
94908KDBQ DBQ20060313191513303/13/06 19:15:31  5-MIN KDBQ 140115Z AUTO 29024G27KT 10SM OVC018 M03/M06 A2978 1200 78 -600 290/24G27 RMK AO2 PK WND 29028/0056 TSNO
94908KDBQ DBQ20060313192013303/13/06 19:20:31  5-MIN KDBQ 140120Z AUTO 29018G27KT 10SM OVC016 M03/M06 A2979 1200 78 -600 290/18G27 RMK AO2 PK WND 29028/0056 TSNO
94908KDBQ DBQ20060313192513303/13/06 19:25:31  5-MIN KDBQ 140125Z AUTO 28021G30KT 10SM OVC018 M03/M06 A2979 1200 78 -600 280/21G30 RMK AO2 PK WND 29030/0121 TSNO
94908KDBQ DBQ20060313193013303/13/06 19:30:31  5-MIN KDBQ 140130Z AUTO 29021G30KT 10SM OVC016 M03/M06 A2979 1200 81 -700 290/21G30 RMK AO2 PK WND 29030/0121 TSNO
94908KDBQ DBQ20060313193513303/13/06 19:35:31  5-MIN KDBQ 140135Z AUTO 29022G31KT 10SM OVC016 M03/M06 A2980 1190 81 -700 290/22G31 RMK AO2 PK WND 29031/0135 TSNO
94908KDBQ DBQ20060313194013303/13/06 19:40:31  5-MIN KDBQ 140140Z AUTO 30022G31KT 10SM OVC016 M03/M07 A2980 1190 78 -700 300/22G31 RMK AO2 PK WND 29031/0138 TSNO
94908KDBQ DBQ20060313194513303/13/06 19:45:31  5-MIN KDBQ 140145Z AUTO 29021G31KT 10SM OVC014 M03/M07 A2980 1190 78 -700 290/21G31 RMK AO2 PK WND 29031/0138 TSNO
94908KDBQ DBQ20060313195013303/13/06 19:50:31  5-MIN KDBQ 140150Z AUTO 29021G26KT 10SM OVC014 M03/M07 A2980 1190 78 -700 290/21G26 RMK AO2 PK WND 29031/0138 TSNO
94908KDBQ DBQ20060313195515003/13/06 19:55:31  5-MIN KDBQ 140155Z AUTO 29019G26KT 10SM OVC014 M03/M07 A2980 1190 78 -700 290/19G26 RMK AO2 PK WND 29031/0138 SLP102 T10331067 TSNO
94908KDBQ DBQ20060313200013303/13/06 20:00:31  5-MIN KDBQ 140200Z AUTO 30024G31KT 10SM OVC014 M03/M06 A2981 1180 81 -700 300/24G31 RMK AO2 PK WND 30031/0200 TSNO
94908KDBQ DBQ20060313200513303/13/06 20:05:31  5-MIN KDBQ 140205Z AUTO 29022G31KT 10SM OVC014 M04/M07 A2981 1180 81 -800 290/22G31 RMK AO2 PK WND 29031/0201 TSNO
94908KDBQ DBQ20060313201013303/13/06 20:10:31  5-MIN KDBQ 140210Z AUTO 28021G31KT 10SM OVC014 M04/M07 A2981 1180 81 -800 280/21G31 RMK AO2 PK WND 29031/0201 TSNO
94908KDBQ DBQ20060313201513303/13/06 20:15:31  5-MIN KDBQ 140215Z AUTO 29019G27KT 10SM OVC014 M04/M07 A2981 1180 81 -800 290/19G27 RMK AO2 PK WND 29031/0201 TSNO
94908KDBQ DBQ20060313202013303/13/06 20:20:31  5-MIN KDBQ 140220Z AUTO 30022G28KT 10SM OVC014 M04/M07 A2981 1180 81 -800 300/22G28 RMK AO2 PK WND 29031/0201 TSNO
94908KDBQ DBQ20060313202513303/13/06 20:25:31  5-MIN KDBQ 140225Z AUTO 30021G28KT 10SM OVC014 M04/M07 A2981 1180 81 -800 300/21G28 RMK AO2 PK WND 29031/0201 TSNO
94908KDBQ DBQ20060313203013303/13/06 20:30:31  5-MIN KDBQ 140230Z AUTO 29022G27KT 10SM OVC014 M04/M07 A2982 1180 81 -800 290/22G27 RMK AO2 PK WND 29031/0201 TSNO
94908KDBQ DBQ20060313203513303/13/06 20:35:31  5-MIN KDBQ 140235Z AUTO 30021G27KT 10SM OVC014 M04/M07 A2982 1170 78 -800 300/21G27 RMK AO2 PK WND 29031/0201 TSNO
94908KDBQ DBQ20060313204013303/13/06 20:40:31  5-MIN KDBQ 140240Z AUTO 30019G27KT 10SM OVC014 M04/M07 A2982 1170 78 -800 300/19G27 RMK AO2 PK WND 29031/0201 TSNO
94908KDBQ DBQ20060313204513303/13/06 20:45:31  5-MIN KDBQ 140245Z AUTO 29019G24KT 10SM OVC014 M04/M07 A2982 1170 81 -800 290/19G24 RMK AO2 PK WND 29031/0201 TSNO
94908KDBQ DBQ20060313205015603/13/06 20:50:31  5-MIN KDBQ 140250Z AUTO 29020G28KT 10SM OVC014 M04/M07 A2982 1170 78 -800 290/20G28 RMK AO2 PK WND 29031/0201 SLP110 T10391072 53049 TSNO
94908KDBQ DBQ20060313205515603/13/06 20:55:31  5-MIN KDBQ 140255Z AUTO 29019G28KT 10SM OVC014 M04/M07 A2983 1170 81 -800 290/19G28 RMK AO2 PK WND 29031/0201 SLP111 T10391067 51018 TSNO
94908KDBQ DBQ20060313210011503/13/06 21:00:31  5-MIN KDBQ 140300Z AUTO 30019G25KT 10SM OVC014 M04/M07 A2983 1160 81 -800 300/19G25 RMK AO2 TSNO
94908KDBQ DBQ20060313210511503/13/06 21:05:31  5-MIN KDBQ 140305Z AUTO 29020G25KT 10SM OVC014 M04/M07 A2983 1160 78 -800 290/20G25 RMK AO2 TSNO
94908KDBQ DBQ20060313211011503/13/06 21:10:31  5-MIN KDBQ 140310Z AUTO 30018G25KT 10SM OVC014 M04/M07 A2983 1160 78 -800 290/18G25 RMK AO2 TSNO
94908KDBQ DBQ20060313211513303/13/06 21:15:31  5-MIN KDBQ 140315Z AUTO 29021G26KT 10SM OVC016 M04/M07 A2983 1160 78 -800 290/21G26 RMK AO2 PK WND 30026/0313 TSNO
94908KDBQ DBQ20060313212013303/13/06 21:20:31  5-MIN KDBQ 140320Z AUTO 29017G26KT 10SM OVC016 M04/M07 A2984 1150 78 -800 290/17G26 RMK AO2 PK WND 30026/0313 TSNO
94908KDBQ DBQ20060313212512703/13/06 21:25:31  5-MIN KDBQ 140325Z AUTO 30020KT 10SM OVC016 M04/M07 A2984 1150 78 -800 300/20 RMK AO2 PK WND 30026/0313 TSNO
94908KDBQ DBQ20060313213013303/13/06 21:30:31  5-MIN KDBQ 140330Z AUTO 30021G27KT 10SM OVC016 M04/M07 A2984 1150 78 -800 300/21G27 RMK AO2 PK WND 29027/0326 TSNO
94908KDBQ DBQ20060313213513303/13/06 21:35:31  5-MIN KDBQ 140335Z AUTO 30020G27KT 10SM OVC016 M04/M07 A2985 1150 78 -800 300/20G27 RMK AO2 PK WND 29027/0326 TSNO
94908KDBQ DBQ20060313214013303/13/06 21:40:31  5-MIN KDBQ 140340Z AUTO 30020G25KT 10SM OVC018 M04/M07 A2985 1140 78 -800 300/20G25 RMK AO2 PK WND 29027/0326 TSNO
94908KDBQ DBQ20060313214513303/13/06 21:45:31  5-MIN KDBQ 140345Z AUTO 29017G25KT 10SM OVC018 M04/M07 A2985 1140 78 -800 290/17G25 RMK AO2 PK WND 29027/0326 TSNO
94908KDBQ DBQ20060313215015003/13/06 21:50:31  5-MIN KDBQ 140350Z AUTO 29018G24KT 10SM OVC018 M04/M07 A2985 1140 78 -800 290/18G24 RMK AO2 PK WND 29027/0326 SLP120 T10391072 TSNO
94908KDBQ DBQ20060313215515003/13/06 21:55:31  5-MIN KDBQ 140355Z AUTO 29018G24KT 10SM OVC018 M04/M07 A2985 1140 78 -800 290/18G24 RMK AO2 PK WND 29027/0326 SLP120 T10391072 TSNO
94908KDBQ DBQ20060313220010903/13/06 22:00:31  5-MIN KDBQ 140400Z AUTO 29019KT 10SM OVC018 M04/M07 A2985 1140 78 -800 290/19 RMK AO2 TSNO
94908KDBQ DBQ20060313220511503/13/06 22:05:31  5-MIN KDBQ 140405Z AUTO 30019G24KT 10SM OVC018 M04/M07 A2986 1140 78 -800 300/19G24 RMK AO2 TSNO
94908KDBQ DBQ20060313221011503/13/06 22:10:31  5-MIN KDBQ 140410Z AUTO 30019G25KT 10SM OVC018 M04/M07 A2986 1130 78 -800 290/19G25 RMK AO2 TSNO
94908KDBQ DBQ20060313221513303/13/06 22:15:31  5-MIN KDBQ 140415Z AUTO 29018G26KT 10SM OVC018 M04/M07 A2986 1130 78 -800 290/18G26 RMK AO2 PK WND 28026/0414 TSNO
94908KDBQ DBQ20060313222013303/13/06 22:20:31  5-MIN KDBQ 140420Z AUTO 29024G28KT 10SM OVC020 M04/M07 A2986 1130 78 -800 290/24G28 RMK AO2 PK WND 29028/0419 TSNO
94908KDBQ DBQ20060313222513303/13/06 22:25:31  5-MIN KDBQ 140425Z AUTO 30019G28KT 10SM OVC020 M04/M08 A2986 1130 74 -800 290/19G28 RMK AO2 PK WND 29028/0419 TSNO
94908KDBQ DBQ20060313223013303/13/06 22:30:31  5-MIN KDBQ 140430Z AUTO 30021G27KT 10SM OVC020 M04/M08 A2986 1130 74 -800 300/21G27 RMK AO2 PK WND 29028/0419 TSNO
94908KDBQ DBQ20060313223512703/13/06 22:35:31  5-MIN KDBQ 140435Z AUTO 29019KT 10SM OVC020 M04/M08 A2986 1130 74 -800 290/19 RMK AO2 PK WND 29028/0419 TSNO
94908KDBQ DBQ20060313224013303/13/06 22:40:31  5-MIN KDBQ 140440Z AUTO 30020G25KT 10SM OVC020 M04/M07 A2987 1130 78 -800 290/20G25 RMK AO2 PK WND 29028/0419 TSNO
94908KDBQ DBQ20060313224513303/13/06 22:45:31  5-MIN KDBQ 140445Z AUTO 30018G25KT 10SM OVC020 M04/M07 A2987 1130 78 -800 290/18G25 RMK AO2 PK WND 29028/0419 TSNO
94908KDBQ DBQ20060313225014403/13/06 22:50:31  5-MIN KDBQ 140450Z AUTO 30018KT 10SM OVC020 M04/M07 A2987 1120 78 -800 300/18 RMK AO2 PK WND 29028/0419 SLP128 T10391072 TSNO
94908KDBQ DBQ20060313225515003/13/06 22:55:31  5-MIN KDBQ 140455Z AUTO 30017G22KT 10SM OVC020 M04/M07 A2987 1120 78 -800 300/17G22 RMK AO2 PK WND 29028/0419 SLP128 T10391072 TSNO
94908KDBQ DBQ20060313230011503/13/06 23:00:31  5-MIN KDBQ 140500Z AUTO 29018G24KT 10SM OVC020 M04/M07 A2987 1120 81 -900 290/18G24 RMK AO2 TSNO
94908KDBQ DBQ20060313230514003/13/06 23:05:31  5-MIN KDBQ 140505Z AUTO 29020G26KT 10SM BKN020 OVC027 M04/M08 A2987 1120 78 -900 290/20G26 RMK AO2 PK WND 29026/0505 TSNO
94908KDBQ DBQ20060313231014003/13/06 23:10:31  5-MIN KDBQ 140510Z AUTO 29020G26KT 10SM BKN020 OVC026 M04/M08 A2988 1120 78 -900 290/20G26 RMK AO2 PK WND 29026/0505 TSNO
94908KDBQ DBQ20060313231514703/13/06 23:15:31  5-MIN KDBQ 140515Z AUTO 30020G24KT 10SM BKN020 BKN028 OVC037 M04/M08 A2988 1120 78 -900 300/20G24 RMK AO2 PK WND 29026/0505 TSNO
94908KDBQ DBQ20060313232014703/13/06 23:20:31  5-MIN KDBQ 140520Z AUTO 30016G24KT 10SM BKN020 BKN028 OVC037 M04/M08 A2988 1120 78 -900 290/16G24 RMK AO2 PK WND 29026/0505 TSNO
94908KDBQ DBQ20060313232514703/13/06 23:25:31  5-MIN KDBQ 140525Z AUTO 29015G24KT 10SM BKN020 BKN026 OVC037 M04/M08 A2988 1120 78 -900 290/15G24 RMK AO2 PK WND 29026/0505 TSNO
94908KDBQ DBQ20060313233014103/13/06 23:30:31  5-MIN KDBQ 140530Z AUTO 29015KT 10SM BKN020 BKN026 OVC039 M04/M07 A2988 1120 81 -900 290/15 RMK AO2 PK WND 29026/0505 TSNO
94908KDBQ DBQ20060313233514003/13/06 23:35:31  5-MIN KDBQ 140535Z AUTO 29017G21KT 10SM SCT020 OVC039 M04/M07 A2988 1120 81 -900 290/17G21 RMK AO2 PK WND 29026/0505 TSNO
94908KDBQ DBQ20060313234014003/13/06 23:40:31  5-MIN KDBQ 140540Z AUTO 29018G23KT 10SM SCT018 OVC039 M04/M08 A2988 1120 78 -900 290/18G23 RMK AO2 PK WND 29026/0505 TSNO
94908KDBQ DBQ20060313234514003/13/06 23:45:31  5-MIN KDBQ 140545Z AUTO 30020G24KT 10SM FEW018 OVC039 M04/M08 A2988 1110 78 -900 300/20G24 RMK AO2 PK WND 29026/0505 TSNO
94908KDBQ DBQ20060313235018503/13/06 23:50:31  5-MIN KDBQ 140550Z AUTO 29019G24KT 10SM FEW018 OVC039 M04/M08 A2988 1110 78 -900 290/19G24 RMK AO2 PK WND 29026/0505 SLP132 T10441078 11011 21044 400781044 51018 TSNO
94908KDBQ DBQ20060313235518503/13/06 23:55:31  5-MIN KDBQ 140555Z AUTO 30018G24KT 10SM FEW018 OVC039 M04/M08 A2989 1110 78 -900 290/18G24 RMK AO2 PK WND 29026/0505 SLP132 T10441078 11011 21044 400781044 51019 TSNO
94908KDBQ DBQ20060314000012203/14/06 00:00:38  5-MIN KDBQ 140600Z AUTO 29015G24KT 10SM FEW018 BKN039 M04/M08 A2989 1110 74 -900 290/15G24 RMK AO2 TSNO
94908KDBQ DBQ20060314000511503/14/06 00:05:31  5-MIN KDBQ 140605Z AUTO 30016G24KT 10SM BKN039 M04/M08 A2989 1110 78 -900 300/16G24 RMK AO2 TSNO
94908KDBQ DBQ20060314001011603/14/06 00:10:31  5-MIN KDBQ 140610Z AUTO 30019G23KT 10SM SCT039 M05/M08 A2989 1100 81 -1000 290/19G23 RMK AO2 TSNO
94908KDBQ DBQ20060314001511603/14/06 00:15:34  5-MIN KDBQ 140615Z AUTO 29016G23KT 10SM SCT039 M05/M08 A2990 1100 77 -1000 290/16G23 RMK AO2 TSNO
94908KDBQ DBQ20060314002011003/14/06 00:20:31  5-MIN KDBQ 140620Z AUTO 29016KT 10SM FEW039 M05/M08 A2990 1100 77 -1000 290/16 RMK AO2 TSNO
94908KDBQ DBQ20060314002511303/14/06 00:25:31  5-MIN KDBQ 140625Z AUTO 29016G23KT 10SM CLR M05/M08 A2990 1100 77 -1000 290/16G23 RMK AO2 TSNO
94908KDBQ DBQ20060314003011303/14/06 00:30:31  5-MIN KDBQ 140630Z AUTO 29014G23KT 10SM CLR M05/M08 A2990 1100 77 -1000 290/14G23 RMK AO2 TSNO
94908KDBQ DBQ20060314003511303/14/06 00:35:31  5-MIN KDBQ 140635Z AUTO 29017G21KT 10SM CLR M05/M08 A2990 1090 77 -1000 290/17G21 RMK AO2 TSNO
94908KDBQ DBQ20060314004010703/14/06 00:40:31  5-MIN KDBQ 140640Z AUTO 29016KT 10SM CLR M05/M08 A2990 1090 77 -1000 290/16 RMK AO2 TSNO
94908KDBQ DBQ20060314004510703/14/06 00:45:31  5-MIN KDBQ 140645Z AUTO 29015KT 10SM CLR M05/M08 A2991 1090 77 -1000 290/15 RMK AO2 TSNO
94908KDBQ DBQ20060314005012403/14/06 00:50:31  5-MIN KDBQ 140650Z AUTO 29016KT 10SM CLR M05/M08 A2991 1090 77 -1000 290/16 RMK AO2 SLP142 T10501083 TSNO
94908KDBQ DBQ20060314005512403/14/06 00:55:31  5-MIN KDBQ 140655Z AUTO 30016KT 10SM CLR M05/M08 A2991 1080 77 -1000 300/16 RMK AO2 SLP143 T10501083 TSNO
94908KDBQ DBQ20060314010011303/14/06 01:00:31  5-MIN KDBQ 140700Z AUTO 29014G20KT 10SM CLR M05/M08 A2992 1080 77 -1000 290/14G20 RMK AO2 TSNO
94908KDBQ DBQ20060314010510703/14/06 01:05:31  5-MIN KDBQ 140705Z AUTO 29016KT 10SM CLR M05/M08 A2992 1080 77 -1000 290/16 RMK AO2 TSNO
94908KDBQ DBQ20060314011010703/14/06 01:10:31  5-MIN KDBQ 140710Z AUTO 29017KT 10SM CLR M05/M08 A2992 1080 77 -1000 290/17 RMK AO2 TSNO
94908KDBQ DBQ20060314011510703/14/06 01:15:31  5-MIN KDBQ 140715Z AUTO 29017KT 10SM CLR M05/M08 A2992 1080 77 -1000 290/17 RMK AO2 TSNO
94908KDBQ DBQ20060314012011303/14/06 01:20:31  5-MIN KDBQ 140720Z AUTO 29016G20KT 10SM CLR M06/M08 A2992 1080 81 -1100 290/16G20 RMK AO2 TSNO
94908KDBQ DBQ20060314012511303/14/06 01:25:31  5-MIN KDBQ 140725Z AUTO 29018G25KT 10SM CLR M05/M08 A2992 1080 77 -1000 290/18G25 RMK AO2 TSNO
94908KDBQ DBQ20060314013011303/14/06 01:30:31  5-MIN KDBQ 140730Z AUTO 30019G25KT 10SM CLR M06/M08 A2992 1080 81 -1100 300/19G25 RMK AO2 TSNO
94908KDBQ DBQ20060314013511303/14/06 01:35:31  5-MIN KDBQ 140735Z AUTO 30017G24KT 10SM CLR M06/M08 A2992 1080 81 -1100 290/17G24 RMK AO2 TSNO
94908KDBQ DBQ20060314014010703/14/06 01:40:31  5-MIN KDBQ 140740Z AUTO 29013KT 10SM CLR M06/M08 A2992 1080 81 -1100 290/13 RMK AO2 TSNO
94908KDBQ DBQ20060314014511303/14/06 01:45:31  5-MIN KDBQ 140745Z AUTO 29019G23KT 10SM CLR M06/M08 A2992 1080 81 -1100 290/19G23 RMK AO2 TSNO
94908KDBQ DBQ20060314015013003/14/06 01:50:31  5-MIN KDBQ 140750Z AUTO 29018G24KT 10SM CLR M06/M09 A2992 1080 77 -1100 290/18G24 RMK AO2 SLP146 T10561089 TSNO
94908KDBQ DBQ20060314015513003/14/06 01:55:31  5-MIN KDBQ 140755Z AUTO 29017G24KT 10SM CLR M06/M09 A2992 1080 77 -1100 290/17G24 RMK AO2 SLP146 T10561089 TSNO
94908KDBQ DBQ20060314020011303/14/06 02:00:31  5-MIN KDBQ 140800Z AUTO 29018G23KT 10SM CLR M06/M09 A2992 1080 77 -1100 290/18G23 RMK AO2 TSNO
94908KDBQ DBQ20060314020511303/14/06 02:05:31  5-MIN KDBQ 140805Z AUTO 29018G23KT 10SM CLR M06/M09 A2992 1080 77 -1100 290/18G23 RMK AO2 TSNO
94908KDBQ DBQ20060314021010703/14/06 02:10:31  5-MIN KDBQ 140810Z AUTO 29017KT 10SM CLR M06/M09 A2992 1080 77 -1100 290/17 RMK AO2 TSNO
94908KDBQ DBQ20060314021510703/14/06 02:15:31  5-MIN KDBQ 140815Z AUTO 30017KT 10SM CLR M06/M09 A2992 1080 77 -1100 300/17 RMK AO2 TSNO
94908KDBQ DBQ20060314022010703/14/06 02:20:31  5-MIN KDBQ 140820Z AUTO 29018KT 10SM CLR M06/M09 A2992 1070 77 -1100 290/18 RMK AO2 TSNO
94908KDBQ DBQ20060314022510703/14/06 02:25:31  5-MIN KDBQ 140825Z AUTO 29017KT 10SM CLR M06/M09 A2992 1070 77 -1100 290/17 RMK AO2 TSNO
94908KDBQ DBQ20060314023010703/14/06 02:30:31  5-MIN KDBQ 140830Z AUTO 29014KT 10SM CLR M06/M09 A2993 1070 81 -1200 290/14 RMK AO2 TSNO
94908KDBQ DBQ20060314023511303/14/06 02:35:31  5-MIN KDBQ 140835Z AUTO 29020G24KT 10SM CLR M06/M09 A2993 1070 81 -1200 290/20G24 RMK AO2 TSNO
94908KDBQ DBQ20060314024011303/14/06 02:40:31  5-MIN KDBQ 140840Z AUTO 29017G24KT 10SM CLR M06/M09 A2993 1070 81 -1200 290/17G24 RMK AO2 TSNO
94908KDBQ DBQ20060314024510703/14/06 02:45:31  5-MIN KDBQ 140845Z AUTO 29014KT 10SM CLR M06/M09 A2993 1070 81 -1200 290/14 RMK AO2 TSNO
94908KDBQ DBQ20060314025013003/14/06 02:50:31  5-MIN KDBQ 140850Z AUTO 29017KT 10SM CLR M06/M09 A2993 1070 81 -1200 290/17 RMK AO2 SLP150 T10611089 51019 TSNO
94908KDBQ DBQ20060314025513603/14/06 02:55:31  5-MIN KDBQ 140855Z AUTO 29017G22KT 10SM CLR M06/M09 A2993 1070 81 -1200 290/17G22 RMK AO2 SLP151 T10611089 51016 TSNO
94908KDBQ DBQ20060314030010703/14/06 03:00:31  5-MIN KDBQ 140900Z AUTO 29018KT 10SM CLR M06/M09 A2993 1070 81 -1200 290/18 RMK AO2 TSNO
94908KDBQ DBQ20060314030510703/14/06 03:05:31  5-MIN KDBQ 140905Z AUTO 30017KT 10SM CLR M06/M09 A2993 1070 81 -1200 300/17 RMK AO2 TSNO
94908KDBQ DBQ20060314031011303/14/06 03:10:31  5-MIN KDBQ 140910Z AUTO 30016G23KT 10SM CLR M06/M09 A2993 1070 77 -1200 300/16G23 RMK AO2 TSNO
94908KDBQ DBQ20060314031510703/14/06 03:15:31  5-MIN KDBQ 140915Z AUTO 29017KT 10SM CLR M06/M09 A2993 1070 77 -1200 290/17 RMK AO2 TSNO
94908KDBQ DBQ20060314032010703/14/06 03:20:31  5-MIN KDBQ 140920Z AUTO 29016KT 10SM CLR M06/M09 A2994 1060 77 -1200 290/16 RMK AO2 TSNO
94908KDBQ DBQ20060314032510703/14/06 03:25:31  5-MIN KDBQ 140925Z AUTO 29017KT 10SM CLR M06/M09 A2994 1060 77 -1200 290/17 RMK AO2 TSNO
94908KDBQ DBQ20060314033010703/14/06 03:30:31  5-MIN KDBQ 140930Z AUTO 29014KT 10SM CLR M06/M09 A2994 1060 77 -1200 290/14 RMK AO2 TSNO
94908KDBQ DBQ20060314033510703/14/06 03:35:31  5-MIN KDBQ 140935Z AUTO 29016KT 10SM CLR M06/M09 A2994 1060 77 -1200 290/16 RMK AO2 TSNO
94908KDBQ DBQ20060314034010703/14/06 03:40:31  5-MIN KDBQ 140940Z AUTO 29018KT 10SM CLR M06/M09 A2994 1060 77 -1200 290/18 RMK AO2 TSNO
94908KDBQ DBQ20060314034510703/14/06 03:45:31  5-MIN KDBQ 140945Z AUTO 29016KT 10SM CLR M06/M09 A2994 1060 77 -1200 290/16 RMK AO2 TSNO
94908KDBQ DBQ20060314035012403/14/06 03:50:31  5-MIN KDBQ 140950Z AUTO 29015KT 10SM CLR M06/M09 A2994 1060 77 -1200 290/15 RMK AO2 SLP154 T10611094 TSNO
94908KDBQ DBQ20060314035512403/14/06 03:55:31  5-MIN KDBQ 140955Z AUTO 29013KT 10SM CLR M07/M09 A2995 1050 81 -1300 290/13 RMK AO2 SLP155 T10671094 TSNO
94908KDBQ DBQ20060314040010703/14/06 04:00:31  5-MIN KDBQ 141000Z AUTO 29015KT 10SM CLR M07/M09 A2995 1050 81 -1300 290/15 RMK AO2 TSNO
94908KDBQ DBQ20060314040510703/14/06 04:05:31  5-MIN KDBQ 141005Z AUTO 29015KT 10SM CLR M07/M09 A2995 1050 81 -1300 290/15 RMK AO2 TSNO
94908KDBQ DBQ20060314041010703/14/06 04:10:31  5-MIN KDBQ 141010Z AUTO 29017KT 10SM CLR M07/M09 A2995 1050 81 -1300 290/17 RMK AO2 TSNO
94908KDBQ DBQ20060314041511303/14/06 04:15:31  5-MIN KDBQ 141015Z AUTO 29015G22KT 10SM CLR M07/M09 A2996 1040 81 -1300 290/15G22 RMK AO2 TSNO
94908KDBQ DBQ20060314042011303/14/06 04:20:31  5-MIN KDBQ 141020Z AUTO 29016G22KT 10SM CLR M07/M09 A2996 1040 81 -1300 290/16G22 RMK AO2 TSNO
94908KDBQ DBQ20060314042510703/14/06 04:25:31  5-MIN KDBQ 141025Z AUTO 29016KT 10SM CLR M07/M09 A2996 1040 81 -1300 290/16 RMK AO2 TSNO
94908KDBQ DBQ20060314043010703/14/06 04:30:31  5-MIN KDBQ 141030Z AUTO 29015KT 10SM CLR M07/M09 A2996 1040 81 -1300 290/15 RMK AO2 TSNO
94908KDBQ DBQ20060314043510703/14/06 04:35:31  5-MIN KDBQ 141035Z AUTO 29014KT 10SM CLR M07/M09 A2997 1030 81 -1300 290/14 RMK AO2 TSNO
94908KDBQ DBQ20060314044011303/14/06 04:40:31  5-MIN KDBQ 141040Z AUTO 29017G22KT 10SM CLR M07/M09 A2997 1030 81 -1300 290/17G22 RMK AO2 TSNO
94908KDBQ DBQ20060314044511303/14/06 04:45:31  5-MIN KDBQ 141045Z AUTO 29016G22KT 10SM CLR M07/M09 A2997 1030 81 -1300 290/16G22 RMK AO2 TSNO
94908KDBQ DBQ20060314045012403/14/06 04:50:31  5-MIN KDBQ 141050Z AUTO 29016KT 10SM CLR M07/M09 A2997 1030 81 -1300 280/16 RMK AO2 SLP165 T10671094 TSNO
94908KDBQ DBQ20060314045512403/14/06 04:55:31  5-MIN KDBQ 141055Z AUTO 28016KT 10SM CLR M07/M09 A2998 1030 81 -1300 280/16 RMK AO2 SLP165 T10671094 TSNO
94908KDBQ DBQ20060314050010703/14/06 05:00:31  5-MIN KDBQ 141100Z AUTO 29016KT 10SM CLR M07/M09 A2998 1030 81 -1300 290/16 RMK AO2 TSNO
94908KDBQ DBQ20060314050510703/14/06 05:05:31  5-MIN KDBQ 141105Z AUTO 29015KT 10SM CLR M07/M09 A2998 1030 81 -1300 290/15 RMK AO2 TSNO
94908KDBQ DBQ20060314051010703/14/06 05:10:31  5-MIN KDBQ 141110Z AUTO 28015KT 10SM CLR M07/M09 A2998 1020 81 -1300 280/15 RMK AO2 TSNO
94908KDBQ DBQ20060314051510703/14/06 05:15:31  5-MIN KDBQ 141115Z AUTO 28014KT 10SM CLR M07/M09 A2998 1020 81 -1300 280/14 RMK AO2 TSNO
94908KDBQ DBQ20060314052010703/14/06 05:20:31  5-MIN KDBQ 141120Z AUTO 29017KT 10SM CLR M07/M10 A2998 1020 77 -1300 290/17 RMK AO2 TSNO
94908KDBQ DBQ20060314052510703/14/06 05:25:31  5-MIN KDBQ 141125Z AUTO 28014KT 10SM CLR M07/M10 A2999 1020 77 -1300 280/14 RMK AO2 TSNO
94908KDBQ DBQ20060314053010703/14/06 05:30:31  5-MIN KDBQ 141130Z AUTO 29011KT 10SM CLR M07/M10 A2999 1010 77 -1300 280/11 RMK AO2 TSNO
94908KDBQ DBQ20060314053510703/14/06 05:35:31  5-MIN KDBQ 141135Z AUTO 28013KT 10SM CLR M07/M10 A2999 1010 77 -1300 280/13 RMK AO2 TSNO
94908KDBQ DBQ20060314054010703/14/06 05:40:31  5-MIN KDBQ 141140Z AUTO 29012KT 10SM CLR M07/M10 A2999 1010 77 -1300 290/12 RMK AO2 TSNO
94908KDBQ DBQ20060314054510703/14/06 05:45:31  5-MIN KDBQ 141145Z AUTO 28015KT 10SM CLR M07/M09 A2999 1010 81 -1300 280/15 RMK AO2 TSNO
94908KDBQ DBQ20060314055013203/14/06 05:50:31  5-MIN KDBQ 141150Z 29011KT 10SM CLR M07/M09 A2999 1010 81 -1300 290/11 RMK AO2 SLP173 T10671094 11044 21067 51016
94908KDBQ DBQ20060314055513203/14/06 05:55:31  5-MIN KDBQ 141155Z 29015KT 10SM CLR M07/M10 A3000 1010 77 -1300 290/15 RMK AO2 SLP173 T10671100 11044 21067 53021
94908KDBQ DBQ20060314060009703/14/06 06:00:31  5-MIN KDBQ 141200Z 29014KT 10SM CLR M07/M10 A3000 1010 77 -1300 290/14 RMK AO2
94908KDBQ DBQ20060314060510303/14/06 06:05:31  5-MIN KDBQ 141205Z 29015G20KT 10SM CLR M07/M10 A3000 1000 77 -1300 290/15G20 RMK AO2
94908KDBQ DBQ20060314061010303/14/06 06:10:31  5-MIN KDBQ 141210Z 29013G20KT 10SM CLR M07/M10 A3000 1000 77 -1300 280/13G20 RMK AO2
94908KDBQ DBQ20060314061509703/14/06 06:15:31  5-MIN KDBQ 141215Z 29013KT 10SM CLR M07/M10 A3000 1000 77 -1300 290/13 RMK AO2
94908KDBQ DBQ20060314062009703/14/06 06:20:31  5-MIN KDBQ 141220Z 29015KT 10SM CLR M07/M10 A3001 1000 77 -1400 290/15 RMK AO2
94908KDBQ DBQ20060314062509603/14/06 06:25:31  5-MIN KDBQ 141225Z 29016KT 10SM CLR M07/M10 A3001 990 77 -1400 290/16 RMK AO2
94908KDBQ DBQ20060314063009603/14/06 06:30:31  5-MIN KDBQ 141230Z 29015KT 10SM CLR M07/M10 A3001 990 77 -1400 290/15 RMK AO2
94908KDBQ DBQ20060314063509603/14/06 06:35:31  5-MIN KDBQ 141235Z 29014KT 10SM CLR M07/M10 A3001 990 77 -1400 290/14 RMK AO2
94908KDBQ DBQ20060314064009603/14/06 06:40:31  5-MIN KDBQ 141240Z 30016KT 10SM CLR M07/M10 A3002 990 77 -1400 290/16 RMK AO2
94908KDBQ DBQ20060314064509603/14/06 06:45:31  5-MIN KDBQ 141245Z 29013KT 10SM CLR M07/M10 A3002 980 77 -1400 290/13 RMK AO2
94908KDBQ DBQ20060314065011303/14/06 06:50:31  5-MIN KDBQ 141250Z 29013KT 10SM CLR M07/M10 A3003 980 77 -1400 290/13 RMK AO2 SLP183 T10671100
94908KDBQ DBQ20060314065511303/14/06 06:55:31  5-MIN KDBQ 141255Z 29011KT 10SM CLR M07/M09 A3003 980 81 -1400 290/11 RMK AO2 SLP183 T10671094
94908KDBQ DBQ20060314070009603/14/06 07:00:31  5-MIN KDBQ 141300Z 29012KT 10SM CLR M06/M09 A3002 980 77 -1300 290/12 RMK AO2
94908KDBQ DBQ20060314070509603/14/06 07:05:31  5-MIN KDBQ 141305Z 30012KT 10SM CLR M06/M09 A3003 980 77 -1300 300/12 RMK AO2
94908KDBQ DBQ20060314071009603/14/06 07:10:31  5-MIN KDBQ 141310Z 29012KT 10SM CLR M06/M09 A3003 980 77 -1300 290/12 RMK AO2
94908KDBQ DBQ20060314071509603/14/06 07:15:31  5-MIN KDBQ 141315Z 30013KT 10SM CLR M06/M09 A3003 980 77 -1300 300/13 RMK AO2
94908KDBQ DBQ20060314072009603/14/06 07:20:31  5-MIN KDBQ 141320Z 30011KT 10SM CLR M06/M09 A3003 980 77 -1300 300/11 RMK AO2
94908KDBQ DBQ20060314072509603/14/06 07:25:31  5-MIN KDBQ 141325Z 30014KT 10SM CLR M06/M09 A3003 970 74 -1200 290/14 RMK AO2
94908KDBQ DBQ20060314073009603/14/06 07:30:31  5-MIN KDBQ 141330Z 30013KT 10SM CLR M06/M09 A3004 970 74 -1200 300/13 RMK AO2
94908KDBQ DBQ20060314073509603/14/06 07:35:31  5-MIN KDBQ 141335Z 29011KT 10SM CLR M06/M09 A3004 970 74 -1200 290/11 RMK AO2
94908KDBQ DBQ20060314074009603/14/06 07:40:31  5-MIN KDBQ 141340Z 30014KT 10SM CLR M06/M09 A3004 970 74 -1200 300/14 RMK AO2
94908KDBQ DBQ20060314074509603/14/06 07:45:31  5-MIN KDBQ 141345Z 30011KT 10SM CLR M06/M09 A3004 960 74 -1200 300/11 RMK AO2
94908KDBQ DBQ20060314075011303/14/06 07:50:31  5-MIN KDBQ 141350Z 29013KT 10SM CLR M05/M09 A3005 960 71 -1200 290/13 RMK AO2 SLP191 T10501094
94908KDBQ DBQ20060314075511303/14/06 07:55:31  5-MIN KDBQ 141355Z 29012KT 10SM CLR M05/M09 A3005 960 74 -1200 290/12 RMK AO2 SLP191 T10501089
94908KDBQ DBQ20060314080009603/14/06 08:00:31  5-MIN KDBQ 141400Z 30014KT 10SM CLR M05/M09 A3005 960 71 -1200 290/14 RMK AO2
94908KDBQ DBQ20060314080509603/14/06 08:05:31  5-MIN KDBQ 141405Z 29014KT 10SM CLR M05/M09 A3006 950 71 -1200 290/14 RMK AO2
94908KDBQ DBQ20060314081009603/14/06 08:10:31  5-MIN KDBQ 141410Z 29015KT 10SM CLR M05/M09 A3006 950 71 -1200 280/15 RMK AO2
94908KDBQ DBQ20060314081509603/14/06 08:15:31  5-MIN KDBQ 141415Z 29016KT 10SM CLR M04/M09 A3006 950 68 -1100 290/16 RMK AO2
94908KDBQ DBQ20060314082009603/14/06 08:20:31  5-MIN KDBQ 141420Z 29018KT 10SM CLR M04/M09 A3006 950 68 -1100 290/18 RMK AO2
94908KDBQ DBQ20060314082510203/14/06 08:25:31  5-MIN KDBQ 141425Z 30015G22KT 10SM CLR M04/M09 A3007 940 68 -1100 300/15G22 RMK AO2
94908KDBQ DBQ20060314083009603/14/06 08:30:31  5-MIN KDBQ 141430Z 30017KT 10SM CLR M04/M09 A3007 940 68 -1100 290/17 RMK AO2
94908KDBQ DBQ20060314083509603/14/06 08:35:31  5-MIN KDBQ 141435Z 30015KT 10SM CLR M04/M09 A3007 940 68 -1100 300/15 RMK AO2
94908KDBQ DBQ20060314084009603/14/06 08:40:31  5-MIN KDBQ 141440Z 30018KT 10SM CLR M04/M09 A3007 940 65 -1100 300/18 RMK AO2
94908KDBQ DBQ20060314084509603/14/06 08:45:31  5-MIN KDBQ 141445Z 30021KT 10SM CLR M04/M09 A3007 940 65 -1100 300/21 RMK AO2
94908KDBQ DBQ20060314085012503/14/06 08:50:31  5-MIN KDBQ 141450Z 30018G23KT 10SM CLR M04/M09 A3007 940 65 -1100 300/18G23 RMK AO2 SLP200 T10391094 53021
94908KDBQ DBQ20060314085512503/14/06 08:55:31  5-MIN KDBQ 141455Z 31015G23KT 10SM CLR M03/M09 A3007 940 65 -1000 310/15G23 RMK AO2 SLP199 T10331089 51025
94908KDBQ DBQ20060314090010203/14/06 09:00:31  5-MIN KDBQ 141500Z 30017G21KT 10SM CLR M03/M09 A3008 940 65 -1000 300/17G21 RMK AO2
94908KDBQ DBQ20060314090509603/14/06 09:05:31  5-MIN KDBQ 141505Z 31017KT 10SM CLR M03/M09 A3008 930 65 -1000 310/17 RMK AO2
94908KDBQ DBQ20060314091010103/14/06 09:10:31  5-MIN KDBQ 141510Z 30018G22KT 10SM CLR M03/M09 A3008 930 63 -900 290/18G22 RMK AO2
94908KDBQ DBQ20060314091510103/14/06 09:15:31  5-MIN KDBQ 141515Z 29015G22KT 10SM CLR M03/M09 A3008 930 63 -900 290/15G22 RMK AO2
94908KDBQ DBQ20060314092010103/14/06 09:20:31  5-MIN KDBQ 141520Z 30019G24KT 10SM CLR M03/M09 A3008 930 60 -900 300/19G24 RMK AO2
94908KDBQ DBQ20060314092510103/14/06 09:25:31  5-MIN KDBQ 141525Z 30018G24KT 10SM CLR M03/M09 A3008 930 60 -900 300/18G24 RMK AO2
94908KDBQ DBQ20060314093009503/14/06 09:30:31  5-MIN KDBQ 141530Z 31015KT 10SM CLR M02/M08 A3008 930 63 -900 310/15 RMK AO2
94908KDBQ DBQ20060314093509503/14/06 09:35:31  5-MIN KDBQ 141535Z 30015KT 10SM CLR M02/M09 A3008 930 60 -900 300/15 RMK AO2
94908KDBQ DBQ20060314094010103/14/06 09:40:31  5-MIN KDBQ 141540Z 30017G22KT 10SM CLR M02/M09 A3008 930 60 -900 300/17G22 RMK AO2
94908KDBQ DBQ20060314094510103/14/06 09:45:31  5-MIN KDBQ 141545Z 30016G22KT 10SM CLR M02/M09 A3008 930 60 -900 300/16G22 RMK AO2
94908KDBQ DBQ20060314095011803/14/06 09:50:31  5-MIN KDBQ 141550Z 30019G23KT 10SM CLR M02/M09 A3008 930 60 -900 300/19G23 RMK AO2 SLP201 T10221089
94908KDBQ DBQ20060314095511803/14/06 09:55:31  5-MIN KDBQ 141555Z 31016G23KT 10SM CLR M02/M09 A3008 930 58 -800 310/16G23 RMK AO2 SLP202 T10171089
94908KDBQ DBQ20060314100010103/14/06 10:00:31  5-MIN KDBQ 141600Z 31019G24KT 10SM CLR M01/M09 A3008 930 55 -700 300/19G24 RMK AO2
94908KDBQ DBQ20060314100510103/14/06 10:05:31  5-MIN KDBQ 141605Z 30022G25KT 10SM CLR M01/M09 A3009 930 55 -700 300/22G25 RMK AO2
94908KDBQ DBQ20060314101011903/14/06 10:10:31  5-MIN KDBQ 141610Z 31022G28KT 10SM CLR M01/M09 A3009 930 53 -700 310/22G28 RMK AO2 PK WND 31028/1610
94908KDBQ DBQ20060314101511903/14/06 10:15:31  5-MIN KDBQ 141615Z 32021G28KT 10SM CLR M01/M09 A3009 930 53 -700 310/21G28 RMK AO2 PK WND 31028/1610
94908KDBQ DBQ20060314102011903/14/06 10:20:31  5-MIN KDBQ 141620Z 31022G28KT 10SM CLR M01/M09 A3009 930 51 -700 310/22G28 RMK AO2 PK WND 31028/1620
94908KDBQ DBQ20060314102511903/14/06 10:25:31  5-MIN KDBQ 141625Z 31020G28KT 10SM CLR M01/M09 A3009 920 51 -700 310/20G28 RMK AO2 PK WND 31028/1620
94908KDBQ DBQ20060314103011903/14/06 10:30:31  5-MIN KDBQ 141630Z 31020G26KT 10SM CLR M01/M09 A3009 920 51 -700 310/20G26 RMK AO2 PK WND 31028/1620
94908KDBQ DBQ20060314103511903/14/06 10:35:31  5-MIN KDBQ 141635Z 30022G26KT 10SM CLR M01/M09 A3009 920 53 -700 300/22G26 RMK AO2 PK WND 31028/1620
94908KDBQ DBQ20060314104011903/14/06 10:40:31  5-MIN KDBQ 141640Z 30023G28KT 10SM CLR M01/M09 A3009 920 53 -700 300/23G28 RMK AO2 PK WND 29028/1638
94908KDBQ DBQ20060314104511803/14/06 10:45:31  5-MIN KDBQ 141645Z 31021G28KT 10SM CLR 00/M09 A3009 930 51 -600 310/21G28 RMK AO2 PK WND 30028/1643
94908KDBQ DBQ20060314105013503/14/06 10:50:31  5-MIN KDBQ 141650Z 30022G31KT 10SM CLR 00/M09 A3009 920 49 -600 300/22G31 RMK AO2 PK WND 30031/1647 SLP203 T00001094
94908KDBQ DBQ20060314105513503/14/06 10:55:31  5-MIN KDBQ 141655Z 30022G31KT 10SM CLR 01/M09 A3009 920 49 -500 300/22G31 RMK AO2 PK WND 30031/1647 SLP203 T00061089
94908KDBQ DBQ20060314110011803/14/06 11:00:31  5-MIN KDBQ 141700Z 31023G28KT 10SM CLR 00/M09 A3009 920 51 -600 310/23G28 RMK AO2 PK WND 29028/1658
94908KDBQ DBQ20060314110511803/14/06 11:05:31  5-MIN KDBQ 141705Z 31022G28KT 10SM CLR 01/M09 A3009 920 47 -500 310/22G28 RMK AO2 PK WND 29028/1658
94908KDBQ DBQ20060314111011803/14/06 11:10:31  5-MIN KDBQ 141710Z 31022G30KT 10SM CLR 01/M09 A3009 920 49 -500 300/22G30 RMK AO2 PK WND 30030/1710
94908KDBQ DBQ20060314111511803/14/06 11:15:31  5-MIN KDBQ 141715Z 30027G33KT 10SM CLR 01/M09 A3010 920 47 -500 300/27G33 RMK AO2 PK WND 30033/1714
94908KDBQ DBQ20060314112011803/14/06 11:20:31  5-MIN KDBQ 141720Z 31022G33KT 10SM CLR 01/M09 A3009 920 47 -500 310/22G33 RMK AO2 PK WND 30033/1714
94908KDBQ DBQ20060314112511803/14/06 11:25:31  5-MIN KDBQ 141725Z 30022G31KT 10SM CLR 01/M09 A3009 920 47 -500 300/22G31 RMK AO2 PK WND 30033/1714
94908KDBQ DBQ20060314113011803/14/06 11:30:31  5-MIN KDBQ 141730Z 31023G31KT 10SM CLR 01/M09 A3010 920 45 -500 310/23G31 RMK AO2 PK WND 30033/1714
94908KDBQ DBQ20060314113511803/14/06 11:35:31  5-MIN KDBQ 141735Z 32023G31KT 10SM CLR 01/M09 A3010 920 47 -500 310/23G31 RMK AO2 PK WND 30033/1714
94908KDBQ DBQ20060314114011803/14/06 11:40:31  5-MIN KDBQ 141740Z 31022G28KT 10SM CLR 01/M09 A3010 920 47 -500 310/22G28 RMK AO2 PK WND 30033/1714
94908KDBQ DBQ20060314114511803/14/06 11:45:31  5-MIN KDBQ 141745Z 31024G30KT 10SM CLR 01/M09 A3010 910 45 -500 310/24G30 RMK AO2 PK WND 30033/1714
94908KDBQ DBQ20060314115015303/14/06 11:50:31  5-MIN KDBQ 141750Z 31018G30KT 10SM CLR 02/M08 A3010 910 47 -400 310/18G30 RMK AO2 PK WND 30033/1714 SLP206 T00171083 10017 21067 51025
94908KDBQ DBQ20060314115515303/14/06 11:55:31  5-MIN KDBQ 141755Z 32021G28KT 10SM CLR 02/M08 A3010 910 47 -400 320/21G28 RMK AO2 PK WND 30033/1714 SLP206 T00171083 10017 21067 53008
94908KDBQ DBQ20060314120011803/14/06 12:00:31  5-MIN KDBQ 141800Z 31026G32KT 10SM CLR 02/M08 A3010 910 47 -400 300/26G32 RMK AO2 PK WND 31032/1758
94908KDBQ DBQ20060314120511803/14/06 12:05:31  5-MIN KDBQ 141805Z 32023G32KT 10SM CLR 02/M08 A3010 910 47 -400 310/23G32 RMK AO2 PK WND 31032/1758
94908KDBQ DBQ20060314121011803/14/06 12:10:31  5-MIN KDBQ 141810Z 31022G30KT 10SM CLR 02/M08 A3010 910 47 -400 310/22G30 RMK AO2 PK WND 31032/1758
94908KDBQ DBQ20060314121511803/14/06 12:15:31  5-MIN KDBQ 141815Z 30024G29KT 10SM CLR 02/M08 A3010 910 47 -400 300/24G29 RMK AO2 PK WND 31032/1758
94908KDBQ DBQ20060314122011803/14/06 12:20:31  5-MIN KDBQ 141820Z 30023G29KT 10SM CLR 02/M08 A3010 910 49 -400 300/23G29 RMK AO2 PK WND 31032/1758
94908KDBQ DBQ20060314122511803/14/06 12:25:31  5-MIN KDBQ 141825Z 31018G28KT 10SM CLR 02/M08 A3010 910 47 -300 300/18G28 RMK AO2 PK WND 31032/1758
94908KDBQ DBQ20060314123011803/14/06 12:30:31  5-MIN KDBQ 141830Z 31018G28KT 10SM CLR 02/M07 A3010 910 50 -300 310/18G28 RMK AO2 PK WND 31032/1758
94908KDBQ DBQ20060314123511803/14/06 12:35:31  5-MIN KDBQ 141835Z 30024G28KT 10SM CLR 02/M07 A3010 910 50 -300 290/24G28 RMK AO2 PK WND 31032/1758
94908KDBQ DBQ20060314124011803/14/06 12:40:31  5-MIN KDBQ 141840Z 30023G31KT 10SM CLR 02/M08 A3010 910 47 -300 300/23G31 RMK AO2 PK WND 31032/1758
94908KDBQ DBQ20060314124511803/14/06 12:45:31  5-MIN KDBQ 141845Z 30025G31KT 10SM CLR 02/M07 A3010 910 50 -300 300/25G31 RMK AO2 PK WND 31032/1758
94908KDBQ DBQ20060314125013503/14/06 12:50:31  5-MIN KDBQ 141850Z 31023G30KT 10SM CLR 02/M07 A3010 910 50 -300 310/23G30 RMK AO2 PK WND 31032/1758 SLP206 T00221072
94908KDBQ DBQ20060314125513503/14/06 12:55:31  5-MIN KDBQ 141855Z 30026G31KT 10SM CLR 03/M07 A3010 910 48 -300 300/26G31 RMK AO2 PK WND 31032/1758 SLP205 T00281072
94908KDBQ DBQ20060314130011803/14/06 13:00:31  5-MIN KDBQ 141900Z 30024G31KT 10SM CLR 02/M07 A3010 910 50 -300 300/24G31 RMK AO2 PK WND 30029/1858
94908KDBQ DBQ20060314130511803/14/06 13:05:31  5-MIN KDBQ 141905Z 31022G29KT 10SM CLR 02/M07 A3010 920 50 -300 310/22G29 RMK AO2 PK WND 29029/1903
94908KDBQ DBQ20060314131011803/14/06 13:10:31  5-MIN KDBQ 141910Z 31021G29KT 10SM CLR 02/M07 A3009 920 50 -300 310/21G29 RMK AO2 PK WND 29029/1903
94908KDBQ DBQ20060314131511803/14/06 13:15:31  5-MIN KDBQ 141915Z 31020G25KT 10SM CLR 03/M07 A3009 920 48 -300 310/20G25 RMK AO2 PK WND 29029/1903
94908KDBQ DBQ20060314132011803/14/06 13:20:31  5-MIN KDBQ 141920Z 30018G25KT 10SM CLR 03/M07 A3009 920 48 -300 300/18G25 RMK AO2 PK WND 29029/1903
94908KDBQ DBQ20060314132511803/14/06 13:25:31  5-MIN KDBQ 141925Z 30022G28KT 10SM CLR 03/M07 A3009 920 50 -300 300/22G28 RMK AO2 PK WND 29029/1903
94908KDBQ DBQ20060314133011803/14/06 13:30:31  5-MIN KDBQ 141930Z 32021G28KT 10SM CLR 03/M07 A3009 920 50 -300 310/21G28 RMK AO2 PK WND 29029/1903
94908KDBQ DBQ20060314133511803/14/06 13:35:31  5-MIN KDBQ 141935Z 31021G28KT 10SM CLR 03/M07 A3009 920 50 -300 310/21G28 RMK AO2 PK WND 29029/1903
94908KDBQ DBQ20060314134011203/14/06 13:40:31  5-MIN KDBQ 141940Z 31018KT 10SM CLR 03/M07 A3009 920 48 -300 310/18 RMK AO2 PK WND 29029/1903
94908KDBQ DBQ20060314134511203/14/06 13:45:31  5-MIN KDBQ 141945Z 30017KT 10SM CLR 03/M06 A3009 920 52 -200 300/17 RMK AO2 PK WND 29029/1903
94908KDBQ DBQ20060314135012903/14/06 13:50:31  5-MIN KDBQ 141950Z 29021KT 10SM CLR 03/M06 A3009 920 52 -200 290/21 RMK AO2 PK WND 29029/1903 SLP203 T00281061
94908KDBQ DBQ20060314135513503/14/06 13:55:31  5-MIN KDBQ 141955Z 28019G26KT 10SM CLR 03/M06 A3009 920 52 -300 280/19G26 RMK AO2 PK WND 29029/1903 SLP203 T00281061
94908KDBQ DBQ20060314140011803/14/06 14:00:31  5-MIN KDBQ 142000Z 29020G27KT 10SM CLR 03/M06 A3009 920 52 -300 290/20G27 RMK AO2 PK WND 29027/1958
94908KDBQ DBQ20060314140511803/14/06 14:05:31  5-MIN KDBQ 142005Z 30017G27KT 10SM CLR 03/M06 A3009 920 52 -300 290/17G27 RMK AO2 PK WND 29027/1958
94908KDBQ DBQ20060314141011803/14/06 14:10:31  5-MIN KDBQ 142010Z 28019G24KT 10SM CLR 03/M06 A3009 920 52 -200 280/19G24 RMK AO2 PK WND 29027/1958
94908KDBQ DBQ20060314141511803/14/06 14:15:31  5-MIN KDBQ 142015Z 30020G26KT 10SM CLR 03/M06 A3009 920 52 -200 300/20G26 RMK AO2 PK WND 29027/1958
94908KDBQ DBQ20060314142011803/14/06 14:20:31  5-MIN KDBQ 142020Z 30020G26KT 10SM CLR 03/M06 A3009 930 54 -200 300/20G26 RMK AO2 PK WND 29027/1958
94908KDBQ DBQ20060314142511803/14/06 14:25:31  5-MIN KDBQ 142025Z 29018G25KT 10SM CLR 03/M06 A3009 920 52 -200 290/18G25 RMK AO2 PK WND 29027/1958
94908KDBQ DBQ20060314143011803/14/06 14:30:31  5-MIN KDBQ 142030Z 27021G25KT 10SM CLR 03/M06 A3009 920 54 -300 270/21G25 RMK AO2 PK WND 29027/1958
94908KDBQ DBQ20060314143511803/14/06 14:35:31  5-MIN KDBQ 142035Z 29017G27KT 10SM CLR 03/M06 A3009 920 52 -200 290/17G27 RMK AO2 PK WND 28027/2032
94908KDBQ DBQ20060314144011803/14/06 14:40:31  5-MIN KDBQ 142040Z 29021G27KT 10SM CLR 03/M06 A3009 920 54 -200 290/21G27 RMK AO2 PK WND 28027/2032
94908KDBQ DBQ20060314144511803/14/06 14:45:31  5-MIN KDBQ 142045Z 29019G26KT 10SM CLR 03/M06 A3009 920 52 -300 290/19G26 RMK AO2 PK WND 28027/2032
94908KDBQ DBQ20060314145013503/14/06 14:50:31  5-MIN KDBQ 142050Z 29020KT 10SM CLR 03/M06 A3009 920 52 -200 290/20 RMK AO2 PK WND 28027/2032 SLP202 T00331056 53008
94908KDBQ DBQ20060314145514103/14/06 14:55:31  5-MIN KDBQ 142055Z 28019G26KT 10SM CLR 03/M06 A3010 920 52 -200 280/19G26 RMK AO2 PK WND 28027/2032 SLP204 T00331056 55002
94908KDBQ DBQ20060314150010003/14/06 15:00:31  5-MIN KDBQ 142100Z 28018G26KT 10SM CLR 03/M06 A3009 920 54 -300 280/18G26 RMK AO2
94908KDBQ DBQ20060314150510003/14/06 15:05:31  5-MIN KDBQ 142105Z 29017G22KT 10SM CLR 03/M06 A3009 920 54 -200 290/17G22 RMK AO2
94908KDBQ DBQ20060314151009403/14/06 15:10:31  5-MIN KDBQ 142110Z 28017KT 10SM CLR 03/M06 A3009 920 52 -200 280/17 RMK AO2
94908KDBQ DBQ20060314151509403/14/06 15:15:31  5-MIN KDBQ 142115Z 28016KT 10SM CLR 03/M06 A3009 920 52 -200 280/16 RMK AO2
94908KDBQ DBQ20060314152009403/14/06 15:20:31  5-MIN KDBQ 142120Z 29018KT 10SM CLR 03/M05 A3009 920 54 -200 290/18 RMK AO2
94908KDBQ DBQ20060314152510003/14/06 15:25:31  5-MIN KDBQ 142125Z 27017G23KT 10SM CLR 03/M06 A3009 920 52 -200 270/17G23 RMK AO2
94908KDBQ DBQ20060314153010003/14/06 15:30:31  5-MIN KDBQ 142130Z 29017G24KT 10SM CLR 03/M06 A3009 920 52 -200 290/17G24 RMK AO2
94908KDBQ DBQ20060314153510003/14/06 15:35:31  5-MIN KDBQ 142135Z 29016G25KT 10SM CLR 03/M06 A3010 920 52 -200 290/16G25 RMK AO2
94908KDBQ DBQ20060314154010003/14/06 15:40:31  5-MIN KDBQ 142140Z 29015G25KT 10SM CLR 03/M05 A3009 920 54 -200 290/15G25 RMK AO2
94908KDBQ DBQ20060314154509403/14/06 15:45:31  5-MIN KDBQ 142145Z 29017KT 10SM CLR 03/M05 A3010 920 54 -200 290/17 RMK AO2
94908KDBQ DBQ20060314155011403/14/06 15:50:31  5-MIN KDBQ 142150Z 30018KT 10SM FEW065 03/M05 A3009 920 54 -200 290/18 RMK AO2 SLP204 T00331050
94908KDBQ DBQ20060314155512003/14/06 15:55:31  5-MIN KDBQ 142155Z 28015G23KT 10SM SCT065 03/M06 A3010 920 52 -200 280/15G23 RMK AO2 SLP205 T00331056
94908KDBQ DBQ20060314160010303/14/06 16:00:31  5-MIN KDBQ 142200Z 29018G23KT 10SM SCT065 03/M05 A3009 920 54 -200 290/18G23 RMK AO2
94908KDBQ DBQ20060314160510303/14/06 16:05:31  5-MIN KDBQ 142205Z 30016G22KT 10SM FEW065 03/M06 A3009 920 52 -200 300/16G22 RMK AO2
94908KDBQ DBQ20060314161009703/14/06 16:10:31  5-MIN KDBQ 142210Z 28015KT 10SM FEW065 03/M05 A3009 920 54 -200 280/15 RMK AO2
94908KDBQ DBQ20060314161509703/14/06 16:15:31  5-MIN KDBQ 142215Z 28015KT 10SM SCT065 03/M06 A3009 920 52 -200 280/15 RMK AO2
94908KDBQ DBQ20060314162009703/14/06 16:20:31  5-MIN KDBQ 142220Z 29014KT 10SM SCT070 03/M05 A3009 930 54 -200 290/14 RMK AO2
94908KDBQ DBQ20060314162509703/14/06 16:25:31  5-MIN KDBQ 142225Z 29014KT 10SM FEW070 03/M06 A3009 920 52 -200 290/14 RMK AO2
94908KDBQ DBQ20060314163009703/14/06 16:30:31  5-MIN KDBQ 142230Z 29016KT 10SM FEW070 03/M06 A3009 920 52 -200 280/16 RMK AO2
94908KDBQ DBQ20060314163509703/14/06 16:35:31  5-MIN KDBQ 142235Z 28016KT 10SM FEW070 03/M06 A3009 920 52 -200 280/16 RMK AO2
94908KDBQ DBQ20060314164009703/14/06 16:40:31  5-MIN KDBQ 142240Z 28014KT 10SM FEW070 03/M05 A3009 920 54 -200 280/14 RMK AO2
94908KDBQ DBQ20060314164509703/14/06 16:45:31  5-MIN KDBQ 142245Z 29015KT 10SM FEW070 03/M05 A3009 930 54 -200 290/15 RMK AO2
94908KDBQ DBQ20060314165011403/14/06 16:50:31  5-MIN KDBQ 142250Z 29015KT 10SM FEW070 03/M06 A3009 920 52 -200 290/15 RMK AO2 SLP203 T00331056
94908KDBQ DBQ20060314165511403/14/06 16:55:31  5-MIN KDBQ 142255Z 28015KT 10SM SCT070 03/M06 A3009 920 54 -200 280/15 RMK AO2 SLP202 T00281056
94908KDBQ DBQ20060314170009703/14/06 17:00:31  5-MIN KDBQ 142300Z 29014KT 10SM SCT070 03/M06 A3009 920 54 -200 290/14 RMK AO2
94908KDBQ DBQ20060314170509703/14/06 17:05:31  5-MIN KDBQ 142305Z 30014KT 10SM BKN065 02/M06 A3009 920 56 -300 300/14 RMK AO2
94908KDBQ DBQ20060314171009703/14/06 17:10:31  5-MIN KDBQ 142310Z 29011KT 10SM BKN065 02/M06 A3009 920 56 -300 290/11 RMK AO2
94908KDBQ DBQ20060314171509703/14/06 17:15:31  5-MIN KDBQ 142315Z 29012KT 10SM BKN065 03/M05 A3009 920 56 -200 290/12 RMK AO2
94908KDBQ DBQ20060314172009703/14/06 17:20:31  5-MIN KDBQ 142320Z 30009KT 10SM BKN065 03/M05 A3009 920 56 -200 300/09 RMK AO2
94908KDBQ DBQ20060314172509703/14/06 17:25:31  5-MIN KDBQ 142325Z 30010KT 10SM OVC065 03/M05 A3009 920 56 -200 300/10 RMK AO2
94908KDBQ DBQ20060314173009703/14/06 17:30:31  5-MIN KDBQ 142330Z 30012KT 10SM OVC065 03/M06 A3009 920 54 -300 300/12 RMK AO2
94908KDBQ DBQ20060314173509703/14/06 17:35:31  5-MIN KDBQ 142335Z 30009KT 10SM OVC060 02/M05 A3009 920 59 -300 290/09 RMK AO2
94908KDBQ DBQ20060314174009703/14/06 17:40:31  5-MIN KDBQ 142340Z 29010KT 10SM OVC060 02/M05 A3009 920 59 -300 290/10 RMK AO2
94908KDBQ DBQ20060314174509703/14/06 17:45:31  5-MIN KDBQ 142345Z 30008KT 10SM OVC065 02/M05 A3009 920 59 -300 300/08 RMK AO2
94908KDBQ DBQ20060314175013903/14/06 17:50:31  5-MIN KDBQ 142350Z 30010KT 10SM BKN065 OVC080 02/M05 A3009 920 59 -300 300/10 RMK AO2 SLP203 T00221050 10033 20017 55002
94908KDBQ DBQ20060314175513903/14/06 17:55:31  5-MIN KDBQ 142355Z 29009KT 10SM BKN065 OVC080 02/M05 A3009 920 59 -300 290/09 RMK AO2 SLP203 T00221050 10033 20017 57002
94908KDBQ DBQ20060314180010403/14/06 18:00:31  5-MIN KDBQ 150000Z 29010KT 10SM BKN065 OVC080 02/M05 A3009 920 59 -300 290/10 RMK AO2
94908KDBQ DBQ20060314180510403/14/06 18:05:31  5-MIN KDBQ 150005Z 30009KT 10SM BKN065 OVC080 02/M05 A3009 920 59 -300 290/09 RMK AO2
94908KDBQ DBQ20060314181010403/14/06 18:10:31  5-MIN KDBQ 150010Z 30009KT 10SM BKN065 OVC080 02/M05 A3010 920 61 -400 300/09 RMK AO2
94908KDBQ DBQ20060314181510403/14/06 18:15:31  5-MIN KDBQ 150015Z 30008KT 10SM BKN065 OVC080 02/M05 A3009 920 61 -400 300/08 RMK AO2
94908KDBQ DBQ20060314182010403/14/06 18:20:31  5-MIN KDBQ 150020Z 30009KT 10SM BKN065 OVC080 02/M05 A3009 920 61 -400 300/09 RMK AO2
94908KDBQ DBQ20060314182510403/14/06 18:25:31  5-MIN KDBQ 150025Z 30009KT 10SM BKN070 OVC080 02/M05 A3010 920 61 -400 300/09 RMK AO2
94908KDBQ DBQ20060314183010403/14/06 18:30:31  5-MIN KDBQ 150030Z 31008KT 10SM BKN070 BKN080 02/M05 A3010 920 61 -400 300/08 RMK AO2
94908KDBQ DBQ20060314183510403/14/06 18:35:31  5-MIN KDBQ 150035Z 31008KT 10SM SCT070 BKN080 01/M05 A3010 920 64 -500 310/08 RMK AO2
94908KDBQ DBQ20060314184011103/14/06 18:40:31  5-MIN KDBQ 150040Z 31008KT 10SM FEW048 SCT070 BKN080 01/M05 A3010 910 66 -500 310/08 RMK AO2
94908KDBQ DBQ20060314184510403/14/06 18:45:31  5-MIN KDBQ 150045Z 31008KT 10SM FEW048 SCT075 01/M05 A3010 910 64 -500 310/08 RMK AO2
94908KDBQ DBQ20060314185011403/14/06 18:50:31  5-MIN KDBQ 150050Z 31007KT 10SM FEW048 01/M05 A3010 910 66 -500 310/07 RMK AO2 SLP207 T00061050
94908KDBQ DBQ20060314185511103/14/06 18:55:31  5-MIN KDBQ 150055Z 31008KT 10SM CLR 01/M05 A3010 910 66 -500 310/08 RMK AO2 SLP207 T00061050
94908KDBQ DBQ20060314190009403/14/06 19:00:31  5-MIN KDBQ 150100Z 31008KT 10SM CLR 01/M05 A3010 910 66 -500 310/08 RMK AO2
94908KDBQ DBQ20060314190509403/14/06 19:05:31  5-MIN KDBQ 150105Z 31008KT 10SM CLR 01/M05 A3010 910 64 -500 310/08 RMK AO2
94908KDBQ DBQ20060314191009403/14/06 19:10:31  5-MIN KDBQ 150110Z 32010KT 10SM CLR 01/M05 A3010 910 64 -500 320/10 RMK AO2
94908KDBQ DBQ20060314191509403/14/06 19:15:31  5-MIN KDBQ 150115Z 32012KT 10SM CLR 01/M05 A3010 910 64 -500 320/12 RMK AO2
94908KDBQ DBQ20060314192009403/14/06 19:20:31  5-MIN KDBQ 150120Z 35012KT 10SM CLR 01/M05 A3011 910 64 -500 340/12 RMK AO2
94908KDBQ DBQ20060314192509403/14/06 19:25:31  5-MIN KDBQ 150125Z 01010KT 10SM CLR 01/M05 A3011 910 66 -500 360/10 RMK AO2
94908KDBQ DBQ20060314193009403/14/06 19:30:31  5-MIN KDBQ 150130Z 36010KT 10SM CLR 00/M05 A3011 900 69 -600 360/10 RMK AO2
94908KDBQ DBQ20060314193509503/14/06 19:35:31  5-MIN KDBQ 150135Z 36009KT 10SM CLR M01/M05 A3011 900 72 -700 360/09 RMK AO2
94908KDBQ DBQ20060314194009503/14/06 19:40:31  5-MIN KDBQ 150140Z 36010KT 10SM CLR M01/M06 A3011 900 69 -700 360/10 RMK AO2
94908KDBQ DBQ20060314194509503/14/06 19:45:31  5-MIN KDBQ 150145Z 36010KT 10SM CLR M01/M06 A3011 900 69 -700 360/10 RMK AO2
94908KDBQ DBQ20060314195012203/14/06 19:50:31  5-MIN KDBQ 150150Z AUTO 01011KT 10SM CLR M01/M06 A3011 900 69 -700 360/11 RMK AO2 SLP213 T10061056 TSNO
94908KDBQ DBQ20060314195512203/14/06 19:55:31  5-MIN KDBQ 150155Z AUTO 36008KT 10SM CLR M01/M06 A3012 900 69 -700 360/08 RMK AO2 SLP214 T10061056 TSNO
94908KDBQ DBQ20060314200010503/14/06 20:00:31  5-MIN KDBQ 150200Z AUTO 36008KT 10SM CLR M01/M06 A3012 900 72 -800 360/08 RMK AO2 TSNO
94908KDBQ DBQ20060314200510503/14/06 20:05:31  5-MIN KDBQ 150205Z AUTO 36008KT 10SM CLR M01/M06 A3012 890 72 -800 360/08 RMK AO2 TSNO
94908KDBQ DBQ20060314201010503/14/06 20:10:31  5-MIN KDBQ 150210Z AUTO 35008KT 10SM CLR M02/M06 A3012 890 75 -800 350/08 RMK AO2 TSNO
94908KDBQ DBQ20060314201510503/14/06 20:15:31  5-MIN KDBQ 150215Z AUTO 35009KT 10SM CLR M02/M06 A3013 890 75 -800 350/09 RMK AO2 TSNO
94908KDBQ DBQ20060314202010503/14/06 20:20:31  5-MIN KDBQ 150220Z AUTO 35009KT 10SM CLR M02/M06 A3013 890 75 -800 350/09 RMK AO2 TSNO
94908KDBQ DBQ20060314202510503/14/06 20:25:31  5-MIN KDBQ 150225Z AUTO 35010KT 10SM CLR M02/M06 A3013 880 75 -900 350/10 RMK AO2 TSNO
94908KDBQ DBQ20060314203010503/14/06 20:30:31  5-MIN KDBQ 150230Z AUTO 35010KT 10SM CLR M02/M06 A3013 880 75 -900 350/10 RMK AO2 TSNO
94908KDBQ DBQ20060314203510503/14/06 20:35:31  5-MIN KDBQ 150235Z AUTO 35010KT 10SM CLR M02/M06 A3013 880 75 -900 350/10 RMK AO2 TSNO
94908KDBQ DBQ20060314204010503/14/06 20:40:31  5-MIN KDBQ 150240Z AUTO 35012KT 10SM CLR M02/M06 A3013 880 75 -900 350/12 RMK AO2 TSNO
94908KDBQ DBQ20060314204510503/14/06 20:45:31  5-MIN KDBQ 150245Z AUTO 35011KT 10SM CLR M02/M06 A3013 880 75 -900 350/11 RMK AO2 TSNO
94908KDBQ DBQ20060314205012803/14/06 20:50:31  5-MIN KDBQ 150250Z AUTO 35012KT 10SM CLR M02/M06 A3014 880 75 -900 350/12 RMK AO2 SLP220 T10171056 57002 TSNO
94908KDBQ DBQ20060314205512803/14/06 20:55:31  5-MIN KDBQ 150255Z AUTO 35011KT 10SM CLR M02/M06 A3014 880 75 -900 350/11 RMK AO2 SLP219 T10171056 53016 TSNO
94908KDBQ DBQ20060314210010503/14/06 21:00:31  5-MIN KDBQ 150300Z AUTO 35013KT 10SM CLR M02/M06 A3014 880 75 -900 350/13 RMK AO2 TSNO
94908KDBQ DBQ20060314210510503/14/06 21:05:31  5-MIN KDBQ 150305Z AUTO 34010KT 10SM CLR M02/M06 A3014 870 75 -900 340/10 RMK AO2 TSNO
94908KDBQ DBQ20060314211010503/14/06 21:10:31  5-MIN KDBQ 150310Z AUTO 34012KT 10SM CLR M02/M06 A3014 870 78 -900 340/12 RMK AO2 TSNO
94908KDBQ DBQ20060314211510503/14/06 21:15:31  5-MIN KDBQ 150315Z AUTO 34012KT 10SM CLR M02/M06 A3014 870 72 -900 340/12 RMK AO2 TSNO
94908KDBQ DBQ20060314212010503/14/06 21:20:31  5-MIN KDBQ 150320Z AUTO 34016KT 10SM CLR M02/M06 A3014 880 75 -900 340/16 RMK AO2 TSNO
94908KDBQ DBQ20060314212510503/14/06 21:25:31  5-MIN KDBQ 150325Z AUTO 34014KT 10SM CLR M02/M06 A3014 870 72 -900 340/14 RMK AO2 TSNO
94908KDBQ DBQ20060314213010503/14/06 21:30:31  5-MIN KDBQ 150330Z AUTO 34012KT 10SM CLR M02/M06 A3015 870 75 -900 340/12 RMK AO2 TSNO
94908KDBQ DBQ20060314213510503/14/06 21:35:31  5-MIN KDBQ 150335Z AUTO 34012KT 10SM CLR M02/M06 A3015 870 75 -900 330/12 RMK AO2 TSNO
94908KDBQ DBQ20060314214010503/14/06 21:40:31  5-MIN KDBQ 150340Z AUTO 33012KT 10SM CLR M02/M06 A3015 870 75 -900 330/12 RMK AO2 TSNO
94908KDBQ DBQ20060314214510603/14/06 21:45:31  5-MIN KDBQ 150345Z AUTO 33010KT 10SM CLR M03/M07 A3015 860 75 -1000 330/10 RMK AO2 TSNO
94908KDBQ DBQ20060314215012303/14/06 21:50:31  5-MIN KDBQ 150350Z AUTO 32010KT 10SM CLR M03/M07 A3015 860 75 -1000 320/10 RMK AO2 SLP225 T10281067 TSNO
94908KDBQ DBQ20060314215512203/14/06 21:55:31  5-MIN KDBQ 150355Z AUTO 32011KT 10SM CLR M02/M07 A3015 860 72 -900 320/11 RMK AO2 SLP225 T10221067 TSNO
94908KDBQ DBQ20060314220010603/14/06 22:00:31  5-MIN KDBQ 150400Z AUTO 31010KT 10SM CLR M02/M07 A3015 860 69 -1000 310/10 RMK AO2 TSNO
94908KDBQ DBQ20060314220510603/14/06 22:05:31  5-MIN KDBQ 150405Z AUTO 32013KT 10SM CLR M02/M07 A3016 860 69 -1000 320/13 RMK AO2 TSNO
94908KDBQ DBQ20060314221010603/14/06 22:10:31  5-MIN KDBQ 150410Z AUTO 32012KT 10SM CLR M02/M07 A3016 860 69 -1000 320/12 RMK AO2 TSNO
94908KDBQ DBQ20060314221510603/14/06 22:15:31  5-MIN KDBQ 150415Z AUTO 33011KT 10SM CLR M02/M08 A3016 860 66 -1000 320/11 RMK AO2 TSNO
94908KDBQ DBQ20060314222010603/14/06 22:20:31  5-MIN KDBQ 150420Z AUTO 33011KT 10SM CLR M03/M08 A3017 850 68 -1000 330/11 RMK AO2 TSNO
94908KDBQ DBQ20060314222510603/14/06 22:25:31  5-MIN KDBQ 150425Z AUTO 33012KT 10SM CLR M03/M08 A3017 850 68 -1000 320/12 RMK AO2 TSNO
94908KDBQ DBQ20060314223010603/14/06 22:30:31  5-MIN KDBQ 150430Z AUTO 32013KT 10SM CLR M03/M08 A3017 850 66 -1000 320/13 RMK AO2 TSNO
94908KDBQ DBQ20060314223510603/14/06 22:35:31  5-MIN KDBQ 150435Z AUTO 32014KT 10SM CLR M03/M08 A3017 850 66 -1000 320/14 RMK AO2 TSNO
94908KDBQ DBQ20060314224010603/14/06 22:40:31  5-MIN KDBQ 150440Z AUTO 32011KT 10SM CLR M03/M08 A3017 850 68 -1000 320/11 RMK AO2 TSNO
94908KDBQ DBQ20060314224510603/14/06 22:45:31  5-MIN KDBQ 150445Z AUTO 33013KT 10SM CLR M03/M08 A3017 850 66 -1000 320/13 RMK AO2 TSNO
94908KDBQ DBQ20060314225012303/14/06 22:50:31  5-MIN KDBQ 150450Z AUTO 33012KT 10SM CLR M03/M08 A3017 840 66 -1000 320/12 RMK AO2 SLP231 T10281083 TSNO
94908KDBQ DBQ20060314225512303/14/06 22:55:31  5-MIN KDBQ 150455Z AUTO 33015KT 10SM CLR M03/M08 A3017 840 66 -1000 330/15 RMK AO2 SLP231 T10281083 TSNO
94908KDBQ DBQ20060314230010603/14/06 23:00:31  5-MIN KDBQ 150500Z AUTO 33012KT 10SM CLR M03/M08 A3017 840 68 -1100 330/12 RMK AO2 TSNO
94908KDBQ DBQ20060314230510603/14/06 23:05:31  5-MIN KDBQ 150505Z AUTO 33010KT 10SM CLR M03/M08 A3017 850 71 -1100 320/10 RMK AO2 TSNO
94908KDBQ DBQ20060314231010603/14/06 23:10:31  5-MIN KDBQ 150510Z AUTO 33013KT 10SM CLR M03/M08 A3017 850 71 -1100 330/13 RMK AO2 TSNO
94908KDBQ DBQ20060314231511203/14/06 23:15:31  5-MIN KDBQ 150515Z AUTO 33018G23KT 10SM CLR M03/M08 A3017 850 68 -1100 330/18G23 RMK AO2 TSNO
94908KDBQ DBQ20060314232011203/14/06 23:20:31  5-MIN KDBQ 150520Z AUTO 33017G23KT 10SM CLR M03/M08 A3017 840 68 -1100 330/17G23 RMK AO2 TSNO
94908KDBQ DBQ20060314232510603/14/06 23:25:31  5-MIN KDBQ 150525Z AUTO 33016KT 10SM CLR M03/M08 A3018 840 68 -1100 330/16 RMK AO2 TSNO
94908KDBQ DBQ20060314233010603/14/06 23:30:31  5-MIN KDBQ 150530Z AUTO 33015KT 10SM CLR M03/M08 A3018 840 68 -1100 330/15 RMK AO2 TSNO
94908KDBQ DBQ20060314233510603/14/06 23:35:31  5-MIN KDBQ 150535Z AUTO 33016KT 10SM CLR M03/M08 A3018 840 68 -1100 320/16 RMK AO2 TSNO
94908KDBQ DBQ20060314234010603/14/06 23:40:31  5-MIN KDBQ 150540Z AUTO 33015KT 10SM CLR M04/M08 A3018 840 71 -1200 330/15 RMK AO2 TSNO
94908KDBQ DBQ20060314234510603/14/06 23:45:31  5-MIN KDBQ 150545Z AUTO 33013KT 10SM CLR M04/M08 A3018 840 71 -1200 330/13 RMK AO2 TSNO
94908KDBQ DBQ20060314235015103/14/06 23:50:31  5-MIN KDBQ 150550Z AUTO 34011KT 10SM CLR M04/M08 A3018 840 71 -1200 340/11 RMK AO2 SLP233 T10391083 10022 21039 400331067 53016 TSNO
94908KDBQ DBQ20060314235515103/14/06 23:55:31  5-MIN KDBQ 150555Z AUTO 33016KT 10SM CLR M04/M08 A3018 840 71 -1200 330/16 RMK AO2 SLP233 T10391083 10022 21039 400331067 51014 TSNO
94908KDBQ DBQ20060315000010603/15/06 00:00:38  5-MIN KDBQ 150600Z AUTO 33012KT 10SM CLR M04/M08 A3018 840 71 -1200 330/12 RMK AO2 TSNO
94908KDBQ DBQ20060315000510603/15/06 00:05:31  5-MIN KDBQ 150605Z AUTO 33011KT 10SM CLR M04/M08 A3018 830 71 -1200 320/11 RMK AO2 TSNO
94908KDBQ DBQ20060315001010603/15/06 00:10:31  5-MIN KDBQ 150610Z AUTO 33012KT 10SM CLR M04/M08 A3019 830 71 -1200 320/12 RMK AO2 TSNO
94908KDBQ DBQ20060315001510603/15/06 00:15:32  5-MIN KDBQ 150615Z AUTO 32011KT 10SM CLR M04/M08 A3019 830 71 -1200 320/11 RMK AO2 TSNO
94908KDBQ DBQ20060315002010603/15/06 00:20:31  5-MIN KDBQ 150620Z AUTO 32010KT 10SM CLR M04/M08 A3020 820 74 -1300 320/10 RMK AO2 TSNO
94908KDBQ DBQ20060315002510603/15/06 00:25:31  5-MIN KDBQ 150625Z AUTO 32011KT 10SM CLR M04/M08 A3020 820 74 -1300 320/11 RMK AO2 TSNO
94908KDBQ DBQ20060315003010603/15/06 00:30:31  5-MIN KDBQ 150630Z AUTO 33013KT 10SM CLR M04/M09 A3020 820 71 -1300 330/13 RMK AO2 TSNO
94908KDBQ DBQ20060315003510603/15/06 00:35:31  5-MIN KDBQ 150635Z AUTO 33012KT 10SM CLR M04/M09 A3020 820 71 -1300 330/12 RMK AO2 TSNO
94908KDBQ DBQ20060315004010603/15/06 00:40:31  5-MIN KDBQ 150640Z AUTO 32010KT 10SM CLR M04/M09 A3020 820 71 -1300 320/10 RMK AO2 TSNO
94908KDBQ DBQ20060315004510603/15/06 00:45:31  5-MIN KDBQ 150645Z AUTO 33011KT 10SM CLR M04/M09 A3020 820 71 -1300 330/11 RMK AO2 TSNO
94908KDBQ DBQ20060315005012303/15/06 00:50:31  5-MIN KDBQ 150650Z AUTO 33010KT 10SM CLR M04/M09 A3020 820 71 -1300 330/10 RMK AO2 SLP241 T10441089 TSNO
94908KDBQ DBQ20060315005512303/15/06 00:55:31  5-MIN KDBQ 150655Z AUTO 33010KT 10SM CLR M04/M09 A3020 820 71 -1300 330/10 RMK AO2 SLP240 T10441089 TSNO
94908KDBQ DBQ20060315010010603/15/06 01:00:31  5-MIN KDBQ 150700Z AUTO 33010KT 10SM CLR M04/M08 A3020 820 74 -1300 330/10 RMK AO2 TSNO
94908KDBQ DBQ20060315010510603/15/06 01:05:31  5-MIN KDBQ 150705Z AUTO 33013KT 10SM CLR M04/M08 A3021 820 74 -1300 330/13 RMK AO2 TSNO
94908KDBQ DBQ20060315011010603/15/06 01:10:31  5-MIN KDBQ 150710Z AUTO 32012KT 10SM CLR M04/M08 A3021 810 74 -1300 320/12 RMK AO2 TSNO
94908KDBQ DBQ20060315011510603/15/06 01:15:31  5-MIN KDBQ 150715Z AUTO 33013KT 10SM CLR M04/M08 A3021 810 74 -1300 330/13 RMK AO2 TSNO
94908KDBQ DBQ20060315012010603/15/06 01:20:31  5-MIN KDBQ 150720Z AUTO 33012KT 10SM CLR M05/M08 A3021 820 77 -1400 330/12 RMK AO2 TSNO
94908KDBQ DBQ20060315012510603/15/06 01:25:31  5-MIN KDBQ 150725Z AUTO 34012KT 10SM CLR M05/M08 A3021 810 77 -1400 340/12 RMK AO2 TSNO
94908KDBQ DBQ20060315013010603/15/06 01:30:31  5-MIN KDBQ 150730Z AUTO 34014KT 10SM CLR M05/M08 A3021 810 77 -1400 340/14 RMK AO2 TSNO
94908KDBQ DBQ20060315013510603/15/06 01:35:31  5-MIN KDBQ 150735Z AUTO 34013KT 10SM CLR M05/M08 A3021 820 77 -1400 340/13 RMK AO2 TSNO
94908KDBQ DBQ20060315014010603/15/06 01:40:31  5-MIN KDBQ 150740Z AUTO 34013KT 10SM CLR M05/M09 A3021 820 74 -1400 340/13 RMK AO2 TSNO
94908KDBQ DBQ20060315014510603/15/06 01:45:31  5-MIN KDBQ 150745Z AUTO 34012KT 10SM CLR M05/M09 A3020 820 74 -1400 340/12 RMK AO2 TSNO
94908KDBQ DBQ20060315015012303/15/06 01:50:31  5-MIN KDBQ 150750Z AUTO 34012KT 10SM CLR M05/M09 A3020 820 74 -1400 340/12 RMK AO2 SLP242 T10501089 TSNO
94908KDBQ DBQ20060315015512303/15/06 01:55:31  5-MIN KDBQ 150755Z AUTO 34010KT 10SM CLR M05/M09 A3021 810 74 -1400 340/10 RMK AO2 SLP242 T10501089 TSNO
94908KDBQ DBQ20060315020010603/15/06 02:00:31  5-MIN KDBQ 150800Z AUTO 34011KT 10SM CLR M05/M09 A3021 810 74 -1400 340/11 RMK AO2 TSNO
94908KDBQ DBQ20060315020510603/15/06 02:05:31  5-MIN KDBQ 150805Z AUTO 34008KT 10SM CLR M06/M09 A3021 810 77 -1400 340/08 RMK AO2 TSNO
94908KDBQ DBQ20060315021010603/15/06 02:10:31  5-MIN KDBQ 150810Z AUTO 34010KT 10SM CLR M05/M09 A3022 810 74 -1400 340/10 RMK AO2 TSNO
94908KDBQ DBQ20060315021510603/15/06 02:15:31  5-MIN KDBQ 150815Z AUTO 33010KT 10SM CLR M06/M09 A3022 800 77 -1400 330/10 RMK AO2 TSNO
94908KDBQ DBQ20060315022010603/15/06 02:20:31  5-MIN KDBQ 150820Z AUTO 33010KT 10SM CLR M06/M09 A3022 800 77 -1500 330/10 RMK AO2 TSNO
94908KDBQ DBQ20060315022510603/15/06 02:25:31  5-MIN KDBQ 150825Z AUTO 33007KT 10SM CLR M06/M09 A3022 800 77 -1500 330/07 RMK AO2 TSNO
94908KDBQ DBQ20060315023010603/15/06 02:30:31  5-MIN KDBQ 150830Z AUTO 33010KT 10SM CLR M05/M09 A3022 800 74 -1400 330/10 RMK AO2 TSNO
94908KDBQ DBQ20060315023510603/15/06 02:35:31  5-MIN KDBQ 150835Z AUTO 33009KT 10SM CLR M06/M09 A3023 800 77 -1500 330/09 RMK AO2 TSNO
94908KDBQ DBQ20060315024010603/15/06 02:40:31  5-MIN KDBQ 150840Z AUTO 32007KT 10SM CLR M06/M09 A3022 800 77 -1500 320/07 RMK AO2 TSNO
94908KDBQ DBQ20060315024510603/15/06 02:45:31  5-MIN KDBQ 150845Z AUTO 32007KT 10SM CLR M06/M09 A3023 800 77 -1500 320/07 RMK AO2 TSNO
94908KDBQ DBQ20060315025012903/15/06 02:50:31  5-MIN KDBQ 150850Z AUTO 32005KT 10SM CLR M06/M09 A3023 800 77 -1500 320/05 RMK AO2 SLP249 T10561089 51014 TSNO
94908KDBQ DBQ20060315025512903/15/06 02:55:31  5-MIN KDBQ 150855Z AUTO 28004KT 10SM CLR M06/M09 A3023 790 77 -1500 280/04 RMK AO2 SLP250 T10561089 53016 TSNO
94908KDBQ DBQ20060315030010603/15/06 03:00:31  5-MIN KDBQ 150900Z AUTO 28004KT 10SM CLR M06/M09 A3023 790 81 -1500 280/04 RMK AO2 TSNO
94908KDBQ DBQ20060315030510603/15/06 03:05:31  5-MIN KDBQ 150905Z AUTO 29005KT 10SM CLR M06/M09 A3023 790 77 -1500 290/05 RMK AO2 TSNO
94908KDBQ DBQ20060315031010603/15/06 03:10:31  5-MIN KDBQ 150910Z AUTO 30005KT 10SM CLR M06/M09 A3023 800 77 -1500 300/05 RMK AO2 TSNO
94908KDBQ DBQ20060315031510603/15/06 03:15:31  5-MIN KDBQ 150915Z AUTO 31006KT 10SM CLR M07/M09 A3022 800 81 -1600 310/06 RMK AO2 TSNO
94908KDBQ DBQ20060315032010603/15/06 03:20:31  5-MIN KDBQ 150920Z AUTO 31005KT 10SM CLR M06/M09 A3023 800 77 -1500 310/05 RMK AO2 TSNO
94908KDBQ DBQ20060315032510603/15/06 03:25:31  5-MIN KDBQ 150925Z AUTO 32006KT 10SM CLR M06/M09 A3023 800 77 -1500 320/06 RMK AO2 TSNO
94908KDBQ DBQ20060315033010603/15/06 03:30:31  5-MIN KDBQ 150930Z AUTO 32008KT 10SM CLR M06/M09 A3023 800 77 -1500 320/08 RMK AO2 TSNO
94908KDBQ DBQ20060315033510603/15/06 03:35:31  5-MIN KDBQ 150935Z AUTO 32007KT 10SM CLR M06/M09 A3023 800 81 -1500 320/07 RMK AO2 TSNO
94908KDBQ DBQ20060315034010603/15/06 03:40:31  5-MIN KDBQ 150940Z AUTO 32006KT 10SM CLR M06/M09 A3023 800 81 -1500 320/06 RMK AO2 TSNO
94908KDBQ DBQ20060315034510603/15/06 03:45:31  5-MIN KDBQ 150945Z AUTO 31005KT 10SM CLR M06/M09 A3023 790 77 -1500 310/05 RMK AO2 TSNO
94908KDBQ DBQ20060315035012303/15/06 03:50:31  5-MIN KDBQ 150950Z AUTO 33004KT 10SM CLR M06/M09 A3023 790 77 -1500 330/04 RMK AO2 SLP250 T10611094 TSNO
94908KDBQ DBQ20060315035512303/15/06 03:55:31  5-MIN KDBQ 150955Z AUTO 34005KT 10SM CLR M06/M09 A3023 790 77 -1500 340/05 RMK AO2 SLP250 T10611094 TSNO
94908KDBQ DBQ20060315040010603/15/06 04:00:31  5-MIN KDBQ 151000Z AUTO 36006KT 10SM CLR M07/M09 A3023 800 81 -1600 360/06 RMK AO2 TSNO
94908KDBQ DBQ20060315040510603/15/06 04:05:31  5-MIN KDBQ 151005Z AUTO 36006KT 10SM CLR M07/M09 A3023 800 81 -1600 360/06 RMK AO2 TSNO
94908KDBQ DBQ20060315041010603/15/06 04:10:31  5-MIN KDBQ 151010Z AUTO 36004KT 10SM CLR M07/M09 A3023 800 81 -1600 360/04 RMK AO2 TSNO
94908KDBQ DBQ20060315041510603/15/06 04:15:31  5-MIN KDBQ 151015Z AUTO 01003KT 10SM CLR M07/M09 A3023 790 81 -1600 010/03 RMK AO2 TSNO
94908KDBQ DBQ20060315042010603/15/06 04:20:31  5-MIN KDBQ 151020Z AUTO VRB03KT 10SM CLR M07/M09 A3023 790 81 -1600 VRB/03 RMK AO2 TSNO
94908KDBQ DBQ20060315042510603/15/06 04:25:31  5-MIN KDBQ 151025Z AUTO 03004KT 10SM CLR M07/M09 A3023 790 81 -1600 030/04 RMK AO2 TSNO
94908KDBQ DBQ20060315043010603/15/06 04:30:31  5-MIN KDBQ 151030Z AUTO 03004KT 10SM CLR M06/M09 A3023 800 77 -1500 030/04 RMK AO2 TSNO
94908KDBQ DBQ20060315043510603/15/06 04:35:31  5-MIN KDBQ 151035Z AUTO 02004KT 10SM CLR M07/M09 A3023 790 81 -1600 020/04 RMK AO2 TSNO
94908KDBQ DBQ20060315044010603/15/06 04:40:31  5-MIN KDBQ 151040Z AUTO 02005KT 10SM CLR M06/M09 A3023 790 77 -1500 020/05 RMK AO2 TSNO
94908KDBQ DBQ20060315044510603/15/06 04:45:31  5-MIN KDBQ 151045Z AUTO 01005KT 10SM CLR M07/M09 A3023 790 81 -1600 010/05 RMK AO2 TSNO
94908KDBQ DBQ20060315045012303/15/06 04:50:31  5-MIN KDBQ 151050Z AUTO 02005KT 10SM CLR M06/M09 A3023 790 77 -1500 020/05 RMK AO2 SLP251 T10611094 TSNO
94908KDBQ DBQ20060315045512303/15/06 04:55:31  5-MIN KDBQ 151055Z AUTO 02006KT 10SM CLR M07/M09 A3023 790 81 -1600 020/06 RMK AO2 SLP252 T10671094 TSNO
94908KDBQ DBQ20060315050010603/15/06 05:00:31  5-MIN KDBQ 151100Z AUTO 02006KT 10SM CLR M07/M09 A3024 790 81 -1600 020/06 RMK AO2 TSNO
94908KDBQ DBQ20060315050510603/15/06 05:05:31  5-MIN KDBQ 151105Z AUTO 02007KT 10SM CLR M07/M09 A3024 790 81 -1600 020/07 RMK AO2 TSNO
94908KDBQ DBQ20060315051010603/15/06 05:10:31  5-MIN KDBQ 151110Z AUTO 01005KT 10SM CLR M07/M09 A3024 790 81 -1600 010/05 RMK AO2 TSNO
94908KDBQ DBQ20060315051510603/15/06 05:15:31  5-MIN KDBQ 151115Z AUTO 01006KT 10SM CLR M07/M09 A3024 780 81 -1600 010/06 RMK AO2 TSNO
94908KDBQ DBQ20060315052010603/15/06 05:20:31  5-MIN KDBQ 151120Z AUTO 01005KT 10SM CLR M07/M09 A3024 780 84 -1700 010/05 RMK AO2 TSNO
94908KDBQ DBQ20060315052510603/15/06 05:25:31  5-MIN KDBQ 151125Z AUTO 36004KT 10SM CLR M07/M09 A3025 780 84 -1700 350/04 RMK AO2 TSNO
94908KDBQ DBQ20060315053010603/15/06 05:30:31  5-MIN KDBQ 151130Z AUTO 34005KT 10SM CLR M07/M10 A3025 780 81 -1700 340/05 RMK AO2 TSNO
94908KDBQ DBQ20060315053510603/15/06 05:35:31  5-MIN KDBQ 151135Z AUTO 35006KT 10SM CLR M07/M10 A3025 780 81 -1700 340/06 RMK AO2 TSNO
94908KDBQ DBQ20060315054010603/15/06 05:40:31  5-MIN KDBQ 151140Z AUTO 36005KT 10SM CLR M07/M10 A3025 780 81 -1700 360/05 RMK AO2 TSNO
94908KDBQ DBQ20060315054510603/15/06 05:45:31  5-MIN KDBQ 151145Z AUTO 36006KT 10SM CLR M07/M10 A3025 780 81 -1700 360/06 RMK AO2 TSNO
94908KDBQ DBQ20060315055014103/15/06 05:50:31  5-MIN KDBQ 151150Z AUTO 36005KT 10SM CLR M07/M10 A3025 780 81 -1700 360/05 RMK AO2 SLP257 T10721100 11039 21072 53016 TSNO
94908KDBQ DBQ20060315055514103/15/06 05:55:31  5-MIN KDBQ 151155Z AUTO 35005KT 10SM CLR M07/M10 A3025 780 81 -1700 350/05 RMK AO2 SLP258 T10721100 11039 21072 53006 TSNO
94908KDBQ DBQ20060315060009603/15/06 06:00:31  5-MIN KDBQ 151200Z 34005KT 10SM CLR M08/M10 A3025 770 84 -1800 340/05 RMK AO2
94908KDBQ DBQ20060315060509603/15/06 06:05:31  5-MIN KDBQ 151205Z 35006KT 10SM CLR M08/M10 A3026 770 84 -1800 350/06 RMK AO2
94908KDBQ DBQ20060315061009503/15/06 06:10:31  5-MIN KDBQ 151210Z 34006KT 9SM CLR M08/M10 A3026 770 84 -1800 340/06 RMK AO2
94908KDBQ DBQ20060315061509503/15/06 06:15:31  5-MIN KDBQ 151215Z 35006KT 9SM CLR M08/M10 A3026 770 84 -1800 350/06 RMK AO2
94908KDBQ DBQ20060315062009503/15/06 06:20:31  5-MIN KDBQ 151220Z 35005KT 8SM CLR M08/M10 A3026 770 84 -1800 350/05 RMK AO2
94908KDBQ DBQ20060315062509503/15/06 06:25:31  5-MIN KDBQ 151225Z 34005KT 8SM CLR M08/M10 A3026 760 84 -1800 340/05 RMK AO2
94908KDBQ DBQ20060315063009503/15/06 06:30:31  5-MIN KDBQ 151230Z 30004KT 8SM CLR M08/M10 A3027 760 84 -1800 300/04 RMK AO2
94908KDBQ DBQ20060315063509503/15/06 06:35:31  5-MIN KDBQ 151235Z 31003KT 8SM CLR M07/M09 A3026 760 84 -1700 310/03 RMK AO2
94908KDBQ DBQ20060315064009503/15/06 06:40:31  5-MIN KDBQ 151240Z 31004KT 8SM CLR M07/M09 A3027 760 84 -1700 310/04 RMK AO2
94908KDBQ DBQ20060315064509503/15/06 06:45:31  5-MIN KDBQ 151245Z 33005KT 8SM CLR M07/M09 A3027 760 81 -1600 330/05 RMK AO2
94908KDBQ DBQ20060315065011203/15/06 06:50:31  5-MIN KDBQ 151250Z 35004KT 8SM CLR M07/M09 A3026 770 84 -1600 350/04 RMK AO2 SLP262 T10671089
94908KDBQ DBQ20060315065511203/15/06 06:55:31  5-MIN KDBQ 151255Z 35004KT 8SM CLR M07/M09 A3026 770 84 -1600 350/04 RMK AO2 SLP262 T10671089
94908KDBQ DBQ20060315070009503/15/06 07:00:31  5-MIN KDBQ 151300Z 36004KT 8SM CLR M06/M09 A3026 770 81 -1600 360/04 RMK AO2
94908KDBQ DBQ20060315070509503/15/06 07:05:31  5-MIN KDBQ 151305Z 36004KT 8SM CLR M06/M09 A3026 760 81 -1600 360/04 RMK AO2
94908KDBQ DBQ20060315071009503/15/06 07:10:31  5-MIN KDBQ 151310Z 35004KT 8SM CLR M06/M09 A3026 760 81 -1600 340/04 RMK AO2
94908KDBQ DBQ20060315071509503/15/06 07:15:31  5-MIN KDBQ 151315Z 35005KT 9SM CLR M06/M09 A3027 760 77 -1500 350/05 RMK AO2
94908KDBQ DBQ20060315072009503/15/06 07:20:31  5-MIN KDBQ 151320Z 36007KT 9SM CLR M06/M09 A3026 770 77 -1500 360/07 RMK AO2
94908KDBQ DBQ20060315072509503/15/06 07:25:31  5-MIN KDBQ 151325Z 01006KT 9SM CLR M06/M09 A3026 770 77 -1500 010/06 RMK AO2
94908KDBQ DBQ20060315073009503/15/06 07:30:31  5-MIN KDBQ 151330Z 35006KT 9SM CLR M06/M09 A3026 760 77 -1500 350/06 RMK AO2
94908KDBQ DBQ20060315073509503/15/06 07:35:31  5-MIN KDBQ 151335Z 01006KT 9SM CLR M05/M09 A3026 760 74 -1400 010/06 RMK AO2
94908KDBQ DBQ20060315074009603/15/06 07:40:31  5-MIN KDBQ 151340Z 01006KT 10SM CLR M05/M09 A3026 760 74 -1400 010/06 RMK AO2
94908KDBQ DBQ20060315074509603/15/06 07:45:31  5-MIN KDBQ 151345Z 01007KT 10SM CLR M05/M09 A3027 760 74 -1400 010/07 RMK AO2
94908KDBQ DBQ20060315075011303/15/06 07:50:31  5-MIN KDBQ 151350Z 01007KT 10SM CLR M05/M09 A3027 760 74 -1400 010/07 RMK AO2 SLP265 T10501089
94908KDBQ DBQ20060315075511303/15/06 07:55:31  5-MIN KDBQ 151355Z 02006KT 10SM CLR M04/M09 A3027 760 71 -1400 020/06 RMK AO2 SLP265 T10441089
94908KDBQ DBQ20060315080009603/15/06 08:00:31  5-MIN KDBQ 151400Z 02006KT 10SM CLR M04/M09 A3027 750 71 -1400 020/06 RMK AO2
94908KDBQ DBQ20060315080509603/15/06 08:05:31  5-MIN KDBQ 151405Z 03008KT 10SM CLR M04/M09 A3027 750 71 -1400 030/08 RMK AO2
94908KDBQ DBQ20060315081009603/15/06 08:10:31  5-MIN KDBQ 151410Z 04007KT 10SM CLR M04/M09 A3028 750 71 -1400 040/07 RMK AO2
94908KDBQ DBQ20060315081509603/15/06 08:15:31  5-MIN KDBQ 151415Z 03005KT 10SM CLR M04/M09 A3028 750 71 -1400 030/05 RMK AO2
94908KDBQ DBQ20060315082009603/15/06 08:20:31  5-MIN KDBQ 151420Z 01005KT 10SM CLR M04/M09 A3028 750 71 -1400 010/05 RMK AO2
94908KDBQ DBQ20060315082509603/15/06 08:25:31  5-MIN KDBQ 151425Z 01005KT 10SM CLR M04/M09 A3028 750 71 -1400 360/05 RMK AO2
94908KDBQ DBQ20060315083009603/15/06 08:30:31  5-MIN KDBQ 151430Z 04005KT 10SM CLR M04/M09 A3028 750 68 -1300 040/05 RMK AO2
94908KDBQ DBQ20060315083509603/15/06 08:35:31  5-MIN KDBQ 151435Z 02004KT 10SM CLR M04/M08 A3028 750 71 -1300 020/04 RMK AO2
94908KDBQ DBQ20060315084009603/15/06 08:40:31  5-MIN KDBQ 151440Z 05006KT 10SM CLR M04/M08 A3028 750 71 -1300 050/06 RMK AO2
94908KDBQ DBQ20060315084509603/15/06 08:45:31  5-MIN KDBQ 151445Z 06005KT 10SM CLR M04/M08 A3028 750 71 -1300 060/05 RMK AO2
94908KDBQ DBQ20060315085011903/15/06 08:50:31  5-MIN KDBQ 151450Z 04005KT 10SM CLR M03/M09 A3028 750 65 -1200 040/05 RMK AO2 SLP269 T10331089 53006
94908KDBQ DBQ20060315085511903/15/06 08:55:31  5-MIN KDBQ 151455Z 03006KT 10SM CLR M03/M09 A3029 740 65 -1200 030/06 RMK AO2 SLP271 T10331089 53013
94908KDBQ DBQ20060315090009603/15/06 09:00:31  5-MIN KDBQ 151500Z 04005KT 10SM CLR M03/M09 A3028 740 65 -1200 040/05 RMK AO2
94908KDBQ DBQ20060315090509603/15/06 09:05:31  5-MIN KDBQ 151505Z 04005KT 10SM CLR M03/M08 A3028 750 66 -1200 030/05 RMK AO2
94908KDBQ DBQ20060315091009603/15/06 09:10:31  5-MIN KDBQ 151510Z 01005KT 10SM CLR M02/M08 A3028 740 63 -1100 010/05 RMK AO2
94908KDBQ DBQ20060315091509603/15/06 09:15:31  5-MIN KDBQ 151515Z 06004KT 10SM CLR M02/M09 A3028 750 60 -1100 050/04 RMK AO2
94908KDBQ DBQ20060315092009603/15/06 09:20:31  5-MIN KDBQ 151520Z VRB03KT 10SM CLR M03/M09 A3028 750 63 -1200 VRB/03 RMK AO2
94908KDBQ DBQ20060315092509603/15/06 09:25:31  5-MIN KDBQ 151525Z 08005KT 10SM CLR M02/M09 A3028 750 60 -1100 080/05 RMK AO2
94908KDBQ DBQ20060315093009603/15/06 09:30:31  5-MIN KDBQ 151530Z 07004KT 10SM CLR M02/M09 A3028 750 58 -1100 060/04 RMK AO2
94908KDBQ DBQ20060315093509603/15/06 09:35:31  5-MIN KDBQ 151535Z 00000KT 10SM CLR M02/M09 A3028 750 58 -1100 000/00 RMK AO2
94908KDBQ DBQ20060315094009603/15/06 09:40:31  5-MIN KDBQ 151540Z 03003KT 10SM CLR M02/M09 A3028 750 58 -1100 030/03 RMK AO2
94908KDBQ DBQ20060315094509603/15/06 09:45:31  5-MIN KDBQ 151545Z 00000KT 10SM CLR M02/M09 A3028 750 58 -1000 000/00 RMK AO2
94908KDBQ DBQ20060315095011303/15/06 09:50:31  5-MIN KDBQ 151550Z 00000KT 10SM CLR M02/M09 A3028 750 58 -1100 000/00 RMK AO2 SLP269 T10221094
94908KDBQ DBQ20060315095511303/15/06 09:55:31  5-MIN KDBQ 151555Z 00000KT 10SM CLR M02/M09 A3028 750 58 -1100 000/00 RMK AO2 SLP269 T10221094
94908KDBQ DBQ20060315100009603/15/06 10:00:31  5-MIN KDBQ 151600Z 00000KT 10SM CLR M02/M09 A3028 740 58 -1100 000/00 RMK AO2
94908KDBQ DBQ20060315100509603/15/06 10:05:31  5-MIN KDBQ 151605Z 00000KT 10SM CLR M02/M09 A3028 750 55 -1000 000/00 RMK AO2
94908KDBQ DBQ20060315101009603/15/06 10:10:31  5-MIN KDBQ 151610Z 00000KT 10SM CLR M02/M09 A3027 750 58 -1000 000/00 RMK AO2
94908KDBQ DBQ20060315101509503/15/06 10:15:31  5-MIN KDBQ 151615Z 00000KT 10SM CLR M01/M09 A3027 750 55 -900 000/00 RMK AO2
94908KDBQ DBQ20060315102009603/15/06 10:20:31  5-MIN KDBQ 151620Z 00000KT 10SM CLR M02/M09 A3027 750 58 -1000 000/00 RMK AO2
94908KDBQ DBQ20060315102509503/15/06 10:25:31  5-MIN KDBQ 151625Z 00000KT 10SM CLR M01/M09 A3028 750 55 -900 000/00 RMK AO2
94908KDBQ DBQ20060315103009603/15/06 10:30:31  5-MIN KDBQ 151630Z 30004KT 10SM CLR M01/M09 A3028 750 55 -1000 290/04 RMK AO2
94908KDBQ DBQ20060315103509603/15/06 10:35:31  5-MIN KDBQ 151635Z 18004KT 10SM CLR M01/M09 A3028 750 55 -1000 170/04 RMK AO2
94908KDBQ DBQ20060315104009603/15/06 10:40:31  5-MIN KDBQ 151640Z 00000KT 10SM CLR M01/M10 A3028 750 51 -1000 000/00 RMK AO2
94908KDBQ DBQ20060315104509503/15/06 10:45:31  5-MIN KDBQ 151645Z 21004KT 10SM CLR M01/M09 A3028 750 51 -900 210/04 RMK AO2
94908KDBQ DBQ20060315105011203/15/06 10:50:31  5-MIN KDBQ 151650Z 00000KT 10SM CLR M01/M09 A3028 750 51 -900 000/00 RMK AO2 SLP268 T10061094
94908KDBQ DBQ20060315105511203/15/06 10:55:31  5-MIN KDBQ 151655Z 22005KT 10SM CLR M01/M09 A3028 750 53 -900 220/05 RMK AO2 SLP267 T10061089
94908KDBQ DBQ20060315110009403/15/06 11:00:31  5-MIN KDBQ 151700Z 22004KT 10SM CLR 00/M09 A3028 750 51 -800 220/04 RMK AO2
94908KDBQ DBQ20060315110509503/15/06 11:05:31  5-MIN KDBQ 151705Z VRB03KT 10SM CLR M01/M09 A3028 750 51 -900 VRB/03 RMK AO2
94908KDBQ DBQ20060315111009403/15/06 11:10:31  5-MIN KDBQ 151710Z VRB03KT 10SM CLR 00/M09 A3027 750 49 -800 VRB/03 RMK AO2
94908KDBQ DBQ20060315111509403/15/06 11:15:31  5-MIN KDBQ 151715Z VRB04KT 10SM CLR 01/M09 A3027 750 49 -700 VRB/04 RMK AO2
94908KDBQ DBQ20060315112009403/15/06 11:20:31  5-MIN KDBQ 151720Z 24005KT 10SM CLR 00/M09 A3027 760 51 -800 240/05 RMK AO2
94908KDBQ DBQ20060315112509403/15/06 11:25:31  5-MIN KDBQ 151725Z VRB04KT 10SM CLR 00/M09 A3027 750 51 -800 VRB/04 RMK AO2
94908KDBQ DBQ20060315113009403/15/06 11:30:31  5-MIN KDBQ 151730Z 25004KT 10SM CLR 01/M09 A3027 760 49 -700 250/04 RMK AO2
94908KDBQ DBQ20060315113509403/15/06 11:35:31  5-MIN KDBQ 151735Z 21003KT 10SM CLR 01/M08 A3027 760 51 -700 210/03 RMK AO2
94908KDBQ DBQ20060315114009403/15/06 11:40:31  5-MIN KDBQ 151740Z VRB04KT 10SM CLR 01/M08 A3027 760 49 -700 VRB/04 RMK AO2
94908KDBQ DBQ20060315114509403/15/06 11:45:31  5-MIN KDBQ 151745Z VRB03KT 10SM CLR 01/M08 A3027 760 51 -700 VRB/03 RMK AO2
94908KDBQ DBQ20060315115012903/15/06 11:50:31  5-MIN KDBQ 151750Z 24008KT 10SM CLR 01/M08 A3027 760 49 -700 240/08 RMK AO2 SLP262 T00111083 10011 21078 53013
94908KDBQ DBQ20060315115512903/15/06 11:55:31  5-MIN KDBQ 151755Z 25007KT 10SM CLR 01/M08 A3027 760 49 -700 250/07 RMK AO2 SLP262 T00111083 10011 21078 58007
94908KDBQ DBQ20060315120009403/15/06 12:00:31  5-MIN KDBQ 151800Z VRB06KT 10SM CLR 01/M08 A3026 760 49 -700 VRB/06 RMK AO2
94908KDBQ DBQ20060315120509403/15/06 12:05:31  5-MIN KDBQ 151805Z VRB04KT 10SM CLR 01/M08 A3026 770 51 -700 VRB/04 RMK AO2
94908KDBQ DBQ20060315121009403/15/06 12:10:31  5-MIN KDBQ 151810Z 24007KT 10SM CLR 02/M08 A3026 770 49 -600 240/07 RMK AO2
94908KDBQ DBQ20060315121509403/15/06 12:15:31  5-MIN KDBQ 151815Z 24005KT 10SM CLR 02/M08 A3025 770 49 -600 240/05 RMK AO2
94908KDBQ DBQ20060315122009403/15/06 12:20:31  5-MIN KDBQ 151820Z 23003KT 10SM CLR 02/M08 A3025 770 49 -600 230/03 RMK AO2
94908KDBQ DBQ20060315122509403/15/06 12:25:31  5-MIN KDBQ 151825Z 00000KT 10SM CLR 02/M09 A3025 770 45 -600 000/00 RMK AO2
94908KDBQ DBQ20060315123009403/15/06 12:30:31  5-MIN KDBQ 151830Z 00000KT 10SM CLR 02/M08 A3024 780 49 -600 000/00 RMK AO2
94908KDBQ DBQ20060315123509403/15/06 12:35:31  5-MIN KDBQ 151835Z 32006KT 10SM CLR 02/M07 A3024 790 50 -500 320/06 RMK AO2
94908KDBQ DBQ20060315124009403/15/06 12:40:31  5-MIN KDBQ 151840Z 30004KT 10SM CLR 02/M08 A3024 790 45 -500 300/04 RMK AO2
94908KDBQ DBQ20060315124509403/15/06 12:45:31  5-MIN KDBQ 151845Z 18005KT 10SM CLR 02/M07 A3023 790 50 -500 180/05 RMK AO2
94908KDBQ DBQ20060315125011103/15/06 12:50:31  5-MIN KDBQ 151850Z 23005KT 10SM CLR 02/M08 A3023 790 47 -500 230/05 RMK AO2 SLP251 T00221078
94908KDBQ DBQ20060315125511103/15/06 12:55:31  5-MIN KDBQ 151855Z VRB03KT 10SM CLR 02/M08 A3024 790 47 -500 VRB/03 RMK AO2 SLP252 T00221078
94908KDBQ DBQ20060315130009403/15/06 13:00:31  5-MIN KDBQ 151900Z 19004KT 10SM CLR 02/M08 A3023 790 47 -500 190/04 RMK AO2
94908KDBQ DBQ20060315130509403/15/06 13:05:31  5-MIN KDBQ 151905Z 21003KT 10SM CLR 03/M08 A3023 790 46 -400 200/03 RMK AO2
94908KDBQ DBQ20060315131009403/15/06 13:10:31  5-MIN KDBQ 151910Z VRB06KT 10SM CLR 02/M08 A3023 800 45 -500 VRB/06 RMK AO2
94908KDBQ DBQ20060315131511003/15/06 13:15:31  5-MIN KDBQ 151915Z 25007KT 200V310 10SM CLR 03/M08 A3023 800 44 -400 250/07 200V310 RMK AO2
94908KDBQ DBQ20060315132009403/15/06 13:20:31  5-MIN KDBQ 151920Z 22005KT 10SM CLR 03/M09 A3022 800 42 -400 220/05 RMK AO2
94908KDBQ DBQ20060315132509403/15/06 13:25:31  5-MIN KDBQ 151925Z 23005KT 10SM CLR 02/M09 A3022 800 44 -500 220/05 RMK AO2
94908KDBQ DBQ20060315133009403/15/06 13:30:31  5-MIN KDBQ 151930Z VRB03KT 10SM CLR 03/M09 A3022 800 42 -400 VRB/03 RMK AO2
94908KDBQ DBQ20060315133509403/15/06 13:35:31  5-MIN KDBQ 151935Z 24004KT 10SM CLR 03/M09 A3021 810 42 -400 230/04 RMK AO2
94908KDBQ DBQ20060315134009403/15/06 13:40:31  5-MIN KDBQ 151940Z VRB03KT 10SM CLR 03/M08 A3021 810 44 -400 VRB/03 RMK AO2
94908KDBQ DBQ20060315134509403/15/06 13:45:31  5-MIN KDBQ 151945Z 00000KT 10SM CLR 03/M08 A3020 820 44 -400 000/00 RMK AO2
94908KDBQ DBQ20060315135011103/15/06 13:50:31  5-MIN KDBQ 151950Z VRB03KT 10SM CLR 03/M08 A3020 820 42 -300 VRB/03 RMK AO2 SLP240 T00331083
94908KDBQ DBQ20060315135511103/15/06 13:55:31  5-MIN KDBQ 151955Z 27004KT 10SM CLR 03/M08 A3020 820 42 -300 270/04 RMK AO2 SLP240 T00331083
94908KDBQ DBQ20060315140009403/15/06 14:00:31  5-MIN KDBQ 152000Z 00000KT 10SM CLR 03/M08 A3020 820 42 -300 000/00 RMK AO2
94908KDBQ DBQ20060315140509403/15/06 14:05:31  5-MIN KDBQ 152005Z 00000KT 10SM CLR 03/M09 A3019 830 40 -300 000/00 RMK AO2
94908KDBQ DBQ20060315141009403/15/06 14:10:31  5-MIN KDBQ 152010Z 00000KT 10SM CLR 03/M08 A3019 830 44 -300 000/00 RMK AO2
94908KDBQ DBQ20060315141509403/15/06 14:15:31  5-MIN KDBQ 152015Z 00000KT 10SM CLR 04/M08 A3019 830 42 -200 000/00 RMK AO2
94908KDBQ DBQ20060315142009403/15/06 14:20:31  5-MIN KDBQ 152020Z 17006KT 10SM CLR 04/M08 A3019 830 42 -200 170/06 RMK AO2
94908KDBQ DBQ20060315142509403/15/06 14:25:31  5-MIN KDBQ 152025Z VRB05KT 10SM CLR 04/M08 A3019 830 40 -200 VRB/05 RMK AO2
94908KDBQ DBQ20060315143009403/15/06 14:30:31  5-MIN KDBQ 152030Z VRB03KT 10SM CLR 04/M08 A3019 830 42 -200 VRB/03 RMK AO2
94908KDBQ DBQ20060315143509403/15/06 14:35:31  5-MIN KDBQ 152035Z 13005KT 10SM CLR 04/M09 A3018 840 39 -200 130/05 RMK AO2
94908KDBQ DBQ20060315144009403/15/06 14:40:31  5-MIN KDBQ 152040Z 22005KT 10SM CLR 04/M08 A3018 840 39 -100 210/05 RMK AO2
94908KDBQ DBQ20060315144509403/15/06 14:45:31  5-MIN KDBQ 152045Z 23004KT 10SM CLR 04/M09 A3017 840 39 -200 220/04 RMK AO2
94908KDBQ DBQ20060315145011703/15/06 14:50:31  5-MIN KDBQ 152050Z 17004KT 10SM CLR 04/M09 A3017 850 39 -200 170/04 RMK AO2 SLP229 T00391089 58007
94908KDBQ DBQ20060315145511703/15/06 14:55:31  5-MIN KDBQ 152055Z 12005KT 10SM CLR 04/M09 A3017 850 39 -200 120/05 RMK AO2 SLP228 T00391089 58033
94908KDBQ DBQ20060315150010403/15/06 15:00:31  5-MIN KDBQ 152100Z AUTO 00000KT 10SM CLR 04/M09 A3017 850 37 -100 000/00 RMK AO2 TSNO
94908KDBQ DBQ20060315150510403/15/06 15:05:31  5-MIN KDBQ 152105Z AUTO 00000KT 10SM CLR 04/M08 A3017 850 39 -100 000/00 RMK AO2 TSNO
94908KDBQ DBQ20060315151010403/15/06 15:10:31  5-MIN KDBQ 152110Z AUTO 00000KT 10SM CLR 04/M08 A3016 850 39 -100 000/00 RMK AO2 TSNO
94908KDBQ DBQ20060315151510403/15/06 15:15:31  5-MIN KDBQ 152115Z AUTO 14004KT 10SM CLR 05/M08 A3016 860 37 -100 140/04 RMK AO2 TSNO
94908KDBQ DBQ20060315152010103/15/06 15:20:31  5-MIN KDBQ 152120Z AUTO VRB03KT 10SM CLR 05/M08 A3015 860 37 0 VRB/03 RMK AO2 TSNO
94908KDBQ DBQ20060315152510103/15/06 15:25:31  5-MIN KDBQ 152125Z AUTO 13007KT 10SM CLR 05/M08 A3015 860 39 0 130/07 RMK AO2 TSNO
94908KDBQ DBQ20060315153010403/15/06 15:30:31  5-MIN KDBQ 152130Z AUTO 16006KT 10SM CLR 04/M08 A3015 860 39 -100 150/06 RMK AO2 TSNO
94908KDBQ DBQ20060315153510403/15/06 15:35:31  5-MIN KDBQ 152135Z AUTO 14006KT 10SM CLR 04/M08 A3015 870 39 -100 140/06 RMK AO2 TSNO
94908KDBQ DBQ20060315154010103/15/06 15:40:31  5-MIN KDBQ 152140Z AUTO VRB03KT 10SM CLR 05/M08 A3014 870 37 0 VRB/03 RMK AO2 TSNO
94908KDBQ DBQ20060315154509103/15/06 15:45:31  5-MIN KDBQ 152145Z 12005KT 10SM CLR 05/M08 A3014 870 37 0 120/05 RMK AO2
94908KDBQ DBQ20060315155011103/15/06 15:50:31  5-MIN KDBQ 152150Z 16006KT 10SM CLR 04/M08 A3014 870 39 -100 160/06 RMK AO2 SLP220 T00441083
94908KDBQ DBQ20060315155510803/15/06 15:55:31  5-MIN KDBQ 152155Z 16006KT 10SM CLR 05/M08 A3014 870 37 0 160/06 RMK AO2 SLP220 T00501083
94908KDBQ DBQ20060315160009403/15/06 16:00:31  5-MIN KDBQ 152200Z 18006KT 10SM CLR 04/M08 A3014 870 39 -100 170/06 RMK AO2
94908KDBQ DBQ20060315160509103/15/06 16:05:31  5-MIN KDBQ 152205Z 15007KT 10SM CLR 05/M08 A3014 880 37 0 150/07 RMK AO2
94908KDBQ DBQ20060315161009403/15/06 16:10:31  5-MIN KDBQ 152210Z 17004KT 10SM CLR 04/M08 A3014 880 39 -100 160/04 RMK AO2
94908KDBQ DBQ20060315161509403/15/06 16:15:31  5-MIN KDBQ 152215Z 17004KT 10SM CLR 04/M08 A3014 880 39 -100 170/04 RMK AO2
94908KDBQ DBQ20060315162009403/15/06 16:20:31  5-MIN KDBQ 152220Z 18007KT 10SM FEW110 05/M09 A3014 880 36 0 180/07 RMK AO2
94908KDBQ DBQ20060315162509403/15/06 16:25:31  5-MIN KDBQ 152225Z 15005KT 10SM FEW110 05/M09 A3014 880 34 0 140/05 RMK AO2
94908KDBQ DBQ20060315163009403/15/06 16:30:31  5-MIN KDBQ 152230Z 11006KT 10SM FEW110 05/M09 A3013 880 36 0 110/06 RMK AO2
94908KDBQ DBQ20060315163509403/15/06 16:35:31  5-MIN KDBQ 152235Z 13006KT 10SM FEW110 05/M09 A3013 880 36 0 130/06 RMK AO2
94908KDBQ DBQ20060315164009403/15/06 16:40:31  5-MIN KDBQ 152240Z 15007KT 10SM SCT110 05/M09 A3013 880 36 0 150/07 RMK AO2
94908KDBQ DBQ20060315164509703/15/06 16:45:31  5-MIN KDBQ 152245Z 16005KT 10SM BKN110 04/M08 A3013 880 39 -100 160/05 RMK AO2
94908KDBQ DBQ20060315165011403/15/06 16:50:31  5-MIN KDBQ 152250Z 15007KT 10SM SCT120 04/M08 A3013 880 41 -100 150/07 RMK AO2 SLP217 T00441078
94908KDBQ DBQ20060315165511403/15/06 16:55:31  5-MIN KDBQ 152255Z 15007KT 10SM SCT120 04/M08 A3013 890 39 -100 150/07 RMK AO2 SLP215 T00441083
94908KDBQ DBQ20060315170009703/15/06 17:00:31  5-MIN KDBQ 152300Z 16007KT 10SM SCT120 04/M08 A3013 890 42 -200 160/07 RMK AO2
94908KDBQ DBQ20060315170509703/15/06 17:05:31  5-MIN KDBQ 152305Z 15006KT 10SM SCT110 04/M07 A3013 880 44 -200 150/06 RMK AO2
94908KDBQ DBQ20060315171009703/15/06 17:10:31  5-MIN KDBQ 152310Z 16007KT 10SM FEW120 04/M07 A3013 880 44 -200 160/07 RMK AO2
94908KDBQ DBQ20060315171509703/15/06 17:15:31  5-MIN KDBQ 152315Z 15006KT 10SM FEW120 04/M08 A3013 890 42 -200 150/06 RMK AO2
94908KDBQ DBQ20060315172009703/15/06 17:20:31  5-MIN KDBQ 152320Z 15005KT 10SM SCT110 04/M07 A3013 890 44 -200 140/05 RMK AO2
94908KDBQ DBQ20060315172509703/15/06 17:25:31  5-MIN KDBQ 152325Z 15005KT 10SM SCT110 04/M07 A3013 890 44 -200 150/05 RMK AO2
94908KDBQ DBQ20060315173009703/15/06 17:30:31  5-MIN KDBQ 152330Z 15006KT 10SM SCT110 04/M07 A3013 880 46 -200 150/06 RMK AO2
94908KDBQ DBQ20060315173509703/15/06 17:35:31  5-MIN KDBQ 152335Z 15006KT 10SM BKN110 03/M06 A3013 880 50 -200 150/06 RMK AO2
94908KDBQ DBQ20060315174009703/15/06 17:40:31  5-MIN KDBQ 152340Z 15006KT 10SM BKN110 03/M06 A3013 880 50 -200 150/06 RMK AO2
94908KDBQ DBQ20060315174509703/15/06 17:45:31  5-MIN KDBQ 152345Z 15005KT 10SM BKN110 03/M06 A3014 880 50 -200 140/05 RMK AO2
94908KDBQ DBQ20060315175013203/15/06 17:50:31  5-MIN KDBQ 152350Z 14005KT 10SM BKN110 03/M06 A3013 880 50 -200 140/05 RMK AO2 SLP218 T00331061 10050 20011 58033
94908KDBQ DBQ20060315175513203/15/06 17:55:31  5-MIN KDBQ 152355Z 14006KT 10SM BKN110 03/M06 A3014 880 52 -300 140/06 RMK AO2 SLP219 T00281061 10050 20011 55010
94908KDBQ DBQ20060315180009703/15/06 18:00:31  5-MIN KDBQ 160000Z 14006KT 10SM BKN110 03/M06 A3013 880 52 -300 140/06 RMK AO2
94908KDBQ DBQ20060315180509703/15/06 18:05:31  5-MIN KDBQ 160005Z 14005KT 10SM BKN110 03/M06 A3013 890 52 -300 140/05 RMK AO2
94908KDBQ DBQ20060315181009703/15/06 18:10:31  5-MIN KDBQ 160010Z 14005KT 10SM BKN120 02/M06 A3013 890 56 -400 140/05 RMK AO2
94908KDBQ DBQ20060315181509703/15/06 18:15:31  5-MIN KDBQ 160015Z 13006KT 10SM OVC120 03/M06 A3013 890 52 -300 130/06 RMK AO2
94908KDBQ DBQ20060315182009703/15/06 18:20:31  5-MIN KDBQ 160020Z 14005KT 10SM OVC120 03/M06 A3013 890 52 -300 140/05 RMK AO2
94908KDBQ DBQ20060315182509703/15/06 18:25:31  5-MIN KDBQ 160025Z 13005KT 10SM OVC120 02/M06 A3012 890 56 -400 130/05 RMK AO2
94908KDBQ DBQ20060315183009703/15/06 18:30:31  5-MIN KDBQ 160030Z 12006KT 10SM OVC120 03/M06 A3013 890 52 -300 120/06 RMK AO2
94908KDBQ DBQ20060315183509703/15/06 18:35:31  5-MIN KDBQ 160035Z 12006KT 10SM OVC120 02/M06 A3012 890 54 -400 120/06 RMK AO2
94908KDBQ DBQ20060315184009703/15/06 18:40:31  5-MIN KDBQ 160040Z 12006KT 10SM OVC120 02/M06 A3012 890 54 -400 120/06 RMK AO2
94908KDBQ DBQ20060315184509703/15/06 18:45:31  5-MIN KDBQ 160045Z 12006KT 10SM OVC120 02/M06 A3012 890 56 -400 120/06 RMK AO2
94908KDBQ DBQ20060315185011403/15/06 18:50:31  5-MIN KDBQ 160050Z 11007KT 10SM OVC120 02/M06 A3012 900 56 -400 110/07 RMK AO2 SLP212 T00171061
94908KDBQ DBQ20060315185511403/15/06 18:55:31  5-MIN KDBQ 160055Z 10007KT 10SM OVC120 02/M06 A3012 900 56 -400 100/07 RMK AO2 SLP213 T00171061
94908KDBQ DBQ20060315190009703/15/06 19:00:31  5-MIN KDBQ 160100Z 11007KT 10SM OVC120 02/M06 A3012 900 56 -400 110/07 RMK AO2
94908KDBQ DBQ20060315190509703/15/06 19:05:31  5-MIN KDBQ 160105Z 11006KT 10SM OVC120 02/M06 A3012 890 54 -400 100/06 RMK AO2
94908KDBQ DBQ20060315191009703/15/06 19:10:31  5-MIN KDBQ 160110Z 11007KT 10SM OVC110 02/M06 A3012 890 54 -400 110/07 RMK AO2
94908KDBQ DBQ20060315191509703/15/06 19:15:31  5-MIN KDBQ 160115Z 11006KT 10SM OVC110 02/M06 A3012 890 54 -400 110/06 RMK AO2
94908KDBQ DBQ20060315192009703/15/06 19:20:31  5-MIN KDBQ 160120Z 10007KT 10SM OVC110 02/M06 A3012 900 54 -300 100/07 RMK AO2
94908KDBQ DBQ20060315192510403/15/06 19:25:31  5-MIN KDBQ 160125Z 10007KT 10SM BKN100 OVC120 02/M06 A3011 900 56 -300 100/07 RMK AO2
94908KDBQ DBQ20060315193009703/15/06 19:30:31  5-MIN KDBQ 160130Z 10007KT 10SM OVC100 02/M06 A3011 900 54 -300 100/07 RMK AO2
94908KDBQ DBQ20060315193510403/15/06 19:35:31  5-MIN KDBQ 160135Z 11006KT 10SM BKN090 OVC110 02/M06 A3012 900 56 -300 110/06 RMK AO2
94908KDBQ DBQ20060315194010403/15/06 19:40:31  5-MIN KDBQ 160140Z 11007KT 10SM BKN090 OVC100 02/M06 A3011 900 56 -300 100/07 RMK AO2
94908KDBQ DBQ20060315194509703/15/06 19:45:31  5-MIN KDBQ 160145Z 09008KT 10SM OVC090 02/M06 A3011 900 56 -300 090/08 RMK AO2
94908KDBQ DBQ20060315195011403/15/06 19:50:31  5-MIN KDBQ 160150Z 10007KT 10SM OVC090 02/M06 A3011 900 56 -300 100/07 RMK AO2 SLP210 T00221056
94908KDBQ DBQ20060315195511403/15/06 19:55:31  5-MIN KDBQ 160155Z 09007KT 10SM OVC085 02/M06 A3011 900 56 -300 090/07 RMK AO2 SLP210 T00221056
94908KDBQ DBQ20060315200010703/15/06 20:00:31  5-MIN KDBQ 160200Z AUTO 09006KT 10SM OVC090 02/M06 A3012 900 56 -300 090/06 RMK AO2 TSNO
94908KDBQ DBQ20060315200510703/15/06 20:05:31  5-MIN KDBQ 160205Z AUTO 08007KT 10SM OVC090 02/M06 A3012 900 56 -400 080/07 RMK AO2 TSNO
94908KDBQ DBQ20060315201010703/15/06 20:10:31  5-MIN KDBQ 160210Z AUTO 10006KT 10SM OVC090 02/M06 A3013 890 54 -400 090/06 RMK AO2 TSNO
94908KDBQ DBQ20060315201510703/15/06 20:15:31  5-MIN KDBQ 160215Z AUTO 08007KT 10SM OVC090 02/M06 A3012 890 56 -400 080/07 RMK AO2 TSNO
94908KDBQ DBQ20060315202010703/15/06 20:20:31  5-MIN KDBQ 160220Z AUTO 07008KT 10SM OVC090 02/M06 A3012 890 54 -400 070/08 RMK AO2 TSNO
94908KDBQ DBQ20060315202510703/15/06 20:25:31  5-MIN KDBQ 160225Z AUTO 07008KT 10SM OVC090 02/M06 A3012 900 54 -300 070/08 RMK AO2 TSNO
94908KDBQ DBQ20060315203010703/15/06 20:30:31  5-MIN KDBQ 160230Z AUTO 08004KT 10SM OVC090 02/M06 A3014 880 54 -400 080/04 RMK AO2 TSNO
94908KDBQ DBQ20060315203510703/15/06 20:35:31  5-MIN KDBQ 160235Z AUTO 06005KT 10SM OVC090 02/M06 A3014 870 54 -400 060/05 RMK AO2 TSNO
94908KDBQ DBQ20060315204010703/15/06 20:40:31  5-MIN KDBQ 160240Z AUTO 06007KT 10SM OVC090 02/M06 A3014 880 54 -400 060/07 RMK AO2 TSNO
94908KDBQ DBQ20060315204510703/15/06 20:45:31  5-MIN KDBQ 160245Z AUTO 07008KT 10SM OVC085 03/M07 A3014 870 50 -300 060/08 RMK AO2 TSNO
94908KDBQ DBQ20060315205013003/15/06 20:50:31  5-MIN KDBQ 160250Z AUTO 06006KT 10SM OVC075 02/M07 A3015 870 52 -400 060/06 RMK AO2 SLP222 T00221067 55010 TSNO
94908KDBQ DBQ20060315205513003/15/06 20:55:31  5-MIN KDBQ 160255Z AUTO 05005KT 10SM OVC075 02/M07 A3016 860 52 -400 040/05 RMK AO2 SLP225 T00221067 53007 TSNO
94908KDBQ DBQ20060315210010703/15/06 21:00:31  5-MIN KDBQ 160300Z AUTO 07006KT 10SM OVC075 02/M07 A3016 860 52 -400 070/06 RMK AO2 TSNO
94908KDBQ DBQ20060315210510703/15/06 21:05:31  5-MIN KDBQ 160305Z AUTO 08007KT 10SM OVC070 03/M07 A3016 860 50 -300 080/07 RMK AO2 TSNO
94908KDBQ DBQ20060315211010703/15/06 21:10:31  5-MIN KDBQ 160310Z AUTO 07007KT 10SM OVC070 02/M07 A3016 860 52 -400 070/07 RMK AO2 TSNO
94908KDBQ DBQ20060315211510703/15/06 21:15:31  5-MIN KDBQ 160315Z AUTO 07008KT 10SM OVC060 02/M07 A3016 860 52 -400 070/08 RMK AO2 TSNO
94908KDBQ DBQ20060315212010703/15/06 21:20:31  5-MIN KDBQ 160320Z AUTO 08004KT 10SM OVC060 03/M07 A3016 860 50 -300 070/04 RMK AO2 TSNO
94908KDBQ DBQ20060315212510703/15/06 21:25:31  5-MIN KDBQ 160325Z AUTO VRB03KT 10SM OVC060 03/M07 A3017 850 48 -300 VRB/03 RMK AO2 TSNO
94908KDBQ DBQ20060315213010703/15/06 21:30:31  5-MIN KDBQ 160330Z AUTO 07010KT 10SM OVC060 03/M07 A3015 860 48 -300 070/10 RMK AO2 TSNO
94908KDBQ DBQ20060315213510703/15/06 21:35:31  5-MIN KDBQ 160335Z AUTO 07011KT 10SM OVC055 03/M07 A3014 870 50 -300 070/11 RMK AO2 TSNO
94908KDBQ DBQ20060315214010703/15/06 21:40:31  5-MIN KDBQ 160340Z AUTO 08008KT 10SM OVC050 03/M07 A3015 870 50 -300 080/08 RMK AO2 TSNO
94908KDBQ DBQ20060315214510703/15/06 21:45:31  5-MIN KDBQ 160345Z AUTO 10005KT 10SM OVC050 03/M07 A3015 870 50 -300 100/05 RMK AO2 TSNO
94908KDBQ DBQ20060315215012403/15/06 21:50:31  5-MIN KDBQ 160350Z AUTO 10007KT 10SM OVC050 03/M07 A3014 870 50 -300 090/07 RMK AO2 SLP220 T00281067 TSNO
94908KDBQ DBQ20060315215512403/15/06 21:55:31  5-MIN KDBQ 160355Z AUTO 10009KT 10SM OVC050 02/M07 A3014 880 52 -400 100/09 RMK AO2 SLP218 T00221067 TSNO
94908KDBQ DBQ20060315220010703/15/06 22:00:31  5-MIN KDBQ 160400Z AUTO 09009KT 10SM OVC055 02/M07 A3014 880 52 -400 090/09 RMK AO2 TSNO
94908KDBQ DBQ20060315220512103/15/06 22:05:31  5-MIN KDBQ 160405Z AUTO 10009KT 10SM BKN050 BKN075 OVC090 02/M06 A3013 880 54 -400 090/09 RMK AO2 TSNO
94908KDBQ DBQ20060315221012103/15/06 22:10:31  5-MIN KDBQ 160410Z AUTO 10011KT 10SM BKN055 BKN075 OVC090 02/M06 A3013 890 54 -400 100/11 RMK AO2 TSNO
94908KDBQ DBQ20060315221512103/15/06 22:15:31  5-MIN KDBQ 160415Z AUTO 09009KT 10SM BKN060 BKN075 OVC090 02/M07 A3013 890 52 -400 090/09 RMK AO2 TSNO
94908KDBQ DBQ20060315222012103/15/06 22:20:31  5-MIN KDBQ 160420Z AUTO 08007KT 10SM BKN060 BKN075 OVC090 02/M07 A3013 890 52 -400 080/07 RMK AO2 TSNO
94908KDBQ DBQ20060315222512103/15/06 22:25:31  5-MIN KDBQ 160425Z AUTO 07008KT 10SM BKN065 BKN075 OVC090 02/M07 A3012 890 52 -400 060/08 RMK AO2 TSNO
94908KDBQ DBQ20060315223011403/15/06 22:30:31  5-MIN KDBQ 160430Z AUTO 05006KT 10SM BKN070 OVC090 02/M06 A3012 890 54 -400 050/06 RMK AO2 TSNO
94908KDBQ DBQ20060315223512103/15/06 22:35:31  5-MIN KDBQ 160435Z AUTO 07006KT 10SM SCT060 BKN080 OVC095 02/M07 A3013 890 52 -400 070/06 RMK AO2 TSNO
94908KDBQ DBQ20060315224012103/15/06 22:40:31  5-MIN KDBQ 160440Z AUTO 07006KT 10SM SCT060 BKN080 OVC095 02/M07 A3013 890 52 -400 070/06 RMK AO2 TSNO
94908KDBQ DBQ20060315224512103/15/06 22:45:31  5-MIN KDBQ 160445Z AUTO 09004KT 10SM FEW065 BKN080 OVC095 02/M07 A3014 880 52 -400 090/04 RMK AO2 TSNO
94908KDBQ DBQ20060315225013103/15/06 22:50:31  5-MIN KDBQ 160450Z AUTO 09004KT 10SM FEW060 OVC080 02/M07 A3013 880 52 -400 090/04 RMK AO2 SLP215 T00221067 TSNO
94908KDBQ DBQ20060315225513803/15/06 22:55:31  5-MIN KDBQ 160455Z AUTO 11003KT 10SM FEW060 BKN075 OVC090 02/M06 A3013 880 54 -400 110/03 RMK AO2 SLP215 T00221061 TSNO
94908KDBQ DBQ20060315230012103/15/06 23:00:31  5-MIN KDBQ 160500Z AUTO 10006KT 10SM FEW060 BKN075 OVC090 02/M06 A3013 890 54 -400 100/06 RMK AO2 TSNO
94908KDBQ DBQ20060315230511403/15/06 23:05:31  5-MIN KDBQ 160505Z AUTO 10007KT 10SM BKN075 OVC090 02/M06 A3012 890 54 -400 090/07 RMK AO2 TSNO
94908KDBQ DBQ20060315231011403/15/06 23:10:31  5-MIN KDBQ 160510Z AUTO 10008KT 10SM BKN070 OVC090 02/M06 A3012 900 54 -300 100/08 RMK AO2 TSNO
94908KDBQ DBQ20060315231510703/15/06 23:15:31  5-MIN KDBQ 160515Z AUTO 11006KT 10SM OVC070 02/M06 A3012 890 54 -400 110/06 RMK AO2 TSNO
94908KDBQ DBQ20060315232011403/15/06 23:20:31  5-MIN KDBQ 160520Z AUTO 11007KT 10SM BKN060 OVC075 02/M06 A3012 890 54 -400 100/07 RMK AO2 TSNO
94908KDBQ DBQ20060315232511403/15/06 23:25:31  5-MIN KDBQ 160525Z AUTO 11007KT 10SM BKN055 OVC065 02/M06 A3012 890 54 -400 110/07 RMK AO2 TSNO
94908KDBQ DBQ20060315233010703/15/06 23:30:31  5-MIN KDBQ 160530Z AUTO 11008KT 10SM OVC060 02/M06 A3012 890 54 -400 110/08 RMK AO2 TSNO
94908KDBQ DBQ20060315233511403/15/06 23:35:31  5-MIN KDBQ 160535Z AUTO 11008KT 10SM FEW038 OVC060 02/M06 A3012 890 54 -400 110/08 RMK AO2 TSNO
94908KDBQ DBQ20060315234011403/15/06 23:40:31  5-MIN KDBQ 160540Z AUTO 12009KT 10SM SCT036 OVC055 02/M06 A3012 890 59 -400 120/09 RMK AO2 TSNO
94908KDBQ DBQ20060315234511403/15/06 23:45:31  5-MIN KDBQ 160545Z AUTO 11010KT 10SM BKN034 OVC055 02/M06 A3012 890 59 -400 110/10 RMK AO2 TSNO
94908KDBQ DBQ20060315235015903/15/06 23:50:31  5-MIN KDBQ 160550Z AUTO 11010KT 10SM BKN032 OVC050 02/M06 A3012 890 54 -400 110/10 RMK AO2 SLP211 T00221061 10028 20017 400501078 53007 TSNO
94908KDBQ DBQ20060315235515903/15/06 23:55:31  5-MIN KDBQ 160555Z AUTO 11010KT 10SM BKN030 OVC050 02/M06 A3012 890 54 -400 110/10 RMK AO2 SLP211 T00221061 10028 20017 400501078 56012 TSNO
94908KDBQ DBQ20060316000010703/16/06 00:00:38  5-MIN KDBQ 160600Z AUTO 12011KT 10SM OVC028 02/M06 A3012 890 56 -400 120/11 RMK AO2 TSNO
94908KDBQ DBQ20060316000510703/16/06 00:05:31  5-MIN KDBQ 160605Z AUTO 11011KT 10SM OVC026 02/M06 A3012 900 56 -400 110/11 RMK AO2 TSNO
94908KDBQ DBQ20060316001011403/16/06 00:10:31  5-MIN KDBQ 160610Z AUTO 12009KT 10SM BKN026 OVC047 02/M06 A3012 900 56 -300 120/09 RMK AO2 TSNO
94908KDBQ DBQ20060316001511403/16/06 00:15:31  5-MIN KDBQ 160615Z AUTO 12010KT 10SM BKN024 OVC047 02/M06 A3012 900 56 -400 120/10 RMK AO2 TSNO
94908KDBQ DBQ20060316002011403/16/06 00:20:31  5-MIN KDBQ 160620Z AUTO 12011KT 10SM SCT024 OVC045 02/M06 A3012 900 56 -300 120/11 RMK AO2 TSNO
94908KDBQ DBQ20060316002511403/16/06 00:25:31  5-MIN KDBQ 160625Z AUTO 12012KT 10SM SCT024 OVC045 02/M06 A3011 900 56 -300 120/12 RMK AO2 TSNO
94908KDBQ DBQ20060316003011303/16/06 00:30:31  5-MIN KDBQ 160630Z AUTO 12011KT 9SM FEW026 OVC045 02/M06 A3011 900 56 -300 120/11 RMK AO2 TSNO
94908KDBQ DBQ20060316003512903/16/06 00:35:31  5-MIN KDBQ 160635Z AUTO 12013KT 7SM -SN FEW026 OVC042 02/M05 A3011 900 61 -400 120/13 RMK AO2 SNB32 P0000 TSNO
94908KDBQ DBQ20060316004013603/16/06 00:40:31  5-MIN KDBQ 160640Z AUTO 12011KT 6SM -SN FEW028 BKN042 OVC048 02/M04 A3011 900 66 -400 110/11 RMK AO2 SNB32 P0000 TSNO
94908KDBQ DBQ20060316004512903/16/06 00:45:31  5-MIN KDBQ 160645Z AUTO 12009KT 8SM -SN FEW028 OVC040 02/M04 A3011 910 66 -400 110/09 RMK AO2 SNB32 P0000 TSNO
94908KDBQ DBQ20060316005014503/16/06 00:50:31  5-MIN KDBQ 160650Z AUTO 11010KT 9SM FEW028 OVC040 02/M03 A3011 910 69 -400 110/10 RMK AO2 SNB32E48 SLP205 P0000 T00171033 TSNO
94908KDBQ DBQ20060316005513903/16/06 00:55:31  5-MIN KDBQ 160655Z AUTO 11010KT 10SM OVC038 02/M03 A3010 910 69 -400 110/10 RMK AO2 SNB32E48 SLP204 P0000 T00171033 TSNO
94908KDBQ DBQ20060316010012003/16/06 01:00:31  5-MIN KDBQ 160700Z AUTO 11009KT 9SM FEW020 SCT025 OVC038 02/M04 A3010 910 66 -400 110/09 RMK AO2 TSNO
94908KDBQ DBQ20060316010513603/16/06 01:05:31  5-MIN KDBQ 160705Z AUTO 12013KT 6SM -SN SCT018 BKN025 OVC038 02/M04 A3010 910 66 -400 120/13 RMK AO2 SNB02 P0000 TSNO
94908KDBQ DBQ20060316011013603/16/06 01:10:31  5-MIN KDBQ 160710Z AUTO 12012KT 3SM -SN BKN018 BKN025 OVC036 01/M03 A3010 910 72 -500 120/12 RMK AO2 SNB02 P0000 TSNO
94908KDBQ DBQ20060316011514003/16/06 01:15:31  5-MIN KDBQ 160715Z AUTO 12011KT 2 1/2SM -SN SCT018 SCT025 OVC034 01/M03 A3010 910 72 -500 120/11 RMK AO2 SNB02 P0000 TSNO
94908KDBQ DBQ20060316012014003/16/06 01:20:31  5-MIN KDBQ 160720Z AUTO 12014KT 2 1/2SM -SN SCT018 SCT025 OVC032 01/M03 A3010 920 78 -500 120/14 RMK AO2 SNB02 P0000 TSNO
94908KDBQ DBQ20060316012514603/16/06 01:25:31  5-MIN KDBQ 160725Z AUTO 12015G18KT 2 1/2SM -SN SCT018 SCT025 OVC032 01/M03 A3010 920 78 -500 120/15G18 RMK AO2 SNB02 P0000 TSNO
94908KDBQ DBQ20060316013013303/16/06 01:30:31  5-MIN KDBQ 160730Z AUTO 12011KT 2 1/2SM -SN SCT016 OVC030 01/M03 A3009 920 78 -500 120/11 RMK AO2 SNB02 P0000 TSNO
94908KDBQ DBQ20060316013513603/16/06 01:35:31  5-MIN KDBQ 160735Z AUTO 12012KT 2 1/2SM -SN BR SCT016 OVC032 00/M02 A3009 920 85 -600 120/12 RMK AO2 SNB02 P0000 TSNO
94908KDBQ DBQ20060316014013603/16/06 01:40:31  5-MIN KDBQ 160740Z AUTO 11011KT 2 1/2SM -SN BR FEW016 OVC032 00/M02 A3009 920 85 -600 110/11 RMK AO2 SNB02 P0000 TSNO
94908KDBQ DBQ20060316014513603/16/06 01:45:31  5-MIN KDBQ 160745Z AUTO 11011KT 2 1/2SM -SN BR FEW016 OVC030 00/M02 A3009 920 85 -600 110/11 RMK AO2 SNB02 P0000 TSNO
94908KDBQ DBQ20060316015013203/16/06 01:50:31  5-MIN KDBQ 160750Z AUTO 12013KT 3SM -SN BR FEW016 OVC030 00/M02 A3009 920 85 -600 110/13 RMK AO2 SNB02 P0000 TSNO
94908KDBQ DBQ20060316015514903/16/06 01:55:31  5-MIN KDBQ 160755Z AUTO 11011KT 3SM -SN BR FEW016 OVC030 00/M02 A3009 930 85 -600 110/11 RMK AO2 SNB02 SLP199 P0000 T00001022 TSNO
94908KDBQ DBQ20060316020012303/16/06 02:00:31  5-MIN KDBQ 160800Z AUTO 11011KT 2 1/2SM -SN BR OVC030 00/M02 A3008 930 85 -600 100/11 RMK AO2 P0000 TSNO
94908KDBQ DBQ20060316020512303/16/06 02:05:31  5-MIN KDBQ 160805Z AUTO 11009KT 2 1/2SM -SN BR OVC030 00/M02 A3008 930 85 -600 110/09 RMK AO2 P0000 TSNO
94908KDBQ DBQ20060316021011903/16/06 02:10:31  5-MIN KDBQ 160810Z AUTO 11009KT 3SM -SN BR OVC030 00/M02 A3008 940 85 -600 100/09 RMK AO2 P0000 TSNO
94908KDBQ DBQ20060316021512603/16/06 02:15:31  5-MIN KDBQ 160815Z AUTO 10009KT 3SM -SN BR FEW019 OVC030 00/M02 A3007 940 85 -600 100/09 RMK AO2 P0000 TSNO
94908KDBQ DBQ20060316022012303/16/06 02:20:31  5-MIN KDBQ 160820Z AUTO 11012KT 3SM -SN FEW019 OVC030 01/M02 A3007 940 82 -500 110/12 RMK AO2 P0000 TSNO
94908KDBQ DBQ20060316022513303/16/06 02:25:31  5-MIN KDBQ 160825Z AUTO 11011KT 3SM -SN BR FEW014 BKN030 OVC050 00/M02 A3006 950 85 -600 110/11 RMK AO2 P0000 TSNO
94908KDBQ DBQ20060316023013303/16/06 02:30:31  5-MIN KDBQ 160830Z AUTO 10010KT 4SM -SN BR FEW016 BKN030 OVC055 00/M02 A3006 950 85 -600 100/10 RMK AO2 P0000 TSNO
94908KDBQ DBQ20060316023514003/16/06 02:35:31  5-MIN KDBQ 160835Z AUTO 09011KT 4SM -SN BR FEW016 BKN030 BKN060 00/M02 A3005 960 85 -600 090/11 RMK AO2 PRESFR P0000 TSNO
94908KDBQ DBQ20060316024014003/16/06 02:40:31  5-MIN KDBQ 160840Z AUTO 09012KT 5SM -SN BR FEW016 BKN032 BKN055 00/M02 A3004 970 85 -500 090/12 RMK AO2 PRESFR P0000 TSNO
94908KDBQ DBQ20060316024513003/16/06 02:45:31  5-MIN KDBQ 160845Z AUTO 10013KT 7SM -SN FEW016 BKN032 OVC090 00/M02 A3004 970 85 -500 100/13 RMK AO2 P0000 TSNO
94908KDBQ DBQ20060316025016103/16/06 02:50:31  5-MIN KDBQ 160850Z AUTO 10014KT 8SM FEW014 SCT033 OVC090 00/M02 A3003 970 85 -500 100/14 RMK AO2 SNE49 SLP180 P0000 60000 T00001022 56012 TSNO
94908KDBQ DBQ20060316025515403/16/06 02:55:31  5-MIN KDBQ 160855Z AUTO 10013KT 9SM FEW031 OVC090 00/M02 A3003 980 85 -500 100/13 RMK AO2 SNE49 SLP180 P0000 60000 T00001022 58023 TSNO
94908KDBQ DBQ20060316030012003/16/06 03:00:31  5-MIN KDBQ 160900Z AUTO 10011G19KT 10SM FEW033 OVC090 01/M02 A3003 980 82 -500 100/11G19 RMK AO2 TSNO
94908KDBQ DBQ20060316030512003/16/06 03:05:31  5-MIN KDBQ 160905Z AUTO 10015G19KT 10SM FEW033 OVC090 01/M03 A3002 990 78 -400 100/15G19 RMK AO2 TSNO
94908KDBQ DBQ20060316031011403/16/06 03:10:31  5-MIN KDBQ 160910Z AUTO 11014KT 10SM BKN080 OVC095 01/M03 A3002 990 78 -400 110/14 RMK AO2 TSNO
94908KDBQ DBQ20060316031512003/16/06 03:15:31  5-MIN KDBQ 160915Z AUTO 11014G20KT 10SM BKN070 OVC090 01/M03 A3001 990 78 -400 110/14G20 RMK AO2 TSNO
94908KDBQ DBQ20060316032012803/16/06 03:20:31  5-MIN KDBQ 160920Z AUTO 11016G20KT 10SM BKN070 OVC090 01/M03 A3001 1000 78 -400 110/16G20 RMK AO2 PRESFR TSNO
94908KDBQ DBQ20060316032512203/16/06 03:25:31  5-MIN KDBQ 160925Z AUTO 11017KT 10SM BKN075 OVC090 01/M03 A3000 1010 78 -400 110/17 RMK AO2 PRESFR TSNO
94908KDBQ DBQ20060316033011503/16/06 03:30:31  5-MIN KDBQ 160930Z AUTO 11016KT 10SM BKN075 OVC100 01/M03 A3000 1010 78 -400 110/16 RMK AO2 TSNO
94908KDBQ DBQ20060316033512103/16/06 03:35:31  5-MIN KDBQ 160935Z AUTO 11013G20KT 10SM BKN075 BKN100 01/M03 A3000 1000 78 -400 110/13G20 RMK AO2 TSNO
94908KDBQ DBQ20060316034012103/16/06 03:40:31  5-MIN KDBQ 160940Z AUTO 10019G24KT 10SM BKN075 BKN095 01/M03 A2998 1020 78 -400 100/19G24 RMK AO2 TSNO
94908KDBQ DBQ20060316034512103/16/06 03:45:31  5-MIN KDBQ 160945Z AUTO 10015G24KT 10SM BKN080 OVC100 01/M03 A2998 1030 78 -400 100/15G24 RMK AO2 TSNO
94908KDBQ DBQ20060316035013803/16/06 03:50:31  5-MIN KDBQ 160950Z AUTO 10011G23KT 10SM BKN080 OVC100 01/M03 A2999 1020 78 -400 100/11G23 RMK AO2 SLP164 T00061028 TSNO
94908KDBQ DBQ20060316035513803/16/06 03:55:31  5-MIN KDBQ 160955Z AUTO 10013G18KT 10SM BKN075 OVC100 01/M03 A2998 1020 75 -300 100/13G18 RMK AO2 SLP162 T00111028 TSNO
94908KDBQ DBQ20060316040011403/16/06 04:00:31  5-MIN KDBQ 161000Z AUTO 10013G19KT 10SM OVC080 01/M03 A2999 1020 75 -300 100/13G19 RMK AO2 TSNO
94908KDBQ DBQ20060316040511403/16/06 04:05:31  5-MIN KDBQ 161005Z AUTO 10015G21KT 10SM OVC080 01/M03 A2998 1030 78 -400 100/15G21 RMK AO2 TSNO
94908KDBQ DBQ20060316041012103/16/06 04:10:31  5-MIN KDBQ 161010Z AUTO 10014G21KT 10SM BKN080 OVC090 01/M03 A2998 1030 78 -400 100/14G21 RMK AO2 TSNO
94908KDBQ DBQ20060316041510803/16/06 04:15:31  5-MIN KDBQ 161015Z AUTO 11013KT 10SM OVC080 01/M03 A2999 1020 75 -300 110/13 RMK AO2 TSNO
94908KDBQ DBQ20060316042011403/16/06 04:20:31  5-MIN KDBQ 161020Z AUTO 11008G18KT 10SM OVC080 01/M03 A2999 1010 78 -400 110/08G18 RMK AO2 TSNO
94908KDBQ DBQ20060316042510803/16/06 04:25:31  5-MIN KDBQ 161025Z AUTO 11012KT 10SM OVC085 01/M03 A2999 1020 78 -400 110/12 RMK AO2 TSNO
94908KDBQ DBQ20060316043010803/16/06 04:30:31  5-MIN KDBQ 161030Z AUTO 11015KT 10SM OVC090 01/M03 A2998 1020 78 -400 110/15 RMK AO2 TSNO
94908KDBQ DBQ20060316043510803/16/06 04:35:31  5-MIN KDBQ 161035Z AUTO 11014KT 10SM OVC090 01/M03 A2998 1020 75 -300 110/14 RMK AO2 TSNO
94908KDBQ DBQ20060316044010803/16/06 04:40:31  5-MIN KDBQ 161040Z AUTO 11012KT 10SM OVC090 01/M02 A2998 1020 78 -300 110/12 RMK AO2 TSNO
94908KDBQ DBQ20060316044510803/16/06 04:45:31  5-MIN KDBQ 161045Z AUTO 11013KT 10SM OVC090 01/M02 A2998 1030 78 -300 100/13 RMK AO2 TSNO
94908KDBQ DBQ20060316045013203/16/06 04:50:31  5-MIN KDBQ 161050Z AUTO 11011KT 10SM BKN080 OVC095 01/M02 A2998 1030 78 -300 110/11 RMK AO2 SLP161 T00111022 TSNO
94908KDBQ DBQ20060316045513903/16/06 04:55:31  5-MIN KDBQ 161055Z AUTO 11010KT 10SM FEW024 BKN070 OVC090 01/M02 A2999 1020 78 -300 110/10 RMK AO2 SLP164 T00111022 TSNO
94908KDBQ DBQ20060316050012203/16/06 05:00:31  5-MIN KDBQ 161100Z AUTO 12012KT 10SM SCT024 BKN065 OVC090 01/M02 A2999 1020 78 -300 120/12 RMK AO2 TSNO
94908KDBQ DBQ20060316050512203/16/06 05:05:31  5-MIN KDBQ 161105Z AUTO 11010KT 10SM SCT024 BKN060 OVC080 01/M02 A2998 1020 78 -300 110/10 RMK AO2 TSNO
94908KDBQ DBQ20060316051013603/16/06 05:10:31  5-MIN KDBQ 161110Z AUTO 10011KT 9SM UP SCT024 BKN060 OVC080 01/M02 A2998 1030 78 -300 090/11 RMK AO2 UPB08 P0000 TSNO
94908KDBQ DBQ20060316051513603/16/06 05:15:31  5-MIN KDBQ 161115Z AUTO 10010KT 9SM UP SCT024 BKN050 OVC060 01/M02 A2999 1020 78 -300 100/10 RMK AO2 UPB08 P0000 TSNO
94908KDBQ DBQ20060316052013603/16/06 05:20:31  5-MIN KDBQ 161120Z AUTO 09012KT 9SM SCT024 BKN050 OVC060 01/M02 A2997 1030 82 -300 080/12 RMK AO2 UPB08E17 P0000 TSNO
94908KDBQ DBQ20060316052513603/16/06 05:25:31  5-MIN KDBQ 161125Z AUTO 10011KT 9SM FEW024 SCT050 OVC060 01/M02 A2998 1020 82 -300 100/11 RMK AO2 UPB08E17 P0000 TSNO
94908KDBQ DBQ20060316053013603/16/06 05:30:31  5-MIN KDBQ 161130Z AUTO 10008KT 9SM FEW014 SCT024 OVC060 01/M02 A2998 1020 82 -300 100/08 RMK AO2 UPB08E17 P0000 TSNO
94908KDBQ DBQ20060316053513603/16/06 05:35:31  5-MIN KDBQ 161135Z AUTO 09011KT 9SM FEW014 BKN060 OVC085 01/M02 A2997 1030 82 -300 090/11 RMK AO2 UPB08E17 P0000 TSNO
94908KDBQ DBQ20060316054013603/16/06 05:40:31  5-MIN KDBQ 161140Z AUTO 09010KT 9SM FEW014 BKN070 OVC090 01/M02 A2997 1040 82 -300 090/10 RMK AO2 UPB08E17 P0000 TSNO
94908KDBQ DBQ20060316054513603/16/06 05:45:31  5-MIN KDBQ 161145Z AUTO 08013KT 9SM FEW014 BKN075 OVC090 01/M02 A2996 1040 82 -300 080/13 RMK AO2 UPB08E17 P0000 TSNO
94908KDBQ DBQ20060316055017703/16/06 05:50:31  5-MIN KDBQ 161150Z AUTO 08010KT 9SM FEW014 BKN075 OVC090 01/M02 A2996 1040 82 -300 080/10 RMK AO2 UPB08E17 SLP155 P0000 60000 T00111017 10022 20000 58023 TSNO
94908KDBQ DBQ20060316055517703/16/06 05:55:31  5-MIN KDBQ 161155Z AUTO 08009KT 9SM FEW012 SCT065 OVC090 01/M02 A2996 1040 82 -300 080/09 RMK AO2 UPB08E17 SLP156 P0000 60000 T00111017 10022 20000 56023 TSNO
94908KDBQ DBQ20060316060011103/16/06 06:00:31  5-MIN KDBQ 161200Z 08009KT 8SM FEW012 BKN065 OVC090 01/M02 A2997 1040 82 -300 080/09 RMK AO2
94908KDBQ DBQ20060316060511103/16/06 06:05:31  5-MIN KDBQ 161205Z 10009KT 8SM SCT012 BKN065 OVC090 01/M01 A2997 1030 85 -300 090/09 RMK AO2
94908KDBQ DBQ20060316061011103/16/06 06:10:31  5-MIN KDBQ 161210Z 10009KT 8SM BKN012 BKN065 OVC090 01/M01 A2997 1030 85 -300 100/09 RMK AO2
94908KDBQ DBQ20060316061511903/16/06 06:15:31  5-MIN KDBQ 161215Z 09011KT 7SM UP BKN012 OVC065 01/M01 A2996 1040 85 -300 080/11 RMK AO2 UPB12 P0000
94908KDBQ DBQ20060316062012603/16/06 06:20:31  5-MIN KDBQ 161220Z 09009KT 7SM UP BKN012 BKN060 OVC090 01/M01 A2996 1040 85 -300 090/09 RMK AO2 UPB12 P0000
94908KDBQ DBQ20060316062511903/16/06 06:25:31  5-MIN KDBQ 161225Z 09014KT 7SM UP BKN012 OVC042 01/M01 A2996 1050 85 -300 080/14 RMK AO2 UPB12 P0000
94908KDBQ DBQ20060316063012503/16/06 06:30:31  5-MIN KDBQ 161230Z 09011G21KT 7SM UP BKN012 OVC040 01/M01 A2996 1040 85 -300 090/11G21 RMK AO2 UPB12 P0000
94908KDBQ DBQ20060316063513203/16/06 06:35:31  5-MIN KDBQ 161235Z 10011G21KT 7SM UP BKN012 BKN039 OVC049 01/M01 A2997 1040 85 -300 090/11G21 RMK AO2 UPB12 P0000
94908KDBQ DBQ20060316064012203/16/06 06:40:31  5-MIN KDBQ 161240Z 09012KT 6SM UP BR BKN010 OVC039 01/M01 A2996 1040 85 -300 090/12 RMK AO2 UPB12 P0000
94908KDBQ DBQ20060316064512203/16/06 06:45:31  5-MIN KDBQ 161245Z 09011KT 5SM UP BR BKN010 OVC042 01/M01 A2996 1040 85 -300 090/11 RMK AO2 UPB12 P0000
94908KDBQ DBQ20060316065013903/16/06 06:50:31  5-MIN KDBQ 161250Z 10010KT 5SM BR BKN010 OVC042 01/M01 A2996 1040 89 -400 100/10 RMK AO2 UPB12E49 SLP155 P0000 T00061011
94908KDBQ DBQ20060316065513203/16/06 06:55:31  5-MIN KDBQ 161255Z 10008KT 5SM BR OVC010 01/M01 A2996 1040 89 -400 100/08 RMK AO2 UPB12E49 SLP157 P0000 T00061011
94908KDBQ DBQ20060316070013003/16/06 07:00:31  5-MIN KDBQ 161300Z 09011KT 4SM -RA BR OVC010 01/M01 A2996 1040 89 -400 090/11 RMK AO2 UPB1256E1259RAB1259 P0000
94908KDBQ DBQ20060316070513003/16/06 07:05:31  5-MIN KDBQ 161305Z 08010KT 4SM -RA BR OVC010 01/M01 A2996 1050 89 -400 080/10 RMK AO2 UPB1256E1259RAB1259 P0001
94908KDBQ DBQ20060316071013003/16/06 07:10:31  5-MIN KDBQ 161310Z 09011KT 4SM -RA BR OVC010 01/M01 A2996 1040 89 -400 080/11 RMK AO2 UPB1256E1259RAB1259 P0001
94908KDBQ DBQ20060316071514203/16/06 07:15:31  5-MIN KDBQ 161315Z 08013KT 4SM -RA BR OVC010 01/M01 A2996 1040 92 -400 080/13 RMK AO2 UPB1256E1259RAB1259 CIG 008V013 P0002
94908KDBQ DBQ20060316072014403/16/06 07:20:31  5-MIN KDBQ 161320Z 08012KT 4SM -RA BR BKN010 BKN027 OVC032 01/M01 A2996 1040 92 -400 080/12 RMK AO2 UPB1256E1259RAB1259 P0003
94908KDBQ DBQ20060316072514303/16/06 07:25:31  5-MIN KDBQ 161325Z 08011G18KT 4SM -RA BR BKN010 OVC030 01/M01 A2996 1040 92 -400 080/11G18 RMK AO2 UPB1256E1259RAB1259 P0003
94908KDBQ DBQ20060316073013703/16/06 07:30:31  5-MIN KDBQ 161330Z 07016KT 4SM -RA BR BKN010 OVC030 01/M01 A2995 1050 92 -400 070/16 RMK AO2 UPB1256E1259RAB1259 P0003
94908KDBQ DBQ20060316073513703/16/06 07:35:31  5-MIN KDBQ 161335Z 07015KT 4SM -RA BR SCT010 OVC032 01/M01 A2995 1050 92 -400 070/15 RMK AO2 UPB1256E1259RAB1259 P0003
94908KDBQ DBQ20060316074014203/16/06 07:40:31  5-MIN KDBQ 161340Z 07014KT 4SM UP BR FEW010 OVC034 01/M01 A2995 1050 92 -400 070/14 RMK AO2 UPB1256E1259B40RAB1259E40 P0003
94908KDBQ DBQ20060316074514203/16/06 07:45:31  5-MIN KDBQ 161345Z 06013KT 4SM UP BR FEW010 OVC034 01/M01 A2994 1060 92 -400 060/13 RMK AO2 UPB1256E1259B40RAB1259E40 P0003
94908KDBQ DBQ20060316075015903/16/06 07:50:31  5-MIN KDBQ 161350Z 07011KT 4SM UP BR FEW010 OVC034 01/M01 A2995 1050 92 -400 070/11 RMK AO2 UPB1256E1259B40RAB1259E40 SLP153 P0003 T00061006
94908KDBQ DBQ20060316075515203/16/06 07:55:31  5-MIN KDBQ 161355Z 08012KT 4SM UP BR OVC036 01/M01 A2996 1050 92 -400 070/12 RMK AO2 UPB1256E1259B40RAB1259E40 SLP155 P0004 T00061006
94908KDBQ DBQ20060316080013203/16/06 08:00:31  5-MIN KDBQ 161400Z 08009KT 4SM -RA BR FEW011 OVC036 01/M01 A2996 1040 92 -400 080/09 RMK AO2 UPE1358RAB1358 P0000
94908KDBQ DBQ20060316080513203/16/06 08:05:31  5-MIN KDBQ 161405Z 08012KT 4SM -RA BR SCT011 OVC036 01/M01 A2996 1040 92 -400 080/12 RMK AO2 UPE1358RAB1358 P0000
94908KDBQ DBQ20060316081013803/16/06 08:10:31  5-MIN KDBQ 161410Z 07012G17KT 4SM -RA BR BKN011 OVC036 01/M01 A2996 1040 92 -400 070/12G17 RMK AO2 UPE1358RAB1358 P0000
94908KDBQ DBQ20060316081513203/16/06 08:15:31  5-MIN KDBQ 161415Z 07013KT 4SM -RA BR BKN011 OVC036 01/M01 A2996 1050 92 -400 070/13 RMK AO2 UPE1358RAB1358 P0000
94908KDBQ DBQ20060316082013803/16/06 08:20:31  5-MIN KDBQ 161420Z 07013G18KT 4SM -RA BR BKN013 OVC036 01/M01 A2995 1050 92 -400 070/13G18 RMK AO2 UPE1358RAB1358 P0000
94908KDBQ DBQ20060316082514503/16/06 08:25:31  5-MIN KDBQ 161425Z 07014G20KT 4SM -RA BR FEW009 BKN013 OVC038 01/M01 A2995 1050 92 -400 070/14G20 RMK AO2 UPE1358RAB1358 P0000
94908KDBQ DBQ20060316083014503/16/06 08:30:31  5-MIN KDBQ 161430Z 07012G20KT 4SM -RA BR FEW009 BKN013 OVC038 01/M01 A2996 1050 92 -400 070/12G20 RMK AO2 UPE1358RAB1358 P0000
94908KDBQ DBQ20060316083513903/16/06 08:35:31  5-MIN KDBQ 161435Z 07009KT 4SM -RA BR FEW009 BKN013 OVC038 01/M01 A2996 1040 92 -400 070/09 RMK AO2 UPE1358RAB1358 P0001
94908KDBQ DBQ20060316084013903/16/06 08:40:31  5-MIN KDBQ 161440Z 06015KT 3SM -RA BR FEW010 BKN013 OVC038 01/M01 A2995 1050 92 -400 060/15 RMK AO2 UPE1358RAB1358 P0001
94908KDBQ DBQ20060316084513903/16/06 08:45:31  5-MIN KDBQ 161445Z 06014KT 4SM -RA BR FEW010 SCT014 OVC034 01/M01 A2994 1060 89 -400 060/14 RMK AO2 UPE1358RAB1358 P0002
94908KDBQ DBQ20060316085014503/16/06 08:50:31  5-MIN KDBQ 161450Z 07011G19KT 4SM -RA BR FEW010 SCT014 OVC036 01/M01 A2994 1060 92 -400 070/11G19 RMK AO2 UPE1358RAB1358 P0002
94908KDBQ DBQ20060316085517303/16/06 08:55:31  5-MIN KDBQ 161455Z 07014KT 5SM UP BR FEW010 SCT014 OVC038 01/M01 A2995 1050 89 -400 070/14 RMK AO2 UPE1358B55RAB1358E55 SLP153 P0002 60006 T00061011 58003
94908KDBQ DBQ20060316090013403/16/06 09:00:31  5-MIN KDBQ 161500Z 06012G19KT 5SM BR FEW010 SCT014 OVC036 01/M01 A2995 1050 89 -400 060/12G19 RMK AO2 UPE1458 P0000
94908KDBQ DBQ20060316090512203/16/06 09:05:31  5-MIN KDBQ 161505Z 06014G18KT 5SM UP BR FEW010 OVC036 01/M01 A2995 1060 89 -400 060/14G18 RMK AO2 P0000
94908KDBQ DBQ20060316091013403/16/06 09:10:31  5-MIN KDBQ 161510Z 06014G21KT 4SM -RA BR FEW010 OVC034 01/M01 A2994 1060 89 -400 060/14G21 RMK AO2 UPE07RAB07 P0000
94908KDBQ DBQ20060316091513403/16/06 09:15:31  5-MIN KDBQ 161515Z 07014G21KT 4SM -RA BR FEW010 OVC041 01/M01 A2995 1050 89 -400 070/14G21 RMK AO2 UPE07RAB07 P0000
94908KDBQ DBQ20060316092012803/16/06 09:20:31  5-MIN KDBQ 161520Z 07014KT 4SM -RA BR SCT010 OVC045 01/M01 A2995 1050 89 -400 070/14 RMK AO2 UPE07RAB07 P0001
94908KDBQ DBQ20060316092512803/16/06 09:25:31  5-MIN KDBQ 161525Z 08015KT 5SM -RA BR FEW010 OVC047 01/M01 A2995 1050 89 -400 080/15 RMK AO2 UPE07RAB07 P0001
94908KDBQ DBQ20060316093012703/16/06 09:30:31  5-MIN KDBQ 161530Z 07014KT 5SM BR FEW010 OVC047 01/M01 A2995 1050 89 -400 070/14 RMK AO2 UPE07RAB07E27 P0001
94908KDBQ DBQ20060316093514003/16/06 09:35:31  5-MIN KDBQ 161535Z 08018G24KT 5SM BR FEW010 BKN045 BKN055 01/M01 A2994 1060 92 -400 080/18G24 RMK AO2 UPE07RAB07E27 P0001
94908KDBQ DBQ20060316094014603/16/06 09:40:31  5-MIN KDBQ 161540Z 07017G24KT 5SM UP BR SCT010 BKN047 BKN060 01/M01 A2994 1060 92 -400 070/17G24 RMK AO2 UPE07B36RAB07E27 P0001
94908KDBQ DBQ20060316094514603/16/06 09:45:31  5-MIN KDBQ 161545Z 07016G22KT 4SM UP BR SCT010 BKN049 BKN055 01/M01 A2994 1060 92 -400 070/16G22 RMK AO2 UPE07B36RAB07E27 P0001
94908KDBQ DBQ20060316095016303/16/06 09:50:31  5-MIN KDBQ 161550Z 08019G22KT 5SM BR SCT010 BKN043 BKN055 01/M01 A2994 1060 92 -400 080/19G22 RMK AO2 UPE07B36E47RAB07E27 SLP150 P0001 T00061006
94908KDBQ DBQ20060316095515603/16/06 09:55:31  5-MIN KDBQ 161555Z 08015G23KT 4SM BR SCT010 BKN039 01/M01 A2994 1060 92 -400 080/15G23 RMK AO2 UPE07B36E47RAB07E27 SLP149 P0001 T00061006
94908KDBQ DBQ20060316100013003/16/06 10:00:31  5-MIN KDBQ 161600Z 07016G22KT 4SM UP BR SCT010 BKN037 01/M01 A2994 1060 92 -400 070/16G22 RMK AO2 UPB1556 P0000
94908KDBQ DBQ20060316100512403/16/06 10:05:31  5-MIN KDBQ 161605Z 07015KT 4SM UP BR BKN010 BKN037 01/M01 A2994 1060 92 -300 070/15 RMK AO2 UPB1556 P0000
94908KDBQ DBQ20060316101013103/16/06 10:10:31  5-MIN KDBQ 161610Z 07017KT 4SM BR BKN008 BKN040 BKN055 00/M01 A2994 1060 96 -400 070/17 RMK AO2 UPB1556E08 P0000
94908KDBQ DBQ20060316101513703/16/06 10:15:31  5-MIN KDBQ 161615Z 07017G24KT 4SM BR BKN008 BKN040 BKN055 01/M01 A2994 1060 92 -300 070/17G24 RMK AO2 UPB1556E08 P0000
94908KDBQ DBQ20060316102013703/16/06 10:20:31  5-MIN KDBQ 161620Z 07016G24KT 4SM BR BKN008 BKN040 BKN055 01/M01 A2994 1060 89 -400 070/16G24 RMK AO2 UPB1556E08 P0000
94908KDBQ DBQ20060316102513103/16/06 10:25:31  5-MIN KDBQ 161625Z 07016KT 4SM BR BKN008 BKN040 BKN055 01/M01 A2994 1060 89 -300 070/16 RMK AO2 UPB1556E08 P0000
94908KDBQ DBQ20060316103014303/16/06 10:30:31  5-MIN KDBQ 161630Z 07018G24KT 4SM UP BR BKN008 BKN040 BKN055 01/M01 A2993 1070 92 -300 070/18G24 RMK AO2 UPB1556E08B28 P0000
94908KDBQ DBQ20060316103514303/16/06 10:35:31  5-MIN KDBQ 161635Z 07016G24KT 4SM UP BR BKN008 BKN040 BKN055 01/M01 A2994 1060 89 -300 070/16G24 RMK AO2 UPB1556E08B28 P0000
94908KDBQ DBQ20060316104014603/16/06 10:40:31  5-MIN KDBQ 161640Z 07019KT 4SM -SN BR BKN008 BKN040 BKN055 01/M01 A2994 1060 89 -400 070/19 RMK AO2 UPB1556E08B28E40SNB40 P0000
94908KDBQ DBQ20060316104514603/16/06 10:45:31  5-MIN KDBQ 161645Z 07017KT 3SM -SN BR BKN008 BKN040 BKN055 01/M01 A2994 1060 89 -400 070/17 RMK AO2 UPB1556E08B28E40SNB40 P0000
94908KDBQ DBQ20060316105016803/16/06 10:50:31  5-MIN KDBQ 161650Z 07014G23KT 3SM BR BKN008 BKN040 BKN055 01/M01 A2994 1060 89 -300 070/14G23 RMK AO2 UPB1556E08B28E40SNB40E50 SLP148 P0000 T00061011
94908KDBQ DBQ20060316105516803/16/06 10:55:31  5-MIN KDBQ 161655Z 07016G23KT 4SM BR BKN008 BKN040 BKN055 01/M01 A2994 1060 89 -400 070/16G23 RMK AO2 UPB1556E08B28E40SNB40E50 SLP149 P0000 T00061011
94908KDBQ DBQ20060316110011803/16/06 11:00:31  5-MIN KDBQ 161700Z 07014G22KT 4SM BR OVC008 01/M01 A2994 1060 89 -400 070/14G22 RMK AO2 CIG 006V011
94908KDBQ DBQ20060316110511203/16/06 11:05:31  5-MIN KDBQ 161705Z 07014KT 4SM BR OVC008 01/M01 A2995 1050 89 -400 070/14 RMK AO2 CIG 006V011
94908KDBQ DBQ20060316111011803/16/06 11:10:31  5-MIN KDBQ 161710Z 07018G23KT 4SM BR OVC008 01/M01 A2995 1050 89 -400 070/18G23 RMK AO2 CIG 006V011
94908KDBQ DBQ20060316111511803/16/06 11:15:31  5-MIN KDBQ 161715Z 07016G23KT 5SM BR OVC008 01/M01 A2994 1060 89 -400 070/16G23 RMK AO2 CIG 006V011
94908KDBQ DBQ20060316112010603/16/06 11:20:31  5-MIN KDBQ 161720Z 07013G21KT 5SM BR OVC008 01/M01 A2995 1050 89 -400 070/13G21 RMK AO2
94908KDBQ DBQ20060316112510003/16/06 11:25:31  5-MIN KDBQ 161725Z 07014KT 5SM BR OVC008 01/M01 A2995 1050 89 -400 070/14 RMK AO2
94908KDBQ DBQ20060316113010003/16/06 11:30:31  5-MIN KDBQ 161730Z 06016KT 5SM BR OVC008 00/M01 A2995 1050 92 -400 060/16 RMK AO2
94908KDBQ DBQ20060316113511803/16/06 11:35:31  5-MIN KDBQ 161735Z 06013G22KT 5SM BR OVC008 01/M01 A2995 1050 89 -400 060/13G22 RMK AO2 CIG 006V011
94908KDBQ DBQ20060316114011803/16/06 11:40:31  5-MIN KDBQ 161740Z 06014G22KT 5SM BR OVC008 01/M01 A2995 1050 89 -400 060/14G22 RMK AO2 CIG 006V011
94908KDBQ DBQ20060316114511203/16/06 11:45:31  5-MIN KDBQ 161745Z 07017KT 5SM BR OVC008 01/M01 A2995 1050 89 -400 070/17 RMK AO2 CIG 006V011
94908KDBQ DBQ20060316115015903/16/06 11:50:31  5-MIN KDBQ 161750Z 07017G22KT 5SM BR OVC008 01/M01 A2995 1050 89 -400 060/17G22 RMK AO2 CIG 006V011 SLP154 60007 T00061011 10006 20000 58003
94908KDBQ DBQ20060316115514703/16/06 11:55:31  5-MIN KDBQ 161755Z 07017G25KT 6SM BR OVC008 01/M01 A2996 1040 89 -400 060/17G25 RMK AO2 SLP156 60007 T00061011 10006 20000 53002
94908KDBQ DBQ20060316120010603/16/06 12:00:31  5-MIN KDBQ 161800Z 06016G25KT 5SM BR OVC008 01/M01 A2996 1040 89 -400 060/16G25 RMK AO2
94908KDBQ DBQ20060316120510603/16/06 12:05:31  5-MIN KDBQ 161805Z 07017G25KT 5SM BR OVC008 01/M01 A2996 1040 89 -400 070/17G25 RMK AO2
94908KDBQ DBQ20060316121010603/16/06 12:10:31  5-MIN KDBQ 161810Z 07015G25KT 6SM BR OVC008 01/M01 A2996 1040 89 -400 060/15G25 RMK AO2
94908KDBQ DBQ20060316121510603/16/06 12:15:31  5-MIN KDBQ 161815Z 06017G21KT 6SM BR OVC008 01/M01 A2996 1040 89 -400 060/17G21 RMK AO2
94908KDBQ DBQ20060316122010603/16/06 12:20:31  5-MIN KDBQ 161820Z 06016G21KT 5SM BR OVC008 01/M01 A2997 1040 89 -400 060/16G21 RMK AO2
94908KDBQ DBQ20060316122510003/16/06 12:25:31  5-MIN KDBQ 161825Z 06017KT 5SM BR OVC008 01/M01 A2997 1040 89 -400 060/17 RMK AO2
94908KDBQ DBQ20060316123010603/16/06 12:30:31  5-MIN KDBQ 161830Z 07015G22KT 6SM BR OVC008 01/M01 A2997 1030 89 -400 070/15G22 RMK AO2
94908KDBQ DBQ20060316123510603/16/06 12:35:31  5-MIN KDBQ 161835Z 06014G22KT 6SM BR OVC008 01/M01 A2997 1030 89 -400 060/14G22 RMK AO2
94908KDBQ DBQ20060316124010003/16/06 12:40:31  5-MIN KDBQ 161840Z 07016KT 5SM BR OVC008 01/M01 A2997 1030 89 -400 070/16 RMK AO2
94908KDBQ DBQ20060316124511603/16/06 12:45:31  5-MIN KDBQ 161845Z 06014KT 4SM -SN BR OVC008 00/M01 A2997 1030 92 -500 060/14 RMK AO2 SNB45 P0000
94908KDBQ DBQ20060316125014503/16/06 12:50:31  5-MIN KDBQ 161850Z 06016KT 3SM -SN BR OVC008 00/M01 A2997 1030 92 -500 060/16 RMK AO2 SNB45 CIG 007V012 SLP160 P0000 T00001011
94908KDBQ DBQ20060316125515103/16/06 12:55:31  5-MIN KDBQ 161855Z 06013G21KT 3SM -SN BR OVC008 00/M01 A2997 1030 92 -500 060/13G21 RMK AO2 SNB45 CIG 007V012 SLP160 P0000 T00001011
94908KDBQ DBQ20060316130011603/16/06 13:00:31  5-MIN KDBQ 161900Z 05015G21KT 3SM -SN BR OVC008 00/M02 A2997 1030 88 -500 050/15G21 RMK AO2 P0000
94908KDBQ DBQ20060316130511003/16/06 13:05:31  5-MIN KDBQ 161905Z 06016KT 3SM -SN BR OVC008 00/M02 A2997 1030 88 -500 060/16 RMK AO2 P0000
94908KDBQ DBQ20060316131011403/16/06 13:10:31  5-MIN KDBQ 161910Z 06015KT 2 1/2SM -SN BR OVC008 00/M01 A2997 1030 92 -500 060/15 RMK AO2 P0000
94908KDBQ DBQ20060316131511003/16/06 13:15:31  5-MIN KDBQ 161915Z 06015KT 2SM -SN BR OVC008 00/M01 A2997 1030 92 -500 060/15 RMK AO2 P0000
94908KDBQ DBQ20060316132012603/16/06 13:20:31  5-MIN KDBQ 161920Z 07015KT 1 3/4SM -SN BR OVC008 00/M01 A2997 1030 92 -500 060/15 RMK AO2 CIG 007V011 P0000
94908KDBQ DBQ20060316132512603/16/06 13:25:31  5-MIN KDBQ 161925Z 06013KT 1 1/2SM -SN BR OVC008 00/M01 A2997 1030 92 -500 060/13 RMK AO2 CIG 007V011 P0000
94908KDBQ DBQ20060316133013203/16/06 13:30:31  5-MIN KDBQ 161930Z 06011G19KT 1 1/4SM -SN BR OVC008 00/M01 A2998 1030 92 -500 050/11G19 RMK AO2 CIG 005V011 P0000
94908KDBQ DBQ20060316133512803/16/06 13:35:31  5-MIN KDBQ 161935Z 07017G20KT 1SM -SN BR OVC008 00/M01 A2998 1020 92 -500 060/17G20 RMK AO2 CIG 005V011 P0000
94908KDBQ DBQ20060316134012803/16/06 13:40:31  5-MIN KDBQ 161940Z 07015G20KT 1SM -SN BR OVC008 00/M02 A2998 1020 88 -500 070/15G20 RMK AO2 CIG 005V011 P0000
94908KDBQ DBQ20060316134513103/16/06 13:45:31  5-MIN KDBQ 161945Z 07015KT 3/4SM -SN BR BKN008 OVC013 00/M01 A2998 1020 92 -500 070/15 RMK AO2 CIG 005V011 P0000
94908KDBQ DBQ20060316135014803/16/06 13:50:31  5-MIN KDBQ 161950Z 06013KT 3/4SM -SN BR BKN008 OVC013 00/M01 A2998 1020 92 -500 060/13 RMK AO2 CIG 005V011 SLP165 P0000 T00001011
94908KDBQ DBQ20060316135513503/16/06 13:55:31  5-MIN KDBQ 161955Z 06013KT 1/2SM SN FG BKN008 OVC012 00/M01 A2999 1020 92 -500 060/13 RMK AO2 SLP167 P0000 T00001011
94908KDBQ DBQ20060316140011803/16/06 14:00:31  5-MIN KDBQ 162000Z 06011KT 1/2SM SN FG BKN008 OVC012 00/M01 A2999 1010 92 -500 060/11 RMK AO2 P0001
94908KDBQ DBQ20060316140511803/16/06 14:05:31  5-MIN KDBQ 162005Z 06011KT 1/2SM SN FG BKN005 OVC009 00/M01 A2999 1010 92 -500 060/11 RMK AO2 P0001
94908KDBQ DBQ20060316141011803/16/06 14:10:31  5-MIN KDBQ 162010Z 06016KT 1/2SM SN FG BKN007 OVC010 00/M01 A2999 1010 92 -500 060/16 RMK AO2 P0001
94908KDBQ DBQ20060316141511803/16/06 14:15:31  5-MIN KDBQ 162015Z 05013KT 1/2SM SN FG BKN007 OVC010 00/M01 A2999 1010 92 -500 050/13 RMK AO2 P0001
94908KDBQ DBQ20060316142011803/16/06 14:20:31  5-MIN KDBQ 162020Z 06010KT 1/2SM SN FG BKN004 OVC010 00/M01 A3000 1010 92 -500 060/10 RMK AO2 P0002
94908KDBQ DBQ20060316142512103/16/06 14:25:31  5-MIN KDBQ 162025Z 05011KT 1/2SM SN FZFG BKN004 OVC010 M01/M01 A3000 1010 96 -600 050/11 RMK AO2 P0002
94908KDBQ DBQ20060316143013303/16/06 14:30:31  5-MIN KDBQ 162030Z 05012KT 1/2SM SN FZFG BKN004 OVC009 M01/M01 A3000 1010 96 -600 050/12 RMK AO2 CIG 002V006 P0002
94908KDBQ DBQ20060316143513903/16/06 14:35:31  5-MIN KDBQ 162035Z 05015G20KT 1/2SM SN FZFG BKN004 OVC010 M01/M02 A3000 1000 92 -600 050/15G20 RMK AO2 CIG 002V007 P0003
94908KDBQ DBQ20060316144013203/16/06 14:40:31  5-MIN KDBQ 162040Z 06016G20KT 1/2SM SN FZFG OVC004 M01/M02 A3001 1000 92 -600 050/16G20 RMK AO2 CIG 002V009 P0003
94908KDBQ DBQ20060316144512003/16/06 14:45:31  5-MIN KDBQ 162045Z 06015KT 1/2SM SN FZFG BKN004 OVC009 M01/M02 A3001 990 92 -600 060/15 RMK AO2 P0003
94908KDBQ DBQ20060316145011303/16/06 14:50:31  5-MIN KDBQ 162050Z 06013KT 1/2SM SN FZFG OVC006 M01/M02 A3002 990 92 -600 060/13 RMK AO2 P0003
94908KDBQ DBQ20060316145514903/16/06 14:55:31  5-MIN KDBQ 162055Z 05015KT 1/2SM SN FZFG BKN006 OVC011 M01/M02 A3002 990 92 -600 050/15 RMK AO2 SLP176 P0003 60003 T10061017 51015
94908KDBQ DBQ20060316150012603/16/06 15:00:31  5-MIN KDBQ 162100Z 06018G22KT 1/2SM SN FZFG BKN007 OVC012 M01/M02 A3002 990 92 -600 060/18G22 RMK AO2 P0000
94908KDBQ DBQ20060316150512003/16/06 15:05:31  5-MIN KDBQ 162105Z 05015KT 1/2SM SN FZFG BKN007 OVC012 M01/M02 A3002 990 92 -600 050/15 RMK AO2 P0001
94908KDBQ DBQ20060316151012603/16/06 15:10:31  5-MIN KDBQ 162110Z 05019G24KT 1/2SM SN FZFG BKN007 OVC012 M01/M02 A3002 990 88 -600 050/19G24 RMK AO2 P0001
94908KDBQ DBQ20060316151512603/16/06 15:15:31  5-MIN KDBQ 162115Z 06017G24KT 1/2SM SN FZFG BKN007 OVC012 M01/M02 A3002 980 88 -600 060/17G24 RMK AO2 P0001
94908KDBQ DBQ20060316152012703/16/06 15:20:31  5-MIN KDBQ 162120Z 06016KT 1/2SM SN FZFG FEW003 BKN007 OVC012 M01/M02 A3003 980 88 -600 060/16 RMK AO2 P0001
94908KDBQ DBQ20060316152512003/16/06 15:25:31  5-MIN KDBQ 162125Z 06014KT 1/2SM SN FZFG BKN006 OVC012 M01/M02 A3003 970 92 -600 060/14 RMK AO2 P0001
94908KDBQ DBQ20060316153012003/16/06 15:30:31  5-MIN KDBQ 162130Z 05013KT 1/2SM SN FZFG BKN006 OVC010 M01/M02 A3003 970 92 -600 050/13 RMK AO2 P0001
94908KDBQ DBQ20060316153512003/16/06 15:35:31  5-MIN KDBQ 162135Z 05013KT 1/2SM SN FZFG BKN004 OVC009 M01/M02 A3004 970 92 -600 050/13 RMK AO2 P0001
94908KDBQ DBQ20060316154011303/16/06 15:40:31  5-MIN KDBQ 162140Z 05014KT 1/2SM SN FZFG OVC006 M01/M02 A3004 970 92 -600 040/14 RMK AO2 P0001
94908KDBQ DBQ20060316154512003/16/06 15:45:31  5-MIN KDBQ 162145Z 05012KT 1/2SM SN FZFG BKN006 OVC009 M01/M02 A3004 970 92 -600 040/12 RMK AO2 P0001
94908KDBQ DBQ20060316155013003/16/06 15:50:31  5-MIN KDBQ 162150Z 05015KT 1/2SM SN FZFG OVC006 M01/M02 A3004 960 92 -600 050/15 RMK AO2 SLP186 P0001 T10061017
94908KDBQ DBQ20060316155513003/16/06 15:55:31  5-MIN KDBQ 162155Z 06014KT 1/2SM SN FZFG OVC006 M01/M02 A3005 960 92 -600 060/14 RMK AO2 SLP186 P0002 T10061017
94908KDBQ DBQ20060316160011303/16/06 16:00:31  5-MIN KDBQ 162200Z 06013KT 1/2SM SN FZFG OVC006 M01/M02 A3005 960 92 -600 050/13 RMK AO2 P0000
94908KDBQ DBQ20060316160512003/16/06 16:05:31  5-MIN KDBQ 162205Z 05013KT 1/2SM SN FZFG BKN006 OVC009 M01/M02 A3005 960 92 -600 050/13 RMK AO2 P0000
94908KDBQ DBQ20060316161011903/16/06 16:10:31  5-MIN KDBQ 162210Z 04011KT 3/4SM -SN BR BKN006 OVC009 M01/M02 A3006 950 92 -600 040/11 RMK AO2 P0000
94908KDBQ DBQ20060316161511203/16/06 16:15:31  5-MIN KDBQ 162215Z 04013KT 3/4SM -SN BR OVC006 M01/M02 A3006 950 92 -600 040/13 RMK AO2 P0000
94908KDBQ DBQ20060316162011003/16/06 16:20:31  5-MIN KDBQ 162220Z 04013KT 1SM -SN BR OVC006 M01/M02 A3006 950 92 -600 040/13 RMK AO2 P0000
94908KDBQ DBQ20060316162511003/16/06 16:25:31  5-MIN KDBQ 162225Z 04016KT 1SM -SN BR OVC006 M01/M02 A3006 950 92 -600 040/16 RMK AO2 P0000
94908KDBQ DBQ20060316163012103/16/06 16:30:31  5-MIN KDBQ 162230Z 04015KT 1 1/4SM -SN BR BKN006 OVC010 M01/M02 A3007 940 92 -600 040/15 RMK AO2 P0000
94908KDBQ DBQ20060316163514003/16/06 16:35:31  5-MIN KDBQ 162235Z 05015KT 1 1/4SM -SN BR BKN006 BKN009 OVC014 M01/M02 A3007 940 88 -600 050/15 RMK AO2 CIG 002V007 P0000
94908KDBQ DBQ20060316164013603/16/06 16:40:31  5-MIN KDBQ 162240Z 04014KT 1SM -SN BR BKN006 BKN009 OVC019 M01/M02 A3007 940 88 -600 040/14 RMK AO2 CIG 002V007 P0000
94908KDBQ DBQ20060316164512903/16/06 16:45:31  5-MIN KDBQ 162245Z 04012KT 1SM -SN BR BKN006 OVC013 M01/M02 A3008 930 88 -700 040/12 RMK AO2 CIG 003V011 P0000
94908KDBQ DBQ20060316165014603/16/06 16:50:31  5-MIN KDBQ 162250Z 04012KT 1SM -SN BR BKN008 OVC013 M01/M02 A3008 930 88 -700 040/12 RMK AO2 CIG 004V011 SLP199 P0000 T10061022
94908KDBQ DBQ20060316165515303/16/06 16:55:31  5-MIN KDBQ 162255Z 04012KT 1SM -SN BR BKN008 BKN013 OVC020 M01/M02 A3009 920 88 -700 030/12 RMK AO2 CIG 005V011 SLP201 P0000 T10061022
94908KDBQ DBQ20060316170012403/16/06 17:00:31  5-MIN KDBQ 162300Z 03009KT 1SM -SN BR SCT006 BKN011 OVC020 M01/M02 A3009 920 92 -700 030/09 RMK AO2 P0000
94908KDBQ DBQ20060316170511703/16/06 17:05:31  5-MIN KDBQ 162305Z 04013KT 1SM -SN BR SCT006 OVC011 M01/M02 A3009 920 92 -700 040/13 RMK AO2 P0000
94908KDBQ DBQ20060316171013603/16/06 17:10:31  5-MIN KDBQ 162310Z 04012KT 1SM -SN BR FEW004 BKN010 OVC013 M01/M02 A3009 920 88 -700 040/12 RMK AO2 CIG 006V011 P0000
94908KDBQ DBQ20060316171514003/16/06 17:15:31  5-MIN KDBQ 162315Z 04013KT 1 1/4SM -SN BR FEW004 BKN008 OVC013 M01/M02 A3010 920 88 -700 040/13 RMK AO2 CIG 006V010 P0000
94908KDBQ DBQ20060316172013303/16/06 17:20:31  5-MIN KDBQ 162320Z 05013KT 1 1/2SM -SN BR BKN008 OVC013 M01/M02 A3010 910 88 -700 050/13 RMK AO2 CIG 003V009 P0000
94908KDBQ DBQ20060316172512803/16/06 17:25:31  5-MIN KDBQ 162325Z 05013KT 1 3/4SM -SN BR SCT006 BKN011 OVC016 M01/M02 A3011 910 88 -700 040/13 RMK AO2 P0000
94908KDBQ DBQ20060316173012903/16/06 17:30:31  5-MIN KDBQ 162330Z 05011KT 2SM -SN BR BKN009 OVC014 M01/M02 A3011 910 88 -700 050/11 RMK AO2 CIG 006V011 P0000
94908KDBQ DBQ20060316173513303/16/06 17:35:31  5-MIN KDBQ 162335Z 04012KT 2 1/2SM -SN BR BKN009 OVC016 M01/M02 A3011 910 88 -700 040/12 RMK AO2 CIG 006V012 P0000
94908KDBQ DBQ20060316174012403/16/06 17:40:31  5-MIN KDBQ 162340Z 05011KT 3SM -SN BR SCT009 BKN013 OVC018 M01/M02 A3011 900 88 -700 050/11 RMK AO2 P0000
94908KDBQ DBQ20060316174513303/16/06 17:45:31  5-MIN KDBQ 162345Z 04009KT 2 1/2SM -SN BR BKN009 OVC015 M01/M02 A3011 900 88 -700 030/09 RMK AO2 CIG 006V012 P0000
94908KDBQ DBQ20060316175012403/16/06 17:50:31  5-MIN KDBQ 162350Z 04010KT 2SM -SN BR FEW007 BKN011 OVC017 M01/M02 A3012 900 92 -700 040/10 RMK AO2 P0000
94908KDBQ DBQ20060316175517403/16/06 17:55:31  5-MIN KDBQ 162355Z 04011KT 1 1/2SM -SN BR BKN009 OVC017 M01/M02 A3012 890 92 -700 040/11 RMK AO2 CIG 006V012 SLP211 P0000 60005 T10061017 10006 21006 53034
94908KDBQ DBQ20060316180012803/16/06 18:00:31  5-MIN KDBQ 170000Z 03010KT 1 1/4SM -SN BR SCT007 BKN012 OVC017 M01/M02 A3012 890 92 -700 030/10 RMK AO2 P0000
94908KDBQ DBQ20060316180512803/16/06 18:05:31  5-MIN KDBQ 170005Z 03010KT 1 1/4SM -SN BR SCT007 BKN012 OVC018 M01/M02 A3013 890 92 -700 030/10 RMK AO2 P0000
94908KDBQ DBQ20060316181013303/16/06 18:10:31  5-MIN KDBQ 170010Z 03010KT 1 1/4SM -SN BR BKN005 OVC012 M01/M02 A3013 880 96 -800 030/10 RMK AO2 CIG 003V009 P0000
94908KDBQ DBQ20060316181514003/16/06 18:15:31  5-MIN KDBQ 170015Z 03010KT 1 1/4SM -SN BR SCT005 BKN009 OVC017 M01/M02 A3014 880 96 -800 030/10 RMK AO2 CIG 007V012 P0000
94908KDBQ DBQ20060316182014003/16/06 18:20:31  5-MIN KDBQ 170020Z 03012KT 1 1/2SM -SN BR FEW003 BKN007 OVC011 M01/M02 A3014 880 92 -700 030/12 RMK AO2 CIG 005V008 P0000
94908KDBQ DBQ20060316182512903/16/06 18:25:31  5-MIN KDBQ 170025Z 03011KT 2SM -SN BR BKN005 OVC012 M01/M02 A3014 870 92 -700 030/11 RMK AO2 CIG 003V008 P0000
94908KDBQ DBQ20060316183012903/16/06 18:30:31  5-MIN KDBQ 170030Z 03011KT 3SM -SN BR BKN005 OVC010 M01/M02 A3015 870 92 -700 030/11 RMK AO2 CIG 003V008 P0000
94908KDBQ DBQ20060316183513603/16/06 18:35:31  5-MIN KDBQ 170035Z 03010KT 3SM -SN BR FEW003 BKN008 OVC016 M01/M02 A3015 860 92 -700 030/10 RMK AO2 CIG 005V011 P0000
94908KDBQ DBQ20060316184013603/16/06 18:40:31  5-MIN KDBQ 170040Z 03010KT 3SM -SN BR BKN008 BKN012 OVC016 M01/M02 A3016 860 96 -800 030/10 RMK AO2 CIG 003V010 P0000
94908KDBQ DBQ20060316184511703/16/06 18:45:31  5-MIN KDBQ 170045Z 03011KT 4SM -SN BR SCT006 OVC012 M01/M02 A3016 860 96 -800 030/11 RMK AO2 P0000
94908KDBQ DBQ20060316185014803/16/06 18:50:31  5-MIN KDBQ 170050Z 03011KT 5SM BR BKN009 OVC014 M01/M02 A3016 860 92 -700 030/11 RMK AO2 SNE46 CIG 004V012 SLP226 P0000 T10061017
94908KDBQ DBQ20060316185514803/16/06 18:55:31  5-MIN KDBQ 170055Z 03013KT 6SM BR BKN009 OVC014 M01/M02 A3016 850 88 -800 030/13 RMK AO2 SNE46 CIG 006V012 SLP227 P0000 T10061022
94908KDBQ DBQ20060316190011903/16/06 19:00:31  5-MIN KDBQ 170100Z 04013KT 6SM BR BKN009 OVC014 M01/M02 A3016 850 88 -800 030/13 RMK AO2 CIG 006V012
94908KDBQ DBQ20060316190511603/16/06 19:05:31  5-MIN KDBQ 170105Z 03011KT 7SM BKN009 OVC014 M01/M02 A3017 850 88 -800 030/11 RMK AO2 CIG 006V012
94908KDBQ DBQ20060316191011603/16/06 19:10:31  5-MIN KDBQ 170110Z 03012KT 7SM BKN009 OVC014 M01/M02 A3017 850 88 -800 030/12 RMK AO2 CIG 006V012
94908KDBQ DBQ20060316191511103/16/06 19:15:31  5-MIN KDBQ 170115Z 04011KT 7SM SCT009 BKN014 OVC035 M01/M02 A3016 850 88 -700 040/11 RMK AO2
94908KDBQ DBQ20060316192011403/16/06 19:20:31  5-MIN KDBQ 170120Z 04010KT 6SM BR SCT011 BKN016 OVC100 M01/M02 A3016 850 92 -800 040/10 RMK AO2
94908KDBQ DBQ20060316192511403/16/06 19:25:31  5-MIN KDBQ 170125Z 04011KT 6SM BR FEW009 BKN035 OVC100 M01/M02 A3017 850 92 -800 030/11 RMK AO2
94908KDBQ DBQ20060316193011403/16/06 19:30:31  5-MIN KDBQ 170130Z 04011KT 6SM BR FEW009 BKN033 OVC100 M01/M02 A3017 850 88 -800 040/11 RMK AO2
94908KDBQ DBQ20060316193511103/16/06 19:35:31  5-MIN KDBQ 170135Z 03011KT 7SM FEW009 BKN033 OVC100 M01/M02 A3017 850 88 -800 030/11 RMK AO2
94908KDBQ DBQ20060316194011103/16/06 19:40:31  5-MIN KDBQ 170140Z 04011KT 8SM FEW015 BKN033 OVC100 M01/M02 A3017 840 88 -800 030/11 RMK AO2
94908KDBQ DBQ20060316194511103/16/06 19:45:31  5-MIN KDBQ 170145Z 04010KT 8SM FEW015 BKN033 OVC100 M01/M02 A3018 840 88 -800 040/10 RMK AO2
94908KDBQ DBQ20060316195011103/16/06 19:50:31  5-MIN KDBQ 170150Z 03011KT 8SM FEW015 BKN024 OVC033 M01/M02 A3018 840 88 -800 030/11 RMK AO2
94908KDBQ DBQ20060316195512803/16/06 19:55:31  5-MIN KDBQ 170155Z 03010KT 8SM SCT015 BKN021 OVC031 M01/M02 A3019 830 88 -800 030/10 RMK AO2 SLP234 T10061022
94908KDBQ DBQ20060316200012103/16/06 20:00:31  5-MIN KDBQ 170200Z AUTO 03013KT 7SM SCT015 BKN021 OVC031 M01/M02 A3019 830 88 -800 030/13 RMK AO2 TSNO
94908KDBQ DBQ20060316200512103/16/06 20:05:31  5-MIN KDBQ 170205Z AUTO 03011KT 8SM BKN015 BKN021 OVC029 M01/M02 A3019 830 88 -800 030/11 RMK AO2 TSNO
94908KDBQ DBQ20060316201012103/16/06 20:10:31  5-MIN KDBQ 170210Z AUTO 03012KT 8SM BKN015 BKN023 OVC029 M01/M02 A3019 830 88 -800 030/12 RMK AO2 TSNO
94908KDBQ DBQ20060316201512103/16/06 20:15:31  5-MIN KDBQ 170215Z AUTO 04012KT 9SM BKN015 BKN022 OVC029 M01/M02 A3019 830 88 -800 040/12 RMK AO2 TSNO
94908KDBQ DBQ20060316202011403/16/06 20:20:31  5-MIN KDBQ 170220Z AUTO 04013KT 9SM BKN013 OVC022 M01/M02 A3020 820 88 -800 040/13 RMK AO2 TSNO
94908KDBQ DBQ20060316202511403/16/06 20:25:31  5-MIN KDBQ 170225Z AUTO 04012KT 9SM BKN013 OVC022 M01/M02 A3020 820 88 -800 040/12 RMK AO2 TSNO
94908KDBQ DBQ20060316203011403/16/06 20:30:31  5-MIN KDBQ 170230Z AUTO 04013KT 9SM SCT013 OVC020 M01/M02 A3020 820 88 -800 030/13 RMK AO2 TSNO
94908KDBQ DBQ20060316203511403/16/06 20:35:31  5-MIN KDBQ 170235Z AUTO 04013KT 9SM BKN013 OVC020 M01/M02 A3020 820 88 -800 040/13 RMK AO2 TSNO
94908KDBQ DBQ20060316204011403/16/06 20:40:31  5-MIN KDBQ 170240Z AUTO 04012KT 9SM BKN013 OVC020 M01/M02 A3020 820 88 -800 040/12 RMK AO2 TSNO
94908KDBQ DBQ20060316204512003/16/06 20:45:31  5-MIN KDBQ 170245Z AUTO 04015G19KT 9SM BKN013 OVC020 M01/M02 A3020 820 88 -800 040/15G19 RMK AO2 TSNO
94908KDBQ DBQ20060316205014303/16/06 20:50:31  5-MIN KDBQ 170250Z AUTO 03015KT 9SM BKN013 OVC021 M01/M02 A3020 820 88 -800 030/15 RMK AO2 SLP240 60000 T10061022 53034 TSNO
94908KDBQ DBQ20060316205514903/16/06 20:55:31  5-MIN KDBQ 170255Z AUTO 04017G21KT 9SM SCT013 OVC021 M01/M03 A3021 810 85 -800 040/17G21 RMK AO2 SLP242 60000 T10061028 51029 TSNO
94908KDBQ DBQ20060316210012803/16/06 21:00:31  5-MIN KDBQ 170300Z AUTO 04016G21KT 10SM SCT013 BKN021 OVC032 M01/M03 A3021 810 85 -800 040/16G21 RMK AO2 TSNO
94908KDBQ DBQ20060316210512203/16/06 21:05:31  5-MIN KDBQ 170305Z AUTO 04013KT 10SM FEW011 BKN021 OVC032 M01/M03 A3021 810 88 -900 040/13 RMK AO2 TSNO
94908KDBQ DBQ20060316211012203/16/06 21:10:31  5-MIN KDBQ 170310Z AUTO 04012KT 10SM FEW011 BKN026 OVC032 M01/M03 A3022 810 88 -900 040/12 RMK AO2 TSNO
94908KDBQ DBQ20060316211512203/16/06 21:15:31  5-MIN KDBQ 170315Z AUTO 04010KT 10SM FEW013 BKN026 OVC034 M01/M03 A3022 810 88 -900 040/10 RMK AO2 TSNO
94908KDBQ DBQ20060316212012203/16/06 21:20:31  5-MIN KDBQ 170320Z AUTO 04010KT 10SM FEW019 SCT026 OVC034 M01/M03 A3022 800 88 -900 040/10 RMK AO2 TSNO
94908KDBQ DBQ20060316212511503/16/06 21:25:31  5-MIN KDBQ 170325Z AUTO 04010KT 10SM FEW026 OVC034 M01/M03 A3022 800 85 -900 040/10 RMK AO2 TSNO
94908KDBQ DBQ20060316213011503/16/06 21:30:31  5-MIN KDBQ 170330Z AUTO 04009KT 10SM FEW026 OVC034 M01/M03 A3023 800 85 -900 040/09 RMK AO2 TSNO
94908KDBQ DBQ20060316213511503/16/06 21:35:31  5-MIN KDBQ 170335Z AUTO 04009KT 10SM FEW026 OVC034 M01/M03 A3023 790 85 -900 030/09 RMK AO2 TSNO
94908KDBQ DBQ20060316214010803/16/06 21:40:31  5-MIN KDBQ 170340Z AUTO 03009KT 10SM OVC034 M01/M03 A3024 790 85 -900 030/09 RMK AO2 TSNO
94908KDBQ DBQ20060316214510803/16/06 21:45:31  5-MIN KDBQ 170345Z AUTO 03009KT 10SM OVC034 M01/M03 A3024 790 85 -900 030/09 RMK AO2 TSNO
94908KDBQ DBQ20060316215012503/16/06 21:50:31  5-MIN KDBQ 170350Z AUTO 03008KT 10SM OVC034 M01/M03 A3024 790 85 -900 030/08 RMK AO2 SLP251 T10111033 TSNO
94908KDBQ DBQ20060316215512503/16/06 21:55:31  5-MIN KDBQ 170355Z AUTO 03010KT 10SM OVC034 M01/M03 A3024 790 85 -900 030/10 RMK AO2 SLP252 T10111033 TSNO
94908KDBQ DBQ20060316220010803/16/06 22:00:31  5-MIN KDBQ 170400Z AUTO 03010KT 10SM OVC034 M01/M03 A3024 780 85 -900 020/10 RMK AO2 TSNO
94908KDBQ DBQ20060316220510803/16/06 22:05:31  5-MIN KDBQ 170405Z AUTO 02009KT 10SM OVC034 M01/M03 A3024 780 85 -900 020/09 RMK AO2 TSNO
94908KDBQ DBQ20060316221010803/16/06 22:10:31  5-MIN KDBQ 170410Z AUTO 02009KT 10SM OVC034 M01/M03 A3024 780 81 -800 020/09 RMK AO2 TSNO
94908KDBQ DBQ20060316221510803/16/06 22:15:31  5-MIN KDBQ 170415Z AUTO 02011KT 10SM OVC034 M01/M03 A3025 780 85 -900 020/11 RMK AO2 TSNO
94908KDBQ DBQ20060316222010803/16/06 22:20:31  5-MIN KDBQ 170420Z AUTO 02011KT 10SM OVC034 M01/M03 A3025 780 85 -900 020/11 RMK AO2 TSNO
94908KDBQ DBQ20060316222510803/16/06 22:25:31  5-MIN KDBQ 170425Z AUTO 03010KT 10SM OVC034 M01/M03 A3025 780 85 -900 030/10 RMK AO2 TSNO
94908KDBQ DBQ20060316223010803/16/06 22:30:31  5-MIN KDBQ 170430Z AUTO 03010KT 10SM OVC034 M01/M03 A3025 780 81 -800 030/10 RMK AO2 TSNO
94908KDBQ DBQ20060316223510803/16/06 22:35:31  5-MIN KDBQ 170435Z AUTO 02009KT 10SM OVC034 M01/M03 A3025 780 85 -800 020/09 RMK AO2 TSNO
94908KDBQ DBQ20060316224010803/16/06 22:40:31  5-MIN KDBQ 170440Z AUTO 02009KT 10SM OVC034 M01/M03 A3025 770 85 -900 020/09 RMK AO2 TSNO
94908KDBQ DBQ20060316224510803/16/06 22:45:31  5-MIN KDBQ 170445Z AUTO 02009KT 10SM OVC036 M01/M03 A3026 770 81 -900 020/09 RMK AO2 TSNO
94908KDBQ DBQ20060316225012503/16/06 22:50:31  5-MIN KDBQ 170450Z AUTO 02008KT 10SM OVC036 M01/M03 A3026 770 85 -900 020/08 RMK AO2 SLP259 T10061028 TSNO
94908KDBQ DBQ20060316225512503/16/06 22:55:31  5-MIN KDBQ 170455Z AUTO 01008KT 10SM OVC036 M01/M03 A3026 760 85 -900 010/08 RMK AO2 SLP261 T10061028 TSNO
94908KDBQ DBQ20060316230010803/16/06 23:00:31  5-MIN KDBQ 170500Z AUTO 02009KT 10SM OVC036 M01/M03 A3027 760 81 -900 020/09 RMK AO2 TSNO
94908KDBQ DBQ20060316230510803/16/06 23:05:31  5-MIN KDBQ 170505Z AUTO 02007KT 10SM OVC036 M01/M03 A3027 760 81 -900 020/07 RMK AO2 TSNO
94908KDBQ DBQ20060316231010803/16/06 23:10:31  5-MIN KDBQ 170510Z AUTO 02008KT 10SM OVC038 M01/M03 A3027 760 81 -900 020/08 RMK AO2 TSNO
94908KDBQ DBQ20060316231510803/16/06 23:15:31  5-MIN KDBQ 170515Z AUTO 02008KT 10SM OVC038 M01/M03 A3027 750 81 -900 020/08 RMK AO2 TSNO
94908KDBQ DBQ20060316232010803/16/06 23:20:31  5-MIN KDBQ 170520Z AUTO 02008KT 10SM OVC038 M01/M03 A3027 760 81 -900 020/08 RMK AO2 TSNO
94908KDBQ DBQ20060316232510803/16/06 23:25:31  5-MIN KDBQ 170525Z AUTO 02010KT 10SM OVC038 M01/M03 A3027 750 81 -900 020/10 RMK AO2 TSNO
94908KDBQ DBQ20060316233010803/16/06 23:30:31  5-MIN KDBQ 170530Z AUTO 02010KT 10SM OVC040 M01/M03 A3027 750 81 -900 020/10 RMK AO2 TSNO
94908KDBQ DBQ20060316233510803/16/06 23:35:31  5-MIN KDBQ 170535Z AUTO 03007KT 10SM OVC040 M01/M04 A3027 750 78 -900 030/07 RMK AO2 TSNO
94908KDBQ DBQ20060316234010803/16/06 23:40:31  5-MIN KDBQ 170540Z AUTO 02009KT 10SM OVC040 M01/M04 A3028 750 78 -900 020/09 RMK AO2 TSNO
94908KDBQ DBQ20060316234510803/16/06 23:45:31  5-MIN KDBQ 170545Z AUTO 01007KT 10SM OVC040 M01/M04 A3028 750 78 -900 010/07 RMK AO2 TSNO
94908KDBQ DBQ20060316235015903/16/06 23:50:31  5-MIN KDBQ 170550Z AUTO 01006KT 10SM OVC040 M01/M04 A3028 750 78 -900 010/06 RMK AO2 SLP267 60000 T10061039 11006 21011 400221011 51029 TSNO
94908KDBQ DBQ20060316235515903/16/06 23:55:31  5-MIN KDBQ 170555Z AUTO 01007KT 10SM OVC040 M01/M04 A3028 750 78 -900 010/07 RMK AO2 SLP267 60000 T10061039 11006 21011 400221011 51024 TSNO
94908KDBQ DBQ20060317000010803/17/06 00:00:38  5-MIN KDBQ 170600Z AUTO 01009KT 10SM OVC040 M01/M04 A3028 740 78 -900 010/09 RMK AO2 TSNO
94908KDBQ DBQ20060317000510803/17/06 00:05:31  5-MIN KDBQ 170605Z AUTO 01008KT 10SM OVC042 M01/M04 A3028 740 78 -900 010/08 RMK AO2 TSNO
94908KDBQ DBQ20060317001010803/17/06 00:10:31  5-MIN KDBQ 170610Z AUTO 01007KT 10SM OVC042 M01/M04 A3029 740 78 -900 010/07 RMK AO2 TSNO
94908KDBQ DBQ20060317001510803/17/06 00:15:35  5-MIN KDBQ 170615Z AUTO 01008KT 10SM OVC042 M01/M04 A3029 740 78 -900 010/08 RMK AO2 TSNO
94908KDBQ DBQ20060317002010903/17/06 00:20:31  5-MIN KDBQ 170620Z AUTO 01010KT 10SM OVC042 M01/M04 A3029 740 81 -1000 360/10 RMK AO2 TSNO
94908KDBQ DBQ20060317002510803/17/06 00:25:31  5-MIN KDBQ 170625Z AUTO 01009KT 10SM OVC042 M01/M04 A3029 730 78 -900 010/09 RMK AO2 TSNO
94908KDBQ DBQ20060317003010803/17/06 00:30:31  5-MIN KDBQ 170630Z AUTO 01009KT 10SM OVC042 M01/M04 A3029 740 75 -900 010/09 RMK AO2 TSNO
94908KDBQ DBQ20060317003510803/17/06 00:35:31  5-MIN KDBQ 170635Z AUTO 01008KT 10SM OVC042 M01/M04 A3029 740 75 -900 010/08 RMK AO2 TSNO
94908KDBQ DBQ20060317004010803/17/06 00:40:31  5-MIN KDBQ 170640Z AUTO 01008KT 10SM OVC042 M01/M04 A3030 730 75 -900 010/08 RMK AO2 TSNO
94908KDBQ DBQ20060317004510803/17/06 00:45:31  5-MIN KDBQ 170645Z AUTO 01009KT 10SM OVC044 M01/M04 A3030 730 75 -900 010/09 RMK AO2 TSNO
94908KDBQ DBQ20060317005012503/17/06 00:50:31  5-MIN KDBQ 170650Z AUTO 01009KT 10SM OVC044 M01/M05 A3030 730 72 -900 010/09 RMK AO2 SLP272 T10061050 TSNO
94908KDBQ DBQ20060317005512503/17/06 00:55:31  5-MIN KDBQ 170655Z AUTO 02009KT 10SM OVC044 M01/M05 A3030 730 72 -900 020/09 RMK AO2 SLP273 T10061050 TSNO
94908KDBQ DBQ20060317010010803/17/06 01:00:31  5-MIN KDBQ 170700Z AUTO 01009KT 10SM OVC046 M01/M05 A3030 730 72 -900 010/09 RMK AO2 TSNO
94908KDBQ DBQ20060317010510803/17/06 01:05:31  5-MIN KDBQ 170705Z AUTO 02010KT 10SM OVC046 M01/M05 A3031 720 72 -900 010/10 RMK AO2 TSNO
94908KDBQ DBQ20060317011010803/17/06 01:10:31  5-MIN KDBQ 170710Z AUTO 01010KT 10SM OVC046 M01/M05 A3031 720 72 -900 010/10 RMK AO2 TSNO
94908KDBQ DBQ20060317011510803/17/06 01:15:31  5-MIN KDBQ 170715Z AUTO 01009KT 10SM OVC046 M01/M05 A3031 720 72 -900 010/09 RMK AO2 TSNO
94908KDBQ DBQ20060317012010803/17/06 01:20:31  5-MIN KDBQ 170720Z AUTO 01009KT 10SM OVC046 M01/M05 A3031 720 72 -900 010/09 RMK AO2 TSNO
94908KDBQ DBQ20060317012511503/17/06 01:25:31  5-MIN KDBQ 170725Z AUTO 01008KT 10SM BKN046 OVC060 M01/M05 A3031 720 72 -900 010/08 RMK AO2 TSNO
94908KDBQ DBQ20060317013011603/17/06 01:30:31  5-MIN KDBQ 170730Z AUTO 01009KT 10SM BKN046 OVC060 M01/M05 A3032 710 75 -1000 010/09 RMK AO2 TSNO
94908KDBQ DBQ20060317013511603/17/06 01:35:31  5-MIN KDBQ 170735Z AUTO 01009KT 10SM BKN046 OVC065 M01/M04 A3032 710 78 -1000 010/09 RMK AO2 TSNO
94908KDBQ DBQ20060317014011603/17/06 01:40:31  5-MIN KDBQ 170740Z AUTO 01007KT 10SM SCT046 OVC065 M01/M04 A3032 710 78 -1000 010/07 RMK AO2 TSNO
94908KDBQ DBQ20060317014511603/17/06 01:45:31  5-MIN KDBQ 170745Z AUTO 01008KT 10SM SCT049 OVC065 M01/M04 A3032 710 78 -1000 360/08 RMK AO2 TSNO
94908KDBQ DBQ20060317015013303/17/06 01:50:31  5-MIN KDBQ 170750Z AUTO 01008KT 10SM BKN049 OVC065 M01/M04 A3032 710 78 -1000 010/08 RMK AO2 SLP280 T10111044 TSNO
94908KDBQ DBQ20060317015513303/17/06 01:55:31  5-MIN KDBQ 170755Z AUTO 02008KT 10SM SCT049 OVC065 M01/M04 A3032 710 78 -1000 020/08 RMK AO2 SLP280 T10111044 TSNO
94908KDBQ DBQ20060317020011603/17/06 02:00:31  5-MIN KDBQ 170800Z AUTO 02009KT 10SM SCT049 OVC065 M01/M04 A3032 710 78 -1000 020/09 RMK AO2 TSNO
94908KDBQ DBQ20060317020511603/17/06 02:05:31  5-MIN KDBQ 170805Z AUTO 02009KT 10SM SCT049 OVC065 M01/M05 A3032 710 75 -1000 020/09 RMK AO2 TSNO
94908KDBQ DBQ20060317021011603/17/06 02:10:31  5-MIN KDBQ 170810Z AUTO 03009KT 10SM FEW049 OVC065 M01/M05 A3032 710 75 -1000 020/09 RMK AO2 TSNO
94908KDBQ DBQ20060317021511603/17/06 02:15:31  5-MIN KDBQ 170815Z AUTO 03011KT 10SM FEW049 OVC065 M01/M05 A3032 710 75 -1000 030/11 RMK AO2 TSNO
94908KDBQ DBQ20060317022011603/17/06 02:20:31  5-MIN KDBQ 170820Z AUTO 03010KT 10SM FEW049 OVC065 M01/M05 A3032 710 75 -1000 020/10 RMK AO2 TSNO
94908KDBQ DBQ20060317022511603/17/06 02:25:31  5-MIN KDBQ 170825Z AUTO 03009KT 10SM BKN065 OVC095 M01/M05 A3032 710 75 -1000 030/09 RMK AO2 TSNO
94908KDBQ DBQ20060317023011603/17/06 02:30:31  5-MIN KDBQ 170830Z AUTO 03009KT 10SM SCT065 OVC095 M01/M06 A3032 710 72 -1000 030/09 RMK AO2 TSNO
94908KDBQ DBQ20060317023511603/17/06 02:35:31  5-MIN KDBQ 170835Z AUTO 03007KT 10SM SCT065 OVC095 M02/M06 A3032 710 75 -1100 030/07 RMK AO2 TSNO
94908KDBQ DBQ20060317024011603/17/06 02:40:31  5-MIN KDBQ 170840Z AUTO 03008KT 10SM FEW070 OVC095 M02/M06 A3031 720 75 -1100 030/08 RMK AO2 TSNO
94908KDBQ DBQ20060317024511603/17/06 02:45:31  5-MIN KDBQ 170845Z AUTO 03009KT 10SM FEW070 OVC095 M02/M06 A3031 720 75 -1100 030/09 RMK AO2 TSNO
94908KDBQ DBQ20060317025013203/17/06 02:50:31  5-MIN KDBQ 170850Z AUTO 03009KT 10SM OVC095 M01/M06 A3032 720 72 -1000 030/09 RMK AO2 SLP279 T10111056 51024 TSNO
94908KDBQ DBQ20060317025513203/17/06 02:55:31  5-MIN KDBQ 170855Z AUTO 03008KT 10SM OVC095 M01/M06 A3031 720 72 -1000 030/08 RMK AO2 SLP279 T10111056 50011 TSNO
94908KDBQ DBQ20060317030011603/17/06 03:00:31  5-MIN KDBQ 170900Z AUTO 04008KT 10SM FEW065 OVC095 M02/M06 A3031 720 72 -1100 030/08 RMK AO2 TSNO
94908KDBQ DBQ20060317030511603/17/06 03:05:31  5-MIN KDBQ 170905Z AUTO 04007KT 10SM FEW070 OVC095 M02/M06 A3031 720 72 -1100 040/07 RMK AO2 TSNO
94908KDBQ DBQ20060317031011603/17/06 03:10:31  5-MIN KDBQ 170910Z AUTO 04007KT 10SM FEW070 OVC095 M02/M06 A3032 710 72 -1100 040/07 RMK AO2 TSNO
94908KDBQ DBQ20060317031510903/17/06 03:15:31  5-MIN KDBQ 170915Z AUTO 03007KT 10SM OVC090 M02/M06 A3032 710 72 -1100 030/07 RMK AO2 TSNO
94908KDBQ DBQ20060317032010903/17/06 03:20:31  5-MIN KDBQ 170920Z AUTO 03007KT 10SM OVC090 M02/M06 A3032 710 75 -1100 030/07 RMK AO2 TSNO
94908KDBQ DBQ20060317032511603/17/06 03:25:31  5-MIN KDBQ 170925Z AUTO 04007KT 10SM FEW075 OVC095 M02/M06 A3032 710 75 -1100 040/07 RMK AO2 TSNO
94908KDBQ DBQ20060317033011603/17/06 03:30:31  5-MIN KDBQ 170930Z AUTO 04007KT 10SM FEW080 OVC095 M02/M06 A3032 710 75 -1100 040/07 RMK AO2 TSNO
94908KDBQ DBQ20060317033510903/17/06 03:35:31  5-MIN KDBQ 170935Z AUTO 03006KT 10SM OVC095 M02/M06 A3033 710 72 -1100 030/06 RMK AO2 TSNO
94908KDBQ DBQ20060317034010903/17/06 03:40:31  5-MIN KDBQ 170940Z AUTO 03007KT 10SM OVC095 M02/M06 A3033 700 72 -1100 030/07 RMK AO2 TSNO
94908KDBQ DBQ20060317034510903/17/06 03:45:31  5-MIN KDBQ 170945Z AUTO 03007KT 10SM OVC095 M02/M06 A3033 700 72 -1100 030/07 RMK AO2 TSNO
94908KDBQ DBQ20060317035012603/17/06 03:50:31  5-MIN KDBQ 170950Z AUTO 04008KT 10SM OVC095 M02/M06 A3033 700 72 -1100 040/08 RMK AO2 SLP285 T10171061 TSNO
94908KDBQ DBQ20060317035512603/17/06 03:55:31  5-MIN KDBQ 170955Z AUTO 04008KT 10SM OVC095 M02/M07 A3034 700 69 -1100 040/08 RMK AO2 SLP286 T10171067 TSNO
94908KDBQ DBQ20060317040010903/17/06 04:00:31  5-MIN KDBQ 171000Z AUTO 04007KT 10SM OVC095 M02/M07 A3034 690 69 -1100 040/07 RMK AO2 TSNO
94908KDBQ DBQ20060317040510903/17/06 04:05:31  5-MIN KDBQ 171005Z AUTO 03006KT 10SM OVC095 M02/M07 A3034 690 69 -1100 030/06 RMK AO2 TSNO
94908KDBQ DBQ20060317041010903/17/06 04:10:31  5-MIN KDBQ 171010Z AUTO 03004KT 10SM OVC095 M02/M07 A3035 690 69 -1100 030/04 RMK AO2 TSNO
94908KDBQ DBQ20060317041510903/17/06 04:15:31  5-MIN KDBQ 171015Z AUTO 03005KT 10SM OVC095 M02/M07 A3035 690 69 -1100 030/05 RMK AO2 TSNO
94908KDBQ DBQ20060317042010903/17/06 04:20:31  5-MIN KDBQ 171020Z AUTO 02004KT 10SM OVC095 M02/M07 A3035 680 69 -1100 020/04 RMK AO2 TSNO
94908KDBQ DBQ20060317042510903/17/06 04:25:31  5-MIN KDBQ 171025Z AUTO 02006KT 10SM OVC095 M02/M07 A3035 680 69 -1100 020/06 RMK AO2 TSNO
94908KDBQ DBQ20060317043010903/17/06 04:30:31  5-MIN KDBQ 171030Z AUTO 03006KT 10SM OVC090 M02/M07 A3035 680 69 -1200 030/06 RMK AO2 TSNO
94908KDBQ DBQ20060317043510903/17/06 04:35:31  5-MIN KDBQ 171035Z AUTO 03006KT 10SM OVC090 M02/M07 A3035 680 69 -1200 030/06 RMK AO2 TSNO
94908KDBQ DBQ20060317044010903/17/06 04:40:31  5-MIN KDBQ 171040Z AUTO 03005KT 10SM OVC090 M02/M08 A3036 680 66 -1200 030/05 RMK AO2 TSNO
94908KDBQ DBQ20060317044510903/17/06 04:45:31  5-MIN KDBQ 171045Z AUTO 03004KT 10SM OVC085 M02/M08 A3036 670 66 -1200 030/04 RMK AO2 TSNO
94908KDBQ DBQ20060317045012603/17/06 04:50:31  5-MIN KDBQ 171050Z AUTO 04004KT 10SM OVC085 M02/M08 A3036 670 66 -1200 040/04 RMK AO2 SLP295 T10221078 TSNO
94908KDBQ DBQ20060317045512603/17/06 04:55:31  5-MIN KDBQ 171055Z AUTO 03005KT 10SM OVC085 M03/M07 A3036 670 71 -1300 030/05 RMK AO2 SLP297 T10281072 TSNO
94908KDBQ DBQ20060317050010903/17/06 05:00:31  5-MIN KDBQ 171100Z AUTO 03004KT 10SM OVC085 M03/M08 A3037 670 68 -1300 030/04 RMK AO2 TSNO
94908KDBQ DBQ20060317050510903/17/06 05:05:31  5-MIN KDBQ 171105Z AUTO 02007KT 10SM OVC090 M03/M08 A3037 660 68 -1300 020/07 RMK AO2 TSNO
94908KDBQ DBQ20060317051010903/17/06 05:10:31  5-MIN KDBQ 171110Z AUTO 03007KT 10SM OVC085 M03/M09 A3037 660 65 -1300 020/07 RMK AO2 TSNO
94908KDBQ DBQ20060317051510903/17/06 05:15:31  5-MIN KDBQ 171115Z AUTO 03008KT 10SM BKN085 M03/M09 A3038 660 65 -1300 030/08 RMK AO2 TSNO
94908KDBQ DBQ20060317052010903/17/06 05:20:31  5-MIN KDBQ 171120Z AUTO 03007KT 10SM BKN085 M03/M09 A3038 660 60 -1300 030/07 RMK AO2 TSNO
94908KDBQ DBQ20060317052510903/17/06 05:25:31  5-MIN KDBQ 171125Z AUTO 03006KT 10SM OVC080 M03/M09 A3038 650 63 -1400 030/06 RMK AO2 TSNO
94908KDBQ DBQ20060317053010903/17/06 05:30:31  5-MIN KDBQ 171130Z AUTO 03005KT 10SM OVC080 M04/M09 A3039 650 68 -1400 030/05 RMK AO2 TSNO
94908KDBQ DBQ20060317053511603/17/06 05:35:31  5-MIN KDBQ 171135Z AUTO 03007KT 10SM BKN075 BKN090 M03/M09 A3039 650 63 -1400 030/07 RMK AO2 TSNO
94908KDBQ DBQ20060317054010903/17/06 05:40:31  5-MIN KDBQ 171140Z AUTO 03007KT 10SM SCT080 M04/M10 A3039 650 63 -1400 030/07 RMK AO2 TSNO
94908KDBQ DBQ20060317054509903/17/06 05:45:31  5-MIN KDBQ 171145Z 03007KT 10SM SCT075 M04/M10 A3039 650 63 -1400 020/07 RMK AO2
94908KDBQ DBQ20060317055014003/17/06 05:50:31  5-MIN KDBQ 171150Z 03008KT 10SM FEW080 M04/M10 A3039 640 63 -1400 030/08 RMK AO2 SLP307 70012 T10391100 11006 21039 50011
94908KDBQ DBQ20060317055514003/17/06 05:55:31  5-MIN KDBQ 171155Z 03008KT 10SM FEW075 M04/M10 A3040 640 63 -1400 020/08 RMK AO2 SLP308 70012 T10391100 11006 21039 53027
94908KDBQ DBQ20060317060009603/17/06 06:00:31  5-MIN KDBQ 171200Z 03009KT 10SM CLR M04/M10 A3040 640 63 -1400 030/09 RMK AO2
94908KDBQ DBQ20060317060509603/17/06 06:05:31  5-MIN KDBQ 171205Z 04009KT 10SM CLR M04/M11 A3040 640 60 -1400 040/09 RMK AO2
94908KDBQ DBQ20060317061009603/17/06 06:10:31  5-MIN KDBQ 171210Z 04010KT 10SM CLR M04/M11 A3040 640 60 -1400 040/10 RMK AO2
94908KDBQ DBQ20060317061509603/17/06 06:15:31  5-MIN KDBQ 171215Z 04009KT 10SM CLR M04/M11 A3040 630 60 -1400 030/09 RMK AO2
94908KDBQ DBQ20060317062009603/17/06 06:20:31  5-MIN KDBQ 171220Z 04008KT 10SM CLR M04/M11 A3041 630 62 -1500 040/08 RMK AO2
94908KDBQ DBQ20060317062509603/17/06 06:25:31  5-MIN KDBQ 171225Z 04008KT 10SM CLR M04/M11 A3041 630 60 -1500 030/08 RMK AO2
94908KDBQ DBQ20060317063009603/17/06 06:30:31  5-MIN KDBQ 171230Z 03007KT 10SM CLR M04/M11 A3041 630 60 -1500 030/07 RMK AO2
94908KDBQ DBQ20060317063509603/17/06 06:35:31  5-MIN KDBQ 171235Z 02010KT 10SM CLR M04/M11 A3041 620 60 -1500 020/10 RMK AO2
94908KDBQ DBQ20060317064009603/17/06 06:40:31  5-MIN KDBQ 171240Z 03010KT 10SM CLR M04/M11 A3042 620 57 -1500 030/10 RMK AO2
94908KDBQ DBQ20060317064509603/17/06 06:45:31  5-MIN KDBQ 171245Z 04009KT 10SM CLR M04/M11 A3042 620 57 -1500 040/09 RMK AO2
94908KDBQ DBQ20060317065011303/17/06 06:50:31  5-MIN KDBQ 171250Z 04009KT 10SM CLR M04/M11 A3043 610 60 -1500 040/09 RMK AO2 SLP318 T10441111
94908KDBQ DBQ20060317065511303/17/06 06:55:31  5-MIN KDBQ 171255Z 04008KT 10SM CLR M04/M11 A3043 610 60 -1500 030/08 RMK AO2 SLP319 T10441111
94908KDBQ DBQ20060317070009603/17/06 07:00:31  5-MIN KDBQ 171300Z 04008KT 10SM CLR M04/M11 A3043 610 60 -1500 040/08 RMK AO2
94908KDBQ DBQ20060317070509603/17/06 07:05:31  5-MIN KDBQ 171305Z 04007KT 10SM CLR M04/M11 A3043 610 60 -1600 040/07 RMK AO2
94908KDBQ DBQ20060317071009603/17/06 07:10:31  5-MIN KDBQ 171310Z 04008KT 10SM CLR M04/M11 A3043 610 60 -1600 040/08 RMK AO2
94908KDBQ DBQ20060317071509603/17/06 07:15:31  5-MIN KDBQ 171315Z 03008KT 10SM CLR M04/M11 A3043 610 60 -1600 030/08 RMK AO2
94908KDBQ DBQ20060317072009603/17/06 07:20:31  5-MIN KDBQ 171320Z 04009KT 10SM CLR M04/M11 A3043 610 60 -1600 040/09 RMK AO2
94908KDBQ DBQ20060317072509603/17/06 07:25:31  5-MIN KDBQ 171325Z 04010KT 10SM CLR M04/M12 A3044 610 55 -1500 040/10 RMK AO2
94908KDBQ DBQ20060317073009603/17/06 07:30:31  5-MIN KDBQ 171330Z 05009KT 10SM CLR M04/M12 A3044 600 55 -1500 050/09 RMK AO2
94908KDBQ DBQ20060317073509603/17/06 07:35:31  5-MIN KDBQ 171335Z 04009KT 10SM CLR M04/M12 A3044 600 55 -1500 040/09 RMK AO2
94908KDBQ DBQ20060317074009603/17/06 07:40:31  5-MIN KDBQ 171340Z 04009KT 10SM CLR M03/M11 A3044 600 55 -1400 030/09 RMK AO2
94908KDBQ DBQ20060317074509603/17/06 07:45:31  5-MIN KDBQ 171345Z 03008KT 10SM CLR M03/M11 A3044 600 55 -1400 030/08 RMK AO2
94908KDBQ DBQ20060317075011303/17/06 07:50:31  5-MIN KDBQ 171350Z 04009KT 10SM CLR M03/M11 A3044 600 55 -1400 040/09 RMK AO2 SLP324 T10331111
94908KDBQ DBQ20060317075511303/17/06 07:55:31  5-MIN KDBQ 171355Z 04010KT 10SM CLR M03/M11 A3045 600 57 -1400 040/10 RMK AO2 SLP325 T10331106
94908KDBQ DBQ20060317080009603/17/06 08:00:31  5-MIN KDBQ 171400Z 04009KT 10SM CLR M03/M11 A3045 590 55 -1400 040/09 RMK AO2
94908KDBQ DBQ20060317080509603/17/06 08:05:31  5-MIN KDBQ 171405Z 04009KT 10SM CLR M03/M11 A3045 590 55 -1400 040/09 RMK AO2
94908KDBQ DBQ20060317081009603/17/06 08:10:31  5-MIN KDBQ 171410Z 04011KT 10SM CLR M03/M12 A3045 590 53 -1400 040/11 RMK AO2
94908KDBQ DBQ20060317081509603/17/06 08:15:31  5-MIN KDBQ 171415Z 04012KT 10SM CLR M03/M12 A3045 590 50 -1400 030/12 RMK AO2
94908KDBQ DBQ20060317082009603/17/06 08:20:31  5-MIN KDBQ 171420Z 04010KT 10SM CLR M03/M12 A3045 590 48 -1400 040/10 RMK AO2
94908KDBQ DBQ20060317082509603/17/06 08:25:31  5-MIN KDBQ 171425Z 04010KT 10SM CLR M03/M12 A3045 590 48 -1400 040/10 RMK AO2
94908KDBQ DBQ20060317083009603/17/06 08:30:31  5-MIN KDBQ 171430Z 04010KT 10SM CLR M03/M12 A3045 590 48 -1400 040/10 RMK AO2
94908KDBQ DBQ20060317083509603/17/06 08:35:31  5-MIN KDBQ 171435Z 04012KT 10SM CLR M03/M12 A3045 600 48 -1400 040/12 RMK AO2
94908KDBQ DBQ20060317084009603/17/06 08:40:31  5-MIN KDBQ 171440Z 04010KT 10SM CLR M03/M12 A3045 600 48 -1400 040/10 RMK AO2
94908KDBQ DBQ20060317084509603/17/06 08:45:31  5-MIN KDBQ 171445Z 04009KT 10SM CLR M03/M12 A3044 600 50 -1400 040/09 RMK AO2
94908KDBQ DBQ20060317085011903/17/06 08:50:31  5-MIN KDBQ 171450Z 04010KT 10SM CLR M03/M12 A3045 600 50 -1400 040/10 RMK AO2 SLP325 T10281117 53027
94908KDBQ DBQ20060317085511903/17/06 08:55:31  5-MIN KDBQ 171455Z 05012KT 10SM CLR M03/M12 A3045 600 48 -1400 050/12 RMK AO2 SLP325 T10281122 51016
94908KDBQ DBQ20060317090009603/17/06 09:00:31  5-MIN KDBQ 171500Z 04011KT 10SM CLR M03/M12 A3045 590 50 -1400 040/11 RMK AO2
94908KDBQ DBQ20060317090509603/17/06 09:05:31  5-MIN KDBQ 171505Z 04010KT 10SM CLR M03/M11 A3045 590 53 -1400 040/10 RMK AO2
94908KDBQ DBQ20060317091009603/17/06 09:10:31  5-MIN KDBQ 171510Z 04009KT 10SM CLR M03/M11 A3045 590 53 -1400 040/09 RMK AO2
94908KDBQ DBQ20060317091509603/17/06 09:15:31  5-MIN KDBQ 171515Z 04012KT 10SM CLR M03/M11 A3045 590 53 -1400 040/12 RMK AO2
94908KDBQ DBQ20060317092009603/17/06 09:20:31  5-MIN KDBQ 171520Z 03011KT 10SM CLR M03/M11 A3046 590 53 -1400 030/11 RMK AO2
94908KDBQ DBQ20060317092509603/17/06 09:25:31  5-MIN KDBQ 171525Z 04010KT 10SM CLR M02/M11 A3046 590 53 -1300 040/10 RMK AO2
94908KDBQ DBQ20060317093009603/17/06 09:30:31  5-MIN KDBQ 171530Z 04011KT 10SM CLR M02/M11 A3046 590 53 -1300 040/11 RMK AO2
94908KDBQ DBQ20060317093509603/17/06 09:35:31  5-MIN KDBQ 171535Z 04011KT 10SM CLR M02/M11 A3046 580 53 -1300 040/11 RMK AO2
94908KDBQ DBQ20060317094009603/17/06 09:40:31  5-MIN KDBQ 171540Z 05011KT 10SM CLR M02/M11 A3046 580 53 -1300 050/11 RMK AO2
94908KDBQ DBQ20060317094509603/17/06 09:45:31  5-MIN KDBQ 171545Z 04010KT 10SM CLR M02/M11 A3046 580 53 -1300 040/10 RMK AO2
94908KDBQ DBQ20060317095011303/17/06 09:50:31  5-MIN KDBQ 171550Z 04010KT 10SM CLR M02/M11 A3046 580 53 -1300 040/10 RMK AO2 SLP330 T10221106
94908KDBQ DBQ20060317095511303/17/06 09:55:31  5-MIN KDBQ 171555Z 04011KT 10SM CLR M02/M10 A3046 580 55 -1300 040/11 RMK AO2 SLP329 T10221100
94908KDBQ DBQ20060317100009603/17/06 10:00:31  5-MIN KDBQ 171600Z 04009KT 10SM CLR M02/M11 A3046 580 53 -1300 040/09 RMK AO2
94908KDBQ DBQ20060317100509603/17/06 10:05:31  5-MIN KDBQ 171605Z 04009KT 10SM CLR M02/M11 A3046 580 53 -1300 040/09 RMK AO2
94908KDBQ DBQ20060317101009603/17/06 10:10:31  5-MIN KDBQ 171610Z 04010KT 10SM CLR M02/M10 A3046 580 55 -1300 040/10 RMK AO2
94908KDBQ DBQ20060317101509603/17/06 10:15:31  5-MIN KDBQ 171615Z 05011KT 10SM CLR M02/M10 A3046 580 55 -1300 040/11 RMK AO2
94908KDBQ DBQ20060317102009603/17/06 10:20:31  5-MIN KDBQ 171620Z 05009KT 10SM CLR M02/M10 A3046 580 53 -1200 050/09 RMK AO2
94908KDBQ DBQ20060317102509603/17/06 10:25:31  5-MIN KDBQ 171625Z 05007KT 10SM CLR M02/M10 A3047 580 53 -1200 050/07 RMK AO2
94908KDBQ DBQ20060317103009603/17/06 10:30:31  5-MIN KDBQ 171630Z 04009KT 10SM CLR M02/M10 A3046 580 53 -1200 040/09 RMK AO2
94908KDBQ DBQ20060317103509603/17/06 10:35:31  5-MIN KDBQ 171635Z 04009KT 10SM CLR M02/M10 A3046 580 53 -1200 030/09 RMK AO2
94908KDBQ DBQ20060317104009603/17/06 10:40:31  5-MIN KDBQ 171640Z 04008KT 10SM CLR M02/M09 A3047 580 55 -1200 040/08 RMK AO2
94908KDBQ DBQ20060317104509603/17/06 10:45:31  5-MIN KDBQ 171645Z 06007KT 10SM CLR M01/M09 A3047 570 55 -1200 050/07 RMK AO2
94908KDBQ DBQ20060317105011303/17/06 10:50:31  5-MIN KDBQ 171650Z 04009KT 10SM CLR M01/M09 A3047 570 55 -1200 040/09 RMK AO2 SLP332 T10111089
94908KDBQ DBQ20060317105511303/17/06 10:55:31  5-MIN KDBQ 171655Z 05009KT 10SM CLR M01/M10 A3047 570 51 -1200 050/09 RMK AO2 SLP332 T10111100
94908KDBQ DBQ20060317110009603/17/06 11:00:31  5-MIN KDBQ 171700Z 03010KT 10SM CLR M01/M09 A3047 570 55 -1200 030/10 RMK AO2
94908KDBQ DBQ20060317110509603/17/06 11:05:31  5-MIN KDBQ 171705Z 05009KT 10SM CLR M01/M09 A3047 570 53 -1200 050/09 RMK AO2
94908KDBQ DBQ20060317111009603/17/06 11:10:31  5-MIN KDBQ 171710Z 04009KT 10SM CLR M01/M09 A3047 570 53 -1200 040/09 RMK AO2
94908KDBQ DBQ20060317111509603/17/06 11:15:31  5-MIN KDBQ 171715Z 04008KT 10SM CLR M01/M10 A3047 570 51 -1200 030/08 RMK AO2
94908KDBQ DBQ20060317112009603/17/06 11:20:31  5-MIN KDBQ 171720Z 04010KT 10SM CLR M01/M09 A3047 570 53 -1200 040/10 RMK AO2
94908KDBQ DBQ20060317112509603/17/06 11:25:31  5-MIN KDBQ 171725Z 04008KT 10SM CLR M01/M09 A3047 570 53 -1200 040/08 RMK AO2
94908KDBQ DBQ20060317113009603/17/06 11:30:31  5-MIN KDBQ 171730Z 02006KT 10SM CLR M01/M10 A3047 570 49 -1100 020/06 RMK AO2
94908KDBQ DBQ20060317113509603/17/06 11:35:31  5-MIN KDBQ 171735Z 05009KT 10SM CLR M01/M09 A3047 570 51 -1100 050/09 RMK AO2
94908KDBQ DBQ20060317114009603/17/06 11:40:31  5-MIN KDBQ 171740Z 04007KT 10SM CLR M01/M09 A3047 570 51 -1100 040/07 RMK AO2
94908KDBQ DBQ20060317114509603/17/06 11:45:31  5-MIN KDBQ 171745Z 04006KT 10SM CLR M01/M10 A3047 570 49 -1100 040/06 RMK AO2
94908KDBQ DBQ20060317115013003/17/06 11:50:31  5-MIN KDBQ 171750Z 03007KT 10SM CLR 00/M09 A3047 570 49 -1000 030/07 RMK AO2 SLP331 T00001094 10000 21044 51016
94908KDBQ DBQ20060317115513003/17/06 11:55:31  5-MIN KDBQ 171755Z 05008KT 10SM CLR 00/M09 A3047 570 49 -1000 050/08 RMK AO2 SLP332 T00001094 10000 21044 51009
94908KDBQ DBQ20060317120009503/17/06 12:00:31  5-MIN KDBQ 171800Z 04005KT 10SM CLR 00/M09 A3047 570 49 -1000 030/05 RMK AO2
94908KDBQ DBQ20060317120509503/17/06 12:05:31  5-MIN KDBQ 171805Z 04006KT 10SM CLR 01/M09 A3047 570 49 -1000 040/06 RMK AO2
94908KDBQ DBQ20060317121009503/17/06 12:10:31  5-MIN KDBQ 171810Z 06005KT 10SM CLR 00/M09 A3047 570 51 -1000 060/05 RMK AO2
94908KDBQ DBQ20060317121509503/17/06 12:15:31  5-MIN KDBQ 171815Z 05005KT 10SM CLR 01/M09 A3047 570 49 -1000 050/05 RMK AO2
94908KDBQ DBQ20060317122009403/17/06 12:20:31  5-MIN KDBQ 171820Z 02004KT 10SM CLR 01/M08 A3047 570 49 -900 020/04 RMK AO2
94908KDBQ DBQ20060317122509403/17/06 12:25:31  5-MIN KDBQ 171825Z 02007KT 10SM CLR 01/M08 A3047 580 51 -900 020/07 RMK AO2
94908KDBQ DBQ20060317123009403/17/06 12:30:31  5-MIN KDBQ 171830Z 04007KT 10SM CLR 01/M08 A3046 580 51 -900 030/07 RMK AO2
94908KDBQ DBQ20060317123511003/17/06 12:35:31  5-MIN KDBQ 171835Z 02007KT 350V070 10SM CLR 01/M07 A3046 580 54 -900 020/07 350V070 RMK AO2
94908KDBQ DBQ20060317124009403/17/06 12:40:31  5-MIN KDBQ 171840Z 02008KT 10SM CLR 02/M08 A3046 580 49 -800 020/08 RMK AO2
94908KDBQ DBQ20060317124509403/17/06 12:45:31  5-MIN KDBQ 171845Z 02007KT 10SM CLR 02/M07 A3046 580 52 -800 020/07 RMK AO2
94908KDBQ DBQ20060317125011103/17/06 12:50:31  5-MIN KDBQ 171850Z 04007KT 10SM CLR 02/M08 A3046 590 49 -800 040/07 RMK AO2 SLP326 T00171078
94908KDBQ DBQ20060317125511103/17/06 12:55:31  5-MIN KDBQ 171855Z 05008KT 10SM CLR 02/M07 A3046 590 54 -800 050/08 RMK AO2 SLP326 T00171067
94908KDBQ DBQ20060317130009403/17/06 13:00:31  5-MIN KDBQ 171900Z 03007KT 10SM CLR 02/M07 A3045 590 50 -700 030/07 RMK AO2
94908KDBQ DBQ20060317130509403/17/06 13:05:31  5-MIN KDBQ 171905Z 03007KT 10SM CLR 02/M07 A3045 590 52 -700 030/07 RMK AO2
94908KDBQ DBQ20060317131009403/17/06 13:10:31  5-MIN KDBQ 171910Z 35007KT 10SM CLR 02/M07 A3045 590 50 -700 350/07 RMK AO2
94908KDBQ DBQ20060317131509403/17/06 13:15:31  5-MIN KDBQ 171915Z VRB06KT 10SM CLR 02/M07 A3045 590 50 -700 VRB/06 RMK AO2
94908KDBQ DBQ20060317132009403/17/06 13:20:31  5-MIN KDBQ 171920Z 04008KT 10SM CLR 02/M07 A3045 600 52 -700 040/08 RMK AO2
94908KDBQ DBQ20060317132509403/17/06 13:25:31  5-MIN KDBQ 171925Z 04009KT 10SM CLR 02/M07 A3044 600 50 -700 040/09 RMK AO2
94908KDBQ DBQ20060317133009403/17/06 13:30:31  5-MIN KDBQ 171930Z 05008KT 10SM CLR 02/M08 A3044 600 47 -700 050/08 RMK AO2
94908KDBQ DBQ20060317133509403/17/06 13:35:31  5-MIN KDBQ 171935Z 03010KT 10SM CLR 02/M08 A3044 600 45 -700 030/10 RMK AO2
94908KDBQ DBQ20060317134009403/17/06 13:40:31  5-MIN KDBQ 171940Z 04009KT 10SM CLR 02/M09 A3044 600 42 -700 040/09 RMK AO2
94908KDBQ DBQ20060317134509403/17/06 13:45:31  5-MIN KDBQ 171945Z 04008KT 10SM CLR 03/M09 A3044 600 42 -600 030/08 RMK AO2
94908KDBQ DBQ20060317135011103/17/06 13:50:31  5-MIN KDBQ 171950Z 05008KT 10SM CLR 02/M09 A3044 600 42 -700 050/08 RMK AO2 SLP320 T00221094
94908KDBQ DBQ20060317135511103/17/06 13:55:31  5-MIN KDBQ 171955Z 03007KT 10SM CLR 02/M09 A3044 600 42 -700 030/07 RMK AO2 SLP320 T00221094
94908KDBQ DBQ20060317140009403/17/06 14:00:31  5-MIN KDBQ 172000Z 05008KT 10SM CLR 03/M09 A3044 600 42 -600 050/08 RMK AO2
94908KDBQ DBQ20060317140509403/17/06 14:05:31  5-MIN KDBQ 172005Z 05009KT 10SM CLR 02/M09 A3043 610 42 -700 050/09 RMK AO2
94908KDBQ DBQ20060317141009403/17/06 14:10:31  5-MIN KDBQ 172010Z 05008KT 10SM CLR 03/M09 A3043 610 40 -600 050/08 RMK AO2
94908KDBQ DBQ20060317141509403/17/06 14:15:31  5-MIN KDBQ 172015Z 05009KT 10SM CLR 03/M09 A3043 610 40 -600 050/09 RMK AO2
94908KDBQ DBQ20060317142009403/17/06 14:20:31  5-MIN KDBQ 172020Z 04009KT 10SM CLR 03/M09 A3043 610 42 -600 040/09 RMK AO2
94908KDBQ DBQ20060317142511003/17/06 14:25:31  5-MIN KDBQ 172025Z 03008KT 010V070 10SM CLR 03/M09 A3043 610 42 -600 030/08 010V070 RMK AO2
94908KDBQ DBQ20060317143009403/17/06 14:30:31  5-MIN KDBQ 172030Z 05009KT 10SM CLR 03/M09 A3043 610 42 -600 050/09 RMK AO2
94908KDBQ DBQ20060317143509403/17/06 14:35:31  5-MIN KDBQ 172035Z 04008KT 10SM CLR 03/M09 A3043 610 40 -600 040/08 RMK AO2
94908KDBQ DBQ20060317144009403/17/06 14:40:31  5-MIN KDBQ 172040Z 05007KT 10SM CLR 03/M09 A3043 610 40 -600 050/07 RMK AO2
94908KDBQ DBQ20060317144509403/17/06 14:45:31  5-MIN KDBQ 172045Z 05008KT 10SM CLR 03/M08 A3043 610 44 -600 040/08 RMK AO2
94908KDBQ DBQ20060317145011703/17/06 14:50:31  5-MIN KDBQ 172050Z 05005KT 10SM CLR 03/M09 A3043 610 40 -600 050/05 RMK AO2 SLP317 T00281094 51009
94908KDBQ DBQ20060317145511703/17/06 14:55:31  5-MIN KDBQ 172055Z 06007KT 10SM CLR 03/M08 A3043 610 44 -600 060/07 RMK AO2 SLP316 T00281083 56014
94908KDBQ DBQ20060317150009403/17/06 15:00:31  5-MIN KDBQ 172100Z 04007KT 10SM CLR 03/M08 A3043 610 44 -600 040/07 RMK AO2
94908KDBQ DBQ20060317150509403/17/06 15:05:31  5-MIN KDBQ 172105Z 05007KT 10SM CLR 03/M08 A3043 610 44 -600 050/07 RMK AO2
94908KDBQ DBQ20060317151009403/17/06 15:10:31  5-MIN KDBQ 172110Z 07006KT 10SM CLR 03/M09 A3043 610 42 -600 070/06 RMK AO2
94908KDBQ DBQ20060317151509403/17/06 15:15:31  5-MIN KDBQ 172115Z 03006KT 10SM CLR 03/M09 A3043 610 42 -600 030/06 RMK AO2
94908KDBQ DBQ20060317152009403/17/06 15:20:31  5-MIN KDBQ 172120Z 04007KT 10SM CLR 03/M09 A3043 610 42 -600 040/07 RMK AO2
94908KDBQ DBQ20060317152509403/17/06 15:25:31  5-MIN KDBQ 172125Z 01006KT 10SM CLR 03/M08 A3043 610 44 -600 360/06 RMK AO2
94908KDBQ DBQ20060317153009403/17/06 15:30:31  5-MIN KDBQ 172130Z 36007KT 10SM CLR 03/M08 A3043 610 44 -600 360/07 RMK AO2
94908KDBQ DBQ20060317153509403/17/06 15:35:31  5-MIN KDBQ 172135Z 04008KT 10SM CLR 03/M08 A3043 610 42 -600 040/08 RMK AO2
94908KDBQ DBQ20060317154009403/17/06 15:40:31  5-MIN KDBQ 172140Z 02007KT 10SM CLR 03/M09 A3043 610 40 -600 020/07 RMK AO2
94908KDBQ DBQ20060317154509403/17/06 15:45:31  5-MIN KDBQ 172145Z 02008KT 10SM CLR 03/M08 A3043 610 44 -600 020/08 RMK AO2
94908KDBQ DBQ20060317155011103/17/06 15:50:31  5-MIN KDBQ 172150Z 04007KT 10SM CLR 03/M08 A3043 610 42 -600 040/07 RMK AO2 SLP315 T00331083
94908KDBQ DBQ20060317155511103/17/06 15:55:31  5-MIN KDBQ 172155Z 05006KT 10SM CLR 03/M08 A3042 620 42 -600 050/06 RMK AO2 SLP314 T00331083
94908KDBQ DBQ20060317160009403/17/06 16:00:31  5-MIN KDBQ 172200Z 03007KT 10SM CLR 03/M08 A3042 620 44 -600 030/07 RMK AO2
94908KDBQ DBQ20060317160509403/17/06 16:05:31  5-MIN KDBQ 172205Z 03008KT 10SM CLR 03/M08 A3042 620 42 -600 030/08 RMK AO2
94908KDBQ DBQ20060317161009403/17/06 16:10:31  5-MIN KDBQ 172210Z 03007KT 10SM CLR 03/M08 A3042 620 46 -600 030/07 RMK AO2
94908KDBQ DBQ20060317161509403/17/06 16:15:31  5-MIN KDBQ 172215Z 04007KT 10SM CLR 03/M09 A3042 620 42 -600 040/07 RMK AO2
94908KDBQ DBQ20060317162009403/17/06 16:20:31  5-MIN KDBQ 172220Z 05005KT 10SM CLR 03/M10 A3042 620 38 -600 050/05 RMK AO2
94908KDBQ DBQ20060317162509403/17/06 16:25:31  5-MIN KDBQ 172225Z 03009KT 10SM CLR 03/M08 A3042 620 44 -600 030/09 RMK AO2
94908KDBQ DBQ20060317163009403/17/06 16:30:31  5-MIN KDBQ 172230Z 03007KT 10SM CLR 03/M09 A3042 620 42 -600 030/07 RMK AO2
94908KDBQ DBQ20060317163509403/17/06 16:35:31  5-MIN KDBQ 172235Z 03008KT 10SM CLR 03/M09 A3042 620 42 -600 030/08 RMK AO2
94908KDBQ DBQ20060317164009403/17/06 16:40:31  5-MIN KDBQ 172240Z 05008KT 10SM CLR 03/M09 A3043 610 42 -600 040/08 RMK AO2
94908KDBQ DBQ20060317164509403/17/06 16:45:31  5-MIN KDBQ 172245Z 04007KT 10SM CLR 03/M09 A3043 610 42 -600 040/07 RMK AO2
94908KDBQ DBQ20060317165011103/17/06 16:50:31  5-MIN KDBQ 172250Z 03005KT 10SM CLR 03/M09 A3043 610 40 -600 030/05 RMK AO2 SLP316 T00281094
94908KDBQ DBQ20060317165511103/17/06 16:55:31  5-MIN KDBQ 172255Z 04008KT 10SM CLR 03/M09 A3043 610 40 -600 040/08 RMK AO2 SLP317 T00281094
94908KDBQ DBQ20060317170009403/17/06 17:00:31  5-MIN KDBQ 172300Z 05007KT 10SM CLR 02/M09 A3043 610 42 -700 050/07 RMK AO2
94908KDBQ DBQ20060317170509403/17/06 17:05:31  5-MIN KDBQ 172305Z 04005KT 10SM CLR 02/M09 A3043 610 42 -700 040/05 RMK AO2
94908KDBQ DBQ20060317171009403/17/06 17:10:31  5-MIN KDBQ 172310Z 01007KT 10SM CLR 02/M09 A3043 610 44 -700 360/07 RMK AO2
94908KDBQ DBQ20060317171509403/17/06 17:15:31  5-MIN KDBQ 172315Z 36005KT 10SM CLR 02/M09 A3043 610 44 -700 360/05 RMK AO2
94908KDBQ DBQ20060317172009403/17/06 17:20:31  5-MIN KDBQ 172320Z 34008KT 10SM CLR 02/M09 A3043 610 44 -700 340/08 RMK AO2
94908KDBQ DBQ20060317172509403/17/06 17:25:31  5-MIN KDBQ 172325Z 36006KT 10SM CLR 02/M09 A3043 610 43 -800 360/06 RMK AO2
94908KDBQ DBQ20060317173009403/17/06 17:30:31  5-MIN KDBQ 172330Z 35006KT 10SM CLR 02/M09 A3043 610 45 -800 350/06 RMK AO2
94908KDBQ DBQ20060317173509403/17/06 17:35:31  5-MIN KDBQ 172335Z 01005KT 10SM CLR 02/M09 A3043 610 45 -800 010/05 RMK AO2
94908KDBQ DBQ20060317174009403/17/06 17:40:31  5-MIN KDBQ 172340Z 01006KT 10SM CLR 01/M09 A3043 610 47 -800 010/06 RMK AO2
94908KDBQ DBQ20060317174509403/17/06 17:45:31  5-MIN KDBQ 172345Z 36007KT 10SM CLR 01/M09 A3043 610 47 -800 360/07 RMK AO2
94908KDBQ DBQ20060317175012903/17/06 17:50:31  5-MIN KDBQ 172350Z 01007KT 10SM CLR 01/M09 A3043 610 47 -800 010/07 RMK AO2 SLP319 T00111089 10033 20000 56014
94908KDBQ DBQ20060317175512903/17/06 17:55:31  5-MIN KDBQ 172355Z 01007KT 10SM CLR 01/M09 A3043 610 45 -800 010/07 RMK AO2 SLP319 T00111094 10033 20000 53000
94908KDBQ DBQ20060317180009403/17/06 18:00:31  5-MIN KDBQ 180000Z 01007KT 10SM CLR 01/M09 A3043 610 45 -800 010/07 RMK AO2
94908KDBQ DBQ20060317180509403/17/06 18:05:31  5-MIN KDBQ 180005Z 01006KT 10SM CLR 01/M09 A3043 610 47 -900 010/06 RMK AO2
94908KDBQ DBQ20060317181009403/17/06 18:10:31  5-MIN KDBQ 180010Z 01006KT 10SM CLR 01/M09 A3043 610 49 -900 010/06 RMK AO2
94908KDBQ DBQ20060317181509403/17/06 18:15:31  5-MIN KDBQ 180015Z 01006KT 10SM CLR 01/M09 A3043 610 47 -900 010/06 RMK AO2
94908KDBQ DBQ20060317182009503/17/06 18:20:31  5-MIN KDBQ 180020Z 01006KT 10SM CLR 00/M09 A3043 610 49 -1000 010/06 RMK AO2
94908KDBQ DBQ20060317182509403/17/06 18:25:31  5-MIN KDBQ 180025Z 01005KT 10SM CLR 01/M09 A3043 610 47 -900 010/05 RMK AO2
94908KDBQ DBQ20060317183009503/17/06 18:30:31  5-MIN KDBQ 180030Z 01005KT 10SM CLR 00/M10 A3043 610 47 -1000 010/05 RMK AO2
94908KDBQ DBQ20060317183509603/17/06 18:35:31  5-MIN KDBQ 180035Z 01005KT 10SM CLR M01/M10 A3043 610 49 -1100 010/05 RMK AO2
94908KDBQ DBQ20060317184009603/17/06 18:40:31  5-MIN KDBQ 180040Z 01005KT 10SM CLR M01/M09 A3043 610 51 -1000 010/05 RMK AO2
94908KDBQ DBQ20060317184509503/17/06 18:45:31  5-MIN KDBQ 180045Z 01005KT 10SM CLR 00/M09 A3042 620 49 -1000 010/05 RMK AO2
94908KDBQ DBQ20060317185012303/17/06 18:50:31  5-MIN KDBQ 180050Z AUTO 02006KT 10SM CLR M01/M09 A3042 620 55 -1100 010/06 RMK AO2 SLP317 T10111089 TSNO
94908KDBQ DBQ20060317185512303/17/06 18:55:31  5-MIN KDBQ 180055Z AUTO 02005KT 10SM CLR M02/M09 A3042 620 58 -1200 010/05 RMK AO2 SLP316 T10171089 TSNO
94908KDBQ DBQ20060317190010603/17/06 19:00:31  5-MIN KDBQ 180100Z AUTO 02004KT 10SM CLR M02/M08 A3042 620 60 -1200 020/04 RMK AO2 TSNO
94908KDBQ DBQ20060317190510603/17/06 19:05:31  5-MIN KDBQ 180105Z AUTO 02005KT 10SM CLR M02/M09 A3042 620 58 -1200 020/05 RMK AO2 TSNO
94908KDBQ DBQ20060317191010603/17/06 19:10:31  5-MIN KDBQ 180110Z AUTO 02004KT 10SM CLR M02/M09 A3042 620 60 -1300 020/04 RMK AO2 TSNO
94908KDBQ DBQ20060317191510603/17/06 19:15:31  5-MIN KDBQ 180115Z AUTO 02004KT 10SM CLR M02/M09 A3042 620 55 -1200 020/04 RMK AO2 TSNO
94908KDBQ DBQ20060317192010603/17/06 19:20:31  5-MIN KDBQ 180120Z AUTO 02003KT 10SM CLR M02/M09 A3042 620 58 -1200 020/03 RMK AO2 TSNO
94908KDBQ DBQ20060317192510603/17/06 19:25:31  5-MIN KDBQ 180125Z AUTO 02003KT 10SM CLR M02/M09 A3042 620 58 -1200 010/03 RMK AO2 TSNO
94908KDBQ DBQ20060317193010603/17/06 19:30:31  5-MIN KDBQ 180130Z AUTO 00000KT 10SM CLR M01/M10 A3042 620 49 -1000 000/00 RMK AO2 TSNO
94908KDBQ DBQ20060317193510603/17/06 19:35:31  5-MIN KDBQ 180135Z AUTO 36003KT 10SM CLR M01/M09 A3042 620 53 -1100 360/03 RMK AO2 TSNO
94908KDBQ DBQ20060317194010603/17/06 19:40:31  5-MIN KDBQ 180140Z AUTO 35003KT 10SM CLR M01/M10 A3042 620 49 -1000 350/03 RMK AO2 TSNO
94908KDBQ DBQ20060317194510603/17/06 19:45:31  5-MIN KDBQ 180145Z AUTO 00000KT 10SM CLR M01/M09 A3042 620 55 -1100 000/00 RMK AO2 TSNO
94908KDBQ DBQ20060317195012303/17/06 19:50:31  5-MIN KDBQ 180150Z AUTO 00000KT 10SM CLR M01/M08 A3042 620 58 -1100 000/00 RMK AO2 SLP315 T10111083 TSNO
94908KDBQ DBQ20060317195512303/17/06 19:55:31  5-MIN KDBQ 180155Z AUTO 00000KT 10SM CLR M01/M08 A3042 620 58 -1100 000/00 RMK AO2 SLP315 T10111083 TSNO
94908KDBQ DBQ20060317200010603/17/06 20:00:31  5-MIN KDBQ 180200Z AUTO 00000KT 10SM CLR M02/M08 A3041 620 60 -1200 000/00 RMK AO2 TSNO
94908KDBQ DBQ20060317200510603/17/06 20:05:31  5-MIN KDBQ 180205Z AUTO 00000KT 10SM CLR M02/M09 A3041 630 58 -1200 000/00 RMK AO2 TSNO
94908KDBQ DBQ20060317201010603/17/06 20:10:31  5-MIN KDBQ 180210Z AUTO 01004KT 10SM CLR M02/M08 A3041 630 60 -1200 010/04 RMK AO2 TSNO
94908KDBQ DBQ20060317201510603/17/06 20:15:31  5-MIN KDBQ 180215Z AUTO 36004KT 10SM CLR M01/M09 A3042 620 51 -1000 360/04 RMK AO2 TSNO
94908KDBQ DBQ20060317202010603/17/06 20:20:31  5-MIN KDBQ 180220Z AUTO 01004KT 10SM CLR M01/M09 A3041 620 53 -1100 010/04 RMK AO2 TSNO
94908KDBQ DBQ20060317202510603/17/06 20:25:31  5-MIN KDBQ 180225Z AUTO 01004KT 10SM CLR M03/M09 A3042 620 63 -1300 010/04 RMK AO2 TSNO
94908KDBQ DBQ20060317203010603/17/06 20:30:31  5-MIN KDBQ 180230Z AUTO 02005KT 10SM CLR M02/M09 A3041 630 60 -1200 020/05 RMK AO2 TSNO
94908KDBQ DBQ20060317203510603/17/06 20:35:31  5-MIN KDBQ 180235Z AUTO 03004KT 10SM CLR M02/M09 A3041 630 58 -1200 030/04 RMK AO2 TSNO
94908KDBQ DBQ20060317204010603/17/06 20:40:31  5-MIN KDBQ 180240Z AUTO 03004KT 10SM CLR M02/M09 A3041 630 60 -1200 030/04 RMK AO2 TSNO
94908KDBQ DBQ20060317204510603/17/06 20:45:31  5-MIN KDBQ 180245Z AUTO 03004KT 10SM CLR M02/M09 A3041 630 58 -1200 030/04 RMK AO2 TSNO
94908KDBQ DBQ20060317205012903/17/06 20:50:31  5-MIN KDBQ 180250Z AUTO 04005KT 10SM CLR M02/M09 A3041 630 58 -1200 040/05 RMK AO2 SLP311 T10171089 53000 TSNO
94908KDBQ DBQ20060317205512903/17/06 20:55:31  5-MIN KDBQ 180255Z AUTO 03005KT 10SM CLR M02/M09 A3041 630 60 -1200 030/05 RMK AO2 SLP311 T10221089 56008 TSNO
94908KDBQ DBQ20060317210010603/17/06 21:00:31  5-MIN KDBQ 180300Z AUTO 04004KT 10SM CLR M02/M08 A3041 630 63 -1200 040/04 RMK AO2 TSNO
94908KDBQ DBQ20060317210510603/17/06 21:05:31  5-MIN KDBQ 180305Z AUTO 03004KT 10SM CLR M03/M09 A3041 630 63 -1300 030/04 RMK AO2 TSNO
94908KDBQ DBQ20060317211010603/17/06 21:10:31  5-MIN KDBQ 180310Z AUTO 03004KT 10SM CLR M03/M09 A3041 630 63 -1300 030/04 RMK AO2 TSNO
94908KDBQ DBQ20060317211510603/17/06 21:15:31  5-MIN KDBQ 180315Z AUTO 02003KT 10SM CLR M03/M09 A3041 630 60 -1300 020/03 RMK AO2 TSNO
94908KDBQ DBQ20060317212010603/17/06 21:20:31  5-MIN KDBQ 180320Z AUTO 01003KT 10SM CLR M03/M09 A3041 630 60 -1300 010/03 RMK AO2 TSNO
94908KDBQ DBQ20060317212510603/17/06 21:25:31  5-MIN KDBQ 180325Z AUTO 01004KT 10SM CLR M02/M09 A3041 620 58 -1200 010/04 RMK AO2 TSNO
94908KDBQ DBQ20060317213010603/17/06 21:30:31  5-MIN KDBQ 180330Z AUTO 01004KT 10SM CLR M02/M09 A3042 620 55 -1200 010/04 RMK AO2 TSNO
94908KDBQ DBQ20060317213510603/17/06 21:35:31  5-MIN KDBQ 180335Z AUTO 01003KT 10SM CLR M02/M09 A3042 620 58 -1300 010/03 RMK AO2 TSNO
94908KDBQ DBQ20060317214010603/17/06 21:40:31  5-MIN KDBQ 180340Z AUTO 01004KT 10SM CLR M02/M09 A3042 620 58 -1300 010/04 RMK AO2 TSNO
94908KDBQ DBQ20060317214510603/17/06 21:45:31  5-MIN KDBQ 180345Z AUTO 01004KT 10SM CLR M03/M09 A3042 620 63 -1300 010/04 RMK AO2 TSNO
94908KDBQ DBQ20060317215012303/17/06 21:50:31  5-MIN KDBQ 180350Z AUTO 02005KT 10SM CLR M03/M09 A3042 620 65 -1400 020/05 RMK AO2 SLP316 T10331089 TSNO
94908KDBQ DBQ20060317215512303/17/06 21:55:31  5-MIN KDBQ 180355Z AUTO 02005KT 10SM CLR M03/M09 A3042 620 63 -1300 020/05 RMK AO2 SLP314 T10281089 TSNO
94908KDBQ DBQ20060317220010603/17/06 22:00:31  5-MIN KDBQ 180400Z AUTO 02003KT 10SM CLR M03/M09 A3042 620 65 -1400 020/03 RMK AO2 TSNO
94908KDBQ DBQ20060317220510603/17/06 22:05:31  5-MIN KDBQ 180405Z AUTO 02003KT 10SM CLR M03/M09 A3042 620 63 -1300 020/03 RMK AO2 TSNO
94908KDBQ DBQ20060317221010603/17/06 22:10:31  5-MIN KDBQ 180410Z AUTO 02003KT 10SM CLR M03/M09 A3042 620 63 -1300 020/03 RMK AO2 TSNO
94908KDBQ DBQ20060317221510603/17/06 22:15:31  5-MIN KDBQ 180415Z AUTO 01003KT 10SM CLR M02/M09 A3042 620 60 -1300 010/03 RMK AO2 TSNO
94908KDBQ DBQ20060317222010603/17/06 22:20:31  5-MIN KDBQ 180420Z AUTO 01005KT 10SM CLR M03/M09 A3042 620 60 -1300 010/05 RMK AO2 TSNO
94908KDBQ DBQ20060317222510603/17/06 22:25:31  5-MIN KDBQ 180425Z AUTO 01005KT 10SM CLR M03/M09 A3042 620 65 -1400 010/05 RMK AO2 TSNO
94908KDBQ DBQ20060317223010603/17/06 22:30:31  5-MIN KDBQ 180430Z AUTO 01004KT 10SM CLR M03/M09 A3042 620 65 -1400 010/04 RMK AO2 TSNO
94908KDBQ DBQ20060317223510603/17/06 22:35:31  5-MIN KDBQ 180435Z AUTO 01004KT 10SM CLR M03/M09 A3042 620 65 -1400 010/04 RMK AO2 TSNO
94908KDBQ DBQ20060317224010603/17/06 22:40:31  5-MIN KDBQ 180440Z AUTO 01004KT 10SM CLR M03/M09 A3042 620 65 -1400 010/04 RMK AO2 TSNO
94908KDBQ DBQ20060317224510603/17/06 22:45:31  5-MIN KDBQ 180445Z AUTO 01003KT 10SM CLR M03/M09 A3042 620 63 -1400 010/03 RMK AO2 TSNO
94908KDBQ DBQ20060317225012303/17/06 22:50:31  5-MIN KDBQ 180450Z AUTO 01004KT 10SM CLR M03/M09 A3042 620 63 -1400 010/04 RMK AO2 SLP317 T10331094 TSNO
94908KDBQ DBQ20060317225512303/17/06 22:55:31  5-MIN KDBQ 180455Z AUTO 36003KT 10SM CLR M03/M09 A3042 610 63 -1400 360/03 RMK AO2 SLP318 T10331094 TSNO
94908KDBQ DBQ20060317230010603/17/06 23:00:31  5-MIN KDBQ 180500Z AUTO 36003KT 10SM CLR M03/M10 A3042 620 58 -1300 360/03 RMK AO2 TSNO
94908KDBQ DBQ20060317230510603/17/06 23:05:31  5-MIN KDBQ 180505Z AUTO 36003KT 10SM CLR M03/M10 A3043 610 58 -1300 360/03 RMK AO2 TSNO
94908KDBQ DBQ20060317231010603/17/06 23:10:31  5-MIN KDBQ 180510Z AUTO 01004KT 10SM CLR M03/M10 A3043 610 58 -1300 010/04 RMK AO2 TSNO
94908KDBQ DBQ20060317231510603/17/06 23:15:31  5-MIN KDBQ 180515Z AUTO 01004KT 10SM CLR M03/M09 A3042 620 60 -1300 010/04 RMK AO2 TSNO
94908KDBQ DBQ20060317232010603/17/06 23:20:31  5-MIN KDBQ 180520Z AUTO 01005KT 10SM CLR M03/M10 A3042 620 58 -1300 010/05 RMK AO2 TSNO
94908KDBQ DBQ20060317232510603/17/06 23:25:31  5-MIN KDBQ 180525Z AUTO 01004KT 10SM CLR M03/M10 A3042 620 58 -1300 010/04 RMK AO2 TSNO
94908KDBQ DBQ20060317233010603/17/06 23:30:31  5-MIN KDBQ 180530Z AUTO 36003KT 10SM CLR M03/M10 A3042 620 58 -1300 360/03 RMK AO2 TSNO
94908KDBQ DBQ20060317233510603/17/06 23:35:31  5-MIN KDBQ 180535Z AUTO 36004KT 10SM CLR M03/M10 A3042 620 58 -1300 350/04 RMK AO2 TSNO
94908KDBQ DBQ20060317234010603/17/06 23:40:31  5-MIN KDBQ 180540Z AUTO 34004KT 10SM CLR M02/M10 A3042 620 55 -1300 340/04 RMK AO2 TSNO
94908KDBQ DBQ20060317234510603/17/06 23:45:31  5-MIN KDBQ 180545Z AUTO 33004KT 10SM CLR M03/M09 A3043 610 60 -1300 330/04 RMK AO2 TSNO
94908KDBQ DBQ20060317235015103/17/06 23:50:31  5-MIN KDBQ 180550Z AUTO 32003KT 10SM CLR M03/M09 A3043 610 65 -1400 320/03 RMK AO2 SLP318 T10331089 10011 21039 400331044 56008 TSNO
94908KDBQ DBQ20060317235515103/17/06 23:55:31  5-MIN KDBQ 180555Z AUTO 32003KT 10SM CLR M04/M09 A3043 610 71 -1500 320/03 RMK AO2 SLP319 T10441089 10011 21044 400331044 51008 TSNO
94908KDBQ DBQ20060318000010603/18/06 00:00:38  5-MIN KDBQ 180600Z AUTO 31004KT 10SM CLR M05/M08 A3043 610 77 -1600 310/04 RMK AO2 TSNO
94908KDBQ DBQ20060318000510603/18/06 00:05:31  5-MIN KDBQ 180605Z AUTO 32004KT 10SM CLR M05/M09 A3044 600 74 -1600 320/04 RMK AO2 TSNO
94908KDBQ DBQ20060318001010603/18/06 00:10:31  5-MIN KDBQ 180610Z AUTO 33005KT 10SM CLR M05/M09 A3044 600 74 -1600 330/05 RMK AO2 TSNO
94908KDBQ DBQ20060318001510603/18/06 00:15:32  5-MIN KDBQ 180615Z AUTO 34004KT 10SM CLR M04/M09 A3044 600 68 -1500 340/04 RMK AO2 TSNO
94908KDBQ DBQ20060318002010603/18/06 00:20:31  5-MIN KDBQ 180620Z AUTO 34005KT 10SM CLR M04/M09 A3044 600 71 -1600 340/05 RMK AO2 TSNO
94908KDBQ DBQ20060318002510603/18/06 00:25:31  5-MIN KDBQ 180625Z AUTO 36005KT 10SM CLR M04/M09 A3044 610 68 -1600 360/05 RMK AO2 TSNO
94908KDBQ DBQ20060318003010603/18/06 00:30:31  5-MIN KDBQ 180630Z AUTO 36006KT 10SM CLR M04/M09 A3043 610 65 -1500 360/06 RMK AO2 TSNO
94908KDBQ DBQ20060318003510603/18/06 00:35:31  5-MIN KDBQ 180635Z AUTO 01005KT 10SM CLR M03/M10 A3043 610 60 -1400 010/05 RMK AO2 TSNO
94908KDBQ DBQ20060318004010603/18/06 00:40:31  5-MIN KDBQ 180640Z AUTO 01005KT 10SM CLR M03/M10 A3044 600 60 -1400 010/05 RMK AO2 TSNO
94908KDBQ DBQ20060318004510603/18/06 00:45:31  5-MIN KDBQ 180645Z AUTO 01004KT 10SM CLR M04/M10 A3044 600 63 -1500 010/04 RMK AO2 TSNO
94908KDBQ DBQ20060318005012303/18/06 00:50:31  5-MIN KDBQ 180650Z AUTO 01005KT 10SM CLR M04/M10 A3044 600 63 -1500 360/05 RMK AO2 SLP321 T10391100 TSNO
94908KDBQ DBQ20060318005512303/18/06 00:55:31  5-MIN KDBQ 180655Z AUTO 36005KT 10SM CLR M04/M10 A3044 600 63 -1500 360/05 RMK AO2 SLP322 T10391100 TSNO
94908KDBQ DBQ20060318010010603/18/06 01:00:31  5-MIN KDBQ 180700Z AUTO 35004KT 10SM CLR M04/M11 A3044 600 60 -1500 350/04 RMK AO2 TSNO
94908KDBQ DBQ20060318010510603/18/06 01:05:31  5-MIN KDBQ 180705Z AUTO 35004KT 10SM CLR M03/M11 A3045 600 57 -1400 350/04 RMK AO2 TSNO
94908KDBQ DBQ20060318011010603/18/06 01:10:31  5-MIN KDBQ 180710Z AUTO 35004KT 10SM CLR M03/M11 A3045 590 55 -1400 350/04 RMK AO2 TSNO
94908KDBQ DBQ20060318011510603/18/06 01:15:31  5-MIN KDBQ 180715Z AUTO 35004KT 10SM CLR M03/M11 A3045 590 55 -1400 350/04 RMK AO2 TSNO
94908KDBQ DBQ20060318012010603/18/06 01:20:31  5-MIN KDBQ 180720Z AUTO 36004KT 10SM CLR M03/M11 A3045 600 57 -1400 360/04 RMK AO2 TSNO
94908KDBQ DBQ20060318012510603/18/06 01:25:31  5-MIN KDBQ 180725Z AUTO 36004KT 10SM CLR M03/M11 A3044 600 57 -1400 360/04 RMK AO2 TSNO
94908KDBQ DBQ20060318013010603/18/06 01:30:31  5-MIN KDBQ 180730Z AUTO 01005KT 10SM CLR M03/M11 A3044 600 57 -1400 010/05 RMK AO2 TSNO
94908KDBQ DBQ20060318013510603/18/06 01:35:31  5-MIN KDBQ 180735Z AUTO 02005KT 10SM CLR M04/M11 A3044 600 60 -1500 020/05 RMK AO2 TSNO
94908KDBQ DBQ20060318014010603/18/06 01:40:31  5-MIN KDBQ 180740Z AUTO 02005KT 10SM CLR M04/M10 A3044 600 63 -1500 020/05 RMK AO2 TSNO
94908KDBQ DBQ20060318014510603/18/06 01:45:31  5-MIN KDBQ 180745Z AUTO 02004KT 10SM CLR M04/M11 A3044 600 60 -1500 020/04 RMK AO2 TSNO
94908KDBQ DBQ20060318015012303/18/06 01:50:31  5-MIN KDBQ 180750Z AUTO 02004KT 10SM CLR M03/M11 A3044 600 57 -1400 020/04 RMK AO2 SLP321 T10331106 TSNO
94908KDBQ DBQ20060318015512303/18/06 01:55:31  5-MIN KDBQ 180755Z AUTO 01004KT 10SM CLR M04/M11 A3044 600 60 -1500 010/04 RMK AO2 SLP321 T10391106 TSNO
94908KDBQ DBQ20060318020010603/18/06 02:00:31  5-MIN KDBQ 180800Z AUTO 01004KT 10SM CLR M03/M11 A3044 610 57 -1400 010/04 RMK AO2 TSNO
94908KDBQ DBQ20060318020510603/18/06 02:05:31  5-MIN KDBQ 180805Z AUTO 02005KT 10SM CLR M03/M11 A3043 610 57 -1400 020/05 RMK AO2 TSNO
94908KDBQ DBQ20060318021010603/18/06 02:10:31  5-MIN KDBQ 180810Z AUTO 02006KT 10SM CLR M03/M10 A3043 610 60 -1400 020/06 RMK AO2 TSNO
94908KDBQ DBQ20060318021510603/18/06 02:15:31  5-MIN KDBQ 180815Z AUTO 01006KT 10SM CLR M04/M10 A3043 610 63 -1500 010/06 RMK AO2 TSNO
94908KDBQ DBQ20060318022010603/18/06 02:20:31  5-MIN KDBQ 180820Z AUTO 02006KT 10SM CLR M04/M10 A3043 610 63 -1500 010/06 RMK AO2 TSNO
94908KDBQ DBQ20060318022510603/18/06 02:25:31  5-MIN KDBQ 180825Z AUTO 02006KT 10SM CLR M04/M09 A3043 610 65 -1500 020/06 RMK AO2 TSNO
94908KDBQ DBQ20060318023010603/18/06 02:30:31  5-MIN KDBQ 180830Z AUTO 03006KT 10SM CLR M04/M09 A3043 610 65 -1500 030/06 RMK AO2 TSNO
94908KDBQ DBQ20060318023510603/18/06 02:35:31  5-MIN KDBQ 180835Z AUTO 03007KT 10SM CLR M04/M09 A3043 610 65 -1500 030/07 RMK AO2 TSNO
94908KDBQ DBQ20060318024010603/18/06 02:40:31  5-MIN KDBQ 180840Z AUTO 03007KT 10SM CLR M04/M09 A3042 610 65 -1500 030/07 RMK AO2 TSNO
94908KDBQ DBQ20060318024510603/18/06 02:45:31  5-MIN KDBQ 180845Z AUTO 03006KT 10SM CLR M04/M09 A3042 620 65 -1500 030/06 RMK AO2 TSNO
94908KDBQ DBQ20060318025012903/18/06 02:50:31  5-MIN KDBQ 180850Z AUTO 04006KT 10SM CLR M04/M09 A3042 620 65 -1500 040/06 RMK AO2 SLP315 T10391094 51008 TSNO
94908KDBQ DBQ20060318025512903/18/06 02:55:31  5-MIN KDBQ 180855Z AUTO 04006KT 10SM CLR M04/M09 A3042 620 65 -1500 040/06 RMK AO2 SLP314 T10391094 58004 TSNO
94908KDBQ DBQ20060318030010603/18/06 03:00:31  5-MIN KDBQ 180900Z AUTO 03006KT 10SM CLR M04/M09 A3042 620 65 -1500 030/06 RMK AO2 TSNO
94908KDBQ DBQ20060318030510603/18/06 03:05:31  5-MIN KDBQ 180905Z AUTO 03005KT 10SM CLR M04/M09 A3042 620 68 -1500 030/05 RMK AO2 TSNO
94908KDBQ DBQ20060318031010603/18/06 03:10:31  5-MIN KDBQ 180910Z AUTO 03006KT 10SM CLR M04/M09 A3042 620 68 -1500 030/06 RMK AO2 TSNO
94908KDBQ DBQ20060318031510603/18/06 03:15:31  5-MIN KDBQ 180915Z AUTO 02006KT 10SM CLR M04/M09 A3042 620 71 -1500 020/06 RMK AO2 TSNO
94908KDBQ DBQ20060318032010603/18/06 03:20:31  5-MIN KDBQ 180920Z AUTO 02007KT 10SM CLR M04/M09 A3042 620 68 -1500 020/07 RMK AO2 TSNO
94908KDBQ DBQ20060318032510603/18/06 03:25:31  5-MIN KDBQ 180925Z AUTO 02007KT 10SM CLR M04/M09 A3042 620 68 -1500 010/07 RMK AO2 TSNO
94908KDBQ DBQ20060318033010603/18/06 03:30:31  5-MIN KDBQ 180930Z AUTO 02006KT 10SM CLR M04/M09 A3042 620 71 -1500 020/06 RMK AO2 TSNO
94908KDBQ DBQ20060318033510603/18/06 03:35:31  5-MIN KDBQ 180935Z AUTO 02006KT 10SM CLR M04/M09 A3042 620 71 -1500 020/06 RMK AO2 TSNO
94908KDBQ DBQ20060318034010603/18/06 03:40:31  5-MIN KDBQ 180940Z AUTO 02007KT 10SM CLR M04/M09 A3042 620 71 -1500 020/07 RMK AO2 TSNO
94908KDBQ DBQ20060318034510603/18/06 03:45:31  5-MIN KDBQ 180945Z AUTO 03007KT 10SM CLR M04/M09 A3042 620 68 -1500 030/07 RMK AO2 TSNO
94908KDBQ DBQ20060318035012303/18/06 03:50:31  5-MIN KDBQ 180950Z AUTO 03007KT 10SM CLR M04/M09 A3041 620 68 -1500 030/07 RMK AO2 SLP312 T10391089 TSNO
94908KDBQ DBQ20060318035512303/18/06 03:55:31  5-MIN KDBQ 180955Z AUTO 04007KT 10SM CLR M04/M09 A3041 620 71 -1500 030/07 RMK AO2 SLP313 T10441089 TSNO
94908KDBQ DBQ20060318040010603/18/06 04:00:31  5-MIN KDBQ 181000Z AUTO 03008KT 10SM CLR M04/M09 A3041 630 71 -1500 030/08 RMK AO2 TSNO
94908KDBQ DBQ20060318040510603/18/06 04:05:31  5-MIN KDBQ 181005Z AUTO 03007KT 10SM CLR M04/M09 A3041 630 71 -1500 030/07 RMK AO2 TSNO
94908KDBQ DBQ20060318041010603/18/06 04:10:31  5-MIN KDBQ 181010Z AUTO 02006KT 10SM CLR M04/M09 A3042 620 71 -1500 020/06 RMK AO2 TSNO
94908KDBQ DBQ20060318041510603/18/06 04:15:31  5-MIN KDBQ 181015Z AUTO 02006KT 10SM CLR M04/M09 A3042 620 71 -1500 020/06 RMK AO2 TSNO
94908KDBQ DBQ20060318042010603/18/06 04:20:31  5-MIN KDBQ 181020Z AUTO 02005KT 10SM CLR M04/M09 A3042 620 68 -1500 010/05 RMK AO2 TSNO
94908KDBQ DBQ20060318042510603/18/06 04:25:31  5-MIN KDBQ 181025Z AUTO 01003KT 10SM CLR M04/M09 A3042 620 68 -1500 010/03 RMK AO2 TSNO
94908KDBQ DBQ20060318043010603/18/06 04:30:31  5-MIN KDBQ 181030Z AUTO 36003KT 10SM CLR M04/M09 A3043 610 68 -1500 360/03 RMK AO2 TSNO
94908KDBQ DBQ20060318043510603/18/06 04:35:31  5-MIN KDBQ 181035Z AUTO 36003KT 10SM CLR M04/M10 A3043 610 65 -1500 360/03 RMK AO2 TSNO
94908KDBQ DBQ20060318044010603/18/06 04:40:31  5-MIN KDBQ 181040Z AUTO 36003KT 10SM CLR M04/M10 A3043 610 65 -1500 360/03 RMK AO2 TSNO
94908KDBQ DBQ20060318044510603/18/06 04:45:31  5-MIN KDBQ 181045Z AUTO 36004KT 10SM CLR M04/M10 A3043 610 65 -1500 360/04 RMK AO2 TSNO
94908KDBQ DBQ20060318045012303/18/06 04:50:31  5-MIN KDBQ 181050Z AUTO 36004KT 10SM CLR M05/M10 A3043 610 68 -1600 360/04 RMK AO2 SLP318 T10501100 TSNO
94908KDBQ DBQ20060318045512303/18/06 04:55:31  5-MIN KDBQ 181055Z AUTO 36004KT 10SM CLR M05/M10 A3043 610 68 -1600 350/04 RMK AO2 SLP318 T10501100 TSNO
94908KDBQ DBQ20060318050010603/18/06 05:00:31  5-MIN KDBQ 181100Z AUTO 36004KT 10SM CLR M05/M10 A3043 610 68 -1600 360/04 RMK AO2 TSNO
94908KDBQ DBQ20060318050510603/18/06 05:05:31  5-MIN KDBQ 181105Z AUTO 01005KT 10SM CLR M05/M09 A3043 610 71 -1600 010/05 RMK AO2 TSNO
94908KDBQ DBQ20060318051010603/18/06 05:10:31  5-MIN KDBQ 181110Z AUTO 01006KT 10SM CLR M04/M09 A3043 610 68 -1500 010/06 RMK AO2 TSNO
94908KDBQ DBQ20060318051510603/18/06 05:15:31  5-MIN KDBQ 181115Z AUTO 02007KT 10SM CLR M05/M09 A3043 610 71 -1600 020/07 RMK AO2 TSNO
94908KDBQ DBQ20060318052010603/18/06 05:20:31  5-MIN KDBQ 181120Z AUTO 02007KT 10SM CLR M05/M09 A3043 610 71 -1600 020/07 RMK AO2 TSNO
94908KDBQ DBQ20060318052510603/18/06 05:25:31  5-MIN KDBQ 181125Z AUTO 01006KT 10SM CLR M04/M09 A3043 610 68 -1500 010/06 RMK AO2 TSNO
94908KDBQ DBQ20060318053010603/18/06 05:30:31  5-MIN KDBQ 181130Z AUTO 01005KT 10SM CLR M04/M09 A3043 610 68 -1500 010/05 RMK AO2 TSNO
94908KDBQ DBQ20060318053510603/18/06 05:35:31  5-MIN KDBQ 181135Z AUTO 01005KT 10SM CLR M05/M09 A3043 610 71 -1600 010/05 RMK AO2 TSNO
94908KDBQ DBQ20060318054010603/18/06 05:40:31  5-MIN KDBQ 181140Z AUTO 02006KT 10SM CLR M05/M09 A3043 610 71 -1600 020/06 RMK AO2 TSNO
94908KDBQ DBQ20060318054509603/18/06 05:45:31  5-MIN KDBQ 181145Z 02005KT 10SM CLR M05/M09 A3043 610 71 -1600 020/05 RMK AO2
94908KDBQ DBQ20060318055013103/18/06 05:50:31  5-MIN KDBQ 181150Z 01004KT 10SM CLR M05/M09 A3043 610 71 -1600 010/04 RMK AO2 SLP320 T10501094 11028 21050 58004
94908KDBQ DBQ20060318055513103/18/06 05:55:31  5-MIN KDBQ 181155Z 01004KT 10SM CLR M05/M10 A3044 610 68 -1600 010/04 RMK AO2 SLP321 T10501100 11028 21050 53006
94908KDBQ DBQ20060318060009603/18/06 06:00:31  5-MIN KDBQ 181200Z 01005KT 10SM CLR M05/M09 A3044 600 71 -1600 010/05 RMK AO2
94908KDBQ DBQ20060318060509603/18/06 06:05:31  5-MIN KDBQ 181205Z 01004KT 10SM CLR M04/M10 A3044 600 65 -1600 010/04 RMK AO2
94908KDBQ DBQ20060318061009603/18/06 06:10:31  5-MIN KDBQ 181210Z 36004KT 10SM CLR M05/M10 A3044 600 68 -1600 360/04 RMK AO2
94908KDBQ DBQ20060318061509603/18/06 06:15:31  5-MIN KDBQ 181215Z 01004KT 10SM CLR M06/M10 A3044 600 71 -1700 010/04 RMK AO2
94908KDBQ DBQ20060318062009603/18/06 06:20:31  5-MIN KDBQ 181220Z 01005KT 10SM CLR M05/M10 A3044 600 68 -1600 010/05 RMK AO2
94908KDBQ DBQ20060318062509603/18/06 06:25:31  5-MIN KDBQ 181225Z 02006KT 10SM CLR M04/M10 A3044 600 65 -1600 020/06 RMK AO2
94908KDBQ DBQ20060318063009603/18/06 06:30:31  5-MIN KDBQ 181230Z 03006KT 10SM CLR M04/M10 A3044 600 65 -1600 020/06 RMK AO2
94908KDBQ DBQ20060318063509603/18/06 06:35:31  5-MIN KDBQ 181235Z 02007KT 10SM CLR M04/M10 A3044 600 65 -1600 020/07 RMK AO2
94908KDBQ DBQ20060318064009603/18/06 06:40:31  5-MIN KDBQ 181240Z 03007KT 10SM CLR M04/M10 A3044 600 63 -1500 030/07 RMK AO2
94908KDBQ DBQ20060318064509603/18/06 06:45:31  5-MIN KDBQ 181245Z 03006KT 10SM CLR M04/M10 A3044 600 63 -1500 030/06 RMK AO2
94908KDBQ DBQ20060318065011303/18/06 06:50:31  5-MIN KDBQ 181250Z 03006KT 10SM CLR M04/M10 A3045 590 63 -1500 030/06 RMK AO2 SLP326 T10391100
94908KDBQ DBQ20060318065511303/18/06 06:55:31  5-MIN KDBQ 181255Z 03006KT 10SM CLR M04/M10 A3045 590 63 -1500 030/06 RMK AO2 SLP327 T10391100
94908KDBQ DBQ20060318070009603/18/06 07:00:31  5-MIN KDBQ 181300Z 04006KT 10SM CLR M04/M10 A3045 590 63 -1500 040/06 RMK AO2
94908KDBQ DBQ20060318070509603/18/06 07:05:31  5-MIN KDBQ 181305Z 03007KT 10SM CLR M04/M09 A3045 590 65 -1500 030/07 RMK AO2
94908KDBQ DBQ20060318071009603/18/06 07:10:31  5-MIN KDBQ 181310Z 03008KT 10SM CLR M04/M10 A3046 590 63 -1500 030/08 RMK AO2
94908KDBQ DBQ20060318071509603/18/06 07:15:31  5-MIN KDBQ 181315Z 03007KT 10SM CLR M04/M09 A3046 590 65 -1500 030/07 RMK AO2
94908KDBQ DBQ20060318072009603/18/06 07:20:31  5-MIN KDBQ 181320Z 03007KT 10SM CLR M04/M10 A3046 580 63 -1500 030/07 RMK AO2
94908KDBQ DBQ20060318072509603/18/06 07:25:31  5-MIN KDBQ 181325Z 03007KT 10SM CLR M04/M09 A3046 590 65 -1500 030/07 RMK AO2
94908KDBQ DBQ20060318073009603/18/06 07:30:31  5-MIN KDBQ 181330Z 04007KT 10SM CLR M04/M09 A3045 590 65 -1500 030/07 RMK AO2
94908KDBQ DBQ20060318073509603/18/06 07:35:31  5-MIN KDBQ 181335Z 04008KT 10SM CLR M04/M09 A3045 590 65 -1500 040/08 RMK AO2
94908KDBQ DBQ20060318074009603/18/06 07:40:31  5-MIN KDBQ 181340Z 04008KT 10SM CLR M04/M10 A3045 590 63 -1500 040/08 RMK AO2
94908KDBQ DBQ20060318074509603/18/06 07:45:31  5-MIN KDBQ 181345Z 03008KT 10SM CLR M04/M09 A3045 590 65 -1500 030/08 RMK AO2
94908KDBQ DBQ20060318075011303/18/06 07:50:31  5-MIN KDBQ 181350Z 03009KT 10SM CLR M03/M09 A3045 590 63 -1400 030/09 RMK AO2 SLP328 T10331094
94908KDBQ DBQ20060318075511303/18/06 07:55:31  5-MIN KDBQ 181355Z 04007KT 10SM CLR M03/M09 A3046 590 63 -1400 030/07 RMK AO2 SLP328 T10331094
94908KDBQ DBQ20060318080009603/18/06 08:00:31  5-MIN KDBQ 181400Z 04008KT 10SM CLR M03/M09 A3046 580 65 -1400 040/08 RMK AO2
94908KDBQ DBQ20060318080509603/18/06 08:05:31  5-MIN KDBQ 181405Z 04007KT 10SM CLR M03/M09 A3046 580 63 -1400 040/07 RMK AO2
94908KDBQ DBQ20060318081009603/18/06 08:10:31  5-MIN KDBQ 181410Z 04008KT 10SM CLR M03/M09 A3046 580 63 -1400 040/08 RMK AO2
94908KDBQ DBQ20060318081509603/18/06 08:15:31  5-MIN KDBQ 181415Z 03009KT 10SM CLR M03/M09 A3046 580 63 -1400 030/09 RMK AO2
94908KDBQ DBQ20060318082009603/18/06 08:20:31  5-MIN KDBQ 181420Z 04008KT 10SM CLR M03/M09 A3046 580 63 -1400 030/08 RMK AO2
94908KDBQ DBQ20060318082509603/18/06 08:25:31  5-MIN KDBQ 181425Z 03008KT 10SM CLR M02/M08 A3046 580 63 -1300 030/08 RMK AO2
94908KDBQ DBQ20060318083009603/18/06 08:30:31  5-MIN KDBQ 181430Z 04009KT 10SM CLR M03/M09 A3046 580 63 -1400 040/09 RMK AO2
94908KDBQ DBQ20060318083509603/18/06 08:35:31  5-MIN KDBQ 181435Z 03009KT 10SM CLR M03/M09 A3046 580 63 -1400 030/09 RMK AO2
94908KDBQ DBQ20060318084009603/18/06 08:40:31  5-MIN KDBQ 181440Z 02008KT 10SM CLR M02/M08 A3046 580 63 -1300 020/08 RMK AO2
94908KDBQ DBQ20060318084509603/18/06 08:45:31  5-MIN KDBQ 181445Z 04007KT 10SM CLR M02/M08 A3046 580 63 -1300 040/07 RMK AO2
94908KDBQ DBQ20060318085011903/18/06 08:50:31  5-MIN KDBQ 181450Z 02006KT 10SM CLR M02/M08 A3046 580 63 -1300 020/06 RMK AO2 SLP330 T10221083 53006
94908KDBQ DBQ20060318085511903/18/06 08:55:31  5-MIN KDBQ 181455Z 04006KT 10SM CLR M02/M08 A3046 580 63 -1300 040/06 RMK AO2 SLP330 T10221083 51008
94908KDBQ DBQ20060318090009603/18/06 09:00:31  5-MIN KDBQ 181500Z 04007KT 10SM CLR M02/M08 A3046 580 60 -1200 040/07 RMK AO2
94908KDBQ DBQ20060318090509603/18/06 09:05:31  5-MIN KDBQ 181505Z 07006KT 10SM CLR M02/M08 A3046 580 60 -1200 070/06 RMK AO2
94908KDBQ DBQ20060318091009603/18/06 09:10:31  5-MIN KDBQ 181510Z 03005KT 10SM CLR M02/M08 A3047 580 60 -1200 020/05 RMK AO2
94908KDBQ DBQ20060318091509603/18/06 09:15:31  5-MIN KDBQ 181515Z 03006KT 10SM CLR M01/M08 A3047 580 58 -1200 030/06 RMK AO2
94908KDBQ DBQ20060318092009603/18/06 09:20:31  5-MIN KDBQ 181520Z 01003KT 10SM CLR M02/M08 A3047 570 60 -1200 010/03 RMK AO2
94908KDBQ DBQ20060318092509603/18/06 09:25:31  5-MIN KDBQ 181525Z 04006KT 10SM CLR M01/M08 A3047 570 60 -1200 040/06 RMK AO2
94908KDBQ DBQ20060318093009603/18/06 09:30:31  5-MIN KDBQ 181530Z 06004KT 10SM CLR M01/M08 A3047 570 60 -1200 060/04 RMK AO2
94908KDBQ DBQ20060318093509603/18/06 09:35:31  5-MIN KDBQ 181535Z VRB03KT 10SM CLR M01/M08 A3047 570 58 -1200 VRB/03 RMK AO2
94908KDBQ DBQ20060318094009603/18/06 09:40:31  5-MIN KDBQ 181540Z 00000KT 10SM CLR M01/M08 A3047 570 58 -1200 000/00 RMK AO2
94908KDBQ DBQ20060318094509603/18/06 09:45:31  5-MIN KDBQ 181545Z 00000KT 10SM CLR M01/M08 A3047 570 58 -1200 000/00 RMK AO2
94908KDBQ DBQ20060318095011303/18/06 09:50:31  5-MIN KDBQ 181550Z 03004KT 10SM CLR M01/M08 A3047 580 58 -1100 030/04 RMK AO2 SLP332 T10061078
94908KDBQ DBQ20060318095511203/18/06 09:55:31  5-MIN KDBQ 181555Z VRB05KT 10SM CLR 00/M07 A3047 580 58 -1000 VRB/05 RMK AO2 SLP331 T00001072
94908KDBQ DBQ20060318100009603/18/06 10:00:31  5-MIN KDBQ 181600Z VRB03KT 10SM CLR M01/M08 A3047 570 58 -1100 VRB/03 RMK AO2
94908KDBQ DBQ20060318100509503/18/06 10:05:31  5-MIN KDBQ 181605Z 00000KT 10SM CLR 00/M07 A3047 570 58 -1000 000/00 RMK AO2
94908KDBQ DBQ20060318101009603/18/06 10:10:31  5-MIN KDBQ 181610Z 36004KT 10SM CLR M01/M08 A3047 580 58 -1100 360/04 RMK AO2
94908KDBQ DBQ20060318101509503/18/06 10:15:31  5-MIN KDBQ 181615Z 04006KT 10SM CLR 00/M07 A3047 580 58 -1000 040/06 RMK AO2
94908KDBQ DBQ20060318102009503/18/06 10:20:31  5-MIN KDBQ 181620Z 03006KT 10SM CLR 01/M08 A3047 580 54 -1000 030/06 RMK AO2
94908KDBQ DBQ20060318102509503/18/06 10:25:31  5-MIN KDBQ 181625Z 02004KT 10SM CLR 01/M07 A3047 580 56 -1000 020/04 RMK AO2
94908KDBQ DBQ20060318103009503/18/06 10:30:31  5-MIN KDBQ 181630Z 04006KT 10SM CLR 01/M07 A3047 580 56 -1000 040/06 RMK AO2
94908KDBQ DBQ20060318103509503/18/06 10:35:31  5-MIN KDBQ 181635Z 04007KT 10SM CLR 01/M07 A3047 580 56 -1000 040/07 RMK AO2
94908KDBQ DBQ20060318104009503/18/06 10:40:31  5-MIN KDBQ 181640Z 04007KT 10SM CLR 01/M08 A3047 580 54 -1000 040/07 RMK AO2
94908KDBQ DBQ20060318104509503/18/06 10:45:31  5-MIN KDBQ 181645Z 05007KT 10SM CLR 01/M08 A3047 580 51 -1000 050/07 RMK AO2
94908KDBQ DBQ20060318105011203/18/06 10:50:31  5-MIN KDBQ 181650Z 07005KT 10SM CLR 01/M08 A3047 580 51 -1000 070/05 RMK AO2 SLP331 T00061083
94908KDBQ DBQ20060318105511103/18/06 10:55:31  5-MIN KDBQ 181655Z 01005KT 10SM CLR 01/M08 A3046 580 51 -900 360/05 RMK AO2 SLP330 T00111078
94908KDBQ DBQ20060318110009503/18/06 11:00:31  5-MIN KDBQ 181700Z 00000KT 10SM CLR 01/M08 A3046 580 51 -1000 000/00 RMK AO2
94908KDBQ DBQ20060318110509403/18/06 11:05:31  5-MIN KDBQ 181705Z VRB06KT 10SM CLR 01/M07 A3046 580 56 -900 VRB/06 RMK AO2
94908KDBQ DBQ20060318111009403/18/06 11:10:31  5-MIN KDBQ 181710Z 03007KT 10SM CLR 01/M07 A3046 580 54 -900 020/07 RMK AO2
94908KDBQ DBQ20060318111509403/18/06 11:15:31  5-MIN KDBQ 181715Z 33003KT 10SM CLR 01/M08 A3046 580 51 -900 330/03 RMK AO2
94908KDBQ DBQ20060318112009403/18/06 11:20:31  5-MIN KDBQ 181720Z 02008KT 10SM CLR 02/M07 A3046 580 52 -800 020/08 RMK AO2
94908KDBQ DBQ20060318112509403/18/06 11:25:31  5-MIN KDBQ 181725Z 03007KT 10SM CLR 02/M07 A3046 580 52 -800 030/07 RMK AO2
94908KDBQ DBQ20060318113009403/18/06 11:30:31  5-MIN KDBQ 181730Z 01007KT 10SM CLR 02/M08 A3046 580 49 -800 010/07 RMK AO2
94908KDBQ DBQ20060318113509403/18/06 11:35:31  5-MIN KDBQ 181735Z 36005KT 10SM CLR 02/M08 A3046 590 49 -800 360/05 RMK AO2
94908KDBQ DBQ20060318114009403/18/06 11:40:31  5-MIN KDBQ 181740Z 01007KT 10SM CLR 02/M07 A3045 590 54 -800 010/07 RMK AO2
94908KDBQ DBQ20060318114509403/18/06 11:45:31  5-MIN KDBQ 181745Z 05009KT 10SM CLR 02/M07 A3045 590 52 -800 040/09 RMK AO2
94908KDBQ DBQ20060318115012903/18/06 11:50:31  5-MIN KDBQ 181750Z 03008KT 10SM CLR 02/M08 A3045 590 49 -800 030/08 RMK AO2 SLP326 T00171078 10017 21056 51008
94908KDBQ DBQ20060318115512903/18/06 11:55:31  5-MIN KDBQ 181755Z 02007KT 10SM CLR 02/M07 A3045 590 52 -800 010/07 RMK AO2 SLP324 T00171072 10017 21056 58004
94908KDBQ DBQ20060318120009403/18/06 12:00:31  5-MIN KDBQ 181800Z 02009KT 10SM CLR 02/M08 A3045 600 47 -700 020/09 RMK AO2
94908KDBQ DBQ20060318120509403/18/06 12:05:31  5-MIN KDBQ 181805Z 03008KT 10SM CLR 02/M08 A3044 600 47 -800 030/08 RMK AO2
94908KDBQ DBQ20060318121009403/18/06 12:10:31  5-MIN KDBQ 181810Z 01005KT 10SM CLR 02/M08 A3044 600 47 -700 010/05 RMK AO2
94908KDBQ DBQ20060318121509403/18/06 12:15:31  5-MIN KDBQ 181815Z 02011KT 10SM CLR 02/M08 A3044 600 47 -700 020/11 RMK AO2
94908KDBQ DBQ20060318122009403/18/06 12:20:31  5-MIN KDBQ 181820Z 36007KT 10SM CLR 02/M08 A3043 610 45 -700 360/07 RMK AO2
94908KDBQ DBQ20060318122509403/18/06 12:25:31  5-MIN KDBQ 181825Z 02007KT 10SM CLR 02/M09 A3043 610 44 -700 020/07 RMK AO2
94908KDBQ DBQ20060318123009403/18/06 12:30:31  5-MIN KDBQ 181830Z 06008KT 10SM CLR 02/M09 A3043 610 44 -700 050/08 RMK AO2
94908KDBQ DBQ20060318123509403/18/06 12:35:31  5-MIN KDBQ 181835Z 06005KT 10SM CLR 02/M09 A3043 610 44 -700 060/05 RMK AO2
94908KDBQ DBQ20060318124009403/18/06 12:40:31  5-MIN KDBQ 181840Z 03008KT 10SM CLR 03/M09 A3043 610 40 -600 030/08 RMK AO2
94908KDBQ DBQ20060318124509403/18/06 12:45:31  5-MIN KDBQ 181845Z 02006KT 10SM CLR 02/M09 A3042 620 44 -700 020/06 RMK AO2
94908KDBQ DBQ20060318125011103/18/06 12:50:31  5-MIN KDBQ 181850Z 03006KT 10SM CLR 03/M08 A3042 620 44 -600 030/06 RMK AO2 SLP314 T00281083
94908KDBQ DBQ20060318125511103/18/06 12:55:31  5-MIN KDBQ 181855Z 07007KT 10SM CLR 02/M09 A3041 630 42 -700 070/07 RMK AO2 SLP313 T00221094
94908KDBQ DBQ20060318130011003/18/06 13:00:31  5-MIN KDBQ 181900Z 03007KT 360V060 10SM CLR 03/M09 A3041 630 42 -600 030/07 360V060 RMK AO2
94908KDBQ DBQ20060318130509403/18/06 13:05:31  5-MIN KDBQ 181905Z 04008KT 10SM CLR 03/M09 A3040 630 40 -600 040/08 RMK AO2
94908KDBQ DBQ20060318131009403/18/06 13:10:31  5-MIN KDBQ 181910Z 03004KT 10SM CLR 03/M09 A3040 640 40 -600 020/04 RMK AO2
94908KDBQ DBQ20060318131509403/18/06 13:15:31  5-MIN KDBQ 181915Z VRB06KT 10SM CLR 03/M08 A3040 640 44 -600 VRB/06 RMK AO2
94908KDBQ DBQ20060318132009403/18/06 13:20:31  5-MIN KDBQ 181920Z 36007KT 10SM CLR 03/M08 A3040 640 44 -500 360/07 RMK AO2
94908KDBQ DBQ20060318132509403/18/06 13:25:31  5-MIN KDBQ 181925Z 06008KT 10SM CLR 03/M08 A3040 640 46 -600 060/08 RMK AO2
94908KDBQ DBQ20060318133009403/18/06 13:30:31  5-MIN KDBQ 181930Z 06008KT 10SM CLR 03/M08 A3039 640 44 -600 060/08 RMK AO2
94908KDBQ DBQ20060318133509403/18/06 13:35:31  5-MIN KDBQ 181935Z 03008KT 10SM CLR 03/M08 A3039 650 44 -600 030/08 RMK AO2
94908KDBQ DBQ20060318134009403/18/06 13:40:31  5-MIN KDBQ 181940Z 02009KT 10SM CLR 03/M08 A3039 650 44 -500 020/09 RMK AO2
94908KDBQ DBQ20060318134509403/18/06 13:45:31  5-MIN KDBQ 181945Z 36004KT 10SM CLR 03/M08 A3038 650 44 -500 360/04 RMK AO2
94908KDBQ DBQ20060318135011103/18/06 13:50:31  5-MIN KDBQ 181950Z 36005KT 10SM CLR 03/M08 A3038 660 44 -500 360/05 RMK AO2 SLP301 T00331078
94908KDBQ DBQ20060318135511703/18/06 13:55:31  5-MIN KDBQ 181955Z 02009G16KT 10SM CLR 03/M08 A3038 660 42 -500 020/09G16 RMK AO2 SLP300 T00331083
94908KDBQ DBQ20060318140010003/18/06 14:00:31  5-MIN KDBQ 182000Z 03006G16KT 10SM CLR 03/M08 A3038 660 42 -500 030/06G16 RMK AO2
94908KDBQ DBQ20060318140509403/18/06 14:05:31  5-MIN KDBQ 182005Z VRB06KT 10SM CLR 03/M09 A3038 660 40 -500 VRB/06 RMK AO2
94908KDBQ DBQ20060318141009403/18/06 14:10:31  5-MIN KDBQ 182010Z 05006KT 10SM CLR 03/M10 A3038 660 37 -500 050/06 RMK AO2
94908KDBQ DBQ20060318141509403/18/06 14:15:31  5-MIN KDBQ 182015Z 02008KT 10SM CLR 04/M10 A3038 660 35 -400 020/08 RMK AO2
94908KDBQ DBQ20060318142009403/18/06 14:20:31  5-MIN KDBQ 182020Z 03010KT 10SM CLR 03/M11 A3037 660 35 -500 030/10 RMK AO2
94908KDBQ DBQ20060318142509403/18/06 14:25:31  5-MIN KDBQ 182025Z 05008KT 10SM CLR 04/M11 A3037 660 34 -400 050/08 RMK AO2
94908KDBQ DBQ20060318143009403/18/06 14:30:31  5-MIN KDBQ 182030Z 02009KT 10SM CLR 04/M11 A3037 660 34 -400 020/09 RMK AO2
94908KDBQ DBQ20060318143509403/18/06 14:35:31  5-MIN KDBQ 182035Z 04006KT 10SM CLR 04/M11 A3037 660 32 -400 040/06 RMK AO2
94908KDBQ DBQ20060318144009403/18/06 14:40:31  5-MIN KDBQ 182040Z 04006KT 10SM CLR 04/M11 A3037 670 32 -400 040/06 RMK AO2
94908KDBQ DBQ20060318144509403/18/06 14:45:31  5-MIN KDBQ 182045Z 04006KT 10SM CLR 04/M12 A3037 660 31 -400 040/06 RMK AO2
94908KDBQ DBQ20060318145011703/18/06 14:50:31  5-MIN KDBQ 182050Z 05009KT 10SM CLR 04/M11 A3037 660 32 -400 050/09 RMK AO2 SLP298 T00391111 58004
94908KDBQ DBQ20060318145511703/18/06 14:55:31  5-MIN KDBQ 182055Z 05008KT 10SM CLR 04/M11 A3037 660 34 -400 050/08 RMK AO2 SLP298 T00391106 56025
94908KDBQ DBQ20060318150009403/18/06 15:00:31  5-MIN KDBQ 182100Z 04006KT 10SM CLR 04/M11 A3037 660 32 -400 040/06 RMK AO2
94908KDBQ DBQ20060318150509403/18/06 15:05:31  5-MIN KDBQ 182105Z 03006KT 10SM CLR 04/M12 A3037 660 30 -400 030/06 RMK AO2
94908KDBQ DBQ20060318151009403/18/06 15:10:31  5-MIN KDBQ 182110Z 04007KT 10SM CLR 04/M12 A3037 660 31 -400 040/07 RMK AO2
94908KDBQ DBQ20060318151509403/18/06 15:15:31  5-MIN KDBQ 182115Z 04007KT 10SM CLR 04/M12 A3037 660 31 -400 040/07 RMK AO2
94908KDBQ DBQ20060318152009403/18/06 15:20:31  5-MIN KDBQ 182120Z 06007KT 10SM CLR 04/M13 A3037 670 28 -400 060/07 RMK AO2
94908KDBQ DBQ20060318152509403/18/06 15:25:31  5-MIN KDBQ 182125Z 02009KT 10SM CLR 04/M12 A3037 670 30 -400 020/09 RMK AO2
94908KDBQ DBQ20060318153009403/18/06 15:30:31  5-MIN KDBQ 182130Z 07006KT 10SM CLR 04/M13 A3037 670 28 -400 070/06 RMK AO2
94908KDBQ DBQ20060318153509403/18/06 15:35:31  5-MIN KDBQ 182135Z 05007KT 10SM CLR 04/M13 A3037 670 27 -400 050/07 RMK AO2
94908KDBQ DBQ20060318154010003/18/06 15:40:31  5-MIN KDBQ 182140Z 01007G14KT 10SM CLR 04/M12 A3036 670 30 -400 010/07G14 RMK AO2
94908KDBQ DBQ20060318154510003/18/06 15:45:31  5-MIN KDBQ 182145Z 02006G14KT 10SM CLR 04/M12 A3037 670 30 -400 020/06G14 RMK AO2
94908KDBQ DBQ20060318155011103/18/06 15:50:31  5-MIN KDBQ 182150Z 03007KT 10SM CLR 04/M13 A3036 670 28 -400 030/07 RMK AO2 SLP295 T00391128
94908KDBQ DBQ20060318155511103/18/06 15:55:31  5-MIN KDBQ 182155Z 04007KT 10SM CLR 04/M13 A3037 670 28 -400 040/07 RMK AO2 SLP295 T00391128
94908KDBQ DBQ20060318160009403/18/06 16:00:31  5-MIN KDBQ 182200Z VRB05KT 10SM CLR 04/M12 A3037 670 29 -400 VRB/05 RMK AO2
94908KDBQ DBQ20060318160509403/18/06 16:05:31  5-MIN KDBQ 182205Z 04007KT 10SM CLR 04/M13 A3037 670 27 -400 040/07 RMK AO2
94908KDBQ DBQ20060318161009403/18/06 16:10:31  5-MIN KDBQ 182210Z 03006KT 10SM CLR 04/M12 A3037 670 30 -400 030/06 RMK AO2
94908KDBQ DBQ20060318161509403/18/06 16:15:31  5-MIN KDBQ 182215Z 05010KT 10SM CLR 04/M12 A3037 670 30 -400 050/10 RMK AO2
94908KDBQ DBQ20060318162009403/18/06 16:20:31  5-MIN KDBQ 182220Z 02006KT 10SM CLR 04/M12 A3037 670 30 -400 010/06 RMK AO2
94908KDBQ DBQ20060318162509403/18/06 16:25:31  5-MIN KDBQ 182225Z 05004KT 10SM CLR 04/M13 A3037 670 28 -400 050/04 RMK AO2
94908KDBQ DBQ20060318163009403/18/06 16:30:31  5-MIN KDBQ 182230Z 05008KT 10SM CLR 04/M12 A3037 670 30 -400 040/08 RMK AO2
94908KDBQ DBQ20060318163509403/18/06 16:35:31  5-MIN KDBQ 182235Z 36006KT 10SM CLR 04/M12 A3036 670 31 -400 360/06 RMK AO2
94908KDBQ DBQ20060318164009403/18/06 16:40:31  5-MIN KDBQ 182240Z 03008KT 10SM CLR 04/M12 A3036 670 31 -400 030/08 RMK AO2
94908KDBQ DBQ20060318164509403/18/06 16:45:31  5-MIN KDBQ 182245Z 04008KT 10SM CLR 04/M11 A3036 670 32 -400 040/08 RMK AO2
94908KDBQ DBQ20060318165011103/18/06 16:50:31  5-MIN KDBQ 182250Z 04009KT 10SM CLR 04/M12 A3036 670 31 -400 040/09 RMK AO2 SLP296 T00391117
94908KDBQ DBQ20060318165511103/18/06 16:55:31  5-MIN KDBQ 182255Z 04007KT 10SM CLR 04/M11 A3036 670 32 -400 040/07 RMK AO2 SLP295 T00391111
94908KDBQ DBQ20060318170009403/18/06 17:00:31  5-MIN KDBQ 182300Z 04009KT 10SM CLR 04/M11 A3036 670 32 -400 040/09 RMK AO2
94908KDBQ DBQ20060318170509403/18/06 17:05:31  5-MIN KDBQ 182305Z 05008KT 10SM CLR 03/M11 A3036 670 34 -500 040/08 RMK AO2
94908KDBQ DBQ20060318171009403/18/06 17:10:31  5-MIN KDBQ 182310Z 05008KT 10SM CLR 03/M11 A3036 670 35 -500 050/08 RMK AO2
94908KDBQ DBQ20060318171509403/18/06 17:15:31  5-MIN KDBQ 182315Z 03008KT 10SM CLR 03/M12 A3036 670 32 -500 030/08 RMK AO2
94908KDBQ DBQ20060318172009403/18/06 17:20:31  5-MIN KDBQ 182320Z 04008KT 10SM CLR 03/M12 A3036 680 32 -500 040/08 RMK AO2
94908KDBQ DBQ20060318172509403/18/06 17:25:31  5-MIN KDBQ 182325Z 03008KT 10SM CLR 03/M11 A3035 680 35 -600 030/08 RMK AO2
94908KDBQ DBQ20060318173009403/18/06 17:30:31  5-MIN KDBQ 182330Z 04009KT 10SM CLR 03/M11 A3035 680 35 -500 040/09 RMK AO2
94908KDBQ DBQ20060318173509403/18/06 17:35:31  5-MIN KDBQ 182335Z 04008KT 10SM CLR 03/M12 A3035 680 32 -500 040/08 RMK AO2
94908KDBQ DBQ20060318174009403/18/06 17:40:31  5-MIN KDBQ 182340Z 03008KT 10SM CLR 02/M12 A3035 680 35 -600 030/08 RMK AO2
94908KDBQ DBQ20060318174509403/18/06 17:45:31  5-MIN KDBQ 182345Z 02008KT 10SM CLR 02/M12 A3035 680 35 -600 020/08 RMK AO2
94908KDBQ DBQ20060318175012903/18/06 17:50:31  5-MIN KDBQ 182350Z 02008KT 10SM CLR 02/M12 A3035 680 36 -700 010/08 RMK AO2 SLP293 T00171117 10044 20017 56025
94908KDBQ DBQ20060318175512903/18/06 17:55:31  5-MIN KDBQ 182355Z 02007KT 10SM CLR 02/M12 A3035 680 36 -700 020/07 RMK AO2 SLP293 T00171117 10044 20017 58006
94908KDBQ DBQ20060318180009403/18/06 18:00:31  5-MIN KDBQ 190000Z 01007KT 10SM CLR 01/M11 A3035 680 40 -800 010/07 RMK AO2
94908KDBQ DBQ20060318180509403/18/06 18:05:31  5-MIN KDBQ 190005Z 01006KT 10SM CLR 01/M12 A3035 680 38 -800 010/06 RMK AO2
94908KDBQ DBQ20060318181009403/18/06 18:10:31  5-MIN KDBQ 190010Z 01006KT 10SM CLR 01/M12 A3035 680 39 -800 010/06 RMK AO2
94908KDBQ DBQ20060318181509403/18/06 18:15:31  5-MIN KDBQ 190015Z 01006KT 10SM CLR 01/M12 A3035 680 38 -800 010/06 RMK AO2
94908KDBQ DBQ20060318182009403/18/06 18:20:31  5-MIN KDBQ 190020Z 01005KT 10SM CLR 00/M12 A3036 680 39 -900 010/05 RMK AO2
94908KDBQ DBQ20060318182509403/18/06 18:25:31  5-MIN KDBQ 190025Z 01005KT 10SM CLR 00/M12 A3036 680 39 -900 360/05 RMK AO2
94908KDBQ DBQ20060318183009403/18/06 18:30:31  5-MIN KDBQ 190030Z 01006KT 10SM CLR 01/M13 A3036 680 36 -800 010/06 RMK AO2
94908KDBQ DBQ20060318183509403/18/06 18:35:31  5-MIN KDBQ 190035Z 01006KT 10SM CLR 00/M13 A3036 680 36 -900 010/06 RMK AO2
94908KDBQ DBQ20060318184009403/18/06 18:40:31  5-MIN KDBQ 190040Z 01006KT 10SM CLR 00/M13 A3035 680 38 -900 010/06 RMK AO2
94908KDBQ DBQ20060318184509603/18/06 18:45:31  5-MIN KDBQ 190045Z 02006KT 10SM CLR M01/M12 A3035 680 41 -1000 020/06 RMK AO2
94908KDBQ DBQ20060318185011303/18/06 18:50:31  5-MIN KDBQ 190050Z 01005KT 10SM CLR M01/M13 A3036 680 39 -1000 010/05 RMK AO2 SLP294 T10061128
94908KDBQ DBQ20060318185511303/18/06 18:55:31  5-MIN KDBQ 190055Z 02004KT 10SM CLR M01/M12 A3036 680 45 -1000 020/04 RMK AO2 SLP295 T10111117
94908KDBQ DBQ20060318190009403/18/06 19:00:31  5-MIN KDBQ 190100Z 02003KT 10SM CLR 00/M13 A3036 670 36 -900 020/03 RMK AO2
94908KDBQ DBQ20060318190509403/18/06 19:05:31  5-MIN KDBQ 190105Z 03003KT 10SM CLR 00/M14 A3036 680 34 -900 030/03 RMK AO2
94908KDBQ DBQ20060318191009403/18/06 19:10:31  5-MIN KDBQ 190110Z 03004KT 10SM CLR 00/M13 A3036 670 36 -900 030/04 RMK AO2
94908KDBQ DBQ20060318191509403/18/06 19:15:31  5-MIN KDBQ 190115Z 00000KT 10SM CLR 00/M13 A3036 670 38 -900 000/00 RMK AO2
94908KDBQ DBQ20060318192009603/18/06 19:20:31  5-MIN KDBQ 190120Z 00000KT 10SM CLR M01/M12 A3036 670 43 -1000 000/00 RMK AO2
94908KDBQ DBQ20060318192510603/18/06 19:25:31  5-MIN KDBQ 190125Z AUTO 00000KT 10SM CLR M01/M13 A3036 670 39 -1000 000/00 RMK AO2 TSNO
94908KDBQ DBQ20060318193010603/18/06 19:30:31  5-MIN KDBQ 190130Z AUTO 02003KT 10SM CLR M01/M13 A3036 670 37 -1000 020/03 RMK AO2 TSNO
94908KDBQ DBQ20060318193510603/18/06 19:35:31  5-MIN KDBQ 190135Z AUTO 02004KT 10SM CLR M01/M13 A3036 670 37 -1000 020/04 RMK AO2 TSNO
94908KDBQ DBQ20060318194010603/18/06 19:40:31  5-MIN KDBQ 190140Z AUTO 03003KT 10SM CLR M01/M13 A3037 670 37 -1000 030/03 RMK AO2 TSNO
94908KDBQ DBQ20060318194510603/18/06 19:45:31  5-MIN KDBQ 190145Z AUTO 00000KT 10SM CLR M02/M09 A3037 670 60 -1200 000/00 RMK AO2 TSNO
94908KDBQ DBQ20060318195012303/18/06 19:50:31  5-MIN KDBQ 190150Z AUTO 00000KT 10SM CLR M03/M09 A3037 670 60 -1300 000/00 RMK AO2 SLP299 T10281094 TSNO
94908KDBQ DBQ20060318195512303/18/06 19:55:31  5-MIN KDBQ 190155Z AUTO 00000KT 10SM CLR M03/M09 A3037 670 60 -1300 000/00 RMK AO2 SLP300 T10281094 TSNO
94908KDBQ DBQ20060318200010603/18/06 20:00:31  5-MIN KDBQ 190200Z AUTO 00000KT 10SM CLR M02/M09 A3037 660 58 -1200 000/00 RMK AO2 TSNO
94908KDBQ DBQ20060318200510603/18/06 20:05:31  5-MIN KDBQ 190205Z AUTO 00000KT 10SM CLR M02/M10 A3037 660 55 -1200 000/00 RMK AO2 TSNO
94908KDBQ DBQ20060318201010603/18/06 20:10:31  5-MIN KDBQ 190210Z AUTO 00000KT 10SM CLR M03/M10 A3037 660 58 -1300 000/00 RMK AO2 TSNO
94908KDBQ DBQ20060318201510603/18/06 20:15:31  5-MIN KDBQ 190215Z AUTO 00000KT 10SM CLR M03/M09 A3037 660 60 -1300 000/00 RMK AO2 TSNO
94908KDBQ DBQ20060318202010603/18/06 20:20:31  5-MIN KDBQ 190220Z AUTO 00000KT 10SM CLR M03/M09 A3038 660 63 -1300 000/00 RMK AO2 TSNO
94908KDBQ DBQ20060318202510603/18/06 20:25:31  5-MIN KDBQ 190225Z AUTO 00000KT 10SM CLR M03/M09 A3038 660 63 -1300 000/00 RMK AO2 TSNO
94908KDBQ DBQ20060318203010603/18/06 20:30:31  5-MIN KDBQ 190230Z AUTO 00000KT 10SM CLR M03/M09 A3038 660 60 -1300 000/00 RMK AO2 TSNO
94908KDBQ DBQ20060318203510603/18/06 20:35:31  5-MIN KDBQ 190235Z AUTO 00000KT 10SM CLR M03/M09 A3038 650 65 -1400 000/00 RMK AO2 TSNO
94908KDBQ DBQ20060318204010603/18/06 20:40:31  5-MIN KDBQ 190240Z AUTO 00000KT 10SM CLR M03/M09 A3038 660 65 -1400 000/00 RMK AO2 TSNO
94908KDBQ DBQ20060318204510603/18/06 20:45:31  5-MIN KDBQ 190245Z AUTO 00000KT 10SM CLR M03/M08 A3038 660 68 -1300 000/00 RMK AO2 TSNO
94908KDBQ DBQ20060318205012903/18/06 20:50:31  5-MIN KDBQ 190250Z AUTO 36003KT 10SM CLR M02/M09 A3038 660 58 -1200 360/03 RMK AO2 SLP302 T10221094 58006 TSNO
94908KDBQ DBQ20060318205512903/18/06 20:55:31  5-MIN KDBQ 190255Z AUTO 36005KT 10SM CLR M02/M12 A3038 660 46 -1100 360/05 RMK AO2 SLP302 T10171117 53009 TSNO
94908KDBQ DBQ20060318210010603/18/06 21:00:31  5-MIN KDBQ 190300Z AUTO 36005KT 10SM CLR M01/M12 A3038 660 43 -1100 360/05 RMK AO2 TSNO
94908KDBQ DBQ20060318210510603/18/06 21:05:31  5-MIN KDBQ 190305Z AUTO 36005KT 10SM CLR M02/M12 A3038 660 46 -1100 360/05 RMK AO2 TSNO
94908KDBQ DBQ20060318211010603/18/06 21:10:31  5-MIN KDBQ 190310Z AUTO 01006KT 10SM CLR M03/M12 A3038 660 50 -1300 360/06 RMK AO2 TSNO
94908KDBQ DBQ20060318211510603/18/06 21:15:31  5-MIN KDBQ 190315Z AUTO 01007KT 10SM CLR M02/M12 A3038 660 46 -1100 010/07 RMK AO2 TSNO
94908KDBQ DBQ20060318212010603/18/06 21:20:31  5-MIN KDBQ 190320Z AUTO 01008KT 10SM CLR M02/M12 A3038 660 46 -1100 010/08 RMK AO2 TSNO
94908KDBQ DBQ20060318212510603/18/06 21:25:31  5-MIN KDBQ 190325Z AUTO 02008KT 10SM CLR M01/M11 A3038 660 47 -1100 020/08 RMK AO2 TSNO
94908KDBQ DBQ20060318213010603/18/06 21:30:31  5-MIN KDBQ 190330Z AUTO 02008KT 10SM CLR M02/M11 A3037 660 49 -1100 020/08 RMK AO2 TSNO
94908KDBQ DBQ20060318213510603/18/06 21:35:31  5-MIN KDBQ 190335Z AUTO 02008KT 10SM CLR M02/M11 A3037 660 49 -1100 020/08 RMK AO2 TSNO
94908KDBQ DBQ20060318214010603/18/06 21:40:31  5-MIN KDBQ 190340Z AUTO 02008KT 10SM CLR M02/M11 A3037 660 51 -1100 020/08 RMK AO2 TSNO
94908KDBQ DBQ20060318214510603/18/06 21:45:31  5-MIN KDBQ 190345Z AUTO 02009KT 10SM CLR M02/M11 A3037 660 51 -1100 020/09 RMK AO2 TSNO
94908KDBQ DBQ20060318215012303/18/06 21:50:31  5-MIN KDBQ 190350Z AUTO 02009KT 10SM CLR M02/M11 A3037 670 51 -1100 020/09 RMK AO2 SLP298 T10171106 TSNO
94908KDBQ DBQ20060318215512303/18/06 21:55:31  5-MIN KDBQ 190355Z AUTO 03009KT 10SM CLR M02/M11 A3037 660 51 -1100 020/09 RMK AO2 SLP298 T10171106 TSNO
94908KDBQ DBQ20060318220010603/18/06 22:00:31  5-MIN KDBQ 190400Z AUTO 03009KT 10SM CLR M02/M11 A3037 660 51 -1100 030/09 RMK AO2 TSNO
94908KDBQ DBQ20060318220510603/18/06 22:05:31  5-MIN KDBQ 190405Z AUTO 03009KT 10SM CLR M02/M11 A3037 670 51 -1100 030/09 RMK AO2 TSNO
94908KDBQ DBQ20060318221010603/18/06 22:10:31  5-MIN KDBQ 190410Z AUTO 03009KT 10SM CLR M02/M11 A3037 670 51 -1100 030/09 RMK AO2 TSNO
94908KDBQ DBQ20060318221510603/18/06 22:15:31  5-MIN KDBQ 190415Z AUTO 03009KT 10SM CLR M02/M11 A3036 670 51 -1100 030/09 RMK AO2 TSNO
94908KDBQ DBQ20060318222010603/18/06 22:20:31  5-MIN KDBQ 190420Z AUTO 03009KT 10SM CLR M02/M11 A3036 670 51 -1100 030/09 RMK AO2 TSNO
94908KDBQ DBQ20060318222510603/18/06 22:25:31  5-MIN KDBQ 190425Z AUTO 03010KT 10SM CLR M02/M11 A3036 680 53 -1200 030/10 RMK AO2 TSNO
94908KDBQ DBQ20060318223010603/18/06 22:30:31  5-MIN KDBQ 190430Z AUTO 03009KT 10SM CLR M02/M11 A3036 680 51 -1100 030/09 RMK AO2 TSNO
94908KDBQ DBQ20060318223510603/18/06 22:35:31  5-MIN KDBQ 190435Z AUTO 03009KT 10SM CLR M02/M11 A3036 680 53 -1200 030/09 RMK AO2 TSNO
94908KDBQ DBQ20060318224010603/18/06 22:40:31  5-MIN KDBQ 190440Z AUTO 03009KT 10SM CLR M02/M11 A3035 680 53 -1200 030/09 RMK AO2 TSNO
94908KDBQ DBQ20060318224510603/18/06 22:45:31  5-MIN KDBQ 190445Z AUTO 03010KT 10SM CLR M02/M11 A3036 680 53 -1200 030/10 RMK AO2 TSNO
94908KDBQ DBQ20060318225012303/18/06 22:50:31  5-MIN KDBQ 190450Z AUTO 03009KT 10SM CLR M02/M11 A3035 680 53 -1200 030/09 RMK AO2 SLP293 T10221106 TSNO
94908KDBQ DBQ20060318225512303/18/06 22:55:31  5-MIN KDBQ 190455Z AUTO 03009KT 10SM CLR M02/M11 A3036 680 53 -1200 030/09 RMK AO2 SLP293 T10221106 TSNO
94908KDBQ DBQ20060318230010603/18/06 23:00:31  5-MIN KDBQ 190500Z AUTO 03010KT 10SM CLR M02/M11 A3036 680 53 -1200 030/10 RMK AO2 TSNO
94908KDBQ DBQ20060318230510603/18/06 23:05:31  5-MIN KDBQ 190505Z AUTO 03009KT 10SM CLR M02/M11 A3036 670 53 -1200 030/09 RMK AO2 TSNO
94908KDBQ DBQ20060318231010603/18/06 23:10:31  5-MIN KDBQ 190510Z AUTO 03009KT 10SM CLR M02/M11 A3036 670 53 -1200 030/09 RMK AO2 TSNO
94908KDBQ DBQ20060318231510603/18/06 23:15:31  5-MIN KDBQ 190515Z AUTO 03009KT 10SM CLR M02/M11 A3036 670 53 -1200 030/09 RMK AO2 TSNO
94908KDBQ DBQ20060318232010603/18/06 23:20:31  5-MIN KDBQ 190520Z AUTO 03010KT 10SM CLR M02/M11 A3036 670 53 -1200 030/10 RMK AO2 TSNO
94908KDBQ DBQ20060318232510603/18/06 23:25:31  5-MIN KDBQ 190525Z AUTO 03010KT 10SM CLR M02/M11 A3036 680 53 -1200 030/10 RMK AO2 TSNO
94908KDBQ DBQ20060318233010603/18/06 23:30:31  5-MIN KDBQ 190530Z AUTO 03009KT 10SM CLR M02/M11 A3036 670 51 -1200 030/09 RMK AO2 TSNO
94908KDBQ DBQ20060318233510603/18/06 23:35:31  5-MIN KDBQ 190535Z AUTO 03008KT 10SM CLR M02/M11 A3036 680 53 -1200 030/08 RMK AO2 TSNO
94908KDBQ DBQ20060318234010603/18/06 23:40:31  5-MIN KDBQ 190540Z AUTO 03008KT 10SM CLR M02/M11 A3036 680 53 -1200 030/08 RMK AO2 TSNO
94908KDBQ DBQ20060318234510603/18/06 23:45:31  5-MIN KDBQ 190545Z AUTO 03006KT 10SM CLR M03/M11 A3036 670 55 -1300 030/06 RMK AO2 TSNO
94908KDBQ DBQ20060318235015103/18/06 23:50:31  5-MIN KDBQ 190550Z AUTO 03005KT 10SM CLR M03/M11 A3036 670 55 -1300 030/05 RMK AO2 SLP295 T10281106 10017 21033 400441056 53009 TSNO
94908KDBQ DBQ20060318235515103/18/06 23:55:31  5-MIN KDBQ 190555Z AUTO 03006KT 10SM CLR M03/M11 A3036 670 53 -1300 030/06 RMK AO2 SLP295 T10281111 10017 21033 400441056 55006 TSNO
94908KDBQ DBQ20060319000010603/19/06 00:00:38  5-MIN KDBQ 190600Z AUTO 02006KT 10SM CLR M03/M11 A3036 670 53 -1300 020/06 RMK AO2 TSNO
94908KDBQ DBQ20060319000510603/19/06 00:05:31  5-MIN KDBQ 190605Z AUTO 02006KT 10SM CLR M03/M11 A3036 670 57 -1300 020/06 RMK AO2 TSNO
94908KDBQ DBQ20060319001010603/19/06 00:10:31  5-MIN KDBQ 190610Z AUTO 02005KT 10SM CLR M03/M11 A3036 670 57 -1300 020/05 RMK AO2 TSNO
94908KDBQ DBQ20060319001510603/19/06 00:15:31  5-MIN KDBQ 190615Z AUTO 02004KT 10SM CLR M04/M11 A3036 670 57 -1400 020/04 RMK AO2 TSNO
94908KDBQ DBQ20060319002010603/19/06 00:20:31  5-MIN KDBQ 190620Z AUTO 02004KT 10SM CLR M03/M12 A3036 670 53 -1300 020/04 RMK AO2 TSNO
94908KDBQ DBQ20060319002510603/19/06 00:25:31  5-MIN KDBQ 190625Z AUTO 01005KT 10SM CLR M03/M11 A3037 670 55 -1300 010/05 RMK AO2 TSNO
94908KDBQ DBQ20060319003010603/19/06 00:30:31  5-MIN KDBQ 190630Z AUTO 01007KT 10SM CLR M04/M11 A3037 670 57 -1400 010/07 RMK AO2 TSNO
94908KDBQ DBQ20060319003510603/19/06 00:35:31  5-MIN KDBQ 190635Z AUTO 01007KT 10SM CLR M03/M11 A3036 670 53 -1300 010/07 RMK AO2 TSNO
94908KDBQ DBQ20060319004010603/19/06 00:40:31  5-MIN KDBQ 190640Z AUTO 01007KT 10SM CLR M03/M11 A3036 670 53 -1300 010/07 RMK AO2 TSNO
94908KDBQ DBQ20060319004510603/19/06 00:45:31  5-MIN KDBQ 190645Z AUTO 01007KT 10SM CLR M03/M11 A3036 670 55 -1300 010/07 RMK AO2 TSNO
94908KDBQ DBQ20060319005012303/19/06 00:50:31  5-MIN KDBQ 190650Z AUTO 01007KT 10SM CLR M03/M11 A3036 670 55 -1300 010/07 RMK AO2 SLP294 T10331111 TSNO
94908KDBQ DBQ20060319005512303/19/06 00:55:31  5-MIN KDBQ 190655Z AUTO 02006KT 10SM CLR M03/M11 A3036 670 55 -1300 010/06 RMK AO2 SLP295 T10331111 TSNO
94908KDBQ DBQ20060319010010603/19/06 01:00:31  5-MIN KDBQ 190700Z AUTO 01005KT 10SM CLR M04/M11 A3036 670 57 -1400 010/05 RMK AO2 TSNO
94908KDBQ DBQ20060319010510603/19/06 01:05:31  5-MIN KDBQ 190705Z AUTO 02005KT 10SM CLR M04/M11 A3036 670 57 -1400 020/05 RMK AO2 TSNO
94908KDBQ DBQ20060319011010603/19/06 01:10:31  5-MIN KDBQ 190710Z AUTO 02006KT 10SM CLR M04/M11 A3036 670 57 -1400 020/06 RMK AO2 TSNO
94908KDBQ DBQ20060319011510603/19/06 01:15:31  5-MIN KDBQ 190715Z AUTO 02007KT 10SM CLR M04/M11 A3036 670 57 -1400 020/07 RMK AO2 TSNO
94908KDBQ DBQ20060319012010603/19/06 01:20:31  5-MIN KDBQ 190720Z AUTO 02006KT 10SM CLR M04/M11 A3036 670 60 -1500 020/06 RMK AO2 TSNO
94908KDBQ DBQ20060319012510603/19/06 01:25:31  5-MIN KDBQ 190725Z AUTO 02005KT 10SM CLR M04/M11 A3036 670 57 -1400 010/05 RMK AO2 TSNO
94908KDBQ DBQ20060319013010603/19/06 01:30:31  5-MIN KDBQ 190730Z AUTO 02006KT 10SM CLR M03/M11 A3036 670 55 -1300 020/06 RMK AO2 TSNO
94908KDBQ DBQ20060319013510603/19/06 01:35:31  5-MIN KDBQ 190735Z AUTO 03006KT 10SM CLR M03/M11 A3036 670 55 -1300 030/06 RMK AO2 TSNO
94908KDBQ DBQ20060319014010603/19/06 01:40:31  5-MIN KDBQ 190740Z AUTO 03006KT 10SM CLR M04/M11 A3037 670 57 -1400 030/06 RMK AO2 TSNO
94908KDBQ DBQ20060319014510603/19/06 01:45:31  5-MIN KDBQ 190745Z AUTO 03005KT 10SM CLR M03/M12 A3037 670 53 -1300 030/05 RMK AO2 TSNO
94908KDBQ DBQ20060319015012303/19/06 01:50:31  5-MIN KDBQ 190750Z AUTO 03006KT 10SM CLR M03/M11 A3037 670 55 -1300 030/06 RMK AO2 SLP296 T10331111 TSNO
94908KDBQ DBQ20060319015512303/19/06 01:55:31  5-MIN KDBQ 190755Z AUTO 03005KT 10SM CLR M04/M11 A3037 660 57 -1400 030/05 RMK AO2 SLP297 T10391111 TSNO
94908KDBQ DBQ20060319020010603/19/06 02:00:31  5-MIN KDBQ 190800Z AUTO 03007KT 10SM CLR M03/M11 A3037 660 55 -1300 030/07 RMK AO2 TSNO
94908KDBQ DBQ20060319020510603/19/06 02:05:31  5-MIN KDBQ 190805Z AUTO 03006KT 10SM CLR M03/M11 A3037 660 55 -1300 030/06 RMK AO2 TSNO
94908KDBQ DBQ20060319021010603/19/06 02:10:31  5-MIN KDBQ 190810Z AUTO 04008KT 10SM CLR M03/M11 A3037 670 55 -1300 030/08 RMK AO2 TSNO
94908KDBQ DBQ20060319021510603/19/06 02:15:31  5-MIN KDBQ 190815Z AUTO 03007KT 10SM CLR M03/M11 A3037 670 55 -1300 030/07 RMK AO2 TSNO
94908KDBQ DBQ20060319022010603/19/06 02:20:31  5-MIN KDBQ 190820Z AUTO 03007KT 10SM CLR M03/M11 A3037 670 55 -1300 030/07 RMK AO2 TSNO
94908KDBQ DBQ20060319022510603/19/06 02:25:31  5-MIN KDBQ 190825Z AUTO 04007KT 10SM CLR M03/M11 A3037 660 55 -1300 040/07 RMK AO2 TSNO
94908KDBQ DBQ20060319023010603/19/06 02:30:31  5-MIN KDBQ 190830Z AUTO 04007KT 10SM CLR M03/M11 A3037 660 55 -1300 040/07 RMK AO2 TSNO
94908KDBQ DBQ20060319023510603/19/06 02:35:31  5-MIN KDBQ 190835Z AUTO 04008KT 10SM CLR M03/M11 A3037 660 57 -1300 030/08 RMK AO2 TSNO
94908KDBQ DBQ20060319024010603/19/06 02:40:31  5-MIN KDBQ 190840Z AUTO 03008KT 10SM CLR M03/M11 A3037 660 55 -1300 030/08 RMK AO2 TSNO
94908KDBQ DBQ20060319024510603/19/06 02:45:31  5-MIN KDBQ 190845Z AUTO 03008KT 10SM CLR M03/M11 A3037 670 57 -1300 030/08 RMK AO2 TSNO
94908KDBQ DBQ20060319025012903/19/06 02:50:31  5-MIN KDBQ 190850Z AUTO 03008KT 10SM CLR M03/M11 A3037 670 55 -1300 030/08 RMK AO2 SLP296 T10331111 55006 TSNO
94908KDBQ DBQ20060319025512903/19/06 02:55:31  5-MIN KDBQ 190855Z AUTO 03008KT 10SM CLR M04/M11 A3037 670 57 -1400 030/08 RMK AO2 SLP296 T10391111 50002 TSNO
94908KDBQ DBQ20060319030010603/19/06 03:00:31  5-MIN KDBQ 190900Z AUTO 03009KT 10SM CLR M04/M11 A3037 670 60 -1400 030/09 RMK AO2 TSNO
94908KDBQ DBQ20060319030510603/19/06 03:05:31  5-MIN KDBQ 190905Z AUTO 04008KT 10SM CLR M04/M11 A3037 670 60 -1400 030/08 RMK AO2 TSNO
94908KDBQ DBQ20060319031010603/19/06 03:10:31  5-MIN KDBQ 190910Z AUTO 03008KT 10SM CLR M04/M11 A3037 670 60 -1400 030/08 RMK AO2 TSNO
94908KDBQ DBQ20060319031510603/19/06 03:15:31  5-MIN KDBQ 190915Z AUTO 03009KT 10SM CLR M04/M11 A3037 670 57 -1400 030/09 RMK AO2 TSNO
94908KDBQ DBQ20060319032010603/19/06 03:20:31  5-MIN KDBQ 190920Z AUTO 04008KT 10SM CLR M04/M11 A3037 670 60 -1400 030/08 RMK AO2 TSNO
94908KDBQ DBQ20060319032510603/19/06 03:25:31  5-MIN KDBQ 190925Z AUTO 03008KT 10SM CLR M04/M11 A3037 670 60 -1400 030/08 RMK AO2 TSNO
94908KDBQ DBQ20060319033010603/19/06 03:30:31  5-MIN KDBQ 190930Z AUTO 03009KT 10SM CLR M04/M11 A3036 670 60 -1400 030/09 RMK AO2 TSNO
94908KDBQ DBQ20060319033510603/19/06 03:35:31  5-MIN KDBQ 190935Z AUTO 04009KT 10SM CLR M04/M11 A3036 670 60 -1400 040/09 RMK AO2 TSNO
94908KDBQ DBQ20060319034010603/19/06 03:40:31  5-MIN KDBQ 190940Z AUTO 04008KT 10SM CLR M04/M11 A3036 670 62 -1500 040/08 RMK AO2 TSNO
94908KDBQ DBQ20060319034510603/19/06 03:45:31  5-MIN KDBQ 190945Z AUTO 04008KT 10SM CLR M04/M11 A3036 670 60 -1400 040/08 RMK AO2 TSNO
94908KDBQ DBQ20060319035012303/19/06 03:50:31  5-MIN KDBQ 190950Z AUTO 04008KT 10SM CLR M04/M11 A3036 670 60 -1400 040/08 RMK AO2 SLP295 T10391106 TSNO
94908KDBQ DBQ20060319035512303/19/06 03:55:31  5-MIN KDBQ 190955Z AUTO 04008KT 10SM CLR M04/M11 A3037 670 60 -1400 040/08 RMK AO2 SLP296 T10391106 TSNO
94908KDBQ DBQ20060319040010603/19/06 04:00:31  5-MIN KDBQ 191000Z AUTO 04008KT 10SM CLR M04/M11 A3037 670 60 -1400 040/08 RMK AO2 TSNO
94908KDBQ DBQ20060319040510603/19/06 04:05:31  5-MIN KDBQ 191005Z AUTO 04008KT 10SM CLR M04/M11 A3037 670 60 -1400 040/08 RMK AO2 TSNO
94908KDBQ DBQ20060319041010603/19/06 04:10:31  5-MIN KDBQ 191010Z AUTO 04007KT 10SM CLR M04/M11 A3037 670 62 -1500 040/07 RMK AO2 TSNO
94908KDBQ DBQ20060319041510603/19/06 04:15:31  5-MIN KDBQ 191015Z AUTO 04007KT 10SM CLR M04/M11 A3037 670 60 -1400 040/07 RMK AO2 TSNO
94908KDBQ DBQ20060319042010603/19/06 04:20:31  5-MIN KDBQ 191020Z AUTO 04007KT 10SM CLR M04/M11 A3037 660 62 -1500 040/07 RMK AO2 TSNO
94908KDBQ DBQ20060319042510603/19/06 04:25:31  5-MIN KDBQ 191025Z AUTO 04007KT 10SM CLR M04/M11 A3037 660 62 -1500 040/07 RMK AO2 TSNO
94908KDBQ DBQ20060319043010603/19/06 04:30:31  5-MIN KDBQ 191030Z AUTO 04007KT 10SM CLR M04/M11 A3037 670 62 -1500 040/07 RMK AO2 TSNO
94908KDBQ DBQ20060319043510603/19/06 04:35:31  5-MIN KDBQ 191035Z AUTO 04007KT 10SM CLR M04/M11 A3037 670 62 -1500 040/07 RMK AO2 TSNO
94908KDBQ DBQ20060319044010603/19/06 04:40:31  5-MIN KDBQ 191040Z AUTO 04007KT 10SM CLR M04/M11 A3037 670 60 -1500 040/07 RMK AO2 TSNO
94908KDBQ DBQ20060319044510603/19/06 04:45:31  5-MIN KDBQ 191045Z AUTO 04007KT 10SM CLR M04/M11 A3037 670 60 -1500 040/07 RMK AO2 TSNO
94908KDBQ DBQ20060319045012303/19/06 04:50:31  5-MIN KDBQ 191050Z AUTO 04007KT 10SM CLR M04/M11 A3037 660 62 -1500 030/07 RMK AO2 SLP297 T10441106 TSNO
94908KDBQ DBQ20060319045512303/19/06 04:55:31  5-MIN KDBQ 191055Z AUTO 04007KT 10SM CLR M04/M11 A3037 660 62 -1500 030/07 RMK AO2 SLP297 T10441106 TSNO
94908KDBQ DBQ20060319050010603/19/06 05:00:31  5-MIN KDBQ 191100Z AUTO 04007KT 10SM CLR M04/M11 A3037 670 62 -1500 040/07 RMK AO2 TSNO
94908KDBQ DBQ20060319050510603/19/06 05:05:31  5-MIN KDBQ 191105Z AUTO 04007KT 10SM CLR M04/M11 A3037 670 62 -1500 040/07 RMK AO2 TSNO
94908KDBQ DBQ20060319051010603/19/06 05:10:31  5-MIN KDBQ 191110Z AUTO 04007KT 10SM CLR M04/M11 A3037 670 62 -1500 040/07 RMK AO2 TSNO
94908KDBQ DBQ20060319051510603/19/06 05:15:31  5-MIN KDBQ 191115Z AUTO 04007KT 10SM CLR M04/M11 A3037 670 62 -1500 040/07 RMK AO2 TSNO
94908KDBQ DBQ20060319052010603/19/06 05:20:31  5-MIN KDBQ 191120Z AUTO 04007KT 10SM CLR M05/M11 A3036 670 65 -1500 040/07 RMK AO2 TSNO
94908KDBQ DBQ20060319052510603/19/06 05:25:31  5-MIN KDBQ 191125Z AUTO 04007KT 10SM CLR M05/M11 A3036 670 65 -1500 040/07 RMK AO2 TSNO
94908KDBQ DBQ20060319053010603/19/06 05:30:31  5-MIN KDBQ 191130Z AUTO 04006KT 10SM CLR M05/M11 A3036 670 65 -1500 040/06 RMK AO2 TSNO
94908KDBQ DBQ20060319053510603/19/06 05:35:31  5-MIN KDBQ 191135Z AUTO 04006KT 10SM CLR M05/M11 A3036 670 65 -1500 040/06 RMK AO2 TSNO
94908KDBQ DBQ20060319054010603/19/06 05:40:31  5-MIN KDBQ 191140Z AUTO 04006KT 10SM CLR M05/M11 A3037 670 65 -1500 040/06 RMK AO2 TSNO
94908KDBQ DBQ20060319054510603/19/06 05:45:31  5-MIN KDBQ 191145Z AUTO 04006KT 10SM CLR M05/M11 A3037 660 65 -1600 040/06 RMK AO2 TSNO
94908KDBQ DBQ20060319055013103/19/06 05:50:31  5-MIN KDBQ 191150Z 04005KT 10SM CLR M06/M11 A3037 660 68 -1600 040/05 RMK AO2 SLP299 T10561106 11028 21056 50002
94908KDBQ DBQ20060319055513103/19/06 05:55:31  5-MIN KDBQ 191155Z 04005KT 10SM CLR M05/M11 A3037 660 65 -1600 040/05 RMK AO2 SLP300 T10501106 11028 21056 53002
94908KDBQ DBQ20060319060009603/19/06 06:00:31  5-MIN KDBQ 191200Z 04006KT 10SM CLR M05/M11 A3038 660 65 -1600 040/06 RMK AO2
94908KDBQ DBQ20060319060509603/19/06 06:05:31  5-MIN KDBQ 191205Z 04006KT 10SM CLR M05/M11 A3038 660 65 -1600 040/06 RMK AO2
94908KDBQ DBQ20060319061009603/19/06 06:10:31  5-MIN KDBQ 191210Z 04007KT 10SM CLR M05/M11 A3038 660 65 -1600 040/07 RMK AO2
94908KDBQ DBQ20060319061509603/19/06 06:15:31  5-MIN KDBQ 191215Z 03007KT 10SM CLR M05/M11 A3038 660 65 -1600 030/07 RMK AO2
94908KDBQ DBQ20060319062009603/19/06 06:20:31  5-MIN KDBQ 191220Z 04008KT 10SM CLR M05/M10 A3038 660 68 -1600 040/08 RMK AO2
94908KDBQ DBQ20060319062509603/19/06 06:25:31  5-MIN KDBQ 191225Z 03008KT 10SM CLR M05/M10 A3038 660 68 -1600 030/08 RMK AO2
94908KDBQ DBQ20060319063009603/19/06 06:30:31  5-MIN KDBQ 191230Z 03009KT 10SM CLR M05/M10 A3037 660 68 -1600 030/09 RMK AO2
94908KDBQ DBQ20060319063509603/19/06 06:35:31  5-MIN KDBQ 191235Z 04009KT 10SM CLR M04/M10 A3038 660 65 -1500 030/09 RMK AO2
94908KDBQ DBQ20060319064009603/19/06 06:40:31  5-MIN KDBQ 191240Z 03008KT 10SM CLR M04/M10 A3038 660 63 -1400 030/08 RMK AO2
94908KDBQ DBQ20060319064509603/19/06 06:45:31  5-MIN KDBQ 191245Z 03008KT 10SM CLR M04/M10 A3038 660 63 -1400 030/08 RMK AO2
94908KDBQ DBQ20060319065011303/19/06 06:50:31  5-MIN KDBQ 191250Z 03008KT 10SM CLR M04/M10 A3038 660 63 -1400 030/08 RMK AO2 SLP301 T10391100
94908KDBQ DBQ20060319065511303/19/06 06:55:31  5-MIN KDBQ 191255Z 03007KT 10SM CLR M03/M10 A3038 660 60 -1300 030/07 RMK AO2 SLP302 T10331100
94908KDBQ DBQ20060319070009603/19/06 07:00:31  5-MIN KDBQ 191300Z 03007KT 10SM CLR M04/M10 A3038 660 63 -1400 030/07 RMK AO2
94908KDBQ DBQ20060319070509603/19/06 07:05:31  5-MIN KDBQ 191305Z 03006KT 10SM CLR M04/M10 A3038 660 63 -1400 030/06 RMK AO2
94908KDBQ DBQ20060319071009603/19/06 07:10:31  5-MIN KDBQ 191310Z 03007KT 10SM CLR M04/M10 A3038 660 63 -1400 030/07 RMK AO2
94908KDBQ DBQ20060319071509603/19/06 07:15:31  5-MIN KDBQ 191315Z 03007KT 10SM CLR M03/M10 A3038 660 60 -1300 030/07 RMK AO2
94908KDBQ DBQ20060319072009603/19/06 07:20:31  5-MIN KDBQ 191320Z 03007KT 10SM CLR M03/M10 A3038 660 60 -1300 030/07 RMK AO2
94908KDBQ DBQ20060319072509603/19/06 07:25:31  5-MIN KDBQ 191325Z 03009KT 10SM CLR M03/M10 A3038 660 58 -1300 030/09 RMK AO2
94908KDBQ DBQ20060319073009603/19/06 07:30:31  5-MIN KDBQ 191330Z 03008KT 10SM CLR M03/M09 A3038 660 60 -1300 030/08 RMK AO2
94908KDBQ DBQ20060319073509603/19/06 07:35:31  5-MIN KDBQ 191335Z 04009KT 10SM CLR M03/M09 A3038 660 60 -1300 030/09 RMK AO2
94908KDBQ DBQ20060319074009603/19/06 07:40:31  5-MIN KDBQ 191340Z 04008KT 10SM CLR M03/M10 A3038 660 58 -1300 030/08 RMK AO2
94908KDBQ DBQ20060319074509603/19/06 07:45:31  5-MIN KDBQ 191345Z 04008KT 10SM CLR M03/M09 A3038 660 60 -1300 030/08 RMK AO2
94908KDBQ DBQ20060319075011303/19/06 07:50:31  5-MIN KDBQ 191350Z 04009KT 10SM CLR M03/M09 A3037 660 60 -1300 040/09 RMK AO2 SLP301 T10281094
94908KDBQ DBQ20060319075511303/19/06 07:55:31  5-MIN KDBQ 191355Z 04010KT 10SM CLR M03/M09 A3037 660 60 -1300 040/10 RMK AO2 SLP301 T10281094
94908KDBQ DBQ20060319080009603/19/06 08:00:31  5-MIN KDBQ 191400Z 04009KT 10SM CLR M03/M09 A3037 660 60 -1300 040/09 RMK AO2
94908KDBQ DBQ20060319080509603/19/06 08:05:31  5-MIN KDBQ 191405Z 03010KT 10SM CLR M02/M09 A3037 660 60 -1200 030/10 RMK AO2
94908KDBQ DBQ20060319081009603/19/06 08:10:31  5-MIN KDBQ 191410Z 04010KT 10SM CLR M02/M09 A3037 660 60 -1200 040/10 RMK AO2
94908KDBQ DBQ20060319081509603/19/06 08:15:31  5-MIN KDBQ 191415Z 03010KT 10SM CLR M02/M09 A3037 660 60 -1200 030/10 RMK AO2
94908KDBQ DBQ20060319082009603/19/06 08:20:31  5-MIN KDBQ 191420Z 03011KT 10SM CLR M02/M09 A3037 660 58 -1200 030/11 RMK AO2
94908KDBQ DBQ20060319082509603/19/06 08:25:31  5-MIN KDBQ 191425Z 04010KT 10SM CLR M02/M09 A3037 670 55 -1100 030/10 RMK AO2
94908KDBQ DBQ20060319083009603/19/06 08:30:31  5-MIN KDBQ 191430Z 03009KT 10SM CLR M02/M09 A3037 670 58 -1100 030/09 RMK AO2
94908KDBQ DBQ20060319083509603/19/06 08:35:31  5-MIN KDBQ 191435Z 04008KT 10SM CLR M01/M09 A3036 670 53 -1100 040/08 RMK AO2
94908KDBQ DBQ20060319084009603/19/06 08:40:31  5-MIN KDBQ 191440Z 05010KT 10SM CLR M01/M10 A3036 670 51 -1000 050/10 RMK AO2
94908KDBQ DBQ20060319084509603/19/06 08:45:31  5-MIN KDBQ 191445Z 05009KT 10SM CLR M01/M10 A3036 670 51 -1000 040/09 RMK AO2
94908KDBQ DBQ20060319085011903/19/06 08:50:31  5-MIN KDBQ 191450Z 04009KT 10SM CLR M01/M09 A3036 670 51 -1000 040/09 RMK AO2 SLP296 T10061094 53002
94908KDBQ DBQ20060319085511903/19/06 08:55:31  5-MIN KDBQ 191455Z 05009KT 10SM CLR M01/M09 A3036 670 51 -1000 050/09 RMK AO2 SLP296 T10061094 58003
94908KDBQ DBQ20060319090009603/19/06 09:00:31  5-MIN KDBQ 191500Z 06011KT 10SM CLR M01/M09 A3037 670 51 -1000 060/11 RMK AO2
94908KDBQ DBQ20060319090509403/19/06 09:05:31  5-MIN KDBQ 191505Z 04010KT 10SM CLR 00/M09 A3037 670 49 -900 040/10 RMK AO2
94908KDBQ DBQ20060319091009403/19/06 09:10:31  5-MIN KDBQ 191510Z 05011KT 10SM CLR 00/M09 A3037 670 49 -900 050/11 RMK AO2
94908KDBQ DBQ20060319091509403/19/06 09:15:31  5-MIN KDBQ 191515Z 05011KT 10SM CLR 00/M09 A3037 670 49 -900 050/11 RMK AO2
94908KDBQ DBQ20060319092009403/19/06 09:20:31  5-MIN KDBQ 191520Z 06012KT 10SM CLR 00/M09 A3036 670 49 -900 050/12 RMK AO2
94908KDBQ DBQ20060319092509403/19/06 09:25:31  5-MIN KDBQ 191525Z 06008KT 10SM CLR 00/M09 A3036 670 49 -900 060/08 RMK AO2
94908KDBQ DBQ20060319093009403/19/06 09:30:31  5-MIN KDBQ 191530Z 05010KT 10SM CLR 01/M09 A3036 670 49 -800 050/10 RMK AO2
94908KDBQ DBQ20060319093509403/19/06 09:35:31  5-MIN KDBQ 191535Z 04012KT 10SM CLR 01/M09 A3036 680 49 -800 040/12 RMK AO2
94908KDBQ DBQ20060319094009403/19/06 09:40:31  5-MIN KDBQ 191540Z 04012KT 10SM CLR 01/M09 A3036 680 49 -800 040/12 RMK AO2
94908KDBQ DBQ20060319094509403/19/06 09:45:31  5-MIN KDBQ 191545Z 06012KT 10SM CLR 01/M09 A3036 680 47 -800 060/12 RMK AO2
94908KDBQ DBQ20060319095011103/19/06 09:50:31  5-MIN KDBQ 191550Z 04012KT 10SM CLR 01/M09 A3036 680 47 -800 030/12 RMK AO2 SLP292 T00111089
94908KDBQ DBQ20060319095511103/19/06 09:55:31  5-MIN KDBQ 191555Z 05012KT 10SM CLR 01/M08 A3035 680 49 -800 040/12 RMK AO2 SLP291 T00111083
94908KDBQ DBQ20060319100009403/19/06 10:00:31  5-MIN KDBQ 191600Z 05012KT 10SM CLR 01/M09 A3035 680 47 -800 040/12 RMK AO2
94908KDBQ DBQ20060319100509403/19/06 10:05:31  5-MIN KDBQ 191605Z 06011KT 10SM CLR 01/M09 A3035 680 47 -800 060/11 RMK AO2
94908KDBQ DBQ20060319101009403/19/06 10:10:31  5-MIN KDBQ 191610Z 04012KT 10SM CLR 02/M09 A3036 680 45 -700 040/12 RMK AO2
94908KDBQ DBQ20060319101509403/19/06 10:15:31  5-MIN KDBQ 191615Z 05010KT 10SM CLR 01/M09 A3036 680 47 -800 050/10 RMK AO2
94908KDBQ DBQ20060319102009403/19/06 10:20:31  5-MIN KDBQ 191620Z 06009KT 10SM CLR 02/M09 A3035 680 43 -700 060/09 RMK AO2
94908KDBQ DBQ20060319102509403/19/06 10:25:31  5-MIN KDBQ 191625Z 07009KT 10SM CLR 02/M09 A3035 680 45 -700 070/09 RMK AO2
94908KDBQ DBQ20060319103009403/19/06 10:30:31  5-MIN KDBQ 191630Z 03010KT 10SM CLR 02/M09 A3035 690 45 -700 030/10 RMK AO2
94908KDBQ DBQ20060319103509403/19/06 10:35:31  5-MIN KDBQ 191635Z 04006KT 10SM CLR 02/M09 A3035 690 45 -700 040/06 RMK AO2
94908KDBQ DBQ20060319104009403/19/06 10:40:31  5-MIN KDBQ 191640Z 05008KT 10SM CLR 02/M08 A3035 690 45 -600 050/08 RMK AO2
94908KDBQ DBQ20060319104509403/19/06 10:45:31  5-MIN KDBQ 191645Z 03010KT 10SM CLR 02/M09 A3035 680 43 -700 030/10 RMK AO2
94908KDBQ DBQ20060319105011103/19/06 10:50:31  5-MIN KDBQ 191650Z 04009KT 10SM CLR 02/M09 A3035 690 43 -700 040/09 RMK AO2 SLP289 T00171094
94908KDBQ DBQ20060319105511103/19/06 10:55:31  5-MIN KDBQ 191655Z 06008KT 10SM CLR 02/M09 A3035 690 42 -600 060/08 RMK AO2 SLP289 T00221094
94908KDBQ DBQ20060319110009403/19/06 11:00:31  5-MIN KDBQ 191700Z 03009KT 10SM CLR 02/M09 A3035 680 43 -700 030/09 RMK AO2
94908KDBQ DBQ20060319110509403/19/06 11:05:31  5-MIN KDBQ 191705Z 04006KT 10SM CLR 02/M09 A3035 690 42 -600 040/06 RMK AO2
94908KDBQ DBQ20060319111009403/19/06 11:10:31  5-MIN KDBQ 191710Z 05007KT 10SM CLR 03/M09 A3035 690 42 -500 050/07 RMK AO2
94908KDBQ DBQ20060319111509403/19/06 11:15:31  5-MIN KDBQ 191715Z 05005KT 10SM CLR 03/M09 A3034 690 40 -500 050/05 RMK AO2
94908KDBQ DBQ20060319112009403/19/06 11:20:31  5-MIN KDBQ 191720Z VRB06KT 10SM CLR 03/M09 A3034 690 40 -500 VRB/06 RMK AO2
94908KDBQ DBQ20060319112509403/19/06 11:25:31  5-MIN KDBQ 191725Z 05008KT 10SM CLR 03/M10 A3034 690 37 -500 050/08 RMK AO2
94908KDBQ DBQ20060319113009403/19/06 11:30:31  5-MIN KDBQ 191730Z 03009KT 10SM CLR 03/M10 A3034 690 38 -500 030/09 RMK AO2
94908KDBQ DBQ20060319113509403/19/06 11:35:31  5-MIN KDBQ 191735Z 05009KT 10SM CLR 03/M09 A3034 700 39 -500 050/09 RMK AO2
94908KDBQ DBQ20060319114009403/19/06 11:40:31  5-MIN KDBQ 191740Z 04008KT 10SM CLR 03/M10 A3033 700 37 -500 040/08 RMK AO2
94908KDBQ DBQ20060319114509403/19/06 11:45:31  5-MIN KDBQ 191745Z 05008KT 10SM CLR 04/M09 A3033 700 37 -400 050/08 RMK AO2
94908KDBQ DBQ20060319115012903/19/06 11:50:31  5-MIN KDBQ 191750Z 03010KT 10SM CLR 04/M10 A3033 700 35 -400 030/10 RMK AO2 SLP285 T00391100 10039 21050 58003
94908KDBQ DBQ20060319115512903/19/06 11:55:31  5-MIN KDBQ 191755Z 03007KT 10SM CLR 03/M11 A3033 700 35 -500 030/07 RMK AO2 SLP284 T00281111 10039 21050 58010
94908KDBQ DBQ20060319120009403/19/06 12:00:31  5-MIN KDBQ 191800Z 05008KT 10SM CLR 03/M11 A3033 700 35 -500 050/08 RMK AO2
94908KDBQ DBQ20060319120509403/19/06 12:05:31  5-MIN KDBQ 191805Z 04008KT 10SM CLR 04/M11 A3033 700 34 -400 040/08 RMK AO2
94908KDBQ DBQ20060319121009403/19/06 12:10:31  5-MIN KDBQ 191810Z 06007KT 10SM CLR 04/M11 A3033 700 32 -400 060/07 RMK AO2
94908KDBQ DBQ20060319121509403/19/06 12:15:31  5-MIN KDBQ 191815Z VRB06KT 10SM CLR 04/M12 A3033 700 29 -300 VRB/06 RMK AO2
94908KDBQ DBQ20060319122009403/19/06 12:20:31  5-MIN KDBQ 191820Z 06007KT 10SM CLR 04/M12 A3033 700 29 -300 060/07 RMK AO2
94908KDBQ DBQ20060319122509403/19/06 12:25:31  5-MIN KDBQ 191825Z 08009KT 10SM CLR 04/M12 A3033 700 29 -300 080/09 RMK AO2
94908KDBQ DBQ20060319123009403/19/06 12:30:31  5-MIN KDBQ 191830Z 08006KT 10SM CLR 04/M12 A3033 700 30 -400 080/06 RMK AO2
94908KDBQ DBQ20060319123509403/19/06 12:35:31  5-MIN KDBQ 191835Z 07009KT 10SM CLR 04/M12 A3033 700 29 -300 070/09 RMK AO2
94908KDBQ DBQ20060319124009403/19/06 12:40:31  5-MIN KDBQ 191840Z 06008KT 10SM CLR 05/M11 A3033 700 30 -200 060/08 RMK AO2
94908KDBQ DBQ20060319124509403/19/06 12:45:31  5-MIN KDBQ 191845Z 06007KT 10SM CLR 04/M13 A3033 710 27 -300 060/07 RMK AO2
94908KDBQ DBQ20060319125011103/19/06 12:50:31  5-MIN KDBQ 191850Z 08007KT 10SM CLR 05/M13 A3033 710 26 -200 080/07 RMK AO2 SLP281 T00501128
94908KDBQ DBQ20060319125511103/19/06 12:55:31  5-MIN KDBQ 191855Z 04008KT 10SM CLR 05/M12 A3032 710 27 -200 040/08 RMK AO2 SLP280 T00501122
94908KDBQ DBQ20060319130009403/19/06 13:00:31  5-MIN KDBQ 191900Z 03005KT 10SM CLR 05/M13 A3032 710 26 -200 030/05 RMK AO2
94908KDBQ DBQ20060319130509403/19/06 13:05:31  5-MIN KDBQ 191905Z 05006KT 10SM CLR 06/M12 A3032 710 28 -200 050/06 RMK AO2
94908KDBQ DBQ20060319131009403/19/06 13:10:31  5-MIN KDBQ 191910Z 01004KT 10SM CLR 06/M11 A3031 720 29 -200 010/04 RMK AO2
94908KDBQ DBQ20060319131509403/19/06 13:15:31  5-MIN KDBQ 191915Z 05005KT 10SM CLR 06/M12 A3031 720 28 -200 050/05 RMK AO2
94908KDBQ DBQ20060319132009403/19/06 13:20:31  5-MIN KDBQ 191920Z 05007KT 10SM CLR 06/M13 A3031 720 25 -200 040/07 RMK AO2
94908KDBQ DBQ20060319132509403/19/06 13:25:31  5-MIN KDBQ 191925Z 03006KT 10SM CLR 06/M12 A3031 720 28 -200 030/06 RMK AO2
94908KDBQ DBQ20060319133009403/19/06 13:30:31  5-MIN KDBQ 191930Z 02007KT 10SM CLR 06/M13 A3031 720 25 -200 020/07 RMK AO2
94908KDBQ DBQ20060319133509403/19/06 13:35:31  5-MIN KDBQ 191935Z 02005KT 10SM CLR 06/M13 A3031 720 25 -200 020/05 RMK AO2
94908KDBQ DBQ20060319134009403/19/06 13:40:31  5-MIN KDBQ 191940Z 00000KT 10SM CLR 05/M14 A3030 730 24 -200 000/00 RMK AO2
94908KDBQ DBQ20060319134509403/19/06 13:45:31  5-MIN KDBQ 191945Z VRB05KT 10SM CLR 06/M14 A3030 730 23 -100 VRB/05 RMK AO2
94908KDBQ DBQ20060319135011103/19/06 13:50:31  5-MIN KDBQ 191950Z 05007KT 10SM CLR 06/M13 A3030 730 24 -100 050/07 RMK AO2 SLP271 T00611128
94908KDBQ DBQ20060319135511103/19/06 13:55:31  5-MIN KDBQ 191955Z 04005KT 10SM CLR 06/M13 A3030 730 23 -100 030/05 RMK AO2 SLP271 T00611133
94908KDBQ DBQ20060319140009403/19/06 14:00:31  5-MIN KDBQ 192000Z 00000KT 10SM CLR 06/M15 A3029 730 21 -100 000/00 RMK AO2
94908KDBQ DBQ20060319140509403/19/06 14:05:31  5-MIN KDBQ 192005Z 03006KT 10SM CLR 06/M14 A3029 730 22 -100 020/06 RMK AO2
94908KDBQ DBQ20060319141009103/19/06 14:10:31  5-MIN KDBQ 192010Z 03004KT 10SM CLR 07/M14 A3029 740 21 0 030/04 RMK AO2
94908KDBQ DBQ20060319141509103/19/06 14:15:31  5-MIN KDBQ 192015Z VRB05KT 10SM CLR 07/M14 A3029 740 21 0 VRB/05 RMK AO2
94908KDBQ DBQ20060319142009103/19/06 14:20:31  5-MIN KDBQ 192020Z 01007KT 10SM CLR 07/M12 A3029 740 24 0 010/07 RMK AO2
94908KDBQ DBQ20060319142509103/19/06 14:25:31  5-MIN KDBQ 192025Z 02006KT 10SM CLR 07/M14 A3029 740 21 0 020/06 RMK AO2
94908KDBQ DBQ20060319143009103/19/06 14:30:31  5-MIN KDBQ 192030Z 06006KT 10SM CLR 07/M14 A3029 740 21 0 060/06 RMK AO2
94908KDBQ DBQ20060319143509403/19/06 14:35:31  5-MIN KDBQ 192035Z VRB03KT 10SM CLR 06/M14 A3029 740 22 -100 VRB/03 RMK AO2
94908KDBQ DBQ20060319144009103/19/06 14:40:31  5-MIN KDBQ 192040Z 04005KT 10SM CLR 07/M13 A3028 740 23 0 040/05 RMK AO2
94908KDBQ DBQ20060319144509103/19/06 14:45:31  5-MIN KDBQ 192045Z 00000KT 10SM CLR 07/M14 A3028 750 21 0 000/00 RMK AO2
94908KDBQ DBQ20060319145011403/19/06 14:50:31  5-MIN KDBQ 192050Z 06007KT 10SM CLR 07/M13 A3028 750 23 0 050/07 RMK AO2 SLP265 T00671128 58010
94908KDBQ DBQ20060319145511403/19/06 14:55:31  5-MIN KDBQ 192055Z 05005KT 10SM CLR 07/M13 A3028 750 22 0 050/05 RMK AO2 SLP265 T00671133 58018
94908KDBQ DBQ20060319150009103/19/06 15:00:31  5-MIN KDBQ 192100Z 06006KT 10SM CLR 07/M14 A3028 750 21 0 060/06 RMK AO2
94908KDBQ DBQ20060319150509103/19/06 15:05:31  5-MIN KDBQ 192105Z VRB05KT 10SM CLR 07/M14 A3028 750 21 0 VRB/05 RMK AO2
94908KDBQ DBQ20060319151009103/19/06 15:10:31  5-MIN KDBQ 192110Z 05006KT 10SM CLR 07/M13 A3028 750 23 0 050/06 RMK AO2
94908KDBQ DBQ20060319151509103/19/06 15:15:31  5-MIN KDBQ 192115Z 06007KT 10SM CLR 07/M13 A3028 750 22 0 060/07 RMK AO2
94908KDBQ DBQ20060319152009103/19/06 15:20:31  5-MIN KDBQ 192120Z 05008KT 10SM CLR 07/M14 A3028 750 21 0 050/08 RMK AO2
94908KDBQ DBQ20060319152509103/19/06 15:25:31  5-MIN KDBQ 192125Z VRB03KT 10SM CLR 07/M14 A3028 750 20 0 VRB/03 RMK AO2
94908KDBQ DBQ20060319153009103/19/06 15:30:31  5-MIN KDBQ 192130Z 00000KT 10SM CLR 07/M13 A3028 750 23 0 000/00 RMK AO2
94908KDBQ DBQ20060319153509103/19/06 15:35:31  5-MIN KDBQ 192135Z 01006KT 10SM CLR 07/M13 A3027 760 23 0 010/06 RMK AO2
94908KDBQ DBQ20060319154009103/19/06 15:40:31  5-MIN KDBQ 192140Z 36004KT 10SM CLR 07/M12 A3027 760 24 0 360/04 RMK AO2
94908KDBQ DBQ20060319154509103/19/06 15:45:31  5-MIN KDBQ 192145Z 04010KT 10SM CLR 07/M12 A3027 760 24 0 040/10 RMK AO2
94908KDBQ DBQ20060319155010803/19/06 15:50:31  5-MIN KDBQ 192150Z 05008KT 10SM CLR 07/M12 A3027 760 24 0 050/08 RMK AO2 SLP261 T00671122
94908KDBQ DBQ20060319155510803/19/06 15:55:31  5-MIN KDBQ 192155Z 05007KT 10SM CLR 07/M11 A3027 760 27 0 050/07 RMK AO2 SLP261 T00671111
94908KDBQ DBQ20060319160009103/19/06 16:00:31  5-MIN KDBQ 192200Z 04007KT 10SM CLR 07/M12 A3027 760 26 0 040/07 RMK AO2
94908KDBQ DBQ20060319160509303/19/06 16:05:31  5-MIN KDBQ 192205Z 03008KT 10SM CLR 07/M11 A3026 760 26 100 030/08 RMK AO2
94908KDBQ DBQ20060319161009103/19/06 16:10:31  5-MIN KDBQ 192210Z 03007KT 10SM CLR 07/M11 A3026 770 28 0 030/07 RMK AO2
94908KDBQ DBQ20060319161509103/19/06 16:15:31  5-MIN KDBQ 192215Z 04008KT 10SM CLR 07/M11 A3026 770 28 0 040/08 RMK AO2
94908KDBQ DBQ20060319162009103/19/06 16:20:31  5-MIN KDBQ 192220Z 03008KT 10SM CLR 07/M10 A3026 770 29 0 030/08 RMK AO2
94908KDBQ DBQ20060319162509103/19/06 16:25:31  5-MIN KDBQ 192225Z 03009KT 10SM CLR 07/M11 A3026 770 28 0 020/09 RMK AO2
94908KDBQ DBQ20060319163009103/19/06 16:30:31  5-MIN KDBQ 192230Z 03009KT 10SM CLR 07/M11 A3026 760 27 0 030/09 RMK AO2
94908KDBQ DBQ20060319163509103/19/06 16:35:31  5-MIN KDBQ 192235Z 01008KT 10SM CLR 06/M12 A3026 760 27 0 010/08 RMK AO2
94908KDBQ DBQ20060319164009103/19/06 16:40:31  5-MIN KDBQ 192240Z 03008KT 10SM CLR 07/M11 A3026 760 28 0 030/08 RMK AO2
94908KDBQ DBQ20060319164509103/19/06 16:45:31  5-MIN KDBQ 192245Z 04008KT 10SM CLR 06/M11 A3026 760 28 0 040/08 RMK AO2
94908KDBQ DBQ20060319165010803/19/06 16:50:31  5-MIN KDBQ 192250Z 07008KT 10SM CLR 06/M11 A3026 770 29 0 070/08 RMK AO2 SLP258 T00611106
94908KDBQ DBQ20060319165510803/19/06 16:55:31  5-MIN KDBQ 192255Z 05010KT 10SM CLR 06/M11 A3026 770 28 0 050/10 RMK AO2 SLP257 T00611111
94908KDBQ DBQ20060319170009103/19/06 17:00:31  5-MIN KDBQ 192300Z 05011KT 10SM CLR 06/M11 A3025 770 28 0 050/11 RMK AO2
94908KDBQ DBQ20060319170509103/19/06 17:05:31  5-MIN KDBQ 192305Z 05011KT 10SM CLR 06/M12 A3025 770 27 0 040/11 RMK AO2
94908KDBQ DBQ20060319171009403/19/06 17:10:31  5-MIN KDBQ 192310Z 05009KT 10SM CLR 06/M12 A3025 770 28 -100 050/09 RMK AO2
94908KDBQ DBQ20060319171509403/19/06 17:15:31  5-MIN KDBQ 192315Z 05010KT 10SM CLR 06/M12 A3025 780 28 -100 050/10 RMK AO2
94908KDBQ DBQ20060319172009403/19/06 17:20:31  5-MIN KDBQ 192320Z 05008KT 10SM CLR 05/M11 A3025 780 30 -200 050/08 RMK AO2
94908KDBQ DBQ20060319172509403/19/06 17:25:31  5-MIN KDBQ 192325Z 05010KT 10SM CLR 05/M11 A3025 770 30 -200 040/10 RMK AO2
94908KDBQ DBQ20060319173009403/19/06 17:30:31  5-MIN KDBQ 192330Z 05009KT 10SM CLR 05/M11 A3025 780 31 -200 050/09 RMK AO2
94908KDBQ DBQ20060319173509403/19/06 17:35:31  5-MIN KDBQ 192335Z 05008KT 10SM CLR 04/M11 A3025 780 33 -200 050/08 RMK AO2
94908KDBQ DBQ20060319174009403/19/06 17:40:31  5-MIN KDBQ 192340Z 06010KT 10SM CLR 04/M11 A3024 780 33 -200 060/10 RMK AO2
94908KDBQ DBQ20060319174509403/19/06 17:45:31  5-MIN KDBQ 192345Z 06009KT 10SM CLR 04/M11 A3024 780 31 -200 050/09 RMK AO2
94908KDBQ DBQ20060319175012903/19/06 17:50:31  5-MIN KDBQ 192350Z 05009KT 10SM CLR 04/M11 A3025 780 31 -200 050/09 RMK AO2 SLP256 T00441111 10072 20028 58018
94908KDBQ DBQ20060319175512903/19/06 17:55:31  5-MIN KDBQ 192355Z 05009KT 10SM CLR 04/M11 A3025 780 33 -200 050/09 RMK AO2 SLP255 T00441106 10072 20028 56011
94908KDBQ DBQ20060319180009403/19/06 18:00:31  5-MIN KDBQ 200000Z 05009KT 10SM CLR 04/M12 A3024 780 30 -200 050/09 RMK AO2
94908KDBQ DBQ20060319180509403/19/06 18:05:31  5-MIN KDBQ 200005Z 05008KT 10SM CLR 04/M11 A3025 780 32 -300 050/08 RMK AO2
94908KDBQ DBQ20060319181009403/19/06 18:10:31  5-MIN KDBQ 200010Z 05008KT 10SM CLR 04/M11 A3024 780 32 -300 050/08 RMK AO2
94908KDBQ DBQ20060319181509403/19/06 18:15:31  5-MIN KDBQ 200015Z 05008KT 10SM CLR 03/M11 A3025 780 34 -400 050/08 RMK AO2
94908KDBQ DBQ20060319182009403/19/06 18:20:31  5-MIN KDBQ 200020Z 05008KT 10SM CLR 04/M11 A3025 780 32 -300 050/08 RMK AO2
94908KDBQ DBQ20060319182509403/19/06 18:25:31  5-MIN KDBQ 200025Z 05006KT 10SM CLR 03/M11 A3025 780 35 -400 050/06 RMK AO2
94908KDBQ DBQ20060319183009403/19/06 18:30:31  5-MIN KDBQ 200030Z 05007KT 10SM CLR 03/M11 A3025 770 37 -400 050/07 RMK AO2
94908KDBQ DBQ20060319183509403/19/06 18:35:31  5-MIN KDBQ 200035Z 05006KT 10SM CLR 03/M10 A3025 780 38 -400 050/06 RMK AO2
94908KDBQ DBQ20060319184009403/19/06 18:40:31  5-MIN KDBQ 200040Z 05005KT 10SM CLR 02/M11 A3025 780 38 -500 050/05 RMK AO2
94908KDBQ DBQ20060319184509403/19/06 18:45:31  5-MIN KDBQ 200045Z 05006KT 10SM CLR 02/M10 A3025 780 40 -500 050/06 RMK AO2
94908KDBQ DBQ20060319185011103/19/06 18:50:31  5-MIN KDBQ 200050Z 05006KT 10SM CLR 02/M10 A3025 780 40 -500 050/06 RMK AO2 SLP256 T00221100
94908KDBQ DBQ20060319185512103/19/06 18:55:31  5-MIN KDBQ 200055Z AUTO 05006KT 10SM CLR 02/M10 A3024 780 40 -500 050/06 RMK AO2 SLP254 T00221100 TSNO
94908KDBQ DBQ20060319190010403/19/06 19:00:31  5-MIN KDBQ 200100Z AUTO 04005KT 10SM CLR 02/M10 A3025 780 40 -500 040/05 RMK AO2 TSNO
94908KDBQ DBQ20060319190510403/19/06 19:05:31  5-MIN KDBQ 200105Z AUTO 05005KT 10SM CLR 02/M10 A3024 780 40 -500 050/05 RMK AO2 TSNO
94908KDBQ DBQ20060319191010403/19/06 19:10:31  5-MIN KDBQ 200110Z AUTO 05005KT 10SM CLR 02/M11 A3025 780 38 -500 050/05 RMK AO2 TSNO
94908KDBQ DBQ20060319191510403/19/06 19:15:31  5-MIN KDBQ 200115Z AUTO 05004KT 10SM CLR 02/M11 A3025 770 38 -500 050/04 RMK AO2 TSNO
94908KDBQ DBQ20060319192010403/19/06 19:20:31  5-MIN KDBQ 200120Z AUTO 05004KT 10SM CLR 02/M11 A3026 770 38 -500 050/04 RMK AO2 TSNO
94908KDBQ DBQ20060319192510403/19/06 19:25:31  5-MIN KDBQ 200125Z AUTO 04005KT 10SM CLR 02/M11 A3026 770 38 -500 040/05 RMK AO2 TSNO
94908KDBQ DBQ20060319193010403/19/06 19:30:31  5-MIN KDBQ 200130Z AUTO 05005KT 10SM CLR 02/M10 A3026 760 40 -500 050/05 RMK AO2 TSNO
94908KDBQ DBQ20060319193510403/19/06 19:35:31  5-MIN KDBQ 200135Z AUTO 05005KT 10SM CLR 02/M10 A3026 760 40 -500 050/05 RMK AO2 TSNO
94908KDBQ DBQ20060319194010403/19/06 19:40:31  5-MIN KDBQ 200140Z AUTO 05005KT 10SM CLR 02/M10 A3026 760 40 -500 050/05 RMK AO2 TSNO
94908KDBQ DBQ20060319194510403/19/06 19:45:31  5-MIN KDBQ 200145Z AUTO 05006KT 10SM CLR 03/M10 A3026 760 38 -400 050/06 RMK AO2 TSNO
94908KDBQ DBQ20060319195012103/19/06 19:50:31  5-MIN KDBQ 200150Z AUTO 05005KT 10SM CLR 03/M09 A3026 760 40 -400 050/05 RMK AO2 SLP261 T00281094 TSNO
94908KDBQ DBQ20060319195512103/19/06 19:55:31  5-MIN KDBQ 200155Z AUTO 06005KT 10SM CLR 03/M09 A3026 760 40 -400 050/05 RMK AO2 SLP261 T00281094 TSNO
94908KDBQ DBQ20060319200010403/19/06 20:00:31  5-MIN KDBQ 200200Z AUTO 06005KT 10SM CLR 02/M09 A3026 760 44 -500 050/05 RMK AO2 TSNO
94908KDBQ DBQ20060319200510403/19/06 20:05:31  5-MIN KDBQ 200205Z AUTO 06005KT 10SM CLR 03/M09 A3026 760 40 -400 060/05 RMK AO2 TSNO
94908KDBQ DBQ20060319201010403/19/06 20:10:31  5-MIN KDBQ 200210Z AUTO 06006KT 10SM CLR 03/M10 A3026 760 38 -400 060/06 RMK AO2 TSNO
94908KDBQ DBQ20060319201510703/19/06 20:15:31  5-MIN KDBQ 200215Z AUTO 04006KT 10SM FEW120 03/M09 A3026 760 42 -400 040/06 RMK AO2 TSNO
94908KDBQ DBQ20060319202010703/19/06 20:20:31  5-MIN KDBQ 200220Z AUTO 05005KT 10SM FEW120 03/M09 A3027 760 42 -400 050/05 RMK AO2 TSNO
94908KDBQ DBQ20060319202510703/19/06 20:25:31  5-MIN KDBQ 200225Z AUTO 05006KT 10SM FEW120 03/M09 A3026 760 40 -400 050/06 RMK AO2 TSNO
94908KDBQ DBQ20060319203010703/19/06 20:30:31  5-MIN KDBQ 200230Z AUTO 06005KT 10SM FEW120 03/M09 A3026 760 40 -400 060/05 RMK AO2 TSNO
94908KDBQ DBQ20060319203510703/19/06 20:35:31  5-MIN KDBQ 200235Z AUTO 06007KT 10SM FEW120 03/M10 A3027 760 38 -500 060/07 RMK AO2 TSNO
94908KDBQ DBQ20060319204010703/19/06 20:40:31  5-MIN KDBQ 200240Z AUTO 06006KT 10SM FEW120 03/M10 A3027 750 38 -500 060/06 RMK AO2 TSNO
94908KDBQ DBQ20060319204510703/19/06 20:45:31  5-MIN KDBQ 200245Z AUTO 07008KT 10SM FEW120 03/M11 A3027 750 35 -400 070/08 RMK AO2 TSNO
94908KDBQ DBQ20060319205013003/19/06 20:50:31  5-MIN KDBQ 200250Z AUTO 07009KT 10SM FEW120 03/M09 A3027 760 40 -500 070/09 RMK AO2 SLP261 T00281094 56011 TSNO
94908KDBQ DBQ20060319205513003/19/06 20:55:31  5-MIN KDBQ 200255Z AUTO 06008KT 10SM SCT120 03/M10 A3027 750 37 -400 060/08 RMK AO2 SLP263 T00331100 53009 TSNO
94908KDBQ DBQ20060319210010703/19/06 21:00:31  5-MIN KDBQ 200300Z AUTO 07009KT 10SM SCT120 03/M11 A3027 750 35 -400 070/09 RMK AO2 TSNO
94908KDBQ DBQ20060319210510703/19/06 21:05:31  5-MIN KDBQ 200305Z AUTO 06009KT 10SM FEW120 03/M10 A3027 750 37 -400 060/09 RMK AO2 TSNO
94908KDBQ DBQ20060319211010703/19/06 21:10:31  5-MIN KDBQ 200310Z AUTO 06010KT 10SM FEW120 03/M10 A3027 760 37 -400 060/10 RMK AO2 TSNO
94908KDBQ DBQ20060319211510703/19/06 21:15:31  5-MIN KDBQ 200315Z AUTO 07009KT 10SM FEW120 03/M11 A3027 760 35 -400 060/09 RMK AO2 TSNO
94908KDBQ DBQ20060319212010703/19/06 21:20:31  5-MIN KDBQ 200320Z AUTO 07010KT 10SM FEW120 03/M11 A3027 760 35 -400 070/10 RMK AO2 TSNO
94908KDBQ DBQ20060319212510703/19/06 21:25:31  5-MIN KDBQ 200325Z AUTO 07008KT 10SM FEW120 03/M11 A3026 760 35 -400 070/08 RMK AO2 TSNO
94908KDBQ DBQ20060319213010703/19/06 21:30:31  5-MIN KDBQ 200330Z AUTO 07007KT 10SM FEW120 03/M11 A3026 760 35 -400 070/07 RMK AO2 TSNO
94908KDBQ DBQ20060319213510703/19/06 21:35:31  5-MIN KDBQ 200335Z AUTO 07007KT 10SM FEW120 03/M11 A3026 760 35 -400 070/07 RMK AO2 TSNO
94908KDBQ DBQ20060319214010703/19/06 21:40:31  5-MIN KDBQ 200340Z AUTO 07006KT 10SM SCT120 03/M11 A3026 760 37 -400 070/06 RMK AO2 TSNO
94908KDBQ DBQ20060319214510703/19/06 21:45:31  5-MIN KDBQ 200345Z AUTO 07005KT 10SM FEW120 03/M11 A3027 760 37 -500 070/05 RMK AO2 TSNO
94908KDBQ DBQ20060319215012403/19/06 21:50:31  5-MIN KDBQ 200350Z AUTO 07006KT 10SM FEW120 03/M11 A3026 760 37 -400 060/06 RMK AO2 SLP259 T00281106 TSNO
94908KDBQ DBQ20060319215512403/19/06 21:55:31  5-MIN KDBQ 200355Z AUTO 06006KT 10SM FEW120 03/M10 A3026 760 38 -400 060/06 RMK AO2 SLP258 T00281100 TSNO
94908KDBQ DBQ20060319220010703/19/06 22:00:31  5-MIN KDBQ 200400Z AUTO 06005KT 10SM FEW120 02/M10 A3026 760 40 -500 060/05 RMK AO2 TSNO
94908KDBQ DBQ20060319220510703/19/06 22:05:31  5-MIN KDBQ 200405Z AUTO 05004KT 10SM FEW120 02/M10 A3026 760 40 -500 040/04 RMK AO2 TSNO
94908KDBQ DBQ20060319221010403/19/06 22:10:31  5-MIN KDBQ 200410Z AUTO 04005KT 10SM CLR 01/M08 A3026 770 49 -700 040/05 RMK AO2 TSNO
94908KDBQ DBQ20060319221510403/19/06 22:15:31  5-MIN KDBQ 200415Z AUTO 04004KT 10SM CLR 02/M08 A3026 770 47 -600 040/04 RMK AO2 TSNO
94908KDBQ DBQ20060319222010403/19/06 22:20:31  5-MIN KDBQ 200420Z AUTO 02007KT 10SM CLR 01/M08 A3026 770 51 -700 020/07 RMK AO2 TSNO
94908KDBQ DBQ20060319222510403/19/06 22:25:31  5-MIN KDBQ 200425Z AUTO 03007KT 10SM CLR 01/M08 A3026 770 51 -600 030/07 RMK AO2 TSNO
94908KDBQ DBQ20060319223010403/19/06 22:30:31  5-MIN KDBQ 200430Z AUTO 03007KT 10SM CLR 01/M08 A3026 770 51 -700 030/07 RMK AO2 TSNO
94908KDBQ DBQ20060319223510403/19/06 22:35:31  5-MIN KDBQ 200435Z AUTO 02008KT 10SM CLR 01/M08 A3026 760 51 -700 020/08 RMK AO2 TSNO
94908KDBQ DBQ20060319224010403/19/06 22:40:31  5-MIN KDBQ 200440Z AUTO 03007KT 10SM CLR 01/M08 A3026 760 51 -700 020/07 RMK AO2 TSNO
94908KDBQ DBQ20060319224510403/19/06 22:45:31  5-MIN KDBQ 200445Z AUTO 03007KT 10SM CLR 01/M08 A3027 760 51 -700 030/07 RMK AO2 TSNO
94908KDBQ DBQ20060319225012103/19/06 22:50:31  5-MIN KDBQ 200450Z AUTO 03007KT 10SM CLR 01/M08 A3027 760 51 -700 030/07 RMK AO2 SLP261 T00111078 TSNO
94908KDBQ DBQ20060319225512103/19/06 22:55:31  5-MIN KDBQ 200455Z AUTO 03006KT 10SM CLR 01/M08 A3027 760 51 -700 030/06 RMK AO2 SLP261 T00111078 TSNO
94908KDBQ DBQ20060319230010403/19/06 23:00:31  5-MIN KDBQ 200500Z AUTO 04006KT 10SM CLR 01/M08 A3027 760 51 -700 030/06 RMK AO2 TSNO
94908KDBQ DBQ20060319230510403/19/06 23:05:31  5-MIN KDBQ 200505Z AUTO 04006KT 10SM CLR 01/M07 A3027 750 54 -700 040/06 RMK AO2 TSNO
94908KDBQ DBQ20060319231010403/19/06 23:10:31  5-MIN KDBQ 200510Z AUTO 04006KT 10SM CLR 01/M07 A3027 760 54 -700 040/06 RMK AO2 TSNO
94908KDBQ DBQ20060319231510403/19/06 23:15:31  5-MIN KDBQ 200515Z AUTO 04007KT 10SM CLR 01/M07 A3027 760 54 -700 040/07 RMK AO2 TSNO
94908KDBQ DBQ20060319232010703/19/06 23:20:31  5-MIN KDBQ 200520Z AUTO 03007KT 10SM SCT120 01/M08 A3027 760 51 -700 030/07 RMK AO2 TSNO
94908KDBQ DBQ20060319232510703/19/06 23:25:31  5-MIN KDBQ 200525Z AUTO 04007KT 10SM SCT120 01/M08 A3027 750 51 -700 040/07 RMK AO2 TSNO
94908KDBQ DBQ20060319233010703/19/06 23:30:31  5-MIN KDBQ 200530Z AUTO 04007KT 10SM SCT120 01/M08 A3027 750 51 -700 040/07 RMK AO2 TSNO
94908KDBQ DBQ20060319233510703/19/06 23:35:31  5-MIN KDBQ 200535Z AUTO 04008KT 10SM BKN120 01/M07 A3027 760 54 -700 040/08 RMK AO2 TSNO
94908KDBQ DBQ20060319234010703/19/06 23:40:31  5-MIN KDBQ 200540Z AUTO 04008KT 10SM BKN120 01/M08 A3027 760 51 -700 040/08 RMK AO2 TSNO
94908KDBQ DBQ20060319234510703/19/06 23:45:31  5-MIN KDBQ 200545Z AUTO 04008KT 10SM BKN120 01/M08 A3027 760 51 -700 030/08 RMK AO2 TSNO
94908KDBQ DBQ20060319235015203/19/06 23:50:31  5-MIN KDBQ 200550Z AUTO 04007KT 10SM BKN120 01/M08 A3027 760 51 -700 040/07 RMK AO2 SLP260 T00111078 10044 20006 400721056 53009 TSNO
94908KDBQ DBQ20060319235515203/19/06 23:55:31  5-MIN KDBQ 200555Z AUTO 05007KT 10SM BKN120 01/M08 A3027 760 51 -700 050/07 RMK AO2 SLP261 T00111078 10044 20006 400721056 55001 TSNO
94908KDBQ DBQ20060320000010703/20/06 00:00:38  5-MIN KDBQ 200600Z AUTO 04007KT 10SM BKN120 01/M08 A3027 750 49 -700 040/07 RMK AO2 TSNO
94908KDBQ DBQ20060320000510703/20/06 00:05:31  5-MIN KDBQ 200605Z AUTO 05007KT 10SM BKN120 01/M08 A3027 750 51 -700 050/07 RMK AO2 TSNO
94908KDBQ DBQ20060320001010703/20/06 00:10:31  5-MIN KDBQ 200610Z AUTO 05007KT 10SM BKN120 01/M08 A3028 750 49 -700 050/07 RMK AO2 TSNO
94908KDBQ DBQ20060320001510703/20/06 00:15:31  5-MIN KDBQ 200615Z AUTO 05008KT 10SM OVC120 01/M08 A3028 750 49 -700 050/08 RMK AO2 TSNO
94908KDBQ DBQ20060320002010703/20/06 00:20:31  5-MIN KDBQ 200620Z AUTO 05008KT 10SM OVC120 02/M08 A3028 750 47 -600 050/08 RMK AO2 TSNO
94908KDBQ DBQ20060320002510703/20/06 00:25:31  5-MIN KDBQ 200625Z AUTO 04009KT 10SM OVC120 02/M08 A3028 750 47 -600 040/09 RMK AO2 TSNO
94908KDBQ DBQ20060320003010703/20/06 00:30:31  5-MIN KDBQ 200630Z AUTO 05009KT 10SM OVC120 02/M08 A3028 750 47 -600 050/09 RMK AO2 TSNO
94908KDBQ DBQ20060320003510703/20/06 00:35:31  5-MIN KDBQ 200635Z AUTO 05009KT 10SM BKN120 01/M08 A3028 750 49 -700 050/09 RMK AO2 TSNO
94908KDBQ DBQ20060320004010703/20/06 00:40:31  5-MIN KDBQ 200640Z AUTO 05009KT 10SM BKN120 01/M08 A3027 750 49 -700 050/09 RMK AO2 TSNO
94908KDBQ DBQ20060320004510703/20/06 00:45:31  5-MIN KDBQ 200645Z AUTO 05008KT 10SM BKN120 01/M08 A3027 750 51 -700 050/08 RMK AO2 TSNO
94908KDBQ DBQ20060320005012403/20/06 00:50:31  5-MIN KDBQ 200650Z AUTO 05010KT 10SM BKN120 01/M08 A3027 750 49 -700 050/10 RMK AO2 SLP261 T00111083 TSNO
94908KDBQ DBQ20060320005512403/20/06 00:55:31  5-MIN KDBQ 200655Z AUTO 05010KT 10SM BKN120 01/M08 A3027 760 49 -700 050/10 RMK AO2 SLP259 T00111083 TSNO
94908KDBQ DBQ20060320010010703/20/06 01:00:31  5-MIN KDBQ 200700Z AUTO 05011KT 10SM BKN120 01/M08 A3027 760 49 -700 050/11 RMK AO2 TSNO
94908KDBQ DBQ20060320010510703/20/06 01:05:31  5-MIN KDBQ 200705Z AUTO 05009KT 10SM BKN120 01/M08 A3027 760 51 -700 050/09 RMK AO2 TSNO
94908KDBQ DBQ20060320011010703/20/06 01:10:31  5-MIN KDBQ 200710Z AUTO 05010KT 10SM OVC120 01/M08 A3027 760 49 -700 050/10 RMK AO2 TSNO
94908KDBQ DBQ20060320011510703/20/06 01:15:31  5-MIN KDBQ 200715Z AUTO 05011KT 10SM OVC120 01/M08 A3027 760 51 -700 040/11 RMK AO2 TSNO
94908KDBQ DBQ20060320012010703/20/06 01:20:31  5-MIN KDBQ 200720Z AUTO 05012KT 10SM OVC120 01/M08 A3027 760 51 -700 050/12 RMK AO2 TSNO
94908KDBQ DBQ20060320012510703/20/06 01:25:31  5-MIN KDBQ 200725Z AUTO 05012KT 10SM OVC120 01/M08 A3027 760 49 -700 050/12 RMK AO2 TSNO
94908KDBQ DBQ20060320013010703/20/06 01:30:31  5-MIN KDBQ 200730Z AUTO 05012KT 10SM OVC120 01/M08 A3027 760 51 -700 040/12 RMK AO2 TSNO
94908KDBQ DBQ20060320013510703/20/06 01:35:31  5-MIN KDBQ 200735Z AUTO 05010KT 10SM OVC120 01/M08 A3026 760 49 -700 040/10 RMK AO2 TSNO
94908KDBQ DBQ20060320014010703/20/06 01:40:31  5-MIN KDBQ 200740Z AUTO 05011KT 10SM OVC120 01/M08 A3026 770 51 -600 050/11 RMK AO2 TSNO
94908KDBQ DBQ20060320014510703/20/06 01:45:31  5-MIN KDBQ 200745Z AUTO 05012KT 10SM OVC120 01/M08 A3026 770 49 -600 050/12 RMK AO2 TSNO
94908KDBQ DBQ20060320015012403/20/06 01:50:31  5-MIN KDBQ 200750Z AUTO 05012KT 10SM OVC120 01/M08 A3026 770 49 -600 050/12 RMK AO2 SLP256 T00111083 TSNO
94908KDBQ DBQ20060320015512403/20/06 01:55:31  5-MIN KDBQ 200755Z AUTO 05013KT 10SM OVC120 01/M09 A3026 770 47 -600 050/13 RMK AO2 SLP256 T00111089 TSNO
94908KDBQ DBQ20060320020010703/20/06 02:00:31  5-MIN KDBQ 200800Z AUTO 05012KT 10SM OVC120 01/M09 A3026 770 47 -600 050/12 RMK AO2 TSNO
94908KDBQ DBQ20060320020510703/20/06 02:05:31  5-MIN KDBQ 200805Z AUTO 06014KT 10SM OVC120 01/M09 A3025 770 47 -600 060/14 RMK AO2 TSNO
94908KDBQ DBQ20060320021010703/20/06 02:10:31  5-MIN KDBQ 200810Z AUTO 05012KT 10SM OVC120 01/M09 A3025 780 47 -600 050/12 RMK AO2 TSNO
94908KDBQ DBQ20060320021510703/20/06 02:15:31  5-MIN KDBQ 200815Z AUTO 05013KT 10SM BKN120 01/M09 A3025 780 47 -600 050/13 RMK AO2 TSNO
94908KDBQ DBQ20060320022010703/20/06 02:20:31  5-MIN KDBQ 200820Z AUTO 05015KT 10SM OVC120 01/M09 A3025 780 45 -600 050/15 RMK AO2 TSNO
94908KDBQ DBQ20060320022510703/20/06 02:25:31  5-MIN KDBQ 200825Z AUTO 05015KT 10SM OVC120 01/M09 A3024 780 45 -600 050/15 RMK AO2 TSNO
94908KDBQ DBQ20060320023010703/20/06 02:30:31  5-MIN KDBQ 200830Z AUTO 05016KT 10SM OVC120 01/M09 A3024 780 45 -600 050/16 RMK AO2 TSNO
94908KDBQ DBQ20060320023510703/20/06 02:35:31  5-MIN KDBQ 200835Z AUTO 06015KT 10SM BKN120 01/M10 A3025 780 43 -600 060/15 RMK AO2 TSNO
94908KDBQ DBQ20060320024010703/20/06 02:40:31  5-MIN KDBQ 200840Z AUTO 06015KT 10SM BKN120 01/M10 A3025 780 43 -600 050/15 RMK AO2 TSNO
94908KDBQ DBQ20060320024511303/20/06 02:45:31  5-MIN KDBQ 200845Z AUTO 05017G21KT 10SM BKN120 01/M10 A3025 780 43 -600 050/17G21 RMK AO2 TSNO
94908KDBQ DBQ20060320025013003/20/06 02:50:31  5-MIN KDBQ 200850Z AUTO 06015KT 10SM BKN120 01/M10 A3024 780 43 -600 060/15 RMK AO2 SLP251 T00111100 55001 TSNO
94908KDBQ DBQ20060320025513603/20/06 02:55:31  5-MIN KDBQ 200855Z AUTO 06014G21KT 10SM BKN120 01/M10 A3024 780 45 -700 060/14G21 RMK AO2 SLP250 T00061100 58009 TSNO
94908KDBQ DBQ20060320030011303/20/06 03:00:31  5-MIN KDBQ 200900Z AUTO 05014G20KT 10SM BKN120 01/M10 A3024 790 45 -700 050/14G20 RMK AO2 TSNO
94908KDBQ DBQ20060320030510703/20/06 03:05:31  5-MIN KDBQ 200905Z AUTO 05016KT 10SM BKN120 01/M10 A3024 780 45 -700 050/16 RMK AO2 TSNO
94908KDBQ DBQ20060320031011303/20/06 03:10:31  5-MIN KDBQ 200910Z AUTO 06013G20KT 10SM BKN120 01/M10 A3024 780 45 -700 060/13G20 RMK AO2 TSNO
94908KDBQ DBQ20060320031511303/20/06 03:15:31  5-MIN KDBQ 200915Z AUTO 06016G20KT 10SM BKN120 01/M10 A3024 780 45 -700 060/16G20 RMK AO2 TSNO
94908KDBQ DBQ20060320032011303/20/06 03:20:31  5-MIN KDBQ 200920Z AUTO 06015G20KT 10SM BKN120 01/M10 A3025 780 45 -700 060/15G20 RMK AO2 TSNO
94908KDBQ DBQ20060320032511303/20/06 03:25:31  5-MIN KDBQ 200925Z AUTO 06013G20KT 10SM OVC120 01/M10 A3024 780 45 -700 060/13G20 RMK AO2 TSNO
94908KDBQ DBQ20060320033011303/20/06 03:30:31  5-MIN KDBQ 200930Z AUTO 07016G20KT 10SM BKN120 01/M10 A3024 780 45 -700 070/16G20 RMK AO2 TSNO
94908KDBQ DBQ20060320033511303/20/06 03:35:31  5-MIN KDBQ 200935Z AUTO 07014G22KT 10SM SCT120 01/M10 A3024 780 45 -700 070/14G22 RMK AO2 TSNO
94908KDBQ DBQ20060320034011303/20/06 03:40:31  5-MIN KDBQ 200940Z AUTO 06015G22KT 10SM SCT120 00/M10 A3024 780 47 -800 060/15G22 RMK AO2 TSNO
94908KDBQ DBQ20060320034510703/20/06 03:45:31  5-MIN KDBQ 200945Z AUTO 07012KT 10SM FEW120 00/M09 A3024 780 49 -800 060/12 RMK AO2 TSNO
94908KDBQ DBQ20060320035012403/20/06 03:50:31  5-MIN KDBQ 200950Z AUTO 06012KT 10SM FEW120 00/M09 A3024 780 49 -800 060/12 RMK AO2 SLP251 T00001094 TSNO
94908KDBQ DBQ20060320035512403/20/06 03:55:31  5-MIN KDBQ 200955Z AUTO 06013KT 10SM FEW120 00/M09 A3025 780 49 -800 060/13 RMK AO2 SLP252 T00001094 TSNO
94908KDBQ DBQ20060320040011303/20/06 04:00:31  5-MIN KDBQ 201000Z AUTO 07014G19KT 10SM SCT120 00/M09 A3025 770 49 -800 070/14G19 RMK AO2 TSNO
94908KDBQ DBQ20060320040511303/20/06 04:05:31  5-MIN KDBQ 201005Z AUTO 06014G19KT 10SM SCT120 00/M09 A3025 770 49 -800 060/14G19 RMK AO2 TSNO
94908KDBQ DBQ20060320041010703/20/06 04:10:31  5-MIN KDBQ 201010Z AUTO 06013KT 10SM BKN120 00/M09 A3025 770 51 -800 060/13 RMK AO2 TSNO
94908KDBQ DBQ20060320041511303/20/06 04:15:31  5-MIN KDBQ 201015Z AUTO 06017G23KT 10SM BKN120 00/M09 A3025 770 51 -800 060/17G23 RMK AO2 TSNO
94908KDBQ DBQ20060320042011303/20/06 04:20:31  5-MIN KDBQ 201020Z AUTO 06013G23KT 10SM BKN120 00/M09 A3025 770 51 -800 060/13G23 RMK AO2 TSNO
94908KDBQ DBQ20060320042510703/20/06 04:25:31  5-MIN KDBQ 201025Z AUTO 06014KT 10SM BKN120 00/M09 A3025 770 51 -800 060/14 RMK AO2 TSNO
94908KDBQ DBQ20060320043010703/20/06 04:30:31  5-MIN KDBQ 201030Z AUTO 06015KT 10SM BKN110 00/M09 A3025 770 51 -800 060/15 RMK AO2 TSNO
94908KDBQ DBQ20060320043510703/20/06 04:35:31  5-MIN KDBQ 201035Z AUTO 06015KT 10SM BKN110 00/M08 A3025 780 53 -800 060/15 RMK AO2 TSNO
94908KDBQ DBQ20060320044011303/20/06 04:40:31  5-MIN KDBQ 201040Z AUTO 06013G20KT 10SM SCT110 00/M08 A3025 770 53 -800 060/13G20 RMK AO2 TSNO
94908KDBQ DBQ20060320044511303/20/06 04:45:31  5-MIN KDBQ 201045Z AUTO 06016G21KT 10SM FEW110 00/M08 A3026 770 53 -800 060/16G21 RMK AO2 TSNO
94908KDBQ DBQ20060320045013003/20/06 04:50:31  5-MIN KDBQ 201050Z AUTO 07015G21KT 10SM FEW110 00/M08 A3026 770 53 -800 070/15G21 RMK AO2 SLP255 T00001083 TSNO
94908KDBQ DBQ20060320045512403/20/06 04:55:31  5-MIN KDBQ 201055Z AUTO 07014KT 10SM FEW110 00/M08 A3025 770 53 -800 070/14 RMK AO2 SLP254 T00001083 TSNO
94908KDBQ DBQ20060320050011003/20/06 05:00:31  5-MIN KDBQ 201100Z AUTO 07015G21KT 10SM CLR 00/M08 A3025 770 53 -800 070/15G21 RMK AO2 TSNO
94908KDBQ DBQ20060320050511103/20/06 05:05:31  5-MIN KDBQ 201105Z AUTO 07016G21KT 10SM CLR M01/M08 A3025 770 56 -900 060/16G21 RMK AO2 TSNO
94908KDBQ DBQ20060320051010503/20/06 05:10:31  5-MIN KDBQ 201110Z AUTO 06017KT 10SM CLR M01/M08 A3025 770 56 -800 060/17 RMK AO2 TSNO
94908KDBQ DBQ20060320051511103/20/06 05:15:31  5-MIN KDBQ 201115Z AUTO 07017G22KT 10SM CLR M01/M08 A3025 770 58 -900 070/17G22 RMK AO2 TSNO
94908KDBQ DBQ20060320052011103/20/06 05:20:31  5-MIN KDBQ 201120Z AUTO 06013G22KT 10SM CLR M01/M08 A3025 770 58 -900 060/13G22 RMK AO2 TSNO
94908KDBQ DBQ20060320052511103/20/06 05:25:31  5-MIN KDBQ 201125Z AUTO 06014G21KT 10SM CLR M01/M08 A3026 770 58 -900 060/14G21 RMK AO2 TSNO
94908KDBQ DBQ20060320053011103/20/06 05:30:31  5-MIN KDBQ 201130Z AUTO 07011G21KT 10SM CLR M01/M08 A3026 770 58 -900 070/11G21 RMK AO2 TSNO
94908KDBQ DBQ20060320053510503/20/06 05:35:31  5-MIN KDBQ 201135Z AUTO 07014KT 10SM CLR M01/M08 A3026 770 56 -900 070/14 RMK AO2 TSNO
94908KDBQ DBQ20060320054010503/20/06 05:40:31  5-MIN KDBQ 201140Z AUTO 06014KT 10SM CLR M01/M08 A3025 770 56 -900 060/14 RMK AO2 TSNO
94908KDBQ DBQ20060320054510803/20/06 05:45:31  5-MIN KDBQ 201145Z AUTO 07013KT 10SM FEW120 M01/M09 A3025 770 53 -900 070/13 RMK AO2 TSNO
94908KDBQ DBQ20060320055014303/20/06 05:50:31  5-MIN KDBQ 201150Z AUTO 06015KT 10SM FEW120 M01/M09 A3025 780 53 -800 060/15 RMK AO2 SLP252 T10061089 10017 21006 58009 TSNO
94908KDBQ DBQ20060320055515003/20/06 05:55:31  5-MIN KDBQ 201155Z AUTO 06015KT 10SM FEW120 M01/M09 A3023 790 51 -800 060/15 RMK AO2 PRESFR SLP248 T10061094 10017 21006 58003 TSNO
94908KDBQ DBQ20060320060010403/20/06 06:00:31  5-MIN KDBQ 201200Z 07018G21KT 10SM FEW120 M01/M10 A3024 790 49 -800 070/18G21 RMK AO2
94908KDBQ DBQ20060320060509803/20/06 06:05:31  5-MIN KDBQ 201205Z 07015KT 10SM FEW120 M01/M10 A3024 790 49 -800 070/15 RMK AO2
94908KDBQ DBQ20060320061010403/20/06 06:10:31  5-MIN KDBQ 201210Z 06016G22KT 10SM FEW120 M01/M11 A3023 790 47 -800 060/16G22 RMK AO2
94908KDBQ DBQ20060320061510103/20/06 06:15:31  5-MIN KDBQ 201215Z 06013G22KT 10SM CLR M01/M11 A3023 790 47 -800 060/13G22 RMK AO2
94908KDBQ DBQ20060320062009503/20/06 06:20:31  5-MIN KDBQ 201220Z 06013KT 10SM CLR M01/M10 A3024 790 51 -900 060/13 RMK AO2
94908KDBQ DBQ20060320062510103/20/06 06:25:31  5-MIN KDBQ 201225Z 06014G19KT 10SM CLR M01/M11 A3024 790 49 -900 060/14G19 RMK AO2
94908KDBQ DBQ20060320063009503/20/06 06:30:31  5-MIN KDBQ 201230Z 06014KT 10SM CLR M01/M11 A3024 780 49 -900 060/14 RMK AO2
94908KDBQ DBQ20060320063510103/20/06 06:35:31  5-MIN KDBQ 201235Z 07014G21KT 10SM CLR M01/M11 A3025 780 47 -900 060/14G21 RMK AO2
94908KDBQ DBQ20060320064010403/20/06 06:40:31  5-MIN KDBQ 201240Z 06012G21KT 10SM FEW120 M01/M11 A3024 780 47 -900 050/12G21 RMK AO2
94908KDBQ DBQ20060320064510403/20/06 06:45:31  5-MIN KDBQ 201245Z 06011G19KT 10SM FEW120 M01/M11 A3025 780 47 -900 050/11G19 RMK AO2
94908KDBQ DBQ20060320065011503/20/06 06:50:31  5-MIN KDBQ 201250Z 05012KT 10SM FEW120 M01/M11 A3026 770 47 -900 050/12 RMK AO2 SLP258 T10111111
94908KDBQ DBQ20060320065511503/20/06 06:55:31  5-MIN KDBQ 201255Z 06014KT 10SM FEW120 M01/M11 A3026 770 47 -900 060/14 RMK AO2 SLP258 T10111111
94908KDBQ DBQ20060320070009503/20/06 07:00:31  5-MIN KDBQ 201300Z 06014KT 10SM CLR M01/M11 A3026 770 47 -900 060/14 RMK AO2
94908KDBQ DBQ20060320070509503/20/06 07:05:31  5-MIN KDBQ 201305Z 06013KT 10SM CLR M01/M11 A3026 770 47 -900 060/13 RMK AO2
94908KDBQ DBQ20060320071009503/20/06 07:10:31  5-MIN KDBQ 201310Z 06014KT 10SM CLR M01/M11 A3025 770 47 -900 060/14 RMK AO2
94908KDBQ DBQ20060320071509503/20/06 07:15:31  5-MIN KDBQ 201315Z 06013KT 10SM CLR M01/M11 A3026 770 47 -900 060/13 RMK AO2
94908KDBQ DBQ20060320072009503/20/06 07:20:31  5-MIN KDBQ 201320Z 07013KT 10SM CLR M01/M11 A3026 760 47 -900 070/13 RMK AO2
94908KDBQ DBQ20060320072509503/20/06 07:25:31  5-MIN KDBQ 201325Z 06012KT 10SM CLR M01/M11 A3026 760 47 -900 060/12 RMK AO2
94908KDBQ DBQ20060320073009503/20/06 07:30:31  5-MIN KDBQ 201330Z 07014KT 10SM CLR M01/M11 A3026 760 47 -900 060/14 RMK AO2
94908KDBQ DBQ20060320073509503/20/06 07:35:31  5-MIN KDBQ 201335Z 07012KT 10SM CLR M01/M11 A3026 760 49 -900 060/12 RMK AO2
94908KDBQ DBQ20060320074010403/20/06 07:40:31  5-MIN KDBQ 201340Z 06013G18KT 10SM FEW120 M01/M11 A3026 770 47 -900 060/13G18 RMK AO2
94908KDBQ DBQ20060320074510403/20/06 07:45:31  5-MIN KDBQ 201345Z 07010G18KT 10SM SCT120 M01/M11 A3026 770 47 -900 070/10G18 RMK AO2
94908KDBQ DBQ20060320075011503/20/06 07:50:31  5-MIN KDBQ 201350Z 08015KT 10SM SCT120 M01/M11 A3025 770 47 -900 080/15 RMK AO2 SLP257 T10061106
94908KDBQ DBQ20060320075511503/20/06 07:55:31  5-MIN KDBQ 201355Z 07013KT 10SM SCT120 M01/M11 A3025 770 47 -900 070/13 RMK AO2 SLP257 T10061106
94908KDBQ DBQ20060320080010403/20/06 08:00:31  5-MIN KDBQ 201400Z 06013G19KT 10SM SCT120 M01/M10 A3025 770 49 -900 060/13G19 RMK AO2
94908KDBQ DBQ20060320080510403/20/06 08:05:31  5-MIN KDBQ 201405Z 07013G19KT 10SM BKN120 M01/M10 A3025 770 49 -900 070/13G19 RMK AO2
94908KDBQ DBQ20060320081010403/20/06 08:10:31  5-MIN KDBQ 201410Z 06013G20KT 10SM BKN120 M01/M10 A3025 770 49 -900 060/13G20 RMK AO2
94908KDBQ DBQ20060320081510403/20/06 08:15:31  5-MIN KDBQ 201415Z 06014G20KT 10SM BKN120 M01/M10 A3025 780 49 -800 060/14G20 RMK AO2
94908KDBQ DBQ20060320082010403/20/06 08:20:31  5-MIN KDBQ 201420Z 07015G20KT 10SM BKN120 M01/M09 A3024 780 51 -800 070/15G20 RMK AO2
94908KDBQ DBQ20060320082510303/20/06 08:25:31  5-MIN KDBQ 201425Z 06016G20KT 10SM BKN120 00/M09 A3024 780 49 -800 060/16G20 RMK AO2
94908KDBQ DBQ20060320083010303/20/06 08:30:31  5-MIN KDBQ 201430Z 07014G20KT 10SM SCT120 00/M09 A3024 780 49 -800 070/14G20 RMK AO2
94908KDBQ DBQ20060320083509703/20/06 08:35:31  5-MIN KDBQ 201435Z 06013KT 10SM SCT120 00/M09 A3024 790 49 -800 060/13 RMK AO2
94908KDBQ DBQ20060320084009703/20/06 08:40:31  5-MIN KDBQ 201440Z 07014KT 10SM FEW120 00/M09 A3024 790 51 -800 070/14 RMK AO2
94908KDBQ DBQ20060320084509703/20/06 08:45:31  5-MIN KDBQ 201445Z 07016KT 10SM FEW120 01/M09 A3024 790 49 -700 070/16 RMK AO2
94908KDBQ DBQ20060320085012003/20/06 08:50:31  5-MIN KDBQ 201450Z 07015KT 10SM FEW120 00/M09 A3024 780 51 -800 070/15 RMK AO2 SLP252 T00001089 58003
94908KDBQ DBQ20060320085512003/20/06 08:55:31  5-MIN KDBQ 201455Z 07015KT 10SM FEW120 01/M08 A3024 780 51 -700 060/15 RMK AO2 SLP252 T00061083 50003
94908KDBQ DBQ20060320090009703/20/06 09:00:31  5-MIN KDBQ 201500Z 07014KT 10SM SCT120 01/M08 A3024 780 51 -700 070/14 RMK AO2
94908KDBQ DBQ20060320090509703/20/06 09:05:31  5-MIN KDBQ 201505Z 07015KT 10SM SCT120 01/M08 A3024 780 51 -700 070/15 RMK AO2
94908KDBQ DBQ20060320091009703/20/06 09:10:31  5-MIN KDBQ 201510Z 07016KT 10SM BKN120 01/M08 A3024 780 51 -700 070/16 RMK AO2
94908KDBQ DBQ20060320091509703/20/06 09:15:31  5-MIN KDBQ 201515Z 07017KT 10SM BKN120 01/M08 A3024 780 49 -600 060/17 RMK AO2
94908KDBQ DBQ20060320092010303/20/06 09:20:31  5-MIN KDBQ 201520Z 09016G21KT 10SM BKN120 01/M08 A3024 780 51 -700 090/16G21 RMK AO2
94908KDBQ DBQ20060320092510303/20/06 09:25:31  5-MIN KDBQ 201525Z 09016G21KT 10SM BKN120 01/M08 A3024 780 49 -600 090/16G21 RMK AO2
94908KDBQ DBQ20060320093009703/20/06 09:30:31  5-MIN KDBQ 201530Z 09016KT 10SM OVC120 02/M08 A3024 780 47 -600 090/16 RMK AO2
94908KDBQ DBQ20060320093509703/20/06 09:35:31  5-MIN KDBQ 201535Z 10016KT 10SM OVC120 01/M08 A3025 780 49 -600 100/16 RMK AO2
94908KDBQ DBQ20060320094010303/20/06 09:40:31  5-MIN KDBQ 201540Z 07016G22KT 10SM BKN120 02/M08 A3025 780 47 -600 070/16G22 RMK AO2
94908KDBQ DBQ20060320094510303/20/06 09:45:31  5-MIN KDBQ 201545Z 06017G22KT 10SM BKN120 02/M08 A3025 780 47 -500 060/17G22 RMK AO2
94908KDBQ DBQ20060320095012003/20/06 09:50:31  5-MIN KDBQ 201550Z 07016G21KT 10SM BKN120 02/M08 A3024 780 49 -600 070/16G21 RMK AO2 SLP252 T00171078
94908KDBQ DBQ20060320095511403/20/06 09:55:31  5-MIN KDBQ 201555Z 07014KT 10SM BKN120 02/M08 A3024 780 47 -500 070/14 RMK AO2 SLP252 T00221078
94908KDBQ DBQ20060320100010303/20/06 10:00:31  5-MIN KDBQ 201600Z 06016G21KT 10SM SCT120 02/M08 A3025 780 47 -500 060/16G21 RMK AO2
94908KDBQ DBQ20060320100509703/20/06 10:05:31  5-MIN KDBQ 201605Z 07015KT 10SM FEW120 02/M08 A3024 780 47 -500 070/15 RMK AO2
94908KDBQ DBQ20060320101009703/20/06 10:10:31  5-MIN KDBQ 201610Z 06017KT 10SM FEW120 02/M08 A3023 790 47 -500 060/17 RMK AO2
94908KDBQ DBQ20060320101509403/20/06 10:15:31  5-MIN KDBQ 201615Z 06016KT 10SM CLR 03/M08 A3023 790 46 -400 060/16 RMK AO2
94908KDBQ DBQ20060320102009403/20/06 10:20:31  5-MIN KDBQ 201620Z 06016KT 10SM CLR 03/M07 A3023 800 48 -400 060/16 RMK AO2
94908KDBQ DBQ20060320102510403/20/06 10:25:31  5-MIN KDBQ 201625Z 06013KT 10SM FEW120 03/M07 A3022 810 48 -400 050/13 RMK AO2 PRESFR
94908KDBQ DBQ20060320103010303/20/06 10:30:31  5-MIN KDBQ 201630Z 07018G25KT 10SM FEW120 03/M07 A3022 800 48 -300 070/18G25 RMK AO2
94908KDBQ DBQ20060320103510303/20/06 10:35:31  5-MIN KDBQ 201635Z 06017G25KT 10SM FEW120 03/M07 A3022 800 46 -300 060/17G25 RMK AO2
94908KDBQ DBQ20060320104010303/20/06 10:40:31  5-MIN KDBQ 201640Z 07015G23KT 10SM SCT120 03/M07 A3021 810 48 -300 070/15G23 RMK AO2
94908KDBQ DBQ20060320104509703/20/06 10:45:31  5-MIN KDBQ 201645Z 09017KT 10SM SCT120 04/M07 A3021 810 46 -200 090/17 RMK AO2
94908KDBQ DBQ20060320105012003/20/06 10:50:31  5-MIN KDBQ 201650Z 09017G23KT 10SM FEW120 03/M07 A3021 810 48 -300 090/17G23 RMK AO2 SLP240 T00331067
94908KDBQ DBQ20060320105512003/20/06 10:55:31  5-MIN KDBQ 201655Z 06018G23KT 10SM FEW120 03/M07 A3021 810 48 -300 060/18G23 RMK AO2 SLP242 T00331067
94908KDBQ DBQ20060320110009703/20/06 11:00:31  5-MIN KDBQ 201700Z 08017KT 10SM SCT120 03/M07 A3021 810 48 -300 080/17 RMK AO2
94908KDBQ DBQ20060320110510303/20/06 11:05:31  5-MIN KDBQ 201705Z 06016G22KT 10SM SCT120 03/M07 A3021 810 48 -300 060/16G22 RMK AO2
94908KDBQ DBQ20060320111010303/20/06 11:10:31  5-MIN KDBQ 201710Z 08015G22KT 10SM SCT120 04/M07 A3021 810 46 -200 080/15G22 RMK AO2
94908KDBQ DBQ20060320111512103/20/06 11:15:31  5-MIN KDBQ 201715Z 08015G26KT 10SM BKN120 04/M07 A3020 820 46 -200 080/15G26 RMK AO2 PK WND 09026/1713
94908KDBQ DBQ20060320112012103/20/06 11:20:31  5-MIN KDBQ 201720Z 09016G26KT 10SM BKN120 04/M06 A3020 820 48 -200 090/16G26 RMK AO2 PK WND 09026/1713
94908KDBQ DBQ20060320112512103/20/06 11:25:31  5-MIN KDBQ 201725Z 09018G23KT 10SM BKN120 04/M06 A3020 820 48 -200 090/18G23 RMK AO2 PK WND 09026/1713
94908KDBQ DBQ20060320113012103/20/06 11:30:31  5-MIN KDBQ 201730Z 07019G22KT 10SM BKN120 04/M06 A3020 820 48 -200 070/19G22 RMK AO2 PK WND 09026/1713
94908KDBQ DBQ20060320113512103/20/06 11:35:31  5-MIN KDBQ 201735Z 07017G23KT 10SM BKN120 04/M06 A3020 820 46 -200 070/17G23 RMK AO2 PK WND 09026/1713
94908KDBQ DBQ20060320114012103/20/06 11:40:31  5-MIN KDBQ 201740Z 09020G26KT 10SM SCT120 04/M06 A3019 830 46 -200 090/20G26 RMK AO2 PK WND 09026/1740
94908KDBQ DBQ20060320114512103/20/06 11:45:31  5-MIN KDBQ 201745Z 08017G26KT 10SM SCT120 04/M06 A3019 830 48 -200 070/17G26 RMK AO2 PK WND 09026/1740
94908KDBQ DBQ20060320115015603/20/06 11:50:31  5-MIN KDBQ 201750Z 07020G25KT 10SM FEW120 04/M06 A3019 830 48 -200 070/20G25 RMK AO2 PK WND 09026/1740 SLP233 T00441056 10044 21011 50003
94908KDBQ DBQ20060320115515303/20/06 11:55:31  5-MIN KDBQ 201755Z 07016G25KT 10SM CLR 04/M06 A3018 840 48 -200 070/16G25 RMK AO2 PK WND 09026/1740 SLP230 T00391061 10044 21011 58020
94908KDBQ DBQ20060320120010003/20/06 12:00:31  5-MIN KDBQ 201800Z 06019G25KT 10SM CLR 04/M06 A3018 840 48 -200 060/19G25 RMK AO2
94908KDBQ DBQ20060320120510003/20/06 12:05:31  5-MIN KDBQ 201805Z 07018G24KT 10SM CLR 04/M06 A3018 840 50 -200 070/18G24 RMK AO2
94908KDBQ DBQ20060320121010003/20/06 12:10:31  5-MIN KDBQ 201810Z 09017G21KT 10SM CLR 04/M06 A3018 840 50 -200 090/17G21 RMK AO2
94908KDBQ DBQ20060320121509403/20/06 12:15:31  5-MIN KDBQ 201815Z 07018KT 10SM CLR 04/M06 A3017 850 50 -200 070/18 RMK AO2
94908KDBQ DBQ20060320122009403/20/06 12:20:31  5-MIN KDBQ 201820Z 07018KT 10SM CLR 04/M06 A3017 850 50 -200 070/18 RMK AO2
94908KDBQ DBQ20060320122510003/20/06 12:25:31  5-MIN KDBQ 201825Z 07019G24KT 10SM CLR 04/M06 A3017 850 50 -200 070/19G24 RMK AO2
94908KDBQ DBQ20060320123010303/20/06 12:30:31  5-MIN KDBQ 201830Z 08018G24KT 10SM FEW120 04/M06 A3016 850 50 -200 070/18G24 RMK AO2
94908KDBQ DBQ20060320123509703/20/06 12:35:31  5-MIN KDBQ 201835Z 05016KT 10SM FEW120 04/M06 A3017 850 50 -200 050/16 RMK AO2
94908KDBQ DBQ20060320124010303/20/06 12:40:31  5-MIN KDBQ 201840Z 08015G23KT 10SM FEW120 04/M06 A3017 850 50 -200 080/15G23 RMK AO2
94908KDBQ DBQ20060320124510303/20/06 12:45:31  5-MIN KDBQ 201845Z 08016G24KT 10SM FEW120 04/M06 A3017 850 50 -200 080/16G24 RMK AO2
94908KDBQ DBQ20060320125012003/20/06 12:50:31  5-MIN KDBQ 201850Z 06017G24KT 10SM FEW120 04/M06 A3016 850 50 -200 060/17G24 RMK AO2 SLP225 T00391056
94908KDBQ DBQ20060320125512003/20/06 12:55:31  5-MIN KDBQ 201855Z 05015G22KT 10SM FEW120 04/M06 A3016 860 50 -200 050/15G22 RMK AO2 SLP223 T00391056
94908KDBQ DBQ20060320130010003/20/06 13:00:31  5-MIN KDBQ 201900Z 07015G24KT 10SM CLR 04/M06 A3016 860 50 -200 070/15G24 RMK AO2
94908KDBQ DBQ20060320130510303/20/06 13:05:31  5-MIN KDBQ 201905Z 06020G25KT 10SM FEW120 04/M06 A3016 860 50 -200 060/20G25 RMK AO2
94908KDBQ DBQ20060320131010303/20/06 13:10:31  5-MIN KDBQ 201910Z 08020G25KT 10SM FEW120 04/M06 A3015 860 50 -200 080/20G25 RMK AO2
94908KDBQ DBQ20060320131510303/20/06 13:15:31  5-MIN KDBQ 201915Z 08019G24KT 10SM FEW120 04/M06 A3015 870 50 -200 080/19G24 RMK AO2
94908KDBQ DBQ20060320132011903/20/06 13:20:31  5-MIN KDBQ 201920Z 06017G25KT 020V100 10SM FEW110 04/M06 A3014 870 50 -200 060/17G25 020V100 RMK AO2
94908KDBQ DBQ20060320132510303/20/06 13:25:31  5-MIN KDBQ 201925Z 07012G25KT 10SM FEW120 04/M05 A3014 880 50 -100 070/12G25 RMK AO2
94908KDBQ DBQ20060320133010303/20/06 13:30:31  5-MIN KDBQ 201930Z 06018G24KT 10SM FEW120 04/M05 A3013 880 52 -200 060/18G24 RMK AO2
94908KDBQ DBQ20060320133510303/20/06 13:35:31  5-MIN KDBQ 201935Z 07019G24KT 10SM FEW120 04/M05 A3013 880 52 -200 070/19G24 RMK AO2
94908KDBQ DBQ20060320134012103/20/06 13:40:31  5-MIN KDBQ 201940Z 07022G26KT 10SM FEW120 04/M05 A3014 880 52 -200 070/22G26 RMK AO2 PK WND 07026/1940
94908KDBQ DBQ20060320134512103/20/06 13:45:31  5-MIN KDBQ 201945Z 07020G26KT 10SM FEW120 04/M05 A3014 880 52 -200 070/20G26 RMK AO2 PK WND 07026/1940
94908KDBQ DBQ20060320135013803/20/06 13:50:31  5-MIN KDBQ 201950Z 08017G24KT 10SM SCT120 04/M05 A3013 890 52 -200 080/17G24 RMK AO2 PK WND 07026/1940 SLP212 T00391050
94908KDBQ DBQ20060320135513803/20/06 13:55:31  5-MIN KDBQ 201955Z 08016G24KT 10SM SCT120 04/M04 A3012 890 52 -100 080/16G24 RMK AO2 PK WND 07026/1940 SLP210 T00441044
94908KDBQ DBQ20060320140011003/20/06 14:00:31  5-MIN KDBQ 202000Z 08014G23KT 10SM FEW035 SCT120 04/M04 A3012 890 52 -100 080/14G23 RMK AO2
94908KDBQ DBQ20060320140510003/20/06 14:05:31  5-MIN KDBQ 202005Z 06019G25KT 10SM FEW120 05/M04 A3012 900 50 0 060/19G25 RMK AO2
94908KDBQ DBQ20060320141010003/20/06 14:10:31  5-MIN KDBQ 202010Z 07018G25KT 10SM FEW120 05/M04 A3012 900 50 0 070/18G25 RMK AO2
94908KDBQ DBQ20060320141510003/20/06 14:15:31  5-MIN KDBQ 202015Z 07019G25KT 10SM FEW120 05/M04 A3011 900 52 0 070/19G25 RMK AO2
94908KDBQ DBQ20060320142010303/20/06 14:20:31  5-MIN KDBQ 202020Z 08020G24KT 10SM FEW034 04/M04 A3010 910 52 -100 080/20G24 RMK AO2
94908KDBQ DBQ20060320142510003/20/06 14:25:31  5-MIN KDBQ 202025Z 07017G24KT 10SM CLR 04/M04 A3011 910 52 -100 070/17G24 RMK AO2
94908KDBQ DBQ20060320143010303/20/06 14:30:31  5-MIN KDBQ 202030Z 06019G25KT 10SM FEW035 04/M05 A3010 910 52 -100 060/19G25 RMK AO2
94908KDBQ DBQ20060320143512103/20/06 14:35:31  5-MIN KDBQ 202035Z 07020G28KT 10SM FEW035 04/M04 A3010 910 52 -100 070/20G28 RMK AO2 PK WND 07028/2032
94908KDBQ DBQ20060320144012103/20/06 14:40:31  5-MIN KDBQ 202040Z 06018G28KT 10SM FEW035 04/M04 A3010 910 52 -100 060/18G28 RMK AO2 PK WND 07028/2032
94908KDBQ DBQ20060320144512103/20/06 14:45:31  5-MIN KDBQ 202045Z 06018G23KT 10SM SCT035 04/M04 A3010 910 52 -100 060/18G23 RMK AO2 PK WND 07028/2032
94908KDBQ DBQ20060320145014403/20/06 14:50:31  5-MIN KDBQ 202050Z 06020G24KT 10SM SCT035 04/M04 A3010 910 52 -100 060/20G24 RMK AO2 PK WND 07028/2032 SLP204 T00441044 58020
94908KDBQ DBQ20060320145514403/20/06 14:55:31  5-MIN KDBQ 202055Z 08018G24KT 10SM SCT035 04/M04 A3010 910 54 -100 080/18G24 RMK AO2 PK WND 07028/2032 SLP202 T00391044 58027
94908KDBQ DBQ20060320150009703/20/06 15:00:31  5-MIN KDBQ 202100Z 06018KT 10SM SCT035 04/M04 A3010 910 54 -100 060/18 RMK AO2
94908KDBQ DBQ20060320150510303/20/06 15:05:31  5-MIN KDBQ 202105Z 08016G23KT 10SM SCT035 04/M04 A3010 910 54 -100 080/16G23 RMK AO2
94908KDBQ DBQ20060320151012103/20/06 15:10:31  5-MIN KDBQ 202110Z 07023G26KT 10SM SCT035 04/M04 A3010 920 54 -100 070/23G26 RMK AO2 PK WND 07026/2110
94908KDBQ DBQ20060320151512803/20/06 15:15:31  5-MIN KDBQ 202115Z 08015G26KT 10SM FEW035 SCT110 04/M04 A3010 920 54 -100 080/15G26 RMK AO2 PK WND 07026/2110
94908KDBQ DBQ20060320152012803/20/06 15:20:31  5-MIN KDBQ 202120Z 08016G22KT 10SM FEW033 SCT110 04/M04 A3010 910 55 -100 080/16G22 RMK AO2 PK WND 07026/2110
94908KDBQ DBQ20060320152512803/20/06 15:25:31  5-MIN KDBQ 202125Z 07018G23KT 10SM FEW033 BKN120 04/M04 A3009 920 54 -100 070/18G23 RMK AO2 PK WND 07026/2110
94908KDBQ DBQ20060320153012103/20/06 15:30:31  5-MIN KDBQ 202130Z 08019G23KT 10SM BKN110 03/M05 A3009 920 54 -200 070/19G23 RMK AO2 PK WND 07026/2110
94908KDBQ DBQ20060320153512103/20/06 15:35:31  5-MIN KDBQ 202135Z 08019G24KT 10SM BKN110 03/M05 A3008 930 54 -200 080/19G24 RMK AO2 PK WND 07026/2110
94908KDBQ DBQ20060320154012103/20/06 15:40:31  5-MIN KDBQ 202140Z 07018G24KT 10SM BKN120 03/M05 A3008 930 54 -200 070/18G24 RMK AO2 PK WND 07026/2110
94908KDBQ DBQ20060320154512803/20/06 15:45:31  5-MIN KDBQ 202145Z 07015G23KT 10SM FEW033 OVC120 03/M04 A3008 930 57 -200 070/15G23 RMK AO2 PK WND 07026/2110
94908KDBQ DBQ20060320155014503/20/06 15:50:31  5-MIN KDBQ 202150Z 08019G28KT 10SM FEW033 OVC120 03/M04 A3008 930 57 -200 070/19G28 RMK AO2 PK WND 08028/2150 SLP197 T00331044
94908KDBQ DBQ20060320155514503/20/06 15:55:31  5-MIN KDBQ 202155Z 06020G28KT 10SM FEW033 OVC120 03/M05 A3008 930 56 -200 060/20G28 RMK AO2 PK WND 08028/2150 SLP198 T00281050
94908KDBQ DBQ20060320160011003/20/06 16:00:31  5-MIN KDBQ 202200Z 07015G24KT 10SM FEW033 OVC120 03/M04 A3008 930 59 -200 070/15G24 RMK AO2
94908KDBQ DBQ20060320160510403/20/06 16:05:31  5-MIN KDBQ 202205Z 06015KT 10SM FEW033 OVC120 03/M04 A3009 920 59 -200 060/15 RMK AO2
94908KDBQ DBQ20060320161011003/20/06 16:10:31  5-MIN KDBQ 202210Z 07017G22KT 10SM FEW033 OVC120 03/M04 A3009 930 59 -200 070/17G22 RMK AO2
94908KDBQ DBQ20060320161511003/20/06 16:15:31  5-MIN KDBQ 202215Z 06018G22KT 10SM FEW033 OVC120 03/M05 A3009 920 56 -300 060/18G22 RMK AO2
94908KDBQ DBQ20060320162011003/20/06 16:20:31  5-MIN KDBQ 202220Z 07020G25KT 10SM SCT033 OVC120 02/M05 A3009 920 59 -300 070/20G25 RMK AO2
94908KDBQ DBQ20060320162511003/20/06 16:25:31  5-MIN KDBQ 202225Z 07018G25KT 10SM SCT031 BKN120 02/M05 A3009 920 59 -300 070/18G25 RMK AO2
94908KDBQ DBQ20060320163011003/20/06 16:30:31  5-MIN KDBQ 202230Z 07018G24KT 10SM FEW031 BKN120 02/M05 A3009 920 59 -300 060/18G24 RMK AO2
94908KDBQ DBQ20060320163511003/20/06 16:35:31  5-MIN KDBQ 202235Z 06018G25KT 10SM SCT031 BKN120 02/M05 A3009 920 59 -300 060/18G25 RMK AO2
94908KDBQ DBQ20060320164011003/20/06 16:40:31  5-MIN KDBQ 202240Z 07017G25KT 10SM BKN031 BKN120 02/M05 A3009 920 59 -300 060/17G25 RMK AO2
94908KDBQ DBQ20060320164510303/20/06 16:45:31  5-MIN KDBQ 202245Z 06017G23KT 10SM BKN031 02/M06 A3009 920 56 -300 060/17G23 RMK AO2
94908KDBQ DBQ20060320165012703/20/06 16:50:31  5-MIN KDBQ 202250Z 07019G24KT 10SM SCT031 SCT120 02/M06 A3009 920 56 -300 070/19G24 RMK AO2 SLP199 T00221056
94908KDBQ DBQ20060320165512703/20/06 16:55:31  5-MIN KDBQ 202255Z 07020G25KT 10SM SCT031 SCT120 02/M06 A3009 920 56 -300 070/20G25 RMK AO2 SLP199 T00221056
94908KDBQ DBQ20060320170012103/20/06 17:00:31  5-MIN KDBQ 202300Z 08019G26KT 10SM SCT031 02/M06 A3009 920 59 -400 080/19G26 RMK AO2 PK WND 06026/2256
94908KDBQ DBQ20060320170512803/20/06 17:05:31  5-MIN KDBQ 202305Z 08018G26KT 10SM FEW031 SCT120 02/M06 A3009 920 56 -300 080/18G26 RMK AO2 PK WND 06026/2256
94908KDBQ DBQ20060320171012803/20/06 17:10:31  5-MIN KDBQ 202310Z 07019G26KT 10SM FEW031 SCT120 02/M06 A3009 930 59 -400 070/19G26 RMK AO2 PK WND 08026/2310
94908KDBQ DBQ20060320171512803/20/06 17:15:31  5-MIN KDBQ 202315Z 06017G26KT 10SM FEW031 SCT120 02/M05 A3009 920 61 -400 060/17G26 RMK AO2 PK WND 08026/2310
94908KDBQ DBQ20060320172012803/20/06 17:20:31  5-MIN KDBQ 202320Z 06019G25KT 10SM FEW031 SCT120 02/M05 A3008 930 61 -400 060/19G25 RMK AO2 PK WND 08026/2310
94908KDBQ DBQ20060320172512803/20/06 17:25:31  5-MIN KDBQ 202325Z 07018G26KT 10SM FEW031 BKN120 01/M05 A3008 930 64 -400 070/18G26 RMK AO2 PK WND 07026/2322
94908KDBQ DBQ20060320173012803/20/06 17:30:31  5-MIN KDBQ 202330Z 06021G26KT 10SM SCT029 BKN120 01/M06 A3008 930 61 -400 060/21G26 RMK AO2 PK WND 07026/2322
94908KDBQ DBQ20060320173512803/20/06 17:35:31  5-MIN KDBQ 202335Z 07020G27KT 10SM SCT029 BKN120 01/M06 A3007 940 63 -500 060/20G27 RMK AO2 PK WND 05027/2333
94908KDBQ DBQ20060320174012803/20/06 17:40:31  5-MIN KDBQ 202340Z 06019G27KT 10SM FEW029 BKN120 01/M06 A3008 940 63 -500 060/19G27 RMK AO2 PK WND 05027/2333
94908KDBQ DBQ20060320174512803/20/06 17:45:31  5-MIN KDBQ 202345Z 06019G24KT 10SM SCT027 BKN120 01/M06 A3008 930 63 -500 060/19G24 RMK AO2 PK WND 05027/2333
94908KDBQ DBQ20060320175012803/20/06 17:50:31  5-MIN KDBQ 202350Z 06021G28KT 10SM BKN027 BKN120 00/M06 A3009 920 66 -600 060/21G28 RMK AO2 PK WND 06028/2350
94908KDBQ DBQ20060320175516303/20/06 17:55:31  5-MIN KDBQ 202355Z 07023G28KT 10SM BKN027 OVC120 00/M06 A3009 920 66 -600 070/23G28 RMK AO2 PK WND 06028/2350 SLP202 T00001056 10050 20000 55002
94908KDBQ DBQ20060320180012803/20/06 18:00:31  5-MIN KDBQ 210000Z 07022G28KT 10SM BKN027 OVC120 00/M06 A3009 920 63 -600 060/22G28 RMK AO2 PK WND 07028/2358
94908KDBQ DBQ20060320180512803/20/06 18:05:31  5-MIN KDBQ 210005Z 07017G28KT 10SM BKN027 OVC120 00/M06 A3009 920 66 -600 070/17G28 RMK AO2 PK WND 07028/2358
94908KDBQ DBQ20060320181012103/20/06 18:10:31  5-MIN KDBQ 210010Z 07021G27KT 10SM OVC025 00/M06 A3009 920 63 -600 070/21G27 RMK AO2 PK WND 07028/2358
94908KDBQ DBQ20060320181512203/20/06 18:15:31  5-MIN KDBQ 210015Z 06018G27KT 10SM OVC025 M01/M06 A3008 930 66 -700 060/18G27 RMK AO2 PK WND 07028/2358
94908KDBQ DBQ20060320182012203/20/06 18:20:31  5-MIN KDBQ 210020Z 06024G30KT 10SM OVC025 M01/M06 A3008 930 66 -700 060/24G30 RMK AO2 PK WND 06030/0020
94908KDBQ DBQ20060320182512203/20/06 18:25:31  5-MIN KDBQ 210025Z 07020G30KT 10SM OVC025 M01/M06 A3008 930 66 -700 070/20G30 RMK AO2 PK WND 06030/0022
94908KDBQ DBQ20060320183012903/20/06 18:30:31  5-MIN KDBQ 210030Z 07018G30KT 10SM BKN025 OVC120 M01/M06 A3008 930 66 -600 070/18G30 RMK AO2 PK WND 06030/0022
94908KDBQ DBQ20060320183512203/20/06 18:35:31  5-MIN KDBQ 210035Z 06020G25KT 10SM OVC025 M01/M06 A3007 940 69 -600 060/20G25 RMK AO2 PK WND 06030/0022
94908KDBQ DBQ20060320184012203/20/06 18:40:31  5-MIN KDBQ 210040Z 06017G29KT 10SM OVC025 M01/M06 A3007 940 66 -600 060/17G29 RMK AO2 PK WND 06030/0022
94908KDBQ DBQ20060320184512203/20/06 18:45:31  5-MIN KDBQ 210045Z 06022G29KT 10SM OVC023 M01/M06 A3007 940 66 -600 060/22G29 RMK AO2 PK WND 06030/0022
94908KDBQ DBQ20060320185013903/20/06 18:50:31  5-MIN KDBQ 210050Z 07022G29KT 10SM OVC023 M01/M06 A3006 950 69 -700 070/22G29 RMK AO2 PK WND 06030/0022 SLP193 T10111061
94908KDBQ DBQ20060320185513903/20/06 18:55:31  5-MIN KDBQ 210055Z 06021G27KT 10SM OVC023 M01/M06 A3006 950 69 -700 060/21G27 RMK AO2 PK WND 06030/0022 SLP193 T10111061
94908KDBQ DBQ20060320190012203/20/06 19:00:31  5-MIN KDBQ 210100Z 06023G28KT 10SM OVC023 M01/M06 A3006 950 69 -700 060/23G28 RMK AO2 PK WND 04028/0059
94908KDBQ DBQ20060320190512203/20/06 19:05:31  5-MIN KDBQ 210105Z 06021G28KT 10SM OVC023 M01/M06 A3006 950 69 -700 060/21G28 RMK AO2 PK WND 04028/0059
94908KDBQ DBQ20060320191012903/20/06 19:10:31  5-MIN KDBQ 210110Z 06017G27KT 10SM BKN023 OVC120 M01/M06 A3005 950 69 -700 060/17G27 RMK AO2 PK WND 04028/0059
94908KDBQ DBQ20060320191512903/20/06 19:15:31  5-MIN KDBQ 210115Z 05019G27KT 10SM BKN023 OVC120 M01/M06 A3006 950 69 -700 050/19G27 RMK AO2 PK WND 04028/0059
94908KDBQ DBQ20060320192012903/20/06 19:20:31  5-MIN KDBQ 210120Z 06020G27KT 10SM BKN023 OVC120 M01/M06 A3006 950 69 -700 060/20G27 RMK AO2 PK WND 04028/0059
94908KDBQ DBQ20060320192513903/20/06 19:25:31  5-MIN KDBQ 210125Z AUTO 06019G27KT 10SM BKN023 OVC120 M01/M07 A3006 950 66 -700 060/19G27 RMK AO2 PK WND 04028/0059 TSNO
94908KDBQ DBQ20060320193013903/20/06 19:30:31  5-MIN KDBQ 210130Z AUTO 06015G27KT 10SM BKN025 OVC120 M01/M07 A3006 950 66 -700 060/15G27 RMK AO2 PK WND 04028/0059 TSNO
94908KDBQ DBQ20060320193513903/20/06 19:35:31  5-MIN KDBQ 210135Z AUTO 06018G24KT 10SM BKN025 BKN120 M01/M07 A3006 950 66 -700 050/18G24 RMK AO2 PK WND 04028/0059 TSNO
94908KDBQ DBQ20060320194013903/20/06 19:40:31  5-MIN KDBQ 210140Z AUTO 06019G25KT 10SM BKN025 BKN120 M01/M07 A3007 940 66 -700 060/19G25 RMK AO2 PK WND 04028/0059 TSNO
94908KDBQ DBQ20060320194513903/20/06 19:45:31  5-MIN KDBQ 210145Z AUTO 07019G25KT 10SM SCT025 OVC120 M01/M07 A3007 940 66 -700 070/19G25 RMK AO2 PK WND 04028/0059 TSNO
94908KDBQ DBQ20060320195013903/20/06 19:50:31  5-MIN KDBQ 210150Z AUTO 06018G25KT 10SM SCT025 OVC120 M01/M07 A3007 940 66 -700 060/18G25 RMK AO2 PK WND 04028/0059 TSNO
94908KDBQ DBQ20060320195515603/20/06 19:55:31  5-MIN KDBQ 210155Z AUTO 06018G25KT 10SM FEW025 OVC120 M01/M07 A3007 940 66 -700 060/18G25 RMK AO2 PK WND 04028/0059 SLP196 T10111067 TSNO
94908KDBQ DBQ20060320200012103/20/06 20:00:31  5-MIN KDBQ 210200Z AUTO 07017G24KT 10SM FEW025 OVC120 M01/M07 A3008 930 66 -700 070/17G24 RMK AO2 TSNO
94908KDBQ DBQ20060320200512103/20/06 20:05:31  5-MIN KDBQ 210205Z AUTO 06016G22KT 10SM FEW025 OVC120 M01/M07 A3008 930 66 -700 060/16G22 RMK AO2 TSNO
94908KDBQ DBQ20060320201012103/20/06 20:10:31  5-MIN KDBQ 210210Z AUTO 07014G22KT 10SM FEW025 OVC120 M01/M07 A3009 930 66 -700 070/14G22 RMK AO2 TSNO
94908KDBQ DBQ20060320201511503/20/06 20:15:31  5-MIN KDBQ 210215Z AUTO 07013KT 10SM FEW025 OVC120 M01/M07 A3009 930 66 -700 070/13 RMK AO2 TSNO
94908KDBQ DBQ20060320202012103/20/06 20:20:31  5-MIN KDBQ 210220Z AUTO 07015G22KT 10SM FEW025 OVC120 M01/M07 A3009 920 66 -700 070/15G22 RMK AO2 TSNO
94908KDBQ DBQ20060320202512103/20/06 20:25:31  5-MIN KDBQ 210225Z AUTO 06017G22KT 10SM SCT025 BKN110 M01/M07 A3008 930 66 -700 060/17G22 RMK AO2 TSNO
94908KDBQ DBQ20060320203012103/20/06 20:30:31  5-MIN KDBQ 210230Z AUTO 06018G23KT 10SM FEW025 BKN120 M01/M07 A3008 930 66 -700 050/18G23 RMK AO2 TSNO
94908KDBQ DBQ20060320203512103/20/06 20:35:31  5-MIN KDBQ 210235Z AUTO 06019G23KT 10SM FEW025 BKN120 M01/M07 A3008 930 66 -700 060/19G23 RMK AO2 TSNO
94908KDBQ DBQ20060320204012103/20/06 20:40:31  5-MIN KDBQ 210240Z AUTO 06018G23KT 10SM FEW025 BKN120 M01/M07 A3008 930 66 -700 060/18G23 RMK AO2 TSNO
94908KDBQ DBQ20060320204512103/20/06 20:45:31  5-MIN KDBQ 210245Z AUTO 06017G24KT 10SM FEW025 BKN120 M01/M07 A3008 930 66 -700 060/17G24 RMK AO2 TSNO
94908KDBQ DBQ20060320205014403/20/06 20:50:31  5-MIN KDBQ 210250Z AUTO 06019G24KT 10SM FEW025 BKN120 M01/M07 A3008 930 66 -700 060/19G24 RMK AO2 SLP198 T10111067 55002 TSNO
94908KDBQ DBQ20060320205513703/20/06 20:55:31  5-MIN KDBQ 210255Z AUTO 06017G22KT 10SM BKN120 M01/M07 A3008 930 66 -700 060/17G22 RMK AO2 SLP199 T10111067 55003 TSNO
94908KDBQ DBQ20060320210011403/20/06 21:00:31  5-MIN KDBQ 210300Z AUTO 05013G21KT 10SM BKN120 M01/M07 A3008 930 66 -700 050/13G21 RMK AO2 TSNO
94908KDBQ DBQ20060320210510803/20/06 21:05:31  5-MIN KDBQ 210305Z AUTO 05017KT 10SM BKN120 M01/M07 A3009 920 66 -700 050/17 RMK AO2 TSNO
94908KDBQ DBQ20060320211011403/20/06 21:10:31  5-MIN KDBQ 210310Z AUTO 06017G21KT 10SM BKN120 M01/M07 A3009 920 66 -700 050/17G21 RMK AO2 TSNO
94908KDBQ DBQ20060320211510803/20/06 21:15:31  5-MIN KDBQ 210315Z AUTO 06018KT 10SM OVC120 M01/M07 A3010 920 66 -700 060/18 RMK AO2 TSNO
94908KDBQ DBQ20060320212011403/20/06 21:20:31  5-MIN KDBQ 210320Z AUTO 06014G21KT 10SM BKN120 M01/M07 A3010 910 66 -700 060/14G21 RMK AO2 TSNO
94908KDBQ DBQ20060320212511403/20/06 21:25:31  5-MIN KDBQ 210325Z AUTO 06021G24KT 10SM BKN120 M01/M07 A3010 910 66 -700 060/21G24 RMK AO2 TSNO
94908KDBQ DBQ20060320213011403/20/06 21:30:31  5-MIN KDBQ 210330Z AUTO 05013G24KT 10SM BKN110 M01/M07 A3010 910 66 -800 050/13G24 RMK AO2 TSNO
94908KDBQ DBQ20060320213510803/20/06 21:35:31  5-MIN KDBQ 210335Z AUTO 05015KT 10SM BKN110 M01/M07 A3011 910 66 -800 050/15 RMK AO2 TSNO
94908KDBQ DBQ20060320214011403/20/06 21:40:31  5-MIN KDBQ 210340Z AUTO 05016G21KT 10SM SCT110 M01/M07 A3011 900 66 -800 050/16G21 RMK AO2 TSNO
94908KDBQ DBQ20060320214510803/20/06 21:45:31  5-MIN KDBQ 210345Z AUTO 05015KT 10SM FEW110 M01/M07 A3011 910 66 -800 050/15 RMK AO2 TSNO
94908KDBQ DBQ20060320215012503/20/06 21:50:31  5-MIN KDBQ 210350Z AUTO 04014KT 10SM FEW110 M01/M07 A3011 910 66 -800 040/14 RMK AO2 SLP206 T10111067 TSNO
94908KDBQ DBQ20060320215512503/20/06 21:55:31  5-MIN KDBQ 210355Z AUTO 04017KT 10SM FEW110 M01/M07 A3010 910 66 -700 040/17 RMK AO2 SLP205 T10111067 TSNO
94908KDBQ DBQ20060320220010803/20/06 22:00:31  5-MIN KDBQ 210400Z AUTO 05017KT 10SM FEW110 M01/M07 A3010 910 66 -700 050/17 RMK AO2 TSNO
94908KDBQ DBQ20060320220510803/20/06 22:05:31  5-MIN KDBQ 210405Z AUTO 05017KT 10SM FEW120 M01/M07 A3010 910 66 -700 050/17 RMK AO2 TSNO
94908KDBQ DBQ20060320221011403/20/06 22:10:31  5-MIN KDBQ 210410Z AUTO 05014G22KT 10SM FEW120 M02/M07 A3010 910 69 -800 050/14G22 RMK AO2 TSNO
94908KDBQ DBQ20060320221510503/20/06 22:15:31  5-MIN KDBQ 210415Z AUTO 05019KT 10SM CLR M02/M07 A3011 910 69 -800 040/19 RMK AO2 TSNO
94908KDBQ DBQ20060320222010503/20/06 22:20:31  5-MIN KDBQ 210420Z AUTO 05016KT 10SM CLR M02/M07 A3011 900 69 -800 050/16 RMK AO2 TSNO
94908KDBQ DBQ20060320222511103/20/06 22:25:31  5-MIN KDBQ 210425Z AUTO 05017G22KT 10SM CLR M02/M07 A3012 900 69 -800 040/17G22 RMK AO2 TSNO
94908KDBQ DBQ20060320223011103/20/06 22:30:31  5-MIN KDBQ 210430Z AUTO 05013G25KT 10SM CLR M02/M07 A3011 900 66 -800 040/13G25 RMK AO2 TSNO
94908KDBQ DBQ20060320223511103/20/06 22:35:31  5-MIN KDBQ 210435Z AUTO 06018G25KT 10SM CLR M02/M07 A3012 900 69 -800 060/18G25 RMK AO2 TSNO
94908KDBQ DBQ20060320224011103/20/06 22:40:31  5-MIN KDBQ 210440Z AUTO 04016G25KT 10SM CLR M02/M07 A3012 900 69 -800 040/16G25 RMK AO2 TSNO
94908KDBQ DBQ20060320224511103/20/06 22:45:31  5-MIN KDBQ 210445Z AUTO 05017G22KT 10SM CLR M02/M07 A3012 890 66 -800 050/17G22 RMK AO2 TSNO
94908KDBQ DBQ20060320225012203/20/06 22:50:31  5-MIN KDBQ 210450Z AUTO 05018KT 10SM CLR M02/M07 A3012 900 66 -800 050/18 RMK AO2 SLP210 T10171072 TSNO
94908KDBQ DBQ20060320225512803/20/06 22:55:31  5-MIN KDBQ 210455Z AUTO 05015G24KT 10SM CLR M02/M07 A3012 890 66 -800 050/15G24 RMK AO2 SLP211 T10171072 TSNO
94908KDBQ DBQ20060320230011103/20/06 23:00:31  5-MIN KDBQ 210500Z AUTO 05014G24KT 10SM CLR M02/M07 A3013 890 66 -800 050/14G24 RMK AO2 TSNO
94908KDBQ DBQ20060320230510503/20/06 23:05:31  5-MIN KDBQ 210505Z AUTO 06017KT 10SM CLR M02/M07 A3013 880 66 -900 060/17 RMK AO2 TSNO
94908KDBQ DBQ20060320231011103/20/06 23:10:31  5-MIN KDBQ 210510Z AUTO 06019G25KT 10SM CLR M02/M07 A3012 890 66 -800 060/19G25 RMK AO2 TSNO
94908KDBQ DBQ20060320231512903/20/06 23:15:31  5-MIN KDBQ 210515Z AUTO 06020G27KT 10SM CLR M02/M08 A3013 890 63 -800 060/20G27 RMK AO2 PK WND 06027/0515 TSNO
94908KDBQ DBQ20060320232012903/20/06 23:20:31  5-MIN KDBQ 210520Z AUTO 06017G28KT 10SM CLR M02/M08 A3013 890 66 -900 050/17G28 RMK AO2 PK WND 06028/0516 TSNO
94908KDBQ DBQ20060320232513203/20/06 23:25:31  5-MIN KDBQ 210525Z AUTO 05014G28KT 10SM FEW120 M02/M08 A3012 890 66 -900 050/14G28 RMK AO2 PK WND 06028/0516 TSNO
94908KDBQ DBQ20060320233013203/20/06 23:30:31  5-MIN KDBQ 210530Z AUTO 05016G22KT 10SM FEW110 M02/M07 A3013 890 69 -900 050/16G22 RMK AO2 PK WND 06028/0516 TSNO
94908KDBQ DBQ20060320233513203/20/06 23:35:31  5-MIN KDBQ 210535Z AUTO 05018G22KT 10SM FEW110 M02/M07 A3013 890 69 -900 050/18G22 RMK AO2 PK WND 06028/0516 TSNO
94908KDBQ DBQ20060320234013203/20/06 23:40:31  5-MIN KDBQ 210540Z AUTO 05014G22KT 10SM FEW120 M02/M07 A3013 890 69 -900 050/14G22 RMK AO2 PK WND 06028/0516 TSNO
94908KDBQ DBQ20060320234513203/20/06 23:45:31  5-MIN KDBQ 210545Z AUTO 06017G24KT 10SM SCT120 M02/M07 A3013 880 69 -900 060/17G24 RMK AO2 PK WND 06028/0516 TSNO
94908KDBQ DBQ20060320235017703/20/06 23:50:31  5-MIN KDBQ 210550Z AUTO 05014G24KT 10SM BKN120 M02/M08 A3013 880 66 -900 050/14G24 RMK AO2 PK WND 06028/0516 SLP215 T10221078 11011 21022 400501022 55003 TSNO
94908KDBQ DBQ20060320235517103/20/06 23:55:31  5-MIN KDBQ 210555Z AUTO 06013KT 10SM BKN120 M02/M07 A3013 880 69 -900 060/13 RMK AO2 PK WND 06028/0516 SLP214 T10221072 11011 21022 400501022 51016 TSNO
94908KDBQ DBQ20060321000010803/21/06 00:00:38  5-MIN KDBQ 210600Z AUTO 05013KT 10SM BKN120 M02/M07 A3013 880 69 -900 050/13 RMK AO2 TSNO
94908KDBQ DBQ20060321000510803/21/06 00:05:31  5-MIN KDBQ 210605Z AUTO 05014KT 10SM BKN120 M02/M07 A3013 880 69 -900 050/14 RMK AO2 TSNO
94908KDBQ DBQ20060321001011403/21/06 00:10:31  5-MIN KDBQ 210610Z AUTO 05019G25KT 10SM BKN120 M02/M07 A3013 890 69 -900 050/19G25 RMK AO2 TSNO
94908KDBQ DBQ20060321001511403/21/06 00:15:33  5-MIN KDBQ 210615Z AUTO 05020G25KT 10SM BKN120 M02/M07 A3012 890 69 -900 050/20G25 RMK AO2 TSNO
94908KDBQ DBQ20060321002011403/21/06 00:20:31  5-MIN KDBQ 210620Z AUTO 05016G24KT 10SM BKN120 M02/M07 A3012 900 69 -900 050/16G24 RMK AO2 TSNO
94908KDBQ DBQ20060321002511403/21/06 00:25:31  5-MIN KDBQ 210625Z AUTO 05015G23KT 10SM BKN120 M02/M07 A3011 900 69 -900 050/15G23 RMK AO2 TSNO
94908KDBQ DBQ20060321003011403/21/06 00:30:31  5-MIN KDBQ 210630Z AUTO 05018G23KT 10SM SCT110 M02/M07 A3011 900 69 -900 050/18G23 RMK AO2 TSNO
94908KDBQ DBQ20060321003511403/21/06 00:35:31  5-MIN KDBQ 210635Z AUTO 05018G23KT 10SM BKN110 M02/M07 A3010 910 69 -900 050/18G23 RMK AO2 TSNO
94908KDBQ DBQ20060321004010803/21/06 00:40:31  5-MIN KDBQ 210640Z AUTO 05018KT 10SM BKN110 M02/M07 A3011 910 69 -900 050/18 RMK AO2 TSNO
94908KDBQ DBQ20060321004513203/21/06 00:45:31  5-MIN KDBQ 210645Z AUTO 05020G30KT 10SM BKN110 M02/M07 A3011 900 69 -900 050/20G30 RMK AO2 PK WND 05030/0643 TSNO
94908KDBQ DBQ20060321005014903/21/06 00:50:31  5-MIN KDBQ 210650Z AUTO 05017G30KT 10SM BKN110 M02/M07 A3010 910 69 -900 050/17G30 RMK AO2 PK WND 05030/0643 SLP205 T10221072 TSNO
94908KDBQ DBQ20060321005514903/21/06 00:55:31  5-MIN KDBQ 210655Z AUTO 05013G22KT 10SM OVC100 M02/M07 A3010 910 69 -900 050/13G22 RMK AO2 PK WND 05030/0643 SLP205 T10221072 TSNO
94908KDBQ DBQ20060321010011403/21/06 01:00:31  5-MIN KDBQ 210700Z AUTO 05016G24KT 10SM OVC100 M02/M07 A3010 910 69 -900 050/16G24 RMK AO2 TSNO
94908KDBQ DBQ20060321010511403/21/06 01:05:31  5-MIN KDBQ 210705Z AUTO 05020G25KT 10SM OVC100 M02/M07 A3010 920 69 -900 050/20G25 RMK AO2 TSNO
94908KDBQ DBQ20060321011013203/21/06 01:10:31  5-MIN KDBQ 210710Z AUTO 06019G25KT 10SM OVC100 M02/M07 A3010 920 69 -900 060/19G25 RMK AO2 PK WND 05026/0708 TSNO
94908KDBQ DBQ20060321011513203/21/06 01:15:31  5-MIN KDBQ 210715Z AUTO 06017G25KT 10SM OVC095 M02/M07 A3010 910 69 -900 060/17G25 RMK AO2 PK WND 05026/0708 TSNO
94908KDBQ DBQ20060321012013203/21/06 01:20:31  5-MIN KDBQ 210720Z AUTO 05018G24KT 10SM OVC090 M02/M07 A3010 910 69 -900 050/18G24 RMK AO2 PK WND 05026/0708 TSNO
94908KDBQ DBQ20060321012513203/21/06 01:25:31  5-MIN KDBQ 210725Z AUTO 05016G24KT 10SM OVC090 M02/M07 A3009 920 69 -900 050/16G24 RMK AO2 PK WND 05026/0708 TSNO
94908KDBQ DBQ20060321013013203/21/06 01:30:31  5-MIN KDBQ 210730Z AUTO 06017G24KT 10SM OVC090 M02/M07 A3009 920 69 -900 060/17G24 RMK AO2 PK WND 05026/0708 TSNO
94908KDBQ DBQ20060321013513203/21/06 01:35:31  5-MIN KDBQ 210735Z AUTO 05017G24KT 10SM OVC085 M02/M07 A3009 920 69 -900 050/17G24 RMK AO2 PK WND 05026/0708 TSNO
94908KDBQ DBQ20060321014012603/21/06 01:40:31  5-MIN KDBQ 210740Z AUTO 05015KT 10SM OVC085 M02/M07 A3009 920 69 -900 050/15 RMK AO2 PK WND 05026/0708 TSNO
94908KDBQ DBQ20060321014513203/21/06 01:45:31  5-MIN KDBQ 210745Z AUTO 06019G25KT 10SM OVC085 M02/M07 A3009 920 69 -900 060/19G25 RMK AO2 PK WND 05026/0708 TSNO
94908KDBQ DBQ20060321015014903/21/06 01:50:31  5-MIN KDBQ 210750Z AUTO 05018G27KT 10SM OVC080 M02/M07 A3009 920 69 -900 050/18G27 RMK AO2 PK WND 06027/0748 SLP200 T10221072 TSNO
94908KDBQ DBQ20060321015514903/21/06 01:55:31  5-MIN KDBQ 210755Z AUTO 05020G27KT 10SM OVC080 M02/M07 A3009 920 69 -900 050/20G27 RMK AO2 PK WND 06027/0748 SLP199 T10221072 TSNO
94908KDBQ DBQ20060321020011403/21/06 02:00:31  5-MIN KDBQ 210800Z AUTO 05017G25KT 10SM OVC080 M02/M07 A3009 930 69 -900 050/17G25 RMK AO2 TSNO
94908KDBQ DBQ20060321020512103/21/06 02:05:31  5-MIN KDBQ 210805Z AUTO 06018G25KT 10SM FEW024 OVC080 M02/M07 A3008 930 69 -900 060/18G25 RMK AO2 TSNO
94908KDBQ DBQ20060321021012803/21/06 02:10:31  5-MIN KDBQ 210810Z AUTO 06017G25KT 10SM FEW024 SCT031 OVC075 M02/M07 A3008 930 69 -900 060/17G25 RMK AO2 TSNO
94908KDBQ DBQ20060321021512803/21/06 02:15:31  5-MIN KDBQ 210815Z AUTO 06020G25KT 10SM SCT024 BKN031 OVC075 M02/M07 A3009 920 69 -900 050/20G25 RMK AO2 TSNO
94908KDBQ DBQ20060321022012803/21/06 02:20:31  5-MIN KDBQ 210820Z AUTO 05018G25KT 10SM BKN024 BKN031 OVC075 M02/M07 A3008 930 69 -900 050/18G25 RMK AO2 TSNO
94908KDBQ DBQ20060321022514603/21/06 02:25:31  5-MIN KDBQ 210825Z AUTO 06018G26KT 10SM BKN024 BKN031 OVC075 M02/M07 A3008 930 69 -900 060/18G26 RMK AO2 PK WND 05026/0823 TSNO
94908KDBQ DBQ20060321023013903/21/06 02:30:31  5-MIN KDBQ 210830Z AUTO 05020G26KT 10SM BKN024 OVC031 M02/M07 A3008 940 69 -900 050/20G26 RMK AO2 PK WND 05026/0823 TSNO
94908KDBQ DBQ20060321023513903/21/06 02:35:31  5-MIN KDBQ 210835Z AUTO 05021G26KT 10SM BKN024 OVC031 M02/M07 A3007 940 69 -900 050/21G26 RMK AO2 PK WND 05026/0833 TSNO
94908KDBQ DBQ20060321024013203/21/06 02:40:31  5-MIN KDBQ 210840Z AUTO 05019G28KT 10SM OVC024 M02/M07 A3006 950 69 -800 050/19G28 RMK AO2 PK WND 05028/0836 TSNO
94908KDBQ DBQ20060321024513203/21/06 02:45:31  5-MIN KDBQ 210845Z AUTO 06018G28KT 10SM OVC022 M02/M07 A3006 950 69 -800 050/18G28 RMK AO2 PK WND 05028/0836 TSNO
94908KDBQ DBQ20060321025016203/21/06 02:50:31  5-MIN KDBQ 210850Z AUTO 06020G26KT 10SM OVC022 M02/M07 A3005 960 69 -800 060/20G26 RMK AO2 PK WND 05028/0836 PRESFR SLP187 T10221072 51016 TSNO
94908KDBQ DBQ20060321025516203/21/06 02:55:31  5-MIN KDBQ 210855Z AUTO 05019G26KT 10SM OVC022 M02/M07 A3005 960 69 -800 050/19G26 RMK AO2 PK WND 05028/0836 PRESFR SLP185 T10221072 58028 TSNO
94908KDBQ DBQ20060321030013903/21/06 03:00:31  5-MIN KDBQ 210900Z AUTO 05021G30KT 10SM OVC022 M02/M07 A3004 970 69 -800 050/21G30 RMK AO2 PK WND 05030/0858 PRESFR TSNO
94908KDBQ DBQ20060321030513203/21/06 03:05:31  5-MIN KDBQ 210905Z AUTO 06022G30KT 10SM OVC022 M02/M07 A3004 970 69 -800 060/22G30 RMK AO2 PK WND 05030/0858 TSNO
94908KDBQ DBQ20060321031013203/21/06 03:10:31  5-MIN KDBQ 210910Z AUTO 05018G29KT 10SM OVC022 M02/M07 A3003 970 69 -800 050/18G29 RMK AO2 PK WND 05030/0858 TSNO
94908KDBQ DBQ20060321031513203/21/06 03:15:31  5-MIN KDBQ 210915Z AUTO 05019G27KT 10SM OVC022 M02/M07 A3003 980 69 -800 050/19G27 RMK AO2 PK WND 05030/0858 TSNO
94908KDBQ DBQ20060321032013203/21/06 03:20:31  5-MIN KDBQ 210920Z AUTO 05022G27KT 10SM OVC022 M02/M07 A3003 980 69 -800 050/22G27 RMK AO2 PK WND 05030/0858 TSNO
94908KDBQ DBQ20060321032513203/21/06 03:25:31  5-MIN KDBQ 210925Z AUTO 06022G28KT 10SM OVC022 M02/M07 A3003 980 69 -800 060/22G28 RMK AO2 PK WND 05030/0858 TSNO
94908KDBQ DBQ20060321033013203/21/06 03:30:31  5-MIN KDBQ 210930Z AUTO 05019G28KT 10SM OVC022 M02/M07 A3002 990 69 -800 050/19G28 RMK AO2 PK WND 05030/0858 TSNO
94908KDBQ DBQ20060321033513203/21/06 03:35:31  5-MIN KDBQ 210935Z AUTO 05017G25KT 10SM OVC022 M02/M07 A3002 990 69 -800 050/17G25 RMK AO2 PK WND 05030/0858 TSNO
94908KDBQ DBQ20060321034013203/21/06 03:40:31  5-MIN KDBQ 210940Z AUTO 05021G27KT 10SM OVC022 M02/M07 A3002 990 69 -800 050/21G27 RMK AO2 PK WND 05030/0858 TSNO
94908KDBQ DBQ20060321034513203/21/06 03:45:31  5-MIN KDBQ 210945Z AUTO 05017G27KT 10SM OVC022 M02/M07 A3002 990 69 -800 050/17G27 RMK AO2 PK WND 05030/0858 TSNO
94908KDBQ DBQ20060321035014903/21/06 03:50:31  5-MIN KDBQ 210950Z AUTO 05023G30KT 10SM OVC022 M02/M07 A3002 990 69 -800 050/23G30 RMK AO2 PK WND 05030/0949 SLP177 T10221072 TSNO
94908KDBQ DBQ20060321035514903/21/06 03:55:31  5-MIN KDBQ 210955Z AUTO 05023G30KT 10SM OVC022 M02/M07 A3002 990 69 -800 050/23G30 RMK AO2 PK WND 05030/0949 SLP176 T10221072 TSNO
94908KDBQ DBQ20060321040013203/21/06 04:00:31  5-MIN KDBQ 211000Z AUTO 05022G28KT 10SM OVC022 M02/M07 A3002 980 69 -800 050/22G28 RMK AO2 PK WND 05027/0959 TSNO
94908KDBQ DBQ20060321040513203/21/06 04:05:31  5-MIN KDBQ 211005Z AUTO 04022G30KT 10SM OVC022 M03/M07 A3002 990 71 -900 040/22G30 RMK AO2 PK WND 03030/1005 TSNO
94908KDBQ DBQ20060321041013203/21/06 04:10:31  5-MIN KDBQ 211010Z AUTO 05023G30KT 10SM OVC022 M03/M07 A3001 990 71 -900 050/23G30 RMK AO2 PK WND 05030/1007 TSNO
94908KDBQ DBQ20060321041513203/21/06 04:15:31  5-MIN KDBQ 211015Z AUTO 05019G30KT 10SM OVC020 M03/M07 A3002 990 71 -900 040/19G30 RMK AO2 PK WND 05030/1007 TSNO
94908KDBQ DBQ20060321042013203/21/06 04:20:31  5-MIN KDBQ 211020Z AUTO 05022G30KT 10SM OVC020 M03/M07 A3002 990 71 -900 050/22G30 RMK AO2 PK WND 05030/1019 TSNO
94908KDBQ DBQ20060321042513203/21/06 04:25:31  5-MIN KDBQ 211025Z AUTO 05018G30KT 10SM OVC020 M03/M07 A3003 980 71 -900 040/18G30 RMK AO2 PK WND 05030/1019 TSNO
94908KDBQ DBQ20060321043013203/21/06 04:30:31  5-MIN KDBQ 211030Z AUTO 05019G27KT 10SM OVC020 M03/M07 A3002 980 74 -900 050/19G27 RMK AO2 PK WND 05030/1019 TSNO
94908KDBQ DBQ20060321043513203/21/06 04:35:31  5-MIN KDBQ 211035Z AUTO 05022G27KT 10SM OVC020 M03/M08 A3003 980 71 -900 050/22G27 RMK AO2 PK WND 05030/1019 TSNO
94908KDBQ DBQ20060321044013203/21/06 04:40:31  5-MIN KDBQ 211040Z AUTO 05019G26KT 10SM OVC020 M03/M08 A3003 980 71 -900 050/19G26 RMK AO2 PK WND 05030/1019 TSNO
94908KDBQ DBQ20060321044513203/21/06 04:45:31  5-MIN KDBQ 211045Z AUTO 05020G25KT 10SM OVC020 M03/M08 A3003 980 71 -900 050/20G25 RMK AO2 PK WND 05030/1019 TSNO
94908KDBQ DBQ20060321045014903/21/06 04:50:31  5-MIN KDBQ 211050Z AUTO 05023G28KT 10SM OVC020 M03/M08 A3003 980 71 -900 050/23G28 RMK AO2 PK WND 05030/1019 SLP182 T10331078 TSNO
94908KDBQ DBQ20060321045514903/21/06 04:55:31  5-MIN KDBQ 211055Z AUTO 05020G28KT 10SM OVC020 M03/M08 A3003 980 71 -900 050/20G28 RMK AO2 PK WND 05030/1019 SLP182 T10331078 TSNO
94908KDBQ DBQ20060321050011503/21/06 05:00:31  5-MIN KDBQ 211100Z AUTO 05020G27KT 10SM OVC020 M03/M08 A3004 970 71 -1000 050/20G27 RMK AO2 TSNO
94908KDBQ DBQ20060321050513303/21/06 05:05:31  5-MIN KDBQ 211105Z AUTO 05021G26KT 10SM OVC020 M03/M08 A3004 970 71 -1000 050/21G26 RMK AO2 PK WND 05026/1104 TSNO
94908KDBQ DBQ20060321051013303/21/06 05:10:31  5-MIN KDBQ 211110Z AUTO 05015G26KT 10SM OVC020 M03/M08 A3004 960 71 -1000 050/15G26 RMK AO2 PK WND 05026/1104 TSNO
94908KDBQ DBQ20060321051513303/21/06 05:15:31  5-MIN KDBQ 211115Z AUTO 05022G26KT 10SM OVC020 M03/M08 A3004 970 71 -1000 050/22G26 RMK AO2 PK WND 06026/1115 TSNO
94908KDBQ DBQ20060321052013303/21/06 05:20:31  5-MIN KDBQ 211120Z AUTO 05019G26KT 10SM OVC020 M03/M08 A3005 960 71 -1000 050/19G26 RMK AO2 PK WND 06026/1115 TSNO
94908KDBQ DBQ20060321052513303/21/06 05:25:31  5-MIN KDBQ 211125Z AUTO 05017G25KT 10SM OVC020 M03/M08 A3005 960 71 -1000 040/17G25 RMK AO2 PK WND 06026/1115 TSNO
94908KDBQ DBQ20060321053013303/21/06 05:30:31  5-MIN KDBQ 211130Z AUTO 05019G26KT 10SM OVC020 M03/M08 A3005 960 71 -1000 050/19G26 RMK AO2 PK WND 04026/1128 TSNO
94908KDBQ DBQ20060321053513303/21/06 05:35:31  5-MIN KDBQ 211135Z AUTO 04021G27KT 10SM OVC020 M03/M08 A3004 960 71 -1000 040/21G27 RMK AO2 PK WND 05027/1132 TSNO
94908KDBQ DBQ20060321054013303/21/06 05:40:31  5-MIN KDBQ 211140Z AUTO 05018G27KT 10SM OVC020 M03/M08 A3005 960 71 -1000 050/18G27 RMK AO2 PK WND 06027/1136 TSNO
94908KDBQ DBQ20060321054513303/21/06 05:45:31  5-MIN KDBQ 211145Z AUTO 05020G27KT 10SM OVC020 M03/M08 A3005 960 71 -1000 050/20G27 RMK AO2 PK WND 06027/1136 TSNO
94908KDBQ DBQ20060321055015803/21/06 05:50:31  5-MIN KDBQ 211150Z 05016G25KT 10SM OVC020 M03/M08 A3005 960 71 -1000 050/16G25 RMK AO2 PK WND 06027/1136 SLP190 T10331078 11022 21033 58028
94908KDBQ DBQ20060321055515803/21/06 05:55:31  5-MIN KDBQ 211155Z 05018G24KT 10SM OVC020 M03/M08 A3006 950 71 -1000 050/18G24 RMK AO2 PK WND 06027/1136 SLP192 T10331078 11022 21033 53004
94908KDBQ DBQ20060321060010503/21/06 06:00:31  5-MIN KDBQ 211200Z 05016G24KT 10SM OVC020 M03/M08 A3006 950 71 -1000 050/16G24 RMK AO2
94908KDBQ DBQ20060321060510503/21/06 06:05:31  5-MIN KDBQ 211205Z 05018G24KT 10SM OVC020 M03/M08 A3006 950 71 -1000 050/18G24 RMK AO2
94908KDBQ DBQ20060321061009903/21/06 06:10:31  5-MIN KDBQ 211210Z 05017KT 10SM OVC020 M03/M08 A3006 950 71 -1000 040/17 RMK AO2
94908KDBQ DBQ20060321061510503/21/06 06:15:31  5-MIN KDBQ 211215Z 05018G25KT 10SM OVC020 M03/M08 A3007 940 71 -1000 050/18G25 RMK AO2
94908KDBQ DBQ20060321062010503/21/06 06:20:31  5-MIN KDBQ 211220Z 05016G25KT 10SM OVC020 M03/M08 A3007 940 71 -1000 050/16G25 RMK AO2
94908KDBQ DBQ20060321062510503/21/06 06:25:31  5-MIN KDBQ 211225Z 05015G24KT 10SM OVC020 M03/M08 A3007 940 71 -1000 050/15G24 RMK AO2
94908KDBQ DBQ20060321063010503/21/06 06:30:31  5-MIN KDBQ 211230Z 05014G22KT 10SM OVC020 M03/M08 A3008 930 71 -1000 050/14G22 RMK AO2
94908KDBQ DBQ20060321063510503/21/06 06:35:31  5-MIN KDBQ 211235Z 04017G23KT 10SM OVC022 M03/M08 A3008 930 71 -1000 040/17G23 RMK AO2
94908KDBQ DBQ20060321064010503/21/06 06:40:31  5-MIN KDBQ 211240Z 05018G23KT 10SM OVC022 M03/M08 A3008 930 71 -1000 040/18G23 RMK AO2
94908KDBQ DBQ20060321064510503/21/06 06:45:31  5-MIN KDBQ 211245Z 05014G22KT 10SM OVC022 M03/M08 A3009 930 71 -1000 040/14G22 RMK AO2
94908KDBQ DBQ20060321065012203/21/06 06:50:31  5-MIN KDBQ 211250Z 05019G23KT 10SM OVC020 M03/M08 A3009 930 71 -1000 050/19G23 RMK AO2 SLP202 T10331078
94908KDBQ DBQ20060321065512203/21/06 06:55:31  5-MIN KDBQ 211255Z 05015G23KT 10SM OVC020 M03/M08 A3009 920 71 -1000 040/15G23 RMK AO2 SLP202 T10331078
94908KDBQ DBQ20060321070010503/21/06 07:00:31  5-MIN KDBQ 211300Z 05019G22KT 10SM OVC020 M03/M08 A3009 920 71 -1000 050/19G22 RMK AO2
94908KDBQ DBQ20060321070510503/21/06 07:05:31  5-MIN KDBQ 211305Z 05018G23KT 10SM OVC020 M03/M08 A3009 920 71 -1000 050/18G23 RMK AO2
94908KDBQ DBQ20060321071010503/21/06 07:10:31  5-MIN KDBQ 211310Z 05015G23KT 10SM OVC020 M03/M08 A3010 910 71 -1000 050/15G23 RMK AO2
94908KDBQ DBQ20060321071510503/21/06 07:15:31  5-MIN KDBQ 211315Z 05016G22KT 10SM OVC020 M03/M07 A3010 910 74 -1000 050/16G22 RMK AO2
94908KDBQ DBQ20060321072010503/21/06 07:20:31  5-MIN KDBQ 211320Z 05016G22KT 10SM OVC022 M03/M07 A3010 910 74 -1000 050/16G22 RMK AO2
94908KDBQ DBQ20060321072509903/21/06 07:25:31  5-MIN KDBQ 211325Z 05016KT 10SM OVC022 M03/M07 A3011 910 74 -1000 050/16 RMK AO2
94908KDBQ DBQ20060321073010503/21/06 07:30:31  5-MIN KDBQ 211330Z 05017G23KT 10SM OVC022 M03/M08 A3011 900 71 -1000 050/17G23 RMK AO2
94908KDBQ DBQ20060321073510503/21/06 07:35:31  5-MIN KDBQ 211335Z 05014G23KT 10SM OVC022 M03/M07 A3011 900 74 -1000 050/14G23 RMK AO2
94908KDBQ DBQ20060321074010503/21/06 07:40:31  5-MIN KDBQ 211340Z 05015G22KT 10SM OVC022 M03/M08 A3011 900 71 -1000 050/15G22 RMK AO2
94908KDBQ DBQ20060321074510503/21/06 07:45:31  5-MIN KDBQ 211345Z 06014G22KT 10SM OVC022 M03/M07 A3012 900 71 -1000 050/14G22 RMK AO2
94908KDBQ DBQ20060321075012203/21/06 07:50:31  5-MIN KDBQ 211350Z 05013G22KT 10SM OVC022 M03/M07 A3012 900 71 -1000 050/13G22 RMK AO2 SLP212 T10281072
94908KDBQ DBQ20060321075512203/21/06 07:55:31  5-MIN KDBQ 211355Z 05018G22KT 10SM OVC022 M03/M07 A3012 890 71 -1000 040/18G22 RMK AO2 SLP214 T10281072
94908KDBQ DBQ20060321080009903/21/06 08:00:31  5-MIN KDBQ 211400Z 05016KT 10SM OVC022 M03/M07 A3012 890 71 -1000 050/16 RMK AO2
94908KDBQ DBQ20060321080509903/21/06 08:05:31  5-MIN KDBQ 211405Z 04015KT 10SM OVC022 M03/M07 A3012 890 71 -1000 040/15 RMK AO2
94908KDBQ DBQ20060321081009903/21/06 08:10:31  5-MIN KDBQ 211410Z 04015KT 10SM OVC022 M03/M07 A3012 890 71 -1000 040/15 RMK AO2
94908KDBQ DBQ20060321081509903/21/06 08:15:31  5-MIN KDBQ 211415Z 04014KT 10SM OVC022 M03/M07 A3013 890 71 -1000 040/14 RMK AO2
94908KDBQ DBQ20060321082010503/21/06 08:20:31  5-MIN KDBQ 211420Z 05018G21KT 10SM OVC022 M03/M07 A3013 880 71 -1000 050/18G21 RMK AO2
94908KDBQ DBQ20060321082510503/21/06 08:25:31  5-MIN KDBQ 211425Z 05015G21KT 10SM OVC022 M03/M07 A3013 880 71 -1000 050/15G21 RMK AO2
94908KDBQ DBQ20060321083009903/21/06 08:30:31  5-MIN KDBQ 211430Z 05015KT 10SM OVC022 M03/M07 A3014 880 71 -1000 050/15 RMK AO2
94908KDBQ DBQ20060321083509903/21/06 08:35:31  5-MIN KDBQ 211435Z 04015KT 10SM OVC022 M03/M07 A3014 880 71 -1000 040/15 RMK AO2
94908KDBQ DBQ20060321084009903/21/06 08:40:31  5-MIN KDBQ 211440Z 05013KT 10SM OVC022 M03/M07 A3014 880 71 -1000 050/13 RMK AO2
94908KDBQ DBQ20060321084509903/21/06 08:45:31  5-MIN KDBQ 211445Z 04016KT 10SM OVC022 M03/M07 A3014 880 71 -1000 040/16 RMK AO2
94908KDBQ DBQ20060321085012203/21/06 08:50:31  5-MIN KDBQ 211450Z 04014KT 10SM OVC022 M03/M07 A3014 870 71 -1000 040/14 RMK AO2 SLP221 T10281072 53004
94908KDBQ DBQ20060321085512803/21/06 08:55:31  5-MIN KDBQ 211455Z 04015G21KT 10SM OVC022 M03/M07 A3014 870 71 -1000 040/15G21 RMK AO2 SLP222 T10281072 51028
94908KDBQ DBQ20060321090010403/21/06 09:00:31  5-MIN KDBQ 211500Z 06016G21KT 10SM OVC022 M02/M07 A3014 870 69 -900 050/16G21 RMK AO2
94908KDBQ DBQ20060321090510403/21/06 09:05:31  5-MIN KDBQ 211505Z 04016G21KT 10SM OVC022 M02/M07 A3015 870 69 -900 040/16G21 RMK AO2
94908KDBQ DBQ20060321091010403/21/06 09:10:31  5-MIN KDBQ 211510Z 04015G21KT 10SM OVC025 M02/M07 A3015 870 69 -900 040/15G21 RMK AO2
94908KDBQ DBQ20060321091509803/21/06 09:15:31  5-MIN KDBQ 211515Z 04016KT 10SM OVC023 M02/M08 A3015 870 66 -900 040/16 RMK AO2
94908KDBQ DBQ20060321092010403/21/06 09:20:31  5-MIN KDBQ 211520Z 06014G21KT 10SM OVC025 M02/M08 A3015 860 66 -900 060/14G21 RMK AO2
94908KDBQ DBQ20060321092509803/21/06 09:25:31  5-MIN KDBQ 211525Z 05014KT 10SM OVC025 M02/M08 A3015 860 66 -900 040/14 RMK AO2
94908KDBQ DBQ20060321093009803/21/06 09:30:31  5-MIN KDBQ 211530Z 05011KT 10SM OVC025 M02/M08 A3015 870 66 -900 040/11 RMK AO2
94908KDBQ DBQ20060321093509803/21/06 09:35:31  5-MIN KDBQ 211535Z 04014KT 10SM OVC023 M02/M08 A3015 860 66 -900 040/14 RMK AO2
94908KDBQ DBQ20060321094011203/21/06 09:40:31  5-MIN KDBQ 211540Z 03015G21KT 10SM BKN023 OVC029 M02/M08 A3016 860 66 -1000 030/15G21 RMK AO2
94908KDBQ DBQ20060321094511103/21/06 09:45:31  5-MIN KDBQ 211545Z 05013G21KT 10SM SCT023 OVC029 M02/M07 A3016 860 66 -900 050/13G21 RMK AO2
94908KDBQ DBQ20060321095012303/21/06 09:50:31  5-MIN KDBQ 211550Z 04011KT 10SM SCT023 OVC028 M02/M08 A3016 860 66 -1000 040/11 RMK AO2 SLP226 T10221078
94908KDBQ DBQ20060321095512103/21/06 09:55:31  5-MIN KDBQ 211555Z 04014G19KT 10SM OVC025 M02/M08 A3016 860 63 -900 030/14G19 RMK AO2 SLP227 T10171078
94908KDBQ DBQ20060321100010403/21/06 10:00:31  5-MIN KDBQ 211600Z 05013G19KT 10SM OVC025 M02/M08 A3016 860 63 -900 050/13G19 RMK AO2
94908KDBQ DBQ20060321100510503/21/06 10:05:31  5-MIN KDBQ 211605Z 04017KT 10SM BKN025 OVC032 M02/M08 A3016 860 63 -900 040/17 RMK AO2
94908KDBQ DBQ20060321101009803/21/06 10:10:31  5-MIN KDBQ 211610Z 04011KT 10SM OVC027 M02/M08 A3016 850 63 -900 040/11 RMK AO2
94908KDBQ DBQ20060321101510403/21/06 10:15:31  5-MIN KDBQ 211615Z 04013G20KT 10SM OVC027 M02/M08 A3017 850 63 -900 040/13G20 RMK AO2
94908KDBQ DBQ20060321102010403/21/06 10:20:31  5-MIN KDBQ 211620Z 04014G20KT 10SM OVC027 M02/M08 A3017 850 63 -900 040/14G20 RMK AO2
94908KDBQ DBQ20060321102510403/21/06 10:25:31  5-MIN KDBQ 211625Z 04013G19KT 10SM OVC027 M02/M08 A3017 850 63 -900 040/13G19 RMK AO2
94908KDBQ DBQ20060321103010403/21/06 10:30:31  5-MIN KDBQ 211630Z 03016G19KT 10SM OVC027 M02/M08 A3017 850 60 -900 030/16G19 RMK AO2
94908KDBQ DBQ20060321103510403/21/06 10:35:31  5-MIN KDBQ 211635Z 05015G19KT 10SM OVC029 M02/M08 A3017 850 63 -900 040/15G19 RMK AO2
94908KDBQ DBQ20060321104010403/21/06 10:40:31  5-MIN KDBQ 211640Z 05017G21KT 10SM OVC029 M02/M08 A3017 850 63 -900 050/17G21 RMK AO2
94908KDBQ DBQ20060321104510403/21/06 10:45:31  5-MIN KDBQ 211645Z 04015G21KT 10SM OVC029 M02/M08 A3017 850 60 -900 040/15G21 RMK AO2
94908KDBQ DBQ20060321105012803/21/06 10:50:31  5-MIN KDBQ 211650Z 04014G23KT 10SM BKN029 OVC035 M02/M08 A3017 850 63 -900 040/14G23 RMK AO2 SLP232 T10171078
94908KDBQ DBQ20060321105512803/21/06 10:55:31  5-MIN KDBQ 211655Z 05014G23KT 10SM BKN031 OVC035 M01/M08 A3017 850 60 -800 050/14G23 RMK AO2 SLP231 T10111078
94908KDBQ DBQ20060321110010403/21/06 11:00:31  5-MIN KDBQ 211700Z 05015G19KT 10SM OVC031 M01/M08 A3017 840 60 -800 050/15G19 RMK AO2
94908KDBQ DBQ20060321110511103/21/06 11:05:31  5-MIN KDBQ 211705Z 05012G19KT 10SM SCT028 OVC034 M01/M08 A3018 840 58 -800 050/12G19 RMK AO2
94908KDBQ DBQ20060321111011103/21/06 11:10:31  5-MIN KDBQ 211710Z 04016G20KT 10SM SCT028 OVC034 M01/M08 A3018 840 60 -800 040/16G20 RMK AO2
94908KDBQ DBQ20060321111511103/21/06 11:15:31  5-MIN KDBQ 211715Z 02014G20KT 10SM SCT028 OVC034 M02/M08 A3018 840 63 -900 020/14G20 RMK AO2
94908KDBQ DBQ20060321112010503/21/06 11:20:31  5-MIN KDBQ 211720Z 03013KT 10SM SCT028 OVC034 M02/M08 A3018 840 63 -900 030/13 RMK AO2
94908KDBQ DBQ20060321112510503/21/06 11:25:31  5-MIN KDBQ 211725Z 03014KT 10SM SCT028 OVC034 M01/M08 A3018 840 60 -800 030/14 RMK AO2
94908KDBQ DBQ20060321113010503/21/06 11:30:31  5-MIN KDBQ 211730Z 04012KT 10SM SCT028 OVC034 M01/M08 A3018 840 60 -800 040/12 RMK AO2
94908KDBQ DBQ20060321113510503/21/06 11:35:31  5-MIN KDBQ 211735Z 03013KT 10SM SCT028 OVC034 M02/M08 A3018 840 63 -900 030/13 RMK AO2
94908KDBQ DBQ20060321114010503/21/06 11:40:31  5-MIN KDBQ 211740Z 04013KT 10SM SCT028 OVC034 M01/M08 A3018 840 60 -800 040/13 RMK AO2
94908KDBQ DBQ20060321114510503/21/06 11:45:31  5-MIN KDBQ 211745Z 04016KT 10SM SCT028 OVC034 M01/M08 A3018 840 60 -800 040/16 RMK AO2
94908KDBQ DBQ20060321115014603/21/06 11:50:31  5-MIN KDBQ 211750Z 03012G19KT 10SM SCT028 OVC034 M01/M08 A3018 840 60 -800 030/12G19 RMK AO2 SLP234 T10111078 11011 21033 51028
94908KDBQ DBQ20060321115514003/21/06 11:55:31  5-MIN KDBQ 211755Z 04013KT 10SM SCT028 OVC034 M01/M08 A3018 840 60 -800 040/13 RMK AO2 SLP233 T10111078 11011 21033 51011
94908KDBQ DBQ20060321120009803/21/06 12:00:31  5-MIN KDBQ 211800Z 03016KT 10SM OVC030 M01/M08 A3018 840 60 -800 030/16 RMK AO2
94908KDBQ DBQ20060321120510403/21/06 12:05:31  5-MIN KDBQ 211805Z 04011G18KT 10SM OVC032 M01/M08 A3018 840 60 -800 040/11G18 RMK AO2
94908KDBQ DBQ20060321121010403/21/06 12:10:31  5-MIN KDBQ 211810Z 05013G17KT 10SM OVC032 M01/M08 A3018 840 58 -800 050/13G17 RMK AO2
94908KDBQ DBQ20060321121509803/21/06 12:15:31  5-MIN KDBQ 211815Z 03011KT 10SM OVC034 M01/M08 A3018 840 56 -800 030/11 RMK AO2
94908KDBQ DBQ20060321122010403/21/06 12:20:31  5-MIN KDBQ 211820Z 03013G19KT 10SM OVC034 M01/M08 A3018 840 56 -800 030/13G19 RMK AO2
94908KDBQ DBQ20060321122509803/21/06 12:25:31  5-MIN KDBQ 211825Z 04012KT 10SM OVC034 M01/M08 A3018 840 58 -800 040/12 RMK AO2
94908KDBQ DBQ20060321123010403/21/06 12:30:31  5-MIN KDBQ 211830Z 03012G19KT 10SM OVC032 M01/M08 A3018 840 58 -800 030/12G19 RMK AO2
94908KDBQ DBQ20060321123510403/21/06 12:35:31  5-MIN KDBQ 211835Z 02011G19KT 10SM OVC034 M01/M08 A3017 840 58 -800 020/11G19 RMK AO2
94908KDBQ DBQ20060321124009703/21/06 12:40:31  5-MIN KDBQ 211840Z 04010KT 10SM OVC034 00/M08 A3017 850 56 -700 040/10 RMK AO2
94908KDBQ DBQ20060321124509803/21/06 12:45:31  5-MIN KDBQ 211845Z 04011KT 10SM OVC034 M01/M08 A3017 850 58 -800 040/11 RMK AO2
94908KDBQ DBQ20060321125012103/21/06 12:50:31  5-MIN KDBQ 211850Z 02014G19KT 10SM OVC034 M01/M08 A3017 850 56 -800 020/14G19 RMK AO2 SLP229 T10061083
94908KDBQ DBQ20060321125512103/21/06 12:55:31  5-MIN KDBQ 211855Z 03014G21KT 10SM OVC034 M01/M08 A3017 850 56 -800 030/14G21 RMK AO2 SLP229 T10061083
94908KDBQ DBQ20060321130010403/21/06 13:00:31  5-MIN KDBQ 211900Z 03013G21KT 10SM OVC034 M01/M08 A3017 850 56 -800 030/13G21 RMK AO2
94908KDBQ DBQ20060321130509703/21/06 13:05:31  5-MIN KDBQ 211905Z 02014KT 10SM OVC034 00/M08 A3016 850 53 -700 020/14 RMK AO2
94908KDBQ DBQ20060321131009703/21/06 13:10:31  5-MIN KDBQ 211910Z 02013KT 10SM OVC034 00/M08 A3016 850 53 -700 020/13 RMK AO2
94908KDBQ DBQ20060321131510303/21/06 13:15:31  5-MIN KDBQ 211915Z 02014G20KT 10SM OVC034 00/M08 A3016 850 53 -700 020/14G20 RMK AO2
94908KDBQ DBQ20060321132010303/21/06 13:20:31  5-MIN KDBQ 211920Z 02015G20KT 10SM OVC036 00/M09 A3016 850 51 -700 020/15G20 RMK AO2
94908KDBQ DBQ20060321132510303/21/06 13:25:31  5-MIN KDBQ 211925Z 03012G17KT 10SM OVC038 00/M09 A3016 850 51 -700 030/12G17 RMK AO2
94908KDBQ DBQ20060321133009703/21/06 13:30:31  5-MIN KDBQ 211930Z 04014KT 10SM OVC038 01/M09 A3017 850 49 -600 040/14 RMK AO2
94908KDBQ DBQ20060321133509703/21/06 13:35:31  5-MIN KDBQ 211935Z 02009KT 10SM OVC038 01/M08 A3016 850 51 -600 020/09 RMK AO2
94908KDBQ DBQ20060321134009703/21/06 13:40:31  5-MIN KDBQ 211940Z 03015KT 10SM OVC038 01/M08 A3016 860 51 -600 030/15 RMK AO2
94908KDBQ DBQ20060321134510303/21/06 13:45:31  5-MIN KDBQ 211945Z 01010G17KT 10SM OVC038 01/M09 A3016 860 49 -600 010/10G17 RMK AO2
94908KDBQ DBQ20060321135011403/21/06 13:50:31  5-MIN KDBQ 211950Z 02013KT 10SM OVC038 01/M09 A3016 850 49 -600 020/13 RMK AO2 SLP227 T00061089
94908KDBQ DBQ20060321135512003/21/06 13:55:31  5-MIN KDBQ 211955Z 03015G18KT 10SM OVC038 01/M08 A3016 860 51 -600 020/15G18 RMK AO2 SLP227 T00061083
94908KDBQ DBQ20060321140009703/21/06 14:00:31  5-MIN KDBQ 212000Z 02014KT 10SM BKN038 01/M08 A3016 860 51 -600 020/14 RMK AO2
94908KDBQ DBQ20060321140509703/21/06 14:05:31  5-MIN KDBQ 212005Z 02012KT 10SM BKN038 01/M08 A3016 850 49 -500 020/12 RMK AO2
94908KDBQ DBQ20060321141010303/21/06 14:10:31  5-MIN KDBQ 212010Z 04013G18KT 10SM SCT038 01/M09 A3016 860 49 -600 030/13G18 RMK AO2
94908KDBQ DBQ20060321141510303/21/06 14:15:31  5-MIN KDBQ 212015Z 05013G18KT 10SM SCT040 01/M09 A3016 860 49 -600 050/13G18 RMK AO2
94908KDBQ DBQ20060321142010303/21/06 14:20:31  5-MIN KDBQ 212020Z 03011G19KT 10SM SCT040 01/M09 A3016 850 47 -500 030/11G19 RMK AO2
94908KDBQ DBQ20060321142510303/21/06 14:25:31  5-MIN KDBQ 212025Z 02013G19KT 10SM SCT040 01/M08 A3016 850 49 -500 020/13G19 RMK AO2
94908KDBQ DBQ20060321143009703/21/06 14:30:31  5-MIN KDBQ 212030Z 04013KT 10SM SCT040 01/M09 A3017 850 47 -500 040/13 RMK AO2
94908KDBQ DBQ20060321143509703/21/06 14:35:31  5-MIN KDBQ 212035Z 36013KT 10SM SCT040 01/M09 A3017 850 47 -500 360/13 RMK AO2
94908KDBQ DBQ20060321144009703/21/06 14:40:31  5-MIN KDBQ 212040Z 01010KT 10SM SCT040 01/M09 A3017 850 47 -500 010/10 RMK AO2
94908KDBQ DBQ20060321144509703/21/06 14:45:31  5-MIN KDBQ 212045Z 04014KT 10SM SCT040 01/M09 A3017 850 47 -500 040/14 RMK AO2
94908KDBQ DBQ20060321145012603/21/06 14:50:31  5-MIN KDBQ 212050Z 02014G20KT 10SM FEW042 01/M09 A3017 850 47 -500 020/14G20 RMK AO2 SLP230 T00111089 51011
94908KDBQ DBQ20060321145512603/21/06 14:55:31  5-MIN KDBQ 212055Z 01013G20KT 10SM FEW042 01/M09 A3017 850 47 -600 010/13G20 RMK AO2 SLP231 T00111089 55001
94908KDBQ DBQ20060321150009703/21/06 15:00:31  5-MIN KDBQ 212100Z 04009KT 10SM FEW042 01/M09 A3017 850 45 -500 030/09 RMK AO2
94908KDBQ DBQ20060321150509703/21/06 15:05:31  5-MIN KDBQ 212105Z 03015KT 10SM FEW042 02/M09 A3017 850 45 -500 030/15 RMK AO2
94908KDBQ DBQ20060321151009403/21/06 15:10:31  5-MIN KDBQ 212110Z 05013KT 10SM CLR 02/M09 A3017 850 43 -500 050/13 RMK AO2
94908KDBQ DBQ20060321151509403/21/06 15:15:31  5-MIN KDBQ 212115Z 04011KT 10SM CLR 02/M09 A3017 840 43 -500 040/11 RMK AO2
94908KDBQ DBQ20060321152009403/21/06 15:20:31  5-MIN KDBQ 212120Z 02009KT 10SM CLR 01/M09 A3018 840 45 -600 020/09 RMK AO2
94908KDBQ DBQ20060321152509403/21/06 15:25:31  5-MIN KDBQ 212125Z 01011KT 10SM CLR 01/M09 A3018 840 45 -600 010/11 RMK AO2
94908KDBQ DBQ20060321153009403/21/06 15:30:31  5-MIN KDBQ 212130Z 02012KT 10SM CLR 02/M09 A3018 840 43 -500 020/12 RMK AO2
94908KDBQ DBQ20060321153509403/21/06 15:35:31  5-MIN KDBQ 212135Z 36011KT 10SM CLR 01/M09 A3018 840 45 -600 360/11 RMK AO2
94908KDBQ DBQ20060321154009403/21/06 15:40:31  5-MIN KDBQ 212140Z 02012KT 10SM CLR 01/M09 A3018 840 45 -600 020/12 RMK AO2
94908KDBQ DBQ20060321154509403/21/06 15:45:31  5-MIN KDBQ 212145Z 03015KT 10SM CLR 01/M09 A3018 840 47 -600 030/15 RMK AO2
94908KDBQ DBQ20060321155011103/21/06 15:50:31  5-MIN KDBQ 212150Z 02013KT 10SM CLR 01/M09 A3018 840 45 -600 020/13 RMK AO2 SLP233 T00111094
94908KDBQ DBQ20060321155511103/21/06 15:55:31  5-MIN KDBQ 212155Z 02013KT 10SM CLR 01/M09 A3018 840 45 -600 020/13 RMK AO2 SLP233 T00111094
94908KDBQ DBQ20060321160009403/21/06 16:00:31  5-MIN KDBQ 212200Z 03012KT 10SM CLR 01/M09 A3018 840 47 -600 030/12 RMK AO2
94908KDBQ DBQ20060321160509403/21/06 16:05:31  5-MIN KDBQ 212205Z 03012KT 10SM CLR 01/M09 A3018 840 45 -600 030/12 RMK AO2
94908KDBQ DBQ20060321161009403/21/06 16:10:31  5-MIN KDBQ 212210Z 03011KT 10SM CLR 01/M09 A3018 830 45 -600 030/11 RMK AO2
94908KDBQ DBQ20060321161509403/21/06 16:15:31  5-MIN KDBQ 212215Z 02011KT 10SM CLR 01/M09 A3018 830 45 -600 020/11 RMK AO2
94908KDBQ DBQ20060321162010003/21/06 16:20:31  5-MIN KDBQ 212220Z 04012G17KT 10SM CLR 01/M09 A3018 840 45 -600 040/12G17 RMK AO2
94908KDBQ DBQ20060321162509403/21/06 16:25:31  5-MIN KDBQ 212225Z 04010KT 10SM CLR 01/M09 A3018 830 45 -600 040/10 RMK AO2
94908KDBQ DBQ20060321163009403/21/06 16:30:31  5-MIN KDBQ 212230Z 02012KT 10SM CLR 01/M09 A3019 830 45 -600 020/12 RMK AO2
94908KDBQ DBQ20060321163510003/21/06 16:35:31  5-MIN KDBQ 212235Z 02013G17KT 10SM CLR 02/M09 A3019 830 43 -500 020/13G17 RMK AO2
94908KDBQ DBQ20060321164010003/21/06 16:40:31  5-MIN KDBQ 212240Z 03012G17KT 10SM CLR 01/M09 A3019 830 45 -600 030/12G17 RMK AO2
94908KDBQ DBQ20060321164509403/21/06 16:45:31  5-MIN KDBQ 212245Z 01009KT 10SM CLR 01/M10 A3019 830 43 -600 010/09 RMK AO2
94908KDBQ DBQ20060321165011103/21/06 16:50:31  5-MIN KDBQ 212250Z 01010KT 10SM CLR 02/M09 A3019 830 45 -500 010/10 RMK AO2 SLP236 T00171089
94908KDBQ DBQ20060321165511103/21/06 16:55:31  5-MIN KDBQ 212255Z 04009KT 10SM CLR 02/M09 A3019 830 43 -500 040/09 RMK AO2 SLP237 T00171094
94908KDBQ DBQ20060321170009403/21/06 17:00:31  5-MIN KDBQ 212300Z 03010KT 10SM CLR 01/M09 A3019 830 45 -600 020/10 RMK AO2
94908KDBQ DBQ20060321170509403/21/06 17:05:31  5-MIN KDBQ 212305Z 01008KT 10SM CLR 01/M09 A3019 830 45 -600 010/08 RMK AO2
94908KDBQ DBQ20060321171009403/21/06 17:10:31  5-MIN KDBQ 212310Z 01008KT 10SM CLR 01/M10 A3019 830 43 -600 010/08 RMK AO2
94908KDBQ DBQ20060321171509403/21/06 17:15:31  5-MIN KDBQ 212315Z 02008KT 10SM CLR 01/M09 A3019 830 45 -600 020/08 RMK AO2
94908KDBQ DBQ20060321172009403/21/06 17:20:31  5-MIN KDBQ 212320Z 01008KT 10SM CLR 01/M09 A3019 830 45 -600 010/08 RMK AO2
94908KDBQ DBQ20060321172509403/21/06 17:25:31  5-MIN KDBQ 212325Z 01008KT 10SM CLR 01/M09 A3019 830 45 -600 010/08 RMK AO2
94908KDBQ DBQ20060321173009403/21/06 17:30:31  5-MIN KDBQ 212330Z 01007KT 10SM CLR 01/M09 A3019 830 45 -600 010/07 RMK AO2
94908KDBQ DBQ20060321173509403/21/06 17:35:31  5-MIN KDBQ 212335Z 02007KT 10SM CLR 01/M10 A3019 830 43 -600 020/07 RMK AO2
94908KDBQ DBQ20060321174009403/21/06 17:40:31  5-MIN KDBQ 212340Z 01007KT 10SM CLR 01/M09 A3019 830 47 -600 010/07 RMK AO2
94908KDBQ DBQ20060321174509403/21/06 17:45:31  5-MIN KDBQ 212345Z 01007KT 10SM CLR 01/M09 A3020 820 47 -600 010/07 RMK AO2
94908KDBQ DBQ20060321175013203/21/06 17:50:31  5-MIN KDBQ 212350Z 01007KT 10SM FEW050 00/M09 A3020 820 49 -700 010/07 RMK AO2 SLP240 T00001094 10017 21011 55001
94908KDBQ DBQ20060321175513203/21/06 17:55:31  5-MIN KDBQ 212355Z 02007KT 10SM SCT050 00/M09 A3020 820 51 -700 020/07 RMK AO2 SLP240 T00001089 10017 21011 53008
94908KDBQ DBQ20060321180009703/21/06 18:00:31  5-MIN KDBQ 220000Z 01007KT 10SM SCT050 01/M09 A3020 820 47 -700 010/07 RMK AO2
94908KDBQ DBQ20060321180509703/21/06 18:05:31  5-MIN KDBQ 220005Z 01006KT 10SM BKN050 00/M09 A3020 820 51 -700 010/06 RMK AO2
94908KDBQ DBQ20060321181009703/21/06 18:10:31  5-MIN KDBQ 220010Z 02007KT 10SM BKN050 00/M09 A3020 820 51 -700 020/07 RMK AO2
94908KDBQ DBQ20060321181509703/21/06 18:15:31  5-MIN KDBQ 220015Z 02011KT 10SM SCT050 00/M09 A3020 820 49 -700 020/11 RMK AO2
94908KDBQ DBQ20060321182009703/21/06 18:20:31  5-MIN KDBQ 220020Z 02010KT 10SM SCT050 00/M09 A3020 820 49 -700 020/10 RMK AO2
94908KDBQ DBQ20060321182509703/21/06 18:25:31  5-MIN KDBQ 220025Z 02009KT 10SM FEW050 00/M09 A3020 820 49 -700 020/09 RMK AO2
94908KDBQ DBQ20060321183009703/21/06 18:30:31  5-MIN KDBQ 220030Z 02007KT 10SM FEW050 00/M09 A3020 820 49 -700 020/07 RMK AO2
94908KDBQ DBQ20060321183509403/21/06 18:35:31  5-MIN KDBQ 220035Z 02007KT 10SM CLR 00/M09 A3020 820 49 -700 020/07 RMK AO2
94908KDBQ DBQ20060321184009503/21/06 18:40:31  5-MIN KDBQ 220040Z 01008KT 10SM CLR M01/M09 A3021 810 51 -800 010/08 RMK AO2
94908KDBQ DBQ20060321184509403/21/06 18:45:31  5-MIN KDBQ 220045Z 02009KT 10SM CLR 00/M10 A3021 810 47 -700 020/09 RMK AO2
94908KDBQ DBQ20060321185011203/21/06 18:50:31  5-MIN KDBQ 220050Z 02008KT 10SM CLR M01/M09 A3021 810 51 -800 020/08 RMK AO2 SLP244 T10061094
94908KDBQ DBQ20060321185511203/21/06 18:55:31  5-MIN KDBQ 220055Z 01006KT 10SM CLR M01/M10 A3021 810 49 -800 010/06 RMK AO2 SLP246 T10061100
94908KDBQ DBQ20060321190009503/21/06 19:00:31  5-MIN KDBQ 220100Z 01005KT 10SM CLR M01/M10 A3022 800 51 -900 010/05 RMK AO2
94908KDBQ DBQ20060321190509503/21/06 19:05:31  5-MIN KDBQ 220105Z 01005KT 10SM CLR M01/M10 A3022 800 49 -800 360/05 RMK AO2
94908KDBQ DBQ20060321191009603/21/06 19:10:31  5-MIN KDBQ 220110Z 36005KT 10SM CLR M02/M10 A3022 800 53 -1000 360/05 RMK AO2
94908KDBQ DBQ20060321191509603/21/06 19:15:31  5-MIN KDBQ 220115Z 01005KT 10SM CLR M02/M10 A3022 800 53 -1000 360/05 RMK AO2
94908KDBQ DBQ20060321192009503/21/06 19:20:31  5-MIN KDBQ 220120Z 36004KT 10SM CLR M01/M11 A3022 800 49 -900 360/04 RMK AO2
94908KDBQ DBQ20060321192509603/21/06 19:25:31  5-MIN KDBQ 220125Z 36004KT 10SM CLR M02/M10 A3022 800 53 -1000 350/04 RMK AO2
94908KDBQ DBQ20060321193009603/21/06 19:30:31  5-MIN KDBQ 220130Z 34004KT 10SM CLR M02/M10 A3022 800 55 -1000 330/04 RMK AO2
94908KDBQ DBQ20060321193509603/21/06 19:35:31  5-MIN KDBQ 220135Z 32004KT 10SM CLR M03/M09 A3023 800 63 -1200 320/04 RMK AO2
94908KDBQ DBQ20060321194009603/21/06 19:40:31  5-MIN KDBQ 220140Z 30005KT 10SM CLR M03/M09 A3023 790 60 -1100 300/05 RMK AO2
94908KDBQ DBQ20060321194509603/21/06 19:45:31  5-MIN KDBQ 220145Z 31005KT 10SM CLR M02/M09 A3023 790 60 -1000 310/05 RMK AO2
94908KDBQ DBQ20060321195011303/21/06 19:50:31  5-MIN KDBQ 220150Z 33005KT 10SM CLR M03/M09 A3022 800 65 -1200 330/05 RMK AO2 SLP250 T10331089
94908KDBQ DBQ20060321195512303/21/06 19:55:31  5-MIN KDBQ 220155Z AUTO 35005KT 10SM CLR M04/M08 A3022 800 74 -1300 350/05 RMK AO2 SLP250 T10441083 TSNO
94908KDBQ DBQ20060321200010603/21/06 20:00:31  5-MIN KDBQ 220200Z AUTO 34006KT 10SM CLR M04/M09 A3023 800 65 -1200 340/06 RMK AO2 TSNO
94908KDBQ DBQ20060321200510603/21/06 20:05:31  5-MIN KDBQ 220205Z AUTO 34006KT 10SM CLR M03/M09 A3023 800 63 -1200 340/06 RMK AO2 TSNO
94908KDBQ DBQ20060321201010603/21/06 20:10:31  5-MIN KDBQ 220210Z AUTO 34006KT 10SM CLR M03/M09 A3023 790 63 -1200 340/06 RMK AO2 TSNO
94908KDBQ DBQ20060321201510603/21/06 20:15:31  5-MIN KDBQ 220215Z AUTO 33006KT 10SM CLR M03/M09 A3023 790 65 -1200 330/06 RMK AO2 TSNO
94908KDBQ DBQ20060321202010603/21/06 20:20:31  5-MIN KDBQ 220220Z AUTO 33006KT 10SM CLR M04/M09 A3023 790 68 -1300 320/06 RMK AO2 TSNO
94908KDBQ DBQ20060321202510603/21/06 20:25:31  5-MIN KDBQ 220225Z AUTO 32006KT 10SM CLR M03/M08 A3023 790 68 -1200 320/06 RMK AO2 TSNO
94908KDBQ DBQ20060321203010603/21/06 20:30:31  5-MIN KDBQ 220230Z AUTO 32006KT 10SM CLR M03/M08 A3024 790 68 -1200 320/06 RMK AO2 TSNO
94908KDBQ DBQ20060321203510603/21/06 20:35:31  5-MIN KDBQ 220235Z AUTO 33006KT 10SM CLR M03/M08 A3024 790 66 -1100 320/06 RMK AO2 TSNO
94908KDBQ DBQ20060321204010603/21/06 20:40:31  5-MIN KDBQ 220240Z AUTO 32006KT 10SM CLR M03/M08 A3024 780 66 -1100 320/06 RMK AO2 TSNO
94908KDBQ DBQ20060321204510603/21/06 20:45:31  5-MIN KDBQ 220245Z AUTO 33006KT 10SM CLR M02/M09 A3024 780 60 -1000 330/06 RMK AO2 TSNO
94908KDBQ DBQ20060321205012903/21/06 20:50:31  5-MIN KDBQ 220250Z AUTO 33006KT 10SM CLR M03/M08 A3024 780 66 -1100 320/06 RMK AO2 SLP256 T10281083 53008 TSNO
94908KDBQ DBQ20060321205512903/21/06 20:55:31  5-MIN KDBQ 220255Z AUTO 32006KT 10SM CLR M03/M08 A3024 780 66 -1100 320/06 RMK AO2 SLP257 T10281083 53015 TSNO
94908KDBQ DBQ20060321210010603/21/06 21:00:31  5-MIN KDBQ 220300Z AUTO 32006KT 10SM CLR M02/M09 A3024 780 60 -1100 320/06 RMK AO2 TSNO
94908KDBQ DBQ20060321210510603/21/06 21:05:31  5-MIN KDBQ 220305Z AUTO 32006KT 10SM CLR M03/M09 A3024 780 63 -1100 320/06 RMK AO2 TSNO
94908KDBQ DBQ20060321211010603/21/06 21:10:31  5-MIN KDBQ 220310Z AUTO 32005KT 10SM CLR M03/M09 A3025 780 65 -1200 310/05 RMK AO2 TSNO
94908KDBQ DBQ20060321211510603/21/06 21:15:31  5-MIN KDBQ 220315Z AUTO 32005KT 10SM CLR M04/M09 A3025 780 65 -1300 320/05 RMK AO2 TSNO
94908KDBQ DBQ20060321212010603/21/06 21:20:31  5-MIN KDBQ 220320Z AUTO 32005KT 10SM CLR M03/M09 A3025 780 63 -1200 320/05 RMK AO2 TSNO
94908KDBQ DBQ20060321212510603/21/06 21:25:31  5-MIN KDBQ 220325Z AUTO 31005KT 10SM CLR M04/M09 A3025 770 65 -1300 310/05 RMK AO2 TSNO
94908KDBQ DBQ20060321213010603/21/06 21:30:31  5-MIN KDBQ 220330Z AUTO 31004KT 10SM CLR M04/M09 A3025 780 65 -1300 310/04 RMK AO2 TSNO
94908KDBQ DBQ20060321213510603/21/06 21:35:31  5-MIN KDBQ 220335Z AUTO 32006KT 10SM CLR M04/M09 A3025 770 65 -1300 320/06 RMK AO2 TSNO
94908KDBQ DBQ20060321214010603/21/06 21:40:31  5-MIN KDBQ 220340Z AUTO 31006KT 10SM CLR M04/M09 A3025 770 68 -1300 310/06 RMK AO2 TSNO
94908KDBQ DBQ20060321214510603/21/06 21:45:31  5-MIN KDBQ 220345Z AUTO 31006KT 10SM CLR M05/M09 A3025 770 71 -1400 310/06 RMK AO2 TSNO
94908KDBQ DBQ20060321215012303/21/06 21:50:31  5-MIN KDBQ 220350Z AUTO 31007KT 10SM CLR M04/M09 A3025 770 68 -1300 310/07 RMK AO2 SLP261 T10441094 TSNO
94908KDBQ DBQ20060321215512303/21/06 21:55:31  5-MIN KDBQ 220355Z AUTO 32006KT 10SM CLR M04/M09 A3025 770 68 -1300 310/06 RMK AO2 SLP261 T10441094 TSNO
94908KDBQ DBQ20060321220010603/21/06 22:00:31  5-MIN KDBQ 220400Z AUTO 32006KT 10SM CLR M05/M09 A3025 770 71 -1400 320/06 RMK AO2 TSNO
94908KDBQ DBQ20060321220510603/21/06 22:05:31  5-MIN KDBQ 220405Z AUTO 32006KT 10SM CLR M04/M09 A3025 770 68 -1300 320/06 RMK AO2 TSNO
94908KDBQ DBQ20060321221010603/21/06 22:10:31  5-MIN KDBQ 220410Z AUTO 33006KT 10SM CLR M04/M09 A3025 770 65 -1300 330/06 RMK AO2 TSNO
94908KDBQ DBQ20060321221510603/21/06 22:15:31  5-MIN KDBQ 220415Z AUTO 34007KT 10SM CLR M04/M09 A3025 780 65 -1300 340/07 RMK AO2 TSNO
94908KDBQ DBQ20060321222010603/21/06 22:20:31  5-MIN KDBQ 220420Z AUTO 33008KT 10SM CLR M04/M09 A3025 770 65 -1300 330/08 RMK AO2 TSNO
94908KDBQ DBQ20060321222510603/21/06 22:25:31  5-MIN KDBQ 220425Z AUTO 33009KT 10SM CLR M03/M09 A3025 770 63 -1200 330/09 RMK AO2 TSNO
94908KDBQ DBQ20060321223010603/21/06 22:30:31  5-MIN KDBQ 220430Z AUTO 33009KT 10SM CLR M03/M09 A3025 770 65 -1200 330/09 RMK AO2 TSNO
94908KDBQ DBQ20060321223510603/21/06 22:35:31  5-MIN KDBQ 220435Z AUTO 32008KT 10SM CLR M03/M09 A3025 770 65 -1200 320/08 RMK AO2 TSNO
94908KDBQ DBQ20060321224010603/21/06 22:40:31  5-MIN KDBQ 220440Z AUTO 32008KT 10SM CLR M03/M09 A3026 770 65 -1200 320/08 RMK AO2 TSNO
94908KDBQ DBQ20060321224510603/21/06 22:45:31  5-MIN KDBQ 220445Z AUTO 32008KT 10SM CLR M03/M09 A3026 770 65 -1200 320/08 RMK AO2 TSNO
94908KDBQ DBQ20060321225012303/21/06 22:50:31  5-MIN KDBQ 220450Z AUTO 33008KT 10SM CLR M03/M09 A3025 770 65 -1200 330/08 RMK AO2 SLP259 T10331089 TSNO
94908KDBQ DBQ20060321225512303/21/06 22:55:31  5-MIN KDBQ 220455Z AUTO 33008KT 10SM CLR M03/M09 A3026 770 65 -1200 330/08 RMK AO2 SLP260 T10331089 TSNO
94908KDBQ DBQ20060321230010603/21/06 23:00:31  5-MIN KDBQ 220500Z AUTO 33009KT 10SM CLR M03/M09 A3026 770 63 -1100 330/09 RMK AO2 TSNO
94908KDBQ DBQ20060321230510603/21/06 23:05:31  5-MIN KDBQ 220505Z AUTO 32009KT 10SM CLR M03/M09 A3026 770 63 -1100 320/09 RMK AO2 TSNO
94908KDBQ DBQ20060321231010603/21/06 23:10:31  5-MIN KDBQ 220510Z AUTO 32008KT 10SM CLR M03/M09 A3026 770 63 -1100 320/08 RMK AO2 TSNO
94908KDBQ DBQ20060321231510603/21/06 23:15:31  5-MIN KDBQ 220515Z AUTO 32008KT 10SM CLR M03/M09 A3026 770 63 -1100 310/08 RMK AO2 TSNO
94908KDBQ DBQ20060321232010603/21/06 23:20:31  5-MIN KDBQ 220520Z AUTO 32008KT 10SM CLR M03/M09 A3026 770 65 -1200 320/08 RMK AO2 TSNO
94908KDBQ DBQ20060321232510603/21/06 23:25:31  5-MIN KDBQ 220525Z AUTO 33008KT 10SM CLR M03/M09 A3026 770 65 -1200 330/08 RMK AO2 TSNO
94908KDBQ DBQ20060321233010603/21/06 23:30:31  5-MIN KDBQ 220530Z AUTO 33008KT 10SM CLR M03/M08 A3026 770 68 -1200 330/08 RMK AO2 TSNO
94908KDBQ DBQ20060322034010603/22/06 03:40:31  5-MIN KDBQ 220940Z AUTO 01005KT 10SM CLR M04/M09 A3029 740 68 -1400 010/05 RMK AO2 TSNO
94908KDBQ DBQ20060322034510603/22/06 03:45:31  5-MIN KDBQ 220945Z AUTO 36005KT 10SM CLR M04/M09 A3029 740 68 -1400 360/05 RMK AO2 TSNO
94908KDBQ DBQ20060322035012303/22/06 03:50:31  5-MIN KDBQ 220950Z AUTO 01005KT 10SM CLR M04/M09 A3029 740 68 -1400 010/05 RMK AO2 SLP271 T10441094 TSNO
94908KDBQ DBQ20060322035512303/22/06 03:55:31  5-MIN KDBQ 220955Z AUTO 01004KT 10SM CLR M04/M09 A3029 740 68 -1400 360/04 RMK AO2 SLP271 T10441094 TSNO
94908KDBQ DBQ20060322040010603/22/06 04:00:31  5-MIN KDBQ 221000Z AUTO 35004KT 10SM CLR M05/M10 A3029 740 68 -1500 350/04 RMK AO2 TSNO
94908KDBQ DBQ20060322040510603/22/06 04:05:31  5-MIN KDBQ 221005Z AUTO 34005KT 10SM CLR M04/M10 A3029 740 65 -1400 340/05 RMK AO2 TSNO
94908KDBQ DBQ20060322041010603/22/06 04:10:31  5-MIN KDBQ 221010Z AUTO 34005KT 10SM CLR M04/M09 A3030 730 68 -1400 340/05 RMK AO2 TSNO
94908KDBQ DBQ20060322041510603/22/06 04:15:31  5-MIN KDBQ 221015Z AUTO 33004KT 10SM CLR M04/M10 A3030 730 65 -1400 330/04 RMK AO2 TSNO
94908KDBQ DBQ20060322042010603/22/06 04:20:31  5-MIN KDBQ 221020Z AUTO 33006KT 10SM CLR M05/M10 A3030 730 68 -1500 330/06 RMK AO2 TSNO
94908KDBQ DBQ20060322042510603/22/06 04:25:31  5-MIN KDBQ 221025Z AUTO 33005KT 10SM CLR M05/M09 A3030 730 71 -1500 330/05 RMK AO2 TSNO
94908KDBQ DBQ20060322043010603/22/06 04:30:31  5-MIN KDBQ 221030Z AUTO 34006KT 10SM CLR M05/M09 A3030 730 71 -1500 340/06 RMK AO2 TSNO
94908KDBQ DBQ20060322043510603/22/06 04:35:31  5-MIN KDBQ 221035Z AUTO 34006KT 10SM CLR M05/M09 A3030 730 71 -1500 340/06 RMK AO2 TSNO
94908KDBQ DBQ20060322044010603/22/06 04:40:31  5-MIN KDBQ 221040Z AUTO 34006KT 10SM CLR M05/M10 A3030 730 68 -1500 340/06 RMK AO2 TSNO
94908KDBQ DBQ20060322044510603/22/06 04:45:31  5-MIN KDBQ 221045Z AUTO 34005KT 10SM CLR M05/M09 A3030 730 71 -1500 340/05 RMK AO2 TSNO
94908KDBQ DBQ20060322045012303/22/06 04:50:31  5-MIN KDBQ 221050Z AUTO 34005KT 10SM CLR M05/M09 A3030 730 71 -1500 340/05 RMK AO2 SLP275 T10501094 TSNO
94908KDBQ DBQ20060322045512303/22/06 04:55:31  5-MIN KDBQ 221055Z AUTO 34005KT 10SM CLR M05/M09 A3030 730 71 -1500 340/05 RMK AO2 SLP275 T10501094 TSNO
94908KDBQ DBQ20060322050010603/22/06 05:00:31  5-MIN KDBQ 221100Z AUTO 34005KT 10SM CLR M05/M10 A3030 730 68 -1500 330/05 RMK AO2 TSNO
94908KDBQ DBQ20060322050510603/22/06 05:05:31  5-MIN KDBQ 221105Z AUTO 34004KT 10SM CLR M05/M09 A3030 730 71 -1500 340/04 RMK AO2 TSNO
94908KDBQ DBQ20060322051010603/22/06 05:10:31  5-MIN KDBQ 221110Z AUTO 33005KT 10SM CLR M05/M10 A3030 730 68 -1500 330/05 RMK AO2 TSNO
94908KDBQ DBQ20060322051510603/22/06 05:15:31  5-MIN KDBQ 221115Z AUTO 33005KT 10SM CLR M05/M10 A3030 730 68 -1500 330/05 RMK AO2 TSNO
94908KDBQ DBQ20060322052010603/22/06 05:20:31  5-MIN KDBQ 221120Z AUTO 32004KT 10SM CLR M05/M09 A3030 730 71 -1500 320/04 RMK AO2 TSNO
94908KDBQ DBQ20060322052510603/22/06 05:25:31  5-MIN KDBQ 221125Z AUTO 33005KT 10SM CLR M04/M09 A3030 730 68 -1400 330/05 RMK AO2 TSNO
94908KDBQ DBQ20060322053010603/22/06 05:30:31  5-MIN KDBQ 221130Z AUTO 33005KT 10SM CLR M05/M09 A3030 730 71 -1500 330/05 RMK AO2 TSNO
94908KDBQ DBQ20060322053510603/22/06 05:35:31  5-MIN KDBQ 221135Z AUTO 33007KT 10SM CLR M05/M09 A3030 730 71 -1500 330/07 RMK AO2 TSNO
94908KDBQ DBQ20060322054010603/22/06 05:40:31  5-MIN KDBQ 221140Z AUTO 33006KT 10SM CLR M05/M09 A3030 730 71 -1500 330/06 RMK AO2 TSNO
94908KDBQ DBQ20060322054510603/22/06 05:45:31  5-MIN KDBQ 221145Z AUTO 33007KT 10SM CLR M05/M09 A3030 730 71 -1500 330/07 RMK AO2 TSNO
94908KDBQ DBQ20060322055014103/22/06 05:50:31  5-MIN KDBQ 221150Z AUTO 32006KT 10SM CLR M04/M09 A3030 720 68 -1400 320/06 RMK AO2 SLP277 T10441094 11028 21056 53008 TSNO
94908KDBQ DBQ20060322055514103/22/06 05:55:31  5-MIN KDBQ 221155Z AUTO 32006KT 10SM CLR M05/M10 A3031 720 68 -1500 320/06 RMK AO2 SLP277 T10501100 11028 21056 53006 TSNO
94908KDBQ DBQ20060322060009603/22/06 06:00:31  5-MIN KDBQ 221200Z VRB03KT 10SM CLR M05/M10 A3031 720 68 -1500 VRB/03 RMK AO2
94908KDBQ DBQ20060322060509603/22/06 06:05:31  5-MIN KDBQ 221205Z 20003KT 10SM CLR M06/M11 A3031 720 71 -1600 200/03 RMK AO2
94908KDBQ DBQ20060322061009603/22/06 06:10:31  5-MIN KDBQ 221210Z 21003KT 10SM CLR M06/M10 A3031 720 74 -1600 210/03 RMK AO2
94908KDBQ DBQ20060322061509603/22/06 06:15:31  5-MIN KDBQ 221215Z 20004KT 10SM CLR M06/M10 A3031 720 74 -1600 200/04 RMK AO2
94908KDBQ DBQ20060322062009603/22/06 06:20:31  5-MIN KDBQ 221220Z 21003KT 10SM CLR M06/M10 A3031 720 74 -1600 210/03 RMK AO2
94908KDBQ DBQ20060322062509603/22/06 06:25:31  5-MIN KDBQ 221225Z 21004KT 10SM CLR M06/M10 A3032 710 74 -1600 210/04 RMK AO2
94908KDBQ DBQ20060322063009603/22/06 06:30:31  5-MIN KDBQ 221230Z 21003KT 10SM CLR M06/M10 A3032 710 74 -1600 210/03 RMK AO2
94908KDBQ DBQ20060322063509603/22/06 06:35:31  5-MIN KDBQ 221235Z 23003KT 10SM CLR M06/M09 A3032 710 77 -1600 230/03 RMK AO2
94908KDBQ DBQ20060322064009603/22/06 06:40:31  5-MIN KDBQ 221240Z 23004KT 10SM CLR M06/M09 A3032 710 77 -1600 230/04 RMK AO2
94908KDBQ DBQ20060322064509603/22/06 06:45:31  5-MIN KDBQ 221245Z 23004KT 10SM CLR M06/M09 A3032 710 74 -1600 230/04 RMK AO2
94908KDBQ DBQ20060322065011303/22/06 06:50:31  5-MIN KDBQ 221250Z 23005KT 10SM CLR M06/M09 A3032 710 77 -1600 230/05 RMK AO2 SLP284 T10561089
94908KDBQ DBQ20060322065511303/22/06 06:55:31  5-MIN KDBQ 221255Z 27005KT 10SM CLR M05/M09 A3033 700 74 -1500 260/05 RMK AO2 SLP285 T10501089
94908KDBQ DBQ20060322070009603/22/06 07:00:31  5-MIN KDBQ 221300Z 30008KT 10SM CLR M04/M08 A3033 700 71 -1400 300/08 RMK AO2
94908KDBQ DBQ20060322070509603/22/06 07:05:31  5-MIN KDBQ 221305Z 31007KT 10SM CLR M03/M08 A3033 700 68 -1300 300/07 RMK AO2
94908KDBQ DBQ20060322071009603/22/06 07:10:31  5-MIN KDBQ 221310Z 31008KT 10SM CLR M03/M09 A3033 700 65 -1300 310/08 RMK AO2
94908KDBQ DBQ20060322071509603/22/06 07:15:31  5-MIN KDBQ 221315Z 31008KT 10SM CLR M03/M08 A3033 700 66 -1200 310/08 RMK AO2
94908KDBQ DBQ20060322072009603/22/06 07:20:31  5-MIN KDBQ 221320Z 32010KT 10SM CLR M02/M09 A3033 700 60 -1100 320/10 RMK AO2
94908KDBQ DBQ20060322072509603/22/06 07:25:31  5-MIN KDBQ 221325Z 32010KT 10SM CLR M02/M09 A3033 700 60 -1100 320/10 RMK AO2
94908KDBQ DBQ20060322073009603/22/06 07:30:31  5-MIN KDBQ 221330Z 32010KT 10SM CLR M02/M09 A3033 700 58 -1100 320/10 RMK AO2
94908KDBQ DBQ20060322073509603/22/06 07:35:31  5-MIN KDBQ 221335Z 32011KT 10SM CLR M02/M09 A3033 700 58 -1100 320/11 RMK AO2
94908KDBQ DBQ20060322074009603/22/06 07:40:31  5-MIN KDBQ 221340Z 33010KT 10SM CLR M01/M09 A3033 700 55 -1000 330/10 RMK AO2
94908KDBQ DBQ20060322074509603/22/06 07:45:31  5-MIN KDBQ 221345Z 33011KT 10SM CLR M01/M09 A3033 700 55 -1000 330/11 RMK AO2
94908KDBQ DBQ20060322075011203/22/06 07:50:31  5-MIN KDBQ 221350Z 34010KT 10SM CLR M01/M09 A3033 700 53 -900 340/10 RMK AO2 SLP286 T10061089
94908KDBQ DBQ20060322075511203/22/06 07:55:31  5-MIN KDBQ 221355Z 34011KT 10SM CLR M01/M09 A3033 700 53 -900 340/11 RMK AO2 SLP286 T10061089
94908KDBQ DBQ20060322080009503/22/06 08:00:31  5-MIN KDBQ 221400Z 34010KT 10SM CLR M01/M08 A3033 700 56 -900 340/10 RMK AO2
94908KDBQ DBQ20060322080509503/22/06 08:05:31  5-MIN KDBQ 221405Z 34011KT 10SM CLR M01/M09 A3033 700 53 -900 340/11 RMK AO2
94908KDBQ DBQ20060322081009503/22/06 08:10:31  5-MIN KDBQ 221410Z 35010KT 10SM CLR M01/M09 A3033 700 53 -900 350/10 RMK AO2
94908KDBQ DBQ20060322081509403/22/06 08:15:31  5-MIN KDBQ 221415Z 34010KT 10SM CLR 00/M08 A3033 700 53 -900 340/10 RMK AO2
94908KDBQ DBQ20060322082009403/22/06 08:20:31  5-MIN KDBQ 221420Z 35011KT 10SM CLR 00/M09 A3033 700 51 -900 350/11 RMK AO2
94908KDBQ DBQ20060322082509403/22/06 08:25:31  5-MIN KDBQ 221425Z 35010KT 10SM CLR 00/M09 A3033 700 51 -900 350/10 RMK AO2
94908KDBQ DBQ20060322083009403/22/06 08:30:31  5-MIN KDBQ 221430Z 36010KT 10SM CLR 01/M08 A3033 700 51 -800 350/10 RMK AO2
94908KDBQ DBQ20060322083509403/22/06 08:35:31  5-MIN KDBQ 221435Z 35009KT 10SM CLR 01/M08 A3033 700 51 -800 340/09 RMK AO2
94908KDBQ DBQ20060322084009403/22/06 08:40:31  5-MIN KDBQ 221440Z 34009KT 10SM CLR 01/M09 A3033 700 49 -800 340/09 RMK AO2
94908KDBQ DBQ20060322084509403/22/06 08:45:31  5-MIN KDBQ 221445Z 34009KT 10SM CLR 01/M08 A3033 700 49 -700 340/09 RMK AO2
94908KDBQ DBQ20060322085011703/22/06 08:50:31  5-MIN KDBQ 221450Z 34008KT 10SM CLR 01/M08 A3033 700 49 -700 340/08 RMK AO2 SLP284 T00111083 53006
94908KDBQ DBQ20060322085511703/22/06 08:55:31  5-MIN KDBQ 221455Z 34008KT 10SM CLR 01/M08 A3033 700 49 -700 340/08 RMK AO2 SLP284 T00111083 50007
94908KDBQ DBQ20060322090009403/22/06 09:00:31  5-MIN KDBQ 221500Z 33010KT 10SM CLR 02/M08 A3033 700 47 -700 330/10 RMK AO2
94908KDBQ DBQ20060322090509403/22/06 09:05:31  5-MIN KDBQ 221505Z 33010KT 10SM CLR 02/M09 A3032 710 45 -700 330/10 RMK AO2
94908KDBQ DBQ20060322091009403/22/06 09:10:31  5-MIN KDBQ 221510Z 33008KT 10SM CLR 02/M08 A3032 710 45 -600 320/08 RMK AO2
94908KDBQ DBQ20060322091511003/22/06 09:15:31  5-MIN KDBQ 221515Z 31009KT 290V350 10SM CLR 02/M08 A3032 710 45 -600 310/09 290V350 RMK AO2
94908KDBQ DBQ20060322092009403/22/06 09:20:31  5-MIN KDBQ 221520Z 32010KT 10SM CLR 02/M08 A3032 710 45 -600 310/10 RMK AO2
94908KDBQ DBQ20060322092509403/22/06 09:25:31  5-MIN KDBQ 221525Z 34012KT 10SM CLR 03/M08 A3032 710 44 -500 340/12 RMK AO2
94908KDBQ DBQ20060322093009403/22/06 09:30:31  5-MIN KDBQ 221530Z 33009KT 10SM CLR 03/M09 A3032 710 42 -500 330/09 RMK AO2
94908KDBQ DBQ20060322093509403/22/06 09:35:31  5-MIN KDBQ 221535Z 34014KT 10SM CLR 03/M09 A3032 710 40 -500 340/14 RMK AO2
94908KDBQ DBQ20060322094009403/22/06 09:40:31  5-MIN KDBQ 221540Z 35012KT 10SM CLR 03/M09 A3031 720 42 -500 350/12 RMK AO2
94908KDBQ DBQ20060322094509403/22/06 09:45:31  5-MIN KDBQ 221545Z 33013KT 10SM CLR 03/M09 A3031 720 40 -400 330/13 RMK AO2
94908KDBQ DBQ20060322095011103/22/06 09:50:31  5-MIN KDBQ 221550Z 33011KT 10SM CLR 03/M08 A3031 720 42 -400 330/11 RMK AO2 SLP277 T00331083
94908KDBQ DBQ20060322095511103/22/06 09:55:31  5-MIN KDBQ 221555Z 32015KT 10SM CLR 03/M09 A3031 720 40 -400 320/15 RMK AO2 SLP278 T00331089
94908KDBQ DBQ20060322100009403/22/06 10:00:31  5-MIN KDBQ 221600Z 34014KT 10SM CLR 03/M09 A3031 720 40 -400 340/14 RMK AO2
94908KDBQ DBQ20060322100509403/22/06 10:05:31  5-MIN KDBQ 221605Z 34014KT 10SM CLR 03/M09 A3030 720 40 -400 340/14 RMK AO2
94908KDBQ DBQ20060322101009403/22/06 10:10:31  5-MIN KDBQ 221610Z 34014KT 10SM CLR 03/M09 A3030 720 39 -400 340/14 RMK AO2
94908KDBQ DBQ20060322101509403/22/06 10:15:31  5-MIN KDBQ 221615Z 35012KT 10SM CLR 03/M09 A3030 730 39 -400 340/12 RMK AO2
94908KDBQ DBQ20060322102009403/22/06 10:20:31  5-MIN KDBQ 221620Z 34011KT 10SM CLR 04/M09 A3030 730 37 -400 340/11 RMK AO2
94908KDBQ DBQ20060322102510003/22/06 10:25:31  5-MIN KDBQ 221625Z 33013G19KT 10SM CLR 04/M09 A3030 730 37 -400 330/13G19 RMK AO2
94908KDBQ DBQ20060322103010003/22/06 10:30:31  5-MIN KDBQ 221630Z 33012G19KT 10SM CLR 04/M10 A3030 730 35 -400 330/12G19 RMK AO2
94908KDBQ DBQ20060322103509403/22/06 10:35:31  5-MIN KDBQ 221635Z 34016KT 10SM CLR 04/M09 A3030 730 36 -300 340/16 RMK AO2
94908KDBQ DBQ20060322104009403/22/06 10:40:31  5-MIN KDBQ 221640Z 34014KT 10SM CLR 04/M09 A3030 730 37 -300 340/14 RMK AO2
94908KDBQ DBQ20060322104509403/22/06 10:45:31  5-MIN KDBQ 221645Z 33015KT 10SM CLR 04/M09 A3029 740 37 -300 330/15 RMK AO2
94908KDBQ DBQ20060322105011103/22/06 10:50:31  5-MIN KDBQ 221650Z 34016KT 10SM CLR 04/M09 A3029 740 37 -300 340/16 RMK AO2 SLP270 T00391094
94908KDBQ DBQ20060322105511103/22/06 10:55:31  5-MIN KDBQ 221655Z 35015KT 10SM CLR 04/M09 A3029 740 37 -300 350/15 RMK AO2 SLP270 T00391094
94908KDBQ DBQ20060322110009403/22/06 11:00:31  5-MIN KDBQ 221700Z 34014KT 10SM CLR 04/M09 A3029 740 39 -300 330/14 RMK AO2
94908KDBQ DBQ20060322110509403/22/06 11:05:31  5-MIN KDBQ 221705Z 31015KT 10SM CLR 04/M09 A3029 740 39 -300 310/15 RMK AO2
94908KDBQ DBQ20060322111009403/22/06 11:10:31  5-MIN KDBQ 221710Z 32013KT 10SM CLR 04/M08 A3029 740 40 -300 320/13 RMK AO2
94908KDBQ DBQ20060322111509403/22/06 11:15:31  5-MIN KDBQ 221715Z 34013KT 10SM CLR 04/M09 A3029 740 37 -300 330/13 RMK AO2
94908KDBQ DBQ20060322112009403/22/06 11:20:31  5-MIN KDBQ 221720Z 33014KT 10SM CLR 04/M09 A3028 740 37 -300 330/14 RMK AO2
94908KDBQ DBQ20060322112509403/22/06 11:25:31  5-MIN KDBQ 221725Z 32015KT 10SM CLR 04/M08 A3028 740 39 -300 320/15 RMK AO2
94908KDBQ DBQ20060322113009403/22/06 11:30:31  5-MIN KDBQ 221730Z 33014KT 10SM CLR 05/M08 A3028 750 37 -200 330/14 RMK AO2
94908KDBQ DBQ20060322113509403/22/06 11:35:31  5-MIN KDBQ 221735Z 34014KT 10SM CLR 05/M09 A3028 740 36 -200 340/14 RMK AO2
94908KDBQ DBQ20060322114009403/22/06 11:40:31  5-MIN KDBQ 221740Z 35016KT 10SM CLR 05/M08 A3028 740 37 -200 350/16 RMK AO2
94908KDBQ DBQ20060322114509403/22/06 11:45:31  5-MIN KDBQ 221745Z 33013KT 10SM CLR 05/M08 A3029 740 37 -200 330/13 RMK AO2
94908KDBQ DBQ20060322115012903/22/06 11:50:31  5-MIN KDBQ 221750Z 32011KT 10SM CLR 05/M08 A3028 740 39 -200 320/11 RMK AO2 SLP266 T00501078 10050 21067 50007
94908KDBQ DBQ20060322115512903/22/06 11:55:31  5-MIN KDBQ 221755Z 33014KT 10SM CLR 05/M08 A3028 740 37 -200 330/14 RMK AO2 SLP266 T00501083 10050 21067 56015
94908KDBQ DBQ20060322120009403/22/06 12:00:31  5-MIN KDBQ 221800Z 34013KT 10SM CLR 05/M08 A3028 750 37 -200 340/13 RMK AO2
94908KDBQ DBQ20060322120509403/22/06 12:05:31  5-MIN KDBQ 221805Z 32011KT 10SM CLR 05/M08 A3028 750 37 -200 320/11 RMK AO2
94908KDBQ DBQ20060322121009403/22/06 12:10:31  5-MIN KDBQ 221810Z 34013KT 10SM CLR 06/M08 A3028 750 37 -100 340/13 RMK AO2
94908KDBQ DBQ20060322121509403/22/06 12:15:31  5-MIN KDBQ 221815Z 35013KT 10SM CLR 06/M08 A3027 750 37 -100 350/13 RMK AO2
94908KDBQ DBQ20060322122009103/22/06 12:20:31  5-MIN KDBQ 221820Z 33012KT 10SM CLR 06/M08 A3027 750 36 0 320/12 RMK AO2
94908KDBQ DBQ20060322122510003/22/06 12:25:31  5-MIN KDBQ 221825Z 31012G17KT 10SM CLR 06/M08 A3027 760 36 -100 310/12G17 RMK AO2
94908KDBQ DBQ20060322123009703/22/06 12:30:31  5-MIN KDBQ 221830Z 32013G17KT 10SM CLR 06/M07 A3027 760 38 0 320/13G17 RMK AO2
94908KDBQ DBQ20060322123509103/22/06 12:35:31  5-MIN KDBQ 221835Z 34013KT 10SM CLR 06/M07 A3027 760 38 0 340/13 RMK AO2
94908KDBQ DBQ20060322124009103/22/06 12:40:31  5-MIN KDBQ 221840Z 32009KT 10SM CLR 06/M08 A3026 760 36 0 320/09 RMK AO2
94908KDBQ DBQ20060322124509703/22/06 12:45:31  5-MIN KDBQ 221845Z 32013G17KT 10SM CLR 06/M07 A3026 760 38 0 320/13G17 RMK AO2
94908KDBQ DBQ20060322125011403/22/06 12:50:31  5-MIN KDBQ 221850Z 31014G17KT 10SM CLR 06/M07 A3026 770 39 0 310/14G17 RMK AO2 SLP257 T00611067
94908KDBQ DBQ20060322125510803/22/06 12:55:31  5-MIN KDBQ 221855Z 33009KT 10SM CLR 07/M07 A3025 770 36 0 330/09 RMK AO2 SLP256 T00671072
94908KDBQ DBQ20060322130009703/22/06 13:00:31  5-MIN KDBQ 221900Z 32011G16KT 10SM CLR 07/M07 A3025 770 36 0 320/11G16 RMK AO2
94908KDBQ DBQ20060322130509703/22/06 13:05:31  5-MIN KDBQ 221905Z 32013G16KT 10SM CLR 07/M07 A3025 770 36 0 320/13G16 RMK AO2
94908KDBQ DBQ20060322131009103/22/06 13:10:31  5-MIN KDBQ 221910Z 33015KT 10SM CLR 06/M07 A3025 770 38 0 330/15 RMK AO2
94908KDBQ DBQ20060322131509103/22/06 13:15:31  5-MIN KDBQ 221915Z 31011KT 10SM CLR 06/M08 A3025 780 36 0 310/11 RMK AO2
94908KDBQ DBQ20060322132009103/22/06 13:20:31  5-MIN KDBQ 221920Z 33014KT 10SM CLR 07/M07 A3025 780 36 0 330/14 RMK AO2
94908KDBQ DBQ20060322132509103/22/06 13:25:31  5-MIN KDBQ 221925Z 31010KT 10SM CLR 07/M07 A3025 780 36 0 310/10 RMK AO2
94908KDBQ DBQ20060322133009703/22/06 13:30:31  5-MIN KDBQ 221930Z 32011G17KT 10SM CLR 07/M07 A3024 780 36 0 320/11G17 RMK AO2
94908KDBQ DBQ20060322133509903/22/06 13:35:31  5-MIN KDBQ 221935Z 34015G19KT 10SM CLR 07/M07 A3024 780 36 100 340/15G19 RMK AO2
94908KDBQ DBQ20060322134009703/22/06 13:40:31  5-MIN KDBQ 221940Z 32012G19KT 10SM CLR 07/M07 A3024 780 36 0 320/12G19 RMK AO2
94908KDBQ DBQ20060322134509703/22/06 13:45:31  5-MIN KDBQ 221945Z 34014G17KT 10SM CLR 07/M07 A3024 780 36 0 340/14G17 RMK AO2
94908KDBQ DBQ20060322135011603/22/06 13:50:31  5-MIN KDBQ 221950Z 34013G20KT 10SM CLR 07/M07 A3024 780 35 100 340/13G20 RMK AO2 SLP252 T00721072
94908KDBQ DBQ20060322135511603/22/06 13:55:31  5-MIN KDBQ 221955Z 33013G20KT 10SM CLR 07/M07 A3024 790 35 100 330/13G20 RMK AO2 SLP251 T00721072
94908KDBQ DBQ20060322140010703/22/06 14:00:31  5-MIN KDBQ 222000Z 33011KT 290V350 10SM CLR 07/M07 A3023 790 36 0 330/11 290V350 RMK AO2
94908KDBQ DBQ20060322140511303/22/06 14:05:31  5-MIN KDBQ 222005Z 32010G20KT 290V360 10SM CLR 07/M07 A3023 790 36 0 320/10G20 290V360 RMK AO2
94908KDBQ DBQ20060322141009903/22/06 14:10:31  5-MIN KDBQ 222010Z 33011G20KT 10SM CLR 07/M07 A3023 790 36 100 330/11G20 RMK AO2
94908KDBQ DBQ20060322141509903/22/06 14:15:31  5-MIN KDBQ 222015Z 34015G19KT 10SM CLR 07/M07 A3024 790 36 100 340/15G19 RMK AO2
94908KDBQ DBQ20060322142009903/22/06 14:20:31  5-MIN KDBQ 222020Z 32010G19KT 10SM CLR 07/M07 A3024 790 35 100 320/10G19 RMK AO2
94908KDBQ DBQ20060322142509303/22/06 14:25:31  5-MIN KDBQ 222025Z 33013KT 10SM CLR 07/M07 A3023 790 36 100 330/13 RMK AO2
94908KDBQ DBQ20060322143009903/22/06 14:30:31  5-MIN KDBQ 222030Z 32014G19KT 10SM CLR 07/M07 A3023 790 36 100 320/14G19 RMK AO2
94908KDBQ DBQ20060322143509303/22/06 14:35:31  5-MIN KDBQ 222035Z 33013KT 10SM CLR 07/M07 A3023 790 36 100 330/13 RMK AO2
94908KDBQ DBQ20060322144009103/22/06 14:40:31  5-MIN KDBQ 222040Z 31011KT 10SM CLR 07/M07 A3023 800 38 0 310/11 RMK AO2
94908KDBQ DBQ20060322144509303/22/06 14:45:31  5-MIN KDBQ 222045Z 32016KT 10SM CLR 07/M07 A3023 800 36 100 320/16 RMK AO2
94908KDBQ DBQ20060322145012203/22/06 14:50:31  5-MIN KDBQ 222050Z 32014G18KT 10SM CLR 07/M07 A3023 800 36 100 320/14G18 RMK AO2 SLP247 T00721067 56015
94908KDBQ DBQ20060322145511903/22/06 14:55:31  5-MIN KDBQ 222055Z AUTO 34011KT 10SM CLR 07/M07 A3023 800 36 0 340/11 RMK AO2 SLP247 T00671072 56018
94908KDBQ DBQ20060322150009303/22/06 15:00:31  5-MIN KDBQ 222100Z 33011KT 10SM CLR 07/M07 A3023 800 36 100 320/11 RMK AO2
94908KDBQ DBQ20060322150509303/22/06 15:05:31  5-MIN KDBQ 222105Z 30010KT 10SM CLR 07/M07 A3023 800 36 100 300/10 RMK AO2
94908KDBQ DBQ20060322151009303/22/06 15:10:31  5-MIN KDBQ 222110Z 30010KT 10SM CLR 07/M07 A3022 800 36 100 300/10 RMK AO2
94908KDBQ DBQ20060322151509303/22/06 15:15:31  5-MIN KDBQ 222115Z 32013KT 10SM CLR 07/M07 A3022 800 36 100 320/13 RMK AO2
94908KDBQ DBQ20060322152009303/22/06 15:20:31  5-MIN KDBQ 222120Z 31010KT 10SM CLR 07/M07 A3022 800 36 100 310/10 RMK AO2
94908KDBQ DBQ20060322152509303/22/06 15:25:31  5-MIN KDBQ 222125Z 30012KT 10SM CLR 08/M06 A3022 800 36 200 300/12 RMK AO2
94908KDBQ DBQ20060322153009303/22/06 15:30:31  5-MIN KDBQ 222130Z 31013KT 10SM CLR 07/M07 A3022 800 36 100 300/13 RMK AO2
94908KDBQ DBQ20060322153509303/22/06 15:35:31  5-MIN KDBQ 222135Z 35009KT 10SM CLR 08/M06 A3022 800 36 200 350/09 RMK AO2
94908KDBQ DBQ20060322154009903/22/06 15:40:31  5-MIN KDBQ 222140Z 32012G18KT 10SM CLR 07/M07 A3022 800 36 100 320/12G18 RMK AO2
94908KDBQ DBQ20060322154509903/22/06 15:45:31  5-MIN KDBQ 222145Z 31010G18KT 10SM CLR 07/M07 A3023 800 36 100 310/10G18 RMK AO2
94908KDBQ DBQ20060322155011003/22/06 15:50:31  5-MIN KDBQ 222150Z 31012KT 10SM CLR 07/M06 A3023 800 38 100 310/12 RMK AO2 SLP247 T00721061
94908KDBQ DBQ20060322155511003/22/06 15:55:31  5-MIN KDBQ 222155Z 30013KT 10SM CLR 07/M07 A3022 800 36 100 300/13 RMK AO2 SLP246 T00721067
94908KDBQ DBQ20060322160009303/22/06 16:00:31  5-MIN KDBQ 222200Z 33011KT 10SM CLR 07/M06 A3023 800 38 100 320/11 RMK AO2
94908KDBQ DBQ20060322160509303/22/06 16:05:31  5-MIN KDBQ 222205Z 34011KT 10SM CLR 07/M07 A3022 800 36 100 340/11 RMK AO2
94908KDBQ DBQ20060322161009303/22/06 16:10:31  5-MIN KDBQ 222210Z 30011KT 10SM CLR 07/M07 A3022 800 36 100 300/11 RMK AO2
94908KDBQ DBQ20060322161509903/22/06 16:15:31  5-MIN KDBQ 222215Z 32012G18KT 10SM CLR 07/M07 A3022 800 36 100 310/12G18 RMK AO2
94908KDBQ DBQ20060322162009903/22/06 16:20:31  5-MIN KDBQ 222220Z 31012G18KT 10SM CLR 07/M06 A3022 800 38 100 310/12G18 RMK AO2
94908KDBQ DBQ20060322162509303/22/06 16:25:31  5-MIN KDBQ 222225Z 31011KT 10SM CLR 07/M07 A3022 800 36 100 310/11 RMK AO2
94908KDBQ DBQ20060322163009303/22/06 16:30:31  5-MIN KDBQ 222230Z 30012KT 10SM CLR 07/M06 A3022 800 38 100 300/12 RMK AO2
94908KDBQ DBQ20060322163509303/22/06 16:35:31  5-MIN KDBQ 222235Z 31013KT 10SM CLR 07/M06 A3022 800 38 100 310/13 RMK AO2
94908KDBQ DBQ20060322164009303/22/06 16:40:31  5-MIN KDBQ 222240Z 31014KT 10SM CLR 07/M06 A3022 800 38 100 310/14 RMK AO2
94908KDBQ DBQ20060322164509103/22/06 16:45:31  5-MIN KDBQ 222245Z 31011KT 10SM CLR 07/M06 A3022 810 39 0 310/11 RMK AO2
94908KDBQ DBQ20060322165010803/22/06 16:50:31  5-MIN KDBQ 222250Z 33011KT 10SM CLR 07/M06 A3022 800 39 0 320/11 RMK AO2 SLP244 T00671061
94908KDBQ DBQ20060322165510803/22/06 16:55:31  5-MIN KDBQ 222255Z 32012KT 10SM CLR 07/M06 A3022 800 41 0 320/12 RMK AO2 SLP244 T00671056
94908KDBQ DBQ20060322170009103/22/06 17:00:31  5-MIN KDBQ 222300Z 32015KT 10SM CLR 07/M06 A3022 800 41 0 310/15 RMK AO2
94908KDBQ DBQ20060322170509103/22/06 17:05:31  5-MIN KDBQ 222305Z 33012KT 10SM CLR 07/M06 A3022 800 39 0 330/12 RMK AO2
94908KDBQ DBQ20060322171009103/22/06 17:10:31  5-MIN KDBQ 222310Z 33013KT 10SM CLR 07/M06 A3022 800 39 0 330/13 RMK AO2
94908KDBQ DBQ20060322171509103/22/06 17:15:31  5-MIN KDBQ 222315Z 33013KT 10SM CLR 06/M06 A3022 810 43 0 330/13 RMK AO2
94908KDBQ DBQ20060322172009103/22/06 17:20:31  5-MIN KDBQ 222320Z 33012KT 10SM CLR 06/M06 A3022 800 41 0 330/12 RMK AO2
94908KDBQ DBQ20060322172509103/22/06 17:25:31  5-MIN KDBQ 222325Z 32013KT 10SM CLR 06/M06 A3022 800 43 0 320/13 RMK AO2
94908KDBQ DBQ20060322173009103/22/06 17:30:31  5-MIN KDBQ 222330Z 32011KT 10SM CLR 06/M06 A3022 800 43 0 320/11 RMK AO2
94908KDBQ DBQ20060322173509403/22/06 17:35:31  5-MIN KDBQ 222335Z 32010KT 10SM CLR 06/M06 A3022 800 44 -100 320/10 RMK AO2
94908KDBQ DBQ20060322174009403/22/06 17:40:31  5-MIN KDBQ 222340Z 33011KT 10SM CLR 06/M06 A3022 800 44 -100 330/11 RMK AO2
94908KDBQ DBQ20060322174509403/22/06 17:45:31  5-MIN KDBQ 222345Z 31009KT 10SM CLR 06/M06 A3022 800 44 -100 310/09 RMK AO2
94908KDBQ DBQ20060322175012903/22/06 17:50:31  5-MIN KDBQ 222350Z 31008KT 10SM CLR 05/M06 A3022 800 46 -100 310/08 RMK AO2 SLP247 T00501056 10078 20050 56018
94908KDBQ DBQ20060322175512903/22/06 17:55:31  5-MIN KDBQ 222355Z 31009KT 10SM CLR 05/M06 A3023 800 46 -100 310/09 RMK AO2 SLP248 T00501056 10078 20050 55001
94908KDBQ DBQ20060322180009403/22/06 18:00:31  5-MIN KDBQ 230000Z 31008KT 10SM CLR 04/M06 A3023 800 48 -200 310/08 RMK AO2
94908KDBQ DBQ20060322180509403/22/06 18:05:31  5-MIN KDBQ 230005Z 31009KT 10SM CLR 04/M06 A3023 790 46 -200 310/09 RMK AO2
94908KDBQ DBQ20060322181009403/22/06 18:10:31  5-MIN KDBQ 230010Z 31008KT 10SM CLR 04/M06 A3023 790 50 -300 310/08 RMK AO2
94908KDBQ DBQ20060322181509403/22/06 18:15:31  5-MIN KDBQ 230015Z 32009KT 10SM CLR 04/M06 A3023 790 48 -300 310/09 RMK AO2
94908KDBQ DBQ20060322182009403/22/06 18:20:31  5-MIN KDBQ 230020Z 31008KT 10SM CLR 04/M06 A3023 790 48 -300 310/08 RMK AO2
94908KDBQ DBQ20060322182509403/22/06 18:25:31  5-MIN KDBQ 230025Z 31008KT 10SM CLR 04/M06 A3023 790 48 -300 310/08 RMK AO2
94908KDBQ DBQ20060322183009403/22/06 18:30:31  5-MIN KDBQ 230030Z 31008KT 10SM CLR 03/M06 A3023 790 50 -300 310/08 RMK AO2
94908KDBQ DBQ20060322183509403/22/06 18:35:31  5-MIN KDBQ 230035Z 31007KT 10SM CLR 03/M06 A3023 790 50 -300 310/07 RMK AO2
94908KDBQ DBQ20060322184009403/22/06 18:40:31  5-MIN KDBQ 230040Z 31007KT 10SM CLR 03/M06 A3023 790 52 -400 310/07 RMK AO2
94908KDBQ DBQ20060322184509403/22/06 18:45:31  5-MIN KDBQ 230045Z 32007KT 10SM CLR 02/M06 A3023 790 54 -500 320/07 RMK AO2
94908KDBQ DBQ20060322185011103/22/06 18:50:31  5-MIN KDBQ 230050Z 32009KT 10SM CLR 03/M06 A3024 790 52 -400 320/09 RMK AO2 SLP252 T00281061
94908KDBQ DBQ20060322185511103/22/06 18:55:31  5-MIN KDBQ 230055Z 32009KT 10SM CLR 03/M06 A3024 790 54 -400 320/09 RMK AO2 SLP253 T00281056
94908KDBQ DBQ20060322190009403/22/06 19:00:31  5-MIN KDBQ 230100Z 31008KT 10SM CLR 03/M06 A3024 780 54 -400 310/08 RMK AO2
94908KDBQ DBQ20060322190509403/22/06 19:05:31  5-MIN KDBQ 230105Z 32008KT 10SM CLR 02/M06 A3024 780 54 -500 320/08 RMK AO2
94908KDBQ DBQ20060322191009403/22/06 19:10:31  5-MIN KDBQ 230110Z 32008KT 10SM CLR 02/M06 A3024 780 54 -500 320/08 RMK AO2
94908KDBQ DBQ20060322191509403/22/06 19:15:31  5-MIN KDBQ 230115Z 32008KT 10SM CLR 02/M06 A3024 780 56 -500 320/08 RMK AO2
94908KDBQ DBQ20060322192009403/22/06 19:20:31  5-MIN KDBQ 230120Z 32008KT 10SM CLR 02/M06 A3024 780 56 -500 310/08 RMK AO2
94908KDBQ DBQ20060322192509403/22/06 19:25:31  5-MIN KDBQ 230125Z 31009KT 10SM CLR 02/M06 A3024 780 56 -500 310/09 RMK AO2
94908KDBQ DBQ20060322193009403/22/06 19:30:31  5-MIN KDBQ 230130Z 32010KT 10SM CLR 03/M06 A3024 780 54 -400 320/10 RMK AO2
94908KDBQ DBQ20060322193509403/22/06 19:35:31  5-MIN KDBQ 230135Z 32011KT 10SM CLR 03/M06 A3024 780 54 -400 320/11 RMK AO2
94908KDBQ DBQ20060322194009403/22/06 19:40:31  5-MIN KDBQ 230140Z 32012KT 10SM CLR 02/M06 A3025 780 56 -500 320/12 RMK AO2
94908KDBQ DBQ20060322194509403/22/06 19:45:31  5-MIN KDBQ 230145Z 32011KT 10SM CLR 02/M06 A3025 780 56 -500 320/11 RMK AO2
94908KDBQ DBQ20060322195011103/22/06 19:50:31  5-MIN KDBQ 230150Z 32011KT 10SM CLR 02/M06 A3025 780 56 -500 320/11 RMK AO2 SLP254 T00221056
94908KDBQ DBQ20060322195511103/22/06 19:55:31  5-MIN KDBQ 230155Z 32012KT 10SM CLR 02/M06 A3025 780 56 -500 320/12 RMK AO2 SLP255 T00221056
94908KDBQ DBQ20060322200009403/22/06 20:00:31  5-MIN KDBQ 230200Z 33011KT 10SM CLR 02/M05 A3025 770 59 -500 330/11 RMK AO2
94908KDBQ DBQ20060322200510403/22/06 20:05:31  5-MIN KDBQ 230205Z AUTO 33012KT 10SM CLR 02/M05 A3025 770 59 -500 330/12 RMK AO2 TSNO
94908KDBQ DBQ20060322201010403/22/06 20:10:31  5-MIN KDBQ 230210Z AUTO 33013KT 10SM CLR 02/M05 A3025 770 59 -500 320/13 RMK AO2 TSNO
94908KDBQ DBQ20060322201510403/22/06 20:15:31  5-MIN KDBQ 230215Z AUTO 33012KT 10SM CLR 02/M05 A3025 770 59 -500 330/12 RMK AO2 TSNO
94908KDBQ DBQ20060322202010403/22/06 20:20:31  5-MIN KDBQ 230220Z AUTO 32013KT 10SM CLR 02/M05 A3025 770 59 -500 320/13 RMK AO2 TSNO
94908KDBQ DBQ20060322202510403/22/06 20:25:31  5-MIN KDBQ 230225Z AUTO 33011KT 10SM CLR 02/M05 A3025 770 61 -600 330/11 RMK AO2 TSNO
94908KDBQ DBQ20060322203010403/22/06 20:30:31  5-MIN KDBQ 230230Z AUTO 33012KT 10SM CLR 02/M05 A3026 770 61 -600 330/12 RMK AO2 TSNO
94908KDBQ DBQ20060322203510403/22/06 20:35:31  5-MIN KDBQ 230235Z AUTO 33011KT 10SM CLR 02/M05 A3026 770 61 -600 330/11 RMK AO2 TSNO
94908KDBQ DBQ20060322204010403/22/06 20:40:31  5-MIN KDBQ 230240Z AUTO 33013KT 10SM CLR 01/M05 A3026 770 64 -600 330/13 RMK AO2 TSNO
94908KDBQ DBQ20060322204510403/22/06 20:45:31  5-MIN KDBQ 230245Z AUTO 33010KT 10SM CLR 01/M05 A3026 770 64 -600 330/10 RMK AO2 TSNO
94908KDBQ DBQ20060322205012703/22/06 20:50:31  5-MIN KDBQ 230250Z AUTO 33012KT 10SM CLR 01/M05 A3026 770 64 -600 330/12 RMK AO2 SLP258 T00111050 55001 TSNO
94908KDBQ DBQ20060322205512703/22/06 20:55:31  5-MIN KDBQ 230255Z AUTO 33011KT 10SM CLR 01/M05 A3026 770 64 -600 330/11 RMK AO2 SLP258 T00111050 51011 TSNO
94908KDBQ DBQ20060322210010403/22/06 21:00:31  5-MIN KDBQ 230300Z AUTO 33011KT 10SM CLR 01/M05 A3026 770 64 -600 330/11 RMK AO2 TSNO
94908KDBQ DBQ20060322210510403/22/06 21:05:31  5-MIN KDBQ 230305Z AUTO 33012KT 10SM CLR 02/M05 A3026 770 61 -600 330/12 RMK AO2 TSNO
94908KDBQ DBQ20060322211010403/22/06 21:10:31  5-MIN KDBQ 230310Z AUTO 33011KT 10SM CLR 01/M05 A3026 770 64 -600 330/11 RMK AO2 TSNO
94908KDBQ DBQ20060322211510403/22/06 21:15:31  5-MIN KDBQ 230315Z AUTO 33012KT 10SM CLR 01/M05 A3026 770 64 -700 330/12 RMK AO2 TSNO
94908KDBQ DBQ20060322212010403/22/06 21:20:31  5-MIN KDBQ 230320Z AUTO 33011KT 10SM CLR 01/M05 A3026 760 64 -700 330/11 RMK AO2 TSNO
94908KDBQ DBQ20060322212510403/22/06 21:25:31  5-MIN KDBQ 230325Z AUTO 33010KT 10SM CLR 01/M05 A3026 760 64 -700 330/10 RMK AO2 TSNO
94908KDBQ DBQ20060322213010403/22/06 21:30:31  5-MIN KDBQ 230330Z AUTO 33011KT 10SM CLR 01/M05 A3026 760 66 -700 330/11 RMK AO2 TSNO
94908KDBQ DBQ20060322213510403/22/06 21:35:31  5-MIN KDBQ 230335Z AUTO 33010KT 10SM CLR 01/M05 A3027 760 66 -700 330/10 RMK AO2 TSNO
94908KDBQ DBQ20060322214010403/22/06 21:40:31  5-MIN KDBQ 230340Z AUTO 33010KT 10SM CLR 01/M05 A3027 760 66 -700 330/10 RMK AO2 TSNO
94908KDBQ DBQ20060322214510403/22/06 21:45:31  5-MIN KDBQ 230345Z AUTO 33009KT 10SM CLR 00/M05 A3027 760 69 -800 330/09 RMK AO2 TSNO
94908KDBQ DBQ20060322215012103/22/06 21:50:31  5-MIN KDBQ 230350Z AUTO 33009KT 10SM CLR 00/M05 A3027 760 69 -800 330/09 RMK AO2 SLP262 T00001050 TSNO
94908KDBQ DBQ20060322215512103/22/06 21:55:31  5-MIN KDBQ 230355Z AUTO 33010KT 10SM CLR 00/M05 A3027 760 69 -800 330/10 RMK AO2 SLP262 T00001050 TSNO
94908KDBQ DBQ20060322220010403/22/06 22:00:31  5-MIN KDBQ 230400Z AUTO 33009KT 10SM CLR 00/M05 A3027 760 69 -800 330/09 RMK AO2 TSNO
94908KDBQ DBQ20060322220510403/22/06 22:05:31  5-MIN KDBQ 230405Z AUTO 33008KT 10SM CLR 00/M05 A3027 760 69 -800 330/08 RMK AO2 TSNO
94908KDBQ DBQ20060322221010403/22/06 22:10:31  5-MIN KDBQ 230410Z AUTO 34009KT 10SM CLR 00/M05 A3027 760 69 -800 340/09 RMK AO2 TSNO
94908KDBQ DBQ20060322221510403/22/06 22:15:31  5-MIN KDBQ 230415Z AUTO 33009KT 10SM CLR 00/M05 A3027 760 69 -800 330/09 RMK AO2 TSNO
94908KDBQ DBQ20060322222010403/22/06 22:20:31  5-MIN KDBQ 230420Z AUTO 33010KT 10SM CLR 00/M05 A3027 760 69 -800 330/10 RMK AO2 TSNO
94908KDBQ DBQ20060322222510403/22/06 22:25:31  5-MIN KDBQ 230425Z AUTO 33010KT 10SM CLR 00/M05 A3027 760 69 -800 330/10 RMK AO2 TSNO
94908KDBQ DBQ20060322223010403/22/06 22:30:31  5-MIN KDBQ 230430Z AUTO 34009KT 10SM CLR 00/M05 A3026 760 69 -800 340/09 RMK AO2 TSNO
94908KDBQ DBQ20060322223510403/22/06 22:35:31  5-MIN KDBQ 230435Z AUTO 34010KT 10SM CLR 00/M05 A3026 760 69 -800 340/10 RMK AO2 TSNO
94908KDBQ DBQ20060322224010403/22/06 22:40:31  5-MIN KDBQ 230440Z AUTO 34010KT 10SM CLR 00/M05 A3026 760 69 -800 340/10 RMK AO2 TSNO
94908KDBQ DBQ20060322224510503/22/06 22:45:31  5-MIN KDBQ 230445Z AUTO 34009KT 10SM CLR M01/M05 A3026 760 72 -900 340/09 RMK AO2 TSNO
94908KDBQ DBQ20060322225012203/22/06 22:50:31  5-MIN KDBQ 230450Z AUTO 34008KT 10SM CLR M01/M05 A3026 760 72 -900 340/08 RMK AO2 SLP259 T10061050 TSNO
94908KDBQ DBQ20060322225512203/22/06 22:55:31  5-MIN KDBQ 230455Z AUTO 34009KT 10SM CLR M01/M06 A3026 760 69 -900 340/09 RMK AO2 SLP259 T10061056 TSNO
94908KDBQ DBQ20060322230010503/22/06 23:00:31  5-MIN KDBQ 230500Z AUTO 34009KT 10SM CLR M01/M06 A3026 760 69 -900 340/09 RMK AO2 TSNO
94908KDBQ DBQ20060322230510503/22/06 23:05:31  5-MIN KDBQ 230505Z AUTO 33009KT 10SM CLR M01/M06 A3026 770 69 -900 330/09 RMK AO2 TSNO
94908KDBQ DBQ20060322231010503/22/06 23:10:31  5-MIN KDBQ 230510Z AUTO 33011KT 10SM CLR M01/M06 A3026 770 69 -900 330/11 RMK AO2 TSNO
94908KDBQ DBQ20060322231510403/22/06 23:15:31  5-MIN KDBQ 230515Z AUTO 33011KT 10SM CLR 00/M06 A3026 770 66 -800 330/11 RMK AO2 TSNO
94908KDBQ DBQ20060322232010403/22/06 23:20:31  5-MIN KDBQ 230520Z AUTO 34010KT 10SM CLR 00/M06 A3026 770 66 -800 340/10 RMK AO2 TSNO
94908KDBQ DBQ20060322232510503/22/06 23:25:31  5-MIN KDBQ 230525Z AUTO 34009KT 10SM CLR M01/M06 A3026 770 69 -900 340/09 RMK AO2 TSNO
94908KDBQ DBQ20060322233010503/22/06 23:30:31  5-MIN KDBQ 230530Z AUTO 35007KT 10SM CLR M01/M06 A3026 770 69 -900 350/07 RMK AO2 TSNO
94908KDBQ DBQ20060322233510503/22/06 23:35:31  5-MIN KDBQ 230535Z AUTO 36006KT 10SM CLR M01/M06 A3026 770 72 -900 360/06 RMK AO2 TSNO
94908KDBQ DBQ20060322234010503/22/06 23:40:31  5-MIN KDBQ 230540Z AUTO 36006KT 10SM CLR M01/M06 A3026 770 69 -900 360/06 RMK AO2 TSNO
94908KDBQ DBQ20060322234510503/22/06 23:45:31  5-MIN KDBQ 230545Z AUTO 01006KT 10SM CLR M01/M06 A3026 770 72 -900 010/06 RMK AO2 TSNO
94908KDBQ DBQ20060322235015003/22/06 23:50:31  5-MIN KDBQ 230550Z AUTO 01007KT 10SM CLR M01/M06 A3025 770 72 -900 360/07 RMK AO2 SLP256 T10111056 10050 21011 400781067 51011 TSNO
94908KDBQ DBQ20060322235515003/22/06 23:55:31  5-MIN KDBQ 230555Z AUTO 01007KT 10SM CLR M01/M06 A3025 770 72 -900 010/07 RMK AO2 SLP255 T10111056 10050 21011 400781067 58002 TSNO
94908KDBQ DBQ20060323000010503/23/06 00:00:38  5-MIN KDBQ 230600Z AUTO 02007KT 10SM CLR M01/M06 A3025 770 72 -900 020/07 RMK AO2 TSNO
94908KDBQ DBQ20060323000510503/23/06 00:05:31  5-MIN KDBQ 230605Z AUTO VRB05KT 10SM CLR M01/M06 A3025 770 72 -900 VRB/05 RMK AO2 TSNO
94908KDBQ DBQ20060323001010503/23/06 00:10:31  5-MIN KDBQ 230610Z AUTO VRB05KT 10SM CLR M01/M06 A3026 770 72 -900 VRB/05 RMK AO2 TSNO
94908KDBQ DBQ20060323001510503/23/06 00:15:31  5-MIN KDBQ 230615Z AUTO 02005KT 10SM CLR M01/M06 A3026 770 69 -900 020/05 RMK AO2 TSNO
94908KDBQ DBQ20060323002010503/23/06 00:20:31  5-MIN KDBQ 230620Z AUTO 03005KT 10SM CLR M01/M06 A3026 770 72 -900 030/05 RMK AO2 TSNO
94908KDBQ DBQ20060323002510503/23/06 00:25:31  5-MIN KDBQ 230625Z AUTO 03005KT 10SM CLR M01/M06 A3026 770 72 -900 020/05 RMK AO2 TSNO
94908KDBQ DBQ20060323003010503/23/06 00:30:31  5-MIN KDBQ 230630Z AUTO 01007KT 10SM CLR M01/M06 A3026 770 72 -900 010/07 RMK AO2 TSNO
94908KDBQ DBQ20060323003510503/23/06 00:35:31  5-MIN KDBQ 230635Z AUTO 01007KT 10SM CLR M01/M06 A3026 770 72 -900 010/07 RMK AO2 TSNO
94908KDBQ DBQ20060323004010503/23/06 00:40:31  5-MIN KDBQ 230640Z AUTO 36007KT 10SM CLR M01/M06 A3026 770 72 -900 360/07 RMK AO2 TSNO
94908KDBQ DBQ20060323004510603/23/06 00:45:31  5-MIN KDBQ 230645Z AUTO 01006KT 10SM CLR M02/M06 A3025 770 75 -1000 010/06 RMK AO2 TSNO
94908KDBQ DBQ20060323005012203/23/06 00:50:31  5-MIN KDBQ 230650Z AUTO 01007KT 10SM CLR M01/M06 A3025 770 72 -900 010/07 RMK AO2 SLP256 T10111056 TSNO
94908KDBQ DBQ20060323005512303/23/06 00:55:31  5-MIN KDBQ 230655Z AUTO 01007KT 10SM CLR M02/M06 A3025 770 75 -1000 010/07 RMK AO2 SLP255 T10171056 TSNO
94908KDBQ DBQ20060323010010503/23/06 01:00:31  5-MIN KDBQ 230700Z AUTO 01008KT 10SM CLR M01/M06 A3025 770 72 -900 010/08 RMK AO2 TSNO
94908KDBQ DBQ20060323010510503/23/06 01:05:31  5-MIN KDBQ 230705Z AUTO 01007KT 10SM CLR M01/M06 A3025 770 72 -900 010/07 RMK AO2 TSNO
94908KDBQ DBQ20060323011010503/23/06 01:10:31  5-MIN KDBQ 230710Z AUTO 01007KT 10SM CLR M01/M06 A3026 770 72 -900 010/07 RMK AO2 TSNO
94908KDBQ DBQ20060323011510503/23/06 01:15:31  5-MIN KDBQ 230715Z AUTO 36006KT 10SM CLR M01/M06 A3026 770 72 -900 360/06 RMK AO2 TSNO
94908KDBQ DBQ20060323012010603/23/06 01:20:31  5-MIN KDBQ 230720Z AUTO 36006KT 10SM CLR M02/M06 A3026 770 75 -1000 360/06 RMK AO2 TSNO
94908KDBQ DBQ20060323012510603/23/06 01:25:31  5-MIN KDBQ 230725Z AUTO 36006KT 10SM CLR M02/M06 A3026 770 75 -1000 360/06 RMK AO2 TSNO
94908KDBQ DBQ20060323013010603/23/06 01:30:31  5-MIN KDBQ 230730Z AUTO 01006KT 10SM CLR M02/M06 A3026 770 75 -1000 010/06 RMK AO2 TSNO
94908KDBQ DBQ20060323013510603/23/06 01:35:31  5-MIN KDBQ 230735Z AUTO 01006KT 10SM CLR M02/M06 A3026 770 75 -1000 360/06 RMK AO2 TSNO
94908KDBQ DBQ20060323014010603/23/06 01:40:31  5-MIN KDBQ 230740Z AUTO 01006KT 10SM CLR M02/M06 A3026 770 78 -1100 010/06 RMK AO2 TSNO
94908KDBQ DBQ20060323014510603/23/06 01:45:31  5-MIN KDBQ 230745Z AUTO 01006KT 10SM CLR M02/M06 A3026 770 75 -1000 010/06 RMK AO2 TSNO
94908KDBQ DBQ20060323015012303/23/06 01:50:31  5-MIN KDBQ 230750Z AUTO 01005KT 10SM CLR M02/M06 A3026 770 75 -1000 010/05 RMK AO2 SLP257 T10171056 TSNO
94908KDBQ DBQ20060323015512303/23/06 01:55:31  5-MIN KDBQ 230755Z AUTO 01006KT 10SM CLR M02/M06 A3026 770 75 -1000 010/06 RMK AO2 SLP257 T10171056 TSNO
94908KDBQ DBQ20060323020010603/23/06 02:00:31  5-MIN KDBQ 230800Z AUTO 01006KT 10SM CLR M02/M06 A3026 770 78 -1100 010/06 RMK AO2 TSNO
94908KDBQ DBQ20060323020510603/23/06 02:05:31  5-MIN KDBQ 230805Z AUTO 36005KT 10SM CLR M02/M06 A3026 770 78 -1100 360/05 RMK AO2 TSNO
94908KDBQ DBQ20060323021010603/23/06 02:10:31  5-MIN KDBQ 230810Z AUTO 36005KT 10SM CLR M02/M06 A3025 770 78 -1100 360/05 RMK AO2 TSNO
94908KDBQ DBQ20060323021510603/23/06 02:15:31  5-MIN KDBQ 230815Z AUTO 01005KT 10SM CLR M02/M06 A3025 770 78 -1100 360/05 RMK AO2 TSNO
94908KDBQ DBQ20060323022010603/23/06 02:20:31  5-MIN KDBQ 230820Z AUTO 36005KT 10SM CLR M02/M06 A3025 770 75 -1000 360/05 RMK AO2 TSNO
94908KDBQ DBQ20060323022510603/23/06 02:25:31  5-MIN KDBQ 230825Z AUTO 36005KT 10SM CLR M02/M06 A3025 770 75 -1000 360/05 RMK AO2 TSNO
94908KDBQ DBQ20060323023010603/23/06 02:30:31  5-MIN KDBQ 230830Z AUTO 36005KT 10SM CLR M02/M06 A3025 770 78 -1100 360/05 RMK AO2 TSNO
94908KDBQ DBQ20060323023510603/23/06 02:35:31  5-MIN KDBQ 230835Z AUTO 36006KT 10SM CLR M02/M06 A3025 770 75 -1000 360/06 RMK AO2 TSNO
94908KDBQ DBQ20060323024010603/23/06 02:40:31  5-MIN KDBQ 230840Z AUTO 01006KT 10SM CLR M02/M06 A3025 770 75 -1000 010/06 RMK AO2 TSNO
94908KDBQ DBQ20060323024510603/23/06 02:45:31  5-MIN KDBQ 230845Z AUTO 36006KT 10SM CLR M02/M06 A3025 770 75 -1000 360/06 RMK AO2 TSNO
94908KDBQ DBQ20060323025012803/23/06 02:50:31  5-MIN KDBQ 230850Z AUTO 36007KT 10SM CLR M01/M06 A3025 770 72 -900 360/07 RMK AO2 SLP254 T10111056 58002 TSNO
94908KDBQ DBQ20060323025512903/23/06 02:55:31  5-MIN KDBQ 230855Z AUTO 01006KT 10SM CLR M02/M06 A3025 770 75 -1000 010/06 RMK AO2 SLP255 T10171056 50000 TSNO
94908KDBQ DBQ20060323030010603/23/06 03:00:31  5-MIN KDBQ 230900Z AUTO 36006KT 10SM CLR M02/M06 A3026 770 75 -1000 360/06 RMK AO2 TSNO
94908KDBQ DBQ20060323030510603/23/06 03:05:31  5-MIN KDBQ 230905Z AUTO 36006KT 10SM CLR M02/M06 A3026 770 75 -1000 350/06 RMK AO2 TSNO
94908KDBQ DBQ20060323031010603/23/06 03:10:31  5-MIN KDBQ 230910Z AUTO 36006KT 10SM CLR M02/M06 A3026 770 75 -1100 360/06 RMK AO2 TSNO
94908KDBQ DBQ20060323031510603/23/06 03:15:31  5-MIN KDBQ 230915Z AUTO 36005KT 10SM CLR M02/M06 A3026 770 75 -1100 360/05 RMK AO2 TSNO
94908KDBQ DBQ20060323032010603/23/06 03:20:31  5-MIN KDBQ 230920Z AUTO 01004KT 10SM CLR M03/M06 A3026 770 78 -1100 010/04 RMK AO2 TSNO
94908KDBQ DBQ20060323032510603/23/06 03:25:31  5-MIN KDBQ 230925Z AUTO 01004KT 10SM CLR M02/M06 A3026 770 75 -1100 010/04 RMK AO2 TSNO
94908KDBQ DBQ20060323033010603/23/06 03:30:31  5-MIN KDBQ 230930Z AUTO 36005KT 10SM CLR M03/M06 A3026 770 78 -1100 360/05 RMK AO2 TSNO
94908KDBQ DBQ20060323033510603/23/06 03:35:31  5-MIN KDBQ 230935Z AUTO 36005KT 10SM CLR M03/M06 A3026 770 78 -1100 360/05 RMK AO2 TSNO
94908KDBQ DBQ20060323034010603/23/06 03:40:31  5-MIN KDBQ 230940Z AUTO 36005KT 10SM CLR M03/M06 A3026 770 78 -1100 360/05 RMK AO2 TSNO
94908KDBQ DBQ20060323034510603/23/06 03:45:31  5-MIN KDBQ 230945Z AUTO 36005KT 10SM CLR M02/M06 A3026 770 75 -1100 360/05 RMK AO2 TSNO
94908KDBQ DBQ20060323035012603/23/06 03:50:31  5-MIN KDBQ 230950Z AUTO 36004KT 10SM FEW065 M03/M06 A3026 770 78 -1100 360/04 RMK AO2 SLP257 T10281061 TSNO
94908KDBQ DBQ20060323035512603/23/06 03:55:31  5-MIN KDBQ 230955Z AUTO 36004KT 10SM SCT065 M03/M06 A3026 770 81 -1200 360/04 RMK AO2 SLP257 T10331061 TSNO
94908KDBQ DBQ20060323040010903/23/06 04:00:31  5-MIN KDBQ 231000Z AUTO 01003KT 10SM BKN065 M03/M06 A3026 770 81 -1200 010/03 RMK AO2 TSNO
94908KDBQ DBQ20060323040510903/23/06 04:05:31  5-MIN KDBQ 231005Z AUTO 00000KT 10SM BKN065 M03/M06 A3026 770 81 -1200 000/00 RMK AO2 TSNO
94908KDBQ DBQ20060323041010903/23/06 04:10:31  5-MIN KDBQ 231010Z AUTO 36003KT 10SM BKN065 M03/M06 A3026 770 78 -1100 360/03 RMK AO2 TSNO
94908KDBQ DBQ20060323041510903/23/06 04:15:31  5-MIN KDBQ 231015Z AUTO 01003KT 10SM OVC065 M02/M06 A3026 770 78 -1100 360/03 RMK AO2 TSNO
94908KDBQ DBQ20060323042010903/23/06 04:20:31  5-MIN KDBQ 231020Z AUTO 00000KT 10SM OVC065 M02/M06 A3026 770 78 -1100 000/00 RMK AO2 TSNO
94908KDBQ DBQ20060323042510903/23/06 04:25:31  5-MIN KDBQ 231025Z AUTO 00000KT 10SM OVC065 M02/M06 A3026 770 75 -1000 000/00 RMK AO2 TSNO
94908KDBQ DBQ20060323043010803/23/06 04:30:31  5-MIN KDBQ 231030Z AUTO 00000KT 10SM OVC065 M01/M05 A3026 770 75 -900 000/00 RMK AO2 TSNO
94908KDBQ DBQ20060323043510803/23/06 04:35:31  5-MIN KDBQ 231035Z AUTO 00000KT 10SM OVC065 M01/M05 A3026 770 75 -900 000/00 RMK AO2 TSNO
94908KDBQ DBQ20060323044010803/23/06 04:40:31  5-MIN KDBQ 231040Z AUTO 00000KT 10SM OVC065 M01/M05 A3026 770 75 -900 000/00 RMK AO2 TSNO
94908KDBQ DBQ20060323044510903/23/06 04:45:31  5-MIN KDBQ 231045Z AUTO 35003KT 10SM OVC065 M02/M05 A3026 770 78 -1000 350/03 RMK AO2 TSNO
94908KDBQ DBQ20060323045012603/23/06 04:50:31  5-MIN KDBQ 231050Z AUTO 36003KT 10SM OVC065 M02/M05 A3026 770 78 -1000 360/03 RMK AO2 SLP257 T10171050 TSNO
94908KDBQ DBQ20060323045512503/23/06 04:55:31  5-MIN KDBQ 231055Z AUTO 00000KT 10SM OVC065 M01/M05 A3026 770 75 -900 000/00 RMK AO2 SLP257 T10111050 TSNO
94908KDBQ DBQ20060323050010803/23/06 05:00:31  5-MIN KDBQ 231100Z AUTO 00000KT 10SM OVC065 M01/M05 A3026 770 75 -900 000/00 RMK AO2 TSNO
94908KDBQ DBQ20060323050510803/23/06 05:05:31  5-MIN KDBQ 231105Z AUTO 00000KT 10SM OVC065 M01/M05 A3026 770 75 -900 000/00 RMK AO2 TSNO
94908KDBQ DBQ20060323051010803/23/06 05:10:31  5-MIN KDBQ 231110Z AUTO 00000KT 10SM OVC065 M01/M05 A3026 770 75 -900 000/00 RMK AO2 TSNO
94908KDBQ DBQ20060323051510803/23/06 05:15:31  5-MIN KDBQ 231115Z AUTO 33003KT 10SM OVC065 M01/M05 A3026 760 75 -900 330/03 RMK AO2 TSNO
94908KDBQ DBQ20060323052010803/23/06 05:20:31  5-MIN KDBQ 231120Z AUTO 34003KT 10SM OVC065 M01/M05 A3026 770 75 -900 340/03 RMK AO2 TSNO
94908KDBQ DBQ20060323052510803/23/06 05:25:31  5-MIN KDBQ 231125Z AUTO 34003KT 10SM OVC065 M01/M04 A3026 770 78 -900 340/03 RMK AO2 TSNO
94908KDBQ DBQ20060323053010803/23/06 05:30:31  5-MIN KDBQ 231130Z AUTO 34004KT 10SM OVC065 M01/M04 A3026 770 78 -900 340/04 RMK AO2 TSNO
94908KDBQ DBQ20060323053510803/23/06 05:35:31  5-MIN KDBQ 231135Z AUTO 35004KT 10SM OVC065 M01/M04 A3026 770 78 -900 350/04 RMK AO2 TSNO
94908KDBQ DBQ20060323054010803/23/06 05:40:31  5-MIN KDBQ 231140Z AUTO 35005KT 10SM OVC065 M01/M04 A3026 770 78 -900 350/05 RMK AO2 TSNO
94908KDBQ DBQ20060323054510803/23/06 05:45:31  5-MIN KDBQ 231145Z AUTO 35005KT 10SM OVC065 M01/M04 A3026 770 78 -900 350/05 RMK AO2 TSNO
94908KDBQ DBQ20060323055014303/23/06 05:50:31  5-MIN KDBQ 231150Z AUTO 35007KT 10SM OVC065 M01/M04 A3026 770 75 -900 340/07 RMK AO2 SLP257 T10061044 11006 21039 50000 TSNO
94908KDBQ DBQ20060323055514303/23/06 05:55:31  5-MIN KDBQ 231155Z AUTO 34006KT 10SM OVC065 M01/M04 A3026 770 75 -900 340/06 RMK AO2 SLP257 T10061044 11006 21039 51002 TSNO
94908KDBQ DBQ20060323060009803/23/06 06:00:31  5-MIN KDBQ 231200Z 35005KT 10SM OVC065 M01/M04 A3026 770 78 -900 340/05 RMK AO2
94908KDBQ DBQ20060323060509803/23/06 06:05:31  5-MIN KDBQ 231205Z 35005KT 10SM OVC065 M01/M04 A3026 770 78 -900 350/05 RMK AO2
94908KDBQ DBQ20060323061009803/23/06 06:10:31  5-MIN KDBQ 231210Z 35005KT 10SM OVC065 M01/M04 A3026 770 78 -900 350/05 RMK AO2
94908KDBQ DBQ20060323061509803/23/06 06:15:31  5-MIN KDBQ 231215Z 36004KT 10SM OVC065 M01/M04 A3026 770 78 -900 360/04 RMK AO2
94908KDBQ DBQ20060323062009803/23/06 06:20:31  5-MIN KDBQ 231220Z 36005KT 10SM OVC065 M01/M04 A3026 760 78 -900 360/05 RMK AO2
94908KDBQ DBQ20060323062509703/23/06 06:25:31  5-MIN KDBQ 231225Z 36005KT 10SM OVC065 00/M04 A3026 760 75 -800 360/05 RMK AO2
94908KDBQ DBQ20060323063009703/23/06 06:30:31  5-MIN KDBQ 231230Z 01005KT 10SM OVC065 00/M04 A3026 760 75 -800 010/05 RMK AO2
94908KDBQ DBQ20060323063509703/23/06 06:35:31  5-MIN KDBQ 231235Z 36005KT 10SM OVC065 00/M04 A3026 760 75 -800 360/05 RMK AO2
94908KDBQ DBQ20060323064009703/23/06 06:40:31  5-MIN KDBQ 231240Z 36004KT 10SM OVC065 00/M04 A3026 760 75 -800 360/04 RMK AO2
94908KDBQ DBQ20060323064509703/23/06 06:45:31  5-MIN KDBQ 231245Z 36005KT 10SM OVC065 00/M04 A3026 760 75 -800 360/05 RMK AO2
94908KDBQ DBQ20060323065011403/23/06 06:50:31  5-MIN KDBQ 231250Z 36005KT 10SM OVC065 00/M04 A3026 760 75 -800 360/05 RMK AO2 SLP259 T00001039
94908KDBQ DBQ20060323065511403/23/06 06:55:31  5-MIN KDBQ 231255Z 36004KT 10SM OVC065 00/M04 A3026 760 75 -800 360/04 RMK AO2 SLP260 T00001039
94908KDBQ DBQ20060323070009703/23/06 07:00:31  5-MIN KDBQ 231300Z 01004KT 10SM OVC065 00/M04 A3026 760 75 -800 360/04 RMK AO2
94908KDBQ DBQ20060323070509703/23/06 07:05:31  5-MIN KDBQ 231305Z 01004KT 10SM OVC065 01/M04 A3026 760 72 -700 010/04 RMK AO2
94908KDBQ DBQ20060323071009703/23/06 07:10:31  5-MIN KDBQ 231310Z 01004KT 10SM OVC065 01/M04 A3026 760 72 -700 010/04 RMK AO2
94908KDBQ DBQ20060323071509703/23/06 07:15:31  5-MIN KDBQ 231315Z 36004KT 10SM OVC065 01/M04 A3026 760 72 -700 360/04 RMK AO2
94908KDBQ DBQ20060323072009703/23/06 07:20:31  5-MIN KDBQ 231320Z 01004KT 10SM OVC065 01/M04 A3026 760 72 -700 010/04 RMK AO2
94908KDBQ DBQ20060323072509703/23/06 07:25:31  5-MIN KDBQ 231325Z 36005KT 10SM OVC065 01/M03 A3027 760 75 -700 360/05 RMK AO2
94908KDBQ DBQ20060323073009703/23/06 07:30:31  5-MIN KDBQ 231330Z 36006KT 10SM OVC065 01/M03 A3027 760 75 -700 360/06 RMK AO2
94908KDBQ DBQ20060323073510403/23/06 07:35:31  5-MIN KDBQ 231335Z 01006KT 10SM FEW043 OVC060 01/M03 A3026 760 75 -700 360/06 RMK AO2
94908KDBQ DBQ20060323074011903/23/06 07:40:31  5-MIN KDBQ 231340Z 01005KT 9SM -SN FEW043 OVC060 01/M03 A3027 760 75 -700 010/05 RMK AO2 SNB38 P0000
94908KDBQ DBQ20060323074511903/23/06 07:45:31  5-MIN KDBQ 231345Z 01005KT 8SM -SN FEW043 OVC060 01/M03 A3027 760 75 -700 010/05 RMK AO2 SNB38 P0000
94908KDBQ DBQ20060323075013503/23/06 07:50:31  5-MIN KDBQ 231350Z 01005KT 9SM FEW043 OVC060 01/M03 A3027 760 72 -700 010/05 RMK AO2 SNB38E49 SLP261 P0000 T00111033
94908KDBQ DBQ20060323075513603/23/06 07:55:31  5-MIN KDBQ 231355Z 01005KT 10SM FEW043 OVC060 01/M03 A3027 760 72 -700 360/05 RMK AO2 SNB38E49 SLP261 P0000 T00111033
94908KDBQ DBQ20060323080010403/23/06 08:00:31  5-MIN KDBQ 231400Z 36005KT 10SM FEW043 OVC060 01/M03 A3027 760 72 -700 360/05 RMK AO2
94908KDBQ DBQ20060323080509703/23/06 08:05:31  5-MIN KDBQ 231405Z 35006KT 10SM OVC060 01/M03 A3027 760 72 -700 350/06 RMK AO2
94908KDBQ DBQ20060323081009703/23/06 08:10:31  5-MIN KDBQ 231410Z 35007KT 10SM OVC060 01/M03 A3027 760 72 -700 350/07 RMK AO2
94908KDBQ DBQ20060323081509703/23/06 08:15:31  5-MIN KDBQ 231415Z 36007KT 10SM OVC060 01/M03 A3027 760 72 -700 360/07 RMK AO2
94908KDBQ DBQ20060323082009703/23/06 08:20:31  5-MIN KDBQ 231420Z 35006KT 10SM OVC060 01/M03 A3027 760 72 -700 350/06 RMK AO2
94908KDBQ DBQ20060323082509703/23/06 08:25:31  5-MIN KDBQ 231425Z 36007KT 10SM OVC065 02/M03 A3027 760 69 -600 360/07 RMK AO2
94908KDBQ DBQ20060323083009703/23/06 08:30:31  5-MIN KDBQ 231430Z 35008KT 10SM OVC065 02/M03 A3027 760 69 -600 350/08 RMK AO2
94908KDBQ DBQ20060323083509703/23/06 08:35:31  5-MIN KDBQ 231435Z 36008KT 10SM OVC065 02/M03 A3027 760 69 -600 360/08 RMK AO2
94908KDBQ DBQ20060323084009703/23/06 08:40:31  5-MIN KDBQ 231440Z 35008KT 10SM OVC065 02/M03 A3027 760 72 -600 350/08 RMK AO2
94908KDBQ DBQ20060323084509703/23/06 08:45:31  5-MIN KDBQ 231445Z 35008KT 10SM OVC065 02/M03 A3027 760 67 -500 350/08 RMK AO2
94908KDBQ DBQ20060323085012603/23/06 08:50:31  5-MIN KDBQ 231450Z 35008KT 10SM OVC065 02/M03 A3027 760 67 -500 350/08 RMK AO2 SLP261 60000 T00221033 51002
94908KDBQ DBQ20060323085512603/23/06 08:55:31  5-MIN KDBQ 231455Z 35008KT 10SM OVC065 02/M03 A3027 760 69 -500 350/08 RMK AO2 SLP261 60000 T00221028 50002
94908KDBQ DBQ20060323090009703/23/06 09:00:31  5-MIN KDBQ 231500Z 36009KT 10SM OVC065 02/M03 A3027 760 67 -500 350/09 RMK AO2
94908KDBQ DBQ20060323090509703/23/06 09:05:31  5-MIN KDBQ 231505Z 35010KT 10SM OVC060 02/M03 A3027 760 67 -500 350/10 RMK AO2
94908KDBQ DBQ20060323091009703/23/06 09:10:31  5-MIN KDBQ 231510Z 35009KT 10SM OVC060 02/M03 A3026 760 67 -500 350/09 RMK AO2
94908KDBQ DBQ20060323091509703/23/06 09:15:31  5-MIN KDBQ 231515Z 35011KT 10SM OVC060 02/M03 A3026 760 67 -500 340/11 RMK AO2
94908KDBQ DBQ20060323092009703/23/06 09:20:31  5-MIN KDBQ 231520Z 35010KT 10SM OVC065 03/M03 A3027 760 64 -400 350/10 RMK AO2
94908KDBQ DBQ20060323092509703/23/06 09:25:31  5-MIN KDBQ 231525Z 35010KT 10SM OVC065 03/M03 A3027 760 64 -400 350/10 RMK AO2
94908KDBQ DBQ20060323093009703/23/06 09:30:31  5-MIN KDBQ 231530Z 35011KT 10SM OVC065 03/M03 A3026 760 64 -400 350/11 RMK AO2
94908KDBQ DBQ20060323093509703/23/06 09:35:31  5-MIN KDBQ 231535Z 35010KT 10SM OVC065 03/M03 A3026 760 67 -400 350/10 RMK AO2
94908KDBQ DBQ20060323094009703/23/06 09:40:31  5-MIN KDBQ 231540Z 34011KT 10SM OVC060 03/M03 A3026 760 64 -400 340/11 RMK AO2
94908KDBQ DBQ20060323094509703/23/06 09:45:31  5-MIN KDBQ 231545Z 34010KT 10SM OVC060 03/M03 A3026 760 64 -400 340/10 RMK AO2
94908KDBQ DBQ20060323095011403/23/06 09:50:31  5-MIN KDBQ 231550Z 34009KT 10SM OVC060 03/M03 A3026 760 67 -400 340/09 RMK AO2 SLP259 T00281028
94908KDBQ DBQ20060323095511403/23/06 09:55:31  5-MIN KDBQ 231555Z 33010KT 10SM OVC060 03/M03 A3026 770 64 -400 330/10 RMK AO2 SLP258 T00281033
94908KDBQ DBQ20060323100009703/23/06 10:00:31  5-MIN KDBQ 231600Z 35008KT 10SM OVC060 03/M03 A3026 770 64 -400 350/08 RMK AO2
94908KDBQ DBQ20060323100509703/23/06 10:05:31  5-MIN KDBQ 231605Z 34010KT 10SM OVC060 03/M03 A3026 770 64 -400 340/10 RMK AO2
94908KDBQ DBQ20060323101009703/23/06 10:10:31  5-MIN KDBQ 231610Z 34009KT 10SM OVC060 03/M03 A3026 770 64 -400 340/09 RMK AO2
94908KDBQ DBQ20060323101509703/23/06 10:15:31  5-MIN KDBQ 231615Z 32008KT 10SM OVC060 03/M03 A3026 770 64 -400 320/08 RMK AO2
94908KDBQ DBQ20060323102009703/23/06 10:20:31  5-MIN KDBQ 231620Z 34010KT 10SM OVC060 03/M03 A3026 770 64 -400 340/10 RMK AO2
94908KDBQ DBQ20060323102509703/23/06 10:25:31  5-MIN KDBQ 231625Z 34008KT 10SM OVC065 03/M03 A3026 770 64 -400 340/08 RMK AO2
94908KDBQ DBQ20060323103009703/23/06 10:30:31  5-MIN KDBQ 231630Z 35009KT 10SM OVC065 04/M03 A3026 770 62 -300 340/09 RMK AO2
94908KDBQ DBQ20060323103509703/23/06 10:35:31  5-MIN KDBQ 231635Z 35008KT 10SM OVC060 04/M03 A3025 770 62 -300 350/08 RMK AO2
94908KDBQ DBQ20060323104009703/23/06 10:40:31  5-MIN KDBQ 231640Z 35007KT 10SM OVC060 04/M03 A3025 770 62 -300 350/07 RMK AO2
94908KDBQ DBQ20060323104509703/23/06 10:45:31  5-MIN KDBQ 231645Z 36007KT 10SM OVC060 05/M03 A3025 780 57 -200 350/07 RMK AO2
94908KDBQ DBQ20060323105011403/23/06 10:50:31  5-MIN KDBQ 231650Z 32010KT 10SM BKN060 05/M03 A3025 780 57 -200 320/10 RMK AO2 SLP253 T00501028
94908KDBQ DBQ20060323105511403/23/06 10:55:31  5-MIN KDBQ 231655Z 34008KT 10SM BKN060 04/M03 A3025 780 59 -200 340/08 RMK AO2 SLP253 T00441028
94908KDBQ DBQ20060323110010403/23/06 11:00:31  5-MIN KDBQ 231700Z 33010KT 10SM FEW032 SCT060 06/M03 A3024 780 55 -100 330/10 RMK AO2
94908KDBQ DBQ20060323110510403/23/06 11:05:31  5-MIN KDBQ 231705Z 34009KT 10SM FEW032 SCT060 04/M03 A3025 780 59 -200 340/09 RMK AO2
94908KDBQ DBQ20060323111009703/23/06 11:10:31  5-MIN KDBQ 231710Z 36008KT 10SM FEW035 06/M03 A3024 780 55 -100 360/08 RMK AO2
94908KDBQ DBQ20060323111509703/23/06 11:15:31  5-MIN KDBQ 231715Z VRB06KT 10SM FEW035 06/M03 A3024 780 55 -100 VRB/06 RMK AO2
94908KDBQ DBQ20060323112009403/23/06 11:20:31  5-MIN KDBQ 231720Z 01010KT 10SM SCT035 06/M03 A3024 780 53 0 010/10 RMK AO2
94908KDBQ DBQ20060323112510403/23/06 11:25:31  5-MIN KDBQ 231725Z 35010KT 10SM SCT035 BKN048 06/M03 A3024 790 53 -100 350/10 RMK AO2
94908KDBQ DBQ20060323113010403/23/06 11:30:31  5-MIN KDBQ 231730Z 35008KT 10SM SCT035 BKN048 05/M04 A3024 790 50 -100 350/08 RMK AO2
94908KDBQ DBQ20060323113510803/23/06 11:35:31  5-MIN KDBQ 231735Z 01006KT 10SM FEW037 BKN048 BKN060 06/M04 A3024 790 48 0 010/06 RMK AO2
94908KDBQ DBQ20060323114010803/23/06 11:40:31  5-MIN KDBQ 231740Z 02007KT 10SM FEW037 SCT048 BKN060 06/M04 A3023 790 46 0 020/07 RMK AO2
94908KDBQ DBQ20060323114510403/23/06 11:45:31  5-MIN KDBQ 231745Z 02008KT 10SM SCT037 OVC055 05/M04 A3023 790 52 -100 020/08 RMK AO2
94908KDBQ DBQ20060323115014503/23/06 11:50:31  5-MIN KDBQ 231750Z 35009KT 10SM SCT043 OVC055 05/M04 A3023 790 50 -100 350/09 RMK AO2 SLP248 60000 T00501044 10067 21006 50002
94908KDBQ DBQ20060323115514503/23/06 11:55:31  5-MIN KDBQ 231755Z 34008KT 10SM BKN046 OVC060 04/M06 A3023 790 48 -200 340/08 RMK AO2 SLP249 60000 T00441056 10067 21006 58011
94908KDBQ DBQ20060323120010403/23/06 12:00:31  5-MIN KDBQ 231800Z 32009KT 10SM BKN046 OVC060 05/M05 A3023 790 48 -100 310/09 RMK AO2
94908KDBQ DBQ20060323120510403/23/06 12:05:31  5-MIN KDBQ 231805Z 32009KT 10SM BKN046 OVC060 05/M04 A3023 790 50 -100 310/09 RMK AO2
94908KDBQ DBQ20060323121010403/23/06 12:10:31  5-MIN KDBQ 231810Z 33007KT 10SM BKN049 OVC060 05/M04 A3023 790 50 -100 330/07 RMK AO2
94908KDBQ DBQ20060323121510403/23/06 12:15:31  5-MIN KDBQ 231815Z 34009KT 10SM BKN049 OVC060 05/M04 A3023 790 50 -100 340/09 RMK AO2
94908KDBQ DBQ20060323122010403/23/06 12:20:31  5-MIN KDBQ 231820Z 34008KT 10SM BKN047 OVC055 04/M05 A3023 790 50 -200 340/08 RMK AO2
94908KDBQ DBQ20060323122510403/23/06 12:25:31  5-MIN KDBQ 231825Z 33008KT 10SM BKN046 OVC060 04/M05 A3023 790 50 -200 330/08 RMK AO2
94908KDBQ DBQ20060323123011103/23/06 12:30:31  5-MIN KDBQ 231830Z 32008KT 10SM SCT043 BKN050 OVC060 05/M05 A3023 790 48 -100 320/08 RMK AO2
94908KDBQ DBQ20060323123510403/23/06 12:35:31  5-MIN KDBQ 231835Z 31006KT 10SM SCT047 OVC060 05/M05 A3023 800 48 -100 310/06 RMK AO2
94908KDBQ DBQ20060323124010403/23/06 12:40:31  5-MIN KDBQ 231840Z 33007KT 10SM SCT047 OVC060 05/M05 A3023 800 48 -100 330/07 RMK AO2
94908KDBQ DBQ20060323124510403/23/06 12:45:31  5-MIN KDBQ 231845Z 34005KT 10SM SCT045 OVC060 05/M05 A3022 800 48 -100 340/05 RMK AO2
94908KDBQ DBQ20060323125012103/23/06 12:50:31  5-MIN KDBQ 231850Z 34008KT 10SM SCT045 OVC060 05/M04 A3022 800 50 -100 340/08 RMK AO2 SLP245 T00501044
94908KDBQ DBQ20060323125512103/23/06 12:55:31  5-MIN KDBQ 231855Z 34006KT 10SM SCT045 OVC060 05/M04 A3022 800 50 -100 340/06 RMK AO2 SLP245 T00501044
94908KDBQ DBQ20060323130010403/23/06 13:00:31  5-MIN KDBQ 231900Z 32007KT 10SM FEW045 OVC060 06/M04 A3022 800 48 -100 320/07 RMK AO2
94908KDBQ DBQ20060323130510403/23/06 13:05:31  5-MIN KDBQ 231905Z 29006KT 10SM SCT045 OVC060 05/M04 A3022 800 50 -100 290/06 RMK AO2
94908KDBQ DBQ20060323131010403/23/06 13:10:31  5-MIN KDBQ 231910Z 30007KT 10SM BKN045 OVC060 06/M04 A3022 810 50 -100 300/07 RMK AO2
94908KDBQ DBQ20060323131510403/23/06 13:15:31  5-MIN KDBQ 231915Z 32009KT 10SM SCT045 OVC060 06/M04 A3022 800 48 -100 320/09 RMK AO2
94908KDBQ DBQ20060323132010403/23/06 13:20:31  5-MIN KDBQ 231920Z 32008KT 10SM FEW047 OVC060 06/M04 A3022 810 48 -100 320/08 RMK AO2
94908KDBQ DBQ20060323132510103/23/06 13:25:31  5-MIN KDBQ 231925Z 33007KT 10SM FEW047 OVC055 06/M04 A3021 810 48 0 330/07 RMK AO2
94908KDBQ DBQ20060323133010103/23/06 13:30:31  5-MIN KDBQ 231930Z 34009KT 10SM FEW047 OVC055 06/M04 A3021 810 48 0 340/09 RMK AO2
94908KDBQ DBQ20060323133510403/23/06 13:35:31  5-MIN KDBQ 231935Z 34005KT 10SM FEW047 OVC055 05/M04 A3021 810 50 -100 340/05 RMK AO2
94908KDBQ DBQ20060323134010403/23/06 13:40:31  5-MIN KDBQ 231940Z 34010KT 10SM SCT045 OVC055 05/M04 A3021 810 50 -100 340/10 RMK AO2
94908KDBQ DBQ20060323134510403/23/06 13:45:31  5-MIN KDBQ 231945Z 33007KT 10SM SCT043 OVC055 05/M04 A3021 820 50 -100 330/07 RMK AO2
94908KDBQ DBQ20060323135012103/23/06 13:50:31  5-MIN KDBQ 231950Z 33008KT 10SM BKN043 OVC055 05/M04 A3021 810 50 -100 320/08 RMK AO2 SLP240 T00501044
94908KDBQ DBQ20060323135512703/23/06 13:55:31  5-MIN KDBQ 231955Z 30011G14KT 10SM BKN043 OVC055 05/M04 A3021 810 50 -100 300/11G14 RMK AO2 SLP240 T00501044
94908KDBQ DBQ20060323140010403/23/06 14:00:31  5-MIN KDBQ 232000Z 31009KT 10SM BKN043 OVC055 05/M04 A3021 810 50 -100 310/09 RMK AO2
94908KDBQ DBQ20060323140510403/23/06 14:05:31  5-MIN KDBQ 232005Z 32012KT 10SM SCT043 OVC055 05/M04 A3021 820 50 -100 320/12 RMK AO2
94908KDBQ DBQ20060323141010403/23/06 14:10:31  5-MIN KDBQ 232010Z 30011KT 10SM SCT043 OVC055 05/M04 A3020 820 50 -100 300/11 RMK AO2
94908KDBQ DBQ20060323141510403/23/06 14:15:31  5-MIN KDBQ 232015Z 32010KT 10SM FEW043 OVC055 05/M04 A3021 820 50 -100 310/10 RMK AO2
94908KDBQ DBQ20060323142010403/23/06 14:20:31  5-MIN KDBQ 232020Z 34012KT 10SM SCT043 OVC055 05/M04 A3020 820 50 -100 330/12 RMK AO2
94908KDBQ DBQ20060323142511103/23/06 14:25:31  5-MIN KDBQ 232025Z 31013KT 10SM FEW043 SCT049 OVC060 05/M04 A3020 820 52 -100 310/13 RMK AO2
94908KDBQ DBQ20060323143010403/23/06 14:30:31  5-MIN KDBQ 232030Z 31012KT 10SM FEW043 OVC055 05/M04 A3020 820 52 -100 310/12 RMK AO2
94908KDBQ DBQ20060323143510403/23/06 14:35:31  5-MIN KDBQ 232035Z 30012KT 10SM SCT041 OVC055 05/M04 A3020 820 52 -100 300/12 RMK AO2
94908KDBQ DBQ20060323144010403/23/06 14:40:31  5-MIN KDBQ 232040Z 32013KT 10SM BKN041 OVC055 04/M04 A3021 820 52 -200 320/13 RMK AO2
94908KDBQ DBQ20060323144510403/23/06 14:45:31  5-MIN KDBQ 232045Z 32013KT 10SM BKN041 OVC055 04/M04 A3021 810 55 -200 320/13 RMK AO2
94908KDBQ DBQ20060323145012703/23/06 14:50:31  5-MIN KDBQ 232050Z 33014KT 10SM BKN041 OVC055 04/M04 A3021 810 55 -200 330/14 RMK AO2 SLP240 T00441039 58011
94908KDBQ DBQ20060323145512703/23/06 14:55:31  5-MIN KDBQ 232055Z 32014KT 10SM BKN041 OVC050 04/M04 A3021 810 52 -200 320/14 RMK AO2 SLP241 T00441044 55008
94908KDBQ DBQ20060323150010403/23/06 15:00:31  5-MIN KDBQ 232100Z 32012KT 10SM BKN042 OVC050 04/M04 A3021 810 52 -200 320/12 RMK AO2
94908KDBQ DBQ20060323150509703/23/06 15:05:31  5-MIN KDBQ 232105Z 33011KT 10SM OVC044 04/M04 A3021 810 52 -200 330/11 RMK AO2
94908KDBQ DBQ20060323151009703/23/06 15:10:31  5-MIN KDBQ 232110Z 34011KT 10SM OVC044 04/M04 A3021 810 52 -200 340/11 RMK AO2
94908KDBQ DBQ20060323151509703/23/06 15:15:31  5-MIN KDBQ 232115Z 33011KT 10SM OVC046 04/M04 A3021 810 55 -200 330/11 RMK AO2
94908KDBQ DBQ20060323152009703/23/06 15:20:31  5-MIN KDBQ 232120Z 34010KT 10SM OVC046 04/M04 A3021 810 55 -200 340/10 RMK AO2
94908KDBQ DBQ20060323152510403/23/06 15:25:31  5-MIN KDBQ 232125Z 34014KT 10SM SCT039 OVC046 04/M04 A3021 810 55 -200 340/14 RMK AO2
94908KDBQ DBQ20060323153010403/23/06 15:30:31  5-MIN KDBQ 232130Z 34012KT 10SM SCT037 OVC046 04/M04 A3021 810 57 -200 340/12 RMK AO2
94908KDBQ DBQ20060323153510403/23/06 15:35:31  5-MIN KDBQ 232135Z 32012KT 10SM SCT038 OVC048 04/M04 A3021 810 57 -200 320/12 RMK AO2
94908KDBQ DBQ20060323154010403/23/06 15:40:31  5-MIN KDBQ 232140Z 31013KT 10SM BKN040 OVC048 04/M04 A3021 810 57 -300 310/13 RMK AO2
94908KDBQ DBQ20060323154509703/23/06 15:45:31  5-MIN KDBQ 232145Z 33010KT 10SM OVC042 04/M04 A3021 810 57 -300 330/10 RMK AO2
94908KDBQ DBQ20060323155011403/23/06 15:50:31  5-MIN KDBQ 232150Z 33010KT 10SM OVC042 04/M04 A3021 810 57 -300 330/10 RMK AO2 SLP243 T00391039
94908KDBQ DBQ20060323155512103/23/06 15:55:31  5-MIN KDBQ 232155Z 33013KT 10SM BKN042 OVC050 04/M04 A3021 810 57 -300 320/13 RMK AO2 SLP244 T00391039
94908KDBQ DBQ20060323160010403/23/06 16:00:31  5-MIN KDBQ 232200Z 33012KT 10SM BKN040 OVC048 03/M04 A3021 810 59 -300 330/12 RMK AO2
94908KDBQ DBQ20060323160509703/23/06 16:05:31  5-MIN KDBQ 232205Z 33011KT 10SM OVC043 03/M04 A3021 810 59 -300 320/11 RMK AO2
94908KDBQ DBQ20060323161009703/23/06 16:10:31  5-MIN KDBQ 232210Z 32013KT 10SM OVC043 03/M04 A3021 810 57 -300 320/13 RMK AO2
94908KDBQ DBQ20060323161509703/23/06 16:15:31  5-MIN KDBQ 232215Z 33012KT 10SM OVC043 03/M04 A3022 810 57 -300 330/12 RMK AO2
94908KDBQ DBQ20060323162009703/23/06 16:20:31  5-MIN KDBQ 232220Z 33012KT 10SM OVC043 03/M04 A3022 810 57 -300 330/12 RMK AO2
94908KDBQ DBQ20060323162509703/23/06 16:25:31  5-MIN KDBQ 232225Z 33012KT 10SM OVC043 03/M04 A3022 810 59 -300 330/12 RMK AO2
94908KDBQ DBQ20060323163010403/23/06 16:30:31  5-MIN KDBQ 232230Z 34011KT 10SM FEW034 OVC043 03/M04 A3022 800 59 -300 330/11 RMK AO2
94908KDBQ DBQ20060323163510403/23/06 16:35:31  5-MIN KDBQ 232235Z 34012KT 10SM SCT034 OVC043 03/M04 A3022 800 61 -400 340/12 RMK AO2
94908KDBQ DBQ20060323164009703/23/06 16:40:31  5-MIN KDBQ 232240Z 34011KT 10SM OVC041 03/M04 A3022 800 61 -400 340/11 RMK AO2
94908KDBQ DBQ20060323164509703/23/06 16:45:31  5-MIN KDBQ 232245Z 33012KT 10SM OVC039 03/M04 A3022 800 61 -400 330/12 RMK AO2
94908KDBQ DBQ20060323165011403/23/06 16:50:31  5-MIN KDBQ 232250Z 33012KT 10SM OVC041 03/M03 A3022 800 64 -400 330/12 RMK AO2 SLP246 T00281033
94908KDBQ DBQ20060323165511403/23/06 16:55:31  5-MIN KDBQ 232255Z 34013KT 10SM OVC041 03/M03 A3022 800 64 -400 340/13 RMK AO2 SLP245 T00281033
94908KDBQ DBQ20060323170009703/23/06 17:00:31  5-MIN KDBQ 232300Z 34012KT 10SM OVC039 03/M03 A3022 800 64 -400 340/12 RMK AO2
94908KDBQ DBQ20060323170509703/23/06 17:05:31  5-MIN KDBQ 232305Z 34012KT 10SM OVC039 03/M03 A3022 800 64 -400 340/12 RMK AO2
94908KDBQ DBQ20060323171010403/23/06 17:10:31  5-MIN KDBQ 232310Z 34012KT 10SM BKN039 OVC050 03/M03 A3022 800 67 -400 340/12 RMK AO2
94908KDBQ DBQ20060323171511103/23/06 17:15:31  5-MIN KDBQ 232315Z 34013KT 10SM FEW031 BKN041 OVC050 02/M03 A3023 800 69 -500 340/13 RMK AO2
94908KDBQ DBQ20060323172011103/23/06 17:20:31  5-MIN KDBQ 232320Z 35013KT 10SM FEW029 BKN039 OVC050 02/M03 A3023 800 69 -500 350/13 RMK AO2
94908KDBQ DBQ20060323172511103/23/06 17:25:31  5-MIN KDBQ 232325Z 34013KT 10SM SCT027 BKN039 OVC050 02/M03 A3023 800 69 -500 340/13 RMK AO2
94908KDBQ DBQ20060323173012603/23/06 17:30:31  5-MIN KDBQ 232330Z 34012KT 6SM -SN SCT025 BKN041 OVC050 02/M03 A3023 800 72 -500 340/12 RMK AO2 SNB27 P0000
94908KDBQ DBQ20060323173512603/23/06 17:35:31  5-MIN KDBQ 232335Z 35012KT 3SM -SN BKN025 BKN035 OVC050 02/M02 A3023 790 75 -500 340/12 RMK AO2 SNB27 P0000
94908KDBQ DBQ20060323174012603/23/06 17:40:31  5-MIN KDBQ 232340Z 34010KT 3SM -SN BKN025 BKN035 OVC047 01/M02 A3023 790 78 -600 340/10 RMK AO2 SNB27 P0000
94908KDBQ DBQ20060323174512603/23/06 17:45:31  5-MIN KDBQ 232345Z 34009KT 3SM -SN BKN025 BKN035 OVC046 01/M02 A3023 790 82 -600 340/09 RMK AO2 SNB27 P0000
94908KDBQ DBQ20060323175016003/23/06 17:50:31  5-MIN KDBQ 232350Z 34010KT 3SM -SN BKN025 OVC035 01/M02 A3023 800 82 -600 340/10 RMK AO2 SNB27 SLP248 P0000 60000 T00111017 10056 20011 55008
94908KDBQ DBQ20060323175516403/23/06 17:55:31  5-MIN KDBQ 232355Z 34009KT 2 1/2SM -SN BKN023 OVC037 01/M02 A3023 800 82 -600 340/09 RMK AO2 SNB27 SLP248 P0000 60000 T00111017 10056 20011 52006
94908KDBQ DBQ20060323180012003/23/06 18:00:31  5-MIN KDBQ 240000Z 34007KT 2SM -SN SCT021 BKN026 OVC037 01/M02 A3023 800 82 -600 340/07 RMK AO2 P0000
94908KDBQ DBQ20060323180511603/23/06 18:05:31  5-MIN KDBQ 240005Z 34006KT 2SM -SN BR BKN024 OVC035 01/M01 A3023 800 85 -600 340/06 RMK AO2 P0000
94908KDBQ DBQ20060323181011603/23/06 18:10:31  5-MIN KDBQ 240010Z 34007KT 2SM -SN BR BKN024 OVC035 01/M01 A3023 800 85 -600 340/07 RMK AO2 P0000
94908KDBQ DBQ20060323181512703/23/06 18:15:31  5-MIN KDBQ 240015Z 34008KT 1 3/4SM -SN BR SCT022 BKN035 OVC043 01/M01 A3023 800 89 -700 340/08 RMK AO2 P0000
94908KDBQ DBQ20060323182012703/23/06 18:20:31  5-MIN KDBQ 240020Z 34008KT 1 1/2SM -SN BR SCT020 BKN029 OVC040 01/M01 A3023 800 89 -700 340/08 RMK AO2 P0000
94908KDBQ DBQ20060323182512703/23/06 18:25:31  5-MIN KDBQ 240025Z 33008KT 1 3/4SM -SN BR SCT020 BKN035 OVC044 01/M01 A3023 800 89 -700 330/08 RMK AO2 P0000
94908KDBQ DBQ20060323183012303/23/06 18:30:31  5-MIN KDBQ 240030Z 34008KT 2SM -SN BR FEW020 BKN035 OVC044 01/M01 A3023 800 89 -700 340/08 RMK AO2 P0000
94908KDBQ DBQ20060323183512303/23/06 18:35:31  5-MIN KDBQ 240035Z 34008KT 2SM -SN BR FEW016 BKN035 OVC044 01/M01 A3023 800 89 -700 340/08 RMK AO2 P0000
94908KDBQ DBQ20060323184012303/23/06 18:40:31  5-MIN KDBQ 240040Z 34007KT 2SM -SN BR FEW014 BKN035 OVC044 01/M01 A3023 800 89 -700 340/07 RMK AO2 P0000
94908KDBQ DBQ20060323184512703/23/06 18:45:31  5-MIN KDBQ 240045Z 34007KT 1 3/4SM -SN BR SCT014 BKN035 OVC044 01/M01 A3023 800 89 -700 340/07 RMK AO2 P0000
94908KDBQ DBQ20060323185012703/23/06 18:50:31  5-MIN KDBQ 240050Z 34009KT 1 1/2SM -SN BR BKN012 BKN035 OVC044 00/M01 A3022 800 92 -700 340/09 RMK AO2 P0000
94908KDBQ DBQ20060323185514403/23/06 18:55:31  5-MIN KDBQ 240055Z 34008KT 1 1/2SM -SN BR SCT012 BKN027 OVC035 00/M01 A3022 800 92 -700 340/08 RMK AO2 SLP247 P0000 T00001011
94908KDBQ DBQ20060323190012703/23/06 19:00:31  5-MIN KDBQ 240100Z 33008KT 1 3/4SM -SN BR SCT018 BKN027 OVC035 00/M01 A3022 800 92 -700 330/08 RMK AO2 P0001
94908KDBQ DBQ20060323190512703/23/06 19:05:31  5-MIN KDBQ 240105Z 34008KT 1 3/4SM -SN BR BKN024 BKN034 OVC045 00/M01 A3022 800 92 -700 340/08 RMK AO2 P0001
94908KDBQ DBQ20060323191012303/23/06 19:10:31  5-MIN KDBQ 240110Z 34007KT 2SM -SN BR FEW016 BKN026 OVC034 00/M01 A3022 800 92 -700 340/07 RMK AO2 P0001
94908KDBQ DBQ20060323191512303/23/06 19:15:31  5-MIN KDBQ 240115Z 34008KT 2SM -SN BR FEW005 SCT023 OVC034 00/M01 A3022 800 96 -700 340/08 RMK AO2 P0001
94908KDBQ DBQ20060323192012303/23/06 19:20:31  5-MIN KDBQ 240120Z 34009KT 2SM -SN BR FEW005 BKN033 OVC045 00/M01 A3022 800 92 -700 340/09 RMK AO2 P0001
94908KDBQ DBQ20060323192512303/23/06 19:25:31  5-MIN KDBQ 240125Z 34008KT 2SM -SN BR FEW007 BKN031 OVC045 00/M01 A3022 800 92 -700 340/08 RMK AO2 P0001
94908KDBQ DBQ20060323193012703/23/06 19:30:31  5-MIN KDBQ 240130Z 34008KT 1 3/4SM -SN BR SCT004 BKN029 OVC045 00/M01 A3022 800 96 -700 340/08 RMK AO2 P0001
94908KDBQ DBQ20060323193512303/23/06 19:35:31  5-MIN KDBQ 240135Z 34007KT 2SM -SN BR BKN004 BKN020 OVC030 00/M01 A3022 800 96 -700 340/07 RMK AO2 P0001
94908KDBQ DBQ20060323194012303/23/06 19:40:31  5-MIN KDBQ 240140Z 35007KT 2SM -SN BR BKN004 BKN008 OVC030 00/M01 A3022 800 96 -700 350/07 RMK AO2 P0001
94908KDBQ DBQ20060323194512303/23/06 19:45:31  5-MIN KDBQ 240145Z 35007KT 2SM -SN BR BKN004 BKN008 OVC030 00/M01 A3022 800 96 -700 350/07 RMK AO2 P0001
94908KDBQ DBQ20060323195014003/23/06 19:50:31  5-MIN KDBQ 240150Z 35006KT 2SM -SN BR BKN004 BKN008 OVC028 00/M01 A3022 800 92 -700 350/06 RMK AO2 SLP247 P0001 T00001011
94908KDBQ DBQ20060323195515403/23/06 19:55:31  5-MIN KDBQ 240155Z AUTO 35009KT 2 1/2SM -SN BR BKN004 OVC010 00/M01 A3022 800 92 -700 350/09 RMK AO2 CIG 003V008 SLP247 P0001 T00001011
94908KDBQ DBQ20060323200013003/23/06 20:00:31  5-MIN KDBQ 240200Z AUTO 34009KT 2 1/2SM -SN BR BKN004 OVC010 00/M01 A3022 800 92 -700 340/09 RMK AO2 P0000 TSNO
94908KDBQ DBQ20060323200513703/23/06 20:05:31  5-MIN KDBQ 240205Z AUTO 35009KT 2 1/2SM -SN BR BKN004 BKN010 OVC024 00/M01 A3022 800 92 -700 340/09 RMK AO2 P0000 TSNO
94908KDBQ DBQ20060323201013303/23/06 20:10:31  5-MIN KDBQ 240210Z AUTO 35008KT 2SM -SN BR BKN004 BKN010 OVC026 00/M01 A3022 800 92 -700 350/08 RMK AO2 P0000 TSNO
94908KDBQ DBQ20060323201513303/23/06 20:15:31  5-MIN KDBQ 240215Z AUTO 35009KT 2SM -SN BR BKN004 BKN009 OVC031 00/M01 A3022 800 92 -700 350/09 RMK AO2 P0000 TSNO
94908KDBQ DBQ20060323202013303/23/06 20:20:31  5-MIN KDBQ 240220Z AUTO 34009KT 2SM -SN BR BKN006 BKN029 OVC043 00/M01 A3022 800 92 -700 340/09 RMK AO2 P0000 TSNO
94908KDBQ DBQ20060323202512603/23/06 20:25:31  5-MIN KDBQ 240225Z AUTO 35008KT 2SM -SN BR BKN006 OVC034 00/M01 A3022 800 92 -700 350/08 RMK AO2 P0000 TSNO
94908KDBQ DBQ20060323203012603/23/06 20:30:31  5-MIN KDBQ 240230Z AUTO 34008KT 2SM -SN BR BKN006 OVC034 00/M01 A3022 800 92 -700 340/08 RMK AO2 P0000 TSNO
94908KDBQ DBQ20060323203513303/23/06 20:35:31  5-MIN KDBQ 240235Z AUTO 34009KT 2SM -SN BR BKN006 BKN018 OVC034 00/M01 A3022 800 92 -700 340/09 RMK AO2 P0000 TSNO
94908KDBQ DBQ20060323204013303/23/06 20:40:31  5-MIN KDBQ 240240Z AUTO 35008KT 2SM -SN BR BKN006 BKN020 OVC034 00/M01 A3022 800 92 -700 350/08 RMK AO2 P0000 TSNO
94908KDBQ DBQ20060323204513303/23/06 20:45:31  5-MIN KDBQ 240245Z AUTO 35009KT 2SM -SN BR BKN006 BKN017 OVC036 00/M01 A3022 800 92 -700 340/09 RMK AO2 P0000 TSNO
94908KDBQ DBQ20060323205016203/23/06 20:50:31  5-MIN KDBQ 240250Z AUTO 35007KT 2SM -SN BR BKN006 BKN017 OVC024 00/M01 A3022 800 92 -700 340/07 RMK AO2 SLP245 P0001 60002 T00001011 52006 TSNO
94908KDBQ DBQ20060323205515903/23/06 20:55:31  5-MIN KDBQ 240255Z AUTO 34009KT 2 1/2SM -SN BR BKN006 OVC017 00/M01 A3022 800 92 -700 340/09 RMK AO2 SLP245 P0001 60002 T00001011 56002 TSNO
94908KDBQ DBQ20060323210014503/23/06 21:00:31  5-MIN KDBQ 240300Z AUTO 34009KT 2SM -SN BR BKN006 BKN017 OVC022 00/M01 A3022 800 92 -700 340/09 RMK AO2 CIG 003V008 P0000 TSNO
94908KDBQ DBQ20060323210513803/23/06 21:05:31  5-MIN KDBQ 240305Z AUTO 35009KT 2SM -SN BR BKN006 OVC015 00/M01 A3022 800 92 -700 340/09 RMK AO2 CIG 003V008 P0000 TSNO
94908KDBQ DBQ20060323211013803/23/06 21:10:31  5-MIN KDBQ 240310Z AUTO 35007KT 2SM -SN BR BKN006 OVC015 00/M01 A3022 800 92 -700 350/07 RMK AO2 CIG 003V008 P0000 TSNO
94908KDBQ DBQ20060323211514503/23/06 21:15:31  5-MIN KDBQ 240315Z AUTO 35009KT 2SM -SN BR BKN006 BKN015 OVC026 00/M01 A3022 800 92 -700 350/09 RMK AO2 CIG 003V008 P0000 TSNO
94908KDBQ DBQ20060323212014903/23/06 21:20:31  5-MIN KDBQ 240320Z AUTO 35010KT 2 1/2SM -SN BR BKN006 BKN015 OVC026 00/M01 A3022 800 92 -700 340/10 RMK AO2 CIG 003V008 P0000 TSNO
94908KDBQ DBQ20060323212514903/23/06 21:25:31  5-MIN KDBQ 240325Z AUTO 34009KT 2 1/2SM -SN BR BKN006 BKN015 OVC026 00/M01 A3022 800 92 -700 340/09 RMK AO2 CIG 003V008 P0000 TSNO
94908KDBQ DBQ20060323213014503/23/06 21:30:31  5-MIN KDBQ 240330Z AUTO 34010KT 2SM -SN BR BKN006 BKN015 OVC026 00/M01 A3022 800 92 -700 340/10 RMK AO2 CIG 003V008 P0000 TSNO
94908KDBQ DBQ20060323213514203/23/06 21:35:31  5-MIN KDBQ 240335Z AUTO 34009KT 1 3/4SM -SN BR BKN006 OVC026 00/M01 A3022 810 92 -700 340/09 RMK AO2 CIG 003V008 P0000 TSNO
94908KDBQ DBQ20060323214012603/23/06 21:40:31  5-MIN KDBQ 240340Z AUTO 34009KT 2SM -SN BR BKN006 OVC026 00/M01 A3021 810 92 -700 340/09 RMK AO2 P0000 TSNO
94908KDBQ DBQ20060323214514203/23/06 21:45:31  5-MIN KDBQ 240345Z AUTO 34008KT 2 1/2SM -SN BR BKN006 OVC026 00/M01 A3022 810 92 -700 340/08 RMK AO2 CIG 003V007 P0000 TSNO
94908KDBQ DBQ20060323215015903/23/06 21:50:31  5-MIN KDBQ 240350Z AUTO 34008KT 2 1/2SM -SN BR BKN006 OVC023 00/M01 A3021 810 92 -700 340/08 RMK AO2 CIG 003V009 SLP243 P0000 T00001011 TSNO
94908KDBQ DBQ20060323215515903/23/06 21:55:31  5-MIN KDBQ 240355Z AUTO 34010KT 2 1/2SM -SN BR BKN006 OVC025 00/M01 A3021 810 92 -700 340/10 RMK AO2 CIG 003V009 SLP242 P0000 T00001011 TSNO
94908KDBQ DBQ20060323220014503/23/06 22:00:31  5-MIN KDBQ 240400Z AUTO 34009KT 3SM -SN BR BKN006 BKN015 OVC021 00/M01 A3021 810 92 -700 340/09 RMK AO2 CIG 003V009 P0000 TSNO
94908KDBQ DBQ20060323220514903/23/06 22:05:31  5-MIN KDBQ 240405Z AUTO 35008KT 2 1/2SM -SN BR BKN006 BKN009 OVC023 00/M01 A3021 810 92 -700 350/08 RMK AO2 CIG 003V007 P0000 TSNO
94908KDBQ DBQ20060323221015003/23/06 22:10:31  5-MIN KDBQ 240410Z AUTO 35008KT 2 1/2SM -SN BR BKN006 BKN011 OVC014 M01/M01 A3021 810 96 -800 350/08 RMK AO2 CIG 003V007 P0000 TSNO
94908KDBQ DBQ20060323221514303/23/06 22:15:31  5-MIN KDBQ 240415Z AUTO 35008KT 2 1/2SM -SN BR BKN006 OVC011 M01/M01 A3021 810 96 -800 350/08 RMK AO2 CIG 004V010 P0000 TSNO
94908KDBQ DBQ20060323222015003/23/06 22:20:31  5-MIN KDBQ 240420Z AUTO 36008KT 2 1/2SM -SN BR SCT006 BKN011 OVC014 M01/M01 A3021 810 96 -800 350/08 RMK AO2 CIG 007V011 P0000 TSNO
94908KDBQ DBQ20060323222514303/23/06 22:25:31  5-MIN KDBQ 240425Z AUTO 36007KT 2 1/2SM -SN BR BKN006 OVC011 M01/M01 A3021 810 96 -800 360/07 RMK AO2 CIG 003V008 P0000 TSNO
94908KDBQ DBQ20060323223014303/23/06 22:30:31  5-MIN KDBQ 240430Z AUTO 35009KT 2 1/2SM -SN BR BKN006 OVC011 M01/M01 A3021 810 96 -800 350/09 RMK AO2 CIG 003V009 P0000 TSNO
94908KDBQ DBQ20060323223514303/23/06 22:35:31  5-MIN KDBQ 240435Z AUTO 35008KT 2 1/2SM -SN BR BKN006 OVC011 M01/M01 A3021 810 96 -800 350/08 RMK AO2 CIG 003V010 P0000 TSNO
94908KDBQ DBQ20060323224013903/23/06 22:40:31  5-MIN KDBQ 240440Z AUTO 35009KT 2SM -SN BR BKN004 OVC009 M01/M02 A3020 820 92 -800 350/09 RMK AO2 CIG 003V006 P0000 TSNO
94908KDBQ DBQ20060323224513203/23/06 22:45:31  5-MIN KDBQ 240445Z AUTO 36008KT 2SM -SN BR OVC006 M01/M02 A3020 820 92 -800 360/08 RMK AO2 CIG 003V009 P0001 TSNO
94908KDBQ DBQ20060323225015303/23/06 22:50:31  5-MIN KDBQ 240450Z AUTO 36009KT 2 1/2SM -SN BR OVC006 M01/M02 A3020 820 92 -800 360/09 RMK AO2 CIG 003V009 SLP238 P0001 T10061017 TSNO
94908KDBQ DBQ20060323225514903/23/06 22:55:31  5-MIN KDBQ 240455Z AUTO 36008KT 2SM -SN BR OVC006 M01/M02 A3020 820 92 -800 350/08 RMK AO2 CIG 003V009 SLP237 P0001 T10061017 TSNO
94908KDBQ DBQ20060323230013203/23/06 23:00:31  5-MIN KDBQ 240500Z AUTO 35007KT 2SM -SN BR OVC006 M01/M02 A3020 820 92 -800 350/07 RMK AO2 CIG 003V009 P0000 TSNO
94908KDBQ DBQ20060323230513203/23/06 23:05:31  5-MIN KDBQ 240505Z AUTO 36007KT 2SM -SN BR OVC006 M01/M02 A3020 820 92 -800 350/07 RMK AO2 CIG 003V009 P0000 TSNO
94908KDBQ DBQ20060323231013203/23/06 23:10:31  5-MIN KDBQ 240510Z AUTO 36008KT 2SM -SN BR OVC006 M01/M02 A3020 820 92 -800 360/08 RMK AO2 CIG 003V008 P0000 TSNO
94908KDBQ DBQ20060323231513203/23/06 23:15:31  5-MIN KDBQ 240515Z AUTO 35008KT 3SM -SN BR OVC004 M01/M02 A3020 820 92 -800 350/08 RMK AO2 CIG 003V008 P0000 TSNO
94908KDBQ DBQ20060323232013903/23/06 23:20:31  5-MIN KDBQ 240520Z AUTO 35008KT 4SM -SN BR BKN004 OVC009 M01/M02 A3020 820 92 -800 350/08 RMK AO2 CIG 003V006 P0000 TSNO
94908KDBQ DBQ20060323232513903/23/06 23:25:31  5-MIN KDBQ 240525Z AUTO 36008KT 4SM -SN BR BKN004 OVC008 M01/M02 A3020 820 92 -800 360/08 RMK AO2 CIG 003V006 P0000 TSNO
94908KDBQ DBQ20060323233013903/23/06 23:30:31  5-MIN KDBQ 240530Z AUTO 36007KT 3SM -SN BR BKN004 OVC008 M01/M02 A3020 830 92 -800 350/07 RMK AO2 CIG 003V006 P0000 TSNO
94908KDBQ DBQ20060323233513203/23/06 23:35:31  5-MIN KDBQ 240535Z AUTO 36007KT 3SM -SN BR OVC004 M01/M02 A3019 830 92 -800 360/07 RMK AO2 CIG 003V010 P0000 TSNO
94908KDBQ DBQ20060323234013903/23/06 23:40:31  5-MIN KDBQ 240540Z AUTO 36007KT 3SM -SN BR BKN004 OVC008 M01/M02 A3019 830 92 -800 360/07 RMK AO2 CIG 003V006 P0000 TSNO
94908KDBQ DBQ20060323234513903/23/06 23:45:31  5-MIN KDBQ 240545Z AUTO 36007KT 4SM -SN BR BKN004 OVC009 M01/M02 A3019 830 92 -800 360/07 RMK AO2 CIG 003V007 P0000 TSNO
94908KDBQ DBQ20060323235019003/23/06 23:50:31  5-MIN KDBQ 240550Z AUTO 01007KT 5SM -SN BR BKN004 OVC009 M01/M02 A3019 830 92 -800 010/07 RMK AO2 CIG 003V006 SLP235 P0000 60003 T10061017 10011 21006 400671039 56002 TSNO
94908KDBQ DBQ20060323235518303/23/06 23:55:31  5-MIN KDBQ 240555Z AUTO 02008KT 6SM -SN BR OVC006 M01/M02 A3019 830 92 -800 020/08 RMK AO2 CIG 003V009 SLP235 P0000 60003 T10061017 10011 21006 400671039 57009 TSNO
94908KDBQ DBQ20060324000012603/24/06 00:00:38  5-MIN KDBQ 240600Z AUTO 01006KT 7SM BKN004 OVC009 M01/M02 A3019 830 92 -800 010/06 RMK AO2 SNE00 P0000 TSNO
94908KDBQ DBQ20060324000513203/24/06 00:05:31  5-MIN KDBQ 240605Z AUTO 02008KT 6SM -SN BR OVC006 M01/M02 A3019 830 92 -800 020/08 RMK AO2 CIG 003V009 P0000 TSNO
94908KDBQ DBQ20060324001013203/24/06 00:10:31  5-MIN KDBQ 240610Z AUTO 01007KT 5SM -SN BR OVC006 M01/M02 A3019 830 92 -800 010/07 RMK AO2 CIG 003V009 P0000 TSNO
94908KDBQ DBQ20060324001513203/24/06 00:15:33  5-MIN KDBQ 240615Z AUTO 01008KT 6SM -SN BR OVC006 M01/M02 A3019 830 92 -800 010/08 RMK AO2 CIG 003V009 P0000 TSNO
94908KDBQ DBQ20060324002013903/24/06 00:20:31  5-MIN KDBQ 240620Z AUTO 36006KT 6SM -SN BR BKN006 OVC010 M01/M02 A3019 830 92 -800 360/06 RMK AO2 CIG 003V007 P0000 TSNO
94908KDBQ DBQ20060324002513903/24/06 00:25:31  5-MIN KDBQ 240625Z AUTO 36007KT 6SM -SN BR BKN006 OVC010 M01/M02 A3019 830 92 -800 360/07 RMK AO2 CIG 003V007 P0000 TSNO
94908KDBQ DBQ20060324003012903/24/06 00:30:31  5-MIN KDBQ 240630Z AUTO 36006KT 7SM -SN OVC006 M01/M02 A3019 830 92 -800 360/06 RMK AO2 CIG 003V011 P0000 TSNO
94908KDBQ DBQ20060324003512903/24/06 00:35:31  5-MIN KDBQ 240635Z AUTO 36007KT 7SM -SN OVC006 M01/M02 A3019 830 92 -800 360/07 RMK AO2 CIG 003V007 P0000 TSNO
94908KDBQ DBQ20060324004013103/24/06 00:40:31  5-MIN KDBQ 240640Z AUTO 01006KT 7SM OVC006 M01/M02 A3019 830 92 -800 360/06 RMK AO2 SNE40 CIG 004V011 P0000 TSNO
94908KDBQ DBQ20060324004512403/24/06 00:45:31  5-MIN KDBQ 240645Z AUTO 01007KT 8SM -SN BKN006 OVC009 M01/M02 A3019 830 92 -800 010/07 RMK AO2 P0000 TSNO
94908KDBQ DBQ20060324005013403/24/06 00:50:31  5-MIN KDBQ 240650Z AUTO 01006KT 7SM -SN OVC006 M01/M02 A3019 830 92 -800 360/06 RMK AO2 SLP234 P0000 T10061017 TSNO
94908KDBQ DBQ20060324005514903/24/06 00:55:31  5-MIN KDBQ 240655Z AUTO 01007KT 5SM -SN BR OVC006 M01/M02 A3019 830 92 -800 360/07 RMK AO2 CIG 004V009 SLP234 P0000 T10061017 TSNO
94908KDBQ DBQ20060324010013203/24/06 01:00:31  5-MIN KDBQ 240700Z AUTO 36006KT 4SM -SN BR OVC006 M01/M02 A3019 830 92 -800 360/06 RMK AO2 CIG 004V009 P0000 TSNO
94908KDBQ DBQ20060324010513203/24/06 01:05:31  5-MIN KDBQ 240705Z AUTO 36006KT 3SM -SN BR OVC006 M01/M02 A3019 830 92 -800 360/06 RMK AO2 CIG 004V009 P0000 TSNO
94908KDBQ DBQ20060324011013903/24/06 01:10:31  5-MIN KDBQ 240710Z AUTO 01006KT 3SM -SN BR BKN004 OVC009 M01/M02 A3019 830 92 -800 360/06 RMK AO2 CIG 003V007 P0000 TSNO
94908KDBQ DBQ20060324011513203/24/06 01:15:31  5-MIN KDBQ 240715Z AUTO 36006KT 5SM -SN BR OVC004 M01/M02 A3019 830 92 -800 360/06 RMK AO2 CIG 003V008 P0000 TSNO
94908KDBQ DBQ20060324012013203/24/06 01:20:31  5-MIN KDBQ 240720Z AUTO 36007KT 6SM -SN BR OVC006 M01/M02 A3019 830 92 -800 360/07 RMK AO2 CIG 003V008 P0000 TSNO
94908KDBQ DBQ20060324012513203/24/06 01:25:31  5-MIN KDBQ 240725Z AUTO 01007KT 6SM -SN BR OVC006 M01/M02 A3019 830 92 -800 360/07 RMK AO2 CIG 003V011 P0000 TSNO
94908KDBQ DBQ20060324013013203/24/06 01:30:31  5-MIN KDBQ 240730Z AUTO 36007KT 6SM -SN BR OVC006 M01/M02 A3019 830 92 -800 360/07 RMK AO2 CIG 003V011 P0000 TSNO
94908KDBQ DBQ20060324013513903/24/06 01:35:31  5-MIN KDBQ 240735Z AUTO 36007KT 5SM -SN BR BKN006 OVC009 M01/M02 A3019 830 92 -800 360/07 RMK AO2 CIG 003V007 P0000 TSNO
94908KDBQ DBQ20060324014013203/24/06 01:40:31  5-MIN KDBQ 240740Z AUTO 36008KT 4SM -SN BR OVC006 M01/M02 A3019 830 92 -800 360/08 RMK AO2 CIG 004V011 P0000 TSNO
94908KDBQ DBQ20060324014513403/24/06 01:45:31  5-MIN KDBQ 240745Z AUTO 36008KT 4SM -SN BR SCT006 BKN010 OVC018 M01/M02 A3019 830 92 -800 360/08 RMK AO2 P0000 TSNO
94908KDBQ DBQ20060324015015103/24/06 01:50:31  5-MIN KDBQ 240750Z AUTO 36007KT 3SM -SN BR BKN008 BKN016 OVC032 M01/M02 A3019 830 92 -800 360/07 RMK AO2 SLP234 P0000 T10061017 TSNO
94908KDBQ DBQ20060324015515103/24/06 01:55:31  5-MIN KDBQ 240755Z AUTO 36006KT 4SM -SN BR SCT008 BKN012 OVC032 M01/M02 A3019 830 96 -800 360/06 RMK AO2 SLP233 P0000 T10111017 TSNO
94908KDBQ DBQ20060324020013403/24/06 02:00:31  5-MIN KDBQ 240800Z AUTO 36005KT 4SM -SN BR FEW008 BKN012 OVC034 M01/M02 A3019 830 96 -800 360/05 RMK AO2 P0000 TSNO
94908KDBQ DBQ20060324020513403/24/06 02:05:31  5-MIN KDBQ 240805Z AUTO 35006KT 6SM -SN BR FEW008 BKN012 OVC034 M01/M02 A3019 830 96 -800 350/06 RMK AO2 P0000 TSNO
94908KDBQ DBQ20060324021013403/24/06 02:10:31  5-MIN KDBQ 240810Z AUTO 36005KT 6SM -SN BR BKN012 BKN017 OVC034 M01/M02 A3019 830 96 -800 360/05 RMK AO2 P0000 TSNO
94908KDBQ DBQ20060324021512703/24/06 02:15:31  5-MIN KDBQ 240815Z AUTO 36005KT 6SM -SN BR BKN012 OVC032 M01/M02 A3019 830 96 -800 360/05 RMK AO2 P0000 TSNO
94908KDBQ DBQ20060324022012703/24/06 02:20:31  5-MIN KDBQ 240820Z AUTO 01004KT 6SM -SN BR BKN012 OVC055 M01/M02 A3018 840 96 -800 010/04 RMK AO2 P0000 TSNO
94908KDBQ DBQ20060324022513103/24/06 02:25:31  5-MIN KDBQ 240825Z AUTO 01005KT 7SM -SN BKN012 BKN060 OVC070 M01/M02 A3018 840 96 -800 010/05 RMK AO2 P0000 TSNO
94908KDBQ DBQ20060324023013303/24/06 02:30:31  5-MIN KDBQ 240830Z AUTO 01004KT 8SM SCT012 BKN060 OVC080 M01/M02 A3018 840 92 -800 010/04 RMK AO2 SNE26 P0000 TSNO
94908KDBQ DBQ20060324023513303/24/06 02:35:31  5-MIN KDBQ 240835Z AUTO 01004KT 9SM SCT012 BKN070 OVC085 M01/M02 A3018 840 92 -800 010/04 RMK AO2 SNE26 P0000 TSNO
94908KDBQ DBQ20060324024013303/24/06 02:40:31  5-MIN KDBQ 240840Z AUTO 36004KT 9SM FEW012 SCT060 OVC085 M01/M02 A3018 840 92 -800 360/04 RMK AO2 SNE26 P0000 TSNO
94908KDBQ DBQ20060324024513303/24/06 02:45:31  5-MIN KDBQ 240845Z AUTO 35005KT 9SM FEW012 SCT070 OVC090 M01/M02 A3018 840 92 -800 350/05 RMK AO2 SNE26 P0000 TSNO
94908KDBQ DBQ20060324025015603/24/06 02:50:31  5-MIN KDBQ 240850Z AUTO 36005KT 10SM FEW070 OVC090 M01/M02 A3018 840 92 -800 360/05 RMK AO2 SNE26 SLP232 P0000 60000 T10111022 57009 TSNO
94908KDBQ DBQ20060324025515603/24/06 02:55:31  5-MIN KDBQ 240855Z AUTO 36005KT 10SM FEW060 OVC090 M01/M02 A3018 840 92 -800 360/05 RMK AO2 SNE26 SLP232 P0000 60000 T10111022 58004 TSNO
94908KDBQ DBQ20060324030011503/24/06 03:00:31  5-MIN KDBQ 240900Z AUTO 36005KT 10SM FEW006 OVC090 M01/M02 A3018 840 92 -800 360/05 RMK AO2 TSNO
94908KDBQ DBQ20060324030512203/24/06 03:05:31  5-MIN KDBQ 240905Z AUTO 36004KT 10SM FEW006 SCT070 OVC095 M01/M02 A3018 840 92 -800 360/04 RMK AO2 TSNO
94908KDBQ DBQ20060324031012203/24/06 03:10:31  5-MIN KDBQ 240910Z AUTO 36004KT 10SM FEW006 SCT075 OVC100 M01/M02 A3018 840 92 -800 360/04 RMK AO2 TSNO
94908KDBQ DBQ20060324031512203/24/06 03:15:31  5-MIN KDBQ 240915Z AUTO 01004KT 10SM FEW006 SCT080 OVC095 M01/M02 A3018 840 92 -800 010/04 RMK AO2 TSNO
94908KDBQ DBQ20060324032011503/24/06 03:20:31  5-MIN KDBQ 240920Z AUTO 01004KT 10SM FEW006 OVC095 M01/M02 A3018 840 92 -800 360/04 RMK AO2 TSNO
94908KDBQ DBQ20060324032512203/24/06 03:25:31  5-MIN KDBQ 240925Z AUTO 01004KT 10SM FEW006 SCT075 OVC095 M01/M02 A3018 840 92 -800 010/04 RMK AO2 TSNO
94908KDBQ DBQ20060324033011403/24/06 03:30:31  5-MIN KDBQ 240930Z AUTO 01004KT 9SM BKN070 OVC095 M01/M02 A3018 840 92 -800 010/04 RMK AO2 TSNO
94908KDBQ DBQ20060324033513003/24/06 03:35:31  5-MIN KDBQ 240935Z AUTO 01005KT 8SM -SN BKN070 OVC095 M01/M02 A3018 840 92 -800 010/05 RMK AO2 SNB31 P0000 TSNO
94908KDBQ DBQ20060324034013003/24/06 03:40:31  5-MIN KDBQ 240940Z AUTO 36005KT 7SM -SN SCT070 OVC095 M01/M02 A3018 840 92 -800 360/05 RMK AO2 SNB31 P0000 TSNO
94908KDBQ DBQ20060324034513003/24/06 03:45:31  5-MIN KDBQ 240945Z AUTO 36004KT 7SM -SN SCT070 OVC095 M01/M02 A3018 840 92 -800 360/04 RMK AO2 SNB31 P0000 TSNO
94908KDBQ DBQ20060324035014603/24/06 03:50:31  5-MIN KDBQ 240950Z AUTO 01004KT 8SM SCT070 OVC095 M02/M02 A3018 840 96 -900 360/04 RMK AO2 SNB31E48 SLP232 P0000 T10171022 TSNO
94908KDBQ DBQ20060324035514703/24/06 03:55:31  5-MIN KDBQ 240955Z AUTO 36004KT 10SM FEW070 OVC095 M02/M03 A3018 840 92 -900 360/04 RMK AO2 SNB31E48 SLP232 P0000 T10171028 TSNO
94908KDBQ DBQ20060324040011503/24/06 04:00:31  5-MIN KDBQ 241000Z AUTO 01005KT 10SM FEW075 OVC095 M02/M03 A3018 840 92 -900 010/05 RMK AO2 TSNO
94908KDBQ DBQ20060324040510803/24/06 04:05:31  5-MIN KDBQ 241005Z AUTO 01004KT 10SM OVC095 M02/M03 A3018 840 92 -900 010/04 RMK AO2 TSNO
94908KDBQ DBQ20060324041010803/24/06 04:10:31  5-MIN KDBQ 241010Z AUTO 01004KT 10SM OVC095 M02/M03 A3018 840 92 -900 010/04 RMK AO2 TSNO
94908KDBQ DBQ20060324041510803/24/06 04:15:31  5-MIN KDBQ 241015Z AUTO 01004KT 10SM OVC095 M02/M03 A3018 840 92 -900 010/04 RMK AO2 TSNO
94908KDBQ DBQ20060324042010803/24/06 04:20:31  5-MIN KDBQ 241020Z AUTO 01005KT 10SM OVC095 M02/M03 A3018 840 92 -900 010/05 RMK AO2 TSNO
94908KDBQ DBQ20060324042510803/24/06 04:25:31  5-MIN KDBQ 241025Z AUTO 01005KT 10SM OVC095 M02/M03 A3018 830 92 -900 010/05 RMK AO2 TSNO
94908KDBQ DBQ20060324043010803/24/06 04:30:31  5-MIN KDBQ 241030Z AUTO 36005KT 10SM OVC095 M02/M03 A3018 840 92 -900 360/05 RMK AO2 TSNO
94908KDBQ DBQ20060324043510703/24/06 04:35:31  5-MIN KDBQ 241035Z AUTO 36005KT 9SM OVC095 M02/M03 A3018 840 92 -900 360/05 RMK AO2 TSNO
94908KDBQ DBQ20060324044010703/24/06 04:40:31  5-MIN KDBQ 241040Z AUTO 36005KT 9SM OVC095 M02/M03 A3018 840 92 -900 360/05 RMK AO2 TSNO
94908KDBQ DBQ20060324044510803/24/06 04:45:31  5-MIN KDBQ 241045Z AUTO 36004KT 10SM OVC095 M02/M03 A3018 840 92 -900 360/04 RMK AO2 TSNO
94908KDBQ DBQ20060324045012503/24/06 04:50:31  5-MIN KDBQ 241050Z AUTO 36004KT 10SM OVC095 M02/M03 A3018 840 92 -900 360/04 RMK AO2 SLP233 T10171028 TSNO
94908KDBQ DBQ20060324045512503/24/06 04:55:31  5-MIN KDBQ 241055Z AUTO 36005KT 10SM OVC095 M02/M03 A3018 830 92 -900 350/05 RMK AO2 SLP234 T10171028 TSNO
94908KDBQ DBQ20060324050010803/24/06 05:00:31  5-MIN KDBQ 241100Z AUTO 35006KT 10SM OVC095 M02/M03 A3019 830 92 -900 350/06 RMK AO2 TSNO
94908KDBQ DBQ20060324050510803/24/06 05:05:31  5-MIN KDBQ 241105Z AUTO 35006KT 10SM OVC095 M02/M03 A3019 830 92 -900 350/06 RMK AO2 TSNO
94908KDBQ DBQ20060324051010803/24/06 05:10:31  5-MIN KDBQ 241110Z AUTO 36006KT 10SM OVC095 M02/M03 A3019 830 92 -900 350/06 RMK AO2 TSNO
94908KDBQ DBQ20060324051510803/24/06 05:15:31  5-MIN KDBQ 241115Z AUTO 36005KT 10SM OVC095 M02/M03 A3019 830 92 -900 350/05 RMK AO2 TSNO
94908KDBQ DBQ20060324052010803/24/06 05:20:31  5-MIN KDBQ 241120Z AUTO 35006KT 10SM OVC095 M02/M03 A3019 830 92 -900 350/06 RMK AO2 TSNO
94908KDBQ DBQ20060324052510803/24/06 05:25:31  5-MIN KDBQ 241125Z AUTO 35006KT 10SM OVC095 M02/M03 A3019 830 92 -900 350/06 RMK AO2 TSNO
94908KDBQ DBQ20060324053010803/24/06 05:30:31  5-MIN KDBQ 241130Z AUTO 35006KT 10SM OVC095 M02/M03 A3019 830 92 -900 350/06 RMK AO2 TSNO
94908KDBQ DBQ20060324053510803/24/06 05:35:31  5-MIN KDBQ 241135Z AUTO 35006KT 10SM OVC095 M02/M03 A3019 830 92 -900 350/06 RMK AO2 TSNO
94908KDBQ DBQ20060324054010803/24/06 05:40:31  5-MIN KDBQ 241140Z AUTO 35005KT 9SM OVC100 M02/M03 A3019 830 96 -1000 350/05 RMK AO2 TSNO
94908KDBQ DBQ20060324054510803/24/06 05:45:31  5-MIN KDBQ 241145Z AUTO 35005KT 9SM OVC100 M02/M03 A3019 830 92 -1000 350/05 RMK AO2 TSNO
94908KDBQ DBQ20060324055014603/24/06 05:50:31  5-MIN KDBQ 241150Z 35005KT 10SM OVC100 M02/M03 A3019 830 92 -1000 350/05 RMK AO2 SLP236 60000 70003 T10221033 11006 21022 58004
94908KDBQ DBQ20060324055514603/24/06 05:55:31  5-MIN KDBQ 241155Z 35005KT 10SM OVC100 M02/M03 A3019 830 92 -1000 350/05 RMK AO2 SLP236 60000 70003 T10221033 11006 21022 53002
94908KDBQ DBQ20060324060009903/24/06 06:00:31  5-MIN KDBQ 241200Z 36004KT 10SM OVC100 M02/M03 A3019 830 92 -1000 360/04 RMK AO2
94908KDBQ DBQ20060324060509903/24/06 06:05:31  5-MIN KDBQ 241205Z 36004KT 10SM OVC100 M02/M03 A3019 830 92 -1000 360/04 RMK AO2
94908KDBQ DBQ20060324061009903/24/06 06:10:31  5-MIN KDBQ 241210Z 35005KT 10SM OVC095 M02/M03 A3019 830 92 -1000 350/05 RMK AO2
94908KDBQ DBQ20060324061509903/24/06 06:15:31  5-MIN KDBQ 241215Z 34006KT 10SM OVC095 M02/M03 A3019 830 92 -1000 340/06 RMK AO2
94908KDBQ DBQ20060324062009903/24/06 06:20:31  5-MIN KDBQ 241220Z 34006KT 10SM OVC095 M02/M04 A3019 830 88 -1000 340/06 RMK AO2
94908KDBQ DBQ20060324062509903/24/06 06:25:31  5-MIN KDBQ 241225Z 34006KT 10SM OVC095 M02/M04 A3019 830 88 -1000 340/06 RMK AO2
94908KDBQ DBQ20060324063009903/24/06 06:30:31  5-MIN KDBQ 241230Z 34007KT 10SM OVC095 M03/M04 A3019 830 92 -1100 340/07 RMK AO2
94908KDBQ DBQ20060324063509903/24/06 06:35:31  5-MIN KDBQ 241235Z 34006KT 10SM OVC095 M03/M04 A3019 830 92 -1100 340/06 RMK AO2
94908KDBQ DBQ20060324064009903/24/06 06:40:31  5-MIN KDBQ 241240Z 33006KT 10SM OVC095 M03/M04 A3019 830 92 -1100 330/06 RMK AO2
94908KDBQ DBQ20060324064510603/24/06 06:45:31  5-MIN KDBQ 241245Z 33006KT 10SM FEW060 OVC095 M03/M04 A3019 830 92 -1100 330/06 RMK AO2
94908KDBQ DBQ20060324065012303/24/06 06:50:31  5-MIN KDBQ 241250Z 34006KT 10SM SCT065 OVC095 M03/M04 A3019 830 92 -1100 340/06 RMK AO2 SLP238 T10331044
94908KDBQ DBQ20060324065512203/24/06 06:55:31  5-MIN KDBQ 241255Z 35004KT 9SM BKN065 OVC095 M03/M04 A3019 830 92 -1100 350/04 RMK AO2 SLP238 T10331044
94908KDBQ DBQ20060324070011203/24/06 07:00:31  5-MIN KDBQ 241300Z 02004KT 9SM FEW050 BKN065 OVC095 M03/M04 A3019 830 92 -1100 020/04 RMK AO2
94908KDBQ DBQ20060324070511203/24/06 07:05:31  5-MIN KDBQ 241305Z 02003KT 8SM FEW050 BKN065 OVC095 M02/M04 A3019 830 88 -1000 020/03 RMK AO2
94908KDBQ DBQ20060324071010503/24/06 07:10:31  5-MIN KDBQ 241310Z 02004KT 9SM FEW048 OVC060 M02/M04 A3019 830 88 -1000 020/04 RMK AO2
94908KDBQ DBQ20060324071510403/24/06 07:15:31  5-MIN KDBQ 241315Z 01004KT 9SM FEW047 OVC060 M02/M03 A3019 830 88 -900 010/04 RMK AO2
94908KDBQ DBQ20060324072010503/24/06 07:20:31  5-MIN KDBQ 241320Z 01005KT 10SM FEW047 OVC065 M02/M03 A3019 830 88 -900 010/05 RMK AO2
94908KDBQ DBQ20060324072510503/24/06 07:25:31  5-MIN KDBQ 241325Z 36005KT 10SM FEW047 OVC065 M01/M03 A3019 830 88 -900 360/05 RMK AO2
94908KDBQ DBQ20060324073009803/24/06 07:30:31  5-MIN KDBQ 241330Z 36006KT 10SM OVC065 M01/M03 A3019 830 88 -900 360/06 RMK AO2
94908KDBQ DBQ20060324073509803/24/06 07:35:31  5-MIN KDBQ 241335Z 36005KT 10SM OVC065 M01/M03 A3019 830 88 -900 360/05 RMK AO2
94908KDBQ DBQ20060324074009803/24/06 07:40:31  5-MIN KDBQ 241340Z 36006KT 10SM OVC065 M01/M03 A3019 830 88 -900 360/06 RMK AO2
94908KDBQ DBQ20060324074509803/24/06 07:45:31  5-MIN KDBQ 241345Z 01007KT 10SM OVC065 M01/M03 A3019 830 85 -900 010/07 RMK AO2
94908KDBQ DBQ20060324075011503/24/06 07:50:31  5-MIN KDBQ 241350Z 01008KT 10SM OVC060 M01/M03 A3019 830 85 -900 360/08 RMK AO2 SLP238 T10111033
94908KDBQ DBQ20060324075511503/24/06 07:55:31  5-MIN KDBQ 241355Z 36007KT 10SM OVC060 M01/M03 A3019 830 85 -900 360/07 RMK AO2 SLP238 T10111033
94908KDBQ DBQ20060324080009803/24/06 08:00:31  5-MIN KDBQ 241400Z 36006KT 10SM OVC060 M01/M03 A3019 830 88 -900 360/06 RMK AO2
94908KDBQ DBQ20060324080509803/24/06 08:05:31  5-MIN KDBQ 241405Z 35007KT 10SM OVC060 M01/M03 A3019 830 88 -900 350/07 RMK AO2
94908KDBQ DBQ20060324081009703/24/06 08:10:31  5-MIN KDBQ 241410Z 35007KT 9SM OVC060 M01/M03 A3020 820 88 -900 350/07 RMK AO2
94908KDBQ DBQ20060324081510403/24/06 08:15:31  5-MIN KDBQ 241415Z 35007KT 9SM FEW008 OVC055 M01/M03 A3020 820 88 -900 350/07 RMK AO2
94908KDBQ DBQ20060324082010503/24/06 08:20:31  5-MIN KDBQ 241420Z 36007KT 10SM FEW008 OVC055 M01/M03 A3020 820 88 -900 360/07 RMK AO2
94908KDBQ DBQ20060324082509803/24/06 08:25:31  5-MIN KDBQ 241425Z 01007KT 10SM OVC060 M01/M03 A3020 820 88 -900 010/07 RMK AO2
94908KDBQ DBQ20060324083010403/24/06 08:30:31  5-MIN KDBQ 241430Z 01008KT 9SM FEW009 OVC055 M01/M03 A3020 830 88 -900 010/08 RMK AO2
94908KDBQ DBQ20060324083510403/24/06 08:35:31  5-MIN KDBQ 241435Z 36007KT 9SM SCT009 OVC060 M01/M03 A3019 830 85 -800 360/07 RMK AO2
94908KDBQ DBQ20060324084010503/24/06 08:40:31  5-MIN KDBQ 241440Z 36007KT 10SM SCT009 OVC060 M01/M03 A3019 830 85 -800 360/07 RMK AO2
94908KDBQ DBQ20060324084510503/24/06 08:45:31  5-MIN KDBQ 241445Z 36007KT 10SM BKN009 OVC060 M01/M03 A3019 830 85 -800 360/07 RMK AO2
94908KDBQ DBQ20060324085010403/24/06 08:50:31  5-MIN KDBQ 241450Z 36008KT 9SM BKN009 OVC060 M01/M03 A3019 830 85 -800 360/08 RMK AO2
94908KDBQ DBQ20060324085512703/24/06 08:55:31  5-MIN KDBQ 241455Z 01007KT 8SM BKN009 OVC060 M01/M03 A3019 830 85 -800 360/07 RMK AO2 SLP237 T10061028 51000
94908KDBQ DBQ20060324090010403/24/06 09:00:31  5-MIN KDBQ 241500Z 36007KT 9SM BKN009 OVC060 M01/M03 A3019 830 85 -800 360/07 RMK AO2
94908KDBQ DBQ20060324090510503/24/06 09:05:31  5-MIN KDBQ 241505Z 36008KT 10SM BKN009 OVC060 M01/M02 A3020 820 88 -800 360/08 RMK AO2
94908KDBQ DBQ20060324091011203/24/06 09:10:31  5-MIN KDBQ 241510Z 36007KT 10SM SCT009 SCT012 OVC060 M01/M03 A3020 830 85 -800 360/07 RMK AO2
94908KDBQ DBQ20060324091510403/24/06 09:15:31  5-MIN KDBQ 241515Z 36006KT 10SM SCT009 OVC060 00/M03 A3019 830 81 -700 360/06 RMK AO2
94908KDBQ DBQ20060324092010403/24/06 09:20:31  5-MIN KDBQ 241520Z 01008KT 10SM FEW009 OVC060 00/M02 A3020 820 85 -700 360/08 RMK AO2
94908KDBQ DBQ20060324092510403/24/06 09:25:31  5-MIN KDBQ 241525Z 01008KT 10SM FEW009 OVC060 00/M03 A3020 820 81 -700 010/08 RMK AO2
94908KDBQ DBQ20060324093010403/24/06 09:30:31  5-MIN KDBQ 241530Z 36006KT 10SM FEW009 OVC060 00/M03 A3020 820 81 -700 360/06 RMK AO2
94908KDBQ DBQ20060324093509703/24/06 09:35:31  5-MIN KDBQ 241535Z 01007KT 10SM OVC060 00/M03 A3020 820 81 -700 010/07 RMK AO2
94908KDBQ DBQ20060324094009703/24/06 09:40:31  5-MIN KDBQ 241540Z 36007KT 10SM OVC060 00/M03 A3020 820 81 -700 360/07 RMK AO2
94908KDBQ DBQ20060324094509703/24/06 09:45:31  5-MIN KDBQ 241545Z 01008KT 10SM OVC060 00/M02 A3020 820 85 -700 360/08 RMK AO2
94908KDBQ DBQ20060324095011403/24/06 09:50:31  5-MIN KDBQ 241550Z 35007KT 10SM OVC060 00/M02 A3020 820 85 -700 350/07 RMK AO2 SLP239 T00001022
94908KDBQ DBQ20060324095512103/24/06 09:55:31  5-MIN KDBQ 241555Z 35008KT 10SM FEW011 OVC060 01/M02 A3020 820 82 -700 350/08 RMK AO2 SLP239 T00061022
94908KDBQ DBQ20060324100010403/24/06 10:00:31  5-MIN KDBQ 241600Z 35007KT 10SM SCT011 OVC060 01/M02 A3020 820 82 -700 350/07 RMK AO2
94908KDBQ DBQ20060324100510403/24/06 10:05:31  5-MIN KDBQ 241605Z 34007KT 10SM SCT013 OVC060 01/M02 A3020 820 82 -700 340/07 RMK AO2
94908KDBQ DBQ20060324101010403/24/06 10:10:31  5-MIN KDBQ 241610Z 01006KT 10SM SCT013 OVC060 01/M02 A3020 820 82 -700 360/06 RMK AO2
94908KDBQ DBQ20060324101510403/24/06 10:15:31  5-MIN KDBQ 241615Z 02008KT 10SM SCT013 OVC060 01/M02 A3020 820 78 -600 020/08 RMK AO2
94908KDBQ DBQ20060324102011103/24/06 10:20:31  5-MIN KDBQ 241620Z 02007KT 10SM SCT013 BKN021 OVC060 01/M02 A3020 820 78 -600 020/07 RMK AO2
94908KDBQ DBQ20060324102511103/24/06 10:25:31  5-MIN KDBQ 241625Z 35007KT 10SM BKN015 BKN021 OVC060 01/M02 A3020 820 78 -600 350/07 RMK AO2
94908KDBQ DBQ20060324103011103/24/06 10:30:31  5-MIN KDBQ 241630Z 01007KT 10SM SCT017 SCT022 OVC060 02/M02 A3020 820 75 -500 010/07 RMK AO2
94908KDBQ DBQ20060324103511103/24/06 10:35:31  5-MIN KDBQ 241635Z 35006KT 10SM SCT017 BKN024 OVC060 02/M02 A3020 820 75 -500 350/06 RMK AO2
94908KDBQ DBQ20060324104011103/24/06 10:40:31  5-MIN KDBQ 241640Z 32007KT 10SM SCT015 BKN021 OVC060 01/M02 A3020 820 82 -600 320/07 RMK AO2
94908KDBQ DBQ20060324104511103/24/06 10:45:31  5-MIN KDBQ 241645Z 36006KT 10SM SCT015 BKN021 OVC060 02/M03 A3020 820 72 -500 360/06 RMK AO2
94908KDBQ DBQ20060324105011103/24/06 10:50:31  5-MIN KDBQ 241650Z 33007KT 10SM SCT017 BKN030 OVC060 02/M03 A3020 820 72 -500 330/07 RMK AO2
94908KDBQ DBQ20060324105512803/24/06 10:55:31  5-MIN KDBQ 241655Z VRB06KT 10SM SCT017 SCT024 OVC060 02/M03 A3020 820 72 -500 VRB/06 RMK AO2 SLP239 T00171028
94908KDBQ DBQ20060324110011103/24/06 11:00:31  5-MIN KDBQ 241700Z 35005KT 10SM FEW017 SCT021 OVC060 02/M02 A3020 820 75 -500 350/05 RMK AO2
94908KDBQ DBQ20060324110511103/24/06 11:05:31  5-MIN KDBQ 241705Z VRB05KT 10SM FEW017 BKN048 OVC060 01/M03 A3020 820 75 -600 VRB/05 RMK AO2
94908KDBQ DBQ20060324111011103/24/06 11:10:31  5-MIN KDBQ 241710Z 34006KT 10SM FEW025 BKN048 OVC060 02/M03 A3020 820 72 -500 340/06 RMK AO2
94908KDBQ DBQ20060324111511103/24/06 11:15:31  5-MIN KDBQ 241715Z 34006KT 10SM FEW026 BKN048 OVC060 02/M03 A3020 830 72 -500 340/06 RMK AO2
94908KDBQ DBQ20060324112011103/24/06 11:20:31  5-MIN KDBQ 241720Z 33006KT 10SM FEW026 BKN050 OVC060 02/M03 A3019 830 72 -500 330/06 RMK AO2
94908KDBQ DBQ20060324112511103/24/06 11:25:31  5-MIN KDBQ 241725Z 01005KT 10SM FEW028 SCT041 OVC055 02/M03 A3019 830 69 -500 010/05 RMK AO2
94908KDBQ DBQ20060324113011103/24/06 11:30:31  5-MIN KDBQ 241730Z 33006KT 10SM FEW025 BKN045 OVC055 02/M03 A3019 830 69 -500 330/06 RMK AO2
94908KDBQ DBQ20060324113511103/24/06 11:35:31  5-MIN KDBQ 241735Z 34007KT 10SM FEW025 BKN049 OVC055 02/M03 A3019 830 72 -500 340/07 RMK AO2
94908KDBQ DBQ20060324114012703/24/06 11:40:31  5-MIN KDBQ 241740Z 32008KT 10SM -SN FEW027 BKN037 OVC055 02/M03 A3019 830 72 -500 320/08 RMK AO2 SNB37 P0000
94908KDBQ DBQ20060324114512603/24/06 11:45:31  5-MIN KDBQ 241745Z 33006KT 9SM -SN FEW027 BKN037 OVC055 01/M03 A3019 830 75 -600 330/06 RMK AO2 SNB37 P0000
94908KDBQ DBQ20060324115016703/24/06 11:50:31  5-MIN KDBQ 241750Z 33005KT 9SM -SN FEW027 BKN037 OVC044 01/M03 A3019 830 75 -600 330/05 RMK AO2 SNB37 SLP236 P0000 60000 T00111028 10022 21033 51000
94908KDBQ DBQ20060324115516703/24/06 11:55:31  5-MIN KDBQ 241755Z 33008KT 9SM -SN FEW027 SCT037 OVC046 02/M03 A3019 830 72 -500 320/08 RMK AO2 SNB37 SLP236 P0000 60000 T00171028 10022 21033 58001
94908KDBQ DBQ20060324120012203/24/06 12:00:31  5-MIN KDBQ 241800Z 32008KT 9SM FEW027 SCT037 OVC048 02/M03 A3019 830 69 -500 320/08 RMK AO2 SNE00 P0000
94908KDBQ DBQ20060324120512203/24/06 12:05:31  5-MIN KDBQ 241805Z 33007KT 9SM FEW027 SCT037 OVC050 02/M03 A3019 830 69 -500 330/07 RMK AO2 SNE00 P0000
94908KDBQ DBQ20060324121011603/24/06 12:10:31  5-MIN KDBQ 241810Z 33007KT 10SM FEW027 OVC050 02/M03 A3019 830 67 -400 330/07 RMK AO2 SNE00 P0000
94908KDBQ DBQ20060324121510903/24/06 12:15:31  5-MIN KDBQ 241815Z 33007KT 10SM OVC050 02/M03 A3019 830 67 -400 330/07 RMK AO2 SNE00 P0000
94908KDBQ DBQ20060324122010903/24/06 12:20:31  5-MIN KDBQ 241820Z 33009KT 10SM OVC050 02/M03 A3019 830 69 -500 330/09 RMK AO2 SNE00 P0000
94908KDBQ DBQ20060324122511603/24/06 12:25:31  5-MIN KDBQ 241825Z 33008KT 10SM FEW033 OVC050 02/M03 A3019 830 69 -500 330/08 RMK AO2 SNE00 P0000
94908KDBQ DBQ20060324123012303/24/06 12:30:31  5-MIN KDBQ 241830Z 32007KT 10SM SCT033 SCT041 OVC050 02/M04 A3019 830 66 -500 320/07 RMK AO2 SNE00 P0000
94908KDBQ DBQ20060324123512303/24/06 12:35:31  5-MIN KDBQ 241835Z 34008KT 10SM FEW033 BKN043 OVC050 02/M03 A3019 830 69 -500 340/08 RMK AO2 SNE00 P0000
94908KDBQ DBQ20060324124012303/24/06 12:40:31  5-MIN KDBQ 241840Z 34007KT 10SM FEW033 BKN043 OVC050 02/M03 A3019 830 69 -500 340/07 RMK AO2 SNE00 P0000
94908KDBQ DBQ20060324124511603/24/06 12:45:31  5-MIN KDBQ 241845Z 33009KT 10SM BKN040 OVC050 02/M04 A3019 830 66 -500 330/09 RMK AO2 SNE00 P0000
94908KDBQ DBQ20060324125012603/24/06 12:50:31  5-MIN KDBQ 241850Z 34008KT 10SM OVC040 02/M04 A3018 840 66 -500 330/08 RMK AO2 SNE00 SLP233 P0000 T00171039
94908KDBQ DBQ20060324125512603/24/06 12:55:31  5-MIN KDBQ 241855Z 34008KT 10SM OVC043 02/M04 A3018 840 66 -500 340/08 RMK AO2 SNE00 SLP233 P0000 T00171039
94908KDBQ DBQ20060324130009703/24/06 13:00:31  5-MIN KDBQ 241900Z 36005KT 10SM OVC043 02/M04 A3018 840 64 -400 350/05 RMK AO2
94908KDBQ DBQ20060324130511103/24/06 13:05:31  5-MIN KDBQ 241905Z 33007KT 10SM BKN042 BKN049 OVC060 02/M04 A3018 840 64 -400 330/07 RMK AO2
94908KDBQ DBQ20060324131011103/24/06 13:10:31  5-MIN KDBQ 241910Z 33008KT 10SM FEW029 BKN049 OVC060 02/M04 A3018 840 64 -400 330/08 RMK AO2
94908KDBQ DBQ20060324131511103/24/06 13:15:31  5-MIN KDBQ 241915Z 34007KT 10SM FEW029 BKN046 OVC060 02/M04 A3018 840 64 -400 340/07 RMK AO2
94908KDBQ DBQ20060324132011103/24/06 13:20:31  5-MIN KDBQ 241920Z 35006KT 10SM FEW029 SCT046 OVC060 02/M04 A3018 840 61 -400 350/06 RMK AO2
94908KDBQ DBQ20060324132510403/24/06 13:25:31  5-MIN KDBQ 241925Z 33006KT 10SM FEW029 OVC055 02/M04 A3018 840 61 -400 330/06 RMK AO2
94908KDBQ DBQ20060324133010403/24/06 13:30:31  5-MIN KDBQ 241930Z 34006KT 10SM FEW029 OVC055 02/M05 A3018 840 59 -400 340/06 RMK AO2
94908KDBQ DBQ20060324133509703/24/06 13:35:31  5-MIN KDBQ 241935Z 34006KT 10SM OVC055 03/M04 A3018 840 59 -300 340/06 RMK AO2
94908KDBQ DBQ20060324134009703/24/06 13:40:31  5-MIN KDBQ 241940Z 32006KT 10SM OVC055 03/M04 A3018 840 59 -300 320/06 RMK AO2
94908KDBQ DBQ20060324134509703/24/06 13:45:31  5-MIN KDBQ 241945Z 01008KT 10SM OVC055 03/M04 A3018 840 59 -300 010/08 RMK AO2
94908KDBQ DBQ20060324135011403/24/06 13:50:31  5-MIN KDBQ 241950Z 02005KT 10SM OVC055 03/M05 A3017 840 56 -300 020/05 RMK AO2 SLP229 T00281050
94908KDBQ DBQ20060324135511403/24/06 13:55:31  5-MIN KDBQ 241955Z 02005KT 10SM OVC055 03/M04 A3018 840 59 -300 020/05 RMK AO2 SLP230 T00281044
94908KDBQ DBQ20060324140010403/24/06 14:00:31  5-MIN KDBQ 242000Z 01003KT 10SM FEW038 OVC060 03/M04 A3018 840 61 -300 010/03 RMK AO2
94908KDBQ DBQ20060324140511103/24/06 14:05:31  5-MIN KDBQ 242005Z 35008KT 10SM SCT038 SCT048 OVC060 03/M04 A3018 840 59 -300 350/08 RMK AO2
94908KDBQ DBQ20060324141011103/24/06 14:10:31  5-MIN KDBQ 242010Z 33005KT 10SM FEW038 SCT048 OVC060 03/M06 A3017 840 54 -300 330/05 RMK AO2
94908KDBQ DBQ20060324141511103/24/06 14:15:31  5-MIN KDBQ 242015Z 32007KT 10SM SCT038 SCT048 OVC060 03/M06 A3018 840 54 -300 320/07 RMK AO2
94908KDBQ DBQ20060324142010403/24/06 14:20:31  5-MIN KDBQ 242020Z 35007KT 10SM BKN041 OVC060 03/M06 A3018 840 54 -300 350/07 RMK AO2
94908KDBQ DBQ20060324142511103/24/06 14:25:31  5-MIN KDBQ 242025Z 34006KT 10SM BKN040 BKN050 OVC060 03/M06 A3018 840 54 -300 340/06 RMK AO2
94908KDBQ DBQ20060324143010403/24/06 14:30:31  5-MIN KDBQ 242030Z 32006KT 10SM BKN040 OVC055 03/M06 A3018 840 54 -300 320/06 RMK AO2
94908KDBQ DBQ20060324143510403/24/06 14:35:31  5-MIN KDBQ 242035Z 32006KT 10SM SCT040 OVC055 03/M06 A3018 840 54 -300 320/06 RMK AO2
94908KDBQ DBQ20060324144010403/24/06 14:40:31  5-MIN KDBQ 242040Z 30007KT 10SM BKN040 OVC050 03/M06 A3018 840 52 -300 300/07 RMK AO2
94908KDBQ DBQ20060324144510403/24/06 14:45:31  5-MIN KDBQ 242045Z 29008KT 10SM BKN043 OVC050 02/M05 A3018 840 59 -400 290/08 RMK AO2
94908KDBQ DBQ20060324145013303/24/06 14:50:31  5-MIN KDBQ 242050Z 32010KT 10SM BKN041 OVC050 02/M04 A3018 840 61 -400 310/10 RMK AO2 SLP231 60000 T00221044 58001
94908KDBQ DBQ20060324145513303/24/06 14:55:31  5-MIN KDBQ 242055Z 31008KT 10SM BKN041 OVC050 02/M04 A3018 840 61 -400 300/08 RMK AO2 SLP231 60000 T00221044 55005
94908KDBQ DBQ20060324150010403/24/06 15:00:31  5-MIN KDBQ 242100Z 32007KT 10SM BKN043 OVC050 02/M04 A3018 840 61 -400 310/07 RMK AO2
94908KDBQ DBQ20060324150509703/24/06 15:05:31  5-MIN KDBQ 242105Z 30007KT 10SM OVC043 02/M05 A3018 840 59 -400 300/07 RMK AO2
94908KDBQ DBQ20060324151009703/24/06 15:10:31  5-MIN KDBQ 242110Z 33008KT 10SM OVC043 02/M05 A3018 840 59 -400 330/08 RMK AO2
94908KDBQ DBQ20060324151509703/24/06 15:15:31  5-MIN KDBQ 242115Z 32007KT 10SM OVC043 02/M05 A3018 840 59 -400 320/07 RMK AO2
94908KDBQ DBQ20060324152009703/24/06 15:20:31  5-MIN KDBQ 242120Z 32008KT 10SM OVC043 02/M05 A3018 840 59 -400 320/08 RMK AO2
94908KDBQ DBQ20060324152509703/24/06 15:25:31  5-MIN KDBQ 242125Z 34007KT 10SM OVC043 03/M05 A3018 840 56 -300 340/07 RMK AO2
94908KDBQ DBQ20060324153009703/24/06 15:30:31  5-MIN KDBQ 242130Z 34010KT 10SM OVC047 03/M06 A3018 840 54 -300 340/10 RMK AO2
94908KDBQ DBQ20060324153510403/24/06 15:35:31  5-MIN KDBQ 242135Z 32009KT 10SM BKN047 OVC055 03/M06 A3018 840 54 -300 320/09 RMK AO2
94908KDBQ DBQ20060324154010403/24/06 15:40:31  5-MIN KDBQ 242140Z 35009KT 10SM BKN047 OVC055 03/M05 A3018 840 56 -300 350/09 RMK AO2
94908KDBQ DBQ20060324154510403/24/06 15:45:31  5-MIN KDBQ 242145Z 35010KT 10SM SCT047 OVC055 03/M05 A3018 840 56 -300 340/10 RMK AO2
94908KDBQ DBQ20060324155012103/24/06 15:50:31  5-MIN KDBQ 242150Z 35010KT 10SM FEW048 OVC055 03/M05 A3018 840 56 -300 340/10 RMK AO2 SLP231 T00281050
94908KDBQ DBQ20060324155511403/24/06 15:55:31  5-MIN KDBQ 242155Z 35010KT 10SM OVC055 03/M05 A3018 840 56 -300 340/10 RMK AO2 SLP231 T00281050
94908KDBQ DBQ20060324160009703/24/06 16:00:31  5-MIN KDBQ 242200Z 33010KT 10SM OVC055 02/M05 A3018 840 59 -400 330/10 RMK AO2
94908KDBQ DBQ20060324160509703/24/06 16:05:31  5-MIN KDBQ 242205Z 34009KT 10SM OVC055 02/M05 A3018 840 59 -400 340/09 RMK AO2
94908KDBQ DBQ20060324161009703/24/06 16:10:31  5-MIN KDBQ 242210Z 33008KT 10SM OVC055 02/M05 A3018 840 59 -400 330/08 RMK AO2
94908KDBQ DBQ20060324161509703/24/06 16:15:31  5-MIN KDBQ 242215Z 33010KT 10SM OVC055 02/M05 A3018 840 59 -400 330/10 RMK AO2
94908KDBQ DBQ20060324162009703/24/06 16:20:31  5-MIN KDBQ 242220Z 34008KT 10SM OVC050 02/M05 A3018 840 59 -400 340/08 RMK AO2
94908KDBQ DBQ20060324162509703/24/06 16:25:31  5-MIN KDBQ 242225Z 34007KT 10SM OVC050 02/M05 A3018 840 59 -400 340/07 RMK AO2
94908KDBQ DBQ20060324163009703/24/06 16:30:31  5-MIN KDBQ 242230Z 34007KT 10SM OVC055 02/M04 A3018 840 61 -400 340/07 RMK AO2
94908KDBQ DBQ20060324163509703/24/06 16:35:31  5-MIN KDBQ 242235Z 34007KT 10SM OVC055 02/M04 A3018 840 61 -400 340/07 RMK AO2
94908KDBQ DBQ20060324164009703/24/06 16:40:31  5-MIN KDBQ 242240Z 35007KT 10SM OVC055 02/M05 A3018 840 59 -400 350/07 RMK AO2
94908KDBQ DBQ20060324164509703/24/06 16:45:31  5-MIN KDBQ 242245Z 34009KT 10SM OVC055 02/M05 A3018 840 59 -400 340/09 RMK AO2
94908KDBQ DBQ20060324165011403/24/06 16:50:31  5-MIN KDBQ 242250Z 33007KT 10SM OVC060 02/M04 A3018 840 61 -400 330/07 RMK AO2 SLP233 T00221044
94908KDBQ DBQ20060324165511403/24/06 16:55:31  5-MIN KDBQ 242255Z 33008KT 10SM OVC060 02/M04 A3018 840 61 -400 330/08 RMK AO2 SLP233 T00221044
94908KDBQ DBQ20060324170009703/24/06 17:00:31  5-MIN KDBQ 242300Z 33008KT 10SM OVC060 02/M04 A3018 840 61 -400 330/08 RMK AO2
94908KDBQ DBQ20060324170509703/24/06 17:05:31  5-MIN KDBQ 242305Z 33008KT 10SM OVC060 02/M04 A3018 840 61 -400 330/08 RMK AO2
94908KDBQ DBQ20060324171009703/24/06 17:10:31  5-MIN KDBQ 242310Z 33008KT 10SM OVC060 02/M04 A3019 830 61 -400 330/08 RMK AO2
94908KDBQ DBQ20060324171509703/24/06 17:15:31  5-MIN KDBQ 242315Z 34007KT 10SM OVC060 02/M04 A3019 830 61 -400 340/07 RMK AO2
94908KDBQ DBQ20060324172009703/24/06 17:20:31  5-MIN KDBQ 242320Z 34008KT 10SM OVC060 02/M04 A3019 830 61 -400 330/08 RMK AO2
94908KDBQ DBQ20060324172509703/24/06 17:25:31  5-MIN KDBQ 242325Z 33008KT 10SM OVC060 02/M04 A3019 830 61 -400 330/08 RMK AO2
94908KDBQ DBQ20060324173009703/24/06 17:30:31  5-MIN KDBQ 242330Z 34008KT 10SM OVC060 02/M04 A3019 830 61 -400 330/08 RMK AO2
94908KDBQ DBQ20060324173509703/24/06 17:35:31  5-MIN KDBQ 242335Z 33009KT 10SM OVC060 02/M05 A3019 830 59 -400 330/09 RMK AO2
94908KDBQ DBQ20060324174009703/24/06 17:40:31  5-MIN KDBQ 242340Z 34008KT 10SM OVC060 02/M05 A3019 830 59 -400 340/08 RMK AO2
94908KDBQ DBQ20060324174509703/24/06 17:45:31  5-MIN KDBQ 242345Z 34007KT 10SM OVC060 02/M04 A3019 830 61 -400 340/07 RMK AO2
94908KDBQ DBQ20060324175013803/24/06 17:50:31  5-MIN KDBQ 242350Z 34009KT 10SM OVC060 02/M05 A3019 830 61 -500 340/09 RMK AO2 SLP236 60000 T00171050 10028 20017 55005
94908KDBQ DBQ20060324175513803/24/06 17:55:31  5-MIN KDBQ 242355Z 34008KT 10SM OVC060 02/M05 A3019 830 61 -500 340/08 RMK AO2 SLP236 60000 T00171050 10028 20017 53005
94908KDBQ DBQ20060324180009703/24/06 18:00:31  5-MIN KDBQ 250000Z 34008KT 10SM OVC060 02/M05 A3019 830 61 -500 340/08 RMK AO2
94908KDBQ DBQ20060324180509703/24/06 18:05:31  5-MIN KDBQ 250005Z 34006KT 10SM OVC060 02/M05 A3019 830 61 -500 340/06 RMK AO2
94908KDBQ DBQ20060324181009703/24/06 18:10:31  5-MIN KDBQ 250010Z 34006KT 10SM OVC060 02/M05 A3019 830 61 -500 340/06 RMK AO2
94908KDBQ DBQ20060324181509703/24/06 18:15:31  5-MIN KDBQ 250015Z 34006KT 10SM OVC065 02/M04 A3019 830 64 -500 340/06 RMK AO2
94908KDBQ DBQ20060324182009703/24/06 18:20:31  5-MIN KDBQ 250020Z 34006KT 10SM OVC065 02/M04 A3019 830 64 -500 330/06 RMK AO2
94908KDBQ DBQ20060324182509703/24/06 18:25:31  5-MIN KDBQ 250025Z 34006KT 10SM OVC065 02/M05 A3019 830 61 -500 340/06 RMK AO2
94908KDBQ DBQ20060324183009703/24/06 18:30:31  5-MIN KDBQ 250030Z 33005KT 10SM OVC065 01/M05 A3019 830 64 -600 330/05 RMK AO2
94908KDBQ DBQ20060324183509703/24/06 18:35:31  5-MIN KDBQ 250035Z 33005KT 10SM OVC065 01/M04 A3019 830 66 -600 330/05 RMK AO2
94908KDBQ DBQ20060324184009703/24/06 18:40:31  5-MIN KDBQ 250040Z 33005KT 10SM OVC065 01/M04 A3019 830 69 -600 330/05 RMK AO2
94908KDBQ DBQ20060324184509703/24/06 18:45:31  5-MIN KDBQ 250045Z 32005KT 10SM OVC070 01/M04 A3019 830 69 -600 320/05 RMK AO2
94908KDBQ DBQ20060324185011403/24/06 18:50:31  5-MIN KDBQ 250050Z 32005KT 10SM OVC070 01/M04 A3019 830 69 -600 320/05 RMK AO2 SLP237 T00061044
94908KDBQ DBQ20060324185511403/24/06 18:55:31  5-MIN KDBQ 250055Z 31005KT 10SM OVC070 01/M04 A3019 830 69 -600 310/05 RMK AO2 SLP236 T00061044
94908KDBQ DBQ20060324190009703/24/06 19:00:31  5-MIN KDBQ 250100Z 31004KT 10SM OVC070 01/M05 A3019 830 66 -600 310/04 RMK AO2
94908KDBQ DBQ20060324190509703/24/06 19:05:31  5-MIN KDBQ 250105Z 31004KT 10SM OVC070 01/M05 A3019 830 66 -600 310/04 RMK AO2
94908KDBQ DBQ20060324191009703/24/06 19:10:31  5-MIN KDBQ 250110Z 31005KT 10SM OVC065 01/M04 A3019 830 69 -600 310/05 RMK AO2
94908KDBQ DBQ20060324191509703/24/06 19:15:31  5-MIN KDBQ 250115Z 31005KT 10SM OVC065 01/M04 A3019 830 69 -600 310/05 RMK AO2
94908KDBQ DBQ20060324192009703/24/06 19:20:31  5-MIN KDBQ 250120Z 30005KT 10SM OVC065 01/M04 A3019 830 69 -600 300/05 RMK AO2
94908KDBQ DBQ20060324192509703/24/06 19:25:31  5-MIN KDBQ 250125Z 31005KT 10SM OVC065 01/M04 A3019 830 69 -600 300/05 RMK AO2
94908KDBQ DBQ20060324193009703/24/06 19:30:31  5-MIN KDBQ 250130Z 31006KT 10SM OVC065 01/M04 A3019 830 69 -600 310/06 RMK AO2
94908KDBQ DBQ20060324193509703/24/06 19:35:31  5-MIN KDBQ 250135Z 31006KT 10SM OVC065 01/M04 A3019 830 69 -600 310/06 RMK AO2
94908KDBQ DBQ20060324194009703/24/06 19:40:31  5-MIN KDBQ 250140Z 31006KT 10SM OVC065 01/M04 A3019 830 69 -600 310/06 RMK AO2
94908KDBQ DBQ20060324194510703/24/06 19:45:31  5-MIN KDBQ 250145Z AUTO 31005KT 10SM OVC065 01/M04 A3019 830 69 -600 310/05 RMK AO2 TSNO
94908KDBQ DBQ20060324195012403/24/06 19:50:31  5-MIN KDBQ 250150Z AUTO 31005KT 10SM OVC065 01/M04 A3019 830 69 -600 310/05 RMK AO2 SLP235 T00061044 TSNO
94908KDBQ DBQ20060324195512403/24/06 19:55:31  5-MIN KDBQ 250155Z AUTO 31005KT 10SM OVC065 01/M04 A3019 830 69 -600 310/05 RMK AO2 SLP236 T00061044 TSNO
94908KDBQ DBQ20060324200010703/24/06 20:00:31  5-MIN KDBQ 250200Z AUTO 31005KT 10SM OVC065 01/M04 A3019 830 69 -600 310/05 RMK AO2 TSNO
94908KDBQ DBQ20060324200510703/24/06 20:05:31  5-MIN KDBQ 250205Z AUTO 31005KT 10SM OVC070 01/M04 A3019 830 69 -600 310/05 RMK AO2 TSNO
94908KDBQ DBQ20060324201010703/24/06 20:10:31  5-MIN KDBQ 250210Z AUTO 31005KT 10SM OVC070 00/M04 A3019 830 72 -700 310/05 RMK AO2 TSNO
94908KDBQ DBQ20060324201510703/24/06 20:15:31  5-MIN KDBQ 250215Z AUTO 31005KT 10SM OVC070 01/M04 A3019 830 69 -600 310/05 RMK AO2 TSNO
94908KDBQ DBQ20060324202010703/24/06 20:20:31  5-MIN KDBQ 250220Z AUTO 31005KT 10SM OVC070 01/M04 A3019 830 69 -600 310/05 RMK AO2 TSNO
94908KDBQ DBQ20060324202510703/24/06 20:25:31  5-MIN KDBQ 250225Z AUTO 31006KT 10SM OVC070 01/M04 A3019 830 69 -600 310/06 RMK AO2 TSNO
94908KDBQ DBQ20060324203010703/24/06 20:30:31  5-MIN KDBQ 250230Z AUTO 31005KT 10SM OVC070 01/M04 A3019 830 69 -600 310/05 RMK AO2 TSNO
94908KDBQ DBQ20060324203510703/24/06 20:35:31  5-MIN KDBQ 250235Z AUTO 31004KT 10SM OVC070 01/M04 A3019 830 69 -600 310/04 RMK AO2 TSNO
94908KDBQ DBQ20060324204010703/24/06 20:40:31  5-MIN KDBQ 250240Z AUTO 31005KT 10SM OVC070 01/M04 A3019 830 69 -600 310/05 RMK AO2 TSNO
94908KDBQ DBQ20060324204510703/24/06 20:45:31  5-MIN KDBQ 250245Z AUTO 31006KT 10SM OVC070 01/M04 A3019 830 69 -600 310/06 RMK AO2 TSNO
94908KDBQ DBQ20060324205013003/24/06 20:50:31  5-MIN KDBQ 250250Z AUTO 32005KT 10SM OVC070 01/M04 A3019 830 69 -600 320/05 RMK AO2 SLP237 T00061044 53005 TSNO
94908KDBQ DBQ20060324205513003/24/06 20:55:31  5-MIN KDBQ 250255Z AUTO 31005KT 10SM OVC070 01/M04 A3019 830 69 -600 310/05 RMK AO2 SLP236 T00061044 55000 TSNO
94908KDBQ DBQ20060324210010703/24/06 21:00:31  5-MIN KDBQ 250300Z AUTO 31005KT 10SM OVC070 00/M04 A3019 830 72 -700 310/05 RMK AO2 TSNO
94908KDBQ DBQ20060324210510703/24/06 21:05:31  5-MIN KDBQ 250305Z AUTO 32004KT 10SM OVC070 01/M04 A3020 820 69 -600 320/04 RMK AO2 TSNO
94908KDBQ DBQ20060324211010703/24/06 21:10:31  5-MIN KDBQ 250310Z AUTO 32006KT 10SM OVC070 01/M04 A3020 820 69 -600 320/06 RMK AO2 TSNO
94908KDBQ DBQ20060324211511403/24/06 21:15:31  5-MIN KDBQ 250315Z AUTO 33006KT 10SM FEW043 OVC070 01/M04 A3020 820 69 -600 320/06 RMK AO2 TSNO
94908KDBQ DBQ20060324212011403/24/06 21:20:31  5-MIN KDBQ 250320Z AUTO 33006KT 10SM SCT043 OVC070 01/M04 A3020 820 69 -600 320/06 RMK AO2 TSNO
94908KDBQ DBQ20060324212511403/24/06 21:25:31  5-MIN KDBQ 250325Z AUTO 32006KT 10SM BKN043 OVC070 01/M04 A3020 820 69 -600 320/06 RMK AO2 TSNO
94908KDBQ DBQ20060324213011403/24/06 21:30:31  5-MIN KDBQ 250330Z AUTO 32006KT 10SM BKN045 OVC070 01/M04 A3020 820 69 -600 320/06 RMK AO2 TSNO
94908KDBQ DBQ20060324213511403/24/06 21:35:31  5-MIN KDBQ 250335Z AUTO 32007KT 10SM BKN045 OVC070 01/M04 A3020 820 69 -600 320/07 RMK AO2 TSNO
94908KDBQ DBQ20060324214010703/24/06 21:40:31  5-MIN KDBQ 250340Z AUTO 32007KT 10SM OVC043 01/M04 A3020 820 66 -600 320/07 RMK AO2 TSNO
94908KDBQ DBQ20060324214511403/24/06 21:45:31  5-MIN KDBQ 250345Z AUTO 32007KT 10SM BKN045 OVC070 01/M04 A3020 820 69 -600 320/07 RMK AO2 TSNO
94908KDBQ DBQ20060324215013103/24/06 21:50:31  5-MIN KDBQ 250350Z AUTO 32007KT 10SM BKN045 OVC070 01/M04 A3020 820 69 -600 320/07 RMK AO2 SLP238 T00061044 TSNO
94908KDBQ DBQ20060324215513103/24/06 21:55:31  5-MIN KDBQ 250355Z AUTO 31007KT 10SM BKN045 OVC070 01/M04 A3020 820 69 -600 310/07 RMK AO2 SLP238 T00061044 TSNO
94908KDBQ DBQ20060324220011403/24/06 22:00:31  5-MIN KDBQ 250400Z AUTO 31007KT 10SM SCT045 OVC070 01/M04 A3020 820 69 -600 310/07 RMK AO2 TSNO
94908KDBQ DBQ20060324220511403/24/06 22:05:31  5-MIN KDBQ 250405Z AUTO 31007KT 10SM SCT045 OVC065 01/M05 A3020 820 66 -600 310/07 RMK AO2 TSNO
94908KDBQ DBQ20060324221011403/24/06 22:10:31  5-MIN KDBQ 250410Z AUTO 32007KT 10SM FEW047 OVC065 01/M04 A3020 820 69 -600 320/07 RMK AO2 TSNO
94908KDBQ DBQ20060324221511403/24/06 22:15:31  5-MIN KDBQ 250415Z AUTO 32008KT 10SM FEW047 OVC065 01/M04 A3020 820 69 -600 320/08 RMK AO2 TSNO
94908KDBQ DBQ20060324222010703/24/06 22:20:31  5-MIN KDBQ 250420Z AUTO 32007KT 10SM OVC065 01/M04 A3020 820 69 -600 320/07 RMK AO2 TSNO
94908KDBQ DBQ20060324222510703/24/06 22:25:31  5-MIN KDBQ 250425Z AUTO 32007KT 10SM OVC065 01/M04 A3020 820 69 -600 320/07 RMK AO2 TSNO
94908KDBQ DBQ20060324223010703/24/06 22:30:31  5-MIN KDBQ 250430Z AUTO 33008KT 10SM OVC065 01/M04 A3020 820 69 -600 320/08 RMK AO2 TSNO
94908KDBQ DBQ20060324223510703/24/06 22:35:31  5-MIN KDBQ 250435Z AUTO 33008KT 10SM OVC065 01/M04 A3020 820 66 -600 330/08 RMK AO2 TSNO
94908KDBQ DBQ20060324224010703/24/06 22:40:31  5-MIN KDBQ 250440Z AUTO 33008KT 10SM OVC065 01/M04 A3020 820 66 -600 330/08 RMK AO2 TSNO
94908KDBQ DBQ20060324224510703/24/06 22:45:31  5-MIN KDBQ 250445Z AUTO 33009KT 10SM OVC065 01/M04 A3020 820 66 -600 330/09 RMK AO2 TSNO
94908KDBQ DBQ20060324225012403/24/06 22:50:31  5-MIN KDBQ 250450Z AUTO 33009KT 10SM OVC060 01/M04 A3020 820 66 -600 330/09 RMK AO2 SLP237 T00111044 TSNO
94908KDBQ DBQ20060324225512403/24/06 22:55:31  5-MIN KDBQ 250455Z AUTO 33010KT 10SM OVC060 01/M04 A3020 820 66 -600 330/10 RMK AO2 SLP237 T00111044 TSNO
94908KDBQ DBQ20060324230010703/24/06 23:00:31  5-MIN KDBQ 250500Z AUTO 34009KT 10SM OVC060 01/M04 A3020 820 66 -600 340/09 RMK AO2 TSNO
94908KDBQ DBQ20060324230511403/24/06 23:05:31  5-MIN KDBQ 250505Z AUTO 34009KT 10SM FEW044 OVC065 01/M04 A3020 820 66 -600 340/09 RMK AO2 TSNO
94908KDBQ DBQ20060324231011403/24/06 23:10:31  5-MIN KDBQ 250510Z AUTO 34009KT 10SM SCT044 OVC060 01/M04 A3020 820 66 -600 340/09 RMK AO2 TSNO
94908KDBQ DBQ20060324231511403/24/06 23:15:31  5-MIN KDBQ 250515Z AUTO 34009KT 10SM BKN044 OVC060 01/M04 A3020 820 69 -600 340/09 RMK AO2 TSNO
94908KDBQ DBQ20060324232011403/24/06 23:20:31  5-MIN KDBQ 250520Z AUTO 34010KT 10SM BKN044 OVC060 01/M04 A3020 820 69 -600 340/10 RMK AO2 TSNO
94908KDBQ DBQ20060324232511403/24/06 23:25:31  5-MIN KDBQ 250525Z AUTO 34009KT 10SM BKN044 OVC060 01/M04 A3020 820 69 -600 340/09 RMK AO2 TSNO
94908KDBQ DBQ20060324233011403/24/06 23:30:31  5-MIN KDBQ 250530Z AUTO 34010KT 10SM BKN044 OVC060 01/M04 A3020 820 69 -600 340/10 RMK AO2 TSNO
94908KDBQ DBQ20060324233512103/24/06 23:35:31  5-MIN KDBQ 250535Z AUTO 34009KT 10SM FEW042 SCT049 OVC060 01/M04 A3020 820 69 -600 340/09 RMK AO2 TSNO
94908KDBQ DBQ20060324234011403/24/06 23:40:31  5-MIN KDBQ 250540Z AUTO 34009KT 10SM FEW044 OVC060 01/M04 A3020 820 69 -600 340/09 RMK AO2 TSNO
94908KDBQ DBQ20060324234511403/24/06 23:45:31  5-MIN KDBQ 250545Z AUTO 35009KT 10SM FEW050 OVC060 01/M04 A3020 820 69 -600 350/09 RMK AO2 TSNO
94908KDBQ DBQ20060324235015903/24/06 23:50:31  5-MIN KDBQ 250550Z AUTO 35010KT 10SM FEW050 OVC060 01/M04 A3020 820 69 -600 350/10 RMK AO2 SLP237 T00111039 10017 20000 400281033 55000 TSNO
94908KDBQ DBQ20060324235515203/24/06 23:55:31  5-MIN KDBQ 250555Z AUTO 34009KT 10SM OVC060 01/M04 A3020 820 69 -600 340/09 RMK AO2 SLP237 T00111039 10017 20000 400281033 50001 TSNO
94908KDBQ DBQ20060325000010703/25/06 00:00:38  5-MIN KDBQ 250600Z AUTO 35009KT 10SM OVC060 01/M04 A3020 820 69 -600 350/09 RMK AO2 TSNO
94908KDBQ DBQ20060325000510703/25/06 00:05:31  5-MIN KDBQ 250605Z AUTO 34009KT 10SM OVC060 01/M04 A3020 820 69 -600 340/09 RMK AO2 TSNO
94908KDBQ DBQ20060325001010703/25/06 00:10:31  5-MIN KDBQ 250610Z AUTO 34008KT 10SM OVC065 01/M04 A3020 820 69 -600 340/08 RMK AO2 TSNO
94908KDBQ DBQ20060325001510703/25/06 00:15:33  5-MIN KDBQ 250615Z AUTO 34008KT 10SM OVC065 01/M04 A3020 820 69 -600 340/08 RMK AO2 TSNO
94908KDBQ DBQ20060325002010703/25/06 00:20:31  5-MIN KDBQ 250620Z AUTO 35008KT 10SM OVC065 01/M04 A3020 820 72 -600 350/08 RMK AO2 TSNO
94908KDBQ DBQ20060325002510703/25/06 00:25:31  5-MIN KDBQ 250625Z AUTO 35008KT 10SM OVC065 01/M04 A3020 820 69 -600 340/08 RMK AO2 TSNO
94908KDBQ DBQ20060325003010703/25/06 00:30:31  5-MIN KDBQ 250630Z AUTO 34009KT 10SM OVC070 01/M04 A3020 820 72 -600 340/09 RMK AO2 TSNO
94908KDBQ DBQ20060325003510703/25/06 00:35:31  5-MIN KDBQ 250635Z AUTO 33008KT 10SM OVC065 01/M04 A3020 820 72 -700 330/08 RMK AO2 TSNO
94908KDBQ DBQ20060325004010703/25/06 00:40:31  5-MIN KDBQ 250640Z AUTO 33009KT 10SM OVC065 01/M04 A3020 820 72 -700 330/09 RMK AO2 TSNO
94908KDBQ DBQ20060325004510703/25/06 00:45:31  5-MIN KDBQ 250645Z AUTO 33009KT 10SM OVC065 01/M04 A3020 820 72 -700 330/09 RMK AO2 TSNO
94908KDBQ DBQ20060325005013103/25/06 00:50:31  5-MIN KDBQ 250650Z AUTO 34009KT 10SM FEW035 OVC065 01/M03 A3020 820 75 -700 340/09 RMK AO2 SLP238 T00061033 TSNO
94908KDBQ DBQ20060325005513103/25/06 00:55:31  5-MIN KDBQ 250655Z AUTO 34010KT 10SM FEW035 OVC065 01/M04 A3020 820 69 -600 340/10 RMK AO2 SLP238 T00111039 TSNO
94908KDBQ DBQ20060325010011403/25/06 01:00:31  5-MIN KDBQ 250700Z AUTO 34010KT 10SM FEW033 OVC065 01/M03 A3020 820 72 -600 340/10 RMK AO2 TSNO
94908KDBQ DBQ20060325010511403/25/06 01:05:31  5-MIN KDBQ 250705Z AUTO 34009KT 10SM FEW033 OVC065 01/M03 A3020 820 72 -600 330/09 RMK AO2 TSNO
94908KDBQ DBQ20060325011011403/25/06 01:10:31  5-MIN KDBQ 250710Z AUTO 33010KT 10SM FEW033 OVC065 01/M03 A3020 820 72 -600 330/10 RMK AO2 TSNO
94908KDBQ DBQ20060325011511403/25/06 01:15:31  5-MIN KDBQ 250715Z AUTO 33008KT 10SM FEW033 OVC065 01/M03 A3020 820 72 -600 330/08 RMK AO2 TSNO
94908KDBQ DBQ20060325012011403/25/06 01:20:31  5-MIN KDBQ 250720Z AUTO 33008KT 10SM FEW033 OVC065 01/M03 A3020 820 75 -600 330/08 RMK AO2 TSNO
94908KDBQ DBQ20060325012511403/25/06 01:25:31  5-MIN KDBQ 250725Z AUTO 32006KT 10SM FEW033 OVC065 01/M03 A3020 820 75 -600 320/06 RMK AO2 TSNO
94908KDBQ DBQ20060325013011403/25/06 01:30:31  5-MIN KDBQ 250730Z AUTO 32008KT 10SM SCT043 OVC065 01/M03 A3020 820 75 -700 320/08 RMK AO2 TSNO
94908KDBQ DBQ20060325013511403/25/06 01:35:31  5-MIN KDBQ 250735Z AUTO 32009KT 10SM SCT040 OVC065 01/M03 A3020 820 75 -700 320/09 RMK AO2 TSNO
94908KDBQ DBQ20060325014011403/25/06 01:40:31  5-MIN KDBQ 250740Z AUTO 33008KT 10SM BKN040 OVC065 01/M03 A3020 820 72 -600 330/08 RMK AO2 TSNO
94908KDBQ DBQ20060325014511403/25/06 01:45:31  5-MIN KDBQ 250745Z AUTO 33008KT 10SM BKN040 OVC065 01/M03 A3020 820 72 -600 320/08 RMK AO2 TSNO
94908KDBQ DBQ20060325015013103/25/06 01:50:31  5-MIN KDBQ 250750Z AUTO 33009KT 10SM BKN042 OVC060 01/M03 A3020 820 72 -600 330/09 RMK AO2 SLP237 T00111033 TSNO
94908KDBQ DBQ20060325015513103/25/06 01:55:31  5-MIN KDBQ 250755Z AUTO 33009KT 10SM BKN042 OVC060 01/M03 A3020 820 72 -600 330/09 RMK AO2 SLP237 T00111033 TSNO
94908KDBQ DBQ20060325020012103/25/06 02:00:31  5-MIN KDBQ 250800Z AUTO 33010KT 10SM SCT042 BKN049 OVC060 01/M03 A3020 820 72 -600 330/10 RMK AO2 TSNO
94908KDBQ DBQ20060325020511403/25/06 02:05:31  5-MIN KDBQ 250805Z AUTO 33009KT 10SM BKN044 OVC060 01/M03 A3020 820 72 -600 330/09 RMK AO2 TSNO
94908KDBQ DBQ20060325021011403/25/06 02:10:31  5-MIN KDBQ 250810Z AUTO 34010KT 10SM SCT044 OVC060 01/M03 A3020 820 72 -600 330/10 RMK AO2 TSNO
94908KDBQ DBQ20060325021511403/25/06 02:15:31  5-MIN KDBQ 250815Z AUTO 33011KT 10SM SCT044 OVC060 01/M03 A3020 820 75 -700 330/11 RMK AO2 TSNO
94908KDBQ DBQ20060325022011403/25/06 02:20:31  5-MIN KDBQ 250820Z AUTO 33010KT 10SM SCT044 OVC065 01/M03 A3020 820 72 -600 330/10 RMK AO2 TSNO
94908KDBQ DBQ20060325022511403/25/06 02:25:31  5-MIN KDBQ 250825Z AUTO 33011KT 10SM FEW044 OVC065 01/M03 A3020 820 75 -600 330/11 RMK AO2 TSNO
94908KDBQ DBQ20060325023011403/25/06 02:30:31  5-MIN KDBQ 250830Z AUTO 34010KT 10SM FEW044 OVC065 01/M03 A3020 820 75 -600 340/10 RMK AO2 TSNO
94908KDBQ DBQ20060325023511403/25/06 02:35:31  5-MIN KDBQ 250835Z AUTO 33010KT 10SM FEW044 OVC065 01/M03 A3020 820 75 -600 330/10 RMK AO2 TSNO
94908KDBQ DBQ20060325024011403/25/06 02:40:31  5-MIN KDBQ 250840Z AUTO 34010KT 10SM FEW047 OVC065 01/M03 A3019 830 72 -600 340/10 RMK AO2 TSNO
94908KDBQ DBQ20060325024510703/25/06 02:45:31  5-MIN KDBQ 250845Z AUTO 34008KT 10SM OVC065 01/M03 A3019 830 75 -600 340/08 RMK AO2 TSNO
94908KDBQ DBQ20060325025013003/25/06 02:50:31  5-MIN KDBQ 250850Z AUTO 34010KT 10SM OVC065 01/M03 A3019 830 72 -600 340/10 RMK AO2 SLP235 T00111033 50001 TSNO
94908KDBQ DBQ20060325025513003/25/06 02:55:31  5-MIN KDBQ 250855Z AUTO 34009KT 10SM OVC065 01/M03 A3019 830 75 -600 340/09 RMK AO2 SLP235 T00061033 58001 TSNO
94908KDBQ DBQ20060325030010703/25/06 03:00:31  5-MIN KDBQ 250900Z AUTO 34009KT 10SM OVC065 01/M03 A3019 830 75 -600 340/09 RMK AO2 TSNO
94908KDBQ DBQ20060325030510703/25/06 03:05:31  5-MIN KDBQ 250905Z AUTO 34009KT 10SM OVC065 01/M03 A3019 830 75 -600 340/09 RMK AO2 TSNO
94908KDBQ DBQ20060325031010703/25/06 03:10:31  5-MIN KDBQ 250910Z AUTO 34009KT 10SM OVC065 01/M03 A3019 830 75 -600 340/09 RMK AO2 TSNO
94908KDBQ DBQ20060325031510703/25/06 03:15:31  5-MIN KDBQ 250915Z AUTO 34009KT 10SM OVC070 01/M03 A3019 830 75 -600 340/09 RMK AO2 TSNO
94908KDBQ DBQ20060325032010703/25/06 03:20:31  5-MIN KDBQ 250920Z AUTO 34008KT 10SM OVC070 01/M03 A3019 830 75 -600 340/08 RMK AO2 TSNO
94908KDBQ DBQ20060325032510703/25/06 03:25:31  5-MIN KDBQ 250925Z AUTO 34010KT 10SM OVC065 01/M03 A3019 830 75 -600 340/10 RMK AO2 TSNO
94908KDBQ DBQ20060325033010703/25/06 03:30:31  5-MIN KDBQ 250930Z AUTO 33010KT 10SM OVC065 01/M03 A3019 830 75 -600 330/10 RMK AO2 TSNO
94908KDBQ DBQ20060325033510703/25/06 03:35:31  5-MIN KDBQ 250935Z AUTO 33010KT 10SM OVC065 01/M03 A3019 830 72 -600 330/10 RMK AO2 TSNO
94908KDBQ DBQ20060325034010703/25/06 03:40:31  5-MIN KDBQ 250940Z AUTO 33009KT 10SM OVC065 01/M03 A3020 820 75 -600 330/09 RMK AO2 TSNO
94908KDBQ DBQ20060325034510703/25/06 03:45:31  5-MIN KDBQ 250945Z AUTO 33010KT 10SM OVC065 01/M03 A3020 820 75 -600 330/10 RMK AO2 TSNO
94908KDBQ DBQ20060325035012403/25/06 03:50:31  5-MIN KDBQ 250950Z AUTO 33010KT 10SM OVC065 01/M03 A3020 820 75 -600 330/10 RMK AO2 SLP237 T00061033 TSNO
94908KDBQ DBQ20060325035512403/25/06 03:55:31  5-MIN KDBQ 250955Z AUTO 33010KT 10SM OVC065 01/M03 A3020 820 75 -600 330/10 RMK AO2 SLP237 T00061033 TSNO
94908KDBQ DBQ20060325040010703/25/06 04:00:31  5-MIN KDBQ 251000Z AUTO 33012KT 10SM OVC065 01/M04 A3020 820 72 -600 330/12 RMK AO2 TSNO
94908KDBQ DBQ20060325040510703/25/06 04:05:31  5-MIN KDBQ 251005Z AUTO 33011KT 10SM OVC060 01/M03 A3020 820 75 -600 330/11 RMK AO2 TSNO
94908KDBQ DBQ20060325041010703/25/06 04:10:31  5-MIN KDBQ 251010Z AUTO 33011KT 10SM OVC060 01/M04 A3020 820 69 -600 330/11 RMK AO2 TSNO
94908KDBQ DBQ20060325041510703/25/06 04:15:31  5-MIN KDBQ 251015Z AUTO 33011KT 10SM OVC060 01/M04 A3020 820 69 -600 330/11 RMK AO2 TSNO
94908KDBQ DBQ20060325042010703/25/06 04:20:31  5-MIN KDBQ 251020Z AUTO 33012KT 10SM OVC060 01/M04 A3020 820 69 -600 330/12 RMK AO2 TSNO
94908KDBQ DBQ20060325042510703/25/06 04:25:31  5-MIN KDBQ 251025Z AUTO 33012KT 10SM OVC060 01/M03 A3020 820 72 -600 330/12 RMK AO2 TSNO
94908KDBQ DBQ20060325043010703/25/06 04:30:31  5-MIN KDBQ 251030Z AUTO 33012KT 10SM OVC060 01/M03 A3020 820 72 -600 330/12 RMK AO2 TSNO
94908KDBQ DBQ20060325043510703/25/06 04:35:31  5-MIN KDBQ 251035Z AUTO 34014KT 10SM OVC060 01/M04 A3021 810 69 -600 330/14 RMK AO2 TSNO
94908KDBQ DBQ20060325044010703/25/06 04:40:31  5-MIN KDBQ 251040Z AUTO 34012KT 10SM OVC060 01/M04 A3021 810 69 -600 330/12 RMK AO2 TSNO
94908KDBQ DBQ20060325044510703/25/06 04:45:31  5-MIN KDBQ 251045Z AUTO 34011KT 10SM OVC060 01/M03 A3021 810 75 -700 340/11 RMK AO2 TSNO
94908KDBQ DBQ20060325045012403/25/06 04:50:31  5-MIN KDBQ 251050Z AUTO 34011KT 10SM OVC060 01/M03 A3021 810 75 -700 340/11 RMK AO2 SLP243 T00061033 TSNO
94908KDBQ DBQ20060325045512403/25/06 04:55:31  5-MIN KDBQ 251055Z AUTO 34011KT 10SM OVC060 01/M03 A3022 810 75 -700 340/11 RMK AO2 SLP243 T00061033 TSNO
94908KDBQ DBQ20060325050010703/25/06 05:00:31  5-MIN KDBQ 251100Z AUTO 34010KT 10SM OVC060 01/M03 A3022 810 75 -700 340/10 RMK AO2 TSNO
94908KDBQ DBQ20060325050510703/25/06 05:05:31  5-MIN KDBQ 251105Z AUTO 34010KT 10SM OVC060 01/M03 A3022 800 75 -700 340/10 RMK AO2 TSNO
94908KDBQ DBQ20060325051010703/25/06 05:10:31  5-MIN KDBQ 251110Z AUTO 34010KT 10SM OVC060 01/M04 A3022 800 69 -600 340/10 RMK AO2 TSNO
94908KDBQ DBQ20060325051510703/25/06 05:15:31  5-MIN KDBQ 251115Z AUTO 34011KT 10SM OVC060 01/M03 A3022 800 75 -700 340/11 RMK AO2 TSNO
94908KDBQ DBQ20060325052010703/25/06 05:20:31  5-MIN KDBQ 251120Z AUTO 34012KT 10SM OVC060 01/M04 A3022 800 69 -600 340/12 RMK AO2 TSNO
94908KDBQ DBQ20060325052510703/25/06 05:25:31  5-MIN KDBQ 251125Z AUTO 34009KT 10SM OVC060 01/M04 A3022 800 69 -600 340/09 RMK AO2 TSNO
94908KDBQ DBQ20060325053010703/25/06 05:30:31  5-MIN KDBQ 251130Z AUTO 34010KT 10SM OVC060 01/M04 A3023 800 69 -600 340/10 RMK AO2 TSNO
94908KDBQ DBQ20060325053510703/25/06 05:35:31  5-MIN KDBQ 251135Z AUTO 34010KT 10SM OVC060 01/M04 A3023 790 69 -600 340/10 RMK AO2 TSNO
94908KDBQ DBQ20060325054010703/25/06 05:40:31  5-MIN KDBQ 251140Z AUTO 34010KT 10SM OVC060 01/M03 A3023 790 72 -600 340/10 RMK AO2 TSNO
94908KDBQ DBQ20060325054510703/25/06 05:45:31  5-MIN KDBQ 251145Z AUTO 34010KT 10SM OVC055 01/M04 A3023 790 69 -600 340/10 RMK AO2 TSNO
94908KDBQ DBQ20060325055013203/25/06 05:50:31  5-MIN KDBQ 251150Z 35011KT 10SM OVC055 01/M03 A3023 790 72 -600 350/11 RMK AO2 SLP250 T00111033 10011 20006 58001
94908KDBQ DBQ20060325055513203/25/06 05:55:31  5-MIN KDBQ 251155Z 35010KT 10SM OVC055 01/M03 A3024 790 75 -700 340/10 RMK AO2 SLP250 T00061033 10011 20006 53015
94908KDBQ DBQ20060325060009703/25/06 06:00:31  5-MIN KDBQ 251200Z 35010KT 10SM OVC055 01/M03 A3024 790 72 -600 340/10 RMK AO2
94908KDBQ DBQ20060325060509703/25/06 06:05:31  5-MIN KDBQ 251205Z 34010KT 10SM OVC055 01/M03 A3024 780 75 -700 340/10 RMK AO2
94908KDBQ DBQ20060325061009703/25/06 06:10:31  5-MIN KDBQ 251210Z 34009KT 10SM OVC050 01/M03 A3024 780 75 -700 340/09 RMK AO2
94908KDBQ DBQ20060325061509703/25/06 06:15:31  5-MIN KDBQ 251215Z 35009KT 10SM OVC050 01/M03 A3024 780 75 -700 340/09 RMK AO2
94908KDBQ DBQ20060325062009703/25/06 06:20:31  5-MIN KDBQ 251220Z 34009KT 10SM OVC050 01/M03 A3025 780 75 -700 340/09 RMK AO2
94908KDBQ DBQ20060325062509703/25/06 06:25:31  5-MIN KDBQ 251225Z 34009KT 10SM OVC050 01/M03 A3025 780 75 -700 340/09 RMK AO2
94908KDBQ DBQ20060325063009703/25/06 06:30:31  5-MIN KDBQ 251230Z 34009KT 10SM OVC050 01/M03 A3025 780 75 -700 340/09 RMK AO2
94908KDBQ DBQ20060325063509703/25/06 06:35:31  5-MIN KDBQ 251235Z 35009KT 10SM OVC050 01/M03 A3025 770 75 -700 350/09 RMK AO2
94908KDBQ DBQ20060325064009703/25/06 06:40:31  5-MIN KDBQ 251240Z 34008KT 10SM OVC050 01/M03 A3025 770 75 -700 340/08 RMK AO2
94908KDBQ DBQ20060325064509703/25/06 06:45:31  5-MIN KDBQ 251245Z 34009KT 10SM OVC050 01/M03 A3025 770 72 -600 340/09 RMK AO2
94908KDBQ DBQ20060325065011403/25/06 06:50:31  5-MIN KDBQ 251250Z 35008KT 10SM OVC050 01/M03 A3025 770 72 -600 350/08 RMK AO2 SLP256 T00111033
94908KDBQ DBQ20060325065511403/25/06 06:55:31  5-MIN KDBQ 251255Z 35008KT 10SM OVC050 01/M03 A3025 770 72 -600 350/08 RMK AO2 SLP257 T00111033
94908KDBQ DBQ20060325070009703/25/06 07:00:31  5-MIN KDBQ 251300Z 35008KT 10SM OVC050 01/M03 A3026 770 72 -600 350/08 RMK AO2
94908KDBQ DBQ20060325070509703/25/06 07:05:31  5-MIN KDBQ 251305Z 35007KT 10SM OVC050 01/M03 A3026 770 72 -600 350/07 RMK AO2
94908KDBQ DBQ20060325071009703/25/06 07:10:31  5-MIN KDBQ 251310Z 34007KT 10SM OVC050 01/M03 A3026 770 72 -700 340/07 RMK AO2
94908KDBQ DBQ20060325071509703/25/06 07:15:31  5-MIN KDBQ 251315Z 34008KT 10SM OVC050 01/M03 A3026 770 72 -700 340/08 RMK AO2
94908KDBQ DBQ20060325072009703/25/06 07:20:31  5-MIN KDBQ 251320Z 34008KT 10SM OVC050 01/M03 A3026 760 72 -700 340/08 RMK AO2
94908KDBQ DBQ20060325072509703/25/06 07:25:31  5-MIN KDBQ 251325Z 34008KT 10SM OVC050 01/M03 A3026 760 72 -700 340/08 RMK AO2
94908KDBQ DBQ20060325073009703/25/06 07:30:31  5-MIN KDBQ 251330Z 35009KT 10SM OVC050 02/M03 A3026 760 69 -600 340/09 RMK AO2
94908KDBQ DBQ20060325073509703/25/06 07:35:31  5-MIN KDBQ 251335Z 35009KT 10SM OVC050 02/M03 A3026 760 69 -600 350/09 RMK AO2
94908KDBQ DBQ20060325074009703/25/06 07:40:31  5-MIN KDBQ 251340Z 35009KT 10SM OVC050 02/M03 A3026 760 69 -600 350/09 RMK AO2
94908KDBQ DBQ20060325074509703/25/06 07:45:31  5-MIN KDBQ 251345Z 35010KT 10SM OVC050 02/M03 A3026 760 69 -500 350/10 RMK AO2
94908KDBQ DBQ20060325075011403/25/06 07:50:31  5-MIN KDBQ 251350Z 36009KT 10SM OVC050 02/M03 A3026 760 67 -500 350/09 RMK AO2 SLP260 T00221033
94908KDBQ DBQ20060325075511403/25/06 07:55:31  5-MIN KDBQ 251355Z 36010KT 10SM OVC050 02/M03 A3026 760 67 -500 360/10 RMK AO2 SLP260 T00221033
94908KDBQ DBQ20060325080009703/25/06 08:00:31  5-MIN KDBQ 251400Z 35010KT 10SM OVC050 02/M03 A3026 760 67 -500 350/10 RMK AO2
94908KDBQ DBQ20060325080509703/25/06 08:05:31  5-MIN KDBQ 251405Z 35009KT 10SM OVC050 02/M03 A3026 760 67 -500 350/09 RMK AO2
94908KDBQ DBQ20060325081009703/25/06 08:10:31  5-MIN KDBQ 251410Z 36010KT 10SM OVC050 02/M03 A3026 760 67 -500 360/10 RMK AO2
94908KDBQ DBQ20060325081509703/25/06 08:15:31  5-MIN KDBQ 251415Z 36010KT 10SM OVC050 03/M03 A3026 760 67 -400 360/10 RMK AO2
94908KDBQ DBQ20060325082009703/25/06 08:20:31  5-MIN KDBQ 251420Z 35011KT 10SM OVC050 03/M03 A3026 760 64 -400 350/11 RMK AO2
94908KDBQ DBQ20060325082509703/25/06 08:25:31  5-MIN KDBQ 251425Z 36011KT 10SM OVC050 03/M03 A3026 760 64 -400 360/11 RMK AO2
94908KDBQ DBQ20060325083009703/25/06 08:30:31  5-MIN KDBQ 251430Z 35010KT 10SM OVC050 03/M03 A3027 760 61 -400 350/10 RMK AO2
94908KDBQ DBQ20060325083509703/25/06 08:35:31  5-MIN KDBQ 251435Z 35010KT 10SM OVC048 03/M03 A3027 760 64 -400 350/10 RMK AO2
94908KDBQ DBQ20060325084009703/25/06 08:40:31  5-MIN KDBQ 251440Z 01011KT 10SM OVC048 03/M03 A3027 760 61 -400 360/11 RMK AO2
94908KDBQ DBQ20060325084509703/25/06 08:45:31  5-MIN KDBQ 251445Z 35010KT 10SM OVC048 03/M03 A3027 760 61 -400 350/10 RMK AO2
94908KDBQ DBQ20060325085012003/25/06 08:50:31  5-MIN KDBQ 251450Z 33011KT 10SM OVC046 03/M03 A3027 760 64 -400 330/11 RMK AO2 SLP260 T00331028 53015
94908KDBQ DBQ20060325085512003/25/06 08:55:31  5-MIN KDBQ 251455Z 36010KT 10SM OVC046 03/M03 A3027 760 61 -400 360/10 RMK AO2 SLP260 T00331033 51010
94908KDBQ DBQ20060325090009703/25/06 09:00:31  5-MIN KDBQ 251500Z 34011KT 10SM OVC046 04/M03 A3027 760 59 -300 340/11 RMK AO2
94908KDBQ DBQ20060325090509703/25/06 09:05:31  5-MIN KDBQ 251505Z 35010KT 10SM OVC046 04/M03 A3027 760 62 -300 350/10 RMK AO2
94908KDBQ DBQ20060325091009703/25/06 09:10:31  5-MIN KDBQ 251510Z 01012KT 10SM OVC046 04/M03 A3027 760 59 -300 010/12 RMK AO2
94908KDBQ DBQ20060325091509703/25/06 09:15:31  5-MIN KDBQ 251515Z 01010KT 10SM OVC046 04/M03 A3027 760 59 -300 010/10 RMK AO2
94908KDBQ DBQ20060325092009703/25/06 09:20:31  5-MIN KDBQ 251520Z 35012KT 10SM BKN046 04/M03 A3027 760 59 -300 350/12 RMK AO2
94908KDBQ DBQ20060325092509703/25/06 09:25:31  5-MIN KDBQ 251525Z 36011KT 10SM BKN046 04/M03 A3027 760 57 -200 360/11 RMK AO2
94908KDBQ DBQ20060325093011003/25/06 09:30:31  5-MIN KDBQ 251530Z 01013G19KT 10SM FEW036 BKN046 04/M04 A3027 760 57 -300 360/13G19 RMK AO2
94908KDBQ DBQ20060325093511003/25/06 09:35:31  5-MIN KDBQ 251535Z 36012G19KT 10SM SCT038 BKN046 04/M04 A3027 760 57 -300 360/12G19 RMK AO2
94908KDBQ DBQ20060325094011003/25/06 09:40:31  5-MIN KDBQ 251540Z 01013G19KT 10SM SCT038 BKN046 04/M04 A3027 760 57 -300 010/13G19 RMK AO2
94908KDBQ DBQ20060325094511003/25/06 09:45:31  5-MIN KDBQ 251545Z 36012G19KT 10SM SCT038 BKN046 03/M04 A3027 760 57 -400 360/12G19 RMK AO2
94908KDBQ DBQ20060325095011403/25/06 09:50:31  5-MIN KDBQ 251550Z 36013KT 10SM BKN038 03/M04 A3027 760 59 -400 360/13 RMK AO2 SLP260 T00331039
94908KDBQ DBQ20060325095511403/25/06 09:55:31  5-MIN KDBQ 251555Z 01011KT 10SM BKN040 04/M04 A3027 760 57 -300 010/11 RMK AO2 SLP261 T00391039
94908KDBQ DBQ20060325100009703/25/06 10:00:31  5-MIN KDBQ 251600Z 01011KT 10SM BKN040 04/M04 A3027 750 57 -300 010/11 RMK AO2
94908KDBQ DBQ20060325100509703/25/06 10:05:31  5-MIN KDBQ 251605Z 36012KT 10SM BKN040 04/M04 A3027 760 57 -300 360/12 RMK AO2
94908KDBQ DBQ20060325101009703/25/06 10:10:31  5-MIN KDBQ 251610Z 01012KT 10SM BKN040 04/M04 A3027 750 55 -300 010/12 RMK AO2
94908KDBQ DBQ20060325101510303/25/06 10:15:31  5-MIN KDBQ 251615Z 36011G17KT 10SM OVC040 04/M04 A3027 750 55 -300 360/11G17 RMK AO2
94908KDBQ DBQ20060325102010303/25/06 10:20:31  5-MIN KDBQ 251620Z 01011G17KT 10SM OVC040 04/M04 A3027 750 55 -300 360/11G17 RMK AO2
94908KDBQ DBQ20060325102509703/25/06 10:25:31  5-MIN KDBQ 251625Z 36013KT 10SM OVC040 04/M04 A3028 750 55 -300 360/13 RMK AO2
94908KDBQ DBQ20060325103009703/25/06 10:30:31  5-MIN KDBQ 251630Z 36013KT 10SM OVC038 04/M04 A3028 750 55 -300 360/13 RMK AO2
94908KDBQ DBQ20060325103509703/25/06 10:35:31  5-MIN KDBQ 251635Z 36011KT 10SM OVC038 04/M04 A3028 750 55 -300 360/11 RMK AO2
94908KDBQ DBQ20060325104009703/25/06 10:40:31  5-MIN KDBQ 251640Z 35010KT 10SM OVC038 04/M04 A3028 750 55 -300 350/10 RMK AO2
94908KDBQ DBQ20060325104509703/25/06 10:45:31  5-MIN KDBQ 251645Z 36009KT 10SM OVC038 04/M04 A3028 750 55 -300 360/09 RMK AO2
94908KDBQ DBQ20060325105011403/25/06 10:50:31  5-MIN KDBQ 251650Z 02010KT 10SM OVC038 04/M04 A3028 750 55 -300 020/10 RMK AO2 SLP263 T00441039
94908KDBQ DBQ20060325105511403/25/06 10:55:31  5-MIN KDBQ 251655Z 01013KT 10SM OVC038 05/M03 A3028 750 55 -200 010/13 RMK AO2 SLP262 T00501033
94908KDBQ DBQ20060325110009703/25/06 11:00:31  5-MIN KDBQ 251700Z 35012KT 10SM OVC038 05/M04 A3028 750 52 -200 350/12 RMK AO2
94908KDBQ DBQ20060325110511303/25/06 11:05:31  5-MIN KDBQ 251705Z 36010KT 330V030 10SM OVC038 04/M03 A3028 750 57 -300 360/10 330V030 RMK AO2
94908KDBQ DBQ20060325111009703/25/06 11:10:31  5-MIN KDBQ 251710Z 35010KT 10SM OVC038 05/M03 A3028 750 55 -200 350/10 RMK AO2
94908KDBQ DBQ20060325111509703/25/06 11:15:31  5-MIN KDBQ 251715Z 36009KT 10SM OVC038 05/M04 A3028 750 52 -200 360/09 RMK AO2
94908KDBQ DBQ20060325112009703/25/06 11:20:31  5-MIN KDBQ 251720Z 36009KT 10SM OVC036 05/M04 A3028 750 52 -200 360/09 RMK AO2
94908KDBQ DBQ20060325112509703/25/06 11:25:31  5-MIN KDBQ 251725Z 34009KT 10SM OVC036 05/M03 A3027 750 55 -200 340/09 RMK AO2
94908KDBQ DBQ20060325113009703/25/06 11:30:31  5-MIN KDBQ 251730Z 01010KT 10SM OVC036 05/M03 A3027 750 55 -200 010/10 RMK AO2
94908KDBQ DBQ20060325113509703/25/06 11:35:31  5-MIN KDBQ 251735Z 01011KT 10SM OVC034 05/M03 A3027 750 55 -200 010/11 RMK AO2
94908KDBQ DBQ20060325114009703/25/06 11:40:31  5-MIN KDBQ 251740Z 03013KT 10SM OVC034 05/M03 A3027 750 55 -200 020/13 RMK AO2
94908KDBQ DBQ20060325114509703/25/06 11:45:31  5-MIN KDBQ 251745Z 02011KT 10SM BKN036 05/M03 A3027 750 55 -200 020/11 RMK AO2
94908KDBQ DBQ20060325115013603/25/06 11:50:31  5-MIN KDBQ 251750Z 03009KT 10SM BKN034 BKN041 06/M03 A3027 760 53 0 020/09 RMK AO2 SLP260 T00611028 10061 20006 51010
94908KDBQ DBQ20060325115513503/25/06 11:55:31  5-MIN KDBQ 251755Z 03012G18KT 10SM BKN036 06/M03 A3027 760 51 0 030/12G18 RMK AO2 SLP260 T00611033 10061 20006 50001
94908KDBQ DBQ20060325120010303/25/06 12:00:31  5-MIN KDBQ 251800Z 03015G19KT 10SM BKN038 06/M03 A3027 760 53 -100 030/15G19 RMK AO2
94908KDBQ DBQ20060325120510303/25/06 12:05:31  5-MIN KDBQ 251805Z 02011G20KT 10SM BKN038 06/M03 A3027 760 53 -100 020/11G20 RMK AO2
94908KDBQ DBQ20060325121010003/25/06 12:10:31  5-MIN KDBQ 251810Z 04011G20KT 10SM BKN038 06/M03 A3027 760 51 0 040/11G20 RMK AO2
94908KDBQ DBQ20060325121509703/25/06 12:15:31  5-MIN KDBQ 251815Z 01009KT 10SM BKN038 06/M04 A3027 760 50 -100 010/09 RMK AO2
94908KDBQ DBQ20060325122010003/25/06 12:20:31  5-MIN KDBQ 251820Z 01011G19KT 10SM BKN038 07/M03 A3027 760 49 0 010/11G19 RMK AO2
94908KDBQ DBQ20060325122510003/25/06 12:25:31  5-MIN KDBQ 251825Z 04012G19KT 10SM BKN038 06/M03 A3027 760 51 0 040/12G19 RMK AO2
94908KDBQ DBQ20060325123010303/25/06 12:30:31  5-MIN KDBQ 251830Z 05011G17KT 10SM BKN038 06/M03 A3027 760 53 -100 050/11G17 RMK AO2
94908KDBQ DBQ20060325123511003/25/06 12:35:31  5-MIN KDBQ 251835Z 02011KT 360V060 10SM BKN038 06/M03 A3027 760 51 0 020/11 360V060 RMK AO2
94908KDBQ DBQ20060325124010003/25/06 12:40:31  5-MIN KDBQ 251840Z 02010G16KT 10SM BKN040 06/M03 A3027 760 51 0 020/10G16 RMK AO2
94908KDBQ DBQ20060325124510003/25/06 12:45:31  5-MIN KDBQ 251845Z 03014G17KT 10SM BKN040 07/M04 A3026 760 47 0 030/14G17 RMK AO2
94908KDBQ DBQ20060325125011903/25/06 12:50:31  5-MIN KDBQ 251850Z 05013G17KT 10SM SCT040 07/M03 A3026 760 47 100 050/13G17 RMK AO2 SLP257 T00721033
94908KDBQ DBQ20060325125511103/25/06 12:55:31  5-MIN KDBQ 251855Z 04010KT 10SM SCT040 07/M03 A3026 760 49 0 040/10 RMK AO2 SLP257 T00671033
94908KDBQ DBQ20060325130009403/25/06 13:00:31  5-MIN KDBQ 251900Z 03008KT 10SM BKN040 07/M03 A3026 760 49 0 030/08 RMK AO2
94908KDBQ DBQ20060325130510003/25/06 13:05:31  5-MIN KDBQ 251905Z 04010G16KT 10SM BKN040 07/M03 A3026 770 49 0 040/10G16 RMK AO2
94908KDBQ DBQ20060325131010303/25/06 13:10:31  5-MIN KDBQ 251910Z 03007G16KT 10SM SCT040 06/M04 A3026 770 50 -100 030/07G16 RMK AO2
94908KDBQ DBQ20060325131511003/25/06 13:15:31  5-MIN KDBQ 251915Z 03008KT 300V080 10SM BKN040 07/M04 A3026 770 47 0 030/08 300V080 RMK AO2
94908KDBQ DBQ20060325132009403/25/06 13:20:31  5-MIN KDBQ 251920Z 05007KT 10SM BKN040 06/M04 A3026 770 46 0 040/07 RMK AO2
94908KDBQ DBQ20060325132509403/25/06 13:25:31  5-MIN KDBQ 251925Z 02008KT 10SM BKN040 06/M04 A3025 770 48 0 020/08 RMK AO2
94908KDBQ DBQ20060325133009403/25/06 13:30:31  5-MIN KDBQ 251930Z 04008KT 10SM BKN042 06/M04 A3025 770 48 0 040/08 RMK AO2
94908KDBQ DBQ20060325133509403/25/06 13:35:31  5-MIN KDBQ 251935Z 05009KT 10SM OVC042 06/M04 A3025 770 48 0 050/09 RMK AO2
94908KDBQ DBQ20060325134009403/25/06 13:40:31  5-MIN KDBQ 251940Z 36009KT 10SM BKN042 06/M04 A3025 770 48 0 360/09 RMK AO2
94908KDBQ DBQ20060325134509403/25/06 13:45:31  5-MIN KDBQ 251945Z 36008KT 10SM BKN042 06/M04 A3025 780 48 0 360/08 RMK AO2
94908KDBQ DBQ20060325135011103/25/06 13:50:31  5-MIN KDBQ 251950Z 03007KT 10SM BKN042 07/M04 A3025 780 47 0 030/07 RMK AO2 SLP252 T00671039
94908KDBQ DBQ20060325135511303/25/06 13:55:31  5-MIN KDBQ 251955Z 36008KT 10SM BKN042 07/M04 A3024 780 45 100 350/08 RMK AO2 SLP251 T00721039
94908KDBQ DBQ20060325140010003/25/06 14:00:31  5-MIN KDBQ 252000Z 35008G14KT 10SM BKN044 07/M04 A3024 780 47 0 350/08G14 RMK AO2
94908KDBQ DBQ20060325140509603/25/06 14:05:31  5-MIN KDBQ 252005Z 04009KT 10SM BKN044 07/M04 A3025 780 45 100 040/09 RMK AO2
94908KDBQ DBQ20060325141009603/25/06 14:10:31  5-MIN KDBQ 252010Z 03010KT 10SM BKN046 07/M03 A3025 780 47 100 030/10 RMK AO2
94908KDBQ DBQ20060325141509603/25/06 14:15:31  5-MIN KDBQ 252015Z 02005KT 10SM BKN046 07/M04 A3024 780 45 100 020/05 RMK AO2
94908KDBQ DBQ20060325142009603/25/06 14:20:31  5-MIN KDBQ 252020Z 06007KT 10SM BKN046 07/M04 A3024 780 45 100 050/07 RMK AO2
94908KDBQ DBQ20060325142509403/25/06 14:25:31  5-MIN KDBQ 252025Z 05008KT 10SM BKN046 07/M04 A3024 780 47 0 050/08 RMK AO2
94908KDBQ DBQ20060325143011703/25/06 14:30:31  5-MIN KDBQ 252030Z 04008KT 010V080 10SM BKN046 OVC055 06/M04 A3024 780 46 0 040/08 010V080 RMK AO2
94908KDBQ DBQ20060325143509603/25/06 14:35:31  5-MIN KDBQ 252035Z 02008KT 10SM OVC050 07/M04 A3024 780 45 100 020/08 RMK AO2
94908KDBQ DBQ20060325144009603/25/06 14:40:31  5-MIN KDBQ 252040Z 03006KT 10SM OVC050 08/M04 A3024 780 41 100 030/06 RMK AO2
94908KDBQ DBQ20060325144509403/25/06 14:45:31  5-MIN KDBQ 252045Z 04007KT 10SM OVC050 07/M04 A3024 780 47 0 040/07 RMK AO2
94908KDBQ DBQ20060325145011703/25/06 14:50:31  5-MIN KDBQ 252050Z 04008KT 10SM OVC050 07/M04 A3024 780 47 0 040/08 RMK AO2 SLP251 T00671039 50001
94908KDBQ DBQ20060325145511703/25/06 14:55:31  5-MIN KDBQ 252055Z 01008KT 10SM OVC050 07/M04 A3025 780 45 0 010/08 RMK AO2 SLP252 T00671044 55008
94908KDBQ DBQ20060325150009403/25/06 15:00:31  5-MIN KDBQ 252100Z 04009KT 10SM OVC055 07/M04 A3025 780 47 0 040/09 RMK AO2
94908KDBQ DBQ20060325150509403/25/06 15:05:31  5-MIN KDBQ 252105Z VRB06KT 10SM OVC055 07/M04 A3025 780 45 0 VRB/06 RMK AO2
94908KDBQ DBQ20060325151009603/25/06 15:10:31  5-MIN KDBQ 252110Z 03010KT 10SM OVC055 07/M04 A3025 780 45 100 030/10 RMK AO2
94908KDBQ DBQ20060325151510103/25/06 15:15:31  5-MIN KDBQ 252115Z 03006KT 10SM SCT050 OVC060 07/M04 A3025 780 47 0 030/06 RMK AO2
94908KDBQ DBQ20060325152010103/25/06 15:20:31  5-MIN KDBQ 252120Z 03009KT 10SM BKN050 OVC065 07/M04 A3025 780 47 0 030/09 RMK AO2
94908KDBQ DBQ20060325152510103/25/06 15:25:31  5-MIN KDBQ 252125Z 05006KT 10SM FEW047 OVC060 06/M04 A3025 780 48 0 050/06 RMK AO2
94908KDBQ DBQ20060325153010103/25/06 15:30:31  5-MIN KDBQ 252130Z 01008KT 10SM FEW047 OVC065 06/M04 A3025 780 48 0 010/08 RMK AO2
94908KDBQ DBQ20060325153510103/25/06 15:35:31  5-MIN KDBQ 252135Z 03005KT 10SM SCT047 OVC065 06/M04 A3025 780 48 0 030/05 RMK AO2
94908KDBQ DBQ20060325154010103/25/06 15:40:31  5-MIN KDBQ 252140Z 03007KT 10SM SCT045 OVC070 07/M04 A3025 780 47 0 030/07 RMK AO2
94908KDBQ DBQ20060325154510103/25/06 15:45:31  5-MIN KDBQ 252145Z 02009KT 10SM BKN045 OVC065 06/M04 A3025 780 48 0 020/09 RMK AO2
94908KDBQ DBQ20060325155011803/25/06 15:50:31  5-MIN KDBQ 252150Z 36007KT 10SM BKN045 OVC065 06/M04 A3025 780 48 0 360/07 RMK AO2 SLP252 T00611039
94908KDBQ DBQ20060325155511803/25/06 15:55:31  5-MIN KDBQ 252155Z 36009KT 10SM BKN045 OVC065 06/M04 A3025 780 48 0 360/09 RMK AO2 SLP252 T00611039
94908KDBQ DBQ20060325160010103/25/06 16:00:31  5-MIN KDBQ 252200Z 36008KT 10SM SCT047 OVC065 06/M04 A3025 780 48 0 350/08 RMK AO2
94908KDBQ DBQ20060325160510103/25/06 16:05:31  5-MIN KDBQ 252205Z 36007KT 10SM BKN047 OVC065 06/M04 A3025 780 46 0 350/07 RMK AO2
94908KDBQ DBQ20060325161010103/25/06 16:10:31  5-MIN KDBQ 252210Z 01008KT 10SM BKN047 OVC060 06/M04 A3025 780 48 0 010/08 RMK AO2
94908KDBQ DBQ20060325161510103/25/06 16:15:31  5-MIN KDBQ 252215Z 01006KT 10SM SCT047 OVC065 06/M04 A3025 780 48 0 010/06 RMK AO2
94908KDBQ DBQ20060325162010403/25/06 16:20:31  5-MIN KDBQ 252220Z 03006KT 10SM SCT047 OVC065 06/M04 A3025 780 50 -100 030/06 RMK AO2
94908KDBQ DBQ20060325162510403/25/06 16:25:31  5-MIN KDBQ 252225Z 02008KT 10SM BKN047 OVC060 06/M04 A3025 780 50 -100 020/08 RMK AO2
94908KDBQ DBQ20060325163010403/25/06 16:30:31  5-MIN KDBQ 252230Z 04006KT 10SM BKN047 OVC060 06/M03 A3025 780 53 -100 040/06 RMK AO2
94908KDBQ DBQ20060325163510403/25/06 16:35:31  5-MIN KDBQ 252235Z 03004KT 10SM BKN044 OVC060 06/M04 A3025 780 50 -100 030/04 RMK AO2
94908KDBQ DBQ20060325164010403/25/06 16:40:31  5-MIN KDBQ 252240Z 35004KT 10SM BKN046 OVC060 06/M04 A3025 780 50 -100 350/04 RMK AO2
94908KDBQ DBQ20060325164510403/25/06 16:45:31  5-MIN KDBQ 252245Z 36006KT 10SM BKN046 OVC055 06/M03 A3025 780 53 -100 360/06 RMK AO2
94908KDBQ DBQ20060325165012103/25/06 16:50:31  5-MIN KDBQ 252250Z 36005KT 10SM BKN046 OVC055 06/M03 A3025 780 53 -100 360/05 RMK AO2 SLP252 T00561033
94908KDBQ DBQ20060325165512103/25/06 16:55:31  5-MIN KDBQ 252255Z 36003KT 10SM BKN046 OVC060 06/M03 A3025 780 53 -100 360/03 RMK AO2 SLP252 T00561033
94908KDBQ DBQ20060325170010403/25/06 17:00:31  5-MIN KDBQ 252300Z 36005KT 10SM BKN046 OVC060 06/M03 A3025 780 53 -100 360/05 RMK AO2
94908KDBQ DBQ20060325170510403/25/06 17:05:31  5-MIN KDBQ 252305Z 35005KT 10SM BKN046 OVC060 06/M03 A3025 770 53 -100 350/05 RMK AO2
94908KDBQ DBQ20060325171010403/25/06 17:10:31  5-MIN KDBQ 252310Z 34006KT 10SM BKN044 OVC055 06/M03 A3025 770 53 -100 340/06 RMK AO2
94908KDBQ DBQ20060325171510403/25/06 17:15:31  5-MIN KDBQ 252315Z 34005KT 10SM BKN044 OVC060 05/M03 A3025 770 55 -200 340/05 RMK AO2
94908KDBQ DBQ20060325172009703/25/06 17:20:31  5-MIN KDBQ 252320Z 34006KT 10SM OVC044 05/M03 A3025 770 55 -200 330/06 RMK AO2
94908KDBQ DBQ20060325172509703/25/06 17:25:31  5-MIN KDBQ 252325Z 33006KT 10SM OVC044 05/M03 A3025 770 55 -200 330/06 RMK AO2
94908KDBQ DBQ20060325173010403/25/06 17:30:31  5-MIN KDBQ 252330Z 32005KT 10SM BKN044 OVC050 05/M03 A3025 770 57 -200 320/05 RMK AO2
94908KDBQ DBQ20060325173509703/25/06 17:35:31  5-MIN KDBQ 252335Z 33006KT 10SM OVC047 05/M03 A3025 770 57 -200 330/06 RMK AO2
94908KDBQ DBQ20060325174009703/25/06 17:40:31  5-MIN KDBQ 252340Z 34007KT 10SM OVC049 05/M03 A3025 780 57 -200 330/07 RMK AO2
94908KDBQ DBQ20060325174509703/25/06 17:45:31  5-MIN KDBQ 252345Z 34007KT 10SM OVC049 05/M03 A3025 780 55 -200 340/07 RMK AO2
94908KDBQ DBQ20060325175013203/25/06 17:50:31  5-MIN KDBQ 252350Z 35007KT 10SM OVC049 05/M03 A3025 780 55 -200 350/07 RMK AO2 SLP253 T00501033 10078 20050 55008
94908KDBQ DBQ20060325175513203/25/06 17:55:31  5-MIN KDBQ 252355Z 36005KT 10SM OVC049 05/M03 A3025 780 55 -200 360/05 RMK AO2 SLP254 T00501033 10078 20050 51001
94908KDBQ DBQ20060325180009703/25/06 18:00:31  5-MIN KDBQ 260000Z 01005KT 10SM OVC047 05/M03 A3025 780 55 -200 010/05 RMK AO2
94908KDBQ DBQ20060325180509703/25/06 18:05:31  5-MIN KDBQ 260005Z 03005KT 10SM OVC047 05/M03 A3025 780 57 -200 030/05 RMK AO2
94908KDBQ DBQ20060325181010403/25/06 18:10:31  5-MIN KDBQ 260010Z 02005KT 10SM BKN049 OVC060 05/M03 A3025 780 55 -200 020/05 RMK AO2
94908KDBQ DBQ20060325181510403/25/06 18:15:31  5-MIN KDBQ 260015Z 36004KT 10SM BKN049 OVC060 04/M03 A3025 780 57 -200 350/04 RMK AO2
94908KDBQ DBQ20060325182010403/25/06 18:20:31  5-MIN KDBQ 260020Z 34006KT 10SM SCT049 OVC060 04/M03 A3025 780 57 -200 340/06 RMK AO2
94908KDBQ DBQ20060325182510403/25/06 18:25:31  5-MIN KDBQ 260025Z 34007KT 10SM SCT049 OVC060 04/M03 A3025 780 59 -200 340/07 RMK AO2
94908KDBQ DBQ20060325183010403/25/06 18:30:31  5-MIN KDBQ 260030Z 35006KT 10SM FEW049 OVC065 04/M03 A3025 780 59 -200 350/06 RMK AO2
94908KDBQ DBQ20060325183509703/25/06 18:35:31  5-MIN KDBQ 260035Z 36005KT 10SM OVC065 04/M03 A3025 780 62 -300 360/05 RMK AO2
94908KDBQ DBQ20060325184009703/25/06 18:40:31  5-MIN KDBQ 260040Z 36005KT 10SM OVC065 04/M03 A3025 780 62 -300 360/05 RMK AO2
94908KDBQ DBQ20060325184509703/25/06 18:45:31  5-MIN KDBQ 260045Z 36004KT 10SM OVC065 04/M03 A3025 780 62 -300 360/04 RMK AO2
94908KDBQ DBQ20060325185012403/25/06 18:50:31  5-MIN KDBQ 260050Z AUTO 01004KT 10SM OVC065 04/M03 A3025 780 59 -300 010/04 RMK AO2 SLP254 T00391033 TSNO
94908KDBQ DBQ20060325185512403/25/06 18:55:31  5-MIN KDBQ 260055Z AUTO 01004KT 10SM OVC065 04/M03 A3025 780 59 -300 010/04 RMK AO2 SLP254 T00391033 TSNO
94908KDBQ DBQ20060325190010703/25/06 19:00:31  5-MIN KDBQ 260100Z AUTO 01004KT 10SM OVC065 04/M03 A3025 780 59 -300 010/04 RMK AO2 TSNO
94908KDBQ DBQ20060325190510703/25/06 19:05:31  5-MIN KDBQ 260105Z AUTO 01004KT 10SM OVC065 04/M03 A3025 780 59 -300 010/04 RMK AO2 TSNO
94908KDBQ DBQ20060325191010703/25/06 19:10:31  5-MIN KDBQ 260110Z AUTO 01005KT 10SM OVC070 04/M03 A3025 780 57 -200 010/05 RMK AO2 TSNO
94908KDBQ DBQ20060325191510703/25/06 19:15:31  5-MIN KDBQ 260115Z AUTO 01005KT 10SM OVC070 04/M03 A3025 780 59 -300 010/05 RMK AO2 TSNO
94908KDBQ DBQ20060325192010703/25/06 19:20:31  5-MIN KDBQ 260120Z AUTO 01005KT 10SM OVC070 04/M03 A3025 780 59 -300 010/05 RMK AO2 TSNO
94908KDBQ DBQ20060325192510703/25/06 19:25:31  5-MIN KDBQ 260125Z AUTO 01005KT 10SM OVC070 04/M03 A3025 780 59 -300 010/05 RMK AO2 TSNO
94908KDBQ DBQ20060325193010703/25/06 19:30:31  5-MIN KDBQ 260130Z AUTO 01004KT 10SM OVC065 04/M03 A3025 780 59 -300 010/04 RMK AO2 TSNO
94908KDBQ DBQ20060325193510703/25/06 19:35:31  5-MIN KDBQ 260135Z AUTO 01004KT 10SM OVC065 04/M03 A3025 780 59 -300 010/04 RMK AO2 TSNO
94908KDBQ DBQ20060325194010703/25/06 19:40:31  5-MIN KDBQ 260140Z AUTO 01004KT 10SM OVC065 04/M03 A3025 780 59 -300 010/04 RMK AO2 TSNO
94908KDBQ DBQ20060325194510703/25/06 19:45:31  5-MIN KDBQ 260145Z AUTO 01004KT 10SM OVC065 04/M03 A3025 780 59 -300 010/04 RMK AO2 TSNO
94908KDBQ DBQ20060325195012403/25/06 19:50:31  5-MIN KDBQ 260150Z AUTO 01004KT 10SM OVC065 04/M03 A3025 770 59 -300 010/04 RMK AO2 SLP253 T00391033 TSNO
94908KDBQ DBQ20060325195512403/25/06 19:55:31  5-MIN KDBQ 260155Z AUTO 01004KT 10SM OVC065 04/M03 A3025 770 59 -300 010/04 RMK AO2 SLP254 T00391033 TSNO
94908KDBQ DBQ20060325200010703/25/06 20:00:31  5-MIN KDBQ 260200Z AUTO 01004KT 10SM OVC065 04/M03 A3025 770 59 -300 010/04 RMK AO2 TSNO
94908KDBQ DBQ20060325200510703/25/06 20:05:31  5-MIN KDBQ 260205Z AUTO 01004KT 10SM OVC065 04/M03 A3025 770 59 -300 010/04 RMK AO2 TSNO
94908KDBQ DBQ20060325201010703/25/06 20:10:31  5-MIN KDBQ 260210Z AUTO 01004KT 10SM OVC065 03/M03 A3025 770 64 -400 010/04 RMK AO2 TSNO
94908KDBQ DBQ20060325201510703/25/06 20:15:31  5-MIN KDBQ 260215Z AUTO 01004KT 10SM BKN065 02/M04 A3025 770 64 -500 010/04 RMK AO2 TSNO
94908KDBQ DBQ20060325202010703/25/06 20:20:31  5-MIN KDBQ 260220Z AUTO 01004KT 10SM BKN065 02/M04 A3025 770 64 -500 010/04 RMK AO2 TSNO
94908KDBQ DBQ20060325202510703/25/06 20:25:31  5-MIN KDBQ 260225Z AUTO 36003KT 10SM BKN065 02/M04 A3025 770 66 -600 360/03 RMK AO2 TSNO
94908KDBQ DBQ20060325203010703/25/06 20:30:31  5-MIN KDBQ 260230Z AUTO 35004KT 10SM BKN065 03/M04 A3026 770 61 -400 350/04 RMK AO2 TSNO
94908KDBQ DBQ20060325203510703/25/06 20:35:31  5-MIN KDBQ 260235Z AUTO 34005KT 10SM BKN065 02/M04 A3026 770 64 -500 340/05 RMK AO2 TSNO
94908KDBQ DBQ20060325204010703/25/06 20:40:31  5-MIN KDBQ 260240Z AUTO 34005KT 10SM BKN065 02/M04 A3026 770 64 -500 340/05 RMK AO2 TSNO
94908KDBQ DBQ20060325204510703/25/06 20:45:31  5-MIN KDBQ 260245Z AUTO 34005KT 10SM BKN065 02/M04 A3026 770 64 -500 340/05 RMK AO2 TSNO
94908KDBQ DBQ20060325205013003/25/06 20:50:31  5-MIN KDBQ 260250Z AUTO 33004KT 10SM BKN065 01/M03 A3026 770 72 -600 330/04 RMK AO2 SLP257 T00111033 51001 TSNO
94908KDBQ DBQ20060325205513003/25/06 20:55:31  5-MIN KDBQ 260255Z AUTO 34005KT 10SM OVC065 01/M03 A3026 770 72 -600 340/05 RMK AO2 SLP257 T00111033 53003 TSNO
94908KDBQ DBQ20060325210010703/25/06 21:00:31  5-MIN KDBQ 260300Z AUTO 36005KT 10SM OVC065 02/M03 A3026 770 69 -600 360/05 RMK AO2 TSNO
94908KDBQ DBQ20060325210510703/25/06 21:05:31  5-MIN KDBQ 260305Z AUTO 01005KT 10SM OVC065 02/M03 A3026 770 67 -500 010/05 RMK AO2 TSNO
94908KDBQ DBQ20060325211010703/25/06 21:10:31  5-MIN KDBQ 260310Z AUTO 02006KT 10SM OVC065 03/M03 A3026 770 64 -400 020/06 RMK AO2 TSNO
94908KDBQ DBQ20060325211510703/25/06 21:15:31  5-MIN KDBQ 260315Z AUTO 02005KT 10SM OVC065 03/M03 A3026 770 64 -400 020/05 RMK AO2 TSNO
94908KDBQ DBQ20060325212010703/25/06 21:20:31  5-MIN KDBQ 260320Z AUTO 02005KT 10SM OVC065 03/M03 A3026 770 64 -400 020/05 RMK AO2 TSNO
94908KDBQ DBQ20060325212510703/25/06 21:25:31  5-MIN KDBQ 260325Z AUTO 02005KT 10SM OVC065 03/M03 A3026 770 64 -400 020/05 RMK AO2 TSNO
94908KDBQ DBQ20060325213010703/25/06 21:30:31  5-MIN KDBQ 260330Z AUTO 02005KT 10SM OVC065 03/M03 A3026 770 64 -400 010/05 RMK AO2 TSNO
94908KDBQ DBQ20060325213510703/25/06 21:35:31  5-MIN KDBQ 260335Z AUTO 02005KT 10SM OVC065 03/M03 A3026 770 64 -400 010/05 RMK AO2 TSNO
94908KDBQ DBQ20060325214010703/25/06 21:40:31  5-MIN KDBQ 260340Z AUTO 02005KT 10SM OVC065 03/M03 A3026 770 64 -400 010/05 RMK AO2 TSNO
94908KDBQ DBQ20060325214510703/25/06 21:45:31  5-MIN KDBQ 260345Z AUTO 01006KT 10SM OVC065 02/M03 A3026 770 67 -500 010/06 RMK AO2 TSNO
94908KDBQ DBQ20060325215012403/25/06 21:50:31  5-MIN KDBQ 260350Z AUTO 01006KT 10SM OVC065 02/M03 A3026 770 67 -500 010/06 RMK AO2 SLP256 T00221033 TSNO
94908KDBQ DBQ20060325215512403/25/06 21:55:31  5-MIN KDBQ 260355Z AUTO 01006KT 10SM OVC065 02/M03 A3025 770 67 -500 010/06 RMK AO2 SLP255 T00221033 TSNO
94908KDBQ DBQ20060325220010703/25/06 22:00:31  5-MIN KDBQ 260400Z AUTO 01006KT 10SM BKN065 02/M03 A3026 770 69 -600 010/06 RMK AO2 TSNO
94908KDBQ DBQ20060325220510703/25/06 22:05:31  5-MIN KDBQ 260405Z AUTO 01006KT 10SM BKN065 02/M03 A3026 770 67 -500 010/06 RMK AO2 TSNO
94908KDBQ DBQ20060325221010703/25/06 22:10:31  5-MIN KDBQ 260410Z AUTO 01005KT 10SM BKN065 02/M04 A3026 770 66 -600 010/05 RMK AO2 TSNO
94908KDBQ DBQ20060325221510703/25/06 22:15:31  5-MIN KDBQ 260415Z AUTO 01006KT 10SM BKN065 02/M04 A3026 770 66 -600 010/06 RMK AO2 TSNO
94908KDBQ DBQ20060325222010703/25/06 22:20:31  5-MIN KDBQ 260420Z AUTO 01005KT 10SM SCT065 02/M04 A3026 770 66 -600 010/05 RMK AO2 TSNO
94908KDBQ DBQ20060325222510703/25/06 22:25:31  5-MIN KDBQ 260425Z AUTO 01005KT 10SM FEW065 01/M04 A3025 770 69 -600 010/05 RMK AO2 TSNO
94908KDBQ DBQ20060325223010703/25/06 22:30:31  5-MIN KDBQ 260430Z AUTO 01005KT 10SM FEW065 01/M04 A3025 770 69 -600 360/05 RMK AO2 TSNO
94908KDBQ DBQ20060325223510703/25/06 22:35:31  5-MIN KDBQ 260435Z AUTO 01005KT 10SM FEW060 01/M04 A3025 770 69 -600 010/05 RMK AO2 TSNO
94908KDBQ DBQ20060325224010403/25/06 22:40:31  5-MIN KDBQ 260440Z AUTO 01005KT 10SM CLR 01/M04 A3025 770 69 -600 010/05 RMK AO2 TSNO
94908KDBQ DBQ20060325224510403/25/06 22:45:31  5-MIN KDBQ 260445Z AUTO 01004KT 10SM CLR 01/M04 A3025 770 69 -600 010/04 RMK AO2 TSNO
94908KDBQ DBQ20060325225012103/25/06 22:50:31  5-MIN KDBQ 260450Z AUTO 36003KT 10SM CLR 01/M04 A3025 770 69 -600 360/03 RMK AO2 SLP255 T00111039 TSNO
94908KDBQ DBQ20060325225512103/25/06 22:55:31  5-MIN KDBQ 260455Z AUTO 36003KT 10SM CLR 02/M04 A3025 770 66 -600 360/03 RMK AO2 SLP255 T00171039 TSNO
94908KDBQ DBQ20060325230010403/25/06 23:00:31  5-MIN KDBQ 260500Z AUTO 00000KT 10SM CLR 00/M04 A3026 770 72 -800 000/00 RMK AO2 TSNO
94908KDBQ DBQ20060325230510503/25/06 23:05:31  5-MIN KDBQ 260505Z AUTO 00000KT 10SM CLR M01/M04 A3026 770 75 -900 000/00 RMK AO2 TSNO
94908KDBQ DBQ20060325231010503/25/06 23:10:31  5-MIN KDBQ 260510Z AUTO 22003KT 10SM CLR M01/M04 A3026 770 75 -900 220/03 RMK AO2 TSNO
94908KDBQ DBQ20060325231510503/25/06 23:15:31  5-MIN KDBQ 260515Z AUTO 22004KT 10SM CLR M01/M05 A3026 770 75 -900 220/04 RMK AO2 TSNO
94908KDBQ DBQ20060325232010603/25/06 23:20:31  5-MIN KDBQ 260520Z AUTO 23004KT 10SM CLR M02/M05 A3026 770 81 -1100 230/04 RMK AO2 TSNO
94908KDBQ DBQ20060325232510603/25/06 23:25:31  5-MIN KDBQ 260525Z AUTO 23003KT 10SM CLR M02/M05 A3026 770 78 -1000 230/03 RMK AO2 TSNO
94908KDBQ DBQ20060325233010503/25/06 23:30:31  5-MIN KDBQ 260530Z AUTO 23003KT 10SM CLR M01/M04 A3026 770 78 -900 230/03 RMK AO2 TSNO
94908KDBQ DBQ20060325233510503/25/06 23:35:31  5-MIN KDBQ 260535Z AUTO 00000KT 10SM CLR M01/M04 A3026 770 78 -900 000/00 RMK AO2 TSNO
94908KDBQ DBQ20060325234010503/25/06 23:40:31  5-MIN KDBQ 260540Z AUTO 00000KT 10SM CLR M01/M04 A3026 770 78 -900 000/00 RMK AO2 TSNO
94908KDBQ DBQ20060325234510503/25/06 23:45:31  5-MIN KDBQ 260545Z AUTO 00000KT 10SM CLR M01/M05 A3026 770 75 -900 000/00 RMK AO2 TSNO
94908KDBQ DBQ20060325235015003/25/06 23:50:31  5-MIN KDBQ 260550Z AUTO 00000KT 10SM CLR M01/M04 A3026 770 78 -900 000/00 RMK AO2 SLP256 T10111044 10050 21022 400781022 53003 TSNO
94908KDBQ DBQ20060325235515003/25/06 23:55:31  5-MIN KDBQ 260555Z AUTO 00000KT 10SM CLR M01/M04 A3026 770 78 -900 000/00 RMK AO2 SLP257 T10111044 10050 21022 400781022 55000 TSNO
94908KDBQ DBQ20060326000010503/26/06 00:00:38  5-MIN KDBQ 260600Z AUTO 00000KT 10SM CLR M01/M04 A3026 770 78 -900 000/00 RMK AO2 TSNO
94908KDBQ DBQ20060326000510503/26/06 00:05:31  5-MIN KDBQ 260605Z AUTO 00000KT 10SM CLR M01/M05 A3026 770 75 -900 000/00 RMK AO2 TSNO
94908KDBQ DBQ20060326001010503/26/06 00:10:31  5-MIN KDBQ 260610Z AUTO 00000KT 10SM CLR M01/M04 A3026 770 75 -900 000/00 RMK AO2 TSNO
94908KDBQ DBQ20060326001510503/26/06 00:15:32  5-MIN KDBQ 260615Z AUTO 00000KT 10SM CLR M01/M04 A3026 770 75 -900 000/00 RMK AO2 TSNO
94908KDBQ DBQ20060326002010503/26/06 00:20:31  5-MIN KDBQ 260620Z AUTO 00000KT 10SM CLR M01/M05 A3026 770 75 -900 000/00 RMK AO2 TSNO
94908KDBQ DBQ20060326002510603/26/06 00:25:31  5-MIN KDBQ 260625Z AUTO 02003KT 10SM CLR M02/M05 A3026 770 78 -1000 020/03 RMK AO2 TSNO
94908KDBQ DBQ20060326003010403/26/06 00:30:31  5-MIN KDBQ 260630Z AUTO 01003KT 10SM CLR 00/M04 A3026 770 72 -800 360/03 RMK AO2 TSNO
94908KDBQ DBQ20060326003510403/26/06 00:35:31  5-MIN KDBQ 260635Z AUTO 36005KT 10SM CLR 01/M04 A3026 770 69 -700 360/05 RMK AO2 TSNO
94908KDBQ DBQ20060326004010403/26/06 00:40:31  5-MIN KDBQ 260640Z AUTO 36004KT 10SM CLR 01/M04 A3026 770 69 -700 360/04 RMK AO2 TSNO
94908KDBQ DBQ20060326004510403/26/06 00:45:31  5-MIN KDBQ 260645Z AUTO 36004KT 10SM CLR 01/M04 A3026 770 69 -700 360/04 RMK AO2 TSNO
94908KDBQ DBQ20060326005012103/26/06 00:50:31  5-MIN KDBQ 260650Z AUTO 36005KT 10SM CLR 01/M04 A3026 770 69 -700 360/05 RMK AO2 SLP256 T00061044 TSNO
94908KDBQ DBQ20060326005512103/26/06 00:55:31  5-MIN KDBQ 260655Z AUTO 01005KT 10SM CLR 01/M04 A3026 770 69 -700 010/05 RMK AO2 SLP256 T00061044 TSNO
94908KDBQ DBQ20060326010010403/26/06 01:00:31  5-MIN KDBQ 260700Z AUTO 01005KT 10SM CLR 01/M04 A3026 770 66 -600 010/05 RMK AO2 TSNO
94908KDBQ DBQ20060326010510403/26/06 01:05:31  5-MIN KDBQ 260705Z AUTO 01005KT 10SM CLR 01/M04 A3026 770 69 -700 010/05 RMK AO2 TSNO
94908KDBQ DBQ20060326011010403/26/06 01:10:31  5-MIN KDBQ 260710Z AUTO 01005KT 10SM CLR 01/M04 A3026 770 69 -700 010/05 RMK AO2 TSNO
94908KDBQ DBQ20060326011510503/26/06 01:15:31  5-MIN KDBQ 260715Z AUTO 01006KT 10SM CLR M01/M05 A3026 770 72 -900 010/06 RMK AO2 TSNO
94908KDBQ DBQ20060326012010503/26/06 01:20:31  5-MIN KDBQ 260720Z AUTO 01005KT 10SM CLR M01/M05 A3026 770 75 -900 010/05 RMK AO2 TSNO
94908KDBQ DBQ20060326012510403/26/06 01:25:31  5-MIN KDBQ 260725Z AUTO 01005KT 10SM CLR 00/M04 A3025 770 72 -800 010/05 RMK AO2 TSNO
94908KDBQ DBQ20060326013010403/26/06 01:30:31  5-MIN KDBQ 260730Z AUTO 01005KT 10SM CLR 00/M05 A3025 770 69 -800 010/05 RMK AO2 TSNO
94908KDBQ DBQ20060326013510403/26/06 01:35:31  5-MIN KDBQ 260735Z AUTO 01005KT 10SM CLR 01/M04 A3025 770 69 -700 010/05 RMK AO2 TSNO
94908KDBQ DBQ20060326014010403/26/06 01:40:31  5-MIN KDBQ 260740Z AUTO 01005KT 10SM CLR 00/M04 A3025 770 72 -800 010/05 RMK AO2 TSNO
94908KDBQ DBQ20060326014510403/26/06 01:45:31  5-MIN KDBQ 260745Z AUTO 01005KT 10SM CLR 00/M04 A3025 770 72 -800 010/05 RMK AO2 TSNO
94908KDBQ DBQ20060326015012103/26/06 01:50:31  5-MIN KDBQ 260750Z AUTO 01005KT 10SM CLR 00/M04 A3026 770 72 -800 010/05 RMK AO2 SLP255 T00001044 TSNO
94908KDBQ DBQ20060326015512103/26/06 01:55:31  5-MIN KDBQ 260755Z AUTO 01004KT 10SM CLR 00/M04 A3025 770 72 -800 010/04 RMK AO2 SLP254 T00001044 TSNO
94908KDBQ DBQ20060326020010403/26/06 02:00:31  5-MIN KDBQ 260800Z AUTO 36004KT 10SM CLR 01/M04 A3025 770 69 -700 360/04 RMK AO2 TSNO
94908KDBQ DBQ20060326020510403/26/06 02:05:31  5-MIN KDBQ 260805Z AUTO 36004KT 10SM CLR 00/M04 A3025 770 72 -800 360/04 RMK AO2 TSNO
94908KDBQ DBQ20060326021010603/26/06 02:10:31  5-MIN KDBQ 260810Z AUTO 36003KT 10SM CLR M02/M06 A3025 770 78 -1100 360/03 RMK AO2 TSNO
94908KDBQ DBQ20060326021510603/26/06 02:15:31  5-MIN KDBQ 260815Z AUTO 36003KT 10SM CLR M04/M07 A3025 770 81 -1300 360/03 RMK AO2 TSNO
94908KDBQ DBQ20060326022010603/26/06 02:20:31  5-MIN KDBQ 260820Z AUTO 00000KT 10SM CLR M03/M07 A3025 770 78 -1200 000/00 RMK AO2 TSNO
94908KDBQ DBQ20060326022510603/26/06 02:25:31  5-MIN KDBQ 260825Z AUTO 00000KT 10SM CLR M02/M06 A3025 770 78 -1100 000/00 RMK AO2 TSNO
94908KDBQ DBQ20060326023010603/26/06 02:30:31  5-MIN KDBQ 260830Z AUTO 00000KT 10SM CLR M03/M06 A3025 770 78 -1100 000/00 RMK AO2 TSNO
94908KDBQ DBQ20060326023510603/26/06 02:35:31  5-MIN KDBQ 260835Z AUTO 00000KT 10SM CLR M02/M06 A3025 770 75 -1100 000/00 RMK AO2 TSNO
94908KDBQ DBQ20060326024010603/26/06 02:40:31  5-MIN KDBQ 260840Z AUTO 00000KT 10SM CLR M03/M06 A3025 770 81 -1100 000/00 RMK AO2 TSNO
94908KDBQ DBQ20060326024510603/26/06 02:45:31  5-MIN KDBQ 260845Z AUTO 01003KT 10SM CLR M02/M06 A3025 770 78 -1100 010/03 RMK AO2 TSNO
94908KDBQ DBQ20060326025012903/26/06 02:50:31  5-MIN KDBQ 260850Z AUTO 01005KT 10SM CLR M02/M06 A3025 780 75 -1100 010/05 RMK AO2 SLP254 T10221061 55000 TSNO
94908KDBQ DBQ20060326025512903/26/06 02:55:31  5-MIN KDBQ 260855Z AUTO 01005KT 10SM CLR M03/M06 A3025 780 78 -1100 010/05 RMK AO2 SLP254 T10281061 58003 TSNO
94908KDBQ DBQ20060326030010603/26/06 03:00:31  5-MIN KDBQ 260900Z AUTO 02005KT 10SM CLR M03/M06 A3025 770 78 -1100 020/05 RMK AO2 TSNO
94908KDBQ DBQ20060326030510603/26/06 03:05:31  5-MIN KDBQ 260905Z AUTO 03003KT 10SM CLR M03/M06 A3025 780 78 -1100 030/03 RMK AO2 TSNO
94908KDBQ DBQ20060326031010603/26/06 03:10:31  5-MIN KDBQ 260910Z AUTO 00000KT 10SM CLR M03/M06 A3025 780 81 -1100 000/00 RMK AO2 TSNO
94908KDBQ DBQ20060326031510603/26/06 03:15:31  5-MIN KDBQ 260915Z AUTO 02003KT 10SM CLR M03/M06 A3025 770 78 -1100 020/03 RMK AO2 TSNO
94908KDBQ DBQ20060326032010603/26/06 03:20:31  5-MIN KDBQ 260920Z AUTO 02003KT 10SM CLR M03/M06 A3025 770 78 -1100 010/03 RMK AO2 TSNO
94908KDBQ DBQ20060326032510603/26/06 03:25:31  5-MIN KDBQ 260925Z AUTO 02004KT 10SM CLR M03/M06 A3025 770 81 -1200 020/04 RMK AO2 TSNO
94908KDBQ DBQ20060326033010603/26/06 03:30:31  5-MIN KDBQ 260930Z AUTO 02004KT 10SM CLR M03/M06 A3025 770 78 -1100 020/04 RMK AO2 TSNO
94908KDBQ DBQ20060326033510603/26/06 03:35:31  5-MIN KDBQ 260935Z AUTO 02005KT 10SM CLR M03/M06 A3025 770 78 -1100 020/05 RMK AO2 TSNO
94908KDBQ DBQ20060326034010603/26/06 03:40:31  5-MIN KDBQ 260940Z AUTO 02005KT 10SM CLR M03/M06 A3025 770 78 -1100 020/05 RMK AO2 TSNO
94908KDBQ DBQ20060326034510603/26/06 03:45:31  5-MIN KDBQ 260945Z AUTO 02005KT 10SM CLR M03/M06 A3025 770 78 -1100 020/05 RMK AO2 TSNO
94908KDBQ DBQ20060326035012303/26/06 03:50:31  5-MIN KDBQ 260950Z AUTO 02006KT 10SM CLR M03/M06 A3026 770 81 -1200 020/06 RMK AO2 SLP257 T10331061 TSNO
94908KDBQ DBQ20060326035512303/26/06 03:55:31  5-MIN KDBQ 260955Z AUTO 02006KT 10SM CLR M03/M06 A3026 770 81 -1200 020/06 RMK AO2 SLP258 T10331061 TSNO
94908KDBQ DBQ20060326040010603/26/06 04:00:31  5-MIN KDBQ 261000Z AUTO 02005KT 10SM CLR M03/M06 A3026 770 78 -1100 020/05 RMK AO2 TSNO
94908KDBQ DBQ20060326040510603/26/06 04:05:31  5-MIN KDBQ 261005Z AUTO 02006KT 10SM CLR M03/M06 A3026 770 81 -1100 020/06 RMK AO2 TSNO
94908KDBQ DBQ20060326041010603/26/06 04:10:31  5-MIN KDBQ 261010Z AUTO 02006KT 10SM CLR M02/M06 A3026 770 78 -1100 020/06 RMK AO2 TSNO
94908KDBQ DBQ20060326041510603/26/06 04:15:31  5-MIN KDBQ 261015Z AUTO 02006KT 10SM CLR M02/M06 A3026 770 78 -1100 020/06 RMK AO2 TSNO
94908KDBQ DBQ20060326042010603/26/06 04:20:31  5-MIN KDBQ 261020Z AUTO 02005KT 10SM CLR M02/M06 A3026 760 78 -1100 020/05 RMK AO2 TSNO
94908KDBQ DBQ20060326042510603/26/06 04:25:31  5-MIN KDBQ 261025Z AUTO 02005KT 10SM CLR M02/M06 A3026 760 78 -1100 020/05 RMK AO2 TSNO
94908KDBQ DBQ20060326043010603/26/06 04:30:31  5-MIN KDBQ 261030Z AUTO 01005KT 10SM CLR M03/M06 A3026 760 85 -1200 010/05 RMK AO2 TSNO
94908KDBQ DBQ20060326043510603/26/06 04:35:31  5-MIN KDBQ 261035Z AUTO 02005KT 10SM CLR M03/M06 A3026 760 78 -1100 020/05 RMK AO2 TSNO
94908KDBQ DBQ20060326044010603/26/06 04:40:31  5-MIN KDBQ 261040Z AUTO 02005KT 10SM CLR M03/M06 A3026 760 81 -1100 020/05 RMK AO2 TSNO
94908KDBQ DBQ20060326044510603/26/06 04:45:31  5-MIN KDBQ 261045Z AUTO 02005KT 10SM CLR M03/M06 A3027 760 81 -1100 020/05 RMK AO2 TSNO
94908KDBQ DBQ20060326045012303/26/06 04:50:31  5-MIN KDBQ 261050Z AUTO 02005KT 10SM CLR M04/M06 A3027 760 85 -1300 020/05 RMK AO2 SLP261 T10391061 TSNO
94908KDBQ DBQ20060326045512303/26/06 04:55:31  5-MIN KDBQ 261055Z AUTO 02005KT 10SM CLR M03/M06 A3027 760 81 -1200 020/05 RMK AO2 SLP261 T10331061 TSNO
94908KDBQ DBQ20060326050010603/26/06 05:00:31  5-MIN KDBQ 261100Z AUTO 02006KT 10SM CLR M03/M06 A3027 760 81 -1200 020/06 RMK AO2 TSNO
94908KDBQ DBQ20060326050510603/26/06 05:05:31  5-MIN KDBQ 261105Z AUTO 02006KT 10SM CLR M03/M06 A3027 760 81 -1200 020/06 RMK AO2 TSNO
94908KDBQ DBQ20060326051010603/26/06 05:10:31  5-MIN KDBQ 261110Z AUTO 03005KT 10SM CLR M03/M06 A3027 760 81 -1200 030/05 RMK AO2 TSNO
94908KDBQ DBQ20060326051510603/26/06 05:15:31  5-MIN KDBQ 261115Z AUTO 03004KT 10SM CLR M03/M06 A3027 760 81 -1200 030/04 RMK AO2 TSNO
94908KDBQ DBQ20060326052010603/26/06 05:20:31  5-MIN KDBQ 261120Z AUTO 04003KT 10SM CLR M02/M06 A3027 760 78 -1100 030/03 RMK AO2 TSNO
94908KDBQ DBQ20060326052510603/26/06 05:25:31  5-MIN KDBQ 261125Z AUTO 00000KT 10SM CLR M03/M06 A3027 760 81 -1200 000/00 RMK AO2 TSNO
94908KDBQ DBQ20060326053010603/26/06 05:30:31  5-MIN KDBQ 261130Z AUTO 00000KT 10SM CLR M03/M06 A3027 760 81 -1200 000/00 RMK AO2 TSNO
94908KDBQ DBQ20060326053510603/26/06 05:35:31  5-MIN KDBQ 261135Z AUTO 00000KT 10SM CLR M02/M06 A3027 750 78 -1100 000/00 RMK AO2 TSNO
94908KDBQ DBQ20060326054010603/26/06 05:40:31  5-MIN KDBQ 261140Z AUTO 00000KT 10SM CLR M02/M06 A3027 750 78 -1100 000/00 RMK AO2 TSNO
94908KDBQ DBQ20060326054510603/26/06 05:45:31  5-MIN KDBQ 261145Z AUTO 03005KT 10SM CLR M03/M06 A3028 750 81 -1200 030/05 RMK AO2 TSNO
94908KDBQ DBQ20060326055014103/26/06 05:50:31  5-MIN KDBQ 261150Z AUTO 03005KT 10SM CLR M03/M06 A3028 750 81 -1200 030/05 RMK AO2 SLP264 T10331061 10011 21044 58003 TSNO
94908KDBQ DBQ20060326055513103/26/06 05:55:31  5-MIN KDBQ 261155Z 04004KT 10SM CLR M03/M06 A3028 750 81 -1200 040/04 RMK AO2 SLP264 T10331061 10011 21044 51009
94908KDBQ DBQ20060326060009603/26/06 06:00:31  5-MIN KDBQ 261200Z 00000KT 10SM CLR M03/M06 A3028 750 81 -1200 000/00 RMK AO2
94908KDBQ DBQ20060326060509603/26/06 06:05:31  5-MIN KDBQ 261205Z 00000KT 10SM CLR M03/M06 A3028 750 81 -1200 000/00 RMK AO2
94908KDBQ DBQ20060326061009603/26/06 06:10:31  5-MIN KDBQ 261210Z 00000KT 10SM CLR M03/M06 A3028 750 81 -1200 000/00 RMK AO2
94908KDBQ DBQ20060326061509603/26/06 06:15:31  5-MIN KDBQ 261215Z 00000KT 10SM CLR M02/M06 A3028 750 78 -1100 000/00 RMK AO2
94908KDBQ DBQ20060326062009603/26/06 06:20:31  5-MIN KDBQ 261220Z 00000KT 10SM CLR M02/M05 A3028 750 78 -1000 000/00 RMK AO2
94908KDBQ DBQ20060326062509603/26/06 06:25:31  5-MIN KDBQ 261225Z 05003KT 10SM CLR M02/M05 A3028 750 81 -1100 050/03 RMK AO2
94908KDBQ DBQ20060326063009603/26/06 06:30:31  5-MIN KDBQ 261230Z 04004KT 10SM CLR M02/M05 A3028 750 81 -1100 040/04 RMK AO2
94908KDBQ DBQ20060326063509603/26/06 06:35:31  5-MIN KDBQ 261235Z 00000KT 10SM CLR M02/M05 A3028 750 81 -1100 000/00 RMK AO2
94908KDBQ DBQ20060326064009603/26/06 06:40:31  5-MIN KDBQ 261240Z 00000KT 10SM CLR M02/M05 A3028 750 78 -1000 000/00 RMK AO2
94908KDBQ DBQ20060326064509603/26/06 06:45:31  5-MIN KDBQ 261245Z 00000KT 10SM CLR M01/M04 A3028 750 78 -1000 000/00 RMK AO2
94908KDBQ DBQ20060326065011303/26/06 06:50:31  5-MIN KDBQ 261250Z 00000KT 10SM CLR M01/M04 A3028 750 78 -1000 000/00 RMK AO2 SLP265 T10111044
94908KDBQ DBQ20060326065511203/26/06 06:55:31  5-MIN KDBQ 261255Z 04004KT 10SM CLR M01/M04 A3028 750 78 -900 040/04 RMK AO2 SLP265 T10061039
94908KDBQ DBQ20060326070009403/26/06 07:00:31  5-MIN KDBQ 261300Z 04005KT 10SM CLR 00/M03 A3028 750 78 -800 040/05 RMK AO2
94908KDBQ DBQ20060326070509403/26/06 07:05:31  5-MIN KDBQ 261305Z 04006KT 10SM CLR 00/M03 A3028 750 78 -800 040/06 RMK AO2
94908KDBQ DBQ20060326071009403/26/06 07:10:31  5-MIN KDBQ 261310Z 03006KT 10SM CLR 00/M04 A3028 740 75 -800 030/06 RMK AO2
94908KDBQ DBQ20060326071509403/26/06 07:15:31  5-MIN KDBQ 261315Z 03005KT 10SM CLR 00/M04 A3028 740 75 -800 030/05 RMK AO2
94908KDBQ DBQ20060326072009403/26/06 07:20:31  5-MIN KDBQ 261320Z 04004KT 10SM CLR 01/M03 A3028 740 75 -700 040/04 RMK AO2
94908KDBQ DBQ20060326072509403/26/06 07:25:31  5-MIN KDBQ 261325Z 04004KT 10SM CLR 01/M03 A3028 750 75 -700 040/04 RMK AO2
94908KDBQ DBQ20060326073009403/26/06 07:30:31  5-MIN KDBQ 261330Z 04003KT 10SM CLR 01/M03 A3028 740 75 -700 040/03 RMK AO2
94908KDBQ DBQ20060326073509403/26/06 07:35:31  5-MIN KDBQ 261335Z 03003KT 10SM CLR 01/M03 A3028 740 72 -700 030/03 RMK AO2
94908KDBQ DBQ20060326074009403/26/06 07:40:31  5-MIN KDBQ 261340Z 04004KT 10SM CLR 02/M03 A3028 750 69 -600 040/04 RMK AO2
94908KDBQ DBQ20060326074509403/26/06 07:45:31  5-MIN KDBQ 261345Z 05004KT 10SM CLR 02/M03 A3028 750 69 -600 040/04 RMK AO2
94908KDBQ DBQ20060326075011103/26/06 07:50:31  5-MIN KDBQ 261350Z 04004KT 10SM CLR 02/M03 A3028 750 69 -600 040/04 RMK AO2 SLP265 T00171033
94908KDBQ DBQ20060326075511103/26/06 07:55:31  5-MIN KDBQ 261355Z 05004KT 10SM CLR 02/M03 A3028 750 69 -600 040/04 RMK AO2 SLP265 T00171033
94908KDBQ DBQ20060326080009403/26/06 08:00:31  5-MIN KDBQ 261400Z 05004KT 10SM CLR 02/M03 A3028 750 69 -500 050/04 RMK AO2
94908KDBQ DBQ20060326080509403/26/06 08:05:31  5-MIN KDBQ 261405Z 05004KT 10SM CLR 02/M03 A3028 750 69 -500 050/04 RMK AO2
94908KDBQ DBQ20060326081009403/26/06 08:10:31  5-MIN KDBQ 261410Z 06004KT 10SM CLR 02/M03 A3028 750 69 -500 060/04 RMK AO2
94908KDBQ DBQ20060326081509403/26/06 08:15:31  5-MIN KDBQ 261415Z 07003KT 10SM CLR 03/M03 A3028 740 67 -500 060/03 RMK AO2
94908KDBQ DBQ20060326082009403/26/06 08:20:31  5-MIN KDBQ 261420Z 07003KT 10SM CLR 03/M02 A3028 740 67 -400 070/03 RMK AO2
94908KDBQ DBQ20060326082509403/26/06 08:25:31  5-MIN KDBQ 261425Z 00000KT 10SM CLR 03/M02 A3029 740 67 -400 000/00 RMK AO2
94908KDBQ DBQ20060326083009403/26/06 08:30:31  5-MIN KDBQ 261430Z 04003KT 10SM CLR 04/M02 A3029 740 64 -300 040/03 RMK AO2
94908KDBQ DBQ20060326083509403/26/06 08:35:31  5-MIN KDBQ 261435Z VRB03KT 10SM CLR 04/M02 A3029 740 64 -300 VRB/03 RMK AO2
94908KDBQ DBQ20060326084009403/26/06 08:40:31  5-MIN KDBQ 261440Z 12004KT 10SM CLR 04/M02 A3029 740 64 -300 120/04 RMK AO2
94908KDBQ DBQ20060326084509403/26/06 08:45:31  5-MIN KDBQ 261445Z 13004KT 10SM CLR 04/M03 A3029 740 62 -300 130/04 RMK AO2
94908KDBQ DBQ20060326085011703/26/06 08:50:31  5-MIN KDBQ 261450Z 13006KT 10SM CLR 04/M03 A3028 740 59 -300 130/06 RMK AO2 SLP266 T00441028 51009
94908KDBQ DBQ20060326085511703/26/06 08:55:31  5-MIN KDBQ 261455Z 14005KT 10SM CLR 04/M03 A3029 740 59 -300 140/05 RMK AO2 SLP266 T00441028 53003
94908KDBQ DBQ20060326090009403/26/06 09:00:31  5-MIN KDBQ 261500Z 11006KT 10SM CLR 05/M03 A3029 740 57 -200 110/06 RMK AO2
94908KDBQ DBQ20060326090509403/26/06 09:05:31  5-MIN KDBQ 261505Z 11007KT 10SM CLR 05/M03 A3029 740 57 -200 110/07 RMK AO2
94908KDBQ DBQ20060326091009403/26/06 09:10:31  5-MIN KDBQ 261510Z 12005KT 10SM CLR 05/M03 A3029 740 57 -200 120/05 RMK AO2
94908KDBQ DBQ20060326091509403/26/06 09:15:31  5-MIN KDBQ 261515Z 12006KT 10SM CLR 05/M03 A3028 740 57 -200 120/06 RMK AO2
94908KDBQ DBQ20060326092009403/26/06 09:20:31  5-MIN KDBQ 261520Z VRB06KT 10SM CLR 05/M03 A3028 740 55 -200 VRB/06 RMK AO2
94908KDBQ DBQ20060326092509403/26/06 09:25:31  5-MIN KDBQ 261525Z VRB06KT 10SM CLR 05/M03 A3028 740 57 -200 VRB/06 RMK AO2
94908KDBQ DBQ20060326093009403/26/06 09:30:31  5-MIN KDBQ 261530Z VRB06KT 10SM CLR 06/M03 A3029 740 55 -100 VRB/06 RMK AO2
94908KDBQ DBQ20060326093509403/26/06 09:35:31  5-MIN KDBQ 261535Z 15005KT 10SM CLR 05/M03 A3029 740 57 -200 150/05 RMK AO2
94908KDBQ DBQ20060326094009403/26/06 09:40:31  5-MIN KDBQ 261540Z 15006KT 10SM CLR 06/M03 A3029 740 55 -100 140/06 RMK AO2
94908KDBQ DBQ20060326094509703/26/06 09:45:31  5-MIN KDBQ 261545Z 19005KT 10SM FEW033 06/M03 A3029 740 55 -100 190/05 RMK AO2
94908KDBQ DBQ20060326095011403/26/06 09:50:31  5-MIN KDBQ 261550Z VRB03KT 10SM FEW033 06/M03 A3029 740 53 -100 VRB/03 RMK AO2 SLP266 T00561033
94908KDBQ DBQ20060326095511403/26/06 09:55:31  5-MIN KDBQ 261555Z VRB03KT 10SM SCT036 06/M03 A3029 740 53 -100 VRB/03 RMK AO2 SLP266 T00611028
94908KDBQ DBQ20060326100010403/26/06 10:00:31  5-MIN KDBQ 261600Z VRB06KT 10SM SCT036 BKN043 06/M03 A3029 740 53 -100 VRB/06 RMK AO2
94908KDBQ DBQ20060326100510403/26/06 10:05:31  5-MIN KDBQ 261605Z 13006KT 10SM BKN038 BKN045 06/M03 A3029 740 53 -100 130/06 RMK AO2
94908KDBQ DBQ20060326101010403/26/06 10:10:31  5-MIN KDBQ 261610Z VRB04KT 10SM SCT038 BKN045 06/M04 A3029 740 50 -100 VRB/04 RMK AO2
94908KDBQ DBQ20060326101510403/26/06 10:15:31  5-MIN KDBQ 261615Z VRB04KT 10SM SCT037 OVC045 06/M04 A3029 740 48 -100 VRB/04 RMK AO2
94908KDBQ DBQ20060326102010103/26/06 10:20:31  5-MIN KDBQ 261620Z VRB05KT 10SM BKN037 OVC045 07/M03 A3028 740 49 0 VRB/05 RMK AO2
94908KDBQ DBQ20060326102509703/26/06 10:25:31  5-MIN KDBQ 261625Z 16005KT 10SM BKN042 06/M04 A3028 750 48 -100 160/05 RMK AO2
94908KDBQ DBQ20060326103009703/26/06 10:30:31  5-MIN KDBQ 261630Z 18006KT 10SM BKN044 06/M04 A3028 750 48 -100 180/06 RMK AO2
94908KDBQ DBQ20060326103509703/26/06 10:35:31  5-MIN KDBQ 261635Z 18004KT 10SM BKN044 06/M03 A3028 750 51 -100 180/04 RMK AO2
94908KDBQ DBQ20060326104009703/26/06 10:40:31  5-MIN KDBQ 261640Z 00000KT 10SM SCT044 06/M04 A3028 750 50 -100 000/00 RMK AO2
94908KDBQ DBQ20060326104509703/26/06 10:45:31  5-MIN KDBQ 261645Z 21003KT 10SM BKN044 06/M04 A3028 750 48 -100 210/03 RMK AO2
94908KDBQ DBQ20060326105011403/26/06 10:50:31  5-MIN KDBQ 261650Z 00000KT 10SM BKN044 06/M04 A3028 750 48 -100 000/00 RMK AO2 SLP263 T00611039
94908KDBQ DBQ20060326105511103/26/06 10:55:31  5-MIN KDBQ 261655Z 19009KT 10SM BKN044 07/M04 A3028 750 45 0 190/09 RMK AO2 SLP263 T00721039
94908KDBQ DBQ20060326110009403/26/06 11:00:31  5-MIN KDBQ 261700Z 20006KT 10SM BKN044 07/M04 A3028 750 45 0 200/06 RMK AO2
94908KDBQ DBQ20060326110510103/26/06 11:05:31  5-MIN KDBQ 261705Z 19006KT 10SM BKN044 BKN050 06/M04 A3027 750 46 0 180/06 RMK AO2
94908KDBQ DBQ20060326111010103/26/06 11:10:31  5-MIN KDBQ 261710Z 17005KT 10SM BKN044 BKN050 06/M04 A3027 750 46 0 170/05 RMK AO2
94908KDBQ DBQ20060326111509403/26/06 11:15:31  5-MIN KDBQ 261715Z 16004KT 10SM OVC046 06/M04 A3027 750 46 0 160/04 RMK AO2
94908KDBQ DBQ20060326112009403/26/06 11:20:31  5-MIN KDBQ 261720Z 00000KT 10SM OVC046 06/M04 A3027 760 46 0 000/00 RMK AO2
94908KDBQ DBQ20060326112509403/26/06 11:25:31  5-MIN KDBQ 261725Z 20007KT 10SM OVC046 07/M04 A3027 760 45 0 190/07 RMK AO2
94908KDBQ DBQ20060326113010303/26/06 11:30:31  5-MIN KDBQ 261730Z 18007KT 10SM BKN046 OVC055 08/M04 A3027 760 43 100 170/07 RMK AO2
94908KDBQ DBQ20060326113510303/26/06 11:35:31  5-MIN KDBQ 261735Z 20008KT 10SM BKN046 BKN055 08/M03 A3027 760 43 200 200/08 RMK AO2
94908KDBQ DBQ20060326114009403/26/06 11:40:31  5-MIN KDBQ 261740Z 19008KT 10SM BKN047 07/M04 A3027 760 45 0 190/08 RMK AO2
94908KDBQ DBQ20060326114509403/26/06 11:45:31  5-MIN KDBQ 261745Z 20007KT 10SM SCT047 07/M04 A3026 760 45 0 200/07 RMK AO2
94908KDBQ DBQ20060326115012903/26/06 11:50:31  5-MIN KDBQ 261750Z 13006KT 10SM SCT049 07/M04 A3026 760 45 0 130/06 RMK AO2 SLP259 T00671044 10083 21033 53003
94908KDBQ DBQ20060326115512903/26/06 11:55:31  5-MIN KDBQ 261755Z 15003KT 10SM SCT049 07/M05 A3026 760 43 0 140/03 RMK AO2 SLP258 T00671050 10083 21033 58008
94908KDBQ DBQ20060326120011203/26/06 12:00:31  5-MIN KDBQ 261800Z 14007KT 100V160 10SM BKN049 07/M04 A3026 770 43 100 130/07 100V160 RMK AO2
94908KDBQ DBQ20060326120509603/26/06 12:05:31  5-MIN KDBQ 261805Z 16009KT 10SM BKN049 07/M04 A3026 770 43 100 160/09 RMK AO2
94908KDBQ DBQ20060326121009603/26/06 12:10:31  5-MIN KDBQ 261810Z 14007KT 10SM BKN049 08/M04 A3026 770 43 100 140/07 RMK AO2
94908KDBQ DBQ20060326121509603/26/06 12:15:31  5-MIN KDBQ 261815Z VRB04KT 10SM OVC049 07/M04 A3026 770 43 100 VRB/04 RMK AO2
94908KDBQ DBQ20060326122009603/26/06 12:20:31  5-MIN KDBQ 261820Z 15008KT 10SM OVC049 08/M04 A3025 770 41 100 150/08 RMK AO2
94908KDBQ DBQ20060326122511203/26/06 12:25:31  5-MIN KDBQ 261825Z 17007KT 140V200 10SM OVC055 08/M04 A3025 770 42 200 170/07 140V200 RMK AO2
94908KDBQ DBQ20060326123009603/26/06 12:30:31  5-MIN KDBQ 261830Z 17009KT 10SM OVC055 08/M04 A3025 770 41 100 170/09 RMK AO2
94908KDBQ DBQ20060326123509603/26/06 12:35:31  5-MIN KDBQ 261835Z 18007KT 10SM OVC055 07/M04 A3025 780 43 100 180/07 RMK AO2
94908KDBQ DBQ20060326124009603/26/06 12:40:31  5-MIN KDBQ 261840Z 17008KT 10SM OVC055 08/M04 A3025 780 41 100 170/08 RMK AO2
94908KDBQ DBQ20060326124509603/26/06 12:45:31  5-MIN KDBQ 261845Z VRB05KT 10SM OVC055 09/M04 A3024 780 40 300 VRB/05 RMK AO2
94908KDBQ DBQ20060326125011303/26/06 12:50:31  5-MIN KDBQ 261850Z 00000KT 10SM OVC055 08/M05 A3024 780 40 100 000/00 RMK AO2 SLP250 T00781050
94908KDBQ DBQ20060326125511303/26/06 12:55:31  5-MIN KDBQ 261855Z 19008KT 10SM OVC055 08/M05 A3024 780 40 100 190/08 RMK AO2 SLP250 T00781050
94908KDBQ DBQ20060326130009603/26/06 13:00:31  5-MIN KDBQ 261900Z 11005KT 10SM OVC055 07/M05 A3024 790 41 100 110/05 RMK AO2
94908KDBQ DBQ20060326130509603/26/06 13:05:31  5-MIN KDBQ 261905Z VRB03KT 10SM OVC050 07/M05 A3024 790 41 100 VRB/03 RMK AO2
94908KDBQ DBQ20060326131009603/26/06 13:10:31  5-MIN KDBQ 261910Z 18008KT 10SM OVC050 08/M04 A3023 790 41 200 170/08 RMK AO2
94908KDBQ DBQ20060326131509603/26/06 13:15:31  5-MIN KDBQ 261915Z 13007KT 10SM BKN050 08/M05 A3023 790 40 200 120/07 RMK AO2
94908KDBQ DBQ20060326132009603/26/06 13:20:31  5-MIN KDBQ 261920Z 13005KT 10SM BKN050 07/M05 A3023 800 41 100 130/05 RMK AO2
94908KDBQ DBQ20060326132509603/26/06 13:25:31  5-MIN KDBQ 261925Z VRB06KT 10SM BKN050 08/M05 A3023 800 40 200 VRB/06 RMK AO2
94908KDBQ DBQ20060326133011203/26/06 13:30:31  5-MIN KDBQ 261930Z 15007KT 100V180 10SM BKN055 08/M04 A3022 800 41 200 150/07 100V180 RMK AO2
94908KDBQ DBQ20060326133509603/26/06 13:35:31  5-MIN KDBQ 261935Z 12008KT 10SM BKN055 08/M04 A3022 800 40 200 120/08 RMK AO2
94908KDBQ DBQ20060326134009603/26/06 13:40:31  5-MIN KDBQ 261940Z 12008KT 10SM BKN055 09/M04 A3022 800 38 300 120/08 RMK AO2
94908KDBQ DBQ20060326134509603/26/06 13:45:31  5-MIN KDBQ 261945Z 11007KT 10SM BKN055 08/M04 A3022 810 40 200 110/07 RMK AO2
94908KDBQ DBQ20060326135011303/26/06 13:50:31  5-MIN KDBQ 261950Z 11009KT 10SM BKN055 09/M04 A3022 810 39 400 110/09 RMK AO2 SLP240 T00941039
94908KDBQ DBQ20060326135511303/26/06 13:55:31  5-MIN KDBQ 261955Z 11008KT 10SM BKN055 09/M04 A3021 810 39 400 110/08 RMK AO2 SLP239 T00941039
94908KDBQ DBQ20060326140011203/26/06 14:00:31  5-MIN KDBQ 262000Z 22007KT 170V240 10SM BKN055 09/M04 A3021 810 38 300 220/07 170V240 RMK AO2
94908KDBQ DBQ20060326140509603/26/06 14:05:31  5-MIN KDBQ 262005Z 13010KT 10SM BKN055 09/M04 A3021 820 37 400 130/10 RMK AO2
94908KDBQ DBQ20060326141009603/26/06 14:10:31  5-MIN KDBQ 262010Z 20007KT 10SM BKN055 09/M04 A3021 820 38 300 190/07 RMK AO2
94908KDBQ DBQ20060326141509603/26/06 14:15:31  5-MIN KDBQ 262015Z VRB05KT 10SM BKN055 09/M04 A3020 820 38 300 VRB/05 RMK AO2
94908KDBQ DBQ20060326142009603/26/06 14:20:31  5-MIN KDBQ 262020Z 15012KT 10SM SCT055 09/M04 A3020 820 37 400 150/12 RMK AO2
94908KDBQ DBQ20060326142510203/26/06 14:25:31  5-MIN KDBQ 262025Z 15006G14KT 10SM FEW055 09/M05 A3020 820 37 300 150/06G14 RMK AO2
94908KDBQ DBQ20060326143011203/26/06 14:30:31  5-MIN KDBQ 262030Z 17008KT 130V190 10SM FEW055 09/M04 A3020 820 38 300 160/08 130V190 RMK AO2
94908KDBQ DBQ20060326143509603/26/06 14:35:31  5-MIN KDBQ 262035Z 19006KT 10SM FEW055 09/M05 A3020 820 37 300 190/06 RMK AO2
94908KDBQ DBQ20060326144009603/26/06 14:40:31  5-MIN KDBQ 262040Z 17007KT 10SM FEW055 09/M05 A3020 820 37 300 170/07 RMK AO2
94908KDBQ DBQ20060326144509603/26/06 14:45:31  5-MIN KDBQ 262045Z 13004KT 10SM FEW055 08/M05 A3019 830 38 300 130/04 RMK AO2
94908KDBQ DBQ20060326145011603/26/06 14:50:31  5-MIN KDBQ 262050Z VRB05KT 10SM CLR 09/M05 A3019 830 37 300 VRB/05 RMK AO2 SLP234 T00891050 58008
94908KDBQ DBQ20060326145511603/26/06 14:55:31  5-MIN KDBQ 262055Z 16010KT 10SM CLR 09/M05 A3019 830 37 300 160/10 RMK AO2 SLP234 T00891050 56023
94908KDBQ DBQ20060326150009303/26/06 15:00:31  5-MIN KDBQ 262100Z 13006KT 10SM CLR 09/M05 A3019 830 37 300 130/06 RMK AO2
94908KDBQ DBQ20060326150509303/26/06 15:05:31  5-MIN KDBQ 262105Z 12009KT 10SM CLR 09/M05 A3019 830 37 300 120/09 RMK AO2
94908KDBQ DBQ20060326151009303/26/06 15:10:31  5-MIN KDBQ 262110Z 16010KT 10SM CLR 09/M05 A3019 830 37 300 160/10 RMK AO2
94908KDBQ DBQ20060326151509303/26/06 15:15:31  5-MIN KDBQ 262115Z VRB05KT 10SM CLR 09/M05 A3018 840 37 300 VRB/05 RMK AO2
94908KDBQ DBQ20060326152009303/26/06 15:20:31  5-MIN KDBQ 262120Z 13006KT 10SM CLR 09/M05 A3018 840 35 400 130/06 RMK AO2
94908KDBQ DBQ20060326152509303/26/06 15:25:31  5-MIN KDBQ 262125Z VRB04KT 10SM CLR 09/M05 A3018 840 37 300 VRB/04 RMK AO2
94908KDBQ DBQ20060326153009303/26/06 15:30:31  5-MIN KDBQ 262130Z 14005KT 10SM CLR 09/M05 A3018 840 37 300 140/05 RMK AO2
94908KDBQ DBQ20060326153509303/26/06 15:35:31  5-MIN KDBQ 262135Z 12010KT 10SM CLR 09/M04 A3018 840 37 400 120/10 RMK AO2
94908KDBQ DBQ20060326154009303/26/06 15:40:31  5-MIN KDBQ 262140Z 16009KT 10SM CLR 09/M04 A3018 840 37 400 160/09 RMK AO2
94908KDBQ DBQ20060326154509303/26/06 15:45:31  5-MIN KDBQ 262145Z 15006KT 10SM CLR 09/M05 A3017 840 37 400 150/06 RMK AO2
94908KDBQ DBQ20060326155011003/26/06 15:50:31  5-MIN KDBQ 262150Z 15009KT 10SM CLR 09/M05 A3017 840 35 400 150/09 RMK AO2 SLP227 T00941050
94908KDBQ DBQ20060326155511003/26/06 15:55:31  5-MIN KDBQ 262155Z VRB06KT 10SM CLR 09/M05 A3017 840 35 400 VRB/06 RMK AO2 SLP227 T00941050
94908KDBQ DBQ20060326160009303/26/06 16:00:31  5-MIN KDBQ 262200Z 13006KT 10SM CLR 09/M04 A3017 850 37 400 130/06 RMK AO2
94908KDBQ DBQ20060326160509303/26/06 16:05:31  5-MIN KDBQ 262205Z 14011KT 10SM CLR 09/M04 A3017 850 37 400 140/11 RMK AO2
94908KDBQ DBQ20060326161009303/26/06 16:10:31  5-MIN KDBQ 262210Z 17010KT 10SM CLR 09/M05 A3017 850 35 400 170/10 RMK AO2
94908KDBQ DBQ20060326161509303/26/06 16:15:31  5-MIN KDBQ 262215Z 15006KT 10SM CLR 09/M05 A3017 850 37 400 150/06 RMK AO2
94908KDBQ DBQ20060326162009303/26/06 16:20:31  5-MIN KDBQ 262220Z 13007KT 10SM CLR 09/M05 A3017 850 35 400 130/07 RMK AO2
94908KDBQ DBQ20060326162509303/26/06 16:25:31  5-MIN KDBQ 262225Z 17010KT 10SM CLR 09/M05 A3017 850 35 400 160/10 RMK AO2
94908KDBQ DBQ20060326163009303/26/06 16:30:31  5-MIN KDBQ 262230Z 15011KT 10SM CLR 09/M05 A3017 850 35 400 150/11 RMK AO2
94908KDBQ DBQ20060326163509303/26/06 16:35:31  5-MIN KDBQ 262235Z 17009KT 10SM CLR 09/M05 A3016 850 35 400 170/09 RMK AO2
94908KDBQ DBQ20060326164009303/26/06 16:40:31  5-MIN KDBQ 262240Z 16008KT 10SM CLR 09/M05 A3017 850 35 400 160/08 RMK AO2
94908KDBQ DBQ20060326164509303/26/06 16:45:31  5-MIN KDBQ 262245Z 15011KT 10SM CLR 09/M05 A3017 850 35 400 150/11 RMK AO2
94908KDBQ DBQ20060326165011003/26/06 16:50:31  5-MIN KDBQ 262250Z 13007KT 10SM CLR 09/M05 A3017 850 37 400 130/07 RMK AO2 SLP226 T00891050
94908KDBQ DBQ20060326165511003/26/06 16:55:31  5-MIN KDBQ 262255Z 16009KT 10SM CLR 09/M05 A3017 850 37 400 160/09 RMK AO2 SLP226 T00891050
94908KDBQ DBQ20060326170009303/26/06 17:00:31  5-MIN KDBQ 262300Z 15009KT 10SM CLR 09/M05 A3017 850 37 400 140/09 RMK AO2
94908KDBQ DBQ20060326170509303/26/06 17:05:31  5-MIN KDBQ 262305Z 15010KT 10SM CLR 09/M05 A3017 850 37 400 150/10 RMK AO2
94908KDBQ DBQ20060326171009303/26/06 17:10:31  5-MIN KDBQ 262310Z 15009KT 10SM CLR 09/M05 A3017 850 37 400 150/09 RMK AO2
94908KDBQ DBQ20060326171509303/26/06 17:15:31  5-MIN KDBQ 262315Z 16010KT 10SM CLR 09/M05 A3017 850 37 400 160/10 RMK AO2
94908KDBQ DBQ20060326172009303/26/06 17:20:31  5-MIN KDBQ 262320Z 15007KT 10SM CLR 08/M05 A3017 850 38 300 150/07 RMK AO2
94908KDBQ DBQ20060326172509303/26/06 17:25:31  5-MIN KDBQ 262325Z 14008KT 10SM CLR 08/M05 A3017 850 38 300 140/08 RMK AO2
94908KDBQ DBQ20060326173009303/26/06 17:30:31  5-MIN KDBQ 262330Z 14009KT 10SM CLR 08/M05 A3017 850 38 300 140/09 RMK AO2
94908KDBQ DBQ20060326173509303/26/06 17:35:31  5-MIN KDBQ 262335Z 15010KT 10SM CLR 08/M05 A3017 850 40 200 150/10 RMK AO2
94908KDBQ DBQ20060326174009303/26/06 17:40:31  5-MIN KDBQ 262340Z 14008KT 10SM CLR 08/M05 A3017 850 40 200 140/08 RMK AO2
94908KDBQ DBQ20060326174509303/26/06 17:45:31  5-MIN KDBQ 262345Z 13007KT 10SM CLR 08/M04 A3017 840 41 200 130/07 RMK AO2
94908KDBQ DBQ20060326175012803/26/06 17:50:31  5-MIN KDBQ 262350Z 14007KT 10SM CLR 08/M04 A3017 840 41 200 140/07 RMK AO2 SLP228 T00781044 10094 20067 56023
94908KDBQ DBQ20060326175512803/26/06 17:55:31  5-MIN KDBQ 262355Z 13007KT 10SM CLR 07/M04 A3018 840 43 100 130/07 RMK AO2 SLP229 T00721044 10094 20067 55005
94908KDBQ DBQ20060326180009303/26/06 18:00:31  5-MIN KDBQ 270000Z 14007KT 10SM CLR 07/M04 A3018 840 45 100 140/07 RMK AO2
94908KDBQ DBQ20060326180509303/26/06 18:05:31  5-MIN KDBQ 270005Z 13006KT 10SM CLR 07/M04 A3018 840 45 100 130/06 RMK AO2
94908KDBQ DBQ20060326181009103/26/06 18:10:31  5-MIN KDBQ 270010Z 13007KT 10SM CLR 06/M04 A3018 840 46 0 130/07 RMK AO2
94908KDBQ DBQ20060326181509103/26/06 18:15:31  5-MIN KDBQ 270015Z 13005KT 10SM CLR 06/M04 A3018 840 46 0 130/05 RMK AO2
94908KDBQ DBQ20060326182009103/26/06 18:20:31  5-MIN KDBQ 270020Z 14006KT 10SM CLR 06/M04 A3018 840 48 0 140/06 RMK AO2
94908KDBQ DBQ20060326182509403/26/06 18:25:31  5-MIN KDBQ 270025Z 13005KT 10SM CLR 05/M04 A3018 840 50 -100 130/05 RMK AO2
94908KDBQ DBQ20060326183009403/26/06 18:30:31  5-MIN KDBQ 270030Z 14005KT 10SM CLR 05/M04 A3018 840 50 -100 140/05 RMK AO2
94908KDBQ DBQ20060326183509403/26/06 18:35:31  5-MIN KDBQ 270035Z 13006KT 10SM CLR 04/M04 A3018 840 52 -100 130/06 RMK AO2
94908KDBQ DBQ20060326184009403/26/06 18:40:31  5-MIN KDBQ 270040Z 13006KT 10SM CLR 04/M05 A3018 840 50 -100 130/06 RMK AO2
94908KDBQ DBQ20060326184509403/26/06 18:45:31  5-MIN KDBQ 270045Z 13005KT 10SM CLR 04/M05 A3018 840 52 -200 130/05 RMK AO2
94908KDBQ DBQ20060326185011103/26/06 18:50:31  5-MIN KDBQ 270050Z 13005KT 10SM CLR 04/M05 A3018 840 52 -200 130/05 RMK AO2 SLP231 T00391050
94908KDBQ DBQ20060326185511103/26/06 18:55:31  5-MIN KDBQ 270055Z 13005KT 10SM CLR 03/M05 A3018 840 54 -300 130/05 RMK AO2 SLP231 T00331050
94908KDBQ DBQ20060326190009403/26/06 19:00:31  5-MIN KDBQ 270100Z 13005KT 10SM CLR 03/M05 A3018 840 54 -300 130/05 RMK AO2
94908KDBQ DBQ20060326190509403/26/06 19:05:31  5-MIN KDBQ 270105Z 13005KT 10SM CLR 03/M05 A3018 840 54 -300 130/05 RMK AO2
94908KDBQ DBQ20060326191010403/26/06 19:10:31  5-MIN KDBQ 270110Z AUTO 13005KT 10SM CLR 03/M05 A3018 840 54 -300 130/05 RMK AO2 TSNO
94908KDBQ DBQ20060326191510403/26/06 19:15:31  5-MIN KDBQ 270115Z AUTO 13005KT 10SM CLR 03/M05 A3018 840 54 -300 130/05 RMK AO2 TSNO
94908KDBQ DBQ20060326192010403/26/06 19:20:31  5-MIN KDBQ 270120Z AUTO 13005KT 10SM CLR 03/M05 A3018 840 56 -400 130/05 RMK AO2 TSNO
94908KDBQ DBQ20060326192510403/26/06 19:25:31  5-MIN KDBQ 270125Z AUTO 12006KT 10SM CLR 03/M05 A3018 840 56 -400 120/06 RMK AO2 TSNO
94908KDBQ DBQ20060326193010403/26/06 19:30:31  5-MIN KDBQ 270130Z AUTO 12006KT 10SM CLR 02/M06 A3018 840 56 -400 120/06 RMK AO2 TSNO
94908KDBQ DBQ20060326193510403/26/06 19:35:31  5-MIN KDBQ 270135Z AUTO 12006KT 10SM CLR 02/M05 A3018 840 59 -400 120/06 RMK AO2 TSNO
94908KDBQ DBQ20060326194010403/26/06 19:40:31  5-MIN KDBQ 270140Z AUTO 12006KT 10SM CLR 02/M06 A3018 840 56 -400 120/06 RMK AO2 TSNO
94908KDBQ DBQ20060326194510403/26/06 19:45:31  5-MIN KDBQ 270145Z AUTO 12007KT 10SM CLR 03/M05 A3018 830 56 -400 120/07 RMK AO2 TSNO
94908KDBQ DBQ20060326195012103/26/06 19:50:31  5-MIN KDBQ 270150Z AUTO 12007KT 10SM CLR 03/M05 A3018 840 56 -400 120/07 RMK AO2 SLP232 T00281050 TSNO
94908KDBQ DBQ20060326195512103/26/06 19:55:31  5-MIN KDBQ 270155Z AUTO 12009KT 10SM CLR 03/M05 A3018 840 56 -400 120/09 RMK AO2 SLP231 T00281050 TSNO
94908KDBQ DBQ20060326200010403/26/06 20:00:31  5-MIN KDBQ 270200Z AUTO 12009KT 10SM CLR 03/M05 A3018 840 56 -400 120/09 RMK AO2 TSNO
94908KDBQ DBQ20060326200510403/26/06 20:05:31  5-MIN KDBQ 270205Z AUTO 12009KT 10SM CLR 03/M05 A3018 840 56 -400 120/09 RMK AO2 TSNO
94908KDBQ DBQ20060326201010403/26/06 20:10:31  5-MIN KDBQ 270210Z AUTO 12009KT 10SM CLR 03/M05 A3018 840 56 -400 110/09 RMK AO2 TSNO
94908KDBQ DBQ20060326201510403/26/06 20:15:31  5-MIN KDBQ 270215Z AUTO 12010KT 10SM CLR 03/M05 A3018 830 56 -400 120/10 RMK AO2 TSNO
94908KDBQ DBQ20060326202010403/26/06 20:20:31  5-MIN KDBQ 270220Z AUTO 11009KT 10SM CLR 03/M05 A3018 840 56 -400 110/09 RMK AO2 TSNO
94908KDBQ DBQ20060326202510403/26/06 20:25:31  5-MIN KDBQ 270225Z AUTO 11009KT 10SM CLR 03/M05 A3018 840 56 -400 110/09 RMK AO2 TSNO
94908KDBQ DBQ20060326203010403/26/06 20:30:31  5-MIN KDBQ 270230Z AUTO 11009KT 10SM CLR 02/M05 A3018 830 59 -400 110/09 RMK AO2 TSNO
94908KDBQ DBQ20060326203510403/26/06 20:35:31  5-MIN KDBQ 270235Z AUTO 12009KT 10SM CLR 02/M05 A3019 830 59 -400 120/09 RMK AO2 TSNO
94908KDBQ DBQ20060326204010403/26/06 20:40:31  5-MIN KDBQ 270240Z AUTO 12009KT 10SM CLR 02/M05 A3019 830 59 -400 120/09 RMK AO2 TSNO
94908KDBQ DBQ20060326204510403/26/06 20:45:31  5-MIN KDBQ 270245Z AUTO 12009KT 10SM CLR 02/M05 A3018 830 59 -400 120/09 RMK AO2 TSNO
94908KDBQ DBQ20060326205012703/26/06 20:50:31  5-MIN KDBQ 270250Z AUTO 12009KT 10SM CLR 02/M05 A3018 840 59 -400 120/09 RMK AO2 SLP230 T00221050 55005 TSNO
94908KDBQ DBQ20060326205512703/26/06 20:55:31  5-MIN KDBQ 270255Z AUTO 12009KT 10SM CLR 02/M05 A3018 840 59 -400 120/09 RMK AO2 SLP230 T00221050 50002 TSNO
94908KDBQ DBQ20060326210010403/26/06 21:00:31  5-MIN KDBQ 270300Z AUTO 12010KT 10SM CLR 02/M05 A3018 840 59 -400 120/10 RMK AO2 TSNO
94908KDBQ DBQ20060326210510403/26/06 21:05:31  5-MIN KDBQ 270305Z AUTO 12009KT 10SM CLR 02/M05 A3018 840 59 -400 120/09 RMK AO2 TSNO
94908KDBQ DBQ20060326211010403/26/06 21:10:31  5-MIN KDBQ 270310Z AUTO 13009KT 10SM CLR 02/M05 A3018 840 59 -400 120/09 RMK AO2 TSNO
94908KDBQ DBQ20060326211510403/26/06 21:15:31  5-MIN KDBQ 270315Z AUTO 13009KT 10SM CLR 03/M05 A3018 840 56 -400 120/09 RMK AO2 TSNO
94908KDBQ DBQ20060326212010403/26/06 21:20:31  5-MIN KDBQ 270320Z AUTO 13009KT 10SM CLR 03/M04 A3018 840 57 -300 120/09 RMK AO2 TSNO
94908KDBQ DBQ20060326212510403/26/06 21:25:31  5-MIN KDBQ 270325Z AUTO 13009KT 10SM CLR 03/M04 A3018 840 57 -300 130/09 RMK AO2 TSNO
94908KDBQ DBQ20060326213010403/26/06 21:30:31  5-MIN KDBQ 270330Z AUTO 13009KT 10SM CLR 03/M04 A3018 840 57 -300 130/09 RMK AO2 TSNO
94908KDBQ DBQ20060326213510403/26/06 21:35:31  5-MIN KDBQ 270335Z AUTO 13009KT 10SM CLR 03/M04 A3018 840 57 -300 130/09 RMK AO2 TSNO
94908KDBQ DBQ20060326214010403/26/06 21:40:31  5-MIN KDBQ 270340Z AUTO 13009KT 10SM CLR 03/M04 A3018 840 57 -300 130/09 RMK AO2 TSNO
94908KDBQ DBQ20060326214510403/26/06 21:45:31  5-MIN KDBQ 270345Z AUTO 14009KT 10SM CLR 03/M04 A3018 840 57 -300 130/09 RMK AO2 TSNO
94908KDBQ DBQ20060326215012103/26/06 21:50:31  5-MIN KDBQ 270350Z AUTO 14009KT 10SM CLR 03/M04 A3018 840 59 -400 140/09 RMK AO2 SLP229 T00281044 TSNO
94908KDBQ DBQ20060326215512103/26/06 21:55:31  5-MIN KDBQ 270355Z AUTO 14009KT 10SM CLR 03/M04 A3018 840 59 -400 140/09 RMK AO2 SLP230 T00281044 TSNO
94908KDBQ DBQ20060326220010403/26/06 22:00:31  5-MIN KDBQ 270400Z AUTO 14009KT 10SM CLR 03/M05 A3018 840 56 -400 140/09 RMK AO2 TSNO
94908KDBQ DBQ20060326220510403/26/06 22:05:31  5-MIN KDBQ 270405Z AUTO 14009KT 10SM CLR 03/M05 A3018 840 56 -400 140/09 RMK AO2 TSNO
94908KDBQ DBQ20060326221010403/26/06 22:10:31  5-MIN KDBQ 270410Z AUTO 14009KT 10SM CLR 03/M05 A3018 840 56 -400 140/09 RMK AO2 TSNO
94908KDBQ DBQ20060326221510403/26/06 22:15:31  5-MIN KDBQ 270415Z AUTO 14009KT 10SM CLR 02/M05 A3019 830 59 -400 140/09 RMK AO2 TSNO
94908KDBQ DBQ20060326222010403/26/06 22:20:31  5-MIN KDBQ 270420Z AUTO 14009KT 10SM CLR 02/M05 A3019 830 59 -400 140/09 RMK AO2 TSNO
94908KDBQ DBQ20060326222510403/26/06 22:25:31  5-MIN KDBQ 270425Z AUTO 14009KT 10SM CLR 02/M05 A3019 830 59 -400 140/09 RMK AO2 TSNO
94908KDBQ DBQ20060326223010403/26/06 22:30:31  5-MIN KDBQ 270430Z AUTO 14008KT 10SM CLR 02/M05 A3019 830 59 -400 140/08 RMK AO2 TSNO
94908KDBQ DBQ20060326223510403/26/06 22:35:31  5-MIN KDBQ 270435Z AUTO 15008KT 10SM CLR 02/M04 A3019 830 61 -400 140/08 RMK AO2 TSNO
94908KDBQ DBQ20060326224010403/26/06 22:40:31  5-MIN KDBQ 270440Z AUTO 14009KT 10SM CLR 02/M04 A3019 830 61 -400 140/09 RMK AO2 TSNO
94908KDBQ DBQ20060326224510403/26/06 22:45:31  5-MIN KDBQ 270445Z AUTO 15008KT 10SM CLR 02/M04 A3019 830 61 -400 150/08 RMK AO2 TSNO
94908KDBQ DBQ20060326225012103/26/06 22:50:31  5-MIN KDBQ 270450Z AUTO 15009KT 10SM CLR 02/M04 A3019 830 61 -400 150/09 RMK AO2 SLP234 T00221044 TSNO
94908KDBQ DBQ20060326225512103/26/06 22:55:31  5-MIN KDBQ 270455Z AUTO 15009KT 10SM CLR 02/M04 A3020 830 61 -400 150/09 RMK AO2 SLP233 T00221044 TSNO
94908KDBQ DBQ20060326230010403/26/06 23:00:31  5-MIN KDBQ 270500Z AUTO 15010KT 10SM CLR 02/M04 A3020 820 61 -400 150/10 RMK AO2 TSNO
94908KDBQ DBQ20060326230510403/26/06 23:05:31  5-MIN KDBQ 270505Z AUTO 15009KT 10SM CLR 02/M04 A3020 820 61 -400 150/09 RMK AO2 TSNO
94908KDBQ DBQ20060326231010403/26/06 23:10:31  5-MIN KDBQ 270510Z AUTO 16009KT 10SM CLR 02/M04 A3020 820 61 -400 160/09 RMK AO2 TSNO
94908KDBQ DBQ20060326231510403/26/06 23:15:31  5-MIN KDBQ 270515Z AUTO 17009KT 10SM CLR 02/M04 A3021 810 64 -500 170/09 RMK AO2 TSNO
94908KDBQ DBQ20060326232010403/26/06 23:20:31  5-MIN KDBQ 270520Z AUTO 17008KT 10SM CLR 01/M05 A3021 810 64 -600 160/08 RMK AO2 TSNO
94908KDBQ DBQ20060326232510403/26/06 23:25:31  5-MIN KDBQ 270525Z AUTO 17009KT 10SM CLR 01/M05 A3021 810 64 -600 170/09 RMK AO2 TSNO
94908KDBQ DBQ20060326233010403/26/06 23:30:31  5-MIN KDBQ 270530Z AUTO 17010KT 10SM CLR 01/M05 A3021 810 64 -600 170/10 RMK AO2 TSNO
94908KDBQ DBQ20060326233510403/26/06 23:35:31  5-MIN KDBQ 270535Z AUTO 17009KT 10SM CLR 01/M05 A3021 810 66 -700 170/09 RMK AO2 TSNO
94908KDBQ DBQ20060326234010403/26/06 23:40:31  5-MIN KDBQ 270540Z AUTO 16009KT 10SM CLR 01/M05 A3021 820 66 -700 160/09 RMK AO2 TSNO
94908KDBQ DBQ20060326234510403/26/06 23:45:31  5-MIN KDBQ 270545Z AUTO 16009KT 10SM CLR 01/M05 A3021 820 64 -600 160/09 RMK AO2 TSNO
94908KDBQ DBQ20060326235014903/26/06 23:50:31  5-MIN KDBQ 270550Z AUTO 16009KT 10SM CLR 01/M05 A3021 820 64 -600 160/09 RMK AO2 SLP238 T00111050 10072 20006 400941044 50002 TSNO
94908KDBQ DBQ20060326235514903/26/06 23:55:31  5-MIN KDBQ 270555Z AUTO 16010KT 10SM CLR 01/M05 A3020 820 64 -600 160/10 RMK AO2 SLP237 T00111050 10072 20006 400941044 53007 TSNO
94908KDBQ DBQ20060327000010403/27/06 00:00:38  5-MIN KDBQ 270600Z AUTO 17009KT 10SM CLR 01/M05 A3020 820 64 -600 170/09 RMK AO2 TSNO
94908KDBQ DBQ20060327000510403/27/06 00:05:31  5-MIN KDBQ 270605Z AUTO 17009KT 10SM CLR 01/M05 A3020 820 64 -600 170/09 RMK AO2 TSNO
94908KDBQ DBQ20060327001010403/27/06 00:10:31  5-MIN KDBQ 270610Z AUTO 17009KT 10SM CLR 01/M05 A3020 820 64 -600 160/09 RMK AO2 TSNO
94908KDBQ DBQ20060327001510403/27/06 00:15:31  5-MIN KDBQ 270615Z AUTO 16010KT 10SM CLR 01/M05 A3020 820 64 -600 160/10 RMK AO2 TSNO
94908KDBQ DBQ20060327002010403/27/06 00:20:31  5-MIN KDBQ 270620Z AUTO 16010KT 10SM CLR 02/M05 A3021 810 61 -500 160/10 RMK AO2 TSNO
94908KDBQ DBQ20060327002510403/27/06 00:25:31  5-MIN KDBQ 270625Z AUTO 16011KT 10SM CLR 02/M05 A3021 810 61 -500 160/11 RMK AO2 TSNO
94908KDBQ DBQ20060327003010403/27/06 00:30:31  5-MIN KDBQ 270630Z AUTO 16010KT 10SM CLR 02/M05 A3021 820 61 -500 160/10 RMK AO2 TSNO
94908KDBQ DBQ20060327003510403/27/06 00:35:31  5-MIN KDBQ 270635Z AUTO 16010KT 10SM CLR 02/M05 A3021 820 61 -500 160/10 RMK AO2 TSNO
94908KDBQ DBQ20060327004010403/27/06 00:40:31  5-MIN KDBQ 270640Z AUTO 16010KT 10SM CLR 02/M05 A3020 820 61 -500 160/10 RMK AO2 TSNO
94908KDBQ DBQ20060327004510403/27/06 00:45:31  5-MIN KDBQ 270645Z AUTO 16010KT 10SM CLR 02/M04 A3020 820 64 -500 160/10 RMK AO2 TSNO
94908KDBQ DBQ20060327005012103/27/06 00:50:31  5-MIN KDBQ 270650Z AUTO 15009KT 10SM CLR 02/M04 A3020 820 64 -500 150/09 RMK AO2 SLP236 T00171044 TSNO
94908KDBQ DBQ20060327005512103/27/06 00:55:31  5-MIN KDBQ 270655Z AUTO 14009KT 10SM CLR 02/M04 A3021 820 64 -500 140/09 RMK AO2 SLP237 T00171044 TSNO
94908KDBQ DBQ20060327010010403/27/06 01:00:31  5-MIN KDBQ 270700Z AUTO 14009KT 10SM CLR 02/M04 A3020 820 64 -500 130/09 RMK AO2 TSNO
94908KDBQ DBQ20060327010510403/27/06 01:05:31  5-MIN KDBQ 270705Z AUTO 14008KT 10SM CLR 02/M04 A3020 820 64 -500 140/08 RMK AO2 TSNO
94908KDBQ DBQ20060327011010403/27/06 01:10:31  5-MIN KDBQ 270710Z AUTO 14010KT 10SM CLR 01/M04 A3020 820 66 -600 140/10 RMK AO2 TSNO
94908KDBQ DBQ20060327011510403/27/06 01:15:31  5-MIN KDBQ 270715Z AUTO 13010KT 10SM CLR 02/M04 A3020 820 64 -500 130/10 RMK AO2 TSNO
94908KDBQ DBQ20060327012010403/27/06 01:20:31  5-MIN KDBQ 270720Z AUTO 14009KT 10SM CLR 02/M04 A3020 820 64 -500 140/09 RMK AO2 TSNO
94908KDBQ DBQ20060327012510403/27/06 01:25:31  5-MIN KDBQ 270725Z AUTO 13011KT 10SM CLR 01/M04 A3020 820 66 -600 130/11 RMK AO2 TSNO
94908KDBQ DBQ20060327013010403/27/06 01:30:31  5-MIN KDBQ 270730Z AUTO 14009KT 10SM CLR 02/M04 A3020 820 64 -500 140/09 RMK AO2 TSNO
94908KDBQ DBQ20060327013510403/27/06 01:35:31  5-MIN KDBQ 270735Z AUTO 14009KT 10SM CLR 01/M04 A3020 820 66 -600 130/09 RMK AO2 TSNO
94908KDBQ DBQ20060327014010403/27/06 01:40:31  5-MIN KDBQ 270740Z AUTO 13009KT 10SM CLR 01/M04 A3020 820 66 -600 130/09 RMK AO2 TSNO
94908KDBQ DBQ20060327014510403/27/06 01:45:31  5-MIN KDBQ 270745Z AUTO 13010KT 10SM CLR 01/M04 A3020 820 66 -600 130/10 RMK AO2 TSNO
94908KDBQ DBQ20060327015012103/27/06 01:50:31  5-MIN KDBQ 270750Z AUTO 13011KT 10SM CLR 01/M04 A3020 820 66 -600 130/11 RMK AO2 SLP233 T00111044 TSNO
94908KDBQ DBQ20060327015512103/27/06 01:55:31  5-MIN KDBQ 270755Z AUTO 13011KT 10SM CLR 01/M04 A3019 830 66 -600 130/11 RMK AO2 SLP232 T00111044 TSNO
94908KDBQ DBQ20060327020010403/27/06 02:00:31  5-MIN KDBQ 270800Z AUTO 13011KT 10SM CLR 01/M04 A3019 830 66 -600 130/11 RMK AO2 TSNO
94908KDBQ DBQ20060327020510403/27/06 02:05:31  5-MIN KDBQ 270805Z AUTO 12009KT 10SM CLR 01/M04 A3019 830 69 -600 120/09 RMK AO2 TSNO
94908KDBQ DBQ20060327021010403/27/06 02:10:31  5-MIN KDBQ 270810Z AUTO 13010KT 10SM CLR 01/M04 A3018 840 69 -600 130/10 RMK AO2 TSNO
94908KDBQ DBQ20060327021510403/27/06 02:15:31  5-MIN KDBQ 270815Z AUTO 13010KT 10SM CLR 01/M04 A3018 840 66 -600 130/10 RMK AO2 TSNO
94908KDBQ DBQ20060327022010403/27/06 02:20:31  5-MIN KDBQ 270820Z AUTO 13010KT 10SM CLR 01/M04 A3018 840 69 -600 130/10 RMK AO2 TSNO
94908KDBQ DBQ20060327022510403/27/06 02:25:31  5-MIN KDBQ 270825Z AUTO 13011KT 10SM CLR 01/M04 A3018 840 69 -600 130/11 RMK AO2 TSNO
94908KDBQ DBQ20060327023010403/27/06 02:30:31  5-MIN KDBQ 270830Z AUTO 14010KT 10SM CLR 01/M04 A3018 840 69 -600 140/10 RMK AO2 TSNO
94908KDBQ DBQ20060327023510403/27/06 02:35:31  5-MIN KDBQ 270835Z AUTO 14010KT 10SM CLR 00/M04 A3018 840 72 -700 140/10 RMK AO2 TSNO
94908KDBQ DBQ20060327024010403/27/06 02:40:31  5-MIN KDBQ 270840Z AUTO 15009KT 10SM CLR 00/M04 A3018 840 72 -700 140/09 RMK AO2 TSNO
94908KDBQ DBQ20060327024510403/27/06 02:45:31  5-MIN KDBQ 270845Z AUTO 14009KT 10SM CLR 00/M04 A3018 840 72 -700 140/09 RMK AO2 TSNO
94908KDBQ DBQ20060327025012703/27/06 02:50:31  5-MIN KDBQ 270850Z AUTO 14008KT 10SM CLR 00/M04 A3018 840 72 -700 140/08 RMK AO2 SLP229 T00001044 53007 TSNO
94908KDBQ DBQ20060327025512703/27/06 02:55:31  5-MIN KDBQ 270855Z AUTO 14009KT 10SM CLR 00/M04 A3018 840 72 -700 140/09 RMK AO2 SLP229 T00001044 58007 TSNO
94908KDBQ DBQ20060327030010403/27/06 03:00:31  5-MIN KDBQ 270900Z AUTO 14008KT 10SM CLR 00/M04 A3018 840 72 -700 140/08 RMK AO2 TSNO
94908KDBQ DBQ20060327030510403/27/06 03:05:31  5-MIN KDBQ 270905Z AUTO 14010KT 10SM CLR 00/M04 A3018 840 72 -700 140/10 RMK AO2 TSNO
94908KDBQ DBQ20060327031010403/27/06 03:10:31  5-MIN KDBQ 270910Z AUTO 14009KT 10SM CLR 00/M04 A3017 840 72 -700 140/09 RMK AO2 TSNO
94908KDBQ DBQ20060327031510403/27/06 03:15:31  5-MIN KDBQ 270915Z AUTO 14010KT 10SM CLR 00/M04 A3017 850 72 -700 140/10 RMK AO2 TSNO
94908KDBQ DBQ20060327032010403/27/06 03:20:31  5-MIN KDBQ 270920Z AUTO 15010KT 10SM CLR 00/M04 A3017 850 72 -700 140/10 RMK AO2 TSNO
94908KDBQ DBQ20060327032510403/27/06 03:25:31  5-MIN KDBQ 270925Z AUTO 15010KT 10SM CLR 00/M04 A3017 850 72 -700 150/10 RMK AO2 TSNO
94908KDBQ DBQ20060327033010403/27/06 03:30:31  5-MIN KDBQ 270930Z AUTO 14009KT 10SM CLR 00/M04 A3017 850 72 -700 140/09 RMK AO2 TSNO
94908KDBQ DBQ20060327033510403/27/06 03:35:31  5-MIN KDBQ 270935Z AUTO 14010KT 10SM CLR 00/M04 A3016 850 72 -700 140/10 RMK AO2 TSNO
94908KDBQ DBQ20060327034010403/27/06 03:40:31  5-MIN KDBQ 270940Z AUTO 14009KT 10SM CLR 00/M04 A3016 850 72 -700 140/09 RMK AO2 TSNO
94908KDBQ DBQ20060327034510403/27/06 03:45:31  5-MIN KDBQ 270945Z AUTO 14010KT 10SM CLR 00/M04 A3016 860 72 -700 140/10 RMK AO2 TSNO
94908KDBQ DBQ20060327035012103/27/06 03:50:31  5-MIN KDBQ 270950Z AUTO 14010KT 10SM CLR 00/M04 A3016 860 72 -700 140/10 RMK AO2 SLP221 T00001044 TSNO
94908KDBQ DBQ20060327035512103/27/06 03:55:31  5-MIN KDBQ 270955Z AUTO 14010KT 10SM CLR 00/M04 A3016 860 72 -700 140/10 RMK AO2 SLP221 T00001044 TSNO
94908KDBQ DBQ20060327040010403/27/06 04:00:31  5-MIN KDBQ 271000Z AUTO 14010KT 10SM CLR 00/M04 A3016 860 72 -700 140/10 RMK AO2 TSNO
94908KDBQ DBQ20060327040510403/27/06 04:05:31  5-MIN KDBQ 271005Z AUTO 14010KT 10SM CLR 00/M04 A3016 860 72 -700 140/10 RMK AO2 TSNO
94908KDBQ DBQ20060327041010403/27/06 04:10:31  5-MIN KDBQ 271010Z AUTO 14009KT 10SM CLR 00/M04 A3016 860 72 -700 140/09 RMK AO2 TSNO
94908KDBQ DBQ20060327041510403/27/06 04:15:31  5-MIN KDBQ 271015Z AUTO 14011KT 10SM CLR 00/M04 A3016 860 72 -700 140/11 RMK AO2 TSNO
94908KDBQ DBQ20060327042010403/27/06 04:20:31  5-MIN KDBQ 271020Z AUTO 14011KT 10SM CLR 00/M04 A3015 860 72 -700 140/11 RMK AO2 TSNO
94908KDBQ DBQ20060327042510403/27/06 04:25:31  5-MIN KDBQ 271025Z AUTO 14010KT 10SM CLR 00/M04 A3015 860 72 -700 140/10 RMK AO2 TSNO
94908KDBQ DBQ20060327043010403/27/06 04:30:31  5-MIN KDBQ 271030Z AUTO 14010KT 10SM CLR 00/M04 A3015 860 72 -700 140/10 RMK AO2 TSNO
94908KDBQ DBQ20060327043510403/27/06 04:35:31  5-MIN KDBQ 271035Z AUTO 14010KT 10SM CLR 00/M04 A3015 870 72 -700 140/10 RMK AO2 TSNO
94908KDBQ DBQ20060327044010403/27/06 04:40:31  5-MIN KDBQ 271040Z AUTO 14010KT 10SM CLR 00/M04 A3014 870 72 -700 140/10 RMK AO2 TSNO
94908KDBQ DBQ20060327044510403/27/06 04:45:31  5-MIN KDBQ 271045Z AUTO 14010KT 10SM CLR 00/M04 A3014 880 72 -700 140/10 RMK AO2 TSNO
94908KDBQ DBQ20060327045012103/27/06 04:50:31  5-MIN KDBQ 271050Z AUTO 14011KT 10SM CLR 00/M04 A3014 880 72 -600 140/11 RMK AO2 SLP214 T00001044 TSNO
94908KDBQ DBQ20060327045512103/27/06 04:55:31  5-MIN KDBQ 271055Z AUTO 14012KT 10SM CLR 00/M04 A3014 880 72 -700 140/12 RMK AO2 SLP215 T00001044 TSNO
94908KDBQ DBQ20060327050010403/27/06 05:00:31  5-MIN KDBQ 271100Z AUTO 14012KT 10SM CLR 01/M04 A3014 880 69 -600 140/12 RMK AO2 TSNO
94908KDBQ DBQ20060327050510403/27/06 05:05:31  5-MIN KDBQ 271105Z AUTO 14014KT 10SM CLR 01/M04 A3014 880 69 -600 140/14 RMK AO2 TSNO
94908KDBQ DBQ20060327051010403/27/06 05:10:31  5-MIN KDBQ 271110Z AUTO 14013KT 10SM CLR 01/M04 A3013 880 69 -600 140/13 RMK AO2 TSNO
94908KDBQ DBQ20060327051510403/27/06 05:15:31  5-MIN KDBQ 271115Z AUTO 14013KT 10SM CLR 01/M04 A3013 880 69 -600 140/13 RMK AO2 TSNO
94908KDBQ DBQ20060327052010403/27/06 05:20:31  5-MIN KDBQ 271120Z AUTO 14013KT 10SM CLR 01/M04 A3013 880 69 -600 140/13 RMK AO2 TSNO
94908KDBQ DBQ20060327052510403/27/06 05:25:31  5-MIN KDBQ 271125Z AUTO 14014KT 10SM CLR 01/M04 A3014 880 66 -500 140/14 RMK AO2 TSNO
94908KDBQ DBQ20060327053010703/27/06 05:30:31  5-MIN KDBQ 271130Z AUTO 14013KT 10SM SCT120 01/M04 A3014 880 66 -500 140/13 RMK AO2 TSNO
94908KDBQ DBQ20060327053510703/27/06 05:35:31  5-MIN KDBQ 271135Z AUTO 14015KT 10SM SCT120 01/M04 A3013 880 66 -500 140/15 RMK AO2 TSNO
94908KDBQ DBQ20060327054011403/27/06 05:40:31  5-MIN KDBQ 271140Z AUTO 14015KT 10SM FEW090 BKN110 01/M04 A3013 880 66 -500 140/15 RMK AO2 TSNO
94908KDBQ DBQ20060327054511403/27/06 05:45:31  5-MIN KDBQ 271145Z AUTO 14014KT 10SM FEW090 BKN110 01/M04 A3013 880 66 -500 140/14 RMK AO2 TSNO
94908KDBQ DBQ20060327055014903/27/06 05:50:31  5-MIN KDBQ 271150Z AUTO 14014KT 10SM FEW090 BKN110 01/M04 A3013 880 66 -500 140/14 RMK AO2 SLP213 T00111044 10017 20000 58007 TSNO
94908KDBQ DBQ20060327055514903/27/06 05:55:31  5-MIN KDBQ 271155Z AUTO 14014KT 10SM FEW090 BKN110 01/M04 A3013 880 66 -500 140/14 RMK AO2 SLP213 T00111044 10017 20000 56016 TSNO
94908KDBQ DBQ20060327060010403/27/06 06:00:31  5-MIN KDBQ 271200Z 14015KT 10SM FEW090 BKN110 02/M04 A3013 880 64 -400 140/15 RMK AO2
94908KDBQ DBQ20060327060510403/27/06 06:05:31  5-MIN KDBQ 271205Z 14014KT 10SM FEW090 OVC110 02/M04 A3013 880 64 -400 140/14 RMK AO2
94908KDBQ DBQ20060327061010403/27/06 06:10:31  5-MIN KDBQ 271210Z 14012KT 10SM BKN100 OVC120 02/M04 A3013 880 64 -400 140/12 RMK AO2
94908KDBQ DBQ20060327061509703/27/06 06:15:31  5-MIN KDBQ 271215Z 15013KT 10SM OVC100 02/M04 A3013 880 66 -400 140/13 RMK AO2
94908KDBQ DBQ20060327062009703/27/06 06:20:31  5-MIN KDBQ 271220Z 15012KT 10SM OVC100 02/M04 A3013 880 64 -400 150/12 RMK AO2
94908KDBQ DBQ20060327062509703/27/06 06:25:31  5-MIN KDBQ 271225Z 15013KT 10SM OVC100 02/M04 A3014 880 64 -400 150/13 RMK AO2
94908KDBQ DBQ20060327063010303/27/06 06:30:31  5-MIN KDBQ 271230Z 15015G20KT 10SM OVC095 02/M04 A3014 880 61 -400 150/15G20 RMK AO2
94908KDBQ DBQ20060327063509703/27/06 06:35:31  5-MIN KDBQ 271235Z 15014KT 10SM OVC095 02/M04 A3014 880 61 -400 150/14 RMK AO2
94908KDBQ DBQ20060327064009703/27/06 06:40:31  5-MIN KDBQ 271240Z 15015KT 10SM OVC095 02/M04 A3014 870 61 -400 150/15 RMK AO2
94908KDBQ DBQ20060327064509703/27/06 06:45:31  5-MIN KDBQ 271245Z 16015KT 10SM OVC095 02/M04 A3014 870 64 -400 160/15 RMK AO2
94908KDBQ DBQ20060327065011403/27/06 06:50:31  5-MIN KDBQ 271250Z 16013KT 10SM OVC095 02/M04 A3014 870 64 -400 150/13 RMK AO2 SLP217 T00221039
94908KDBQ DBQ20060327065512103/27/06 06:55:31  5-MIN KDBQ 271255Z 15014KT 10SM FEW070 OVC090 02/M04 A3014 870 64 -400 150/14 RMK AO2 SLP218 T00221039
94908KDBQ DBQ20060327070011103/27/06 07:00:31  5-MIN KDBQ 271300Z 15014KT 10SM FEW050 SCT070 OVC090 03/M04 A3014 870 61 -300 150/14 RMK AO2
94908KDBQ DBQ20060327070511103/27/06 07:05:31  5-MIN KDBQ 271305Z 15013KT 10SM SCT047 BKN070 OVC090 03/M04 A3014 870 61 -300 150/13 RMK AO2
94908KDBQ DBQ20060327071011103/27/06 07:10:31  5-MIN KDBQ 271310Z 15013KT 10SM BKN047 BKN060 OVC090 03/M04 A3014 880 59 -300 150/13 RMK AO2
94908KDBQ DBQ20060327071511103/27/06 07:15:31  5-MIN KDBQ 271315Z 15013KT 10SM BKN047 BKN070 OVC090 03/M04 A3014 880 59 -300 150/13 RMK AO2
94908KDBQ DBQ20060327072010403/27/06 07:20:31  5-MIN KDBQ 271320Z 16015KT 10SM BKN047 BKN070 03/M04 A3014 880 59 -300 160/15 RMK AO2
94908KDBQ DBQ20060327072510403/27/06 07:25:31  5-MIN KDBQ 271325Z 15014KT 10SM BKN047 BKN060 03/M04 A3014 880 59 -300 150/14 RMK AO2
94908KDBQ DBQ20060327073011003/27/06 07:30:31  5-MIN KDBQ 271330Z 15015G20KT 10SM BKN045 BKN060 03/M04 A3013 880 59 -300 150/15G20 RMK AO2
94908KDBQ DBQ20060327073510403/27/06 07:35:31  5-MIN KDBQ 271335Z 15014KT 10SM BKN045 BKN060 03/M04 A3013 880 61 -300 150/14 RMK AO2
94908KDBQ DBQ20060327074010403/27/06 07:40:31  5-MIN KDBQ 271340Z 15017KT 10SM BKN045 BKN065 03/M04 A3013 890 57 -200 150/17 RMK AO2
94908KDBQ DBQ20060327074510403/27/06 07:45:31  5-MIN KDBQ 271345Z 15017KT 10SM BKN045 OVC065 03/M04 A3013 890 57 -200 150/17 RMK AO2
94908KDBQ DBQ20060327075012103/27/06 07:50:31  5-MIN KDBQ 271350Z 15015KT 10SM BKN047 OVC070 03/M04 A3013 890 57 -200 150/15 RMK AO2 SLP211 T00331044
94908KDBQ DBQ20060327075512103/27/06 07:55:31  5-MIN KDBQ 271355Z 15016KT 10SM BKN047 OVC070 03/M04 A3013 890 57 -200 150/16 RMK AO2 SLP211 T00331044
94908KDBQ DBQ20060327080010403/27/06 08:00:31  5-MIN KDBQ 271400Z 15015KT 10SM SCT047 OVC070 03/M04 A3012 890 57 -200 150/15 RMK AO2
94908KDBQ DBQ20060327080510403/27/06 08:05:31  5-MIN KDBQ 271405Z 15016KT 10SM FEW047 OVC070 03/M04 A3012 890 57 -200 150/16 RMK AO2
94908KDBQ DBQ20060327081010403/27/06 08:10:31  5-MIN KDBQ 271410Z 15015KT 10SM FEW049 OVC070 03/M04 A3012 890 57 -200 150/15 RMK AO2
94908KDBQ DBQ20060327081510403/27/06 08:15:31  5-MIN KDBQ 271415Z 15013KT 10SM FEW049 OVC070 03/M04 A3012 890 57 -200 140/13 RMK AO2
94908KDBQ DBQ20060327082011003/27/06 08:20:31  5-MIN KDBQ 271420Z 15016G21KT 10SM FEW047 OVC070 04/M04 A3012 890 54 -100 150/16G21 RMK AO2
94908KDBQ DBQ20060327082511003/27/06 08:25:31  5-MIN KDBQ 271425Z 15014G21KT 10SM SCT047 OVC070 04/M04 A3012 890 54 -100 140/14G21 RMK AO2
94908KDBQ DBQ20060327083010403/27/06 08:30:31  5-MIN KDBQ 271430Z 15013KT 10SM BKN049 OVC070 04/M04 A3012 890 54 -100 140/13 RMK AO2
94908KDBQ DBQ20060327083511103/27/06 08:35:31  5-MIN KDBQ 271435Z 15013KT 10SM SCT043 BKN049 OVC070 04/M04 A3013 890 57 -200 150/13 RMK AO2
94908KDBQ DBQ20060327084011703/27/06 08:40:31  5-MIN KDBQ 271440Z 15016G20KT 10SM SCT041 BKN049 OVC065 04/M04 A3013 890 57 -200 150/16G20 RMK AO2
94908KDBQ DBQ20060327084510403/27/06 08:45:31  5-MIN KDBQ 271445Z 15015KT 10SM BKN039 OVC049 04/M04 A3013 890 57 -200 150/15 RMK AO2
94908KDBQ DBQ20060327085012703/27/06 08:50:31  5-MIN KDBQ 271450Z 15013KT 10SM BKN039 OVC049 04/M04 A3013 880 57 -200 150/13 RMK AO2 SLP212 T00391039 56016
94908KDBQ DBQ20060327085512703/27/06 08:55:31  5-MIN KDBQ 271455Z 15015KT 10SM BKN039 OVC049 04/M04 A3013 880 57 -200 150/15 RMK AO2 SLP213 T00391039 58000
94908KDBQ DBQ20060327090011003/27/06 09:00:31  5-MIN KDBQ 271500Z 15015G20KT 10SM BKN039 OVC049 04/M04 A3013 880 57 -200 150/15G20 RMK AO2
94908KDBQ DBQ20060327090510303/27/06 09:05:31  5-MIN KDBQ 271505Z 15014G20KT 10SM OVC037 04/M04 A3013 880 55 -100 150/14G20 RMK AO2
94908KDBQ DBQ20060327091010303/27/06 09:10:31  5-MIN KDBQ 271510Z 15014G20KT 10SM OVC033 04/M04 A3014 880 55 -100 150/14G20 RMK AO2
94908KDBQ DBQ20060327091510303/27/06 09:15:31  5-MIN KDBQ 271515Z 15014G20KT 10SM OVC033 04/M04 A3013 880 55 -100 150/14G20 RMK AO2
94908KDBQ DBQ20060327092009703/27/06 09:20:31  5-MIN KDBQ 271520Z 14014KT 10SM OVC033 04/M04 A3013 880 55 -100 140/14 RMK AO2
94908KDBQ DBQ20060327092509703/27/06 09:25:31  5-MIN KDBQ 271525Z 14012KT 10SM OVC033 04/M04 A3013 880 55 -100 140/12 RMK AO2
94908KDBQ DBQ20060327093009703/27/06 09:30:31  5-MIN KDBQ 271530Z 14012KT 10SM OVC031 04/M04 A3013 880 55 -100 140/12 RMK AO2
94908KDBQ DBQ20060327093509703/27/06 09:35:31  5-MIN KDBQ 271535Z 14012KT 10SM OVC031 04/M04 A3013 880 55 -100 140/12 RMK AO2
94908KDBQ DBQ20060327094010303/27/06 09:40:31  5-MIN KDBQ 271540Z 14014G19KT 10SM OVC033 04/M04 A3013 880 55 -100 140/14G19 RMK AO2
94908KDBQ DBQ20060327094510303/27/06 09:45:31  5-MIN KDBQ 271545Z 14013G19KT 10SM OVC035 04/M04 A3013 890 55 -100 140/13G19 RMK AO2
94908KDBQ DBQ20060327095012103/27/06 09:50:31  5-MIN KDBQ 271550Z 14014KT 10SM BKN037 BKN065 04/M04 A3013 890 55 -100 140/14 RMK AO2 SLP211 T00441039
94908KDBQ DBQ20060327095511403/27/06 09:55:31  5-MIN KDBQ 271555Z 14012KT 10SM BKN039 04/M04 A3012 890 55 -100 140/12 RMK AO2 SLP210 T00441039
94908KDBQ DBQ20060327100010303/27/06 10:00:31  5-MIN KDBQ 271600Z 14014G19KT 10SM BKN039 04/M04 A3012 900 55 -100 130/14G19 RMK AO2
94908KDBQ DBQ20060327100510303/27/06 10:05:31  5-MIN KDBQ 271605Z 14015G19KT 10SM BKN039 04/M04 A3012 890 55 -100 130/15G19 RMK AO2
94908KDBQ DBQ20060327101010003/27/06 10:10:31  5-MIN KDBQ 271610Z 14015G19KT 10SM BKN039 05/M04 A3012 890 52 0 140/15G19 RMK AO2
94908KDBQ DBQ20060327101510103/27/06 10:15:31  5-MIN KDBQ 271615Z 14012KT 10SM BKN034 BKN044 05/M04 A3012 890 52 0 130/12 RMK AO2
94908KDBQ DBQ20060327102010403/27/06 10:20:31  5-MIN KDBQ 271620Z 13012KT 10SM BKN030 OVC044 04/M03 A3012 890 57 -100 130/12 RMK AO2
94908KDBQ DBQ20060327102509703/27/06 10:25:31  5-MIN KDBQ 271625Z 13014KT 10SM BKN028 04/M03 A3012 900 57 -100 130/14 RMK AO2
94908KDBQ DBQ20060327103009703/27/06 10:30:31  5-MIN KDBQ 271630Z 13014KT 10SM BKN028 04/M03 A3012 900 57 -100 130/14 RMK AO2
94908KDBQ DBQ20060327103510003/27/06 10:35:31  5-MIN KDBQ 271635Z 13015G20KT 10SM SCT028 05/M03 A3011 900 55 0 130/15G20 RMK AO2
94908KDBQ DBQ20060327104010003/27/06 10:40:31  5-MIN KDBQ 271640Z 13012G20KT 10SM SCT033 05/M03 A3011 900 55 0 130/12G20 RMK AO2
94908KDBQ DBQ20060327104509403/27/06 10:45:31  5-MIN KDBQ 271645Z 13012KT 10SM BKN042 05/M03 A3011 900 55 0 120/12 RMK AO2
94908KDBQ DBQ20060327105011703/27/06 10:50:31  5-MIN KDBQ 271650Z 13015G18KT 10SM SCT046 05/M03 A3011 910 55 0 130/15G18 RMK AO2 SLP204 T00501033
94908KDBQ DBQ20060327105511703/27/06 10:55:31  5-MIN KDBQ 271655Z 12016G19KT 10SM FEW060 05/M03 A3010 910 55 0 120/16G19 RMK AO2 SLP203 T00501033
94908KDBQ DBQ20060327110010003/27/06 11:00:31  5-MIN KDBQ 271700Z 13012G19KT 10SM SCT060 05/M03 A3010 910 55 0 130/12G19 RMK AO2
94908KDBQ DBQ20060327110509403/27/06 11:05:31  5-MIN KDBQ 271705Z 13015KT 10SM SCT060 05/M03 A3010 910 55 0 120/15 RMK AO2
94908KDBQ DBQ20060327111009403/27/06 11:10:31  5-MIN KDBQ 271710Z 12015KT 10SM SCT055 05/M03 A3010 910 55 0 120/15 RMK AO2
94908KDBQ DBQ20060327111509403/27/06 11:15:31  5-MIN KDBQ 271715Z 13014KT 10SM SCT055 05/M03 A3010 910 55 0 130/14 RMK AO2
94908KDBQ DBQ20060327112009403/27/06 11:20:31  5-MIN KDBQ 271720Z 13013KT 10SM BKN055 05/M03 A3010 910 55 0 130/13 RMK AO2
94908KDBQ DBQ20060327112510003/27/06 11:25:31  5-MIN KDBQ 271725Z 12014G18KT 10SM BKN055 05/M03 A3010 910 55 0 120/14G18 RMK AO2
94908KDBQ DBQ20060327113010003/27/06 11:30:31  5-MIN KDBQ 271730Z 12015G18KT 10SM BKN050 05/M03 A3009 920 57 0 120/15G18 RMK AO2
94908KDBQ DBQ20060327113509403/27/06 11:35:31  5-MIN KDBQ 271735Z 12015KT 10SM BKN050 06/M03 A3009 920 55 0 120/15 RMK AO2
94908KDBQ DBQ20060327114010003/27/06 11:40:31  5-MIN KDBQ 271740Z 12016G21KT 10SM SCT050 06/M03 A3009 930 55 0 120/16G21 RMK AO2
94908KDBQ DBQ20060327114510903/27/06 11:45:31  5-MIN KDBQ 271745Z 12014G21KT 10SM SCT050 06/M03 A3008 930 55 100 120/14G21 RMK AO2 PRESFR
94908KDBQ DBQ20060327115013703/27/06 11:50:31  5-MIN KDBQ 271750Z 12018G23KT 10SM FEW047 06/M03 A3007 940 55 100 120/18G23 RMK AO2 SLP193 T00561028 10056 20011 58000
94908KDBQ DBQ20060327115513703/27/06 11:55:31  5-MIN KDBQ 271755Z 12017G23KT 10SM FEW045 06/M03 A3007 940 55 100 120/17G23 RMK AO2 SLP192 T00561028 10056 20011 58019
94908KDBQ DBQ20060327120009603/27/06 12:00:31  5-MIN KDBQ 271800Z 12016KT 10SM FEW110 06/M03 A3007 940 55 100 120/16 RMK AO2
94908KDBQ DBQ20060327120510203/27/06 12:05:31  5-MIN KDBQ 271805Z 12017G22KT 10SM SCT110 06/M03 A3007 940 53 100 120/17G22 RMK AO2
94908KDBQ DBQ20060327121010203/27/06 12:10:31  5-MIN KDBQ 271810Z 12014G22KT 10SM FEW110 06/M03 A3007 940 53 100 120/14G22 RMK AO2
94908KDBQ DBQ20060327121510203/27/06 12:15:31  5-MIN KDBQ 271815Z 13014G22KT 10SM FEW110 07/M03 A3007 940 51 200 130/14G22 RMK AO2
94908KDBQ DBQ20060327122010203/27/06 12:20:31  5-MIN KDBQ 271820Z 13013G22KT 10SM FEW110 07/M03 A3007 940 49 300 130/13G22 RMK AO2
94908KDBQ DBQ20060327122509603/27/06 12:25:31  5-MIN KDBQ 271825Z 13016KT 10SM FEW060 07/M03 A3007 940 49 300 120/16 RMK AO2
94908KDBQ DBQ20060327123010203/27/06 12:30:31  5-MIN KDBQ 271830Z 13014G22KT 10SM SCT060 07/M03 A3007 940 49 300 130/14G22 RMK AO2
94908KDBQ DBQ20060327123510203/27/06 12:35:31  5-MIN KDBQ 271835Z 15015G22KT 10SM SCT055 07/M03 A3007 940 49 300 140/15G22 RMK AO2
94908KDBQ DBQ20060327124010203/27/06 12:40:31  5-MIN KDBQ 271840Z 14013G20KT 10SM SCT055 07/M03 A3006 950 49 300 140/13G20 RMK AO2
94908KDBQ DBQ20060327124510203/27/06 12:45:31  5-MIN KDBQ 271845Z 14016G20KT 10SM BKN055 07/M03 A3006 950 51 200 140/16G20 RMK AO2
94908KDBQ DBQ20060327125011903/27/06 12:50:31  5-MIN KDBQ 271850Z 13013G19KT 10SM BKN055 07/M03 A3006 950 51 200 130/13G19 RMK AO2 SLP187 T00671028
94908KDBQ DBQ20060327125511903/27/06 12:55:31  5-MIN KDBQ 271855Z 14011G18KT 10SM BKN055 07/M03 A3006 950 51 200 140/11G18 RMK AO2 SLP187 T00671028
94908KDBQ DBQ20060327130010203/27/06 13:00:31  5-MIN KDBQ 271900Z 14016G19KT 10SM BKN050 07/M03 A3005 950 51 200 140/16G19 RMK AO2
94908KDBQ DBQ20060327130510903/27/06 13:05:31  5-MIN KDBQ 271905Z 14017G24KT 10SM FEW038 OVC050 07/M03 A3005 960 51 200 140/17G24 RMK AO2
94908KDBQ DBQ20060327131011603/27/06 13:10:31  5-MIN KDBQ 271910Z 15019G24KT 10SM FEW030 SCT038 OVC050 07/M02 A3005 960 53 200 150/19G24 RMK AO2
94908KDBQ DBQ20060327131513103/27/06 13:15:31  5-MIN KDBQ 271915Z 16019G25KT 7SM -RA SCT027 BKN032 OVC050 06/M01 A3005 960 65 100 150/19G25 RMK AO2 RAB11 P0000
94908KDBQ DBQ20060327132012103/27/06 13:20:31  5-MIN KDBQ 271920Z 16019G24KT 5SM -RA BKN022 OVC050 04/01 A3005 960 76 0 160/19G24 RMK AO2 RAB11 P0000
94908KDBQ DBQ20060327132512703/27/06 13:25:31  5-MIN KDBQ 271925Z 14014G22KT 4SM RA BKN018 BKN030 OVC050 04/01 A3005 960 76 0 140/14G22 RMK AO2 RAB11 P0001
94908KDBQ DBQ20060327133011603/27/06 13:30:31  5-MIN KDBQ 271930Z 14018G22KT 4SM RA OVC018 04/01 A3005 960 79 -100 140/18G22 RMK AO2 RAB11 P0002
94908KDBQ DBQ20060327133511703/27/06 13:35:31  5-MIN KDBQ 271935Z 13014G22KT 4SM -RA OVC016 04/01 A3004 960 79 -100 130/14G22 RMK AO2 RAB11 P0002
94908KDBQ DBQ20060327134012103/27/06 13:40:31  5-MIN KDBQ 271940Z 14013G18KT 6SM -RA BKN014 OVC025 04/01 A3004 970 76 0 140/13G18 RMK AO2 RAB11 P0003
94908KDBQ DBQ20060327134512103/27/06 13:45:31  5-MIN KDBQ 271945Z 14015G20KT 7SM -RA BKN016 OVC025 04/01 A3004 970 79 0 140/15G20 RMK AO2 RAB11 P0003
94908KDBQ DBQ20060327135013103/27/06 13:50:31  5-MIN KDBQ 271950Z 16018G21KT 8SM -RA OVC016 04/01 A3004 970 76 0 160/18G21 RMK AO2 RAB11 SLP181 P0003 T00440006
94908KDBQ DBQ20060327135513203/27/06 13:55:31  5-MIN KDBQ 271955Z 14014KT 6SM -RA BKN018 OVC022 04/01 A3003 970 82 0 140/14 RMK AO2 RAB11 SLP180 P0003 T00390011
94908KDBQ DBQ20060327140010203/27/06 14:00:31  5-MIN KDBQ 272000Z 15013KT 6SM -RA OVC018 04/01 A3003 970 79 0 150/13 RMK AO2 P0000
94908KDBQ DBQ20060327140510203/27/06 14:05:31  5-MIN KDBQ 272005Z 14014KT 6SM -RA OVC018 04/01 A3004 970 79 0 140/14 RMK AO2 P0000
94908KDBQ DBQ20060327141010203/27/06 14:10:31  5-MIN KDBQ 272010Z 13012KT 6SM -RA OVC018 04/02 A3003 980 82 0 130/12 RMK AO2 P0000
94908KDBQ DBQ20060327141510203/27/06 14:15:31  5-MIN KDBQ 272015Z 13012KT 5SM -RA OVC018 04/02 A3002 980 82 0 130/12 RMK AO2 P0001
94908KDBQ DBQ20060327142010803/27/06 14:20:31  5-MIN KDBQ 272020Z 13015G19KT 5SM -RA OVC018 04/01 A3002 980 82 0 130/15G19 RMK AO2 P0001
94908KDBQ DBQ20060327142510803/27/06 14:25:31  5-MIN KDBQ 272025Z 14011G19KT 5SM -RA OVC018 04/01 A3002 980 82 0 140/11G19 RMK AO2 P0001
94908KDBQ DBQ20060327143012503/27/06 14:30:31  5-MIN KDBQ 272030Z 13014G19KT 5SM -RA BR BKN016 BKN021 OVC034 04/02 A3002 990 85 0 130/14G19 RMK AO2 P0002
94908KDBQ DBQ20060327143512203/27/06 14:35:31  5-MIN KDBQ 272035Z 13016G19KT 5SM -RA BKN018 BKN023 OVC034 04/01 A3002 990 82 0 130/16G19 RMK AO2 P0002
94908KDBQ DBQ20060327144011203/27/06 14:40:31  5-MIN KDBQ 272040Z 12013KT 5SM -RA BR BKN018 OVC023 04/02 A3002 990 85 0 120/13 RMK AO2 P0002
94908KDBQ DBQ20060327144511203/27/06 14:45:31  5-MIN KDBQ 272045Z 13014KT 5SM -RA BR BKN018 OVC022 04/02 A3002 990 85 0 130/14 RMK AO2 P0002
94908KDBQ DBQ20060327145013403/27/06 14:50:31  5-MIN KDBQ 272050Z 14010KT 5SM -RA BR OVC016 04/02 A3001 990 85 0 140/10 RMK AO2 SLP173 P0003 60006 T00390017 58019
94908KDBQ DBQ20060327145514103/27/06 14:55:31  5-MIN KDBQ 272055Z 12012KT 4SM -RA BR BKN014 OVC019 04/02 A3001 990 85 0 120/12 RMK AO2 SLP173 P0003 60006 T00390017 56015
94908KDBQ DBQ20060327150012103/27/06 15:00:31  5-MIN KDBQ 272100Z 13016G19KT 4SM -RA BR BKN012 OVC017 03/02 A3001 990 89 -100 120/16G19 RMK AO2 P0000
94908KDBQ DBQ20060327150512803/27/06 15:05:31  5-MIN KDBQ 272105Z 13015G19KT 4SM -RA BR BKN012 BKN017 OVC033 03/01 A3001 990 85 -100 130/15G19 RMK AO2 P0001
94908KDBQ DBQ20060327151011603/27/06 15:10:31  5-MIN KDBQ 272110Z 12013KT 5SM -RA BR BKN014 OVC033 03/02 A3001 1000 89 -100 120/13 RMK AO2 P0001
94908KDBQ DBQ20060327151511603/27/06 15:15:31  5-MIN KDBQ 272115Z 11013KT 5SM -RA BR BKN014 OVC033 03/02 A3001 1000 89 -100 110/13 RMK AO2 P0001
94908KDBQ DBQ20060327152011603/27/06 15:20:31  5-MIN KDBQ 272120Z 12012KT 5SM -RA BR BKN014 OVC033 03/02 A3000 1000 89 -100 120/12 RMK AO2 P0001
94908KDBQ DBQ20060327152511603/27/06 15:25:31  5-MIN KDBQ 272125Z 11016KT 5SM -RA BR BKN012 OVC033 03/02 A3000 1000 89 -100 110/16 RMK AO2 P0001
94908KDBQ DBQ20060327153011503/27/06 15:30:31  5-MIN KDBQ 272130Z 11013G18KT 5SM -RA BR OVC012 03/02 A3000 1000 89 -100 110/13G18 RMK AO2 P0001
94908KDBQ DBQ20060327153512903/27/06 15:35:31  5-MIN KDBQ 272135Z 11015G21KT 5SM -RA BR BKN012 BKN019 OVC031 03/02 A3000 1000 89 -100 110/15G21 RMK AO2 P0001
94908KDBQ DBQ20060327154012903/27/06 15:40:31  5-MIN KDBQ 272140Z 11013G21KT 5SM -RA BR BKN012 BKN018 OVC031 03/02 A3000 1000 89 -100 110/13G21 RMK AO2 P0001
94908KDBQ DBQ20060327154512203/27/06 15:45:31  5-MIN KDBQ 272145Z 12013G20KT 5SM -RA BR BKN012 OVC031 03/02 A3000 1000 89 -100 120/13G20 RMK AO2 P0001
94908KDBQ DBQ20060327155013303/27/06 15:50:31  5-MIN KDBQ 272150Z 12014KT 5SM -RA BR BKN012 OVC031 03/02 A3000 1000 89 -100 110/14 RMK AO2 SLP171 P0001 T00330017
94908KDBQ DBQ20060327155513303/27/06 15:55:31  5-MIN KDBQ 272155Z 11012KT 5SM -RA BR BKN012 OVC031 03/02 A3000 1000 89 -100 110/12 RMK AO2 SLP171 P0001 T00330017
94908KDBQ DBQ20060327160012903/27/06 16:00:31  5-MIN KDBQ 272200Z 11012G18KT 5SM -RA BR BKN014 BKN020 OVC031 03/02 A3000 1000 89 -100 110/12G18 RMK AO2 P0000
94908KDBQ DBQ20060327160512903/27/06 16:05:31  5-MIN KDBQ 272205Z 11014G20KT 4SM -RA BR BKN014 BKN020 OVC031 03/02 A3000 1010 89 -100 110/14G20 RMK AO2 P0000
94908KDBQ DBQ20060327161012203/27/06 16:10:31  5-MIN KDBQ 272210Z 11015G20KT 4SM -RA BR BKN014 OVC020 03/02 A3000 1010 89 -100 110/15G20 RMK AO2 P0000
94908KDBQ DBQ20060327161511503/27/06 16:15:31  5-MIN KDBQ 272215Z 11014G20KT 4SM -RA BR OVC014 03/02 A3000 1010 89 -100 110/14G20 RMK AO2 P0000
94908KDBQ DBQ20060327162011503/27/06 16:20:31  5-MIN KDBQ 272220Z 12014G20KT 4SM -RA BR OVC014 03/02 A3000 1010 89 -100 120/14G20 RMK AO2 P0000
94908KDBQ DBQ20060327162511603/27/06 16:25:31  5-MIN KDBQ 272225Z 12013KT 4SM -RA BR BKN014 OVC020 03/02 A3000 1000 89 -100 110/13 RMK AO2 P0001
94908KDBQ DBQ20060327163011603/27/06 16:30:31  5-MIN KDBQ 272230Z 12013KT 4SM -RA BR BKN012 OVC017 03/02 A3000 1010 89 -100 120/13 RMK AO2 P0001
94908KDBQ DBQ20060327163511603/27/06 16:35:31  5-MIN KDBQ 272235Z 12015KT 4SM -RA BR BKN012 OVC018 03/02 A3000 1000 89 -100 120/15 RMK AO2 P0001
94908KDBQ DBQ20060327164011603/27/06 16:40:31  5-MIN KDBQ 272240Z 11013KT 4SM -RA BR BKN012 OVC029 03/02 A3000 1010 89 -100 110/13 RMK AO2 P0001
94908KDBQ DBQ20060327164512303/27/06 16:45:31  5-MIN KDBQ 272245Z 10013KT 3SM -RA BR BKN012 BKN019 OVC029 03/02 A3000 1010 89 -100 100/13 RMK AO2 P0001
94908KDBQ DBQ20060327165014003/27/06 16:50:31  5-MIN KDBQ 272250Z 11013KT 3SM -RA BR BKN012 BKN019 OVC029 03/02 A3000 1010 89 -100 110/13 RMK AO2 SLP168 P0001 T00330017
94908KDBQ DBQ20060327165514603/27/06 16:55:31  5-MIN KDBQ 272255Z 10013G19KT 4SM -RA BR BKN012 BKN019 OVC027 03/02 A2999 1010 89 -100 100/13G19 RMK AO2 SLP167 P0001 T00330017
94908KDBQ DBQ20060327170013303/27/06 17:00:31  5-MIN KDBQ 272300Z 11014G19KT 4SM BR BKN012 BKN017 OVC027 03/02 A2999 1010 89 -100 110/14G19 RMK AO2 RAE2259 P0000
94908KDBQ DBQ20060327170512703/27/06 17:05:31  5-MIN KDBQ 272305Z 11013KT 3SM BR BKN012 BKN017 OVC027 03/02 A2999 1010 89 -100 100/13 RMK AO2 RAE2259 P0000
94908KDBQ DBQ20060327171012003/27/06 17:10:31  5-MIN KDBQ 272310Z 11012KT 3SM BR BKN012 OVC017 03/02 A2999 1010 89 -100 110/12 RMK AO2 RAE2259 P0000
94908KDBQ DBQ20060327171511303/27/06 17:15:31  5-MIN KDBQ 272315Z 10011KT 3SM BR OVC012 03/02 A2999 1010 89 -100 100/11 RMK AO2 RAE2259 P0000
94908KDBQ DBQ20060327172011303/27/06 17:20:31  5-MIN KDBQ 272320Z 10013KT 3SM BR OVC012 03/02 A2999 1010 89 -100 100/13 RMK AO2 RAE2259 P0000
94908KDBQ DBQ20060327172513603/27/06 17:25:31  5-MIN KDBQ 272325Z 11012KT 2 1/2SM BR BKN010 OVC015 03/02 A2999 1010 89 -100 100/12 RMK AO2 RAE2259 CIG 007V012 P0000
94908KDBQ DBQ20060327173012003/27/06 17:30:31  5-MIN KDBQ 272330Z 10014KT 2SM -RA BR OVC012 03/02 A2999 1010 89 -100 100/14 RMK AO2 RAE2259B27 P0000
94908KDBQ DBQ20060327173512003/27/06 17:35:31  5-MIN KDBQ 272335Z 10010KT 2SM -RA BR OVC012 03/02 A2999 1010 89 -100 100/10 RMK AO2 RAE2259B27 P0000
94908KDBQ DBQ20060327174014303/27/06 17:40:31  5-MIN KDBQ 272340Z 10011KT 1 3/4SM -RA BR BKN010 OVC014 03/02 A2999 1010 89 -100 100/11 RMK AO2 RAE2259B27 CIG 007V013 P0000
94908KDBQ DBQ20060327174513103/27/06 17:45:31  5-MIN KDBQ 272345Z 10014KT 2SM BR OVC010 03/02 A2999 1010 89 -100 100/14 RMK AO2 RAE2259B27E42 CIG 006V013 P0000
94908KDBQ DBQ20060327175013603/27/06 17:50:31  5-MIN KDBQ 272350Z 11011KT 1 3/4SM -RA BR OVC010 03/02 A3000 1010 89 -100 100/11 RMK AO2 RAE2259B27 CIG 006V015 P0000
94908KDBQ DBQ20060327175517703/27/06 17:55:31  5-MIN KDBQ 272355Z 11012KT 1 3/4SM -RA BR OVC010 03/02 A3000 1000 89 -100 110/12 RMK AO2 RAE2259B27 CIG 006V015 SLP169 P0000 60008 T00330017 10072 20033 55001
94908KDBQ DBQ20060327180013103/27/06 18:00:31  5-MIN KDBQ 280000Z 11015G19KT 1 3/4SM -RA BR OVC010 03/02 A3000 1000 89 -100 110/15G19 RMK AO2 CIG 006V012 P0000
94908KDBQ DBQ20060327180513103/27/06 18:05:31  5-MIN KDBQ 280005Z 12014G19KT 1 3/4SM -RA BR OVC010 03/02 A3001 1000 89 -100 110/14G19 RMK AO2 CIG 006V012 P0001
94908KDBQ DBQ20060327181012503/27/06 18:10:31  5-MIN KDBQ 280010Z 11011KT 1 3/4SM -RA BR OVC008 03/02 A3001 1000 92 -100 110/11 RMK AO2 CIG 005V014 P0002
94908KDBQ DBQ20060327181512803/27/06 18:15:31  5-MIN KDBQ 280015Z 10011KT 2SM -RA BR BKN008 OVC012 03/02 A3001 1000 92 -100 100/11 RMK AO2 CIG 005V010 P0002
94908KDBQ DBQ20060327182012403/27/06 18:20:31  5-MIN KDBQ 280020Z 11012KT 2 1/2SM RA BR OVC008 03/02 A3001 1000 89 -100 110/12 RMK AO2 CIG 005V012 P0003
94908KDBQ DBQ20060327182513103/27/06 18:25:31  5-MIN KDBQ 280025Z 11013KT 2 1/2SM RA BR BKN008 OVC012 03/02 A3001 1000 89 -100 110/13 RMK AO2 CIG 005V010 P0004
94908KDBQ DBQ20060327183011903/27/06 18:30:31  5-MIN KDBQ 280030Z 11013KT 2 1/2SM RA BR BKN008 OVC012 03/02 A3001 1000 92 -200 110/13 RMK AO2 P0005
94908KDBQ DBQ20060327183511903/27/06 18:35:31  5-MIN KDBQ 280035Z 11014KT 2 1/2SM RA BR BKN008 OVC012 03/02 A3001 1000 92 -200 110/14 RMK AO2 P0006
94908KDBQ DBQ20060327184011903/27/06 18:40:31  5-MIN KDBQ 280040Z 11015KT 2 1/2SM RA BR BKN008 OVC012 03/02 A3001 1000 92 -200 110/15 RMK AO2 P0007
94908KDBQ DBQ20060327184512503/27/06 18:45:31  5-MIN KDBQ 280045Z 11014G19KT 2 1/2SM RA BR BKN008 OVC012 03/02 A3001 1000 92 -200 110/14G19 RMK AO2 P0009
94908KDBQ DBQ20060327185011403/27/06 18:50:31  5-MIN KDBQ 280050Z 11011G19KT 3SM RA BR OVC010 03/02 A3001 1000 92 -200 100/11G19 RMK AO2 P0010
94908KDBQ DBQ20060327185513303/27/06 18:55:31  5-MIN KDBQ 280055Z 10012KT 4SM -RA BR BKN008 OVC013 03/02 A3001 1000 92 -200 100/12 RMK AO2 SLP171 P0011 T00280017
94908KDBQ DBQ20060327190010903/27/06 19:00:31  5-MIN KDBQ 280100Z 10012KT 4SM -RA BR OVC008 03/02 A3001 1000 92 -200 100/12 RMK AO2 P0000
94908KDBQ DBQ20060327190510903/27/06 19:05:31  5-MIN KDBQ 280105Z 10011KT 4SM -RA BR OVC008 03/02 A3001 1000 92 -200 100/11 RMK AO2 P0000
94908KDBQ DBQ20060327191010903/27/06 19:10:31  5-MIN KDBQ 280110Z 11013KT 4SM -RA BR OVC008 03/02 A3001 1000 92 -200 110/13 RMK AO2 P0001
94908KDBQ DBQ20060327191510903/27/06 19:15:31  5-MIN KDBQ 280115Z 11014KT 5SM -RA BR OVC008 03/01 A3001 1000 89 -200 110/14 RMK AO2 P0001
94908KDBQ DBQ20060327192010903/27/06 19:20:31  5-MIN KDBQ 280120Z 10013KT 5SM -RA BR OVC008 03/01 A3001 1000 89 -200 100/13 RMK AO2 P0002
94908KDBQ DBQ20060327192510903/27/06 19:25:31  5-MIN KDBQ 280125Z 10013KT 5SM -RA BR OVC008 03/01 A3001 1000 89 -200 100/13 RMK AO2 P0002
94908KDBQ DBQ20060327193010903/27/06 19:30:31  5-MIN KDBQ 280130Z 10010KT 5SM -RA BR OVC008 03/02 A3001 1000 92 -200 100/10 RMK AO2 P0003
94908KDBQ DBQ20060327193511903/27/06 19:35:31  5-MIN KDBQ 280135Z AUTO 10014KT 5SM -RA BR OVC008 03/01 A3001 1000 89 -200 100/14 RMK AO2 P0003 TSNO
94908KDBQ DBQ20060327194011903/27/06 19:40:31  5-MIN KDBQ 280140Z AUTO 10010KT 5SM -RA BR OVC010 03/01 A3001 1000 89 -200 100/10 RMK AO2 P0003 TSNO
94908KDBQ DBQ20060327194512603/27/06 19:45:31  5-MIN KDBQ 280145Z AUTO 10011KT 4SM -RA BR BKN008 OVC015 03/01 A3001 1000 89 -200 100/11 RMK AO2 P0004 TSNO
94908KDBQ DBQ20060327195014303/27/06 19:50:31  5-MIN KDBQ 280150Z AUTO 09011KT 4SM -RA BR BKN008 OVC015 03/01 A3001 1000 89 -200 090/11 RMK AO2 SLP171 P0004 T00280011 TSNO
94908KDBQ DBQ20060327195514803/27/06 19:55:31  5-MIN KDBQ 280155Z AUTO 10010KT 4SM -RA BR OVC008 03/01 A3001 1000 89 -200 090/10 RMK AO2 CIG 006V012 SLP170 P0004 T00280011 TSNO
94908KDBQ DBQ20060327200013803/27/06 20:00:31  5-MIN KDBQ 280200Z AUTO 09013KT 4SM -RA BR BKN008 OVC015 03/01 A3001 1000 89 -200 090/13 RMK AO2 CIG 006V012 P0001 TSNO
94908KDBQ DBQ20060327200513803/27/06 20:05:31  5-MIN KDBQ 280205Z AUTO 10013KT 5SM -RA BR BKN008 OVC014 02/01 A3001 1000 92 -200 090/13 RMK AO2 CIG 006V010 P0001 TSNO
94908KDBQ DBQ20060327201013703/27/06 20:10:31  5-MIN KDBQ 280210Z AUTO 09010KT 4SM -RA BR BKN008 OVC014 02/01 A3001 990 92 -200 090/10 RMK AO2 CIG 006V010 P0001 TSNO
94908KDBQ DBQ20060327201514303/27/06 20:15:31  5-MIN KDBQ 280215Z AUTO 09012G17KT 5SM -RA BR BKN008 OVC014 02/01 A3001 990 92 -200 090/12G17 RMK AO2 CIG 006V010 P0001 TSNO
94908KDBQ DBQ20060327202014303/27/06 20:20:31  5-MIN KDBQ 280220Z AUTO 08010G17KT 5SM -RA BR BKN008 OVC014 02/01 A3001 990 92 -200 080/10G17 RMK AO2 CIG 006V010 P0002 TSNO
94908KDBQ DBQ20060327202513703/27/06 20:25:31  5-MIN KDBQ 280225Z AUTO 08011KT 5SM -RA BR BKN008 OVC014 02/01 A3001 990 92 -200 080/11 RMK AO2 CIG 006V010 P0002 TSNO
94908KDBQ DBQ20060327203013703/27/06 20:30:31  5-MIN KDBQ 280230Z AUTO 08010KT 5SM -RA BR BKN008 OVC014 02/01 A3001 990 92 -200 080/10 RMK AO2 CIG 005V011 P0002 TSNO
94908KDBQ DBQ20060327203513703/27/06 20:35:31  5-MIN KDBQ 280235Z AUTO 08011KT 5SM -RA BR BKN008 OVC014 02/01 A3001 990 92 -200 080/11 RMK AO2 CIG 005V011 P0002 TSNO
94908KDBQ DBQ20060327204013003/27/06 20:40:31  5-MIN KDBQ 280240Z AUTO 07010KT 5SM -RA BR OVC008 02/01 A3001 990 92 -200 070/10 RMK AO2 CIG 005V011 P0003 TSNO
94908KDBQ DBQ20060327204513003/27/06 20:45:31  5-MIN KDBQ 280245Z AUTO 07010KT 5SM -RA BR OVC008 02/01 A3001 990 92 -200 070/10 RMK AO2 CIG 005V011 P0003 TSNO
94908KDBQ DBQ20060327205015903/27/06 20:50:31  5-MIN KDBQ 280250Z AUTO 07010KT 5SM -RA BR OVC008 02/01 A3001 990 92 -200 070/10 RMK AO2 CIG 005V011 SLP171 P0003 60018 T00220011 55001 TSNO
94908KDBQ DBQ20060327205516003/27/06 20:55:31  5-MIN KDBQ 280255Z AUTO 07010KT 5SM -RA BR OVC006 02/01 A3001 1000 92 -200 070/10 RMK AO2 CIG 005V010 SLP171 P0004 60019 T00220011 51003 TSNO
94908KDBQ DBQ20060327210013103/27/06 21:00:31  5-MIN KDBQ 280300Z AUTO 07011KT 5SM -RA BR OVC006 02/01 A3001 1000 92 -200 070/11 RMK AO2 CIG 005V009 P0000 TSNO
94908KDBQ DBQ20060327210511803/27/06 21:05:31  5-MIN KDBQ 280305Z AUTO 07011KT 6SM -RA BR OVC006 02/01 A3001 990 92 -200 070/11 RMK AO2 P0000 TSNO
94908KDBQ DBQ20060327211012003/27/06 21:10:31  5-MIN KDBQ 280310Z AUTO 07009KT 6SM BR OVC006 02/01 A3001 990 92 -200 070/09 RMK AO2 RAE08 P0000 TSNO
94908KDBQ DBQ20060327211512003/27/06 21:15:31  5-MIN KDBQ 280315Z AUTO 07010KT 6SM BR OVC006 02/01 A3001 990 92 -200 070/10 RMK AO2 RAE08 P0000 TSNO
94908KDBQ DBQ20060327212012003/27/06 21:20:31  5-MIN KDBQ 280320Z AUTO 07010KT 6SM BR OVC006 02/01 A3001 990 92 -200 070/10 RMK AO2 RAE08 P0000 TSNO
94908KDBQ DBQ20060327212512003/27/06 21:25:31  5-MIN KDBQ 280325Z AUTO 07010KT 6SM BR OVC006 02/01 A3001 990 92 -200 060/10 RMK AO2 RAE08 P0000 TSNO
94908KDBQ DBQ20060327213013203/27/06 21:30:31  5-MIN KDBQ 280330Z AUTO 07011KT 6SM BR OVC006 02/01 A3001 990 92 -200 070/11 RMK AO2 RAE08 CIG 005V009 P0000 TSNO
94908KDBQ DBQ20060327213512003/27/06 21:35:31  5-MIN KDBQ 280335Z AUTO 07011KT 6SM BR OVC006 02/01 A3001 990 92 -200 070/11 RMK AO2 RAE08 P0000 TSNO
94908KDBQ DBQ20060327214013303/27/06 21:40:31  5-MIN KDBQ 280340Z AUTO 08012KT 6SM BR OVC006 02/01 A3001 1000 92 -200 080/12 RMK AO2 RAE08 CIG 005V009 P0000 TSNO
94908KDBQ DBQ20060327214513303/27/06 21:45:31  5-MIN KDBQ 280345Z AUTO 08011KT 6SM BR OVC006 02/01 A3001 1000 92 -200 070/11 RMK AO2 RAE08 CIG 005V010 P0000 TSNO
94908KDBQ DBQ20060327215015003/27/06 21:50:31  5-MIN KDBQ 280350Z AUTO 07011KT 6SM BR OVC006 02/01 A3001 1000 92 -200 070/11 RMK AO2 RAE08 CIG 005V010 SLP171 P0000 T00220011 TSNO
94908KDBQ DBQ20060327215515003/27/06 21:55:31  5-MIN KDBQ 280355Z AUTO 07009KT 6SM BR OVC006 02/01 A3001 1000 92 -200 070/09 RMK AO2 RAE08 CIG 005V010 SLP171 P0000 T00220011 TSNO
94908KDBQ DBQ20060327220012103/27/06 22:00:31  5-MIN KDBQ 280400Z AUTO 07010KT 6SM BR OVC006 02/01 A3001 1000 92 -200 070/10 RMK AO2 CIG 005V010 TSNO
94908KDBQ DBQ20060327220512103/27/06 22:05:31  5-MIN KDBQ 280405Z AUTO 07009KT 6SM BR OVC006 03/01 A3001 1000 89 -200 070/09 RMK AO2 CIG 005V010 TSNO
94908KDBQ DBQ20060327221012103/27/06 22:10:31  5-MIN KDBQ 280410Z AUTO 06009KT 6SM BR OVC006 03/01 A3001 1000 89 -200 060/09 RMK AO2 CIG 006V010 TSNO
94908KDBQ DBQ20060327221512103/27/06 22:15:31  5-MIN KDBQ 280415Z AUTO 06011KT 6SM BR OVC006 03/02 A3001 1000 92 -200 060/11 RMK AO2 CIG 006V010 TSNO
94908KDBQ DBQ20060327222012103/27/06 22:20:31  5-MIN KDBQ 280420Z AUTO 05008KT 6SM BR OVC006 03/01 A3001 1000 89 -200 050/08 RMK AO2 CIG 005V010 TSNO
94908KDBQ DBQ20060327222512103/27/06 22:25:31  5-MIN KDBQ 280425Z AUTO 06011KT 6SM BR OVC006 02/02 A3001 1000 96 -200 060/11 RMK AO2 CIG 005V011 TSNO
94908KDBQ DBQ20060327223012103/27/06 22:30:31  5-MIN KDBQ 280430Z AUTO 06010KT 5SM BR OVC006 03/02 A3001 1000 92 -200 060/10 RMK AO2 CIG 004V011 TSNO
94908KDBQ DBQ20060327223512103/27/06 22:35:31  5-MIN KDBQ 280435Z AUTO 06010KT 5SM BR OVC006 03/01 A3001 1000 89 -200 060/10 RMK AO2 CIG 004V011 TSNO
94908KDBQ DBQ20060327224012103/27/06 22:40:31  5-MIN KDBQ 280440Z AUTO 06010KT 5SM BR OVC006 03/02 A3001 1000 92 -200 060/10 RMK AO2 CIG 004V011 TSNO
94908KDBQ DBQ20060327224511603/27/06 22:45:31  5-MIN KDBQ 280445Z AUTO 06012KT 4SM BR BKN006 OVC009 03/02 A3001 1000 92 -200 060/12 RMK AO2 TSNO
94908KDBQ DBQ20060327225013803/27/06 22:50:31  5-MIN KDBQ 280450Z AUTO 06010KT 4SM BR OVC006 03/01 A3001 1000 89 -200 060/10 RMK AO2 CIG 004V008 SLP170 T00280011 TSNO
94908KDBQ DBQ20060327225513803/27/06 22:55:31  5-MIN KDBQ 280455Z AUTO 06011KT 4SM BR OVC006 03/02 A3001 1000 92 -200 060/11 RMK AO2 CIG 004V010 SLP169 T00280017 TSNO
94908KDBQ DBQ20060327230012103/27/06 23:00:31  5-MIN KDBQ 280500Z AUTO 07011KT 4SM BR OVC006 03/01 A3001 1000 89 -200 070/11 RMK AO2 CIG 004V009 TSNO
94908KDBQ DBQ20060327230510903/27/06 23:05:31  5-MIN KDBQ 280505Z AUTO 05009KT 4SM BR OVC006 03/02 A3001 1000 92 -200 050/09 RMK AO2 TSNO
94908KDBQ DBQ20060327231013603/27/06 23:10:31  5-MIN KDBQ 280510Z AUTO 05008KT 3SM UP BR OVC006 03/02 A3001 1000 92 -200 050/08 RMK AO2 UPB08 CIG 004V009 P0000 TSNO
94908KDBQ DBQ20060327231514503/27/06 23:15:31  5-MIN KDBQ 280515Z AUTO 05008KT 3SM -RA BR OVC006 03/02 A3001 1000 92 -200 050/08 RMK AO2 UPB08E15RAB15 CIG 004V009 P0000 TSNO
94908KDBQ DBQ20060327232014503/27/06 23:20:31  5-MIN KDBQ 280520Z AUTO 05008KT 3SM -RA BR OVC006 02/02 A3001 1000 96 -200 040/08 RMK AO2 UPB08E15RAB15 CIG 003V009 P0000 TSNO
94908KDBQ DBQ20060327232514503/27/06 23:25:31  5-MIN KDBQ 280525Z AUTO 05009KT 3SM -RA BR OVC004 02/02 A3001 1000 96 -200 040/09 RMK AO2 UPB08E15RAB15 CIG 003V009 P0001 TSNO
94908KDBQ DBQ20060327233014403/27/06 23:30:31  5-MIN KDBQ 280530Z AUTO 04008KT 3SM UP BR OVC004 02/02 A3001 1000 96 -200 040/08 RMK AO2 UPB08RAB15E26 CIG 003V009 P0001 TSNO
94908KDBQ DBQ20060327233514803/27/06 23:35:31  5-MIN KDBQ 280535Z AUTO 06009KT 2 1/2SM UP BR OVC004 02/02 A3001 1000 96 -200 060/09 RMK AO2 UPB08RAB15E26 CIG 003V007 P0001 TSNO
94908KDBQ DBQ20060327234014803/27/06 23:40:31  5-MIN KDBQ 280540Z AUTO 06008KT 2 1/2SM UP BR OVC004 02/02 A3001 1000 96 -200 060/08 RMK AO2 UPB08RAB15E26 CIG 003V007 P0001 TSNO
94908KDBQ DBQ20060327234514803/27/06 23:45:31  5-MIN KDBQ 280545Z AUTO 06010KT 2 1/2SM UP BR OVC004 02/02 A3001 1000 96 -200 060/10 RMK AO2 UPB08RAB15E26 CIG 003V008 P0001 TSNO
94908KDBQ DBQ20060327235019903/27/06 23:50:31  5-MIN KDBQ 280550Z AUTO 05008KT 2 1/2SM UP BR OVC004 02/02 A3001 1000 96 -200 050/08 RMK AO2 UPB08RAB15E26 CIG 003V008 SLP170 P0001 60020 T00220017 10033 20022 400720000 51003 TSNO
94908KDBQ DBQ20060327235519903/27/06 23:55:31  5-MIN KDBQ 280555Z AUTO 05009KT 2 1/2SM UP BR OVC004 02/02 A3001 1000 96 -200 050/09 RMK AO2 UPB08RAB15E26 CIG 003V008 SLP170 P0001 60020 T00220017 10033 20022 400720000 55001 TSNO
94908KDBQ DBQ20060328000013503/28/06 00:00:38  5-MIN KDBQ 280600Z AUTO 04008KT 3SM BR OVC004 02/02 A3001 1000 96 -200 040/08 RMK AO2 UPE0559 CIG 003V009 P0000 TSNO
94908KDBQ DBQ20060328000513903/28/06 00:05:31  5-MIN KDBQ 280605Z AUTO 04008KT 2 1/2SM BR OVC004 02/02 A3001 1000 96 -200 040/08 RMK AO2 UPE0559 CIG 003V009 P0000 TSNO
94908KDBQ DBQ20060328001013903/28/06 00:10:31  5-MIN KDBQ 280610Z AUTO 05008KT 2 1/2SM BR OVC004 02/02 A3001 1000 96 -200 050/08 RMK AO2 UPE0559 CIG 002V006 P0000 TSNO
94908KDBQ DBQ20060328001513903/28/06 00:15:33  5-MIN KDBQ 280615Z AUTO 05009KT 2 1/2SM BR OVC004 02/02 A3001 1000 96 -200 040/09 RMK AO2 UPE0559 CIG 002V009 P0000 TSNO
94908KDBQ DBQ20060328002013503/28/06 00:20:31  5-MIN KDBQ 280620Z AUTO 05011KT 3SM BR OVC004 02/02 A3001 1000 96 -200 040/11 RMK AO2 UPE0559 CIG 002V007 P0000 TSNO
94908KDBQ DBQ20060328002513503/28/06 00:25:31  5-MIN KDBQ 280625Z AUTO 04008KT 3SM BR OVC004 02/02 A3001 1000 96 -200 040/08 RMK AO2 UPE0559 CIG 002V007 P0000 TSNO
94908KDBQ DBQ20060328003012303/28/06 00:30:31  5-MIN KDBQ 280630Z AUTO 05010KT 3SM BR OVC004 02/02 A3001 1000 96 -200 040/10 RMK AO2 UPE0559 P0000 TSNO
94908KDBQ DBQ20060328003512303/28/06 00:35:31  5-MIN KDBQ 280635Z AUTO 05011KT 3SM BR OVC004 02/02 A3001 1000 96 -200 050/11 RMK AO2 UPE0559 P0000 TSNO
94908KDBQ DBQ20060328004012303/28/06 00:40:31  5-MIN KDBQ 280640Z AUTO 05010KT 3SM BR OVC004 02/02 A3001 1000 96 -200 050/10 RMK AO2 UPE0559 P0000 TSNO
94908KDBQ DBQ20060328004512303/28/06 00:45:31  5-MIN KDBQ 280645Z AUTO 05010KT 3SM BR OVC004 02/02 A3001 1000 96 -200 050/10 RMK AO2 UPE0559 P0000 TSNO
94908KDBQ DBQ20060328005014503/28/06 00:50:31  5-MIN KDBQ 280650Z AUTO 05010KT 3SM UP BR OVC004 02/02 A3001 990 96 -200 050/10 RMK AO2 UPE0559B49 SLP171 P0000 T00220017 TSNO
94908KDBQ DBQ20060328005514503/28/06 00:55:31  5-MIN KDBQ 280655Z AUTO 05010KT 3SM UP BR OVC004 02/02 A3001 990 96 -200 050/10 RMK AO2 UPE0559B49 SLP172 P0000 T00220017 TSNO
94908KDBQ DBQ20060328010011703/28/06 01:00:31  5-MIN KDBQ 280700Z AUTO 04009KT 3SM UP BR OVC004 03/02 A3001 990 92 -200 040/09 RMK AO2 P0000 TSNO
94908KDBQ DBQ20060328010512003/28/06 01:05:31  5-MIN KDBQ 280705Z AUTO 05009KT 3SM BR OVC004 03/02 A3001 990 92 -200 050/09 RMK AO2 UPE02 P0000 TSNO
94908KDBQ DBQ20060328011012003/28/06 01:10:31  5-MIN KDBQ 280710Z AUTO 04008KT 3SM BR OVC004 03/02 A3002 990 92 -200 040/08 RMK AO2 UPE02 P0000 TSNO
94908KDBQ DBQ20060328011512003/28/06 01:15:31  5-MIN KDBQ 280715Z AUTO 04008KT 3SM BR OVC004 03/02 A3002 990 92 -200 040/08 RMK AO2 UPE02 P0000 TSNO
94908KDBQ DBQ20060328012012003/28/06 01:20:31  5-MIN KDBQ 280720Z AUTO 05009KT 3SM BR OVC004 03/02 A3002 990 92 -200 050/09 RMK AO2 UPE02 P0000 TSNO
94908KDBQ DBQ20060328012512003/28/06 01:25:31  5-MIN KDBQ 280725Z AUTO 04008KT 3SM BR OVC004 03/02 A3002 990 92 -200 040/08 RMK AO2 UPE02 P0000 TSNO
94908KDBQ DBQ20060328013012003/28/06 01:30:31  5-MIN KDBQ 280730Z AUTO 04010KT 3SM BR OVC004 03/02 A3002 990 92 -200 040/10 RMK AO2 UPE02 P0000 TSNO
94908KDBQ DBQ20060328013512003/28/06 01:35:31  5-MIN KDBQ 280735Z AUTO 04007KT 3SM BR OVC004 03/02 A3002 990 92 -200 030/07 RMK AO2 UPE02 P0000 TSNO
94908KDBQ DBQ20060328014012403/28/06 01:40:31  5-MIN KDBQ 280740Z AUTO 04007KT 2 1/2SM BR OVC004 03/02 A3002 990 92 -200 040/07 RMK AO2 UPE02 P0000 TSNO
94908KDBQ DBQ20060328014512403/28/06 01:45:31  5-MIN KDBQ 280745Z AUTO 04007KT 2 1/2SM BR OVC004 03/02 A3002 990 92 -200 040/07 RMK AO2 UPE02 P0000 TSNO
94908KDBQ DBQ20060328015014103/28/06 01:50:31  5-MIN KDBQ 280750Z AUTO 04008KT 2 1/2SM BR OVC004 03/02 A3002 990 92 -200 030/08 RMK AO2 UPE02 SLP174 P0000 T00280017 TSNO
94908KDBQ DBQ20060328015514103/28/06 01:55:31  5-MIN KDBQ 280755Z AUTO 04007KT 2 1/2SM BR OVC004 03/02 A3002 990 92 -200 040/07 RMK AO2 UPE02 SLP175 P0000 T00280017 TSNO
94908KDBQ DBQ20060328020011203/28/06 02:00:31  5-MIN KDBQ 280800Z AUTO 04007KT 2 1/2SM BR OVC004 03/02 A3002 980 92 -200 040/07 RMK AO2 TSNO
94908KDBQ DBQ20060328020511203/28/06 02:05:31  5-MIN KDBQ 280805Z AUTO 04007KT 2 1/2SM BR OVC004 03/02 A3002 980 92 -200 040/07 RMK AO2 TSNO
94908KDBQ DBQ20060328021011203/28/06 02:10:31  5-MIN KDBQ 280810Z AUTO 04008KT 2 1/2SM BR OVC004 03/02 A3002 980 92 -200 040/08 RMK AO2 TSNO
94908KDBQ DBQ20060328021511203/28/06 02:15:31  5-MIN KDBQ 280815Z AUTO 03007KT 2 1/2SM BR OVC004 03/02 A3003 980 92 -200 030/07 RMK AO2 TSNO
94908KDBQ DBQ20060328022011203/28/06 02:20:31  5-MIN KDBQ 280820Z AUTO 04007KT 2 1/2SM BR OVC004 03/02 A3003 980 92 -200 040/07 RMK AO2 TSNO
94908KDBQ DBQ20060328022510803/28/06 02:25:31  5-MIN KDBQ 280825Z AUTO 03007KT 2SM BR OVC004 03/02 A3003 980 92 -200 030/07 RMK AO2 TSNO
94908KDBQ DBQ20060328023010803/28/06 02:30:31  5-MIN KDBQ 280830Z AUTO 03007KT 2SM BR OVC004 03/02 A3003 980 92 -200 030/07 RMK AO2 TSNO
94908KDBQ DBQ20060328023510803/28/06 02:35:31  5-MIN KDBQ 280835Z AUTO 03007KT 2SM BR OVC004 03/02 A3003 980 92 -200 030/07 RMK AO2 TSNO
94908KDBQ DBQ20060328024011203/28/06 02:40:31  5-MIN KDBQ 280840Z AUTO 02007KT 2 1/2SM BR OVC004 03/02 A3003 970 92 -200 020/07 RMK AO2 TSNO
94908KDBQ DBQ20060328024511203/28/06 02:45:31  5-MIN KDBQ 280845Z AUTO 03007KT 2 1/2SM BR OVC004 03/02 A3003 970 92 -200 030/07 RMK AO2 TSNO
94908KDBQ DBQ20060328025014103/28/06 02:50:31  5-MIN KDBQ 280850Z AUTO 03007KT 2 1/2SM BR OVC004 03/02 A3004 970 92 -200 030/07 RMK AO2 SLP180 60000 T00280017 55001 TSNO
94908KDBQ DBQ20060328025514103/28/06 02:55:31  5-MIN KDBQ 280855Z AUTO 03007KT 2 1/2SM BR OVC004 03/02 A3004 970 92 -200 030/07 RMK AO2 SLP180 60000 T00280017 53009 TSNO
94908KDBQ DBQ20060328030011203/28/06 03:00:31  5-MIN KDBQ 280900Z AUTO 03007KT 2 1/2SM BR OVC004 03/02 A3004 970 92 -200 030/07 RMK AO2 TSNO
94908KDBQ DBQ20060328030511203/28/06 03:05:31  5-MIN KDBQ 280905Z AUTO 03007KT 2 1/2SM BR OVC004 03/02 A3004 970 92 -200 030/07 RMK AO2 TSNO
94908KDBQ DBQ20060328031011203/28/06 03:10:31  5-MIN KDBQ 280910Z AUTO 03009KT 2 1/2SM BR OVC004 03/02 A3004 970 92 -200 030/09 RMK AO2 TSNO
94908KDBQ DBQ20060328031511203/28/06 03:15:31  5-MIN KDBQ 280915Z AUTO 03007KT 2 1/2SM BR OVC004 03/02 A3004 970 92 -200 030/07 RMK AO2 TSNO
94908KDBQ DBQ20060328032011203/28/06 03:20:31  5-MIN KDBQ 280920Z AUTO 03008KT 2 1/2SM BR OVC004 03/02 A3004 960 92 -200 030/08 RMK AO2 TSNO
94908KDBQ DBQ20060328032511203/28/06 03:25:31  5-MIN KDBQ 280925Z AUTO 03009KT 2 1/2SM BR OVC004 03/02 A3005 960 92 -200 030/09 RMK AO2 TSNO
94908KDBQ DBQ20060328033011203/28/06 03:30:31  5-MIN KDBQ 280930Z AUTO 03009KT 2 1/2SM BR OVC004 03/02 A3005 960 92 -200 020/09 RMK AO2 TSNO
94908KDBQ DBQ20060328033511203/28/06 03:35:31  5-MIN KDBQ 280935Z AUTO 03008KT 2 1/2SM BR OVC004 03/02 A3005 960 92 -200 030/08 RMK AO2 TSNO
94908KDBQ DBQ20060328034011203/28/06 03:40:31  5-MIN KDBQ 280940Z AUTO 04009KT 2 1/2SM BR OVC004 03/02 A3005 960 92 -200 040/09 RMK AO2 TSNO
94908KDBQ DBQ20060328034510803/28/06 03:45:31  5-MIN KDBQ 280945Z AUTO 03009KT 3SM BR OVC004 03/02 A3006 950 92 -200 020/09 RMK AO2 TSNO
94908KDBQ DBQ20060328035012503/28/06 03:50:31  5-MIN KDBQ 280950Z AUTO 03007KT 3SM BR OVC004 03/02 A3006 950 92 -200 030/07 RMK AO2 SLP188 T00280017 TSNO
94908KDBQ DBQ20060328035512903/28/06 03:55:31  5-MIN KDBQ 280955Z AUTO 02009KT 2 1/2SM BR OVC004 03/02 A3006 950 92 -200 020/09 RMK AO2 SLP189 T00280017 TSNO
94908KDBQ DBQ20060328040011203/28/06 04:00:31  5-MIN KDBQ 281000Z AUTO 02008KT 2 1/2SM BR OVC004 03/02 A3006 950 92 -200 020/08 RMK AO2 TSNO
94908KDBQ DBQ20060328040511203/28/06 04:05:31  5-MIN KDBQ 281005Z AUTO 03009KT 2 1/2SM BR OVC004 03/02 A3006 950 92 -200 030/09 RMK AO2 TSNO
94908KDBQ DBQ20060328041012703/28/06 04:10:31  5-MIN KDBQ 281010Z AUTO 03009KT 2 1/2SM UP BR OVC004 03/02 A3007 940 92 -200 030/09 RMK AO2 UPB08 P0000 TSNO
94908KDBQ DBQ20060328041512703/28/06 04:15:31  5-MIN KDBQ 281015Z AUTO 03009KT 2 1/2SM UP BR OVC004 03/02 A3007 940 92 -200 030/09 RMK AO2 UPB08 P0000 TSNO
94908KDBQ DBQ20060328042012303/28/06 04:20:31  5-MIN KDBQ 281020Z AUTO 02011KT 3SM BR OVC004 03/02 A3007 940 92 -200 020/11 RMK AO2 UPB08E18 P0000 TSNO
94908KDBQ DBQ20060328042512303/28/06 04:25:31  5-MIN KDBQ 281025Z AUTO 03010KT 3SM BR OVC004 03/02 A3007 940 92 -200 030/10 RMK AO2 UPB08E18 P0000 TSNO
94908KDBQ DBQ20060328043012303/28/06 04:30:31  5-MIN KDBQ 281030Z AUTO 04009KT 3SM BR OVC004 03/02 A3007 940 92 -200 040/09 RMK AO2 UPB08E18 P0000 TSNO
94908KDBQ DBQ20060328043512703/28/06 04:35:31  5-MIN KDBQ 281035Z AUTO 03011KT 2 1/2SM BR OVC004 03/02 A3007 940 96 -200 030/11 RMK AO2 UPB08E18 P0000 TSNO
94908KDBQ DBQ20060328044012703/28/06 04:40:31  5-MIN KDBQ 281040Z AUTO 04009KT 2 1/2SM BR OVC004 03/02 A3007 940 92 -200 040/09 RMK AO2 UPB08E18 P0000 TSNO
94908KDBQ DBQ20060328044512703/28/06 04:45:31  5-MIN KDBQ 281045Z AUTO 03010KT 2 1/2SM BR OVC004 03/02 A3007 940 96 -200 030/10 RMK AO2 UPB08E18 P0000 TSNO
94908KDBQ DBQ20060328045014403/28/06 04:50:31  5-MIN KDBQ 281050Z AUTO 03011KT 2 1/2SM BR OVC004 03/02 A3007 940 96 -200 030/11 RMK AO2 UPB08E18 SLP193 P0000 T00280022 TSNO
94908KDBQ DBQ20060328045514403/28/06 04:55:31  5-MIN KDBQ 281055Z AUTO 02009KT 2 1/2SM BR OVC004 03/02 A3007 940 92 -200 020/09 RMK AO2 UPB08E18 SLP193 P0000 T00280017 TSNO
94908KDBQ DBQ20060328050011203/28/06 05:00:31  5-MIN KDBQ 281100Z AUTO 02010KT 2 1/2SM BR OVC004 03/02 A3008 930 92 -200 020/10 RMK AO2 TSNO
94908KDBQ DBQ20060328050511203/28/06 05:05:31  5-MIN KDBQ 281105Z AUTO 02010KT 2 1/2SM BR OVC004 03/02 A3008 930 92 -200 020/10 RMK AO2 TSNO
94908KDBQ DBQ20060328051011203/28/06 05:10:31  5-MIN KDBQ 281110Z AUTO 02009KT 2 1/2SM BR OVC004 03/02 A3008 930 92 -200 020/09 RMK AO2 TSNO
94908KDBQ DBQ20060328051510803/28/06 05:15:31  5-MIN KDBQ 281115Z AUTO 02010KT 2SM BR OVC004 03/02 A3008 930 92 -200 020/10 RMK AO2 TSNO
94908KDBQ DBQ20060328052011203/28/06 05:20:31  5-MIN KDBQ 281120Z AUTO 02009KT 2 1/2SM BR OVC004 03/02 A3009 930 92 -200 020/09 RMK AO2 TSNO
94908KDBQ DBQ20060328052510803/28/06 05:25:31  5-MIN KDBQ 281125Z AUTO 02010KT 2SM BR OVC004 03/02 A3009 920 92 -200 020/10 RMK AO2 TSNO
94908KDBQ DBQ20060328053010803/28/06 05:30:31  5-MIN KDBQ 281130Z AUTO 02010KT 2SM BR OVC004 03/02 A3009 920 92 -300 020/10 RMK AO2 TSNO
94908KDBQ DBQ20060328053510803/28/06 05:35:31  5-MIN KDBQ 281135Z AUTO 02009KT 2SM BR OVC004 03/02 A3010 910 92 -300 020/09 RMK AO2 TSNO
94908KDBQ DBQ20060328054010803/28/06 05:40:31  5-MIN KDBQ 281140Z AUTO 01010KT 2SM BR OVC004 03/02 A3010 910 92 -300 010/10 RMK AO2 TSNO
94908KDBQ DBQ20060328054509803/28/06 05:45:31  5-MIN KDBQ 281145Z 02011KT 2SM BR OVC004 03/02 A3010 910 92 -300 020/11 RMK AO2
94908KDBQ DBQ20060328055014503/28/06 05:50:31  5-MIN KDBQ 281150Z 03013KT 2SM BR OVC004 03/02 A3010 910 92 -300 030/13 RMK AO2 SLP202 60000 70028 T00280017 10028 20022 53009
94908KDBQ DBQ20060328055514503/28/06 05:55:31  5-MIN KDBQ 281155Z 03010KT 2SM BR OVC004 03/02 A3010 910 92 -300 030/10 RMK AO2 SLP203 60000 70028 T00280017 10028 20022 53015
94908KDBQ DBQ20060328060009803/28/06 06:00:31  5-MIN KDBQ 281200Z 03011KT 2SM BR OVC004 03/02 A3011 910 92 -300 030/11 RMK AO2
94908KDBQ DBQ20060328060510203/28/06 06:05:31  5-MIN KDBQ 281205Z 03010KT 1 3/4SM BR OVC002 03/02 A3011 900 92 -300 030/10 RMK AO2
94908KDBQ DBQ20060328061009803/28/06 06:10:31  5-MIN KDBQ 281210Z 03011KT 2SM BR OVC002 03/02 A3011 900 92 -300 030/11 RMK AO2
94908KDBQ DBQ20060328061509803/28/06 06:15:31  5-MIN KDBQ 281215Z 02011KT 2SM BR OVC002 03/02 A3012 900 92 -300 020/11 RMK AO2
94908KDBQ DBQ20060328062009803/28/06 06:20:31  5-MIN KDBQ 281220Z 02010KT 2SM BR OVC002 03/02 A3012 890 92 -300 020/10 RMK AO2
94908KDBQ DBQ20060328062509803/28/06 06:25:31  5-MIN KDBQ 281225Z 03009KT 2SM BR OVC002 03/02 A3012 890 92 -300 030/09 RMK AO2
94908KDBQ DBQ20060328063009803/28/06 06:30:31  5-MIN KDBQ 281230Z 02010KT 2SM BR OVC002 03/02 A3012 890 92 -300 020/10 RMK AO2
94908KDBQ DBQ20060328063509803/28/06 06:35:31  5-MIN KDBQ 281235Z 03012KT 2SM BR OVC002 03/02 A3012 890 92 -300 030/12 RMK AO2
94908KDBQ DBQ20060328064009803/28/06 06:40:31  5-MIN KDBQ 281240Z 03010KT 2SM BR OVC002 03/02 A3012 890 92 -300 030/10 RMK AO2
94908KDBQ DBQ20060328064509803/28/06 06:45:31  5-MIN KDBQ 281245Z 03010KT 2SM BR OVC004 03/02 A3013 890 92 -300 030/10 RMK AO2
94908KDBQ DBQ20060328065010203/28/06 06:50:31  5-MIN KDBQ 281250Z 03009KT 1 1/2SM BR OVC004 03/02 A3013 890 92 -300 030/09 RMK AO2
94908KDBQ DBQ20060328065511903/28/06 06:55:31  5-MIN KDBQ 281255Z 03010KT 1 1/2SM BR OVC004 03/02 A3013 890 92 -300 030/10 RMK AO2 SLP212 T00280017
94908KDBQ DBQ20060328070010203/28/06 07:00:31  5-MIN KDBQ 281300Z 03011KT 1 1/2SM BR OVC004 03/02 A3013 880 92 -300 030/11 RMK AO2
94908KDBQ DBQ20060328070510203/28/06 07:05:31  5-MIN KDBQ 281305Z 03009KT 1 3/4SM BR OVC004 03/02 A3013 880 92 -300 030/09 RMK AO2
94908KDBQ DBQ20060328071010203/28/06 07:10:31  5-MIN KDBQ 281310Z 03011KT 1 3/4SM BR OVC004 03/02 A3013 880 92 -300 030/11 RMK AO2
94908KDBQ DBQ20060328071510203/28/06 07:15:31  5-MIN KDBQ 281315Z 04010KT 1 3/4SM BR OVC004 03/02 A3013 880 92 -300 040/10 RMK AO2
94908KDBQ DBQ20060328072010203/28/06 07:20:31  5-MIN KDBQ 281320Z 04009KT 1 3/4SM BR OVC004 03/02 A3013 880 92 -300 040/09 RMK AO2
94908KDBQ DBQ20060328072510203/28/06 07:25:31  5-MIN KDBQ 281325Z 04010KT 1 3/4SM BR OVC004 03/02 A3013 880 92 -300 040/10 RMK AO2
94908KDBQ DBQ20060328073010203/28/06 07:30:31  5-MIN KDBQ 281330Z 05009KT 1 3/4SM BR OVC004 03/02 A3013 880 92 -300 050/09 RMK AO2
94908KDBQ DBQ20060328073509803/28/06 07:35:31  5-MIN KDBQ 281335Z 04011KT 2SM BR OVC004 03/02 A3013 880 92 -300 040/11 RMK AO2
94908KDBQ DBQ20060328074010203/28/06 07:40:31  5-MIN KDBQ 281340Z 05009KT 1 3/4SM BR OVC004 03/02 A3013 880 89 -200 050/09 RMK AO2
94908KDBQ DBQ20060328074510203/28/06 07:45:31  5-MIN KDBQ 281345Z 04010KT 1 3/4SM BR OVC004 03/02 A3013 880 92 -200 040/10 RMK AO2
94908KDBQ DBQ20060328075009803/28/06 07:50:31  5-MIN KDBQ 281350Z 05011KT 2SM BR OVC004 03/02 A3014 880 92 -200 050/11 RMK AO2
94908KDBQ DBQ20060328075511503/28/06 07:55:31  5-MIN KDBQ 281355Z 04008KT 2SM BR OVC004 03/02 A3014 870 92 -200 040/08 RMK AO2 SLP216 T00330022
94908KDBQ DBQ20060328080009803/28/06 08:00:31  5-MIN KDBQ 281400Z 04009KT 2SM BR OVC004 03/02 A3014 870 92 -200 040/09 RMK AO2
94908KDBQ DBQ20060328080509803/28/06 08:05:31  5-MIN KDBQ 281405Z 04008KT 2SM BR OVC006 03/02 A3015 870 92 -200 040/08 RMK AO2
94908KDBQ DBQ20060328081009803/28/06 08:10:31  5-MIN KDBQ 281410Z 03009KT 2SM BR OVC006 03/02 A3015 870 92 -200 030/09 RMK AO2
94908KDBQ DBQ20060328081510203/28/06 08:15:31  5-MIN KDBQ 281415Z 05010KT 2 1/2SM BR OVC006 03/02 A3015 870 92 -200 050/10 RMK AO2
94908KDBQ DBQ20060328082010203/28/06 08:20:31  5-MIN KDBQ 281420Z 04009KT 2 1/2SM BR OVC006 03/02 A3015 870 92 -200 040/09 RMK AO2
94908KDBQ DBQ20060328082510203/28/06 08:25:31  5-MIN KDBQ 281425Z 04009KT 2 1/2SM BR OVC006 03/02 A3015 860 92 -300 040/09 RMK AO2
94908KDBQ DBQ20060328083010203/28/06 08:30:31  5-MIN KDBQ 281430Z 04010KT 2 1/2SM BR OVC006 03/02 A3015 860 92 -300 040/10 RMK AO2
94908KDBQ DBQ20060328083510203/28/06 08:35:31  5-MIN KDBQ 281435Z 05010KT 2 1/2SM BR OVC006 04/02 A3015 860 89 -200 050/10 RMK AO2
94908KDBQ DBQ20060328084010203/28/06 08:40:31  5-MIN KDBQ 281440Z 05009KT 2 1/2SM BR OVC006 04/02 A3016 860 89 -200 050/09 RMK AO2
94908KDBQ DBQ20060328084510203/28/06 08:45:31  5-MIN KDBQ 281445Z 05008KT 2 1/2SM BR OVC006 04/02 A3016 860 89 -200 040/08 RMK AO2
94908KDBQ DBQ20060328085009803/28/06 08:50:31  5-MIN KDBQ 281450Z 04008KT 3SM BR OVC006 04/02 A3017 850 89 -200 040/08 RMK AO2
94908KDBQ DBQ20060328085512103/28/06 08:55:31  5-MIN KDBQ 281455Z 05009KT 3SM BR OVC006 04/02 A3017 850 89 -200 050/09 RMK AO2 SLP224 T00390022 53012
94908KDBQ DBQ20060328090009803/28/06 09:00:31  5-MIN KDBQ 281500Z 05010KT 3SM BR OVC006 04/02 A3016 860 89 -200 050/10 RMK AO2
94908KDBQ DBQ20060328090509803/28/06 09:05:31  5-MIN KDBQ 281505Z 04009KT 3SM BR OVC006 04/02 A3016 850 89 -200 040/09 RMK AO2
94908KDBQ DBQ20060328091009803/28/06 09:10:31  5-MIN KDBQ 281510Z 05010KT 3SM BR OVC008 04/02 A3017 850 89 -200 040/10 RMK AO2
94908KDBQ DBQ20060328091509803/28/06 09:15:31  5-MIN KDBQ 281515Z 04009KT 3SM BR OVC008 04/02 A3017 850 89 -200 040/09 RMK AO2
94908KDBQ DBQ20060328092009803/28/06 09:20:31  5-MIN KDBQ 281520Z 05008KT 3SM BR OVC008 04/02 A3017 850 85 -100 050/08 RMK AO2
94908KDBQ DBQ20060328092509803/28/06 09:25:31  5-MIN KDBQ 281525Z 04008KT 3SM BR OVC008 04/02 A3017 840 85 -100 040/08 RMK AO2
94908KDBQ DBQ20060328093009803/28/06 09:30:31  5-MIN KDBQ 281530Z 04009KT 3SM BR OVC008 04/03 A3018 840 89 -100 040/09 RMK AO2
94908KDBQ DBQ20060328093511003/28/06 09:35:31  5-MIN KDBQ 281535Z 04009KT 3SM BR OVC008 04/02 A3018 840 85 -100 040/09 RMK AO2 CIG 007V011
94908KDBQ DBQ20060328094011003/28/06 09:40:31  5-MIN KDBQ 281540Z 04008KT 4SM BR OVC008 04/03 A3018 840 89 -100 030/08 RMK AO2 CIG 007V011
94908KDBQ DBQ20060328094511003/28/06 09:45:31  5-MIN KDBQ 281545Z 04008KT 4SM BR OVC008 04/03 A3018 840 89 -100 040/08 RMK AO2 CIG 007V011
94908KDBQ DBQ20060328095012703/28/06 09:50:31  5-MIN KDBQ 281550Z 04008KT 4SM BR OVC008 04/03 A3018 840 89 -100 040/08 RMK AO2 CIG 007V011 SLP230 T00440028
94908KDBQ DBQ20060328095512703/28/06 09:55:31  5-MIN KDBQ 281555Z 04008KT 4SM BR OVC008 04/03 A3018 840 89 -100 040/08 RMK AO2 CIG 007V011 SLP230 T00440028
94908KDBQ DBQ20060328100011003/28/06 10:00:31  5-MIN KDBQ 281600Z 04009KT 4SM BR OVC008 04/02 A3018 840 85 -100 040/09 RMK AO2 CIG 007V012
94908KDBQ DBQ20060328100511003/28/06 10:05:31  5-MIN KDBQ 281605Z 04007KT 4SM BR OVC010 05/03 A3018 840 85 -100 040/07 RMK AO2 CIG 008V012
94908KDBQ DBQ20060328101011003/28/06 10:10:31  5-MIN KDBQ 281610Z 04009KT 4SM BR OVC010 05/03 A3018 840 85 -100 030/09 RMK AO2 CIG 008V013
94908KDBQ DBQ20060328101511003/28/06 10:15:31  5-MIN KDBQ 281615Z 03008KT 4SM BR OVC010 05/03 A3018 840 85 -100 030/08 RMK AO2 CIG 008V013
94908KDBQ DBQ20060328102011003/28/06 10:20:31  5-MIN KDBQ 281620Z 03009KT 4SM BR OVC010 05/03 A3018 840 85 -100 030/09 RMK AO2 CIG 008V013
94908KDBQ DBQ20060328102511003/28/06 10:25:31  5-MIN KDBQ 281625Z 04009KT 4SM BR OVC010 05/03 A3018 840 85 -100 040/09 RMK AO2 CIG 008V013
94908KDBQ DBQ20060328103011003/28/06 10:30:31  5-MIN KDBQ 281630Z 04009KT 4SM BR OVC010 05/03 A3019 830 85 -100 040/09 RMK AO2 CIG 008V013
94908KDBQ DBQ20060328103511003/28/06 10:35:31  5-MIN KDBQ 281635Z 05007KT 4SM BR OVC010 05/03 A3018 840 85 -100 050/07 RMK AO2 CIG 009V013
94908KDBQ DBQ20060328104011003/28/06 10:40:31  5-MIN KDBQ 281640Z 03010KT 4SM BR OVC010 05/03 A3018 830 85 -100 030/10 RMK AO2 CIG 009V013
94908KDBQ DBQ20060328104511003/28/06 10:45:31  5-MIN KDBQ 281645Z 04010KT 4SM BR OVC010 05/03 A3019 830 85 -100 040/10 RMK AO2 CIG 009V013
94908KDBQ DBQ20060328105012703/28/06 10:50:31  5-MIN KDBQ 281650Z 03008KT 4SM BR OVC010 05/03 A3019 830 85 -100 030/08 RMK AO2 CIG 009V013 SLP232 T00500028
94908KDBQ DBQ20060328105511203/28/06 10:55:31  5-MIN KDBQ 281655Z 03010KT 4SM HZ OVC010 06/03 A3019 830 82 0 030/10 RMK AO2 SLP233 T00560028
94908KDBQ DBQ20060328110009803/28/06 11:00:31  5-MIN KDBQ 281700Z 04009KT 4SM BR OVC012 05/03 A3019 830 85 -100 040/09 RMK AO2
94908KDBQ DBQ20060328110509803/28/06 11:05:31  5-MIN KDBQ 281705Z 04007KT 4SM BR OVC012 05/03 A3019 830 85 -100 040/07 RMK AO2
94908KDBQ DBQ20060328111009503/28/06 11:10:31  5-MIN KDBQ 281710Z 04007KT 4SM HZ OVC012 06/03 A3019 830 82 0 040/07 RMK AO2
94908KDBQ DBQ20060328111509503/28/06 11:15:31  5-MIN KDBQ 281715Z 04008KT 4SM HZ OVC012 06/03 A3019 830 82 0 040/08 RMK AO2
94908KDBQ DBQ20060328112009503/28/06 11:20:31  5-MIN KDBQ 281720Z 03009KT 4SM HZ OVC012 06/03 A3019 830 82 0 030/09 RMK AO2
94908KDBQ DBQ20060328112509503/28/06 11:25:31  5-MIN KDBQ 281725Z 05008KT 4SM HZ OVC014 06/03 A3019 830 82 0 050/08 RMK AO2
94908KDBQ DBQ20060328113009503/28/06 11:30:31  5-MIN KDBQ 281730Z 04007KT 4SM HZ OVC014 06/03 A3019 830 82 0 040/07 RMK AO2
94908KDBQ DBQ20060328113509503/28/06 11:35:31  5-MIN KDBQ 281735Z 05008KT 4SM HZ OVC014 06/03 A3019 830 82 0 050/08 RMK AO2
94908KDBQ DBQ20060328114009503/28/06 11:40:31  5-MIN KDBQ 281740Z 05008KT 4SM HZ OVC016 06/03 A3019 830 79 0 050/08 RMK AO2
94908KDBQ DBQ20060328114510203/28/06 11:45:31  5-MIN KDBQ 281745Z 05006KT 4SM HZ BKN016 OVC020 06/03 A3018 830 79 0 050/06 RMK AO2
94908KDBQ DBQ20060328115014403/28/06 11:50:31  5-MIN KDBQ 281750Z 06007KT 4SM HZ BKN016 BKN020 OVC025 06/03 A3019 830 79 0 060/07 RMK AO2 SLP231 T00610028 10061 20028 53012
94908KDBQ DBQ20060328115513903/28/06 11:55:31  5-MIN KDBQ 281755Z 04008KT 4SM HZ SCT014 OVC023 07/03 A3019 830 76 100 040/08 RMK AO2 SLP232 T00670028 10067 20028 50007
94908KDBQ DBQ20060328120010203/28/06 12:00:31  5-MIN KDBQ 281800Z 03007KT 5SM HZ FEW014 OVC023 06/03 A3019 830 79 0 030/07 RMK AO2
94908KDBQ DBQ20060328120510403/28/06 12:05:31  5-MIN KDBQ 281805Z 02006KT 5SM HZ BKN018 OVC025 07/03 A3019 830 76 100 020/06 RMK AO2
94908KDBQ DBQ20060328121010203/28/06 12:10:31  5-MIN KDBQ 281810Z 03008KT 5SM HZ SCT016 OVC023 06/03 A3019 830 79 0 030/08 RMK AO2
94908KDBQ DBQ20060328121510203/28/06 12:15:31  5-MIN KDBQ 281815Z 05006KT 5SM HZ SCT016 OVC023 06/02 A3019 830 76 0 050/06 RMK AO2
94908KDBQ DBQ20060328122010203/28/06 12:20:31  5-MIN KDBQ 281820Z 04007KT 5SM HZ BKN018 OVC023 06/03 A3019 830 79 0 040/07 RMK AO2
94908KDBQ DBQ20060328122509503/28/06 12:25:31  5-MIN KDBQ 281825Z 05007KT 5SM HZ OVC018 06/02 A3019 830 76 0 040/07 RMK AO2
94908KDBQ DBQ20060328123009503/28/06 12:30:31  5-MIN KDBQ 281830Z 04005KT 5SM HZ OVC018 06/02 A3019 830 76 0 040/05 RMK AO2
94908KDBQ DBQ20060328123510403/28/06 12:35:31  5-MIN KDBQ 281835Z 04004KT 5SM HZ BKN018 OVC023 07/03 A3019 830 76 100 030/04 RMK AO2
94908KDBQ DBQ20060328124009703/28/06 12:40:31  5-MIN KDBQ 281840Z 05003KT 5SM HZ OVC021 07/03 A3019 830 76 100 050/03 RMK AO2
94908KDBQ DBQ20060328124509703/28/06 12:45:31  5-MIN KDBQ 281845Z 04004KT 5SM HZ OVC021 07/02 A3019 830 73 100 040/04 RMK AO2
94908KDBQ DBQ20060328125011403/28/06 12:50:31  5-MIN KDBQ 281850Z 06005KT 5SM HZ OVC021 07/02 A3019 830 73 100 060/05 RMK AO2 SLP233 T00670022
94908KDBQ DBQ20060328125511403/28/06 12:55:31  5-MIN KDBQ 281855Z 06006KT 5SM HZ OVC021 07/02 A3019 830 73 100 060/06 RMK AO2 SLP233 T00670022
94908KDBQ DBQ20060328130009703/28/06 13:00:31  5-MIN KDBQ 281900Z 04004KT 5SM HZ OVC021 07/02 A3019 830 73 100 040/04 RMK AO2
94908KDBQ DBQ20060328130510403/28/06 13:05:31  5-MIN KDBQ 281905Z 05004KT 5SM HZ BKN021 OVC026 07/02 A3019 830 73 100 050/04 RMK AO2
94908KDBQ DBQ20060328131010403/28/06 13:10:31  5-MIN KDBQ 281910Z 00000KT 5SM HZ BKN021 OVC026 07/02 A3019 830 73 100 000/00 RMK AO2
94908KDBQ DBQ20060328131509703/28/06 13:15:31  5-MIN KDBQ 281915Z 00000KT 5SM HZ OVC021 07/02 A3019 830 73 100 000/00 RMK AO2
94908KDBQ DBQ20060328132009703/28/06 13:20:31  5-MIN KDBQ 281920Z VRB04KT 5SM HZ OVC019 07/02 A3019 830 73 100 VRB/04 RMK AO2
94908KDBQ DBQ20060328132510403/28/06 13:25:31  5-MIN KDBQ 281925Z 08005KT 5SM HZ BKN019 OVC025 07/02 A3019 830 73 100 080/05 RMK AO2
94908KDBQ DBQ20060328133009703/28/06 13:30:31  5-MIN KDBQ 281930Z 08006KT 5SM HZ OVC021 07/02 A3019 830 73 100 080/06 RMK AO2
94908KDBQ DBQ20060328133510403/28/06 13:35:31  5-MIN KDBQ 281935Z 05004KT 5SM HZ BKN021 OVC027 07/02 A3019 830 73 100 050/04 RMK AO2
94908KDBQ DBQ20060328134010403/28/06 13:40:31  5-MIN KDBQ 281940Z 06006KT 6SM HZ BKN021 OVC027 07/02 A3019 830 70 100 060/06 RMK AO2
94908KDBQ DBQ20060328134510403/28/06 13:45:31  5-MIN KDBQ 281945Z 09005KT 6SM HZ BKN021 OVC027 07/02 A3019 830 73 100 090/05 RMK AO2
94908KDBQ DBQ20060328135012103/28/06 13:50:31  5-MIN KDBQ 281950Z 08006KT 6SM HZ SCT021 OVC025 07/02 A3019 830 70 100 070/06 RMK AO2 SLP230 T00670017
94908KDBQ DBQ20060328135512103/28/06 13:55:31  5-MIN KDBQ 281955Z 06004KT 6SM HZ FEW020 OVC025 07/02 A3018 840 68 100 060/04 RMK AO2 SLP230 T00720017
94908KDBQ DBQ20060328140009703/28/06 14:00:31  5-MIN KDBQ 282000Z VRB05KT 6SM HZ OVC025 07/02 A3018 830 70 100 VRB/05 RMK AO2
94908KDBQ DBQ20060328140509403/28/06 14:05:31  5-MIN KDBQ 282005Z 05007KT 7SM OVC025 07/02 A3019 830 70 100 050/07 RMK AO2
94908KDBQ DBQ20060328141009403/28/06 14:10:31  5-MIN KDBQ 282010Z 05005KT 7SM OVC025 07/02 A3019 830 68 100 050/05 RMK AO2
94908KDBQ DBQ20060328141509403/28/06 14:15:31  5-MIN KDBQ 282015Z 00000KT 7SM OVC025 07/02 A3019 830 68 100 000/00 RMK AO2
94908KDBQ DBQ20060328142009403/28/06 14:20:31  5-MIN KDBQ 282020Z 05004KT 7SM OVC025 07/02 A3019 830 68 100 040/04 RMK AO2
94908KDBQ DBQ20060328142509403/28/06 14:25:31  5-MIN KDBQ 282025Z 06003KT 7SM OVC025 07/02 A3019 830 68 100 060/03 RMK AO2
94908KDBQ DBQ20060328143009403/28/06 14:30:31  5-MIN KDBQ 282030Z 00000KT 7SM OVC025 07/02 A3019 830 68 100 000/00 RMK AO2
94908KDBQ DBQ20060328143509403/28/06 14:35:31  5-MIN KDBQ 282035Z 03003KT 7SM OVC027 07/02 A3019 830 68 100 030/03 RMK AO2
94908KDBQ DBQ20060328144009403/28/06 14:40:31  5-MIN KDBQ 282040Z 00000KT 7SM OVC027 07/01 A3019 830 65 100 000/00 RMK AO2
94908KDBQ DBQ20060328144509403/28/06 14:45:31  5-MIN KDBQ 282045Z VRB03KT 7SM OVC027 07/02 A3019 830 68 100 VRB/03 RMK AO2
94908KDBQ DBQ20060328145011703/28/06 14:50:31  5-MIN KDBQ 282050Z 36003KT 7SM OVC027 07/02 A3019 830 68 100 360/03 RMK AO2 SLP233 T00720017 50007
94908KDBQ DBQ20060328145511703/28/06 14:55:31  5-MIN KDBQ 282055Z 01004KT 7SM OVC025 08/02 A3019 830 65 200 010/04 RMK AO2 SLP232 T00780017 53002
94908KDBQ DBQ20060328150009403/28/06 15:00:31  5-MIN KDBQ 282100Z 01003KT 7SM OVC025 08/02 A3019 830 65 200 010/03 RMK AO2
94908KDBQ DBQ20060328150509403/28/06 15:05:31  5-MIN KDBQ 282105Z 02003KT 7SM OVC025 07/02 A3020 820 68 100 010/03 RMK AO2
94908KDBQ DBQ20060328151009403/28/06 15:10:31  5-MIN KDBQ 282110Z 00000KT 7SM OVC025 07/02 A3020 820 68 100 000/00 RMK AO2
94908KDBQ DBQ20060328151509403/28/06 15:15:31  5-MIN KDBQ 282115Z 00000KT 7SM OVC025 07/02 A3020 820 68 100 000/00 RMK AO2
94908KDBQ DBQ20060328152009403/28/06 15:20:31  5-MIN KDBQ 282120Z 04003KT 7SM OVC025 08/02 A3020 820 65 200 040/03 RMK AO2
94908KDBQ DBQ20060328152509403/28/06 15:25:31  5-MIN KDBQ 282125Z 07003KT 7SM OVC025 07/01 A3020 820 65 100 070/03 RMK AO2
94908KDBQ DBQ20060328153009403/28/06 15:30:31  5-MIN KDBQ 282130Z 00000KT 7SM OVC027 07/01 A3020 820 65 100 000/00 RMK AO2
94908KDBQ DBQ20060328153509403/28/06 15:35:31  5-MIN KDBQ 282135Z 00000KT 7SM OVC027 07/01 A3020 820 65 100 000/00 RMK AO2
94908KDBQ DBQ20060328154009403/28/06 15:40:31  5-MIN KDBQ 282140Z 00000KT 7SM OVC029 07/01 A3020 820 65 100 000/00 RMK AO2
94908KDBQ DBQ20060328154509403/28/06 15:45:31  5-MIN KDBQ 282145Z 00000KT 7SM OVC031 08/02 A3019 830 65 200 000/00 RMK AO2
94908KDBQ DBQ20060328155009403/28/06 15:50:31  5-MIN KDBQ 282150Z 00000KT 7SM OVC031 08/02 A3019 830 65 200 000/00 RMK AO2
94908KDBQ DBQ20060328155511103/28/06 15:55:31  5-MIN KDBQ 282155Z 00000KT 7SM OVC033 08/01 A3020 830 62 200 000/00 RMK AO2 SLP232 T00780011
94908KDBQ DBQ20060328160009403/28/06 16:00:31  5-MIN KDBQ 282200Z 22003KT 7SM BKN033 07/01 A3019 830 65 100 220/03 RMK AO2
94908KDBQ DBQ20060328160509403/28/06 16:05:31  5-MIN KDBQ 282205Z 20003KT 7SM BKN033 08/01 A3019 830 62 200 200/03 RMK AO2
94908KDBQ DBQ20060328161009403/28/06 16:10:31  5-MIN KDBQ 282210Z VRB03KT 7SM SCT033 08/02 A3019 830 65 200 VRB/03 RMK AO2
94908KDBQ DBQ20060328161509403/28/06 16:15:31  5-MIN KDBQ 282215Z 14006KT 7SM FEW035 08/02 A3019 830 65 200 140/06 RMK AO2
94908KDBQ DBQ20060328162009703/28/06 16:20:31  5-MIN KDBQ 282220Z 13006KT 6SM HZ FEW035 08/02 A3019 830 65 200 130/06 RMK AO2
94908KDBQ DBQ20060328162509403/28/06 16:25:31  5-MIN KDBQ 282225Z 15004KT 6SM HZ CLR 08/02 A3019 830 65 200 150/04 RMK AO2
94908KDBQ DBQ20060328163009403/28/06 16:30:31  5-MIN KDBQ 282230Z 16004KT 6SM HZ CLR 08/02 A3019 830 65 200 160/04 RMK AO2
94908KDBQ DBQ20060328163509703/28/06 16:35:31  5-MIN KDBQ 282235Z 18006KT 6SM HZ FEW030 08/02 A3019 830 65 200 180/06 RMK AO2
94908KDBQ DBQ20060328164009703/28/06 16:40:31  5-MIN KDBQ 282240Z 18003KT 6SM HZ SCT030 08/01 A3020 830 62 200 180/03 RMK AO2
94908KDBQ DBQ20060328164509703/28/06 16:45:31  5-MIN KDBQ 282245Z 15005KT 6SM HZ BKN030 08/02 A3020 830 63 300 150/05 RMK AO2
94908KDBQ DBQ20060328165012103/28/06 16:50:31  5-MIN KDBQ 282250Z 18004KT 6SM HZ BKN030 BKN039 08/02 A3020 820 65 200 170/04 RMK AO2 SLP233 T00780017
94908KDBQ DBQ20060328165512103/28/06 16:55:31  5-MIN KDBQ 282255Z 18006KT 6SM HZ SCT030 BKN037 08/01 A3020 820 62 200 170/06 RMK AO2 SLP233 T00780011
94908KDBQ DBQ20060328170010403/28/06 17:00:31  5-MIN KDBQ 282300Z 19005KT 6SM HZ SCT030 OVC037 08/01 A3020 820 62 200 180/05 RMK AO2
94908KDBQ DBQ20060328170509703/28/06 17:05:31  5-MIN KDBQ 282305Z 20003KT 6SM HZ OVC037 08/01 A3020 820 62 200 200/03 RMK AO2
94908KDBQ DBQ20060328171009703/28/06 17:10:31  5-MIN KDBQ 282310Z 18005KT 6SM HZ OVC037 08/01 A3020 820 62 200 180/05 RMK AO2
94908KDBQ DBQ20060328171509703/28/06 17:15:31  5-MIN KDBQ 282315Z 19003KT 6SM HZ OVC037 08/01 A3020 820 62 200 190/03 RMK AO2
94908KDBQ DBQ20060328172009703/28/06 17:20:31  5-MIN KDBQ 282320Z 20003KT 6SM HZ OVC037 08/01 A3020 820 62 200 200/03 RMK AO2
94908KDBQ DBQ20060328172509703/28/06 17:25:31  5-MIN KDBQ 282325Z 00000KT 6SM HZ OVC037 08/01 A3020 820 62 200 000/00 RMK AO2
94908KDBQ DBQ20060328173009703/28/06 17:30:31  5-MIN KDBQ 282330Z 19003KT 6SM HZ OVC035 08/01 A3020 820 62 200 190/03 RMK AO2
94908KDBQ DBQ20060328173509703/28/06 17:35:31  5-MIN KDBQ 282335Z 19005KT 6SM HZ OVC035 07/02 A3020 820 68 100 180/05 RMK AO2
94908KDBQ DBQ20060328174009703/28/06 17:40:31  5-MIN KDBQ 282340Z 18004KT 6SM HZ OVC035 07/02 A3020 820 68 100 180/04 RMK AO2
94908KDBQ DBQ20060328174509703/28/06 17:45:31  5-MIN KDBQ 282345Z 20004KT 6SM HZ OVC035 07/02 A3020 820 68 100 200/04 RMK AO2
94908KDBQ DBQ20060328175013203/28/06 17:50:31  5-MIN KDBQ 282350Z 19004KT 6SM HZ OVC035 07/02 A3020 820 68 100 190/04 RMK AO2 SLP235 T00720017 10083 20061 53002
94908KDBQ DBQ20060328175513903/28/06 17:55:31  5-MIN KDBQ 282355Z 19004KT 6SM HZ FEW031 OVC038 07/02 A3020 820 68 100 190/04 RMK AO2 SLP235 T00720017 10083 20061 53002
94908KDBQ DBQ20060328180009703/28/06 18:00:31  5-MIN KDBQ 290000Z 19005KT 6SM HZ OVC038 07/02 A3020 820 70 100 190/05 RMK AO2
94908KDBQ DBQ20060328180509703/28/06 18:05:31  5-MIN KDBQ 290005Z 20005KT 6SM HZ OVC038 07/02 A3020 820 70 100 200/05 RMK AO2
94908KDBQ DBQ20060328181009703/28/06 18:10:31  5-MIN KDBQ 290010Z 19004KT 6SM HZ OVC038 07/02 A3020 820 73 100 190/04 RMK AO2
94908KDBQ DBQ20060328181509703/28/06 18:15:31  5-MIN KDBQ 290015Z 20004KT 6SM HZ OVC038 07/02 A3020 820 73 100 200/04 RMK AO2
94908KDBQ DBQ20060328182009503/28/06 18:20:31  5-MIN KDBQ 290020Z 20004KT 6SM HZ OVC036 06/02 A3020 820 76 0 200/04 RMK AO2
94908KDBQ DBQ20060328182509503/28/06 18:25:31  5-MIN KDBQ 290025Z 20005KT 6SM HZ OVC036 06/02 A3020 820 76 0 200/05 RMK AO2
94908KDBQ DBQ20060328183009503/28/06 18:30:31  5-MIN KDBQ 290030Z 20004KT 6SM HZ OVC036 06/02 A3020 820 76 0 200/04 RMK AO2
94908KDBQ DBQ20060328183509203/28/06 18:35:31  5-MIN KDBQ 290035Z 20004KT 7SM OVC036 06/02 A3020 820 76 0 200/04 RMK AO2
94908KDBQ DBQ20060328184009203/28/06 18:40:31  5-MIN KDBQ 290040Z 23003KT 7SM OVC036 06/02 A3020 820 76 0 230/03 RMK AO2
94908KDBQ DBQ20060328184509203/28/06 18:45:31  5-MIN KDBQ 290045Z 23003KT 7SM OVC034 06/02 A3020 820 76 0 230/03 RMK AO2
94908KDBQ DBQ20060328185010903/28/06 18:50:31  5-MIN KDBQ 290050Z 24003KT 7SM OVC034 06/02 A3020 820 76 0 240/03 RMK AO2 SLP236 T00610022
94908KDBQ DBQ20060328185510903/28/06 18:55:31  5-MIN KDBQ 290055Z 24003KT 7SM OVC034 06/02 A3020 820 76 0 240/03 RMK AO2 SLP236 T00610022
94908KDBQ DBQ20060328190009503/28/06 19:00:31  5-MIN KDBQ 290100Z 24003KT 6SM HZ OVC034 06/02 A3020 820 76 0 240/03 RMK AO2
94908KDBQ DBQ20060328190509503/28/06 19:05:31  5-MIN KDBQ 290105Z 24003KT 6SM HZ OVC034 06/02 A3020 820 76 0 240/03 RMK AO2
94908KDBQ DBQ20060328191009503/28/06 19:10:31  5-MIN KDBQ 290110Z 23003KT 6SM HZ OVC034 06/02 A3020 820 76 0 230/03 RMK AO2
94908KDBQ DBQ20060328191509503/28/06 19:15:31  5-MIN KDBQ 290115Z 23003KT 6SM HZ OVC034 06/02 A3020 820 76 0 230/03 RMK AO2
94908KDBQ DBQ20060328192009503/28/06 19:20:31  5-MIN KDBQ 290120Z 24003KT 6SM HZ OVC034 06/02 A3021 820 79 0 240/03 RMK AO2
94908KDBQ DBQ20060328192509503/28/06 19:25:31  5-MIN KDBQ 290125Z 24003KT 6SM HZ OVC034 06/02 A3021 810 76 0 240/03 RMK AO2
94908KDBQ DBQ20060328193009503/28/06 19:30:31  5-MIN KDBQ 290130Z 24003KT 6SM HZ OVC034 06/02 A3021 810 79 0 240/03 RMK AO2
94908KDBQ DBQ20060328193509503/28/06 19:35:31  5-MIN KDBQ 290135Z 24003KT 6SM HZ OVC034 06/02 A3021 810 79 0 240/03 RMK AO2
94908KDBQ DBQ20060328194009503/28/06 19:40:31  5-MIN KDBQ 290140Z 23003KT 6SM HZ OVC034 06/02 A3021 810 79 0 230/03 RMK AO2
94908KDBQ DBQ20060328194509503/28/06 19:45:31  5-MIN KDBQ 290145Z 23003KT 6SM HZ OVC034 06/02 A3021 810 79 0 230/03 RMK AO2
94908KDBQ DBQ20060328195012203/28/06 19:50:31  5-MIN KDBQ 290150Z AUTO 22003KT 6SM HZ OVC034 06/02 A3021 810 79 0 220/03 RMK AO2 SLP240 T00560022 TSNO
94908KDBQ DBQ20060328195512203/28/06 19:55:31  5-MIN KDBQ 290155Z AUTO 22003KT 6SM HZ OVC034 06/02 A3021 810 79 0 220/03 RMK AO2 SLP241 T00560022 TSNO
94908KDBQ DBQ20060328200010503/28/06 20:00:31  5-MIN KDBQ 290200Z AUTO 00000KT 6SM HZ OVC034 06/02 A3021 810 79 0 000/00 RMK AO2 TSNO
94908KDBQ DBQ20060328200510503/28/06 20:05:31  5-MIN KDBQ 290205Z AUTO 00000KT 6SM HZ OVC034 06/02 A3021 810 79 0 000/00 RMK AO2 TSNO
94908KDBQ DBQ20060328201010503/28/06 20:10:31  5-MIN KDBQ 290210Z AUTO 00000KT 6SM HZ OVC034 06/02 A3021 810 79 0 000/00 RMK AO2 TSNO
94908KDBQ DBQ20060328201510503/28/06 20:15:31  5-MIN KDBQ 290215Z AUTO 00000KT 6SM HZ OVC034 06/02 A3021 810 79 0 000/00 RMK AO2 TSNO
94908KDBQ DBQ20060328202010503/28/06 20:20:31  5-MIN KDBQ 290220Z AUTO 00000KT 6SM HZ OVC034 06/02 A3021 810 79 0 000/00 RMK AO2 TSNO
94908KDBQ DBQ20060328202510803/28/06 20:25:31  5-MIN KDBQ 290225Z AUTO 00000KT 6SM HZ OVC034 06/02 A3022 810 79 -100 000/00 RMK AO2 TSNO
94908KDBQ DBQ20060328203010503/28/06 20:30:31  5-MIN KDBQ 290230Z AUTO 00000KT 6SM HZ OVC034 06/02 A3022 800 76 0 000/00 RMK AO2 TSNO
94908KDBQ DBQ20060328203510503/28/06 20:35:31  5-MIN KDBQ 290235Z AUTO 00000KT 6SM HZ OVC034 06/02 A3022 800 76 0 000/00 RMK AO2 TSNO
94908KDBQ DBQ20060328204010803/28/06 20:40:31  5-MIN KDBQ 290240Z AUTO 00000KT 6SM HZ OVC034 06/02 A3022 800 79 -100 000/00 RMK AO2 TSNO
94908KDBQ DBQ20060328204510803/28/06 20:45:31  5-MIN KDBQ 290245Z AUTO 00000KT 6SM HZ OVC034 06/02 A3022 800 79 -100 000/00 RMK AO2 TSNO
94908KDBQ DBQ20060328205013103/28/06 20:50:31  5-MIN KDBQ 290250Z AUTO 00000KT 6SM HZ OVC034 06/02 A3022 800 79 -100 000/00 RMK AO2 SLP241 T00560022 53002 TSNO
94908KDBQ DBQ20060328205513103/28/06 20:55:31  5-MIN KDBQ 290255Z AUTO 30003KT 6SM HZ OVC034 06/02 A3022 800 79 -100 300/03 RMK AO2 SLP242 T00560022 53006 TSNO
94908KDBQ DBQ20060328210010803/28/06 21:00:31  5-MIN KDBQ 290300Z AUTO 30003KT 6SM HZ OVC034 05/02 A3022 800 82 -100 300/03 RMK AO2 TSNO
94908KDBQ DBQ20060328210510803/28/06 21:05:31  5-MIN KDBQ 290305Z AUTO 00000KT 6SM HZ OVC034 06/02 A3022 800 79 -100 000/00 RMK AO2 TSNO
94908KDBQ DBQ20060328211010803/28/06 21:10:31  5-MIN KDBQ 290310Z AUTO 16004KT 5SM HZ OVC034 06/02 A3022 800 79 -100 160/04 RMK AO2 TSNO
94908KDBQ DBQ20060328211510503/28/06 21:15:31  5-MIN KDBQ 290315Z AUTO 23004KT 6SM HZ OVC034 06/02 A3022 800 73 0 230/04 RMK AO2 TSNO
94908KDBQ DBQ20060328212010503/28/06 21:20:31  5-MIN KDBQ 290320Z AUTO 25004KT 6SM HZ OVC034 06/02 A3022 800 73 0 250/04 RMK AO2 TSNO
94908KDBQ DBQ20060328212510803/28/06 21:25:31  5-MIN KDBQ 290325Z AUTO 25003KT 6SM HZ OVC034 06/02 A3022 800 79 -100 250/03 RMK AO2 TSNO
94908KDBQ DBQ20060328213010803/28/06 21:30:31  5-MIN KDBQ 290330Z AUTO 00000KT 6SM HZ OVC034 06/02 A3022 800 76 -100 000/00 RMK AO2 TSNO
94908KDBQ DBQ20060328213510803/28/06 21:35:31  5-MIN KDBQ 290335Z AUTO 00000KT 6SM HZ OVC034 06/02 A3022 800 76 -100 000/00 RMK AO2 TSNO
94908KDBQ DBQ20060328214010803/28/06 21:40:31  5-MIN KDBQ 290340Z AUTO 17003KT 6SM HZ OVC034 06/02 A3022 800 79 -100 170/03 RMK AO2 TSNO
94908KDBQ DBQ20060328214510803/28/06 21:45:31  5-MIN KDBQ 290345Z AUTO 00000KT 6SM HZ OVC034 06/02 A3022 800 79 -100 000/00 RMK AO2 TSNO
94908KDBQ DBQ20060328215012203/28/06 21:50:31  5-MIN KDBQ 290350Z AUTO 27003KT 6SM HZ OVC034 06/02 A3022 800 73 0 270/03 RMK AO2 SLP240 T00610017 TSNO
94908KDBQ DBQ20060328215512203/28/06 21:55:31  5-MIN KDBQ 290355Z AUTO 00000KT 6SM HZ OVC034 06/02 A3022 800 73 0 000/00 RMK AO2 SLP240 T00610017 TSNO
94908KDBQ DBQ20060328220010803/28/06 22:00:31  5-MIN KDBQ 290400Z AUTO 00000KT 6SM HZ OVC034 06/02 A3022 810 76 -100 000/00 RMK AO2 TSNO
94908KDBQ DBQ20060328220510503/28/06 22:05:31  5-MIN KDBQ 290405Z AUTO 00000KT 6SM HZ OVC034 06/02 A3022 810 73 0 000/00 RMK AO2 TSNO
94908KDBQ DBQ20060328221010503/28/06 22:10:31  5-MIN KDBQ 290410Z AUTO 00000KT 6SM HZ OVC034 06/02 A3022 810 73 0 000/00 RMK AO2 TSNO
94908KDBQ DBQ20060328221510803/28/06 22:15:31  5-MIN KDBQ 290415Z AUTO 20003KT 6SM HZ OVC034 06/02 A3022 810 76 -100 200/03 RMK AO2 TSNO
94908KDBQ DBQ20060328222010803/28/06 22:20:31  5-MIN KDBQ 290420Z AUTO 17003KT 6SM HZ OVC034 06/02 A3022 800 79 -100 170/03 RMK AO2 TSNO
94908KDBQ DBQ20060328222510803/28/06 22:25:31  5-MIN KDBQ 290425Z AUTO 13003KT 5SM HZ OVC034 05/02 A3022 810 82 -100 130/03 RMK AO2 TSNO
94908KDBQ DBQ20060328223010803/28/06 22:30:31  5-MIN KDBQ 290430Z AUTO 00000KT 5SM HZ OVC034 06/02 A3022 800 79 -100 000/00 RMK AO2 TSNO
94908KDBQ DBQ20060328223510803/28/06 22:35:31  5-MIN KDBQ 290435Z AUTO 00000KT 5SM HZ OVC034 06/02 A3022 800 79 -100 000/00 RMK AO2 TSNO
94908KDBQ DBQ20060328224010803/28/06 22:40:31  5-MIN KDBQ 290440Z AUTO 00000KT 5SM HZ OVC034 06/02 A3022 800 79 -100 000/00 RMK AO2 TSNO
94908KDBQ DBQ20060328224510803/28/06 22:45:31  5-MIN KDBQ 290445Z AUTO 23003KT 5SM HZ OVC034 06/02 A3022 800 76 -100 230/03 RMK AO2 TSNO
94908KDBQ DBQ20060328225012503/28/06 22:50:31  5-MIN KDBQ 290450Z AUTO VRB03KT 5SM HZ OVC034 06/02 A3022 800 76 -100 VRB/03 RMK AO2 SLP242 T00560017 TSNO
94908KDBQ DBQ20060328225512503/28/06 22:55:31  5-MIN KDBQ 290455Z AUTO 00000KT 5SM HZ OVC032 05/02 A3022 800 82 -100 000/00 RMK AO2 SLP242 T00500022 TSNO
94908KDBQ DBQ20060328230010803/28/06 23:00:31  5-MIN KDBQ 290500Z AUTO 00000KT 5SM HZ OVC032 06/02 A3022 800 76 -100 000/00 RMK AO2 TSNO
94908KDBQ DBQ20060328230510803/28/06 23:05:31  5-MIN KDBQ 290505Z AUTO 26004KT 5SM HZ OVC032 05/02 A3022 800 79 -100 250/04 RMK AO2 TSNO
94908KDBQ DBQ20060328231010803/28/06 23:10:31  5-MIN KDBQ 290510Z AUTO 23004KT 5SM HZ OVC032 06/02 A3022 800 76 -100 230/04 RMK AO2 TSNO
94908KDBQ DBQ20060328231510803/28/06 23:15:31  5-MIN KDBQ 290515Z AUTO 23006KT 5SM HZ BKN032 04/02 A3022 800 82 -200 230/06 RMK AO2 TSNO
94908KDBQ DBQ20060328232010803/28/06 23:20:31  5-MIN KDBQ 290520Z AUTO 25005KT 5SM BR BKN032 04/02 A3022 800 85 -300 250/05 RMK AO2 TSNO
94908KDBQ DBQ20060328232510803/28/06 23:25:31  5-MIN KDBQ 290525Z AUTO 25003KT 5SM HZ SCT032 04/01 A3022 800 82 -300 250/03 RMK AO2 TSNO
94908KDBQ DBQ20060328233010803/28/06 23:30:31  5-MIN KDBQ 290530Z AUTO 25003KT 5SM HZ SCT032 04/02 A3022 800 82 -200 240/03 RMK AO2 TSNO
94908KDBQ DBQ20060328233510803/28/06 23:35:31  5-MIN KDBQ 290535Z AUTO 25003KT 5SM HZ FEW032 04/02 A3022 800 82 -200 240/03 RMK AO2 TSNO
94908KDBQ DBQ20060328234010503/28/06 23:40:31  5-MIN KDBQ 290540Z AUTO 22003KT 5SM HZ CLR 04/01 A3022 800 82 -300 220/03 RMK AO2 TSNO
94908KDBQ DBQ20060328234510503/28/06 23:45:31  5-MIN KDBQ 290545Z AUTO 00000KT 5SM BR CLR 03/01 A3022 800 85 -300 000/00 RMK AO2 TSNO
94908KDBQ DBQ20060328235015003/28/06 23:50:31  5-MIN KDBQ 290550Z AUTO 00000KT 5SM BR CLR 03/01 A3022 800 85 -300 000/00 RMK AO2 SLP242 T00330011 10072 20033 400830022 53006 TSNO
94908KDBQ DBQ20060328235515003/28/06 23:55:31  5-MIN KDBQ 290555Z AUTO 21003KT 5SM HZ CLR 04/01 A3022 800 82 -300 210/03 RMK AO2 SLP241 T00390011 10072 20033 400830022 50001 TSNO
94908KDBQ DBQ20060329000010503/29/06 00:00:38  5-MIN KDBQ 290600Z AUTO 00000KT 5SM BR CLR 03/01 A3022 800 89 -400 000/00 RMK AO2 TSNO
94908KDBQ DBQ20060329000510503/29/06 00:05:31  5-MIN KDBQ 290605Z AUTO 19003KT 5SM BR CLR 03/01 A3022 800 85 -400 190/03 RMK AO2 TSNO
94908KDBQ DBQ20060329001010503/29/06 00:10:31  5-MIN KDBQ 290610Z AUTO 19003KT 5SM BR CLR 03/01 A3022 800 85 -400 190/03 RMK AO2 TSNO
94908KDBQ DBQ20060329001510503/29/06 00:15:32  5-MIN KDBQ 290615Z AUTO 00000KT 5SM BR CLR 02/01 A3022 800 89 -500 000/00 RMK AO2 TSNO
94908KDBQ DBQ20060329002010503/29/06 00:20:31  5-MIN KDBQ 290620Z AUTO 00000KT 5SM BR CLR 02/01 A3022 800 89 -500 000/00 RMK AO2 TSNO
94908KDBQ DBQ20060329002510503/29/06 00:25:31  5-MIN KDBQ 290625Z AUTO 00000KT 5SM BR CLR 02/00 A3022 810 85 -500 000/00 RMK AO2 TSNO
94908KDBQ DBQ20060329003010503/29/06 00:30:31  5-MIN KDBQ 290630Z AUTO 00000KT 5SM BR CLR 02/01 A3022 810 89 -500 000/00 RMK AO2 TSNO
94908KDBQ DBQ20060329003510603/29/06 00:35:31  5-MIN KDBQ 290635Z AUTO 00000KT 4SM BR CLR 01/M01 A3022 810 89 -600 000/00 RMK AO2 TSNO
94908KDBQ DBQ20060329004010603/29/06 00:40:31  5-MIN KDBQ 290640Z AUTO 00000KT 4SM BR CLR 01/M01 A3022 810 89 -700 000/00 RMK AO2 TSNO
94908KDBQ DBQ20060329004510603/29/06 00:45:31  5-MIN KDBQ 290645Z AUTO 00000KT 4SM BR CLR 01/M01 A3022 810 85 -600 000/00 RMK AO2 TSNO
94908KDBQ DBQ20060329005012303/29/06 00:50:31  5-MIN KDBQ 290650Z AUTO 00000KT 4SM BR CLR 02/M01 A3022 810 85 -500 000/00 RMK AO2 SLP241 T00171006 TSNO
94908KDBQ DBQ20060329005512303/29/06 00:55:31  5-MIN KDBQ 290655Z AUTO 00000KT 4SM BR CLR 01/M01 A3022 810 89 -600 000/00 RMK AO2 SLP241 T00111006 TSNO
94908KDBQ DBQ20060329010010603/29/06 01:00:31  5-MIN KDBQ 290700Z AUTO 00000KT 4SM BR CLR 01/M01 A3021 810 89 -600 000/00 RMK AO2 TSNO
94908KDBQ DBQ20060329010510603/29/06 01:05:31  5-MIN KDBQ 290705Z AUTO 00000KT 4SM BR CLR 01/M01 A3022 810 89 -600 000/00 RMK AO2 TSNO
94908KDBQ DBQ20060329011010603/29/06 01:10:31  5-MIN KDBQ 290710Z AUTO 00000KT 4SM BR CLR 01/M01 A3022 810 89 -600 000/00 RMK AO2 TSNO
94908KDBQ DBQ20060329011510603/29/06 01:15:31  5-MIN KDBQ 290715Z AUTO 00000KT 4SM BR CLR 01/M01 A3021 810 89 -600 000/00 RMK AO2 TSNO
94908KDBQ DBQ20060329012010603/29/06 01:20:31  5-MIN KDBQ 290720Z AUTO 00000KT 4SM BR CLR 01/M01 A3022 810 89 -600 000/00 RMK AO2 TSNO
94908KDBQ DBQ20060329012510603/29/06 01:25:31  5-MIN KDBQ 290725Z AUTO 00000KT 4SM BR CLR 01/M01 A3022 810 89 -700 000/00 RMK AO2 TSNO
94908KDBQ DBQ20060329013010603/29/06 01:30:31  5-MIN KDBQ 290730Z AUTO 00000KT 4SM BR CLR 01/M01 A3022 810 89 -700 000/00 RMK AO2 TSNO
94908KDBQ DBQ20060329013510603/29/06 01:35:31  5-MIN KDBQ 290735Z AUTO 00000KT 4SM BR CLR 01/M01 A3022 810 85 -600 000/00 RMK AO2 TSNO
94908KDBQ DBQ20060329014010603/29/06 01:40:31  5-MIN KDBQ 290740Z AUTO 00000KT 4SM BR CLR 01/M01 A3022 810 89 -600 000/00 RMK AO2 TSNO
94908KDBQ DBQ20060329014510603/29/06 01:45:31  5-MIN KDBQ 290745Z AUTO 00000KT 4SM BR CLR 01/M01 A3022 810 89 -600 000/00 RMK AO2 TSNO
94908KDBQ DBQ20060329015012303/29/06 01:50:31  5-MIN KDBQ 290750Z AUTO 17003KT 4SM BR CLR 01/M01 A3022 800 89 -600 170/03 RMK AO2 SLP242 T00111006 TSNO
94908KDBQ DBQ20060329015512303/29/06 01:55:31  5-MIN KDBQ 290755Z AUTO 16003KT 4SM BR CLR 01/M01 A3022 800 89 -700 160/03 RMK AO2 SLP242 T00061011 TSNO
94908KDBQ DBQ20060329020010603/29/06 02:00:31  5-MIN KDBQ 290800Z AUTO 00000KT 4SM BR CLR 01/M01 A3022 800 85 -600 000/00 RMK AO2 TSNO
94908KDBQ DBQ20060329020510903/29/06 02:05:31  5-MIN KDBQ 290805Z AUTO 00000KT 4SM BR FEW031 01/M01 A3022 800 89 -600 000/00 RMK AO2 TSNO
94908KDBQ DBQ20060329021010903/29/06 02:10:31  5-MIN KDBQ 290810Z AUTO 00000KT 4SM BR SCT031 01/M01 A3022 800 85 -600 000/00 RMK AO2 TSNO
94908KDBQ DBQ20060329021510903/29/06 02:15:31  5-MIN KDBQ 290815Z AUTO 00000KT 4SM BR SCT031 01/M01 A3022 800 89 -700 000/00 RMK AO2 TSNO
94908KDBQ DBQ20060329022010903/29/06 02:20:31  5-MIN KDBQ 290820Z AUTO 00000KT 4SM BR BKN031 01/M01 A3022 810 89 -700 000/00 RMK AO2 TSNO
94908KDBQ DBQ20060329022510903/29/06 02:25:31  5-MIN KDBQ 290825Z AUTO 00000KT 4SM BR BKN031 01/M01 A3022 810 92 -700 000/00 RMK AO2 TSNO
94908KDBQ DBQ20060329023010903/29/06 02:30:31  5-MIN KDBQ 290830Z AUTO 00000KT 4SM BR OVC031 01/M01 A3022 810 89 -600 000/00 RMK AO2 TSNO
94908KDBQ DBQ20060329023510903/29/06 02:35:31  5-MIN KDBQ 290835Z AUTO 00000KT 4SM BR OVC031 01/M01 A3022 810 89 -600 000/00 RMK AO2 TSNO
94908KDBQ DBQ20060329024010803/29/06 02:40:31  5-MIN KDBQ 290840Z AUTO 00000KT 4SM BR OVC031 02/00 A3021 810 89 -500 000/00 RMK AO2 TSNO
94908KDBQ DBQ20060329024510803/29/06 02:45:31  5-MIN KDBQ 290845Z AUTO 00000KT 4SM BR OVC031 02/00 A3021 810 89 -500 000/00 RMK AO2 TSNO
94908KDBQ DBQ20060329025013103/29/06 02:50:31  5-MIN KDBQ 290850Z AUTO 00000KT 4SM BR OVC031 01/00 A3021 810 92 -600 000/00 RMK AO2 SLP241 T00110000 50001 TSNO
94908KDBQ DBQ20060329025513103/29/06 02:55:31  5-MIN KDBQ 290855Z AUTO 00000KT 4SM BR OVC031 02/00 A3021 810 89 -500 000/00 RMK AO2 SLP240 T00170000 56002 TSNO
94908KDBQ DBQ20060329030010803/29/06 03:00:31  5-MIN KDBQ 290900Z AUTO 00000KT 4SM BR OVC031 02/00 A3021 810 89 -500 000/00 RMK AO2 TSNO
94908KDBQ DBQ20060329030510803/29/06 03:05:31  5-MIN KDBQ 290905Z AUTO 23003KT 4SM BR OVC031 02/00 A3021 810 89 -500 230/03 RMK AO2 TSNO
94908KDBQ DBQ20060329031010803/29/06 03:10:31  5-MIN KDBQ 290910Z AUTO 22003KT 3SM BR OVC031 01/00 A3021 810 92 -600 220/03 RMK AO2 TSNO
94908KDBQ DBQ20060329031510803/29/06 03:15:31  5-MIN KDBQ 290915Z AUTO 00000KT 3SM BR OVC031 02/00 A3021 810 89 -500 000/00 RMK AO2 TSNO
94908KDBQ DBQ20060329032010803/29/06 03:20:31  5-MIN KDBQ 290920Z AUTO 00000KT 3SM BR OVC031 02/01 A3021 810 92 -500 000/00 RMK AO2 TSNO
94908KDBQ DBQ20060329032510803/29/06 03:25:31  5-MIN KDBQ 290925Z AUTO 00000KT 3SM BR OVC031 02/01 A3021 810 92 -500 000/00 RMK AO2 TSNO
94908KDBQ DBQ20060329033010803/29/06 03:30:31  5-MIN KDBQ 290930Z AUTO 00000KT 4SM BR OVC031 02/01 A3021 810 92 -500 000/00 RMK AO2 TSNO
94908KDBQ DBQ20060329033510803/29/06 03:35:31  5-MIN KDBQ 290935Z AUTO 00000KT 4SM BR OVC029 02/01 A3021 810 92 -500 000/00 RMK AO2 TSNO
94908KDBQ DBQ20060329034010803/29/06 03:40:31  5-MIN KDBQ 290940Z AUTO 20003KT 4SM BR OVC029 02/01 A3021 810 92 -500 200/03 RMK AO2 TSNO
94908KDBQ DBQ20060329034510803/29/06 03:45:31  5-MIN KDBQ 290945Z AUTO 18004KT 4SM BR OVC029 02/01 A3021 810 92 -500 180/04 RMK AO2 TSNO
94908KDBQ DBQ20060329035012503/29/06 03:50:31  5-MIN KDBQ 290950Z AUTO 20004KT 4SM BR OVC029 02/01 A3021 810 89 -500 200/04 RMK AO2 SLP240 T00220006 TSNO
94908KDBQ DBQ20060329035512503/29/06 03:55:31  5-MIN KDBQ 290955Z AUTO 19004KT 4SM BR OVC029 02/01 A3021 810 92 -500 190/04 RMK AO2 SLP240 T00170006 TSNO
94908KDBQ DBQ20060329040010803/29/06 04:00:31  5-MIN KDBQ 291000Z AUTO 20003KT 4SM BR OVC029 02/01 A3021 810 89 -500 200/03 RMK AO2 TSNO
94908KDBQ DBQ20060329040510803/29/06 04:05:31  5-MIN KDBQ 291005Z AUTO 19003KT 4SM BR OVC029 03/01 A3022 810 89 -400 190/03 RMK AO2 TSNO
94908KDBQ DBQ20060329041010803/29/06 04:10:31  5-MIN KDBQ 291010Z AUTO 20003KT 4SM BR OVC029 03/01 A3022 800 89 -400 200/03 RMK AO2 TSNO
94908KDBQ DBQ20060329041510803/29/06 04:15:31  5-MIN KDBQ 291015Z AUTO 20005KT 4SM BR OVC029 03/01 A3022 800 89 -400 200/05 RMK AO2 TSNO
94908KDBQ DBQ20060329042010803/29/06 04:20:31  5-MIN KDBQ 291020Z AUTO 00000KT 4SM BR OVC027 02/01 A3022 800 92 -500 000/00 RMK AO2 TSNO
94908KDBQ DBQ20060329042510803/29/06 04:25:31  5-MIN KDBQ 291025Z AUTO 00000KT 4SM BR OVC027 02/01 A3022 800 92 -500 000/00 RMK AO2 TSNO
94908KDBQ DBQ20060329043010803/29/06 04:30:31  5-MIN KDBQ 291030Z AUTO 00000KT 4SM BR OVC027 03/01 A3022 800 89 -400 000/00 RMK AO2 TSNO
94908KDBQ DBQ20060329043510803/29/06 04:35:31  5-MIN KDBQ 291035Z AUTO 00000KT 4SM BR OVC027 03/01 A3022 810 89 -400 000/00 RMK AO2 TSNO
94908KDBQ DBQ20060329044010803/29/06 04:40:31  5-MIN KDBQ 291040Z AUTO 00000KT 4SM BR OVC027 03/01 A3022 800 89 -400 000/00 RMK AO2 TSNO
94908KDBQ DBQ20060329044510803/29/06 04:45:31  5-MIN KDBQ 291045Z AUTO 18003KT 4SM BR OVC025 03/01 A3022 800 89 -400 180/03 RMK AO2 TSNO
94908KDBQ DBQ20060329045012503/29/06 04:50:31  5-MIN KDBQ 291050Z AUTO 19003KT 4SM BR OVC025 03/02 A3022 800 92 -400 190/03 RMK AO2 SLP240 T00280017 TSNO
94908KDBQ DBQ20060329045512503/29/06 04:55:31  5-MIN KDBQ 291055Z AUTO 00000KT 4SM BR OVC025 03/02 A3022 800 92 -400 000/00 RMK AO2 SLP241 T00280017 TSNO
94908KDBQ DBQ20060329050010803/29/06 05:00:31  5-MIN KDBQ 291100Z AUTO 00000KT 4SM BR OVC025 03/01 A3022 800 89 -400 000/00 RMK AO2 TSNO
94908KDBQ DBQ20060329050510803/29/06 05:05:31  5-MIN KDBQ 291105Z AUTO 00000KT 4SM BR OVC025 02/01 A3022 800 92 -500 000/00 RMK AO2 TSNO
94908KDBQ DBQ20060329051010803/29/06 05:10:31  5-MIN KDBQ 291110Z AUTO 20003KT 4SM BR OVC025 03/01 A3022 800 89 -400 200/03 RMK AO2 TSNO
94908KDBQ DBQ20060329051510803/29/06 05:15:31  5-MIN KDBQ 291115Z AUTO 19003KT 4SM BR OVC025 03/01 A3022 800 89 -400 190/03 RMK AO2 TSNO
94908KDBQ DBQ20060329052010803/29/06 05:20:31  5-MIN KDBQ 291120Z AUTO 22003KT 4SM BR OVC025 03/02 A3022 800 92 -400 220/03 RMK AO2 TSNO
94908KDBQ DBQ20060329052510803/29/06 05:25:31  5-MIN KDBQ 291125Z AUTO 20003KT 4SM BR OVC025 03/01 A3022 800 89 -400 200/03 RMK AO2 TSNO
94908KDBQ DBQ20060329053010803/29/06 05:30:31  5-MIN KDBQ 291130Z AUTO 21004KT 4SM BR OVC025 03/02 A3023 800 92 -400 200/04 RMK AO2 TSNO
94908KDBQ DBQ20060329053510803/29/06 05:35:31  5-MIN KDBQ 291135Z AUTO 21004KT 4SM BR OVC025 03/02 A3022 800 92 -400 210/04 RMK AO2 TSNO
94908KDBQ DBQ20060329054010803/29/06 05:40:31  5-MIN KDBQ 291140Z AUTO 20003KT 4SM BR OVC025 03/02 A3023 800 92 -400 200/03 RMK AO2 TSNO
94908KDBQ DBQ20060329054510803/29/06 05:45:31  5-MIN KDBQ 291145Z AUTO 19005KT 4SM BR OVC025 03/02 A3022 800 92 -400 190/05 RMK AO2 TSNO
94908KDBQ DBQ20060329055014303/29/06 05:50:31  5-MIN KDBQ 291150Z AUTO 19004KT 4SM BR OVC025 03/02 A3022 800 89 -300 190/04 RMK AO2 SLP242 T00330017 10033 20000 56002 TSNO
94908KDBQ DBQ20060329055514303/29/06 05:55:31  5-MIN KDBQ 291155Z AUTO 19004KT 4SM BR OVC025 03/02 A3023 800 89 -300 190/04 RMK AO2 SLP243 T00330017 10033 20000 53004 TSNO
94908KDBQ DBQ20060329060009803/29/06 06:00:31  5-MIN KDBQ 291200Z 20004KT 4SM BR OVC025 03/02 A3023 790 89 -300 200/04 RMK AO2
94908KDBQ DBQ20060329060509803/29/06 06:05:31  5-MIN KDBQ 291205Z 21004KT 3SM BR OVC023 03/02 A3023 790 89 -300 210/04 RMK AO2
94908KDBQ DBQ20060329061009803/29/06 06:10:31  5-MIN KDBQ 291210Z 20003KT 3SM BR OVC023 03/02 A3023 790 89 -300 200/03 RMK AO2
94908KDBQ DBQ20060329061510203/29/06 06:15:31  5-MIN KDBQ 291215Z 20003KT 2 1/2SM BR OVC023 03/02 A3023 790 89 -300 200/03 RMK AO2
94908KDBQ DBQ20060329062010203/29/06 06:20:31  5-MIN KDBQ 291220Z 21003KT 2 1/2SM BR OVC023 03/02 A3023 790 89 -300 200/03 RMK AO2
94908KDBQ DBQ20060329062510203/29/06 06:25:31  5-MIN KDBQ 291225Z 21003KT 2 1/2SM BR OVC023 03/02 A3023 790 89 -300 210/03 RMK AO2
94908KDBQ DBQ20060329063010203/29/06 06:30:31  5-MIN KDBQ 291230Z 19003KT 2 1/2SM BR OVC023 03/02 A3023 790 92 -300 190/03 RMK AO2
94908KDBQ DBQ20060329063510203/29/06 06:35:31  5-MIN KDBQ 291235Z 19003KT 2 1/2SM BR OVC023 03/02 A3023 790 92 -300 190/03 RMK AO2
94908KDBQ DBQ20060329064010203/29/06 06:40:31  5-MIN KDBQ 291240Z 19004KT 2 1/2SM BR OVC023 03/02 A3024 790 92 -300 180/04 RMK AO2
94908KDBQ DBQ20060329064510203/29/06 06:45:31  5-MIN KDBQ 291245Z 19005KT 2 1/2SM BR OVC023 04/02 A3024 790 89 -300 190/05 RMK AO2
94908KDBQ DBQ20060329065009803/29/06 06:50:31  5-MIN KDBQ 291250Z 20006KT 3SM BR OVC023 04/02 A3024 790 89 -300 200/06 RMK AO2
94908KDBQ DBQ20060329065511503/29/06 06:55:31  5-MIN KDBQ 291255Z 19005KT 3SM BR OVC023 04/02 A3024 790 89 -300 190/05 RMK AO2 SLP247 T00390022
94908KDBQ DBQ20060329070009803/29/06 07:00:31  5-MIN KDBQ 291300Z 18006KT 3SM BR OVC023 04/02 A3024 790 89 -300 180/06 RMK AO2
94908KDBQ DBQ20060329070509803/29/06 07:05:31  5-MIN KDBQ 291305Z 18006KT 3SM BR OVC021 04/02 A3024 790 89 -300 180/06 RMK AO2
94908KDBQ DBQ20060329071009803/29/06 07:10:31  5-MIN KDBQ 291310Z 18006KT 3SM BR OVC021 04/02 A3024 790 85 -200 180/06 RMK AO2
94908KDBQ DBQ20060329071509803/29/06 07:15:31  5-MIN KDBQ 291315Z 19006KT 3SM BR OVC021 04/02 A3024 790 85 -200 190/06 RMK AO2
94908KDBQ DBQ20060329072009803/29/06 07:20:31  5-MIN KDBQ 291320Z 18006KT 3SM BR OVC021 04/02 A3023 790 85 -200 180/06 RMK AO2
94908KDBQ DBQ20060329072509803/29/06 07:25:31  5-MIN KDBQ 291325Z 18006KT 3SM BR OVC021 04/02 A3023 790 85 -200 180/06 RMK AO2
94908KDBQ DBQ20060329073009803/29/06 07:30:31  5-MIN KDBQ 291330Z 17006KT 3SM BR OVC021 04/02 A3023 790 85 -200 170/06 RMK AO2
94908KDBQ DBQ20060329073509803/29/06 07:35:31  5-MIN KDBQ 291335Z 18006KT 3SM BR OVC021 04/02 A3024 790 85 -200 180/06 RMK AO2
94908KDBQ DBQ20060329074009803/29/06 07:40:31  5-MIN KDBQ 291340Z 17007KT 4SM BR OVC021 04/02 A3023 790 85 -200 170/07 RMK AO2
94908KDBQ DBQ20060329074509803/29/06 07:45:31  5-MIN KDBQ 291345Z 17007KT 4SM HZ OVC021 05/02 A3023 790 82 -100 170/07 RMK AO2
94908KDBQ DBQ20060329075011503/29/06 07:50:31  5-MIN KDBQ 291350Z 18009KT 4SM HZ OVC021 05/02 A3023 790 82 -100 180/09 RMK AO2 SLP246 T00500022
94908KDBQ DBQ20060329075511503/29/06 07:55:31  5-MIN KDBQ 291355Z 18008KT 4SM HZ OVC021 05/02 A3023 790 82 -100 180/08 RMK AO2 SLP246 T00500022
94908KDBQ DBQ20060329080009803/29/06 08:00:31  5-MIN KDBQ 291400Z 17007KT 4SM HZ OVC021 05/02 A3024 790 82 -100 170/07 RMK AO2
94908KDBQ DBQ20060329080509803/29/06 08:05:31  5-MIN KDBQ 291405Z 17007KT 4SM BR OVC021 05/03 A3024 790 85 -100 170/07 RMK AO2
94908KDBQ DBQ20060329081009803/29/06 08:10:31  5-MIN KDBQ 291410Z 17007KT 4SM HZ OVC021 05/02 A3024 790 82 -100 170/07 RMK AO2
94908KDBQ DBQ20060329081509803/29/06 08:15:31  5-MIN KDBQ 291415Z 18007KT 4SM BR OVC021 05/03 A3024 790 85 -100 170/07 RMK AO2
94908KDBQ DBQ20060329082009803/29/06 08:20:31  5-MIN KDBQ 291420Z 18009KT 4SM HZ OVC021 06/02 A3024 780 79 -100 180/09 RMK AO2
94908KDBQ DBQ20060329082509803/29/06 08:25:31  5-MIN KDBQ 291425Z 17008KT 4SM HZ OVC021 06/02 A3024 780 79 -100 170/08 RMK AO2
94908KDBQ DBQ20060329083009803/29/06 08:30:31  5-MIN KDBQ 291430Z 18009KT 4SM HZ OVC021 06/02 A3024 780 79 -100 180/09 RMK AO2
94908KDBQ DBQ20060329083509803/29/06 08:35:31  5-MIN KDBQ 291435Z 18010KT 4SM HZ OVC021 06/02 A3024 790 79 -100 170/10 RMK AO2
94908KDBQ DBQ20060329084009803/29/06 08:40:31  5-MIN KDBQ 291440Z 18009KT 4SM HZ OVC021 06/02 A3024 790 79 -100 180/09 RMK AO2
94908KDBQ DBQ20060329084509803/29/06 08:45:31  5-MIN KDBQ 291445Z 18010KT 4SM HZ OVC021 06/02 A3024 790 79 -100 180/10 RMK AO2
94908KDBQ DBQ20060329085012103/29/06 08:50:31  5-MIN KDBQ 291450Z 18009KT 4SM HZ OVC021 06/02 A3024 790 79 -100 180/09 RMK AO2 SLP247 T00560022 53004
94908KDBQ DBQ20060329085511803/29/06 08:55:31  5-MIN KDBQ 291455Z 19010KT 5SM HZ OVC021 06/02 A3024 780 76 0 180/10 RMK AO2 SLP248 T00610022 51005
94908KDBQ DBQ20060329090009503/29/06 09:00:31  5-MIN KDBQ 291500Z 18011KT 5SM HZ OVC021 06/02 A3024 780 76 0 180/11 RMK AO2
94908KDBQ DBQ20060329090509503/29/06 09:05:31  5-MIN KDBQ 291505Z 19013KT 5SM HZ OVC021 06/02 A3024 780 76 0 190/13 RMK AO2
94908KDBQ DBQ20060329091009503/29/06 09:10:31  5-MIN KDBQ 291510Z 19013KT 5SM HZ OVC019 06/02 A3024 780 76 0 190/13 RMK AO2
94908KDBQ DBQ20060329091509503/29/06 09:15:31  5-MIN KDBQ 291515Z 18012KT 5SM HZ OVC019 06/02 A3024 780 76 0 180/12 RMK AO2
94908KDBQ DBQ20060329092009503/29/06 09:20:31  5-MIN KDBQ 291520Z 19010KT 5SM HZ OVC019 06/02 A3024 780 76 0 190/10 RMK AO2
94908KDBQ DBQ20060329092509503/29/06 09:25:31  5-MIN KDBQ 291525Z 19014KT 5SM HZ OVC019 06/02 A3024 780 76 0 190/14 RMK AO2
94908KDBQ DBQ20060329093009503/29/06 09:30:31  5-MIN KDBQ 291530Z 18012KT 5SM HZ OVC019 06/02 A3024 780 76 0 180/12 RMK AO2
94908KDBQ DBQ20060329093509503/29/06 09:35:31  5-MIN KDBQ 291535Z 18014KT 5SM HZ OVC019 06/02 A3024 780 76 0 180/14 RMK AO2
94908KDBQ DBQ20060329094009503/29/06 09:40:31  5-MIN KDBQ 291540Z 18012KT 5SM HZ OVC019 06/02 A3024 780 76 0 180/12 RMK AO2
94908KDBQ DBQ20060329094509503/29/06 09:45:31  5-MIN KDBQ 291545Z 18014KT 6SM HZ OVC019 06/02 A3024 780 76 0 180/14 RMK AO2
94908KDBQ DBQ20060329095011203/29/06 09:50:31  5-MIN KDBQ 291550Z 18013KT 5SM HZ OVC019 06/02 A3024 780 76 0 180/13 RMK AO2 SLP249 T00610022
94908KDBQ DBQ20060329095511203/29/06 09:55:31  5-MIN KDBQ 291555Z 18013KT 5SM HZ OVC019 06/02 A3024 780 76 0 180/13 RMK AO2 SLP247 T00610022
94908KDBQ DBQ20060329100009503/29/06 10:00:31  5-MIN KDBQ 291600Z 18011KT 5SM HZ OVC019 06/02 A3024 790 76 0 180/11 RMK AO2
94908KDBQ DBQ20060329100509503/29/06 10:05:31  5-MIN KDBQ 291605Z 18012KT 5SM HZ OVC019 06/02 A3024 790 76 0 180/12 RMK AO2
94908KDBQ DBQ20060329101009503/29/06 10:10:31  5-MIN KDBQ 291610Z 19012KT 6SM HZ OVC019 06/02 A3024 790 76 0 190/12 RMK AO2
94908KDBQ DBQ20060329101509503/29/06 10:15:31  5-MIN KDBQ 291615Z 18014KT 6SM HZ OVC019 06/02 A3023 790 76 0 180/14 RMK AO2
94908KDBQ DBQ20060329102009503/29/06 10:20:31  5-MIN KDBQ 291620Z 19013KT 6SM HZ OVC019 06/02 A3023 790 76 0 190/13 RMK AO2
94908KDBQ DBQ20060329102509203/29/06 10:25:31  5-MIN KDBQ 291625Z 18013KT 7SM OVC019 06/02 A3023 790 76 0 180/13 RMK AO2
94908KDBQ DBQ20060329103009503/29/06 10:30:31  5-MIN KDBQ 291630Z 19013KT 6SM HZ OVC017 06/02 A3023 790 76 0 180/13 RMK AO2
94908KDBQ DBQ20060329103509503/29/06 10:35:31  5-MIN KDBQ 291635Z 18013KT 6SM HZ OVC017 06/02 A3023 790 76 0 170/13 RMK AO2
94908KDBQ DBQ20060329104009503/29/06 10:40:31  5-MIN KDBQ 291640Z 19014KT 6SM HZ OVC017 07/02 A3023 790 73 0 190/14 RMK AO2
94908KDBQ DBQ20060329104509503/29/06 10:45:31  5-MIN KDBQ 291645Z 19014KT 6SM HZ OVC017 07/02 A3023 790 73 0 190/14 RMK AO2
94908KDBQ DBQ20060329105011203/29/06 10:50:31  5-MIN KDBQ 291650Z 19013KT 6SM HZ OVC017 07/02 A3023 790 73 0 190/13 RMK AO2 SLP246 T00670022
94908KDBQ DBQ20060329105511203/29/06 10:55:31  5-MIN KDBQ 291655Z 18013KT 6SM HZ OVC017 07/02 A3023 790 73 0 180/13 RMK AO2 SLP245 T00670022
94908KDBQ DBQ20060329110009503/29/06 11:00:31  5-MIN KDBQ 291700Z 17015KT 5SM HZ OVC017 07/02 A3023 790 73 0 170/15 RMK AO2
94908KDBQ DBQ20060329110509503/29/06 11:05:31  5-MIN KDBQ 291705Z 19015KT 6SM HZ OVC017 07/03 A3023 790 76 0 180/15 RMK AO2
94908KDBQ DBQ20060329111010103/29/06 11:10:31  5-MIN KDBQ 291710Z 17015G20KT 6SM HZ OVC017 07/02 A3023 790 73 0 170/15G20 RMK AO2
94908KDBQ DBQ20060329111510103/29/06 11:15:31  5-MIN KDBQ 291715Z 17014G20KT 6SM HZ OVC017 07/02 A3023 800 73 0 170/14G20 RMK AO2
94908KDBQ DBQ20060329112010103/29/06 11:20:31  5-MIN KDBQ 291720Z 18014G20KT 6SM HZ OVC017 07/02 A3023 800 73 0 180/14G20 RMK AO2
94908KDBQ DBQ20060329112509503/29/06 11:25:31  5-MIN KDBQ 291725Z 18013KT 6SM HZ OVC017 07/03 A3022 800 76 0 180/13 RMK AO2
94908KDBQ DBQ20060329113009503/29/06 11:30:31  5-MIN KDBQ 291730Z 18016KT 6SM HZ OVC017 07/03 A3023 800 76 0 180/16 RMK AO2
94908KDBQ DBQ20060329113509503/29/06 11:35:31  5-MIN KDBQ 291735Z 18014KT 6SM HZ OVC017 07/02 A3022 800 73 0 180/14 RMK AO2
94908KDBQ DBQ20060329114009503/29/06 11:40:31  5-MIN KDBQ 291740Z 18014KT 6SM HZ OVC019 07/02 A3022 800 73 0 180/14 RMK AO2
94908KDBQ DBQ20060329114509503/29/06 11:45:31  5-MIN KDBQ 291745Z 18015KT 6SM HZ OVC019 07/02 A3022 800 73 0 170/15 RMK AO2
94908KDBQ DBQ20060329115013003/29/06 11:50:31  5-MIN KDBQ 291750Z 17014KT 6SM HZ OVC019 07/02 A3022 800 73 0 170/14 RMK AO2 SLP241 T00670022 10067 20033 51005
94908KDBQ DBQ20060329115513203/29/06 11:55:31  5-MIN KDBQ 291755Z 17013KT 6SM HZ OVC019 07/03 A3022 800 73 100 170/13 RMK AO2 SLP240 T00720028 10072 20033 58007
94908KDBQ DBQ20060329120009703/29/06 12:00:31  5-MIN KDBQ 291800Z 18014KT 6SM HZ OVC019 07/02 A3021 810 70 100 180/14 RMK AO2
94908KDBQ DBQ20060329120509703/29/06 12:05:31  5-MIN KDBQ 291805Z 17013KT 6SM HZ OVC019 07/03 A3021 810 73 100 170/13 RMK AO2
94908KDBQ DBQ20060329121010303/29/06 12:10:31  5-MIN KDBQ 291810Z 18014G19KT 6SM HZ OVC019 08/03 A3021 810 70 200 180/14G19 RMK AO2
94908KDBQ DBQ20060329121510303/29/06 12:15:31  5-MIN KDBQ 291815Z 17011G19KT 6SM HZ OVC019 08/03 A3021 810 70 200 170/11G19 RMK AO2
94908KDBQ DBQ20060329122009703/29/06 12:20:31  5-MIN KDBQ 291820Z 17017KT 6SM HZ OVC019 07/03 A3021 810 73 100 170/17 RMK AO2
94908KDBQ DBQ20060329122509403/29/06 12:25:31  5-MIN KDBQ 291825Z 18014KT 7SM OVC019 08/03 A3021 820 70 200 180/14 RMK AO2
94908KDBQ DBQ20060329123009403/29/06 12:30:31  5-MIN KDBQ 291830Z 17014KT 7SM OVC021 08/03 A3020 820 70 200 170/14 RMK AO2
94908KDBQ DBQ20060329123509403/29/06 12:35:31  5-MIN KDBQ 291835Z 17013KT 7SM OVC021 08/03 A3020 820 70 200 170/13 RMK AO2
94908KDBQ DBQ20060329124009403/29/06 12:40:31  5-MIN KDBQ 291840Z 16013KT 7SM OVC021 07/03 A3020 820 73 100 160/13 RMK AO2
94908KDBQ DBQ20060329124509403/29/06 12:45:31  5-MIN KDBQ 291845Z 16014KT 7SM OVC021 08/03 A3020 820 70 200 160/14 RMK AO2
94908KDBQ DBQ20060329125011103/29/06 12:50:31  5-MIN KDBQ 291850Z 18012KT 7SM OVC021 08/03 A3020 820 70 200 170/12 RMK AO2 SLP234 T00780028
94908KDBQ DBQ20060329125511103/29/06 12:55:31  5-MIN KDBQ 291855Z 18014KT 7SM OVC021 08/03 A3020 830 70 200 170/14 RMK AO2 SLP234 T00780028
94908KDBQ DBQ20060329130009403/29/06 13:00:31  5-MIN KDBQ 291900Z 18015KT 7SM OVC021 08/03 A3020 820 70 200 180/15 RMK AO2
94908KDBQ DBQ20060329130509403/29/06 13:05:31  5-MIN KDBQ 291905Z 18013KT 7SM OVC021 08/03 A3019 830 70 200 170/13 RMK AO2
94908KDBQ DBQ20060329131009403/29/06 13:10:31  5-MIN KDBQ 291910Z 17015KT 7SM OVC021 08/03 A3019 830 70 200 170/15 RMK AO2
94908KDBQ DBQ20060329131509403/29/06 13:15:31  5-MIN KDBQ 291915Z 17015KT 7SM OVC021 08/03 A3019 830 68 300 170/15 RMK AO2
94908KDBQ DBQ20060329132009403/29/06 13:20:31  5-MIN KDBQ 291920Z 17014KT 7SM OVC021 08/03 A3019 830 68 300 170/14 RMK AO2
94908KDBQ DBQ20060329132509403/29/06 13:25:31  5-MIN KDBQ 291925Z 16013KT 7SM OVC021 08/03 A3019 830 70 200 160/13 RMK AO2
94908KDBQ DBQ20060329133009403/29/06 13:30:31  5-MIN KDBQ 291930Z 17014KT 7SM OVC021 08/03 A3018 840 70 200 160/14 RMK AO2
94908KDBQ DBQ20060329133509403/29/06 13:35:31  5-MIN KDBQ 291935Z 16014KT 7SM OVC021 08/03 A3018 840 70 200 160/14 RMK AO2
94908KDBQ DBQ20060329134009403/29/06 13:40:31  5-MIN KDBQ 291940Z 17012KT 7SM OVC021 08/03 A3018 840 70 200 170/12 RMK AO2
94908KDBQ DBQ20060329134509403/29/06 13:45:31  5-MIN KDBQ 291945Z 16012KT 7SM OVC021 08/03 A3018 840 70 300 160/12 RMK AO2
94908KDBQ DBQ20060329135011403/29/06 13:50:31  5-MIN KDBQ 291950Z 15014KT 6SM HZ OVC021 08/03 A3017 850 70 300 150/14 RMK AO2 SLP226 T00830033
94908KDBQ DBQ20060329135511403/29/06 13:55:31  5-MIN KDBQ 291955Z 15014KT 6SM HZ OVC021 08/03 A3017 850 70 300 150/14 RMK AO2 SLP225 T00830033
94908KDBQ DBQ20060329140009703/29/06 14:00:31  5-MIN KDBQ 292000Z 16013KT 6SM HZ OVC021 08/03 A3017 850 70 300 150/13 RMK AO2
94908KDBQ DBQ20060329140509703/29/06 14:05:31  5-MIN KDBQ 292005Z 17013KT 6SM HZ OVC021 08/03 A3017 850 70 300 170/13 RMK AO2
94908KDBQ DBQ20060329141009703/29/06 14:10:31  5-MIN KDBQ 292010Z 17013KT 6SM HZ OVC021 08/03 A3017 850 70 300 170/13 RMK AO2
94908KDBQ DBQ20060329141510303/29/06 14:15:31  5-MIN KDBQ 292015Z 17013G19KT 6SM HZ OVC021 08/03 A3016 850 70 300 170/13G19 RMK AO2
94908KDBQ DBQ20060329142009703/29/06 14:20:31  5-MIN KDBQ 292020Z 16013KT 6SM HZ OVC021 08/03 A3016 850 70 300 160/13 RMK AO2
94908KDBQ DBQ20060329142509703/29/06 14:25:31  5-MIN KDBQ 292025Z 15014KT 6SM HZ OVC021 08/03 A3016 860 70 300 150/14 RMK AO2
94908KDBQ DBQ20060329143009703/29/06 14:30:31  5-MIN KDBQ 292030Z 16011KT 6SM HZ OVC021 08/03 A3016 860 70 300 160/11 RMK AO2
94908KDBQ DBQ20060329143509703/29/06 14:35:31  5-MIN KDBQ 292035Z 17013KT 6SM HZ OVC021 08/03 A3015 860 70 300 170/13 RMK AO2
94908KDBQ DBQ20060329144009703/29/06 14:40:31  5-MIN KDBQ 292040Z 15012KT 6SM HZ OVC021 08/03 A3016 860 70 300 150/12 RMK AO2
94908KDBQ DBQ20060329144509703/29/06 14:45:31  5-MIN KDBQ 292045Z 17012KT 6SM HZ OVC021 08/03 A3016 860 70 300 170/12 RMK AO2
94908KDBQ DBQ20060329145012003/29/06 14:50:31  5-MIN KDBQ 292050Z 17012KT 6SM HZ OVC021 08/03 A3016 860 70 300 160/12 RMK AO2 SLP220 T00830033 58007
94908KDBQ DBQ20060329145512003/29/06 14:55:31  5-MIN KDBQ 292055Z 17013KT 6SM HZ OVC021 08/03 A3015 860 70 300 170/13 RMK AO2 SLP220 T00830033 56021
94908KDBQ DBQ20060329150009703/29/06 15:00:31  5-MIN KDBQ 292100Z 16012KT 6SM HZ OVC021 08/03 A3015 860 70 300 150/12 RMK AO2
94908KDBQ DBQ20060329150509703/29/06 15:05:31  5-MIN KDBQ 292105Z 15015KT 6SM HZ OVC021 08/03 A3015 870 70 300 150/15 RMK AO2
94908KDBQ DBQ20060329151009703/29/06 15:10:31  5-MIN KDBQ 292110Z 15012KT 6SM HZ OVC021 08/03 A3015 870 70 300 150/12 RMK AO2
94908KDBQ DBQ20060329151509703/29/06 15:15:31  5-MIN KDBQ 292115Z 16013KT 6SM HZ OVC021 08/03 A3015 870 70 300 160/13 RMK AO2
94908KDBQ DBQ20060329152009703/29/06 15:20:31  5-MIN KDBQ 292120Z 16013KT 6SM HZ OVC021 08/03 A3015 870 70 300 160/13 RMK AO2
94908KDBQ DBQ20060329152509703/29/06 15:25:31  5-MIN KDBQ 292125Z 17014KT 6SM HZ OVC021 08/03 A3015 870 70 300 170/14 RMK AO2
94908KDBQ DBQ20060329153009403/29/06 15:30:31  5-MIN KDBQ 292130Z 18015KT 7SM OVC021 08/03 A3015 870 70 300 180/15 RMK AO2
94908KDBQ DBQ20060329153509403/29/06 15:35:31  5-MIN KDBQ 292135Z 17012KT 7SM OVC021 08/03 A3015 870 70 300 170/12 RMK AO2
94908KDBQ DBQ20060329154009403/29/06 15:40:31  5-MIN KDBQ 292140Z 15014KT 7SM OVC021 08/03 A3015 870 70 300 150/14 RMK AO2
94908KDBQ DBQ20060329154509403/29/06 15:45:31  5-MIN KDBQ 292145Z 16015KT 7SM OVC021 08/03 A3014 870 70 300 150/15 RMK AO2
94908KDBQ DBQ20060329155011103/29/06 15:50:31  5-MIN KDBQ 292150Z 16013KT 7SM OVC021 08/03 A3014 870 70 300 160/13 RMK AO2 SLP214 T00830033
94908KDBQ DBQ20060329155511103/29/06 15:55:31  5-MIN KDBQ 292155Z 16013KT 7SM OVC021 08/03 A3014 880 70 300 150/13 RMK AO2 SLP214 T00830033
94908KDBQ DBQ20060329160009403/29/06 16:00:31  5-MIN KDBQ 292200Z 16014KT 7SM OVC021 09/03 A3014 880 68 400 160/14 RMK AO2
94908KDBQ DBQ20060329160509403/29/06 16:05:31  5-MIN KDBQ 292205Z 17015KT 7SM OVC021 08/03 A3014 880 70 300 170/15 RMK AO2
94908KDBQ DBQ20060329161009403/29/06 16:10:31  5-MIN KDBQ 292210Z 18013KT 7SM OVC021 08/03 A3014 880 70 300 180/13 RMK AO2
94908KDBQ DBQ20060329161509403/29/06 16:15:31  5-MIN KDBQ 292215Z 16013KT 7SM OVC021 08/03 A3014 880 70 300 150/13 RMK AO2
94908KDBQ DBQ20060329162009703/29/06 16:20:31  5-MIN KDBQ 292220Z 16013KT 6SM HZ OVC021 08/03 A3014 880 70 300 160/13 RMK AO2
94908KDBQ DBQ20060329162509403/29/06 16:25:31  5-MIN KDBQ 292225Z 17013KT 7SM OVC021 09/03 A3013 880 68 400 170/13 RMK AO2
94908KDBQ DBQ20060329163010003/29/06 16:30:31  5-MIN KDBQ 292230Z 16013G19KT 7SM OVC021 08/03 A3013 880 70 300 160/13G19 RMK AO2
94908KDBQ DBQ20060329163509403/29/06 16:35:31  5-MIN KDBQ 292235Z 15014KT 7SM OVC021 08/03 A3013 880 70 300 150/14 RMK AO2
94908KDBQ DBQ20060329164010303/29/06 16:40:31  5-MIN KDBQ 292240Z 16014G20KT 6SM HZ OVC021 08/03 A3013 890 70 300 160/14G20 RMK AO2
94908KDBQ DBQ20060329164510003/29/06 16:45:31  5-MIN KDBQ 292245Z 15013G20KT 7SM OVC021 08/03 A3013 890 70 300 150/13G20 RMK AO2
94908KDBQ DBQ20060329165011403/29/06 16:50:31  5-MIN KDBQ 292250Z 16013KT 6SM HZ OVC021 08/03 A3013 890 70 300 160/13 RMK AO2 SLP210 T00830033
94908KDBQ DBQ20060329165511403/29/06 16:55:31  5-MIN KDBQ 292255Z 16014KT 6SM HZ OVC023 08/03 A3013 890 70 300 160/14 RMK AO2 SLP210 T00830033
94908KDBQ DBQ20060329170009703/29/06 17:00:31  5-MIN KDBQ 292300Z 16014KT 6SM HZ OVC023 08/03 A3013 890 70 300 160/14 RMK AO2
94908KDBQ DBQ20060329170509703/29/06 17:05:31  5-MIN KDBQ 292305Z 15014KT 6SM HZ OVC023 08/03 A3012 890 70 300 150/14 RMK AO2
94908KDBQ DBQ20060329171009703/29/06 17:10:31  5-MIN KDBQ 292310Z 16013KT 6SM HZ OVC023 08/03 A3012 890 70 300 160/13 RMK AO2
94908KDBQ DBQ20060329171509703/29/06 17:15:31  5-MIN KDBQ 292315Z 17013KT 6SM HZ OVC023 08/03 A3012 890 70 300 170/13 RMK AO2
94908KDBQ DBQ20060329172009703/29/06 17:20:31  5-MIN KDBQ 292320Z 16012KT 6SM HZ OVC023 08/03 A3012 900 70 400 160/12 RMK AO2
94908KDBQ DBQ20060329172509703/29/06 17:25:31  5-MIN KDBQ 292325Z 15014KT 6SM HZ OVC023 08/03 A3012 900 70 400 150/14 RMK AO2
94908KDBQ DBQ20060329173009703/29/06 17:30:31  5-MIN KDBQ 292330Z 17012KT 6SM HZ OVC023 08/03 A3012 900 73 300 170/12 RMK AO2
94908KDBQ DBQ20060329173509703/29/06 17:35:31  5-MIN KDBQ 292335Z 17012KT 6SM HZ OVC023 08/03 A3011 900 70 300 160/12 RMK AO2
94908KDBQ DBQ20060329174009703/29/06 17:40:31  5-MIN KDBQ 292340Z 16011KT 6SM HZ OVC023 08/03 A3011 900 73 300 160/11 RMK AO2
94908KDBQ DBQ20060329174509703/29/06 17:45:31  5-MIN KDBQ 292345Z 16014KT 6SM HZ OVC023 08/03 A3011 900 73 300 150/14 RMK AO2
94908KDBQ DBQ20060329175013203/29/06 17:50:31  5-MIN KDBQ 292350Z 16014KT 6SM HZ OVC023 08/03 A3011 900 73 300 160/14 RMK AO2 SLP203 T00780033 10089 20072 56021
94908KDBQ DBQ20060329175513203/29/06 17:55:31  5-MIN KDBQ 292355Z 17013KT 6SM HZ OVC023 08/03 A3011 900 70 300 170/13 RMK AO2 SLP204 T00780028 10089 20072 58014
94908KDBQ DBQ20060329180009703/29/06 18:00:31  5-MIN KDBQ 300000Z 16011KT 6SM HZ OVC023 08/03 A3011 900 73 300 160/11 RMK AO2
94908KDBQ DBQ20060329180509703/29/06 18:05:31  5-MIN KDBQ 300005Z 15013KT 6SM HZ OVC023 08/03 A3011 910 73 300 150/13 RMK AO2
94908KDBQ DBQ20060329181009703/29/06 18:10:31  5-MIN KDBQ 300010Z 16011KT 5SM HZ OVC023 08/03 A3011 900 73 300 160/11 RMK AO2
94908KDBQ DBQ20060329181509703/29/06 18:15:31  5-MIN KDBQ 300015Z 16012KT 5SM HZ OVC023 08/03 A3011 900 73 300 160/12 RMK AO2
94908KDBQ DBQ20060329182009703/29/06 18:20:31  5-MIN KDBQ 300020Z 16014KT 5SM HZ OVC023 08/03 A3011 900 70 300 160/14 RMK AO2
94908KDBQ DBQ20060329182509703/29/06 18:25:31  5-MIN KDBQ 300025Z 17012KT 6SM HZ OVC023 07/03 A3011 900 73 200 170/12 RMK AO2
94908KDBQ DBQ20060329183009703/29/06 18:30:31  5-MIN KDBQ 300030Z 16010KT 6SM HZ OVC023 07/03 A3011 900 73 200 160/10 RMK AO2
94908KDBQ DBQ20060329183509703/29/06 18:35:31  5-MIN KDBQ 300035Z 16009KT 5SM HZ OVC023 07/03 A3011 910 73 200 160/09 RMK AO2
94908KDBQ DBQ20060329184009703/29/06 18:40:31  5-MIN KDBQ 300040Z 16009KT 6SM HZ OVC023 07/03 A3011 910 76 200 160/09 RMK AO2
94908KDBQ DBQ20060329184509703/29/06 18:45:31  5-MIN KDBQ 300045Z 16008KT 6SM HZ OVC023 07/03 A3011 900 76 200 150/08 RMK AO2
94908KDBQ DBQ20060329185011403/29/06 18:50:31  5-MIN KDBQ 300050Z 15009KT 6SM HZ OVC023 07/03 A3011 910 76 200 150/09 RMK AO2 SLP202 T00670028
94908KDBQ DBQ20060329185511403/29/06 18:55:31  5-MIN KDBQ 300055Z 15009KT 5SM HZ BKN023 07/03 A3010 910 76 200 150/09 RMK AO2 SLP200 T00670028
94908KDBQ DBQ20060329190010403/29/06 19:00:31  5-MIN KDBQ 300100Z 15010KT 5SM HZ BKN023 BKN120 07/03 A3010 910 76 200 150/10 RMK AO2
94908KDBQ DBQ20060329190510403/29/06 19:05:31  5-MIN KDBQ 300105Z 15008KT 6SM HZ BKN023 BKN120 07/03 A3010 910 76 200 150/08 RMK AO2
94908KDBQ DBQ20060329191010403/29/06 19:10:31  5-MIN KDBQ 300110Z 15008KT 6SM HZ BKN023 BKN120 07/03 A3010 910 76 200 150/08 RMK AO2
94908KDBQ DBQ20060329191510403/29/06 19:15:31  5-MIN KDBQ 300115Z 14009KT 5SM HZ BKN023 BKN120 07/03 A3010 910 76 200 140/09 RMK AO2
94908KDBQ DBQ20060329192010403/29/06 19:20:31  5-MIN KDBQ 300120Z 14009KT 5SM HZ BKN023 BKN120 07/03 A3010 910 76 200 140/09 RMK AO2
94908KDBQ DBQ20060329192510403/29/06 19:25:31  5-MIN KDBQ 300125Z 15009KT 5SM HZ SCT023 BKN120 07/03 A3010 910 76 200 140/09 RMK AO2
94908KDBQ DBQ20060329193010403/29/06 19:30:31  5-MIN KDBQ 300130Z 14011KT 5SM HZ SCT023 BKN120 07/03 A3010 910 76 200 140/11 RMK AO2
94908KDBQ DBQ20060329193510403/29/06 19:35:31  5-MIN KDBQ 300135Z 14010KT 5SM HZ SCT023 BKN120 07/03 A3010 910 79 200 140/10 RMK AO2
94908KDBQ DBQ20060329194010403/29/06 19:40:31  5-MIN KDBQ 300140Z 14008KT 5SM HZ FEW023 SCT120 07/03 A3010 910 79 200 140/08 RMK AO2
94908KDBQ DBQ20060329194509703/29/06 19:45:31  5-MIN KDBQ 300145Z 15009KT 5SM HZ SCT120 07/03 A3010 910 79 200 140/09 RMK AO2
94908KDBQ DBQ20060329195011403/29/06 19:50:31  5-MIN KDBQ 300150Z 15009KT 5SM HZ SCT120 07/03 A3010 910 76 200 140/09 RMK AO2 SLP199 T00720033
94908KDBQ DBQ20060329195511403/29/06 19:55:31  5-MIN KDBQ 300155Z 15010KT 5SM HZ BKN120 07/03 A3010 910 76 200 140/10 RMK AO2 SLP199 T00720033
94908KDBQ DBQ20060329200009703/29/06 20:00:31  5-MIN KDBQ 300200Z 14011KT 5SM HZ BKN120 07/03 A3010 920 79 200 140/11 RMK AO2
94908KDBQ DBQ20060329200510703/29/06 20:05:31  5-MIN KDBQ 300205Z AUTO 15010KT 5SM HZ BKN120 07/03 A3010 920 79 200 140/10 RMK AO2 TSNO
94908KDBQ DBQ20060329201010703/29/06 20:10:31  5-MIN KDBQ 300210Z AUTO 15010KT 5SM HZ BKN120 07/03 A3009 920 79 200 150/10 RMK AO2 TSNO
94908KDBQ DBQ20060329201510703/29/06 20:15:31  5-MIN KDBQ 300215Z AUTO 15011KT 5SM HZ BKN120 07/03 A3010 910 79 200 140/11 RMK AO2 TSNO
94908KDBQ DBQ20060329202010703/29/06 20:20:31  5-MIN KDBQ 300220Z AUTO 15009KT 5SM HZ BKN120 07/03 A3010 910 76 200 150/09 RMK AO2 TSNO
94908KDBQ DBQ20060329202510703/29/06 20:25:31  5-MIN KDBQ 300225Z AUTO 15010KT 5SM HZ SCT120 07/03 A3010 910 76 200 150/10 RMK AO2 TSNO
94908KDBQ DBQ20060329203010703/29/06 20:30:31  5-MIN KDBQ 300230Z AUTO 15011KT 5SM HZ SCT120 07/03 A3010 910 76 200 150/11 RMK AO2 TSNO
94908KDBQ DBQ20060329203510703/29/06 20:35:31  5-MIN KDBQ 300235Z AUTO 15011KT 5SM HZ FEW120 07/03 A3010 910 76 200 150/11 RMK AO2 TSNO
94908KDBQ DBQ20060329204010703/29/06 20:40:31  5-MIN KDBQ 300240Z AUTO 15009KT 5SM HZ FEW120 07/03 A3010 910 76 200 150/09 RMK AO2 TSNO
94908KDBQ DBQ20060329204510403/29/06 20:45:31  5-MIN KDBQ 300245Z AUTO 15011KT 5SM HZ CLR 07/03 A3010 910 76 200 150/11 RMK AO2 TSNO
94908KDBQ DBQ20060329205012703/29/06 20:50:31  5-MIN KDBQ 300250Z AUTO 15011KT 5SM HZ CLR 07/03 A3010 910 76 200 150/11 RMK AO2 SLP200 T00670028 58014 TSNO
94908KDBQ DBQ20060329205512703/29/06 20:55:31  5-MIN KDBQ 300255Z AUTO 15011KT 5SM HZ CLR 07/03 A3010 910 76 200 150/11 RMK AO2 SLP199 T00670028 56004 TSNO
94908KDBQ DBQ20060329210010403/29/06 21:00:31  5-MIN KDBQ 300300Z AUTO 15011KT 5SM HZ CLR 06/03 A3010 920 79 100 150/11 RMK AO2 TSNO
94908KDBQ DBQ20060329210510403/29/06 21:05:31  5-MIN KDBQ 300305Z AUTO 15010KT 5SM HZ CLR 06/03 A3010 920 79 100 150/10 RMK AO2 TSNO
94908KDBQ DBQ20060329211010403/29/06 21:10:31  5-MIN KDBQ 300310Z AUTO 15012KT 5SM HZ CLR 06/03 A3009 920 79 100 150/12 RMK AO2 TSNO
94908KDBQ DBQ20060329211510403/29/06 21:15:31  5-MIN KDBQ 300315Z AUTO 15012KT 5SM HZ CLR 06/03 A3009 920 79 100 150/12 RMK AO2 TSNO
94908KDBQ DBQ20060329212010403/29/06 21:20:31  5-MIN KDBQ 300320Z AUTO 15014KT 5SM HZ CLR 06/03 A3009 920 79 100 150/14 RMK AO2 TSNO
94908KDBQ DBQ20060329212510403/29/06 21:25:31  5-MIN KDBQ 300325Z AUTO 15012KT 5SM HZ CLR 06/03 A3009 920 79 100 150/12 RMK AO2 TSNO
94908KDBQ DBQ20060329213010403/29/06 21:30:31  5-MIN KDBQ 300330Z AUTO 15012KT 5SM HZ CLR 06/03 A3009 920 79 100 150/12 RMK AO2 TSNO
94908KDBQ DBQ20060329213510403/29/06 21:35:31  5-MIN KDBQ 300335Z AUTO 15013KT 5SM HZ CLR 06/03 A3009 920 79 100 150/13 RMK AO2 TSNO
94908KDBQ DBQ20060329214010403/29/06 21:40:31  5-MIN KDBQ 300340Z AUTO 15014KT 5SM HZ CLR 06/03 A3009 930 79 100 150/14 RMK AO2 TSNO
94908KDBQ DBQ20060329214510403/29/06 21:45:31  5-MIN KDBQ 300345Z AUTO 15014KT 5SM HZ CLR 06/03 A3008 930 79 100 150/14 RMK AO2 TSNO
94908KDBQ DBQ20060329215012103/29/06 21:50:31  5-MIN KDBQ 300350Z AUTO 15014KT 5SM HZ CLR 06/03 A3008 930 79 100 150/14 RMK AO2 SLP193 T00610028 TSNO
94908KDBQ DBQ20060329215512103/29/06 21:55:31  5-MIN KDBQ 300355Z AUTO 15014KT 5SM HZ CLR 06/03 A3008 930 79 100 150/14 RMK AO2 SLP193 T00610028 TSNO
94908KDBQ DBQ20060329220010403/29/06 22:00:31  5-MIN KDBQ 300400Z AUTO 16013KT 5SM HZ CLR 06/03 A3008 930 79 100 150/13 RMK AO2 TSNO
94908KDBQ DBQ20060329220510403/29/06 22:05:31  5-MIN KDBQ 300405Z AUTO 16013KT 5SM HZ CLR 06/03 A3008 930 82 100 150/13 RMK AO2 TSNO
94908KDBQ DBQ20060329221010403/29/06 22:10:31  5-MIN KDBQ 300410Z AUTO 16013KT 5SM HZ CLR 06/03 A3008 930 82 100 160/13 RMK AO2 TSNO
94908KDBQ DBQ20060329221510403/29/06 22:15:31  5-MIN KDBQ 300415Z AUTO 16015KT 5SM HZ CLR 06/03 A3008 930 82 100 160/15 RMK AO2 TSNO
94908KDBQ DBQ20060329222010403/29/06 22:20:31  5-MIN KDBQ 300420Z AUTO 16015KT 5SM HZ CLR 07/03 A3008 930 79 200 160/15 RMK AO2 TSNO
94908KDBQ DBQ20060329222510403/29/06 22:25:31  5-MIN KDBQ 300425Z AUTO 16014KT 5SM HZ CLR 06/03 A3008 930 82 100 160/14 RMK AO2 TSNO
94908KDBQ DBQ20060329223010403/29/06 22:30:31  5-MIN KDBQ 300430Z AUTO 16015KT 5SM HZ CLR 06/03 A3007 940 82 100 160/15 RMK AO2 TSNO
94908KDBQ DBQ20060329223510403/29/06 22:35:31  5-MIN KDBQ 300435Z AUTO 16016KT 5SM HZ CLR 07/03 A3007 940 79 200 160/16 RMK AO2 TSNO
94908KDBQ DBQ20060329224010403/29/06 22:40:31  5-MIN KDBQ 300440Z AUTO 16015KT 5SM HZ CLR 07/03 A3007 940 79 200 160/15 RMK AO2 TSNO
94908KDBQ DBQ20060329224510403/29/06 22:45:31  5-MIN KDBQ 300445Z AUTO 16016KT 5SM HZ CLR 07/03 A3007 940 79 200 160/16 RMK AO2 TSNO
94908KDBQ DBQ20060329225012103/29/06 22:50:31  5-MIN KDBQ 300450Z AUTO 16016KT 5SM HZ CLR 07/03 A3007 940 79 200 160/16 RMK AO2 SLP189 T00670033 TSNO
94908KDBQ DBQ20060329225512103/29/06 22:55:31  5-MIN KDBQ 300455Z AUTO 16016KT 5SM HZ CLR 07/03 A3007 940 79 200 160/16 RMK AO2 SLP189 T00670033 TSNO
94908KDBQ DBQ20060329230010403/29/06 23:00:31  5-MIN KDBQ 300500Z AUTO 16015KT 5SM HZ CLR 06/03 A3007 940 82 100 160/15 RMK AO2 TSNO
94908KDBQ DBQ20060329230510403/29/06 23:05:31  5-MIN KDBQ 300505Z AUTO 16016KT 5SM HZ CLR 06/03 A3006 950 82 100 160/16 RMK AO2 TSNO
94908KDBQ DBQ20060329231010403/29/06 23:10:31  5-MIN KDBQ 300510Z AUTO 16016KT 5SM HZ CLR 06/03 A3006 950 82 100 160/16 RMK AO2 TSNO
94908KDBQ DBQ20060329231510403/29/06 23:15:31  5-MIN KDBQ 300515Z AUTO 16016KT 5SM HZ CLR 07/03 A3006 950 79 200 160/16 RMK AO2 TSNO
94908KDBQ DBQ20060329232010403/29/06 23:20:31  5-MIN KDBQ 300520Z AUTO 16015KT 5SM HZ CLR 07/03 A3006 950 79 200 160/15 RMK AO2 TSNO
94908KDBQ DBQ20060329232510403/29/06 23:25:31  5-MIN KDBQ 300525Z AUTO 16016KT 5SM HZ CLR 07/03 A3006 950 79 200 160/16 RMK AO2 TSNO
94908KDBQ DBQ20060329233010403/29/06 23:30:31  5-MIN KDBQ 300530Z AUTO 16015KT 5SM HZ CLR 07/03 A3006 950 79 200 160/15 RMK AO2 TSNO
94908KDBQ DBQ20060329233510403/29/06 23:35:31  5-MIN KDBQ 300535Z AUTO 17015KT 5SM HZ CLR 07/03 A3006 950 79 200 160/15 RMK AO2 TSNO
94908KDBQ DBQ20060329234010403/29/06 23:40:31  5-MIN KDBQ 300540Z AUTO 17015KT 5SM HZ CLR 07/03 A3006 950 79 200 160/15 RMK AO2 TSNO
94908KDBQ DBQ20060329234510403/29/06 23:45:31  5-MIN KDBQ 300545Z AUTO 17015KT 5SM HZ CLR 06/03 A3006 950 82 200 170/15 RMK AO2 TSNO
94908KDBQ DBQ20060329235014903/29/06 23:50:31  5-MIN KDBQ 300550Z AUTO 17014KT 5SM HZ CLR 06/03 A3006 950 82 200 170/14 RMK AO2 SLP185 T00610033 10078 20061 400890000 56004 TSNO
94908KDBQ DBQ20060329235514903/29/06 23:55:31  5-MIN KDBQ 300555Z AUTO 17014KT 5SM HZ CLR 06/03 A3005 960 82 200 170/14 RMK AO2 SLP184 T00610033 10078 20061 400890000 56015 TSNO
94908KDBQ DBQ20060330000010403/30/06 00:00:38  5-MIN KDBQ 300600Z AUTO 17014KT 5SM HZ CLR 06/03 A3005 960 82 200 170/14 RMK AO2 TSNO
94908KDBQ DBQ20060330000510403/30/06 00:05:31  5-MIN KDBQ 300605Z AUTO 17013KT 5SM HZ CLR 06/03 A3005 960 82 200 170/13 RMK AO2 TSNO
94908KDBQ DBQ20060330001010403/30/06 00:10:31  5-MIN KDBQ 300610Z AUTO 17013KT 5SM HZ CLR 06/03 A3005 960 82 200 170/13 RMK AO2 TSNO
94908KDBQ DBQ20060330001510403/30/06 00:15:31  5-MIN KDBQ 300615Z AUTO 17013KT 5SM HZ CLR 06/03 A3006 950 82 200 170/13 RMK AO2 TSNO
94908KDBQ DBQ20060330002010403/30/06 00:20:31  5-MIN KDBQ 300620Z AUTO 17012KT 5SM HZ CLR 06/03 A3006 950 82 100 170/12 RMK AO2 TSNO
94908KDBQ DBQ20060330002510403/30/06 00:25:31  5-MIN KDBQ 300625Z AUTO 17013KT 5SM HZ CLR 06/03 A3006 950 82 200 170/13 RMK AO2 TSNO
94908KDBQ DBQ20060330003010403/30/06 00:30:31  5-MIN KDBQ 300630Z AUTO 17013KT 5SM HZ CLR 06/03 A3006 950 82 100 170/13 RMK AO2 TSNO
94908KDBQ DBQ20060330003510403/30/06 00:35:31  5-MIN KDBQ 300635Z AUTO 17013KT 5SM HZ CLR 06/03 A3006 950 82 100 170/13 RMK AO2 TSNO
94908KDBQ DBQ20060330004010403/30/06 00:40:31  5-MIN KDBQ 300640Z AUTO 17012KT 5SM HZ CLR 06/03 A3006 950 82 100 170/12 RMK AO2 TSNO
94908KDBQ DBQ20060330004510403/30/06 00:45:31  5-MIN KDBQ 300645Z AUTO 17011KT 5SM HZ CLR 06/03 A3006 950 82 100 170/11 RMK AO2 TSNO
94908KDBQ DBQ20060330005012103/30/06 00:50:31  5-MIN KDBQ 300650Z AUTO 17012KT 5SM HZ CLR 06/03 A3006 950 82 100 170/12 RMK AO2 SLP185 T00610033 TSNO
94908KDBQ DBQ20060330005512103/30/06 00:55:31  5-MIN KDBQ 300655Z AUTO 17013KT 5SM HZ CLR 06/03 A3006 950 82 100 160/13 RMK AO2 SLP185 T00610033 TSNO
94908KDBQ DBQ20060330010010403/30/06 01:00:31  5-MIN KDBQ 300700Z AUTO 17012KT 5SM HZ CLR 06/03 A3006 950 82 100 170/12 RMK AO2 TSNO
94908KDBQ DBQ20060330010510403/30/06 01:05:31  5-MIN KDBQ 300705Z AUTO 16012KT 5SM BR CLR 06/03 A3006 950 85 100 160/12 RMK AO2 TSNO
94908KDBQ DBQ20060330011010403/30/06 01:10:31  5-MIN KDBQ 300710Z AUTO 16012KT 5SM BR CLR 06/03 A3006 950 85 100 160/12 RMK AO2 TSNO
94908KDBQ DBQ20060330011510403/30/06 01:15:31  5-MIN KDBQ 300715Z AUTO 16012KT 5SM BR CLR 06/03 A3006 950 85 100 160/12 RMK AO2 TSNO
94908KDBQ DBQ20060330012010403/30/06 01:20:31  5-MIN KDBQ 300720Z AUTO 16011KT 4SM BR CLR 06/03 A3005 960 85 100 160/11 RMK AO2 TSNO
94908KDBQ DBQ20060330012510403/30/06 01:25:31  5-MIN KDBQ 300725Z AUTO 16011KT 4SM BR CLR 06/03 A3005 960 85 100 160/11 RMK AO2 TSNO
94908KDBQ DBQ20060330013010403/30/06 01:30:31  5-MIN KDBQ 300730Z AUTO 15012KT 4SM BR CLR 06/03 A3004 960 85 100 150/12 RMK AO2 TSNO
94908KDBQ DBQ20060330013510403/30/06 01:35:31  5-MIN KDBQ 300735Z AUTO 15012KT 4SM BR CLR 06/03 A3004 960 85 100 150/12 RMK AO2 TSNO
94908KDBQ DBQ20060330014010403/30/06 01:40:31  5-MIN KDBQ 300740Z AUTO 15012KT 4SM BR CLR 06/03 A3004 970 85 100 150/12 RMK AO2 TSNO
94908KDBQ DBQ20060330014510203/30/06 01:45:31  5-MIN KDBQ 300745Z AUTO 15011KT 4SM BR CLR 05/03 A3004 970 89 0 150/11 RMK AO2 TSNO
94908KDBQ DBQ20060330015011903/30/06 01:50:31  5-MIN KDBQ 300750Z AUTO 15011KT 4SM BR CLR 05/03 A3004 970 89 0 150/11 RMK AO2 SLP179 T00500033 TSNO
94908KDBQ DBQ20060330015511903/30/06 01:55:31  5-MIN KDBQ 300755Z AUTO 15012KT 4SM BR CLR 05/03 A3004 970 89 0 150/12 RMK AO2 SLP178 T00500033 TSNO
94908KDBQ DBQ20060330020010203/30/06 02:00:31  5-MIN KDBQ 300800Z AUTO 15010KT 4SM BR CLR 05/03 A3003 970 89 0 150/10 RMK AO2 TSNO
94908KDBQ DBQ20060330020510203/30/06 02:05:31  5-MIN KDBQ 300805Z AUTO 15010KT 4SM BR CLR 05/03 A3003 980 89 0 150/10 RMK AO2 TSNO
94908KDBQ DBQ20060330021010203/30/06 02:10:31  5-MIN KDBQ 300810Z AUTO 15011KT 4SM BR CLR 05/03 A3003 980 89 0 150/11 RMK AO2 TSNO
94908KDBQ DBQ20060330021510403/30/06 02:15:31  5-MIN KDBQ 300815Z AUTO 15010KT 4SM BR CLR 05/03 A3002 980 89 100 150/10 RMK AO2 TSNO
94908KDBQ DBQ20060330022010403/30/06 02:20:31  5-MIN KDBQ 300820Z AUTO 15012KT 4SM BR CLR 05/03 A3002 990 89 100 150/12 RMK AO2 TSNO
94908KDBQ DBQ20060330022510403/30/06 02:25:31  5-MIN KDBQ 300825Z AUTO 15014KT 4SM BR CLR 05/03 A3002 990 89 100 150/14 RMK AO2 TSNO
94908KDBQ DBQ20060330023010403/30/06 02:30:31  5-MIN KDBQ 300830Z AUTO 15014KT 4SM BR CLR 05/03 A3001 990 89 100 150/14 RMK AO2 TSNO
94908KDBQ DBQ20060330023510403/30/06 02:35:31  5-MIN KDBQ 300835Z AUTO 15013KT 4SM BR CLR 05/03 A3001 990 89 100 150/13 RMK AO2 TSNO
94908KDBQ DBQ20060330024010503/30/06 02:40:31  5-MIN KDBQ 300840Z AUTO 15013KT 4SM BR CLR 05/03 A3001 1000 89 100 150/13 RMK AO2 TSNO
94908KDBQ DBQ20060330024510503/30/06 02:45:31  5-MIN KDBQ 300845Z AUTO 15014KT 4SM BR CLR 05/03 A3001 1000 89 100 150/14 RMK AO2 TSNO
94908KDBQ DBQ20060330025012803/30/06 02:50:31  5-MIN KDBQ 300850Z AUTO 15014KT 4SM BR CLR 05/03 A3001 1000 89 100 150/14 RMK AO2 SLP168 T00500033 56015 TSNO
94908KDBQ DBQ20060330025512803/30/06 02:55:31  5-MIN KDBQ 300855Z AUTO 15014KT 4SM BR CLR 05/03 A3000 1000 85 100 150/14 RMK AO2 SLP167 T00500028 58016 TSNO
94908KDBQ DBQ20060330030010503/30/06 03:00:31  5-MIN KDBQ 300900Z AUTO 15012KT 4SM BR CLR 05/03 A3000 1000 85 100 150/12 RMK AO2 TSNO
94908KDBQ DBQ20060330030510503/30/06 03:05:31  5-MIN KDBQ 300905Z AUTO 15013KT 4SM BR CLR 05/03 A3000 1000 85 100 150/13 RMK AO2 TSNO
94908KDBQ DBQ20060330031010503/30/06 03:10:31  5-MIN KDBQ 300910Z AUTO 16012KT 4SM BR CLR 05/03 A3000 1000 85 100 150/12 RMK AO2 TSNO
94908KDBQ DBQ20060330031510303/30/06 03:15:31  5-MIN KDBQ 300915Z AUTO 16012KT 4SM BR CLR 04/03 A3000 1000 89 0 160/12 RMK AO2 TSNO
94908KDBQ DBQ20060330032010303/30/06 03:20:31  5-MIN KDBQ 300920Z AUTO 16012KT 3SM BR CLR 04/03 A3000 1000 89 0 160/12 RMK AO2 TSNO
94908KDBQ DBQ20060330032510303/30/06 03:25:31  5-MIN KDBQ 300925Z AUTO 16012KT 4SM BR CLR 04/03 A3000 1000 89 0 150/12 RMK AO2 TSNO
94908KDBQ DBQ20060330033010303/30/06 03:30:31  5-MIN KDBQ 300930Z AUTO 15013KT 4SM BR CLR 04/03 A3000 1010 89 0 150/13 RMK AO2 TSNO
94908KDBQ DBQ20060330033510303/30/06 03:35:31  5-MIN KDBQ 300935Z AUTO 16012KT 4SM BR CLR 04/03 A3000 1010 89 0 160/12 RMK AO2 TSNO
94908KDBQ DBQ20060330034010503/30/06 03:40:31  5-MIN KDBQ 300940Z AUTO 16012KT 4SM BR CLR 05/03 A2999 1010 85 100 160/12 RMK AO2 TSNO
94908KDBQ DBQ20060330034510503/30/06 03:45:31  5-MIN KDBQ 300945Z AUTO 16011KT 4SM BR CLR 05/03 A2999 1010 85 100 160/11 RMK AO2 TSNO
94908KDBQ DBQ20060330035012203/30/06 03:50:31  5-MIN KDBQ 300950Z AUTO 15010KT 4SM BR CLR 05/03 A2999 1010 85 100 150/10 RMK AO2 SLP164 T00500028 TSNO
94908KDBQ DBQ20060330035512003/30/06 03:55:31  5-MIN KDBQ 300955Z AUTO 16010KT 4SM BR CLR 04/03 A2999 1010 89 0 160/10 RMK AO2 SLP164 T00440028 TSNO
94908KDBQ DBQ20060330040010303/30/06 04:00:31  5-MIN KDBQ 301000Z AUTO 16009KT 4SM BR CLR 04/03 A2999 1010 89 0 160/09 RMK AO2 TSNO
94908KDBQ DBQ20060330040510503/30/06 04:05:31  5-MIN KDBQ 301005Z AUTO 16011KT 4SM BR CLR 05/03 A2999 1010 85 100 160/11 RMK AO2 TSNO
94908KDBQ DBQ20060330041010303/30/06 04:10:31  5-MIN KDBQ 301010Z AUTO 16010KT 4SM BR CLR 04/03 A2999 1020 89 0 160/10 RMK AO2 TSNO
94908KDBQ DBQ20060330041510303/30/06 04:15:31  5-MIN KDBQ 301015Z AUTO 17009KT 4SM BR CLR 04/03 A2999 1020 89 0 170/09 RMK AO2 TSNO
94908KDBQ DBQ20060330042010303/30/06 04:20:31  5-MIN KDBQ 301020Z AUTO 16008KT 4SM BR CLR 04/03 A2999 1020 89 0 160/08 RMK AO2 TSNO
94908KDBQ DBQ20060330042510303/30/06 04:25:31  5-MIN KDBQ 301025Z AUTO 17008KT 4SM BR CLR 04/03 A2999 1020 89 0 170/08 RMK AO2 TSNO
94908KDBQ DBQ20060330043010303/30/06 04:30:31  5-MIN KDBQ 301030Z AUTO 16011KT 4SM BR CLR 04/03 A2999 1020 89 0 160/11 RMK AO2 TSNO
94908KDBQ DBQ20060330043510303/30/06 04:35:31  5-MIN KDBQ 301035Z AUTO 17009KT 4SM BR CLR 04/03 A2999 1020 89 0 170/09 RMK AO2 TSNO
94908KDBQ DBQ20060330044010303/30/06 04:40:31  5-MIN KDBQ 301040Z AUTO 16011KT 4SM BR CLR 04/03 A2999 1020 89 0 160/11 RMK AO2 TSNO
94908KDBQ DBQ20060330044510303/30/06 04:45:31  5-MIN KDBQ 301045Z AUTO 16013KT 4SM BR CLR 04/03 A2998 1020 89 0 160/13 RMK AO2 TSNO
94908KDBQ DBQ20060330045012603/30/06 04:50:31  5-MIN KDBQ 301050Z AUTO 17011G19KT 4SM BR CLR 04/03 A2998 1020 89 0 160/11G19 RMK AO2 SLP160 T00440028 TSNO
94908KDBQ DBQ20060330045512603/30/06 04:55:31  5-MIN KDBQ 301055Z AUTO 15012G19KT 4SM BR CLR 04/03 A2998 1020 89 0 150/12G19 RMK AO2 SLP160 T00440028 TSNO
94908KDBQ DBQ20060330050010303/30/06 05:00:31  5-MIN KDBQ 301100Z AUTO 15012KT 4SM BR CLR 04/03 A2998 1020 89 0 150/12 RMK AO2 TSNO
94908KDBQ DBQ20060330050510303/30/06 05:05:31  5-MIN KDBQ 301105Z AUTO 16011KT 4SM BR CLR 04/03 A2998 1020 89 0 160/11 RMK AO2 TSNO
94908KDBQ DBQ20060330051010303/30/06 05:10:31  5-MIN KDBQ 301110Z AUTO 15010KT 4SM BR CLR 04/03 A2998 1020 89 0 150/10 RMK AO2 TSNO
94908KDBQ DBQ20060330051510303/30/06 05:15:31  5-MIN KDBQ 301115Z AUTO 16013KT 4SM BR CLR 04/03 A2998 1020 89 0 160/13 RMK AO2 TSNO
94908KDBQ DBQ20060330052010303/30/06 05:20:31  5-MIN KDBQ 301120Z AUTO 14014KT 4SM BR CLR 04/03 A2998 1030 89 0 140/14 RMK AO2 TSNO
94908KDBQ DBQ20060330052510303/30/06 05:25:31  5-MIN KDBQ 301125Z AUTO 15014KT 4SM BR CLR 04/03 A2998 1030 89 0 150/14 RMK AO2 TSNO
94908KDBQ DBQ20060330053010303/30/06 05:30:31  5-MIN KDBQ 301130Z AUTO 15013KT 4SM BR CLR 04/03 A2998 1020 89 0 150/13 RMK AO2 TSNO
94908KDBQ DBQ20060330053510303/30/06 05:35:31  5-MIN KDBQ 301135Z AUTO 16010KT 4SM BR CLR 04/03 A2998 1020 89 0 150/10 RMK AO2 TSNO
94908KDBQ DBQ20060330054010303/30/06 05:40:31  5-MIN KDBQ 301140Z AUTO 15012KT 4SM BR CLR 04/03 A2998 1020 89 0 150/12 RMK AO2 TSNO
94908KDBQ DBQ20060330054510903/30/06 05:45:31  5-MIN KDBQ 301145Z AUTO 15014G18KT 4SM BR CLR 04/03 A2997 1030 89 0 150/14G18 RMK AO2 TSNO
94908KDBQ DBQ20060330055014603/30/06 05:50:31  5-MIN KDBQ 301150Z AUTO 15017G21KT 3SM BR CLR 05/03 A2997 1030 85 100 150/17G21 RMK AO2 SLP156 T00500028 10061 20044 58016 TSNO
94908KDBQ DBQ20060330055514603/30/06 05:55:31  5-MIN KDBQ 301155Z AUTO 15016G21KT 3SM BR CLR 05/03 A2997 1030 85 100 140/16G21 RMK AO2 SLP155 T00500028 10061 20044 58012 TSNO
94908KDBQ DBQ20060330060010503/30/06 06:00:31  5-MIN KDBQ 301200Z 15016G21KT 2 1/2SM BR CLR 05/03 A2997 1030 85 100 150/16G21 RMK AO2
94908KDBQ DBQ20060330060509903/30/06 06:05:31  5-MIN KDBQ 301205Z 15016KT 2 1/2SM BR CLR 05/03 A2997 1030 85 100 150/16 RMK AO2
94908KDBQ DBQ20060330061010503/30/06 06:10:31  5-MIN KDBQ 301210Z 15014G22KT 2 1/2SM BR CLR 05/03 A2997 1030 85 100 150/14G22 RMK AO2
94908KDBQ DBQ20060330061510503/30/06 06:15:31  5-MIN KDBQ 301215Z 15015G22KT 2 1/2SM BR CLR 05/03 A2997 1040 85 100 150/15G22 RMK AO2
94908KDBQ DBQ20060330062009903/30/06 06:20:31  5-MIN KDBQ 301220Z 15015KT 2 1/2SM BR CLR 05/03 A2997 1030 85 100 150/15 RMK AO2
94908KDBQ DBQ20060330062509903/30/06 06:25:31  5-MIN KDBQ 301225Z 15016KT 2 1/2SM BR CLR 05/03 A2997 1040 85 100 150/16 RMK AO2
94908KDBQ DBQ20060330063009903/30/06 06:30:31  5-MIN KDBQ 301230Z 15015KT 2 1/2SM BR CLR 05/03 A2997 1040 85 100 150/15 RMK AO2
94908KDBQ DBQ20060330063509903/30/06 06:35:31  5-MIN KDBQ 301235Z 15015KT 2 1/2SM BR CLR 05/03 A2997 1040 85 100 150/15 RMK AO2
94908KDBQ DBQ20060330064009903/30/06 06:40:31  5-MIN KDBQ 301240Z 15015KT 2 1/2SM BR CLR 05/03 A2996 1040 85 100 150/15 RMK AO2
94908KDBQ DBQ20060330064509903/30/06 06:45:31  5-MIN KDBQ 301245Z 15016KT 2 1/2SM BR CLR 05/03 A2996 1040 89 100 150/16 RMK AO2
94908KDBQ DBQ20060330065011903/30/06 06:50:31  5-MIN KDBQ 301250Z 15017KT 2 1/2SM BR FEW120 06/03 A2996 1040 85 200 150/17 RMK AO2 SLP153 T00560033
94908KDBQ DBQ20060330065511903/30/06 06:55:31  5-MIN KDBQ 301255Z 15015KT 2 1/2SM BR FEW120 06/03 A2996 1040 85 200 150/15 RMK AO2 SLP154 T00560033
94908KDBQ DBQ20060330070010203/30/06 07:00:31  5-MIN KDBQ 301300Z 15016KT 2 1/2SM BR FEW120 06/03 A2997 1040 85 200 150/16 RMK AO2
94908KDBQ DBQ20060330070510203/30/06 07:05:31  5-MIN KDBQ 301305Z 15016KT 2 1/2SM BR FEW120 06/03 A2997 1040 85 200 150/16 RMK AO2
94908KDBQ DBQ20060330071010403/30/06 07:10:31  5-MIN KDBQ 301310Z 15016G22KT 3SM BR FEW120 06/03 A2997 1040 85 200 150/16G22 RMK AO2
94908KDBQ DBQ20060330071510403/30/06 07:15:31  5-MIN KDBQ 301315Z 15017G22KT 3SM BR FEW120 06/03 A2997 1040 85 200 150/17G22 RMK AO2
94908KDBQ DBQ20060330072009503/30/06 07:20:31  5-MIN KDBQ 301320Z 15016KT 3SM BR CLR 06/03 A2996 1040 85 200 150/16 RMK AO2
94908KDBQ DBQ20060330072509503/30/06 07:25:31  5-MIN KDBQ 301325Z 15016KT 3SM HZ CLR 06/03 A2997 1040 82 300 150/16 RMK AO2
94908KDBQ DBQ20060330073009503/30/06 07:30:31  5-MIN KDBQ 301330Z 15016KT 3SM BR CLR 06/04 A2997 1040 86 300 150/16 RMK AO2
94908KDBQ DBQ20060330073509503/30/06 07:35:31  5-MIN KDBQ 301335Z 16014KT 3SM BR CLR 06/04 A2997 1030 86 300 150/14 RMK AO2
94908KDBQ DBQ20060330074009503/30/06 07:40:31  5-MIN KDBQ 301340Z 16014KT 3SM BR CLR 06/04 A2997 1030 86 200 160/14 RMK AO2
94908KDBQ DBQ20060330074509803/30/06 07:45:31  5-MIN KDBQ 301345Z 16016KT 3SM HZ FEW055 07/04 A2997 1030 82 300 160/16 RMK AO2
94908KDBQ DBQ20060330075012103/30/06 07:50:31  5-MIN KDBQ 301350Z 16013G19KT 3SM HZ SCT055 07/04 A2997 1040 82 400 160/13G19 RMK AO2 SLP153 T00720044
94908KDBQ DBQ20060330075511503/30/06 07:55:31  5-MIN KDBQ 301355Z 16015KT 3SM HZ SCT055 07/04 A2996 1040 82 400 160/15 RMK AO2 SLP152 T00720044
94908KDBQ DBQ20060330080010403/30/06 08:00:31  5-MIN KDBQ 301400Z 16013G19KT 3SM HZ BKN050 07/04 A2996 1040 82 400 160/13G19 RMK AO2
94908KDBQ DBQ20060330080510403/30/06 08:05:31  5-MIN KDBQ 301405Z 16013G19KT 3SM HZ BKN055 08/04 A2996 1040 79 500 160/13G19 RMK AO2
94908KDBQ DBQ20060330081009803/30/06 08:10:31  5-MIN KDBQ 301410Z 17012KT 4SM HZ BKN055 08/04 A2996 1040 79 500 170/12 RMK AO2
94908KDBQ DBQ20060330081509803/30/06 08:15:31  5-MIN KDBQ 301415Z 17014KT 4SM HZ BKN055 08/04 A2996 1050 76 500 160/14 RMK AO2
94908KDBQ DBQ20060330082009803/30/06 08:20:31  5-MIN KDBQ 301420Z 17012KT 4SM HZ BKN055 08/05 A2996 1050 79 500 170/12 RMK AO2
94908KDBQ DBQ20060330082511103/30/06 08:25:31  5-MIN KDBQ 301425Z 16016G21KT 4SM HZ FEW049 BKN060 09/05 A2995 1050 74 700 160/16G21 RMK AO2
94908KDBQ DBQ20060330083011103/30/06 08:30:31  5-MIN KDBQ 301430Z 16017G22KT 4SM HZ FEW049 BKN060 09/05 A2995 1050 74 700 160/17G22 RMK AO2
94908KDBQ DBQ20060330083511103/30/06 08:35:31  5-MIN KDBQ 301435Z 16018G22KT 4SM HZ FEW049 BKN060 09/05 A2995 1050 74 700 160/18G22 RMK AO2
94908KDBQ DBQ20060330084011103/30/06 08:40:31  5-MIN KDBQ 301440Z 16018G22KT 4SM HZ FEW049 BKN060 09/04 A2995 1050 73 600 160/18G22 RMK AO2
94908KDBQ DBQ20060330084510503/30/06 08:45:31  5-MIN KDBQ 301445Z 16018KT 4SM HZ BKN055 BKN070 08/04 A2995 1050 76 500 160/18 RMK AO2
94908KDBQ DBQ20060330085012103/30/06 08:50:31  5-MIN KDBQ 301450Z 16015KT 4SM HZ BKN055 09/04 A2994 1060 73 600 150/15 RMK AO2 SLP144 T00890044 58012
94908KDBQ DBQ20060330085512103/30/06 08:55:31  5-MIN KDBQ 301455Z 16016KT 4SM HZ OVC060 09/05 A2994 1060 76 600 160/16 RMK AO2 SLP145 T00890050 58008
94908KDBQ DBQ20060330090009803/30/06 09:00:31  5-MIN KDBQ 301500Z 16017KT 4SM HZ BKN055 09/05 A2994 1060 74 700 160/17 RMK AO2
94908KDBQ DBQ20060330090510403/30/06 09:05:31  5-MIN KDBQ 301505Z 16018G23KT 5SM HZ BKN055 10/06 A2993 1070 74 800 160/18G23 RMK AO2
94908KDBQ DBQ20060330091010403/30/06 09:10:31  5-MIN KDBQ 301510Z 16020G24KT 5SM HZ BKN060 11/06 A2993 1070 71 800 160/20G24 RMK AO2
94908KDBQ DBQ20060330091510403/30/06 09:15:31  5-MIN KDBQ 301515Z 17016G24KT 5SM HZ BKN060 11/05 A2993 1070 68 800 170/16G24 RMK AO2
94908KDBQ DBQ20060330092010503/30/06 09:20:31  5-MIN KDBQ 301520Z 17018KT 5SM HZ BKN060 BKN070 10/05 A2994 1060 71 800 170/18 RMK AO2
94908KDBQ DBQ20060330092511103/30/06 09:25:31  5-MIN KDBQ 301525Z 16016G22KT 5SM HZ BKN055 BKN070 10/05 A2993 1070 71 800 160/16G22 RMK AO2
94908KDBQ DBQ20060330093010503/30/06 09:30:31  5-MIN KDBQ 301530Z 17018KT 5SM HZ BKN055 BKN070 10/05 A2994 1060 71 800 170/18 RMK AO2
94908KDBQ DBQ20060330093509803/30/06 09:35:31  5-MIN KDBQ 301535Z 17017KT 5SM HZ BKN055 11/05 A2994 1060 68 800 170/17 RMK AO2
94908KDBQ DBQ20060330094010503/30/06 09:40:31  5-MIN KDBQ 301540Z 17017KT 5SM HZ SCT050 BKN060 11/05 A2994 1060 68 800 170/17 RMK AO2
94908KDBQ DBQ20060330094510503/30/06 09:45:31  5-MIN KDBQ 301545Z 17016KT 6SM HZ SCT050 BKN060 11/05 A2994 1060 68 800 170/16 RMK AO2
94908KDBQ DBQ20060330095012903/30/06 09:50:31  5-MIN KDBQ 301550Z 16016KT 5SM HZ FEW036 BKN050 OVC060 11/05 A2994 1060 68 800 160/16 RMK AO2 SLP142 T01060050
94908KDBQ DBQ20060330095512903/30/06 09:55:31  5-MIN KDBQ 301555Z 17015KT 5SM HZ SCT036 BKN050 OVC060 10/05 A2994 1060 71 800 170/15 RMK AO2 SLP142 T01000050
94908KDBQ DBQ20060330100011203/30/06 10:00:31  5-MIN KDBQ 301600Z 17014KT 5SM HZ BKN036 BKN050 OVC065 10/06 A2994 1060 74 800 170/14 RMK AO2
94908KDBQ DBQ20060330100511203/30/06 10:05:31  5-MIN KDBQ 301605Z 17012KT 5SM HZ BKN036 BKN050 OVC065 11/06 A2994 1060 71 800 170/12 RMK AO2
94908KDBQ DBQ20060330101011803/30/06 10:10:31  5-MIN KDBQ 301610Z 17014KT 4SM -RA BKN036 OVC047 10/06 A2994 1060 74 800 170/14 RMK AO2 RAB06 P0000
94908KDBQ DBQ20060330101512503/30/06 10:15:31  5-MIN KDBQ 301615Z 16015KT 4SM -RA FEW022 BKN036 OVC047 10/06 A2994 1060 77 800 160/15 RMK AO2 RAB06 P0000
94908KDBQ DBQ20060330102013103/30/06 10:20:31  5-MIN KDBQ 301620Z 17014G19KT 4SM -RA FEW024 BKN036 OVC047 11/06 A2993 1070 74 800 160/14G19 RMK AO2 RAB06 P0000
94908KDBQ DBQ20060330102512403/30/06 10:25:31  5-MIN KDBQ 301625Z 16013KT 3SM RA FEW021 BKN036 OVC047 10/07 A2993 1070 80 800 160/13 RMK AO2 RAB06 P0001
94908KDBQ DBQ20060330103012503/30/06 10:30:31  5-MIN KDBQ 301630Z 16013KT 3SM -RA FEW023 BKN036 OVC047 10/07 A2993 1070 80 800 160/13 RMK AO2 RAB06 P0001
94908KDBQ DBQ20060330103513403/30/06 10:35:31  5-MIN KDBQ 301635Z 17014G20KT 2 1/2SM RA SCT023 BKN034 OVC047 10/07 A2993 1070 80 800 160/14G20 RMK AO2 RAB06 P0002
94908KDBQ DBQ20060330104013003/30/06 10:40:31  5-MIN KDBQ 301640Z 16015G21KT 2SM RA SCT023 BKN036 OVC047 10/07 A2993 1070 83 800 160/15G21 RMK AO2 RAB06 P0003
94908KDBQ DBQ20060330104512803/30/06 10:45:31  5-MIN KDBQ 301645Z 16014KT 2 1/2SM RA SCT023 BKN033 OVC040 10/07 A2992 1070 83 800 160/14 RMK AO2 RAB06 P0004
94908KDBQ DBQ20060330105014103/30/06 10:50:31  5-MIN KDBQ 301650Z 16015KT 2SM RA FEW023 BKN034 OVC043 10/07 A2992 1080 83 800 160/15 RMK AO2 RAB06 SLP138 P0006 T01000072
94908KDBQ DBQ20060330105514403/30/06 10:55:31  5-MIN KDBQ 301655Z 16014KT 2SM RA BR FEW023 BKN029 OVC037 09/07 A2992 1080 86 700 160/14 RMK AO2 RAB06 SLP137 P0007 T00940072
94908KDBQ DBQ20060330110012303/30/06 11:00:31  5-MIN KDBQ 301700Z 16014KT 2 1/2SM -RA FEW023 BKN033 OVC048 10/07 A2992 1080 83 800 160/14 RMK AO2 P0000
94908KDBQ DBQ20060330110512403/30/06 11:05:31  5-MIN KDBQ 301705Z 17013KT 4SM HZ FEW027 BKN043 OVC050 10/07 A2992 1080 83 800 160/13 RMK AO2 RAE04 P0000
94908KDBQ DBQ20060330111011903/30/06 11:10:31  5-MIN KDBQ 301710Z 16017KT 4SM -RA SCT029 BKN041 OVC050 10/07 A2991 1080 83 800 150/17 RMK AO2 P0000
94908KDBQ DBQ20060330111512903/30/06 11:15:31  5-MIN KDBQ 301715Z 16015G20KT 2 1/2SM -RA FEW027 BKN041 OVC050 10/07 A2991 1090 83 800 160/15G20 RMK AO2 P0000
94908KDBQ DBQ20060330112012403/30/06 11:20:31  5-MIN KDBQ 301720Z 15013G20KT 2SM RA FEW027 BKN042 OVC049 10/07 A2991 1090 83 800 150/13G20 RMK AO2 P0003
94908KDBQ DBQ20060330112512203/30/06 11:25:31  5-MIN KDBQ 301725Z 15014KT 2SM -RA BR FEW025 SCT035 OVC046 10/08 A2990 1090 86 800 150/14 RMK AO2 P0003
94908KDBQ DBQ20060330113012503/30/06 11:30:31  5-MIN KDBQ 301730Z 15014KT 1 3/4SM RA BR SCT023 BKN034 OVC046 10/08 A2990 1090 86 800 150/14 RMK AO2 P0004
94908KDBQ DBQ20060330113512103/30/06 11:35:31  5-MIN KDBQ 301735Z 15012KT 2SM RA BR SCT021 BKN032 OVC046 10/08 A2990 1100 86 800 150/12 RMK AO2 P0006
94908KDBQ DBQ20060330114013703/30/06 11:40:31  5-MIN KDBQ 301740Z 16013KT 2 1/2SM RA BR SCT023 BKN038 OVC047 10/08 A2990 1100 86 800 160/13 RMK AO2 VIS 1 3/4V3 P0007
94908KDBQ DBQ20060330114512203/30/06 11:45:31  5-MIN KDBQ 301745Z 16012KT 3SM -RA BR SCT023 BKN033 OVC043 10/08 A2990 1100 86 800 150/12 RMK AO2 P0008
94908KDBQ DBQ20060330115016303/30/06 11:50:31  5-MIN KDBQ 301750Z 15013KT 3SM -RA BR FEW023 BKN028 OVC047 10/08 A2989 1100 86 800 150/13 RMK AO2 SLP128 P0008 60015 T01000078 10106 20044 58008
94908KDBQ DBQ20060330115516203/30/06 11:55:31  5-MIN KDBQ 301755Z 15011KT 3SM RA BR FEW020 BKN028 OVC043 10/08 A2989 1110 86 800 140/11 RMK AO2 SLP126 P0010 60017 T01000078 10106 20044 58017
94908KDBQ DBQ20060330120011903/30/06 12:00:31  5-MIN KDBQ 301800Z 15014KT 3SM -RA BKN028 BKN034 OVC043 11/08 A2989 1110 83 900 150/14 RMK AO2 P0000
94908KDBQ DBQ20060330120511703/30/06 12:05:31  5-MIN KDBQ 301805Z 15015KT 4SM BR BKN028 OVC036 11/08 A2988 1110 86 900 140/15 RMK AO2 RAE02 P0000
94908KDBQ DBQ20060330121011003/30/06 12:10:31  5-MIN KDBQ 301810Z 15013KT 4SM BR OVC028 11/08 A2988 1110 86 900 150/13 RMK AO2 RAE02 P0000
94908KDBQ DBQ20060330121511103/30/06 12:15:31  5-MIN KDBQ 301815Z 15014KT 4SM BR OVC028 12/09 A2988 1110 86 1000 150/14 RMK AO2 RAE02 P0000
94908KDBQ DBQ20060330122011103/30/06 12:20:31  5-MIN KDBQ 301820Z 15014KT 4SM BR BKN028 12/09 A2988 1120 86 1000 150/14 RMK AO2 RAE02 P0000
94908KDBQ DBQ20060330122511103/30/06 12:25:31  5-MIN KDBQ 301825Z 15017KT 4SM HZ BKN028 12/09 A2988 1110 83 1100 150/17 RMK AO2 RAE02 P0000
94908KDBQ DBQ20060330123011103/30/06 12:30:31  5-MIN KDBQ 301830Z 15015KT 4SM HZ OVC028 12/09 A2988 1120 83 1100 150/15 RMK AO2 RAE02 P0000
94908KDBQ DBQ20060330123511103/30/06 12:35:31  5-MIN KDBQ 301835Z 15017KT 4SM HZ OVC028 13/09 A2988 1120 80 1200 150/17 RMK AO2 RAE02 P0000
94908KDBQ DBQ20060330124011103/30/06 12:40:31  5-MIN KDBQ 301840Z 16015KT 5SM HZ OVC028 13/09 A2987 1120 80 1200 150/15 RMK AO2 RAE02 P0000
94908KDBQ DBQ20060330124511103/30/06 12:45:31  5-MIN KDBQ 301845Z 16016KT 5SM HZ OVC028 13/09 A2987 1120 80 1200 160/16 RMK AO2 RAE02 P0000
94908KDBQ DBQ20060330125012803/30/06 12:50:31  5-MIN KDBQ 301850Z 15016KT 5SM HZ OVC028 13/09 A2987 1130 77 1200 150/16 RMK AO2 RAE02 SLP118 P0000 T01280089
94908KDBQ DBQ20060330125512803/30/06 12:55:31  5-MIN KDBQ 301855Z 15014KT 5SM HZ OVC028 13/09 A2987 1130 80 1200 150/14 RMK AO2 RAE02 SLP117 P0000 T01280094
94908KDBQ DBQ20060330130010603/30/06 13:00:31  5-MIN KDBQ 301900Z 15015KT 5SM HZ FEW017 OVC028 13/09 A2986 1130 77 1200 150/15 RMK AO2
94908KDBQ DBQ20060330130511903/30/06 13:05:31  5-MIN KDBQ 301905Z 16015KT 4SM -RA SCT017 OVC028 13/09 A2987 1130 80 1200 160/15 RMK AO2 RAB04 P0000
94908KDBQ DBQ20060330131011903/30/06 13:10:31  5-MIN KDBQ 301910Z 16013KT 4SM -RA BKN017 OVC028 12/09 A2987 1130 83 1100 160/13 RMK AO2 RAB04 P0000
94908KDBQ DBQ20060330131511903/30/06 13:15:31  5-MIN KDBQ 301915Z 15015KT 4SM -RA BKN017 OVC028 12/09 A2986 1130 83 1100 150/15 RMK AO2 RAB04 P0000
94908KDBQ DBQ20060330132011903/30/06 13:20:31  5-MIN KDBQ 301920Z 16015KT 4SM -RA BKN017 OVC028 13/10 A2986 1130 83 1200 160/15 RMK AO2 RAB04 P0000
94908KDBQ DBQ20060330132511903/30/06 13:25:31  5-MIN KDBQ 301925Z 16018KT 4SM -RA BKN017 OVC028 13/10 A2985 1140 83 1200 160/18 RMK AO2 RAB04 P0000
94908KDBQ DBQ20060330133012203/30/06 13:30:31  5-MIN KDBQ 301930Z 16016KT 4SM -RA BR BKN017 OVC025 13/11 A2985 1150 86 1200 150/16 RMK AO2 RAB04 P0000
94908KDBQ DBQ20060330133513503/30/06 13:35:31  5-MIN KDBQ 301935Z 15016KT 4SM BR BKN017 BKN025 OVC030 13/11 A2984 1150 86 1200 150/16 RMK AO2 RAB04E33 PRESFR P0000
94908KDBQ DBQ20060330134012803/30/06 13:40:31  5-MIN KDBQ 301940Z 16014KT 4SM BR BKN015 BKN025 OVC030 13/11 A2984 1150 86 1200 160/14 RMK AO2 RAB04E33 P0000
94908KDBQ DBQ20060330134513503/30/06 13:45:31  5-MIN KDBQ 301945Z 16013G20KT 3SM -RA BR BKN015 BKN025 OVC030 13/11 A2984 1150 86 1200 160/13G20 RMK AO2 RAB04 P0000
94908KDBQ DBQ20060330135013203/30/06 13:50:31  5-MIN KDBQ 301950Z 16017KT 3SM -RA BR OVC015 13/11 A2983 1160 86 1200 160/17 RMK AO2 RAB04 SLP107 P0002 T01280106
94908KDBQ DBQ20060330135513603/30/06 13:55:31  5-MIN KDBQ 301955Z 16016KT 2 1/2SM -RA BR OVC015 12/11 A2983 1160 89 1100 150/16 RMK AO2 RAB04 SLP106 P0003 T01220106
94908KDBQ DBQ20060330140011303/30/06 14:00:31  5-MIN KDBQ 302000Z 16014KT 2 1/2SM -RA BR OVC015 13/11 A2983 1160 89 1200 160/14 RMK AO2 P0000
94908KDBQ DBQ20060330140511503/30/06 14:05:31  5-MIN KDBQ 302005Z 16017G22KT 3SM -RA BR OVC013 13/11 A2982 1170 86 1200 150/17G22 RMK AO2 P0001
94908KDBQ DBQ20060330141011503/30/06 14:10:31  5-MIN KDBQ 302010Z 15017G22KT 4SM -RA BR OVC013 12/11 A2982 1170 89 1200 150/17G22 RMK AO2 P0001
94908KDBQ DBQ20060330141511503/30/06 14:15:31  5-MIN KDBQ 302015Z 15018G23KT 4SM -RA BR OVC013 13/11 A2982 1180 86 1200 150/18G23 RMK AO2 P0001
94908KDBQ DBQ20060330142011703/30/06 14:20:31  5-MIN KDBQ 302020Z 15017G24KT 4SM BR OVC013 13/11 A2981 1180 86 1200 150/17G24 RMK AO2 RAE16 P0001
94908KDBQ DBQ20060330142511703/30/06 14:25:31  5-MIN KDBQ 302025Z 15017G24KT 4SM BR OVC013 13/11 A2981 1180 86 1200 150/17G24 RMK AO2 RAE16 P0001
94908KDBQ DBQ20060330143011103/30/06 14:30:31  5-MIN KDBQ 302030Z 15016KT 4SM BR OVC013 13/11 A2981 1180 86 1300 150/16 RMK AO2 RAE16 P0001
94908KDBQ DBQ20060330143512403/30/06 14:35:31  5-MIN KDBQ 302035Z 15016G22KT 4SM BR BKN013 OVC022 13/11 A2981 1180 86 1300 150/16G22 RMK AO2 RAE16 P0001
94908KDBQ DBQ20060330144012403/30/06 14:40:31  5-MIN KDBQ 302040Z 15017G22KT 4SM BR BKN013 OVC024 13/11 A2980 1190 86 1300 150/17G22 RMK AO2 RAE16 P0001
94908KDBQ DBQ20060330144513103/30/06 14:45:31  5-MIN KDBQ 302045Z 15018G23KT 4SM BR SCT013 BKN020 OVC027 13/11 A2980 1190 86 1300 150/18G23 RMK AO2 RAE16 P0001
94908KDBQ DBQ20060330145016003/30/06 14:50:31  5-MIN KDBQ 302050Z 15019G23KT 4SM BR SCT013 BKN022 OVC048 13/11 A2980 1190 86 1300 150/19G23 RMK AO2 RAE16 SLP094 P0001 60004 T01330111 58017
94908KDBQ DBQ20060330145515403/30/06 14:55:31  5-MIN KDBQ 302055Z 16016KT 4SM BR SCT013 BKN026 OVC048 13/11 A2980 1190 86 1300 160/16 RMK AO2 RAE16 SLP096 P0001 60004 T01330111 58028
94908KDBQ DBQ20060330150011903/30/06 15:00:31  5-MIN KDBQ 302100Z 16018G25KT 4SM HZ SCT013 BKN026 OVC047 14/11 A2980 1190 83 1400 160/18G25 RMK AO2
94908KDBQ DBQ20060330150511903/30/06 15:05:31  5-MIN KDBQ 302105Z 15019G25KT 4SM BR FEW013 BKN027 OVC047 14/12 A2979 1200 86 1400 150/19G25 RMK AO2
94908KDBQ DBQ20060330151011903/30/06 15:10:31  5-MIN KDBQ 302110Z 16019G24KT 4SM BR FEW013 BKN034 OVC045 14/12 A2980 1190 86 1400 160/19G24 RMK AO2
94908KDBQ DBQ20060330151511903/30/06 15:15:31  5-MIN KDBQ 302115Z 15016G24KT 4SM HZ FEW013 SCT034 OVC045 14/11 A2979 1200 83 1400 150/16G24 RMK AO2
94908KDBQ DBQ20060330152011303/30/06 15:20:31  5-MIN KDBQ 302120Z 15017KT 5SM HZ FEW013 SCT034 OVC045 14/11 A2978 1210 83 1400 150/17 RMK AO2
94908KDBQ DBQ20060330152511203/30/06 15:25:31  5-MIN KDBQ 302125Z 14016G23KT 5SM HZ FEW013 BKN047 14/12 A2977 1210 83 1500 140/16G23 RMK AO2
94908KDBQ DBQ20060330153011203/30/06 15:30:31  5-MIN KDBQ 302130Z 15018G22KT 5SM HZ FEW035 SCT045 14/12 A2978 1210 83 1500 150/18G22 RMK AO2
94908KDBQ DBQ20060330153511203/30/06 15:35:31  5-MIN KDBQ 302135Z 15017G23KT 5SM HZ FEW016 BKN045 14/12 A2978 1210 83 1500 150/17G23 RMK AO2
94908KDBQ DBQ20060330154011903/30/06 15:40:31  5-MIN KDBQ 302140Z 16021G24KT 5SM HZ SCT016 BKN045 BKN065 14/12 A2977 1210 83 1500 160/21G24 RMK AO2
94908KDBQ DBQ20060330154511903/30/06 15:45:31  5-MIN KDBQ 302145Z 16017G24KT 5SM HZ FEW016 SCT047 BKN070 14/12 A2976 1220 83 1500 160/17G24 RMK AO2
94908KDBQ DBQ20060330155012303/30/06 15:50:31  5-MIN KDBQ 302150Z 16015KT 5SM HZ SCT016 SCT070 14/12 A2977 1220 83 1500 150/15 RMK AO2 SLP083 T01440117
94908KDBQ DBQ20060330155512903/30/06 15:55:31  5-MIN KDBQ 302155Z 16016G22KT 5SM HZ SCT016 BKN065 14/12 A2977 1210 83 1500 160/16G22 RMK AO2 SLP086 T01440117
94908KDBQ DBQ20060330160011903/30/06 16:00:31  5-MIN KDBQ 302200Z 16014G23KT 5SM HZ SCT016 BKN028 BKN070 14/12 A2977 1220 83 1500 160/14G23 RMK AO2
94908KDBQ DBQ20060330160511903/30/06 16:05:31  5-MIN KDBQ 302205Z 17014G23KT 5SM HZ SCT016 BKN028 BKN060 14/12 A2977 1220 83 1500 160/14G23 RMK AO2
94908KDBQ DBQ20060330161011903/30/06 16:10:31  5-MIN KDBQ 302210Z 16016G21KT 5SM HZ SCT016 BKN028 BKN060 14/12 A2977 1220 83 1500 160/16G21 RMK AO2
94908KDBQ DBQ20060330161511303/30/06 16:15:31  5-MIN KDBQ 302215Z 18015KT 5SM HZ SCT016 BKN028 OVC060 14/12 A2977 1210 83 1500 170/15 RMK AO2
94908KDBQ DBQ20060330162012203/30/06 16:20:31  5-MIN KDBQ 302220Z 17016KT 4SM -RA BR BKN018 OVC028 14/12 A2977 1220 86 1400 170/16 RMK AO2 RAB17 P0000
94908KDBQ DBQ20060330162512203/30/06 16:25:31  5-MIN KDBQ 302225Z 16017KT 4SM -RA BR SCT018 OVC030 14/12 A2976 1230 86 1400 160/17 RMK AO2 RAB17 P0000
94908KDBQ DBQ20060330163013403/30/06 16:30:31  5-MIN KDBQ 302230Z 16018G22KT 5SM BR FEW018 SCT028 OVC033 14/12 A2975 1240 86 1400 160/18G22 RMK AO2 RAB17E29 P0000
94908KDBQ DBQ20060330163514103/30/06 16:35:31  5-MIN KDBQ 302235Z 15017G24KT 5SM HZ FEW018 SCT028 OVC033 14/12 A2974 1250 83 1500 140/17G24 RMK AO2 RAB17E29 PRESFR P0000
94908KDBQ DBQ20060330164013203/30/06 16:40:31  5-MIN KDBQ 302240Z 15017G24KT 4SM -RA FEW018 BKN031 BKN038 14/12 A2974 1250 83 1500 150/17G24 RMK AO2 RAB17 P0000
94908KDBQ DBQ20060330164514203/30/06 16:45:31  5-MIN KDBQ 302245Z 15014G23KT 4SM -RA BR FEW018 BKN033 BKN070 14/12 A2972 1260 90 1500 140/14G23 RMK AO2 RAB17 PRESFR P0000
94908KDBQ DBQ20060330165014503/30/06 16:50:31  5-MIN KDBQ 302250Z 15016G23KT 4SM -RA BR SCT033 BKN075 14/12 A2972 1260 90 1500 150/16G23 RMK AO2 RAB17 SLP069 P0000 T01390122
94908KDBQ DBQ20060330165515103/30/06 16:55:31  5-MIN KDBQ 302255Z 16015G23KT 5SM BR FEW033 SCT070 SCT095 14/12 A2973 1250 90 1500 160/15G23 RMK AO2 RAB17E53 SLP072 P0000 T01390122
94908KDBQ DBQ20060330170011203/30/06 17:00:31  5-MIN KDBQ 302300Z 15017G23KT 5SM BR FEW033 BKN090 14/12 A2972 1260 90 1500 150/17G23 RMK AO2
94908KDBQ DBQ20060330170513503/30/06 17:05:31  5-MIN KDBQ 302305Z 15016G22KT 5SM -RA BR FEW031 SCT070 BKN090 14/12 A2972 1270 90 1500 150/16G22 RMK AO2 RAB02 P0000
94908KDBQ DBQ20060330171012903/30/06 17:10:31  5-MIN KDBQ 302310Z 16016KT 5SM -RA BR FEW050 SCT070 BKN090 14/12 A2973 1260 90 1500 160/16 RMK AO2 RAB02 P0001
94908KDBQ DBQ20060330171513403/30/06 17:15:31  5-MIN KDBQ 302315Z 16015G22KT 5SM BR FEW060 SCT080 BKN090 14/12 A2973 1260 90 1500 160/15G22 RMK AO2 RAB02E14 P0001
94908KDBQ DBQ20060330172013403/30/06 17:20:31  5-MIN KDBQ 302320Z 15013G20KT 5SM BR FEW048 SCT070 BKN090 14/12 A2972 1270 90 1500 150/13G20 RMK AO2 RAB02E14 P0001
94908KDBQ DBQ20060330172512803/30/06 17:25:31  5-MIN KDBQ 302325Z 15013KT 5SM BR FEW048 SCT070 BKN085 14/12 A2971 1270 90 1500 150/13 RMK AO2 RAB02E14 P0001
94908KDBQ DBQ20060330173013403/30/06 17:30:31  5-MIN KDBQ 302330Z 15016G19KT 5SM BR FEW055 SCT070 SCT085 14/12 A2971 1270 86 1500 150/16G19 RMK AO2 RAB02E14 P0001
94908KDBQ DBQ20060330173512903/30/06 17:35:31  5-MIN KDBQ 302335Z 16016KT 5SM TS BR FEW060 SCT090 14/12 A2972 1270 86 1500 160/16 RMK AO2 TSB32RAB02E14 P0001
94908KDBQ DBQ20060330174013603/30/06 17:40:31  5-MIN KDBQ 302340Z 17014KT 6SM TS BR SCT046 SCT060 BKN085 14/12 A2973 1260 86 1500 170/14 RMK AO2 TSB32RAB02E14 P0001
94908KDBQ DBQ20060330174514203/30/06 17:45:31  5-MIN KDBQ 302345Z 17013KT 4SM -TSRA BR FEW023 BKN044 BKN060 14/12 A2973 1260 86 1500 170/13 RMK AO2 TSB32RAB02E14B45 P0001
94908KDBQ DBQ20060330175018203/30/06 17:50:31  5-MIN KDBQ 302350Z 17014KT 3SM TSRA BR FEW018 BKN044 BKN060 14/12 A2973 1260 86 1500 170/14 RMK AO2 TSB32RAB02E14B45 SLP070 P0003 60007 T01440122 10144 20100 58028
94908KDBQ DBQ20060330175519503/30/06 17:55:31  5-MIN KDBQ 302355Z 15012KT 1 3/4SM +TSRA BR FEW017 BKN044 BKN060 14/12 A2972 1270 90 1500 150/12 RMK AO2 VIS 1V5 TSB32RAB02E14B45 SLP067 P0010 60014 T01390122 10144 20100 56028
94908KDBQ DBQ20060330180012903/30/06 18:00:31  5-MIN KDBQ 310000Z 15011KT 2 1/2SM -TSRA BR FEW017 BKN044 OVC060 14/12 A2971 1270 86 1500 150/11 RMK AO2 P0001
94908KDBQ DBQ20060330180516903/30/06 18:05:31  5-MIN KDBQ 310005Z 14011KT 5SM TS BR FEW021 BKN044 OVC060 14/12 A2971 1270 86 1500 140/11 RMK AO2 RAE04 TSTMS IN VCNTY NE MOV NE OCCNL LTGICCCCG P0001
94908KDBQ DBQ20060330181017003/30/06 18:10:31  5-MIN KDBQ 310010Z 14011KT 4SM -RA BR FEW021 SCT044 OVC060 14/12 A2971 1280 86 1500 140/11 RMK AO2 TSE09 TSTMS IN VCNTY NE MOV NE OCCNL LTGICCCCG P0003
94908KDBQ DBQ20060330181516703/30/06 18:15:31  5-MIN KDBQ 310015Z 13012KT 5SM -RA FEW016 BKN060 OVC070 15/12 A2970 1280 83 1600 130/12 RMK AO2 TSE09 TSTMS IN VCNTY NE MOV NE OCCNL LTGICCCCG P0003
94908KDBQ DBQ20060330182016903/30/06 18:20:31  5-MIN KDBQ 310020Z 14013KT 4SM RA BR FEW016 BKN060 OVC070 14/12 A2970 1280 86 1600 130/13 RMK AO2 TSE09 TSTMS IN VCNTY NE MOV NE OCCNL LTGICCCCG P0004
94908KDBQ DBQ20060330182516303/30/06 18:25:31  5-MIN KDBQ 310025Z 13015KT 4SM -RA BR SCT060 BKN075 14/12 A2969 1290 86 1600 130/15 RMK AO2 TSE09 TSTMS IN VCNTY NE MOV NE OCCNL LTGICCCCG P0004
94908KDBQ DBQ20060330183017703/30/06 18:30:31  5-MIN KDBQ 310030Z 13014G20KT 6SM BR SCT065 BKN075 14/12 A2969 1300 86 1600 130/14G20 RMK AO2 TSE09RAE28 PRESFR TSTMS IN VCNTY NE MOV NE OCCNL LTGICCCCG P0004
94908KDBQ DBQ20060330183516703/30/06 18:35:31  5-MIN KDBQ 310035Z 13015G20KT 7SM SCT070 14/12 A2968 1300 86 1600 130/15G20 RMK AO2 TSE09RAE28 PRESFR TSTMS IN VCNTY NE MOV NE OCCNL LTGICCCCG P0004
94908KDBQ DBQ20060330184016103/30/06 18:40:31  5-MIN KDBQ 310040Z 13014KT 7SM SCT075 14/12 A2967 1310 83 1600 120/14 RMK AO2 TSE09RAE28 PRESFR TSTMS IN VCNTY NE MOV NE OCCNL LTGICCCCG P0004
94908KDBQ DBQ20060330184516103/30/06 18:45:31  5-MIN KDBQ 310045Z 13012KT 7SM FEW075 14/12 A2966 1320 83 1600 120/12 RMK AO2 TSE09RAE28 PRESFR TSTMS IN VCNTY NE MOV NE OCCNL LTGICCCCG P0004
94908KDBQ DBQ20060330185017703/30/06 18:50:31  5-MIN KDBQ 310050Z 13015G20KT 7SM FEW075 14/12 A2966 1320 83 1600 130/15G20 RMK AO2 TSE09RAE28 SLP047 TSTMS IN VCNTY NE MOV NE OCCNL LTGICCCCG P0004 T01440117
94908KDBQ DBQ20060330185516803/30/06 18:55:31  5-MIN KDBQ 310055Z 13015KT 7SM CLR 14/12 A2965 1330 83 1600 130/15 RMK AO2 TSE09RAE28 SLP044 TSTMS IN VCNTY NE MOV NE OCCNL LTGICCCCG P0004 T01440117
94908KDBQ DBQ20060330190009303/30/06 19:00:31  5-MIN KDBQ 310100Z 13014KT 7SM CLR 14/12 A2965 1330 83 1600 130/14 RMK AO2
94908KDBQ DBQ20060330190509903/30/06 19:05:31  5-MIN KDBQ 310105Z 14016G20KT 7SM CLR 14/12 A2965 1330 86 1600 130/16G20 RMK AO2
94908KDBQ DBQ20060330191009903/30/06 19:10:31  5-MIN KDBQ 310110Z 14015G20KT 7SM CLR 14/12 A2965 1330 86 1600 140/15G20 RMK AO2
94908KDBQ DBQ20060330191509303/30/06 19:15:31  5-MIN KDBQ 310115Z 14016KT 7SM CLR 15/12 A2965 1330 83 1700 140/16 RMK AO2
94908KDBQ DBQ20060330192009603/30/06 19:20:31  5-MIN KDBQ 310120Z 14017KT 8SM FEW065 15/12 A2965 1330 83 1700 140/17 RMK AO2
94908KDBQ DBQ20060330192510203/30/06 19:25:31  5-MIN KDBQ 310125Z 14016G21KT 8SM FEW065 15/12 A2965 1330 83 1700 140/16G21 RMK AO2
94908KDBQ DBQ20060330193009603/30/06 19:30:31  5-MIN KDBQ 310130Z 14015KT 8SM FEW065 15/12 A2965 1330 83 1700 140/15 RMK AO2
94908KDBQ DBQ20060330193510903/30/06 19:35:31  5-MIN KDBQ 310135Z 14016G22KT 8SM FEW065 SCT090 16/12 A2965 1330 80 1700 140/16G22 RMK AO2
94908KDBQ DBQ20060330194012703/30/06 19:40:31  5-MIN KDBQ 310140Z 15017G27KT 8SM FEW065 BKN100 16/12 A2965 1330 80 1700 140/17G27 RMK AO2 PK WND 14027/0140
94908KDBQ DBQ20060330194512703/30/06 19:45:31  5-MIN KDBQ 310145Z 15019G27KT 8SM SCT070 BKN095 16/13 A2965 1330 80 1800 140/19G27 RMK AO2 PK WND 14027/0140
94908KDBQ DBQ20060330195014403/30/06 19:50:31  5-MIN KDBQ 310150Z 15018G26KT 9SM SCT075 BKN095 16/13 A2965 1330 80 1800 150/18G26 RMK AO2 PK WND 14027/0140 SLP040 T01610128
94908KDBQ DBQ20060330195514903/30/06 19:55:31  5-MIN KDBQ 310155Z AUTO 15019G24KT 9SM BKN075 BKN095 16/13 A2965 1330 80 1800 150/19G24 RMK AO2 PK WND 14027/0140 SLP040 T01610128
94908KDBQ DBQ20060330200011903/30/06 20:00:31  5-MIN KDBQ 310200Z AUTO 15017G23KT 9SM BKN070 OVC095 16/13 A2965 1330 80 1800 150/17G23 RMK AO2 TSNO
94908KDBQ DBQ20060330200511903/30/06 20:05:31  5-MIN KDBQ 310205Z AUTO 15019G24KT 9SM BKN070 OVC100 16/13 A2964 1340 80 1800 150/19G24 RMK AO2 TSNO
94908KDBQ DBQ20060330201011203/30/06 20:10:31  5-MIN KDBQ 310210Z AUTO 15021G25KT 9SM OVC070 16/13 A2964 1340 80 1800 140/21G25 RMK AO2 TSNO
94908KDBQ DBQ20060330201513703/30/06 20:15:31  5-MIN KDBQ 310215Z AUTO 15023G27KT 9SM BKN065 OVC080 16/13 A2963 1350 80 1800 140/23G27 RMK AO2 PK WND 15027/0214 TSNO
94908KDBQ DBQ20060330202013003/30/06 20:20:31  5-MIN KDBQ 310220Z AUTO 15022G27KT 9SM BKN070 17/13 A2963 1350 77 1900 150/22G27 RMK AO2 PK WND 15027/0214 TSNO
94908KDBQ DBQ20060330202513703/30/06 20:25:31  5-MIN KDBQ 310225Z AUTO 15021G26KT 9SM BKN065 BKN080 17/13 A2963 1350 77 1900 150/21G26 RMK AO2 PK WND 15027/0214 TSNO
94908KDBQ DBQ20060330203013703/30/06 20:30:31  5-MIN KDBQ 310230Z AUTO 15022G28KT 9SM BKN065 BKN080 17/13 A2963 1350 77 1900 150/22G28 RMK AO2 PK WND 15028/0229 TSNO
94908KDBQ DBQ20060330203513703/30/06 20:35:31  5-MIN KDBQ 310235Z AUTO 15020G28KT 9SM BKN070 BKN085 17/13 A2963 1350 77 1900 150/20G28 RMK AO2 PK WND 15028/0229 TSNO
94908KDBQ DBQ20060330204014403/30/06 20:40:31  5-MIN KDBQ 310240Z AUTO 16020G27KT 9SM SCT060 BKN080 BKN095 17/13 A2963 1350 77 1900 150/20G27 RMK AO2 PK WND 15028/0229 TSNO
94908KDBQ DBQ20060330204514403/30/06 20:45:31  5-MIN KDBQ 310245Z AUTO 16019G27KT 9SM BKN060 BKN080 BKN095 17/13 A2962 1350 77 1900 160/19G27 RMK AO2 PK WND 15028/0229 TSNO
94908KDBQ DBQ20060330205016603/30/06 20:50:31  5-MIN KDBQ 310250Z AUTO 16021G27KT 9SM BKN060 BKN080 17/13 A2963 1350 77 1900 160/21G27 RMK AO2 PK WND 15028/0229 SLP033 60004 T01670128 56028 TSNO
94908KDBQ DBQ20060330205517303/30/06 20:55:31  5-MIN KDBQ 310255Z AUTO 16018G27KT 9SM SCT060 BKN070 BKN090 17/13 A2962 1350 77 1900 160/18G27 RMK AO2 PK WND 15028/0229 SLP032 60004 T01670128 56031 TSNO
94908KDBQ DBQ20060330210012003/30/06 21:00:31  5-MIN KDBQ 310300Z AUTO 16020KT 9SM FEW041 SCT060 SCT070 17/13 A2962 1360 77 1900 160/20 RMK AO2 TSNO
94908KDBQ DBQ20060330210516003/30/06 21:05:31  5-MIN KDBQ 310305Z AUTO 17024G29KT 6SM -RA FEW032 SCT041 BKN055 17/13 A2963 1350 77 1900 170/24G29 RMK AO2 PK WND 17029/0303 RAB02 P0000 TSNO
94908KDBQ DBQ20060330211015903/30/06 21:10:31  5-MIN KDBQ 310310Z AUTO 17025G29KT 4SM RA FEW027 SCT034 BKN055 16/13 A2963 1340 83 1800 170/25G29 RMK AO2 PK WND 18029/0309 RAB02 P0000 TSNO
94908KDBQ DBQ20060330211515903/30/06 21:15:31  5-MIN KDBQ 310315Z AUTO 17022G29KT 3SM RA SCT024 SCT034 BKN048 16/13 A2963 1350 83 1800 170/22G29 RMK AO2 PK WND 18029/0309 RAB02 P0004 TSNO
94908KDBQ DBQ20060330212016203/30/06 21:20:31  5-MIN KDBQ 310320Z AUTO 17020G26KT 4SM RA BR BKN022 BKN034 BKN046 16/13 A2962 1350 86 1800 170/20G26 RMK AO2 PK WND 18029/0309 RAB02 P0006 TSNO
94908KDBQ DBQ20060330212516203/30/06 21:25:31  5-MIN KDBQ 310325Z AUTO 17021G26KT 4SM RA BR BKN024 BKN034 OVC046 16/14 A2962 1360 90 1800 170/21G26 RMK AO2 PK WND 18029/0309 RAB02 P0007 TSNO
94908KDBQ DBQ20060330213015603/30/06 21:30:31  5-MIN KDBQ 310330Z AUTO 17019G26KT 3SM +RA BR BKN024 OVC035 16/14 A2963 1350 90 1800 170/19G26 RMK AO2 PK WND 18029/0309 RAB02 P0010 TSNO
94908KDBQ DBQ20060330213515603/30/06 21:35:31  5-MIN KDBQ 310335Z AUTO 17021G26KT 3SM +RA BR BKN024 OVC033 16/14 A2962 1350 90 1800 170/21G26 RMK AO2 PK WND 18029/0309 RAB02 P0013 TSNO
94908KDBQ DBQ20060330214015603/30/06 21:40:31  5-MIN KDBQ 310340Z AUTO 17020G26KT 3SM +RA BR BKN024 OVC033 16/14 A2962 1360 90 1800 160/20G26 RMK AO2 PK WND 18029/0309 RAB02 P0016 TSNO
94908KDBQ DBQ20060330214515603/30/06 21:45:31  5-MIN KDBQ 310345Z AUTO 16023G29KT 3SM +RA BR BKN024 OVC032 15/14 A2961 1370 93 1700 160/23G29 RMK AO2 PK WND 15029/0345 RAB02 P0018 TSNO
94908KDBQ DBQ20060330215017203/30/06 21:50:31  5-MIN KDBQ 310350Z AUTO 16021G29KT 4SM RA BR BKN024 OVC032 16/14 A2961 1370 90 1800 160/21G29 RMK AO2 PK WND 15029/0347 RAB02 SLP025 P0019 T01560139 TSNO
94908KDBQ DBQ20060330215518003/30/06 21:55:31  5-MIN KDBQ 310355Z AUTO 16023G31KT 3SM +RA BR BKN024 OVC032 15/14 A2959 1380 93 1700 160/23G31 RMK AO2 PK WND 16031/0353 RAB02 PRESFR SLP022 P0022 T01500139 TSNO
94908KDBQ DBQ20060330220015003/30/06 22:00:31  5-MIN KDBQ 310400Z AUTO 15025G31KT 3SM +RA BR OVC024 16/14 A2959 1390 90 1800 150/25G31 RMK AO2 PK WND 16031/0359 PRESFR P0001 TSNO
94908KDBQ DBQ20060330220515003/30/06 22:05:31  5-MIN KDBQ 310405Z AUTO 16025G31KT 4SM -RA BR BKN026 OVC085 16/14 A2960 1380 93 1800 160/25G31 RMK AO2 PK WND 16031/0359 P0003 TSNO
94908KDBQ DBQ20060330221015603/30/06 22:10:31  5-MIN KDBQ 310410Z AUTO 16025G31KT 4SM RA BR BKN026 BKN070 OVC085 16/14 A2960 1370 93 1800 160/25G31 RMK AO2 PK WND 16031/0406 P0003 TSNO
94908KDBQ DBQ20060330221515703/30/06 22:15:31  5-MIN KDBQ 310415Z AUTO 16022G31KT 3SM +RA BR BKN026 BKN060 OVC080 16/14 A2960 1380 93 1800 160/22G31 RMK AO2 PK WND 16031/0406 P0006 TSNO
94908KDBQ DBQ20060330222015703/30/06 22:20:31  5-MIN KDBQ 310420Z AUTO 16018G29KT 3SM +RA BR BKN024 BKN035 OVC065 16/14 A2960 1380 93 1800 150/18G29 RMK AO2 PK WND 16031/0406 P0007 TSNO
94908KDBQ DBQ20060330222516403/30/06 22:25:31  5-MIN KDBQ 310425Z AUTO 15020G29KT 2SM +RA BR BKN022 BKN033 OVC080 15/14 A2958 1400 96 1800 140/20G29 RMK AO2 PK WND 16031/0406 PRESFR P0014 TSNO
94908KDBQ DBQ20060330223015703/30/06 22:30:31  5-MIN KDBQ 310430Z AUTO 16025G35KT 2SM +RA BR SCT018 BKN031 OVC080 16/14 A2958 1400 93 1800 160/25G35 RMK AO2 PK WND 14035/0427 P0017 TSNO
94908KDBQ DBQ20060330223516103/30/06 22:35:31  5-MIN KDBQ 310435Z AUTO 17020G42KT 2 1/2SM +RA BR SCT016 BKN031 OVC060 16/14 A2958 1400 93 1800 170/20G42 RMK AO2 PK WND 16042/0431 P0020 TSNO
94908KDBQ DBQ20060330224015703/30/06 22:40:31  5-MIN KDBQ 310440Z AUTO 18021G42KT 3SM +RA BR SCT011 BKN018 OVC048 16/14 A2957 1400 90 1800 180/21G42 RMK AO2 PK WND 16042/0431 P0024 TSNO
94908KDBQ DBQ20060330224516303/30/06 22:45:31  5-MIN KDBQ 310445Z AUTO 17024G29KT 4SM RA BR SCT011 BKN016 OVC033 15/14 A2956 1420 93 1800 170/24G29 RMK AO2 PK WND 16042/0431 PRESFR P0026 TSNO
94908KDBQ DBQ20060330225017303/30/06 22:50:31  5-MIN KDBQ 310450Z AUTO 17022G29KT 5SM RA BR FEW009 BKN014 OVC045 16/14 A2955 1420 90 1900 160/22G29 RMK AO2 PK WND 16042/0431 SLP009 P0026 T01560139 TSNO
94908KDBQ DBQ20060330225516703/30/06 22:55:31  5-MIN KDBQ 310455Z AUTO 17022G29KT 5SM -RA BR BKN011 OVC017 15/14 A2955 1420 93 1800 170/22G29 RMK AO2 PK WND 16042/0431 SLP008 P0027 T01500139 TSNO
94908KDBQ DBQ20060330230014303/30/06 23:00:31  5-MIN KDBQ 310500Z AUTO 17023G32KT 6SM -RA BR OVC011 15/14 A2956 1410 93 1800 170/23G32 RMK AO2 PK WND 17032/0456 P0000 TSNO
94908KDBQ DBQ20060330230514303/30/06 23:05:31  5-MIN KDBQ 310505Z AUTO 18023G32KT 6SM -RA BR OVC011 15/14 A2957 1410 93 1800 180/23G32 RMK AO2 PK WND 17032/0456 P0001 TSNO
94908KDBQ DBQ20060330231014203/30/06 23:10:31  5-MIN KDBQ 310510Z AUTO 18021G30KT 4SM RA BR OVC013 15/14 A2957 1410 96 1800 180/21G30 RMK AO2 PK WND 17032/0456 P0001 TSNO
94908KDBQ DBQ20060330231514303/30/06 23:15:31  5-MIN KDBQ 310515Z AUTO 18025G29KT 4SM -RA BR OVC013 15/14 A2956 1410 96 1800 170/25G29 RMK AO2 PK WND 17032/0456 P0002 TSNO
94908KDBQ DBQ20060330232015603/30/06 23:20:31  5-MIN KDBQ 310520Z AUTO 17018G30KT 4SM RA BR SCT010 BKN013 OVC025 15/14 A2956 1420 96 1800 170/18G30 RMK AO2 PK WND 17032/0456 P0002 TSNO
94908KDBQ DBQ20060330232515703/30/06 23:25:31  5-MIN KDBQ 310525Z AUTO 18020G30KT 4SM -RA BR SCT010 BKN014 OVC037 15/14 A2955 1420 96 1800 180/20G30 RMK AO2 PK WND 17032/0456 P0004 TSNO
94908KDBQ DBQ20060330233016403/30/06 23:30:31  5-MIN KDBQ 310530Z AUTO 17019G28KT 5SM -RA BR BKN010 BKN016 OVC037 15/14 A2953 1440 96 1800 160/19G28 RMK AO2 PK WND 17032/0456 PRESFR P0004 TSNO
94908KDBQ DBQ20060330233516403/30/06 23:35:31  5-MIN KDBQ 310535Z AUTO 16021G25KT 6SM -RA BR BKN012 BKN025 OVC075 15/13 A2952 1460 90 1800 160/21G25 RMK AO2 PK WND 17032/0456 PRESFR P0005 TSNO
94908KDBQ DBQ20060330234015403/30/06 23:40:31  5-MIN KDBQ 310540Z AUTO 16019G26KT 8SM -RA SCT010 BKN036 OVC075 15/13 A2952 1450 90 1800 160/19G26 RMK AO2 PK WND 17032/0456 P0005 TSNO
94908KDBQ DBQ20060330234515403/30/06 23:45:31  5-MIN KDBQ 310545Z AUTO 16021G27KT 9SM -RA FEW010 SCT036 OVC080 14/13 A2951 1460 93 1800 160/21G27 RMK AO2 PK WND 17032/0456 P0005 TSNO
94908KDBQ DBQ20060330235019903/30/06 23:50:31  5-MIN KDBQ 310550Z AUTO 17024G31KT 10SM -RA FEW010 OVC085 14/13 A2951 1460 90 1800 160/24G31 RMK AO2 PK WND 17032/0456 SLP995 P0005 60058 T01440128 10167 20139 401670044 56031 TSNO
94908KDBQ DBQ20060330235520103/30/06 23:55:31  5-MIN KDBQ 310555Z AUTO 17024G31KT 10SM FEW010 OVC090 14/12 A2951 1460 86 1800 170/24G31 RMK AO2 PK WND 17032/0456 RAE53 SLP994 P0005 60058 T01440122 10167 20139 401670044 58037 TSNO
94908KDBQ DBQ20060331000013103/31/06 00:00:38  5-MIN KDBQ 310600Z AUTO 17021G28KT 10SM BKN090 14/12 A2951 1460 83 1800 170/21G28 RMK AO2 PK WND 16027/0556 TSNO
94908KDBQ DBQ20060331000512503/31/06 00:05:31  5-MIN KDBQ 310605Z AUTO 17019KT 10SM BKN090 14/12 A2951 1460 86 1700 170/19 RMK AO2 PK WND 16027/0556 TSNO
94908KDBQ DBQ20060331001012503/31/06 00:10:31  5-MIN KDBQ 310610Z AUTO 17018KT 10SM SCT100 14/12 A2952 1460 86 1700 170/18 RMK AO2 PK WND 16027/0556 TSNO
94908KDBQ DBQ20060331001512503/31/06 00:15:33  5-MIN KDBQ 310615Z AUTO 18017KT 10SM SCT100 14/11 A2952 1460 83 1700 170/17 RMK AO2 PK WND 16027/0556 TSNO
94908KDBQ DBQ20060331002012503/31/06 00:20:31  5-MIN KDBQ 310620Z AUTO 18018KT 10SM FEW110 14/11 A2952 1450 83 1700 180/18 RMK AO2 PK WND 16027/0556 TSNO
94908KDBQ DBQ20060331002512203/31/06 00:25:31  5-MIN KDBQ 310625Z AUTO 17018KT 10SM CLR 14/11 A2951 1460 83 1700 170/18 RMK AO2 PK WND 16027/0556 TSNO
94908KDBQ DBQ20060331003012203/31/06 00:30:31  5-MIN KDBQ 310630Z AUTO 17018KT 10SM CLR 14/11 A2952 1450 80 1700 170/18 RMK AO2 PK WND 16027/0556 TSNO
94908KDBQ DBQ20060331003512203/31/06 00:35:31  5-MIN KDBQ 310635Z AUTO 17015KT 10SM CLR 13/11 A2951 1460 83 1600 170/15 RMK AO2 PK WND 16027/0556 TSNO
94908KDBQ DBQ20060331004012203/31/06 00:40:31  5-MIN KDBQ 310640Z AUTO 17014KT 10SM CLR 13/11 A2950 1470 83 1700 170/14 RMK AO2 PK WND 16027/0556 TSNO
94908KDBQ DBQ20060331004512203/31/06 00:45:31  5-MIN KDBQ 310645Z AUTO 17013KT 10SM CLR 13/11 A2950 1470 83 1700 170/13 RMK AO2 PK WND 16027/0556 TSNO
94908KDBQ DBQ20060331005013903/31/06 00:50:31  5-MIN KDBQ 310650Z AUTO 17013KT 10SM CLR 13/11 A2950 1470 83 1700 170/13 RMK AO2 PK WND 16027/0556 SLP990 T01330106 TSNO
94908KDBQ DBQ20060331005513903/31/06 00:55:31  5-MIN KDBQ 310655Z AUTO 17014KT 10SM CLR 13/11 A2951 1460 83 1600 170/14 RMK AO2 PK WND 16027/0556 SLP993 T01330106 TSNO
94908KDBQ DBQ20060331010010403/31/06 01:00:31  5-MIN KDBQ 310700Z AUTO 17018KT 10SM CLR 13/11 A2950 1470 83 1700 170/18 RMK AO2 TSNO
94908KDBQ DBQ20060331010511003/31/06 01:05:31  5-MIN KDBQ 310705Z AUTO 17018G23KT 10SM CLR 13/11 A2949 1480 83 1700 170/18G23 RMK AO2 TSNO
94908KDBQ DBQ20060331011010403/31/06 01:10:31  5-MIN KDBQ 310710Z AUTO 17018KT 10SM CLR 13/11 A2950 1470 83 1700 170/18 RMK AO2 TSNO
94908KDBQ DBQ20060331011510403/31/06 01:15:31  5-MIN KDBQ 310715Z AUTO 17018KT 10SM CLR 13/11 A2950 1470 83 1700 170/18 RMK AO2 TSNO
94908KDBQ DBQ20060331012012803/31/06 01:20:31  5-MIN KDBQ 310720Z AUTO 18020G29KT 10SM CLR 13/11 A2949 1480 83 1700 180/20G29 RMK AO2 PK WND 18029/0719 TSNO
94908KDBQ DBQ20060331012512803/31/06 01:25:31  5-MIN KDBQ 310725Z AUTO 18019G29KT 10SM CLR 13/11 A2949 1480 83 1700 180/19G29 RMK AO2 PK WND 18029/0719 TSNO
94908KDBQ DBQ20060331013012803/31/06 01:30:31  5-MIN KDBQ 310730Z AUTO 18016G23KT 10SM CLR 13/11 A2948 1490 83 1700 180/16G23 RMK AO2 PK WND 18029/0719 TSNO
94908KDBQ DBQ20060331013512803/31/06 01:35:31  5-MIN KDBQ 310735Z AUTO 18018G24KT 10SM CLR 13/11 A2948 1490 83 1700 180/18G24 RMK AO2 PK WND 18029/0719 TSNO
94908KDBQ DBQ20060331014012803/31/06 01:40:31  5-MIN KDBQ 310740Z AUTO 18019G24KT 10SM CLR 13/11 A2948 1480 83 1700 180/19G24 RMK AO2 PK WND 18029/0719 TSNO
94908KDBQ DBQ20060331014512803/31/06 01:45:31  5-MIN KDBQ 310745Z AUTO 18021G25KT 10SM CLR 13/10 A2949 1480 80 1700 180/21G25 RMK AO2 PK WND 18029/0719 TSNO
94908KDBQ DBQ20060331015014503/31/06 01:50:31  5-MIN KDBQ 310750Z AUTO 18017G25KT 10SM CLR 13/10 A2948 1490 83 1600 180/17G25 RMK AO2 PK WND 18029/0719 SLP983 T01280100 TSNO
94908KDBQ DBQ20060331015514503/31/06 01:55:31  5-MIN KDBQ 310755Z AUTO 18019G24KT 10SM CLR 13/10 A2948 1490 83 1600 180/19G24 RMK AO2 PK WND 18029/0719 SLP983 T01280100 TSNO
94908KDBQ DBQ20060331020010403/31/06 02:00:31  5-MIN KDBQ 310800Z AUTO 18017KT 10SM CLR 13/09 A2948 1490 80 1600 180/17 RMK AO2 TSNO
94908KDBQ DBQ20060331020510403/31/06 02:05:31  5-MIN KDBQ 310805Z AUTO 18019KT 10SM CLR 12/09 A2948 1490 83 1500 180/19 RMK AO2 TSNO
94908KDBQ DBQ20060331021010403/31/06 02:10:31  5-MIN KDBQ 310810Z AUTO 19020KT 10SM CLR 12/09 A2947 1490 83 1600 190/20 RMK AO2 TSNO
94908KDBQ DBQ20060331021510403/31/06 02:15:31  5-MIN KDBQ 310815Z AUTO 19019KT 10SM CLR 12/09 A2948 1490 83 1600 190/19 RMK AO2 TSNO
94908KDBQ DBQ20060331022010403/31/06 02:20:31  5-MIN KDBQ 310820Z AUTO 18022KT 10SM CLR 12/09 A2948 1490 83 1600 180/22 RMK AO2 TSNO
94908KDBQ DBQ20060331022510403/31/06 02:25:31  5-MIN KDBQ 310825Z AUTO 18020KT 10SM CLR 12/09 A2948 1490 83 1500 180/20 RMK AO2 TSNO
94908KDBQ DBQ20060331023010703/31/06 02:30:31  5-MIN KDBQ 310830Z AUTO 19019KT 10SM SCT035 12/09 A2948 1490 86 1500 190/19 RMK AO2 TSNO
94908KDBQ DBQ20060331023511303/31/06 02:35:31  5-MIN KDBQ 310835Z AUTO 19017G23KT 10SM BKN035 12/09 A2948 1490 86 1500 190/17G23 RMK AO2 TSNO
94908KDBQ DBQ20060331024010703/31/06 02:40:31  5-MIN KDBQ 310840Z AUTO 19020KT 10SM BKN035 12/09 A2948 1490 86 1500 190/20 RMK AO2 TSNO
94908KDBQ DBQ20060331024511303/31/06 02:45:31  5-MIN KDBQ 310845Z AUTO 19018G25KT 10SM BKN035 12/09 A2948 1490 86 1500 190/18G25 RMK AO2 TSNO
94908KDBQ DBQ20060331025013603/31/06 02:50:31  5-MIN KDBQ 310850Z AUTO 19018G25KT 10SM OVC035 12/09 A2948 1490 86 1500 190/18G25 RMK AO2 SLP985 T01170094 58037 TSNO
94908KDBQ DBQ20060331025513003/31/06 02:55:31  5-MIN KDBQ 310855Z AUTO 19018KT 10SM OVC033 12/09 A2948 1490 86 1500 190/18 RMK AO2 SLP983 T01170094 56010 TSNO
94908KDBQ DBQ20060331030011303/31/06 03:00:31  5-MIN KDBQ 310900Z AUTO 20021G24KT 10SM BKN033 12/09 A2948 1490 83 1500 200/21G24 RMK AO2 TSNO
94908KDBQ DBQ20060331030511403/31/06 03:05:31  5-MIN KDBQ 310905Z AUTO 20021KT 10SM BKN033 BKN065 12/09 A2948 1490 83 1500 200/21 RMK AO2 TSNO
94908KDBQ DBQ20060331031013803/31/06 03:10:31  5-MIN KDBQ 310910Z AUTO 21022G25KT 10SM SCT033 BKN060 12/09 A2948 1490 83 1500 200/22G25 RMK AO2 PK WND 21026/0910 TSNO
94908KDBQ DBQ20060331031513203/31/06 03:15:31  5-MIN KDBQ 310915Z AUTO 21019KT 10SM FEW033 BKN060 12/09 A2948 1480 83 1500 210/19 RMK AO2 PK WND 21026/0910 TSNO
94908KDBQ DBQ20060331032013803/31/06 03:20:31  5-MIN KDBQ 310920Z AUTO 21022G26KT 10SM FEW033 BKN060 12/09 A2948 1480 83 1500 210/22G26 RMK AO2 PK WND 21026/0920 TSNO
94908KDBQ DBQ20060331032513103/31/06 03:25:31  5-MIN KDBQ 310925Z AUTO 21019G26KT 10SM BKN060 12/09 A2949 1480 83 1500 210/19G26 RMK AO2 PK WND 21026/0920 TSNO
94908KDBQ DBQ20060331033013103/31/06 03:30:31  5-MIN KDBQ 310930Z AUTO 21019G23KT 10SM BKN060 12/09 A2949 1480 83 1500 210/19G23 RMK AO2 PK WND 21026/0920 TSNO
94908KDBQ DBQ20060331033512503/31/06 03:35:31  5-MIN KDBQ 310935Z AUTO 21017KT 10SM SCT060 12/08 A2949 1480 80 1500 210/17 RMK AO2 PK WND 21026/0920 TSNO
94908KDBQ DBQ20060331034012503/31/06 03:40:31  5-MIN KDBQ 310940Z AUTO 21018KT 10SM SCT060 12/08 A2949 1480 80 1500 210/18 RMK AO2 PK WND 21026/0920 TSNO
94908KDBQ DBQ20060331034513203/31/06 03:45:31  5-MIN KDBQ 310945Z AUTO 21015KT 10SM SCT026 SCT060 12/09 A2949 1480 83 1500 210/15 RMK AO2 PK WND 21026/0920 TSNO
94908KDBQ DBQ20060331035013203/31/06 03:50:31  5-MIN KDBQ 310950Z AUTO 21017KT 10SM BKN026 BKN060 12/09 A2949 1480 83 1500 210/17 RMK AO2 PK WND 21026/0920 TSNO
94908KDBQ DBQ20060331035514203/31/06 03:55:31  5-MIN KDBQ 310955Z AUTO 22018KT 10SM BKN028 12/08 A2949 1480 80 1500 220/18 RMK AO2 PK WND 21026/0920 SLP986 T01170083 TSNO
94908KDBQ DBQ20060331040010703/31/06 04:00:31  5-MIN KDBQ 311000Z AUTO 22016KT 10SM BKN030 12/08 A2949 1480 80 1500 220/16 RMK AO2 TSNO
94908KDBQ DBQ20060331040511303/31/06 04:05:31  5-MIN KDBQ 311005Z AUTO 22018G23KT 10SM BKN028 12/09 A2949 1480 83 1500 220/18G23 RMK AO2 TSNO
94908KDBQ DBQ20060331041012003/31/06 04:10:31  5-MIN KDBQ 311010Z AUTO 22018G23KT 10SM BKN026 OVC031 12/09 A2949 1480 83 1500 220/18G23 RMK AO2 TSNO
94908KDBQ DBQ20060331041512003/31/06 04:15:31  5-MIN KDBQ 311015Z AUTO 21021G24KT 10SM BKN022 OVC029 12/09 A2950 1470 83 1500 210/21G24 RMK AO2 TSNO
94908KDBQ DBQ20060331042012003/31/06 04:20:31  5-MIN KDBQ 311020Z AUTO 22018G24KT 10SM BKN022 OVC029 12/09 A2950 1470 83 1500 220/18G24 RMK AO2 TSNO
94908KDBQ DBQ20060331042513803/31/06 04:25:31  5-MIN KDBQ 311025Z AUTO 22020G26KT 10SM BKN022 OVC029 12/09 A2949 1480 83 1500 220/20G26 RMK AO2 PK WND 22026/1023 TSNO
94908KDBQ DBQ20060331043013103/31/06 04:30:31  5-MIN KDBQ 311030Z AUTO 22021G28KT 10SM OVC022 12/09 A2950 1470 83 1500 220/21G28 RMK AO2 PK WND 22028/1028 TSNO
94908KDBQ DBQ20060331043513103/31/06 04:35:31  5-MIN KDBQ 311035Z AUTO 22021G28KT 10SM OVC020 12/09 A2949 1480 83 1500 220/21G28 RMK AO2 PK WND 22028/1028 TSNO
94908KDBQ DBQ20060331044013103/31/06 04:40:31  5-MIN KDBQ 311040Z AUTO 23020G26KT 10SM OVC020 12/08 A2950 1470 80 1500 230/20G26 RMK AO2 PK WND 22028/1028 TSNO
94908KDBQ DBQ20060331044513103/31/06 04:45:31  5-MIN KDBQ 311045Z AUTO 23021G27KT 10SM OVC020 12/09 A2951 1460 83 1500 230/21G27 RMK AO2 PK WND 22028/1028 TSNO
94908KDBQ DBQ20060331045014803/31/06 04:50:31  5-MIN KDBQ 311050Z AUTO 23019G27KT 10SM OVC020 12/09 A2950 1470 83 1500 230/19G27 RMK AO2 PK WND 22028/1028 SLP992 T01170089 TSNO
94908KDBQ DBQ20060331045514203/31/06 04:55:31  5-MIN KDBQ 311055Z AUTO 23020KT 10SM OVC020 12/09 A2951 1460 83 1400 230/20 RMK AO2 PK WND 22028/1028 SLP995 T01170089 TSNO
94908KDBQ DBQ20060331050013103/31/06 05:00:31  5-MIN KDBQ 311100Z AUTO 23022G27KT 10SM OVC018 12/08 A2951 1460 80 1400 230/22G27 RMK AO2 PK WND 24027/1059 TSNO
94908KDBQ DBQ20060331050513103/31/06 05:05:31  5-MIN KDBQ 311105Z AUTO 24024G33KT 10SM OVC018 11/08 A2950 1470 83 1400 230/24G33 RMK AO2 PK WND 24033/1105 TSNO
94908KDBQ DBQ20060331051013103/31/06 05:10:31  5-MIN KDBQ 311110Z AUTO 24022G33KT 10SM OVC018 11/08 A2951 1460 83 1400 240/22G33 RMK AO2 PK WND 24033/1105 TSNO
94908KDBQ DBQ20060331051513803/31/06 05:15:31  5-MIN KDBQ 311115Z AUTO 24022G29KT 10SM BKN018 OVC023 11/08 A2952 1450 83 1400 240/22G29 RMK AO2 PK WND 24033/1105 TSNO
94908KDBQ DBQ20060331052013103/31/06 05:20:31  5-MIN KDBQ 311120Z AUTO 24020G29KT 10SM OVC018 11/08 A2951 1460 83 1400 240/20G29 RMK AO2 PK WND 24033/1105 TSNO
94908KDBQ DBQ20060331052513103/31/06 05:25:31  5-MIN KDBQ 311125Z AUTO 24018G26KT 10SM OVC016 11/08 A2952 1450 83 1400 230/18G26 RMK AO2 PK WND 24033/1105 TSNO
94908KDBQ DBQ20060331053013103/31/06 05:30:31  5-MIN KDBQ 311130Z AUTO 25024G29KT 10SM OVC016 11/08 A2952 1450 86 1300 250/24G29 RMK AO2 PK WND 24033/1105 TSNO
94908KDBQ DBQ20060331053514503/31/06 05:35:31  5-MIN KDBQ 311135Z AUTO 24024G30KT 10SM BKN016 BKN022 OVC028 11/08 A2952 1450 83 1300 240/24G30 RMK AO2 PK WND 24033/1105 TSNO
94908KDBQ DBQ20060331054013803/31/06 05:40:31  5-MIN KDBQ 311140Z AUTO 24028G35KT 10SM BKN016 OVC026 11/07 A2952 1450 77 1300 240/28G35 RMK AO2 PK WND 24035/1137 TSNO
94908KDBQ DBQ20060331054513803/31/06 05:45:31  5-MIN KDBQ 311145Z AUTO 25025G35KT 10SM SCT016 OVC026 10/07 A2953 1440 80 1200 250/25G35 RMK AO2 PK WND 24035/1137 TSNO
94908KDBQ DBQ20060331055016903/31/06 05:50:31  5-MIN KDBQ 311150Z 24021G29KT 10SM FEW016 OVC026 10/07 A2954 1440 80 1200 240/21G29 RMK AO2 PK WND 24035/1137 SLP002 70089 T01000067 10144 20100 56010
94908KDBQ DBQ20060331055516903/31/06 05:55:31  5-MIN KDBQ 311155Z 25025G30KT 10SM FEW016 OVC026 10/07 A2954 1430 80 1200 240/25G30 RMK AO2 PK WND 24035/1137 SLP003 70089 T01000067 10144 20100 53019
94908KDBQ DBQ20060331060012103/31/06 06:00:31  5-MIN KDBQ 311200Z 25023G32KT 10SM OVC026 10/06 A2953 1440 77 1200 240/23G32 RMK AO2 PK WND 25032/1158
94908KDBQ DBQ20060331060512103/31/06 06:05:31  5-MIN KDBQ 311205Z 25021G32KT 10SM OVC026 10/06 A2954 1440 77 1200 240/21G32 RMK AO2 PK WND 25032/1158
94908KDBQ DBQ20060331061012103/31/06 06:10:31  5-MIN KDBQ 311210Z 24022G30KT 10SM OVC026 10/06 A2954 1430 77 1200 240/22G30 RMK AO2 PK WND 25032/1158
94908KDBQ DBQ20060331061512103/31/06 06:15:31  5-MIN KDBQ 311215Z 24018G27KT 10SM OVC026 09/06 A2954 1430 79 1100 240/18G27 RMK AO2 PK WND 25032/1158
94908KDBQ DBQ20060331062011503/31/06 06:20:31  5-MIN KDBQ 311220Z 25019KT 10SM OVC026 09/06 A2955 1420 79 1100 240/19 RMK AO2 PK WND 25032/1158
94908KDBQ DBQ20060331062512103/31/06 06:25:31  5-MIN KDBQ 311225Z 25020G24KT 10SM OVC024 09/06 A2955 1420 76 1100 250/20G24 RMK AO2 PK WND 25032/1158
94908KDBQ DBQ20060331063012103/31/06 06:30:31  5-MIN KDBQ 311230Z 25018G25KT 10SM OVC022 09/06 A2956 1410 76 1100 250/18G25 RMK AO2 PK WND 25032/1158
94908KDBQ DBQ20060331063512203/31/06 06:35:31  5-MIN KDBQ 311235Z 24016KT 10SM BKN020 OVC025 09/06 A2956 1410 79 1100 240/16 RMK AO2 PK WND 25032/1158
94908KDBQ DBQ20060331064012803/31/06 06:40:31  5-MIN KDBQ 311240Z 24016G22KT 10SM BKN019 OVC024 09/06 A2957 1410 79 1100 240/16G22 RMK AO2 PK WND 25032/1158
94908KDBQ DBQ20060331064512203/31/06 06:45:31  5-MIN KDBQ 311245Z 24016KT 10SM BKN019 OVC025 09/06 A2957 1410 79 1100 240/16 RMK AO2 PK WND 25032/1158
94908KDBQ DBQ20060331065014603/31/06 06:50:31  5-MIN KDBQ 311250Z 23017KT 10SM BKN019 BKN025 OVC030 09/06 A2957 1410 79 1100 230/17 RMK AO2 PK WND 25032/1158 SLP013 T00940061
94908KDBQ DBQ20060331065513903/31/06 06:55:31  5-MIN KDBQ 311255Z 23013KT 10SM BKN019 OVC025 09/06 A2957 1400 79 1100 230/13 RMK AO2 PK WND 25032/1158 SLP014 T00940061
94908KDBQ DBQ20060331070011003/31/06 07:00:31  5-MIN KDBQ 311300Z 22015G23KT 10SM BKN019 OVC025 09/06 A2957 1400 79 1100 210/15G23 RMK AO2
94908KDBQ DBQ20060331070511003/31/06 07:05:31  5-MIN KDBQ 311305Z 23020G25KT 10SM BKN019 OVC025 09/06 A2956 1410 79 1100 220/20G25 RMK AO2
94908KDBQ DBQ20060331071013503/31/06 07:10:31  5-MIN KDBQ 311310Z 23022G28KT 10SM FEW018 BKN023 OVC028 09/06 A2956 1420 76 1100 230/22G28 RMK AO2 PK WND 22028/1308
94908KDBQ DBQ20060331071513503/31/06 07:15:31  5-MIN KDBQ 311315Z 23028G34KT 10SM BKN023 OVC030 09/05 A2955 1430 74 1100 230/28G34 RMK AO2 PK WND 22034/1314 PRESFR
94908KDBQ DBQ20060331072012803/31/06 07:20:31  5-MIN KDBQ 311320Z 23026G34KT 10SM SCT021 OVC031 09/05 A2954 1430 74 1100 230/26G34 RMK AO2 PK WND 22034/1314
94908KDBQ DBQ20060331072512903/31/06 07:25:31  5-MIN KDBQ 311325Z 23025KT 10SM SCT023 SCT028 OVC033 09/05 A2954 1430 74 1100 230/25 RMK AO2 PK WND 22034/1314
94908KDBQ DBQ20060331073012803/31/06 07:30:31  5-MIN KDBQ 311330Z 23023G29KT 10SM BKN025 OVC033 09/05 A2954 1430 74 1100 230/23G29 RMK AO2 PK WND 22034/1314
94908KDBQ DBQ20060331073512803/31/06 07:35:31  5-MIN KDBQ 311335Z 23024G31KT 10SM SCT023 OVC031 09/05 A2955 1420 74 1100 230/24G31 RMK AO2 PK WND 22034/1314
94908KDBQ DBQ20060331074012803/31/06 07:40:31  5-MIN KDBQ 311340Z 23025G31KT 10SM FEW023 OVC031 09/05 A2955 1430 74 1100 230/25G31 RMK AO2 PK WND 22034/1314
94908KDBQ DBQ20060331074512803/31/06 07:45:31  5-MIN KDBQ 311345Z 23025G30KT 10SM FEW023 OVC029 09/05 A2955 1420 76 1100 230/25G30 RMK AO2 PK WND 22034/1314
94908KDBQ DBQ20060331075014503/31/06 07:50:31  5-MIN KDBQ 311350Z 23024G32KT 10SM BKN027 OVC032 09/04 A2955 1430 73 1100 230/24G32 RMK AO2 PK WND 22034/1314 SLP006 T00890044
94908KDBQ DBQ20060331075514503/31/06 07:55:31  5-MIN KDBQ 311355Z 23023G32KT 10SM BKN027 OVC032 09/05 A2955 1430 76 1100 230/23G32 RMK AO2 PK WND 22034/1314 SLP007 T00890050
94908KDBQ DBQ20060331080012803/31/06 08:00:31  5-MIN KDBQ 311400Z 23023G29KT 10SM BKN027 OVC032 09/05 A2955 1430 76 1100 230/23G29 RMK AO2 PK WND 23029/1358
94908KDBQ DBQ20060331080512803/31/06 08:05:31  5-MIN KDBQ 311405Z 23022G29KT 10SM BKN029 OVC034 09/05 A2955 1420 74 1100 230/22G29 RMK AO2 PK WND 23029/1358
94908KDBQ DBQ20060331081012803/31/06 08:10:31  5-MIN KDBQ 311410Z 23023G28KT 10SM BKN029 OVC034 09/04 A2955 1420 73 1100 230/23G28 RMK AO2 PK WND 23029/1358
94908KDBQ DBQ20060331081512103/31/06 08:15:31  5-MIN KDBQ 311415Z 23023G30KT 10SM OVC029 09/05 A2955 1420 76 1100 230/23G30 RMK AO2 PK WND 24030/1414
94908KDBQ DBQ20060331082012803/31/06 08:20:31  5-MIN KDBQ 311420Z 23017G30KT 10SM SCT025 OVC031 09/05 A2956 1420 76 1100 230/17G30 RMK AO2 PK WND 24030/1414
94908KDBQ DBQ20060331082512203/31/06 08:25:31  5-MIN KDBQ 311425Z 22016KT 10SM BKN025 OVC031 09/05 A2956 1420 76 1100 220/16 RMK AO2 PK WND 24030/1414
94908KDBQ DBQ20060331083012803/31/06 08:30:31  5-MIN KDBQ 311430Z 22021G25KT 10SM BKN025 OVC031 09/05 A2957 1410 76 1000 220/21G25 RMK AO2 PK WND 24030/1414
94908KDBQ DBQ20060331083512803/31/06 08:35:31  5-MIN KDBQ 311435Z 23022G25KT 10SM BKN025 OVC031 09/04 A2956 1410 73 1100 230/22G25 RMK AO2 PK WND 24030/1414
94908KDBQ DBQ20060331084012103/31/06 08:40:31  5-MIN KDBQ 311440Z 24024G27KT 10SM OVC025 09/04 A2956 1420 73 1100 240/24G27 RMK AO2 PK WND 24030/1414
94908KDBQ DBQ20060331084512103/31/06 08:45:31  5-MIN KDBQ 311445Z 23018G27KT 10SM OVC025 09/05 A2956 1410 76 1100 230/18G27 RMK AO2 PK WND 24030/1414
94908KDBQ DBQ20060331085014403/31/06 08:50:31  5-MIN KDBQ 311450Z 23020G25KT 10SM OVC023 09/05 A2957 1410 76 1000 230/20G25 RMK AO2 PK WND 24030/1414 SLP014 T00890050 53019
94908KDBQ DBQ20060331085514403/31/06 08:55:31  5-MIN KDBQ 311455Z 23024G29KT 10SM OVC023 09/04 A2957 1410 73 1000 230/24G29 RMK AO2 PK WND 24030/1414 SLP013 T00890044 51010
94908KDBQ DBQ20060331090012103/31/06 09:00:31  5-MIN KDBQ 311500Z 23024G29KT 10SM OVC023 09/04 A2956 1410 73 1100 230/24G29 RMK AO2 PK WND 23028/1458
94908KDBQ DBQ20060331090512103/31/06 09:05:31  5-MIN KDBQ 311505Z 23020G28KT 10SM OVC023 09/04 A2957 1410 73 1000 230/20G28 RMK AO2 PK WND 23028/1458
94908KDBQ DBQ20060331091012103/31/06 09:10:31  5-MIN KDBQ 311510Z 23022G26KT 10SM OVC021 09/04 A2957 1410 73 1100 230/22G26 RMK AO2 PK WND 23028/1458
94908KDBQ DBQ20060331091512103/31/06 09:15:31  5-MIN KDBQ 311515Z 23018G27KT 10SM OVC021 09/05 A2957 1410 76 1000 230/18G27 RMK AO2 PK WND 23028/1458
94908KDBQ DBQ20060331092012103/31/06 09:20:31  5-MIN KDBQ 311520Z 24021G25KT 10SM OVC023 09/05 A2956 1410 76 1100 240/21G25 RMK AO2 PK WND 23028/1458
94908KDBQ DBQ20060331092512103/31/06 09:25:31  5-MIN KDBQ 311525Z 23021G25KT 10SM OVC023 09/05 A2957 1410 76 1000 230/21G25 RMK AO2 PK WND 23028/1458
94908KDBQ DBQ20060331093012103/31/06 09:30:31  5-MIN KDBQ 311530Z 23022G25KT 10SM OVC021 09/05 A2956 1410 76 1100 230/22G25 RMK AO2 PK WND 23028/1458
94908KDBQ DBQ20060331093512803/31/06 09:35:31  5-MIN KDBQ 311535Z 23025G30KT 10SM BKN023 OVC029 09/04 A2957 1400 73 1000 230/25G30 RMK AO2 PK WND 23030/1534
94908KDBQ DBQ20060331094012803/31/06 09:40:31  5-MIN KDBQ 311540Z 24028G32KT 10SM BKN023 OVC029 09/04 A2957 1410 73 1000 240/28G32 RMK AO2 PK WND 24032/1540
94908KDBQ DBQ20060331094512103/31/06 09:45:31  5-MIN KDBQ 311545Z 24026G32KT 10SM OVC023 09/04 A2957 1400 71 1000 240/26G32 RMK AO2 PK WND 24032/1540
94908KDBQ DBQ20060331095013803/31/06 09:50:31  5-MIN KDBQ 311550Z 24025G31KT 10SM OVC023 08/04 A2957 1400 73 1000 240/25G31 RMK AO2 PK WND 24032/1540 SLP015 T00830039
94908KDBQ DBQ20060331095514503/31/06 09:55:31  5-MIN KDBQ 311555Z 25022G31KT 10SM BKN023 OVC029 08/04 A2957 1400 73 1000 240/22G31 RMK AO2 PK WND 24032/1540 SLP015 T00830039
94908KDBQ DBQ20060331100012103/31/06 10:00:31  5-MIN KDBQ 311600Z 25023G31KT 10SM OVC023 08/04 A2958 1400 73 1000 250/23G31 RMK AO2 PK WND 24031/1556
94908KDBQ DBQ20060331100512103/31/06 10:05:31  5-MIN KDBQ 311605Z 25021G31KT 10SM OVC023 08/03 A2958 1390 70 1000 250/21G31 RMK AO2 PK WND 24031/1556
94908KDBQ DBQ20060331101012103/31/06 10:10:31  5-MIN KDBQ 311610Z 25019G27KT 10SM OVC023 08/04 A2959 1390 73 1000 250/19G27 RMK AO2 PK WND 24031/1556
94908KDBQ DBQ20060331101512803/31/06 10:15:31  5-MIN KDBQ 311615Z 25019G25KT 10SM OVC023 08/04 A2959 1380 73 1000 240/19G25 RMK AO2 PK WND 24031/1556 PRESRR
94908KDBQ DBQ20060331102012103/31/06 10:20:31  5-MIN KDBQ 311620Z 25025G31KT 10SM OVC023 08/04 A2959 1380 73 1000 240/25G31 RMK AO2 PK WND 24031/1619
94908KDBQ DBQ20060331102512103/31/06 10:25:31  5-MIN KDBQ 311625Z 24022G31KT 10SM OVC023 08/04 A2959 1380 73 1000 240/22G31 RMK AO2 PK WND 24031/1619
94908KDBQ DBQ20060331103011403/31/06 10:30:31  5-MIN KDBQ 311630Z 24021KT 10SM OVC023 08/04 A2960 1380 73 900 240/21 RMK AO2 PK WND 24031/1619
94908KDBQ DBQ20060331103512003/31/06 10:35:31  5-MIN KDBQ 311635Z 24024G29KT 10SM OVC023 08/04 A2960 1380 73 900 240/24G29 RMK AO2 PK WND 24031/1619
94908KDBQ DBQ20060331104012103/31/06 10:40:31  5-MIN KDBQ 311640Z 24023G29KT 10SM OVC023 08/04 A2959 1390 73 1000 240/23G29 RMK AO2 PK WND 24031/1619
94908KDBQ DBQ20060331104512103/31/06 10:45:31  5-MIN KDBQ 311645Z 24023G27KT 10SM OVC023 08/04 A2959 1380 73 1000 240/23G27 RMK AO2 PK WND 24031/1619
94908KDBQ DBQ20060331105013703/31/06 10:50:31  5-MIN KDBQ 311650Z 24022G28KT 10SM OVC023 08/04 A2960 1380 73 900 240/22G28 RMK AO2 PK WND 24031/1619 SLP023 T00830039
94908KDBQ DBQ20060331105513803/31/06 10:55:31  5-MIN KDBQ 311655Z 24024G28KT 10SM OVC023 08/04 A2959 1390 73 1000 240/24G28 RMK AO2 PK WND 24031/1619 SLP020 T00830039
94908KDBQ DBQ20060331110012103/31/06 11:00:31  5-MIN KDBQ 311700Z 24023G28KT 10SM OVC023 08/04 A2959 1380 73 1000 240/23G28 RMK AO2 PK WND 25028/1700
94908KDBQ DBQ20060331110512103/31/06 11:05:31  5-MIN KDBQ 311705Z 25023G29KT 10SM OVC023 08/04 A2959 1380 73 1000 250/23G29 RMK AO2 PK WND 25029/1705
94908KDBQ DBQ20060331111012103/31/06 11:10:31  5-MIN KDBQ 311710Z 24027G36KT 10SM OVC023 08/04 A2959 1390 73 1000 240/27G36 RMK AO2 PK WND 24036/1709
94908KDBQ DBQ20060331111512103/31/06 11:15:31  5-MIN KDBQ 311715Z 24027G36KT 10SM OVC023 08/03 A2958 1390 70 1000 240/27G36 RMK AO2 PK WND 24036/1709
94908KDBQ DBQ20060331112012103/31/06 11:20:31  5-MIN KDBQ 311720Z 25030G36KT 10SM OVC023 08/03 A2959 1390 70 1000 250/30G36 RMK AO2 PK WND 24036/1718
94908KDBQ DBQ20060331112512003/31/06 11:25:31  5-MIN KDBQ 311725Z 25031G36KT 10SM OVC023 08/03 A2959 1390 73 900 240/31G36 RMK AO2 PK WND 25036/1724
94908KDBQ DBQ20060331113012003/31/06 11:30:31  5-MIN KDBQ 311730Z 24025G36KT 10SM OVC023 08/03 A2959 1380 73 900 240/25G36 RMK AO2 PK WND 25036/1724
94908KDBQ DBQ20060331113512003/31/06 11:35:31  5-MIN KDBQ 311735Z 25030G39KT 10SM OVC023 08/03 A2958 1390 73 900 250/30G39 RMK AO2 PK WND 24039/1731
94908KDBQ DBQ20060331114012003/31/06 11:40:31  5-MIN KDBQ 311740Z 25025G39KT 10SM OVC023 07/03 A2960 1380 76 800 250/25G39 RMK AO2 PK WND 24039/1731
94908KDBQ DBQ20060331114512003/31/06 11:45:31  5-MIN KDBQ 311745Z 24027G34KT 10SM OVC023 07/03 A2960 1380 76 800 240/27G34 RMK AO2 PK WND 24039/1731
94908KDBQ DBQ20060331115017703/31/06 11:50:31  5-MIN KDBQ 311750Z 24028G35KT 10SM -RA OVC023 07/03 A2960 1370 76 800 240/28G35 RMK AO2 PK WND 24039/1731 RAB48 SLP026 P0000 60000 T00720033 10100 20072 51010
94908KDBQ DBQ20060331115517603/31/06 11:55:31  5-MIN KDBQ 311755Z 25030G36KT 8SM -RA OVC023 07/04 A2960 1380 79 800 250/30G36 RMK AO2 PK WND 24039/1731 RAB48 SLP025 P0000 60000 T00720039 10100 20072 53011
94908KDBQ DBQ20060331120013903/31/06 12:00:31  5-MIN KDBQ 311800Z 25024G36KT 5SM -RA BR BKN020 OVC026 07/04 A2961 1370 86 700 250/24G36 RMK AO2 PK WND 25031/1756 P0000
94908KDBQ DBQ20060331120513903/31/06 12:05:31  5-MIN KDBQ 311805Z 25024G29KT 4SM -RA BR BKN020 OVC026 07/05 A2960 1370 89 700 240/24G29 RMK AO2 PK WND 25031/1756 P0000
94908KDBQ DBQ20060331121014603/31/06 12:10:31  5-MIN KDBQ 311810Z 24024G29KT 5SM -RA BR SCT020 BKN025 OVC031 07/05 A2961 1370 89 700 240/24G29 RMK AO2 PK WND 25031/1756 P0000
94908KDBQ DBQ20060331121514603/31/06 12:15:31  5-MIN KDBQ 311815Z 25021G29KT 6SM -RA BR SCT020 BKN027 OVC031 07/05 A2962 1360 89 700 240/21G29 RMK AO2 PK WND 25031/1756 P0000
94908KDBQ DBQ20060331122013303/31/06 12:20:31  5-MIN KDBQ 311820Z 24020KT 6SM -RA BR SCT018 OVC027 07/06 A2960 1370 93 700 240/20 RMK AO2 PK WND 25031/1756 P0000
94908KDBQ DBQ20060331122514003/31/06 12:25:31  5-MIN KDBQ 311825Z 24023KT 6SM -RA BR SCT016 BKN021 OVC027 07/06 A2961 1360 93 700 240/23 RMK AO2 PK WND 25031/1756 P0001
94908KDBQ DBQ20060331123014303/31/06 12:30:31  5-MIN KDBQ 311830Z 24024G30KT 7SM -RA SCT014 BKN019 OVC027 07/06 A2961 1370 93 700 240/24G30 RMK AO2 PK WND 25031/1756 P0001
94908KDBQ DBQ20060331123514303/31/06 12:35:31  5-MIN KDBQ 311835Z 24027G32KT 9SM -RA SCT014 BKN021 OVC027 07/06 A2960 1370 93 700 240/27G32 RMK AO2 PK WND 25032/1835 P0001
94908KDBQ DBQ20060331124014403/31/06 12:40:31  5-MIN KDBQ 311840Z 24026G32KT 10SM -RA SCT014 BKN021 OVC025 07/06 A2961 1370 93 700 240/26G32 RMK AO2 PK WND 24032/1840 P0001
94908KDBQ DBQ20060331124514403/31/06 12:45:31  5-MIN KDBQ 311845Z 24022G33KT 10SM -RA SCT014 BKN021 OVC030 06/06 A2960 1380 96 700 240/22G33 RMK AO2 PK WND 25033/1841 P0001
94908KDBQ DBQ20060331125016103/31/06 12:50:31  5-MIN KDBQ 311850Z 24022G33KT 10SM -RA SCT014 BKN021 OVC030 07/06 A2961 1370 93 700 240/22G33 RMK AO2 PK WND 25033/1841 SLP029 P0001 T00670056
94908KDBQ DBQ20060331125516103/31/06 12:55:31  5-MIN KDBQ 311855Z 24026G31KT 10SM -RA FEW014 BKN022 OVC030 06/06 A2960 1370 96 700 240/26G31 RMK AO2 PK WND 25033/1841 SLP028 P0001 T00610056
94908KDBQ DBQ20060331130014603/31/06 13:00:31  5-MIN KDBQ 311900Z 24025G33KT 10SM -RA SCT017 BKN024 OVC030 06/06 A2961 1370 96 700 240/25G33 RMK AO2 PK WND 24033/1900 P0000 $
94908KDBQ DBQ20060331130514803/31/06 13:05:31  5-MIN KDBQ 311905Z 23028G36KT 10SM FEW014 BKN022 OVC030 06/06 A2961 1360 96 700 230/28G36 RMK AO2 PK WND 24036/1903 RAE05 P0000 $
94908KDBQ DBQ20060331131014803/31/06 13:10:31  5-MIN KDBQ 311910Z 24030G39KT 10SM FEW018 BKN022 OVC030 06/06 A2959 1390 96 700 240/30G39 RMK AO2 PK WND 24039/1910 RAE05 P0000 $
94908KDBQ DBQ20060331131513603/31/06 13:15:31  5-MIN KDBQ 311915Z 25028G39KT 10SM -RA FEW017 OVC022 07/ A2960 1380 M 700 250/28G39 RMK AO2 PK WND 25039/1911 P0000 $
94908KDBQ DBQ20060331132013603/31/06 13:20:31  5-MIN KDBQ 311920Z 25026G39KT 10SM -RA BKN019 OVC024 07/ A2961 1370 M 700 250/26G39 RMK AO2 PK WND 25039/1911 P0000 $
94908KDBQ DBQ20060331132513603/31/06 13:25:31  5-MIN KDBQ 311925Z 25027G36KT 10SM -RA BKN021 OVC026 06/ A2961 1370 M 700 250/27G36 RMK AO2 PK WND 25039/1911 P0000 $
94908KDBQ DBQ20060331133013603/31/06 13:30:31  5-MIN KDBQ 311930Z 25023G33KT 10SM -RA BKN019 OVC024 07/ A2960 1370 M 700 240/23G33 RMK AO2 PK WND 25039/1911 P0000 $
94908KDBQ DBQ20060331133513603/31/06 13:35:31  5-MIN KDBQ 311935Z 25023G32KT 10SM -RA BKN017 OVC024 06/ A2961 1360 M 700 240/23G32 RMK AO2 PK WND 25039/1911 P0000 $
94908KDBQ DBQ20060331134013503/31/06 13:40:31  5-MIN KDBQ 311940Z 25027G32KT 9SM -RA BKN016 OVC023 06/ A2960 1370 M 700 250/27G32 RMK AO2 PK WND 25039/1911 P0000 $
94908KDBQ DBQ20060331134512903/31/06 13:45:31  5-MIN KDBQ 311945Z 24022G32KT 10SM -RA OVC019 06/ A2961 1360 M 700 240/22G32 RMK AO2 PK WND 25039/1911 P0000 $
94908KDBQ DBQ20060331135014903/31/06 13:50:31  5-MIN KDBQ 311950Z 24022G29KT 10SM -RA BKN019 OVC024 07/ A2961 1370 M 700 240/22G29 RMK AO2 PK WND 25039/1911 SLP029 P0000 T0067 $
94908KDBQ DBQ20060331135514903/31/06 13:55:31  5-MIN KDBQ 311955Z 24029KT 9SM -RA SCT013 BKN019 OVC024 06/ A2961 1360 M 700 240/29 RMK AO2 PK WND 25039/1911 SLP031 P0000 T0061 $
94908KDBQ DBQ20060331140013503/31/06 14:00:31  5-MIN KDBQ 312000Z 25027G35KT 8SM -RA BKN016 OVC024 06/ A2961 1370 M 700 250/27G35 RMK AO2 PK WND 25035/1956 P0000 $
94908KDBQ DBQ20060331140513803/31/06 14:05:31  5-MIN KDBQ 312005Z 25027G35KT 10SM SCT014 OVC019 06/ A2962 1360 M 700 240/27G35 RMK AO2 PK WND 25035/1956 RAE04 P0000 $
94908KDBQ DBQ20060331141013803/31/06 14:10:31  5-MIN KDBQ 312010Z 25030G34KT 10SM SCT014 OVC019 06/ A2961 1370 M 700 250/30G34 RMK AO2 PK WND 25035/1956 RAE04 P0000 $
94908KDBQ DBQ20060331141513803/31/06 14:15:31  5-MIN KDBQ 312015Z 25023G34KT 10SM SCT014 OVC019 07/ A2962 1360 M 700 250/23G34 RMK AO2 PK WND 25035/1956 RAE04 P0000 $
94908KDBQ DBQ20060331142013703/31/06 14:20:31  5-MIN KDBQ 312020Z 24024G32KT 9SM BKN014 OVC019 07/ A2961 1360 M 700 240/24G32 RMK AO2 PK WND 25035/1956 RAE04 P0000 $
94908KDBQ DBQ20060331142513703/31/06 14:25:31  5-MIN KDBQ 312025Z 25028G34KT 8SM BKN016 OVC020 06/ A2962 1350 M 600 250/28G34 RMK AO2 PK WND 25035/1956 RAE04 P0000 $
94908KDBQ DBQ20060331143013703/31/06 14:30:31  5-MIN KDBQ 312030Z 24026G37KT 7SM BKN014 OVC020 06/ A2962 1360 M 700 240/26G37 RMK AO2 PK WND 24037/2026 RAE04 P0000 $
94908KDBQ DBQ20060331143513703/31/06 14:35:31  5-MIN KDBQ 312035Z 25033G42KT 8SM BKN014 OVC020 06/ A2963 1350 M 600 250/33G42 RMK AO2 PK WND 26042/2033 RAE04 P0000 $
94908KDBQ DBQ20060331144013803/31/06 14:40:31  5-MIN KDBQ 312040Z 25032G42KT 10SM BKN014 OVC020 07/ A2962 1360 M 700 250/32G42 RMK AO2 PK WND 26042/2038 RAE04 P0000 $
94908KDBQ DBQ20060331144513803/31/06 14:45:31  5-MIN KDBQ 312045Z 25029G42KT 10SM BKN014 OVC020 07/ A2962 1360 M 700 250/29G42 RMK AO2 PK WND 26042/2038 RAE04 P0000 $
94908KDBQ DBQ20060331145013103/31/06 14:50:31  5-MIN KDBQ 312050Z 25025G36KT 10SM OVC016 07/ A2963 1350 M 700 250/25G36 RMK AO2 PK WND 26042/2038 RAE04 P0000 $
94908KDBQ DBQ20060331145515603/31/06 14:55:31  5-MIN KDBQ 312055Z 25023G32KT 10SM OVC016 06/ A2963 1350 M 600 250/23G32 RMK AO2 PK WND 26042/2038 RAE04 SLP039 P0000 60001 T0061 53011 $
94908KDBQ DBQ20060331150011903/31/06 15:00:31  5-MIN KDBQ 312100Z 25027G35KT 10SM OVC016 06/ A2964 1340 M 600 250/27G35 RMK AO2 PK WND 25035/2058 $
94908KDBQ DBQ20060331150511903/31/06 15:05:31  5-MIN KDBQ 312105Z 25023G35KT 10SM OVC016 06/ A2964 1330 M 600 250/23G35 RMK AO2 PK WND 25035/2101 $
94908KDBQ DBQ20060331151011903/31/06 15:10:31  5-MIN KDBQ 312110Z 25028G35KT 10SM OVC016 06/ A2964 1340 M 600 250/28G35 RMK AO2 PK WND 25035/2101 $
94908KDBQ DBQ20060331151511903/31/06 15:15:31  5-MIN KDBQ 312115Z 26025G34KT 10SM OVC016 06/ A2964 1340 M 600 250/25G34 RMK AO2 PK WND 25035/2101 $
94908KDBQ DBQ20060331152011903/31/06 15:20:31  5-MIN KDBQ 312120Z 26030G37KT 10SM OVC016 06/ A2964 1340 M 600 250/30G37 RMK AO2 PK WND 26037/2118 $
94908KDBQ DBQ20060331152511903/31/06 15:25:31  5-MIN KDBQ 312125Z 26035G41KT 10SM OVC016 06/ A2964 1340 M 600 260/35G41 RMK AO2 PK WND 26041/2124 $
94908KDBQ DBQ20060331153011903/31/06 15:30:31  5-MIN KDBQ 312130Z 26027G41KT 10SM OVC016 06/ A2965 1330 M 600 260/27G41 RMK AO2 PK WND 26041/2124 $
94908KDBQ DBQ20060331153512603/31/06 15:35:31  5-MIN KDBQ 312135Z 25031G37KT 10SM OVC016 07/ A2966 1320 M 700 250/31G37 RMK AO2 PK WND 26041/2124 PRESRR $
94908KDBQ DBQ20060331154011903/31/06 15:40:31  5-MIN KDBQ 312140Z 26029G37KT 10SM OVC016 06/ A2966 1320 M 600 260/29G37 RMK AO2 PK WND 26041/2124 $
94908KDBQ DBQ20060331154511903/31/06 15:45:31  5-MIN KDBQ 312145Z 25029G35KT 10SM OVC016 07/ A2966 1320 M 700 250/29G35 RMK AO2 PK WND 26041/2124 $
94908KDBQ DBQ20060331155011903/31/06 15:50:31  5-MIN KDBQ 312150Z 26025G35KT 10SM OVC014 07/ A2967 1310 M 700 260/25G35 RMK AO2 PK WND 26041/2124 $
94908KDBQ DBQ20060331155513903/31/06 15:55:31  5-MIN KDBQ 312155Z 26023G33KT 10SM OVC014 06/ A2968 1300 M 600 260/23G33 RMK AO2 PK WND 26041/2124 PRESRR SLP056 T0061 $
94908KDBQ DBQ20060331160011903/31/06 16:00:31  5-MIN KDBQ 312200Z 27022G34KT 10SM OVC014 06/ A2969 1300 M 600 260/22G34 RMK AO2 PK WND 26034/2157 $
94908KDBQ DBQ20060331160511903/31/06 16:05:31  5-MIN KDBQ 312205Z 26024G34KT 10SM OVC014 06/ A2969 1290 M 600 260/24G34 RMK AO2 PK WND 26034/2157 $
94908KDBQ DBQ20060331161011903/31/06 16:10:31  5-MIN KDBQ 312210Z 26024G32KT 10SM OVC014 06/ A2969 1290 M 600 260/24G32 RMK AO2 PK WND 26034/2157 $
94908KDBQ DBQ20060331161511903/31/06 16:15:31  5-MIN KDBQ 312215Z 26024G32KT 10SM OVC014 06/ A2969 1290 M 600 260/24G32 RMK AO2 PK WND 26034/2157 $
94908KDBQ DBQ20060331162011903/31/06 16:20:31  5-MIN KDBQ 312220Z 26021G32KT 10SM OVC014 06/ A2969 1290 M 600 260/21G32 RMK AO2 PK WND 26034/2157 $
94908KDBQ DBQ20060331162512203/31/06 16:25:31  5-MIN KDBQ 312225Z 26025G34KT 10SM OVC014 06/06 A2969 1290 96 600 260/25G34 RMK AO2 PK WND 26034/2221 $
94908KDBQ DBQ20060331163012203/31/06 16:30:31  5-MIN KDBQ 312230Z 26027G34KT 10SM OVC012 06/06 A2970 1280 96 600 260/27G34 RMK AO2 PK WND 26034/2221 $
94908KDBQ DBQ20060331163512203/31/06 16:35:31  5-MIN KDBQ 312235Z 26025G32KT 10SM OVC012 06/06 A2970 1280 96 600 260/25G32 RMK AO2 PK WND 26034/2221 $
94908KDBQ DBQ20060331164012203/31/06 16:40:31  5-MIN KDBQ 312240Z 26025G32KT 10SM OVC012 06/06 A2970 1280 96 600 260/25G32 RMK AO2 PK WND 26034/2221 $
94908KDBQ DBQ20060331164512203/31/06 16:45:31  5-MIN KDBQ 312245Z 26022G30KT 10SM OVC012 06/06 A2971 1280 96 600 260/22G30 RMK AO2 PK WND 26034/2221 $
94908KDBQ DBQ20060331165013903/31/06 16:50:31  5-MIN KDBQ 312250Z 26023G30KT 10SM OVC012 06/06 A2971 1270 96 500 260/23G30 RMK AO2 PK WND 26034/2221 SLP065 T00610056 $
94908KDBQ DBQ20060331165513903/31/06 16:55:31  5-MIN KDBQ 312255Z 26022G31KT 10SM OVC012 06/06 A2971 1270 96 500 260/22G31 RMK AO2 PK WND 26034/2221 SLP065 T00610056 $
94908KDBQ DBQ20060331170012203/31/06 17:00:31  5-MIN KDBQ 312300Z 26020G31KT 10SM OVC012 06/06 A2970 1280 96 600 260/20G31 RMK AO2 PK WND 26027/2257 $
94908KDBQ DBQ20060331170512203/31/06 17:05:31  5-MIN KDBQ 312305Z 26023G29KT 10SM OVC012 06/06 A2971 1280 96 600 260/23G29 RMK AO2 PK WND 26029/2301 $
94908KDBQ DBQ20060331171012203/31/06 17:10:31  5-MIN KDBQ 312310Z 26021G29KT 10SM OVC012 06/06 A2971 1270 96 500 260/21G29 RMK AO2 PK WND 26029/2301 $
94908KDBQ DBQ20060331171512203/31/06 17:15:31  5-MIN KDBQ 312315Z 26023G28KT 10SM OVC012 06/06 A2971 1270 96 500 260/23G28 RMK AO2 PK WND 26029/2301 $
94908KDBQ DBQ20060331172012203/31/06 17:20:31  5-MIN KDBQ 312320Z 26023G31KT 10SM OVC012 06/06 A2972 1270 96 500 260/23G31 RMK AO2 PK WND 26031/2316 $
94908KDBQ DBQ20060331172512203/31/06 17:25:31  5-MIN KDBQ 312325Z 26021G31KT 10SM OVC012 06/06 A2972 1270 96 500 260/21G31 RMK AO2 PK WND 26031/2316 $
94908KDBQ DBQ20060331173012203/31/06 17:30:31  5-MIN KDBQ 312330Z 26023G31KT 10SM OVC012 06/06 A2971 1270 96 500 260/23G31 RMK AO2 PK WND 26031/2327 $
94908KDBQ DBQ20060331173512203/31/06 17:35:31  5-MIN KDBQ 312335Z 26024G33KT 10SM OVC012 06/06 A2972 1260 96 500 260/24G33 RMK AO2 PK WND 26033/2333 $
94908KDBQ DBQ20060331174012203/31/06 17:40:31  5-MIN KDBQ 312340Z 26022G33KT 10SM OVC012 06/06 A2972 1260 96 500 260/22G33 RMK AO2 PK WND 26033/2333 $
94908KDBQ DBQ20060331174511603/31/06 17:45:31  5-MIN KDBQ 312345Z 26021KT 10SM OVC012 06/06 A2972 1270 96 500 260/21 RMK AO2 PK WND 26033/2333 $
94908KDBQ DBQ20060331175016303/31/06 17:50:31  5-MIN KDBQ 312350Z 26021G27KT 10SM OVC012 06/06 A2973 1260 96 500 260/21G27 RMK AO2 PK WND 26033/2333 SLP070 60001 T00610056 10067 20061 53011 $
94908KDBQ DBQ20060331175516203/31/06 17:55:31  5-MIN KDBQ 312355Z 26022G29KT 9SM OVC012 06/06 A2973 1260 96 500 260/22G29 RMK AO2 PK WND 26033/2333 SLP071 60001 T00610056 10067 20061 53018 $
94908KDBQ DBQ20060331180012103/31/06 18:00:31  5-MIN KDBQ 010000Z 26022G29KT 9SM OVC012 06/06 A2973 1260 96 500 260/22G29 RMK AO2 PK WND 26027/2356 $
94908KDBQ DBQ20060331180512203/31/06 18:05:31  5-MIN KDBQ 010005Z 26022G32KT 10SM OVC012 06/05 A2974 1250 93 500 260/22G32 RMK AO2 PK WND 26032/0003 $
94908KDBQ DBQ20060331181012203/31/06 18:10:31  5-MIN KDBQ 010010Z 26024G32KT 10SM OVC012 06/04 A2973 1260 89 500 260/24G32 RMK AO2 PK WND 26032/0003 $
94908KDBQ DBQ20060331181512103/31/06 18:15:31  5-MIN KDBQ 010015Z 26020G32KT 9SM OVC012 06/04 A2974 1250 89 500 260/20G32 RMK AO2 PK WND 26032/0011 $
94908KDBQ DBQ20060331182013303/31/06 18:20:31  5-MIN KDBQ 010020Z 26021G32KT 7SM OVC010 06/04 A2974 1250 92 400 260/21G32 RMK AO2 PK WND 26032/0011 CIG 009V014 $
94908KDBQ DBQ20060331182513303/31/06 18:25:31  5-MIN KDBQ 010025Z 26023G29KT 7SM OVC010 06/04 A2974 1250 92 400 260/23G29 RMK AO2 PK WND 26032/0011 CIG 009V014 $
94908KDBQ DBQ20060331183013303/31/06 18:30:31  5-MIN KDBQ 010030Z 26023G29KT 8SM OVC010 06/04 A2975 1240 92 400 260/23G29 RMK AO2 PK WND 26032/0011 CIG 009V014 $
94908KDBQ DBQ20060331183513303/31/06 18:35:31  5-MIN KDBQ 010035Z 26020G28KT 9SM OVC010 06/04 A2975 1240 89 500 260/20G28 RMK AO2 PK WND 26032/0011 CIG 009V014 $
94908KDBQ DBQ20060331184012103/31/06 18:40:31  5-MIN KDBQ 010040Z 27021G28KT 9SM OVC010 06/04 A2975 1240 92 400 270/21G28 RMK AO2 PK WND 26032/0011 $
94908KDBQ DBQ20060331184512103/31/06 18:45:31  5-MIN KDBQ 010045Z 26021G27KT 8SM OVC010 06/04 A2975 1240 89 500 260/21G27 RMK AO2 PK WND 26032/0011 $
94908KDBQ DBQ20060331185013803/31/06 18:50:31  5-MIN KDBQ 010050Z 26020G27KT 8SM OVC010 06/04 A2975 1230 89 500 260/20G27 RMK AO2 PK WND 26032/0011 SLP081 T00610044 $
94908KDBQ DBQ20060331185513203/31/06 18:55:31  5-MIN KDBQ 010055Z 27021KT 7SM OVC010 06/04 A2975 1230 89 500 270/21 RMK AO2 PK WND 26032/0011 SLP081 T00610044 $
94908KDBQ DBQ20060331190011503/31/06 19:00:31  5-MIN KDBQ 010100Z 27018G24KT 7SM OVC010 06/04 A2976 1230 92 400 260/18G24 RMK AO2 CIG 008V013 $
94908KDBQ DBQ20060331190511803/31/06 19:05:31  5-MIN KDBQ 010105Z 26019G24KT 6SM BR OVC010 06/04 A2976 1220 92 400 260/19G24 RMK AO2 CIG 008V013 $
94908KDBQ DBQ20060331191011803/31/06 19:10:31  5-MIN KDBQ 010110Z 27020G24KT 6SM BR OVC010 06/04 A2977 1220 92 400 270/20G24 RMK AO2 CIG 007V013 $
94908KDBQ DBQ20060331191511803/31/06 19:15:31  5-MIN KDBQ 010115Z 27018G25KT 6SM BR OVC010 06/04 A2977 1210 92 400 260/18G25 RMK AO2 CIG 006V013 $
94908KDBQ DBQ20060331192013603/31/06 19:20:31  5-MIN KDBQ 010120Z 27020G26KT 6SM BR OVC010 06/04 A2978 1210 89 500 270/20G26 RMK AO2 PK WND 28026/0119 CIG 006V013 $
94908KDBQ DBQ20060331192514003/31/06 19:25:31  5-MIN KDBQ 010125Z 28020G26KT 7SM OVC010 06/04 A2979 1200 89 500 280/20G26 RMK AO2 PK WND 27026/0124 CIG 006V013 PRESRR $
94908KDBQ DBQ20060331193013303/31/06 19:30:31  5-MIN KDBQ 010130Z 28020G26KT 8SM OVC010 06/04 A2979 1200 89 500 280/20G26 RMK AO2 PK WND 28026/0130 CIG 006V014 $
94908KDBQ DBQ20060331193512103/31/06 19:35:31  5-MIN KDBQ 010135Z 28023G30KT 9SM OVC010 06/04 A2979 1200 89 500 280/23G30 RMK AO2 PK WND 30030/0135 $
94908KDBQ DBQ20060331194012203/31/06 19:40:31  5-MIN KDBQ 010140Z 28021G31KT 10SM OVC010 06/04 A2979 1200 89 500 280/21G31 RMK AO2 PK WND 28031/0140 $
94908KDBQ DBQ20060331194513203/31/06 19:45:31  5-MIN KDBQ 010145Z AUTO 29021G31KT 10SM OVC010 06/04 A2980 1190 86 400 290/21G31 RMK AO2 PK WND 30031/0143 TSNO $
94908KDBQ DBQ20060331195014903/31/06 19:50:31  5-MIN KDBQ 010150Z AUTO 29019G31KT 10SM OVC012 06/04 A2980 1190 86 400 280/19G31 RMK AO2 PK WND 30031/0143 SLP097 T00610039 TSNO $
94908KDBQ DBQ20060331195514903/31/06 19:55:31  5-MIN KDBQ 010155Z AUTO 28027G32KT 10SM OVC012 06/04 A2980 1190 86 400 280/27G32 RMK AO2 PK WND 29032/0155 SLP098 T00610039 TSNO $
94908KDBQ DBQ20060331200013203/31/06 20:00:31  5-MIN KDBQ 010200Z AUTO 28022G32KT 10SM OVC012 06/04 A2980 1190 86 400 280/22G32 RMK AO2 PK WND 29030/0156 TSNO $
94908KDBQ DBQ20060331200513203/31/06 20:05:31  5-MIN KDBQ 010205Z AUTO 28022G27KT 10SM OVC012 06/04 A2980 1190 86 400 280/22G27 RMK AO2 PK WND 29030/0156 TSNO $
94908KDBQ DBQ20060331201013203/31/06 20:10:31  5-MIN KDBQ 010210Z AUTO 28019G27KT 10SM OVC012 06/04 A2981 1180 89 400 280/19G27 RMK AO2 PK WND 29030/0156 TSNO $
94908KDBQ DBQ20060331201513203/31/06 20:15:31  5-MIN KDBQ 010215Z AUTO 28020G25KT 10SM OVC010 06/04 A2981 1180 89 400 280/20G25 RMK AO2 PK WND 29030/0156 TSNO $
94908KDBQ DBQ20060331202013203/31/06 20:20:31  5-MIN KDBQ 010220Z AUTO 29021G26KT 10SM OVC010 06/04 A2982 1180 89 400 290/21G26 RMK AO2 PK WND 29030/0156 TSNO $
94908KDBQ DBQ20060331202513203/31/06 20:25:31  5-MIN KDBQ 010225Z AUTO 29021G28KT 10SM OVC010 06/04 A2982 1170 89 400 290/21G28 RMK AO2 PK WND 29030/0156 TSNO $
94908KDBQ DBQ20060331203013203/31/06 20:30:31  5-MIN KDBQ 010230Z AUTO 29024G29KT 10SM OVC010 06/04 A2983 1170 89 300 290/24G29 RMK AO2 PK WND 29030/0156 TSNO $
94908KDBQ DBQ20060331203513203/31/06 20:35:31  5-MIN KDBQ 010235Z AUTO 29023G29KT 10SM OVC010 06/04 A2983 1170 89 300 290/23G29 RMK AO2 PK WND 29030/0156 TSNO $
94908KDBQ DBQ20060331204013203/31/06 20:40:31  5-MIN KDBQ 010240Z AUTO 28024G29KT 10SM OVC010 06/04 A2983 1170 89 300 280/24G29 RMK AO2 PK WND 29030/0156 TSNO $
94908KDBQ DBQ20060331204513103/31/06 20:45:31  5-MIN KDBQ 010245Z AUTO 28021G29KT 8SM OVC010 06/04 A2983 1160 89 300 280/21G29 RMK AO2 PK WND 29030/0156 TSNO $
94908KDBQ DBQ20060331205014803/31/06 20:50:31  5-MIN KDBQ 010250Z AUTO 28022KT 7SM OVC010 06/04 A2983 1160 89 300 280/22 RMK AO2 PK WND 29030/0156 SLP107 T00560039 53018 TSNO $
94908KDBQ DBQ20060331205515403/31/06 20:55:31  5-MIN KDBQ 010255Z AUTO 28020G27KT 7SM OVC010 06/04 A2983 1160 89 300 280/20G27 RMK AO2 PK WND 29030/0156 SLP107 T00560039 53033 TSNO $
94908KDBQ DBQ20060331210013103/31/06 21:00:31  5-MIN KDBQ 010300Z AUTO 28019G27KT 7SM OVC010 05/04 A2983 1160 92 300 280/19G27 RMK AO2 PK WND 28026/0258 TSNO $
94908KDBQ DBQ20060331210513403/31/06 21:05:31  5-MIN KDBQ 010305Z AUTO 28019G26KT 6SM BR OVC010 05/04 A2983 1160 92 300 280/19G26 RMK AO2 PK WND 29026/0303 TSNO $
94908KDBQ DBQ20060331211014603/31/06 21:10:31  5-MIN KDBQ 010310Z AUTO 28017G26KT 5SM BR OVC010 05/04 A2984 1160 92 300 280/17G26 RMK AO2 PK WND 29026/0303 CIG 007V012 TSNO $
94908KDBQ DBQ20060331211514603/31/06 21:15:31  5-MIN KDBQ 010315Z AUTO 28016G23KT 5SM BR OVC010 05/04 A2984 1150 92 300 280/16G23 RMK AO2 PK WND 29026/0303 CIG 006V014 TSNO $
94908KDBQ DBQ20060331212015303/31/06 21:20:31  5-MIN KDBQ 010320Z AUTO 28019G24KT 6SM BR BKN008 OVC013 05/04 A2984 1150 92 300 280/19G24 RMK AO2 PK WND 29026/0303 CIG 006V011 TSNO $
94908KDBQ DBQ20060331212515003/31/06 21:25:31  5-MIN KDBQ 010325Z AUTO 28016G24KT 7SM BKN008 OVC013 05/04 A2984 1150 92 300 280/16G24 RMK AO2 PK WND 29026/0303 CIG 006V010 TSNO $
94908KDBQ DBQ20060331213013703/31/06 21:30:31  5-MIN KDBQ 010330Z AUTO 28017KT 8SM OVC008 05/04 A2985 1150 92 300 280/17 RMK AO2 PK WND 29026/0303 CIG 006V012 TSNO $
94908KDBQ DBQ20060331213515003/31/06 21:35:31  5-MIN KDBQ 010335Z AUTO 28017G22KT 8SM BKN008 OVC012 05/04 A2985 1140 92 300 280/17G22 RMK AO2 PK WND 29026/0303 CIG 006V010 TSNO $
94908KDBQ DBQ20060331214014003/31/06 21:40:31  5-MIN KDBQ 010340Z AUTO 28017KT 6SM BR OVC008 05/04 A2985 1140 92 200 280/17 RMK AO2 PK WND 29026/0303 CIG 006V014 TSNO $
94908KDBQ DBQ20060331214514603/31/06 21:45:31  5-MIN KDBQ 010345Z AUTO 28016G24KT 5SM BR OVC008 05/04 A2985 1140 92 200 280/16G24 RMK AO2 PK WND 29026/0303 CIG 006V014 TSNO $
94908KDBQ DBQ20060331215016303/31/06 21:50:31  5-MIN KDBQ 010350Z AUTO 28019G24KT 5SM BR OVC008 05/04 A2986 1140 92 200 280/19G24 RMK AO2 PK WND 29026/0303 CIG 006V014 SLP116 T00500039 TSNO $
94908KDBQ DBQ20060331215515703/31/06 21:55:31  5-MIN KDBQ 010355Z AUTO 29019KT 6SM BR OVC008 05/03 A2986 1140 89 200 280/19 RMK AO2 PK WND 29026/0303 CIG 007V012 SLP117 T00500033 TSNO $
94908KDBQ DBQ20060331220012203/31/06 22:00:31  5-MIN KDBQ 010400Z AUTO 29017KT 5SM BR OVC008 05/04 A2986 1130 92 200 280/17 RMK AO2 CIG 007V011 TSNO $
94908KDBQ DBQ20060331220512903/31/06 22:05:31  5-MIN KDBQ 010405Z AUTO 29018KT 5SM BR BKN008 OVC012 05/04 A2986 1140 96 200 290/18 RMK AO2 CIG 006V011 TSNO $
94908KDBQ DBQ20060331221012903/31/06 22:10:31  5-MIN KDBQ 010410Z AUTO 28017KT 5SM BR BKN008 OVC012 05/04 A2986 1130 96 200 280/17 RMK AO2 CIG 006V010 TSNO $
94908KDBQ DBQ20060331221513503/31/06 22:15:31  5-MIN KDBQ 010415Z AUTO 29018G22KT 5SM BR BKN008 OVC012 05/04 A2987 1130 96 200 290/18G22 RMK AO2 CIG 005V011 TSNO $
94908KDBQ DBQ20060331222013503/31/06 22:20:31  5-MIN KDBQ 010420Z AUTO 28015G22KT 4SM BR BKN008 OVC012 05/04 A2987 1130 96 200 280/15G22 RMK AO2 CIG 005V010 TSNO $
94908KDBQ DBQ20060331222513603/31/06 22:25:31  5-MIN KDBQ 010425Z AUTO 29017G24KT 4SM BR BKN008 OVC012 04/04 A2987 1130 100 200 290/17G24 RMK AO2 CIG 005V010 TSNO $
94908KDBQ DBQ20060331223012903/31/06 22:30:31  5-MIN KDBQ 010430Z AUTO 29017G24KT 4SM BR OVC008 04/04 A2987 1120 100 200 290/17G24 RMK AO2 CIG 005V011 TSNO $
94908KDBQ DBQ20060331223512903/31/06 22:35:31  5-MIN KDBQ 010435Z AUTO 29018G23KT 5SM BR OVC008 04/04 A2987 1120 100 200 290/18G23 RMK AO2 CIG 005V011 TSNO $
94908KDBQ DBQ20060331224012803/31/06 22:40:31  5-MIN KDBQ 010440Z AUTO 29017G25KT 6SM BR OVC008 05/04 A2988 1120 92 200 290/17G25 RMK AO2 CIG 005V011 TSNO $
94908KDBQ DBQ20060331224512903/31/06 22:45:31  5-MIN KDBQ 010445Z AUTO 29016G25KT 6SM BR OVC008 04/04 A2988 1120 100 200 290/16G25 RMK AO2 CIG 005V011 TSNO $
94908KDBQ DBQ20060331225014603/31/06 22:50:31  5-MIN KDBQ 010450Z AUTO 29018G25KT 5SM BR OVC008 04/04 A2988 1120 100 100 290/18G25 RMK AO2 CIG 005V010 SLP124 T00440044 TSNO $
94908KDBQ DBQ20060331225514603/31/06 22:55:31  5-MIN KDBQ 010455Z AUTO 29018G25KT 6SM BR OVC006 04/04 A2988 1120 100 100 290/18G25 RMK AO2 CIG 005V009 SLP125 T00440044 TSNO $
94908KDBQ DBQ20060331230012903/31/06 23:00:31  5-MIN KDBQ 010500Z AUTO 29016G23KT 6SM BR OVC006 04/04 A2988 1120 100 200 290/16G23 RMK AO2 CIG 005V010 TSNO $
94908KDBQ DBQ20060331230512903/31/06 23:05:31  5-MIN KDBQ 010505Z AUTO 29018G22KT 6SM BR OVC006 04/04 A2988 1110 100 100 290/18G22 RMK AO2 CIG 005V010 TSNO $
94908KDBQ DBQ20060331231012003/31/06 23:10:31  5-MIN KDBQ 010510Z AUTO 30016KT 8SM OVC008 04/04 A2989 1110 100 100 300/16 RMK AO2 CIG 005V011 TSNO $
94908KDBQ DBQ20060331231511903/31/06 23:15:31  5-MIN KDBQ 010515Z AUTO 30016KT 9SM OVC008 05/04 A2988 1110 96 200 300/16 RMK AO2 CIG 005V011 TSNO $
94908KDBQ DBQ20060331232011903/31/06 23:20:31  5-MIN KDBQ 010520Z AUTO 29019KT 9SM OVC008 05/04 A2988 1110 96 200 290/19 RMK AO2 CIG 005V011 TSNO $
94908KDBQ DBQ20060331232511903/31/06 23:25:31  5-MIN KDBQ 010525Z AUTO 29017KT 9SM OVC008 05/04 A2988 1110 96 200 290/17 RMK AO2 CIG 005V011 TSNO $
94908KDBQ DBQ20060331233013303/31/06 23:30:31  5-MIN KDBQ 010530Z AUTO 29017G22KT 10SM BKN008 OVC013 05/04 A2988 1120 96 200 290/17G22 RMK AO2 CIG 007V011 TSNO $
94908KDBQ DBQ20060331233513303/31/06 23:35:31  5-MIN KDBQ 010535Z AUTO 28017G22KT 10SM BKN008 OVC013 05/04 A2988 1110 96 200 280/17G22 RMK AO2 CIG 007V011 TSNO $
94908KDBQ DBQ20060331234012803/31/06 23:40:31  5-MIN KDBQ 010540Z AUTO 29015KT 10SM BKN008 OVC013 04/04 A2988 1110 100 100 290/15 RMK AO2 CIG 007V011 TSNO $
94908KDBQ DBQ20060331234512703/31/06 23:45:31  5-MIN KDBQ 010545Z AUTO 29014KT 10SM BKN008 OVC013 05/04 A2989 1110 96 200 290/14 RMK AO2 CIG 007V011 TSNO $
94908KDBQ DBQ20060331235016603/31/06 23:50:31  5-MIN KDBQ 010550Z AUTO 29015KT 10SM OVC008 04/04 A2989 1110 100 100 290/15 RMK AO2 CIG 007V012 SLP128 T00440044 10061 20044 401440044 53033 TSNO $
94908KDBQ DBQ20060331235517203/31/06 23:55:31  5-MIN KDBQ 010555Z AUTO 29014KT 10SM BKN008 OVC012 05/04 A2989 1110 96 200 290/14 RMK AO2 CIG 006V010 SLP129 T00500044 10061 20044 401440044 51020 TSNO $
