94908KDBQ DBQ20050601000510306/01/05 00:05:31  5-MIN KDBQ 010605Z AUTO 10007KT 10SM CLR 16/09 A3005 960 67 1300 100/07 RMK AO2 TSNO
94908KDBQ DBQ20050601001010306/01/05 00:10:31  5-MIN KDBQ 010610Z AUTO 10007KT 10SM CLR 16/09 A3006 950 64 1300 100/07 RMK AO2 TSNO
94908KDBQ DBQ20050601001510306/01/05 00:15:31  5-MIN KDBQ 010615Z AUTO 09008KT 10SM CLR 16/09 A3005 960 67 1300 090/08 RMK AO2 TSNO
94908KDBQ DBQ20050601002010306/01/05 00:20:31  5-MIN KDBQ 010620Z AUTO 09008KT 10SM CLR 16/09 A3005 960 64 1400 090/08 RMK AO2 TSNO
94908KDBQ DBQ20050601002510306/01/05 00:25:31  5-MIN KDBQ 010625Z AUTO 09008KT 10SM CLR 16/09 A3005 960 64 1400 090/08 RMK AO2 TSNO
94908KDBQ DBQ20050601003010306/01/05 00:30:31  5-MIN KDBQ 010630Z AUTO 09007KT 10SM CLR 16/09 A3006 950 67 1300 090/07 RMK AO2 TSNO
94908KDBQ DBQ20050601003510306/01/05 00:35:31  5-MIN KDBQ 010635Z AUTO 09007KT 10SM CLR 16/09 A3005 960 67 1300 090/07 RMK AO2 TSNO
94908KDBQ DBQ20050601004010306/01/05 00:40:31  5-MIN KDBQ 010640Z AUTO 09005KT 10SM CLR 15/09 A3005 960 69 1200 090/05 RMK AO2 TSNO
94908KDBQ DBQ20050601004510306/01/05 00:45:31  5-MIN KDBQ 010645Z AUTO 09006KT 10SM CLR 16/09 A3005 960 67 1300 090/06 RMK AO2 TSNO
94908KDBQ DBQ20050601005012006/01/05 00:50:31  5-MIN KDBQ 010650Z AUTO 09005KT 10SM CLR 15/09 A3005 960 69 1200 090/05 RMK AO2 SLP173 T01500094 TSNO
94908KDBQ DBQ20050601005512006/01/05 00:55:31  5-MIN KDBQ 010655Z AUTO 09004KT 10SM CLR 15/09 A3005 960 69 1200 090/04 RMK AO2 SLP172 T01500094 TSNO
94908KDBQ DBQ20050601010010306/01/05 01:00:31  5-MIN KDBQ 010700Z AUTO 09005KT 10SM CLR 15/09 A3005 960 69 1200 090/05 RMK AO2 TSNO
94908KDBQ DBQ20050601010510306/01/05 01:05:31  5-MIN KDBQ 010705Z AUTO 00000KT 10SM CLR 14/09 A3005 950 72 1200 000/00 RMK AO2 TSNO
94908KDBQ DBQ20050601011010306/01/05 01:10:31  5-MIN KDBQ 010710Z AUTO 00000KT 10SM CLR 14/09 A3005 960 72 1200 000/00 RMK AO2 TSNO
94908KDBQ DBQ20050601011510306/01/05 01:15:31  5-MIN KDBQ 010715Z AUTO 00000KT 10SM CLR 14/09 A3005 960 72 1200 000/00 RMK AO2 TSNO
94908KDBQ DBQ20050601012010306/01/05 01:20:31  5-MIN KDBQ 010720Z AUTO 00000KT 10SM CLR 14/09 A3005 960 74 1100 000/00 RMK AO2 TSNO
94908KDBQ DBQ20050601012510306/01/05 01:25:31  5-MIN KDBQ 010725Z AUTO 00000KT 10SM CLR 14/09 A3005 960 71 1100 000/00 RMK AO2 TSNO
94908KDBQ DBQ20050601013010306/01/05 01:30:31  5-MIN KDBQ 010730Z AUTO 00000KT 10SM CLR 14/09 A3005 960 71 1100 000/00 RMK AO2 TSNO
94908KDBQ DBQ20050601013510306/01/05 01:35:31  5-MIN KDBQ 010735Z AUTO 00000KT 10SM CLR 14/09 A3005 960 72 1200 000/00 RMK AO2 TSNO
94908KDBQ DBQ20050601014010306/01/05 01:40:31  5-MIN KDBQ 010740Z AUTO 00000KT 10SM CLR 14/09 A3005 960 74 1100 000/00 RMK AO2 TSNO
94908KDBQ DBQ20050601014510306/01/05 01:45:31  5-MIN KDBQ 010745Z AUTO 07004KT 10SM CLR 14/09 A3005 960 74 1100 070/04 RMK AO2 TSNO
94908KDBQ DBQ20050601015012006/01/05 01:50:31  5-MIN KDBQ 010750Z AUTO 08004KT 10SM CLR 14/09 A3006 950 74 1100 080/04 RMK AO2 SLP175 T01390094 TSNO
94908KDBQ DBQ20050601015512006/01/05 01:55:31  5-MIN KDBQ 010755Z AUTO 08005KT 10SM CLR 13/09 A3005 960 77 1000 080/05 RMK AO2 SLP172 T01330094 TSNO
94908KDBQ DBQ20050601020010306/01/05 02:00:31  5-MIN KDBQ 010800Z AUTO 08005KT 10SM CLR 14/09 A3005 960 74 1100 070/05 RMK AO2 TSNO
94908KDBQ DBQ20050601020510306/01/05 02:05:31  5-MIN KDBQ 010805Z AUTO 08005KT 10SM CLR 13/09 A3005 960 77 1000 070/05 RMK AO2 TSNO
94908KDBQ DBQ20050601021010306/01/05 02:10:31  5-MIN KDBQ 010810Z AUTO 08005KT 10SM CLR 13/09 A3005 960 77 1000 070/05 RMK AO2 TSNO
94908KDBQ DBQ20050601021510306/01/05 02:15:31  5-MIN KDBQ 010815Z AUTO 08006KT 10SM CLR 14/09 A3005 960 74 1100 080/06 RMK AO2 TSNO
94908KDBQ DBQ20050601022010306/01/05 02:20:31  5-MIN KDBQ 010820Z AUTO 07005KT 10SM CLR 13/09 A3005 960 77 1000 070/05 RMK AO2 TSNO
94908KDBQ DBQ20050601022510306/01/05 02:25:31  5-MIN KDBQ 010825Z AUTO 08004KT 10SM CLR 13/09 A3005 960 74 1000 070/04 RMK AO2 TSNO
94908KDBQ DBQ20050601023010306/01/05 02:30:31  5-MIN KDBQ 010830Z AUTO 07004KT 10SM CLR 13/09 A3004 960 74 1000 070/04 RMK AO2 TSNO
94908KDBQ DBQ20050601023510306/01/05 02:35:31  5-MIN KDBQ 010835Z AUTO 07004KT 10SM CLR 13/09 A3004 970 77 1000 070/04 RMK AO2 TSNO
94908KDBQ DBQ20050601024010306/01/05 02:40:31  5-MIN KDBQ 010840Z AUTO 07006KT 10SM CLR 13/09 A3004 970 77 1000 070/06 RMK AO2 TSNO
94908KDBQ DBQ20050601024510306/01/05 02:45:31  5-MIN KDBQ 010845Z AUTO 07006KT 10SM CLR 13/09 A3004 960 77 1000 060/06 RMK AO2 TSNO
94908KDBQ DBQ20050601025012606/01/05 02:50:31  5-MIN KDBQ 010850Z AUTO 06005KT 10SM CLR 13/09 A3004 970 77 1000 060/05 RMK AO2 SLP171 T01280089 58005 TSNO
94908KDBQ DBQ20050601025512606/01/05 02:55:31  5-MIN KDBQ 010855Z AUTO 06005KT 10SM CLR 13/09 A3004 960 77 1000 060/05 RMK AO2 SLP171 T01280089 58001 TSNO
94908KDBQ DBQ20050601030010306/01/05 03:00:31  5-MIN KDBQ 010900Z AUTO 06006KT 10SM CLR 13/09 A3004 960 77 1000 060/06 RMK AO2 TSNO
94908KDBQ DBQ20050601030510306/01/05 03:05:31  5-MIN KDBQ 010905Z AUTO 05005KT 10SM CLR 13/09 A3004 960 77 1000 050/05 RMK AO2 TSNO
94908KDBQ DBQ20050601031010306/01/05 03:10:31  5-MIN KDBQ 010910Z AUTO 00000KT 10SM CLR 13/09 A3004 960 77 1000 000/00 RMK AO2 TSNO
94908KDBQ DBQ20050601031510206/01/05 03:15:31  5-MIN KDBQ 010915Z AUTO 00000KT 10SM CLR 12/09 A3004 960 80 900 000/00 RMK AO2 TSNO
94908KDBQ DBQ20050601032010206/01/05 03:20:31  5-MIN KDBQ 010920Z AUTO 08005KT 10SM CLR 12/09 A3004 960 80 900 080/05 RMK AO2 TSNO
94908KDBQ DBQ20050601032510206/01/05 03:25:31  5-MIN KDBQ 010925Z AUTO 07007KT 10SM CLR 12/09 A3004 970 80 900 070/07 RMK AO2 TSNO
94908KDBQ DBQ20050601033010206/01/05 03:30:31  5-MIN KDBQ 010930Z AUTO 07006KT 10SM CLR 12/09 A3005 960 80 900 070/06 RMK AO2 TSNO
94908KDBQ DBQ20050601033510206/01/05 03:35:31  5-MIN KDBQ 010935Z AUTO 08007KT 10SM CLR 12/09 A3004 960 80 900 070/07 RMK AO2 TSNO
94908KDBQ DBQ20050601034010206/01/05 03:40:31  5-MIN KDBQ 010940Z AUTO 08006KT 10SM CLR 12/09 A3004 970 80 900 070/06 RMK AO2 TSNO
94908KDBQ DBQ20050601034510206/01/05 03:45:31  5-MIN KDBQ 010945Z AUTO 08005KT 10SM CLR 12/09 A3004 960 80 900 080/05 RMK AO2 TSNO
94908KDBQ DBQ20050601035012006/01/05 03:50:31  5-MIN KDBQ 010950Z AUTO 09005KT 10SM CLR 13/09 A3004 970 77 1000 090/05 RMK AO2 SLP171 T01280089 TSNO
94908KDBQ DBQ20050601035512006/01/05 03:55:31  5-MIN KDBQ 010955Z AUTO 10007KT 10SM CLR 13/09 A3004 970 77 1000 100/07 RMK AO2 SLP170 T01280089 TSNO
94908KDBQ DBQ20050601040010306/01/05 04:00:31  5-MIN KDBQ 011000Z AUTO 10008KT 10SM CLR 13/09 A3004 970 74 1000 100/08 RMK AO2 TSNO
94908KDBQ DBQ20050601040510306/01/05 04:05:31  5-MIN KDBQ 011005Z AUTO 10008KT 10SM CLR 13/09 A3005 960 74 1000 100/08 RMK AO2 TSNO
94908KDBQ DBQ20050601041010306/01/05 04:10:31  5-MIN KDBQ 011010Z AUTO 10008KT 10SM CLR 13/09 A3005 960 74 1000 100/08 RMK AO2 TSNO
94908KDBQ DBQ20050601041510306/01/05 04:15:31  5-MIN KDBQ 011015Z AUTO 10007KT 10SM CLR 13/09 A3005 960 77 1000 100/07 RMK AO2 TSNO
94908KDBQ DBQ20050601042010306/01/05 04:20:31  5-MIN KDBQ 011020Z AUTO 10007KT 10SM CLR 13/09 A3005 960 77 1000 100/07 RMK AO2 TSNO
94908KDBQ DBQ20050601042510306/01/05 04:25:31  5-MIN KDBQ 011025Z AUTO 11006KT 10SM CLR 13/09 A3005 950 77 1000 110/06 RMK AO2 TSNO
94908KDBQ DBQ20050601043010306/01/05 04:30:31  5-MIN KDBQ 011030Z AUTO 11006KT 10SM CLR 13/09 A3006 950 77 1000 110/06 RMK AO2 TSNO
94908KDBQ DBQ20050601043510306/01/05 04:35:31  5-MIN KDBQ 011035Z AUTO 11006KT 10SM CLR 13/09 A3006 950 77 1000 100/06 RMK AO2 TSNO
94908KDBQ DBQ20050601044010306/01/05 04:40:31  5-MIN KDBQ 011040Z AUTO 11006KT 10SM CLR 13/09 A3006 950 77 1000 100/06 RMK AO2 TSNO
94908KDBQ DBQ20050601044510206/01/05 04:45:31  5-MIN KDBQ 011045Z AUTO 11006KT 10SM CLR 13/09 A3006 950 77 900 110/06 RMK AO2 TSNO
94908KDBQ DBQ20050601045012006/01/05 04:50:31  5-MIN KDBQ 011050Z AUTO 11005KT 10SM CLR 13/09 A3006 950 74 1000 110/05 RMK AO2 SLP176 T01330089 TSNO
94908KDBQ DBQ20050601045511106/01/05 04:55:31  5-MIN KDBQ 011055Z 10006KT 10SM CLR 13/09 A3006 950 74  1000 100/06 RMK AO2 SLP176 T01330089
94908KDBQ DBQ20050601050009406/01/05 05:00:31  5-MIN KDBQ 011100Z 10007KT 10SM CLR 13/09 A3006 950 74  1000 100/07 RMK AO2
94908KDBQ DBQ20050601050509406/01/05 05:05:31  5-MIN KDBQ 011105Z 11007KT 10SM CLR 14/09 A3006 950 74  1100 110/07 RMK AO2
94908KDBQ DBQ20050601051009406/01/05 05:10:31  5-MIN KDBQ 011110Z 11007KT 10SM CLR 14/09 A3006 950 74  1100 110/07 RMK AO2
94908KDBQ DBQ20050601051509406/01/05 05:15:31  5-MIN KDBQ 011115Z 11007KT 10SM CLR 14/09 A3007 940 74  1100 110/07 RMK AO2
94908KDBQ DBQ20050601052009406/01/05 05:20:31  5-MIN KDBQ 011120Z 10007KT 10SM CLR 14/09 A3007 940 72  1100 100/07 RMK AO2
94908KDBQ DBQ20050601052509406/01/05 05:25:31  5-MIN KDBQ 011125Z 10008KT 10SM CLR 14/09 A3006 950 72  1100 100/08 RMK AO2
94908KDBQ DBQ20050601053009406/01/05 05:30:31  5-MIN KDBQ 011130Z 10009KT 10SM CLR 14/09 A3006 950 72  1100 100/09 RMK AO2
94908KDBQ DBQ20050601053509406/01/05 05:35:31  5-MIN KDBQ 011135Z 10008KT 10SM CLR 14/09 A3007 940 72  1100 100/08 RMK AO2
94908KDBQ DBQ20050601054009406/01/05 05:40:31  5-MIN KDBQ 011140Z 10008KT 10SM CLR 15/09 A3006 950 69  1200 100/08 RMK AO2
94908KDBQ DBQ20050601054509406/01/05 05:45:31  5-MIN KDBQ 011145Z 10009KT 10SM CLR 15/09 A3006 950 69  1200 100/09 RMK AO2
94908KDBQ DBQ20050601055012906/01/05 05:50:31  5-MIN KDBQ 011150Z 10010KT 10SM CLR 15/09 A3006 950 69  1200 100/10 RMK AO2 SLP176 T01500094 10161 20122 58001
94908KDBQ DBQ20050601055512906/01/05 05:55:31  5-MIN KDBQ 011155Z 11009KT 10SM CLR 15/09 A3006 950 69  1200 110/09 RMK AO2 SLP176 T01500094 10161 20122 53006
94908KDBQ DBQ20050601060009406/01/05 06:00:31  5-MIN KDBQ 011200Z 11010KT 10SM CLR 15/09 A3006 950 69  1200 110/10 RMK AO2
94908KDBQ DBQ20050601060509406/01/05 06:05:31  5-MIN KDBQ 011205Z 11010KT 10SM CLR 16/09 A3006 950 67  1300 110/10 RMK AO2
94908KDBQ DBQ20050601061009406/01/05 06:10:31  5-MIN KDBQ 011210Z 11010KT 10SM CLR 16/09 A3006 950 67  1300 110/10 RMK AO2
94908KDBQ DBQ20050601061509406/01/05 06:15:31  5-MIN KDBQ 011215Z 11010KT 10SM CLR 16/09 A3006 950 67  1300 110/10 RMK AO2
94908KDBQ DBQ20050601062009406/01/05 06:20:31  5-MIN KDBQ 011220Z 12010KT 10SM CLR 16/10 A3006 950 67  1300 120/10 RMK AO2
94908KDBQ DBQ20050601062509406/01/05 06:25:31  5-MIN KDBQ 011225Z 12011KT 10SM CLR 16/09 A3006 950 64  1300 120/11 RMK AO2
94908KDBQ DBQ20050601063009406/01/05 06:30:31  5-MIN KDBQ 011230Z 12008KT 10SM CLR 16/10 A3006 950 67  1300 120/08 RMK AO2
94908KDBQ DBQ20050601063509406/01/05 06:35:31  5-MIN KDBQ 011235Z 12008KT 10SM CLR 16/10 A3006 950 67  1300 120/08 RMK AO2
94908KDBQ DBQ20050601064009406/01/05 06:40:31  5-MIN KDBQ 011240Z 12010KT 10SM CLR 16/10 A3006 950 67  1300 120/10 RMK AO2
94908KDBQ DBQ20050601064509406/01/05 06:45:31  5-MIN KDBQ 011245Z 13009KT 10SM CLR 17/10 A3006 950 64  1400 130/09 RMK AO2
94908KDBQ DBQ20050601065011106/01/05 06:50:31  5-MIN KDBQ 011250Z 12009KT 10SM CLR 17/10 A3006 950 64  1400 120/09 RMK AO2 SLP178 T01670100
94908KDBQ DBQ20050601065511106/01/05 06:55:31  5-MIN KDBQ 011255Z 12008KT 10SM CLR 17/10 A3006 950 64  1400 120/08 RMK AO2 SLP178 T01670100
94908KDBQ DBQ20050601070009406/01/05 07:00:31  5-MIN KDBQ 011300Z 12009KT 10SM CLR 17/10 A3006 950 64  1400 120/09 RMK AO2
94908KDBQ DBQ20050601070509406/01/05 07:05:31  5-MIN KDBQ 011305Z 12008KT 10SM CLR 17/10 A3006 950 62  1500 120/08 RMK AO2
94908KDBQ DBQ20050601071009406/01/05 07:10:31  5-MIN KDBQ 011310Z VRB05KT 10SM CLR 17/10 A3007 940 62  1500 VRB/05 RMK AO2
94908KDBQ DBQ20050601071509406/01/05 07:15:31  5-MIN KDBQ 011315Z 13006KT 10SM CLR 17/11 A3007 940 64  1500 130/06 RMK AO2
94908KDBQ DBQ20050601072009406/01/05 07:20:31  5-MIN KDBQ 011320Z 13006KT 10SM CLR 17/11 A3007 940 64  1500 130/06 RMK AO2
94908KDBQ DBQ20050601072509406/01/05 07:25:31  5-MIN KDBQ 011325Z 12007KT 10SM CLR 17/11 A3007 940 64  1500 120/07 RMK AO2
94908KDBQ DBQ20050601073009406/01/05 07:30:31  5-MIN KDBQ 011330Z 14006KT 10SM CLR 18/11 A3007 940 62  1500 140/06 RMK AO2
94908KDBQ DBQ20050601073509406/01/05 07:35:31  5-MIN KDBQ 011335Z 11006KT 10SM CLR 18/11 A3007 940 62  1500 110/06 RMK AO2
94908KDBQ DBQ20050601074009406/01/05 07:40:31  5-MIN KDBQ 011340Z 13007KT 10SM CLR 18/11 A3007 940 60  1600 130/07 RMK AO2
94908KDBQ DBQ20050601074509406/01/05 07:45:31  5-MIN KDBQ 011345Z 13005KT 10SM CLR 18/11 A3007 940 60  1600 130/05 RMK AO2
94908KDBQ DBQ20050601075011106/01/05 07:50:31  5-MIN KDBQ 011350Z 13007KT 10SM CLR 18/11 A3007 940 62  1600 130/07 RMK AO2 SLP179 T01830111
94908KDBQ DBQ20050601075511106/01/05 07:55:31  5-MIN KDBQ 011355Z 12006KT 10SM CLR 18/11 A3007 940 60  1600 120/06 RMK AO2 SLP180 T01830106
94908KDBQ DBQ20050601080009406/01/05 08:00:31  5-MIN KDBQ 011400Z 15005KT 10SM CLR 18/11 A3007 940 62  1600 150/05 RMK AO2
94908KDBQ DBQ20050601080509406/01/05 08:05:31  5-MIN KDBQ 011405Z 15005KT 10SM CLR 19/11 A3007 940 60  1700 140/05 RMK AO2
94908KDBQ DBQ20050601081009406/01/05 08:10:31  5-MIN KDBQ 011410Z 17007KT 10SM CLR 19/11 A3007 940 60  1700 170/07 RMK AO2
94908KDBQ DBQ20050601081509406/01/05 08:15:31  5-MIN KDBQ 011415Z 14005KT 10SM CLR 19/11 A3007 940 58  1700 140/05 RMK AO2
94908KDBQ DBQ20050601082009406/01/05 08:20:31  5-MIN KDBQ 011420Z 15008KT 10SM CLR 19/11 A3007 940 60  1600 150/08 RMK AO2
94908KDBQ DBQ20050601082509406/01/05 08:25:31  5-MIN KDBQ 011425Z 15007KT 10SM CLR 19/11 A3007 940 60  1600 150/07 RMK AO2
94908KDBQ DBQ20050601083009406/01/05 08:30:31  5-MIN KDBQ 011430Z 17005KT 10SM CLR 19/12 A3007 940 60  1700 160/05 RMK AO2
94908KDBQ DBQ20050601083509406/01/05 08:35:31  5-MIN KDBQ 011435Z 14005KT 10SM CLR 19/11 A3007 940 58  1700 140/05 RMK AO2
94908KDBQ DBQ20050601084009406/01/05 08:40:31  5-MIN KDBQ 011440Z 15005KT 10SM CLR 20/12 A3007 940 58  1800 150/05 RMK AO2
94908KDBQ DBQ20050601084509406/01/05 08:45:31  5-MIN KDBQ 011445Z 14005KT 10SM CLR 20/12 A3007 940 58  1800 140/05 RMK AO2
94908KDBQ DBQ20050601085011706/01/05 08:50:31  5-MIN KDBQ 011450Z 14005KT 10SM CLR 20/12 A3007 940 58  1800 140/05 RMK AO2 SLP178 T02000117 53006
94908KDBQ DBQ20050601085511706/01/05 08:55:31  5-MIN KDBQ 011455Z 14006KT 10SM CLR 21/12 A3007 940 56  1800 140/06 RMK AO2 SLP177 T02060117 50001
94908KDBQ DBQ20050601090009706/01/05 09:00:31  5-MIN KDBQ 011500Z 15007KT 10SM FEW095 21/12 A3007 940  56 1800 150/07 RMK AO2
94908KDBQ DBQ20050601090509406/01/05 09:05:31  5-MIN KDBQ 011505Z 15006KT 10SM CLR 21/12 A3006 950 56  1900 140/06 RMK AO2
94908KDBQ DBQ20050601091009406/01/05 09:10:31  5-MIN KDBQ 011510Z 15007KT 10SM CLR 21/12 A3006 950 56  1900 150/07 RMK AO2
94908KDBQ DBQ20050601091509406/01/05 09:15:31  5-MIN KDBQ 011515Z 14008KT 10SM CLR 22/12 A3006 950 54  2000 140/08 RMK AO2
94908KDBQ DBQ20050601092009406/01/05 09:20:31  5-MIN KDBQ 011520Z 15008KT 10SM CLR 22/12 A3006 950 52  2000 150/08 RMK AO2
94908KDBQ DBQ20050601092509406/01/05 09:25:31  5-MIN KDBQ 011525Z 14008KT 10SM CLR 21/12 A3006 950 54  1900 140/08 RMK AO2
94908KDBQ DBQ20050601093009406/01/05 09:30:31  5-MIN KDBQ 011530Z 16008KT 10SM CLR 22/12 A3006 950 52  2000 160/08 RMK AO2
94908KDBQ DBQ20050601093509406/01/05 09:35:31  5-MIN KDBQ 011535Z 15006KT 10SM CLR 22/12 A3006 950 54  2000 150/06 RMK AO2
94908KDBQ DBQ20050601094009406/01/05 09:40:31  5-MIN KDBQ 011540Z 13006KT 10SM CLR 22/12 A3006 950 52  2000 130/06 RMK AO2
94908KDBQ DBQ20050601094509406/01/05 09:45:31  5-MIN KDBQ 011545Z 15006KT 10SM CLR 22/12 A3006 950 52  2000 150/06 RMK AO2
94908KDBQ DBQ20050601095011106/01/05 09:50:31  5-MIN KDBQ 011550Z 14007KT 10SM CLR 22/12 A3006 950 52  2000 130/07 RMK AO2 SLP176 T02220122
94908KDBQ DBQ20050601095511106/01/05 09:55:31  5-MIN KDBQ 011555Z 12007KT 10SM CLR 22/12 A3006 950 52  2000 120/07 RMK AO2 SLP176 T02220122
94908KDBQ DBQ20050601100009406/01/05 10:00:31  5-MIN KDBQ 011600Z 13007KT 10SM CLR 22/12 A3006 950 51  2000 130/07 RMK AO2
94908KDBQ DBQ20050601100509406/01/05 10:05:31  5-MIN KDBQ 011605Z 15007KT 10SM CLR 23/12 A3006 950 49  2100 140/07 RMK AO2
94908KDBQ DBQ20050601101009406/01/05 10:10:31  5-MIN KDBQ 011610Z VRB06KT 10SM CLR 23/12 A3006 950 49  2100 VRB/06 RMK AO2
94908KDBQ DBQ20050601101509406/01/05 10:15:31  5-MIN KDBQ 011615Z 14006KT 10SM CLR 23/12 A3006 950 49  2100 140/06 RMK AO2
94908KDBQ DBQ20050601102009406/01/05 10:20:31  5-MIN KDBQ 011620Z 16007KT 10SM CLR 23/12 A3006 950 47  2200 160/07 RMK AO2
94908KDBQ DBQ20050601102509406/01/05 10:25:31  5-MIN KDBQ 011625Z 13007KT 10SM CLR 23/12 A3006 950 47  2200 130/07 RMK AO2
94908KDBQ DBQ20050601103009406/01/05 10:30:31  5-MIN KDBQ 011630Z 14007KT 10SM CLR 23/12 A3006 950 47  2200 140/07 RMK AO2
94908KDBQ DBQ20050601103509406/01/05 10:35:31  5-MIN KDBQ 011635Z 16009KT 10SM CLR 23/12 A3006 950 47  2200 160/09 RMK AO2
94908KDBQ DBQ20050601104009406/01/05 10:40:31  5-MIN KDBQ 011640Z 16008KT 10SM CLR 24/12 A3006 950 46  2200 150/08 RMK AO2
94908KDBQ DBQ20050601104509406/01/05 10:45:31  5-MIN KDBQ 011645Z 16009KT 10SM CLR 24/11 A3006 950 44  2200 160/09 RMK AO2
94908KDBQ DBQ20050601105011106/01/05 10:50:31  5-MIN KDBQ 011650Z 14008KT 10SM CLR 24/11 A3006 950 44  2200 140/08 RMK AO2 SLP174 T02390111
94908KDBQ DBQ20050601105511106/01/05 10:55:31  5-MIN KDBQ 011655Z 13008KT 10SM CLR 24/12 A3005 950 46  2200 120/08 RMK AO2 SLP173 T02390117
94908KDBQ DBQ20050601110009406/01/05 11:00:31  5-MIN KDBQ 011700Z 13006KT 10SM CLR 24/11 A3005 960 42  2200 130/06 RMK AO2
94908KDBQ DBQ20050601110509406/01/05 11:05:31  5-MIN KDBQ 011705Z 15006KT 10SM CLR 24/11 A3005 950 44  2200 150/06 RMK AO2
94908KDBQ DBQ20050601111009406/01/05 11:10:31  5-MIN KDBQ 011710Z 12009KT 10SM CLR 24/11 A3005 960 42  2200 120/09 RMK AO2
94908KDBQ DBQ20050601111509406/01/05 11:15:31  5-MIN KDBQ 011715Z VRB06KT 10SM CLR 24/12 A3005 960 44  2300 VRB/06 RMK AO2
94908KDBQ DBQ20050601112010906/01/05 11:20:31  5-MIN KDBQ 011720Z 14008KT 110V170 10SM CLR 24/11 A3005 960 42 2300 140/08 110V170 RMK AO2
94908KDBQ DBQ20050601112509406/01/05 11:25:31  5-MIN KDBQ 011725Z 15007KT 10SM CLR 24/11 A3005 960 41  2300 140/07 RMK AO2
94908KDBQ DBQ20050601113009406/01/05 11:30:31  5-MIN KDBQ 011730Z 13009KT 10SM CLR 24/11 A3005 960 41  2300 130/09 RMK AO2
94908KDBQ DBQ20050601113509406/01/05 11:35:31  5-MIN KDBQ 011735Z 14008KT 10SM CLR 24/10 A3005 960 39  2300 140/08 RMK AO2
94908KDBQ DBQ20050601114009406/01/05 11:40:31  5-MIN KDBQ 011740Z 12010KT 10SM CLR 24/10 A3005 960 39  2300 120/10 RMK AO2
94908KDBQ DBQ20050601114509406/01/05 11:45:31  5-MIN KDBQ 011745Z 13009KT 10SM CLR 24/11 A3004 970 41  2300 130/09 RMK AO2
94908KDBQ DBQ20050601115012906/01/05 11:50:31  5-MIN KDBQ 011750Z 11007KT 10SM CLR 25/11 A3004 970 39  2400 110/07 RMK AO2 SLP169 T02500106 10250 20150 50001
94908KDBQ DBQ20050601115512906/01/05 11:55:31  5-MIN KDBQ 011755Z 12009KT 10SM CLR 25/11 A3004 970 39  2400 120/09 RMK AO2 SLP168 T02500106 10250 20150 58008
94908KDBQ DBQ20050601120010906/01/05 12:00:31  5-MIN KDBQ 011800Z 11009KT 070V150 10SM CLR 24/10 A3004 970 39 2300 110/09 070V150 RMK AO2
94908KDBQ DBQ20050601120509406/01/05 12:05:31  5-MIN KDBQ 011805Z 14010KT 10SM CLR 25/10 A3004 970 38  2400 140/10 RMK AO2
94908KDBQ DBQ20050601121009406/01/05 12:10:31  5-MIN KDBQ 011810Z 12012KT 10SM CLR 26/10 A3004 970 37  2400 120/12 RMK AO2
94908KDBQ DBQ20050601121510006/01/05 12:15:31  5-MIN KDBQ 011815Z 11014G21KT 10SM CLR 25/09 A3003 970  37 2400 110/14G21 RMK AO2
94908KDBQ DBQ20050601122010006/01/05 12:20:31  5-MIN KDBQ 011820Z 11016G21KT 10SM CLR 26/10 A3004 970  37 2500 110/16G21 RMK AO2
94908KDBQ DBQ20050601122510006/01/05 12:25:31  5-MIN KDBQ 011825Z 10014G19KT 10SM CLR 25/10 A3003 970  38 2400 100/14G19 RMK AO2
94908KDBQ DBQ20050601123009406/01/05 12:30:31  5-MIN KDBQ 011830Z 13013KT 10SM CLR 25/10 A3003 970 38  2400 130/13 RMK AO2
94908KDBQ DBQ20050601123510006/01/05 12:35:31  5-MIN KDBQ 011835Z 14013G19KT 10SM CLR 25/09 A3003 980  37 2400 140/13G19 RMK AO2
94908KDBQ DBQ20050601124010006/01/05 12:40:31  5-MIN KDBQ 011840Z 13012G19KT 10SM CLR 26/10 A3003 980  37 2500 130/12G19 RMK AO2
94908KDBQ DBQ20050601124510006/01/05 12:45:31  5-MIN KDBQ 011845Z 11009G17KT 10SM CLR 26/09 A3002 980  35 2500 110/09G17 RMK AO2
94908KDBQ DBQ20050601125011706/01/05 12:50:31  5-MIN KDBQ 011850Z 11014G18KT 10SM CLR 25/10 A3003 980  38 2400 110/14G18 RMK AO2 SLP164 T02500100
94908KDBQ DBQ20050601125511706/01/05 12:55:31  5-MIN KDBQ 011855Z 11013G18KT 10SM CLR 26/10 A3002 980  37 2500 110/13G18 RMK AO2 SLP162 T02560100
94908KDBQ DBQ20050601130010006/01/05 13:00:31  5-MIN KDBQ 011900Z 11013G17KT 10SM CLR 26/11 A3002 980  38 2500 110/13G17 RMK AO2
94908KDBQ DBQ20050601130510006/01/05 13:05:31  5-MIN KDBQ 011905Z 12008G17KT 10SM CLR 26/10 A3002 990  37 2500 120/08G17 RMK AO2
94908KDBQ DBQ20050601131009406/01/05 13:10:31  5-MIN KDBQ 011910Z 12012KT 10SM CLR 25/09 A3002 990 37  2400 120/12 RMK AO2
94908KDBQ DBQ20050601131509406/01/05 13:15:31  5-MIN KDBQ 011915Z 12010KT 10SM CLR 26/09 A3002 990 35  2500 120/10 RMK AO2
94908KDBQ DBQ20050601132009406/01/05 13:20:31  5-MIN KDBQ 011920Z 10010KT 10SM CLR 25/09 A3002 990 37  2400 100/10 RMK AO2
94908KDBQ DBQ20050601132509406/01/05 13:25:31  5-MIN KDBQ 011925Z 13010KT 10SM CLR 26/10 A3002 990 37  2500 120/10 RMK AO2
94908KDBQ DBQ20050601133009406/01/05 13:30:31  5-MIN KDBQ 011930Z 10007KT 10SM CLR 26/10 A3002 990 37  2500 100/07 RMK AO2
94908KDBQ DBQ20050601133509406/01/05 13:35:31  5-MIN KDBQ 011935Z 09010KT 10SM CLR 26/10 A3001 990 37  2500 090/10 RMK AO2
94908KDBQ DBQ20050601134009406/01/05 13:40:31  5-MIN KDBQ 011940Z 11008KT 10SM CLR 26/10 A3001 990 36  2500 110/08 RMK AO2
94908KDBQ DBQ20050601134509406/01/05 13:45:31  5-MIN KDBQ 011945Z 14010KT 10SM CLR 26/10 A3001 990 36  2500 140/10 RMK AO2
94908KDBQ DBQ20050601135011706/01/05 13:50:31  5-MIN KDBQ 011950Z VRB06G14KT 10SM CLR 26/10 A3001 1000 37 2500 VRB/06G14 RMK AO2 SLP159 T02560100
94908KDBQ DBQ20050601135511106/01/05 13:55:31  5-MIN KDBQ 011955Z 13008KT 10SM CLR 26/09 A3001 1000 34 2500 130/08 RMK AO2 SLP158 T02610094
94908KDBQ DBQ20050601140011006/01/05 14:00:31  5-MIN KDBQ 012000Z 15007KT 120V180 10SM CLR 27/10 A3001 1000 34 2600 140/07 120V180 RMK AO2
94908KDBQ DBQ20050601140509406/01/05 14:05:31  5-MIN KDBQ 012005Z 15008KT 10SM CLR 26/09 A3001 1000 34 2500 150/08 RMK AO2
94908KDBQ DBQ20050601141009406/01/05 14:10:31  5-MIN KDBQ 012010Z 13007KT 10SM CLR 26/09 A3000 1000 34 2500 130/07 RMK AO2
94908KDBQ DBQ20050601141509706/01/05 14:15:31  5-MIN KDBQ 012015Z 00000KT 10SM FEW070 26/10 A3000 1000 37 2500 000/00 RMK AO2
94908KDBQ DBQ20050601142009706/01/05 14:20:31  5-MIN KDBQ 012020Z 10009KT 10SM SCT070 26/09 A3000 1000 35 2500 100/09 RMK AO2
94908KDBQ DBQ20050601142510406/01/05 14:25:31  5-MIN KDBQ 012025Z 11009G14KT 10SM BKN070 26/09 A3000  1000 35 2500 100/09G14 RMK AO2
94908KDBQ DBQ20050601143009706/01/05 14:30:31  5-MIN KDBQ 012030Z 10009KT 10SM BKN070 26/09 A3000 1000 35 2500 100/09 RMK AO2
94908KDBQ DBQ20050601143509706/01/05 14:35:31  5-MIN KDBQ 012035Z 11010KT 10SM BKN070 26/09 A3000 1010 35 2500 110/10 RMK AO2
94908KDBQ DBQ20050601144009706/01/05 14:40:31  5-MIN KDBQ 012040Z 11008KT 10SM BKN070 26/09 A3000 1010 34 2500 110/08 RMK AO2
94908KDBQ DBQ20050601144509706/01/05 14:45:31  5-MIN KDBQ 012045Z 14009KT 10SM SCT070 26/09 A2999 1010 34 2500 140/09 RMK AO2
94908KDBQ DBQ20050601145012006/01/05 14:50:31  5-MIN KDBQ 012050Z 15010KT 10SM SCT070 27/09 A2999 1010 32 2600 150/10 RMK AO2 SLP152 T02670089 58008
94908KDBQ DBQ20050601145512006/01/05 14:55:31  5-MIN KDBQ 012055Z 14007KT 10SM SCT075 27/09 A2999 1010 32 2600 140/07 RMK AO2 SLP152 T02670089 57016
94908KDBQ DBQ20050601150009706/01/05 15:00:31  5-MIN KDBQ 012100Z VRB06KT 10SM FEW075 26/09 A2999 1010 33 2600 VRB/06 RMK AO2
94908KDBQ DBQ20050601150509706/01/05 15:05:31  5-MIN KDBQ 012105Z 11008KT 10SM FEW075 27/09 A2999 1010 33 2600 110/08 RMK AO2
94908KDBQ DBQ20050601151009706/01/05 15:10:31  5-MIN KDBQ 012110Z 10009KT 10SM FEW075 26/09 A2999 1020 33 2600 090/09 RMK AO2
94908KDBQ DBQ20050601151510406/01/05 15:15:31  5-MIN KDBQ 012115Z 08010G14KT 10SM FEW075 27/09 A2999  1020 32 2600 080/10G14 RMK AO2
94908KDBQ DBQ20050601152010406/01/05 15:20:31  5-MIN KDBQ 012120Z 10011G14KT 10SM FEW075 27/09 A2999  1020 33 2600 100/11G14 RMK AO2
94908KDBQ DBQ20050601152509706/01/05 15:25:31  5-MIN KDBQ 012125Z 12011KT 10SM SCT075 26/08 A2998 1020 32 2600 120/11 RMK AO2
94908KDBQ DBQ20050601153009706/01/05 15:30:31  5-MIN KDBQ 012130Z 11009KT 10SM FEW075 26/08 A2998 1020 32 2600 110/09 RMK AO2
94908KDBQ DBQ20050601153509706/01/05 15:35:31  5-MIN KDBQ 012135Z 12011KT 10SM FEW075 27/09 A2998 1020 32 2600 120/11 RMK AO2
94908KDBQ DBQ20050601154009706/01/05 15:40:31  5-MIN KDBQ 012140Z 13010KT 10SM FEW075 26/08 A2998 1020 32 2600 130/10 RMK AO2
94908KDBQ DBQ20050601154509706/01/05 15:45:31  5-MIN KDBQ 012145Z 12010KT 10SM FEW075 27/08 A2998 1020 31 2600 120/10 RMK AO2
94908KDBQ DBQ20050601155011106/01/05 15:50:31  5-MIN KDBQ 012150Z 11006KT 10SM CLR 27/08 A2998 1020 31 2600 110/06 RMK AO2 SLP148 T02670083
94908KDBQ DBQ20050601155511106/01/05 15:55:31  5-MIN KDBQ 012155Z 10006KT 10SM CLR 27/09 A2998 1030 32 2600 100/06 RMK AO2 SLP147 T02670089
94908KDBQ DBQ20050601160009406/01/05 16:00:31  5-MIN KDBQ 012200Z 11008KT 10SM CLR 27/09 A2998 1030 32 2600 110/08 RMK AO2
94908KDBQ DBQ20050601160509406/01/05 16:05:31  5-MIN KDBQ 012205Z 11009KT 10SM CLR 27/09 A2998 1020 32 2600 110/09 RMK AO2
94908KDBQ DBQ20050601161009406/01/05 16:10:31  5-MIN KDBQ 012210Z 09009KT 10SM CLR 27/09 A2998 1030 32 2600 080/09 RMK AO2
94908KDBQ DBQ20050601161509406/01/05 16:15:31  5-MIN KDBQ 012215Z 10008KT 10SM CLR 27/09 A2997 1030 32 2600 090/08 RMK AO2
94908KDBQ DBQ20050601162009406/01/05 16:20:31  5-MIN KDBQ 012220Z 10006KT 10SM CLR 27/09 A2998 1030 33 2600 100/06 RMK AO2
94908KDBQ DBQ20050601162509406/01/05 16:25:31  5-MIN KDBQ 012225Z 11009KT 10SM CLR 27/09 A2998 1030 32 2600 110/09 RMK AO2
94908KDBQ DBQ20050601163009406/01/05 16:30:31  5-MIN KDBQ 012230Z 13009KT 10SM CLR 27/09 A2998 1030 32 2600 130/09 RMK AO2
94908KDBQ DBQ20050601163509406/01/05 16:35:31  5-MIN KDBQ 012235Z 12008KT 10SM CLR 27/08 A2998 1030 31 2600 120/08 RMK AO2
94908KDBQ DBQ20050601164009406/01/05 16:40:31  5-MIN KDBQ 012240Z 09010KT 10SM CLR 27/09 A2998 1030 32 2600 090/10 RMK AO2
94908KDBQ DBQ20050601164509406/01/05 16:45:31  5-MIN KDBQ 012245Z 10008KT 10SM CLR 27/08 A2998 1030 31 2600 090/08 RMK AO2
94908KDBQ DBQ20050601165011106/01/05 16:50:31  5-MIN KDBQ 012250Z 10006KT 10SM CLR 27/09 A2997 1030 32 2600 100/06 RMK AO2 SLP146 T02670089
94908KDBQ DBQ20050601165511106/01/05 16:55:31  5-MIN KDBQ 012255Z 09009KT 10SM CLR 26/08 A2997 1030 32 2600 090/09 RMK AO2 SLP146 T02610083
94908KDBQ DBQ20050601170009406/01/05 17:00:31  5-MIN KDBQ 012300Z 12009KT 10SM CLR 26/08 A2997 1030 32 2600 120/09 RMK AO2
94908KDBQ DBQ20050601170509406/01/05 17:05:31  5-MIN KDBQ 012305Z 11009KT 10SM CLR 26/08 A2997 1030 32 2600 110/09 RMK AO2
94908KDBQ DBQ20050601171009406/01/05 17:10:31  5-MIN KDBQ 012310Z 11010KT 10SM CLR 26/08 A2997 1030 32 2600 110/10 RMK AO2
94908KDBQ DBQ20050601171509406/01/05 17:15:31  5-MIN KDBQ 012315Z 11008KT 10SM CLR 26/08 A2997 1030 32 2600 110/08 RMK AO2
94908KDBQ DBQ20050601172009406/01/05 17:20:31  5-MIN KDBQ 012320Z 11007KT 10SM CLR 26/09 A2997 1030 33 2600 110/07 RMK AO2
94908KDBQ DBQ20050601172509406/01/05 17:25:31  5-MIN KDBQ 012325Z 11009KT 10SM CLR 26/09 A2997 1030 34 2600 110/09 RMK AO2
94908KDBQ DBQ20050601173009406/01/05 17:30:31  5-MIN KDBQ 012330Z 11008KT 10SM CLR 26/09 A2997 1030 33 2600 100/08 RMK AO2
94908KDBQ DBQ20050601173509406/01/05 17:35:31  5-MIN KDBQ 012335Z 11010KT 10SM CLR 26/09 A2997 1030 34 2600 110/10 RMK AO2
94908KDBQ DBQ20050601174009406/01/05 17:40:31  5-MIN KDBQ 012340Z 11009KT 10SM CLR 26/08 A2997 1030 32 2600 110/09 RMK AO2
94908KDBQ DBQ20050601174509406/01/05 17:45:31  5-MIN KDBQ 012345Z 10009KT 10SM CLR 26/09 A2997 1030 33 2600 100/09 RMK AO2
94908KDBQ DBQ20050601175012906/01/05 17:50:31  5-MIN KDBQ 012350Z 09007KT 10SM CLR 26/10 A2997 1030 36 2600 090/07 RMK AO2 SLP144 T02610100 10272 20244 57016
94908KDBQ DBQ20050601175512906/01/05 17:55:31  5-MIN KDBQ 012355Z 09009KT 10SM CLR 26/09 A2997 1030 35 2500 080/09 RMK AO2 SLP143 T02560094 10272 20244 56008
94908KDBQ DBQ20050601180009406/01/05 18:00:31  5-MIN KDBQ 020000Z 08006KT 10SM CLR 26/10 A2997 1030 37 2500 080/06 RMK AO2
94908KDBQ DBQ20050601180509406/01/05 18:05:31  5-MIN KDBQ 020005Z 08007KT 10SM CLR 26/10 A2997 1030 37 2500 080/07 RMK AO2
94908KDBQ DBQ20050601181009406/01/05 18:10:31  5-MIN KDBQ 020010Z 08007KT 10SM CLR 25/11 A2997 1030 39 2500 080/07 RMK AO2
94908KDBQ DBQ20050601181510006/01/05 18:15:31  5-MIN KDBQ 020015Z 10013G16KT 10SM CLR 25/10 A2997 1030 38 2500 100/13G16 RMK AO2
94908KDBQ DBQ20050601182009406/01/05 18:20:31  5-MIN KDBQ 020020Z 09011KT 10SM CLR 24/09 A2997 1030 38 2400 090/11 RMK AO2
94908KDBQ DBQ20050601182509406/01/05 18:25:31  5-MIN KDBQ 020025Z 10010KT 10SM CLR 24/09 A2998 1030 38 2400 100/10 RMK AO2
94908KDBQ DBQ20050601183009406/01/05 18:30:31  5-MIN KDBQ 020030Z 10009KT 10SM CLR 24/09 A2998 1030 38 2400 100/09 RMK AO2
94908KDBQ DBQ20050601183509406/01/05 18:35:31  5-MIN KDBQ 020035Z 10009KT 10SM CLR 24/09 A2998 1030 38 2300 100/09 RMK AO2
94908KDBQ DBQ20050601184009406/01/05 18:40:31  5-MIN KDBQ 020040Z 10010KT 10SM CLR 24/09 A2998 1030 38 2300 100/10 RMK AO2
94908KDBQ DBQ20050601184509406/01/05 18:45:31  5-MIN KDBQ 020045Z 10009KT 10SM CLR 24/09 A2998 1020 38 2300 100/09 RMK AO2
94908KDBQ DBQ20050601185012206/01/05 18:50:31  5-MIN KDBQ 020050Z AUTO 10008KT 10SM CLR 24/09 A2998  1020 39 2300 090/08 RMK AO2 SLP147 T02390094 TSNO
94908KDBQ DBQ20050601185512206/01/05 18:55:31  5-MIN KDBQ 020055Z AUTO 09009KT 10SM CLR 23/09 A2998  1020 39 2300 090/09 RMK AO2 SLP148 T02330089 TSNO
94908KDBQ DBQ20050601190010506/01/05 19:00:31  5-MIN KDBQ 020100Z AUTO 09009KT 10SM CLR 23/09 A2998  1030 41 2300 090/09 RMK AO2 TSNO
94908KDBQ DBQ20050601190510506/01/05 19:05:31  5-MIN KDBQ 020105Z AUTO 09008KT 10SM CLR 23/09 A2998  1030 42 2200 090/08 RMK AO2 TSNO
94908KDBQ DBQ20050601191010506/01/05 19:10:31  5-MIN KDBQ 020110Z AUTO 09008KT 10SM CLR 23/09 A2998  1030 42 2200 090/08 RMK AO2 TSNO
94908KDBQ DBQ20050601191510506/01/05 19:15:31  5-MIN KDBQ 020115Z AUTO 09008KT 10SM CLR 22/09 A2998  1030 43 2100 090/08 RMK AO2 TSNO
94908KDBQ DBQ20050601192010506/01/05 19:20:31  5-MIN KDBQ 020120Z AUTO 09008KT 10SM CLR 22/09 A2997  1030 43 2100 090/08 RMK AO2 TSNO
94908KDBQ DBQ20050601192510506/01/05 19:25:31  5-MIN KDBQ 020125Z AUTO 10009KT 10SM CLR 22/09 A2998  1030 43 2100 090/09 RMK AO2 TSNO
94908KDBQ DBQ20050601193010506/01/05 19:30:31  5-MIN KDBQ 020130Z AUTO 09009KT 10SM CLR 22/09 A2998  1030 42 2100 090/09 RMK AO2 TSNO
94908KDBQ DBQ20050601193510506/01/05 19:35:31  5-MIN KDBQ 020135Z AUTO 09009KT 10SM CLR 22/09 A2998  1030 42 2100 090/09 RMK AO2 TSNO
94908KDBQ DBQ20050601194010506/01/05 19:40:31  5-MIN KDBQ 020140Z AUTO 09008KT 10SM CLR 22/09 A2998  1030 42 2100 090/08 RMK AO2 TSNO
94908KDBQ DBQ20050601194510506/01/05 19:45:31  5-MIN KDBQ 020145Z AUTO 09008KT 10SM CLR 22/09 A2998  1030 43 2100 090/08 RMK AO2 TSNO
94908KDBQ DBQ20050601195012206/01/05 19:50:31  5-MIN KDBQ 020150Z AUTO 09008KT 10SM CLR 21/09 A2998  1020 45 2000 090/08 RMK AO2 SLP148 T02110089 TSNO
94908KDBQ DBQ20050601195512206/01/05 19:55:31  5-MIN KDBQ 020155Z AUTO 09008KT 10SM CLR 21/09 A2997  1030 45 2000 090/08 RMK AO2 SLP145 T02110089 TSNO
94908KDBQ DBQ20050601200010506/01/05 20:00:31  5-MIN KDBQ 020200Z AUTO 09008KT 10SM CLR 21/08 A2998  1020 43 2000 090/08 RMK AO2 TSNO
94908KDBQ DBQ20050601200510506/01/05 20:05:31  5-MIN KDBQ 020205Z AUTO 09008KT 10SM CLR 21/08 A2997  1030 43 2000 090/08 RMK AO2 TSNO
94908KDBQ DBQ20050601201010506/01/05 20:10:31  5-MIN KDBQ 020210Z AUTO 09009KT 10SM CLR 22/08 A2998  1020 42 2100 090/09 RMK AO2 TSNO
94908KDBQ DBQ20050601201510506/01/05 20:15:31  5-MIN KDBQ 020215Z AUTO 09009KT 10SM CLR 21/08 A2998  1020 43 2000 090/09 RMK AO2 TSNO
94908KDBQ DBQ20050601202010506/01/05 20:20:31  5-MIN KDBQ 020220Z AUTO 10010KT 10SM CLR 21/08 A2997  1030 43 2000 090/10 RMK AO2 TSNO
94908KDBQ DBQ20050601202510506/01/05 20:25:31  5-MIN KDBQ 020225Z AUTO 09010KT 10SM CLR 21/08 A2998  1020 43 2000 090/10 RMK AO2 TSNO
94908KDBQ DBQ20050601203010506/01/05 20:30:31  5-MIN KDBQ 020230Z AUTO 10009KT 10SM CLR 21/08 A2997  1030 43 2000 090/09 RMK AO2 TSNO
94908KDBQ DBQ20050601203510506/01/05 20:35:31  5-MIN KDBQ 020235Z AUTO 09010KT 10SM CLR 21/08 A2998  1030 43 2000 090/10 RMK AO2 TSNO
94908KDBQ DBQ20050601204010506/01/05 20:40:31  5-MIN KDBQ 020240Z AUTO 10009KT 10SM CLR 21/08 A2999  1020 43 2000 090/09 RMK AO2 TSNO
94908KDBQ DBQ20050601204510506/01/05 20:45:31  5-MIN KDBQ 020245Z AUTO 10010KT 10SM CLR 21/08 A2998  1020 43 2000 090/10 RMK AO2 TSNO
94908KDBQ DBQ20050601205012806/01/05 20:50:31  5-MIN KDBQ 020250Z AUTO 10010KT 10SM CLR 21/09 A2998  1020 45 2000 100/10 RMK AO2 SLP148 T02110089 56008 TSNO
94908KDBQ DBQ20050601205512806/01/05 20:55:31  5-MIN KDBQ 020255Z AUTO 09010KT 10SM CLR 21/09 A2998  1020 45 2000 090/10 RMK AO2 SLP147 T02110089 51003 TSNO
94908KDBQ DBQ20050601210010506/01/05 21:00:31  5-MIN KDBQ 020300Z AUTO 10010KT 10SM CLR 21/09 A2998  1020 45 2000 100/10 RMK AO2 TSNO
94908KDBQ DBQ20050601210510506/01/05 21:05:31  5-MIN KDBQ 020305Z AUTO 10011KT 10SM CLR 21/09 A2999  1020 45 2000 100/11 RMK AO2 TSNO
94908KDBQ DBQ20050601211010506/01/05 21:10:31  5-MIN KDBQ 020310Z AUTO 10010KT 10SM CLR 21/09 A2998  1030 45 2000 100/10 RMK AO2 TSNO
94908KDBQ DBQ20050601211510506/01/05 21:15:31  5-MIN KDBQ 020315Z AUTO 10011KT 10SM CLR 21/09 A2999  1020 45 2000 100/11 RMK AO2 TSNO
94908KDBQ DBQ20050601212010506/01/05 21:20:31  5-MIN KDBQ 020320Z AUTO 10010KT 10SM CLR 21/09 A2998  1030 47 2000 100/10 RMK AO2 TSNO
94908KDBQ DBQ20050601212510506/01/05 21:25:31  5-MIN KDBQ 020325Z AUTO 10011KT 10SM CLR 21/09 A2998  1030 47 2000 100/11 RMK AO2 TSNO
94908KDBQ DBQ20050601213010506/01/05 21:30:31  5-MIN KDBQ 020330Z AUTO 10011KT 10SM CLR 21/09 A2997  1030 48 2000 100/11 RMK AO2 TSNO
94908KDBQ DBQ20050601213510506/01/05 21:35:31  5-MIN KDBQ 020335Z AUTO 10011KT 10SM CLR 21/09 A2997  1030 48 2000 100/11 RMK AO2 TSNO
94908KDBQ DBQ20050601214010506/01/05 21:40:31  5-MIN KDBQ 020340Z AUTO 10010KT 10SM CLR 21/09 A2998  1020 48 1900 100/10 RMK AO2 TSNO
94908KDBQ DBQ20050601214510506/01/05 21:45:31  5-MIN KDBQ 020345Z AUTO 10010KT 10SM CLR 21/09 A2997  1040 48 2000 100/10 RMK AO2 TSNO
94908KDBQ DBQ20050601215012206/01/05 21:50:31  5-MIN KDBQ 020350Z AUTO 10010KT 10SM CLR 21/09 A2997  1030 48 2000 100/10 RMK AO2 SLP145 T02060094 TSNO
94908KDBQ DBQ20050601215512206/01/05 21:55:31  5-MIN KDBQ 020355Z AUTO 10011KT 10SM CLR 21/09 A2996  1040 48 2000 100/11 RMK AO2 SLP141 T02060094 TSNO
94908KDBQ DBQ20050601220010506/01/05 22:00:31  5-MIN KDBQ 020400Z AUTO 10011KT 10SM CLR 21/09 A2996  1040 48 2000 100/11 RMK AO2 TSNO
94908KDBQ DBQ20050601220510506/01/05 22:05:31  5-MIN KDBQ 020405Z AUTO 10011KT 10SM CLR 20/09 A2997  1030 50 1900 100/11 RMK AO2 TSNO
94908KDBQ DBQ20050601221010506/01/05 22:10:31  5-MIN KDBQ 020410Z AUTO 10010KT 10SM CLR 20/09 A2996  1040 50 1900 100/10 RMK AO2 TSNO
94908KDBQ DBQ20050601221510506/01/05 22:15:31  5-MIN KDBQ 020415Z AUTO 10011KT 10SM CLR 20/09 A2997  1030 50 1900 100/11 RMK AO2 TSNO
94908KDBQ DBQ20050601222010506/01/05 22:20:31  5-MIN KDBQ 020420Z AUTO 10010KT 10SM CLR 20/09 A2996  1040 50 1900 100/10 RMK AO2 TSNO
94908KDBQ DBQ20050601222510506/01/05 22:25:31  5-MIN KDBQ 020425Z AUTO 10010KT 10SM CLR 20/09 A2996  1040 50 1900 100/10 RMK AO2 TSNO
94908KDBQ DBQ20050601223010506/01/05 22:30:31  5-MIN KDBQ 020430Z AUTO 11010KT 10SM CLR 20/09 A2997  1030 50 1900 100/10 RMK AO2 TSNO
94908KDBQ DBQ20050601223510506/01/05 22:35:31  5-MIN KDBQ 020435Z AUTO 10011KT 10SM CLR 20/09 A2996  1040 50 1900 100/11 RMK AO2 TSNO
94908KDBQ DBQ20050601224010506/01/05 22:40:31  5-MIN KDBQ 020440Z AUTO 10010KT 10SM CLR 20/09 A2996  1040 50 1900 100/10 RMK AO2 TSNO
94908KDBQ DBQ20050601224510506/01/05 22:45:31  5-MIN KDBQ 020445Z AUTO 10011KT 10SM CLR 20/09 A2996  1050 50 1900 100/11 RMK AO2 TSNO
94908KDBQ DBQ20050601225012206/01/05 22:50:31  5-MIN KDBQ 020450Z AUTO 10011KT 10SM CLR 20/09 A2996  1050 50 1900 100/11 RMK AO2 SLP138 T02000094 TSNO
94908KDBQ DBQ20050601225512206/01/05 22:55:31  5-MIN KDBQ 020455Z AUTO 10012KT 10SM CLR 20/09 A2997  1040 50 1900 100/12 RMK AO2 SLP141 T02000094 TSNO
94908KDBQ DBQ20050601230010506/01/05 23:00:31  5-MIN KDBQ 020500Z AUTO 10011KT 10SM CLR 20/09 A2996  1050 50 1900 100/11 RMK AO2 TSNO
94908KDBQ DBQ20050601230510506/01/05 23:05:31  5-MIN KDBQ 020505Z AUTO 10012KT 10SM CLR 20/09 A2996  1040 50 1900 100/12 RMK AO2 TSNO
94908KDBQ DBQ20050601231010506/01/05 23:10:31  5-MIN KDBQ 020510Z AUTO 10011KT 10SM CLR 19/09 A2996  1040 52 1800 100/11 RMK AO2 TSNO
94908KDBQ DBQ20050601231510506/01/05 23:15:31  5-MIN KDBQ 020515Z AUTO 10011KT 10SM CLR 19/09 A2996  1040 52 1800 100/11 RMK AO2 TSNO
94908KDBQ DBQ20050601232010506/01/05 23:20:31  5-MIN KDBQ 020520Z AUTO 10011KT 10SM CLR 19/09 A2997  1030 52 1800 100/11 RMK AO2 TSNO
94908KDBQ DBQ20050601232510506/01/05 23:25:31  5-MIN KDBQ 020525Z AUTO 10012KT 10SM CLR 19/09 A2996  1040 52 1800 100/12 RMK AO2 TSNO
94908KDBQ DBQ20050601233010506/01/05 23:30:31  5-MIN KDBQ 020530Z AUTO 11013KT 10SM CLR 19/09 A2996  1040 52 1800 100/13 RMK AO2 TSNO
94908KDBQ DBQ20050601233510506/01/05 23:35:31  5-MIN KDBQ 020535Z AUTO 11014KT 10SM CLR 19/09 A2997  1030 52 1800 110/14 RMK AO2 TSNO
94908KDBQ DBQ20050601234010506/01/05 23:40:31  5-MIN KDBQ 020540Z AUTO 11013KT 10SM CLR 19/09 A2996  1050 50 1800 110/13 RMK AO2 TSNO
94908KDBQ DBQ20050601234510506/01/05 23:45:31  5-MIN KDBQ 020545Z AUTO 11013KT 10SM CLR 19/09 A2995  1050 50 1800 110/13 RMK AO2 TSNO
94908KDBQ DBQ20050601235015106/01/05 23:50:31  5-MIN KDBQ 020550Z AUTO 10011KT 10SM CLR 19/09 A2995  1050 52 1800 100/11 RMK AO2 SLP137 T01940094 10256 20194 402720122 51003  TSNO
94908KDBQ DBQ20050601235515106/01/05 23:55:31  5-MIN KDBQ 020555Z AUTO 10014KT 10SM CLR 19/09 A2995  1050 50 1900 100/14 RMK AO2 SLP136 T01940089 10256 20189 402720122 57009  TSNO
94908KDBQ DBQ20050602000010506/02/05 00:00:38  5-MIN KDBQ 020600Z AUTO 11013KT 10SM CLR 19/09 A2996  1040 52 1800 100/13 RMK AO2 TSNO
94908KDBQ DBQ20050602000510506/02/05 00:05:31  5-MIN KDBQ 020605Z AUTO 10011KT 10SM CLR 19/09 A2995  1050 52 1800 100/11 RMK AO2 TSNO
94908KDBQ DBQ20050602001010506/02/05 00:10:31  5-MIN KDBQ 020610Z AUTO 10012KT 10SM CLR 19/09 A2995  1050 52 1800 100/12 RMK AO2 TSNO
94908KDBQ DBQ20050602001510506/02/05 00:15:31  5-MIN KDBQ 020615Z AUTO 10012KT 10SM CLR 19/09 A2995  1050 52 1800 100/12 RMK AO2 TSNO
94908KDBQ DBQ20050602002010506/02/05 00:20:31  5-MIN KDBQ 020620Z AUTO 10009KT 10SM CLR 19/09 A2995  1050 52 1800 100/09 RMK AO2 TSNO
94908KDBQ DBQ20050602002510506/02/05 00:25:31  5-MIN KDBQ 020625Z AUTO 10011KT 10SM CLR 18/09 A2996  1040 54 1700 100/11 RMK AO2 TSNO
94908KDBQ DBQ20050602003010506/02/05 00:30:31  5-MIN KDBQ 020630Z AUTO 10011KT 10SM CLR 18/09 A2995  1050 54 1700 100/11 RMK AO2 TSNO
94908KDBQ DBQ20050602003510506/02/05 00:35:31  5-MIN KDBQ 020635Z AUTO 10011KT 10SM CLR 18/09 A2995  1050 54 1700 100/11 RMK AO2 TSNO
94908KDBQ DBQ20050602004010506/02/05 00:40:31  5-MIN KDBQ 020640Z AUTO 10012KT 10SM CLR 18/09 A2995  1050 54 1700 100/12 RMK AO2 TSNO
94908KDBQ DBQ20050602004510506/02/05 00:45:31  5-MIN KDBQ 020645Z AUTO 10011KT 10SM CLR 18/09 A2994  1060 54 1700 100/11 RMK AO2 TSNO
94908KDBQ DBQ20050602005012206/02/05 00:50:31  5-MIN KDBQ 020650Z AUTO 10012KT 10SM CLR 18/09 A2994  1060 54 1700 100/12 RMK AO2 SLP132 T01830089 TSNO
94908KDBQ DBQ20050602005512206/02/05 00:55:31  5-MIN KDBQ 020655Z AUTO 10011KT 10SM CLR 18/09 A2995  1050 54 1700 100/11 RMK AO2 SLP136 T01830089 TSNO
94908KDBQ DBQ20050602010010506/02/05 01:00:31  5-MIN KDBQ 020700Z AUTO 10012KT 10SM CLR 18/09 A2994  1060 54 1700 100/12 RMK AO2 TSNO
94908KDBQ DBQ20050602010510506/02/05 01:05:31  5-MIN KDBQ 020705Z AUTO 10012KT 10SM CLR 18/09 A2994  1060 54 1700 100/12 RMK AO2 TSNO
94908KDBQ DBQ20050602011010506/02/05 01:10:31  5-MIN KDBQ 020710Z AUTO 10011KT 10SM CLR 18/09 A2994  1060 55 1700 100/11 RMK AO2 TSNO
94908KDBQ DBQ20050602011510506/02/05 01:15:31  5-MIN KDBQ 020715Z AUTO 10010KT 10SM CLR 18/09 A2994  1060 55 1700 100/10 RMK AO2 TSNO
94908KDBQ DBQ20050602012010506/02/05 01:20:31  5-MIN KDBQ 020720Z AUTO 10011KT 10SM CLR 18/09 A2994  1060 55 1700 100/11 RMK AO2 TSNO
94908KDBQ DBQ20050602012510506/02/05 01:25:31  5-MIN KDBQ 020725Z AUTO 10011KT 10SM CLR 18/09 A2993  1070 55 1700 100/11 RMK AO2 TSNO
94908KDBQ DBQ20050602013010506/02/05 01:30:31  5-MIN KDBQ 020730Z AUTO 10010KT 10SM CLR 18/09 A2993  1070 55 1700 100/10 RMK AO2 TSNO
94908KDBQ DBQ20050602013510506/02/05 01:35:31  5-MIN KDBQ 020735Z AUTO 10010KT 10SM CLR 18/09 A2993  1070 55 1700 100/10 RMK AO2 TSNO
94908KDBQ DBQ20050602014010506/02/05 01:40:31  5-MIN KDBQ 020740Z AUTO 10011KT 10SM CLR 18/09 A2993  1070 55 1700 100/11 RMK AO2 TSNO
94908KDBQ DBQ20050602014510506/02/05 01:45:31  5-MIN KDBQ 020745Z AUTO 10010KT 10SM CLR 18/09 A2993  1070 55 1700 100/10 RMK AO2 TSNO
94908KDBQ DBQ20050602015012206/02/05 01:50:31  5-MIN KDBQ 020750Z AUTO 10011KT 10SM CLR 18/09 A2993  1070 54 1700 100/11 RMK AO2 SLP130 T01830089 TSNO
94908KDBQ DBQ20050602015512206/02/05 01:55:31  5-MIN KDBQ 020755Z AUTO 11010KT 10SM CLR 17/09 A2994  1060 57 1600 100/10 RMK AO2 SLP133 T01720089 TSNO
94908KDBQ DBQ20050602020010506/02/05 02:00:31  5-MIN KDBQ 020800Z AUTO 11011KT 10SM CLR 17/09 A2993  1070 57 1600 110/11 RMK AO2 TSNO
94908KDBQ DBQ20050602020510506/02/05 02:05:31  5-MIN KDBQ 020805Z AUTO 10011KT 10SM CLR 17/09 A2993  1070 57 1600 100/11 RMK AO2 TSNO
94908KDBQ DBQ20050602021010506/02/05 02:10:31  5-MIN KDBQ 020810Z AUTO 11010KT 10SM CLR 17/09 A2994  1060 57 1600 110/10 RMK AO2 TSNO
94908KDBQ DBQ20050602021510506/02/05 02:15:31  5-MIN KDBQ 020815Z AUTO 11010KT 10SM CLR 17/09 A2993  1070 57 1600 110/10 RMK AO2 TSNO
94908KDBQ DBQ20050602022010506/02/05 02:20:31  5-MIN KDBQ 020820Z AUTO 11011KT 10SM CLR 17/09 A2993  1070 57 1600 110/11 RMK AO2 TSNO
94908KDBQ DBQ20050602022510506/02/05 02:25:31  5-MIN KDBQ 020825Z AUTO 11010KT 10SM CLR 17/09 A2993  1070 60 1600 110/10 RMK AO2 TSNO
94908KDBQ DBQ20050602023010506/02/05 02:30:31  5-MIN KDBQ 020830Z AUTO 11010KT 10SM CLR 17/09 A2993  1070 60 1600 100/10 RMK AO2 TSNO
94908KDBQ DBQ20050602023510506/02/05 02:35:31  5-MIN KDBQ 020835Z AUTO 11010KT 10SM CLR 17/09 A2993  1070 60 1600 110/10 RMK AO2 TSNO
94908KDBQ DBQ20050602024010506/02/05 02:40:31  5-MIN KDBQ 020840Z AUTO 11010KT 10SM CLR 17/09 A2993  1070 60 1600 110/10 RMK AO2 TSNO
94908KDBQ DBQ20050602024510506/02/05 02:45:31  5-MIN KDBQ 020845Z AUTO 11010KT 10SM CLR 17/09 A2993  1070 60 1600 110/10 RMK AO2 TSNO
94908KDBQ DBQ20050602025012806/02/05 02:50:31  5-MIN KDBQ 020850Z AUTO 11012KT 10SM CLR 17/09 A2993  1070 60 1600 110/12 RMK AO2 SLP130 T01720094 57009 TSNO
94908KDBQ DBQ20050602025512806/02/05 02:55:31  5-MIN KDBQ 020855Z AUTO 11011KT 10SM CLR 17/09 A2993  1070 60 1600 110/11 RMK AO2 SLP130 T01720094 58006 TSNO
94908KDBQ DBQ20050602030010506/02/05 03:00:31  5-MIN KDBQ 020900Z AUTO 11012KT 10SM CLR 17/09 A2993  1070 60 1600 110/12 RMK AO2 TSNO
94908KDBQ DBQ20050602030510506/02/05 03:05:31  5-MIN KDBQ 020905Z AUTO 11010KT 10SM CLR 17/09 A2994  1060 62 1500 110/10 RMK AO2 TSNO
94908KDBQ DBQ20050602031010506/02/05 03:10:31  5-MIN KDBQ 020910Z AUTO 12010KT 10SM CLR 17/09 A2994  1060 62 1500 120/10 RMK AO2 TSNO
94908KDBQ DBQ20050602031510506/02/05 03:15:31  5-MIN KDBQ 020915Z AUTO 12011KT 10SM CLR 17/09 A2994  1060 62 1500 120/11 RMK AO2 TSNO
94908KDBQ DBQ20050602032010506/02/05 03:20:31  5-MIN KDBQ 020920Z AUTO 12010KT 10SM CLR 17/09 A2993  1070 62 1500 110/10 RMK AO2 TSNO
94908KDBQ DBQ20050602032510506/02/05 03:25:31  5-MIN KDBQ 020925Z AUTO 12010KT 10SM CLR 17/09 A2994  1060 62 1500 120/10 RMK AO2 TSNO
94908KDBQ DBQ20050602033010506/02/05 03:30:31  5-MIN KDBQ 020930Z AUTO 12010KT 10SM CLR 17/09 A2993  1070 62 1600 120/10 RMK AO2 TSNO
94908KDBQ DBQ20050602033510506/02/05 03:35:31  5-MIN KDBQ 020935Z AUTO 12010KT 10SM CLR 17/09 A2993  1070 62 1500 120/10 RMK AO2 TSNO
94908KDBQ DBQ20050602034010506/02/05 03:40:31  5-MIN KDBQ 020940Z AUTO 12010KT 10SM CLR 17/09 A2994  1060 62 1500 120/10 RMK AO2 TSNO
94908KDBQ DBQ20050602034510506/02/05 03:45:31  5-MIN KDBQ 020945Z AUTO 12009KT 10SM CLR 17/09 A2994  1060 62 1500 120/09 RMK AO2 TSNO
94908KDBQ DBQ20050602035012206/02/05 03:50:31  5-MIN KDBQ 020950Z AUTO 12010KT 10SM CLR 16/09 A2994  1060 64 1500 120/10 RMK AO2 SLP132 T01610094 TSNO
94908KDBQ DBQ20050602035512206/02/05 03:55:31  5-MIN KDBQ 020955Z AUTO 12009KT 10SM CLR 17/09 A2994  1060 62 1500 120/09 RMK AO2 SLP132 T01670094 TSNO
94908KDBQ DBQ20050602040010506/02/05 04:00:31  5-MIN KDBQ 021000Z AUTO 12009KT 10SM CLR 17/09 A2994  1060 62 1500 120/09 RMK AO2 TSNO
94908KDBQ DBQ20050602040510506/02/05 04:05:31  5-MIN KDBQ 021005Z AUTO 12009KT 10SM CLR 17/09 A2995  1050 62 1500 120/09 RMK AO2 TSNO
94908KDBQ DBQ20050602041010506/02/05 04:10:31  5-MIN KDBQ 021010Z AUTO 12009KT 10SM CLR 17/10 A2996  1040 64 1500 120/09 RMK AO2 TSNO
94908KDBQ DBQ20050602041510506/02/05 04:15:31  5-MIN KDBQ 021015Z AUTO 12009KT 10SM CLR 17/10 A2996  1040 64 1500 120/09 RMK AO2 TSNO
94908KDBQ DBQ20050602042010506/02/05 04:20:31  5-MIN KDBQ 021020Z AUTO 12008KT 10SM CLR 17/10 A2996  1040 64 1500 120/08 RMK AO2 TSNO
94908KDBQ DBQ20050602042510506/02/05 04:25:31  5-MIN KDBQ 021025Z AUTO 12009KT 10SM CLR 16/10 A2996  1040 67 1500 120/09 RMK AO2 TSNO
94908KDBQ DBQ20050602043010506/02/05 04:30:31  5-MIN KDBQ 021030Z AUTO 12008KT 10SM CLR 16/10 A2996  1040 67 1500 120/08 RMK AO2 TSNO
94908KDBQ DBQ20050602043510506/02/05 04:35:31  5-MIN KDBQ 021035Z AUTO 12008KT 10SM CLR 16/10 A2996  1040 67 1500 120/08 RMK AO2 TSNO
94908KDBQ DBQ20050602044010506/02/05 04:40:31  5-MIN KDBQ 021040Z AUTO 12008KT 10SM CLR 16/10 A2996  1040 67 1400 120/08 RMK AO2 TSNO
94908KDBQ DBQ20050602044510506/02/05 04:45:31  5-MIN KDBQ 021045Z AUTO 12009KT 10SM CLR 16/10 A2997  1040 67 1400 120/09 RMK AO2 TSNO
94908KDBQ DBQ20050602045012206/02/05 04:50:31  5-MIN KDBQ 021050Z AUTO 12009KT 10SM CLR 16/10 A2997  1030 67 1400 120/09 RMK AO2 SLP143 T01610100 TSNO
94908KDBQ DBQ20050602045511106/02/05 04:55:31  5-MIN KDBQ 021055Z 12009KT 10SM CLR 16/10 A2997 1030 67 1400 120/09 RMK AO2 SLP144 T01610100
94908KDBQ DBQ20050602050009406/02/05 05:00:31  5-MIN KDBQ 021100Z 12009KT 10SM CLR 16/10 A2997 1030 67 1400 120/09 RMK AO2
94908KDBQ DBQ20050602050509406/02/05 05:05:31  5-MIN KDBQ 021105Z 12009KT 10SM CLR 16/10 A2997 1030 67 1400 120/09 RMK AO2
94908KDBQ DBQ20050602051009406/02/05 05:10:31  5-MIN KDBQ 021110Z 12008KT 10SM CLR 16/10 A2997 1030 67 1400 120/08 RMK AO2
94908KDBQ DBQ20050602051509406/02/05 05:15:31  5-MIN KDBQ 021115Z 12008KT 10SM CLR 16/10 A2998 1030 67 1400 120/08 RMK AO2
94908KDBQ DBQ20050602052009406/02/05 05:20:31  5-MIN KDBQ 021120Z 12008KT 10SM CLR 17/10 A2998 1030 64 1500 120/08 RMK AO2
94908KDBQ DBQ20050602052509406/02/05 05:25:31  5-MIN KDBQ 021125Z 12008KT 10SM CLR 16/10 A2998 1020 67 1400 120/08 RMK AO2
94908KDBQ DBQ20050602053009406/02/05 05:30:31  5-MIN KDBQ 021130Z 12008KT 10SM CLR 16/10 A2998 1020 67 1400 120/08 RMK AO2
94908KDBQ DBQ20050602053509406/02/05 05:35:31  5-MIN KDBQ 021135Z 12007KT 10SM CLR 16/11 A2998 1020 69 1400 120/07 RMK AO2
94908KDBQ DBQ20050602054009406/02/05 05:40:31  5-MIN KDBQ 021140Z 12007KT 10SM CLR 16/11 A2998 1020 69 1400 120/07 RMK AO2
94908KDBQ DBQ20050602054509406/02/05 05:45:31  5-MIN KDBQ 021145Z 12007KT 10SM CLR 17/11 A2998 1020 67 1500 120/07 RMK AO2
94908KDBQ DBQ20050602055012906/02/05 05:50:31  5-MIN KDBQ 021150Z 12006KT 10SM CLR 16/11 A2998 1020 69 1400 110/06 RMK AO2 SLP148 T01610106 10194 20161 58006
94908KDBQ DBQ20050602055512906/02/05 05:55:31  5-MIN KDBQ 021155Z 11006KT 10SM CLR 16/11 A2998 1020 69 1400 110/06 RMK AO2 SLP148 T01610106 10194 20161 53016
94908KDBQ DBQ20050602060009406/02/05 06:00:31  5-MIN KDBQ 021200Z 12006KT 10SM CLR 17/11 A2998 1020 67 1500 110/06 RMK AO2
94908KDBQ DBQ20050602060509406/02/05 06:05:31  5-MIN KDBQ 021205Z 11007KT 10SM CLR 17/11 A2998 1020 67 1500 110/07 RMK AO2
94908KDBQ DBQ20050602061009406/02/05 06:10:31  5-MIN KDBQ 021210Z 11008KT 10SM CLR 17/11 A2998 1020 67 1500 110/08 RMK AO2
94908KDBQ DBQ20050602061509406/02/05 06:15:31  5-MIN KDBQ 021215Z 11008KT 10SM CLR 17/11 A2998 1020 67 1500 110/08 RMK AO2
94908KDBQ DBQ20050602062009406/02/05 06:20:31  5-MIN KDBQ 021220Z 12008KT 10SM CLR 17/11 A2998 1020 67 1500 120/08 RMK AO2
94908KDBQ DBQ20050602062509406/02/05 06:25:31  5-MIN KDBQ 021225Z 12009KT 10SM CLR 17/11 A2998 1020 64 1600 120/09 RMK AO2
94908KDBQ DBQ20050602063009406/02/05 06:30:31  5-MIN KDBQ 021230Z 12009KT 10SM CLR 17/11 A2998 1020 64 1600 120/09 RMK AO2
94908KDBQ DBQ20050602063509406/02/05 06:35:31  5-MIN KDBQ 021235Z 12010KT 10SM CLR 17/11 A2998 1020 64 1600 120/10 RMK AO2
94908KDBQ DBQ20050602064009406/02/05 06:40:31  5-MIN KDBQ 021240Z 12009KT 10SM CLR 17/11 A2998 1020 64 1600 120/09 RMK AO2
94908KDBQ DBQ20050602064509406/02/05 06:45:31  5-MIN KDBQ 021245Z 12009KT 10SM CLR 18/11 A2998 1020 64 1600 120/09 RMK AO2
94908KDBQ DBQ20050602065011106/02/05 06:50:31  5-MIN KDBQ 021250Z 12009KT 10SM CLR 18/11 A2998 1020 64 1600 120/09 RMK AO2 SLP148 T01780111
94908KDBQ DBQ20050602065511106/02/05 06:55:31  5-MIN KDBQ 021255Z 12009KT 10SM CLR 18/11 A2999 1020 64 1600 120/09 RMK AO2 SLP150 T01780111
94908KDBQ DBQ20050602070009406/02/05 07:00:31  5-MIN KDBQ 021300Z 12009KT 10SM CLR 18/11 A2999 1020 62 1600 120/09 RMK AO2
94908KDBQ DBQ20050602070509406/02/05 07:05:31  5-MIN KDBQ 021305Z 13009KT 10SM CLR 18/11 A2999 1020 62 1700 130/09 RMK AO2
94908KDBQ DBQ20050602071009406/02/05 07:10:31  5-MIN KDBQ 021310Z 13008KT 10SM CLR 18/11 A2999 1020 62 1700 130/08 RMK AO2
94908KDBQ DBQ20050602071509406/02/05 07:15:31  5-MIN KDBQ 021315Z 13008KT 10SM CLR 19/11 A2999 1020 60 1700 130/08 RMK AO2
94908KDBQ DBQ20050602072009406/02/05 07:20:31  5-MIN KDBQ 021320Z 13008KT 10SM CLR 19/11 A2998 1020 60 1800 130/08 RMK AO2
94908KDBQ DBQ20050602072509406/02/05 07:25:31  5-MIN KDBQ 021325Z 13009KT 10SM CLR 19/11 A2998 1020 60 1800 130/09 RMK AO2
94908KDBQ DBQ20050602073009406/02/05 07:30:31  5-MIN KDBQ 021330Z 14010KT 10SM CLR 19/11 A2998 1020 60 1800 140/10 RMK AO2
94908KDBQ DBQ20050602073509406/02/05 07:35:31  5-MIN KDBQ 021335Z 13008KT 10SM CLR 19/12 A2998 1020 60 1800 130/08 RMK AO2
94908KDBQ DBQ20050602074009406/02/05 07:40:31  5-MIN KDBQ 021340Z 13011KT 10SM CLR 19/12 A2997 1030 60 1800 130/11 RMK AO2
94908KDBQ DBQ20050602074509406/02/05 07:45:31  5-MIN KDBQ 021345Z 13010KT 10SM CLR 19/12 A2997 1040 60 1800 130/10 RMK AO2
94908KDBQ DBQ20050602075011106/02/05 07:50:31  5-MIN KDBQ 021350Z 13009KT 10SM CLR 20/12 A2997 1040 58 1900 130/09 RMK AO2 SLP143 T02000117
94908KDBQ DBQ20050602075511106/02/05 07:55:31  5-MIN KDBQ 021355Z 13009KT 10SM CLR 20/12 A2998 1030 58 1900 130/09 RMK AO2 SLP146 T02000117
94908KDBQ DBQ20050602080009406/02/05 08:00:31  5-MIN KDBQ 021400Z 13009KT 10SM CLR 20/12 A2997 1030 60 1900 130/09 RMK AO2
94908KDBQ DBQ20050602080509406/02/05 08:05:31  5-MIN KDBQ 021405Z 13008KT 10SM CLR 21/12 A2997 1030 58 2000 130/08 RMK AO2
94908KDBQ DBQ20050602081009406/02/05 08:10:31  5-MIN KDBQ 021410Z 13008KT 10SM CLR 21/12 A2997 1030 56 2000 130/08 RMK AO2
94908KDBQ DBQ20050602081509406/02/05 08:15:31  5-MIN KDBQ 021415Z 15010KT 10SM CLR 21/13 A2997 1030 58 2000 140/10 RMK AO2
94908KDBQ DBQ20050602082009406/02/05 08:20:31  5-MIN KDBQ 021420Z 14009KT 10SM CLR 21/13 A2997 1030 58 2000 140/09 RMK AO2
94908KDBQ DBQ20050602082509406/02/05 08:25:31  5-MIN KDBQ 021425Z 15010KT 10SM CLR 22/13 A2997 1030 56 2100 140/10 RMK AO2
94908KDBQ DBQ20050602083009406/02/05 08:30:31  5-MIN KDBQ 021430Z 15010KT 10SM CLR 22/13 A2997 1030 56 2100 140/10 RMK AO2
94908KDBQ DBQ20050602083509406/02/05 08:35:31  5-MIN KDBQ 021435Z 15009KT 10SM CLR 22/13 A2997 1030 56 2100 140/09 RMK AO2
94908KDBQ DBQ20050602084009406/02/05 08:40:31  5-MIN KDBQ 021440Z 14008KT 10SM CLR 22/13 A2996 1040 56 2200 140/08 RMK AO2
94908KDBQ DBQ20050602084509406/02/05 08:45:31  5-MIN KDBQ 021445Z 13009KT 10SM CLR 22/13 A2997 1040 56 2200 130/09 RMK AO2
94908KDBQ DBQ20050602085013306/02/05 08:50:31  5-MIN KDBQ 021450Z 14007KT 100V160 10SM CLR 22/13 A2997 1040 56 2200 140/07 100V160 RMK AO2 SLP141 T02220133 53016
94908KDBQ DBQ20050602085511706/02/05 08:55:31  5-MIN KDBQ 021455Z 13007KT 10SM CLR 22/13 A2996 1040 56 2200 130/07 RMK AO2 SLP141 T02220133 58006
94908KDBQ DBQ20050602090009406/02/05 09:00:31  5-MIN KDBQ 021500Z 14010KT 10SM CLR 23/12 A2997 1040 51 2200 140/10 RMK AO2
94908KDBQ DBQ20050602090509406/02/05 09:05:31  5-MIN KDBQ 021505Z 13009KT 10SM CLR 23/12 A2996 1040 51 2200 130/09 RMK AO2
94908KDBQ DBQ20050602091009406/02/05 09:10:31  5-MIN KDBQ 021510Z 12009KT 10SM CLR 23/12 A2996 1040 49 2300 120/09 RMK AO2
94908KDBQ DBQ20050602091509406/02/05 09:15:31  5-MIN KDBQ 021515Z 14008KT 10SM CLR 23/12 A2996 1040 49 2300 140/08 RMK AO2
94908KDBQ DBQ20050602092009406/02/05 09:20:31  5-MIN KDBQ 021520Z 14010KT 10SM CLR 23/12 A2995 1050 49 2300 140/10 RMK AO2
94908KDBQ DBQ20050602092509406/02/05 09:25:31  5-MIN KDBQ 021525Z 15009KT 10SM CLR 23/12 A2995 1050 49 2300 150/09 RMK AO2
94908KDBQ DBQ20050602093009406/02/05 09:30:31  5-MIN KDBQ 021530Z 15010KT 10SM CLR 24/12 A2995 1050 47 2400 140/10 RMK AO2
94908KDBQ DBQ20050602093509406/02/05 09:35:31  5-MIN KDBQ 021535Z 15011KT 10SM CLR 24/12 A2995 1050 47 2400 150/11 RMK AO2
94908KDBQ DBQ20050602094009406/02/05 09:40:31  5-MIN KDBQ 021540Z 14009KT 10SM CLR 24/13 A2995 1050 49 2400 130/09 RMK AO2
94908KDBQ DBQ20050602094509406/02/05 09:45:31  5-MIN KDBQ 021545Z 13011KT 10SM CLR 24/12 A2995 1050 47 2400 130/11 RMK AO2
94908KDBQ DBQ20050602095011106/02/05 09:50:31  5-MIN KDBQ 021550Z 17008KT 10SM CLR 24/12 A2996 1040 47 2400 170/08 RMK AO2 SLP138 T02390122
94908KDBQ DBQ20050602095511106/02/05 09:55:31  5-MIN KDBQ 021555Z 14007KT 10SM CLR 24/13 A2996 1040 47 2400 140/07 RMK AO2 SLP140 T02440128
94908KDBQ DBQ20050602100009406/02/05 10:00:31  5-MIN KDBQ 021600Z 11006KT 10SM CLR 24/13 A2997 1040 49 2300 110/06 RMK AO2
94908KDBQ DBQ20050602100509406/02/05 10:05:31  5-MIN KDBQ 021605Z 14007KT 10SM CLR 24/13 A2997 1040 49 2300 140/07 RMK AO2
94908KDBQ DBQ20050602101009406/02/05 10:10:31  5-MIN KDBQ 021610Z 15005KT 10SM CLR 24/13 A2996 1040 47 2400 150/05 RMK AO2
94908KDBQ DBQ20050602101509406/02/05 10:15:31  5-MIN KDBQ 021615Z 16006KT 10SM CLR 24/12 A2996 1040 46 2400 160/06 RMK AO2
94908KDBQ DBQ20050602102009406/02/05 10:20:31  5-MIN KDBQ 021620Z VRB04KT 10SM CLR 24/12 A2996 1040 46 2400 VRB/04 RMK AO2
94908KDBQ DBQ20050602102509406/02/05 10:25:31  5-MIN KDBQ 021625Z VRB06KT 10SM CLR 25/13 A2996 1040 46 2500 VRB/06 RMK AO2
94908KDBQ DBQ20050602103009406/02/05 10:30:31  5-MIN KDBQ 021630Z VRB05KT 10SM CLR 24/12 A2996 1040 46 2400 VRB/05 RMK AO2
94908KDBQ DBQ20050602103509406/02/05 10:35:31  5-MIN KDBQ 021635Z VRB06KT 10SM CLR 25/12 A2996 1040 43 2500 VRB/06 RMK AO2
94908KDBQ DBQ20050602104009406/02/05 10:40:31  5-MIN KDBQ 021640Z 14008KT 10SM CLR 25/12 A2996 1040 44 2500 140/08 RMK AO2
94908KDBQ DBQ20050602104509406/02/05 10:45:31  5-MIN KDBQ 021645Z VRB04KT 10SM CLR 24/12 A2996 1040 46 2400 VRB/04 RMK AO2
94908KDBQ DBQ20050602105011706/02/05 10:50:31  5-MIN KDBQ 021650Z 12008G14KT 10SM CLR 26/12 A2996 1040 43 2500 120/08G14 RMK AO2 SLP139 T02560122
94908KDBQ DBQ20050602105511706/02/05 10:55:31  5-MIN KDBQ 021655Z 09004G14KT 10SM CLR 25/12 A2996 1040 43 2500 090/04G14 RMK AO2 SLP139 T02500117
94908KDBQ DBQ20050602110011006/02/05 11:00:31  5-MIN KDBQ 021700Z 14007KT 110V180 10SM CLR 25/11 A2996 1040 41 2500 130/07 110V180 RMK AO2
94908KDBQ DBQ20050602110509406/02/05 11:05:31  5-MIN KDBQ 021705Z 17008KT 10SM CLR 25/11 A2996 1040 41 2500 170/08 RMK AO2
94908KDBQ DBQ20050602111009406/02/05 11:10:31  5-MIN KDBQ 021710Z 13007KT 10SM CLR 25/12 A2996 1050 43 2500 130/07 RMK AO2
94908KDBQ DBQ20050602111509406/02/05 11:15:31  5-MIN KDBQ 021715Z VRB04KT 10SM CLR 25/11 A2996 1040 41 2500 VRB/04 RMK AO2
94908KDBQ DBQ20050602112009406/02/05 11:20:31  5-MIN KDBQ 021720Z 12005KT 10SM CLR 25/12 A2996 1050 43 2500 110/05 RMK AO2
94908KDBQ DBQ20050602112509406/02/05 11:25:31  5-MIN KDBQ 021725Z 11008KT 10SM CLR 26/11 A2995 1050 38 2500 110/08 RMK AO2
94908KDBQ DBQ20050602113009406/02/05 11:30:31  5-MIN KDBQ 021730Z 10007KT 10SM CLR 26/11 A2995 1050 38 2500 090/07 RMK AO2
94908KDBQ DBQ20050602113511006/02/05 11:35:31  5-MIN KDBQ 021735Z 14008KT 130V190 10SM CLR 26/11 A2995 1050 38 2500 140/08 130V190 RMK AO2
94908KDBQ DBQ20050602114009406/02/05 11:40:31  5-MIN KDBQ 021740Z 10008KT 10SM CLR 26/12 A2996 1050 41 2500 100/08 RMK AO2
94908KDBQ DBQ20050602114511406/02/05 11:45:31  5-MIN KDBQ 021745Z 15008KT 110V170 10SM FEW060 26/11  A2996 1050 38 2500 150/08 110V170 RMK AO2
94908KDBQ DBQ20050602115013206/02/05 11:50:31  5-MIN KDBQ 021750Z 10006KT 10SM FEW060 26/11 A2995 1050 40 2500 100/06 RMK AO2 SLP137 T02560111 10256 20161 58006
94908KDBQ DBQ20050602115513906/02/05 11:55:31  5-MIN KDBQ 021755Z 11007G15KT 10SM FEW060 26/11 A2995  1050 38 2600 110/07G15 RMK AO2 SLP136 T02610111 10261 20161 58005
94908KDBQ DBQ20050602120010406/02/05 12:00:31  5-MIN KDBQ 021800Z 11005G15KT 10SM FEW060 26/11 A2995  1050 40 2500 110/05G15 RMK AO2
94908KDBQ DBQ20050602120509706/02/05 12:05:31  5-MIN KDBQ 021805Z 14009KT 10SM FEW060 26/11 A2995 1050 40 2600 140/09 RMK AO2
94908KDBQ DBQ20050602121009706/02/05 12:10:31  5-MIN KDBQ 021810Z 15007KT 10SM FEW060 26/12 A2995 1050 41 2600 150/07 RMK AO2
94908KDBQ DBQ20050602121509706/02/05 12:15:31  5-MIN KDBQ 021815Z 11008KT 10SM FEW060 26/11 A2994 1060 40 2600 110/08 RMK AO2
94908KDBQ DBQ20050602122009706/02/05 12:20:31  5-MIN KDBQ 021820Z 12005KT 10SM SCT060 25/11 A2994 1060 41 2500 120/05 RMK AO2
94908KDBQ DBQ20050602122512106/02/05 12:25:31  5-MIN KDBQ 021825Z 11009KT 070V160 10SM SCT060 SCT070  26/12 A2994 1060 43 2600 110/09 070V160 RMK AO2
94908KDBQ DBQ20050602123009706/02/05 12:30:31  5-MIN KDBQ 021830Z 08006KT 10SM SCT060 26/12 A2993 1070 41 2600 080/06 RMK AO2
94908KDBQ DBQ20050602123509706/02/05 12:35:31  5-MIN KDBQ 021835Z 16005KT 10SM FEW060 26/12 A2993 1070 43 2600 160/05 RMK AO2
94908KDBQ DBQ20050602124009706/02/05 12:40:31  5-MIN KDBQ 021840Z VRB05KT 10SM FEW060 26/12 A2993 1070 41 2600 VRB/05 RMK AO2
94908KDBQ DBQ20050602124509706/02/05 12:45:31  5-MIN KDBQ 021845Z 11005KT 10SM SCT060 26/12 A2993 1070 43 2600 110/05 RMK AO2
94908KDBQ DBQ20050602125011406/02/05 12:50:31  5-MIN KDBQ 021850Z 08008KT 10SM SCT060 26/12 A2993 1070 43 2600 080/08 RMK AO2 SLP129 T02560122
94908KDBQ DBQ20050602125512106/02/05 12:55:31  5-MIN KDBQ 021855Z 09010G14KT 10SM FEW060 26/13 A2993  1070 44 2600 080/10G14 RMK AO2 SLP128 T02560128
94908KDBQ DBQ20050602130010406/02/05 13:00:31  5-MIN KDBQ 021900Z 13008G14KT 10SM FEW060 26/12 A2992  1080 41 2600 130/08G14 RMK AO2
94908KDBQ DBQ20050602130509706/02/05 13:05:31  5-MIN KDBQ 021905Z 12007KT 10SM FEW060 27/12 A2992 1080 38 2700 120/07 RMK AO2
94908KDBQ DBQ20050602131009706/02/05 13:10:31  5-MIN KDBQ 021910Z 10008KT 10SM FEW060 27/12 A2992 1080 40 2700 100/08 RMK AO2
94908KDBQ DBQ20050602131509706/02/05 13:15:31  5-MIN KDBQ 021915Z 12006KT 10SM FEW060 26/12 A2992 1080 41 2600 120/06 RMK AO2
94908KDBQ DBQ20050602132009406/02/05 13:20:31  5-MIN KDBQ 021920Z 13008KT 10SM CLR 26/12 A2992 1080 40 2600 130/08 RMK AO2
94908KDBQ DBQ20050602132509406/02/05 13:25:31  5-MIN KDBQ 021925Z 14008KT 10SM CLR 27/11 A2992 1080 37 2700 140/08 RMK AO2
94908KDBQ DBQ20050602133009406/02/05 13:30:31  5-MIN KDBQ 021930Z VRB06KT 10SM CLR 26/12 A2992 1080 40 2600 VRB/06 RMK AO2
94908KDBQ DBQ20050602133509406/02/05 13:35:31  5-MIN KDBQ 021935Z VRB05KT 10SM CLR 27/12 A2991 1080 38 2700 VRB/05 RMK AO2
94908KDBQ DBQ20050602134009706/02/05 13:40:31  5-MIN KDBQ 021940Z 13010KT 10SM FEW060 27/12 A2991 1080 40 2700 130/10 RMK AO2
94908KDBQ DBQ20050602134509706/02/05 13:45:31  5-MIN KDBQ 021945Z 12008KT 10SM FEW060 26/11 A2991 1090 38 2700 120/08 RMK AO2
94908KDBQ DBQ20050602135011406/02/05 13:50:31  5-MIN KDBQ 021950Z 15008KT 10SM FEW060 27/11 A2991 1090 37 2700 140/08 RMK AO2 SLP123 T02670111
94908KDBQ DBQ20050602135511406/02/05 13:55:31  5-MIN KDBQ 021955Z 15009KT 10SM SCT065 27/11 A2991 1090 36 2700 150/09 RMK AO2 SLP122 T02670106
94908KDBQ DBQ20050602140009706/02/05 14:00:31  5-MIN KDBQ 022000Z 12008KT 10SM SCT065 27/12 A2991 1090 38 2700 120/08 RMK AO2
94908KDBQ DBQ20050602140509706/02/05 14:05:31  5-MIN KDBQ 022005Z 14007KT 10SM FEW065 27/12 A2991 1090 37 2800 140/07 RMK AO2
94908KDBQ DBQ20050602141009706/02/05 14:10:31  5-MIN KDBQ 022010Z 15007KT 10SM FEW065 27/11 A2990 1090 37 2700 150/07 RMK AO2
94908KDBQ DBQ20050602141509706/02/05 14:15:31  5-MIN KDBQ 022015Z 10010KT 10SM FEW065 27/11 A2990 1090 36 2800 100/10 RMK AO2
94908KDBQ DBQ20050602142009706/02/05 14:20:31  5-MIN KDBQ 022020Z 12007KT 10SM FEW065 27/11 A2990 1090 37 2700 120/07 RMK AO2
94908KDBQ DBQ20050602142509706/02/05 14:25:31  5-MIN KDBQ 022025Z 10009KT 10SM FEW070 27/11 A2990 1100 37 2700 100/09 RMK AO2
94908KDBQ DBQ20050602143009706/02/05 14:30:31  5-MIN KDBQ 022030Z 13008KT 10SM FEW070 26/11 A2990 1090 38 2700 130/08 RMK AO2
94908KDBQ DBQ20050602143509706/02/05 14:35:31  5-MIN KDBQ 022035Z 11010KT 10SM FEW065 27/11 A2990 1100 36 2800 110/10 RMK AO2
94908KDBQ DBQ20050602144009706/02/05 14:40:31  5-MIN KDBQ 022040Z 10010KT 10SM FEW070 27/11 A2990 1100 36 2700 100/10 RMK AO2
94908KDBQ DBQ20050602144509706/02/05 14:45:31  5-MIN KDBQ 022045Z 09009KT 10SM FEW070 27/11 A2990 1100 36 2700 090/09 RMK AO2
94908KDBQ DBQ20050602145011706/02/05 14:50:31  5-MIN KDBQ 022050Z 12010KT 10SM CLR 27/11 A2990 1100 34 2800 120/10 RMK AO2 SLP118 T02720106 58005
94908KDBQ DBQ20050602145511706/02/05 14:55:31  5-MIN KDBQ 022055Z 11008KT 10SM CLR 27/10 A2990 1100 33 2800 110/08 RMK AO2 SLP119 T02720100 56017
94908KDBQ DBQ20050602213010506/02/05 21:30:31  5-MIN KDBQ 030330Z AUTO 15006KT 10SM CLR 18/13 A2992  1080 72 1800 150/06 RMK AO2 TSNO
94908KDBQ DBQ20050602213510506/02/05 21:35:31  5-MIN KDBQ 030335Z AUTO 15007KT 10SM CLR 18/13 A2991  1080 72 1800 150/07 RMK AO2 TSNO
94908KDBQ DBQ20050602214010506/02/05 21:40:31  5-MIN KDBQ 030340Z AUTO 15007KT 10SM CLR 18/13 A2992  1080 72 1800 150/07 RMK AO2 TSNO
94908KDBQ DBQ20050602214510506/02/05 21:45:31  5-MIN KDBQ 030345Z AUTO 15007KT 10SM CLR 18/13 A2992  1080 72 1800 150/07 RMK AO2 TSNO
94908KDBQ DBQ20050602215012206/02/05 21:50:31  5-MIN KDBQ 030350Z AUTO 14008KT 10SM CLR 18/13 A2992  1080 72 1800 140/08 RMK AO2 SLP126 T01830133 TSNO
94908KDBQ DBQ20050602215512206/02/05 21:55:31  5-MIN KDBQ 030355Z AUTO 15009KT 10SM CLR 18/13 A2993  1070 72 1700 150/09 RMK AO2 SLP129 T01830133 TSNO
94908KDBQ DBQ20050602220010506/02/05 22:00:31  5-MIN KDBQ 030400Z AUTO 15008KT 10SM CLR 18/13 A2992  1080 72 1800 150/08 RMK AO2 TSNO
94908KDBQ DBQ20050602220510506/02/05 22:05:31  5-MIN KDBQ 030405Z AUTO 15008KT 10SM CLR 18/13 A2992  1080 75 1700 150/08 RMK AO2 TSNO
94908KDBQ DBQ20050602221010506/02/05 22:10:31  5-MIN KDBQ 030410Z AUTO 15008KT 10SM CLR 18/13 A2993  1070 75 1700 150/08 RMK AO2 TSNO
94908KDBQ DBQ20050602221510506/02/05 22:15:31  5-MIN KDBQ 030415Z AUTO 15007KT 10SM CLR 18/13 A2993  1070 75 1700 150/07 RMK AO2 TSNO
94908KDBQ DBQ20050602222010506/02/05 22:20:31  5-MIN KDBQ 030420Z AUTO 15007KT 10SM CLR 18/13 A2993  1070 75 1700 150/07 RMK AO2 TSNO
94908KDBQ DBQ20050602222510506/02/05 22:25:31  5-MIN KDBQ 030425Z AUTO 15007KT 10SM CLR 18/13 A2993  1070 75 1700 150/07 RMK AO2 TSNO
94908KDBQ DBQ20050602223010506/02/05 22:30:31  5-MIN KDBQ 030430Z AUTO 16005KT 10SM CLR 17/13 A2993  1070 78 1600 160/05 RMK AO2 TSNO
94908KDBQ DBQ20050602223510506/02/05 22:35:31  5-MIN KDBQ 030435Z AUTO 15005KT 10SM CLR 17/13 A2993  1070 78 1600 150/05 RMK AO2 TSNO
94908KDBQ DBQ20050602224010506/02/05 22:40:31  5-MIN KDBQ 030440Z AUTO 15006KT 10SM CLR 17/13 A2993  1070 78 1600 150/06 RMK AO2 TSNO
94908KDBQ DBQ20050602224510506/02/05 22:45:31  5-MIN KDBQ 030445Z AUTO 15007KT 10SM CLR 17/13 A2994  1060 78 1600 150/07 RMK AO2 TSNO
94908KDBQ DBQ20050602225012206/02/05 22:50:31  5-MIN KDBQ 030450Z AUTO 15007KT 10SM CLR 17/13 A2993  1070 78 1600 150/07 RMK AO2 SLP131 T01720133 TSNO
94908KDBQ DBQ20050602225512206/02/05 22:55:31  5-MIN KDBQ 030455Z AUTO 15008KT 10SM CLR 17/13 A2994  1060 78 1600 150/08 RMK AO2 SLP135 T01720133 TSNO
94908KDBQ DBQ20050602230010306/02/05 23:00:31  5-MIN KDBQ 030500Z AUTO 14006KT 9SM CLR 17/13 A2994 1060 78 1600 140/06 RMK AO2 TSNO
94908KDBQ DBQ20050602230510306/02/05 23:05:31  5-MIN KDBQ 030505Z AUTO 14006KT 9SM CLR 17/13 A2994 1060 80 1500 140/06 RMK AO2 TSNO
94908KDBQ DBQ20050602231010306/02/05 23:10:31  5-MIN KDBQ 030510Z AUTO 14005KT 9SM CLR 17/13 A2994 1060 80 1500 140/05 RMK AO2 TSNO
94908KDBQ DBQ20050602231510706/02/05 23:15:31  5-MIN KDBQ 030515Z AUTO 14005KT 9SM FEW080 17/13 A2994  1060 80 1500 140/05 RMK AO2 TSNO
94908KDBQ DBQ20050602232010706/02/05 23:20:31  5-MIN KDBQ 030520Z AUTO 14005KT 9SM SCT080 17/13 A2994  1060 80 1500 140/05 RMK AO2 TSNO
94908KDBQ DBQ20050602232510706/02/05 23:25:31  5-MIN KDBQ 030525Z AUTO 13004KT 8SM BKN080 17/13 A2994  1060 80 1500 130/04 RMK AO2 TSNO
94908KDBQ DBQ20050602233010706/02/05 23:30:31  5-MIN KDBQ 030530Z AUTO 13004KT 8SM BKN080 17/13 A2994  1060 80 1500 130/04 RMK AO2 TSNO
94908KDBQ DBQ20050602233510706/02/05 23:35:31  5-MIN KDBQ 030535Z AUTO 13004KT 8SM BKN080 17/13 A2994  1060 80 1500 130/04 RMK AO2 TSNO
94908KDBQ DBQ20050602234010706/02/05 23:40:31  5-MIN KDBQ 030540Z AUTO 13004KT 8SM OVC080 17/13 A2993  1070 80 1600 130/04 RMK AO2 TSNO
94908KDBQ DBQ20050602234510706/02/05 23:45:31  5-MIN KDBQ 030545Z AUTO 13004KT 8SM OVC080 17/13 A2993  1070 80 1600 130/04 RMK AO2 TSNO
94908KDBQ DBQ20050602235015306/02/05 23:50:31  5-MIN KDBQ 030550Z AUTO 12005KT 8SM OVC080 17/13 A2992  1080 80 1600 120/05 RMK AO2 SLP128 T01670133 10261 20167 402780161 53013  TSNO
94908KDBQ DBQ20050602235515306/02/05 23:55:31  5-MIN KDBQ 030555Z AUTO 12004KT 8SM BKN080 17/13 A2993  1070 80 1600 120/04 RMK AO2 SLP130 T01670133 10261 20167 402780161 50012  TSNO
94908KDBQ DBQ20050603000010706/03/05 00:00:38  5-MIN KDBQ 030600Z AUTO 11005KT 8SM BKN080 16/13 A2992  1080 83 1500 110/05 RMK AO2 TSNO
94908KDBQ DBQ20050603000510706/03/05 00:05:31  5-MIN KDBQ 030605Z AUTO 11006KT 7SM SCT080 16/13 A2992  1080 83 1500 110/06 RMK AO2 TSNO
94908KDBQ DBQ20050603001010706/03/05 00:10:31  5-MIN KDBQ 030610Z AUTO 11006KT 7SM SCT080 16/13 A2991  1090 83 1400 100/06 RMK AO2 TSNO
94908KDBQ DBQ20050603001510706/03/05 00:15:31  5-MIN KDBQ 030615Z AUTO 10007KT 7SM FEW075 16/13 A2992  1080 86 1400 100/07 RMK AO2 TSNO
94908KDBQ DBQ20050603002010306/03/05 00:20:31  5-MIN KDBQ 030620Z AUTO 10006KT 7SM CLR 16/13 A2991 1090 83 1500 100/06 RMK AO2 TSNO
94908KDBQ DBQ20050603002510306/03/05 00:25:31  5-MIN KDBQ 030625Z AUTO 11005KT 7SM CLR 16/13 A2990 1090 86 1500 110/05 RMK AO2 TSNO
94908KDBQ DBQ20050603003010306/03/05 00:30:31  5-MIN KDBQ 030630Z AUTO 12004KT 7SM CLR 16/13 A2990 1100 86 1500 120/04 RMK AO2 TSNO
94908KDBQ DBQ20050603003510306/03/05 00:35:31  5-MIN KDBQ 030635Z AUTO 13003KT 7SM CLR 16/13 A2990 1100 86 1500 130/03 RMK AO2 TSNO
94908KDBQ DBQ20050603004010306/03/05 00:40:31  5-MIN KDBQ 030640Z AUTO 00000KT 7SM CLR 16/13 A2990 1100 86 1500 000/00 RMK AO2 TSNO
94908KDBQ DBQ20050603004510306/03/05 00:45:31  5-MIN KDBQ 030645Z AUTO 00000KT 7SM CLR 16/13 A2990 1100 83 1500 000/00 RMK AO2 TSNO
94908KDBQ DBQ20050603005012006/03/05 00:50:31  5-MIN KDBQ 030650Z AUTO 00000KT 7SM CLR 16/13 A2990 1100 83 1500 000/00 RMK AO2 SLP120 T01560128 TSNO
94908KDBQ DBQ20050603005512006/03/05 00:55:31  5-MIN KDBQ 030655Z AUTO 15003KT 7SM CLR 16/13 A2990 1100 83 1500 150/03 RMK AO2 SLP119 T01560128 TSNO
94908KDBQ DBQ20050603010010706/03/05 01:00:31  5-MIN KDBQ 030700Z AUTO 14004KT 6SM BR CLR 15/13 A2990  1100 86 1400 140/04 RMK AO2 TSNO
94908KDBQ DBQ20050603010510706/03/05 01:05:31  5-MIN KDBQ 030705Z AUTO 13004KT 6SM BR CLR 15/13 A2990  1100 86 1400 130/04 RMK AO2 TSNO
94908KDBQ DBQ20050603011010706/03/05 01:10:31  5-MIN KDBQ 030710Z AUTO 14005KT 6SM BR CLR 15/13 A2989  1110 86 1400 140/05 RMK AO2 TSNO
94908KDBQ DBQ20050603011510706/03/05 01:15:31  5-MIN KDBQ 030715Z AUTO 14005KT 6SM BR CLR 15/13 A2989  1110 86 1400 140/05 RMK AO2 TSNO
94908KDBQ DBQ20050603012010706/03/05 01:20:31  5-MIN KDBQ 030720Z AUTO 14005KT 6SM BR CLR 15/13 A2989  1110 86 1400 140/05 RMK AO2 TSNO
94908KDBQ DBQ20050603012510706/03/05 01:25:31  5-MIN KDBQ 030725Z AUTO 14005KT 6SM BR CLR 15/13 A2989  1110 86 1400 140/05 RMK AO2 TSNO
94908KDBQ DBQ20050603013010706/03/05 01:30:31  5-MIN KDBQ 030730Z AUTO 13005KT 6SM BR CLR 15/13 A2989  1110 86 1400 130/05 RMK AO2 TSNO
94908KDBQ DBQ20050603013510706/03/05 01:35:31  5-MIN KDBQ 030735Z AUTO 12006KT 6SM BR CLR 16/13 A2989  1110 86 1500 120/06 RMK AO2 TSNO
94908KDBQ DBQ20050603014010706/03/05 01:40:31  5-MIN KDBQ 030740Z AUTO 11006KT 5SM BR CLR 16/13 A2988  1110 86 1500 110/06 RMK AO2 TSNO
94908KDBQ DBQ20050603014510706/03/05 01:45:31  5-MIN KDBQ 030745Z AUTO 11006KT 5SM BR CLR 15/13 A2988  1110 90 1400 110/06 RMK AO2 TSNO
94908KDBQ DBQ20050603015012406/03/05 01:50:31  5-MIN KDBQ 030750Z AUTO 11005KT 5SM BR CLR 15/13 A2988  1110 90 1400 110/05 RMK AO2 SLP115 T01500133 TSNO
94908KDBQ DBQ20050603015512406/03/05 01:55:31  5-MIN KDBQ 030755Z AUTO 13004KT 5SM BR CLR 15/13 A2989  1110 86 1400 130/04 RMK AO2 SLP115 T01500128 TSNO
94908KDBQ DBQ20050603020010706/03/05 02:00:31  5-MIN KDBQ 030800Z AUTO VRB04KT 5SM BR CLR 15/13 A2989  1110 90 1400 VRB/04 RMK AO2 TSNO
94908KDBQ DBQ20050603020510706/03/05 02:05:31  5-MIN KDBQ 030805Z AUTO 00000KT 5SM BR CLR 15/13 A2989  1110 90 1400 000/00 RMK AO2 TSNO
94908KDBQ DBQ20050603021010706/03/05 02:10:31  5-MIN KDBQ 030810Z AUTO 13003KT 5SM BR CLR 15/13 A2990  1100 90 1400 130/03 RMK AO2 TSNO
94908KDBQ DBQ20050603021510706/03/05 02:15:31  5-MIN KDBQ 030815Z AUTO 00000KT 5SM BR CLR 15/13 A2989  1100 86 1400 000/00 RMK AO2 TSNO
94908KDBQ DBQ20050603022010706/03/05 02:20:31  5-MIN KDBQ 030820Z AUTO 00000KT 5SM BR CLR 15/13 A2990  1100 90 1400 000/00 RMK AO2 TSNO
94908KDBQ DBQ20050603022510706/03/05 02:25:31  5-MIN KDBQ 030825Z AUTO 24004KT 4SM BR CLR 14/13 A2990  1090 93 1300 230/04 RMK AO2 TSNO
94908KDBQ DBQ20050603023010706/03/05 02:30:31  5-MIN KDBQ 030830Z AUTO 22004KT 4SM BR CLR 13/12 A2990  1090 93 1200 220/04 RMK AO2 TSNO
94908KDBQ DBQ20050603023511006/03/05 02:35:31  5-MIN KDBQ 030835Z AUTO 00000KT 4SM BR FEW014 14/12  A2990 1100 90 1300 000/00 RMK AO2 TSNO
94908KDBQ DBQ20050603024011006/03/05 02:40:31  5-MIN KDBQ 030840Z AUTO 15003KT 4SM BR FEW014 14/13  A2990 1100 90 1300 150/03 RMK AO2 TSNO
94908KDBQ DBQ20050603024511006/03/05 02:45:31  5-MIN KDBQ 030845Z AUTO 13003KT 4SM BR FEW014 14/13  A2989 1110 90 1300 130/03 RMK AO2 TSNO
94908KDBQ DBQ20050603025013006/03/05 02:50:31  5-MIN KDBQ 030850Z AUTO 12005KT 4SM BR CLR 14/13 A2989  1110 90 1300 120/05 RMK AO2 SLP115 T01440128 50012 TSNO
94908KDBQ DBQ20050603025513006/03/05 02:55:31  5-MIN KDBQ 030855Z AUTO 12004KT 4SM BR CLR 14/13 A2990  1100 90 1300 120/04 RMK AO2 SLP120 T01440128 55011 TSNO
94908KDBQ DBQ20050603030010706/03/05 03:00:31  5-MIN KDBQ 030900Z AUTO 12004KT 4SM BR CLR 14/12 A2989  1110 90 1300 120/04 RMK AO2 TSNO
94908KDBQ DBQ20050603030510706/03/05 03:05:31  5-MIN KDBQ 030905Z AUTO 12005KT 4SM BR CLR 14/12 A2988  1110 90 1300 120/05 RMK AO2 TSNO
94908KDBQ DBQ20050603031010706/03/05 03:10:31  5-MIN KDBQ 030910Z AUTO 12004KT 4SM BR CLR 14/13 A2988  1110 90 1300 120/04 RMK AO2 TSNO
94908KDBQ DBQ20050603031510706/03/05 03:15:31  5-MIN KDBQ 030915Z AUTO 11003KT 4SM BR CLR 14/13 A2988  1110 93 1300 110/03 RMK AO2 TSNO
94908KDBQ DBQ20050603032010706/03/05 03:20:31  5-MIN KDBQ 030920Z AUTO 10004KT 4SM BR CLR 13/12 A2988  1120 93 1200 100/04 RMK AO2 TSNO
94908KDBQ DBQ20050603032510706/03/05 03:25:31  5-MIN KDBQ 030925Z AUTO 00000KT 3SM BR CLR 13/12 A2988  1110 93 1200 000/00 RMK AO2 TSNO
94908KDBQ DBQ20050603033010706/03/05 03:30:31  5-MIN KDBQ 030930Z AUTO 00000KT 3SM BR CLR 13/13 A2988  1120 96 1200 000/00 RMK AO2 TSNO
94908KDBQ DBQ20050603033510706/03/05 03:35:31  5-MIN KDBQ 030935Z AUTO 00000KT 3SM BR CLR 14/13 A2988  1120 93 1300 000/00 RMK AO2 TSNO
94908KDBQ DBQ20050603034010706/03/05 03:40:31  5-MIN KDBQ 030940Z AUTO 00000KT 3SM BR CLR 14/13 A2989  1110 93 1300 000/00 RMK AO2 TSNO
94908KDBQ DBQ20050603034510706/03/05 03:45:31  5-MIN KDBQ 030945Z AUTO 10003KT 3SM BR CLR 14/13 A2987  1120 93 1300 100/03 RMK AO2 TSNO
94908KDBQ DBQ20050603035012406/03/05 03:50:31  5-MIN KDBQ 030950Z AUTO 10006KT 3SM BR CLR 14/13 A2987  1120 93 1300 100/06 RMK AO2 SLP110 T01390128 TSNO
94908KDBQ DBQ20050603035512406/03/05 03:55:31  5-MIN KDBQ 030955Z AUTO 10007KT 3SM BR CLR 14/12 A2987  1130 90 1300 100/07 RMK AO2 SLP109 T01390122 TSNO
94908KDBQ DBQ20050603040010706/03/05 04:00:31  5-MIN KDBQ 031000Z AUTO 11007KT 4SM BR CLR 14/13 A2987  1130 93 1300 110/07 RMK AO2 TSNO
94908KDBQ DBQ20050603040511006/03/05 04:05:31  5-MIN KDBQ 031005Z AUTO 11006KT 4SM BR FEW013 14/13  A2988 1120 93 1400 110/06 RMK AO2 TSNO
94908KDBQ DBQ20050603041011006/03/05 04:10:31  5-MIN KDBQ 031010Z AUTO 11008KT 4SM BR SCT013 14/13  A2987 1120 93 1400 110/08 RMK AO2 TSNO
94908KDBQ DBQ20050603041511006/03/05 04:15:31  5-MIN KDBQ 031015Z AUTO 11007KT 4SM BR BKN013 15/14  A2987 1120 93 1400 110/07 RMK AO2 TSNO
94908KDBQ DBQ20050603042011006/03/05 04:20:31  5-MIN KDBQ 031020Z AUTO 11006KT 4SM BR BKN013 16/14  A2988 1120 90 1500 100/06 RMK AO2 TSNO
94908KDBQ DBQ20050603042511006/03/05 04:25:31  5-MIN KDBQ 031025Z AUTO 11006KT 4SM BR BKN013 16/14  A2988 1120 90 1500 110/06 RMK AO2 TSNO
94908KDBQ DBQ20050603043011006/03/05 04:30:31  5-MIN KDBQ 031030Z AUTO 11005KT 4SM BR OVC013 16/14  A2988 1120 90 1500 110/05 RMK AO2 TSNO
94908KDBQ DBQ20050603043511006/03/05 04:35:31  5-MIN KDBQ 031035Z AUTO 11007KT 4SM BR OVC013 16/14  A2988 1120 90 1500 100/07 RMK AO2 TSNO
94908KDBQ DBQ20050603044011006/03/05 04:40:31  5-MIN KDBQ 031040Z AUTO 10006KT 4SM BR OVC013 16/14  A2988 1120 90 1500 100/06 RMK AO2 TSNO
94908KDBQ DBQ20050603044510006/03/05 04:45:31  5-MIN KDBQ 031045Z 10007KT 3SM BR OVC013 16/14 A2988  1110 90 1500 100/07 RMK AO2
94908KDBQ DBQ20050603045011706/03/05 04:50:31  5-MIN KDBQ 031050Z 10007KT 3SM BR OVC013 16/14 A2988  1120 90 1500 100/07 RMK AO2 SLP112 T01560139
94908KDBQ DBQ20050603045511706/03/05 04:55:31  5-MIN KDBQ 031055Z 10007KT 3SM BR OVC013 16/14 A2988  1110 86 1500 100/07 RMK AO2 SLP114 T01610139
94908KDBQ DBQ20050603050010006/03/05 05:00:31  5-MIN KDBQ 031100Z 11006KT 3SM BR OVC013 16/14 A2988  1110 86 1500 110/06 RMK AO2
94908KDBQ DBQ20050603050510006/03/05 05:05:31  5-MIN KDBQ 031105Z 12006KT 3SM BR OVC013 16/14 A2988  1120 86 1500 120/06 RMK AO2
94908KDBQ DBQ20050603051010006/03/05 05:10:31  5-MIN KDBQ 031110Z 11006KT 3SM BR OVC013 16/14 A2988  1110 90 1500 110/06 RMK AO2
94908KDBQ DBQ20050603051510006/03/05 05:15:31  5-MIN KDBQ 031115Z 11005KT 3SM BR OVC013 16/14 A2988  1110 90 1500 110/05 RMK AO2
94908KDBQ DBQ20050603052010006/03/05 05:20:31  5-MIN KDBQ 031120Z 11004KT 3SM BR OVC013 16/14 A2989  1110 90 1500 110/04 RMK AO2
94908KDBQ DBQ20050603052510006/03/05 05:25:31  5-MIN KDBQ 031125Z 10003KT 3SM BR OVC013 16/14 A2990  1100 90 1500 100/03 RMK AO2
94908KDBQ DBQ20050603053010006/03/05 05:30:31  5-MIN KDBQ 031130Z 09003KT 3SM BR OVC013 16/14 A2990  1100 90 1500 090/03 RMK AO2
94908KDBQ DBQ20050603053510706/03/05 05:35:31  5-MIN KDBQ 031135Z 00000KT 3SM BR OVC013 16/14 A2991  1090 90 1500 000/00 RMK AO2 PRESRR
94908KDBQ DBQ20050603054010706/03/05 05:40:31  5-MIN KDBQ 031140Z 11003KT 3SM BR OVC013 17/14 A2991  1090 86 1600 110/03 RMK AO2 PRESRR
94908KDBQ DBQ20050603054510006/03/05 05:45:31  5-MIN KDBQ 031145Z 00000KT 3SM BR OVC013 17/14 A2991  1090 86 1600 000/00 RMK AO2
94908KDBQ DBQ20050603055013506/03/05 05:50:31  5-MIN KDBQ 031150Z 00000KT 3SM BR OVC013 17/14 A2991  1090 86 1600 000/00 RMK AO2 SLP122 T01670144 10167 20133 55011
94908KDBQ DBQ20050603055513506/03/05 05:55:31  5-MIN KDBQ 031155Z 11005KT 4SM BR OVC013 17/14 A2991  1090 86 1600 110/05 RMK AO2 SLP121 T01670144 10167 20133 53002
94908KDBQ DBQ20050603060010006/03/05 06:00:31  5-MIN KDBQ 031200Z 10005KT 4SM BR OVC013 17/14 A2990  1090 86 1600 100/05 RMK AO2
94908KDBQ DBQ20050603060510006/03/05 06:05:31  5-MIN KDBQ 031205Z 11007KT 4SM BR OVC013 17/14 A2990  1100 86 1600 110/07 RMK AO2
94908KDBQ DBQ20050603061010006/03/05 06:10:31  5-MIN KDBQ 031210Z 11006KT 4SM BR OVC013 17/14 A2990  1100 86 1600 110/06 RMK AO2
94908KDBQ DBQ20050603061510006/03/05 06:15:31  5-MIN KDBQ 031215Z 12005KT 4SM BR OVC013 17/14 A2990  1100 86 1600 120/05 RMK AO2
94908KDBQ DBQ20050603062010006/03/05 06:20:31  5-MIN KDBQ 031220Z 13006KT 4SM HZ OVC013 17/14 A2990  1100 83 1700 130/06 RMK AO2
94908KDBQ DBQ20050603062510006/03/05 06:25:31  5-MIN KDBQ 031225Z 12006KT 4SM HZ OVC013 17/14 A2990  1100 83 1600 120/06 RMK AO2
94908KDBQ DBQ20050603063010006/03/05 06:30:31  5-MIN KDBQ 031230Z 12008KT 4SM HZ OVC013 17/14 A2990  1100 83 1600 120/08 RMK AO2
94908KDBQ DBQ20050603063510006/03/05 06:35:31  5-MIN KDBQ 031235Z 12008KT 4SM HZ OVC013 17/14 A2990  1100 83 1700 120/08 RMK AO2
94908KDBQ DBQ20050603064010006/03/05 06:40:31  5-MIN KDBQ 031240Z 12007KT 4SM HZ OVC013 17/14 A2990  1100 83 1700 120/07 RMK AO2
94908KDBQ DBQ20050603064510006/03/05 06:45:31  5-MIN KDBQ 031245Z 12005KT 4SM HZ OVC013 17/14 A2990  1090 83 1600 120/05 RMK AO2
94908KDBQ DBQ20050603065011706/03/05 06:50:31  5-MIN KDBQ 031250Z 14006KT 4SM HZ OVC013 17/14 A2990  1090 83 1600 140/06 RMK AO2 SLP121 T01720144
94908KDBQ DBQ20050603065511706/03/05 06:55:31  5-MIN KDBQ 031255Z 14007KT 4SM HZ OVC013 17/14 A2991  1090 83 1600 140/07 RMK AO2 SLP122 T01720144
94908KDBQ DBQ20050603070010006/03/05 07:00:31  5-MIN KDBQ 031300Z 15007KT 4SM HZ OVC013 17/14 A2991  1090 83 1600 140/07 RMK AO2
94908KDBQ DBQ20050603070510006/03/05 07:05:31  5-MIN KDBQ 031305Z 13007KT 4SM HZ OVC013 17/14 A2991  1090 83 1600 130/07 RMK AO2
94908KDBQ DBQ20050603071010006/03/05 07:10:31  5-MIN KDBQ 031310Z 14006KT 4SM HZ OVC013 17/14 A2991  1090 83 1600 140/06 RMK AO2
94908KDBQ DBQ20050603071510006/03/05 07:15:31  5-MIN KDBQ 031315Z 15006KT 4SM HZ OVC013 18/14 A2991  1080 81 1700 150/06 RMK AO2
94908KDBQ DBQ20050603072010006/03/05 07:20:31  5-MIN KDBQ 031320Z 12005KT 4SM HZ OVC013 17/14 A2991  1080 83 1600 120/05 RMK AO2
94908KDBQ DBQ20050603072510006/03/05 07:25:31  5-MIN KDBQ 031325Z 12006KT 4SM HZ OVC013 18/14 A2991  1090 81 1700 120/06 RMK AO2
94908KDBQ DBQ20050603073010006/03/05 07:30:31  5-MIN KDBQ 031330Z 14006KT 4SM HZ OVC015 18/14 A2991  1080 81 1700 140/06 RMK AO2
94908KDBQ DBQ20050603073510006/03/05 07:35:31  5-MIN KDBQ 031335Z 14004KT 4SM HZ OVC015 18/14 A2991  1090 81 1700 140/04 RMK AO2
94908KDBQ DBQ20050603074011406/03/05 07:40:31  5-MIN KDBQ 031340Z 13007KT 5SM HZ SCT013 BKN018 OVC041  18/15 A2990 1090 81 1800 130/07 RMK AO2
94908KDBQ DBQ20050603074510706/03/05 07:45:31  5-MIN KDBQ 031345Z 13007KT 5SM HZ BKN016 OVC041 18/15  A2990 1100 81 1800 130/07 RMK AO2
94908KDBQ DBQ20050603075013106/03/05 07:50:31  5-MIN KDBQ 031350Z 11007KT 5SM HZ FEW013 BKN018 OVC041  18/15 A2989 1100 81 1800 110/07 RMK AO2 SLP119 T01830150
94908KDBQ DBQ20050603075513106/03/05 07:55:31  5-MIN KDBQ 031355Z 14007KT 4SM HZ FEW013 BKN023 OVC039  18/15 A2989 1100 81 1800 140/07 RMK AO2 SLP118 T01830150
94908KDBQ DBQ20050603080011406/03/05 08:00:31  5-MIN KDBQ 031400Z 12008KT 4SM HZ FEW013 BKN023 OVC039  18/15 A2989 1110 81 1800 110/08 RMK AO2
94908KDBQ DBQ20050603080511406/03/05 08:05:31  5-MIN KDBQ 031405Z 13005KT 5SM HZ SCT013 BKN023 OVC039  18/15 A2989 1110 81 1800 130/05 RMK AO2
94908KDBQ DBQ20050603081011406/03/05 08:10:31  5-MIN KDBQ 031410Z 13007KT 5SM HZ SCT013 BKN023 OVC039  18/15 A2989 1110 81 1800 120/07 RMK AO2
94908KDBQ DBQ20050603081510706/03/05 08:15:31  5-MIN KDBQ 031415Z 14007KT 5SM HZ SCT013 OVC023 18/15  A2989 1110 81 1800 140/07 RMK AO2
94908KDBQ DBQ20050603082010706/03/05 08:20:31  5-MIN KDBQ 031420Z 17006KT 5SM HZ SCT013 OVC023 18/15  A2989 1110 81 1800 160/06 RMK AO2
94908KDBQ DBQ20050603082510706/03/05 08:25:31  5-MIN KDBQ 031425Z 16006KT 5SM HZ BKN015 OVC023 19/15  A2989 1100 78 1900 160/06 RMK AO2
94908KDBQ DBQ20050603083010706/03/05 08:30:31  5-MIN KDBQ 031430Z 14006KT 6SM HZ BKN015 OVC023 18/15  A2989 1110 81 1800 140/06 RMK AO2
94908KDBQ DBQ20050603083510706/03/05 08:35:31  5-MIN KDBQ 031435Z 16007KT 6SM HZ BKN015 OVC023 19/15  A2989 1110 78 1900 160/07 RMK AO2
94908KDBQ DBQ20050603084010706/03/05 08:40:31  5-MIN KDBQ 031440Z 14007KT 6SM HZ BKN017 OVC023 18/15  A2989 1110 81 1800 140/07 RMK AO2
94908KDBQ DBQ20050603084510306/03/05 08:45:31  5-MIN KDBQ 031445Z 15005KT 7SM BKN017 OVC023 18/14 A2989 1110 78 1800 150/05 RMK AO2
94908KDBQ DBQ20050603085012606/03/05 08:50:31  5-MIN KDBQ 031450Z 18007KT 7SM BKN017 OVC023 19/15 A2989 1100 78 1900 180/07 RMK AO2 SLP118 T01890150 53002
94908KDBQ DBQ20050603085512606/03/05 08:55:31  5-MIN KDBQ 031455Z 15007KT 7SM BKN018 OVC023 19/15 A2989 1100 78 1900 150/07 RMK AO2 SLP119 T01890150 57004
94908KDBQ DBQ20050603090010306/03/05 09:00:31  5-MIN KDBQ 031500Z 16007KT 7SM BKN016 OVC023 18/15 A2989 1110 81 1800 160/07 RMK AO2
94908KDBQ DBQ20050603090510306/03/05 09:05:31  5-MIN KDBQ 031505Z 17006KT 7SM BKN016 OVC023 18/15 A2989 1110 81 1800 170/06 RMK AO2
94908KDBQ DBQ20050603091010706/03/05 09:10:31  5-MIN KDBQ 031510Z 17007KT 4SM HZ BKN016 OVC023 18/15  A2989 1110 81 1800 170/07 RMK AO2
94908KDBQ DBQ20050603091510706/03/05 09:15:31  5-MIN KDBQ 031515Z 18006KT 4SM HZ BKN016 OVC023 19/15  A2989 1110 78 1900 170/06 RMK AO2
94908KDBQ DBQ20050603092010706/03/05 09:20:31  5-MIN KDBQ 031520Z 16007KT 4SM HZ BKN016 OVC023 18/15  A2988 1110 81 1800 160/07 RMK AO2
94908KDBQ DBQ20050603092510706/03/05 09:25:31  5-MIN KDBQ 031525Z 15005KT 4SM HZ BKN016 OVC023 19/15  A2988 1120 78 1900 150/05 RMK AO2
94908KDBQ DBQ20050603093010706/03/05 09:30:31  5-MIN KDBQ 031530Z 14006KT 4SM HZ BKN016 OVC023 19/15  A2987 1120 78 1900 140/06 RMK AO2
94908KDBQ DBQ20050603093510706/03/05 09:35:31  5-MIN KDBQ 031535Z 14007KT 4SM HZ BKN019 OVC025 19/15  A2987 1130 78 1900 140/07 RMK AO2
94908KDBQ DBQ20050603094010706/03/05 09:40:31  5-MIN KDBQ 031540Z 13007KT 4SM HZ BKN019 OVC025 19/15  A2987 1130 78 1900 130/07 RMK AO2
94908KDBQ DBQ20050603094510706/03/05 09:45:31  5-MIN KDBQ 031545Z 13007KT 4SM HZ BKN019 OVC025 19/15  A2987 1130 75 1900 130/07 RMK AO2
94908KDBQ DBQ20050603095011706/03/05 09:50:31  5-MIN KDBQ 031550Z 15008KT 4SM HZ OVC022 19/15 A2987  1130 75 1900 150/08 RMK AO2 SLP110 T01940150
94908KDBQ DBQ20050603095512406/03/05 09:55:31  5-MIN KDBQ 031555Z 15007KT 4SM HZ BKN017 OVC024 19/15  A2987 1130 75 1900 150/07 RMK AO2 SLP111 T01940150
94908KDBQ DBQ20050603100012006/03/05 10:00:31  5-MIN KDBQ 031600Z 16007KT 110V190 7SM BKN017 OVC024  19/16 A2987 1130 78 1900 150/07 110V190 RMK AO2
94908KDBQ DBQ20050603100510306/03/05 10:05:31  5-MIN KDBQ 031605Z 17006KT 8SM BKN017 OVC024 19/16 A2987 1120 78 1900 160/06 RMK AO2
94908KDBQ DBQ20050603101010306/03/05 10:10:31  5-MIN KDBQ 031610Z 14006KT 8SM SCT017 OVC024 19/15 A2988 1120 75 1900 140/06 RMK AO2
94908KDBQ DBQ20050603101510306/03/05 10:15:31  5-MIN KDBQ 031615Z 14005KT 8SM SCT017 OVC024 19/15 A2987 1120 75 1900 140/05 RMK AO2
94908KDBQ DBQ20050603102010306/03/05 10:20:31  5-MIN KDBQ 031620Z 17006KT 8SM BKN017 OVC024 19/15 A2987 1130 75 1900 170/06 RMK AO2
94908KDBQ DBQ20050603102510306/03/05 10:25:31  5-MIN KDBQ 031625Z 17006KT 8SM BKN019 OVC027 19/15 A2987 1130 75 1900 170/06 RMK AO2
94908KDBQ DBQ20050603103010306/03/05 10:30:31  5-MIN KDBQ 031630Z 14007KT 7SM BKN019 OVC027 19/15 A2987 1130 75 1900 140/07 RMK AO2
94908KDBQ DBQ20050603103510306/03/05 10:35:31  5-MIN KDBQ 031635Z 16007KT 8SM BKN019 OVC025 19/15 A2986 1130 75 2000 160/07 RMK AO2
94908KDBQ DBQ20050603104010306/03/05 10:40:31  5-MIN KDBQ 031640Z 15009KT 8SM BKN021 OVC026 19/15 A2986 1140 75 2000 150/09 RMK AO2
94908KDBQ DBQ20050603104509706/03/05 10:45:31  5-MIN KDBQ 031645Z 14008KT 8SM OVC021 19/15 A2986 1130  75 2000 140/08 RMK AO2
94908KDBQ DBQ20050603105011406/03/05 10:50:31  5-MIN KDBQ 031650Z 16007KT 8SM OVC021 20/15 A2986 1130  72 2000 150/07 RMK AO2 SLP109 T02000150
94908KDBQ DBQ20050603105512006/03/05 10:55:31  5-MIN KDBQ 031655Z 15008KT 7SM BKN021 OVC025 19/15 A2986 1140 75 2000 150/08 RMK AO2 SLP108 T01940150
94908KDBQ DBQ20050603110010306/03/05 11:00:31  5-MIN KDBQ 031700Z 16010KT 7SM BKN021 OVC025 19/16 A2986 1140 78 2000 160/10 RMK AO2
94908KDBQ DBQ20050603110509706/03/05 11:05:31  5-MIN KDBQ 031705Z 17008KT 7SM OVC021 20/16 A2986 1140  75 2000 170/08 RMK AO2
94908KDBQ DBQ20050603111010306/03/05 11:10:31  5-MIN KDBQ 031710Z 14008KT 7SM BKN021 OVC029 20/16 A2986 1140 75 2000 140/08 RMK AO2
94908KDBQ DBQ20050603111509706/03/05 11:15:31  5-MIN KDBQ 031715Z 13008KT 7SM OVC021 19/15 A2986 1140  75 2000 130/08 RMK AO2
94908KDBQ DBQ20050603112009706/03/05 11:20:31  5-MIN KDBQ 031720Z 13010KT 7SM OVC019 20/16 A2985 1140  75 2000 130/10 RMK AO2
94908KDBQ DBQ20050603112509706/03/05 11:25:31  5-MIN KDBQ 031725Z 15008KT 7SM OVC019 21/16 A2986 1140  73 2100 150/08 RMK AO2
94908KDBQ DBQ20050603113010306/03/05 11:30:31  5-MIN KDBQ 031730Z 15008KT 8SM BKN019 OVC025 20/16 A2985 1140 75 2000 150/08 RMK AO2
94908KDBQ DBQ20050603113509706/03/05 11:35:31  5-MIN KDBQ 031735Z 16011KT 8SM OVC019 20/15 A2985 1140  72 2000 160/11 RMK AO2
94908KDBQ DBQ20050603114010306/03/05 11:40:31  5-MIN KDBQ 031740Z 16010KT 8SM BKN019 OVC025 19/15 A2985 1140 75 2000 160/10 RMK AO2
94908KDBQ DBQ20050603114510306/03/05 11:45:31  5-MIN KDBQ 031745Z 17009KT 8SM BKN019 OVC025 20/15 A2985 1140 72 2000 170/09 RMK AO2
94908KDBQ DBQ20050603115014606/03/05 11:50:31  5-MIN KDBQ 031750Z 14009KT 8SM BKN019 BKN025 OVC032  20/15 A2985 1150 72 2000 140/09 RMK AO2 SLP104 T02000150 10206 20167 57004
94908KDBQ DBQ20050603115513806/03/05 11:55:31  5-MIN KDBQ 031755Z 15009KT 8SM BKN019 OVC025 21/15 A2984 1150 70 2100 150/09 RMK AO2 SLP102 T02060150 10206 20167 56017
94908KDBQ DBQ20050603120010306/03/05 12:00:31  5-MIN KDBQ 031800Z 14010KT 9SM BKN019 OVC028 21/16 A2984 1150 73 2100 140/10 RMK AO2
94908KDBQ DBQ20050603120511106/03/05 12:05:31  5-MIN KDBQ 031805Z 15010KT 9SM SCT019 BKN028 OVC036  21/15 A2984 1160 70 2100 150/10 RMK AO2
94908KDBQ DBQ20050603121011106/03/05 12:10:31  5-MIN KDBQ 031810Z 15011KT 9SM SCT019 BKN029 OVC036  21/15 A2983 1160 70 2100 150/11 RMK AO2
94908KDBQ DBQ20050603121511106/03/05 12:15:31  5-MIN KDBQ 031815Z 14012KT 8SM BKN020 BKN029 OVC035  21/15 A2983 1160 70 2100 140/12 RMK AO2
94908KDBQ DBQ20050603122010306/03/05 12:20:31  5-MIN KDBQ 031820Z 14011KT 8SM BKN022 OVC029 21/16 A2983 1160 73 2100 140/11 RMK AO2
94908KDBQ DBQ20050603122510306/03/05 12:25:31  5-MIN KDBQ 031825Z 13011KT 7SM BKN022 OVC029 21/16 A2983 1170 73 2100 120/11 RMK AO2
94908KDBQ DBQ20050603123011106/03/05 12:30:31  5-MIN KDBQ 031830Z 14010KT 7SM BKN022 BKN029 OVC035  21/16 A2983 1160 70 2200 140/10 RMK AO2
94908KDBQ DBQ20050603123510306/03/05 12:35:31  5-MIN KDBQ 031835Z 13013KT 7SM BKN022 OVC029 21/15 A2983 1160 70 2100 130/13 RMK AO2
94908KDBQ DBQ20050603124010306/03/05 12:40:31  5-MIN KDBQ 031840Z 13012KT 7SM BKN022 OVC029 20/15 A2983 1160 72 2100 130/12 RMK AO2
94908KDBQ DBQ20050603124510706/03/05 12:45:31  5-MIN KDBQ 031845Z 14011KT 6SM HZ BKN022 OVC029 20/16  A2984 1150 75 2000 140/11 RMK AO2
94908KDBQ DBQ20050603125013106/03/05 12:50:31  5-MIN KDBQ 031850Z 13010KT 6SM HZ FEW018 BKN022 OVC029  20/16 A2984 1150 75 2000 130/10 RMK AO2 SLP101 T02000156
94908KDBQ DBQ20050603125513106/03/05 12:55:31  5-MIN KDBQ 031855Z 15008KT 6SM HZ FEW018 BKN022 OVC029  20/16 A2984 1150 75 2000 150/08 RMK AO2 SLP101 T02000156
94908KDBQ DBQ20050603130010306/03/05 13:00:31  5-MIN KDBQ 031900Z 14011KT 7SM BKN022 BKN030 21/16 A2984 1150 73 2100 130/11 RMK AO2
94908KDBQ DBQ20050603130511106/03/05 13:05:31  5-MIN KDBQ 031905Z 15011KT 7SM BKN022 BKN030 OVC042  21/16 A2983 1160 73 2100 150/11 RMK AO2
94908KDBQ DBQ20050603131011106/03/05 13:10:31  5-MIN KDBQ 031910Z 15011KT 7SM BKN024 BKN030 OVC042  21/16 A2983 1160 73 2100 150/11 RMK AO2
94908KDBQ DBQ20050603131511106/03/05 13:15:31  5-MIN KDBQ 031915Z 13009KT 8SM BKN024 BKN030 OVC042  21/16 A2983 1160 73 2100 130/09 RMK AO2
94908KDBQ DBQ20050603132011106/03/05 13:20:31  5-MIN KDBQ 031920Z 16010KT 7SM BKN024 BKN030 OVC042  21/16 A2983 1160 70 2200 160/10 RMK AO2
94908KDBQ DBQ20050603132511106/03/05 13:25:31  5-MIN KDBQ 031925Z 16011KT 7SM BKN024 BKN030 OVC042  21/16 A2983 1160 70 2200 160/11 RMK AO2
94908KDBQ DBQ20050603133011106/03/05 13:30:31  5-MIN KDBQ 031930Z 15010KT 7SM BKN024 BKN030 OVC042  21/16 A2983 1160 73 2100 140/10 RMK AO2
94908KDBQ DBQ20050603133511106/03/05 13:35:31  5-MIN KDBQ 031935Z 15010KT 7SM BKN024 BKN030 OVC042  21/16 A2984 1160 73 2100 150/10 RMK AO2
94908KDBQ DBQ20050603134011106/03/05 13:40:31  5-MIN KDBQ 031940Z 16010KT 7SM BKN024 BKN030 OVC042  21/16 A2984 1150 73 2100 150/10 RMK AO2
94908KDBQ DBQ20050603134511106/03/05 13:45:31  5-MIN KDBQ 031945Z 13009KT 7SM BKN024 BKN030 OVC042  21/16 A2984 1150 73 2100 130/09 RMK AO2
94908KDBQ DBQ20050603135012806/03/05 13:50:31  5-MIN KDBQ 031950Z 16011KT 7SM BKN022 BKN030 OVC044  21/16 A2984 1150 70 2200 150/11 RMK AO2 SLP102 T02110156
94908KDBQ DBQ20050603135512706/03/05 13:55:31  5-MIN KDBQ 031955Z 14010G15KT 8SM BKN022 OVC030 21/15  A2984 1150 70 2100 140/10G15 RMK AO2 SLP102 T02060150
94908KDBQ DBQ20050603140010306/03/05 14:00:31  5-MIN KDBQ 032000Z 15012KT 8SM BKN022 OVC030 21/16 A2984 1150 73 2100 150/12 RMK AO2
94908KDBQ DBQ20050603140510306/03/05 14:05:31  5-MIN KDBQ 032005Z 15011KT 7SM BKN022 OVC030 20/16 A2984 1150 75 2000 150/11 RMK AO2
94908KDBQ DBQ20050603141010306/03/05 14:10:31  5-MIN KDBQ 032010Z 15011KT 7SM SCT022 OVC028 21/16 A2984 1150 73 2100 150/11 RMK AO2
94908KDBQ DBQ20050603141511106/03/05 14:15:31  5-MIN KDBQ 032015Z 14010KT 7SM FEW022 BKN028 OVC046  21/16 A2984 1150 73 2100 140/10 RMK AO2
94908KDBQ DBQ20050603142011106/03/05 14:20:31  5-MIN KDBQ 032020Z 14011KT 8SM SCT022 BKN028 OVC046  21/16 A2984 1150 70 2200 140/11 RMK AO2
94908KDBQ DBQ20050603142511106/03/05 14:25:31  5-MIN KDBQ 032025Z 15008KT 9SM FEW020 SCT028 OVC046  22/16 A2984 1150 70 2200 150/08 RMK AO2
94908KDBQ DBQ20050603143010306/03/05 14:30:31  5-MIN KDBQ 032030Z 13008KT 9SM BKN022 OVC030 22/16 A2984 1160 70 2200 130/08 RMK AO2
94908KDBQ DBQ20050603143510306/03/05 14:35:31  5-MIN KDBQ 032035Z 13010KT 9SM BKN022 OVC030 22/16 A2983 1160 70 2200 130/10 RMK AO2
94908KDBQ DBQ20050603144010306/03/05 14:40:31  5-MIN KDBQ 032040Z 12009KT 9SM BKN022 OVC030 22/16 A2983 1160 70 2200 120/09 RMK AO2
94908KDBQ DBQ20050603144510306/03/05 14:45:31  5-MIN KDBQ 032045Z 13008KT 9SM BKN022 OVC030 22/16 A2983 1160 70 2200 130/08 RMK AO2
94908KDBQ DBQ20050603145013506/03/05 14:50:31  5-MIN KDBQ 032050Z 11010KT 10SM FEW020 BKN027 BKN044  22/16 A2983 1160 70 2200 110/10 RMK AO2 SLP098 T02170161 56017
94908KDBQ DBQ20050603145513406/03/05 14:55:31  5-MIN KDBQ 032055Z 12009KT 9SM FEW020 BKN027 BKN044  21/16 A2983 1160 70 2200 120/09 RMK AO2 SLP098 T02110156 58004
94908KDBQ DBQ20050603150011106/03/05 15:00:31  5-MIN KDBQ 032100Z 13008KT 9SM FEW020 BKN027 BKN034  21/16 A2983 1160 70 2200 130/08 RMK AO2
94908KDBQ DBQ20050603150510306/03/05 15:05:31  5-MIN KDBQ 032105Z 12009KT 9SM FEW020 BKN029 21/16 A2983 1160 73 2200 120/09 RMK AO2
94908KDBQ DBQ20050603151010506/03/05 15:10:31  5-MIN KDBQ 032110Z 11011KT 10SM FEW020 BKN029 22/16  A2983 1160 70 2200 110/11 RMK AO2
94908KDBQ DBQ20050603151510506/03/05 15:15:31  5-MIN KDBQ 032115Z 13008KT 10SM FEW020 BKN029 22/16  A2983 1160 68 2200 130/08 RMK AO2
94908KDBQ DBQ20050603152010506/03/05 15:20:31  5-MIN KDBQ 032120Z 13006KT 10SM FEW020 BKN029 22/16  A2983 1160 70 2200 130/06 RMK AO2
94908KDBQ DBQ20050603152510306/03/05 15:25:31  5-MIN KDBQ 032125Z 13010KT 9SM FEW020 BKN029 21/16 A2983 1160 73 2200 130/10 RMK AO2
94908KDBQ DBQ20050603153010506/03/05 15:30:31  5-MIN KDBQ 032130Z 14006KT 10SM FEW020 BKN029 22/16  A2982 1170 70 2300 140/06 RMK AO2
94908KDBQ DBQ20050603153511106/03/05 15:35:31  5-MIN KDBQ 032135Z 13009G15KT 10SM FEW020 BKN029 22/16  A2982 1170 70 2300 130/09G15 RMK AO2
94908KDBQ DBQ20050603154011106/03/05 15:40:31  5-MIN KDBQ 032140Z 13008G15KT 10SM FEW020 BKN029 21/16  A2982 1170 70 2200 130/08G15 RMK AO2
94908KDBQ DBQ20050603154510506/03/05 15:45:31  5-MIN KDBQ 032145Z 12008KT 10SM FEW020 BKN029 21/16  A2982 1180 73 2200 120/08 RMK AO2
94908KDBQ DBQ20050603155012206/03/05 15:50:31  5-MIN KDBQ 032150Z 12009KT 10SM FEW025 OVC041 22/16  A2981 1180 70 2300 120/09 RMK AO2 SLP091 T02170161
94908KDBQ DBQ20050603155512206/03/05 15:55:31  5-MIN KDBQ 032155Z 11009KT 10SM FEW025 OVC043 22/16  A2981 1180 70 2300 110/09 RMK AO2 SLP092 T02170161
94908KDBQ DBQ20050603160010506/03/05 16:00:31  5-MIN KDBQ 032200Z 11007KT 10SM FEW024 OVC043 21/16  A2981 1180 73 2200 110/07 RMK AO2
94908KDBQ DBQ20050603160511206/03/05 16:05:31  5-MIN KDBQ 032205Z 12009KT 10SM SCT024 SCT030 OVC043  21/16 A2980 1190 73 2200 120/09 RMK AO2
94908KDBQ DBQ20050603161011206/03/05 16:10:31  5-MIN KDBQ 032210Z 12008KT 10SM FEW022 SCT028 OVC043  22/16 A2981 1180 70 2300 110/08 RMK AO2
94908KDBQ DBQ20050603161511206/03/05 16:15:31  5-MIN KDBQ 032215Z 12009KT 10SM FEW022 SCT028 OVC043  22/16 A2980 1190 70 2300 120/09 RMK AO2
94908KDBQ DBQ20050603162011206/03/05 16:20:31  5-MIN KDBQ 032220Z 12011KT 10SM FEW022 SCT028 OVC043  21/16 A2980 1190 73 2200 120/11 RMK AO2
94908KDBQ DBQ20050603162511206/03/05 16:25:31  5-MIN KDBQ 032225Z 12009KT 10SM FEW022 SCT028 OVC043  21/16 A2979 1190 73 2200 120/09 RMK AO2
94908KDBQ DBQ20050603163011206/03/05 16:30:31  5-MIN KDBQ 032230Z 13009KT 10SM FEW022 SCT028 OVC043  21/16 A2980 1190 73 2200 120/09 RMK AO2
94908KDBQ DBQ20050603163511206/03/05 16:35:31  5-MIN KDBQ 032235Z 12009KT 10SM FEW022 SCT028 OVC043  21/16 A2980 1190 73 2200 120/09 RMK AO2
94908KDBQ DBQ20050603164011206/03/05 16:40:31  5-MIN KDBQ 032240Z 12011KT 10SM FEW022 SCT028 OVC043  22/16 A2980 1190 68 2300 120/11 RMK AO2
94908KDBQ DBQ20050603164511206/03/05 16:45:31  5-MIN KDBQ 032245Z 13008KT 10SM FEW022 SCT028 OVC043  22/16 A2979 1200 70 2300 130/08 RMK AO2
94908KDBQ DBQ20050603165011106/03/05 16:50:31  5-MIN KDBQ 032250Z 13007KT 10SM CLR 22/16 A2979 1200 68 2300 130/07 RMK AO2 SLP086 T02220161
94908KDBQ DBQ20050603165511106/03/05 16:55:31  5-MIN KDBQ 032255Z 13009KT 9SM CLR 22/16 A2980 1190 68  2300 130/09 RMK AO2 SLP085 T02220161
94908KDBQ DBQ20050603170009406/03/05 17:00:31  5-MIN KDBQ 032300Z 14009KT 9SM CLR 22/16 A2980 1190 68  2300 130/09 RMK AO2
94908KDBQ DBQ20050603170509406/03/05 17:05:31  5-MIN KDBQ 032305Z 14009KT 9SM CLR 22/16 A2980 1190 68  2300 140/09 RMK AO2
94908KDBQ DBQ20050603171009406/03/05 17:10:31  5-MIN KDBQ 032310Z 13009KT 9SM CLR 22/16 A2980 1190 68  2300 130/09 RMK AO2
94908KDBQ DBQ20050603171509406/03/05 17:15:31  5-MIN KDBQ 032315Z 12008KT 9SM CLR 22/16 A2980 1190 70  2300 120/08 RMK AO2
94908KDBQ DBQ20050603172009406/03/05 17:20:31  5-MIN KDBQ 032320Z 13010KT 8SM CLR 22/16 A2980 1190 70  2300 130/10 RMK AO2
94908KDBQ DBQ20050603172509406/03/05 17:25:31  5-MIN KDBQ 032325Z 14007KT 8SM CLR 22/16 A2981 1180 70  2300 130/07 RMK AO2
94908KDBQ DBQ20050603173009706/03/05 17:30:31  5-MIN KDBQ 032330Z 12008KT 8SM FEW023 22/16 A2981 1180  70 2300 120/08 RMK AO2
94908KDBQ DBQ20050603173509706/03/05 17:35:31  5-MIN KDBQ 032335Z 14008KT 8SM FEW023 22/16 A2981 1180  70 2300 140/08 RMK AO2
94908KDBQ DBQ20050603174009406/03/05 17:40:31  5-MIN KDBQ 032340Z 12011KT 8SM CLR 22/16 A2982 1170 70  2300 120/11 RMK AO2
94908KDBQ DBQ20050603174509706/03/05 17:45:31  5-MIN KDBQ 032345Z 12009KT 7SM FEW024 22/16 A2982 1170  70 2300 120/09 RMK AO2
94908KDBQ DBQ20050603175013206/03/05 17:50:31  5-MIN KDBQ 032350Z 14008KT 7SM FEW024 22/16 A2982 1170  70 2300 140/08 RMK AO2 SLP095 T02170161 10222 20200 58004
94908KDBQ DBQ20050603175512906/03/05 17:55:31  5-MIN KDBQ 032355Z 13007KT 8SM CLR 22/16 A2982 1170 70  2300 120/07 RMK AO2 SLP095 T02170161 10222 20200 55002
94908KDBQ DBQ20050603180009406/03/05 18:00:31  5-MIN KDBQ 040000Z 12008KT 7SM CLR 21/16 A2983 1160 73  2200 120/08 RMK AO2
94908KDBQ DBQ20050603180509406/03/05 18:05:31  5-MIN KDBQ 040005Z 13008KT 7SM CLR 21/16 A2983 1160 73  2200 130/08 RMK AO2
94908KDBQ DBQ20050603181009406/03/05 18:10:31  5-MIN KDBQ 040010Z 13007KT 7SM CLR 21/16 A2983 1160 73  2200 130/07 RMK AO2
94908KDBQ DBQ20050603181509406/03/05 18:15:31  5-MIN KDBQ 040015Z 14007KT 7SM CLR 21/16 A2983 1160 73  2200 140/07 RMK AO2
94908KDBQ DBQ20050603182009406/03/05 18:20:31  5-MIN KDBQ 040020Z 13008KT 7SM CLR 21/16 A2983 1160 73  2200 130/08 RMK AO2
94908KDBQ DBQ20050603182509706/03/05 18:25:31  5-MIN KDBQ 040025Z 12008KT 6SM HZ CLR 21/16 A2983 1160  73 2200 120/08 RMK AO2
94908KDBQ DBQ20050603183009706/03/05 18:30:31  5-MIN KDBQ 040030Z 12007KT 6SM HZ CLR 21/16 A2983 1160  73 2200 110/07 RMK AO2
94908KDBQ DBQ20050603183509406/03/05 18:35:31  5-MIN KDBQ 040035Z 11007KT 7SM CLR 21/16 A2982 1170 73  2200 110/07 RMK AO2
94908KDBQ DBQ20050603184010306/03/05 18:40:31  5-MIN KDBQ 040040Z AUTO 11008KT 7SM CLR 21/16 A2981 1180 73 2200 100/08 RMK AO2 TSNO
94908KDBQ DBQ20050603184510306/03/05 18:45:31  5-MIN KDBQ 040045Z AUTO 11008KT 7SM CLR 21/16 A2982 1180 73 2200 100/08 RMK AO2 TSNO
94908KDBQ DBQ20050603185012006/03/05 18:50:31  5-MIN KDBQ 040050Z AUTO 10008KT 8SM CLR 21/16 A2981 1180 73 2200 100/08 RMK AO2 SLP091 T02110161 TSNO
94908KDBQ DBQ20050603185512006/03/05 18:55:31  5-MIN KDBQ 040055Z AUTO 10007KT 8SM CLR 21/16 A2981 1180 75 2100 100/07 RMK AO2 SLP092 T02060161 TSNO
94908KDBQ DBQ20050603190010306/03/05 19:00:31  5-MIN KDBQ 040100Z AUTO 10007KT 8SM CLR 21/16 A2981 1180 75 2100 100/07 RMK AO2 TSNO
94908KDBQ DBQ20050603190510306/03/05 19:05:31  5-MIN KDBQ 040105Z AUTO 10006KT 8SM CLR 21/16 A2982 1180 75 2100 100/06 RMK AO2 TSNO
94908KDBQ DBQ20050603191010306/03/05 19:10:31  5-MIN KDBQ 040110Z AUTO 10007KT 8SM CLR 21/16 A2981 1180 75 2100 100/07 RMK AO2 TSNO
94908KDBQ DBQ20050603191510306/03/05 19:15:31  5-MIN KDBQ 040115Z AUTO 11007KT 7SM CLR 21/16 A2981 1180 75 2100 110/07 RMK AO2 TSNO
94908KDBQ DBQ20050603192010306/03/05 19:20:31  5-MIN KDBQ 040120Z AUTO 10008KT 7SM CLR 20/16 A2980 1190 78 2100 100/08 RMK AO2 TSNO
94908KDBQ DBQ20050603192510306/03/05 19:25:31  5-MIN KDBQ 040125Z AUTO 10007KT 7SM CLR 20/16 A2982 1180 78 2100 100/07 RMK AO2 TSNO
94908KDBQ DBQ20050603193010306/03/05 19:30:31  5-MIN KDBQ 040130Z AUTO 10007KT 7SM CLR 20/16 A2981 1180 78 2100 100/07 RMK AO2 TSNO
94908KDBQ DBQ20050603193510306/03/05 19:35:31  5-MIN KDBQ 040135Z AUTO 10007KT 7SM CLR 20/16 A2981 1180 78 2100 100/07 RMK AO2 TSNO
94908KDBQ DBQ20050603194010306/03/05 19:40:31  5-MIN KDBQ 040140Z AUTO 11006KT 7SM CLR 20/16 A2981 1180 78 2100 110/06 RMK AO2 TSNO
94908KDBQ DBQ20050603194510306/03/05 19:45:31  5-MIN KDBQ 040145Z AUTO 11005KT 7SM CLR 19/16 A2982 1170 81 2000 110/05 RMK AO2 TSNO
94908KDBQ DBQ20050603195012006/03/05 19:50:31  5-MIN KDBQ 040150Z AUTO 11006KT 8SM CLR 19/16 A2981 1180 81 2000 110/06 RMK AO2 SLP093 T01940161 TSNO
94908KDBQ DBQ20050603195512006/03/05 19:55:31  5-MIN KDBQ 040155Z AUTO 11007KT 8SM CLR 19/16 A2982 1170 81 2000 100/07 RMK AO2 SLP096 T01940161 TSNO
94908KDBQ DBQ20050603200010706/03/05 20:00:31  5-MIN KDBQ 040200Z AUTO 11006KT 8SM FEW100 19/16 A2982  1170 81 2000 110/06 RMK AO2 TSNO
94908KDBQ DBQ20050603200510706/03/05 20:05:31  5-MIN KDBQ 040205Z AUTO 12006KT 8SM SCT100 19/16 A2983  1160 81 2000 120/06 RMK AO2 TSNO
94908KDBQ DBQ20050603201010706/03/05 20:10:31  5-MIN KDBQ 040210Z AUTO 13006KT 8SM BKN100 19/16 A2982  1170 81 2000 130/06 RMK AO2 TSNO
94908KDBQ DBQ20050603201510706/03/05 20:15:31  5-MIN KDBQ 040215Z AUTO 12006KT 7SM SCT100 19/16 A2982  1170 81 2000 120/06 RMK AO2 TSNO
94908KDBQ DBQ20050603202010706/03/05 20:20:31  5-MIN KDBQ 040220Z AUTO 11006KT 7SM FEW100 19/16 A2981  1180 81 2000 110/06 RMK AO2 TSNO
94908KDBQ DBQ20050603202510706/03/05 20:25:31  5-MIN KDBQ 040225Z AUTO 10007KT 7SM FEW100 19/16 A2982  1170 84 1900 100/07 RMK AO2 TSNO
94908KDBQ DBQ20050603203010706/03/05 20:30:31  5-MIN KDBQ 040230Z AUTO 10007KT 7SM FEW100 19/16 A2981  1180 84 1900 100/07 RMK AO2 TSNO
94908KDBQ DBQ20050603203510706/03/05 20:35:31  5-MIN KDBQ 040235Z AUTO 10007KT 8SM FEW100 19/16 A2982  1170 81 1900 100/07 RMK AO2 TSNO
94908KDBQ DBQ20050603204010306/03/05 20:40:31  5-MIN KDBQ 040240Z AUTO 10008KT 8SM CLR 19/16 A2981 1180 81 2000 100/08 RMK AO2 TSNO
94908KDBQ DBQ20050603204510306/03/05 20:45:31  5-MIN KDBQ 040245Z AUTO 10008KT 8SM CLR 19/16 A2982 1170 84 1900 100/08 RMK AO2 TSNO
94908KDBQ DBQ20050603205013006/03/05 20:50:31  5-MIN KDBQ 040250Z AUTO 11007KT 8SM FEW095 19/16 A2981  1180 84 1900 110/07 RMK AO2 SLP091 T01890161 55002 TSNO
94908KDBQ DBQ20050603205513006/03/05 20:55:31  5-MIN KDBQ 040255Z AUTO 12006KT 8SM SCT095 19/16 A2982  1170 84 1900 110/06 RMK AO2 SLP094 T01890161 56002 TSNO
94908KDBQ DBQ20050603210010706/03/05 21:00:31  5-MIN KDBQ 040300Z AUTO 11008KT 7SM BKN095 19/16 A2981  1180 84 2000 110/08 RMK AO2 TSNO
94908KDBQ DBQ20050603210510706/03/05 21:05:31  5-MIN KDBQ 040305Z AUTO 11009KT 7SM BKN095 19/16 A2981  1180 84 1900 110/09 RMK AO2 TSNO
94908KDBQ DBQ20050603211010706/03/05 21:10:31  5-MIN KDBQ 040310Z AUTO 12008KT 7SM BKN095 19/16 A2981  1180 84 2000 120/08 RMK AO2 TSNO
94908KDBQ DBQ20050603211510706/03/05 21:15:31  5-MIN KDBQ 040315Z AUTO 12009KT 7SM BKN095 19/16 A2981  1180 84 1900 120/09 RMK AO2 TSNO
94908KDBQ DBQ20050603212010706/03/05 21:20:31  5-MIN KDBQ 040320Z AUTO 12008KT 7SM BKN095 19/16 A2981  1180 84 2000 110/08 RMK AO2 TSNO
94908KDBQ DBQ20050603212510706/03/05 21:25:31  5-MIN KDBQ 040325Z AUTO 12007KT 7SM OVC090 19/16 A2981  1180 84 1900 110/07 RMK AO2 TSNO
94908KDBQ DBQ20050603213010706/03/05 21:30:31  5-MIN KDBQ 040330Z AUTO 12008KT 7SM OVC090 19/16 A2981  1180 84 1900 120/08 RMK AO2 TSNO
94908KDBQ DBQ20050603213510706/03/05 21:35:31  5-MIN KDBQ 040335Z AUTO 12009KT 7SM OVC090 19/16 A2981  1180 81 2000 120/09 RMK AO2 TSNO
94908KDBQ DBQ20050603214010706/03/05 21:40:31  5-MIN KDBQ 040340Z AUTO 12009KT 7SM OVC090 19/16 A2981  1180 81 2000 120/09 RMK AO2 TSNO
94908KDBQ DBQ20050603214510706/03/05 21:45:31  5-MIN KDBQ 040345Z AUTO 12008KT 7SM OVC090 19/16 A2981  1180 81 2000 120/08 RMK AO2 TSNO
94908KDBQ DBQ20050603215012406/03/05 21:50:31  5-MIN KDBQ 040350Z AUTO 13008KT 7SM OVC090 19/16 A2982  1180 81 2000 120/08 RMK AO2 SLP092 T01940161 TSNO
94908KDBQ DBQ20050603215513006/03/05 21:55:31  5-MIN KDBQ 040355Z AUTO 12008KT 7SM FEW070 OVC090 19/16 A2981 1180 81 2000 120/08 RMK AO2 SLP092 T01940161 TSNO
94908KDBQ DBQ20050603220011306/03/05 22:00:31  5-MIN KDBQ 040400Z AUTO 12008KT 7SM FEW070 OVC090 19/16 A2981 1180 81 2000 120/08 RMK AO2 TSNO
94908KDBQ DBQ20050603220510706/03/05 22:05:31  5-MIN KDBQ 040405Z AUTO 13009KT 7SM OVC090 19/16 A2981  1180 81 2000 130/09 RMK AO2 TSNO
94908KDBQ DBQ20050603221010706/03/05 22:10:31  5-MIN KDBQ 040410Z AUTO 13009KT 7SM OVC090 19/16 A2982  1170 81 2000 130/09 RMK AO2 TSNO
94908KDBQ DBQ20050603221510706/03/05 22:15:31  5-MIN KDBQ 040415Z AUTO 14008KT 7SM OVC090 19/16 A2981  1180 81 2000 140/08 RMK AO2 TSNO
94908KDBQ DBQ20050603222011306/03/05 22:20:31  5-MIN KDBQ 040420Z AUTO 14009KT 7SM FEW075 OVC090 19/16 A2982 1170 81 2000 140/09 RMK AO2 TSNO
94908KDBQ DBQ20050603222510706/03/05 22:25:31  5-MIN KDBQ 040425Z AUTO 14009KT 7SM OVC090 19/16 A2982  1180 81 2000 140/09 RMK AO2 TSNO
94908KDBQ DBQ20050603223010706/03/05 22:30:31  5-MIN KDBQ 040430Z AUTO 14009KT 7SM OVC090 19/16 A2982  1170 81 2000 140/09 RMK AO2 TSNO
94908KDBQ DBQ20050603223510706/03/05 22:35:31  5-MIN KDBQ 040435Z AUTO 14010KT 7SM OVC090 19/16 A2982  1170 81 2000 140/10 RMK AO2 TSNO
94908KDBQ DBQ20050603224010706/03/05 22:40:31  5-MIN KDBQ 040440Z AUTO 15009KT 7SM OVC090 19/16 A2983  1160 81 2000 150/09 RMK AO2 TSNO
94908KDBQ DBQ20050603224510706/03/05 22:45:31  5-MIN KDBQ 040445Z AUTO 15010KT 7SM OVC090 19/16 A2981  1180 81 2000 140/10 RMK AO2 TSNO
94908KDBQ DBQ20050603225012406/03/05 22:50:31  5-MIN KDBQ 040450Z AUTO 14010KT 7SM OVC090 19/16 A2982  1170 81 2000 140/10 RMK AO2 SLP095 T01940161 TSNO
94908KDBQ DBQ20050603225512406/03/05 22:55:31  5-MIN KDBQ 040455Z AUTO 14010KT 7SM OVC090 19/16 A2981  1180 81 2000 140/10 RMK AO2 SLP091 T01940161 TSNO
94908KDBQ DBQ20050603230010706/03/05 23:00:31  5-MIN KDBQ 040500Z AUTO 14010KT 7SM OVC090 19/16 A2982  1170 78 2000 140/10 RMK AO2 TSNO
94908KDBQ DBQ20050603230510706/03/05 23:05:31  5-MIN KDBQ 040505Z AUTO 15010KT 7SM OVC090 19/16 A2981  1180 78 2000 140/10 RMK AO2 TSNO
94908KDBQ DBQ20050603231010706/03/05 23:10:31  5-MIN KDBQ 040510Z AUTO 15010KT 7SM OVC090 20/16 A2982  1170 75 2100 140/10 RMK AO2 TSNO
94908KDBQ DBQ20050603231510706/03/05 23:15:31  5-MIN KDBQ 040515Z AUTO 14011KT 7SM OVC090 20/16 A2981  1180 75 2100 140/11 RMK AO2 TSNO
94908KDBQ DBQ20050603232010706/03/05 23:20:31  5-MIN KDBQ 040520Z AUTO 14011KT 7SM OVC090 19/16 A2981  1180 78 2000 140/11 RMK AO2 TSNO
94908KDBQ DBQ20050603232510706/03/05 23:25:31  5-MIN KDBQ 040525Z AUTO 14011KT 7SM OVC090 19/16 A2980  1190 78 2000 140/11 RMK AO2 TSNO
94908KDBQ DBQ20050603233010706/03/05 23:30:31  5-MIN KDBQ 040530Z AUTO 14011KT 7SM OVC095 19/16 A2981  1180 78 2000 140/11 RMK AO2 TSNO
94908KDBQ DBQ20050603233510706/03/05 23:35:31  5-MIN KDBQ 040535Z AUTO 14010KT 7SM OVC100 19/16 A2980  1190 78 2000 140/10 RMK AO2 TSNO
94908KDBQ DBQ20050603234010706/03/05 23:40:31  5-MIN KDBQ 040540Z AUTO 14010KT 7SM BKN100 19/16 A2981  1180 81 1900 140/10 RMK AO2 TSNO
94908KDBQ DBQ20050603234510706/03/05 23:45:31  5-MIN KDBQ 040545Z AUTO 14010KT 7SM BKN100 19/16 A2979  1200 81 2000 140/10 RMK AO2 TSNO
94908KDBQ DBQ20050603235015606/03/05 23:50:31  5-MIN KDBQ 040550Z AUTO 15010KT 6SM HZ SCT100 19/16  A2980 1190 81 2000 140/10 RMK AO2 SLP088 T01890156 10217 20189 402220133  56002 TSNO
94908KDBQ DBQ20050603235515606/03/05 23:55:31  5-MIN KDBQ 040555Z AUTO 14010KT 6SM HZ FEW100 19/16  A2979 1200 81 2000 140/10 RMK AO2 SLP083 T01890156 10217 20189 402220133  58010 TSNO
94908KDBQ DBQ20050604000011006/04/05 00:00:38  5-MIN KDBQ 040600Z AUTO 14010KT 6SM HZ FEW100 19/16  A2980 1190 81 2000 140/10 RMK AO2 TSNO
94908KDBQ DBQ20050604000511006/04/05 00:05:31  5-MIN KDBQ 040605Z AUTO 14009KT 6SM HZ FEW110 19/16  A2978 1210 81 2000 140/09 RMK AO2 TSNO
94908KDBQ DBQ20050604001010706/04/05 00:10:31  5-MIN KDBQ 040610Z AUTO 14009KT 6SM HZ CLR 19/16 A2979  1200 81 2000 140/09 RMK AO2 TSNO
94908KDBQ DBQ20050604001510706/04/05 00:15:32  5-MIN KDBQ 040615Z AUTO 14010KT 6SM HZ CLR 19/16 A2977  1210 81 2000 140/10 RMK AO2 TSNO
94908KDBQ DBQ20050604002011006/04/05 00:20:31  5-MIN KDBQ 040620Z AUTO 14010KT 6SM HZ FEW047 19/16  A2978 1210 81 2000 140/10 RMK AO2 TSNO
94908KDBQ DBQ20050604002511706/04/05 00:25:31  5-MIN KDBQ 040625Z AUTO 13010KT 6SM HZ FEW047 19/16  A2976 1220 81 2000 130/10 RMK AO2 PRESFR TSNO
94908KDBQ DBQ20050604003011006/04/05 00:30:31  5-MIN KDBQ 040630Z AUTO 13010KT 6SM HZ FEW047 19/16  A2976 1230 81 2000 130/10 RMK AO2 TSNO
94908KDBQ DBQ20050604003511006/04/05 00:35:31  5-MIN KDBQ 040635Z AUTO 13010KT 6SM HZ FEW047 19/16  A2975 1230 81 2000 130/10 RMK AO2 TSNO
94908KDBQ DBQ20050604004011006/04/05 00:40:31  5-MIN KDBQ 040640Z AUTO 12009KT 6SM HZ FEW047 19/16  A2975 1230 81 2000 120/09 RMK AO2 TSNO
94908KDBQ DBQ20050604004511006/04/05 00:45:31  5-MIN KDBQ 040645Z AUTO 12011KT 6SM HZ FEW047 19/16  A2974 1240 81 2000 120/11 RMK AO2 TSNO
94908KDBQ DBQ20050604005012406/04/05 00:50:31  5-MIN KDBQ 040650Z AUTO 12010KT 6SM HZ CLR 19/16 A2974  1250 81 2000 120/10 RMK AO2 SLP066 T01890156 TSNO
94908KDBQ DBQ20050604005512406/04/05 00:55:31  5-MIN KDBQ 040655Z AUTO 12010KT 6SM HZ CLR 19/16 A2974  1250 81 2000 120/10 RMK AO2 SLP066 T01890156 TSNO
94908KDBQ DBQ20050604010010706/04/05 01:00:31  5-MIN KDBQ 040700Z AUTO 13009KT 6SM HZ CLR 19/16 A2974  1240 81 2000 130/09 RMK AO2 TSNO
94908KDBQ DBQ20050604010510706/04/05 01:05:31  5-MIN KDBQ 040705Z AUTO 14008KT 6SM HZ CLR 19/16 A2974  1240 81 2000 140/08 RMK AO2 TSNO
94908KDBQ DBQ20050604011010706/04/05 01:10:31  5-MIN KDBQ 040710Z AUTO 15009KT 6SM HZ CLR 18/16 A2975  1240 84 2000 150/09 RMK AO2 TSNO
94908KDBQ DBQ20050604011510306/04/05 01:15:31  5-MIN KDBQ 040715Z AUTO 14009KT 7SM CLR 18/16 A2975 1240 84 2000 140/09 RMK AO2 TSNO
94908KDBQ DBQ20050604012010706/04/05 01:20:31  5-MIN KDBQ 040720Z AUTO 13010KT 6SM HZ CLR 18/16 A2974  1240 84 2000 130/10 RMK AO2 TSNO
94908KDBQ DBQ20050604012510706/04/05 01:25:31  5-MIN KDBQ 040725Z AUTO 14010KT 6SM HZ CLR 19/16 A2975  1240 81 2000 140/10 RMK AO2 TSNO
94908KDBQ DBQ20050604013010706/04/05 01:30:31  5-MIN KDBQ 040730Z AUTO 13012KT 6SM HZ CLR 19/16 A2974  1240 81 2000 130/12 RMK AO2 TSNO
94908KDBQ DBQ20050604013510706/04/05 01:35:31  5-MIN KDBQ 040735Z AUTO 13011KT 6SM HZ CLR 19/16 A2974  1250 81 2000 130/11 RMK AO2 TSNO
94908KDBQ DBQ20050604014010706/04/05 01:40:31  5-MIN KDBQ 040740Z AUTO 13011KT 6SM HZ CLR 19/16 A2974  1250 81 2000 130/11 RMK AO2 TSNO
94908KDBQ DBQ20050604014511006/04/05 01:45:31  5-MIN KDBQ 040745Z AUTO 13012KT 6SM HZ SCT120 19/16  A2974 1250 81 2000 130/12 RMK AO2 TSNO
94908KDBQ DBQ20050604015012706/04/05 01:50:31  5-MIN KDBQ 040750Z AUTO 15013KT 6SM HZ BKN120 19/16  A2974 1240 81 2000 150/13 RMK AO2 SLP068 T01890156 TSNO
94908KDBQ DBQ20050604015512406/04/05 01:55:31  5-MIN KDBQ 040755Z AUTO 15012KT 7SM BKN120 19/16 A2976  1230 81 2000 150/12 RMK AO2 SLP072 T01890156 TSNO
94908KDBQ DBQ20050604020010706/04/05 02:00:31  5-MIN KDBQ 040800Z AUTO 15011KT 7SM BKN120 19/16 A2974  1240 81 2000 150/11 RMK AO2 TSNO
94908KDBQ DBQ20050604020511306/04/05 02:05:31  5-MIN KDBQ 040805Z AUTO 14013G18KT 7SM BKN120 19/16  A2975 1230 81 2000 140/13G18 RMK AO2 TSNO
94908KDBQ DBQ20050604021011306/04/05 02:10:31  5-MIN KDBQ 040810Z AUTO 15015G18KT 7SM OVC120 19/16  A2974 1250 81 2000 150/15G18 RMK AO2 TSNO
94908KDBQ DBQ20050604021510706/04/05 02:15:31  5-MIN KDBQ 040815Z AUTO 15012KT 7SM BKN120 19/16 A2976  1230 81 2000 150/12 RMK AO2 TSNO
94908KDBQ DBQ20050604022010706/04/05 02:20:31  5-MIN KDBQ 040820Z AUTO 16013KT 7SM BKN120 19/16 A2975  1240 81 2000 160/13 RMK AO2 TSNO
94908KDBQ DBQ20050604022511306/04/05 02:25:31  5-MIN KDBQ 040825Z AUTO 15013G20KT 7SM SCT120 19/16  A2976 1230 81 2000 150/13G20 RMK AO2 TSNO
94908KDBQ DBQ20050604023011306/04/05 02:30:31  5-MIN KDBQ 040830Z AUTO 15014G20KT 7SM SCT120 19/16  A2975 1240 81 2000 150/14G20 RMK AO2 TSNO
94908KDBQ DBQ20050604023510706/04/05 02:35:31  5-MIN KDBQ 040835Z AUTO 16012KT 7SM FEW120 19/16 A2977  1220 81 2000 160/12 RMK AO2 TSNO
94908KDBQ DBQ20050604024010306/04/05 02:40:31  5-MIN KDBQ 040840Z AUTO 16012KT 7SM CLR 19/16 A2976 1230 81 2000 160/12 RMK AO2 TSNO
94908KDBQ DBQ20050604024510706/04/05 02:45:31  5-MIN KDBQ 040845Z AUTO 16011KT 6SM HZ CLR 19/16 A2976  1220 81 2000 150/11 RMK AO2 TSNO
94908KDBQ DBQ20050604025013006/04/05 02:50:31  5-MIN KDBQ 040850Z AUTO 16011KT 6SM HZ CLR 19/16 A2975  1240 81 2000 160/11 RMK AO2 SLP069 T01890156 58010 TSNO
94908KDBQ DBQ20050604025513006/04/05 02:55:31  5-MIN KDBQ 040855Z AUTO 15012KT 6SM HZ CLR 19/16 A2976  1230 81 2000 150/12 RMK AO2 SLP074 T01890156 55009 TSNO
94908KDBQ DBQ20050604030010706/04/05 03:00:31  5-MIN KDBQ 040900Z AUTO 16011KT 6SM HZ CLR 19/16 A2975  1230 81 2000 150/11 RMK AO2 TSNO
94908KDBQ DBQ20050604030510306/04/05 03:05:31  5-MIN KDBQ 040905Z AUTO 16011KT 7SM CLR 19/16 A2977 1220 81 2000 160/11 RMK AO2 TSNO
94908KDBQ DBQ20050604031010306/04/05 03:10:31  5-MIN KDBQ 040910Z AUTO 15011KT 7SM CLR 18/16 A2975 1230 84 1900 150/11 RMK AO2 TSNO
94908KDBQ DBQ20050604031510706/04/05 03:15:31  5-MIN KDBQ 040915Z AUTO 15012KT 6SM HZ CLR 19/16 A2976  1230 81 2000 150/12 RMK AO2 TSNO
94908KDBQ DBQ20050604032010706/04/05 03:20:31  5-MIN KDBQ 040920Z AUTO 15013KT 6SM HZ CLR 19/16 A2975  1230 81 2000 150/13 RMK AO2 TSNO
94908KDBQ DBQ20050604032510306/04/05 03:25:31  5-MIN KDBQ 040925Z AUTO 15011KT 7SM CLR 19/16 A2976 1220 81 2000 150/11 RMK AO2 TSNO
94908KDBQ DBQ20050604033010706/04/05 03:30:31  5-MIN KDBQ 040930Z AUTO 16012KT 6SM HZ CLR 18/16 A2976  1230 84 1900 160/12 RMK AO2 TSNO
94908KDBQ DBQ20050604033510706/04/05 03:35:31  5-MIN KDBQ 040935Z AUTO 15011KT 6SM HZ CLR 18/16 A2976  1220 84 1900 150/11 RMK AO2 TSNO
94908KDBQ DBQ20050604034010706/04/05 03:40:31  5-MIN KDBQ 040940Z AUTO 16012KT 6SM HZ CLR 18/15 A2976  1230 81 1900 160/12 RMK AO2 TSNO
94908KDBQ DBQ20050604034510706/04/05 03:45:31  5-MIN KDBQ 040945Z AUTO 17011KT 6SM HZ CLR 18/15 A2977  1220 81 1900 170/11 RMK AO2 TSNO
94908KDBQ DBQ20050604035012406/04/05 03:50:31  5-MIN KDBQ 040950Z AUTO 17009KT 6SM HZ CLR 18/15 A2977  1220 81 1900 170/09 RMK AO2 SLP075 T01830150 TSNO
94908KDBQ DBQ20050604035512406/04/05 03:55:31  5-MIN KDBQ 040955Z AUTO 17011KT 6SM HZ CLR 18/15 A2977  1220 81 1900 170/11 RMK AO2 SLP076 T01830150 TSNO
94908KDBQ DBQ20050604040010706/04/05 04:00:31  5-MIN KDBQ 041000Z AUTO 16010KT 6SM HZ CLR 18/15 A2977  1220 81 1900 160/10 RMK AO2 TSNO
94908KDBQ DBQ20050604040510706/04/05 04:05:31  5-MIN KDBQ 041005Z AUTO 15010KT 6SM HZ CLR 18/15 A2977  1210 81 1900 150/10 RMK AO2 TSNO
94908KDBQ DBQ20050604041010706/04/05 04:10:31  5-MIN KDBQ 041010Z AUTO 15008KT 6SM HZ CLR 18/15 A2977  1210 83 1900 150/08 RMK AO2 TSNO
94908KDBQ DBQ20050604041510706/04/05 04:15:31  5-MIN KDBQ 041015Z AUTO 15010KT 6SM HZ CLR 18/15 A2977  1210 83 1900 150/10 RMK AO2 TSNO
94908KDBQ DBQ20050604042010706/04/05 04:20:31  5-MIN KDBQ 041020Z AUTO 15009KT 6SM HZ CLR 18/15 A2977  1210 83 1900 150/09 RMK AO2 TSNO
94908KDBQ DBQ20050604042510706/04/05 04:25:31  5-MIN KDBQ 041025Z AUTO 15010KT 6SM HZ CLR 18/15 A2977  1220 83 1900 150/10 RMK AO2 TSNO
94908KDBQ DBQ20050604043010706/04/05 04:30:31  5-MIN KDBQ 041030Z AUTO 14011KT 5SM HZ CLR 18/15 A2977  1220 83 1900 140/11 RMK AO2 TSNO
94908KDBQ DBQ20050604043510706/04/05 04:35:31  5-MIN KDBQ 041035Z AUTO 15012KT 4SM HZ CLR 18/15 A2977  1220 83 1900 150/12 RMK AO2 TSNO
94908KDBQ DBQ20050604044010706/04/05 04:40:31  5-MIN KDBQ 041040Z AUTO 15012KT 4SM HZ CLR 18/15 A2977  1210 83 1900 150/12 RMK AO2 TSNO
94908KDBQ DBQ20050604044510706/04/05 04:45:31  5-MIN KDBQ 041045Z AUTO 15013KT 4SM HZ CLR 18/15 A2977  1210 81 1900 140/13 RMK AO2 TSNO
94908KDBQ DBQ20050604045011706/04/05 04:50:31  5-MIN KDBQ 041050Z 15012KT 5SM HZ SCT110 18/15 A2977  1210 81 1900 150/12 RMK AO2 SLP077 T01830150
94908KDBQ DBQ20050604045512406/04/05 04:55:31  5-MIN KDBQ 041055Z 15012KT 5SM HZ FEW050 BKN110 18/15  A2977 1210 81 1900 150/12 RMK AO2 SLP077 T01830150
94908KDBQ DBQ20050604050010706/04/05 05:00:31  5-MIN KDBQ 041100Z 14010KT 5SM HZ SCT050 BKN110 18/16  A2977 1210 84 1900 140/10 RMK AO2
94908KDBQ DBQ20050604050510706/04/05 05:05:31  5-MIN KDBQ 041105Z 14010KT 4SM BR BKN050 BKN110 18/16  A2977 1220 87 1900 140/10 RMK AO2
94908KDBQ DBQ20050604051010706/04/05 05:10:31  5-MIN KDBQ 041110Z 14010KT 4SM BR BKN050 BKN110 18/16  A2977 1210 87 1900 140/10 RMK AO2
94908KDBQ DBQ20050604051510706/04/05 05:15:31  5-MIN KDBQ 041115Z 14009KT 4SM BR SCT050 BKN110 18/16  A2977 1210 87 1900 140/09 RMK AO2
94908KDBQ DBQ20050604052010006/04/05 05:20:31  5-MIN KDBQ 041120Z 14009KT 4SM BR SCT050 18/16 A2977  1220 87 1900 140/09 RMK AO2
94908KDBQ DBQ20050604052510006/04/05 05:25:31  5-MIN KDBQ 041125Z 14010KT 4SM HZ SCT050 18/16 A2977  1220 84 1900 140/10 RMK AO2
94908KDBQ DBQ20050604053010706/04/05 05:30:31  5-MIN KDBQ 041130Z 14010KT 4SM HZ FEW050 SCT100 18/16  A2977 1220 84 1900 140/10 RMK AO2
94908KDBQ DBQ20050604053510706/04/05 05:35:31  5-MIN KDBQ 041135Z 14012KT 4SM HZ FEW050 SCT100 18/16  A2977 1220 84 1900 140/12 RMK AO2
94908KDBQ DBQ20050604054010706/04/05 05:40:31  5-MIN KDBQ 041140Z 14012KT 4SM HZ FEW050 SCT100 19/16  A2976 1220 81 2000 140/12 RMK AO2
94908KDBQ DBQ20050604054510706/04/05 05:45:31  5-MIN KDBQ 041145Z 14012KT 4SM HZ FEW050 SCT100 19/16  A2976 1230 81 2000 140/12 RMK AO2
94908KDBQ DBQ20050604055013506/04/05 05:50:31  5-MIN KDBQ 041150Z 14013KT 4SM HZ FEW100 19/16 A2976  1230 81 2000 140/13 RMK AO2 SLP071 T01890156 10189 20178 55009
94908KDBQ DBQ20050604055513506/04/05 05:55:31  5-MIN KDBQ 041155Z 14012KT 4SM HZ FEW100 19/16 A2975  1230 81 2000 140/12 RMK AO2 SLP070 T01890156 10189 20178 58003
94908KDBQ DBQ20050604060010006/04/05 06:00:31  5-MIN KDBQ 041200Z 13012KT 4SM HZ FEW100 19/16 A2975  1230 81 2000 130/12 RMK AO2
94908KDBQ DBQ20050604060510006/04/05 06:05:31  5-MIN KDBQ 041205Z 14013KT 4SM HZ FEW100 19/16 A2975  1240 81 2000 140/13 RMK AO2
94908KDBQ DBQ20050604061010006/04/05 06:10:31  5-MIN KDBQ 041210Z 14013KT 4SM HZ FEW100 19/16 A2975  1240 81 2000 140/13 RMK AO2
94908KDBQ DBQ20050604061510006/04/05 06:15:31  5-MIN KDBQ 041215Z 14012KT 5SM HZ FEW100 19/16 A2975  1240 81 2100 140/12 RMK AO2
94908KDBQ DBQ20050604062010006/04/05 06:20:31  5-MIN KDBQ 041220Z 15010KT 5SM HZ SCT100 19/16 A2975  1240 81 2100 140/10 RMK AO2
94908KDBQ DBQ20050604062510006/04/05 06:25:31  5-MIN KDBQ 041225Z 14011KT 5SM HZ SCT095 20/16 A2974  1240 78 2100 140/11 RMK AO2
94908KDBQ DBQ20050604063010006/04/05 06:30:31  5-MIN KDBQ 041230Z 15010KT 5SM HZ BKN095 20/16 A2975  1240 78 2100 150/10 RMK AO2
94908KDBQ DBQ20050604063510706/04/05 06:35:31  5-MIN KDBQ 041235Z 15010KT 5SM HZ FEW060 BKN095 20/16  A2975 1240 78 2100 150/10 RMK AO2
94908KDBQ DBQ20050604064010706/04/05 06:40:31  5-MIN KDBQ 041240Z 15011KT 5SM HZ SCT055 BKN095 20/16  A2975 1240 78 2100 140/11 RMK AO2
94908KDBQ DBQ20050604064510706/04/05 06:45:31  5-MIN KDBQ 041245Z 16008KT 5SM HZ BKN055 OVC095 20/16  A2976 1230 78 2100 150/08 RMK AO2
94908KDBQ DBQ20050604065012406/04/05 06:50:31  5-MIN KDBQ 041250Z 17009KT 5SM HZ BKN055 OVC095 20/16  A2976 1230 78 2100 160/09 RMK AO2 SLP073 T02000161
94908KDBQ DBQ20050604065512406/04/05 06:55:31  5-MIN KDBQ 041255Z 17011KT 5SM HZ BKN055 BKN095 20/16  A2976 1230 78 2100 160/11 RMK AO2 SLP071 T02000161
94908KDBQ DBQ20050604070010006/04/05 07:00:31  5-MIN KDBQ 041300Z 17012KT 5SM HZ BKN060 21/16 A2976  1230 75 2200 170/12 RMK AO2
94908KDBQ DBQ20050604070510006/04/05 07:05:31  5-MIN KDBQ 041305Z 18011KT 5SM HZ BKN060 20/16 A2976  1220 78 2100 180/11 RMK AO2
94908KDBQ DBQ20050604071010006/04/05 07:10:31  5-MIN KDBQ 041310Z 17010KT 5SM HZ BKN060 20/16 A2976  1220 78 2100 170/10 RMK AO2
94908KDBQ DBQ20050604071510706/04/05 07:15:31  5-MIN KDBQ 041315Z 17008KT 5SM HZ FEW029 BKN060 20/16  A2977 1220 78 2100 170/08 RMK AO2
94908KDBQ DBQ20050604072010706/04/05 07:20:31  5-MIN KDBQ 041320Z 17007KT 4SM HZ FEW029 BKN065 20/17  A2977 1220 81 2100 170/07 RMK AO2
94908KDBQ DBQ20050604072510706/04/05 07:25:31  5-MIN KDBQ 041325Z 18008KT 4SM HZ FEW027 BKN065 20/16  A2977 1220 78 2100 170/08 RMK AO2
94908KDBQ DBQ20050604073010706/04/05 07:30:31  5-MIN KDBQ 041330Z 18008KT 4SM HZ FEW027 BKN065 20/17  A2977 1220 81 2100 180/08 RMK AO2
94908KDBQ DBQ20050604073510706/04/05 07:35:31  5-MIN KDBQ 041335Z 17008KT 4SM HZ FEW027 BKN065 20/17  A2977 1220 81 2100 170/08 RMK AO2
94908KDBQ DBQ20050604074010706/04/05 07:40:31  5-MIN KDBQ 041340Z 17008KT 4SM HZ FEW024 BKN065 20/16  A2977 1220 78 2100 170/08 RMK AO2
94908KDBQ DBQ20050604074510706/04/05 07:45:31  5-MIN KDBQ 041345Z 16010KT 4SM HZ SCT024 BKN065 20/16  A2977 1220 78 2100 160/10 RMK AO2
94908KDBQ DBQ20050604075014306/04/05 07:50:31  5-MIN KDBQ 041350Z 17010KT 4SM -RA BKN022 BKN038 BKN060 19/16 A2977 1220 81 2100 170/10 RMK AO2 RAB48 SLP076 P0000 T01940161
94908KDBQ DBQ20050604075514706/04/05 07:55:31  5-MIN KDBQ 041355Z 18011KT 2SM +RA BR BKN022 BKN026  BKN065 19/17 A2978 1210 87 2000 170/11 RMK AO2 RAB48 SLP080 P0004 T01890167
94908KDBQ DBQ20050604080012406/04/05 08:00:31  5-MIN KDBQ 041400Z 18009KT 1SM +RA BR FEW002 BKN022  BKN026 19/17 A2978 1210 90 2000 180/09 RMK AO2 P0004
94908KDBQ DBQ20050604080512606/04/05 08:05:31  5-MIN KDBQ 041405Z 17011KT 3/4SM +RA BR FEW006 BKN022  OVC038 18/17 A2978 1200 93 1900 170/11 RMK AO2 P0015
94908KDBQ DBQ20050604081012606/04/05 08:10:31  5-MIN KDBQ 041410Z 17009KT 3/4SM +RA BR SCT010 BKN022  OVC027 18/17 A2978 1210 93 1900 170/09 RMK AO2 P0024
94908KDBQ DBQ20050604081512406/04/05 08:15:31  5-MIN KDBQ 041415Z 15007KT 1SM +RA BR BKN012 BKN022  OVC027 18/17 A2978 1210 93 1900 150/07 RMK AO2 P0027
94908KDBQ DBQ20050604082012006/04/05 08:20:31  5-MIN KDBQ 041420Z 14009KT 1 1/2SM RA BR BKN018 OVC028  18/17 A2977 1210 93 1900 140/09 RMK AO2 P0030
94908KDBQ DBQ20050604082511306/04/05 08:25:31  5-MIN KDBQ 041425Z 13007KT 1 3/4SM RA BR OVC020 18/17  A2976 1220 93 1900 130/07 RMK AO2 P0030
94908KDBQ DBQ20050604083011306/04/05 08:30:31  5-MIN KDBQ 041430Z 13008KT 1 3/4SM RA BR OVC020 18/17  A2976 1230 93 1900 130/08 RMK AO2 P0032
94908KDBQ DBQ20050604083510906/04/05 08:35:31  5-MIN KDBQ 041435Z 13007KT 2SM -RA BR OVC020 18/17 A2976 1230 93 1900 130/07 RMK AO2 P0033
94908KDBQ DBQ20050604084010906/04/05 08:40:31  5-MIN KDBQ 041440Z 13008KT 2SM -RA BR BKN022 18/17 A2975 1230 93 1900 120/08 RMK AO2 P0033
94908KDBQ DBQ20050604084512006/04/05 08:45:31  5-MIN KDBQ 041445Z 12007KT 2 1/2SM -RA BR BKN026 BKN080 19/17 A2975 1230 90 2000 120/07 RMK AO2 P0033
94908KDBQ DBQ20050604085015206/04/05 08:50:31  5-MIN KDBQ 041450Z 12009KT 2 1/2SM BR SCT028 BKN080  19/18 A2975 1240 93 2000 120/09 RMK AO2 RAE47 SLP070 P0033 60037 T01890178 58003
94908KDBQ DBQ20050604085515206/04/05 08:55:31  5-MIN KDBQ 041455Z 12008KT 2 1/2SM BR SCT034 BKN080  19/18 A2975 1240 93 2000 120/08 RMK AO2 RAE47 SLP069 P0033 60037 T01890178 58003
94908KDBQ DBQ20050604090011106/04/05 09:00:31  5-MIN KDBQ 041500Z 12008KT 2 1/2SM BR FEW043 BKN080  19/18 A2975 1240 93 2000 120/08 RMK AO2
94908KDBQ DBQ20050604090510306/04/05 09:05:31  5-MIN KDBQ 041505Z 12013KT 2 1/2SM BR SCT080 19/18 A2976 1230 93 2000 120/13 RMK AO2
94908KDBQ DBQ20050604091010306/04/05 09:10:31  5-MIN KDBQ 041510Z 12011KT 2 1/2SM BR SCT080 19/18 A2975 1240 93 2000 120/11 RMK AO2
94908KDBQ DBQ20050604091511106/04/05 09:15:31  5-MIN KDBQ 041515Z 12011KT 2 1/2SM BR FEW075 SCT100  19/18 A2975 1240 90 2100 120/11 RMK AO2
94908KDBQ DBQ20050604092011106/04/05 09:20:31  5-MIN KDBQ 041520Z 13010KT 2 1/2SM BR FEW075 SCT100  19/18 A2975 1230 90 2100 130/10 RMK AO2
94908KDBQ DBQ20050604092510306/04/05 09:25:31  5-MIN KDBQ 041525Z 13009KT 2 1/2SM BR FEW100 19/18 A2975 1230 90 2100 130/09 RMK AO2
94908KDBQ DBQ20050604093012006/04/05 09:30:31  5-MIN KDBQ 041530Z 13011KT 2 1/2SM -RA BR FEW100 19/18  A2975 1240 90 2100 130/11 RMK AO2 RAB30 P0000
94908KDBQ DBQ20050604093511506/04/05 09:35:31  5-MIN KDBQ 041535Z 13011KT 3SM -RA BR FEW085 20/18 A2975 1240 90 2100 130/11 RMK AO2 RAB30 P0000
94908KDBQ DBQ20050604094011506/04/05 09:40:31  5-MIN KDBQ 041540Z 14011KT 3SM -RA BR FEW080 20/18 A2974 1240 90 2100 130/11 RMK AO2 RAB30 P0000
94908KDBQ DBQ20050604094511506/04/05 09:45:31  5-MIN KDBQ 041545Z 13011KT 3SM BR FEW090 21/19 A2975  1240 90 2200 130/11 RMK AO2 RAB30E43 P0000
94908KDBQ DBQ20050604095012906/04/05 09:50:31  5-MIN KDBQ 041550Z 13010KT 3SM BR CLR 21/18 A2975 1240  87 2200 130/10 RMK AO2 RAB30E43 SLP070 P0000 T02060183
94908KDBQ DBQ20050604095512906/04/05 09:55:31  5-MIN KDBQ 041555Z 14010KT 3SM BR CLR 21/19 A2975 1240  90 2200 140/10 RMK AO2 RAB30E43 SLP069 P0000 T02060189
94908KDBQ DBQ20050604100010006/04/05 10:00:31  5-MIN KDBQ 041600Z 14010KT 3SM BR FEW080 21/19 A2974  1240 87 2300 130/10 RMK AO2
94908KDBQ DBQ20050604100510006/04/05 10:05:31  5-MIN KDBQ 041605Z 14011KT 3SM BR FEW080 21/19 A2974  1240 87 2300 140/11 RMK AO2
94908KDBQ DBQ20050604101010006/04/05 10:10:31  5-MIN KDBQ 041610Z 15010KT 3SM BR FEW080 21/19 A2974  1240 87 2300 150/10 RMK AO2
94908KDBQ DBQ20050604101510006/04/05 10:15:31  5-MIN KDBQ 041615Z 15012KT 3SM HZ FEW080 22/19 A2974  1240 84 2300 150/12 RMK AO2
94908KDBQ DBQ20050604102010006/04/05 10:20:31  5-MIN KDBQ 041620Z 15011KT 4SM BR FEW080 22/19 A2975  1240 87 2300 150/11 RMK AO2
94908KDBQ DBQ20050604102510006/04/05 10:25:31  5-MIN KDBQ 041625Z 15012KT 4SM HZ FEW080 22/19 A2975  1240 84 2400 150/12 RMK AO2
94908KDBQ DBQ20050604103010506/04/05 10:30:31  5-MIN KDBQ 041630Z 16014G19KT 4SM HZ FEW080 23/20 A2975 1240 84 2500 160/14G19 RMK AO2
94908KDBQ DBQ20050604103510506/04/05 10:35:31  5-MIN KDBQ 041635Z 16015G20KT 5SM HZ FEW080 23/20 A2974 1240 84 2500 160/15G20 RMK AO2
94908KDBQ DBQ20050604104010006/04/05 10:40:31  5-MIN KDBQ 041640Z 17017KT 4SM HZ FEW080 22/19 A2974  1240 84 2400 170/17 RMK AO2
94908KDBQ DBQ20050604104510006/04/05 10:45:31  5-MIN KDBQ 041645Z 17015KT 4SM HZ BKN080 22/19 A2974  1250 81 2400 170/15 RMK AO2
94908KDBQ DBQ20050604105012406/04/05 10:50:31  5-MIN KDBQ 041650Z 17014KT 4SM HZ FEW025 BKN080 22/19  A2974 1250 81 2400 170/14 RMK AO2 SLP064 T02220189
94908KDBQ DBQ20050604105512406/04/05 10:55:31  5-MIN KDBQ 041655Z 17016KT 4SM HZ FEW025 BKN080 22/19  A2973 1260 84 2400 170/16 RMK AO2 SLP061 T02220194
94908KDBQ DBQ20050604110011206/04/05 11:00:31  5-MIN KDBQ 041700Z 18013G20KT 4SM HZ BKN016 BKN025 23/19 A2973 1260 81 2500 170/13G20 RMK AO2
94908KDBQ DBQ20050604110510706/04/05 11:05:31  5-MIN KDBQ 041705Z 17012KT 4SM HZ SCT016 BKN025 23/19  A2972 1260 81 2500 170/12 RMK AO2
94908KDBQ DBQ20050604111010706/04/05 11:10:31  5-MIN KDBQ 041710Z 17011KT 4SM HZ SCT016 BKN024 22/19  A2972 1260 84 2400 170/11 RMK AO2
94908KDBQ DBQ20050604111510706/04/05 11:15:31  5-MIN KDBQ 041715Z 16016KT 4SM HZ SCT016 BKN023 22/19  A2971 1270 81 2400 160/16 RMK AO2
94908KDBQ DBQ20050604112011406/04/05 11:20:31  5-MIN KDBQ 041720Z 16016KT 4SM HZ SCT016 BKN023 22/19  A2970 1280 81 2500 160/16 RMK AO2 PRESFR
94908KDBQ DBQ20050604112511206/04/05 11:25:31  5-MIN KDBQ 041725Z 17014G19KT 4SM HZ SCT016 BKN023 22/19 A2971 1270 81 2400 170/14G19 RMK AO2
94908KDBQ DBQ20050604113011206/04/05 11:30:31  5-MIN KDBQ 041730Z 20012G19KT 4SM HZ SCT016 BKN023 22/19 A2972 1260 81 2400 200/12G19 RMK AO2
94908KDBQ DBQ20050604113510706/04/05 11:35:31  5-MIN KDBQ 041735Z 20011KT 4SM HZ SCT016 BKN023 22/19  A2972 1260 84 2400 200/11 RMK AO2
94908KDBQ DBQ20050604114010706/04/05 11:40:31  5-MIN KDBQ 041740Z 18010KT 5SM HZ SCT016 BKN023 23/19  A2971 1270 81 2500 180/10 RMK AO2
94908KDBQ DBQ20050604114510706/04/05 11:45:31  5-MIN KDBQ 041745Z 16014KT 5SM HZ SCT016 BKN023 23/19  A2969 1290 78 2500 160/14 RMK AO2
94908KDBQ DBQ20050604115014806/04/05 11:50:31  5-MIN KDBQ 041750Z 14011KT 5SM HZ FEW018 23/19 A2968  1300 78 2500 140/11 RMK AO2 PRESFR SLP044 60037 T02280189 10233 20183 58003
94908KDBQ DBQ20050604115515306/04/05 11:55:31  5-MIN KDBQ 041755Z 15016KT 5SM HZ FEW110 23/19 A2969  1290 81 2500 150/16 RMK AO2 WSHFT 1738 SLP048 60037 T02280194 10233 20183  58019
94908KDBQ DBQ20050604120010006/04/05 12:00:31  5-MIN KDBQ 041800Z 18016KT 5SM HZ FEW110 23/19 A2971  1280 78 2600 180/16 RMK AO2
94908KDBQ DBQ20050604120510406/04/05 12:05:31  5-MIN KDBQ 041805Z 18016KT 5SM HZ CLR 23/19 A2971 1270  76 2600 180/16 RMK AO2 PRESRR
94908KDBQ DBQ20050604121009706/04/05 12:10:31  5-MIN KDBQ 041810Z 19017KT 6SM HZ CLR 23/19 A2972 1270  76 2600 190/17 RMK AO2
94908KDBQ DBQ20050604121510006/04/05 12:15:31  5-MIN KDBQ 041815Z 19016KT 6SM HZ FEW019 23/19 A2972  1270 78 2600 190/16 RMK AO2
94908KDBQ DBQ20050604122009706/04/05 12:20:31  5-MIN KDBQ 041820Z 17014KT 7SM FEW019 24/19 A2971 1270  76 2600 170/14 RMK AO2
94908KDBQ DBQ20050604122509706/04/05 12:25:31  5-MIN KDBQ 041825Z 17016KT 7SM SCT019 23/19 A2971 1270  78 2600 170/16 RMK AO2
94908KDBQ DBQ20050604123010006/04/05 12:30:31  5-MIN KDBQ 041830Z 16015KT 6SM HZ SCT019 24/19 A2971  1270 76 2600 160/15 RMK AO2
94908KDBQ DBQ20050604123509706/04/05 12:35:31  5-MIN KDBQ 041835Z 17014KT 7SM SCT019 24/19 A2971 1280  73 2700 170/14 RMK AO2
94908KDBQ DBQ20050604124009706/04/05 12:40:31  5-MIN KDBQ 041840Z 17012KT 7SM SCT019 24/19 A2970 1280  73 2600 170/12 RMK AO2
94908KDBQ DBQ20050604124509706/04/05 12:45:31  5-MIN KDBQ 041845Z 18012KT 7SM FEW019 24/19 A2970 1280  76 2600 180/12 RMK AO2
94908KDBQ DBQ20050604125011406/04/05 12:50:31  5-MIN KDBQ 041850Z 18014KT 7SM FEW017 24/20 A2970 1280  76 2700 180/14 RMK AO2 SLP051 T02440200
94908KDBQ DBQ20050604125511406/04/05 12:55:31  5-MIN KDBQ 041855Z 17013KT 8SM FEW017 24/19 A2970 1280  73 2700 170/13 RMK AO2 SLP051 T02440194
94908KDBQ DBQ20050604130009406/04/05 13:00:31  5-MIN KDBQ 041900Z 16016KT 7SM CLR 24/19 A2970 1280 73  2700 160/16 RMK AO2
94908KDBQ DBQ20050604130509406/04/05 13:05:31  5-MIN KDBQ 041905Z 17017KT 7SM CLR 25/20 A2970 1280 73  2800 170/17 RMK AO2
94908KDBQ DBQ20050604131010506/04/05 13:10:31  5-MIN KDBQ 041910Z 18013G20KT 6SM HZ FEW021 24/20 A2971 1280 76 2700 180/13G20 RMK AO2
94908KDBQ DBQ20050604131510306/04/05 13:15:31  5-MIN KDBQ 041915Z 19017G20KT 7SM FEW021 25/20 A2970  1280 73 2800 190/17G20 RMK AO2
94908KDBQ DBQ20050604132009406/04/05 13:20:31  5-MIN KDBQ 041920Z 18017KT 8SM CLR 25/19 A2970 1280 71  2800 180/17 RMK AO2
94908KDBQ DBQ20050604132509406/04/05 13:25:31  5-MIN KDBQ 041925Z 17015KT 8SM CLR 25/19 A2970 1290 71  2800 170/15 RMK AO2
94908KDBQ DBQ20050604133009406/04/05 13:30:31  5-MIN KDBQ 041930Z 18015KT 8SM CLR 25/19 A2970 1290 71  2800 180/15 RMK AO2
94908KDBQ DBQ20050604133509406/04/05 13:35:31  5-MIN KDBQ 041935Z 18014KT 8SM CLR 25/19 A2969 1290 71  2800 180/14 RMK AO2
94908KDBQ DBQ20050604134009406/04/05 13:40:31  5-MIN KDBQ 041940Z 19015KT 9SM CLR 25/19 A2969 1290 68  2800 190/15 RMK AO2
94908KDBQ DBQ20050604134510006/04/05 13:45:31  5-MIN KDBQ 041945Z 17015G21KT 9SM CLR 25/18 A2969 1290  66 2800 170/15G21 RMK AO2
94908KDBQ DBQ20050604135011706/04/05 13:50:31  5-MIN KDBQ 041950Z 19012G21KT 9SM CLR 26/18 A2970 1290  64 2800 190/12G21 RMK AO2 SLP050 T02560183
94908KDBQ DBQ20050604135511706/04/05 13:55:31  5-MIN KDBQ 041955Z 18015G21KT 10SM CLR 26/19 A2970 1290 66 2800 180/15G21 RMK AO2 SLP050 T02560189
94908KDBQ DBQ20050604140010006/04/05 14:00:31  5-MIN KDBQ 042000Z 20014G21KT 10SM CLR 26/18 A2970 1290 61 2800 200/14G21 RMK AO2
94908KDBQ DBQ20050604140510006/04/05 14:05:31  5-MIN KDBQ 042005Z 19016G20KT 10SM CLR 26/18 A2970 1280 64 2800 190/16G20 RMK AO2
94908KDBQ DBQ20050604141010006/04/05 14:10:31  5-MIN KDBQ 042010Z 19014G20KT 10SM CLR 26/18 A2969 1290 64 2800 190/14G20 RMK AO2
94908KDBQ DBQ20050604141509406/04/05 14:15:31  5-MIN KDBQ 042015Z 20018KT 10SM CLR 26/18 A2970 1280 62 2900 200/18 RMK AO2
94908KDBQ DBQ20050604142009406/04/05 14:20:31  5-MIN KDBQ 042020Z 20016KT 10SM CLR 26/18 A2970 1280 62 2900 200/16 RMK AO2
94908KDBQ DBQ20050604142509406/04/05 14:25:31  5-MIN KDBQ 042025Z 20017KT 10SM CLR 26/18 A2970 1280 62 2900 200/17 RMK AO2
94908KDBQ DBQ20050604143009406/04/05 14:30:31  5-MIN KDBQ 042030Z 20015KT 10SM CLR 26/18 A2971 1280 59 2900 200/15 RMK AO2
94908KDBQ DBQ20050604143509706/04/05 14:35:31  5-MIN KDBQ 042035Z 21018KT 10SM FEW042 26/18 A2971 1280 59 2900 210/18 RMK AO2
94908KDBQ DBQ20050604144010406/04/05 14:40:31  5-MIN KDBQ 042040Z 21016G22KT 10SM FEW042 26/18 A2971  1280 59 2900 210/16G22 RMK AO2
94908KDBQ DBQ20050604144510406/04/05 14:45:31  5-MIN KDBQ 042045Z 22018G23KT 10SM FEW042 26/18 A2969  1290 61 2800 210/18G23 RMK AO2
94908KDBQ DBQ20050604145012706/04/05 14:50:31  5-MIN KDBQ 042050Z 21017G23KT 10SM SCT042 25/17 A2971  1280 61 2800 210/17G23 RMK AO2 SLP053 T02500172 58019
94908KDBQ DBQ20050604145512006/04/05 14:55:31  5-MIN KDBQ 042055Z 21017KT 10SM SCT040 26/18 A2971 1280 61 2800 210/17 RMK AO2 SLP053 T02560178 51006
94908KDBQ DBQ20050604150009706/04/05 15:00:31  5-MIN KDBQ 042100Z 22017KT 10SM SCT040 26/18 A2971 1270 59 2900 220/17 RMK AO2
94908KDBQ DBQ20050604150509706/04/05 15:05:31  5-MIN KDBQ 042105Z 22017KT 10SM SCT042 26/18 A2971 1270 59 2900 210/17 RMK AO2
94908KDBQ DBQ20050604151009706/04/05 15:10:31  5-MIN KDBQ 042110Z 22015KT 10SM BKN042 26/18 A2971 1270 61 2800 220/15 RMK AO2
94908KDBQ DBQ20050604151509706/04/05 15:15:31  5-MIN KDBQ 042115Z 22016KT 10SM BKN042 26/18 A2971 1270 61 2800 220/16 RMK AO2
94908KDBQ DBQ20050604152009706/04/05 15:20:31  5-MIN KDBQ 042120Z 21012KT 10SM BKN042 26/18 A2971 1270 64 2800 210/12 RMK AO2
94908KDBQ DBQ20050604152510506/04/05 15:25:31  5-MIN KDBQ 042125Z 21014KT 10SM SCT038 BKN047 26/19  A2971 1270 64 2900 210/14 RMK AO2
94908KDBQ DBQ20050604153010506/04/05 15:30:31  5-MIN KDBQ 042130Z 22018KT 10SM SCT038 BKN047 26/19  A2972 1270 64 2900 220/18 RMK AO2
94908KDBQ DBQ20050604153510506/04/05 15:35:31  5-MIN KDBQ 042135Z 21017KT 10SM SCT038 BKN047 26/19  A2971 1270 64 2900 210/17 RMK AO2
94908KDBQ DBQ20050604154011106/04/05 15:40:31  5-MIN KDBQ 042140Z 22015G22KT 10SM SCT036 BKN047 26/19  A2971 1270 64 2900 220/15G22 RMK AO2
94908KDBQ DBQ20050604154510506/04/05 15:45:31  5-MIN KDBQ 042145Z 22013KT 10SM SCT038 BKN047 26/19  A2972 1270 66 2800 220/13 RMK AO2
94908KDBQ DBQ20050604155012906/04/05 15:50:31  5-MIN KDBQ 042150Z 21016KT 10SM FEW035 BKN044 BKN049  26/19 A2972 1270 66 2800 210/16 RMK AO2 SLP057 T02560189
94908KDBQ DBQ20050604155512206/04/05 15:55:31  5-MIN KDBQ 042155Z 20013KT 10SM SCT037 BKN046 26/19  A2972 1270 66 2800 200/13 RMK AO2 SLP057 T02560189
94908KDBQ DBQ20050604160011206/04/05 16:00:31  5-MIN KDBQ 042200Z 20016KT 10SM SCT037 BKN046 BKN055  26/19 A2972 1270 66 2800 200/16 RMK AO2
94908KDBQ DBQ20050604160511706/04/05 16:05:31  5-MIN KDBQ 042205Z 21012G18KT 10SM FEW031 BKN042 BKN050 26/19 A2972 1270 68 2800 210/12G18 RMK AO2
94908KDBQ DBQ20050604161011706/04/05 16:10:31  5-MIN KDBQ 042210Z 22015G20KT 10SM FEW033 BKN042 BKN050 26/19 A2971 1270 66 2800 220/15G20 RMK AO2
94908KDBQ DBQ20050604161511706/04/05 16:15:31  5-MIN KDBQ 042215Z 20012G20KT 10SM FEW030 BKN042 BKN050 25/19 A2971 1270 71 2800 200/12G20 RMK AO2
94908KDBQ DBQ20050604162011206/04/05 16:20:31  5-MIN KDBQ 042220Z 21014KT 10SM FEW032 SCT043 BKN055  26/19 A2971 1270 66 2900 210/14 RMK AO2
94908KDBQ DBQ20050604162511206/04/05 16:25:31  5-MIN KDBQ 042225Z 22014KT 10SM FEW032 SCT050 BKN060  26/20 A2971 1270 68 2900 220/14 RMK AO2
94908KDBQ DBQ20050604163010506/04/05 16:30:31  5-MIN KDBQ 042230Z 21016KT 10SM FEW030 SCT050 26/19  A2971 1270 68 2800 210/16 RMK AO2
94908KDBQ DBQ20050604163510506/04/05 16:35:31  5-MIN KDBQ 042235Z 21012KT 10SM FEW037 SCT050 26/19  A2971 1270 68 2800 210/12 RMK AO2
94908KDBQ DBQ20050604164011206/04/05 16:40:31  5-MIN KDBQ 042240Z 20016KT 10SM FEW034 SCT050 SCT055  26/20 A2971 1270 68 2900 190/16 RMK AO2
94908KDBQ DBQ20050604164511106/04/05 16:45:31  5-MIN KDBQ 042245Z 20012G19KT 10SM FEW032 SCT047 26/19  A2971 1270 68 2800 200/12G19 RMK AO2
94908KDBQ DBQ20050604165012206/04/05 16:50:31  5-MIN KDBQ 042250Z 20016KT 10SM FEW030 SCT047 26/19  A2971 1270 66 2900 200/16 RMK AO2 SLP054 T02610194
94908KDBQ DBQ20050604165512906/04/05 16:55:31  5-MIN KDBQ 042255Z 20017KT 10SM FEW034 SCT045 SCT050  26/19 A2971 1280 66 2900 200/17 RMK AO2 SLP054 T02610194
94908KDBQ DBQ20050604170010506/04/05 17:00:31  5-MIN KDBQ 042300Z 20016KT 10SM FEW034 SCT047 26/19  A2971 1270 68 2800 200/16 RMK AO2
94908KDBQ DBQ20050604170510506/04/05 17:05:31  5-MIN KDBQ 042305Z 22016KT 10SM FEW031 SCT050 26/19  A2970 1280 66 2900 210/16 RMK AO2
94908KDBQ DBQ20050604171009706/04/05 17:10:31  5-MIN KDBQ 042310Z 20013KT 10SM FEW043 26/20 A2971 1280 71 2800 200/13 RMK AO2
94908KDBQ DBQ20050604171509706/04/05 17:15:31  5-MIN KDBQ 042315Z 20017KT 10SM FEW050 26/19 A2971 1280 68 2800 200/17 RMK AO2
94908KDBQ DBQ20050604172009406/04/05 17:20:31  5-MIN KDBQ 042320Z 21012KT 10SM CLR 26/19 A2971 1280 68 2800 210/12 RMK AO2
94908KDBQ DBQ20050604172509406/04/05 17:25:31  5-MIN KDBQ 042325Z 20014KT 10SM CLR 26/19 A2970 1280 66 2900 200/14 RMK AO2
94908KDBQ DBQ20050604173009406/04/05 17:30:31  5-MIN KDBQ 042330Z 20015KT 10SM CLR 26/20 A2971 1280 68 2900 200/15 RMK AO2
94908KDBQ DBQ20050604173509406/04/05 17:35:31  5-MIN KDBQ 042335Z 21012KT 10SM CLR 26/20 A2971 1270 68 2900 210/12 RMK AO2
94908KDBQ DBQ20050604174009406/04/05 17:40:31  5-MIN KDBQ 042340Z 20012KT 10SM CLR 26/20 A2971 1270 68 2900 200/12 RMK AO2
94908KDBQ DBQ20050604174509406/04/05 17:45:31  5-MIN KDBQ 042345Z 21014KT 10SM CLR 26/19 A2971 1270 66 2900 210/14 RMK AO2
94908KDBQ DBQ20050604175012906/04/05 17:50:31  5-MIN KDBQ 042350Z 20011KT 10SM CLR 26/19 A2971 1270 66 2900 200/11 RMK AO2 SLP055 T02610194 10261 20228 51006
94908KDBQ DBQ20050604175512906/04/05 17:55:31  5-MIN KDBQ 042355Z 20012KT 10SM CLR 26/20 A2971 1270 68 2900 200/12 RMK AO2 SLP055 T02610200 10261 20228 51002
94908KDBQ DBQ20050604180009406/04/05 18:00:31  5-MIN KDBQ 050000Z 20013KT 10SM CLR 26/20 A2971 1270 68 2900 190/13 RMK AO2
94908KDBQ DBQ20050604180509406/04/05 18:05:31  5-MIN KDBQ 050005Z 20011KT 10SM CLR 26/20 A2971 1270 71 2800 200/11 RMK AO2
94908KDBQ DBQ20050604181009406/04/05 18:10:31  5-MIN KDBQ 050010Z 20012KT 10SM CLR 26/20 A2972 1270 71 2800 200/12 RMK AO2
94908KDBQ DBQ20050604181509406/04/05 18:15:31  5-MIN KDBQ 050015Z 20011KT 10SM CLR 26/20 A2972 1270 71 2800 200/11 RMK AO2
94908KDBQ DBQ20050604182010506/04/05 18:20:31  5-MIN KDBQ 050020Z AUTO 20010KT 10SM CLR 26/20 A2972  1270 71 2800 200/10 RMK AO2 TSNO
94908KDBQ DBQ20050604182510506/04/05 18:25:31  5-MIN KDBQ 050025Z AUTO 20009KT 10SM CLR 26/20 A2971  1270 71 2800 200/09 RMK AO2 TSNO
94908KDBQ DBQ20050604183010506/04/05 18:30:31  5-MIN KDBQ 050030Z AUTO 20010KT 10SM CLR 26/20 A2972  1270 71 2800 200/10 RMK AO2 TSNO
94908KDBQ DBQ20050604183510506/04/05 18:35:31  5-MIN KDBQ 050035Z AUTO 20008KT 10SM CLR 25/20 A2971  1270 73 2800 190/08 RMK AO2 TSNO
94908KDBQ DBQ20050604184010506/04/05 18:40:31  5-MIN KDBQ 050040Z AUTO 19008KT 10SM CLR 25/20 A2971  1280 73 2800 190/08 RMK AO2 TSNO
94908KDBQ DBQ20050604184510506/04/05 18:45:31  5-MIN KDBQ 050045Z AUTO 19008KT 10SM CLR 25/20 A2970  1290 73 2800 190/08 RMK AO2 TSNO
94908KDBQ DBQ20050604185012406/04/05 18:50:31  5-MIN KDBQ 050050Z AUTO 18008KT 10SM FEW070 24/20 A2971 1280 76 2700 180/08 RMK AO2 SLP053 T02440200 TSNO
94908KDBQ DBQ20050604185512406/04/05 18:55:31  5-MIN KDBQ 050055Z AUTO 19008KT 10SM FEW070 24/20 A2970 1280 76 2700 180/08 RMK AO2 SLP052 T02440200 TSNO
94908KDBQ DBQ20050604190010706/04/05 19:00:31  5-MIN KDBQ 050100Z AUTO 19008KT 10SM FEW070 24/20 A2970 1280 76 2700 190/08 RMK AO2 TSNO
94908KDBQ DBQ20050604190510706/04/05 19:05:31  5-MIN KDBQ 050105Z AUTO 19008KT 10SM SCT065 24/20 A2970 1280 76 2700 190/08 RMK AO2 TSNO
94908KDBQ DBQ20050604191010706/04/05 19:10:31  5-MIN KDBQ 050110Z AUTO 18008KT 10SM SCT065 24/20 A2970 1280 76 2700 180/08 RMK AO2 TSNO
94908KDBQ DBQ20050604191510706/04/05 19:15:31  5-MIN KDBQ 050115Z AUTO 18008KT 10SM FEW060 24/20 A2970 1280 76 2700 180/08 RMK AO2 TSNO
94908KDBQ DBQ20050604192010706/04/05 19:20:31  5-MIN KDBQ 050120Z AUTO 17008KT 9SM FEW060 24/20 A2970  1280 78 2600 170/08 RMK AO2 TSNO
94908KDBQ DBQ20050604192510706/04/05 19:25:31  5-MIN KDBQ 050125Z AUTO 16007KT 9SM FEW060 24/20 A2970  1280 78 2600 160/07 RMK AO2 TSNO
94908KDBQ DBQ20050604193010706/04/05 19:30:31  5-MIN KDBQ 050130Z AUTO 16007KT 9SM FEW060 24/20 A2970  1290 78 2600 160/07 RMK AO2 TSNO
94908KDBQ DBQ20050604193510306/04/05 19:35:31  5-MIN KDBQ 050135Z AUTO 16007KT 9SM CLR 23/20 A2970 1290 81 2600 160/07 RMK AO2 TSNO
94908KDBQ DBQ20050604194010306/04/05 19:40:31  5-MIN KDBQ 050140Z AUTO 16008KT 9SM CLR 23/20 A2969 1290 81 2600 160/08 RMK AO2 TSNO
94908KDBQ DBQ20050604194510306/04/05 19:45:31  5-MIN KDBQ 050145Z AUTO 16008KT 9SM CLR 23/20 A2969 1290 81 2600 160/08 RMK AO2 TSNO
94908KDBQ DBQ20050604195012006/04/05 19:50:31  5-MIN KDBQ 050150Z AUTO 16008KT 9SM CLR 23/20 A2969 1290 81 2600 160/08 RMK AO2 SLP047 T02330200 TSNO
94908KDBQ DBQ20050604195512206/04/05 19:55:31  5-MIN KDBQ 050155Z AUTO 17008KT 10SM CLR 23/20 A2969  1290 81 2600 170/08 RMK AO2 SLP048 T02330200 TSNO
94908KDBQ DBQ20050604200010506/04/05 20:00:31  5-MIN KDBQ 050200Z AUTO 17008KT 10SM CLR 23/20 A2969  1290 81 2600 170/08 RMK AO2 TSNO
94908KDBQ DBQ20050604200510506/04/05 20:05:31  5-MIN KDBQ 050205Z AUTO 17007KT 10SM CLR 23/20 A2969  1300 84 2500 160/07 RMK AO2 TSNO
94908KDBQ DBQ20050604201010506/04/05 20:10:31  5-MIN KDBQ 050210Z AUTO 17007KT 10SM CLR 23/20 A2969  1300 81 2600 170/07 RMK AO2 TSNO
94908KDBQ DBQ20050604201510506/04/05 20:15:31  5-MIN KDBQ 050215Z AUTO 17007KT 10SM CLR 23/20 A2969  1290 81 2600 160/07 RMK AO2 TSNO
94908KDBQ DBQ20050604202010506/04/05 20:20:31  5-MIN KDBQ 050220Z AUTO 17006KT 10SM CLR 23/20 A2969  1290 84 2500 170/06 RMK AO2 TSNO
94908KDBQ DBQ20050604202510506/04/05 20:25:31  5-MIN KDBQ 050225Z AUTO 16005KT 10SM CLR 23/20 A2969  1300 84 2500 160/05 RMK AO2 TSNO
94908KDBQ DBQ20050604203010706/04/05 20:30:31  5-MIN KDBQ 050230Z AUTO 16005KT 9SM FEW070 23/20 A2969  1300 84 2500 160/05 RMK AO2 TSNO
94908KDBQ DBQ20050604203510706/04/05 20:35:31  5-MIN KDBQ 050235Z AUTO 17005KT 9SM FEW070 23/19 A2969  1300 81 2500 170/05 RMK AO2 TSNO
94908KDBQ DBQ20050604204010706/04/05 20:40:31  5-MIN KDBQ 050240Z AUTO 18005KT 9SM FEW070 23/20 A2969  1290 84 2500 170/05 RMK AO2 TSNO
94908KDBQ DBQ20050604204510706/04/05 20:45:31  5-MIN KDBQ 050245Z AUTO 20003KT 9SM FEW070 22/19 A2970  1280 87 2400 200/03 RMK AO2 TSNO
94908KDBQ DBQ20050604205013006/04/05 20:50:31  5-MIN KDBQ 050250Z AUTO 16005KT 9SM FEW070 22/19 A2969  1290 84 2500 160/05 RMK AO2 SLP049 T02220194 51002 TSNO
94908KDBQ DBQ20050604205513006/04/05 20:55:31  5-MIN KDBQ 050255Z AUTO 15009KT 9SM FEW070 23/20 A2969  1300 84 2500 150/09 RMK AO2 SLP047 T02280200 56009 TSNO
94908KDBQ DBQ20050604210010306/04/05 21:00:31  5-MIN KDBQ 050300Z AUTO 16009KT 9SM CLR 23/20 A2969 1290 81 2600 160/09 RMK AO2 TSNO
94908KDBQ DBQ20050604210510306/04/05 21:05:31  5-MIN KDBQ 050305Z AUTO 15009KT 9SM CLR 23/20 A2969 1290 81 2600 150/09 RMK AO2 TSNO
94908KDBQ DBQ20050604211010506/04/05 21:10:31  5-MIN KDBQ 050310Z AUTO 16010KT 10SM CLR 23/20 A2970  1290 81 2600 160/10 RMK AO2 TSNO
94908KDBQ DBQ20050604211510506/04/05 21:15:31  5-MIN KDBQ 050315Z AUTO 16008KT 10SM CLR 23/20 A2970  1280 81 2600 160/08 RMK AO2 TSNO
94908KDBQ DBQ20050604212010506/04/05 21:20:31  5-MIN KDBQ 050320Z AUTO 15007KT 10SM CLR 23/20 A2970  1290 81 2600 150/07 RMK AO2 TSNO
94908KDBQ DBQ20050604212510506/04/05 21:25:31  5-MIN KDBQ 050325Z AUTO 15008KT 10SM CLR 23/20 A2970  1280 81 2600 150/08 RMK AO2 TSNO
94908KDBQ DBQ20050604213010506/04/05 21:30:31  5-MIN KDBQ 050330Z AUTO 15008KT 10SM CLR 23/20 A2970  1280 81 2600 150/08 RMK AO2 TSNO
94908KDBQ DBQ20050604213510506/04/05 21:35:31  5-MIN KDBQ 050335Z AUTO 15008KT 10SM CLR 23/20 A2969  1290 81 2600 150/08 RMK AO2 TSNO
94908KDBQ DBQ20050604214010506/04/05 21:40:31  5-MIN KDBQ 050340Z AUTO 15007KT 10SM CLR 23/20 A2969  1290 81 2600 150/07 RMK AO2 TSNO
94908KDBQ DBQ20050604214510506/04/05 21:45:31  5-MIN KDBQ 050345Z AUTO 15007KT 10SM CLR 23/20 A2969  1300 81 2600 150/07 RMK AO2 TSNO
94908KDBQ DBQ20050604215012206/04/05 21:50:31  5-MIN KDBQ 050350Z AUTO 14004KT 10SM CLR 23/20 A2968  1300 81 2600 140/04 RMK AO2 SLP043 T02330200 TSNO
94908KDBQ DBQ20050604215512206/04/05 21:55:31  5-MIN KDBQ 050355Z AUTO 14004KT 10SM CLR 23/20 A2968  1300 81 2600 140/04 RMK AO2 SLP043 T02330200 TSNO
94908KDBQ DBQ20050604220010306/04/05 22:00:31  5-MIN KDBQ 050400Z AUTO 14005KT 9SM CLR 23/20 A2967 1310 81 2600 140/05 RMK AO2 TSNO
94908KDBQ DBQ20050604220510306/04/05 22:05:31  5-MIN KDBQ 050405Z AUTO 14006KT 9SM CLR 23/20 A2966 1320 84 2600 140/06 RMK AO2 TSNO
94908KDBQ DBQ20050604221010706/04/05 22:10:31  5-MIN KDBQ 050410Z AUTO 15007KT 9SM FEW070 23/20 A2966  1320 81 2600 150/07 RMK AO2 TSNO
94908KDBQ DBQ20050604221510706/04/05 22:15:31  5-MIN KDBQ 050415Z AUTO 14009KT 10SM FEW070 24/20 A2965 1330 78 2700 130/09 RMK AO2 TSNO
94908KDBQ DBQ20050604222010706/04/05 22:20:31  5-MIN KDBQ 050420Z AUTO 13008KT 10SM FEW070 24/19 A2965 1330 76 2700 130/08 RMK AO2 TSNO
94908KDBQ DBQ20050604222511406/04/05 22:25:31  5-MIN KDBQ 050425Z AUTO 12007KT 9SM FEW070 23/20 A2964  1340 81 2700 120/07 RMK AO2 PRESFR TSNO
94908KDBQ DBQ20050604223010706/04/05 22:30:31  5-MIN KDBQ 050430Z AUTO 13007KT 9SM FEW070 23/20 A2965  1330 81 2600 130/07 RMK AO2 TSNO
94908KDBQ DBQ20050604223512306/04/05 22:35:31  5-MIN KDBQ 050435Z AUTO 15010KT 8SM -RA FEW048 23/20  A2966 1320 84 2600 150/10 RMK AO2 RAB35 P0000 TSNO
94908KDBQ DBQ20050604224013006/04/05 22:40:31  5-MIN KDBQ 050440Z AUTO 16010KT 8SM -RA SCT050 SCT075  23/20 A2966 1320 81 2600 160/10 RMK AO2 RAB35 P0001 TSNO
94908KDBQ DBQ20050604224513006/04/05 22:45:31  5-MIN KDBQ 050445Z AUTO 16013KT 8SM -RA SCT060 SCT075  23/20 A2967 1310 81 2600 160/13 RMK AO2 RAB35 P0001 TSNO
94908KDBQ DBQ20050604225015306/04/05 22:50:31  5-MIN KDBQ 050450Z AUTO 17012G21KT 9SM -RA SCT060 23/18 A2969 1290 70 2600 170/12G21 RMK AO2 RAB35 PRESRR SLP048 P0001 T02330178  TSNO
94908KDBQ DBQ20050604225515306/04/05 22:55:31  5-MIN KDBQ 050455Z AUTO 19011G21KT 10SM SCT055 23/16  A2971 1270 63 2600 190/11G21 RMK AO2 RAB35E52 PRESRR SLP055 P0001 T02330161 TSNO
94908KDBQ DBQ20050604230018706/04/05 23:00:31  5-MIN KDBQ 050500Z AUTO 25037G46KT 2 1/2SM -RA SQ FEW014 BKN055 BKN100 22/18 A2979 1200 78 2300 250/37G46 RMK AO2 PK WND 25046/0500 WSHFT 0446 RAB0457 PRESRR P0000 TSNO
94908KDBQ DBQ20050604230519006/04/05 23:05:31  5-MIN KDBQ 050505Z AUTO 25038G56KT 1/2SM +RA FG SQ  FEW012 SCT021 BKN050 18/17 A2982 1170 96 1800 250/38G56 RMK AO2 PK WND  25056/0501 WSHFT 0446 RAB0457 PRESRR P0004 TSNO
94908KDBQ DBQ20050604231017306/04/05 23:10:31  5-MIN KDBQ 050510Z AUTO 28033G56KT 1/4SM +RA FG BKN011  BKN050 17/17 A2981 1180 96 1800 280/33G56 RMK AO2 PK WND 25056/0501 WSHFT  0455 RAB0457 P0029 TSNO
94908KDBQ DBQ20050604231517906/04/05 23:15:31  5-MIN KDBQ 050515Z AUTO 29033G43KT 1/2SM +RA FG BKN008  BKN015 BKN050 17/17 A2980 1190 96 1800 280/33G43 RMK AO2 PK WND 25056/0501 WSHFT 0455 RAB0457 P0053 TSNO
94908KDBQ DBQ20050604232017906/04/05 23:20:31  5-MIN KDBQ 050520Z AUTO 29025G41KT 1 3/4SM RA BR FEW012 BKN020 BKN050 17/17 A2978 1210 96 1800 290/25G41 RMK AO2 PK WND 25056/0501 WSHFT 0455 RAB0457 P0057 TSNO
94908KDBQ DBQ20050604232517706/04/05 23:25:31  5-MIN KDBQ 050525Z AUTO 30024G36KT 5SM RA BR FEW012  BKN027 OVC050 17/17 A2977 1220 100 1800 300/24G36 RMK AO2 PK WND 25056/0501 WSHFT 0455 RAB0457 P0058 TSNO
94908KDBQ DBQ20050604233017606/04/05 23:30:31  5-MIN KDBQ 050530Z AUTO 28027G32KT 6SM RA BR BKN029  BKN055 OVC100 17/17 A2975 1230 96 1800 280/27G32 RMK AO2 PK WND 25056/0501 WSHFT 0455 RAB0457 P0059 TSNO
94908KDBQ DBQ20050604233517006/04/05 23:35:31  5-MIN KDBQ 050535Z AUTO 28025G32KT 6SM RA BR BKN035  OVC100 17/17 A2976 1230 100 1800 280/25G32 RMK AO2 PK WND 25056/0501 WSHFT 0455 RAB0457 P0060 TSNO
94908KDBQ DBQ20050604234016806/04/05 23:40:31  5-MIN KDBQ 050540Z AUTO 29025G32KT 7SM -RA BKN047 OVC110 17/17 A2975 1240 100 1800 290/25G32 RMK AO2 PK WND 25056/0501 WSHFT 0455  RAB0457 P0061 TSNO
94908KDBQ DBQ20050604234516006/04/05 23:45:31  5-MIN KDBQ 050545Z AUTO 28022G29KT 9SM -RA OVC049 17/17 A2976 1230 96 1800 280/22G29 RMK AO2 PK WND 25056/0501 WSHFT 0455 RAB0457  P0061 TSNO
94908KDBQ DBQ20050604235021106/04/05 23:50:31  5-MIN KDBQ 050550Z AUTO 27022G27KT 10SM -RA OVC049 18/17 A2975 1240 96 1900 270/22G27 RMK AO2 PK WND 25056/0501 WSHFT 0455 RAB0457 SLP069 P0062 60063 T01780172 10261 20172 402610172 56009 TSNO
94908KDBQ DBQ20050604235521106/04/05 23:55:31  5-MIN KDBQ 050555Z AUTO 27024G27KT 9SM -RA OVC049 18/17 A2976 1230 96 1900 270/24G27 RMK AO2 PK WND 25056/0501 WSHFT 0455 RAB0457  SLP071 P0063 60064 T01780172 10261 20172 402610172 53024 TSNO
94908KDBQ DBQ20050605000014606/05/05 00:00:38  5-MIN KDBQ 050600Z AUTO 27023G27KT 6SM RA BR OVC049  18/18 A2975 1230 100 1900 270/23G27 RMK AO2 PK WND 28027/0600 P0002 TSNO $
94908KDBQ DBQ20050605000514706/05/05 00:05:31  5-MIN KDBQ 050605Z AUTO 28020G28KT 5SM +RA BR OVC044  18/18 A2975 1240 100 1900 280/20G28 RMK AO2 PK WND 28028/0603 P0003 TSNO $
94908KDBQ DBQ20050605001015406/05/05 00:10:31  5-MIN KDBQ 050610Z AUTO 29017G28KT 5SM +RA BR OVC041  18/18 A2973 1260 100 1900 290/17G28 RMK AO2 PK WND 28028/0603 PRESFR P0006 TSNO $
94908KDBQ DBQ20050605001513306/05/05 00:15:32  5-MIN KDBQ 050615Z AUTO 29015KT 7SM -RA OVC045 18/ A2973 1260 M 2000 290/15 RMK AO2 PK WND 28028/0603 P0006 TSNO $
94908KDBQ DBQ20050605002013206/05/05 00:20:31  5-MIN KDBQ 050620Z AUTO 28013KT 9SM RA OVC045 18/ A2973 1250 M 2000 280/13 RMK AO2 PK WND 28028/0603 P0006 TSNO $
94908KDBQ DBQ20050605002513206/05/05 00:25:31  5-MIN KDBQ 050625Z AUTO 28009KT 7SM RA OVC041 18/ A2973 1260 M 1900 280/09 RMK AO2 PK WND 28028/0603 P0008 TSNO $
94908KDBQ DBQ20050605003013206/05/05 00:30:31  5-MIN KDBQ 050630Z AUTO 26009KT 7SM RA OVC039 18/ A2974 1250 M 1900 260/09 RMK AO2 PK WND 28028/0603 P0009 TSNO $
94908KDBQ DBQ20050605003513206/05/05 00:35:31  5-MIN KDBQ 050635Z AUTO 27010KT 7SM RA OVC041 18/ A2972 1260 M 1900 270/10 RMK AO2 PK WND 28028/0603 P0009 TSNO $
94908KDBQ DBQ20050605004013206/05/05 00:40:31  5-MIN KDBQ 050640Z AUTO 27009KT 6SM RA OVC041 18/ A2974 1250 M 1900 270/09 RMK AO2 PK WND 28028/0603 P0011 TSNO $
94908KDBQ DBQ20050605004513306/05/05 00:45:31  5-MIN KDBQ 050645Z AUTO 28010KT 5SM +RA OVC035 18/ A2971 1270 M 1900 280/10 RMK AO2 PK WND 28028/0603 P0013 TSNO $
94908KDBQ DBQ20050605005014506/05/05 00:50:31  5-MIN KDBQ 050650Z AUTO 28007KT 5SM RA OVC033 18/ A2972 1270 M 1900 280/07 RMK AO2 PK WND 28028/0603 SLP058 P0014 T0178 TSNO $
94908KDBQ DBQ20050605005514606/05/05 00:55:31  5-MIN KDBQ 050655Z AUTO 00000KT 8SM -RA BKN033 18/ A2970 1280 M 1900 000/00 RMK AO2 PK WND 28028/0603 SLP053 P0015 T0178 TSNO $
94908KDBQ DBQ20050605010011706/05/05 01:00:31  5-MIN KDBQ 050700Z AUTO 12004KT 10SM -RA BKN033 18/  A2970 1280 M 1900 110/04 RMK AO2 P0000 TSNO $
94908KDBQ DBQ20050605010511706/05/05 01:05:31  5-MIN KDBQ 050705Z AUTO 11004KT 10SM -RA SCT031 17/  A2970 1280 M 1900 110/04 RMK AO2 P0000 TSNO $
94908KDBQ DBQ20050605011012606/05/05 01:10:31  5-MIN KDBQ 050710Z AUTO 11005KT 10SM FEW029 SCT120 17/  A2970 1280 M 1900 100/05 RMK AO2 RAE06 P0000 TSNO $
94908KDBQ DBQ20050605011512606/05/05 01:15:31  5-MIN KDBQ 050715Z AUTO 12006KT 10SM FEW041 BKN120 17/  A2970 1280 M 1900 120/06 RMK AO2 RAE06 P0000 TSNO $
94908KDBQ DBQ20050605012012606/05/05 01:20:31  5-MIN KDBQ 050720Z AUTO 13005KT 10SM FEW100 BKN120 18/  A2970 1280 M 1900 130/05 RMK AO2 RAE06 P0000 TSNO $
94908KDBQ DBQ20050605012512606/05/05 01:25:31  5-MIN KDBQ 050725Z AUTO 13005KT 10SM SCT095 BKN120 18/  A2971 1270 M 1900 130/05 RMK AO2 RAE06 P0000 TSNO $
94908KDBQ DBQ20050605013012606/05/05 01:30:31  5-MIN KDBQ 050730Z AUTO 15005KT 10SM SCT090 BKN110 18/  A2971 1280 M 1900 140/05 RMK AO2 RAE06 P0000 TSNO $
94908KDBQ DBQ20050605013512606/05/05 01:35:31  5-MIN KDBQ 050735Z AUTO 14005KT 10SM BKN090 BKN110 18/  A2972 1260 M 1900 140/05 RMK AO2 RAE06 P0000 TSNO $
94908KDBQ DBQ20050605014012606/05/05 01:40:31  5-MIN KDBQ 050740Z AUTO 14007KT 10SM BKN090 BKN120 18/  A2971 1270 M 1900 140/07 RMK AO2 RAE06 P0000 TSNO $
94908KDBQ DBQ20050605014512606/05/05 01:45:31  5-MIN KDBQ 050745Z AUTO 13010KT 10SM SCT090 BKN120 18/  A2972 1260 M 1900 130/10 RMK AO2 RAE06 P0000 TSNO $
94908KDBQ DBQ20050605015013906/05/05 01:50:31  5-MIN KDBQ 050750Z AUTO 14009KT 10SM SCT090 OVC110 19/  A2973 1260 M 2000 140/09 RMK AO2 RAE06 SLP060 P0000 T0189 TSNO $
94908KDBQ DBQ20050605015514606/05/05 01:55:31  5-MIN KDBQ 050755Z AUTO 14008KT 10SM -RA SCT090 OVC110  18/ A2973 1260 M 1900 140/08 RMK AO2 RAE06B55 SLP060 P0000 T0178 TSNO $
94908KDBQ DBQ20050605020012406/05/05 02:00:31  5-MIN KDBQ 050800Z AUTO 13010KT 10SM -RA SCT090 OVC120  18/ A2973 1250 M 1900 130/10 RMK AO2 P0000 TSNO $
94908KDBQ DBQ20050605020512406/05/05 02:05:31  5-MIN KDBQ 050805Z AUTO 13009KT 10SM -RA SCT090 OVC110  18/ A2972 1260 M 1900 130/09 RMK AO2 P0000 TSNO $
94908KDBQ DBQ20050605021012406/05/05 02:10:31  5-MIN KDBQ 050810Z AUTO 14011KT 10SM -RA BKN090 OVC110  18/ A2972 1260 M 1900 140/11 RMK AO2 P0000 TSNO $
94908KDBQ DBQ20050605021512406/05/05 02:15:31  5-MIN KDBQ 050815Z AUTO 14012KT 10SM -RA BKN085 OVC110  18/ A2972 1260 M 1900 140/12 RMK AO2 P0000 TSNO $
94908KDBQ DBQ20050605022012406/05/05 02:20:31  5-MIN KDBQ 050820Z AUTO 14010KT 10SM -RA BKN085 OVC110  18/ A2972 1260 M 1900 140/10 RMK AO2 P0000 TSNO $
94908KDBQ DBQ20050605022512406/05/05 02:25:31  5-MIN KDBQ 050825Z AUTO 14010KT 10SM -RA SCT090 OVC110  18/ A2973 1250 M 1900 140/10 RMK AO2 P0000 TSNO $
94908KDBQ DBQ20050605023012406/05/05 02:30:31  5-MIN KDBQ 050830Z AUTO 14012KT 10SM -RA SCT090 OVC110  17/ A2972 1260 M 1900 130/12 RMK AO2 P0000 TSNO $
94908KDBQ DBQ20050605023512406/05/05 02:35:31  5-MIN KDBQ 050835Z AUTO 14011KT 10SM -RA SCT085 OVC110  17/ A2973 1250 M 1800 140/11 RMK AO2 P0000 TSNO $
94908KDBQ DBQ20050605024012606/05/05 02:40:31  5-MIN KDBQ 050840Z AUTO 14010KT 10SM SCT080 OVC110 18/  A2970 1280 M 1900 140/10 RMK AO2 RAE39 P0000 TSNO $
94908KDBQ DBQ20050605024512606/05/05 02:45:31  5-MIN KDBQ 050845Z AUTO 15011KT 10SM BKN085 OVC110 18/  A2971 1270 M 1900 150/11 RMK AO2 RAE39 P0000 TSNO $
94908KDBQ DBQ20050605025015906/05/05 02:50:31  5-MIN KDBQ 050850Z AUTO 13010KT 10SM BKN085 OVC110 18/  A2968 1300 M 2000 130/10 RMK AO2 RAE39 PRESFR SLP045 P0000 60015 T0178  53024 TSNO $
94908KDBQ DBQ20050605025515906/05/05 02:55:31  5-MIN KDBQ 050855Z AUTO 13012KT 10SM BKN090 BKN110 18/  A2967 1310 M 2000 130/12 RMK AO2 RAE39 PRESFR SLP040 P0000 60015 T0178  58029 TSNO $
94908KDBQ DBQ20050605030012706/05/05 03:00:31  5-MIN KDBQ 050900Z AUTO 11015G18KT 10SM BKN085 BKN120  18/ A2963 1340 M 2000 110/15G18 RMK AO2 PRESFR TSNO $
94908KDBQ DBQ20050605030512106/05/05 03:05:31  5-MIN KDBQ 050905Z AUTO 11013KT 10SM SCT085 BKN120 17/  A2961 1370 M 2000 110/13 RMK AO2 PRESFR TSNO $
94908KDBQ DBQ20050605031010706/05/05 03:10:31  5-MIN KDBQ 050910Z AUTO 11010KT 10SM SCT090 17/ A2961  1360 M 2000 110/10 RMK AO2 TSNO $
94908KDBQ DBQ20050605031510706/05/05 03:15:31  5-MIN KDBQ 050915Z AUTO 12010KT 10SM FEW085 17/ A2962  1350 M 2000 120/10 RMK AO2 TSNO $
94908KDBQ DBQ20050605032010706/05/05 03:20:31  5-MIN KDBQ 050920Z AUTO 11010KT 10SM FEW090 17/ A2962  1360 M 2000 110/10 RMK AO2 TSNO $
94908KDBQ DBQ20050605032510306/05/05 03:25:31  5-MIN KDBQ 050925Z AUTO 11008KT 10SM CLR 17/ A2963 1350 M 2000 110/08 RMK AO2 TSNO $
94908KDBQ DBQ20050605033010306/05/05 03:30:31  5-MIN KDBQ 050930Z AUTO VRB04KT 10SM CLR 17/ A2963 1350 M 2000 VRB/04 RMK AO2 TSNO $
94908KDBQ DBQ20050605033511006/05/05 03:35:31  5-MIN KDBQ 050935Z AUTO 00000KT 10SM CLR 17/ A2965 1330 M 1900 000/00 RMK AO2 PRESRR TSNO $
94908KDBQ DBQ20050605034011006/05/05 03:40:31  5-MIN KDBQ 050940Z AUTO 00000KT 10SM CLR 17/ A2967 1310 M 1900 000/00 RMK AO2 PRESRR TSNO $
94908KDBQ DBQ20050606035012206/06/05 03:50:31  5-MIN KDBQ 060950Z AUTO 23006KT 10SM CLR 16/14 A2985  1140 90 1500 230/06 RMK AO2 SLP105 T01560139 TSNO
94908KDBQ DBQ20050606035512206/06/05 03:55:31  5-MIN KDBQ 060955Z AUTO 23006KT 10SM CLR 16/14 A2985  1150 90 1500 230/06 RMK AO2 SLP103 T01560139 TSNO
94908KDBQ DBQ20050606040010506/06/05 04:00:31  5-MIN KDBQ 061000Z AUTO 23007KT 10SM CLR 16/14 A2985  1140 90 1500 230/07 RMK AO2 TSNO
94908KDBQ DBQ20050606040510506/06/05 04:05:31  5-MIN KDBQ 061005Z AUTO 23007KT 10SM CLR 16/14 A2986  1130 90 1500 220/07 RMK AO2 TSNO
94908KDBQ DBQ20050606041010506/06/05 04:10:31  5-MIN KDBQ 061010Z AUTO 23006KT 10SM CLR 15/14 A2986  1130 93 1400 230/06 RMK AO2 TSNO
94908KDBQ DBQ20050606041510506/06/05 04:15:31  5-MIN KDBQ 061015Z AUTO 23006KT 10SM CLR 15/14 A2986  1130 93 1400 230/06 RMK AO2 TSNO
94908KDBQ DBQ20050606042010306/06/05 04:20:31  5-MIN KDBQ 061020Z AUTO 23006KT 9SM CLR 15/14 A2987 1130 93 1400 230/06 RMK AO2 TSNO
94908KDBQ DBQ20050606042510306/06/05 04:25:31  5-MIN KDBQ 061025Z AUTO 23006KT 8SM CLR 15/14 A2987 1130 93 1400 230/06 RMK AO2 TSNO
94908KDBQ DBQ20050606043010306/06/05 04:30:31  5-MIN KDBQ 061030Z AUTO 23006KT 8SM CLR 15/14 A2987 1130 93 1400 230/06 RMK AO2 TSNO
94908KDBQ DBQ20050606043510306/06/05 04:35:31  5-MIN KDBQ 061035Z AUTO 22006KT 8SM CLR 15/14 A2987 1130 93 1400 220/06 RMK AO2 TSNO
94908KDBQ DBQ20050606044010306/06/05 04:40:31  5-MIN KDBQ 061040Z AUTO 23006KT 8SM CLR 15/14 A2987 1120 93 1400 230/06 RMK AO2 TSNO
94908KDBQ DBQ20050606044510306/06/05 04:45:31  5-MIN KDBQ 061045Z AUTO 23006KT 8SM CLR 15/14 A2987 1120 93 1400 230/06 RMK AO2 TSNO
94908KDBQ DBQ20050606045012006/06/05 04:50:31  5-MIN KDBQ 061050Z AUTO 23006KT 8SM CLR 15/14 A2987 1120 96 1400 230/06 RMK AO2 SLP112 T01500144 TSNO
94908KDBQ DBQ20050606045511106/06/05 04:55:31  5-MIN KDBQ 061055Z 23006KT 8SM CLR 16/14 A2987 1120 93  1500 220/06 RMK AO2 SLP112 T01560144
94908KDBQ DBQ20050606050009406/06/05 05:00:31  5-MIN KDBQ 061100Z 23006KT 8SM CLR 16/14 A2988 1120 93  1500 220/06 RMK AO2
94908KDBQ DBQ20050606050509706/06/05 05:05:31  5-MIN KDBQ 061105Z 22005KT 8SM FEW060 16/14 A2988 1120  93 1500 220/05 RMK AO2
94908KDBQ DBQ20050606051009706/06/05 05:10:31  5-MIN KDBQ 061110Z 23005KT 8SM FEW060 16/14 A2988 1120  93 1500 220/05 RMK AO2
94908KDBQ DBQ20050606051509706/06/05 05:15:31  5-MIN KDBQ 061115Z 22006KT 8SM FEW060 16/14 A2988 1120  93 1500 220/06 RMK AO2
94908KDBQ DBQ20050606052009706/06/05 05:20:31  5-MIN KDBQ 061120Z 22006KT 9SM FEW060 16/14 A2988 1120  93 1500 220/06 RMK AO2
94908KDBQ DBQ20050606052509706/06/05 05:25:31  5-MIN KDBQ 061125Z 22006KT 9SM FEW080 16/15 A2988 1110  93 1500 220/06 RMK AO2
94908KDBQ DBQ20050606053009706/06/05 05:30:31  5-MIN KDBQ 061130Z 22006KT 9SM FEW080 16/15 A2988 1110  93 1500 220/06 RMK AO2
94908KDBQ DBQ20050606053509706/06/05 05:35:31  5-MIN KDBQ 061135Z 22005KT 10SM FEW075 16/15 A2988 1110 93 1500 220/05 RMK AO2
94908KDBQ DBQ20050606054009406/06/05 05:40:31  5-MIN KDBQ 061140Z 22006KT 10SM CLR 17/15 A2988 1110 90 1600 220/06 RMK AO2
94908KDBQ DBQ20050606054509406/06/05 05:45:31  5-MIN KDBQ 061145Z 22006KT 10SM CLR 17/15 A2988 1110 90 1600 220/06 RMK AO2
94908KDBQ DBQ20050606055012906/06/05 05:50:31  5-MIN KDBQ 061150Z 22006KT 10SM CLR 17/16 A2988 1110 93 1600 220/06 RMK AO2 SLP115 T01670156 10167 20150 51014
94908KDBQ DBQ20050606055512906/06/05 05:55:31  5-MIN KDBQ 061155Z 22007KT 10SM CLR 17/16 A2989 1110 90 1700 220/07 RMK AO2 SLP116 T01720156 10172 20150 53015
94908KDBQ DBQ20050606060009406/06/05 06:00:31  5-MIN KDBQ 061200Z 22007KT 10SM CLR 17/16 A2989 1110 90 1700 220/07 RMK AO2
94908KDBQ DBQ20050606060509406/06/05 06:05:31  5-MIN KDBQ 061205Z 23007KT 10SM CLR 17/16 A2989 1110 90 1700 220/07 RMK AO2
94908KDBQ DBQ20050606061009406/06/05 06:10:31  5-MIN KDBQ 061210Z 23007KT 10SM CLR 18/16 A2989 1110 87 1700 230/07 RMK AO2
94908KDBQ DBQ20050606061509406/06/05 06:15:31  5-MIN KDBQ 061215Z 23007KT 10SM CLR 18/16 A2989 1110 87 1700 230/07 RMK AO2
94908KDBQ DBQ20050606062009406/06/05 06:20:31  5-MIN KDBQ 061220Z 24007KT 10SM CLR 18/16 A2989 1110 87 1800 240/07 RMK AO2
94908KDBQ DBQ20050606062509406/06/05 06:25:31  5-MIN KDBQ 061225Z 24007KT 10SM CLR 18/16 A2989 1110 84 1800 240/07 RMK AO2
94908KDBQ DBQ20050606063009406/06/05 06:30:31  5-MIN KDBQ 061230Z 24009KT 10SM CLR 18/16 A2989 1110 87 1800 240/09 RMK AO2
94908KDBQ DBQ20050606063509406/06/05 06:35:31  5-MIN KDBQ 061235Z 24010KT 10SM CLR 18/16 A2988 1110 84 1800 240/10 RMK AO2
94908KDBQ DBQ20050606064009406/06/05 06:40:31  5-MIN KDBQ 061240Z 25008KT 10SM CLR 19/16 A2989 1110 84 1900 240/08 RMK AO2
94908KDBQ DBQ20050606064509406/06/05 06:45:31  5-MIN KDBQ 061245Z 25009KT 10SM CLR 19/16 A2989 1110 84 1900 250/09 RMK AO2
94908KDBQ DBQ20050606065011106/06/05 06:50:31  5-MIN KDBQ 061250Z 25011KT 10SM CLR 19/16 A2989 1110 81 1900 250/11 RMK AO2 SLP115 T01940161
94908KDBQ DBQ20050606065511106/06/05 06:55:31  5-MIN KDBQ 061255Z 25009KT 10SM CLR 19/16 A2989 1110 81 1900 240/09 RMK AO2 SLP116 T01940161
94908KDBQ DBQ20050606070009406/06/05 07:00:31  5-MIN KDBQ 061300Z 25010KT 10SM CLR 19/16 A2989 1110 81 1900 250/10 RMK AO2
94908KDBQ DBQ20050606070509406/06/05 07:05:31  5-MIN KDBQ 061305Z 26011KT 10SM CLR 19/16 A2989 1110 81 1900 250/11 RMK AO2
94908KDBQ DBQ20050606071009406/06/05 07:10:31  5-MIN KDBQ 061310Z 26010KT 10SM CLR 20/16 A2989 1110 78 2000 260/10 RMK AO2
94908KDBQ DBQ20050606071509406/06/05 07:15:31  5-MIN KDBQ 061315Z 26010KT 10SM CLR 20/16 A2989 1110 78 2000 260/10 RMK AO2
94908KDBQ DBQ20050606072009406/06/05 07:20:31  5-MIN KDBQ 061320Z 27010KT 10SM CLR 21/16 A2989 1110 75 2000 270/10 RMK AO2
94908KDBQ DBQ20050606072509406/06/05 07:25:31  5-MIN KDBQ 061325Z 27012KT 10SM CLR 21/16 A2989 1100 75 2000 270/12 RMK AO2
94908KDBQ DBQ20050606073009406/06/05 07:30:31  5-MIN KDBQ 061330Z 27012KT 10SM CLR 21/16 A2989 1100 75 2000 270/12 RMK AO2
94908KDBQ DBQ20050606073509406/06/05 07:35:31  5-MIN KDBQ 061335Z 27013KT 10SM CLR 21/16 A2989 1100 75 2000 270/13 RMK AO2
94908KDBQ DBQ20050606074009406/06/05 07:40:31  5-MIN KDBQ 061340Z 27012KT 10SM CLR 21/16 A2989 1100 73 2100 260/12 RMK AO2
94908KDBQ DBQ20050606074509406/06/05 07:45:31  5-MIN KDBQ 061345Z 27012KT 10SM CLR 21/16 A2989 1100 73 2100 270/12 RMK AO2
94908KDBQ DBQ20050606075011106/06/05 07:50:31  5-MIN KDBQ 061350Z 27012KT 10SM CLR 21/16 A2989 1100 73 2100 270/12 RMK AO2 SLP118 T02110161
94908KDBQ DBQ20050606075511106/06/05 07:55:31  5-MIN KDBQ 061355Z 27011KT 10SM CLR 22/17 A2989 1100 73 2200 260/11 RMK AO2 SLP117 T02170167
94908KDBQ DBQ20050606080009406/06/05 08:00:31  5-MIN KDBQ 061400Z 26011KT 10SM CLR 22/16 A2990 1100 70 2200 260/11 RMK AO2
94908KDBQ DBQ20050606080509406/06/05 08:05:31  5-MIN KDBQ 061405Z 27011KT 10SM CLR 22/17 A2990 1100 73 2200 270/11 RMK AO2
94908KDBQ DBQ20050606081009406/06/05 08:10:31  5-MIN KDBQ 061410Z 26010KT 10SM CLR 22/17 A2990 1100 73 2200 260/10 RMK AO2
94908KDBQ DBQ20050606081509406/06/05 08:15:31  5-MIN KDBQ 061415Z 27010KT 10SM CLR 22/16 A2990 1100 68 2200 270/10 RMK AO2
94908KDBQ DBQ20050606082009406/06/05 08:20:31  5-MIN KDBQ 061420Z 27012KT 10SM CLR 22/17 A2990 1100 70 2200 270/12 RMK AO2
94908KDBQ DBQ20050606082509406/06/05 08:25:31  5-MIN KDBQ 061425Z 28011KT 10SM CLR 22/16 A2990 1100 68 2200 280/11 RMK AO2
94908KDBQ DBQ20050606083009406/06/05 08:30:31  5-MIN KDBQ 061430Z 26009KT 10SM CLR 22/17 A2990 1100 70 2200 260/09 RMK AO2
94908KDBQ DBQ20050606083509406/06/05 08:35:31  5-MIN KDBQ 061435Z 26009KT 10SM CLR 23/17 A2990 1100 68 2300 260/09 RMK AO2
94908KDBQ DBQ20050606084009406/06/05 08:40:31  5-MIN KDBQ 061440Z 27009KT 10SM CLR 23/17 A2990 1100 68 2300 270/09 RMK AO2
94908KDBQ DBQ20050606084509406/06/05 08:45:31  5-MIN KDBQ 061445Z 28008KT 10SM CLR 23/17 A2990 1100 68 2300 280/08 RMK AO2
94908KDBQ DBQ20050606085011706/06/05 08:50:31  5-MIN KDBQ 061450Z 26010KT 10SM CLR 23/17 A2990 1100 68 2300 260/10 RMK AO2 SLP118 T02280167 53015
94908KDBQ DBQ20050606085511706/06/05 08:55:31  5-MIN KDBQ 061455Z 27007KT 10SM CLR 23/17 A2989 1100 68 2300 270/07 RMK AO2 SLP117 T02280167 51002
94908KDBQ DBQ20050606090009406/06/05 09:00:31  5-MIN KDBQ 061500Z 27008KT 10SM CLR 23/17 A2989 1100 68 2400 270/08 RMK AO2
94908KDBQ DBQ20050606090509406/06/05 09:05:31  5-MIN KDBQ 061505Z 29008KT 10SM CLR 23/17 A2990 1100 66 2400 290/08 RMK AO2
94908KDBQ DBQ20050606091009406/06/05 09:10:31  5-MIN KDBQ 061510Z 27008KT 10SM CLR 23/17 A2989 1100 66 2400 270/08 RMK AO2
94908KDBQ DBQ20050606091509406/06/05 09:15:31  5-MIN KDBQ 061515Z 28007KT 10SM CLR 23/17 A2990 1100 68 2400 280/07 RMK AO2
94908KDBQ DBQ20050606092009406/06/05 09:20:31  5-MIN KDBQ 061520Z 26008KT 10SM CLR 24/17 A2990 1100 66 2400 260/08 RMK AO2
94908KDBQ DBQ20050606092509406/06/05 09:25:31  5-MIN KDBQ 061525Z 28007KT 10SM CLR 23/17 A2990 1100 66 2400 280/07 RMK AO2
94908KDBQ DBQ20050606093009406/06/05 09:30:31  5-MIN KDBQ 061530Z 26007KT 10SM CLR 24/17 A2990 1100 66 2400 260/07 RMK AO2
94908KDBQ DBQ20050606093509406/06/05 09:35:31  5-MIN KDBQ 061535Z 27008KT 10SM CLR 24/18 A2990 1100 66 2500 270/08 RMK AO2
94908KDBQ DBQ20050606094009406/06/05 09:40:31  5-MIN KDBQ 061540Z 25008KT 10SM CLR 24/17 A2989 1100 63 2500 250/08 RMK AO2
94908KDBQ DBQ20050606094509406/06/05 09:45:31  5-MIN KDBQ 061545Z 26006KT 10SM CLR 24/18 A2990 1100 66 2500 260/06 RMK AO2
94908KDBQ DBQ20050606095011106/06/05 09:50:31  5-MIN KDBQ 061550Z 24010KT 10SM CLR 24/18 A2990 1100 66 2500 240/10 RMK AO2 SLP118 T02440178
94908KDBQ DBQ20050606095511106/06/05 09:55:31  5-MIN KDBQ 061555Z 25008KT 10SM CLR 25/18 A2990 1100 64 2500 250/08 RMK AO2 SLP118 T02500178
94908KDBQ DBQ20050606100009406/06/05 10:00:31  5-MIN KDBQ 061600Z 25008KT 10SM CLR 24/17 A2990 1100 63 2500 250/08 RMK AO2
94908KDBQ DBQ20050606100509406/06/05 10:05:31  5-MIN KDBQ 061605Z 24009KT 10SM CLR 25/17 A2990 1100 61 2500 240/09 RMK AO2
94908KDBQ DBQ20050606101009406/06/05 10:10:31  5-MIN KDBQ 061610Z 24010KT 10SM CLR 25/17 A2990 1100 61 2500 240/10 RMK AO2
94908KDBQ DBQ20050606101509406/06/05 10:15:31  5-MIN KDBQ 061615Z 25008KT 10SM CLR 25/18 A2990 1100 64 2500 250/08 RMK AO2
94908KDBQ DBQ20050606102009406/06/05 10:20:31  5-MIN KDBQ 061620Z 26010KT 10SM CLR 26/17 A2990 1100 59 2600 260/10 RMK AO2
94908KDBQ DBQ20050606102509406/06/05 10:25:31  5-MIN KDBQ 061625Z 25006KT 10SM CLR 25/17 A2990 1090 59 2500 250/06 RMK AO2
94908KDBQ DBQ20050606103009406/06/05 10:30:31  5-MIN KDBQ 061630Z 26009KT 10SM CLR 26/18 A2990 1090 61 2600 260/09 RMK AO2
94908KDBQ DBQ20050606103509406/06/05 10:35:31  5-MIN KDBQ 061635Z 24012KT 10SM CLR 26/18 A2991 1090 61 2600 240/12 RMK AO2
94908KDBQ DBQ20050606104009406/06/05 10:40:31  5-MIN KDBQ 061640Z 23007KT 10SM CLR 26/18 A2990 1090 61 2600 230/07 RMK AO2
94908KDBQ DBQ20050606104509406/06/05 10:45:31  5-MIN KDBQ 061645Z 26008KT 10SM CLR 26/17 A2990 1090 57 2700 250/08 RMK AO2
94908KDBQ DBQ20050606105011106/06/05 10:50:31  5-MIN KDBQ 061650Z 26010KT 10SM CLR 26/18 A2990 1090 61 2600 260/10 RMK AO2 SLP120 T02560178
94908KDBQ DBQ20050606105511106/06/05 10:55:31  5-MIN KDBQ 061655Z 24007KT 10SM CLR 26/17 A2990 1090 59 2600 240/07 RMK AO2 SLP120 T02560172
94908KDBQ DBQ20050606110009406/06/05 11:00:31  5-MIN KDBQ 061700Z 24010KT 10SM CLR 26/18 A2990 1090 59 2700 240/10 RMK AO2
94908KDBQ DBQ20050606110509406/06/05 11:05:31  5-MIN KDBQ 061705Z 24012KT 10SM CLR 26/17 A2990 1090 57 2700 240/12 RMK AO2
94908KDBQ DBQ20050606111009406/06/05 11:10:31  5-MIN KDBQ 061710Z 26007KT 10SM CLR 26/18 A2990 1090 59 2700 260/07 RMK AO2
94908KDBQ DBQ20050606111509406/06/05 11:15:31  5-MIN KDBQ 061715Z 26011KT 10SM CLR 26/17 A2990 1090 57 2700 260/11 RMK AO2
94908KDBQ DBQ20050606112009406/06/05 11:20:31  5-MIN KDBQ 061720Z 25008KT 10SM CLR 26/17 A2990 1100 57 2700 240/08 RMK AO2
94908KDBQ DBQ20050606112509406/06/05 11:25:31  5-MIN KDBQ 061725Z 24011KT 10SM CLR 27/18 A2990 1100 57 2700 240/11 RMK AO2
94908KDBQ DBQ20050606113009406/06/05 11:30:31  5-MIN KDBQ 061730Z 25009KT 10SM CLR 27/17 A2990 1100 55 2700 240/09 RMK AO2
94908KDBQ DBQ20050606113509406/06/05 11:35:31  5-MIN KDBQ 061735Z 24013KT 10SM CLR 27/17 A2990 1100 54 2800 240/13 RMK AO2
94908KDBQ DBQ20050606114009406/06/05 11:40:31  5-MIN KDBQ 061740Z 27010KT 10SM CLR 27/17 A2990 1100 54 2800 270/10 RMK AO2
94908KDBQ DBQ20050606114509406/06/05 11:45:31  5-MIN KDBQ 061745Z 26010KT 10SM CLR 27/17 A2990 1100 54 2800 260/10 RMK AO2
94908KDBQ DBQ20050606115012906/06/05 11:50:31  5-MIN KDBQ 061750Z 27011KT 10SM CLR 27/17 A2990 1100 54 2800 270/11 RMK AO2 SLP119 T02720172 10272 20172 51002
94908KDBQ DBQ20050606115512906/06/05 11:55:31  5-MIN KDBQ 061755Z 26010KT 10SM CLR 27/17 A2990 1100 54 2800 260/10 RMK AO2 SLP119 T02720172 10272 20172 50002
94908KDBQ DBQ20050606120009406/06/05 12:00:31  5-MIN KDBQ 061800Z 26011KT 10SM CLR 28/17 A2990 1100 52 2900 260/11 RMK AO2
94908KDBQ DBQ20050606120510006/06/05 12:05:31  5-MIN KDBQ 061805Z 25014G17KT 10SM CLR 28/17 A2990 1100 52 2900 250/14G17 RMK AO2
94908KDBQ DBQ20050606121010006/06/05 12:10:31  5-MIN KDBQ 061810Z 25014G17KT 10SM CLR 28/17 A2990 1100 50 2900 250/14G17 RMK AO2
94908KDBQ DBQ20050606121509406/06/05 12:15:31  5-MIN KDBQ 061815Z 25012KT 10SM CLR 28/17 A2990 1100 52 2900 250/12 RMK AO2
94908KDBQ DBQ20050606122009406/06/05 12:20:31  5-MIN KDBQ 061820Z 27012KT 10SM CLR 28/17 A2990 1100 50 2900 260/12 RMK AO2
94908KDBQ DBQ20050606122510406/06/05 12:25:31  5-MIN KDBQ 061825Z 28015G19KT 10SM FEW055 28/17 A2990  1100 48 2900 280/15G19 RMK AO2
94908KDBQ DBQ20050606123010006/06/05 12:30:31  5-MIN KDBQ 061830Z 26012G19KT 10SM CLR 28/17 A2989 1100 48 2900 250/12G19 RMK AO2
94908KDBQ DBQ20050606123510006/06/05 12:35:31  5-MIN KDBQ 061835Z 27014G19KT 10SM CLR 28/16 A2989 1110 47 2900 270/14G19 RMK AO2
94908KDBQ DBQ20050606124010006/06/05 12:40:31  5-MIN KDBQ 061840Z 28012G19KT 10SM CLR 28/17 A2989 1100 48 2900 280/12G19 RMK AO2
94908KDBQ DBQ20050606124509406/06/05 12:45:31  5-MIN KDBQ 061845Z 28011KT 10SM CLR 28/17 A2989 1110 48 2900 280/11 RMK AO2
94908KDBQ DBQ20050606125012106/06/05 12:50:31  5-MIN KDBQ 061850Z 26013G18KT 10SM FEW060 29/16 A2989  1110 45 3000 260/13G18 RMK AO2 SLP115 T02890161
94908KDBQ DBQ20050606125511406/06/05 12:55:31  5-MIN KDBQ 061855Z 28012KT 10SM FEW060 28/16 A2989 1110 46 2900 280/12 RMK AO2 SLP115 T02780156
94908KDBQ DBQ20050606130009706/06/05 13:00:31  5-MIN KDBQ 061900Z 27011KT 10SM SCT060 27/16 A2988 1110 50 2800 270/11 RMK AO2
94908KDBQ DBQ20050606130510406/06/05 13:05:31  5-MIN KDBQ 061905Z 25015G20KT 10SM FEW060 28/16 A2988  1110 47 2900 250/15G20 RMK AO2
94908KDBQ DBQ20050606131010406/06/05 13:10:31  5-MIN KDBQ 061910Z 27012G20KT 10SM FEW060 29/16 A2988  1120 45 3000 270/12G20 RMK AO2
94908KDBQ DBQ20050606131509706/06/05 13:15:31  5-MIN KDBQ 061915Z 29012KT 10SM FEW060 29/15 A2988 1110 42 3000 280/12 RMK AO2
94908KDBQ DBQ20050606132009706/06/05 13:20:31  5-MIN KDBQ 061920Z 27009KT 10SM FEW060 29/16 A2988 1120 44 3000 270/09 RMK AO2
94908KDBQ DBQ20050606132509706/06/05 13:25:31  5-MIN KDBQ 061925Z 27013KT 10SM FEW060 29/16 A2988 1120 45 3000 260/13 RMK AO2
94908KDBQ DBQ20050606133009406/06/05 13:30:31  5-MIN KDBQ 061930Z 26012KT 10SM CLR 29/16 A2988 1120 44 3000 260/12 RMK AO2
94908KDBQ DBQ20050606133510406/06/05 13:35:31  5-MIN KDBQ 061935Z 27015G19KT 10SM FEW070 29/15 A2988  1120 42 3000 270/15G19 RMK AO2
94908KDBQ DBQ20050606134009706/06/05 13:40:31  5-MIN KDBQ 061940Z 27012KT 10SM FEW065 29/14 A2987 1120 40 3000 270/12 RMK AO2
94908KDBQ DBQ20050606134509706/06/05 13:45:31  5-MIN KDBQ 061945Z 29010KT 10SM FEW065 29/16 A2988 1120 44 3000 290/10 RMK AO2
94908KDBQ DBQ20050606135011406/06/05 13:50:31  5-MIN KDBQ 061950Z 26011KT 10SM FEW065 29/16 A2988 1120 44 3100 260/11 RMK AO2 SLP111 T02940161
94908KDBQ DBQ20050606135512106/06/05 13:55:31  5-MIN KDBQ 061955Z 26013G23KT 10SM FEW070 29/16 A2987  1120 44 3100 260/13G23 RMK AO2 SLP111 T02940161
94908KDBQ DBQ20050606140010406/06/05 14:00:31  5-MIN KDBQ 062000Z 25012G23KT 10SM FEW065 29/16 A2987  1120 42 3100 250/12G23 RMK AO2
94908KDBQ DBQ20050606140509706/06/05 14:05:31  5-MIN KDBQ 062005Z 29010KT 10SM FEW080 29/16 A2988 1120 44 3000 290/10 RMK AO2
94908KDBQ DBQ20050606141010406/06/05 14:10:31  5-MIN KDBQ 062010Z 28014G18KT 10SM FEW080 29/16 A2987  1120 44 3100 280/14G18 RMK AO2
94908KDBQ DBQ20050606141509706/06/05 14:15:31  5-MIN KDBQ 062015Z 28010KT 10SM FEW075 29/16 A2987 1120 42 3100 280/10 RMK AO2
94908KDBQ DBQ20050606142009706/06/05 14:20:31  5-MIN KDBQ 062020Z 27011KT 10SM FEW075 29/16 A2987 1120 44 3100 270/11 RMK AO2
94908KDBQ DBQ20050606142510406/06/05 14:25:31  5-MIN KDBQ 062025Z 27011G17KT 10SM FEW075 29/16 A2987  1120 44 3000 270/11G17 RMK AO2
94908KDBQ DBQ20050606143010406/06/05 14:30:31  5-MIN KDBQ 062030Z 27008G17KT 10SM FEW090 29/16 A2987  1130 42 3100 270/08G17 RMK AO2
94908KDBQ DBQ20050606143510006/06/05 14:35:31  5-MIN KDBQ 062035Z 26009G16KT 10SM CLR 29/16 A2987 1130 42 3100 260/09G16 RMK AO2
94908KDBQ DBQ20050606144009406/06/05 14:40:31  5-MIN KDBQ 062040Z 26011KT 10SM CLR 30/16 A2986 1130 42 3100 260/11 RMK AO2
94908KDBQ DBQ20050606144509706/06/05 14:45:31  5-MIN KDBQ 062045Z 27009KT 10SM FEW070 29/16 A2986 1130 42 3100 270/09 RMK AO2
94908KDBQ DBQ20050606145012006/06/05 14:50:31  5-MIN KDBQ 062050Z 27010KT 10SM FEW070 30/16 A2986 1130 42 3100 270/10 RMK AO2 SLP106 T03000161 50002
94908KDBQ DBQ20050606145512306/06/05 14:55:31  5-MIN KDBQ 062055Z 25010G16KT 10SM CLR 29/16 A2986 1130 44 3100 250/10G16 RMK AO2 SLP105 T02940161 58013
94908KDBQ DBQ20050606150010006/06/05 15:00:31  5-MIN KDBQ 062100Z 25009G16KT 10SM CLR 29/16 A2986 1130 42 3100 250/09G16 RMK AO2
94908KDBQ DBQ20050606150510406/06/05 15:05:31  5-MIN KDBQ 062105Z 25012G16KT 10SM FEW070 29/16 A2986  1140 42 3100 250/12G16 RMK AO2
94908KDBQ DBQ20050606151009706/06/05 15:10:31  5-MIN KDBQ 062110Z 26010KT 10SM FEW070 29/15 A2986 1140 41 3100 260/10 RMK AO2
94908KDBQ DBQ20050606151509406/06/05 15:15:31  5-MIN KDBQ 062115Z 24011KT 10SM CLR 28/15 A2986 1140 43 3000 240/11 RMK AO2
94908KDBQ DBQ20050606152009706/06/05 15:20:31  5-MIN KDBQ 062120Z 23011KT 10SM FEW070 29/16 A2986 1140 44 3100 230/11 RMK AO2
94908KDBQ DBQ20050606152509706/06/05 15:25:31  5-MIN KDBQ 062125Z 23011KT 10SM FEW070 29/16 A2985 1140 42 3100 230/11 RMK AO2
94908KDBQ DBQ20050606153009706/06/05 15:30:31  5-MIN KDBQ 062130Z 24010KT 10SM FEW070 29/16 A2985 1140 44 3000 240/10 RMK AO2
94908KDBQ DBQ20050606153509706/06/05 15:35:31  5-MIN KDBQ 062135Z 25010KT 10SM FEW070 29/16 A2985 1140 44 3000 250/10 RMK AO2
94908KDBQ DBQ20050606154009706/06/05 15:40:31  5-MIN KDBQ 062140Z 23012KT 10SM FEW070 29/16 A2985 1140 44 3000 230/12 RMK AO2
94908KDBQ DBQ20050606154509706/06/05 15:45:31  5-MIN KDBQ 062145Z 21010KT 10SM FEW070 28/16 A2985 1140 47 3000 210/10 RMK AO2
94908KDBQ DBQ20050606155011106/06/05 15:50:31  5-MIN KDBQ 062150Z 21008KT 10SM CLR 28/17 A2985 1140 52 2900 210/08 RMK AO2 SLP102 T02780172
94908KDBQ DBQ20050606155511106/06/05 15:55:31  5-MIN KDBQ 062155Z 21010KT 10SM CLR 28/17 A2985 1140 48 3000 210/10 RMK AO2 SLP102 T02830167
94908KDBQ DBQ20050606160009406/06/05 16:00:31  5-MIN KDBQ 062200Z 21009KT 10SM CLR 28/17 A2985 1150 50 3000 210/09 RMK AO2
94908KDBQ DBQ20050606160509406/06/05 16:05:31  5-MIN KDBQ 062205Z 21010KT 10SM CLR 29/18 A2984 1150 50 3000 210/10 RMK AO2
94908KDBQ DBQ20050606161009406/06/05 16:10:31  5-MIN KDBQ 062210Z 21009KT 10SM CLR 29/17 A2985 1150 48 3000 210/09 RMK AO2
94908KDBQ DBQ20050606161509406/06/05 16:15:31  5-MIN KDBQ 062215Z 21009KT 10SM CLR 29/18 A2984 1150 50 3000 210/09 RMK AO2
94908KDBQ DBQ20050606162009406/06/05 16:20:31  5-MIN KDBQ 062220Z 21009KT 10SM CLR 29/17 A2984 1150 47 3100 200/09 RMK AO2
94908KDBQ DBQ20050606162509406/06/05 16:25:31  5-MIN KDBQ 062225Z 21010KT 10SM CLR 29/17 A2984 1150 47 3000 210/10 RMK AO2
94908KDBQ DBQ20050606163009406/06/05 16:30:31  5-MIN KDBQ 062230Z 21010KT 10SM CLR 29/17 A2984 1150 47 3000 210/10 RMK AO2
94908KDBQ DBQ20050606163509406/06/05 16:35:31  5-MIN KDBQ 062235Z 22009KT 10SM CLR 29/17 A2984 1150 48 3000 220/09 RMK AO2
94908KDBQ DBQ20050606164009406/06/05 16:40:31  5-MIN KDBQ 062240Z 21008KT 10SM CLR 29/17 A2984 1160 47 3000 210/08 RMK AO2
94908KDBQ DBQ20050606164509406/06/05 16:45:31  5-MIN KDBQ 062245Z 22008KT 10SM CLR 29/16 A2984 1160 45 3000 220/08 RMK AO2
94908KDBQ DBQ20050606165011106/06/05 16:50:31  5-MIN KDBQ 062250Z 22009KT 10SM CLR 29/16 A2983 1160 45 3100 220/09 RMK AO2 SLP096 T02890161
94908KDBQ DBQ20050606165511106/06/05 16:55:31  5-MIN KDBQ 062255Z 22008KT 10SM CLR 29/16 A2983 1160 45 3100 220/08 RMK AO2 SLP096 T02890161
94908KDBQ DBQ20050606170009406/06/05 17:00:31  5-MIN KDBQ 062300Z 22010KT 10SM CLR 29/16 A2983 1160 45 3100 210/10 RMK AO2
94908KDBQ DBQ20050606170509406/06/05 17:05:31  5-MIN KDBQ 062305Z 21008KT 10SM CLR 29/16 A2983 1160 45 3100 210/08 RMK AO2
94908KDBQ DBQ20050606171009406/06/05 17:10:31  5-MIN KDBQ 062310Z 21010KT 10SM CLR 29/17 A2983 1160 47 3100 210/10 RMK AO2
94908KDBQ DBQ20050606171509406/06/05 17:15:31  5-MIN KDBQ 062315Z 21009KT 10SM CLR 29/17 A2983 1160 47 3100 210/09 RMK AO2
94908KDBQ DBQ20050606172009406/06/05 17:20:31  5-MIN KDBQ 062320Z 22008KT 10SM CLR 29/17 A2983 1160 47 3100 220/08 RMK AO2
94908KDBQ DBQ20050606172509406/06/05 17:25:31  5-MIN KDBQ 062325Z 22007KT 10SM CLR 28/17 A2983 1160 52 2900 220/07 RMK AO2
94908KDBQ DBQ20050606173009406/06/05 17:30:31  5-MIN KDBQ 062330Z 21009KT 10SM CLR 28/17 A2983 1160 52 2900 200/09 RMK AO2
94908KDBQ DBQ20050606173509406/06/05 17:35:31  5-MIN KDBQ 062335Z 21009KT 10SM CLR 28/17 A2983 1160 48 3000 210/09 RMK AO2
94908KDBQ DBQ20050606174009406/06/05 17:40:31  5-MIN KDBQ 062340Z 21007KT 10SM CLR 28/17 A2983 1160 50 3000 210/07 RMK AO2
94908KDBQ DBQ20050606174509406/06/05 17:45:31  5-MIN KDBQ 062345Z 21006KT 10SM CLR 28/17 A2983 1160 50 3000 210/06 RMK AO2
94908KDBQ DBQ20050606175012906/06/05 17:50:31  5-MIN KDBQ 062350Z 22007KT 10SM CLR 28/18 A2983 1160 52 3000 210/07 RMK AO2 SLP095 T02830178 10300 20272 58013
94908KDBQ DBQ20050606175512906/06/05 17:55:31  5-MIN KDBQ 062355Z 22006KT 10SM CLR 28/17 A2983 1160 50 3000 220/06 RMK AO2 SLP096 T02830172 10300 20272 56009
94908KDBQ DBQ20050606180010506/06/05 18:00:31  5-MIN KDBQ 070000Z AUTO 22008KT 10SM CLR 28/17 A2983  1160 50 3000 220/08 RMK AO2 TSNO
94908KDBQ DBQ20050606180510506/06/05 18:05:31  5-MIN KDBQ 070005Z AUTO 22007KT 10SM CLR 28/17 A2983  1160 50 3000 220/07 RMK AO2 TSNO
94908KDBQ DBQ20050606181010506/06/05 18:10:31  5-MIN KDBQ 070010Z AUTO 22007KT 10SM CLR 28/17 A2983  1160 50 2900 220/07 RMK AO2 TSNO
94908KDBQ DBQ20050606181510506/06/05 18:15:31  5-MIN KDBQ 070015Z AUTO 22006KT 10SM CLR 28/17 A2983  1160 50 2900 220/06 RMK AO2 TSNO
94908KDBQ DBQ20050606182010506/06/05 18:20:31  5-MIN KDBQ 070020Z AUTO 22007KT 10SM CLR 27/17 A2983  1160 52 2900 210/07 RMK AO2 TSNO
94908KDBQ DBQ20050606182510506/06/05 18:25:31  5-MIN KDBQ 070025Z AUTO 21006KT 10SM CLR 27/17 A2983  1160 54 2900 210/06 RMK AO2 TSNO
94908KDBQ DBQ20050606183010506/06/05 18:30:31  5-MIN KDBQ 070030Z AUTO 21007KT 10SM CLR 27/17 A2983  1160 54 2900 210/07 RMK AO2 TSNO
94908KDBQ DBQ20050606183510506/06/05 18:35:31  5-MIN KDBQ 070035Z AUTO 20007KT 10SM CLR 27/17 A2983  1160 55 2800 200/07 RMK AO2 TSNO
94908KDBQ DBQ20050606184010506/06/05 18:40:31  5-MIN KDBQ 070040Z AUTO 20007KT 10SM CLR 27/17 A2983  1160 55 2800 200/07 RMK AO2 TSNO
94908KDBQ DBQ20050606184510506/06/05 18:45:31  5-MIN KDBQ 070045Z AUTO 20007KT 10SM CLR 26/18 A2983  1160 59 2700 200/07 RMK AO2 TSNO
94908KDBQ DBQ20050606185012206/06/05 18:50:31  5-MIN KDBQ 070050Z AUTO 21007KT 10SM CLR 26/18 A2983  1160 59 2700 200/07 RMK AO2 SLP096 T02610178 TSNO
94908KDBQ DBQ20050606185512206/06/05 18:55:31  5-MIN KDBQ 070055Z AUTO 21007KT 10SM CLR 26/17 A2983  1160 59 2700 200/07 RMK AO2 SLP096 T02560172 TSNO
94908KDBQ DBQ20050606190010506/06/05 19:00:31  5-MIN KDBQ 070100Z AUTO 20006KT 10SM CLR 26/17 A2983  1160 59 2700 200/06 RMK AO2 TSNO
94908KDBQ DBQ20050606190510506/06/05 19:05:31  5-MIN KDBQ 070105Z AUTO 20006KT 10SM CLR 25/17 A2983  1160 61 2600 200/06 RMK AO2 TSNO
94908KDBQ DBQ20050606191010506/06/05 19:10:31  5-MIN KDBQ 070110Z AUTO 20006KT 10SM CLR 25/17 A2983  1160 61 2600 200/06 RMK AO2 TSNO
94908KDBQ DBQ20050606191510506/06/05 19:15:31  5-MIN KDBQ 070115Z AUTO 20006KT 10SM CLR 25/17 A2983  1160 61 2600 200/06 RMK AO2 TSNO
94908KDBQ DBQ20050606192010506/06/05 19:20:31  5-MIN KDBQ 070120Z AUTO 20006KT 10SM CLR 25/17 A2983  1160 61 2600 200/06 RMK AO2 TSNO
94908KDBQ DBQ20050606192510506/06/05 19:25:31  5-MIN KDBQ 070125Z AUTO 20006KT 10SM CLR 25/17 A2983  1160 61 2600 200/06 RMK AO2 TSNO
94908KDBQ DBQ20050606193010506/06/05 19:30:31  5-MIN KDBQ 070130Z AUTO 20006KT 10SM CLR 24/17 A2983  1160 63 2600 200/06 RMK AO2 TSNO
94908KDBQ DBQ20050606193510506/06/05 19:35:31  5-MIN KDBQ 070135Z AUTO 20006KT 10SM CLR 24/17 A2983  1160 66 2500 200/06 RMK AO2 TSNO
94908KDBQ DBQ20050606194010506/06/05 19:40:31  5-MIN KDBQ 070140Z AUTO 21007KT 10SM CLR 24/17 A2983  1160 63 2500 200/07 RMK AO2 TSNO
94908KDBQ DBQ20050606194510506/06/05 19:45:31  5-MIN KDBQ 070145Z AUTO 20007KT 10SM CLR 24/17 A2983  1160 63 2500 200/07 RMK AO2 TSNO
94908KDBQ DBQ20050606195012206/06/05 19:50:31  5-MIN KDBQ 070150Z AUTO 20006KT 10SM CLR 24/17 A2983  1160 63 2500 200/06 RMK AO2 SLP097 T02390167 TSNO
94908KDBQ DBQ20050606195512206/06/05 19:55:31  5-MIN KDBQ 070155Z AUTO 20006KT 10SM CLR 23/17 A2983  1160 66 2400 200/06 RMK AO2 SLP097 T02330167 TSNO
94908KDBQ DBQ20050606200010506/06/05 20:00:31  5-MIN KDBQ 070200Z AUTO 21007KT 10SM CLR 23/17 A2983  1160 68 2400 210/07 RMK AO2 TSNO
94908KDBQ DBQ20050606200510506/06/05 20:05:31  5-MIN KDBQ 070205Z AUTO 21007KT 10SM CLR 23/16 A2984  1160 65 2400 210/07 RMK AO2 TSNO
94908KDBQ DBQ20050606201010506/06/05 20:10:31  5-MIN KDBQ 070210Z AUTO 21006KT 10SM CLR 22/16 A2984  1160 68 2300 210/06 RMK AO2 TSNO
94908KDBQ DBQ20050606201510506/06/05 20:15:31  5-MIN KDBQ 070215Z AUTO 20007KT 10SM CLR 22/16 A2984  1150 68 2300 200/07 RMK AO2 TSNO
94908KDBQ DBQ20050606202010506/06/05 20:20:31  5-MIN KDBQ 070220Z AUTO 20007KT 10SM CLR 22/16 A2984  1150 68 2300 200/07 RMK AO2 TSNO
94908KDBQ DBQ20050606202510506/06/05 20:25:31  5-MIN KDBQ 070225Z AUTO 20006KT 10SM CLR 22/16 A2984  1150 68 2300 200/06 RMK AO2 TSNO
94908KDBQ DBQ20050606203010506/06/05 20:30:31  5-MIN KDBQ 070230Z AUTO 21006KT 10SM CLR 22/16 A2984  1150 68 2300 210/06 RMK AO2 TSNO
94908KDBQ DBQ20050606203510506/06/05 20:35:31  5-MIN KDBQ 070235Z AUTO 21005KT 10SM CLR 22/16 A2984  1150 70 2200 200/05 RMK AO2 TSNO
94908KDBQ DBQ20050606204010506/06/05 20:40:31  5-MIN KDBQ 070240Z AUTO 20007KT 10SM CLR 22/16 A2985  1150 68 2300 200/07 RMK AO2 TSNO
94908KDBQ DBQ20050606204510506/06/05 20:45:31  5-MIN KDBQ 070245Z AUTO 20007KT 10SM CLR 22/16 A2985  1140 70 2200 200/07 RMK AO2 TSNO
94908KDBQ DBQ20050606205012806/06/05 20:50:31  5-MIN KDBQ 070250Z AUTO 21006KT 10SM CLR 22/16 A2985  1140 68 2300 210/06 RMK AO2 SLP102 T02220161 56009 TSNO
94908KDBQ DBQ20050606205512806/06/05 20:55:31  5-MIN KDBQ 070255Z AUTO 20006KT 10SM CLR 23/16 A2985  1140 63 2300 200/06 RMK AO2 SLP102 T02280156 53007 TSNO
94908KDBQ DBQ20050606210010506/06/05 21:00:31  5-MIN KDBQ 070300Z AUTO 20007KT 10SM CLR 23/16 A2985  1140 63 2300 200/07 RMK AO2 TSNO
94908KDBQ DBQ20050606210510506/06/05 21:05:31  5-MIN KDBQ 070305Z AUTO 20007KT 10SM CLR 22/16 A2985  1140 65 2300 200/07 RMK AO2 TSNO
94908KDBQ DBQ20050606211010506/06/05 21:10:31  5-MIN KDBQ 070310Z AUTO 20007KT 10SM CLR 22/16 A2986  1140 65 2300 200/07 RMK AO2 TSNO
94908KDBQ DBQ20050606211510506/06/05 21:15:31  5-MIN KDBQ 070315Z AUTO 21007KT 10SM CLR 22/16 A2986  1140 65 2300 210/07 RMK AO2 TSNO
94908KDBQ DBQ20050606212010506/06/05 21:20:31  5-MIN KDBQ 070320Z AUTO 21006KT 10SM CLR 22/16 A2986  1140 65 2300 210/06 RMK AO2 TSNO
94908KDBQ DBQ20050606212510506/06/05 21:25:31  5-MIN KDBQ 070325Z AUTO 22006KT 10SM CLR 22/16 A2986  1140 68 2200 220/06 RMK AO2 TSNO
94908KDBQ DBQ20050606213010506/06/05 21:30:31  5-MIN KDBQ 070330Z AUTO 22006KT 10SM CLR 22/16 A2986  1140 68 2200 220/06 RMK AO2 TSNO
94908KDBQ DBQ20050606213510506/06/05 21:35:31  5-MIN KDBQ 070335Z AUTO 22007KT 10SM CLR 22/16 A2986  1130 68 2200 220/07 RMK AO2 TSNO
94908KDBQ DBQ20050606214010506/06/05 21:40:31  5-MIN KDBQ 070340Z AUTO 22006KT 10SM CLR 22/16 A2986  1130 68 2200 210/06 RMK AO2 TSNO
94908KDBQ DBQ20050606214510506/06/05 21:45:31  5-MIN KDBQ 070345Z AUTO 22006KT 10SM CLR 22/16 A2986  1130 68 2200 220/06 RMK AO2 TSNO
94908KDBQ DBQ20050606215012206/06/05 21:50:31  5-MIN KDBQ 070350Z AUTO 21007KT 10SM CLR 22/16 A2986  1130 68 2200 210/07 RMK AO2 SLP104 T02170156 TSNO
94908KDBQ DBQ20050606215512206/06/05 21:55:31  5-MIN KDBQ 070355Z AUTO 21008KT 10SM CLR 22/16 A2986  1130 68 2200 210/08 RMK AO2 SLP105 T02170156 TSNO
94908KDBQ DBQ20050606220010506/06/05 22:00:31  5-MIN KDBQ 070400Z AUTO 21008KT 10SM CLR 22/16 A2986  1130 68 2200 210/08 RMK AO2 TSNO
94908KDBQ DBQ20050606220510506/06/05 22:05:31  5-MIN KDBQ 070405Z AUTO 21007KT 10SM CLR 22/16 A2986  1140 68 2200 210/07 RMK AO2 TSNO
94908KDBQ DBQ20050606221010506/06/05 22:10:31  5-MIN KDBQ 070410Z AUTO 22007KT 10SM CLR 22/15 A2986  1140 65 2200 210/07 RMK AO2 TSNO
94908KDBQ DBQ20050606221510506/06/05 22:15:31  5-MIN KDBQ 070415Z AUTO 22007KT 10SM CLR 21/15 A2985  1140 68 2200 220/07 RMK AO2 TSNO
94908KDBQ DBQ20050606222010506/06/05 22:20:31  5-MIN KDBQ 070420Z AUTO 23007KT 10SM CLR 21/15 A2986  1130 68 2100 230/07 RMK AO2 TSNO
94908KDBQ DBQ20050606222510506/06/05 22:25:31  5-MIN KDBQ 070425Z AUTO 22008KT 10SM CLR 21/15 A2986  1140 68 2100 220/08 RMK AO2 TSNO
94908KDBQ DBQ20050606223010506/06/05 22:30:31  5-MIN KDBQ 070430Z AUTO 21010KT 10SM CLR 22/15 A2985  1140 65 2200 210/10 RMK AO2 TSNO
94908KDBQ DBQ20050606223510506/06/05 22:35:31  5-MIN KDBQ 070435Z AUTO 21009KT 10SM CLR 22/15 A2986  1130 65 2200 210/09 RMK AO2 TSNO
94908KDBQ DBQ20050606224010506/06/05 22:40:31  5-MIN KDBQ 070440Z AUTO 21008KT 10SM CLR 21/15 A2986  1130 68 2100 210/08 RMK AO2 TSNO
94908KDBQ DBQ20050606224510506/06/05 22:45:31  5-MIN KDBQ 070445Z AUTO 21009KT 10SM CLR 21/15 A2985  1140 68 2200 210/09 RMK AO2 TSNO
94908KDBQ DBQ20050606225012206/06/05 22:50:31  5-MIN KDBQ 070450Z AUTO 21009KT 10SM CLR 21/16 A2986  1130 70 2100 210/09 RMK AO2 SLP105 T02110156 TSNO
94908KDBQ DBQ20050606225512206/06/05 22:55:31  5-MIN KDBQ 070455Z AUTO 21008KT 10SM CLR 21/16 A2987  1130 70 2100 210/08 RMK AO2 SLP106 T02110156 TSNO
94908KDBQ DBQ20050606230010506/06/05 23:00:31  5-MIN KDBQ 070500Z AUTO 22007KT 10SM CLR 21/16 A2986  1140 70 2200 220/07 RMK AO2 TSNO
94908KDBQ DBQ20050606230510506/06/05 23:05:31  5-MIN KDBQ 070505Z AUTO 22007KT 10SM CLR 21/16 A2987  1130 73 2100 210/07 RMK AO2 TSNO
94908KDBQ DBQ20050606231010506/06/05 23:10:31  5-MIN KDBQ 070510Z AUTO 21007KT 10SM CLR 21/16 A2987  1130 73 2100 210/07 RMK AO2 TSNO
94908KDBQ DBQ20050606231510506/06/05 23:15:31  5-MIN KDBQ 070515Z AUTO 21007KT 10SM CLR 21/16 A2986  1140 73 2100 210/07 RMK AO2 TSNO
94908KDBQ DBQ20050606232010506/06/05 23:20:31  5-MIN KDBQ 070520Z AUTO 21008KT 10SM CLR 20/16 A2986  1130 75 2000 210/08 RMK AO2 TSNO
94908KDBQ DBQ20050606232510506/06/05 23:25:31  5-MIN KDBQ 070525Z AUTO 21008KT 10SM CLR 21/16 A2985  1140 73 2100 210/08 RMK AO2 TSNO
94908KDBQ DBQ20050606233010506/06/05 23:30:31  5-MIN KDBQ 070530Z AUTO 21008KT 10SM CLR 21/16 A2987  1130 73 2100 200/08 RMK AO2 TSNO
94908KDBQ DBQ20050606233510506/06/05 23:35:31  5-MIN KDBQ 070535Z AUTO 20008KT 10SM CLR 21/16 A2986  1140 73 2100 200/08 RMK AO2 TSNO
94908KDBQ DBQ20050606234010506/06/05 23:40:31  5-MIN KDBQ 070540Z AUTO 20008KT 10SM CLR 21/16 A2986  1140 73 2100 200/08 RMK AO2 TSNO
94908KDBQ DBQ20050606234510506/06/05 23:45:31  5-MIN KDBQ 070545Z AUTO 20008KT 10SM CLR 21/16 A2987  1130 75 2100 200/08 RMK AO2 TSNO
94908KDBQ DBQ20050606235015106/06/05 23:50:31  5-MIN KDBQ 070550Z AUTO 20008KT 10SM CLR 20/16 A2986  1140 78 2000 190/08 RMK AO2 SLP103 T02000161 10283 20200 403000150 53007  TSNO
94908KDBQ DBQ20050606235515106/06/05 23:55:31  5-MIN KDBQ 070555Z AUTO 19008KT 10SM CLR 20/16 A2987  1130 78 2000 190/08 RMK AO2 SLP107 T02000161 10283 20200 403000150 51005  TSNO
94908KDBQ DBQ20050607000010506/07/05 00:00:38  5-MIN KDBQ 070600Z AUTO 20009KT 10SM CLR 20/16 A2987  1130 78 2000 200/09 RMK AO2 TSNO
94908KDBQ DBQ20050607000510506/07/05 00:05:31  5-MIN KDBQ 070605Z AUTO 20009KT 10SM CLR 20/16 A2986  1130 78 2000 200/09 RMK AO2 TSNO
94908KDBQ DBQ20050607001010506/07/05 00:10:31  5-MIN KDBQ 070610Z AUTO 20009KT 10SM CLR 20/16 A2987  1120 78 2000 200/09 RMK AO2 TSNO
94908KDBQ DBQ20050607001510506/07/05 00:15:31  5-MIN KDBQ 070615Z AUTO 20009KT 10SM CLR 20/16 A2986  1130 78 2000 190/09 RMK AO2 TSNO
94908KDBQ DBQ20050607002010506/07/05 00:20:31  5-MIN KDBQ 070620Z AUTO 20009KT 10SM CLR 20/16 A2987  1130 78 2000 200/09 RMK AO2 TSNO
94908KDBQ DBQ20050607002510506/07/05 00:25:31  5-MIN KDBQ 070625Z AUTO 19009KT 10SM CLR 20/16 A2986  1140 78 2000 190/09 RMK AO2 TSNO
94908KDBQ DBQ20050607003010506/07/05 00:30:31  5-MIN KDBQ 070630Z AUTO 20009KT 10SM CLR 19/16 A2987  1130 81 1900 200/09 RMK AO2 TSNO
94908KDBQ DBQ20050607003510506/07/05 00:35:31  5-MIN KDBQ 070635Z AUTO 20009KT 10SM CLR 19/16 A2986  1140 81 2000 200/09 RMK AO2 TSNO
94908KDBQ DBQ20050607004010506/07/05 00:40:31  5-MIN KDBQ 070640Z AUTO 20008KT 10SM CLR 19/16 A2986  1130 81 1900 200/08 RMK AO2 TSNO
94908KDBQ DBQ20050607004510506/07/05 00:45:31  5-MIN KDBQ 070645Z AUTO 21009KT 10SM CLR 19/16 A2985  1140 81 2000 210/09 RMK AO2 TSNO
94908KDBQ DBQ20050607005012206/07/05 00:50:31  5-MIN KDBQ 070650Z AUTO 21009KT 10SM CLR 19/16 A2985  1140 81 2000 210/09 RMK AO2 SLP101 T01940161 TSNO
94908KDBQ DBQ20050607005512206/07/05 00:55:31  5-MIN KDBQ 070655Z AUTO 20008KT 10SM CLR 19/16 A2986  1130 81 2000 200/08 RMK AO2 SLP104 T01940161 TSNO
94908KDBQ DBQ20050607010010506/07/05 01:00:31  5-MIN KDBQ 070700Z AUTO 20009KT 10SM CLR 19/16 A2986  1140 81 2000 200/09 RMK AO2 TSNO
94908KDBQ DBQ20050607010511206/07/05 01:05:31  5-MIN KDBQ 070705Z AUTO 20009KT 10SM CLR 19/16 A2987  1120 81 1900 200/09 RMK AO2 PRESRR TSNO
94908KDBQ DBQ20050607011010506/07/05 01:10:31  5-MIN KDBQ 070710Z AUTO 20009KT 10SM CLR 19/16 A2986  1130 81 1900 200/09 RMK AO2 TSNO
94908KDBQ DBQ20050607011510506/07/05 01:15:31  5-MIN KDBQ 070715Z AUTO 20008KT 10SM CLR 19/16 A2988  1120 81 1900 200/08 RMK AO2 TSNO
94908KDBQ DBQ20050607012010506/07/05 01:20:31  5-MIN KDBQ 070720Z AUTO 20008KT 10SM CLR 19/16 A2986  1130 81 2000 200/08 RMK AO2 TSNO
94908KDBQ DBQ20050607012510506/07/05 01:25:31  5-MIN KDBQ 070725Z AUTO 20008KT 10SM CLR 19/16 A2987  1120 84 1900 200/08 RMK AO2 TSNO
94908KDBQ DBQ20050607013010506/07/05 01:30:31  5-MIN KDBQ 070730Z AUTO 20008KT 10SM CLR 19/16 A2986  1140 81 1900 200/08 RMK AO2 TSNO
94908KDBQ DBQ20050607013510506/07/05 01:35:31  5-MIN KDBQ 070735Z AUTO 20008KT 10SM CLR 19/16 A2987  1130 81 1900 200/08 RMK AO2 TSNO
94908KDBQ DBQ20050607014010506/07/05 01:40:31  5-MIN KDBQ 070740Z AUTO 20008KT 10SM CLR 19/16 A2985  1140 81 1900 200/08 RMK AO2 TSNO
94908KDBQ DBQ20050607014510506/07/05 01:45:31  5-MIN KDBQ 070745Z AUTO 19008KT 10SM CLR 19/16 A2986  1130 84 1900 190/08 RMK AO2 TSNO
94908KDBQ DBQ20050607015012206/07/05 01:50:31  5-MIN KDBQ 070750Z AUTO 19008KT 10SM CLR 19/16 A2985  1150 84 1900 190/08 RMK AO2 SLP099 T01890161 TSNO
94908KDBQ DBQ20050607015512206/07/05 01:55:31  5-MIN KDBQ 070755Z AUTO 19007KT 10SM CLR 19/16 A2986  1140 84 1900 190/07 RMK AO2 SLP103 T01890161 TSNO
94908KDBQ DBQ20050607020010506/07/05 02:00:31  5-MIN KDBQ 070800Z AUTO 20008KT 10SM CLR 18/16 A2985  1150 84 1800 190/08 RMK AO2 TSNO
94908KDBQ DBQ20050607020510506/07/05 02:05:31  5-MIN KDBQ 070805Z AUTO 20007KT 10SM CLR 18/16 A2985  1140 84 1800 200/07 RMK AO2 TSNO
94908KDBQ DBQ20050607021010506/07/05 02:10:31  5-MIN KDBQ 070810Z AUTO 20007KT 10SM CLR 18/16 A2985  1140 84 1800 200/07 RMK AO2 TSNO
94908KDBQ DBQ20050607021510506/07/05 02:15:31  5-MIN KDBQ 070815Z AUTO 19006KT 10SM CLR 18/16 A2985  1150 84 1800 190/06 RMK AO2 TSNO
94908KDBQ DBQ20050607022010506/07/05 02:20:31  5-MIN KDBQ 070820Z AUTO 20006KT 10SM CLR 18/16 A2985  1150 84 1800 200/06 RMK AO2 TSNO
94908KDBQ DBQ20050607022510506/07/05 02:25:31  5-MIN KDBQ 070825Z AUTO 20008KT 10SM CLR 18/16 A2985  1150 84 1800 190/08 RMK AO2 TSNO
94908KDBQ DBQ20050607023010506/07/05 02:30:31  5-MIN KDBQ 070830Z AUTO 20007KT 10SM CLR 19/16 A2984  1150 81 1900 200/07 RMK AO2 TSNO
94908KDBQ DBQ20050607023510506/07/05 02:35:31  5-MIN KDBQ 070835Z AUTO 20008KT 10SM CLR 18/16 A2984  1150 87 1800 200/08 RMK AO2 TSNO
94908KDBQ DBQ20050607024010506/07/05 02:40:31  5-MIN KDBQ 070840Z AUTO 20008KT 10SM CLR 19/16 A2984  1150 84 1900 200/08 RMK AO2 TSNO
94908KDBQ DBQ20050607024510506/07/05 02:45:31  5-MIN KDBQ 070845Z AUTO 20008KT 10SM CLR 19/16 A2984  1150 81 2000 200/08 RMK AO2 TSNO
94908KDBQ DBQ20050607125011106/07/05 12:50:31  5-MIN KDBQ 071850Z 20014KT 10SM CLR 31/19 A2981 1180 51 3300 200/14 RMK AO2 SLP088 T03060194
94908KDBQ DBQ20050607125511106/07/05 12:55:31  5-MIN KDBQ 071855Z 21013KT 10SM CLR 31/19 A2981 1180 49 3300 210/13 RMK AO2 SLP087 T03060189
94908KDBQ DBQ20050607130009406/07/05 13:00:31  5-MIN KDBQ 071900Z 19012KT 10SM CLR 31/19 A2981 1180 49 3300 190/12 RMK AO2
94908KDBQ DBQ20050607130510006/07/05 13:05:31  5-MIN KDBQ 071905Z 20011G18KT 10SM CLR 31/19 A2981 1180 49 3300 200/11G18 RMK AO2
94908KDBQ DBQ20050607131010006/07/05 13:10:31  5-MIN KDBQ 071910Z 20015G20KT 10SM CLR 31/19 A2981 1180 49 3300 200/15G20 RMK AO2
94908KDBQ DBQ20050607131510006/07/05 13:15:31  5-MIN KDBQ 071915Z 19010G20KT 10SM CLR 31/19 A2981 1180 47 3300 190/10G20 RMK AO2
94908KDBQ DBQ20050607132010006/07/05 13:20:31  5-MIN KDBQ 071920Z 21016G19KT 10SM CLR 31/18 A2981 1180 46 3300 210/16G19 RMK AO2
94908KDBQ DBQ20050607132509406/07/05 13:25:31  5-MIN KDBQ 071925Z 20014KT 10SM CLR 31/18 A2981 1180 44 3300 200/14 RMK AO2
94908KDBQ DBQ20050607133009406/07/05 13:30:31  5-MIN KDBQ 071930Z 19012KT 10SM CLR 31/18 A2981 1180 46 3300 190/12 RMK AO2
94908KDBQ DBQ20050607133509406/07/05 13:35:31  5-MIN KDBQ 071935Z 20012KT 10SM CLR 31/18 A2980 1190 46 3300 200/12 RMK AO2
94908KDBQ DBQ20050607134009406/07/05 13:40:31  5-MIN KDBQ 071940Z 20014KT 10SM CLR 31/18 A2980 1190 46 3300 200/14 RMK AO2
94908KDBQ DBQ20050607134509406/07/05 13:45:31  5-MIN KDBQ 071945Z 22011KT 10SM CLR 31/18 A2980 1190 46 3300 220/11 RMK AO2
94908KDBQ DBQ20050607135011706/07/05 13:50:31  5-MIN KDBQ 071950Z 20015G18KT 10SM CLR 31/18 A2980 1190 46 3300 200/15G18 RMK AO2 SLP082 T03110183
94908KDBQ DBQ20050607135511106/07/05 13:55:31  5-MIN KDBQ 071955Z 20015KT 10SM CLR 31/18 A2979 1200 44 3300 200/15 RMK AO2 SLP081 T03110178
94908KDBQ DBQ20050607140009406/07/05 14:00:31  5-MIN KDBQ 072000Z 20016KT 10SM CLR 31/17 A2979 1200 42 3300 200/16 RMK AO2
94908KDBQ DBQ20050607140509406/07/05 14:05:31  5-MIN KDBQ 072005Z 20013KT 10SM CLR 31/17 A2979 1200 44 3300 200/13 RMK AO2
94908KDBQ DBQ20050607141009406/07/05 14:10:31  5-MIN KDBQ 072010Z 19013KT 10SM CLR 31/17 A2979 1200 44 3300 190/13 RMK AO2
94908KDBQ DBQ20050607141509406/07/05 14:15:31  5-MIN KDBQ 072015Z 20015KT 10SM CLR 31/18 A2979 1200 44 3300 200/15 RMK AO2
94908KDBQ DBQ20050607142009406/07/05 14:20:31  5-MIN KDBQ 072020Z 20016KT 10SM CLR 31/17 A2979 1200 42 3300 200/16 RMK AO2
94908KDBQ DBQ20050607142509406/07/05 14:25:31  5-MIN KDBQ 072025Z 21013KT 10SM CLR 31/18 A2979 1200 44 3300 210/13 RMK AO2
94908KDBQ DBQ20050607143009406/07/05 14:30:31  5-MIN KDBQ 072030Z 21012KT 10SM CLR 31/18 A2979 1200 44 3300 210/12 RMK AO2
94908KDBQ DBQ20050607143509406/07/05 14:35:31  5-MIN KDBQ 072035Z 23012KT 10SM CLR 31/18 A2978 1200 44 3400 230/12 RMK AO2
94908KDBQ DBQ20050607144009406/07/05 14:40:31  5-MIN KDBQ 072040Z 22012KT 10SM CLR 31/18 A2978 1210 46 3300 220/12 RMK AO2
94908KDBQ DBQ20050607144510006/07/05 14:45:31  5-MIN KDBQ 072045Z 19011G18KT 10SM CLR 31/17 A2978 1210 42 3400 190/11G18 RMK AO2
94908KDBQ DBQ20050607145012306/07/05 14:50:31  5-MIN KDBQ 072050Z 21013G18KT 10SM CLR 31/18 A2978 1210 46 3300 210/13G18 RMK AO2 SLP076 T03060178 58005
94908KDBQ DBQ20050607145511706/07/05 14:55:31  5-MIN KDBQ 072055Z 20013KT 10SM CLR 31/18 A2978 1210 44 3400 200/13 RMK AO2 SLP075 T03110178 56019
94908KDBQ DBQ20050607150009406/07/05 15:00:31  5-MIN KDBQ 072100Z 21011KT 10SM CLR 31/18 A2977 1220 44 3400 210/11 RMK AO2
94908KDBQ DBQ20050607150509406/07/05 15:05:31  5-MIN KDBQ 072105Z 22014KT 10SM CLR 31/18 A2977 1220 44 3400 220/14 RMK AO2
94908KDBQ DBQ20050607151009406/07/05 15:10:31  5-MIN KDBQ 072110Z 21014KT 10SM CLR 31/18 A2977 1220 46 3400 210/14 RMK AO2
94908KDBQ DBQ20050607151509406/07/05 15:15:31  5-MIN KDBQ 072115Z 21011KT 10SM CLR 31/18 A2977 1220 47 3300 210/11 RMK AO2
94908KDBQ DBQ20050607152009406/07/05 15:20:31  5-MIN KDBQ 072120Z 20012KT 10SM CLR 31/19 A2977 1220 47 3400 200/12 RMK AO2
94908KDBQ DBQ20050607152509406/07/05 15:25:31  5-MIN KDBQ 072125Z 20013KT 10SM CLR 31/19 A2976 1230 47 3400 200/13 RMK AO2
94908KDBQ DBQ20050607153009406/07/05 15:30:31  5-MIN KDBQ 072130Z 20013KT 10SM CLR 31/18 A2976 1230 46 3400 200/13 RMK AO2
94908KDBQ DBQ20050607153509406/07/05 15:35:31  5-MIN KDBQ 072135Z 19012KT 10SM CLR 31/18 A2976 1230 44 3400 190/12 RMK AO2
94908KDBQ DBQ20050607154009406/07/05 15:40:31  5-MIN KDBQ 072140Z 21011KT 10SM CLR 30/18 A2976 1230 47 3300 210/11 RMK AO2
94908KDBQ DBQ20050607154509406/07/05 15:45:31  5-MIN KDBQ 072145Z 22011KT 10SM CLR 30/18 A2976 1230 47 3300 220/11 RMK AO2
94908KDBQ DBQ20050607155011106/07/05 15:50:31  5-MIN KDBQ 072150Z 22013KT 10SM CLR 29/18 A2976 1220 49 3200 220/13 RMK AO2 SLP071 T02940178
94908KDBQ DBQ20050607155511406/07/05 15:55:31  5-MIN KDBQ 072155Z 22011KT 10SM FEW060 29/18 A2976 1220 49 3200 220/11 RMK AO2 SLP072 T02940178
94908KDBQ DBQ20050607160009706/07/05 16:00:31  5-MIN KDBQ 072200Z 21013KT 10SM FEW060 30/18 A2976 1220 47 3300 210/13 RMK AO2
94908KDBQ DBQ20050607160509706/07/05 16:05:31  5-MIN KDBQ 072205Z 22010KT 10SM FEW060 31/18 A2976 1220 47 3300 220/10 RMK AO2
94908KDBQ DBQ20050607161009706/07/05 16:10:31  5-MIN KDBQ 072210Z 21012KT 10SM FEW065 31/18 A2976 1230 47 3300 200/12 RMK AO2
94908KDBQ DBQ20050607161509706/07/05 16:15:31  5-MIN KDBQ 072215Z 20011KT 10SM FEW060 30/18 A2976 1230 49 3300 200/11 RMK AO2
94908KDBQ DBQ20050607162009706/07/05 16:20:31  5-MIN KDBQ 072220Z 21014KT 10SM FEW060 31/18 A2976 1230 46 3300 210/14 RMK AO2
94908KDBQ DBQ20050607162509706/07/05 16:25:31  5-MIN KDBQ 072225Z 21012KT 10SM FEW060 31/18 A2976 1220 46 3300 210/12 RMK AO2
94908KDBQ DBQ20050607163009406/07/05 16:30:31  5-MIN KDBQ 072230Z 22010KT 10SM CLR 30/19 A2976 1230 51 3300 220/10 RMK AO2
94908KDBQ DBQ20050607163509406/07/05 16:35:31  5-MIN KDBQ 072235Z 21012KT 10SM CLR 30/18 A2976 1220 49 3300 210/12 RMK AO2
94908KDBQ DBQ20050607164009406/07/05 16:40:31  5-MIN KDBQ 072240Z 21011KT 10SM CLR 29/18 A2976 1220 49 3200 210/11 RMK AO2
94908KDBQ DBQ20050607164509406/07/05 16:45:31  5-MIN KDBQ 072245Z 21012KT 10SM CLR 29/18 A2976 1230 50 3200 210/12 RMK AO2
94908KDBQ DBQ20050607165011106/07/05 16:50:31  5-MIN KDBQ 072250Z 20009KT 10SM CLR 29/18 A2976 1220 50 3200 200/09 RMK AO2 SLP071 T02940183
94908KDBQ DBQ20050607165511106/07/05 16:55:31  5-MIN KDBQ 072255Z 21010KT 10SM CLR 29/19 A2976 1230 52 3200 210/10 RMK AO2 SLP070 T02940189
94908KDBQ DBQ20050607170009406/07/05 17:00:31  5-MIN KDBQ 072300Z 21009KT 10SM CLR 29/19 A2976 1230 56 3100 210/09 RMK AO2
94908KDBQ DBQ20050607170509406/07/05 17:05:31  5-MIN KDBQ 072305Z 21009KT 10SM CLR 29/19 A2976 1230 54 3100 210/09 RMK AO2
94908KDBQ DBQ20050607171009406/07/05 17:10:31  5-MIN KDBQ 072310Z 21008KT 10SM CLR 29/19 A2976 1230 56 3100 210/08 RMK AO2
94908KDBQ DBQ20050607171509406/07/05 17:15:31  5-MIN KDBQ 072315Z 21008KT 10SM CLR 29/19 A2976 1230 56 3100 210/08 RMK AO2
94908KDBQ DBQ20050607172009406/07/05 17:20:31  5-MIN KDBQ 072320Z 21008KT 10SM CLR 29/19 A2976 1230 56 3100 210/08 RMK AO2
94908KDBQ DBQ20050607172509406/07/05 17:25:31  5-MIN KDBQ 072325Z 20008KT 10SM CLR 29/19 A2975 1230 56 3100 200/08 RMK AO2
94908KDBQ DBQ20050607173009406/07/05 17:30:31  5-MIN KDBQ 072330Z 20008KT 10SM CLR 29/19 A2975 1230 56 3100 200/08 RMK AO2
94908KDBQ DBQ20050607173509406/07/05 17:35:31  5-MIN KDBQ 072335Z 20008KT 10SM CLR 28/19 A2975 1230 58 3100 200/08 RMK AO2
94908KDBQ DBQ20050607174009406/07/05 17:40:31  5-MIN KDBQ 072340Z 20008KT 10SM CLR 28/19 A2976 1230 58 3100 200/08 RMK AO2
94908KDBQ DBQ20050607174509406/07/05 17:45:31  5-MIN KDBQ 072345Z 20007KT 10SM CLR 28/19 A2976 1230 58 3100 200/07 RMK AO2
94908KDBQ DBQ20050607175012906/07/05 17:50:31  5-MIN KDBQ 072350Z 20007KT 10SM CLR 28/19 A2976 1230 58 3100 190/07 RMK AO2 SLP069 T02830194 10311 20283 56019
94908KDBQ DBQ20050607175512906/07/05 17:55:31  5-MIN KDBQ 072355Z 19007KT 10SM CLR 28/19 A2976 1230 58 3100 190/07 RMK AO2 SLP070 T02830194 10311 20283 56005
94908KDBQ DBQ20050607180009406/07/05 18:00:31  5-MIN KDBQ 080000Z 19008KT 10SM CLR 28/19 A2976 1230 58 3100 190/08 RMK AO2
94908KDBQ DBQ20050607180509406/07/05 18:05:31  5-MIN KDBQ 080005Z 20008KT 10SM CLR 28/19 A2976 1230 60 3000 200/08 RMK AO2
94908KDBQ DBQ20050607181009406/07/05 18:10:31  5-MIN KDBQ 080010Z 20008KT 10SM CLR 28/20 A2976 1230 62 3000 200/08 RMK AO2
94908KDBQ DBQ20050607181509406/07/05 18:15:31  5-MIN KDBQ 080015Z 20008KT 10SM CLR 28/20 A2976 1230 62 3000 200/08 RMK AO2
94908KDBQ DBQ20050607182009406/07/05 18:20:31  5-MIN KDBQ 080020Z 20008KT 10SM CLR 27/20 A2976 1230 64 3000 200/08 RMK AO2
94908KDBQ DBQ20050607182509406/07/05 18:25:31  5-MIN KDBQ 080025Z 20009KT 10SM CLR 27/20 A2976 1230 64 3000 200/09 RMK AO2
94908KDBQ DBQ20050607183009406/07/05 18:30:31  5-MIN KDBQ 080030Z 20009KT 10SM CLR 27/20 A2976 1230 64 3000 200/09 RMK AO2
94908KDBQ DBQ20050607183509406/07/05 18:35:31  5-MIN KDBQ 080035Z 20009KT 10SM CLR 27/20 A2975 1230 64 3000 190/09 RMK AO2
94908KDBQ DBQ20050607184009406/07/05 18:40:31  5-MIN KDBQ 080040Z 20009KT 10SM CLR 27/20 A2975 1230 64 3000 200/09 RMK AO2
94908KDBQ DBQ20050607184510506/07/05 18:45:31  5-MIN KDBQ 080045Z AUTO 20010KT 10SM CLR 27/20 A2975  1230 64 3000 200/10 RMK AO2 TSNO
94908KDBQ DBQ20050607185012206/07/05 18:50:31  5-MIN KDBQ 080050Z AUTO 20010KT 10SM CLR 27/19 A2975  1230 62 3000 200/10 RMK AO2 SLP067 T02720194 TSNO
94908KDBQ DBQ20050607185512206/07/05 18:55:31  5-MIN KDBQ 080055Z AUTO 20010KT 10SM CLR 27/19 A2975  1230 62 3000 200/10 RMK AO2 SLP068 T02720194 TSNO
94908KDBQ DBQ20050607190010506/07/05 19:00:31  5-MIN KDBQ 080100Z AUTO 21010KT 10SM CLR 27/19 A2976  1230 62 3000 210/10 RMK AO2 TSNO
94908KDBQ DBQ20050607190510506/07/05 19:05:31  5-MIN KDBQ 080105Z AUTO 21009KT 10SM CLR 27/19 A2976  1230 62 3000 210/09 RMK AO2 TSNO
94908KDBQ DBQ20050607191010506/07/05 19:10:31  5-MIN KDBQ 080110Z AUTO 21009KT 10SM CLR 27/19 A2976  1230 62 2900 210/09 RMK AO2 TSNO
94908KDBQ DBQ20050607191510506/07/05 19:15:31  5-MIN KDBQ 080115Z AUTO 21009KT 10SM CLR 27/19 A2976  1230 62 2900 210/09 RMK AO2 TSNO
94908KDBQ DBQ20050607192010506/07/05 19:20:31  5-MIN KDBQ 080120Z AUTO 21009KT 10SM CLR 27/19 A2976  1230 62 2900 210/09 RMK AO2 TSNO
94908KDBQ DBQ20050607192510506/07/05 19:25:31  5-MIN KDBQ 080125Z AUTO 21009KT 10SM CLR 26/19 A2976  1230 64 2800 210/09 RMK AO2 TSNO
94908KDBQ DBQ20050607193010506/07/05 19:30:31  5-MIN KDBQ 080130Z AUTO 21009KT 10SM CLR 26/19 A2976  1230 64 2800 210/09 RMK AO2 TSNO
94908KDBQ DBQ20050607193510506/07/05 19:35:31  5-MIN KDBQ 080135Z AUTO 21009KT 10SM CLR 26/19 A2976  1230 66 2800 210/09 RMK AO2 TSNO
94908KDBQ DBQ20050607194010506/07/05 19:40:31  5-MIN KDBQ 080140Z AUTO 21009KT 10SM CLR 26/18 A2976  1230 64 2800 200/09 RMK AO2 TSNO
94908KDBQ DBQ20050607194510506/07/05 19:45:31  5-MIN KDBQ 080145Z AUTO 20009KT 10SM CLR 26/18 A2976  1230 64 2800 200/09 RMK AO2 TSNO
94908KDBQ DBQ20050607195012206/07/05 19:50:31  5-MIN KDBQ 080150Z AUTO 20010KT 10SM CLR 26/18 A2976  1230 64 2800 200/10 RMK AO2 SLP068 T02560183 TSNO
94908KDBQ DBQ20050607195512206/07/05 19:55:31  5-MIN KDBQ 080155Z AUTO 20010KT 10SM CLR 26/18 A2976  1230 64 2800 200/10 RMK AO2 SLP068 T02560183 TSNO
94908KDBQ DBQ20050607200010506/07/05 20:00:31  5-MIN KDBQ 080200Z AUTO 21009KT 10SM CLR 25/18 A2976  1230 66 2700 200/09 RMK AO2 TSNO
94908KDBQ DBQ20050607200510506/07/05 20:05:31  5-MIN KDBQ 080205Z AUTO 21007KT 10SM CLR 25/18 A2976  1230 66 2700 210/07 RMK AO2 TSNO
94908KDBQ DBQ20050607201010506/07/05 20:10:31  5-MIN KDBQ 080210Z AUTO 21007KT 10SM CLR 24/18 A2976  1220 68 2600 210/07 RMK AO2 TSNO
94908KDBQ DBQ20050607201510506/07/05 20:15:31  5-MIN KDBQ 080215Z AUTO 22006KT 10SM CLR 24/18 A2977  1220 68 2600 220/06 RMK AO2 TSNO
94908KDBQ DBQ20050607202010506/07/05 20:20:31  5-MIN KDBQ 080220Z AUTO 22006KT 10SM CLR 24/18 A2977  1220 66 2600 220/06 RMK AO2 TSNO
94908KDBQ DBQ20050607202510506/07/05 20:25:31  5-MIN KDBQ 080225Z AUTO 22006KT 10SM CLR 24/18 A2977  1220 66 2600 220/06 RMK AO2 TSNO
94908KDBQ DBQ20050607203010506/07/05 20:30:31  5-MIN KDBQ 080230Z AUTO 22006KT 10SM CLR 24/18 A2978  1210 66 2600 220/06 RMK AO2 TSNO
94908KDBQ DBQ20050607203510506/07/05 20:35:31  5-MIN KDBQ 080235Z AUTO 22005KT 10SM CLR 24/18 A2977  1210 68 2600 220/05 RMK AO2 TSNO
94908KDBQ DBQ20050607204010506/07/05 20:40:31  5-MIN KDBQ 080240Z AUTO 22004KT 10SM CLR 24/18 A2978  1210 68 2600 220/04 RMK AO2 TSNO
94908KDBQ DBQ20050607204510506/07/05 20:45:31  5-MIN KDBQ 080245Z AUTO 22003KT 10SM CLR 24/18 A2978  1210 68 2600 220/03 RMK AO2 TSNO
94908KDBQ DBQ20050607205012806/07/05 20:50:31  5-MIN KDBQ 080250Z AUTO 21003KT 10SM CLR 24/18 A2979  1200 68 2500 210/03 RMK AO2 SLP078 T02390178 56005 TSNO
94908KDBQ DBQ20050607205512806/07/05 20:55:31  5-MIN KDBQ 080255Z AUTO 18004KT 10SM CLR 23/18 A2979  1200 70 2500 180/04 RMK AO2 SLP078 T02330178 53009 TSNO
94908KDBQ DBQ20050607210010506/07/05 21:00:31  5-MIN KDBQ 080300Z AUTO 19004KT 10SM CLR 23/18 A2979  1200 70 2500 180/04 RMK AO2 TSNO
94908KDBQ DBQ20050607210510506/07/05 21:05:31  5-MIN KDBQ 080305Z AUTO 18004KT 10SM CLR 23/18 A2978  1200 70 2500 180/04 RMK AO2 TSNO
94908KDBQ DBQ20050607211010506/07/05 21:10:31  5-MIN KDBQ 080310Z AUTO 18005KT 10SM CLR 23/18 A2978  1210 70 2500 180/05 RMK AO2 TSNO
94908KDBQ DBQ20050607211510506/07/05 21:15:31  5-MIN KDBQ 080315Z AUTO 17005KT 10SM CLR 23/18 A2978  1210 73 2400 170/05 RMK AO2 TSNO
94908KDBQ DBQ20050607212010506/07/05 21:20:31  5-MIN KDBQ 080320Z AUTO 17006KT 10SM CLR 23/18 A2978  1210 73 2400 170/06 RMK AO2 TSNO
94908KDBQ DBQ20050607212510506/07/05 21:25:31  5-MIN KDBQ 080325Z AUTO 18007KT 10SM CLR 23/18 A2978  1210 73 2400 180/07 RMK AO2 TSNO
94908KDBQ DBQ20050607213010506/07/05 21:30:31  5-MIN KDBQ 080330Z AUTO 18006KT 10SM CLR 23/18 A2978  1210 70 2500 180/06 RMK AO2 TSNO
94908KDBQ DBQ20050607213510506/07/05 21:35:31  5-MIN KDBQ 080335Z AUTO 18006KT 10SM CLR 23/18 A2978  1210 70 2500 180/06 RMK AO2 TSNO
94908KDBQ DBQ20050607214010506/07/05 21:40:31  5-MIN KDBQ 080340Z AUTO 18005KT 10SM CLR 23/18 A2978  1210 70 2500 180/05 RMK AO2 TSNO
94908KDBQ DBQ20050607214510506/07/05 21:45:31  5-MIN KDBQ 080345Z AUTO 18005KT 10SM CLR 23/18 A2977  1210 73 2400 180/05 RMK AO2 TSNO
94908KDBQ DBQ20050607215012206/07/05 21:50:31  5-MIN KDBQ 080350Z AUTO 18005KT 10SM CLR 22/18 A2978  1210 75 2400 180/05 RMK AO2 SLP075 T02220178 TSNO
94908KDBQ DBQ20050607215512206/07/05 21:55:31  5-MIN KDBQ 080355Z AUTO 17007KT 10SM CLR 23/18 A2977  1210 73 2400 170/07 RMK AO2 SLP074 T02280178 TSNO
94908KDBQ DBQ20050607220010506/07/05 22:00:31  5-MIN KDBQ 080400Z AUTO 17007KT 10SM CLR 23/17 A2977  1210 68 2500 160/07 RMK AO2 TSNO
94908KDBQ DBQ20050607220510506/07/05 22:05:31  5-MIN KDBQ 080405Z AUTO 16007KT 10SM CLR 23/17 A2978  1210 68 2500 160/07 RMK AO2 TSNO
94908KDBQ DBQ20050607221010506/07/05 22:10:31  5-MIN KDBQ 080410Z AUTO 16008KT 10SM CLR 23/17 A2978  1210 68 2500 160/08 RMK AO2 TSNO
94908KDBQ DBQ20050607221510506/07/05 22:15:31  5-MIN KDBQ 080415Z AUTO 16008KT 10SM CLR 23/17 A2978  1210 68 2500 160/08 RMK AO2 TSNO
94908KDBQ DBQ20050607222010506/07/05 22:20:31  5-MIN KDBQ 080420Z AUTO 16007KT 10SM CLR 23/17 A2978  1200 68 2500 160/07 RMK AO2 TSNO
94908KDBQ DBQ20050607222510506/07/05 22:25:31  5-MIN KDBQ 080425Z AUTO 16007KT 10SM CLR 23/17 A2978  1200 68 2500 160/07 RMK AO2 TSNO
94908KDBQ DBQ20050607223010506/07/05 22:30:31  5-MIN KDBQ 080430Z AUTO 16008KT 10SM CLR 23/17 A2979  1200 68 2500 160/08 RMK AO2 TSNO
94908KDBQ DBQ20050607223510506/07/05 22:35:31  5-MIN KDBQ 080435Z AUTO 15007KT 10SM CLR 23/17 A2979  1200 68 2500 150/07 RMK AO2 TSNO
94908KDBQ DBQ20050607224010506/07/05 22:40:31  5-MIN KDBQ 080440Z AUTO 15008KT 10SM CLR 24/17 A2980  1190 66 2500 150/08 RMK AO2 TSNO
94908KDBQ DBQ20050607224510506/07/05 22:45:31  5-MIN KDBQ 080445Z AUTO 15006KT 10SM CLR 24/17 A2980  1190 66 2500 150/06 RMK AO2 TSNO
94908KDBQ DBQ20050607225012206/07/05 22:50:31  5-MIN KDBQ 080450Z AUTO 15005KT 10SM CLR 24/17 A2980  1190 66 2500 150/05 RMK AO2 SLP083 T02390172 TSNO
94908KDBQ DBQ20050607225512206/07/05 22:55:31  5-MIN KDBQ 080455Z AUTO 15005KT 10SM CLR 24/18 A2980  1190 68 2500 150/05 RMK AO2 SLP083 T02390178 TSNO
94908KDBQ DBQ20050607230010506/07/05 23:00:31  5-MIN KDBQ 080500Z AUTO 14005KT 10SM CLR 24/17 A2980  1190 66 2500 140/05 RMK AO2 TSNO
94908KDBQ DBQ20050607230510506/07/05 23:05:31  5-MIN KDBQ 080505Z AUTO 14006KT 10SM CLR 23/18 A2981  1180 70 2500 140/06 RMK AO2 TSNO
94908KDBQ DBQ20050607231010506/07/05 23:10:31  5-MIN KDBQ 080510Z AUTO 15007KT 10SM CLR 23/17 A2981  1180 68 2500 150/07 RMK AO2 TSNO
94908KDBQ DBQ20050607231510506/07/05 23:15:31  5-MIN KDBQ 080515Z AUTO 15006KT 10SM CLR 23/18 A2981  1180 70 2500 150/06 RMK AO2 TSNO
94908KDBQ DBQ20050607232010506/07/05 23:20:31  5-MIN KDBQ 080520Z AUTO 15007KT 10SM CLR 23/18 A2981  1180 70 2500 150/07 RMK AO2 TSNO
94908KDBQ DBQ20050607232510506/07/05 23:25:31  5-MIN KDBQ 080525Z AUTO 15006KT 10SM CLR 23/18 A2981  1180 70 2500 150/06 RMK AO2 TSNO
94908KDBQ DBQ20050607233010506/07/05 23:30:31  5-MIN KDBQ 080530Z AUTO 00000KT 10SM CLR 23/18 A2981  1180 73 2400 000/00 RMK AO2 TSNO
94908KDBQ DBQ20050607233510506/07/05 23:35:31  5-MIN KDBQ 080535Z AUTO 18003KT 10SM CLR 22/17 A2981  1180 73 2300 180/03 RMK AO2 TSNO
94908KDBQ DBQ20050607234010506/07/05 23:40:31  5-MIN KDBQ 080540Z AUTO 17005KT 10SM CLR 23/18 A2981  1180 70 2500 170/05 RMK AO2 TSNO
94908KDBQ DBQ20050607234510506/07/05 23:45:31  5-MIN KDBQ 080545Z AUTO 19004KT 10SM CLR 22/18 A2981  1180 75 2300 190/04 RMK AO2 TSNO
94908KDBQ DBQ20050607235015106/07/05 23:50:31  5-MIN KDBQ 080550Z AUTO 19005KT 10SM CLR 22/18 A2981  1180 78 2300 180/05 RMK AO2 SLP086 T02170178 10283 20217 403110172 53009  TSNO
94908KDBQ DBQ20050607235515106/07/05 23:55:31  5-MIN KDBQ 080555Z AUTO 18005KT 10SM CLR 22/17 A2981  1180 75 2300 180/05 RMK AO2 SLP086 T02170172 10283 20217 403110172 53007  TSNO
94908KDBQ DBQ20050608000010506/08/05 00:00:38  5-MIN KDBQ 080600Z AUTO 18004KT 10SM CLR 22/17 A2981  1180 75 2300 180/04 RMK AO2 TSNO
94908KDBQ DBQ20050608000510506/08/05 00:05:31  5-MIN KDBQ 080605Z AUTO 18004KT 10SM CLR 22/18 A2981  1180 78 2300 180/04 RMK AO2 TSNO
94908KDBQ DBQ20050608001010506/08/05 00:10:31  5-MIN KDBQ 080610Z AUTO 19004KT 10SM CLR 22/17 A2981  1180 75 2300 190/04 RMK AO2 TSNO
94908KDBQ DBQ20050608001510506/08/05 00:15:31  5-MIN KDBQ 080615Z AUTO 20004KT 10SM CLR 21/17 A2980  1190 78 2200 200/04 RMK AO2 TSNO
94908KDBQ DBQ20050608002010506/08/05 00:20:31  5-MIN KDBQ 080620Z AUTO 18004KT 10SM CLR 22/17 A2980  1190 75 2300 180/04 RMK AO2 TSNO
94908KDBQ DBQ20050608002510506/08/05 00:25:31  5-MIN KDBQ 080625Z AUTO 18004KT 10SM CLR 22/17 A2980  1190 75 2300 180/04 RMK AO2 TSNO
94908KDBQ DBQ20050608003010506/08/05 00:30:31  5-MIN KDBQ 080630Z AUTO 17005KT 10SM CLR 21/17 A2980  1190 78 2200 170/05 RMK AO2 TSNO
94908KDBQ DBQ20050608003510506/08/05 00:35:31  5-MIN KDBQ 080635Z AUTO 17007KT 10SM CLR 21/17 A2980  1190 78 2200 160/07 RMK AO2 TSNO
94908KDBQ DBQ20050608004010506/08/05 00:40:31  5-MIN KDBQ 080640Z AUTO 16008KT 10SM CLR 22/17 A2980  1190 73 2300 160/08 RMK AO2 TSNO
94908KDBQ DBQ20050608004510506/08/05 00:45:31  5-MIN KDBQ 080645Z AUTO 16009KT 10SM CLR 22/17 A2980  1190 73 2300 160/09 RMK AO2 TSNO
94908KDBQ DBQ20050608005012206/08/05 00:50:31  5-MIN KDBQ 080650Z AUTO 16009KT 10SM CLR 22/17 A2980  1190 73 2300 160/09 RMK AO2 SLP081 T02220172 TSNO
94908KDBQ DBQ20050608005512206/08/05 00:55:31  5-MIN KDBQ 080655Z AUTO 16009KT 10SM CLR 22/17 A2980  1190 73 2300 160/09 RMK AO2 SLP082 T02220172 TSNO
94908KDBQ DBQ20050608010010506/08/05 01:00:31  5-MIN KDBQ 080700Z AUTO 16008KT 10SM CLR 22/17 A2980  1190 75 2300 160/08 RMK AO2 TSNO
94908KDBQ DBQ20050608010510506/08/05 01:05:31  5-MIN KDBQ 080705Z AUTO 16008KT 10SM CLR 22/17 A2980  1190 75 2300 160/08 RMK AO2 TSNO
94908KDBQ DBQ20050608011010506/08/05 01:10:31  5-MIN KDBQ 080710Z AUTO 17008KT 10SM CLR 21/17 A2980  1190 78 2200 170/08 RMK AO2 TSNO
94908KDBQ DBQ20050608011510506/08/05 01:15:31  5-MIN KDBQ 080715Z AUTO 17007KT 10SM CLR 21/17 A2980  1190 78 2200 170/07 RMK AO2 TSNO
94908KDBQ DBQ20050608012010506/08/05 01:20:31  5-MIN KDBQ 080720Z AUTO 18006KT 10SM CLR 21/17 A2980  1190 81 2100 180/06 RMK AO2 TSNO
94908KDBQ DBQ20050608012510506/08/05 01:25:31  5-MIN KDBQ 080725Z AUTO 19005KT 10SM CLR 21/17 A2981  1180 81 2100 190/05 RMK AO2 TSNO
94908KDBQ DBQ20050608013010506/08/05 01:30:31  5-MIN KDBQ 080730Z AUTO 19004KT 10SM CLR 21/17 A2981  1180 78 2200 190/04 RMK AO2 TSNO
94908KDBQ DBQ20050608013510506/08/05 01:35:31  5-MIN KDBQ 080735Z AUTO 20004KT 10SM CLR 21/17 A2980  1190 81 2100 190/04 RMK AO2 TSNO
94908KDBQ DBQ20050608014010506/08/05 01:40:31  5-MIN KDBQ 080740Z AUTO 18005KT 10SM CLR 21/17 A2980  1190 78 2200 180/05 RMK AO2 TSNO
94908KDBQ DBQ20050608014510506/08/05 01:45:31  5-MIN KDBQ 080745Z AUTO 19005KT 10SM CLR 21/17 A2981  1180 81 2100 190/05 RMK AO2 TSNO
94908KDBQ DBQ20050608015012206/08/05 01:50:31  5-MIN KDBQ 080750Z AUTO 19005KT 10SM CLR 22/17 A2981  1180 75 2300 190/05 RMK AO2 SLP084 T02170172 TSNO
94908KDBQ DBQ20050608015512206/08/05 01:55:31  5-MIN KDBQ 080755Z AUTO 19004KT 10SM CLR 21/17 A2981  1180 78 2200 180/04 RMK AO2 SLP084 T02110172 TSNO
94908KDBQ DBQ20050608020010506/08/05 02:00:31  5-MIN KDBQ 080800Z AUTO 18004KT 10SM CLR 21/17 A2980  1190 78 2200 180/04 RMK AO2 TSNO
94908KDBQ DBQ20050608020510506/08/05 02:05:31  5-MIN KDBQ 080805Z AUTO 19005KT 10SM CLR 21/17 A2980  1190 78 2200 180/05 RMK AO2 TSNO
94908KDBQ DBQ20050608021010506/08/05 02:10:31  5-MIN KDBQ 080810Z AUTO 18005KT 10SM CLR 21/17 A2980  1190 78 2200 180/05 RMK AO2 TSNO
94908KDBQ DBQ20050608021510506/08/05 02:15:31  5-MIN KDBQ 080815Z AUTO 17003KT 10SM CLR 21/17 A2980  1190 81 2200 170/03 RMK AO2 TSNO
94908KDBQ DBQ20050608022010506/08/05 02:20:31  5-MIN KDBQ 080820Z AUTO 16005KT 10SM CLR 21/17 A2980  1190 81 2200 160/05 RMK AO2 TSNO
94908KDBQ DBQ20050608022510506/08/05 02:25:31  5-MIN KDBQ 080825Z AUTO 15005KT 10SM CLR 21/18 A2980  1190 81 2200 150/05 RMK AO2 TSNO
94908KDBQ DBQ20050608023010506/08/05 02:30:31  5-MIN KDBQ 080830Z AUTO 15005KT 10SM CLR 21/18 A2980  1190 81 2200 150/05 RMK AO2 TSNO
94908KDBQ DBQ20050608023510506/08/05 02:35:31  5-MIN KDBQ 080835Z AUTO 14004KT 10SM CLR 21/18 A2981  1180 84 2100 140/04 RMK AO2 TSNO
94908KDBQ DBQ20050608024010506/08/05 02:40:31  5-MIN KDBQ 080840Z AUTO 14003KT 10SM CLR 21/18 A2981  1180 81 2200 140/03 RMK AO2 TSNO
94908KDBQ DBQ20050608024510506/08/05 02:45:31  5-MIN KDBQ 080845Z AUTO 14003KT 10SM CLR 21/18 A2981  1180 84 2100 140/03 RMK AO2 TSNO
94908KDBQ DBQ20050608025012806/08/05 02:50:31  5-MIN KDBQ 080850Z AUTO 14004KT 10SM CLR 21/18 A2981  1180 84 2100 140/04 RMK AO2 SLP085 T02060178 53007 TSNO
94908KDBQ DBQ20050608025512806/08/05 02:55:31  5-MIN KDBQ 080855Z AUTO 14004KT 10SM CLR 21/18 A2980  1190 84 2100 140/04 RMK AO2 SLP083 T02060178 56001 TSNO
94908KDBQ DBQ20050608030010506/08/05 03:00:31  5-MIN KDBQ 080900Z AUTO 15004KT 10SM CLR 21/18 A2980  1190 81 2200 150/04 RMK AO2 TSNO
94908KDBQ DBQ20050608030510506/08/05 03:05:31  5-MIN KDBQ 080905Z AUTO 16003KT 10SM CLR 21/18 A2980  1190 81 2200 160/03 RMK AO2 TSNO
94908KDBQ DBQ20050608031010506/08/05 03:10:31  5-MIN KDBQ 080910Z AUTO 16003KT 10SM CLR 21/18 A2980  1190 84 2100 160/03 RMK AO2 TSNO
94908KDBQ DBQ20050608031510506/08/05 03:15:31  5-MIN KDBQ 080915Z AUTO 14004KT 10SM CLR 21/17 A2980  1190 81 2200 140/04 RMK AO2 TSNO
94908KDBQ DBQ20050608032010506/08/05 03:20:31  5-MIN KDBQ 080920Z AUTO 15004KT 10SM CLR 21/18 A2979  1200 84 2200 150/04 RMK AO2 TSNO
94908KDBQ DBQ20050608032511206/08/05 03:25:31  5-MIN KDBQ 080925Z AUTO 15005KT 10SM CLR 21/18 A2978  1200 84 2200 150/05 RMK AO2 PRESFR TSNO
94908KDBQ DBQ20050608033011206/08/05 03:30:31  5-MIN KDBQ 080930Z AUTO 15006KT 10SM CLR 21/18 A2978  1210 81 2200 150/06 RMK AO2 PRESFR TSNO
94908KDBQ DBQ20050608033510506/08/05 03:35:31  5-MIN KDBQ 080935Z AUTO 16007KT 10SM CLR 21/18 A2978  1210 81 2200 160/07 RMK AO2 TSNO
94908KDBQ DBQ20050608034010506/08/05 03:40:31  5-MIN KDBQ 080940Z AUTO 16006KT 10SM CLR 21/18 A2977  1210 81 2200 160/06 RMK AO2 TSNO
94908KDBQ DBQ20050608034510506/08/05 03:45:31  5-MIN KDBQ 080945Z AUTO 17007KT 10SM CLR 21/18 A2978  1210 84 2200 170/07 RMK AO2 TSNO
94908KDBQ DBQ20050608035012206/08/05 03:50:31  5-MIN KDBQ 080950Z AUTO 17008KT 10SM CLR 21/18 A2977  1220 84 2200 160/08 RMK AO2 SLP072 T02060178 TSNO
94908KDBQ DBQ20050608035512206/08/05 03:55:31  5-MIN KDBQ 080955Z AUTO 16009KT 10SM CLR 21/18 A2976  1220 84 2200 160/09 RMK AO2 SLP071 T02060178 TSNO
94908KDBQ DBQ20050608040010506/08/05 04:00:31  5-MIN KDBQ 081000Z AUTO 18008KT 10SM CLR 21/18 A2978  1210 84 2200 180/08 RMK AO2 TSNO
94908KDBQ DBQ20050608040510506/08/05 04:05:31  5-MIN KDBQ 081005Z AUTO 20007KT 10SM CLR 20/18 A2978  1210 87 2100 200/07 RMK AO2 TSNO
94908KDBQ DBQ20050608041010506/08/05 04:10:31  5-MIN KDBQ 081010Z AUTO 20007KT 10SM CLR 19/17 A2978  1210 87 2000 200/07 RMK AO2 TSNO
94908KDBQ DBQ20050608041510306/08/05 04:15:31  5-MIN KDBQ 081015Z AUTO 19007KT 9SM CLR 19/17 A2978 1210 87 2000 190/07 RMK AO2 TSNO
94908KDBQ DBQ20050608042010306/08/05 04:20:31  5-MIN KDBQ 081020Z AUTO 18007KT 9SM CLR 19/17 A2978 1210 87 2000 180/07 RMK AO2 TSNO
94908KDBQ DBQ20050608042510306/08/05 04:25:31  5-MIN KDBQ 081025Z AUTO 17008KT 8SM CLR 20/17 A2977 1210 84 2100 170/08 RMK AO2 TSNO
94908KDBQ DBQ20050608043010306/08/05 04:30:31  5-MIN KDBQ 081030Z AUTO 17008KT 8SM CLR 20/17 A2978 1210 84 2100 170/08 RMK AO2 TSNO
94908KDBQ DBQ20050608043510306/08/05 04:35:31  5-MIN KDBQ 081035Z AUTO 17007KT 8SM CLR 20/17 A2978 1210 84 2100 160/07 RMK AO2 TSNO
94908KDBQ DBQ20050608044010306/08/05 04:40:31  5-MIN KDBQ 081040Z AUTO 17008KT 8SM CLR 20/17 A2977 1210 84 2100 170/08 RMK AO2 TSNO
94908KDBQ DBQ20050608044510306/08/05 04:45:31  5-MIN KDBQ 081045Z AUTO 17008KT 8SM CLR 20/17 A2977 1220 84 2100 170/08 RMK AO2 TSNO
94908KDBQ DBQ20050608045012006/08/05 04:50:31  5-MIN KDBQ 081050Z AUTO 17009KT 9SM CLR 20/17 A2977 1220 84 2100 170/09 RMK AO2 SLP073 T02000172 TSNO
94908KDBQ DBQ20050608045511106/08/05 04:55:31  5-MIN KDBQ 081055Z 17009KT 9SM CLR 20/17 A2977 1210 84  2100 170/09 RMK AO2 SLP074 T02000172
94908KDBQ DBQ20050608050009406/08/05 05:00:31  5-MIN KDBQ 081100Z 18008KT 9SM CLR 20/17 A2977 1210 84  2100 170/08 RMK AO2
94908KDBQ DBQ20050608050509406/08/05 05:05:31  5-MIN KDBQ 081105Z 18008KT 9SM CLR 19/17 A2977 1210 87  2100 180/08 RMK AO2
94908KDBQ DBQ20050608051009406/08/05 05:10:31  5-MIN KDBQ 081110Z 18008KT 8SM CLR 19/17 A2977 1210 87  2100 180/08 RMK AO2
94908KDBQ DBQ20050608051509406/08/05 05:15:31  5-MIN KDBQ 081115Z 18009KT 8SM CLR 20/17 A2977 1220 84  2100 180/09 RMK AO2
94908KDBQ DBQ20050608052009406/08/05 05:20:31  5-MIN KDBQ 081120Z 19010KT 9SM CLR 20/18 A2977 1220 87  2100 190/10 RMK AO2
94908KDBQ DBQ20050608052509406/08/05 05:25:31  5-MIN KDBQ 081125Z 19011KT 9SM CLR 21/18 A2976 1220 84  2200 190/11 RMK AO2
94908KDBQ DBQ20050608053009406/08/05 05:30:31  5-MIN KDBQ 081130Z 19011KT 9SM CLR 21/18 A2976 1220 84  2200 180/11 RMK AO2
94908KDBQ DBQ20050608053509406/08/05 05:35:31  5-MIN KDBQ 081135Z 18010KT 9SM CLR 21/18 A2976 1230 84  2200 180/10 RMK AO2
94908KDBQ DBQ20050608054009406/08/05 05:40:31  5-MIN KDBQ 081140Z 19011KT 9SM CLR 21/18 A2976 1230 84  2200 190/11 RMK AO2
94908KDBQ DBQ20050608054509406/08/05 05:45:31  5-MIN KDBQ 081145Z 18010KT 10SM CLR 21/18 A2976 1230 84 2200 180/10 RMK AO2
94908KDBQ DBQ20050608055012906/08/05 05:50:31  5-MIN KDBQ 081150Z 18010KT 10SM CLR 21/18 A2976 1230 84 2200 180/10 RMK AO2 SLP070 T02060178 10222 20194 56001
94908KDBQ DBQ20050608055512906/08/05 05:55:31  5-MIN KDBQ 081155Z 18012KT 10SM CLR 21/18 A2976 1230 81 2300 180/12 RMK AO2 SLP068 T02110178 10222 20194 56016
94908KDBQ DBQ20050608060009406/08/05 06:00:31  5-MIN KDBQ 081200Z 18011KT 10SM CLR 21/18 A2975 1230 81 2300 180/11 RMK AO2
94908KDBQ DBQ20050608060509406/08/05 06:05:31  5-MIN KDBQ 081205Z 19012KT 10SM CLR 22/18 A2975 1230 78 2300 190/12 RMK AO2
94908KDBQ DBQ20050608061009406/08/05 06:10:31  5-MIN KDBQ 081210Z 19013KT 10SM CLR 22/17 A2976 1230 75 2300 190/13 RMK AO2
94908KDBQ DBQ20050608061509406/08/05 06:15:31  5-MIN KDBQ 081215Z 20013KT 10SM CLR 22/17 A2976 1230 75 2300 200/13 RMK AO2
94908KDBQ DBQ20050608062009406/08/05 06:20:31  5-MIN KDBQ 081220Z 20011KT 10SM CLR 22/17 A2977 1220 73 2400 200/11 RMK AO2
94908KDBQ DBQ20050608062510106/08/05 06:25:31  5-MIN KDBQ 081225Z 20011KT 10SM CLR 22/17 A2978 1210 73 2400 200/11 RMK AO2 PRESRR
94908KDBQ DBQ20050608063009406/08/05 06:30:31  5-MIN KDBQ 081230Z 20011KT 10SM CLR 22/17 A2978 1210 73 2400 200/11 RMK AO2
94908KDBQ DBQ20050608063509406/08/05 06:35:31  5-MIN KDBQ 081235Z 20012KT 10SM CLR 22/17 A2978 1210 73 2400 200/12 RMK AO2
94908KDBQ DBQ20050608064009406/08/05 06:40:31  5-MIN KDBQ 081240Z 20011KT 10SM CLR 22/17 A2979 1200 73 2400 200/11 RMK AO2
94908KDBQ DBQ20050608064509406/08/05 06:45:31  5-MIN KDBQ 081245Z 20010KT 10SM CLR 23/17 A2980 1190 70 2400 200/10 RMK AO2
94908KDBQ DBQ20050608065011106/08/05 06:50:31  5-MIN KDBQ 081250Z 21012KT 10SM CLR 22/17 A2980 1190 73 2300 200/12 RMK AO2 SLP083 T02220172
94908KDBQ DBQ20050608065511806/08/05 06:55:31  5-MIN KDBQ 081255Z 21011KT 10SM CLR 22/17 A2981 1180 73 2300 210/11 RMK AO2 PRESRR SLP085 T02220172
94908KDBQ DBQ20050608070010106/08/05 07:00:31  5-MIN KDBQ 081300Z 22011KT 10SM CLR 22/18 A2981 1180 75 2300 210/11 RMK AO2 PRESRR
94908KDBQ DBQ20050608070509406/08/05 07:05:31  5-MIN KDBQ 081305Z 21012KT 10SM CLR 22/17 A2981 1180 73 2300 210/12 RMK AO2
94908KDBQ DBQ20050608071009406/08/05 07:10:31  5-MIN KDBQ 081310Z 21011KT 10SM CLR 22/18 A2981 1180 75 2300 210/11 RMK AO2
94908KDBQ DBQ20050608071509406/08/05 07:15:31  5-MIN KDBQ 081315Z 21011KT 10SM CLR 23/18 A2982 1180 73 2400 210/11 RMK AO2
94908KDBQ DBQ20050608072009406/08/05 07:20:31  5-MIN KDBQ 081320Z 22012KT 10SM CLR 23/18 A2982 1180 73 2400 210/12 RMK AO2
94908KDBQ DBQ20050608072509406/08/05 07:25:31  5-MIN KDBQ 081325Z 22010KT 10SM CLR 23/18 A2982 1170 73 2400 220/10 RMK AO2
94908KDBQ DBQ20050608073009406/08/05 07:30:31  5-MIN KDBQ 081330Z 23009KT 10SM CLR 23/18 A2982 1170 76 2400 220/09 RMK AO2
94908KDBQ DBQ20050608073509406/08/05 07:35:31  5-MIN KDBQ 081335Z 22012KT 10SM CLR 23/18 A2982 1180 73 2400 220/12 RMK AO2
94908KDBQ DBQ20050608074009406/08/05 07:40:31  5-MIN KDBQ 081340Z 21011KT 10SM CLR 23/18 A2981 1180 73 2400 210/11 RMK AO2
94908KDBQ DBQ20050608074509706/08/05 07:45:31  5-MIN KDBQ 081345Z 22011KT 10SM FEW041 24/18 A2982 1170 71 2500 220/11 RMK AO2
94908KDBQ DBQ20050608075011406/08/05 07:50:31  5-MIN KDBQ 081350Z 23009KT 10SM SCT039 23/18 A2983 1170 73 2400 230/09 RMK AO2 SLP092 T02330183
94908KDBQ DBQ20050608075511406/08/05 07:55:31  5-MIN KDBQ 081355Z 24012KT 10SM BKN039 23/18 A2983 1160 73 2400 240/12 RMK AO2 SLP093 T02330183
94908KDBQ DBQ20050608080009706/08/05 08:00:31  5-MIN KDBQ 081400Z 24009KT 10SM BKN037 23/18 A2983 1160 76 2400 230/09 RMK AO2
94908KDBQ DBQ20050608080511906/08/05 08:05:31  5-MIN KDBQ 081405Z 26012KT 10SM FEW024 SCT030 BKN039  23/18 A2985 1150 76 2400 260/12 RMK AO2 PRESRR
94908KDBQ DBQ20050608081011206/08/05 08:10:31  5-MIN KDBQ 081410Z 27008KT 10SM SCT024 BKN039 OVC060  23/18 A2985 1150 73 2400 270/08 RMK AO2
94908KDBQ DBQ20050608081511706/08/05 08:15:31  5-MIN KDBQ 081415Z 28011G16KT 10SM SCT024 BKN039 OVC060 23/18 A2985 1140 76 2300 280/11G16 RMK AO2
94908KDBQ DBQ20050608082011706/08/05 08:20:31  5-MIN KDBQ 081420Z 27013G16KT 10SM BKN024 BKN039 OVC065 23/18 A2985 1150 73 2300 270/13G16 RMK AO2
94908KDBQ DBQ20050608082511206/08/05 08:25:31  5-MIN KDBQ 081425Z 28011KT 10SM BKN024 BKN033 OVC043  23/18 A2985 1140 73 2300 280/11 RMK AO2
94908KDBQ DBQ20050608083009706/08/05 08:30:31  5-MIN KDBQ 081430Z 28010KT 8SM OVC024 23/18 A2986 1140  73 2300 280/10 RMK AO2
94908KDBQ DBQ20050608083511706/08/05 08:35:31  5-MIN KDBQ 081435Z 29009KT 2 1/2SM +RA OVC022 22/18  A2985 1140 81 2200 290/09 RMK AO2 RAB32 P0004
94908KDBQ DBQ20050608084011706/08/05 08:40:31  5-MIN KDBQ 081440Z 32012KT 2 1/2SM -RA OVC022 22/18  A2985 1150 81 2200 320/12 RMK AO2 RAB32 P0006
94908KDBQ DBQ20050608084511306/08/05 08:45:31  5-MIN KDBQ 081445Z 33016KT 8SM -RA OVC022 22/18 A2986  1140 81 2200 330/16 RMK AO2 RAB32 P0006
94908KDBQ DBQ20050608085016106/08/05 08:50:31  5-MIN KDBQ 081450Z 34011KT 8SM -RA FEW014 OVC022 22/18  A2985 1140 81 2200 340/11 RMK AO2 WSHFT 1436 RAB32 SLP104 P0006 60006  T02170183 56016
94908KDBQ DBQ20050608085516106/08/05 08:55:31  5-MIN KDBQ 081455Z 34011KT 8SM -RA FEW014 OVC022 22/18  A2985 1140 81 2200 340/11 RMK AO2 WSHFT 1436 RAB32 SLP104 P0006 60006  T02170183 51033
94908KDBQ DBQ20050608090010806/08/05 09:00:31  5-MIN KDBQ 081500Z 35008KT 10SM -RA OVC022 22/18 A2986  1130 81 2200 350/08 RMK AO2 P0000
94908KDBQ DBQ20050608090512306/08/05 09:05:31  5-MIN KDBQ 081505Z 35014G19KT 10SM FEW016 OVC022 22/18  A2986 1140 78 2200 350/14G19 RMK AO2 RAE01 P0000
94908KDBQ DBQ20050608091011706/08/05 09:10:31  5-MIN KDBQ 081510Z 35012KT 10SM FEW016 OVC022 22/18  A2985 1150 81 2200 350/12 RMK AO2 RAE01 P0000
94908KDBQ DBQ20050608091511706/08/05 09:15:31  5-MIN KDBQ 081515Z 01013KT 10SM SCT017 BKN022 22/18  A2984 1150 78 2200 360/13 RMK AO2 RAE01 P0000
94908KDBQ DBQ20050608092011606/08/05 09:20:31  5-MIN KDBQ 081520Z 36014G19KT 10SM BKN022 22/18 A2985  1140 78 2200 360/14G19 RMK AO2 RAE01 P0000
94908KDBQ DBQ20050608092511706/08/05 09:25:31  5-MIN KDBQ 081525Z 36017KT 10SM FEW018 SCT024 22/17  A2985 1140 75 2200 360/17 RMK AO2 RAE01 P0000
94908KDBQ DBQ20050608093011706/08/05 09:30:31  5-MIN KDBQ 081530Z 36016KT 10SM FEW018 SCT024 22/17  A2986 1140 73 2200 350/16 RMK AO2 RAE01 P0000
94908KDBQ DBQ20050608093510906/08/05 09:35:31  5-MIN KDBQ 081535Z 35017KT 10SM FEW018 21/17 A2986 1130 75 2100 350/17 RMK AO2 RAE01 P0000
94908KDBQ DBQ20050608094010906/08/05 09:40:31  5-MIN KDBQ 081540Z 35016KT 10SM FEW018 21/17 A2986 1130 75 2100 350/16 RMK AO2 RAE01 P0000
94908KDBQ DBQ20050608094511206/08/05 09:45:31  5-MIN KDBQ 081545Z 35016G22KT 10SM CLR 21/17 A2987 1130 75 2100 350/16G22 RMK AO2 RAE01 P0000
94908KDBQ DBQ20050608095012906/08/05 09:50:31  5-MIN KDBQ 081550Z 01018G22KT 10SM CLR 21/17 A2986 1130 75 2100 010/18G22 RMK AO2 RAE01 SLP107 P0000 T02110167
94908KDBQ DBQ20050608095512306/08/05 09:55:31  5-MIN KDBQ 081555Z 36018KT 10SM CLR 22/17 A2987 1130 73 2200 360/18 RMK AO2 RAE01 SLP108 P0000 T02170167
94908KDBQ DBQ20050608100010006/08/05 10:00:31  5-MIN KDBQ 081600Z 02018G23KT 10SM CLR 22/17 A2987 1120 73 2200 020/18G23 RMK AO2
94908KDBQ DBQ20050608100510006/08/05 10:05:31  5-MIN KDBQ 081605Z 01018G24KT 10SM CLR 22/17 A2987 1120 73 2300 010/18G24 RMK AO2
94908KDBQ DBQ20050608101010006/08/05 10:10:31  5-MIN KDBQ 081610Z 01016G24KT 10SM CLR 22/17 A2988 1120 70 2300 010/16G24 RMK AO2
94908KDBQ DBQ20050608101510006/08/05 10:15:31  5-MIN KDBQ 081615Z 36016G21KT 10SM CLR 23/17 A2988 1110 70 2300 360/16G21 RMK AO2
94908KDBQ DBQ20050608102009406/08/05 10:20:31  5-MIN KDBQ 081620Z 02018KT 10SM CLR 23/17 A2988 1110 68 2300 010/18 RMK AO2
94908KDBQ DBQ20050608102509406/08/05 10:25:31  5-MIN KDBQ 081625Z 01015KT 10SM CLR 23/17 A2989 1110 68 2300 010/15 RMK AO2
94908KDBQ DBQ20050608103009406/08/05 10:30:31  5-MIN KDBQ 081630Z 02021KT 10SM CLR 22/16 A2989 1110 68 2200 020/21 RMK AO2
94908KDBQ DBQ20050608103509406/08/05 10:35:31  5-MIN KDBQ 081635Z 02019KT 10SM CLR 22/16 A2989 1110 68 2200 010/19 RMK AO2
94908KDBQ DBQ20050608104010406/08/05 10:40:31  5-MIN KDBQ 081640Z 36016G24KT 10SM FEW060 23/17 A2990  1100 68 2300 360/16G24 RMK AO2
94908KDBQ DBQ20050608104510406/08/05 10:45:31  5-MIN KDBQ 081645Z 02016G24KT 10SM SCT060 23/16 A2990  1100 65 2300 010/16G24 RMK AO2
94908KDBQ DBQ20050608105012106/08/05 10:50:31  5-MIN KDBQ 081650Z 02014G22KT 10SM SCT060 23/16 A2990  1100 65 2300 020/14G22 RMK AO2 SLP116 T02280161
94908KDBQ DBQ20050608105511406/08/05 10:55:31  5-MIN KDBQ 081655Z 01013KT 10SM FEW060 23/16 A2989 1100 65 2300 010/13 RMK AO2 SLP116 T02280161
94908KDBQ DBQ20050608110009706/08/05 11:00:31  5-MIN KDBQ 081700Z 01010KT 10SM FEW060 23/16 A2990 1100 65 2300 010/10 RMK AO2
94908KDBQ DBQ20050608110510406/08/05 11:05:31  5-MIN KDBQ 081705Z 36013G17KT 10SM FEW060 22/16 A2989  1100 68 2200 360/13G17 RMK AO2
94908KDBQ DBQ20050608111009706/08/05 11:10:31  5-MIN KDBQ 081710Z 36012KT 10SM FEW060 22/16 A2990 1100 65 2200 360/12 RMK AO2
94908KDBQ DBQ20050608111509406/08/05 11:15:31  5-MIN KDBQ 081715Z 01013KT 10SM CLR 22/16 A2989 1100 65 2200 010/13 RMK AO2
94908KDBQ DBQ20050608112009406/08/05 11:20:31  5-MIN KDBQ 081720Z 36011KT 10SM CLR 22/16 A2989 1110 68 2200 360/11 RMK AO2
94908KDBQ DBQ20050608112509406/08/05 11:25:31  5-MIN KDBQ 081725Z 36011KT 10SM CLR 22/16 A2989 1110 68 2200 360/11 RMK AO2
94908KDBQ DBQ20050608113009406/08/05 11:30:31  5-MIN KDBQ 081730Z 36012KT 10SM CLR 22/16 A2990 1100 68 2200 360/12 RMK AO2
94908KDBQ DBQ20050608113509706/08/05 11:35:31  5-MIN KDBQ 081735Z 36009KT 10SM FEW075 22/16 A2990 1100 65 2200 360/09 RMK AO2
94908KDBQ DBQ20050608114009706/08/05 11:40:31  5-MIN KDBQ 081740Z 35011KT 10SM BKN070 22/16 A2990 1090 68 2200 350/11 RMK AO2
94908KDBQ DBQ20050608114509706/08/05 11:45:31  5-MIN KDBQ 081745Z 36009KT 10SM BKN070 22/16 A2991 1090 65 2200 360/09 RMK AO2
94908KDBQ DBQ20050608115013806/08/05 11:50:31  5-MIN KDBQ 081750Z 36008KT 10SM BKN070 22/16 A2991 1090 68 2200 360/08 RMK AO2 SLP122 60006 T02220161 10239 20211 51033
94908KDBQ DBQ20050608115513806/08/05 11:55:31  5-MIN KDBQ 081755Z 35009KT 10SM BKN070 22/16 A2991 1090 68 2200 350/09 RMK AO2 SLP121 60006 T02220161 10239 20211 51017
94908KDBQ DBQ20050608120009706/08/05 12:00:31  5-MIN KDBQ 081800Z 35007KT 10SM BKN075 22/16 A2991 1090 68 2200 340/07 RMK AO2
94908KDBQ DBQ20050608120509706/08/05 12:05:31  5-MIN KDBQ 081805Z 33009KT 10SM BKN075 22/16 A2991 1090 68 2200 330/09 RMK AO2
94908KDBQ DBQ20050608121009706/08/05 12:10:31  5-MIN KDBQ 081810Z 36006KT 10SM BKN075 22/16 A2990 1100 68 2200 360/06 RMK AO2
94908KDBQ DBQ20050608121510506/08/05 12:15:31  5-MIN KDBQ 081815Z 34005KT 10SM BKN080 BKN095 22/16  A2989 1110 70 2200 340/05 RMK AO2
94908KDBQ DBQ20050608122010406/08/05 12:20:31  5-MIN KDBQ 081820Z 35006KT 10SM SCT080 22/16 A2988 1110 68 2200 350/06 RMK AO2 PRESFR
94908KDBQ DBQ20050608122510406/08/05 12:25:31  5-MIN KDBQ 081825Z 34005KT 10SM SCT080 22/16 A2987 1120 68 2200 340/05 RMK AO2 PRESFR
94908KDBQ DBQ20050608123010406/08/05 12:30:31  5-MIN KDBQ 081830Z 35003KT 10SM SCT080 22/16 A2986 1130 70 2200 350/03 RMK AO2 PRESFR
94908KDBQ DBQ20050608123509706/08/05 12:35:31  5-MIN KDBQ 081835Z 00000KT 10SM FEW080 22/16 A2986 1130 70 2200 000/00 RMK AO2
94908KDBQ DBQ20050608124009706/08/05 12:40:31  5-MIN KDBQ 081840Z 00000KT 10SM FEW080 21/16 A2986 1140 70 2100 000/00 RMK AO2
94908KDBQ DBQ20050608124510106/08/05 12:45:31  5-MIN KDBQ 081845Z 15004KT 10SM CLR 22/16 A2985 1150 68 2200 140/04 RMK AO2 PRESFR
94908KDBQ DBQ20050608125012106/08/05 12:50:31  5-MIN KDBQ 081850Z 11011KT 10SM FEW026 21/16 A2981 1180 70 2200 110/11 RMK AO2 PRESFR SLP087 T02110156
94908KDBQ DBQ20050608125513806/08/05 12:55:31  5-MIN KDBQ 081855Z 13010KT 10SM -RA FEW028 21/16 A2980  1190 73 2200 130/10 RMK AO2 RAB51 PRESFR SLP084 P0000 T02110161
94908KDBQ DBQ20050608130012106/08/05 13:00:31  5-MIN KDBQ 081900Z 14015G19KT 10SM -RA FEW028 21/16  A2979 1200 73 2200 140/15G19 RMK AO2 PRESFR P0000
94908KDBQ DBQ20050608130511506/08/05 13:05:31  5-MIN KDBQ 081905Z 15015KT 10SM -RA FEW027 21/16 A2978  1210 73 2200 150/15 RMK AO2 PRESFR P0000
94908KDBQ DBQ20050608131011506/08/05 13:10:31  5-MIN KDBQ 081910Z 14017KT 10SM -RA FEW027 21/16 A2976  1220 75 2200 140/17 RMK AO2 PRESFR P0000
94908KDBQ DBQ20050608131511606/08/05 13:15:31  5-MIN KDBQ 081915Z 14018KT 10SM FEW027 21/16 A2974 1250 75 2200 140/18 RMK AO2 RAE14 PRESFR P0000
94908KDBQ DBQ20050608132011906/08/05 13:20:31  5-MIN KDBQ 081920Z 12020G23KT 10SM CLR 21/16 A2971 1280 75 2300 120/20G23 RMK AO2 RAE14 PRESFR P0000
94908KDBQ DBQ20050608132511906/08/05 13:25:31  5-MIN KDBQ 081925Z 13019G25KT 10SM CLR 21/16 A2968 1300 73 2300 130/19G25 RMK AO2 RAE14 PRESFR P0000
94908KDBQ DBQ20050608133013706/08/05 13:30:31  5-MIN KDBQ 081930Z 13020G27KT 10SM CLR 21/15 A2968 1300 68 2400 120/20G27 RMK AO2 PK WND 13027/1927 RAE14 PRESFR P0000
94908KDBQ DBQ20050608133513006/08/05 13:35:31  5-MIN KDBQ 081935Z 12018G27KT 10SM CLR 21/15 A2968 1300 68 2300 120/18G27 RMK AO2 PK WND 13027/1927 RAE14 P0000
94908KDBQ DBQ20050608134013006/08/05 13:40:31  5-MIN KDBQ 081940Z 11017G26KT 10SM CLR 21/15 A2968 1300 68 2400 110/17G26 RMK AO2 PK WND 13027/1927 RAE14 P0000
94908KDBQ DBQ20050608134512406/08/05 13:45:31  5-MIN KDBQ 081945Z 11014KT 10SM CLR 21/15 A2970 1290 68 2300 110/14 RMK AO2 PK WND 13027/1927 RAE14 P0000
94908KDBQ DBQ20050608135015506/08/05 13:50:31  5-MIN KDBQ 081950Z 11012G19KT 10SM CLR 22/15 A2971 1280 65 2400 110/12G19 RMK AO2 PK WND 13027/1927 RAE14 PRESRR SLP053 P0000  T02170150
94908KDBQ DBQ20050608135514706/08/05 13:55:31  5-MIN KDBQ 081955Z 12015G19KT 10SM CLR 22/15 A2970 1280 65 2400 120/15G19 RMK AO2 PK WND 13027/1927 RAE14 SLP052 P0000 T02170150
94908KDBQ DBQ20050608140010006/08/05 14:00:31  5-MIN KDBQ 082000Z 12014G19KT 10SM CLR 22/14 A2969 1290 61 2500 120/14G19 RMK AO2
94908KDBQ DBQ20050608140510006/08/05 14:05:31  5-MIN KDBQ 082005Z 13014G23KT 10SM CLR 22/15 A2969 1290 63 2500 130/14G23 RMK AO2
94908KDBQ DBQ20050608141010006/08/05 14:10:31  5-MIN KDBQ 082010Z 13018G23KT 10SM CLR 23/14 A2969 1290 59 2500 130/18G23 RMK AO2
94908KDBQ DBQ20050608141510006/08/05 14:15:31  5-MIN KDBQ 082015Z 13017G24KT 10SM CLR 23/14 A2969 1290 59 2500 130/17G24 RMK AO2
94908KDBQ DBQ20050608142010006/08/05 14:20:31  5-MIN KDBQ 082020Z 11014G24KT 10SM CLR 23/14 A2970 1290 59 2500 110/14G24 RMK AO2
94908KDBQ DBQ20050608142510006/08/05 14:25:31  5-MIN KDBQ 082025Z 11013G23KT 10SM CLR 23/15 A2969 1290 61 2500 100/13G23 RMK AO2
94908KDBQ DBQ20050608143009406/08/05 14:30:31  5-MIN KDBQ 082030Z 11011KT 10SM CLR 22/15 A2969 1300 63 2500 110/11 RMK AO2
94908KDBQ DBQ20050608143509406/08/05 14:35:31  5-MIN KDBQ 082035Z 12008KT 10SM CLR 22/15 A2969 1290 63 2500 120/08 RMK AO2
94908KDBQ DBQ20050608144009406/08/05 14:40:31  5-MIN KDBQ 082040Z 03007KT 10SM CLR 23/16 A2970 1290 63 2500 030/07 RMK AO2
94908KDBQ DBQ20050608144509406/08/05 14:45:31  5-MIN KDBQ 082045Z 04005KT 10SM CLR 23/16 A2970 1290 63 2500 030/05 RMK AO2
94908KDBQ DBQ20050608145012306/08/05 14:50:31  5-MIN KDBQ 082050Z 12009KT 10SM CLR 23/15 A2969 1290 61 2500 120/09 RMK AO2 SLP048 60000 T02280150 51017
94908KDBQ DBQ20050608145512306/08/05 14:55:31  5-MIN KDBQ 082055Z 13007KT 10SM CLR 23/15 A2970 1280 61 2500 130/07 RMK AO2 SLP051 60000 T02280150 56067
94908KDBQ DBQ20050608150009406/08/05 15:00:31  5-MIN KDBQ 082100Z 11004KT 10SM CLR 23/16 A2971 1270 63 2500 110/04 RMK AO2
94908KDBQ DBQ20050608150509406/08/05 15:05:31  5-MIN KDBQ 082105Z 00000KT 10SM CLR 23/16 A2971 1270 61 2600 000/00 RMK AO2
94908KDBQ DBQ20050608151009406/08/05 15:10:31  5-MIN KDBQ 082110Z 13005KT 10SM CLR 23/16 A2971 1280 63 2600 130/05 RMK AO2
94908KDBQ DBQ20050608151509406/08/05 15:15:31  5-MIN KDBQ 082115Z 00000KT 10SM CLR 23/16 A2971 1270 61 2600 000/00 RMK AO2
94908KDBQ DBQ20050608152009406/08/05 15:20:31  5-MIN KDBQ 082120Z 00000KT 10SM CLR 23/16 A2971 1270 63 2600 000/00 RMK AO2
94908KDBQ DBQ20050608152509406/08/05 15:25:31  5-MIN KDBQ 082125Z 00000KT 10SM CLR 24/16 A2972 1270 61 2600 000/00 RMK AO2
94908KDBQ DBQ20050608153009406/08/05 15:30:31  5-MIN KDBQ 082130Z 00000KT 10SM CLR 23/16 A2972 1260 63 2600 000/00 RMK AO2
94908KDBQ DBQ20050608153509406/08/05 15:35:31  5-MIN KDBQ 082135Z 21003KT 10SM CLR 23/16 A2973 1260 63 2500 210/03 RMK AO2
94908KDBQ DBQ20050608154009406/08/05 15:40:31  5-MIN KDBQ 082140Z 21005KT 10SM CLR 23/16 A2973 1260 63 2500 210/05 RMK AO2
94908KDBQ DBQ20050608154509406/08/05 15:45:31  5-MIN KDBQ 082145Z 23007KT 10SM CLR 23/17 A2973 1260 66 2500 230/07 RMK AO2
94908KDBQ DBQ20050608155011106/08/05 15:50:31  5-MIN KDBQ 082150Z 23006KT 10SM CLR 23/17 A2973 1260 66 2500 230/06 RMK AO2 SLP060 T02330167
94908KDBQ DBQ20050608155511106/08/05 15:55:31  5-MIN KDBQ 082155Z 24008KT 10SM CLR 23/16 A2973 1260 63 2500 240/08 RMK AO2 SLP060 T02330161
94908KDBQ DBQ20050608160009406/08/05 16:00:31  5-MIN KDBQ 082200Z 23008KT 10SM CLR 23/16 A2973 1250 63 2500 230/08 RMK AO2
94908KDBQ DBQ20050608160509406/08/05 16:05:31  5-MIN KDBQ 082205Z 24008KT 10SM CLR 23/17 A2974 1250 66 2500 240/08 RMK AO2
94908KDBQ DBQ20050608161009406/08/05 16:10:31  5-MIN KDBQ 082210Z 26010KT 10SM CLR 23/16 A2974 1250 63 2500 260/10 RMK AO2
94908KDBQ DBQ20050608161509406/08/05 16:15:31  5-MIN KDBQ 082215Z 26010KT 10SM CLR 23/16 A2974 1250 63 2500 260/10 RMK AO2
94908KDBQ DBQ20050608162009406/08/05 16:20:31  5-MIN KDBQ 082220Z 26011KT 10SM CLR 23/16 A2974 1250 63 2500 260/11 RMK AO2
94908KDBQ DBQ20050608162509406/08/05 16:25:31  5-MIN KDBQ 082225Z 26009KT 10SM CLR 23/17 A2974 1240 68 2500 260/09 RMK AO2
94908KDBQ DBQ20050608163009406/08/05 16:30:31  5-MIN KDBQ 082230Z 26010KT 10SM CLR 23/16 A2974 1240 65 2500 250/10 RMK AO2
94908KDBQ DBQ20050608163509406/08/05 16:35:31  5-MIN KDBQ 082235Z 26008KT 10SM CLR 23/16 A2974 1240 65 2500 260/08 RMK AO2
94908KDBQ DBQ20050608164009406/08/05 16:40:31  5-MIN KDBQ 082240Z 27007KT 10SM CLR 23/17 A2974 1240 68 2500 260/07 RMK AO2
94908KDBQ DBQ20050608164509406/08/05 16:45:31  5-MIN KDBQ 082245Z 28007KT 10SM CLR 23/17 A2974 1240 68 2500 280/07 RMK AO2
94908KDBQ DBQ20050608165011106/08/05 16:50:31  5-MIN KDBQ 082250Z 28006KT 10SM CLR 23/17 A2974 1240 68 2500 280/06 RMK AO2 SLP066 T02280167
94908KDBQ DBQ20050608165511106/08/05 16:55:31  5-MIN KDBQ 082255Z 26005KT 10SM CLR 22/17 A2975 1240 70 2400 260/05 RMK AO2 SLP067 T02220167
94908KDBQ DBQ20050608170009406/08/05 17:00:31  5-MIN KDBQ 082300Z 26004KT 10SM CLR 23/17 A2975 1240 68 2500 260/04 RMK AO2
94908KDBQ DBQ20050608170509406/08/05 17:05:31  5-MIN KDBQ 082305Z 22005KT 10SM CLR 23/17 A2975 1230 68 2500 220/05 RMK AO2
94908KDBQ DBQ20050608171009406/08/05 17:10:31  5-MIN KDBQ 082310Z 22005KT 10SM CLR 23/17 A2976 1230 68 2400 220/05 RMK AO2
94908KDBQ DBQ20050608171510106/08/05 17:15:31  5-MIN KDBQ 082315Z 21004KT 10SM CLR 23/17 A2977 1220 70 2400 210/04 RMK AO2 PRESRR
94908KDBQ DBQ20050608172010106/08/05 17:20:31  5-MIN KDBQ 082320Z 24004KT 10SM CLR 22/17 A2978 1210 73 2400 240/04 RMK AO2 PRESRR
94908KDBQ DBQ20050608172510106/08/05 17:25:31  5-MIN KDBQ 082325Z 00000KT 10SM CLR 22/17 A2978 1210 73 2400 000/00 RMK AO2 PRESRR
94908KDBQ DBQ20050608173009406/08/05 17:30:31  5-MIN KDBQ 082330Z 24003KT 10SM CLR 22/17 A2979 1200 73 2400 240/03 RMK AO2
94908KDBQ DBQ20050608173509406/08/05 17:35:31  5-MIN KDBQ 082335Z 00000KT 10SM CLR 23/17 A2979 1200 70 2400 000/00 RMK AO2
94908KDBQ DBQ20050608174009406/08/05 17:40:31  5-MIN KDBQ 082340Z 00000KT 10SM CLR 23/17 A2978 1210 70 2400 000/00 RMK AO2
94908KDBQ DBQ20050608174509406/08/05 17:45:31  5-MIN KDBQ 082345Z 00000KT 10SM CLR 23/17 A2978 1210 70 2400 000/00 RMK AO2
94908KDBQ DBQ20050608175013506/08/05 17:50:31  5-MIN KDBQ 082350Z 00000KT 10SM CLR 23/17 A2978 1210 70 2400 000/00 RMK AO2 SLP079 60000 T02280172 10239 20206 56067
94908KDBQ DBQ20050608175513506/08/05 17:55:31  5-MIN KDBQ 082355Z 24003KT 10SM CLR 22/17 A2978 1200 73 2400 240/03 RMK AO2 SLP079 60000 T02220172 10239 20206 53027
94908KDBQ DBQ20050608180009406/08/05 18:00:31  5-MIN KDBQ 090000Z 25003KT 10SM CLR 22/17 A2978 1200 73 2400 250/03 RMK AO2
94908KDBQ DBQ20050608180509406/08/05 18:05:31  5-MIN KDBQ 090005Z 27004KT 10SM CLR 22/18 A2979 1200 75 2400 270/04 RMK AO2
94908KDBQ DBQ20050608181009406/08/05 18:10:31  5-MIN KDBQ 090010Z 26004KT 10SM CLR 22/18 A2980 1190 75 2300 260/04 RMK AO2
94908KDBQ DBQ20050608181509406/08/05 18:15:31  5-MIN KDBQ 090015Z 27004KT 10SM CLR 22/17 A2980 1190 73 2300 270/04 RMK AO2
94908KDBQ DBQ20050608182009406/08/05 18:20:31  5-MIN KDBQ 090020Z 29005KT 10SM CLR 22/17 A2980 1190 75 2300 290/05 RMK AO2
94908KDBQ DBQ20050608182509406/08/05 18:25:31  5-MIN KDBQ 090025Z 30005KT 10SM CLR 22/17 A2980 1190 75 2300 290/05 RMK AO2
94908KDBQ DBQ20050608183009406/08/05 18:30:31  5-MIN KDBQ 090030Z 30004KT 10SM CLR 22/17 A2980 1190 75 2300 300/04 RMK AO2
94908KDBQ DBQ20050608183509406/08/05 18:35:31  5-MIN KDBQ 090035Z 30003KT 10SM CLR 22/17 A2980 1190 75 2300 300/03 RMK AO2
94908KDBQ DBQ20050608184009406/08/05 18:40:31  5-MIN KDBQ 090040Z 00000KT 10SM CLR 22/17 A2980 1190 75 2300 000/00 RMK AO2
94908KDBQ DBQ20050608184509406/08/05 18:45:31  5-MIN KDBQ 090045Z 00000KT 10SM CLR 22/17 A2980 1190 75 2300 000/00 RMK AO2
94908KDBQ DBQ20050608185012206/08/05 18:50:31  5-MIN KDBQ 090050Z AUTO 30005KT 10SM CLR 21/17 A2980  1190 78 2200 300/05 RMK AO2 SLP086 T02110172 TSNO
94908KDBQ DBQ20050608185512206/08/05 18:55:31  5-MIN KDBQ 090055Z AUTO 30005KT 10SM CLR 21/17 A2980  1190 78 2200 300/05 RMK AO2 SLP086 T02110172 TSNO
94908KDBQ DBQ20050608190010506/08/05 19:00:31  5-MIN KDBQ 090100Z AUTO 28005KT 10SM CLR 21/17 A2980  1190 78 2200 280/05 RMK AO2 TSNO
94908KDBQ DBQ20050608190510506/08/05 19:05:31  5-MIN KDBQ 090105Z AUTO 28005KT 10SM CLR 21/17 A2981  1180 78 2200 280/05 RMK AO2 TSNO
94908KDBQ DBQ20050608191010506/08/05 19:10:31  5-MIN KDBQ 090110Z AUTO 28005KT 10SM CLR 21/17 A2981  1180 78 2100 280/05 RMK AO2 TSNO
94908KDBQ DBQ20050608191510506/08/05 19:15:31  5-MIN KDBQ 090115Z AUTO 30006KT 10SM CLR 21/17 A2981  1180 78 2100 290/06 RMK AO2 TSNO
94908KDBQ DBQ20050608192010506/08/05 19:20:31  5-MIN KDBQ 090120Z AUTO 30006KT 10SM CLR 21/17 A2981  1180 78 2100 300/06 RMK AO2 TSNO
94908KDBQ DBQ20050608192510506/08/05 19:25:31  5-MIN KDBQ 090125Z AUTO 30005KT 10SM CLR 21/17 A2982  1170 78 2100 290/05 RMK AO2 TSNO
94908KDBQ DBQ20050608193010506/08/05 19:30:31  5-MIN KDBQ 090130Z AUTO 30004KT 10SM CLR 21/17 A2981  1180 78 2100 290/04 RMK AO2 TSNO
94908KDBQ DBQ20050608193510506/08/05 19:35:31  5-MIN KDBQ 090135Z AUTO 00000KT 10SM CLR 21/17 A2981  1180 75 2200 000/00 RMK AO2 TSNO
94908KDBQ DBQ20050608194010506/08/05 19:40:31  5-MIN KDBQ 090140Z AUTO 29003KT 10SM CLR 21/17 A2982  1180 78 2100 290/03 RMK AO2 TSNO
94908KDBQ DBQ20050608194510506/08/05 19:45:31  5-MIN KDBQ 090145Z AUTO 00000KT 10SM CLR 21/16 A2981  1190 75 2100 000/00 RMK AO2 TSNO
94908KDBQ DBQ20050608195012206/08/05 19:50:31  5-MIN KDBQ 090150Z AUTO 00000KT 10SM CLR 20/16 A2981  1180 78 2100 000/00 RMK AO2 SLP089 T02000161 TSNO
94908KDBQ DBQ20050608195512206/08/05 19:55:31  5-MIN KDBQ 090155Z AUTO 00000KT 10SM CLR 20/17 A2981  1180 81 2100 000/00 RMK AO2 SLP088 T02000167 TSNO
94908KDBQ DBQ20050608200010506/08/05 20:00:31  5-MIN KDBQ 090200Z AUTO 00000KT 10SM CLR 20/16 A2980  1190 78 2100 000/00 RMK AO2 TSNO
94908KDBQ DBQ20050608200510506/08/05 20:05:31  5-MIN KDBQ 090205Z AUTO 00000KT 10SM CLR 20/16 A2981  1180 78 2100 000/00 RMK AO2 TSNO
94908KDBQ DBQ20050608201010506/08/05 20:10:31  5-MIN KDBQ 090210Z AUTO 00000KT 10SM CLR 20/16 A2981  1180 78 2100 000/00 RMK AO2 TSNO
94908KDBQ DBQ20050608201510506/08/05 20:15:31  5-MIN KDBQ 090215Z AUTO 00000KT 10SM CLR 19/16 A2980  1190 81 2000 000/00 RMK AO2 TSNO
94908KDBQ DBQ20050608202010506/08/05 20:20:31  5-MIN KDBQ 090220Z AUTO 00000KT 10SM CLR 19/16 A2981  1180 81 2000 000/00 RMK AO2 TSNO
94908KDBQ DBQ20050608202510506/08/05 20:25:31  5-MIN KDBQ 090225Z AUTO 00000KT 10SM CLR 20/16 A2980  1190 78 2100 000/00 RMK AO2 TSNO
94908KDBQ DBQ20050608203010506/08/05 20:30:31  5-MIN KDBQ 090230Z AUTO 00000KT 10SM CLR 20/16 A2981  1180 78 2100 000/00 RMK AO2 TSNO
94908KDBQ DBQ20050608203510506/08/05 20:35:31  5-MIN KDBQ 090235Z AUTO 00000KT 10SM CLR 19/16 A2981  1180 84 1900 000/00 RMK AO2 TSNO
94908KDBQ DBQ20050608204010506/08/05 20:40:31  5-MIN KDBQ 090240Z AUTO 00000KT 10SM CLR 19/16 A2980  1190 84 2000 000/00 RMK AO2 TSNO
94908KDBQ DBQ20050608204510506/08/05 20:45:31  5-MIN KDBQ 090245Z AUTO 00000KT 10SM CLR 19/16 A2981  1180 84 2000 000/00 RMK AO2 TSNO
94908KDBQ DBQ20050608205012806/08/05 20:50:31  5-MIN KDBQ 090250Z AUTO 00000KT 10SM CLR 19/16 A2980  1190 81 2000 000/00 RMK AO2 SLP087 T01940161 53027 TSNO
94908KDBQ DBQ20050608205512806/08/05 20:55:31  5-MIN KDBQ 090255Z AUTO 00000KT 10SM CLR 19/16 A2981  1180 84 2000 000/00 RMK AO2 SLP088 T01890161 50007 TSNO
94908KDBQ DBQ20050608210010506/08/05 21:00:31  5-MIN KDBQ 090300Z AUTO 00000KT 10SM CLR 18/16 A2982  1170 87 1900 000/00 RMK AO2 TSNO
94908KDBQ DBQ20050608210510506/08/05 21:05:31  5-MIN KDBQ 090305Z AUTO 00000KT 10SM CLR 18/16 A2981  1180 87 1900 000/00 RMK AO2 TSNO
94908KDBQ DBQ20050608211010506/08/05 21:10:31  5-MIN KDBQ 090310Z AUTO 10003KT 10SM CLR 18/16 A2981  1180 87 1900 100/03 RMK AO2 TSNO
94908KDBQ DBQ20050608211510506/08/05 21:15:31  5-MIN KDBQ 090315Z AUTO 00000KT 10SM CLR 18/16 A2983  1170 87 1900 000/00 RMK AO2 TSNO
94908KDBQ DBQ20050608212010506/08/05 21:20:31  5-MIN KDBQ 090320Z AUTO 00000KT 10SM CLR 19/16 A2982  1170 84 1900 000/00 RMK AO2 TSNO
94908KDBQ DBQ20050608212510506/08/05 21:25:31  5-MIN KDBQ 090325Z AUTO 00000KT 10SM CLR 19/16 A2982  1170 84 1900 000/00 RMK AO2 TSNO
94908KDBQ DBQ20050608213010506/08/05 21:30:31  5-MIN KDBQ 090330Z AUTO 00000KT 10SM CLR 19/16 A2982  1170 84 1900 000/00 RMK AO2 TSNO
94908KDBQ DBQ20050608213510506/08/05 21:35:31  5-MIN KDBQ 090335Z AUTO 00000KT 10SM CLR 18/16 A2981  1180 87 1900 000/00 RMK AO2 TSNO
94908KDBQ DBQ20050608214010506/08/05 21:40:31  5-MIN KDBQ 090340Z AUTO 13003KT 10SM CLR 18/16 A2982  1170 87 1900 120/03 RMK AO2 TSNO
94908KDBQ DBQ20050608214510506/08/05 21:45:31  5-MIN KDBQ 090345Z AUTO 12003KT 10SM CLR 18/16 A2981  1180 87 1900 120/03 RMK AO2 TSNO
94908KDBQ DBQ20050608215012206/08/05 21:50:31  5-MIN KDBQ 090350Z AUTO 12003KT 10SM CLR 18/16 A2980  1190 87 1900 120/03 RMK AO2 SLP088 T01830161 TSNO
94908KDBQ DBQ20050608215512206/08/05 21:55:31  5-MIN KDBQ 090355Z AUTO 12004KT 10SM CLR 18/16 A2981  1180 84 1900 120/04 RMK AO2 SLP091 T01830156 TSNO
94908KDBQ DBQ20050608220010506/08/05 22:00:31  5-MIN KDBQ 090400Z AUTO 12004KT 10SM CLR 18/16 A2980  1190 90 1800 120/04 RMK AO2 TSNO
94908KDBQ DBQ20050608220510506/08/05 22:05:31  5-MIN KDBQ 090405Z AUTO 00000KT 10SM CLR 18/16 A2981  1180 87 1900 000/00 RMK AO2 TSNO
94908KDBQ DBQ20050608221010506/08/05 22:10:31  5-MIN KDBQ 090410Z AUTO 00000KT 10SM CLR 19/16 A2980  1190 84 2000 000/00 RMK AO2 TSNO
94908KDBQ DBQ20050608221510506/08/05 22:15:31  5-MIN KDBQ 090415Z AUTO 00000KT 10SM CLR 18/16 A2980  1190 87 1800 000/00 RMK AO2 TSNO
94908KDBQ DBQ20050608222010506/08/05 22:20:31  5-MIN KDBQ 090420Z AUTO 00000KT 10SM CLR 18/16 A2981  1180 87 1900 000/00 RMK AO2 TSNO
94908KDBQ DBQ20050608222510506/08/05 22:25:31  5-MIN KDBQ 090425Z AUTO 00000KT 10SM CLR 18/16 A2980  1190 90 1800 000/00 RMK AO2 TSNO
94908KDBQ DBQ20050608223010506/08/05 22:30:31  5-MIN KDBQ 090430Z AUTO 00000KT 10SM CLR 18/16 A2981  1180 87 1900 000/00 RMK AO2 TSNO
94908KDBQ DBQ20050608223510506/08/05 22:35:31  5-MIN KDBQ 090435Z AUTO 00000KT 10SM CLR 18/16 A2980  1190 90 1800 000/00 RMK AO2 TSNO
94908KDBQ DBQ20050608224010506/08/05 22:40:31  5-MIN KDBQ 090440Z AUTO 00000KT 10SM CLR 18/16 A2980  1190 87 1800 000/00 RMK AO2 TSNO
94908KDBQ DBQ20050608224510506/08/05 22:45:31  5-MIN KDBQ 090445Z AUTO 24003KT 10SM CLR 18/16 A2981  1180 87 1800 240/03 RMK AO2 TSNO
94908KDBQ DBQ20050608225012206/08/05 22:50:31  5-MIN KDBQ 090450Z AUTO 24003KT 10SM CLR 17/16 A2981  1180 93 1700 230/03 RMK AO2 SLP089 T01670156 TSNO
94908KDBQ DBQ20050608225512206/08/05 22:55:31  5-MIN KDBQ 090455Z AUTO 24005KT 10SM CLR 17/16 A2981  1180 93 1700 240/05 RMK AO2 SLP090 T01670156 TSNO
94908KDBQ DBQ20050608230010506/08/05 23:00:31  5-MIN KDBQ 090500Z AUTO 23004KT 10SM CLR 17/16 A2981  1180 93 1700 230/04 RMK AO2 TSNO
94908KDBQ DBQ20050608230510506/08/05 23:05:31  5-MIN KDBQ 090505Z AUTO 23004KT 10SM CLR 17/16 A2981  1180 93 1700 230/04 RMK AO2 TSNO
94908KDBQ DBQ20050608231010506/08/05 23:10:31  5-MIN KDBQ 090510Z AUTO 22005KT 10SM CLR 17/16 A2983  1170 90 1700 220/05 RMK AO2 TSNO
94908KDBQ DBQ20050608231510506/08/05 23:15:31  5-MIN KDBQ 090515Z AUTO 22004KT 10SM CLR 17/16 A2982  1170 90 1700 220/04 RMK AO2 TSNO
94908KDBQ DBQ20050608232010506/08/05 23:20:31  5-MIN KDBQ 090520Z AUTO 22004KT 10SM CLR 17/16 A2982  1170 90 1700 220/04 RMK AO2 TSNO
94908KDBQ DBQ20050608232510506/08/05 23:25:31  5-MIN KDBQ 090525Z AUTO 21005KT 10SM CLR 17/16 A2983  1160 93 1700 210/05 RMK AO2 TSNO
94908KDBQ DBQ20050608233010706/08/05 23:30:31  5-MIN KDBQ 090530Z AUTO 22005KT 10SM FEW080 17/16 A2983 1160 93 1700 220/05 RMK AO2 TSNO
94908KDBQ DBQ20050608233510706/08/05 23:35:31  5-MIN KDBQ 090535Z AUTO 22004KT 10SM SCT080 17/16 A2984 1160 93 1700 220/04 RMK AO2 TSNO
94908KDBQ DBQ20050608234010706/08/05 23:40:31  5-MIN KDBQ 090540Z AUTO 21003KT 10SM BKN075 18/16 A2984 1150 90 1800 200/03 RMK AO2 TSNO
94908KDBQ DBQ20050608234510706/08/05 23:45:31  5-MIN KDBQ 090545Z AUTO 19003KT 10SM BKN080 18/16 A2984 1160 90 1800 190/03 RMK AO2 TSNO
94908KDBQ DBQ20050608235015306/08/05 23:50:31  5-MIN KDBQ 090550Z AUTO 00000KT 10SM BKN080 18/16 A2984 1150 90 1800 000/00 RMK AO2 SLP100 T01780161 10222 20167 402390167 50007  TSNO
94908KDBQ DBQ20050608235515406/08/05 23:55:31  5-MIN KDBQ 090555Z AUTO 19003KT 10SM BKN080 18/16 A2984 1160 90 1800 190/03 RMK AO2 SLP099 T01780167 40222 20167 4023901023 53010  TSNO
94908KDBQ DBQ20050609000010706/09/05 00:00:38  5-MIN KDBQ 090600Z AUTO 18005KT 10SM BKN080 18/16 A2984 1150 90 1800 170/05 RMK AO2 TSNO
94908KDBQ DBQ20050609000510706/09/05 00:05:31  5-MIN KDBQ 090605Z AUTO 17005KT 10SM BKN080 18/16 A2984 1150 87 1800 170/05 RMK AO2 TSNO
94908KDBQ DBQ20050609001010706/09/05 00:10:31  5-MIN KDBQ 090610Z AUTO 19004KT 10SM BKN080 18/16 A2984 1150 87 1800 190/04 RMK AO2 TSNO
94908KDBQ DBQ20050609001510706/09/05 00:15:32  5-MIN KDBQ 090615Z AUTO 18003KT 10SM BKN080 18/17 A2984 1150 90 1800 180/03 RMK AO2 TSNO
94908KDBQ DBQ20050609002010706/09/05 00:20:31  5-MIN KDBQ 090620Z AUTO 15004KT 10SM BKN080 18/16 A2985 1150 87 1800 150/04 RMK AO2 TSNO
94908KDBQ DBQ20050609002510706/09/05 00:25:31  5-MIN KDBQ 090625Z AUTO 15005KT 10SM OVC080 18/16 A2984 1160 87 1900 150/05 RMK AO2 TSNO
94908KDBQ DBQ20050609003010706/09/05 00:30:31  5-MIN KDBQ 090630Z AUTO 15007KT 10SM BKN080 19/16 A2984 1150 84 1900 150/07 RMK AO2 TSNO
94908KDBQ DBQ20050609003510706/09/05 00:35:31  5-MIN KDBQ 090635Z AUTO 15006KT 10SM BKN080 19/16 A2985 1140 84 1900 150/06 RMK AO2 TSNO
94908KDBQ DBQ20050609004010706/09/05 00:40:31  5-MIN KDBQ 090640Z AUTO 15006KT 10SM SCT080 18/16 A2984 1150 87 1900 150/06 RMK AO2 TSNO
94908KDBQ DBQ20050609004510706/09/05 00:45:31  5-MIN KDBQ 090645Z AUTO 15004KT 10SM SCT085 18/16 A2984 1150 87 1800 150/04 RMK AO2 TSNO
94908KDBQ DBQ20050609005012406/09/05 00:50:31  5-MIN KDBQ 090650Z AUTO 14003KT 10SM FEW085 19/16 A2984 1150 84 1900 140/03 RMK AO2 SLP102 T01890161 TSNO
94908KDBQ DBQ20050609005512206/09/05 00:55:31  5-MIN KDBQ 090655Z AUTO 17003KT 10SM CLR 19/16 A2984  1150 84 1900 170/03 RMK AO2 SLP102 T01890161 TSNO
94908KDBQ DBQ20050609010010506/09/05 01:00:31  5-MIN KDBQ 090700Z AUTO 21003KT 10SM CLR 18/16 A2985  1140 90 1800 210/03 RMK AO2 TSNO
94908KDBQ DBQ20050609010510506/09/05 01:05:31  5-MIN KDBQ 090705Z AUTO VRB03KT 10SM CLR 18/16 A2984  1150 87 1800 VRB/03 RMK AO2 TSNO
94908KDBQ DBQ20050609011010506/09/05 01:10:31  5-MIN KDBQ 090710Z AUTO 21003KT 10SM CLR 18/16 A2984  1150 87 1800 210/03 RMK AO2 TSNO
94908KDBQ DBQ20050609011510506/09/05 01:15:31  5-MIN KDBQ 090715Z AUTO 18003KT 10SM CLR 18/16 A2985  1140 87 1800 180/03 RMK AO2 TSNO
94908KDBQ DBQ20050609012010506/09/05 01:20:31  5-MIN KDBQ 090720Z AUTO 00000KT 10SM CLR 18/16 A2984  1150 87 1800 000/00 RMK AO2 TSNO
94908KDBQ DBQ20050609012510506/09/05 01:25:31  5-MIN KDBQ 090725Z AUTO 00000KT 10SM CLR 18/16 A2984  1150 90 1800 000/00 RMK AO2 TSNO
94908KDBQ DBQ20050609013010506/09/05 01:30:31  5-MIN KDBQ 090730Z AUTO 00000KT 10SM CLR 18/16 A2985  1140 87 1800 000/00 RMK AO2 TSNO
94908KDBQ DBQ20050609013510506/09/05 01:35:31  5-MIN KDBQ 090735Z AUTO 00000KT 10SM CLR 18/16 A2984  1150 90 1800 000/00 RMK AO2 TSNO
94908KDBQ DBQ20050609014010506/09/05 01:40:31  5-MIN KDBQ 090740Z AUTO 17004KT 10SM CLR 18/16 A2984  1150 87 1800 170/04 RMK AO2 TSNO
94908KDBQ DBQ20050609014510506/09/05 01:45:31  5-MIN KDBQ 090745Z AUTO 17004KT 10SM CLR 18/16 A2985  1150 87 1800 160/04 RMK AO2 TSNO
94908KDBQ DBQ20050609015012206/09/05 01:50:31  5-MIN KDBQ 090750Z AUTO 18005KT 10SM CLR 18/16 A2985  1140 87 1800 180/05 RMK AO2 SLP104 T01830161 TSNO
94908KDBQ DBQ20050609015512906/09/05 01:55:31  5-MIN KDBQ 090755Z AUTO 23005KT 10SM CLR 18/16 A2986  1130 87 1800 230/05 RMK AO2 PRESRR SLP109 T01830161 TSNO
94908KDBQ DBQ20050609020010506/09/05 02:00:31  5-MIN KDBQ 090800Z AUTO 22006KT 10SM CLR 18/16 A2986  1140 90 1800 220/06 RMK AO2 TSNO
94908KDBQ DBQ20050609020510706/09/05 02:05:31  5-MIN KDBQ 090805Z AUTO 23005KT 10SM FEW048 18/16 A2986 1140 90 1800 220/05 RMK AO2 TSNO
94908KDBQ DBQ20050609021010706/09/05 02:10:31  5-MIN KDBQ 090810Z AUTO 20005KT 10SM SCT048 18/16 A2986 1140 90 1800 200/05 RMK AO2 TSNO
94908KDBQ DBQ20050609021510706/09/05 02:15:31  5-MIN KDBQ 090815Z AUTO 21004KT 10SM BKN048 18/16 A2986 1140 90 1800 210/04 RMK AO2 TSNO
94908KDBQ DBQ20050609022010706/09/05 02:20:31  5-MIN KDBQ 090820Z AUTO 21004KT 10SM SCT048 18/16 A2986 1130 90 1800 210/04 RMK AO2 TSNO
94908KDBQ DBQ20050609022510706/09/05 02:25:31  5-MIN KDBQ 090825Z AUTO 20004KT 10SM FEW048 18/16 A2986 1130 90 1800 200/04 RMK AO2 TSNO
94908KDBQ DBQ20050609023010706/09/05 02:30:31  5-MIN KDBQ 090830Z AUTO 20004KT 10SM FEW048 18/16 A2987 1130 90 1800 200/04 RMK AO2 TSNO
94908KDBQ DBQ20050609023510706/09/05 02:35:31  5-MIN KDBQ 090835Z AUTO 20004KT 9SM FEW048 18/17 A2987  1130 93 1800 200/04 RMK AO2 TSNO
94908KDBQ DBQ20050609024010706/09/05 02:40:31  5-MIN KDBQ 090840Z AUTO 21005KT 9SM FEW048 18/17 A2987  1120 93 1800 210/05 RMK AO2 TSNO
94908KDBQ DBQ20050609024510706/09/05 02:45:31  5-MIN KDBQ 090845Z AUTO 22005KT 10SM SCT070 18/17 A2987 1120 93 1800 220/05 RMK AO2 TSNO
94908KDBQ DBQ20050609025013006/09/05 02:50:31  5-MIN KDBQ 090850Z AUTO 23003KT 10SM BKN070 18/17 A2987 1130 93 1800 230/03 RMK AO2 SLP109 T01780167 53010 TSNO
94908KDBQ DBQ20050609025513706/09/05 02:55:31  5-MIN KDBQ 090855Z AUTO 00000KT 10SM FEW046 BKN070 18/16 A2986 1130 90 1800 000/00 RMK AO2 SLP107 T01780161 50008 TSNO
94908KDBQ DBQ20050609030012906/09/05 03:00:31  5-MIN KDBQ 090900Z AUTO 08004KT 10SM FEW046 BKN070  BKN085 18/17 A2985 1150 90 1800 080/04 RMK AO2 PRESFR TSNO
94908KDBQ DBQ20050609030512206/09/05 03:05:31  5-MIN KDBQ 090905Z AUTO 11004KT 10SM FEW046 BKN065  BKN085 18/17 A2985 1140 90 1800 110/04 RMK AO2 TSNO
94908KDBQ DBQ20050609031012206/09/05 03:10:31  5-MIN KDBQ 090910Z AUTO 13003KT 10SM FEW046 SCT060  BKN070 18/17 A2985 1150 90 1800 130/03 RMK AO2 TSNO
94908KDBQ DBQ20050609031512206/09/05 03:15:31  5-MIN KDBQ 090915Z AUTO 00000KT 10SM FEW046 BKN070  BKN090 18/17 A2986 1140 90 1800 000/00 RMK AO2 TSNO
94908KDBQ DBQ20050609032012206/09/05 03:20:31  5-MIN KDBQ 090920Z AUTO 00000KT 10SM FEW046 SCT070  BKN090 19/17 A2985 1150 87 1900 000/00 RMK AO2 TSNO
94908KDBQ DBQ20050609032512206/09/05 03:25:31  5-MIN KDBQ 090925Z AUTO 14004KT 10SM FEW060 SCT085  SCT100 19/17 A2985 1140 87 1900 140/04 RMK AO2 TSNO
94908KDBQ DBQ20050609033011406/09/05 03:30:31  5-MIN KDBQ 090930Z AUTO 11004KT 10SM FEW065 SCT100 19/17 A2985 1140 87 1900 110/04 RMK AO2 TSNO
94908KDBQ DBQ20050609033510706/09/05 03:35:31  5-MIN KDBQ 090935Z AUTO VRB04KT 10SM FEW070 19/16 A2985 1150 84 1900 VRB/04 RMK AO2 TSNO
94908KDBQ DBQ20050609034010706/09/05 03:40:31  5-MIN KDBQ 090940Z AUTO 00000KT 10SM FEW100 19/16 A2985 1140 81 2000 000/00 RMK AO2 TSNO
94908KDBQ DBQ20050609034510506/09/05 03:45:31  5-MIN KDBQ 090945Z AUTO 00000KT 10SM CLR 19/16 A2985  1140 84 1900 000/00 RMK AO2 TSNO
94908KDBQ DBQ20050609035012206/09/05 03:50:31  5-MIN KDBQ 090950Z AUTO 32003KT 10SM CLR 18/16 A2985  1150 87 1800 320/03 RMK AO2 SLP101 T01830161 TSNO
94908KDBQ DBQ20050609035512206/09/05 03:55:31  5-MIN KDBQ 090955Z AUTO 00000KT 10SM CLR 18/17 A2986  1140 90 1800 000/00 RMK AO2 SLP105 T01830167 TSNO
94908KDBQ DBQ20050609040010506/09/05 04:00:31  5-MIN KDBQ 091000Z AUTO 17004KT 10SM CLR 18/17 A2986  1130 93 1800 170/04 RMK AO2 TSNO
94908KDBQ DBQ20050609040511206/09/05 04:05:31  5-MIN KDBQ 091005Z AUTO 19003KT 10SM CLR 18/17 A2988  1120 90 1800 190/03 RMK AO2 PRESRR TSNO
94908KDBQ DBQ20050609041010506/09/05 04:10:31  5-MIN KDBQ 091010Z AUTO 00000KT 10SM CLR 18/17 A2987  1120 90 1800 000/00 RMK AO2 TSNO
94908KDBQ DBQ20050609041510506/09/05 04:15:31  5-MIN KDBQ 091015Z AUTO 00000KT 10SM CLR 18/17 A2988  1120 90 1800 000/00 RMK AO2 TSNO
94908KDBQ DBQ20050609042010506/09/05 04:20:31  5-MIN KDBQ 091020Z AUTO 13003KT 10SM CLR 18/17 A2988  1110 90 1800 130/03 RMK AO2 TSNO
94908KDBQ DBQ20050609042510506/09/05 04:25:31  5-MIN KDBQ 091025Z AUTO 00000KT 10SM CLR 18/17 A2988  1120 90 1800 000/00 RMK AO2 TSNO
94908KDBQ DBQ20050609043010506/09/05 04:30:31  5-MIN KDBQ 091030Z AUTO 18003KT 10SM CLR 18/16 A2988  1110 90 1700 180/03 RMK AO2 TSNO
94908KDBQ DBQ20050609043510506/09/05 04:35:31  5-MIN KDBQ 091035Z AUTO 18004KT 10SM CLR 18/16 A2989  1110 90 1700 180/04 RMK AO2 TSNO
94908KDBQ DBQ20050609044010506/09/05 04:40:31  5-MIN KDBQ 091040Z AUTO 20005KT 10SM CLR 18/16 A2989  1100 90 1700 200/05 RMK AO2 TSNO
94908KDBQ DBQ20050609044510506/09/05 04:45:31  5-MIN KDBQ 091045Z AUTO 21004KT 10SM CLR 18/16 A2989  1100 90 1700 210/04 RMK AO2 TSNO
94908KDBQ DBQ20050609045011106/09/05 04:50:31  5-MIN KDBQ 091050Z 23003KT 9SM CLR 18/16 A2989 1100 90  1700 230/03 RMK AO2 SLP118 T01780161
94908KDBQ DBQ20050609045511106/09/05 04:55:31  5-MIN KDBQ 091055Z 22003KT 9SM CLR 18/16 A2989 1110 90  1700 220/03 RMK AO2 SLP118 T01780161
94908KDBQ DBQ20050609050009406/09/05 05:00:31  5-MIN KDBQ 091100Z 21003KT 9SM CLR 18/16 A2990 1100 87  1800 210/03 RMK AO2
94908KDBQ DBQ20050609050509406/09/05 05:05:31  5-MIN KDBQ 091105Z 21003KT 9SM CLR 18/17 A2990 1100 90  1800 210/03 RMK AO2
94908KDBQ DBQ20050609051009406/09/05 05:10:31  5-MIN KDBQ 091110Z 20003KT 9SM CLR 18/17 A2990 1100 90  1800 200/03 RMK AO2
94908KDBQ DBQ20050609051509406/09/05 05:15:31  5-MIN KDBQ 091115Z 21003KT 8SM CLR 18/17 A2990 1100 90  1800 210/03 RMK AO2
94908KDBQ DBQ20050609052009406/09/05 05:20:31  5-MIN KDBQ 091120Z 00000KT 8SM CLR 18/17 A2990 1100 90  1800 000/00 RMK AO2
94908KDBQ DBQ20050609052509406/09/05 05:25:31  5-MIN KDBQ 091125Z 00000KT 8SM CLR 18/17 A2989 1100 90  1800 000/00 RMK AO2
94908KDBQ DBQ20050609053009406/09/05 05:30:31  5-MIN KDBQ 091130Z 00000KT 7SM CLR 19/17 A2990 1100 87  1800 000/00 RMK AO2
94908KDBQ DBQ20050609053509406/09/05 05:35:31  5-MIN KDBQ 091135Z 00000KT 8SM CLR 19/17 A2990 1100 87  1800 000/00 RMK AO2
94908KDBQ DBQ20050609054009406/09/05 05:40:31  5-MIN KDBQ 091140Z 24004KT 8SM CLR 18/17 A2990 1100 90  1800 240/04 RMK AO2
94908KDBQ DBQ20050609054509406/09/05 05:45:31  5-MIN KDBQ 091145Z 23005KT 8SM CLR 18/17 A2991 1090 90  1800 230/05 RMK AO2
94908KDBQ DBQ20050609055013506/09/05 05:50:31  5-MIN KDBQ 091150Z 21004KT 8SM CLR 19/17 A2991 1090 90  1800 210/04 RMK AO2 SLP124 70006 T01890172 10200 20178 50008
94908KDBQ DBQ20050609055513506/09/05 05:55:31  5-MIN KDBQ 091155Z 22005KT 9SM CLR 19/17 A2991 1080 90  1800 220/05 RMK AO2 SLP125 70006 T01890172 10200 20178 53017
94908KDBQ DBQ20050609060009406/09/05 06:00:31  5-MIN KDBQ 091200Z 24006KT 9SM CLR 19/17 A2992 1080 90  1800 230/06 RMK AO2
94908KDBQ DBQ20050609060509406/09/05 06:05:31  5-MIN KDBQ 091205Z 24005KT 10SM CLR 19/17 A2992 1080 87 1900 240/05 RMK AO2
94908KDBQ DBQ20050609061009406/09/05 06:10:31  5-MIN KDBQ 091210Z 23006KT 10SM CLR 19/18 A2992 1080 90 1900 230/06 RMK AO2
94908KDBQ DBQ20050609061509406/09/05 06:15:31  5-MIN KDBQ 091215Z 23006KT 10SM CLR 20/17 A2992 1080 84 2000 230/06 RMK AO2
94908KDBQ DBQ20050609062009406/09/05 06:20:31  5-MIN KDBQ 091220Z 24008KT 10SM CLR 20/17 A2992 1080 84 2000 240/08 RMK AO2
94908KDBQ DBQ20050609062509406/09/05 06:25:31  5-MIN KDBQ 091225Z 23008KT 10SM CLR 20/17 A2992 1080 84 1900 230/08 RMK AO2
94908KDBQ DBQ20050609063009406/09/05 06:30:31  5-MIN KDBQ 091230Z 23006KT 10SM CLR 20/17 A2993 1070 84 1900 230/06 RMK AO2
94908KDBQ DBQ20050609063509406/09/05 06:35:31  5-MIN KDBQ 091235Z 23006KT 10SM CLR 20/18 A2993 1070 87 1900 230/06 RMK AO2
94908KDBQ DBQ20050609064009406/09/05 06:40:31  5-MIN KDBQ 091240Z 24006KT 10SM CLR 21/18 A2993 1070 84 2000 240/06 RMK AO2
94908KDBQ DBQ20050609064509406/09/05 06:45:31  5-MIN KDBQ 091245Z 22007KT 10SM CLR 21/18 A2993 1070 84 2000 220/07 RMK AO2
94908KDBQ DBQ20050609065011106/09/05 06:50:31  5-MIN KDBQ 091250Z 22007KT 10SM CLR 21/18 A2993 1070 84 2000 220/07 RMK AO2 SLP130 T02060178
94908KDBQ DBQ20050609065511106/09/05 06:55:31  5-MIN KDBQ 091255Z 22006KT 10SM CLR 21/18 A2993 1070 84 2000 220/06 RMK AO2 SLP129 T02060178
94908KDBQ DBQ20050609070009406/09/05 07:00:31  5-MIN KDBQ 091300Z 24005KT 10SM CLR 21/18 A2992 1080 84 2000 240/05 RMK AO2
94908KDBQ DBQ20050609070509406/09/05 07:05:31  5-MIN KDBQ 091305Z 24006KT 10SM CLR 21/18 A2992 1080 84 2000 240/06 RMK AO2
94908KDBQ DBQ20050609071009406/09/05 07:10:31  5-MIN KDBQ 091310Z 24004KT 10SM CLR 21/17 A2992 1080 81 2000 240/04 RMK AO2
94908KDBQ DBQ20050609071509406/09/05 07:15:31  5-MIN KDBQ 091315Z 27003KT 10SM CLR 21/17 A2991 1090 81 2000 260/03 RMK AO2
94908KDBQ DBQ20050609072009406/09/05 07:20:31  5-MIN KDBQ 091320Z 26004KT 10SM CLR 21/17 A2991 1090 78 2100 260/04 RMK AO2
94908KDBQ DBQ20050609072509406/09/05 07:25:31  5-MIN KDBQ 091325Z 27003KT 10SM CLR 21/18 A2991 1090 81 2100 270/03 RMK AO2
94908KDBQ DBQ20050609073009406/09/05 07:30:31  5-MIN KDBQ 091330Z 27005KT 10SM CLR 21/18 A2991 1090 81 2100 270/05 RMK AO2
94908KDBQ DBQ20050609073509406/09/05 07:35:31  5-MIN KDBQ 091335Z 31006KT 10SM CLR 22/18 A2990 1090 78 2200 310/06 RMK AO2
94908KDBQ DBQ20050609074009406/09/05 07:40:31  5-MIN KDBQ 091340Z 29006KT 10SM CLR 22/18 A2991 1090 78 2200 290/06 RMK AO2
94908KDBQ DBQ20050609074509406/09/05 07:45:31  5-MIN KDBQ 091345Z 32006KT 10SM CLR 22/18 A2991 1090 78 2200 310/06 RMK AO2
94908KDBQ DBQ20050609075011106/09/05 07:50:31  5-MIN KDBQ 091350Z 30004KT 10SM CLR 22/18 A2991 1090 78 2200 300/04 RMK AO2 SLP123 T02170178
94908KDBQ DBQ20050609075511406/09/05 07:55:31  5-MIN KDBQ 091355Z VRB04KT 10SM FEW100 22/18 A2991 1090 75 2200 VRB/04 RMK AO2 SLP125 T02220178
94908KDBQ DBQ20050609080009706/09/05 08:00:31  5-MIN KDBQ 091400Z 32005KT 10SM FEW100 22/17 A2991 1080 73 2200 320/05 RMK AO2
94908KDBQ DBQ20050609080509706/09/05 08:05:31  5-MIN KDBQ 091405Z 34005KT 10SM FEW100 22/18 A2991 1080 75 2200 340/05 RMK AO2
94908KDBQ DBQ20050609081009706/09/05 08:10:31  5-MIN KDBQ 091410Z VRB04KT 10SM FEW100 22/17 A2991 1090 73 2200 VRB/04 RMK AO2
94908KDBQ DBQ20050609081509406/09/05 08:15:31  5-MIN KDBQ 091415Z 35003KT 10SM CLR 22/17 A2991 1090 73 2200 340/03 RMK AO2
94908KDBQ DBQ20050609082009406/09/05 08:20:31  5-MIN KDBQ 091420Z VRB03KT 10SM CLR 22/17 A2992 1080 73 2200 VRB/03 RMK AO2
94908KDBQ DBQ20050609082509406/09/05 08:25:31  5-MIN KDBQ 091425Z 00000KT 10SM CLR 22/17 A2992 1080 75 2100 000/00 RMK AO2
94908KDBQ DBQ20050609083009406/09/05 08:30:31  5-MIN KDBQ 091430Z 00000KT 10SM CLR 22/17 A2992 1080 73 2200 000/00 RMK AO2
94908KDBQ DBQ20050609083509406/09/05 08:35:31  5-MIN KDBQ 091435Z 00000KT 10SM CLR 23/17 A2992 1080 70 2300 000/00 RMK AO2
94908KDBQ DBQ20050609084009406/09/05 08:40:31  5-MIN KDBQ 091440Z 00000KT 10SM CLR 23/17 A2992 1080 70 2300 000/00 RMK AO2
94908KDBQ DBQ20050609084509406/09/05 08:45:31  5-MIN KDBQ 091445Z 00000KT 10SM CLR 22/18 A2991 1090 75 2200 000/00 RMK AO2
94908KDBQ DBQ20050609085011706/09/05 08:50:31  5-MIN KDBQ 091450Z 36004KT 10SM CLR 22/18 A2991 1090 75 2200 360/04 RMK AO2 SLP124 T02220178 53017
94908KDBQ DBQ20050609085511706/09/05 08:55:31  5-MIN KDBQ 091455Z 00000KT 10SM CLR 22/17 A2991 1080 73 2200 000/00 RMK AO2 SLP125 T02220172 51000
94908KDBQ DBQ20050609090009406/09/05 09:00:31  5-MIN KDBQ 091500Z 00000KT 10SM CLR 22/17 A2992 1080 73 2200 000/00 RMK AO2
94908KDBQ DBQ20050609090509406/09/05 09:05:31  5-MIN KDBQ 091505Z 02004KT 10SM CLR 23/18 A2991 1080 73 2300 020/04 RMK AO2
94908KDBQ DBQ20050609091009406/09/05 09:10:31  5-MIN KDBQ 091510Z 02005KT 10SM CLR 23/18 A2991 1090 73 2300 020/05 RMK AO2
94908KDBQ DBQ20050609091509406/09/05 09:15:31  5-MIN KDBQ 091515Z 03004KT 10SM CLR 23/18 A2991 1090 73 2300 030/04 RMK AO2
94908KDBQ DBQ20050609092009406/09/05 09:20:31  5-MIN KDBQ 091520Z 00000KT 10SM CLR 23/18 A2991 1080 73 2300 000/00 RMK AO2
94908KDBQ DBQ20050609092509406/09/05 09:25:31  5-MIN KDBQ 091525Z 00000KT 10SM CLR 23/18 A2991 1080 73 2300 000/00 RMK AO2
94908KDBQ DBQ20050609093009406/09/05 09:30:31  5-MIN KDBQ 091530Z 00000KT 10SM CLR 23/18 A2991 1090 76 2300 000/00 RMK AO2
94908KDBQ DBQ20050609093509406/09/05 09:35:31  5-MIN KDBQ 091535Z 00000KT 10SM CLR 23/18 A2991 1090 70 2300 000/00 RMK AO2
94908KDBQ DBQ20050609094009406/09/05 09:40:31  5-MIN KDBQ 091540Z 09005KT 10SM CLR 23/18 A2991 1090 73 2300 090/05 RMK AO2
94908KDBQ DBQ20050609094509406/09/05 09:45:31  5-MIN KDBQ 091545Z 00000KT 10SM CLR 23/18 A2992 1080 73 2300 000/00 RMK AO2
94908KDBQ DBQ20050609095011106/09/05 09:50:31  5-MIN KDBQ 091550Z 00000KT 10SM CLR 24/18 A2991 1080 68 2500 000/00 RMK AO2 SLP124 T02440183
94908KDBQ DBQ20050609095511106/09/05 09:55:31  5-MIN KDBQ 091555Z 00000KT 10SM CLR 23/18 A2991 1080 73 2300 000/00 RMK AO2 SLP125 T02280178
94908KDBQ DBQ20050609100009406/09/05 10:00:31  5-MIN KDBQ 091600Z 00000KT 10SM CLR 24/18 A2991 1090 71 2400 000/00 RMK AO2
94908KDBQ DBQ20050609100509406/09/05 10:05:31  5-MIN KDBQ 091605Z 00000KT 10SM CLR 24/18 A2991 1090 68 2500 000/00 RMK AO2
94908KDBQ DBQ20050609101009406/09/05 10:10:31  5-MIN KDBQ 091610Z 00000KT 10SM CLR 24/18 A2991 1090 71 2400 000/00 RMK AO2
94908KDBQ DBQ20050609101509406/09/05 10:15:31  5-MIN KDBQ 091615Z 00000KT 10SM CLR 24/18 A2992 1080 68 2400 000/00 RMK AO2
94908KDBQ DBQ20050609102009406/09/05 10:20:31  5-MIN KDBQ 091620Z 00000KT 10SM CLR 24/18 A2992 1080 68 2500 000/00 RMK AO2
94908KDBQ DBQ20050609102509406/09/05 10:25:31  5-MIN KDBQ 091625Z 00000KT 10SM CLR 24/18 A2992 1080 68 2500 000/00 RMK AO2
94908KDBQ DBQ20050609103009406/09/05 10:30:31  5-MIN KDBQ 091630Z 00000KT 10SM CLR 24/18 A2992 1080 68 2500 000/00 RMK AO2
94908KDBQ DBQ20050609103509706/09/05 10:35:31  5-MIN KDBQ 091635Z 00000KT 10SM FEW024 24/18 A2992 1080 71 2400 000/00 RMK AO2
94908KDBQ DBQ20050609104009706/09/05 10:40:31  5-MIN KDBQ 091640Z 00000KT 10SM FEW024 24/18 A2992 1080 68 2400 000/00 RMK AO2
94908KDBQ DBQ20050609104509706/09/05 10:45:31  5-MIN KDBQ 091645Z 00000KT 10SM FEW024 24/18 A2992 1080 68 2500 000/00 RMK AO2
94908KDBQ DBQ20050609105011406/09/05 10:50:31  5-MIN KDBQ 091650Z 00000KT 10SM FEW024 24/18 A2992 1080 66 2500 000/00 RMK AO2 SLP125 T02440178
94908KDBQ DBQ20050609105511406/09/05 10:55:31  5-MIN KDBQ 091655Z 00000KT 10SM FEW024 25/18 A2992 1080 66 2500 000/00 RMK AO2 SLP125 T02500183
94908KDBQ DBQ20050609110009706/09/05 11:00:31  5-MIN KDBQ 091700Z 00000KT 10SM FEW024 25/18 A2991 1090 66 2500 000/00 RMK AO2
94908KDBQ DBQ20050609110509406/09/05 11:05:31  5-MIN KDBQ 091705Z 00000KT 10SM CLR 25/18 A2991 1090 66 2500 000/00 RMK AO2
94908KDBQ DBQ20050609111009406/09/05 11:10:31  5-MIN KDBQ 091710Z 00000KT 10SM CLR 24/18 A2991 1090 68 2500 000/00 RMK AO2
94908KDBQ DBQ20050609111509406/09/05 11:15:31  5-MIN KDBQ 091715Z 00000KT 10SM CLR 24/18 A2991 1090 68 2500 000/00 RMK AO2
94908KDBQ DBQ20050609112009406/09/05 11:20:31  5-MIN KDBQ 091720Z VRB04KT 10SM CLR 25/18 A2991 1080 66 2500 VRB/04 RMK AO2
94908KDBQ DBQ20050609112509406/09/05 11:25:31  5-MIN KDBQ 091725Z 00000KT 10SM CLR 25/18 A2991 1090 66 2500 000/00 RMK AO2
94908KDBQ DBQ20050609113009406/09/05 11:30:31  5-MIN KDBQ 091730Z 00000KT 10SM CLR 25/18 A2991 1090 66 2500 000/00 RMK AO2
94908KDBQ DBQ20050609113509406/09/05 11:35:31  5-MIN KDBQ 091735Z 22004KT 10SM CLR 25/18 A2991 1080 66 2500 220/04 RMK AO2
94908KDBQ DBQ20050609114009406/09/05 11:40:31  5-MIN KDBQ 091740Z 22004KT 10SM CLR 25/18 A2991 1090 66 2500 220/04 RMK AO2
94908KDBQ DBQ20050609114509406/09/05 11:45:31  5-MIN KDBQ 091745Z 00000KT 10SM CLR 25/18 A2991 1090 66 2500 000/00 RMK AO2
94908KDBQ DBQ20050609115012906/09/05 11:50:31  5-MIN KDBQ 091750Z 23004KT 10SM CLR 25/18 A2991 1090 66 2500 230/04 RMK AO2 SLP121 T02500183 10256 20189 51000
94908KDBQ DBQ20050609115512906/09/05 11:55:31  5-MIN KDBQ 091755Z 20004KT 10SM CLR 25/18 A2990 1090 66 2500 200/04 RMK AO2 SLP120 T02500183 10256 20189 58004
94908KDBQ DBQ20050609120009406/09/05 12:00:31  5-MIN KDBQ 091800Z 00000KT 10SM CLR 25/18 A2990 1090 66 2500 000/00 RMK AO2
94908KDBQ DBQ20050609120509406/09/05 12:05:31  5-MIN KDBQ 091805Z 00000KT 10SM CLR 25/18 A2990 1100 66 2500 000/00 RMK AO2
94908KDBQ DBQ20050609121009406/09/05 12:10:31  5-MIN KDBQ 091810Z 00000KT 10SM CLR 25/18 A2990 1100 66 2500 000/00 RMK AO2
94908KDBQ DBQ20050609121509406/09/05 12:15:31  5-MIN KDBQ 091815Z 00000KT 10SM CLR 25/18 A2990 1090 66 2500 000/00 RMK AO2
94908KDBQ DBQ20050609122009406/09/05 12:20:31  5-MIN KDBQ 091820Z 00000KT 10SM CLR 26/18 A2991 1090 64 2600 000/00 RMK AO2
94908KDBQ DBQ20050609122509406/09/05 12:25:31  5-MIN KDBQ 091825Z 00000KT 10SM CLR 26/18 A2991 1090 64 2600 000/00 RMK AO2
94908KDBQ DBQ20050609123009706/09/05 12:30:31  5-MIN KDBQ 091830Z 01003KT 10SM FEW100 26/18 A2991 1090 64 2600 010/03 RMK AO2
94908KDBQ DBQ20050609123509706/09/05 12:35:31  5-MIN KDBQ 091835Z 01003KT 10SM FEW100 26/19 A2991 1090 66 2600 010/03 RMK AO2
94908KDBQ DBQ20050609124009706/09/05 12:40:31  5-MIN KDBQ 091840Z 34003KT 10SM FEW100 25/19 A2991 1090 68 2500 340/03 RMK AO2
94908KDBQ DBQ20050609124509706/09/05 12:45:31  5-MIN KDBQ 091845Z 36004KT 10SM FEW100 25/19 A2990 1090 68 2500 360/04 RMK AO2
94908KDBQ DBQ20050609125011406/09/05 12:50:31  5-MIN KDBQ 091850Z 36004KT 10SM FEW100 25/19 A2990 1090 68 2500 360/04 RMK AO2 SLP120 T02500189
94908KDBQ DBQ20050609125511406/09/05 12:55:31  5-MIN KDBQ 091855Z 02003KT 10SM FEW100 25/19 A2990 1100 68 2500 020/03 RMK AO2 SLP120 T02500189
94908KDBQ DBQ20050609130009406/09/05 13:00:31  5-MIN KDBQ 091900Z 00000KT 10SM CLR 25/19 A2990 1100 68 2500 000/00 RMK AO2
94908KDBQ DBQ20050609130509706/09/05 13:05:31  5-MIN KDBQ 091905Z 00000KT 10SM FEW120 25/19 A2990 1100 68 2500 000/00 RMK AO2
94908KDBQ DBQ20050609131009406/09/05 13:10:31  5-MIN KDBQ 091910Z 00000KT 10SM CLR 25/19 A2990 1100 68 2500 000/00 RMK AO2
94908KDBQ DBQ20050609131509706/09/05 13:15:31  5-MIN KDBQ 091915Z 06003KT 10SM FEW100 25/19 A2990 1100 68 2500 060/03 RMK AO2
94908KDBQ DBQ20050609132009706/09/05 13:20:31  5-MIN KDBQ 091920Z 00000KT 10SM FEW070 25/19 A2990 1100 68 2500 000/00 RMK AO2
94908KDBQ DBQ20050609132509706/09/05 13:25:31  5-MIN KDBQ 091925Z 00000KT 10SM FEW070 24/19 A2990 1090 71 2500 000/00 RMK AO2
94908KDBQ DBQ20050609133009406/09/05 13:30:31  5-MIN KDBQ 091930Z 00000KT 10SM CLR 25/18 A2991 1090 66 2500 000/00 RMK AO2
94908KDBQ DBQ20050609133509706/09/05 13:35:31  5-MIN KDBQ 091935Z 00000KT 10SM FEW070 25/18 A2990 1100 66 2500 000/00 RMK AO2
94908KDBQ DBQ20050609134009706/09/05 13:40:31  5-MIN KDBQ 091940Z 00000KT 10SM FEW070 25/19 A2990 1100 68 2500 000/00 RMK AO2
94908KDBQ DBQ20050609134509406/09/05 13:45:31  5-MIN KDBQ 091945Z 00000KT 10SM CLR 25/18 A2990 1090 66 2500 000/00 RMK AO2
94908KDBQ DBQ20050609135011106/09/05 13:50:31  5-MIN KDBQ 091950Z 00000KT 10SM CLR 25/19 A2990 1090 68 2500 000/00 RMK AO2 SLP120 T02500189
94908KDBQ DBQ20050609135511106/09/05 13:55:31  5-MIN KDBQ 091955Z 06003KT 10SM CLR 25/19 A2990 1090 68 2500 060/03 RMK AO2 SLP120 T02500189
94908KDBQ DBQ20050609140009406/09/05 14:00:31  5-MIN KDBQ 092000Z 00000KT 10SM CLR 25/19 A2990 1090 71 2500 000/00 RMK AO2
94908KDBQ DBQ20050609140509406/09/05 14:05:31  5-MIN KDBQ 092005Z 00000KT 10SM CLR 25/19 A2991 1090 68 2500 000/00 RMK AO2
94908KDBQ DBQ20050609141009406/09/05 14:10:31  5-MIN KDBQ 092010Z 00000KT 10SM CLR 26/19 A2991 1090 68 2600 000/00 RMK AO2
94908KDBQ DBQ20050609141509406/09/05 14:15:31  5-MIN KDBQ 092015Z 00000KT 10SM CLR 25/19 A2991 1090 68 2500 000/00 RMK AO2
94908KDBQ DBQ20050609142009406/09/05 14:20:31  5-MIN KDBQ 092020Z 08005KT 10SM CLR 25/19 A2991 1090 68 2500 070/05 RMK AO2
94908KDBQ DBQ20050609142509406/09/05 14:25:31  5-MIN KDBQ 092025Z 08004KT 10SM CLR 26/19 A2991 1090 66 2600 080/04 RMK AO2
94908KDBQ DBQ20050609143009406/09/05 14:30:31  5-MIN KDBQ 092030Z 07003KT 10SM CLR 26/19 A2990 1090 66 2600 070/03 RMK AO2
94908KDBQ DBQ20050609143509406/09/05 14:35:31  5-MIN KDBQ 092035Z 08005KT 10SM CLR 26/19 A2990 1100 68 2600 080/05 RMK AO2
94908KDBQ DBQ20050609144009406/09/05 14:40:31  5-MIN KDBQ 092040Z 06005KT 10SM CLR 26/19 A2990 1090 66 2600 060/05 RMK AO2
94908KDBQ DBQ20050609144509406/09/05 14:45:31  5-MIN KDBQ 092045Z 07005KT 10SM CLR 26/19 A2991 1090 66 2600 060/05 RMK AO2
94908KDBQ DBQ20050609145011706/09/05 14:50:31  5-MIN KDBQ 092050Z 06004KT 10SM CLR 26/19 A2991 1090 66 2600 050/04 RMK AO2 SLP121 T02560189 58004
94908KDBQ DBQ20050609145511706/09/05 14:55:31  5-MIN KDBQ 092055Z 04005KT 10SM CLR 26/19 A2991 1090 66 2700 040/05 RMK AO2 SLP121 T02610194 53001
94908KDBQ DBQ20050609150009406/09/05 15:00:31  5-MIN KDBQ 092100Z 04006KT 10SM CLR 27/19 A2991 1090 64 2700 040/06 RMK AO2
94908KDBQ DBQ20050609150509406/09/05 15:05:31  5-MIN KDBQ 092105Z 03005KT 10SM CLR 27/19 A2990 1090 64 2700 030/05 RMK AO2
94908KDBQ DBQ20050609151009406/09/05 15:10:31  5-MIN KDBQ 092110Z 09005KT 10SM CLR 27/19 A2990 1090 64 2700 080/05 RMK AO2
94908KDBQ DBQ20050609151509406/09/05 15:15:31  5-MIN KDBQ 092115Z VRB04KT 10SM CLR 27/19 A2990 1100 64 2700 VRB/04 RMK AO2
94908KDBQ DBQ20050609152009406/09/05 15:20:31  5-MIN KDBQ 092120Z VRB05KT 10SM CLR 27/19 A2990 1100 64 2700 VRB/05 RMK AO2
94908KDBQ DBQ20050609152509406/09/05 15:25:31  5-MIN KDBQ 092125Z 04006KT 10SM CLR 27/19 A2990 1100 64 2700 030/06 RMK AO2
94908KDBQ DBQ20050609153009406/09/05 15:30:31  5-MIN KDBQ 092130Z 04003KT 10SM CLR 26/19 A2990 1100 66 2700 040/03 RMK AO2
94908KDBQ DBQ20050609153509406/09/05 15:35:31  5-MIN KDBQ 092135Z 06004KT 10SM CLR 27/19 A2989 1100 64 2700 060/04 RMK AO2
94908KDBQ DBQ20050609154009406/09/05 15:40:31  5-MIN KDBQ 092140Z 04005KT 10SM CLR 27/19 A2989 1100 64 2700 040/05 RMK AO2
94908KDBQ DBQ20050609154509406/09/05 15:45:31  5-MIN KDBQ 092145Z 04004KT 10SM CLR 27/19 A2989 1100 64 2700 040/04 RMK AO2
94908KDBQ DBQ20050609155011106/09/05 15:50:31  5-MIN KDBQ 092150Z 06005KT 10SM CLR 27/19 A2990 1100 64 2700 060/05 RMK AO2 SLP117 T02670194
94908KDBQ DBQ20050609155511106/09/05 15:55:31  5-MIN KDBQ 092155Z 06004KT 10SM CLR 27/19 A2989 1100 64 2700 060/04 RMK AO2 SLP117 T02670194
94908KDBQ DBQ20050609160009406/09/05 16:00:31  5-MIN KDBQ 092200Z 04004KT 10SM CLR 27/19 A2989 1100 64 2700 040/04 RMK AO2
94908KDBQ DBQ20050609160509406/09/05 16:05:31  5-MIN KDBQ 092205Z 00000KT 10SM CLR 27/19 A2990 1100 60 2800 000/00 RMK AO2
94908KDBQ DBQ20050609161009406/09/05 16:10:31  5-MIN KDBQ 092210Z 07005KT 10SM CLR 27/19 A2990 1100 62 2800 070/05 RMK AO2
94908KDBQ DBQ20050609161509406/09/05 16:15:31  5-MIN KDBQ 092215Z 11004KT 10SM CLR 27/19 A2990 1100 62 2700 110/04 RMK AO2
94908KDBQ DBQ20050609162009406/09/05 16:20:31  5-MIN KDBQ 092220Z 00000KT 10SM CLR 27/19 A2990 1100 62 2700 000/00 RMK AO2
94908KDBQ DBQ20050609162509406/09/05 16:25:31  5-MIN KDBQ 092225Z 11004KT 10SM CLR 27/19 A2990 1100 62 2700 110/04 RMK AO2
94908KDBQ DBQ20050609163009406/09/05 16:30:31  5-MIN KDBQ 092230Z 10003KT 10SM CLR 27/19 A2990 1100 62 2700 100/03 RMK AO2
94908KDBQ DBQ20050609163509406/09/05 16:35:31  5-MIN KDBQ 092235Z 00000KT 10SM CLR 26/19 A2990 1100 64 2700 000/00 RMK AO2
94908KDBQ DBQ20050609164009406/09/05 16:40:31  5-MIN KDBQ 092240Z 11003KT 10SM CLR 26/19 A2989 1100 66 2700 110/03 RMK AO2
94908KDBQ DBQ20050609164509406/09/05 16:45:31  5-MIN KDBQ 092245Z 08003KT 10SM CLR 26/19 A2990 1100 66 2700 080/03 RMK AO2
94908KDBQ DBQ20050609165011106/09/05 16:50:31  5-MIN KDBQ 092250Z 00000KT 10SM CLR 26/19 A2990 1100 66 2700 000/00 RMK AO2 SLP117 T02610194
94908KDBQ DBQ20050609165511106/09/05 16:55:31  5-MIN KDBQ 092255Z 00000KT 10SM CLR 26/19 A2989 1100 66 2700 000/00 RMK AO2 SLP116 T02610194
94908KDBQ DBQ20050609170009406/09/05 17:00:31  5-MIN KDBQ 092300Z 09004KT 10SM CLR 26/19 A2989 1110 66 2700 090/04 RMK AO2
94908KDBQ DBQ20050609170509406/09/05 17:05:31  5-MIN KDBQ 092305Z 07003KT 10SM CLR 26/19 A2989 1110 66 2700 070/03 RMK AO2
94908KDBQ DBQ20050609171009406/09/05 17:10:31  5-MIN KDBQ 092310Z 08005KT 10SM CLR 26/20 A2989 1110 68 2700 080/05 RMK AO2
94908KDBQ DBQ20050609171509406/09/05 17:15:31  5-MIN KDBQ 092315Z 08006KT 10SM CLR 26/20 A2989 1110 68 2700 080/06 RMK AO2
94908KDBQ DBQ20050609172009406/09/05 17:20:31  5-MIN KDBQ 092320Z 07005KT 9SM CLR 26/20 A2989 1110 68  2700 070/05 RMK AO2
94908KDBQ DBQ20050609172509406/09/05 17:25:31  5-MIN KDBQ 092325Z 09005KT 9SM CLR 26/20 A2989 1110 68  2700 090/05 RMK AO2
94908KDBQ DBQ20050609173009406/09/05 17:30:31  5-MIN KDBQ 092330Z 09006KT 10SM CLR 27/20 A2989 1110 66 2700 090/06 RMK AO2
94908KDBQ DBQ20050609173509406/09/05 17:35:31  5-MIN KDBQ 092335Z 09007KT 10SM CLR 26/19 A2989 1100 66 2700 090/07 RMK AO2
94908KDBQ DBQ20050609174009406/09/05 17:40:31  5-MIN KDBQ 092340Z 07007KT 10SM CLR 26/19 A2989 1100 66 2700 070/07 RMK AO2
94908KDBQ DBQ20050609174509406/09/05 17:45:31  5-MIN KDBQ 092345Z 07006KT 10SM CLR 26/19 A2989 1110 68 2600 070/06 RMK AO2
94908KDBQ DBQ20050609175012906/09/05 17:50:31  5-MIN KDBQ 092350Z 08006KT 10SM CLR 26/19 A2989 1110 68 2600 080/06 RMK AO2 SLP115 T02560194 10272 20244 53001
94908KDBQ DBQ20050609175512906/09/05 17:55:31  5-MIN KDBQ 092355Z 08007KT 10SM CLR 26/19 A2989 1110 68 2600 080/07 RMK AO2 SLP114 T02560194 10272 20244 56006
94908KDBQ DBQ20050609180009406/09/05 18:00:31  5-MIN KDBQ 100000Z 08005KT 10SM CLR 26/19 A2989 1110 68 2600 080/05 RMK AO2
94908KDBQ DBQ20050609180509406/09/05 18:05:31  5-MIN KDBQ 100005Z 08005KT 10SM CLR 26/19 A2989 1110 68 2600 080/05 RMK AO2
94908KDBQ DBQ20050609181009406/09/05 18:10:31  5-MIN KDBQ 100010Z 08006KT 10SM CLR 26/19 A2989 1110 66 2600 080/06 RMK AO2
94908KDBQ DBQ20050609181509406/09/05 18:15:31  5-MIN KDBQ 100015Z 08006KT 10SM CLR 25/19 A2989 1110 68 2600 080/06 RMK AO2
94908KDBQ DBQ20050609182009406/09/05 18:20:31  5-MIN KDBQ 100020Z 09005KT 10SM CLR 26/19 A2989 1110 66 2600 090/05 RMK AO2
94908KDBQ DBQ20050609182509406/09/05 18:25:31  5-MIN KDBQ 100025Z 08005KT 10SM CLR 26/19 A2988 1110 66 2600 080/05 RMK AO2
94908KDBQ DBQ20050609183009406/09/05 18:30:31  5-MIN KDBQ 100030Z 08005KT 10SM CLR 26/19 A2988 1120 66 2600 080/05 RMK AO2
94908KDBQ DBQ20050609183509406/09/05 18:35:31  5-MIN KDBQ 100035Z 08006KT 10SM CLR 26/19 A2987 1120 66 2600 080/06 RMK AO2
94908KDBQ DBQ20050609184009406/09/05 18:40:31  5-MIN KDBQ 100040Z 07005KT 10SM CLR 25/19 A2987 1120 68 2600 070/05 RMK AO2
94908KDBQ DBQ20050609184510506/09/05 18:45:31  5-MIN KDBQ 100045Z AUTO 07004KT 10SM CLR 25/19 A2987  1130 68 2600 070/04 RMK AO2 TSNO
94908KDBQ DBQ20050609185012206/09/05 18:50:31  5-MIN KDBQ 100050Z AUTO 08005KT 10SM CLR 25/19 A2986  1130 68 2600 070/05 RMK AO2 SLP107 T02500189 TSNO
94908KDBQ DBQ20050609185512206/09/05 18:55:31  5-MIN KDBQ 100055Z AUTO 07005KT 10SM CLR 24/19 A2986  1130 71 2500 070/05 RMK AO2 SLP106 T02440189 TSNO
94908KDBQ DBQ20050609190010506/09/05 19:00:31  5-MIN KDBQ 100100Z AUTO 07005KT 10SM CLR 24/19 A2986  1140 73 2500 070/05 RMK AO2 TSNO
94908KDBQ DBQ20050609190510506/09/05 19:05:31  5-MIN KDBQ 100105Z AUTO 09005KT 10SM CLR 24/19 A2986  1140 73 2500 080/05 RMK AO2 TSNO
94908KDBQ DBQ20050609191010506/09/05 19:10:31  5-MIN KDBQ 100110Z AUTO 09005KT 10SM CLR 24/19 A2986  1130 73 2500 090/05 RMK AO2 TSNO
94908KDBQ DBQ20050609191510506/09/05 19:15:31  5-MIN KDBQ 100115Z AUTO 09006KT 10SM CLR 24/19 A2986  1130 76 2500 090/06 RMK AO2 TSNO
94908KDBQ DBQ20050609192010506/09/05 19:20:31  5-MIN KDBQ 100120Z AUTO 09006KT 10SM CLR 24/19 A2987  1130 76 2500 090/06 RMK AO2 TSNO
94908KDBQ DBQ20050609192510506/09/05 19:25:31  5-MIN KDBQ 100125Z AUTO 10005KT 10SM CLR 24/19 A2987  1130 76 2500 090/05 RMK AO2 TSNO
94908KDBQ DBQ20050609193010506/09/05 19:30:31  5-MIN KDBQ 100130Z AUTO 10005KT 10SM CLR 23/19 A2987  1120 78 2400 100/05 RMK AO2 TSNO
94908KDBQ DBQ20050609193510506/09/05 19:35:31  5-MIN KDBQ 100135Z AUTO 09005KT 10SM CLR 23/19 A2987  1120 78 2400 090/05 RMK AO2 TSNO
94908KDBQ DBQ20050609194010506/09/05 19:40:31  5-MIN KDBQ 100140Z AUTO 08005KT 10SM CLR 23/19 A2987  1120 81 2300 080/05 RMK AO2 TSNO
94908KDBQ DBQ20050609194510506/09/05 19:45:31  5-MIN KDBQ 100145Z AUTO 08006KT 10SM CLR 23/19 A2987  1130 81 2300 080/06 RMK AO2 TSNO
94908KDBQ DBQ20050609195012206/09/05 19:50:31  5-MIN KDBQ 100150Z AUTO 08007KT 10SM CLR 23/19 A2987  1130 81 2300 080/07 RMK AO2 SLP108 T02280194 TSNO
94908KDBQ DBQ20050609195512206/09/05 19:55:31  5-MIN KDBQ 100155Z AUTO 09007KT 10SM CLR 23/19 A2986  1130 81 2300 090/07 RMK AO2 SLP107 T02280194 TSNO
94908KDBQ DBQ20050609200010506/09/05 20:00:31  5-MIN KDBQ 100200Z AUTO 09007KT 10SM CLR 23/19 A2987  1130 81 2300 090/07 RMK AO2 TSNO
94908KDBQ DBQ20050609200510506/09/05 20:05:31  5-MIN KDBQ 100205Z AUTO 10007KT 10SM CLR 23/19 A2987  1130 81 2300 100/07 RMK AO2 TSNO
94908KDBQ DBQ20050609201010506/09/05 20:10:31  5-MIN KDBQ 100210Z AUTO 10007KT 10SM CLR 23/19 A2987  1130 78 2300 100/07 RMK AO2 TSNO
94908KDBQ DBQ20050609201510506/09/05 20:15:31  5-MIN KDBQ 100215Z AUTO 10006KT 10SM CLR 23/19 A2987  1120 78 2300 100/06 RMK AO2 TSNO
94908KDBQ DBQ20050609202010506/09/05 20:20:31  5-MIN KDBQ 100220Z AUTO 09006KT 10SM CLR 22/19 A2988  1120 81 2300 090/06 RMK AO2 TSNO
94908KDBQ DBQ20050609202510506/09/05 20:25:31  5-MIN KDBQ 100225Z AUTO 10007KT 10SM CLR 22/19 A2988  1120 81 2300 100/07 RMK AO2 TSNO
94908KDBQ DBQ20050609203010506/09/05 20:30:31  5-MIN KDBQ 100230Z AUTO 10008KT 10SM CLR 22/19 A2988  1120 81 2300 100/08 RMK AO2 TSNO
94908KDBQ DBQ20050609203510506/09/05 20:35:31  5-MIN KDBQ 100235Z AUTO 10008KT 10SM CLR 23/19 A2988  1120 78 2300 100/08 RMK AO2 TSNO
94908KDBQ DBQ20050609204010506/09/05 20:40:31  5-MIN KDBQ 100240Z AUTO 10008KT 10SM CLR 22/19 A2988  1120 81 2200 100/08 RMK AO2 TSNO
94908KDBQ DBQ20050609204510506/09/05 20:45:31  5-MIN KDBQ 100245Z AUTO 10007KT 10SM CLR 23/19 A2988  1110 78 2300 100/07 RMK AO2 TSNO
94908KDBQ DBQ20050609205012806/09/05 20:50:31  5-MIN KDBQ 100250Z AUTO 11007KT 10SM CLR 23/19 A2989  1110 78 2307 100/07 RMK AO2 SLP115 T02280189 56006 TSNO
94908KDBQ DBQ20050609205512806/09/05 20:55:31  5-MIN KDBQ 100255Z AUTO 10007KT 10SM CLR 23/19 A2989  1110 78 2300 100/07 RMK AO2 SLP115 T02280189 53071 TSNO
94908KDBQ DBQ20050609210010506/09/05 21:00:31  5-MIN KDBQ 100307Z AUTO 11008KT 10SM CLR 23/19 A2989  1110 78 2300 110/08 RMK AO2 TSNO
94908KDBQ DBQ20050609210510506/09/05 21:05:31  5-MIN KDBQ 100305Z AUTO 11007KT 10SM CLR 23/19 A2989  1100 78 2300 110/07 RMK AO2 TSNO
94908KDBQ DBQ20050609211010506/09/05 21:10:31  5-MIN KDBQ 100310Z AUTO 11008KT 10SM CLR 23/19 A2989  1100 78 2300 110/08 RMK AO2 TSNO
94908KDBQ DBQ20050609211510506/09/05 21:15:31  5-MIN KDBQ 100315Z AUTO 11008KT 10SM CLR 22/19 A2989  1100 81 2200 110/08 RMK AO2 TSNO
94908KDBQ DBQ20050609212010506/09/05 21:20:31  5-MIN KDBQ 100320Z AUTO 11008KT 10SM CLR 22/19 A2990  1100 81 2200 110/08 RMK AO2 TSNO
94908KDBQ DBQ20050610064009706/10/05 06:40:31  5-MIN KDBQ 101240Z 19010KT 4SM BR CLR 23/21 A2990 1100  87 2300 190/10 RMK AO2
94908KDBQ DBQ20050610064509706/10/05 06:45:31  5-MIN KDBQ 101245Z 18011KT 4SM BR CLR 23/21 A2990 1100  87 2300 180/11 RMK AO2
94908KDBQ DBQ20050610065011406/10/05 06:50:31  5-MIN KDBQ 101250Z 18010KT 5SM BR CLR 23/21 A2990 1090  87 2300 180/10 RMK AO2 SLP119 T02280206
94908KDBQ DBQ20050610065511406/10/05 06:55:31  5-MIN KDBQ 101255Z 19012KT 5SM BR CLR 23/21 A2990 1090  87 2300 190/12 RMK AO2 SLP119 T02280206
94908KDBQ DBQ20050610070009706/10/05 07:00:31  5-MIN KDBQ 101300Z 19010KT 5SM BR CLR 23/21 A2990 1090  87 2300 190/10 RMK AO2
94908KDBQ DBQ20050610070509706/10/05 07:05:31  5-MIN KDBQ 101305Z 19009KT 5SM BR CLR 23/21 A2990 1100  87 2300 190/09 RMK AO2
94908KDBQ DBQ20050610071009706/10/05 07:10:31  5-MIN KDBQ 101310Z 20010KT 6SM BR CLR 23/21 A2990 1100  87 2300 200/10 RMK AO2
94908KDBQ DBQ20050610071509706/10/05 07:15:31  5-MIN KDBQ 101315Z 20011KT 6SM BR CLR 23/21 A2990 1090  87 2300 200/11 RMK AO2
94908KDBQ DBQ20050610072009406/10/05 07:20:31  5-MIN KDBQ 101320Z 20009KT 7SM CLR 23/21 A2990 1090 84  2300 200/09 RMK AO2
94908KDBQ DBQ20050610072509406/10/05 07:25:31  5-MIN KDBQ 101325Z 21011KT 7SM CLR 23/21 A2991 1090 84  2300 210/11 RMK AO2
94908KDBQ DBQ20050610073009406/10/05 07:30:31  5-MIN KDBQ 101330Z 21008KT 7SM CLR 23/21 A2991 1090 84  2300 210/08 RMK AO2
94908KDBQ DBQ20050610073509406/10/05 07:35:31  5-MIN KDBQ 101335Z 20010KT 7SM CLR 23/20 A2991 1090 81  2300 200/10 RMK AO2
94908KDBQ DBQ20050610074009406/10/05 07:40:31  5-MIN KDBQ 101340Z 20011KT 8SM CLR 23/20 A2991 1090 81  2300 200/11 RMK AO2
94908KDBQ DBQ20050610074509406/10/05 07:45:31  5-MIN KDBQ 101345Z 19009KT 8SM CLR 23/20 A2991 1090 81  2300 190/09 RMK AO2
94908KDBQ DBQ20050610075011106/10/05 07:50:31  5-MIN KDBQ 101350Z 19010KT 8SM CLR 23/20 A2991 1090 81  2300 190/10 RMK AO2 SLP121 T02330200
94908KDBQ DBQ20050610075511106/10/05 07:55:31  5-MIN KDBQ 101355Z 19010KT 8SM CLR 23/20 A2991 1090 81  2300 190/10 RMK AO2 SLP122 T02330200
94908KDBQ DBQ20050610080009406/10/05 08:00:31  5-MIN KDBQ 101400Z 19010KT 9SM CLR 23/20 A2991 1090 81  2300 190/10 RMK AO2
94908KDBQ DBQ20050610080509406/10/05 08:05:31  5-MIN KDBQ 101405Z 20011KT 9SM CLR 23/20 A2991 1090 81  2300 200/11 RMK AO2
94908KDBQ DBQ20050610081009406/10/05 08:10:31  5-MIN KDBQ 101410Z 19011KT 10SM CLR 24/20 A2991 1090 78 2400 190/11 RMK AO2
94908KDBQ DBQ20050610081509406/10/05 08:15:31  5-MIN KDBQ 101415Z 19008KT 10SM CLR 24/20 A2990 1090 78 2400 190/08 RMK AO2
94908KDBQ DBQ20050610082009406/10/05 08:20:31  5-MIN KDBQ 101420Z 19009KT 10SM CLR 23/20 A2990 1090 81 2300 180/09 RMK AO2
94908KDBQ DBQ20050610082509406/10/05 08:25:31  5-MIN KDBQ 101425Z 19010KT 10SM CLR 24/20 A2990 1100 78 2400 190/10 RMK AO2
94908KDBQ DBQ20050610083009406/10/05 08:30:31  5-MIN KDBQ 101430Z 20010KT 10SM CLR 23/19 A2990 1100 78 2400 190/10 RMK AO2
94908KDBQ DBQ20050610083509406/10/05 08:35:31  5-MIN KDBQ 101435Z 20011KT 10SM CLR 24/19 A2990 1090 76 2400 190/11 RMK AO2
94908KDBQ DBQ20050610084009406/10/05 08:40:31  5-MIN KDBQ 101440Z 18008KT 10SM CLR 24/20 A2990 1100 78 2400 180/08 RMK AO2
94908KDBQ DBQ20050610084509406/10/05 08:45:31  5-MIN KDBQ 101445Z 18008KT 10SM CLR 24/20 A2989 1100 76 2500 180/08 RMK AO2
94908KDBQ DBQ20050610085011706/10/05 08:50:31  5-MIN KDBQ 101450Z 17011KT 10SM CLR 24/20 A2989 1100 76 2500 170/11 RMK AO2 SLP116 T02440200 53002
94908KDBQ DBQ20050610085511706/10/05 08:55:31  5-MIN KDBQ 101455Z 17009KT 10SM CLR 25/20 A2989 1110 73 2600 170/09 RMK AO2 SLP114 T02500200 58000
94908KDBQ DBQ20050610090009406/10/05 09:00:31  5-MIN KDBQ 101500Z 18010KT 10SM CLR 25/20 A2989 1110 73 2600 180/10 RMK AO2
94908KDBQ DBQ20050610090509406/10/05 09:05:31  5-MIN KDBQ 101505Z 17009KT 10SM CLR 26/20 A2988 1110 71 2600 170/09 RMK AO2
94908KDBQ DBQ20050610091009406/10/05 09:10:31  5-MIN KDBQ 101510Z 17010KT 10SM CLR 26/20 A2988 1110 68 2700 170/10 RMK AO2
94908KDBQ DBQ20050610091509406/10/05 09:15:31  5-MIN KDBQ 101515Z 17010KT 10SM CLR 26/19 A2988 1120 66 2700 170/10 RMK AO2
94908KDBQ DBQ20050610092009406/10/05 09:20:31  5-MIN KDBQ 101520Z 16010KT 10SM CLR 26/19 A2988 1120 66 2700 160/10 RMK AO2
94908KDBQ DBQ20050610092509406/10/05 09:25:31  5-MIN KDBQ 101525Z 17008KT 10SM CLR 27/21 A2988 1110 69 2700 170/08 RMK AO2
94908KDBQ DBQ20050610093009406/10/05 09:30:31  5-MIN KDBQ 101530Z 19008KT 10SM CLR 27/20 A2989 1110 66 2700 180/08 RMK AO2
94908KDBQ DBQ20050610093509406/10/05 09:35:31  5-MIN KDBQ 101535Z 20009KT 10SM CLR 27/21 A2989 1100 69 2700 200/09 RMK AO2
94908KDBQ DBQ20050610094009406/10/05 09:40:31  5-MIN KDBQ 101540Z 17010KT 10SM CLR 27/20 A2989 1100 64 2800 170/10 RMK AO2
94908KDBQ DBQ20050610094509406/10/05 09:45:31  5-MIN KDBQ 101545Z 19010KT 10SM CLR 27/21 A2989 1100 66 2800 190/10 RMK AO2
94908KDBQ DBQ20050610095011106/10/05 09:50:31  5-MIN KDBQ 101550Z 19010KT 10SM CLR 27/20 A2989 1110 64 2800 190/10 RMK AO2 SLP114 T02720200
94908KDBQ DBQ20050610095511106/10/05 09:55:31  5-MIN KDBQ 101555Z 18010KT 10SM CLR 27/21 A2989 1100 66 2800 180/10 RMK AO2 SLP114 T02720206
94908KDBQ DBQ20050610100009406/10/05 10:00:31  5-MIN KDBQ 101600Z 18010KT 10SM CLR 27/19 A2989 1110 62 2800 180/10 RMK AO2
94908KDBQ DBQ20050610100509706/10/05 10:05:31  5-MIN KDBQ 101605Z 18009KT 10SM FEW075 28/20 A2989 1110 62 2900 180/09 RMK AO2
94908KDBQ DBQ20050610101009706/10/05 10:10:31  5-MIN KDBQ 101610Z 16010KT 10SM FEW075 28/19 A2989 1110 60 2900 160/10 RMK AO2
94908KDBQ DBQ20050610101509706/10/05 10:15:31  5-MIN KDBQ 101615Z 17011KT 10SM FEW075 28/20 A2989 1110 62 2900 170/11 RMK AO2
94908KDBQ DBQ20050610102009706/10/05 10:20:31  5-MIN KDBQ 101620Z 17010KT 10SM FEW075 28/20 A2989 1110 60 2900 170/10 RMK AO2
94908KDBQ DBQ20050610102509706/10/05 10:25:31  5-MIN KDBQ 101625Z 18010KT 10SM FEW075 28/20 A2989 1110 60 2900 180/10 RMK AO2
94908KDBQ DBQ20050610103009706/10/05 10:30:31  5-MIN KDBQ 101630Z 17012KT 10SM FEW075 28/20 A2989 1110 60 2900 170/12 RMK AO2
94908KDBQ DBQ20050610103509406/10/05 10:35:31  5-MIN KDBQ 101635Z 18012KT 10SM CLR 29/20 A2989 1110 58 3000 180/12 RMK AO2
94908KDBQ DBQ20050610104009706/10/05 10:40:31  5-MIN KDBQ 101640Z 18011KT 10SM FEW100 28/20 A2989 1110 60 2900 180/11 RMK AO2
94908KDBQ DBQ20050610104509706/10/05 10:45:31  5-MIN KDBQ 101645Z 20011KT 10SM SCT095 29/20 A2989 1110 58 3000 200/11 RMK AO2
94908KDBQ DBQ20050610105011406/10/05 10:50:31  5-MIN KDBQ 101650Z 19011KT 10SM SCT090 29/21 A2989 1100 60 3000 190/11 RMK AO2 SLP115 T02890206
94908KDBQ DBQ20050610105511406/10/05 10:55:31  5-MIN KDBQ 101655Z 22011KT 10SM SCT090 29/20 A2990 1100 58 3000 220/11 RMK AO2 SLP116 T02890200
94908KDBQ DBQ20050610110009706/10/05 11:00:31  5-MIN KDBQ 101700Z 23011KT 10SM SCT090 29/20 A2989 1100 58 3000 220/11 RMK AO2
94908KDBQ DBQ20050610110509706/10/05 11:05:31  5-MIN KDBQ 101705Z 20010KT 10SM SCT090 29/21 A2990 1100 60 3000 200/10 RMK AO2
94908KDBQ DBQ20050610111009706/10/05 11:10:31  5-MIN KDBQ 101710Z 21009KT 10SM FEW085 29/21 A2990 1100 60 3000 210/09 RMK AO2
94908KDBQ DBQ20050610111509706/10/05 11:15:31  5-MIN KDBQ 101715Z 21011KT 10SM FEW080 28/21 A2990 1100 62 2900 210/11 RMK AO2
94908KDBQ DBQ20050610112009706/10/05 11:20:31  5-MIN KDBQ 101720Z 22012KT 10SM FEW085 28/20 A2990 1100 60 2900 220/12 RMK AO2
94908KDBQ DBQ20050610112509706/10/05 11:25:31  5-MIN KDBQ 101725Z 21008KT 10SM FEW085 28/20 A2990 1100 60 2900 210/08 RMK AO2
94908KDBQ DBQ20050610113009706/10/05 11:30:31  5-MIN KDBQ 101730Z 21011KT 10SM FEW040 28/19 A2990 1100 58 2900 210/11 RMK AO2
94908KDBQ DBQ20050610113509706/10/05 11:35:31  5-MIN KDBQ 101735Z 21009KT 10SM FEW040 28/19 A2990 1100 60 2900 210/09 RMK AO2
94908KDBQ DBQ20050610114009406/10/05 11:40:31  5-MIN KDBQ 101740Z 22010KT 10SM CLR 28/20 A2989 1100 62 2900 220/10 RMK AO2
94908KDBQ DBQ20050610114509406/10/05 11:45:31  5-MIN KDBQ 101745Z 23012KT 10SM CLR 28/21 A2989 1100 64 2900 230/12 RMK AO2
94908KDBQ DBQ20050610115012906/10/05 11:50:31  5-MIN KDBQ 101750Z 22009KT 10SM CLR 28/20 A2989 1100 62 2900 220/09 RMK AO2 SLP114 T02780200 10289 20222 58000
94908KDBQ DBQ20050610115512906/10/05 11:55:31  5-MIN KDBQ 101755Z 22010KT 10SM CLR 28/20 A2989 1110 62 2900 210/10 RMK AO2 SLP114 T02780200 10289 20222 50001
94908KDBQ DBQ20050610120009406/10/05 12:00:31  5-MIN KDBQ 101800Z 23008KT 10SM CLR 28/20 A2989 1110 62 2900 230/08 RMK AO2
94908KDBQ DBQ20050610120509406/10/05 12:05:31  5-MIN KDBQ 101805Z 22008KT 10SM CLR 28/20 A2989 1110 62 2900 220/08 RMK AO2
94908KDBQ DBQ20050610121009406/10/05 12:10:31  5-MIN KDBQ 101810Z 21010KT 10SM CLR 28/21 A2989 1110 64 2900 210/10 RMK AO2
94908KDBQ DBQ20050610121509406/10/05 12:15:31  5-MIN KDBQ 101815Z 22009KT 10SM CLR 28/20 A2988 1110 62 2900 220/09 RMK AO2
94908KDBQ DBQ20050610122009406/10/05 12:20:31  5-MIN KDBQ 101820Z 20010KT 10SM CLR 28/20 A2988 1110 62 2900 200/10 RMK AO2
94908KDBQ DBQ20050610122509406/10/05 12:25:31  5-MIN KDBQ 101825Z 21012KT 10SM CLR 28/21 A2988 1110 62 2900 210/12 RMK AO2
94908KDBQ DBQ20050610123009406/10/05 12:30:31  5-MIN KDBQ 101830Z 21012KT 10SM CLR 29/21 A2988 1110 60 3000 210/12 RMK AO2
94908KDBQ DBQ20050610123509406/10/05 12:35:31  5-MIN KDBQ 101835Z 22011KT 10SM CLR 28/20 A2988 1110 60 2900 220/11 RMK AO2
94908KDBQ DBQ20050610124009406/10/05 12:40:31  5-MIN KDBQ 101840Z 22011KT 10SM CLR 29/21 A2988 1120 60 3000 220/11 RMK AO2
94908KDBQ DBQ20050610124509406/10/05 12:45:31  5-MIN KDBQ 101845Z 21012KT 10SM CLR 29/21 A2988 1120 60 3000 210/12 RMK AO2
94908KDBQ DBQ20050610125011106/10/05 12:50:31  5-MIN KDBQ 101850Z 21008KT 10SM CLR 28/21 A2988 1120 62 2900 210/08 RMK AO2 SLP109 T02830206
94908KDBQ DBQ20050610125511106/10/05 12:55:31  5-MIN KDBQ 101855Z 20010KT 10SM CLR 29/21 A2987 1120 60 3100 200/10 RMK AO2 SLP108 T02940211
94908KDBQ DBQ20050610130009406/10/05 13:00:31  5-MIN KDBQ 101900Z 21012KT 10SM CLR 29/20 A2987 1130 58 3000 210/12 RMK AO2
94908KDBQ DBQ20050610130509406/10/05 13:05:31  5-MIN KDBQ 101905Z 19015KT 10SM CLR 29/20 A2987 1130 58 3000 190/15 RMK AO2
94908KDBQ DBQ20050610131009406/10/05 13:10:31  5-MIN KDBQ 101910Z 19012KT 10SM CLR 29/20 A2986 1130 58 3000 190/12 RMK AO2
94908KDBQ DBQ20050610131509406/10/05 13:15:31  5-MIN KDBQ 101915Z 22015KT 10SM CLR 29/21 A2985 1140 58 3100 220/15 RMK AO2
94908KDBQ DBQ20050610132009406/10/05 13:20:31  5-MIN KDBQ 101920Z 19013KT 10SM CLR 29/20 A2986 1130 58 3000 190/13 RMK AO2
94908KDBQ DBQ20050610132509406/10/05 13:25:31  5-MIN KDBQ 101925Z 20012KT 10SM CLR 29/20 A2986 1140 58 3000 200/12 RMK AO2
94908KDBQ DBQ20050610133009406/10/05 13:30:31  5-MIN KDBQ 101930Z 21014KT 10SM CLR 29/21 A2985 1140 58 3100 210/14 RMK AO2
94908KDBQ DBQ20050610133509406/10/05 13:35:31  5-MIN KDBQ 101935Z 20011KT 10SM CLR 29/21 A2985 1140 58 3100 200/11 RMK AO2
94908KDBQ DBQ20050610134009406/10/05 13:40:31  5-MIN KDBQ 101940Z 19012KT 10SM CLR 29/21 A2985 1150 58 3100 190/12 RMK AO2
94908KDBQ DBQ20050610134510006/10/05 13:45:31  5-MIN KDBQ 101945Z 20009G17KT 10SM CLR 29/21 A2984 1150 58 3100 200/09G17 RMK AO2
94908KDBQ DBQ20050610135011106/10/05 13:50:31  5-MIN KDBQ 101950Z 22009KT 10SM CLR 29/21 A2984 1150 60 3100 220/09 RMK AO2 SLP097 T02940211
94908KDBQ DBQ20050610135511106/10/05 13:55:31  5-MIN KDBQ 101955Z 22010KT 10SM CLR 29/21 A2984 1150 58 3100 220/10 RMK AO2 SLP096 T02940206
94908KDBQ DBQ20050610140009406/10/05 14:00:31  5-MIN KDBQ 102000Z 20008KT 10SM CLR 29/21 A2984 1150 58 3100 200/08 RMK AO2
94908KDBQ DBQ20050610140509406/10/05 14:05:31  5-MIN KDBQ 102005Z 20012KT 10SM CLR 30/21 A2984 1150 56 3200 200/12 RMK AO2
94908KDBQ DBQ20050610141009406/10/05 14:10:31  5-MIN KDBQ 102010Z 21010KT 10SM CLR 30/20 A2984 1160 54 3200 210/10 RMK AO2
94908KDBQ DBQ20050610141509706/10/05 14:15:31  5-MIN KDBQ 102015Z 21011KT 10SM FEW042 30/21 A2984 1160 56 3200 200/11 RMK AO2
94908KDBQ DBQ20050610142009706/10/05 14:20:31  5-MIN KDBQ 102020Z 20012KT 10SM FEW042 30/21 A2984 1150 56 3200 200/12 RMK AO2
94908KDBQ DBQ20050610142510406/10/05 14:25:31  5-MIN KDBQ 102025Z 21011G16KT 10SM SCT042 30/21 A2984  1160 56 3200 210/11G16 RMK AO2
94908KDBQ DBQ20050610143010406/10/05 14:30:31  5-MIN KDBQ 102030Z 22011G16KT 10SM SCT042 29/20 A2983  1160 56 3100 220/11G16 RMK AO2
94908KDBQ DBQ20050610143509706/10/05 14:35:31  5-MIN KDBQ 102035Z 20008KT 10SM SCT042 30/21 A2983 1160 56 3200 200/08 RMK AO2
94908KDBQ DBQ20050610144009706/10/05 14:40:31  5-MIN KDBQ 102040Z 20010KT 10SM SCT042 30/21 A2983 1160 56 3200 200/10 RMK AO2
94908KDBQ DBQ20050610144509706/10/05 14:45:31  5-MIN KDBQ 102045Z 20009KT 10SM SCT042 29/21 A2983 1160 60 3100 200/09 RMK AO2
94908KDBQ DBQ20050610145012006/10/05 14:50:31  5-MIN KDBQ 102050Z 17007KT 10SM SCT042 29/21 A2982 1170 58 3100 170/07 RMK AO2 SLP091 T02940206 50001
94908KDBQ DBQ20050610145512006/10/05 14:55:31  5-MIN KDBQ 102055Z 22010KT 10SM SCT042 30/21 A2982 1170 56 3200 220/10 RMK AO2 SLP088 T03000206 58024
94908KDBQ DBQ20050610150009706/10/05 15:00:31  5-MIN KDBQ 102100Z 21012KT 10SM FEW042 30/21 A2981 1180 56 3200 210/12 RMK AO2
94908KDBQ DBQ20050610150509706/10/05 15:05:31  5-MIN KDBQ 102105Z 22009KT 10SM FEW042 30/21 A2982 1170 56 3200 220/09 RMK AO2
94908KDBQ DBQ20050610151010506/10/05 15:10:31  5-MIN KDBQ 102110Z 22010KT 10SM FEW042 SCT050 30/21  A2982 1180 56 3200 220/10 RMK AO2
94908KDBQ DBQ20050610151509706/10/05 15:15:31  5-MIN KDBQ 102115Z 21010KT 10SM FEW042 30/21 A2981 1180 58 3200 210/10 RMK AO2
94908KDBQ DBQ20050610152009706/10/05 15:20:31  5-MIN KDBQ 102120Z 21008KT 10SM FEW042 30/21 A2981 1180 56 3200 210/08 RMK AO2
94908KDBQ DBQ20050610152509706/10/05 15:25:31  5-MIN KDBQ 102125Z 21007KT 10SM FEW042 30/21 A2981 1180 58 3200 210/07 RMK AO2
94908KDBQ DBQ20050610153009706/10/05 15:30:31  5-MIN KDBQ 102130Z 18007KT 10SM FEW042 30/20 A2981 1180 54 3200 180/07 RMK AO2
94908KDBQ DBQ20050610153510506/10/05 15:35:31  5-MIN KDBQ 102135Z 22008KT 10SM FEW044 SCT060 30/21  A2982 1170 56 3200 220/08 RMK AO2
94908KDBQ DBQ20050610154010506/10/05 15:40:31  5-MIN KDBQ 102140Z VRB06KT 10SM SCT046 BKN060 31/20  A2981 1180 52 3300 VRB/06 RMK AO2
94908KDBQ DBQ20050610154510506/10/05 15:45:31  5-MIN KDBQ 102145Z 19010KT 10SM SCT048 BKN060 31/20  A2981 1180 52 3300 190/10 RMK AO2
94908KDBQ DBQ20050610155012206/10/05 15:50:31  5-MIN KDBQ 102150Z 18008KT 10SM SCT048 BKN060 31/20  A2982 1180 52 3300 180/08 RMK AO2 SLP087 T03060200
94908KDBQ DBQ20050610155512206/10/05 15:55:31  5-MIN KDBQ 102155Z 19010KT 10SM SCT048 BKN060 31/20  A2982 1180 52 3300 190/10 RMK AO2 SLP087 T03060200
94908KDBQ DBQ20050610160010506/10/05 16:00:31  5-MIN KDBQ 102200Z 18011KT 10SM SCT048 BKN060 31/20  A2981 1180 52 3300 180/11 RMK AO2
94908KDBQ DBQ20050610160510506/10/05 16:05:31  5-MIN KDBQ 102205Z 19010KT 10SM SCT048 SCT060 30/19  A2982 1180 52 3200 190/10 RMK AO2
94908KDBQ DBQ20050610161009706/10/05 16:10:31  5-MIN KDBQ 102210Z 18011KT 10SM FEW048 29/20 A2982 1170 56 3100 170/11 RMK AO2
94908KDBQ DBQ20050610161509706/10/05 16:15:31  5-MIN KDBQ 102215Z 19014KT 10SM FEW046 29/19 A2982 1170 54 3100 190/14 RMK AO2
94908KDBQ DBQ20050610162009406/10/05 16:20:31  5-MIN KDBQ 102220Z 18010KT 10SM CLR 29/19 A2982 1170 56 3100 180/10 RMK AO2
94908KDBQ DBQ20050610162510006/10/05 16:25:31  5-MIN KDBQ 102225Z 18012G16KT 10SM CLR 29/19 A2982 1170 52 3100 180/12G16 RMK AO2
94908KDBQ DBQ20050610163009406/10/05 16:30:31  5-MIN KDBQ 102230Z 18011KT 10SM CLR 30/19 A2982 1170 51 3200 180/11 RMK AO2
94908KDBQ DBQ20050610163509406/10/05 16:35:31  5-MIN KDBQ 102235Z 19012KT 10SM CLR 30/18 A2982 1170 49 3200 190/12 RMK AO2
94908KDBQ DBQ20050610164009406/10/05 16:40:31  5-MIN KDBQ 102240Z 18012KT 10SM CLR 30/17 A2982 1170 45 3200 180/12 RMK AO2
94908KDBQ DBQ20050610164509406/10/05 16:45:31  5-MIN KDBQ 102245Z 20012KT 10SM CLR 29/17 A2982 1170 45 3100 200/12 RMK AO2
94908KDBQ DBQ20050610165011106/10/05 16:50:31  5-MIN KDBQ 102250Z 20014KT 10SM CLR 29/16 A2982 1170 44 3100 200/14 RMK AO2 SLP091 T02940161
94908KDBQ DBQ20050610165511106/10/05 16:55:31  5-MIN KDBQ 102255Z 20011KT 10SM CLR 29/16 A2982 1170 45 3100 200/11 RMK AO2 SLP091 T02890161
94908KDBQ DBQ20050610170009406/10/05 17:00:31  5-MIN KDBQ 102300Z 20013KT 10SM CLR 29/17 A2983 1170 47 3100 200/13 RMK AO2
94908KDBQ DBQ20050610170509406/10/05 17:05:31  5-MIN KDBQ 102305Z 20012KT 10SM CLR 29/17 A2982 1170 47 3100 200/12 RMK AO2
94908KDBQ DBQ20050610171009406/10/05 17:10:31  5-MIN KDBQ 102310Z 20012KT 10SM CLR 29/17 A2983 1160 47 3100 200/12 RMK AO2
94908KDBQ DBQ20050610171509406/10/05 17:15:31  5-MIN KDBQ 102315Z 21011KT 10SM CLR 28/17 A2983 1160 48 3000 210/11 RMK AO2
94908KDBQ DBQ20050610172009406/10/05 17:20:31  5-MIN KDBQ 102320Z 21008KT 10SM CLR 28/17 A2984 1160 50 3000 210/08 RMK AO2
94908KDBQ DBQ20050610172509406/10/05 17:25:31  5-MIN KDBQ 102325Z 21008KT 10SM CLR 28/17 A2984 1160 52 2900 210/08 RMK AO2
94908KDBQ DBQ20050610173009406/10/05 17:30:31  5-MIN KDBQ 102330Z 21009KT 10SM CLR 28/18 A2984 1160 54 2900 210/09 RMK AO2
94908KDBQ DBQ20050610173509406/10/05 17:35:31  5-MIN KDBQ 102335Z 21009KT 10SM CLR 28/17 A2983 1160 52 2900 210/09 RMK AO2
94908KDBQ DBQ20050610174009406/10/05 17:40:31  5-MIN KDBQ 102340Z 20009KT 10SM CLR 28/17 A2983 1160 52 2900 200/09 RMK AO2
94908KDBQ DBQ20050610174509406/10/05 17:45:31  5-MIN KDBQ 102345Z 20007KT 10SM CLR 28/18 A2983 1160 54 2900 200/07 RMK AO2
94908KDBQ DBQ20050610175014006/10/05 17:50:31  5-MIN KDBQ 102350Z AUTO 20009KT 10SM CLR 28/18 A2983  1160 54 2900 200/09 RMK AO2 SLP094 T02780178 10306 20278 58024 TSNO
94908KDBQ DBQ20050610175514006/10/05 17:55:31  5-MIN KDBQ 102355Z AUTO 21008KT 10SM CLR 28/18 A2983  1160 54 2900 200/08 RMK AO2 SLP093 T02780178 10306 20278 53004 TSNO
94908KDBQ DBQ20050610180010506/10/05 18:00:31  5-MIN KDBQ 110000Z AUTO 21007KT 10SM CLR 28/18 A2983  1170 54 2900 210/07 RMK AO2 TSNO
94908KDBQ DBQ20050610180510506/10/05 18:05:31  5-MIN KDBQ 110005Z AUTO 21007KT 10SM CLR 28/18 A2983  1160 54 2900 210/07 RMK AO2 TSNO
94908KDBQ DBQ20050610181010706/10/05 18:10:31  5-MIN KDBQ 110010Z AUTO 21006KT 10SM FEW060 27/18 A2983 1160 56 2900 210/06 RMK AO2 TSNO
94908KDBQ DBQ20050610181513906/10/05 18:15:31  5-MIN KDBQ 110015Z AUTO 19027G31KT 10SM FEW050 SCT060  27/18 A2983 1160 60 2800 190/27G31 RMK AO2 PK WND 18031/0015 TSNO
94908KDBQ DBQ20050610182013906/10/05 18:20:31  5-MIN KDBQ 110020Z AUTO 18027G34KT 10SM SCT050 BKN060  24/17 A2984 1160 63 2500 180/27G34 RMK AO2 PK WND 20034/0016 TSNO
94908KDBQ DBQ20050610182515306/10/05 18:25:31  5-MIN KDBQ 110025Z AUTO 17017G34KT 6SM RA SCT055 BKN080 23/18 A2985 1150 73 2400 170/17G34 RMK AO2 PK WND 20034/0016 RAB23 P0000  TSNO
94908KDBQ DBQ20050610183014406/10/05 18:30:31  5-MIN KDBQ 110030Z 17012KT 3SM +RA SCT020 BKN049 BKN060 22/18 A2984 1150 75 2300 170/12 RMK AO2 PK WND 20034/0016 RAB23 P0003
94908KDBQ DBQ20050610183513806/10/05 18:35:31  5-MIN KDBQ 110035Z 12007KT 3SM +RA SCT020 OVC049 22/18  A2984 1160 78 2200 120/07 RMK AO2 PK WND 20034/0016 RAB23 P0008
94908KDBQ DBQ20050610184013806/10/05 18:40:31  5-MIN KDBQ 110040Z 10007KT 3SM -RA SCT020 OVC049 22/18  A2983 1170 78 2300 100/07 RMK AO2 PK WND 20034/0016 RAB23 P0009
94908KDBQ DBQ20050610184514406/10/05 18:45:31  5-MIN KDBQ 110045Z 12005KT 8SM -RA BKN029 BKN049 BKN065 22/19 A2983 1160 81 2300 120/05 RMK AO2 PK WND 20034/0016 RAB23 P0009
94908KDBQ DBQ20050610185016706/10/05 18:50:31  5-MIN KDBQ 110050Z AUTO 17006KT 10SM -RA SCT034 BKN060  23/19 A2984 1160 78 2400 170/06 RMK AO2 PK WND 20034/0016 RAB23 SLP097  P0009 T02280189 TSNO
94908KDBQ DBQ20050610185516606/10/05 18:55:31  5-MIN KDBQ 110055Z AUTO 16009KT 9SM -RA BKN035 BKN120  24/18 A2983 1160 71 2500 160/09 RMK AO2 PK WND 20034/0016 RAB23 SLP095  P0009 T02390183 TSNO
94908KDBQ DBQ20050610190011706/10/05 19:00:31  5-MIN KDBQ 110100Z AUTO 15006KT 9SM -RA BKN035 23/18  A2983 1170 73 2400 150/06 RMK AO2 P0000 TSNO
94908KDBQ DBQ20050610190511806/10/05 19:05:31  5-MIN KDBQ 110105Z AUTO VRB03KT 10SM -RA SCT037 23/18  A2982 1170 73 2400 VRB/03 RMK AO2 P0000 TSNO
94908KDBQ DBQ20050610191011906/10/05 19:10:31  5-MIN KDBQ 110110Z AUTO 22003KT 10SM FEW044 23/19 A2983 1160 76 2400 220/03 RMK AO2 RAE06 P0000 TSNO
94908KDBQ DBQ20050610191513306/10/05 19:15:31  5-MIN KDBQ 110115Z AUTO 16014G18KT 10SM SCT042 SCT060  23/19 A2985 1150 76 2400 160/14G18 RMK AO2 RAE06 P0000 TSNO
94908KDBQ DBQ20050610192014006/10/05 19:20:31  5-MIN KDBQ 110120Z AUTO 17011G18KT 10SM SCT039 SCT060  23/18 A2986 1140 73 2400 170/11G18 RMK AO2 RAE06 PRESRR P0000 TSNO
94908KDBQ DBQ20050610192512606/10/05 19:25:31  5-MIN KDBQ 110125Z AUTO 17012KT 10SM FEW042 SCT065 23/19 A2985 1140 78 2300 170/12 RMK AO2 RAE06 P0000 TSNO
94908KDBQ DBQ20050610193017006/10/05 19:30:31  5-MIN KDBQ 110130Z AUTO 19022G26KT 10SM FEW042 SCT050  23/18 A2987 1120 76 2300 190/22G26 RMK AO2 PK WND 19026/0129 WSHFT 0113  RAE06 PRESRR P0000 TSNO
94908KDBQ DBQ20050610193517006/10/05 19:35:31  5-MIN KDBQ 110135Z AUTO 17025G30KT 10SM SCT042 BKN050  BKN055 22/18 A2987 1120 75 2300 170/25G30 RMK AO2 PK WND 18030/0135 WSHFT  0113 RAE06 P0000 TSNO
94908KDBQ DBQ20050610194017406/10/05 19:40:31  5-MIN KDBQ 110140Z AUTO 17018G30KT 9SM -RA SCT042 SCT050 BKN060 21/18 A2987 1120 84 2100 170/18G30 RMK AO2 PK WND 18030/0135 WSHFT 0113 RAE06B38 P0000 TSNO
94908KDBQ DBQ20050610194516806/10/05 19:45:31  5-MIN KDBQ 110145Z AUTO 18012KT 7SM RA FEW032 SCT045  BKN060 21/18 A2986 1130 87 2100 170/12 RMK AO2 PK WND 18030/0135 WSHFT 0113 RAE06B38 P0000 TSNO
94908KDBQ DBQ20050610195018506/10/05 19:50:31  5-MIN KDBQ 110150Z AUTO 19012KT 6SM RA SCT034 BKN045  BKN060 21/18 A2985 1140 84 2100 190/12 RMK AO2 PK WND 18030/0135 WSHFT 0113 RAE06B38 SLP103 P0002 T02060178 TSNO
94908KDBQ DBQ20050610195518606/10/05 19:55:31  5-MIN KDBQ 110155Z AUTO 20011KT 7SM -RA BKN043 BKN055  OVC095 20/18 A2987 1120 87 2000 200/11 RMK AO2 PK WND 18030/0135 WSHFT 0113 RAE06B38 SLP109 P0002 T02000178 TSNO
94908KDBQ DBQ20050610200013006/10/05 20:00:31  5-MIN KDBQ 110200Z AUTO 21008KT 7SM RA BKN043 BKN060  OVC100 20/18 A2986 1130 90 2000 210/08 RMK AO2 P0001 TSNO
94908KDBQ DBQ20050610200513206/10/05 20:05:31  5-MIN KDBQ 110205Z AUTO 19005KT 6SM RA BR BKN043 BKN060 OVC110 20/18 A2987 1130 90 2000 190/05 RMK AO2 P0001 TSNO
94908KDBQ DBQ20050610201013106/10/05 20:10:31  5-MIN KDBQ 110210Z AUTO 16003KT 7SM -RA BKN045 BKN060  OVC100 20/18 A2986 1130 90 2000 160/03 RMK AO2 P0002 TSNO
94908KDBQ DBQ20050610201512406/10/05 20:15:31  5-MIN KDBQ 110215Z AUTO 11007KT 9SM -RA BKN055 OVC100  20/18 A2987 1130 90 2000 110/07 RMK AO2 P0002 TSNO
94908KDBQ DBQ20050610202012506/10/05 20:20:31  5-MIN KDBQ 110220Z AUTO 13005KT 10SM -RA BKN060 BKN100  20/18 A2987 1130 90 2000 130/05 RMK AO2 P0002 TSNO
94908KDBQ DBQ20050610202512506/10/05 20:25:31  5-MIN KDBQ 110225Z AUTO 17005KT 10SM -RA BKN060 BKN110  21/19 A2987 1130 90 2100 170/05 RMK AO2 P0002 TSNO
94908KDBQ DBQ20050610203013406/10/05 20:30:31  5-MIN KDBQ 110230Z AUTO 18009KT 10SM BKN070 BKN095  BKN120 21/19 A2987 1120 87 2100 180/09 RMK AO2 RAE30 P0002 TSNO
94908KDBQ DBQ20050610203512606/10/05 20:35:31  5-MIN KDBQ 110235Z AUTO 19009KT 10SM BKN075 BKN110 21/19 A2987 1130 87 2100 190/09 RMK AO2 RAE30 P0002 TSNO
94908KDBQ DBQ20050610204012606/10/05 20:40:31  5-MIN KDBQ 110240Z AUTO 21009KT 10SM BKN080 BKN120 21/19 A2987 1120 87 2100 210/09 RMK AO2 RAE30 P0002 TSNO
94908KDBQ DBQ20050610204513406/10/05 20:45:31  5-MIN KDBQ 110245Z AUTO 20007KT 10SM BKN080 BKN100  BKN120 21/19 A2987 1120 87 2100 200/07 RMK AO2 RAE30 P0002 TSNO
94908KDBQ DBQ20050610205015506/10/05 20:50:31  5-MIN KDBQ 110250Z AUTO 16011KT 10SM BKN080 BKN100 21/19 A2988 1110 87 2100 150/11 RMK AO2 RAE30 SLP114 P0002 60013 T02110189 53004 TSNO
94908KDBQ DBQ20050610205515506/10/05 20:55:31  5-MIN KDBQ 110255Z AUTO 15011KT 10SM SCT080 BKN100 21/19 A2988 1110 87 2100 150/11 RMK AO2 RAE30 SLP112 P0002 60013 T02110189 53017 TSNO
94908KDBQ DBQ20050610210011406/10/05 21:00:31  5-MIN KDBQ 110300Z AUTO 14008KT 10SM SCT080 SCT110 20/18 A2988 1120 90 2000 140/08 RMK AO2 TSNO
94908KDBQ DBQ20050610210510706/10/05 21:05:31  5-MIN KDBQ 110305Z AUTO 13006KT 10SM FEW080 20/18 A2988 1120 90 2000 130/06 RMK AO2 TSNO
94908KDBQ DBQ20050610211010706/10/05 21:10:31  5-MIN KDBQ 110310Z AUTO 15008KT 10SM FEW070 20/19 A2988 1120 93 2000 150/08 RMK AO2 TSNO
94908KDBQ DBQ20050610211510706/10/05 21:15:31  5-MIN KDBQ 110315Z AUTO 16007KT 10SM FEW080 20/18 A2988 1120 90 2000 160/07 RMK AO2 TSNO
94908KDBQ DBQ20050610212010506/10/05 21:20:31  5-MIN KDBQ 110320Z AUTO 16006KT 10SM CLR 20/18 A2988  1120 90 2000 160/06 RMK AO2 TSNO
94908KDBQ DBQ20050610212510506/10/05 21:25:31  5-MIN KDBQ 110325Z AUTO 17005KT 10SM CLR 20/19 A2987  1120 93 2000 170/05 RMK AO2 TSNO
94908KDBQ DBQ20050610213010506/10/05 21:30:31  5-MIN KDBQ 110330Z AUTO 00000KT 10SM CLR 20/19 A2986  1130 93 2000 000/00 RMK AO2 TSNO
94908KDBQ DBQ20050610213510506/10/05 21:35:31  5-MIN KDBQ 110335Z AUTO 21004KT 10SM CLR 20/19 A2987  1130 93 2000 210/04 RMK AO2 TSNO
94908KDBQ DBQ20050610214010506/10/05 21:40:31  5-MIN KDBQ 110340Z AUTO 00000KT 10SM CLR 20/18 A2986  1140 90 2000 000/00 RMK AO2 TSNO
94908KDBQ DBQ20050610214510506/10/05 21:45:31  5-MIN KDBQ 110345Z AUTO 23004KT 10SM CLR 20/18 A2986  1130 90 2000 230/04 RMK AO2 TSNO
94908KDBQ DBQ20050610215012206/10/05 21:50:31  5-MIN KDBQ 110350Z AUTO 22004KT 10SM CLR 20/18 A2987  1130 90 2000 220/04 RMK AO2 SLP106 T02000183 TSNO
94908KDBQ DBQ20050610215512206/10/05 21:55:31  5-MIN KDBQ 110355Z AUTO 20003KT 10SM CLR 20/19 A2987  1130 93 2000 200/03 RMK AO2 SLP106 T02000189 TSNO
94908KDBQ DBQ20050610220010506/10/05 22:00:31  5-MIN KDBQ 110400Z AUTO 00000KT 10SM CLR 20/19 A2987  1130 93 2000 000/00 RMK AO2 TSNO
94908KDBQ DBQ20050610220510506/10/05 22:05:31  5-MIN KDBQ 110405Z AUTO 00000KT 10SM CLR 20/19 A2987  1130 93 2000 000/00 RMK AO2 TSNO
94908KDBQ DBQ20050610221010506/10/05 22:10:31  5-MIN KDBQ 110410Z AUTO 00000KT 10SM CLR 20/19 A2987  1120 93 2000 000/00 RMK AO2 TSNO
94908KDBQ DBQ20050610221510506/10/05 22:15:31  5-MIN KDBQ 110415Z AUTO 21003KT 10SM CLR 20/19 A2987  1120 93 2000 210/03 RMK AO2 TSNO
94908KDBQ DBQ20050610222010506/10/05 22:20:31  5-MIN KDBQ 110420Z AUTO 00000KT 10SM CLR 20/19 A2988  1120 93 2000 000/00 RMK AO2 TSNO
94908KDBQ DBQ20050610222510506/10/05 22:25:31  5-MIN KDBQ 110425Z AUTO 19004KT 10SM CLR 20/19 A2987  1120 93 2000 190/04 RMK AO2 TSNO
94908KDBQ DBQ20050610223010506/10/05 22:30:31  5-MIN KDBQ 110430Z AUTO 20003KT 10SM CLR 20/19 A2988  1120 93 2000 200/03 RMK AO2 TSNO
94908KDBQ DBQ20050610223510506/10/05 22:35:31  5-MIN KDBQ 110435Z AUTO 20006KT 10SM CLR 20/19 A2987  1120 93 2000 200/06 RMK AO2 TSNO
94908KDBQ DBQ20050610224010506/10/05 22:40:31  5-MIN KDBQ 110440Z AUTO 20005KT 10SM CLR 20/19 A2988  1120 93 2000 200/05 RMK AO2 TSNO
94908KDBQ DBQ20050610224510506/10/05 22:45:31  5-MIN KDBQ 110445Z AUTO 21005KT 10SM CLR 20/19 A2986  1130 93 2000 200/05 RMK AO2 TSNO
94908KDBQ DBQ20050610225012206/10/05 22:50:31  5-MIN KDBQ 110450Z AUTO 21006KT 10SM CLR 20/19 A2987  1120 93 2000 210/06 RMK AO2 SLP108 T02000189 TSNO
94908KDBQ DBQ20050610225512206/10/05 22:55:31  5-MIN KDBQ 110455Z AUTO 20005KT 10SM CLR 20/19 A2986  1130 93 2000 200/05 RMK AO2 SLP105 T02000189 TSNO
94908KDBQ DBQ20050610230010506/10/05 23:00:31  5-MIN KDBQ 110500Z AUTO 21005KT 10SM CLR 20/19 A2987  1130 93 2000 200/05 RMK AO2 TSNO
94908KDBQ DBQ20050610230510506/10/05 23:05:31  5-MIN KDBQ 110505Z AUTO 21005KT 10SM CLR 20/19 A2986  1140 93 2000 210/05 RMK AO2 TSNO
94908KDBQ DBQ20050610231010506/10/05 23:10:31  5-MIN KDBQ 110510Z AUTO 20005KT 10SM CLR 20/18 A2987  1130 90 2000 200/05 RMK AO2 TSNO
94908KDBQ DBQ20050610231510506/10/05 23:15:31  5-MIN KDBQ 110515Z AUTO 22005KT 10SM CLR 19/18 A2985  1140 93 2000 220/05 RMK AO2 TSNO
94908KDBQ DBQ20050610232010506/10/05 23:20:31  5-MIN KDBQ 110520Z AUTO 23005KT 10SM CLR 19/18 A2986  1140 93 2000 230/05 RMK AO2 TSNO
94908KDBQ DBQ20050610232510506/10/05 23:25:31  5-MIN KDBQ 110525Z AUTO 23004KT 10SM CLR 19/18 A2985  1150 93 2000 230/04 RMK AO2 TSNO
94908KDBQ DBQ20050610233010506/10/05 23:30:31  5-MIN KDBQ 110530Z AUTO 22005KT 10SM CLR 19/18 A2985  1140 93 2000 220/05 RMK AO2 TSNO
94908KDBQ DBQ20050610233510506/10/05 23:35:31  5-MIN KDBQ 110535Z AUTO 21005KT 10SM CLR 19/18 A2985  1150 93 2000 200/05 RMK AO2 TSNO
94908KDBQ DBQ20050610234010506/10/05 23:40:31  5-MIN KDBQ 110540Z AUTO 20005KT 10SM CLR 19/18 A2986  1140 93 2000 200/05 RMK AO2 TSNO
94908KDBQ DBQ20050610234510506/10/05 23:45:31  5-MIN KDBQ 110545Z AUTO 21005KT 10SM CLR 19/18 A2985  1150 93 2000 210/05 RMK AO2 TSNO
94908KDBQ DBQ20050610235015706/10/05 23:50:31  5-MIN KDBQ 110550Z AUTO 21005KT 10SM CLR 19/18 A2986  1140 93 2000 200/05 RMK AO2 SLP103 60013 T01940183 10278 20194 403060194  53017 TSNO
94908KDBQ DBQ20050610235515706/10/05 23:55:31  5-MIN KDBQ 110555Z AUTO 19005KT 10SM CLR 19/18 A2985  1150 90 2000 190/05 RMK AO2 SLP100 60013 T01940178 10278 20194 403060194  57012 TSNO
94908KDBQ DBQ20050611000010706/11/05 00:00:38  5-MIN KDBQ 110600Z AUTO 17005KT 10SM FEW095 19/18 A2986 1140 90 2000 170/05 RMK AO2 TSNO
94908KDBQ DBQ20050611000511406/11/05 00:05:31  5-MIN KDBQ 110605Z AUTO 17005KT 10SM SCT090 SCT120 19/18 A2985 1150 93 2000 170/05 RMK AO2 TSNO
94908KDBQ DBQ20050611001011406/11/05 00:10:31  5-MIN KDBQ 110610Z AUTO 17007KT 10SM SCT095 SCT120 19/18 A2986 1140 93 2000 170/07 RMK AO2 TSNO
94908KDBQ DBQ20050611001511406/11/05 00:15:31  5-MIN KDBQ 110615Z AUTO 16007KT 10SM SCT100 BKN120 19/18 A2985 1150 93 2000 160/07 RMK AO2 TSNO
94908KDBQ DBQ20050611002011406/11/05 00:20:31  5-MIN KDBQ 110620Z AUTO 16005KT 10SM BKN100 BKN120 20/18 A2986 1140 87 2000 160/05 RMK AO2 TSNO
94908KDBQ DBQ20050611002511406/11/05 00:25:31  5-MIN KDBQ 110625Z AUTO 16007KT 10SM BKN100 OVC120 20/18 A2985 1140 90 2000 150/07 RMK AO2 TSNO
94908KDBQ DBQ20050611003010706/11/05 00:30:31  5-MIN KDBQ 110630Z AUTO 16007KT 10SM OVC110 20/18 A2986 1130 87 2000 160/07 RMK AO2 TSNO
94908KDBQ DBQ20050611003510706/11/05 00:35:31  5-MIN KDBQ 110635Z AUTO 15006KT 10SM OVC110 20/18 A2985 1150 87 2000 150/06 RMK AO2 TSNO
94908KDBQ DBQ20050611004010706/11/05 00:40:31  5-MIN KDBQ 110640Z AUTO 15005KT 10SM BKN110 19/18 A2985 1140 90 2000 150/05 RMK AO2 TSNO
94908KDBQ DBQ20050611004510706/11/05 00:45:31  5-MIN KDBQ 110645Z AUTO 16005KT 10SM BKN110 20/18 A2985 1150 87 2000 160/05 RMK AO2 TSNO
94908KDBQ DBQ20050611005012406/11/05 00:50:31  5-MIN KDBQ 110650Z AUTO 17005KT 10SM SCT120 19/18 A2986 1140 90 2000 170/05 RMK AO2 SLP103 T01940178 TSNO
94908KDBQ DBQ20050611005512406/11/05 00:55:31  5-MIN KDBQ 110655Z AUTO 17006KT 10SM SCT120 19/18 A2985 1140 90 2000 170/06 RMK AO2 SLP100 T01940178 TSNO
94908KDBQ DBQ20050611010010706/11/05 01:00:31  5-MIN KDBQ 110700Z AUTO 17006KT 10SM FEW120 19/18 A2986 1140 90 2000 170/06 RMK AO2 TSNO
94908KDBQ DBQ20050611010510906/11/05 01:05:31  5-MIN KDBQ 110705Z AUTO 18006KT 10SM  20/W045 19/18 A2985 1140 90 2000 180/06 RMK AO2 TSNO
94908KDBQ DBQ20050611011010706/11/05 01:10:31  5-MIN KDBQ 110710Z AUTO 19006KT 10SM SCT045 19/18 A2986 1130 90 2000 190/06 RMK AO2 TSNO
94908KDBQ DBQ20050611011510706/11/05 01:15:31  5-MIN KDBQ 110715Z AUTO 19008KT 10SM BKN043 19/18 A2986 1130 93 2000 190/08 RMK AO2 TSNO
94908KDBQ DBQ20050611012011406/11/05 01:20:31  5-MIN KDBQ 110720Z AUTO 19007KT 10SM BKN043 BKN060 19/18 A2987 1130 93 1900 180/07 RMK AO2 TSNO
94908KDBQ DBQ20050611012511406/11/05 01:25:31  5-MIN KDBQ 110725Z AUTO 18009KT 10SM BKN045 BKN060 19/18 A2986 1130 90 2000 180/09 RMK AO2 TSNO
94908KDBQ DBQ20050611013010706/11/05 01:30:31  5-MIN KDBQ 110730Z AUTO 19006KT 10SM BKN045 19/18 A2986 1130 90 2000 180/06 RMK AO2 TSNO
94908KDBQ DBQ20050611013511406/11/05 01:35:31  5-MIN KDBQ 110735Z AUTO 18008KT 10SM SCT045 BKN120 19/18 A2987 1130 90 1900 180/08 RMK AO2 TSNO
94908KDBQ DBQ20050611014011406/11/05 01:40:31  5-MIN KDBQ 110740Z AUTO 18008KT 10SM SCT043 BKN110 19/18 A2987 1130 90 1900 180/08 RMK AO2 TSNO
94908KDBQ DBQ20050611014511406/11/05 01:45:31  5-MIN KDBQ 110745Z AUTO 19009KT 10SM FEW045 BKN110 19/18 A2987 1130 90 1900 180/09 RMK AO2 TSNO
94908KDBQ DBQ20050611015013306/11/05 01:50:31  5-MIN KDBQ 110750Z AUTO 19007KT 10SM  20/W045 BKN110 21/18 A2987 1130 84 2100 190/07 RMK AO2 SLP106 T02060178 TSNO
94908KDBQ DBQ20050611015512406/11/05 01:55:31  5-MIN KDBQ 110755Z AUTO 18007KT 10SM BKN120 19/18 A2987 1130 90 1900 180/07 RMK AO2 SLP105 T019408 T TSNO
94908KDBQ DBQ20050611020010706/11/05 02:00:31  5-MIN KDBQ 110800Z AUTO 18009KT 10SM OVC120 19/18 A2987 1130 90 1900 180/09 RMK AO2 TSNO
94908KDBQ DBQ20050611020510706/11/05 02:05:31  5-MIN KDBQ 11080007K09KT 10SM BKN119/18 A29879/18 A2987 1130 90 1900 180/09 RMK AO2 TSNO
94908KDBQ DBQ20050611021006606/11/05 02:10:31  5-MIN KDBQ 110810Z AUTO 18009N12120 19/18 A2986
94908KDBQ DBQ20050611022010006/11/05 02:20:31  5-MIN KDBQ 110820120 19/18T 10SM SCT6  1130 90 201140 90 2000 180/09 RMK AO2 TSNO
94908KDBQ DBQ20050611023007506/11/05 02:30:31  5-MIN KDBQ 110830KT 10SM FEW1KT 9SM CLR 19/18 A2986 1130
94908KDBQ DBQ20050611043511006/11/05 04:35:31  5-MIN KDBQ 111035Z AUTO 15006KT 5SM BR FEW041 19/18  A2984 1150 93 1900 150/06 RMK AO2 TSNO
94908KDBQ DBQ20050611044011006/11/05 04:40:31  5-MIN KDBQ 111040Z AUTO 15007KT 5SM BR FEW041 19/18  A2984 1150 93 1900 150/07 RMK AO2 TSNO
94908KDBQ DBQ20050611044511006/11/05 04:45:31  5-MIN KDBQ 111045Z AUTO 15007KT 6SM BR FEW041 19/18  A2984 1150 93 1900 150/07 RMK AO2 TSNO
94908KDBQ DBQ20050611045011406/11/05 04:50:31  5-MIN KDBQ 111050Z 16007KT 6SM BR CLR 19/18 A2985 1140  93 1900 160/07 RMK AO2 SLP100 T01890178
94908KDBQ DBQ20050611045511406/11/05 04:55:31  5-MIN KDBQ 111055Z 15007KT 6SM BR CLR 19/18 A2985 1150  93 1900 150/07 RMK AO2 SLP100 T01890178
94908KDBQ DBQ20050611050009706/11/05 05:00:31  5-MIN KDBQ 111100Z 15007KT 6SM BR CLR 19/18 A2984 1150  93 1900 150/07 RMK AO2
94908KDBQ DBQ20050611050509406/11/05 05:05:31  5-MIN KDBQ 111105Z 15007KT 7SM CLR 19/18 A2985 1150 93  1900 150/07 RMK AO2
94908KDBQ DBQ20050611051009406/11/05 05:10:31  5-MIN KDBQ 111110Z 15008KT 7SM CLR 19/18 A2985 1150 93  1900 150/08 RMK AO2
94908KDBQ DBQ20050611051509406/11/05 05:15:31  5-MIN KDBQ 111115Z 16006KT 7SM CLR 19/18 A2985 1150 93  1900 160/06 RMK AO2
94908KDBQ DBQ20050611052009406/11/05 05:20:31  5-MIN KDBQ 111120Z 17009KT 7SM CLR 19/18 A2985 1140 90  2000 170/09 RMK AO2
94908KDBQ DBQ20050611052509406/11/05 05:25:31  5-MIN KDBQ 111125Z 17010KT 7SM CLR 19/18 A2986 1140 90  2000 170/10 RMK AO2
94908KDBQ DBQ20050611053009706/11/05 05:30:31  5-MIN KDBQ 111130Z 17010KT 6SM BR CLR 19/18 A2986 1140  90 2000 170/10 RMK AO2
94908KDBQ DBQ20050611053510006/11/05 05:35:31  5-MIN KDBQ 111135Z 17010KT 6SM BR FEW027 19/18 A2986  1140 93 2000 170/10 RMK AO2
94908KDBQ DBQ20050611054009706/11/05 05:40:31  5-MIN KDBQ 111140Z 18009KT 7SM SCT029 19/18 A2986 1140  93 2000 170/09 RMK AO2
94908KDBQ DBQ20050611054509706/11/05 05:45:31  5-MIN KDBQ 111145Z 18009KT 7SM FEW029 19/18 A2986 1140  93 2000 180/09 RMK AO2
94908KDBQ DBQ20050611055013806/11/05 05:50:31  5-MIN KDBQ 111150Z 18008KT 7SM FEW029 19/18 A2986 1140  93 2000 180/08 RMK AO2 SLP104 70013 T01940183 10206 20189 51006
94908KDBQ DBQ20050611055513806/11/05 05:55:31  5-MIN KDBQ 111155Z 18010KT 7SM FEW029 19/18 A2986 1130  93 2000 180/10 RMK AO2 SLP105 70013 T01940183 10206 20189 55002
94908KDBQ DBQ20050611060009706/11/05 06:00:31  5-MIN KDBQ 111200Z 18009KT 8SM FEW029 19/18 A2986 1140  93 2000 180/09 RMK AO2
94908KDBQ DBQ20050611060509706/11/05 06:05:31  5-MIN KDBQ 111205Z 19008KT 8SM FEW029 20/18 A2986 1140  90 2000 190/08 RMK AO2
94908KDBQ DBQ20050611061009406/11/05 06:10:31  5-MIN KDBQ 111210Z 18009KT 8SM CLR 20/18 A2986 1140 90  2000 180/09 RMK AO2
94908KDBQ DBQ20050611061509406/11/05 06:15:31  5-MIN KDBQ 111215Z 19009KT 8SM CLR 20/18 A2985 1140 90  2000 190/09 RMK AO2
94908KDBQ DBQ20050611062009406/11/05 06:20:31  5-MIN KDBQ 111220Z 19008KT 9SM CLR 20/18 A2985 1140 90  2000 180/08 RMK AO2
94908KDBQ DBQ20050611062509406/11/05 06:25:31  5-MIN KDBQ 111225Z 19008KT 9SM CLR 20/18 A2986 1130 90  2000 190/08 RMK AO2
94908KDBQ DBQ20050611063009406/11/05 06:30:31  5-MIN KDBQ 111230Z 19009KT 9SM CLR 20/18 A2986 1130 90  2000 190/09 RMK AO2
94908KDBQ DBQ20050611063509406/11/05 06:35:31  5-MIN KDBQ 111235Z 19010KT 10SM CLR 21/18 A2987 1130 87 2100 190/10 RMK AO2
94908KDBQ DBQ20050611064009406/11/05 06:40:31  5-MIN KDBQ 111240Z 18009KT 10SM CLR 21/18 A2987 1120 87 2100 180/09 RMK AO2
94908KDBQ DBQ20050611064509706/11/05 06:45:31  5-MIN KDBQ 111245Z 19008KT 10SM FEW120 21/19 A2987 1120 87 2100 190/08 RMK AO2
94908KDBQ DBQ20050611065012206/11/05 06:50:31  5-MIN KDBQ 111250Z 19010KT 10SM FEW023 SCT120 21/19  A2987 1120 87 2100 190/10 RMK AO2 SLP110 T02110189
94908KDBQ DBQ20050611065511406/11/05 06:55:31  5-MIN KDBQ 111255Z 19008KT 10SM BKN023 21/18 A2987 1120 84 2100 190/08 RMK AO2 SLP110 T02110183
94908KDBQ DBQ20050611070009706/11/05 07:00:31  5-MIN KDBQ 111300Z 19009KT 10SM BKN023 21/18 A2987 1120 84 2100 190/09 RMK AO2
94908KDBQ DBQ20050611070509706/11/05 07:05:31  5-MIN KDBQ 111305Z 19009KT 10SM BKN023 21/18 A2988 1120 84 2100 190/09 RMK AO2
94908KDBQ DBQ20050611071009706/11/05 07:10:31  5-MIN KDBQ 111310Z 19009KT 10SM BKN023 21/18 A2988 1120 84 2100 190/09 RMK AO2
94908KDBQ DBQ20050611071509706/11/05 07:15:31  5-MIN KDBQ 111315Z 18009KT 10SM OVC023 21/18 A2988 1120 84 2100 170/09 RMK AO2
94908KDBQ DBQ20050611072009706/11/05 07:20:31  5-MIN KDBQ 111320Z 17010KT 10SM OVC023 21/18 A2988 1120 84 2100 170/10 RMK AO2
94908KDBQ DBQ20050611072510506/11/05 07:25:31  5-MIN KDBQ 111325Z 19010KT 10SM BKN023 OVC110 21/18  A2987 1120 84 2100 190/10 RMK AO2
94908KDBQ DBQ20050611073010506/11/05 07:30:31  5-MIN KDBQ 111330Z 19010KT 10SM BKN021 BKN110 22/19  A2987 1120 84 2200 190/10 RMK AO2
94908KDBQ DBQ20050611073510506/11/05 07:35:31  5-MIN KDBQ 111335Z 18010KT 10SM SCT021 BKN110 22/19  A2987 1120 81 2300 180/10 RMK AO2
94908KDBQ DBQ20050611074010506/11/05 07:40:31  5-MIN KDBQ 111340Z 19011KT 10SM SCT021 BKN110 22/19  A2987 1130 84 2200 190/11 RMK AO2
94908KDBQ DBQ20050611074510506/11/05 07:45:31  5-MIN KDBQ 111345Z 18010KT 10SM FEW021 BKN110 22/19  A2987 1130 84 2200 180/10 RMK AO2
94908KDBQ DBQ20050611075011406/11/05 07:50:31  5-MIN KDBQ 111350Z 18010KT 10SM SCT110 22/19 A2987 1130 84 2200 180/10 RMK AO2 SLP109 T02170189
94908KDBQ DBQ20050611075511406/11/05 07:55:31  5-MIN KDBQ 111355Z 17009KT 10SM FEW110 22/19 A2986 1130 81 2300 170/09 RMK AO2 SLP107 T02220189
94908KDBQ DBQ20050611080009706/11/05 08:00:31  5-MIN KDBQ 111400Z 17011KT 10SM FEW110 23/19 A2986 1130 78 2300 170/11 RMK AO2
94908KDBQ DBQ20050611080509706/11/05 08:05:31  5-MIN KDBQ 111405Z 18009KT 10SM FEW110 23/19 A2986 1140 78 2300 180/09 RMK AO2
94908KDBQ DBQ20050611081009706/11/05 08:10:31  5-MIN KDBQ 111410Z 17010KT 10SM FEW110 23/19 A2985 1140 81 2300 170/10 RMK AO2
94908KDBQ DBQ20050611081509406/11/05 08:15:31  5-MIN KDBQ 111415Z 19011KT 10SM CLR 23/19 A2985 1140 78 2300 180/11 RMK AO2
94908KDBQ DBQ20050611082010006/11/05 08:20:31  5-MIN KDBQ 111420Z 18010G16KT 10SM CLR 23/19 A2985 1140 81 2300 170/10G16 RMK AO2
94908KDBQ DBQ20050611082509406/11/05 08:25:31  5-MIN KDBQ 111425Z 17009KT 10SM CLR 23/19 A2985 1140 81 2300 170/09 RMK AO2
94908KDBQ DBQ20050611083009406/11/05 08:30:31  5-MIN KDBQ 111430Z 18008KT 10SM CLR 23/19 A2985 1140 81 2300 180/08 RMK AO2
94908KDBQ DBQ20050611083509406/11/05 08:35:31  5-MIN KDBQ 111435Z 16011KT 10SM CLR 23/19 A2985 1150 81 2400 160/11 RMK AO2
94908KDBQ DBQ20050611084009406/11/05 08:40:31  5-MIN KDBQ 111440Z 16010KT 10SM CLR 23/19 A2984 1150 81 2400 160/10 RMK AO2
94908KDBQ DBQ20050611084509406/11/05 08:45:31  5-MIN KDBQ 111445Z 15009KT 10SM CLR 23/19 A2984 1150 81 2400 150/09 RMK AO2
94908KDBQ DBQ20050611085011706/11/05 08:50:31  5-MIN KDBQ 111450Z 16011KT 10SM CLR 23/19 A2984 1150 78 2400 160/11 RMK AO2 SLP098 T02330194 55002
94908KDBQ DBQ20050611085511706/11/05 08:55:31  5-MIN KDBQ 111455Z 16009KT 10SM CLR 23/19 A2983 1160 78 2400 160/09 RMK AO2 SLP096 T02330194 58009
94908KDBQ DBQ20050611090009406/11/05 09:00:31  5-MIN KDBQ 111500Z 16011KT 10SM CLR 24/20 A2983 1160 78 2500 160/11 RMK AO2
94908KDBQ DBQ20050611090509406/11/05 09:05:31  5-MIN KDBQ 111505Z 17010KT 10SM CLR 24/20 A2983 1160 78 2500 170/10 RMK AO2
94908KDBQ DBQ20050611091009406/11/05 09:10:31  5-MIN KDBQ 111510Z 16012KT 10SM CLR 24/20 A2983 1160 78 2500 160/12 RMK AO2
94908KDBQ DBQ20050611091509406/11/05 09:15:31  5-MIN KDBQ 111515Z 16010KT 10SM CLR 24/20 A2983 1160 78 2500 160/10 RMK AO2
94908KDBQ DBQ20050611092009406/11/05 09:20:31  5-MIN KDBQ 111520Z 16010KT 10SM CLR 24/20 A2983 1160 76 2600 160/10 RMK AO2
94908KDBQ DBQ20050611092509406/11/05 09:25:31  5-MIN KDBQ 111525Z 14010KT 10SM CLR 24/20 A2983 1160 76 2600 140/10 RMK AO2
94908KDBQ DBQ20050611093009406/11/05 09:30:31  5-MIN KDBQ 111530Z 15013KT 10SM CLR 25/21 A2983 1160 76 2600 150/13 RMK AO2
94908KDBQ DBQ20050611093509406/11/05 09:35:31  5-MIN KDBQ 111535Z 15012KT 10SM CLR 25/21 A2984 1160 76 2600 150/12 RMK AO2
94908KDBQ DBQ20050611094009406/11/05 09:40:31  5-MIN KDBQ 111540Z 16013KT 10SM CLR 26/21 A2984 1160 73 2700 160/13 RMK AO2
94908KDBQ DBQ20050611094509406/11/05 09:45:31  5-MIN KDBQ 111545Z 15013KT 10SM CLR 26/21 A2984 1160 76 2700 150/13 RMK AO2
94908KDBQ DBQ20050611095011106/11/05 09:50:31  5-MIN KDBQ 111550Z 16012KT 10SM CLR 26/21 A2984 1160 76 2700 160/12 RMK AO2 SLP097 T02560211
94908KDBQ DBQ20050611095511106/11/05 09:55:31  5-MIN KDBQ 111555Z 16012KT 10SM CLR 26/21 A2984 1160 73 2700 160/12 RMK AO2 SLP096 T02610211
94908KDBQ DBQ20050611100009406/11/05 10:00:31  5-MIN KDBQ 111600Z 16012KT 10SM CLR 27/21 A2984 1150 71 2800 160/12 RMK AO2
94908KDBQ DBQ20050611100509406/11/05 10:05:31  5-MIN KDBQ 111605Z 15010KT 10SM CLR 27/22 A2984 1150 73 2800 150/10 RMK AO2
94908KDBQ DBQ20050611101009406/11/05 10:10:31  5-MIN KDBQ 111610Z 16012KT 10SM CLR 27/21 A2984 1150 71 2800 160/12 RMK AO2
94908KDBQ DBQ20050611101509406/11/05 10:15:31  5-MIN KDBQ 111615Z 16014KT 10SM CLR 27/21 A2984 1150 71 2800 160/14 RMK AO2
94908KDBQ DBQ20050611102010006/11/05 10:20:31  5-MIN KDBQ 111620Z 16015G19KT 10SM CLR 27/21 A2984 1150 71 2800 150/15G19 RMK AO2
94908KDBQ DBQ20050611102510006/11/05 10:25:31  5-MIN KDBQ 111625Z 18014G19KT 10SM CLR 27/21 A2984 1150 69 2900 180/14G19 RMK AO2
94908KDBQ DBQ20050611103009706/11/05 10:30:31  5-MIN KDBQ 111630Z 17014KT 10SM FEW023 27/21 A2984 1150 69 2900 170/14 RMK AO2
94908KDBQ DBQ20050611103509706/11/05 10:35:31  5-MIN KDBQ 111635Z 16013KT 10SM FEW023 27/21 A2984 1160 69 2900 160/13 RMK AO2
94908KDBQ DBQ20050611104009706/11/05 10:40:31  5-MIN KDBQ 111640Z 16014KT 10SM SCT023 27/22 A2984 1150 71 2900 150/14 RMK AO2
94908KDBQ DBQ20050611104509706/11/05 10:45:31  5-MIN KDBQ 111645Z 16014KT 10SM FEW023 28/21 A2983 1160 66 2900 160/14 RMK AO2
94908KDBQ DBQ20050611105011406/11/05 10:50:31  5-MIN KDBQ 111650Z 17015KT 10SM FEW025 28/22 A2984 1160 69 2900 160/15 RMK AO2 SLP096 T02780217
94908KDBQ DBQ20050611105512106/11/05 10:55:31  5-MIN KDBQ 111655Z 16014G19KT 10SM SCT025 27/22 A2983  1160 71 2900 160/14G19 RMK AO2 SLP095 T02720217
94908KDBQ DBQ20050611110009706/11/05 11:00:31  5-MIN KDBQ 111700Z 16016KT 10SM SCT025 28/22 A2984 1160 69 2900 160/16 RMK AO2
94908KDBQ DBQ20050611110509706/11/05 11:05:31  5-MIN KDBQ 111705Z 17017KT 10SM FEW025 28/21 A2984 1160 66 2900 160/17 RMK AO2
94908KDBQ DBQ20050611111010406/11/05 11:10:31  5-MIN KDBQ 111710Z 17018G21KT 10SM FEW025 28/22 A2983  1160 69 2900 170/18G21 RMK AO2
94908KDBQ DBQ20050611111511106/11/05 11:15:31  5-MIN KDBQ 111715Z 16016G21KT 10SM FEW027 SCT032 28/21  A2984 1160 64 3000 160/16G21 RMK AO2
94908KDBQ DBQ20050611112011106/11/05 11:20:31  5-MIN KDBQ 111720Z 15017G21KT 10SM SCT027 SCT033 28/22  A2984 1160 66 3000 150/17G21 RMK AO2
94908KDBQ DBQ20050611112510406/11/05 11:25:31  5-MIN KDBQ 111725Z 16017G24KT 10SM SCT030 28/21 A2983  1160 64 3000 160/17G24 RMK AO2
94908KDBQ DBQ20050611113010406/11/05 11:30:31  5-MIN KDBQ 111730Z 16017G24KT 10SM SCT030 28/22 A2983  1160 69 2900 160/17G24 RMK AO2
94908KDBQ DBQ20050611113510406/11/05 11:35:31  5-MIN KDBQ 111735Z 17017G22KT 10SM SCT030 28/22 A2983  1160 66 3000 160/17G22 RMK AO2
94908KDBQ DBQ20050611114011106/11/05 11:40:31  5-MIN KDBQ 111740Z 15018G24KT 10SM FEW027 SCT032 28/22  A2983 1160 66 3000 150/18G24 RMK AO2
94908KDBQ DBQ20050611114510406/11/05 11:45:31  5-MIN KDBQ 111745Z 15017G24KT 10SM FEW028 28/22 A2983  1160 66 3000 150/17G24 RMK AO2
94908KDBQ DBQ20050611115013906/11/05 11:50:31  5-MIN KDBQ 111750Z 15016G21KT 10SM FEW026 28/22 A2983  1160 69 2900 150/16G21 RMK AO2 SLP095 T02780217 10283 20194 58009
94908KDBQ DBQ20050611115513206/11/05 11:55:31  5-MIN KDBQ 111755Z 15017KT 10SM FEW026 28/22 A2983 1160 69 3000 150/17 RMK AO2 SLP094 T02830222 10283 20194 58001
94908KDBQ DBQ20050611120010006/11/05 12:00:31  5-MIN KDBQ 111800Z 15017G21KT 10SM CLR 28/22 A2983 1160 66 3000 150/17G21 RMK AO2
94908KDBQ DBQ20050611120510006/11/05 12:05:31  5-MIN KDBQ 111805Z 16018G22KT 10SM CLR 28/22 A2983 1160 66 3000 160/18G22 RMK AO2
94908KDBQ DBQ20050611121010006/11/05 12:10:31  5-MIN KDBQ 111810Z 17017G22KT 10SM CLR 29/22 A2983 1160 64 3100 170/17G22 RMK AO2
94908KDBQ DBQ20050611121510006/11/05 12:15:31  5-MIN KDBQ 111815Z 16018G23KT 10SM CLR 28/22 A2983 1160 66 3000 160/18G23 RMK AO2
94908KDBQ DBQ20050611122010006/11/05 12:20:31  5-MIN KDBQ 111820Z 17018G23KT 10SM CLR 28/22 A2983 1160 66 3000 160/18G23 RMK AO2
94908KDBQ DBQ20050611122510006/11/05 12:25:31  5-MIN KDBQ 111825Z 17017G23KT 10SM CLR 28/22 A2983 1160 66 3000 170/17G23 RMK AO2
94908KDBQ DBQ20050611123010006/11/05 12:30:31  5-MIN KDBQ 111830Z 17017G23KT 10SM CLR 29/22 A2983 1170 64 3100 170/17G23 RMK AO2
94908KDBQ DBQ20050611123510006/11/05 12:35:31  5-MIN KDBQ 111835Z 16018G24KT 10SM CLR 29/22 A2983 1170 64 3100 160/18G24 RMK AO2
94908KDBQ DBQ20050611124010006/11/05 12:40:31  5-MIN KDBQ 111840Z 17019G24KT 10SM CLR 29/22 A2983 1170 67 3100 170/19G24 RMK AO2
94908KDBQ DBQ20050611124510406/11/05 12:45:31  5-MIN KDBQ 111845Z 18017G22KT 10SM FEW028 29/22 A2982  1170 64 3100 180/17G22 RMK AO2
94908KDBQ DBQ20050611125013906/11/05 12:50:31  5-MIN KDBQ 111850Z 18017G26KT 10SM FEW028 29/22 A2982  1170 64 3100 180/17G26 RMK AO2 PK WND 17026/1846 SLP090 T02890217
94908KDBQ DBQ20050611125513506/11/05 12:55:31  5-MIN KDBQ 111855Z 17018G26KT 10SM CLR 29/21 A2982 1170 62 3100 170/18G26 RMK AO2 PK WND 17026/1846 SLP091 T02890211
94908KDBQ DBQ20050611130010006/11/05 13:00:31  5-MIN KDBQ 111900Z 19018G23KT 10SM CLR 29/21 A2982 1170 62 3100 190/18G23 RMK AO2
94908KDBQ DBQ20050611130510006/11/05 13:05:31  5-MIN KDBQ 111905Z 20019G23KT 10SM CLR 29/21 A2982 1170 60 3100 200/19G23 RMK AO2
94908KDBQ DBQ20050611131010006/11/05 13:10:31  5-MIN KDBQ 111910Z 19019G23KT 10SM CLR 29/21 A2982 1170 60 3100 190/19G23 RMK AO2
94908KDBQ DBQ20050611131510406/11/05 13:15:31  5-MIN KDBQ 111915Z 20019G25KT 10SM FEW038 29/20 A2981  1180 58 3100 200/19G25 RMK AO2
94908KDBQ DBQ20050611132010406/11/05 13:20:31  5-MIN KDBQ 111920Z 19017G25KT 10SM FEW038 29/20 A2981  1180 56 3100 190/17G25 RMK AO2
94908KDBQ DBQ20050611132510406/11/05 13:25:31  5-MIN KDBQ 111925Z 19020G23KT 10SM FEW040 29/19 A2981  1180 54 3100 190/20G23 RMK AO2
94908KDBQ DBQ20050611133009706/11/05 13:30:31  5-MIN KDBQ 111930Z 20019KT 10SM FEW040 29/20 A2980 1190 58 3100 200/19 RMK AO2
94908KDBQ DBQ20050611133509706/11/05 13:35:31  5-MIN KDBQ 111935Z 19017KT 10SM FEW040 29/20 A2980 1190 58 3100 190/17 RMK AO2
94908KDBQ DBQ20050611134009706/11/05 13:40:31  5-MIN KDBQ 111940Z 21020KT 10SM FEW040 29/20 A2980 1190 56 3100 200/20 RMK AO2
94908KDBQ DBQ20050611134510406/11/05 13:45:31  5-MIN KDBQ 111945Z 20019G24KT 10SM FEW042 29/20 A2980  1190 58 3100 190/19G24 RMK AO2
94908KDBQ DBQ20050611135012106/11/05 13:50:31  5-MIN KDBQ 111950Z 21016G24KT 10SM FEW042 29/19 A2980  1190 54 3200 210/16G24 RMK AO2 SLP082 T02940194
94908KDBQ DBQ20050611135511106/11/05 13:55:31  5-MIN KDBQ 111955Z 20019KT 10SM CLR 29/20 A2980 1190 56 3200 190/19 RMK AO2 SLP082 T02940200
94908KDBQ DBQ20050611140010006/11/05 14:00:31  5-MIN KDBQ 112000Z 20017G22KT 10SM CLR 29/20 A2979 1200 56 3200 200/17G22 RMK AO2
94908KDBQ DBQ20050611140509406/11/05 14:05:31  5-MIN KDBQ 112005Z 20018KT 10SM CLR 29/20 A2979 1200 56 3200 200/18 RMK AO2
94908KDBQ DBQ20050611141010006/11/05 14:10:31  5-MIN KDBQ 112010Z 19014G21KT 10SM CLR 29/20 A2979 1200 56 3200 190/14G21 RMK AO2
94908KDBQ DBQ20050611141509406/11/05 14:15:31  5-MIN KDBQ 112015Z 20014KT 10SM CLR 29/21 A2979 1200 58 3200 200/14 RMK AO2
94908KDBQ DBQ20050611142009406/11/05 14:20:31  5-MIN KDBQ 112020Z 20015KT 10SM CLR 29/20 A2979 1200 56 3200 200/15 RMK AO2
94908KDBQ DBQ20050611142509406/11/05 14:25:31  5-MIN KDBQ 112025Z 19014KT 10SM CLR 29/20 A2979 1200 56 3200 190/14 RMK AO2
94908KDBQ DBQ20050611143009406/11/05 14:30:31  5-MIN KDBQ 112030Z 21016KT 10SM CLR 29/20 A2979 1200 56 3200 210/16 RMK AO2
94908KDBQ DBQ20050611143509406/11/05 14:35:31  5-MIN KDBQ 112035Z 20017KT 10SM CLR 29/19 A2979 1200 54 3200 200/17 RMK AO2
94908KDBQ DBQ20050611144009706/11/05 14:40:31  5-MIN KDBQ 112040Z 19017KT 10SM FEW043 29/19 A2979 1200 56 3100 190/17 RMK AO2
94908KDBQ DBQ20050611144509706/11/05 14:45:31  5-MIN KDBQ 112045Z 19017KT 10SM FEW043 29/19 A2979 1200 54 3200 190/17 RMK AO2
94908KDBQ DBQ20050611145011706/11/05 14:50:31  5-MIN KDBQ 112050Z 20016KT 10SM CLR 29/19 A2979 1200 54 3200 200/16 RMK AO2 SLP080 T02940194 58001
94908KDBQ DBQ20050611145511706/11/05 14:55:31  5-MIN KDBQ 112055Z 20014KT 10SM CLR 29/19 A2979 1200 54 3200 200/14 RMK AO2 SLP078 T02940194 58014
94908KDBQ DBQ20050611150009706/11/05 15:00:31  5-MIN KDBQ 112100Z 21013KT 10SM FEW045 29/19 A2979 1200 54 3200 200/13 RMK AO2
94908KDBQ DBQ20050611150509706/11/05 15:05:31  5-MIN KDBQ 112105Z 21016KT 10SM FEW045 29/19 A2979 1200 54 3200 210/16 RMK AO2
94908KDBQ DBQ20050611151009706/11/05 15:10:31  5-MIN KDBQ 112110Z 21015KT 10SM FEW047 29/19 A2978 1200 52 3200 200/15 RMK AO2
94908KDBQ DBQ20050611151509706/11/05 15:15:31  5-MIN KDBQ 112115Z 20016KT 10SM FEW047 29/20 A2977 1210 56 3200 200/16 RMK AO2
94908KDBQ DBQ20050611152009706/11/05 15:20:31  5-MIN KDBQ 112120Z 19017KT 10SM FEW047 29/19 A2978 1210 54 3200 190/17 RMK AO2
94908KDBQ DBQ20050611152509706/11/05 15:25:31  5-MIN KDBQ 112125Z 20017KT 10SM FEW047 29/19 A2978 1200 52 3200 200/17 RMK AO2
94908KDBQ DBQ20050611153009706/11/05 15:30:31  5-MIN KDBQ 112130Z 21016KT 10SM FEW047 29/19 A2979 1200 54 3200 210/16 RMK AO2
94908KDBQ DBQ20050611153509706/11/05 15:35:31  5-MIN KDBQ 112135Z 21015KT 10SM SCT047 29/19 A2979 1200 54 3200 210/15 RMK AO2
94908KDBQ DBQ20050611154009706/11/05 15:40:31  5-MIN KDBQ 112140Z 19015KT 10SM SCT047 29/19 A2979 1200 54 3200 190/15 RMK AO2
94908KDBQ DBQ20050611154510506/11/05 15:45:31  5-MIN KDBQ 112145Z 18015KT 10SM FEW047 SCT060 29/19  A2979 1200 54 3200 180/15 RMK AO2
94908KDBQ DBQ20050611155012806/11/05 15:50:31  5-MIN KDBQ 112150Z 19015G20KT 10SM FEW047 SCT060 29/19  A2978 1200 54 3200 190/15G20 RMK AO2 SLP078 T02940194
94908KDBQ DBQ20050611155512106/11/05 15:55:31  5-MIN KDBQ 112155Z 20015G20KT 10SM FEW047 29/19 A2978  1210 54 3200 200/15G20 RMK AO2 SLP077 T02940194
94908KDBQ DBQ20050611160010506/11/05 16:00:31  5-MIN KDBQ 112200Z 21014KT 10SM FEW047 SCT055 29/19  A2978 1210 54 3200 210/14 RMK AO2
94908KDBQ DBQ20050611160510506/11/05 16:05:31  5-MIN KDBQ 112205Z 20013KT 10SM FEW045 SCT055 29/19  A2978 1210 54 3200 200/13 RMK AO2
94908KDBQ DBQ20050611161009706/11/05 16:10:31  5-MIN KDBQ 112210Z 19014KT 10SM FEW048 29/19 A2978 1210 52 3200 190/14 RMK AO2
94908KDBQ DBQ20050611161509706/11/05 16:15:31  5-MIN KDBQ 112215Z 19015KT 10SM FEW047 29/19 A2977 1210 54 3200 180/15 RMK AO2
94908KDBQ DBQ20050611162009406/11/05 16:20:31  5-MIN KDBQ 112220Z 19014KT 10SM CLR 29/19 A2977 1220 54 3100 190/14 RMK AO2
94908KDBQ DBQ20050611162509406/11/05 16:25:31  5-MIN KDBQ 112225Z 18015KT 10SM CLR 29/19 A2977 1220 54 3100 180/15 RMK AO2
94908KDBQ DBQ20050611163009406/11/05 16:30:31  5-MIN KDBQ 112230Z 19016KT 10SM CLR 29/18 A2977 1220 50 3200 190/16 RMK AO2
94908KDBQ DBQ20050611163509406/11/05 16:35:31  5-MIN KDBQ 112235Z 20016KT 10SM CLR 29/19 A2977 1220 52 3200 200/16 RMK AO2
94908KDBQ DBQ20050611164009406/11/05 16:40:31  5-MIN KDBQ 112240Z 20014KT 10SM CLR 29/18 A2976 1220 52 3100 200/14 RMK AO2
94908KDBQ DBQ20050611164509406/11/05 16:45:31  5-MIN KDBQ 112245Z 21015KT 10SM CLR 29/19 A2976 1230 54 3100 210/15 RMK AO2
94908KDBQ DBQ20050611165011106/11/05 16:50:31  5-MIN KDBQ 112250Z 21013KT 10SM CLR 29/19 A2977 1220 54 3100 210/13 RMK AO2 SLP073 T02890189
94908KDBQ DBQ20050611165511106/11/05 16:55:31  5-MIN KDBQ 112255Z 20014KT 10SM CLR 29/19 A2977 1220 54 3100 200/14 RMK AO2 SLP073 T02890189
94908KDBQ DBQ20050611170009406/11/05 17:00:31  5-MIN KDBQ 112300Z 20014KT 10SM CLR 29/19 A2977 1220 54 3100 200/14 RMK AO2
94908KDBQ DBQ20050611170509406/11/05 17:05:31  5-MIN KDBQ 112305Z 22012KT 10SM CLR 29/19 A2977 1220 56 3100 220/12 RMK AO2
94908KDBQ DBQ20050611171009406/11/05 17:10:31  5-MIN KDBQ 112310Z 21011KT 10SM CLR 29/19 A2976 1220 54 3100 210/11 RMK AO2
94908KDBQ DBQ20050611171510006/11/05 17:15:31  5-MIN KDBQ 112315Z 21013G18KT 10SM CLR 28/19 A2976 1220 56 3100 210/13G18 RMK AO2
94908KDBQ DBQ20050611172010006/11/05 17:20:31  5-MIN KDBQ 112320Z 21012G18KT 10SM CLR 28/19 A2976 1220 58 3100 210/12G18 RMK AO2
94908KDBQ DBQ20050611172509406/11/05 17:25:31  5-MIN KDBQ 112325Z 21014KT 10SM CLR 28/19 A2976 1220 58 3100 200/14 RMK AO2
94908KDBQ DBQ20050611173009406/11/05 17:30:31  5-MIN KDBQ 112330Z 21013KT 10SM CLR 28/19 A2976 1220 60 3000 200/13 RMK AO2
94908KDBQ DBQ20050611173509406/11/05 17:35:31  5-MIN KDBQ 112335Z 21012KT 10SM CLR 27/19 A2976 1230 62 2900 210/12 RMK AO2
94908KDBQ DBQ20050611174009406/11/05 17:40:31  5-MIN KDBQ 112340Z 21012KT 10SM CLR 27/19 A2976 1220 62 2900 210/12 RMK AO2
94908KDBQ DBQ20050611174509406/11/05 17:45:31  5-MIN KDBQ 112345Z 21011KT 10SM CLR 27/19 A2976 1230 62 2900 210/11 RMK AO2
94908KDBQ DBQ20050611175013206/11/05 17:50:31  5-MIN KDBQ 112350Z 21010KT 10SM FEW100 27/19 A2977 1220 62 2900 210/10 RMK AO2 SLP073 T02720194 10294 20272 58014
94908KDBQ DBQ20050611175514206/11/05 17:55:31  5-MIN KDBQ 112355Z AUTO 21009KT 10SM FEW100 28/19 A2977 1220 60 3000 210/09 RMK AO2 SLP074 T02780194 10294 20272 55006 TSNO
94908KDBQ DBQ20050611180010706/11/05 18:00:31  5-MIN KDBQ 120000Z AUTO 22009KT 10SM FEW100 27/20 A2977 1220 64 2900 210/09 RMK AO2 TSNO
94908KDBQ DBQ20050611180510706/11/05 18:05:31  5-MIN KDBQ 120005Z AUTO 22009KT 10SM FEW085 27/20 A2977 1220 64 2900 220/09 RMK AO2 TSNO
94908KDBQ DBQ20050611181013806/11/05 18:10:31  5-MIN KDBQ 120010Z AUTO 23010KT 10SM -RA FEW055 SCT085  SCT100 27/20 A2977 1220 66 2900 230/10 RMK AO2 RAB09 P0000 TSNO
94908KDBQ DBQ20050611181514206/11/05 18:15:31  5-MIN KDBQ 120015Z AUTO 22019G22KT 6SM -RA FEW039 SCT055 BKN085 26/21 A2978 1210 76 2700 220/19G22 RMK AO2 RAB09 P0000 TSNO
94908KDBQ DBQ20050611182014206/11/05 18:20:31  5-MIN KDBQ 120020Z AUTO 22013G22KT 5SM -RA SCT029 BKN060 BKN085 24/21 A2978 1210 84 2600 220/13G22 RMK AO2 RAB09 P0001 TSNO
94908KDBQ DBQ20050611182514206/11/05 18:25:31  5-MIN KDBQ 120025Z AUTO 21014G22KT 6SM -RA SCT021 BKN055 BKN070 24/21 A2978 1210 84 2500 210/14G22 RMK AO2 RAB09 P0002 TSNO
94908KDBQ DBQ20050611183013206/11/05 18:30:31  5-MIN KDBQ 120030Z 20018G23KT 5SM RA BKN023 BKN055  BKN085 24/21 A2978 1210 84 2500 200/18G23 RMK AO2 RAB09 P0002
94908KDBQ DBQ20050611183513306/11/05 18:35:31  5-MIN KDBQ 120035Z 19018G24KT 3SM +RA BKN023 BKN041  OVC070 23/21 A2979 1200 84 2500 190/18G24 RMK AO2 RAB09 P0004
94908KDBQ DBQ20050611184013206/11/05 18:40:31  5-MIN KDBQ 120040Z 16017G25KT 3SM RA BKN021 BKN041  OVC070 23/21 A2978 1210 84 2500 160/17G25 RMK AO2 RAB09 P0006
94908KDBQ DBQ20050611184514206/11/05 18:45:31  5-MIN KDBQ 120045Z AUTO 19011G25KT 5SM -RA SCT018 SCT037 BKN055 25/21 A2977 1210 76 2700 190/11G25 RMK AO2 RAB09 P0006 TSNO
94908KDBQ DBQ20050611185015506/11/05 18:50:31  5-MIN KDBQ 120050Z AUTO 20010KT 10SM SCT028 SCT050  BKN065 25/21 A2977 1220 79 2700 200/10 RMK AO2 RAB09E49 SLP072 P0006  T02500211 TSNO
94908KDBQ DBQ20050611185515506/11/05 18:55:31  5-MIN KDBQ 120055Z AUTO 18015KT 10SM SCT041 BKN050  BKN070 25/21 A2979 1200 79 2700 180/15 RMK AO2 RAB09E49 SLP079 P0006  T02500211 TSNO
94908KDBQ DBQ20050611190014606/11/05 19:00:31  5-MIN KDBQ 120100Z AUTO 19027G35KT 10SM FEW025 BKN043  BKN060 24/20 A2979 1200 78 2500 180/27G35 RMK AO2 PK WND 18035/0058 TSNO
94908KDBQ DBQ20050611190518106/11/05 19:05:31  5-MIN KDBQ 120105Z AUTO 20019G35KT 2 1/2SM RA FEW023  BKN037 BKN055 22/19 A2981 1180 84 2300 200/19G35 RMK AO2 PK WND 18035/0058 VIS 3/4V5 RAB03 PRESRR P0003 TSNO
94908KDBQ DBQ20050611191017706/11/05 19:10:31  5-MIN KDBQ 120110Z AUTO 20015G32KT 1 1/2SM +RA BR SCT022 BKN037 BKN055 22/19 A2980 1190 87 2300 190/15G32 RMK AO2 PK WND 18035/0058 VIS 3/4V4 RAB03 P0010 TSNO
94908KDBQ DBQ20050611191516006/11/05 19:15:31  5-MIN KDBQ 120115Z AUTO 20012KT 2 1/2SM -RA SCT022  BKN037 BKN050 22/19 A2980 1190 84 2300 200/12 RMK AO2 PK WND 18035/0058  RAB03 P0010 TSNO
94908KDBQ DBQ20050611192015606/11/05 19:20:31  5-MIN KDBQ 120120Z AUTO 20012KT 9SM -RA SCT022 SCT033  BKN040 21/19 A2980 1190 87 2200 200/12 RMK AO2 PK WND 18035/0058 RAB03  P0010 TSNO
94908KDBQ DBQ20050611192515606/11/05 19:25:31  5-MIN KDBQ 120125Z AUTO 19010KT 10SM FEW016 SCT033  SCT041 21/19 A2979 1200 87 2200 190/10 RMK AO2 PK WND 18035/0058 RAB03E23  P0010 TSNO
94908KDBQ DBQ20050611193014006/11/05 19:30:31  5-MIN KDBQ 120130Z AUTO 20008KT 10SM FEW016 21/19 A2979 1200 87 2200 200/08 RMK AO2 PK WND 18035/0058 RAB03E23 P0010 TSNO
94908KDBQ DBQ20050611193514006/11/05 19:35:31  5-MIN KDBQ 120135Z AUTO 21006KT 10SM FEW016 21/19 A2979 1200 87 2200 210/06 RMK AO2 PK WND 18035/0058 RAB03E23 P0010 TSNO
94908KDBQ DBQ20050611194014006/11/05 19:40:31  5-MIN KDBQ 120140Z AUTO 24008KT 10SM FEW043 21/19 A2979 1200 90 2200 230/08 RMK AO2 PK WND 18035/0058 RAB03E23 P0010 TSNO
94908KDBQ DBQ20050611194515606/11/05 19:45:31  5-MIN KDBQ 120145Z AUTO 24008KT 10SM FEW025 SCT043  SCT050 21/19 A2980 1190 90 2200 230/08 RMK AO2 PK WND 18035/0058 RAB03E23  P0010 TSNO
94908KDBQ DBQ20050611195018606/11/05 19:50:31  5-MIN KDBQ 120150Z AUTO 19007KT 2 1/2SM +RA BR SCT029  SCT039 SCT048 21/19 A2979 1200 90 2200 180/07 RMK AO2 PK WND 18035/0058  RAB03E23B48 SLP081 P0013 T02110194 TSNO
94908KDBQ DBQ20050611195518606/11/05 19:55:31  5-MIN KDBQ 120155Z AUTO 19010KT 2 1/2SM -RA BR SCT029  SCT039 BKN048 21/19 A2979 1200 90 2200 190/10 RMK AO2 PK WND 18035/0058  RAB03E23B48 SLP081 P0015 T02060189 TSNO
94908KDBQ DBQ20050611200013406/11/05 20:00:31  5-MIN KDBQ 120200Z AUTO 20008KT 10SM FEW028 SCT036  BKN090 21/19 A2979 1200 90 2200 200/08 RMK AO2 RAE00 P0000 TSNO
94908KDBQ DBQ20050611200513406/11/05 20:05:31  5-MIN KDBQ 120205Z AUTO 19007KT 10SM FEW028 SCT036  BKN048 21/19 A2979 1200 90 2200 190/07 RMK AO2 RAE00 P0000 TSNO
94908KDBQ DBQ20050611201013406/11/05 20:10:31  5-MIN KDBQ 120210Z AUTO 19009KT 10SM FEW028 BKN045  BKN055 21/19 A2979 1200 87 2200 190/09 RMK AO2 RAE00 P0000 TSNO
94908KDBQ DBQ20050611201513406/11/05 20:15:31  5-MIN KDBQ 120215Z AUTO 19009KT 10SM FEW026 SCT045  BKN090 21/19 A2979 1200 87 2200 190/09 RMK AO2 RAE00 P0000 TSNO
94908KDBQ DBQ20050611202013406/11/05 20:20:31  5-MIN KDBQ 120220Z AUTO 19008KT 10SM FEW037 SCT055  SCT090 21/19 A2979 1200 90 2200 190/08 RMK AO2 RAE00 P0000 TSNO
94908KDBQ DBQ20050611202511906/11/05 20:25:31  5-MIN KDBQ 120225Z AUTO 20009KT 10SM FEW045 21/19 A2980 1190 90 2200 190/09 RMK AO2 RAE00 P0000 TSNO
94908KDBQ DBQ20050611203011906/11/05 20:30:31  5-MIN KDBQ 120230Z AUTO 19010KT 10SM FEW045 21/19 A2980 1190 90 2200 190/10 RMK AO2 RAE00 P0000 TSNO
94908KDBQ DBQ20050611203511906/11/05 20:35:31  5-MIN KDBQ 120235Z AUTO 18011KT 10SM FEW045 22/19 A2980 1190 87 2300 180/11 RMK AO2 RAE00 P0000 TSNO
94908KDBQ DBQ20050611204011906/11/05 20:40:31  5-MIN KDBQ 120240Z AUTO 18013KT 10SM FEW047 22/20 A2981 1180 90 2300 180/13 RMK AO2 RAE00 P0000 TSNO
94908KDBQ DBQ20050611204511906/11/05 20:45:31  5-MIN KDBQ 120245Z AUTO 18010KT 10SM SCT045 22/20 A2981 1180 90 2300 180/10 RMK AO2 RAE00 P0000 TSNO
94908KDBQ DBQ20050611205015506/11/05 20:50:31  5-MIN KDBQ 120250Z AUTO 18011KT 10SM SCT045 BKN055 22/20 A2981 1180 90 2300 180/11 RMK AO2 RAE00 SLP089 P0000 60021 T02170200 55006 TSNO
94908KDBQ DBQ20050611205514806/11/05 20:55:31  5-MIN KDBQ 120255Z AUTO 18011KT 9SM BKN045 22/20 A2981  1180 90 2300 180/11 RMK AO2 RAE00 SLP090 P0000 60021 T02170200 53015 TSNO
94908KDBQ DBQ20050611210010706/11/05 21:00:31  5-MIN KDBQ 120300Z AUTO 19011KT 9SM BKN047 22/20 A2982  1180 90 2300 190/11 RMK AO2 TSNO
94908KDBQ DBQ20050611210510706/11/05 21:05:31  5-MIN KDBQ 120305Z AUTO 19010KT 9SM BKN047 22/20 A2982  1170 90 2300 190/10 RMK AO2 TSNO
94908KDBQ DBQ20050611211010706/11/05 21:10:31  5-MIN KDBQ 120310Z AUTO 19011KT 8SM SCT045 22/20 A2982  1170 90 2300 190/11 RMK AO2 TSNO
94908KDBQ DBQ20050611211510706/11/05 21:15:31  5-MIN KDBQ 120315Z AUTO 19009KT 8SM SCT047 22/21 A2982  1170 90 2300 190/09 RMK AO2 TSNO
94908KDBQ DBQ20050611212010706/11/05 21:20:31  5-MIN KDBQ 120320Z AUTO 19010KT 7SM FEW047 22/21 A2982  1170 90 2300 190/10 RMK AO2 TSNO
94908KDBQ DBQ20050611212510706/11/05 21:25:31  5-MIN KDBQ 120325Z AUTO 20011KT 7SM FEW049 22/21 A2982  1170 90 2300 190/11 RMK AO2 TSNO
94908KDBQ DBQ20050611213010706/11/05 21:30:31  5-MIN KDBQ 120330Z AUTO 20011KT 7SM FEW049 22/21 A2982  1170 93 2300 200/11 RMK AO2 TSNO
94908KDBQ DBQ20050611213511006/11/05 21:35:31  5-MIN KDBQ 120335Z AUTO 20011KT 6SM BR FEW049 22/21  A2982 1170 93 2300 200/11 RMK AO2 TSNO
94908KDBQ DBQ20050611214011006/11/05 21:40:31  5-MIN KDBQ 120340Z AUTO 20010KT 6SM BR FEW047 22/21  A2982 1170 93 2300 190/10 RMK AO2 TSNO
94908KDBQ DBQ20050611214511006/11/05 21:45:31  5-MIN KDBQ 120345Z AUTO 19010KT 6SM BR FEW047 22/21  A2983 1160 93 2300 190/10 RMK AO2 TSNO
94908KDBQ DBQ20050611215012706/11/05 21:50:31  5-MIN KDBQ 120350Z AUTO 19010KT 6SM BR SCT049 22/21  A2983 1160 93 2300 190/10 RMK AO2 SLP093 T02220211 TSNO
94908KDBQ DBQ20050611215512706/11/05 21:55:31  5-MIN KDBQ 120355Z AUTO 20009KT 6SM BR SCT049 22/21  A2983 1160 93 2300 200/09 RMK AO2 SLP092 T02220211 TSNO
94908KDBQ DBQ20050611220011006/11/05 22:00:31  5-MIN KDBQ 120400Z AUTO 19010KT 6SM BR FEW049 22/21  A2983 1160 93 2300 190/10 RMK AO2 TSNO
94908KDBQ DBQ20050611220511006/11/05 22:05:31  5-MIN KDBQ 120405Z AUTO 19010KT 5SM BR FEW049 22/21  A2983 1160 93 2300 190/10 RMK AO2 TSNO
94908KDBQ DBQ20050611221011006/11/05 22:10:31  5-MIN KDBQ 120410Z AUTO 20010KT 5SM BR FEW049 22/21  A2983 1160 93 2300 190/10 RMK AO2 TSNO
94908KDBQ DBQ20050611221511006/11/05 22:15:31  5-MIN KDBQ 120415Z AUTO 20009KT 5SM BR FEW049 22/21  A2983 1160 93 2300 200/09 RMK AO2 TSNO
94908KDBQ DBQ20050611222010706/11/05 22:20:31  5-MIN KDBQ 120420Z AUTO 20008KT 5SM BR CLR 22/21 A2983  1160 93 2300 200/08 RMK AO2 TSNO
94908KDBQ DBQ20050611222510706/11/05 22:25:31  5-MIN KDBQ 120425Z AUTO 20008KT 4SM BR CLR 22/21 A2983  1160 93 2300 200/08 RMK AO2 TSNO
94908KDBQ DBQ20050611223010706/11/05 22:30:31  5-MIN KDBQ 120430Z AUTO 20008KT 4SM BR CLR 22/21 A2983  1160 93 2300 200/08 RMK AO2 TSNO
94908KDBQ DBQ20050611223510706/11/05 22:35:31  5-MIN KDBQ 120435Z AUTO 20008KT 4SM BR CLR 22/21 A2983  1160 93 2300 200/08 RMK AO2 TSNO
94908KDBQ DBQ20050611224010706/11/05 22:40:31  5-MIN KDBQ 120440Z AUTO 20008KT 4SM BR CLR 22/21 A2983  1160 93 2300 200/08 RMK AO2 TSNO
94908KDBQ DBQ20050611224510706/11/05 22:45:31  5-MIN KDBQ 120445Z AUTO 20009KT 4SM BR CLR 22/21 A2983  1160 93 2300 200/09 RMK AO2 TSNO
94908KDBQ DBQ20050611225012406/11/05 22:50:31  5-MIN KDBQ 120450Z AUTO 20009KT 4SM BR CLR 22/21 A2983  1160 93 2300 200/09 RMK AO2 SLP093 T02220211 TSNO
94908KDBQ DBQ20050611225512406/11/05 22:55:31  5-MIN KDBQ 120455Z AUTO 20009KT 4SM BR CLR 22/21 A2983  1160 93 2300 200/09 RMK AO2 SLP093 T02220211 TSNO
94908KDBQ DBQ20050611230011006/11/05 23:00:31  5-MIN KDBQ 120500Z AUTO 21007KT 3SM BR FEW004 22/21  A2983 1160 97 2200 210/07 RMK AO2 TSNO
94908KDBQ DBQ20050611230512206/11/05 23:05:31  5-MIN KDBQ 120505Z AUTO 21007KT 3SM BR BKN004 22/21  A2983 1160 97 2200 210/07 RMK AO2 CIG 003V007 TSNO
94908KDBQ DBQ20050611231011006/11/05 23:10:31  5-MIN KDBQ 120510Z AUTO 21007KT 3SM BR BKN004 22/21  A2983 1160 97 2200 210/07 RMK AO2 TSNO
94908KDBQ DBQ20050611231511706/11/05 23:15:31  5-MIN KDBQ 120515Z AUTO 21007KT 3SM BR BKN004 BKN007  22/21 A2983 1160 97 2200 210/07 RMK AO2 TSNO
94908KDBQ DBQ20050611232012206/11/05 23:20:31  5-MIN KDBQ 120520Z AUTO 21008KT 3SM BR BKN004 22/21  A2983 1160 97 2200 210/08 RMK AO2 CIG 002V007 TSNO
94908KDBQ DBQ20050611232512206/11/05 23:25:31  5-MIN KDBQ 120525Z AUTO 20008KT 3SM BR BKN004 22/21  A2983 1160 97 2200 190/08 RMK AO2 CIG 002V007 TSNO
94908KDBQ DBQ20050611233011006/11/05 23:30:31  5-MIN KDBQ 120530Z AUTO 19009KT 3SM BR BKN004 22/21  A2983 1160 97 2200 190/09 RMK AO2 TSNO
94908KDBQ DBQ20050611233511006/11/05 23:35:31  5-MIN KDBQ 120535Z AUTO 21006KT 3SM BR SCT004 22/21  A2983 1160 93 2200 210/06 RMK AO2 TSNO
94908KDBQ DBQ20050611234011006/11/05 23:40:31  5-MIN KDBQ 120540Z AUTO 19010KT 4SM BR FEW004 22/21  A2983 1160 93 2200 190/10 RMK AO2 TSNO
94908KDBQ DBQ20050611234511006/11/05 23:45:31  5-MIN KDBQ 120545Z AUTO 20008KT 4SM BR FEW004 22/21  A2983 1160 93 2200 200/08 RMK AO2 TSNO
94908KDBQ DBQ20050611235015906/11/05 23:50:31  5-MIN KDBQ 120550Z AUTO 19009KT 4SM BR CLR 22/21 A2983  1160 93 2200 190/09 RMK AO2 SLP093 60021 T02170206 10278 20206 402940189  53015 TSNO
94908KDBQ DBQ20050611235515906/11/05 23:55:31  5-MIN KDBQ 120555Z AUTO 19010KT 5SM BR CLR 22/21 A2983  1160 93 2200 190/10 RMK AO2 SLP093 60021 T02170206 10278 20206 402940189  50004 TSNO
94908KDBQ DBQ20050612000010706/12/05 00:00:38  5-MIN KDBQ 120600Z AUTO 20008KT 5SM BR CLR 22/21 A2983  1160 93 2200 200/08 RMK AO2 TSNO
94908KDBQ DBQ20050612000510706/12/05 00:05:31  5-MIN KDBQ 120605Z AUTO 20009KT 5SM BR CLR 22/21 A2983  1160 93 2200 200/09 RMK AO2 TSNO
94908KDBQ DBQ20050612001010706/12/05 00:10:31  5-MIN KDBQ 120610Z AUTO 20009KT 5SM BR CLR 22/21 A2983  1160 93 2200 200/09 RMK AO2 TSNO
94908KDBQ DBQ20050612001510706/12/05 00:15:31  5-MIN KDBQ 120615Z AUTO 20009KT 5SM BR CLR 21/21 A2983  1160 97 2200 200/09 RMK AO2 TSNO
94908KDBQ DBQ20050612002010706/12/05 00:20:31  5-MIN KDBQ 120620Z AUTO 19010KT 4SM BR CLR 21/21 A2983  1160 97 2200 190/10 RMK AO2 TSNO
94908KDBQ DBQ20050612002510706/12/05 00:25:31  5-MIN KDBQ 120625Z AUTO 20009KT 4SM BR CLR 21/21 A2983  1160 97 2200 200/09 RMK AO2 TSNO
94908KDBQ DBQ20050612003010706/12/05 00:30:31  5-MIN KDBQ 120630Z AUTO 20008KT 4SM BR CLR 21/21 A2983  1160 97 2200 200/08 RMK AO2 TSNO
94908KDBQ DBQ20050612003510706/12/05 00:35:31  5-MIN KDBQ 120635Z AUTO 20008KT 4SM BR CLR 21/21 A2983  1160 97 2200 190/08 RMK AO2 TSNO
94908KDBQ DBQ20050612004010706/12/05 00:40:31  5-MIN KDBQ 120640Z AUTO 20008KT 3SM BR CLR 21/20 A2983  1160 93 2200 200/08 RMK AO2 TSNO
94908KDBQ DBQ20050612004510706/12/05 00:45:31  5-MIN KDBQ 120645Z AUTO 20008KT 4SM BR CLR 21/20 A2983  1160 93 2200 200/08 RMK AO2 TSNO
94908KDBQ DBQ20050612005012406/12/05 00:50:31  5-MIN KDBQ 120650Z AUTO 21007KT 4SM BR CLR 21/20 A2983  1170 97 2100 210/07 RMK AO2 SLP092 T02060200 TSNO
94908KDBQ DBQ20050612005512406/12/05 00:55:31  5-MIN KDBQ 120655Z AUTO 21008KT 4SM BR CLR 21/20 A2983  1160 97 2100 200/08 RMK AO2 SLP093 T02060200 TSNO
94908KDBQ DBQ20050612010010706/12/05 01:00:31  5-MIN KDBQ 120700Z AUTO 20009KT 4SM BR CLR 21/20 A2983  1160 97 2100 200/09 RMK AO2 TSNO
94908KDBQ DBQ20050612010510706/12/05 01:05:31  5-MIN KDBQ 120705Z AUTO 19008KT 5SM BR CLR 21/20 A2983  1160 97 2100 190/08 RMK AO2 TSNO
94908KDBQ DBQ20050612011010706/12/05 01:10:31  5-MIN KDBQ 120710Z AUTO 20009KT 5SM BR CLR 21/20 A2983  1160 97 2100 200/09 RMK AO2 TSNO
94908KDBQ DBQ20050612011510706/12/05 01:15:31  5-MIN KDBQ 120715Z AUTO 20008KT 5SM BR CLR 21/20 A2984  1160 97 2100 190/08 RMK AO2 TSNO
94908KDBQ DBQ20050612012010706/12/05 01:20:31  5-MIN KDBQ 120720Z AUTO 19009KT 5SM BR CLR 21/20 A2984  1160 97 2100 190/09 RMK AO2 TSNO
94908KDBQ DBQ20050612012510706/12/05 01:25:31  5-MIN KDBQ 120725Z AUTO 21008KT 5SM BR CLR 21/19 A2983  1160 93 2100 210/08 RMK AO2 TSNO
94908KDBQ DBQ20050612013010706/12/05 01:30:31  5-MIN KDBQ 120730Z AUTO 21008KT 5SM BR CLR 21/19 A2984  1160 93 2100 210/08 RMK AO2 TSNO
94908KDBQ DBQ20050612013510706/12/05 01:35:31  5-MIN KDBQ 120735Z AUTO 20009KT 5SM BR CLR 21/19 A2983  1160 93 2100 200/09 RMK AO2 TSNO
94908KDBQ DBQ20050612014010706/12/05 01:40:31  5-MIN KDBQ 120740Z AUTO 21008KT 6SM BR CLR 21/19 A2984  1160 93 2100 210/08 RMK AO2 TSNO
94908KDBQ DBQ20050612014510706/12/05 01:45:31  5-MIN KDBQ 120745Z AUTO 21008KT 6SM BR CLR 21/19 A2983  1160 93 2100 210/08 RMK AO2 TSNO
94908KDBQ DBQ20050612015012006/12/05 01:50:31  5-MIN KDBQ 120750Z AUTO 21007KT 7SM CLR 21/19 A2984 1160 93 2100 210/07 RMK AO2 SLP095 T02060194 TSNO
94908KDBQ DBQ20050612015512006/12/05 01:55:31  5-MIN KDBQ 120755Z AUTO 21008KT 7SM CLR 21/19 A2984 1160 93 2100 210/08 RMK AO2 SLP095 T02060194 TSNO
94908KDBQ DBQ20050612020010306/12/05 02:00:31  5-MIN KDBQ 120800Z AUTO 20008KT 7SM CLR 21/19 A2984 1160 93 2100 200/08 RMK AO2 TSNO
94908KDBQ DBQ20050612020510306/12/05 02:05:31  5-MIN KDBQ 120805Z AUTO 19008KT 7SM CLR 20/19 A2984 1150 97 2000 190/08 RMK AO2 TSNO
94908KDBQ DBQ20050612021010706/12/05 02:10:31  5-MIN KDBQ 120810Z AUTO 19007KT 6SM BR CLR 20/19 A2983  1170 97 2100 190/07 RMK AO2 TSNO
94908KDBQ DBQ20050612021510706/12/05 02:15:31  5-MIN KDBQ 120815Z AUTO 19007KT 6SM BR CLR 20/19 A2984  1160 93 2000 190/07 RMK AO2 TSNO
94908KDBQ DBQ20050612022010706/12/05 02:20:31  5-MIN KDBQ 120820Z AUTO 19007KT 5SM BR CLR 20/19 A2984  1160 97 2000 190/07 RMK AO2 TSNO
94908KDBQ DBQ20050612022510706/12/05 02:25:31  5-MIN KDBQ 120825Z AUTO 19007KT 5SM BR CLR 20/19 A2984  1160 97 2000 190/07 RMK AO2 TSNO
94908KDBQ DBQ20050612023010706/12/05 02:30:31  5-MIN KDBQ 120830Z AUTO 20008KT 4SM BR CLR 20/19 A2983  1170 97 2100 200/08 RMK AO2 TSNO
94908KDBQ DBQ20050612023510706/12/05 02:35:31  5-MIN KDBQ 120835Z AUTO 20007KT 4SM BR CLR 20/19 A2984  1160 93 2000 200/07 RMK AO2 TSNO
94908KDBQ DBQ20050612024011006/12/05 02:40:31  5-MIN KDBQ 120840Z AUTO 19007KT 4SM BR FEW004 20/19  A2984 1160 93 2000 190/07 RMK AO2 TSNO
94908KDBQ DBQ20050612024511006/12/05 02:45:31  5-MIN KDBQ 120845Z AUTO 20007KT 4SM BR FEW004 20/19  A2982 1170 93 2100 200/07 RMK AO2 TSNO
94908KDBQ DBQ20050612025013306/12/05 02:50:31  5-MIN KDBQ 120850Z AUTO 20007KT 4SM BR FEW004 20/19  A2983 1160 93 2000 200/07 RMK AO2 SLP094 T02000189 50004 TSNO
94908KDBQ DBQ20050612025513306/12/05 02:55:31  5-MIN KDBQ 120855Z AUTO 20007KT 4SM BR SCT004 20/19  A2983 1160 93 2000 200/07 RMK AO2 SLP094 T02000189 50001 TSNO
94908KDBQ DBQ20050612030011006/12/05 03:00:31  5-MIN KDBQ 120900Z AUTO 19006KT 4SM BR SCT004 19/19  A2982 1170 97 2000 190/06 RMK AO2 TSNO
94908KDBQ DBQ20050612030511006/12/05 03:05:31  5-MIN KDBQ 120905Z AUTO 19006KT 4SM BR FEW004 19/19  A2982 1170 97 2000 180/06 RMK AO2 TSNO
94908KDBQ DBQ20050612031011006/12/05 03:10:31  5-MIN KDBQ 120910Z AUTO 18007KT 4SM BR SCT004 19/19  A2983 1160 97 2000 180/07 RMK AO2 TSNO
94908KDBQ DBQ20050612031511006/12/05 03:15:31  5-MIN KDBQ 120915Z AUTO 19006KT 4SM BR FEW004 19/19  A2983 1170 97 2000 180/06 RMK AO2 TSNO
94908KDBQ DBQ20050612032011006/12/05 03:20:31  5-MIN KDBQ 120920Z AUTO 19007KT 4SM BR FEW004 19/19  A2982 1170 97 2000 180/07 RMK AO2 TSNO
94908KDBQ DBQ20050612032511006/12/05 03:25:31  5-MIN KDBQ 120925Z AUTO 19008KT 4SM BR FEW004 19/19  A2983 1160 97 2000 190/08 RMK AO2 TSNO
94908KDBQ DBQ20050612033011006/12/05 03:30:31  5-MIN KDBQ 120930Z AUTO 19008KT 5SM BR FEW004 19/19  A2984 1160 97 2000 190/08 RMK AO2 TSNO
94908KDBQ DBQ20050612033511006/12/05 03:35:31  5-MIN KDBQ 120935Z AUTO 20006KT 5SM BR FEW004 19/19  A2983 1170 97 2000 200/06 RMK AO2 TSNO
94908KDBQ DBQ20050612034011006/12/05 03:40:31  5-MIN KDBQ 120940Z AUTO 20006KT 5SM BR SCT004 19/19  A2984 1160 97 2000 200/06 RMK AO2 TSNO
94908KDBQ DBQ20050612034511006/12/05 03:45:31  5-MIN KDBQ 120945Z AUTO 20005KT 5SM BR BKN004 19/19  A2983 1170 97 2000 200/05 RMK AO2 TSNO
94908KDBQ DBQ20050612035012706/12/05 03:50:31  5-MIN KDBQ 120950Z AUTO 19005KT 4SM BR BKN004 19/19  A2983 1160 97 2000 190/05 RMK AO2 SLP093 T01940189 TSNO
94908KDBQ DBQ20050612035512706/12/05 03:55:31  5-MIN KDBQ 120955Z AUTO 19007KT 4SM BR BKN004 19/19  A2984 1160 97 2000 190/07 RMK AO2 SLP095 T01940189 TSNO
94908KDBQ DBQ20050612040011006/12/05 04:00:31  5-MIN KDBQ 121000Z AUTO 19007KT 4SM BR BKN004 19/19  A2984 1160 97 2000 190/07 RMK AO2 TSNO
94908KDBQ DBQ20050612040511006/12/05 04:05:31  5-MIN KDBQ 121005Z AUTO 20007KT 5SM BR OVC004 20/19  A2984 1160 93 2000 200/07 RMK AO2 TSNO
94908KDBQ DBQ20050612041011006/12/05 04:10:31  5-MIN KDBQ 121010Z AUTO 19007KT 5SM BR OVC004 20/19  A2984 1160 93 2000 190/07 RMK AO2 TSNO
94908KDBQ DBQ20050612041511006/12/05 04:15:31  5-MIN KDBQ 121015Z AUTO 19008KT 4SM BR OVC004 20/19  A2984 1160 93 2000 190/08 RMK AO2 TSNO
94908KDBQ DBQ20050612042011006/12/05 04:20:31  5-MIN KDBQ 121020Z AUTO 20008KT 4SM BR OVC002 20/19  A2984 1150 93 2000 190/08 RMK AO2 TSNO
94908KDBQ DBQ20050612042511006/12/05 04:25:31  5-MIN KDBQ 121025Z AUTO 20008KT 4SM BR OVC002 20/19  A2984 1150 93 2000 190/08 RMK AO2 TSNO
94908KDBQ DBQ20050612043011006/12/05 04:30:31  5-MIN KDBQ 121030Z AUTO 20008KT 4SM BR OVC002 20/19  A2984 1150 93 2000 200/08 RMK AO2 TSNO
94908KDBQ DBQ20050612043511006/12/05 04:35:31  5-MIN KDBQ 121035Z AUTO 19009KT 4SM BR OVC002 20/19  A2985 1150 93 2000 190/09 RMK AO2 TSNO
94908KDBQ DBQ20050612044011006/12/05 04:40:31  5-MIN KDBQ 121040Z AUTO 20009KT 3SM BR OVC002 20/19  A2985 1150 93 2000 190/09 RMK AO2 TSNO
94908KDBQ DBQ20050612044511006/12/05 04:45:31  5-MIN KDBQ 121045Z AUTO 19009KT 3SM BR OVC002 20/19  A2985 1150 93 2000 190/09 RMK AO2 TSNO
94908KDBQ DBQ20050612045012706/12/05 04:50:31  5-MIN KDBQ 121050Z AUTO 20009KT 3SM BR OVC002 20/19  A2985 1140 93 2000 200/09 RMK AO2 SLP100 T02000189 TSNO
94908KDBQ DBQ20050612045511706/12/05 04:55:31  5-MIN KDBQ 121055Z 21008KT 3SM BR OVC002 20/19 A2985  1140 93 2000 200/08 RMK AO2 SLP100 T02000189
94908KDBQ DBQ20050612050010006/12/05 05:00:31  5-MIN KDBQ 121100Z 21008KT 3SM BR OVC002 20/19 A2985  1140 93 2000 210/08 RMK AO2
94908KDBQ DBQ20050612050510006/12/05 05:05:31  5-MIN KDBQ 121105Z 21007KT 3SM BR OVC002 20/19 A2985  1140 93 2000 210/07 RMK AO2
94908KDBQ DBQ20050612051010006/12/05 05:10:31  5-MIN KDBQ 121110Z 21007KT 3SM BR OVC002 20/19 A2986  1140 93 2000 210/07 RMK AO2
94908KDBQ DBQ20050612051510006/12/05 05:15:31  5-MIN KDBQ 121115Z 21008KT 3SM BR OVC002 20/19 A2986  1130 93 2000 210/08 RMK AO2
94908KDBQ DBQ20050612052010006/12/05 05:20:31  5-MIN KDBQ 121120Z 22006KT 3SM BR OVC002 20/19 A2986  1130 93 2000 220/06 RMK AO2
94908KDBQ DBQ20050612052510006/12/05 05:25:31  5-MIN KDBQ 121125Z 21008KT 3SM BR OVC002 20/19 A2986  1130 93 2000 210/08 RMK AO2
94908KDBQ DBQ20050612053010006/12/05 05:30:31  5-MIN KDBQ 121130Z 21009KT 3SM BR OVC002 20/19 A2986  1130 93 2000 210/09 RMK AO2
94908KDBQ DBQ20050612053510006/12/05 05:35:31  5-MIN KDBQ 121135Z 21007KT 3SM BR OVC002 20/19 A2986  1130 93 2000 210/07 RMK AO2
94908KDBQ DBQ20050612054010006/12/05 05:40:31  5-MIN KDBQ 121140Z 21008KT 3SM BR OVC002 20/19 A2986  1130 93 2000 210/08 RMK AO2
94908KDBQ DBQ20050612054510006/12/05 05:45:31  5-MIN KDBQ 121145Z 23007KT 3SM BR OVC002 20/19 A2986  1130 93 2000 230/07 RMK AO2
94908KDBQ DBQ20050612055014106/12/05 05:50:31  5-MIN KDBQ 121150Z 22008KT 3SM BR OVC002 20/19 A2986  1130 93 2000 220/08 RMK AO2 SLP106 70021 T02000189 10217 20194 50001
94908KDBQ DBQ20050612055514106/12/05 05:55:31  5-MIN KDBQ 121155Z 21008KT 3SM BR OVC002 20/19 A2986  1130 93 2000 210/08 RMK AO2 SLP105 70021 T02000189 10217 20194 53010
94908KDBQ DBQ20050612060010006/12/05 06:00:31  5-MIN KDBQ 121200Z 23007KT 3SM BR OVC002 20/19 A2986  1130 93 2000 230/07 RMK AO2
94908KDBQ DBQ20050612060510006/12/05 06:05:31  5-MIN KDBQ 121205Z 23007KT 3SM BR OVC002 20/19 A2986  1130 93 2000 230/07 RMK AO2
94908KDBQ DBQ20050612061010006/12/05 06:10:31  5-MIN KDBQ 121210Z 22007KT 3SM BR OVC002 20/19 A2986  1130 93 2000 220/07 RMK AO2
94908KDBQ DBQ20050612061510006/12/05 06:15:31  5-MIN KDBQ 121215Z 22008KT 3SM BR OVC002 20/19 A2987  1130 93 2000 220/08 RMK AO2
94908KDBQ DBQ20050612062010006/12/05 06:20:31  5-MIN KDBQ 121220Z 22007KT 4SM BR OVC002 20/19 A2987  1130 93 2000 220/07 RMK AO2
94908KDBQ DBQ20050612062511206/12/05 06:25:31  5-MIN KDBQ 121225Z 23008KT 4SM BR OVC002 20/19 A2987  1130 97 2000 220/08 RMK AO2 CIG 002V005
94908KDBQ DBQ20050612063011206/12/05 06:30:31  5-MIN KDBQ 121230Z 23007KT 4SM BR OVC002 20/19 A2987  1120 97 2000 230/07 RMK AO2 CIG 002V005
94908KDBQ DBQ20050612063511206/12/05 06:35:31  5-MIN KDBQ 121235Z 23008KT 4SM BR OVC002 20/19 A2987  1120 97 2000 220/08 RMK AO2 CIG 002V005
94908KDBQ DBQ20050612064011206/12/05 06:40:31  5-MIN KDBQ 121240Z 24006KT 4SM BR OVC004 20/19 A2987  1120 97 2000 230/06 RMK AO2 CIG 002V008
94908KDBQ DBQ20050612064511206/12/05 06:45:31  5-MIN KDBQ 121245Z 22006KT 4SM BR OVC004 21/19 A2987  1130 93 2100 220/06 RMK AO2 CIG 003V008
94908KDBQ DBQ20050612065012906/12/05 06:50:31  5-MIN KDBQ 121250Z 21006KT 5SM BR OVC004 21/19 A2987  1130 93 2100 210/06 RMK AO2 CIG 003V008 SLP108 T02060194
94908KDBQ DBQ20050612065512906/12/05 06:55:31  5-MIN KDBQ 121255Z 23007KT 5SM BR OVC004 21/19 A2987  1120 93 2100 230/07 RMK AO2 CIG 003V008 SLP109 T02060194
94908KDBQ DBQ20050612070010006/12/05 07:00:31  5-MIN KDBQ 121300Z 24007KT 5SM BR OVC004 21/19 A2987  1120 93 2100 240/07 RMK AO2
94908KDBQ DBQ20050612070510006/12/05 07:05:31  5-MIN KDBQ 121305Z 23007KT 5SM BR OVC004 21/19 A2987  1120 93 2100 230/07 RMK AO2
94908KDBQ DBQ20050612071011206/12/05 07:10:31  5-MIN KDBQ 121310Z 24007KT 5SM BR OVC004 21/19 A2988  1120 93 2100 240/07 RMK AO2 CIG 004V008
94908KDBQ DBQ20050612071511206/12/05 07:15:31  5-MIN KDBQ 121315Z 23006KT 5SM BR OVC006 21/19 A2988  1120 90 2100 230/06 RMK AO2 CIG 004V008
94908KDBQ DBQ20050612072011206/12/05 07:20:31  5-MIN KDBQ 121320Z 21006KT 5SM BR OVC006 21/19 A2988  1120 90 2100 210/06 RMK AO2 CIG 004V010
94908KDBQ DBQ20050612072511206/12/05 07:25:31  5-MIN KDBQ 121325Z 23007KT 5SM BR OVC006 21/19 A2988  1120 90 2100 230/07 RMK AO2 CIG 004V010
94908KDBQ DBQ20050612073010006/12/05 07:30:31  5-MIN KDBQ 121330Z 23006KT 5SM BR OVC006 21/19 A2988  1120 87 2100 230/06 RMK AO2
94908KDBQ DBQ20050612073510006/12/05 07:35:31  5-MIN KDBQ 121335Z 24007KT 5SM BR BKN006 21/19 A2988  1120 90 2100 240/07 RMK AO2
94908KDBQ DBQ20050612074010006/12/05 07:40:31  5-MIN KDBQ 121340Z 23006KT 5SM BR OVC006 21/19 A2988  1120 90 2100 230/06 RMK AO2
94908KDBQ DBQ20050612074510006/12/05 07:45:31  5-MIN KDBQ 121345Z 22007KT 5SM BR BKN006 21/19 A2988  1120 90 2100 220/07 RMK AO2
94908KDBQ DBQ20050612075011706/12/05 07:50:31  5-MIN KDBQ 121350Z 22007KT 5SM BR BKN006 21/19 A2988  1120 90 2100 220/07 RMK AO2 SLP113 T02110194
94908KDBQ DBQ20050612075511706/12/05 07:55:31  5-MIN KDBQ 121355Z 22005KT 5SM BR BKN006 22/19 A2988  1120 87 2200 220/05 RMK AO2 SLP113 T02170194
94908KDBQ DBQ20050612080010006/12/05 08:00:31  5-MIN KDBQ 121400Z 22005KT 6SM BR BKN006 22/19 A2988  1120 87 2200 220/05 RMK AO2
94908KDBQ DBQ20050612080510006/12/05 08:05:31  5-MIN KDBQ 121405Z 21006KT 6SM HZ BKN006 22/19 A2988  1120 84 2300 210/06 RMK AO2
94908KDBQ DBQ20050612081010006/12/05 08:10:31  5-MIN KDBQ 121410Z 23004KT 6SM BR BKN006 22/19 A2988  1120 87 2200 230/04 RMK AO2
94908KDBQ DBQ20050612081511206/12/05 08:15:31  5-MIN KDBQ 121415Z 19004KT 6SM BR OVC006 22/19 A2988  1110 87 2200 190/04 RMK AO2 CIG 006V010
94908KDBQ DBQ20050612082010006/12/05 08:20:31  5-MIN KDBQ 121420Z 20005KT 6SM BR OVC006 22/19 A2988  1110 87 2200 200/05 RMK AO2
94908KDBQ DBQ20050612082510006/12/05 08:25:31  5-MIN KDBQ 121425Z 22005KT 6SM BR OVC006 22/19 A2989  1110 87 2200 220/05 RMK AO2
94908KDBQ DBQ20050612083009706/12/05 08:30:31  5-MIN KDBQ 121430Z 19005KT 7SM OVC008 22/20 A2989 1110  87 2200 190/05 RMK AO2
94908KDBQ DBQ20050612083510906/12/05 08:35:31  5-MIN KDBQ 121435Z 19005KT 7SM OVC008 22/19 A2989 1110  84 2200 190/05 RMK AO2 CIG 007V012
94908KDBQ DBQ20050612084011206/12/05 08:40:31  5-MIN KDBQ 121440Z 18004KT 6SM HZ OVC008 22/19 A2989  1110 84 2200 180/04 RMK AO2 CIG 007V013
94908KDBQ DBQ20050612084511506/12/05 08:45:31  5-MIN KDBQ 121445Z 19005KT 7SM BKN008 OVC012 22/20 A2989 1110 87 2200 190/05 RMK AO2 CIG 007V012
94908KDBQ DBQ20050612085013206/12/05 08:50:31  5-MIN KDBQ 121450Z 17005KT 7SM OVC010 23/20 A2989 1110  84 2300 170/05 RMK AO2 CIG 007V013 SLP114 T02280200 53010
94908KDBQ DBQ20050612085513206/12/05 08:55:31  5-MIN KDBQ 121455Z 19004KT 7SM OVC010 22/20 A2989 1110  87 2200 190/04 RMK AO2 CIG 007V012 SLP114 T02220200 51008
94908KDBQ DBQ20050612090011506/12/05 09:00:31  5-MIN KDBQ 121500Z 20005KT 7SM BKN010 OVC013 22/19 A2989 1110 84 2200 200/05 RMK AO2 CIG 007V012
94908KDBQ DBQ20050612090510906/12/05 09:05:31  5-MIN KDBQ 121505Z 22004KT 8SM OVC010 22/19 A2989 1110  84 2200 220/04 RMK AO2 CIG 008V013
94908KDBQ DBQ20050612091011506/12/05 09:10:31  5-MIN KDBQ 121510Z 21005KT 8SM BKN010 OVC015 23/20 A2989 1110 84 2300 210/05 RMK AO2 CIG 008V013
94908KDBQ DBQ20050612091510306/12/05 09:15:31  5-MIN KDBQ 121515Z 23004KT 8SM BKN010 OVC014 23/20 A2989 1100 84 2300 220/04 RMK AO2
94908KDBQ DBQ20050612092009706/12/05 09:20:31  5-MIN KDBQ 121520Z VRB05KT 8SM OVC012 23/20 A2989 1100  84 2300 VRB/05 RMK AO2
94908KDBQ DBQ20050612092509706/12/05 09:25:31  5-MIN KDBQ 121525Z 21005KT 9SM BKN012 23/20 A2989 1100  84 2300 210/05 RMK AO2
94908KDBQ DBQ20050612093009706/12/05 09:30:31  5-MIN KDBQ 121530Z 22004KT 9SM BKN012 23/20 A2989 1100  81 2400 220/04 RMK AO2
94908KDBQ DBQ20050612093509706/12/05 09:35:31  5-MIN KDBQ 121535Z 18007KT 9SM BKN012 23/20 A2989 1100  81 2400 180/07 RMK AO2
94908KDBQ DBQ20050612094009706/12/05 09:40:31  5-MIN KDBQ 121540Z VRB05KT 10SM BKN012 23/20 A2989 1100 81 2400 VRB/05 RMK AO2
94908KDBQ DBQ20050612094509706/12/05 09:45:31  5-MIN KDBQ 121545Z 20007KT 9SM BKN012 24/21 A2989 1100  81 2400 200/07 RMK AO2
94908KDBQ DBQ20050612095011406/12/05 09:50:31  5-MIN KDBQ 121550Z 17005KT 9SM BKN012 24/21 A2989 1110  81 2400 160/05 RMK AO2 SLP114 T02390206
94908KDBQ DBQ20050612095511406/12/05 09:55:31  5-MIN KDBQ 121555Z 17006KT 10SM BKN012 24/20 A2988 1120 78 2400 170/06 RMK AO2 SLP111 T02390200
94908KDBQ DBQ20050612100009706/12/05 10:00:31  5-MIN KDBQ 121600Z 18007KT 10SM BKN012 24/21 A2988 1120 81 2400 180/07 RMK AO2
94908KDBQ DBQ20050612100509706/12/05 10:05:31  5-MIN KDBQ 121605Z 18006KT 10SM BKN012 24/21 A2988 1110 78 2500 180/06 RMK AO2
94908KDBQ DBQ20050612101009706/12/05 10:10:31  5-MIN KDBQ 121610Z 19004KT 10SM BKN014 24/21 A2989 1110 81 2400 190/04 RMK AO2
94908KDBQ DBQ20050612101509706/12/05 10:15:31  5-MIN KDBQ 121615Z 17003KT 10SM BKN014 24/21 A2988 1110 78 2500 170/03 RMK AO2
94908KDBQ DBQ20050612102009706/12/05 10:20:31  5-MIN KDBQ 121620Z 19004KT 10SM BKN014 24/21 A2988 1110 78 2500 180/04 RMK AO2
94908KDBQ DBQ20050612102509706/12/05 10:25:31  5-MIN KDBQ 121625Z 19007KT 10SM BKN014 24/21 A2988 1110 78 2500 190/07 RMK AO2
94908KDBQ DBQ20050612103009706/12/05 10:30:31  5-MIN KDBQ 121630Z 00000KT 10SM SCT014 24/20 A2988 1110 76 2500 000/00 RMK AO2
94908KDBQ DBQ20050612103509706/12/05 10:35:31  5-MIN KDBQ 121635Z 21005KT 10SM FEW014 25/21 A2988 1120 76 2600 210/05 RMK AO2
94908KDBQ DBQ20050612104009706/12/05 10:40:31  5-MIN KDBQ 121640Z VRB04KT 10SM SCT016 25/21 A2988 1120 76 2600 VRB/04 RMK AO2
94908KDBQ DBQ20050612104509706/12/05 10:45:31  5-MIN KDBQ 121645Z VRB05KT 10SM SCT016 25/21 A2988 1120 76 2600 VRB/05 RMK AO2
94908KDBQ DBQ20050612105011406/12/05 10:50:31  5-MIN KDBQ 121650Z VRB05KT 10SM FEW018 25/21 A2988 1120 76 2600 VRB/05 RMK AO2 SLP110 T02500206
94908KDBQ DBQ20050612105511406/12/05 10:55:31  5-MIN KDBQ 121655Z 00000KT 10SM BKN018 26/21 A2988 1120 73 2600 000/00 RMK AO2 SLP110 T02560206
94908KDBQ DBQ20050612110009706/12/05 11:00:31  5-MIN KDBQ 121700Z VRB05KT 10SM BKN018 26/21 A2987 1120 73 2600 VRB/05 RMK AO2
94908KDBQ DBQ20050612110509706/12/05 11:05:31  5-MIN KDBQ 121705Z VRB05KT 10SM BKN018 26/21 A2987 1120 73 2600 VRB/05 RMK AO2
94908KDBQ DBQ20050612111009706/12/05 11:10:31  5-MIN KDBQ 121710Z VRB04KT 10SM BKN018 26/20 A2987 1120 71 2600 VRB/04 RMK AO2
94908KDBQ DBQ20050612111509706/12/05 11:15:31  5-MIN KDBQ 121715Z 21005KT 10SM BKN018 26/21 A2987 1120 71 2700 210/05 RMK AO2
94908KDBQ DBQ20050612112009706/12/05 11:20:31  5-MIN KDBQ 121720Z 00000KT 10SM BKN018 26/21 A2987 1120 73 2600 000/00 RMK AO2
94908KDBQ DBQ20050612112509706/12/05 11:25:31  5-MIN KDBQ 121725Z 16004KT 10SM BKN018 26/21 A2987 1130 71 2700 160/04 RMK AO2
94908KDBQ DBQ20050612113009706/12/05 11:30:31  5-MIN KDBQ 121730Z 14005KT 10SM BKN018 26/20 A2987 1120 71 2600 140/05 RMK AO2
94908KDBQ DBQ20050612113509706/12/05 11:35:31  5-MIN KDBQ 121735Z 19008KT 10SM BKN018 26/20 A2987 1120 68 2700 190/08 RMK AO2
94908KDBQ DBQ20050612114009706/12/05 11:40:31  5-MIN KDBQ 121740Z 19005KT 10SM BKN018 27/19 A2987 1130 64 2800 190/05 RMK AO2
94908KDBQ DBQ20050612114509706/12/05 11:45:31  5-MIN KDBQ 121745Z 25004KT 10SM BKN018 26/19 A2987 1130 66 2700 250/04 RMK AO2
94908KDBQ DBQ20050612115013206/12/05 11:50:31  5-MIN KDBQ 121750Z 24006KT 10SM BKN018 26/20 A2986 1130 68 2700 230/06 RMK AO2 SLP106 T02610200 10267 20200 51008
94908KDBQ DBQ20050612115513206/12/05 11:55:31  5-MIN KDBQ 121755Z VRB05KT 10SM BKN028 27/19 A2986 1130 64 2800 VRB/05 RMK AO2 SLP104 T02670194 10267 20200 58008
94908KDBQ DBQ20050612120009706/12/05 12:00:31  5-MIN KDBQ 121800Z VRB04KT 10SM BKN028 27/19 A2986 1130 64 2800 VRB/04 RMK AO2
94908KDBQ DBQ20050612120509706/12/05 12:05:31  5-MIN KDBQ 121805Z 20004KT 10SM BKN028 27/19 A2986 1140 64 2800 200/04 RMK AO2
94908KDBQ DBQ20050612121009706/12/05 12:10:31  5-MIN KDBQ 121810Z 22007KT 10SM BKN028 27/19 A2986 1140 60 2800 220/07 RMK AO2
94908KDBQ DBQ20050612121509706/12/05 12:15:31  5-MIN KDBQ 121815Z 25006KT 10SM BKN028 27/19 A2986 1140 62 2800 240/06 RMK AO2
94908KDBQ DBQ20050612122009706/12/05 12:20:31  5-MIN KDBQ 121820Z 25005KT 10SM BKN028 27/19 A2986 1140 62 2800 250/05 RMK AO2
94908KDBQ DBQ20050612122509706/12/05 12:25:31  5-MIN KDBQ 121825Z 19006KT 10SM BKN028 27/19 A2985 1140 62 2800 190/06 RMK AO2
94908KDBQ DBQ20050612123009706/12/05 12:30:31  5-MIN KDBQ 121830Z 21005KT 10SM BKN028 27/19 A2985 1140 62 2800 210/05 RMK AO2
94908KDBQ DBQ20050612123509706/12/05 12:35:31  5-MIN KDBQ 121835Z 22006KT 10SM BKN028 27/19 A2985 1140 62 2800 220/06 RMK AO2
94908KDBQ DBQ20050612124009706/12/05 12:40:31  5-MIN KDBQ 121840Z 00000KT 10SM BKN028 27/18 A2985 1140 56 2800 000/00 RMK AO2
94908KDBQ DBQ20050612124509706/12/05 12:45:31  5-MIN KDBQ 121845Z 16007KT 10SM BKN028 27/18 A2985 1150 58 2800 160/07 RMK AO2
94908KDBQ DBQ20050612125011406/12/05 12:50:31  5-MIN KDBQ 121850Z 00000KT 10SM FEW039 27/18 A2985 1140 60 2800 000/00 RMK AO2 SLP101 T02670183
94908KDBQ DBQ20050612125511406/12/05 12:55:31  5-MIN KDBQ 121855Z 16004KT 10SM FEW039 27/18 A2985 1150 57 2800 160/04 RMK AO2 SLP100 T02670178
94908KDBQ DBQ20050612130009706/12/05 13:00:31  5-MIN KDBQ 121900Z 18004KT 10SM FEW039 27/18 A2984 1150 58 2900 170/04 RMK AO2
94908KDBQ DBQ20050612130509706/12/05 13:05:31  5-MIN KDBQ 121905Z 18005KT 10SM FEW039 28/18 A2985 1150 56 2900 170/05 RMK AO2
94908KDBQ DBQ20050612131009706/12/05 13:10:31  5-MIN KDBQ 121910Z 00000KT 10SM FEW039 28/18 A2985 1150 54 2900 000/00 RMK AO2
94908KDBQ DBQ20050612131509706/12/05 13:15:31  5-MIN KDBQ 121915Z 18004KT 10SM FEW039 28/18 A2984 1150 54 2900 180/04 RMK AO2
94908KDBQ DBQ20050612132009406/12/05 13:20:31  5-MIN KDBQ 121920Z VRB03KT 10SM CLR 28/18 A2984 1150 54 2900 VRB/03 RMK AO2
94908KDBQ DBQ20050612132509406/12/05 13:25:31  5-MIN KDBQ 121925Z 18005KT 10SM CLR 28/19 A2984 1150 58 2900 180/05 RMK AO2
94908KDBQ DBQ20050612133011006/12/05 13:30:31  5-MIN KDBQ 121930Z 17007KT 140V210 10SM CLR 28/18 A2984 1150 54 3000 170/07 140V210 RMK AO2
94908KDBQ DBQ20050612133509406/12/05 13:35:31  5-MIN KDBQ 121935Z VRB05KT 10SM CLR 28/19 A2984 1150 58 2900 VRB/05 RMK AO2
94908KDBQ DBQ20050612134009406/12/05 13:40:31  5-MIN KDBQ 121940Z 15005KT 10SM CLR 28/19 A2984 1150 58 3000 150/05 RMK AO2
94908KDBQ DBQ20050612134509406/12/05 13:45:31  5-MIN KDBQ 121945Z 17009KT 10SM CLR 28/19 A2984 1150 56 3000 170/09 RMK AO2
94908KDBQ DBQ20050612135011106/12/05 13:50:31  5-MIN KDBQ 121950Z 19006KT 10SM CLR 28/19 A2984 1150 58 3000 190/06 RMK AO2 SLP097 T02830194
94908KDBQ DBQ20050612135511106/12/05 13:55:31  5-MIN KDBQ 121955Z 15006KT 10SM CLR 28/18 A2984 1160 54 3000 150/06 RMK AO2 SLP096 T02830183
94908KDBQ DBQ20050612140009406/12/05 14:00:31  5-MIN KDBQ 122000Z 16007KT 10SM CLR 28/19 A2984 1160 56 3000 150/07 RMK AO2
94908KDBQ DBQ20050612140509406/12/05 14:05:31  5-MIN KDBQ 122005Z 15009KT 10SM CLR 28/18 A2983 1160 54 3000 150/09 RMK AO2
94908KDBQ DBQ20050612141009406/12/05 14:10:31  5-MIN KDBQ 122010Z 14005KT 10SM CLR 28/18 A2983 1160 52 3000 140/05 RMK AO2
94908KDBQ DBQ20050612141509406/12/05 14:15:31  5-MIN KDBQ 122015Z 18007KT 10SM CLR 28/18 A2982 1170 54 3000 180/07 RMK AO2
94908KDBQ DBQ20050612142009706/12/05 14:20:31  5-MIN KDBQ 122020Z 18007KT 10SM FEW041 28/19 A2983 1160 56 3000 180/07 RMK AO2
94908KDBQ DBQ20050612142509706/12/05 14:25:31  5-MIN KDBQ 122025Z 19007KT 10SM FEW041 28/18 A2983 1160 54 3000 190/07 RMK AO2
94908KDBQ DBQ20050612143009406/12/05 14:30:31  5-MIN KDBQ 122030Z 20010KT 10SM CLR 28/19 A2983 1160 56 3000 200/10 RMK AO2
94908KDBQ DBQ20050612143509406/12/05 14:35:31  5-MIN KDBQ 122035Z 19007KT 10SM CLR 28/19 A2983 1160 56 3000 190/07 RMK AO2
94908KDBQ DBQ20050612144009406/12/05 14:40:31  5-MIN KDBQ 122040Z 16009KT 10SM CLR 29/19 A2983 1170 54 3100 160/09 RMK AO2
94908KDBQ DBQ20050612144511006/12/05 14:45:31  5-MIN KDBQ 122045Z 17008KT 130V210 10SM CLR 29/19 A2982 1170 54 3100 170/08 130V210 RMK AO2
94908KDBQ DBQ20050612145012006/12/05 14:50:31  5-MIN KDBQ 122050Z 16007KT 10SM FEW042 28/19 A2982 1170 56 3000 160/07 RMK AO2 SLP091 T02830189 58008
94908KDBQ DBQ20050612145512006/12/05 14:55:31  5-MIN KDBQ 122055Z 17008KT 10SM SCT042 29/19 A2982 1170 54 3100 170/08 RMK AO2 SLP091 T02890189 57012
94908KDBQ DBQ20050612150009706/12/05 15:00:31  5-MIN KDBQ 122100Z 15009KT 10SM SCT044 29/19 A2982 1170 54 3100 150/09 RMK AO2
94908KDBQ DBQ20050612150509706/12/05 15:05:31  5-MIN KDBQ 122105Z VRB06KT 10SM SCT044 28/18 A2982 1170 54 3000 VRB/06 RMK AO2
94908KDBQ DBQ20050612151009706/12/05 15:10:31  5-MIN KDBQ 122110Z 18007KT 10SM BKN044 29/19 A2982 1170 54 3100 180/07 RMK AO2
94908KDBQ DBQ20050612151509706/12/05 15:15:31  5-MIN KDBQ 122115Z 18005KT 10SM BKN044 28/18 A2982 1170 54 3000 180/05 RMK AO2
94908KDBQ DBQ20050612152009706/12/05 15:20:31  5-MIN KDBQ 122120Z 16006KT 10SM BKN044 29/18 A2982 1170 52 3100 160/06 RMK AO2
94908KDBQ DBQ20050612152509706/12/05 15:25:31  5-MIN KDBQ 122125Z 18008KT 10SM BKN044 28/18 A2982 1170 54 3000 180/08 RMK AO2
94908KDBQ DBQ20050612153009706/12/05 15:30:31  5-MIN KDBQ 122130Z 20007KT 10SM BKN044 29/19 A2982 1170 54 3100 200/07 RMK AO2
94908KDBQ DBQ20050612153509706/12/05 15:35:31  5-MIN KDBQ 122135Z 14006KT 10SM BKN046 29/19 A2982 1170 54 3100 140/06 RMK AO2
94908KDBQ DBQ20050612154009706/12/05 15:40:31  5-MIN KDBQ 122140Z 12005KT 10SM BKN046 29/18 A2982 1180 52 3100 120/05 RMK AO2
94908KDBQ DBQ20050612154509706/12/05 15:45:31  5-MIN KDBQ 122145Z 18007KT 10SM BKN046 29/18 A2982 1170 52 3100 180/07 RMK AO2
94908KDBQ DBQ20050612155011406/12/05 15:50:31  5-MIN KDBQ 122150Z 14008KT 10SM BKN048 29/18 A2982 1170 50 3100 140/08 RMK AO2 SLP089 T02890178
94908KDBQ DBQ20050612155511406/12/05 15:55:31  5-MIN KDBQ 122155Z 12007KT 10SM BKN048 29/18 A2982 1180 50 3100 120/07 RMK AO2 SLP088 T02890178
94908KDBQ DBQ20050612160009706/12/05 16:00:31  5-MIN KDBQ 122200Z 12007KT 10SM BKN048 29/18 A2981 1180 52 3100 120/07 RMK AO2
94908KDBQ DBQ20050612160509706/12/05 16:05:31  5-MIN KDBQ 122205Z 14007KT 10SM BKN048 29/18 A2981 1180 52 3100 130/07 RMK AO2
94908KDBQ DBQ20050612161009706/12/05 16:10:31  5-MIN KDBQ 122210Z 15008KT 10SM BKN048 28/18 A2981 1180 54 3000 150/08 RMK AO2
94908KDBQ DBQ20050612161509706/12/05 16:15:31  5-MIN KDBQ 122215Z 13007KT 10SM SCT048 29/18 A2981 1180 52 3100 130/07 RMK AO2
94908KDBQ DBQ20050612162009706/12/05 16:20:31  5-MIN KDBQ 122220Z 14007KT 10SM SCT046 28/19 A2981 1180 56 3000 140/07 RMK AO2
94908KDBQ DBQ20050612162511406/12/05 16:25:31  5-MIN KDBQ 122225Z 13007KT 100V170 10SM FEW046 28/19  A2980 1190 56 3000 130/07 100V170 RMK AO2
94908KDBQ DBQ20050612163009706/12/05 16:30:31  5-MIN KDBQ 122230Z 12007KT 10SM FEW046 28/19 A2980 1190 56 3000 120/07 RMK AO2
94908KDBQ DBQ20050612163509406/12/05 16:35:31  5-MIN KDBQ 122235Z 14008KT 10SM CLR 28/19 A2981 1190 60 3000 140/08 RMK AO2
94908KDBQ DBQ20050612164009406/12/05 16:40:31  5-MIN KDBQ 122240Z 14006KT 10SM CLR 28/18 A2980 1190 56 3000 140/06 RMK AO2
94908KDBQ DBQ20050612164509406/12/05 16:45:31  5-MIN KDBQ 122245Z 14010KT 10SM CLR 28/19 A2980 1190 60 3000 140/10 RMK AO2
94908KDBQ DBQ20050612165011106/12/05 16:50:31  5-MIN KDBQ 122250Z 14009KT 10SM CLR 28/20 A2981 1190 62 3000 140/09 RMK AO2 SLP086 T02780200
94908KDBQ DBQ20050612165511106/12/05 16:55:31  5-MIN KDBQ 122255Z 14008KT 10SM CLR 28/20 A2981 1180 62 3000 140/08 RMK AO2 SLP086 T02780200
94908KDBQ DBQ20050612170009406/12/05 17:00:31  5-MIN KDBQ 122300Z 14008KT 10SM CLR 28/20 A2981 1190 62 3000 140/08 RMK AO2
94908KDBQ DBQ20050612170509406/12/05 17:05:31  5-MIN KDBQ 122305Z 15008KT 10SM CLR 28/20 A2980 1190 62 3000 150/08 RMK AO2
94908KDBQ DBQ20050612171009406/12/05 17:10:31  5-MIN KDBQ 122310Z 14009KT 10SM CLR 28/20 A2981 1180 62 3000 130/09 RMK AO2
94908KDBQ DBQ20050612171509406/12/05 17:15:31  5-MIN KDBQ 122315Z 13008KT 10SM CLR 28/19 A2980 1190 60 3000 130/08 RMK AO2
94908KDBQ DBQ20050612172009406/12/05 17:20:31  5-MIN KDBQ 122320Z 13008KT 10SM CLR 28/20 A2980 1190 62 3000 120/08 RMK AO2
94908KDBQ DBQ20050612172509406/12/05 17:25:31  5-MIN KDBQ 122325Z 13008KT 10SM CLR 28/20 A2980 1190 62 3000 130/08 RMK AO2
94908KDBQ DBQ20050612173009406/12/05 17:30:31  5-MIN KDBQ 122330Z 14008KT 10SM CLR 28/20 A2980 1190 62 3000 140/08 RMK AO2
94908KDBQ DBQ20050612173509406/12/05 17:35:31  5-MIN KDBQ 122335Z 13007KT 10SM CLR 28/20 A2980 1190 62 3000 130/07 RMK AO2
94908KDBQ DBQ20050612174009406/12/05 17:40:31  5-MIN KDBQ 122340Z 13007KT 10SM CLR 28/20 A2980 1190 62 3000 130/07 RMK AO2
94908KDBQ DBQ20050612174509406/12/05 17:45:31  5-MIN KDBQ 122345Z 13007KT 10SM CLR 28/20 A2980 1190 62 3000 130/07 RMK AO2
94908KDBQ DBQ20050612175012906/12/05 17:50:31  5-MIN KDBQ 122350Z 13007KT 10SM CLR 28/19 A2980 1190 60 3000 130/07 RMK AO2 SLP084 T02780194 10289 20267 57012
94908KDBQ DBQ20050612175512906/12/05 17:55:31  5-MIN KDBQ 122355Z 12008KT 10SM CLR 28/20 A2980 1190 62 3000 120/08 RMK AO2 SLP084 T02780200 10289 20267 56008
94908KDBQ DBQ20050612180009406/12/05 18:00:31  5-MIN KDBQ 130000Z 13008KT 10SM CLR 28/20 A2980 1190 62 3000 130/08 RMK AO2
94908KDBQ DBQ20050612180509406/12/05 18:05:31  5-MIN KDBQ 130005Z 14007KT 10SM CLR 28/19 A2980 1190 60 3000 140/07 RMK AO2
94908KDBQ DBQ20050612181009406/12/05 18:10:31  5-MIN KDBQ 130010Z 14007KT 10SM CLR 27/20 A2980 1190 64 2900 140/07 RMK AO2
94908KDBQ DBQ20050612181509406/12/05 18:15:31  5-MIN KDBQ 130015Z 13005KT 10SM CLR 27/20 A2980 1190 64 2900 130/05 RMK AO2
94908KDBQ DBQ20050612182009406/12/05 18:20:31  5-MIN KDBQ 130020Z 13006KT 10SM CLR 27/20 A2980 1190 64 2900 130/06 RMK AO2
94908KDBQ DBQ20050612182509706/12/05 18:25:31  5-MIN KDBQ 130025Z 14005KT 10SM FEW110 27/20 A2980 1190 64 2900 140/05 RMK AO2
94908KDBQ DBQ20050612183010706/12/05 18:30:31  5-MIN KDBQ 130030Z AUTO 13004KT 10SM FEW110 27/21 A2980 1190 66 2900 130/04 RMK AO2 TSNO
94908KDBQ DBQ20050612183510506/12/05 18:35:31  5-MIN KDBQ 130035Z AUTO 13005KT 10SM CLR 27/21 A2981  1180 66 2900 130/05 RMK AO2 TSNO
94908KDBQ DBQ20050612184010506/12/05 18:40:31  5-MIN KDBQ 130040Z AUTO 13005KT 10SM CLR 27/21 A2981  1180 66 2900 120/05 RMK AO2 TSNO
94908KDBQ DBQ20050612184510506/12/05 18:45:31  5-MIN KDBQ 130045Z AUTO 12005KT 10SM CLR 27/20 A2980  1190 64 2900 120/05 RMK AO2 TSNO
94908KDBQ DBQ20050612185012206/12/05 18:50:31  5-MIN KDBQ 130050Z AUTO 13004KT 10SM CLR 27/20 A2981  1180 66 2800 130/04 RMK AO2 SLP086 T02670200 TSNO
94908KDBQ DBQ20050612185512206/12/05 18:55:31  5-MIN KDBQ 130055Z AUTO 12004KT 10SM CLR 27/20 A2981  1180 66 2800 120/04 RMK AO2 SLP086 T02670200 TSNO
94908KDBQ DBQ20050612190010506/12/05 19:00:31  5-MIN KDBQ 130100Z AUTO 12005KT 10SM CLR 26/21 A2980  1190 71 2800 120/05 RMK AO2 TSNO
94908KDBQ DBQ20050612190510506/12/05 19:05:31  5-MIN KDBQ 130105Z AUTO 13005KT 10SM CLR 26/21 A2980  1190 71 2800 130/05 RMK AO2 TSNO
94908KDBQ DBQ20050612191010306/12/05 19:10:31  5-MIN KDBQ 130110Z AUTO 13004KT 9SM CLR 26/20 A2980 1190 68 2800 130/04 RMK AO2 TSNO
94908KDBQ DBQ20050612191510306/12/05 19:15:31  5-MIN KDBQ 130115Z AUTO 13004KT 9SM CLR 26/21 A2980 1190 71 2800 130/04 RMK AO2 TSNO
94908KDBQ DBQ20050612192010306/12/05 19:20:31  5-MIN KDBQ 130120Z AUTO 13004KT 9SM CLR 26/21 A2980 1190 73 2700 120/04 RMK AO2 TSNO
94908KDBQ DBQ20050612192510306/12/05 19:25:31  5-MIN KDBQ 130125Z AUTO 13004KT 9SM CLR 26/21 A2980 1190 73 2700 130/04 RMK AO2 TSNO
94908KDBQ DBQ20050612193010306/12/05 19:30:31  5-MIN KDBQ 130130Z AUTO 13004KT 9SM CLR 26/20 A2980 1190 71 2700 130/04 RMK AO2 TSNO
94908KDBQ DBQ20050612193510306/12/05 19:35:31  5-MIN KDBQ 130135Z AUTO 13004KT 9SM CLR 25/21 A2980 1190 76 2700 130/04 RMK AO2 TSNO
94908KDBQ DBQ20050612194010306/12/05 19:40:31  5-MIN KDBQ 130140Z AUTO 14003KT 8SM CLR 25/20 A2980 1190 73 2700 140/03 RMK AO2 TSNO
94908KDBQ DBQ20050612194510306/12/05 19:45:31  5-MIN KDBQ 130145Z AUTO 14003KT 8SM CLR 25/21 A2980 1190 76 2700 140/03 RMK AO2 TSNO
94908KDBQ DBQ20050612195012006/12/05 19:50:31  5-MIN KDBQ 130150Z AUTO 14004KT 8SM CLR 25/21 A2980 1190 76 2700 140/04 RMK AO2 SLP084 T02500206 TSNO
94908KDBQ DBQ20050612195512006/12/05 19:55:31  5-MIN KDBQ 130155Z AUTO 14003KT 8SM CLR 25/21 A2980 1190 76 2700 140/03 RMK AO2 SLP083 T02500206 TSNO
94908KDBQ DBQ20050612200010306/12/05 20:00:31  5-MIN KDBQ 130200Z AUTO 14004KT 9SM CLR 24/21 A2980 1190 78 2600 140/04 RMK AO2 TSNO
94908KDBQ DBQ20050612200510306/12/05 20:05:31  5-MIN KDBQ 130205Z AUTO 14005KT 9SM CLR 24/20 A2979 1200 76 2600 130/05 RMK AO2 TSNO
94908KDBQ DBQ20050612201010506/12/05 20:10:31  5-MIN KDBQ 130210Z AUTO 14005KT 10SM CLR 24/20 A2979  1200 76 2600 130/05 RMK AO2 TSNO
94908KDBQ DBQ20050612201510506/12/05 20:15:31  5-MIN KDBQ 130215Z AUTO 14006KT 10SM CLR 24/20 A2979  1200 76 2600 140/06 RMK AO2 TSNO
94908KDBQ DBQ20050612202010506/12/05 20:20:31  5-MIN KDBQ 130220Z AUTO 14006KT 10SM CLR 24/20 A2979  1200 78 2500 140/06 RMK AO2 TSNO
94908KDBQ DBQ20050612202510506/12/05 20:25:31  5-MIN KDBQ 130225Z AUTO 14006KT 10SM CLR 24/20 A2979  1200 78 2500 140/06 RMK AO2 TSNO
94908KDBQ DBQ20050612203010506/12/05 20:30:31  5-MIN KDBQ 130230Z AUTO 14006KT 10SM CLR 24/20 A2979  1200 76 2600 140/06 RMK AO2 TSNO
94908KDBQ DBQ20050612203510506/12/05 20:35:31  5-MIN KDBQ 130235Z AUTO 13006KT 10SM CLR 24/20 A2979  1200 76 2600 130/06 RMK AO2 TSNO
94908KDBQ DBQ20050612204010506/12/05 20:40:31  5-MIN KDBQ 130240Z AUTO 14005KT 10SM CLR 24/19 A2980  1190 73 2600 140/05 RMK AO2 TSNO
94908KDBQ DBQ20050612204510506/12/05 20:45:31  5-MIN KDBQ 130245Z AUTO 14005KT 10SM CLR 24/20 A2980  1190 78 2500 140/05 RMK AO2 TSNO
94908KDBQ DBQ20050612205012806/12/05 20:50:31  5-MIN KDBQ 130250Z AUTO 14006KT 10SM CLR 24/20 A2980  1190 78 2500 140/06 RMK AO2 SLP083 T02390200 56008 TSNO
94908KDBQ DBQ20050612205512806/12/05 20:55:31  5-MIN KDBQ 130255Z AUTO 14005KT 10SM CLR 24/20 A2980  1190 78 2500 140/05 RMK AO2 SLP083 T02390200 58000 TSNO
94908KDBQ DBQ20050612210010506/12/05 21:00:31  5-MIN KDBQ 130300Z AUTO 15005KT 10SM CLR 24/19 A2980  1190 76 2500 140/05 RMK AO2 TSNO
94908KDBQ DBQ20050612210510506/12/05 21:05:31  5-MIN KDBQ 130305Z AUTO 15005KT 10SM CLR 24/19 A2980  1190 76 2500 150/05 RMK AO2 TSNO
94908KDBQ DBQ20050612211010506/12/05 21:10:31  5-MIN KDBQ 130310Z AUTO 15005KT 10SM CLR 24/19 A2980  1190 76 2500 150/05 RMK AO2 TSNO
94908KDBQ DBQ20050612211510506/12/05 21:15:31  5-MIN KDBQ 130315Z AUTO 16005KT 10SM CLR 24/19 A2981  1180 76 2500 160/05 RMK AO2 TSNO
94908KDBQ DBQ20050612212010506/12/05 21:20:31  5-MIN KDBQ 130320Z AUTO 16005KT 10SM CLR 23/19 A2981  1180 78 2500 160/05 RMK AO2 TSNO
94908KDBQ DBQ20050612212510506/12/05 21:25:31  5-MIN KDBQ 130325Z AUTO 15006KT 10SM CLR 23/19 A2980  1190 78 2500 150/06 RMK AO2 TSNO
94908KDBQ DBQ20050612213010506/12/05 21:30:31  5-MIN KDBQ 130330Z AUTO 16004KT 10SM CLR 23/19 A2981  1180 78 2500 160/04 RMK AO2 TSNO
94908KDBQ DBQ20050612213510506/12/05 21:35:31  5-MIN KDBQ 130335Z AUTO 20003KT 10SM CLR 23/19 A2981  1180 81 2400 200/03 RMK AO2 TSNO
94908KDBQ DBQ20050612214010306/12/05 21:40:31  5-MIN KDBQ 130340Z AUTO 19004KT 9SM CLR 23/19 A2981 1180 81 2400 180/04 RMK AO2 TSNO
94908KDBQ DBQ20050612214510306/12/05 21:45:31  5-MIN KDBQ 130345Z AUTO 17005KT 9SM CLR 23/19 A2980 1190 81 2400 170/05 RMK AO2 TSNO
94908KDBQ DBQ20050612215012006/12/05 21:50:31  5-MIN KDBQ 130350Z AUTO 16005KT 9SM CLR 23/19 A2981 1180 81 2400 160/05 RMK AO2 SLP086 T02280194 TSNO
94908KDBQ DBQ20050612215512006/12/05 21:55:31  5-MIN KDBQ 130355Z AUTO 00000KT 9SM CLR 22/19 A2981 1180 84 2300 000/00 RMK AO2 SLP086 T02220194 TSNO
94908KDBQ DBQ20050612220010306/12/05 22:00:31  5-MIN KDBQ 130400Z AUTO 00000KT 9SM CLR 23/19 A2981 1180 81 2400 000/00 RMK AO2 TSNO
94908KDBQ DBQ20050612220510306/12/05 22:05:31  5-MIN KDBQ 130405Z AUTO 00000KT 9SM CLR 23/19 A2981 1180 81 2400 000/00 RMK AO2 TSNO
94908KDBQ DBQ20050612221010306/12/05 22:10:31  5-MIN KDBQ 130410Z AUTO 14004KT 9SM CLR 23/19 A2981 1180 81 2400 140/04 RMK AO2 TSNO
94908KDBQ DBQ20050612221510306/12/05 22:15:31  5-MIN KDBQ 130415Z AUTO 13006KT 9SM CLR 23/19 A2981 1180 78 2500 130/06 RMK AO2 TSNO
94908KDBQ DBQ20050612222010506/12/05 22:20:31  5-MIN KDBQ 130420Z AUTO 14007KT 10SM CLR 23/19 A2981  1180 81 2400 140/07 RMK AO2 TSNO
94908KDBQ DBQ20050612222510506/12/05 22:25:31  5-MIN KDBQ 130425Z AUTO 15006KT 10SM CLR 23/19 A2981  1180 81 2400 150/06 RMK AO2 TSNO
94908KDBQ DBQ20050612223010506/12/05 22:30:31  5-MIN KDBQ 130430Z AUTO 15007KT 10SM CLR 23/19 A2981  1180 81 2400 150/07 RMK AO2 TSNO
94908KDBQ DBQ20050612223510506/12/05 22:35:31  5-MIN KDBQ 130435Z AUTO 16006KT 10SM CLR 23/19 A2981  1180 81 2400 160/06 RMK AO2 TSNO
94908KDBQ DBQ20050612224010506/12/05 22:40:31  5-MIN KDBQ 130440Z AUTO 15007KT 10SM CLR 23/19 A2981  1180 81 2400 150/07 RMK AO2 TSNO
94908KDBQ DBQ20050612224510306/12/05 22:45:31  5-MIN KDBQ 130445Z AUTO 15006KT 9SM CLR 23/19 A2981 1180 81 2400 150/06 RMK AO2 TSNO
94908KDBQ DBQ20050612225012006/12/05 22:50:31  5-MIN KDBQ 130450Z AUTO 15006KT 9SM CLR 22/19 A2980 1190 84 2300 150/06 RMK AO2 SLP085 T02220194 TSNO
94908KDBQ DBQ20050612225512006/12/05 22:55:31  5-MIN KDBQ 130455Z AUTO 16007KT 9SM CLR 22/19 A2980 1190 84 2300 160/07 RMK AO2 SLP084 T02220194 TSNO
94908KDBQ DBQ20050612230010306/12/05 23:00:31  5-MIN KDBQ 130500Z AUTO 16007KT 9SM CLR 23/19 A2980 1190 81 2400 160/07 RMK AO2 TSNO
94908KDBQ DBQ20050612230510306/12/05 23:05:31  5-MIN KDBQ 130505Z AUTO 16007KT 9SM CLR 23/20 A2980 1190 84 2400 160/07 RMK AO2 TSNO
94908KDBQ DBQ20050612231010306/12/05 23:10:31  5-MIN KDBQ 130510Z AUTO 16006KT 8SM CLR 22/20 A2980 1190 87 2300 160/06 RMK AO2 TSNO
94908KDBQ DBQ20050612231510306/12/05 23:15:31  5-MIN KDBQ 130515Z AUTO 16007KT 8SM CLR 22/20 A2980 1190 87 2300 160/07 RMK AO2 TSNO
94908KDBQ DBQ20050612232010306/12/05 23:20:31  5-MIN KDBQ 130520Z AUTO 16006KT 8SM CLR 22/20 A2980 1190 87 2300 150/06 RMK AO2 TSNO
94908KDBQ DBQ20050612232510306/12/05 23:25:31  5-MIN KDBQ 130525Z AUTO 16006KT 8SM CLR 22/20 A2980 1190 87 2300 160/06 RMK AO2 TSNO
94908KDBQ DBQ20050612233010306/12/05 23:30:31  5-MIN KDBQ 130530Z AUTO 17005KT 7SM CLR 22/20 A2980 1190 87 2300 170/05 RMK AO2 TSNO
94908KDBQ DBQ20050612233510306/12/05 23:35:31  5-MIN KDBQ 130535Z AUTO 18006KT 7SM CLR 22/20 A2980 1190 90 2300 170/06 RMK AO2 TSNO
94908KDBQ DBQ20050612234010306/12/05 23:40:31  5-MIN KDBQ 130540Z AUTO 18005KT 7SM CLR 22/20 A2980 1190 90 2300 180/05 RMK AO2 TSNO
94908KDBQ DBQ20050612234510306/12/05 23:45:31  5-MIN KDBQ 130545Z AUTO 19004KT 7SM CLR 22/19 A2980 1190 87 2300 190/04 RMK AO2 TSNO
94908KDBQ DBQ20050612235014806/12/05 23:50:31  5-MIN KDBQ 130550Z AUTO 19004KT 7SM CLR 22/19 A2980 1190 87 2300 190/04 RMK AO2 SLP083 T02170194 10278 20217 402890194 58000 TSNO
94908KDBQ DBQ20050612235515306/12/05 23:55:31  5-MIN KDBQ 130555Z AUTO 19004KT 6SM BR CLR 21/19 A2979  1200 90 2200 190/04 RMK AO2 SLP082 T02110194 10278 20211 402890194 58001  TSNO
94908KDBQ DBQ20050613000010706/13/05 00:00:38  5-MIN KDBQ 130600Z AUTO 00000KT 6SM BR CLR 21/19 A2979  1200 90 2200 000/00 RMK AO2 TSNO
94908KDBQ DBQ20050613000510706/13/05 00:05:31  5-MIN KDBQ 130605Z AUTO 00000KT 6SM BR CLR 21/19 A2979  1200 90 2200 000/00 RMK AO2 TSNO
94908KDBQ DBQ20050613001010706/13/05 00:10:31  5-MIN KDBQ 130610Z AUTO 00000KT 6SM BR CLR 22/19 A2979  1200 87 2300 000/00 RMK AO2 TSNO
94908KDBQ DBQ20050613001510706/13/05 00:15:32  5-MIN KDBQ 130615Z AUTO 00000KT 6SM BR CLR 22/19 A2979  1200 87 2300 000/00 RMK AO2 TSNO
94908KDBQ DBQ20050613002010706/13/05 00:20:31  5-MIN KDBQ 130620Z AUTO 19003KT 6SM BR CLR 21/19 A2979  1200 90 2200 190/03 RMK AO2 TSNO
94908KDBQ DBQ20050613002510706/13/05 00:25:31  5-MIN KDBQ 130625Z AUTO 19003KT 6SM BR CLR 21/19 A2979  1200 90 2200 190/03 RMK AO2 TSNO
94908KDBQ DBQ20050613003010706/13/05 00:30:31  5-MIN KDBQ 130630Z AUTO 17003KT 6SM BR CLR 21/19 A2979  1200 90 2200 160/03 RMK AO2 TSNO
94908KDBQ DBQ20050613003510706/13/05 00:35:31  5-MIN KDBQ 130635Z AUTO 15004KT 6SM BR CLR 21/19 A2978  1210 90 2200 150/04 RMK AO2 TSNO
94908KDBQ DBQ20050613004010706/13/05 00:40:31  5-MIN KDBQ 130640Z AUTO 14004KT 6SM BR CLR 21/19 A2978  1210 90 2200 140/04 RMK AO2 TSNO
94908KDBQ DBQ20050613004510706/13/05 00:45:31  5-MIN KDBQ 130645Z AUTO 16005KT 6SM BR CLR 21/19 A2978  1210 90 2200 160/05 RMK AO2 TSNO
94908KDBQ DBQ20050613005012406/13/05 00:50:31  5-MIN KDBQ 130650Z AUTO 16006KT 6SM BR CLR 21/19 A2978  1210 90 2200 160/06 RMK AO2 SLP077 T02110194 TSNO
94908KDBQ DBQ20050613005512406/13/05 00:55:31  5-MIN KDBQ 130655Z AUTO 16006KT 6SM BR CLR 22/19 A2978  1210 87 2300 160/06 RMK AO2 SLP076 T02170194 TSNO
94908KDBQ DBQ20050613010010706/13/05 01:00:31  5-MIN KDBQ 130700Z AUTO 15007KT 6SM BR CLR 21/19 A2978  1210 90 2200 150/07 RMK AO2 TSNO
94908KDBQ DBQ20050613010510706/13/05 01:05:31  5-MIN KDBQ 130705Z AUTO 16008KT 6SM BR CLR 21/19 A2978  1210 90 2200 160/08 RMK AO2 TSNO
94908KDBQ DBQ20050613011010706/13/05 01:10:31  5-MIN KDBQ 130710Z AUTO 16007KT 6SM BR CLR 22/19 A2977  1220 87 2300 160/07 RMK AO2 TSNO
94908KDBQ DBQ20050613011510706/13/05 01:15:31  5-MIN KDBQ 130715Z AUTO 15006KT 6SM BR CLR 21/19 A2977  1220 90 2200 150/06 RMK AO2 TSNO
94908KDBQ DBQ20050613012010706/13/05 01:20:31  5-MIN KDBQ 130720Z AUTO 15006KT 6SM BR CLR 21/19 A2977  1220 90 2300 140/06 RMK AO2 TSNO
94908KDBQ DBQ20050613012510706/13/05 01:25:31  5-MIN KDBQ 130725Z AUTO 14006KT 5SM BR CLR 21/19 A2977  1220 90 2300 140/06 RMK AO2 TSNO
94908KDBQ DBQ20050613013010706/13/05 01:30:31  5-MIN KDBQ 130730Z AUTO 14006KT 5SM BR CLR 21/19 A2976  1230 90 2300 130/06 RMK AO2 TSNO
94908KDBQ DBQ20050613013510706/13/05 01:35:31  5-MIN KDBQ 130735Z AUTO 14007KT 5SM BR CLR 21/19 A2976  1230 90 2300 140/07 RMK AO2 TSNO
94908KDBQ DBQ20050613014010706/13/05 01:40:31  5-MIN KDBQ 130740Z AUTO 13007KT 5SM BR CLR 21/19 A2976  1230 90 2300 130/07 RMK AO2 TSNO
94908KDBQ DBQ20050613113510506/13/05 11:35:31  5-MIN KDBQ 131735Z 17008KT 10SM SCT020 SCT027 25/19  A2974 1250 71 2700 170/08 RMK AO2
94908KDBQ DBQ20050613114010506/13/05 11:40:31  5-MIN KDBQ 131740Z 19008KT 10SM SCT020 SCT027 26/19  A2973 1250 68 2800 190/08 RMK AO2
94908KDBQ DBQ20050613114510506/13/05 11:45:31  5-MIN KDBQ 131745Z 19009KT 10SM SCT020 SCT027 25/19  A2974 1250 71 2700 190/09 RMK AO2
94908KDBQ DBQ20050613115014006/13/05 11:50:31  5-MIN KDBQ 131750Z 20009KT 10SM SCT020 SCT027 26/19  A2973 1250 66 2800 190/09 RMK AO2 SLP061 T02560189 10256 20211 58003
94908KDBQ DBQ20050613115513206/13/05 11:55:31  5-MIN KDBQ 131755Z 21011KT 10SM FEW027 26/19 A2973 1250 64 2900 210/11 RMK AO2 SLP061 T02610189 10261 20211 58004
94908KDBQ DBQ20050613120009706/13/05 12:00:31  5-MIN KDBQ 131800Z 17009KT 10SM FEW025 26/19 A2973 1250 66 2900 170/09 RMK AO2
94908KDBQ DBQ20050613120509706/13/05 12:05:31  5-MIN KDBQ 131805Z 22010KT 10SM FEW025 26/19 A2973 1250 64 2900 210/10 RMK AO2
94908KDBQ DBQ20050613121009706/13/05 12:10:31  5-MIN KDBQ 131810Z 20009KT 10SM FEW025 27/19 A2973 1250 64 2900 200/09 RMK AO2
94908KDBQ DBQ20050613121509406/13/05 12:15:31  5-MIN KDBQ 131815Z 19009KT 10SM CLR 26/19 A2973 1260 64 2900 180/09 RMK AO2
94908KDBQ DBQ20050613122009406/13/05 12:20:31  5-MIN KDBQ 131820Z 20012KT 10SM CLR 27/18 A2973 1260 57 2900 200/12 RMK AO2
94908KDBQ DBQ20050613122510006/13/05 12:25:31  5-MIN KDBQ 131825Z 19009G17KT 10SM CLR 26/18 A2973 1260 62 2900 190/09G17 RMK AO2
94908KDBQ DBQ20050613123009706/13/05 12:30:31  5-MIN KDBQ 131830Z 20011KT 10SM FEW035 27/18 A2973 1250 57 2900 200/11 RMK AO2
94908KDBQ DBQ20050613123509706/13/05 12:35:31  5-MIN KDBQ 131835Z 20010KT 10SM SCT037 26/18 A2973 1260 62 2900 200/10 RMK AO2
94908KDBQ DBQ20050613124011106/13/05 12:40:31  5-MIN KDBQ 131840Z 20014G20KT 10SM SCT037 SCT045 27/18  A2972 1260 60 2900 200/14G20 RMK AO2
94908KDBQ DBQ20050613124511106/13/05 12:45:31  5-MIN KDBQ 131845Z 20016G20KT 10SM SCT037 BKN048 26/17  A2972 1260 57 2900 200/16G20 RMK AO2
94908KDBQ DBQ20050613125012806/13/05 12:50:31  5-MIN KDBQ 131850Z 21011G20KT 10SM FEW037 BKN048 27/18  A2972 1260 57 2900 210/11G20 RMK AO2 SLP057 T02670178
94908KDBQ DBQ20050613125512206/13/05 12:55:31  5-MIN KDBQ 131855Z 22011KT 10SM SCT041 SCT048 27/17  A2972 1270 55 2900 220/11 RMK AO2 SLP055 T02670172
94908KDBQ DBQ20050613130010506/13/05 13:00:31  5-MIN KDBQ 131900Z 21013KT 10SM SCT041 SCT048 27/18  A2971 1270 57 2900 200/13 RMK AO2
94908KDBQ DBQ20050613130510506/13/05 13:05:31  5-MIN KDBQ 131905Z 22012KT 10SM FEW041 SCT049 27/18  A2971 1270 56 3000 220/12 RMK AO2
94908KDBQ DBQ20050613131009706/13/05 13:10:31  5-MIN KDBQ 131910Z 23010KT 10SM FEW043 26/17 A2971 1270 57 2900 220/10 RMK AO2
94908KDBQ DBQ20050613131509706/13/05 13:15:31  5-MIN KDBQ 131915Z 21009KT 10SM FEW039 26/18 A2971 1270 61 2800 210/09 RMK AO2
94908KDBQ DBQ20050613132009706/13/05 13:20:31  5-MIN KDBQ 131920Z 19013KT 10SM FEW039 26/18 A2971 1270 59 2900 190/13 RMK AO2
94908KDBQ DBQ20050613132509706/13/05 13:25:31  5-MIN KDBQ 131925Z 19012KT 10SM FEW039 27/18 A2972 1270 60 2900 190/12 RMK AO2
94908KDBQ DBQ20050613133009706/13/05 13:30:31  5-MIN KDBQ 131930Z 19014KT 10SM FEW039 27/18 A2971 1270 58 3000 190/14 RMK AO2
94908KDBQ DBQ20050613133509706/13/05 13:35:31  5-MIN KDBQ 131935Z 20012KT 10SM FEW039 27/18 A2971 1270 58 3000 200/12 RMK AO2
94908KDBQ DBQ20050613134009706/13/05 13:40:31  5-MIN KDBQ 131940Z 20013KT 10SM FEW039 27/18 A2971 1270 58 3000 200/13 RMK AO2
94908KDBQ DBQ20050613134509706/13/05 13:45:31  5-MIN KDBQ 131945Z 19011KT 10SM FEW039 27/18 A2971 1280 60 2900 190/11 RMK AO2
94908KDBQ DBQ20050613135011406/13/05 13:50:31  5-MIN KDBQ 131950Z 21012KT 10SM FEW039 27/18 A2970 1280 58 3000 210/12 RMK AO2 SLP050 T02720183
94908KDBQ DBQ20050613135512106/13/05 13:55:31  5-MIN KDBQ 131955Z 21013G18KT 10SM FEW046 27/18 A2970  1280 56 3000 210/13G18 RMK AO2 SLP049 T02720178
94908KDBQ DBQ20050613140009706/13/05 14:00:31  5-MIN KDBQ 132000Z 19013KT 10SM FEW039 27/18 A2970 1280 58 3000 190/13 RMK AO2
94908KDBQ DBQ20050613140509706/13/05 14:05:31  5-MIN KDBQ 132005Z 19011KT 10SM FEW039 27/18 A2970 1280 60 3000 190/11 RMK AO2
94908KDBQ DBQ20050613141009706/13/05 14:10:31  5-MIN KDBQ 132010Z 18010KT 10SM SCT039 27/18 A2970 1280 58 3000 170/10 RMK AO2
94908KDBQ DBQ20050613141510406/13/05 14:15:31  5-MIN KDBQ 132015Z 20012G16KT 10SM SCT039 27/18 A2970  1280 58 3000 190/12G16 RMK AO2
94908KDBQ DBQ20050613142009706/13/05 14:20:31  5-MIN KDBQ 132020Z 18013KT 10SM SCT039 27/18 A2970 1280 58 3000 180/13 RMK AO2
94908KDBQ DBQ20050613142509706/13/05 14:25:31  5-MIN KDBQ 132025Z 18012KT 10SM SCT039 27/18 A2970 1280 58 3000 180/12 RMK AO2
94908KDBQ DBQ20050613143009706/13/05 14:30:31  5-MIN KDBQ 132030Z 18011KT 10SM FEW039 27/18 A2970 1280 58 3000 180/11 RMK AO2
94908KDBQ DBQ20050613143510506/13/05 14:35:31  5-MIN KDBQ 132035Z 20011KT 10SM FEW039 SCT055 27/18  A2970 1280 60 3000 200/11 RMK AO2
94908KDBQ DBQ20050613144010506/13/05 14:40:31  5-MIN KDBQ 132040Z 20014KT 10SM FEW039 SCT050 27/18  A2969 1290 58 3000 200/14 RMK AO2
94908KDBQ DBQ20050613144509706/13/05 14:45:31  5-MIN KDBQ 132045Z 21013KT 10SM FEW050 27/18 A2970 1290 56 3000 210/13 RMK AO2
94908KDBQ DBQ20050613145012006/13/05 14:50:31  5-MIN KDBQ 132050Z 20014KT 10SM FEW050 28/18 A2969 1290 54 3100 190/14 RMK AO2 SLP047 T02780178 58004
94908KDBQ DBQ20050613145512006/13/05 14:55:31  5-MIN KDBQ 132055Z 19010KT 10SM FEW050 27/18 A2969 1290 57 3000 190/10 RMK AO2 SLP047 T02670178 56014
94908KDBQ DBQ20050613150009706/13/05 15:00:31  5-MIN KDBQ 132100Z 21014KT 10SM FEW050 28/18 A2969 1290 56 3100 210/14 RMK AO2
94908KDBQ DBQ20050613150509706/13/05 15:05:31  5-MIN KDBQ 132105Z 21014KT 10SM FEW060 28/18 A2969 1290 54 3100 210/14 RMK AO2
94908KDBQ DBQ20050613151009706/13/05 15:10:31  5-MIN KDBQ 132110Z 20015KT 10SM FEW055 27/18 A2969 1290 56 3000 200/15 RMK AO2
94908KDBQ DBQ20050613151510506/13/05 15:15:31  5-MIN KDBQ 132115Z 20014KT 10SM FEW048 SCT060 27/18  A2969 1290 56 3000 200/14 RMK AO2
94908KDBQ DBQ20050613152010506/13/05 15:20:31  5-MIN KDBQ 132120Z 21012KT 10SM FEW048 SCT060 27/18  A2969 1290 56 3000 210/12 RMK AO2
94908KDBQ DBQ20050613152510506/13/05 15:25:31  5-MIN KDBQ 132125Z 20013KT 10SM FEW050 SCT060 27/17  A2969 1300 54 3000 200/13 RMK AO2
94908KDBQ DBQ20050613153010506/13/05 15:30:31  5-MIN KDBQ 132130Z 20012KT 10SM FEW050 BKN060 27/18  A2968 1300 57 3000 200/12 RMK AO2
94908KDBQ DBQ20050613153510506/13/05 15:35:31  5-MIN KDBQ 132135Z 19014KT 10SM SCT050 BKN060 27/17  A2968 1300 54 3000 190/14 RMK AO2
94908KDBQ DBQ20050613154009706/13/05 15:40:31  5-MIN KDBQ 132140Z 20011KT 10SM SCT055 28/18 A2968 1300 54 3100 200/11 RMK AO2
94908KDBQ DBQ20050613154510506/13/05 15:45:31  5-MIN KDBQ 132145Z 20012KT 10SM SCT048 BKN060 28/18  A2968 1300 54 3100 200/12 RMK AO2
94908KDBQ DBQ20050613155012206/13/05 15:50:31  5-MIN KDBQ 132150Z 19013KT 10SM SCT048 BKN060 27/18  A2968 1300 56 3000 190/13 RMK AO2 SLP042 T02720178
94908KDBQ DBQ20050613155511406/13/05 15:55:31  5-MIN KDBQ 132155Z 21013KT 10SM BKN050 27/17 A2968 1300 54 3000 200/13 RMK AO2 SLP042 T02720172
94908KDBQ DBQ20050613160010506/13/05 16:00:31  5-MIN KDBQ 132200Z 20011KT 10SM SCT050 BKN060 27/17  A2968 1310 55 3000 200/11 RMK AO2
94908KDBQ DBQ20050613160510506/13/05 16:05:31  5-MIN KDBQ 132205Z 21011KT 10SM SCT050 BKN060 27/18  A2967 1310 56 3100 210/11 RMK AO2
94908KDBQ DBQ20050613161010506/13/05 16:10:31  5-MIN KDBQ 132210Z 20011KT 10SM SCT050 SCT060 27/18  A2967 1310 56 3000 200/11 RMK AO2
94908KDBQ DBQ20050613161510506/13/05 16:15:31  5-MIN KDBQ 132215Z 19010KT 10SM SCT050 BKN060 28/18  A2967 1310 54 3100 190/10 RMK AO2
94908KDBQ DBQ20050613162009706/13/05 16:20:31  5-MIN KDBQ 132220Z 20013KT 10SM BKN050 28/17 A2967 1310 52 3100 200/13 RMK AO2
94908KDBQ DBQ20050613162509706/13/05 16:25:31  5-MIN KDBQ 132225Z 20013KT 10SM BKN050 27/18 A2966 1320 56 3100 200/13 RMK AO2
94908KDBQ DBQ20050613163009706/13/05 16:30:31  5-MIN KDBQ 132230Z 19013KT 10SM BKN050 27/17 A2965 1330 52 3100 190/13 RMK AO2
94908KDBQ DBQ20050613163509706/13/05 16:35:31  5-MIN KDBQ 132235Z 20011KT 10SM SCT050 27/18 A2966 1320 56 3100 200/11 RMK AO2
94908KDBQ DBQ20050613164009706/13/05 16:40:31  5-MIN KDBQ 132240Z 19012KT 10SM BKN050 27/17 A2966 1320 54 3100 190/12 RMK AO2
94908KDBQ DBQ20050613164509706/13/05 16:45:31  5-MIN KDBQ 132245Z 20013KT 10SM BKN050 27/17 A2966 1320 54 3100 200/13 RMK AO2
94908KDBQ DBQ20050613165012206/13/05 16:50:31  5-MIN KDBQ 132250Z 20012KT 10SM BKN050 BKN055 27/17  A2967 1310 54 3100 200/12 RMK AO2 SLP038 T02720172
94908KDBQ DBQ20050613165511406/13/05 16:55:31  5-MIN KDBQ 132255Z 20012KT 10SM BKN050 27/17 A2966 1320 55 3000 200/12 RMK AO2 SLP037 T02670172
94908KDBQ DBQ20050613170009706/13/05 17:00:31  5-MIN KDBQ 132300Z 19014KT 10SM BKN050 27/17 A2967 1310 55 3000 190/14 RMK AO2
94908KDBQ DBQ20050613170509706/13/05 17:05:31  5-MIN KDBQ 132305Z 20013KT 10SM OVC050 26/17 A2968 1300 57 2900 200/13 RMK AO2
94908KDBQ DBQ20050613171009706/13/05 17:10:31  5-MIN KDBQ 132310Z 20012KT 10SM OVC050 26/17 A2967 1310 57 2900 200/12 RMK AO2
94908KDBQ DBQ20050613171509706/13/05 17:15:31  5-MIN KDBQ 132315Z 21012KT 10SM OVC055 26/17 A2968 1300 57 2900 210/12 RMK AO2
94908KDBQ DBQ20050613172010506/13/05 17:20:31  5-MIN KDBQ 132320Z 20010KT 10SM SCT050 OVC065 26/17  A2968 1300 59 2900 200/10 RMK AO2
94908KDBQ DBQ20050613172510506/13/05 17:25:31  5-MIN KDBQ 132325Z 20010KT 10SM BKN055 OVC070 26/17  A2968 1300 59 2900 200/10 RMK AO2
94908KDBQ DBQ20050613173010506/13/05 17:30:31  5-MIN KDBQ 132330Z 20011KT 10SM BKN050 OVC065 26/17  A2968 1300 59 2900 200/11 RMK AO2
94908KDBQ DBQ20050613173510506/13/05 17:35:31  5-MIN KDBQ 132335Z 20009KT 10SM SCT050 OVC065 26/18  A2967 1310 61 2900 200/09 RMK AO2
94908KDBQ DBQ20050613174010506/13/05 17:40:31  5-MIN KDBQ 132340Z 20010KT 10SM SCT050 BKN070 26/18  A2967 1310 59 2900 190/10 RMK AO2
94908KDBQ DBQ20050613174510506/13/05 17:45:31  5-MIN KDBQ 132345Z 19009KT 10SM SCT050 BKN070 26/18  A2967 1310 61 2900 190/09 RMK AO2
94908KDBQ DBQ20050613175014006/13/05 17:50:31  5-MIN KDBQ 132350Z 20011KT 10SM SCT050 BKN070 26/18  A2967 1310 59 2900 200/11 RMK AO2 SLP039 T02610178 10278 20256 56014
94908KDBQ DBQ20050613175514006/13/05 17:55:31  5-MIN KDBQ 132355Z 21012KT 10SM FEW050 SCT070 26/18  A2967 1310 59 2900 210/12 RMK AO2 SLP040 T02610178 10278 20256 55007
94908KDBQ DBQ20050613180009706/13/05 18:00:31  5-MIN KDBQ 140000Z 19011KT 10SM FEW055 26/18 A2966 1320 59 2900 190/11 RMK AO2
94908KDBQ DBQ20050613180509706/13/05 18:05:31  5-MIN KDBQ 140005Z 19011KT 10SM FEW050 26/18 A2966 1320 59 2900 190/11 RMK AO2
94908KDBQ DBQ20050613181010506/13/05 18:10:31  5-MIN KDBQ 140010Z AUTO 18012KT 10SM CLR 26/18 A2966  1320 59 2900 180/12 RMK AO2 TSNO
94908KDBQ DBQ20050613181510506/13/05 18:15:31  5-MIN KDBQ 140015Z AUTO 20010KT 10SM CLR 26/18 A2966  1320 59 2900 190/10 RMK AO2 TSNO
94908KDBQ DBQ20050613182010506/13/05 18:20:31  5-MIN KDBQ 140020Z AUTO 19012KT 10SM CLR 26/17 A2966  1320 59 2900 190/12 RMK AO2 TSNO
94908KDBQ DBQ20050613182510506/13/05 18:25:31  5-MIN KDBQ 140025Z AUTO 19010KT 10SM CLR 26/17 A2967  1310 59 2900 190/10 RMK AO2 TSNO
94908KDBQ DBQ20050613183010706/13/05 18:30:31  5-MIN KDBQ 140030Z AUTO 20010KT 10SM FEW047 26/18 A2967 1320 61 2900 200/10 RMK AO2 TSNO
94908KDBQ DBQ20050613183510706/13/05 18:35:31  5-MIN KDBQ 140035Z AUTO 19009KT 10SM FEW047 25/18 A2966 1320 64 2800 190/09 RMK AO2 TSNO
94908KDBQ DBQ20050613184010506/13/05 18:40:31  5-MIN KDBQ 140040Z AUTO 18008KT 10SM CLR 25/18 A2966  1320 64 2800 180/08 RMK AO2 TSNO
94908KDBQ DBQ20050613184510506/13/05 18:45:31  5-MIN KDBQ 140045Z AUTO 17006KT 10SM CLR 26/18 A2965  1330 61 2900 170/06 RMK AO2 TSNO
94908KDBQ DBQ20050613185012206/13/05 18:50:31  5-MIN KDBQ 140050Z AUTO 18007KT 10SM CLR 26/18 A2965  1330 61 2900 180/07 RMK AO2 SLP034 T02560178 TSNO
94908KDBQ DBQ20050613185512206/13/05 18:55:31  5-MIN KDBQ 140055Z AUTO 17007KT 10SM CLR 26/18 A2965  1330 64 2900 170/07 RMK AO2 SLP033 T02560183 TSNO
94908KDBQ DBQ20050613190010706/13/05 19:00:31  5-MIN KDBQ 140100Z AUTO 18008KT 10SM FEW048 25/18 A2965 1330 64 2800 180/08 RMK AO2 TSNO
94908KDBQ DBQ20050613190510706/13/05 19:05:31  5-MIN KDBQ 140105Z AUTO 18007KT 10SM FEW050 25/18 A2965 1330 64 2800 180/07 RMK AO2 TSNO
94908KDBQ DBQ20050613191011406/13/05 19:10:31  5-MIN KDBQ 140110Z AUTO 18007KT 10SM FEW043 SCT050 25/18 A2965 1330 66 2800 180/07 RMK AO2 TSNO
94908KDBQ DBQ20050613191511406/13/05 19:15:31  5-MIN KDBQ 140115Z AUTO 18008KT 10SM BKN045 BKN050 25/18 A2965 1330 66 2800 180/08 RMK AO2 TSNO
94908KDBQ DBQ20050613192011406/13/05 19:20:31  5-MIN KDBQ 140120Z AUTO 18007KT 10SM BKN043 BKN050 25/18 A2965 1330 64 2800 180/07 RMK AO2 TSNO
94908KDBQ DBQ20050613192511406/13/05 19:25:31  5-MIN KDBQ 140125Z AUTO 18006KT 10SM BKN043 BKN050 25/18 A2965 1330 66 2800 180/06 RMK AO2 TSNO
94908KDBQ DBQ20050613193011406/13/05 19:30:31  5-MIN KDBQ 140130Z AUTO 18006KT 10SM BKN043 BKN050 24/18 A2964 1340 68 2800 170/06 RMK AO2 TSNO
94908KDBQ DBQ20050613193510706/13/05 19:35:31  5-MIN KDBQ 140135Z AUTO 17007KT 10SM BKN043 24/18 A2964 1340 68 2800 170/07 RMK AO2 TSNO
94908KDBQ DBQ20050613194010706/13/05 19:40:31  5-MIN KDBQ 140140Z AUTO 17008KT 10SM SCT043 24/18 A2964 1340 71 2700 170/08 RMK AO2 TSNO
94908KDBQ DBQ20050613194510706/13/05 19:45:31  5-MIN KDBQ 140145Z AUTO 16007KT 10SM SCT043 24/18 A2963 1340 71 2700 160/07 RMK AO2 TSNO
94908KDBQ DBQ20050613195012406/13/05 19:50:31  5-MIN KDBQ 140150Z AUTO 15006KT 10SM FEW043 24/18 A2963 1340 71 2700 150/06 RMK AO2 SLP027 T02390183 TSNO
94908KDBQ DBQ20050613195512406/13/05 19:55:31  5-MIN KDBQ 140155Z AUTO 15007KT 10SM FEW043 24/18 A2963 1350 71 2700 150/07 RMK AO2 SLP027 T02390183 TSNO
94908KDBQ DBQ20050613200010706/13/05 20:00:31  5-MIN KDBQ 140200Z AUTO 16007KT 10SM FEW055 24/18 A2963 1350 71 2700 160/07 RMK AO2 TSNO
94908KDBQ DBQ20050613200510706/13/05 20:05:31  5-MIN KDBQ 140205Z AUTO 16007KT 10SM FEW045 23/18 A2963 1350 73 2700 160/07 RMK AO2 TSNO
94908KDBQ DBQ20050613201010706/13/05 20:10:31  5-MIN KDBQ 140210Z AUTO 15008KT 10SM FEW047 23/18 A2962 1350 73 2700 150/08 RMK AO2 TSNO
94908KDBQ DBQ20050613201510706/13/05 20:15:31  5-MIN KDBQ 140215Z AUTO 16008KT 10SM FEW045 23/18 A2962 1350 73 2700 160/08 RMK AO2 TSNO
94908KDBQ DBQ20050613202012206/13/05 20:20:31  5-MIN KDBQ 140220Z AUTO 16008KT 10SM FEW035 SCT045  SCT055 23/18 A2962 1350 73 2700 160/08 RMK AO2 TSNO
94908KDBQ DBQ20050613202512206/13/05 20:25:31  5-MIN KDBQ 140225Z AUTO 16008KT 10SM SCT035 SCT045  SCT055 23/18 A2963 1350 73 2700 160/08 RMK AO2 TSNO
94908KDBQ DBQ20050613203011406/13/05 20:30:31  5-MIN KDBQ 140230Z AUTO 15008KT 10SM SCT035 SCT048 23/18 A2962 1350 73 2700 150/08 RMK AO2 TSNO
94908KDBQ DBQ20050613203511406/13/05 20:35:31  5-MIN KDBQ 140235Z AUTO 16007KT 10SM FEW033 SCT046 23/18 A2963 1350 73 2700 160/07 RMK AO2 TSNO
94908KDBQ DBQ20050613204011406/13/05 20:40:31  5-MIN KDBQ 140240Z AUTO 16008KT 10SM FEW033 SCT046 23/18 A2963 1350 73 2700 160/08 RMK AO2 TSNO
94908KDBQ DBQ20050613204511406/13/05 20:45:31  5-MIN KDBQ 140245Z AUTO 17009KT 10SM FEW033 SCT046 23/19 A2963 1340 76 2700 170/09 RMK AO2 TSNO
94908KDBQ DBQ20050613205013006/13/05 20:50:31  5-MIN KDBQ 140250Z AUTO 17009KT 10SM FEW033 23/19 A2964 1340 76 2700 170/09 RMK AO2 SLP028 T02330189 55007 TSNO
94908KDBQ DBQ20050613205513006/13/05 20:55:31  5-MIN KDBQ 140255Z AUTO 16008KT 10SM SCT033 23/19 A2963 1340 76 2700 160/08 RMK AO2 SLP027 T02330189 55012 TSNO
94908KDBQ DBQ20050613210010706/13/05 21:00:31  5-MIN KDBQ 140300Z AUTO 17009KT 10SM SCT033 23/19 A2964 1340 76 2700 170/09 RMK AO2 TSNO
94908KDBQ DBQ20050613210511406/13/05 21:05:31  5-MIN KDBQ 140305Z AUTO 17008KT 10SM SCT031 BKN036 23/19 A2964 1340 76 2700 170/08 RMK AO2 TSNO
94908KDBQ DBQ20050613211011406/13/05 21:10:31  5-MIN KDBQ 140310Z AUTO 17009KT 10SM SCT031 BKN041 23/19 A2963 1350 76 2700 170/09 RMK AO2 TSNO
94908KDBQ DBQ20050613211512206/13/05 21:15:31  5-MIN KDBQ 140315Z AUTO 17009KT 10SM SCT029 BKN034  BKN043 23/19 A2963 1340 76 2700 170/09 RMK AO2 TSNO
94908KDBQ DBQ20050613212012206/13/05 21:20:31  5-MIN KDBQ 140320Z AUTO 18009KT 10SM SCT029 BKN034  BKN043 23/19 A2964 1340 76 2700 180/09 RMK AO2 TSNO
94908KDBQ DBQ20050613212512206/13/05 21:25:31  5-MIN KDBQ 140325Z AUTO 18009KT 10SM SCT029 BKN034  BKN043 23/19 A2963 1350 76 2700 180/09 RMK AO2 TSNO
94908KDBQ DBQ20050613213012206/13/05 21:30:31  5-MIN KDBQ 140330Z AUTO 23011KT 10SM SCT031 BKN043  BKN055 23/19 A2964 1340 78 2700 230/11 RMK AO2 TSNO
94908KDBQ DBQ20050613213512206/13/05 21:35:31  5-MIN KDBQ 140335Z AUTO 25007KT 10SM SCT024 BKN031  BKN043 22/17 A2964 1340 75 2500 250/07 RMK AO2 TSNO
94908KDBQ DBQ20050613214012206/13/05 21:40:31  5-MIN KDBQ 140340Z AUTO 25008KT 10SM BKN024 BKN031  BKN046 22/17 A2964 1340 75 2500 250/08 RMK AO2 TSNO
94908KDBQ DBQ20050613214512206/13/05 21:45:31  5-MIN KDBQ 140345Z AUTO 21007KT 10SM BKN022 BKN028  BKN035 22/17 A2964 1340 75 2500 210/07 RMK AO2 TSNO
94908KDBQ DBQ20050613215013106/13/05 21:50:31  5-MIN KDBQ 140350Z AUTO 21008KT 10SM BKN022 BKN035 22/17 A2964 1340 75 2500 210/08 RMK AO2 SLP030 T02170172 TSNO
94908KDBQ DBQ20050613215513906/13/05 21:55:31  5-MIN KDBQ 140355Z AUTO 21009KT 10SM BKN022 BKN035  BKN042 22/18 A2964 1340 75 2500 210/09 RMK AO2 SLP030 T02220178 TSNO
94908KDBQ DBQ20050613220012206/13/05 22:00:31  5-MIN KDBQ 140400Z AUTO 20008KT 10SM BKN022 BKN033  BKN042 22/18 A2963 1340 78 2500 200/08 RMK AO2 TSNO
94908KDBQ DBQ20050613220511406/13/05 22:05:31  5-MIN KDBQ 140405Z AUTO 19008KT 10SM BKN022 BKN033 22/18 A2963 1350 81 2500 190/08 RMK AO2 TSNO
94908KDBQ DBQ20050613221011406/13/05 22:10:31  5-MIN KDBQ 140410Z AUTO 19009KT 10SM SCT022 SCT033 22/19 A2963 1350 81 2500 190/09 RMK AO2 TSNO
94908KDBQ DBQ20050613221510706/13/05 22:15:31  5-MIN KDBQ 140415Z AUTO 19010KT 10SM FEW022 22/19 A2963 1350 81 2500 190/10 RMK AO2 TSNO
94908KDBQ DBQ20050613222010706/13/05 22:20:31  5-MIN KDBQ 140420Z AUTO 19011KT 10SM FEW022 22/19 A2963 1350 84 2500 190/11 RMK AO2 TSNO
94908KDBQ DBQ20050613222510706/13/05 22:25:31  5-MIN KDBQ 140425Z AUTO 19011KT 10SM FEW020 22/19 A2962 1360 84 2500 190/11 RMK AO2 TSNO
94908KDBQ DBQ20050613223010506/13/05 22:30:31  5-MIN KDBQ 140430Z AUTO 19011KT 10SM CLR 22/19 A2962  1360 84 2500 190/11 RMK AO2 TSNO
94908KDBQ DBQ20050613223510506/13/05 22:35:31  5-MIN KDBQ 140435Z AUTO 19010KT 10SM CLR 22/19 A2962  1360 84 2500 190/10 RMK AO2 TSNO
94908KDBQ DBQ20050613224010306/13/05 22:40:31  5-MIN KDBQ 140440Z AUTO 19009KT 9SM CLR 22/19 A2962 1360 84 2500 190/09 RMK AO2 TSNO
94908KDBQ DBQ20050613224510306/13/05 22:45:31  5-MIN KDBQ 140445Z AUTO 19009KT 9SM CLR 22/20 A2962 1360 87 2500 190/09 RMK AO2 TSNO
94908KDBQ DBQ20050613225012006/13/05 22:50:31  5-MIN KDBQ 140450Z AUTO 19009KT 9SM CLR 22/20 A2961 1360 87 2600 190/09 RMK AO2 SLP022 T02220200 TSNO
94908KDBQ DBQ20050613225512406/13/05 22:55:31  5-MIN KDBQ 140455Z AUTO 19010KT 9SM FEW120 22/20 A2962  1360 90 2500 190/10 RMK AO2 SLP022 T02170200 TSNO
94908KDBQ DBQ20050613230010706/13/05 23:00:31  5-MIN KDBQ 140500Z AUTO 19009KT 9SM FEW120 22/20 A2962  1360 90 2500 190/09 RMK AO2 TSNO
94908KDBQ DBQ20050613230510306/13/05 23:05:31  5-MIN KDBQ 140505Z AUTO 19010KT 9SM CLR 22/20 A2962 1360 90 2500 190/10 RMK AO2 TSNO
94908KDBQ DBQ20050613231010306/13/05 23:10:31  5-MIN KDBQ 140510Z AUTO 19010KT 8SM CLR 22/20 A2962 1360 90 2500 190/10 RMK AO2 TSNO
94908KDBQ DBQ20050613231510706/13/05 23:15:31  5-MIN KDBQ 140515Z AUTO 20010KT 8SM FEW110 22/20 A2961  1370 90 2500 200/10 RMK AO2 TSNO
94908KDBQ DBQ20050613232014506/13/05 23:20:31  5-MIN KDBQ 140520Z AUTO 29023G31KT 9SM FEW014 SCT110  20/17 A2964 1340 81 2300 290/23G31 RMK AO2 PK WND 30031/0517 PRESRR TSNO
94908KDBQ DBQ20050613232514606/13/05 23:25:31  5-MIN KDBQ 140525Z AUTO 29023G31KT 10SM FEW014 SCT028  BKN039 19/16 A2964 1340 81 2100 290/23G31 RMK AO2 PK WND 30031/0517 TSNO
94908KDBQ DBQ20050613233015806/13/05 23:30:31  5-MIN KDBQ 140530Z AUTO 28014G28KT 10SM FEW024 SCT039  BKN070 18/16 A2963 1350 84 2100 280/14G28 RMK AO2 PK WND 30031/0517 WSHFT  0515 TSNO
94908KDBQ DBQ20050613233515806/13/05 23:35:31  5-MIN KDBQ 140535Z AUTO 29015G19KT 10SM FEW024 SCT039  BKN080 18/16 A2963 1350 84 2100 290/15G19 RMK AO2 PK WND 30031/0517 WSHFT  0515 TSNO
94908KDBQ DBQ20050613234016506/13/05 23:40:31  5-MIN KDBQ 140540Z AUTO 30012G19KT 10SM FEW024 BKN075  OVC100 18/16 A2961 1360 87 2000 290/12G19 RMK AO2 PK WND 30031/0517 WSHFT  0515 PRESFR TSNO
94908KDBQ DBQ20050613234515106/13/05 23:45:31  5-MIN KDBQ 140545Z AUTO 29011KT 10SM FEW024 SCT040  BKN090 18/16 A2962 1360 87 2000 290/11 RMK AO2 PK WND 30031/0517 WSHFT 0515 TSNO
94908KDBQ DBQ20050613235019606/13/05 23:50:31  5-MIN KDBQ 140550Z AUTO 28010KT 10SM FEW038 SCT080  BKN110 18/16 A2961 1370 87 2100 280/10 RMK AO2 PK WND 30031/0517 WSHFT 0515 SLP019 T01780156 10261 20178 402780178 55012 TSNO
94908KDBQ DBQ20050613235519606/13/05 23:55:31  5-MIN KDBQ 140555Z AUTO 28009KT 10SM FEW070 SCT090  BKN110 18/16 A2961 1360 87 2000 280/09 RMK AO2 PK WND 30031/0517 WSHFT 0515 SLP021 T01780156 10261 20178 402780178 58007 TSNO
94908KDBQ DBQ20050614000011406/14/05 00:00:38  5-MIN KDBQ 140600Z AUTO 27009KT 10SM FEW080 BKN110 18/16 A2962 1360 87 2000 270/09 RMK AO2 TSNO
94908KDBQ DBQ20050614000511406/14/05 00:05:31  5-MIN KDBQ 140605Z AUTO 26006KT 10SM BKN100 BKN120 18/16 A2961 1370 87 2000 260/06 RMK AO2 TSNO
94908KDBQ DBQ20050614001011406/14/05 00:10:31  5-MIN KDBQ 140610Z AUTO 26008KT 10SM FEW090 BKN110 18/16 A2961 1370 87 2100 260/08 RMK AO2 TSNO
94908KDBQ DBQ20050614001511406/14/05 00:15:32  5-MIN KDBQ 140615Z AUTO 25008KT 10SM SCT090 BKN110 18/16 A2961 1360 87 2000 250/08 RMK AO2 TSNO
94908KDBQ DBQ20050614002012206/14/05 00:20:31  5-MIN KDBQ 140620Z AUTO 24007KT 10SM FEW027 SCT039  OVC110 18/16 A2961 1360 87 2000 240/07 RMK AO2 TSNO
94908KDBQ DBQ20050614002513806/14/05 00:25:31  5-MIN KDBQ 140625Z AUTO 26010KT 10SM -RA SCT023 BKN090  OVC110 18/16 A2962 1360 90 2000 250/10 RMK AO2 RAB25 P0000 TSNO
94908KDBQ DBQ20050614003013906/14/05 00:30:31  5-MIN KDBQ 140630Z AUTO 23011KT 6SM -RA BR SCT023 BKN036 OVC110 18/16 A2962 1360 90 2000 230/11 RMK AO2 RAB25 P0000 TSNO
94908KDBQ DBQ20050614003513906/14/05 00:35:31  5-MIN KDBQ 140635Z AUTO 23008KT 3SM +RA BR FEW010 BKN035 OVC100 18/17 A2963 1350 93 2000 230/08 RMK AO2 RAB25 P0004 TSNO
94908KDBQ DBQ20050614004013906/14/05 00:40:31  5-MIN KDBQ 140640Z AUTO 23009KT 3SM -RA BR FEW010 BKN030 OVC090 18/17 A2961 1370 93 2100 230/09 RMK AO2 RAB25 P0006 TSNO
94908KDBQ DBQ20050614004513706/14/05 00:45:31  5-MIN KDBQ 140645Z AUTO 22007KT 7SM -RA FEW010 BKN035  OVC080 18/17 A2960 1380 93 2100 220/07 RMK AO2 RAB25 P0006 TSNO
94908KDBQ DBQ20050614005015506/14/05 00:50:31  5-MIN KDBQ 140650Z AUTO 21005KT 10SM -RA FEW010 BKN070  OVC080 18/17 A2960 1370 93 2100 210/05 RMK AO2 RAB25 SLP018 P0006 T01780167 TSNO
94908KDBQ DBQ20050614005514606/14/05 00:55:31  5-MIN KDBQ 140655Z AUTO 20004KT 10SM FEW030 OVC080 18/17 A2959 1380 93 2100 200/04 RMK AO2 RAB25E52 SLP014 P0006 T01780167 TSNO
94908KDBQ DBQ20050614010011406/14/05 01:00:31  5-MIN KDBQ 140700Z AUTO 17005KT 10SM FEW014 OVC080 18/17 A2959 1390 93 2100 170/05 RMK AO2 TSNO
94908KDBQ DBQ20050614010510706/14/05 01:05:31  5-MIN KDBQ 140705Z AUTO 20005KT 10SM OVC080 18/17 A2959 1380 93 2100 200/05 RMK AO2 TSNO
94908KDBQ DBQ20050614011012306/14/05 01:10:31  5-MIN KDBQ 140710Z AUTO 20006KT 8SM -RA OVC075 18/17  A2959 1390 93 2100 200/06 RMK AO2 RAB09 P0000 TSNO
94908KDBQ DBQ20050614011513006/14/05 01:15:31  5-MIN KDBQ 140715Z AUTO 18006KT 8SM -RA BKN070 OVC085  18/17 A2958 1390 93 2100 180/06 RMK AO2 RAB09 P0001 TSNO
94908KDBQ DBQ20050614012013006/14/05 01:20:31  5-MIN KDBQ 140720Z AUTO 16007KT 9SM -RA BKN070 OVC085  18/17 A2958 1400 93 2100 160/07 RMK AO2 RAB09 P0001 TSNO
94908KDBQ DBQ20050614012512906/14/05 01:25:31  5-MIN KDBQ 140725Z AUTO 18008KT 10SM BKN070 OVC085 18/17 A2958 1400 93 2100 180/08 RMK AO2 RAB09E23 P0001 TSNO
94908KDBQ DBQ20050614013012906/14/05 01:30:31  5-MIN KDBQ 140730Z AUTO 17008KT 10SM BKN080 OVC090 18/17 A2958 1400 90 2200 170/08 RMK AO2 RAB09E23 P0001 TSNO
94908KDBQ DBQ20050614013512906/14/05 01:35:31  5-MIN KDBQ 140735Z AUTO 17007KT 10SM FEW065 OVC085 18/17 A2958 1400 90 2100 170/07 RMK AO2 RAB09E23 P0001 TSNO
94908KDBQ DBQ20050614014012206/14/05 01:40:31  5-MIN KDBQ 140740Z AUTO 16010KT 10SM OVC085 18/17 A2959 1390 90 2100 160/10 RMK AO2 RAB09E23 P0001 TSNO
94908KDBQ DBQ20050614014512206/14/05 01:45:31  5-MIN KDBQ 140745Z AUTO 16010KT 10SM OVC090 18/17 A2958 1400 90 2200 160/10 RMK AO2 RAB09E23 P0001 TSNO
94908KDBQ DBQ20050614015013906/14/05 01:50:31  5-MIN KDBQ 140750Z AUTO 16010KT 10SM OVC095 18/17 A2957 1400 93 2200 160/10 RMK AO2 RAB09E23 SLP007 P0001 T01830172 TSNO
94908KDBQ DBQ20050614015513906/14/05 01:55:31  5-MIN KDBQ 140755Z AUTO 18009KT 10SM OVC100 18/17 A2958 1390 93 2100 180/09 RMK AO2 RAB09E23 SLP011 P0001 T01830172 TSNO
94908KDBQ DBQ20050614020010706/14/05 02:00:31  5-MIN KDBQ 140800Z AUTO 18011KT 10SM OVC100 18/17 A2957 1400 93 2200 180/11 RMK AO2 TSNO
94908KDBQ DBQ20050614020510706/14/05 02:05:31  5-MIN KDBQ 140805Z AUTO 18009KT 10SM OVC100 18/17 A2958 1400 93 2200 180/09 RMK AO2 TSNO
94908KDBQ DBQ20050614021010706/14/05 02:10:31  5-MIN KDBQ 140810Z AUTO 18010KT 10SM BKN100 18/17 A2958 1390 90 2100 180/10 RMK AO2 TSNO
94908KDBQ DBQ20050614021510706/14/05 02:15:31  5-MIN KDBQ 140815Z AUTO 18010KT 10SM BKN110 18/17 A2957 1400 90 2200 170/10 RMK AO2 TSNO
94908KDBQ DBQ20050614022010706/14/05 02:20:31  5-MIN KDBQ 140820Z AUTO 18010KT 10SM SCT110 18/17 A2958 1400 93 2200 170/10 RMK AO2 TSNO
94908KDBQ DBQ20050614022510706/14/05 02:25:31  5-MIN KDBQ 140825Z AUTO 18010KT 10SM SCT110 18/17 A2958 1390 93 2100 180/10 RMK AO2 TSNO
94908KDBQ DBQ20050614023010706/14/05 02:30:31  5-MIN KDBQ 140830Z AUTO 18009KT 10SM FEW110 18/17 A2957 1400 93 2200 180/09 RMK AO2 TSNO
94908KDBQ DBQ20050614023510506/14/05 02:35:31  5-MIN KDBQ 140835Z AUTO 18010KT 10SM CLR 18/17 A2958  1400 93 2200 170/10 RMK AO2 TSNO
94908KDBQ DBQ20050614024010506/14/05 02:40:31  5-MIN KDBQ 140840Z AUTO 18010KT 10SM CLR 18/17 A2957  1400 93 2200 180/10 RMK AO2 TSNO
94908KDBQ DBQ20050614024510506/14/05 02:45:31  5-MIN KDBQ 140845Z AUTO 19010KT 10SM CLR 18/17 A2957  1400 90 2200 190/10 RMK AO2 TSNO
94908KDBQ DBQ20050614025013406/14/05 02:50:31  5-MIN KDBQ 140850Z AUTO 19010KT 10SM CLR 18/17 A2958  1400 90 2100 190/10 RMK AO2 SLP008 60007 T01830167 58007 TSNO
94908KDBQ DBQ20050614025513406/14/05 02:55:31  5-MIN KDBQ 140855Z AUTO 20009KT 10SM CLR 18/17 A2957  1410 90 2200 200/09 RMK AO2 SLP006 60007 T01830167 56014 TSNO
94908KDBQ DBQ20050614030010506/14/05 03:00:31  5-MIN KDBQ 140900Z AUTO 21009KT 10SM CLR 18/17 A2957  1400 90 2200 200/09 RMK AO2 TSNO
94908KDBQ DBQ20050614030510506/14/05 03:05:31  5-MIN KDBQ 140905Z AUTO 20010KT 10SM CLR 18/17 A2958  1400 90 2100 200/10 RMK AO2 TSNO
94908KDBQ DBQ20050614031010506/14/05 03:10:31  5-MIN KDBQ 140910Z AUTO 21009KT 10SM CLR 18/17 A2958  1400 93 2100 210/09 RMK AO2 TSNO
94908KDBQ DBQ20050614031510506/14/05 03:15:31  5-MIN KDBQ 140915Z AUTO 20009KT 10SM CLR 18/17 A2958  1400 93 2100 200/09 RMK AO2 TSNO
94908KDBQ DBQ20050614032010506/14/05 03:20:31  5-MIN KDBQ 140920Z AUTO 20010KT 10SM CLR 18/17 A2959  1390 93 2100 200/10 RMK AO2 TSNO
94908KDBQ DBQ20050614032510506/14/05 03:25:31  5-MIN KDBQ 140925Z AUTO 20009KT 10SM CLR 18/17 A2958  1400 93 2100 200/09 RMK AO2 TSNO
94908KDBQ DBQ20050614033010506/14/05 03:30:31  5-MIN KDBQ 140930Z AUTO 20010KT 10SM CLR 18/17 A2958  1390 93 2100 200/10 RMK AO2 TSNO
94908KDBQ DBQ20050614033510506/14/05 03:35:31  5-MIN KDBQ 140935Z AUTO 20010KT 10SM CLR 18/17 A2959  1380 93 2100 200/10 RMK AO2 TSNO
94908KDBQ DBQ20050614034010506/14/05 03:40:31  5-MIN KDBQ 140940Z AUTO 20011KT 10SM CLR 18/17 A2958  1390 93 2100 200/11 RMK AO2 TSNO
94908KDBQ DBQ20050614034510506/14/05 03:45:31  5-MIN KDBQ 140945Z AUTO 20010KT 10SM CLR 18/17 A2958  1390 93 2100 200/10 RMK AO2 TSNO
94908KDBQ DBQ20050614035012206/14/05 03:50:31  5-MIN KDBQ 140950Z AUTO 20010KT 10SM CLR 18/17 A2958  1390 93 2100 200/10 RMK AO2 SLP011 T01780167 TSNO
94908KDBQ DBQ20050614035512206/14/05 03:55:31  5-MIN KDBQ 140955Z AUTO 20009KT 10SM CLR 18/17 A2958  1390 93 2100 190/09 RMK AO2 SLP011 T01780167 TSNO
94908KDBQ DBQ20050614040010506/14/05 04:00:31  5-MIN KDBQ 141000Z AUTO 20008KT 10SM CLR 18/16 A2959  1390 90 2100 200/08 RMK AO2 TSNO
94908KDBQ DBQ20050614040510506/14/05 04:05:31  5-MIN KDBQ 141005Z AUTO 19008KT 10SM CLR 17/16 A2959  1380 93 2000 190/08 RMK AO2 TSNO
94908KDBQ DBQ20050614041010506/14/05 04:10:31  5-MIN KDBQ 141010Z AUTO 20009KT 10SM CLR 17/16 A2960  1380 93 2000 190/09 RMK AO2 TSNO
94908KDBQ DBQ20050614041510506/14/05 04:15:31  5-MIN KDBQ 141015Z AUTO 20008KT 10SM CLR 17/16 A2960  1380 93 2000 200/08 RMK AO2 TSNO
94908KDBQ DBQ20050614042010506/14/05 04:20:31  5-MIN KDBQ 141020Z AUTO 20007KT 10SM CLR 17/16 A2960  1380 93 2000 200/07 RMK AO2 TSNO
94908KDBQ DBQ20050614042510306/14/05 04:25:31  5-MIN KDBQ 141025Z AUTO 20007KT 9SM CLR 17/16 A2960 1380 93 2000 190/07 RMK AO2 TSNO
94908KDBQ DBQ20050614043010706/14/05 04:30:31  5-MIN KDBQ 141030Z AUTO 20008KT 8SM FEW024 17/16 A2960  1380 93 2000 200/08 RMK AO2 TSNO
94908KDBQ DBQ20050614043510706/14/05 04:35:31  5-MIN KDBQ 141035Z AUTO 20007KT 8SM FEW024 17/16 A2959  1380 93 2000 200/07 RMK AO2 TSNO
94908KDBQ DBQ20050614044010706/14/05 04:40:31  5-MIN KDBQ 141040Z AUTO 20008KT 8SM FEW024 17/16 A2960  1380 93 2000 200/08 RMK AO2 TSNO
94908KDBQ DBQ20050614044510706/14/05 04:45:31  5-MIN KDBQ 141045Z AUTO 20008KT 8SM FEW024 17/16 A2960  1380 93 2000 200/08 RMK AO2 TSNO
94908KDBQ DBQ20050614045011406/14/05 04:50:31  5-MIN KDBQ 141050Z 21009KT 8SM FEW024 17/16 A2959 1380  93 2000 200/09 RMK AO2 SLP015 T01720161
94908KDBQ DBQ20050614045511406/14/05 04:55:31  5-MIN KDBQ 141055Z 21010KT 9SM FEW024 17/16 A2959 1380  93 2000 210/10 RMK AO2 SLP015 T01720161
94908KDBQ DBQ20050614050009706/14/05 05:00:31  5-MIN KDBQ 141100Z 21010KT 10SM FEW065 18/16 A2959 1380 90 2100 210/10 RMK AO2
94908KDBQ DBQ20050614050509706/14/05 05:05:31  5-MIN KDBQ 141105Z 21009KT 10SM FEW065 18/16 A2959 1380 90 2100 210/09 RMK AO2
94908KDBQ DBQ20050614051010506/14/05 05:10:31  5-MIN KDBQ 141110Z 21009KT 10SM FEW038 SCT065 18/17  A2960 1380 93 2100 210/09 RMK AO2
94908KDBQ DBQ20050614051511206/14/05 05:15:31  5-MIN KDBQ 141115Z 21011KT 10SM FEW038 SCT045 BKN065  18/16 A2960 1380 90 2100 210/11 RMK AO2
94908KDBQ DBQ20050614052010506/14/05 05:20:31  5-MIN KDBQ 141120Z 22012KT 10SM FEW038 BKN065 18/16  A2959 1380 90 2100 220/12 RMK AO2
94908KDBQ DBQ20050614052510506/14/05 05:25:31  5-MIN KDBQ 141125Z 22012KT 10SM FEW038 BKN070 18/16  A2959 1380 90 2100 220/12 RMK AO2
94908KDBQ DBQ20050614053010506/14/05 05:30:31  5-MIN KDBQ 141130Z 22011KT 10SM FEW020 OVC070 18/16  A2959 1380 90 2100 220/11 RMK AO2
94908KDBQ DBQ20050614053511206/14/05 05:35:31  5-MIN KDBQ 141135Z 22011KT 10SM SCT020 SCT037 OVC070  18/16 A2959 1380 87 2100 220/11 RMK AO2
94908KDBQ DBQ20050614054010506/14/05 05:40:31  5-MIN KDBQ 141140Z 22011KT 10SM BKN018 OVC070 18/16  A2959 1380 87 2100 220/11 RMK AO2
94908KDBQ DBQ20050614054510506/14/05 05:45:31  5-MIN KDBQ 141145Z 22011KT 10SM BKN018 OVC070 18/16  A2959 1390 90 2100 220/11 RMK AO2
94908KDBQ DBQ20050614055015206/14/05 05:50:31  5-MIN KDBQ 141150Z 22010KT 10SM BKN018 OVC070 18/16  A2959 1390 90 2100 220/10 RMK AO2 SLP013 60007 70007 T01780161 10183 20172 56014
94908KDBQ DBQ20050614055515206/14/05 05:55:31  5-MIN KDBQ 141155Z 22011KT 10SM BKN018 OVC026 18/16  A2959 1390 90 2100 220/11 RMK AO2 SLP013 60007 70007 T01780161 10183 20172 50007
94908KDBQ DBQ20050614060010506/14/05 06:00:31  5-MIN KDBQ 141200Z 22012KT 10SM BKN018 OVC026 18/16  A2959 1380 90 2100 220/12 RMK AO2
94908KDBQ DBQ20050614060510506/14/05 06:05:31  5-MIN KDBQ 141205Z 22013KT 10SM BKN016 OVC026 18/16  A2959 1380 90 2100 220/13 RMK AO2
94908KDBQ DBQ20050614061011206/14/05 06:10:31  5-MIN KDBQ 141210Z 22012KT 10SM BKN014 BKN021 OVC026  18/16 A2959 1380 90 2100 220/12 RMK AO2
94908KDBQ DBQ20050614061510506/14/05 06:15:31  5-MIN KDBQ 141215Z 22012KT 10SM BKN016 OVC026 18/16  A2960 1380 90 2100 220/12 RMK AO2
94908KDBQ DBQ20050614062010506/14/05 06:20:31  5-MIN KDBQ 141220Z 23012KT 10SM BKN016 OVC023 18/16  A2960 1380 90 2100 220/12 RMK AO2
94908KDBQ DBQ20050614062510506/14/05 06:25:31  5-MIN KDBQ 141225Z 23014KT 10SM SCT014 OVC023 18/16  A2960 1380 90 2100 220/14 RMK AO2
94908KDBQ DBQ20050614063010506/14/05 06:30:31  5-MIN KDBQ 141230Z 23014KT 10SM SCT014 OVC023 18/16  A2960 1380 87 2100 230/14 RMK AO2
94908KDBQ DBQ20050614063510506/14/05 06:35:31  5-MIN KDBQ 141235Z 23013KT 10SM FEW014 OVC023 18/16  A2960 1380 87 2100 220/13 RMK AO2
94908KDBQ DBQ20050614064010506/14/05 06:40:31  5-MIN KDBQ 141240Z 23013KT 10SM FEW014 OVC023 18/16  A2960 1370 87 2100 230/13 RMK AO2
94908KDBQ DBQ20050614064511106/14/05 06:45:31  5-MIN KDBQ 141245Z 24017G20KT 10SM FEW016 OVC023 18/16  A2960 1380 87 2100 240/17G20 RMK AO2
94908KDBQ DBQ20050614065012806/14/05 06:50:31  5-MIN KDBQ 141250Z 23015G20KT 10SM BKN019 OVC024 18/16  A2960 1370 87 2100 230/15G20 RMK AO2 SLP018 T01780156
94908KDBQ DBQ20050614065511406/14/05 06:55:31  5-MIN KDBQ 141255Z 23014KT 10SM OVC019 18/16 A2960 1370 87 2100 230/14 RMK AO2 SLP018 T01780156
94908KDBQ DBQ20050614070010506/14/05 07:00:31  5-MIN KDBQ 141300Z 24012KT 10SM BKN019 OVC025 18/16  A2961 1370 87 2100 240/12 RMK AO2
94908KDBQ DBQ20050614070510506/14/05 07:05:31  5-MIN KDBQ 141305Z 23011KT 10SM BKN019 OVC024 18/16  A2961 1370 87 2100 230/11 RMK AO2
94908KDBQ DBQ20050614071009706/14/05 07:10:31  5-MIN KDBQ 141310Z 23012KT 10SM OVC021 18/16 A2961 1370 87 2000 230/12 RMK AO2
94908KDBQ DBQ20050614071511206/14/05 07:15:31  5-MIN KDBQ 141315Z 23014KT 10SM SCT018 BKN023 OVC028  18/16 A2961 1370 87 2000 230/14 RMK AO2
94908KDBQ DBQ20050614072011206/14/05 07:20:31  5-MIN KDBQ 141320Z 23011KT 10SM SCT018 BKN023 OVC028  18/16 A2961 1370 87 2100 230/11 RMK AO2
94908KDBQ DBQ20050614072511206/14/05 07:25:31  5-MIN KDBQ 141325Z 23015KT 10SM SCT018 BKN023 OVC041  18/16 A2961 1370 87 2100 230/15 RMK AO2
94908KDBQ DBQ20050614073011206/14/05 07:30:31  5-MIN KDBQ 141330Z 23014KT 10SM SCT015 BKN023 OVC028  18/16 A2961 1360 87 2100 230/14 RMK AO2
94908KDBQ DBQ20050614073511206/14/05 07:35:31  5-MIN KDBQ 141335Z 23014KT 10SM FEW012 BKN017 OVC028  18/16 A2961 1370 87 2100 230/14 RMK AO2
94908KDBQ DBQ20050614074011206/14/05 07:40:31  5-MIN KDBQ 141340Z 24015KT 10SM FEW012 BKN017 OVC055  18/16 A2961 1370 87 2100 240/15 RMK AO2
94908KDBQ DBQ20050614074511206/14/05 07:45:31  5-MIN KDBQ 141345Z 24014KT 10SM SCT012 BKN017 OVC050  18/16 A2961 1370 87 2100 240/14 RMK AO2
94908KDBQ DBQ20050614075012906/14/05 07:50:31  5-MIN KDBQ 141350Z 24014KT 10SM BKN013 BKN027 OVC050  19/16 A2961 1370 84 2200 240/14 RMK AO2 SLP019 T01890161
94908KDBQ DBQ20050614075512206/14/05 07:55:31  5-MIN KDBQ 141355Z 24015KT 10SM BKN013 OVC050 19/16  A2961 1370 84 2200 240/15 RMK AO2 SLP020 T01890161
94908KDBQ DBQ20050614080010506/14/05 08:00:31  5-MIN KDBQ 141400Z 25016KT 10SM BKN013 OVC050 19/16  A2961 1370 81 2200 250/16 RMK AO2
94908KDBQ DBQ20050614080510506/14/05 08:05:31  5-MIN KDBQ 141405Z 25015KT 10SM BKN013 OVC050 19/16  A2961 1360 81 2200 250/15 RMK AO2
94908KDBQ DBQ20050614081011106/14/05 08:10:31  5-MIN KDBQ 141410Z 25018G22KT 10SM BKN016 OVC050 19/16  A2962 1360 81 2200 250/18G22 RMK AO2
94908KDBQ DBQ20050614081511106/14/05 08:15:31  5-MIN KDBQ 141415Z 25017G22KT 10SM BKN016 OVC050 19/16  A2961 1360 81 2200 250/17G22 RMK AO2
94908KDBQ DBQ20050614082011106/14/05 08:20:31  5-MIN KDBQ 141420Z 26015G20KT 10SM BKN014 OVC048 19/16  A2961 1360 84 2200 260/15G20 RMK AO2
94908KDBQ DBQ20050614082510506/14/05 08:25:31  5-MIN KDBQ 141425Z 25014KT 10SM BKN014 OVC048 19/16  A2962 1360 81 2200 250/14 RMK AO2
94908KDBQ DBQ20050614083011206/14/05 08:30:31  5-MIN KDBQ 141430Z 25014KT 10SM BKN016 BKN042 OVC049  19/16 A2962 1360 81 2200 250/14 RMK AO2
94908KDBQ DBQ20050614083511206/14/05 08:35:31  5-MIN KDBQ 141435Z 26011KT 10SM BKN014 BKN021 OVC049  19/16 A2962 1350 84 2200 260/11 RMK AO2
94908KDBQ DBQ20050614084011206/14/05 08:40:31  5-MIN KDBQ 141440Z 26013KT 10SM SCT014 BKN018 OVC049  19/16 A2962 1350 84 2200 260/13 RMK AO2
94908KDBQ DBQ20050614084510506/14/05 08:45:31  5-MIN KDBQ 141445Z 26015KT 10SM BKN014 OVC042 19/16  A2962 1350 81 2200 260/15 RMK AO2
94908KDBQ DBQ20050614085014006/14/05 08:50:31  5-MIN KDBQ 141450Z 25016G21KT 10SM SCT014 BKN019 OVC042 19/16 A2962 1360 78 2200 250/16G21 RMK AO2 SLP024 T01940156 50007
94908KDBQ DBQ20050614085513506/14/05 08:55:31  5-MIN KDBQ 141455Z 25017KT 10SM SCT014 SCT019 OVC040  19/16 A2962 1350 78 2200 250/17 RMK AO2 SLP025 T01940156 53012
94908KDBQ DBQ20050614090010506/14/05 09:00:31  5-MIN KDBQ 141500Z 26016KT 10SM SCT014 OVC040 19/16  A2962 1360 78 2200 260/16 RMK AO2
94908KDBQ DBQ20050614090511206/14/05 09:05:31  5-MIN KDBQ 141505Z 25014KT 10SM SCT016 BKN024 OVC040  19/16 A2963 1350 81 2200 250/14 RMK AO2
94908KDBQ DBQ20050614091011206/14/05 09:10:31  5-MIN KDBQ 141510Z 24017KT 10SM SCT016 BKN024 OVC040  19/16 A2963 1350 81 2200 240/17 RMK AO2
94908KDBQ DBQ20050614091511206/14/05 09:15:31  5-MIN KDBQ 141515Z 24016KT 10SM SCT018 BKN024 OVC040  19/16 A2963 1350 81 2200 240/16 RMK AO2
94908KDBQ DBQ20050614092011106/14/05 09:20:31  5-MIN KDBQ 141520Z 25017KT 8SM SCT016 BKN022 OVC040  19/16 A2963 1350 81 2200 240/17 RMK AO2
94908KDBQ DBQ20050614092511106/14/05 09:25:31  5-MIN KDBQ 141525Z 25017KT 8SM SCT016 BKN022 OVC040  20/16 A2963 1350 75 2300 250/17 RMK AO2
94908KDBQ DBQ20050614093011206/14/05 09:30:31  5-MIN KDBQ 141530Z 26018KT 10SM SCT016 BKN021 OVC033  19/15 A2963 1350 78 2200 260/18 RMK AO2
94908KDBQ DBQ20050614093511706/14/05 09:35:31  5-MIN KDBQ 141535Z 27018G24KT 10SM SCT019 BKN025 OVC033 19/14 A2963 1340 72 2200 270/18G24 RMK AO2
94908KDBQ DBQ20050614094011706/14/05 09:40:31  5-MIN KDBQ 141540Z 26015G24KT 10SM FEW016 BKN023 OVC033 19/14 A2964 1340 72 2200 260/15G24 RMK AO2
94908KDBQ DBQ20050614094511706/14/05 09:45:31  5-MIN KDBQ 141545Z 26016G24KT 10SM FEW016 SCT025 OVC033 19/15 A2964 1340 75 2200 260/16G24 RMK AO2
94908KDBQ DBQ20050614095013406/14/05 09:50:31  5-MIN KDBQ 141550Z 26014G20KT 10SM FEW018 SCT026 OVC032 19/15 A2964 1340 78 2100 260/14G20 RMK AO2 SLP031 T01890150
94908KDBQ DBQ20050614095512206/14/05 09:55:31  5-MIN KDBQ 141555Z 27013KT 10SM SCT023 OVC030 19/15  A2964 1340 78 2100 260/13 RMK AO2 SLP032 T01890150
94908KDBQ DBQ20050614100011206/14/05 10:00:31  5-MIN KDBQ 141600Z 27011KT 10SM SCT021 BKN030 OVC037  19/15 A2964 1340 78 2100 270/11 RMK AO2
94908KDBQ DBQ20050614100511206/14/05 10:05:31  5-MIN KDBQ 141605Z 26011KT 10SM FEW017 BKN030 OVC037  19/15 A2964 1330 78 2100 260/11 RMK AO2
94908KDBQ DBQ20050614101011706/14/05 10:10:31  5-MIN KDBQ 141610Z 26013G19KT 10SM SCT019 BKN024 OVC030 19/16 A2964 1340 78 2200 260/13G19 RMK AO2
94908KDBQ DBQ20050614101511706/14/05 10:15:31  5-MIN KDBQ 141615Z 26012G19KT 10SM SCT019 BKN025 OVC030 19/15 A2964 1340 78 2100 260/12G19 RMK AO2
94908KDBQ DBQ20050614102011206/14/05 10:20:31  5-MIN KDBQ 141620Z 25014KT 10SM SCT021 BKN025 OVC042  19/16 A2964 1340 78 2200 250/14 RMK AO2
94908KDBQ DBQ20050614102511206/14/05 10:25:31  5-MIN KDBQ 141625Z 25015KT 10SM BKN019 BKN028 OVC040  19/16 A2964 1340 78 2200 250/15 RMK AO2
94908KDBQ DBQ20050614103011206/14/05 10:30:31  5-MIN KDBQ 141630Z 26015KT 10SM BKN019 BKN026 OVC042  19/16 A2964 1340 81 2100 260/15 RMK AO2
94908KDBQ DBQ20050614103511206/14/05 10:35:31  5-MIN KDBQ 141635Z 26016KT 10SM FEW016 BKN021 OVC040  19/15 A2964 1330 78 2100 260/16 RMK AO2
94908KDBQ DBQ20050614104011206/14/05 10:40:31  5-MIN KDBQ 141640Z 25017KT 10SM SCT017 BKN023 OVC039  19/16 A2964 1330 81 2100 250/17 RMK AO2
94908KDBQ DBQ20050614104511706/14/05 10:45:31  5-MIN KDBQ 141645Z 26018G22KT 10SM SCT019 BKN023 OVC036 18/16 A2965 1330 84 2100 250/18G22 RMK AO2
94908KDBQ DBQ20050614105013406/14/05 10:50:31  5-MIN KDBQ 141650Z 24014G22KT 10SM FEW011 BKN024 OVC036 18/16 A2965 1330 84 2100 240/14G22 RMK AO2 SLP035 T01830156
94908KDBQ DBQ20050614105512906/14/05 10:55:31  5-MIN KDBQ 141655Z 24014KT 10SM FEW011 BKN031 OVC040  18/16 A2965 1330 87 2100 240/14 RMK AO2 SLP036 T01830161
94908KDBQ DBQ20050614110011706/14/05 11:00:31  5-MIN KDBQ 141700Z 25015G21KT 10SM FEW011 BKN029 OVC038 18/16 A2965 1330 87 2100 250/15G21 RMK AO2
94908KDBQ DBQ20050614110511206/14/05 11:05:31  5-MIN KDBQ 141705Z 25016KT 10SM SCT011 BKN019 OVC041  19/16 A2965 1330 84 2100 250/16 RMK AO2
94908KDBQ DBQ20050614111011206/14/05 11:10:31  5-MIN KDBQ 141710Z 26015KT 10SM BKN013 BKN031 OVC041  19/16 A2965 1330 81 2200 260/15 RMK AO2
94908KDBQ DBQ20050614111511706/14/05 11:15:31  5-MIN KDBQ 141715Z 26016G21KT 10SM SCT013 BKN017 OVC042 19/16 A2965 1330 81 2100 260/16G21 RMK AO2
94908KDBQ DBQ20050614112011206/14/05 11:20:31  5-MIN KDBQ 141720Z 26017KT 10SM SCT015 BKN022 OVC029  19/16 A2965 1330 78 2200 260/17 RMK AO2
94908KDBQ DBQ20050614112511706/14/05 11:25:31  5-MIN KDBQ 141725Z 25018G22KT 10SM SCT013 BKN022 OVC029 19/15 A2966 1320 78 2100 250/18G22 RMK AO2
94908KDBQ DBQ20050614113011206/14/05 11:30:31  5-MIN KDBQ 141730Z 26018KT 10SM SCT013 BKN019 OVC029  18/15 A2966 1320 81 2100 260/18 RMK AO2
94908KDBQ DBQ20050614113511206/14/05 11:35:31  5-MIN KDBQ 141735Z 27016KT 10SM SCT015 BKN023 OVC029  18/15 A2966 1320 81 2100 270/16 RMK AO2
94908KDBQ DBQ20050614114011206/14/05 11:40:31  5-MIN KDBQ 141740Z 28015KT 10SM FEW017 BKN023 OVC043  18/15 A2966 1320 81 2100 280/15 RMK AO2
94908KDBQ DBQ20050614114511206/14/05 11:45:31  5-MIN KDBQ 141745Z 27014KT 10SM FEW015 BKN026 OVC045  18/15 A2966 1320 81 2100 270/14 RMK AO2
94908KDBQ DBQ20050614115014706/14/05 11:50:31  5-MIN KDBQ 141750Z 27014KT 10SM FEW015 BKN030 OVC050  19/15 A2966 1320 78 2100 270/14 RMK AO2 SLP042 T01890150 10200 20178 53012
94908KDBQ DBQ20050614115514706/14/05 11:55:31  5-MIN KDBQ 141755Z 25018KT 10SM SCT019 BKN027 OVC050  19/16 A2966 1320 81 2100 250/18 RMK AO2 SLP041 T01890156 10200 20178 51013
94908KDBQ DBQ20050614120011706/14/05 12:00:31  5-MIN KDBQ 141800Z 26017G20KT 10SM SCT019 BKN027 OVC050 19/15 A2967 1310 78 2100 260/17G20 RMK AO2
94908KDBQ DBQ20050614120511706/14/05 12:05:31  5-MIN KDBQ 141805Z 26017G22KT 10SM BKN019 BKN027 OVC050 19/15 A2967 1310 78 2100 260/17G22 RMK AO2
94908KDBQ DBQ20050614121011706/14/05 12:10:31  5-MIN KDBQ 141810Z 26018G22KT 10SM BKN019 BKN027 OVC050 18/14 A2968 1310 78 2000 260/18G22 RMK AO2
94908KDBQ DBQ20050614121511206/14/05 12:15:31  5-MIN KDBQ 141815Z 26014KT 10SM BKN019 BKN023 OVC030  19/14 A2967 1310 75 2100 260/14 RMK AO2
94908KDBQ DBQ20050614122010506/14/05 12:20:31  5-MIN KDBQ 141820Z 27017KT 10SM BKN019 OVC025 19/15  A2967 1310 75 2200 270/17 RMK AO2
94908KDBQ DBQ20050614122511206/14/05 12:25:31  5-MIN KDBQ 141825Z 27016KT 10SM SCT019 BKN025 OVC029  20/15 A2967 1310 72 2200 260/16 RMK AO2
94908KDBQ DBQ20050614123010506/14/05 12:30:31  5-MIN KDBQ 141830Z 26013KT 10SM SCT019 OVC027 20/15  A2967 1310 72 2200 260/13 RMK AO2
94908KDBQ DBQ20050614123511206/14/05 12:35:31  5-MIN KDBQ 141835Z 28015KT 10SM FEW018 SCT024 OVC030  20/15 A2967 1310 72 2200 280/15 RMK AO2
94908KDBQ DBQ20050614124010506/14/05 12:40:31  5-MIN KDBQ 141840Z 28013KT 10SM FEW024 OVC030 20/15  A2967 1310 72 2200 280/13 RMK AO2
94908KDBQ DBQ20050614124510506/14/05 12:45:31  5-MIN KDBQ 141845Z 27012KT 10SM BKN028 BKN033 21/16  A2967 1310 70 2400 270/12 RMK AO2
94908KDBQ DBQ20050614125011406/14/05 12:50:31  5-MIN KDBQ 141850Z 27017KT 10SM SCT030 21/15 A2967 1310 68 2400 270/17 RMK AO2 SLP042 T02110150
94908KDBQ DBQ20050614125511406/14/05 12:55:31  5-MIN KDBQ 141855Z 27015KT 10SM SCT030 21/15 A2967 1310 68 2400 270/15 RMK AO2 SLP042 T02110150
94908KDBQ DBQ20050614130011106/14/05 13:00:31  5-MIN KDBQ 141900Z 27016G22KT 10SM SCT030 SCT039 21/15  A2967 1310 68 2400 270/16G22 RMK AO2
94908KDBQ DBQ20050614130511106/14/05 13:05:31  5-MIN KDBQ 141905Z 26015G22KT 10SM FEW030 SCT039 21/14  A2967 1310 65 2400 260/15G22 RMK AO2
94908KDBQ DBQ20050614131010506/14/05 13:10:31  5-MIN KDBQ 141910Z 26015KT 10SM FEW026 SCT039 22/15  A2967 1310 65 2400 260/15 RMK AO2
94908KDBQ DBQ20050614131510506/14/05 13:15:31  5-MIN KDBQ 141915Z 27012KT 10SM SCT026 BKN039 21/15  A2967 1310 68 2400 270/12 RMK AO2
94908KDBQ DBQ20050614132011706/14/05 13:20:31  5-MIN KDBQ 141920Z 28016G19KT 10SM SCT026 BKN039 BKN055 21/15 A2967 1310 68 2400 280/16G19 RMK AO2
94908KDBQ DBQ20050614132511706/14/05 13:25:31  5-MIN KDBQ 141925Z 25016G19KT 10SM SCT026 SCT039 OVC055 21/15 A2967 1320 68 2400 250/16G19 RMK AO2
94908KDBQ DBQ20050614133011206/14/05 13:30:31  5-MIN KDBQ 141930Z 26018KT 10SM SCT026 BKN041 BKN055  22/15 A2966 1320 65 2400 260/18 RMK AO2
94908KDBQ DBQ20050614133510506/14/05 13:35:31  5-MIN KDBQ 141935Z 26016KT 10SM SCT026 BKN060 22/15  A2966 1320 63 2500 260/16 RMK AO2
94908KDBQ DBQ20050614134010506/14/05 13:40:31  5-MIN KDBQ 141940Z 26015KT 10SM FEW026 BKN060 22/16  A2966 1320 65 2500 260/15 RMK AO2
94908KDBQ DBQ20050614134511106/14/05 13:45:31  5-MIN KDBQ 141945Z 25015G19KT 10SM FEW028 BKN060 22/16  A2966 1320 68 2400 250/15G19 RMK AO2
94908KDBQ DBQ20050614135013406/14/05 13:50:31  5-MIN KDBQ 141950Z 26016G20KT 10SM SCT028 SCT036 OVC060 21/15 A2967 1310 68 2400 260/16G20 RMK AO2 SLP041 T02110150
94908KDBQ DBQ20050614135513406/14/05 13:55:31  5-MIN KDBQ 141955Z 26013G20KT 10SM SCT028 BKN036 OVC060 21/15 A2967 1310 70 2300 260/13G20 RMK AO2 SLP043 T02060150
94908KDBQ DBQ20050614140011706/14/05 14:00:31  5-MIN KDBQ 142000Z 28016G23KT 10SM FEW026 SCT039 OVC060 21/15 A2967 1310 70 2300 280/16G23 RMK AO2
94908KDBQ DBQ20050614140511706/14/05 14:05:31  5-MIN KDBQ 142005Z 28015G23KT 10SM FEW026 SCT039 OVC055 21/15 A2967 1310 70 2300 270/15G23 RMK AO2
94908KDBQ DBQ20050614141010506/14/05 14:10:31  5-MIN KDBQ 142010Z 27014KT 10SM FEW026 OVC060 21/16  A2967 1310 70 2400 270/14 RMK AO2
94908KDBQ DBQ20050614141510506/14/05 14:15:31  5-MIN KDBQ 142015Z 28014KT 10SM FEW028 OVC060 22/16  A2967 1310 68 2400 280/14 RMK AO2
94908KDBQ DBQ20050614142010506/14/05 14:20:31  5-MIN KDBQ 142020Z 28014KT 10SM FEW026 OVC060 22/16  A2967 1310 68 2400 280/14 RMK AO2
94908KDBQ DBQ20050614142509706/14/05 14:25:31  5-MIN KDBQ 142025Z 27011KT 10SM OVC060 22/16 A2966 1320 68 2400 270/11 RMK AO2
94908KDBQ DBQ20050614143009706/14/05 14:30:31  5-MIN KDBQ 142030Z 27016KT 10SM OVC060 22/16 A2966 1320 68 2400 270/16 RMK AO2
94908KDBQ DBQ20050614143509706/14/05 14:35:31  5-MIN KDBQ 142035Z 28013KT 10SM OVC060 22/15 A2966 1320 65 2400 280/13 RMK AO2
94908KDBQ DBQ20050614144009706/14/05 14:40:31  5-MIN KDBQ 142040Z 27014KT 10SM BKN065 22/16 A2966 1320 65 2500 270/14 RMK AO2
94908KDBQ DBQ20050614144510506/14/05 14:45:31  5-MIN KDBQ 142045Z 27012KT 10SM FEW033 BKN065 22/15  A2966 1320 65 2400 270/12 RMK AO2
94908KDBQ DBQ20050614145012806/14/05 14:50:31  5-MIN KDBQ 142050Z 27012KT 10SM FEW033 BKN060 22/15  A2966 1320 65 2400 270/12 RMK AO2 SLP040 T02170150 51013
94908KDBQ DBQ20050614145512806/14/05 14:55:31  5-MIN KDBQ 142055Z 27013KT 10SM FEW031 BKN060 23/16  A2966 1320 65 2600 270/13 RMK AO2 SLP038 T02280161 58001
94908KDBQ DBQ20050614150010506/14/05 15:00:31  5-MIN KDBQ 142100Z 28014KT 10SM FEW031 BKN060 22/15  A2966 1320 63 2500 280/14 RMK AO2
94908KDBQ DBQ20050614150511106/14/05 15:05:31  5-MIN KDBQ 142105Z 27014G20KT 10SM FEW031 SCT060 22/15  A2966 1320 63 2500 270/14G20 RMK AO2
94908KDBQ DBQ20050614151011106/14/05 15:10:31  5-MIN KDBQ 142110Z 28013G20KT 10SM SCT031 SCT060 23/16  A2965 1330 63 2600 280/13G20 RMK AO2
94908KDBQ DBQ20050614151510506/14/05 15:15:31  5-MIN KDBQ 142115Z 28015KT 10SM FEW031 SCT060 23/16  A2966 1320 61 2600 280/15 RMK AO2
94908KDBQ DBQ20050614152011206/14/05 15:20:31  5-MIN KDBQ 142120Z 26017KT 10SM SCT031 SCT050 SCT060  23/16 A2966 1320 63 2600 260/17 RMK AO2
94908KDBQ DBQ20050614152511206/14/05 15:25:31  5-MIN KDBQ 142125Z 26017KT 10SM FEW031 BKN048 BKN060  23/15 A2966 1320 61 2600 260/17 RMK AO2
94908KDBQ DBQ20050614153010506/14/05 15:30:31  5-MIN KDBQ 142130Z 24017KT 10SM SCT033 BKN048 22/16  A2966 1320 70 2400 240/17 RMK AO2
94908KDBQ DBQ20050614153511106/14/05 15:35:31  5-MIN KDBQ 142135Z 24017G23KT 10SM SCT033 BKN048 22/16  A2966 1320 70 2400 240/17G23 RMK AO2
94908KDBQ DBQ20050614154010506/14/05 15:40:31  5-MIN KDBQ 142140Z 25022KT 10SM SCT033 BKN048 21/16  A2966 1320 73 2400 250/22 RMK AO2
94908KDBQ DBQ20050614154511706/14/05 15:45:31  5-MIN KDBQ 142145Z 24017G24KT 10SM SCT033 BKN050 BKN060 21/16 A2966 1320 73 2400 240/17G24 RMK AO2
94908KDBQ DBQ20050614155012906/14/05 15:50:31  5-MIN KDBQ 142150Z 25016KT 10SM SCT033 BKN046 OVC055  22/17 A2966 1320 73 2400 250/16 RMK AO2 SLP038 T02170167
94908KDBQ DBQ20050614155512906/14/05 15:55:31  5-MIN KDBQ 142155Z 25015KT 10SM FEW033 SCT041 BKN050  23/17 A2966 1320 68 2600 250/15 RMK AO2 SLP037 T02280167
94908KDBQ DBQ20050614160011706/14/05 16:00:31  5-MIN KDBQ 142200Z 25017G25KT 10SM FEW035 SCT047 BKN060 22/16 A2966 1320 68 2500 250/17G25 RMK AO2
94908KDBQ DBQ20050614160511706/14/05 16:05:31  5-MIN KDBQ 142205Z 26017G25KT 10SM FEW035 SCT047 BKN055 22/16 A2966 1320 70 2400 260/17G25 RMK AO2
94908KDBQ DBQ20050614161011706/14/05 16:10:31  5-MIN KDBQ 142210Z 25014G22KT 10SM FEW035 SCT047 BKN060 21/16 A2966 1320 73 2400 250/14G22 RMK AO2
94908KDBQ DBQ20050614161511206/14/05 16:15:31  5-MIN KDBQ 142215Z 26015KT 10SM FEW037 BKN047 BKN060  22/17 A2966 1320 73 2400 260/15 RMK AO2
94908KDBQ DBQ20050614162011706/14/05 16:20:31  5-MIN KDBQ 142220Z 26015G23KT 10SM FEW037 SCT045 BKN085 22/16 A2966 1320 68 2500 260/15G23 RMK AO2
94908KDBQ DBQ20050614162511706/14/05 16:25:31  5-MIN KDBQ 142225Z 26017G24KT 10SM FEW037 SCT045 BKN085 22/16 A2966 1320 70 2400 260/17G24 RMK AO2
94908KDBQ DBQ20050614163011706/14/05 16:30:31  5-MIN KDBQ 142230Z 27015G24KT 10SM FEW037 SCT060 SCT085 21/16 A2966 1320 70 2400 260/15G24 RMK AO2
94908KDBQ DBQ20050614163511706/14/05 16:35:31  5-MIN KDBQ 142235Z 27016G20KT 10SM FEW038 SCT060 BKN085 21/16 A2967 1310 73 2300 270/16G20 RMK AO2
94908KDBQ DBQ20050614164011706/14/05 16:40:31  5-MIN KDBQ 142240Z 26016G23KT 10SM FEW042 SCT055 BKN070 21/16 A2967 1310 73 2400 260/16G23 RMK AO2
94908KDBQ DBQ20050614164511706/14/05 16:45:31  5-MIN KDBQ 142245Z 26016G23KT 10SM FEW039 SCT055 BKN070 22/16 A2967 1320 70 2400 260/16G23 RMK AO2
94908KDBQ DBQ20050614165013406/14/05 16:50:31  5-MIN KDBQ 142250Z 28017G24KT 10SM FEW039 SCT055 SCT075 22/16 A2967 1310 70 2400 270/17G24 RMK AO2 SLP041 T02170161
94908KDBQ DBQ20050614165512806/14/05 16:55:31  5-MIN KDBQ 142255Z 27019G25KT 10SM FEW039 SCT075 21/16  A2967 1310 70 2400 270/19G25 RMK AO2 SLP043 T02110156
94908KDBQ DBQ20050614170011106/14/05 17:00:31  5-MIN KDBQ 142300Z 27017G25KT 10SM FEW039 SCT075 21/15  A2967 1310 68 2400 270/17G25 RMK AO2
94908KDBQ DBQ20050614170510406/14/05 17:05:31  5-MIN KDBQ 142305Z 28017G23KT 10SM SCT050 21/15 A2967  1310 68 2400 280/17G23 RMK AO2
94908KDBQ DBQ20050614171011106/14/05 17:10:31  5-MIN KDBQ 142310Z 27016G21KT 10SM FEW050 SCT070 22/16  A2967 1310 68 2400 270/16G21 RMK AO2
94908KDBQ DBQ20050614171511106/14/05 17:15:31  5-MIN KDBQ 142315Z 28014G21KT 10SM FEW049 SCT070 22/16  A2967 1310 68 2400 270/14G21 RMK AO2
94908KDBQ DBQ20050614172011706/14/05 17:20:31  5-MIN KDBQ 142320Z 28016G22KT 10SM FEW036 SCT049 SCT070 21/16 A2967 1310 70 2400 270/16G22 RMK AO2
94908KDBQ DBQ20050614172511206/14/05 17:25:31  5-MIN KDBQ 142325Z 27015KT 10SM FEW029 SCT036 BKN070  21/16 A2967 1310 70 2400 270/15 RMK AO2
94908KDBQ DBQ20050614173011206/14/05 17:30:31  5-MIN KDBQ 142330Z 27013KT 10SM FEW029 SCT036 BKN049  21/16 A2967 1310 70 2400 270/13 RMK AO2
94908KDBQ DBQ20050614173511706/14/05 17:35:31  5-MIN KDBQ 142335Z 28017G20KT 10SM SCT036 BKN070 BKN110 21/16 A2967 1310 70 2400 280/17G20 RMK AO2
94908KDBQ DBQ20050614174010506/14/05 17:40:31  5-MIN KDBQ 142340Z 28016KT 10SM SCT036 BKN110 21/16  A2967 1310 70 2400 270/16 RMK AO2
94908KDBQ DBQ20050614174511106/14/05 17:45:31  5-MIN KDBQ 142345Z 28016G20KT 10SM SCT036 BKN100 22/16  A2968 1300 68 2400 280/16G20 RMK AO2
94908KDBQ DBQ20050614175014606/14/05 17:50:31  5-MIN KDBQ 142350Z 28013G20KT 10SM FEW034 BKN100 21/16  A2968 1300 70 2400 280/13G20 RMK AO2 SLP045 T02110156 10233 20183 58001
94908KDBQ DBQ20050614175514006/14/05 17:55:31  5-MIN KDBQ 142355Z 27015KT 10SM FEW034 BKN095 21/16  A2968 1300 70 2400 270/15 RMK AO2 SLP045 T02110156 10233 20183 53006
94908KDBQ DBQ20050614180011106/14/05 18:00:31  5-MIN KDBQ 150000Z 27017G20KT 10SM FEW036 BKN095 21/16  A2968 1300 70 2400 270/17G20 RMK AO2
94908KDBQ DBQ20050614180511706/14/05 18:05:31  5-MIN KDBQ 150005Z 28015G20KT 10SM FEW044 BKN090 BKN110 21/15 A2968 1300 68 2400 280/15G20 RMK AO2
94908KDBQ DBQ20050614181011706/14/05 18:10:31  5-MIN KDBQ 150010Z 28016G24KT 10SM FEW046 BKN080 OVC095 21/15 A2968 1300 68 2300 280/16G24 RMK AO2
94908KDBQ DBQ20050614181511706/14/05 18:15:31  5-MIN KDBQ 150015Z 28018G24KT 10SM FEW046 BKN075 OVC090 21/15 A2968 1300 68 2300 280/18G24 RMK AO2
94908KDBQ DBQ20050614182011706/14/05 18:20:31  5-MIN KDBQ 150020Z 28017G23KT 10SM FEW046 BKN070 OVC090 21/14 A2968 1300 65 2300 270/17G23 RMK AO2
94908KDBQ DBQ20050614182511706/14/05 18:25:31  5-MIN KDBQ 150025Z 28017G23KT 10SM FEW046 BKN070 OVC085 21/14 A2969 1300 65 2300 280/17G23 RMK AO2
94908KDBQ DBQ20050614183010506/14/05 18:30:31  5-MIN KDBQ 150030Z 28015KT 10SM BKN070 BKN085 21/15  A2969 1300 68 2300 280/15 RMK AO2
94908KDBQ DBQ20050614183509706/14/05 18:35:31  5-MIN KDBQ 150035Z 28013KT 10SM BKN070 21/15 A2969 1300 68 2300 280/13 RMK AO2
94908KDBQ DBQ20050614184009706/14/05 18:40:31  5-MIN KDBQ 150040Z 27015KT 10SM BKN070 21/15 A2969 1300 70 2300 270/15 RMK AO2
94908KDBQ DBQ20050614184510406/14/05 18:45:31  5-MIN KDBQ 150045Z 27015G20KT 10SM SCT070 21/15 A2969  1290 70 2300 270/15G20 RMK AO2
94908KDBQ DBQ20050614185013106/14/05 18:50:31  5-MIN KDBQ 150050Z AUTO 28018KT 10SM FEW065 SCT080 21/14 A2969 1290 67 2300 280/18 RMK AO2 SLP048 T02060144 TSNO
94908KDBQ DBQ20050614185513106/14/05 18:55:31  5-MIN KDBQ 150055Z AUTO 27014KT 10SM FEW065 SCT080 21/15 A2969 1290 70 2300 270/14 RMK AO2 SLP049 T02060150 TSNO
94908KDBQ DBQ20050614190012106/14/05 19:00:31  5-MIN KDBQ 150100Z AUTO 28011G19KT 10SM FEW065 BKN080  21/15 A2969 1290 70 2300 270/11G19 RMK AO2 TSNO
94908KDBQ DBQ20050614190511406/14/05 19:05:31  5-MIN KDBQ 150105Z AUTO 28012G18KT 10SM BKN075 21/15  A2969 1290 70 2300 270/12G18 RMK AO2 TSNO
94908KDBQ DBQ20050614191010706/14/05 19:10:31  5-MIN KDBQ 150110Z AUTO 27011KT 10SM BKN070 21/15 A2969 1290 70 2300 270/11 RMK AO2 TSNO
94908KDBQ DBQ20050614191510706/14/05 19:15:31  5-MIN KDBQ 150115Z AUTO 27010KT 10SM OVC070 21/15 A2969 1290 70 2300 270/10 RMK AO2 TSNO
94908KDBQ DBQ20050614192010706/14/05 19:20:31  5-MIN KDBQ 150120Z AUTO 27012KT 10SM BKN075 21/15 A2968 1300 70 2300 270/12 RMK AO2 TSNO
94908KDBQ DBQ20050614192510706/14/05 19:25:31  5-MIN KDBQ 150125Z AUTO 27010KT 10SM BKN070 20/15 A2969 1290 72 2200 270/10 RMK AO2 TSNO
94908KDBQ DBQ20050614193010706/14/05 19:30:31  5-MIN KDBQ 150130Z AUTO 27009KT 10SM BKN070 20/16 A2968 1300 75 2200 270/09 RMK AO2 TSNO
94908KDBQ DBQ20050614193510706/14/05 19:35:31  5-MIN KDBQ 150135Z AUTO 27010KT 10SM BKN070 20/16 A2969 1290 75 2200 270/10 RMK AO2 TSNO
94908KDBQ DBQ20050614194011406/14/05 19:40:31  5-MIN KDBQ 150140Z AUTO 26009KT 10SM FEW060 SCT075 20/16 A2969 1290 75 2200 260/09 RMK AO2 TSNO
94908KDBQ DBQ20050614194512206/14/05 19:45:31  5-MIN KDBQ 150145Z AUTO 26009KT 10SM SCT055 SCT075  BKN095 20/16 A2968 1300 75 2200 260/09 RMK AO2 TSNO
94908KDBQ DBQ20050614195013106/14/05 19:50:31  5-MIN KDBQ 150150Z AUTO 25010KT 10SM SCT055 BKN095 20/16 A2969 1290 75 2200 250/10 RMK AO2 SLP049 T02000156 TSNO
94908KDBQ DBQ20050614195513106/14/05 19:55:31  5-MIN KDBQ 150155Z AUTO 26010KT 10SM SCT055 BKN095 20/16 A2969 1290 75 2200 260/10 RMK AO2 SLP049 T02000156 TSNO
94908KDBQ DBQ20050614200011406/14/05 20:00:31  5-MIN KDBQ 150200Z AUTO 25009KT 10SM FEW050 BKN095 19/16 A2968 1300 78 2200 250/09 RMK AO2 TSNO
94908KDBQ DBQ20050614200512206/14/05 20:05:31  5-MIN KDBQ 150205Z AUTO 25009KT 10SM FEW055 SCT075  BKN090 19/16 A2969 1290 78 2100 250/09 RMK AO2 TSNO
94908KDBQ DBQ20050614201012206/14/05 20:10:31  5-MIN KDBQ 150210Z AUTO 26010KT 10SM FEW038 SCT055  BKN090 19/16 A2968 1300 81 2200 260/10 RMK AO2 TSNO
94908KDBQ DBQ20050614201512206/14/05 20:15:31  5-MIN KDBQ 150215Z AUTO 25011KT 10SM SCT036 BKN050  BKN075 19/16 A2969 1290 81 2100 250/11 RMK AO2 TSNO
94908KDBQ DBQ20050614202012206/14/05 20:20:31  5-MIN KDBQ 150220Z AUTO 26010KT 10SM BKN036 BKN055  OVC090 19/16 A2968 1300 81 2200 260/10 RMK AO2 TSNO
94908KDBQ DBQ20050614202512206/14/05 20:25:31  5-MIN KDBQ 150225Z AUTO 27010KT 10SM SCT033 BKN040  OVC090 19/16 A2970 1290 81 2100 270/10 RMK AO2 TSNO
94908KDBQ DBQ20050614203012206/14/05 20:30:31  5-MIN KDBQ 150230Z AUTO 26010KT 10SM SCT033 BKN040  BKN075 19/16 A2969 1290 81 2100 260/10 RMK AO2 TSNO
94908KDBQ DBQ20050614203512206/14/05 20:35:31  5-MIN KDBQ 150235Z AUTO 26010KT 10SM SCT033 SCT040  BKN090 19/16 A2970 1280 81 2100 260/10 RMK AO2 TSNO
94908KDBQ DBQ20050614204012206/14/05 20:40:31  5-MIN KDBQ 150240Z AUTO 26011KT 10SM SCT034 SCT070  BKN085 19/16 A2970 1280 81 2100 260/11 RMK AO2 TSNO
94908KDBQ DBQ20050614204512206/14/05 20:45:31  5-MIN KDBQ 150245Z AUTO 27009KT 10SM FEW033 SCT040  BKN070 19/16 A2969 1290 81 2100 270/09 RMK AO2 TSNO
94908KDBQ DBQ20050614205014506/14/05 20:50:31  5-MIN KDBQ 150250Z AUTO 27011KT 10SM FEW033 SCT044  BKN055 19/16 A2970 1280 81 2100 270/11 RMK AO2 SLP053 T01940161 53006 TSNO
94908KDBQ DBQ20050614205514506/14/05 20:55:31  5-MIN KDBQ 150255Z AUTO 27011KT 10SM FEW039 BKN050  BKN070 19/16 A2969 1290 81 2100 270/11 RMK AO2 SLP050 T01940161 51004 TSNO
94908KDBQ DBQ20050614210013706/14/05 21:00:31  5-MIN KDBQ 150300Z AUTO 26014KT 9SM -RA SCT037 BKN050  BKN070 19/16 A2970 1280 81 2100 260/14 RMK AO2 RAB00 P0000 TSNO
94908KDBQ DBQ20050614210513806/14/05 21:05:31  5-MIN KDBQ 150305Z AUTO 26010KT 10SM -RA SCT037 BKN048  BKN055 19/16 A2969 1290 84 2100 260/10 RMK AO2 RAB00 P0000 TSNO
94908KDBQ DBQ20050614211013706/14/05 21:10:31  5-MIN KDBQ 150310Z AUTO 26009KT 10SM FEW037 SCT050  SCT070 18/16 A2970 1280 87 2000 260/09 RMK AO2 RAB00E10 P0000 TSNO
94908KDBQ DBQ20050614211512906/14/05 21:15:31  5-MIN KDBQ 150315Z AUTO 26009KT 10SM FEW037 SCT050 18/16 A2970 1280 87 2000 260/09 RMK AO2 RAB00E10 P0000 TSNO
94908KDBQ DBQ20050614212012906/14/05 21:20:31  5-MIN KDBQ 150320Z AUTO 26010KT 10SM FEW035 SCT050 18/16 A2969 1290 87 2000 260/10 RMK AO2 RAB00E10 P0000 TSNO
94908KDBQ DBQ20050614212512206/14/05 21:25:31  5-MIN KDBQ 150325Z AUTO 26010KT 10SM SCT035 18/17 A2970 1280 90 2000 260/10 RMK AO2 RAB00E10 P0000 TSNO
94908KDBQ DBQ20050614213012906/14/05 21:30:31  5-MIN KDBQ 150330Z AUTO 27011KT 10SM FEW035 SCT048 18/16 A2969 1290 87 2000 270/11 RMK AO2 RAB00E10 P0000 TSNO
94908KDBQ DBQ20050614213512206/14/05 21:35:31  5-MIN KDBQ 150335Z AUTO 27011KT 10SM FEW035 18/16 A2970 1290 87 2000 270/11 RMK AO2 RAB00E10 P0000 TSNO
94908KDBQ DBQ20050614214012206/14/05 21:40:31  5-MIN KDBQ 150340Z AUTO 28012KT 10SM FEW035 18/16 A2970 1280 87 2000 280/12 RMK AO2 RAB00E10 P0000 TSNO
94908KDBQ DBQ20050614214512206/14/05 21:45:31  5-MIN KDBQ 150345Z AUTO 28011KT 10SM FEW035 18/16 A2970 1290 87 2000 280/11 RMK AO2 RAB00E10 P0000 TSNO
94908KDBQ DBQ20050614220511406/14/05 22:05:31  5-MIN KDBQ 150405Z AUTO 28013G18KT 10SM FEW075 18/16  A2971 1280 87 2000 280/13G18 RMK AO2 TSNO
94908KDBQ DBQ20050614221011406/14/05 22:10:31  5-MIN KDBQ 150410Z AUTO 28012G19KT 10SM FEW075 18/16  A2970 1280 87 2000 280/12G19 RMK AO2 TSNO
94908KDBQ DBQ20050614221511406/14/05 22:15:31  5-MIN KDBQ 150415Z AUTO 28013G19KT 10SM FEW075 18/16  A29y0 1280 87 2000 280/13G19 RMK AO2 TSNO
94908KDBQ DBQ20050614222011406/14/05 22:20:31  5-MIN KDBQ 150420Z AUTO 28015KT 10SM FEW055 SCT075 18/16 A2971 1280 87 2000 280/15 RMK AO2 TSNO
94908KDBQ DBQ20050614222511406/14/05 22:25:31  5-MIN KDBQ 150425Z AUTO 28013KT 10SM SCT055 SCT075 18/16 A2970 1280 87 2000 280/13 RMK AO2 TSNO
94908KDBQ DBQ20050614223010706/14/05 22:30:31  5-MIN KDBQ 150430Z AUTO 28012KT 10SM SCT055 18/16 A29y0 1280 87 2000 280/12 RMK AO2 TSNO
94908KDBQ DBQ20050614223510706/14/05 22:35:31  5-MIN KDBQ 150435Z AUTO 29013KT 10SM FEW055 18/16 A29y0 1280 87 2000 290/13 RMK AO2 TSNO
94908KDBQ DBQ20050614224010706/14/05 22:40:31  5-MIN KDBQ 150440Z AUTO 28013KT 10SM FEW055 18/16 A2970 1280 87 2000 280/13 RMK AO2 TSNO
94908KDBQ DBQ20050614224510706/14/05 22:45:31  5-MIN KDBQ 150445Z AUTO 29012KT 10SM FEW055 18/16 A29y0 1280 87 2000 280/12 RMK AO2 TSNO
94908KDBQ DBQ20050614225012406/14/05 22:50:31  5-MIN KDBQ 150450Z AUTO 28012KT 10SM FEW055 18/16 A2971 1280 87 2000 280/12 RMK AO2 SLP056 T01830161 TSNO
94908KDBQ DBQ20050614225512206/14/05 22:55:31  5-MIN KDBQ 150455Z AUTO 28013KT 10SM CLR 18/16 A2971  1280 87 2000 280/13 RMK AO2 SLP056 T01830161 TSNO
94908KDBQ DBQ20050614230010506/14/05 23:00:31  5-MIN KDBQ 150500Z AUTO 28012KT 10SM CLR 18/16 A29y0  1280 90 1900 280/12 RMK AO2 TSNO
94908KDBQ DBQ20050614230510506/14/05 23:05:31  5-MIN KDBQ 150505Z AUTO 28013KT 10SM CLR 18/16 A29y0  1280 87 1900 280/13 RMK AO2 TSNO
94908KDBQ DBQ20050614231011006/14/05 23:10:31  5-MIN KDBQ 150510Z AUTO 28016G20KT 10SM CLR 18/16 A29y1 12y0 87 1900 280/16G20 RMK AO2 TSNO
94908KDBQ DBQ20050614231511006/14/05 23:15:31  5-MIN KDBQ 150515Z AUTO 28013G20KT 10SM CLR 18/16 A29y0 1280 87 1900 280/13G20 RMK AO2 TSNO
94908KDBQ DBQ20050614232010506/14/05 23:20:31  5-MIN KDBQ 150520Z AUTO 6/143KT 10SM CLR 18/16 A29y0  1280 87 1900 280/13 RMK AO2 TSNO
94908KDBQ DBQ20050614232510506/14/05 23:25:31  5-MIN KDBQ 150525Z AUTO 28012KT 10SM CLR 18/16 A29y0  1280 87 1900 280/12 RMK AO2 TSNO
94908KDBQ DBQ20050614233010506/14/05 23:30:31  5-MIN KDBQ 150530Z AUTO 69012KT 10SM CLR 18/16 A29y1  12y0 87 1900 280/12 RMK AO2 TSNO
94908KDBQ DBQ20050614233510506/14/05 23:35:31  5-MIN KDBQ 150535Z AUTO 29012KT 10SM CLR 18/16 A29y0  1280 87 1900 280/12 RMK AO2 TSNO
94908KDBQ DBQ20050614234010506/14/05 23:40:31  5-MIN KDBQ 150540Z AUTO 69015KT 10SM CLR 18/16 A2970  1280 87 1900 290/15 RMK AO2 TSNO
94908KDBQ DBQ20050614234510506/14/05 23:45:31  5-MIN KDBQ 150545Z AUTO 69014KT 10SM CLR 18/16 A2970  1280 87 1900 290/14 RMK AO2 TSNO
94908KDBQ DBQ20050614235016306/14/05 23:50:31  5-MIN KDBQ 150550Z AUTO 69012G19KT 10SM CLR 18/16 A2970 1280 87 1900 290/12G19 RMK AO2 SLP055 60000 T01780156 10211 2018015 402330172 51004 TSNO
94908KDBQ DBQ20050614235515306/14/05 23:55:31  5-MIN KDBQ 150555Z AUTO 69012KT 10SM CLR 18/16 A2970  1280 87 1900 290/12 RMK AO2 SLP054 60000 T0175610201120101402301732 2 50003 TSNO
94908KDBQ DBQ20050615000006706/15/05 00:00:38  5-MIN KDBQ 150T0175Z AUTO 2901 22970  8/16 A2970
94908KDBQ DBQ20050615075512206/15/05 07:55:31  5-MIN KDBQ 151355Z 33014KT 10SM SCT016 OVC024 20/15  A2980 1190 72 2100 330/14 RMK AO2 SLP088 T02000150
94908KDBQ DBQ20050615080011106/15/05 08:00:31  5-MIN KDBQ 151400Z 30011G20KT 10SM BKN019 OVC026 19/16  A2980 1190 78 2000 300/11G20 RMK AO2
94908KDBQ DBQ20050615080511706/15/05 08:05:31  5-MIN KDBQ 151405Z 30015G19KT 10SM BKN019 BKN026 OVC033 19/15 A2981 1190 78 2000 300/15G19 RMK AO2
94908KDBQ DBQ20050615081011706/15/05 08:10:31  5-MIN KDBQ 151410Z 30016G19KT 10SM SCT019 BKN026 OVC033 19/15 A2981 1180 78 2000 290/16G19 RMK AO2
94908KDBQ DBQ20050615081511706/15/05 08:15:31  5-MIN KDBQ 151415Z 31015G19KT 10SM SCT021 BKN026 OVC033 19/15 A2981 1180 75 2000 310/15G19 RMK AO2
94908KDBQ DBQ20050615082011206/15/05 08:20:31  5-MIN KDBQ 151420Z 31015KT 10SM FEW018 BKN026 OVC033  19/15 A2981 1180 75 2000 310/15 RMK AO2
94908KDBQ DBQ20050615082511206/15/05 08:25:31  5-MIN KDBQ 151425Z 30013KT 10SM SCT018 BKN023 OVC033  19/15 A2981 1180 75 2000 300/13 RMK AO2
94908KDBQ DBQ20050615083011706/15/05 08:30:31  5-MIN KDBQ 151430Z 30016G19KT 10SM BKN021 BKN027 OVC033 19/15 A2981 1180 75 2000 300/16G19 RMK AO2
94908KDBQ DBQ20050615083511206/15/05 08:35:31  5-MIN KDBQ 151435Z 30015KT 10SM BKN021 BKN027 OVC033  19/15 A2981 1180 78 1900 300/15 RMK AO2
94908KDBQ DBQ20050615084011206/15/05 08:40:31  5-MIN KDBQ 151440Z 31011KT 10SM BKN021 BKN027 OVC036  19/15 A2981 1180 75 2000 310/11 RMK AO2
94908KDBQ DBQ20050615084511206/15/05 08:45:31  5-MIN KDBQ 151445Z 31012KT 10SM BKN021 BKN027 OVC034  19/16 A2981 1180 78 2000 310/12 RMK AO2
94908KDBQ DBQ20050615085014006/15/05 08:50:31  5-MIN KDBQ 151450Z 30018G22KT 10SM FEW019 SCT024 OVC034 19/15 A2981 1180 75 2000 300/18G22 RMK AO2 SLP090 T01940150 53024
94908KDBQ DBQ20050615085513406/15/05 08:55:31  5-MIN KDBQ 151455Z 31014G22KT 10SM SCT021 OVC034 19/15  A2981 1180 75 2000 310/14G22 RMK AO2 SLP090 T01940150 51010
94908KDBQ DBQ20050615090011106/15/05 09:00:31  5-MIN KDBQ 151500Z 32015G21KT 10SM FEW021 OVC034 19/15  A2981 1180 75 2000 320/15G21 RMK AO2
94908KDBQ DBQ20050615090511106/15/05 09:05:31  5-MIN KDBQ 151505Z 32014G21KT 10SM FEW022 OVC034 20/15  A2981 1180 72 2100 310/14G21 RMK AO2
94908KDBQ DBQ20050615091010406/15/05 09:10:31  5-MIN KDBQ 151510Z 32012G19KT 10SM OVC034 20/15 A2981  1180 72 2100 320/12G19 RMK AO2
94908KDBQ DBQ20050615091510406/15/05 09:15:31  5-MIN KDBQ 151515Z 33012G19KT 10SM OVC036 20/15 A2981  1180 72 2100 330/12G19 RMK AO2
94908KDBQ DBQ20050615092011106/15/05 09:20:31  5-MIN KDBQ 151520Z 33015G20KT 10SM FEW029 OVC036 19/14  A2981 1180 72 2000 330/15G20 RMK AO2
94908KDBQ DBQ20050615092511106/15/05 09:25:31  5-MIN KDBQ 151525Z 33016G23KT 10SM SCT028 OVC036 19/14  A2982 1170 72 2000 330/16G23 RMK AO2
94908KDBQ DBQ20050615093011106/15/05 09:30:31  5-MIN KDBQ 151530Z 33014G23KT 10SM FEW026 OVC033 19/14  A2981 1180 75 1900 330/14G23 RMK AO2
94908KDBQ DBQ20050615093511206/15/05 09:35:31  5-MIN KDBQ 151535Z 33012KT 10SM FEW026 BKN033 OVC039  19/14 A2981 1180 72 2000 330/12 RMK AO2
94908KDBQ DBQ20050615094011206/15/05 09:40:31  5-MIN KDBQ 151540Z 32012KT 10SM FEW025 BKN032 BKN039  21/16 A2982 1180 73 2100 320/12 RMK AO2
94908KDBQ DBQ20050615094511706/15/05 09:45:31  5-MIN KDBQ 151545Z 32016G20KT 10SM FEW028 SCT032 BKN040 21/16 A2982 1170 70 2200 310/16G20 RMK AO2
94908KDBQ DBQ20050615095013406/15/05 09:50:31  5-MIN KDBQ 151550Z 32016G20KT 10SM FEW028 SCT032 SCT040 21/15 A2982 1170 68 2200 320/16G20 RMK AO2 SLP093 T02110150
94908KDBQ DBQ20050615095512906/15/05 09:55:31  5-MIN KDBQ 151555Z 32013KT 10SM FEW025 SCT031 SCT040  22/15 A2982 1170 65 2300 320/13 RMK AO2 SLP093 T02170150
94908KDBQ DBQ20050615100011206/15/05 10:00:31  5-MIN KDBQ 151600Z 31015KT 10SM FEW025 SCT030 SCT037  22/16 A2982 1170 68 2300 310/15 RMK AO2
94908KDBQ DBQ20050615100511106/15/05 10:05:31  5-MIN KDBQ 151605Z 31017G20KT 10SM SCT027 BKN032 21/14  A2982 1170 67 2100 310/17G20 RMK AO2
94908KDBQ DBQ20050615101009706/15/05 10:10:31  5-MIN KDBQ 151610Z 33015KT 10SM BKN029 21/14 A2982 1170 67 2100 330/15 RMK AO2
94908KDBQ DBQ20050615101510506/15/05 10:15:31  5-MIN KDBQ 151615Z 31016KT 10SM BKN029 BKN034 21/14  A2982 1170 65 2200 310/16 RMK AO2
94908KDBQ DBQ20050615102009706/15/05 10:20:31  5-MIN KDBQ 151620Z 32014KT 10SM BKN029 21/14 A2983 1170 67 2100 320/14 RMK AO2
94908KDBQ DBQ20050615102510506/15/05 10:25:31  5-MIN KDBQ 151625Z 33017KT 10SM BKN029 OVC036 21/14  A2983 1160 65 2100 330/17 RMK AO2
94908KDBQ DBQ20050615103011106/15/05 10:30:31  5-MIN KDBQ 151630Z 33016G23KT 10SM BKN029 OVC036 21/14  A2983 1160 65 2100 330/16G23 RMK AO2
94908KDBQ DBQ20050615103510406/15/05 10:35:31  5-MIN KDBQ 151635Z 33015G23KT 10SM OVC032 21/14 A2983  1160 63 2200 330/15G23 RMK AO2
94908KDBQ DBQ20050615104010406/15/05 10:40:31  5-MIN KDBQ 151640Z 34016G20KT 10SM BKN032 22/14 A2983  1160 63 2200 340/16G20 RMK AO2
94908KDBQ DBQ20050615104511106/15/05 10:45:31  5-MIN KDBQ 151645Z 34014G20KT 10SM BKN033 BKN060 22/14  A2983 1160 63 2200 340/14G20 RMK AO2
94908KDBQ DBQ20050615105012206/15/05 10:50:31  5-MIN KDBQ 151650Z 33016KT 10SM BKN033 BKN060 21/14  A2983 1160 63 2200 330/16 RMK AO2 SLP097 T02110139
94908KDBQ DBQ20050615105511406/15/05 10:55:31  5-MIN KDBQ 151655Z 34015KT 10SM BKN033 22/14 A2983 1160 63 2200 340/15 RMK AO2 SLP097 T02170144
94908KDBQ DBQ20050615110009706/15/05 11:00:31  5-MIN KDBQ 151700Z 34013KT 10SM BKN033 22/15 A2983 1160 63 2300 340/13 RMK AO2
94908KDBQ DBQ20050615110511106/15/05 11:05:31  5-MIN KDBQ 151705Z 33014G19KT 10SM SCT029 BKN033 21/14  A2983 1160 65 2200 330/14G19 RMK AO2
94908KDBQ DBQ20050615111011106/15/05 11:10:31  5-MIN KDBQ 151710Z 34016G23KT 10SM BKN029 BKN033 21/14  A2983 1160 65 2200 340/16G23 RMK AO2
94908KDBQ DBQ20050615111511106/15/05 11:15:31  5-MIN KDBQ 151715Z 34017G23KT 10SM BKN029 BKN033 21/14  A2983 1160 63 2200 340/17G23 RMK AO2
94908KDBQ DBQ20050615112011106/15/05 11:20:31  5-MIN KDBQ 151720Z 34019G22KT 10SM BKN029 BKN035 22/14  A2984 1160 61 2200 340/19G22 RMK AO2
94908KDBQ DBQ20050615112509706/15/05 11:25:31  5-MIN KDBQ 151725Z 35017KT 10SM BKN032 22/14 A2983 1160 63 2200 350/17 RMK AO2
94908KDBQ DBQ20050615113011106/15/05 11:30:31  5-MIN KDBQ 151730Z 35015G21KT 10SM SCT029 BKN035 21/14  A2984 1160 65 2200 350/15G21 RMK AO2
94908KDBQ DBQ20050615113510406/15/05 11:35:31  5-MIN KDBQ 151735Z 34015G21KT 10SM BKN032 22/14 A2983  1160 63 2200 340/15G21 RMK AO2
94908KDBQ DBQ20050615114009706/15/05 11:40:31  5-MIN KDBQ 151740Z 34012KT 10SM BKN032 22/14 A2984 1150 63 2200 340/12 RMK AO2
94908KDBQ DBQ20050615114509706/15/05 11:45:31  5-MIN KDBQ 151745Z 34014KT 10SM SCT032 22/15 A2984 1160 65 2200 340/14 RMK AO2
94908KDBQ DBQ20050615115013206/15/05 11:50:31  5-MIN KDBQ 151750Z 34019KT 10SM SCT030 22/14 A2984 1150 63 2200 340/19 RMK AO2 SLP101 T02170144 10222 20172 51010
94908KDBQ DBQ20050615115513906/15/05 11:55:31  5-MIN KDBQ 151755Z 34014G20KT 10SM SCT030 22/14 A2984  1150 63 2200 340/14G20 RMK AO2 SLP101 T02170144 10222 20172 53010
94908KDBQ DBQ20050615120009706/15/05 12:00:31  5-MIN KDBQ 151800Z 34015KT 10SM SCT030 22/14 A2984 1150 63 2200 340/15 RMK AO2
94908KDBQ DBQ20050615120509706/15/05 12:05:31  5-MIN KDBQ 151805Z 35012KT 10SM SCT028 21/14 A2984 1150 65 2200 350/12 RMK AO2
94908KDBQ DBQ20050615121009706/15/05 12:10:31  5-MIN KDBQ 151810Z 35014KT 10SM BKN028 21/14 A2984 1150 65 2200 350/14 RMK AO2
94908KDBQ DBQ20050615121509706/15/05 12:15:31  5-MIN KDBQ 151815Z 36011KT 10SM BKN028 21/14 A2984 1150 67 2100 360/11 RMK AO2
94908KDBQ DBQ20050615122010506/15/05 12:20:31  5-MIN KDBQ 151820Z 35012KT 10SM BKN028 BKN033 21/14  A2984 1150 65 2200 340/12 RMK AO2
94908KDBQ DBQ20050615122509706/15/05 12:25:31  5-MIN KDBQ 151825Z 35015KT 10SM BKN030 22/14 A2984 1150 63 2200 350/15 RMK AO2
94908KDBQ DBQ20050615123009706/15/05 12:30:31  5-MIN KDBQ 151830Z 34013KT 10SM BKN030 22/14 A2984 1150 63 2200 340/13 RMK AO2
94908KDBQ DBQ20050615123509706/15/05 12:35:31  5-MIN KDBQ 151835Z 33012KT 10SM SCT030 22/14 A2984 1150 61 2300 330/12 RMK AO2
94908KDBQ DBQ20050615124010506/15/05 12:40:31  5-MIN KDBQ 151840Z 34014KT 10SM SCT028 SCT033 22/15  A2984 1150 63 2300 340/14 RMK AO2
94908KDBQ DBQ20050615124509706/15/05 12:45:31  5-MIN KDBQ 151845Z 34014KT 10SM BKN030 22/14 A2985 1150 63 2200 340/14 RMK AO2
94908KDBQ DBQ20050615125011406/15/05 12:50:31  5-MIN KDBQ 151850Z 33015KT 10SM BKN030 21/14 A2985 1150 65 2200 330/15 RMK AO2 SLP103 T02110144
94908KDBQ DBQ20050615125512206/15/05 12:55:31  5-MIN KDBQ 151855Z 35013KT 10SM SCT030 BKN034 22/14  A2985 1150 63 2200 340/13 RMK AO2 SLP103 T02170144
94908KDBQ DBQ20050615130010506/15/05 13:00:31  5-MIN KDBQ 151900Z 35016KT 10SM SCT030 BKN034 21/14  A2985 1150 63 2200 350/16 RMK AO2
94908KDBQ DBQ20050615130509706/15/05 13:05:31  5-MIN KDBQ 151905Z 34013KT 10SM OVC032 21/14 A2985 1150 65 2100 340/13 RMK AO2
94908KDBQ DBQ20050615131010406/15/05 13:10:31  5-MIN KDBQ 151910Z 34016G20KT 10SM OVC032 21/14 A2985  1140 65 2200 340/16G20 RMK AO2
94908KDBQ DBQ20050615131510506/15/05 13:15:31  5-MIN KDBQ 151915Z 34016KT 10SM SCT029 OVC034 21/14  A2985 1140 65 2100 340/16 RMK AO2
94908KDBQ DBQ20050615132009706/15/05 13:20:31  5-MIN KDBQ 151920Z 33014KT 10SM OVC034 21/14 A2985 1140 63 2200 330/14 RMK AO2
94908KDBQ DBQ20050615132509706/15/05 13:25:31  5-MIN KDBQ 151925Z 35012KT 10SM OVC034 21/14 A2986 1140 63 2100 350/12 RMK AO2
94908KDBQ DBQ20050615133009706/15/05 13:30:31  5-MIN KDBQ 151930Z 34014KT 10SM OVC034 21/14 A2986 1140 63 2100 340/14 RMK AO2
94908KDBQ DBQ20050615133511106/15/05 13:35:31  5-MIN KDBQ 151935Z 36012G17KT 10SM BKN030 OVC036 21/14  A2986 1140 67 2100 360/12G17 RMK AO2
94908KDBQ DBQ20050615134010406/15/05 13:40:31  5-MIN KDBQ 151940Z 34013G18KT 10SM OVC032 21/14 A2986  1130 67 2100 340/13G18 RMK AO2
94908KDBQ DBQ20050615134510406/15/05 13:45:31  5-MIN KDBQ 151945Z 36011G18KT 10SM OVC032 21/14 A2986  1130 65 2100 350/11G18 RMK AO2
94908KDBQ DBQ20050615135012206/15/05 13:50:31  5-MIN KDBQ 151950Z 35012KT 10SM BKN030 OVC035 21/14  A2986 1130 65 2100 350/12 RMK AO2 SLP108 T02110144
94908KDBQ DBQ20050615135512806/15/05 13:55:31  5-MIN KDBQ 151955Z 35014G22KT 10SM SCT030 OVC035 21/14  A2986 1130 65 2100 350/14G22 RMK AO2 SLP108 T02110144
94908KDBQ DBQ20050615140011106/15/05 14:00:31  5-MIN KDBQ 152000Z 34015G22KT 10SM SCT029 OVC035 21/14  A2986 1130 63 2100 340/15G22 RMK AO2
94908KDBQ DBQ20050615140510506/15/05 14:05:31  5-MIN KDBQ 152005Z 34015KT 10SM SCT029 OVC035 21/14  A2987 1130 63 2100 340/15 RMK AO2
94908KDBQ DBQ20050615141010506/15/05 14:10:31  5-MIN KDBQ 152010Z 35011KT 10SM SCT030 OVC035 21/14  A2987 1130 65 2100 350/11 RMK AO2
94908KDBQ DBQ20050615141509706/15/05 14:15:31  5-MIN KDBQ 152015Z 33013KT 10SM OVC035 21/14 A2986 1130 63 2100 330/13 RMK AO2
94908KDBQ DBQ20050615142009706/15/05 14:20:31  5-MIN KDBQ 152020Z 33015KT 10SM OVC033 22/14 A2986 1130 61 2200 330/15 RMK AO2
94908KDBQ DBQ20050615142509706/15/05 14:25:31  5-MIN KDBQ 152025Z 34013KT 10SM BKN033 22/14 A2987 1130 61 2200 340/13 RMK AO2
94908KDBQ DBQ20050615143010406/15/05 14:30:31  5-MIN KDBQ 152030Z 33015G19KT 10SM BKN035 21/14 A2987  1130 63 2100 330/15G19 RMK AO2
94908KDBQ DBQ20050615143510406/15/05 14:35:31  5-MIN KDBQ 152035Z 35014G19KT 10SM BKN035 21/14 A2987  1130 65 2100 350/14G19 RMK AO2
94908KDBQ DBQ20050615144009706/15/05 14:40:31  5-MIN KDBQ 152040Z 33013KT 10SM BKN035 21/14 A2987 1130 65 2100 330/13 RMK AO2
94908KDBQ DBQ20050615144510506/15/05 14:45:31  5-MIN KDBQ 152045Z 34014KT 10SM FEW029 BKN035 21/14  A2987 1130 63 2100 340/14 RMK AO2
94908KDBQ DBQ20050615145013406/15/05 14:50:31  5-MIN KDBQ 152050Z 36010G18KT 10SM SCT029 OVC035 21/14  A2987 1120 65 2100 350/10G18 RMK AO2 SLP112 T02060139 53010
94908KDBQ DBQ20050615145512706/15/05 14:55:31  5-MIN KDBQ 152055Z 33016G19KT 10SM OVC032 20/14 A2987  1120 67 2000 330/16G19 RMK AO2 SLP113 T02000139 53010
94908KDBQ DBQ20050615150011106/15/05 15:00:31  5-MIN KDBQ 152100Z 34012G19KT 10SM SCT029 OVC034 21/13  A2988 1120 63 2100 340/12G19 RMK AO2
94908KDBQ DBQ20050615150509706/15/05 15:05:31  5-MIN KDBQ 152105Z 35015KT 10SM OVC032 20/13 A2988 1120 65 2000 340/15 RMK AO2
94908KDBQ DBQ20050615151010506/15/05 15:10:31  5-MIN KDBQ 152110Z 35013KT 10SM BKN032 OVC038 20/13  A2988 1120 65 2000 350/13 RMK AO2
94908KDBQ DBQ20050615151510506/15/05 15:15:31  5-MIN KDBQ 152115Z 36011KT 10SM BKN030 OVC036 20/14  A2988 1120 67 2000 360/11 RMK AO2
94908KDBQ DBQ20050615152009706/15/05 15:20:31  5-MIN KDBQ 152120Z 35013KT 10SM OVC033 20/14 A2988 1120 67 2000 350/13 RMK AO2
94908KDBQ DBQ20050615152510506/15/05 15:25:31  5-MIN KDBQ 152125Z 34014KT 10SM SCT030 OVC036 20/13  A2988 1120 65 2000 340/14 RMK AO2
94908KDBQ DBQ20050615153009706/15/05 15:30:31  5-MIN KDBQ 152130Z 35011KT 10SM OVC033 19/13 A2988 1120 67 1900 350/11 RMK AO2
94908KDBQ DBQ20050615153510506/15/05 15:35:31  5-MIN KDBQ 152135Z 34009KT 10SM SCT030 OVC036 20/14  A2988 1110 67 2000 340/09 RMK AO2
94908KDBQ DBQ20050615154009706/15/05 15:40:31  5-MIN KDBQ 152140Z 35009KT 10SM OVC034 20/14 A2988 1110 67 2000 350/09 RMK AO2
94908KDBQ DBQ20050615154509706/15/05 15:45:31  5-MIN KDBQ 152145Z 34011KT 10SM OVC034 21/14 A2988 1110 65 2100 340/11 RMK AO2
94908KDBQ DBQ20050615155011406/15/05 15:50:31  5-MIN KDBQ 152150Z 35011KT 10SM OVC035 21/14 A2988 1110 65 2100 350/11 RMK AO2 SLP116 T02060139
94908KDBQ DBQ20050615155511406/15/05 15:55:31  5-MIN KDBQ 152155Z 35010KT 10SM OVC035 21/14 A2988 1110 65 2100 340/10 RMK AO2 SLP115 T02110144
94908KDBQ DBQ20050615160009706/15/05 16:00:31  5-MIN KDBQ 152200Z 35011KT 10SM OVC035 21/14 A2988 1110 65 2100 350/11 RMK AO2
94908KDBQ DBQ20050615160509706/15/05 16:05:31  5-MIN KDBQ 152205Z 35011KT 10SM OVC037 21/13 A2988 1110 63 2100 350/11 RMK AO2
94908KDBQ DBQ20050615161009706/15/05 16:10:31  5-MIN KDBQ 152210Z 34012KT 10SM OVC037 21/13 A2988 1110 63 2100 340/12 RMK AO2
94908KDBQ DBQ20050615161509706/15/05 16:15:31  5-MIN KDBQ 152215Z 35009KT 10SM OVC039 21/14 A2988 1110 65 2100 350/09 RMK AO2
94908KDBQ DBQ20050615162010506/15/05 16:20:31  5-MIN KDBQ 152220Z 34010KT 10SM FEW032 OVC039 21/14  A2988 1110 65 2100 340/10 RMK AO2
94908KDBQ DBQ20050615162510506/15/05 16:25:31  5-MIN KDBQ 152225Z 33012KT 10SM FEW030 OVC039 20/14  A2988 1110 67 2000 330/12 RMK AO2
94908KDBQ DBQ20050615163010506/15/05 16:30:31  5-MIN KDBQ 152230Z 34012KT 10SM SCT032 OVC040 20/13  A2989 1110 65 2000 340/12 RMK AO2
94908KDBQ DBQ20050615163510506/15/05 16:35:31  5-MIN KDBQ 152235Z 34012KT 10SM SCT032 OVC040 20/13  A2988 1110 65 2000 340/12 RMK AO2
94908KDBQ DBQ20050615164010506/15/05 16:40:31  5-MIN KDBQ 152240Z 34011KT 10SM FEW032 OVC041 20/13  A2989 1110 65 2000 340/11 RMK AO2
94908KDBQ DBQ20050615164510506/15/05 16:45:31  5-MIN KDBQ 152245Z 34011KT 10SM SCT035 OVC043 21/14  A2989 1110 65 2100 330/11 RMK AO2
94908KDBQ DBQ20050615165012206/15/05 16:50:31  5-MIN KDBQ 152250Z 34008KT 10SM FEW032 OVC043 20/13  A2989 1110 65 2000 340/08 RMK AO2 SLP118 T02000133
94908KDBQ DBQ20050615165512206/15/05 16:55:31  5-MIN KDBQ 152255Z 33009KT 10SM FEW036 OVC043 21/14  A2989 1110 65 2100 330/09 RMK AO2 SLP118 T02060139
94908KDBQ DBQ20050615170009706/15/05 17:00:31  5-MIN KDBQ 152300Z 35008KT 10SM OVC043 21/14 A2989 1110 65 2100 350/08 RMK AO2
94908KDBQ DBQ20050615170509706/15/05 17:05:31  5-MIN KDBQ 152305Z 34011KT 10SM OVC043 21/14 A2989 1110 65 2000 340/11 RMK AO2
94908KDBQ DBQ20050615171009706/15/05 17:10:31  5-MIN KDBQ 152310Z 35012KT 10SM OVC043 20/13 A2989 1110 65 2000 340/12 RMK AO2
94908KDBQ DBQ20050615171509706/15/05 17:15:31  5-MIN KDBQ 152315Z 34010KT 10SM OVC043 20/13 A2989 1110 65 2000 340/10 RMK AO2
94908KDBQ DBQ20050615172009706/15/05 17:20:31  5-MIN KDBQ 152320Z 33009KT 10SM OVC041 20/13 A2989 1110 65 2000 330/09 RMK AO2
94908KDBQ DBQ20050615172509706/15/05 17:25:31  5-MIN KDBQ 152325Z 33010KT 10SM OVC041 20/14 A2989 1100 67 2000 330/10 RMK AO2
94908KDBQ DBQ20050615173009706/15/05 17:30:31  5-MIN KDBQ 152330Z 33009KT 10SM OVC041 21/14 A2989 1100 65 2000 320/09 RMK AO2
94908KDBQ DBQ20050615173509706/15/05 17:35:31  5-MIN KDBQ 152335Z 33009KT 10SM OVC043 20/13 A2989 1100 65 2000 330/09 RMK AO2
94908KDBQ DBQ20050615174009706/15/05 17:40:31  5-MIN KDBQ 152340Z 34007KT 10SM OVC043 20/13 A2990 1100 65 2000 330/07 RMK AO2
94908KDBQ DBQ20050615174509706/15/05 17:45:31  5-MIN KDBQ 152345Z 33008KT 10SM OVC043 20/14 A2990 1100 67 2000 330/08 RMK AO2
94908KDBQ DBQ20050615175013206/15/05 17:50:31  5-MIN KDBQ 152350Z 33008KT 10SM OVC045 20/13 A2990 1090 65 2000 330/08 RMK AO2 SLP123 T02000133 10222 20194 53010
94908KDBQ DBQ20050615175514006/15/05 17:55:31  5-MIN KDBQ 152355Z 33007KT 10SM BKN043 OVC050 20/13  A2990 1090 65 2000 330/07 RMK AO2 SLP123 T02000133 10222 20194 53009
94908KDBQ DBQ20050615180010506/15/05 18:00:31  5-MIN KDBQ 160000Z 32006KT 10SM FEW039 OVC048 20/14  A2990 1090 67 2000 320/06 RMK AO2
94908KDBQ DBQ20050615180511206/15/05 18:05:31  5-MIN KDBQ 160005Z 33006KT 10SM FEW039 BKN050 OVC055  20/13 A2990 1090 65 2000 320/06 RMK AO2
94908KDBQ DBQ20050615181010506/15/05 18:10:31  5-MIN KDBQ 160010Z 32006KT 10SM FEW039 BKN050 19/14  A2990 1090 70 1900 320/06 RMK AO2
94908KDBQ DBQ20050615181509706/15/05 18:15:31  5-MIN KDBQ 160015Z 32006KT 10SM BKN050 19/14 A2991 1090 70 1900 320/06 RMK AO2
94908KDBQ DBQ20050615182009706/15/05 18:20:31  5-MIN KDBQ 160020Z 32003KT 10SM BKN055 19/14 A2991 1090 70 1900 320/03 RMK AO2
94908KDBQ DBQ20050615182509706/15/05 18:25:31  5-MIN KDBQ 160025Z 31005KT 10SM BKN055 21/14 A2991 1090 65 2000 310/05 RMK AO2
94908KDBQ DBQ20050615183009706/15/05 18:30:31  5-MIN KDBQ 160030Z 32006KT 10SM BKN055 21/14 A2991 1090 65 2000 320/06 RMK AO2
94908KDBQ DBQ20050615183509706/15/05 18:35:31  5-MIN KDBQ 160035Z 30004KT 10SM BKN055 20/14 A2991 1090 67 2000 300/04 RMK AO2
94908KDBQ DBQ20050615184009706/15/05 18:40:31  5-MIN KDBQ 160040Z 32006KT 10SM BKN060 20/14 A2991 1090 67 2000 320/06 RMK AO2
94908KDBQ DBQ20050615184509706/15/05 18:45:31  5-MIN KDBQ 160045Z 32005KT 10SM BKN060 19/14 A2991 1090 70 1900 320/05 RMK AO2
94908KDBQ DBQ20050615185012406/15/05 18:50:31  5-MIN KDBQ 160050Z AUTO 31006KT 10SM BKN060 20/13 A2991 1090 65 2000 310/06 RMK AO2 SLP126 T02000133 TSNO
94908KDBQ DBQ20050615185512406/15/05 18:55:31  5-MIN KDBQ 160055Z AUTO 31007KT 10SM OVC060 19/13 A2991 1080 67 1900 310/07 RMK AO2 SLP127 T01940133 TSNO
94908KDBQ DBQ20050615190010706/15/05 19:00:31  5-MIN KDBQ 160100Z AUTO 32006KT 10SM OVC065 19/13 A2991 1080 67 1900 310/06 RMK AO2 TSNO
94908KDBQ DBQ20050615190510706/15/05 19:05:31  5-MIN KDBQ 160105Z AUTO 32006KT 10SM OVC065 19/13 A2991 1080 67 1900 320/06 RMK AO2 TSNO
94908KDBQ DBQ20050615191010706/15/05 19:10:31  5-MIN KDBQ 160110Z AUTO 32005KT 10SM OVC060 19/14 A2991 1080 70 1900 320/05 RMK AO2 TSNO
94908KDBQ DBQ20050615191511406/15/05 19:15:31  5-MIN KDBQ 160115Z AUTO 32005KT 10SM FEW042 OVC060 19/14 A2990 1090 70 1900 320/05 RMK AO2 TSNO
94908KDBQ DBQ20050615192012206/15/05 19:20:31  5-MIN KDBQ 160120Z AUTO 31005KT 10SM FEW042 BKN050  OVC065 19/14 A2991 1080 70 1900 310/05 RMK AO2 TSNO
94908KDBQ DBQ20050615192512206/15/05 19:25:31  5-MIN KDBQ 160125Z AUTO 31005KT 10SM FEW042 SCT050  BKN065 19/13 A2990 1090 67 1900 310/05 RMK AO2 TSNO
94908KDBQ DBQ20050615193012206/15/05 19:30:31  5-MIN KDBQ 160130Z AUTO 32005KT 10SM FEW042 SCT050  BKN065 19/13 A2992 1080 70 1800 310/05 RMK AO2 TSNO
94908KDBQ DBQ20050615193512206/15/05 19:35:31  5-MIN KDBQ 160135Z AUTO 32005KT 10SM FEW042 SCT050  BKN065 18/13 A2991 1090 72 1800 320/05 RMK AO2 TSNO
94908KDBQ DBQ20050615194011406/15/05 19:40:31  5-MIN KDBQ 160140Z AUTO 32005KT 10SM FEW042 BKN065 18/13 A2991 1080 72 1800 320/05 RMK AO2 TSNO
94908KDBQ DBQ20050615194511406/15/05 19:45:31  5-MIN KDBQ 160145Z AUTO 31005KT 10SM FEW048 SCT065 18/13 A2991 1090 75 1700 310/05 RMK AO2 TSNO
94908KDBQ DBQ20050615195012406/15/05 19:50:31  5-MIN KDBQ 160150Z AUTO 32005KT 10SM FEW065 18/13 A2991 1080 75 1700 310/05 RMK AO2 SLP127 T01780133 TSNO
94908KDBQ DBQ20050615201510506/15/05 20:15:31  5-MIN KDBQ 160215Z AUTO 32006KT 10SM CLR 17/13 A2992  1080 77 1600 320/06 RMK AO2 TSNO
94908KDBQ DBQ20050615202010506/15/05 20:20:31  5-MIN KDBQ 160220Z AUTO 32006KT 10SM CLR 17/13 A2991  1090 77 1600 320/06 RMK AO2 TSNO
94908KDBQ DBQ20050615202510506/15/05 20:25:31  5-MIN KDBQ 160225Z AUTO 32006KT 10SM CLR 17/13 A2992  1080 77 1600 320/06 RMK AO2 TSNO
94908KDBQ DBQ20050615203010506/15/05 20:30:31  5-MIN KDBQ 160230Z AUTO 32006KT 10SM CLR 17/13 A2991  1090 77 1600 320/06 RMK AO2 TSNO
94908KDBQ DBQ20050615203510506/15/05 20:35:31  5-MIN KDBQ 160235Z AUTO 32006KT 10SM CLR 17/13 A2992  1080 77 1600 320/06 RMK AO2 TSNO
94908KDBQ DBQ20050615204010506/15/05 20:40:31  5-MIN KDBQ 160240Z AUTO 32006KT 10SM CLR 17/13 A2992  1080 77 1600 320/06 RMK AO2 TSNO
94908KDBQ DBQ20050615204510706/15/05 20:45:31  5-MIN KDBQ 160245Z AUTO 32006KT 10SM FEW060 17/13 A2993 1070 77 1600 320/06 RMK AO2 TSNO
94908KDBQ DBQ20050615205013006/15/05 20:50:31  5-MIN KDBQ 160250Z AUTO 31006KT 10SM FEW060 17/13 A2992 1080 77 1600 310/06 RMK AO2 SLP128 T01670128 53009 TSNO
94908KDBQ DBQ20050615205513006/15/05 20:55:31  5-MIN KDBQ 160255Z AUTO 32005KT 10SM FEW060 17/13 A2993 1070 77 1600 310/05 RMK AO2 SLP132 T01670128 53008 TSNO
94908KDBQ DBQ20050615210010706/15/05 21:00:31  5-MIN KDBQ 160300Z AUTO 31005KT 10SM FEW060 17/13 A2992 1080 77 1600 310/05 RMK AO2 TSNO
94908KDBQ DBQ20050615210510706/15/05 21:05:31  5-MIN KDBQ 160305Z AUTO 31005KT 10SM FEW060 17/13 A2993 1070 77 1600 310/05 RMK AO2 TSNO
94908KDBQ DBQ20050615211010706/15/05 21:10:31  5-MIN KDBQ 160310Z AUTO 32006KT 10SM FEW060 16/12 A2992 1080 77 1500 320/06 RMK AO2 TSNO
94908KDBQ DBQ20050615211510506/15/05 21:15:31  5-MIN KDBQ 160315Z AUTO 32006KT 10SM CLR 16/12 A2992  1080 77 1500 320/06 RMK AO2 TSNO
94908KDBQ DBQ20050615212010506/15/05 21:20:31  5-MIN KDBQ 160320Z AUTO 32007KT 10SM CLR 16/12 A2992  1070 77 1500 320/07 RMK AO2 TSNO
94908KDBQ DBQ20050615212510506/15/05 21:25:31  5-MIN KDBQ 160325Z AUTO 32007KT 10SM CLR 16/12 A2992  1080 77 1500 320/07 RMK AO2 TSNO
94908KDBQ DBQ20050615213010506/15/05 21:30:31  5-MIN KDBQ 160330Z AUTO 32006KT 10SM CLR 16/12 A2994  1060 80 1400 320/06 RMK AO2 TSNO
94908KDBQ DBQ20050615213510506/15/05 21:35:31  5-MIN KDBQ 160335Z AUTO 33007KT 10SM CLR 16/12 A2993  1070 80 1400 330/07 RMK AO2 TSNO
94908KDBQ DBQ20050615214010506/15/05 21:40:31  5-MIN KDBQ 160340Z AUTO 33007KT 10SM CLR 16/12 A2993  1070 80 1400 330/07 RMK AO2 TSNO
94908KDBQ DBQ20050615214510506/15/05 21:45:31  5-MIN KDBQ 160345Z AUTO 33007KT 10SM CLR 16/12 A2992  1070 80 1400 330/07 RMK AO2 TSNO
94908KDBQ DBQ20050615215012206/15/05 21:50:31  5-MIN KDBQ 160350Z AUTO 34007KT 10SM CLR 16/12 A2992  1080 77 1500 340/07 RMK AO2 SLP130 T01610122 TSNO
94908KDBQ DBQ20050616065511306/16/05 06:55:31  5-MIN KDBQ 161255Z 02007KT 10SM CLR 16/10 A3002 990 69  1300 020/07 RMK AO2 SLP162 T01560100 $
94908KDBQ DBQ20050616070009606/16/05 07:00:31  5-MIN KDBQ 161300Z 01008KT 10SM CLR 16/10 A3002 990 67  1400 010/08 RMK AO2 $
94908KDBQ DBQ20050616070509406/16/05 07:05:31  5-MIN KDBQ 161305Z 01009KT 10SM CLR 16/10 A3001 1000 67 1400 010/09 RMK AO2
94908KDBQ DBQ20050616071009406/16/05 07:10:31  5-MIN KDBQ 161310Z 02008KT 10SM CLR 16/11 A3000 1000 69 1400 010/08 RMK AO2
94908KDBQ DBQ20050616071509406/16/05 07:15:31  5-MIN KDBQ 161315Z 01006KT 10SM CLR 17/11 A3000 1000 67 1500 010/06 RMK AO2
94908KDBQ DBQ20050616072009406/16/05 07:20:31  5-MIN KDBQ 161320Z 01008KT 10SM CLR 17/11 A3000 1000 67 1500 010/08 RMK AO2
94908KDBQ DBQ20050616072509406/16/05 07:25:31  5-MIN KDBQ 161325Z 02006KT 10SM CLR 17/10 A3000 1010 64 1500 020/06 RMK AO2
94908KDBQ DBQ20050616073009406/16/05 07:30:31  5-MIN KDBQ 161330Z 03010KT 10SM CLR 17/11 A3000 1000 64 1500 030/10 RMK AO2
94908KDBQ DBQ20050616073509406/16/05 07:35:31  5-MIN KDBQ 161335Z 03007KT 10SM CLR 17/10 A3000 1010 62 1500 030/07 RMK AO2
94908KDBQ DBQ20050616074009406/16/05 07:40:31  5-MIN KDBQ 161340Z 03008KT 10SM CLR 18/10 A3000 1000 60 1600 030/08 RMK AO2
94908KDBQ DBQ20050616074509406/16/05 07:45:31  5-MIN KDBQ 161345Z 01008KT 10SM CLR 18/09 A3000 1000 58 1600 010/08 RMK AO2
94908KDBQ DBQ20050616075011106/16/05 07:50:31  5-MIN KDBQ 161350Z 02011KT 10SM CLR 18/09 A3000 1000 56 1700 020/11 RMK AO2 SLP157 T01830094
94908KDBQ DBQ20050616075511106/16/05 07:55:31  5-MIN KDBQ 161355Z 04008KT 10SM CLR 18/09 A3000 1000 56 1700 040/08 RMK AO2 SLP157 T01830094
94908KDBQ DBQ20050616080009406/16/05 08:00:31  5-MIN KDBQ 161400Z 04008KT 10SM CLR 18/10 A3000 1000 58 1700 040/08 RMK AO2
94908KDBQ DBQ20050616080509406/16/05 08:05:31  5-MIN KDBQ 161405Z 04008KT 10SM CLR 18/10 A3000 1000 58 1700 040/08 RMK AO2
94908KDBQ DBQ20050616081009406/16/05 08:10:31  5-MIN KDBQ 161410Z 04010KT 10SM CLR 18/09 A3000 1000 56 1700 040/10 RMK AO2
94908KDBQ DBQ20050616081509406/16/05 08:15:31  5-MIN KDBQ 161415Z 04008KT 10SM CLR 19/09 A3000 1000 54 1700 040/08 RMK AO2
94908KDBQ DBQ20050616082009406/16/05 08:20:31  5-MIN KDBQ 161420Z 03009KT 10SM CLR 19/09 A3001 1000 54 1700 030/09 RMK AO2
94908KDBQ DBQ20050616082509406/16/05 08:25:31  5-MIN KDBQ 161425Z 03007KT 10SM CLR 19/10 A3001 1000 56 1700 030/07 RMK AO2
94908KDBQ DBQ20050616083009406/16/05 08:30:31  5-MIN KDBQ 161430Z 01009KT 10SM CLR 19/09 A3001 990 54  1700 010/09 RMK AO2
94908KDBQ DBQ20050616083509406/16/05 08:35:31  5-MIN KDBQ 161435Z 02007KT 10SM CLR 19/09 A3001 990 52  1800 020/07 RMK AO2
94908KDBQ DBQ20050616084009406/16/05 08:40:31  5-MIN KDBQ 161440Z 36010KT 10SM CLR 19/09 A3001 1000 52 1800 360/10 RMK AO2
94908KDBQ DBQ20050616084510006/16/05 08:45:31  5-MIN KDBQ 161445Z 02012G17KT 10SM CLR 19/09 A3001 1000 50 1800 010/12G17 RMK AO2
94908KDBQ DBQ20050616085012306/16/05 08:50:31  5-MIN KDBQ 161450Z 36009G17KT 10SM CLR 19/09 A3001 1000 50 1800 360/09G17 RMK AO2 SLP159 T01940089 53009
94908KDBQ DBQ20050616085512106/16/05 08:55:31  5-MIN KDBQ 161455Z 01011G16KT 10SM CLR 20/09 A3001 1000 48 1900 010/11G16 RMK AO2 S58 T02000089 58001
94908KDBQ DBQ20050616090010006/16/05 09:00:31  5-MIN KDBQ 161500Z 01009G16KT 10SM CLR 20/08 A3001 1000 46 1800 010/09G16 RMK AO2
94908KDBQ DBQ20050616090509406/16/05 09:05:31  5-MIN KDBQ 161505Z 36008KT 10SM CLR 20/08 A3001 1000 46 1800 360/08 RMK AO2
94908KDBQ DBQ20050616091009406/16/05 09:10:31  5-MIN KDBQ 161510Z 36009KT 10SM CLR 20/08 A3001 1000 46 1800 360/09 RMK AO2
94908KDBQ DBQ20050616091510106/16/05 09:15:31  5-MIN KDBQ 16110Z 35Z 0200 10SM CL10SM CLR 21/08 A3001 1000 45 1900 020/09 RMK AO2
94908KDBQ DBQ20050616092007606/16/05 09:20:31  5-MIN KDBQ 10Z 3520Z 01007KTLR 2R 1/A3001 1003001 1000 45
94908KDBQ DBQ20050616175012906/16/05 17:50:31  5-MIN KDBQ 162350Z 32009KT 10SM CLR 24/09 A2991 1080 39 2400 320/09 RMK AO2 SLP127 T02390094 10250 20222 56015
94908KDBQ DBQ20050616175512906/16/05 17:55:31  5-MIN KDBQ 162355Z 32007KT 10SM CLR 24/09 A2991 1080 39 2400 320/07 RMK AO2 SLP127 T02390094 10250 20222 56009
94908KDBQ DBQ20050616180009406/16/05 18:00:31  5-MIN KDBQ 170000Z 34007KT 10SM CLR 23/11 A2991 1080 44 2300 340/07 RMK AO2
94908KDBQ DBQ20050616180509406/16/05 18:05:31  5-MIN KDBQ 170005Z 34008KT 10SM CLR 23/10 A2991 1080 42 2300 340/08 RMK AO2
94908KDBQ DBQ20050616181009406/16/05 18:10:31  5-MIN KDBQ 170010Z 35005KT 10SM CLR 23/11 A2991 1080 44 2300 350/05 RMK AO2
94908KDBQ DBQ20050616181509406/16/05 18:15:31  5-MIN KDBQ 170015Z 34006KT 10SM CLR 23/10 A2991 1080 42 2300 340/06 RMK AO2
94908KDBQ DBQ20050616182009406/16/05 18:20:31  5-MIN KDBQ 170020Z 34006KT 10SM CLR 23/10 A2991 1080 42 2300 340/06 RMK AO2
94908KDBQ DBQ20050616182509406/16/05 18:25:31  5-MIN KDBQ 170025Z 34006KT 10SM CLR 23/11 A2991 1080 45 2300 330/06 RMK AO2
94908KDBQ DBQ20050616183009406/16/05 18:30:31  5-MIN KDBQ 170030Z 33006KT 10SM CLR 23/11 A2991 1080 45 2300 330/06 RMK AO2
94908KDBQ DBQ20050616183509406/16/05 18:35:31  5-MIN KDBQ 170035Z 33006KT 10SM CLR 23/11 A2992 1080 45 2300 330/06 RMK AO2
94908KDBQ DBQ20050616184009406/16/05 18:40:31  5-MIN KDBQ 170040Z 33005KT 10SM CLR 22/11 A2992 1080 47 2200 320/05 RMK AO2
94908KDBQ DBQ20050616184510506/16/05 18:45:31  5-MIN KDBQ 170045Z AUTO 32005KT 10SM CLR 22/11 A2992  1080 50 2100 320/05 RMK AO2 TSNO
94908KDBQ DBQ20050616185012206/16/05 18:50:31  5-MIN KDBQ 170050Z AUTO 33004KT 10SM CLR 22/11 A2992  1080 50 2100 330/04 RMK AO2 SLP128 T02170111 TSNO
94908KDBQ DBQ20050616185512206/16/05 18:55:31  5-MIN KDBQ 170055Z AUTO 33005KT 10SM CLR 22/12 A2992  1080 52 2100 330/05 RMK AO2 SLP127 T02170117 TSNO
94908KDBQ DBQ20050616190010506/16/05 19:00:31  5-MIN KDBQ 170100Z AUTO 33005KT 10SM CLR 22/11 A2992  1080 50 2100 330/05 RMK AO2 TSNO
94908KDBQ DBQ20050616190510506/16/05 19:05:31  5-MIN KDBQ 170105Z AUTO 34005KT 10SM CLR 21/11 A2992  1080 52 2100 340/05 RMK AO2 TSNO
94908KDBQ DBQ20050616191010506/16/05 19:10:31  5-MIN KDBQ 170110Z AUTO 34005KT 10SM CLR 21/11 A2992  1080 52 2100 340/05 RMK AO2 TSNO
94908KDBQ DBQ20050616191510506/16/05 19:15:31  5-MIN KDBQ 170115Z AUTO 33005KT 10SM CLR 21/11 A2992  1080 54 2000 330/05 RMK AO2 TSNO
94908KDBQ DBQ20050616192010506/16/05 19:20:31  5-MIN KDBQ 170120Z AUTO 33005KT 10SM CLR 20/11 A2992  1080 54 2000 330/05 RMK AO2 TSNO
94908KDBQ DBQ20050616192510506/16/05 19:25:31  5-MIN KDBQ 170125Z AUTO 34005KT 10SM CLR 20/11 A2992  1080 54 2000 340/05 RMK AO2 TSNO
94908KDBQ DBQ20050616193010506/16/05 19:30:31  5-MIN KDBQ 170130Z AUTO 34006KT 10SM CLR 21/10 A2992  1080 50 2000 340/06 RMK AO2 TSNO
94908KDBQ DBQ20050616193510506/16/05 19:35:31  5-MIN KDBQ 170135Z AUTO 34006KT 10SM CLR 20/10 A2992  1080 52 2000 340/06 RMK AO2 TSNO
94908KDBQ DBQ20050616194010506/16/05 19:40:31  5-MIN KDBQ 170140Z AUTO 34006KT 10SM CLR 19/10 A2991  1090 54 1900 340/06 RMK AO2 TSNO
94908KDBQ DBQ20050616194510506/16/05 19:45:31  5-MIN KDBQ 170145Z AUTO 34005KT 10SM CLR 20/10 A2992  1080 52 2000 340/05 RMK AO2 TSNO
94908KDBQ DBQ20050616195012206/16/05 19:50:31  5-MIN KDBQ 170150Z AUTO 34005KT 10SM CLR 21/09 A2991  1090 48 2000 330/05 RMK AO2 SLP124 T02060094 TSNO
94908KDBQ DBQ20050616195512206/16/05 19:55:31  5-MIN KDBQ 170155Z AUTO 33005KT 10SM CLR 20/09 A2992  1080 50 1900 330/05 RMK AO2 SLP128 T02000094 TSNO
94908KDBQ DBQ20050616200010506/16/05 20:00:31  5-MIN KDBQ 170200Z AUTO 33005KT 10SM CLR 19/10 A2991  1090 54 1900 330/05 RMK AO2 TSNO
94908KDBQ DBQ20050616200510506/16/05 20:05:31  5-MIN KDBQ 170205Z AUTO 33005KT 10SM CLR 19/10 A2992  1080 56 1800 330/05 RMK AO2 TSNO
94908KDBQ DBQ20050616201010506/16/05 20:10:31  5-MIN KDBQ 170210Z AUTO 33005KT 10SM CLR 19/10 A2991  1080 56 1800 330/05 RMK AO2 TSNO
94908KDBQ DBQ20050616201510506/16/05 20:15:31  5-MIN KDBQ 170215Z AUTO 33004KT 10SM CLR 18/10 A2993  1070 58 1800 330/04 RMK AO2 TSNO
94908KDBQ DBQ20050616202010506/16/05 20:20:31  5-MIN KDBQ 170220Z AUTO 34005KT 10SM CLR 17/10 A2992  1080 62 1600 330/05 RMK AO2 TSNO
94908KDBQ DBQ20050616202510506/16/05 20:25:31  5-MIN KDBQ 170225Z AUTO 33005KT 10SM CLR 17/10 A2993  1070 62 1600 330/05 RMK AO2 TSNO
94908KDBQ DBQ20050616203010506/16/05 20:30:31  5-MIN KDBQ 170230Z AUTO 33005KT 10SM CLR 17/10 A2992  1080 62 1600 330/05 RMK AO2 TSNO
94908KDBQ DBQ20050616203510506/16/05 20:35:31  5-MIN KDBQ 170235Z AUTO 33005KT 10SM CLR 18/10 A2993  1070 60 1700 330/05 RMK AO2 TSNO
94908KDBQ DBQ20050616204010506/16/05 20:40:31  5-MIN KDBQ 170240Z AUTO 33005KT 10SM CLR 17/10 A2992  1080 62 1600 330/05 RMK AO2 TSNO
94908KDBQ DBQ20050616204510506/16/05 20:45:31  5-MIN KDBQ 170245Z AUTO 34005KT 10SM CLR 18/09 A2993  1070 58 1700 340/05 RMK AO2 TSNO
94908KDBQ DBQ20050616205012806/16/05 20:50:31  5-MIN KDBQ 170250Z AUTO 34005KT 10SM CLR 18/09 A2992  1070 56 1800 340/05 RMK AO2 SLP130 T01830094 56009 TSNO
94908KDBQ DBQ20050616205512806/16/05 20:55:31  5-MIN KDBQ 170255Z AUTO 34005KT 10SM CLR 19/09 A2993  1070 54 1800 340/05 RMK AO2 SLP133 T01890094 53006 TSNO
94908KDBQ DBQ20050616210010506/16/05 21:00:31  5-MIN KDBQ 170300Z AUTO 34005KT 10SM CLR 19/09 A2993  1070 54 1800 340/05 RMK AO2 TSNO
94908KDBQ DBQ20050616210510506/16/05 21:05:31  5-MIN KDBQ 170305Z AUTO 34005KT 10SM CLR 18/09 A2993  1070 56 1700 340/05 RMK AO2 TSNO
94908KDBQ DBQ20050616211010506/16/05 21:10:31  5-MIN KDBQ 170310Z AUTO 33004KT 10SM CLR 18/09 A2993  1070 56 1700 330/04 RMK AO2 TSNO
94908KDBQ DBQ20050616211510506/16/05 21:15:31  5-MIN KDBQ 170315Z AUTO 34003KT 10SM CLR 18/09 A2993  1070 56 1700 330/03 RMK AO2 TSNO
94908KDBQ DBQ20050616212010506/16/05 21:20:31  5-MIN KDBQ 170320Z AUTO 35004KT 10SM CLR 18/09 A2993  1070 56 1700 350/04 RMK AO2 TSNO
94908KDBQ DBQ20050616212510506/16/05 21:25:31  5-MIN KDBQ 170325Z AUTO 35004KT 10SM CLR 18/09 A2993  1070 56 1700 350/04 RMK AO2 TSNO
94908KDBQ DBQ20050616213010506/16/05 21:30:31  5-MIN KDBQ 170330Z AUTO 35003KT 10SM CLR 19/09 A2993  1070 54 1800 350/03 RMK AO2 TSNO
94908KDBQ DBQ20050616213510506/16/05 21:35:31  5-MIN KDBQ 170335Z AUTO 34003KT 10SM CLR 19/09 A2993  1070 54 1800 340/03 RMK AO2 TSNO
94908KDBQ DBQ20050616214010506/16/05 21:40:31  5-MIN KDBQ 170340Z AUTO 00000KT 10SM CLR 18/09 A2993  1070 56 1700 000/00 RMK AO2 TSNO
94908KDBQ DBQ20050616214510506/16/05 21:45:31  5-MIN KDBQ 170345Z AUTO 00000KT 10SM CLR 18/09 A2993  1070 58 1700 000/00 RMK AO2 TSNO
94908KDBQ DBQ20050616215012206/16/05 21:50:31  5-MIN KDBQ 170350Z AUTO 00000KT 10SM CLR 17/09 A2993  1070 60 1600 000/00 RMK AO2 SLP131 T01720094 TSNO
94908KDBQ DBQ20050616215512206/16/05 21:55:31  5-MIN KDBQ 170355Z AUTO 00000KT 10SM CLR 17/09 A2993  1070 60 1600 000/00 RMK AO2 SLP131 T01720094 TSNO
94908KDBQ DBQ20050616220010506/16/05 22:00:31  5-MIN KDBQ 170400Z AUTO 00000KT 10SM CLR 16/09 A2994  1060 64 1500 000/00 RMK AO2 TSNO
94908KDBQ DBQ20050616220510506/16/05 22:05:31  5-MIN KDBQ 170405Z AUTO 00000KT 10SM CLR 17/09 A2993  1070 60 1600 000/00 RMK AO2 TSNO
94908KDBQ DBQ20050616221010506/16/05 22:10:31  5-MIN KDBQ 170410Z AUTO 00000KT 10SM CLR 16/09 A2993  1070 64 1500 000/00 RMK AO2 TSNO
94908KDBQ DBQ20050616221510506/16/05 22:15:31  5-MIN KDBQ 170415Z AUTO 00000KT 10SM CLR 17/09 A2993  1070 62 1600 000/00 RMK AO2 TSNO
94908KDBQ DBQ20050616222010506/16/05 22:20:31  5-MIN KDBQ 170420Z AUTO 00000KT 10SM CLR 16/09 A2993  1070 64 1500 000/00 RMK AO2 TSNO
94908KDBQ DBQ20050616222510506/16/05 22:25:31  5-MIN KDBQ 170425Z AUTO 00000KT 10SM CLR 17/09 A2993  1070 62 1600 000/00 RMK AO2 TSNO
94908KDBQ DBQ20050616223010506/16/05 22:30:31  5-MIN KDBQ 170430Z AUTO 00000KT 10SM CLR 16/10 A2992  1080 67 1500 000/00 RMK AO2 TSNO
94908KDBQ DBQ20050616223510506/16/05 22:35:31  5-MIN KDBQ 170435Z AUTO 00000KT 10SM CLR 16/10 A2993  1070 67 1500 000/00 RMK AO2 TSNO
94908KDBQ DBQ20050616224010506/16/05 22:40:31  5-MIN KDBQ 170440Z AUTO 00000KT 10SM CLR 15/10 A2992  1080 72 1400 000/00 RMK AO2 TSNO
94908KDBQ DBQ20050616224510506/16/05 22:45:31  5-MIN KDBQ 170445Z AUTO 00000KT 10SM CLR 16/10 A2992  1080 67 1500 000/00 RMK AO2 TSNO
94908KDBQ DBQ20050616225012206/16/05 22:50:31  5-MIN KDBQ 170450Z AUTO 00000KT 10SM CLR 17/09 A2993  1070 60 1600 000/00 RMK AO2 SLP130 T01720094 TSNO
94908KDBQ DBQ20050616225512206/16/05 22:55:31  5-MIN KDBQ 170455Z AUTO 00000KT 10SM CLR 16/10 A2992  1080 67 1500 000/00 RMK AO2 SLP129 T01610100 TSNO
94908KDBQ DBQ20050616230010506/16/05 23:00:31  5-MIN KDBQ 170500Z AUTO 00000KT 10SM CLR 16/09 A2993  1070 67 1400 000/00 RMK AO2 TSNO
94908KDBQ DBQ20050616230510506/16/05 23:05:31  5-MIN KDBQ 170505Z AUTO 00000KT 10SM CLR 14/09 A2992  1080 72 1300 000/00 RMK AO2 TSNO
94908KDBQ DBQ20050616231010506/16/05 23:10:31  5-MIN KDBQ 170510Z AUTO 00000KT 10SM CLR 14/09 A2992  1080 72 1300 000/00 RMK AO2 TSNO
94908KDBQ DBQ20050616231510506/16/05 23:15:31  5-MIN KDBQ 170515Z AUTO 00000KT 10SM CLR 16/09 A2992  1080 67 1400 000/00 RMK AO2 TSNO
94908KDBQ DBQ20050616232010506/16/05 23:20:31  5-MIN KDBQ 170520Z AUTO 33005KT 10SM CLR 16/09 A2992  1080 67 1400 330/05 RMK AO2 TSNO
94908KDBQ DBQ20050616232510506/16/05 23:25:31  5-MIN KDBQ 170525Z AUTO 34006KT 10SM CLR 16/09 A2991  1080 67 1400 340/06 RMK AO2 TSNO
94908KDBQ DBQ20050616233010506/16/05 23:30:31  5-MIN KDBQ 170530Z AUTO 34006KT 10SM CLR 16/09 A2991  1090 64 1500 340/06 RMK AO2 TSNO
94908KDBQ DBQ20050616233510506/16/05 23:35:31  5-MIN KDBQ 170535Z AUTO 34006KT 10SM CLR 17/10 A2991  1090 64 1600 340/06 RMK AO2 TSNO
94908KDBQ DBQ20050616234010506/16/05 23:40:31  5-MIN KDBQ 170540Z AUTO 34006KT 10SM CLR 16/09 A2992  1080 64 1500 340/06 RMK AO2 TSNO
94908KDBQ DBQ20050616234510506/16/05 23:45:31  5-MIN KDBQ 170545Z AUTO 01005KT 10SM CLR 16/10 A2991  1090 67 1500 010/05 RMK AO2 TSNO
94908KDBQ DBQ20050616235015106/16/05 23:50:31  5-MIN KDBQ 170550Z AUTO 36005KT 10SM CLR 17/09 A2991  1090 62 1600 360/05 RMK AO2 SLP125 T01670094 10233 20144 402500111 53006  TSNO
94908KDBQ DBQ20050616235515106/16/05 23:55:31  5-MIN KDBQ 170555Z AUTO 36005KT 10SM CLR 18/10 A2993  1070 60 1700 360/05 RMK AO2 SLP129 T01780100 10233 20144 402500111 55003  TSNO
94908KDBQ DBQ20050617000010506/17/05 00:00:38  5-MIN KDBQ 170600Z AUTO 36005KT 10SM CLR 17/10 A2992  1080 64 1600 360/05 RMK AO2 TSNO
94908KDBQ DBQ20050617000510506/17/05 00:05:31  5-MIN KDBQ 170605Z AUTO 01008KT 10SM CLR 16/10 A2992  1080 69 1400 010/08 RMK AO2 TSNO
94908KDBQ DBQ20050617001010506/17/05 00:10:31  5-MIN KDBQ 170610Z AUTO 02008KT 10SM CLR 16/11 A2992  1080 69 1500 020/08 RMK AO2 TSNO
94908KDBQ DBQ20050617001510506/17/05 00:15:31  5-MIN KDBQ 170615Z AUTO 02008KT 10SM CLR 16/11 A2992  1080 69 1500 020/08 RMK AO2 TSNO
94908KDBQ DBQ20050617002010506/17/05 00:20:31  5-MIN KDBQ 170620Z AUTO 03008KT 10SM CLR 16/10 A2993  1070 67 1500 030/08 RMK AO2 TSNO
94908KDBQ DBQ20050617002510506/17/05 00:25:31  5-MIN KDBQ 170625Z AUTO 03008KT 10SM CLR 16/10 A2993  1070 67 1500 020/08 RMK AO2 TSNO
94908KDBQ DBQ20050617003010506/17/05 00:30:31  5-MIN KDBQ 170630Z AUTO 03007KT 10SM CLR 16/10 A2993  1070 69 1400 030/07 RMK AO2 TSNO
94908KDBQ DBQ20050617003510506/17/05 00:35:31  5-MIN KDBQ 170635Z AUTO 03009KT 10SM CLR 15/10 A2993  1070 72 1400 030/09 RMK AO2 TSNO
94908KDBQ DBQ20050617004010506/17/05 00:40:31  5-MIN KDBQ 170640Z AUTO 03007KT 10SM CLR 16/10 A2993  1070 69 1400 030/07 RMK AO2 TSNO
94908KDBQ DBQ20050617004510506/17/05 00:45:31  5-MIN KDBQ 170645Z AUTO 03007KT 10SM CLR 15/10 A2993  1070 72 1400 030/07 RMK AO2 TSNO
94908KDBQ DBQ20050617005012206/17/05 00:50:31  5-MIN KDBQ 170650Z AUTO 03006KT 10SM CLR 15/10 A2993  1070 72 1400 030/06 RMK AO2 SLP132 T01500100 TSNO
94908KDBQ DBQ20050617005512206/17/05 00:55:31  5-MIN KDBQ 170655Z AUTO 04008KT 10SM CLR 14/10 A2993  1070 74 1300 040/08 RMK AO2 SLP134 T01440100 TSNO
94908KDBQ DBQ20050617010010506/17/05 01:00:31  5-MIN KDBQ 170700Z AUTO 04007KT 10SM CLR 15/10 A2993  1070 72 1400 040/07 RMK AO2 TSNO
94908KDBQ DBQ20050617010510506/17/05 01:05:31  5-MIN KDBQ 170705Z AUTO 04008KT 10SM CLR 14/10 A2993  1070 74 1300 040/08 RMK AO2 TSNO
94908KDBQ DBQ20050617011010506/17/05 01:10:31  5-MIN KDBQ 170710Z AUTO 06007KT 10SM CLR 14/10 A2994  1060 74 1300 050/07 RMK AO2 TSNO
94908KDBQ DBQ20050617011510506/17/05 01:15:31  5-MIN KDBQ 170715Z AUTO 05007KT 10SM CLR 14/10 A2994  1060 74 1300 050/07 RMK AO2 TSNO
94908KDBQ DBQ20050617012010506/17/05 01:20:31  5-MIN KDBQ 170720Z AUTO 05005KT 10SM CLR 14/10 A2995  1050 74 1300 050/05 RMK AO2 TSNO
94908KDBQ DBQ20050617012510506/17/05 01:25:31  5-MIN KDBQ 170725Z AUTO 05005KT 10SM CLR 13/09 A2994  1060 77 1200 050/05 RMK AO2 TSNO
94908KDBQ DBQ20050617013010506/17/05 01:30:31  5-MIN KDBQ 170730Z AUTO 05005KT 10SM CLR 13/09 A2994  1060 77 1200 050/05 RMK AO2 TSNO
94908KDBQ DBQ20050617013510506/17/05 01:35:31  5-MIN KDBQ 170735Z AUTO 06003KT 10SM CLR 13/09 A2994  1060 77 1200 060/03 RMK AO2 TSNO
94908KDBQ DBQ20050617014010506/17/05 01:40:31  5-MIN KDBQ 170740Z AUTO 08004KT 10SM CLR 14/09 A2994  1060 74 1200 070/04 RMK AO2 TSNO
94908KDBQ DBQ20050617014510506/17/05 01:45:31  5-MIN KDBQ 170745Z AUTO 08004KT 10SM CLR 14/09 A2994  1060 74 1200 080/04 RMK AO2 TSNO
94908KDBQ DBQ20050617015012206/17/05 01:50:31  5-MIN KDBQ 170750Z AUTO 09004KT 10SM CLR 14/09 A2995  1050 74 1200 080/04 RMK AO2 SLP138 T01390094 TSNO
94908KDBQ DBQ20050617015512206/17/05 01:55:31  5-MIN KDBQ 170755Z AUTO 08004KT 10SM CLR 13/09 A2994  1060 77 1200 080/04 RMK AO2 SLP135 T01330094 TSNO
94908KDBQ DBQ20050617020010506/17/05 02:00:31  5-MIN KDBQ 170800Z AUTO 08005KT 10SM CLR 13/09 A2993  1070 80 1100 080/05 RMK AO2 TSNO
94908KDBQ DBQ20050617020510506/17/05 02:05:31  5-MIN KDBQ 170805Z AUTO 08006KT 10SM CLR 13/09 A2993  1070 80 1100 080/06 RMK AO2 TSNO
94908KDBQ DBQ20050617021010506/17/05 02:10:31  5-MIN KDBQ 170810Z AUTO 08006KT 10SM CLR 13/09 A2993  1070 80 1100 080/06 RMK AO2 TSNO
94908KDBQ DBQ20050617021510506/17/05 02:15:31  5-MIN KDBQ 170815Z AUTO 09005KT 10SM CLR 13/09 A2993  1070 80 1100 090/05 RMK AO2 TSNO
94908KDBQ DBQ20050617022010506/17/05 02:20:31  5-MIN KDBQ 170820Z AUTO 10004KT 10SM CLR 13/09 A2993  1070 74 1200 100/04 RMK AO2 TSNO
94908KDBQ DBQ20050617022510506/17/05 02:25:31  5-MIN KDBQ 170825Z AUTO 10004KT 10SM CLR 13/09 A2994  1060 74 1200 100/04 RMK AO2 TSNO
94908KDBQ DBQ20050617023010506/17/05 02:30:31  5-MIN KDBQ 170830Z AUTO 00000KT 10SM CLR 13/09 A2994  1060 77 1100 000/00 RMK AO2 TSNO
94908KDBQ DBQ20050617023510506/17/05 02:35:31  5-MIN KDBQ 170835Z AUTO 00000KT 10SM CLR 12/08 A2993  1070 80 1000 000/00 RMK AO2 TSNO
94908KDBQ DBQ20050617024010506/17/05 02:40:31  5-MIN KDBQ 170840Z AUTO 00000KT 10SM CLR 12/08 A2993  1070 80 1000 000/00 RMK AO2 TSNO
94908KDBQ DBQ20050617024510506/17/05 02:45:31  5-MIN KDBQ 170845Z AUTO 00000KT 10SM CLR 13/09 A2993  1070 77 1100 000/00 RMK AO2 TSNO
94908KDBQ DBQ20050617025012806/17/05 02:50:31  5-MIN KDBQ 170850Z AUTO 00000KT 10SM CLR 13/09 A2993  1070 74 1200 000/00 RMK AO2 SLP133 T01330089 55003 TSNO
94908KDBQ DBQ20050617025512806/17/05 02:55:31  5-MIN KDBQ 170855Z AUTO 00000KT 10SM CLR 13/08 A2993  1070 74 1100 000/00 RMK AO2 SLP134 T01280083 50003 TSNO
94908KDBQ DBQ20050617030010506/17/05 03:00:31  5-MIN KDBQ 170900Z AUTO 00000KT 10SM CLR 12/08 A2994  1060 77 1000 000/00 RMK AO2 TSNO
94908KDBQ DBQ20050617030510506/17/05 03:05:31  5-MIN KDBQ 170905Z AUTO 00000KT 10SM CLR 12/08 A2994  1060 80 1000 000/00 RMK AO2 TSNO
94908KDBQ DBQ20050617031010506/17/05 03:10:31  5-MIN KDBQ 170910Z AUTO 00000KT 10SM CLR 12/08 A2994  1060 77 1000 000/00 RMK AO2 TSNO
94908KDBQ DBQ20050617031510506/17/05 03:15:31  5-MIN KDBQ 170915Z AUTO 00000KT 10SM CLR 12/08 A2993  1070 80 1000 000/00 RMK AO2 TSNO
94908KDBQ DBQ20050617032010406/17/05 03:20:31  5-MIN KDBQ 170920Z AUTO 00000KT 10SM CLR 11/08 A2993  1070 80 900 000/00 RMK AO2 TSNO
94908KDBQ DBQ20050617032510506/17/05 03:25:31  5-MIN KDBQ 170925Z AUTO 00000KT 10SM CLR 12/08 A2993  1070 77 1000 000/00 RMK AO2 TSNO
94908KDBQ DBQ20050617033010506/17/05 03:30:31  5-MIN KDBQ 170930Z AUTO 00000KT 10SM CLR 12/08 A2993  1070 77 1000 000/00 RMK AO2 TSNO
94908KDBQ DBQ20050617033510506/17/05 03:35:31  5-MIN KDBQ 170935Z AUTO 00000KT 10SM CLR 13/08 A2993  1070 74 1100 000/00 RMK AO2 TSNO
94908KDBQ DBQ20050617034010506/17/05 03:40:31  5-MIN KDBQ 170940Z AUTO 00000KT 10SM CLR 12/08 A2993  1070 77 1000 000/00 RMK AO2 TSNO
94908KDBQ DBQ20050617034510506/17/05 03:45:31  5-MIN KDBQ 170945Z AUTO 00000KT 10SM CLR 12/08 A2993  1070 77 1000 000/00 RMK AO2 TSNO
94908KDBQ DBQ20050617035012106/17/05 03:50:31  5-MIN KDBQ 170950Z AUTO 00000KT 10SM CLR 11/08 A2993  1070 80 900 000/00 RMK AO2 SLP133 T01110078 TSNO
94908KDBQ DBQ20050617035512106/17/05 03:55:31  5-MIN KDBQ 170955Z AUTO 00000KT 10SM CLR 11/08 A2993  1070 80 900 000/00 RMK AO2 SLP132 T01110078 TSNO
94908KDBQ DBQ20050617040010406/17/05 04:00:31  5-MIN KDBQ 171000Z AUTO 00000KT 10SM CLR 11/08 A2993  1070 80 900 000/00 RMK AO2 TSNO
94908KDBQ DBQ20050617040510506/17/05 04:05:31  5-MIN KDBQ 171005Z AUTO 00000KT 10SM CLR 12/08 A2994  1060 77 1000 000/00 RMK AO2 TSNO
94908KDBQ DBQ20050617041010406/17/05 04:10:31  5-MIN KDBQ 171010Z AUTO 00000KT 10SM CLR 11/08 A2994  1060 80 900 000/00 RMK AO2 TSNO
94908KDBQ DBQ20050617041510406/17/05 04:15:31  5-MIN KDBQ 171015Z AUTO 00000KT 10SM CLR 11/07 A2994  1060 80 800 000/00 RMK AO2 TSNO
94908KDBQ DBQ20050617042010406/17/05 04:20:31  5-MIN KDBQ 171020Z AUTO 00000KT 10SM CLR 11/07 A2995  1060 80 800 000/00 RMK AO2 TSNO
94908KDBQ DBQ20050617042510406/17/05 04:25:31  5-MIN KDBQ 171025Z AUTO 00000KT 10SM CLR 11/08 A2995  1060 83 800 000/00 RMK AO2 TSNO
94908KDBQ DBQ20050617043010406/17/05 04:30:31  5-MIN KDBQ 171030Z AUTO 00000KT 10SM CLR 10/07 A2995  1060 83 700 000/00 RMK AO2 TSNO
94908KDBQ DBQ20050617043510406/17/05 04:35:31  5-MIN KDBQ 171035Z AUTO 00000KT 10SM CLR 11/07 A2995  1050 80 800 000/00 RMK AO2 TSNO
94908KDBQ DBQ20050617044010406/17/05 04:40:31  5-MIN KDBQ 171040Z AUTO 23004KT 10SM CLR 10/07 A2995  1050 83 700 230/04 RMK AO2 TSNO
94908KDBQ DBQ20050617044510406/17/05 04:45:31  5-MIN KDBQ 171045Z AUTO 00000KT 10SM CLR 09/07 A2995  1050 86 700 000/00 RMK AO2 TSNO
94908KDBQ DBQ20050617045011006/17/05 04:50:31  5-MIN KDBQ 171050Z 00000KT 10SM CLR 10/08 A2995 1050 86 700 000/00 RMK AO2 SLP140 T01000078
94908KDBQ DBQ20050617045511006/17/05 04:55:31  5-MIN KDBQ 171055Z 00000KT 10SM CLR 11/08 A2995 1050 83 800 000/00 RMK AO2 SLP139 T01060078
94908KDBQ DBQ20050617050009306/17/05 05:00:31  5-MIN KDBQ 171100Z 00000KT 10SM CLR 11/08 A2995 1050 86 800 000/00 RMK AO2
94908KDBQ DBQ20050617050509306/17/05 05:05:31  5-MIN KDBQ 171105Z 00000KT 10SM CLR 11/08 A2996 1040 86 800 000/00 RMK AO2
94908KDBQ DBQ20050617051009306/17/05 05:10:31  5-MIN KDBQ 171110Z 00000KT 10SM CLR 11/08 A2996 1040 83 900 000/00 RMK AO2
94908KDBQ DBQ20050617051509306/17/05 05:15:31  5-MIN KDBQ 171115Z 00000KT 10SM CLR 11/08 A2996 1050 83 900 000/00 RMK AO2
94908KDBQ DBQ20050617052009306/17/05 05:20:31  5-MIN KDBQ 171120Z 00000KT 10SM CLR 11/08 A2996 1050 83 900 000/00 RMK AO2
94908KDBQ DBQ20050617052509306/17/05 05:25:31  5-MIN KDBQ 171125Z 00000KT 10SM CLR 12/09 A2996 1040 83 900 000/00 RMK AO2
94908KDBQ DBQ20050617053009306/17/05 05:30:31  5-MIN KDBQ 171130Z 00000KT 10SM CLR 12/09 A2996 1040 86 900 000/00 RMK AO2
94908KDBQ DBQ20050617053509406/17/05 05:35:31  5-MIN KDBQ 171135Z 00000KT 10SM CLR 12/09 A2996 1040 83 1000 000/00 RMK AO2
94908KDBQ DBQ20050617054009406/17/05 05:40:31  5-MIN KDBQ 171140Z 00000KT 10SM CLR 13/09 A2996 1040 80 1100 000/00 RMK AO2
94908KDBQ DBQ20050617054509406/17/05 05:45:31  5-MIN KDBQ 171145Z 00000KT 10SM CLR 13/09 A2996 1040 80 1100 000/00 RMK AO2
94908KDBQ DBQ20050617060509406/17/05 06:05:31  5-MIN KDBQ 171205Z 04004KT 10SM CLR 15/11 A2996 1040 74 1300 040/04 RMK AO2
94908KDBQ DBQ20050617061009406/17/05 06:10:31  5-MIN KDBQ 171210Z 03005KT 10SM CLR 14/11 A2997 1030 77 1300 030/05 RMK AO2
94908KDBQ DBQ20050617061509406/17/05 06:15:31  5-MIN KDBQ 171215Z 03006KT 10SM CLR 15/10 A2997 1030 72 1300 030/06 RMK AO2
94908KDBQ DBQ20050617062009406/17/05 06:20:31  5-MIN KDBQ 171220Z 04006KT 10SM CLR 14/11 A2997 1030 77 1200 040/06 RMK AO2
94908KDBQ DBQ20050617062509406/17/05 06:25:31  5-MIN KDBQ 171225Z 04005KT 10SM CLR 14/10 A2997 1030 74 1200 040/05 RMK AO2
94908KDBQ DBQ20050617063009406/17/05 06:30:31  5-MIN KDBQ 171230Z 03005KT 10SM CLR 15/11 A2998 1030 74 1300 030/05 RMK AO2
94908KDBQ DBQ20050617063509406/17/05 06:35:31  5-MIN KDBQ 171235Z 01004KT 10SM CLR 15/11 A2998 1030 74 1300 010/04 RMK AO2
94908KDBQ DBQ20050617064009406/17/05 06:40:31  5-MIN KDBQ 171240Z 01004KT 10SM CLR 16/11 A2998 1030 72 1400 010/04 RMK AO2
94908KDBQ DBQ20050617064509406/17/05 06:45:31  5-MIN KDBQ 171245Z 02004KT 10SM CLR 16/11 A2998 1020 69 1400 020/04 RMK AO2
94908KDBQ DBQ20050617065011106/17/05 06:50:31  5-MIN KDBQ 171250Z 02005KT 10SM CLR 16/11 A2999 1020 69 1400 020/05 RMK AO2 SLP152 T01610106
94908KDBQ DBQ20050617065511106/17/05 06:55:31  5-MIN KDBQ 171255Z 01004KT 10SM CLR 17/11 A2999 1010 67 1500 010/04 RMK AO2 SLP153 T01670106
94908KDBQ DBQ20050617070009406/17/05 07:00:31  5-MIN KDBQ 171300Z 02004KT 10SM CLR 17/11 A3000 1010 69 1500 010/04 RMK AO2
94908KDBQ DBQ20050617070509406/17/05 07:05:31  5-MIN KDBQ 171305Z 01003KT 10SM CLR 17/11 A3000 1010 69 1500 010/03 RMK AO2
94908KDBQ DBQ20050617071009406/17/05 07:10:31  5-MIN KDBQ 171310Z 02003KT 10SM CLR 17/11 A3000 1000 69 1500 020/03 RMK AO2
94908KDBQ DBQ20050617071509406/17/05 07:15:31  5-MIN KDBQ 171315Z 02004KT 10SM CLR 17/11 A3000 1000 67 1500 020/04 RMK AO2
94908KDBQ DBQ20050617072009406/17/05 07:20:31  5-MIN KDBQ 171320Z 35003KT 10SM CLR 17/11 A3000 1000 67 1500 340/03 RMK AO2
94908KDBQ DBQ20050617072509406/17/05 07:25:31  5-MIN KDBQ 171325Z 35004KT 10SM CLR 17/11 A3001 1000 64 1500 350/04 RMK AO2
94908KDBQ DBQ20050617073009406/17/05 07:30:31  5-MIN KDBQ 171330Z 36003KT 10SM CLR 18/11 A3001 1000 62 1600 360/03 RMK AO2
94908KDBQ DBQ20050617073509406/17/05 07:35:31  5-MIN KDBQ 171335Z 35003KT 10SM CLR 18/11 A3001 1000 62 1600 350/03 RMK AO2
94908KDBQ DBQ20050617074009406/17/05 07:40:31  5-MIN KDBQ 171340Z 01003KT 10SM CLR 18/11 A3001 1000 64 1600 010/03 RMK AO2
94908KDBQ DBQ20050617074509406/17/05 07:45:31  5-MIN KDBQ 171345Z 02004KT 10SM CLR 18/11 A3001 1000 62 1700 020/04 RMK AO2
94908KDBQ DBQ20050617075011106/17/05 07:50:31  5-MIN KDBQ 171350Z 01004KT 10SM CLR 18/11 A3001 1000 62 1700 360/04 RMK AO2 SLP158 T01830111
94908KDBQ DBQ20050617075511106/17/05 07:55:31  5-MIN KDBQ 171355Z 01005KT 10SM CLR 18/11 A3001 1000 62 1700 010/05 RMK AO2 SLP159 T01830111
94908KDBQ DBQ20050617080009406/17/05 08:00:31  5-MIN KDBQ 171400Z 01005KT 10SM CLR 19/12 A3001 990 62  1700 010/05 RMK AO2
94908KDBQ DBQ20050617080509406/17/05 08:05:31  5-MIN KDBQ 171405Z 36003KT 10SM CLR 19/11 A3001 990 60  1700 360/03 RMK AO2
94908KDBQ DBQ20050617081009406/17/05 08:10:31  5-MIN KDBQ 171410Z 03005KT 10SM CLR 19/11 A3002 990 60  1700 030/05 RMK AO2
94908KDBQ DBQ20050617081509406/17/05 08:15:31  5-MIN KDBQ 171415Z VRB04KT 10SM CLR 19/12 A3001 990 62  1700 VRB/04 RMK AO2
94908KDBQ DBQ20050617082009406/17/05 08:20:31  5-MIN KDBQ 171420Z 33005KT 10SM CLR 19/11 A3001 990 58  1800 330/05 RMK AO2
94908KDBQ DBQ20050617082509406/17/05 08:25:31  5-MIN KDBQ 171425Z 36007KT 10SM CLR 19/11 A3001 990 56  1800 350/07 RMK AO2
94908KDBQ DBQ20050617083009406/17/05 08:30:31  5-MIN KDBQ 171430Z 35006KT 10SM CLR 19/11 A3001 1000 56 1800 350/06 RMK AO2
94908KDBQ DBQ20050617083509406/17/05 08:35:31  5-MIN KDBQ 171435Z 34007KT 10SM CLR 19/10 A3001 1000 54 1800 340/07 RMK AO2
94908KDBQ DBQ20050617084009406/17/05 08:40:31  5-MIN KDBQ 171440Z 36005KT 10SM CLR 20/10 A3001 1000 52 1800 360/05 RMK AO2
94908KDBQ DBQ20050617084509406/17/05 08:45:31  5-MIN KDBQ 171445Z 36006KT 10SM CLR 20/11 A3001 1000 54 1900 360/06 RMK AO2
94908KDBQ DBQ20050617085011706/17/05 08:50:31  5-MIN KDBQ 171450Z 34006KT 10SM CLR 20/10 A3000 1000 52 1900 340/06 RMK AO2 SLP156 T02000100 53009
94908KDBQ DBQ20050617085511706/17/05 08:55:31  5-MIN KDBQ 171455Z 02008KT 10SM CLR 20/11 A3000 1000 54 1900 020/08 RMK AO2 SLP155 T02000106 50013
94908KDBQ DBQ20050617090009406/17/05 09:00:31  5-MIN KDBQ 171500Z 01008KT 10SM CLR 21/11 A3000 1010 52 1900 010/08 RMK AO2
94908KDBQ DBQ20050617090509406/17/05 09:05:31  5-MIN KDBQ 171505Z 03008KT 10SM CLR 21/10 A3000 1010 50 1900 030/08 RMK AO2
94908KDBQ DBQ20050617091009406/17/05 09:10:31  5-MIN KDBQ 171510Z 03007KT 10SM CLR 21/10 A3000 1010 50 1900 030/07 RMK AO2
94908KDBQ DBQ20050617091509406/17/05 09:15:31  5-MIN KDBQ 171515Z 03008KT 10SM CLR 21/10 A2999 1010 50 1900 030/08 RMK AO2
94908KDBQ DBQ20050617092009406/17/05 09:20:31  5-MIN KDBQ 171520Z 01009KT 10SM CLR 21/10 A3000 1010 50 1900 010/09 RMK AO2
94908KDBQ DBQ20050617092509406/17/05 09:25:31  5-MIN KDBQ 171525Z VRB06KT 10SM CLR 21/10 A3000 1010 50 1900 VRB/06 RMK AO2
94908KDBQ DBQ20050617093009406/17/05 09:30:31  5-MIN KDBQ 171530Z 02008KT 10SM CLR 21/09 A2999 1010 47 2000 010/08 RMK AO2
94908KDBQ DBQ20050617093509406/17/05 09:35:31  5-MIN KDBQ 171535Z 35008KT 10SM CLR 21/10 A2999 1010 48 2000 340/08 RMK AO2
94908KDBQ DBQ20050617094009406/17/05 09:40:31  5-MIN KDBQ 171540Z VRB06KT 10SM CLR 21/09 A2999 1010 47 2000 VRB/06 RMK AO2
94908KDBQ DBQ20050617094509406/17/05 09:45:31  5-MIN KDBQ 171545Z 02010KT 10SM CLR 21/09 A2999 1010 45 2000 020/10 RMK AO2
94908KDBQ DBQ20050617095011106/17/05 09:50:31  5-MIN KDBQ 171550Z 04009KT 10SM CLR 22/09 A2999 1020 45 2100 040/09 RMK AO2 SLP151 T02170094
94908KDBQ DBQ20050617095511106/17/05 09:55:31  5-MIN KDBQ 171555Z 05009KT 10SM CLR 22/10 A2999 1020 47 2100 050/09 RMK AO2 SLP151 T02170100
94908KDBQ DBQ20050617100009406/17/05 10:00:31  5-MIN KDBQ 171600Z 05011KT 10SM CLR 22/10 A2999 1020 47 2100 050/11 RMK AO2
94908KDBQ DBQ20050617100509406/17/05 10:05:31  5-MIN KDBQ 171605Z 04013KT 10SM CLR 22/10 A2999 1010 47 2100 030/13 RMK AO2
94908KDBQ DBQ20050617101009406/17/05 10:10:31  5-MIN KDBQ 171610Z 04010KT 10SM CLR 22/10 A2999 1020 47 2100 040/10 RMK AO2
94908KDBQ DBQ20050617101509406/17/05 10:15:31  5-MIN KDBQ 171615Z 04011KT 10SM CLR 21/10 A2999 1020 48 2000 040/11 RMK AO2
94908KDBQ DBQ20050617102009406/17/05 10:20:31  5-MIN KDBQ 171620Z 03009KT 10SM CLR 22/11 A2999 1020 49 2100 030/09 RMK AO2
94908KDBQ DBQ20050617102509406/17/05 10:25:31  5-MIN KDBQ 171625Z 04010KT 10SM CLR 22/11 A2998 1020 49 2100 040/10 RMK AO2
94908KDBQ DBQ20050617103009406/17/05 10:30:31  5-MIN KDBQ 171630Z 05011KT 10SM CLR 22/11 A2998 1020 49 2100 050/11 RMK AO2
94908KDBQ DBQ20050617103509406/17/05 10:35:31  5-MIN KDBQ 171635Z 05010KT 10SM CLR 22/10 A2998 1020 47 2100 050/10 RMK AO2
94908KDBQ DBQ20050617104009406/17/05 10:40:31  5-MIN KDBQ 171640Z 03011KT 10SM CLR 22/11 A2998 1020 49 2100 030/11 RMK AO2
94908KDBQ DBQ20050617104511006/17/05 10:45:31  5-MIN KDBQ 171645Z 03009KT 360V060 10SM CLR 22/11 A2998 1020 49 2100 030/09 360V060 RMK AO2
94908KDBQ DBQ20050617105011706/17/05 10:50:31  5-MIN KDBQ 171650Z 04010G15KT 10SM CLR 22/11 A2998 1020 47 2100 030/10G15 RMK AO2 SLP149 T02220106
94908KDBQ DBQ20050617105511106/17/05 10:55:31  5-MIN KDBQ 171655Z 04009KT 10SM CLR 22/10 A2998 1020 45 2100 040/09 RMK AO2 SLP148 T02220100
94908KDBQ DBQ20050617110009406/17/05 11:00:31  5-MIN KDBQ 171700Z 02007KT 10SM CLR 22/10 A2998 1030 45 2100 020/07 RMK AO2
94908KDBQ DBQ20050617110509406/17/05 11:05:31  5-MIN KDBQ 171705Z 04009KT 10SM CLR 23/11 A2998 1030 45 2200 040/09 RMK AO2
94908KDBQ DBQ20050617111009406/17/05 11:10:31  5-MIN KDBQ 171710Z 04008KT 10SM CLR 22/10 A2998 1030 45 2100 040/08 RMK AO2
94908KDBQ DBQ20050617111510406/17/05 11:15:31  5-MIN KDBQ 171715Z 04012G16KT 10SM FEW050 23/11 A2998  1030 45 2200 040/12G16 RMK AO2
94908KDBQ DBQ20050617112010406/17/05 11:20:31  5-MIN KDBQ 171720Z 04008G16KT 10SM FEW050 23/10 A2998  1020 44 2200 040/08G16 RMK AO2
94908KDBQ DBQ20050617112509706/17/05 11:25:31  5-MIN KDBQ 171725Z 03008KT 10SM FEW050 23/10 A2998 1030 44 2200 030/08 RMK AO2
94908KDBQ DBQ20050617113010406/17/05 11:30:31  5-MIN KDBQ 171730Z 02013G17KT 10SM FEW050 23/09 A2997  1030 41 2300 020/13G17 RMK AO2
94908KDBQ DBQ20050617113510406/17/05 11:35:31  5-MIN KDBQ 171735Z 05011G17KT 10SM FEW050 23/09 A2997  1030 42 2200 050/11G17 RMK AO2
94908KDBQ DBQ20050617114009706/17/05 11:40:31  5-MIN KDBQ 171740Z 01010KT 10SM FEW050 23/10 A2997 1030 42 2300 010/10 RMK AO2
94908KDBQ DBQ20050617114509406/17/05 11:45:31  5-MIN KDBQ 171745Z 01010KT 10SM CLR 23/09 A2997 1030 42 2200 010/10 RMK AO2
94908KDBQ DBQ20050617115013506/17/05 11:50:31  5-MIN KDBQ 171750Z 02011G16KT 10SM CLR 23/09 A2997 1030 42 2200 020/11G16 RMK AO2 SLP144 T02280094 10233 20144 50013
94908KDBQ DBQ20050617115513506/17/05 11:55:31  5-MIN KDBQ 171755Z 05009G15KT 10SM CLR 23/09 A2997 1040 40 2200 050/09G15 RMK AO2 SLP143 T02280089 10233 20144 56011
94908KDBQ DBQ20050617120010006/17/05 12:00:31  5-MIN KDBQ 171800Z 04012G16KT 10SM CLR 23/09 A2996 1040 41 2300 040/12G16 RMK AO2
94908KDBQ DBQ20050617120510006/17/05 12:05:31  5-MIN KDBQ 171805Z 04006G16KT 10SM CLR 23/09 A2996 1040 41 2300 040/06G16 RMK AO2
94908KDBQ DBQ20050617121009406/17/05 12:10:31  5-MIN KDBQ 171810Z 02009KT 10SM CLR 23/10 A2996 1040 42 2300 020/09 RMK AO2
94908KDBQ DBQ20050617121509406/17/05 12:15:31  5-MIN KDBQ 171815Z 04012KT 10SM CLR 24/09 A2997 1040 39 2300 040/12 RMK AO2
94908KDBQ DBQ20050617122009406/17/05 12:20:31  5-MIN KDBQ 171820Z 03008KT 10SM CLR 23/09 A2997 1040 39 2300 030/08 RMK AO2
94908KDBQ DBQ20050617122511006/17/05 12:25:31  5-MIN KDBQ 171825Z 01009KT 330V040 10SM CLR 24/09 A2997 1030 39 2300 010/09 330V040 RMK AO2
94908KDBQ DBQ20050617123010006/17/05 12:30:31  5-MIN KDBQ 171830Z 02008G16KT 10SM CLR 23/09 A2997 1030 39 2300 020/08G16 RMK AO2
94908KDBQ DBQ20050617123509406/17/05 12:35:31  5-MIN KDBQ 171835Z 33007KT 10SM CLR 23/09 A2997 1030 39 2300 330/07 RMK AO2
94908KDBQ DBQ20050617124009406/17/05 12:40:31  5-MIN KDBQ 171840Z 04008KT 10SM CLR 24/10 A2997 1030 41 2300 040/08 RMK AO2
94908KDBQ DBQ20050617124510006/17/05 12:45:31  5-MIN KDBQ 171845Z 05007G14KT 10SM CLR 24/09 A2997 1030 39 2300 050/07G14 RMK AO2
94908KDBQ DBQ20050617125011106/17/05 12:50:31  5-MIN KDBQ 171850Z 36011KT 10SM CLR 24/09 A2997 1030 39 2300 350/11 RMK AO2 SLP145 T02390094
94908KDBQ DBQ20050617125511106/17/05 12:55:31  5-MIN KDBQ 171855Z 01010KT 10SM CLR 24/09 A2997 1030 39 2300 010/10 RMK AO2 SLP144 T02390094
94908KDBQ DBQ20050617130011006/17/05 13:00:31  5-MIN KDBQ 171900Z 01008KT 320V030 10SM CLR 24/09 A2997 1030 38 2300 010/08 320V030 RMK AO2
94908KDBQ DBQ20050617130509406/17/05 13:05:31  5-MIN KDBQ 171905Z 01009KT 10SM CLR 24/09 A2997 1040 39 2300 010/09 RMK AO2
94908KDBQ DBQ20050617131009406/17/05 13:10:31  5-MIN KDBQ 171910Z 36008KT 10SM CLR 24/09 A2996 1040 38 2400 360/08 RMK AO2
94908KDBQ DBQ20050617131509406/17/05 13:15:31  5-MIN KDBQ 171915Z 03011KT 10SM CLR 24/09 A2996 1040 39 2300 020/11 RMK AO2
94908KDBQ DBQ20050617132009406/17/05 13:20:31  5-MIN KDBQ 171920Z 03010KT 10SM CLR 24/09 A2996 1040 38 2300 030/10 RMK AO2
94908KDBQ DBQ20050617132509406/17/05 13:25:31  5-MIN KDBQ 171925Z 03007KT 10SM CLR 24/10 A2996 1040 39 2400 020/07 RMK AO2
94908KDBQ DBQ20050617133009406/17/05 13:30:31  5-MIN KDBQ 171930Z 36006KT 10SM CLR 24/09 A2996 1040 38 2300 360/06 RMK AO2
94908KDBQ DBQ20050617133511006/17/05 13:35:31  5-MIN KDBQ 171935Z 01007KT 310V080 10SM CLR 24/09 A2996 1040 38 2400 010/07 310V080 RMK AO2
94908KDBQ DBQ20050617134009406/17/05 13:40:31  5-MIN KDBQ 171940Z 02010KT 10SM CLR 24/09 A2996 1040 38 2400 020/10 RMK AO2
94908KDBQ DBQ20050617134511006/17/05 13:45:31  5-MIN KDBQ 171945Z 35007KT 330V060 10SM CLR 24/09 A2996 1040 39 2400 350/07 330V060 RMK AO2
94908KDBQ DBQ20050617135011106/17/05 13:50:31  5-MIN KDBQ 171950Z 02007KT 10SM CLR 24/09 A2996 1040 39 2400 020/07 RMK AO2 SLP141 T02390094
94908KDBQ DBQ20050617135511106/17/05 13:55:31  5-MIN KDBQ 171955Z 01010KT 10SM CLR 24/10 A2996 1040 39 2400 010/10 RMK AO2 SLP142 T02440100
94908KDBQ DBQ20050617140009406/17/05 14:00:31  5-MIN KDBQ 172000Z 02009KT 10SM CLR 24/09 A2996 1040 38 2400 020/09 RMK AO2
94908KDBQ DBQ20050617140509406/17/05 14:05:31  5-MIN KDBQ 172005Z 36005KT 10SM CLR 24/10 A2995 1050 41 2400 360/05 RMK AO2
94908KDBQ DBQ20050617141009406/17/05 14:10:31  5-MIN KDBQ 172010Z 36006KT 10SM CLR 24/10 A2995 1050 39 2400 360/06 RMK AO2
94908KDBQ DBQ20050617141509406/17/05 14:15:31  5-MIN KDBQ 172015Z 33008KT 10SM CLR 24/11 A2995 1050 41 2400 330/08 RMK AO2
94908KDBQ DBQ20050617142011406/17/05 14:20:31  5-MIN KDBQ 172020Z 35007KT 330V030 10SM FEW060 24/10  A2995 1050 41 2400 350/07 330V030 RMK AO2
94908KDBQ DBQ20050617142509706/17/05 14:25:31  5-MIN KDBQ 172025Z 01009KT 10SM FEW060 24/11 A2995 1050 41 2400 010/09 RMK AO2
94908KDBQ DBQ20050617143009706/17/05 14:30:31  5-MIN KDBQ 172030Z 06008KT 10SM FEW060 24/11 A2995 1060 41 2400 050/08 RMK AO2
94908KDBQ DBQ20050617143509706/17/05 14:35:31  5-MIN KDBQ 172035Z 36010KT 10SM FEW060 24/11 A2994 1060 41 2400 360/10 RMK AO2
94908KDBQ DBQ20050617144009706/17/05 14:40:31  5-MIN KDBQ 172040Z 01004KT 10SM FEW060 24/09 A2994 1060 38 2400 010/04 RMK AO2
94908KDBQ DBQ20050617144509706/17/05 14:45:31  5-MIN KDBQ 172045Z 36007KT 10SM FEW060 25/11 A2994 1060 39 2500 350/07 RMK AO2
94908KDBQ DBQ20050617145011706/17/05 14:50:31  5-MIN KDBQ 172050Z 04006KT 10SM CLR 24/10 A2994 1060 39 2400 040/06 RMK AO2 SLP135 T02440100 56011
94908KDBQ DBQ20050617145511706/17/05 14:55:31  5-MIN KDBQ 172055Z 04009KT 10SM CLR 24/10 A2994 1060 39 2400 040/09 RMK AO2 SLP136 T02440100 58008
94908KDBQ DBQ20050617150009406/17/05 15:00:31  5-MIN KDBQ 172100Z 01008KT 10SM CLR 25/11 A2994 1060 39 2500 010/08 RMK AO2
94908KDBQ DBQ20050617150509406/17/05 15:05:31  5-MIN KDBQ 172105Z 04010KT 10SM CLR 24/10 A2994 1060 39 2400 040/10 RMK AO2
94908KDBQ DBQ20050617151009406/17/05 15:10:31  5-MIN KDBQ 172110Z 05010KT 10SM CLR 24/09 A2994 1060 38 2400 050/10 RMK AO2
94908KDBQ DBQ20050617151509406/17/05 15:15:31  5-MIN KDBQ 172115Z 01009KT 10SM CLR 24/09 A2994 1060 38 2400 010/09 RMK AO2
94908KDBQ DBQ20050617152009406/17/05 15:20:31  5-MIN KDBQ 172120Z VRB05KT 10SM CLR 24/09 A2994 1060 38 2400 VRB/05 RMK AO2
94908KDBQ DBQ20050617152511006/17/05 15:25:31  5-MIN KDBQ 172125Z 36009KT 320V060 10SM CLR 25/09 A2994 1060 37 2500 360/09 320V060 RMK AO2
94908KDBQ DBQ20050617153009406/17/05 15:30:31  5-MIN KDBQ 172130Z 01009KT 10SM CLR 24/09 A2994 1060 38 2400 010/09 RMK AO2
94908KDBQ DBQ20050617153509406/17/05 15:35:31  5-MIN KDBQ 172135Z 02008KT 10SM CLR 25/09 A2994 1060 35 2500 020/08 RMK AO2
94908KDBQ DBQ20050617154009406/17/05 15:40:31  5-MIN KDBQ 172140Z 02008KT 10SM CLR 24/09 A2994 1060 36 2400 020/08 RMK AO2
94908KDBQ DBQ20050617154509406/17/05 15:45:31  5-MIN KDBQ 172145Z 36007KT 10SM CLR 24/09 A2994 1060 39 2400 360/07 RMK AO2
94908KDBQ DBQ20050617155011106/17/05 15:50:31  5-MIN KDBQ 172150Z 34007KT 10SM CLR 24/09 A2994 1060 38 2400 340/07 RMK AO2 SLP136 T02440094
94908KDBQ DBQ20050617155511106/17/05 15:55:31  5-MIN KDBQ 172155Z VRB04KT 10SM CLR 24/09 A2994 1060 36 2400 VRB/04 RMK AO2 SLP135 T02440089
94908KDBQ DBQ20050617160010006/17/05 16:00:31  5-MIN KDBQ 172200Z 02009G14KT 10SM CLR 25/09 A2994 1060 37 2500 020/09G14 RMK AO2
94908KDBQ DBQ20050617160510006/17/05 16:05:31  5-MIN KDBQ 172205Z 01010G14KT 10SM CLR 25/10 A2994 1060 38 2500 360/10G14 RMK AO2
94908KDBQ DBQ20050617161009406/17/05 16:10:31  5-MIN KDBQ 172210Z 01009KT 10SM CLR 24/09 A2994 1060 38 2400 010/09 RMK AO2
94908KDBQ DBQ20050617161509406/17/05 16:15:31  5-MIN KDBQ 172215Z 00000KT 10SM CLR 24/08 A2994 1060 35 2400 000/00 RMK AO2
94908KDBQ DBQ20050617162009406/17/05 16:20:31  5-MIN KDBQ 172220Z 35004KT 10SM CLR 25/09 A2994 1060 37 2500 350/04 RMK AO2
94908KDBQ DBQ20050617162509406/17/05 16:25:31  5-MIN KDBQ 172225Z 05008KT 10SM CLR 25/10 A2994 1060 38 2500 050/08 RMK AO2
94908KDBQ DBQ20050617163009406/17/05 16:30:31  5-MIN KDBQ 172230Z 36005KT 10SM CLR 24/10 A2994 1060 39 2400 360/05 RMK AO2
94908KDBQ DBQ20050617163509406/17/05 16:35:31  5-MIN KDBQ 172235Z 01009KT 10SM CLR 24/10 A2994 1060 39 2400 010/09 RMK AO2
94908KDBQ DBQ20050617164009406/17/05 16:40:31  5-MIN KDBQ 172240Z 01007KT 10SM CLR 24/10 A2994 1060 39 2400 010/07 RMK AO2
94908KDBQ DBQ20050617164509406/17/05 16:45:31  5-MIN KDBQ 172245Z 01006KT 10SM CLR 24/11 A2993 1070 41 2400 010/06 RMK AO2
94908KDBQ DBQ20050617165011406/17/05 16:50:31  5-MIN KDBQ 172250Z 35005KT 10SM FEW070 24/10 A2994 1060 39 2400 350/05 RMK AO2 SLP135 T02440100
94908KDBQ DBQ20050617165511406/17/05 16:55:31  5-MIN KDBQ 172255Z 04008KT 10SM SCT065 24/10 A2994 1060 41 2400 040/08 RMK AO2 SLP136 T02390100
94908KDBQ DBQ20050617170009706/17/05 17:00:31  5-MIN KDBQ 172300Z 05006KT 10SM SCT065 23/09 A2994 1060 41 2300 050/06 RMK AO2
94908KDBQ DBQ20050617170509706/17/05 17:05:31  5-MIN KDBQ 172305Z 03006KT 10SM SCT065 24/11 A2993 1070 41 2400 030/06 RMK AO2
94908KDBQ DBQ20050617171009706/17/05 17:10:31  5-MIN KDBQ 172310Z 03009KT 10SM FEW065 24/09 A2993 1070 38 2400 030/09 RMK AO2
94908KDBQ DBQ20050617171509706/17/05 17:15:31  5-MIN KDBQ 172315Z 03007KT 10SM FEW065 24/09 A2994 1060 38 2400 030/07 RMK AO2
94908KDBQ DBQ20050617172009706/17/05 17:20:31  5-MIN KDBQ 172320Z 02008KT 10SM FEW065 24/09 A2994 1060 39 2400 020/08 RMK AO2
94908KDBQ DBQ20050617172509706/17/05 17:25:31  5-MIN KDBQ 172325Z 01006KT 10SM FEW065 23/09 A2994 1060 41 2300 010/06 RMK AO2
94908KDBQ DBQ20050617173009406/17/05 17:30:31  5-MIN KDBQ 172330Z 02006KT 10SM CLR 23/10 A2994 1060 44 2200 020/06 RMK AO2
94908KDBQ DBQ20050617173509406/17/05 17:35:31  5-MIN KDBQ 172335Z 02007KT 10SM CLR 23/09 A2994 1060 42 2200 020/07 RMK AO2
94908KDBQ DBQ20050617174009406/17/05 17:40:31  5-MIN KDBQ 172340Z 01005KT 10SM CLR 24/09 A2994 1060 39 2400 010/05 RMK AO2
94908KDBQ DBQ20050617174509406/17/05 17:45:31  5-MIN KDBQ 172345Z 01007KT 10SM CLR 24/10 A2994 1060 41 2400 010/07 RMK AO2
94908KDBQ DBQ20050617175012906/17/05 17:50:31  5-MIN KDBQ 172350Z 02005KT 10SM CLR 23/10 A2994 1060 42 2300 020/05 RMK AO2 SLP135 T02330100 10250 20228 58008
94908KDBQ DBQ20050617175512906/17/05 17:55:31  5-MIN KDBQ 172355Z 01006KT 10SM CLR 23/11 A2994 1060 44 2300 010/06 RMK AO2 SLP135 T02330106 10250 20228 55001
94908KDBQ DBQ20050617180009406/17/05 18:00:31  5-MIN KDBQ 180000Z 02006KT 10SM CLR 23/10 A2994 1060 44 2200 020/06 RMK AO2
94908KDBQ DBQ20050617180509406/17/05 18:05:31  5-MIN KDBQ 180005Z 01006KT 10SM CLR 23/10 A2994 1060 42 2300 010/06 RMK AO2
94908KDBQ DBQ20050617181009406/17/05 18:10:31  5-MIN KDBQ 180010Z 02005KT 10SM CLR 23/11 A2994 1060 45 2200 010/05 RMK AO2
94908KDBQ DBQ20050617181509406/17/05 18:15:31  5-MIN KDBQ 180015Z 01005KT 10SM CLR 23/10 A2994 1060 44 2200 010/05 RMK AO2
94908KDBQ DBQ20050617182009406/17/05 18:20:31  5-MIN KDBQ 180020Z 02005KT 10SM CLR 23/11 A2994 1060 45 2200 020/05 RMK AO2
94908KDBQ DBQ20050617182509406/17/05 18:25:31  5-MIN KDBQ 180025Z 05005KT 10SM CLR 23/11 A2994 1060 47 2200 050/05 RMK AO2
94908KDBQ DBQ20050617183009406/17/05 18:30:31  5-MIN KDBQ 180030Z 04004KT 10SM CLR 23/11 A2995 1050 45 2200 040/04 RMK AO2
94908KDBQ DBQ20050617183509406/17/05 18:35:31  5-MIN KDBQ 180035Z 05005KT 10SM CLR 23/10 A2995 1050 44 2200 050/05 RMK AO2
94908KDBQ DBQ20050617184009406/17/05 18:40:31  5-MIN KDBQ 180040Z 04004KT 10SM CLR 23/11 A2995 1050 45 2200 040/04 RMK AO2
94908KDBQ DBQ20050617184509406/17/05 18:45:31  5-MIN KDBQ 180045Z 03004KT 10SM CLR 22/11 A2995 1050 49 2200 030/04 RMK AO2
94908KDBQ DBQ20050617185011106/17/05 18:50:31  5-MIN KDBQ 180050Z 04005KT 10SM CLR 22/11 A2995 1050 47 2200 040/05 RMK AO2 SLP139 T02220106
94908KDBQ DBQ20050617185511106/17/05 18:55:31  5-MIN KDBQ 180055Z 04004KT 10SM CLR 22/11 A2995 1050 47 2200 040/04 RMK AO2 SLP139 T02220106
94908KDBQ DBQ20050617190009406/17/05 19:00:31  5-MIN KDBQ 180100Z 03004KT 10SM CLR 22/11 A2995 1050 49 2100 030/04 RMK AO2
94908KDBQ DBQ20050617190510506/17/05 19:05:31  5-MIN KDBQ 180105Z AUTO 00000KT 10SM CLR 22/11 A2995  1050 49 2100 000/00 RMK AO2 TSNO
94908KDBQ DBQ20050617191010506/17/05 19:10:31  5-MIN KDBQ 180110Z AUTO 04004KT 10SM CLR 22/10 A2995  1050 47 2100 040/04 RMK AO2 TSNO
94908KDBQ DBQ20050617191510506/17/05 19:15:31  5-MIN KDBQ 180115Z AUTO 05003KT 10SM CLR 21/11 A2995  1050 50 2000 050/03 RMK AO2 TSNO
94908KDBQ DBQ20050617192010506/17/05 19:20:31  5-MIN KDBQ 180120Z AUTO 05004KT 10SM CLR 21/11 A2995  1050 50 2000 050/04 RMK AO2 TSNO
94908KDBQ DBQ20050617192510506/17/05 19:25:31  5-MIN KDBQ 180125Z AUTO 05003KT 10SM CLR 21/10 A2995  1050 48 2000 050/03 RMK AO2 TSNO
94908KDBQ DBQ20050617193010506/17/05 19:30:31  5-MIN KDBQ 180130Z AUTO 05003KT 10SM CLR 21/10 A2994  1060 50 2000 050/03 RMK AO2 TSNO
94908KDBQ DBQ20050617193510506/17/05 19:35:31  5-MIN KDBQ 180135Z AUTO 06003KT 10SM CLR 21/10 A2995  1050 50 2000 060/03 RMK AO2 TSNO
94908KDBQ DBQ20050617194010506/17/05 19:40:31  5-MIN KDBQ 180140Z AUTO 07003KT 10SM CLR 21/09 A2995  1050 47 2000 070/03 RMK AO2 TSNO
94908KDBQ DBQ20050617194510506/17/05 19:45:31  5-MIN KDBQ 180145Z AUTO 07003KT 10SM CLR 21/10 A2994  1060 50 2000 070/03 RMK AO2 TSNO
94908KDBQ DBQ20050617195012206/17/05 19:50:31  5-MIN KDBQ 180150Z AUTO 07003KT 10SM CLR 20/10 A2995  1050 52 1900 070/03 RMK AO2 SLP139 T02000100 TSNO
94908KDBQ DBQ20050617195512206/17/05 19:55:31  5-MIN KDBQ 180155Z AUTO 08003KT 10SM CLR 19/10 A2994  1060 54 1900 070/03 RMK AO2 SLP137 T01940100 TSNO
94908KDBQ DBQ20050617200010506/17/05 20:00:31  5-MIN KDBQ 180200Z AUTO 09005KT 10SM CLR 19/10 A2995  1050 56 1800 090/05 RMK AO2 TSNO
94908KDBQ DBQ20050617200510506/17/05 20:05:31  5-MIN KDBQ 180205Z AUTO 08004KT 10SM CLR 19/11 A2996  1040 56 1800 080/04 RMK AO2 TSNO
94908KDBQ DBQ20050617201010506/17/05 20:10:31  5-MIN KDBQ 180210Z AUTO 09003KT 10SM CLR 19/11 A2995  1050 58 1800 090/03 RMK AO2 TSNO
94908KDBQ DBQ20050617201510506/17/05 20:15:31  5-MIN KDBQ 180215Z AUTO 00000KT 10SM CLR 18/11 A2995  1050 60 1700 000/00 RMK AO2 TSNO
94908KDBQ DBQ20050617202010506/17/05 20:20:31  5-MIN KDBQ 180220Z AUTO 00000KT 10SM CLR 18/11 A2995  1050 64 1700 000/00 RMK AO2 TSNO
94908KDBQ DBQ20050617202510506/17/05 20:25:31  5-MIN KDBQ 180225Z AUTO 00000KT 10SM CLR 18/11 A2995  1050 62 1700 000/00 RMK AO2 TSNO
94908KDBQ DBQ20050617203010506/17/05 20:30:31  5-MIN KDBQ 180230Z AUTO 00000KT 10SM CLR 17/11 A2995  1050 64 1600 000/00 RMK AO2 TSNO
94908KDBQ DBQ20050617203510506/17/05 20:35:31  5-MIN KDBQ 180235Z AUTO 00000KT 10SM CLR 17/11 A2997  1040 64 1600 000/00 RMK AO2 TSNO
94908KDBQ DBQ20050617204010506/17/05 20:40:31  5-MIN KDBQ 180240Z AUTO 00000KT 10SM CLR 17/11 A2996  1040 64 1600 000/00 RMK AO2 TSNO
94908KDBQ DBQ20050617204510506/17/05 20:45:31  5-MIN KDBQ 180245Z AUTO 00000KT 10SM CLR 17/11 A2996  1040 67 1500 000/00 RMK AO2 TSNO
94908KDBQ DBQ20050617205012806/17/05 20:50:31  5-MIN KDBQ 180250Z AUTO 00000KT 10SM CLR 17/11 A2996  1040 64 1600 000/00 RMK AO2 SLP142 T01720106 55001 TSNO
94908KDBQ DBQ20050617205512806/17/05 20:55:31  5-MIN KDBQ 180255Z AUTO 00000KT 10SM CLR 17/11 A2996  1040 64 1600 000/00 RMK AO2 SLP142 T01720106 53006 TSNO
94908KDBQ DBQ20050617210010506/17/05 21:00:31  5-MIN KDBQ 180300Z AUTO 00000KT 10SM CLR 16/11 A2996  1040 69 1500 000/00 RMK AO2 TSNO
94908KDBQ DBQ20050617210510506/17/05 21:05:31  5-MIN KDBQ 180305Z AUTO 00000KT 10SM CLR 17/11 A2996  1040 67 1500 000/00 RMK AO2 TSNO
94908KDBQ DBQ20050617211010506/17/05 21:10:31  5-MIN KDBQ 180310Z AUTO 00000KT 10SM CLR 17/11 A2996  1040 67 1500 000/00 RMK AO2 TSNO
94908KDBQ DBQ20050617211510506/17/05 21:15:31  5-MIN KDBQ 180315Z AUTO 00000KT 10SM CLR 16/11 A2996  1040 69 1500 000/00 RMK AO2 TSNO
94908KDBQ DBQ20050617212010506/17/05 21:20:31  5-MIN KDBQ 180320Z AUTO 00000KT 10SM CLR 16/11 A2996  1040 69 1400 000/00 RMK AO2 TSNO
94908KDBQ DBQ20050617212510506/17/05 21:25:31  5-MIN KDBQ 180325Z AUTO 00000KT 10SM CLR 16/11 A2997  1040 69 1400 000/00 RMK AO2 TSNO
94908KDBQ DBQ20050617213010506/17/05 21:30:31  5-MIN KDBQ 180330Z AUTO 00000KT 10SM CLR 16/11 A2997  1040 69 1400 000/00 RMK AO2 TSNO
94908KDBQ DBQ20050617213510506/17/05 21:35:31  5-MIN KDBQ 180335Z AUTO 00000KT 10SM CLR 16/11 A2997  1030 69 1400 000/00 RMK AO2 TSNO
94908KDBQ DBQ20050617214010506/17/05 21:40:31  5-MIN KDBQ 180340Z AUTO 00000KT 10SM CLR 16/11 A2997  1030 74 1400 000/00 RMK AO2 TSNO
94908KDBQ DBQ20050617214510506/17/05 21:45:31  5-MIN KDBQ 180345Z AUTO 00000KT 10SM CLR 16/11 A2997  1030 74 1400 000/00 RMK AO2 TSNO
94908KDBQ DBQ20050617215012206/17/05 21:50:31  5-MIN KDBQ 180350Z AUTO 00000KT 10SM CLR 16/11 A2997  1030 74 1400 000/00 RMK AO2 SLP146 T01560111 TSNO
94908KDBQ DBQ20050617215512206/17/05 21:55:31  5-MIN KDBQ 180355Z AUTO 00000KT 10SM CLR 15/11 A2997  1030 77 1300 000/00 RMK AO2 SLP147 T01500111 TSNO
94908KDBQ DBQ20050617220010506/17/05 22:00:31  5-MIN KDBQ 180400Z AUTO 00000KT 10SM CLR 15/11 A2997  1030 77 1300 000/00 RMK AO2 TSNO
94908KDBQ DBQ20050617220510506/17/05 22:05:31  5-MIN KDBQ 180405Z AUTO 00000KT 10SM CLR 14/11 A2998  1030 80 1200 000/00 RMK AO2 TSNO
94908KDBQ DBQ20050617221010506/17/05 22:10:31  5-MIN KDBQ 180410Z AUTO 00000KT 10SM CLR 14/11 A2998  1030 80 1200 000/00 RMK AO2 TSNO
94908KDBQ DBQ20050617221510506/17/05 22:15:31  5-MIN KDBQ 180415Z AUTO 00000KT 10SM CLR 14/11 A2998  1030 83 1200 000/00 RMK AO2 TSNO
94908KDBQ DBQ20050617222010506/17/05 22:20:31  5-MIN KDBQ 180420Z AUTO 00000KT 10SM CLR 14/11 A2998  1030 80 1200 000/00 RMK AO2 TSNO
94908KDBQ DBQ20050617222510506/17/05 22:25:31  5-MIN KDBQ 180425Z AUTO 00000KT 10SM CLR 14/11 A2998  1030 80 1200 000/00 RMK AO2 TSNO
94908KDBQ DBQ20050617223010506/17/05 22:30:31  5-MIN KDBQ 180430Z AUTO 00000KT 10SM CLR 15/11 A2998  1030 77 1300 000/00 RMK AO2 TSNO
94908KDBQ DBQ20050617223510506/17/05 22:35:31  5-MIN KDBQ 180435Z AUTO 00000KT 10SM CLR 14/11 A2998  1030 80 1200 000/00 RMK AO2 TSNO
94908KDBQ DBQ20050617224010506/17/05 22:40:31  5-MIN KDBQ 180440Z AUTO 00000KT 10SM CLR 14/11 A2998  1030 83 1200 000/00 RMK AO2 TSNO
94908KDBQ DBQ20050617224510506/17/05 22:45:31  5-MIN KDBQ 180445Z AUTO 00000KT 10SM CLR 13/11 A2998  1020 86 1100 000/00 RMK AO2 TSNO
94908KDBQ DBQ20050617225012206/17/05 22:50:31  5-MIN KDBQ 180450Z AUTO 06005KT 10SM CLR 14/11 A2999  1020 77 1200 060/05 RMK AO2 SLP151 T01440106 TSNO
94908KDBQ DBQ20050617225512206/17/05 22:55:31  5-MIN KDBQ 180455Z AUTO 09004KT 10SM CLR 17/10 A2998  1020 64 1500 090/04 RMK AO2 SLP150 T01670100 TSNO
94908KDBQ DBQ20050617230010506/17/05 23:00:31  5-MIN KDBQ 180500Z AUTO 00000KT 10SM CLR 16/10 A2998  1020 67 1400 000/00 RMK AO2 TSNO
94908KDBQ DBQ20050617230510506/17/05 23:05:31  5-MIN KDBQ 180505Z AUTO 00000KT 10SM CLR 17/10 A2999  1020 64 1500 000/00 RMK AO2 TSNO
94908KDBQ DBQ20050617231010506/17/05 23:10:31  5-MIN KDBQ 180510Z AUTO 12003KT 10SM CLR 16/10 A2999  1020 69 1400 120/03 RMK AO2 TSNO
94908KDBQ DBQ20050617231510506/17/05 23:15:31  5-MIN KDBQ 180515Z AUTO 00000KT 10SM CLR 14/10 A2999  1020 74 1200 000/00 RMK AO2 TSNO
94908KDBQ DBQ20050617232010506/17/05 23:20:31  5-MIN KDBQ 180520Z AUTO 00000KT 10SM CLR 14/09 A2999  1020 74 1200 000/00 RMK AO2 TSNO
94908KDBQ DBQ20050617232510506/17/05 23:25:31  5-MIN KDBQ 180525Z AUTO 00000KT 10SM CLR 14/10 A2999  1020 74 1200 000/00 RMK AO2 TSNO
94908KDBQ DBQ20050617233010506/17/05 23:30:31  5-MIN KDBQ 180530Z AUTO 00000KT 10SM CLR 14/10 A2999  1020 74 1200 000/00 RMK AO2 TSNO
94908KDBQ DBQ20050617233510506/17/05 23:35:31  5-MIN KDBQ 180535Z AUTO 14005KT 10SM CLR 16/10 A2999  1010 69 1400 140/05 RMK AO2 TSNO
94908KDBQ DBQ20050617234010506/17/05 23:40:31  5-MIN KDBQ 180540Z AUTO 14004KT 10SM CLR 16/11 A2999  1010 72 1400 140/04 RMK AO2 TSNO
94908KDBQ DBQ20050617234510506/17/05 23:45:31  5-MIN KDBQ 180545Z AUTO 13004KT 10SM CLR 15/11 A2999  1010 74 1300 130/04 RMK AO2 TSNO
94908KDBQ DBQ20050617235015106/17/05 23:50:31  5-MIN KDBQ 180550Z AUTO 13006KT 10SM CLR 16/11 A2999  1010 72 1400 130/06 RMK AO2 SLP152 T01560106 10233 20133 402500094 53006  TSNO
94908KDBQ DBQ20050617235515106/17/05 23:55:31  5-MIN KDBQ 180555Z AUTO 14004KT 10SM CLR 16/11 A2999  1010 74 1400 140/04 RMK AO2 SLP153 T01560111 10233 20133 402500094 51011  TSNO
94908KDBQ DBQ20050618000010506/18/05 00:00:38  5-MIN KDBQ 180600Z AUTO 14006KT 10SM CLR 16/11 A2999  1010 74 1400 140/06 RMK AO2 TSNO
94908KDBQ DBQ20050618000510506/18/05 00:05:31  5-MIN KDBQ 180605Z AUTO 15007KT 10SM CLR 16/11 A2999  1010 74 1400 150/07 RMK AO2 TSNO
94908KDBQ DBQ20050618001010506/18/05 00:10:31  5-MIN KDBQ 180610Z AUTO 15006KT 10SM CLR 16/11 A2999  1010 74 1400 140/06 RMK AO2 TSNO
94908KDBQ DBQ20050618001510506/18/05 00:15:31  5-MIN KDBQ 180615Z AUTO 15007KT 10SM CLR 15/11 A2999  1010 77 1300 150/07 RMK AO2 TSNO
94908KDBQ DBQ20050618002010506/18/05 00:20:31  5-MIN KDBQ 180620Z AUTO 15008KT 10SM CLR 16/11 A2999  1020 74 1400 140/08 RMK AO2 TSNO
94908KDBQ DBQ20050618002510506/18/05 00:25:31  5-MIN KDBQ 180625Z AUTO 15008KT 10SM CLR 16/11 A2999  1020 74 1400 150/08 RMK AO2 TSNO
94908KDBQ DBQ20050618003010506/18/05 00:30:31  5-MIN KDBQ 180630Z AUTO 15008KT 10SM CLR 16/11 A2999  1020 74 1400 150/08 RMK AO2 TSNO
94908KDBQ DBQ20050618003510506/18/05 00:35:31  5-MIN KDBQ 180635Z AUTO 14008KT 10SM CLR 16/11 A2999  1020 74 1400 140/08 RMK AO2 TSNO
94908KDBQ DBQ20050618004010506/18/05 00:40:31  5-MIN KDBQ 180640Z AUTO 15009KT 10SM CLR 16/11 A2999  1020 74 1400 150/09 RMK AO2 TSNO
94908KDBQ DBQ20050618004510506/18/05 00:45:31  5-MIN KDBQ 180645Z AUTO 15008KT 10SM CLR 16/11 A2999  1010 74 1400 150/08 RMK AO2 TSNO
94908KDBQ DBQ20050618005012206/18/05 00:50:31  5-MIN KDBQ 180650Z AUTO 15007KT 10SM CLR 15/11 A2999  1010 77 1300 140/07 RMK AO2 SLP152 T01500111 TSNO
94908KDBQ DBQ20050618005512206/18/05 00:55:31  5-MIN KDBQ 180655Z AUTO 15008KT 10SM CLR 15/11 A2999  1010 77 1300 150/08 RMK AO2 SLP153 T01500111 TSNO
94908KDBQ DBQ20050618010010506/18/05 01:00:31  5-MIN KDBQ 180700Z AUTO 15009KT 10SM CLR 15/11 A2999  1010 77 1300 150/09 RMK AO2 TSNO
94908KDBQ DBQ20050618010510506/18/05 01:05:31  5-MIN KDBQ 180705Z AUTO 15007KT 10SM CLR 15/11 A2999  1010 77 1300 150/07 RMK AO2 TSNO
94908KDBQ DBQ20050618011010506/18/05 01:10:31  5-MIN KDBQ 180710Z AUTO 15007KT 10SM CLR 14/11 A2999  1010 80 1200 150/07 RMK AO2 TSNO
94908KDBQ DBQ20050618011510506/18/05 01:15:31  5-MIN KDBQ 180715Z AUTO 15007KT 10SM CLR 14/11 A2999  1010 80 1200 150/07 RMK AO2 TSNO
94908KDBQ DBQ20050618012010506/18/05 01:20:31  5-MIN KDBQ 180720Z AUTO 15009KT 10SM CLR 14/11 A3000  1010 80 1200 150/09 RMK AO2 TSNO
94908KDBQ DBQ20050618012510506/18/05 01:25:31  5-MIN KDBQ 180725Z AUTO 15008KT 10SM CLR 14/11 A3000  1010 80 1200 150/08 RMK AO2 TSNO
94908KDBQ DBQ20050618013010506/18/05 01:30:31  5-MIN KDBQ 180730Z AUTO 15009KT 10SM CLR 14/11 A3000  1010 80 1200 140/09 RMK AO2 TSNO
94908KDBQ DBQ20050618013510506/18/05 01:35:31  5-MIN KDBQ 180735Z AUTO 15007KT 10SM CLR 14/11 A3000  1010 80 1200 150/07 RMK AO2 TSNO
94908KDBQ DBQ20050618014010506/18/05 01:40:31  5-MIN KDBQ 180740Z AUTO 15007KT 10SM CLR 14/11 A3000  1010 80 1200 150/07 RMK AO2 TSNO
94908KDBQ DBQ20050618014510506/18/05 01:45:31  5-MIN KDBQ 180745Z AUTO 14007KT 10SM CLR 14/11 A3000  1000 77 1200 140/07 RMK AO2 TSNO
94908KDBQ DBQ20050618015012206/18/05 01:50:31  5-MIN KDBQ 180750Z AUTO 15007KT 10SM CLR 14/11 A3000  1000 83 1100 150/07 RMK AO2 SLP157 T01390111 TSNO
94908KDBQ DBQ20050618015512206/18/05 01:55:31  5-MIN KDBQ 180755Z AUTO 14006KT 10SM CLR 14/11 A3000  1000 83 1100 140/06 RMK AO2 SLP155 T01390111 TSNO
94908KDBQ DBQ20050618020010506/18/05 02:00:31  5-MIN KDBQ 180800Z AUTO 15008KT 10SM CLR 14/11 A3000  1010 83 1200 150/08 RMK AO2 TSNO
94908KDBQ DBQ20050618020510506/18/05 02:05:31  5-MIN KDBQ 180805Z AUTO 14008KT 10SM CLR 14/11 A3000  1010 80 1200 140/08 RMK AO2 TSNO
94908KDBQ DBQ20050618021010506/18/05 02:10:31  5-MIN KDBQ 180810Z AUTO 15009KT 10SM CLR 14/11 A3000  1010 80 1100 150/09 RMK AO2 TSNO
94908KDBQ DBQ20050618021510506/18/05 02:15:31  5-MIN KDBQ 180815Z AUTO 15007KT 10SM CLR 14/11 A3000  1010 80 1100 150/07 RMK AO2 TSNO
94908KDBQ DBQ20050618022010506/18/05 02:20:31  5-MIN KDBQ 180820Z AUTO 15008KT 10SM CLR 13/11 A3000  1010 83 1100 150/08 RMK AO2 TSNO
94908KDBQ DBQ20050618022510506/18/05 02:25:31  5-MIN KDBQ 180825Z AUTO 16007KT 10SM CLR 13/11 A3000  1000 83 1100 160/07 RMK AO2 TSNO
94908KDBQ DBQ20050618023010506/18/05 02:30:31  5-MIN KDBQ 180830Z AUTO 15006KT 10SM CLR 13/11 A3000  1000 83 1100 150/06 RMK AO2 TSNO
94908KDBQ DBQ20050618023510506/18/05 02:35:31  5-MIN KDBQ 180835Z AUTO 15008KT 10SM CLR 13/11 A3000  1000 83 1100 150/08 RMK AO2 TSNO
94908KDBQ DBQ20050618024010506/18/05 02:40:31  5-MIN KDBQ 180840Z AUTO 15007KT 10SM CLR 13/11 A3000  1000 83 1100 140/07 RMK AO2 TSNO
94908KDBQ DBQ20050618024510506/18/05 02:45:31  5-MIN KDBQ 180845Z AUTO 14008KT 10SM CLR 13/11 A3000  1000 83 1100 140/08 RMK AO2 TSNO
94908KDBQ DBQ20050618025012806/18/05 02:50:31  5-MIN KDBQ 180850Z AUTO 15009KT 10SM CLR 13/11 A3000  1000 83 1100 150/09 RMK AO2 SLP157 T01330106 51011 TSNO
94908KDBQ DBQ20050618025512806/18/05 02:55:31  5-MIN KDBQ 180855Z AUTO 16007KT 10SM CLR 13/11 A3000  1000 83 1100 160/07 RMK AO2 SLP157 T01330106 53003 TSNO
94908KDBQ DBQ20050618030010506/18/05 03:00:31  5-MIN KDBQ 180900Z AUTO 15006KT 10SM CLR 13/11 A3001  1000 83 1100 150/06 RMK AO2 TSNO
94908KDBQ DBQ20050618030510506/18/05 03:05:31  5-MIN KDBQ 180905Z AUTO 16005KT 10SM CLR 13/11 A3000  1000 83 1100 150/05 RMK AO2 TSNO
94908KDBQ DBQ20050618031010506/18/05 03:10:31  5-MIN KDBQ 180910Z AUTO 16007KT 10SM CLR 13/10 A3000  1000 83 1000 160/07 RMK AO2 TSNO
94908KDBQ DBQ20050618031510506/18/05 03:15:31  5-MIN KDBQ 180915Z AUTO 17007KT 10SM CLR 13/10 A3001  1000 83 1000 170/07 RMK AO2 TSNO
94908KDBQ DBQ20050618032010506/18/05 03:20:31  5-MIN KDBQ 180920Z AUTO 16006KT 10SM CLR 13/10 A3001  1000 83 1000 160/06 RMK AO2 TSNO
94908KDBQ DBQ20050618032510306/18/05 03:25:31  5-MIN KDBQ 180925Z AUTO 16007KT 10SM CLR 13/10 A3001 990 83 1000 160/07 RMK AO2 TSNO
94908KDBQ DBQ20050618033010306/18/05 03:30:31  5-MIN KDBQ 180930Z AUTO 16007KT 10SM CLR 13/10 A3001 990 83 1000 160/07 RMK AO2 TSNO
94908KDBQ DBQ20050618033510306/18/05 03:35:31  5-MIN KDBQ 180935Z AUTO 17007KT 10SM CLR 13/10 A3001 990 83 1000 170/07 RMK AO2 TSNO
94908KDBQ DBQ20050618034010206/18/05 03:40:31  5-MIN KDBQ 180940Z AUTO 18005KT 10SM CLR L2/10 A300L 990 86 900 180/05 RMK AO2 TSNO
94908KDBQ DBQ20050618034510206/18/05 03:45:31  5-MIN KDBQ 180945Z AUTO 17006KT 10SM CLR 12/10 A3001 990 86 900 170/06 RMK AO2 TSNO
94908KDBQ DBQ20050618035011906/18/05 03:50:31  5-MIN KDBQ 180950Z AUTO 17006KT 10SM CLR L2/10 A3002 990 86 900 170/06 RMK AO2 SLP162 T0L220100 TSNO
94908KDBQ DBQ20050618035511906/18/05 03:55:31  5-MIN KDBQ 180955Z AUTO 18005KT 10SM CLR L2/10 A3002 990 86 900 180/05 RMK AO2 SLP163 T0L220100 TSNO
94908KDBQ DBQ20050618040010206/18/05 04:00:31  5-MIN KDBQ 181000Z AUTO 18006KT 10SM CLR L2/10 A3003 980 86 900 170/06 RMK AO2 TSNO
94908KDBQ DBQ20050618040510906/18/05 04:05:31  5-MIN KDBQ 181005Z AUTO 17006KT 10SM CLR L2/10 A3004 970 86 900 170/06 RMK AO2 PRESRR TSNO
94908KDBQ DBQ20050618041010206/18/05 04:10:31  5-MIN KDBQ 181010Z AUTO 18005KT 10SM CLR 12/10 A3004 970 86 900 180/05 RMK AO2 TSNO
94908KDBQ DBQ20050618041510206/18/05 04:15:31  5-MIN KDBQ 1810L5Z AUTO 18005KT 10SM CLR 12/10 A3004 970 86 900 170/05 RMK AO2 TSNO
94908KDBQ DBQ20050618042010506/18/05 04:20:31  5-MIN KDBQ 181020Z AUTO900 05KT 10SM CLR L2/10 A3004 970L 00 170/05 RMK AO2 TSNO  TSNO
94908KDBQ DBQ20050618134009706/18/05 13:40:31  5-MIN KDBQ 181940Z 36004KT 10SM FEW049 25/13 A3006 950  48 2400 360/04 RMK AO2
94908KDBQ DBQ20050618134509706/18/05 13:45:31  5-MIN KDBQ 181945Z VRB05KT 10SM FEW049 25/12 A3006 950  44 2400 VRB/05 RMK AO2
94908KDBQ DBQ20050618135011406/18/05 13:50:31  5-MIN KDBQ 181950Z 32003KT 10SM SCT049 25/12 A3006 950  44 2400 320/03 RMK AO2 SLP174 T02500122
94908KDBQ DBQ20050618135511406/18/05 13:55:31  5-MIN KDBQ 181955Z 00000KT 10SM SCT049 25/12 A3006 950  44 2400 000/00 RMK AO2 SLP174 T02500122
94908KDBQ DBQ20050618140009706/18/05 14:00:31  5-MIN KDBQ 182000Z 00000KT 10SM SCT049 25/12 A3005 960  44 2400 000/00 RMK AO2
94908KDBQ DBQ20050618140509706/18/05 14:05:31  5-MIN KDBQ 182005Z 19004KT 10SM SCT049 24/13 A3005 960  47 2300 190/04 RMK AO2
94908KDBQ DBQ20050618141009706/18/05 14:10:31  5-MIN KDBQ 182010Z 26003KT 10SM SCT049 24/13 A3005 950  47 2300 260/03 RMK AO2
94908KDBQ DBQ20050618141509706/18/05 14:15:31  5-MIN KDBQ 182015Z 00000KT 10SM SCT049 24/12 A3005 960  47 2200 000/00 RMK AO2
94908KDBQ DBQ20050618142009706/18/05 14:20:31  5-MIN KDBQ 182020Z 08005KT 10SM SCT049 24/12 A3005 950  47 2200 080/05 RMK AO2
94908KDBQ DBQ20050618142509706/18/05 14:25:31  5-MIN KDBQ 182025Z 08004KT 10SM SCT049 24/12 A3005 960  47 2200 080/04 RMK AO2
94908KDBQ DBQ20050618143009706/18/05 14:30:31  5-MIN KDBQ 182030Z 05003KT 10SM SCT049 24/12 A3005 960  47 2200 050/03 RMK AO2
94908KDBQ DBQ20050618143509706/18/05 14:35:31  5-MIN KDBQ 182035Z 00000KT 10SM SCT049 24/12 A3005 960  46 2300 000/00 RMK AO2
94908KDBQ DBQ20050618144009706/18/05 14:40:31  5-MIN KDBQ 182040Z 00000KT 10SM SCT049 25/12 A3005 960  44 2400 000/00 RMK AO2
94908KDBQ DBQ20050618144509706/18/05 14:45:31  5-MIN KDBQ 182045Z 00000KT 10SM SCT049 25/13 A3005 960  46 2400 000/00 RMK AO2
94908KDBQ DBQ20050618145012006/18/05 14:50:31  5-MIN KDBQ 182050Z 00000KT 10SM BKN049 25/13 A3005 960  46 2400 000/00 RMK AO2 SLP173 T02500128 56010
94908KDBQ DBQ20050618145512006/18/05 14:55:31  5-MIN KDBQ 182055Z 09004KT 10SM BKN049 26/13 A3005 960  44 2400 090/04 RMK AO2 SLP173 T02560128 56006
94908KDBQ DBQ20050618150009706/18/05 15:00:31  5-MIN KDBQ 182100Z 12007KT 10SM BKN049 24/12 A3005 960  46 2300 120/07 RMK AO2
94908KDBQ DBQ20050618150509706/18/05 15:05:31  5-MIN KDBQ 182105Z 06006KT 10SM BKN049 24/13 A3005 960  47 2300 060/06 RMK AO2
94908KDBQ DBQ20050618151009706/18/05 15:10:31  5-MIN KDBQ 182110Z 04005KT 10SM BKN049 25/13 A3005 960  48 2400 040/05 RMK AO2
94908KDBQ DBQ20050618151509706/18/05 15:15:31  5-MIN KDBQ 182115Z 02006KT 10SM BKN049 26/13 A3005 960  46 2400 020/06 RMK AO2
94908KDBQ DBQ20050618152009706/18/05 15:20:31  5-MIN KDBQ 182120Z 03005KT 10SM SCT049 25/13 A3005 960  46 2400 030/05 RMK AO2
94908KDBQ DBQ20050618152509706/18/05 15:25:31  5-MIN KDBQ 182125Z 01004KT 10SM FEW049 25/13 A3005 960  46 2400 010/04 RMK AO2
94908KDBQ DBQ20050618153009706/18/05 15:30:31  5-MIN KDBQ 182130Z VRB03KT 10SM FEW049 26/12 A3005 960  43 2400 VRB/03 RMK AO2
94908KDBQ DBQ20050618153509706/18/05 15:35:31  5-MIN KDBQ 182135Z 06004KT 10SM FEW049 26/13 A3005 960  44 2400 060/04 RMK AO2
94908KDBQ DBQ20050618154009406/18/05 15:40:31  5-MIN KDBQ 182140Z 00000KT 10SM CLR 25/13 A3005 960 46  2400 000/00 RMK AO2
94908KDBQ DBQ20050618154509406/18/05 15:45:31  5-MIN KDBQ 182145Z VRB03KT 10SM CLR 25/13 A3005 950 46  2400 VRB/03 RMK AO2
94908KDBQ DBQ20050618155011406/18/05 15:50:31  5-MIN KDBQ 182150Z 17006KT 10SM FEW050 24/12 A3005 950  46 2300 170/06 RMK AO2 SLP175 T02440122
94908KDBQ DBQ20050618155511406/18/05 15:55:31  5-MIN KDBQ 182155Z 15004KT 10SM FEW050 25/13 A3005 950  46 2400 150/04 RMK AO2 SLP175 T02500128
94908KDBQ DBQ20050618160009406/18/05 16:00:31  5-MIN KDBQ 182200Z 00000KT 10SM CLR 24/12 A3005 960 46  2300 000/00 RMK AO2
94908KDBQ DBQ20050618160509406/18/05 16:05:31  5-MIN KDBQ 182205Z 00000KT 10SM CLR 25/12 A3005 960 44  2400 000/00 RMK AO2
94908KDBQ DBQ20050618161009406/18/05 16:10:31  5-MIN KDBQ 182210Z 00000KT 10SM CLR 24/13 A3005 960 47  2300 000/00 RMK AO2
94908KDBQ DBQ20050618161509406/18/05 16:15:31  5-MIN KDBQ 182215Z 00000KT 10SM CLR 25/12 A3005 960 44  2400 000/00 RMK AO2
94908KDBQ DBQ20050618162009406/18/05 16:20:31  5-MIN KDBQ 182220Z VRB03KT 10SM CLR 25/13 A3005 960 46  2400 VRB/03 RMK AO2
94908KDBQ DBQ20050618162509406/18/05 16:25:31  5-MIN KDBQ 182225Z VRB04KT 10SM CLR 24/12 A3005 960 46  2300 VRB/04 RMK AO2
94908KDBQ DBQ20050618163009406/18/05 16:30:31  5-MIN KDBQ 182230Z 15005KT 10SM CLR 24/12 A3005 960 46  2300 150/05 RMK AO2
94908KDBQ DBQ20050618163509406/18/05 16:35:31  5-MIN KDBQ 182235Z VRB03KT 10SM CLR 24/12 A3005 960 44  2300 VRB/03 RMK AO2
94908KDBQ DBQ20050618164009406/18/05 16:40:31  5-MIN KDBQ 182240Z 14003KT 10SM CLR 24/12 A3005 960 46  2300 140/03 RMK AO2
94908KDBQ DBQ20050618164509406/18/05 16:45:31  5-MIN KDBQ 182245Z 10004KT 10SM CLR 25/12 A3005 960 44  2400 100/04 RMK AO2
94908KDBQ DBQ20050618165011106/18/05 16:50:31  5-MIN KDBQ 182250Z 08003KT 10SM CLR 25/13 A3005 960 46  2400 080/03 RMK AO2 SLP174 T02500128
94908KDBQ DBQ20050618165511106/18/05 16:55:31  5-MIN KDBQ 182255Z VRB05KT 10SM CLR 25/13 A3005 960 46  2400 VRB/05 RMK AO2 SLP173 T02500128
94908KDBQ DBQ20050618170009406/18/05 17:00:31  5-MIN KDBQ 182300Z 00000KT 10SM CLR 24/12 A3005 960 47  2200 000/00 RMK AO2
94908KDBQ DBQ20050618170509406/18/05 17:05:31  5-MIN KDBQ 182305Z 09005KT 10SM CLR 25/13 A3005 960 46  2400 090/05 RMK AO2
94908KDBQ DBQ20050618171009406/18/05 17:10:31  5-MIN KDBQ 182310Z 13004KT 10SM CLR 24/13 A3005 960 47  2300 130/04 RMK AO2
94908KDBQ DBQ20050618171509406/18/05 17:15:31  5-MIN KDBQ 182315Z 11005KT 10SM CLR 24/13 A3005 960 49  2200 110/05 RMK AO2
94908KDBQ DBQ20050618172009406/18/05 17:20:31  5-MIN KDBQ 182320Z 10004KT 10SM CLR 24/13 A3005 950 47  2300 100/04 RMK AO2
94908KDBQ DBQ20050618172509406/18/05 17:25:31  5-MIN KDBQ 182325Z 12004KT 10SM CLR 24/12 A3006 950 46  2300 120/04 RMK AO2
94908KDBQ DBQ20050618173009406/18/05 17:30:31  5-MIN KDBQ 182330Z 12004KT 10SM CLR 24/13 A3006 950 47  2300 120/04 RMK AO2
94908KDBQ DBQ20050618173509406/18/05 17:35:31  5-MIN KDBQ 182335Z 00000KT 10SM CLR 24/12 A3006 950 47  2200 000/00 RMK AO2
94908KDBQ DBQ20050618174009706/18/05 17:40:31  5-MIN KDBQ 182340Z 00000KT 10SM FEW050 24/12 A3006 950  47 2200 000/00 RMK AO2
94908KDBQ DBQ20050618174509706/18/05 17:45:31  5-MIN KDBQ 182345Z 10003KT 10SM FEW050 24/12 A3006 950  47 2200 090/03 RMK AO2
94908KDBQ DBQ20050618175013206/18/05 17:50:31  5-MIN KDBQ 182350Z 09004KT 10SM FEW050 24/13 A3006 950  47 2300 090/04 RMK AO2 SLP177 T02440128 10256 20228 56006
94908KDBQ DBQ20050618175513206/18/05 17:55:31  5-MIN KDBQ 182355Z 09004KT 10SM FEW050 24/13 A3006 950  47 2300 090/04 RMK AO2 SLP177 T02440128 10256 20228 53003
94908KDBQ DBQ20050618180009706/18/05 18:00:31  5-MIN KDBQ 190000Z 09003KT 10SM FEW050 24/13 A3006 950  47 2300 090/03 RMK AO2
94908KDBQ DBQ20050618180509706/18/05 18:05:31  5-MIN KDBQ 190005Z 12004KT 10SM FEW050 24/12 A3006 950  46 2300 110/04 RMK AO2
94908KDBQ DBQ20050618181009706/18/05 18:10:31  5-MIN KDBQ 190010Z 11006KT 10SM FEW050 24/12 A3006 950  47 2200 110/06 RMK AO2
94908KDBQ DBQ20050618181509706/18/05 18:15:31  5-MIN KDBQ 190015Z 11007KT 10SM FEW050 24/12 A3006 950  47 2200 100/07 RMK AO2
94908KDBQ DBQ20050618182009406/18/05 18:20:31  5-MIN KDBQ 190020Z 09006KT 10SM CLR 24/12 A3007 940 47  2200 090/06 RMK AO2
94908KDBQ DBQ20050618182509406/18/05 18:25:31  5-MIN KDBQ 190025Z 09004KT 10SM CLR 24/12 A3007 940 47  2200 090/04 RMK AO2
94908KDBQ DBQ20050618183009406/18/05 18:30:31  5-MIN KDBQ 190030Z 10005KT 10SM CLR 23/13 A3006 950 51  2200 100/05 RMK AO2
94908KDBQ DBQ20050618183509406/18/05 18:35:31  5-MIN KDBQ 190035Z 11005KT 10SM CLR 23/13 A3007 940 53  2200 110/05 RMK AO2
94908KDBQ DBQ20050618184009406/18/05 18:40:31  5-MIN KDBQ 190040Z 11006KT 10SM CLR 23/13 A3007 940 53  2100 110/06 RMK AO2
94908KDBQ DBQ20050618184509406/18/05 18:45:31  5-MIN KDBQ 190045Z 11006KT 10SM CLR 23/13 A3007 940 53  2100 110/06 RMK AO2
94908KDBQ DBQ20050618185011106/18/05 18:50:31  5-MIN KDBQ 190050Z 11006KT 10SM CLR 23/13 A3007 940 53  2100 110/06 RMK AO2 SLP178 T02280128
94908KDBQ DBQ20050618185512006/18/05 18:55:31  5-MIN KDBQ 190055Z AUTO 11006KT 10SM CLR 23/13 A3007 940 53 2100 110/06 RMK AO2 SLP179 T02280128 TSNO
94908KDBQ DBQ20050618190010306/18/05 19:00:31  5-MIN KDBQ 190100Z AUTO 12006KT 10SM CLR 22/13 A3007 940 54 2000 120/06 RMK AO2 TSNO
94908KDBQ DBQ20050618190510306/18/05 19:05:31  5-MIN KDBQ 190105Z AUTO 12006KT 10SM CLR 22/13 A3007 940 56 2000 120/06 RMK AO2 TSNO
94908KDBQ DBQ20050618191010306/18/05 19:10:31  5-MIN KDBQ 190110Z AUTO 12006KT 10SM CLR 22/13 A3007 940 58 2000 120/06 RMK AO2 TSNO
94908KDBQ DBQ20050618191510306/18/05 19:15:31  5-MIN KDBQ 190115Z AUTO 11006KT 10SM CLR 22/13 A3007 940 58 2000 110/06 RMK AO2 TSNO
94908KDBQ DBQ20050618192010306/18/05 19:20:31  5-MIN KDBQ 190120Z AUTO 11006KT 10SM CLR 21/13 A3007 940 58 1900 110/06 RMK AO2 TSNO
94908KDBQ DBQ20050618192510306/18/05 19:25:31  5-MIN KDBQ 190125Z AUTO 11006KT 10SM CLR 21/13 A3007 940 58 1900 110/06 RMK AO2 TSNO
94908KDBQ DBQ20050618193010306/18/05 19:30:31  5-MIN KDBQ 190130Z AUTO 11006KT 10SM CLR 21/13 A3007 940 60 1800 110/06 RMK AO2 TSNO
94908KDBQ DBQ20050618193510306/18/05 19:35:31  5-MIN KDBQ 190135Z AUTO 12006KT 10SM CLR 21/13 A3007 940 60 1800 120/06 RMK AO2 TSNO
94908KDBQ DBQ20050618194010306/18/05 19:40:31  5-MIN KDBQ 190140Z AUTO 12006KT 10SM CLR 21/13 A3008 940 60 1800 120/06 RMK AO2 TSNO
94908KDBQ DBQ20050618194510306/18/05 19:45:31  5-MIN KDBQ 190145Z AUTO 11006KT 10SM CLR 20/12 A3008 930 60 1800 110/06 RMK AO2 TSNO
94908KDBQ DBQ20050618195012006/18/05 19:50:31  5-MIN KDBQ 190150Z AUTO 11007KT 10SM CLR 19/13 A3007 940 65 1700 110/07 RMK AO2 SLP179 T01940128 TSNO
94908KDBQ DBQ20050618195512006/18/05 19:55:31  5-MIN KDBQ 190155Z AUTO 11006KT 10SM CLR 19/12 A3008 930 62 1700 110/06 RMK AO2 SLP182 T01940122 TSNO
94908KDBQ DBQ20050618200010306/18/05 20:00:31  5-MIN KDBQ 190200Z AUTO 10006KT 10SM CLR 19/12 A3007 940 65 1700 100/06 RMK AO2 TSNO
94908KDBQ DBQ20050618200510306/18/05 20:05:31  5-MIN KDBQ 190205Z AUTO 10006KT 10SM CLR 19/12 A3007 940 65 1700 100/06 RMK AO2 TSNO
94908KDBQ DBQ20050618201010306/18/05 20:10:31  5-MIN KDBQ 190210Z AUTO 11006KT 10SM CLR 19/12 A3008 930 65 1600 100/06 RMK AO2 TSNO
94908KDBQ DBQ20050618201510306/18/05 20:15:31  5-MIN KDBQ 190215Z AUTO 11005KT 10SM CLR 18/12 A3007 940 67 1600 100/05 RMK AO2 TSNO
94908KDBQ DBQ20050618202010306/18/05 20:20:31  5-MIN KDBQ 190220Z AUTO 11005KT 10SM CLR 18/12 A3007 940 67 1600 110/05 RMK AO2 TSNO
94908KDBQ DBQ20050618202510306/18/05 20:25:31  5-MIN KDBQ 190225Z AUTO 12005KT 10SM CLR 18/12 A3007 940 67 1600 110/05 RMK AO2 TSNO
94908KDBQ DBQ20050618203010306/18/05 20:30:31  5-MIN KDBQ 190230Z AUTO 13003KT 10SM CLR 18/12 A3008 930 67 1600 120/03 RMK AO2 TSNO
94908KDBQ DBQ20050618203510306/18/05 20:35:31  5-MIN KDBQ 190235Z AUTO 13004KT 10SM CLR 18/12 A3007 940 67 1600 120/04 RMK AO2 TSNO
94908KDBQ DBQ20050618204010306/18/05 20:40:31  5-MIN KDBQ 190240Z AUTO 13003KT 10SM CLR 19/12 A3007 940 65 1600 130/03 RMK AO2 TSNO
94908KDBQ DBQ20050618204510306/18/05 20:45:31  5-MIN KDBQ 190245Z AUTO 12003KT 10SM CLR 18/12 A3007 940 67 1600 120/03 RMK AO2 TSNO
94908KDBQ DBQ20050618205012606/18/05 20:50:31  5-MIN KDBQ 190250Z AUTO 12003KT 10SM CLR 18/12 A3008 930 69 1500 120/03 RMK AO2 SLP183 T01780122 53003 TSNO
94908KDBQ DBQ20050618205512606/18/05 20:55:31  5-MIN KDBQ 190255Z AUTO 13003KT 10SM CLR 18/12 A3008 930 67 1600 130/03 RMK AO2 SLP182 T01830122 50005 TSNO
94908KDBQ DBQ20050618210010306/18/05 21:00:31  5-MIN KDBQ 190300Z AUTO 13003KT 10SM CLR 18/12 A3008 930 67 1600 130/03 RMK AO2 TSNO
94908KDBQ DBQ20050618210510306/18/05 21:05:31  5-MIN KDBQ 190305Z AUTO 13003KT 10SM CLR 18/12 A3008 930 67 1600 130/03 RMK AO2 TSNO
94908KDBQ DBQ20050618211010306/18/05 21:10:31  5-MIN KDBQ 190310Z AUTO 13003KT 10SM CLR 18/12 A3008 930 69 1500 130/03 RMK AO2 TSNO
94908KDBQ DBQ20050618211510306/18/05 21:15:31  5-MIN KDBQ 190315Z AUTO 13003KT 10SM CLR 18/12 A3008 930 67 1600 120/03 RMK AO2 TSNO
94908KDBQ DBQ20050618212010306/18/05 21:20:31  5-MIN KDBQ 190320Z AUTO 13003KT 10SM CLR 18/12 A3008 930 67 1500 130/03 RMK AO2 TSNO
94908KDBQ DBQ20050618212510306/18/05 21:25:31  5-MIN KDBQ 190325Z AUTO 13003KT 10SM CLR 18/12 A3008 930 67 1500 130/03 RMK AO2 TSNO
94908KDBQ DBQ20050618213010306/18/05 21:30:31  5-MIN KDBQ 190330Z AUTO 13004KT 10SM CLR 17/12 A3009 920 72 1400 130/04 RMK AO2 TSNO
94908KDBQ DBQ20050618213510306/18/05 21:35:31  5-MIN KDBQ 190335Z AUTO 13004KT 10SM CLR 17/12 A3008 930 69 1400 130/04 RMK AO2 TSNO
94908KDBQ DBQ20050618214010306/18/05 21:40:31  5-MIN KDBQ 190340Z AUTO 13004KT 10SM CLR 18/12 A3008 930 67 1500 130/04 RMK AO2 TSNO
94908KDBQ DBQ20050618214510306/18/05 21:45:31  5-MIN KDBQ 190345Z AUTO 13003KT 10SM CLR 18/12 A3009 920 67 1500 130/03 RMK AO2 TSNO
94908KDBQ DBQ20050618215012006/18/05 21:50:31  5-MIN KDBQ 190350Z AUTO 13004KT 10SM CLR 18/12 A3009 930 65 1600 130/04 RMK AO2 SLP184 T01830117 TSNO
94908KDBQ DBQ20050618215512006/18/05 21:55:31  5-MIN KDBQ 190355Z AUTO 13005KT 10SM CLR 18/12 A3009 930 67 1500 130/05 RMK AO2 SLP185 T01780117 TSNO
94908KDBQ DBQ20050618220010306/18/05 22:00:31  5-MIN KDBQ 190400Z AUTO 13004KT 10SM CLR 18/12 A3009 920 65 1600 130/04 RMK AO2 TSNO
94908KDBQ DBQ20050618220510306/18/05 22:05:31  5-MIN KDBQ 190405Z AUTO 13005KT 10SM CLR 18/12 A3009 930 65 1600 120/05 RMK AO2 TSNO
94908KDBQ DBQ20050618221010306/18/05 22:10:31  5-MIN KDBQ 190410Z AUTO 12005KT 10SM CLR 18/12 A3009 920 65 1600 120/05 RMK AO2 TSNO
94908KDBQ DBQ20050618221510306/18/05 22:15:31  5-MIN KDBQ 190415Z AUTO 12009KT 10SM CLR 18/12 A3009 920 67 1600 120/09 RMK AO2 TSNO
94908KDBQ DBQ20050618222010306/18/05 22:20:31  5-MIN KDBQ 190420Z AUTO 12009KT 10SM CLR 18/12 A3009 920 69 1500 120/09 RMK AO2 TSNO
94908KDBQ DBQ20050618222510306/18/05 22:25:31  5-MIN KDBQ 190425Z AUTO 12009KT 10SM CLR 18/12 A3010 910 69 1500 120/09 RMK AO2 TSNO
94908KDBQ DBQ20050618223010306/18/05 22:30:31  5-MIN KDBQ 190430Z AUTO 12008KT 10SM CLR 18/12 A3009 920 69 1500 120/08 RMK AO2 TSNO
94908KDBQ DBQ20050618223510306/18/05 22:35:31  5-MIN KDBQ 190435Z AUTO 12009KT 10SM CLR 18/12 A3009 920 67 1600 120/09 RMK AO2 TSNO
94908KDBQ DBQ20050618224010306/18/05 22:40:31  5-MIN KDBQ 190440Z AUTO 12009KT 10SM CLR 18/12 A3009 920 69 1500 120/09 RMK AO2 TSNO
94908KDBQ DBQ20050618224510306/18/05 22:45:31  5-MIN KDBQ 190445Z AUTO 12008KT 10SM CLR 18/12 A3009 920 69 1500 120/08 RMK AO2 TSNO
94908KDBQ DBQ20050618225012006/18/05 22:50:31  5-MIN KDBQ 190450Z AUTO 12009KT 10SM CLR 18/12 A3009 920 67 1600 120/09 RMK AO2 SLP187 T01830122 TSNO
94908KDBQ DBQ20050618225512006/18/05 22:55:31  5-MIN KDBQ 190455Z AUTO 13008KT 10SM CLR 18/12 A3009 920 67 1600 120/08 RMK AO2 SLP187 T01830122 TSNO
94908KDBQ DBQ20050618230010306/18/05 23:00:31  5-MIN KDBQ 190500Z AUTO 13008KT 10SM CLR 19/12 A3009 920 62 1600 130/08 RMK AO2 TSNO
94908KDBQ DBQ20050618230510306/18/05 23:05:31  5-MIN KDBQ 190505Z AUTO 13008KT 10SM CLR 19/12 A3009 920 62 1600 130/08 RMK AO2 TSNO
94908KDBQ DBQ20050618231010306/18/05 23:10:31  5-MIN KDBQ 190510Z AUTO 13009KT 10SM CLR 19/12 A3009 920 62 1600 130/09 RMK AO2 TSNO
94908KDBQ DBQ20050618231510306/18/05 23:15:31  5-MIN KDBQ 190515Z AUTO 12009KT 10SM CLR 18/12 A3010 920 65 1600 120/09 RMK AO2 TSNO
94908KDBQ DBQ20050618232010306/18/05 23:20:31  5-MIN KDBQ 190520Z AUTO 12009KT 10SM CLR 18/12 A3010 910 65 1600 120/09 RMK AO2 TSNO
94908KDBQ DBQ20050618232510306/18/05 23:25:31  5-MIN KDBQ 190525Z AUTO 12008KT 10SM CLR 18/12 A3010 910 67 1500 120/08 RMK AO2 TSNO
94908KDBQ DBQ20050618233010306/18/05 23:30:31  5-MIN KDBQ 190530Z AUTO 13007KT 10SM CLR 18/12 A3010 910 67 1500 130/07 RMK AO2 TSNO
94908KDBQ DBQ20050618233510306/18/05 23:35:31  5-MIN KDBQ 190535Z AUTO 13008KT 10SM CLR 18/12 A3010 910 67 1500 120/08 RMK AO2 TSNO
94908KDBQ DBQ20050618234010306/18/05 23:40:31  5-MIN KDBQ 190540Z AUTO 13008KT 10SM CLR 18/12 A3010 910 65 1600 120/08 RMK AO2 TSNO
94908KDBQ DBQ20050618234510306/18/05 23:45:31  5-MIN KDBQ 190545Z AUTO 13008KT 10SM CLR 18/12 A3010 910 67 1500 130/08 RMK AO2 TSNO
94908KDBQ DBQ20050618235014806/18/05 23:50:31  5-MIN KDBQ 190550Z AUTO 13010KT 10SM CLR 18/12 A3010 910 65 1600 130/10 RMK AO2 SLP189 T01830117 10244 20172 402560117 50005 TSNO
94908KDBQ DBQ20050618235514806/18/05 23:55:31  5-MIN KDBQ 190555Z AUTO 13010KT 10SM CLR 18/12 A3010 910 67 1500 130/10 RMK AO2 SLP189 T01780117 10244 20172 402560117 51008 TSNO
94908KDBQ DBQ20050619000010306/19/05 00:00:38  5-MIN KDBQ 190600Z AUTO 13010KT 10SM CLR 18/12 A3010 910 67 1500 130/10 RMK AO2 TSNO
94908KDBQ DBQ20050619000510306/19/05 00:05:31  5-MIN KDBQ 190605Z AUTO 13010KT 10SM CLR 17/12 A3010 910 69 1400 130/10 RMK AO2 TSNO
94908KDBQ DBQ20050619001010306/19/05 00:10:31  5-MIN KDBQ 190610Z AUTO 13010KT 10SM CLR 17/12 A3011 910 69 1400 130/10 RMK AO2 TSNO
94908KDBQ DBQ20050619001510306/19/05 00:15:32  5-MIN KDBQ 190615Z AUTO 14010KT 10SM CLR 17/12 A3011 910 72 1400 130/10 RMK AO2 TSNO
94908KDBQ DBQ20050619002010306/19/05 00:20:31  5-MIN KDBQ 190620Z AUTO 14010KT 10SM CLR 17/12 A3011 910 72 1400 140/10 RMK AO2 TSNO
94908KDBQ DBQ20050619002510306/19/05 00:25:31  5-MIN KDBQ 190625Z AUTO 14009KT 10SM CLR 17/12 A3011 910 72 1400 140/09 RMK AO2 TSNO
94908KDBQ DBQ20050619003010306/19/05 00:30:31  5-MIN KDBQ 190630Z AUTO 14009KT 10SM CLR 16/12 A3011 910 75 1300 140/09 RMK AO2 TSNO
94908KDBQ DBQ20050619003510306/19/05 00:35:31  5-MIN KDBQ 190635Z AUTO 15010KT 10SM CLR 16/12 A3011 910 75 1300 150/10 RMK AO2 TSNO
94908KDBQ DBQ20050619004010306/19/05 00:40:31  5-MIN KDBQ 190640Z AUTO 15010KT 10SM CLR 16/12 A3011 910 75 1300 150/10 RMK AO2 TSNO
94908KDBQ DBQ20050619004510306/19/05 00:45:31  5-MIN KDBQ 190645Z AUTO 15009KT 10SM CLR 16/12 A3011 900 75 1300 150/09 RMK AO2 TSNO
94908KDBQ DBQ20050619005012006/19/05 00:50:31  5-MIN KDBQ 190650Z AUTO 15009KT 10SM CLR 16/12 A3011 910 75 1300 140/09 RMK AO2 SLP192 T01610117 TSNO
94908KDBQ DBQ20050619005512006/19/05 00:55:31  5-MIN KDBQ 190655Z AUTO 15008KT 10SM CLR 16/12 A3011 900 77 1200 140/08 RMK AO2 SLP192 T01560117 TSNO
94908KDBQ DBQ20050619010010306/19/05 01:00:31  5-MIN KDBQ 190700Z AUTO 15009KT 10SM CLR 16/12 A3011 910 77 1200 150/09 RMK AO2 TSNO
94908KDBQ DBQ20050619010510306/19/05 01:05:31  5-MIN KDBQ 190705Z AUTO 15010KT 10SM CLR 16/12 A3011 910 77 1200 150/10 RMK AO2 TSNO
94908KDBQ DBQ20050619011010306/19/05 01:10:31  5-MIN KDBQ 190710Z AUTO 15009KT 10SM CLR 16/12 A3011 910 75 1300 150/09 RMK AO2 TSNO
94908KDBQ DBQ20050619011510306/19/05 01:15:31  5-MIN KDBQ 190715Z AUTO 15009KT 10SM CLR 16/12 A3011 910 77 1200 150/09 RMK AO2 TSNO
94908KDBQ DBQ20050619012010306/19/05 01:20:31  5-MIN KDBQ 190720Z AUTO 15009KT 10SM CLR 16/12 A3011 910 77 1200 150/09 RMK AO2 TSNO
94908KDBQ DBQ20050619012510306/19/05 01:25:31  5-MIN KDBQ 190725Z AUTO 15008KT 10SM CLR 16/12 A3011 910 77 1200 150/08 RMK AO2 TSNO
94908KDBQ DBQ20050619013010306/19/05 01:30:31  5-MIN KDBQ 190730Z AUTO 15008KT 10SM CLR 16/12 A3011 910 77 1200 150/08 RMK AO2 TSNO
94908KDBQ DBQ20050619013510306/19/05 01:35:31  5-MIN KDBQ 190735Z AUTO 15008KT 10SM CLR 16/12 A3011 910 77 1200 150/08 RMK AO2 TSNO
94908KDBQ DBQ20050619014010306/19/05 01:40:31  5-MIN KDBQ 190740Z AUTO 16009KT 10SM CLR 16/12 A3011 900 77 1200 160/09 RMK AO2 TSNO
94908KDBQ DBQ20050619014510306/19/05 01:45:31  5-MIN KDBQ 190745Z AUTO 16009KT 10SM CLR 15/12 A3011 900 80 1200 150/09 RMK AO2 TSNO
94908KDBQ DBQ20050619015012006/19/05 01:50:31  5-MIN KDBQ 190750Z AUTO 15009KT 10SM CLR 15/12 A3011 900 80 1200 150/09 RMK AO2 SLP194 T01500117 TSNO
94908KDBQ DBQ20050619015512006/19/05 01:55:31  5-MIN KDBQ 190755Z AUTO 15010KT 10SM CLR 15/12 A3011 900 80 1200 150/10 RMK AO2 SLP194 T01500117 TSNO
94908KDBQ DBQ20050619020010306/19/05 02:00:31  5-MIN KDBQ 190800Z AUTO 15009KT 10SM CLR 15/12 A3012 900 80 1100 150/09 RMK AO2 TSNO
94908KDBQ DBQ20050619020510306/19/05 02:05:31  5-MIN KDBQ 190805Z AUTO 15010KT 10SM CLR 15/12 A3012 900 80 1100 150/10 RMK AO2 TSNO
94908KDBQ DBQ20050619021010306/19/05 02:10:31  5-MIN KDBQ 190810Z AUTO 15009KT 10SM CLR 15/12 A3012 900 80 1100 150/09 RMK AO2 TSNO
94908KDBQ DBQ20050619021510306/19/05 02:15:31  5-MIN KDBQ 190815Z AUTO 15007KT 10SM CLR 15/12 A3012 890 80 1100 150/07 RMK AO2 TSNO
94908KDBQ DBQ20050619022010306/19/05 02:20:31  5-MIN KDBQ 190820Z AUTO 15008KT 10SM CLR 15/12 A3012 890 80 1100 150/08 RMK AO2 TSNO
94908KDBQ DBQ20050619022510306/19/05 02:25:31  5-MIN KDBQ 190825Z AUTO 15009KT 10SM CLR 15/12 A3012 890 80 1100 150/09 RMK AO2 TSNO
94908KDBQ DBQ20050619023010306/19/05 02:30:31  5-MIN KDBQ 190830Z AUTO 15007KT 10SM CLR 15/12 A3012 890 80 1100 150/07 RMK AO2 TSNO
94908KDBQ DBQ20050619023510306/19/05 02:35:31  5-MIN KDBQ 190835Z AUTO 15009KT 10SM CLR 15/12 A3012 890 80 1100 150/09 RMK AO2 TSNO
94908KDBQ DBQ20050619024010306/19/05 02:40:31  5-MIN KDBQ 190840Z AUTO 15008KT 10SM CLR 15/12 A3012 890 80 1100 150/08 RMK AO2 TSNO
94908KDBQ DBQ20050619024510306/19/05 02:45:31  5-MIN KDBQ 190845Z AUTO 15008KT 10SM CLR 14/12 A3013 890 83 1100 150/08 RMK AO2 TSNO
94908KDBQ DBQ20050619025012606/19/05 02:50:31  5-MIN KDBQ 190850Z AUTO 15008KT 10SM CLR 15/12 A3013 890 80 1100 150/08 RMK AO2 SLP198 T01500117 51008 TSNO
94908KDBQ DBQ20050619025512606/19/05 02:55:31  5-MIN KDBQ 190855Z AUTO 15008KT 10SM CLR 14/12 A3013 890 83 1100 150/08 RMK AO2 SLP198 T01440117 53008 TSNO
94908KDBQ DBQ20050619030010306/19/05 03:00:31  5-MIN KDBQ 190900Z AUTO 16008KT 10SM CLR 14/12 A3013 890 83 1100 150/08 RMK AO2 TSNO
94908KDBQ DBQ20050619030510206/19/05 03:05:31  5-MIN KDBQ 190905Z AUTO 16008KT 9SM CLR 14/12 A3012 890 83 1100 160/08 RMK AO2 TSNO
94908KDBQ DBQ20050619031010206/19/05 03:10:31  5-MIN KDBQ 190910Z AUTO 16008KT 9SM CLR 14/12 A3013 890 83 1100 160/08 RMK AO2 TSNO
94908KDBQ DBQ20050619031510206/19/05 03:15:31  5-MIN KDBQ 190915Z AUTO 16008KT 9SM CLR 14/12 A3013 890 83 1100 160/08 RMK AO2 TSNO
94908KDBQ DBQ20050619032010206/19/05 03:20:31  5-MIN KDBQ 190920Z AUTO 16007KT 9SM CLR 14/12 A3013 890 83 1100 160/07 RMK AO2 TSNO
94908KDBQ DBQ20050619032510206/19/05 03:25:31  5-MIN KDBQ 190925Z AUTO 17007KT 9SM CLR 14/12 A3013 890 83 1100 160/07 RMK AO2 TSNO
94908KDBQ DBQ20050619033010206/19/05 03:30:31  5-MIN KDBQ 190930Z AUTO 18005KT 9SM CLR 14/12 A3013 890 86 1000 180/05 RMK AO2 TSNO
94908KDBQ DBQ20050619033510106/19/05 03:35:31  5-MIN KDBQ 190935Z AUTO 19005KT 9SM CLR 13/11 A3013 880 86 900 190/05 RMK AO2 TSNO
94908KDBQ DBQ20050619034010106/19/05 03:40:31  5-MIN KDBQ 190940Z AUTO 19005KT 8SM CLR 13/11 A3013 880 86 900 190/05 RMK AO2 TSNO
94908KDBQ DBQ20050619034510106/19/05 03:45:31  5-MIN KDBQ 190945Z AUTO 18005KT 8SM CLR 13/11 A3013 880 86 900 180/05 RMK AO2 TSNO
94908KDBQ DBQ20050619035011806/19/05 03:50:31  5-MIN KDBQ 190950Z AUTO 18006KT 8SM CLR 13/11 A3014 880 86 900 170/06 RMK AO2 SLP203 T01330111 TSNO
94908KDBQ DBQ20050619035511906/19/05 03:55:31  5-MIN KDBQ 190955Z AUTO 16006KT 8SM CLR 14/11 A3014 870 83 1000 160/06 RMK AO2 SLP203 T01390111 TSNO
94908KDBQ DBQ20050619040010206/19/05 04:00:31  5-MIN KDBQ 191000Z AUTO 15008KT 9SM CLR 14/11 A3015 870 83 1000 150/08 RMK AO2 TSNO
94908KDBQ DBQ20050619040510906/19/05 04:05:31  5-MIN KDBQ 191005Z AUTO 15008KT 9SM CLR 14/11 A3016 860 83 1000 150/08 RMK AO2 PRESRR TSNO
94908KDBQ DBQ20050619041010206/19/05 04:10:31  5-MIN KDBQ 191010Z AUTO 15009KT 9SM CLR 14/11 A3016 860 83 1000 150/09 RMK AO2 TSNO
94908KDBQ DBQ20050619041510206/19/05 04:15:31  5-MIN KDBQ 191015Z AUTO 15009KT 8SM CLR 14/11 A3015 860 83 1000 150/09 RMK AO2 TSNO
94908KDBQ DBQ20050619042010206/19/05 04:20:31  5-MIN KDBQ 191020Z AUTO 15009KT 8SM CLR 14/11 A3016 860 83 1000 150/09 RMK AO2 TSNO
94908KDBQ DBQ20050619042510206/19/05 04:25:31  5-MIN KDBQ 191025Z AUTO 16009KT 8SM CLR 14/11 A3016 860 83 1000 160/09 RMK AO2 TSNO
94908KDBQ DBQ20050619043010206/19/05 04:30:31  5-MIN KDBQ 191030Z AUTO 16007KT 8SM CLR 14/11 A3016 860 83 1000 160/07 RMK AO2 TSNO
94908KDBQ DBQ20050619043510206/19/05 04:35:31  5-MIN KDBQ 191035Z AUTO 17006KT 7SM CLR 14/11 A3016 860 83 1000 170/06 RMK AO2 TSNO
94908KDBQ DBQ20050619044010106/19/05 04:40:31  5-MIN KDBQ 191040Z AUTO 19005KT 7SM CLR 13/11 A3016 860 86 900 190/05 RMK AO2 TSNO
94908KDBQ DBQ20050619044510106/19/05 04:45:31  5-MIN KDBQ 191045Z AUTO 19005KT 7SM CLR 13/11 A3016 860 86 900 190/05 RMK AO2 TSNO
94908KDBQ DBQ20050619045011806/19/05 04:50:31  5-MIN KDBQ 191050Z AUTO 18005KT 7SM CLR 13/11 A3016 850 86 900 180/05 RMK AO2 SLP211 T01330111 TSNO
94908KDBQ DBQ20050619045511806/19/05 04:55:31  5-MIN KDBQ 191055Z AUTO 17006KT 7SM CLR 13/11 A3016 850 86 900 170/06 RMK AO2 SLP211 T01330111 TSNO
94908KDBQ DBQ20050619050010106/19/05 05:00:31  5-MIN KDBQ 191100Z AUTO 17007KT 7SM CLR 13/11 A3016 850 86 900 170/07 RMK AO2 TSNO
94908KDBQ DBQ20050619050509306/19/05 05:05:31  5-MIN KDBQ 191105Z 17007KT 7SM CLR 14/12 A3016 850 86  1000 170/07 RMK AO2
94908KDBQ DBQ20050619051009306/19/05 05:10:31  5-MIN KDBQ 191110Z 17008KT 8SM CLR 14/12 A3016 850 86  1000 170/08 RMK AO2
94908KDBQ DBQ20050619051509306/19/05 05:15:31  5-MIN KDBQ 191115Z 17007KT 8SM CLR 14/12 A3017 850 86  1000 170/07 RMK AO2
94908KDBQ DBQ20050619052009306/19/05 05:20:31  5-MIN KDBQ 191120Z 17008KT 8SM CLR 14/12 A3017 850 83  1000 170/08 RMK AO2
94908KDBQ DBQ20050619052509306/19/05 05:25:31  5-MIN KDBQ 191125Z 17007KT 8SM CLR 14/12 A3017 850 83  1000 170/07 RMK AO2
94908KDBQ DBQ20050619053009306/19/05 05:30:31  5-MIN KDBQ 191130Z 17008KT 8SM CLR 14/12 A3017 850 83  1000 170/08 RMK AO2
94908KDBQ DBQ20050619053509306/19/05 05:35:31  5-MIN KDBQ 191135Z 17007KT 8SM CLR 14/12 A3017 850 83  1000 170/07 RMK AO2
94908KDBQ DBQ20050619054009306/19/05 05:40:31  5-MIN KDBQ 191140Z 17008KT 8SM CLR 15/12 A3018 840 80  1100 170/08 RMK AO2
94908KDBQ DBQ20050619054509306/19/05 05:45:31  5-MIN KDBQ 191145Z 17007KT 9SM CLR 15/12 A3018 840 80  1100 170/07 RMK AO2
94908KDBQ DBQ20050619055012806/19/05 05:50:31  5-MIN KDBQ 191150Z 17007KT 9SM CLR 15/12 A3018 840 83  1100 170/07 RMK AO2 SLP216 T01500122 10178 20133 53008
94908KDBQ DBQ20050619055512806/19/05 05:55:31  5-MIN KDBQ 191155Z 17009KT 9SM CLR 15/12 A3018 840 83  1100 170/09 RMK AO2 SLP216 T01500122 10178 20133 51017
94908KDBQ DBQ20050619060009306/19/05 06:00:31  5-MIN KDBQ 191200Z 17008KT 9SM CLR 16/12 A3018 840 80  1100 170/08 RMK AO2
94908KDBQ DBQ20050619060509306/19/05 06:05:31  5-MIN KDBQ 191205Z 18008KT 9SM CLR 16/12 A3018 840 80  1100 180/08 RMK AO2
94908KDBQ DBQ20050619061009306/19/05 06:10:31  5-MIN KDBQ 191210Z 18008KT 9SM CLR 16/12 A3019 830 80  1100 180/08 RMK AO2
94908KDBQ DBQ20050619061509306/19/05 06:15:31  5-MIN KDBQ 191215Z 18007KT 9SM CLR 16/12 A3019 830 80  1100 180/07 RMK AO2
94908KDBQ DBQ20050619062009306/19/05 06:20:31  5-MIN KDBQ 191220Z 18007KT 9SM CLR 16/12 A3019 830 77  1200 180/07 RMK AO2
94908KDBQ DBQ20050619062509406/19/05 06:25:31  5-MIN KDBQ 191225Z 18007KT 10SM CLR 16/12 A3019 830 77  1200 180/07 RMK AO2
94908KDBQ DBQ20050619063009406/19/05 06:30:31  5-MIN KDBQ 191230Z 17009KT 10SM CLR 16/13 A3019 830 80  1200 170/09 RMK AO2
94908KDBQ DBQ20050619063509406/19/05 06:35:31  5-MIN KDBQ 191235Z 18008KT 10SM CLR 16/12 A3020 820 77  1200 180/08 RMK AO2
94908KDBQ DBQ20050619064009406/19/05 06:40:31  5-MIN KDBQ 191240Z 18008KT 10SM CLR 16/12 A3020 830 77  1200 180/08 RMK AO2
94908KDBQ DBQ20050619064509406/19/05 06:45:31  5-MIN KDBQ 191245Z 18007KT 10SM CLR 17/13 A3020 820 77  1300 170/07 RMK AO2
94908KDBQ DBQ20050619065011106/19/05 06:50:31  5-MIN KDBQ 191250Z 19007KT 10SM CLR 17/13 A3020 820 75  1300 190/07 RMK AO2 SLP222 T01720128
94908KDBQ DBQ20050619065511106/19/05 06:55:31  5-MIN KDBQ 191255Z 19008KT 10SM CLR 17/13 A3020 820 75  1300 190/08 RMK AO2 SLP222 T01720128
94908KDBQ DBQ20050619070009406/19/05 07:00:31  5-MIN KDBQ 191300Z 19008KT 10SM CLR 17/13 A3020 820 75  1300 190/08 RMK AO2
94908KDBQ DBQ20050619070509406/19/05 07:05:31  5-MIN KDBQ 191305Z 19008KT 10SM CLR 18/13 A3020 820 72  1400 180/08 RMK AO2
94908KDBQ DBQ20050619071009406/19/05 07:10:31  5-MIN KDBQ 191310Z 20008KT 10SM CLR 18/13 A3020 820 72  1400 200/08 RMK AO2
94908KDBQ DBQ20050619071509406/19/05 07:15:31  5-MIN KDBQ 191315Z 19008KT 10SM CLR 18/13 A3020 820 72  1400 190/08 RMK AO2
94908KDBQ DBQ20050619072009406/19/05 07:20:31  5-MIN KDBQ 191320Z 20008KT 10SM CLR 18/13 A3020 820 70  1400 190/08 RMK AO2
94908KDBQ DBQ20050619072509406/19/05 07:25:31  5-MIN KDBQ 191325Z 20007KT 10SM CLR 18/13 A3020 820 70  1400 200/07 RMK AO2
94908KDBQ DBQ20050619073009406/19/05 07:30:31  5-MIN KDBQ 191330Z 19009KT 10SM CLR 19/13 A3020 820 70  1500 190/09 RMK AO2
94908KDBQ DBQ20050619073509406/19/05 07:35:31  5-MIN KDBQ 191335Z 20009KT 10SM CLR 19/13 A3020 820 67  1500 200/09 RMK AO2
94908KDBQ DBQ20050619074009406/19/05 07:40:31  5-MIN KDBQ 191340Z 21009KT 10SM CLR 19/13 A3021 820 67  1500 210/09 RMK AO2
94908KDBQ DBQ20050619074509406/19/05 07:45:31  5-MIN KDBQ 191345Z 21007KT 10SM CLR 19/13 A3020 820 67  1600 210/07 RMK AO2
94908KDBQ DBQ20050619075011106/19/05 07:50:31  5-MIN KDBQ 191350Z 22008KT 10SM CLR 19/13 A3021 820 65  1600 210/08 RMK AO2 SLP225 T01940128
94908KDBQ DBQ20050619075511106/19/05 07:55:31  5-MIN KDBQ 191355Z 21007KT 10SM CLR 19/13 A3021 820 67  1600 200/07 RMK AO2 SLP225 T01940133
94908KDBQ DBQ20050619080009406/19/05 08:00:31  5-MIN KDBQ 191400Z 22008KT 10SM CLR 19/13 A3021 820 67  1600 210/08 RMK AO2
94908KDBQ DBQ20050619080509406/19/05 08:05:31  5-MIN KDBQ 191405Z 20009KT 10SM CLR 19/13 A3021 810 67  1600 200/09 RMK AO2
94908KDBQ DBQ20050619081009406/19/05 08:10:31  5-MIN KDBQ 191410Z 22008KT 10SM CLR 20/13 A3021 820 65  1600 220/08 RMK AO2
94908KDBQ DBQ20050619081509406/19/05 08:15:31  5-MIN KDBQ 191415Z 22009KT 10SM CLR 20/13 A3020 820 65  1600 210/09 RMK AO2
94908KDBQ DBQ20050619082009406/19/05 08:20:31  5-MIN KDBQ 191420Z 22008KT 10SM CLR 20/13 A3021 820 65  1600 220/08 RMK AO2
94908KDBQ DBQ20050619082509406/19/05 08:25:31  5-MIN KDBQ 191425Z 22008KT 10SM CLR 20/13 A3020 820 65  1600 220/08 RMK AO2
94908KDBQ DBQ20050619083009406/19/05 08:30:31  5-MIN KDBQ 191430Z 22008KT 10SM CLR 20/13 A3020 820 65  1600 220/08 RMK AO2
94908KDBQ DBQ20050619083509406/19/05 08:35:31  5-MIN KDBQ 191435Z 21007KT 10SM CLR 20/14 A3020 820 67  1600 210/07 RMK AO2
94908KDBQ DBQ20050619084009406/19/05 08:40:31  5-MIN KDBQ 191440Z 21008KT 10SM CLR 20/13 A3020 820 65  1600 210/08 RMK AO2
94908KDBQ DBQ20050619084509406/19/05 08:45:31  5-MIN KDBQ 191445Z 19008KT 10SM CLR 21/14 A3021 820 65  1700 190/08 RMK AO2
94908KDBQ DBQ20050619085011706/19/05 08:50:31  5-MIN KDBQ 191450Z 19007KT 10SM CLR 21/14 A3021 820 65  1700 190/07 RMK AO2 SLP225 T02060139 51017
94908KDBQ DBQ20050619085511706/19/05 08:55:31  5-MIN KDBQ 191455Z 19007KT 10SM CLR 21/14 A3021 810 65  1700 190/07 RMK AO2 SLP226 T02060139 51009
94908KDBQ DBQ20050619090009406/19/05 09:00:31  5-MIN KDBQ 191500Z 20007KT 10SM CLR 21/14 A3021 810 65  1700 200/07 RMK AO2
94908KDBQ DBQ20050619090509406/19/05 09:05:31  5-MIN KDBQ 191505Z 22007KT 10SM CLR 21/14 A3021 810 65  1800 220/07 RMK AO2
94908KDBQ DBQ20050619091009406/19/05 09:10:31  5-MIN KDBQ 191510Z 20006KT 10SM CLR 21/14 A3021 810 63  1700 200/06 RMK AO2
94908KDBQ DBQ20050619091509406/19/05 09:15:31  5-MIN KDBQ 191515Z 18006KT 10SM CLR 21/14 A3021 810 63  1800 180/06 RMK AO2
94908KDBQ DBQ20050619092009406/19/05 09:20:31  5-MIN KDBQ 191520Z 19006KT 10SM CLR 21/14 A3021 810 65  1800 190/06 RMK AO2
94908KDBQ DBQ20050619092509406/19/05 09:25:31  5-MIN KDBQ 191525Z VRB06KT 10SM CLR 22/14 A3021 810 63  1800 VRB/06 RMK AO2
94908KDBQ DBQ20050619093009406/19/05 09:30:31  5-MIN KDBQ 191530Z 19007KT 10SM CLR 22/14 A3021 810 63  1800 190/07 RMK AO2
94908KDBQ DBQ20050619093509406/19/05 09:35:31  5-MIN KDBQ 191535Z VRB04KT 10SM CLR 22/14 A3021 810 63  1800 VRB/04 RMK AO2
94908KDBQ DBQ20050619094009406/19/05 09:40:31  5-MIN KDBQ 191540Z 20004KT 10SM CLR 22/14 A3021 810 63  1800 200/04 RMK AO2
94908KDBQ DBQ20050619094509406/19/05 09:45:31  5-MIN KDBQ 191545Z 19006KT 10SM CLR 22/14 A3021 810 61  1900 190/06 RMK AO2
94908KDBQ DBQ20050619095011106/19/05 09:50:31  5-MIN KDBQ 191550Z 17006KT 10SM CLR 22/14 A3021 810 61  1900 160/06 RMK AO2 SLP226 T02220144
94908KDBQ DBQ20050619095511106/19/05 09:55:31  5-MIN KDBQ 191555Z VRB04KT 10SM CLR 22/15 A3021 810 63  1900 VRB/04 RMK AO2 SLP227 T02220150
94908KDBQ DBQ20050619100009406/19/05 10:00:31  5-MIN KDBQ 191600Z VRB03KT 10SM CLR 22/14 A3021 810 61  1900 VRB/03 RMK AO2
94908KDBQ DBQ20050619100509406/19/05 10:05:31  5-MIN KDBQ 191605Z VRB06KT 10SM CLR 23/14 A3021 810 59  1900 VRB/06 RMK AO2
94908KDBQ DBQ20050619101009406/19/05 10:10:31  5-MIN KDBQ 191610Z 17004KT 10SM CLR 22/14 A3020 820 61  1900 170/04 RMK AO2
94908KDBQ DBQ20050619101510906/19/05 10:15:31  5-MIN KDBQ 191615Z 20007KT 140V230 10SM CLR 23/14 A3020 820 59 1900 190/07 140V230 RMK AO2
94908KDBQ DBQ20050619102009406/19/05 10:20:31  5-MIN KDBQ 191620Z 21005KT 10SM CLR 23/15 A3020 820 59  2000 210/05 RMK AO2
94908KDBQ DBQ20050619102509406/19/05 10:25:31  5-MIN KDBQ 191625Z 18006KT 10SM CLR 23/15 A3020 820 59  2000 180/06 RMK AO2
94908KDBQ DBQ20050619103009406/19/05 10:30:31  5-MIN KDBQ 191630Z 19006KT 10SM CLR 23/14 A3020 820 57  2000 190/06 RMK AO2
94908KDBQ DBQ20050619103509406/19/05 10:35:31  5-MIN KDBQ 191635Z 21007KT 10SM CLR 23/14 A3020 820 55  2000 210/07 RMK AO2
94908KDBQ DBQ20050619104009406/19/05 10:40:31  5-MIN KDBQ 191640Z 22006KT 10SM CLR 23/14 A3020 820 55  2000 220/06 RMK AO2
94908KDBQ DBQ20050619104509406/19/05 10:45:31  5-MIN KDBQ 191645Z 20003KT 10SM CLR 23/14 A3020 820 57  2000 190/03 RMK AO2
94908KDBQ DBQ20050619105011106/19/05 10:50:31  5-MIN KDBQ 191650Z 19007KT 10SM CLR 24/14 A3020 820 55  2100 190/07 RMK AO2 SLP222 T02390144
94908KDBQ DBQ20050619105511106/19/05 10:55:31  5-MIN KDBQ 191655Z 17008KT 10SM CLR 24/14 A3020 820 55  2100 160/08 RMK AO2 SLP222 T02390144
94908KDBQ DBQ20050619110009406/19/05 11:00:31  5-MIN KDBQ 191700Z VRB04KT 10SM CLR 24/13 A3020 820 51  2100 VRB/04 RMK AO2
94908KDBQ DBQ20050619110509406/19/05 11:05:31  5-MIN KDBQ 191705Z VRB05KT 10SM CLR 24/14 A3020 820 53  2100 VRB/05 RMK AO2
94908KDBQ DBQ20050619111009406/19/05 11:10:31  5-MIN KDBQ 191710Z 23005KT 10SM CLR 24/14 A3020 820 55  2100 230/05 RMK AO2
94908KDBQ DBQ20050619111510906/19/05 11:15:31  5-MIN KDBQ 191715Z 14008KT 100V160 10SM CLR 24/14 A3020 820 55 2100 140/08 100V160 RMK AO2
94908KDBQ DBQ20050619112009406/19/05 11:20:31  5-MIN KDBQ 191720Z VRB04KT 10SM CLR 24/14 A3020 820 51  2100 VRB/04 RMK AO2
94908KDBQ DBQ20050619112509406/19/05 11:25:31  5-MIN KDBQ 191725Z 18007KT 10SM CLR 24/14 A3020 820 55  2100 170/07 RMK AO2
94908KDBQ DBQ20050619113009406/19/05 11:30:31  5-MIN KDBQ 191730Z 20006KT 10SM CLR 24/13 A3020 830 51  2100 200/06 RMK AO2
94908KDBQ DBQ20050619113509406/19/05 11:35:31  5-MIN KDBQ 191735Z 14007KT 10SM CLR 24/14 A3019 830 51  2100 140/07 RMK AO2
94908KDBQ DBQ20050619114009406/19/05 11:40:31  5-MIN KDBQ 191740Z 14007KT 10SM CLR 25/13 A3020 830 48  2200 140/07 RMK AO2
94908KDBQ DBQ20050619114509406/19/05 11:45:31  5-MIN KDBQ 191745Z 15009KT 10SM CLR 25/14 A3019 830 49  2200 150/09 RMK AO2
94908KDBQ DBQ20050619115013506/19/05 11:50:31  5-MIN KDBQ 191750Z 12005G14KT 10SM CLR 24/13 A3020 820  49 2100 120/05G14 RMK AO2 SLP220 T02440133 10250 20150 51009
94908KDBQ DBQ20050619115512906/19/05 11:55:31  5-MIN KDBQ 191755Z 00000KT 10SM CLR 24/13 A3019 830 49  2100 000/00 RMK AO2 SLP221 T02440133 10250 20150 58004
94908KDBQ DBQ20050619120009706/19/05 12:00:31  5-MIN KDBQ 191800Z VRB04KT 10SM FEW045 24/13 A3020 820  47 2100 VRB/04 RMK AO2
94908KDBQ DBQ20050619120509706/19/05 12:05:31  5-MIN KDBQ 191805Z 17006KT 10SM FEW045 25/14 A3020 830  49 2200 170/06 RMK AO2
94908KDBQ DBQ20050619121009406/19/05 12:10:31  5-MIN KDBQ 191810Z VRB05KT 10SM CLR 25/14 A3020 820 49  2200 VRB/05 RMK AO2
94908KDBQ DBQ20050619121509406/19/05 12:15:31  5-MIN KDBQ 191815Z 19003KT 10SM CLR 24/14 A3020 820 51  2100 190/03 RMK AO2
94908KDBQ DBQ20050619122009406/19/05 12:20:31  5-MIN KDBQ 191820Z 14007KT 10SM CLR 25/14 A3020 820 49  2200 140/07 RMK AO2
94908KDBQ DBQ20050619122509406/19/05 12:25:31  5-MIN KDBQ 191825Z 12006KT 10SM CLR 25/13 A3020 830 48  2200 120/06 RMK AO2
94908KDBQ DBQ20050619123009406/19/05 12:30:31  5-MIN KDBQ 191830Z VRB05KT 10SM CLR 26/13 A3019 830 46  2300 VRB/05 RMK AO2
94908KDBQ DBQ20050619123509406/19/05 12:35:31  5-MIN KDBQ 191835Z 16009KT 10SM CLR 26/13 A3019 830 46  2300 160/09 RMK AO2
94908KDBQ DBQ20050619124009406/19/05 12:40:31  5-MIN KDBQ 191840Z VRB05KT 10SM CLR 25/13 A3019 830 46  2200 VRB/05 RMK AO2
94908KDBQ DBQ20050619124509406/19/05 12:45:31  5-MIN KDBQ 191845Z 13004KT 10SM CLR 25/13 A3019 830 46  2200 130/04 RMK AO2
94908KDBQ DBQ20050619125011106/19/05 12:50:31  5-MIN KDBQ 191850Z 13007KT 10SM CLR 25/13 A3019 830 46  2200 130/07 RMK AO2 SLP219 T02500128
94908KDBQ DBQ20050619125511106/19/05 12:55:31  5-MIN KDBQ 191855Z 15008KT 10SM CLR 25/13 A3019 830 46  2200 150/08 RMK AO2 SLP219 T02500128
94908KDBQ DBQ20050619130009406/19/05 13:00:31  5-MIN KDBQ 191900Z 15004KT 10SM CLR 25/13 A3019 830 46  2200 150/04 RMK AO2
94908KDBQ DBQ20050619130509406/19/05 13:05:31  5-MIN KDBQ 191905Z 00000KT 10SM CLR 26/13 A3018 840 44  2300 000/00 RMK AO2
94908KDBQ DBQ20050619131009406/19/05 13:10:31  5-MIN KDBQ 191910Z 00000KT 10SM CLR 25/13 A3018 840 48  2200 000/00 RMK AO2
94908KDBQ DBQ20050619131509406/19/05 13:15:31  5-MIN KDBQ 191915Z 17006KT 10SM CLR 26/14 A3018 840 48  2300 170/06 RMK AO2
94908KDBQ DBQ20050619132009406/19/05 13:20:31  5-MIN KDBQ 191920Z VRB03KT 10SM CLR 26/14 A3018 840 48  2300 VRB/03 RMK AO2
94908KDBQ DBQ20050619132509406/19/05 13:25:31  5-MIN KDBQ 191925Z 20007KT 10SM CLR 26/14 A3018 840 48  2300 200/07 RMK AO2
94908KDBQ DBQ20050619133009406/19/05 13:30:31  5-MIN KDBQ 191930Z 20004KT 10SM CLR 25/14 A3018 840 49  2200 200/04 RMK AO2
94908KDBQ DBQ20050619133509406/19/05 13:35:31  5-MIN KDBQ 191935Z 17008KT 10SM CLR 26/14 A3018 840 46  2300 170/08 RMK AO2
94908KDBQ DBQ20050619134009406/19/05 13:40:31  5-MIN KDBQ 191940Z VRB06KT 10SM CLR 26/13 A3018 840 44  2300 VRB/06 RMK AO2
94908KDBQ DBQ20050619134509406/19/05 13:45:31  5-MIN KDBQ 191945Z 18008KT 10SM CLR 26/13 A3018 840 44  2400 180/08 RMK AO2
94908KDBQ DBQ20050619135011106/19/05 13:50:31  5-MIN KDBQ 191950Z VRB05KT 10SM CLR 26/13 A3018 840 44  2300 VRB/05 RMK AO2 SLP216 T02560128
94908KDBQ DBQ20050619135511106/19/05 13:55:31  5-MIN KDBQ 191955Z 15006KT 10SM CLR 26/12 A3018 840 41  2400 150/06 RMK AO2 SLP216 T02610122
94908KDBQ DBQ20050619140009406/19/05 14:00:31  5-MIN KDBQ 192000Z 00000KT 10SM CLR 26/12 A3018 840 43  2300 000/00 RMK AO2
94908KDBQ DBQ20050619140509406/19/05 14:05:31  5-MIN KDBQ 192005Z VRB05KT 10SM CLR 26/13 A3018 840 44  2400 VRB/05 RMK AO2
94908KDBQ DBQ20050619141009406/19/05 14:10:31  5-MIN KDBQ 192010Z 16007KT 10SM CLR 26/13 A3018 840 43  2400 160/07 RMK AO2
94908KDBQ DBQ20050619141509406/19/05 14:15:31  5-MIN KDBQ 192015Z 19004KT 10SM CLR 26/13 A3018 840 43  2400 190/04 RMK AO2
94908KDBQ DBQ20050619142009406/19/05 14:20:31  5-MIN KDBQ 192020Z 14006KT 10SM CLR 26/13 A3018 840 44  2400 140/06 RMK AO2
94908KDBQ DBQ20050619142509406/19/05 14:25:31  5-MIN KDBQ 192025Z 14006KT 10SM CLR 26/13 A3018 840 43  2400 140/06 RMK AO2
94908KDBQ DBQ20050619143009406/19/05 14:30:31  5-MIN KDBQ 192030Z 16008KT 10SM CLR 26/12 A3017 840 41  2400 160/08 RMK AO2
94908KDBQ DBQ20050619143509406/19/05 14:35:31  5-MIN KDBQ 192035Z VRB03KT 10SM CLR 26/12 A3017 840 40  2400 VRB/03 RMK AO2
94908KDBQ DBQ20050619144009406/19/05 14:40:31  5-MIN KDBQ 192040Z 24006KT 10SM CLR 26/13 A3017 850 43  2400 240/06 RMK AO2
94908KDBQ DBQ20050619144509406/19/05 14:45:31  5-MIN KDBQ 192045Z 22007KT 10SM CLR 26/12 A3017 850 40  2400 220/07 RMK AO2
94908KDBQ DBQ20050619145011706/19/05 14:50:31  5-MIN KDBQ 192050Z 20008KT 10SM CLR 26/12 A3017 850 41  2400 200/08 RMK AO2 SLP212 T02610122 58004
94908KDBQ DBQ20050619145511706/19/05 14:55:31  5-MIN KDBQ 192055Z VRB03KT 10SM CLR 26/12 A3017 850 41  2400 VRB/03 RMK AO2 SLP211 T02610122 58009
94908KDBQ DBQ20050619150009406/19/05 15:00:31  5-MIN KDBQ 192100Z VRB03KT 10SM CLR 26/12 A3016 850 40  2400 VRB/03 RMK AO2
94908KDBQ DBQ20050619150509406/19/05 15:05:31  5-MIN KDBQ 192105Z 16004KT 10SM CLR 26/12 A3016 850 41  2400 160/04 RMK AO2
94908KDBQ DBQ20050619151009406/19/05 15:10:31  5-MIN KDBQ 192110Z 20007KT 10SM CLR 26/13 A3016 850 43  2400 200/07 RMK AO2
94908KDBQ DBQ20050619151509406/19/05 15:15:31  5-MIN KDBQ 192115Z 18009KT 10SM CLR 27/13 A3016 860 41  2400 180/09 RMK AO2
94908KDBQ DBQ20050619152010906/19/05 15:20:31  5-MIN KDBQ 192120Z 15007KT 120V180 10SM CLR 26/13 A3016 860 43 2400 150/07 120V180 RMK AO2
94908KDBQ DBQ20050619152509406/19/05 15:25:31  5-MIN KDBQ 192125Z VRB06KT 10SM CLR 27/13 A3016 860 41  2400 VRB/06 RMK AO2
94908KDBQ DBQ20050619153009406/19/05 15:30:31  5-MIN KDBQ 192130Z VRB05KT 10SM CLR 26/13 A3016 860 43  2400 VRB/05 RMK AO2
94908KDBQ DBQ20050619153509406/19/05 15:35:31  5-MIN KDBQ 192135Z 17007KT 10SM CLR 27/13 A3016 860 43  2400 170/07 RMK AO2
94908KDBQ DBQ20050619154009406/19/05 15:40:31  5-MIN KDBQ 192140Z VRB04KT 10SM CLR 26/13 A3016 860 43  2400 VRB/04 RMK AO2
94908KDBQ DBQ20050619154509406/19/05 15:45:31  5-MIN KDBQ 192145Z VRB04KT 10SM CLR 27/14 A3016 860 45  2400 VRB/04 RMK AO2
94908KDBQ DBQ20050619155011106/19/05 15:50:31  5-MIN KDBQ 192150Z 20006KT 10SM CLR 27/14 A3016 860 45  2400 200/06 RMK AO2 SLP209 T02670139
94908KDBQ DBQ20050619155511106/19/05 15:55:31  5-MIN KDBQ 192155Z 21008KT 10SM CLR 27/14 A3016 860 45  2400 210/08 RMK AO2 SLP209 T02670139
94908KDBQ DBQ20050619160009406/19/05 16:00:31  5-MIN KDBQ 192200Z 18007KT 10SM CLR 27/13 A3016 860 43  2400 180/07 RMK AO2
94908KDBQ DBQ20050619160509406/19/05 16:05:31  5-MIN KDBQ 192205Z 19007KT 10SM CLR 26/13 A3016 860 44  2400 190/07 RMK AO2
94908KDBQ DBQ20050619161009406/19/05 16:10:31  5-MIN KDBQ 192210Z 21006KT 10SM CLR 26/13 A3015 860 43  2400 210/06 RMK AO2
94908KDBQ DBQ20050619161509406/19/05 16:15:31  5-MIN KDBQ 192215Z 19006KT 10SM CLR 26/13 A3015 860 44  2400 190/06 RMK AO2
94908KDBQ DBQ20050619162009406/19/05 16:20:31  5-MIN KDBQ 192220Z 17006KT 10SM CLR 27/14 A3015 860 45  2400 170/06 RMK AO2
94908KDBQ DBQ20050619162509406/19/05 16:25:31  5-MIN KDBQ 192225Z 18007KT 10SM CLR 27/13 A3015 870 43  2400 180/07 RMK AO2
94908KDBQ DBQ20050619163009406/19/05 16:30:31  5-MIN KDBQ 192230Z 16006KT 10SM CLR 26/13 A3015 870 43  2400 160/06 RMK AO2
94908KDBQ DBQ20050619163509406/19/05 16:35:31  5-MIN KDBQ 192235Z 17008KT 10SM CLR 27/13 A3015 870 43  2400 170/08 RMK AO2
94908KDBQ DBQ20050619164009406/19/05 16:40:31  5-MIN KDBQ 192240Z VRB05KT 10SM CLR 27/13 A3015 870 41  2400 VRB/05 RMK AO2
94908KDBQ DBQ20050619164509406/19/05 16:45:31  5-MIN KDBQ 192245Z 19004KT 10SM CLR 27/13 A3015 870 43  2400 190/04 RMK AO2
94908KDBQ DBQ20050619165011106/19/05 16:50:31  5-MIN KDBQ 192250Z 18005KT 10SM CLR 26/13 A3015 870 44  2400 180/05 RMK AO2 SLP205 T02610133
94908KDBQ DBQ20050619165511106/19/05 16:55:31  5-MIN KDBQ 192255Z 19005KT 10SM CLR 26/13 A3015 870 44  2400 190/05 RMK AO2 SLP205 T02610133
94908KDBQ DBQ20050619170009406/19/05 17:00:31  5-MIN KDBQ 192300Z 16006KT 10SM CLR 27/14 A3015 870 45  2400 160/06 RMK AO2
94908KDBQ DBQ20050619170509406/19/05 17:05:31  5-MIN KDBQ 192305Z 17004KT 10SM CLR 26/13 A3015 870 43  2400 170/04 RMK AO2
94908KDBQ DBQ20050619171009406/19/05 17:10:31  5-MIN KDBQ 192310Z 17006KT 10SM CLR 26/13 A3014 870 43  2400 170/06 RMK AO2
94908KDBQ DBQ20050619171509406/19/05 17:15:31  5-MIN KDBQ 192315Z 19004KT 10SM CLR 26/13 A3014 870 44  2400 190/04 RMK AO2
94908KDBQ DBQ20050619172009406/19/05 17:20:31  5-MIN KDBQ 192320Z 17007KT 10SM CLR 26/13 A3014 870 44  2400 160/07 RMK AO2
94908KDBQ DBQ20050619172509406/19/05 17:25:31  5-MIN KDBQ 192325Z 17005KT 10SM CLR 26/13 A3014 870 44  2400 170/05 RMK AO2
94908KDBQ DBQ20050619173009406/19/05 17:30:31  5-MIN KDBQ 192330Z 19004KT 10SM CLR 26/13 A3014 870 43  2400 190/04 RMK AO2
94908KDBQ DBQ20050619173509406/19/05 17:35:31  5-MIN KDBQ 192335Z 00000KT 10SM CLR 26/12 A3014 870 41  2400 000/00 RMK AO2
94908KDBQ DBQ20050619174009406/19/05 17:40:31  5-MIN KDBQ 192340Z 17005KT 10SM CLR 26/13 A3014 870 43  2400 170/05 RMK AO2
94908KDBQ DBQ20050619174509406/19/05 17:45:31  5-MIN KDBQ 192345Z 16005KT 10SM CLR 26/13 A3014 870 43  2400 160/05 RMK AO2
94908KDBQ DBQ20050619175012906/19/05 17:50:31  5-MIN KDBQ 192350Z 17006KT 10SM CLR 26/13 A3014 870 43  2400 170/06 RMK AO2 SLP203 T02610128 10267 20244 58009
94908KDBQ DBQ20050619175512906/19/05 17:55:31  5-MIN KDBQ 192355Z 17005KT 10SM CLR 26/13 A3014 870 44  2400 160/05 RMK AO2 SLP203 T02610133 10267 20244 56008
94908KDBQ DBQ20050619180009406/19/05 18:00:31  5-MIN KDBQ 200000Z 15005KT 10SM CLR 26/13 A3014 870 43  2400 150/05 RMK AO2
94908KDBQ DBQ20050619180509406/19/05 18:05:31  5-MIN KDBQ 200005Z 17005KT 10SM CLR 26/13 A3014 870 46  2300 170/05 RMK AO2
94908KDBQ DBQ20050619181009406/19/05 18:10:31  5-MIN KDBQ 200010Z 16005KT 10SM CLR 26/13 A3015 870 46  2300 160/05 RMK AO2
94908KDBQ DBQ20050619181509406/19/05 18:15:31  5-MIN KDBQ 200015Z 16006KT 10SM CLR 26/13 A3015 870 46  2300 160/06 RMK AO2
94908KDBQ DBQ20050619182009406/19/05 18:20:31  5-MIN KDBQ 200020Z 15005KT 10SM CLR 26/13 A3016 860 44  2300 150/05 RMK AO2
94908KDBQ DBQ20050619182509406/19/05 18:25:31  5-MIN KDBQ 200025Z 15006KT 10SM CLR 26/13 A3015 860 46  2300 150/06 RMK AO2
94908KDBQ DBQ20050619183009406/19/05 18:30:31  5-MIN KDBQ 200030Z 16004KT 10SM CLR 25/13 A3016 860 48  2300 160/04 RMK AO2
94908KDBQ DBQ20050619183509406/19/05 18:35:31  5-MIN KDBQ 200035Z 17005KT 10SM CLR 25/14 A3016 860 49  2300 170/05 RMK AO2
94908KDBQ DBQ20050619184009406/19/05 18:40:31  5-MIN KDBQ 200040Z 17005KT 10SM CLR 25/13 A3016 860 48  2200 170/05 RMK AO2
94908KDBQ DBQ20050619184509406/19/05 18:45:31  5-MIN KDBQ 200045Z 16005KT 10SM CLR 24/14 A3016 860 51  2200 160/05 RMK AO2
94908KDBQ DBQ20050619185011106/19/05 18:50:31  5-MIN KDBQ 200050Z 15005KT 10SM CLR 24/14 A3016 860 51  2200 150/05 RMK AO2 SLP208 T02440139
94908KDBQ DBQ20050619185511106/19/05 18:55:31  5-MIN KDBQ 200055Z 14003KT 10SM CLR 24/14 A3016 860 53  2200 140/03 RMK AO2 SLP209 T02440144
94908KDBQ DBQ20050619190010306/19/05 19:00:31  5-MIN KDBQ 200100Z AUTO 13004KT 10SM CLR 24/14 A3016 860 55 2100 130/04 RMK AO2 TSNO
94908KDBQ DBQ20050619190510306/19/05 19:05:31  5-MIN KDBQ 200105Z AUTO 13007KT 10SM CLR 24/14 A3016 860 55 2100 130/07 RMK AO2 TSNO
94908KDBQ DBQ20050619191010306/19/05 19:10:31  5-MIN KDBQ 200110Z AUTO 12006KT 10SM CLR 24/14 A3016 860 53 2100 120/06 RMK AO2 TSNO
94908KDBQ DBQ20050619191510306/19/05 19:15:31  5-MIN KDBQ 200115Z AUTO 13005KT 10SM CLR 24/14 A3016 860 53 2100 130/05 RMK AO2 TSNO
94908KDBQ DBQ20050619192010306/19/05 19:20:31  5-MIN KDBQ 200120Z AUTO 13005KT 10SM CLR 23/14 A3016 860 57 2100 130/05 RMK AO2 TSNO
94908KDBQ DBQ20050619192510306/19/05 19:25:31  5-MIN KDBQ 200125Z AUTO 13005KT 10SM CLR 23/14 A3016 860 59 2000 130/05 RMK AO2 TSNO
94908KDBQ DBQ20050619193010306/19/05 19:30:31  5-MIN KDBQ 200130Z AUTO 13004KT 10SM CLR 23/14 A3016 860 57 2000 130/04 RMK AO2 TSNO
94908KDBQ DBQ20050619193510306/19/05 19:35:31  5-MIN KDBQ 200135Z AUTO 13005KT 10SM CLR 22/14 A3016 860 59 1900 130/05 RMK AO2 TSNO
94908KDBQ DBQ20050619194010306/19/05 19:40:31  5-MIN KDBQ 200140Z AUTO 13006KT 10SM CLR 22/14 A3016 860 59 1900 130/06 RMK AO2 TSNO
94908KDBQ DBQ20050619194510306/19/05 19:45:31  5-MIN KDBQ 200145Z AUTO 12004KT 10SM CLR 22/14 A3016 860 59 1900 120/04 RMK AO2 TSNO
94908KDBQ DBQ20050619195012006/19/05 19:50:31  5-MIN KDBQ 200150Z AUTO 13004KT 10SM CLR 22/14 A3016 860 61 1900 130/04 RMK AO2 SLP209 T02170139 TSNO
94908KDBQ DBQ20050619195512006/19/05 19:55:31  5-MIN KDBQ 200155Z AUTO 13004KT 10SM CLR 21/14 A3017 850 63 1800 130/04 RMK AO2 SLP210 T02110139 TSNO
94908KDBQ DBQ20050619200010306/19/05 20:00:31  5-MIN KDBQ 200200Z AUTO 13004KT 10SM CLR 21/14 A3017 850 63 1800 130/04 RMK AO2 TSNO
94908KDBQ DBQ20050619200510306/19/05 20:05:31  5-MIN KDBQ 200205Z AUTO 13005KT 10SM CLR 21/14 A3017 850 63 1800 130/05 RMK AO2 TSNO
94908KDBQ DBQ20050619201010306/19/05 20:10:31  5-MIN KDBQ 200210Z AUTO 13005KT 10SM CLR 21/14 A3017 850 65 1700 130/05 RMK AO2 TSNO
94908KDBQ DBQ20050619201510306/19/05 20:15:31  5-MIN KDBQ 200215Z AUTO 13004KT 10SM CLR 20/14 A3017 850 67 1700 130/04 RMK AO2 TSNO
94908KDBQ DBQ20050619202010306/19/05 20:20:31  5-MIN KDBQ 200220Z AUTO 13004KT 10SM CLR 20/14 A3017 850 67 1700 130/04 RMK AO2 TSNO
94908KDBQ DBQ20050619202510306/19/05 20:25:31  5-MIN KDBQ 200225Z AUTO 14005KT 10SM CLR 20/14 A3017 850 67 1700 140/05 RMK AO2 TSNO
94908KDBQ DBQ20050619203010306/19/05 20:30:31  5-MIN KDBQ 200230Z AUTO 13004KT 10SM CLR 20/14 A3017 850 67 1700 130/04 RMK AO2 TSNO
94908KDBQ DBQ20050619203510306/19/05 20:35:31  5-MIN KDBQ 200235Z AUTO 13003KT 10SM CLR 20/14 A3018 840 67 1700 130/03 RMK AO2 TSNO
94908KDBQ DBQ20050619204010306/19/05 20:40:31  5-MIN KDBQ 200240Z AUTO 14004KT 10SM CLR 20/14 A3018 840 67 1700 140/04 RMK AO2 TSNO
94908KDBQ DBQ20050619204510306/19/05 20:45:31  5-MIN KDBQ 200245Z AUTO 14005KT 10SM CLR 20/14 A3017 850 67 1700 140/05 RMK AO2 TSNO
94908KDBQ DBQ20050619205012606/19/05 20:50:31  5-MIN KDBQ 200250Z AUTO 15005KT 10SM CLR 19/14 A3017 850 70 1600 140/05 RMK AO2 SLP212 T01940139 56008 TSNO
94908KDBQ DBQ20050619205512606/19/05 20:55:31  5-MIN KDBQ 200255Z AUTO 14005KT 10SM CLR 19/14 A3017 850 70 1600 140/05 RMK AO2 SLP213 T01940139 51009 TSNO
94908KDBQ DBQ20050619210010306/19/05 21:00:31  5-MIN KDBQ 200300Z AUTO 14004KT 10SM CLR 19/13 A3017 850 67 1600 140/04 RMK AO2 TSNO
94908KDBQ DBQ20050619210510306/19/05 21:05:31  5-MIN KDBQ 200305Z AUTO 14003KT 10SM CLR 18/13 A3017 850 72 1500 140/03 RMK AO2 TSNO
94908KDBQ DBQ20050619211010306/19/05 21:10:31  5-MIN KDBQ 200310Z AUTO 00000KT 10SM CLR 18/14 A3017 850 75 1500 000/00 RMK AO2 TSNO
94908KDBQ DBQ20050619211510306/19/05 21:15:31  5-MIN KDBQ 200315Z AUTO 00000KT 10SM CLR 18/13 A3017 840 72 1500 000/00 RMK AO2 TSNO
94908KDBQ DBQ20050619212010306/19/05 21:20:31  5-MIN KDBQ 200320Z AUTO 00000KT 10SM CLR 18/13 A3017 840 75 1400 000/00 RMK AO2 TSNO
94908KDBQ DBQ20050619212510306/19/05 21:25:31  5-MIN KDBQ 200325Z AUTO 15003KT 10SM CLR 18/13 A3017 840 75 1400 150/03 RMK AO2 TSNO
94908KDBQ DBQ20050619213010306/19/05 21:30:31  5-MIN KDBQ 200330Z AUTO 00000KT 10SM CLR 18/13 A3017 840 72 1500 000/00 RMK AO2 TSNO
94908KDBQ DBQ20050619213510306/19/05 21:35:31  5-MIN KDBQ 200335Z AUTO 00000KT 10SM CLR 18/13 A3017 840 72 1500 000/00 RMK AO2 TSNO
94908KDBQ DBQ20050619214010306/19/05 21:40:31  5-MIN KDBQ 200340Z AUTO 00000KT 10SM CLR 18/13 A3018 840 75 1400 000/00 RMK AO2 TSNO
94908KDBQ DBQ20050619214510306/19/05 21:45:31  5-MIN KDBQ 200345Z AUTO 00000KT 10SM CLR 18/13 A3018 840 75 1400 000/00 RMK AO2 TSNO
94908KDBQ DBQ20050619215012006/19/05 21:50:31  5-MIN KDBQ 200350Z AUTO 00000KT 10SM CLR 18/13 A3019 830 72 1500 000/00 RMK AO2 SLP218 T01830133 TSNO
94908KDBQ DBQ20050619215512006/19/05 21:55:31  5-MIN KDBQ 200355Z AUTO 00000KT 10SM CLR 18/13 A3019 830 75 1400 000/00 RMK AO2 SLP219 T01780133 TSNO
94908KDBQ DBQ20050619220010306/19/05 22:00:31  5-MIN KDBQ 200400Z AUTO 00000KT 10SM CLR 18/13 A3018 840 72 1400 000/00 RMK AO2 TSNO
94908KDBQ DBQ20050619220510306/19/05 22:05:31  5-MIN KDBQ 200405Z AUTO 00000KT 10SM CLR 18/13 A3018 840 72 1400 000/00 RMK AO2 TSNO
94908KDBQ DBQ20050619221010306/19/05 22:10:31  5-MIN KDBQ 200410Z AUTO 00000KT 10SM CLR 18/13 A3018 840 72 1400 000/00 RMK AO2 TSNO
94908KDBQ DBQ20050619221510306/19/05 22:15:31  5-MIN KDBQ 200415Z AUTO 00000KT 10SM CLR 18/13 A3018 840 72 1400 000/00 RMK AO2 TSNO
94908KDBQ DBQ20050619222010306/19/05 22:20:31  5-MIN KDBQ 200420Z AUTO 00000KT 10SM CLR 18/13 A3018 840 72 1400 000/00 RMK AO2 TSNO
94908KDBQ DBQ20050619222510306/19/05 22:25:31  5-MIN KDBQ 200425Z AUTO 00000KT 10SM CLR 17/13 A3018 840 75 1300 000/00 RMK AO2 TSNO
94908KDBQ DBQ20050619223010306/19/05 22:30:31  5-MIN KDBQ 200430Z AUTO 00000KT 10SM CLR 18/13 A3018 840 72 1400 000/00 RMK AO2 TSNO
94908KDBQ DBQ20050619223510206/19/05 22:35:31  5-MIN KDBQ 200435Z AUTO 00000KT 9SM CLR 17/13 A3018 840 75 1300 000/00 RMK AO2 TSNO
94908KDBQ DBQ20050619224010206/19/05 22:40:31  5-MIN KDBQ 200440Z AUTO 20003KT 9SM CLR 17/13 A3017 840 75 1300 200/03 RMK AO2 TSNO
94908KDBQ DBQ20050619224510306/19/05 22:45:31  5-MIN KDBQ 200445Z AUTO 00000KT 10SM CLR 18/13 A3018 840 72 1400 000/00 RMK AO2 TSNO
94908KDBQ DBQ20050619225012006/19/05 22:50:31  5-MIN KDBQ 200450Z AUTO 00000KT 10SM CLR 18/13 A3018 840 72 1400 000/00 RMK AO2 SLP214 T01780128 TSNO
94908KDBQ DBQ20050619225512006/19/05 22:55:31  5-MIN KDBQ 200455Z AUTO 00000KT 10SM CLR 18/13 A3018 840 72 1400 000/00 RMK AO2 SLP214 T01780128 TSNO
94908KDBQ DBQ20050619230010306/19/05 23:00:31  5-MIN KDBQ 200500Z AUTO 00000KT 10SM CLR 18/13 A3018 840 72 1400 000/00 RMK AO2 TSNO
94908KDBQ DBQ20050619230510306/19/05 23:05:31  5-MIN KDBQ 200505Z AUTO 00000KT 10SM CLR 17/13 A3018 840 75 1300 000/00 RMK AO2 TSNO
94908KDBQ DBQ20050619231010306/19/05 23:10:31  5-MIN KDBQ 200510Z AUTO 00000KT 10SM CLR 17/13 A3017 850 75 1300 000/00 RMK AO2 TSNO
94908KDBQ DBQ20050619231510306/19/05 23:15:31  5-MIN KDBQ 200515Z AUTO 00000KT 10SM CLR 17/12 A3017 850 72 1300 000/00 RMK AO2 TSNO
94908KDBQ DBQ20050619232010306/19/05 23:20:31  5-MIN KDBQ 200520Z AUTO 00000KT 10SM CLR 17/13 A3017 850 75 1300 000/00 RMK AO2 TSNO
94908KDBQ DBQ20050619232510306/19/05 23:25:31  5-MIN KDBQ 200525Z AUTO 00000KT 10SM CLR 17/12 A3017 850 72 1300 000/00 RMK AO2 TSNO
94908KDBQ DBQ20050619233010306/19/05 23:30:31  5-MIN KDBQ 200530Z AUTO 00000KT 10SM CLR 17/12 A3018 840 75 1300 000/00 RMK AO2 TSNO
94908KDBQ DBQ20050619233510306/19/05 23:35:31  5-MIN KDBQ 200535Z AUTO 00000KT 10SM CLR 17/12 A3017 850 72 1300 000/00 RMK AO2 TSNO
94908KDBQ DBQ20050619234010306/19/05 23:40:31  5-MIN KDBQ 200540Z AUTO 00000KT 10SM CLR 17/12 A3017 850 72 1300 000/00 RMK AO2 TSNO
94908KDBQ DBQ20050619234510306/19/05 23:45:31  5-MIN KDBQ 200545Z AUTO 00000KT 10SM CLR 17/12 A3017 850 72 1300 000/00 RMK AO2 TSNO
94908KDBQ DBQ20050619235014806/19/05 23:50:31  5-MIN KDBQ 200550Z AUTO 00000KT 10SM CLR 17/13 A3017 850 75 1300 000/00 RMK AO2 SLP212 T01720128 10261 20167 402670133 51009 TSNO
94908KDBQ DBQ20050619235514806/19/05 23:55:31  5-MIN KDBQ 200555Z AUTO 00000KT 10SM CLR 17/12 A3017 850 75 1300 000/00 RMK AO2 SLP212 T01670122 10261 20167 402670133 58000 TSNO
94908KDBQ DBQ20050620000010306/20/05 00:00:38  5-MIN KDBQ 200600Z AUTO 00000KT 10SM CLR 17/12 A3017 850 75 1300 000/00 RMK AO2 TSNO
94908KDBQ DBQ20050620000510306/20/05 00:05:31  5-MIN KDBQ 200605Z AUTO 00000KT 10SM CLR 16/12 A3017 850 77 1200 000/00 RMK AO2 TSNO
94908KDBQ DBQ20050620001010306/20/05 00:10:31  5-MIN KDBQ 200610Z AUTO 20003KT 10SM CLR 17/12 A3017 850 75 1300 200/03 RMK AO2 TSNO
94908KDBQ DBQ20050620001510306/20/05 00:15:31  5-MIN KDBQ 200615Z AUTO 20003KT 10SM CLR 16/12 A3017 850 77 1200 200/03 RMK AO2 TSNO
94908KDBQ DBQ20050620002010306/20/05 00:20:31  5-MIN KDBQ 200620Z AUTO 00000KT 10SM CLR 16/12 A3017 850 80 1200 000/00 RMK AO2 TSNO
94908KDBQ DBQ20050620002510306/20/05 00:25:31  5-MIN KDBQ 200625Z AUTO 00000KT 10SM CLR 16/12 A3017 850 77 1200 000/00 RMK AO2 TSNO
94908KDBQ DBQ20050620003010306/20/05 00:30:31  5-MIN KDBQ 200630Z AUTO 00000KT 10SM CLR 16/12 A3017 850 77 1200 000/00 RMK AO2 TSNO
94908KDBQ DBQ20050620003510306/20/05 00:35:31  5-MIN KDBQ 200635Z AUTO 00000KT 10SM CLR 16/12 A3017 850 77 1200 000/00 RMK AO2 TSNO
94908KDBQ DBQ20050620004010306/20/05 00:40:31  5-MIN KDBQ 200640Z AUTO 20003KT 10SM CLR 16/12 A3017 850 77 1200 200/03 RMK AO2 TSNO
94908KDBQ DBQ20050620004510306/20/05 00:45:31  5-MIN KDBQ 200645Z AUTO 19003KT 10SM CLR 16/12 A3017 850 77 1200 190/03 RMK AO2 TSNO
94908KDBQ DBQ20050620005012006/20/05 00:50:31  5-MIN KDBQ 200650Z AUTO 18003KT 10SM CLR 16/12 A3018 840 80 1100 180/03 RMK AO2 SLP214 T01560122 TSNO
94908KDBQ DBQ20050620005512006/20/05 00:55:31  5-MIN KDBQ 200655Z AUTO 19003KT 10SM CLR 16/12 A3018 840 77 1200 190/03 RMK AO2 SLP215 T01610122 TSNO
94908KDBQ DBQ20050620010010306/20/05 01:00:31  5-MIN KDBQ 200700Z AUTO 00000KT 10SM CLR 16/12 A3018 840 77 1200 000/00 RMK AO2 TSNO
94908KDBQ DBQ20050620010510306/20/05 01:05:31  5-MIN KDBQ 200705Z AUTO 00000KT 10SM CLR 16/12 A3018 840 77 1200 000/00 RMK AO2 TSNO
94908KDBQ DBQ20050620011010306/20/05 01:10:31  5-MIN KDBQ 200710Z AUTO 00000KT 10SM CLR 16/12 A3018 840 77 1100 000/00 RMK AO2 TSNO
94908KDBQ DBQ20050620011510306/20/05 01:15:31  5-MIN KDBQ 200715Z AUTO 18004KT 10SM CLR 17/12 A3017 850 75 1300 180/04 RMK AO2 TSNO
94908KDBQ DBQ20050620012010306/20/05 01:20:31  5-MIN KDBQ 200720Z AUTO 18004KT 10SM CLR 16/12 A3018 840 77 1200 180/04 RMK AO2 TSNO
94908KDBQ DBQ20050620012510306/20/05 01:25:31  5-MIN KDBQ 200725Z AUTO 00000KT 10SM CLR 16/12 A3018 840 80 1100 000/00 RMK AO2 TSNO
94908KDBQ DBQ20050620013010306/20/05 01:30:31  5-MIN KDBQ 200730Z AUTO 00000KT 10SM CLR 16/12 A3018 840 77 1100 000/00 RMK AO2 TSNO
94908KDBQ DBQ20050620013510306/20/05 01:35:31  5-MIN KDBQ 200735Z AUTO 00000KT 10SM CLR 16/12 A3018 840 77 1100 000/00 RMK AO2 TSNO
94908KDBQ DBQ20050620014010306/20/05 01:40:31  5-MIN KDBQ 200740Z AUTO 00000KT 10SM CLR 16/12 A3018 840 77 1100 000/00 RMK AO2 TSNO
94908KDBQ DBQ20050620014510306/20/05 01:45:31  5-MIN KDBQ 200745Z AUTO 00000KT 10SM CLR 16/12 A3017 850 80 1100 000/00 RMK AO2 TSNO
94908KDBQ DBQ20050620015012006/20/05 01:50:31  5-MIN KDBQ 200750Z AUTO 00000KT 10SM CLR 15/12 A3017 850 80 1100 000/00 RMK AO2 SLP212 T01500117 TSNO
94908KDBQ DBQ20050620015512006/20/05 01:55:31  5-MIN KDBQ 200755Z AUTO 19003KT 10SM CLR 15/12 A3017 850 80 1100 190/03 RMK AO2 SLP213 T01500117 TSNO
94908KDBQ DBQ20050620020010306/20/05 02:00:31  5-MIN KDBQ 200800Z AUTO 00000KT 10SM CLR 15/12 A3017 840 83 1100 000/00 RMK AO2 TSNO
94908KDBQ DBQ20050620020510306/20/05 02:05:31  5-MIN KDBQ 200805Z AUTO 18003KT 10SM CLR 16/12 A3017 850 80 1100 180/03 RMK AO2 TSNO
94908KDBQ DBQ20050620021010306/20/05 02:10:31  5-MIN KDBQ 200810Z AUTO 18003KT 10SM CLR 16/12 A3017 840 80 1100 180/03 RMK AO2 TSNO
94908KDBQ DBQ20050620021510306/20/05 02:15:31  5-MIN KDBQ 200815Z AUTO 18003KT 10SM CLR 15/12 A3017 840 80 1100 180/03 RMK AO2 TSNO
94908KDBQ DBQ20050620022010306/20/05 02:20:31  5-MIN KDBQ 200820Z AUTO 19004KT 10SM CLR 15/12 A3017 840 80 1100 180/04 RMK AO2 TSNO
94908KDBQ DBQ20050620022510306/20/05 02:25:31  5-MIN KDBQ 200825Z AUTO 00000KT 10SM CLR 15/12 A3018 840 80 1100 000/00 RMK AO2 TSNO
94908KDBQ DBQ20050620023010306/20/05 02:30:31  5-MIN KDBQ 200830Z AUTO 00000KT 10SM CLR 15/12 A3018 840 80 1100 000/00 RMK AO2 TSNO
94908KDBQ DBQ20050620023510306/20/05 02:35:31  5-MIN KDBQ 200835Z AUTO 00000KT 10SM CLR 15/12 A3018 840 80 1100 000/00 RMK AO2 TSNO
94908KDBQ DBQ20050620024010306/20/05 02:40:31  5-MIN KDBQ 200840Z AUTO 00000KT 10SM CLR 15/12 A3018 840 80 1100 000/00 RMK AO2 TSNO
94908KDBQ DBQ20050620024510306/20/05 02:45:31  5-MIN KDBQ 200845Z AUTO 00000KT 10SM CLR 15/12 A3018 840 80 1100 000/00 RMK AO2 TSNO
94908KDBQ DBQ20050620025012606/20/05 02:50:31  5-MIN KDBQ 200850Z AUTO 00000KT 10SM CLR 16/12 A3018 840 77 1100 000/00 RMK AO2 SLP216 T01560117 58000 TSNO
94908KDBQ DBQ20050620025512606/20/05 02:55:31  5-MIN KDBQ 200855Z AUTO 00000KT 10SM CLR 15/12 A3018 840 80 1100 000/00 RMK AO2 SLP217 T01500117 53005 TSNO
94908KDBQ DBQ20050620030010306/20/05 03:00:31  5-MIN KDBQ 200900Z AUTO 00000KT 10SM CLR 15/12 A3018 840 80 1100 000/00 RMK AO2 TSNO
94908KDBQ DBQ20050620030510306/20/05 03:05:31  5-MIN KDBQ 200905Z AUTO 00000KT 10SM CLR 15/12 A3019 830 80 1100 000/00 RMK AO2 TSNO
94908KDBQ DBQ20050620031010206/20/05 03:10:31  5-MIN KDBQ 200910Z AUTO 18003KT 9SM CLR 14/12 A3018 840 83 1000 180/03 RMK AO2 TSNO
94908KDBQ DBQ20050620031510206/20/05 03:15:31  5-MIN KDBQ 200915Z AUTO 18004KT 9SM CLR 14/12 A3019 830 83 1000 180/04 RMK AO2 TSNO
94908KDBQ DBQ20050620032010306/20/05 03:20:31  5-MIN KDBQ 200920Z AUTO 18004KT 10SM CLR 14/12 A3018 830 86 1000 180/04 RMK AO2 TSNO
94908KDBQ DBQ20050620032510206/20/05 03:25:31  5-MIN KDBQ 200925Z AUTO 18003KT 10SM CLR 14/12 A3019 830 86 900 180/03 RMK AO2 TSNO
94908KDBQ DBQ20050620033010206/20/05 03:30:31  5-MIN KDBQ 200930Z AUTO 18003KT 10SM CLR 14/12 A3019 830 86 900 180/03 RMK AO2 TSNO
94908KDBQ DBQ20050620033510206/20/05 03:35:31  5-MIN KDBQ 200935Z AUTO 00000KT 10SM CLR 13/12 A3019 830 89 900 000/00 RMK AO2 TSNO
94908KDBQ DBQ20050620034010106/20/05 03:40:31  5-MIN KDBQ 200940Z AUTO 00000KT 9SM CLR 14/12 A3019 830 86 900 000/00 RMK AO2 TSNO
94908KDBQ DBQ20050620034510106/20/05 03:45:31  5-MIN KDBQ 200945Z AUTO 00000KT 9SM CLR 13/11 A3019 830 86 900 000/00 RMK AO2 TSNO
94908KDBQ DBQ20050620035011906/20/05 03:50:31  5-MIN KDBQ 200950Z AUTO 00000KT 9SM CLR 14/11 A3019 830 80 1000 000/00 RMK AO2 SLP219 T01440111 TSNO
94908KDBQ DBQ20050620035511806/20/05 03:55:31  5-MIN KDBQ 200955Z AUTO 00000KT 9SM CLR 14/12 A3019 830 86 900 000/00 RMK AO2 SLP219 T01390117 TSNO
94908KDBQ DBQ20050620040010206/20/05 04:00:31  5-MIN KDBQ 201000Z AUTO 00000KT 9SM CLR 14/12 A3020 820 83 1000 000/00 RMK AO2 TSNO
94908KDBQ DBQ20050620040510206/20/05 04:05:31  5-MIN KDBQ 201005Z AUTO 00000KT 9SM CLR 14/12 A3020 820 83 1000 000/00 RMK AO2 TSNO
94908KDBQ DBQ20050620041010206/20/05 04:10:31  5-MIN KDBQ 201010Z AUTO 17003KT 9SM CLR 14/12 A3020 820 83 1000 170/03 RMK AO2 TSNO
94908KDBQ DBQ20050620041510106/20/05 04:15:31  5-MIN KDBQ 201015Z AUTO 00000KT 9SM CLR 14/12 A3020 820 86 900 000/00 RMK AO2 TSNO
94908KDBQ DBQ20050620042010106/20/05 04:20:31  5-MIN KDBQ 201020Z AUTO 00000KT 8SM CLR 14/12 A3020 820 86 900 000/00 RMK AO2 TSNO
94908KDBQ DBQ20050620042510106/20/05 04:25:31  5-MIN KDBQ 201025Z AUTO 00000KT 7SM CLR 14/11 A3020 820 83 900 000/00 RMK AO2 TSNO
94908KDBQ DBQ20050620043010106/20/05 04:30:31  5-MIN KDBQ 201030Z AUTO 00000KT 7SM CLR 13/12 A3021 820 89 800 000/00 RMK AO2 TSNO
94908KDBQ DBQ20050620043510106/20/05 04:35:31  5-MIN KDBQ 201035Z AUTO 00000KT 7SM CLR 14/12 A3021 810 86 900 000/00 RMK AO2 TSNO
94908KDBQ DBQ20050620044010106/20/05 04:40:31  5-MIN KDBQ 201040Z AUTO 00000KT 7SM CLR 14/12 A3021 810 86 900 000/00 RMK AO2 TSNO
94908KDBQ DBQ20050620044510106/20/05 04:45:31  5-MIN KDBQ 201045Z AUTO 00000KT 7SM CLR 14/12 A3020 820 86 900 000/00 RMK AO2 TSNO
94908KDBQ DBQ20050620045011806/20/05 04:50:31  5-MIN KDBQ 201050Z AUTO 00000KT 7SM CLR 14/12 A3020 820 86 900 000/00 RMK AO2 SLP225 T01390117 TSNO
94908KDBQ DBQ20050620045510906/20/05 04:55:31  5-MIN KDBQ 201055Z 00000KT 7SM CLR 13/11 A3021 810 86  800 000/00 RMK AO2 SLP226 T01330111
94908KDBQ DBQ20050620050009206/20/05 05:00:31  5-MIN KDBQ 201100Z 00000KT 7SM CLR 13/11 A3021 820 89  800 000/00 RMK AO2
94908KDBQ DBQ20050620050509206/20/05 05:05:31  5-MIN KDBQ 201105Z 00000KT 7SM CLR 13/11 A3021 810 86  800 000/00 RMK AO2
94908KDBQ DBQ20050620051009206/20/05 05:10:31  5-MIN KDBQ 201110Z 00000KT 7SM CLR 14/12 A3021 810 86  900 000/00 RMK AO2
94908KDBQ DBQ20050620051509306/20/05 05:15:31  5-MIN KDBQ 201115Z 00000KT 8SM CLR 14/12 A3021 810 83  1000 000/00 RMK AO2
94908KDBQ DBQ20050620052009306/20/05 05:20:31  5-MIN KDBQ 201120Z 00000KT 8SM CLR 15/12 A3021 810 80  1000 000/00 RMK AO2
94908KDBQ DBQ20050620052509306/20/05 05:25:31  5-MIN KDBQ 201125Z 00000KT 8SM CLR 15/12 A3022 800 80  1000 000/00 RMK AO2
94908KDBQ DBQ20050620053009306/20/05 05:30:31  5-MIN KDBQ 201130Z 00000KT 8SM CLR 15/12 A3022 800 83  1000 000/00 RMK AO2
94908KDBQ DBQ20050620053509306/20/05 05:35:31  5-MIN KDBQ 201135Z 00000KT 7SM CLR 16/13 A3022 800 83  1100 000/00 RMK AO2
94908KDBQ DBQ20050620054009306/20/05 05:40:31  5-MIN KDBQ 201140Z 00000KT 7SM CLR 16/13 A3023 800 80  1200 000/00 RMK AO2
94908KDBQ DBQ20050620054509306/20/05 05:45:31  5-MIN KDBQ 201145Z 00000KT 7SM CLR 16/13 A3023 800 83  1200 000/00 RMK AO2
94908KDBQ DBQ20050620055012806/20/05 05:50:31  5-MIN KDBQ 201150Z 00000KT 8SM CLR 17/13 A3023 800 80  1200 000/00 RMK AO2 SLP231 T01670133 10167 20128 53005
94908KDBQ DBQ20050620055512806/20/05 05:55:31  5-MIN KDBQ 201155Z 00000KT 8SM CLR 17/14 A3023 790 80  1300 000/00 RMK AO2 SLP231 T01720139 10172 20128 53015
94908KDBQ DBQ20050620060009306/20/05 06:00:31  5-MIN KDBQ 201200Z 21003KT 8SM CLR 17/14 A3023 790 83  1300 210/03 RMK AO2
94908KDBQ DBQ20050620060509306/20/05 06:05:31  5-MIN KDBQ 201205Z 00000KT 8SM CLR 18/14 A3023 790 81  1300 000/00 RMK AO2
94908KDBQ DBQ20050620061009306/20/05 06:10:31  5-MIN KDBQ 201210Z 00000KT 9SM CLR 18/14 A3023 790 81  1300 000/00 RMK AO2
94908KDBQ DBQ20050620061509306/20/05 06:15:31  5-MIN KDBQ 201215Z 00000KT 9SM CLR 18/14 A3023 790 78  1400 000/00 RMK AO2
94908KDBQ DBQ20050620062009306/20/05 06:20:31  5-MIN KDBQ 201220Z 20003KT 9SM CLR 18/14 A3023 790 78  1400 200/03 RMK AO2
94908KDBQ DBQ20050620062509406/20/05 06:25:31  5-MIN KDBQ 201225Z 21003KT 10SM CLR 18/14 A3023 790 78  1400 210/03 RMK AO2
94908KDBQ DBQ20050620063009406/20/05 06:30:31  5-MIN KDBQ 201230Z 22003KT 10SM CLR 19/15 A3023 790 78  1500 220/03 RMK AO2
94908KDBQ DBQ20050620063509306/20/05 06:35:31  5-MIN KDBQ 201235Z 22003KT 9SM CLR 19/15 A3023 790 78  1500 220/03 RMK AO2
94908KDBQ DBQ20050620064009306/20/05 06:40:31  5-MIN KDBQ 201240Z 23003KT 9SM CLR 19/15 A3024 790 78  1500 230/03 RMK AO2
94908KDBQ DBQ20050620064509306/20/05 06:45:31  5-MIN KDBQ 201245Z 22004KT 9SM CLR 19/16 A3023 790 81  1500 220/04 RMK AO2
94908KDBQ DBQ20050620065011106/20/05 06:50:31  5-MIN KDBQ 201250Z 20005KT 10SM CLR 19/15 A3023 790 75  1500 200/05 RMK AO2 SLP232 T01940150
94908KDBQ DBQ20050620065511106/20/05 06:55:31  5-MIN KDBQ 201255Z 19006KT 10SM CLR 20/15 A3023 790 72  1600 190/06 RMK AO2 SLP232 T02000150
94908KDBQ DBQ20050620070009406/20/05 07:00:31  5-MIN KDBQ 201300Z 19005KT 10SM CLR 20/15 A3023 790 72  1600 190/05 RMK AO2
94908KDBQ DBQ20050620070509406/20/05 07:05:31  5-MIN KDBQ 201305Z 20005KT 10SM CLR 20/15 A3023 790 72  1600 200/05 RMK AO2
94908KDBQ DBQ20050620071009406/20/05 07:10:31  5-MIN KDBQ 201310Z 20006KT 10SM CLR 21/15 A3023 790 70  1700 200/06 RMK AO2
94908KDBQ DBQ20050620071509406/20/05 07:15:31  5-MIN KDBQ 201315Z 21005KT 10SM CLR 21/15 A3023 790 70  1700 210/05 RMK AO2
94908KDBQ DBQ20050620072009406/20/05 07:20:31  5-MIN KDBQ 201320Z 22006KT 10SM CLR 21/15 A3023 790 70  1700 220/06 RMK AO2
94908KDBQ DBQ20050620072509406/20/05 07:25:31  5-MIN KDBQ 201325Z 23005KT 10SM CLR 21/16 A3024 790 73  1700 230/05 RMK AO2
94908KDBQ DBQ20050620073009406/20/05 07:30:31  5-MIN KDBQ 201330Z 21004KT 10SM CLR 21/16 A3024 790 70  1700 200/04 RMK AO2
94908KDBQ DBQ20050620073509406/20/05 07:35:31  5-MIN KDBQ 201335Z 21005KT 10SM CLR 21/16 A3024 790 70  1700 210/05 RMK AO2
94908KDBQ DBQ20050620074009406/20/05 07:40:31  5-MIN KDBQ 201340Z 19005KT 10SM CLR 21/16 A3024 790 70  1700 190/05 RMK AO2
94908KDBQ DBQ20050620074509406/20/05 07:45:31  5-MIN KDBQ 201345Z 19004KT 10SM CLR 22/16 A3024 790 68  1800 190/04 RMK AO2
94908KDBQ DBQ20050620075011106/20/05 07:50:31  5-MIN KDBQ 201350Z 22003KT 10SM CLR 22/15 A3024 790 65  1800 220/03 RMK AO2 SLP234 T02170150
94908KDBQ DBQ20050620075511106/20/05 07:55:31  5-MIN KDBQ 201355Z 23003KT 10SM CLR 22/14 A3024 790 63  1800 230/03 RMK AO2 SLP234 T02170144
94908KDBQ DBQ20050620080009406/20/05 08:00:31  5-MIN KDBQ 201400Z 21003KT 10SM CLR 22/15 A3024 790 63  1800 210/03 RMK AO2
94908KDBQ DBQ20050620080509406/20/05 08:05:31  5-MIN KDBQ 201405Z 25004KT 10SM CLR 22/15 A3024 780 63  1800 240/04 RMK AO2
94908KDBQ DBQ20050620081009406/20/05 08:10:31  5-MIN KDBQ 201410Z 23005KT 10SM CLR 23/15 A3024 780 61  1900 230/05 RMK AO2
94908KDBQ DBQ20050620081509406/20/05 08:15:31  5-MIN KDBQ 201415Z 22004KT 10SM CLR 23/15 A3024 780 61  1900 220/04 RMK AO2
94908KDBQ DBQ20050620082009406/20/05 08:20:31  5-MIN KDBQ 201420Z 22004KT 10SM CLR 23/15 A3024 780 61  1900 220/04 RMK AO2
94908KDBQ DBQ20050620082509406/20/05 08:25:31  5-MIN KDBQ 201425Z 24004KT 10SM CLR 23/15 A3024 780 61  1900 230/04 RMK AO2
94908KDBQ DBQ20050620083009406/20/05 08:30:31  5-MIN KDBQ 201430Z VRB04KT 10SM CLR 23/15 A3024 780 59  2000 VRB/04 RMK AO2
94908KDBQ DBQ20050620083509406/20/05 08:35:31  5-MIN KDBQ 201435Z 25006KT 10SM CLR 23/15 A3024 780 59  2000 250/06 RMK AO2
94908KDBQ DBQ20050620084009406/20/05 08:40:31  5-MIN KDBQ 201440Z 27006KT 10SM CLR 23/14 A3025 780 57  2000 270/06 RMK AO2
94908KDBQ DBQ20050620084509406/20/05 08:45:31  5-MIN KDBQ 201445Z VRB04KT 10SM CLR 23/15 A3024 780 59  2000 VRB/04 RMK AO2
94908KDBQ DBQ20050620085011706/20/05 08:50:31  5-MIN KDBQ 201450Z 20004KT 10SM CLR 23/16 A3025 780 61  2000 190/04 RMK AO2 SLP237 T02330156 53015
94908KDBQ DBQ20050620085511706/20/05 08:55:31  5-MIN KDBQ 201455Z 21004KT 10SM CLR 23/16 A3024 780 61  2000 210/04 RMK AO2 SLP236 T02330156 53005
94908KDBQ DBQ20050620090009406/20/05 09:00:31  5-MIN KDBQ 201500Z VRB04KT 10SM CLR 23/16 A3024 780 61  2000 VRB/04 RMK AO2
94908KDBQ DBQ20050620090509406/20/05 09:05:31  5-MIN KDBQ 201505Z 23005KT 10SM CLR 24/15 A3024 780 57  2000 230/05 RMK AO2
94908KDBQ DBQ20050620091009406/20/05 09:10:31  5-MIN KDBQ 201510Z 22005KT 10SM CLR 24/16 A3024 780 57  2100 220/05 RMK AO2
94908KDBQ DBQ20050620091509406/20/05 09:15:31  5-MIN KDBQ 201515Z 21003KT 10SM CLR 24/14 A3024 780 55  2000 210/03 RMK AO2
94908KDBQ DBQ20050620092009406/20/05 09:20:31  5-MIN KDBQ 201520Z VRB04KT 10SM CLR 24/15 A3024 780 55  2100 VRB/04 RMK AO2
94908KDBQ DBQ20050620092510906/20/05 09:25:31  5-MIN KDBQ 201525Z 19008KT 150V220 10SM CLR 24/15 A3024 790 55 2100 190/08 150V220 RMK AO2
94908KDBQ DBQ20050620093009406/20/05 09:30:31  5-MIN KDBQ 201530Z 20004KT 10SM CLR 24/14 A3024 790 53  2100 200/04 RMK AO2
94908KDBQ DBQ20050620093509406/20/05 09:35:31  5-MIN KDBQ 201535Z 23004KT 10SM CLR 24/14 A3024 780 51  2100 230/04 RMK AO2
94908KDBQ DBQ20050620094009406/20/05 09:40:31  5-MIN KDBQ 201540Z 23005KT 10SM CLR 24/14 A3024 780 53  2100 230/05 RMK AO2
94908KDBQ DBQ20050620094509406/20/05 09:45:31  5-MIN KDBQ 201545Z 20007KT 10SM CLR 24/15 A3024 780 55  2100 200/07 RMK AO2
94908KDBQ DBQ20050620095011106/20/05 09:50:31  5-MIN KDBQ 201550Z 00000KT 10SM CLR 24/14 A3024 780 53  2100 000/00 RMK AO2 SLP236 T02440144
94908KDBQ DBQ20050620095511106/20/05 09:55:31  5-MIN KDBQ 201555Z VRB04KT 10SM CLR 24/15 A3025 780 55  2100 VRB/04 RMK AO2 SLP238 T02440150
94908KDBQ DBQ20050620100009406/20/05 10:00:31  5-MIN KDBQ 201600Z VRB04KT 10SM CLR 24/14 A3024 780 51  2100 VRB/04 RMK AO2
94908KDBQ DBQ20050620100509406/20/05 10:05:31  5-MIN KDBQ 201605Z 22006KT 10SM CLR 25/15 A3024 780 53  2200 220/06 RMK AO2
94908KDBQ DBQ20050620101009406/20/05 10:10:31  5-MIN KDBQ 201610Z 21004KT 10SM CLR 24/15 A3024 780 55  2100 210/04 RMK AO2
94908KDBQ DBQ20050620101509406/20/05 10:15:31  5-MIN KDBQ 201615Z 00000KT 10SM CLR 25/14 A3024 790 51  2200 000/00 RMK AO2
94908KDBQ DBQ20050620102009406/20/05 10:20:31  5-MIN KDBQ 201620Z VRB03KT 10SM CLR 25/14 A3024 780 51  2200 VRB/03 RMK AO2
94908KDBQ DBQ20050620102509406/20/05 10:25:31  5-MIN KDBQ 201625Z 25004KT 10SM CLR 25/15 A3024 780 53  2200 250/04 RMK AO2
94908KDBQ DBQ20050620103009406/20/05 10:30:31  5-MIN KDBQ 201630Z 19005KT 10SM CLR 25/15 A3024 790 53  2200 190/05 RMK AO2
94908KDBQ DBQ20050620103509406/20/05 10:35:31  5-MIN KDBQ 201635Z 14003KT 10SM CLR 25/14 A3024 790 51  2200 140/03 RMK AO2
94908KDBQ DBQ20050620104009406/20/05 10:40:31  5-MIN KDBQ 201640Z 26007KT 10SM CLR 26/16 A3024 790 53  2200 260/07 RMK AO2
94908KDBQ DBQ20050620104509406/20/05 10:45:31  5-MIN KDBQ 201645Z VRB03KT 10SM CLR 25/14 A3024 790 51  2200 VRB/03 RMK AO2
94908KDBQ DBQ20050620105011106/20/05 10:50:31  5-MIN KDBQ 201650Z 29006KT 10SM CLR 26/14 A3023 790 49  2200 290/06 RMK AO2 SLP233 T02560144
94908KDBQ DBQ20050620105511106/20/05 10:55:31  5-MIN KDBQ 201655Z 00000KT 10SM CLR 26/14 A3023 790 49  2200 000/00 RMK AO2 SLP233 T02560144
94908KDBQ DBQ20050620110009406/20/05 11:00:31  5-MIN KDBQ 201700Z VRB03KT 10SM CLR 26/15 A3023 790 51  2200 VRB/03 RMK AO2
94908KDBQ DBQ20050620110509406/20/05 11:05:31  5-MIN KDBQ 201705Z 15003KT 10SM CLR 26/16 A3023 790 51  2300 150/03 RMK AO2
94908KDBQ DBQ20050620111009406/20/05 11:10:31  5-MIN KDBQ 201710Z 23008KT 10SM CLR 26/16 A3023 790 51  2300 230/08 RMK AO2
94908KDBQ DBQ20050620111509406/20/05 11:15:31  5-MIN KDBQ 201715Z 25005KT 10SM CLR 26/16 A3023 790 53  2200 250/05 RMK AO2
94908KDBQ DBQ20050620112009406/20/05 11:20:31  5-MIN KDBQ 201720Z VRB04KT 10SM CLR 26/15 A3023 790 51  2200 VRB/04 RMK AO2
94908KDBQ DBQ20050620112509406/20/05 11:25:31  5-MIN KDBQ 201725Z 20007KT 10SM CLR 26/14 A3023 790 49  2200 200/07 RMK AO2
94908KDBQ DBQ20050620113009406/20/05 11:30:31  5-MIN KDBQ 201730Z VRB03KT 10SM CLR 26/15 A3023 790 50  2300 VRB/03 RMK AO2
94908KDBQ DBQ20050620113509406/20/05 11:35:31  5-MIN KDBQ 201735Z 14005KT 10SM CLR 26/15 A3023 800 50  2300 140/05 RMK AO2
94908KDBQ DBQ20050620114009406/20/05 11:40:31  5-MIN KDBQ 201740Z VRB04KT 10SM CLR 26/14 A3023 790 48  2300 VRB/04 RMK AO2
94908KDBQ DBQ20050620114509406/20/05 11:45:31  5-MIN KDBQ 201745Z 19005KT 10SM CLR 26/15 A3023 800 50  2300 180/05 RMK AO2
94908KDBQ DBQ20050620115012906/20/05 11:50:31  5-MIN KDBQ 201750Z VRB05KT 10SM CLR 27/14 A3022 800 46  2400 VRB/05 RMK AO2 SLP229 T02670144 10267 20172 53005
94908KDBQ DBQ20050620115512906/20/05 11:55:31  5-MIN KDBQ 201755Z 22006KT 10SM CLR 27/16 A3022 800 50  2400 220/06 RMK AO2 SLP229 T02670156 10267 20172 58007
94908KDBQ DBQ20050620120009406/20/05 12:00:31  5-MIN KDBQ 201800Z 22006KT 10SM CLR 27/16 A3022 810 50  2400 220/06 RMK AO2
94908KDBQ DBQ20050620120509406/20/05 12:05:31  5-MIN KDBQ 201805Z VRB03KT 10SM CLR 26/15 A3022 810 50  2300 VRB/03 RMK AO2
94908KDBQ DBQ20050620121009406/20/05 12:10:31  5-MIN KDBQ 201810Z 22003KT 10SM CLR 26/15 A3021 810 50  2300 220/03 RMK AO2
94908KDBQ DBQ20050620121509406/20/05 12:15:31  5-MIN KDBQ 201815Z 22004KT 10SM CLR 26/15 A3021 810 50  2300 220/04 RMK AO2
94908KDBQ DBQ20050620122009406/20/05 12:20:31  5-MIN KDBQ 201820Z 22007KT 10SM CLR 27/15 A3021 810 48  2400 220/07 RMK AO2
94908KDBQ DBQ20050620122509406/20/05 12:25:31  5-MIN KDBQ 201825Z 24005KT 10SM CLR 27/15 A3021 820 48  2400 240/05 RMK AO2
94908KDBQ DBQ20050620123009406/20/05 12:30:31  5-MIN KDBQ 201830Z 18007KT 10SM CLR 27/14 A3020 820 46  2400 180/07 RMK AO2
94908KDBQ DBQ20050620123509406/20/05 12:35:31  5-MIN KDBQ 201835Z 17004KT 10SM CLR 27/14 A3020 820 46  2400 170/04 RMK AO2
94908KDBQ DBQ20050620124009406/20/05 12:40:31  5-MIN KDBQ 201840Z 20009KT 10SM CLR 27/14 A3019 830 45  2400 200/09 RMK AO2
94908KDBQ DBQ20050620124509406/20/05 12:45:31  5-MIN KDBQ 201845Z 21007KT 10SM CLR 27/14 A3019 830 45  2400 210/07 RMK AO2
94908KDBQ DBQ20050620125011806/20/05 12:50:31  5-MIN KDBQ 201850Z 20008KT 10SM CLR 27/14 A3018 840 43  2500 200/08 RMK AO2 PRESFR SLP215 T02720139
94908KDBQ DBQ20050620125511806/20/05 12:55:31  5-MIN KDBQ 201855Z 22010KT 10SM CLR 27/14 A3018 840 46  2400 220/10 RMK AO2 PRESFR SLP213 T02670144
94908KDBQ DBQ20050620130010106/20/05 13:00:31  5-MIN KDBQ 201900Z 21010KT 10SM CLR 27/14 A3017 850 45  2500 200/10 RMK AO2 PRESFR
94908KDBQ DBQ20050620130509406/20/05 13:05:31  5-MIN KDBQ 201905Z 24007KT 10SM CLR 27/15 A3016 850 46  2500 230/07 RMK AO2
94908KDBQ DBQ20050620131010106/20/05 13:10:31  5-MIN KDBQ 201910Z 21007KT 10SM CLR 27/16 A3016 860 48  2500 210/07 RMK AO2 PRESFR
94908KDBQ DBQ20050620131509406/20/05 13:15:31  5-MIN KDBQ 201915Z 22010KT 10SM CLR 27/16 A3015 860 48  2500 220/10 RMK AO2
94908KDBQ DBQ20050620132009406/20/05 13:20:31  5-MIN KDBQ 201920Z 24007KT 10SM CLR 27/15 A3015 870 46  2500 240/07 RMK AO2
94908KDBQ DBQ20050620132510906/20/05 13:25:31  5-MIN KDBQ 201925Z 22009KT 170V250 10SM CLR 27/16 A3015 870 48 2500 220/09 170V250 RMK AO2
94908KDBQ DBQ20050620133010906/20/05 13:30:31  5-MIN KDBQ 201930Z 19007KT 170V240 10SM CLR 28/17 A3015 860 50 2600 190/07 170V240 RMK AO2
94908KDBQ DBQ20050620133510006/20/05 13:35:31  5-MIN KDBQ 201935Z 22006G15KT 10SM CLR 27/16 A3015 870  48 2500 220/06G15 RMK AO2
94908KDBQ DBQ20050620134010006/20/05 13:40:31  5-MIN KDBQ 201940Z 20008G15KT 10SM CLR 28/16 A3015 870  46 2600 200/08G15 RMK AO2
94908KDBQ DBQ20050620134510006/20/05 13:45:31  5-MIN KDBQ 201945Z 20009G14KT 10SM CLR 28/16 A3015 870  46 2600 190/09G14 RMK AO2
94908KDBQ DBQ20050620135011706/20/05 13:50:31  5-MIN KDBQ 201950Z VRB06G14KT 10SM CLR 28/14 A3015 870  43 2600 VRB/06G14 RMK AO2 SLP204 T02780144
94908KDBQ DBQ20050620135511106/20/05 13:55:31  5-MIN KDBQ 201955Z 22008KT 10SM CLR 28/15 A3015 870 43  2600 220/08 RMK AO2 SLP204 T02830150
94908KDBQ DBQ20050620140009406/20/05 14:00:31  5-MIN KDBQ 202000Z 19010KT 10SM CLR 28/15 A3014 870 45  2600 190/10 RMK AO2
94908KDBQ DBQ20050620140509406/20/05 14:05:31  5-MIN KDBQ 202005Z 20008KT 10SM CLR 28/15 A3014 870 45  2600 200/08 RMK AO2
94908KDBQ DBQ20050620141009406/20/05 14:10:31  5-MIN KDBQ 202010Z 22010KT 10SM CLR 28/16 A3013 880 48  2600 210/10 RMK AO2
94908KDBQ DBQ20050620141509406/20/05 14:15:31  5-MIN KDBQ 202015Z 21011KT 10SM CLR 28/15 A3014 880 45  2600 210/11 RMK AO2
94908KDBQ DBQ20050620142009406/20/05 14:20:31  5-MIN KDBQ 202020Z 23009KT 10SM CLR 28/15 A3015 870 45  2600 230/09 RMK AO2
94908KDBQ DBQ20050620142509406/20/05 14:25:31  5-MIN KDBQ 202025Z 22010KT 10SM CLR 28/15 A3015 870 45  2600 220/10 RMK AO2
94908KDBQ DBQ20050620143009406/20/05 14:30:31  5-MIN KDBQ 202030Z 24008KT 10SM CLR 28/16 A3015 870 46  2600 240/08 RMK AO2
94908KDBQ DBQ20050620143509406/20/05 14:35:31  5-MIN KDBQ 202035Z 23009KT 10SM CLR 28/16 A3016 860 46  2600 230/09 RMK AO2
94908KDBQ DBQ20050620144009406/20/05 14:40:31  5-MIN KDBQ 202040Z 21011KT 10SM CLR 28/16 A3015 860 45  2600 210/11 RMK AO2
94908KDBQ DBQ20050620144509406/20/05 14:45:31  5-MIN KDBQ 202045Z 20006KT 10SM CLR 28/15 A3016 860 45  2600 200/06 RMK AO2
94908KDBQ DBQ20050620145011706/20/05 14:50:31  5-MIN KDBQ 202050Z 22010KT 10SM CLR 28/16 A3016 860 45  2600 220/10 RMK AO2 SLP208 T02830156 58007
94908KDBQ DBQ20050620145511706/20/05 14:55:31  5-MIN KDBQ 202055Z 24009KT 10SM CLR 28/16 A3016 860 46  2600 240/09 RMK AO2 SLP208 T02780156 55020
94908KDBQ DBQ20050620150009406/20/05 15:00:31  5-MIN KDBQ 202100Z 24007KT 10SM CLR 28/16 A3016 850 46  2600 240/07 RMK AO2
94908KDBQ DBQ20050620150509406/20/05 15:05:31  5-MIN KDBQ 202105Z 23008KT 10SM CLR 28/15 A3016 860 45  2600 230/08 RMK AO2
94908KDBQ DBQ20050620151009406/20/05 15:10:31  5-MIN KDBQ 202110Z 19008KT 10SM CLR 28/14 A3015 870 42  2600 190/08 RMK AO2
94908KDBQ DBQ20050620151509406/20/05 15:15:31  5-MIN KDBQ 202115Z 22006KT 10SM CLR 28/15 A3014 870 45  2600 220/06 RMK AO2
94908KDBQ DBQ20050620152010006/20/05 15:20:31  5-MIN KDBQ 202120Z 20010G14KT 10SM CLR 28/15 A3014 880  43 2600 200/10G14 RMK AO2
94908KDBQ DBQ20050620152510006/20/05 15:25:31  5-MIN KDBQ 202125Z 20009G14KT 10SM CLR 28/15 A3014 870  43 2600 200/09G14 RMK AO2
94908KDBQ DBQ20050620153009406/20/05 15:30:31  5-MIN KDBQ 202130Z 21010KT 10SM CLR 28/14 A3014 880 42  2600 210/10 RMK AO2
94908KDBQ DBQ20050620153509406/20/05 15:35:31  5-MIN KDBQ 202135Z 23007KT 10SM CLR 28/15 A3015 870 45  2600 230/07 RMK AO2
94908KDBQ DBQ20050620154009406/20/05 15:40:31  5-MIN KDBQ 202140Z 22009KT 10SM CLR 28/15 A3015 870 43  2600 220/09 RMK AO2
94908KDBQ DBQ20050620154509406/20/05 15:45:31  5-MIN KDBQ 202145Z 24005KT 10SM CLR 28/14 A3016 860 42  2600 240/05 RMK AO2
94908KDBQ DBQ20050620155011106/20/05 15:50:31  5-MIN KDBQ 202150Z 23006KT 10SM CLR 28/14 A3016 860 43  2600 220/06 RMK AO2 SLP209 T02780144
94908KDBQ DBQ20050620155511106/20/05 15:55:31  5-MIN KDBQ 202155Z 25007KT 10SM CLR 28/15 A3016 860 43  2600 250/07 RMK AO2 SLP209 T02830150
94908KDBQ DBQ20050620160009406/20/05 16:00:31  5-MIN KDBQ 202200Z 24007KT 10SM CLR 28/15 A3016 850 43  2600 240/07 RMK AO2
94908KDBQ DBQ20050620160509406/20/05 16:05:31  5-MIN KDBQ 202205Z 28005KT 10SM CLR 28/15 A3016 850 45  2600 280/05 RMK AO2
94908KDBQ DBQ20050620161009406/20/05 16:10:31  5-MIN KDBQ 202210Z 31005KT 10SM CLR 29/14 A3016 860 40  2700 310/05 RMK AO2
94908KDBQ DBQ20050620161509406/20/05 16:15:31  5-MIN KDBQ 202215Z 23008KT 10SM CLR 28/15 A3016 860 43  2600 230/08 RMK AO2
94908KDBQ DBQ20050620162009406/20/05 16:20:31  5-MIN KDBQ 202220Z 21005KT 10SM CLR 28/15 A3016 860 45  2600 210/05 RMK AO2
94908KDBQ DBQ20050620162509406/20/05 16:25:31  5-MIN KDBQ 202225Z 24005KT 10SM CLR 28/15 A3016 860 45  2600 240/05 RMK AO2
94908KDBQ DBQ20050620163009406/20/05 16:30:31  5-MIN KDBQ 202230Z 31006KT 10SM CLR 28/15 A3016 850 43  2600 310/06 RMK AO2
94908KDBQ DBQ20050620163509406/20/05 16:35:31  5-MIN KDBQ 202235Z 27004KT 10SM CLR 28/14 A3016 860 42  2600 270/04 RMK AO2
94908KDBQ DBQ20050620164009406/20/05 16:40:31  5-MIN KDBQ 202240Z 29005KT 10SM CLR 28/14 A3017 850 40  2600 290/05 RMK AO2
94908KDBQ DBQ20050620164509406/20/05 16:45:31  5-MIN KDBQ 202245Z 31005KT 10SM CLR 29/14 A3016 850 39  2700 310/05 RMK AO2
94908KDBQ DBQ20050620165011106/20/05 16:50:31  5-MIN KDBQ 202250Z 32008KT 10SM CLR 29/13 A3017 850 38  2700 320/08 RMK AO2 SLP210 T02890133
94908KDBQ DBQ20050620165511106/20/05 16:55:31  5-MIN KDBQ 202255Z 32005KT 10SM CLR 29/13 A3017 850 38  2700 320/05 RMK AO2 SLP211 T02890133
94908KDBQ DBQ20050620170009406/20/05 17:00:31  5-MIN KDBQ 202300Z 33007KT 10SM CLR 29/14 A3017 850 39  2700 330/07 RMK AO2
94908KDBQ DBQ20050620170509406/20/05 17:05:31  5-MIN KDBQ 202305Z 32005KT 10SM CLR 29/14 A3017 850 39  2700 320/05 RMK AO2
94908KDBQ DBQ20050620171009406/20/05 17:10:31  5-MIN KDBQ 202310Z 35007KT 10SM CLR 29/14 A3017 850 40  2700 350/07 RMK AO2
94908KDBQ DBQ20050620171509406/20/05 17:15:31  5-MIN KDBQ 202315Z 34007KT 10SM CLR 29/14 A3017 850 40  2700 340/07 RMK AO2
94908KDBQ DBQ20050620172009406/20/05 17:20:31  5-MIN KDBQ 202320Z 33007KT 10SM CLR 28/14 A3018 840 42  2600 330/07 RMK AO2
94908KDBQ DBQ20050620172509406/20/05 17:25:31  5-MIN KDBQ 202325Z 36007KT 10SM CLR 29/14 A3018 840 40  2700 360/07 RMK AO2
94908KDBQ DBQ20050620173009406/20/05 17:30:31  5-MIN KDBQ 202330Z 35007KT 10SM CLR 28/14 A3018 840 42  2600 350/07 RMK AO2
94908KDBQ DBQ20050620173509406/20/05 17:35:31  5-MIN KDBQ 202335Z 34007KT 10SM CLR 28/15 A3018 840 43  2600 340/07 RMK AO2
94908KDBQ DBQ20050620174009406/20/05 17:40:31  5-MIN KDBQ 202340Z 34005KT 10SM CLR 28/15 A3018 840 43  2600 340/05 RMK AO2
94908KDBQ DBQ20050620174509406/20/05 17:45:31  5-MIN KDBQ 202345Z 36004KT 10SM CLR 28/15 A3018 840 43  2600 350/04 RMK AO2
94908KDBQ DBQ20050620175014206/20/05 17:50:31  5-MIN KDBQ 202350Z 35006KT 10SM CLR 28/16 A3018 830 45  2600 350/06 RMK AO2 SLP216 T02830156 10289 2026 10SM CLR 28/1555020
94908KDBQ DBQ20050620175514306/20/05 17:55:31  5-MIN KDBQ 202355Z 35005KT 10SM CLR 28/15 A3018 840 43  2600 350/05 RMK AO2 SLP215 T02830150 10289 202 10SM CLR 28/155 53006
94908KDBQ DBQ20050620203510306/20/05 20:35:31  5-MIN KDBQ 210235Z AUTO 24008KT 10SM CLR 23/16 A3013 890 63 2000 240/08 RMK AO2 TSNO
94908KDBQ DBQ20050620204010306/20/05 20:40:31  5-MIN KDBQ 210240Z AUTO 25008KT 10SM CLR 22/16 A3013 880 68 1900 250/08 RMK AO2 TSNO
94908KDBQ DBQ20050620204510306/20/05 20:45:31  5-MIN KDBQ 210245Z AUTO 25010KT 10SM CLR 23/15 A3013 890 61 2000 250/10 RMK AO2 TSNO
94908KDBQ DBQ20050620205012606/20/05 20:50:31  5-MIN KDBQ 210250Z AUTO 25011KT 10SM CLR 23/15 A3012 890 59 2100 250/11 RMK AO2 SLP194 T02330150 53006 TSNO
94908KDBQ DBQ20050620205512606/20/05 20:55:31  5-MIN KDBQ 210255Z AUTO 25011KT 10SM CLR 23/15 A3012 900 59 2100 250/11 RMK AO2 SLP192 T02330150 58022 TSNO
94908KDBQ DBQ20050620210010306/20/05 21:00:31  5-MIN KDBQ 210300Z AUTO 25011KT 10SM CLR 23/15 A3011 900 59 2100 250/11 RMK AO2 TSNO
94908KDBQ DBQ20050620210510306/20/05 21:05:31  5-MIN KDBQ 210305Z AUTO 24009KT 10SM CLR 23/15 A3011 910 61 2100 240/09 RMK AO2 TSNO
94908KDBQ DBQ20050620211010306/20/05 21:10:31  5-MIN KDBQ 210310Z AUTO 25008KT 10SM CLR 23/15 A3011 900 61 2100 240/08 RMK AO2 TSNO
94908KDBQ DBQ20050620211510306/20/05 21:15:31  5-MIN KDBQ 210315Z AUTO 25009KT 10SM CLR 23/15 A3010 910 61 2100 250/09 RMK AO2 TSNO
94908KDBQ DBQ20050620212011006/20/05 21:20:31  5-MIN KDBQ 210320Z AUTO 24010KT 10SM CLR 23/15 A3009 920 59 2100 240/10 RMK AO2 PRESFR TSNO
94908KDBQ DBQ20050620212511006/20/05 21:25:31  5-MIN KDBQ 210325Z AUTO 24010KT 10SM CLR 23/15 A3008 930 59 2100 240/10 RMK AO2 PRESFR TSNO
94908KDBQ DBQ20050620213011006/20/05 21:30:31  5-MIN KDBQ 210330Z AUTO 23011KT 10SM CLR 23/15 A3007 940 61 2100 230/11 RMK AO2 PRESFR TSNO
94908KDBQ DBQ20050620213510306/20/05 21:35:31  5-MIN KDBQ 210335Z AUTO 22010KT 10SM CLR 23/15 A3007 940 61 2100 220/10 RMK AO2 TSNO
94908KDBQ DBQ20050620214010306/20/05 21:40:31  5-MIN KDBQ 210340Z AUTO 23010KT 10SM CLR 23/15 A3006 950 61 2100 230/10 RMK AO2 TSNO
94908KDBQ DBQ20050620214511006/20/05 21:45:31  5-MIN KDBQ 210345Z AUTO 23009KT 10SM CLR 22/15 A3006 950 63 2100 230/09 RMK AO2 PRESFR TSNO
94908KDBQ DBQ20050620215012006/20/05 21:50:31  5-MIN KDBQ 210350Z AUTO 22009KT 10SM CLR 22/15 A3005 960 63 2100 220/09 RMK AO2 SLP170 T02220150 TSNO
94908KDBQ DBQ20050620215512006/20/05 21:55:31  5-MIN KDBQ 210355Z AUTO 21009KT 10SM CLR 22/15 A3005 960 63 2100 210/09 RMK AO2 SLP168 T02220150 TSNO
94908KDBQ DBQ20050620220011006/20/05 22:00:31  5-MIN KDBQ 210400Z AUTO 21010KT 10SM CLR 22/14 A3004 970 61 2100 210/10 RMK AO2 PRESFR TSNO
94908KDBQ DBQ20050620220511006/20/05 22:05:31  5-MIN KDBQ 210405Z AUTO 21010KT 10SM CLR 22/14 A3004 970 61 2100 210/10 RMK AO2 PRESFR TSNO
94908KDBQ DBQ20050620221011006/20/05 22:10:31  5-MIN KDBQ 210410Z AUTO 21011KT 10SM CLR 23/14 A3003 980 59 2100 210/11 RMK AO2 PRESFR TSNO
94908KDBQ DBQ20050620221510306/20/05 22:15:31  5-MIN KDBQ 210415Z AUTO 21009KT 10SM CLR 23/14 A3003 980 59 2100 210/09 RMK AO2 TSNO
94908KDBQ DBQ20050620222010306/20/05 22:20:31  5-MIN KDBQ 210420Z AUTO 21009KT 10SM CLR 23/14 A3002 980 59 2200 210/09 RMK AO2 TSNO
94908KDBQ DBQ20050620222510306/20/05 22:25:31  5-MIN KDBQ 210425Z AUTO 21009KT 10SM CLR 22/14 A3002 980 61 2100 200/09 RMK AO2 TSNO
94908KDBQ DBQ20050620223010306/20/05 22:30:31  5-MIN KDBQ 210430Z AUTO 19008KT 10SM CLR 22/14 A3002 990 61 2100 190/08 RMK AO2 TSNO
94908KDBQ DBQ20050620223510306/20/05 22:35:31  5-MIN KDBQ 210435Z AUTO 20008KT 10SM CLR 22/14 A3002 980 61 2100 200/08 RMK AO2 TSNO
94908KDBQ DBQ20050620224010306/20/05 22:40:31  5-MIN KDBQ 210440Z AUTO 21009KT 10SM CLR 22/14 A3001 990 61 2100 210/09 RMK AO2 TSNO
94908KDBQ DBQ20050620224510306/20/05 22:45:31  5-MIN KDBQ 210445Z AUTO 21009KT 10SM CLR 22/14 A3001 990 63 2000 210/09 RMK AO2 TSNO
94908KDBQ DBQ20050620225012206/20/05 22:50:31  5-MIN KDBQ 210450Z AUTO 22008KT 10SM CLR 22/14 A3001  1000 63 2000 220/08 RMK AO2 SLP156 T02170144 TSNO
94908KDBQ DBQ20050620225512006/20/05 22:55:31  5-MIN KDBQ 210455Z AUTO 22006KT 10SM CLR 21/14 A3003 980 65 2000 210/06 RMK AO2 SLP162 T02110144 TSNO
94908KDBQ DBQ20050620230011006/20/05 23:00:31  5-MIN KDBQ 210500Z AUTO 19004KT 10SM CLR 21/14 A3004 970 65 1900 190/04 RMK AO2 PRESRR TSNO
94908KDBQ DBQ20050620230511006/20/05 23:05:31  5-MIN KDBQ 210505Z AUTO 14005KT 10SM CLR 21/14 A3005 960 65 1900 140/05 RMK AO2 PRESRR TSNO
94908KDBQ DBQ20050620231010306/20/05 23:10:31  5-MIN KDBQ 210510Z AUTO 10005KT 10SM CLR 22/14 A3005 960 63 2000 100/05 RMK AO2 TSNO
94908KDBQ DBQ20050620231510306/20/05 23:15:31  5-MIN KDBQ 210515Z AUTO 10007KT 10SM CLR 21/14 A3006 950 67 1900 100/07 RMK AO2 TSNO
94908KDBQ DBQ20050620232010306/20/05 23:20:31  5-MIN KDBQ 210520Z AUTO 06008KT 10SM CLR 21/14 A3006 950 65 1900 060/08 RMK AO2 TSNO
94908KDBQ DBQ20050620232510306/20/05 23:25:31  5-MIN KDBQ 210525Z AUTO 02010KT 10SM CLR 21/15 A3007 940 70 1800 020/10 RMK AO2 TSNO
94908KDBQ DBQ20050620233011006/20/05 23:30:31  5-MIN KDBQ 210530Z AUTO 02008KT 10SM CLR 21/14 A3009 930 65 1900 020/08 RMK AO2 PRESRR TSNO
94908KDBQ DBQ20050620233510306/20/05 23:35:31  5-MIN KDBQ 210535Z AUTO 03006KT 10SM CLR 21/14 A3008 930 67 1800 030/06 RMK AO2 TSNO
94908KDBQ DBQ20050620234010306/20/05 23:40:31  5-MIN KDBQ 210540Z AUTO 00000KT 10SM CLR 21/14 A3007 940 65 1900 000/00 RMK AO2 TSNO
94908KDBQ DBQ20050620234510306/20/05 23:45:31  5-MIN KDBQ 210545Z AUTO 00000KT 10SM CLR 21/14 A3008 930 67 1800 000/00 RMK AO2 TSNO
94908KDBQ DBQ20050620235014806/20/05 23:50:31  5-MIN KDBQ 210550Z AUTO 00000KT 10SM CLR 20/14 A3008 930 70 1800 000/00 RMK AO2 SLP179 T02000144 10283 20200 402890128 58022 TSNO
94908KDBQ DBQ20050620235514806/20/05 23:55:31  5-MIN KDBQ 210555Z AUTO 04004KT 10SM CLR 20/14 A3010 920 70 1800 040/04 RMK AO2 SLP185 T02000144 10283 20194 402890128 55006 TSNO
94908KDBQ DBQ20050621000010306/21/05 00:00:38  5-MIN KDBQ 210600Z AUTO 06004KT 10SM CLR 19/14 A3010 920 72 1700 060/04 RMK AO2 TSNO
94908KDBQ DBQ20050621000510306/21/05 00:05:31  5-MIN KDBQ 210605Z AUTO 11004KT 10SM CLR 19/14 A3009 920 75 1600 110/04 RMK AO2 TSNO
94908KDBQ DBQ20050621001010306/21/05 00:10:31  5-MIN KDBQ 210610Z AUTO 13004KT 10SM CLR 19/15 A3009 920 78 1600 130/04 RMK AO2 TSNO
94908KDBQ DBQ20050621001510306/21/05 00:15:31  5-MIN KDBQ 210615Z AUTO 16003KT 10SM CLR 19/15 A3009 920 75 1700 160/03 RMK AO2 TSNO
94908KDBQ DBQ20050621002010306/21/05 00:20:31  5-MIN KDBQ 210620Z AUTO 00000KT 10SM CLR 19/14 A3009 920 75 1600 000/00 RMK AO2 TSNO
94908KDBQ DBQ20050621002510306/21/05 00:25:31  5-MIN KDBQ 210625Z AUTO 00000KT 10SM CLR 18/14 A3009 920 78 1600 000/00 RMK AO2 TSNO
94908KDBQ DBQ20050621003010306/21/05 00:30:31  5-MIN KDBQ 210630Z AUTO 00000KT 10SM CLR 18/14 A3008 930 81 1500 000/00 RMK AO2 TSNO
94908KDBQ DBQ20050621003510306/21/05 00:35:31  5-MIN KDBQ 210635Z AUTO 00000KT 10SM CLR 18/14 A3009 920 78 1600 000/00 RMK AO2 TSNO
94908KDBQ DBQ20050621004010306/21/05 00:40:31  5-MIN KDBQ 210640Z AUTO 19003KT 10SM CLR 18/15 A3008 930 81 1600 180/03 RMK AO2 TSNO
94908KDBQ DBQ20050621004510306/21/05 00:45:31  5-MIN KDBQ 210645Z AUTO 20003KT 10SM CLR 18/15 A3009 920 81 1600 200/03 RMK AO2 TSNO
94908KDBQ DBQ20050621005012006/21/05 00:50:31  5-MIN KDBQ 210650Z AUTO 20004KT 10SM CLR 19/14 A3008 930 75 1600 200/04 RMK AO2 SLP181 T01890144 TSNO
94908KDBQ DBQ20050621005512006/21/05 00:55:31  5-MIN KDBQ 210655Z AUTO 21005KT 10SM CLR 19/14 A3008 930 75 1600 200/05 RMK AO2 SLP182 T01890144 TSNO
94908KDBQ DBQ20050621010010306/21/05 01:00:31  5-MIN KDBQ 210700Z AUTO 20004KT 10SM CLR 19/15 A3008 930 75 1700 200/04 RMK AO2 TSNO
94908KDBQ DBQ20050621010510306/21/05 01:05:31  5-MIN KDBQ 210705Z AUTO 00000KT 10SM CLR 19/15 A3008 930 78 1600 000/00 RMK AO2 TSNO
94908KDBQ DBQ20050621011010306/21/05 01:10:31  5-MIN KDBQ 210710Z AUTO 16005KT 10SM CLR 19/15 A3009 920 75 1700 160/05 RMK AO2 TSNO
94908KDBQ DBQ20050621011510306/21/05 01:15:31  5-MIN KDBQ 210715Z AUTO 00000KT 10SM CLR 19/14 A3008 930 75 1600 000/00 RMK AO2 TSNO
94908KDBQ DBQ20050621012010306/21/05 01:20:31  5-MIN KDBQ 210720Z AUTO 00000KT 10SM CLR 18/15 A3008 930 81 1600 000/00 RMK AO2 TSNO
94908KDBQ DBQ20050621012510306/21/05 01:25:31  5-MIN KDBQ 210725Z AUTO 28004KT 10SM CLR 17/14 A3009 930 83 1400 280/04 RMK AO2 TSNO
94908KDBQ DBQ20050621013010306/21/05 01:30:31  5-MIN KDBQ 210730Z AUTO 25003KT 10SM CLR 18/14 A3010 920 81 1500 250/03 RMK AO2 TSNO
94908KDBQ DBQ20050621013510306/21/05 01:35:31  5-MIN KDBQ 210735Z AUTO 23004KT 10SM CLR 18/15 A3009 920 81 1600 230/04 RMK AO2 TSNO
94908KDBQ DBQ20050621014010306/21/05 01:40:31  5-MIN KDBQ 210740Z AUTO 00000KT 10SM CLR 18/15 A3009 930 81 1600 000/00 RMK AO2 TSNO
94908KDBQ DBQ20050621014510306/21/05 01:45:31  5-MIN KDBQ 210745Z AUTO 00000KT 10SM CLR 18/14 A3009 920 81 1500 000/00 RMK AO2 TSNO
94908KDBQ DBQ20050621015012006/21/05 01:50:31  5-MIN KDBQ 210750Z AUTO 00000KT 10SM CLR 18/14 A3009 920 78 1600 000/00 RMK AO2 SLP183 T01830144 TSNO
94908KDBQ DBQ20050621015512006/21/05 01:55:31  5-MIN KDBQ 210755Z AUTO 00000KT 10SM CLR 18/15 A3010 910 81 1600 000/00 RMK AO2 SLP187 T01830150 TSNO
94908KDBQ DBQ20050621020010306/21/05 02:00:31  5-MIN KDBQ 210800Z AUTO 00000KT 10SM CLR 18/14 A3009 920 81 1500 000/00 RMK AO2 TSNO
94908KDBQ DBQ20050621020510306/21/05 02:05:31  5-MIN KDBQ 210805Z AUTO 00000KT 10SM CLR 18/14 A3009 920 81 1500 000/00 RMK AO2 TSNO
94908KDBQ DBQ20050621021010306/21/05 02:10:31  5-MIN KDBQ 210810Z AUTO 24003KT 10SM CLR 18/14 A3010 910 81 1500 240/03 RMK AO2 TSNO
94908KDBQ DBQ20050621021510306/21/05 02:15:31  5-MIN KDBQ 210815Z AUTO 25004KT 10SM CLR 17/14 A3010 910 83 1400 250/04 RMK AO2 TSNO
94908KDBQ DBQ20050621022010306/21/05 02:20:31  5-MIN KDBQ 210820Z AUTO 24004KT 10SM CLR 17/14 A3011 910 83 1400 240/04 RMK AO2 TSNO
94908KDBQ DBQ20050621022510306/21/05 02:25:31  5-MIN KDBQ 210825Z AUTO 23003KT 10SM CLR 18/14 A3010 910 81 1500 230/03 RMK AO2 TSNO
94908KDBQ DBQ20050621023010306/21/05 02:30:31  5-MIN KDBQ 210830Z AUTO 22003KT 10SM CLR 17/14 A3010 910 83 1400 220/03 RMK AO2 TSNO
94908KDBQ DBQ20050621023510306/21/05 02:35:31  5-MIN KDBQ 210835Z AUTO 22004KT 10SM CLR 17/14 A3010 910 83 1400 210/04 RMK AO2 TSNO
94908KDBQ DBQ20050621024010306/21/05 02:40:31  5-MIN KDBQ 210840Z AUTO 22003KT 10SM CLR 17/14 A3010 910 83 1400 220/03 RMK AO2 TSNO
94908KDBQ DBQ20050621024510306/21/05 02:45:31  5-MIN KDBQ 210845Z AUTO 21003KT 10SM CLR 18/14 A3010 910 81 1500 210/03 RMK AO2 TSNO
94908KDBQ DBQ20050621025012606/21/05 02:50:31  5-MIN KDBQ 210850Z AUTO 21005KT 10SM CLR 17/14 A3009 920 83 1400 210/05 RMK AO2 SLP184 T01720144 55006 TSNO
94908KDBQ DBQ20050621025512606/21/05 02:55:31  5-MIN KDBQ 210855Z AUTO 22004KT 10SM CLR 17/14 A3009 920 83 1400 220/04 RMK AO2 SLP184 T01720144 57002 TSNO
94908KDBQ DBQ20050621030010306/21/05 03:00:31  5-MIN KDBQ 210900Z AUTO 24004KT 10SM CLR 17/14 A3010 920 83 1400 240/04 RMK AO2 TSNO
94908KDBQ DBQ20050621030510306/21/05 03:05:31  5-MIN KDBQ 210905Z AUTO 23003KT 10SM CLR 17/14 A3010 910 86 1400 230/03 RMK AO2 TSNO
94908KDBQ DBQ20050621031010306/21/05 03:10:31  5-MIN KDBQ 210910Z AUTO 23004KT 10SM CLR 17/14 A3009 920 86 1400 230/04 RMK AO2 TSNO
94908KDBQ DBQ20050621031510306/21/05 03:15:31  5-MIN KDBQ 210915Z AUTO 21004KT 10SM CLR 17/14 A3009 920 83 1400 210/04 RMK AO2 TSNO
94908KDBQ DBQ20050621032010306/21/05 03:20:31  5-MIN KDBQ 210920Z AUTO 20005KT 10SM CLR 17/14 A3009 920 86 1400 200/05 RMK AO2 TSNO
94908KDBQ DBQ20050621032510306/21/05 03:25:31  5-MIN KDBQ 210925Z AUTO 22004KT 10SM CLR 17/14 A3009 920 83 1400 210/04 RMK AO2 TSNO
94908KDBQ DBQ20050621033010306/21/05 03:30:31  5-MIN KDBQ 210930Z AUTO 21004KT 10SM CLR 17/14 A3009 920 83 1400 210/04 RMK AO2 TSNO
94908KDBQ DBQ20050621033510306/21/05 03:35:31  5-MIN KDBQ 210935Z AUTO 21005KT 10SM CLR 17/14 A3009 930 83 1400 210/05 RMK AO2 TSNO
94908KDBQ DBQ20050621034010306/21/05 03:40:31  5-MIN KDBQ 210940Z AUTO 22005KT 10SM CLR 17/14 A3009 930 83 1400 220/05 RMK AO2 TSNO
94908KDBQ DBQ20050621034510306/21/05 03:45:31  5-MIN KDBQ 210945Z AUTO 23004KT 10SM CLR 17/14 A3009 930 86 1400 220/04 RMK AO2 TSNO
94908KDBQ DBQ20050621035012006/21/05 03:50:31  5-MIN KDBQ 210950Z AUTO 23005KT 10SM CLR 17/14 A3010 910 86 1400 230/05 RMK AO2 SLP186 T01670144 TSNO
94908KDBQ DBQ20050621035512006/21/05 03:55:31  5-MIN KDBQ 210955Z AUTO 22005KT 10SM CLR 17/14 A3009 920 86 1400 220/05 RMK AO2 SLP184 T01670144 TSNO
94908KDBQ DBQ20050621040010306/21/05 04:00:31  5-MIN KDBQ 211000Z AUTO 22004KT 10SM CLR 17/14 A3010 920 86 1400 220/04 RMK AO2 TSNO
94908KDBQ DBQ20050621040510306/21/05 04:05:31  5-MIN KDBQ 211005Z AUTO 21003KT 10SM CLR 17/14 A3010 910 86 1400 210/03 RMK AO2 TSNO
94908KDBQ DBQ20050621041010306/21/05 04:10:31  5-MIN KDBQ 211010Z AUTO 20003KT 10SM CLR 17/14 A3010 910 86 1400 200/03 RMK AO2 TSNO
94908KDBQ DBQ20050621041510206/21/05 04:15:31  5-MIN KDBQ 211015Z AUTO 20004KT 9SM CLR 17/15 A3011 910 90 1400 200/04 RMK AO2 TSNO
94908KDBQ DBQ20050621042010206/21/05 04:20:31  5-MIN KDBQ 211020Z AUTO 20003KT 8SM CLR 17/15 A3011 900 90 1300 200/03 RMK AO2 TSNO
94908KDBQ DBQ20050621042510206/21/05 04:25:31  5-MIN KDBQ 211025Z AUTO 00000KT 8SM CLR 17/15 A3011 900 87 1400 000/00 RMK AO2 TSNO
94908KDBQ DBQ20050621043010206/21/05 04:30:31  5-MIN KDBQ 211030Z AUTO 00000KT 9SM CLR 17/15 A3011 900 90 1300 000/00 RMK AO2 TSNO
94908KDBQ DBQ20050621043510206/21/05 04:35:31  5-MIN KDBQ 211035Z AUTO 00000KT 9SM CLR 18/15 A3011 900 83 1500 000/00 RMK AO2 TSNO
94908KDBQ DBQ20050621044010306/21/05 04:40:31  5-MIN KDBQ 211040Z AUTO 26003KT 10SM CLR 18/15 A3010 910 81 1500 260/03 RMK AO2 TSNO
94908KDBQ DBQ20050621044510306/21/05 04:45:31  5-MIN KDBQ 211045Z AUTO 23004KT 10SM CLR 17/15 A3010 910 87 1400 230/04 RMK AO2 TSNO
94908KDBQ DBQ20050621045012006/21/05 04:50:31  5-MIN KDBQ 211050Z AUTO 26005KT 10SM CLR 18/15 A3010 910 83 1500 260/05 RMK AO2 SLP186 T01780150 TSNO
94908KDBQ DBQ20050621045511106/21/05 04:55:31  5-MIN KDBQ 211055Z 24005KT 10SM CLR 18/15 A3010 920 83  1500 240/05 RMK AO2 SLP185 T01780150
94908KDBQ DBQ20050621050009306/21/05 05:00:31  5-MIN KDBQ 211100Z 24005KT 9SM CLR 18/15 A3009 920 83  1500 240/05 RMK AO2
94908KDBQ DBQ20050621050509306/21/05 05:05:31  5-MIN KDBQ 211105Z 23007KT 9SM CLR 18/15 A3009 920 83  1500 230/07 RMK AO2
94908KDBQ DBQ20050621051009306/21/05 05:10:31  5-MIN KDBQ 211110Z 24008KT 9SM CLR 18/15 A3009 920 83  1500 240/08 RMK AO2
94908KDBQ DBQ20050621051509306/21/05 05:15:31  5-MIN KDBQ 211115Z 24005KT 9SM CLR 18/16 A3009 920 87  1500 230/05 RMK AO2
94908KDBQ DBQ20050621052009306/21/05 05:20:31  5-MIN KDBQ 211120Z 24004KT 9SM CLR 18/16 A3009 920 87  1500 240/04 RMK AO2
94908KDBQ DBQ20050621052509306/21/05 05:25:31  5-MIN KDBQ 211125Z 23004KT 9SM CLR 18/16 A3010 910 87  1500 230/04 RMK AO2
94908KDBQ DBQ20050621053009506/21/05 05:30:31  5-MIN KDBQ 211130Z 23003KT 9SM FEW100 18/16 A3010 910 87 1600 230/03 RMK AO2
94908KDBQ DBQ20050621053509506/21/05 05:35:31  5-MIN KDBQ 211135Z 24004KT 9SM FEW100 19/16 A3010 910 84 1600 240/04 RMK AO2
94908KDBQ DBQ20050621054009706/21/05 05:40:31  5-MIN KDBQ 211140Z 23004KT 10SM FEW100 19/16 A3010 910  84 1600 230/04 RMK AO2
94908KDBQ DBQ20050621054509706/21/05 05:45:31  5-MIN KDBQ 211145Z 23004KT 10SM SCT100 19/16 A3010 910  84 1600 230/04 RMK AO2
94908KDBQ DBQ20050621055013206/21/05 05:50:31  5-MIN KDBQ 211150Z 00000KT 10SM SCT100 19/16 A3011 910  81 1700 000/00 RMK AO2 SLP189 T01940161 10200 20167 57002
94908KDBQ DBQ20050621055513206/21/05 05:55:31  5-MIN KDBQ 211155Z 04003KT 10SM FEW100 19/17 A3011 910  84 1700 040/03 RMK AO2 SLP189 T01940167 10200 20167 53006
94908KDBQ DBQ20050621060009706/21/05 06:00:31  5-MIN KDBQ 211200Z 03004KT 10SM FEW100 20/17 A3011 910  81 1700 030/04 RMK AO2
94908KDBQ DBQ20050621060509706/21/05 06:05:31  5-MIN KDBQ 211205Z 00000KT 10SM FEW095 20/17 A3011 910  81 1700 000/00 RMK AO2
94908KDBQ DBQ20050621061009706/21/05 06:10:31  5-MIN KDBQ 211210Z 01003KT 10SM SCT090 21/16 A3010 910  75 1800 010/03 RMK AO2
94908KDBQ DBQ20050621061509706/21/05 06:15:31  5-MIN KDBQ 211215Z 01003KT 10SM SCT090 21/17 A3011 910  78 1800 010/03 RMK AO2
94908KDBQ DBQ20050621062009706/21/05 06:20:31  5-MIN KDBQ 211220Z 01005KT 10SM SCT090 21/17 A3011 900  78 1800 010/05 RMK AO2
94908KDBQ DBQ20050621062509706/21/05 06:25:31  5-MIN KDBQ 211225Z 01006KT 10SM BKN090 21/17 A3011 900  78 1800 360/06 RMK AO2
94908KDBQ DBQ20050621063009706/21/05 06:30:31  5-MIN KDBQ 211230Z 01006KT 10SM BKN090 21/17 A3011 900  78 1800 010/06 RMK AO2
94908KDBQ DBQ20050621063509706/21/05 06:35:31  5-MIN KDBQ 211235Z 01006KT 10SM BKN090 21/17 A3011 900  78 1800 010/06 RMK AO2
94908KDBQ DBQ20050621064009706/21/05 06:40:31  5-MIN KDBQ 211240Z 01005KT 10SM BKN090 21/17 A3011 900  78 1800 010/05 RMK AO2
94908KDBQ DBQ20050621064509706/21/05 06:45:31  5-MIN KDBQ 211245Z 01008KT 10SM BKN090 21/17 A3011 900  78 1800 010/08 RMK AO2
94908KDBQ DBQ20050621065011406/21/05 06:50:31  5-MIN KDBQ 211250Z 01007KT 10SM BKN090 21/17 A3011 900  78 1900 010/07 RMK AO2 SLP190 T02110172
94908KDBQ DBQ20050621065511406/21/05 06:55:31  5-MIN KDBQ 211255Z 01007KT 10SM BKN090 21/17 A3011 900  78 1900 360/07 RMK AO2 SLP191 T02110172
94908KDBQ DBQ20050621070009706/21/05 07:00:31  5-MIN KDBQ 211300Z 36007KT 10SM BKN090 21/17 A3011 900  78 1900 360/07 RMK AO2
94908KDBQ DBQ20050621070509706/21/05 07:05:31  5-MIN KDBQ 211305Z 01007KT 10SM BKN090 21/17 A3011 900  78 1900 010/07 RMK AO2
94908KDBQ DBQ20050621071009706/21/05 07:10:31  5-MIN KDBQ 211310Z 36005KT 10SM BKN090 21/17 A3011 900  78 1900 360/05 RMK AO2
94908KDBQ DBQ20050621071509706/21/05 07:15:31  5-MIN KDBQ 211315Z 36006KT 10SM BKN085 22/18 A3012 900  78 1900 360/06 RMK AO2
94908KDBQ DBQ20050621072009706/21/05 07:20:31  5-MIN KDBQ 211320Z 36005KT 10SM BKN085 22/17 A3012 900  75 1900 360/05 RMK AO2
94908KDBQ DBQ20050621072509706/21/05 07:25:31  5-MIN KDBQ 211325Z 36005KT 10SM SCT085 22/17 A3012 900  75 1900 360/05 RMK AO2
94908KDBQ DBQ20050621073009706/21/05 07:30:31  5-MIN KDBQ 211330Z 36005KT 10SM BKN085 22/18 A3012 890  78 1900 360/05 RMK AO2
94908KDBQ DBQ20050621073509706/21/05 07:35:31  5-MIN KDBQ 211335Z 01005KT 10SM BKN085 22/18 A3012 890  75 2000 010/05 RMK AO2
94908KDBQ DBQ20050621074009706/21/05 07:40:31  5-MIN KDBQ 211340Z 01004KT 10SM BKN085 22/18 A3012 890  75 2000 010/04 RMK AO2
94908KDBQ DBQ20050621074509706/21/05 07:45:31  5-MIN KDBQ 211345Z 00000KT 10SM SCT085 23/18 A3013 890  73 2000 000/00 RMK AO2
94908KDBQ DBQ20050621075011406/21/05 07:50:31  5-MIN KDBQ 211350Z 00000KT 10SM SCT085 23/18 A3013 890  70 2100 000/00 RMK AO2 SLP196 T02330178
94908KDBQ DBQ20050621075511406/21/05 07:55:31  5-MIN KDBQ 211355Z 01003KT 10SM SCT085 23/18 A3012 890  70 2100 010/03 RMK AO2 SLP196 T02330178
94908KDBQ DBQ20050621080009706/21/05 08:00:31  5-MIN KDBQ 211400Z 07003KT 10SM SCT085 23/18 A3012 890  70 2100 060/03 RMK AO2
94908KDBQ DBQ20050621080509706/21/05 08:05:31  5-MIN KDBQ 211405Z 06006KT 10SM FEW085 24/18 A3012 890  68 2200 060/06 RMK AO2
94908KDBQ DBQ20050621081009706/21/05 08:10:31  5-MIN KDBQ 211410Z 05006KT 10SM SCT085 23/18 A3012 890  70 2100 050/06 RMK AO2
94908KDBQ DBQ20050621081509706/21/05 08:15:31  5-MIN KDBQ 211415Z 04006KT 10SM SCT085 23/18 A3012 890  70 2100 040/06 RMK AO2
94908KDBQ DBQ20050621082009706/21/05 08:20:31  5-MIN KDBQ 211420Z 05006KT 10SM SCT085 23/18 A3012 900  70 2100 050/06 RMK AO2
94908KDBQ DBQ20050621082509706/21/05 08:25:31  5-MIN KDBQ 211425Z 05006KT 10SM SCT085 24/18 A3012 890  68 2200 050/06 RMK AO2
94908KDBQ DBQ20050621083009706/21/05 08:30:31  5-MIN KDBQ 211430Z 04005KT 10SM FEW085 24/18 A3012 890  66 2200 040/05 RMK AO2
94908KDBQ DBQ20050621083509706/21/05 08:35:31  5-MIN KDBQ 211435Z 04003KT 10SM FEW085 24/18 A3012 890  68 2200 040/03 RMK AO2
94908KDBQ DBQ20050621084009706/21/05 08:40:31  5-MIN KDBQ 211440Z VRB03KT 10SM FEW085 24/18 A3012 890  66 2200 VRB/03 RMK AO2
94908KDBQ DBQ20050621084509406/21/05 08:45:31  5-MIN KDBQ 211445Z 05004KT 10SM CLR 24/18 A3012 890 66  2200 050/04 RMK AO2
94908KDBQ DBQ20050621085011706/21/05 08:50:31  5-MIN KDBQ 211450Z VRB03KT 10SM CLR 25/17 A3013 890 61  2300 VRB/03 RMK AO2 SLP194 T02500172 53006
94908KDBQ DBQ20050621085511706/21/05 08:55:31  5-MIN KDBQ 211455Z 06003KT 10SM CLR 25/18 A3013 890 64  2300 060/03 RMK AO2 SLP194 T02500178 51006
94908KDBQ DBQ20050621090009406/21/05 09:00:31  5-MIN KDBQ 211500Z 05005KT 10SM CLR 25/18 A3012 890 64  2300 050/05 RMK AO2
94908KDBQ DBQ20050621090509406/21/05 09:05:31  5-MIN KDBQ 211505Z VRB03KT 10SM CLR 25/18 A3013 890 64  2300 VRB/03 RMK AO2
94908KDBQ DBQ20050621091009406/21/05 09:10:31  5-MIN KDBQ 211510Z VRB03KT 10SM CLR 25/18 A3013 890 64  2300 VRB/03 RMK AO2
94908KDBQ DBQ20050621091509406/21/05 09:15:31  5-MIN KDBQ 211515Z 00000KT 10SM CLR 25/17 A3012 890 61  2300 000/00 RMK AO2
94908KDBQ DBQ20050621092009406/21/05 09:20:31  5-MIN KDBQ 211520Z 00000KT 10SM CLR 26/18 A3012 890 64  2400 000/00 RMK AO2
94908KDBQ DBQ20050621092509406/21/05 09:25:31  5-MIN KDBQ 211525Z 36004KT 10SM CLR 26/18 A3013 890 61  2300 360/04 RMK AO2
94908KDBQ DBQ20050621093009406/21/05 09:30:31  5-MIN KDBQ 211530Z 00000KT 10SM CLR 26/18 A3013 890 59  2400 000/00 RMK AO2
94908KDBQ DBQ20050621093509406/21/05 09:35:31  5-MIN KDBQ 211535Z 04005KT 10SM CLR 26/18 A3013 890 61  2300 040/05 RMK AO2
94908KDBQ DBQ20050621094009406/21/05 09:40:31  5-MIN KDBQ 211540Z VRB04KT 10SM CLR 26/18 A3013 880 61  2300 VRB/04 RMK AO2
94908KDBQ DBQ20050621094509406/21/05 09:45:31  5-MIN KDBQ 211545Z 03006KT 10SM CLR 26/18 A3013 880 62  2400 030/06 RMK AO2
94908KDBQ DBQ20050621095012606/21/05 09:50:31  5-MIN KDBQ 211550Z 36007KT 330V040 10SM CLR 26/18 A3014 880 62 2400 360/07 330V040 RMK AO2 SLP197 T02610183
94908KDBQ DBQ20050621095511106/21/05 09:55:31  5-MIN KDBQ 211555Z 33006KT 10SM CLR 26/18 A3013 880 62  2400 330/06 RMK AO2 SLP197 T02610183
94908KDBQ DBQ20050621100009406/21/05 10:00:31  5-MIN KDBQ 211600Z 33006KT 10SM CLR 26/18 A3014 880 61  2300 330/06 RMK AO2
94908KDBQ DBQ20050621100509406/21/05 10:05:31  5-MIN KDBQ 211605Z 32005KT 10SM CLR 26/18 A3014 880 61  2300 320/05 RMK AO2
94908KDBQ DBQ20050621101009406/21/05 10:10:31  5-MIN KDBQ 211610Z 35006KT 10SM CLR 26/18 A3014 880 62  2400 350/06 RMK AO2
94908KDBQ DBQ20050621101509406/21/05 10:15:31  5-MIN KDBQ 211615Z 35008KT 10SM CLR 26/18 A3014 880 62  2400 340/08 RMK AO2
94908KDBQ DBQ20050621102009406/21/05 10:20:31  5-MIN KDBQ 211620Z 02005KT 10SM CLR 27/18 A3014 880 60  2500 020/05 RMK AO2
94908KDBQ DBQ20050621102509406/21/05 10:25:31  5-MIN KDBQ 211625Z 31007KT 10SM CLR 27/18 A3014 880 60  2500 310/07 RMK AO2
94908KDBQ DBQ20050621103009406/21/05 10:30:31  5-MIN KDBQ 211630Z 32008KT 10SM CLR 26/18 A3013 880 62  2400 320/08 RMK AO2
94908KDBQ DBQ20050621103509406/21/05 10:35:31  5-MIN KDBQ 211635Z 32007KT 10SM CLR 26/18 A3013 880 62  2400 320/07 RMK AO2
94908KDBQ DBQ20050621104009406/21/05 10:40:31  5-MIN KDBQ 211640Z 34008KT 10SM CLR 27/18 A3013 880 57  2500 340/08 RMK AO2
94908KDBQ DBQ20050621104509406/21/05 10:45:31  5-MIN KDBQ 211645Z 33005KT 10SM CLR 27/18 A3013 880 60  2500 330/05 RMK AO2
94908KDBQ DBQ20050621105011106/21/05 10:50:31  5-MIN KDBQ 211650Z 32004KT 10SM CLR 26/18 A3013 880 62  2400 320/04 RMK AO2 SLP197 T02610183
94908KDBQ DBQ20050621105511106/21/05 10:55:31  5-MIN KDBQ 211655Z 35009KT 10SM CLR 27/18 A3013 890 60  2500 350/09 RMK AO2 SLP196 T02670183
94908KDBQ DBQ20050621110009406/21/05 11:00:31  5-MIN KDBQ 211700Z 35006KT 10SM CLR 27/18 A3013 890 57  2500 350/06 RMK AO2
94908KDBQ DBQ20050621110509406/21/05 11:05:31  5-MIN KDBQ 211705Z VRB04KT 10SM CLR 26/18 A3012 890 62  2400 VRB/04 RMK AO2
94908KDBQ DBQ20050621111009406/21/05 11:10:31  5-MIN KDBQ 211710Z 36007KT 10SM CLR 27/18 A3012 890 60  2500 360/07 RMK AO2
94908KDBQ DBQ20050621111509406/21/05 11:15:31  5-MIN KDBQ 211715Z 36007KT 10SM CLR 27/19 A3012 890 60  2500 360/07 RMK AO2
94908KDBQ DBQ20050621112009406/21/05 11:20:31  5-MIN KDBQ 211720Z 33005KT 10SM CLR 27/18 A3013 890 60  2500 330/05 RMK AO2
94908KDBQ DBQ20050621112509406/21/05 11:25:31  5-MIN KDBQ 211725Z VRB04KT 10SM CLR 27/19 A3012 890 60  2500 VRB/04 RMK AO2
94908KDBQ DBQ20050621113009406/21/05 11:30:31  5-MIN KDBQ 211730Z VRB04KT 10SM CLR 27/19 A3012 890 60  2500 VRB/04 RMK AO2
94908KDBQ DBQ20050621113509406/21/05 11:35:31  5-MIN KDBQ 211735Z 01007KT 10SM CLR 27/19 A3012 900 60  2500 010/07 RMK AO2
94908KDBQ DBQ20050621114009406/21/05 11:40:31  5-MIN KDBQ 211740Z 35009KT 10SM CLR 27/19 A3012 900 60  2500 350/09 RMK AO2
94908KDBQ DBQ20050621114509406/21/05 11:45:31  5-MIN KDBQ 211745Z 34008KT 10SM CLR 28/19 A3011 900 58  2600 340/08 RMK AO2
94908KDBQ DBQ20050621115012906/21/05 11:50:31  5-MIN KDBQ 211750Z VRB04KT 10SM CLR 27/19 A3011 900 60  2600 VRB/04 RMK AO2 SLP190 T02720189 10278 20194 51006
94908KDBQ DBQ20050621115512906/21/05 11:55:31  5-MIN KDBQ 211755Z 30007KT 10SM CLR 27/19 A3011 900 60  2600 300/07 RMK AO2 SLP189 T02720189 10278 20194 58005
94908KDBQ DBQ20050621120009406/21/05 12:00:31  5-MIN KDBQ 211800Z 29005KT 10SM CLR 27/19 A3011 910 60  2600 290/05 RMK AO2
94908KDBQ DBQ20050621120509406/21/05 12:05:31  5-MIN KDBQ 211805Z 02008KT 10SM CLR 28/20 A3010 910 60  2700 020/08 RMK AO2
94908KDBQ DBQ20050621121009406/21/05 12:10:31  5-MIN KDBQ 211810Z 33005KT 10SM CLR 28/19 A3010 910 58  2600 320/05 RMK AO2
94908KDBQ DBQ20050621121509406/21/05 12:15:31  5-MIN KDBQ 211815Z 33007KT 10SM CLR 28/19 A3010 910 60  2600 330/07 RMK AO2
94908KDBQ DBQ20050621122009406/21/05 12:20:31  5-MIN KDBQ 211820Z 01006KT 10SM CLR 28/19 A3010 910 56  2700 010/06 RMK AO2
94908KDBQ DBQ20050621122509406/21/05 12:25:31  5-MIN KDBQ 211825Z 36007KT 10SM CLR 28/19 A3010 920 58  2700 360/07 RMK AO2
94908KDBQ DBQ20050621123009406/21/05 12:30:31  5-MIN KDBQ 211830Z 34007KT 10SM CLR 28/19 A3010 910 58  2700 340/07 RMK AO2
94908KDBQ DBQ20050621123509406/21/05 12:35:31  5-MIN KDBQ 211835Z 01008KT 10SM CLR 28/19 A3010 910 58  2700 010/08 RMK AO2
94908KDBQ DBQ20050621124009406/21/05 12:40:31  5-MIN KDBQ 211840Z 36006KT 10SM CLR 28/19 A3009 920 58  2700 360/06 RMK AO2
94908KDBQ DBQ20050621124509406/21/05 12:45:31  5-MIN KDBQ 211845Z 01004KT 10SM CLR 28/19 A3010 920 56  2700 010/04 RMK AO2
94908KDBQ DBQ20050621125011106/21/05 12:50:31  5-MIN KDBQ 211850Z 34010KT 10SM CLR 29/19 A3010 910 56  2800 340/10 RMK AO2 SLP186 T02890194
94908KDBQ DBQ20050621125511106/21/05 12:55:31  5-MIN KDBQ 211855Z 33006KT 10SM CLR 28/19 A3010 910 56  2700 330/06 RMK AO2 SLP186 T02830189
94908KDBQ DBQ20050621130010906/21/05 13:00:31  5-MIN KDBQ 211900Z 02007KT 360V060 10SM CLR 29/19 A3010 910 56 2800 020/07 360V060 RMK AO2
94908KDBQ DBQ20050621130509406/21/05 13:05:31  5-MIN KDBQ 211905Z 35007KT 10SM CLR 29/19 A3010 920 54  2800 340/07 RMK AO2
94908KDBQ DBQ20050621131010906/21/05 13:10:31  5-MIN KDBQ 211910Z 36008KT 340V060 10SM CLR 29/19 A3010 920 54 2800 360/08 340V060 RMK AO2
94908KDBQ DBQ20050621131509406/21/05 13:15:31  5-MIN KDBQ 211915Z 02007KT 10SM CLR 29/19 A3010 920 54  2800 010/07 RMK AO2
94908KDBQ DBQ20050621132009406/21/05 13:20:31  5-MIN KDBQ 211920Z 36008KT 10SM CLR 29/19 A3010 920 54  2800 360/08 RMK AO2
94908KDBQ DBQ20050621132510006/21/05 13:25:31  5-MIN KDBQ 211925Z 02011G14KT 10SM CLR 29/19 A3010 910  52 2800 020/11G14 RMK AO2
94908KDBQ DBQ20050621133010006/21/05 13:30:31  5-MIN KDBQ 211930Z 01009G14KT 10SM CLR 29/19 A3010 920  52 2800 010/09G14 RMK AO2
94908KDBQ DBQ20050621133509406/21/05 13:35:31  5-MIN KDBQ 211935Z 35006KT 10SM CLR 29/19 A3009 920 52  2800 350/06 RMK AO2
94908KDBQ DBQ20050621134010006/21/05 13:40:31  5-MIN KDBQ 211940Z 01008G14KT 10SM CLR 29/19 A3009 920  52 2800 360/08G14 RMK AO2
94908KDBQ DBQ20050621134510006/21/05 13:45:31  5-MIN KDBQ 211945Z 01009G14KT 10SM CLR 29/19 A3009 920  52 2800 010/09G14 RMK AO2
94908KDBQ DBQ20050621135011106/21/05 13:50:31  5-MIN KDBQ 211950Z 02008KT 10SM CLR 29/19 A3009 920 52  2800 010/08 RMK AO2 SLP183 T02940189
94908KDBQ DBQ20050621135511106/21/05 13:55:31  5-MIN KDBQ 211955Z 33010KT 10SM CLR 30/19 A3009 920 51  2900 330/10 RMK AO2 SLP183 T03000189
94908KDBQ DBQ20050621140009406/21/05 14:00:31  5-MIN KDBQ 212000Z 35009KT 10SM CLR 29/19 A3009 920 52  2800 340/09 RMK AO2
94908KDBQ DBQ20050621140509406/21/05 14:05:31  5-MIN KDBQ 212005Z 34009KT 10SM CLR 29/19 A3009 920 52  2800 340/09 RMK AO2
94908KDBQ DBQ20050621141009406/21/05 14:10:31  5-MIN KDBQ 212010Z 34010KT 10SM CLR 30/18 A3009 920 49  2900 340/10 RMK AO2
94908KDBQ DBQ20050621141509406/21/05 14:15:31  5-MIN KDBQ 212015Z 33008KT 10SM CLR 30/19 A3009 920 51  2900 330/08 RMK AO2
94908KDBQ DBQ20050621142009406/21/05 14:20:31  5-MIN KDBQ 212020Z VRB05KT 10SM CLR 29/19 A3008 930 52  2800 VRB/05 RMK AO2
94908KDBQ DBQ20050621142509406/21/05 14:25:31  5-MIN KDBQ 212025Z 01007KT 10SM CLR 30/18 A3008 930 49  2900 010/07 RMK AO2
94908KDBQ DBQ20050621143009406/21/05 14:30:31  5-MIN KDBQ 212030Z 35005KT 10SM CLR 30/18 A3008 930 49  2900 350/05 RMK AO2
94908KDBQ DBQ20050621143509406/21/05 14:35:31  5-MIN KDBQ 212035Z 35006KT 10SM CLR 30/18 A3008 930 49  2900 350/06 RMK AO2
94908KDBQ DBQ20050621144009406/21/05 14:40:31  5-MIN KDBQ 212040Z 03006KT 10SM CLR 30/18 A3008 930 49  2900 030/06 RMK AO2
94908KDBQ DBQ20050621144509406/21/05 14:45:31  5-MIN KDBQ 212045Z 00000KT 10SM CLR 30/18 A3008 930 47  2900 000/00 RMK AO2
94908KDBQ DBQ20050621145011706/21/05 14:50:31  5-MIN KDBQ 212050Z VRB04KT 10SM CLR 31/18 A3008 930 47  3000 VRB/04 RMK AO2 SLP179 T03060183 58005
94908KDBQ DBQ20050621145511706/21/05 14:55:31  5-MIN KDBQ 212055Z 03008KT 10SM CLR 31/18 A3008 930 47  3000 030/08 RMK AO2 SLP179 T03060183 58010
94908KDBQ DBQ20050621150009406/21/05 15:00:31  5-MIN KDBQ 212100Z 02005KT 10SM CLR 31/18 A3008 930 47  3000 020/05 RMK AO2
94908KDBQ DBQ20050621150509406/21/05 15:05:31  5-MIN KDBQ 212105Z 01004KT 10SM CLR 30/18 A3008 930 49  2900 010/04 RMK AO2
94908KDBQ DBQ20050621151009406/21/05 15:10:31  5-MIN KDBQ 212110Z 02006KT 10SM CLR 31/18 A3008 930 47  3000 020/06 RMK AO2
94908KDBQ DBQ20050621151509406/21/05 15:15:31  5-MIN KDBQ 212115Z 03003KT 10SM CLR 31/18 A3008 930 47  3000 030/03 RMK AO2
94908KDBQ DBQ20050621152009406/21/05 15:20:31  5-MIN KDBQ 212120Z VRB05KT 10SM CLR 31/18 A3008 930 46  3000 VRB/05 RMK AO2
94908KDBQ DBQ20050621152509406/21/05 15:25:31  5-MIN KDBQ 212125Z 34007KT 10SM CLR 31/18 A3008 930 47  3000 340/07 RMK AO2
94908KDBQ DBQ20050621153009406/21/05 15:30:31  5-MIN KDBQ 212130Z 34005KT 10SM CLR 31/18 A3007 940 47  3000 340/05 RMK AO2
94908KDBQ DBQ20050621153509406/21/05 15:35:31  5-MIN KDBQ 212135Z 33004KT 10SM CLR 31/19 A3007 940 49  3000 330/04 RMK AO2
94908KDBQ DBQ20050621154009406/21/05 15:40:31  5-MIN KDBQ 212140Z 32003KT 10SM CLR 30/18 A3007 940 49  2900 320/03 RMK AO2
94908KDBQ DBQ20050621154509406/21/05 15:45:31  5-MIN KDBQ 212145Z 07004KT 10SM CLR 31/18 A3007 940 47  3000 070/04 RMK AO2
94908KDBQ DBQ20050621155011106/21/05 15:50:31  5-MIN KDBQ 212150Z 02007KT 10SM CLR 31/18 A3007 940 47  3000 020/07 RMK AO2 SLP177 T03060183
94908KDBQ DBQ20050621155511106/21/05 15:55:31  5-MIN KDBQ 212155Z 01006KT 10SM CLR 31/18 A3008 930 46  3000 010/06 RMK AO2 SLP178 T03060178
94908KDBQ DBQ20050621160009406/21/05 16:00:31  5-MIN KDBQ 212200Z 36007KT 10SM CLR 31/18 A3008 930 47  3000 360/07 RMK AO2
94908KDBQ DBQ20050621160509406/21/05 16:05:31  5-MIN KDBQ 212205Z 04007KT 10SM CLR 31/18 A3008 930 46  3000 040/07 RMK AO2
94908KDBQ DBQ20050621161009406/21/05 16:10:31  5-MIN KDBQ 212210Z 02007KT 10SM CLR 31/17 A3008 930 44  3000 020/07 RMK AO2
94908KDBQ DBQ20050621161509406/21/05 16:15:31  5-MIN KDBQ 212215Z 03008KT 10SM CLR 31/18 A3008 930 46  3000 030/08 RMK AO2
94908KDBQ DBQ20050621162009406/21/05 16:20:31  5-MIN KDBQ 212220Z 02007KT 10SM CLR 31/17 A3008 930 44  3000 020/07 RMK AO2
94908KDBQ DBQ20050621162509406/21/05 16:25:31  5-MIN KDBQ 212225Z 03007KT 10SM CLR 31/17 A3008 930 44  3000 020/07 RMK AO2
94908KDBQ DBQ20050621163009406/21/05 16:30:31  5-MIN KDBQ 212230Z 04007KT 10SM CLR 31/17 A3008 930 44  3000 030/07 RMK AO2
94908KDBQ DBQ20050621163509406/21/05 16:35:31  5-MIN KDBQ 212235Z 01007KT 10SM CLR 31/18 A3008 930 46  3000 010/07 RMK AO2
94908KDBQ DBQ20050621164009406/21/05 16:40:31  5-MIN KDBQ 212240Z 01007KT 10SM CLR 31/18 A3008 930 46  3000 010/07 RMK AO2
94908KDBQ DBQ20050621164509406/21/05 16:45:31  5-MIN KDBQ 212245Z 02007KT 10SM CLR 31/17 A3008 930 44  3000 020/07 RMK AO2
94908KDBQ DBQ20050621165011106/21/05 16:50:31  5-MIN KDBQ 212250Z 36006KT 10SM CLR 31/18 A3008 930 46  3000 350/06 RMK AO2 SLP179 T03060178
94908KDBQ DBQ20050621165511106/21/05 16:55:31  5-MIN KDBQ 212255Z 02006KT 10SM CLR 31/18 A3008 930 46  3000 020/06 RMK AO2 SLP179 T03060178
94908KDBQ DBQ20050621170009406/21/05 17:00:31  5-MIN KDBQ 212300Z 02008KT 10SM CLR 31/18 A3008 930 46  3000 010/08 RMK AO2
94908KDBQ DBQ20050621170509406/21/05 17:05:31  5-MIN KDBQ 212305Z 04007KT 10SM CLR 31/17 A3008 930 44  3000 030/07 RMK AO2
94908KDBQ DBQ20050621171009406/21/05 17:10:31  5-MIN KDBQ 212310Z 02006KT 10SM CLR 30/17 A3008 930 45  2900 020/06 RMK AO2
94908KDBQ DBQ20050621171509406/21/05 17:15:31  5-MIN KDBQ 212315Z 03007KT 10SM CLR 31/18 A3008 930 46  3000 030/07 RMK AO2
94908KDBQ DBQ20050621172009406/21/05 17:20:31  5-MIN KDBQ 212320Z 03008KT 10SM CLR 30/17 A3008 930 45  2900 030/08 RMK AO2
94908KDBQ DBQ20050621172509406/21/05 17:25:31  5-MIN KDBQ 212325Z 02007KT 10SM CLR 30/17 A3008 930 45  2900 020/07 RMK AO2
94908KDBQ DBQ20050621173009406/21/05 17:30:31  5-MIN KDBQ 212330Z 02008KT 10SM CLR 30/18 A3008 930 47  2900 020/08 RMK AO2
94908KDBQ DBQ20050621173509406/21/05 17:35:31  5-MIN KDBQ 212335Z 02008KT 10SM CLR 30/17 A3008 930 45  2900 020/08 RMK AO2
94908KDBQ DBQ20050621174009406/21/05 17:40:31  5-MIN KDBQ 212340Z 02006KT 10SM CLR 30/17 A3008 930 45  2900 020/06 RMK AO2
94908KDBQ DBQ20050621174509406/21/05 17:45:31  5-MIN KDBQ 212345Z 01007KT 10SM CLR 30/17 A3008 930 45  2900 010/07 RMK AO2
94908KDBQ DBQ20050621175012906/21/05 17:50:31  5-MIN KDBQ 212350Z 02007KT 10SM CLR 30/17 A3008 930 45  2900 020/07 RMK AO2 SLP180 T03000172 10306 20272 58010
94908KDBQ DBQ20050621175512906/21/05 17:55:31  5-MIN KDBQ 212355Z 01006KT 10SM CLR 29/17 A3008 930 47  2800 010/06 RMK AO2 SLP180 T02940172 10306 20272 53002
94908KDBQ DBQ20050621180009406/21/05 18:00:31  5-MIN KDBQ 220000Z 02007KT 10SM CLR 29/18 A3008 930 49  2800 020/07 RMK AO2
94908KDBQ DBQ20050621180509406/21/05 18:05:31  5-MIN KDBQ 220005Z 02007KT 10SM CLR 29/18 A3008 930 49  2800 020/07 RMK AO2
94908KDBQ DBQ20050621181009406/21/05 18:10:31  5-MIN KDBQ 220010Z 02007KT 10SM CLR 29/18 A3008 930 50  2800 020/07 RMK AO2
94908KDBQ DBQ20050621181509406/21/05 18:15:31  5-MIN KDBQ 220015Z 01006KT 10SM CLR 29/17 A3008 930 48  2800 010/06 RMK AO2
94908KDBQ DBQ20050621182009406/21/05 18:20:31  5-MIN KDBQ 220020Z 02005KT 10SM CLR 28/17 A3008 930 50  2700 020/05 RMK AO2
94908KDBQ DBQ20050621182509406/21/05 18:25:31  5-MIN KDBQ 220025Z 03005KT 10SM CLR 28/18 A3008 930 52  2700 030/05 RMK AO2
94908KDBQ DBQ20050621183009406/21/05 18:30:31  5-MIN KDBQ 220030Z 04004KT 10SM CLR 28/18 A3008 930 54  2700 040/04 RMK AO2
94908KDBQ DBQ20050621183509406/21/05 18:35:31  5-MIN KDBQ 220035Z 03003KT 10SM CLR 28/18 A3008 930 52  2700 030/03 RMK AO2
94908KDBQ DBQ20050621184009406/21/05 18:40:31  5-MIN KDBQ 220040Z 05003KT 10SM CLR 28/18 A3008 930 56  2700 050/03 RMK AO2
94908KDBQ DBQ20050621184509406/21/05 18:45:31  5-MIN KDBQ 220045Z 04003KT 10SM CLR 28/18 A3008 930 56  2700 040/03 RMK AO2
94908KDBQ DBQ20050621185011106/21/05 18:50:31  5-MIN KDBQ 220050Z 03004KT 10SM CLR 28/18 A3008 930 56  2700 030/04 RMK AO2 SLP178 T02780183
94908KDBQ DBQ20050621185512006/21/05 18:55:31  5-MIN KDBQ 220055Z AUTO 00000KT 10SM CLR 28/19 A3008 930 58 2700 000/00 RMK AO2 SLP178 T02780189 TSNO
94908KDBQ DBQ20050621190010306/21/05 19:00:31  5-MIN KDBQ 220100Z AUTO 00000KT 10SM CLR 28/18 A3008 930 54 2700 000/00 RMK AO2 TSNO
94908KDBQ DBQ20050621190510306/21/05 19:05:31  5-MIN KDBQ 220105Z AUTO 00000KT 10SM CLR 28/18 A3008 940 56 2700 000/00 RMK AO2 TSNO
94908KDBQ DBQ20050621191010306/21/05 19:10:31  5-MIN KDBQ 220110Z AUTO 07003KT 10SM CLR 28/18 A3008 940 54 2700 070/03 RMK AO2 TSNO
94908KDBQ DBQ20050621191510306/21/05 19:15:31  5-MIN KDBQ 220115Z AUTO 07003KT 10SM CLR 28/18 A3008 930 54 2700 070/03 RMK AO2 TSNO
94908KDBQ DBQ20050621192010306/21/05 19:20:31  5-MIN KDBQ 220120Z AUTO 06004KT 10SM CLR 27/17 A3008 930 54 2600 060/04 RMK AO2 TSNO
94908KDBQ DBQ20050621192510306/21/05 19:25:31  5-MIN KDBQ 220125Z AUTO 06005KT 10SM CLR 27/17 A3008 930 55 2500 060/05 RMK AO2 TSNO
94908KDBQ DBQ20050621193010306/21/05 19:30:31  5-MIN KDBQ 220130Z AUTO 07005KT 10SM CLR 27/17 A3008 930 55 2500 070/05 RMK AO2 TSNO
94908KDBQ DBQ20050621193510306/21/05 19:35:31  5-MIN KDBQ 220135Z AUTO 07004KT 10SM CLR 26/17 A3008 930 57 2500 070/04 RMK AO2 TSNO
94908KDBQ DBQ20050621194010306/21/05 19:40:31  5-MIN KDBQ 220140Z AUTO 05004KT 10SM CLR 26/17 A3008 930 55 2500 050/04 RMK AO2 TSNO
94908KDBQ DBQ20050621194510306/21/05 19:45:31  5-MIN KDBQ 220145Z AUTO 05004KT 10SM CLR 26/17 A3008 930 57 2400 050/04 RMK AO2 TSNO
94908KDBQ DBQ20050621195012006/21/05 19:50:31  5-MIN KDBQ 220150Z AUTO 04003KT 10SM CLR 25/17 A3008 930 59 2300 040/03 RMK AO2 SLP179 T02500167 TSNO
94908KDBQ DBQ20050621195512006/21/05 19:55:31  5-MIN KDBQ 220155Z AUTO 04004KT 10SM CLR 25/17 A3008 930 59 2300 040/04 RMK AO2 SLP180 T02500167 TSNO
94908KDBQ DBQ20050621200010306/21/05 20:00:31  5-MIN KDBQ 220200Z AUTO 04003KT 10SM CLR 25/17 A3009 920 59 2300 040/03 RMK AO2 TSNO
94908KDBQ DBQ20050621200510306/21/05 20:05:31  5-MIN KDBQ 220205Z AUTO 03003KT 10SM CLR 24/17 A3009 920 61 2300 030/03 RMK AO2 TSNO
94908KDBQ DBQ20050621201010306/21/05 20:10:31  5-MIN KDBQ 220210Z AUTO 03003KT 10SM CLR 24/17 A3009 920 61 2300 030/03 RMK AO2 TSNO
94908KDBQ DBQ20050621201510306/21/05 20:15:31  5-MIN KDBQ 220215Z AUTO 00000KT 10SM CLR 24/17 A3009 920 61 2300 000/00 RMK AO2 TSNO
94908KDBQ DBQ20050621202010306/21/05 20:20:31  5-MIN KDBQ 220220Z AUTO 00000KT 10SM CLR 25/17 A3009 920 59 2300 000/00 RMK AO2 TSNO
94908KDBQ DBQ20050621202510306/21/05 20:25:31  5-MIN KDBQ 220225Z AUTO 00000KT 10SM CLR 25/17 A3009 920 59 2300 000/00 RMK AO2 TSNO
94908KDBQ DBQ20050621203010306/21/05 20:30:31  5-MIN KDBQ 220230Z AUTO 00000KT 10SM CLR 23/17 A3010 910 66 2100 000/00 RMK AO2 TSNO
94908KDBQ DBQ20050621203510306/21/05 20:35:31  5-MIN KDBQ 220235Z AUTO 03003KT 10SM CLR 22/17 A3010 910 70 2000 030/03 RMK AO2 TSNO
94908KDBQ DBQ20050621204010306/21/05 20:40:31  5-MIN KDBQ 220240Z AUTO 00000KT 10SM CLR 23/17 A3010 910 68 2100 000/00 RMK AO2 TSNO
94908KDBQ DBQ20050621204510306/21/05 20:45:31  5-MIN KDBQ 220245Z AUTO 02003KT 10SM CLR 23/17 A3010 910 68 2100 020/03 RMK AO2 TSNO
94908KDBQ DBQ20050621205012606/21/05 20:50:31  5-MIN KDBQ 220250Z AUTO 03003KT 10SM CLR 23/17 A3010 910 68 2100 030/03 RMK AO2 SLP186 T02280167 53002 TSNO
94908KDBQ DBQ20050621205512606/21/05 20:55:31  5-MIN KDBQ 220255Z AUTO 00000KT 10SM CLR 22/17 A3010 910 70 2000 000/00 RMK AO2 SLP186 T02220167 53005 TSNO
94908KDBQ DBQ20050621210010306/21/05 21:00:31  5-MIN KDBQ 220300Z AUTO 00000KT 10SM CLR 22/17 A3010 910 70 2000 000/00 RMK AO2 TSNO
94908KDBQ DBQ20050621210510306/21/05 21:05:31  5-MIN KDBQ 220305Z AUTO 00000KT 10SM CLR 22/17 A3010 910 75 1900 000/00 RMK AO2 TSNO
94908KDBQ DBQ20050621211010306/21/05 21:10:31  5-MIN KDBQ 220310Z AUTO 00000KT 10SM CLR 22/17 A3010 910 70 2000 000/00 RMK AO2 TSNO
94908KDBQ DBQ20050621211510306/21/05 21:15:31  5-MIN KDBQ 220315Z AUTO 00000KT 10SM CLR 22/17 A3010 910 73 1900 000/00 RMK AO2 TSNO
94908KDBQ DBQ20050621212010306/21/05 21:20:31  5-MIN KDBQ 220320Z AUTO 00000KT 10SM CLR 22/17 A3010 910 73 1900 000/00 RMK AO2 TSNO
94908KDBQ DBQ20050621212510306/21/05 21:25:31  5-MIN KDBQ 220325Z AUTO 00000KT 10SM CLR 22/17 A3011 910 73 1900 000/00 RMK AO2 TSNO
94908KDBQ DBQ20050621213010306/21/05 21:30:31  5-MIN KDBQ 220330Z AUTO 03003KT 10SM CLR 22/17 A3011 910 70 2000 020/03 RMK AO2 TSNO
94908KDBQ DBQ20050621213510306/21/05 21:35:31  5-MIN KDBQ 220335Z AUTO 00000KT 10SM CLR 23/17 A3011 910 68 2100 000/00 RMK AO2 TSNO
94908KDBQ DBQ20050621214010306/21/05 21:40:31  5-MIN KDBQ 220340Z AUTO 00000KT 10SM CLR 22/17 A3011 910 73 1900 000/00 RMK AO2 TSNO
94908KDBQ DBQ20050621214510306/21/05 21:45:31  5-MIN KDBQ 220345Z AUTO 00000KT 10SM CLR 22/17 A3011 910 73 1900 000/00 RMK AO2 TSNO
94908KDBQ DBQ20050621215012006/21/05 21:50:31  5-MIN KDBQ 220350Z AUTO 00000KT 10SM CLR 22/17 A3011 910 73 1900 000/00 RMK AO2 SLP189 T02170167 TSNO
94908KDBQ DBQ20050621215512306/21/05 21:55:31  5-MIN KDBQ 220355Z AUTO 00000KT 10SM FEW050 22/17 A3011 900 70 2000 000/00 RMK AO2 SLP188 T02220167 TSNO
94908KDBQ DBQ20050621220010606/21/05 22:00:31  5-MIN KDBQ 220400Z AUTO 00000KT 10SM SCT050 22/17 A3011 900 70 2000 000/00 RMK AO2 TSNO
94908KDBQ DBQ20050621220510606/21/05 22:05:31  5-MIN KDBQ 220405Z AUTO 00000KT 10SM SCT050 22/16 A3011 900 70 1900 000/00 RMK AO2 TSNO
94908KDBQ DBQ20050621221010606/21/05 22:10:31  5-MIN KDBQ 220410Z AUTO 35003KT 10SM BKN050 22/16 A3011 900 68 2000 350/03 RMK AO2 TSNO
94908KDBQ DBQ20050621221510606/21/05 22:15:31  5-MIN KDBQ 220415Z AUTO 36004KT 10SM BKN055 22/17 A3012 900 70 2000 350/04 RMK AO2 TSNO
94908KDBQ DBQ20050621222010606/21/05 22:20:31  5-MIN KDBQ 220420Z AUTO 35004KT 10SM BKN055 22/17 A3012 900 75 1900 350/04 RMK AO2 TSNO
94908KDBQ DBQ20050621222510606/21/05 22:25:31  5-MIN KDBQ 220425Z AUTO 36003KT 10SM BKN055 22/17 A3012 890 73 2000 360/03 RMK AO2 TSNO
94908KDBQ DBQ20050621223010606/21/05 22:30:31  5-MIN KDBQ 220430Z AUTO 36004KT 10SM BKN055 23/17 A3012 890 68 2000 360/04 RMK AO2 TSNO
94908KDBQ DBQ20050621223510606/21/05 22:35:31  5-MIN KDBQ 220435Z AUTO 36005KT 10SM SCT055 22/17 A3012 890 73 2000 360/05 RMK AO2 TSNO
94908KDBQ DBQ20050621224010606/21/05 22:40:31  5-MIN KDBQ 220440Z AUTO 36005KT 10SM SCT055 22/17 A3012 890 70 2000 360/05 RMK AO2 TSNO
94908KDBQ DBQ20050621224510606/21/05 22:45:31  5-MIN KDBQ 220445Z AUTO 01006KT 10SM SCT055 22/17 A3012 890 70 2000 010/06 RMK AO2 TSNO
94908KDBQ DBQ20050621225012306/21/05 22:50:31  5-MIN KDBQ 220450Z AUTO 01005KT 10SM FEW055 22/17 A3012 890 73 1900 010/05 RMK AO2 SLP194 T02170167 TSNO
94908KDBQ DBQ20050621225512306/21/05 22:55:31  5-MIN KDBQ 220455Z AUTO 01005KT 10SM FEW055 22/16 A3013 890 70 1900 010/05 RMK AO2 SLP194 T02170161 TSNO
94908KDBQ DBQ20050621230010606/21/05 23:00:31  5-MIN KDBQ 220500Z AUTO 01004KT 10SM FEW055 23/16 A3013 890 65 2000 360/04 RMK AO2 TSNO
94908KDBQ DBQ20050621230510606/21/05 23:05:31  5-MIN KDBQ 220505Z AUTO 02004KT 10SM FEW055 22/16 A3013 890 68 2000 020/04 RMK AO2 TSNO
94908KDBQ DBQ20050621231010306/21/05 23:10:31  5-MIN KDBQ 220510Z AUTO 02005KT 10SM CLR 22/16 A3013 890 70 1900 020/05 RMK AO2 TSNO
94908KDBQ DBQ20050621231510306/21/05 23:15:31  5-MIN KDBQ 220515Z AUTO 05005KT 10SM CLR 22/16 A3013 880 70 1900 050/05 RMK AO2 TSNO
94908KDBQ DBQ20050621232010306/21/05 23:20:31  5-MIN KDBQ 220520Z AUTO 06003KT 10SM CLR 21/16 A3013 880 73 1800 060/03 RMK AO2 TSNO
94908KDBQ DBQ20050621232510306/21/05 23:25:31  5-MIN KDBQ 220525Z AUTO 06003KT 10SM CLR 20/17 A3013 880 81 1700 060/03 RMK AO2 TSNO
94908KDBQ DBQ20050621233010306/21/05 23:30:31  5-MIN KDBQ 220530Z AUTO 00000KT 10SM CLR 20/17 A3013 890 81 1700 000/00 RMK AO2 TSNO
94908KDBQ DBQ20050621233510306/21/05 23:35:31  5-MIN KDBQ 220535Z AUTO 07003KT 10SM CLR 21/17 A3013 890 78 1800 060/03 RMK AO2 TSNO
94908KDBQ DBQ20050621234010306/21/05 23:40:31  5-MIN KDBQ 220540Z AUTO 08003KT 10SM CLR 21/16 A3013 890 73 1800 080/03 RMK AO2 TSNO
94908KDBQ DBQ20050621234510306/21/05 23:45:31  5-MIN KDBQ 220545Z AUTO 00000KT 10SM CLR 21/16 A3013 890 73 1800 000/00 RMK AO2 TSNO
94908KDBQ DBQ20050621235014806/21/05 23:50:31  5-MIN KDBQ 220550Z AUTO 04003KT 10SM CLR 20/16 A3013 890 78 1700 040/03 RMK AO2 SLP195 T02000161 10294 20200 403060167 53005 TSNO
94908KDBQ DBQ20050621235514806/21/05 23:55:31  5-MIN KDBQ 220555Z AUTO 05003KT 10SM CLR 21/16 A3013 890 75 1800 050/03 RMK AO2 SLP196 T02060161 10294 20200 403060167 51009 TSNO
94908KDBQ DBQ20050622000010306/22/05 00:00:38  5-MIN KDBQ 220600Z AUTO 08003KT 10SM CLR 21/16 A3013 890 75 1800 070/03 RMK AO2 TSNO
94908KDBQ DBQ20050622000510306/22/05 00:05:31  5-MIN KDBQ 220605Z AUTO 08003KT 10SM CLR 21/17 A3012 890 75 1800 080/03 RMK AO2 TSNO
94908KDBQ DBQ20050622001010306/22/05 00:10:31  5-MIN KDBQ 220610Z AUTO 00000KT 10SM CLR 21/17 A3012 890 75 1800 000/00 RMK AO2 TSNO
94908KDBQ DBQ20050622001510306/22/05 00:15:32  5-MIN KDBQ 220615Z AUTO 00000KT 10SM CLR 21/17 A3012 890 75 1800 000/00 RMK AO2 TSNO
94908KDBQ DBQ20050622002010306/22/05 00:20:31  5-MIN KDBQ 220620Z AUTO 13003KT 10SM CLR 22/17 A3012 890 73 1900 130/03 RMK AO2 TSNO
94908KDBQ DBQ20050622002510306/22/05 00:25:31  5-MIN KDBQ 220625Z AUTO 00000KT 10SM CLR 21/16 A3012 890 73 1800 000/00 RMK AO2 TSNO
94908KDBQ DBQ20050622003010306/22/05 00:30:31  5-MIN KDBQ 220630Z AUTO 00000KT 10SM CLR 21/17 A3012 890 75 1800 000/00 RMK AO2 TSNO
94908KDBQ DBQ20050622003510306/22/05 00:35:31  5-MIN KDBQ 220635Z AUTO 00000KT 10SM CLR 21/16 A3013 890 75 1800 000/00 RMK AO2 TSNO
94908KDBQ DBQ20050622004010306/22/05 00:40:31  5-MIN KDBQ 220640Z AUTO 00000KT 10SM CLR 20/16 A3013 890 78 1700 000/00 RMK AO2 TSNO
94908KDBQ DBQ20050622004510306/22/05 00:45:31  5-MIN KDBQ 220645Z AUTO 15003KT 10SM CLR 21/16 A3013 890 75 1800 150/03 RMK AO2 TSNO
94908KDBQ DBQ20050622005012006/22/05 00:50:31  5-MIN KDBQ 220650Z AUTO 14004KT 10SM CLR 21/17 A3013 890 75 1800 140/04 RMK AO2 SLP194 T02110167 TSNO
94908KDBQ DBQ20050622005512006/22/05 00:55:31  5-MIN KDBQ 220655Z AUTO 13003KT 10SM CLR 21/17 A3012 890 78 1800 130/03 RMK AO2 SLP193 T02060167 TSNO
94908KDBQ DBQ20050622010010306/22/05 01:00:31  5-MIN KDBQ 220700Z AUTO 00000KT 10SM CLR 20/16 A3012 890 78 1700 000/00 RMK AO2 TSNO
94908KDBQ DBQ20050622010510306/22/05 01:05:31  5-MIN KDBQ 220705Z AUTO 00000KT 10SM CLR 20/17 A3012 890 81 1700 000/00 RMK AO2 TSNO
94908KDBQ DBQ20050622011010306/22/05 01:10:31  5-MIN KDBQ 220710Z AUTO 15003KT 10SM CLR 20/17 A3012 890 81 1700 140/03 RMK AO2 TSNO
94908KDBQ DBQ20050622011510306/22/05 01:15:31  5-MIN KDBQ 220715Z AUTO 15004KT 10SM CLR 21/17 A3012 890 78 1800 140/04 RMK AO2 TSNO
94908KDBQ DBQ20050622012010306/22/05 01:20:31  5-MIN KDBQ 220720Z AUTO 15004KT 10SM CLR 21/17 A3011 900 78 1800 150/04 RMK AO2 TSNO
94908KDBQ DBQ20050622012510306/22/05 01:25:31  5-MIN KDBQ 220725Z AUTO 15003KT 10SM CLR 21/17 A3011 900 78 1800 150/03 RMK AO2 TSNO
94908KDBQ DBQ20050622013010306/22/05 01:30:31  5-MIN KDBQ 220730Z AUTO 14004KT 10SM CLR 21/17 A3011 900 78 1800 140/04 RMK AO2 TSNO
94908KDBQ DBQ20050622013510306/22/05 01:35:31  5-MIN KDBQ 220735Z AUTO 15004KT 10SM CLR 21/17 A3012 890 78 1800 150/04 RMK AO2 TSNO
94908KDBQ DBQ20050622014010306/22/05 01:40:31  5-MIN KDBQ 220740Z AUTO 16003KT 10SM CLR 21/17 A3012 890 78 1800 160/03 RMK AO2 TSNO
94908KDBQ DBQ20050622014510306/22/05 01:45:31  5-MIN KDBQ 220745Z AUTO 16003KT 10SM CLR 20/16 A3011 900 78 1700 160/03 RMK AO2 TSNO
94908KDBQ DBQ20050622015012006/22/05 01:50:31  5-MIN KDBQ 220750Z AUTO 00000KT 10SM CLR 19/16 A3011 900 81 1700 000/00 RMK AO2 SLP189 T01940161 TSNO
94908KDBQ DBQ20050622015512006/22/05 01:55:31  5-MIN KDBQ 220755Z AUTO 00000KT 10SM CLR 19/16 A3011 900 84 1600 000/00 RMK AO2 SLP189 T01890161 TSNO
94908KDBQ DBQ20050622020010306/22/05 02:00:31  5-MIN KDBQ 220800Z AUTO 00000KT 10SM CLR 19/16 A3012 890 81 1600 000/00 RMK AO2 TSNO
94908KDBQ DBQ20050622020510306/22/05 02:05:31  5-MIN KDBQ 220805Z AUTO 00000KT 10SM CLR 19/16 A3012 890 84 1600 000/00 RMK AO2 TSNO
94908KDBQ DBQ20050622021010306/22/05 02:10:31  5-MIN KDBQ 220810Z AUTO 00000KT 10SM CLR 19/16 A3011 900 84 1600 000/00 RMK AO2 TSNO
94908KDBQ DBQ20050622021510306/22/05 02:15:31  5-MIN KDBQ 220815Z AUTO 14004KT 10SM CLR 19/16 A3012 900 81 1700 140/04 RMK AO2 TSNO
94908KDBQ DBQ20050622022010306/22/05 02:20:31  5-MIN KDBQ 220820Z AUTO 14004KT 10SM CLR 20/16 A3012 900 78 1700 140/04 RMK AO2 TSNO
94908KDBQ DBQ20050622022510306/22/05 02:25:31  5-MIN KDBQ 220825Z AUTO 13003KT 10SM CLR 19/16 A3012 890 81 1600 130/03 RMK AO2 TSNO
94908KDBQ DBQ20050622023010306/22/05 02:30:31  5-MIN KDBQ 220830Z AUTO 00000KT 10SM CLR 19/16 A3012 890 78 1700 000/00 RMK AO2 TSNO
94908KDBQ DBQ20050622023510306/22/05 02:35:31  5-MIN KDBQ 220835Z AUTO 00000KT 10SM CLR 19/16 A3012 900 78 1700 000/00 RMK AO2 TSNO
94908KDBQ DBQ20050622024010306/22/05 02:40:31  5-MIN KDBQ 220840Z AUTO 00000KT 10SM CLR 19/16 A3012 900 78 1700 000/00 RMK AO2 TSNO
94908KDBQ DBQ20050622024510306/22/05 02:45:31  5-MIN KDBQ 220845Z AUTO 00000KT 10SM CLR 20/16 A3012 900 75 1700 000/00 RMK AO2 TSNO
94908KDBQ DBQ20050622025012606/22/05 02:50:31  5-MIN KDBQ 220850Z AUTO 00000KT 10SM CLR 20/16 A3013 880 75 1700 000/00 RMK AO2 SLP196 T02000156 51009 TSNO
94908KDBQ DBQ20050622025512606/22/05 02:55:31  5-MIN KDBQ 220855Z AUTO 00000KT 10SM CLR 20/16 A3013 880 75 1700 000/00 RMK AO2 SLP196 T02000156 53001 TSNO
94908KDBQ DBQ20050622030010306/22/05 03:00:31  5-MIN KDBQ 220900Z AUTO 00000KT 10SM CLR 20/16 A3013 890 75 1700 000/00 RMK AO2 TSNO
94908KDBQ DBQ20050622030510306/22/05 03:05:31  5-MIN KDBQ 220905Z AUTO 05004KT 10SM CLR 19/15 A3013 890 75 1700 050/04 RMK AO2 TSNO
94908KDBQ DBQ20050622031010306/22/05 03:10:31  5-MIN KDBQ 220910Z AUTO 06004KT 10SM CLR 19/15 A3013 890 78 1600 060/04 RMK AO2 TSNO
94908KDBQ DBQ20050622031510306/22/05 03:15:31  5-MIN KDBQ 220915Z AUTO 07004KT 10SM CLR 19/15 A3013 880 75 1600 070/04 RMK AO2 TSNO
94908KDBQ DBQ20050622032010306/22/05 03:20:31  5-MIN KDBQ 220920Z AUTO 06003KT 10SM CLR 19/15 A3014 880 75 1600 060/03 RMK AO2 TSNO
94908KDBQ DBQ20050622032510306/22/05 03:25:31  5-MIN KDBQ 220925Z AUTO 06003KT 10SM CLR 18/15 A3013 880 81 1500 050/03 RMK AO2 TSNO
94908KDBQ DBQ20050622033010306/22/05 03:30:31  5-MIN KDBQ 220930Z AUTO 04006KT 10SM CLR 18/16 A3013 880 84 1500 040/06 RMK AO2 TSNO
94908KDBQ DBQ20050622033510306/22/05 03:35:31  5-MIN KDBQ 220935Z AUTO 04007KT 10SM CLR 18/16 A3013 880 84 1500 040/07 RMK AO2 TSNO
94908KDBQ DBQ20050622034010306/22/05 03:40:31  5-MIN KDBQ 220940Z AUTO 04007KT 10SM CLR 19/17 A3014 870 87 1600 040/07 RMK AO2 TSNO
94908KDBQ DBQ20050622034510306/22/05 03:45:31  5-MIN KDBQ 220945Z AUTO 03007KT 10SM CLR 19/17 A3014 870 87 1600 030/07 RMK AO2 TSNO
94908KDBQ DBQ20050622035012006/22/05 03:50:31  5-MIN KDBQ 220950Z AUTO 03008KT 10SM CLR 19/17 A3014 880 90 1600 030/08 RMK AO2 SLP197 T01890172 TSNO
94908KDBQ DBQ20050622035512006/22/05 03:55:31  5-MIN KDBQ 220955Z AUTO 03008KT 10SM CLR 19/17 A3014 880 90 1600 030/08 RMK AO2 SLP198 T01890172 TSNO
94908KDBQ DBQ20050622040010306/22/05 04:00:31  5-MIN KDBQ 221000Z AUTO 03006KT 10SM CLR 19/17 A3014 870 90 1600 030/06 RMK AO2 TSNO
94908KDBQ DBQ20050622040510206/22/05 04:05:31  5-MIN KDBQ 221005Z AUTO 04006KT 9SM CLR 18/17 A3015 870 93 1500 040/06 RMK AO2 TSNO
94908KDBQ DBQ20050622041010206/22/05 04:10:31  5-MIN KDBQ 221010Z AUTO 04004KT 9SM CLR 18/17 A3015 870 90 1500 040/04 RMK AO2 TSNO
94908KDBQ DBQ20050622041510206/22/05 04:15:31  5-MIN KDBQ 221015Z AUTO 05003KT 9SM CLR 18/17 A3015 860 90 1500 050/03 RMK AO2 TSNO
94908KDBQ DBQ20050622042010206/22/05 04:20:31  5-MIN KDBQ 221020Z AUTO 04005KT 9SM CLR 18/17 A3015 860 90 1500 040/05 RMK AO2 TSNO
94908KDBQ DBQ20050622042510206/22/05 04:25:31  5-MIN KDBQ 221025Z AUTO 04006KT 8SM CLR 18/17 A3015 860 93 1400 040/06 RMK AO2 TSNO
94908KDBQ DBQ20050622043010206/22/05 04:30:31  5-MIN KDBQ 221030Z AUTO 04004KT 8SM CLR 18/17 A3015 860 93 1400 040/04 RMK AO2 TSNO
94908KDBQ DBQ20050622043510206/22/05 04:35:31  5-MIN KDBQ 221035Z AUTO 00000KT 8SM CLR 18/17 A3015 860 93 1400 000/00 RMK AO2 TSNO
94908KDBQ DBQ20050622044010206/22/05 04:40:31  5-MIN KDBQ 221040Z AUTO 06004KT 9SM CLR 18/17 A3015 860 90 1500 060/04 RMK AO2 TSNO
94908KDBQ DBQ20050622044510306/22/05 04:45:31  5-MIN KDBQ 221045Z AUTO 06004KT 10SM CLR 18/16 A3016 860 87 1500 060/04 RMK AO2 TSNO
94908KDBQ DBQ20050622045012006/22/05 04:50:31  5-MIN KDBQ 221050Z AUTO 05005KT 10SM CLR 18/16 A3016 860 90 1400 050/05 RMK AO2 SLP205 T01780161 TSNO
94908KDBQ DBQ20050622045511006/22/05 04:55:31  5-MIN KDBQ 221055Z 04006KT 9SM CLR 18/16 A3016 860 90  1400 040/06 RMK AO2 SLP206 T01780161
94908KDBQ DBQ20050622050009306/22/05 05:00:31  5-MIN KDBQ 221100Z 05007KT 9SM CLR 18/16 A3016 860 90  1400 050/07 RMK AO2
94908KDBQ DBQ20050622050509306/22/05 05:05:31  5-MIN KDBQ 221105Z 05007KT 9SM CLR 18/16 A3016 860 90  1400 040/07 RMK AO2
94908KDBQ DBQ20050622051009306/22/05 05:10:31  5-MIN KDBQ 221110Z 04007KT 9SM CLR 18/16 A3016 860 90  1400 040/07 RMK AO2
94908KDBQ DBQ20050622051509306/22/05 05:15:31  5-MIN KDBQ 221115Z 05007KT 9SM CLR 18/16 A3016 850 90  1400 050/07 RMK AO2
94908KDBQ DBQ20050622052009406/22/05 05:20:31  5-MIN KDBQ 221120Z 06006KT 10SM CLR 18/16 A3017 850 84  1500 060/06 RMK AO2
94908KDBQ DBQ20050622052509406/22/05 05:25:31  5-MIN KDBQ 221125Z 07008KT 10SM CLR 18/16 A3017 850 84  1500 070/08 RMK AO2
94908KDBQ DBQ20050622053009406/22/05 05:30:31  5-MIN KDBQ 221130Z 07009KT 10SM CLR 19/14 A3017 850 75  1500 060/09 RMK AO2
94908KDBQ DBQ20050622053509406/22/05 05:35:31  5-MIN KDBQ 221135Z 07009KT 10SM CLR 19/14 A3017 850 75  1500 070/09 RMK AO2
94908KDBQ DBQ20050622054009406/22/05 05:40:31  5-MIN KDBQ 221140Z 07008KT 10SM CLR 19/14 A3017 850 75  1500 070/08 RMK AO2
94908KDBQ DBQ20050622054509406/22/05 05:45:31  5-MIN KDBQ 221145Z 07007KT 10SM CLR 19/14 A3017 850 70  1600 070/07 RMK AO2
94908KDBQ DBQ20050622055012906/22/05 05:50:31  5-MIN KDBQ 221150Z 08007KT 10SM CLR 19/14 A3017 850 70  1600 080/07 RMK AO2 SLP209 T01940139 10217 20178 53001
94908KDBQ DBQ20050622055512906/22/05 05:55:31  5-MIN KDBQ 221155Z 08008KT 10SM CLR 19/14 A3017 850 70  1600 080/08 RMK AO2 SLP210 T01940139 10217 20178 53013
94908KDBQ DBQ20050622060009406/22/05 06:00:31  5-MIN KDBQ 221200Z 09009KT 10SM CLR 20/14 A3017 840 67  1700 090/09 RMK AO2
94908KDBQ DBQ20050622060509406/22/05 06:05:31  5-MIN KDBQ 221205Z 09009KT 10SM CLR 20/13 A3018 840 65  1700 090/09 RMK AO2
94908KDBQ DBQ20050622061009406/22/05 06:10:31  5-MIN KDBQ 221210Z 09008KT 10SM CLR 20/13 A3018 840 65  1700 090/08 RMK AO2
94908KDBQ DBQ20050622061509406/22/05 06:15:31  5-MIN KDBQ 221215Z 09009KT 10SM CLR 21/13 A3018 840 63  1700 090/09 RMK AO2
94908KDBQ DBQ20050622062009406/22/05 06:20:31  5-MIN KDBQ 221220Z 08009KT 10SM CLR 21/13 A3018 840 60  1700 080/09 RMK AO2
94908KDBQ DBQ20050622062509406/22/05 06:25:31  5-MIN KDBQ 221225Z 08009KT 10SM CLR 21/13 A3018 840 63  1700 080/09 RMK AO2
94908KDBQ DBQ20050622063009406/22/05 06:30:31  5-MIN KDBQ 221230Z 08009KT 10SM CLR 21/13 A3018 840 58  1800 080/09 RMK AO2
94908KDBQ DBQ20050622063509406/22/05 06:35:31  5-MIN KDBQ 221235Z 09009KT 10SM CLR 21/13 A3018 840 58  1800 090/09 RMK AO2
94908KDBQ DBQ20050622064009406/22/05 06:40:31  5-MIN KDBQ 221240Z 09009KT 10SM CLR 21/13 A3018 840 58  1800 080/09 RMK AO2
94908KDBQ DBQ20050622064509406/22/05 06:45:31  5-MIN KDBQ 221245Z 09010KT 10SM CLR 21/13 A3018 830 58  1800 090/10 RMK AO2
94908KDBQ DBQ20050622065011106/22/05 06:50:31  5-MIN KDBQ 221250Z 09009KT 10SM CLR 22/13 A3018 830 56  1800 090/09 RMK AO2 SLP214 T02170128
94908KDBQ DBQ20050622065511706/22/05 06:55:31  5-MIN KDBQ 221255Z 09011G16KT 10SM CLR 22/12 A3019 830  52 1800 090/11G16 RMK AO2 SLP214 T02170117
94908KDBQ DBQ20050622070009406/22/05 07:00:31  5-MIN KDBQ 221300Z 10011KT 10SM CLR 22/12 A3019 830 52  1800 100/11 RMK AO2
94908KDBQ DBQ20050622070509406/22/05 07:05:31  5-MIN KDBQ 221305Z 10009KT 10SM CLR 22/12 A3019 830 52  1800 100/09 RMK AO2
94908KDBQ DBQ20050622071009406/22/05 07:10:31  5-MIN KDBQ 221310Z 10011KT 10SM CLR 22/11 A3019 830 50  1800 100/11 RMK AO2
94908KDBQ DBQ20050622071509406/22/05 07:15:31  5-MIN KDBQ 221315Z 10009KT 10SM CLR 22/12 A3019 830 52  1800 100/09 RMK AO2
94908KDBQ DBQ20050622072009406/22/05 07:20:31  5-MIN KDBQ 221320Z 10011KT 10SM CLR 22/11 A3019 830 47  1900 100/11 RMK AO2
94908KDBQ DBQ20050622072509406/22/05 07:25:31  5-MIN KDBQ 221325Z 10010KT 10SM CLR 22/11 A3019 830 47  1900 100/10 RMK AO2
94908KDBQ DBQ20050622073009406/22/05 07:30:31  5-MIN KDBQ 221330Z 11012KT 10SM CLR 22/11 A3019 830 47  1900 110/12 RMK AO2
94908KDBQ DBQ20050622073509406/22/05 07:35:31  5-MIN KDBQ 221335Z 11010KT 10SM CLR 22/10 A3019 830 45  1900 110/10 RMK AO2
94908KDBQ DBQ20050622074010006/22/05 07:40:31  5-MIN KDBQ 221340Z 11012G16KT 10SM CLR 22/09 A3019 830  43 1900 110/12G16 RMK AO2
94908KDBQ DBQ20050622074509406/22/05 07:45:31  5-MIN KDBQ 221345Z 11011KT 10SM CLR 23/09 A3019 830 42  2000 100/11 RMK AO2
94908KDBQ DBQ20050622075011106/22/05 07:50:31  5-MIN KDBQ 221350Z 12010KT 10SM CLR 23/09 A3019 830 42  2000 120/10 RMK AO2 SLP219 T02280094
94908KDBQ DBQ20050622075511106/22/05 07:55:31  5-MIN KDBQ 221355Z 12013KT 10SM CLR 23/09 A3020 820 42  2000 120/13 RMK AO2 SLP219 T02280094
94908KDBQ DBQ20050622080009406/22/05 08:00:31  5-MIN KDBQ 221400Z 12011KT 10SM CLR 23/09 A3019 830 40  2000 120/11 RMK AO2
94908KDBQ DBQ20050622080509406/22/05 08:05:31  5-MIN KDBQ 221405Z 12009KT 10SM CLR 23/09 A3020 830 41  2000 120/09 RMK AO2
94908KDBQ DBQ20050622081009406/22/05 08:10:31  5-MIN KDBQ 221410Z 12013KT 10SM CLR 23/09 A3019 830 41  2000 120/13 RMK AO2
94908KDBQ DBQ20050622081509406/22/05 08:15:31  5-MIN KDBQ 221415Z 12009KT 10SM CLR 23/09 A3019 830 41  2000 120/09 RMK AO2
94908KDBQ DBQ20050622082009406/22/05 08:20:31  5-MIN KDBQ 221420Z 13012KT 10SM CLR 23/10 A3019 830 42  2000 130/12 RMK AO2
94908KDBQ DBQ20050622082510006/22/05 08:25:31  5-MIN KDBQ 221425Z 13011G16KT 10SM CLR 23/09 A3019 830  41 2000 130/11G16 RMK AO2
94908KDBQ DBQ20050622083010006/22/05 08:30:31  5-MIN KDBQ 221430Z 13010G16KT 10SM CLR 24/10 A3019 830  41 2100 130/10G16 RMK AO2
94908KDBQ DBQ20050622083509406/22/05 08:35:31  5-MIN KDBQ 221435Z 12008KT 10SM CLR 24/11 A3019 830 42  2100 120/08 RMK AO2
94908KDBQ DBQ20050622084009406/22/05 08:40:31  5-MIN KDBQ 221440Z 12009KT 10SM CLR 24/11 A3020 820 42  2100 120/09 RMK AO2
94908KDBQ DBQ20050622084509406/22/05 08:45:31  5-MIN KDBQ 221445Z 11009KT 10SM CLR 24/11 A3020 820 42  2100 110/09 RMK AO2
94908KDBQ DBQ20050622085011706/22/05 08:50:31  5-MIN KDBQ 221450Z 12009KT 10SM CLR 24/10 A3020 820 41  2100 120/09 RMK AO2 SLP220 T02390100 53013
94908KDBQ DBQ20050622085511706/22/05 08:55:31  5-MIN KDBQ 221455Z 13010KT 10SM CLR 24/11 A3020 820 41  2100 120/10 RMK AO2 SLP219 T02440106 51008
94908KDBQ DBQ20050622090009406/22/05 09:00:31  5-MIN KDBQ 221500Z 13009KT 10SM CLR 24/10 A3020 820 39  2100 120/09 RMK AO2
94908KDBQ DBQ20050622090509406/22/05 09:05:31  5-MIN KDBQ 221505Z 11011KT 10SM CLR 24/11 A3020 820 41  2100 110/11 RMK AO2
94908KDBQ DBQ20050622091009406/22/05 09:10:31  5-MIN KDBQ 221510Z 12010KT 10SM CLR 24/10 A3020 820 39  2100 120/10 RMK AO2
94908KDBQ DBQ20050622091509406/22/05 09:15:31  5-MIN KDBQ 221515Z 11011KT 10SM CLR 25/11 A3020 820 39  2200 100/11 RMK AO2
94908KDBQ DBQ20050622092009406/22/05 09:20:31  5-MIN KDBQ 221520Z 13008KT 10SM CLR 25/11 A3020 820 39  2200 130/08 RMK AO2
94908KDBQ DBQ20050622092509406/22/05 09:25:31  5-MIN KDBQ 221525Z 13011KT 10SM CLR 25/11 A3020 820 41  2200 130/11 RMK AO2
94908KDBQ DBQ20050622093009406/22/05 09:30:31  5-MIN KDBQ 221530Z 13011KT 10SM CLR 25/11 A3020 820 39  2200 130/11 RMK AO2
94908KDBQ DBQ20050622093509406/22/05 09:35:31  5-MIN KDBQ 221535Z 13010KT 10SM CLR 25/11 A3020 820 39  2200 130/10 RMK AO2
94908KDBQ DBQ20050622094009406/22/05 09:40:31  5-MIN KDBQ 221540Z 13009KT 10SM CLR 26/11 A3019 830 38  2300 130/09 RMK AO2
94908KDBQ DBQ20050622094509406/22/05 09:45:31  5-MIN KDBQ 221545Z 14010KT 10SM CLR 26/11 A3020 830 38  2300 140/10 RMK AO2
94908KDBQ DBQ20050622095011106/22/05 09:50:31  5-MIN KDBQ 221550Z 14012KT 10SM CLR 26/11 A3020 820 38  2300 140/12 RMK AO2 SLP219 T02560106
94908KDBQ DBQ20050622095511106/22/05 09:55:31  5-MIN KDBQ 221555Z 15011KT 10SM CLR 26/11 A3020 820 40  2300 150/11 RMK AO2 SLP219 T02560111
94908KDBQ DBQ20050622100009406/22/05 10:00:31  5-MIN KDBQ 221600Z 13010KT 10SM CLR 26/11 A3019 830 38  2300 130/10 RMK AO2
94908KDBQ DBQ20050622100509406/22/05 10:05:31  5-MIN KDBQ 221605Z 14011KT 10SM CLR 26/11 A3020 830 40  2300 130/11 RMK AO2
94908KDBQ DBQ20050622101009406/22/05 10:10:31  5-MIN KDBQ 221610Z 12011KT 10SM CLR 26/12 A3020 820 40  2300 120/11 RMK AO2
94908KDBQ DBQ20050622101509406/22/05 10:15:31  5-MIN KDBQ 221615Z 12011KT 10SM CLR 26/11 A3020 820 40  2300 120/11 RMK AO2
94908KDBQ DBQ20050622102009406/22/05 10:20:31  5-MIN KDBQ 221620Z 12009KT 10SM CLR 26/11 A3020 820 40  2300 110/09 RMK AO2
94908KDBQ DBQ20050622102509406/22/05 10:25:31  5-MIN KDBQ 221625Z 12010KT 10SM CLR 26/11 A3020 820 38  2300 110/10 RMK AO2
94908KDBQ DBQ20050622103009406/22/05 10:30:31  5-MIN KDBQ 221630Z 13010KT 10SM CLR 26/11 A3020 830 38  2300 130/10 RMK AO2
94908KDBQ DBQ20050622103509406/22/05 10:35:31  5-MIN KDBQ 221635Z 15008KT 10SM CLR 26/11 A3019 830 38  2300 150/08 RMK AO2
94908KDBQ DBQ20050622104009406/22/05 10:40:31  5-MIN KDBQ 221640Z 14010KT 10SM CLR 26/11 A3019 830 38  2300 140/10 RMK AO2
94908KDBQ DBQ20050622104509406/22/05 10:45:31  5-MIN KDBQ 221645Z 12010KT 10SM CLR 27/11 A3019 830 37  2400 120/10 RMK AO2
94908KDBQ DBQ20050622105011106/22/05 10:50:31  5-MIN KDBQ 221650Z 12009KT 10SM CLR 27/12 A3019 830 38  2400 120/09 RMK AO2 SLP215 T02670117
94908KDBQ DBQ20050622105512606/22/05 10:55:31  5-MIN KDBQ 221655Z 14007KT 110V170 10SM CLR 27/12 A3018 840 38 2400 140/07 110V170 RMK AO2 SLP213 T02670117
94908KDBQ DBQ20050622110009406/22/05 11:00:31  5-MIN KDBQ 221700Z 12009KT 10SM CLR 27/12 A3018 840 38  2400 120/09 RMK AO2
94908KDBQ DBQ20050622110509406/22/05 11:05:31  5-MIN KDBQ 221705Z 13007KT 10SM CLR 27/12 A3018 840 38  2400 130/07 RMK AO2
94908KDBQ DBQ20050622111009406/22/05 11:10:31  5-MIN KDBQ 221710Z 13008KT 10SM CLR 27/12 A3018 840 38  2400 130/08 RMK AO2
94908KDBQ DBQ20050622111510006/22/05 11:15:31  5-MIN KDBQ 221715Z 16010G14KT 10SM CLR 27/12 A3018 840  37 2500 160/10G14 RMK AO2
94908KDBQ DBQ20050622112010006/22/05 11:20:31  5-MIN KDBQ 221720Z 12007G14KT 10SM CLR 27/12 A3018 840  37 2500 120/07G14 RMK AO2
94908KDBQ DBQ20050622112509406/22/05 11:25:31  5-MIN KDBQ 221725Z 12008KT 10SM CLR 27/12 A3018 840 39  2500 120/08 RMK AO2
94908KDBQ DBQ20050622113009406/22/05 11:30:31  5-MIN KDBQ 221730Z 13007KT 10SM CLR 27/12 A3018 840 38  2400 130/07 RMK AO2
94908KDBQ DBQ20050622113509406/22/05 11:35:31  5-MIN KDBQ 221735Z 14007KT 10SM CLR 28/12 A3018 840 37  2500 140/07 RMK AO2
94908KDBQ DBQ20050622114009406/22/05 11:40:31  5-MIN KDBQ 221740Z 12011KT 10SM CLR 27/12 A3018 840 37  2500 110/11 RMK AO2
94908KDBQ DBQ20050622114509406/22/05 11:45:31  5-MIN KDBQ 221745Z 12008KT 10SM CLR 27/12 A3018 840 37  2500 120/08 RMK AO2
94908KDBQ DBQ20050622115012906/22/05 11:50:31  5-MIN KDBQ 221750Z 11009KT 10SM CLR 28/12 A3017 840 37  2500 110/09 RMK AO2 SLP212 T02780122 10278 20194 51008
94908KDBQ DBQ20050622115512906/22/05 11:55:31  5-MIN KDBQ 221755Z 13009KT 10SM CLR 28/12 A3017 850 36  2500 130/09 RMK AO2 SLP209 T02780117 10278 20194 58008
94908KDBQ DBQ20050622120010006/22/05 12:00:31  5-MIN KDBQ 221800Z 12011G15KT 10SM CLR 28/12 A3017 850  37 2500 120/11G15 RMK AO2
94908KDBQ DBQ20050622120510006/22/05 12:05:31  5-MIN KDBQ 221805Z 13010G15KT 10SM CLR 28/12 A3017 850  37 2500 130/10G15 RMK AO2
94908KDBQ DBQ20050622121010906/22/05 12:10:31  5-MIN KDBQ 221810Z 16007KT 130V190 10SM CLR 28/12 A3017 850 37 2600 160/07 130V190 RMK AO2
94908KDBQ DBQ20050622121509406/22/05 12:15:31  5-MIN KDBQ 221815Z 12008KT 10SM CLR 28/13 A3017 850 37  2600 120/08 RMK AO2
94908KDBQ DBQ20050622122009406/22/05 12:20:31  5-MIN KDBQ 221820Z 12008KT 10SM CLR 28/12 A3017 850 37  2600 120/08 RMK AO2
94908KDBQ DBQ20050622122509406/22/05 12:25:31  5-MIN KDBQ 221825Z 12011KT 10SM CLR 28/12 A3016 850 36  2600 120/11 RMK AO2
94908KDBQ DBQ20050622123010006/22/05 12:30:31  5-MIN KDBQ 221830Z 14010G16KT 10SM CLR 28/12 A3016 860  36 2600 140/10G16 RMK AO2
94908KDBQ DBQ20050622123510006/22/05 12:35:31  5-MIN KDBQ 221835Z 15010G16KT 10SM CLR 28/12 A3016 860  36 2600 150/10G16 RMK AO2
94908KDBQ DBQ20050622124009406/22/05 12:40:31  5-MIN KDBQ 221840Z 13007KT 10SM CLR 28/12 A3016 860 36  2600 130/07 RMK AO2
94908KDBQ DBQ20050622124509406/22/05 12:45:31  5-MIN KDBQ 221845Z 14011KT 10SM CLR 28/12 A3016 860 36  2600 140/11 RMK AO2
94908KDBQ DBQ20050622125011106/22/05 12:50:31  5-MIN KDBQ 221850Z 14009KT 10SM CLR 28/12 A3016 860 36  2600 140/09 RMK AO2 SLP205 T02830122
94908KDBQ DBQ20050622125511106/22/05 12:55:31  5-MIN KDBQ 221855Z 15009KT 10SM CLR 28/12 A3016 860 36  2600 150/09 RMK AO2 SLP204 T02830122
94908KDBQ DBQ20050622130009406/22/05 13:00:31  5-MIN KDBQ 221900Z 13009KT 10SM CLR 29/12 A3015 860 35  2700 130/09 RMK AO2
94908KDBQ DBQ20050622130510906/22/05 13:05:31  5-MIN KDBQ 221905Z 12008KT 100V160 10SM CLR 29/12 A3015 870 35 2700 120/08 100V160 RMK AO2
94908KDBQ DBQ20050622131009406/22/05 13:10:31  5-MIN KDBQ 221910Z 12006KT 10SM CLR 29/12 A3015 870 35  2700 120/06 RMK AO2
94908KDBQ DBQ20050622131509406/22/05 13:15:31  5-MIN KDBQ 221915Z 17008KT 10SM CLR 28/12 A3015 870 36  2600 170/08 RMK AO2
94908KDBQ DBQ20050622132009406/22/05 13:20:31  5-MIN KDBQ 221920Z 17009KT 10SM CLR 29/13 A3015 870 38  2700 170/09 RMK AO2
94908KDBQ DBQ20050622132509406/22/05 13:25:31  5-MIN KDBQ 221925Z 17008KT 10SM CLR 29/14 A3015 870 38  2800 160/08 RMK AO2
94908KDBQ DBQ20050622133009406/22/05 13:30:31  5-MIN KDBQ 221930Z 15006KT 10SM CLR 29/13 A3015 870 36  2700 150/06 RMK AO2
94908KDBQ DBQ20050622133509406/22/05 13:35:31  5-MIN KDBQ 221935Z 15008KT 10SM CLR 29/13 A3014 870 36  2800 150/08 RMK AO2
94908KDBQ DBQ20050622134009406/22/05 13:40:31  5-MIN KDBQ 221940Z 15009KT 10SM CLR 29/13 A3014 880 36  2800 150/09 RMK AO2
94908KDBQ DBQ20050622134509406/22/05 13:45:31  5-MIN KDBQ 221945Z 15008KT 10SM CLR 29/13 A3014 870 36  2700 150/08 RMK AO2
94908KDBQ DBQ20050622135011106/22/05 13:50:31  5-MIN KDBQ 221950Z 15009KT 10SM CLR 29/13 A3014 880 38  2700 140/09 RMK AO2 SLP198 T02890133
94908KDBQ DBQ20050622135511106/22/05 13:55:31  5-MIN KDBQ 221955Z 14010KT 10SM CLR 29/13 A3014 880 36  2700 140/10 RMK AO2 SLP199 T02890128
94908KDBQ DBQ20050622140009406/22/05 14:00:31  5-MIN KDBQ 222000Z 12011KT 10SM CLR 29/13 A3014 880 36  2700 120/11 RMK AO2
94908KDBQ DBQ20050622140509406/22/05 14:05:31  5-MIN KDBQ 222005Z 16010KT 10SM CLR 29/13 A3014 880 36  2800 160/10 RMK AO2
94908KDBQ DBQ20050622141009406/22/05 14:10:31  5-MIN KDBQ 222010Z 15010KT 10SM CLR 29/14 A3013 880 38  2800 150/10 RMK AO2
94908KDBQ DBQ20050622141509406/22/05 14:15:31  5-MIN KDBQ 222015Z 16007KT 10SM CLR 29/13 A3013 880 38  2700 160/07 RMK AO2
94908KDBQ DBQ20050622142009406/22/05 14:20:31  5-MIN KDBQ 222020Z 15008KT 10SM CLR 29/14 A3013 880 38  2800 150/08 RMK AO2
94908KDBQ DBQ20050622142510906/22/05 14:25:31  5-MIN KDBQ 222025Z 17007KT 140V220 10SM CLR 29/14 A3013 880 38 2800 170/07 140V220 RMK AO2
94908KDBQ DBQ20050622143009406/22/05 14:30:31  5-MIN KDBQ 222030Z 16008KT 10SM CLR 29/14 A3013 890 38  2800 160/08 RMK AO2
94908KDBQ DBQ20050622143509406/22/05 14:35:31  5-MIN KDBQ 222035Z 15008KT 10SM CLR 29/14 A3013 890 38  2800 150/08 RMK AO2
94908KDBQ DBQ20050622144009406/22/05 14:40:31  5-MIN KDBQ 222040Z 14008KT 10SM CLR 29/14 A3013 890 38  2800 140/08 RMK AO2
94908KDBQ DBQ20050622144509406/22/05 14:45:31  5-MIN KDBQ 222045Z 12008KT 10SM CLR 29/13 A3012 890 36  2800 120/08 RMK AO2
94908KDBQ DBQ20050622145011706/22/05 14:50:31  5-MIN KDBQ 222050Z 14008KT 10SM CLR 29/13 A3012 890 36  2800 140/08 RMK AO2 SLP193 T02940133 58008
94908KDBQ DBQ20050622145511706/22/05 14:55:31  5-MIN KDBQ 222055Z 13010KT 10SM CLR 29/14 A3012 890 38  2800 130/10 RMK AO2 SLP193 T02940139 57016
94908KDBQ DBQ20050622150009406/22/05 15:00:31  5-MIN KDBQ 222100Z 17009KT 10SM CLR 29/14 A3012 890 38  2800 170/09 RMK AO2
94908KDBQ DBQ20050622150509406/22/05 15:05:31  5-MIN KDBQ 222105Z 17011KT 10SM CLR 29/14 A3012 890 39  2800 170/11 RMK AO2
94908KDBQ DBQ20050622151009406/22/05 15:10:31  5-MIN KDBQ 222110Z 17009KT 10SM CLR 29/14 A3012 900 38  2800 170/09 RMK AO2
94908KDBQ DBQ20050622151509406/22/05 15:15:31  5-MIN KDBQ 222115Z 15008KT 10SM CLR 30/14 A3012 900 36  2900 150/08 RMK AO2
94908KDBQ DBQ20050622152010906/22/05 15:20:31  5-MIN KDBQ 222120Z 15009KT 110V180 10SM CLR 30/14 A3012 900 38 2900 150/09 110V180 RMK AO2
94908KDBQ DBQ20050622152509406/22/05 15:25:31  5-MIN KDBQ 222125Z 18009KT 10SM CLR 30/14 A3012 900 38  2900 180/09 RMK AO2
94908KDBQ DBQ20050622153009406/22/05 15:30:31  5-MIN KDBQ 222130Z 17009KT 10SM CLR 29/14 A3011 900 39  2800 170/09 RMK AO2
94908KDBQ DBQ20050622153509406/22/05 15:35:31  5-MIN KDBQ 222135Z 18009KT 10SM CLR 30/14 A3011 900 38  2900 170/09 RMK AO2
94908KDBQ DBQ20050622154009406/22/05 15:40:31  5-MIN KDBQ 222140Z VRB05KT 10SM CLR 29/14 A3011 910 39  2800 VRB/05 RMK AO2
94908KDBQ DBQ20050622154509406/22/05 15:45:31  5-MIN KDBQ 222145Z 15005KT 10SM CLR 30/14 A3010 910 36  2900 150/05 RMK AO2
94908KDBQ DBQ20050622155011106/22/05 15:50:31  5-MIN KDBQ 222150Z 15012KT 10SM CLR 29/14 A3010 910 39  2800 150/12 RMK AO2 SLP187 T02940144
94908KDBQ DBQ20050622155511106/22/05 15:55:31  5-MIN KDBQ 222155Z 14008KT 10SM CLR 29/14 A3011 910 39  2800 140/08 RMK AO2 SLP187 T02940144
94908KDBQ DBQ20050622160009406/22/05 16:00:31  5-MIN KDBQ 222200Z 15007KT 10SM CLR 29/14 A3011 910 39  2800 150/07 RMK AO2
94908KDBQ DBQ20050622160509406/22/05 16:05:31  5-MIN KDBQ 222205Z 18008KT 10SM CLR 29/14 A3011 910 39  2800 180/08 RMK AO2
94908KDBQ DBQ20050622161009406/22/05 16:10:31  5-MIN KDBQ 222210Z 16007KT 10SM CLR 29/14 A3011 910 39  2800 160/07 RMK AO2
94908KDBQ DBQ20050622161509406/22/05 16:15:31  5-MIN KDBQ 222215Z 12009KT 10SM CLR 29/14 A3011 910 39  2800 120/09 RMK AO2
94908KDBQ DBQ20050622162009406/22/05 16:20:31  5-MIN KDBQ 222220Z 16008KT 10SM CLR 29/14 A3011 910 39  2800 160/08 RMK AO2
94908KDBQ DBQ20050622162509406/22/05 16:25:31  5-MIN KDBQ 222225Z 18008KT 10SM CLR 29/14 A3010 910 40  2700 180/08 RMK AO2
94908KDBQ DBQ20050622163009406/22/05 16:30:31  5-MIN KDBQ 222230Z 17008KT 10SM CLR 28/14 A3010 910 42  2700 170/08 RMK AO2
94908KDBQ DBQ20050622163509406/22/05 16:35:31  5-MIN KDBQ 222235Z 15006KT 10SM CLR 28/14 A3010 910 42  2700 150/06 RMK AO2
94908KDBQ DBQ20050622164009406/22/05 16:40:31  5-MIN KDBQ 222240Z 17007KT 10SM CLR 29/15 A3010 910 42  2700 170/07 RMK AO2
94908KDBQ DBQ20050622164509406/22/05 16:45:31  5-MIN KDBQ 222245Z 14006KT 10SM CLR 29/15 A3010 910 42  2800 140/06 RMK AO2
94908KDBQ DBQ20050622165011106/22/05 16:50:31  5-MIN KDBQ 222250Z 15005KT 10SM CLR 29/16 A3010 920 44  2800 150/05 RMK AO2 SLP185 T02890156
94908KDBQ DBQ20050622165511106/22/05 16:55:31  5-MIN KDBQ 222255Z 14007KT 10SM CLR 29/16 A3010 910 42  2800 140/07 RMK AO2 SLP186 T02940156
94908KDBQ DBQ20050622170009406/22/05 17:00:31  5-MIN KDBQ 222300Z 14007KT 10SM CLR 29/16 A3010 910 42  2800 140/07 RMK AO2
94908KDBQ DBQ20050622170509406/22/05 17:05:31  5-MIN KDBQ 222305Z 14009KT 10SM CLR 29/15 A3010 910 41  2800 140/09 RMK AO2
94908KDBQ DBQ20050622171009406/22/05 17:10:31  5-MIN KDBQ 222310Z 14007KT 10SM CLR 29/15 A3010 920 41  2800 140/07 RMK AO2
94908KDBQ DBQ20050622171509406/22/05 17:15:31  5-MIN KDBQ 222315Z 13008KT 10SM CLR 29/15 A3009 920 41  2800 130/08 RMK AO2
94908KDBQ DBQ20050622172009406/22/05 17:20:31  5-MIN KDBQ 222320Z 13007KT 10SM CLR 29/15 A3009 920 41  2800 130/07 RMK AO2
94908KDBQ DBQ20050622172509406/22/05 17:25:31  5-MIN KDBQ 222325Z 15007KT 10SM CLR 29/15 A3009 920 42  2800 140/07 RMK AO2
94908KDBQ DBQ20050622173009406/22/05 17:30:31  5-MIN KDBQ 222330Z 13007KT 10SM CLR 29/15 A3009 920 42  2800 120/07 RMK AO2
94908KDBQ DBQ20050622173509406/22/05 17:35:31  5-MIN KDBQ 222335Z 13005KT 10SM CLR 29/16 A3009 920 44  2800 130/05 RMK AO2
94908KDBQ DBQ20050622174009406/22/05 17:40:31  5-MIN KDBQ 222340Z 13006KT 10SM CLR 29/15 A3009 930 42  2800 130/06 RMK AO2
94908KDBQ DBQ20050622174509406/22/05 17:45:31  5-MIN KDBQ 222345Z 13006KT 10SM CLR 29/15 A3008 930 42  2800 130/06 RMK AO2
94908KDBQ DBQ20050622175012906/22/05 17:50:31  5-MIN KDBQ 222350Z 13005KT 10SM CLR 29/16 A3008 930 44  2800 130/05 RMK AO2 SLP180 T02890156 10300 20278 57016
94908KDBQ DBQ20050622175512906/22/05 17:55:31  5-MIN KDBQ 222355Z 13007KT 10SM CLR 29/16 A3008 930 44  2800 130/07 RMK AO2 SLP179 T02890156 10300 20278 56014
94908KDBQ DBQ20050622180009406/22/05 18:00:31  5-MIN KDBQ 230000Z 12007KT 10SM CLR 28/16 A3008 930 45  2700 120/07 RMK AO2
94908KDBQ DBQ20050622180509406/22/05 18:05:31  5-MIN KDBQ 230005Z 12007KT 10SM CLR 28/15 A3008 930 43  2700 120/07 RMK AO2
94908KDBQ DBQ20050622181009406/22/05 18:10:31  5-MIN KDBQ 230010Z 12006KT 10SM CLR 28/16 A3008 930 45  2700 120/06 RMK AO2
94908KDBQ DBQ20050622181509406/22/05 18:15:31  5-MIN KDBQ 230015Z 12006KT 10SM CLR 28/16 A3008 930 47  2700 120/06 RMK AO2
94908KDBQ DBQ20050622182009406/22/05 18:20:31  5-MIN KDBQ 230020Z 13006KT 10SM CLR 28/16 A3008 930 47  2700 120/06 RMK AO2
94908KDBQ DBQ20050622182509406/22/05 18:25:31  5-MIN KDBQ 230025Z 12005KT 10SM CLR 28/16 A3008 930 48  2600 120/05 RMK AO2
94908KDBQ DBQ20050622183009406/22/05 18:30:31  5-MIN KDBQ 230030Z 12005KT 10SM CLR 28/17 A3008 930 50  2600 120/05 RMK AO2
94908KDBQ DBQ20050622183509406/22/05 18:35:31  5-MIN KDBQ 230035Z 12006KT 10SM CLR 27/17 A3008 930 52  2600 120/06 RMK AO2
94908KDBQ DBQ20050622184009406/22/05 18:40:31  5-MIN KDBQ 230040Z 12006KT 10SM CLR 27/17 A3008 930 52  2600 120/06 RMK AO2
94908KDBQ DBQ20050622184509406/22/05 18:45:31  5-MIN KDBQ 230045Z 12005KT 10SM CLR 27/17 A3008 930 53  2500 120/05 RMK AO2
94908KDBQ DBQ20050622185012006/22/05 18:50:31  5-MIN KDBQ 230050Z AUTO 12005KT 10SM CLR 27/17 A3008 930 53 2500 120/05 RMK AO2 SLP179 T02670167 TSNO
94908KDBQ DBQ20050622185512006/22/05 18:55:31  5-MIN KDBQ 230055Z AUTO 13005KT 10SM CLR 27/17 A3008 930 53 2500 120/05 RMK AO2 SLP179 T02670167 TSNO
94908KDBQ DBQ20050622190010306/22/05 19:00:31  5-MIN KDBQ 230100Z AUTO 12006KT 10SM CLR 27/16 A3008 930 52 2500 120/06 RMK AO2 TSNO
94908KDBQ DBQ20050622190510306/22/05 19:05:31  5-MIN KDBQ 230105Z AUTO 12006KT 10SM CLR 27/16 A3008 930 52 2500 120/06 RMK AO2 TSNO
94908KDBQ DBQ20050622191010306/22/05 19:10:31  5-MIN KDBQ 230110Z AUTO 12006KT 10SM CLR 26/16 A3008 930 53 2500 120/06 RMK AO2 TSNO
94908KDBQ DBQ20050622191510306/22/05 19:15:31  5-MIN KDBQ 230115Z AUTO 12006KT 10SM CLR 26/16 A3008 930 55 2400 120/06 RMK AO2 TSNO
94908KDBQ DBQ20050622192010306/22/05 19:20:31  5-MIN KDBQ 230120Z AUTO 12006KT 10SM CLR 26/16 A3008 930 55 2400 120/06 RMK AO2 TSNO
94908KDBQ DBQ20050622192510306/22/05 19:25:31  5-MIN KDBQ 230125Z AUTO 12006KT 10SM CLR 25/16 A3009 930 57 2300 120/06 RMK AO2 TSNO
94908KDBQ DBQ20050622193010306/22/05 19:30:31  5-MIN KDBQ 230130Z AUTO 12006KT 10SM CLR 24/16 A3008 930 59 2300 120/06 RMK AO2 TSNO
94908KDBQ DBQ20050622193510306/22/05 19:35:31  5-MIN KDBQ 230135Z AUTO 12006KT 10SM CLR 24/16 A3008 930 59 2300 120/06 RMK AO2 TSNO
94908KDBQ DBQ20050622194010306/22/05 19:40:31  5-MIN KDBQ 230140Z AUTO 13004KT 10SM CLR 24/16 A3009 930 59 2300 130/04 RMK AO2 TSNO
94908KDBQ DBQ20050622194510306/22/05 19:45:31  5-MIN KDBQ 230145Z AUTO 13005KT 10SM CLR 24/16 A3009 930 59 2300 130/05 RMK AO2 TSNO
94908KDBQ DBQ20050622195012006/22/05 19:50:31  5-MIN KDBQ 230150Z AUTO 13005KT 10SM CLR 24/16 A3009 930 57 2300 120/05 RMK AO2 SLP181 T02440156 TSNO
94908KDBQ DBQ20050622195512006/22/05 19:55:31  5-MIN KDBQ 230155Z AUTO 12006KT 10SM CLR 24/16 A3008 930 57 2300 120/06 RMK AO2 SLP181 T02440156 TSNO
94908KDBQ DBQ20050622200010306/22/05 20:00:31  5-MIN KDBQ 230200Z AUTO 12006KT 10SM CLR 24/16 A3008 930 59 2200 120/06 RMK AO2 TSNO
94908KDBQ DBQ20050622200510306/22/05 20:05:31  5-MIN KDBQ 230205Z AUTO 13006KT 10SM CLR 24/16 A3009 930 59 2200 130/06 RMK AO2 TSNO
94908KDBQ DBQ20050622201010306/22/05 20:10:31  5-MIN KDBQ 230210Z AUTO 13005KT 10SM CLR 24/16 A3009 930 59 2200 130/05 RMK AO2 TSNO
94908KDBQ DBQ20050622201510306/22/05 20:15:31  5-MIN KDBQ 230215Z AUTO 13006KT 10SM CLR 24/16 A3009 930 57 2300 130/06 RMK AO2 TSNO
94908KDBQ DBQ20050622202010306/22/05 20:20:31  5-MIN KDBQ 230220Z AUTO 13006KT 10SM CLR 25/16 A3009 930 55 2300 130/06 RMK AO2 TSNO
94908KDBQ DBQ20050622202510306/22/05 20:25:31  5-MIN KDBQ 230225Z AUTO 14008KT 10SM CLR 24/16 A3009 930 57 2300 130/08 RMK AO2 TSNO
94908KDBQ DBQ20050622203010306/22/05 20:30:31  5-MIN KDBQ 230230Z AUTO 13007KT 10SM CLR 24/16 A3009 930 57 2300 130/07 RMK AO2 TSNO
94908KDBQ DBQ20050622203510306/22/05 20:35:31  5-MIN KDBQ 230235Z AUTO 14008KT 10SM CLR 24/16 A3009 920 57 2300 130/08 RMK AO2 TSNO
94908KDBQ DBQ20050622204010306/22/05 20:40:31  5-MIN KDBQ 230240Z AUTO 14008KT 10SM CLR 24/16 A3009 930 57 2300 130/08 RMK AO2 TSNO
94908KDBQ DBQ20050622204510306/22/05 20:45:31  5-MIN KDBQ 230245Z AUTO 14007KT 10SM CLR 24/16 A3008 930 57 2300 140/07 RMK AO2 TSNO
94908KDBQ DBQ20050622205012606/22/05 20:50:31  5-MIN KDBQ 230250Z AUTO 14008KT 10SM CLR 24/16 A3008 930 57 2300 140/08 RMK AO2 SLP180 T02440156 56014 TSNO
94908KDBQ DBQ20050622205512606/22/05 20:55:31  5-MIN KDBQ 230255Z AUTO 14008KT 10SM CLR 24/16 A3008 930 57 2300 140/08 RMK AO2 SLP180 T02440156 50000 TSNO
94908KDBQ DBQ20050622210010306/22/05 21:00:31  5-MIN KDBQ 230300Z AUTO 14007KT 10SM CLR 24/16 A3009 930 59 2200 140/07 RMK AO2 TSNO
94908KDBQ DBQ20050622210510306/22/05 21:05:31  5-MIN KDBQ 230305Z AUTO 14007KT 10SM CLR 24/16 A3009 930 59 2200 140/07 RMK AO2 TSNO
94908KDBQ DBQ20050622211010306/22/05 21:10:31  5-MIN KDBQ 230310Z AUTO 14007KT 10SM CLR 24/16 A3009 920 59 2200 140/07 RMK AO2 TSNO
94908KDBQ DBQ20050622211510306/22/05 21:15:31  5-MIN KDBQ 230315Z AUTO 14008KT 10SM CLR 24/16 A3009 920 59 2200 140/08 RMK AO2 TSNO
94908KDBQ DBQ20050622212010306/22/05 21:20:31  5-MIN KDBQ 230320Z AUTO 14008KT 10SM CLR 24/16 A3009 930 59 2200 140/08 RMK AO2 TSNO
94908KDBQ DBQ20050622212510306/22/05 21:25:31  5-MIN KDBQ 230325Z AUTO 14008KT 10SM CLR 24/16 A3009 930 59 2200 140/08 RMK AO2 TSNO
94908KDBQ DBQ20050622213010306/22/05 21:30:31  5-MIN KDBQ 230330Z AUTO 14008KT 10SM CLR 24/16 A3009 920 59 2200 140/08 RMK AO2 TSNO
94908KDBQ DBQ20050622213510306/22/05 21:35:31  5-MIN KDBQ 230335Z AUTO 14008KT 10SM CLR 24/16 A3009 930 61 2200 140/08 RMK AO2 TSNO
94908KDBQ DBQ20050622214010306/22/05 21:40:31  5-MIN KDBQ 230340Z AUTO 14008KT 10SM CLR 24/16 A3009 920 61 2200 140/08 RMK AO2 TSNO
94908KDBQ DBQ20050622214510306/22/05 21:45:31  5-MIN KDBQ 230345Z AUTO 14008KT 10SM CLR 24/16 A3009 920 61 2200 140/08 RMK AO2 TSNO
94908KDBQ DBQ20050622215012006/22/05 21:50:31  5-MIN KDBQ 230350Z AUTO 14009KT 10SM CLR 23/16 A3009 920 63 2100 140/09 RMK AO2 SLP182 T02330161 TSNO
94908KDBQ DBQ20050622215512006/22/05 21:55:31  5-MIN KDBQ 230355Z AUTO 14008KT 10SM CLR 24/16 A3009 920 59 2200 140/08 RMK AO2 SLP182 T02390156 TSNO
94908KDBQ DBQ20050622220010306/22/05 22:00:31  5-MIN KDBQ 230400Z AUTO 14009KT 10SM CLR 23/16 A3009 920 61 2100 140/09 RMK AO2 TSNO
94908KDBQ DBQ20050622220510606/22/05 22:05:31  5-MIN KDBQ 230405Z AUTO 15009KT 10SM FEW055 24/16 A3009 920 59 2200 140/09 RMK AO2 TSNO
94908KDBQ DBQ20050622221010606/22/05 22:10:31  5-MIN KDBQ 230410Z AUTO 15010KT 10SM SCT055 24/15 A3009 920 57 2200 150/10 RMK AO2 TSNO
94908KDBQ DBQ20050622221510606/22/05 22:15:31  5-MIN KDBQ 230415Z AUTO 15010KT 10SM SCT060 24/15 A3009 920 55 2300 150/10 RMK AO2 TSNO
94908KDBQ DBQ20050622222010606/22/05 22:20:31  5-MIN KDBQ 230420Z AUTO 15010KT 10SM BKN060 24/14 A3009 920 53 2300 150/10 RMK AO2 TSNO
94908KDBQ DBQ20050622222510606/22/05 22:25:31  5-MIN KDBQ 230425Z AUTO 15012KT 10SM BKN060 24/14 A3009 920 53 2300 150/12 RMK AO2 TSNO
94908KDBQ DBQ20050622223010606/22/05 22:30:31  5-MIN KDBQ 230430Z AUTO 15011KT 10SM BKN055 24/14 A3009 920 51 2300 150/11 RMK AO2 TSNO
94908KDBQ DBQ20050622223510606/22/05 22:35:31  5-MIN KDBQ 230435Z AUTO 15011KT 10SM BKN060 24/14 A3009 920 51 2300 140/11 RMK AO2 TSNO
94908KDBQ DBQ20050622224010606/22/05 22:40:31  5-MIN KDBQ 230440Z AUTO 15010KT 10SM SCT060 24/14 A3009 920 51 2300 150/10 RMK AO2 TSNO
94908KDBQ DBQ20050622224510606/22/05 22:45:31  5-MIN KDBQ 230445Z AUTO 15011KT 10SM SCT055 24/14 A3009 920 53 2200 140/11 RMK AO2 TSNO
94908KDBQ DBQ20050622225012306/22/05 22:50:31  5-MIN KDBQ 230450Z AUTO 15011KT 10SM FEW055 24/13 A3009 920 51 2200 150/11 RMK AO2 SLP181 T02390133 TSNO
94908KDBQ DBQ20050622225512306/22/05 22:55:31  5-MIN KDBQ 230455Z AUTO 15010KT 10SM FEW050 24/13 A3008 930 51 2200 150/10 RMK AO2 SLP180 T02390133 TSNO
94908KDBQ DBQ20050622230010306/22/05 23:00:31  5-MIN KDBQ 230500Z AUTO 15012KT 10SM CLR 24/13 A3008 930 51 2200 150/12 RMK AO2 TSNO
94908KDBQ DBQ20050622230510306/22/05 23:05:31  5-MIN KDBQ 230505Z AUTO 15012KT 10SM CLR 24/13 A3008 930 51 2200 150/12 RMK AO2 TSNO
94908KDBQ DBQ20050622231010306/22/05 23:10:31  5-MIN KDBQ 230510Z AUTO 15012KT 10SM CLR 24/13 A3008 930 51 2200 150/12 RMK AO2 TSNO
94908KDBQ DBQ20050622231510306/22/05 23:15:31  5-MIN KDBQ 230515Z AUTO 15011KT 10SM CLR 23/13 A3009 930 53 2100 150/11 RMK AO2 TSNO
94908KDBQ DBQ20050622232010306/22/05 23:20:31  5-MIN KDBQ 230520Z AUTO 15010KT 10SM CLR 23/13 A3009 930 53 2100 150/10 RMK AO2 TSNO
94908KDBQ DBQ20050622232510306/22/05 23:25:31  5-MIN KDBQ 230525Z AUTO 16011KT 10SM CLR 23/13 A3009 930 51 2100 150/11 RMK AO2 TSNO
94908KDBQ DBQ20050622233010306/22/05 23:30:31  5-MIN KDBQ 230530Z AUTO 15011KT 10SM CLR 23/13 A3008 930 51 2100 150/11 RMK AO2 TSNO
94908KDBQ DBQ20050622233510306/22/05 23:35:31  5-MIN KDBQ 230535Z AUTO 15011KT 10SM CLR 23/13 A3008 930 51 2100 150/11 RMK AO2 TSNO
94908KDBQ DBQ20050622234010306/22/05 23:40:31  5-MIN KDBQ 230540Z AUTO 15010KT 10SM CLR 23/13 A3008 930 51 2100 150/10 RMK AO2 TSNO
94908KDBQ DBQ20050622234510306/22/05 23:45:31  5-MIN KDBQ 230545Z AUTO 15010KT 10SM CLR 23/13 A3008 930 51 2200 150/10 RMK AO2 TSNO
94908KDBQ DBQ20050622235014806/22/05 23:50:31  5-MIN KDBQ 230550Z AUTO 16011KT 10SM CLR 23/13 A3008 940 53 2100 150/11 RMK AO2 SLP177 T02280128 10289 20228 403000178 50000 TSNO
94908KDBQ DBQ20050622235514806/22/05 23:55:31  5-MIN KDBQ 230555Z AUTO 15010KT 10SM CLR 23/13 A3006 950 53 2100 150/10 RMK AO2 SLP173 T02280128 10289 20228 403000178 58007 TSNO
94908KDBQ DBQ20050623000010306/23/05 00:00:38  5-MIN KDBQ 230600Z AUTO 15011KT 10SM CLR 23/13 A3006 950 53 2100 150/11 RMK AO2 TSNO
94908KDBQ DBQ20050623000510306/23/05 00:05:31  5-MIN KDBQ 230605Z AUTO 15011KT 10SM CLR 23/12 A3007 940 51 2100 150/11 RMK AO2 TSNO
94908KDBQ DBQ20050623001010306/23/05 00:10:31  5-MIN KDBQ 230610Z AUTO 15010KT 10SM CLR 23/12 A3007 940 51 2100 150/10 RMK AO2 TSNO
94908KDBQ DBQ20050623001510306/23/05 00:15:31  5-MIN KDBQ 230615Z AUTO 15010KT 10SM CLR 23/12 A3006 950 51 2100 150/10 RMK AO2 TSNO
94908KDBQ DBQ20050623002010306/23/05 00:20:31  5-MIN KDBQ 230620Z AUTO 15010KT 10SM CLR 23/12 A3007 940 51 2100 150/10 RMK AO2 TSNO
94908KDBQ DBQ20050623002510306/23/05 00:25:31  5-MIN KDBQ 230625Z AUTO 15011KT 10SM CLR 22/12 A3006 950 52 2000 150/11 RMK AO2 TSNO
94908KDBQ DBQ20050623003010306/23/05 00:30:31  5-MIN KDBQ 230630Z AUTO 15011KT 10SM CLR 22/12 A3005 960 52 2100 150/11 RMK AO2 TSNO
94908KDBQ DBQ20050623003510306/23/05 00:35:31  5-MIN KDBQ 230635Z AUTO 15011KT 10SM CLR 22/12 A3006 950 52 2000 150/11 RMK AO2 TSNO
94908KDBQ DBQ20050623004010306/23/05 00:40:31  5-MIN KDBQ 230640Z AUTO 16012KT 10SM CLR 22/12 A3005 960 52 2100 150/12 RMK AO2 TSNO
94908KDBQ DBQ20050623004510306/23/05 00:45:31  5-MIN KDBQ 230645Z AUTO 15011KT 10SM CLR 22/12 A3005 960 52 2100 150/11 RMK AO2 TSNO
94908KDBQ DBQ20050623005012006/23/05 00:50:31  5-MIN KDBQ 230650Z AUTO 16010KT 10SM CLR 22/12 A3006 950 52 2000 150/10 RMK AO2 SLP171 T02220122 TSNO
94908KDBQ DBQ20050623005512006/23/05 00:55:31  5-MIN KDBQ 230655Z AUTO 16010KT 10SM CLR 22/12 A3006 950 54 2000 160/10 RMK AO2 SLP170 T02170122 TSNO
94908KDBQ DBQ20050623010010306/23/05 01:00:31  5-MIN KDBQ 230700Z AUTO 16010KT 10SM CLR 22/12 A3004 960 52 2000 160/10 RMK AO2 TSNO
94908KDBQ DBQ20050623010510606/23/05 01:05:31  5-MIN KDBQ 230705Z AUTO 16009KT 10SM FEW055 22/12 A3005 960 51 2100 160/09 RMK AO2 TSNO
94908KDBQ DBQ20050623011010606/23/05 01:10:31  5-MIN KDBQ 230710Z AUTO 16011KT 10SM FEW055 22/12 A3004 970 52 2000 160/11 RMK AO2 TSNO
94908KDBQ DBQ20050623011510306/23/05 01:15:31  5-MIN KDBQ 230715Z AUTO 16011KT 10SM CLR 22/12 A3004 970 52 2000 160/11 RMK AO2 TSNO
94908KDBQ DBQ20050623012010306/23/05 01:20:31  5-MIN KDBQ 230720Z AUTO 16010KT 10SM CLR 22/12 A3005 960 52 2000 160/10 RMK AO2 TSNO
94908KDBQ DBQ20050623012510306/23/05 01:25:31  5-MIN KDBQ 230725Z AUTO 16010KT 10SM CLR 22/12 A3004 970 52 2000 160/10 RMK AO2 TSNO
94908KDBQ DBQ20050623013010606/23/05 01:30:31  5-MIN KDBQ 230730Z AUTO 16009KT 10SM FEW050 22/12 A3005 960 52 2000 150/09 RMK AO2 TSNO
94908KDBQ DBQ20050623013510606/23/05 01:35:31  5-MIN KDBQ 230735Z AUTO 15010KT 10SM FEW050 22/12 A3006 950 52 2000 150/10 RMK AO2 TSNO
94908KDBQ DBQ20050623014010606/23/05 01:40:31  5-MIN KDBQ 230740Z AUTO 16010KT 10SM SCT050 22/12 A3005 960 52 2000 160/10 RMK AO2 TSNO
94908KDBQ DBQ20050623014511306/23/05 01:45:31  5-MIN KDBQ 230745Z AUTO 16009KT 10SM SCT050 SCT070 22/12 A3005 950 52 2000 160/09 RMK AO2 TSNO
94908KDBQ DBQ20050623015013006/23/05 01:50:31  5-MIN KDBQ 230750Z AUTO 15009KT 10SM SCT050 SCT070 22/12 A3004 970 52 2000 150/09 RMK AO2 SLP166 T02170117 TSNO
94908KDBQ DBQ20050623015513006/23/05 01:55:31  5-MIN KDBQ 230755Z AUTO 16009KT 10SM SCT050 SCT070 22/12 A3005 960 52 2000 160/09 RMK AO2 SLP167 T02170117 TSNO
94908KDBQ DBQ20050623020011306/23/05 02:00:31  5-MIN KDBQ 230800Z AUTO 16008KT 10SM SCT050 SCT070 22/12 A3006 950 52 2000 160/08 RMK AO2 TSNO
94908KDBQ DBQ20050623020511306/23/05 02:05:31  5-MIN KDBQ 230805Z AUTO 16007KT 10SM FEW050 SCT070 21/12 A3005 960 54 1900 160/07 RMK AO2 TSNO
94908KDBQ DBQ20050623021010606/23/05 02:10:31  5-MIN KDBQ 230810Z AUTO 16008KT 10SM FEW050 21/12 A3006 950 54 1900 160/08 RMK AO2 TSNO
94908KDBQ DBQ20050623021510306/23/05 02:15:31  5-MIN KDBQ 230815Z AUTO 16009KT 10SM CLR 21/12 A3004 960 54 1900 160/09 RMK AO2 TSNO
94908KDBQ DBQ20050623022010306/23/05 02:20:31  5-MIN KDBQ 230820Z AUTO 16009KT 10SM CLR 21/12 A3005 960 54 1900 160/09 RMK AO2 TSNO
94908KDBQ DBQ20050623022510306/23/05 02:25:31  5-MIN KDBQ 230825Z AUTO 15009KT 10SM CLR 21/12 A3006 950 54 1900 150/09 RMK AO2 TSNO
94908KDBQ DBQ20050623023010306/23/05 02:30:31  5-MIN KDBQ 230830Z AUTO 16009KT 10SM CLR 21/12 A3004 960 54 1900 160/09 RMK AO2 TSNO
94908KDBQ DBQ20050623023510606/23/05 02:35:31  5-MIN KDBQ 230835Z AUTO 16007KT 10SM FEW046 21/12 A3005 960 54 1900 160/07 RMK AO2 TSNO
94908KDBQ DBQ20050623024010606/23/05 02:40:31  5-MIN KDBQ 230840Z AUTO 16009KT 10SM SCT044 22/12 A3004 970 52 2000 160/09 RMK AO2 TSNO
94908KDBQ DBQ20050623024511306/23/05 02:45:31  5-MIN KDBQ 230845Z AUTO 15008KT 10SM SCT044 BKN055 22/12 A3005 960 52 2000 150/08 RMK AO2 TSNO
94908KDBQ DBQ20050623025013606/23/05 02:50:31  5-MIN KDBQ 230850Z AUTO 16009KT 10SM SCT046 BKN060 22/12 A3004 970 52 2000 160/09 RMK AO2 SLP165 T02170117 58007 TSNO
94908KDBQ DBQ20050623025514406/23/05 02:55:31  5-MIN KDBQ 230855Z AUTO 16010KT 10SM FEW044 SCT050  BKN065 22/12 A3004 970 52 2000 160/10 RMK AO2 SLP165 T02170117 56008 TSNO
94908KDBQ DBQ20050623030012106/23/05 03:00:31  5-MIN KDBQ 230900Z AUTO 17009KT 10SM FEW044 BKN070  OVC090 22/12 A3005 960 52 2000 160/09 RMK AO2 TSNO
94908KDBQ DBQ20050623030512106/23/05 03:05:31  5-MIN KDBQ 230905Z AUTO 17009KT 10SM FEW044 SCT055  BKN090 21/12 A3004 970 54 1900 170/09 RMK AO2 TSNO
94908KDBQ DBQ20050623031012106/23/05 03:10:31  5-MIN KDBQ 230910Z AUTO 16009KT 10SM FEW055 SCT070  BKN090 21/12 A3005 960 54 1900 160/09 RMK AO2 TSNO
94908KDBQ DBQ20050623031511306/23/05 03:15:31  5-MIN KDBQ 230915Z AUTO 17008KT 10SM FEW070 SCT090 21/12 A3004 970 54 1900 170/08 RMK AO2 TSNO
94908KDBQ DBQ20050623032010606/23/05 03:20:31  5-MIN KDBQ 230920Z AUTO 17009KT 10SM FEW075 21/12 A3004 970 54 1900 170/09 RMK AO2 TSNO
94908KDBQ DBQ20050623032510606/23/05 03:25:31  5-MIN KDBQ 230925Z AUTO 17008KT 10SM FEW090 21/12 A3005 960 54 1900 160/08 RMK AO2 TSNO
94908KDBQ DBQ20050623033010306/23/05 03:30:31  5-MIN KDBQ 230930Z AUTO 17009KT 10SM CLR 21/12 A3004 960 54 1900 160/09 RMK AO2 TSNO
94908KDBQ DBQ20050623033510306/23/05 03:35:31  5-MIN KDBQ 230935Z AUTO 16009KT 10SM CLR 21/12 A3005 960 54 1900 160/09 RMK AO2 TSNO
94908KDBQ DBQ20050623034010606/23/05 03:40:31  5-MIN KDBQ 230940Z AUTO 16009KT 10SM FEW050 21/12 A3004 960 54 1900 160/09 RMK AO2 TSNO
94908KDBQ DBQ20050623034510606/23/05 03:45:31  5-MIN KDBQ 230945Z AUTO 16009KT 10SM FEW050 21/12 A3004 960 54 1900 160/09 RMK AO2 TSNO
94908KDBQ DBQ20050623035012306/23/05 03:50:31  5-MIN KDBQ 230950Z AUTO 16009KT 10SM FEW048 21/12 A3006 950 56 1900 160/09 RMK AO2 SLP170 T02110122 TSNO
94908KDBQ DBQ20050623035512306/23/05 03:55:31  5-MIN KDBQ 230955Z AUTO 16010KT 10SM FEW048 21/12 A3004 960 56 1900 150/10 RMK AO2 SLP166 T02110122 TSNO
94908KDBQ DBQ20050623040010606/23/05 04:00:31  5-MIN KDBQ 231000Z AUTO 16010KT 10SM FEW048 21/12 A3005 950 56 1900 160/10 RMK AO2 TSNO
94908KDBQ DBQ20050623040510606/23/05 04:05:31  5-MIN KDBQ 231005Z AUTO 16009KT 10SM FEW048 21/13 A3006 950 58 1900 160/09 RMK AO2 TSNO
94908KDBQ DBQ20050623041010606/23/05 04:10:31  5-MIN KDBQ 231010Z AUTO 16010KT 10SM FEW048 21/13 A3006 950 58 1900 160/10 RMK AO2 TSNO
94908KDBQ DBQ20050623041510606/23/05 04:15:31  5-MIN KDBQ 231015Z AUTO 16010KT 10SM FEW048 21/12 A3006 950 56 1900 160/10 RMK AO2 TSNO
94908KDBQ DBQ20050623042010306/23/05 04:20:31  5-MIN KDBQ 231020Z AUTO 15008KT 10SM CLR 21/12 A3006 950 56 1900 150/08 RMK AO2 TSNO
94908KDBQ DBQ20050623042510306/23/05 04:25:31  5-MIN KDBQ 231025Z AUTO 16007KT 10SM CLR 21/12 A3006 950 56 1900 160/07 RMK AO2 TSNO
94908KDBQ DBQ20050623043010306/23/05 04:30:31  5-MIN KDBQ 231030Z AUTO 16008KT 10SM CLR 21/12 A3006 950 58 1900 160/08 RMK AO2 TSNO
94908KDBQ DBQ20050623043510306/23/05 04:35:31  5-MIN KDBQ 231035Z AUTO 16008KT 10SM CLR 21/12 A3006 950 58 1900 160/08 RMK AO2 TSNO
94908KDBQ DBQ20050623044010306/23/05 04:40:31  5-MIN KDBQ 231040Z AUTO 16009KT 10SM CLR 21/12 A3006 950 58 1900 160/09 RMK AO2 TSNO
94908KDBQ DBQ20050623044510306/23/05 04:45:31  5-MIN KDBQ 231045Z AUTO 16009KT 10SM CLR 21/12 A3006 950 58 1900 160/09 RMK AO2 TSNO
94908KDBQ DBQ20050623045012006/23/05 04:50:31  5-MIN KDBQ 231050Z AUTO 16009KT 10SM CLR 21/13 A3006 950 60 1900 160/09 RMK AO2 SLP172 T02060128 TSNO
94908KDBQ DBQ20050623045512006/23/05 04:55:31  5-MIN KDBQ 231055Z AUTO 16009KT 10SM CLR 21/13 A3006 950 60 1900 160/09 RMK AO2 SLP172 T02060128 TSNO
94908KDBQ DBQ20050623050009406/23/05 05:00:31  5-MIN KDBQ 231100Z 16010KT 10SM CLR 21/13 A3006 950 60  1900 160/10 RMK AO2
94908KDBQ DBQ20050623050509406/23/05 05:05:31  5-MIN KDBQ 231105Z 16010KT 10SM CLR 21/13 A3006 950 60  1900 160/10 RMK AO2
94908KDBQ DBQ20050623051009406/23/05 05:10:31  5-MIN KDBQ 231110Z 16010KT 10SM CLR 21/13 A3006 950 60  1900 160/10 RMK AO2
94908KDBQ DBQ20050623051509406/23/05 05:15:31  5-MIN KDBQ 231115Z 17008KT 10SM CLR 21/13 A3007 940 60  1800 170/08 RMK AO2
94908KDBQ DBQ20050623052009406/23/05 05:20:31  5-MIN KDBQ 231120Z 19006KT 10SM CLR 21/13 A3007 940 60  1800 190/06 RMK AO2
94908KDBQ DBQ20050623052509406/23/05 05:25:31  5-MIN KDBQ 231125Z 20006KT 10SM CLR 20/13 A3007 940 63  1800 200/06 RMK AO2
94908KDBQ DBQ20050623053009406/23/05 05:30:31  5-MIN KDBQ 231130Z 19007KT 10SM CLR 20/13 A3007 940 65  1800 190/07 RMK AO2
94908KDBQ DBQ20050623053509406/23/05 05:35:31  5-MIN KDBQ 231135Z 19008KT 10SM CLR 21/13 A3007 940 63  1800 190/08 RMK AO2
94908KDBQ DBQ20050623054009406/23/05 05:40:31  5-MIN KDBQ 231140Z 19008KT 10SM CLR 21/13 A3007 940 63  1800 190/08 RMK AO2
94908KDBQ DBQ20050623054509406/23/05 05:45:31  5-MIN KDBQ 231145Z 18007KT 10SM CLR 21/13 A3007 940 63  1800 180/07 RMK AO2
94908KDBQ DBQ20050623055012906/23/05 05:50:31  5-MIN KDBQ 231150Z 18009KT 10SM CLR 21/13 A3007 940 63  1800 180/09 RMK AO2 SLP174 T02060133 10228 20200 56008
94908KDBQ DBQ20050623055512906/23/05 05:55:31  5-MIN KDBQ 231155Z 19006KT 10SM CLR 21/13 A3007 940 61  1900 190/06 RMK AO2 SLP175 T02110133 10228 20200 53010
94908KDBQ DBQ20050623060009406/23/05 06:00:31  5-MIN KDBQ 231200Z 20007KT 10SM CLR 21/14 A3007 940 63  1900 200/07 RMK AO2
94908KDBQ DBQ20050623060509406/23/05 06:05:31  5-MIN KDBQ 231205Z 20008KT 10SM CLR 21/14 A3007 940 63  1900 190/08 RMK AO2
94908KDBQ DBQ20050623061009406/23/05 06:10:31  5-MIN KDBQ 231210Z 17008KT 10SM CLR 21/14 A3007 940 63  1900 170/08 RMK AO2
94908KDBQ DBQ20050623061509406/23/05 06:15:31  5-MIN KDBQ 231215Z 18009KT 10SM CLR 22/14 A3007 940 63  2000 180/09 RMK AO2
94908KDBQ DBQ20050623062009406/23/05 06:20:31  5-MIN KDBQ 231220Z 17008KT 10SM CLR 22/14 A3007 940 63  2000 170/08 RMK AO2
94908KDBQ DBQ20050623062509406/23/05 06:25:31  5-MIN KDBQ 231225Z 18009KT 10SM CLR 22/14 A3007 940 63  2000 180/09 RMK AO2
94908KDBQ DBQ20050623063009406/23/05 06:30:31  5-MIN KDBQ 231230Z 18009KT 10SM CLR 22/14 A3007 940 63  2000 180/09 RMK AO2
94908KDBQ DBQ20050623063509406/23/05 06:35:31  5-MIN KDBQ 231235Z 18010KT 10SM CLR 22/15 A3006 950 65  2000 180/10 RMK AO2
94908KDBQ DBQ20050623064009406/23/05 06:40:31  5-MIN KDBQ 231240Z 18009KT 10SM CLR 22/15 A3006 950 63  2000 180/09 RMK AO2
94908KDBQ DBQ20050623064509406/23/05 06:45:31  5-MIN KDBQ 231245Z 19010KT 10SM CLR 22/16 A3006 950 65  2000 190/10 RMK AO2
94908KDBQ DBQ20050623065011106/23/05 06:50:31  5-MIN KDBQ 231250Z 19010KT 10SM CLR 22/16 A3006 950 65  2000 190/10 RMK AO2 SLP171 T02220156
94908KDBQ DBQ20050623065511106/23/05 06:55:31  5-MIN KDBQ 231255Z 19011KT 10SM CLR 23/16 A3006 950 63  2100 190/11 RMK AO2 SLP171 T02280156
94908KDBQ DBQ20050623070009406/23/05 07:00:31  5-MIN KDBQ 231300Z 19009KT 10SM CLR 23/16 A3006 950 65  2100 190/09 RMK AO2
94908KDBQ DBQ20050623070509406/23/05 07:05:31  5-MIN KDBQ 231305Z 19009KT 10SM CLR 23/16 A3006 950 65  2100 190/09 RMK AO2
94908KDBQ DBQ20050623071009406/23/05 07:10:31  5-MIN KDBQ 231310Z 19010KT 10SM CLR 23/17 A3006 950 66  2200 190/10 RMK AO2
94908KDBQ DBQ20050623071509406/23/05 07:15:31  5-MIN KDBQ 231315Z 20011KT 10SM CLR 23/17 A3005 950 66  2200 200/11 RMK AO2
94908KDBQ DBQ20050623072009406/23/05 07:20:31  5-MIN KDBQ 231320Z 20012KT 10SM CLR 23/17 A3005 960 66  2200 200/12 RMK AO2
94908KDBQ DBQ20050623072509406/23/05 07:25:31  5-MIN KDBQ 231325Z 20010KT 10SM CLR 24/17 A3005 960 66  2200 200/10 RMK AO2
94908KDBQ DBQ20050623073009406/23/05 07:30:31  5-MIN KDBQ 231330Z 20011KT 10SM CLR 24/17 A3005 960 66  2200 190/11 RMK AO2
94908KDBQ DBQ20050623073509406/23/05 07:35:31  5-MIN KDBQ 231335Z 21010KT 10SM CLR 24/17 A3005 960 66  2200 210/10 RMK AO2
94908KDBQ DBQ20050623074009406/23/05 07:40:31  5-MIN KDBQ 231340Z 21010KT 10SM CLR 24/18 A3005 960 66  2300 210/10 RMK AO2
94908KDBQ DBQ20050623074509406/23/05 07:45:31  5-MIN KDBQ 231345Z 21009KT 10SM CLR 24/18 A3005 960 68  2300 210/09 RMK AO2
94908KDBQ DBQ20050623075011106/23/05 07:50:31  5-MIN KDBQ 231350Z 21010KT 10SM CLR 24/18 A3005 960 68  2300 210/10 RMK AO2 SLP168 T02440183
94908KDBQ DBQ20050623075511106/23/05 07:55:31  5-MIN KDBQ 231355Z 22009KT 10SM CLR 24/18 A3005 960 68  2300 220/09 RMK AO2 SLP169 T02440183
94908KDBQ DBQ20050623080009406/23/05 08:00:31  5-MIN KDBQ 231400Z 21010KT 10SM CLR 25/19 A3005 960 68  2400 210/10 RMK AO2
94908KDBQ DBQ20050623080509406/23/05 08:05:31  5-MIN KDBQ 231405Z 21010KT 10SM CLR 25/18 A3005 960 66  2400 210/10 RMK AO2
94908KDBQ DBQ20050623081009406/23/05 08:10:31  5-MIN KDBQ 231410Z 20010KT 10SM CLR 25/19 A3005 960 68  2400 200/10 RMK AO2
94908KDBQ DBQ20050623081509406/23/05 08:15:31  5-MIN KDBQ 231415Z 20010KT 10SM CLR 26/19 A3005 960 66  2400 190/10 RMK AO2
94908KDBQ DBQ20050623082009406/23/05 08:20:31  5-MIN KDBQ 231420Z 20009KT 10SM CLR 26/19 A3005 960 66  2400 200/09 RMK AO2
94908KDBQ DBQ20050623082509406/23/05 08:25:31  5-MIN KDBQ 231425Z 19009KT 10SM CLR 26/19 A3005 960 66  2500 190/09 RMK AO2
94908KDBQ DBQ20050623083009406/23/05 08:30:31  5-MIN KDBQ 231430Z 20009KT 10SM CLR 26/19 A3005 960 66  2500 200/09 RMK AO2
94908KDBQ DBQ20050623083509406/23/05 08:35:31  5-MIN KDBQ 231435Z 21009KT 10SM CLR 26/19 A3005 960 66  2500 210/09 RMK AO2
94908KDBQ DBQ20050623084009406/23/05 08:40:31  5-MIN KDBQ 231440Z 21010KT 10SM CLR 26/19 A3005 960 66  2500 210/10 RMK AO2
94908KDBQ DBQ20050623084509406/23/05 08:45:31  5-MIN KDBQ 231445Z 22009KT 10SM CLR 27/19 A3005 960 64  2600 220/09 RMK AO2
94908KDBQ DBQ20050623085011706/23/05 08:50:31  5-MIN KDBQ 231450Z 21010KT 10SM CLR 27/20 A3005 960 66  2600 200/10 RMK AO2 SLP167 T02670200 53010
94908KDBQ DBQ20050623085511706/23/05 08:55:31  5-MIN KDBQ 231455Z 20009KT 10SM CLR 27/20 A3004 960 66  2600 200/09 RMK AO2 SLP166 T02670200 56008
94908KDBQ DBQ20050623090009406/23/05 09:00:31  5-MIN KDBQ 231500Z 19009KT 10SM CLR 27/20 A3005 960 64  2600 190/09 RMK AO2
94908KDBQ DBQ20050623090509406/23/05 09:05:31  5-MIN KDBQ 231505Z 20009KT 10SM CLR 27/20 A3004 960 64  2600 200/09 RMK AO2
94908KDBQ DBQ20050623091009406/23/05 09:10:31  5-MIN KDBQ 231510Z 22009KT 10SM CLR 28/21 A3004 960 64  2700 220/09 RMK AO2
94908KDBQ DBQ20050623091509406/23/05 09:15:31  5-MIN KDBQ 231515Z 22009KT 10SM CLR 28/21 A3004 960 64  2700 220/09 RMK AO2
94908KDBQ DBQ20050623092009406/23/05 09:20:31  5-MIN KDBQ 231520Z 22008KT 10SM CLR 28/21 A3004 970 64  2700 220/08 RMK AO2
94908KDBQ DBQ20050623092509406/23/05 09:25:31  5-MIN KDBQ 231525Z 21010KT 10SM CLR 28/21 A3004 970 64  2800 210/10 RMK AO2
94908KDBQ DBQ20050623093009406/23/05 09:30:31  5-MIN KDBQ 231530Z 21008KT 10SM CLR 28/21 A3004 970 64  2700 210/08 RMK AO2
94908KDBQ DBQ20050623093509406/23/05 09:35:31  5-MIN KDBQ 231535Z 23011KT 10SM CLR 28/21 A3004 970 64  2800 230/11 RMK AO2
94908KDBQ DBQ20050623094009306/23/05 09:40:31  5-MIN KDBQ 231540Z 23009KT 9SM CLR 28/21 A3004 970 64  2800 230/09 RMK AO2
94908KDBQ DBQ20050623094509306/23/05 09:45:31  5-MIN KDBQ 231545Z 21011KT 9SM CLR 29/21 A3004 970 62  2800 210/11 RMK AO2
94908KDBQ DBQ20050623095011006/23/05 09:50:31  5-MIN KDBQ 231550Z 22012KT 9SM CLR 29/21 A3003 970 62  2800 220/12 RMK AO2 SLP162 T02890211
94908KDBQ DBQ20050623095511006/23/05 09:55:31  5-MIN KDBQ 231555Z 22015KT 9SM CLR 29/21 A3003 980 60  2900 220/15 RMK AO2 SLP160 T02940211
94908KDBQ DBQ20050623100009306/23/05 10:00:31  5-MIN KDBQ 231600Z 22011KT 9SM CLR 29/21 A3003 980 62  2800 220/11 RMK AO2
94908KDBQ DBQ20050623100509306/23/05 10:05:31  5-MIN KDBQ 231605Z 23011KT 9SM CLR 29/22 A3003 980 62  2900 230/11 RMK AO2
94908KDBQ DBQ20050623101009306/23/05 10:10:31  5-MIN KDBQ 231610Z 23013KT 9SM CLR 29/22 A3003 980 62  2900 220/13 RMK AO2
94908KDBQ DBQ20050623101509306/23/05 10:15:31  5-MIN KDBQ 231615Z 24013KT 9SM CLR 30/22 A3002 990 60  3000 230/13 RMK AO2
94908KDBQ DBQ20050623102009306/23/05 10:20:31  5-MIN KDBQ 231620Z 23016KT 9SM CLR 30/21 A3002 990 58  3000 230/16 RMK AO2
94908KDBQ DBQ20050623102509306/23/05 10:25:31  5-MIN KDBQ 231625Z 23016KT 9SM CLR 30/21 A3002 990 56  3000 230/16 RMK AO2
94908KDBQ DBQ20050623103009306/23/05 10:30:31  5-MIN KDBQ 231630Z 23016KT 9SM CLR 30/21 A3001 990 56  3000 230/16 RMK AO2
94908KDBQ DBQ20050623103509306/23/05 10:35:31  5-MIN KDBQ 231635Z 22016KT 9SM CLR 31/21 A3001 990 54  3000 220/16 RMK AO2
94908KDBQ DBQ20050623104009406/23/05 10:40:31  5-MIN KDBQ 231640Z 22015KT 10SM CLR 31/21 A3002 990 54  3000 220/15 RMK AO2
94908KDBQ DBQ20050623104509406/23/05 10:45:31  5-MIN KDBQ 231645Z 21013KT 10SM CLR 31/20 A3002 990 52  3000 210/13 RMK AO2
94908KDBQ DBQ20050623105011106/23/05 10:50:31  5-MIN KDBQ 231650Z 21016KT 10SM CLR 31/19 A3001 990 51  3000 210/16 RMK AO2 SLP155 T03060194
94908KDBQ DBQ20050623105511106/23/05 10:55:31  5-MIN KDBQ 231655Z 22016KT 10SM CLR 31/20 A3001 990 52  3000 220/16 RMK AO2 SLP155 T03060200
94908KDBQ DBQ20050623110010006/23/05 11:00:31  5-MIN KDBQ 231700Z 23014G20KT 10SM CLR 31/20 A3001 1000 52 3000 230/14G20 RMK AO2
94908KDBQ DBQ20050623110510006/23/05 11:05:31  5-MIN KDBQ 231705Z 23015G20KT 10SM CLR 31/20 A3001 1000 52 3000 230/15G20 RMK AO2
94908KDBQ DBQ20050623111010006/23/05 11:10:31  5-MIN KDBQ 231710Z 22016G19KT 10SM CLR 31/20 A3001 1000 51 3100 210/16G19 RMK AO2
94908KDBQ DBQ20050623111510006/23/05 11:15:31  5-MIN KDBQ 231715Z 21015G19KT 10SM CLR 31/19 A3000 1000 49 3100 210/15G19 RMK AO2
94908KDBQ DBQ20050623112010006/23/05 11:20:31  5-MIN KDBQ 231720Z 22011G19KT 10SM CLR 31/20 A3001 1000 51 3100 220/11G19 RMK AO2
94908KDBQ DBQ20050623112510006/23/05 11:25:31  5-MIN KDBQ 231725Z 23015G19KT 10SM CLR 31/19 A3000 1000 49 3100 230/15G19 RMK AO2
94908KDBQ DBQ20050623113009406/23/05 11:30:31  5-MIN KDBQ 231730Z 24017KT 10SM CLR 31/19 A3000 1000 49 3100 240/17 RMK AO2
94908KDBQ DBQ20050623113509406/23/05 11:35:31  5-MIN KDBQ 231735Z 23015KT 10SM CLR 31/19 A3000 1000 49 3100 230/15 RMK AO2
94908KDBQ DBQ20050623114009406/23/05 11:40:31  5-MIN KDBQ 231740Z 24016KT 10SM CLR 31/19 A3000 1010 47 3100 240/16 RMK AO2
94908KDBQ DBQ20050623114509406/23/05 11:45:31  5-MIN KDBQ 231745Z 22013KT 10SM CLR 32/19 A3000 1000 47 3200 220/13 RMK AO2
94908KDBQ DBQ20050623115012906/23/05 11:50:31  5-MIN KDBQ 231750Z 24015KT 10SM CLR 32/19 A3000 1010 47 3200 240/15 RMK AO2 SLP150 T03170194 10317 20211 56008
94908KDBQ DBQ20050623115512906/23/05 11:55:31  5-MIN KDBQ 231755Z 22015KT 10SM CLR 31/19 A3000 1010 47 3100 220/15 RMK AO2 SLP149 T03110189 10317 20211 58016
94908KDBQ DBQ20050623120009406/23/05 12:00:31  5-MIN KDBQ 231800Z 22012KT 10SM CLR 32/19 A3000 1010 47 3200 220/12 RMK AO2
94908KDBQ DBQ20050623120509406/23/05 12:05:31  5-MIN KDBQ 231805Z 21015KT 10SM CLR 32/19 A3000 1010 46 3200 210/15 RMK AO2
94908KDBQ DBQ20050623121009406/23/05 12:10:31  5-MIN KDBQ 231810Z 21012KT 10SM CLR 32/19 A2999 1010 47 3200 210/12 RMK AO2
94908KDBQ DBQ20050623121509406/23/05 12:15:31  5-MIN KDBQ 231815Z 22014KT 10SM CLR 32/19 A2999 1010 46 3200 220/14 RMK AO2
94908KDBQ DBQ20050623122010006/23/05 12:20:31  5-MIN KDBQ 231820Z 21017G21KT 10SM CLR 32/19 A2999 1010 46 3200 210/17G21 RMK AO2
94908KDBQ DBQ20050623122509406/23/05 12:25:31  5-MIN KDBQ 231825Z 22019KT 10SM CLR 32/18 A2999 1020 43 3200 220/19 RMK AO2
94908KDBQ DBQ20050623123010006/23/05 12:30:31  5-MIN KDBQ 231830Z 23016G23KT 10SM CLR 32/18 A2999 1020 44 3200 230/16G23 RMK AO2
94908KDBQ DBQ20050623123509406/23/05 12:35:31  5-MIN KDBQ 231835Z 21017KT 10SM CLR 32/18 A2999 1010 43 3200 210/17 RMK AO2
94908KDBQ DBQ20050623124009406/23/05 12:40:31  5-MIN KDBQ 231840Z 22013KT 10SM CLR 32/18 A2999 1020 44 3200 220/13 RMK AO2
94908KDBQ DBQ20050623124509406/23/05 12:45:31  5-MIN KDBQ 231845Z 21015KT 10SM CLR 32/19 A2998 1020 44 3200 210/15 RMK AO2
94908KDBQ DBQ20050623125011106/23/05 12:50:31  5-MIN KDBQ 231850Z 23017KT 10SM CLR 32/18 A2998 1020 43 3300 230/17 RMK AO2 SLP144 T03220183
94908KDBQ DBQ20050623125511106/23/05 12:55:31  5-MIN KDBQ 231855Z 24015KT 10SM CLR 32/18 A2998 1030 43 3300 240/15 RMK AO2 SLP143 T03220183
94908KDBQ DBQ20050623130009406/23/05 13:00:31  5-MIN KDBQ 231900Z 24015KT 10SM CLR 32/19 A2997 1030 44 3300 240/15 RMK AO2
94908KDBQ DBQ20050623130509406/23/05 13:05:31  5-MIN KDBQ 231905Z 22014KT 10SM CLR 32/18 A2998 1030 43 3300 220/14 RMK AO2
94908KDBQ DBQ20050623131010006/23/05 13:10:31  5-MIN KDBQ 231910Z 22017G21KT 10SM CLR 32/19 A2997 1030 44 3300 220/17G21 RMK AO2
94908KDBQ DBQ20050623131510006/23/05 13:15:31  5-MIN KDBQ 231915Z 23016G21KT 10SM CLR 32/18 A2997 1030 43 3300 230/16G21 RMK AO2
94908KDBQ DBQ20050623132009406/23/05 13:20:31  5-MIN KDBQ 231920Z 23017KT 10SM CLR 32/18 A2997 1030 43 3300 230/17 RMK AO2
94908KDBQ DBQ20050623132509406/23/05 13:25:31  5-MIN KDBQ 231925Z 24013KT 10SM CLR 32/18 A2997 1030 43 3300 230/13 RMK AO2
94908KDBQ DBQ20050623133009406/23/05 13:30:31  5-MIN KDBQ 231930Z 22016KT 10SM CLR 32/19 A2997 1040 44 3300 220/16 RMK AO2
94908KDBQ DBQ20050623133509406/23/05 13:35:31  5-MIN KDBQ 231935Z 22015KT 10SM CLR 33/19 A2997 1030 43 3300 220/15 RMK AO2
94908KDBQ DBQ20050623134009406/23/05 13:40:31  5-MIN KDBQ 231940Z 22015KT 10SM CLR 32/19 A2997 1030 44 3300 220/15 RMK AO2
94908KDBQ DBQ20050623134509406/23/05 13:45:31  5-MIN KDBQ 231945Z 22015KT 10SM CLR 32/19 A2997 1030 44 3300 220/15 RMK AO2
94908KDBQ DBQ20050623135011106/23/05 13:50:31  5-MIN KDBQ 231950Z 24016KT 10SM CLR 32/19 A2997 1040 44 3300 240/16 RMK AO2 SLP139 T03220189
94908KDBQ DBQ20050623135511106/23/05 13:55:31  5-MIN KDBQ 231955Z 23015KT 10SM CLR 32/19 A2997 1030 44 3300 230/15 RMK AO2 SLP140 T03220189
94908KDBQ DBQ20050623140009406/23/05 14:00:31  5-MIN KDBQ 232000Z 22014KT 10SM CLR 32/19 A2997 1030 44 3300 220/14 RMK AO2
94908KDBQ DBQ20050623140510006/23/05 14:05:31  5-MIN KDBQ 232005Z 21013G20KT 10SM CLR 32/18 A2997 1030 43 3300 210/13G20 RMK AO2
94908KDBQ DBQ20050623141009406/23/05 14:10:31  5-MIN KDBQ 232010Z 23012KT 10SM CLR 33/19 A2997 1030 43 3300 230/12 RMK AO2
94908KDBQ DBQ20050623141509406/23/05 14:15:31  5-MIN KDBQ 232015Z 24014KT 10SM CLR 33/18 A2997 1030 41 3300 240/14 RMK AO2
94908KDBQ DBQ20050623142009406/23/05 14:20:31  5-MIN KDBQ 232020Z 24014KT 10SM CLR 33/19 A2997 1030 43 3300 240/14 RMK AO2
94908KDBQ DBQ20050623142509406/23/05 14:25:31  5-MIN KDBQ 232025Z 22014KT 10SM CLR 33/18 A2997 1030 41 3300 220/14 RMK AO2
94908KDBQ DBQ20050623143009406/23/05 14:30:31  5-MIN KDBQ 232030Z 23015KT 10SM CLR 33/19 A2997 1030 43 3300 230/15 RMK AO2
94908KDBQ DBQ20050623143509406/23/05 14:35:31  5-MIN KDBQ 232035Z 22016KT 10SM CLR 33/18 A2997 1030 41 3300 220/16 RMK AO2
94908KDBQ DBQ20050623144009406/23/05 14:40:31  5-MIN KDBQ 232040Z 22017KT 10SM CLR 33/18 A2997 1030 40 3300 220/17 RMK AO2
94908KDBQ DBQ20050623144509406/23/05 14:45:31  5-MIN KDBQ 232045Z 22015KT 10SM CLR 33/18 A2997 1030 41 3300 220/15 RMK AO2
94908KDBQ DBQ20050623145011706/23/05 14:50:31  5-MIN KDBQ 232050Z 23014KT 10SM CLR 33/19 A2996 1040 43 3300 230/14 RMK AO2 SLP138 T03280189 58016
94908KDBQ DBQ20050623145511706/23/05 14:55:31  5-MIN KDBQ 232055Z 23012KT 10SM CLR 33/19 A2996 1040 43 3300 230/12 RMK AO2 SLP137 T03280189 56011
94908KDBQ DBQ20050623150009406/23/05 15:00:31  5-MIN KDBQ 232100Z 22014KT 10SM CLR 33/19 A2996 1040 43 3300 220/14 RMK AO2
94908KDBQ DBQ20050623150510006/23/05 15:05:31  5-MIN KDBQ 232105Z 23016G19KT 10SM CLR 33/18 A2996 1040 41 3300 230/16G19 RMK AO2
94908KDBQ DBQ20050623151009406/23/05 15:10:31  5-MIN KDBQ 232110Z 22016KT 10SM CLR 33/18 A2996 1040 41 3300 220/16 RMK AO2
94908KDBQ DBQ20050623151509406/23/05 15:15:31  5-MIN KDBQ 232115Z 23015KT 10SM CLR 33/18 A2996 1040 41 3300 230/15 RMK AO2
94908KDBQ DBQ20050623152009406/23/05 15:20:31  5-MIN KDBQ 232120Z 22015KT 10SM CLR 33/18 A2996 1040 41 3300 220/15 RMK AO2
94908KDBQ DBQ20050623152509406/23/05 15:25:31  5-MIN KDBQ 232125Z 21013KT 10SM CLR 33/19 A2996 1040 43 3300 210/13 RMK AO2
94908KDBQ DBQ20050623153009406/23/05 15:30:31  5-MIN KDBQ 232130Z 22013KT 10SM CLR 33/19 A2996 1040 43 3300 220/13 RMK AO2
94908KDBQ DBQ20050623153509406/23/05 15:35:31  5-MIN KDBQ 232135Z 23011KT 10SM CLR 33/19 A2996 1040 43 3300 230/11 RMK AO2
94908KDBQ DBQ20050623154009406/23/05 15:40:31  5-MIN KDBQ 232140Z 23016KT 10SM CLR 33/19 A2996 1040 44 3300 230/16 RMK AO2
94908KDBQ DBQ20050623154510006/23/05 15:45:31  5-MIN KDBQ 232145Z 21011G18KT 10SM CLR 32/19 A2996 1040 44 3300 210/11G18 RMK AO2
94908KDBQ DBQ20050623155011106/23/05 15:50:31  5-MIN KDBQ 232150Z 21015KT 10SM CLR 33/19 A2996 1050 43 3300 210/15 RMK AO2 SLP135 T03280189
94908KDBQ DBQ20050623155511106/23/05 15:55:31  5-MIN KDBQ 232155Z 21014KT 10SM CLR 32/19 A2996 1040 44 3300 210/14 RMK AO2 SLP135 T03220189
94908KDBQ DBQ20050623160009406/23/05 16:00:31  5-MIN KDBQ 232200Z 22013KT 10SM CLR 32/19 A2995 1050 44 3300 220/13 RMK AO2
94908KDBQ DBQ20050623160509406/23/05 16:05:31  5-MIN KDBQ 232205Z 21015KT 10SM CLR 32/19 A2995 1050 44 3300 210/15 RMK AO2
94908KDBQ DBQ20050623161009406/23/05 16:10:31  5-MIN KDBQ 232210Z 22013KT 10SM CLR 32/19 A2995 1050 44 3300 220/13 RMK AO2
94908KDBQ DBQ20050623161509406/23/05 16:15:31  5-MIN KDBQ 232215Z 21011KT 10SM CLR 32/19 A2995 1050 44 3300 210/11 RMK AO2
94908KDBQ DBQ20050623162009406/23/05 16:20:31  5-MIN KDBQ 232220Z 22011KT 10SM CLR 32/19 A2995 1050 46 3300 220/11 RMK AO2
94908KDBQ DBQ20050623162510006/23/05 16:25:31  5-MIN KDBQ 232225Z 22015G20KT 10SM CLR 32/19 A2995 1060 46 3300 220/15G20 RMK AO2
94908KDBQ DBQ20050623163010006/23/05 16:30:31  5-MIN KDBQ 232230Z 22015G21KT 10SM CLR 32/18 A2994 1060 43 3300 220/15G21 RMK AO2
94908KDBQ DBQ20050623163509406/23/05 16:35:31  5-MIN KDBQ 232235Z 22013KT 10SM CLR 32/18 A2994 1060 43 3300 220/13 RMK AO2
94908KDBQ DBQ20050623164009406/23/05 16:40:31  5-MIN KDBQ 232240Z 23013KT 10SM CLR 32/19 A2994 1060 44 3300 230/13 RMK AO2
94908KDBQ DBQ20050623164509406/23/05 16:45:31  5-MIN KDBQ 232245Z 22015KT 10SM CLR 32/19 A2993 1070 46 3200 220/15 RMK AO2
94908KDBQ DBQ20050623165011106/23/05 16:50:31  5-MIN KDBQ 232250Z 22010KT 10SM CLR 32/19 A2993 1070 46 3200 220/10 RMK AO2 SLP128 T03170189
94908KDBQ DBQ20050623165511106/23/05 16:55:31  5-MIN KDBQ 232255Z 21012KT 10SM CLR 32/19 A2993 1070 46 3300 210/12 RMK AO2 SLP127 T03220194
94908KDBQ DBQ20050623170009406/23/05 17:00:31  5-MIN KDBQ 232300Z 22012KT 10SM CLR 32/19 A2993 1070 46 3200 220/12 RMK AO2
94908KDBQ DBQ20050623170509406/23/05 17:05:31  5-MIN KDBQ 232305Z 22017KT 10SM CLR 32/19 A2993 1070 46 3300 220/17 RMK AO2
94908KDBQ DBQ20050623171009406/23/05 17:10:31  5-MIN KDBQ 232310Z 22015KT 10SM CLR 32/18 A2993 1070 44 3300 220/15 RMK AO2
94908KDBQ DBQ20050623171509406/23/05 17:15:31  5-MIN KDBQ 232315Z 22014KT 10SM CLR 32/19 A2993 1070 46 3200 220/14 RMK AO2
94908KDBQ DBQ20050623172009406/23/05 17:20:31  5-MIN KDBQ 232320Z 23013KT 10SM CLR 32/19 A2993 1070 46 3300 230/13 RMK AO2
94908KDBQ DBQ20050623172509406/23/05 17:25:31  5-MIN KDBQ 232325Z 22013KT 10SM CLR 32/19 A2993 1070 46 3200 220/13 RMK AO2
94908KDBQ DBQ20050623173009406/23/05 17:30:31  5-MIN KDBQ 232330Z 22011KT 10SM CLR 31/19 A2993 1070 49 3200 220/11 RMK AO2
94908KDBQ DBQ20050623173509406/23/05 17:35:31  5-MIN KDBQ 232335Z 23012KT 10SM CLR 31/19 A2993 1070 47 3200 230/12 RMK AO2
94908KDBQ DBQ20050623174009406/23/05 17:40:31  5-MIN KDBQ 232340Z 22011KT 10SM CLR 31/19 A2993 1070 47 3200 220/11 RMK AO2
94908KDBQ DBQ20050623174509406/23/05 17:45:31  5-MIN KDBQ 232345Z 22010KT 10SM CLR 31/19 A2993 1070 49 3200 220/10 RMK AO2
94908KDBQ DBQ20050623175012906/23/05 17:50:31  5-MIN KDBQ 232350Z 21008KT 10SM CLR 31/19 A2993 1070 49 3200 210/08 RMK AO2 SLP126 T03110194 10328 20311 56011
94908KDBQ DBQ20050623175512906/23/05 17:55:31  5-MIN KDBQ 232355Z 21009KT 10SM CLR 31/20 A2993 1070 52 3100 210/09 RMK AO2 SLP127 T03060200 10328 20306 56010
94908KDBQ DBQ20050623180009406/23/05 18:00:31  5-MIN KDBQ 240000Z 21010KT 10SM CLR 31/21 A2993 1070 54 3100 210/10 RMK AO2
94908KDBQ DBQ20050623180509406/23/05 18:05:31  5-MIN KDBQ 240005Z 21010KT 9SM CLR 31/21 A2993 1070 54  3100 210/10 RMK AO2
94908KDBQ DBQ20050623181009406/23/05 18:10:31  5-MIN KDBQ 240010Z 21010KT 9SM CLR 31/20 A2993 1070 52  3100 210/10 RMK AO2
94908KDBQ DBQ20050623181509406/23/05 18:15:31  5-MIN KDBQ 240015Z 21011KT 9SM CLR 30/20 A2993 1070 54  3100 210/11 RMK AO2
94908KDBQ DBQ20050623182009406/23/05 18:20:31  5-MIN KDBQ 240020Z 21010KT 9SM CLR 30/20 A2993 1070 54  3100 210/10 RMK AO2
94908KDBQ DBQ20050623182509406/23/05 18:25:31  5-MIN KDBQ 240025Z 21010KT 9SM CLR 30/20 A2993 1070 54  3100 210/10 RMK AO2
94908KDBQ DBQ20050623183009406/23/05 18:30:31  5-MIN KDBQ 240030Z 21009KT 9SM CLR 30/20 A2993 1070 54  3100 210/09 RMK AO2
94908KDBQ DBQ20050623183509406/23/05 18:35:31  5-MIN KDBQ 240035Z 21009KT 9SM CLR 29/20 A2993 1070 56  3000 210/09 RMK AO2
94908KDBQ DBQ20050623184010306/23/05 18:40:31  5-MIN KDBQ 240040Z AUTO 20010KT 9SM CLR 29/20 A2993 1070 56 3000 200/10 RMK AO2 TSNO
94908KDBQ DBQ20050623184510306/23/05 18:45:31  5-MIN KDBQ 240045Z AUTO 21010KT 9SM CLR 29/19 A2993 1070 54 3000 210/10 RMK AO2 TSNO
94908KDBQ DBQ20050623185012006/23/05 18:50:31  5-MIN KDBQ 240050Z AUTO 21008KT 9SM CLR 29/19 A2993 1070 56 2900 200/08 RMK AO2 SLP128 T02890194 TSNO
94908KDBQ DBQ20050623185512006/23/05 18:55:31  5-MIN KDBQ 240055Z AUTO 20009KT 9SM CLR 28/20 A2993 1070 60 2900 200/09 RMK AO2 SLP128 T02830200 TSNO
94908KDBQ DBQ20050623190010306/23/05 19:00:31  5-MIN KDBQ 240100Z AUTO 20009KT 9SM CLR 28/19 A2993 1070 58 2900 200/09 RMK AO2 TSNO
94908KDBQ DBQ20050623190510306/23/05 19:05:31  5-MIN KDBQ 240105Z AUTO 20009KT 9SM CLR 28/19 A2993 1070 58 2900 200/09 RMK AO2 TSNO
94908KDBQ DBQ20050623191010306/23/05 19:10:31  5-MIN KDBQ 240110Z AUTO 20009KT 9SM CLR 28/19 A2994 1060 58 2900 200/09 RMK AO2 TSNO
94908KDBQ DBQ20050623191510306/23/05 19:15:31  5-MIN KDBQ 240115Z AUTO 20009KT 9SM CLR 28/19 A2994 1060 60 2800 200/09 RMK AO2 TSNO
94908KDBQ DBQ20050623192010306/23/05 19:20:31  5-MIN KDBQ 240120Z AUTO 20008KT 9SM CLR 28/19 A2994 1060 60 2800 200/08 RMK AO2 TSNO
94908KDBQ DBQ20050623192510306/23/05 19:25:31  5-MIN KDBQ 240125Z AUTO 20009KT 8SM CLR 28/19 A2993 1070 60 2800 200/09 RMK AO2 TSNO
94908KDBQ DBQ20050623193010306/23/05 19:30:31  5-MIN KDBQ 240130Z AUTO 21008KT 8SM CLR 27/19 A2993 1070 62 2800 210/08 RMK AO2 TSNO
94908KDBQ DBQ20050623193510306/23/05 19:35:31  5-MIN KDBQ 240135Z AUTO 21007KT 8SM CLR 27/19 A2994 1060 62 2700 210/07 RMK AO2 TSNO
94908KDBQ DBQ20050623194010306/23/05 19:40:31  5-MIN KDBQ 240140Z AUTO 21008KT 8SM CLR 27/19 A2994 1060 64 2700 210/08 RMK AO2 TSNO
94908KDBQ DBQ20050623194510306/23/05 19:45:31  5-MIN KDBQ 240145Z AUTO 22008KT 8SM CLR 27/19 A2994 1060 64 2700 220/08 RMK AO2 TSNO
94908KDBQ DBQ20050623195012006/23/05 19:50:31  5-MIN KDBQ 240150Z AUTO 22008KT 8SM CLR 27/19 A2994 1060 64 2700 220/08 RMK AO2 SLP130 T02670194 TSNO
94908KDBQ DBQ20050623195512006/23/05 19:55:31  5-MIN KDBQ 240155Z AUTO 22008KT 8SM CLR 26/19 A2994 1060 66 2600 210/08 RMK AO2 SLP129 T02610194 TSNO
94908KDBQ DBQ20050623200010306/23/05 20:00:31  5-MIN KDBQ 240200Z AUTO 22008KT 8SM CLR 26/19 A2994 1060 66 2600 220/08 RMK AO2 TSNO
94908KDBQ DBQ20050623200510306/23/05 20:05:31  5-MIN KDBQ 240205Z AUTO 22008KT 8SM CLR 26/19 A2994 1060 66 2600 220/08 RMK AO2 TSNO
94908KDBQ DBQ20050623201010306/23/05 20:10:31  5-MIN KDBQ 240210Z AUTO 22009KT 9SM CLR 27/19 A2994 1060 64 2700 220/09 RMK AO2 TSNO
94908KDBQ DBQ20050623201510306/23/05 20:15:31  5-MIN KDBQ 240215Z AUTO 22011KT 9SM CLR 27/19 A2994 1060 64 2700 220/11 RMK AO2 TSNO
94908KDBQ DBQ20050623202010306/23/05 20:20:31  5-MIN KDBQ 240220Z AUTO 22011KT 9SM CLR 27/19 A2994 1060 64 2700 220/11 RMK AO2 TSNO
94908KDBQ DBQ20050623202510306/23/05 20:25:31  5-MIN KDBQ 240225Z AUTO 22011KT 9SM CLR 27/19 A2994 1060 64 2700 220/11 RMK AO2 TSNO
94908KDBQ DBQ20050623203010306/23/05 20:30:31  5-MIN KDBQ 240230Z AUTO 21011KT 9SM CLR 27/19 A2994 1060 64 2700 210/11 RMK AO2 TSNO
94908KDBQ DBQ20050623203510306/23/05 20:35:31  5-MIN KDBQ 240235Z AUTO 21011KT 9SM CLR 27/19 A2994 1060 64 2700 210/11 RMK AO2 TSNO
94908KDBQ DBQ20050623204010306/23/05 20:40:31  5-MIN KDBQ 240240Z AUTO 22010KT 9SM CLR 26/19 A2994 1060 66 2600 210/10 RMK AO2 TSNO
94908KDBQ DBQ20050623204510306/23/05 20:45:31  5-MIN KDBQ 240245Z AUTO 22010KT 9SM CLR 27/19 A2995 1060 64 2700 220/10 RMK AO2 TSNO
94908KDBQ DBQ20050623205012606/23/05 20:50:31  5-MIN KDBQ 240250Z AUTO 22010KT 9SM CLR 27/19 A2995 1060 64 2700 220/10 RMK AO2 SLP132 T02670194 56010 TSNO
94908KDBQ DBQ20050623205512806/23/05 20:55:31  5-MIN KDBQ 240255Z AUTO 22010KT 10SM CLR 26/19 A2994  1060 64 2600 210/10 RMK AO2 SLP131 T02610189 53004 TSNO
94908KDBQ DBQ20050623210010506/23/05 21:00:31  5-MIN KDBQ 240300Z AUTO 21009KT 10SM CLR 26/19 A2994  1060 66 2600 210/09 RMK AO2 TSNO
94908KDBQ DBQ20050623210510306/23/05 21:05:31  5-MIN KDBQ 240305Z AUTO 21010KT 9SM CLR 26/19 A2994 1060 68 2600 210/10 RMK AO2 TSNO
94908KDBQ DBQ20050623211010306/23/05 21:10:31  5-MIN KDBQ 240310Z AUTO 21010KT 9SM CLR 26/19 A2994 1060 66 2600 210/10 RMK AO2 TSNO
94908KDBQ DBQ20050623211510506/23/05 21:15:31  5-MIN KDBQ 240315Z AUTO 22011KT 10SM CLR 26/19 A2994  1060 64 2600 220/11 RMK AO2 TSNO
94908KDBQ DBQ20050623212010506/23/05 21:20:31  5-MIN KDBQ 240320Z AUTO 21010KT 10SM CLR 26/19 A2994  1060 64 2600 210/10 RMK AO2 TSNO
94908KDBQ DBQ20050623212510506/23/05 21:25:31  5-MIN KDBQ 240325Z AUTO 22011KT 10SM CLR 26/19 A2994  1060 64 2600 220/11 RMK AO2 TSNO
94908KDBQ DBQ20050623213010506/23/05 21:30:31  5-MIN KDBQ 240330Z AUTO 21010KT 10SM CLR 26/19 A2994  1060 64 2600 210/10 RMK AO2 TSNO
94908KDBQ DBQ20050623213510506/23/05 21:35:31  5-MIN KDBQ 240335Z AUTO 21010KT 10SM CLR 26/19 A2994  1060 64 2600 210/10 RMK AO2 TSNO
94908KDBQ DBQ20050623214010306/23/05 21:40:31  5-MIN KDBQ 240340Z AUTO 21010KT 9SM CLR 26/19 A2994 1060 66 2600 210/10 RMK AO2 TSNO
94908KDBQ DBQ20050623214510306/23/05 21:45:31  5-MIN KDBQ 240345Z AUTO 21011KT 9SM CLR 26/19 A2994 1060 66 2600 210/11 RMK AO2 TSNO
94908KDBQ DBQ20050623215012006/23/05 21:50:31  5-MIN KDBQ 240350Z AUTO 21011KT 9SM CLR 26/19 A2994 1060 66 2600 210/11 RMK AO2 SLP129 T02560189 TSNO
94908KDBQ DBQ20050623215512006/23/05 21:55:31  5-MIN KDBQ 240355Z AUTO 21010KT 9SM CLR 26/19 A2994 1060 66 2600 210/10 RMK AO2 SLP130 T02560189 TSNO
94908KDBQ DBQ20050623220010306/23/05 22:00:31  5-MIN KDBQ 240400Z AUTO 21010KT 9SM CLR 26/19 A2995 1050 66 2500 210/10 RMK AO2 TSNO
94908KDBQ DBQ20050623220510306/23/05 22:05:31  5-MIN KDBQ 240405Z AUTO 21010KT 9SM CLR 25/19 A2995 1050 68 2500 210/10 RMK AO2 TSNO
94908KDBQ DBQ20050623221010306/23/05 22:10:31  5-MIN KDBQ 240410Z AUTO 21010KT 9SM CLR 25/19 A2995 1050 68 2500 210/10 RMK AO2 TSNO
94908KDBQ DBQ20050623221510306/23/05 22:15:31  5-MIN KDBQ 240415Z AUTO 21010KT 9SM CLR 25/19 A2995 1050 68 2500 210/10 RMK AO2 TSNO
94908KDBQ DBQ20050623222010306/23/05 22:20:31  5-MIN KDBQ 240420Z AUTO 21010KT 9SM CLR 25/19 A2995 1050 68 2500 210/10 RMK AO2 TSNO
94908KDBQ DBQ20050623222510306/23/05 22:25:31  5-MIN KDBQ 240425Z AUTO 21009KT 9SM CLR 25/19 A2995 1050 68 2500 210/09 RMK AO2 TSNO
94908KDBQ DBQ20050623223010306/23/05 22:30:31  5-MIN KDBQ 240430Z AUTO 22009KT 9SM CLR 24/19 A2995 1050 71 2400 210/09 RMK AO2 TSNO
94908KDBQ DBQ20050623223510306/23/05 22:35:31  5-MIN KDBQ 240435Z AUTO 22009KT 9SM CLR 24/19 A2995 1050 71 2400 210/09 RMK AO2 TSNO
94908KDBQ DBQ20050623224010306/23/05 22:40:31  5-MIN KDBQ 240440Z AUTO 21009KT 9SM CLR 24/19 A2996 1050 71 2400 210/09 RMK AO2 TSNO
94908KDBQ DBQ20050623224510306/23/05 22:45:31  5-MIN KDBQ 240445Z AUTO 21009KT 9SM CLR 24/18 A2995 1050 71 2400 210/09 RMK AO2 TSNO
94908KDBQ DBQ20050623225012006/23/05 22:50:31  5-MIN KDBQ 240450Z AUTO 21009KT 9SM CLR 24/18 A2996 1050 71 2400 210/09 RMK AO2 SLP135 T02390183 TSNO
94908KDBQ DBQ20050623225512006/23/05 22:55:31  5-MIN KDBQ 240455Z AUTO 21010KT 9SM CLR 24/18 A2996 1050 71 2400 210/10 RMK AO2 SLP135 T02390183 TSNO
94908KDBQ DBQ20050623230010306/23/05 23:00:31  5-MIN KDBQ 240500Z AUTO 21009KT 9SM CLR 24/19 A2996 1040 73 2400 210/09 RMK AO2 TSNO
94908KDBQ DBQ20050623230510306/23/05 23:05:31  5-MIN KDBQ 240505Z AUTO 21010KT 9SM CLR 24/19 A2996 1040 73 2400 210/10 RMK AO2 TSNO
94908KDBQ DBQ20050623231010306/23/05 23:10:31  5-MIN KDBQ 240510Z AUTO 21010KT 9SM CLR 24/19 A2996 1040 73 2400 210/10 RMK AO2 TSNO
94908KDBQ DBQ20050623231510306/23/05 23:15:31  5-MIN KDBQ 240515Z AUTO 21010KT 9SM CLR 24/19 A2996 1040 73 2400 210/10 RMK AO2 TSNO
94908KDBQ DBQ20050623232010306/23/05 23:20:31  5-MIN KDBQ 240520Z AUTO 20010KT 9SM CLR 24/19 A2996 1050 73 2400 200/10 RMK AO2 TSNO
94908KDBQ DBQ20050623232510306/23/05 23:25:31  5-MIN KDBQ 240525Z AUTO 20010KT 9SM CLR 24/19 A2995 1050 73 2400 200/10 RMK AO2 TSNO
94908KDBQ DBQ20050623233010306/23/05 23:30:31  5-MIN KDBQ 240530Z AUTO 20010KT 9SM CLR 23/19 A2995 1050 76 2300 200/10 RMK AO2 TSNO
94908KDBQ DBQ20050623233510306/23/05 23:35:31  5-MIN KDBQ 240535Z AUTO 20010KT 9SM CLR 23/19 A2995 1050 76 2300 200/10 RMK AO2 TSNO
94908KDBQ DBQ20050623234010306/23/05 23:40:31  5-MIN KDBQ 240540Z AUTO 20009KT 8SM CLR 23/19 A2995 1050 76 2300 200/09 RMK AO2 TSNO
94908KDBQ DBQ20050623234510306/23/05 23:45:31  5-MIN KDBQ 240545Z AUTO 21009KT 8SM CLR 23/19 A2995 1050 76 2300 210/09 RMK AO2 TSNO
94908KDBQ DBQ20050623235014806/23/05 23:50:31  5-MIN KDBQ 240550Z AUTO 21009KT 8SM CLR 23/19 A2995 1050 78 2200 210/09 RMK AO2 SLP135 T02280189 10306 20228 403280200 53004 TSNO
94908KDBQ DBQ20050623235514806/23/05 23:55:31  5-MIN KDBQ 240555Z AUTO 21009KT 8SM CLR 23/19 A2996 1050 78 2200 210/09 RMK AO2 SLP135 T02280189 10306 20228 403280200 53004 TSNO
94908KDBQ DBQ20050624000010306/24/05 00:00:38  5-MIN KDBQ 240600Z AUTO 21008KT 8SM CLR 23/19 A2996 1050 78 2200 210/08 RMK AO2 TSNO
94908KDBQ DBQ20050624000510306/24/05 00:05:31  5-MIN KDBQ 240605Z AUTO 21009KT 8SM CLR 23/19 A2995 1050 78 2200 210/09 RMK AO2 TSNO
94908KDBQ DBQ20050624001010306/24/05 00:10:31  5-MIN KDBQ 240610Z AUTO 21010KT 8SM CLR 23/19 A2995 1050 78 2200 210/10 RMK AO2 TSNO
94908KDBQ DBQ20050624002510306/24/05 00:25:31  5-MIN KDBQ 240625Z AUTO 20009KT 8SM CLR 23/19 A2995 1050 78 2200 200/09 RMK AO2 TSNO
94908KDBQ DBQ20050624003010306/24/05 00:30:31  5-MIN KDBQ 240630Z AUTO 21010KT 8SM CLR 23/19 A2995 1060 78 2200 200/10 RMK AO2 TSNO
94908KDBQ DBQ20050624003510306/24/05 00:35:31  5-MIN KDBQ 240635Z AUTO 21010KT 8SM CLR 23/18 A2995 1050 76 2200 210/10 RMK AO2 TSNO
94908KDBQ DBQ20050624004010306/24/05 00:40:31  5-MIN KDBQ 240640Z AUTO 21009KT 8SM CLR 23/18 A2995 1060 76 2200 210/09 RMK AO2 TSNO
94908KDBQ DBQ20050624004510306/24/05 00:45:31  5-MIN KDBQ 240645Z AUTO 21009KT 8SM CLR 23/18 A2994 1060 76 2200 210/09 RMK AO2 TSNO
94908KDBQ DBQ20050624005012006/24/05 00:50:31  5-MIN KDBQ 240650Z AUTO 21009KT 8SM CLR 23/18 A2995 1050 76 2200 210/09 RMK AO2 SLP131 T02280183 TSNO
94908KDBQ DBQ20050624005512006/24/05 00:55:31  5-MIN KDBQ 240655Z AUTO 21010KT 8SM CLR 23/18 A2995 1050 76 2200 210/10 RMK AO2 SLP131 T02280183 TSNO
94908KDBQ DBQ20050624010010306/24/05 01:00:31  5-MIN KDBQ 240700Z AUTO 21009KT 8SM CLR 23/18 A2995 1050 76 2200 210/09 RMK AO2 TSNO
94908KDBQ DBQ20050624010510306/24/05 01:05:31  5-MIN KDBQ 240705Z AUTO 21009KT 8SM CLR 22/18 A2995 1050 78 2200 210/09 RMK AO2 TSNO
94908KDBQ DBQ20050624011010306/24/05 01:10:31  5-MIN KDBQ 240710Z AUTO 21009KT 7SM CLR 22/18 A2995 1050 78 2200 210/09 RMK AO2 TSNO
94908KDBQ DBQ20050624011510306/24/05 01:15:31  5-MIN KDBQ 240715Z AUTO 21009KT 7SM CLR 22/18 A2995 1050 78 2200 210/09 RMK AO2 TSNO
94908KDBQ DBQ20050624012010306/24/05 01:20:31  5-MIN KDBQ 240720Z AUTO 21010KT 7SM CLR 22/18 A2994 1060 78 2200 210/10 RMK AO2 TSNO
94908KDBQ DBQ20050624012510306/24/05 01:25:31  5-MIN KDBQ 240725Z AUTO 21009KT 7SM CLR 22/18 A2994 1060 78 2200 210/09 RMK AO2 TSNO
94908KDBQ DBQ20050624013010306/24/05 01:30:31  5-MIN KDBQ 240730Z AUTO 21009KT 7SM CLR 22/18 A2994 1060 78 2200 210/09 RMK AO2 TSNO
94908KDBQ DBQ20050624013510306/24/05 01:35:31  5-MIN KDBQ 240735Z AUTO 22010KT 7SM CLR 22/18 A2994 1060 78 2200 220/10 RMK AO2 TSNO
94908KDBQ DBQ20050624014010306/24/05 01:40:31  5-MIN KDBQ 240740Z AUTO 21011KT 7SM CLR 22/18 A2994 1060 78 2200 210/11 RMK AO2 TSNO
94908KDBQ DBQ20050624014510306/24/05 01:45:31  5-MIN KDBQ 240745Z AUTO 21011KT 7SM CLR 23/18 A2994 1060 76 2200 210/11 RMK AO2 TSNO
94908KDBQ DBQ20050624015012006/24/05 01:50:31  5-MIN KDBQ 240750Z AUTO 21011KT 7SM CLR 23/18 A2994 1060 76 2200 210/11 RMK AO2 SLP129 T02280183 TSNO
94908KDBQ DBQ20050624015512006/24/05 01:55:31  5-MIN KDBQ 240755Z AUTO 21010KT 7SM CLR 23/18 A2994 1060 76 2200 210/10 RMK AO2 SLP129 T02280183 TSNO
94908KDBQ DBQ20050624020010306/24/05 02:00:31  5-MIN KDBQ 240800Z AUTO 21010KT 7SM CLR 23/18 A2994 1060 76 2200 210/10 RMK AO2 TSNO
94908KDBQ DBQ20050624020510306/24/05 02:05:31  5-MIN KDBQ 240805Z AUTO 21009KT 7SM CLR 22/18 A2994 1060 78 2200 210/09 RMK AO2 TSNO
94908KDBQ DBQ20050624021010306/24/05 02:10:31  5-MIN KDBQ 240810Z AUTO 21009KT 7SM CLR 22/18 A2994 1060 81 2100 210/09 RMK AO2 TSNO
94908KDBQ DBQ20050624021510306/24/05 02:15:31  5-MIN KDBQ 240815Z AUTO 21008KT 7SM CLR 22/18 A2994 1060 81 2100 210/08 RMK AO2 TSNO
94908KDBQ DBQ20050624022010306/24/05 02:20:31  5-MIN KDBQ 240820Z AUTO 22009KT 7SM CLR 22/18 A2994 1060 81 2100 220/09 RMK AO2 TSNO
94908KDBQ DBQ20050624022510306/24/05 02:25:31  5-MIN KDBQ 240825Z AUTO 21008KT 7SM CLR 22/18 A2994 1060 81 2100 210/08 RMK AO2 TSNO
94908KDBQ DBQ20050624023010306/24/05 02:30:31  5-MIN KDBQ 240830Z AUTO 22008KT 7SM CLR 22/18 A2995 1050 81 2100 220/08 RMK AO2 TSNO
94908KDBQ DBQ20050624023510306/24/05 02:35:31  5-MIN KDBQ 240835Z AUTO 22008KT 7SM CLR 21/18 A2995 1050 84 2000 220/08 RMK AO2 TSNO
94908KDBQ DBQ20050624024010306/24/05 02:40:31  5-MIN KDBQ 240840Z AUTO 22009KT 7SM CLR 22/18 A2995 1050 81 2100 210/09 RMK AO2 TSNO
94908KDBQ DBQ20050624024510306/24/05 02:45:31  5-MIN KDBQ 240845Z AUTO 22010KT 7SM CLR 22/18 A2995 1050 81 2100 220/10 RMK AO2 TSNO
94908KDBQ DBQ20050624025012606/24/05 02:50:31  5-MIN KDBQ 240850Z AUTO 22009KT 7SM CLR 22/18 A2995 1050 81 2100 220/09 RMK AO2 SLP132 T02170183 53004 TSNO
94908KDBQ DBQ20050624025512606/24/05 02:55:31  5-MIN KDBQ 240855Z AUTO 22009KT 7SM CLR 22/18 A2995 1060 81 2100 220/09 RMK AO2 SLP132 T02170183 55004 TSNO
94908KDBQ DBQ20050624030010306/24/05 03:00:31  5-MIN KDBQ 240900Z AUTO 22010KT 7SM CLR 22/18 A2994 1060 81 2100 220/10 RMK AO2 TSNO
94908KDBQ DBQ20050624030510306/24/05 03:05:31  5-MIN KDBQ 240905Z AUTO 22009KT 7SM CLR 22/18 A2995 1050 81 2100 220/09 RMK AO2 TSNO
94908KDBQ DBQ20050624031010306/24/05 03:10:31  5-MIN KDBQ 240910Z AUTO 22010KT 7SM CLR 22/18 A2995 1050 78 2100 220/10 RMK AO2 TSNO
94908KDBQ DBQ20050624031510306/24/05 03:15:31  5-MIN KDBQ 240915Z AUTO 22010KT 7SM CLR 22/18 A2995 1050 78 2100 220/10 RMK AO2 TSNO
94908KDBQ DBQ20050624032010306/24/05 03:20:31  5-MIN KDBQ 240920Z AUTO 22009KT 7SM CLR 22/18 A2995 1050 78 2100 210/09 RMK AO2 TSNO
94908KDBQ DBQ20050624032510306/24/05 03:25:31  5-MIN KDBQ 240925Z AUTO 21009KT 7SM CLR 22/18 A2994 1060 78 2100 210/09 RMK AO2 TSNO
94908KDBQ DBQ20050624033010306/24/05 03:30:31  5-MIN KDBQ 240930Z AUTO 21008KT 7SM CLR 22/18 A2996 1050 78 2100 210/08 RMK AO2 TSNO
94908KDBQ DBQ20050624033510306/24/05 03:35:31  5-MIN KDBQ 240935Z AUTO 21008KT 7SM CLR 22/18 A2996 1040 78 2100 210/08 RMK AO2 TSNO
94908KDBQ DBQ20050624034010706/24/05 03:40:31  5-MIN KDBQ 240940Z AUTO 21008KT 6SM HZ CLR 21/18 A2996  1040 81 2000 210/08 RMK AO2 TSNO
94908KDBQ DBQ20050624034510706/24/05 03:45:31  5-MIN KDBQ 240945Z AUTO 21009KT 6SM HZ CLR 21/18 A2995  1050 81 2000 210/09 RMK AO2 TSNO
94908KDBQ DBQ20050624035012406/24/05 03:50:31  5-MIN KDBQ 240950Z AUTO 21008KT 6SM HZ CLR 21/18 A2996  1050 81 2000 210/08 RMK AO2 SLP135 T02110178 TSNO
94908KDBQ DBQ20050624035512406/24/05 03:55:31  5-MIN KDBQ 240955Z AUTO 21008KT 6SM HZ CLR 21/18 A2996  1040 81 2000 210/08 RMK AO2 SLP137 T02110178 TSNO
94908KDBQ DBQ20050624040010706/24/05 04:00:31  5-MIN KDBQ 241000Z AUTO 21008KT 6SM HZ CLR 21/18 A2996  1040 81 2000 210/08 RMK AO2 TSNO
94908KDBQ DBQ20050624040510706/24/05 04:05:31  5-MIN KDBQ 241005Z AUTO 21008KT 6SM HZ CLR 22/18 A2997  1040 78 2100 210/08 RMK AO2 TSNO
94908KDBQ DBQ20050624041010706/24/05 04:10:31  5-MIN KDBQ 241010Z AUTO 20009KT 6SM HZ CLR 21/18 A2997  1040 81 2000 200/09 RMK AO2 TSNO
94908KDBQ DBQ20050624041510706/24/05 04:15:31  5-MIN KDBQ 241015Z AUTO 20009KT 6SM HZ CLR 21/18 A2997  1040 81 2000 200/09 RMK AO2 TSNO
94908KDBQ DBQ20050624042010706/24/05 04:20:31  5-MIN KDBQ 241020Z AUTO 19007KT 6SM HZ CLR 21/18 A2997  1040 81 2000 190/07 RMK AO2 TSNO
94908KDBQ DBQ20050624042510706/24/05 04:25:31  5-MIN KDBQ 241025Z AUTO 19008KT 5SM HZ CLR 21/18 A2997  1040 81 2000 190/08 RMK AO2 TSNO
94908KDBQ DBQ20050624043010706/24/05 04:30:31  5-MIN KDBQ 241030Z AUTO 20008KT 5SM HZ CLR 21/18 A2997  1030 81 2000 200/08 RMK AO2 TSNO
94908KDBQ DBQ20050624043510706/24/05 04:35:31  5-MIN KDBQ 241035Z AUTO 20008KT 5SM HZ CLR 21/18 A2997  1030 81 2000 200/08 RMK AO2 TSNO
94908KDBQ DBQ20050624044010706/24/05 04:40:31  5-MIN KDBQ 241040Z AUTO 20008KT 5SM HZ CLR 21/18 A2997  1030 84 2000 200/08 RMK AO2 TSNO
94908KDBQ DBQ20050624044510706/24/05 04:45:31  5-MIN KDBQ 241045Z AUTO 20007KT 5SM HZ CLR 21/18 A2997  1030 81 2000 200/07 RMK AO2 TSNO
94908KDBQ DBQ20050624045011406/24/05 04:50:31  5-MIN KDBQ 241050Z 20008KT 5SM HZ CLR 21/18 A2997 1030  81 2000 200/08 RMK AO2 SLP141 T02110178
94908KDBQ DBQ20050624045511406/24/05 04:55:31  5-MIN KDBQ 241055Z 20008KT 5SM HZ CLR 21/18 A2997 1030  81 2000 200/08 RMK AO2 SLP141 T02110178
94908KDBQ DBQ20050624050009706/24/05 05:00:31  5-MIN KDBQ 241100Z 20008KT 5SM HZ CLR 21/18 A2998 1030  81 2000 200/08 RMK AO2
94908KDBQ DBQ20050624050509706/24/05 05:05:31  5-MIN KDBQ 241105Z 20007KT 5SM HZ CLR 21/18 A2998 1020  84 2000 200/07 RMK AO2
94908KDBQ DBQ20050624051009706/24/05 05:10:31  5-MIN KDBQ 241110Z 20007KT 5SM HZ CLR 21/18 A2998 1020  84 2000 200/07 RMK AO2
94908KDBQ DBQ20050624051509706/24/05 05:15:31  5-MIN KDBQ 241115Z 20007KT 5SM HZ CLR 21/18 A2999 1020  84 2000 200/07 RMK AO2
94908KDBQ DBQ20050624052009706/24/05 05:20:31  5-MIN KDBQ 241120Z 19007KT 5SM HZ CLR 21/18 A2999 1020  84 2000 190/07 RMK AO2
94908KDBQ DBQ20050624052509706/24/05 05:25:31  5-MIN KDBQ 241125Z 20007KT 4SM HZ CLR 21/18 A2998 1020  84 2000 200/07 RMK AO2
94908KDBQ DBQ20050624053009706/24/05 05:30:31  5-MIN KDBQ 241130Z 20007KT 4SM HZ CLR 21/18 A2998 1020  84 2000 200/07 RMK AO2
94908KDBQ DBQ20050624053509706/24/05 05:35:31  5-MIN KDBQ 241135Z 20007KT 5SM HZ CLR 21/18 A2998 1020  84 2000 200/07 RMK AO2
94908KDBQ DBQ20050624054009706/24/05 05:40:31  5-MIN KDBQ 241140Z 20007KT 5SM HZ CLR 22/18 A2998 1020  81 2100 200/07 RMK AO2
94908KDBQ DBQ20050624054509706/24/05 05:45:31  5-MIN KDBQ 241145Z 20007KT 5SM HZ CLR 22/18 A2998 1020  81 2100 200/07 RMK AO2
94908KDBQ DBQ20050624055013206/24/05 05:50:31  5-MIN KDBQ 241150Z 20008KT 5SM HZ CLR 22/18 A2998 1020  81 2100 200/08 RMK AO2 SLP144 T02170183 10228 20206 55004
94908KDBQ DBQ20050624055513206/24/05 05:55:31  5-MIN KDBQ 241155Z 20008KT 5SM HZ CLR 22/18 A2998 1020  81 2100 200/08 RMK AO2 SLP144 T02170183 10228 20206 51012
94908KDBQ DBQ20050624060009706/24/05 06:00:31  5-MIN KDBQ 241200Z 20008KT 5SM HZ CLR 22/19 A2999 1020  81 2100 200/08 RMK AO2
94908KDBQ DBQ20050624060509706/24/05 06:05:31  5-MIN KDBQ 241205Z 20008KT 5SM HZ CLR 22/18 A2999 1020  78 2100 200/08 RMK AO2
94908KDBQ DBQ20050624061009706/24/05 06:10:31  5-MIN KDBQ 241210Z 20009KT 5SM HZ CLR 22/19 A2999 1010  81 2100 200/09 RMK AO2
94908KDBQ DBQ20050624061509706/24/05 06:15:31  5-MIN KDBQ 241215Z 20008KT 5SM HZ CLR 23/19 A2999 1010  78 2200 200/08 RMK AO2
94908KDBQ DBQ20050624062009706/24/05 06:20:31  5-MIN KDBQ 241220Z 20009KT 5SM HZ CLR 23/19 A2999 1020  78 2200 200/09 RMK AO2
94908KDBQ DBQ20050624062509706/24/05 06:25:31  5-MIN KDBQ 241225Z 20009KT 5SM HZ CLR 23/19 A2999 1020  78 2200 200/09 RMK AO2
94908KDBQ DBQ20050624063009706/24/05 06:30:31  5-MIN KDBQ 241230Z 20010KT 5SM HZ CLR 23/19 A2999 1020  76 2300 200/10 RMK AO2
94908KDBQ DBQ20050624063509706/24/05 06:35:31  5-MIN KDBQ 241235Z 20010KT 5SM HZ CLR 23/19 A2999 1020  76 2300 200/10 RMK AO2
94908KDBQ DBQ20050624064009706/24/05 06:40:31  5-MIN KDBQ 241240Z 20011KT 5SM HZ CLR 23/19 A2998 1020  76 2300 200/11 RMK AO2
94908KDBQ DBQ20050624064509706/24/05 06:45:31  5-MIN KDBQ 241245Z 21009KT 5SM HZ CLR 24/19 A2999 1020  73 2300 200/09 RMK AO2
94908KDBQ DBQ20050624065011406/24/05 06:50:31  5-MIN KDBQ 241250Z 20010KT 5SM HZ CLR 24/19 A2999 1020  73 2300 200/10 RMK AO2 SLP145 T02390189
94908KDBQ DBQ20050624065511406/24/05 06:55:31  5-MIN KDBQ 241255Z 20010KT 5SM HZ CLR 24/19 A2999 1020  73 2300 200/10 RMK AO2 SLP146 T02390189
94908KDBQ DBQ20050624070009706/24/05 07:00:31  5-MIN KDBQ 241300Z 21011KT 5SM HZ CLR 24/19 A2999 1020  73 2400 210/11 RMK AO2
94908KDBQ DBQ20050624070509706/24/05 07:05:31  5-MIN KDBQ 241305Z 21011KT 5SM HZ CLR 24/19 A2999 1020  73 2400 210/11 RMK AO2
94908KDBQ DBQ20050624071009706/24/05 07:10:31  5-MIN KDBQ 241310Z 21011KT 5SM HZ CLR 25/19 A2998 1020  71 2400 210/11 RMK AO2
94908KDBQ DBQ20050624071509706/24/05 07:15:31  5-MIN KDBQ 241315Z 20011KT 5SM HZ CLR 25/19 A2998 1020  71 2400 200/11 RMK AO2
94908KDBQ DBQ20050624072009706/24/05 07:20:31  5-MIN KDBQ 241320Z 20012KT 5SM HZ CLR 25/19 A2998 1020  71 2400 200/12 RMK AO2
94908KDBQ DBQ20050624072509706/24/05 07:25:31  5-MIN KDBQ 241325Z 20013KT 5SM HZ CLR 26/19 A2998 1020  68 2500 200/13 RMK AO2
94908KDBQ DBQ20050624073009706/24/05 07:30:31  5-MIN KDBQ 241330Z 20011KT 5SM HZ CLR 26/19 A2998 1020  68 2500 200/11 RMK AO2
94908KDBQ DBQ20050624073509706/24/05 07:35:31  5-MIN KDBQ 241335Z 20012KT 5SM HZ CLR 26/19 A2998 1020  68 2500 200/12 RMK AO2
94908KDBQ DBQ20050624074009706/24/05 07:40:31  5-MIN KDBQ 241340Z 20012KT 5SM HZ CLR 26/20 A2998 1020  68 2600 200/12 RMK AO2
94908KDBQ DBQ20050624074509706/24/05 07:45:31  5-MIN KDBQ 241345Z 22011KT 5SM HZ CLR 26/20 A2998 1020  68 2600 220/11 RMK AO2
94908KDBQ DBQ20050624075011406/24/05 07:50:31  5-MIN KDBQ 241350Z 22014KT 5SM HZ CLR 27/20 A2998 1030  66 2600 220/14 RMK AO2 SLP142 T02670200
94908KDBQ DBQ20050624075511406/24/05 07:55:31  5-MIN KDBQ 241355Z 21014KT 5SM HZ CLR 27/19 A2998 1030  64 2600 210/14 RMK AO2 SLP142 T02670194
94908KDBQ DBQ20050624080009706/24/05 08:00:31  5-MIN KDBQ 241400Z 22011KT 5SM HZ CLR 27/19 A2998 1030  64 2600 220/11 RMK AO2
94908KDBQ DBQ20050624080509706/24/05 08:05:31  5-MIN KDBQ 241405Z 22012KT 5SM HZ CLR 27/19 A2998 1030  64 2600 220/12 RMK AO2
94908KDBQ DBQ20050624081010306/24/05 08:10:31  5-MIN KDBQ 241410Z 23015G19KT 5SM HZ CLR 27/19 A2998  1030 62 2700 230/15G19 RMK AO2
94908KDBQ DBQ20050624081509706/24/05 08:15:31  5-MIN KDBQ 241415Z 23013KT 5SM HZ CLR 27/19 A2997 1030  62 2700 230/13 RMK AO2
94908KDBQ DBQ20050624082009706/24/05 08:20:31  5-MIN KDBQ 241420Z 23011KT 5SM HZ CLR 27/20 A2998 1030  64 2700 230/11 RMK AO2
94908KDBQ DBQ20050624082510306/24/05 08:25:31  5-MIN KDBQ 241425Z 24013G18KT 5SM HZ CLR 27/19 A2998  1020 62 2700 240/13G18 RMK AO2
94908KDBQ DBQ20050624083009706/24/05 08:30:31  5-MIN KDBQ 241430Z 24013KT 5SM HZ CLR 27/19 A2999 1020  62 2700 240/13 RMK AO2
94908KDBQ DBQ20050624083509706/24/05 08:35:31  5-MIN KDBQ 241435Z 24012KT 5SM HZ CLR 27/19 A2998 1020  62 2700 240/12 RMK AO2
94908KDBQ DBQ20050624084009706/24/05 08:40:31  5-MIN KDBQ 241440Z 23015KT 5SM HZ CLR 27/19 A2998 1020  62 2700 230/15 RMK AO2
94908KDBQ DBQ20050624084509706/24/05 08:45:31  5-MIN KDBQ 241445Z 24015KT 5SM HZ CLR 28/20 A2998 1020  62 2800 240/15 RMK AO2
94908KDBQ DBQ20050624085012006/24/05 08:50:31  5-MIN KDBQ 241450Z 24014KT 5SM HZ CLR 28/20 A2998 1020  62 2800 230/14 RMK AO2 SLP145 T02780200 51012
94908KDBQ DBQ20050624085512006/24/05 08:55:31  5-MIN KDBQ 241455Z 24013KT 5SM HZ CLR 28/20 A2999 1020  62 2800 240/13 RMK AO2 SLP145 T02780200 53001
94908KDBQ DBQ20050624090009706/24/05 09:00:31  5-MIN KDBQ 241500Z 24015KT 5SM HZ CLR 28/20 A2999 1020  62 2800 240/15 RMK AO2
94908KDBQ DBQ20050624090509706/24/05 09:05:31  5-MIN KDBQ 241505Z 24013KT 5SM HZ CLR 28/20 A2999 1020  60 2800 240/13 RMK AO2
94908KDBQ DBQ20050624091009706/24/05 09:10:31  5-MIN KDBQ 241510Z 24013KT 5SM HZ CLR 28/20 A2999 1020  60 2800 240/13 RMK AO2
94908KDBQ DBQ20050624091509706/24/05 09:15:31  5-MIN KDBQ 241515Z 24015KT 5SM HZ CLR 28/20 A2998 1020  60 2800 240/15 RMK AO2
94908KDBQ DBQ20050624092009706/24/05 09:20:31  5-MIN KDBQ 241520Z 23010KT 5SM HZ CLR 28/20 A2998 1020  60 2800 230/10 RMK AO2
94908KDBQ DBQ20050624092509706/24/05 09:25:31  5-MIN KDBQ 241525Z 24013KT 5SM HZ CLR 29/21 A2998 1020  60 2900 230/13 RMK AO2
94908KDBQ DBQ20050624093009706/24/05 09:30:31  5-MIN KDBQ 241530Z 24014KT 5SM HZ CLR 29/20 A2999 1020  58 2900 240/14 RMK AO2
94908KDBQ DBQ20050624093509706/24/05 09:35:31  5-MIN KDBQ 241535Z 24015KT 6SM HZ CLR 29/20 A2998 1020  58 2900 240/15 RMK AO2
94908KDBQ DBQ20050624094009706/24/05 09:40:31  5-MIN KDBQ 241540Z 25014KT 6SM HZ CLR 29/20 A2998 1020  58 2900 250/14 RMK AO2
94908KDBQ DBQ20050624094509706/24/05 09:45:31  5-MIN KDBQ 241545Z 25013KT 6SM HZ CLR 29/20 A2999 1020  56 2900 250/13 RMK AO2
94908KDBQ DBQ20050624095011406/24/05 09:50:31  5-MIN KDBQ 241550Z 26013KT 6SM HZ CLR 29/20 A2999 1020  56 2900 260/13 RMK AO2 SLP144 T02940200
94908KDBQ DBQ20050624095511406/24/05 09:55:31  5-MIN KDBQ 241555Z 23014KT 6SM HZ CLR 29/20 A2998 1020  56 2900 230/14 RMK AO2 SLP144 T02940200
94908KDBQ DBQ20050624100009706/24/05 10:00:31  5-MIN KDBQ 241600Z 25012KT 6SM HZ CLR 29/20 A2998 1020  56 2900 240/12 RMK AO2
94908KDBQ DBQ20050624100509706/24/05 10:05:31  5-MIN KDBQ 241605Z 26014KT 6SM HZ CLR 29/20 A2998 1020  56 2900 260/14 RMK AO2
94908KDBQ DBQ20050624101009706/24/05 10:10:31  5-MIN KDBQ 241610Z 27013KT 6SM HZ CLR 30/20 A2998 1020  54 3000 270/13 RMK AO2
94908KDBQ DBQ20050624101509706/24/05 10:15:31  5-MIN KDBQ 241615Z 27013KT 6SM HZ CLR 30/20 A2999 1020  54 3000 260/13 RMK AO2
94908KDBQ DBQ20050624102009706/24/05 10:20:31  5-MIN KDBQ 241620Z 25013KT 6SM HZ CLR 29/20 A2998 1020  56 2900 250/13 RMK AO2
94908KDBQ DBQ20050624102509706/24/05 10:25:31  5-MIN KDBQ 241625Z 24012KT 6SM HZ CLR 29/20 A2998 1020  56 2900 240/12 RMK AO2
94908KDBQ DBQ20050624103009706/24/05 10:30:31  5-MIN KDBQ 241630Z 24011KT 6SM HZ CLR 30/21 A2998 1020  56 3000 240/11 RMK AO2
94908KDBQ DBQ20050624103509706/24/05 10:35:31  5-MIN KDBQ 241635Z 22011KT 6SM HZ CLR 30/21 A2998 1020  56 3000 220/11 RMK AO2
94908KDBQ DBQ20050624104009706/24/05 10:40:31  5-MIN KDBQ 241640Z 23014KT 6SM HZ CLR 30/21 A2998 1020  56 3000 220/14 RMK AO2
94908KDBQ DBQ20050624104509706/24/05 10:45:31  5-MIN KDBQ 241645Z 24014KT 6SM HZ CLR 30/20 A2998 1020  54 3000 230/14 RMK AO2
94908KDBQ DBQ20050624105011406/24/05 10:50:31  5-MIN KDBQ 241650Z 25013KT 6SM HZ CLR 30/21 A2998 1030  56 3000 250/13 RMK AO2 SLP142 T03000206
94908KDBQ DBQ20050624105511406/24/05 10:55:31  5-MIN KDBQ 241655Z 24014KT 6SM HZ CLR 30/20 A2997 1030  54 3000 240/14 RMK AO2 SLP141 T03000200
94908KDBQ DBQ20050624110009706/24/05 11:00:31  5-MIN KDBQ 241700Z 23011KT 6SM HZ CLR 31/21 A2997 1030  54 3100 230/11 RMK AO2
94908KDBQ DBQ20050624110509706/24/05 11:05:31  5-MIN KDBQ 241705Z 23013KT 6SM HZ CLR 31/21 A2997 1040  54 3100 230/13 RMK AO2
94908KDBQ DBQ20050624111009706/24/05 11:10:31  5-MIN KDBQ 241710Z 24012KT 6SM HZ CLR 31/21 A2996 1040  54 3100 240/12 RMK AO2
94908KDBQ DBQ20050624111509706/24/05 11:15:31  5-MIN KDBQ 241715Z 20013KT 6SM HZ CLR 31/21 A2996 1040  54 3100 200/13 RMK AO2
94908KDBQ DBQ20050624112009706/24/05 11:20:31  5-MIN KDBQ 241720Z 21016KT 6SM HZ CLR 31/21 A2996 1040  54 3100 210/16 RMK AO2
94908KDBQ DBQ20050624112509706/24/05 11:25:31  5-MIN KDBQ 241725Z 22013KT 6SM HZ CLR 31/21 A2996 1040  54 3100 220/13 RMK AO2
94908KDBQ DBQ20050624113009706/24/05 11:30:31  5-MIN KDBQ 241730Z 20012KT 6SM HZ CLR 31/21 A2996 1040  54 3100 200/12 RMK AO2
94908KDBQ DBQ20050624113509706/24/05 11:35:31  5-MIN KDBQ 241735Z 21014KT 6SM HZ CLR 31/21 A2996 1040  53 3200 200/14 RMK AO2
94908KDBQ DBQ20050624114009706/24/05 11:40:31  5-MIN KDBQ 241740Z 21013KT 6SM HZ CLR 31/21 A2996 1040  53 3200 210/13 RMK AO2
94908KDBQ DBQ20050624114509706/24/05 11:45:31  5-MIN KDBQ 241745Z 23011KT 6SM HZ CLR 31/21 A2996 1040  53 3200 230/11 RMK AO2
94908KDBQ DBQ20050624115013206/24/05 11:50:31  5-MIN KDBQ 241750Z 22014KT 6SM HZ CLR 31/21 A2996 1040  54 3100 220/14 RMK AO2 SLP136 T03060206 10311 20217 53001
94908KDBQ DBQ20050624115513206/24/05 11:55:31  5-MIN KDBQ 241755Z 22014KT 6SM HZ CLR 31/21 A2996 1040  53 3200 220/14 RMK AO2 SLP136 T03110206 10311 20217 58009
94908KDBQ DBQ20050624120009706/24/05 12:00:31  5-MIN KDBQ 241800Z 21013KT 6SM HZ CLR 31/21 A2995 1050  54 3200 200/13 RMK AO2
94908KDBQ DBQ20050624120509706/24/05 12:05:31  5-MIN KDBQ 241805Z 22015KT 6SM HZ CLR 31/21 A2995 1050  53 3200 220/15 RMK AO2
94908KDBQ DBQ20050624121009706/24/05 12:10:31  5-MIN KDBQ 241810Z 22012KT 6SM HZ CLR 31/21 A2995 1050  53 3200 220/12 RMK AO2
94908KDBQ DBQ20050624121510306/24/05 12:15:31  5-MIN KDBQ 241815Z 22014G19KT 6SM HZ CLR 32/21 A2995  1050 51 3200 220/14G19 RMK AO2
94908KDBQ DBQ20050624122010306/24/05 12:20:31  5-MIN KDBQ 241820Z 23014G19KT 6SM HZ CLR 31/21 A2995  1050 53 3200 230/14G19 RMK AO2
94908KDBQ DBQ20050624122509706/24/05 12:25:31  5-MIN KDBQ 241825Z 23014KT 6SM HZ CLR 32/21 A2995 1050  51 3200 230/14 RMK AO2
94908KDBQ DBQ20050624123009406/24/05 12:30:31  5-MIN KDBQ 241830Z 21015KT 7SM CLR 32/21 A2995 1050 51  3200 210/15 RMK AO2
94908KDBQ DBQ20050624123509706/24/05 12:35:31  5-MIN KDBQ 241835Z 22013KT 6SM HZ CLR 32/21 A2995 1050  51 3200 220/13 RMK AO2
94908KDBQ DBQ20050624124009706/24/05 12:40:31  5-MIN KDBQ 241840Z 21014KT 6SM HZ CLR 32/21 A2995 1050  53 3200 210/14 RMK AO2
94908KDBQ DBQ20050624124509406/24/05 12:45:31  5-MIN KDBQ 241845Z 22014KT 7SM CLR 32/21 A2995 1050 51  3200 220/14 RMK AO2
94908KDBQ DBQ20050624125011106/24/05 12:50:31  5-MIN KDBQ 241850Z 21013KT 7SM CLR 32/21 A2995 1050 51  3200 210/13 RMK AO2 SLP134 T03170206
94908KDBQ DBQ20050624125511106/24/05 12:55:31  5-MIN KDBQ 241855Z 22015KT 7SM CLR 32/21 A2995 1050 51  3300 220/15 RMK AO2 SLP132 T03220211
94908KDBQ DBQ20050624130009706/24/05 13:00:31  5-MIN KDBQ 241900Z 21016KT 6SM HZ CLR 32/21 A2995 1050  51 3200 210/16 RMK AO2
94908KDBQ DBQ20050624130509406/24/05 13:05:31  5-MIN KDBQ 241905Z 22014KT 7SM CLR 32/21 A2995 1050 51  3300 220/14 RMK AO2
94908KDBQ DBQ20050624131010006/24/05 13:10:31  5-MIN KDBQ 241910Z 24015G20KT 7SM CLR 32/21 A2994 1060  49 3300 240/15G20 RMK AO2
94908KDBQ DBQ20050624131510306/24/05 13:15:31  5-MIN KDBQ 241915Z 24015G20KT 6SM HZ CLR 32/21 A2994  1060 51 3300 240/15G20 RMK AO2
94908KDBQ DBQ20050624132010306/24/05 13:20:31  5-MIN KDBQ 241920Z 22016G20KT 6SM HZ CLR 32/21 A2995  1050 49 3300 220/16G20 RMK AO2
94908KDBQ DBQ20050624132509406/24/05 13:25:31  5-MIN KDBQ 241925Z 22014KT 7SM CLR 32/21 A2994 1060 49  3300 220/14 RMK AO2
94908KDBQ DBQ20050624133009406/24/05 13:30:31  5-MIN KDBQ 241930Z 22014KT 7SM CLR 32/21 A2994 1060 49  3300 210/14 RMK AO2
94908KDBQ DBQ20050624133510006/24/05 13:35:31  5-MIN KDBQ 241935Z 22013G20KT 7SM CLR 32/21 A2995 1050  51 3300 220/13G20 RMK AO2
94908KDBQ DBQ20050624134010006/24/05 13:40:31  5-MIN KDBQ 241940Z 22014G20KT 7SM CLR 33/21 A2994 1060  49 3400 220/14G20 RMK AO2
94908KDBQ DBQ20050624134510006/24/05 13:45:31  5-MIN KDBQ 241945Z 22014G20KT 7SM CLR 32/21 A2994 1060  49 3300 220/14G20 RMK AO2
94908KDBQ DBQ20050624135011706/24/05 13:50:31  5-MIN KDBQ 241950Z 22017G20KT 7SM CLR 32/21 A2994 1060  49 3300 210/17G20 RMK AO2 SLP130 T03220206
94908KDBQ DBQ20050624135511106/24/05 13:55:31  5-MIN KDBQ 241955Z 22015KT 7SM CLR 33/21 A2994 1060 48  3400 220/15 RMK AO2 SLP129 T03280206
94908KDBQ DBQ20050624140009406/24/05 14:00:31  5-MIN KDBQ 242000Z 23015KT 7SM CLR 33/21 A2995 1060 49  3400 230/15 RMK AO2
94908KDBQ DBQ20050624140509406/24/05 14:05:31  5-MIN KDBQ 242005Z 21015KT 7SM CLR 33/21 A2994 1060 48  3400 210/15 RMK AO2
94908KDBQ DBQ20050624141009706/24/05 14:10:31  5-MIN KDBQ 242010Z 21013KT 6SM HZ CLR 33/21 A2994 1060  48 3400 210/13 RMK AO2
94908KDBQ DBQ20050624141509406/24/05 14:15:31  5-MIN KDBQ 242015Z 22017KT 7SM CLR 33/21 A2994 1060 48  3400 220/17 RMK AO2
94908KDBQ DBQ20050624142009406/24/05 14:20:31  5-MIN KDBQ 242020Z 21015KT 7SM CLR 33/21 A2994 1060 48  3400 210/15 RMK AO2
94908KDBQ DBQ20050624142509406/24/05 14:25:31  5-MIN KDBQ 242025Z 22013KT 7SM CLR 33/21 A2994 1060 49  3400 220/13 RMK AO2
94908KDBQ DBQ20050624143009406/24/05 14:30:31  5-MIN KDBQ 242030Z 22015KT 7SM CLR 33/21 A2994 1060 49  3400 220/15 RMK AO2
94908KDBQ DBQ20050624143509406/24/05 14:35:31  5-MIN KDBQ 242035Z 21017KT 7SM CLR 33/21 A2994 1060 48  3400 210/17 RMK AO2
94908KDBQ DBQ20050624144010006/24/05 14:40:31  5-MIN KDBQ 242040Z 22013G20KT 7SM CLR 33/21 A2995 1060  48 3400 220/13G20 RMK AO2
94908KDBQ DBQ20050624144509406/24/05 14:45:31  5-MIN KDBQ 242045Z 21014KT 7SM CLR 33/21 A2994 1060 48  3400 210/14 RMK AO2
94908KDBQ DBQ20050624145012306/24/05 14:50:31  5-MIN KDBQ 242050Z 23016G20KT 7SM CLR 33/20 A2994 1060  46 3400 230/16G20 RMK AO2 SLP130 T03280200 58009
94908KDBQ DBQ20050624145511706/24/05 14:55:31  5-MIN KDBQ 242055Z 23014KT 7SM CLR 33/20 A2994 1060 46  3400 230/14 RMK AO2 SLP131 T03280200 55005
94908KDBQ DBQ20050624150009406/24/05 15:00:31  5-MIN KDBQ 242100Z 22014KT 7SM CLR 33/20 A2994 1060 46  3400 220/14 RMK AO2
94908KDBQ DBQ20050624150509406/24/05 15:05:31  5-MIN KDBQ 242105Z 23015KT 7SM CLR 33/21 A2994 1060 48  3400 230/15 RMK AO2
94908KDBQ DBQ20050624151009406/24/05 15:10:31  5-MIN KDBQ 242110Z 22014KT 7SM CLR 33/20 A2994 1060 46  3400 220/14 RMK AO2
94908KDBQ DBQ20050624151509406/24/05 15:15:31  5-MIN KDBQ 242115Z 23017KT 7SM CLR 33/20 A2993 1070 46  3400 230/17 RMK AO2
94908KDBQ DBQ20050624152009406/24/05 15:20:31  5-MIN KDBQ 242120Z 22014KT 7SM CLR 33/20 A2993 1070 46  3400 220/14 RMK AO2
94908KDBQ DBQ20050624152509406/24/05 15:25:31  5-MIN KDBQ 242125Z 22016KT 7SM CLR 33/20 A2993 1070 46  3400 220/16 RMK AO2
94908KDBQ DBQ20050624153009406/24/05 15:30:31  5-MIN KDBQ 242130Z 21017KT 7SM CLR 33/19 A2993 1070 44  3400 210/17 RMK AO2
94908KDBQ DBQ20050624153509406/24/05 15:35:31  5-MIN KDBQ 242135Z 22017KT 7SM CLR 33/19 A2992 1080 44  3400 220/17 RMK AO2
94908KDBQ DBQ20050624154009406/24/05 15:40:31  5-MIN KDBQ 242140Z 23015KT 7SM CLR 33/19 A2993 1070 44  3400 230/15 RMK AO2
94908KDBQ DBQ20050624154509406/24/05 15:45:31  5-MIN KDBQ 242145Z 22014KT 8SM CLR 33/20 A2993 1070 46  3400 220/14 RMK AO2
94908KDBQ DBQ20050624155011106/24/05 15:50:31  5-MIN KDBQ 242150Z 22015KT 8SM CLR 33/19 A2993 1070 44  3400 220/15 RMK AO2 SLP126 T03280194
94908KDBQ DBQ20050624155511106/24/05 15:55:31  5-MIN KDBQ 242155Z 23013KT 8SM CLR 33/20 A2993 1070 46  3400 230/13 RMK AO2 SLP126 T03280200
94908KDBQ DBQ20050624160010006/24/05 16:00:31  5-MIN KDBQ 242200Z 22013G19KT 8SM CLR 33/20 A2993 1070  46 3400 220/13G19 RMK AO2
94908KDBQ DBQ20050624160510006/24/05 16:05:31  5-MIN KDBQ 242205Z 22014G19KT 8SM CLR 33/19 A2993 1070  44 3400 220/14G19 RMK AO2
94908KDBQ DBQ20050624161009406/24/05 16:10:31  5-MIN KDBQ 242210Z 23015KT 8SM CLR 33/19 A2993 1070 44  3400 230/15 RMK AO2
94908KDBQ DBQ20050624161509406/24/05 16:15:31  5-MIN KDBQ 242215Z 22013KT 8SM CLR 32/19 A2993 1070 46  3300 220/13 RMK AO2
94908KDBQ DBQ20050624162009406/24/05 16:20:31  5-MIN KDBQ 242220Z 23013KT 8SM CLR 33/20 A2993 1070 46  3400 230/13 RMK AO2
94908KDBQ DBQ20050624162509406/24/05 16:25:31  5-MIN KDBQ 242225Z 23014KT 8SM CLR 32/19 A2993 1070 46  3300 230/14 RMK AO2
94908KDBQ DBQ20050624163009406/24/05 16:30:31  5-MIN KDBQ 242230Z 23012KT 8SM CLR 32/20 A2993 1070 48  3300 230/12 RMK AO2
94908KDBQ DBQ20050624163509406/24/05 16:35:31  5-MIN KDBQ 242235Z 23015KT 8SM CLR 32/19 A2993 1070 44  3300 230/15 RMK AO2
94908KDBQ DBQ20050624164009406/24/05 16:40:31  5-MIN KDBQ 242240Z 23013KT 8SM CLR 32/19 A2993 1070 46  3300 230/13 RMK AO2
94908KDBQ DBQ20050624164509406/24/05 16:45:31  5-MIN KDBQ 242245Z 22012KT 8SM CLR 32/19 A2993 1070 46  3300 220/12 RMK AO2
94908KDBQ DBQ20050624165011106/24/05 16:50:31  5-MIN KDBQ 242250Z 22014KT 8SM CLR 32/19 A2993 1070 46  3300 220/14 RMK AO2 SLP125 T03220194
94908KDBQ DBQ20050624165511106/24/05 16:55:31  5-MIN KDBQ 242255Z 22013KT 8SM CLR 32/19 A2993 1070 46  3300 220/13 RMK AO2 SLP125 T03170189
94908KDBQ DBQ20050624170009706/24/05 17:00:31  5-MIN KDBQ 242300Z 23012KT 7SM FEW095 32/20 A2992 1070  48 3300 230/12 RMK AO2
94908KDBQ DBQ20050624170509706/24/05 17:05:31  5-MIN KDBQ 242305Z 22015KT 7SM FEW095 32/19 A2992 1080  46 3300 220/15 RMK AO2
94908KDBQ DBQ20050624171009706/24/05 17:10:31  5-MIN KDBQ 242310Z 23012KT 7SM FEW095 32/19 A2992 1080  47 3300 220/12 RMK AO2
94908KDBQ DBQ20050624171510306/24/05 17:15:31  5-MIN KDBQ 242315Z 23015G18KT 7SM SCT095 32/19 A2992  1080 47 3300 230/15G18 RMK AO2
94908KDBQ DBQ20050624172010306/24/05 17:20:31  5-MIN KDBQ 242320Z 22011G18KT 7SM SCT100 32/19 A2992  1080 47 3300 220/11G18 RMK AO2
94908KDBQ DBQ20050624172509706/24/05 17:25:31  5-MIN KDBQ 242325Z 22011KT 7SM FEW095 32/19 A2992 1080  47 3300 220/11 RMK AO2
94908KDBQ DBQ20050624173009706/24/05 17:30:31  5-MIN KDBQ 242330Z 22011KT 7SM FEW100 32/19 A2992 1070  47 3300 220/11 RMK AO2
94908KDBQ DBQ20050624173509706/24/05 17:35:31  5-MIN KDBQ 242335Z 22012KT 7SM FEW100 32/19 A2992 1080  47 3300 220/12 RMK AO2
94908KDBQ DBQ20050624174009706/24/05 17:40:31  5-MIN KDBQ 242340Z 22009KT 7SM FEW100 31/19 A2993 1070  49 3200 220/09 RMK AO2
94908KDBQ DBQ20050624174509406/24/05 17:45:31  5-MIN KDBQ 242345Z 22011KT 8SM CLR 31/19 A2993 1070 49  3200 220/11 RMK AO2
94908KDBQ DBQ20050624175012906/24/05 17:50:31  5-MIN KDBQ 242350Z 21008KT 7SM CLR 31/20 A2993 1070 51  3200 210/08 RMK AO2 SLP125 T03110200 10333 20311 55005
94908KDBQ DBQ20050624175512906/24/05 17:55:31  5-MIN KDBQ 242355Z 21009KT 7SM CLR 31/20 A2993 1070 51  3200 210/09 RMK AO2 SLP126 T03110200 10333 20311 55005
94908KDBQ DBQ20050624180009406/24/05 18:00:31  5-MIN KDBQ 250000Z 22008KT 7SM CLR 31/20 A2993 1070 51  3200 210/08 RMK AO2
94908KDBQ DBQ20050624180509406/24/05 18:05:31  5-MIN KDBQ 250005Z 22008KT 7SM CLR 31/20 A2993 1070 52  3100 220/08 RMK AO2
94908KDBQ DBQ20050624181009406/24/05 18:10:31  5-MIN KDBQ 250010Z 22008KT 7SM CLR 30/19 A2994 1060 52  3100 220/08 RMK AO2
94908KDBQ DBQ20050624181509706/24/05 18:15:31  5-MIN KDBQ 250015Z 23007KT 6SM HZ CLR 30/20 A2995 1050  54 3000 230/07 RMK AO2
94908KDBQ DBQ20050624182010406/24/05 18:20:31  5-MIN KDBQ 250020Z 23006KT 6SM HZ CLR 29/20 A2995 1050  56 3000 230/06 RMK AO2 PRESRR
94908KDBQ DBQ20050624182509706/24/05 18:25:31  5-MIN KDBQ 250025Z 23005KT 6SM HZ CLR 29/20 A2995 1050  56 3000 230/05 RMK AO2
94908KDBQ DBQ20050624183010706/24/05 18:30:31  5-MIN KDBQ 250030Z AUTO 23005KT 6SM HZ CLR 29/20 A2996  1040 58 2900 230/05 RMK AO2 TSNO
94908KDBQ DBQ20050624183510706/24/05 18:35:31  5-MIN KDBQ 250035Z AUTO 23005KT 6SM HZ CLR 29/20 A2996  1040 58 2900 220/05 RMK AO2 TSNO
94908KDBQ DBQ20050624184010706/24/05 18:40:31  5-MIN KDBQ 250040Z AUTO 24005KT 6SM HZ CLR 29/20 A2997  1030 58 2900 240/05 RMK AO2 TSNO
94908KDBQ DBQ20050624184510706/24/05 18:45:31  5-MIN KDBQ 250045Z AUTO 23004KT 6SM HZ CLR 28/20 A2997  1030 60 2800 230/04 RMK AO2 TSNO
94908KDBQ DBQ20050624185012706/24/05 18:50:31  5-MIN KDBQ 250050Z AUTO 25003KT 6SM HZ FEW100 28/20  A2998 1030 60 2800 250/03 RMK AO2 SLP143 T02830200 TSNO
94908KDBQ DBQ20050624185512706/24/05 18:55:31  5-MIN KDBQ 250055Z AUTO 00000KT 6SM HZ SCT100 29/20  A2997 1030 58 2900 000/00 RMK AO2 SLP141 T02890200 TSNO
94908KDBQ DBQ20050624190012306/24/05 19:00:31  5-MIN KDBQ 250100Z AUTO 35012G17KT 6SM HZ BKN100 28/20  A3000 1000 62 2700 350/12G17 RMK AO2 PRESRR TSNO
94908KDBQ DBQ20050624190512206/24/05 19:05:31  5-MIN KDBQ 250105Z AUTO 01018G25KT 6SM HZ FEW065 BKN100 27/20 A3000 1000 66 2600 010/18G25 RMK AO2 TSNO
94908KDBQ DBQ20050624191013806/24/05 19:10:31  5-MIN KDBQ 250110Z AUTO 01022G27KT 7SM SCT065 BKN100  26/19 A3000 1000 68 2500 010/22G27 RMK AO2 PK WND 02027/0110 TSNO
94908KDBQ DBQ20050624191515006/24/05 19:15:31  5-MIN KDBQ 250115Z AUTO 02016G27KT 8SM BKN065 OVC100  25/19 A3000 1010 71 2400 020/16G27 RMK AO2 PK WND 02027/0110 WSHFT 0100  TSNO
94908KDBQ DBQ20050624192015006/24/05 19:20:31  5-MIN KDBQ 250120Z AUTO 02013G22KT 9SM SCT070 BKN095  25/19 A2999 1010 71 2400 020/13G22 RMK AO2 PK WND 02027/0110 WSHFT 0100  TSNO
94908KDBQ DBQ20050624192514206/24/05 19:25:31  5-MIN KDBQ 250125Z AUTO 03012KT 9SM SCT065 BKN095 24/19 A2999 1010 73 2400 020/12 RMK AO2 PK WND 02027/0110 WSHFT 0100 TSNO
94908KDBQ DBQ20050624193014906/24/05 19:30:31  5-MIN KDBQ 250130Z AUTO 03013KT 9SM SCT065 BKN085 BKN120 24/19 A2999 1020 73 2400 030/13 RMK AO2 PK WND 02027/0110 WSHFT 0100 TSNO
94908KDBQ DBQ20050624193514906/24/05 19:35:31  5-MIN KDBQ 250135Z AUTO 02012KT 9SM FEW060 SCT075 BKN120 24/19 A2999 1020 73 2400 020/12 RMK AO2 PK WND 02027/0110 WSHFT 0100 TSNO
94908KDBQ DBQ20050624194014906/24/05 19:40:31  5-MIN KDBQ 250140Z AUTO 03012KT 9SM FEW060 SCT085 SCT110 24/19 A2999 1020 73 2400 030/12 RMK AO2 PK WND 02027/0110 WSHFT 0100 TSNO
94908KDBQ DBQ20050624194514306/24/05 19:45:31  5-MIN KDBQ 250145Z AUTO 03010KT 10SM FEW060 SCT110 24/19 A2999 1020 76 2300 030/10 RMK AO2 PK WND 02027/0110 WSHFT 0100 TSNO
94908KDBQ DBQ20050624195015406/24/05 19:50:31  5-MIN KDBQ 250150Z AUTO 04008KT 10SM FEW060 24/19 A2999 1020 76 2300 040/08 RMK AO2 PK WND 02027/0110 WSHFT 0100 SLP147 T02390194  TSNO
94908KDBQ DBQ20050624195515406/24/05 19:55:31  5-MIN KDBQ 250155Z AUTO 02008KT 10SM FEW060 24/19 A2999 1010 76 2300 020/08 RMK AO2 PK WND 02027/0110 WSHFT 0100 SLP148 T02390194  TSNO
94908KDBQ DBQ20050624200010706/24/05 20:00:31  5-MIN KDBQ 250200Z AUTO 05009KT 10SM FEW065 24/19 A2999 1020 76 2300 050/09 RMK AO2 TSNO
94908KDBQ DBQ20050624200510706/24/05 20:05:31  5-MIN KDBQ 250205Z AUTO 05009KT 10SM FEW065 24/19 A2998 1020 76 2300 050/09 RMK AO2 TSNO
94908KDBQ DBQ20050624201010706/24/05 20:10:31  5-MIN KDBQ 250210Z AUTO 05007KT 10SM FEW065 24/19 A2999 1020 76 2300 040/07 RMK AO2 TSNO
94908KDBQ DBQ20050624201510706/24/05 20:15:31  5-MIN KDBQ 250215Z AUTO 05010KT 10SM FEW065 24/19 A2999 1020 73 2300 050/10 RMK AO2 TSNO
94908KDBQ DBQ20050624202010706/24/05 20:20:31  5-MIN KDBQ 250220Z AUTO 04010KT 10SM FEW065 24/19 A2999 1010 73 2300 040/10 RMK AO2 TSNO
94908KDBQ DBQ20050624202510506/24/05 20:25:31  5-MIN KDBQ 250225Z AUTO 06009KT 10SM CLR 24/19 A2999  1010 73 2300 060/09 RMK AO2 TSNO
94908KDBQ DBQ20050624203010706/24/05 20:30:31  5-MIN KDBQ 250230Z AUTO 07006KT 10SM FEW060 24/19 A3000 1000 73 2300 070/06 RMK AO2 TSNO
94908KDBQ DBQ20050624203510706/24/05 20:35:31  5-MIN KDBQ 250235Z AUTO 05006KT 10SM FEW060 24/18 A3001 1000 71 2300 050/06 RMK AO2 TSNO
94908KDBQ DBQ20050624204010706/24/05 20:40:31  5-MIN KDBQ 250240Z AUTO 02008KT 10SM FEW055 23/18 A3001 1000 73 2200 020/08 RMK AO2 TSNO
94908KDBQ DBQ20050624204510706/24/05 20:45:31  5-MIN KDBQ 250245Z AUTO 03006KT 10SM SCT055 23/19 A3001 1000 76 2200 030/06 RMK AO2 TSNO
94908KDBQ DBQ20050624205013006/24/05 20:50:31  5-MIN KDBQ 250250Z AUTO 06007KT 10SM SCT060 23/19 A3000 1000 76 2200 060/07 RMK AO2 SLP153 T02330189 55005 TSNO
94908KDBQ DBQ20050624205513006/24/05 20:55:31  5-MIN KDBQ 250255Z AUTO 05006KT 10SM SCT060 23/19 A3000 1000 76 2200 050/06 RMK AO2 SLP152 T02330189 51024 TSNO
94908KDBQ DBQ20050624210010706/24/05 21:00:31  5-MIN KDBQ 250300Z AUTO 05005KT 10SM FEW055 23/19 A3000 1010 76 2200 050/05 RMK AO2 TSNO
94908KDBQ DBQ20050624210510706/24/05 21:05:31  5-MIN KDBQ 250305Z AUTO 05005KT 10SM FEW055 23/19 A3000 1010 78 2200 050/05 RMK AO2 TSNO
94908KDBQ DBQ20050624211010706/24/05 21:10:31  5-MIN KDBQ 250310Z AUTO 07006KT 10SM FEW060 23/19 A3000 1010 78 2200 070/06 RMK AO2 TSNO
94908KDBQ DBQ20050624211510506/24/05 21:15:31  5-MIN KDBQ 250315Z AUTO 08004KT 10SM CLR 23/19 A3000  1000 78 2200 080/04 RMK AO2 TSNO
94908KDBQ DBQ20050624212010306/24/05 21:20:31  5-MIN KDBQ 250320Z AUTO 36003KT 10SM CLR 23/19 A3001 990 78 2200 360/03 RMK AO2 TSNO
94908KDBQ DBQ20050624212510306/24/05 21:25:31  5-MIN KDBQ 250325Z AUTO 02006KT 10SM CLR 23/19 A3002 990 78 2200 020/06 RMK AO2 TSNO
94908KDBQ DBQ20050624213011306/24/05 21:30:31  5-MIN KDBQ 250330Z AUTO 36009KT 10SM FEW055 23/19 A3003 980 78 2100 360/09 RMK AO2 PRESRR TSNO
94908KDBQ DBQ20050624213511306/24/05 21:35:31  5-MIN KDBQ 250335Z AUTO 35012KT 10SM SCT055 23/19 A3003 970 78 2100 350/12 RMK AO2 PRESRR TSNO
94908KDBQ DBQ20050624214010606/24/05 21:40:31  5-MIN KDBQ 250340Z AUTO 01013KT 10SM BKN055 23/19 A3003 970 81 2100 010/13 RMK AO2 TSNO
94908KDBQ DBQ20050624214510606/24/05 21:45:31  5-MIN KDBQ 250345Z AUTO 02015KT 9SM BKN055 23/19 A3003  980 81 2100 020/15 RMK AO2 TSNO
94908KDBQ DBQ20050624215012306/24/05 21:50:31  5-MIN KDBQ 250350Z AUTO 03016KT 9SM BKN055 23/19 A3002  990 81 2200 030/16 RMK AO2 SLP156 T02280194 TSNO
94908KDBQ DBQ20050624215512306/24/05 21:55:31  5-MIN KDBQ 250355Z AUTO 04016KT 9SM BKN055 23/19 A3002  980 81 2200 040/16 RMK AO2 SLP158 T02280194 TSNO
94908KDBQ DBQ20050624220010606/24/05 22:00:31  5-MIN KDBQ 250400Z AUTO 03012KT 9SM SCT055 23/19 A3003  980 81 2100 030/12 RMK AO2 TSNO
94908KDBQ DBQ20050624220510606/24/05 22:05:31  5-MIN KDBQ 250405Z AUTO 04013KT 9SM SCT055 23/19 A3003  980 81 2100 030/13 RMK AO2 TSNO
94908KDBQ DBQ20050624221010606/24/05 22:10:31  5-MIN KDBQ 250410Z AUTO 04010KT 10SM BKN055 23/19 A3003 980 81 2100 040/10 RMK AO2 TSNO
94908KDBQ DBQ20050624221510606/24/05 22:15:31  5-MIN KDBQ 250415Z AUTO 04009KT 10SM BKN055 23/19 A3003 970 81 2100 040/09 RMK AO2 TSNO
94908KDBQ DBQ20050624222010606/24/05 22:20:31  5-MIN KDBQ 250420Z AUTO 05011KT 10SM BKN055 23/19 A3003 970 81 2100 050/11 RMK AO2 TSNO
94908KDBQ DBQ20050624222511306/24/05 22:25:31  5-MIN KDBQ 250425Z AUTO 05011KT 10SM SCT060 BKN070 23/19 A3003 980 81 2100 050/11 RMK AO2 TSNO
94908KDBQ DBQ20050624223011306/24/05 22:30:31  5-MIN KDBQ 250430Z AUTO 05011KT 10SM SCT055 BKN100 23/19 A3002 980 81 2200 050/11 RMK AO2 TSNO
94908KDBQ DBQ20050624223511306/24/05 22:35:31  5-MIN KDBQ 250435Z AUTO 05011KT 10SM SCT060 BKN100 23/19 A3002 980 81 2200 050/11 RMK AO2 TSNO
94908KDBQ DBQ20050624224011306/24/05 22:40:31  5-MIN KDBQ 250440Z AUTO 05014KT 10SM FEW060 SCT100 23/19 A3002 980 81 2200 040/14 RMK AO2 TSNO
94908KDBQ DBQ20050624224510606/24/05 22:45:31  5-MIN KDBQ 250445Z AUTO 05013KT 10SM FEW060 23/19 A3002 980 81 2200 050/13 RMK AO2 TSNO
94908KDBQ DBQ20050624225012306/24/05 22:50:31  5-MIN KDBQ 250450Z AUTO 04009KT 10SM FEW060 22/19 A3003 980 84 2100 040/09 RMK AO2 SLP159 T02220194 TSNO
94908KDBQ DBQ20050624225512306/24/05 22:55:31  5-MIN KDBQ 250455Z AUTO 04009KT 10SM FEW055 22/19 A3003 980 84 2100 040/09 RMK AO2 SLP160 T02220194 TSNO
94908KDBQ DBQ20050624230010606/24/05 23:00:31  5-MIN KDBQ 250500Z AUTO 04010KT 10SM SCT055 22/19 A3003 980 84 2100 040/10 RMK AO2 TSNO
94908KDBQ DBQ20050624230511306/24/05 23:05:31  5-MIN KDBQ 250505Z AUTO 04010KT 10SM SCT055 SCT100 22/19 A3003 970 84 2100 040/10 RMK AO2 TSNO
94908KDBQ DBQ20050624231011306/24/05 23:10:31  5-MIN KDBQ 250510Z AUTO 03012KT 10SM FEW055 SCT100 22/19 A3004 970 84 2100 030/12 RMK AO2 TSNO
94908KDBQ DBQ20050624231511306/24/05 23:15:31  5-MIN KDBQ 250515Z AUTO 03014KT 10SM SCT055 SCT100 22/19 A3004 970 84 2100 030/14 RMK AO2 TSNO
94908KDBQ DBQ20050624232011306/24/05 23:20:31  5-MIN KDBQ 250520Z AUTO 03011KT 10SM BKN055 BKN100 22/19 A3004 970 84 2100 030/11 RMK AO2 TSNO
94908KDBQ DBQ20050624232511306/24/05 23:25:31  5-MIN KDBQ 250525Z AUTO 03015KT 10SM BKN055 BKN100 22/19 A3005 960 84 2100 030/15 RMK AO2 TSNO
94908KDBQ DBQ20050624233011306/24/05 23:30:31  5-MIN KDBQ 250530Z AUTO 04014KT 10SM BKN055 BKN100 22/19 A3005 960 84 2100 040/14 RMK AO2 TSNO
94908KDBQ DBQ20050624233510606/24/05 23:35:31  5-MIN KDBQ 250535Z AUTO 05014KT 10SM BKN055 22/19 A3005 960 84 2100 050/14 RMK AO2 TSNO
94908KDBQ DBQ20050624234010606/24/05 23:40:31  5-MIN KDBQ 250540Z AUTO 05015KT 10SM BKN055 22/19 A3004 960 84 2100 050/15 RMK AO2 TSNO
94908KDBQ DBQ20050624234510606/24/05 23:45:31  5-MIN KDBQ 250545Z AUTO 06013KT 10SM OVC060 22/19 A3004 960 84 2100 060/13 RMK AO2 TSNO
94908KDBQ DBQ20050624235015206/24/05 23:50:31  5-MIN KDBQ 250550Z AUTO 05013KT 10SM OVC060 22/19 A3005 960 84 2100 050/13 RMK AO2 SLP166 T02220194 10311 20222 403330206 51024  TSNO
94908KDBQ DBQ20050624235515206/24/05 23:55:31  5-MIN KDBQ 250555Z AUTO 06013KT 10SM BKN060 22/19 A3004 970 84 2100 060/13 RMK AO2 SLP163 T02220194 10311 20222 403330206 51012  TSNO
94908KDBQ DBQ20050625000010606/25/05 00:00:38  5-MIN KDBQ 250600Z AUTO 07013KT 10SM BKN060 22/19 A3003 980 84 2100 060/13 RMK AO2 TSNO
94908KDBQ DBQ20050625000510606/25/05 00:05:31  5-MIN KDBQ 250605Z AUTO 07014KT 10SM SCT060 22/19 A3003 980 81 2100 070/14 RMK AO2 TSNO
94908KDBQ DBQ20050625001010606/25/05 00:10:31  5-MIN KDBQ 250610Z AUTO 07011KT 10SM FEW060 22/19 A3003 980 81 2100 070/11 RMK AO2 TSNO
94908KDBQ DBQ20050625001510606/25/05 00:15:31  5-MIN KDBQ 250615Z AUTO 07011KT 10SM FEW060 22/19 A3003 970 81 2100 060/11 RMK AO2 TSNO
94908KDBQ DBQ20050625002010306/25/05 00:20:31  5-MIN KDBQ 250620Z AUTO 07010KT 10SM CLR 22/19 A3003 980 81 2100 070/10 RMK AO2 TSNO
94908KDBQ DBQ20050625002510606/25/05 00:25:31  5-MIN KDBQ 250625Z AUTO 08010KT 10SM FEW060 22/19 A3004 970 81 2100 080/10 RMK AO2 TSNO
94908KDBQ DBQ20050625003010606/25/05 00:30:31  5-MIN KDBQ 250630Z AUTO 08012KT 10SM FEW060 22/19 A3003 980 81 2100 080/12 RMK AO2 TSNO
94908KDBQ DBQ20050625003510306/25/05 00:35:31  5-MIN KDBQ 250635Z AUTO 10009KT 10SM CLR 22/19 A3003 980 81 2100 090/09 RMK AO2 TSNO
94908KDBQ DBQ20050625004010306/25/05 00:40:31  5-MIN KDBQ 250640Z AUTO 09010KT 10SM CLR 22/19 A3003 980 81 2100 090/10 RMK AO2 TSNO
94908KDBQ DBQ20050625004510306/25/05 00:45:31  5-MIN KDBQ 250645Z AUTO 08010KT 10SM CLR 22/19 A3003 980 81 2100 080/10 RMK AO2 TSNO
94908KDBQ DBQ20050625005012006/25/05 00:50:31  5-MIN KDBQ 250650Z AUTO 07008KT 10SM CLR 22/19 A3003 980 84 2000 060/08 RMK AO2 SLP160 T02170189 TSNO
94908KDBQ DBQ20050625005512006/25/05 00:55:31  5-MIN KDBQ 250655Z AUTO 07009KT 10SM CLR 22/19 A3003 980 84 2000 070/09 RMK AO2 SLP160 T02170189 TSNO
94908KDBQ DBQ20050625010010306/25/05 01:00:31  5-MIN KDBQ 250700Z AUTO 07008KT 10SM CLR 22/19 A3003 980 81 2100 070/08 RMK AO2 TSNO
94908KDBQ DBQ20050625010510606/25/05 01:05:31  5-MIN KDBQ 250705Z AUTO 07007KT 10SM FEW065 22/19 A3003 980 84 2000 070/07 RMK AO2 TSNO
94908KDBQ DBQ20050625011010606/25/05 01:10:31  5-MIN KDBQ 250710Z AUTO 05007KT 10SM SCT060 22/19 A3003 980 84 2000 050/07 RMK AO2 TSNO
94908KDBQ DBQ20050625011510606/25/05 01:15:31  5-MIN KDBQ 250715Z AUTO 06007KT 10SM BKN060 22/19 A3003 980 81 2100 060/07 RMK AO2 TSNO
94908KDBQ DBQ20050625012010606/25/05 01:20:31  5-MIN KDBQ 250720Z AUTO 05006KT 10SM BKN060 22/19 A3003 980 84 2000 050/06 RMK AO2 TSNO
94908KDBQ DBQ20050625012510606/25/05 01:25:31  5-MIN KDBQ 250725Z AUTO 07006KT 10SM BKN060 22/19 A3003 980 84 2000 070/06 RMK AO2 TSNO
94908KDBQ DBQ20050625013011306/25/05 01:30:31  5-MIN KDBQ 250730Z AUTO 05005KT 10SM BKN065 BKN095 22/19 A3003 980 84 2000 050/05 RMK AO2 TSNO
94908KDBQ DBQ20050625013512106/25/05 01:35:31  5-MIN KDBQ 250735Z AUTO 05004KT 10SM SCT060 BKN075  BKN100 22/19 A3003 980 84 2000 050/04 RMK AO2 TSNO
94908KDBQ DBQ20050625014012106/25/05 01:40:31  5-MIN KDBQ 250740Z AUTO 07004KT 10SM FEW060 SCT075  BKN110 22/19 A3003 980 84 2000 060/04 RMK AO2 TSNO
94908KDBQ DBQ20050625014512106/25/05 01:45:31  5-MIN KDBQ 250745Z AUTO 09004KT 10SM FEW060 SCT100  BKN120 22/19 A3003 980 84 2000 090/04 RMK AO2 TSNO
94908KDBQ DBQ20050625015013006/25/05 01:50:31  5-MIN KDBQ 250750Z AUTO 10004KT 10SM FEW070 SCT120 22/19 A3003 980 84 2000 100/04 RMK AO2 SLP159 T02170189 TSNO
94908KDBQ DBQ20050625015513006/25/05 01:55:31  5-MIN KDBQ 250755Z AUTO 10004KT 10SM FEW070 SCT120 22/19 A3002 980 84 2000 100/04 RMK AO2 SLP158 T02170189 TSNO
94908KDBQ DBQ20050625020011306/25/05 02:00:31  5-MIN KDBQ 250800Z AUTO 10004KT 10SM FEW070 SCT110 22/19 A3002 990 84 2000 100/04 RMK AO2 TSNO
94908KDBQ DBQ20050625020510606/25/05 02:05:31  5-MIN KDBQ 250805Z AUTO 11005KT 10SM FEW070 22/19 A3001 990 84 2000 110/05 RMK AO2 TSNO
94908KDBQ DBQ20050625021010306/25/05 02:10:31  5-MIN KDBQ 250810Z AUTO 09006KT 10SM CLR 22/19 A3001 990 84 2000 090/06 RMK AO2 TSNO
94908KDBQ DBQ20050625021510606/25/05 02:15:31  5-MIN KDBQ 250815Z AUTO 10006KT 10SM FEW070 22/19 A3002 990 84 2000 100/06 RMK AO2 TSNO
94908KDBQ DBQ20050625022010306/25/05 02:20:31  5-MIN KDBQ 250820Z AUTO 08005KT 10SM CLR 22/19 A3002 990 84 2000 080/05 RMK AO2 TSNO
94908KDBQ DBQ20050625022510306/25/05 02:25:31  5-MIN KDBQ 250825Z AUTO 00000KT 10SM CLR 22/19 A3002 980 84 2000 000/00 RMK AO2 TSNO
94908KDBQ DBQ20050625023012006/25/05 02:30:31  5-MIN KDBQ 250830Z AUTO 32010G14KT 10SM FEW065 22/19  A3004 970 84 2000 320/10G14 RMK AO2 PRESRR TSNO
94908KDBQ DBQ20050625023512006/25/05 02:35:31  5-MIN KDBQ 250835Z AUTO 32014G19KT 10SM FEW018 SCT060  22/19 A3004 960 84 2000 320/14G19 RMK AO2 TSNO
94908KDBQ DBQ20050625024012006/25/05 02:40:31  5-MIN KDBQ 250840Z AUTO 34009G19KT 10SM FEW018 SCT065  22/19 A3004 970 84 2000 340/09G19 RMK AO2 TSNO
94908KDBQ DBQ20050625024511306/25/05 02:45:31  5-MIN KDBQ 250845Z AUTO 33014KT 10SM FEW048 BKN065 22/19 A3005 960 81 2100 330/14 RMK AO2 TSNO
94908KDBQ DBQ20050625025014406/25/05 02:50:31  5-MIN KDBQ 250850Z AUTO 35007KT 10SM SCT048 BKN065  BKN100 22/19 A3004 970 81 2100 350/07 RMK AO2 SLP164 T02220189 51012 TSNO
94908KDBQ DBQ20050625025514206/25/05 02:55:31  5-MIN KDBQ 250855Z AUTO 02005KT 9SM FEW048 SCT060 BKN075 22/19 A3004 970 87 2000 020/05 RMK AO2 SLP163 T02170194 55000 TSNO
94908KDBQ DBQ20050625030011206/25/05 03:00:31  5-MIN KDBQ 250900Z AUTO 35004KT 8SM FEW048 SCT065 22/19 A3004 970 87 2000 350/04 RMK AO2 TSNO
94908KDBQ DBQ20050625030510606/25/05 03:05:31  5-MIN KDBQ 250905Z AUTO 01004KT 8SM FEW048 22/19 A3004  970 87 2000 010/04 RMK AO2 TSNO
94908KDBQ DBQ20050625031010606/25/05 03:10:31  5-MIN KDBQ 250910Z AUTO 36004KT 8SM FEW048 22/19 A3004  970 87 2000 360/04 RMK AO2 TSNO
94908KDBQ DBQ20050625031510606/25/05 03:15:31  5-MIN KDBQ 250915Z AUTO 35004KT 8SM FEW048 21/19 A3004  970 90 1900 340/04 RMK AO2 TSNO
94908KDBQ DBQ20050625032010606/25/05 03:20:31  5-MIN KDBQ 250920Z AUTO 33003KT 8SM FEW060 21/19 A3004  960 90 1900 330/03 RMK AO2 TSNO
94908KDBQ DBQ20050625032510606/25/05 03:25:31  5-MIN KDBQ 250925Z AUTO 31003KT 7SM FEW050 21/19 A3005  960 90 1900 310/03 RMK AO2 TSNO
94908KDBQ DBQ20050625033011206/25/05 03:30:31  5-MIN KDBQ 250930Z AUTO 28003KT 7SM SCT046 SCT065 21/19 A3005 960 90 1900 280/03 RMK AO2 TSNO
94908KDBQ DBQ20050625033511206/25/05 03:35:31  5-MIN KDBQ 250935Z AUTO 27007KT 7SM BKN046 BKN060 21/19 A3006 950 90 1900 270/07 RMK AO2 TSNO
94908KDBQ DBQ20050625034011206/25/05 03:40:31  5-MIN KDBQ 250940Z AUTO 26008KT 7SM BKN044 BKN060 22/19 A3006 950 87 2000 260/08 RMK AO2 TSNO
94908KDBQ DBQ20050625034510606/25/05 03:45:31  5-MIN KDBQ 250945Z AUTO 26008KT 8SM BKN044 22/19 A3006  950 87 2000 260/08 RMK AO2 TSNO
94908KDBQ DBQ20050625035012306/25/05 03:50:31  5-MIN KDBQ 250950Z AUTO 27013KT 9SM OVC044 22/18 A3006  950 81 2000 270/13 RMK AO2 SLP171 T02170183 TSNO
94908KDBQ DBQ20050625035512306/25/05 03:55:31  5-MIN KDBQ 250955Z AUTO 29010KT 10SM OVC044 22/17 A3005 960 75 2000 280/10 RMK AO2 SLP168 T02170172 TSNO
94908KDBQ DBQ20050625040010606/25/05 04:00:31  5-MIN KDBQ 251000Z AUTO 28008KT 10SM OVC044 22/17 A3005 960 75 2000 280/08 RMK AO2 TSNO
94908KDBQ DBQ20050625040511306/25/05 04:05:31  5-MIN KDBQ 251005Z AUTO 29006KT 10SM BKN044 OVC055 22/17 A3004 960 75 2000 290/06 RMK AO2 TSNO
94908KDBQ DBQ20050625041011306/25/05 04:10:31  5-MIN KDBQ 251010Z AUTO 00000KT 10SM BKN046 OVC055 22/17 A3004 970 75 2000 000/00 RMK AO2 TSNO
94908KDBQ DBQ20050625041512006/25/05 04:15:31  5-MIN KDBQ 251015Z AUTO 13004KT 10SM BKN046 BKN055 22/17 A3003 980 75 2000 130/04 RMK AO2 PRESFR TSNO
94908KDBQ DBQ20050625042011306/25/05 04:20:31  5-MIN KDBQ 251020Z AUTO 14003KT 10SM SCT046 BKN055 22/17 A3003 980 75 2000 140/03 RMK AO2 TSNO
94908KDBQ DBQ20050625042511306/25/05 04:25:31  5-MIN KDBQ 251025Z AUTO 15003KT 10SM SCT046 SCT055 21/18 A3003 980 81 2000 150/03 RMK AO2 TSNO
94908KDBQ DBQ20050625043010606/25/05 04:30:31  5-MIN KDBQ 251030Z AUTO 00000KT 10SM FEW049 21/18 A3003 980 81 2000 000/00 RMK AO2 TSNO
94908KDBQ DBQ20050625043510606/25/05 04:35:31  5-MIN KDBQ 251035Z AUTO 21003KT 10SM FEW047 21/18 A3003 980 84 1900 210/03 RMK AO2 TSNO
94908KDBQ DBQ20050625044010306/25/05 04:40:31  5-MIN KDBQ 251040Z AUTO 17005KT 10SM CLR 21/18 A3003 980 84 1900 170/05 RMK AO2 TSNO
94908KDBQ DBQ20050625044510306/25/05 04:45:31  5-MIN KDBQ 251045Z AUTO 16005KT 10SM CLR 21/18 A3003 980 84 1900 160/05 RMK AO2 TSNO
94908KDBQ DBQ20050625045012006/25/05 04:50:31  5-MIN KDBQ 251050Z AUTO 17004KT 10SM CLR 21/18 A3003 970 84 1900 170/04 RMK AO2 SLP161 T02060178 TSNO
94908KDBQ DBQ20050625045512006/25/05 04:55:31  5-MIN KDBQ 251055Z AUTO 18003KT 10SM CLR 21/18 A3004 970 84 1900 180/03 RMK AO2 SLP163 T02060178 TSNO
94908KDBQ DBQ20050625050009406/25/05 05:00:31  5-MIN KDBQ 251100Z 00000KT 10SM CLR 21/18 A3004 970 84  1900 000/00 RMK AO2
94908KDBQ DBQ20050625050509406/25/05 05:05:31  5-MIN KDBQ 251105Z 00000KT 10SM CLR 20/18 A3004 970 87  1800 000/00 RMK AO2
94908KDBQ DBQ20050625051009306/25/05 05:10:31  5-MIN KDBQ 251110Z 25003KT 9SM CLR 21/18 A3004 970 84  1900 250/03 RMK AO2
94908KDBQ DBQ20050625051509306/25/05 05:15:31  5-MIN KDBQ 251115Z 00000KT 9SM CLR 21/18 A3004 970 87  1900 000/00 RMK AO2
94908KDBQ DBQ20050625052009406/25/05 05:20:31  5-MIN KDBQ 251120Z 23003KT 10SM CLR 21/18 A3005 960 87  1900 230/03 RMK AO2
94908KDBQ DBQ20050625052509406/25/05 05:25:31  5-MIN KDBQ 251125Z 00000KT 10SM CLR 21/18 A3005 960 87  1900 000/00 RMK AO2
94908KDBQ DBQ20050625053009406/25/05 05:30:31  5-MIN KDBQ 251130Z 00000KT 10SM CLR 21/18 A3005 960 87  1900 000/00 RMK AO2
94908KDBQ DBQ20050625053509406/25/05 05:35:31  5-MIN KDBQ 251135Z 00000KT 10SM CLR 21/18 A3004 960 84  1900 000/00 RMK AO2
94908KDBQ DBQ20050625054009406/25/05 05:40:31  5-MIN KDBQ 251140Z 26004KT 10SM CLR 21/18 A3005 960 84  1900 260/04 RMK AO2
94908KDBQ DBQ20050625054509406/25/05 05:45:31  5-MIN KDBQ 251145Z 00000KT 10SM CLR 21/18 A3004 970 84  1900 000/00 RMK AO2
94908KDBQ DBQ20050625055012906/25/05 05:50:31  5-MIN KDBQ 251150Z 00000KT 10SM CLR 21/18 A3004 960 84  1900 000/00 RMK AO2 SLP165 T02110183 10222 20200 55000
94908KDBQ DBQ20050625055512906/25/05 05:55:31  5-MIN KDBQ 251155Z 00000KT 10SM CLR 21/18 A3004 960 84  1900 000/00 RMK AO2 SLP165 T02110183 10222 20200 51002
94908KDBQ DBQ20050625060009406/25/05 06:00:31  5-MIN KDBQ 251200Z 22003KT 10SM CLR 21/18 A3005 960 84  1900 220/03 RMK AO2
94908KDBQ DBQ20050625060509706/25/05 06:05:31  5-MIN KDBQ 251205Z 00000KT 10SM FEW080 21/18 A3005 960  84 1900 000/00 RMK AO2
94908KDBQ DBQ20050625061009706/25/05 06:10:31  5-MIN KDBQ 251210Z 00000KT 10SM FEW080 21/19 A3005 960  87 1900 000/00 RMK AO2
94908KDBQ DBQ20050625061509706/25/05 06:15:31  5-MIN KDBQ 251215Z 00000KT 10SM FEW080 21/18 A3005 960  84 1900 000/00 RMK AO2
94908KDBQ DBQ20050625062009706/25/05 06:20:31  5-MIN KDBQ 251220Z 00000KT 10SM FEW080 21/18 A3005 960  84 1900 000/00 RMK AO2
94908KDBQ DBQ20050625062509706/25/05 06:25:31  5-MIN KDBQ 251225Z 00000KT 10SM FEW080 22/19 A3006 950  84 2000 000/00 RMK AO2
94908KDBQ DBQ20050625063009706/25/05 06:30:31  5-MIN KDBQ 251230Z 00000KT 10SM FEW080 22/18 A3006 950  81 2000 000/00 RMK AO2
94908KDBQ DBQ20050625063509406/25/05 06:35:31  5-MIN KDBQ 251235Z 00000KT 10SM CLR 22/18 A3006 950 81  2000 000/00 RMK AO2
94908KDBQ DBQ20050625064009406/25/05 06:40:31  5-MIN KDBQ 251240Z 00000KT 10SM CLR 22/18 A3006 950 78  2000 000/00 RMK AO2
94908KDBQ DBQ20050625064509406/25/05 06:45:31  5-MIN KDBQ 251245Z 05003KT 10SM CLR 22/18 A3006 950 78  2000 050/03 RMK AO2
94908KDBQ DBQ20050625065011106/25/05 06:50:31  5-MIN KDBQ 251250Z 04005KT 10SM CLR 23/18 A3006 950 76  2100 040/05 RMK AO2 SLP173 T02280183
94908KDBQ DBQ20050625065511106/25/05 06:55:31  5-MIN KDBQ 251255Z 02004KT 10SM CLR 23/18 A3007 940 76  2100 020/04 RMK AO2 SLP173 T02280183
94908KDBQ DBQ20050625070009406/25/05 07:00:31  5-MIN KDBQ 251300Z 02007KT 10SM CLR 23/18 A3007 940 73  2100 020/07 RMK AO2
94908KDBQ DBQ20050625070509406/25/05 07:05:31  5-MIN KDBQ 251305Z 01007KT 10SM CLR 23/18 A3007 940 76  2100 010/07 RMK AO2
94908KDBQ DBQ20050625071009406/25/05 07:10:31  5-MIN KDBQ 251310Z 01007KT 10SM CLR 23/18 A3007 940 73  2100 360/07 RMK AO2
94908KDBQ DBQ20050625071509406/25/05 07:15:31  5-MIN KDBQ 251315Z 02007KT 10SM CLR 23/18 A3007 940 73  2200 020/07 RMK AO2
94908KDBQ DBQ20050625072009406/25/05 07:20:31  5-MIN KDBQ 251320Z 02007KT 10SM CLR 23/18 A3007 940 76  2100 020/07 RMK AO2
94908KDBQ DBQ20050625072509406/25/05 07:25:31  5-MIN KDBQ 251325Z 04008KT 10SM CLR 23/19 A3007 940 76  2200 040/08 RMK AO2
94908KDBQ DBQ20050625073009406/25/05 07:30:31  5-MIN KDBQ 251330Z 03008KT 10SM CLR 23/19 A3008 930 76  2200 030/08 RMK AO2
94908KDBQ DBQ20050625073509406/25/05 07:35:31  5-MIN KDBQ 251335Z 03010KT 10SM CLR 23/19 A3008 930 76  2100 030/10 RMK AO2
94908KDBQ DBQ20050625074009406/25/05 07:40:31  5-MIN KDBQ 251340Z 03008KT 10SM CLR 23/19 A3008 930 76  2100 030/08 RMK AO2
94908KDBQ DBQ20050625074509406/25/05 07:45:31  5-MIN KDBQ 251345Z 01010KT 10SM CLR 23/19 A3009 920 76  2100 010/10 RMK AO2
94908KDBQ DBQ20050625075011406/25/05 07:50:31  5-MIN KDBQ 251350Z 02009KT 10SM FEW100 23/19 A3009 920  76 2100 020/09 RMK AO2 SLP183 T02330189
94908KDBQ DBQ20050625075511406/25/05 07:55:31  5-MIN KDBQ 251355Z 02009KT 10SM FEW100 23/19 A3009 920  78 2100 020/09 RMK AO2 SLP183 T02330194
94908KDBQ DBQ20050625080009406/25/05 08:00:31  5-MIN KDBQ 251400Z 02009KT 10SM CLR 23/19 A3009 920 78  2100 020/09 RMK AO2
94908KDBQ DBQ20050625080509406/25/05 08:05:31  5-MIN KDBQ 251405Z 03010KT 10SM CLR 23/19 A3009 920 78  2100 030/10 RMK AO2
94908KDBQ DBQ20050625081009706/25/05 08:10:31  5-MIN KDBQ 251410Z 03008KT 10SM FEW100 23/19 A3009 920  81 2100 030/08 RMK AO2
94908KDBQ DBQ20050625081509706/25/05 08:15:31  5-MIN KDBQ 251415Z 03010KT 10SM FEW100 23/19 A3009 920  78 2100 030/10 RMK AO2
94908KDBQ DBQ20050625082009406/25/05 08:20:31  5-MIN KDBQ 251420Z 04011KT 10SM CLR 23/19 A3009 920 81  2100 040/11 RMK AO2
94908KDBQ DBQ20050625082509406/25/05 08:25:31  5-MIN KDBQ 251425Z 04011KT 10SM CLR 23/19 A3009 920 78  2100 040/11 RMK AO2
94908KDBQ DBQ20050625083009406/25/05 08:30:31  5-MIN KDBQ 251430Z 05009KT 10SM CLR 23/19 A3010 920 81  2100 050/09 RMK AO2
94908KDBQ DBQ20050625083509406/25/05 08:35:31  5-MIN KDBQ 251435Z 04010KT 10SM CLR 23/19 A3010 910 78  2100 040/10 RMK AO2
94908KDBQ DBQ20050625084009406/25/05 08:40:31  5-MIN KDBQ 251440Z 03010KT 10SM CLR 23/19 A3010 910 78  2100 030/10 RMK AO2
94908KDBQ DBQ20050625084509406/25/05 08:45:31  5-MIN KDBQ 251445Z 04009KT 10SM CLR 23/19 A3010 910 78  2100 040/09 RMK AO2
94908KDBQ DBQ20050625085011706/25/05 08:50:31  5-MIN KDBQ 251450Z 04010KT 10SM CLR 23/19 A3010 910 81  2100 030/10 RMK AO2 SLP187 T02280194 51002
94908KDBQ DBQ20050625085511706/25/05 08:55:31  5-MIN KDBQ 251455Z 03009KT 10SM CLR 23/19 A3010 910 78  2100 030/09 RMK AO2 SLP187 T02330194 51019
94908KDBQ DBQ20050625090009406/25/05 09:00:31  5-MIN KDBQ 251500Z 04010KT 10SM CLR 23/19 A3011 910 78  2100 030/10 RMK AO2
94908KDBQ DBQ20050625090509406/25/05 09:05:31  5-MIN KDBQ 251505Z 04008KT 10SM CLR 23/19 A3011 910 81  2100 040/08 RMK AO2
94908KDBQ DBQ20050625091009406/25/05 09:10:31  5-MIN KDBQ 251510Z 05009KT 10SM CLR 23/19 A3010 910 78  2100 050/09 RMK AO2
94908KDBQ DBQ20050625091509406/25/05 09:15:31  5-MIN KDBQ 251515Z 04008KT 10SM CLR 23/19 A3011 900 78  2100 030/08 RMK AO2
94908KDBQ DBQ20050625092009406/25/05 09:20:31  5-MIN KDBQ 251520Z 04006KT 10SM CLR 23/19 A3011 900 78  2100 040/06 RMK AO2
94908KDBQ DBQ20050625092509406/25/05 09:25:31  5-MIN KDBQ 251525Z 04005KT 10SM CLR 24/19 A3011 900 76  2200 040/05 RMK AO2
94908KDBQ DBQ20050625093009406/25/05 09:30:31  5-MIN KDBQ 251530Z 06007KT 10SM CLR 24/19 A3010 910 76  2200 060/07 RMK AO2
94908KDBQ DBQ20050625093509406/25/05 09:35:31  5-MIN KDBQ 251535Z 03006KT 10SM CLR 24/19 A3010 910 76  2200 030/06 RMK AO2
94908KDBQ DBQ20050625094009406/25/05 09:40:31  5-MIN KDBQ 251540Z 05007KT 10SM CLR 24/19 A3010 910 76  2200 040/07 RMK AO2
94908KDBQ DBQ20050625094509406/25/05 09:45:31  5-MIN KDBQ 251545Z 03008KT 10SM CLR 24/19 A3010 910 76  2200 030/08 RMK AO2
94908KDBQ DBQ20050625095011106/25/05 09:50:31  5-MIN KDBQ 251550Z 04006KT 10SM CLR 24/19 A3010 910 76  2200 040/06 RMK AO2 SLP186 T02390194
94908KDBQ DBQ20050625095511106/25/05 09:55:31  5-MIN KDBQ 251555Z 04007KT 10SM CLR 24/19 A3010 910 76  2200 040/07 RMK AO2 SLP186 T02390194
94908KDBQ DBQ20050625100009406/25/05 10:00:31  5-MIN KDBQ 251600Z 05007KT 10SM CLR 24/19 A3010 910 73  2200 040/07 RMK AO2
94908KDBQ DBQ20050625100509406/25/05 10:05:31  5-MIN KDBQ 251605Z 05007KT 10SM CLR 23/19 A3010 920 76  2100 050/07 RMK AO2
94908KDBQ DBQ20050625101009406/25/05 10:10:31  5-MIN KDBQ 251610Z 06007KT 10SM CLR 24/19 A3009 920 73  2200 060/07 RMK AO2
94908KDBQ DBQ20050625101509406/25/05 10:15:31  5-MIN KDBQ 251615Z 04007KT 10SM CLR 24/19 A3010 920 76  2200 040/07 RMK AO2
94908KDBQ DBQ20050625102009406/25/05 10:20:31  5-MIN KDBQ 251620Z 02006KT 10SM CLR 24/19 A3010 910 73  2300 020/06 RMK AO2
94908KDBQ DBQ20050625102509406/25/05 10:25:31  5-MIN KDBQ 251625Z 02006KT 10SM CLR 24/19 A3010 910 73  2300 020/06 RMK AO2
94908KDBQ DBQ20050625103009406/25/05 10:30:31  5-MIN KDBQ 251630Z 04006KT 10SM CLR 24/19 A3010 920 73  2300 030/06 RMK AO2
94908KDBQ DBQ20050625103509406/25/05 10:35:31  5-MIN KDBQ 251635Z 07006KT 10SM CLR 24/19 A3009 920 76  2200 070/06 RMK AO2
94908KDBQ DBQ20050625104009406/25/05 10:40:31  5-MIN KDBQ 251640Z 07008KT 10SM CLR 24/19 A3008 930 73  2300 070/08 RMK AO2
94908KDBQ DBQ20050625104509406/25/05 10:45:31  5-MIN KDBQ 251645Z 09007KT 10SM CLR 24/19 A3008 930 73  2300 090/07 RMK AO2
94908KDBQ DBQ20050625105011106/25/05 10:50:31  5-MIN KDBQ 251650Z 07007KT 10SM CLR 24/19 A3008 930 76  2200 060/07 RMK AO2 SLP180 T02390194
94908KDBQ DBQ20050625105511106/25/05 10:55:31  5-MIN KDBQ 251655Z 08007KT 10SM CLR 24/19 A3008 930 73  2300 080/07 RMK AO2 SLP180 T02440194
94908KDBQ DBQ20050625110009406/25/05 11:00:31  5-MIN KDBQ 251700Z 10006KT 10SM CLR 24/19 A3007 940 73  2300 090/06 RMK AO2
94908KDBQ DBQ20050625110509406/25/05 11:05:31  5-MIN KDBQ 251705Z 10007KT 10SM CLR 24/19 A3007 940 73  2300 090/07 RMK AO2
94908KDBQ DBQ20050625111009406/25/05 11:10:31  5-MIN KDBQ 251710Z 10006KT 10SM CLR 25/19 A3008 930 71  2300 100/06 RMK AO2
94908KDBQ DBQ20050625111509406/25/05 11:15:31  5-MIN KDBQ 251715Z 11007KT 10SM CLR 25/19 A3007 940 68  2400 110/07 RMK AO2
94908KDBQ DBQ20050625112009406/25/05 11:20:31  5-MIN KDBQ 251720Z 11008KT 10SM CLR 25/19 A3007 940 71  2400 110/08 RMK AO2
94908KDBQ DBQ20050625112509406/25/05 11:25:31  5-MIN KDBQ 251725Z 10008KT 10SM CLR 25/19 A3007 940 68  2400 100/08 RMK AO2
94908KDBQ DBQ20050625113009406/25/05 11:30:31  5-MIN KDBQ 251730Z 10007KT 10SM CLR 26/19 A3007 940 66  2400 100/07 RMK AO2
94908KDBQ DBQ20050625113509406/25/05 11:35:31  5-MIN KDBQ 251735Z 10008KT 10SM CLR 26/19 A3007 940 68  2400 100/08 RMK AO2
94908KDBQ DBQ20050625114009406/25/05 11:40:31  5-MIN KDBQ 251740Z 09005KT 10SM CLR 26/19 A3008 930 68  2400 090/05 RMK AO2
94908KDBQ DBQ20050625114509406/25/05 11:45:31  5-MIN KDBQ 251745Z 07005KT 10SM CLR 26/19 A3008 930 68  2400 070/05 RMK AO2
94908KDBQ DBQ20050625115013206/25/05 11:50:31  5-MIN KDBQ 251750Z 07005KT 10SM FEW023 26/20 A3008 930  71 2400 070/05 RMK AO2 SLP180 T02560200 10256 20211 51019
94908KDBQ DBQ20050625115513206/25/05 11:55:31  5-MIN KDBQ 251755Z 08004KT 10SM FEW023 26/20 A3008 930  71 2400 080/04 RMK AO2 SLP179 T02560200 10256 20211 56008
94908KDBQ DBQ20050625120009406/25/05 12:00:31  5-MIN KDBQ 251800Z 06003KT 10SM CLR 26/19 A3008 930 68  2400 060/03 RMK AO2
94908KDBQ DBQ20050625120509406/25/05 12:05:31  5-MIN KDBQ 251805Z 08005KT 10SM CLR 26/19 A3008 930 68  2400 080/05 RMK AO2
94908KDBQ DBQ20050625121009406/25/05 12:10:31  5-MIN KDBQ 251810Z 07006KT 10SM CLR 26/20 A3007 940 71  2400 070/06 RMK AO2
94908KDBQ DBQ20050625121509406/25/05 12:15:31  5-MIN KDBQ 251815Z 07007KT 10SM CLR 26/20 A3007 940 68  2500 070/07 RMK AO2
94908KDBQ DBQ20050625122009406/25/05 12:20:31  5-MIN KDBQ 251820Z 09006KT 10SM CLR 26/20 A3006 950 68  2500 080/06 RMK AO2
94908KDBQ DBQ20050625122509306/25/05 12:25:31  5-MIN KDBQ 251825Z 10006KT 9SM CLR 26/20 A3006 950 68  2500 100/06 RMK AO2
94908KDBQ DBQ20050625123009306/25/05 12:30:31  5-MIN KDBQ 251830Z 13006KT 9SM CLR 27/21 A3006 950 69  2500 130/06 RMK AO2
94908KDBQ DBQ20050625123509506/25/05 12:35:31  5-MIN KDBQ 251835Z 09006KT 9SM FEW023 26/20 A3006 950 68 2500 090/06 RMK AO2
94908KDBQ DBQ20050625124009506/25/05 12:40:31  5-MIN KDBQ 251840Z 11007KT 8SM FEW023 27/21 A3006 950 69 2500 110/07 RMK AO2
94908KDBQ DBQ20050625124509506/25/05 12:45:31  5-MIN KDBQ 251845Z 10006KT 8SM FEW023 27/20 A3006 950 66 2600 100/06 RMK AO2
94908KDBQ DBQ20050625125011206/25/05 12:50:31  5-MIN KDBQ 251850Z 08006KT 8SM FEW023 27/21 A3005 950 69 2600 080/06 RMK AO2 SLP170 T02670206
94908KDBQ DBQ20050625125511206/25/05 12:55:31  5-MIN KDBQ 251855Z 09004KT 8SM FEW023 27/21 A3005 950 69 2600 080/04 RMK AO2 SLP170 T02670206
94908KDBQ DBQ20050625130009506/25/05 13:00:31  5-MIN KDBQ 251900Z 09005KT 8SM FEW023 27/21 A3006 950 69 2600 090/05 RMK AO2
94908KDBQ DBQ20050625130509506/25/05 13:05:31  5-MIN KDBQ 251905Z 09007KT 8SM FEW023 27/21 A3005 960 69 2600 090/07 RMK AO2
94908KDBQ DBQ20050625131009506/25/05 13:10:31  5-MIN KDBQ 251910Z 11008KT 8SM SCT023 27/21 A3005 960 69 2600 110/08 RMK AO2
94908KDBQ DBQ20050625131509506/25/05 13:15:31  5-MIN KDBQ 251915Z VRB03KT 8SM SCT023 27/21 A3006 950 69 2600 VRB/03 RMK AO2
94908KDBQ DBQ20050625132009506/25/05 13:20:31  5-MIN KDBQ 251920Z 09008KT 8SM BKN025 27/21 A3006 950 69 2600 090/08 RMK AO2
94908KDBQ DBQ20050625132509506/25/05 13:25:31  5-MIN KDBQ 251925Z 06005KT 8SM SCT025 27/21 A3006 950 66 2600 060/05 RMK AO2
94908KDBQ DBQ20050625133010206/25/05 13:30:31  5-MIN KDBQ 251930Z 09006KT 8SM BKN025 BKN031 28/21 A3006 950 66 2700 090/06 RMK AO2
94908KDBQ DBQ20050625133509506/25/05 13:35:31  5-MIN KDBQ 251935Z VRB04KT 8SM BKN025 27/21 A3005 960 66 2600 VRB/04 RMK AO2
94908KDBQ DBQ20050625134010206/25/05 13:40:31  5-MIN KDBQ 251940Z 12005KT 8SM BKN025 BKN031 28/21 A3005 960 66 2700 120/05 RMK AO2
94908KDBQ DBQ20050625134509506/25/05 13:45:31  5-MIN KDBQ 251945Z 09007KT 8SM BKN027 28/21 A3005 960 66 2700 090/07 RMK AO2
94908KDBQ DBQ20050625135011906/25/05 13:50:31  5-MIN KDBQ 251950Z 00000KT 8SM SCT025 BKN032 28/21 A3005 960 66 2700 000/00 RMK AO2 SLP169 T02780211
94908KDBQ DBQ20050625135511906/25/05 13:55:31  5-MIN KDBQ 251955Z VRB03KT 8SM FEW027 SCT032 28/21 A3005 960 64 2700 VRB/03 RMK AO2 SLP168 T02780206
94908KDBQ DBQ20050625140009506/25/05 14:00:31  5-MIN KDBQ 252000Z 10006KT 9SM FEW027 28/21 A3005 960 62 2700 100/06 RMK AO2
94908KDBQ DBQ20050625140509506/25/05 14:05:31  5-MIN KDBQ 252005Z 08007KT 9SM SCT030 28/21 A3005 960 62 2700 080/07 RMK AO2
94908KDBQ DBQ20050625141009506/25/05 14:10:31  5-MIN KDBQ 252010Z VRB06KT 9SM SCT030 28/21 A3005 960 64 2700 VRB/06 RMK AO2
94908KDBQ DBQ20050625141509506/25/05 14:15:31  5-MIN KDBQ 252015Z 15006KT 8SM SCT032 28/21 A3004 960 62 2800 140/06 RMK AO2
94908KDBQ DBQ20050625142009506/25/05 14:20:31  5-MIN KDBQ 252020Z 13007KT 8SM SCT030 28/21 A3004 970 64 2800 130/07 RMK AO2
94908KDBQ DBQ20050625142509506/25/05 14:25:31  5-MIN KDBQ 252025Z 12006KT 8SM SCT030 28/21 A3004 960 62 2800 120/06 RMK AO2
94908KDBQ DBQ20050625143009506/25/05 14:30:31  5-MIN KDBQ 252030Z VRB03KT 8SM SCT030 28/21 A3004 970 62 2800 VRB/03 RMK AO2
94908KDBQ DBQ20050625143510206/25/05 14:35:31  5-MIN KDBQ 252035Z 12007KT 8SM FEW030 SCT035 28/21 A3004 970 62 2800 120/07 RMK AO2
94908KDBQ DBQ20050625144009506/25/05 14:40:31  5-MIN KDBQ 252040Z 14006KT 8SM FEW030 28/21 A3004 970 64 2800 140/06 RMK AO2
94908KDBQ DBQ20050625144509506/25/05 14:45:31  5-MIN KDBQ 252045Z VRB06KT 8SM FEW030 29/21 A3004 970 62 2800 VRB/06 RMK AO2
94908KDBQ DBQ20050625145011806/25/05 14:50:31  5-MIN KDBQ 252050Z VRB05KT 8SM FEW030 29/21 A3004 970 62 2800 VRB/05 RMK AO2 SLP165 T02890211 56008
94908KDBQ DBQ20050625145511606/25/05 14:55:31  5-MIN KDBQ 252055Z VRB03KT 8SM CLR 29/21 A3004 970 62  2800 VRB/03 RMK AO2 SLP165 T02890211 56012
94908KDBQ DBQ20050625150009506/25/05 15:00:31  5-MIN KDBQ 252100Z 08005KT 7SM FEW035 29/21 A3004 970 62 2800 080/05 RMK AO2
94908KDBQ DBQ20050625150509506/25/05 15:05:31  5-MIN KDBQ 252105Z 12004KT 7SM FEW035 28/21 A3004 970 64 2800 120/04 RMK AO2
94908KDBQ DBQ20050625151009506/25/05 15:10:31  5-MIN KDBQ 252110Z 00000KT 7SM FEW035 28/21 A3004 970 62 2800 000/00 RMK AO2
94908KDBQ DBQ20050625151509506/25/05 15:15:31  5-MIN KDBQ 252115Z 00000KT 7SM SCT035 29/21 A3004 970 62 2800 000/00 RMK AO2
94908KDBQ DBQ20050625152009506/25/05 15:20:31  5-MIN KDBQ 252120Z VRB03KT 7SM BKN033 29/21 A3004 970 60 2800 VRB/03 RMK AO2
94908KDBQ DBQ20050625152510206/25/05 15:25:31  5-MIN KDBQ 252125Z 06003KT 7SM BKN033 BKN041 28/21 A3004 970 62 2800 060/03 RMK AO2
94908KDBQ DBQ20050625153010206/25/05 15:30:31  5-MIN KDBQ 252130Z 00000KT 7SM BKN033 BKN041 29/21 A3004 970 62 2800 000/00 RMK AO2
94908KDBQ DBQ20050625153511006/25/05 15:35:31  5-MIN KDBQ 252135Z 00000KT 7SM BKN035 BKN043 BKN050  29/21 A3004 970 62 2800 000/00 RMK AO2
94908KDBQ DBQ20050625154011006/25/05 15:40:31  5-MIN KDBQ 252140Z 00000KT 7SM BKN035 BKN043 OVC050  28/21 A3004 970 62 2800 000/00 RMK AO2
94908KDBQ DBQ20050625154510206/25/05 15:45:31  5-MIN KDBQ 252145Z 08004KT 7SM BKN035 BKN042 29/22 A3004 970 62 2900 070/04 RMK AO2
94908KDBQ DBQ20050625155011906/25/05 15:50:31  5-MIN KDBQ 252150Z 00000KT 7SM BKN037 BKN047 28/21 A3004 970 64 2800 000/00 RMK AO2 SLP165 T02830211
94908KDBQ DBQ20050625155511906/25/05 15:55:31  5-MIN KDBQ 252155Z 08005KT 7SM SCT037 BKN047 28/21 A3004 970 64 2800 080/05 RMK AO2 SLP164 T02830211
94908KDBQ DBQ20050625160010206/25/05 16:00:31  5-MIN KDBQ 252200Z 03003KT 7SM SCT037 SCT046 28/21 A3004 970 64 2800 030/03 RMK AO2
94908KDBQ DBQ20050625160511906/25/05 16:05:31  5-MIN KDBQ 252205Z 07005KT 7SM -RA FEW037 SCT045 28/21  A3004 970 64 2800 070/05 RMK AO2 RAB04 P0000
94908KDBQ DBQ20050625161011906/25/05 16:10:31  5-MIN KDBQ 252210Z 07004KT 7SM -RA FEW033 SCT041 28/22  A3003 980 66 2800 070/04 RMK AO2 RAB04 P0000
94908KDBQ DBQ20050625161511006/25/05 16:15:31  5-MIN KDBQ 252215Z 06004KT 7SM FEW033 28/21 A3003 980 64 2800 060/04 RMK AO2 RAB04E13 P0000
94908KDBQ DBQ20050625162011006/25/05 16:20:31  5-MIN KDBQ 252220Z 07003KT 7SM FEW033 28/22 A3003 980 66 2800 070/03 RMK AO2 RAB04E13 P0000
94908KDBQ DBQ20050625162511206/25/05 16:25:31  5-MIN KDBQ 252225Z 08005KT 6SM -RA FEW025 28/22 A3003  980 66 2800 080/05 RMK AO2 RAB04 P0000
94908KDBQ DBQ20050625163011206/25/05 16:30:31  5-MIN KDBQ 252230Z 08006KT 6SM -RA FEW023 28/22 A3003  980 71 2700 070/06 RMK AO2 RAB04 P0000
94908KDBQ DBQ20050625163511206/25/05 16:35:31  5-MIN KDBQ 252235Z 07005KT 6SM -RA FEW023 28/22 A3003  980 69 2700 070/05 RMK AO2 RAB04 P0000
94908KDBQ DBQ20050625164011006/25/05 16:40:31  5-MIN KDBQ 252240Z 06005KT 7SM FEW023 28/22 A3003 980 69 2700 060/05 RMK AO2 RAB04E39 P0000
94908KDBQ DBQ20050625164511006/25/05 16:45:31  5-MIN KDBQ 252245Z 05005KT 7SM FEW023 28/22 A3003 980 71 2700 050/05 RMK AO2 RAB04E39 P0000
94908KDBQ DBQ20050625165013006/25/05 16:50:31  5-MIN KDBQ 252250Z 06005KT 6SM HZ FEW023 28/22 A3003 980 71 2700 060/05 RMK AO2 RAB04E39 SLP161 P0000 T02780222
94908KDBQ DBQ20050625165512706/25/05 16:55:31  5-MIN KDBQ 252255Z 05005KT 6SM HZ CLR 28/22 A3003 980 71 2700 040/05 RMK AO2 RAB04E39 SLP161 P0000 T02780222
94908KDBQ DBQ20050625170009506/25/05 17:00:31  5-MIN KDBQ 252300Z 04006KT 6SM HZ CLR 28/22 A3002 980 71 2700 040/06 RMK AO2
94908KDBQ DBQ20050625170509506/25/05 17:05:31  5-MIN KDBQ 252305Z 03006KT 6SM HZ CLR 28/22 A3002 980 71 2700 030/06 RMK AO2
94908KDBQ DBQ20050625171009506/25/05 17:10:31  5-MIN KDBQ 252310Z 03006KT 6SM HZ CLR 28/22 A3002 990 71 2700 030/06 RMK AO2
94908KDBQ DBQ20050625171509506/25/05 17:15:31  5-MIN KDBQ 252315Z 04006KT 6SM HZ CLR 28/22 A3002 990 71 2700 040/06 RMK AO2
94908KDBQ DBQ20050625172009506/25/05 17:20:31  5-MIN KDBQ 252320Z 03007KT 6SM HZ CLR 28/22 A3002 980 71 2700 030/07 RMK AO2
94908KDBQ DBQ20050625172509506/25/05 17:25:31  5-MIN KDBQ 252325Z 03008KT 5SM HZ CLR 27/22 A3003 980 71 2600 030/08 RMK AO2
94908KDBQ DBQ20050625173009506/25/05 17:30:31  5-MIN KDBQ 252330Z 03007KT 5SM HZ CLR 27/22 A3003 980 71 2600 030/07 RMK AO2
94908KDBQ DBQ20050625173509506/25/05 17:35:31  5-MIN KDBQ 252335Z 03006KT 5SM HZ CLR 27/22 A3003 980 71 2600 030/06 RMK AO2
94908KDBQ DBQ20050625174009506/25/05 17:40:31  5-MIN KDBQ 252340Z 04006KT 5SM HZ CLR 27/22 A3003 980 71 2600 040/06 RMK AO2
94908KDBQ DBQ20050625174509506/25/05 17:45:31  5-MIN KDBQ 252345Z 04005KT 6SM HZ CLR 27/22 A3003 980 71 2600 040/05 RMK AO2
94908KDBQ DBQ20050625175013906/25/05 17:50:31  5-MIN KDBQ 252350Z 04006KT 5SM HZ FEW045 27/22 A3003 970 71 2600 040/06 RMK AO2 SLP163 60000 T02720217 10294 20256 56012
94908KDBQ DBQ20050625175513906/25/05 17:55:31  5-MIN KDBQ 252355Z 03005KT 6SM HZ SCT043 27/22 A3003 980 71 2600 030/05 RMK AO2 SLP162 60000 T02720217 10294 20256 55003
94908KDBQ DBQ20050625180009806/25/05 18:00:31  5-MIN KDBQ 260000Z 04006KT 6SM HZ BKN043 27/22 A3003 980 71 2600 040/06 RMK AO2
94908KDBQ DBQ20050625180509806/25/05 18:05:31  5-MIN KDBQ 260005Z 04005KT 6SM HZ BKN043 27/22 A3003 980 71 2600 040/05 RMK AO2
94908KDBQ DBQ20050625181010606/25/05 18:10:31  5-MIN KDBQ 260010Z 03005KT 6SM HZ SCT043 BKN050 27/22  A3003 980 71 2600 030/05 RMK AO2
94908KDBQ DBQ20050625181510606/25/05 18:15:31  5-MIN KDBQ 260015Z 03005KT 5SM HZ SCT043 BKN050 27/22  A3003 980 71 2600 030/05 RMK AO2
94908KDBQ DBQ20050625182010606/25/05 18:20:31  5-MIN KDBQ 260020Z 04005KT 5SM HZ BKN045 BKN055 27/22  A3002 980 71 2700 040/05 RMK AO2
94908KDBQ DBQ20050625182510606/25/05 18:25:31  5-MIN KDBQ 260025Z 05004KT 5SM HZ BKN047 BKN055 27/22  A3002 980 71 2700 050/04 RMK AO2
94908KDBQ DBQ20050625183010606/25/05 18:30:31  5-MIN KDBQ 260030Z 03005KT 6SM HZ BKN049 BKN055 27/22  A3002 990 71 2700 030/05 RMK AO2
94908KDBQ DBQ20050625183509806/25/05 18:35:31  5-MIN KDBQ 260035Z 03007KT 5SM HZ BKN047 27/22 A3002 990 73 2600 030/07 RMK AO2
94908KDBQ DBQ20050625184010906/25/05 18:40:31  5-MIN KDBQ 260040Z AUTO 04006KT 5SM HZ BKN047 27/22  A3001 990 76 2600 040/06 RMK AO2 TSNO
94908KDBQ DBQ20050625184511606/25/05 18:45:31  5-MIN KDBQ 260045Z AUTO 04007KT 5SM HZ BKN047 BKN080  27/22 A3001 990 76 2600 040/07 RMK AO2 TSNO
94908KDBQ DBQ20050625185013406/25/05 18:50:31  5-MIN KDBQ 260050Z AUTO 02007KT 5SM HZ BKN045 BKN080  26/22 A3001 1000 79 2500 020/07 RMK AO2 SLP155 T02610222 TSNO
94908KDBQ DBQ20050625185513406/25/05 18:55:31  5-MIN KDBQ 260055Z AUTO 01008KT 5SM HZ SCT036 BKN045  26/22 A3001 1000 79 2500 010/08 RMK AO2 SLP153 T02610222 TSNO
94908KDBQ DBQ20050625190011606/25/05 19:00:31  5-MIN KDBQ 260100Z AUTO 02009KT 5SM HZ SCT036 BKN045  26/22 A3001 990 79 2500 020/09 RMK AO2 TSNO
94908KDBQ DBQ20050625190511606/25/05 19:05:31  5-MIN KDBQ 260105Z AUTO 03010KT 5SM HZ SCT036 BKN045  26/22 A3002 990 76 2500 030/10 RMK AO2 TSNO
94908KDBQ DBQ20050625191011606/25/05 19:10:31  5-MIN KDBQ 260110Z AUTO 04010KT 6SM HZ BKN036 BKN045  26/22 A3002 990 76 2500 030/10 RMK AO2 TSNO
94908KDBQ DBQ20050625191511606/25/05 19:15:31  5-MIN KDBQ 260115Z AUTO 04009KT 6SM HZ BKN034 OVC045  26/22 A3002 990 76 2500 040/09 RMK AO2 TSNO
94908KDBQ DBQ20050625192011606/25/05 19:20:31  5-MIN KDBQ 260120Z AUTO 04011KT 6SM HZ BKN034 OVC042  26/21 A3001 990 76 2500 040/11 RMK AO2 TSNO
94908KDBQ DBQ20050625192511706/25/05 19:25:31  5-MIN KDBQ 260125Z AUTO 07010KT 6SM HZ BKN034 BKN042  26/21 A3000 1010 76 2500 070/10 RMK AO2 TSNO
94908KDBQ DBQ20050625193012406/25/05 19:30:31  5-MIN KDBQ 260130Z AUTO 06012KT 6SM HZ SCT034 SCT050  BKN110 26/21 A3000 1000 73 2500 060/12 RMK AO2 TSNO
94908KDBQ DBQ20050625193511906/25/05 19:35:31  5-MIN KDBQ 260135Z AUTO 06010KT 7SM SCT034 BKN100 BKN110 25/20 A3002 990 73 2400 060/10 RMK AO2 TSNO
94908KDBQ DBQ20050625194013306/25/05 19:40:31  5-MIN KDBQ 260140Z AUTO 32011G16KT 9SM SCT034 SCT048  BKN095 25/20 A3005 960 73 2400 310/11G16 RMK AO2 PRESRR TSNO
94908KDBQ DBQ20050625194511906/25/05 19:45:31  5-MIN KDBQ 260145Z AUTO 29014KT 9SM FEW023 SCT034 BKN050 23/19 A3005 960 78 2200 290/14 RMK AO2 TSNO
94908KDBQ DBQ20050625195014306/25/05 19:50:31  5-MIN KDBQ 260150Z AUTO 30011G18KT 9SM FEW017 BKN030  BKN050 22/19 A3004 970 81 2100 300/11G18 RMK AO2 SLP167 T02220189 TSNO
94908KDBQ DBQ20050625195517306/25/05 19:55:31  5-MIN KDBQ 260155Z AUTO 25023G29KT 8SM FEW016 BKN030  OVC110 22/18 A3005 960 78 2100 250/23G29 RMK AO2 PK WND 26029/0155 WSHFT  0140 SLP169 T02220183 TSNO
94908KDBQ DBQ20050625200018606/25/05 20:00:31  5-MIN KDBQ 260200Z AUTO 20026G33KT 1 3/4SM -RA BR SCT011 BKN030 OVC095 22/19 A3008 930 87 2000 190/26G33 RMK AO2 PK WND 19033/0200 WSHFT 0142 RAB0156 PRESRR P0000 TSNO
94908KDBQ DBQ20050625200517906/25/05 20:05:31  5-MIN KDBQ 260205Z AUTO 18039G58KT 3/4SM +RA BR SCT005  BKN018 OVC030 21/19 A3007 940 93 1800 180/39G58 RMK AO2 PK WND 18058/0205  WSHFT 0148 RAB0156 P0018 TSNO
94908KDBQ DBQ20050625201018606/25/05 20:10:31  5-MIN KDBQ 260210Z AUTO 21016G58KT 1/2SM +RA FG SCT001  BKN009 OVC030 20/19 A3012 900 93 1700 210/16G58 RMK AO2 PK WND 18058/0205  WSHFT 0148 RAB0156 PRESRR P0031 TSNO
94908KDBQ DBQ20050625201517906/25/05 20:15:31  5-MIN KDBQ 260215Z AUTO VRB06G18KT 1/2SM +RA FG BKN001  BKN016 OVC030 21/20 A3012 900 97 1800 VRB/06G18 RMK AO2 PK WND 18058/0205  WSHFT 0148 RAB0156 P0088 TSNO
94908KDBQ DBQ20050625202016806/25/05 20:20:31  5-MIN KDBQ 260220Z AUTO 33008KT 1 1/4SM +RA BR BKN007  OVC030 21/21 A3011 900 100 1800 320/08 RMK AO2 PK WND 18058/0205 WSHFT 0148 RAB0156 P0098 TSNO
94908KDBQ DBQ20050625202515706/25/05 20:25:31  5-MIN KDBQ 260225Z AUTO 33009KT 2SM +RA BR OVC011 21/21 A3009 920 100 1800 330/09 RMK AO2 PK WND 18058/0205 WSHFT 0148 RAB0156  P0104 TSNO
94908KDBQ DBQ20050625203016206/25/05 20:30:31  5-MIN KDBQ 260230Z AUTO 33008KT 2 1/2SM +RA BR OVC017  21/21 A3009 920 100 1800 330/08 RMK AO2 PK WND 18058/0205 WSHFT 0148  RAB0156 P0109 TSNO
94908KDBQ DBQ20050625203515706/25/05 20:35:31  5-MIN KDBQ 260235Z AUTO 32009KT 3SM RA BR OVC021 21/21  A3009 930 100 1800 320/09 RMK AO2 PK WND 18058/0205 WSHFT 0148 RAB0156  P0111 TSNO
94908KDBQ DBQ20050625204015706/25/05 20:40:31  5-MIN KDBQ 260240Z AUTO 33007KT 4SM RA BR OVC026 21/21  A3010 910 100 1800 330/07 RMK AO2 PK WND 18058/0205 WSHFT 0148 RAB0156  P0112 TSNO
94908KDBQ DBQ20050625204515706/25/05 20:45:31  5-MIN KDBQ 260245Z AUTO 01005KT 5SM -RA BR OVC034 21/21 A3009 920 100 1800 010/05 RMK AO2 PK WND 18058/0205 WSHFT 0148 RAB0156  P0113 TSNO
94908KDBQ DBQ20050625205019106/25/05 20:50:31  5-MIN KDBQ 260250Z AUTO 07005KT 2 1/2SM -RA BR OVC044  21/21 A3011 900 100 1800 070/05 RMK AO2 PK WND 18058/0205 WSHFT 0148  RAB0156 SLP190 P0113 60113 T02060206 55003 TSNO
94908KDBQ DBQ20050625205519106/25/05 20:55:31  5-MIN KDBQ 260255Z AUTO 09006KT 2 1/2SM -RA BR OVC048  21/21 A3010 910 100 1800 090/06 RMK AO2 PK WND 18058/0205 WSHFT 0148  RAB0156 SLP187 P0114 60114 T02060206 53022 TSNO
94908KDBQ DBQ20050625210011906/25/05 21:00:31  5-MIN KDBQ 260300Z AUTO 10007KT 5SM -RA BR OVC048 21/21 A3011 900 100 1800 100/07 RMK AO2 P0000 TSNO
94908KDBQ DBQ20050625210512606/25/05 21:05:31  5-MIN KDBQ 260305Z AUTO 12007KT 6SM -RA BR BKN050 OVC065 21/21 A3010 910 100 1800 120/07 RMK AO2 P0000 TSNO
94908KDBQ DBQ20050625211012606/25/05 21:10:31  5-MIN KDBQ 260310Z AUTO 14005KT 6SM -RA BR BKN055 OVC100 21/21 A3011 910 100 1800 130/05 RMK AO2 P0001 TSNO
94908KDBQ DBQ20050625211513306/25/05 21:15:31  5-MIN KDBQ 260315Z AUTO 15011G15KT 6SM -RA BR BKN050  OVC100 21/21 A3010 920 100 1800 150/11G15 RMK AO2 P0001 TSNO
94908KDBQ DBQ20050625212012506/25/05 21:20:31  5-MIN KDBQ 260320Z AUTO 14010G15KT 5SM RA BR OVC044  20/20 A3010 910 100 1700 140/10G15 RMK AO2 P0003 TSNO
94908KDBQ DBQ20050625212511906/25/05 21:25:31  5-MIN KDBQ 260325Z AUTO 14012KT 4SM RA BR OVC042 20/20  A3009 920 100 1800 140/12 RMK AO2 P0004 TSNO
94908KDBQ DBQ20050625213011906/25/05 21:30:31  5-MIN KDBQ 260330Z AUTO 13010KT 5SM RA BR OVC040 20/20  A3009 920 100 1800 130/10 RMK AO2 P0006 TSNO
94908KDBQ DBQ20050625213511806/25/05 21:35:31  5-MIN KDBQ 260335Z AUTO 12008KT 5SM -RA BR OVC038 21/20 A3008 930 97 1800 120/08 RMK AO2 P0006 TSNO
94908KDBQ DBQ20050625214011606/25/05 21:40:31  5-MIN KDBQ 260340Z AUTO 13007KT 7SM -RA OVC036 21/20  A3009 920 97 1800 130/07 RMK AO2 P0007 TSNO
94908KDBQ DBQ20050625214511606/25/05 21:45:31  5-MIN KDBQ 260345Z AUTO 13008KT 9SM -RA BKN034 21/20  A3008 930 97 1800 130/08 RMK AO2 P0007 TSNO
94908KDBQ DBQ20050625215013406/25/05 21:50:31  5-MIN KDBQ 260350Z AUTO 12006KT 10SM -RA BKN034 22/20  A3009 920 90 2000 120/06 RMK AO2 SLP183 P0007 T02170200 TSNO
94908KDBQ DBQ20050625215513406/25/05 21:55:31  5-MIN KDBQ 260355Z AUTO 12007KT 10SM -RA SCT032 22/20  A3008 930 90 2000 120/07 RMK AO2 SLP179 P0007 T02170200 TSNO
94908KDBQ DBQ20050625220012406/25/05 22:00:31  5-MIN KDBQ 260400Z AUTO 12008KT 10SM -RA SCT032 BKN100  22/20 A3008 930 90 2000 120/08 RMK AO2 P0000 TSNO
94908KDBQ DBQ20050625220513306/25/05 22:05:31  5-MIN KDBQ 260405Z AUTO 11008KT 10SM FEW032 SCT080  BKN100 22/20 A3008 930 90 2000 110/08 RMK AO2 RAE03 P0000 TSNO
94908KDBQ DBQ20050625221012506/25/05 22:10:31  5-MIN KDBQ 260410Z AUTO 12008KT 10SM BKN090 BKN110 21/20 A3007 940 93 1900 120/08 RMK AO2 RAE03 P0000 TSNO
94908KDBQ DBQ20050625221512506/25/05 22:15:31  5-MIN KDBQ 260415Z AUTO 15007KT 10SM BKN080 BKN100 21/20 A3008 930 93 1900 150/07 RMK AO2 RAE03 P0000 TSNO
94908KDBQ DBQ20050625222012506/25/05 22:20:31  5-MIN KDBQ 260420Z AUTO 17012KT 10SM BKN085 BKN110 21/20 A3008 930 93 1900 170/12 RMK AO2 RAE03 P0000 TSNO
94908KDBQ DBQ20050625222514006/25/05 22:25:31  5-MIN KDBQ 260425Z AUTO 19013KT 10SM -RA FEW060 BKN080  OVC110 21/20 A3010 910 93 1900 190/13 RMK AO2 RAE03B25 P0000 TSNO
94908KDBQ DBQ20050625223014006/25/05 22:30:31  5-MIN KDBQ 260430Z AUTO 18009KT 10SM -RA SCT065 BKN085  OVC110 21/20 A3008 930 93 1900 180/09 RMK AO2 RAE03B25 P0000 TSNO
94908KDBQ DBQ20050625223513206/25/05 22:35:31  5-MIN KDBQ 260435Z AUTO 20009KT 9SM -RA SCT060 OVC085  21/20 A3010 910 93 1900 200/09 RMK AO2 RAE03B25 P0000 TSNO
94908KDBQ DBQ20050625224013906/25/05 22:40:31  5-MIN KDBQ 260440Z AUTO 26006KT 9SM -RA BKN060 BKN080  OVC095 21/20 A3009 930 97 1800 260/06 RMK AO2 RAE03B25 P0000 TSNO
94908KDBQ DBQ20050625224513906/25/05 22:45:31  5-MIN KDBQ 260445Z AUTO 23007KT 9SM -RA BKN060 BKN080  OVC110 21/20 A3009 920 93 1900 230/07 RMK AO2 RAE03B25 P0000 TSNO
94908KDBQ DBQ20050625225015706/25/05 22:50:31  5-MIN KDBQ 260450Z AUTO 20010KT 9SM -RA BKN065 BKN085  OVC110 21/20 A3008 930 93 1900 200/10 RMK AO2 RAE03B25 SLP181 P0000  T02110200 TSNO
94908KDBQ DBQ20050625225515706/25/05 22:55:31  5-MIN KDBQ 260455Z AUTO 22010KT 8SM -RA BKN060 BKN095  OVC110 21/20 A3009 920 93 1900 220/10 RMK AO2 RAE03B25 SLP185 P0000  T02110200 TSNO
94908KDBQ DBQ20050625230012306/25/05 23:00:31  5-MIN KDBQ 260500Z AUTO 23008KT 7SM -RA BKN060 OVC095  21/20 A3008 930 97 1800 230/08 RMK AO2 P0000 TSNO
94908KDBQ DBQ20050625230513206/25/05 23:05:31  5-MIN KDBQ 260505Z AUTO 25010KT 6SM -RA BR BKN055 BKN075 OVC100 21/20 A3009 920 93 1900 250/10 RMK AO2 P0001 TSNO
94908KDBQ DBQ20050625231013106/25/05 23:10:31  5-MIN KDBQ 260510Z AUTO 22003KT 4SM RA BR BKN045 BKN065 OVC100 21/20 A3007 940 93 1900 220/03 RMK AO2 P0003 TSNO
94908KDBQ DBQ20050625231513206/25/05 23:15:31  5-MIN KDBQ 260515Z AUTO 25006KT 4SM -RA BR BKN049 BKN070 OVC100 21/21 A3008 930 97 1900 250/06 RMK AO2 P0004 TSNO
94908KDBQ DBQ20050625232013006/25/05 23:20:31  5-MIN KDBQ 260520Z AUTO 24004KT 7SM -RA BKN055 BKN070  OVC095 22/20 A3008 930 90 2000 240/04 RMK AO2 P0004 TSNO
94908KDBQ DBQ20050625232512506/25/05 23:25:31  5-MIN KDBQ 260525Z AUTO 00000KT 6SM -RA BR BKN055 OVC070 22/21 A3007 940 93 2000 000/00 RMK AO2 P0005 TSNO
94908KDBQ DBQ20050625233011806/25/05 23:30:31  5-MIN KDBQ 260530Z AUTO 00000KT 5SM RA BR OVC050 21/21  A3007 940 97 1900 000/00 RMK AO2 P0005 TSNO
94908KDBQ DBQ20050625233511806/25/05 23:35:31  5-MIN KDBQ 260535Z AUTO 00000KT 5SM -RA BR OVC050 21/21 A3006 950 97 1900 000/00 RMK AO2 P0006 TSNO
94908KDBQ DBQ20050625234011606/25/05 23:40:31  5-MIN KDBQ 260540Z AUTO 00000KT 7SM -RA OVC060 21/21  A3006 950 97 1900 000/00 RMK AO2 P0007 TSNO
94908KDBQ DBQ20050625234511706/25/05 23:45:31  5-MIN KDBQ 260545Z AUTO 00000KT 10SM -RA OVC065 21/21  A3005 960 97 1900 000/00 RMK AO2 P0007 TSNO
94908KDBQ DBQ20050625235017706/25/05 23:50:31  5-MIN KDBQ 260550Z AUTO 00000KT 10SM BKN065 BKN110 21/21 A3005 960 100 1900 000/00 RMK AO2 RAE48 SLP169 P0007 60128 T02110211 10272 20200 402940200 53022 TSNO
94908KDBQ DBQ20050625235517606/25/05 23:55:31  5-MIN KDBQ 260555Z AUTO 00000KT 9SM BKN070 BKN110 21/21 A3005 960 100 1900 000/00 RMK AO2 RAE48 SLP170 P0007 60128 T02110211 10272 20200 402940200 58016 TSNO
94908KDBQ DBQ20050626000011206/26/05 00:00:38  5-MIN KDBQ 260600Z AUTO 00000KT 9SM BKN075 BKN110 21/21 A3005 960 97 1900 000/00 RMK AO2 TSNO
94908KDBQ DBQ20050626000512906/26/05 00:05:31  5-MIN KDBQ 260605Z AUTO 13004KT 8SM -RA BKN080 BKN110  21/21 A3006 950 97 1900 130/04 RMK AO2 RAB02 P0000 TSNO
94908KDBQ DBQ20050626001012906/26/05 00:10:31  5-MIN KDBQ 260610Z AUTO 13003KT 8SM -RA BKN070 BKN110  21/20 A3005 960 93 1900 130/03 RMK AO2 RAB02 P0000 TSNO
94908KDBQ DBQ20050626001512906/26/05 00:15:34  5-MIN KDBQ 260615Z AUTO 12005KT 8SM -RA BKN070 BKN110  22/20 A3005 960 90 2000 120/05 RMK AO2 RAB02 P0001 TSNO
94908KDBQ DBQ20050626002012906/26/05 00:20:31  5-MIN KDBQ 260620Z AUTO 12005KT 9SM -RA BKN075 BKN100  21/20 A3004 970 93 1900 120/05 RMK AO2 RAB02 P0001 TSNO
94908KDBQ DBQ20050626002512806/26/05 00:25:31  5-MIN KDBQ 260625Z AUTO 12006KT 10SM BKN080 BKN100 21/20 A3004 970 93 1900 120/06 RMK AO2 RAB02E25 P0001 TSNO
94908KDBQ DBQ20050626003012706/26/05 00:30:31  5-MIN KDBQ 260630Z AUTO 13004KT 9SM BKN080 BKN100 22/21 A3004 970 93 2000 130/04 RMK AO2 RAB02E25 P0001 TSNO
94908KDBQ DBQ20050626003512106/26/05 00:35:31  5-MIN KDBQ 260635Z AUTO 14004KT 9SM SCT080 22/21 A3003  980 93 2000 140/04 RMK AO2 RAB02E25 P0001 TSNO
94908KDBQ DBQ20050626004012106/26/05 00:40:31  5-MIN KDBQ 260640Z AUTO 15003KT 9SM SCT090 22/21 A3005  960 97 2000 150/03 RMK AO2 RAB02E25 P0001 TSNO
94908KDBQ DBQ20050626004512106/26/05 00:45:31  5-MIN KDBQ 260645Z AUTO 17003KT 9SM FEW100 22/21 A3005  960 93 2100 160/03 RMK AO2 RAB02E25 P0001 TSNO
94908KDBQ DBQ20050626005013806/26/05 00:50:31  5-MIN KDBQ 260650Z AUTO 15005KT 10SM FEW100 23/21 A3005 960 87 2100 150/05 RMK AO2 RAB02E25 SLP168 P0001 T02280206 TSNO
94908KDBQ DBQ20050626005513806/26/05 00:55:31  5-MIN KDBQ 260655Z AUTO 15004KT 9SM FEW065 22/21 A3004  970 93 2000 150/04 RMK AO2 RAB02E25 SLP165 P0001 T02170206 TSNO
94908KDBQ DBQ20050626010010606/26/05 01:00:31  5-MIN KDBQ 260700Z AUTO 00000KT 9SM FEW070 22/21 A3005  960 93 2000 000/00 RMK AO2 TSNO
94908KDBQ DBQ20050626010512906/26/05 01:05:31  5-MIN KDBQ 260705Z AUTO 14006KT 8SM -RA SCT034 SCT070  22/21 A3004 970 97 2000 140/06 RMK AO2 RAB03 P0000 TSNO
94908KDBQ DBQ20050626011012906/26/05 01:10:31  5-MIN KDBQ 260710Z AUTO 14007KT 7SM -RA SCT037 BKN070  21/20 A3005 960 93 1900 140/07 RMK AO2 RAB03 P0000 TSNO
94908KDBQ DBQ20050626011512906/26/05 01:15:31  5-MIN KDBQ 260715Z AUTO 15007KT 8SM -RA FEW039 SCT070  21/20 A3004 970 93 1900 140/07 RMK AO2 RAB03 P0000 TSNO
94908KDBQ DBQ20050626012012706/26/05 01:20:31  5-MIN KDBQ 260720Z AUTO 14010KT 9SM FEW039 SCT070 21/20 A3005 960 93 1900 140/10 RMK AO2 RAB03E19 P0000 TSNO
94908KDBQ DBQ20050626012512106/26/05 01:25:31  5-MIN KDBQ 260725Z AUTO 14007KT 9SM FEW039 22/19 A3004  970 87 2000 140/07 RMK AO2 RAB03E19 P0000 TSNO
94908KDBQ DBQ20050626013012106/26/05 01:30:31  5-MIN KDBQ 260730Z AUTO 15008KT 9SM FEW039 22/19 A3004  970 87 2000 150/08 RMK AO2 RAB03E19 P0000 TSNO
94908KDBQ DBQ20050626013511706/26/05 01:35:31  5-MIN KDBQ 260735Z AUTO 15008KT 9SM CLR 22/19 A3004 970 87 2000 150/08 RMK AO2 RAB03E19 P0000 TSNO
94908KDBQ DBQ20050626014011706/26/05 01:40:31  5-MIN KDBQ 260740Z AUTO 15008KT 9SM CLR 21/20 A3003 970 93 1900 150/08 RMK AO2 RAB03E19 P0000 TSNO
94908KDBQ DBQ20050626014511706/26/05 01:45:31  5-MIN KDBQ 260745Z AUTO 15010KT 8SM CLR 21/20 A3003 970 93 2000 150/10 RMK AO2 RAB03E19 P0000 TSNO
94908KDBQ DBQ20050626015013406/26/05 01:50:31  5-MIN KDBQ 260750Z AUTO 15010KT 7SM CLR 21/20 A3003 980 93 2000 150/10 RMK AO2 RAB03E19 SLP162 P0000 T02110200 TSNO
94908KDBQ DBQ20050626015513406/26/05 01:55:31  5-MIN KDBQ 260755Z AUTO 15010KT 7SM CLR 21/19 A3003 970 90 2000 150/10 RMK AO2 RAB03E19 SLP162 P0000 T02110194 TSNO
94908KDBQ DBQ20050626020010206/26/05 02:00:31  5-MIN KDBQ 260800Z AUTO 16009KT 7SM CLR 21/19 A3003 980 93 1900 150/09 RMK AO2 TSNO
94908KDBQ DBQ20050626020510606/26/05 02:05:31  5-MIN KDBQ 260805Z AUTO 15008KT 6SM BR CLR 21/19 A3004  970 93 1900 150/08 RMK AO2 TSNO
94908KDBQ DBQ20050626021010606/26/05 02:10:31  5-MIN KDBQ 260810Z AUTO 17006KT 6SM BR CLR 21/19 A3003  970 93 1900 170/06 RMK AO2 TSNO
94908KDBQ DBQ20050626021510606/26/05 02:15:31  5-MIN KDBQ 260815Z AUTO 19003KT 6SM BR CLR 21/19 A3005  960 93 1900 180/03 RMK AO2 TSNO
94908KDBQ DBQ20050626022010606/26/05 02:20:31  5-MIN KDBQ 260820Z AUTO 19003KT 6SM BR CLR 21/19 A3004  970 93 1900 190/03 RMK AO2 TSNO
94908KDBQ DBQ20050626022510606/26/05 02:25:31  5-MIN KDBQ 260825Z AUTO 21004KT 6SM BR CLR 21/19 A3005  960 93 1900 210/04 RMK AO2 TSNO
94908KDBQ DBQ20050626023010606/26/05 02:30:31  5-MIN KDBQ 260830Z AUTO 17004KT 6SM BR CLR 21/19 A3004  970 93 1900 170/04 RMK AO2 TSNO
94908KDBQ DBQ20050626023510606/26/05 02:35:31  5-MIN KDBQ 260835Z AUTO VRB04KT 6SM BR CLR 21/19 A3004  970 93 1900 VRB/04 RMK AO2 TSNO
94908KDBQ DBQ20050626024010606/26/05 02:40:31  5-MIN KDBQ 260840Z AUTO 18004KT 6SM BR CLR 21/19 A3004  970 90 1900 180/04 RMK AO2 TSNO
94908KDBQ DBQ20050626024510206/26/05 02:45:31  5-MIN KDBQ 260845Z AUTO VRB04KT 7SM CLR 21/19 A3005 960 90 1900 VRB/04 RMK AO2 TSNO
94908KDBQ DBQ20050626025013106/26/05 02:50:31  5-MIN KDBQ 260850Z AUTO VRB03KT 7SM CLR 21/19 A3004 970 90 1900 VRB/03 RMK AO2 SLP165 60001 T02060189 58016 TSNO
94908KDBQ DBQ20050626025513106/26/05 02:55:31  5-MIN KDBQ 260855Z AUTO 00000KT 7SM CLR 21/19 A3006 950 90 1900 000/00 RMK AO2 SLP170 60001 T02060189 53001 TSNO
94908KDBQ DBQ20050626030010206/26/05 03:00:31  5-MIN KDBQ 260900Z AUTO 00000KT 7SM CLR 21/19 A3005 960 90 1900 000/00 RMK AO2 TSNO
94908KDBQ DBQ20050626030510206/26/05 03:05:31  5-MIN KDBQ 260905Z AUTO 03004KT 7SM CLR 21/19 A3006 950 90 1900 020/04 RMK AO2 TSNO
94908KDBQ DBQ20050626031010206/26/05 03:10:31  5-MIN KDBQ 260910Z AUTO 35003KT 7SM CLR 21/19 A3005 960 90 1900 350/03 RMK AO2 TSNO
94908KDBQ DBQ20050626031510606/26/05 03:15:31  5-MIN KDBQ 260915Z AUTO 00000KT 6SM BR CLR 21/19 A3007  940 90 1800 000/00 RMK AO2 TSNO
94908KDBQ DBQ20050626032010206/26/05 03:20:31  5-MIN KDBQ 260920Z AUTO 14003KT 7SM CLR 21/19 A3006 950 90 1900 140/03 RMK AO2 TSNO
94908KDBQ DBQ20050626032510206/26/05 03:25:31  5-MIN KDBQ 260925Z AUTO 00000KT 8SM CLR 21/19 A3007 940 87 1900 000/00 RMK AO2 TSNO
94908KDBQ DBQ20050626033010206/26/05 03:30:31  5-MIN KDBQ 260930Z AUTO 00000KT 7SM CLR 21/19 A3006 950 90 1900 000/00 RMK AO2 TSNO
94908KDBQ DBQ20050626033510206/26/05 03:35:31  5-MIN KDBQ 260935Z AUTO 00000KT 7SM CLR 21/19 A3007 940 90 1800 000/00 RMK AO2 TSNO
94908KDBQ DBQ20050626034010206/26/05 03:40:31  5-MIN KDBQ 260940Z AUTO 12003KT 7SM CLR 21/19 A3006 950 90 1900 120/03 RMK AO2 TSNO
94908KDBQ DBQ20050626034510206/26/05 03:45:31  5-MIN KDBQ 260945Z AUTO 00000KT 7SM CLR 21/19 A3007 940 90 1800 000/00 RMK AO2 TSNO
94908KDBQ DBQ20050626035011906/26/05 03:50:31  5-MIN KDBQ 260950Z AUTO 00000KT 7SM CLR 21/19 A3006 950 90 1900 000/00 RMK AO2 SLP170 T02060189 TSNO
94908KDBQ DBQ20050626035511906/26/05 03:55:31  5-MIN KDBQ 260955Z AUTO 14003KT 7SM CLR 21/19 A3006 950 90 1900 140/03 RMK AO2 SLP173 T02060189 TSNO
94908KDBQ DBQ20050626040010206/26/05 04:00:31  5-MIN KDBQ 261000Z AUTO 00000KT 7SM CLR 21/19 A3006 950 90 1900 000/00 RMK AO2 TSNO
94908KDBQ DBQ20050626040510206/26/05 04:05:31  5-MIN KDBQ 261005Z AUTO 00000KT 7SM CLR 21/19 A3007 940 90 1800 000/00 RMK AO2 TSNO
94908KDBQ DBQ20050626041010206/26/05 04:10:31  5-MIN KDBQ 261010Z AUTO 00000KT 7SM CLR 21/19 A3007 940 90 1800 000/00 RMK AO2 TSNO
94908KDBQ DBQ20050626041510206/26/05 04:15:31  5-MIN KDBQ 261015Z AUTO 05003KT 7SM CLR 21/19 A3007 940 90 1800 050/03 RMK AO2 TSNO
94908KDBQ DBQ20050626042010206/26/05 04:20:31  5-MIN KDBQ 261020Z AUTO 03003KT 7SM CLR 21/19 A3007 940 90 1800 030/03 RMK AO2 TSNO
94908KDBQ DBQ20050626042510206/26/05 04:25:31  5-MIN KDBQ 261025Z AUTO 00000KT 7SM CLR 21/19 A3007 940 90 1800 000/00 RMK AO2 TSNO
94908KDBQ DBQ20050626043010206/26/05 04:30:31  5-MIN KDBQ 261030Z AUTO 00000KT 7SM CLR 21/19 A3007 940 90 1800 000/00 RMK AO2 TSNO
94908KDBQ DBQ20050626043510206/26/05 04:35:31  5-MIN KDBQ 261035Z AUTO 13003KT 7SM CLR 21/19 A3007 940 90 1800 130/03 RMK AO2 TSNO
94908KDBQ DBQ20050626044010606/26/05 04:40:31  5-MIN KDBQ 261040Z AUTO 14004KT 6SM BR CLR 21/19 A3007  940 90 1800 140/04 RMK AO2 TSNO
94908KDBQ DBQ20050626044510606/26/05 04:45:31  5-MIN KDBQ 261045Z AUTO 16005KT 6SM BR CLR 21/19 A3007  940 90 1800 150/05 RMK AO2 TSNO
94908KDBQ DBQ20050626045012306/26/05 04:50:31  5-MIN KDBQ 261050Z AUTO 17005KT 6SM BR CLR 21/19 A3007  940 90 1800 160/05 RMK AO2 SLP175 T02060189 TSNO
94908KDBQ DBQ20050626045512306/26/05 04:55:31  5-MIN KDBQ 261055Z AUTO 17005KT 5SM BR CLR 21/19 A3007  940 90 1800 170/05 RMK AO2 SLP176 T02060189 TSNO
94908KDBQ DBQ20050626050009506/26/05 05:00:31  5-MIN KDBQ 261100Z VRB03KT 5SM BR CLR 21/19 A3008 930 90 1800 VRB/03 RMK AO2
94908KDBQ DBQ20050626050510206/26/05 05:05:31  5-MIN KDBQ 261105Z 33010KT 5SM BR CLR 21/19 A3009 920 90 1800 330/10 RMK AO2 PRESRR
94908KDBQ DBQ20050626051009506/26/05 05:10:31  5-MIN KDBQ 261110Z 36004KT 4SM BR CLR 21/19 A3008 930 90 1800 350/04 RMK AO2
94908KDBQ DBQ20050626051509506/26/05 05:15:31  5-MIN KDBQ 261115Z 00000KT 4SM BR CLR 21/19 A3009 920 90 1800 000/00 RMK AO2
94908KDBQ DBQ20050626052009506/26/05 05:20:31  5-MIN KDBQ 261120Z 34010KT 5SM BR CLR 21/19 A3010 920 93 1800 340/10 RMK AO2
94908KDBQ DBQ20050626052509506/26/05 05:25:31  5-MIN KDBQ 261125Z VRB03KT 4SM BR CLR 21/19 A3009 920 93 1800 VRB/03 RMK AO2
94908KDBQ DBQ20050626053009506/26/05 05:30:31  5-MIN KDBQ 261130Z 02005KT 4SM BR CLR 21/19 A3010 920 93 1800 020/05 RMK AO2
94908KDBQ DBQ20050626053509506/26/05 05:35:31  5-MIN KDBQ 261135Z 35007KT 4SM BR CLR 21/19 A3010 910 93 1800 340/07 RMK AO2
94908KDBQ DBQ20050626054009506/26/05 05:40:31  5-MIN KDBQ 261140Z 06004KT 4SM BR CLR 21/19 A3009 920 93 1800 060/04 RMK AO2
94908KDBQ DBQ20050626054509506/26/05 05:45:31  5-MIN KDBQ 261145Z 03005KT 5SM BR CLR 21/19 A3010 910 93 1800 030/05 RMK AO2
94908KDBQ DBQ20050626055014206/26/05 05:50:31  5-MIN KDBQ 261150Z 01006KT 5SM BR CLR 21/19 A3010 910 90 1900 010/06 RMK AO2 SLP186 60001 70129 T02110194 10228 20206 53001
94908KDBQ DBQ20050626055514206/26/05 05:55:31  5-MIN KDBQ 261155Z 05005KT 4SM BR CLR 21/19 A3010 910 93 1800 050/05 RMK AO2 SLP186 60001 70129 T02060194 10228 20206 53015
94908KDBQ DBQ20050626060009506/26/05 06:00:31  5-MIN KDBQ 261200Z 05004KT 4SM BR CLR 21/19 A3010 910 93 1800 040/04 RMK AO2
94908KDBQ DBQ20050626060509506/26/05 06:05:31  5-MIN KDBQ 261205Z 01005KT 4SM BR CLR 21/19 A3010 910 90 1900 010/05 RMK AO2
94908KDBQ DBQ20050626061009506/26/05 06:10:31  5-MIN KDBQ 261210Z 06004KT 4SM BR CLR 21/19 A3010 910 90 1900 060/04 RMK AO2
94908KDBQ DBQ20050626061509506/26/05 06:15:31  5-MIN KDBQ 261215Z 06004KT 4SM BR CLR 21/19 A3010 910 93 1800 060/04 RMK AO2
94908KDBQ DBQ20050626062009506/26/05 06:20:31  5-MIN KDBQ 261220Z 01005KT 3SM BR CLR 21/19 A3011 910 90 1900 010/05 RMK AO2
94908KDBQ DBQ20050626062509506/26/05 06:25:31  5-MIN KDBQ 261225Z 03004KT 3SM BR CLR 21/20 A3011 910 93 1900 030/04 RMK AO2
94908KDBQ DBQ20050626063009506/26/05 06:30:31  5-MIN KDBQ 261230Z 08005KT 3SM BR CLR 21/20 A3010 910 93 1900 080/05 RMK AO2
94908KDBQ DBQ20050626063509506/26/05 06:35:31  5-MIN KDBQ 261235Z 08005KT 3SM BR CLR 21/20 A3010 910 93 1900 080/05 RMK AO2
94908KDBQ DBQ20050626064009506/26/05 06:40:31  5-MIN KDBQ 261240Z 04006KT 3SM BR CLR 21/20 A3010 910 93 1900 040/06 RMK AO2
94908KDBQ DBQ20050626064509506/26/05 06:45:31  5-MIN KDBQ 261245Z 03006KT 3SM BR CLR 21/20 A3010 910 93 1900 030/06 RMK AO2
94908KDBQ DBQ20050626065011206/26/05 06:50:31  5-MIN KDBQ 261250Z 05005KT 3SM BR CLR 21/20 A3010 910 93 1900 050/05 RMK AO2 SLP187 T02110200
94908KDBQ DBQ20050626065511206/26/05 06:55:31  5-MIN KDBQ 261255Z 02007KT 3SM BR CLR 21/20 A3010 910 93 1900 020/07 RMK AO2 SLP188 T02110200
94908KDBQ DBQ20050626070010006/26/05 07:00:31  5-MIN KDBQ 261300Z 02007KT 2 1/2SM BR CLR 21/20 A3010  910 93 1900 010/07 RMK AO2
94908KDBQ DBQ20050626070510006/26/05 07:05:31  5-MIN KDBQ 261305Z 01007KT 2 1/2SM BR CLR 21/20 A3011  910 93 1900 010/07 RMK AO2
94908KDBQ DBQ20050626071010006/26/05 07:10:31  5-MIN KDBQ 261310Z 36008KT 2 1/2SM BR CLR 21/20 A3011  900 93 1900 360/08 RMK AO2
94908KDBQ DBQ20050626071509506/26/05 07:15:31  5-MIN KDBQ 261315Z 01007KT 2SM BR CLR 21/20 A3011 900 93 1900 010/07 RMK AO2
94908KDBQ DBQ20050626182510606/26/05 18:25:31  5-MIN KDBQ 270025Z AUTO 14007KT 5SM HZ CLR 27/21 A3002  990 69 2700 140/07 RMK AO2 TSNO
94908KDBQ DBQ20050626183010606/26/05 18:30:31  5-MIN KDBQ 270030Z AUTO 14007KT 5SM HZ CLR 27/21 A3002  990 69 2700 140/07 RMK AO2 TSNO
94908KDBQ DBQ20050626183510606/26/05 18:35:31  5-MIN KDBQ 270035Z AUTO 14006KT 4SM HZ CLR 27/22 A3002  990 71 2700 140/06 RMK AO2 TSNO
94908KDBQ DBQ20050626184010606/26/05 18:40:31  5-MIN KDBQ 270040Z AUTO 14007KT 4SM HZ CLR 27/22 A3002  990 71 2700 140/07 RMK AO2 TSNO
94908KDBQ DBQ20050626184510606/26/05 18:45:31  5-MIN KDBQ 270045Z AUTO 14006KT 4SM HZ CLR 27/22 A3002  990 71 2700 140/06 RMK AO2 TSNO
94908KDBQ DBQ20050626185012306/26/05 18:50:31  5-MIN KDBQ 270050Z AUTO 14007KT 4SM HZ CLR 27/22 A3002  990 71 2700 140/07 RMK AO2 SLP157 T02720217 TSNO
94908KDBQ DBQ20050626185512306/26/05 18:55:31  5-MIN KDBQ 270055Z AUTO 13007KT 4SM HZ CLR 27/22 A3002  990 73 2600 130/07 RMK AO2 SLP158 T02670217 TSNO
94908KDBQ DBQ20050626190010606/26/05 19:00:31  5-MIN KDBQ 270100Z AUTO 13007KT 4SM HZ CLR 27/22 A3002  990 73 2600 130/07 RMK AO2 TSNO
94908KDBQ DBQ20050626190510606/26/05 19:05:31  5-MIN KDBQ 270105Z AUTO 14008KT 4SM HZ CLR 27/22 A3002  990 73 2600 140/08 RMK AO2 TSNO
94908KDBQ DBQ20050626191010606/26/05 19:10:31  5-MIN KDBQ 270110Z AUTO 14008KT 4SM HZ CLR 27/22 A3002  990 73 2600 130/08 RMK AO2 TSNO
94908KDBQ DBQ20050626191510606/26/05 19:15:31  5-MIN KDBQ 270115Z AUTO 14007KT 4SM HZ CLR 27/22 A3002  980 73 2600 140/07 RMK AO2 TSNO
94908KDBQ DBQ20050626192010606/26/05 19:20:31  5-MIN KDBQ 270120Z AUTO 14006KT 4SM HZ CLR 27/22 A3002  980 73 2600 140/06 RMK AO2 TSNO
94908KDBQ DBQ20050626192510606/26/05 19:25:31  5-MIN KDBQ 270125Z AUTO 14007KT 4SM HZ CLR 26/22 A3002  980 76 2500 140/07 RMK AO2 TSNO
94908KDBQ DBQ20050626193010606/26/05 19:30:31  5-MIN KDBQ 270130Z AUTO 14007KT 4SM HZ CLR 26/22 A3003  980 76 2500 140/07 RMK AO2 TSNO
94908KDBQ DBQ20050626193510606/26/05 19:35:31  5-MIN KDBQ 270135Z AUTO 14006KT 4SM HZ CLR 26/22 A3002  980 76 2500 140/06 RMK AO2 TSNO
94908KDBQ DBQ20050626194010606/26/05 19:40:31  5-MIN KDBQ 270140Z AUTO 14007KT 4SM HZ CLR 26/22 A3003  980 79 2500 140/07 RMK AO2 TSNO
94908KDBQ DBQ20050626194510606/26/05 19:45:31  5-MIN KDBQ 270145Z AUTO 14007KT 4SM HZ CLR 26/22 A3003  980 79 2500 140/07 RMK AO2 TSNO
94908KDBQ DBQ20050626195012306/26/05 19:50:31  5-MIN KDBQ 270150Z AUTO 14006KT 4SM HZ CLR 26/22 A3003  980 79 2500 130/06 RMK AO2 SLP162 T02560217 TSNO
94908KDBQ DBQ20050626195512306/26/05 19:55:31  5-MIN KDBQ 270155Z AUTO 13006KT 3SM HZ CLR 25/22 A3003  980 81 2400 130/06 RMK AO2 SLP162 T02500217 TSNO
94908KDBQ DBQ20050626200010606/26/05 20:00:31  5-MIN KDBQ 270200Z AUTO 13007KT 3SM HZ CLR 25/22 A3003  980 81 2400 130/07 RMK AO2 TSNO
94908KDBQ DBQ20050626200510606/26/05 20:05:31  5-MIN KDBQ 270205Z AUTO 14007KT 4SM HZ CLR 25/22 A3003  980 81 2400 140/07 RMK AO2 TSNO
94908KDBQ DBQ20050626201010606/26/05 20:10:31  5-MIN KDBQ 270210Z AUTO 14006KT 4SM HZ CLR 25/22 A3003  970 81 2400 140/06 RMK AO2 TSNO
94908KDBQ DBQ20050626201510606/26/05 20:15:31  5-MIN KDBQ 270215Z AUTO 14006KT 5SM HZ CLR 25/22 A3003  970 81 2400 140/06 RMK AO2 TSNO
94908KDBQ DBQ20050626202010606/26/05 20:20:31  5-MIN KDBQ 270220Z AUTO 14006KT 4SM HZ CLR 24/22 A3004  970 84 2300 140/06 RMK AO2 TSNO
94908KDBQ DBQ20050626202510606/26/05 20:25:31  5-MIN KDBQ 270225Z AUTO 14006KT 4SM HZ CLR 24/22 A3004  970 84 2300 140/06 RMK AO2 TSNO
94908KDBQ DBQ20050626203010606/26/05 20:30:31  5-MIN KDBQ 270230Z AUTO 14007KT 4SM HZ CLR 24/22 A3004  970 84 2300 140/07 RMK AO2 TSNO
94908KDBQ DBQ20050626203510606/26/05 20:35:31  5-MIN KDBQ 270235Z AUTO 15007KT 5SM HZ CLR 24/22 A3004  970 84 2300 150/07 RMK AO2 TSNO
94908KDBQ DBQ20050626204010606/26/05 20:40:31  5-MIN KDBQ 270240Z AUTO 15007KT 5SM HZ CLR 25/22 A3004  970 81 2400 150/07 RMK AO2 TSNO
94908KDBQ DBQ20050626204510606/26/05 20:45:31  5-MIN KDBQ 270245Z AUTO 14006KT 5SM HZ CLR 24/22 A3004  970 84 2300 140/06 RMK AO2 TSNO
94908KDBQ DBQ20050626205012906/26/05 20:50:31  5-MIN KDBQ 270250Z AUTO 15006KT 5SM HZ CLR 24/22 A3004  960 84 2300 150/06 RMK AO2 SLP167 T02440217 58005 TSNO
94908KDBQ DBQ20050626205512906/26/05 20:55:31  5-MIN KDBQ 270255Z AUTO 15007KT 5SM HZ CLR 24/22 A3005  960 84 2300 140/07 RMK AO2 SLP168 T02440217 53009 TSNO
94908KDBQ DBQ20050626210010606/26/05 21:00:31  5-MIN KDBQ 270300Z AUTO 15008KT 5SM HZ CLR 25/21 A3005  960 79 2400 150/08 RMK AO2 TSNO
94908KDBQ DBQ20050626210510606/26/05 21:05:31  5-MIN KDBQ 270305Z AUTO 16007KT 5SM HZ CLR 25/21 A3005  960 79 2400 150/07 RMK AO2 TSNO
94908KDBQ DBQ20050626211010606/26/05 21:10:31  5-MIN KDBQ 270310Z AUTO 15007KT 5SM HZ CLR 25/21 A3005  960 76 2400 150/07 RMK AO2 TSNO
94908KDBQ DBQ20050626211510606/26/05 21:15:31  5-MIN KDBQ 270315Z AUTO 15006KT 5SM HZ CLR 25/21 A3005  960 79 2400 150/06 RMK AO2 TSNO
94908KDBQ DBQ20050626212010606/26/05 21:20:31  5-MIN KDBQ 270320Z AUTO 15007KT 5SM HZ CLR 25/21 A3005  960 79 2400 150/07 RMK AO2 TSNO
94908KDBQ DBQ20050626212510606/26/05 21:25:31  5-MIN KDBQ 270325Z AUTO 15006KT 5SM HZ CLR 24/21 A3005  960 81 2300 150/06 RMK AO2 TSNO
94908KDBQ DBQ20050626213010606/26/05 21:30:31  5-MIN KDBQ 270330Z AUTO 15007KT 5SM HZ CLR 24/21 A3005  960 78 2300 150/07 RMK AO2 TSNO
94908KDBQ DBQ20050626213510606/26/05 21:35:31  5-MIN KDBQ 270335Z AUTO 15007KT 5SM HZ CLR 24/21 A3005  960 78 2300 150/07 RMK AO2 TSNO
94908KDBQ DBQ20050626214010606/26/05 21:40:31  5-MIN KDBQ 270340Z AUTO 15008KT 5SM HZ CLR 24/21 A3005  960 78 2300 150/08 RMK AO2 TSNO
94908KDBQ DBQ20050626214510606/26/05 21:45:31  5-MIN KDBQ 270345Z AUTO 15008KT 5SM HZ CLR 25/21 A3005  960 76 2400 150/08 RMK AO2 TSNO
94908KDBQ DBQ20050626215012306/26/05 21:50:31  5-MIN KDBQ 270350Z AUTO 15010KT 5SM HZ CLR 25/21 A3005  960 76 2400 150/10 RMK AO2 SLP170 T02500206 TSNO
94908KDBQ DBQ20050626215512306/26/05 21:55:31  5-MIN KDBQ 270355Z AUTO 15010KT 5SM HZ CLR 25/21 A3005  960 76 2400 150/10 RMK AO2 SLP169 T02500206 TSNO
94908KDBQ DBQ20050626220010606/26/05 22:00:31  5-MIN KDBQ 270400Z AUTO 15009KT 5SM HZ CLR 25/21 A3005  950 76 2400 150/09 RMK AO2 TSNO
94908KDBQ DBQ20050626220510606/26/05 22:05:31  5-MIN KDBQ 270405Z AUTO 15009KT 5SM HZ CLR 24/21 A3005  960 78 2300 150/09 RMK AO2 TSNO
94908KDBQ DBQ20050626221010606/26/05 22:10:31  5-MIN KDBQ 270410Z AUTO 15009KT 5SM HZ CLR 24/21 A3005  960 78 2300 150/09 RMK AO2 TSNO
94908KDBQ DBQ20050626221510606/26/05 22:15:31  5-MIN KDBQ 270415Z AUTO 16008KT 5SM HZ CLR 24/21 A3005  950 78 2300 160/08 RMK AO2 TSNO
94908KDBQ DBQ20050626222010606/26/05 22:20:31  5-MIN KDBQ 270420Z AUTO 16009KT 5SM HZ CLR 24/21 A3005  960 78 2300 160/09 RMK AO2 TSNO
94908KDBQ DBQ20050626222510606/26/05 22:25:31  5-MIN KDBQ 270425Z AUTO 16009KT 5SM HZ CLR 24/21 A3005  950 78 2300 160/09 RMK AO2 TSNO
94908KDBQ DBQ20050626223010606/26/05 22:30:31  5-MIN KDBQ 270430Z AUTO 16009KT 5SM HZ CLR 24/21 A3005  960 78 2300 160/09 RMK AO2 TSNO
94908KDBQ DBQ20050626223510606/26/05 22:35:31  5-MIN KDBQ 270435Z AUTO 16009KT 5SM HZ CLR 24/21 A3005  960 78 2300 160/09 RMK AO2 TSNO
94908KDBQ DBQ20050626224010606/26/05 22:40:31  5-MIN KDBQ 270440Z AUTO 16009KT 5SM HZ CLR 24/20 A3005  960 76 2300 160/09 RMK AO2 TSNO
94908KDBQ DBQ20050626224510606/26/05 22:45:31  5-MIN KDBQ 270445Z AUTO 16009KT 5SM HZ CLR 25/20 A3005  960 73 2400 160/09 RMK AO2 TSNO
94908KDBQ DBQ20050626225012306/26/05 22:50:31  5-MIN KDBQ 270450Z AUTO 17009KT 5SM HZ CLR 24/20 A3005  960 76 2300 160/09 RMK AO2 SLP169 T02440200 TSNO
94908KDBQ DBQ20050626225512306/26/05 22:55:31  5-MIN KDBQ 270455Z AUTO 16009KT 5SM HZ CLR 24/20 A3005  960 76 2300 160/09 RMK AO2 SLP169 T02440200 TSNO
94908KDBQ DBQ20050626230010606/26/05 23:00:31  5-MIN KDBQ 270500Z AUTO 16008KT 5SM HZ CLR 24/20 A3005  960 76 2300 160/08 RMK AO2 TSNO
94908KDBQ DBQ20050626230510606/26/05 23:05:31  5-MIN KDBQ 270505Z AUTO 16008KT 5SM HZ CLR 24/20 A3005  960 76 2300 160/08 RMK AO2 TSNO
94908KDBQ DBQ20050626231010606/26/05 23:10:31  5-MIN KDBQ 270510Z AUTO 16009KT 5SM HZ CLR 24/20 A3005  960 76 2300 160/09 RMK AO2 TSNO
94908KDBQ DBQ20050626231510606/26/05 23:15:31  5-MIN KDBQ 270515Z AUTO 17009KT 5SM HZ CLR 24/20 A3005  960 76 2300 160/09 RMK AO2 TSNO
94908KDBQ DBQ20050626232010606/26/05 23:20:31  5-MIN KDBQ 270520Z AUTO 17009KT 5SM HZ CLR 24/20 A3005  960 78 2300 170/09 RMK AO2 TSNO
94908KDBQ DBQ20050626232510606/26/05 23:25:31  5-MIN KDBQ 270525Z AUTO 17009KT 5SM HZ CLR 24/20 A3005  960 78 2300 160/09 RMK AO2 TSNO
94908KDBQ DBQ20050626233010606/26/05 23:30:31  5-MIN KDBQ 270530Z AUTO 17010KT 5SM HZ CLR 24/20 A3005  960 78 2300 160/10 RMK AO2 TSNO
94908KDBQ DBQ20050626233510606/26/05 23:35:31  5-MIN KDBQ 270535Z AUTO 17010KT 5SM HZ CLR 24/20 A3005  960 78 2300 170/10 RMK AO2 TSNO
94908KDBQ DBQ20050626234010606/26/05 23:40:31  5-MIN KDBQ 270540Z AUTO 17009KT 5SM HZ CLR 24/20 A3004  960 78 2300 160/09 RMK AO2 TSNO
94908KDBQ DBQ20050626234510606/26/05 23:45:31  5-MIN KDBQ 270545Z AUTO 17009KT 5SM HZ CLR 24/20 A3004  970 78 2300 160/09 RMK AO2 TSNO
94908KDBQ DBQ20050626235015206/26/05 23:50:31  5-MIN KDBQ 270550Z AUTO 17009KT 4SM HZ CLR 24/20 A3004  970 78 2300 170/09 RMK AO2 SLP165 T02390200 10283 20239 403060206 53009  TSNO
94908KDBQ DBQ20050626235515206/26/05 23:55:31  5-MIN KDBQ 270555Z AUTO 17009KT 4SM HZ CLR 23/20 A3004  970 81 2200 170/09 RMK AO2 SLP165 T02330200 10283 20233 403060206 58002  TSNO
94908KDBQ DBQ20050627000010606/27/05 00:00:38  5-MIN KDBQ 270600Z AUTO 17009KT 4SM HZ CLR 23/19 A3004  970 78 2200 170/09 RMK AO2 TSNO
94908KDBQ DBQ20050627000510606/27/05 00:05:31  5-MIN KDBQ 270605Z AUTO 18008KT 4SM HZ CLR 23/19 A3004  970 78 2200 170/08 RMK AO2 TSNO
94908KDBQ DBQ20050627001010606/27/05 00:10:31  5-MIN KDBQ 270610Z AUTO 18008KT 4SM HZ CLR 23/19 A3004  970 78 2200 180/08 RMK AO2 TSNO
94908KDBQ DBQ20050627001510606/27/05 00:15:32  5-MIN KDBQ 270615Z AUTO 19006KT 4SM HZ CLR 23/19 A3004  970 81 2100 190/06 RMK AO2 TSNO
94908KDBQ DBQ20050627002010606/27/05 00:20:31  5-MIN KDBQ 270620Z AUTO 19005KT 4SM HZ CLR 22/19 A3004  970 84 2100 190/05 RMK AO2 TSNO
94908KDBQ DBQ20050627002510606/27/05 00:25:31  5-MIN KDBQ 270625Z AUTO 18006KT 4SM HZ CLR 22/19 A3004  970 84 2100 170/06 RMK AO2 TSNO
94908KDBQ DBQ20050627003010606/27/05 00:30:31  5-MIN KDBQ 270630Z AUTO 17007KT 4SM HZ CLR 22/19 A3004  970 84 2100 170/07 RMK AO2 TSNO
94908KDBQ DBQ20050627003510606/27/05 00:35:31  5-MIN KDBQ 270635Z AUTO 17007KT 4SM HZ CLR 23/19 A3004  970 81 2100 170/07 RMK AO2 TSNO
94908KDBQ DBQ20050627004010606/27/05 00:40:31  5-MIN KDBQ 270640Z AUTO 18006KT 4SM HZ CLR 22/19 A3004  970 84 2100 180/06 RMK AO2 TSNO
94908KDBQ DBQ20050627004510606/27/05 00:45:31  5-MIN KDBQ 270645Z AUTO 19006KT 4SM BR CLR 22/19 A3004  970 87 2000 180/06 RMK AO2 TSNO
94908KDBQ DBQ20050627005012306/27/05 00:50:31  5-MIN KDBQ 270650Z AUTO 18007KT 4SM HZ CLR 22/19 A3004  970 81 2100 180/07 RMK AO2 SLP166 T02220189 TSNO
94908KDBQ DBQ20050627005512306/27/05 00:55:31  5-MIN KDBQ 270655Z AUTO 18008KT 4SM HZ CLR 22/19 A3004  970 81 2100 170/08 RMK AO2 SLP166 T02220189 TSNO
94908KDBQ DBQ20050627010010606/27/05 01:00:31  5-MIN KDBQ 270700Z AUTO 17008KT 4SM HZ CLR 22/19 A3004  970 81 2100 170/08 RMK AO2 TSNO
94908KDBQ DBQ20050627010510606/27/05 01:05:31  5-MIN KDBQ 270705Z AUTO 17007KT 4SM HZ CLR 22/19 A3004  970 81 2100 170/07 RMK AO2 TSNO
94908KDBQ DBQ20050627011010606/27/05 01:10:31  5-MIN KDBQ 270710Z AUTO 16007KT 4SM HZ CLR 22/19 A3004  970 81 2100 160/07 RMK AO2 TSNO
94908KDBQ DBQ20050627011510606/27/05 01:15:31  5-MIN KDBQ 270715Z AUTO 16007KT 4SM HZ CLR 22/19 A3004  970 81 2100 160/07 RMK AO2 TSNO
94908KDBQ DBQ20050627012010606/27/05 01:20:31  5-MIN KDBQ 270720Z AUTO 17007KT 4SM HZ CLR 22/19 A3004  970 81 2100 170/07 RMK AO2 TSNO
94908KDBQ DBQ20050627012510606/27/05 01:25:31  5-MIN KDBQ 270725Z AUTO 17007KT 4SM HZ CLR 22/19 A3004  970 81 2100 170/07 RMK AO2 TSNO
94908KDBQ DBQ20050627013010606/27/05 01:30:31  5-MIN KDBQ 270730Z AUTO 17007KT 4SM HZ CLR 22/19 A3004  970 81 2100 170/07 RMK AO2 TSNO
94908KDBQ DBQ20050627013510606/27/05 01:35:31  5-MIN KDBQ 270735Z AUTO 17007KT 4SM HZ CLR 22/19 A3004  970 81 2100 170/07 RMK AO2 TSNO
94908KDBQ DBQ20050627014010606/27/05 01:40:31  5-MIN KDBQ 270740Z AUTO 17008KT 4SM HZ CLR 22/19 A3004  970 81 2100 170/08 RMK AO2 TSNO
94908KDBQ DBQ20050627014510606/27/05 01:45:31  5-MIN KDBQ 270745Z AUTO 17008KT 4SM HZ CLR 22/19 A3004  970 81 2100 170/08 RMK AO2 TSNO
94908KDBQ DBQ20050627015012306/27/05 01:50:31  5-MIN KDBQ 270750Z AUTO 17007KT 4SM HZ CLR 22/19 A3004  970 81 2100 170/07 RMK AO2 SLP164 T02220189 TSNO
94908KDBQ DBQ20050627015512306/27/05 01:55:31  5-MIN KDBQ 270755Z AUTO 17007KT 4SM HZ CLR 22/19 A3004  970 81 2100 170/07 RMK AO2 SLP164 T02220189 TSNO
94908KDBQ DBQ20050627020010606/27/05 02:00:31  5-MIN KDBQ 270800Z AUTO 18006KT 4SM HZ CLR 22/19 A3004  970 81 2100 180/06 RMK AO2 TSNO
94908KDBQ DBQ20050627020510606/27/05 02:05:31  5-MIN KDBQ 270805Z AUTO 17007KT 4SM HZ CLR 22/18 A3004  970 81 2000 170/07 RMK AO2 TSNO
94908KDBQ DBQ20050627021010606/27/05 02:10:31  5-MIN KDBQ 270810Z AUTO 17007KT 4SM HZ CLR 22/18 A3004  970 81 2000 170/07 RMK AO2 TSNO
94908KDBQ DBQ20050627021510606/27/05 02:15:31  5-MIN KDBQ 270815Z AUTO 17007KT 4SM HZ CLR 22/18 A3004  970 81 2000 170/07 RMK AO2 TSNO
94908KDBQ DBQ20050627022010606/27/05 02:20:31  5-MIN KDBQ 270820Z AUTO 17007KT 4SM HZ CLR 22/18 A3004  970 81 2000 170/07 RMK AO2 TSNO
94908KDBQ DBQ20050627022510606/27/05 02:25:31  5-MIN KDBQ 270825Z AUTO 17007KT 4SM HZ CLR 22/18 A3004  970 81 2000 170/07 RMK AO2 TSNO
94908KDBQ DBQ20050627023010606/27/05 02:30:31  5-MIN KDBQ 270830Z AUTO 18006KT 4SM HZ CLR 22/18 A3004  970 81 2000 180/06 RMK AO2 TSNO
94908KDBQ DBQ20050627023510606/27/05 02:35:31  5-MIN KDBQ 270835Z AUTO 20004KT 3SM HZ CLR 21/18 A3004  970 84 1900 200/04 RMK AO2 TSNO
94908KDBQ DBQ20050627024010606/27/05 02:40:31  5-MIN KDBQ 270840Z AUTO 16006KT 3SM HZ CLR 21/18 A3004  970 84 1900 160/06 RMK AO2 TSNO
94908KDBQ DBQ20050627024510606/27/05 02:45:31  5-MIN KDBQ 270845Z AUTO 18006KT 3SM HZ CLR 22/18 A3004  970 81 2000 180/06 RMK AO2 TSNO
94908KDBQ DBQ20050627025012906/27/05 02:50:31  5-MIN KDBQ 270850Z AUTO 17007KT 4SM HZ CLR 22/18 A3004  960 81 2000 170/07 RMK AO2 SLP165 T02170183 58002 TSNO
94908KDBQ DBQ20050627025512906/27/05 02:55:31  5-MIN KDBQ 270855Z AUTO 18006KT 4SM HZ CLR 22/18 A3005  960 81 2000 180/06 RMK AO2 SLP166 T02170183 53002 TSNO
94908KDBQ DBQ20050627030010606/27/05 03:00:31  5-MIN KDBQ 270900Z AUTO 17006KT 4SM HZ CLR 22/18 A3005  960 81 2000 170/06 RMK AO2 TSNO
94908KDBQ DBQ20050627030510606/27/05 03:05:31  5-MIN KDBQ 270905Z AUTO 17007KT 3SM HZ CLR 22/18 A3005  960 81 2000 170/07 RMK AO2 TSNO
94908KDBQ DBQ20050627031010606/27/05 03:10:31  5-MIN KDBQ 270910Z AUTO 17007KT 4SM HZ CLR 22/18 A3004  960 81 2000 170/07 RMK AO2 TSNO
94908KDBQ DBQ20050627031510606/27/05 03:15:31  5-MIN KDBQ 270915Z AUTO 16008KT 4SM HZ CLR 22/18 A3004  960 81 2000 160/08 RMK AO2 TSNO
94908KDBQ DBQ20050627032010606/27/05 03:20:31  5-MIN KDBQ 270920Z AUTO 17007KT 4SM HZ CLR 22/18 A3004  970 81 2000 170/07 RMK AO2 TSNO
94908KDBQ DBQ20050627032510606/27/05 03:25:31  5-MIN KDBQ 270925Z AUTO 18006KT 4SM HZ CLR 22/18 A3004  960 81 2000 170/06 RMK AO2 TSNO
94908KDBQ DBQ20050627033010606/27/05 03:30:31  5-MIN KDBQ 270930Z AUTO 18007KT 4SM HZ CLR 22/18 A3004  960 81 2000 180/07 RMK AO2 TSNO
94908KDBQ DBQ20050627033510606/27/05 03:35:31  5-MIN KDBQ 270935Z AUTO 18006KT 4SM HZ CLR 22/18 A3004  960 81 2000 180/06 RMK AO2 TSNO
94908KDBQ DBQ20050627034010606/27/05 03:40:31  5-MIN KDBQ 270940Z AUTO 18007KT 4SM HZ CLR 22/18 A3004  970 81 2000 180/07 RMK AO2 TSNO
94908KDBQ DBQ20050627034510606/27/05 03:45:31  5-MIN KDBQ 270945Z AUTO 17008KT 4SM HZ CLR 22/18 A3004  970 81 2000 170/08 RMK AO2 TSNO
94908KDBQ DBQ20050627035012306/27/05 03:50:31  5-MIN KDBQ 270950Z AUTO 17008KT 4SM HZ CLR 22/18 A3004  970 81 2000 170/08 RMK AO2 SLP165 T02170183 TSNO
94908KDBQ DBQ20050627035512306/27/05 03:55:31  5-MIN KDBQ 270955Z AUTO 17008KT 4SM HZ CLR 22/18 A3004  960 78 2100 170/08 RMK AO2 SLP165 T02220183 TSNO
94908KDBQ DBQ20050627040010606/27/05 04:00:31  5-MIN KDBQ 271000Z AUTO 17009KT 4SM HZ CLR 22/18 A3005  960 78 2100 170/09 RMK AO2 TSNO
94908KDBQ DBQ20050627040510606/27/05 04:05:31  5-MIN KDBQ 271005Z AUTO 17008KT 4SM HZ CLR 22/18 A3005  960 78 2100 170/08 RMK AO2 TSNO
94908KDBQ DBQ20050627041010606/27/05 04:10:31  5-MIN KDBQ 271010Z AUTO 17007KT 4SM HZ CLR 22/18 A3005  960 81 2000 170/07 RMK AO2 TSNO
94908KDBQ DBQ20050627041510606/27/05 04:15:31  5-MIN KDBQ 271015Z AUTO 16007KT 4SM HZ CLR 22/18 A3005  960 81 2000 160/07 RMK AO2 TSNO
94908KDBQ DBQ20050627042010606/27/05 04:20:31  5-MIN KDBQ 271020Z AUTO 17007KT 4SM HZ CLR 22/18 A3005  960 81 2000 170/07 RMK AO2 TSNO
94908KDBQ DBQ20050627042510606/27/05 04:25:31  5-MIN KDBQ 271025Z AUTO 16007KT 3SM HZ CLR 22/18 A3005  960 81 2000 160/07 RMK AO2 TSNO
94908KDBQ DBQ20050627043011006/27/05 04:30:31  5-MIN KDBQ 271030Z AUTO 17007KT 2 1/2SM HZ CLR 22/18  A3005 960 81 2000 170/07 RMK AO2 TSNO
94908KDBQ DBQ20050627043511006/27/05 04:35:31  5-MIN KDBQ 271035Z AUTO 17007KT 2 1/2SM HZ CLR 22/18  A3005 960 81 2000 170/07 RMK AO2 TSNO
94908KDBQ DBQ20050627044011206/27/05 04:40:31  5-MIN KDBQ 271040Z AUTO 17008KT 2 1/2SM HZ FEW060 22/18 A3005 960 81 2000 170/08 RMK AO2 TSNO
94908KDBQ DBQ20050627044511206/27/05 04:45:31  5-MIN KDBQ 271045Z AUTO 17007KT 2 1/2SM HZ SCT060 22/18 A3005 960 81 2000 170/07 RMK AO2 TSNO
94908KDBQ DBQ20050627045012906/27/05 04:50:31  5-MIN KDBQ 271050Z AUTO 17007KT 2 1/2SM HZ FEW065 22/18 A3005 960 81 2000 170/07 RMK AO2 SLP168 T02170183 TSNO
94908KDBQ DBQ20050627045511906/27/05 04:55:31  5-MIN KDBQ 271055Z 17008KT 2 1/2SM HZ FEW065 22/18 A3005 960 78 2100 170/08 RMK AO2 SLP168 T02220183
94908KDBQ DBQ20050627050010206/27/05 05:00:31  5-MIN KDBQ 271100Z 17007KT 2 1/2SM HZ FEW065 22/18 A3005 960 78 2100 170/07 RMK AO2
94908KDBQ DBQ20050627050509806/27/05 05:05:31  5-MIN KDBQ 271105Z 17007KT 3SM HZ FEW065 22/18 A3005 960 78 2100 170/07 RMK AO2
94908KDBQ DBQ20050627051009806/27/05 05:10:31  5-MIN KDBQ 271110Z 17007KT 3SM HZ FEW065 22/18 A3005 960 81 2000 170/07 RMK AO2
94908KDBQ DBQ20050627051510006/27/05 05:15:31  5-MIN KDBQ 271115Z 17007KT 2 1/2SM HZ CLR 22/18 A3005  960 78 2100 170/07 RMK AO2
94908KDBQ DBQ20050627052009506/27/05 05:20:31  5-MIN KDBQ 271120Z 20006KT 3SM HZ CLR 22/18 A3005 960 78 2100 200/06 RMK AO2
94908KDBQ DBQ20050627052510006/27/05 05:25:31  5-MIN KDBQ 271125Z 20004KT 2 1/2SM HZ CLR 22/18 A3004  960 81 2000 190/04 RMK AO2
94908KDBQ DBQ20050627053010006/27/05 05:30:31  5-MIN KDBQ 271130Z 20005KT 2 1/2SM HZ CLR 22/18 A3004  960 81 2000 200/05 RMK AO2
94908KDBQ DBQ20050627053510006/27/05 05:35:31  5-MIN KDBQ 271135Z 22005KT 2 1/2SM HZ CLR 22/18 A3005  960 81 2000 220/05 RMK AO2
94908KDBQ DBQ20050627054010006/27/05 05:40:31  5-MIN KDBQ 271140Z 23004KT 2 1/2SM HZ CLR 22/18 A3004  960 81 2000 230/04 RMK AO2
94908KDBQ DBQ20050627054510006/27/05 05:45:31  5-MIN KDBQ 271145Z 21004KT 2 1/2SM HZ CLR 22/18 A3005  960 78 2100 210/04 RMK AO2
94908KDBQ DBQ20050627055013506/27/05 05:50:31  5-MIN KDBQ 271150Z 23004KT 2 1/2SM HZ CLR 22/19 A3005  960 81 2100 230/04 RMK AO2 SLP167 T02220189 10233 20206 53002
94908KDBQ DBQ20050627055513506/27/05 05:55:31  5-MIN KDBQ 271155Z 23005KT 2 1/2SM HZ CLR 22/19 A3005  960 81 2100 220/05 RMK AO2 SLP167 T02220189 10233 20206 50000
94908KDBQ DBQ20050627060009506/27/05 06:00:31  5-MIN KDBQ 271200Z 20006KT 3SM HZ CLR 23/19 A3004 960 78 2100 200/06 RMK AO2
94908KDBQ DBQ20050627060509506/27/05 06:05:31  5-MIN KDBQ 271205Z 21006KT 3SM HZ CLR 23/19 A3004 970 78 2100 210/06 RMK AO2
94908KDBQ DBQ20050627061009506/27/05 06:10:31  5-MIN KDBQ 271210Z 22006KT 3SM HZ CLR 23/19 A3004 970 81 2100 220/06 RMK AO2
94908KDBQ DBQ20050627061509506/27/05 06:15:31  5-MIN KDBQ 271215Z 20008KT 3SM HZ CLR 23/19 A3004 960 78 2200 200/08 RMK AO2
94908KDBQ DBQ20050627062009506/27/05 06:20:31  5-MIN KDBQ 271220Z 20008KT 3SM HZ CLR 24/19 A3004 960 73 2300 190/08 RMK AO2
94908KDBQ DBQ20050627062509506/27/05 06:25:31  5-MIN KDBQ 271225Z 19008KT 3SM HZ CLR 24/19 A3004 970 73 2300 190/08 RMK AO2
94908KDBQ DBQ20050627063009506/27/05 06:30:31  5-MIN KDBQ 271230Z 20007KT 3SM HZ CLR 24/19 A3004 970 73 2300 190/07 RMK AO2
94908KDBQ DBQ20050627063509506/27/05 06:35:31  5-MIN KDBQ 271235Z 20006KT 3SM HZ CLR 24/19 A3004 970 76 2300 200/06 RMK AO2
94908KDBQ DBQ20050627064009506/27/05 06:40:31  5-MIN KDBQ 271240Z 22007KT 3SM HZ CLR 24/19 A3004 960 76 2300 220/07 RMK AO2
94908KDBQ DBQ20050627064509506/27/05 06:45:31  5-MIN KDBQ 271245Z 21006KT 3SM HZ CLR 24/19 A3004 960 73 2300 210/06 RMK AO2
94908KDBQ DBQ20050627065011206/27/05 06:50:31  5-MIN KDBQ 271250Z 22006KT 3SM HZ CLR 24/20 A3004 960 76 2300 220/06 RMK AO2 SLP165 T02440200
94908KDBQ DBQ20050627065511206/27/05 06:55:31  5-MIN KDBQ 271255Z 20008KT 3SM HZ CLR 24/19 A3004 960 73 2300 200/08 RMK AO2 SLP166 T02440194
94908KDBQ DBQ20050627070009506/27/05 07:00:31  5-MIN KDBQ 271300Z 19008KT 3SM HZ CLR 24/20 A3005 960 76 2300 190/08 RMK AO2
94908KDBQ DBQ20050627070509506/27/05 07:05:31  5-MIN KDBQ 271305Z 19008KT 3SM HZ CLR 24/20 A3004 960 76 2300 190/08 RMK AO2
94908KDBQ DBQ20050627071009506/27/05 07:10:31  5-MIN KDBQ 271310Z 19009KT 3SM HZ CLR 24/20 A3005 960 76 2300 190/09 RMK AO2
94908KDBQ DBQ20050627071509506/27/05 07:15:31  5-MIN KDBQ 271315Z 19009KT 3SM HZ CLR 24/20 A3005 960 76 2300 190/09 RMK AO2
94908KDBQ DBQ20050627072009806/27/05 07:20:31  5-MIN KDBQ 271320Z 19008KT 3SM HZ FEW060 25/20 A3004 960 73 2400 190/08 RMK AO2
94908KDBQ DBQ20050627072509806/27/05 07:25:31  5-MIN KDBQ 271325Z 19009KT 3SM HZ FEW060 25/20 A3005 960 73 2400 190/09 RMK AO2
94908KDBQ DBQ20050627073009806/27/05 07:30:31  5-MIN KDBQ 271330Z 19010KT 3SM HZ FEW060 25/20 A3005 960 73 2400 190/10 RMK AO2
94908KDBQ DBQ20050627073509806/27/05 07:35:31  5-MIN KDBQ 271335Z 19011KT 3SM HZ FEW060 25/20 A3005 960 73 2400 190/11 RMK AO2
94908KDBQ DBQ20050627074009806/27/05 07:40:31  5-MIN KDBQ 271340Z 19009KT 3SM HZ SCT060 26/20 A3005 960 71 2400 190/09 RMK AO2
94908KDBQ DBQ20050627074509806/27/05 07:45:31  5-MIN KDBQ 271345Z 19010KT 3SM HZ BKN060 25/20 A3005 960 73 2400 190/10 RMK AO2
94908KDBQ DBQ20050627075011506/27/05 07:50:31  5-MIN KDBQ 271350Z 20010KT 3SM HZ BKN060 26/20 A3005 960 71 2400 200/10 RMK AO2 SLP169 T02560200
94908KDBQ DBQ20050627075511506/27/05 07:55:31  5-MIN KDBQ 271355Z 21009KT 3SM HZ BKN060 26/21 A3005 960 73 2400 210/09 RMK AO2 SLP168 T02560206
94908KDBQ DBQ20050627080009806/27/05 08:00:31  5-MIN KDBQ 271400Z 21009KT 3SM HZ BKN065 26/21 A3005 960 73 2400 210/09 RMK AO2
94908KDBQ DBQ20050627080509806/27/05 08:05:31  5-MIN KDBQ 271405Z 20009KT 3SM HZ SCT060 26/21 A3005 960 73 2400 200/09 RMK AO2
94908KDBQ DBQ20050627081009806/27/05 08:10:31  5-MIN KDBQ 271410Z 20008KT 3SM HZ SCT065 26/21 A3005 960 71 2500 200/08 RMK AO2
94908KDBQ DBQ20050627081509806/27/05 08:15:31  5-MIN KDBQ 271415Z 19008KT 3SM HZ FEW065 26/21 A3005 960 73 2500 190/08 RMK AO2
94908KDBQ DBQ20050627082009806/27/05 08:20:31  5-MIN KDBQ 271420Z 19009KT 3SM HZ FEW065 27/21 A3005 960 71 2600 190/09 RMK AO2
94908KDBQ DBQ20050627082509806/27/05 08:25:31  5-MIN KDBQ 271425Z 19008KT 3SM HZ FEW070 27/21 A3005 960 71 2600 190/08 RMK AO2
94908KDBQ DBQ20050627083009806/27/05 08:30:31  5-MIN KDBQ 271430Z 19009KT 3SM HZ SCT070 27/21 A3005 960 71 2600 190/09 RMK AO2
94908KDBQ DBQ20050627083509806/27/05 08:35:31  5-MIN KDBQ 271435Z 19008KT 4SM HZ FEW070 27/21 A3005 960 71 2600 190/08 RMK AO2
94908KDBQ DBQ20050627084009806/27/05 08:40:31  5-MIN KDBQ 271440Z 18008KT 4SM HZ FEW070 27/21 A3005 960 71 2600 180/08 RMK AO2
94908KDBQ DBQ20050627084509806/27/05 08:45:31  5-MIN KDBQ 271445Z 19007KT 4SM HZ FEW070 27/21 A3005 960 71 2600 190/07 RMK AO2
94908KDBQ DBQ20050627085012106/27/05 08:50:31  5-MIN KDBQ 271450Z 18008KT 4SM HZ FEW070 27/22 A3005 960 71 2600 180/08 RMK AO2 SLP167 T02720217 50000
94908KDBQ DBQ20050627085512106/27/05 08:55:31  5-MIN KDBQ 271455Z 19009KT 4SM HZ FEW070 27/21 A3005 960 69 2600 190/09 RMK AO2 SLP168 T02720211 53002
94908KDBQ DBQ20050627090009506/27/05 09:00:31  5-MIN KDBQ 271500Z 19008KT 4SM HZ CLR 27/21 A3005 960 69 2600 190/08 RMK AO2
94908KDBQ DBQ20050627090509506/27/05 09:05:31  5-MIN KDBQ 271505Z 19008KT 4SM HZ CLR 27/22 A3005 950 71 2600 190/08 RMK AO2
94908KDBQ DBQ20050627091009506/27/05 09:10:31  5-MIN KDBQ 271510Z 18007KT 4SM HZ CLR 27/22 A3005 950 71 2600 180/07 RMK AO2
94908KDBQ DBQ20050627091509506/27/05 09:15:31  5-MIN KDBQ 271515Z 19008KT 4SM HZ CLR 28/22 A3005 950 71 2700 190/08 RMK AO2
94908KDBQ DBQ20050627092009506/27/05 09:20:31  5-MIN KDBQ 271520Z 20008KT 4SM HZ CLR 28/22 A3006 950 66 2700 200/08 RMK AO2
94908KDBQ DBQ20050627092509506/27/05 09:25:31  5-MIN KDBQ 271525Z 20007KT 4SM HZ CLR 28/22 A3006 950 66 2700 200/07 RMK AO2
94908KDBQ DBQ20050627093009506/27/05 09:30:31  5-MIN KDBQ 271530Z 18007KT 4SM HZ CLR 28/22 A3006 950 66 2700 180/07 RMK AO2
94908KDBQ DBQ20050627093509506/27/05 09:35:31  5-MIN KDBQ 271535Z 19008KT 4SM HZ CLR 28/22 A3006 950 66 2700 190/08 RMK AO2
94908KDBQ DBQ20050627094009506/27/05 09:40:31  5-MIN KDBQ 271540Z 20008KT 4SM HZ CLR 29/22 A3006 950 67 2800 200/08 RMK AO2
94908KDBQ DBQ20050627094509506/27/05 09:45:31  5-MIN KDBQ 271545Z 18009KT 4SM HZ CLR 29/22 A3006 950 67 2800 180/09 RMK AO2
94908KDBQ DBQ20050627095011206/27/05 09:50:31  5-MIN KDBQ 271550Z 19008KT 4SM HZ CLR 29/22 A3006 950 64 2800 190/08 RMK AO2 SLP169 T02890217
94908KDBQ DBQ20050627095511206/27/05 09:55:31  5-MIN KDBQ 271555Z 17009KT 4SM HZ CLR 29/22 A3006 950 67 2800 170/09 RMK AO2 SLP169 T02890222
94908KDBQ DBQ20050627100009506/27/05 10:00:31  5-MIN KDBQ 271600Z 17009KT 4SM HZ CLR 29/22 A3005 950 64 2800 170/09 RMK AO2
94908KDBQ DBQ20050627100509506/27/05 10:05:31  5-MIN KDBQ 271605Z 16007KT 4SM HZ CLR 29/22 A3005 950 64 2900 160/07 RMK AO2
94908KDBQ DBQ20050627101009506/27/05 10:10:31  5-MIN KDBQ 271610Z 17009KT 4SM HZ CLR 29/22 A3006 950 64 2900 160/09 RMK AO2
94908KDBQ DBQ20050627101509506/27/05 10:15:31  5-MIN KDBQ 271615Z 17008KT 4SM HZ CLR 29/22 A3005 950 64 2900 170/08 RMK AO2
94908KDBQ DBQ20050627102009506/27/05 10:20:31  5-MIN KDBQ 271620Z 18009KT 4SM HZ CLR 29/22 A3005 950 64 2900 180/09 RMK AO2
94908KDBQ DBQ20050627102509506/27/05 10:25:31  5-MIN KDBQ 271625Z 18009KT 4SM HZ CLR 29/21 A3005 960 60 2900 170/09 RMK AO2
94908KDBQ DBQ20050627103009506/27/05 10:30:31  5-MIN KDBQ 271630Z 19011KT 4SM HZ CLR 30/22 A3005 960 62 2900 190/11 RMK AO2
94908KDBQ DBQ20050627103509506/27/05 10:35:31  5-MIN KDBQ 271635Z 17010KT 5SM HZ CLR 30/22 A3005 960 60 2900 170/10 RMK AO2
94908KDBQ DBQ20050627104009506/27/05 10:40:31  5-MIN KDBQ 271640Z 18009KT 5SM HZ CLR 30/22 A3005 960 60 2900 180/09 RMK AO2
94908KDBQ DBQ20050627104509506/27/05 10:45:31  5-MIN KDBQ 271645Z 18010KT 5SM HZ CLR 30/22 A3005 960 60 2900 170/10 RMK AO2
94908KDBQ DBQ20050627105011206/27/05 10:50:31  5-MIN KDBQ 271650Z 18009KT 5SM HZ CLR 30/21 A3005 960 58 2900 180/09 RMK AO2 SLP167 T03000211
94908KDBQ DBQ20050627105511206/27/05 10:55:31  5-MIN KDBQ 271655Z 18010KT 5SM HZ CLR 30/22 A3005 960 60 2900 180/10 RMK AO2 SLP167 T03000217
94908KDBQ DBQ20050627110009506/27/05 11:00:31  5-MIN KDBQ 271700Z 19011KT 5SM HZ CLR 31/22 A3005 960 58 3000 190/11 RMK AO2
94908KDBQ DBQ20050627110509506/27/05 11:05:31  5-MIN KDBQ 271705Z 18009KT 5SM HZ CLR 31/22 A3005 960 58 3000 180/09 RMK AO2
94908KDBQ DBQ20050627111009506/27/05 11:10:31  5-MIN KDBQ 271710Z 19008KT 5SM HZ CLR 31/22 A3005 960 58 3000 190/08 RMK AO2
94908KDBQ DBQ20050627111509506/27/05 11:15:31  5-MIN KDBQ 271715Z 18009KT 5SM HZ CLR 31/22 A3004 970 58 3000 180/09 RMK AO2
94908KDBQ DBQ20050627112009506/27/05 11:20:31  5-MIN KDBQ 271720Z 19011KT 5SM HZ CLR 31/22 A3004 970 58 3000 190/11 RMK AO2
94908KDBQ DBQ20050627112509506/27/05 11:25:31  5-MIN KDBQ 271725Z 18010KT 5SM HZ CLR 31/22 A3004 970 58 3000 180/10 RMK AO2
94908KDBQ DBQ20050627113009506/27/05 11:30:31  5-MIN KDBQ 271730Z 19009KT 5SM HZ CLR 31/21 A3004 970 56 3000 190/09 RMK AO2
94908KDBQ DBQ20050627113509506/27/05 11:35:31  5-MIN KDBQ 271735Z 17009KT 5SM HZ CLR 31/22 A3004 970 56 3100 170/09 RMK AO2
94908KDBQ DBQ20050627114009506/27/05 11:40:31  5-MIN KDBQ 271740Z 18010KT 5SM HZ CLR 31/22 A3004 970 58 3100 180/10 RMK AO2
94908KDBQ DBQ20050627114509506/27/05 11:45:31  5-MIN KDBQ 271745Z 17010KT 5SM HZ CLR 31/22 A3004 970 58 3100 170/10 RMK AO2
94908KDBQ DBQ20050627115013006/27/05 11:50:31  5-MIN KDBQ 271750Z 19009KT 5SM HZ CLR 31/21 A3003 970 54 3100 190/09 RMK AO2 SLP161 T03110211 10311 20222 53002
94908KDBQ DBQ20050627115513006/27/05 11:55:31  5-MIN KDBQ 271755Z 18009KT 5SM HZ CLR 31/21 A3003 980 54 3100 180/09 RMK AO2 SLP161 T03110211 10311 20222 58007
94908KDBQ DBQ20050627120009506/27/05 12:00:31  5-MIN KDBQ 271800Z 17010KT 5SM HZ CLR 31/22 A3003 980 56 3100 170/10 RMK AO2
94908KDBQ DBQ20050627120509506/27/05 12:05:31  5-MIN KDBQ 271805Z 18011KT 5SM HZ CLR 31/21 A3003 980 54 3100 180/11 RMK AO2
94908KDBQ DBQ20050627121009506/27/05 12:10:31  5-MIN KDBQ 271810Z 18009KT 5SM HZ CLR 31/22 A3003 980 56 3100 180/09 RMK AO2
94908KDBQ DBQ20050627121509506/27/05 12:15:31  5-MIN KDBQ 271815Z 18010KT 5SM HZ CLR 31/21 A3002 980 54 3100 180/10 RMK AO2
94908KDBQ DBQ20050627122009506/27/05 12:20:31  5-MIN KDBQ 271820Z 17008KT 5SM HZ CLR 31/21 A3002 980 54 3100 170/08 RMK AO2
94908KDBQ DBQ20050627122509506/27/05 12:25:31  5-MIN KDBQ 271825Z 19009KT 5SM HZ CLR 31/21 A3002 990 54 3100 190/09 RMK AO2
94908KDBQ DBQ20050627123009506/27/05 12:30:31  5-MIN KDBQ 271830Z 17007KT 5SM HZ CLR 32/21 A3002 990 53 3100 160/07 RMK AO2
94908KDBQ DBQ20050627123509506/27/05 12:35:31  5-MIN KDBQ 271835Z 18011KT 5SM HZ CLR 32/22 A3002 990 55 3200 180/11 RMK AO2
94908KDBQ DBQ20050627124009506/27/05 12:40:31  5-MIN KDBQ 271840Z 17010KT 5SM HZ CLR 31/21 A3002 990 53 3100 170/10 RMK AO2
94908KDBQ DBQ20050627124509506/27/05 12:45:31  5-MIN KDBQ 271845Z 19010KT 5SM HZ CLR 31/21 A3001 990 53 3100 190/10 RMK AO2
94908KDBQ DBQ20050627125011206/27/05 12:50:31  5-MIN KDBQ 271850Z 18010KT 5SM HZ CLR 31/21 A3001 990 53 3100 180/10 RMK AO2 SLP155 T03110206
94908KDBQ DBQ20050627125511506/27/05 12:55:31  5-MIN KDBQ 271855Z 17011KT 5SM HZ FEW050 32/21 A3001 990 51 3200 170/11 RMK AO2 SLP154 T03170206
94908KDBQ DBQ20050627130010006/27/05 13:00:31  5-MIN KDBQ 271900Z 18010KT 5SM HZ FEW050 32/20 A3001  1000 49 3200 180/10 RMK AO2
94908KDBQ DBQ20050627130509706/27/05 13:05:31  5-MIN KDBQ 271905Z 19011KT 6SM HZ CLR 32/21 A3001 1000  51 3200 190/11 RMK AO2
94908KDBQ DBQ20050627131009706/27/05 13:10:31  5-MIN KDBQ 271910Z 20012KT 6SM HZ CLR 32/21 A3001 1000  51 3200 200/12 RMK AO2
94908KDBQ DBQ20050627131509706/27/05 13:15:31  5-MIN KDBQ 271915Z 20010KT 6SM HZ CLR 32/20 A3001 1000  49 3200 200/10 RMK AO2
94908KDBQ DBQ20050627132009506/27/05 13:20:31  5-MIN KDBQ 271920Z 19010KT 6SM HZ CLR 32/20 A3001 990 49 3200 190/10 RMK AO2
94908KDBQ DBQ20050627132509706/27/05 13:25:31  5-MIN KDBQ 271925Z 18008KT 6SM HZ CLR 32/21 A3001 1000  51 3200 180/08 RMK AO2
94908KDBQ DBQ20050627133009706/27/05 13:30:31  5-MIN KDBQ 271930Z 19008KT 6SM HZ CLR 32/21 A3001 1000  53 3200 190/08 RMK AO2
94908KDBQ DBQ20050627133509706/27/05 13:35:31  5-MIN KDBQ 271935Z 18008KT 6SM HZ CLR 32/22 A3000 1000  53 3200 180/08 RMK AO2
94908KDBQ DBQ20050627134009706/27/05 13:40:31  5-MIN KDBQ 271940Z 21010KT 6SM HZ CLR 32/21 A3001 1000  49 3200 210/10 RMK AO2
94908KDBQ DBQ20050627134509706/27/05 13:45:31  5-MIN KDBQ 271945Z 19010KT 6SM HZ CLR 32/20 A3001 1000  49 3200 190/10 RMK AO2
94908KDBQ DBQ20050627135011406/27/05 13:50:31  5-MIN KDBQ 271950Z 21011KT 6SM HZ CLR 32/20 A3001 1000  48 3200 210/11 RMK AO2 SLP152 T03220200
94908KDBQ DBQ20050627135511406/27/05 13:55:31  5-MIN KDBQ 271955Z 20011KT 6SM HZ CLR 32/21 A3000 1000  49 3200 200/11 RMK AO2 SLP152 T03220206
94908KDBQ DBQ20050627140009706/27/05 14:00:31  5-MIN KDBQ 272000Z 20009KT 6SM HZ CLR 32/20 A3000 1000  49 3200 200/09 RMK AO2
94908KDBQ DBQ20050627140509706/27/05 14:05:31  5-MIN KDBQ 272005Z 20011KT 6SM HZ CLR 32/20 A3000 1000  48 3200 200/11 RMK AO2
94908KDBQ DBQ20050627141009706/27/05 14:10:31  5-MIN KDBQ 272010Z 19008KT 6SM HZ CLR 32/21 A3000 1000  51 3200 190/08 RMK AO2
94908KDBQ DBQ20050627141509706/27/05 14:15:31  5-MIN KDBQ 272015Z 19011KT 6SM HZ CLR 32/21 A3000 1010  49 3200 190/11 RMK AO2
94908KDBQ DBQ20050627142010006/27/05 14:20:31  5-MIN KDBQ 272020Z 19010KT 5SM HZ FEW055 32/21 A3000  1010 51 3200 190/10 RMK AO2
94908KDBQ DBQ20050627142510006/27/05 14:25:31  5-MIN KDBQ 272025Z 20011KT 5SM HZ FEW060 32/21 A3000  1010 51 3200 200/11 RMK AO2
94908KDBQ DBQ20050627143010006/27/05 14:30:31  5-MIN KDBQ 272030Z 20010KT 5SM HZ FEW060 32/21 A2999  1010 51 3200 200/10 RMK AO2
94908KDBQ DBQ20050627143510006/27/05 14:35:31  5-MIN KDBQ 272035Z 20011KT 5SM HZ FEW060 32/21 A2999  1010 53 3200 200/11 RMK AO2
94908KDBQ DBQ20050627144010006/27/05 14:40:31  5-MIN KDBQ 272040Z 19011KT 5SM HZ FEW055 32/21 A2999  1010 51 3200 190/11 RMK AO2
94908KDBQ DBQ20050627144510006/27/05 14:45:31  5-MIN KDBQ 272045Z 20009KT 5SM HZ FEW055 32/21 A2999  1010 49 3200 200/09 RMK AO2
94908KDBQ DBQ20050627145012306/27/05 14:50:31  5-MIN KDBQ 272050Z 18010KT 5SM HZ FEW065 32/21 A2998  1020 53 3200 180/10 RMK AO2 SLP143 T03170211 58007
94908KDBQ DBQ20050627145512006/27/05 14:55:31  5-MIN KDBQ 272055Z 18010KT 5SM HZ CLR 32/21 A2998 1020  53 3200 180/10 RMK AO2 SLP144 T03170211 58017
94908KDBQ DBQ20050627150009706/27/05 15:00:31  5-MIN KDBQ 272100Z 18011KT 5SM HZ CLR 32/21 A2998 1020  51 3200 180/11 RMK AO2
94908KDBQ DBQ20050627150509706/27/05 15:05:31  5-MIN KDBQ 272105Z 19011KT 5SM HZ CLR 32/21 A2998 1020  51 3200 190/11 RMK AO2
94908KDBQ DBQ20050627151009706/27/05 15:10:31  5-MIN KDBQ 272110Z 19009KT 5SM HZ CLR 32/21 A2998 1020  51 3200 190/09 RMK AO2
94908KDBQ DBQ20050627151509706/27/05 15:15:31  5-MIN KDBQ 272115Z 20009KT 5SM HZ CLR 32/22 A2998 1020  53 3300 200/09 RMK AO2
94908KDBQ DBQ20050627152009706/27/05 15:20:31  5-MIN KDBQ 272120Z 20011KT 5SM HZ CLR 32/21 A2998 1020  53 3200 200/11 RMK AO2
94908KDBQ DBQ20050627152509706/27/05 15:25:31  5-MIN KDBQ 272125Z 19011KT 5SM HZ CLR 32/21 A2998 1020  53 3200 190/11 RMK AO2
94908KDBQ DBQ20050627153009706/27/05 15:30:31  5-MIN KDBQ 272130Z 19010KT 5SM HZ CLR 32/21 A2998 1030  53 3200 190/10 RMK AO2
94908KDBQ DBQ20050627153509706/27/05 15:35:31  5-MIN KDBQ 272135Z 20011KT 5SM HZ CLR 32/21 A2998 1030  53 3200 200/11 RMK AO2
94908KDBQ DBQ20050627154009706/27/05 15:40:31  5-MIN KDBQ 272140Z 18010KT 5SM HZ CLR 32/21 A2998 1030  53 3200 180/10 RMK AO2
94908KDBQ DBQ20050627154509706/27/05 15:45:31  5-MIN KDBQ 272145Z 19011KT 5SM HZ CLR 32/21 A2998 1030  53 3200 180/11 RMK AO2
94908KDBQ DBQ20050627155011406/27/05 15:50:31  5-MIN KDBQ 272150Z 20010KT 5SM HZ CLR 32/22 A2998 1030  55 3200 200/10 RMK AO2 SLP142 T03170217
94908KDBQ DBQ20050627155511406/27/05 15:55:31  5-MIN KDBQ 272155Z 19010KT 5SM HZ CLR 32/21 A2997 1030  53 3200 190/10 RMK AO2 SLP141 T03170211
94908KDBQ DBQ20050627160009706/27/05 16:00:31  5-MIN KDBQ 272200Z 20011KT 5SM HZ CLR 32/22 A2997 1030  55 3200 200/11 RMK AO2
94908KDBQ DBQ20050627160509706/27/05 16:05:31  5-MIN KDBQ 272205Z 20011KT 5SM HZ CLR 32/21 A2997 1030  53 3200 200/11 RMK AO2
94908KDBQ DBQ20050627161009706/27/05 16:10:31  5-MIN KDBQ 272210Z 20010KT 5SM HZ CLR 32/21 A2997 1030  53 3200 200/10 RMK AO2
94908KDBQ DBQ20050627161509706/27/05 16:15:31  5-MIN KDBQ 272215Z 20008KT 5SM HZ CLR 32/21 A2997 1030  53 3200 200/08 RMK AO2
94908KDBQ DBQ20050627162009706/27/05 16:20:31  5-MIN KDBQ 272220Z 20009KT 5SM HZ CLR 32/22 A2997 1030  55 3200 190/09 RMK AO2
94908KDBQ DBQ20050627162509706/27/05 16:25:31  5-MIN KDBQ 272225Z 19009KT 5SM HZ CLR 32/22 A2997 1040  55 3200 180/09 RMK AO2
94908KDBQ DBQ20050627163009706/27/05 16:30:31  5-MIN KDBQ 272230Z 19008KT 5SM HZ CLR 31/22 A2996 1040  56 3100 190/08 RMK AO2
94908KDBQ DBQ20050627163509706/27/05 16:35:31  5-MIN KDBQ 272235Z 19008KT 5SM HZ CLR 31/22 A2996 1040  58 3200 190/08 RMK AO2
94908KDBQ DBQ20050627164009706/27/05 16:40:31  5-MIN KDBQ 272240Z 19010KT 5SM HZ CLR 31/22 A2996 1040  56 3200 190/10 RMK AO2
94908KDBQ DBQ20050627164509706/27/05 16:45:31  5-MIN KDBQ 272245Z 19010KT 5SM HZ CLR 31/21 A2996 1040  54 3200 190/10 RMK AO2
94908KDBQ DBQ20050627165011406/27/05 16:50:31  5-MIN KDBQ 272250Z 19009KT 5SM HZ CLR 31/22 A2996 1040  56 3200 190/09 RMK AO2 SLP136 T03110217
94908KDBQ DBQ20050627165511406/27/05 16:55:31  5-MIN KDBQ 272255Z 19009KT 5SM HZ CLR 31/22 A2996 1040  56 3200 190/09 RMK AO2 SLP136 T03110217
94908KDBQ DBQ20050627170009706/27/05 17:00:31  5-MIN KDBQ 272300Z 19009KT 5SM HZ CLR 31/22 A2996 1050  56 3200 190/09 RMK AO2
94908KDBQ DBQ20050627170509706/27/05 17:05:31  5-MIN KDBQ 272305Z 20007KT 5SM HZ CLR 31/22 A2995 1050  58 3100 190/07 RMK AO2
94908KDBQ DBQ20050627171009706/27/05 17:10:31  5-MIN KDBQ 272310Z 19008KT 5SM HZ CLR 31/22 A2995 1050  58 3100 190/08 RMK AO2
94908KDBQ DBQ20050627171509706/27/05 17:15:31  5-MIN KDBQ 272315Z 20008KT 5SM HZ CLR 31/22 A2995 1050  58 3100 200/08 RMK AO2
94908KDBQ DBQ20050627172009706/27/05 17:20:31  5-MIN KDBQ 272320Z 19008KT 5SM HZ CLR 31/22 A2995 1050  58 3100 190/08 RMK AO2
94908KDBQ DBQ20050627180009706/27/05 18:00:31  5-MIN KDBQ 280000Z 21007KT 4SM HZ CLR 29/22 A2996 1040  64 3000 210/07 RMK AO2
94908KDBQ DBQ20050627180509706/27/05 18:05:31  5-MIN KDBQ 280005Z 21008KT 4SM HZ CLR 29/22 A2996 1050  64 3000 210/08 RMK AO2
94908KDBQ DBQ20050627181009706/27/05 18:10:31  5-MIN KDBQ 280010Z 21007KT 4SM HZ CLR 29/22 A2996 1040  64 3000 210/07 RMK AO2
94908KDBQ DBQ20050627181509706/27/05 18:15:31  5-MIN KDBQ 280015Z 21007KT 4SM HZ CLR 29/22 A2997 1030  67 2900 210/07 RMK AO2
94908KDBQ DBQ20050627182009706/27/05 18:20:31  5-MIN KDBQ 280020Z 21007KT 4SM HZ CLR 28/22 A2997 1030  69 2800 210/07 RMK AO2
94908KDBQ DBQ20050627182509706/27/05 18:25:31  5-MIN KDBQ 280025Z 20007KT 4SM HZ CLR 28/22 A2997 1030  69 2800 200/07 RMK AO2
94908KDBQ DBQ20050627183009706/27/05 18:30:31  5-MIN KDBQ 280030Z 20008KT 4SM HZ CLR 28/22 A2997 1040  71 2800 200/08 RMK AO2
94908KDBQ DBQ20050627183509706/27/05 18:35:31  5-MIN KDBQ 280035Z 21007KT 4SM HZ CLR 28/22 A2996 1040  71 2800 210/07 RMK AO2
94908KDBQ DBQ20050627184009706/27/05 18:40:31  5-MIN KDBQ 280040Z 20007KT 4SM HZ CLR 28/22 A2996 1040  71 2800 200/07 RMK AO2
94908KDBQ DBQ20050627184509706/27/05 18:45:31  5-MIN KDBQ 280045Z 20007KT 4SM HZ CLR 27/22 A2996 1040  74 2700 200/07 RMK AO2
94908KDBQ DBQ20050627185011406/27/05 18:50:31  5-MIN KDBQ 280050Z 19007KT 4SM HZ CLR 27/22 A2996 1050  74 2700 190/07 RMK AO2 SLP135 T02720222
94908KDBQ DBQ20050627185512406/27/05 18:55:31  5-MIN KDBQ 280055Z AUTO 19007KT 4SM HZ CLR 27/22 A2996  1050 71 2700 190/07 RMK AO2 SLP135 T02720217 TSNO
94908KDBQ DBQ20050627190010706/27/05 19:00:31  5-MIN KDBQ 280100Z AUTO 19007KT 4SM HZ CLR 27/22 A2995  1050 71 2700 190/07 RMK AO2 TSNO
94908KDBQ DBQ20050627190510706/27/05 19:05:31  5-MIN KDBQ 280105Z AUTO 18008KT 4SM HZ CLR 27/22 A2995  1050 71 2700 180/08 RMK AO2 TSNO
94908KDBQ DBQ20050627191010706/27/05 19:10:31  5-MIN KDBQ 280110Z AUTO 19008KT 4SM HZ CLR 27/22 A2995  1050 71 2700 180/08 RMK AO2 TSNO
94908KDBQ DBQ20050627191510706/27/05 19:15:31  5-MIN KDBQ 280115Z AUTO 18009KT 4SM HZ CLR 27/22 A2995  1050 71 2700 180/09 RMK AO2 TSNO
94908KDBQ DBQ20050627192010706/27/05 19:20:31  5-MIN KDBQ 280120Z AUTO 19009KT 4SM HZ CLR 27/22 A2995  1050 71 2700 180/09 RMK AO2 TSNO
94908KDBQ DBQ20050627192510706/27/05 19:25:31  5-MIN KDBQ 280125Z AUTO 19009KT 4SM HZ CLR 27/22 A2995  1050 71 2700 190/09 RMK AO2 TSNO
94908KDBQ DBQ20050627193010706/27/05 19:30:31  5-MIN KDBQ 280130Z AUTO 20008KT 4SM HZ CLR 27/22 A2995  1050 73 2700 190/08 RMK AO2 TSNO
94908KDBQ DBQ20050627193510706/27/05 19:35:31  5-MIN KDBQ 280135Z AUTO 19008KT 4SM HZ CLR 27/22 A2995  1050 73 2700 190/08 RMK AO2 TSNO
94908KDBQ DBQ20050627194010706/27/05 19:40:31  5-MIN KDBQ 280140Z AUTO 20008KT 4SM HZ CLR 27/22 A2995  1050 73 2700 190/08 RMK AO2 TSNO
94908KDBQ DBQ20050627194510706/27/05 19:45:31  5-MIN KDBQ 280145Z AUTO 19009KT 4SM HZ CLR 27/22 A2995  1050 73 2700 190/09 RMK AO2 TSNO
94908KDBQ DBQ20050627195012406/27/05 19:50:31  5-MIN KDBQ 280150Z AUTO 19009KT 4SM HZ CLR 27/21 A2996  1050 71 2700 190/09 RMK AO2 SLP135 T02670211 TSNO
94908KDBQ DBQ20050627195512406/27/05 19:55:31  5-MIN KDBQ 280155Z AUTO 19009KT 4SM HZ CLR 27/21 A2996  1050 71 2700 190/09 RMK AO2 SLP135 T02670211 TSNO
94908KDBQ DBQ20050627200010706/27/05 20:00:31  5-MIN KDBQ 280200Z AUTO 19009KT 5SM HZ CLR 27/21 A2996  1040 71 2700 190/09 RMK AO2 TSNO
94908KDBQ DBQ20050627200510706/27/05 20:05:31  5-MIN KDBQ 280205Z AUTO 19009KT 5SM HZ CLR 27/21 A2996  1040 71 2700 190/09 RMK AO2 TSNO
94908KDBQ DBQ20050627201010706/27/05 20:10:31  5-MIN KDBQ 280210Z AUTO 19009KT 5SM HZ CLR 27/21 A2996  1040 71 2700 190/09 RMK AO2 TSNO
94908KDBQ DBQ20050627201510706/27/05 20:15:31  5-MIN KDBQ 280215Z AUTO 19009KT 5SM HZ CLR 27/21 A2996  1040 71 2700 190/09 RMK AO2 TSNO
94908KDBQ DBQ20050627202010706/27/05 20:20:31  5-MIN KDBQ 280220Z AUTO 19009KT 5SM HZ CLR 27/21 A2996  1040 71 2700 190/09 RMK AO2 TSNO
94908KDBQ DBQ20050627202510706/27/05 20:25:31  5-MIN KDBQ 280225Z AUTO 19009KT 5SM HZ CLR 27/21 A2997  1040 71 2700 190/09 RMK AO2 TSNO
94908KDBQ DBQ20050627203010706/27/05 20:30:31  5-MIN KDBQ 280230Z AUTO 19009KT 5SM HZ CLR 27/21 A2997  1040 71 2700 190/09 RMK AO2 TSNO
94908KDBQ DBQ20050627203510706/27/05 20:35:31  5-MIN KDBQ 280235Z AUTO 19009KT 5SM HZ CLR 27/21 A2997  1040 71 2700 190/09 RMK AO2 TSNO
94908KDBQ DBQ20050627204010706/27/05 20:40:31  5-MIN KDBQ 280240Z AUTO 19010KT 5SM HZ CLR 27/21 A2997  1040 71 2700 190/10 RMK AO2 TSNO
94908KDBQ DBQ20050627204510706/27/05 20:45:31  5-MIN KDBQ 280245Z AUTO 20009KT 5SM HZ CLR 27/21 A2997  1030 71 2600 200/09 RMK AO2 TSNO
94908KDBQ DBQ20050627205013006/27/05 20:50:31  5-MIN KDBQ 280250Z AUTO 20010KT 5SM HZ CLR 27/21 A2997  1030 71 2600 200/10 RMK AO2 SLP140 T02670211 55007 TSNO
94908KDBQ DBQ20050627205513906/27/05 20:55:31  5-MIN KDBQ 280255Z AUTO 23015G20KT 5SM HZ FEW050 27/21  A2997 1030 71 2600 230/15G20 RMK AO2 SLP141 T02670211 53005 TSNO
94908KDBQ DBQ20050627210013406/27/05 21:00:31  5-MIN KDBQ 280300Z AUTO 25020G32KT 5SM HZ FEW050 27/21  A2997 1030 69 2600 240/20G32 RMK AO2 PK WND 26032/0300 TSNO
94908KDBQ DBQ20050627210514206/27/05 21:05:31  5-MIN KDBQ 280305Z AUTO 26019G32KT 7SM FEW050 25/18  A2998 1030 64 2500 260/19G32 RMK AO2 PK WND 26032/0300 WSHFT 0249 TSNO
94908KDBQ DBQ20050627211013606/27/05 21:10:31  5-MIN KDBQ 280310Z AUTO 26016KT 9SM FEW050 24/17 A2998  1030 63 2300 260/16 RMK AO2 PK WND 26032/0300 WSHFT 0249 TSNO
94908KDBQ DBQ20050627211513606/27/05 21:15:31  5-MIN KDBQ 280315Z AUTO 26010KT 10SM FEW050 23/17 A2998 1030 66 2300 260/10 RMK AO2 PK WND 26032/0300 WSHFT 0249 TSNO
94908KDBQ DBQ20050627212013406/27/05 21:20:31  5-MIN KDBQ 280320Z AUTO 26008KT 10SM CLR 23/17 A2998  1020 68 2200 260/08 RMK AO2 PK WND 26032/0300 WSHFT 0249 TSNO
94908KDBQ DBQ20050627212513406/27/05 21:25:31  5-MIN KDBQ 280325Z AUTO 25007KT 10SM CLR 22/17 A2998  1020 70 2100 250/07 RMK AO2 PK WND 26032/0300 WSHFT 0249 TSNO
94908KDBQ DBQ20050627213013406/27/05 21:30:31  5-MIN KDBQ 280330Z AUTO 26008KT 10SM CLR 22/17 A2998  1020 73 2100 250/08 RMK AO2 PK WND 26032/0300 WSHFT 0249 TSNO
94908KDBQ DBQ20050627213513406/27/05 21:35:31  5-MIN KDBQ 280335Z AUTO 24006KT 10SM CLR 22/17 A2998  1020 75 2100 240/06 RMK AO2 PK WND 26032/0300 WSHFT 0249 TSNO
94908KDBQ DBQ20050627214013406/27/05 21:40:31  5-MIN KDBQ 280340Z AUTO 26005KT 10SM CLR 22/17 A2997  1030 75 2100 260/05 RMK AO2 PK WND 26032/0300 WSHFT 0249 TSNO
94908KDBQ DBQ20050627214513406/27/05 21:45:31  5-MIN KDBQ 280345Z AUTO 00000KT 10SM CLR 21/17 A2997  1040 78 2000 000/00 RMK AO2 PK WND 26032/0300 WSHFT 0249 TSNO
94908KDBQ DBQ20050627215015906/27/05 21:50:31  5-MIN KDBQ 280350Z AUTO 00000KT 10SM CLR 21/17 A2995  1050 78 2000 000/00 RMK AO2 PK WND 26032/0300 WSHFT 0249 PRESFR SLP135  T02110172 TSNO
94908KDBQ DBQ20050627215515206/27/05 21:55:31  5-MIN KDBQ 280355Z AUTO 00000KT 10SM CLR 22/17 A2996  1050 75 2100 000/00 RMK AO2 PK WND 26032/0300 WSHFT 0249 SLP136 T02170172  TSNO
94908KDBQ DBQ20050627220010506/27/05 22:00:31  5-MIN KDBQ 280400Z AUTO 18004KT 10SM CLR 21/17 A2995  1050 78 2000 180/04 RMK AO2 TSNO
94908KDBQ DBQ20050627220510506/27/05 22:05:31  5-MIN KDBQ 280405Z AUTO 15004KT 10SM CLR 21/17 A2994  1060 78 2100 150/04 RMK AO2 TSNO
94908KDBQ DBQ20050627221010506/27/05 22:10:31  5-MIN KDBQ 280410Z AUTO 15005KT 10SM CLR 21/17 A2994  1060 78 2100 140/05 RMK AO2 TSNO
94908KDBQ DBQ20050627221510506/27/05 22:15:31  5-MIN KDBQ 280415Z AUTO 16005KT 10SM CLR 21/17 A2995  1060 78 2000 160/05 RMK AO2 TSNO
94908KDBQ DBQ20050627222010506/27/05 22:20:31  5-MIN KDBQ 280420Z AUTO 00000KT 10SM CLR 21/17 A2994  1060 78 2100 000/00 RMK AO2 TSNO
94908KDBQ DBQ20050627222510506/27/05 22:25:31  5-MIN KDBQ 280425Z AUTO 19003KT 10SM CLR 21/17 A2995  1050 81 2000 180/03 RMK AO2 TSNO
94908KDBQ DBQ20050627223010506/27/05 22:30:31  5-MIN KDBQ 280430Z AUTO 17003KT 10SM CLR 21/17 A2996  1040 78 2000 170/03 RMK AO2 TSNO
94908KDBQ DBQ20050627223510506/27/05 22:35:31  5-MIN KDBQ 280435Z AUTO 14004KT 10SM CLR 21/17 A2995  1050 81 2000 140/04 RMK AO2 TSNO
94908KDBQ DBQ20050627224010506/27/05 22:40:31  5-MIN KDBQ 280440Z AUTO 00000KT 10SM CLR 21/17 A2995  1050 81 2000 000/00 RMK AO2 TSNO
94908KDBQ DBQ20050627224510506/27/05 22:45:31  5-MIN KDBQ 280445Z AUTO 00000KT 10SM CLR 21/17 A2994  1060 81 2000 000/00 RMK AO2 TSNO
94908KDBQ DBQ20050627225012206/27/05 22:50:31  5-MIN KDBQ 280450Z AUTO 00000KT 10SM CLR 21/17 A2995  1050 81 2000 000/00 RMK AO2 SLP133 T02060172 TSNO
94908KDBQ DBQ20050627225512206/27/05 22:55:31  5-MIN KDBQ 280455Z AUTO 00000KT 10SM CLR 21/17 A2994  1060 81 2000 000/00 RMK AO2 SLP130 T02060172 TSNO
94908KDBQ DBQ20050627230010506/27/05 23:00:31  5-MIN KDBQ 280500Z AUTO 00000KT 10SM CLR 21/17 A2994  1060 81 2000 000/00 RMK AO2 TSNO
94908KDBQ DBQ20050627230510506/27/05 23:05:31  5-MIN KDBQ 280505Z AUTO 00000KT 10SM CLR 21/17 A2994  1060 81 2000 000/00 RMK AO2 TSNO
94908KDBQ DBQ20050627231010506/27/05 23:10:31  5-MIN KDBQ 280510Z AUTO 00000KT 10SM CLR 20/17 A2995  1050 84 1900 000/00 RMK AO2 TSNO
94908KDBQ DBQ20050627231510506/27/05 23:15:31  5-MIN KDBQ 280515Z AUTO 00000KT 10SM CLR 20/17 A2995  1050 84 1900 000/00 RMK AO2 TSNO
94908KDBQ DBQ20050627232010506/27/05 23:20:31  5-MIN KDBQ 280520Z AUTO 00000KT 10SM CLR 20/17 A2996  1040 84 1900 000/00 RMK AO2 TSNO
94908KDBQ DBQ20050627232510506/27/05 23:25:31  5-MIN KDBQ 280525Z AUTO 00000KT 10SM CLR 20/18 A2995  1050 87 1900 000/00 RMK AO2 TSNO
94908KDBQ DBQ20050627233010306/27/05 23:30:31  5-MIN KDBQ 280530Z AUTO 19005KT 9SM CLR 20/18 A2996 1040 87 1900 190/05 RMK AO2 TSNO
94908KDBQ DBQ20050627233510306/27/05 23:35:31  5-MIN KDBQ 280535Z AUTO 19006KT 9SM CLR 19/18 A2995 1050 90 1900 190/06 RMK AO2 TSNO
94908KDBQ DBQ20050627234010306/27/05 23:40:31  5-MIN KDBQ 280540Z AUTO 18006KT 9SM CLR 19/18 A2996 1040 90 1800 180/06 RMK AO2 TSNO
94908KDBQ DBQ20050627234510306/27/05 23:45:31  5-MIN KDBQ 280545Z AUTO 20007KT 9SM CLR 20/17 A2995 1050 84 1900 200/07 RMK AO2 TSNO
94908KDBQ DBQ20050627235015106/27/05 23:50:31  5-MIN KDBQ 280550Z AUTO 20006KT 10SM CLR 20/17 A2995  1050 84 1900 200/06 RMK AO2 SLP135 T02000172 10300 20194 403220194 53005  TSNO
94908KDBQ DBQ20050627235515106/27/05 23:55:31  5-MIN KDBQ 280555Z AUTO 18007KT 10SM CLR 20/17 A2995  1050 84 1900 180/07 RMK AO2 SLP133 T02000172 10300 20194 403220194 55009  TSNO
94908KDBQ DBQ20050628000010506/28/05 00:00:38  5-MIN KDBQ 280600Z AUTO 18007KT 10SM CLR 21/17 A2995  1050 81 2000 180/07 RMK AO2 TSNO
94908KDBQ DBQ20050628000510506/28/05 00:05:31  5-MIN KDBQ 280605Z AUTO 18007KT 10SM CLR 21/17 A2994  1060 81 2000 180/07 RMK AO2 TSNO
94908KDBQ DBQ20050628001010506/28/05 00:10:31  5-MIN KDBQ 280610Z AUTO 18006KT 10SM CLR 20/17 A2995  1050 84 1900 180/06 RMK AO2 TSNO
94908KDBQ DBQ20050628001510506/28/05 00:15:31  5-MIN KDBQ 280615Z AUTO VRB04KT 10SM CLR 20/17 A2996  1040 84 1900 VRB/04 RMK AO2 TSNO
94908KDBQ DBQ20050628002010506/28/05 00:20:31  5-MIN KDBQ 280620Z AUTO 25004KT 10SM CLR 20/17 A2996  1040 84 1900 250/04 RMK AO2 TSNO
94908KDBQ DBQ20050628002510506/28/05 00:25:31  5-MIN KDBQ 280625Z AUTO 18004KT 10SM CLR 20/17 A2995  1050 84 1900 180/04 RMK AO2 TSNO
94908KDBQ DBQ20050628003010506/28/05 00:30:31  5-MIN KDBQ 280630Z AUTO 14003KT 10SM CLR 20/17 A2995  1050 84 1900 140/03 RMK AO2 TSNO
94908KDBQ DBQ20050628003510506/28/05 00:35:31  5-MIN KDBQ 280635Z AUTO 16004KT 10SM CLR 20/17 A2995  1050 84 1900 160/04 RMK AO2 TSNO
94908KDBQ DBQ20050628004010506/28/05 00:40:31  5-MIN KDBQ 280640Z AUTO 15007KT 10SM CLR 20/17 A2994  1060 84 1900 150/07 RMK AO2 TSNO
94908KDBQ DBQ20050628004510506/28/05 00:45:31  5-MIN KDBQ 280645Z AUTO 00000KT 10SM CLR 19/17 A2995  1050 87 1900 000/00 RMK AO2 TSNO
94908KDBQ DBQ20050628005012206/28/05 00:50:31  5-MIN KDBQ 280650Z AUTO 00000KT 10SM CLR 20/17 A2994  1060 84 1900 000/00 RMK AO2 SLP132 T02000172 TSNO
94908KDBQ DBQ20050628005512206/28/05 00:55:31  5-MIN KDBQ 280655Z AUTO 24003KT 10SM CLR 19/17 A2995  1050 87 1900 240/03 RMK AO2 SLP134 T01940172 TSNO
94908KDBQ DBQ20050628010010506/28/05 01:00:31  5-MIN KDBQ 280700Z AUTO 25005KT 10SM CLR 19/17 A2995  1050 87 1900 250/05 RMK AO2 TSNO
94908KDBQ DBQ20050628010510506/28/05 01:05:31  5-MIN KDBQ 280705Z AUTO 00000KT 10SM CLR 19/17 A2996  1040 87 1800 000/00 RMK AO2 TSNO
94908KDBQ DBQ20050628011010506/28/05 01:10:31  5-MIN KDBQ 280710Z AUTO 24005KT 10SM CLR 19/17 A2994  1060 87 1900 240/05 RMK AO2 TSNO
94908KDBQ DBQ20050628011510506/28/05 01:15:31  5-MIN KDBQ 280715Z AUTO 00000KT 10SM CLR 19/17 A2995  1050 87 1800 000/00 RMK AO2 TSNO
94908KDBQ DBQ20050628012010506/28/05 01:20:31  5-MIN KDBQ 280720Z AUTO 00000KT 10SM CLR 19/17 A2996  1040 87 1800 000/00 RMK AO2 TSNO
94908KDBQ DBQ20050628012511206/28/05 01:25:31  5-MIN KDBQ 280725Z AUTO 32008KT 10SM CLR 19/17 A2999  1010 87 1800 320/08 RMK AO2 PRESRR TSNO
94908KDBQ DBQ20050628013010506/28/05 01:30:31  5-MIN KDBQ 280730Z AUTO 34008KT 10SM CLR 19/17 A2998  1020 87 1800 340/08 RMK AO2 TSNO
94908KDBQ DBQ20050628013510506/28/05 01:35:31  5-MIN KDBQ 280735Z AUTO 32005KT 10SM CLR 20/17 A3000  1000 84 1900 320/05 RMK AO2 TSNO
94908KDBQ DBQ20050628014010506/28/05 01:40:31  5-MIN KDBQ 280740Z AUTO 29003KT 10SM CLR 19/17 A2999  1010 87 1800 290/03 RMK AO2 TSNO
94908KDBQ DBQ20050628014510506/28/05 01:45:31  5-MIN KDBQ 280745Z AUTO 00000KT 10SM CLR 19/17 A3000  1000 87 1800 000/00 RMK AO2 TSNO
94908KDBQ DBQ20050628015012206/28/05 01:50:31  5-MIN KDBQ 280750Z AUTO 00000KT 10SM CLR 20/17 A2999  1010 84 1900 000/00 RMK AO2 SLP147 T02000172 TSNO
94908KDBQ DBQ20050628015512206/28/05 01:55:31  5-MIN KDBQ 280755Z AUTO 19003KT 10SM CLR 19/17 A3000  1010 87 1800 190/03 RMK AO2 SLP150 T01940172 TSNO
94908KDBQ DBQ20050628020010506/28/05 02:00:31  5-MIN KDBQ 280800Z AUTO 21005KT 10SM CLR 19/17 A2999  1010 87 1800 210/05 RMK AO2 TSNO
94908KDBQ DBQ20050628020510506/28/05 02:05:31  5-MIN KDBQ 280805Z AUTO 22006KT 10SM CLR 20/17 A3001  1000 84 1900 220/06 RMK AO2 TSNO
94908KDBQ DBQ20050628021010506/28/05 02:10:31  5-MIN KDBQ 280810Z AUTO 24004KT 10SM CLR 20/17 A3000  1010 84 1900 240/04 RMK AO2 TSNO
94908KDBQ DBQ20050628021510506/28/05 02:15:31  5-MIN KDBQ 280815Z AUTO VRB05KT 10SM CLR 19/17 A3001  1000 87 1800 VRB/05 RMK AO2 TSNO
94908KDBQ DBQ20050628022010506/28/05 02:20:31  5-MIN KDBQ 280820Z AUTO 00000KT 10SM CLR 20/17 A3000  1010 84 1900 000/00 RMK AO2 TSNO
94908KDBQ DBQ20050628022510506/28/05 02:25:31  5-MIN KDBQ 280825Z AUTO 00000KT 10SM CLR 19/17 A3001  1000 87 1800 000/00 RMK AO2 TSNO
94908KDBQ DBQ20050628023010506/28/05 02:30:31  5-MIN KDBQ 280830Z AUTO 25003KT 10SM CLR 20/17 A3000  1000 84 1900 250/03 RMK AO2 TSNO
94908KDBQ DBQ20050628023510306/28/05 02:35:31  5-MIN KDBQ 280835Z AUTO 00000KT 10SM CLR 20/17 A3001 990 84 1800 000/00 RMK AO2 TSNO
94908KDBQ DBQ20050628024010706/28/05 02:40:31  5-MIN KDBQ 280840Z AUTO 00000KT 10SM FEW120 20/17 A3001 1000 84 1900 000/00 RMK AO2 TSNO
94908KDBQ DBQ20050628024510606/28/05 02:45:31  5-MIN KDBQ 280845Z AUTO 30008KT 10SM SCT110 21/17 A3002 990 81 1900 300/08 RMK AO2 TSNO
94908KDBQ DBQ20050628025013006/28/05 02:50:31  5-MIN KDBQ 280850Z AUTO 30009KT 10SM BKN110 21/17 A3000 1000 81 1900 300/09 RMK AO2 SLP151 T02060172 55009 TSNO
94908KDBQ DBQ20050628025512906/28/05 02:55:31  5-MIN KDBQ 280855Z AUTO 31010KT 10SM BKN120 21/17 A3001 990 81 1900 310/10 RMK AO2 SLP155 T02060172 53022 TSNO
94908KDBQ DBQ20050628030010706/28/05 03:00:31  5-MIN KDBQ 280900Z AUTO 31009KT 10SM BKN120 21/17 A3000 1000 78 2000 310/09 RMK AO2 TSNO
94908KDBQ DBQ20050628030510606/28/05 03:05:31  5-MIN KDBQ 280905Z AUTO 31011KT 10SM SCT120 22/17 A3001 990 75 2000 310/11 RMK AO2 TSNO
94908KDBQ DBQ20050628031010706/28/05 03:10:31  5-MIN KDBQ 280910Z AUTO 31010KT 10SM SCT120 22/17 A3001 1000 75 2000 310/10 RMK AO2 TSNO
94908KDBQ DBQ20050628031510706/28/05 03:15:31  5-MIN KDBQ 280915Z AUTO 31009KT 10SM FEW120 22/17 A3001 1000 75 2000 300/09 RMK AO2 TSNO
94908KDBQ DBQ20050628032010706/28/05 03:20:31  5-MIN KDBQ 280920Z AUTO 30010KT 10SM FEW120 22/17 A3001 1000 75 2000 300/10 RMK AO2 TSNO
94908KDBQ DBQ20050628032512406/28/05 03:25:31  5-MIN KDBQ 280925Z AUTO 29008KT 10SM -RA FEW048 22/17  A2999 1010 75 2100 290/08 RMK AO2 RAB23 P0000 TSNO
94908KDBQ DBQ20050628033012306/28/05 03:30:31  5-MIN KDBQ 280930Z AUTO 29007KT 9SM -RA SCT043 21/17  A3000 1010 78 2000 290/07 RMK AO2 RAB23 P0000 TSNO
94908KDBQ DBQ20050628033512306/28/05 03:35:31  5-MIN KDBQ 280935Z AUTO 30007KT 8SM -RA BKN039 21/18  A2998 1020 84 1900 300/07 RMK AO2 RAB23 P0001 TSNO
94908KDBQ DBQ20050628034012306/28/05 03:40:31  5-MIN KDBQ 280940Z AUTO 28005KT 8SM -RA BKN036 21/18  A2998 1020 84 1900 280/05 RMK AO2 RAB23 P0001 TSNO
94908KDBQ DBQ20050628034512406/28/05 03:45:31  5-MIN KDBQ 280945Z AUTO 25005KT 10SM -RA BKN036 21/18  A2997 1030 84 2000 250/05 RMK AO2 RAB23 P0001 TSNO
94908KDBQ DBQ20050628035014106/28/05 03:50:31  5-MIN KDBQ 280950Z AUTO 21004KT 10SM -RA BKN036 21/18  A2998 1020 84 1900 210/04 RMK AO2 RAB23 SLP143 P0001 T02060178 TSNO
94908KDBQ DBQ20050628035514106/28/05 03:55:31  5-MIN KDBQ 280955Z AUTO 21004KT 10SM -RA SCT034 21/18  A2997 1040 87 2000 210/04 RMK AO2 RAB23 SLP139 P0001 T02060183 TSNO
94908KDBQ DBQ20050628040011806/28/05 04:00:31  5-MIN KDBQ 281000Z AUTO 16005KT 10SM -RA FEW032 20/18  A2997 1040 90 1900 160/05 RMK AO2 P0000 TSNO
94908KDBQ DBQ20050628040512606/28/05 04:05:31  5-MIN KDBQ 281005Z AUTO 13005KT 10SM FEW030 SCT120 20/18 A2996 1040 87 1900 130/05 RMK AO2 RAE01 P0000 TSNO
94908KDBQ DBQ20050628041011906/28/05 04:10:31  5-MIN KDBQ 281010Z AUTO 00000KT 10SM FEW120 20/18 A2996 1040 87 1900 000/00 RMK AO2 RAE01 P0000 TSNO
94908KDBQ DBQ20050628041511906/28/05 04:15:31  5-MIN KDBQ 281015Z AUTO 28009KT 10SM FEW120 20/18 A2998 1030 87 1900 280/09 RMK AO2 RAE01 P0000 TSNO
94908KDBQ DBQ20050628042011906/28/05 04:20:31  5-MIN KDBQ 281020Z AUTO 25004KT 10SM FEW120 20/18 A2997 1030 87 1900 250/04 RMK AO2 RAE01 P0000 TSNO
94908KDBQ DBQ20050628042511906/28/05 04:25:31  5-MIN KDBQ 281025Z AUTO 00000KT 10SM FEW120 20/18 A2997 1030 87 1900 000/00 RMK AO2 RAE01 P0000 TSNO
94908KDBQ DBQ20050628043011906/28/05 04:30:31  5-MIN KDBQ 281030Z AUTO 21004KT 10SM FEW120 20/18 A2997 1030 90 1900 210/04 RMK AO2 RAE01 P0000 TSNO
94908KDBQ DBQ20050628043511506/28/05 04:35:31  5-MIN KDBQ 281035Z AUTO 20003KT 9SM CLR 20/18 A2997 1030 90 1900 200/03 RMK AO2 RAE01 P0000 TSNO
94908KDBQ DBQ20050628044011506/28/05 04:40:31  5-MIN KDBQ 281040Z AUTO 22004KT 9SM CLR 20/18 A2997 1030 90 1900 220/04 RMK AO2 RAE01 P0000 TSNO
94908KDBQ DBQ20050628044511506/28/05 04:45:31  5-MIN KDBQ 281045Z AUTO 23005KT 9SM CLR 20/18 A2997 1030 87 1900 230/05 RMK AO2 RAE01 P0000 TSNO
94908KDBQ DBQ20050628045012306/28/05 04:50:31  5-MIN KDBQ 281050Z 23005KT 9SM CLR 19/18 A2997 1030 90  1800 230/05 RMK AO2 RAE01 SLP141 P0000 T01940178
94908KDBQ DBQ20050628045512306/28/05 04:55:31  5-MIN KDBQ 281055Z 22005KT 9SM CLR 19/18 A2997 1030 90  1800 220/05 RMK AO2 RAE01 SLP141 P0000 T01940178
94908KDBQ DBQ20050628050009406/28/05 05:00:31  5-MIN KDBQ 281100Z 22005KT 10SM CLR 19/18 A2997 1030 90 1800 220/05 RMK AO2
94908KDBQ DBQ20050628050509406/28/05 05:05:31  5-MIN KDBQ 281105Z 23003KT 10SM CLR 19/18 A2997 1040 90 1800 230/03 RMK AO2
94908KDBQ DBQ20050628051009406/28/05 05:10:31  5-MIN KDBQ 281110Z 24005KT 10SM CLR 19/18 A2997 1040 90 1800 240/05 RMK AO2
94908KDBQ DBQ20050628051509406/28/05 05:15:31  5-MIN KDBQ 281115Z 00000KT 10SM CLR 19/18 A2997 1030 90 1800 000/00 RMK AO2
94908KDBQ DBQ20050628052009406/28/05 05:20:31  5-MIN KDBQ 281120Z 00000KT 9SM CLR 20/18 A2997 1030 87  1900 000/00 RMK AO2
94908KDBQ DBQ20050628052509406/28/05 05:25:31  5-MIN KDBQ 281125Z 00000KT 10SM CLR 20/18 A2998 1030 87 1900 000/00 RMK AO2
94908KDBQ DBQ20050628053009406/28/05 05:30:31  5-MIN KDBQ 281130Z 02004KT 10SM CLR 20/18 A2998 1020 90 1900 020/04 RMK AO2
94908KDBQ DBQ20050628053509406/28/05 05:35:31  5-MIN KDBQ 281135Z 02009KT 10SM CLR 20/18 A2999 1020 87 1900 020/09 RMK AO2
94908KDBQ DBQ20050628054009406/28/05 05:40:31  5-MIN KDBQ 281140Z 03010KT 10SM CLR 20/18 A2999 1020 87 1900 030/10 RMK AO2
94908KDBQ DBQ20050628054509406/28/05 05:45:31  5-MIN KDBQ 281145Z 04007KT 10SM CLR 20/18 A2999 1020 87 1900 040/07 RMK AO2
94908KDBQ DBQ20050628055014106/28/05 05:50:31  5-MIN KDBQ 281150Z 05005KT 10SM CLR 21/18 A2999 1010 84 1900 050/05 RMK AO2 SLP148 60001 70001 T02060178 10217 20194 53022
94908KDBQ DBQ20050628055514106/28/05 05:55:31  5-MIN KDBQ 281155Z 00000KT 10SM CLR 21/18 A2999 1010 84 1900 000/00 RMK AO2 SLP149 60001 70001 T02060178 10217 20194 55007
94908KDBQ DBQ20050628060009406/28/05 06:00:31  5-MIN KDBQ 281200Z 00000KT 10SM CLR 21/18 A2999 1010 84 1900 000/00 RMK AO2
94908KDBQ DBQ20050628060509406/28/05 06:05:31  5-MIN KDBQ 281205Z 00000KT 10SM CLR 21/18 A2999 1010 87 1900 000/00 RMK AO2
94908KDBQ DBQ20050628061009406/28/05 06:10:31  5-MIN KDBQ 281210Z 00000KT 10SM CLR 21/18 A3000 1010 87 1900 000/00 RMK AO2
94908KDBQ DBQ20050628061509406/28/05 06:15:31  5-MIN KDBQ 281215Z 00000KT 10SM CLR 21/18 A3000 1000 87 1900 000/00 RMK AO2
94908KDBQ DBQ20050628062009406/28/05 06:20:31  5-MIN KDBQ 281220Z 00000KT 10SM CLR 21/18 A3000 1000 87 1900 000/00 RMK AO2
94908KDBQ DBQ20050628062509406/28/05 06:25:31  5-MIN KDBQ 281225Z 00000KT 10SM CLR 21/18 A3000 1000 87 1900 000/00 RMK AO2
94908KDBQ DBQ20050628063009406/28/05 06:30:31  5-MIN KDBQ 281230Z 28004KT 10SM CLR 21/18 A3001 1000 81 2000 270/04 RMK AO2
94908KDBQ DBQ20050628063509406/28/05 06:35:31  5-MIN KDBQ 281235Z 25003KT 10SM CLR 21/18 A3001 1000 81 2000 250/03 RMK AO2
94908KDBQ DBQ20050628064009706/28/05 06:40:31  5-MIN KDBQ 281240Z 00000KT 10SM FEW095 21/18 A3002 990  81 2000 000/00 RMK AO2
94908KDBQ DBQ20050628064509706/28/05 06:45:31  5-MIN KDBQ 281245Z 27003KT 10SM FEW095 21/18 A3002 980  87 1900 270/03 RMK AO2
94908KDBQ DBQ20050628065011106/28/05 06:50:31  5-MIN KDBQ 281250Z 27007KT 10SM CLR 21/18 A3003 980 81  2000 270/07 RMK AO2 SLP160 T02110178
94908KDBQ DBQ20050628065511106/28/05 06:55:31  5-MIN KDBQ 281255Z 27008KT 10SM CLR 21/18 A3003 980 81  2000 270/08 RMK AO2 SLP161 T02110178
94908KDBQ DBQ20050628070009406/28/05 07:00:31  5-MIN KDBQ 281300Z 27007KT 10SM CLR 21/18 A3003 980 81  2000 270/07 RMK AO2
94908KDBQ DBQ20050628070509406/28/05 07:05:31  5-MIN KDBQ 281305Z 26009KT 10SM CLR 21/18 A3003 980 81  2000 260/09 RMK AO2
94908KDBQ DBQ20050628071009406/28/05 07:10:31  5-MIN KDBQ 281310Z 25010KT 10SM CLR 21/18 A3003 980 81  2000 250/10 RMK AO2
94908KDBQ DBQ20050628071509406/28/05 07:15:31  5-MIN KDBQ 281315Z 25010KT 10SM CLR 21/18 A3003 980 81  2000 240/10 RMK AO2
94908KDBQ DBQ20050628072009406/28/05 07:20:31  5-MIN KDBQ 281320Z 25011KT 10SM CLR 21/18 A3002 980 84  1900 250/11 RMK AO2
94908KDBQ DBQ20050628072509406/28/05 07:25:31  5-MIN KDBQ 281325Z 25011KT 10SM CLR 21/18 A3002 990 84  1900 240/11 RMK AO2
94908KDBQ DBQ20050628073009406/28/05 07:30:31  5-MIN KDBQ 281330Z 24012KT 10SM CLR 21/18 A3001 990 84  1900 240/12 RMK AO2
94908KDBQ DBQ20050628073509406/28/05 07:35:31  5-MIN KDBQ 281335Z 24013KT 10SM CLR 21/17 A3001 990 81  1900 240/13 RMK AO2
94908KDBQ DBQ20050628074009406/28/05 07:40:31  5-MIN KDBQ 281340Z 25012KT 10SM CLR 21/17 A3001 990 81  1900 250/12 RMK AO2
94908KDBQ DBQ20050628074509406/28/05 07:45:31  5-MIN KDBQ 281345Z 25010KT 10SM CLR 21/17 A3001 990 81  1900 250/10 RMK AO2
94908KDBQ DBQ20050628075011106/28/05 07:50:31  5-MIN KDBQ 281350Z 27012KT 10SM CLR 21/17 A3001 1000 81 1900 260/12 RMK AO2 SLP154 T02060172
94908KDBQ DBQ20050628075511106/28/05 07:55:31  5-MIN KDBQ 281355Z 26011KT 10SM CLR 21/17 A3000 1000 75 2000 260/11 RMK AO2 SLP152 T02110167
94908KDBQ DBQ20050628080009406/28/05 08:00:31  5-MIN KDBQ 281400Z 26011KT 10SM CLR 21/16 A3000 1010 73 2000 260/11 RMK AO2
94908KDBQ DBQ20050628080509406/28/05 08:05:31  5-MIN KDBQ 281405Z 27010KT 10SM CLR 21/16 A3000 1010 73 2000 260/10 RMK AO2
94908KDBQ DBQ20050628081009406/28/05 08:10:31  5-MIN KDBQ 281410Z 25011KT 10SM CLR 21/17 A2999 1010 75 2000 250/11 RMK AO2
94908KDBQ DBQ20050628081509706/28/05 08:15:31  5-MIN KDBQ 281415Z 25012KT 10SM FEW070 21/17 A3000 1010 75 2000 240/12 RMK AO2
94908KDBQ DBQ20050628082011406/28/05 08:20:31  5-MIN KDBQ 281420Z 23008KT 10SM -RA FEW070 21/17 A3000  1000 78 1900 230/08 RMK AO2 RAB18 P0000
94908KDBQ DBQ20050628082511406/28/05 08:25:31  5-MIN KDBQ 281425Z 22006KT 10SM -RA FEW075 21/17 A3000  1000 78 1900 220/06 RMK AO2 RAB18 P0000
94908KDBQ DBQ20050628083011406/28/05 08:30:31  5-MIN KDBQ 281430Z 00000KT 10SM -RA FEW075 21/17 A3001  1000 81 1900 000/00 RMK AO2 RAB18 P0000
94908KDBQ DBQ20050628083511206/28/05 08:35:31  5-MIN KDBQ 281435Z 06003KT 10SM FEW070 21/17 A3001 1000 75 2000 060/03 RMK AO2 RAB18E32 P0000
94908KDBQ DBQ20050628084011206/28/05 08:40:31  5-MIN KDBQ 281440Z 12005KT 10SM FEW070 21/17 A3001 1000 78 2000 120/05 RMK AO2 RAB18E32 P0000
94908KDBQ DBQ20050628084511206/28/05 08:45:31  5-MIN KDBQ 281445Z 13006KT 10SM FEW100 21/17 A3001 990  81 1900 130/06 RMK AO2 RAB18E32 P0000
94908KDBQ DBQ20050628085014406/28/05 08:50:31  5-MIN KDBQ 281450Z 15006KT 10SM -RA CLR 21/17 A3002 990 78 2000 150/06 RMK AO2 RAB18E32B49 SLP158 P0000 60000 T02110172 55007
94908KDBQ DBQ20050628085514406/28/05 08:55:31  5-MIN KDBQ 281455Z 15007KT 10SM -RA CLR 21/17 A3002 980 81 1900 150/07 RMK AO2 RAB18E32B49 SLP160 P0000 60000 T02060172 51010
94908KDBQ DBQ20050628090010806/28/05 09:00:31  5-MIN KDBQ 281500Z 16006KT 10SM CLR 21/17 A3003 980 78  2000 160/06 RMK AO2 RAE1458 P0000
94908KDBQ DBQ20050628090511506/28/05 09:05:31  5-MIN KDBQ 281505Z 18007KT 10SM CLR 21/18 A3003 970 81  1900 180/07 RMK AO2 RAE1458 PRESRR P0000
94908KDBQ DBQ20050628091010806/28/05 09:10:31  5-MIN KDBQ 281510Z 19008KT 10SM CLR 21/18 A3003 970 81  2000 190/08 RMK AO2 RAE1458 P0000
94908KDBQ DBQ20050628091511406/28/05 09:15:31  5-MIN KDBQ 281515Z 20009KT 10SM -RA CLR 21/18 A3003 980 81 2000 200/09 RMK AO2 RAE1458B14 P0000
94908KDBQ DBQ20050628092011406/28/05 09:20:31  5-MIN KDBQ 281520Z 19008KT 10SM -RA CLR 22/18 A3003 980 78 2000 190/08 RMK AO2 RAE1458B14 P0000
94908KDBQ DBQ20050628092511406/28/05 09:25:31  5-MIN KDBQ 281525Z 20008KT 10SM CLR 22/18 A3003 980 78  2000 200/08 RMK AO2 RAE1458B14E25 P0000
94908KDBQ DBQ20050628093011406/28/05 09:30:31  5-MIN KDBQ 281530Z 22006KT 10SM CLR 22/18 A3002 990 78  2000 220/06 RMK AO2 RAE1458B14E25 P0000
94908KDBQ DBQ20050628093511406/28/05 09:35:31  5-MIN KDBQ 281535Z 22006KT 10SM CLR 22/18 A3002 990 78  2000 210/06 RMK AO2 RAE1458B14E25 P0000
94908KDBQ DBQ20050628094011406/28/05 09:40:31  5-MIN KDBQ 281540Z 20006KT 10SM CLR 22/17 A3001 1000 75 2000 200/06 RMK AO2 RAE1458B14E25 P0000
94908KDBQ DBQ20050628094511406/28/05 09:45:31  5-MIN KDBQ 281545Z 20006KT 10SM CLR 22/17 A3001 1000 75 2000 200/06 RMK AO2 RAE1458B14E25 P0000
94908KDBQ DBQ20050628095013106/28/05 09:50:31  5-MIN KDBQ 281550Z 20008KT 10SM CLR 22/18 A3001 990 78  2000 200/08 RMK AO2 RAE1458B14E25 SLP157 P0000 T02170178
94908KDBQ DBQ20050628095513106/28/05 09:55:31  5-MIN KDBQ 281555Z 22007KT 10SM CLR 22/18 A3002 990 78  2000 220/07 RMK AO2 RAE1458B14E25 SLP159 P0000 T02170178
94908KDBQ DBQ20050628100009406/28/05 10:00:31  5-MIN KDBQ 281600Z 21008KT 10SM CLR 22/17 A3002 990 75  2000 210/08 RMK AO2
94908KDBQ DBQ20050628100509406/28/05 10:05:31  5-MIN KDBQ 281605Z 23007KT 10SM CLR 22/17 A3002 990 75  2000 230/07 RMK AO2
94908KDBQ DBQ20050628101009406/28/05 10:10:31  5-MIN KDBQ 281610Z 22005KT 10SM CLR 22/17 A3002 990 75  2000 220/05 RMK AO2
94908KDBQ DBQ20050628101509406/28/05 10:15:31  5-MIN KDBQ 281615Z 21006KT 10SM CLR 22/18 A3002 990 75  2100 210/06 RMK AO2
94908KDBQ DBQ20050628102009406/28/05 10:20:31  5-MIN KDBQ 281620Z 22006KT 10SM CLR 22/18 A3002 990 75  2100 220/06 RMK AO2
94908KDBQ DBQ20050628102509406/28/05 10:25:31  5-MIN KDBQ 281625Z 22007KT 10SM CLR 22/18 A3001 990 75  2100 210/07 RMK AO2
94908KDBQ DBQ20050628103009406/28/05 10:30:31  5-MIN KDBQ 281630Z 22010KT 10SM CLR 23/18 A3001 990 76  2200 220/10 RMK AO2
94908KDBQ DBQ20050628103509406/28/05 10:35:31  5-MIN KDBQ 281635Z 24008KT 10SM CLR 23/18 A3001 990 70  2200 240/08 RMK AO2
94908KDBQ DBQ20050628104009406/28/05 10:40:31  5-MIN KDBQ 281640Z 25005KT 10SM CLR 23/18 A3002 990 70  2200 250/05 RMK AO2
94908KDBQ DBQ20050628104509406/28/05 10:45:31  5-MIN KDBQ 281645Z 25006KT 10SM CLR 24/18 A3002 990 68  2300 250/06 RMK AO2
94908KDBQ DBQ20050628105011106/28/05 10:50:31  5-MIN KDBQ 281650Z 26004KT 10SM CLR 24/18 A3002 990 68  2300 260/04 RMK AO2 SLP160 T02390178
94908KDBQ DBQ20050628105511106/28/05 10:55:31  5-MIN KDBQ 281655Z VRB04KT 10SM CLR 24/18 A3002 990 68  2300 VRB/04 RMK AO2 SLP159 T02440183
94908KDBQ DBQ20050628110009406/28/05 11:00:31  5-MIN KDBQ 281700Z 00000KT 10SM CLR 25/18 A3002 990 66  2400 000/00 RMK AO2
94908KDBQ DBQ20050628110509406/28/05 11:05:31  5-MIN KDBQ 281705Z 28004KT 10SM CLR 25/18 A3001 990 64  2400 280/04 RMK AO2
94908KDBQ DBQ20050628111009406/28/05 11:10:31  5-MIN KDBQ 281710Z 00000KT 10SM CLR 25/17 A3001 990 61  2400 000/00 RMK AO2
94908KDBQ DBQ20050628111509406/28/05 11:15:31  5-MIN KDBQ 281715Z VRB03KT 10SM CLR 25/17 A3001 990 61  2400 VRB/03 RMK AO2
94908KDBQ DBQ20050628112009406/28/05 11:20:31  5-MIN KDBQ 281720Z 00000KT 10SM CLR 24/17 A3001 990 61  2400 000/00 RMK AO2
94908KDBQ DBQ20050628112509406/28/05 11:25:31  5-MIN KDBQ 281725Z VRB03KT 10SM CLR 25/17 A3001 990 61  2400 VRB/03 RMK AO2
94908KDBQ DBQ20050628113009406/28/05 11:30:31  5-MIN KDBQ 281730Z 00000KT 10SM CLR 26/17 A3001 1000 57 2500 000/00 RMK AO2
94908KDBQ DBQ20050628113509406/28/05 11:35:31  5-MIN KDBQ 281735Z 02005KT 10SM CLR 25/18 A3001 990 66  2400 020/05 RMK AO2
94908KDBQ DBQ20050628114009406/28/05 11:40:31  5-MIN KDBQ 281740Z 04007KT 10SM CLR 24/18 A3001 1000 68 2400 040/07 RMK AO2
94908KDBQ DBQ20050628114509406/28/05 11:45:31  5-MIN KDBQ 281745Z 04008KT 10SM CLR 24/19 A3001 1000 71 2400 040/08 RMK AO2
94908KDBQ DBQ20050628115013506/28/05 11:50:31  5-MIN KDBQ 281750Z 04007KT 10SM CLR 24/19 A3001 1000 71 2400 040/07 RMK AO2 SLP156 60000 T02440189 10256 20206 51010
94908KDBQ DBQ20050628115515506/28/05 11:55:31  5-MIN KDBQ 281755Z 03008KT 10SM -RA FEW100 24/19 A3001  1000 73 2300 030/08 RMK AO2 RAB53 SLP157 P0000 60000 T02390189 10256 20206 58004
94908KDBQ DBQ20050628120010406/28/05 12:00:31  5-MIN KDBQ 281800Z 03009KT 10SM -RA CLR 24/19 A3001 1000 73 2300 030/09 RMK AO2 P0000
94908KDBQ DBQ20050628120510806/28/05 12:05:31  5-MIN KDBQ 281805Z 04010KT 10SM -RA FEW019 24/19 A3000  1000 73 2300 040/10 RMK AO2 P0000
94908KDBQ DBQ20050628121010806/28/05 12:10:31  5-MIN KDBQ 281810Z 05009KT 10SM -RA FEW017 24/19 A3000  1000 73 2300 040/09 RMK AO2 P0000
94908KDBQ DBQ20050628121510806/28/05 12:15:31  5-MIN KDBQ 281815Z 05009KT 10SM -RA FEW017 24/19 A3000  1010 73 2300 050/09 RMK AO2 P0000
94908KDBQ DBQ20050628122010806/28/05 12:20:31  5-MIN KDBQ 281820Z 07009KT 10SM -RA FEW017 24/19 A3000  1010 73 2300 070/09 RMK AO2 P0000
94908KDBQ DBQ20050628122510906/28/05 12:25:31  5-MIN KDBQ 281825Z 06010KT 10SM FEW017 24/19 A2999 1010 71 2400 060/10 RMK AO2 RAE21 P0000
94908KDBQ DBQ20050628123010906/28/05 12:30:31  5-MIN KDBQ 281830Z 07006KT 10SM FEW017 24/19 A3000 1010 71 2400 070/06 RMK AO2 RAE21 P0000
94908KDBQ DBQ20050628123510606/28/05 12:35:31  5-MIN KDBQ 281835Z 06008KT 10SM CLR 24/19 A3000 1010 71 2400 060/08 RMK AO2 RAE21 P0000
94908KDBQ DBQ20050628124010606/28/05 12:40:31  5-MIN KDBQ 281840Z 07006KT 10SM CLR 24/19 A3000 1010 71 2400 070/06 RMK AO2 RAE21 P0000
94908KDBQ DBQ20050628124510606/28/05 12:45:31  5-MIN KDBQ 281845Z 06006KT 10SM CLR 25/19 A3000 1010 71 2400 060/06 RMK AO2 RAE21 P0000
94908KDBQ DBQ20050628125012306/28/05 12:50:31  5-MIN KDBQ 281850Z 04009KT 10SM CLR 24/19 A2999 1010 71 2400 040/09 RMK AO2 RAE21 SLP151 P0000 T02440189
94908KDBQ DBQ20050628125512306/28/05 12:55:31  5-MIN KDBQ 281855Z 04006KT 10SM CLR 24/18 A3000 1010 68 2400 040/06 RMK AO2 RAE21 SLP152 P0000 T02440183
94908KDBQ DBQ20050628130009406/28/05 13:00:31  5-MIN KDBQ 281900Z 01006KT 10SM CLR 25/18 A3000 1000 66 2400 010/06 RMK AO2
94908KDBQ DBQ20050628130509406/28/05 13:05:31  5-MIN KDBQ 281905Z 36003KT 10SM CLR 24/18 A3001 990 68  2400 360/03 RMK AO2
94908KDBQ DBQ20050628131009406/28/05 13:10:31  5-MIN KDBQ 281910Z 00000KT 10SM CLR 24/18 A3002 990 66  2300 000/00 RMK AO2
94908KDBQ DBQ20050628131509406/28/05 13:15:31  5-MIN KDBQ 281915Z 00000KT 10SM CLR 24/18 A3002 990 66  2300 000/00 RMK AO2
94908KDBQ DBQ20050628132009406/28/05 13:20:31  5-MIN KDBQ 281920Z 00000KT 10SM CLR 24/18 A3002 990 66  2300 000/00 RMK AO2
94908KDBQ DBQ20050628132509406/28/05 13:25:31  5-MIN KDBQ 281925Z 02004KT 10SM CLR 25/18 A3002 990 66  2400 020/04 RMK AO2
94908KDBQ DBQ20050628133009406/28/05 13:30:31  5-MIN KDBQ 281930Z 36006KT 10SM CLR 25/18 A3001 990 66  2400 360/06 RMK AO2
94908KDBQ DBQ20050628133509406/28/05 13:35:31  5-MIN KDBQ 281935Z 01007KT 10SM CLR 24/18 A3001 1000 68 2400 010/07 RMK AO2
94908KDBQ DBQ20050628134009706/28/05 13:40:31  5-MIN KDBQ 281940Z 36006KT 10SM FEW110 25/19 A3001 1000 68 2400 360/06 RMK AO2
94908KDBQ DBQ20050628134509406/28/05 13:45:31  5-MIN KDBQ 281945Z 34005KT 10SM CLR 25/19 A3001 990 68  2400 340/05 RMK AO2
94908KDBQ DBQ20050628135011106/28/05 13:50:31  5-MIN KDBQ 281950Z 36005KT 10SM CLR 24/19 A3001 990 71  2400 360/05 RMK AO2 SLP158 T02440189
94908KDBQ DBQ20050628135511106/28/05 13:55:31  5-MIN KDBQ 281955Z 35005KT 10SM CLR 25/18 A3001 990 66  2400 350/05 RMK AO2 SLP157 T02500183
94908KDBQ DBQ20050628140009406/28/05 14:00:31  5-MIN KDBQ 282000Z 01005KT 10SM CLR 24/18 A3001 1000 68 2400 360/05 RMK AO2
94908KDBQ DBQ20050628140509706/28/05 14:05:31  5-MIN KDBQ 282005Z 03004KT 10SM FEW120 24/18 A3001 1000 68 2400 030/04 RMK AO2
94908KDBQ DBQ20050628141009706/28/05 14:10:31  5-MIN KDBQ 282010Z 08005KT 10SM FEW110 24/18 A3001 1000 68 2400 080/05 RMK AO2
94908KDBQ DBQ20050628141509706/28/05 14:15:31  5-MIN KDBQ 282015Z 09005KT 10SM FEW110 24/18 A3000 1000 68 2400 090/05 RMK AO2
94908KDBQ DBQ20050628142009706/28/05 14:20:31  5-MIN KDBQ 282020Z 10006KT 10SM FEW110 24/19 A3000 1010 71 2400 100/06 RMK AO2
94908KDBQ DBQ20050628142509706/28/05 14:25:31  5-MIN KDBQ 282025Z 11006KT 10SM FEW110 24/19 A3000 1010 71 2400 110/06 RMK AO2
94908KDBQ DBQ20050628143009706/28/05 14:30:31  5-MIN KDBQ 282030Z 10005KT 10SM FEW110 25/19 A3000 1000 71 2400 100/05 RMK AO2
94908KDBQ DBQ20050628143509406/28/05 14:35:31  5-MIN KDBQ 282035Z 10003KT 10SM CLR 25/19 A3000 1010 68 2400 100/03 RMK AO2
94908KDBQ DBQ20050628144009406/28/05 14:40:31  5-MIN KDBQ 282040Z 10003KT 10SM CLR 25/19 A3000 1010 68 2400 100/03 RMK AO2
94908KDBQ DBQ20050628144509406/28/05 14:45:31  5-MIN KDBQ 282045Z 00000KT 10SM CLR 25/18 A3000 1010 66 2400 000/00 RMK AO2
94908KDBQ DBQ20050628145012306/28/05 14:50:31  5-MIN KDBQ 282050Z 00000KT 10SM CLR 25/18 A2999 1010 64 2400 000/00 RMK AO2 SLP151 60000 T02500178 58004
94908KDBQ DBQ20050628145512306/28/05 14:55:31  5-MIN KDBQ 282055Z 00000KT 10SM CLR 26/17 A2999 1010 59 2500 000/00 RMK AO2 SLP150 60000 T02560172 58006
94908KDBQ DBQ20050628150009406/28/05 15:00:31  5-MIN KDBQ 282100Z 15003KT 10SM CLR 26/18 A2999 1010 61 2500 150/03 RMK AO2
94908KDBQ DBQ20050628150509706/28/05 15:05:31  5-MIN KDBQ 282105Z 00000KT 10SM FEW110 26/17 A2999 1010 59 2500 000/00 RMK AO2
94908KDBQ DBQ20050628151009706/28/05 15:10:31  5-MIN KDBQ 282110Z 15003KT 10SM FEW110 26/18 A2999 1010 64 2500 150/03 RMK AO2
94908KDBQ DBQ20050628151509706/28/05 15:15:31  5-MIN KDBQ 282115Z 00000KT 10SM FEW110 26/18 A2999 1010 61 2500 000/00 RMK AO2
94908KDBQ DBQ20050628152009706/28/05 15:20:31  5-MIN KDBQ 282120Z 00000KT 10SM FEW110 26/18 A2999 1010 62 2600 000/00 RMK AO2
94908KDBQ DBQ20050628152509706/28/05 15:25:31  5-MIN KDBQ 282125Z 00000KT 10SM FEW110 26/18 A3000 1010 64 2500 000/00 RMK AO2
94908KDBQ DBQ20050628153009706/28/05 15:30:31  5-MIN KDBQ 282130Z 00000KT 10SM FEW110 26/19 A2999 1010 66 2500 000/00 RMK AO2
94908KDBQ DBQ20050628153509706/28/05 15:35:31  5-MIN KDBQ 282135Z 15003KT 10SM FEW110 26/18 A2999 1010 64 2500 150/03 RMK AO2
94908KDBQ DBQ20050628154009706/28/05 15:40:31  5-MIN KDBQ 282140Z 00000KT 10SM FEW110 26/18 A2999 1010 64 2500 000/00 RMK AO2
94908KDBQ DBQ20050628154509406/28/05 15:45:31  5-MIN KDBQ 282145Z 00000KT 10SM CLR 26/19 A2999 1010 64 2600 000/00 RMK AO2
94908KDBQ DBQ20050628155011106/28/05 15:50:31  5-MIN KDBQ 282150Z 00000KT 10SM CLR 26/19 A3000 1010 66 2600 000/00 RMK AO2 SLP151 T02610194
94908KDBQ DBQ20050628155511106/28/05 15:55:31  5-MIN KDBQ 282155Z 00000KT 10SM CLR 26/19 A3000 1010 66 2500 000/00 RMK AO2 SLP151 T02560189
94908KDBQ DBQ20050628160009406/28/05 16:00:31  5-MIN KDBQ 282200Z 00000KT 10SM CLR 26/18 A3000 1010 62 2600 000/00 RMK AO2
94908KDBQ DBQ20050628160509406/28/05 16:05:31  5-MIN KDBQ 282205Z 00000KT 10SM CLR 26/18 A3000 1010 64 2500 000/00 RMK AO2
94908KDBQ DBQ20050628161009406/28/05 16:10:31  5-MIN KDBQ 282210Z 00000KT 10SM CLR 26/19 A3000 1010 66 2500 000/00 RMK AO2
94908KDBQ DBQ20050628161509406/28/05 16:15:31  5-MIN KDBQ 282215Z 00000KT 10SM CLR 26/19 A3000 1010 66 2500 000/00 RMK AO2
94908KDBQ DBQ20050628162009406/28/05 16:20:31  5-MIN KDBQ 282220Z 00000KT 10SM CLR 26/19 A3000 1010 66 2500 000/00 RMK AO2
94908KDBQ DBQ20050628162509406/28/05 16:25:31  5-MIN KDBQ 282225Z 00000KT 10SM CLR 26/19 A2999 1010 64 2600 000/00 RMK AO2
94908KDBQ DBQ20050628163009706/28/05 16:30:31  5-MIN KDBQ 282230Z 00000KT 10SM FEW120 26/19 A2999 1010 66 2500 000/00 RMK AO2
94908KDBQ DBQ20050628163509706/28/05 16:35:31  5-MIN KDBQ 282235Z 00000KT 10SM SCT110 26/19 A3000 1010 68 2500 000/00 RMK AO2
94908KDBQ DBQ20050628164009706/28/05 16:40:31  5-MIN KDBQ 282240Z 00000KT 10SM SCT110 26/19 A3000 1010 66 2500 000/00 RMK AO2
94908KDBQ DBQ20050628164509706/28/05 16:45:31  5-MIN KDBQ 282245Z 08003KT 10SM BKN110 26/19 A2999 1010 68 2500 080/03 RMK AO2
94908KDBQ DBQ20050628165011406/28/05 16:50:31  5-MIN KDBQ 282250Z 08003KT 10SM BKN110 26/19 A2999 1010 66 2600 080/03 RMK AO2 SLP150 T02610194
94908KDBQ DBQ20050628165511406/28/05 16:55:31  5-MIN KDBQ 282255Z 09003KT 10SM BKN110 26/19 A2999 1020 64 2600 090/03 RMK AO2 SLP149 T02610189
94908KDBQ DBQ20050628170009706/28/05 17:00:31  5-MIN KDBQ 282300Z 10003KT 10SM SCT110 26/19 A2999 1020 66 2600 100/03 RMK AO2
94908KDBQ DBQ20050628170509706/28/05 17:05:31  5-MIN KDBQ 282305Z 09004KT 10SM SCT110 26/19 A2998 1020 64 2600 090/04 RMK AO2
94908KDBQ DBQ20050628171009706/28/05 17:10:31  5-MIN KDBQ 282310Z 09004KT 10SM FEW110 26/19 A2998 1020 66 2600 090/04 RMK AO2
94908KDBQ DBQ20050628171509706/28/05 17:15:31  5-MIN KDBQ 282315Z 10005KT 10SM FEW110 26/19 A2999 1020 66 2600 100/05 RMK AO2
94908KDBQ DBQ20050628172009406/28/05 17:20:31  5-MIN KDBQ 282320Z 09003KT 10SM CLR 26/19 A2999 1010 68 2500 090/03 RMK AO2
94908KDBQ DBQ20050628172509406/28/05 17:25:31  5-MIN KDBQ 282325Z 11004KT 10SM CLR 26/19 A2999 1010 68 2500 110/04 RMK AO2
94908KDBQ DBQ20050628173009406/28/05 17:30:31  5-MIN KDBQ 282330Z 08004KT 10SM CLR 26/19 A2999 1010 68 2500 080/04 RMK AO2
94908KDBQ DBQ20050628173509406/28/05 17:35:31  5-MIN KDBQ 282335Z 09005KT 10SM CLR 26/20 A2999 1010 71 2500 090/05 RMK AO2
94908KDBQ DBQ20050628174009406/28/05 17:40:31  5-MIN KDBQ 282340Z 08004KT 10SM CLR 26/19 A2999 1010 68 2500 080/04 RMK AO2
94908KDBQ DBQ20050628174509406/28/05 17:45:31  5-MIN KDBQ 282345Z 08004KT 10SM CLR 26/20 A2999 1010 71 2500 080/04 RMK AO2
94908KDBQ DBQ20050628175013506/28/05 17:50:31  5-MIN KDBQ 282350Z 07004KT 10SM CLR 26/19 A3000 1010 68 2500 060/04 RMK AO2 SLP151 60000 T02560194 10267 20239 58006
94908KDBQ DBQ20050628175513506/28/05 17:55:31  5-MIN KDBQ 282355Z 05004KT 10SM CLR 26/19 A3000 1010 68 2500 050/04 RMK AO2 SLP152 60000 T02560194 10267 20239 53002
94908KDBQ DBQ20050628180009406/28/05 18:00:31  5-MIN KDBQ 290000Z 04005KT 10SM CLR 26/19 A3000 1010 68 2500 040/05 RMK AO2
94908KDBQ DBQ20050628180509406/28/05 18:05:31  5-MIN KDBQ 290005Z 05005KT 10SM CLR 26/19 A3000 1010 66 2500 050/05 RMK AO2
94908KDBQ DBQ20050628181009406/28/05 18:10:31  5-MIN KDBQ 290010Z 04003KT 10SM CLR 26/19 A3000 1010 64 2600 040/03 RMK AO2
94908KDBQ DBQ20050628181509406/28/05 18:15:31  5-MIN KDBQ 290015Z 00000KT 10SM CLR 26/19 A3000 1000 66 2600 000/00 RMK AO2
94908KDBQ DBQ20050628182009406/28/05 18:20:31  5-MIN KDBQ 290020Z 08003KT 10SM CLR 26/18 A3000 1000 59 2600 080/03 RMK AO2
94908KDBQ DBQ20050628182509406/28/05 18:25:31  5-MIN KDBQ 290025Z 08003KT 10SM CLR 26/18 A3000 1000 62 2600 080/03 RMK AO2
94908KDBQ DBQ20050628183009406/28/05 18:30:31  5-MIN KDBQ 290030Z 00000KT 10SM CLR 26/18 A3000 1000 62 2600 000/00 RMK AO2
94908KDBQ DBQ20050628183509406/28/05 18:35:31  5-MIN KDBQ 290035Z 06003KT 10SM CLR 26/18 A3000 1000 62 2600 060/03 RMK AO2
94908KDBQ DBQ20050628184009406/28/05 18:40:31  5-MIN KDBQ 290040Z 07003KT 10SM CLR 26/18 A3000 1000 64 2500 070/03 RMK AO2
94908KDBQ DBQ20050628184509406/28/05 18:45:31  5-MIN KDBQ 290045Z 08004KT 10SM CLR 26/18 A3000 1000 64 2500 080/04 RMK AO2
94908KDBQ DBQ20050628185012206/28/05 18:50:31  5-MIN KDBQ 290050Z AUTO 09004KT 10SM CLR 26/19 A3000  1010 66 2500 080/04 RMK AO2 SLP152 T02560189 TSNO
94908KDBQ DBQ20050628185512206/28/05 18:55:31  5-MIN KDBQ 290055Z AUTO 09004KT 10SM CLR 25/19 A3000  1010 68 2400 090/04 RMK AO2 SLP151 T02500189 TSNO
94908KDBQ DBQ20050628190010506/28/05 19:00:31  5-MIN KDBQ 290100Z AUTO 09003KT 10SM CLR 25/19 A3000  1010 68 2400 090/03 RMK AO2 TSNO
94908KDBQ DBQ20050628190510506/28/05 19:05:31  5-MIN KDBQ 290105Z AUTO 07003KT 10SM CLR 25/19 A3000  1010 71 2400 070/03 RMK AO2 TSNO
94908KDBQ DBQ20050628191010506/28/05 19:10:31  5-MIN KDBQ 290110Z AUTO 05004KT 10SM CLR 24/19 A3000  1010 73 2400 050/04 RMK AO2 TSNO
94908KDBQ DBQ20050628191510506/28/05 19:15:31  5-MIN KDBQ 290115Z AUTO 04004KT 10SM CLR 24/19 A3000  1000 73 2300 040/04 RMK AO2 TSNO
94908KDBQ DBQ20050628192010506/28/05 19:20:31  5-MIN KDBQ 290120Z AUTO 04004KT 10SM CLR 24/19 A3000  1000 73 2300 040/04 RMK AO2 TSNO
94908KDBQ DBQ20050628192510506/28/05 19:25:31  5-MIN KDBQ 290125Z AUTO 03004KT 10SM CLR 23/18 A3000  1000 73 2200 030/04 RMK AO2 TSNO
94908KDBQ DBQ20050628193010506/28/05 19:30:31  5-MIN KDBQ 290130Z AUTO 03004KT 10SM CLR 23/18 A3000  1000 76 2200 030/04 RMK AO2 TSNO
94908KDBQ DBQ20050628193510506/28/05 19:35:31  5-MIN KDBQ 290135Z AUTO 05004KT 10SM CLR 23/18 A3000  1000 76 2200 050/04 RMK AO2 TSNO
94908KDBQ DBQ20050628194010506/28/05 19:40:31  5-MIN KDBQ 290140Z AUTO 05003KT 10SM CLR 23/18 A3000  1000 73 2200 050/03 RMK AO2 TSNO
94908KDBQ DBQ20050628194510506/28/05 19:45:31  5-MIN KDBQ 290145Z AUTO 05003KT 10SM CLR 23/18 A3000  1000 73 2200 050/03 RMK AO2 TSNO
94908KDBQ DBQ20050628195012206/28/05 19:50:31  5-MIN KDBQ 290150Z AUTO 04004KT 10SM CLR 23/18 A3000  1000 73 2200 040/04 RMK AO2 SLP154 T02330183 TSNO
94908KDBQ DBQ20050628195512206/28/05 19:55:31  5-MIN KDBQ 290155Z AUTO 03004KT 10SM CLR 22/18 A3000  1000 78 2100 030/04 RMK AO2 SLP154 T02220183 TSNO
94908KDBQ DBQ20050628200010506/28/05 20:00:31  5-MIN KDBQ 290200Z AUTO 02004KT 10SM CLR 22/18 A3000  1000 81 2000 020/04 RMK AO2 TSNO
94908KDBQ DBQ20050628200510506/28/05 20:05:31  5-MIN KDBQ 290205Z AUTO 03004KT 10SM CLR 22/18 A3000  1000 81 2000 030/04 RMK AO2 TSNO
94908KDBQ DBQ20050628201010506/28/05 20:10:31  5-MIN KDBQ 290210Z AUTO 04003KT 10SM CLR 22/18 A3000  1000 81 2000 040/03 RMK AO2 TSNO
94908KDBQ DBQ20050628201510506/28/05 20:15:31  5-MIN KDBQ 290215Z AUTO 05003KT 10SM CLR 22/19 A3000  1000 84 2000 050/03 RMK AO2 TSNO
94908KDBQ DBQ20050628202010506/28/05 20:20:31  5-MIN KDBQ 290220Z AUTO 05003KT 10SM CLR 22/19 A3000  1000 84 2000 050/03 RMK AO2 TSNO
94908KDBQ DBQ20050628202510506/28/05 20:25:31  5-MIN KDBQ 290225Z AUTO 04003KT 10SM CLR 22/19 A3000  1000 84 2000 040/03 RMK AO2 TSNO
94908KDBQ DBQ20050628203010506/28/05 20:30:31  5-MIN KDBQ 290230Z AUTO 03005KT 10SM CLR 22/19 A3001  1000 84 2000 030/05 RMK AO2 TSNO
94908KDBQ DBQ20050628203510506/28/05 20:35:31  5-MIN KDBQ 290235Z AUTO 03005KT 10SM CLR 21/19 A3001  1000 87 2000 030/05 RMK AO2 TSNO
94908KDBQ DBQ20050628204010306/28/05 20:40:31  5-MIN KDBQ 290240Z AUTO 04006KT 10SM CLR 22/19 A3001 990 84 2000 040/06 RMK AO2 TSNO
94908KDBQ DBQ20050628204510306/28/05 20:45:31  5-MIN KDBQ 290245Z AUTO 04005KT 10SM CLR 22/19 A3001 990 84 2000 040/05 RMK AO2 TSNO
94908KDBQ DBQ20050628205012606/28/05 20:50:31  5-MIN KDBQ 290250Z AUTO 03005KT 10SM CLR 22/19 A3001 990 84 2000 030/05 RMK AO2 SLP157 T02170189 53002 TSNO
94908KDBQ DBQ20050628205512606/28/05 20:55:31  5-MIN KDBQ 290255Z AUTO 03005KT 10SM CLR 21/19 A3001 990 87 2000 020/05 RMK AO2 SLP158 T02110189 53004 TSNO
94908KDBQ DBQ20050628210010306/28/05 21:00:31  5-MIN KDBQ 290300Z AUTO 03006KT 10SM CLR 21/19 A3001 990 87 2000 030/06 RMK AO2 TSNO
94908KDBQ DBQ20050628210510306/28/05 21:05:31  5-MIN KDBQ 290305Z AUTO 02005KT 10SM CLR 21/19 A3001 990 87 2000 020/05 RMK AO2 TSNO
94908KDBQ DBQ20050628211010306/28/05 21:10:31  5-MIN KDBQ 290310Z AUTO 03004KT 10SM CLR 22/19 A3001 990 87 2000 020/04 RMK AO2 TSNO
94908KDBQ DBQ20050628211510306/28/05 21:15:31  5-MIN KDBQ 290315Z AUTO 04003KT 10SM CLR 21/19 A3001 990 87 2000 040/03 RMK AO2 TSNO
94908KDBQ DBQ20050628212010306/28/05 21:20:31  5-MIN KDBQ 290320Z AUTO 00000KT 10SM CLR 21/19 A3002 990 87 2000 000/00 RMK AO2 TSNO
94908KDBQ DBQ20050628212510306/28/05 21:25:31  5-MIN KDBQ 290325Z AUTO 00000KT 10SM CLR 21/19 A3002 990 87 2000 000/00 RMK AO2 TSNO
94908KDBQ DBQ20050628213010306/28/05 21:30:31  5-MIN KDBQ 290330Z AUTO 00000KT 10SM CLR 21/19 A3002 990 87 2000 000/00 RMK AO2 TSNO
94908KDBQ DBQ20050628213510306/28/05 21:35:31  5-MIN KDBQ 290335Z AUTO 00000KT 10SM CLR 21/19 A3002 990 87 2000 000/00 RMK AO2 TSNO
94908KDBQ DBQ20050628214010306/28/05 21:40:31  5-MIN KDBQ 290340Z AUTO 00000KT 10SM CLR 21/19 A3002 980 90 2000 000/00 RMK AO2 TSNO
94908KDBQ DBQ20050628214510206/28/05 21:45:31  5-MIN KDBQ 290345Z AUTO 00000KT 9SM CLR 21/19 A3002 980 93 1900 000/00 RMK AO2 TSNO
94908KDBQ DBQ20050628215011906/28/05 21:50:31  5-MIN KDBQ 290350Z AUTO 00000KT 9SM CLR 21/19 A3002 990 93 1900 000/00 RMK AO2 SLP161 T02060194 TSNO
94908KDBQ DBQ20050628215511906/28/05 21:55:31  5-MIN KDBQ 290355Z AUTO 00000KT 9SM CLR 21/19 A3002 990 90 1900 000/00 RMK AO2 SLP161 T02060189 TSNO
94908KDBQ DBQ20050628220010206/28/05 22:00:31  5-MIN KDBQ 290400Z AUTO 00000KT 9SM CLR 21/19 A3002 980 90 1900 000/00 RMK AO2 TSNO
94908KDBQ DBQ20050628220510206/28/05 22:05:31  5-MIN KDBQ 290405Z AUTO 00000KT 9SM CLR 21/19 A3002 980 90 1900 000/00 RMK AO2 TSNO
94908KDBQ DBQ20050628221010206/28/05 22:10:31  5-MIN KDBQ 290410Z AUTO 00000KT 9SM CLR 21/19 A3002 990 93 1900 000/00 RMK AO2 TSNO
94908KDBQ DBQ20050628221510206/28/05 22:15:31  5-MIN KDBQ 290415Z AUTO 05003KT 9SM CLR 21/19 A3002 990 90 2000 050/03 RMK AO2 TSNO
94908KDBQ DBQ20050628222010206/28/05 22:20:31  5-MIN KDBQ 290420Z AUTO 00000KT 9SM CLR 20/19 A3002 990 93 1800 000/00 RMK AO2 TSNO
94908KDBQ DBQ20050628222510206/28/05 22:25:31  5-MIN KDBQ 290425Z AUTO 00000KT 9SM CLR 20/18 A3002 990 90 1800 000/00 RMK AO2 TSNO
94908KDBQ DBQ20050628223010206/28/05 22:30:31  5-MIN KDBQ 290430Z AUTO 00000KT 9SM CLR 20/19 A3002 990 93 1800 000/00 RMK AO2 TSNO
94908KDBQ DBQ20050628223510206/28/05 22:35:31  5-MIN KDBQ 290435Z AUTO 00000KT 9SM CLR 20/18 A3002 990 90 1800 000/00 RMK AO2 TSNO
94908KDBQ DBQ20050628224010206/28/05 22:40:31  5-MIN KDBQ 290440Z AUTO 00000KT 9SM CLR 20/18 A3002 990 90 1800 000/00 RMK AO2 TSNO
94908KDBQ DBQ20050628224510206/28/05 22:45:31  5-MIN KDBQ 290445Z AUTO 00000KT 8SM CLR 21/19 A3002 990 90 1900 000/00 RMK AO2 TSNO
94908KDBQ DBQ20050628225011906/28/05 22:50:31  5-MIN KDBQ 290450Z AUTO 00000KT 8SM CLR 20/19 A3002 990 93 1800 000/00 RMK AO2 SLP159 T02000189 TSNO
94908KDBQ DBQ20050628225511906/28/05 22:55:31  5-MIN KDBQ 290455Z AUTO 00000KT 7SM CLR 21/19 A3002 990 90 1900 000/00 RMK AO2 SLP158 T02060189 TSNO
94908KDBQ DBQ20050628230010206/28/05 23:00:31  5-MIN KDBQ 290500Z AUTO 00000KT 7SM CLR 20/19 A3002 990 93 1800 000/00 RMK AO2 TSNO
94908KDBQ DBQ20050628230510206/28/05 23:05:31  5-MIN KDBQ 290505Z AUTO 00000KT 7SM CLR 19/18 A3002 990 93 1800 000/00 RMK AO2 TSNO
94908KDBQ DBQ20050628231010206/28/05 23:10:31  5-MIN KDBQ 290510Z AUTO 00000KT 7SM CLR 20/19 A3002 990 93 1800 000/00 RMK AO2 TSNO
94908KDBQ DBQ20050628231510206/28/05 23:15:31  5-MIN KDBQ 290515Z AUTO 00000KT 7SM CLR 20/19 A3002 990 93 1800 000/00 RMK AO2 TSNO
94908KDBQ DBQ20050628232010206/28/05 23:20:31  5-MIN KDBQ 290520Z AUTO 00000KT 7SM CLR 20/19 A3002 990 93 1800 000/00 RMK AO2 TSNO
94908KDBQ DBQ20050628232510206/28/05 23:25:31  5-MIN KDBQ 290525Z AUTO 00000KT 7SM CLR 19/18 A3002 980 93 1800 000/00 RMK AO2 TSNO
94908KDBQ DBQ20050628233010206/28/05 23:30:31  5-MIN KDBQ 290530Z AUTO 00000KT 7SM CLR 19/18 A3003 980 93 1800 000/00 RMK AO2 TSNO
94908KDBQ DBQ20050628233510206/28/05 23:35:31  5-MIN KDBQ 290535Z AUTO 00000KT 7SM CLR 19/19 A3003 980 97 1800 000/00 RMK AO2 TSNO
94908KDBQ DBQ20050628234010206/28/05 23:40:31  5-MIN KDBQ 290540Z AUTO 00000KT 7SM CLR 19/18 A3003 980 93 1800 000/00 RMK AO2 TSNO
94908KDBQ DBQ20050628234510606/28/05 23:45:31  5-MIN KDBQ 290545Z AUTO 00000KT 6SM BR CLR 19/19 A3003  980 97 1800 000/00 RMK AO2 TSNO
94908KDBQ DBQ20050628235014706/28/05 23:50:31  5-MIN KDBQ 290550Z AUTO 00000KT 7SM CLR 19/18 A3003 980 97 1700 000/00 RMK AO2 SLP162 T01890183 10261 20189 402670189 53004 TSNO
94908KDBQ DBQ20050628235514706/28/05 23:55:31  5-MIN KDBQ 290555Z AUTO 05003KT 8SM CLR 19/18 A3003 980 93 1800 050/03 RMK AO2 SLP162 T01940183 10261 20189 402670189 52005 TSNO
94908KDBQ DBQ20050629000010206/29/05 00:00:38  5-MIN KDBQ 290600Z AUTO 00000KT 9SM CLR 21/18 A3003 980 87 1900 000/00 RMK AO2 TSNO
94908KDBQ DBQ20050629000510206/29/05 00:05:31  5-MIN KDBQ 290605Z AUTO 00000KT 8SM CLR 19/18 A3002 980 93 1800 000/00 RMK AO2 TSNO
94908KDBQ DBQ20050629001010206/29/05 00:10:31  5-MIN KDBQ 290610Z AUTO 00000KT 7SM CLR 19/18 A3002 980 93 1800 000/00 RMK AO2 TSNO
94908KDBQ DBQ20050629001510206/29/05 00:15:32  5-MIN KDBQ 290615Z AUTO 00000KT 7SM CLR 19/18 A3002 980 93 1800 000/00 RMK AO2 TSNO
94908KDBQ DBQ20050629002010206/29/05 00:20:31  5-MIN KDBQ 290620Z AUTO 00000KT 7SM CLR 19/18 A3002 980 93 1800 000/00 RMK AO2 TSNO
94908KDBQ DBQ20050629002510206/29/05 00:25:31  5-MIN KDBQ 290625Z AUTO 00000KT 7SM CLR 19/18 A3002 990 93 1800 000/00 RMK AO2 TSNO
94908KDBQ DBQ20050629003010206/29/05 00:30:31  5-MIN KDBQ 290630Z AUTO 00000KT 8SM CLR 20/18 A3002 990 90 1800 000/00 RMK AO2 TSNO
94908KDBQ DBQ20050629003510206/29/05 00:35:31  5-MIN KDBQ 290635Z AUTO 09004KT 9SM CLR 20/18 A3001 990 90 1800 090/04 RMK AO2 TSNO
94908KDBQ DBQ20050629004010206/29/05 00:40:31  5-MIN KDBQ 290640Z AUTO 09004KT 9SM CLR 20/18 A3001 990 90 1800 090/04 RMK AO2 TSNO
94908KDBQ DBQ20050629004510206/29/05 00:45:31  5-MIN KDBQ 290645Z AUTO 09003KT 9SM CLR 20/18 A3001 990 90 1800 090/03 RMK AO2 TSNO
94908KDBQ DBQ20050629005011906/29/05 00:50:31  5-MIN KDBQ 290650Z AUTO 00000KT 9SM CLR 19/18 A3001 990 90 1800 000/00 RMK AO2 SLP157 T01940178 TSNO
94908KDBQ DBQ20050629005511906/29/05 00:55:31  5-MIN KDBQ 290655Z AUTO 00000KT 8SM CLR 19/18 A3001 990 93 1700 000/00 RMK AO2 SLP157 T01890178 TSNO
94908KDBQ DBQ20050629010010306/29/05 01:00:31  5-MIN KDBQ 290700Z AUTO 00000KT 9SM CLR 20/18 A3001 1000 87 1800 000/00 RMK AO2 TSNO
94908KDBQ DBQ20050629010510306/29/05 01:05:31  5-MIN KDBQ 290705Z AUTO 00000KT 9SM CLR 20/18 A3001 1000 87 1900 000/00 RMK AO2 TSNO
94908KDBQ DBQ20050629011010306/29/05 01:10:31  5-MIN KDBQ 290710Z AUTO 00000KT 9SM CLR 19/18 A3001 1000 90 1800 000/00 RMK AO2 TSNO
94908KDBQ DBQ20050629011510306/29/05 01:15:31  5-MIN KDBQ 290715Z AUTO 00000KT 9SM CLR 19/18 A3001 1000 90 1800 000/00 RMK AO2 TSNO
94908KDBQ DBQ20050629012010306/29/05 01:20:31  5-MIN KDBQ 290720Z AUTO 00000KT 9SM CLR 19/18 A3001 1000 90 1800 000/00 RMK AO2 TSNO
94908KDBQ DBQ20050629012510306/29/05 01:25:31  5-MIN KDBQ 290725Z AUTO 00000KT 8SM CLR 19/18 A3001 1000 90 1800 000/00 RMK AO2 TSNO
94908KDBQ DBQ20050629013010306/29/05 01:30:31  5-MIN KDBQ 290730Z AUTO 00000KT 9SM CLR 19/17 A3001 1000 90 1700 000/00 RMK AO2 TSNO
94908KDBQ DBQ20050629013510306/29/05 01:35:31  5-MIN KDBQ 290735Z AUTO 00000KT 9SM CLR 19/17 A3001 1000 90 1700 000/00 RMK AO2 TSNO
94908KDBQ DBQ20050629014010306/29/05 01:40:31  5-MIN KDBQ 290740Z AUTO 00000KT 9SM CLR 19/17 A3001 1000 90 1700 000/00 RMK AO2 TSNO
94908KDBQ DBQ20050629014510306/29/05 01:45:31  5-MIN KDBQ 290745Z AUTO 00000KT 9SM CLR 19/18 A3001 1000 90 1800 000/00 RMK AO2 TSNO
94908KDBQ DBQ20050629015012006/29/05 01:50:31  5-MIN KDBQ 290750Z AUTO 04004KT 9SM CLR 18/17 A3000 1000 93 1700 040/04 RMK AO2 SLP154 T01830172 TSNO
94908KDBQ DBQ20050629015512006/29/05 01:55:31  5-MIN KDBQ 290755Z AUTO 00000KT 9SM CLR 19/18 A2999 1010 90 1800 000/00 RMK AO2 SLP150 T01940178 TSNO
94908KDBQ DBQ20050629020010306/29/05 02:00:31  5-MIN KDBQ 290800Z AUTO 00000KT 7SM CLR 19/18 A3000 1000 93 1800 000/00 RMK AO2 TSNO
94908KDBQ DBQ20050629020510706/29/05 02:05:31  5-MIN KDBQ 290805Z AUTO 00000KT 6SM BR CLR 19/18 A3000  1000 93 1700 000/00 RMK AO2 TSNO
94908KDBQ DBQ20050629021010706/29/05 02:10:31  5-MIN KDBQ 290810Z AUTO 00000KT 5SM BR CLR 19/18 A3000  1000 93 1800 000/00 RMK AO2 TSNO
94908KDBQ DBQ20050629021510706/29/05 02:15:31  5-MIN KDBQ 290815Z AUTO 05005KT 5SM BR CLR 19/18 A3000  1000 97 1700 040/05 RMK AO2 TSNO
94908KDBQ DBQ20050629022010706/29/05 02:20:31  5-MIN KDBQ 290820Z AUTO 03004KT 4SM BR CLR 19/18 A3000  1000 93 1800 030/04 RMK AO2 TSNO
94908KDBQ DBQ20050629022510706/29/05 02:25:31  5-MIN KDBQ 290825Z AUTO 03005KT 3SM BR CLR 20/19 A3000  1010 93 1900 030/05 RMK AO2 TSNO
94908KDBQ DBQ20050629023010706/29/05 02:30:31  5-MIN KDBQ 290830Z AUTO 05005KT 3SM BR CLR 20/19 A3000  1000 93 1900 050/05 RMK AO2 TSNO
94908KDBQ DBQ20050629023510706/29/05 02:35:31  5-MIN KDBQ 290835Z AUTO 04004KT 3SM BR CLR 20/19 A3000  1000 93 1900 040/04 RMK AO2 TSNO
94908KDBQ DBQ20050629024011106/29/05 02:40:31  5-MIN KDBQ 290840Z AUTO 00000KT 2 1/2SM BR CLR 19/19  A2999 1010 97 1800 000/00 RMK AO2 TSNO
94908KDBQ DBQ20050629024511106/29/05 02:45:31  5-MIN KDBQ 290845Z AUTO 00000KT 2 1/2SM BR CLR 20/19  A3000 1000 93 1900 000/00 RMK AO2 TSNO
94908KDBQ DBQ20050629025013006/29/05 02:50:31  5-MIN KDBQ 290850Z AUTO 00000KT 2SM BR CLR 20/19 A3000  1000 93 1900 000/00 RMK AO2 SLP154 T02000189 52005 TSNO
94908KDBQ DBQ20050629025513406/29/05 02:55:31  5-MIN KDBQ 290855Z AUTO 00000KT 1 1/2SM BR CLR 19/18  A3000 1000 93 1800 000/00 RMK AO2 SLP154 T01940183 55008 TSNO
94908KDBQ DBQ20050629030011106/29/05 03:00:31  5-MIN KDBQ 290900Z AUTO 00000KT 1 3/4SM BR CLR 19/18  A2999 1010 93 1800 000/00 RMK AO2 TSNO
94908KDBQ DBQ20050629030511106/29/05 03:05:31  5-MIN KDBQ 290905Z AUTO 00000KT 2 1/2SM BR CLR 19/18  A3000 1000 93 1700 000/00 RMK AO2 TSNO
94908KDBQ DBQ20050629031011106/29/05 03:10:31  5-MIN KDBQ 290910Z AUTO 00000KT 2 1/2SM BR CLR 19/18  A3000 1000 97 1700 000/00 RMK AO2 TSNO
94908KDBQ DBQ20050629031511106/29/05 03:15:31  5-MIN KDBQ 290915Z AUTO 00000KT 2 1/2SM BR CLR 19/18  A3000 1010 97 1700 000/00 RMK AO2 TSNO
94908KDBQ DBQ20050629032010706/29/05 03:20:31  5-MIN KDBQ 290920Z AUTO 00000KT 3SM BR CLR 19/18 A2999  1020 97 1700 000/00 RMK AO2 TSNO
94908KDBQ DBQ20050629032511106/29/05 03:25:31  5-MIN KDBQ 290925Z AUTO 00000KT 2 1/2SM BR CLR 19/18  A3000 1010 93 1700 000/00 RMK AO2 TSNO
94908KDBQ DBQ20050629033010706/29/05 03:30:31  5-MIN KDBQ 290930Z AUTO 00000KT 2SM BR CLR 19/18 A3000  1010 97 1700 000/00 RMK AO2 TSNO
94908KDBQ DBQ20050629033511106/29/05 03:35:31  5-MIN KDBQ 290935Z AUTO 00000KT 1 1/2SM BR CLR 19/18  A2999 1020 97 1700 000/00 RMK AO2 TSNO
94908KDBQ DBQ20050629034010706/29/05 03:40:31  5-MIN KDBQ 290940Z AUTO 00000KT 2SM BR CLR 18/18 A2999  1010 96 1700 000/00 RMK AO2 TSNO
94908KDBQ DBQ20050629034510706/29/05 03:45:31  5-MIN KDBQ 290945Z AUTO 07003KT 5SM BR CLR 18/18 A2999  1010 96 1700 070/03 RMK AO2 TSNO
94908KDBQ DBQ20050629035012006/29/05 03:50:31  5-MIN KDBQ 290950Z AUTO 05004KT 7SM CLR 18/18 A2998 1020 96 1700 050/04 RMK AO2 SLP147 T01830178 TSNO
94908KDBQ DBQ20050629035512406/29/05 03:55:31  5-MIN KDBQ 290955Z AUTO 04005KT 6SM BR CLR 18/17 A2999  1010 96 1600 040/05 RMK AO2 SLP150 T01780172 TSNO
94908KDBQ DBQ20050629040010706/29/05 04:00:31  5-MIN KDBQ 291000Z AUTO 07004KT 5SM BR CLR 19/18 A2999  1020 93 1700 070/04 RMK AO2 TSNO
94908KDBQ DBQ20050629040510706/29/05 04:05:31  5-MIN KDBQ 291005Z AUTO 10003KT 6SM BR CLR 19/18 A2999  1020 93 1800 100/03 RMK AO2 TSNO
94908KDBQ DBQ20050629041010306/29/05 04:10:31  5-MIN KDBQ 291010Z AUTO 11004KT 8SM CLR 19/18 A2998 1020 90 1800 110/04 RMK AO2 TSNO
94908KDBQ DBQ20050629041510306/29/05 04:15:31  5-MIN KDBQ 291015Z AUTO 12004KT 8SM CLR 19/17 A2998 1020 90 1700 120/04 RMK AO2 TSNO
94908KDBQ DBQ20050629042010306/29/05 04:20:31  5-MIN KDBQ 291020Z AUTO 12004KT 8SM CLR 19/17 A2999 1020 90 1700 120/04 RMK AO2 TSNO
94908KDBQ DBQ20050629042510306/29/05 04:25:31  5-MIN KDBQ 291025Z AUTO 12006KT 9SM CLR 19/17 A2999 1020 87 1800 120/06 RMK AO2 TSNO
94908KDBQ DBQ20050629043010306/29/05 04:30:31  5-MIN KDBQ 291030Z AUTO 12004KT 9SM CLR 20/17 A2999 1020 84 1900 120/04 RMK AO2 TSNO
94908KDBQ DBQ20050629043510306/29/05 04:35:31  5-MIN KDBQ 291035Z AUTO 12004KT 9SM CLR 19/17 A2999 1020 87 1800 120/04 RMK AO2 TSNO
94908KDBQ DBQ20050629044010306/29/05 04:40:31  5-MIN KDBQ 291040Z AUTO 13004KT 9SM CLR 19/17 A2999 1020 87 1800 130/04 RMK AO2 TSNO
94908KDBQ DBQ20050629044510306/29/05 04:45:31  5-MIN KDBQ 291045Z AUTO 13004KT 9SM CLR 19/17 A2999 1020 87 1800 130/04 RMK AO2 TSNO
94908KDBQ DBQ20050629045012006/29/05 04:50:31  5-MIN KDBQ 291050Z AUTO 13003KT 9SM CLR 20/17 A2999 1010 84 1900 130/03 RMK AO2 SLP149 T02000172 TSNO
94908KDBQ DBQ20050629045511106/29/05 04:55:31  5-MIN KDBQ 291055Z 13003KT 9SM CLR 20/17 A2999 1020 81  1900 130/03 RMK AO2 SLP148 T02000167
94908KDBQ DBQ20050629050009406/29/05 05:00:31  5-MIN KDBQ 291100Z 12004KT 9SM CLR 21/17 A2998 1020 81  1900 120/04 RMK AO2
94908KDBQ DBQ20050629050509406/29/05 05:05:31  5-MIN KDBQ 291105Z 12004KT 9SM CLR 21/17 A2999 1020 81  1900 120/04 RMK AO2
94908KDBQ DBQ20050629051009406/29/05 05:10:31  5-MIN KDBQ 291110Z 12004KT 9SM CLR 21/17 A2999 1020 81  1900 120/04 RMK AO2
94908KDBQ DBQ20050629051509406/29/05 05:15:31  5-MIN KDBQ 291115Z 11004KT 9SM CLR 21/17 A2999 1020 81  1900 110/04 RMK AO2
94908KDBQ DBQ20050629052009406/29/05 05:20:31  5-MIN KDBQ 291120Z 10005KT 10SM CLR 21/17 A2999 1020 81 1900 100/05 RMK AO2
94908KDBQ DBQ20050629052509406/29/05 05:25:31  5-MIN KDBQ 291125Z 08004KT 10SM CLR 21/18 A2999 1010 84 1900 080/04 RMK AO2
94908KDBQ DBQ20050629053009406/29/05 05:30:31  5-MIN KDBQ 291130Z 07004KT 10SM CLR 21/18 A2999 1010 81 2000 060/04 RMK AO2
94908KDBQ DBQ20050629053509406/29/05 05:35:31  5-MIN KDBQ 291135Z 09004KT 10SM CLR 21/18 A2999 1010 84 2000 080/04 RMK AO2
94908KDBQ DBQ20050629054009406/29/05 05:40:31  5-MIN KDBQ 291140Z 10003KT 10SM CLR 21/18 A2999 1010 84 2000 100/03 RMK AO2
94908KDBQ DBQ20050629054509406/29/05 05:45:31  5-MIN KDBQ 291145Z 11003KT 10SM CLR 22/18 A2999 1010 81 2100 110/03 RMK AO2
94908KDBQ DBQ20050629055012906/29/05 05:50:31  5-MIN KDBQ 291150Z 11004KT 10SM CLR 22/18 A2999 1010 78 2100 110/04 RMK AO2 SLP150 T02170178 10217 20178 55008
94908KDBQ DBQ20050629055512906/29/05 05:55:31  5-MIN KDBQ 291155Z 00000KT 10SM CLR 22/18 A2999 1010 81 2100 000/00 RMK AO2 SLP150 T02170183 10217 20178 55003
94908KDBQ DBQ20050629060009406/29/05 06:00:31  5-MIN KDBQ 291200Z 00000KT 10SM CLR 22/19 A3000 1010 81 2100 000/00 RMK AO2
94908KDBQ DBQ20050629060509406/29/05 06:05:31  5-MIN KDBQ 291205Z 11003KT 10SM CLR 23/18 A2999 1010 76 2200 110/03 RMK AO2
94908KDBQ DBQ20050629061009406/29/05 06:10:31  5-MIN KDBQ 291210Z 12003KT 10SM CLR 23/19 A2999 1010 78 2200 120/03 RMK AO2
94908KDBQ DBQ20050629061509406/29/05 06:15:31  5-MIN KDBQ 291215Z 12006KT 10SM CLR 23/18 A2999 1010 76 2200 120/06 RMK AO2
94908KDBQ DBQ20050629062009406/29/05 06:20:31  5-MIN KDBQ 291220Z 12007KT 10SM CLR 23/18 A2999 1010 76 2200 110/07 RMK AO2
94908KDBQ DBQ20050629062509706/29/05 06:25:31  5-MIN KDBQ 291225Z 13005KT 10SM FEW050 23/18 A2999 1010 76 2200 120/05 RMK AO2
94908KDBQ DBQ20050629063009706/29/05 06:30:31  5-MIN KDBQ 291230Z 14004KT 10SM FEW050 23/18 A2999 1010 76 2200 140/04 RMK AO2
94908KDBQ DBQ20050629063509706/29/05 06:35:31  5-MIN KDBQ 291235Z 13007KT 10SM FEW050 23/18 A2999 1010 76 2200 130/07 RMK AO2
94908KDBQ DBQ20050629064009706/29/05 06:40:31  5-MIN KDBQ 291240Z 13005KT 10SM FEW050 23/18 A2999 1020 70 2300 130/05 RMK AO2
94908KDBQ DBQ20050629064509706/29/05 06:45:31  5-MIN KDBQ 291245Z 13004KT 10SM FEW050 23/18 A2999 1020 73 2300 130/04 RMK AO2
94908KDBQ DBQ20050629065011406/29/05 06:50:31  5-MIN KDBQ 291250Z 12007KT 10SM FEW050 23/18 A2999 1020 73 2300 120/07 RMK AO2 SLP147 T02330183
94908KDBQ DBQ20050629065511106/29/05 06:55:31  5-MIN KDBQ 291255Z 13007KT 10SM CLR 23/18 A2999 1020 73 2300 130/07 RMK AO2 SLP147 T02330183
94908KDBQ DBQ20050629070009406/29/05 07:00:31  5-MIN KDBQ 291300Z 13005KT 10SM CLR 23/18 A2999 1020 73 2300 130/05 RMK AO2
94908KDBQ DBQ20050629070509406/29/05 07:05:31  5-MIN KDBQ 291305Z 14005KT 10SM CLR 24/19 A2999 1010 73 2300 140/05 RMK AO2
94908KDBQ DBQ20050629071009406/29/05 07:10:31  5-MIN KDBQ 291310Z 14006KT 10SM CLR 24/19 A2999 1010 73 2300 140/06 RMK AO2
94908KDBQ DBQ20050629071509406/29/05 07:15:31  5-MIN KDBQ 291315Z 13007KT 10SM CLR 24/19 A2999 1010 73 2300 130/07 RMK AO2
94908KDBQ DBQ20050629072009406/29/05 07:20:31  5-MIN KDBQ 291320Z 13006KT 10SM CLR 24/19 A2999 1010 73 2300 130/06 RMK AO2
94908KDBQ DBQ20050629072509406/29/05 07:25:31  5-MIN KDBQ 291325Z 13006KT 9SM CLR 24/19 A2999 1020 73  2300 130/06 RMK AO2
94908KDBQ DBQ20050629073009406/29/05 07:30:31  5-MIN KDBQ 291330Z 14006KT 9SM CLR 24/19 A2999 1010 73  2300 130/06 RMK AO2
94908KDBQ DBQ20050629073509706/29/05 07:35:31  5-MIN KDBQ 291335Z 14006KT 9SM FEW043 24/19 A2999 1010  76 2300 140/06 RMK AO2
94908KDBQ DBQ20050629074009706/29/05 07:40:31  5-MIN KDBQ 291340Z 15006KT 9SM FEW043 24/19 A2999 1010  73 2400 150/06 RMK AO2
94908KDBQ DBQ20050629074510306/29/05 07:45:31  5-MIN KDBQ 291345Z 15006KT 9SM SCT043 SCT055 24/19 A2999 1010 73 2400 150/06 RMK AO2
94908KDBQ DBQ20050629075012006/29/05 07:50:31  5-MIN KDBQ 291350Z 16006KT 9SM SCT045 SCT055 24/19 A2999 1020 73 2400 160/06 RMK AO2 SLP148 T02440194
94908KDBQ DBQ20050629075512006/29/05 07:55:31  5-MIN KDBQ 291355Z 15005KT 9SM FEW045 SCT060 24/19 A2999 1010 73 2400 150/05 RMK AO2 SLP149 T02440194
94908KDBQ DBQ20050629080010306/29/05 08:00:31  5-MIN KDBQ 291400Z 15004KT 9SM FEW043 SCT055 24/20 A2999 1010 76 2400 150/04 RMK AO2
94908KDBQ DBQ20050629080510306/29/05 08:05:31  5-MIN KDBQ 291405Z 14004KT 9SM FEW043 SCT055 25/20 A2999 1020 73 2400 140/04 RMK AO2
94908KDBQ DBQ20050629081009706/29/05 08:10:31  5-MIN KDBQ 291410Z 16005KT 9SM FEW048 25/21 A2999 1020  76 2400 160/05 RMK AO2
94908KDBQ DBQ20050629081509706/29/05 08:15:31  5-MIN KDBQ 291415Z 17005KT 10SM FEW055 26/21 A2999 1010 73 2500 170/05 RMK AO2
94908KDBQ DBQ20050629082010506/29/05 08:20:31  5-MIN KDBQ 291420Z 17006KT 10SM FEW047 SCT060 26/21  A2999 1010 73 2500 170/06 RMK AO2
94908KDBQ DBQ20050629082509706/29/05 08:25:31  5-MIN KDBQ 291425Z 17005KT 10SM SCT047 26/21 A2999 1010 73 2500 170/05 RMK AO2
94908KDBQ DBQ20050629083009706/29/05 08:30:31  5-MIN KDBQ 291430Z 15005KT 10SM SCT047 26/20 A2999 1010 71 2500 150/05 RMK AO2
94908KDBQ DBQ20050629083509706/29/05 08:35:31  5-MIN KDBQ 291435Z 15006KT 10SM SCT047 26/21 A2999 1020 71 2600 150/06 RMK AO2
94908KDBQ DBQ20050629084009706/29/05 08:40:31  5-MIN KDBQ 291440Z 17007KT 10SM FEW047 26/21 A2998 1020 71 2600 160/07 RMK AO2
94908KDBQ DBQ20050629084509706/29/05 08:45:31  5-MIN KDBQ 291445Z 16005KT 10SM FEW047 27/21 A2998 1020 69 2600 160/05 RMK AO2
94908KDBQ DBQ20050629085012006/29/05 08:50:31  5-MIN KDBQ 291450Z 18008KT 10SM FEW047 27/21 A2998 1020 71 2600 180/08 RMK AO2 SLP145 T02670211 55003
94908KDBQ DBQ20050629085511706/29/05 08:55:31  5-MIN KDBQ 291455Z 18009KT 10SM CLR 27/21 A2998 1020 71 2600 180/09 RMK AO2 SLP146 T02670211 57004
94908KDBQ DBQ20050629090009406/29/05 09:00:31  5-MIN KDBQ 291500Z 18009KT 10SM CLR 27/21 A2998 1020 71 2600 180/09 RMK AO2
94908KDBQ DBQ20050629090509406/29/05 09:05:31  5-MIN KDBQ 291505Z 18009KT 10SM CLR 27/21 A2998 1020 71 2600 180/09 RMK AO2
94908KDBQ DBQ20050629091009406/29/05 09:10:31  5-MIN KDBQ 291510Z 18008KT 10SM CLR 27/21 A2998 1020 71 2600 180/08 RMK AO2
94908KDBQ DBQ20050629091509406/29/05 09:15:31  5-MIN KDBQ 291515Z 18009KT 10SM CLR 27/21 A2998 1020 69 2600 180/09 RMK AO2
94908KDBQ DBQ20050629092009406/29/05 09:20:31  5-MIN KDBQ 291520Z 18010KT 10SM CLR 27/21 A2998 1020 69 2700 180/10 RMK AO2
94908KDBQ DBQ20050629092509406/29/05 09:25:31  5-MIN KDBQ 291525Z 16009KT 10SM CLR 27/21 A2998 1020 66 2700 160/09 RMK AO2
94908KDBQ DBQ20050629093009406/29/05 09:30:31  5-MIN KDBQ 291530Z 16007KT 10SM CLR 27/21 A2998 1020 69 2700 160/07 RMK AO2
94908KDBQ DBQ20050629093509406/29/05 09:35:31  5-MIN KDBQ 291535Z 16008KT 10SM CLR 27/21 A2998 1020 69 2700 160/08 RMK AO2
94908KDBQ DBQ20050629094009406/29/05 09:40:31  5-MIN KDBQ 291540Z 17008KT 10SM CLR 27/21 A2998 1020 66 2700 170/08 RMK AO2
94908KDBQ DBQ20050629094509406/29/05 09:45:31  5-MIN KDBQ 291545Z 17007KT 10SM CLR 27/21 A2998 1020 69 2700 170/07 RMK AO2
94908KDBQ DBQ20050629095011106/29/05 09:50:31  5-MIN KDBQ 291550Z 17008KT 10SM CLR 28/21 A2998 1020 66 2800 170/08 RMK AO2 SLP144 T02780211
94908KDBQ DBQ20050629095511106/29/05 09:55:31  5-MIN KDBQ 291555Z 15007KT 10SM CLR 28/21 A2998 1030 66 2800 150/07 RMK AO2 SLP143 T02780211
94908KDBQ DBQ20050629100009706/29/05 10:00:31  5-MIN KDBQ 291600Z 15008KT 10SM FEW055 28/21 A2998 1030 64 2800 150/08 RMK AO2
94908KDBQ DBQ20050629100509706/29/05 10:05:31  5-MIN KDBQ 291605Z 15009KT 10SM FEW055 28/21 A2997 1030 66 2800 150/09 RMK AO2
94908KDBQ DBQ20050629101009706/29/05 10:10:31  5-MIN KDBQ 291610Z 16008KT 10SM SCT055 28/21 A2998 1030 66 2800 160/08 RMK AO2
94908KDBQ DBQ20050629101509706/29/05 10:15:31  5-MIN KDBQ 291615Z 16006KT 10SM SCT055 28/21 A2997 1030 64 2800 160/06 RMK AO2
94908KDBQ DBQ20050629102009706/29/05 10:20:31  5-MIN KDBQ 291620Z 17006KT 10SM SCT055 28/22 A2997 1030 66 2800 160/06 RMK AO2
94908KDBQ DBQ20050629102509706/29/05 10:25:31  5-MIN KDBQ 291625Z 16007KT 10SM SCT055 28/21 A2997 1030 64 2800 160/07 RMK AO2
94908KDBQ DBQ20050629103009706/29/05 10:30:31  5-MIN KDBQ 291630Z 16007KT 10SM SCT055 28/22 A2997 1030 66 2800 160/07 RMK AO2
94908KDBQ DBQ20050629103509706/29/05 10:35:31  5-MIN KDBQ 291635Z 18007KT 10SM SCT055 28/22 A2996 1040 66 2800 180/07 RMK AO2
94908KDBQ DBQ20050629104009706/29/05 10:40:31  5-MIN KDBQ 291640Z 17007KT 10SM FEW055 28/22 A2997 1040 66 2800 170/07 RMK AO2
94908KDBQ DBQ20050629104509706/29/05 10:45:31  5-MIN KDBQ 291645Z 16006KT 10SM FEW055 29/21 A2997 1040 62 2900 160/06 RMK AO2
94908KDBQ DBQ20050629105011406/29/05 10:50:31  5-MIN KDBQ 291650Z 19007KT 10SM SCT060 29/22 A2997 1040 64 2900 180/07 RMK AO2 SLP140 T02890217
94908KDBQ DBQ20050629105511406/29/05 10:55:31  5-MIN KDBQ 291655Z 17006KT 10SM SCT060 29/22 A2997 1030 64 2900 170/06 RMK AO2 SLP140 T02890217
94908KDBQ DBQ20050629110009706/29/05 11:00:31  5-MIN KDBQ 291700Z 17009KT 10SM FEW060 29/22 A2997 1040 67 2900 170/09 RMK AO2
94908KDBQ DBQ20050629110509706/29/05 11:05:31  5-MIN KDBQ 291705Z 15008KT 10SM FEW060 29/22 A2996 1040 67 2900 150/08 RMK AO2
94908KDBQ DBQ20050629111009706/29/05 11:10:31  5-MIN KDBQ 291710Z 16007KT 9SM FEW060 29/22 A2996 1040  67 2900 160/07 RMK AO2
94908KDBQ DBQ20050629111509706/29/05 11:15:31  5-MIN KDBQ 291715Z 14008KT 9SM FEW060 29/22 A2995 1050  64 3000 140/08 RMK AO2
94908KDBQ DBQ20050629112009406/29/05 11:20:31  5-MIN KDBQ 291720Z 14008KT 9SM CLR 29/23 A2995 1050 69  2900 140/08 RMK AO2
94908KDBQ DBQ20050629112509406/29/05 11:25:31  5-MIN KDBQ 291725Z 13008KT 9SM CLR 29/23 A2995 1050 67  3000 130/08 RMK AO2
94908KDBQ DBQ20050629113009406/29/05 11:30:31  5-MIN KDBQ 291730Z 17008KT 9SM CLR 29/22 A2996 1040 64  3000 170/08 RMK AO2
94908KDBQ DBQ20050629113509406/29/05 11:35:31  5-MIN KDBQ 291735Z 18009KT 9SM CLR 29/23 A2996 1040 67  3000 170/09 RMK AO2
94908KDBQ DBQ20050629114009406/29/05 11:40:31  5-MIN KDBQ 291740Z 15009KT 8SM CLR 29/23 A2996 1040 67  3000 150/09 RMK AO2
94908KDBQ DBQ20050629114509406/29/05 11:45:31  5-MIN KDBQ 291745Z 17008KT 8SM CLR 29/23 A2996 1050 67  3000 170/08 RMK AO2
94908KDBQ DBQ20050629115012906/29/05 11:50:31  5-MIN KDBQ 291750Z 17008KT 7SM CLR 29/22 A2996 1050 67  2900 170/08 RMK AO2 SLP137 T02890222 10300 20217 57004
94908KDBQ DBQ20050629115512906/29/05 11:55:31  5-MIN KDBQ 291755Z 17007KT 7SM CLR 29/23 A2996 1040 69  2900 170/07 RMK AO2 SLP137 T02890228 10300 20217 58008
94908KDBQ DBQ20050629120009406/29/05 12:00:31  5-MIN KDBQ 291800Z 17007KT 7SM CLR 30/23 A2996 1040 65  3000 170/07 RMK AO2
94908KDBQ DBQ20050629120509406/29/05 12:05:31  5-MIN KDBQ 291805Z 17009KT 8SM CLR 30/23 A2996 1050 65  3000 170/09 RMK AO2
94908KDBQ DBQ20050629121009406/29/05 12:10:31  5-MIN KDBQ 291810Z 17007KT 8SM CLR 30/22 A2996 1050 62  3000 170/07 RMK AO2
94908KDBQ DBQ20050629121509406/29/05 12:15:31  5-MIN KDBQ 291815Z 18007KT 7SM CLR 29/22 A2995 1050 64  3000 180/07 RMK AO2
94908KDBQ DBQ20050629122009406/29/05 12:20:31  5-MIN KDBQ 291820Z 18009KT 7SM CLR 29/22 A2995 1050 64  3000 180/09 RMK AO2
94908KDBQ DBQ20050629122509406/29/05 12:25:31  5-MIN KDBQ 291825Z 18007KT 7SM CLR 29/23 A2995 1050 67  3000 180/07 RMK AO2
94908KDBQ DBQ20050629123009406/29/05 12:30:31  5-MIN KDBQ 291830Z 18008KT 7SM CLR 29/22 A2995 1050 64  3000 180/08 RMK AO2
94908KDBQ DBQ20050629123509406/29/05 12:35:31  5-MIN KDBQ 291835Z 18008KT 7SM CLR 29/22 A2995 1050 64  3000 180/08 RMK AO2
94908KDBQ DBQ20050629124009406/29/05 12:40:31  5-MIN KDBQ 291840Z 16007KT 7SM CLR 29/22 A2994 1060 64  3000 160/07 RMK AO2
94908KDBQ DBQ20050629124509406/29/05 12:45:31  5-MIN KDBQ 291845Z 17009KT 7SM CLR 29/23 A2994 1060 67  3000 170/09 RMK AO2
94908KDBQ DBQ20050629125011406/29/05 12:50:31  5-MIN KDBQ 291850Z 18008KT 6SM HZ CLR 29/22 A2994 1060  64 3000 170/08 RMK AO2 SLP130 T02940222
94908KDBQ DBQ20050629125511106/29/05 12:55:31  5-MIN KDBQ 291855Z 15008KT 7SM CLR 30/23 A2994 1060 65  3100 150/08 RMK AO2 SLP130 T03000228
94908KDBQ DBQ20050629130009406/29/05 13:00:31  5-MIN KDBQ 291900Z 15007KT 7SM CLR 30/22 A2994 1060 62  3100 150/07 RMK AO2
94908KDBQ DBQ20050629130509406/29/05 13:05:31  5-MIN KDBQ 291905Z 17009KT 7SM CLR 30/23 A2994 1060 65  3100 170/09 RMK AO2
94908KDBQ DBQ20050629131009706/29/05 13:10:31  5-MIN KDBQ 291910Z 18009KT 6SM HZ CLR 30/22 A2994 1060  62 3100 170/09 RMK AO2
94908KDBQ DBQ20050629131509706/29/05 13:15:31  5-MIN KDBQ 291915Z 18006KT 6SM HZ CLR 29/22 A2994 1060  62 3000 170/06 RMK AO2
94908KDBQ DBQ20050629132009706/29/05 13:20:31  5-MIN KDBQ 291920Z 18008KT 6SM HZ CLR 29/22 A2994 1060  64 3000 180/08 RMK AO2
94908KDBQ DBQ20050629132509706/29/05 13:25:31  5-MIN KDBQ 291925Z 19010KT 6SM HZ CLR 30/22 A2994 1060  62 3100 190/10 RMK AO2
94908KDBQ DBQ20050629133009706/29/05 13:30:31  5-MIN KDBQ 291930Z 20009KT 6SM HZ CLR 30/22 A2995 1050  62 3000 200/09 RMK AO2
94908KDBQ DBQ20050629133509706/29/05 13:35:31  5-MIN KDBQ 291935Z 21010KT 6SM HZ CLR 31/22 A2994 1060  60 3100 210/10 RMK AO2
94908KDBQ DBQ20050629134009706/29/05 13:40:31  5-MIN KDBQ 291940Z 21007KT 6SM HZ CLR 31/22 A2994 1060  60 3100 210/07 RMK AO2
94908KDBQ DBQ20050629134509706/29/05 13:45:31  5-MIN KDBQ 291945Z 19008KT 6SM HZ CLR 30/22 A2994 1060  62 3100 180/08 RMK AO2
94908KDBQ DBQ20050629135011406/29/05 13:50:31  5-MIN KDBQ 291950Z 19008KT 5SM HZ CLR 30/22 A2993 1070  62 3100 180/08 RMK AO2 SLP129 T03000222
94908KDBQ DBQ20050629135511406/29/05 13:55:31  5-MIN KDBQ 291955Z 17007KT 5SM HZ CLR 29/22 A2993 1070  64 3000 170/07 RMK AO2 SLP128 T02940222
94908KDBQ DBQ20050629140009706/29/05 14:00:31  5-MIN KDBQ 292000Z 17007KT 5SM HZ CLR 30/22 A2993 1070  62 3100 170/07 RMK AO2
94908KDBQ DBQ20050629140509706/29/05 14:05:31  5-MIN KDBQ 292005Z 16006KT 5SM HZ CLR 30/22 A2993 1070  62 3100 160/06 RMK AO2
94908KDBQ DBQ20050629141009706/29/05 14:10:31  5-MIN KDBQ 292010Z 15005KT 5SM HZ CLR 29/23 A2992 1070  67 3000 150/05 RMK AO2
94908KDBQ DBQ20050629141509706/29/05 14:15:31  5-MIN KDBQ 292015Z 16005KT 5SM HZ CLR 29/23 A2992 1070  67 3000 160/05 RMK AO2
94908KDBQ DBQ20050629142009706/29/05 14:20:31  5-MIN KDBQ 292020Z 17006KT 5SM HZ CLR 29/23 A2992 1080  67 3000 170/06 RMK AO2
94908KDBQ DBQ20050629142509706/29/05 14:25:31  5-MIN KDBQ 292025Z 17005KT 5SM HZ CLR 29/23 A2992 1080  67 3000 160/05 RMK AO2
94908KDBQ DBQ20050629143009706/29/05 14:30:31  5-MIN KDBQ 292030Z 17005KT 5SM HZ CLR 29/23 A2993 1070  69 2900 170/05 RMK AO2
94908KDBQ DBQ20050629143509706/29/05 14:35:31  5-MIN KDBQ 292035Z 16004KT 5SM HZ CLR 29/23 A2993 1070  69 2900 160/04 RMK AO2
94908KDBQ DBQ20050629144009706/29/05 14:40:31  5-MIN KDBQ 292040Z 17004KT 5SM HZ CLR 29/23 A2993 1070  69 2900 170/04 RMK AO2
94908KDBQ DBQ20050629144509706/29/05 14:45:31  5-MIN KDBQ 292045Z 16003KT 5SM HZ CLR 29/23 A2993 1070  71 2900 160/03 RMK AO2
94908KDBQ DBQ20050629145012006/29/05 14:50:31  5-MIN KDBQ 292050Z 16004KT 5SM HZ CLR 29/23 A2993 1070  71 2900 160/04 RMK AO2 SLP127 T02890233 58008
94908KDBQ DBQ20050629145512006/29/05 14:55:31  5-MIN KDBQ 292055Z 16003KT 4SM HZ CLR 29/23 A2993 1070  71 2900 160/03 RMK AO2 SLP126 T02890233 56010
94908KDBQ DBQ20050629150011106/29/05 15:00:31  5-MIN KDBQ 292100Z 16003KT 4SM -RA CLR 29/24 A2993 1070 74 2900 160/03 RMK AO2 RAB2056 P0000
94908KDBQ DBQ20050629150511106/29/05 15:05:31  5-MIN KDBQ 292105Z 17005KT 5SM -RA CLR 29/24 A2993 1070 74 2900 170/05 RMK AO2 RAB2056 P0000
94908KDBQ DBQ20050629151011406/29/05 15:10:31  5-MIN KDBQ 292110Z 17005KT 4SM HZ CLR 28/24 A2993 1070  76 2900 170/05 RMK AO2 RAB2056E08 P0000
94908KDBQ DBQ20050629151511106/29/05 15:15:31  5-MIN KDBQ 292115Z 18005KT 4SM -RA CLR 28/24 A2993 1070 79 2900 180/05 RMK AO2 RAB2056 P0000
94908KDBQ DBQ20050629152011106/29/05 15:20:31  5-MIN KDBQ 292120Z 15006KT 4SM -RA CLR 28/24 A2992 1080 79 2900 150/06 RMK AO2 RAB2056 P0000
94908KDBQ DBQ20050629152511106/29/05 15:25:31  5-MIN KDBQ 292125Z 15005KT 4SM -RA CLR 28/24 A2992 1080 79 2900 150/05 RMK AO2 RAB2056 P0000
94908KDBQ DBQ20050629153011106/29/05 15:30:31  5-MIN KDBQ 292130Z 17005KT 4SM -RA CLR 28/24 A2992 1080 79 2900 170/05 RMK AO2 RAB2056 P0000
94908KDBQ DBQ20050629153511406/29/05 15:35:31  5-MIN KDBQ 292135Z 16006KT 4SM HZ CLR 28/24 A2992 1080  79 2900 160/06 RMK AO2 RAB2056E31 P0000
94908KDBQ DBQ20050629154011406/29/05 15:40:31  5-MIN KDBQ 292140Z 17007KT 4SM HZ CLR 28/24 A2992 1080  79 2900 170/07 RMK AO2 RAB2056E31 P0000
94908KDBQ DBQ20050629154511406/29/05 15:45:31  5-MIN KDBQ 292145Z 17007KT 4SM HZ CLR 28/24 A2992 1080  76 2900 170/07 RMK AO2 RAB2056E31 P0000
94908KDBQ DBQ20050629155013106/29/05 15:50:31  5-MIN KDBQ 292150Z 16007KT 4SM HZ CLR 28/24 A2991 1090  76 2900 160/07 RMK AO2 RAB2056E31 SLP122 P0000 T02830239
94908KDBQ DBQ20050629155513106/29/05 15:55:31  5-MIN KDBQ 292155Z 16007KT 4SM HZ CLR 28/24 A2991 1090  76 2900 160/07 RMK AO2 RAB2056E31 SLP121 P0000 T02830239
94908KDBQ DBQ20050629160009706/29/05 16:00:31  5-MIN KDBQ 292200Z 16006KT 4SM HZ CLR 28/24 A2991 1090  76 2900 160/06 RMK AO2
94908KDBQ DBQ20050629160509706/29/05 16:05:31  5-MIN KDBQ 292205Z 16007KT 4SM HZ CLR 28/23 A2990 1090  74 2900 160/07 RMK AO2
94908KDBQ DBQ20050629161009706/29/05 16:10:31  5-MIN KDBQ 292210Z 17006KT 4SM HZ CLR 28/23 A2991 1090  74 2900 170/06 RMK AO2
94908KDBQ DBQ20050629161509706/29/05 16:15:31  5-MIN KDBQ 292215Z 17004KT 4SM HZ CLR 28/23 A2990 1090  74 2900 170/04 RMK AO2
94908KDBQ DBQ20050629162009706/29/05 16:20:31  5-MIN KDBQ 292220Z 17004KT 4SM HZ CLR 28/23 A2990 1090  76 2800 170/04 RMK AO2
94908KDBQ DBQ20050629162509706/29/05 16:25:31  5-MIN KDBQ 292225Z 17005KT 4SM HZ CLR 28/23 A2990 1100  74 2800 160/05 RMK AO2
94908KDBQ DBQ20050629163009706/29/05 16:30:31  5-MIN KDBQ 292230Z 17005KT 4SM HZ CLR 28/23 A2990 1100  74 2900 170/05 RMK AO2
94908KDBQ DBQ20050629163510406/29/05 16:35:31  5-MIN KDBQ 292235Z 16007KT 4SM HZ CLR 28/23 A2988 1110  76 2900 150/07 RMK AO2 PRESFR
94908KDBQ DBQ20050629164009706/29/05 16:40:31  5-MIN KDBQ 292240Z 15007KT 4SM HZ CLR 28/23 A2988 1110  74 2900 150/07 RMK AO2
94908KDBQ DBQ20050629164509706/29/05 16:45:31  5-MIN KDBQ 292245Z 16006KT 4SM HZ CLR 28/23 A2988 1120  71 2900 160/06 RMK AO2
94908KDBQ DBQ20050629165011406/29/05 16:50:31  5-MIN KDBQ 292250Z 16008KT 4SM HZ CLR 29/23 A2988 1120  69 3000 160/08 RMK AO2 SLP109 T02890228
94908KDBQ DBQ20050629165511406/29/05 16:55:31  5-MIN KDBQ 292255Z 15009KT 5SM HZ CLR 29/22 A2987 1130  67 3000 150/09 RMK AO2 SLP106 T02890222
94908KDBQ DBQ20050629170010406/29/05 17:00:31  5-MIN KDBQ 292300Z 16009KT 5SM HZ CLR 29/23 A2986 1130  67 3100 150/09 RMK AO2 PRESFR
94908KDBQ DBQ20050629170510406/29/05 17:05:31  5-MIN KDBQ 292305Z 16012KT 5SM HZ CLR 29/23 A2985 1140  67 3100 160/12 RMK AO2 PRESFR
94908KDBQ DBQ20050629171010406/29/05 17:10:31  5-MIN KDBQ 292310Z 16014KT 5SM HZ CLR 29/23 A2985 1150  67 3100 160/14 RMK AO2 PRESFR
94908KDBQ DBQ20050629171509706/29/05 17:15:31  5-MIN KDBQ 292315Z 17014KT 5SM HZ CLR 29/23 A2985 1150  67 3100 170/14 RMK AO2
94908KDBQ DBQ20050629172009706/29/05 17:20:31  5-MIN KDBQ 292320Z 17013KT 5SM HZ CLR 29/23 A2985 1150  69 3000 170/13 RMK AO2
94908KDBQ DBQ20050629172509706/29/05 17:25:31  5-MIN KDBQ 292325Z 17012KT 4SM HZ CLR 28/22 A2985 1150  69 3000 170/12 RMK AO2
94908KDBQ DBQ20050629173009706/29/05 17:30:31  5-MIN KDBQ 292330Z 17012KT 4SM HZ CLR 28/22 A2985 1150  69 3000 170/12 RMK AO2
94908KDBQ DBQ20050629173509706/29/05 17:35:31  5-MIN KDBQ 292335Z 17012KT 4SM HZ CLR 28/22 A2985 1150  69 3000 170/12 RMK AO2
94908KDBQ DBQ20050629174009706/29/05 17:40:31  5-MIN KDBQ 292340Z 17013KT 4SM HZ CLR 28/22 A2985 1150  66 3000 170/13 RMK AO2
94908KDBQ DBQ20050629174509706/29/05 17:45:31  5-MIN KDBQ 292345Z 18013KT 4SM HZ CLR 28/22 A2985 1140  66 3000 170/13 RMK AO2
94908KDBQ DBQ20050629175013806/29/05 17:50:31  5-MIN KDBQ 292350Z 17010KT 4SM HZ CLR 28/22 A2985 1140  66 3000 170/10 RMK AO2 SLP100 60000 T02830217 10306 20278 56010
94908KDBQ DBQ20050629175513806/29/05 17:55:31  5-MIN KDBQ 292355Z 17010KT 4SM HZ CLR 28/22 A2985 1140  66 3000 170/10 RMK AO2 SLP100 60000 T02830217 10306 20278 56025
94908KDBQ DBQ20050629180009706/29/05 18:00:31  5-MIN KDBQ 300000Z 17009KT 4SM HZ CLR 28/22 A2985 1140  69 3000 170/09 RMK AO2
94908KDBQ DBQ20050629180509706/29/05 18:05:31  5-MIN KDBQ 300005Z 17008KT 4SM HZ CLR 28/22 A2985 1140  69 3000 170/08 RMK AO2
94908KDBQ DBQ20050629181009706/29/05 18:10:31  5-MIN KDBQ 300010Z 17008KT 5SM HZ CLR 28/22 A2985 1140  66 3000 170/08 RMK AO2
94908KDBQ DBQ20050629181509706/29/05 18:15:31  5-MIN KDBQ 300015Z 17007KT 5SM HZ CLR 28/22 A2985 1140  69 3000 170/07 RMK AO2
94908KDBQ DBQ20050629182009706/29/05 18:20:31  5-MIN KDBQ 300020Z 17007KT 5SM HZ CLR 29/22 A2985 1140  67 3000 170/07 RMK AO2
94908KDBQ DBQ20050629182509706/29/05 18:25:31  5-MIN KDBQ 300025Z 17008KT 5SM HZ CLR 29/22 A2985 1140  67 3000 170/08 RMK AO2
94908KDBQ DBQ20050629183009706/29/05 18:30:31  5-MIN KDBQ 300030Z 17007KT 4SM HZ CLR 28/22 A2986 1140  69 3000 170/07 RMK AO2
94908KDBQ DBQ20050629183509706/29/05 18:35:31  5-MIN KDBQ 300035Z 17007KT 4SM HZ CLR 28/22 A2986 1130  69 3000 170/07 RMK AO2
94908KDBQ DBQ20050629184009706/29/05 18:40:31  5-MIN KDBQ 300040Z 18007KT 4SM HZ CLR 28/22 A2986 1140  69 3000 170/07 RMK AO2
94908KDBQ DBQ20050629184509706/29/05 18:45:31  5-MIN KDBQ 300045Z 18007KT 4SM HZ CLR 28/23 A2986 1130  74 2900 180/07 RMK AO2
94908KDBQ DBQ20050629185011406/29/05 18:50:31  5-MIN KDBQ 300050Z 18006KT 4SM HZ CLR 28/23 A2986 1130  74 2900 180/06 RMK AO2 SLP105 T02780228
94908KDBQ DBQ20050629185512406/29/05 18:55:31  5-MIN KDBQ 300055Z AUTO 18006KT 4SM HZ CLR 28/23 A2986  1130 74 2900 180/06 RMK AO2 SLP105 T02780228 TSNO
94908KDBQ DBQ20050629190010706/29/05 19:00:31  5-MIN KDBQ 300100Z AUTO 19006KT 4SM HZ CLR 27/22 A2987  1130 74 2800 190/06 RMK AO2 TSNO
94908KDBQ DBQ20050629190510706/29/05 19:05:31  5-MIN KDBQ 300105Z AUTO 18006KT 4SM HZ CLR 27/22 A2987  1130 74 2800 180/06 RMK AO2 TSNO
94908KDBQ DBQ20050629191010706/29/05 19:10:31  5-MIN KDBQ 300110Z AUTO 18006KT 4SM HZ CLR 27/22 A2987  1130 74 2800 180/06 RMK AO2 TSNO
94908KDBQ DBQ20050629191510706/29/05 19:15:31  5-MIN KDBQ 300115Z AUTO 18006KT 4SM HZ CLR 27/22 A2987  1130 76 2800 170/06 RMK AO2 TSNO
94908KDBQ DBQ20050629192010706/29/05 19:20:31  5-MIN KDBQ 300120Z AUTO 17006KT 4SM HZ CLR 27/22 A2986  1130 76 2800 160/06 RMK AO2 TSNO
94908KDBQ DBQ20050629192510706/29/05 19:25:31  5-MIN KDBQ 300125Z AUTO 16007KT 4SM HZ CLR 26/22 A2986  1130 79 2700 160/07 RMK AO2 TSNO
94908KDBQ DBQ20050629193010706/29/05 19:30:31  5-MIN KDBQ 300130Z AUTO 17007KT 4SM HZ CLR 26/22 A2987  1130 79 2700 170/07 RMK AO2 TSNO
94908KDBQ DBQ20050629193510706/29/05 19:35:31  5-MIN KDBQ 300135Z AUTO 17007KT 4SM HZ CLR 26/22 A2987  1130 79 2700 170/07 RMK AO2 TSNO
94908KDBQ DBQ20050629194010706/29/05 19:40:31  5-MIN KDBQ 300140Z AUTO 16007KT 4SM HZ CLR 26/22 A2986  1130 79 2700 160/07 RMK AO2 TSNO
94908KDBQ DBQ20050629194510706/29/05 19:45:31  5-MIN KDBQ 300145Z AUTO 16007KT 4SM HZ CLR 26/22 A2987  1130 79 2700 160/07 RMK AO2 TSNO
94908KDBQ DBQ20050629195012406/29/05 19:50:31  5-MIN KDBQ 300150Z AUTO 16008KT 4SM HZ CLR 26/22 A2986  1130 79 2700 160/08 RMK AO2 SLP105 T02610222 TSNO
94908KDBQ DBQ20050629195512406/29/05 19:55:31  5-MIN KDBQ 300155Z AUTO 16008KT 4SM HZ CLR 27/22 A2986  1130 73 2800 160/08 RMK AO2 SLP105 T02670217 TSNO
94908KDBQ DBQ20050629200010706/29/05 20:00:31  5-MIN KDBQ 300200Z AUTO 16008KT 5SM HZ CLR 26/22 A2987  1130 76 2700 160/08 RMK AO2 TSNO
94908KDBQ DBQ20050629200510706/29/05 20:05:31  5-MIN KDBQ 300205Z AUTO 16009KT 5SM HZ CLR 26/22 A2986  1130 76 2700 160/09 RMK AO2 TSNO
94908KDBQ DBQ20050629201010706/29/05 20:10:31  5-MIN KDBQ 300210Z AUTO 16008KT 5SM HZ CLR 26/22 A2986  1130 76 2700 160/08 RMK AO2 TSNO
94908KDBQ DBQ20050629201510706/29/05 20:15:31  5-MIN KDBQ 300215Z AUTO 15007KT 5SM HZ CLR 26/22 A2986  1130 76 2700 150/07 RMK AO2 TSNO
94908KDBQ DBQ20050629202010706/29/05 20:20:31  5-MIN KDBQ 300220Z AUTO 15007KT 5SM HZ CLR 26/22 A2986  1130 76 2700 150/07 RMK AO2 TSNO
94908KDBQ DBQ20050629202510706/29/05 20:25:31  5-MIN KDBQ 300225Z AUTO 15009KT 5SM HZ CLR 26/22 A2986  1130 79 2600 150/09 RMK AO2 TSNO
94908KDBQ DBQ20050629203010706/29/05 20:30:31  5-MIN KDBQ 300230Z AUTO 16010KT 5SM HZ CLR 26/22 A2986  1140 76 2700 160/10 RMK AO2 TSNO
94908KDBQ DBQ20050629203510706/29/05 20:35:31  5-MIN KDBQ 300235Z AUTO 16010KT 5SM HZ CLR 27/21 A2986  1130 71 2800 160/10 RMK AO2 TSNO
94908KDBQ DBQ20050629204010706/29/05 20:40:31  5-MIN KDBQ 300240Z AUTO 15010KT 5SM HZ CLR 27/21 A2986  1130 71 2800 150/10 RMK AO2 TSNO
94908KDBQ DBQ20050629204510706/29/05 20:45:31  5-MIN KDBQ 300245Z AUTO 15010KT 5SM HZ CLR 27/22 A2986  1130 73 2800 150/10 RMK AO2 TSNO
94908KDBQ DBQ20050629205013006/29/05 20:50:31  5-MIN KDBQ 300250Z AUTO 15010KT 5SM HZ CLR 27/22 A2986  1130 73 2800 150/10 RMK AO2 SLP103 T02670217 56025 TSNO
94908KDBQ DBQ20050629205513006/29/05 20:55:31  5-MIN KDBQ 300255Z AUTO 16010KT 5SM HZ CLR 27/22 A2987  1130 73 2800 160/10 RMK AO2 SLP105 T02670217 51006 TSNO
94908KDBQ DBQ20050629210010706/29/05 21:00:31  5-MIN KDBQ 300300Z AUTO 15010KT 5SM HZ CLR 26/22 A2987  1130 76 2700 150/10 RMK AO2 TSNO
94908KDBQ DBQ20050629210510706/29/05 21:05:31  5-MIN KDBQ 300305Z AUTO 16010KT 5SM HZ CLR 26/22 A2987  1130 79 2700 160/10 RMK AO2 TSNO
94908KDBQ DBQ20050629211010706/29/05 21:10:31  5-MIN KDBQ 300310Z AUTO 16010KT 5SM HZ CLR 26/22 A2987  1130 79 2700 160/10 RMK AO2 TSNO
94908KDBQ DBQ20050629211510706/29/05 21:15:31  5-MIN KDBQ 300315Z AUTO 16009KT 5SM HZ CLR 26/22 A2987  1120 81 2600 160/09 RMK AO2 TSNO
94908KDBQ DBQ20050629212010706/29/05 21:20:31  5-MIN KDBQ 300320Z AUTO 16010KT 5SM HZ CLR 26/22 A2987  1130 79 2600 160/10 RMK AO2 TSNO
94908KDBQ DBQ20050629212510706/29/05 21:25:31  5-MIN KDBQ 300325Z AUTO 16011KT 5SM HZ CLR 26/22 A2987  1130 79 2600 160/11 RMK AO2 TSNO
94908KDBQ DBQ20050629213010706/29/05 21:30:31  5-MIN KDBQ 300330Z AUTO 16011KT 5SM HZ CLR 26/22 A2987  1130 79 2600 160/11 RMK AO2 TSNO
94908KDBQ DBQ20050629213510706/29/05 21:35:31  5-MIN KDBQ 300335Z AUTO 16010KT 5SM HZ CLR 26/22 A2987  1130 79 2600 160/10 RMK AO2 TSNO
94908KDBQ DBQ20050629214010706/29/05 21:40:31  5-MIN KDBQ 300340Z AUTO 16011KT 5SM HZ CLR 26/22 A2986  1130 79 2600 160/11 RMK AO2 TSNO
94908KDBQ DBQ20050629214510706/29/05 21:45:31  5-MIN KDBQ 300345Z AUTO 16011KT 5SM HZ CLR 25/22 A2986  1130 81 2600 160/11 RMK AO2 TSNO
94908KDBQ DBQ20050629215012406/29/05 21:50:31  5-MIN KDBQ 300350Z AUTO 17010KT 5SM HZ CLR 25/22 A2987  1130 81 2600 170/10 RMK AO2 SLP105 T02500217 TSNO
94908KDBQ DBQ20050629215512406/29/05 21:55:31  5-MIN KDBQ 300355Z AUTO 17010KT 5SM HZ CLR 25/22 A2987  1130 81 2600 170/10 RMK AO2 SLP104 T02500217 TSNO
94908KDBQ DBQ20050629220010706/29/05 22:00:31  5-MIN KDBQ 300400Z AUTO 17011KT 5SM HZ CLR 25/21 A2986  1130 79 2600 170/11 RMK AO2 TSNO
94908KDBQ DBQ20050629220510706/29/05 22:05:31  5-MIN KDBQ 300405Z AUTO 16010KT 5SM HZ CLR 25/21 A2986  1140 79 2600 160/10 RMK AO2 TSNO
94908KDBQ DBQ20050629221010706/29/05 22:10:31  5-MIN KDBQ 300410Z AUTO 16010KT 5SM HZ CLR 25/21 A2985  1140 79 2600 160/10 RMK AO2 TSNO
94908KDBQ DBQ20050629221510706/29/05 22:15:31  5-MIN KDBQ 300415Z AUTO 17010KT 6SM HZ CLR 25/21 A2986  1140 79 2600 170/10 RMK AO2 TSNO
94908KDBQ DBQ20050629222010706/29/05 22:20:31  5-MIN KDBQ 300420Z AUTO 17009KT 5SM HZ CLR 25/21 A2986  1140 79 2600 170/09 RMK AO2 TSNO
94908KDBQ DBQ20050629222510706/29/05 22:25:31  5-MIN KDBQ 300425Z AUTO 18009KT 5SM HZ CLR 24/21 A2986  1130 81 2500 180/09 RMK AO2 TSNO
94908KDBQ DBQ20050629223010706/29/05 22:30:31  5-MIN KDBQ 300430Z AUTO 18008KT 5SM HZ CLR 24/21 A2986  1130 81 2500 180/08 RMK AO2 TSNO
94908KDBQ DBQ20050629223510706/29/05 22:35:31  5-MIN KDBQ 300435Z AUTO 17009KT 5SM HZ CLR 24/21 A2986  1130 81 2500 170/09 RMK AO2 TSNO
94908KDBQ DBQ20050629224010706/29/05 22:40:31  5-MIN KDBQ 300440Z AUTO 17009KT 5SM HZ CLR 24/21 A2986  1140 81 2500 170/09 RMK AO2 TSNO
94908KDBQ DBQ20050629224510706/29/05 22:45:31  5-MIN KDBQ 300445Z AUTO 17009KT 5SM HZ CLR 24/21 A2986  1140 81 2500 170/09 RMK AO2 TSNO
94908KDBQ DBQ20050629225012406/29/05 22:50:31  5-MIN KDBQ 300450Z AUTO 17010KT 5SM HZ CLR 24/21 A2986  1140 81 2500 170/10 RMK AO2 SLP102 T02440211 TSNO
94908KDBQ DBQ20050629225512406/29/05 22:55:31  5-MIN KDBQ 300455Z AUTO 17009KT 5SM HZ CLR 24/21 A2986  1140 81 2500 170/09 RMK AO2 SLP102 T02440211 TSNO
94908KDBQ DBQ20050629230010706/29/05 23:00:31  5-MIN KDBQ 300500Z AUTO 18011KT 5SM HZ CLR 25/21 A2986  1140 79 2600 180/11 RMK AO2 TSNO
94908KDBQ DBQ20050629230510706/29/05 23:05:31  5-MIN KDBQ 300505Z AUTO 18011KT 6SM HZ CLR 25/21 A2986  1140 79 2600 180/11 RMK AO2 TSNO
94908KDBQ DBQ20050629231010706/29/05 23:10:31  5-MIN KDBQ 300510Z AUTO 18011KT 6SM HZ CLR 25/21 A2986  1130 79 2600 180/11 RMK AO2 TSNO
94908KDBQ DBQ20050629231510706/29/05 23:15:31  5-MIN KDBQ 300515Z AUTO 19012KT 6SM HZ CLR 25/21 A2986  1130 79 2600 180/12 RMK AO2 TSNO
94908KDBQ DBQ20050629232010706/29/05 23:20:31  5-MIN KDBQ 300520Z AUTO 19011KT 6SM HZ CLR 25/21 A2987  1130 79 2600 190/11 RMK AO2 TSNO
94908KDBQ DBQ20050629232510706/29/05 23:25:31  5-MIN KDBQ 300525Z AUTO 19012KT 6SM HZ CLR 25/21 A2986  1130 79 2600 190/12 RMK AO2 TSNO
94908KDBQ DBQ20050629233010706/29/05 23:30:31  5-MIN KDBQ 300530Z AUTO 21013KT 6SM HZ CLR 25/21 A2987  1120 79 2600 210/13 RMK AO2 TSNO
94908KDBQ DBQ20050629233514706/29/05 23:35:31  5-MIN KDBQ 300535Z AUTO 25020G31KT 5SM HZ FEW060 SCT085 25/21 A2992 1080 79 2500 250/20G31 RMK AO2 PK WND 23031/0535 PRESRR TSNO
94908KDBQ DBQ20050629234017106/29/05 23:40:31  5-MIN KDBQ 300540Z AUTO 26025G33KT 5SM -RA FEW030 SCT080 BKN110 26/21 A2992 1080 73 2600 260/25G33 RMK AO2 PK WND 26033/0538 WSHFT 0523 RAB40 P0000 TSNO
94908KDBQ DBQ20050629234517106/29/05 23:45:31  5-MIN KDBQ 300545Z AUTO 24026G33KT 5SM -RA FEW034 SCT085 BKN110 24/20 A2991 1090 78 2400 230/26G33 RMK AO2 PK WND 26033/0538 WSHFT 0523 RAB40 P0001 TSNO
94908KDBQ DBQ20050629235022206/29/05 23:50:31  5-MIN KDBQ 300550Z AUTO 23016G30KT 5SM RA SCT045 BKN085 BKN110 21/18 A2992 1080 84 2100 220/16G30 RMK AO2 PK WND 26033/0538 WSHFT  0523 RAB40 SLP123 P0003 60003 T02110183 10289 20211 403060178 51006 TSNO
94908KDBQ DBQ20050629235521806/29/05 23:55:31  5-MIN KDBQ 300555Z AUTO 21015KT 5SM RA BR BKN045 BKN065 BKN110 21/18 A2992 1080 87 2000 210/15 RMK AO2 PK WND 26033/0538 WSHFT 0523 RAB40 SLP124 P0004 60004 T02060183 10289 20206 403060178 53018 TSNO
94908KDBQ DBQ20050630000013306/30/05 00:00:38  5-MIN KDBQ 300600Z AUTO 20015KT 4SM +RA BR BKN038 BKN085 OVC110 20/18 A2992 1080 90 2000 200/15 RMK AO2 P0002 TSNO
94908KDBQ DBQ20050630000513206/30/05 00:05:31  5-MIN KDBQ 300605Z AUTO 18011G19KT 3SM RA BR BKN034  OVC110 19/18 A2991 1090 93 1900 180/11G19 RMK AO2 P0009 TSNO
94908KDBQ DBQ20050630001013306/30/05 00:10:31  5-MIN KDBQ 300610Z AUTO 14005KT 6SM -RA BR BKN036 OVC090 19/18 A2989 1110 93 1900 140/05 RMK AO2 PRESFR P0010 TSNO
94908KDBQ DBQ20050630001513906/30/05 00:15:32  5-MIN KDBQ 300615Z AUTO 15008KT 10SM -RA BKN038 BKN070  OVC085 19/18 A2987 1130 93 1900 140/08 RMK AO2 PRESFR P0010 TSNO
94908KDBQ DBQ20050630002014006/30/05 00:20:31  5-MIN KDBQ 300620Z AUTO 15011G15KT 10SM SCT036 BKN070  BKN090 19/18 A2987 1120 93 1900 140/11G15 RMK AO2 RAE20 P0010 TSNO
94908KDBQ DBQ20050630002513406/30/05 00:25:31  5-MIN KDBQ 300625Z AUTO 15008KT 10SM FEW029 SCT070  BKN090 20/18 A2987 1130 90 2000 140/08 RMK AO2 RAE20 P0010 TSNO
94908KDBQ DBQ20050630003013306/30/05 00:30:31  5-MIN KDBQ 300630Z AUTO 14007KT 10SM FEW034 SCT090 20/18 A2985 1140 90 2000 140/07 RMK AO2 RAE20 PRESFR P0010 TSNO
94908KDBQ DBQ20050630003511906/30/05 00:35:31  5-MIN KDBQ 300635Z AUTO 14005KT 10SM FEW070 20/19 A2985 1140 93 2000 140/05 RMK AO2 RAE20 P0010 TSNO
94908KDBQ DBQ20050630004011906/30/05 00:40:31  5-MIN KDBQ 300640Z AUTO 15005KT 10SM FEW065 21/19 A2985 1140 90 2100 150/05 RMK AO2 RAE20 P0010 TSNO
94908KDBQ DBQ20050630004511706/30/05 00:45:31  5-MIN KDBQ 300645Z AUTO 15004KT 10SM CLR 21/19 A2984  1150 93 2100 150/04 RMK AO2 RAE20 P0010 TSNO
94908KDBQ DBQ20050630005013406/30/05 00:50:31  5-MIN KDBQ 300650Z AUTO VRB04KT 10SM CLR 21/19 A2985  1140 90 2200 VRB/04 RMK AO2 RAE20 SLP101 P0010 T02110194 TSNO
94908KDBQ DBQ20050630005513406/30/05 00:55:31  5-MIN KDBQ 300655Z AUTO 16007KT 10SM CLR 21/19 A2984  1150 90 2200 160/07 RMK AO2 RAE20 SLP097 P0010 T02110194 TSNO
94908KDBQ DBQ20050630010010506/30/05 01:00:31  5-MIN KDBQ 300700Z AUTO 17009KT 10SM CLR 21/19 A2985  1140 90 2200 170/09 RMK AO2 TSNO
94908KDBQ DBQ20050630010510706/30/05 01:05:31  5-MIN KDBQ 300705Z AUTO 16011KT 10SM FEW070 22/19 A2984 1150 87 2200 160/11 RMK AO2 TSNO
94908KDBQ DBQ20050630011012306/30/05 01:10:31  5-MIN KDBQ 300710Z AUTO 17006KT 9SM -RA SCT055 22/19  A2986 1140 87 2200 170/06 RMK AO2 RAB07 P0000 TSNO
94908KDBQ DBQ20050630011512406/30/05 01:15:31  5-MIN KDBQ 300715Z AUTO 27005KT 10SM -RA FEW047 22/19  A2985 1140 87 2200 270/05 RMK AO2 RAB07 P0000 TSNO
94908KDBQ DBQ20050630012012206/30/05 01:20:31  5-MIN KDBQ 300720Z AUTO 21007KT 10SM FEW055 22/19 A2985 1150 84 2300 210/07 RMK AO2 RAB07E19 P0000 TSNO
94908KDBQ DBQ20050630012512206/30/05 01:25:31  5-MIN KDBQ 300725Z AUTO 20010KT 10SM FEW055 23/19 A2985 1150 81 2400 190/10 RMK AO2 RAB07E19 P0000 TSNO
94908KDBQ DBQ20050630013012206/30/05 01:30:31  5-MIN KDBQ 300730Z AUTO 21010KT 10SM FEW055 22/19 A2986 1140 84 2300 210/10 RMK AO2 RAB07E19 P0000 TSNO
94908KDBQ DBQ20050630013512206/30/05 01:35:31  5-MIN KDBQ 300735Z AUTO 20008KT 10SM FEW033 22/20 A2986 1140 90 2200 200/08 RMK AO2 RAB07E19 P0000 TSNO
94908KDBQ DBQ20050630014012006/30/05 01:40:31  5-MIN KDBQ 300740Z AUTO 21009KT 10SM CLR 21/19 A2986  1140 90 2200 210/09 RMK AO2 RAB07E19 P0000 TSNO
94908KDBQ DBQ20050630014511806/30/05 01:45:31  5-MIN KDBQ 300745Z AUTO 22010KT 9SM CLR 21/19 A2985 1140 90 2200 220/10 RMK AO2 RAB07E19 P0000 TSNO
94908KDBQ DBQ20050630015013506/30/05 01:50:31  5-MIN KDBQ 300750Z AUTO 21011KT 9SM CLR 21/19 A2985 1150 90 2200 210/11 RMK AO2 RAB07E19 SLP099 P0000 T02110194 TSNO
94908KDBQ DBQ20050630015513506/30/05 01:55:31  5-MIN KDBQ 300755Z AUTO 21012KT 8SM CLR 22/20 A2984 1150 90 2200 210/12 RMK AO2 RAB07E19 SLP096 P0000 T02170200 TSNO
94908KDBQ DBQ20050630020011006/30/05 02:00:31  5-MIN KDBQ 300800Z AUTO 23010KT 8SM CLR 22/19 A2983 1160 87 2200 230/10 RMK AO2 PRESFR TSNO
94908KDBQ DBQ20050630020510306/30/05 02:05:31  5-MIN KDBQ 300805Z AUTO 22012KT 8SM CLR 22/19 A2984 1150 87 2200 220/12 RMK AO2 TSNO
94908KDBQ DBQ20050630021010306/30/05 02:10:31  5-MIN KDBQ 300810Z AUTO 22012KT 8SM CLR 22/19 A2985 1140 87 2200 220/12 RMK AO2 TSNO
94908KDBQ DBQ20050630021510306/30/05 02:15:31  5-MIN KDBQ 300815Z AUTO 21013KT 8SM CLR 22/19 A2985 1150 87 2200 210/13 RMK AO2 TSNO
94908KDBQ DBQ20050630022010306/30/05 02:20:31  5-MIN KDBQ 300820Z AUTO 20011KT 8SM CLR 22/20 A2984 1150 90 2200 200/11 RMK AO2 TSNO
94908KDBQ DBQ20050630022512806/30/05 02:25:31  5-MIN KDBQ 300825Z AUTO 21016G20KT 8SM -RA FEW037 22/20 A2984 1150 90 2200 210/16G20 RMK AO2 RAB25 P0000 TSNO
94908KDBQ DBQ20050630023012306/30/05 02:30:31  5-MIN KDBQ 300830Z AUTO 22014KT 8SM -RA SCT040 22/20  A2984 1150 87 2300 220/14 RMK AO2 RAB25 P0000 TSNO
94908KDBQ DBQ20050630023512806/30/05 02:35:31  5-MIN KDBQ 300835Z AUTO 22015G22KT 8SM -RA BKN048 22/20 A2983 1160 87 2300 220/15G22 RMK AO2 RAB25 P0000 TSNO
94908KDBQ DBQ20050630024013506/30/05 02:40:31  5-MIN KDBQ 300840Z AUTO 21016G22KT 8SM -RA BKN050 22/19 A2981 1180 87 2300 210/16G22 RMK AO2 RAB25 PRESFR P0001 TSNO
94908KDBQ DBQ20050630024514206/30/05 02:45:31  5-MIN KDBQ 300845Z AUTO 19015G21KT 9SM -RA BKN050 BKN120 22/19 A2980 1190 87 2300 190/15G21 RMK AO2 RAB25 PRESFR P0001 TSNO
94908KDBQ DBQ20050630025020806/30/05 02:50:31  5-MIN KDBQ 300850Z AUTO 28019G26KT 230V300 10SM -RA  BKN050 BKN120 22/19 A2987 1130 84 2200 280/19G26 230V300 RMK AO2 PK WND  29026/0849 RAB25 PRESRR SLP107 P0001 60011 T02170189 53018 TSNO
94908KDBQ DBQ20050630025517706/30/05 02:55:31  5-MIN KDBQ 300855Z AUTO 26020G26KT 10SM SCT050 22/18  A2986 1140 78 2300 260/20G26 RMK AO2 PK WND 29026/0849 RAB25E52 SLP102  P0001 60011 T02220183 55022 TSNO
94908KDBQ DBQ20050630030012506/30/05 03:00:31  5-MIN KDBQ 300900Z AUTO 24011G22KT 10SM SCT055 22/18  A2986 1140 78 2200 240/11G22 RMK AO2 WSHFT 0843 TSNO
94908KDBQ DBQ20050630030511806/30/05 03:05:31  5-MIN KDBQ 300905Z AUTO 25012KT 10SM FEW055 22/18 A2985 1150 75 2300 250/12 RMK AO2 WSHFT 0843 TSNO
94908KDBQ DBQ20050630031011606/30/05 03:10:31  5-MIN KDBQ 300910Z AUTO 25011KT 10SM CLR 22/18 A2986  1130 75 2300 250/11 RMK AO2 WSHFT 0843 TSNO
94908KDBQ DBQ20050630031511606/30/05 03:15:31  5-MIN KDBQ 300915Z AUTO 26012KT 10SM CLR 22/18 A2985  1140 75 2300 250/12 RMK AO2 WSHFT 0843 TSNO
94908KDBQ DBQ20050630032011606/30/05 03:20:31  5-MIN KDBQ 300920Z AUTO 27010KT 10SM CLR 22/18 A2985  1140 78 2300 270/10 RMK AO2 WSHFT 0843 TSNO
94908KDBQ DBQ20050630032511606/30/05 03:25:31  5-MIN KDBQ 300925Z AUTO 26011KT 10SM CLR 22/18 A2985  1140 78 2300 260/11 RMK AO2 WSHFT 0843 TSNO
94908KDBQ DBQ20050630033011606/30/05 03:30:31  5-MIN KDBQ 300930Z AUTO 26010KT 10SM CLR 22/18 A2985  1140 81 2200 260/10 RMK AO2 WSHFT 0843 TSNO
94908KDBQ DBQ20050630033511406/30/05 03:35:31  5-MIN KDBQ 300935Z AUTO 26009KT 9SM CLR 22/18 A2985 1150 81 2200 260/09 RMK AO2 WSHFT 0843 TSNO
94908KDBQ DBQ20050630034011406/30/05 03:40:31  5-MIN KDBQ 300940Z AUTO 27010KT 9SM CLR 22/18 A2985 1150 81 2200 260/10 RMK AO2 WSHFT 0843 TSNO
94908KDBQ DBQ20050630034511406/30/05 03:45:31  5-MIN KDBQ 300945Z AUTO 27010KT 9SM CLR 22/19 A2985 1140 84 2200 270/10 RMK AO2 WSHFT 0843 TSNO
94908KDBQ DBQ20050630035013106/30/05 03:50:31  5-MIN KDBQ 300950Z AUTO 26007KT 9SM CLR 22/19 A2985 1150 84 2200 250/07 RMK AO2 WSHFT 0843 SLP099 T02170189 TSNO
94908KDBQ DBQ20050630035513106/30/05 03:55:31  5-MIN KDBQ 300955Z AUTO 27007KT 9SM CLR 21/19 A2985 1140 87 2200 270/07 RMK AO2 WSHFT 0843 SLP100 T02110189 TSNO
94908KDBQ DBQ20050630040010306/30/05 04:00:31  5-MIN KDBQ 301000Z AUTO 26006KT 9SM CLR 21/19 A2985 1140 87 2200 260/06 RMK AO2 TSNO
94908KDBQ DBQ20050630040510306/30/05 04:05:31  5-MIN KDBQ 301005Z AUTO 25008KT 9SM CLR 21/19 A2986 1140 87 2100 250/08 RMK AO2 TSNO
94908KDBQ DBQ20050630041010306/30/05 04:10:31  5-MIN KDBQ 301010Z AUTO 24006KT 8SM CLR 21/19 A2986 1140 87 2200 230/06 RMK AO2 TSNO
94908KDBQ DBQ20050630041510306/30/05 04:15:31  5-MIN KDBQ 301015Z AUTO 24007KT 8SM CLR 21/19 A2986 1130 87 2100 240/07 RMK AO2 TSNO
94908KDBQ DBQ20050630042010306/30/05 04:20:31  5-MIN KDBQ 301020Z AUTO 24007KT 8SM CLR 21/19 A2986 1140 87 2200 240/07 RMK AO2 TSNO
94908KDBQ DBQ20050630042510306/30/05 04:25:31  5-MIN KDBQ 301025Z AUTO 25008KT 8SM CLR 21/19 A2986 1140 87 2100 250/08 RMK AO2 TSNO
94908KDBQ DBQ20050630043010306/30/05 04:30:31  5-MIN KDBQ 301030Z AUTO 25007KT 8SM CLR 21/19 A2986 1140 87 2200 240/07 RMK AO2 TSNO
94908KDBQ DBQ20050630043510306/30/05 04:35:31  5-MIN KDBQ 301035Z AUTO 25006KT 8SM CLR 21/19 A2986 1140 90 2100 250/06 RMK AO2 TSNO
94908KDBQ DBQ20050630044010306/30/05 04:40:31  5-MIN KDBQ 301040Z AUTO 25008KT 7SM CLR 21/19 A2986 1140 90 2100 250/08 RMK AO2 TSNO
94908KDBQ DBQ20050630044510306/30/05 04:45:31  5-MIN KDBQ 301045Z AUTO 26009KT 7SM CLR 21/19 A2985 1140 90 2100 260/09 RMK AO2 TSNO
94908KDBQ DBQ20050630045012006/30/05 04:50:31  5-MIN KDBQ 301050Z AUTO 26008KT 7SM CLR 21/19 A2985 1140 87 2200 260/08 RMK AO2 SLP101 T02110189 TSNO
94908KDBQ DBQ20050630045511106/30/05 04:55:31  5-MIN KDBQ 301055Z 26009KT 7SM CLR 21/19 A2985 1140 87  2200 260/09 RMK AO2 SLP102 T02110189
94908KDBQ DBQ20050630050009406/30/05 05:00:31  5-MIN KDBQ 301100Z 26008KT 7SM CLR 21/19 A2985 1140 87  2200 260/08 RMK AO2
94908KDBQ DBQ20050630050511606/30/05 05:05:31  5-MIN KDBQ 301105Z 26010KT 7SM CLR 21/19 A2986 1140 87  2100 260/10 RMK AO2 TSTMS DSNT SW MOV ENE
94908KDBQ DBQ20050630051011606/30/05 05:10:31  5-MIN KDBQ 301110Z 26009KT 7SM CLR 21/19 A2986 1140 87  2100 260/09 RMK AO2 TSTMS DSNT SW MOV ENE
94908KDBQ DBQ20050630051511606/30/05 05:15:31  5-MIN KDBQ 301115Z 26011KT 7SM CLR 21/19 A2987 1130 87  2100 260/11 RMK AO2 TSTMS DSNT SW MOV ENE
94908KDBQ DBQ20050630052012306/30/05 05:20:31  5-MIN KDBQ 301120Z 25009KT 7SM CLR 21/19 A2988 1120 87  2100 250/09 RMK AO2 PRESRR TSTMS DSNT SW MOV ENE
94908KDBQ DBQ20050630052511606/30/05 05:25:31  5-MIN KDBQ 301125Z 25007KT 7SM CLR 21/19 A2988 1120 90  2100 250/07 RMK AO2 TSTMS DSNT SW MOV ENE
94908KDBQ DBQ20050630053011606/30/05 05:30:31  5-MIN KDBQ 301130Z 25010KT 7SM CLR 21/18 A2988 1110 87  2100 250/10 RMK AO2 TSTMS DSNT SW MOV ENE
94908KDBQ DBQ20050630053511606/30/05 05:35:31  5-MIN KDBQ 301135Z 25009KT 7SM CLR 21/18 A2988 1110 87  2100 250/09 RMK AO2 TSTMS DSNT SW MOV ENE
94908KDBQ DBQ20050630054011606/30/05 05:40:31  5-MIN KDBQ 301140Z 24008KT 8SM CLR 21/18 A2989 1110 87  2100 240/08 RMK AO2 TSTMS DSNT SE MOV ENE
94908KDBQ DBQ20050630054511606/30/05 05:45:31  5-MIN KDBQ 301145Z 23010KT 8SM CLR 21/18 A2989 1100 87  2000 230/10 RMK AO2 TSTMS DSNT SE MOV ENE
94908KDBQ DBQ20050630055016406/30/05 05:50:31  5-MIN KDBQ 301150Z 22009KT 8SM CLR 21/18 A2990 1100 87  2000 220/09 RMK AO2 SLP116 TSTMS DSNT SE MOV ENE 60011 70015 T02060183  10228 20194 55022
94908KDBQ DBQ20050630055516406/30/05 05:55:31  5-MIN KDBQ 301155Z 21009KT 8SM CLR 21/18 A2990 1100 87  2000 210/09 RMK AO2 SLP118 TSTMS DSNT SE MOV ENE 60011 70015 T02060183  10228 20194 53015
94908KDBQ DBQ20050630060009406/30/05 06:00:31  5-MIN KDBQ 301200Z 22009KT 8SM CLR 21/18 A2991 1090 87  2000 220/09 RMK AO2
94908KDBQ DBQ20050630060509406/30/05 06:05:31  5-MIN KDBQ 301205Z 22009KT 8SM CLR 21/18 A2991 1090 87  2000 220/09 RMK AO2
94908KDBQ DBQ20050630061009406/30/05 06:10:31  5-MIN KDBQ 301210Z 23008KT 8SM CLR 21/18 A2991 1090 87  2000 230/08 RMK AO2
94908KDBQ DBQ20050630061509406/30/05 06:15:31  5-MIN KDBQ 301215Z 22008KT 8SM CLR 21/18 A2991 1090 87  2000 220/08 RMK AO2
94908KDBQ DBQ20050630062009406/30/05 06:20:31  5-MIN KDBQ 301220Z 23010KT 8SM CLR 21/18 A2991 1090 87  2000 230/10 RMK AO2
94908KDBQ DBQ20050630062509406/30/05 06:25:31  5-MIN KDBQ 301225Z 23011KT 9SM CLR 21/18 A2991 1090 87  2000 230/11 RMK AO2
94908KDBQ DBQ20050630063009406/30/05 06:30:31  5-MIN KDBQ 301230Z 23010KT 9SM CLR 21/18 A2991 1090 87  2000 230/10 RMK AO2
94908KDBQ DBQ20050630063509406/30/05 06:35:31  5-MIN KDBQ 301235Z 23009KT 9SM CLR 21/18 A2991 1090 87  2000 230/09 RMK AO2
94908KDBQ DBQ20050630064009406/30/05 06:40:31  5-MIN KDBQ 301240Z 23010KT 9SM CLR 21/18 A2991 1090 87  2000 230/10 RMK AO2
94908KDBQ DBQ20050630064509406/30/05 06:45:31  5-MIN KDBQ 301245Z 23011KT 10SM CLR 21/18 A2990 1090 87 2000 230/11 RMK AO2
94908KDBQ DBQ20050630065011106/30/05 06:50:31  5-MIN KDBQ 301250Z 23011KT 10SM CLR 21/18 A2990 1090 84 2100 230/11 RMK AO2 SLP118 T02110183
94908KDBQ DBQ20050630065511106/30/05 06:55:31  5-MIN KDBQ 301255Z 23013KT 10SM CLR 21/18 A2990 1100 84 2100 230/13 RMK AO2 SLP116 T02110183
94908KDBQ DBQ20050630070009406/30/05 07:00:31  5-MIN KDBQ 301300Z 24011KT 10SM CLR 21/18 A2990 1100 84 2100 230/11 RMK AO2
94908KDBQ DBQ20050630070509406/30/05 07:05:31  5-MIN KDBQ 301305Z 24009KT 10SM CLR 21/18 A2989 1100 81 2100 240/09 RMK AO2
94908KDBQ DBQ20050630071009406/30/05 07:10:31  5-MIN KDBQ 301310Z 24010KT 10SM CLR 22/18 A2989 1100 81 2200 240/10 RMK AO2
94908KDBQ DBQ20050630071509406/30/05 07:15:31  5-MIN KDBQ 301315Z 24010KT 10SM CLR 22/18 A2989 1110 81 2200 240/10 RMK AO2
94908KDBQ DBQ20050630072009406/30/05 07:20:31  5-MIN KDBQ 301320Z 23010KT 10SM CLR 22/18 A2989 1110 81 2200 230/10 RMK AO2
94908KDBQ DBQ20050630072509406/30/05 07:25:31  5-MIN KDBQ 301325Z 25011KT 10SM CLR 22/18 A2989 1110 81 2200 250/11 RMK AO2
94908KDBQ DBQ20050630073009406/30/05 07:30:31  5-MIN KDBQ 301330Z 25012KT 10SM CLR 22/18 A2989 1110 81 2200 250/12 RMK AO2
94908KDBQ DBQ20050630073509406/30/05 07:35:31  5-MIN KDBQ 301335Z 26010KT 10SM CLR 22/18 A2989 1110 78 2200 260/10 RMK AO2
94908KDBQ DBQ20050630074009406/30/05 07:40:31  5-MIN KDBQ 301340Z 24009KT 10SM CLR 22/18 A2988 1110 78 2200 240/09 RMK AO2
94908KDBQ DBQ20050630074509406/30/05 07:45:31  5-MIN KDBQ 301345Z 24008KT 10SM CLR 22/18 A2988 1110 78 2200 240/08 RMK AO2
94908KDBQ DBQ20050630075011106/30/05 07:50:31  5-MIN KDBQ 301350Z 26009KT 10SM CLR 22/18 A2988 1110 75 2200 260/09 RMK AO2 SLP111 T02220178
94908KDBQ DBQ20050630075511106/30/05 07:55:31  5-MIN KDBQ 301355Z 26011KT 10SM CLR 22/18 A2988 1110 75 2200 260/11 RMK AO2 SLP112 T02220178
94908KDBQ DBQ20050630080009406/30/05 08:00:31  5-MIN KDBQ 301400Z 24008KT 10SM CLR 22/18 A2988 1120 75 2300 240/08 RMK AO2
94908KDBQ DBQ20050630080509406/30/05 08:05:31  5-MIN KDBQ 301405Z 26010KT 10SM CLR 23/18 A2988 1120 73 2300 260/10 RMK AO2
94908KDBQ DBQ20050630081009406/30/05 08:10:31  5-MIN KDBQ 301410Z 26009KT 10SM CLR 23/18 A2988 1120 73 2300 260/09 RMK AO2
94908KDBQ DBQ20050630081509406/30/05 08:15:31  5-MIN KDBQ 301415Z 25011KT 10SM CLR 23/18 A2987 1120 73 2300 250/11 RMK AO2
94908KDBQ DBQ20050630082009406/30/05 08:20:31  5-MIN KDBQ 301420Z 24009KT 10SM CLR 23/18 A2987 1130 73 2300 240/09 RMK AO2
94908KDBQ DBQ20050630082509406/30/05 08:25:31  5-MIN KDBQ 301425Z 24009KT 10SM CLR 23/18 A2987 1120 73 2400 240/09 RMK AO2
94908KDBQ DBQ20050630083009406/30/05 08:30:31  5-MIN KDBQ 301430Z 24010KT 10SM CLR 23/18 A2987 1120 73 2400 240/10 RMK AO2
94908KDBQ DBQ20050630083509406/30/05 08:35:31  5-MIN KDBQ 301435Z 25011KT 10SM CLR 23/18 A2987 1130 70 2400 250/11 RMK AO2
94908KDBQ DBQ20050630084009406/30/05 08:40:31  5-MIN KDBQ 301440Z 24011KT 10SM CLR 23/18 A2987 1130 70 2400 230/11 RMK AO2
94908KDBQ DBQ20050630084509406/30/05 08:45:31  5-MIN KDBQ 301445Z 24010KT 10SM CLR 23/18 A2987 1130 70 2400 230/10 RMK AO2
94908KDBQ DBQ20050630085011706/30/05 08:50:31  5-MIN KDBQ 301450Z 25012KT 10SM CLR 24/17 A2987 1120 66 2400 250/12 RMK AO2 SLP107 T02390172 53015
94908KDBQ DBQ20050630085511706/30/05 08:55:31  5-MIN KDBQ 301455Z 25011KT 10SM CLR 24/17 A2987 1130 63 2500 250/11 RMK AO2 SLP106 T02390167 58011
94908KDBQ DBQ20050630090009406/30/05 09:00:31  5-MIN KDBQ 301500Z 26010KT 10SM CLR 24/18 A2987 1120 68 2400 250/10 RMK AO2
94908KDBQ DBQ20050630090509406/30/05 09:05:31  5-MIN KDBQ 301505Z 25014KT 10SM CLR 24/18 A2987 1130 66 2500 250/14 RMK AO2
94908KDBQ DBQ20050630091009406/30/05 09:10:31  5-MIN KDBQ 301510Z 27013KT 10SM CLR 24/17 A2987 1120 63 2500 270/13 RMK AO2
94908KDBQ DBQ20050630091509406/30/05 09:15:31  5-MIN KDBQ 301515Z 25015KT 10SM CLR 24/17 A2987 1130 63 2500 250/15 RMK AO2
94908KDBQ DBQ20050630092009606/30/05 09:20:31  5-MIN KDBQ 301520Z 26012KT 10SM CLR 24/18 A2987 1130 66 2500 260/12 RMK AO2 $
94908KDBQ DBQ20050630092509606/30/05 09:25:31  5-MIN KDBQ 301525Z 26013KT 10SM CLR 24/17 A2986 1130 63 2500 260/13 RMK AO2 $
94908KDBQ DBQ20050630093009606/30/05 09:30:31  5-MIN KDBQ 301530Z 25012KT 10SM CLR 24/18 A2986 1130 66 2500 250/12 RMK AO2 $
94908KDBQ DBQ20050630093509606/30/05 09:35:31  5-MIN KDBQ 301535Z 26013KT 10SM CLR 24/18 A2986 1130 66 2500 260/13 RMK AO2 $
94908KDBQ DBQ20050630094009606/30/05 09:40:31  5-MIN KDBQ 301540Z 26014KT 10SM CLR 25/18 A2986 1130 64 2600 260/14 RMK AO2 $
94908KDBQ DBQ20050630094509606/30/05 09:45:31  5-MIN KDBQ 301545Z 25016KT 10SM CLR 25/18 A2986 1130 64 2600 250/16 RMK AO2 $
94908KDBQ DBQ20050630095011306/30/05 09:50:31  5-MIN KDBQ 301550Z 26014KT 10SM CLR 25/18 A2986 1130 64 2600 260/14 RMK AO2 SLP104 T02500178 $
94908KDBQ DBQ20050630095510906/30/05 09:55:31  5-MIN KDBQ 301555Z 26013KT 10SM 25/18 A2987 1130 64 2600 260/13 RMK AO2 SLP105 T02500178 $
94908KDBQ DBQ20050630100009206/30/05 10:00:31  5-MIN KDBQ 301600Z 26014KT 10SM 26/17 A2986 1130 57 2600 260/14 RMK AO2 $
94908KDBQ DBQ20050630100509206/30/05 10:05:31  5-MIN KDBQ 301605Z 26015KT 10SM 26/17 A2986 1130 57 2600 260/15 RMK AO2 $
94908KDBQ DBQ20050630101008806/30/05 10:10:31  5-MIN KDBQ 301610Z 26015KT 26/16 A2986 1130 53 2600  260/15 RMK AO2 $
94908KDBQ DBQ20050630101509406/30/05 10:15:31  5-MIN KDBQ 301615Z 26016G20KT 26/16 A2986 1130 51 2700  260/16G20 RMK AO2 $
94908KDBQ DBQ20050630102008806/30/05 10:20:31  5-MIN KDBQ 301620Z 26012KT 26/16 A2987 1130 53 2600  260/12 RMK AO2 $
94908KDBQ DBQ20050630102508806/30/05 10:25:31  5-MIN KDBQ 301625Z 26013KT 26/16 A2987 1130 55 2600  260/13 RMK AO2 $
94908KDBQ DBQ20050630103008806/30/05 10:30:31  5-MIN KDBQ 301630Z 25015KT 26/16 A2987 1130 53 2600  250/15 RMK AO2 $
94908KDBQ DBQ20050630103509106/30/05 10:35:31  5-MIN KDBQ 301635Z 25015KT CLR 26/16 A2987 1130 53 2700 250/15 RMK AO2 $
94908KDBQ DBQ20050630104009106/30/05 10:40:31  5-MIN KDBQ 301640Z 25015KT CLR 26/15 A2987 1130 51 2600 250/15 RMK AO2 $
94908KDBQ DBQ20050630104508906/30/05 10:45:31  5-MIN KDBQ 301645Z 26013KT CLR 26/16 A2987 1130 53 2600 260/13 RMK AO2
94908KDBQ DBQ20050630105011106/30/05 10:50:31  5-MIN KDBQ 301650Z 26012KT 10SM CLR 26/16 A2986 1130 51 2700 260/12 RMK AO2 SLP105 T02610156
94908KDBQ DBQ20050630105511106/30/05 10:55:31  5-MIN KDBQ 301655Z 25013KT 10SM CLR 26/16 A2986 1130 53 2700 250/13 RMK AO2 SLP105 T02610161
94908KDBQ DBQ20050630110009406/30/05 11:00:31  5-MIN KDBQ 301700Z 25013KT 10SM CLR 26/16 A2986 1130 51 2700 250/13 RMK AO2
94908KDBQ DBQ20050630110509406/30/05 11:05:31  5-MIN KDBQ 301705Z 24014KT 10SM CLR 26/16 A2986 1140 51 2700 240/14 RMK AO2
94908KDBQ DBQ20050630111010006/30/05 11:10:31  5-MIN KDBQ 301710Z 24014G20KT 10SM CLR 26/16 A2986 1140 51 2700 240/14G20 RMK AO2
94908KDBQ DBQ20050630111510006/30/05 11:15:31  5-MIN KDBQ 301715Z 27014G20KT 10SM CLR 26/15 A2986 1140 50 2700 270/14G20 RMK AO2
94908KDBQ DBQ20050630112009406/30/05 11:20:31  5-MIN KDBQ 301720Z 26015KT 10SM CLR 26/15 A2986 1140 50 2700 260/15 RMK AO2
94908KDBQ DBQ20050630112509406/30/05 11:25:31  5-MIN KDBQ 301725Z 25016KT 10SM CLR 27/16 A2985 1140 52 2800 250/16 RMK AO2
94908KDBQ DBQ20050630113010006/30/05 11:30:31  5-MIN KDBQ 301730Z 26015G22KT 10SM CLR 27/15 A2985 1140 48 2800 260/15G22 RMK AO2
94908KDBQ DBQ20050630113510006/30/05 11:35:31  5-MIN KDBQ 301735Z 27012G22KT 10SM CLR 27/16 A2985 1140 50 2800 270/12G22 RMK AO2
94908KDBQ DBQ20050630114010006/30/05 11:40:31  5-MIN KDBQ 301740Z 25015G19KT 10SM CLR 27/16 A2985 1150 52 2800 250/15G19 RMK AO2
94908KDBQ DBQ20050630114510006/30/05 11:45:31  5-MIN KDBQ 301745Z 26015G22KT 10SM CLR 27/16 A2985 1150 50 2800 260/15G22 RMK AO2
94908KDBQ DBQ20050630115013506/30/05 11:50:31  5-MIN KDBQ 301750Z 26012G22KT 10SM CLR 26/16 A2985 1150 53 2700 260/12G22 RMK AO2 SLP100 T02610161 10267 20206 58011
94908KDBQ DBQ20050630115512906/30/05 11:55:31  5-MIN KDBQ 301755Z 26015KT 10SM CLR 27/16 A2984 1150 52 2800 260/15 RMK AO2 SLP099 T02670161 10267 20206 58008
94908KDBQ DBQ20050630120010006/30/05 12:00:31  5-MIN KDBQ 301800Z 26017G22KT 10SM CLR 27/15 A2984 1150 48 2800 260/17G22 RMK AO2
94908KDBQ DBQ20050630120510006/30/05 12:05:31  5-MIN KDBQ 301805Z 25015G22KT 10SM CLR 27/15 A2984 1150 48 2800 250/15G22 RMK AO2
94908KDBQ DBQ20050630121010006/30/05 12:10:31  5-MIN KDBQ 301810Z 27016G21KT 10SM CLR 27/16 A2984 1160 50 2800 270/16G21 RMK AO2
94908KDBQ DBQ20050630121510006/30/05 12:15:31  5-MIN KDBQ 301815Z 25013G21KT 10SM CLR 27/16 A2984 1150 52 2800 250/13G21 RMK AO2
94908KDBQ DBQ20050630122010006/30/05 12:20:31  5-MIN KDBQ 301820Z 26016G19KT 10SM CLR 27/16 A2984 1150 50 2900 260/16G19 RMK AO2
94908KDBQ DBQ20050630122509406/30/05 12:25:31  5-MIN KDBQ 301825Z 25016KT 10SM CLR 27/16 A2984 1160 52 2800 250/16 RMK AO2
94908KDBQ DBQ20050630123009406/30/05 12:30:31  5-MIN KDBQ 301830Z 26016KT 10SM CLR 27/16 A2984 1160 50 2800 260/16 RMK AO2
94908KDBQ DBQ20050630123510006/30/05 12:35:31  5-MIN KDBQ 301835Z 27015G20KT 10SM CLR 27/17 A2983 1160 53 2800 270/15G20 RMK AO2
94908KDBQ DBQ20050630124010006/30/05 12:40:31  5-MIN KDBQ 301840Z 27014G20KT 10SM CLR 27/16 A2983 1160 52 2800 270/14G20 RMK AO2
94908KDBQ DBQ20050630124510006/30/05 12:45:31  5-MIN KDBQ 301845Z 27015G18KT 10SM CLR 27/17 A2983 1160 52 2900 270/15G18 RMK AO2
94908KDBQ DBQ20050630125011706/30/05 12:50:31  5-MIN KDBQ 301850Z 26018G21KT 10SM CLR 27/16 A2983 1160 50 2900 260/18G21 RMK AO2 SLP093 T02720161
94908KDBQ DBQ20050630125511706/30/05 12:55:31  5-MIN KDBQ 301855Z 26018G23KT 10SM CLR 27/16 A2983 1160 50 2900 260/18G23 RMK AO2 SLP092 T02720161
94908KDBQ DBQ20050630130010006/30/05 13:00:31  5-MIN KDBQ 301900Z 26016G23KT 10SM CLR 27/17 A2983 1160 52 2900 260/16G23 RMK AO2
94908KDBQ DBQ20050630130510006/30/05 13:05:31  5-MIN KDBQ 301905Z 25018G22KT 10SM CLR 27/17 A2983 1160 52 2900 250/18G22 RMK AO2
94908KDBQ DBQ20050630131009406/30/05 13:10:31  5-MIN KDBQ 301910Z 25016KT 10SM CLR 27/17 A2983 1160 52 2900 250/16 RMK AO2
94908KDBQ DBQ20050630131509406/30/05 13:15:31  5-MIN KDBQ 301915Z 25018KT 10SM CLR 27/17 A2983 1160 52 2900 250/18 RMK AO2
94908KDBQ DBQ20050630132010006/30/05 13:20:31  5-MIN KDBQ 301920Z 26018G23KT 10SM CLR 28/17 A2983 1160 52 2900 260/18G23 RMK AO2
94908KDBQ DBQ20050630132510006/30/05 13:25:31  5-MIN KDBQ 301925Z 28017G23KT 10SM CLR 27/17 A2982 1170 52 2900 280/17G23 RMK AO2
94908KDBQ DBQ20050630133009406/30/05 13:30:31  5-MIN KDBQ 301930Z 26018KT 10SM CLR 28/17 A2982 1180 50 2900 260/18 RMK AO2
94908KDBQ DBQ20050630133510006/30/05 13:35:31  5-MIN KDBQ 301935Z 26018G22KT 10SM CLR 27/17 A2981 1180 52 2900 260/18G22 RMK AO2
94908KDBQ DBQ20050630134010006/30/05 13:40:31  5-MIN KDBQ 301940Z 26015G24KT 10SM CLR 27/17 A2982 1170 52 2900 260/15G24 RMK AO2
94908KDBQ DBQ20050630134510006/30/05 13:45:31  5-MIN KDBQ 301945Z 26018G24KT 10SM CLR 27/17 A2982 1170 52 2900 260/18G24 RMK AO2
94908KDBQ DBQ20050630135011706/30/05 13:50:31  5-MIN KDBQ 301950Z 27019G24KT 10SM CLR 27/16 A2982 1170 50 2900 270/19G24 RMK AO2 SLP090 T02720161
94908KDBQ DBQ20050630135511706/30/05 13:55:31  5-MIN KDBQ 301955Z 26016G22KT 10SM CLR 28/17 A2982 1170 50 2900 260/16G22 RMK AO2 SLP090 T02780167
94908KDBQ DBQ20050630140009406/30/05 14:00:31  5-MIN KDBQ 302000Z 26017KT 10SM CLR 27/17 A2982 1170 52 2900 260/17 RMK AO2
94908KDBQ DBQ20050630140511806/30/05 14:05:31  5-MIN KDBQ 302005Z 26019G27KT 10SM CLR 28/17 A2982 1180 50 2900 260/19G27 RMK AO2 PK WND 25027/2004
94908KDBQ DBQ20050630141011806/30/05 14:10:31  5-MIN KDBQ 302010Z 26018G27KT 10SM CLR 28/17 A2982 1170 50 2900 260/18G27 RMK AO2 PK WND 25027/2004
94908KDBQ DBQ20050630141511806/30/05 14:15:31  5-MIN KDBQ 302015Z 26018G24KT 10SM CLR 28/16 A2982 1170 48 2900 260/18G24 RMK AO2 PK WND 25027/2004
94908KDBQ DBQ20050630142011206/30/05 14:20:31  5-MIN KDBQ 302020Z 26017KT 10SM CLR 28/17 A2982 1170 50 2900 260/17 RMK AO2 PK WND 25027/2004
94908KDBQ DBQ20050630142511806/30/05 14:25:31  5-MIN KDBQ 302025Z 27016G23KT 10SM CLR 28/17 A2982 1170 50 2900 270/16G23 RMK AO2 PK WND 25027/2004
94908KDBQ DBQ20050630143011806/30/05 14:30:31  5-MIN KDBQ 302030Z 26020G23KT 10SM CLR 28/17 A2982 1170 50 2900 260/20G23 RMK AO2 PK WND 25027/2004
94908KDBQ DBQ20050630143511806/30/05 14:35:31  5-MIN KDBQ 302035Z 27016G23KT 10SM CLR 28/16 A2981 1180 48 3000 270/16G23 RMK AO2 PK WND 25027/2004
94908KDBQ DBQ20050630144011806/30/05 14:40:31  5-MIN KDBQ 302040Z 25017G24KT 10SM CLR 28/17 A2982 1170 50 2900 250/17G24 RMK AO2 PK WND 25027/2004
94908KDBQ DBQ20050630144511806/30/05 14:45:31  5-MIN KDBQ 302045Z 27016G24KT 10SM CLR 28/17 A2982 1170 50 2900 270/16G24 RMK AO2 PK WND 25027/2004
94908KDBQ DBQ20050630145014106/30/05 14:50:31  5-MIN KDBQ 302050Z 27017G26KT 10SM CLR 28/16 A2981 1180 48 2900 270/17G26 RMK AO2 PK WND 25027/2004 SLP088 T02780161 58008
94908KDBQ DBQ20050630145514106/30/05 14:55:31  5-MIN KDBQ 302055Z 27020G26KT 10SM CLR 28/16 A2981 1180 48 3000 270/20G26 RMK AO2 PK WND 25027/2004 SLP087 T02780161 56010
94908KDBQ DBQ20050630150010006/30/05 15:00:31  5-MIN KDBQ 302100Z 26020G25KT 10SM CLR 27/16 A2981 1180 50 2900 260/20G25 RMK AO2
94908KDBQ DBQ20050630150510006/30/05 15:05:31  5-MIN KDBQ 302105Z 27013G25KT 10SM CLR 28/17 A2981 1180 50 3000 270/13G25 RMK AO2
94908KDBQ DBQ20050630151010006/30/05 15:10:31  5-MIN KDBQ 302110Z 26017G24KT 10SM CLR 28/17 A2981 1180 50 3000 260/17G24 RMK AO2
94908KDBQ DBQ20050630151510006/30/05 15:15:31  5-MIN KDBQ 302115Z 26016G24KT 10SM CLR 28/17 A2981 1180 50 3000 260/16G24 RMK AO2
94908KDBQ DBQ20050630152011806/30/05 15:20:31  5-MIN KDBQ 302120Z 27020G26KT 10SM CLR 28/17 A2981 1180 50 3000 270/20G26 RMK AO2 PK WND 26026/2119
94908KDBQ DBQ20050630152511806/30/05 15:25:31  5-MIN KDBQ 302125Z 27016G26KT 10SM CLR 28/16 A2980 1190 48 3000 270/16G26 RMK AO2 PK WND 26026/2119
94908KDBQ DBQ20050630153011806/30/05 15:30:31  5-MIN KDBQ 302130Z 27016G22KT 10SM CLR 28/16 A2980 1190 48 3000 270/16G22 RMK AO2 PK WND 26026/2119
94908KDBQ DBQ20050630153511806/30/05 15:35:31  5-MIN KDBQ 302135Z 27015G21KT 10SM CLR 28/17 A2980 1190 50 3000 270/15G21 RMK AO2 PK WND 26026/2119
94908KDBQ DBQ20050630154011206/30/05 15:40:31  5-MIN KDBQ 302140Z 27020KT 10SM CLR 28/17 A2980 1190 50 3000 270/20 RMK AO2 PK WND 26026/2119
94908KDBQ DBQ20050630154511806/30/05 15:45:31  5-MIN KDBQ 302145Z 27021G26KT 10SM CLR 28/16 A2980 1190 46 3000 270/21G26 RMK AO2 PK WND 27026/2145
94908KDBQ DBQ20050630155013506/30/05 15:50:31  5-MIN KDBQ 302150Z 27017G26KT 10SM CLR 28/16 A2980 1190 46 3000 270/17G26 RMK AO2 PK WND 27026/2145 SLP084 T02780156
94908KDBQ DBQ20050630155513506/30/05 15:55:31  5-MIN KDBQ 302155Z 27019G25KT 10SM CLR 28/15 A2981 1180 45 3000 270/19G25 RMK AO2 PK WND 27026/2145 SLP085 T02780150
94908KDBQ DBQ20050630160010006/30/05 16:00:31  5-MIN KDBQ 302200Z 28018G25KT 10SM CLR 27/16 A2981 1190 48 2900 280/18G25 RMK AO2
94908KDBQ DBQ20050630160510006/30/05 16:05:31  5-MIN KDBQ 302205Z 27017G22KT 10SM CLR 27/16 A2981 1180 48 2900 270/17G22 RMK AO2
94908KDBQ DBQ20050630161010006/30/05 16:10:31  5-MIN KDBQ 302210Z 27018G23KT 10SM CLR 27/16 A2981 1180 50 2800 270/18G23 RMK AO2
94908KDBQ DBQ20050630161510006/30/05 16:15:31  5-MIN KDBQ 302215Z 27014G23KT 10SM CLR 27/16 A2981 1180 50 2800 270/14G23 RMK AO2
94908KDBQ DBQ20050630162009406/30/05 16:20:31  5-MIN KDBQ 302220Z 27012KT 10SM CLR 27/16 A2981 1180 52 2800 270/12 RMK AO2
94908KDBQ DBQ20050630162509406/30/05 16:25:31  5-MIN KDBQ 302225Z 27012KT 10SM CLR 26/16 A2981 1180 53 2800 260/12 RMK AO2
94908KDBQ DBQ20050630163009406/30/05 16:30:31  5-MIN KDBQ 302230Z 26013KT 10SM CLR 26/16 A2982 1180 53 2800 260/13 RMK AO2
94908KDBQ DBQ20050630163510006/30/05 16:35:31  5-MIN KDBQ 302235Z 27014G20KT 10SM CLR 27/16 A2982 1170 50 2800 270/14G20 RMK AO2
94908KDBQ DBQ20050630164010006/30/05 16:40:31  5-MIN KDBQ 302240Z 27014G20KT 10SM CLR 26/16 A2982 1170 51 2800 270/14G20 RMK AO2
94908KDBQ DBQ20050630164509406/30/05 16:45:31  5-MIN KDBQ 302245Z 27013KT 10SM CLR 26/16 A2982 1170 51 2800 270/13 RMK AO2
94908KDBQ DBQ20050630165011106/30/05 16:50:31  5-MIN KDBQ 302250Z 28009KT 10SM CLR 26/16 A2982 1170 51 2800 270/09 RMK AO2 SLP092 T02610156
94908KDBQ DBQ20050630165511106/30/05 16:55:31  5-MIN KDBQ 302255Z 28010KT 10SM CLR 26/16 A2982 1170 53 2800 270/10 RMK AO2 SLP092 T02610161
94908KDBQ DBQ20050630170009406/30/05 17:00:31  5-MIN KDBQ 302300Z 28009KT 10SM CLR 26/16 A2982 1170 53 2800 270/09 RMK AO2
94908KDBQ DBQ20050630170509406/30/05 17:05:31  5-MIN KDBQ 302305Z 27009KT 10SM CLR 26/16 A2982 1170 55 2700 270/09 RMK AO2
94908KDBQ DBQ20050630171009406/30/05 17:10:31  5-MIN KDBQ 302310Z 28010KT 10SM CLR 26/16 A2982 1170 55 2700 280/10 RMK AO2
94908KDBQ DBQ20050630171509406/30/05 17:15:31  5-MIN KDBQ 302315Z 28010KT 10SM CLR 26/16 A2982 1170 55 2700 280/10 RMK AO2
94908KDBQ DBQ20050630172009406/30/05 17:20:31  5-MIN KDBQ 302320Z 27009KT 10SM CLR 26/16 A2982 1170 53 2700 270/09 RMK AO2
94908KDBQ DBQ20050630172509406/30/05 17:25:31  5-MIN KDBQ 302325Z 27008KT 10SM CLR 26/16 A2982 1170 55 2700 270/08 RMK AO2
94908KDBQ DBQ20050630173009406/30/05 17:30:31  5-MIN KDBQ 302330Z 28009KT 10SM CLR 26/16 A2982 1170 53 2700 280/09 RMK AO2
94908KDBQ DBQ20050630173509406/30/05 17:35:31  5-MIN KDBQ 302335Z 28011KT 10SM CLR 26/16 A2982 1170 55 2700 280/11 RMK AO2
94908KDBQ DBQ20050630174009406/30/05 17:40:31  5-MIN KDBQ 302340Z 27009KT 10SM CLR 26/16 A2982 1170 53 2700 270/09 RMK AO2
94908KDBQ DBQ20050630174509406/30/05 17:45:31  5-MIN KDBQ 302345Z 28010KT 10SM CLR 26/16 A2981 1180 53 2700 280/10 RMK AO2
94908KDBQ DBQ20050630175012906/30/05 17:50:31  5-MIN KDBQ 302350Z 28011KT 10SM CLR 26/16 A2981 1180 53 2700 280/11 RMK AO2 SLP089 T02560156 10278 20256 56010
94908KDBQ DBQ20050630175512906/30/05 17:55:31  5-MIN KDBQ 302355Z 29010KT 10SM CLR 26/16 A2981 1180 53 2700 290/10 RMK AO2 SLP089 T02560156 10278 20256 50001
94908KDBQ DBQ20050630180010006/30/05 18:00:31  5-MIN KDBQ 010000Z 29010G19KT 10SM CLR 26/16 A2981 1180 53 2700 290/10G19 RMK AO2
94908KDBQ DBQ20050630180510006/30/05 18:05:31  5-MIN KDBQ 010005Z 29014G19KT 10SM CLR 26/16 A2981 1180 53 2700 280/14G19 RMK AO2
94908KDBQ DBQ20050630181010006/30/05 18:10:31  5-MIN KDBQ 010010Z 29013G19KT 10SM CLR 26/16 A2981 1180 53 2700 290/13G19 RMK AO2
94908KDBQ DBQ20050630181510006/30/05 18:15:31  5-MIN KDBQ 010015Z 28014G18KT 10SM CLR 26/16 A2981 1180 53 2700 280/14G18 RMK AO2
94908KDBQ DBQ20050630182009406/30/05 18:20:31  5-MIN KDBQ 010020Z 28011KT 10SM CLR 26/16 A2981 1180 55 2700 280/11 RMK AO2
94908KDBQ DBQ20050630182509406/30/05 18:25:31  5-MIN KDBQ 010025Z 28011KT 10SM CLR 26/16 A2981 1180 55 2700 280/11 RMK AO2
94908KDBQ DBQ20050630183009406/30/05 18:30:31  5-MIN KDBQ 010030Z 28009KT 10SM CLR 25/16 A2981 1180 57 2600 280/09 RMK AO2
94908KDBQ DBQ20050630183509406/30/05 18:35:31  5-MIN KDBQ 010035Z 28009KT 10SM CLR 25/17 A2982 1180 59 2600 280/09 RMK AO2
94908KDBQ DBQ20050630184009406/30/05 18:40:31  5-MIN KDBQ 010040Z 29007KT 10SM CLR 25/17 A2982 1180 59 2600 290/07 RMK AO2
94908KDBQ DBQ20050630184509406/30/05 18:45:31  5-MIN KDBQ 010045Z 29008KT 10SM CLR 25/17 A2982 1170 59 2600 280/08 RMK AO2
94908KDBQ DBQ20050630185011106/30/05 18:50:31  5-MIN KDBQ 010050Z 29008KT 10SM CLR 25/17 A2982 1180 59 2600 290/08 RMK AO2 SLP089 T02500167
94908KDBQ DBQ20050630185512706/30/05 18:55:31  5-MIN KDBQ 010055Z AUTO 29010G17KT 10SM CLR 25/16 A2982 1180 57 2600 290/10G17 RMK AO2 SLP089 T02500161 TSNO
94908KDBQ DBQ20050630190011006/30/05 19:00:31  5-MIN KDBQ 010100Z AUTO 29010G17KT 10SM CLR 24/16 A2982 1180 59 2600 290/10G17 RMK AO2 TSNO
94908KDBQ DBQ20050630190510506/30/05 19:05:31  5-MIN KDBQ 010105Z AUTO 28010KT 10SM CLR 24/16 A2981  1180 57 2600 280/10 RMK AO2 TSNO
94908KDBQ DBQ20050630191010506/30/05 19:10:31  5-MIN KDBQ 010110Z AUTO 28010KT 10SM CLR 24/16 A2981  1180 59 2500 280/10 RMK AO2 TSNO
94908KDBQ DBQ20050630191511006/30/05 19:15:31  5-MIN KDBQ 010115Z AUTO 29012G16KT 10SM CLR 24/16 A2981 1180 59 2500 290/12G16 RMK AO2 TSNO
94908KDBQ DBQ20050630192011006/30/05 19:20:31  5-MIN KDBQ 010120Z AUTO 28010G16KT 10SM CLR 24/16 A2981 1180 59 2500 280/10G16 RMK AO2 TSNO
94908KDBQ DBQ20050630192510506/30/05 19:25:31  5-MIN KDBQ 010125Z AUTO 28008KT 10SM CLR 23/16 A2981  1180 61 2500 280/08 RMK AO2 TSNO
94908KDBQ DBQ20050630193010506/30/05 19:30:31  5-MIN KDBQ 010130Z AUTO 28009KT 10SM CLR 23/16 A2981  1180 61 2500 280/09 RMK AO2 TSNO
94908KDBQ DBQ20050630193510506/30/05 19:35:31  5-MIN KDBQ 010135Z AUTO 28010KT 10SM CLR 23/15 A2981  1180 59 2500 270/10 RMK AO2 TSNO
94908KDBQ DBQ20050630194010506/30/05 19:40:31  5-MIN KDBQ 010140Z AUTO 28008KT 10SM CLR 23/15 A2981  1180 61 2400 280/08 RMK AO2 TSNO
94908KDBQ DBQ20050630194510506/30/05 19:45:31  5-MIN KDBQ 010145Z AUTO 28008KT 10SM CLR 23/15 A2981  1180 61 2400 280/08 RMK AO2 TSNO
94908KDBQ DBQ20050630195012206/30/05 19:50:31  5-MIN KDBQ 010150Z AUTO 28009KT 10SM CLR 23/15 A2981  1180 61 2400 280/09 RMK AO2 SLP088 T02280150 TSNO
94908KDBQ DBQ20050630195512206/30/05 19:55:31  5-MIN KDBQ 010155Z AUTO 28009KT 10SM CLR 22/14 A2981  1180 61 2300 280/09 RMK AO2 SLP088 T02220144 TSNO
94908KDBQ DBQ20050630200010506/30/05 20:00:31  5-MIN KDBQ 010200Z AUTO 28010KT 10SM CLR 22/14 A2981  1180 61 2300 280/10 RMK AO2 TSNO
94908KDBQ DBQ20050630200510506/30/05 20:05:31  5-MIN KDBQ 010205Z AUTO 28008KT 10SM CLR 22/14 A2981  1180 61 2300 280/08 RMK AO2 TSNO
94908KDBQ DBQ20050630201010506/30/05 20:10:31  5-MIN KDBQ 010210Z AUTO 28008KT 10SM CLR 22/14 A2981  1180 61 2300 280/08 RMK AO2 TSNO
94908KDBQ DBQ20050630201510506/30/05 20:15:31  5-MIN KDBQ 010215Z AUTO 28007KT 10SM CLR 22/14 A2981  1180 63 2300 280/07 RMK AO2 TSNO
94908KDBQ DBQ20050630202010506/30/05 20:20:31  5-MIN KDBQ 010220Z AUTO 28008KT 10SM CLR 22/14 A2981  1180 63 2300 280/08 RMK AO2 TSNO
94908KDBQ DBQ20050630202510506/30/05 20:25:31  5-MIN KDBQ 010225Z AUTO 29009KT 10SM CLR 22/14 A2982  1180 63 2300 290/09 RMK AO2 TSNO
94908KDBQ DBQ20050630203010506/30/05 20:30:31  5-MIN KDBQ 010230Z AUTO 29008KT 10SM CLR 22/14 A2982  1170 63 2300 290/08 RMK AO2 TSNO
94908KDBQ DBQ20050630203510506/30/05 20:35:31  5-MIN KDBQ 010235Z AUTO 30011KT 10SM CLR 22/14 A2982  1170 63 2300 300/11 RMK AO2 TSNO
94908KDBQ DBQ20050630204010506/30/05 20:40:31  5-MIN KDBQ 010240Z AUTO 30010KT 10SM CLR 22/14 A2982  1170 61 2300 300/10 RMK AO2 TSNO
94908KDBQ DBQ20050630204510506/30/05 20:45:31  5-MIN KDBQ 010245Z AUTO 30013KT 10SM CLR 22/14 A2981  1180 59 2300 300/13 RMK AO2 TSNO
94908KDBQ DBQ20050630205012806/30/05 20:50:31  5-MIN KDBQ 010250Z AUTO 30014KT 10SM CLR 22/14 A2983  1160 59 2300 300/14 RMK AO2 SLP094 T02220139 50001 TSNO
94908KDBQ DBQ20050630205512806/30/05 20:55:31  5-MIN KDBQ 010255Z AUTO 30010KT 10SM CLR 22/14 A2983  1160 61 2200 300/10 RMK AO2 SLP095 T02170139 53005 TSNO
94908KDBQ DBQ20050630210011006/30/05 21:00:31  5-MIN KDBQ 010300Z AUTO 31012G20KT 10SM CLR 22/14 A2982 1170 59 2300 310/12G20 RMK AO2 TSNO
94908KDBQ DBQ20050630210511006/30/05 21:05:31  5-MIN KDBQ 010305Z AUTO 30012G20KT 10SM CLR 22/14 A2982 1170 61 2300 300/12G20 RMK AO2 TSNO
94908KDBQ DBQ20050630211010506/30/05 21:10:31  5-MIN KDBQ 010310Z AUTO 30011KT 10SM CLR 22/14 A2983  1160 61 2200 300/11 RMK AO2 TSNO
94908KDBQ DBQ20050630211510506/30/05 21:15:31  5-MIN KDBQ 010315Z AUTO 30011KT 10SM CLR 22/14 A2983  1160 61 2200 300/11 RMK AO2 TSNO
94908KDBQ DBQ20050630212010506/30/05 21:20:31  5-MIN KDBQ 010320Z AUTO 31010KT 10SM CLR 21/14 A2982  1170 63 2200 310/10 RMK AO2 TSNO
94908KDBQ DBQ20050630212510506/30/05 21:25:31  5-MIN KDBQ 010325Z AUTO 31012KT 10SM CLR 22/14 A2984  1160 61 2200 310/12 RMK AO2 TSNO
94908KDBQ DBQ20050630213010506/30/05 21:30:31  5-MIN KDBQ 010330Z AUTO 30012KT 10SM CLR 22/14 A2983  1160 61 2200 300/12 RMK AO2 TSNO
94908KDBQ DBQ20050630213510506/30/05 21:35:31  5-MIN KDBQ 010335Z AUTO 30011KT 10SM CLR 21/14 A2983  1160 63 2200 300/11 RMK AO2 TSNO
94908KDBQ DBQ20050630214010506/30/05 21:40:31  5-MIN KDBQ 010340Z AUTO 31011KT 10SM CLR 21/14 A2984  1160 63 2200 300/11 RMK AO2 TSNO
94908KDBQ DBQ20050630214510506/30/05 21:45:31  5-MIN KDBQ 010345Z AUTO 30009KT 10SM CLR 21/14 A2983  1160 63 2200 300/09 RMK AO2 TSNO
94908KDBQ DBQ20050630215012206/30/05 21:50:31  5-MIN KDBQ 010350Z AUTO 30007KT 10SM CLR 21/14 A2984  1150 63 2200 300/07 RMK AO2 SLP098 T02110139 TSNO
94908KDBQ DBQ20050630215512206/30/05 21:55:31  5-MIN KDBQ 010355Z AUTO 30008KT 10SM CLR 21/14 A2984  1160 65 2100 300/08 RMK AO2 SLP097 T02060139 TSNO
94908KDBQ DBQ20050630220010506/30/05 22:00:31  5-MIN KDBQ 010400Z AUTO 30007KT 10SM CLR 20/14 A2983  1160 67 2100 300/07 RMK AO2 TSNO
94908KDBQ DBQ20050630220510506/30/05 22:05:31  5-MIN KDBQ 010405Z AUTO 31008KT 10SM CLR 20/14 A2984  1160 67 2000 310/08 RMK AO2 TSNO
94908KDBQ DBQ20050630221010506/30/05 22:10:31  5-MIN KDBQ 010410Z AUTO 31008KT 10SM CLR 20/14 A2983  1160 67 2100 310/08 RMK AO2 TSNO
94908KDBQ DBQ20050630221510506/30/05 22:15:31  5-MIN KDBQ 010415Z AUTO 32007KT 10SM CLR 20/14 A2983  1160 67 2100 310/07 RMK AO2 TSNO
94908KDBQ DBQ20050630222010506/30/05 22:20:31  5-MIN KDBQ 010420Z AUTO 32008KT 10SM CLR 19/14 A2984  1150 70 2000 320/08 RMK AO2 TSNO
94908KDBQ DBQ20050630222510506/30/05 22:25:31  5-MIN KDBQ 010425Z AUTO 33009KT 10SM CLR 19/14 A2983  1160 70 2000 330/09 RMK AO2 TSNO
94908KDBQ DBQ20050630223010506/30/05 22:30:31  5-MIN KDBQ 010430Z AUTO 33009KT 10SM CLR 19/14 A2984  1150 70 2000 330/09 RMK AO2 TSNO
94908KDBQ DBQ20050630223510506/30/05 22:35:31  5-MIN KDBQ 010435Z AUTO 33011KT 10SM CLR 20/14 A2983  1160 67 2100 330/11 RMK AO2 TSNO
94908KDBQ DBQ20050630224010506/30/05 22:40:31  5-MIN KDBQ 010440Z AUTO 34008KT 10SM CLR 19/13 A2984  1150 67 2000 340/08 RMK AO2 TSNO
94908KDBQ DBQ20050630224510506/30/05 22:45:31  5-MIN KDBQ 010445Z AUTO 32010KT 10SM CLR 19/13 A2983  1160 67 2000 320/10 RMK AO2 TSNO
94908KDBQ DBQ20050630225012206/30/05 22:50:31  5-MIN KDBQ 010450Z AUTO 33013KT 10SM CLR 20/13 A2983  1160 63 2100 330/13 RMK AO2 SLP095 T02000128 TSNO
94908KDBQ DBQ20050630225512206/30/05 22:55:31  5-MIN KDBQ 010455Z AUTO 33011KT 10SM CLR 19/13 A2983  1160 65 2000 330/11 RMK AO2 SLP097 T01940128 TSNO
94908KDBQ DBQ20050630230010506/30/05 23:00:31  5-MIN KDBQ 010500Z AUTO 33012KT 10SM CLR 19/12 A2983  1160 62 2000 330/12 RMK AO2 TSNO
94908KDBQ DBQ20050630230510506/30/05 23:05:31  5-MIN KDBQ 010505Z AUTO 33010KT 10SM CLR 19/12 A2984  1150 65 1900 330/10 RMK AO2 TSNO
94908KDBQ DBQ20050630231011006/30/05 23:10:31  5-MIN KDBQ 010510Z AUTO 33014G19KT 10SM CLR 19/12 A2983 1160 62 1900 330/14G19 RMK AO2 TSNO
94908KDBQ DBQ20050630231511006/30/05 23:15:31  5-MIN KDBQ 010515Z AUTO 33013G19KT 10SM CLR 19/12 A2984 1150 62 1900 330/13G19 RMK AO2 TSNO
94908KDBQ DBQ20050630232010506/30/05 23:20:31  5-MIN KDBQ 010520Z AUTO 33013KT 10SM CLR 19/12 A2983  1160 62 1900 330/13 RMK AO2 TSNO
94908KDBQ DBQ20050630232510506/30/05 23:25:31  5-MIN KDBQ 010525Z AUTO 33013KT 10SM CLR 19/11 A2984  1150 60 1900 330/13 RMK AO2 TSNO
94908KDBQ DBQ20050630233011006/30/05 23:30:31  5-MIN KDBQ 010530Z AUTO 33014G20KT 10SM CLR 19/11 A2983 1160 60 1900 330/14G20 RMK AO2 TSNO
94908KDBQ DBQ20050630233511006/30/05 23:35:31  5-MIN KDBQ 010535Z AUTO 33013G20KT 10SM CLR 19/11 A2983 1160 60 1900 330/13G20 RMK AO2 TSNO
94908KDBQ DBQ20050630234010506/30/05 23:40:31  5-MIN KDBQ 010540Z AUTO 33013KT 10SM CLR 19/11 A2983  1160 60 1900 330/13 RMK AO2 TSNO
94908KDBQ DBQ20050630234511006/30/05 23:45:31  5-MIN KDBQ 010545Z AUTO 33012G21KT 10SM CLR 19/11 A2983 1160 60 1900 330/12G21 RMK AO2 TSNO
94908KDBQ DBQ20050630235015506/30/05 23:50:31  5-MIN KDBQ 010550Z AUTO 33014G21KT 10SM CLR 18/11 A2983 1160 62 1900 330/14G21 RMK AO2 SLP096 T01830111 10256 20183 402780183 53005 TSNO
94908KDBQ DBQ20050630235515106/30/05 23:55:31  5-MIN KDBQ 010555Z AUTO 32012KT 10SM CLR 18/11 A2983  1160 62 1900 320/12 RMK AO2 SLP096 T01830111 10256 20183 402780183 50001  TSNO
