94908KDBQ DBQ20101101000009911/01/10 00:00:49  5-MIN KDBQ 010600Z AUTO 09006KT 10SM CLR 01/M03 A3033 700 72 -700 090/06 RMK AO2
94908KDBQ DBQ20101101000509911/01/10 00:05:31  5-MIN KDBQ 010605Z AUTO 09006KT 10SM CLR 02/M03 A3033 700 69 -700 090/06 RMK AO2
94908KDBQ DBQ20101101001009911/01/10 00:10:31  5-MIN KDBQ 010610Z AUTO 10006KT 10SM CLR 02/M03 A3033 700 69 -700 090/06 RMK AO2
94908KDBQ DBQ20101101001509911/01/10 00:15:31  5-MIN KDBQ 010615Z AUTO 09005KT 10SM CLR 01/M03 A3033 700 72 -700 090/05 RMK AO2
94908KDBQ DBQ20101101002009911/01/10 00:20:31  5-MIN KDBQ 010620Z AUTO 10005KT 10SM CLR 01/M03 A3033 700 72 -700 100/05 RMK AO2
94908KDBQ DBQ20101109154509411/09/10 15:45:31  5-MIN KDBQ 092145Z 16008KT 10SM CLR 19/08 A2987 1120 50 1900 160/08 RMK AO2
94908KDBQ DBQ20101109155011111/09/10 15:50:31  5-MIN KDBQ 092150Z 16008KT 10SM CLR 18/08 A2988 1120 52 1800 160/08 RMK AO2 SLP117 T01830083
94908KDBQ DBQ20101109155509411/09/10 15:55:31  5-MIN KDBQ 092155Z 16008KT 10SM CLR 18/08 A2988 1120 52 1800 160/08 RMK AO2
94908KDBQ DBQ20101109160009411/09/10 16:00:31  5-MIN KDBQ 092200Z 16010KT 10SM CLR 18/08 A2988 1120 52 1800 160/10 RMK AO2
94908KDBQ DBQ20101109160509411/09/10 16:05:31  5-MIN KDBQ 092205Z 16008KT 10SM CLR 18/08 A2988 1120 52 1800 160/08 RMK AO2
94908KDBQ DBQ20101109161009411/09/10 16:10:31  5-MIN KDBQ 092210Z 16008KT 10SM CLR 18/08 A2988 1120 53 1700 160/08 RMK AO2
94908KDBQ DBQ20101109161509411/09/10 16:15:31  5-MIN KDBQ 092215Z 15008KT 10SM CLR 17/08 A2988 1120 55 1700 150/08 RMK AO2
94908KDBQ DBQ20101109162009411/09/10 16:20:31  5-MIN KDBQ 092220Z 15008KT 10SM CLR 17/08 A2988 1120 53 1700 150/08 RMK AO2
94908KDBQ DBQ20101109162509411/09/10 16:25:31  5-MIN KDBQ 092225Z 15006KT 10SM CLR 17/08 A2988 1120 55 1600 150/06 RMK AO2
94908KDBQ DBQ20101109163009411/09/10 16:30:31  5-MIN KDBQ 092230Z 14006KT 10SM CLR 17/08 A2988 1120 55 1600 140/06 RMK AO2
94908KDBQ DBQ20101109163509411/09/10 16:35:31  5-MIN KDBQ 092235Z 14007KT 10SM CLR 16/08 A2988 1120 57 1500 140/07 RMK AO2
94908KDBQ DBQ20101109164009411/09/10 16:40:31  5-MIN KDBQ 092240Z 14008KT 10SM CLR 16/08 A2988 1120 57 1500 140/08 RMK AO2
94908KDBQ DBQ20101109164509411/09/10 16:45:31  5-MIN KDBQ 092245Z 14008KT 10SM CLR 16/08 A2988 1120 59 1500 140/08 RMK AO2
94908KDBQ DBQ20101109165011111/09/10 16:50:31  5-MIN KDBQ 092250Z 14007KT 10SM CLR 16/08 A2988 1120 59 1500 140/07 RMK AO2 SLP119 T01560078
94908KDBQ DBQ20101109165509411/09/10 16:55:31  5-MIN KDBQ 092255Z 14007KT 10SM CLR 16/08 A2988 1120 59 1500 140/07 RMK AO2
94908KDBQ DBQ20101109170009411/09/10 17:00:31  5-MIN KDBQ 092300Z 14006KT 10SM CLR 16/08 A2988 1120 59 1500 140/06 RMK AO2
94908KDBQ DBQ20101109170509411/09/10 17:05:31  5-MIN KDBQ 092305Z 14006KT 10SM CLR 15/08 A2988 1110 62 1400 140/06 RMK AO2
94908KDBQ DBQ20101109171009411/09/10 17:10:31  5-MIN KDBQ 092310Z 14007KT 10SM CLR 15/08 A2988 1110 62 1400 140/07 RMK AO2
94908KDBQ DBQ20101109171509411/09/10 17:15:31  5-MIN KDBQ 092315Z 14007KT 10SM CLR 15/08 A2988 1110 62 1400 140/07 RMK AO2
94908KDBQ DBQ20101109172009411/09/10 17:20:31  5-MIN KDBQ 092320Z 14007KT 10SM CLR 15/08 A2988 1110 62 1400 140/07 RMK AO2
94908KDBQ DBQ20101109172509411/09/10 17:25:31  5-MIN KDBQ 092325Z 14008KT 10SM CLR 15/08 A2989 1110 62 1400 140/08 RMK AO2
94908KDBQ DBQ20101109173009411/09/10 17:30:31  5-MIN KDBQ 092330Z 14008KT 10SM CLR 15/08 A2989 1110 62 1400 140/08 RMK AO2
94908KDBQ DBQ20101109173509411/09/10 17:35:31  5-MIN KDBQ 092335Z 14007KT 10SM CLR 15/08 A2989 1110 62 1400 140/07 RMK AO2
94908KDBQ DBQ20101109174009411/09/10 17:40:31  5-MIN KDBQ 092340Z 14008KT 10SM CLR 14/08 A2989 1110 64 1300 140/08 RMK AO2
94908KDBQ DBQ20101109174509411/09/10 17:45:31  5-MIN KDBQ 092345Z 14007KT 10SM CLR 14/08 A2989 1110 64 1300 140/07 RMK AO2
94908KDBQ DBQ20101109175012911/09/10 17:50:31  5-MIN KDBQ 092350Z 14008KT 10SM CLR 14/08 A2989 1110 64 1300 140/08 RMK AO2 SLP124 T01440078 10194 20144 55006
94908KDBQ DBQ20101109175509411/09/10 17:55:31  5-MIN KDBQ 092355Z 14008KT 10SM CLR 14/08 A2989 1110 64 1300 140/08 RMK AO2
94908KDBQ DBQ20101109180009411/09/10 18:00:31  5-MIN KDBQ 100000Z 14008KT 10SM CLR 14/08 A2989 1110 64 1300 140/08 RMK AO2
94908KDBQ DBQ20101109180509411/09/10 18:05:31  5-MIN KDBQ 100005Z 14008KT 10SM CLR 14/08 A2989 1110 64 1300 140/08 RMK AO2
94908KDBQ DBQ20101109181009411/09/10 18:10:31  5-MIN KDBQ 100010Z 14008KT 10SM CLR 14/08 A2989 1100 64 1300 140/08 RMK AO2
94908KDBQ DBQ20101109181509411/09/10 18:15:31  5-MIN KDBQ 100015Z 14008KT 10SM CLR 14/08 A2989 1100 64 1300 140/08 RMK AO2
94908KDBQ DBQ20101109182009411/09/10 18:20:31  5-MIN KDBQ 100020Z 14008KT 10SM CLR 14/08 A2989 1110 64 1300 140/08 RMK AO2
94908KDBQ DBQ20101109182509411/09/10 18:25:31  5-MIN KDBQ 100025Z 14008KT 10SM CLR 14/08 A2989 1110 64 1300 140/08 RMK AO2
94908KDBQ DBQ20101109183009411/09/10 18:30:31  5-MIN KDBQ 100030Z 14008KT 10SM CLR 14/08 A2989 1110 66 1300 140/08 RMK AO2
94908KDBQ DBQ20101109183509411/09/10 18:35:31  5-MIN KDBQ 100035Z 14008KT 10SM CLR 14/08 A2989 1110 66 1300 140/08 RMK AO2
94908KDBQ DBQ20101109184009411/09/10 18:40:31  5-MIN KDBQ 100040Z 14009KT 10SM CLR 14/08 A2989 1100 66 1300 140/09 RMK AO2
94908KDBQ DBQ20101109184509411/09/10 18:45:31  5-MIN KDBQ 100045Z 14009KT 10SM CLR 14/07 A2989 1100 64 1300 140/09 RMK AO2
94908KDBQ DBQ20101109185011111/09/10 18:50:31  5-MIN KDBQ 100050Z 14009KT 10SM CLR 14/07 A2989 1100 61 1300 140/09 RMK AO2 SLP125 T01440072
94908KDBQ DBQ20101109185509411/09/10 18:55:31  5-MIN KDBQ 100055Z 14009KT 10SM CLR 14/07 A2989 1100 61 1300 140/09 RMK AO2
94908KDBQ DBQ20101109190009411/09/10 19:00:31  5-MIN KDBQ 100100Z 14009KT 10SM CLR 14/07 A2989 1100 64 1300 140/09 RMK AO2
94908KDBQ DBQ20101109190509411/09/10 19:05:31  5-MIN KDBQ 100105Z 15010KT 10SM CLR 14/07 A2989 1100 64 1300 140/10 RMK AO2
94908KDBQ DBQ20101109191009411/09/10 19:10:31  5-MIN KDBQ 100110Z 14010KT 10SM CLR 14/07 A2989 1100 61 1300 140/10 RMK AO2
94908KDBQ DBQ20101109191509411/09/10 19:15:31  5-MIN KDBQ 100115Z 15010KT 10SM CLR 14/07 A2989 1100 64 1300 140/10 RMK AO2
94908KDBQ DBQ20101109192009411/09/10 19:20:31  5-MIN KDBQ 100120Z 14010KT 10SM CLR 14/07 A2990 1100 64 1300 140/10 RMK AO2
94908KDBQ DBQ20101109192509411/09/10 19:25:31  5-MIN KDBQ 100125Z 14010KT 10SM CLR 14/07 A2990 1100 61 1300 140/10 RMK AO2
94908KDBQ DBQ20101109193009411/09/10 19:30:31  5-MIN KDBQ 100130Z 14010KT 10SM CLR 14/07 A2990 1100 64 1300 140/10 RMK AO2
94908KDBQ DBQ20101109193509411/09/10 19:35:31  5-MIN KDBQ 100135Z 14010KT 10SM CLR 14/07 A2990 1100 61 1300 140/10 RMK AO2
94908KDBQ DBQ20101109194009411/09/10 19:40:31  5-MIN KDBQ 100140Z 14010KT 10SM CLR 14/07 A2990 1100 64 1300 140/10 RMK AO2
94908KDBQ DBQ20101109194509411/09/10 19:45:31  5-MIN KDBQ 100145Z 14010KT 10SM CLR 14/07 A2989 1100 64 1300 140/10 RMK AO2
94908KDBQ DBQ20101109195011111/09/10 19:50:31  5-MIN KDBQ 100150Z 14009KT 10SM CLR 14/07 A2989 1100 64 1300 140/09 RMK AO2 SLP126 T01390072
94908KDBQ DBQ20101109195509411/09/10 19:55:31  5-MIN KDBQ 100155Z 14010KT 10SM CLR 14/07 A2989 1100 64 1300 140/10 RMK AO2
94908KDBQ DBQ20101109200009911/09/10 20:00:31  5-MIN KDBQ 100200Z AUTO 14010KT 10SM CLR 14/07 A2989 1100 61 1300 140/10 RMK AO2
94908KDBQ DBQ20101109200509911/09/10 20:05:31  5-MIN KDBQ 100205Z AUTO 14009KT 10SM CLR 14/07 A2989 1100 64 1300 140/09 RMK AO2
94908KDBQ DBQ20101109201009911/09/10 20:10:31  5-MIN KDBQ 100210Z AUTO 14009KT 10SM CLR 14/07 A2990 1100 64 1300 140/09 RMK AO2
94908KDBQ DBQ20101109201509911/09/10 20:15:31  5-MIN KDBQ 100215Z AUTO 14011KT 10SM CLR 14/07 A2990 1100 64 1300 140/11 RMK AO2
94908KDBQ DBQ20101109202009911/09/10 20:20:31  5-MIN KDBQ 100220Z AUTO 14010KT 10SM CLR 14/07 A2990 1100 64 1300 140/10 RMK AO2
94908KDBQ DBQ20101109202509911/09/10 20:25:31  5-MIN KDBQ 100225Z AUTO 14010KT 10SM CLR 14/07 A2990 1100 64 1300 140/10 RMK AO2
94908KDBQ DBQ20101109203009911/09/10 20:30:31  5-MIN KDBQ 100230Z AUTO 14009KT 10SM CLR 14/07 A2990 1100 64 1300 140/09 RMK AO2
94908KDBQ DBQ20101109203509911/09/10 20:35:31  5-MIN KDBQ 100235Z AUTO 15009KT 10SM CLR 13/07 A2990 1100 66 1200 150/09 RMK AO2
94908KDBQ DBQ20101109204009911/09/10 20:40:31  5-MIN KDBQ 100240Z AUTO 15010KT 10SM CLR 13/07 A2990 1100 66 1200 140/10 RMK AO2
94908KDBQ DBQ20101109204509911/09/10 20:45:31  5-MIN KDBQ 100245Z AUTO 15009KT 10SM CLR 13/07 A2990 1090 66 1200 150/09 RMK AO2
94908KDBQ DBQ20101109205012211/09/10 20:50:31  5-MIN KDBQ 100250Z AUTO 15009KT 10SM CLR 13/07 A2991 1090 66 1200 150/09 RMK AO2 SLP129 T01330072 53006
94908KDBQ DBQ20101109205509911/09/10 20:55:31  5-MIN KDBQ 100255Z AUTO 15009KT 10SM CLR 13/07 A2991 1090 66 1200 150/09 RMK AO2
94908KDBQ DBQ20101109210009911/09/10 21:00:31  5-MIN KDBQ 100300Z AUTO 15010KT 10SM CLR 13/07 A2991 1090 66 1200 150/10 RMK AO2
94908KDBQ DBQ20101109210509911/09/10 21:05:31  5-MIN KDBQ 100305Z AUTO 15010KT 10SM CLR 13/07 A2991 1090 66 1200 150/10 RMK AO2
94908KDBQ DBQ20101109211009911/09/10 21:10:31  5-MIN KDBQ 100310Z AUTO 15009KT 10SM CLR 13/07 A2991 1090 66 1200 150/09 RMK AO2
94908KDBQ DBQ20101109211509911/09/10 21:15:31  5-MIN KDBQ 100315Z AUTO 15010KT 10SM CLR 13/07 A2991 1090 66 1200 150/10 RMK AO2
94908KDBQ DBQ20101109212009911/09/10 21:20:31  5-MIN KDBQ 100320Z AUTO 15012KT 10SM CLR 14/07 A2991 1090 64 1200 140/12 RMK AO2
94908KDBQ DBQ20101109212509911/09/10 21:25:31  5-MIN KDBQ 100325Z AUTO 15011KT 10SM CLR 13/07 A2991 1090 66 1200 150/11 RMK AO2
94908KDBQ DBQ20101109213009911/09/10 21:30:31  5-MIN KDBQ 100330Z AUTO 15011KT 10SM CLR 13/07 A2991 1090 66 1200 150/11 RMK AO2
94908KDBQ DBQ20101109213509911/09/10 21:35:31  5-MIN KDBQ 100335Z AUTO 15010KT 10SM CLR 13/07 A2991 1080 66 1200 150/10 RMK AO2
94908KDBQ DBQ20101109214009911/09/10 21:40:31  5-MIN KDBQ 100340Z AUTO 15010KT 10SM CLR 13/07 A2991 1080 66 1200 150/10 RMK AO2
94908KDBQ DBQ20101109214509911/09/10 21:45:31  5-MIN KDBQ 100345Z AUTO 15011KT 10SM CLR 13/07 A2992 1080 66 1200 150/11 RMK AO2
94908KDBQ DBQ20101109215011611/09/10 21:50:31  5-MIN KDBQ 100350Z AUTO 15010KT 10SM CLR 13/07 A2992 1080 66 1200 150/10 RMK AO2 SLP132 T01330072
94908KDBQ DBQ20101109215509911/09/10 21:55:31  5-MIN KDBQ 100355Z AUTO 15011KT 10SM CLR 13/07 A2992 1080 69 1100 150/11 RMK AO2
94908KDBQ DBQ20101109220009911/09/10 22:00:31  5-MIN KDBQ 100400Z AUTO 15010KT 10SM CLR 13/07 A2992 1080 66 1100 150/10 RMK AO2
94908KDBQ DBQ20101109220509911/09/10 22:05:31  5-MIN KDBQ 100405Z AUTO 15009KT 10SM CLR 13/07 A2992 1080 66 1100 150/09 RMK AO2
94908KDBQ DBQ20101109221009911/09/10 22:10:31  5-MIN KDBQ 100410Z AUTO 14009KT 10SM CLR 12/07 A2992 1080 68 1000 140/09 RMK AO2
94908KDBQ DBQ20101109221509911/09/10 22:15:31  5-MIN KDBQ 100415Z AUTO 14010KT 10SM CLR 12/07 A2992 1080 68 1000 140/10 RMK AO2
94908KDBQ DBQ20101109222009911/09/10 22:20:31  5-MIN KDBQ 100420Z AUTO 14010KT 10SM CLR 12/07 A2992 1080 68 1000 140/10 RMK AO2
94908KDBQ DBQ20101109222509911/09/10 22:25:31  5-MIN KDBQ 100425Z AUTO 15011KT 10SM CLR 12/07 A2992 1080 68 1000 140/11 RMK AO2
94908KDBQ DBQ20101109223009911/09/10 22:30:31  5-MIN KDBQ 100430Z AUTO 15010KT 10SM CLR 13/07 A2992 1080 66 1100 150/10 RMK AO2
94908KDBQ DBQ20101109223509911/09/10 22:35:31  5-MIN KDBQ 100435Z AUTO 15011KT 10SM CLR 13/07 A2992 1080 66 1100 150/11 RMK AO2
94908KDBQ DBQ20101109224009911/09/10 22:40:31  5-MIN KDBQ 100440Z AUTO 15011KT 10SM CLR 13/07 A2992 1080 66 1100 150/11 RMK AO2
94908KDBQ DBQ20101109224509911/09/10 22:45:31  5-MIN KDBQ 100445Z AUTO 15010KT 10SM CLR 13/07 A2992 1080 66 1100 150/10 RMK AO2
94908KDBQ DBQ20101109225011611/09/10 22:50:31  5-MIN KDBQ 100450Z AUTO 15010KT 10SM CLR 13/07 A2992 1080 66 1100 150/10 RMK AO2 SLP133 T01280067
94908KDBQ DBQ20101109225509911/09/10 22:55:31  5-MIN KDBQ 100455Z AUTO 15010KT 10SM CLR 13/07 A2992 1070 66 1100 150/10 RMK AO2
94908KDBQ DBQ20101109230009911/09/10 23:00:31  5-MIN KDBQ 100500Z AUTO 15011KT 10SM CLR 13/07 A2993 1070 66 1100 150/11 RMK AO2
94908KDBQ DBQ20101109230509911/09/10 23:05:31  5-MIN KDBQ 100505Z AUTO 15010KT 10SM CLR 13/07 A2993 1070 66 1100 150/10 RMK AO2
94908KDBQ DBQ20101109231009911/09/10 23:10:31  5-MIN KDBQ 100510Z AUTO 15011KT 10SM CLR 13/07 A2993 1070 66 1100 150/11 RMK AO2
94908KDBQ DBQ20101109231509911/09/10 23:15:31  5-MIN KDBQ 100515Z AUTO 15011KT 10SM CLR 12/07 A2993 1070 68 1000 140/11 RMK AO2
94908KDBQ DBQ20101109232009911/09/10 23:20:31  5-MIN KDBQ 100520Z AUTO 15010KT 10SM CLR 12/07 A2993 1070 68 1000 150/10 RMK AO2
94908KDBQ DBQ20101109232509911/09/10 23:25:31  5-MIN KDBQ 100525Z AUTO 15010KT 10SM CLR 12/07 A2993 1070 68 1000 140/10 RMK AO2
94908KDBQ DBQ20101109233009911/09/10 23:30:31  5-MIN KDBQ 100530Z AUTO 14010KT 10SM CLR 12/07 A2993 1070 68 1000 140/10 RMK AO2
94908KDBQ DBQ20101109233509911/09/10 23:35:31  5-MIN KDBQ 100535Z AUTO 15010KT 10SM CLR 12/07 A2993 1070 68 1000 150/10 RMK AO2
94908KDBQ DBQ20101109234009911/09/10 23:40:31  5-MIN KDBQ 100540Z AUTO 15010KT 10SM CLR 12/07 A2993 1070 68 1000 150/10 RMK AO2
94908KDBQ DBQ20101109234509911/09/10 23:45:31  5-MIN KDBQ 100545Z AUTO 15010KT 10SM CLR 12/07 A2993 1070 68 1000 150/10 RMK AO2
94908KDBQ DBQ20101109235014411/09/10 23:50:31  5-MIN KDBQ 100550Z AUTO 15010KT 10SM CLR 12/07 A2993 1070 68 1000 150/10 RMK AO2 SLP136 T01220067 10144 20122 401940056 53006
94908KDBQ DBQ20101109235509911/09/10 23:55:31  5-MIN KDBQ 100555Z AUTO 15011KT 10SM CLR 12/07 A2993 1070 68 1000 150/11 RMK AO2
94908KDBQ DBQ20101110000009911/10/10 00:00:38  5-MIN KDBQ 100600Z AUTO 15011KT 10SM CLR 12/07 A2993 1070 68 1000 150/11 RMK AO2
94908KDBQ DBQ20101110000509911/10/10 00:05:31  5-MIN KDBQ 100605Z AUTO 15011KT 10SM CLR 12/07 A2993 1070 68 1000 150/11 RMK AO2
94908KDBQ DBQ20101110001009911/10/10 00:10:31  5-MIN KDBQ 100610Z AUTO 15011KT 10SM CLR 12/07 A2993 1070 68 1000 150/11 RMK AO2
94908KDBQ DBQ20101110001509911/10/10 00:15:31  5-MIN KDBQ 100615Z AUTO 15010KT 10SM CLR 12/07 A2994 1060 68 1000 150/10 RMK AO2
94908KDBQ DBQ20101110002009911/10/10 00:20:31  5-MIN KDBQ 100620Z AUTO 15010KT 10SM CLR 12/07 A2994 1060 71 1000 150/10 RMK AO2
94908KDBQ DBQ20101110002509911/10/10 00:25:31  5-MIN KDBQ 100625Z AUTO 15011KT 10SM CLR 12/07 A2994 1060 68 1000 150/11 RMK AO2
94908KDBQ DBQ20101110003009911/10/10 00:30:31  5-MIN KDBQ 100630Z AUTO 15011KT 10SM CLR 12/07 A2994 1060 68 1000 150/11 RMK AO2
94908KDBQ DBQ20101110003509911/10/10 00:35:31  5-MIN KDBQ 100635Z AUTO 15010KT 10SM CLR 12/07 A2994 1060 68 1000 150/10 RMK AO2
94908KDBQ DBQ20101110004009911/10/10 00:40:31  5-MIN KDBQ 100640Z AUTO 15011KT 10SM CLR 12/07 A2994 1060 68 1000 150/11 RMK AO2
94908KDBQ DBQ20101110004509911/10/10 00:45:31  5-MIN KDBQ 100645Z AUTO 15011KT 10SM CLR 12/07 A2994 1060 68 1000 150/11 RMK AO2
94908KDBQ DBQ20101110005011611/10/10 00:50:31  5-MIN KDBQ 100650Z AUTO 15010KT 10SM CLR 12/07 A2994 1060 68 1000 150/10 RMK AO2 SLP139 T01220067
94908KDBQ DBQ20101110005509811/10/10 00:55:31  5-MIN KDBQ 100655Z AUTO 15010KT 10SM CLR 12/07 A2994 1060 71 900 150/10 RMK AO2
94908KDBQ DBQ20101110010009811/10/10 01:00:31  5-MIN KDBQ 100700Z AUTO 15009KT 10SM CLR 12/06 A2995 1050 68 900 150/09 RMK AO2
94908KDBQ DBQ20101110010509811/10/10 01:05:31  5-MIN KDBQ 100705Z AUTO 16008KT 10SM CLR 12/06 A2995 1050 68 900 160/08 RMK AO2
94908KDBQ DBQ20101110011009811/10/10 01:10:31  5-MIN KDBQ 100710Z AUTO 15009KT 10SM CLR 12/06 A2995 1050 68 900 150/09 RMK AO2
94908KDBQ DBQ20101110011509811/10/10 01:15:31  5-MIN KDBQ 100715Z AUTO 15008KT 10SM CLR 12/06 A2995 1050 68 900 150/08 RMK AO2
94908KDBQ DBQ20101110012009811/10/10 01:20:31  5-MIN KDBQ 100720Z AUTO 15009KT 10SM CLR 12/06 A2995 1050 68 900 150/09 RMK AO2
94908KDBQ DBQ20101110012509811/10/10 01:25:31  5-MIN KDBQ 100725Z AUTO 15009KT 10SM CLR 12/06 A2995 1050 68 900 150/09 RMK AO2
94908KDBQ DBQ20101110013009811/10/10 01:30:31  5-MIN KDBQ 100730Z AUTO 15010KT 10SM CLR 12/06 A2995 1050 68 900 150/10 RMK AO2
94908KDBQ DBQ20101110013509811/10/10 01:35:31  5-MIN KDBQ 100735Z AUTO 15009KT 10SM CLR 12/06 A2995 1050 68 900 150/09 RMK AO2
94908KDBQ DBQ20101110014009811/10/10 01:40:31  5-MIN KDBQ 100740Z AUTO 15009KT 10SM CLR 12/06 A2995 1050 68 900 150/09 RMK AO2
94908KDBQ DBQ20101110014509811/10/10 01:45:31  5-MIN KDBQ 100745Z AUTO 16009KT 10SM CLR 12/06 A2995 1050 68 900 150/09 RMK AO2
94908KDBQ DBQ20101110015011511/10/10 01:50:31  5-MIN KDBQ 100750Z AUTO 15009KT 10SM CLR 11/06 A2995 1050 71 900 150/09 RMK AO2 SLP141 T01110061
94908KDBQ DBQ20101110015509811/10/10 01:55:31  5-MIN KDBQ 100755Z AUTO 14010KT 10SM CLR 11/06 A2995 1050 71 900 140/10 RMK AO2
94908KDBQ DBQ20101110020009811/10/10 02:00:31  5-MIN KDBQ 100800Z AUTO 14010KT 10SM CLR 11/06 A2995 1050 71 900 140/10 RMK AO2
94908KDBQ DBQ20101110020509811/10/10 02:05:31  5-MIN KDBQ 100805Z AUTO 14010KT 10SM CLR 11/06 A2995 1050 71 900 140/10 RMK AO2
94908KDBQ DBQ20101110021009811/10/10 02:10:31  5-MIN KDBQ 100810Z AUTO 15010KT 10SM CLR 11/06 A2995 1050 71 900 150/10 RMK AO2
94908KDBQ DBQ20101110021509811/10/10 02:15:31  5-MIN KDBQ 100815Z AUTO 14010KT 10SM CLR 11/06 A2995 1050 71 900 140/10 RMK AO2
94908KDBQ DBQ20101110022009811/10/10 02:20:31  5-MIN KDBQ 100820Z AUTO 15010KT 10SM CLR 11/06 A2996 1050 71 900 140/10 RMK AO2
94908KDBQ DBQ20101110022509811/10/10 02:25:31  5-MIN KDBQ 100825Z AUTO 15011KT 10SM CLR 11/06 A2996 1040 71 900 150/11 RMK AO2
94908KDBQ DBQ20101110023009811/10/10 02:30:31  5-MIN KDBQ 100830Z AUTO 15010KT 10SM CLR 11/06 A2996 1040 71 900 150/10 RMK AO2
94908KDBQ DBQ20101110023509811/10/10 02:35:31  5-MIN KDBQ 100835Z AUTO 15010KT 10SM CLR 11/06 A2996 1050 71 900 140/10 RMK AO2
94908KDBQ DBQ20101110024009811/10/10 02:40:31  5-MIN KDBQ 100840Z AUTO 15011KT 10SM CLR 11/06 A2996 1050 71 900 140/11 RMK AO2
94908KDBQ DBQ20101110024509811/10/10 02:45:31  5-MIN KDBQ 100845Z AUTO 14010KT 10SM CLR 11/06 A2995 1050 71 900 140/10 RMK AO2
94908KDBQ DBQ20101110025012111/10/10 02:50:31  5-MIN KDBQ 100850Z AUTO 14009KT 10SM CLR 11/06 A2995 1050 71 900 140/09 RMK AO2 SLP142 T01110061 51009
94908KDBQ DBQ20101110025509811/10/10 02:55:31  5-MIN KDBQ 100855Z AUTO 15010KT 10SM CLR 11/06 A2996 1050 74 800 140/10 RMK AO2
94908KDBQ DBQ20101110030009811/10/10 03:00:31  5-MIN KDBQ 100900Z AUTO 15009KT 10SM CLR 11/06 A2995 1050 74 800 150/09 RMK AO2
94908KDBQ DBQ20101110030509811/10/10 03:05:31  5-MIN KDBQ 100905Z AUTO 15009KT 10SM CLR 11/06 A2995 1050 74 800 150/09 RMK AO2
94908KDBQ DBQ20101110031009811/10/10 03:10:31  5-MIN KDBQ 100910Z AUTO 14009KT 10SM CLR 11/06 A2995 1050 74 800 140/09 RMK AO2
94908KDBQ DBQ20101110031509811/10/10 03:15:31  5-MIN KDBQ 100915Z AUTO 15010KT 10SM CLR 11/06 A2995 1050 74 800 150/10 RMK AO2
94908KDBQ DBQ20101110032009811/10/10 03:20:31  5-MIN KDBQ 100920Z AUTO 15009KT 10SM CLR 11/06 A2996 1050 71 800 150/09 RMK AO2
94908KDBQ DBQ20101110032509811/10/10 03:25:31  5-MIN KDBQ 100925Z AUTO 14009KT 10SM CLR 11/06 A2996 1050 71 800 140/09 RMK AO2
94908KDBQ DBQ20101110033009811/10/10 03:30:31  5-MIN KDBQ 100930Z AUTO 14009KT 10SM CLR 11/06 A2996 1040 71 800 140/09 RMK AO2
94908KDBQ DBQ20101110033509811/10/10 03:35:31  5-MIN KDBQ 100935Z AUTO 14008KT 10SM CLR 10/06 A2996 1040 74 700 140/08 RMK AO2
94908KDBQ DBQ20101110034009811/10/10 03:40:31  5-MIN KDBQ 100940Z AUTO 14008KT 10SM CLR 10/06 A2996 1040 74 700 140/08 RMK AO2
94908KDBQ DBQ20101110034509811/10/10 03:45:31  5-MIN KDBQ 100945Z AUTO 14010KT 10SM CLR 10/06 A2996 1040 74 700 140/10 RMK AO2
94908KDBQ DBQ20101110035011511/10/10 03:50:31  5-MIN KDBQ 100950Z AUTO 14009KT 10SM CLR 10/06 A2996 1040 74 700 140/09 RMK AO2 SLP145 T01000056
94908KDBQ DBQ20101110035509811/10/10 03:55:31  5-MIN KDBQ 100955Z AUTO 15009KT 10SM CLR 10/06 A2996 1040 74 700 150/09 RMK AO2
94908KDBQ DBQ20101110040009811/10/10 04:00:31  5-MIN KDBQ 101000Z AUTO 14009KT 10SM CLR 10/06 A2996 1040 74 700 140/09 RMK AO2
94908KDBQ DBQ20101110040509811/10/10 04:05:31  5-MIN KDBQ 101005Z AUTO 14010KT 10SM CLR 10/06 A2996 1040 74 700 140/10 RMK AO2
94908KDBQ DBQ20101110041009811/10/10 04:10:31  5-MIN KDBQ 101010Z AUTO 14009KT 10SM CLR 10/06 A2996 1040 74 700 140/09 RMK AO2
94908KDBQ DBQ20101110041509811/10/10 04:15:31  5-MIN KDBQ 101015Z AUTO 14010KT 10SM CLR 10/06 A2996 1040 74 700 140/10 RMK AO2
94908KDBQ DBQ20101110042009811/10/10 04:20:31  5-MIN KDBQ 101020Z AUTO 14009KT 10SM CLR 10/06 A2996 1040 74 700 140/09 RMK AO2
94908KDBQ DBQ20101110042509811/10/10 04:25:31  5-MIN KDBQ 101025Z AUTO 14009KT 10SM CLR 10/06 A2996 1040 74 700 140/09 RMK AO2
94908KDBQ DBQ20101110043009811/10/10 04:30:31  5-MIN KDBQ 101030Z AUTO 14009KT 10SM CLR 09/06 A2996 1040 76 700 140/09 RMK AO2
94908KDBQ DBQ20101110043509811/10/10 04:35:31  5-MIN KDBQ 101035Z AUTO 14009KT 10SM CLR 09/06 A2996 1040 76 700 140/09 RMK AO2
94908KDBQ DBQ20101110044009811/10/10 04:40:31  5-MIN KDBQ 101040Z AUTO 14010KT 10SM CLR 09/06 A2996 1040 76 700 140/10 RMK AO2
94908KDBQ DBQ20101110044509811/10/10 04:45:31  5-MIN KDBQ 101045Z AUTO 14010KT 10SM CLR 09/06 A2996 1040 76 700 140/10 RMK AO2
94908KDBQ DBQ20101110045011511/10/10 04:50:31  5-MIN KDBQ 101050Z AUTO 14009KT 10SM CLR 09/06 A2996 1040 76 700 140/09 RMK AO2 SLP146 T00940056
94908KDBQ DBQ20101110045509811/10/10 04:55:31  5-MIN KDBQ 101055Z AUTO 14010KT 10SM CLR 09/06 A2996 1040 76 700 140/10 RMK AO2
94908KDBQ DBQ20101110050009811/10/10 05:00:31  5-MIN KDBQ 101100Z AUTO 14009KT 10SM CLR 09/06 A2996 1040 76 700 140/09 RMK AO2
94908KDBQ DBQ20101110050509811/10/10 05:05:31  5-MIN KDBQ 101105Z AUTO 14010KT 10SM CLR 09/06 A2996 1040 76 700 140/10 RMK AO2
94908KDBQ DBQ20101110051009811/10/10 05:10:31  5-MIN KDBQ 101110Z AUTO 14009KT 10SM CLR 09/06 A2996 1040 76 700 140/09 RMK AO2
94908KDBQ DBQ20101110051509811/10/10 05:15:31  5-MIN KDBQ 101115Z AUTO 15009KT 10SM CLR 09/06 A2996 1040 76 700 150/09 RMK AO2
94908KDBQ DBQ20101110052009811/10/10 05:20:31  5-MIN KDBQ 101120Z AUTO 15009KT 10SM CLR 09/06 A2996 1040 79 600 150/09 RMK AO2
94908KDBQ DBQ20101110052509811/10/10 05:25:31  5-MIN KDBQ 101125Z AUTO 15009KT 10SM CLR 09/06 A2996 1040 79 600 150/09 RMK AO2
94908KDBQ DBQ20101110053009811/10/10 05:30:31  5-MIN KDBQ 101130Z AUTO 15008KT 10SM CLR 09/06 A2996 1040 76 700 140/08 RMK AO2
94908KDBQ DBQ20101110053509811/10/10 05:35:31  5-MIN KDBQ 101135Z AUTO 15008KT 10SM CLR 09/06 A2997 1040 79 600 140/08 RMK AO2
94908KDBQ DBQ20101110054009311/10/10 05:40:31  5-MIN KDBQ 101140Z 15007KT 10SM CLR 09/06 A2997 1040 79 600 150/07 RMK AO2
94908KDBQ DBQ20101110054509311/10/10 05:45:31  5-MIN KDBQ 101145Z 15006KT 10SM CLR 09/06 A2997 1040 79 600 150/06 RMK AO2
94908KDBQ DBQ20101110055012811/10/10 05:50:31  5-MIN KDBQ 101150Z 15007KT 10SM CLR 09/06 A2996 1040 79 600 150/07 RMK AO2 SLP148 T00890056 10122 20089 51007
94908KDBQ DBQ20101110055509311/10/10 05:55:31  5-MIN KDBQ 101155Z 15007KT 10SM CLR 09/06 A2996 1040 79 600 150/07 RMK AO2
94908KDBQ DBQ20101110060009311/10/10 06:00:31  5-MIN KDBQ 101200Z 15007KT 10SM CLR 09/06 A2996 1040 79 600 150/07 RMK AO2
94908KDBQ DBQ20101110060509311/10/10 06:05:31  5-MIN KDBQ 101205Z 14009KT 10SM CLR 09/06 A2996 1040 79 600 140/09 RMK AO2
94908KDBQ DBQ20101110061009311/10/10 06:10:31  5-MIN KDBQ 101210Z 14010KT 10SM CLR 09/05 A2996 1040 76 600 140/10 RMK AO2
94908KDBQ DBQ20101110061509211/10/10 06:15:31  5-MIN KDBQ 101215Z 14009KT 9SM CLR 09/05 A2996 1040 76 600 140/09 RMK AO2
94908KDBQ DBQ20101110062009211/10/10 06:20:31  5-MIN KDBQ 101220Z 14008KT 9SM CLR 09/05 A2996 1040 76 600 140/08 RMK AO2
94908KDBQ DBQ20101110062509211/10/10 06:25:31  5-MIN KDBQ 101225Z 15008KT 9SM CLR 09/05 A2996 1040 76 600 140/08 RMK AO2
94908KDBQ DBQ20101110063009211/10/10 06:30:31  5-MIN KDBQ 101230Z 15008KT 9SM CLR 09/05 A2996 1040 76 600 150/08 RMK AO2
94908KDBQ DBQ20101110063509211/10/10 06:35:31  5-MIN KDBQ 101235Z 15007KT 9SM CLR 09/05 A2996 1040 76 600 150/07 RMK AO2
94908KDBQ DBQ20101110064009211/10/10 06:40:31  5-MIN KDBQ 101240Z 15009KT 8SM CLR 09/05 A2996 1040 76 600 150/09 RMK AO2
94908KDBQ DBQ20101110064509211/10/10 06:45:31  5-MIN KDBQ 101245Z 15008KT 8SM CLR 09/06 A2997 1040 79 600 140/08 RMK AO2
94908KDBQ DBQ20101110065010911/10/10 06:50:31  5-MIN KDBQ 101250Z 15008KT 8SM CLR 09/05 A2997 1040 76 600 140/08 RMK AO2 SLP149 T00890050
94908KDBQ DBQ20101110065509211/10/10 06:55:31  5-MIN KDBQ 101255Z 15008KT 8SM CLR 09/05 A2997 1030 76 600 150/08 RMK AO2
94908KDBQ DBQ20101110070009211/10/10 07:00:31  5-MIN KDBQ 101300Z 15010KT 8SM CLR 09/06 A2997 1030 79 600 140/10 RMK AO2
94908KDBQ DBQ20101110070509211/10/10 07:05:31  5-MIN KDBQ 101305Z 15009KT 8SM CLR 09/06 A2997 1030 79 600 150/09 RMK AO2
94908KDBQ DBQ20101110071009211/10/10 07:10:31  5-MIN KDBQ 101310Z 15009KT 8SM CLR 09/06 A2997 1030 76 700 150/09 RMK AO2
94908KDBQ DBQ20101110071509211/10/10 07:15:31  5-MIN KDBQ 101315Z 15009KT 8SM CLR 09/06 A2997 1030 76 700 150/09 RMK AO2
94908KDBQ DBQ20101110072009211/10/10 07:20:31  5-MIN KDBQ 101320Z 15008KT 8SM CLR 09/06 A2997 1030 76 600 150/08 RMK AO2
94908KDBQ DBQ20101110072509411/10/10 07:25:31  5-MIN KDBQ 101325Z 14008KT 8SM CLR 09/06 A2997 1030 76 700 140/08 RMK AO2 $
94908KDBQ DBQ20101110073009411/10/10 07:30:31  5-MIN KDBQ 101330Z 14008KT 8SM CLR 09/06 A2997 1030 76 700 140/08 RMK AO2 $
94908KDBQ DBQ20101110073509411/10/10 07:35:31  5-MIN KDBQ 101335Z 15009KT 8SM CLR 09/06 A2997 1030 76 600 150/09 RMK AO2 $
94908KDBQ DBQ20101110074009411/10/10 07:40:31  5-MIN KDBQ 101340Z 15009KT 8SM CLR 09/06 A2998 1030 76 600 150/09 RMK AO2 $
94908KDBQ DBQ20101110074509411/10/10 07:45:31  5-MIN KDBQ 101345Z 16008KT 8SM CLR 09/06 A2998 1020 76 600 160/08 RMK AO2 $
94908KDBQ DBQ20101110075011111/10/10 07:50:31  5-MIN KDBQ 101350Z 16008KT 8SM CLR 09/06 A2998 1020 76 600 160/08 RMK AO2 SLP154 T00940056 $
94908KDBQ DBQ20101110075509411/10/10 07:55:31  5-MIN KDBQ 101355Z 15007KT 8SM CLR 10/06 A2998 1030 74 700 150/07 RMK AO2 $
94908KDBQ DBQ20101110080010011/10/10 08:00:31  5-MIN KDBQ 101400Z 15009G14KT 8SM CLR 10/06 A2997 1030 74 700 150/09G14 RMK AO2 $
94908KDBQ DBQ20101110080509411/10/10 08:05:31  5-MIN KDBQ 101405Z 15009KT 8SM CLR 10/06 A2997 1030 74 700 150/09 RMK AO2 $
94908KDBQ DBQ20101110081009411/10/10 08:10:31  5-MIN KDBQ 101410Z 15009KT 8SM CLR 10/06 A2997 1030 74 700 150/09 RMK AO2 $
94908KDBQ DBQ20101110081510011/10/10 08:15:31  5-MIN KDBQ 101415Z 15011G15KT 8SM CLR 11/06 A2997 1030 71 800 140/11G15 RMK AO2 $
94908KDBQ DBQ20101110082009411/10/10 08:20:31  5-MIN KDBQ 101420Z 15012KT 8SM CLR 11/06 A2997 1030 71 800 150/12 RMK AO2 $
94908KDBQ DBQ20101110082509411/10/10 08:25:31  5-MIN KDBQ 101425Z 15010KT 9SM CLR 11/06 A2997 1030 71 800 150/10 RMK AO2 $
94908KDBQ DBQ20101110083009411/10/10 08:30:31  5-MIN KDBQ 101430Z 14011KT 9SM CLR 11/06 A2997 1030 71 800 140/11 RMK AO2 $
94908KDBQ DBQ20101110083509411/10/10 08:35:31  5-MIN KDBQ 101435Z 15010KT 8SM CLR 11/06 A2997 1030 74 800 150/10 RMK AO2 $
94908KDBQ DBQ20101110084009411/10/10 08:40:31  5-MIN KDBQ 101440Z 15010KT 8SM CLR 11/06 A2997 1030 74 800 150/10 RMK AO2 $
94908KDBQ DBQ20101110084509411/10/10 08:45:31  5-MIN KDBQ 101445Z 16011KT 8SM CLR 11/06 A2997 1030 74 800 160/11 RMK AO2 $
94908KDBQ DBQ20101110085011711/10/10 08:50:31  5-MIN KDBQ 101450Z 16010KT 8SM CLR 11/06 A2998 1030 71 800 160/10 RMK AO2 SLP153 T01110061 52003 $
94908KDBQ DBQ20101110085509411/10/10 08:55:31  5-MIN KDBQ 101455Z 16010KT 8SM CLR 11/06 A2998 1020 71 800 160/10 RMK AO2 $
94908KDBQ DBQ20101110090009411/10/10 09:00:31  5-MIN KDBQ 101500Z 17009KT 8SM CLR 11/06 A2998 1020 71 800 170/09 RMK AO2 $
94908KDBQ DBQ20101110090509411/10/10 09:05:31  5-MIN KDBQ 101505Z 17012KT 8SM CLR 11/06 A2998 1020 71 800 170/12 RMK AO2 $
94908KDBQ DBQ20101110091009411/10/10 09:10:31  5-MIN KDBQ 101510Z 17011KT 8SM CLR 11/06 A2998 1020 71 800 170/11 RMK AO2 $
94908KDBQ DBQ20101110091509411/10/10 09:15:31  5-MIN KDBQ 101515Z 17010KT 8SM CLR 11/06 A2998 1020 71 800 170/10 RMK AO2 $
94908KDBQ DBQ20101110092009411/10/10 09:20:31  5-MIN KDBQ 101520Z 17011KT 8SM CLR 11/06 A2998 1020 71 800 170/11 RMK AO2 $
94908KDBQ DBQ20101110092509411/10/10 09:25:31  5-MIN KDBQ 101525Z 17011KT 8SM CLR 12/06 A2998 1020 68 900 170/11 RMK AO2 $
94908KDBQ DBQ20101110093009411/10/10 09:30:31  5-MIN KDBQ 101530Z 17012KT 8SM CLR 12/06 A2999 1020 68 900 170/12 RMK AO2 $
94908KDBQ DBQ20101110093509411/10/10 09:35:31  5-MIN KDBQ 101535Z 17011KT 8SM CLR 12/06 A2999 1020 68 900 160/11 RMK AO2 $
94908KDBQ DBQ20101110094009411/10/10 09:40:31  5-MIN KDBQ 101540Z 17011KT 8SM CLR 12/06 A2999 1020 68 900 170/11 RMK AO2 $
94908KDBQ DBQ20101110094509411/10/10 09:45:31  5-MIN KDBQ 101545Z 17011KT 8SM CLR 12/06 A2999 1010 68 900 170/11 RMK AO2 $
94908KDBQ DBQ20101110095011111/10/10 09:50:31  5-MIN KDBQ 101550Z 18010KT 8SM CLR 12/06 A2999 1010 68 900 170/10 RMK AO2 SLP158 T01170061 $
94908KDBQ DBQ20101110095509411/10/10 09:55:31  5-MIN KDBQ 101555Z 17011KT 8SM CLR 12/06 A3000 1010 68 900 170/11 RMK AO2 $
94908KDBQ DBQ20101110100009511/10/10 10:00:31  5-MIN KDBQ 101600Z 17009KT 8SM CLR 12/06 A3000 1010 66 1000 170/09 RMK AO2 $
94908KDBQ DBQ20101110100509511/10/10 10:05:31  5-MIN KDBQ 101605Z 17010KT 8SM CLR 12/06 A3000 1010 66 1000 170/10 RMK AO2 $
94908KDBQ DBQ20101110101009411/10/10 10:10:31  5-MIN KDBQ 101610Z 17009KT 8SM CLR 12/06 A3000 1000 66 900 170/09 RMK AO2 $
94908KDBQ DBQ20101110101509411/10/10 10:15:31  5-MIN KDBQ 101615Z 17012KT 8SM CLR 12/06 A3000 1000 66 900 170/12 RMK AO2 $
94908KDBQ DBQ20101110102009411/10/10 10:20:31  5-MIN KDBQ 101620Z 17012KT 8SM CLR 12/06 A3000 1000 66 900 170/12 RMK AO2 $
94908KDBQ DBQ20101110102509411/10/10 10:25:31  5-MIN KDBQ 101625Z 17011KT 8SM CLR 12/06 A3000 1000 66 900 170/11 RMK AO2 $
94908KDBQ DBQ20101110103009411/10/10 10:30:31  5-MIN KDBQ 101630Z 17011KT 8SM CLR 12/06 A3001 1000 66 900 170/11 RMK AO2 $
94908KDBQ DBQ20101110103509411/10/10 10:35:31  5-MIN KDBQ 101635Z 17012KT 8SM CLR 12/06 A3001 1000 66 900 170/12 RMK AO2 $
94908KDBQ DBQ20101110104009411/10/10 10:40:31  5-MIN KDBQ 101640Z 16010KT 8SM CLR 12/06 A3001 1000 66 900 160/10 RMK AO2 $
94908KDBQ DBQ20101110104509311/10/10 10:45:31  5-MIN KDBQ 101645Z 16011KT 8SM CLR 12/06 A3001 990 66 900 160/11 RMK AO2 $
94908KDBQ DBQ20101110105011011/10/10 10:50:31  5-MIN KDBQ 101650Z 17011KT 8SM CLR 12/06 A3001 990 66 900 170/11 RMK AO2 SLP165 T01220061 $
94908KDBQ DBQ20101110105509411/10/10 10:55:31  5-MIN KDBQ 101655Z 17012KT 8SM CLR 13/07 A3001 990 66 1000 170/12 RMK AO2 $
94908KDBQ DBQ20101110110009411/10/10 11:00:31  5-MIN KDBQ 101700Z 16012KT 8SM CLR 13/07 A3001 990 66 1000 160/12 RMK AO2 $
94908KDBQ DBQ20101110110509511/10/10 11:05:31  5-MIN KDBQ 101705Z 16013KT 8SM CLR 13/07 A3001 1000 64 1100 160/13 RMK AO2 $
94908KDBQ DBQ20101110111009511/10/10 11:10:31  5-MIN KDBQ 101710Z 16012KT 8SM CLR 13/07 A3001 1000 64 1100 160/12 RMK AO2 $
94908KDBQ DBQ20101110111509511/10/10 11:15:31  5-MIN KDBQ 101715Z 16011KT 8SM CLR 13/07 A3000 1000 64 1100 160/11 RMK AO2 $
94908KDBQ DBQ20101110112009511/10/10 11:20:31  5-MIN KDBQ 101720Z 16011KT 8SM CLR 13/07 A3000 1000 64 1100 160/11 RMK AO2 $
94908KDBQ DBQ20101110112509511/10/10 11:25:31  5-MIN KDBQ 101725Z 15009KT 8SM CLR 14/07 A3000 1000 61 1100 150/09 RMK AO2 $
94908KDBQ DBQ20101110113009511/10/10 11:30:31  5-MIN KDBQ 101730Z 16010KT 8SM CLR 14/07 A2999 1010 61 1200 160/10 RMK AO2 $
94908KDBQ DBQ20101110113509511/10/10 11:35:31  5-MIN KDBQ 101735Z 15009KT 8SM CLR 14/07 A2999 1010 61 1200 150/09 RMK AO2 $
94908KDBQ DBQ20101110114009511/10/10 11:40:31  5-MIN KDBQ 101740Z 15009KT 8SM CLR 14/07 A2999 1010 61 1200 150/09 RMK AO2 $
94908KDBQ DBQ20101110114509511/10/10 11:45:31  5-MIN KDBQ 101745Z 15011KT 8SM CLR 15/07 A2999 1020 59 1300 150/11 RMK AO2 $
94908KDBQ DBQ20101110115013011/10/10 11:50:31  5-MIN KDBQ 101750Z 14010KT 8SM CLR 15/07 A2999 1020 59 1300 140/10 RMK AO2 SLP155 T01500072 10156 20089 50005 $
94908KDBQ DBQ20101110115509511/10/10 11:55:31  5-MIN KDBQ 101755Z 15010KT 8SM CLR 14/07 A2998 1020 59 1200 150/10 RMK AO2 $
94908KDBQ DBQ20101110120009511/10/10 12:00:31  5-MIN KDBQ 101800Z 14008KT 8SM CLR 15/07 A2998 1020 59 1300 140/08 RMK AO2 $
94908KDBQ DBQ20101110120509511/10/10 12:05:31  5-MIN KDBQ 101805Z 14010KT 8SM CLR 16/07 A2998 1030 57 1400 140/10 RMK AO2 $
94908KDBQ DBQ20101110121009311/10/10 12:10:31  5-MIN KDBQ 101810Z 13011KT 8SM CLR 16/07 A2997 1030 57 1400 130/11 RMK AO2
94908KDBQ DBQ20101110121509311/10/10 12:15:31  5-MIN KDBQ 101815Z 14009KT 8SM CLR 16/07 A2997 1040 57 1400 140/09 RMK AO2
94908KDBQ DBQ20101110122009311/10/10 12:20:31  5-MIN KDBQ 101820Z 13011KT 9SM CLR 16/07 A2996 1040 55 1400 120/11 RMK AO2
94908KDBQ DBQ20101110122509311/10/10 12:25:31  5-MIN KDBQ 101825Z 14011KT 9SM CLR 16/07 A2996 1040 55 1500 140/11 RMK AO2
94908KDBQ DBQ20101110123009311/10/10 12:30:31  5-MIN KDBQ 101830Z 13011KT 9SM CLR 16/07 A2996 1040 55 1500 130/11 RMK AO2
94908KDBQ DBQ20101110123509311/10/10 12:35:31  5-MIN KDBQ 101835Z 14010KT 9SM CLR 16/07 A2996 1040 57 1400 140/10 RMK AO2
94908KDBQ DBQ20101110124009311/10/10 12:40:31  5-MIN KDBQ 101840Z 13011KT 9SM CLR 16/07 A2996 1040 55 1500 130/11 RMK AO2
94908KDBQ DBQ20101110124509311/10/10 12:45:31  5-MIN KDBQ 101845Z 14009KT 9SM CLR 16/07 A2996 1040 55 1500 140/09 RMK AO2
94908KDBQ DBQ20101110125011611/10/10 12:50:31  5-MIN KDBQ 101850Z 15013G19KT 9SM CLR 17/07 A2996 1050 53 1500 150/13G19 RMK AO2 SLP144 T01670072
94908KDBQ DBQ20101110125509911/10/10 12:55:31  5-MIN KDBQ 101855Z 15011G19KT 9SM CLR 17/07 A2996 1050 53 1500 150/11G19 RMK AO2
94908KDBQ DBQ20101110130009311/10/10 13:00:31  5-MIN KDBQ 101900Z 14011KT 9SM CLR 17/08 A2995 1050 53 1600 130/11 RMK AO2
94908KDBQ DBQ20101110130510011/10/10 13:05:31  5-MIN KDBQ 101905Z 14012G19KT 10SM CLR 17/08 A2995 1050 53 1600 130/12G19 RMK AO2
94908KDBQ DBQ20101110131010011/10/10 13:10:31  5-MIN KDBQ 101910Z 14011G19KT 10SM CLR 18/08 A2995 1050 51 1700 140/11G19 RMK AO2
94908KDBQ DBQ20101110131509411/10/10 13:15:31  5-MIN KDBQ 101915Z 14012KT 10SM CLR 18/08 A2995 1060 51 1700 140/12 RMK AO2
94908KDBQ DBQ20101110132010011/10/10 13:20:31  5-MIN KDBQ 101920Z 14014G20KT 10SM CLR 18/08 A2994 1060 51 1700 140/14G20 RMK AO2
94908KDBQ DBQ20101110132509911/10/10 13:25:31  5-MIN KDBQ 101925Z 13016G21KT 9SM CLR 17/08 A2994 1060 53 1600 130/16G21 RMK AO2
94908KDBQ DBQ20101110133009911/10/10 13:30:31  5-MIN KDBQ 101930Z 14013G23KT 9SM CLR 17/08 A2994 1060 53 1600 140/13G23 RMK AO2
94908KDBQ DBQ20101110133509911/10/10 13:35:31  5-MIN KDBQ 101935Z 15015G23KT 9SM CLR 17/08 A2994 1060 53 1600 150/15G23 RMK AO2
94908KDBQ DBQ20101110134009311/10/10 13:40:31  5-MIN KDBQ 101940Z 15016KT 9SM CLR 17/08 A2995 1050 53 1600 150/16 RMK AO2
94908KDBQ DBQ20101110134509911/10/10 13:45:31  5-MIN KDBQ 101945Z 14011G20KT 9SM CLR 18/08 A2995 1050 51 1700 140/11G20 RMK AO2
94908KDBQ DBQ20101110135011611/10/10 13:50:31  5-MIN KDBQ 101950Z 15013G18KT 9SM CLR 18/08 A2995 1050 53 1700 150/13G18 RMK AO2 SLP142 T01780083
94908KDBQ DBQ20101110135509911/10/10 13:55:31  5-MIN KDBQ 101955Z 14011G20KT 9SM CLR 18/08 A2995 1050 51 1700 140/11G20 RMK AO2
94908KDBQ DBQ20101110140010011/10/10 14:00:31  5-MIN KDBQ 102000Z 15015G22KT 10SM CLR 18/08 A2995 1050 51 1700 150/15G22 RMK AO2
94908KDBQ DBQ20101110140510011/10/10 14:05:31  5-MIN KDBQ 102005Z 14012G22KT 10SM CLR 18/08 A2995 1050 53 1700 140/12G22 RMK AO2
94908KDBQ DBQ20101110141010011/10/10 14:10:31  5-MIN KDBQ 102010Z 15013G22KT 10SM CLR 18/08 A2995 1050 53 1700 150/13G22 RMK AO2
94908KDBQ DBQ20101110141510011/10/10 14:15:31  5-MIN KDBQ 102015Z 15014G20KT 10SM CLR 18/08 A2995 1050 53 1700 150/14G20 RMK AO2
94908KDBQ DBQ20101110142010011/10/10 14:20:31  5-MIN KDBQ 102020Z 15016G23KT 10SM CLR 18/08 A2995 1050 53 1700 150/16G23 RMK AO2
94908KDBQ DBQ20101110142510011/10/10 14:25:31  5-MIN KDBQ 102025Z 15017G23KT 10SM CLR 18/08 A2995 1050 53 1700 150/17G23 RMK AO2
94908KDBQ DBQ20101110143010011/10/10 14:30:31  5-MIN KDBQ 102030Z 15014G22KT 10SM CLR 18/08 A2995 1050 53 1700 150/14G22 RMK AO2
94908KDBQ DBQ20101110143510011/10/10 14:35:31  5-MIN KDBQ 102035Z 16018G24KT 10SM CLR 18/08 A2995 1050 53 1700 150/18G24 RMK AO2
94908KDBQ DBQ20101110144010011/10/10 14:40:31  5-MIN KDBQ 102040Z 15014G24KT 10SM CLR 18/08 A2995 1050 52 1700 140/14G24 RMK AO2
94908KDBQ DBQ20101110144510011/10/10 14:45:31  5-MIN KDBQ 102045Z 14016G23KT 10SM CLR 18/08 A2995 1050 53 1700 140/16G23 RMK AO2
94908KDBQ DBQ20101110145012311/10/10 14:50:31  5-MIN KDBQ 102050Z 15014G23KT 10SM CLR 18/08 A2995 1050 52 1700 150/14G23 RMK AO2 SLP143 T01830083 50003
94908KDBQ DBQ20101110145509411/10/10 14:55:31  5-MIN KDBQ 102055Z 15016KT 10SM CLR 18/08 A2995 1050 52 1700 150/16 RMK AO2
94908KDBQ DBQ20101110150009411/10/10 15:00:31  5-MIN KDBQ 102100Z 15015KT 10SM CLR 18/08 A2995 1050 52 1700 150/15 RMK AO2
94908KDBQ DBQ20101110150510011/10/10 15:05:31  5-MIN KDBQ 102105Z 16015G20KT 10SM CLR 18/09 A2995 1050 54 1700 150/15G20 RMK AO2
94908KDBQ DBQ20101110151010011/10/10 15:10:31  5-MIN KDBQ 102110Z 15015G21KT 10SM CLR 18/09 A2995 1050 54 1700 150/15G21 RMK AO2
94908KDBQ DBQ20101110151510011/10/10 15:15:31  5-MIN KDBQ 102115Z 15017G22KT 10SM CLR 18/09 A2995 1050 54 1700 150/17G22 RMK AO2
94908KDBQ DBQ20101110152010011/10/10 15:20:31  5-MIN KDBQ 102120Z 15017G23KT 10SM CLR 18/09 A2995 1050 54 1700 150/17G23 RMK AO2
94908KDBQ DBQ20101110152510011/10/10 15:25:31  5-MIN KDBQ 102125Z 15017G23KT 10SM CLR 18/09 A2995 1050 54 1700 150/17G23 RMK AO2
94908KDBQ DBQ20101110153010011/10/10 15:30:31  5-MIN KDBQ 102130Z 14017G23KT 10SM CLR 18/09 A2995 1050 54 1700 140/17G23 RMK AO2
94908KDBQ DBQ20101110153510011/10/10 15:35:31  5-MIN KDBQ 102135Z 15015G24KT 10SM CLR 18/09 A2995 1050 54 1700 150/15G24 RMK AO2
94908KDBQ DBQ20101110154010011/10/10 15:40:31  5-MIN KDBQ 102140Z 15014G24KT 10SM CLR 18/09 A2995 1050 54 1700 140/14G24 RMK AO2
94908KDBQ DBQ20101110154510311/10/10 15:45:31  5-MIN KDBQ 102145Z 14014G22KT 10SM FEW049 18/09 A2995 1050 54 1700 140/14G22 RMK AO2
94908KDBQ DBQ20101110155012011/10/10 15:50:31  5-MIN KDBQ 102150Z 15016G22KT 10SM FEW049 18/09 A2995 1050 55 1700 140/16G22 RMK AO2 SLP144 T01780089
94908KDBQ DBQ20101110155510311/10/10 15:55:31  5-MIN KDBQ 102155Z 14013G22KT 10SM FEW047 18/09 A2995 1050 55 1700 140/13G22 RMK AO2
94908KDBQ DBQ20101110160010311/10/10 16:00:31  5-MIN KDBQ 102200Z 14014G21KT 10SM FEW047 18/09 A2995 1050 55 1700 140/14G21 RMK AO2
94908KDBQ DBQ20101110160510311/10/10 16:05:31  5-MIN KDBQ 102205Z 15012G19KT 10SM FEW047 18/09 A2995 1050 55 1700 140/12G19 RMK AO2
94908KDBQ DBQ20101110161010311/10/10 16:10:31  5-MIN KDBQ 102210Z 14014G19KT 10SM FEW047 18/09 A2995 1050 55 1700 140/14G19 RMK AO2
94908KDBQ DBQ20101110161510011/10/10 16:15:31  5-MIN KDBQ 102215Z 14012G19KT 10SM CLR 17/09 A2995 1050 57 1600 140/12G19 RMK AO2
94908KDBQ DBQ20101110162010011/10/10 16:20:31  5-MIN KDBQ 102220Z 14011G19KT 10SM CLR 17/09 A2995 1050 57 1600 140/11G19 RMK AO2
94908KDBQ DBQ20101110162510011/10/10 16:25:31  5-MIN KDBQ 102225Z 15012G19KT 10SM CLR 17/09 A2995 1050 57 1600 140/12G19 RMK AO2
94908KDBQ DBQ20101110163010011/10/10 16:30:31  5-MIN KDBQ 102230Z 14012G19KT 10SM CLR 17/09 A2995 1050 57 1600 140/12G19 RMK AO2
94908KDBQ DBQ20101110163510011/10/10 16:35:31  5-MIN KDBQ 102235Z 14011G18KT 10SM CLR 17/09 A2995 1050 57 1600 140/11G18 RMK AO2
94908KDBQ DBQ20101110164010011/10/10 16:40:31  5-MIN KDBQ 102240Z 14012G17KT 10SM CLR 17/09 A2995 1050 60 1500 140/12G17 RMK AO2
94908KDBQ DBQ20101110164509411/10/10 16:45:31  5-MIN KDBQ 102245Z 14013KT 10SM CLR 17/09 A2996 1050 60 1500 140/13 RMK AO2
94908KDBQ DBQ20101110165011111/10/10 16:50:31  5-MIN KDBQ 102250Z 15011KT 10SM CLR 17/09 A2996 1040 60 1500 140/11 RMK AO2 SLP146 T01670089
94908KDBQ DBQ20101110165509411/10/10 16:55:31  5-MIN KDBQ 102255Z 15012KT 10SM CLR 17/09 A2996 1040 62 1500 150/12 RMK AO2
94908KDBQ DBQ20101110170009411/10/10 17:00:31  5-MIN KDBQ 102300Z 15012KT 10SM CLR 17/09 A2997 1040 62 1500 150/12 RMK AO2
94908KDBQ DBQ20101110170509411/10/10 17:05:31  5-MIN KDBQ 102305Z 15013KT 10SM CLR 17/09 A2997 1030 62 1500 150/13 RMK AO2
94908KDBQ DBQ20101110171010011/10/10 17:10:31  5-MIN KDBQ 102310Z 15012G18KT 10SM CLR 17/09 A2997 1040 62 1500 150/12G18 RMK AO2
94908KDBQ DBQ20101110171510011/10/10 17:15:31  5-MIN KDBQ 102315Z 16014G20KT 10SM CLR 16/09 A2997 1030 64 1400 160/14G20 RMK AO2
94908KDBQ DBQ20101110172010011/10/10 17:20:31  5-MIN KDBQ 102320Z 16013G20KT 10SM CLR 16/09 A2997 1040 64 1400 150/13G20 RMK AO2
94908KDBQ DBQ20101110172509411/10/10 17:25:31  5-MIN KDBQ 102325Z 15013KT 10SM CLR 16/09 A2997 1030 67 1400 150/13 RMK AO2
94908KDBQ DBQ20101110173009411/10/10 17:30:31  5-MIN KDBQ 102330Z 15013KT 10SM CLR 16/09 A2997 1040 64 1400 150/13 RMK AO2
94908KDBQ DBQ20101110173509411/10/10 17:35:31  5-MIN KDBQ 102335Z 15013KT 10SM CLR 16/09 A2997 1040 67 1400 150/13 RMK AO2
94908KDBQ DBQ20101110174009411/10/10 17:40:31  5-MIN KDBQ 102340Z 15015KT 10SM CLR 16/09 A2997 1030 64 1400 150/15 RMK AO2
94908KDBQ DBQ20101110174509411/10/10 17:45:31  5-MIN KDBQ 102345Z 16015KT 10SM CLR 16/09 A2997 1030 67 1400 150/15 RMK AO2
94908KDBQ DBQ20101110175012911/10/10 17:50:31  5-MIN KDBQ 102350Z 15014KT 10SM CLR 16/09 A2997 1030 67 1400 150/14 RMK AO2 SLP151 T01560094 10183 20144 55010
94908KDBQ DBQ20101110175509411/10/10 17:55:31  5-MIN KDBQ 102355Z 15014KT 10SM CLR 16/09 A2997 1030 67 1400 150/14 RMK AO2
94908KDBQ DBQ20101110180009411/10/10 18:00:31  5-MIN KDBQ 110000Z 15014KT 10SM CLR 16/09 A2997 1030 67 1400 150/14 RMK AO2
94908KDBQ DBQ20101110180509411/10/10 18:05:31  5-MIN KDBQ 110005Z 16014KT 10SM CLR 16/09 A2997 1030 67 1400 160/14 RMK AO2
94908KDBQ DBQ20101110181009411/10/10 18:10:31  5-MIN KDBQ 110010Z 16014KT 10SM CLR 16/09 A2998 1030 67 1400 160/14 RMK AO2
94908KDBQ DBQ20101110181509411/10/10 18:15:31  5-MIN KDBQ 110015Z 16013KT 10SM CLR 15/09 A2998 1020 69 1300 160/13 RMK AO2
94908KDBQ DBQ20101110182009411/10/10 18:20:31  5-MIN KDBQ 110020Z 16015KT 10SM CLR 15/09 A2998 1020 69 1300 150/15 RMK AO2
94908KDBQ DBQ20101110182509411/10/10 18:25:31  5-MIN KDBQ 110025Z 15014KT 10SM CLR 15/09 A2998 1030 69 1300 150/14 RMK AO2
94908KDBQ DBQ20101110183009411/10/10 18:30:31  5-MIN KDBQ 110030Z 15014KT 10SM CLR 15/09 A2998 1030 69 1300 150/14 RMK AO2
94908KDBQ DBQ20101110183509411/10/10 18:35:31  5-MIN KDBQ 110035Z 15015KT 10SM CLR 15/09 A2998 1020 69 1300 150/15 RMK AO2
94908KDBQ DBQ20101110184009411/10/10 18:40:31  5-MIN KDBQ 110040Z 16013KT 10SM CLR 15/09 A2998 1020 69 1300 150/13 RMK AO2
94908KDBQ DBQ20101110184509711/10/10 18:45:31  5-MIN KDBQ 110045Z 16014KT 10SM FEW060 15/09 A2998 1020 69 1300 150/14 RMK AO2
94908KDBQ DBQ20101110185011411/10/10 18:50:31  5-MIN KDBQ 110050Z 16013KT 10SM FEW060 15/09 A2998 1020 69 1300 150/13 RMK AO2 SLP155 T01500094
94908KDBQ DBQ20101110185509711/10/10 18:55:31  5-MIN KDBQ 110055Z 15014KT 10SM SCT060 15/09 A2998 1020 69 1300 150/14 RMK AO2
94908KDBQ DBQ20101110190009711/10/10 19:00:31  5-MIN KDBQ 110100Z 15014KT 10SM SCT060 15/09 A2998 1020 69 1300 150/14 RMK AO2
94908KDBQ DBQ20101110190509711/10/10 19:05:31  5-MIN KDBQ 110105Z 15015KT 10SM FEW055 15/09 A2999 1020 69 1300 150/15 RMK AO2
94908KDBQ DBQ20101110191009711/10/10 19:10:31  5-MIN KDBQ 110110Z 15014KT 10SM SCT055 15/09 A2998 1020 69 1300 150/14 RMK AO2
94908KDBQ DBQ20101110191509711/10/10 19:15:31  5-MIN KDBQ 110115Z 15015KT 10SM SCT055 15/09 A2998 1020 69 1300 150/15 RMK AO2
94908KDBQ DBQ20101110192010311/10/10 19:20:31  5-MIN KDBQ 110120Z 15014G21KT 10SM FEW055 15/09 A2998 1020 69 1300 150/14G21 RMK AO2
94908KDBQ DBQ20101110192510311/10/10 19:25:31  5-MIN KDBQ 110125Z 15015G21KT 10SM FEW050 15/09 A2998 1020 69 1300 150/15G21 RMK AO2
94908KDBQ DBQ20101110193009711/10/10 19:30:31  5-MIN KDBQ 110130Z 16014KT 10SM FEW050 15/09 A2999 1020 69 1300 160/14 RMK AO2
94908KDBQ DBQ20101110193509711/10/10 19:35:31  5-MIN KDBQ 110135Z 15014KT 10SM FEW050 15/09 A2999 1020 69 1300 150/14 RMK AO2
94908KDBQ DBQ20101110194009411/10/10 19:40:31  5-MIN KDBQ 110140Z 16014KT 10SM CLR 14/09 A2999 1020 72 1200 160/14 RMK AO2
94908KDBQ DBQ20101110194509411/10/10 19:45:31  5-MIN KDBQ 110145Z 16013KT 10SM CLR 14/09 A2999 1020 72 1200 160/13 RMK AO2
94908KDBQ DBQ20101110195011111/10/10 19:50:31  5-MIN KDBQ 110150Z 16014KT 10SM CLR 14/09 A2999 1020 72 1200 160/14 RMK AO2 SLP157 T01440094
94908KDBQ DBQ20101110195509411/10/10 19:55:31  5-MIN KDBQ 110155Z 16013KT 10SM CLR 14/09 A2999 1010 72 1200 160/13 RMK AO2
94908KDBQ DBQ20101110200010311/10/10 20:00:31  5-MIN KDBQ 110200Z 17012G19KT 10SM FEW100 14/09 A2999 1010 72 1200 170/12G19 RMK AO2
94908KDBQ DBQ20101110200510311/10/10 20:05:31  5-MIN KDBQ 110205Z 17011G19KT 10SM SCT100 14/09 A3000 1010 72 1200 170/11G19 RMK AO2
94908KDBQ DBQ20101110201009711/10/10 20:10:31  5-MIN KDBQ 110210Z 17012KT 10SM BKN100 14/09 A3000 1010 72 1200 170/12 RMK AO2
94908KDBQ DBQ20101110201509711/10/10 20:15:31  5-MIN KDBQ 110215Z 16010KT 10SM BKN100 14/09 A3000 1010 72 1200 160/10 RMK AO2
94908KDBQ DBQ20101110202010311/10/10 20:20:31  5-MIN KDBQ 110220Z 16011G17KT 10SM BKN100 14/09 A3000 1000 72 1200 160/11G17 RMK AO2
94908KDBQ DBQ20101110202510311/10/10 20:25:31  5-MIN KDBQ 110225Z 16012G17KT 10SM BKN110 14/09 A3000 1000 72 1200 160/12G17 RMK AO2
94908KDBQ DBQ20101110203010411/10/10 20:30:31  5-MIN KDBQ 110230Z 16012KT 10SM FEW055 OVC110 14/09 A3000 1000 72 1200 160/12 RMK AO2
94908KDBQ DBQ20101110203511111/10/10 20:35:31  5-MIN KDBQ 110235Z 16012KT 10SM SCT060 SCT070 OVC110 15/09 A3001 1000 69 1300 160/12 RMK AO2
94908KDBQ DBQ20101110204011111/10/10 20:40:31  5-MIN KDBQ 110240Z 16012KT 10SM BKN055 BKN075 OVC110 15/10 A3001 1000 72 1300 160/12 RMK AO2
94908KDBQ DBQ20101110204510311/10/10 20:45:31  5-MIN KDBQ 110245Z 17013KT 10SM BKN055 OVC110 15/10 A3001 990 72 1300 170/13 RMK AO2
94908KDBQ DBQ20101110205015411/10/10 20:50:31  5-MIN KDBQ 110250Z 19011KT 8SM -RA BKN055 BKN070 OVC110 15/10 A3002 990 72 1300 180/11 RMK AO2 RAB48 SLP167 P0000 60000 T01500100 53005
94908KDBQ DBQ20101110205511211/10/10 20:55:31  5-MIN KDBQ 110255Z 19009KT 7SM -RA BKN055 OVC070 14/11 A3002 980 77 1200 190/09 RMK AO2 P0000
94908KDBQ DBQ20101110210011211/10/10 21:00:31  5-MIN KDBQ 110300Z 18010KT 9SM -RA BKN050 OVC065 14/11 A3003 980 77 1200 180/10 RMK AO2 P0001
94908KDBQ DBQ20101110210511511/10/10 21:05:31  5-MIN KDBQ 110305Z 18010KT 10SM BKN050 OVC065 14/11 A3003 980 77 1200 180/10 RMK AO2 RAE04 P0001
94908KDBQ DBQ20101110211012211/10/10 21:10:31  5-MIN KDBQ 110310Z 18009KT 10SM BKN050 BKN065 BKN090 14/11 A3003 980 77 1200 180/09 RMK AO2 RAE04 P0001
94908KDBQ DBQ20101110211512211/10/10 21:15:31  5-MIN KDBQ 110315Z 18011KT 10SM SCT048 BKN065 BKN100 14/10 A3003 980 74 1200 180/11 RMK AO2 RAE04 P0001
94908KDBQ DBQ20101110212012211/10/10 21:20:31  5-MIN KDBQ 110320Z 18010KT 10SM BKN048 BKN065 BKN090 14/10 A3003 980 74 1200 170/10 RMK AO2 RAE04 P0001
94908KDBQ DBQ20101110212512211/10/10 21:25:31  5-MIN KDBQ 110325Z 17010KT 10SM BKN048 BKN060 BKN090 14/10 A3003 980 74 1200 170/10 RMK AO2 RAE04 P0001
94908KDBQ DBQ20101110213012211/10/10 21:30:31  5-MIN KDBQ 110330Z 17009KT 10SM BKN048 BKN070 BKN090 14/10 A3003 970 74 1200 170/09 RMK AO2 RAE04 P0001
94908KDBQ DBQ20101110213512211/10/10 21:35:31  5-MIN KDBQ 110335Z 17009KT 10SM FEW045 BKN055 BKN075 14/10 A3003 970 77 1100 170/09 RMK AO2 RAE04 P0001
94908KDBQ DBQ20101110214012211/10/10 21:40:31  5-MIN KDBQ 110340Z 17008KT 10SM FEW045 BKN055 BKN075 14/10 A3004 970 77 1100 170/08 RMK AO2 RAE04 P0001
94908KDBQ DBQ20101110214512211/10/10 21:45:31  5-MIN KDBQ 110345Z 17009KT 10SM FEW045 BKN055 BKN075 13/10 A3004 970 80 1000 170/09 RMK AO2 RAE04 P0001
94908KDBQ DBQ20101110215013211/10/10 21:50:31  5-MIN KDBQ 110350Z 17009KT 10SM FEW045 SCT055 13/09 A3003 970 77 1000 170/09 RMK AO2 RAE04 SLP173 P0001 T01330094
94908KDBQ DBQ20101110215509611/10/10 21:55:31  5-MIN KDBQ 110355Z 16009KT 10SM SCT055 13/09 A3003 970 77 1000 160/09 RMK AO2
94908KDBQ DBQ20101110220009611/10/10 22:00:31  5-MIN KDBQ 110400Z 16009KT 10SM FEW060 13/09 A3004 970 77 1000 160/09 RMK AO2
94908KDBQ DBQ20101110220509611/10/10 22:05:31  5-MIN KDBQ 110405Z 16010KT 10SM FEW055 13/09 A3004 970 77 1000 160/10 RMK AO2
94908KDBQ DBQ20101110221009311/10/10 22:10:31  5-MIN KDBQ 110410Z 16010KT 10SM CLR 13/09 A3004 970 77 1000 160/10 RMK AO2
94908KDBQ DBQ20101110221509311/10/10 22:15:31  5-MIN KDBQ 110415Z 16010KT 10SM CLR 13/09 A3003 970 77 1000 160/10 RMK AO2
94908KDBQ DBQ20101110222009311/10/10 22:20:31  5-MIN KDBQ 110420Z 16011KT 10SM CLR 13/09 A3003 970 77 1000 160/11 RMK AO2
94908KDBQ DBQ20101110222509311/10/10 22:25:31  5-MIN KDBQ 110425Z 16012KT 10SM CLR 13/09 A3003 970 77 1000 160/12 RMK AO2
94908KDBQ DBQ20101110223009311/10/10 22:30:31  5-MIN KDBQ 110430Z 16011KT 10SM CLR 13/09 A3004 970 77 1000 160/11 RMK AO2
94908KDBQ DBQ20101110223509311/10/10 22:35:31  5-MIN KDBQ 110435Z 16012KT 10SM CLR 13/09 A3004 970 77 1000 160/12 RMK AO2
94908KDBQ DBQ20101110224009311/10/10 22:40:31  5-MIN KDBQ 110440Z 16012KT 10SM CLR 13/09 A3004 970 77 1000 160/12 RMK AO2
94908KDBQ DBQ20101110224509311/10/10 22:45:31  5-MIN KDBQ 110445Z 16012KT 10SM CLR 13/09 A3004 970 77 1000 160/12 RMK AO2
94908KDBQ DBQ20101110225011011/10/10 22:50:31  5-MIN KDBQ 110450Z 16012KT 10SM CLR 13/09 A3004 970 77 1000 160/12 RMK AO2 SLP174 T01330094
94908KDBQ DBQ20101110225509311/10/10 22:55:31  5-MIN KDBQ 110455Z 16012KT 10SM CLR 13/09 A3004 970 80 1000 160/12 RMK AO2
94908KDBQ DBQ20101110230009611/10/10 23:00:31  5-MIN KDBQ 110500Z 16012KT 10SM FEW100 13/09 A3004 970 80 1000 160/12 RMK AO2
94908KDBQ DBQ20101110230509611/10/10 23:05:31  5-MIN KDBQ 110505Z 16012KT 10SM SCT100 13/09 A3004 970 80 1000 160/12 RMK AO2
94908KDBQ DBQ20101110231009611/10/10 23:10:31  5-MIN KDBQ 110510Z 16013KT 10SM SCT100 13/09 A3004 970 80 1000 160/13 RMK AO2
94908KDBQ DBQ20101110231509611/10/10 23:15:31  5-MIN KDBQ 110515Z 16012KT 10SM FEW100 13/09 A3004 960 77 1000 150/12 RMK AO2
94908KDBQ DBQ20101110232009611/10/10 23:20:31  5-MIN KDBQ 110520Z 16013KT 10SM SCT100 13/09 A3005 960 77 1000 160/13 RMK AO2
94908KDBQ DBQ20101110232509511/10/10 23:25:31  5-MIN KDBQ 110525Z 16012KT 9SM BKN100 13/09 A3005 960 77 1000 160/12 RMK AO2
94908KDBQ DBQ20101110233010211/10/10 23:30:31  5-MIN KDBQ 110530Z 16011KT 9SM FEW039 BKN100 13/09 A3005 960 77 1000 160/11 RMK AO2
94908KDBQ DBQ20101110233510911/10/10 23:35:31  5-MIN KDBQ 110535Z 17010KT 9SM FEW039 SCT048 BKN100 13/09 A3006 950 80 1000 170/10 RMK AO2
94908KDBQ DBQ20101110234010811/10/10 23:40:31  5-MIN KDBQ 110540Z 18009KT 9SM FEW039 SCT050 BKN100 13/09 A3006 950 80 900 180/09 RMK AO2
94908KDBQ DBQ20101110234510811/10/10 23:45:31  5-MIN KDBQ 110545Z 18012KT 9SM FEW039 SCT080 OVC100 13/09 A3007 940 80 900 180/12 RMK AO2
94908KDBQ DBQ20101110235015411/10/10 23:50:31  5-MIN KDBQ 110550Z 19010KT 10SM FEW039 OVC100 13/09 A3007 940 77 1000 190/10 RMK AO2 SLP184 60001 T01330094 10156 20128 401830089 53018
94908KDBQ DBQ20101110235511011/10/10 23:55:31  5-MIN KDBQ 110555Z 19011KT 10SM FEW041 SCT080 OVC100 13/09 A3007 940 77 1000 190/11 RMK AO2
94908KDBQ DBQ20101111000010311/11/10 00:00:38  5-MIN KDBQ 110600Z 19011KT 10SM FEW039 OVC100 13/09 A3007 940 77 1000 190/11 RMK AO2
94908KDBQ DBQ20101111000509511/11/10 00:05:31  5-MIN KDBQ 110605Z 19011KT 10SM BKN100 13/09 A3008 940 80 900 190/11 RMK AO2
94908KDBQ DBQ20101111001009511/11/10 00:10:31  5-MIN KDBQ 110610Z 19011KT 10SM BKN100 13/09 A3008 930 80 900 190/11 RMK AO2
94908KDBQ DBQ20101111001509511/11/10 00:15:31  5-MIN KDBQ 110615Z 20008KT 10SM SCT100 12/09 A3008 930 83 900 200/08 RMK AO2
94908KDBQ DBQ20101111002010111/11/10 00:20:31  5-MIN KDBQ 110620Z 22007KT 9SM FEW041 BKN100 12/09 A3009 920 86 800 220/07 RMK AO2
94908KDBQ DBQ20101111002510811/11/10 00:25:31  5-MIN KDBQ 110625Z 21008KT 9SM SCT041 SCT049 BKN100 12/09 A3009 920 83 800 210/08 RMK AO2
94908KDBQ DBQ20101111003010111/11/10 00:30:31  5-MIN KDBQ 110630Z 21008KT 9SM SCT041 SCT049 12/09 A3009 920 83 800 210/08 RMK AO2
94908KDBQ DBQ20101111003509411/11/10 00:35:31  5-MIN KDBQ 110635Z 23007KT 9SM SCT041 12/09 A3009 920 83 800 230/07 RMK AO2
94908KDBQ DBQ20101111004009411/11/10 00:40:31  5-MIN KDBQ 110640Z 22007KT 9SM FEW041 12/09 A3009 920 86 800 220/07 RMK AO2
94908KDBQ DBQ20101111004510111/11/10 00:45:31  5-MIN KDBQ 110645Z 23006KT 9SM SCT041 SCT095 12/09 A3010 910 86 800 230/06 RMK AO2
94908KDBQ DBQ20101111005012511/11/10 00:50:31  5-MIN KDBQ 110650Z 24007KT 8SM SCT043 SCT060 BKN095 12/09 A3010 910 86 800 240/07 RMK AO2 SLP193 T01170094
94908KDBQ DBQ20101111005510811/11/10 00:55:31  5-MIN KDBQ 110655Z 24006KT 8SM FEW043 SCT060 BKN090 12/09 A3010 910 86 800 240/06 RMK AO2
94908KDBQ DBQ20101111010010811/11/10 01:00:31  5-MIN KDBQ 110700Z 24006KT 7SM FEW043 SCT060 BKN095 12/09 A3010 910 86 800 240/06 RMK AO2
94908KDBQ DBQ20101111010510111/11/10 01:05:31  5-MIN KDBQ 110705Z 25007KT 7SM FEW043 BKN095 11/09 A3010 910 89 700 250/07 RMK AO2
94908KDBQ DBQ20101111011010111/11/10 01:10:31  5-MIN KDBQ 110710Z 26006KT 7SM FEW043 BKN095 12/09 A3011 910 86 800 260/06 RMK AO2
94908KDBQ DBQ20101111011510111/11/10 01:15:31  5-MIN KDBQ 110715Z 26007KT 7SM FEW060 BKN090 11/09 A3011 910 86 700 250/07 RMK AO2
94908KDBQ DBQ20101111012010111/11/10 01:20:31  5-MIN KDBQ 110720Z 25006KT 7SM FEW060 BKN090 11/09 A3011 900 89 600 250/06 RMK AO2
94908KDBQ DBQ20101111012509411/11/10 01:25:31  5-MIN KDBQ 110725Z 26008KT 7SM SCT090 11/09 A3011 900 89 600 260/08 RMK AO2
94908KDBQ DBQ20101111013009411/11/10 01:30:31  5-MIN KDBQ 110730Z 26008KT 8SM FEW090 11/09 A3011 900 86 700 260/08 RMK AO2
94908KDBQ DBQ20101111013509411/11/10 01:35:31  5-MIN KDBQ 110735Z 27008KT 8SM FEW085 11/08 A3012 900 86 600 270/08 RMK AO2
94908KDBQ DBQ20101111014009411/11/10 01:40:31  5-MIN KDBQ 110740Z 27008KT 8SM FEW085 11/08 A3012 900 86 600 270/08 RMK AO2
94908KDBQ DBQ20101111014509111/11/10 01:45:31  5-MIN KDBQ 110745Z 27010KT 8SM CLR 11/08 A3012 890 86 600 270/10 RMK AO2
94908KDBQ DBQ20101111015010811/11/10 01:50:31  5-MIN KDBQ 110750Z 27009KT 8SM CLR 10/08 A3013 890 89 500 270/09 RMK AO2 SLP203 T01000083
94908KDBQ DBQ20101111015509111/11/10 01:55:31  5-MIN KDBQ 110755Z 27010KT 8SM CLR 10/08 A3013 890 89 500 270/10 RMK AO2
94908KDBQ DBQ20101111020009111/11/10 02:00:31  5-MIN KDBQ 110800Z 27008KT 7SM CLR 10/08 A3013 890 89 500 270/08 RMK AO2
94908KDBQ DBQ20101111020509111/11/10 02:05:31  5-MIN KDBQ 110805Z 27008KT 7SM CLR 09/08 A3013 880 89 500 260/08 RMK AO2
94908KDBQ DBQ20101111021009411/11/10 02:10:31  5-MIN KDBQ 110810Z 25006KT 7SM FEW030 09/08 A3014 880 89 500 250/06 RMK AO2
94908KDBQ DBQ20101111021509411/11/10 02:15:31  5-MIN KDBQ 110815Z 26007KT 7SM FEW030 09/08 A3014 870 89 500 260/07 RMK AO2
94908KDBQ DBQ20101111022009111/11/10 02:20:31  5-MIN KDBQ 110820Z 27007KT 7SM CLR 09/08 A3014 870 93 400 270/07 RMK AO2
94908KDBQ DBQ20101111023509411/11/10 02:35:31  5-MIN KDBQ 110835Z 27008KT 7SM BKN008 09/08 A3015 860 93 400 270/08 RMK AO2
94908KDBQ DBQ20101111024009411/11/10 02:40:31  5-MIN KDBQ 110840Z 28008KT 7SM BKN008 09/08 A3015 860 93 400 270/08 RMK AO2
94908KDBQ DBQ20101111024509411/11/10 02:45:31  5-MIN KDBQ 110845Z 27011KT 7SM BKN008 09/07 A3016 860 89 400 270/11 RMK AO2
94908KDBQ DBQ20101111025011711/11/10 02:50:31  5-MIN KDBQ 110850Z 27007KT 7SM OVC008 09/07 A3016 860 89 400 270/07 RMK AO2 SLP214 T00890072 53016
94908KDBQ DBQ20101111025509411/11/10 02:55:31  5-MIN KDBQ 110855Z 28007KT 7SM OVC008 09/07 A3016 860 89 400 280/07 RMK AO2
94908KDBQ DBQ20101111030009411/11/10 03:00:31  5-MIN KDBQ 110900Z 29009KT 8SM OVC008 09/07 A3016 860 89 400 290/09 RMK AO2
94908KDBQ DBQ20101111030509411/11/10 03:05:31  5-MIN KDBQ 110905Z 29010KT 8SM OVC008 08/07 A3017 850 93 300 290/10 RMK AO2
94908KDBQ DBQ20101111031009411/11/10 03:10:31  5-MIN KDBQ 110910Z 27011KT 8SM OVC008 08/07 A3017 850 93 300 270/11 RMK AO2
94908KDBQ DBQ20101111031509411/11/10 03:15:31  5-MIN KDBQ 110915Z 30009KT 9SM OVC008 08/07 A3017 840 89 300 290/09 RMK AO2
94908KDBQ DBQ20101111032009411/11/10 03:20:31  5-MIN KDBQ 110920Z 29009KT 9SM OVC008 08/07 A3018 840 89 300 290/09 RMK AO2
94908KDBQ DBQ20101111032509411/11/10 03:25:31  5-MIN KDBQ 110925Z 29012KT 9SM OVC008 08/07 A3018 840 93 200 290/12 RMK AO2
94908KDBQ DBQ20101111033009411/11/10 03:30:31  5-MIN KDBQ 110930Z 29010KT 9SM OVC006 07/06 A3018 840 93 100 290/10 RMK AO2
94908KDBQ DBQ20101111033509511/11/10 03:35:31  5-MIN KDBQ 110935Z 28007KT 10SM OVC006 07/06 A3018 840 93 100 280/07 RMK AO2
94908KDBQ DBQ20101111034009511/11/10 03:40:31  5-MIN KDBQ 110940Z 29009KT 10SM OVC006 07/06 A3018 840 93 100 290/09 RMK AO2
94908KDBQ DBQ20101111034509511/11/10 03:45:31  5-MIN KDBQ 110945Z 29011KT 10SM OVC006 08/06 A3018 840 89 200 290/11 RMK AO2
94908KDBQ DBQ20101111035013111/11/10 03:50:31  5-MIN KDBQ 110950Z 30010KT 10SM BKN006 OVC012 07/06 A3019 830 93 100 300/10 RMK AO2 CIG 006V009 SLP224 T00720061
94908KDBQ DBQ20101111035511411/11/10 03:55:31  5-MIN KDBQ 110955Z 29011KT 10SM BKN006 BKN012 07/05 A3019 830 89 100 290/11 RMK AO2 CIG 006V009
94908KDBQ DBQ20101111040009511/11/10 04:00:31  5-MIN KDBQ 111000Z 30009KT 10SM SCT006 07/04 A3019 830 86 100 300/09 RMK AO2
94908KDBQ DBQ20101111040509311/11/10 04:05:31  5-MIN KDBQ 111005Z 29009KT 10SM SCT008 06/04 A3019 830 86 0 290/09 RMK AO2
94908KDBQ DBQ20101111041009311/11/10 04:10:31  5-MIN KDBQ 111010Z 28008KT 10SM FEW008 06/04 A3020 820 86 0 280/08 RMK AO2
94908KDBQ DBQ20101111041509311/11/10 04:15:31  5-MIN KDBQ 111015Z 29009KT 10SM FEW010 06/04 A3020 820 86 0 290/09 RMK AO2
94908KDBQ DBQ20101111042009011/11/10 04:20:31  5-MIN KDBQ 111020Z 29008KT 10SM CLR 06/04 A3020 820 86 0 290/08 RMK AO2
94908KDBQ DBQ20101111042509011/11/10 04:25:31  5-MIN KDBQ 111025Z 29009KT 10SM CLR 06/04 A3020 820 89 0 290/09 RMK AO2
94908KDBQ DBQ20101111043009011/11/10 04:30:31  5-MIN KDBQ 111030Z 29007KT 10SM CLR 06/04 A3020 820 89 0 290/07 RMK AO2
94908KDBQ DBQ20101111043509011/11/10 04:35:31  5-MIN KDBQ 111035Z 29009KT 10SM CLR 06/04 A3021 810 89 0 290/09 RMK AO2
94908KDBQ DBQ20101111044009011/11/10 04:40:31  5-MIN KDBQ 111040Z 29008KT 10SM CLR 06/04 A3021 810 89 0 290/08 RMK AO2
94908KDBQ DBQ20101111044509511/11/10 04:45:31  5-MIN KDBQ 111045Z 29007KT 10SM CLR 05/04 A3022 810 92 -100 290/07 RMK AO2 $
94908KDBQ DBQ20101111045011211/11/10 04:50:31  5-MIN KDBQ 111050Z 29008KT 10SM CLR 05/04 A3022 800 92 -100 290/08 RMK AO2 SLP236 T00500039 $
94908KDBQ DBQ20101111045509511/11/10 04:55:31  5-MIN KDBQ 111055Z 28007KT 10SM CLR 05/04 A3022 800 92 -100 280/07 RMK AO2 $
94908KDBQ DBQ20101111050009511/11/10 05:00:31  5-MIN KDBQ 111100Z 29008KT 10SM CLR 05/03 A3022 800 89 -100 290/08 RMK AO2 $
94908KDBQ DBQ20101111050509511/11/10 05:05:31  5-MIN KDBQ 111105Z 29008KT 10SM CLR 05/03 A3022 800 89 -100 290/08 RMK AO2 $
94908KDBQ DBQ20101111051009511/11/10 05:10:31  5-MIN KDBQ 111110Z 30007KT 10SM CLR 05/03 A3022 800 89 -100 290/07 RMK AO2 $
94908KDBQ DBQ20101111051509511/11/10 05:15:31  5-MIN KDBQ 111115Z 30005KT 10SM CLR 04/03 A3022 800 92 -200 300/05 RMK AO2 $
94908KDBQ DBQ20101111052009511/11/10 05:20:31  5-MIN KDBQ 111120Z 30005KT 10SM CLR 04/03 A3023 800 92 -200 300/05 RMK AO2 $
94908KDBQ DBQ20101111052509511/11/10 05:25:31  5-MIN KDBQ 111125Z 30006KT 10SM CLR 04/03 A3023 800 89 -200 300/06 RMK AO2 $
94908KDBQ DBQ20101111053009511/11/10 05:30:31  5-MIN KDBQ 111130Z 30007KT 10SM CLR 04/03 A3023 800 92 -300 300/07 RMK AO2 $
94908KDBQ DBQ20101111053509511/11/10 05:35:31  5-MIN KDBQ 111135Z 30005KT 10SM CLR 04/03 A3023 800 92 -300 300/05 RMK AO2 $
94908KDBQ DBQ20101111054009511/11/10 05:40:31  5-MIN KDBQ 111140Z 30005KT 10SM CLR 04/03 A3023 790 92 -300 300/05 RMK AO2 $
94908KDBQ DBQ20101111054509511/11/10 05:45:31  5-MIN KDBQ 111145Z 30005KT 10SM CLR 04/02 A3023 790 89 -300 300/05 RMK AO2 $
94908KDBQ DBQ20101111055013611/11/10 05:50:31  5-MIN KDBQ 111150Z 30005KT 10SM CLR 04/02 A3023 790 89 -300 300/05 RMK AO2 SLP243 70001 T00390022 10133 20039 53027 $
94908KDBQ DBQ20101111055509511/11/10 05:55:31  5-MIN KDBQ 111155Z 31006KT 10SM CLR 03/02 A3023 790 92 -300 310/06 RMK AO2 $
94908KDBQ DBQ20101111060009511/11/10 06:00:31  5-MIN KDBQ 111200Z 31005KT 10SM CLR 04/02 A3023 790 89 -300 300/05 RMK AO2 $
94908KDBQ DBQ20101111060509511/11/10 06:05:31  5-MIN KDBQ 111205Z 31006KT 10SM CLR 04/02 A3024 780 89 -300 310/06 RMK AO2 $
94908KDBQ DBQ20101111061009511/11/10 06:10:31  5-MIN KDBQ 111210Z 32006KT 10SM CLR 04/02 A3024 780 89 -300 320/06 RMK AO2 $
94908KDBQ DBQ20101111061509511/11/10 06:15:31  5-MIN KDBQ 111215Z 31005KT 10SM CLR 04/02 A3024 780 89 -300 310/05 RMK AO2 $
94908KDBQ DBQ20101111062009511/11/10 06:20:31  5-MIN KDBQ 111220Z 32005KT 10SM CLR 04/02 A3025 780 89 -300 310/05 RMK AO2 $
94908KDBQ DBQ20101111062509511/11/10 06:25:31  5-MIN KDBQ 111225Z 33006KT 10SM CLR 04/02 A3025 780 89 -300 330/06 RMK AO2 $
94908KDBQ DBQ20101111063009511/11/10 06:30:31  5-MIN KDBQ 111230Z 32006KT 10SM CLR 03/02 A3025 780 92 -400 320/06 RMK AO2 $
94908KDBQ DBQ20101111063509511/11/10 06:35:31  5-MIN KDBQ 111235Z 32006KT 10SM CLR 03/02 A3025 770 92 -400 320/06 RMK AO2 $
94908KDBQ DBQ20101111064009511/11/10 06:40:31  5-MIN KDBQ 111240Z 32007KT 10SM CLR 04/02 A3025 770 89 -300 320/07 RMK AO2 $
94908KDBQ DBQ20101111064509511/11/10 06:45:31  5-MIN KDBQ 111245Z 32007KT 10SM CLR 04/02 A3026 770 85 -300 320/07 RMK AO2 $
94908KDBQ DBQ20101111065011211/11/10 06:50:31  5-MIN KDBQ 111250Z 32006KT 10SM CLR 03/02 A3026 770 89 -400 320/06 RMK AO2 SLP250 T00330017 $
94908KDBQ DBQ20101111065509511/11/10 06:55:31  5-MIN KDBQ 111255Z 32006KT 10SM CLR 04/02 A3026 770 85 -300 320/06 RMK AO2 $
94908KDBQ DBQ20101111070009511/11/10 07:00:31  5-MIN KDBQ 111300Z 33006KT 10SM CLR 04/02 A3026 770 89 -300 330/06 RMK AO2 $
94908KDBQ DBQ20101111070509511/11/10 07:05:31  5-MIN KDBQ 111305Z 32007KT 10SM CLR 04/02 A3026 760 89 -300 320/07 RMK AO2 $
94908KDBQ DBQ20101111071009511/11/10 07:10:31  5-MIN KDBQ 111310Z 32005KT 10SM CLR 04/02 A3026 760 89 -300 320/05 RMK AO2 $
94908KDBQ DBQ20101111071509511/11/10 07:15:31  5-MIN KDBQ 111315Z 32006KT 10SM CLR 04/02 A3027 760 89 -300 320/06 RMK AO2 $
94908KDBQ DBQ20101111072009511/11/10 07:20:31  5-MIN KDBQ 111320Z 32005KT 10SM CLR 04/02 A3027 750 89 -300 320/05 RMK AO2 $
94908KDBQ DBQ20101111072509511/11/10 07:25:31  5-MIN KDBQ 111325Z 33003KT 10SM CLR 04/02 A3028 750 85 -300 330/03 RMK AO2 $
94908KDBQ DBQ20101111073009511/11/10 07:30:31  5-MIN KDBQ 111330Z 34004KT 10SM CLR 04/02 A3028 750 82 -300 340/04 RMK AO2 $
94908KDBQ DBQ20101111073509511/11/10 07:35:31  5-MIN KDBQ 111335Z 33005KT 10SM CLR 04/02 A3028 750 82 -300 330/05 RMK AO2 $
94908KDBQ DBQ20101111074009511/11/10 07:40:31  5-MIN KDBQ 111340Z 33006KT 10SM CLR 04/02 A3028 740 82 -300 330/06 RMK AO2 $
94908KDBQ DBQ20101111074509511/11/10 07:45:31  5-MIN KDBQ 111345Z 34004KT 10SM CLR 04/02 A3029 740 82 -300 340/04 RMK AO2 $
94908KDBQ DBQ20101111075011211/11/10 07:50:31  5-MIN KDBQ 111350Z 36003KT 10SM CLR 04/02 A3029 740 82 -300 360/03 RMK AO2 SLP263 T00440017 $
94908KDBQ DBQ20101111075509511/11/10 07:55:31  5-MIN KDBQ 111355Z 35004KT 10SM CLR 05/02 A3030 730 79 -200 350/04 RMK AO2 $
94908KDBQ DBQ20101111080009511/11/10 08:00:31  5-MIN KDBQ 111400Z 34004KT 10SM CLR 05/02 A3030 730 79 -200 340/04 RMK AO2 $
94908KDBQ DBQ20101111080509511/11/10 08:05:31  5-MIN KDBQ 111405Z 33003KT 10SM CLR 05/02 A3030 730 79 -200 330/03 RMK AO2 $
94908KDBQ DBQ20101111081009511/11/10 08:10:31  5-MIN KDBQ 111410Z 34004KT 10SM CLR 05/02 A3031 720 79 -200 340/04 RMK AO2 $
94908KDBQ DBQ20101111081509511/11/10 08:15:31  5-MIN KDBQ 111415Z 34005KT 10SM CLR 05/02 A3031 720 82 -200 340/05 RMK AO2 $
94908KDBQ DBQ20101111082009511/11/10 08:20:31  5-MIN KDBQ 111420Z 34006KT 10SM CLR 06/02 A3031 720 79 -200 340/06 RMK AO2 $
94908KDBQ DBQ20101111082509511/11/10 08:25:31  5-MIN KDBQ 111425Z 34007KT 10SM CLR 06/02 A3031 720 79 -200 340/07 RMK AO2 $
94908KDBQ DBQ20101111083009511/11/10 08:30:31  5-MIN KDBQ 111430Z 34006KT 10SM CLR 06/02 A3031 720 79 -200 340/06 RMK AO2 $
94908KDBQ DBQ20101111083509511/11/10 08:35:31  5-MIN KDBQ 111435Z 34007KT 10SM CLR 06/02 A3031 720 79 -200 340/07 RMK AO2 $
94908KDBQ DBQ20101111084009511/11/10 08:40:31  5-MIN KDBQ 111440Z 34007KT 10SM CLR 06/02 A3031 720 79 -200 340/07 RMK AO2 $
94908KDBQ DBQ20101111084509511/11/10 08:45:31  5-MIN KDBQ 111445Z 34006KT 10SM CLR 06/02 A3031 720 76 -200 340/06 RMK AO2 $
94908KDBQ DBQ20101111085011811/11/10 08:50:31  5-MIN KDBQ 111450Z 35007KT 10SM CLR 06/02 A3031 720 76 -200 350/07 RMK AO2 SLP267 T00560017 51025 $
94908KDBQ DBQ20101111085509511/11/10 08:55:31  5-MIN KDBQ 111455Z 34007KT 10SM CLR 06/02 A3031 720 76 -200 340/07 RMK AO2 $
94908KDBQ DBQ20101111090009511/11/10 09:00:31  5-MIN KDBQ 111500Z 34006KT 10SM CLR 06/02 A3031 720 73 -100 340/06 RMK AO2 $
94908KDBQ DBQ20101111090509211/11/10 09:05:31  5-MIN KDBQ 111505Z 34006KT 10SM CLR 07/02 A3031 720 73 0 340/06 RMK AO2 $
94908KDBQ DBQ20101111091009511/11/10 09:10:31  5-MIN KDBQ 111510Z 34005KT 10SM CLR 06/02 A3032 710 76 -100 340/05 RMK AO2 $
94908KDBQ DBQ20101111091509511/11/10 09:15:31  5-MIN KDBQ 111515Z 34007KT 10SM CLR 06/02 A3032 710 73 -100 340/07 RMK AO2 $
94908KDBQ DBQ20101111092009211/11/10 09:20:31  5-MIN KDBQ 111520Z 34007KT 10SM CLR 07/02 A3032 710 70 0 340/07 RMK AO2 $
94908KDBQ DBQ20101111092509211/11/10 09:25:31  5-MIN KDBQ 111525Z 34005KT 10SM CLR 07/02 A3032 710 70 0 340/05 RMK AO2 $
94908KDBQ DBQ20101111093009211/11/10 09:30:31  5-MIN KDBQ 111530Z 34006KT 10SM CLR 07/02 A3032 710 70 0 340/06 RMK AO2 $
94908KDBQ DBQ20101111093509211/11/10 09:35:31  5-MIN KDBQ 111535Z 34006KT 10SM CLR 07/02 A3032 710 70 0 340/06 RMK AO2 $
94908KDBQ DBQ20101111094009211/11/10 09:40:31  5-MIN KDBQ 111540Z 35007KT 10SM CLR 07/02 A3032 710 70 0 350/07 RMK AO2 $
94908KDBQ DBQ20101111094509211/11/10 09:45:31  5-MIN KDBQ 111545Z 35007KT 10SM CLR 07/02 A3033 700 68 0 350/07 RMK AO2 $
94908KDBQ DBQ20101111095010911/11/10 09:50:31  5-MIN KDBQ 111550Z 35006KT 10SM CLR 07/01 A3033 700 65 0 350/06 RMK AO2 SLP275 T00720011 $
94908KDBQ DBQ20101111095509211/11/10 09:55:31  5-MIN KDBQ 111555Z 33007KT 10SM CLR 07/01 A3034 700 65 0 320/07 RMK AO2 $
94908KDBQ DBQ20101111100009211/11/10 10:00:31  5-MIN KDBQ 111600Z 34007KT 10SM CLR 07/02 A3033 700 68 0 340/07 RMK AO2 $
94908KDBQ DBQ20101111100509211/11/10 10:05:31  5-MIN KDBQ 111605Z 33008KT 10SM CLR 08/02 A3034 700 65 0 330/08 RMK AO2 $
94908KDBQ DBQ20101111101009211/11/10 10:10:31  5-MIN KDBQ 111610Z 33007KT 10SM CLR 07/02 A3033 700 68 0 330/07 RMK AO2 $
94908KDBQ DBQ20101111101509211/11/10 10:15:31  5-MIN KDBQ 111615Z 34008KT 10SM CLR 08/02 A3033 700 65 0 340/08 RMK AO2 $
94908KDBQ DBQ20101111102009211/11/10 10:20:31  5-MIN KDBQ 111620Z 33007KT 10SM CLR 08/01 A3033 700 62 0 330/07 RMK AO2 $
94908KDBQ DBQ20101111102509211/11/10 10:25:31  5-MIN KDBQ 111625Z 32006KT 10SM CLR 08/01 A3034 690 62 0 320/06 RMK AO2 $
94908KDBQ DBQ20101111103009211/11/10 10:30:31  5-MIN KDBQ 111630Z 34007KT 10SM CLR 08/02 A3034 690 65 0 330/07 RMK AO2 $
94908KDBQ DBQ20101111103509511/11/10 10:35:31  5-MIN KDBQ 111635Z 35007KT 10SM FEW120 08/02 A3034 690 65 0 340/07 RMK AO2 $
94908KDBQ DBQ20101111104009211/11/10 10:40:31  5-MIN KDBQ 111640Z 34008KT 10SM CLR 08/02 A3034 690 65 0 340/08 RMK AO2 $
94908KDBQ DBQ20101111104509211/11/10 10:45:31  5-MIN KDBQ 111645Z 34006KT 10SM CLR 08/02 A3034 690 65 0 340/06 RMK AO2 $
94908KDBQ DBQ20101111105011111/11/10 10:50:31  5-MIN KDBQ 111650Z 35007KT 10SM CLR 08/02 A3034 690 63 100 350/07 RMK AO2 SLP279 T00830017 $
94908KDBQ DBQ20101111105509411/11/10 10:55:31  5-MIN KDBQ 111655Z 34006KT 10SM CLR 08/01 A3035 690 60 100 340/06 RMK AO2 $
94908KDBQ DBQ20101111110009411/11/10 11:00:31  5-MIN KDBQ 111700Z 34005KT 10SM CLR 08/01 A3034 690 60 100 340/05 RMK AO2 $
94908KDBQ DBQ20101111110509511/11/10 11:05:31  5-MIN KDBQ 111705Z 34006KT 10SM FEW110 08/01 A3035 690 62 0 340/06 RMK AO2 $
94908KDBQ DBQ20101111111009711/11/10 11:10:31  5-MIN KDBQ 111710Z 36005KT 10SM FEW110 08/02 A3035 690 63 100 360/05 RMK AO2 $
94908KDBQ DBQ20101111111509411/11/10 11:15:31  5-MIN KDBQ 111715Z 35005KT 10SM CLR 08/02 A3035 680 63 100 340/05 RMK AO2 $
94908KDBQ DBQ20101111112009711/11/10 11:20:31  5-MIN KDBQ 111720Z 34005KT 10SM FEW110 08/02 A3035 690 63 100 340/05 RMK AO2 $
94908KDBQ DBQ20101111112509711/11/10 11:25:31  5-MIN KDBQ 111725Z 33005KT 10SM FEW100 08/02 A3034 690 63 100 320/05 RMK AO2 $
94908KDBQ DBQ20101111113009711/11/10 11:30:31  5-MIN KDBQ 111730Z 33005KT 10SM FEW100 08/01 A3034 690 60 100 330/05 RMK AO2 $
94908KDBQ DBQ20101111113509711/11/10 11:35:31  5-MIN KDBQ 111735Z 34005KT 10SM FEW095 08/01 A3034 690 60 100 340/05 RMK AO2 $
94908KDBQ DBQ20101111114009411/11/10 11:40:31  5-MIN KDBQ 111740Z 32006KT 10SM CLR 08/01 A3035 690 60 100 320/06 RMK AO2 $
94908KDBQ DBQ20101111114509711/11/10 11:45:31  5-MIN KDBQ 111745Z 32008KT 10SM FEW110 09/02 A3034 690 60 200 320/08 RMK AO2 $
94908KDBQ DBQ20101111115013211/11/10 11:50:31  5-MIN KDBQ 111750Z 33007KT 10SM FEW110 09/01 A3034 690 58 200 330/07 RMK AO2 SLP278 T00890011 10089 20033 51025 $
94908KDBQ DBQ20101111115509711/11/10 11:55:31  5-MIN KDBQ 111755Z 33005KT 10SM FEW120 08/01 A3034 690 60 100 330/05 RMK AO2 $
94908KDBQ DBQ20101111120009411/11/10 12:00:31  5-MIN KDBQ 111800Z 32005KT 10SM CLR 08/01 A3034 690 60 100 320/05 RMK AO2 $
94908KDBQ DBQ20101111120509411/11/10 12:05:31  5-MIN KDBQ 111805Z 34006KT 10SM CLR 08/02 A3034 690 63 100 340/06 RMK AO2 $
94908KDBQ DBQ20101111121009411/11/10 12:10:31  5-MIN KDBQ 111810Z 33005KT 10SM CLR 09/02 A3034 690 60 200 330/05 RMK AO2 $
94908KDBQ DBQ20101111121509711/11/10 12:15:31  5-MIN KDBQ 111815Z 01004KT 10SM FEW120 09/01 A3035 690 58 200 010/04 RMK AO2 $
94908KDBQ DBQ20101111122009711/11/10 12:20:31  5-MIN KDBQ 111820Z 35004KT 10SM FEW120 09/01 A3035 690 58 200 350/04 RMK AO2 $
94908KDBQ DBQ20101111122509711/11/10 12:25:31  5-MIN KDBQ 111825Z 35004KT 10SM FEW120 08/01 A3035 690 58 100 350/04 RMK AO2 $
94908KDBQ DBQ20101111123009711/11/10 12:30:31  5-MIN KDBQ 111830Z 01004KT 10SM FEW110 09/01 A3035 690 58 200 010/04 RMK AO2 $
94908KDBQ DBQ20101111123509711/11/10 12:35:31  5-MIN KDBQ 111835Z 02003KT 10SM FEW110 09/01 A3034 690 58 200 020/03 RMK AO2 $
94908KDBQ DBQ20101111124009711/11/10 12:40:31  5-MIN KDBQ 111840Z 01003KT 10SM FEW110 09/01 A3034 690 58 200 010/03 RMK AO2 $
94908KDBQ DBQ20101111124509711/11/10 12:45:31  5-MIN KDBQ 111845Z 00000KT 10SM FEW110 09/01 A3035 690 56 200 000/00 RMK AO2 $
94908KDBQ DBQ20101111125011411/11/10 12:50:31  5-MIN KDBQ 111850Z 00000KT 10SM FEW110 09/01 A3035 680 56 200 000/00 RMK AO2 SLP281 T00890006 $
94908KDBQ DBQ20101111125509711/11/10 12:55:31  5-MIN KDBQ 111855Z 00000KT 10SM FEW120 09/01 A3035 680 56 200 000/00 RMK AO2 $
94908KDBQ DBQ20101111130009711/11/10 13:00:31  5-MIN KDBQ 111900Z 00000KT 10SM FEW120 09/01 A3035 680 56 200 000/00 RMK AO2 $
94908KDBQ DBQ20101111130509711/11/10 13:05:31  5-MIN KDBQ 111905Z 00000KT 10SM FEW120 09/01 A3034 690 56 200 000/00 RMK AO2 $
94908KDBQ DBQ20101111131009411/11/10 13:10:31  5-MIN KDBQ 111910Z 00000KT 10SM CLR 09/01 A3034 690 58 200 000/00 RMK AO2 $
94908KDBQ DBQ20101111131509711/11/10 13:15:31  5-MIN KDBQ 111915Z 35003KT 10SM SCT110 09/01 A3035 690 58 200 350/03 RMK AO2 $
94908KDBQ DBQ20101111132009711/11/10 13:20:31  5-MIN KDBQ 111920Z 00000KT 10SM SCT110 09/01 A3035 690 56 200 000/00 RMK AO2 $
94908KDBQ DBQ20101111132509711/11/10 13:25:31  5-MIN KDBQ 111925Z 34003KT 10SM FEW110 09/02 A3035 680 58 200 340/03 RMK AO2 $
94908KDBQ DBQ20101111133009711/11/10 13:30:31  5-MIN KDBQ 111930Z 34003KT 10SM FEW110 09/02 A3034 690 58 200 340/03 RMK AO2 $
94908KDBQ DBQ20101111133509711/11/10 13:35:31  5-MIN KDBQ 111935Z 35003KT 10SM SCT120 09/02 A3034 690 58 200 350/03 RMK AO2 $
94908KDBQ DBQ20101111134009711/11/10 13:40:31  5-MIN KDBQ 111940Z 34003KT 10SM FEW120 10/02 A3034 700 56 300 340/03 RMK AO2 $
94908KDBQ DBQ20101111134509411/11/10 13:45:31  5-MIN KDBQ 111945Z 35004KT 10SM CLR 11/02 A3034 690 54 400 350/04 RMK AO2 $
94908KDBQ DBQ20101111135011111/11/10 13:50:31  5-MIN KDBQ 111950Z 35005KT 10SM CLR 11/02 A3034 690 54 400 350/05 RMK AO2 SLP278 T01060017 $
94908KDBQ DBQ20101111135509411/11/10 13:55:31  5-MIN KDBQ 111955Z 32007KT 10SM CLR 11/01 A3034 690 52 400 320/07 RMK AO2 $
94908KDBQ DBQ20101111140009711/11/10 14:00:31  5-MIN KDBQ 112000Z 33005KT 10SM FEW120 10/01 A3034 690 54 300 330/05 RMK AO2 $
94908KDBQ DBQ20101111140509711/11/10 14:05:31  5-MIN KDBQ 112005Z 33003KT 10SM FEW120 10/01 A3034 690 54 300 330/03 RMK AO2 $
94908KDBQ DBQ20101111141009711/11/10 14:10:31  5-MIN KDBQ 112010Z 00000KT 10SM FEW120 10/01 A3035 690 54 300 000/00 RMK AO2 $
94908KDBQ DBQ20101111141509711/11/10 14:15:31  5-MIN KDBQ 112015Z 32004KT 10SM SCT120 10/02 A3035 680 56 300 320/04 RMK AO2 $
94908KDBQ DBQ20101111142009711/11/10 14:20:31  5-MIN KDBQ 112020Z 31005KT 10SM BKN120 10/01 A3036 680 54 300 310/05 RMK AO2 $
94908KDBQ DBQ20101111142509711/11/10 14:25:31  5-MIN KDBQ 112025Z VRB04KT 10SM BKN120 10/01 A3036 680 54 300 VRB/04 RMK AO2 $
94908KDBQ DBQ20101111143009711/11/10 14:30:31  5-MIN KDBQ 112030Z 35004KT 10SM SCT120 10/01 A3035 680 54 300 350/04 RMK AO2 $
94908KDBQ DBQ20101111143509711/11/10 14:35:31  5-MIN KDBQ 112035Z 34005KT 10SM SCT120 11/01 A3035 680 52 400 340/05 RMK AO2 $
94908KDBQ DBQ20101111144009711/11/10 14:40:31  5-MIN KDBQ 112040Z 33005KT 10SM FEW120 10/01 A3036 670 54 300 330/05 RMK AO2 $
94908KDBQ DBQ20101111144509711/11/10 14:45:31  5-MIN KDBQ 112045Z 31005KT 10SM FEW120 11/02 A3037 670 54 300 310/05 RMK AO2 $
94908KDBQ DBQ20101111145011711/11/10 14:50:31  5-MIN KDBQ 112050Z 34005KT 10SM CLR 11/01 A3036 670 52 300 330/05 RMK AO2 SLP287 T01060011 50012 $
94908KDBQ DBQ20101111145509411/11/10 14:55:31  5-MIN KDBQ 112055Z 34005KT 10SM CLR 11/02 A3036 670 54 300 340/05 RMK AO2 $
94908KDBQ DBQ20101111150009411/11/10 15:00:31  5-MIN KDBQ 112100Z 34006KT 10SM CLR 11/02 A3037 670 54 300 340/06 RMK AO2 $
94908KDBQ DBQ20101111150509411/11/10 15:05:31  5-MIN KDBQ 112105Z 34006KT 10SM CLR 11/01 A3037 660 52 300 340/06 RMK AO2 $
94908KDBQ DBQ20101111151009411/11/10 15:10:31  5-MIN KDBQ 112110Z 34006KT 10SM CLR 10/01 A3037 660 54 300 340/06 RMK AO2 $
94908KDBQ DBQ20101111151509411/11/10 15:15:31  5-MIN KDBQ 112115Z 35006KT 10SM CLR 10/01 A3037 660 54 300 350/06 RMK AO2 $
94908KDBQ DBQ20101111152009411/11/10 15:20:31  5-MIN KDBQ 112120Z 35004KT 10SM CLR 10/01 A3037 660 54 300 350/04 RMK AO2 $
94908KDBQ DBQ20101111152509411/11/10 15:25:31  5-MIN KDBQ 112125Z 36004KT 10SM CLR 10/01 A3037 660 54 300 360/04 RMK AO2 $
94908KDBQ DBQ20101111153009411/11/10 15:30:31  5-MIN KDBQ 112130Z 36005KT 10SM CLR 10/01 A3037 660 54 300 360/05 RMK AO2 $
94908KDBQ DBQ20101111153509711/11/10 15:35:31  5-MIN KDBQ 112135Z 01004KT 10SM FEW100 10/01 A3037 660 54 300 010/04 RMK AO2 $
94908KDBQ DBQ20101111154009711/11/10 15:40:31  5-MIN KDBQ 112140Z 01005KT 10SM SCT100 10/01 A3037 660 54 300 010/05 RMK AO2 $
94908KDBQ DBQ20101111154509711/11/10 15:45:31  5-MIN KDBQ 112145Z 35004KT 10SM SCT100 10/01 A3038 660 54 300 350/04 RMK AO2 $
94908KDBQ DBQ20101111155011411/11/10 15:50:31  5-MIN KDBQ 112150Z 01004KT 10SM FEW100 10/02 A3037 660 56 300 360/04 RMK AO2 SLP291 T01000017 $
94908KDBQ DBQ20101111155509711/11/10 15:55:31  5-MIN KDBQ 112155Z 01004KT 10SM FEW100 09/02 A3037 660 58 200 010/04 RMK AO2 $
94908KDBQ DBQ20101111160009711/11/10 16:00:31  5-MIN KDBQ 112200Z 35004KT 10SM FEW100 09/02 A3038 660 58 200 350/04 RMK AO2 $
94908KDBQ DBQ20101111160509711/11/10 16:05:31  5-MIN KDBQ 112205Z 36004KT 10SM FEW100 09/02 A3038 660 60 200 350/04 RMK AO2 $
94908KDBQ DBQ20101111161009411/11/10 16:10:31  5-MIN KDBQ 112210Z 01004KT 10SM CLR 09/02 A3037 660 60 200 010/04 RMK AO2 $
94908KDBQ DBQ20101111161509411/11/10 16:15:31  5-MIN KDBQ 112215Z 36003KT 10SM CLR 09/02 A3038 660 60 200 360/03 RMK AO2 $
94908KDBQ DBQ20101111162009411/11/10 16:20:31  5-MIN KDBQ 112220Z 02003KT 10SM CLR 09/02 A3037 660 58 200 020/03 RMK AO2 $
94908KDBQ DBQ20101111162509411/11/10 16:25:31  5-MIN KDBQ 112225Z 05003KT 10SM CLR 09/02 A3037 670 60 200 050/03 RMK AO2 $
94908KDBQ DBQ20101111163009711/11/10 16:30:31  5-MIN KDBQ 112230Z 03003KT 10SM FEW110 09/02 A3037 660 58 200 030/03 RMK AO2 $
94908KDBQ DBQ20101111163509711/11/10 16:35:31  5-MIN KDBQ 112235Z 00000KT 10SM SCT110 09/02 A3038 660 60 100 000/00 RMK AO2 $
94908KDBQ DBQ20101111164009711/11/10 16:40:31  5-MIN KDBQ 112240Z 06003KT 10SM FEW110 09/02 A3037 660 60 100 050/03 RMK AO2 $
94908KDBQ DBQ20101111164509711/11/10 16:45:31  5-MIN KDBQ 112245Z 02004KT 10SM FEW110 09/02 A3038 660 60 100 020/04 RMK AO2 $
94908KDBQ DBQ20101111165011411/11/10 16:50:31  5-MIN KDBQ 112250Z 36005KT 10SM FEW110 09/02 A3038 660 60 100 360/05 RMK AO2 SLP293 T00890017 $
94908KDBQ DBQ20101111165509711/11/10 16:55:31  5-MIN KDBQ 112255Z 02005KT 10SM SCT110 09/02 A3037 660 60 100 020/05 RMK AO2 $
94908KDBQ DBQ20101111170009711/11/10 17:00:31  5-MIN KDBQ 112300Z 02004KT 10SM FEW110 09/02 A3038 660 63 100 020/04 RMK AO2 $
94908KDBQ DBQ20101111170509711/11/10 17:05:31  5-MIN KDBQ 112305Z 03004KT 10SM FEW120 09/02 A3037 660 60 100 030/04 RMK AO2 $
94908KDBQ DBQ20101111171009711/11/10 17:10:31  5-MIN KDBQ 112310Z 02003KT 10SM FEW110 08/02 A3038 660 65 100 020/03 RMK AO2 $
94908KDBQ DBQ20101111171509711/11/10 17:15:31  5-MIN KDBQ 112315Z 01003KT 10SM FEW110 08/02 A3038 660 65 100 010/03 RMK AO2 $
94908KDBQ DBQ20101111172009711/11/10 17:20:31  5-MIN KDBQ 112320Z 00000KT 10SM SCT110 09/02 A3038 660 60 100 000/00 RMK AO2 $
94908KDBQ DBQ20101111172509711/11/10 17:25:31  5-MIN KDBQ 112325Z 00000KT 10SM SCT110 09/02 A3038 650 60 100 000/00 RMK AO2 $
94908KDBQ DBQ20101111173009711/11/10 17:30:31  5-MIN KDBQ 112330Z 00000KT 10SM BKN110 08/02 A3038 650 65 100 000/00 RMK AO2 $
94908KDBQ DBQ20101111173509511/11/10 17:35:31  5-MIN KDBQ 112335Z 00000KT 10SM SCT110 08/02 A3039 650 65 0 000/00 RMK AO2 $
94908KDBQ DBQ20101111174009511/11/10 17:40:31  5-MIN KDBQ 112340Z 00000KT 10SM SCT110 08/03 A3039 650 70 0 000/00 RMK AO2 $
94908KDBQ DBQ20101111174509511/11/10 17:45:31  5-MIN KDBQ 112345Z 00000KT 10SM SCT110 07/03 A3039 650 73 0 000/00 RMK AO2 $
94908KDBQ DBQ20101111175013011/11/10 17:50:31  5-MIN KDBQ 112350Z 00000KT 10SM FEW110 08/02 A3039 650 68 0 000/00 RMK AO2 SLP298 T00780022 10111 20072 53007 $
94908KDBQ DBQ20101111175509511/11/10 17:55:31  5-MIN KDBQ 112355Z 00000KT 10SM FEW110 08/03 A3039 650 70 0 000/00 RMK AO2 $
94908KDBQ DBQ20101111180009211/11/10 18:00:31  5-MIN KDBQ 120000Z 00000KT 10SM CLR 08/03 A3039 650 70 0 000/00 RMK AO2 $
94908KDBQ DBQ20101111180509211/11/10 18:05:31  5-MIN KDBQ 120005Z 00000KT 10SM CLR 08/03 A3039 650 70 0 000/00 RMK AO2 $
94908KDBQ DBQ20101111181009211/11/10 18:10:31  5-MIN KDBQ 120010Z 00000KT 10SM CLR 08/03 A3039 650 70 0 000/00 RMK AO2 $
94908KDBQ DBQ20101111181509211/11/10 18:15:31  5-MIN KDBQ 120015Z 03003KT 10SM CLR 08/02 A3039 650 68 0 030/03 RMK AO2 $
94908KDBQ DBQ20101111182009211/11/10 18:20:31  5-MIN KDBQ 120020Z 02003KT 10SM CLR 08/02 A3039 650 63 0 020/03 RMK AO2 $
94908KDBQ DBQ20101111182509211/11/10 18:25:31  5-MIN KDBQ 120025Z 01003KT 10SM CLR 08/02 A3039 640 65 0 010/03 RMK AO2 $
94908KDBQ DBQ20101111183009411/11/10 18:30:31  5-MIN KDBQ 120030Z 01003KT 10SM CLR 09/02 A3039 650 60 100 010/03 RMK AO2 $
94908KDBQ DBQ20101111183509411/11/10 18:35:31  5-MIN KDBQ 120035Z 01004KT 10SM CLR 09/02 A3039 650 60 100 010/04 RMK AO2 $
94908KDBQ DBQ20101111184009211/11/10 18:40:31  5-MIN KDBQ 120040Z 36005KT 10SM CLR 08/02 A3039 640 65 0 360/05 RMK AO2 $
94908KDBQ DBQ20101111184509511/11/10 18:45:31  5-MIN KDBQ 120045Z 01005KT 10SM FEW120 08/02 A3039 640 65 0 010/05 RMK AO2 $
94908KDBQ DBQ20101111185011211/11/10 18:50:31  5-MIN KDBQ 120050Z 01004KT 10SM SCT120 08/02 A3039 640 65 0 010/04 RMK AO2 SLP300 T00830022 $
94908KDBQ DBQ20101111185509511/11/10 18:55:31  5-MIN KDBQ 120055Z 01004KT 10SM FEW120 08/03 A3040 640 68 0 010/04 RMK AO2 $
94908KDBQ DBQ20101111190009511/11/10 19:00:31  5-MIN KDBQ 120100Z 01004KT 10SM SCT120 08/02 A3040 640 65 0 010/04 RMK AO2 $
94908KDBQ DBQ20101111190509711/11/10 19:05:31  5-MIN KDBQ 120105Z 01004KT 10SM SCT120 09/02 A3040 630 63 100 360/04 RMK AO2 $
94908KDBQ DBQ20101111191009711/11/10 19:10:31  5-MIN KDBQ 120110Z 02005KT 10SM BKN110 09/02 A3040 640 63 100 020/05 RMK AO2 $
94908KDBQ DBQ20101111191509711/11/10 19:15:31  5-MIN KDBQ 120115Z 02005KT 10SM SCT110 09/02 A3040 640 63 100 020/05 RMK AO2 $
94908KDBQ DBQ20101111192009711/11/10 19:20:31  5-MIN KDBQ 120120Z 36005KT 10SM SCT110 09/02 A3041 630 63 100 360/05 RMK AO2 $
94908KDBQ DBQ20101111192509711/11/10 19:25:31  5-MIN KDBQ 120125Z 01005KT 10SM BKN110 09/02 A3041 630 63 100 010/05 RMK AO2 $
94908KDBQ DBQ20101111193009711/11/10 19:30:31  5-MIN KDBQ 120130Z 02004KT 10SM BKN110 09/02 A3041 630 63 100 020/04 RMK AO2 $
94908KDBQ DBQ20101111193509511/11/10 19:35:31  5-MIN KDBQ 120135Z 01005KT 10SM BKN110 08/02 A3041 630 65 0 010/05 RMK AO2 $
94908KDBQ DBQ20101111194009711/11/10 19:40:31  5-MIN KDBQ 120140Z 01006KT 10SM BKN110 09/02 A3040 640 63 100 010/06 RMK AO2 $
94908KDBQ DBQ20101111194509711/11/10 19:45:31  5-MIN KDBQ 120145Z 03004KT 10SM BKN110 09/02 A3040 640 63 100 030/04 RMK AO2 $
94908KDBQ DBQ20101111195011411/11/10 19:50:31  5-MIN KDBQ 120150Z 03004KT 10SM BKN110 09/02 A3041 630 63 100 030/04 RMK AO2 SLP304 T00890022 $
94908KDBQ DBQ20101111195509711/11/10 19:55:31  5-MIN KDBQ 120155Z 02005KT 10SM BKN110 09/02 A3040 630 63 100 020/05 RMK AO2 $
94908KDBQ DBQ20101111200009711/11/10 20:00:31  5-MIN KDBQ 120200Z 01005KT 10SM BKN110 09/02 A3041 630 63 100 010/05 RMK AO2 $
94908KDBQ DBQ20101111200510911/11/10 20:05:31  5-MIN KDBQ 120205Z AUTO 01005KT 10SM SCT095 BKN120 09/02 A3041 630 63 100 010/05 RMK AO2 $
94908KDBQ DBQ20101111201010911/11/10 20:10:31  5-MIN KDBQ 120210Z AUTO 01006KT 10SM BKN095 OVC110 09/02 A3041 630 60 100 010/06 RMK AO2 $
94908KDBQ DBQ20101111201510911/11/10 20:15:31  5-MIN KDBQ 120215Z AUTO 02006KT 10SM BKN095 BKN110 09/02 A3041 630 63 100 020/06 RMK AO2 $
94908KDBQ DBQ20101111202010911/11/10 20:20:31  5-MIN KDBQ 120220Z AUTO 02005KT 10SM SCT095 BKN120 09/02 A3041 630 60 100 020/05 RMK AO2 $
94908KDBQ DBQ20101111202510911/11/10 20:25:31  5-MIN KDBQ 120225Z AUTO 03005KT 10SM SCT095 BKN120 09/02 A3041 630 60 100 030/05 RMK AO2 $
94908KDBQ DBQ20101111203010911/11/10 20:30:31  5-MIN KDBQ 120230Z AUTO 03005KT 10SM SCT090 BKN120 09/02 A3041 630 60 100 030/05 RMK AO2 $
94908KDBQ DBQ20101111203510911/11/10 20:35:31  5-MIN KDBQ 120235Z AUTO 03006KT 10SM FEW100 BKN120 09/02 A3041 630 60 100 030/06 RMK AO2 $
94908KDBQ DBQ20101111204010911/11/10 20:40:31  5-MIN KDBQ 120240Z AUTO 05005KT 10SM FEW095 BKN120 09/02 A3041 630 60 100 040/05 RMK AO2 $
94908KDBQ DBQ20101111204510911/11/10 20:45:31  5-MIN KDBQ 120245Z AUTO 03005KT 10SM FEW095 OVC120 09/02 A3041 630 60 100 030/05 RMK AO2 $
94908KDBQ DBQ20101111205012511/11/10 20:50:31  5-MIN KDBQ 120250Z AUTO 03006KT 10SM OVC120 09/02 A3041 630 60 100 030/06 RMK AO2 SLP304 T00890017 53006 $
94908KDBQ DBQ20101111205510211/11/10 20:55:31  5-MIN KDBQ 120255Z AUTO 03006KT 10SM OVC110 09/02 A3040 630 60 100 030/06 RMK AO2 $
94908KDBQ DBQ20101111210010211/11/10 21:00:31  5-MIN KDBQ 120300Z AUTO 03006KT 10SM OVC110 09/02 A3040 640 60 100 030/06 RMK AO2 $
94908KDBQ DBQ20101111210510211/11/10 21:05:31  5-MIN KDBQ 120305Z AUTO 03006KT 10SM OVC110 09/02 A3040 630 60 100 030/06 RMK AO2 $
94908KDBQ DBQ20101111211010211/11/10 21:10:31  5-MIN KDBQ 120310Z AUTO 02006KT 10SM OVC110 09/02 A3040 640 60 100 020/06 RMK AO2 $
94908KDBQ DBQ20101111211510011/11/10 21:15:31  5-MIN KDBQ 120315Z AUTO 02006KT 10SM OVC110 08/02 A3040 640 63 0 020/06 RMK AO2 $
94908KDBQ DBQ20101111212010011/11/10 21:20:31  5-MIN KDBQ 120320Z AUTO 03007KT 10SM OVC110 08/02 A3040 640 63 0 030/07 RMK AO2 $
94908KDBQ DBQ20101111212510011/11/10 21:25:31  5-MIN KDBQ 120325Z AUTO 03006KT 10SM OVC110 08/02 A3040 640 63 0 030/06 RMK AO2 $
94908KDBQ DBQ20101111213010211/11/10 21:30:31  5-MIN KDBQ 120330Z AUTO 03006KT 10SM OVC110 09/02 A3040 630 60 100 030/06 RMK AO2 $
94908KDBQ DBQ20101111213510011/11/10 21:35:31  5-MIN KDBQ 120335Z AUTO 03007KT 10SM OVC110 08/02 A3040 640 63 0 030/07 RMK AO2 $
94908KDBQ DBQ20101111214010011/11/10 21:40:31  5-MIN KDBQ 120340Z AUTO 03006KT 10SM OVC110 08/02 A3040 630 63 0 030/06 RMK AO2 $
94908KDBQ DBQ20101111214510011/11/10 21:45:31  5-MIN KDBQ 120345Z AUTO 03007KT 10SM OVC110 08/02 A3040 640 63 0 020/07 RMK AO2 $
94908KDBQ DBQ20101111215011711/11/10 21:50:31  5-MIN KDBQ 120350Z AUTO 03006KT 10SM OVC100 08/02 A3040 640 63 0 030/06 RMK AO2 SLP302 T00830017 $
94908KDBQ DBQ20101111215510011/11/10 21:55:31  5-MIN KDBQ 120355Z AUTO 02005KT 10SM OVC100 08/02 A3041 630 63 0 020/05 RMK AO2 $
94908KDBQ DBQ20101111220010011/11/10 22:00:31  5-MIN KDBQ 120400Z AUTO 02007KT 10SM OVC100 08/02 A3040 640 65 0 020/07 RMK AO2 $
94908KDBQ DBQ20101111220510011/11/10 22:05:31  5-MIN KDBQ 120405Z AUTO 01007KT 10SM OVC100 08/02 A3040 630 63 0 010/07 RMK AO2 $
94908KDBQ DBQ20101111221010011/11/10 22:10:31  5-MIN KDBQ 120410Z AUTO 01009KT 10SM OVC100 08/02 A3040 640 63 0 010/09 RMK AO2 $
94908KDBQ DBQ20101111221510211/11/10 22:15:31  5-MIN KDBQ 120415Z AUTO 02008KT 10SM OVC100 09/01 A3040 640 58 100 020/08 RMK AO2 $
94908KDBQ DBQ20101111222010211/11/10 22:20:31  5-MIN KDBQ 120420Z AUTO 02008KT 10SM OVC100 09/01 A3039 640 56 100 020/08 RMK AO2 $
94908KDBQ DBQ20101111222510211/11/10 22:25:31  5-MIN KDBQ 120425Z AUTO 03008KT 10SM OVC100 09/01 A3039 640 56 100 020/08 RMK AO2 $
94908KDBQ DBQ20101111223010211/11/10 22:30:31  5-MIN KDBQ 120430Z AUTO 03008KT 10SM OVC100 09/01 A3040 640 56 100 030/08 RMK AO2 $
94908KDBQ DBQ20101111223510011/11/10 22:35:31  5-MIN KDBQ 120435Z AUTO 04006KT 10SM OVC100 08/02 A3040 640 63 0 030/06 RMK AO2 $
94908KDBQ DBQ20101111224010011/11/10 22:40:31  5-MIN KDBQ 120440Z AUTO 04007KT 10SM OVC100 08/02 A3040 640 63 0 040/07 RMK AO2 $
94908KDBQ DBQ20101111224510011/11/10 22:45:31  5-MIN KDBQ 120445Z AUTO 03007KT 10SM OVC100 08/01 A3039 640 60 0 030/07 RMK AO2 $
94908KDBQ DBQ20101111225011711/11/10 22:50:31  5-MIN KDBQ 120450Z AUTO 04007KT 10SM OVC100 08/01 A3039 640 60 0 040/07 RMK AO2 SLP298 T00830011 $
94908KDBQ DBQ20101111225510011/11/10 22:55:31  5-MIN KDBQ 120455Z AUTO 04007KT 10SM OVC100 08/01 A3039 640 60 0 040/07 RMK AO2 $
94908KDBQ DBQ20101111230010011/11/10 23:00:31  5-MIN KDBQ 120500Z AUTO 03006KT 10SM OVC100 08/01 A3039 650 60 0 030/06 RMK AO2 $
94908KDBQ DBQ20101111230510011/11/10 23:05:31  5-MIN KDBQ 120505Z AUTO 03006KT 10SM OVC095 08/01 A3039 640 60 0 030/06 RMK AO2 $
94908KDBQ DBQ20101111231010011/11/10 23:10:31  5-MIN KDBQ 120510Z AUTO 03005KT 10SM OVC095 08/02 A3039 640 63 0 030/05 RMK AO2 $
94908KDBQ DBQ20101111231510011/11/10 23:15:31  5-MIN KDBQ 120515Z AUTO 04005KT 10SM OVC095 08/02 A3039 640 63 0 030/05 RMK AO2 $
94908KDBQ DBQ20101111232010011/11/10 23:20:31  5-MIN KDBQ 120520Z AUTO 04006KT 10SM OVC095 08/02 A3039 640 63 0 030/06 RMK AO2 $
94908KDBQ DBQ20101111232510011/11/10 23:25:31  5-MIN KDBQ 120525Z AUTO 04006KT 10SM OVC095 08/02 A3039 640 63 0 040/06 RMK AO2 $
94908KDBQ DBQ20101111233010011/11/10 23:30:31  5-MIN KDBQ 120530Z AUTO 04006KT 10SM OVC095 08/02 A3039 650 63 0 040/06 RMK AO2 $
94908KDBQ DBQ20101111233510711/11/10 23:35:31  5-MIN KDBQ 120535Z AUTO 03006KT 10SM SCT080 OVC095 08/02 A3039 650 63 0 030/06 RMK AO2 $
94908KDBQ DBQ20101111234010711/11/10 23:40:31  5-MIN KDBQ 120540Z AUTO 03006KT 10SM SCT080 OVC095 08/02 A3039 650 63 0 030/06 RMK AO2 $
94908KDBQ DBQ20101111234510011/11/10 23:45:31  5-MIN KDBQ 120545Z AUTO 03007KT 10SM OVC090 08/02 A3038 650 63 0 030/07 RMK AO2 $
94908KDBQ DBQ20101111235014511/11/10 23:50:31  5-MIN KDBQ 120550Z AUTO 03006KT 10SM OVC090 08/02 A3039 650 63 0 030/06 RMK AO2 SLP295 T00830017 10089 20078 401330033 51007 $
94908KDBQ DBQ20101111235510011/11/10 23:55:31  5-MIN KDBQ 120555Z AUTO 03006KT 10SM OVC090 08/02 A3039 650 65 0 030/06 RMK AO2 $
94908KDBQ DBQ20101112000010711/12/10 00:00:38  5-MIN KDBQ 120600Z AUTO 03007KT 10SM SCT080 OVC090 08/02 A3039 650 63 0 030/07 RMK AO2 $
94908KDBQ DBQ20101112000510711/12/10 00:05:31  5-MIN KDBQ 120605Z AUTO 03007KT 10SM SCT075 OVC090 08/02 A3039 650 65 0 030/07 RMK AO2 $
94908KDBQ DBQ20101112001010711/12/10 00:10:31  5-MIN KDBQ 120610Z AUTO 03006KT 10SM FEW080 OVC095 08/02 A3039 640 68 0 030/06 RMK AO2 $
94908KDBQ DBQ20101112001510711/12/10 00:15:31  5-MIN KDBQ 120615Z AUTO 04006KT 10SM FEW080 OVC095 08/02 A3039 640 68 0 040/06 RMK AO2 $
94908KDBQ DBQ20101112002010711/12/10 00:20:31  5-MIN KDBQ 120620Z AUTO 03006KT 10SM FEW080 OVC095 08/02 A3040 640 65 0 030/06 RMK AO2 $
94908KDBQ DBQ20101112002510711/12/10 00:25:31  5-MIN KDBQ 120625Z AUTO 03008KT 10SM FEW080 OVC095 08/02 A3039 640 63 0 020/08 RMK AO2 $
94908KDBQ DBQ20101112003010011/12/10 00:30:31  5-MIN KDBQ 120630Z AUTO 02008KT 10SM OVC095 08/02 A3039 640 63 0 020/08 RMK AO2 $
94908KDBQ DBQ20101112003510011/12/10 00:35:31  5-MIN KDBQ 120635Z AUTO 02007KT 10SM OVC090 08/01 A3039 650 60 0 020/07 RMK AO2 $
94908KDBQ DBQ20101112004010011/12/10 00:40:31  5-MIN KDBQ 120640Z AUTO 03007KT 10SM OVC090 08/01 A3039 650 60 0 030/07 RMK AO2 $
94908KDBQ DBQ20101112004510011/12/10 00:45:31  5-MIN KDBQ 120645Z AUTO 04007KT 10SM OVC090 08/01 A3039 650 60 0 030/07 RMK AO2 $
94908KDBQ DBQ20101112005011911/12/10 00:50:31  5-MIN KDBQ 120650Z AUTO 03009KT 10SM OVC090 08/01 A3038 660 60 100 030/09 RMK AO2 SLP294 T00830011 $
94908KDBQ DBQ20101112005510011/12/10 00:55:31  5-MIN KDBQ 120655Z AUTO 03010KT 10SM OVC090 08/02 A3038 660 65 0 030/10 RMK AO2 $
94908KDBQ DBQ20101112010010011/12/10 01:00:31  5-MIN KDBQ 120700Z AUTO 03008KT 10SM OVC085 08/02 A3037 660 65 0 030/08 RMK AO2 $
94908KDBQ DBQ20101112010510011/12/10 01:05:31  5-MIN KDBQ 120705Z AUTO 03009KT 10SM OVC085 08/02 A3037 660 68 0 030/09 RMK AO2 $
94908KDBQ DBQ20101112011010011/12/10 01:10:31  5-MIN KDBQ 120710Z AUTO 04007KT 10SM OVC085 08/02 A3037 660 68 0 040/07 RMK AO2 $
94908KDBQ DBQ20101112011510011/12/10 01:15:31  5-MIN KDBQ 120715Z AUTO 04007KT 10SM OVC080 08/02 A3038 660 65 0 040/07 RMK AO2 $
94908KDBQ DBQ20101112012010011/12/10 01:20:31  5-MIN KDBQ 120720Z AUTO 03007KT 10SM OVC080 08/02 A3038 660 65 0 030/07 RMK AO2 $
94908KDBQ DBQ20101112012510011/12/10 01:25:31  5-MIN KDBQ 120725Z AUTO 03008KT 10SM OVC080 08/02 A3037 660 65 0 030/08 RMK AO2 $
94908KDBQ DBQ20101112013010011/12/10 01:30:31  5-MIN KDBQ 120730Z AUTO 03008KT 10SM OVC080 08/02 A3037 660 65 0 030/08 RMK AO2 $
94908KDBQ DBQ20101112013510011/12/10 01:35:31  5-MIN KDBQ 120735Z AUTO 03007KT 10SM OVC075 08/01 A3037 660 62 0 030/07 RMK AO2 $
94908KDBQ DBQ20101112014010011/12/10 01:40:31  5-MIN KDBQ 120740Z AUTO 04008KT 10SM OVC080 08/02 A3037 670 65 0 040/08 RMK AO2 $
94908KDBQ DBQ20101112014510711/12/10 01:45:31  5-MIN KDBQ 120745Z AUTO 04008KT 10SM BKN080 OVC095 08/02 A3037 660 65 0 040/08 RMK AO2 $
94908KDBQ DBQ20101112015012411/12/10 01:50:31  5-MIN KDBQ 120750Z AUTO 04007KT 10SM BKN080 OVC095 08/02 A3037 660 65 0 040/07 RMK AO2 SLP290 T00780017 $
94908KDBQ DBQ20101112015510011/12/10 01:55:31  5-MIN KDBQ 120755Z AUTO 02006KT 10SM OVC085 08/02 A3038 660 65 0 020/06 RMK AO2 $
94908KDBQ DBQ20101112020010711/12/10 02:00:31  5-MIN KDBQ 120800Z AUTO 03007KT 10SM BKN080 OVC095 07/02 A3038 660 70 0 030/07 RMK AO2 $
94908KDBQ DBQ20101112020510011/12/10 02:05:31  5-MIN KDBQ 120805Z AUTO 04007KT 10SM OVC085 07/02 A3037 660 70 0 040/07 RMK AO2 $
94908KDBQ DBQ20101112021010011/12/10 02:10:31  5-MIN KDBQ 120810Z AUTO 03007KT 10SM OVC085 07/02 A3037 660 70 0 030/07 RMK AO2 $
94908KDBQ DBQ20101112021510011/12/10 02:15:31  5-MIN KDBQ 120815Z AUTO 03007KT 10SM OVC085 07/02 A3037 660 70 0 030/07 RMK AO2 $
94908KDBQ DBQ20101112022011611/12/10 02:20:31  5-MIN KDBQ 120820Z AUTO 04008KT 10SM -RA OVC080 07/02 A3037 660 70 0 040/08 RMK AO2 RAB17 P0000 $
94908KDBQ DBQ20101112022511611/12/10 02:25:31  5-MIN KDBQ 120825Z AUTO 03006KT 10SM -RA OVC080 07/02 A3038 660 70 0 030/06 RMK AO2 RAB17 P0000 $
94908KDBQ DBQ20101112023011511/12/10 02:30:31  5-MIN KDBQ 120830Z AUTO 04007KT 10SM OVC075 07/02 A3038 660 70 0 040/07 RMK AO2 RAB17E27 P0000 $
94908KDBQ DBQ20101112023511511/12/10 02:35:31  5-MIN KDBQ 120835Z AUTO 03007KT 10SM OVC070 07/02 A3038 660 70 0 030/07 RMK AO2 RAB17E27 P0000 $
94908KDBQ DBQ20101112024012311/12/10 02:40:31  5-MIN KDBQ 120840Z AUTO 03007KT 10SM -RA BKN075 OVC085 07/02 A3038 660 70 0 030/07 RMK AO2 RAB17 P0000 $
94908KDBQ DBQ20101112024512311/12/10 02:45:31  5-MIN KDBQ 120845Z AUTO 03009KT 10SM -RA BKN075 OVC085 07/02 A3037 670 70 0 030/09 RMK AO2 RAB17 P0000 $
94908KDBQ DBQ20101112025015211/12/10 02:50:31  5-MIN KDBQ 120850Z AUTO 04008KT 10SM -RA SCT070 OVC085 07/02 A3037 670 70 0 040/08 RMK AO2 RAB17 SLP289 P0000 60000 T00720022 58006 $
94908KDBQ DBQ20101112025512011/12/10 02:55:31  5-MIN KDBQ 120855Z AUTO 04009KT 10SM -RA SCT070 OVC085 07/02 A3036 670 73 -100 040/09 RMK AO2 P0000 $
94908KDBQ DBQ20101112030012011/12/10 03:00:31  5-MIN KDBQ 120900Z AUTO 04008KT 10SM -RA FEW065 OVC085 07/03 A3036 670 76 -100 040/08 RMK AO2 P0001 $
94908KDBQ DBQ20101112030512011/12/10 03:05:31  5-MIN KDBQ 120905Z AUTO 04008KT 10SM -RA FEW070 OVC085 07/02 A3037 670 73 -100 040/08 RMK AO2 P0001 $
94908KDBQ DBQ20101112031012211/12/10 03:10:31  5-MIN KDBQ 120910Z AUTO 05008KT 10SM FEW070 OVC080 07/02 A3037 670 73 -100 050/08 RMK AO2 RAE07 P0001 $
94908KDBQ DBQ20101112031511211/12/10 03:15:31  5-MIN KDBQ 120915Z AUTO 05007KT 10SM OVC085 07/02 A3037 670 70 0 050/07 RMK AO2 RAE07 P0001 $
94908KDBQ DBQ20101112032011211/12/10 03:20:31  5-MIN KDBQ 120920Z AUTO 04009KT 10SM OVC085 07/02 A3037 670 70 0 040/09 RMK AO2 RAE07 P0001 $
94908KDBQ DBQ20101112032511211/12/10 03:25:31  5-MIN KDBQ 120925Z AUTO 05008KT 10SM OVC080 07/02 A3037 670 68 0 050/08 RMK AO2 RAE07 P0001 $
94908KDBQ DBQ20101112033011211/12/10 03:30:31  5-MIN KDBQ 120930Z AUTO 04009KT 10SM OVC080 07/02 A3037 670 70 0 040/09 RMK AO2 RAE07 P0001 $
94908KDBQ DBQ20101112033511211/12/10 03:35:31  5-MIN KDBQ 120935Z AUTO 04008KT 10SM OVC080 07/02 A3037 670 68 0 030/08 RMK AO2 RAE07 P0001 $
94908KDBQ DBQ20101112034011911/12/10 03:40:31  5-MIN KDBQ 120940Z AUTO 03007KT 10SM BKN070 OVC085 07/02 A3037 660 70 0 030/07 RMK AO2 RAE07 P0001 $
94908KDBQ DBQ20101112034512611/12/10 03:45:31  5-MIN KDBQ 120945Z AUTO 04006KT 10SM SCT060 BKN070 OVC085 07/02 A3037 660 70 0 040/06 RMK AO2 RAE07 P0001 $
94908KDBQ DBQ20101112035014611/12/10 03:50:31  5-MIN KDBQ 120950Z AUTO 03005KT 10SM -RA BKN060 OVC075 07/02 A3038 660 73 -100 030/05 RMK AO2 RAE07B50 SLP293 P0001 T00670022 $
94908KDBQ DBQ20101112035512011/12/10 03:55:31  5-MIN KDBQ 120955Z AUTO 03006KT 10SM -RA BKN055 OVC070 07/02 A3038 660 73 -100 030/06 RMK AO2 P0000 $
94908KDBQ DBQ20101112040012011/12/10 04:00:31  5-MIN KDBQ 121000Z AUTO 02004KT 10SM -RA BKN055 OVC070 07/03 A3039 650 76 -100 020/04 RMK AO2 P0000 $
94908KDBQ DBQ20101112040511911/12/10 04:05:31  5-MIN KDBQ 121005Z AUTO 36004KT 9SM -RA SCT045 OVC055 07/03 A3039 650 76 -100 360/04 RMK AO2 P0000 $
94908KDBQ DBQ20101112041011911/12/10 04:10:31  5-MIN KDBQ 121010Z AUTO 02005KT 8SM -RA BKN045 OVC055 07/03 A3039 650 76 -100 020/05 RMK AO2 P0000 $
94908KDBQ DBQ20101112041511911/12/10 04:15:31  5-MIN KDBQ 121015Z AUTO 03006KT 7SM -RA SCT043 OVC050 07/03 A3038 660 76 -100 030/06 RMK AO2 P0001 $
94908KDBQ DBQ20101112042011911/12/10 04:20:31  5-MIN KDBQ 121020Z AUTO 02006KT 7SM -RA BKN045 OVC055 06/03 A3038 660 82 -200 020/06 RMK AO2 P0001 $
94908KDBQ DBQ20101112042511911/12/10 04:25:31  5-MIN KDBQ 121025Z AUTO 02007KT 9SM -RA BKN043 OVC050 06/03 A3038 650 82 -200 020/07 RMK AO2 P0001 $
94908KDBQ DBQ20101112043012011/12/10 04:30:31  5-MIN KDBQ 121030Z AUTO 02007KT 10SM -RA BKN041 OVC049 06/03 A3038 660 82 -200 020/07 RMK AO2 P0001 $
94908KDBQ DBQ20101112043511911/12/10 04:35:31  5-MIN KDBQ 121035Z AUTO 03008KT 9SM -RA BKN041 OVC049 06/03 A3038 660 82 -200 030/08 RMK AO2 P0001 $
94908KDBQ DBQ20101112044011911/12/10 04:40:31  5-MIN KDBQ 121040Z AUTO 03008KT 9SM -RA BKN039 OVC049 06/03 A3037 660 82 -200 030/08 RMK AO2 P0001 $
94908KDBQ DBQ20101112044511311/12/10 04:45:31  5-MIN KDBQ 121045Z AUTO 03009KT 10SM -RA OVC039 06/03 A3037 660 82 -200 030/09 RMK AO2 P0002 $
94908KDBQ DBQ20101112045012911/12/10 04:50:31  5-MIN KDBQ 121050Z AUTO 03007KT 9SM -RA OVC039 06/03 A3037 660 82 -200 030/07 RMK AO2 SLP291 P0002 T00610033 $
94908KDBQ DBQ20101112045511311/12/10 04:55:31  5-MIN KDBQ 121055Z AUTO 05008KT 10SM -RA OVC037 06/04 A3037 670 86 -200 050/08 RMK AO2 P0000 $
94908KDBQ DBQ20101112050011311/12/10 05:00:31  5-MIN KDBQ 121100Z AUTO 06009KT 10SM -RA OVC035 06/03 A3037 670 82 -200 050/09 RMK AO2 P0000 $
94908KDBQ DBQ20101112050511511/12/10 05:05:31  5-MIN KDBQ 121105Z AUTO 05008KT 10SM OVC035 06/03 A3037 670 82 -200 050/08 RMK AO2 RAE02 P0000 $
94908KDBQ DBQ20101112051011211/12/10 05:10:31  5-MIN KDBQ 121110Z AUTO 06007KT 9SM -RA OVC033 06/03 A3037 660 82 -200 060/07 RMK AO2 P0000 $
94908KDBQ DBQ20101112051511211/12/10 05:15:31  5-MIN KDBQ 121115Z AUTO 06008KT 8SM -RA OVC033 06/03 A3037 670 82 -200 060/08 RMK AO2 P0000 $
94908KDBQ DBQ20101112052011311/12/10 05:20:31  5-MIN KDBQ 121120Z AUTO 06007KT 10SM -RA OVC033 06/03 A3037 660 82 -200 060/07 RMK AO2 P0000 $
94908KDBQ DBQ20101112052511511/12/10 05:25:31  5-MIN KDBQ 121125Z AUTO 05007KT 10SM OVC033 06/03 A3037 660 82 -200 050/07 RMK AO2 RAE22 P0000 $
94908KDBQ DBQ20101112053012111/12/10 05:30:31  5-MIN KDBQ 121130Z AUTO 06011G15KT 10SM OVC033 06/03 A3036 670 82 -200 060/11G15 RMK AO2 RAE22 P0000 $
94908KDBQ DBQ20101112053511211/12/10 05:35:31  5-MIN KDBQ 121135Z AUTO 06011KT 8SM -RA OVC033 06/03 A3037 670 79 -200 060/11 RMK AO2 P0000 $
94908KDBQ DBQ20101112054011111/12/10 05:40:31  5-MIN KDBQ 121140Z AUTO 05010KT 5SM RA OVC033 06/03 A3037 670 79 -200 050/10 RMK AO2 P0001 $
94908KDBQ DBQ20101112054511111/12/10 05:45:31  5-MIN KDBQ 121145Z AUTO 05010KT 5SM RA OVC031 06/03 A3037 670 79 -200 050/10 RMK AO2 P0002 $
94908KDBQ DBQ20101112055016711/12/10 05:50:31  5-MIN KDBQ 121150Z AUTO 06013G16KT 5SM RA BR OVC031 06/03 A3036 670 85 -200 060/13G16 RMK AO2 SLP290 P0003 60006 70006 T00560033 10083 20056 58008 $
94908KDBQ DBQ20101112055511611/12/10 05:55:31  5-MIN KDBQ 121155Z 05011KT 5SM RA BR BKN031 OVC040 06/03 A3036 670 85 -200 050/11 RMK AO2 P0001 $
94908KDBQ DBQ20101112060012311/12/10 06:00:31  5-MIN KDBQ 121200Z 04010G17KT 5SM -RA BR BKN031 OVC038 06/03 A3037 670 85 -200 040/10G17 RMK AO2 P0001 $
94908KDBQ DBQ20101112060512011/12/10 06:05:31  5-MIN KDBQ 121205Z 05012G18KT 7SM -RA BKN030 OVC036 06/03 A3037 670 85 -200 050/12G18 RMK AO2 P0002 $
94908KDBQ DBQ20101112061011411/12/10 06:10:31  5-MIN KDBQ 121210Z 04012KT 7SM -RA BKN030 OVC036 06/03 A3037 670 85 -200 040/12 RMK AO2 P0003 $
94908KDBQ DBQ20101112061511611/12/10 06:15:31  5-MIN KDBQ 121215Z 03010KT 5SM RA BR BKN030 OVC036 06/03 A3037 660 85 -200 030/10 RMK AO2 P0003 $
94908KDBQ DBQ20101112062011711/12/10 06:20:31  5-MIN KDBQ 121220Z 03008KT 6SM -RA BR BKN030 OVC036 06/04 A3037 660 89 -200 030/08 RMK AO2 P0004 $
94908KDBQ DBQ20101112062511411/12/10 06:25:31  5-MIN KDBQ 121225Z 04011KT 8SM -RA BKN030 OVC036 06/04 A3037 660 89 -200 040/11 RMK AO2 P0004 $
94908KDBQ DBQ20101112063011711/12/10 06:30:31  5-MIN KDBQ 121230Z 05012KT 10SM BKN030 OVC036 06/04 A3038 660 89 -200 050/12 RMK AO2 RAE29 P0004 $
94908KDBQ DBQ20101112063511711/12/10 06:35:31  5-MIN KDBQ 121235Z 04010KT 10SM BKN030 OVC036 06/04 A3038 660 89 -200 040/10 RMK AO2 RAE29 P0004 $
94908KDBQ DBQ20101112064011711/12/10 06:40:31  5-MIN KDBQ 121240Z 03012KT 10SM BKN030 OVC036 06/04 A3038 660 89 -200 030/12 RMK AO2 RAE29 P0004 $
94908KDBQ DBQ20101112064511711/12/10 06:45:31  5-MIN KDBQ 121245Z 03010KT 10SM BKN030 OVC036 06/04 A3039 650 89 -200 030/10 RMK AO2 RAE29 P0004 $
94908KDBQ DBQ20101112065013411/12/10 06:50:31  5-MIN KDBQ 121250Z 03010KT 10SM BKN030 OVC036 06/04 A3038 650 89 -200 030/10 RMK AO2 RAE29 SLP296 P0004 T00560039 $
94908KDBQ DBQ20101112065509611/12/10 06:55:31  5-MIN KDBQ 121255Z 03010KT 10SM OVC026 06/04 A3038 650 89 -200 030/10 RMK AO2
94908KDBQ DBQ20101112070009611/12/10 07:00:31  5-MIN KDBQ 121300Z 03011KT 10SM OVC026 06/04 A3038 650 89 -200 030/11 RMK AO2
94908KDBQ DBQ20101112070509611/12/10 07:05:31  5-MIN KDBQ 121305Z 04013KT 10SM OVC028 06/04 A3038 660 89 -200 040/13 RMK AO2
94908KDBQ DBQ20101112071010311/12/10 07:10:31  5-MIN KDBQ 121310Z 04011KT 10SM BKN025 OVC030 06/04 A3038 660 89 -200 040/11 RMK AO2
94908KDBQ DBQ20101112071510311/12/10 07:15:31  5-MIN KDBQ 121315Z 04012KT 10SM BKN025 OVC030 06/04 A3038 650 89 -200 040/12 RMK AO2
94908KDBQ DBQ20101112072010311/12/10 07:20:31  5-MIN KDBQ 121320Z 04014KT 10SM BKN025 OVC030 06/04 A3038 660 89 -200 040/14 RMK AO2
94908KDBQ DBQ20101112072510311/12/10 07:25:31  5-MIN KDBQ 121325Z 05015KT 10SM BKN025 OVC030 06/03 A3038 660 85 -200 050/15 RMK AO2
94908KDBQ DBQ20101112073012411/12/10 07:30:31  5-MIN KDBQ 121330Z 05014G20KT 9SM -RA BKN025 OVC030 06/04 A3037 660 89 -200 050/14G20 RMK AO2 RAB30 P0000
94908KDBQ DBQ20101112073512411/12/10 07:35:31  5-MIN KDBQ 121335Z 04014G20KT 9SM -RA BKN025 OVC030 06/04 A3037 660 89 -200 040/14G20 RMK AO2 RAB30 P0000
94908KDBQ DBQ20101112074011811/12/10 07:40:31  5-MIN KDBQ 121340Z 04013G20KT 10SM -RA OVC030 06/04 A3037 660 89 -200 040/13G20 RMK AO2 RAB30 P0000
94908KDBQ DBQ20101112074511711/12/10 07:45:31  5-MIN KDBQ 121345Z 04014G21KT 10SM OVC030 06/04 A3037 660 89 -200 040/14G21 RMK AO2 RAB30E41 P0000
94908KDBQ DBQ20101112075013511/12/10 07:50:31  5-MIN KDBQ 121350Z 05015G21KT 10SM -RA OVC030 06/04 A3037 660 89 -200 040/15G21 RMK AO2 RAB30 SLP292 P0000 T00560039
94908KDBQ DBQ20101112075511211/12/10 07:55:31  5-MIN KDBQ 121355Z 04014KT 9SM -RA BKN032 OVC060 06/04 A3037 660 89 -200 040/14 RMK AO2 P0000
94908KDBQ DBQ20101112080011311/12/10 08:00:31  5-MIN KDBQ 121400Z 04014KT 10SM -RA BKN032 OVC060 06/04 A3037 660 89 -200 040/14 RMK AO2 P0000
94908KDBQ DBQ20101112080511511/12/10 08:05:31  5-MIN KDBQ 121405Z 04016KT 10SM BKN032 OVC060 06/04 A3037 660 89 -200 040/16 RMK AO2 RAE01 P0000
94908KDBQ DBQ20101112081012111/12/10 08:10:31  5-MIN KDBQ 121410Z 04016G22KT 10SM SCT032 OVC060 06/04 A3037 670 89 -200 040/16G22 RMK AO2 RAE01 P0000
94908KDBQ DBQ20101112081511511/12/10 08:15:31  5-MIN KDBQ 121415Z 04016KT 10SM FEW032 OVC060 06/04 A3036 670 89 -200 040/16 RMK AO2 RAE01 P0000
94908KDBQ DBQ20101112082011511/12/10 08:20:31  5-MIN KDBQ 121420Z 04016KT 10SM FEW032 OVC060 06/04 A3036 670 89 -200 040/16 RMK AO2 RAE01 P0000
94908KDBQ DBQ20101112082510811/12/10 08:25:31  5-MIN KDBQ 121425Z 05015KT 10SM OVC060 06/04 A3036 670 89 -200 040/15 RMK AO2 RAE01 P0000
94908KDBQ DBQ20101112083011411/12/10 08:30:31  5-MIN KDBQ 121430Z 05017G22KT 10SM OVC060 06/04 A3036 680 89 -200 050/17G22 RMK AO2 RAE01 P0000
94908KDBQ DBQ20101112083512111/12/10 08:35:31  5-MIN KDBQ 121435Z 04015G22KT 10SM BKN055 OVC095 06/04 A3036 680 89 -200 040/15G22 RMK AO2 RAE01 P0000
94908KDBQ DBQ20101112084011511/12/10 08:40:31  5-MIN KDBQ 121440Z 04017KT 10SM BKN055 OVC095 06/04 A3035 680 89 -200 040/17 RMK AO2 RAE01 P0000
94908KDBQ DBQ20101112084511511/12/10 08:45:31  5-MIN KDBQ 121445Z 04016KT 10SM BKN055 OVC100 06/04 A3035 680 89 -200 040/16 RMK AO2 RAE01 P0000
94908KDBQ DBQ20101112085015011/12/10 08:50:31  5-MIN KDBQ 121450Z 04017G23KT 10SM BKN055 OVC100 06/03 A3036 680 85 -200 040/17G23 RMK AO2 RAE01 SLP286 P0000 60004 T00560033 50000
94908KDBQ DBQ20101112085510911/12/10 08:55:31  5-MIN KDBQ 121455Z 04016G23KT 10SM SCT055 OVC100 06/04 A3035 680 89 -200 040/16G23 RMK AO2
94908KDBQ DBQ20101112090010311/12/10 09:00:31  5-MIN KDBQ 121500Z 04014KT 10SM FEW055 BKN100 06/04 A3035 680 89 -200 040/14 RMK AO2
94908KDBQ DBQ20101112090511611/12/10 09:05:31  5-MIN KDBQ 121505Z 04015G20KT 10SM FEW055 SCT080 OVC100 06/04 A3035 680 86 -100 040/15G20 RMK AO2
94908KDBQ DBQ20101112091010911/12/10 09:10:31  5-MIN KDBQ 121510Z 05013G20KT 10SM FEW055 BKN095 06/04 A3035 690 89 -200 050/13G20 RMK AO2
94908KDBQ DBQ20101112091510211/12/10 09:15:31  5-MIN KDBQ 121515Z 04015G23KT 10SM BKN090 06/04 A3035 690 86 -100 040/15G23 RMK AO2
94908KDBQ DBQ20101112092010211/12/10 09:20:31  5-MIN KDBQ 121520Z 05014G23KT 10SM OVC090 06/04 A3035 690 86 -100 050/14G23 RMK AO2
94908KDBQ DBQ20101112092510211/12/10 09:25:31  5-MIN KDBQ 121525Z 04014G22KT 10SM OVC085 07/04 A3035 690 86 -100 040/14G22 RMK AO2
94908KDBQ DBQ20101112093009911/12/10 09:30:31  5-MIN KDBQ 121530Z 05016G21KT 10SM OVC085 07/04 A3034 690 82 0 050/16G21 RMK AO2
94908KDBQ DBQ20101112093509911/12/10 09:35:31  5-MIN KDBQ 121535Z 05017G21KT 10SM OVC085 07/04 A3034 690 82 0 050/17G21 RMK AO2
94908KDBQ DBQ20101112094009911/12/10 09:40:31  5-MIN KDBQ 121540Z 05019G23KT 10SM OVC085 07/04 A3034 690 82 0 050/19G23 RMK AO2
94908KDBQ DBQ20101112094510211/12/10 09:45:31  5-MIN KDBQ 121545Z 05017G23KT 10SM OVC085 07/04 A3034 690 82 -100 050/17G23 RMK AO2
94908KDBQ DBQ20101112095011911/12/10 09:50:31  5-MIN KDBQ 121550Z 06016G23KT 10SM OVC090 07/04 A3034 690 82 -100 060/16G23 RMK AO2 SLP282 T00670039
94908KDBQ DBQ20101112095510211/12/10 09:55:31  5-MIN KDBQ 121555Z 05014G21KT 10SM OVC090 07/04 A3034 690 82 -100 050/14G21 RMK AO2
94908KDBQ DBQ20101112100010211/12/10 10:00:31  5-MIN KDBQ 121600Z 05016G21KT 10SM OVC090 07/04 A3035 690 82 -100 050/16G21 RMK AO2
94908KDBQ DBQ20101112100509611/12/10 10:05:31  5-MIN KDBQ 121605Z 05016KT 10SM BKN090 07/04 A3035 690 82 -100 050/16 RMK AO2
94908KDBQ DBQ20101112101010211/12/10 10:10:31  5-MIN KDBQ 121610Z 06014G20KT 10SM BKN095 07/04 A3034 690 82 -100 060/14G20 RMK AO2
94908KDBQ DBQ20101112101509611/12/10 10:15:31  5-MIN KDBQ 121615Z 05012KT 10SM OVC095 07/04 A3035 690 82 -100 050/12 RMK AO2
94908KDBQ DBQ20101112102009911/12/10 10:20:31  5-MIN KDBQ 121620Z 05011G19KT 10SM OVC100 07/04 A3035 690 79 0 050/11G19 RMK AO2
94908KDBQ DBQ20101112102509911/12/10 10:25:31  5-MIN KDBQ 121625Z 05010G19KT 10SM BKN100 07/04 A3035 690 79 0 050/10G19 RMK AO2
94908KDBQ DBQ20101112103009911/12/10 10:30:31  5-MIN KDBQ 121630Z 06012G19KT 10SM BKN100 07/03 A3034 690 76 0 060/12G19 RMK AO2
94908KDBQ DBQ20101112103510011/12/10 10:35:31  5-MIN KDBQ 121635Z 06014KT 10SM FEW060 BKN100 07/03 A3035 690 76 0 060/14 RMK AO2
94908KDBQ DBQ20101112104010011/12/10 10:40:31  5-MIN KDBQ 121640Z 06012KT 10SM SCT060 BKN100 07/03 A3034 690 76 0 060/12 RMK AO2
94908KDBQ DBQ20101112104510011/12/10 10:45:31  5-MIN KDBQ 121645Z 06012KT 10SM BKN060 BKN100 07/03 A3034 690 76 0 060/12 RMK AO2
94908KDBQ DBQ20101112105012311/12/10 10:50:31  5-MIN KDBQ 121650Z 05011G18KT 10SM BKN060 BKN110 08/03 A3034 690 73 0 050/11G18 RMK AO2 SLP280 T00780033
94908KDBQ DBQ20101112105509911/12/10 10:55:31  5-MIN KDBQ 121655Z 06013G18KT 10SM BKN060 08/03 A3034 690 73 0 050/13G18 RMK AO2
94908KDBQ DBQ20101112110009311/12/10 11:00:31  5-MIN KDBQ 121700Z 06013KT 10SM OVC060 08/03 A3034 690 73 0 050/13 RMK AO2
94908KDBQ DBQ20101112110509311/12/10 11:05:31  5-MIN KDBQ 121705Z 06011KT 10SM OVC060 08/03 A3034 690 73 0 060/11 RMK AO2
94908KDBQ DBQ20101112111009911/12/10 11:10:31  5-MIN KDBQ 121710Z 06014G17KT 10SM OVC060 08/03 A3034 700 73 0 060/14G17 RMK AO2
94908KDBQ DBQ20101112111509911/12/10 11:15:31  5-MIN KDBQ 121715Z 05012G18KT 10SM OVC065 07/03 A3034 700 76 0 050/12G18 RMK AO2
94908KDBQ DBQ20101112112009911/12/10 11:20:31  5-MIN KDBQ 121720Z 05011G18KT 10SM OVC065 08/03 A3033 700 73 0 050/11G18 RMK AO2
94908KDBQ DBQ20101112112509311/12/10 11:25:31  5-MIN KDBQ 121725Z 05011KT 10SM OVC065 08/03 A3033 700 73 0 050/11 RMK AO2
94908KDBQ DBQ20101112113009311/12/10 11:30:31  5-MIN KDBQ 121730Z 05012KT 10SM OVC065 08/04 A3033 700 76 0 050/12 RMK AO2
94908KDBQ DBQ20101112113509511/12/10 11:35:31  5-MIN KDBQ 121735Z 04009KT 10SM OVC070 08/04 A3032 710 73 100 040/09 RMK AO2
94908KDBQ DBQ20101112114009511/12/10 11:40:31  5-MIN KDBQ 121740Z 04009KT 10SM OVC070 08/04 A3032 710 73 100 040/09 RMK AO2
94908KDBQ DBQ20101112114510211/12/10 11:45:31  5-MIN KDBQ 121745Z 04011KT 10SM BKN070 OVC110 08/04 A3032 710 73 100 040/11 RMK AO2
94908KDBQ DBQ20101112115014311/12/10 11:50:31  5-MIN KDBQ 121750Z 05011KT 10SM BKN070 OVC110 08/04 A3032 710 73 100 050/11 RMK AO2 SLP272 60004 T00830039 10083 20056 58003
94908KDBQ DBQ20101112115510211/12/10 11:55:31  5-MIN KDBQ 121755Z 04011KT 10SM BKN070 BKN110 09/04 A3032 710 73 200 040/11 RMK AO2
94908KDBQ DBQ20101112120010211/12/10 12:00:31  5-MIN KDBQ 121800Z 03010KT 10SM SCT070 BKN110 09/04 A3032 710 73 200 030/10 RMK AO2
94908KDBQ DBQ20101112120510211/12/10 12:05:31  5-MIN KDBQ 121805Z 04011KT 10SM SCT070 BKN110 09/04 A3031 720 71 200 040/11 RMK AO2
94908KDBQ DBQ20101112121010811/12/10 12:10:31  5-MIN KDBQ 121810Z 05012G17KT 10SM FEW070 BKN110 09/04 A3031 720 71 200 050/12G17 RMK AO2
94908KDBQ DBQ20101112121510811/12/10 12:15:31  5-MIN KDBQ 121815Z 04010G17KT 10SM FEW070 SCT110 09/04 A3030 730 71 200 040/10G17 RMK AO2
94908KDBQ DBQ20101112122010211/12/10 12:20:31  5-MIN KDBQ 121820Z 05011KT 10SM FEW070 SCT110 08/04 A3030 730 73 100 040/11 RMK AO2
94908KDBQ DBQ20101112122510211/12/10 12:25:31  5-MIN KDBQ 121825Z 04011KT 10SM SCT065 SCT110 09/04 A3030 730 71 200 040/11 RMK AO2
94908KDBQ DBQ20101112123010211/12/10 12:30:31  5-MIN KDBQ 121830Z 06013KT 10SM SCT070 SCT110 08/04 A3029 740 73 200 060/13 RMK AO2
94908KDBQ DBQ20101112123509511/12/10 12:35:31  5-MIN KDBQ 121835Z 05011KT 10SM SCT070 08/04 A3029 740 73 200 050/11 RMK AO2
94908KDBQ DBQ20101112124009511/12/10 12:40:31  5-MIN KDBQ 121840Z 05011KT 10SM FEW070 08/04 A3028 750 73 200 040/11 RMK AO2
94908KDBQ DBQ20101112124509511/12/10 12:45:31  5-MIN KDBQ 121845Z 04013KT 10SM FEW070 08/04 A3028 750 73 200 040/13 RMK AO2
94908KDBQ DBQ20101112125011211/12/10 12:50:31  5-MIN KDBQ 121850Z 05013KT 10SM FEW070 08/04 A3028 750 73 200 050/13 RMK AO2 SLP258 T00830039
94908KDBQ DBQ20101112125509511/12/10 12:55:31  5-MIN KDBQ 121855Z 04013KT 10SM FEW070 09/04 A3027 760 71 200 040/13 RMK AO2
94908KDBQ DBQ20101112130010111/12/10 13:00:31  5-MIN KDBQ 121900Z 04013G20KT 10SM SCT070 09/04 A3027 760 71 200 040/13G20 RMK AO2
94908KDBQ DBQ20101112130510111/12/10 13:05:31  5-MIN KDBQ 121905Z 05013G20KT 10SM SCT070 09/04 A3026 760 71 300 050/13G20 RMK AO2
94908KDBQ DBQ20101112131010111/12/10 13:10:31  5-MIN KDBQ 121910Z 06015G21KT 10SM FEW070 09/04 A3026 760 71 300 060/15G21 RMK AO2
94908KDBQ DBQ20101112131510111/12/10 13:15:31  5-MIN KDBQ 121915Z 05013G21KT 10SM SCT070 09/03 A3026 770 68 300 050/13G21 RMK AO2
94908KDBQ DBQ20101112132009511/12/10 13:20:31  5-MIN KDBQ 121920Z 06014KT 10SM SCT070 09/03 A3026 770 68 300 060/14 RMK AO2
94908KDBQ DBQ20101112132509511/12/10 13:25:31  5-MIN KDBQ 121925Z 06014KT 10SM FEW070 09/03 A3025 770 65 300 060/14 RMK AO2
94908KDBQ DBQ20101112133009511/12/10 13:30:31  5-MIN KDBQ 121930Z 06014KT 10SM FEW070 09/03 A3025 770 68 300 050/14 RMK AO2
94908KDBQ DBQ20101112133509211/12/10 13:35:31  5-MIN KDBQ 121935Z 06014KT 10SM CLR 09/03 A3025 780 68 300 060/14 RMK AO2
94908KDBQ DBQ20101112134009211/12/10 13:40:31  5-MIN KDBQ 121940Z 06013KT 10SM CLR 09/03 A3025 780 68 300 050/13 RMK AO2
94908KDBQ DBQ20101112134509811/12/10 13:45:31  5-MIN KDBQ 121945Z 06014G19KT 10SM CLR 09/03 A3024 780 68 300 060/14G19 RMK AO2
94908KDBQ DBQ20101112135010911/12/10 13:50:31  5-MIN KDBQ 121950Z 05013KT 10SM CLR 09/03 A3024 780 68 300 050/13 RMK AO2 SLP247 T00890033
94908KDBQ DBQ20101112135509211/12/10 13:55:31  5-MIN KDBQ 121955Z 06013KT 10SM CLR 09/03 A3024 780 68 300 050/13 RMK AO2
94908KDBQ DBQ20101112140009211/12/10 14:00:31  5-MIN KDBQ 122000Z 05013KT 10SM CLR 09/03 A3024 780 68 300 050/13 RMK AO2
94908KDBQ DBQ20101112140509211/12/10 14:05:31  5-MIN KDBQ 122005Z 05014KT 10SM CLR 09/03 A3023 790 68 300 050/14 RMK AO2
94908KDBQ DBQ20101112141009211/12/10 14:10:31  5-MIN KDBQ 122010Z 05014KT 10SM CLR 09/03 A3023 790 68 300 050/14 RMK AO2
94908KDBQ DBQ20101112141509211/12/10 14:15:31  5-MIN KDBQ 122015Z 05015KT 10SM CLR 09/03 A3023 790 68 300 050/15 RMK AO2
94908KDBQ DBQ20101112142009211/12/10 14:20:31  5-MIN KDBQ 122020Z 06012KT 10SM CLR 09/03 A3023 790 68 300 060/12 RMK AO2
94908KDBQ DBQ20101112142509211/12/10 14:25:31  5-MIN KDBQ 122025Z 05013KT 10SM CLR 09/03 A3024 790 68 300 050/13 RMK AO2
94908KDBQ DBQ20101112143009211/12/10 14:30:31  5-MIN KDBQ 122030Z 05014KT 10SM CLR 09/03 A3023 790 68 300 050/14 RMK AO2
94908KDBQ DBQ20101112143509211/12/10 14:35:31  5-MIN KDBQ 122035Z 07013KT 10SM CLR 09/03 A3023 790 68 300 070/13 RMK AO2
94908KDBQ DBQ20101112144009211/12/10 14:40:31  5-MIN KDBQ 122040Z 06011KT 10SM CLR 09/03 A3023 790 68 300 060/11 RMK AO2
94908KDBQ DBQ20101112144509211/12/10 14:45:31  5-MIN KDBQ 122045Z 06012KT 10SM CLR 09/03 A3023 800 68 300 060/12 RMK AO2
94908KDBQ DBQ20101112145011511/12/10 14:50:31  5-MIN KDBQ 122050Z 07011KT 10SM CLR 09/03 A3023 800 68 300 060/11 RMK AO2 SLP241 T00890033 58013
94908KDBQ DBQ20101112145509211/12/10 14:55:31  5-MIN KDBQ 122055Z 06012KT 10SM CLR 09/03 A3023 800 68 300 060/12 RMK AO2
94908KDBQ DBQ20101112150009211/12/10 15:00:31  5-MIN KDBQ 122100Z 07011KT 10SM CLR 09/03 A3022 800 68 300 070/11 RMK AO2
94908KDBQ DBQ20101112150509511/12/10 15:05:31  5-MIN KDBQ 122105Z 06011KT 10SM FEW070 09/03 A3022 810 68 300 060/11 RMK AO2
94908KDBQ DBQ20101112151009511/12/10 15:10:31  5-MIN KDBQ 122110Z 07013KT 10SM FEW070 09/03 A3022 810 68 300 070/13 RMK AO2
94908KDBQ DBQ20101112151509511/12/10 15:15:31  5-MIN KDBQ 122115Z 06013KT 10SM SCT065 09/04 A3021 810 71 300 060/13 RMK AO2
94908KDBQ DBQ20101112152013111/12/10 15:20:31  5-MIN KDBQ 122120Z 06015G20KT 10SM -RA SCT060 SCT075 SCT085 08/04 A3021 810 73 200 060/15G20 RMK AO2 RAB19 P0000
94908KDBQ DBQ20101112152512411/12/10 15:25:31  5-MIN KDBQ 122125Z 06012KT 9SM -RA SCT060 SCT075 BKN085 08/04 A3020 820 73 300 050/12 RMK AO2 RAB19 P0000
94908KDBQ DBQ20101112153012511/12/10 15:30:31  5-MIN KDBQ 122130Z 05011KT 10SM -RA SCT060 SCT070 BKN085 08/04 A3021 810 76 200 050/11 RMK AO2 RAB19 P0000
94908KDBQ DBQ20101112153512511/12/10 15:35:31  5-MIN KDBQ 122135Z 06013KT 10SM -RA SCT055 SCT070 BKN090 08/04 A3021 810 76 200 060/13 RMK AO2 RAB19 P0001
94908KDBQ DBQ20101112154011711/12/10 15:40:31  5-MIN KDBQ 122140Z 05014KT 10SM SCT060 OVC090 08/04 A3020 820 76 300 050/14 RMK AO2 RAB19E40 P0001
94908KDBQ DBQ20101112154511711/12/10 15:45:31  5-MIN KDBQ 122145Z 06012KT 10SM FEW055 OVC090 08/04 A3020 820 76 300 060/12 RMK AO2 RAB19E40 P0001
94908KDBQ DBQ20101112155013411/12/10 15:50:31  5-MIN KDBQ 122150Z 06011KT 10SM FEW055 BKN090 08/04 A3020 820 76 300 060/11 RMK AO2 RAB19E40 SLP233 P0001 T00830044
94908KDBQ DBQ20101112155510811/12/10 15:55:31  5-MIN KDBQ 122155Z 06013G18KT 10SM FEW060 BKN090 08/04 A3019 830 76 300 060/13G18 RMK AO2
94908KDBQ DBQ20101112160009511/12/10 16:00:31  5-MIN KDBQ 122200Z 06011KT 10SM BKN090 08/04 A3019 830 76 300 050/11 RMK AO2
94908KDBQ DBQ20101112160510211/12/10 16:05:31  5-MIN KDBQ 122205Z 06013KT 10SM SCT090 BKN100 08/04 A3019 830 76 300 060/13 RMK AO2
94908KDBQ DBQ20101112161010211/12/10 16:10:31  5-MIN KDBQ 122210Z 06013KT 10SM FEW075 SCT095 08/04 A3018 840 76 300 060/13 RMK AO2
94908KDBQ DBQ20101112161510211/12/10 16:15:31  5-MIN KDBQ 122215Z 06013KT 10SM FEW075 BKN100 08/04 A3019 830 76 300 060/13 RMK AO2
94908KDBQ DBQ20101112162010811/12/10 16:20:31  5-MIN KDBQ 122220Z 06012G19KT 10SM FEW075 BKN100 08/04 A3018 830 76 300 050/12G19 RMK AO2
94908KDBQ DBQ20101112162509511/12/10 16:25:31  5-MIN KDBQ 122225Z 05013KT 10SM BKN095 08/04 A3018 840 76 300 050/13 RMK AO2
94908KDBQ DBQ20101112163010111/12/10 16:30:31  5-MIN KDBQ 122230Z 06014G19KT 10SM BKN090 08/04 A3018 840 76 300 050/14G19 RMK AO2
94908KDBQ DBQ20101112163510111/12/10 16:35:31  5-MIN KDBQ 122235Z 06016G20KT 10SM OVC090 08/04 A3018 840 79 200 060/16G20 RMK AO2
94908KDBQ DBQ20101112164010111/12/10 16:40:31  5-MIN KDBQ 122240Z 06015G22KT 10SM OVC090 08/04 A3017 840 79 200 060/15G22 RMK AO2
94908KDBQ DBQ20101112164510111/12/10 16:45:31  5-MIN KDBQ 122245Z 06013G22KT 10SM OVC090 08/04 A3018 840 76 200 060/13G22 RMK AO2
94908KDBQ DBQ20101112165011911/12/10 16:50:31  5-MIN KDBQ 122250Z 05013KT 10SM BKN080 OVC100 08/04 A3019 830 76 200 050/13 RMK AO2 SLP229 T00780039
94908KDBQ DBQ20101112165509511/12/10 16:55:31  5-MIN KDBQ 122255Z 05014KT 10SM OVC080 08/04 A3018 840 76 200 050/14 RMK AO2
94908KDBQ DBQ20101112170009511/12/10 17:00:31  5-MIN KDBQ 122300Z 06013KT 10SM OVC080 08/04 A3018 840 76 200 050/13 RMK AO2
94908KDBQ DBQ20101112170509511/12/10 17:05:31  5-MIN KDBQ 122305Z 05012KT 10SM OVC080 08/04 A3018 840 76 200 050/12 RMK AO2
94908KDBQ DBQ20101112171010111/12/10 17:10:31  5-MIN KDBQ 122310Z 05013G19KT 10SM OVC075 08/04 A3018 840 76 200 040/13G19 RMK AO2
94908KDBQ DBQ20101112171509511/12/10 17:15:31  5-MIN KDBQ 122315Z 05013KT 10SM OVC075 08/04 A3018 840 76 200 050/13 RMK AO2
94908KDBQ DBQ20101112172010111/12/10 17:20:31  5-MIN KDBQ 122320Z 05014G19KT 10SM OVC075 08/04 A3018 840 76 200 050/14G19 RMK AO2
94908KDBQ DBQ20101112172510111/12/10 17:25:31  5-MIN KDBQ 122325Z 05016G20KT 10SM OVC075 08/04 A3018 830 76 200 050/16G20 RMK AO2
94908KDBQ DBQ20101112173009511/12/10 17:30:31  5-MIN KDBQ 122330Z 05013KT 10SM OVC075 08/04 A3019 830 76 200 040/13 RMK AO2
94908KDBQ DBQ20101112173509511/12/10 17:35:31  5-MIN KDBQ 122335Z 05015KT 10SM OVC070 08/04 A3019 830 76 200 040/15 RMK AO2
94908KDBQ DBQ20101112174009511/12/10 17:40:31  5-MIN KDBQ 122340Z 05016KT 10SM OVC070 08/04 A3019 830 76 200 050/16 RMK AO2
94908KDBQ DBQ20101112174509511/12/10 17:45:31  5-MIN KDBQ 122345Z 04014KT 10SM OVC070 08/04 A3019 830 76 200 040/14 RMK AO2
94908KDBQ DBQ20101112175013611/12/10 17:50:31  5-MIN KDBQ 122350Z 04015KT 10SM OVC070 08/04 A3019 830 76 200 040/15 RMK AO2 SLP230 60001 T00780039 10089 20078 56029
94908KDBQ DBQ20101112175509511/12/10 17:55:31  5-MIN KDBQ 122355Z 05015KT 10SM OVC070 08/04 A3019 830 76 200 050/15 RMK AO2
94908KDBQ DBQ20101112180009511/12/10 18:00:31  5-MIN KDBQ 130000Z 04015KT 10SM OVC070 08/04 A3019 830 76 200 040/15 RMK AO2
94908KDBQ DBQ20101112180510111/12/10 18:05:31  5-MIN KDBQ 130005Z 04012G20KT 10SM OVC070 08/04 A3019 830 76 200 040/12G20 RMK AO2
94908KDBQ DBQ20101112181010111/12/10 18:10:31  5-MIN KDBQ 130010Z 04012G20KT 10SM OVC065 07/04 A3018 830 79 100 040/12G20 RMK AO2
94908KDBQ DBQ20101112181510111/12/10 18:15:31  5-MIN KDBQ 130015Z 04015G20KT 10SM OVC065 07/04 A3018 840 79 100 030/15G20 RMK AO2
94908KDBQ DBQ20101112182010111/12/10 18:20:31  5-MIN KDBQ 130020Z 04014G20KT 10SM OVC065 07/04 A3018 840 79 100 030/14G20 RMK AO2
94908KDBQ DBQ20101112182509511/12/10 18:25:31  5-MIN KDBQ 130025Z 04015KT 10SM OVC065 07/04 A3018 840 79 100 040/15 RMK AO2
94908KDBQ DBQ20101112183009511/12/10 18:30:31  5-MIN KDBQ 130030Z 04015KT 10SM OVC065 07/04 A3018 840 79 100 040/15 RMK AO2
94908KDBQ DBQ20101112183509511/12/10 18:35:31  5-MIN KDBQ 130035Z 04014KT 10SM OVC060 07/04 A3019 830 79 100 040/14 RMK AO2
94908KDBQ DBQ20101112184009511/12/10 18:40:31  5-MIN KDBQ 130040Z 04014KT 10SM OVC060 07/04 A3018 840 79 100 030/14 RMK AO2
94908KDBQ DBQ20101112184509511/12/10 18:45:31  5-MIN KDBQ 130045Z 04015KT 10SM OVC060 07/04 A3019 830 79 100 040/15 RMK AO2
94908KDBQ DBQ20101112185011211/12/10 18:50:31  5-MIN KDBQ 130050Z 04015KT 10SM OVC060 07/04 A3019 830 79 100 040/15 RMK AO2 SLP229 T00720039
94908KDBQ DBQ20101112185509511/12/10 18:55:31  5-MIN KDBQ 130055Z 04014KT 10SM OVC060 07/04 A3018 830 79 100 040/14 RMK AO2
94908KDBQ DBQ20101112190009511/12/10 19:00:31  5-MIN KDBQ 130100Z 04016KT 10SM OVC060 07/04 A3018 840 79 100 040/16 RMK AO2
94908KDBQ DBQ20101112190509511/12/10 19:05:31  5-MIN KDBQ 130105Z 04016KT 10SM OVC060 07/04 A3018 840 79 100 040/16 RMK AO2
94908KDBQ DBQ20101112191009511/12/10 19:10:31  5-MIN KDBQ 130110Z 04016KT 10SM OVC060 07/04 A3018 840 79 100 040/16 RMK AO2
94908KDBQ DBQ20101112191509511/12/10 19:15:31  5-MIN KDBQ 130115Z 04016KT 10SM OVC065 07/04 A3017 850 79 200 040/16 RMK AO2
94908KDBQ DBQ20101112192010111/12/10 19:20:31  5-MIN KDBQ 130120Z 04016G23KT 10SM OVC065 07/04 A3017 850 82 100 040/16G23 RMK AO2
94908KDBQ DBQ20101112192510111/12/10 19:25:31  5-MIN KDBQ 130125Z 04016G23KT 10SM OVC065 07/04 A3017 850 79 200 040/16G23 RMK AO2
94908KDBQ DBQ20101112193010111/12/10 19:30:31  5-MIN KDBQ 130130Z 04015G22KT 10SM OVC065 07/04 A3017 850 82 100 040/15G22 RMK AO2
94908KDBQ DBQ20101112193509511/12/10 19:35:31  5-MIN KDBQ 130135Z 04016KT 10SM OVC065 07/04 A3017 850 82 100 040/16 RMK AO2
94908KDBQ DBQ20101112194009511/12/10 19:40:31  5-MIN KDBQ 130140Z 04016KT 10SM OVC065 07/04 A3017 850 82 100 040/16 RMK AO2
94908KDBQ DBQ20101112194509511/12/10 19:45:31  5-MIN KDBQ 130145Z 04017KT 10SM OVC065 07/04 A3017 850 82 100 040/17 RMK AO2
94908KDBQ DBQ20101112195011211/12/10 19:50:31  5-MIN KDBQ 130150Z 04015KT 10SM OVC065 07/04 A3017 850 82 100 040/15 RMK AO2 SLP223 T00670039
94908KDBQ DBQ20101112195509511/12/10 19:55:31  5-MIN KDBQ 130155Z 04015KT 10SM OVC070 07/04 A3017 850 82 100 040/15 RMK AO2
94908KDBQ DBQ20101112200010611/12/10 20:00:31  5-MIN KDBQ 130200Z AUTO 04013G20KT 10SM OVC070 07/04 A3017 850 82 100 040/13G20 RMK AO2
94908KDBQ DBQ20101112200510611/12/10 20:05:31  5-MIN KDBQ 130205Z AUTO 04014G20KT 10SM OVC070 07/04 A3017 850 82 100 040/14G20 RMK AO2
94908KDBQ DBQ20101112201010611/12/10 20:10:31  5-MIN KDBQ 130210Z AUTO 04014G20KT 10SM OVC070 07/04 A3016 850 82 100 040/14G20 RMK AO2
94908KDBQ DBQ20101112201510011/12/10 20:15:31  5-MIN KDBQ 130215Z AUTO 04014KT 10SM OVC070 07/03 A3016 850 79 100 040/14 RMK AO2
94908KDBQ DBQ20101112202010011/12/10 20:20:31  5-MIN KDBQ 130220Z AUTO 05014KT 10SM OVC070 07/04 A3016 860 82 100 050/14 RMK AO2
94908KDBQ DBQ20101112202510411/12/10 20:25:31  5-MIN KDBQ 130225Z AUTO 05015G20KT 10SM OVC070 06/04 A3015 860 86 0 050/15G20 RMK AO2
94908KDBQ DBQ20101112203009811/12/10 20:30:31  5-MIN KDBQ 130230Z AUTO 05013KT 10SM OVC070 06/03 A3016 860 82 0 040/13 RMK AO2
94908KDBQ DBQ20101112203510011/12/10 20:35:31  5-MIN KDBQ 130235Z AUTO 05015KT 10SM OVC070 07/03 A3016 860 79 100 050/15 RMK AO2
94908KDBQ DBQ20101112204010011/12/10 20:40:31  5-MIN KDBQ 130240Z AUTO 05014KT 10SM OVC070 07/03 A3016 860 79 100 050/14 RMK AO2
94908KDBQ DBQ20101112204510011/12/10 20:45:31  5-MIN KDBQ 130245Z AUTO 05014KT 10SM OVC065 07/03 A3016 860 79 100 050/14 RMK AO2
94908KDBQ DBQ20101112205013611/12/10 20:50:31  5-MIN KDBQ 130250Z AUTO 06010G18KT 10SM BKN065 OVC085 07/03 A3016 860 79 100 060/10G18 RMK AO2 SLP221 T00670033 55013
94908KDBQ DBQ20101112205510711/12/10 20:55:31  5-MIN KDBQ 130255Z AUTO 06011KT 10SM BKN065 OVC085 07/03 A3017 850 79 100 050/11 RMK AO2
94908KDBQ DBQ20101112210010711/12/10 21:00:31  5-MIN KDBQ 130300Z AUTO 05010KT 10SM BKN065 OVC080 07/03 A3018 840 79 100 050/10 RMK AO2
94908KDBQ DBQ20101112210510611/12/10 21:05:31  5-MIN KDBQ 130305Z AUTO 05015G19KT 10SM OVC065 07/03 A3017 850 79 100 050/15G19 RMK AO2
94908KDBQ DBQ20101112211010011/12/10 21:10:31  5-MIN KDBQ 130310Z AUTO 05014KT 10SM OVC060 07/03 A3016 850 76 100 050/14 RMK AO2
94908KDBQ DBQ20101112211510611/12/10 21:15:31  5-MIN KDBQ 130315Z AUTO 06011G19KT 10SM OVC060 07/03 A3016 850 76 100 060/11G19 RMK AO2
94908KDBQ DBQ20101112212010611/12/10 21:20:31  5-MIN KDBQ 130320Z AUTO 05015G20KT 10SM OVC060 07/03 A3016 860 76 100 050/15G20 RMK AO2
94908KDBQ DBQ20101112212510611/12/10 21:25:31  5-MIN KDBQ 130325Z AUTO 05015G21KT 10SM OVC060 07/03 A3015 870 76 100 040/15G21 RMK AO2
94908KDBQ DBQ20101112213010611/12/10 21:30:31  5-MIN KDBQ 130330Z AUTO 05016G22KT 10SM OVC060 07/03 A3015 870 76 100 050/16G22 RMK AO2
94908KDBQ DBQ20101112213510711/12/10 21:35:31  5-MIN KDBQ 130335Z AUTO 05016KT 10SM OVC060 07/03 A3014 880 76 100 050/16 RMK AO2 PRESFR
94908KDBQ DBQ20101112214010611/12/10 21:40:31  5-MIN KDBQ 130340Z AUTO 05019G23KT 10SM OVC065 07/03 A3014 880 76 100 050/19G23 RMK AO2
94908KDBQ DBQ20101112214510611/12/10 21:45:31  5-MIN KDBQ 130345Z AUTO 05019G25KT 10SM OVC065 07/03 A3013 880 76 100 050/19G25 RMK AO2
94908KDBQ DBQ20101112215013811/12/10 21:50:31  5-MIN KDBQ 130350Z AUTO 05020G25KT 9SM -RA OVC065 06/03 A3013 890 79 100 050/20G25 RMK AO2 RAB46 SLP209 P0000 T00610028
94908KDBQ DBQ20101112215511511/12/10 21:55:31  5-MIN KDBQ 130355Z AUTO 06020G25KT 7SM -RA OVC065 06/03 A3012 890 82 100 050/20G25 RMK AO2 P0000
94908KDBQ DBQ20101112220011511/12/10 22:00:31  5-MIN KDBQ 130400Z AUTO 06019G25KT 7SM -RA OVC065 06/03 A3013 890 82 100 060/19G25 RMK AO2 P0000
94908KDBQ DBQ20101112220512211/12/10 22:05:31  5-MIN KDBQ 130405Z AUTO 06015G23KT 8SM -RA BKN065 OVC085 06/03 A3012 890 82 100 060/15G23 RMK AO2 P0001
94908KDBQ DBQ20101112221011611/12/10 22:10:31  5-MIN KDBQ 130410Z AUTO 05017KT 8SM -RA BKN065 OVC085 06/03 A3012 890 82 100 050/17 RMK AO2 P0001
94908KDBQ DBQ20101112221512011/12/10 22:15:31  5-MIN KDBQ 130415Z AUTO 06017G25KT 8SM -RA BKN060 OVC085 06/03 A3012 890 85 0 060/17G25 RMK AO2 P0001
94908KDBQ DBQ20101112222012011/12/10 22:20:31  5-MIN KDBQ 130420Z AUTO 06016G25KT 8SM -RA BKN060 OVC085 06/03 A3012 900 85 0 060/16G25 RMK AO2 P0002
94908KDBQ DBQ20101112222512711/12/10 22:25:31  5-MIN KDBQ 130425Z AUTO 05013G22KT 9SM -RA SCT060 BKN080 OVC090 06/03 A3013 880 85 0 050/13G22 RMK AO2 P0002
94908KDBQ DBQ20101112223012111/12/10 22:30:31  5-MIN KDBQ 130430Z AUTO 05012KT 7SM -RA BKN060 OVC080 06/03 A3015 860 85 0 050/12 RMK AO2 PRESRR P0002
94908KDBQ DBQ20101112223513011/12/10 22:35:31  5-MIN KDBQ 130435Z AUTO 05009KT 6SM RA BR BKN060 BKN075 OVC090 06/03 A3017 850 85 0 050/09 RMK AO2 PRESRR P0003
94908KDBQ DBQ20101112224011611/12/10 22:40:31  5-MIN KDBQ 130440Z AUTO 04006KT 5SM RA BR BKN060 OVC075 06/03 A3016 850 85 0 040/06 RMK AO2 P0004
94908KDBQ DBQ20101112224511611/12/10 22:45:31  5-MIN KDBQ 130445Z AUTO 03008KT 6SM RA BR BKN060 OVC075 06/04 A3016 850 89 0 030/08 RMK AO2 P0005
94908KDBQ DBQ20101112225012411/12/10 22:50:31  5-MIN KDBQ 130450Z AUTO 05011KT 7SM -RA OVC060 06/03 A3016 860 85 0 050/11 RMK AO2 SLP220 P0005 T00560033
94908KDBQ DBQ20101112225511411/12/10 22:55:31  5-MIN KDBQ 130455Z AUTO 05011KT 9SM -RA BKN060 OVC070 05/03 A3015 860 89 0 050/11 RMK AO2 P0000
94908KDBQ DBQ20101112230011011/12/10 23:00:31  5-MIN KDBQ 130500Z AUTO 05012KT 10SM OVC065 05/03 A3015 870 89 0 050/12 RMK AO2 RAE00 P0001
94908KDBQ DBQ20101112230511511/12/10 23:05:31  5-MIN KDBQ 130505Z AUTO 05014KT 10SM -RA OVC070 05/03 A3014 880 89 0 050/14 RMK AO2 PRESFR P0001
94908KDBQ DBQ20101112231012211/12/10 23:10:31  5-MIN KDBQ 130510Z AUTO 05014KT 10SM -RA SCT060 OVC075 05/03 A3013 890 89 0 050/14 RMK AO2 PRESFR P0001
94908KDBQ DBQ20101112231512411/12/10 23:15:31  5-MIN KDBQ 130515Z AUTO 05016KT 10SM FEW060 OVC075 05/03 A3011 900 89 0 050/16 RMK AO2 RAE12 PRESFR P0001
94908KDBQ DBQ20101112232011011/12/10 23:20:31  5-MIN KDBQ 130520Z AUTO 06016KT 10SM OVC075 05/03 A3011 900 89 0 060/16 RMK AO2 RAE12 P0001
94908KDBQ DBQ20101112232511711/12/10 23:25:31  5-MIN KDBQ 130525Z AUTO 06019KT 10SM OVC075 05/03 A3010 910 89 0 060/19 RMK AO2 RAE12 PRESFR P0001
94908KDBQ DBQ20101112233011711/12/10 23:30:31  5-MIN KDBQ 130530Z AUTO 06017KT 10SM OVC080 05/03 A3009 920 89 0 050/17 RMK AO2 RAE12 PRESFR P0001
94908KDBQ DBQ20101112233511611/12/10 23:35:31  5-MIN KDBQ 130535Z AUTO 06019G24KT 10SM OVC080 05/03 A3009 920 89 0 060/19G24 RMK AO2 RAE12 P0001
94908KDBQ DBQ20101112234012311/12/10 23:40:31  5-MIN KDBQ 130540Z AUTO 06015G24KT 10SM -RA OVC080 05/03 A3009 920 89 0 060/15G24 RMK AO2 RAE12B38 P0001
94908KDBQ DBQ20101112234511711/12/10 23:45:31  5-MIN KDBQ 130545Z AUTO 06016KT 10SM -RA OVC080 05/03 A3009 920 85 0 060/16 RMK AO2 RAE12B38 P0001
94908KDBQ DBQ20101112235016711/12/10 23:50:31  5-MIN KDBQ 130550Z AUTO 06015KT 10SM OVC080 05/03 A3009 920 85 0 060/15 RMK AO2 RAE12B38E49 SLP196 P0001 60006 T00500028 10078 20050 400890050 58008
94908KDBQ DBQ20101112235510411/12/10 23:55:31  5-MIN KDBQ 130555Z AUTO 06015G22KT 10SM OVC080 05/03 A3009 920 85 0 060/15G22 RMK AO2
94908KDBQ DBQ20101113000012011/13/10 00:00:38  5-MIN KDBQ 130600Z AUTO 06016G21KT 10SM -RA OVC075 05/03 A3009 930 85 0 060/16G21 RMK AO2 RAB00 P0000
94908KDBQ DBQ20101113000511911/13/10 00:05:31  5-MIN KDBQ 130605Z AUTO 06018G22KT 9SM -RA OVC075 05/03 A3008 930 85 0 060/18G22 RMK AO2 RAB00 P0000
94908KDBQ DBQ20101113001013311/13/10 00:10:31  5-MIN KDBQ 130610Z AUTO 07016G22KT 8SM -RA FEW055 BKN070 OVC085 04/03 A3008 930 89 0 070/16G22 RMK AO2 RAB00 P0000
94908KDBQ DBQ20101113001513311/13/10 00:15:32  5-MIN KDBQ 130615Z AUTO 06018G25KT 7SM -RA FEW055 BKN070 OVC085 04/03 A3007 940 89 0 060/18G25 RMK AO2 RAB00 P0001
94908KDBQ DBQ20101113002013311/13/10 00:20:31  5-MIN KDBQ 130620Z AUTO 06015G25KT 7SM -RA FEW055 BKN070 OVC085 04/03 A3007 940 89 0 060/15G25 RMK AO2 RAB00 P0001
94908KDBQ DBQ20101113002512011/13/10 00:25:31  5-MIN KDBQ 130625Z AUTO 06014KT 8SM -RA FEW055 OVC080 04/03 A3007 940 89 0 060/14 RMK AO2 RAB00 P0002
94908KDBQ DBQ20101113003012011/13/10 00:30:31  5-MIN KDBQ 130630Z AUTO 07014KT 8SM -RA FEW055 OVC080 04/03 A3007 940 89 0 070/14 RMK AO2 RAB00 P0002
94908KDBQ DBQ20101113003512011/13/10 00:35:31  5-MIN KDBQ 130635Z AUTO 07013KT 9SM -RA SCT060 OVC080 04/03 A3008 930 89 0 070/13 RMK AO2 RAB00 P0002
94908KDBQ DBQ20101113004012011/13/10 00:40:31  5-MIN KDBQ 130640Z AUTO 07015KT 10SM BKN065 OVC080 04/03 A3008 940 92 0 070/15 RMK AO2 RAB00E40 P0002
94908KDBQ DBQ20101113004512011/13/10 00:45:31  5-MIN KDBQ 130645Z AUTO 07015KT 9SM -RA BKN065 OVC080 04/03 A3008 940 92 0 070/15 RMK AO2 RAB00 P0002
94908KDBQ DBQ20101113005013711/13/10 00:50:31  5-MIN KDBQ 130650Z AUTO 07015KT 7SM -RA BKN060 OVC080 04/03 A3007 940 92 0 070/15 RMK AO2 RAB00 SLP190 P0002 T00440033
94908KDBQ DBQ20101113005511011/13/10 00:55:31  5-MIN KDBQ 130655Z AUTO 07016KT 6SM -RA BR OVC060 04/04 A3007 940 96 0 070/16 RMK AO2 P0000
94908KDBQ DBQ20101113010011311/13/10 01:00:31  5-MIN KDBQ 130700Z AUTO 07015G21KT 7SM -RA OVC060 04/04 A3007 940 96 0 070/15G21 RMK AO2 P0000
94908KDBQ DBQ20101113010510611/13/10 01:05:31  5-MIN KDBQ 130705Z AUTO 07014KT 7SM RA OVC060 04/04 A3006 950 96 0 070/14 RMK AO2 P0000
94908KDBQ DBQ20101113011011711/13/10 01:10:31  5-MIN KDBQ 130710Z AUTO 07015KT 5SM RA BR BKN065 OVC080 04/04 A3006 950 100 0 070/15 RMK AO2 P0001
94908KDBQ DBQ20101113011512411/13/10 01:15:31  5-MIN KDBQ 130715Z AUTO 06014KT 5SM RA BR FEW044 BKN060 OVC075 04/04 A3005 960 100 0 060/14 RMK AO2 P0003
94908KDBQ DBQ20101113012012411/13/10 01:20:31  5-MIN KDBQ 130720Z AUTO 06013KT 6SM -RA BR FEW046 BKN060 OVC075 04/04 A3005 960 96 0 050/13 RMK AO2 P0004
94908KDBQ DBQ20101113012513011/13/10 01:25:31  5-MIN KDBQ 130725Z AUTO 05013G18KT 6SM -RA BR FEW046 BKN060 OVC075 04/04 A3004 960 96 0 050/13G18 RMK AO2 P0004
94908KDBQ DBQ20101113013012711/13/10 01:30:31  5-MIN KDBQ 130730Z AUTO 05015G18KT 7SM -RA FEW046 BKN060 OVC075 04/04 A3004 970 96 0 050/15G18 RMK AO2 P0005
94908KDBQ DBQ20101113013512111/13/10 01:35:31  5-MIN KDBQ 130735Z AUTO 05012KT 7SM -RA FEW046 BKN060 OVC075 04/04 A3003 970 96 0 050/12 RMK AO2 P0005
94908KDBQ DBQ20101113014011411/13/10 01:40:31  5-MIN KDBQ 130740Z AUTO 05014KT 8SM -RA FEW050 OVC065 04/04 A3003 970 96 0 050/14 RMK AO2 P0005
94908KDBQ DBQ20101113014510711/13/10 01:45:31  5-MIN KDBQ 130745Z AUTO 05013KT 9SM -RA OVC060 04/04 A3003 980 96 0 050/13 RMK AO2 P0005
94908KDBQ DBQ20101113015012911/13/10 01:50:31  5-MIN KDBQ 130750Z AUTO 05015KT 10SM OVC065 05/04 A3002 980 92 100 050/15 RMK AO2 RAE48 SLP173 P0005 T00500039
94908KDBQ DBQ20101113015510011/13/10 01:55:31  5-MIN KDBQ 130755Z AUTO 05013KT 10SM OVC065 05/04 A3002 990 92 100 050/13 RMK AO2
94908KDBQ DBQ20101113020010711/13/10 02:00:31  5-MIN KDBQ 130800Z AUTO 05013KT 10SM BKN065 OVC075 05/04 A3001 990 92 100 050/13 RMK AO2
94908KDBQ DBQ20101113020510011/13/10 02:05:31  5-MIN KDBQ 130805Z AUTO 05014KT 9SM OVC070 05/04 A3001 1000 92 100 050/14 RMK AO2
94908KDBQ DBQ20101113021009911/13/10 02:10:31  5-MIN KDBQ 130810Z AUTO 06013KT 9SM OVC070 05/04 A3001 990 92 100 060/13 RMK AO2
94908KDBQ DBQ20101113021510011/13/10 02:15:31  5-MIN KDBQ 130815Z AUTO 06012KT 9SM OVC070 05/04 A3001 1000 92 100 050/12 RMK AO2
94908KDBQ DBQ20101113022010011/13/10 02:20:31  5-MIN KDBQ 130820Z AUTO 05013KT 9SM OVC070 05/04 A3000 1000 92 100 050/13 RMK AO2
94908KDBQ DBQ20101113022510011/13/10 02:25:31  5-MIN KDBQ 130825Z AUTO 06013KT 9SM OVC070 05/04 A3000 1000 92 100 050/13 RMK AO2
94908KDBQ DBQ20101113023010011/13/10 02:30:31  5-MIN KDBQ 130830Z AUTO 05011KT 8SM OVC070 05/04 A3000 1000 92 100 050/11 RMK AO2
94908KDBQ DBQ20101113023511611/13/10 02:35:31  5-MIN KDBQ 130835Z AUTO 06012KT 8SM -RA OVC070 05/04 A3000 1000 92 100 060/12 RMK AO2 RAB32 P0000
94908KDBQ DBQ20101113024011611/13/10 02:40:31  5-MIN KDBQ 130840Z AUTO 06013KT 7SM -RA OVC070 05/04 A2999 1010 92 100 060/13 RMK AO2 RAB32 P0001
94908KDBQ DBQ20101113024512511/13/10 02:45:31  5-MIN KDBQ 130845Z AUTO 06014KT 6SM RA BR OVC070 05/04 A2998 1020 92 100 060/14 RMK AO2 RAB32 PRESFR P0001
94908KDBQ DBQ20101113025014811/13/10 02:50:31  5-MIN KDBQ 130850Z AUTO 07014KT 6SM -RA BR OVC070 05/04 A2998 1020 96 100 060/14 RMK AO2 RAB32 SLP159 P0002 60010 T00500044 58025
94908KDBQ DBQ20101113025512311/13/10 02:55:31  5-MIN KDBQ 130855Z AUTO 07014G20KT 7SM -RA BKN065 OVC080 05/04 A2998 1020 96 100 070/14G20 RMK AO2 P0000
94908KDBQ DBQ20101113030011311/13/10 03:00:31  5-MIN KDBQ 130900Z AUTO 07014KT 6SM -RA BR OVC065 06/04 A2998 1030 92 200 070/14 RMK AO2 P0001
94908KDBQ DBQ20101113030511211/13/10 03:05:31  5-MIN KDBQ 130905Z AUTO 07015KT 5SM RA BR OVC065 06/04 A2997 1030 92 200 070/15 RMK AO2 P0001
94908KDBQ DBQ20101113031011911/13/10 03:10:31  5-MIN KDBQ 130910Z AUTO 07015G21KT 5SM -RA BR OVC065 06/04 A2996 1040 92 200 070/15G21 RMK AO2 P0002
94908KDBQ DBQ20101113031512611/13/10 03:15:31  5-MIN KDBQ 130915Z AUTO 07013G21KT 6SM -RA BR BKN065 OVC080 06/04 A2996 1040 92 200 070/13G21 RMK AO2 P0003
94908KDBQ DBQ20101113032012411/13/10 03:20:31  5-MIN KDBQ 130920Z AUTO 07014KT 7SM -RA FEW047 BKN065 OVC080 06/04 A2995 1050 92 200 070/14 RMK AO2 P0003
94908KDBQ DBQ20101113032512411/13/10 03:25:31  5-MIN KDBQ 130925Z AUTO 07013KT 7SM -RA SCT047 BKN070 OVC080 06/04 A2995 1050 92 200 070/13 RMK AO2 P0003
94908KDBQ DBQ20101113033012411/13/10 03:30:31  5-MIN KDBQ 130930Z AUTO 07014KT 7SM -RA SCT047 BKN065 OVC090 06/04 A2995 1050 92 200 070/14 RMK AO2 P0003
94908KDBQ DBQ20101113033512411/13/10 03:35:31  5-MIN KDBQ 130935Z AUTO 08012KT 7SM -RA BKN045 BKN065 OVC090 06/04 A2995 1050 92 200 080/12 RMK AO2 P0003
94908KDBQ DBQ20101113034012711/13/10 03:40:31  5-MIN KDBQ 130940Z AUTO 08014KT 6SM -RA BR BKN045 BKN060 OVC090 06/05 A2995 1050 96 200 080/14 RMK AO2 P0003
94908KDBQ DBQ20101113034512011/13/10 03:45:31  5-MIN KDBQ 130945Z AUTO 07012KT 6SM -RA BR BKN045 OVC095 06/05 A2993 1060 96 200 070/12 RMK AO2 P0004
94908KDBQ DBQ20101113035013011/13/10 03:50:31  5-MIN KDBQ 130950Z AUTO 08013KT 6SM -RA BR OVC043 06/05 A2994 1060 96 200 080/13 RMK AO2 SLP144 P0004 T00560050
94908KDBQ DBQ20101113035511011/13/10 03:55:31  5-MIN KDBQ 130955Z AUTO 07012KT 6SM BR BKN038 OVC046 06/05 A2993 1070 96 200 070/12 RMK AO2
94908KDBQ DBQ20101113040012811/13/10 04:00:31  5-MIN KDBQ 131000Z AUTO 08011KT 6SM -RA BR BKN036 OVC046 06/05 A2994 1060 96 200 080/11 RMK AO2 RAB0959 P0000
94908KDBQ DBQ20101113040512111/13/10 04:05:31  5-MIN KDBQ 131005Z AUTO 07011KT 6SM -RA BR OVC036 06/05 A2993 1070 93 300 070/11 RMK AO2 RAB0959 P0000
94908KDBQ DBQ20101113041012011/13/10 04:10:31  5-MIN KDBQ 131010Z AUTO 07010KT 6SM BR OVC036 06/05 A2992 1070 93 300 070/10 RMK AO2 RAB0959E08 P0000
94908KDBQ DBQ20101113041512011/13/10 04:15:31  5-MIN KDBQ 131015Z AUTO 07009KT 6SM BR OVC034 06/05 A2992 1080 93 300 070/09 RMK AO2 RAB0959E08 P0000
94908KDBQ DBQ20101113042012011/13/10 04:20:31  5-MIN KDBQ 131020Z AUTO 07010KT 6SM BR OVC032 06/05 A2991 1090 93 300 070/10 RMK AO2 RAB0959E08 P0000
94908KDBQ DBQ20101113042512011/13/10 04:25:31  5-MIN KDBQ 131025Z AUTO 07010KT 6SM BR OVC032 06/06 A2991 1090 96 300 070/10 RMK AO2 RAB0959E08 P0000
94908KDBQ DBQ20101113043012011/13/10 04:30:31  5-MIN KDBQ 131030Z AUTO 08011KT 6SM BR OVC032 06/06 A2991 1090 96 300 080/11 RMK AO2 RAB0959E08 P0000
94908KDBQ DBQ20101113043512011/13/10 04:35:31  5-MIN KDBQ 131035Z AUTO 08010KT 6SM BR OVC032 06/06 A2991 1090 96 300 070/10 RMK AO2 RAB0959E08 P0000
94908KDBQ DBQ20101113044012711/13/10 04:40:31  5-MIN KDBQ 131040Z AUTO 08011KT 6SM BR FEW008 OVC032 06/06 A2990 1100 96 300 080/11 RMK AO2 RAB0959E08 P0000
94908KDBQ DBQ20101113044512711/13/10 04:45:31  5-MIN KDBQ 131045Z AUTO 08011KT 6SM BR FEW008 OVC032 07/06 A2990 1100 93 400 080/11 RMK AO2 RAB0959E08 P0000
94908KDBQ DBQ20101113045013711/13/10 04:50:31  5-MIN KDBQ 131050Z AUTO 09011KT 5SM BR OVC032 07/06 A2990 1100 93 400 090/11 RMK AO2 RAB0959E08 SLP130 P0000 T00670056
94908KDBQ DBQ20101113045510311/13/10 04:55:31  5-MIN KDBQ 131055Z AUTO 09011KT 5SM BR OVC032 07/06 A2989 1100 93 400 090/11 RMK AO2
94908KDBQ DBQ20101113050010311/13/10 05:00:31  5-MIN KDBQ 131100Z AUTO 09012KT 6SM BR OVC032 07/06 A2989 1110 93 400 090/12 RMK AO2
94908KDBQ DBQ20101113050510911/13/10 05:05:31  5-MIN KDBQ 131105Z AUTO 10013KT 6SM BR OVC032 07/06 A2989 1110 93 400 100/13 RMK AO2 P0001
94908KDBQ DBQ20101113051011611/13/10 05:10:31  5-MIN KDBQ 131110Z AUTO 09014KT 6SM BR OVC030 07/06 A2988 1120 89 500 090/14 RMK AO2 PRESFR P0001
94908KDBQ DBQ20101113051511611/13/10 05:15:31  5-MIN KDBQ 131115Z AUTO 09014KT 6SM BR OVC032 07/06 A2987 1130 89 500 090/14 RMK AO2 PRESFR P0001
94908KDBQ DBQ20101113052010911/13/10 05:20:31  5-MIN KDBQ 131120Z AUTO 09014KT 6SM BR OVC032 07/06 A2987 1130 93 500 090/14 RMK AO2 P0001
94908KDBQ DBQ20101113052510911/13/10 05:25:31  5-MIN KDBQ 131125Z AUTO 09013KT 6SM BR OVC032 07/06 A2986 1130 93 500 090/13 RMK AO2 P0001
94908KDBQ DBQ20101113053011611/13/10 05:30:31  5-MIN KDBQ 131130Z AUTO 09014KT 6SM BR SCT029 OVC035 07/06 A2985 1140 93 500 090/14 RMK AO2 P0001
94908KDBQ DBQ20101113053511611/13/10 05:35:31  5-MIN KDBQ 131135Z AUTO 09015KT 6SM BR BKN033 OVC041 07/06 A2985 1140 93 500 090/15 RMK AO2 P0001
94908KDBQ DBQ20101113054012211/13/10 05:40:31  5-MIN KDBQ 131140Z AUTO 09015G20KT 6SM BR BKN033 OVC041 07/06 A2985 1140 93 500 090/15G20 RMK AO2 P0001
94908KDBQ DBQ20101113054512211/13/10 05:45:31  5-MIN KDBQ 131145Z AUTO 09014G20KT 6SM BR BKN033 OVC041 07/06 A2985 1150 93 500 090/14G20 RMK AO2 P0001
94908KDBQ DBQ20101113055015811/13/10 05:50:31  5-MIN KDBQ 131150Z 10012KT 6SM BR BKN033 OVC041 07/06 A2984 1150 93 500 100/12 RMK AO2 SLP112 P0001 60015 70026 T00720061 10072 20044 58034
94908KDBQ DBQ20101113055510511/13/10 05:55:31  5-MIN KDBQ 131155Z 10013KT 6SM BR BKN033 OVC041 07/06 A2984 1150 93 500 090/13 RMK AO2
94908KDBQ DBQ20101113060010511/13/10 06:00:31  5-MIN KDBQ 131200Z 10014KT 6SM BR BKN033 OVC041 07/06 A2984 1160 93 500 100/14 RMK AO2
94908KDBQ DBQ20101113060510411/13/10 06:05:31  5-MIN KDBQ 131205Z 10015G20KT 6SM BR OVC035 07/06 A2983 1160 93 500 100/15G20 RMK AO2
94908KDBQ DBQ20101113061010411/13/10 06:10:31  5-MIN KDBQ 131210Z 10016G21KT 6SM BR OVC035 07/06 A2983 1160 93 500 100/16G21 RMK AO2
94908KDBQ DBQ20101113061512011/13/10 06:15:31  5-MIN KDBQ 131215Z 10015G21KT 6SM -RA BR OVC035 08/06 A2983 1160 89 600 100/15G21 RMK AO2 RAB12 P0000
94908KDBQ DBQ20101113062012011/13/10 06:20:31  5-MIN KDBQ 131220Z 10017G21KT 5SM -RA BR OVC035 08/06 A2983 1160 89 600 100/17G21 RMK AO2 RAB12 P0000
94908KDBQ DBQ20101113062511911/13/10 06:25:31  5-MIN KDBQ 131225Z 10015G21KT 4SM RA BR OVC035 07/06 A2983 1160 93 500 100/15G21 RMK AO2 RAB12 P0002
94908KDBQ DBQ20101113063011311/13/10 06:30:31  5-MIN KDBQ 131230Z 11014KT 3SM RA BR OVC037 08/06 A2983 1170 89 600 100/14 RMK AO2 RAB12 P0003
94908KDBQ DBQ20101113063511411/13/10 06:35:31  5-MIN KDBQ 131235Z 10014KT 4SM -RA BR OVC037 08/06 A2983 1160 89 600 100/14 RMK AO2 RAB12 P0004
94908KDBQ DBQ20101113064011311/13/10 06:40:31  5-MIN KDBQ 131240Z 10014KT 3SM RA BR OVC037 08/06 A2982 1170 89 600 100/14 RMK AO2 RAB12 P0005
94908KDBQ DBQ20101113064511411/13/10 06:45:31  5-MIN KDBQ 131245Z 10013KT 4SM -RA BR OVC037 08/06 A2982 1170 89 600 100/13 RMK AO2 RAB12 P0006
94908KDBQ DBQ20101113065013111/13/10 06:50:31  5-MIN KDBQ 131250Z 10013KT 5SM -RA BR OVC037 08/06 A2982 1170 89 600 100/13 RMK AO2 RAB12 SLP105 P0006 T00780061
94908KDBQ DBQ20101113065511311/13/10 06:55:31  5-MIN KDBQ 131255Z 10010G19KT 4SM RA BR OVC037 08/07 A2982 1170 93 600 100/10G19 RMK AO2 P0000
94908KDBQ DBQ20101113070010811/13/10 07:00:31  5-MIN KDBQ 131300Z 10013KT 4SM -RA BR OVC037 08/07 A2982 1170 93 600 100/13 RMK AO2 P0000
94908KDBQ DBQ20101113070511411/13/10 07:05:31  5-MIN KDBQ 131305Z 10013G18KT 5SM -RA BR OVC035 08/07 A2983 1170 93 600 100/13G18 RMK AO2 P0001
94908KDBQ DBQ20101113071011311/13/10 07:10:31  5-MIN KDBQ 131310Z 11014G21KT 4SM RA BR OVC035 08/07 A2982 1170 93 600 110/14G21 RMK AO2 P0002
94908KDBQ DBQ20101113071512111/13/10 07:15:31  5-MIN KDBQ 131315Z 10012G21KT 5SM -RA BR BKN028 OVC035 08/07 A2982 1170 93 600 100/12G21 RMK AO2 P0002
94908KDBQ DBQ20101113072012311/13/10 07:20:31  5-MIN KDBQ 131320Z 12011G19KT 6SM BR BKN026 OVC035 08/07 A2982 1170 93 600 120/11G19 RMK AO2 RAE19 P0002
94908KDBQ DBQ20101113072513011/13/10 07:25:31  5-MIN KDBQ 131325Z 11011G18KT 5SM BR BKN025 BKN030 OVC035 08/07 A2982 1170 93 600 110/11G18 RMK AO2 RAE19 P0002
94908KDBQ DBQ20101113073011711/13/10 07:30:31  5-MIN KDBQ 131330Z 11010KT 4SM BR BKN025 OVC030 08/07 A2983 1170 93 600 110/10 RMK AO2 RAE19 P0002
94908KDBQ DBQ20101113073511011/13/10 07:35:31  5-MIN KDBQ 131335Z 11011KT 3SM BR OVC025 08/07 A2982 1170 93 600 110/11 RMK AO2 RAE19 P0003
94908KDBQ DBQ20101113074011011/13/10 07:40:31  5-MIN KDBQ 131340Z 11010KT 3SM BR OVC025 08/07 A2982 1170 93 600 110/10 RMK AO2 RAE19 P0003
94908KDBQ DBQ20101113074511011/13/10 07:45:31  5-MIN KDBQ 131345Z 11011KT 3SM BR OVC023 08/07 A2982 1170 93 600 110/11 RMK AO2 RAE19 P0003
94908KDBQ DBQ20101113075011011/13/10 07:50:31  5-MIN KDBQ 131350Z 13010KT 2SM BR OVC023 08/07 A2982 1170 93 600 130/10 RMK AO2 RAE19 P0003
94908KDBQ DBQ20101113075510511/13/10 07:55:31  5-MIN KDBQ 131355Z 11010KT 2SM BR BKN020 OVC025 08/07 A2982 1170 93 600 110/10 RMK AO2
94908KDBQ DBQ20101113080010511/13/10 08:00:31  5-MIN KDBQ 131400Z 12011KT 2SM BR BKN020 OVC025 08/07 A2981 1180 96 600 120/11 RMK AO2
94908KDBQ DBQ20101113080510911/13/10 08:05:31  5-MIN KDBQ 131405Z 13010KT 2 1/2SM BR BKN018 OVC025 08/07 A2981 1180 96 600 130/10 RMK AO2
94908KDBQ DBQ20101113081010911/13/10 08:10:31  5-MIN KDBQ 131410Z 12010KT 2 1/2SM BR BKN018 OVC023 08/07 A2981 1180 93 700 120/10 RMK AO2
94908KDBQ DBQ20101113081510211/13/10 08:15:31  5-MIN KDBQ 131415Z 12011KT 2 1/2SM BR OVC018 08/07 A2981 1180 96 600 120/11 RMK AO2
94908KDBQ DBQ20101113082010211/13/10 08:20:31  5-MIN KDBQ 131420Z 12010KT 2 1/2SM BR OVC016 08/07 A2980 1190 93 700 120/10 RMK AO2
94908KDBQ DBQ20101113082510211/13/10 08:25:31  5-MIN KDBQ 131425Z 13010KT 2 1/2SM BR OVC014 08/07 A2980 1190 93 700 130/10 RMK AO2
94908KDBQ DBQ20101113083009811/13/10 08:30:31  5-MIN KDBQ 131430Z 13009KT 3SM BR OVC014 08/07 A2980 1190 93 700 130/09 RMK AO2
94908KDBQ DBQ20101113083509811/13/10 08:35:31  5-MIN KDBQ 131435Z 14010KT 3SM BR OVC014 08/07 A2980 1190 93 700 140/10 RMK AO2
94908KDBQ DBQ20101113084010211/13/10 08:40:31  5-MIN KDBQ 131440Z 14010KT 2 1/2SM BR OVC012 08/07 A2980 1190 93 700 140/10 RMK AO2
94908KDBQ DBQ20101113084512711/13/10 08:45:31  5-MIN KDBQ 131445Z 16014G21KT 2 1/2SM BR BKN009 OVC014 08/08 A2980 1190 96 700 150/14G21 RMK AO2 CIG 006V011
94908KDBQ DBQ20101113085014111/13/10 08:50:31  5-MIN KDBQ 131450Z 22018G26KT 3SM BR FEW003 OVC009 08/07 A2980 1190 96 600 220/18G26 RMK AO2 PK WND 19026/1447 CIG 005V012
94908KDBQ DBQ20101113085513411/13/10 08:55:31  5-MIN KDBQ 131455Z 21017G26KT 4SM BR SCT003 OVC009 07/06 A2980 1190 96 500 210/17G26 RMK AO2 WSHFT 1440 CIG 005V013
94908KDBQ DBQ20101113090012211/13/10 09:00:31  5-MIN KDBQ 131500Z 21015G21KT 5SM BR BKN003 OVC009 06/06 A2980 1190 96 400 210/15G21 RMK AO2 WSHFT 1440
94908KDBQ DBQ20101113090513411/13/10 09:05:31  5-MIN KDBQ 131505Z 20017G22KT 5SM BR BKN003 OVC007 06/06 A2980 1190 96 400 200/17G22 RMK AO2 WSHFT 1440 CIG 002V006
94908KDBQ DBQ20101113091011511/13/10 09:10:31  5-MIN KDBQ 131510Z 20017G22KT 6SM BR OVC003 06/06 A2980 1190 96 400 200/17G22 RMK AO2 WSHFT 1440
94908KDBQ DBQ20101113091510911/13/10 09:15:31  5-MIN KDBQ 131515Z 20014KT 6SM BR OVC003 06/06 A2980 1190 96 400 200/14 RMK AO2 WSHFT 1440
94908KDBQ DBQ20101113092010611/13/10 09:20:31  5-MIN KDBQ 131520Z 20018KT 7SM OVC003 06/05 A2980 1190 96 400 200/18 RMK AO2 WSHFT 1440
94908KDBQ DBQ20101113092511811/13/10 09:25:31  5-MIN KDBQ 131525Z 20018KT 8SM OVC003 06/04 A2980 1190 92 400 200/18 RMK AO2 WSHFT 1440 CIG 002V006
94908KDBQ DBQ20101113093011911/13/10 09:30:31  5-MIN KDBQ 131530Z 20016KT 10SM OVC003 05/04 A2980 1190 96 300 200/16 RMK AO2 WSHFT 1440 CIG 002V007
94908KDBQ DBQ20101113093512411/13/10 09:35:31  5-MIN KDBQ 131535Z 21015G23KT 9SM OVC005 05/04 A2980 1190 96 300 210/15G23 RMK AO2 WSHFT 1440 CIG 003V008
94908KDBQ DBQ20101113094012411/13/10 09:40:31  5-MIN KDBQ 131540Z 21014G23KT 8SM OVC005 05/04 A2980 1190 92 300 210/14G23 RMK AO2 WSHFT 1440 CIG 003V008
94908KDBQ DBQ20101113094511811/13/10 09:45:31  5-MIN KDBQ 131545Z 20015KT 9SM OVC005 05/04 A2980 1190 92 300 200/15 RMK AO2 WSHFT 1440 CIG 003V008
94908KDBQ DBQ20101113095013011/13/10 09:50:31  5-MIN KDBQ 131550Z 21017G22KT 10SM OVC005 05/04 A2980 1190 92 300 200/17G22 RMK AO2 WSHFT 1440 SLP097 T00500039
94908KDBQ DBQ20101113095510211/13/10 09:55:31  5-MIN KDBQ 131555Z 21014G22KT 10SM OVC005 05/04 A2980 1190 92 300 200/14G22 RMK AO2
94908KDBQ DBQ20101113100009611/13/10 10:00:31  5-MIN KDBQ 131600Z 21014KT 10SM OVC005 05/04 A2980 1190 92 300 210/14 RMK AO2
94908KDBQ DBQ20101113100509611/13/10 10:05:31  5-MIN KDBQ 131605Z 20014KT 10SM OVC007 05/04 A2980 1190 92 300 200/14 RMK AO2
94908KDBQ DBQ20101113101010211/13/10 10:10:31  5-MIN KDBQ 131610Z 21018G23KT 10SM OVC007 05/04 A2980 1190 92 300 200/18G23 RMK AO2
94908KDBQ DBQ20101113101510211/13/10 10:15:31  5-MIN KDBQ 131615Z 20018G23KT 10SM OVC007 05/04 A2980 1190 92 300 200/18G23 RMK AO2
94908KDBQ DBQ20101113102009611/13/10 10:20:31  5-MIN KDBQ 131620Z 20016KT 10SM OVC007 05/04 A2980 1190 92 300 200/16 RMK AO2
94908KDBQ DBQ20101113102510211/13/10 10:25:31  5-MIN KDBQ 131625Z 20018G22KT 10SM OVC007 05/04 A2980 1190 92 300 200/18G22 RMK AO2
94908KDBQ DBQ20101113103011411/13/10 10:30:31  5-MIN KDBQ 131630Z 20015G22KT 10SM OVC007 05/03 A2980 1190 89 300 200/15G22 RMK AO2 CIG 007V010
94908KDBQ DBQ20101113103511411/13/10 10:35:31  5-MIN KDBQ 131635Z 21015G20KT 10SM OVC007 05/03 A2980 1190 89 300 210/15G20 RMK AO2 CIG 007V012
94908KDBQ DBQ20101113104011411/13/10 10:40:31  5-MIN KDBQ 131640Z 21017G21KT 10SM OVC007 05/03 A2979 1200 89 300 210/17G21 RMK AO2 CIG 007V012
94908KDBQ DBQ20101113104511411/13/10 10:45:31  5-MIN KDBQ 131645Z 20017G23KT 10SM OVC007 04/03 A2979 1200 92 200 200/17G23 RMK AO2 CIG 007V012
94908KDBQ DBQ20101113105013111/13/10 10:50:31  5-MIN KDBQ 131650Z 20017G23KT 10SM OVC009 05/03 A2979 1200 89 300 200/17G23 RMK AO2 CIG 007V012 SLP094 T00500033
94908KDBQ DBQ20101113105511411/13/10 10:55:31  5-MIN KDBQ 131655Z 20017G22KT 10SM OVC009 04/03 A2979 1200 89 300 200/17G22 RMK AO2 CIG 008V012
94908KDBQ DBQ20101113110009611/13/10 11:00:31  5-MIN KDBQ 131700Z 20015KT 10SM OVC009 04/03 A2979 1200 89 300 200/15 RMK AO2
94908KDBQ DBQ20101113110509611/13/10 11:05:31  5-MIN KDBQ 131705Z 19015KT 10SM OVC009 04/03 A2979 1200 89 300 190/15 RMK AO2
94908KDBQ DBQ20101113111011411/13/10 11:10:31  5-MIN KDBQ 131710Z 19020G24KT 10SM OVC009 04/03 A2978 1200 92 300 190/20G24 RMK AO2 CIG 006V010
94908KDBQ DBQ20101113111511411/13/10 11:15:31  5-MIN KDBQ 131715Z 20017G25KT 10SM OVC009 04/03 A2978 1200 89 300 200/17G25 RMK AO2 CIG 006V012
94908KDBQ DBQ20101113112011411/13/10 11:20:31  5-MIN KDBQ 131720Z 19016G25KT 10SM OVC009 04/03 A2978 1210 89 300 190/16G25 RMK AO2 CIG 006V011
94908KDBQ DBQ20101113112511311/13/10 11:25:31  5-MIN KDBQ 131725Z 19019G24KT 8SM OVC009 04/03 A2978 1210 92 200 190/19G24 RMK AO2 CIG 006V011
94908KDBQ DBQ20101113113010411/13/10 11:30:31  5-MIN KDBQ 131730Z 20018G24KT 6SM BR OVC007 04/03 A2978 1210 92 200 200/18G24 RMK AO2
94908KDBQ DBQ20101113113511111/13/10 11:35:31  5-MIN KDBQ 131735Z 20015G22KT 5SM BR BKN007 OVC012 04/03 A2978 1210 92 200 200/15G22 RMK AO2
94908KDBQ DBQ20101113114012311/13/10 11:40:31  5-MIN KDBQ 131740Z 20017G23KT 6SM BR BKN007 OVC012 04/03 A2977 1210 92 200 200/17G23 RMK AO2 CIG 006V009
94908KDBQ DBQ20101113114511411/13/10 11:45:31  5-MIN KDBQ 131745Z 20019G25KT 10SM OVC007 04/02 A2977 1220 89 200 200/19G25 RMK AO2 CIG 006V011
94908KDBQ DBQ20101113115016811/13/10 11:50:31  5-MIN KDBQ 131750Z 20022G28KT 10SM BKN007 OVC012 04/02 A2977 1220 89 200 200/22G28 RMK AO2 PK WND 20028/1750 SLP090 60010 T00390022 10089 20039 58006
94908KDBQ DBQ20101113115512111/13/10 11:55:31  5-MIN KDBQ 131755Z 20018G28KT 10SM BKN007 OVC012 04/02 A2977 1220 89 200 190/18G28 RMK AO2 CIG 006V011
94908KDBQ DBQ20101113120012111/13/10 12:00:31  5-MIN KDBQ 131800Z 20017G27KT 10SM BKN009 OVC012 04/02 A2977 1220 89 200 200/17G27 RMK AO2 CIG 006V011
94908KDBQ DBQ20101113120510911/13/10 12:05:31  5-MIN KDBQ 131805Z 20019G25KT 10SM BKN007 OVC012 04/02 A2977 1220 89 200 200/19G25 RMK AO2
94908KDBQ DBQ20101113121010911/13/10 12:10:31  5-MIN KDBQ 131810Z 19019G25KT 10SM BKN007 OVC012 04/02 A2977 1220 89 200 190/19G25 RMK AO2
94908KDBQ DBQ20101113121510811/13/10 12:15:31  5-MIN KDBQ 131815Z 20015G23KT 9SM BKN007 OVC012 03/02 A2977 1220 92 100 200/15G23 RMK AO2
94908KDBQ DBQ20101113122010911/13/10 12:20:31  5-MIN KDBQ 131820Z 19019G25KT 10SM BKN007 OVC012 03/02 A2976 1220 92 100 190/19G25 RMK AO2
94908KDBQ DBQ20101113122510911/13/10 12:25:31  5-MIN KDBQ 131825Z 20017G25KT 10SM BKN007 OVC012 03/02 A2976 1230 92 100 190/17G25 RMK AO2
94908KDBQ DBQ20101113123012711/13/10 12:30:31  5-MIN KDBQ 131830Z 20019G27KT 10SM BKN007 OVC012 03/02 A2975 1230 92 200 200/19G27 RMK AO2 PK WND 20027/1829
94908KDBQ DBQ20101113123512711/13/10 12:35:31  5-MIN KDBQ 131835Z 20018G27KT 10SM BKN007 OVC012 03/02 A2976 1230 92 200 200/18G27 RMK AO2 PK WND 20027/1829
94908KDBQ DBQ20101113124012711/13/10 12:40:31  5-MIN KDBQ 131840Z 21019G28KT 10SM BKN007 OVC012 03/02 A2976 1230 92 200 210/19G28 RMK AO2 PK WND 21028/1840
94908KDBQ DBQ20101113124512711/13/10 12:45:31  5-MIN KDBQ 131845Z 20015G28KT 10SM BKN007 OVC012 03/02 A2976 1230 92 200 200/15G28 RMK AO2 PK WND 21028/1840
94908KDBQ DBQ20101113125013711/13/10 12:50:31  5-MIN KDBQ 131850Z 20018G25KT 10SM OVC007 03/02 A2976 1230 92 200 200/18G25 RMK AO2 PK WND 21028/1840 SLP085 T00330022
94908KDBQ DBQ20101113125510211/13/10 12:55:31  5-MIN KDBQ 131855Z 20018G26KT 10SM OVC007 03/02 A2976 1230 92 200 200/18G26 RMK AO2
94908KDBQ DBQ20101113130010211/13/10 13:00:31  5-MIN KDBQ 131900Z 20017G26KT 10SM OVC007 03/02 A2975 1230 92 200 200/17G26 RMK AO2
94908KDBQ DBQ20101113130513211/13/10 13:05:31  5-MIN KDBQ 131905Z 20020G28KT 10SM OVC007 03/02 A2975 1240 92 200 200/20G28 RMK AO2 PK WND 21028/1904 CIG 007V010
94908KDBQ DBQ20101113131013211/13/10 13:10:31  5-MIN KDBQ 131910Z 20017G28KT 10SM OVC007 03/02 A2975 1240 89 200 200/17G28 RMK AO2 PK WND 21028/1904 CIG 007V011
94908KDBQ DBQ20101113131513111/13/10 13:15:31  5-MIN KDBQ 131915Z 20017G26KT 7SM OVC009 03/02 A2975 1240 92 200 200/17G26 RMK AO2 PK WND 21028/1904 CIG 007V013
94908KDBQ DBQ20101113132013411/13/10 13:20:31  5-MIN KDBQ 131920Z 21017G24KT 4SM BR OVC009 03/02 A2975 1240 92 200 210/17G24 RMK AO2 PK WND 21028/1904 CIG 007V013
94908KDBQ DBQ20101113132513411/13/10 13:25:31  5-MIN KDBQ 131925Z 21019G26KT 4SM BR OVC009 03/02 A2974 1240 92 200 210/19G26 RMK AO2 PK WND 21028/1904 CIG 007V013
94908KDBQ DBQ20101113133013411/13/10 13:30:31  5-MIN KDBQ 131930Z 21018G28KT 5SM BR OVC009 03/02 A2974 1240 92 200 210/18G28 RMK AO2 PK WND 20028/1927 CIG 008V013
94908KDBQ DBQ20101113133515111/13/10 13:35:31  5-MIN KDBQ 131935Z 21019G28KT 4SM R36/6000VP6000FT BR OVC009 03/02 A2974 1250 89 200 210/19G28 RMK AO2 PK WND 21028/1931 CIG 008V013
94908KDBQ DBQ20101113134015511/13/10 13:40:31  5-MIN KDBQ 131940Z 21019G28KT 2 1/2SM R36/4500VP6000FT BR OVC009 03/02 A2974 1250 96 100 210/19G28 RMK AO2 PK WND 21028/1931 CIG 006V013
94908KDBQ DBQ20101113134515811/13/10 13:45:31  5-MIN KDBQ 131945Z 21019G25KT 2SM R36/4500VP6000FT BR BKN009 OVC017 03/02 A2974 1240 96 100 210/19G25 RMK AO2 PK WND 21028/1931 CIG 006V012
94908KDBQ DBQ20101113135014111/13/10 13:50:31  5-MIN KDBQ 131950Z 20020G27KT 3SM BR BKN009 OVC017 03/02 A2974 1250 92 100 200/20G27 RMK AO2 PK WND 21028/1931 CIG 006V012
94908KDBQ DBQ20101113135514011/13/10 13:55:31  5-MIN KDBQ 131955Z 20019G27KT 3SM R36/6000VP6000FT BR BKN009 OVC017 03/02 A2974 1250 92 100 200/19G27 RMK AO2 CIG 006V012
94908KDBQ DBQ20101113140012811/13/10 14:00:31  5-MIN KDBQ 132000Z 21017G25KT 3SM R36/6000VP6000FT BR BKN011 OVC017 03/02 A2974 1250 92 100 210/17G25 RMK AO2
94908KDBQ DBQ20101113140511711/13/10 14:05:31  5-MIN KDBQ 132005Z 21019KT 3SM BR BKN009 OVC013 03/02 A2974 1250 92 100 210/19 RMK AO2 CIG 006V012
94908KDBQ DBQ20101113141011111/13/10 14:10:31  5-MIN KDBQ 132010Z 20020G25KT 4SM BR SCT009 OVC013 03/02 A2973 1250 92 100 200/20G25 RMK AO2
94908KDBQ DBQ20101113141512911/13/10 14:15:31  5-MIN KDBQ 132015Z 21018G27KT 4SM BR BKN009 OVC015 03/02 A2973 1250 92 100 210/18G27 RMK AO2 PK WND 22027/2012
94908KDBQ DBQ20101113142012911/13/10 14:20:31  5-MIN KDBQ 132020Z 20021G28KT 4SM BR BKN009 OVC015 03/02 A2973 1250 92 100 200/21G28 RMK AO2 PK WND 21028/2020
94908KDBQ DBQ20101113142512911/13/10 14:25:31  5-MIN KDBQ 132025Z 20017G28KT 5SM BR BKN009 OVC015 03/02 A2973 1250 92 100 200/17G28 RMK AO2 PK WND 21028/2020
94908KDBQ DBQ20101113143012911/13/10 14:30:31  5-MIN KDBQ 132030Z 21019G28KT 6SM BR BKN009 OVC015 03/02 A2973 1260 92 100 210/19G28 RMK AO2 PK WND 22028/2028
94908KDBQ DBQ20101113143512911/13/10 14:35:31  5-MIN KDBQ 132035Z 21018G28KT 6SM BR BKN009 OVC015 03/02 A2973 1250 92 100 210/18G28 RMK AO2 PK WND 22028/2028
94908KDBQ DBQ20101113144012911/13/10 14:40:31  5-MIN KDBQ 132040Z 21016G27KT 6SM BR BKN009 OVC015 03/02 A2974 1250 96 100 210/16G27 RMK AO2 PK WND 22028/2028
94908KDBQ DBQ20101113144512911/13/10 14:45:31  5-MIN KDBQ 132045Z 20022G27KT 5SM BR BKN009 OVC015 03/02 A2973 1260 92 100 200/22G27 RMK AO2 PK WND 22028/2028
94908KDBQ DBQ20101113145016211/13/10 14:50:31  5-MIN KDBQ 132050Z AUTO 21017G27KT 4SM BR BKN009 OVC015 03/02 A2973 1260 92 100 210/17G27 RMK AO2 PK WND 22028/2028 SLP074 T00280017 58011 TSNO
94908KDBQ DBQ20101113145512711/13/10 14:55:31  5-MIN KDBQ 132055Z 21018KT 3SM R36/6000VP6000FT BR OVC009 03/02 A2973 1250 92 100 210/18 RMK AO2 CIG 006V013
94908KDBQ DBQ20101113150012711/13/10 15:00:31  5-MIN KDBQ 132100Z 21019KT 3SM R36/6000VP6000FT BR OVC009 03/02 A2973 1250 92 100 210/19 RMK AO2 CIG 006V011
94908KDBQ DBQ20101113150513711/13/10 15:05:31  5-MIN KDBQ 132105Z 21017G25KT 2 1/2SM R36/5000VP6000FT BR OVC009 03/02 A2973 1250 92 100 210/17G25 RMK AO2 CIG 006V011
94908KDBQ DBQ20101113151014811/13/10 15:10:31  5-MIN KDBQ 132110Z 21018G25KT 2SM R36/5000VP6000FT UP BR OVC009 03/02 A2973 1250 92 100 210/18G25 RMK AO2 UPB06 CIG 006V011 P0000
94908KDBQ DBQ20101113151515211/13/10 15:15:31  5-MIN KDBQ 132115Z 21019G24KT 2 1/2SM R36/6000VP6000FT UP BR OVC009 03/02 A2974 1250 96 100 200/19G24 RMK AO2 UPB06 CIG 006V011 P0000
94908KDBQ DBQ20101113152015911/13/10 15:20:31  5-MIN KDBQ 132120Z 20020G25KT 2 1/2SM R36/6000VP6000FT UP BR BKN009 OVC012 03/02 A2973 1250 96 100 200/20G25 RMK AO2 UPB06 CIG 006V010 P0000
94908KDBQ DBQ20101113152515311/13/10 15:25:31  5-MIN KDBQ 132125Z 21018KT 2 1/2SM R36/6000VP6000FT BR BKN009 OVC012 03/02 A2974 1250 96 100 210/18 RMK AO2 UPB06E22 CIG 006V010 P0000
94908KDBQ DBQ20101113153012511/13/10 15:30:31  5-MIN KDBQ 132130Z 21018KT 3SM BR OVC009 03/02 A2973 1250 96 100 210/18 RMK AO2 UPB06E22 CIG 006V013 P0000
94908KDBQ DBQ20101113153512511/13/10 15:35:31  5-MIN KDBQ 132135Z 21015KT 4SM BR OVC009 03/02 A2974 1250 96 100 210/15 RMK AO2 UPB06E22 CIG 006V014 P0000
94908KDBQ DBQ20101113154012911/13/10 15:40:31  5-MIN KDBQ 132140Z 21020G25KT 4SM BR OVC009 02/02 A2973 1250 96 0 210/20G25 RMK AO2 UPB06E22 CIG 006V012 P0000
94908KDBQ DBQ20101113154514711/13/10 15:45:31  5-MIN KDBQ 132145Z 22020G26KT 4SM BR OVC009 02/02 A2973 1250 96 0 220/20G26 RMK AO2 PK WND 22026/2145 UPB06E22 CIG 006V014 P0000
94908KDBQ DBQ20101113155016411/13/10 15:50:31  5-MIN KDBQ 132150Z 22020G29KT 5SM BR OVC009 02/01 A2973 1260 92 0 220/20G29 RMK AO2 PK WND 22029/2147 UPB06E22 CIG 006V011 SLP075 P0000 T00220011
94908KDBQ DBQ20101113155511411/13/10 15:55:31  5-MIN KDBQ 132155Z 21019G29KT 5SM BR OVC009 02/01 A2973 1260 92 0 210/19G29 RMK AO2 CIG 006V014
94908KDBQ DBQ20101113160013211/13/10 16:00:31  5-MIN KDBQ 132200Z 21019G29KT 4SM BR OVC009 02/02 A2973 1250 96 0 210/19G29 RMK AO2 PK WND 22029/2156 CIG 006V014
94908KDBQ DBQ20101113160513211/13/10 16:05:31  5-MIN KDBQ 132205Z 22021G30KT 4SM BR OVC009 02/01 A2973 1260 92 0 220/21G30 RMK AO2 PK WND 21030/2203 CIG 006V013
94908KDBQ DBQ20101113161013211/13/10 16:10:31  5-MIN KDBQ 132210Z 21018G30KT 4SM BR OVC009 02/02 A2973 1250 96 0 210/18G30 RMK AO2 PK WND 21030/2203 CIG 007V013
94908KDBQ DBQ20101113161513911/13/10 16:15:31  5-MIN KDBQ 132215Z 22018G27KT 4SM BR BKN009 OVC013 02/02 A2973 1250 96 0 220/18G27 RMK AO2 PK WND 21030/2203 CIG 007V011
94908KDBQ DBQ20101113162014311/13/10 16:20:31  5-MIN KDBQ 132220Z 22020G28KT 2 1/2SM BR BKN009 OVC013 02/02 A2974 1250 96 0 220/20G28 RMK AO2 PK WND 21030/2203 CIG 007V011
94908KDBQ DBQ20101113162513211/13/10 16:25:31  5-MIN KDBQ 132225Z 22017G28KT 3SM BR OVC009 02/02 A2974 1250 96 0 220/17G28 RMK AO2 PK WND 21030/2203 CIG 007V013
94908KDBQ DBQ20101113163013911/13/10 16:30:31  5-MIN KDBQ 132230Z 22019G28KT 3SM BR BKN009 OVC013 02/02 A2973 1250 96 0 220/19G28 RMK AO2 PK WND 21030/2203 CIG 005V011
94908KDBQ DBQ20101113163513911/13/10 16:35:31  5-MIN KDBQ 132235Z 22017G26KT 3SM BR BKN009 OVC013 02/02 A2974 1250 96 0 220/17G26 RMK AO2 PK WND 21030/2203 CIG 005V012
94908KDBQ DBQ20101113164015411/13/10 16:40:31  5-MIN KDBQ 132240Z 22019G29KT 3SM UP BR BKN007 OVC013 02/02 A2974 1250 96 0 220/19G29 RMK AO2 PK WND 21030/2203 UPB40 CIG 005V009 P0000
94908KDBQ DBQ20101113164514211/13/10 16:45:31  5-MIN KDBQ 132245Z 23019G29KT 2SM BR SCT007 OVC011 02/02 A2974 1250 96 0 220/19G29 RMK AO2 PK WND 21030/2203 UPB40E45 P0000
94908KDBQ DBQ20101113165017111/13/10 16:50:31  5-MIN KDBQ 132250Z 23020G28KT 3SM BR BKN007 OVC013 02/02 A2974 1250 96 0 230/20G28 RMK AO2 PK WND 21030/2203 UPB40E45 CIG 005V010 SLP078 P0000 T00220017
94908KDBQ DBQ20101113165513911/13/10 16:55:31  5-MIN KDBQ 132255Z 23019G29KT 3SM BR BKN007 OVC013 02/02 A2974 1250 96 0 230/19G29 RMK AO2 PK WND 22029/2254 CIG 005V011
94908KDBQ DBQ20101113170013911/13/10 17:00:31  5-MIN KDBQ 132300Z 23019G29KT 3SM BR BKN007 OVC013 02/02 A2973 1250 96 0 230/19G29 RMK AO2 PK WND 22029/2254 CIG 005V010
94908KDBQ DBQ20101113170513911/13/10 17:05:31  5-MIN KDBQ 132305Z 23016G26KT 3SM BR BKN007 OVC013 02/02 A2974 1250 96 0 230/16G26 RMK AO2 PK WND 22029/2254 CIG 005V010
94908KDBQ DBQ20101113171013911/13/10 17:10:31  5-MIN KDBQ 132310Z 23019G27KT 3SM BR BKN007 OVC013 02/02 A2974 1250 96 0 230/19G27 RMK AO2 PK WND 22029/2254 CIG 005V011
94908KDBQ DBQ20101113171513911/13/10 17:15:31  5-MIN KDBQ 132315Z 23021G28KT 4SM BR BKN007 OVC013 02/02 A2974 1250 96 0 230/21G28 RMK AO2 PK WND 22029/2254 CIG 005V010
94908KDBQ DBQ20101113172013911/13/10 17:20:31  5-MIN KDBQ 132320Z 23019G28KT 5SM BR BKN007 OVC013 02/02 A2974 1250 96 0 230/19G28 RMK AO2 PK WND 22029/2254 CIG 005V010
94908KDBQ DBQ20101113172513211/13/10 17:25:31  5-MIN KDBQ 132325Z 24022G28KT 6SM BR OVC007 02/02 A2974 1250 96 0 230/22G28 RMK AO2 PK WND 22029/2254 CIG 005V012
94908KDBQ DBQ20101113173012411/13/10 17:30:31  5-MIN KDBQ 132330Z 23020G28KT 7SM BKN007 OVC011 02/01 A2974 1240 92 0 230/20G28 RMK AO2 PK WND 22029/2254
94908KDBQ DBQ20101113173512911/13/10 17:35:31  5-MIN KDBQ 132335Z 23018G27KT 8SM OVC007 02/01 A2975 1240 92 0 230/18G27 RMK AO2 PK WND 22029/2254 CIG 005V011
94908KDBQ DBQ20101113174012911/13/10 17:40:31  5-MIN KDBQ 132340Z 23022G27KT 8SM OVC007 02/01 A2975 1240 92 0 230/22G27 RMK AO2 PK WND 22029/2254 CIG 006V012
94908KDBQ DBQ20101113174512911/13/10 17:45:31  5-MIN KDBQ 132345Z 23018G27KT 9SM OVC007 02/01 A2974 1240 92 0 230/18G27 RMK AO2 PK WND 22029/2254 CIG 006V013
94908KDBQ DBQ20101113175017011/13/10 17:50:31  5-MIN KDBQ 132350Z 23016G27KT 9SM OVC007 02/01 A2975 1240 92 0 230/16G27 RMK AO2 PK WND 22029/2254 CIG 006V012 SLP082 60000 T00220011 10039 20022 56012
94908KDBQ DBQ20101113175511111/13/10 17:55:31  5-MIN KDBQ 132355Z 24016G25KT 9SM OVC007 02/01 A2975 1240 92 0 230/16G25 RMK AO2 CIG 006V012
94908KDBQ DBQ20101113180011111/13/10 18:00:31  5-MIN KDBQ 140000Z 24017G25KT 9SM OVC007 02/01 A2975 1230 92 0 240/17G25 RMK AO2 CIG 006V011
94908KDBQ DBQ20101113180513011/13/10 18:05:31  5-MIN KDBQ 140005Z 24017G29KT 10SM OVC007 02/01 A2975 1230 92 0 240/17G29 RMK AO2 PK WND 23029/0003 CIG 006V011
94908KDBQ DBQ20101113181013011/13/10 18:10:31  5-MIN KDBQ 140010Z 24016G29KT 10SM OVC007 02/01 A2975 1240 92 0 240/16G29 RMK AO2 PK WND 23029/0003 CIG 006V011
94908KDBQ DBQ20101113181512911/13/10 18:15:31  5-MIN KDBQ 140015Z 24019G27KT 9SM OVC009 02/01 A2975 1240 92 0 240/19G27 RMK AO2 PK WND 23029/0003 CIG 006V011
94908KDBQ DBQ20101113182012911/13/10 18:20:31  5-MIN KDBQ 140020Z 24020G27KT 7SM OVC009 02/01 A2975 1240 92 0 240/20G27 RMK AO2 PK WND 23029/0003 CIG 006V011
94908KDBQ DBQ20101113182512911/13/10 18:25:31  5-MIN KDBQ 140025Z 24018G27KT 8SM OVC007 02/01 A2975 1240 92 0 240/18G27 RMK AO2 PK WND 23029/0003 CIG 006V010
94908KDBQ DBQ20101113183013011/13/10 18:30:31  5-MIN KDBQ 140030Z 24015G26KT 10SM OVC007 02/01 A2975 1240 92 0 240/15G26 RMK AO2 PK WND 23029/0003 CIG 006V012
94908KDBQ DBQ20101113183511811/13/10 18:35:31  5-MIN KDBQ 140035Z 24018G26KT 10SM OVC007 02/01 A2976 1230 92 0 240/18G26 RMK AO2 PK WND 23029/0003
94908KDBQ DBQ20101113184011811/13/10 18:40:31  5-MIN KDBQ 140040Z 24017G27KT 10SM OVC007 02/01 A2975 1240 92 0 240/17G27 RMK AO2 PK WND 23029/0003
94908KDBQ DBQ20101113184511811/13/10 18:45:31  5-MIN KDBQ 140045Z 24020G27KT 10SM OVC007 02/01 A2975 1240 92 0 240/20G27 RMK AO2 PK WND 23029/0003
94908KDBQ DBQ20101113185013511/13/10 18:50:31  5-MIN KDBQ 140050Z 24016G25KT 10SM OVC007 02/01 A2975 1230 92 0 240/16G25 RMK AO2 PK WND 23029/0003 SLP083 T00220011
94908KDBQ DBQ20101113185513011/13/10 18:55:31  5-MIN KDBQ 140055Z 24022G29KT 10SM OVC007 02/01 A2975 1230 89 0 240/22G29 RMK AO2 PK WND 23027/0055 CIG 007V012
94908KDBQ DBQ20101113190013711/13/10 19:00:31  5-MIN KDBQ 140100Z 24019G29KT 10SM BKN009 OVC013 02/01 A2975 1230 89 0 240/19G29 RMK AO2 PK WND 25028/0056 CIG 007V011
94908KDBQ DBQ20101113190513011/13/10 19:05:31  5-MIN KDBQ 140105Z 24020G28KT 10SM OVC009 02/01 A2976 1230 89 0 240/20G28 RMK AO2 PK WND 25028/0056 CIG 007V013
94908KDBQ DBQ20101113191013611/13/10 19:10:31  5-MIN KDBQ 140110Z 24019G27KT 9SM BKN009 OVC014 02/01 A2976 1230 89 0 240/19G27 RMK AO2 PK WND 25028/0056 CIG 007V012
94908KDBQ DBQ20101113191513611/13/10 19:15:31  5-MIN KDBQ 140115Z 24019G28KT 7SM BKN009 OVC014 02/01 A2976 1220 92 0 240/19G28 RMK AO2 PK WND 23028/0114 CIG 007V012
94908KDBQ DBQ20101113192012011/13/10 19:20:31  5-MIN KDBQ 140120Z 24022G28KT 5SM BR OVC011 02/01 A2976 1230 96 0 240/22G28 RMK AO2 PK WND 23028/0114
94908KDBQ DBQ20101113192512011/13/10 19:25:31  5-MIN KDBQ 140125Z 24019G27KT 5SM BR OVC011 02/01 A2976 1230 96 0 240/19G27 RMK AO2 PK WND 23028/0114
94908KDBQ DBQ20101113193012111/13/10 19:30:31  5-MIN KDBQ 140130Z 24018G27KT 6SM BR OVC011 02/02 A2976 1230 100 0 240/18G27 RMK AO2 PK WND 23028/0114
94908KDBQ DBQ20101113193512111/13/10 19:35:31  5-MIN KDBQ 140135Z 24021G27KT 6SM BR OVC011 02/02 A2976 1220 100 0 240/21G27 RMK AO2 PK WND 23028/0114
94908KDBQ DBQ20101113194012111/13/10 19:40:31  5-MIN KDBQ 140140Z 24020G27KT 6SM BR OVC011 02/02 A2976 1220 100 0 240/20G27 RMK AO2 PK WND 23028/0114
94908KDBQ DBQ20101113194512111/13/10 19:45:31  5-MIN KDBQ 140145Z 24018G26KT 6SM BR OVC011 02/02 A2977 1220 100 0 240/18G26 RMK AO2 PK WND 23028/0114
94908KDBQ DBQ20101113195013811/13/10 19:50:31  5-MIN KDBQ 140150Z 25016G26KT 6SM BR OVC011 02/02 A2976 1220 100 0 240/16G26 RMK AO2 PK WND 23028/0114 SLP086 T00170017
94908KDBQ DBQ20101113195512711/13/10 19:55:31  5-MIN KDBQ 140155Z AUTO 25016G25KT 6SM BR BKN010 OVC013 02/02 A2976 1230 100 0 250/16G25 RMK AO2 CIG 008V012
94908KDBQ DBQ20101113200012311/13/10 20:00:31  5-MIN KDBQ 140200Z AUTO 25020G26KT 7SM OVC013 02/02 A2976 1220 100 0 250/20G26 RMK AO2 PK WND 25026/0200
94908KDBQ DBQ20101113200512311/13/10 20:05:31  5-MIN KDBQ 140205Z AUTO 24019G26KT 8SM OVC013 02/02 A2976 1220 100 0 240/19G26 RMK AO2 PK WND 25026/0200
94908KDBQ DBQ20101113201013011/13/10 20:10:31  5-MIN KDBQ 140210Z AUTO 25017G25KT 7SM BKN011 OVC016 02/02 A2976 1230 100 0 250/17G25 RMK AO2 PK WND 25026/0200
94908KDBQ DBQ20101113201512611/13/10 20:15:31  5-MIN KDBQ 140215Z AUTO 25016G25KT 6SM BR OVC013 02/02 A2977 1220 100 0 250/16G25 RMK AO2 PK WND 25026/0200
94908KDBQ DBQ20101113202012311/13/10 20:20:31  5-MIN KDBQ 140220Z AUTO 25017G25KT 7SM OVC013 02/02 A2977 1220 100 0 250/17G25 RMK AO2 PK WND 25026/0200
94908KDBQ DBQ20101113202514211/13/10 20:25:31  5-MIN KDBQ 140225Z AUTO 25016G25KT 7SM BKN010 OVC015 02/02 A2976 1220 100 0 250/16G25 RMK AO2 PK WND 25026/0200 CIG 007V014
94908KDBQ DBQ20101113203014211/13/10 20:30:31  5-MIN KDBQ 140230Z AUTO 25018G25KT 8SM BKN010 OVC015 02/02 A2977 1220 100 0 250/18G25 RMK AO2 PK WND 25026/0200 CIG 007V014
94908KDBQ DBQ20101113203514211/13/10 20:35:31  5-MIN KDBQ 140235Z AUTO 25016G26KT 10SM BKN010 OVC015 02/01 A2977 1220 96 0 250/16G26 RMK AO2 PK WND 25026/0233 CIG 007V012
94908KDBQ DBQ20101113204013611/13/10 20:40:31  5-MIN KDBQ 140240Z AUTO 26018G26KT 10SM OVC010 02/02 A2977 1220 100 0 250/18G26 RMK AO2 PK WND 25026/0233 CIG 007V014
94908KDBQ DBQ20101113204513611/13/10 20:45:31  5-MIN KDBQ 140245Z AUTO 25016G25KT 10SM OVC010 02/02 A2978 1210 100 0 250/16G25 RMK AO2 PK WND 25026/0233 CIG 007V012
94908KDBQ DBQ20101113205015911/13/10 20:50:31  5-MIN KDBQ 140250Z AUTO 25017G25KT 10SM OVC010 02/02 A2978 1210 100 0 250/17G25 RMK AO2 PK WND 25026/0233 CIG 007V012 SLP092 T00170017 53006
94908KDBQ DBQ20101113205512311/13/10 20:55:31  5-MIN KDBQ 140255Z AUTO 25018G26KT 10SM OVC010 02/01 A2978 1210 96 0 250/18G26 RMK AO2 PK WND 24026/0254
94908KDBQ DBQ20101113210012411/13/10 21:00:31  5-MIN KDBQ 140300Z AUTO 25017G26KT 10SM OVC010 02/02 A2978 1210 100 0 250/17G26 RMK AO2 PK WND 25026/0256
94908KDBQ DBQ20101113210512411/13/10 21:05:31  5-MIN KDBQ 140305Z AUTO 25020G26KT 10SM OVC010 02/02 A2978 1210 100 0 250/20G26 RMK AO2 PK WND 25026/0305
94908KDBQ DBQ20101113211012311/13/10 21:10:31  5-MIN KDBQ 140310Z AUTO 25017G27KT 10SM OVC010 02/01 A2978 1210 96 0 250/17G27 RMK AO2 PK WND 25027/0306
94908KDBQ DBQ20101113211513611/13/10 21:15:31  5-MIN KDBQ 140315Z AUTO 25015G27KT 10SM OVC010 02/02 A2978 1210 100 0 250/15G27 RMK AO2 PK WND 25027/0306 CIG 008V013
94908KDBQ DBQ20101113212012411/13/10 21:20:31  5-MIN KDBQ 140320Z AUTO 25018G24KT 10SM OVC010 02/02 A2978 1200 100 0 250/18G24 RMK AO2 PK WND 25027/0306
94908KDBQ DBQ20101113212512311/13/10 21:25:31  5-MIN KDBQ 140325Z AUTO 25018G26KT 10SM OVC010 02/01 A2979 1200 96 0 250/18G26 RMK AO2 PK WND 25027/0306
94908KDBQ DBQ20101113213012411/13/10 21:30:31  5-MIN KDBQ 140330Z AUTO 25017G26KT 10SM OVC010 02/02 A2979 1200 100 0 250/17G26 RMK AO2 PK WND 25027/0306
94908KDBQ DBQ20101113213512411/13/10 21:35:31  5-MIN KDBQ 140335Z AUTO 25021G26KT 10SM OVC012 02/02 A2979 1200 100 0 250/21G26 RMK AO2 PK WND 25027/0306
94908KDBQ DBQ20101113214012411/13/10 21:40:31  5-MIN KDBQ 140340Z AUTO 25018G26KT 10SM OVC012 02/02 A2979 1200 100 0 250/18G26 RMK AO2 PK WND 25027/0306
94908KDBQ DBQ20101113214512411/13/10 21:45:31  5-MIN KDBQ 140345Z AUTO 25016G25KT 10SM OVC012 02/02 A2979 1200 100 0 250/16G25 RMK AO2 PK WND 25027/0306
94908KDBQ DBQ20101113215014711/13/10 21:50:31  5-MIN KDBQ 140350Z AUTO 25018G26KT 10SM OVC012 02/02 A2979 1200 100 0 250/18G26 RMK AO2 PK WND 25027/0306 SLP096 P0001 T00170017
94908KDBQ DBQ20101113215510611/13/10 21:55:31  5-MIN KDBQ 140355Z AUTO 25016G26KT 10SM OVC012 02/02 A2979 1200 100 0 250/16G26 RMK AO2
94908KDBQ DBQ20101113220012411/13/10 22:00:31  5-MIN KDBQ 140400Z AUTO 25018G27KT 10SM OVC012 02/02 A2979 1200 100 0 250/18G27 RMK AO2 PK WND 25027/0400
94908KDBQ DBQ20101113220512311/13/10 22:05:31  5-MIN KDBQ 140405Z AUTO 26019G27KT 10SM OVC012 02/01 A2979 1200 96 0 250/19G27 RMK AO2 PK WND 24027/0401
94908KDBQ DBQ20101113221012411/13/10 22:10:31  5-MIN KDBQ 140410Z AUTO 26017G27KT 10SM OVC012 02/02 A2979 1200 100 0 260/17G27 RMK AO2 PK WND 24027/0401
94908KDBQ DBQ20101113221512311/13/10 22:15:31  5-MIN KDBQ 140415Z AUTO 26021G28KT 10SM OVC012 02/01 A2979 1190 96 0 250/21G28 RMK AO2 PK WND 26028/0415
94908KDBQ DBQ20101113222012411/13/10 22:20:31  5-MIN KDBQ 140420Z AUTO 26019G29KT 10SM OVC012 02/02 A2979 1200 100 0 260/19G29 RMK AO2 PK WND 26029/0416
94908KDBQ DBQ20101113222512411/13/10 22:25:31  5-MIN KDBQ 140425Z AUTO 26017G29KT 10SM OVC012 02/02 A2979 1200 100 0 260/17G29 RMK AO2 PK WND 26029/0416
94908KDBQ DBQ20101113223012411/13/10 22:30:31  5-MIN KDBQ 140430Z AUTO 26017G25KT 10SM OVC012 02/02 A2979 1200 100 0 260/17G25 RMK AO2 PK WND 26029/0416
94908KDBQ DBQ20101113223512411/13/10 22:35:31  5-MIN KDBQ 140435Z AUTO 26018G25KT 10SM OVC012 02/02 A2980 1190 100 0 260/18G25 RMK AO2 PK WND 26029/0416
94908KDBQ DBQ20101113224012411/13/10 22:40:31  5-MIN KDBQ 140440Z AUTO 25016G25KT 10SM OVC012 02/02 A2980 1190 100 0 250/16G25 RMK AO2 PK WND 26029/0416
94908KDBQ DBQ20101113224512411/13/10 22:45:31  5-MIN KDBQ 140445Z AUTO 26016G24KT 10SM OVC012 02/02 A2979 1200 100 0 260/16G24 RMK AO2 PK WND 26029/0416
94908KDBQ DBQ20101113225014111/13/10 22:50:31  5-MIN KDBQ 140450Z AUTO 26017G23KT 10SM OVC012 02/02 A2979 1200 100 0 260/17G23 RMK AO2 PK WND 26029/0416 SLP097 T00170017
94908KDBQ DBQ20101113225510911/13/10 22:55:31  5-MIN KDBQ 140455Z AUTO 26017G25KT 10SM OVC012 02/02 A2980 1190 100 -100 260/17G25 RMK AO2
94908KDBQ DBQ20101113230010611/13/10 23:00:31  5-MIN KDBQ 140500Z AUTO 26016G25KT 10SM OVC012 02/02 A2980 1190 100 0 250/16G25 RMK AO2
94908KDBQ DBQ20101113230510811/13/10 23:05:31  5-MIN KDBQ 140505Z AUTO 26017G24KT 10SM OVC012 02/01 A2980 1190 92 -100 260/17G24 RMK AO2
94908KDBQ DBQ20101113231010811/13/10 23:10:31  5-MIN KDBQ 140510Z AUTO 26016G24KT 10SM OVC012 02/00 A2980 1190 89 -100 260/16G24 RMK AO2
94908KDBQ DBQ20101113231510511/13/10 23:15:31  5-MIN KDBQ 140515Z AUTO 26017G24KT 10SM OVC012 02/00 A2980 1190 89 0 260/17G24 RMK AO2
94908KDBQ DBQ20101113232010511/13/10 23:20:31  5-MIN KDBQ 140520Z AUTO 26017G23KT 10SM OVC012 02/00 A2979 1190 89 0 260/17G23 RMK AO2
94908KDBQ DBQ20101113232510811/13/10 23:25:31  5-MIN KDBQ 140525Z AUTO 26017G24KT 10SM OVC012 02/00 A2980 1190 89 -100 260/17G24 RMK AO2
94908KDBQ DBQ20101113233010811/13/10 23:30:31  5-MIN KDBQ 140530Z AUTO 26015G25KT 10SM OVC012 02/00 A2980 1190 89 -100 260/15G25 RMK AO2
94908KDBQ DBQ20101113233510811/13/10 23:35:31  5-MIN KDBQ 140535Z AUTO 26017G25KT 10SM OVC012 02/00 A2980 1190 89 -100 260/17G25 RMK AO2
94908KDBQ DBQ20101113234010211/13/10 23:40:31  5-MIN KDBQ 140540Z AUTO 26018KT 10SM OVC012 02/00 A2980 1190 89 -100 260/18 RMK AO2
94908KDBQ DBQ20101113234510811/13/10 23:45:31  5-MIN KDBQ 140545Z AUTO 26017G25KT 10SM OVC012 02/00 A2980 1190 89 -100 260/17G25 RMK AO2
94908KDBQ DBQ20101113235015911/13/10 23:50:31  5-MIN KDBQ 140550Z AUTO 26016G25KT 10SM OVC012 02/00 A2980 1190 89 -100 260/16G25 RMK AO2 SLP102 60001 T00170000 10022 20017 400890017 53010
94908KDBQ DBQ20101113235510811/13/10 23:55:31  5-MIN KDBQ 140555Z AUTO 25015G23KT 10SM OVC012 02/00 A2980 1190 89 -100 250/15G23 RMK AO2
94908KDBQ DBQ20101114000010811/14/10 00:00:38  5-MIN KDBQ 140600Z AUTO 26017G24KT 10SM OVC012 02/00 A2981 1180 89 -100 260/17G24 RMK AO2
94908KDBQ DBQ20101114000510811/14/10 00:05:31  5-MIN KDBQ 140605Z AUTO 26018G24KT 10SM OVC012 02/00 A2981 1180 89 -100 260/18G24 RMK AO2
94908KDBQ DBQ20101114001010811/14/10 00:10:31  5-MIN KDBQ 140610Z AUTO 26016G24KT 10SM OVC014 02/00 A2981 1190 89 -100 260/16G24 RMK AO2
94908KDBQ DBQ20101114001510811/14/10 00:15:34  5-MIN KDBQ 140615Z AUTO 26017G24KT 10SM OVC014 02/00 A2981 1180 89 -100 260/17G24 RMK AO2
94908KDBQ DBQ20101114002010811/14/10 00:20:31  5-MIN KDBQ 140620Z AUTO 27019G25KT 10SM OVC014 02/00 A2981 1180 89 -100 260/19G25 RMK AO2
94908KDBQ DBQ20101114002510911/14/10 00:25:31  5-MIN KDBQ 140625Z AUTO 27019G25KT 10SM OVC014 02/M01 A2980 1190 85 -100 270/19G25 RMK AO2
94908KDBQ DBQ20101114003010911/14/10 00:30:31  5-MIN KDBQ 140630Z AUTO 26018G25KT 10SM OVC014 02/M01 A2981 1180 85 -100 260/18G25 RMK AO2
94908KDBQ DBQ20101114003510811/14/10 00:35:31  5-MIN KDBQ 140635Z AUTO 26014G24KT 10SM OVC014 02/00 A2981 1180 89 -100 260/14G24 RMK AO2
94908KDBQ DBQ20101114004010211/14/10 00:40:31  5-MIN KDBQ 140640Z AUTO 26015KT 10SM OVC014 02/00 A2981 1180 89 -100 260/15 RMK AO2
94908KDBQ DBQ20101114004510911/14/10 00:45:31  5-MIN KDBQ 140645Z AUTO 26017G24KT 10SM OVC014 02/M01 A2980 1190 85 -100 260/17G24 RMK AO2
94908KDBQ DBQ20101114005012511/14/10 00:50:31  5-MIN KDBQ 140650Z AUTO 26014G24KT 10SM OVC014 02/00 A2981 1190 89 -100 260/14G24 RMK AO2 SLP102 T00170000
94908KDBQ DBQ20101114005510911/14/10 00:55:31  5-MIN KDBQ 140655Z AUTO 26016KT 10SM BKN014 OVC021 02/00 A2980 1190 89 -100 260/16 RMK AO2
94908KDBQ DBQ20101114010010911/14/10 01:00:31  5-MIN KDBQ 140700Z AUTO 26015G22KT 10SM OVC014 02/M01 A2980 1190 85 -100 260/15G22 RMK AO2
94908KDBQ DBQ20101114010510911/14/10 01:05:31  5-MIN KDBQ 140705Z AUTO 26016G22KT 10SM OVC014 02/M01 A2981 1180 85 -100 260/16G22 RMK AO2
94908KDBQ DBQ20101114011010911/14/10 01:10:31  5-MIN KDBQ 140710Z AUTO 26012G21KT 10SM OVC016 02/M01 A2980 1190 85 -100 260/12G21 RMK AO2
94908KDBQ DBQ20101114011511611/14/10 01:15:31  5-MIN KDBQ 140715Z AUTO 26013G21KT 10SM BKN016 OVC021 02/M01 A2980 1190 85 -100 260/13G21 RMK AO2
94908KDBQ DBQ20101114012010311/14/10 01:20:31  5-MIN KDBQ 140720Z AUTO 26015KT 10SM OVC016 02/M01 A2980 1190 85 -100 260/15 RMK AO2
94908KDBQ DBQ20101114012510311/14/10 01:25:31  5-MIN KDBQ 140725Z AUTO 26013KT 10SM OVC016 02/M01 A2980 1190 85 -100 260/13 RMK AO2
94908KDBQ DBQ20101114013010311/14/10 01:30:31  5-MIN KDBQ 140730Z AUTO 26012KT 10SM OVC016 02/M01 A2980 1190 85 -100 260/12 RMK AO2
94908KDBQ DBQ20101114013510911/14/10 01:35:31  5-MIN KDBQ 140735Z AUTO 26015G20KT 10SM OVC016 02/M01 A2980 1190 85 -100 260/15G20 RMK AO2
94908KDBQ DBQ20101114014010911/14/10 01:40:31  5-MIN KDBQ 140740Z AUTO 27012G20KT 10SM OVC016 02/M01 A2980 1190 85 -100 270/12G20 RMK AO2
94908KDBQ DBQ20101114014510911/14/10 01:45:31  5-MIN KDBQ 140745Z AUTO 26016G21KT 10SM OVC016 02/M01 A2980 1190 85 -100 260/16G21 RMK AO2
94908KDBQ DBQ20101114015012611/14/10 01:50:31  5-MIN KDBQ 140750Z AUTO 27018G25KT 10SM OVC016 02/M01 A2980 1190 85 -100 270/18G25 RMK AO2 SLP101 T00171006
94908KDBQ DBQ20101114015510911/14/10 01:55:31  5-MIN KDBQ 140755Z AUTO 26015G25KT 10SM OVC016 02/M01 A2980 1190 85 -100 260/15G25 RMK AO2
94908KDBQ DBQ20101114020010911/14/10 02:00:31  5-MIN KDBQ 140800Z AUTO 26016G21KT 10SM OVC016 02/M01 A2980 1190 85 -100 260/16G21 RMK AO2
94908KDBQ DBQ20101114020510911/14/10 02:05:31  5-MIN KDBQ 140805Z AUTO 26014G25KT 10SM OVC016 02/M01 A2980 1190 85 -100 260/14G25 RMK AO2
94908KDBQ DBQ20101114021010911/14/10 02:10:31  5-MIN KDBQ 140810Z AUTO 26016G25KT 10SM OVC016 02/M01 A2981 1180 85 -100 260/16G25 RMK AO2
94908KDBQ DBQ20101114021511611/14/10 02:15:31  5-MIN KDBQ 140815Z AUTO 26016G23KT 10SM BKN016 OVC023 02/M01 A2980 1190 85 -100 260/16G23 RMK AO2
94908KDBQ DBQ20101114022011611/14/10 02:20:31  5-MIN KDBQ 140820Z AUTO 27019G25KT 10SM BKN016 OVC023 02/M01 A2981 1180 85 -100 270/19G25 RMK AO2
94908KDBQ DBQ20101114022511611/14/10 02:25:31  5-MIN KDBQ 140825Z AUTO 27014G25KT 10SM BKN016 OVC023 02/M01 A2980 1190 82 -100 260/14G25 RMK AO2
94908KDBQ DBQ20101114023011611/14/10 02:30:31  5-MIN KDBQ 140830Z AUTO 27015G24KT 10SM SCT016 OVC023 02/M01 A2980 1190 85 -100 270/15G24 RMK AO2
94908KDBQ DBQ20101114023511611/14/10 02:35:31  5-MIN KDBQ 140835Z AUTO 27019G24KT 10SM BKN021 OVC026 02/M01 A2981 1180 82 -100 270/19G24 RMK AO2
94908KDBQ DBQ20101114024010911/14/10 02:40:31  5-MIN KDBQ 140840Z AUTO 27016G24KT 10SM OVC023 02/M01 A2981 1180 82 -100 270/16G24 RMK AO2
94908KDBQ DBQ20101114024510911/14/10 02:45:31  5-MIN KDBQ 140845Z AUTO 27016G24KT 10SM OVC023 02/M01 A2981 1180 82 -100 270/16G24 RMK AO2
94908KDBQ DBQ20101114025013911/14/10 02:50:31  5-MIN KDBQ 140850Z AUTO 27017G25KT 10SM BKN021 OVC026 02/M01 A2981 1180 82 -100 270/17G25 RMK AO2 SLP103 T00171011 51007
94908KDBQ DBQ20101114025511611/14/10 02:55:31  5-MIN KDBQ 140855Z AUTO 27014G25KT 10SM BKN021 OVC026 02/M01 A2981 1180 82 -100 260/14G25 RMK AO2
94908KDBQ DBQ20101114030011611/14/10 03:00:31  5-MIN KDBQ 140900Z AUTO 26016G24KT 10SM BKN019 OVC025 02/M01 A2981 1180 82 -100 260/16G24 RMK AO2
94908KDBQ DBQ20101114030511611/14/10 03:05:31  5-MIN KDBQ 140905Z AUTO 27019G25KT 10SM BKN019 OVC025 02/M01 A2981 1180 82 -100 270/19G25 RMK AO2
94908KDBQ DBQ20101114031011611/14/10 03:10:31  5-MIN KDBQ 140910Z AUTO 27016G25KT 10SM SCT019 OVC025 02/M01 A2981 1180 82 -100 270/16G25 RMK AO2
94908KDBQ DBQ20101114031511611/14/10 03:15:31  5-MIN KDBQ 140915Z AUTO 27017G23KT 10SM BKN022 OVC027 02/M01 A2980 1190 82 -100 270/17G23 RMK AO2
94908KDBQ DBQ20101114032011611/14/10 03:20:31  5-MIN KDBQ 140920Z AUTO 27015G25KT 10SM FEW018 OVC025 02/M01 A2981 1180 82 -100 270/15G25 RMK AO2
94908KDBQ DBQ20101114032513411/14/10 03:25:31  5-MIN KDBQ 140925Z AUTO 27016G28KT 10SM FEW018 OVC025 02/M01 A2981 1180 82 -100 270/16G28 RMK AO2 PK WND 26028/0921
94908KDBQ DBQ20101114033012711/14/10 03:30:31  5-MIN KDBQ 140930Z AUTO 27014G28KT 10SM OVC025 02/M01 A2981 1180 82 -100 270/14G28 RMK AO2 PK WND 26028/0921
94908KDBQ DBQ20101114033512711/14/10 03:35:31  5-MIN KDBQ 140935Z AUTO 27014G22KT 10SM OVC025 02/M01 A2981 1180 82 -100 270/14G22 RMK AO2 PK WND 26028/0921
94908KDBQ DBQ20101114034012711/14/10 03:40:31  5-MIN KDBQ 140940Z AUTO 27016G23KT 10SM OVC026 02/M01 A2981 1180 82 -100 260/16G23 RMK AO2 PK WND 26028/0921
94908KDBQ DBQ20101114034512711/14/10 03:45:31  5-MIN KDBQ 140945Z AUTO 26016G23KT 10SM OVC026 02/M01 A2981 1180 82 -100 260/16G23 RMK AO2 PK WND 26028/0921
94908KDBQ DBQ20101114035014511/14/10 03:50:31  5-MIN KDBQ 140950Z AUTO 27014KT 10SM SCT023 OVC028 02/M01 A2981 1180 82 -100 260/14 RMK AO2 PK WND 26028/0921 SLP104 T00171011
94908KDBQ DBQ20101114035511611/14/10 03:55:31  5-MIN KDBQ 140955Z AUTO 27018G25KT 10SM FEW020 OVC028 02/M01 A2981 1180 82 -100 260/18G25 RMK AO2
94908KDBQ DBQ20101114040011611/14/10 04:00:31  5-MIN KDBQ 141000Z AUTO 27019G25KT 10SM FEW020 OVC028 02/M01 A2982 1170 82 -100 270/19G25 RMK AO2
94908KDBQ DBQ20101114040511611/14/10 04:05:31  5-MIN KDBQ 141005Z AUTO 27019G24KT 10SM SCT023 OVC028 02/M01 A2982 1170 82 -100 260/19G24 RMK AO2
94908KDBQ DBQ20101114041011611/14/10 04:10:31  5-MIN KDBQ 141010Z AUTO 26016G23KT 10SM FEW021 OVC026 02/M01 A2982 1170 82 -100 260/16G23 RMK AO2
94908KDBQ DBQ20101114041513411/14/10 04:15:31  5-MIN KDBQ 141015Z AUTO 26016G26KT 10SM FEW021 OVC026 02/M01 A2982 1170 82 -100 260/16G26 RMK AO2 PK WND 28026/1015
94908KDBQ DBQ20101114042013411/14/10 04:20:31  5-MIN KDBQ 141020Z AUTO 27017G26KT 10SM FEW021 OVC026 02/M01 A2982 1170 82 -100 260/17G26 RMK AO2 PK WND 28026/1015
94908KDBQ DBQ20101114042513411/14/10 04:25:31  5-MIN KDBQ 141025Z AUTO 27015G24KT 10SM FEW021 OVC026 02/M01 A2982 1170 82 -100 260/15G24 RMK AO2 PK WND 28026/1015
94908KDBQ DBQ20101114043012711/14/10 04:30:31  5-MIN KDBQ 141030Z AUTO 26015G24KT 10SM OVC026 02/M01 A2982 1170 82 -100 260/15G24 RMK AO2 PK WND 28026/1015
94908KDBQ DBQ20101114043512711/14/10 04:35:31  5-MIN KDBQ 141035Z AUTO 27015G21KT 10SM OVC026 02/M02 A2982 1170 78 -100 270/15G21 RMK AO2 PK WND 28026/1015
94908KDBQ DBQ20101114044012711/14/10 04:40:31  5-MIN KDBQ 141040Z AUTO 27016G22KT 10SM OVC026 02/M02 A2982 1170 78 -100 270/16G22 RMK AO2 PK WND 28026/1015
94908KDBQ DBQ20101114044512711/14/10 04:45:31  5-MIN KDBQ 141045Z AUTO 27015G24KT 10SM OVC026 02/M02 A2982 1170 78 -100 270/15G24 RMK AO2 PK WND 28026/1015
94908KDBQ DBQ20101114045014411/14/10 04:50:31  5-MIN KDBQ 141050Z AUTO 27012G24KT 10SM OVC028 02/M02 A2982 1170 78 -100 270/12G24 RMK AO2 PK WND 28026/1015 SLP107 T00171017
94908KDBQ DBQ20101114045510911/14/10 04:55:31  5-MIN KDBQ 141055Z AUTO 27014G22KT 10SM OVC026 02/M01 A2982 1170 82 -100 260/14G22 RMK AO2
94908KDBQ DBQ20101114050011611/14/10 05:00:31  5-MIN KDBQ 141100Z AUTO 27016G23KT 10SM BKN023 OVC028 02/M01 A2982 1170 82 -100 270/16G23 RMK AO2
94908KDBQ DBQ20101114050510911/14/10 05:05:31  5-MIN KDBQ 141105Z AUTO 26016G23KT 10SM OVC026 02/M01 A2982 1170 82 -100 260/16G23 RMK AO2
94908KDBQ DBQ20101114051011611/14/10 05:10:31  5-MIN KDBQ 141110Z AUTO 26014G20KT 10SM SCT023 OVC028 02/M01 A2982 1170 82 -100 260/14G20 RMK AO2
94908KDBQ DBQ20101114051510911/14/10 05:15:31  5-MIN KDBQ 141115Z AUTO 26013G22KT 10SM OVC026 02/M01 A2982 1170 82 -100 260/13G22 RMK AO2
94908KDBQ DBQ20101114052010911/14/10 05:20:31  5-MIN KDBQ 141120Z AUTO 26013G22KT 10SM OVC025 02/M01 A2982 1170 82 -100 260/13G22 RMK AO2
94908KDBQ DBQ20101114052511611/14/10 05:25:31  5-MIN KDBQ 141125Z AUTO 26017G23KT 10SM SCT022 OVC028 02/M01 A2983 1160 82 -100 260/17G23 RMK AO2
94908KDBQ DBQ20101114053011611/14/10 05:30:31  5-MIN KDBQ 141130Z AUTO 26016G23KT 10SM SCT022 OVC028 02/M01 A2983 1170 82 -100 260/16G23 RMK AO2
94908KDBQ DBQ20101114053511611/14/10 05:35:31  5-MIN KDBQ 141135Z AUTO 26015G23KT 10SM SCT021 OVC026 02/M01 A2983 1160 82 -100 260/15G23 RMK AO2
94908KDBQ DBQ20101114054011011/14/10 05:40:31  5-MIN KDBQ 141140Z AUTO 26015KT 10SM SCT018 OVC026 02/M01 A2983 1160 82 -100 260/15 RMK AO2
94908KDBQ DBQ20101114054511011/14/10 05:45:31  5-MIN KDBQ 141145Z AUTO 26016KT 10SM BKN018 OVC026 02/M01 A2983 1160 82 -100 260/16 RMK AO2
94908KDBQ DBQ20101114055015211/14/10 05:50:31  5-MIN KDBQ 141150Z 26015G23KT 10SM BKN018 OVC026 02/M01 A2983 1160 82 -100 260/15G23 RMK AO2 SLP111 70011 T00171011 10017 20017 53001
94908KDBQ DBQ20101114055511111/14/10 05:55:31  5-MIN KDBQ 141155Z 27013G23KT 10SM BKN018 OVC026 02/M01 A2984 1160 82 -100 270/13G23 RMK AO2
94908KDBQ DBQ20101114060011111/14/10 06:00:31  5-MIN KDBQ 141200Z 27017G24KT 10SM BKN020 OVC026 02/M01 A2983 1160 82 -100 270/17G24 RMK AO2
94908KDBQ DBQ20101114060511111/14/10 06:05:31  5-MIN KDBQ 141205Z 27017G25KT 10SM BKN020 OVC026 02/M01 A2984 1150 82 -100 260/17G25 RMK AO2
94908KDBQ DBQ20101114061011111/14/10 06:10:31  5-MIN KDBQ 141210Z 27021G25KT 10SM SCT018 OVC028 02/M01 A2984 1160 82 -100 270/21G25 RMK AO2
94908KDBQ DBQ20101114061512911/14/10 06:15:31  5-MIN KDBQ 141215Z 27020G27KT 10SM SCT018 OVC028 02/M02 A2984 1150 78 -100 270/20G27 RMK AO2 PK WND 26027/1214
94908KDBQ DBQ20101114062012911/14/10 06:20:31  5-MIN KDBQ 141220Z 26015G27KT 10SM FEW020 OVC026 02/M02 A2984 1150 78 -100 260/15G27 RMK AO2 PK WND 26027/1214
94908KDBQ DBQ20101114062512911/14/10 06:25:31  5-MIN KDBQ 141225Z 27016G23KT 10SM FEW020 OVC026 02/M01 A2984 1160 82 -100 270/16G23 RMK AO2 PK WND 26027/1214
94908KDBQ DBQ20101114063012911/14/10 06:30:31  5-MIN KDBQ 141230Z 27014G23KT 10SM SCT020 OVC026 02/M01 A2984 1150 82 -100 270/14G23 RMK AO2 PK WND 26027/1214
94908KDBQ DBQ20101114063512911/14/10 06:35:31  5-MIN KDBQ 141235Z 27018G23KT 10SM BKN022 OVC026 02/M01 A2984 1150 82 -100 270/18G23 RMK AO2 PK WND 26027/1214
94908KDBQ DBQ20101114064012211/14/10 06:40:31  5-MIN KDBQ 141240Z 27014G23KT 10SM OVC022 02/M01 A2984 1150 82 -100 260/14G23 RMK AO2 PK WND 26027/1214
94908KDBQ DBQ20101114064512911/14/10 06:45:31  5-MIN KDBQ 141245Z 27015G23KT 10SM BKN022 OVC027 02/M01 A2985 1150 82 -100 270/15G23 RMK AO2 PK WND 26027/1214
94908KDBQ DBQ20101114065013911/14/10 06:50:31  5-MIN KDBQ 141250Z 26014G23KT 10SM OVC024 02/M02 A2985 1150 78 -100 260/14G23 RMK AO2 PK WND 26027/1214 SLP116 T00171017
94908KDBQ DBQ20101114065510411/14/10 06:55:31  5-MIN KDBQ 141255Z 26016G22KT 10SM OVC024 01/M02 A2985 1150 82 -200 260/16G22 RMK AO2
94908KDBQ DBQ20101114070009811/14/10 07:00:31  5-MIN KDBQ 141300Z 27016KT 10SM OVC022 02/M02 A2985 1150 78 -100 260/16 RMK AO2
94908KDBQ DBQ20101114070510411/14/10 07:05:31  5-MIN KDBQ 141305Z 27018G23KT 10SM OVC022 02/M02 A2985 1150 78 -100 270/18G23 RMK AO2
94908KDBQ DBQ20101114071012211/14/10 07:10:31  5-MIN KDBQ 141310Z 28020G30KT 10SM OVC022 01/M02 A2985 1140 82 -200 270/20G30 RMK AO2 PK WND 27030/1309
94908KDBQ DBQ20101114071512911/14/10 07:15:31  5-MIN KDBQ 141315Z 27015G30KT 10SM BKN020 OVC025 01/M02 A2985 1140 82 -200 270/15G30 RMK AO2 PK WND 27030/1309
94908KDBQ DBQ20101114072012211/14/10 07:20:31  5-MIN KDBQ 141320Z 27016G24KT 10SM OVC020 01/M02 A2985 1140 82 -200 270/16G24 RMK AO2 PK WND 27030/1309
94908KDBQ DBQ20101114072511611/14/10 07:25:31  5-MIN KDBQ 141325Z 27014KT 10SM OVC020 01/M02 A2986 1140 82 -200 270/14 RMK AO2 PK WND 27030/1309
94908KDBQ DBQ20101114073011611/14/10 07:30:31  5-MIN KDBQ 141330Z 27013KT 10SM OVC020 01/M02 A2986 1140 82 -200 260/13 RMK AO2 PK WND 27030/1309
94908KDBQ DBQ20101114073512211/14/10 07:35:31  5-MIN KDBQ 141335Z 27016G20KT 10SM OVC018 01/M02 A2986 1130 82 -200 270/16G20 RMK AO2 PK WND 27030/1309
94908KDBQ DBQ20101114074012211/14/10 07:40:31  5-MIN KDBQ 141340Z 27017G23KT 10SM OVC018 01/M02 A2986 1130 82 -200 270/17G23 RMK AO2 PK WND 27030/1309
94908KDBQ DBQ20101114074512211/14/10 07:45:31  5-MIN KDBQ 141345Z 27017G25KT 10SM OVC018 01/M02 A2987 1130 82 -200 270/17G25 RMK AO2 PK WND 27030/1309
94908KDBQ DBQ20101114075013911/14/10 07:50:31  5-MIN KDBQ 141350Z 26014G25KT 10SM OVC018 02/M02 A2987 1130 78 -100 260/14G25 RMK AO2 PK WND 27030/1309 SLP124 T00171017
94908KDBQ DBQ20101114075510411/14/10 07:55:31  5-MIN KDBQ 141355Z 26013G23KT 10SM OVC018 01/M01 A2986 1130 85 -200 260/13G23 RMK AO2
94908KDBQ DBQ20101114080010411/14/10 08:00:31  5-MIN KDBQ 141400Z 27018G25KT 10SM OVC018 02/M02 A2987 1130 78 -100 260/18G25 RMK AO2
94908KDBQ DBQ20101114080510411/14/10 08:05:31  5-MIN KDBQ 141405Z 27016G25KT 10SM OVC018 02/M02 A2987 1120 78 -100 270/16G25 RMK AO2
94908KDBQ DBQ20101114081010411/14/10 08:10:31  5-MIN KDBQ 141410Z 26015G22KT 10SM BKN018 02/M02 A2987 1120 78 -100 260/15G22 RMK AO2
94908KDBQ DBQ20101114081510411/14/10 08:15:31  5-MIN KDBQ 141415Z 26016G22KT 10SM OVC018 02/M01 A2987 1120 82 -100 250/16G22 RMK AO2
94908KDBQ DBQ20101114082010511/14/10 08:20:31  5-MIN KDBQ 141420Z 25015KT 10SM BKN016 OVC021 02/M01 A2987 1120 85 -100 250/15 RMK AO2
94908KDBQ DBQ20101114082511111/14/10 08:25:31  5-MIN KDBQ 141425Z 26016G21KT 10SM BKN016 OVC021 02/M01 A2987 1130 82 -100 260/16G21 RMK AO2
94908KDBQ DBQ20101114083010411/14/10 08:30:31  5-MIN KDBQ 141430Z 26017G21KT 10SM OVC018 02/M01 A2987 1120 82 -100 260/17G21 RMK AO2
94908KDBQ DBQ20101114083510411/14/10 08:35:31  5-MIN KDBQ 141435Z 26017G23KT 10SM OVC016 02/M01 A2987 1130 82 -100 260/17G23 RMK AO2
94908KDBQ DBQ20101114084010411/14/10 08:40:31  5-MIN KDBQ 141440Z 26014G23KT 10SM OVC016 02/M01 A2987 1120 82 -100 260/14G23 RMK AO2
94908KDBQ DBQ20101114084509811/14/10 08:45:31  5-MIN KDBQ 141445Z 26014KT 10SM OVC016 02/M01 A2987 1130 82 -100 260/14 RMK AO2
94908KDBQ DBQ20101114085012711/14/10 08:50:31  5-MIN KDBQ 141450Z 26015G24KT 10SM OVC016 01/M02 A2987 1130 82 -200 260/15G24 RMK AO2 SLP124 T00111017 53009
94908KDBQ DBQ20101114085512211/14/10 08:55:31  5-MIN KDBQ 141455Z 26019G28KT 10SM OVC016 02/M01 A2987 1120 82 -100 260/19G28 RMK AO2 PK WND 26028/1455
94908KDBQ DBQ20101114090012211/14/10 09:00:31  5-MIN KDBQ 141500Z 27019G28KT 10SM OVC016 02/M02 A2987 1130 78 -100 270/19G28 RMK AO2 PK WND 26028/1455
94908KDBQ DBQ20101114090512211/14/10 09:05:31  5-MIN KDBQ 141505Z 26016G25KT 10SM OVC016 01/M02 A2987 1120 82 -200 260/16G25 RMK AO2 PK WND 26028/1455
94908KDBQ DBQ20101114091012211/14/10 09:10:31  5-MIN KDBQ 141510Z 26016G22KT 10SM OVC016 02/M02 A2987 1130 78 -100 260/16G22 RMK AO2 PK WND 26028/1455
94908KDBQ DBQ20101114091511611/14/10 09:15:31  5-MIN KDBQ 141515Z 25016KT 10SM OVC016 02/M01 A2986 1130 78 -100 250/16 RMK AO2 PK WND 26028/1455
94908KDBQ DBQ20101114092011611/14/10 09:20:31  5-MIN KDBQ 141520Z 25016KT 10SM OVC016 02/M01 A2987 1130 82 -100 250/16 RMK AO2 PK WND 26028/1455
94908KDBQ DBQ20101114092511611/14/10 09:25:31  5-MIN KDBQ 141525Z 25016KT 10SM OVC016 02/M01 A2986 1130 82 -100 250/16 RMK AO2 PK WND 26028/1455
94908KDBQ DBQ20101114093011611/14/10 09:30:31  5-MIN KDBQ 141530Z 26017KT 10SM OVC016 02/M01 A2987 1130 82 -100 260/17 RMK AO2 PK WND 26028/1455
94908KDBQ DBQ20101114093511611/14/10 09:35:31  5-MIN KDBQ 141535Z 26015KT 10SM OVC016 02/M01 A2986 1130 82 -100 260/15 RMK AO2 PK WND 26028/1455
94908KDBQ DBQ20101114094012211/14/10 09:40:31  5-MIN KDBQ 141540Z 26015G22KT 10SM OVC016 02/M01 A2986 1130 82 -100 260/15G22 RMK AO2 PK WND 26028/1455
94908KDBQ DBQ20101114094512211/14/10 09:45:31  5-MIN KDBQ 141545Z 26016G22KT 10SM OVC016 02/M01 A2986 1130 82 -100 260/16G22 RMK AO2 PK WND 26028/1455
94908KDBQ DBQ20101114095013911/14/10 09:50:31  5-MIN KDBQ 141550Z 25013G21KT 10SM OVC016 02/M01 A2986 1130 82 -100 250/13G21 RMK AO2 PK WND 26028/1455 SLP122 T00171011
94908KDBQ DBQ20101114095509811/14/10 09:55:31  5-MIN KDBQ 141555Z 26015KT 10SM SCT012 02/M01 A2986 1130 78 -100 260/15 RMK AO2
94908KDBQ DBQ20101114100011111/14/10 10:00:31  5-MIN KDBQ 141600Z 26015G21KT 10SM SCT012 BKN085 02/M01 A2987 1130 78 -100 260/15G21 RMK AO2
94908KDBQ DBQ20101114100511111/14/10 10:05:31  5-MIN KDBQ 141605Z 26013G21KT 10SM FEW012 BKN085 02/M01 A2986 1130 78 -100 260/13G21 RMK AO2
94908KDBQ DBQ20101114101010511/14/10 10:10:31  5-MIN KDBQ 141610Z 26014KT 10SM FEW012 BKN085 02/M01 A2986 1130 78 -100 260/14 RMK AO2
94908KDBQ DBQ20101114101510811/14/10 10:15:31  5-MIN KDBQ 141615Z 25013G20KT 10SM FEW012 BKN085 03/M01 A2986 1130 79 0 250/13G20 RMK AO2
94908KDBQ DBQ20101114102010811/14/10 10:20:31  5-MIN KDBQ 141620Z 25014G20KT 10SM FEW012 BKN085 03/M01 A2986 1130 76 0 250/14G20 RMK AO2
94908KDBQ DBQ20101114102510811/14/10 10:25:31  5-MIN KDBQ 141625Z 26014G20KT 10SM FEW014 BKN090 03/M01 A2986 1130 79 0 260/14G20 RMK AO2
94908KDBQ DBQ20101114103010811/14/10 10:30:31  5-MIN KDBQ 141630Z 26012G20KT 10SM FEW014 OVC090 03/M01 A2986 1140 79 0 260/12G20 RMK AO2
94908KDBQ DBQ20101114103510211/14/10 10:35:31  5-MIN KDBQ 141635Z 24013KT 10SM FEW014 OVC090 03/M01 A2986 1140 79 0 240/13 RMK AO2
94908KDBQ DBQ20101114104011511/14/10 10:40:31  5-MIN KDBQ 141640Z 24013G20KT 10SM FEW014 SCT070 OVC090 03/M01 A2986 1140 79 0 240/13G20 RMK AO2
94908KDBQ DBQ20101114104510911/14/10 10:45:31  5-MIN KDBQ 141645Z 24016G20KT 10SM BKN075 OVC090 04/00 A2985 1140 76 100 240/16G20 RMK AO2
94908KDBQ DBQ20101114105012711/14/10 10:50:31  5-MIN KDBQ 141650Z 25013KT 10SM FEW014 BKN075 OVC090 04/00 A2985 1140 76 100 250/13 RMK AO2 SLP118 T00390000
94908KDBQ DBQ20101114105511011/14/10 10:55:31  5-MIN KDBQ 141655Z 25015KT 10SM FEW014 BKN075 OVC090 04/00 A2985 1150 76 100 250/15 RMK AO2
94908KDBQ DBQ20101114110011111/14/10 11:00:31  5-MIN KDBQ 141700Z 25014KT 10SM FEW017 BKN075 BKN090 04/M01 A2985 1150 73 100 250/14 RMK AO2
94908KDBQ DBQ20101114110510411/14/10 11:05:31  5-MIN KDBQ 141705Z 25015KT 10SM FEW017 BKN075 04/M01 A2984 1150 73 100 250/15 RMK AO2
94908KDBQ DBQ20101114111010911/14/10 11:10:31  5-MIN KDBQ 141710Z 25016G22KT 10SM FEW017 SCT075 04/00 A2984 1150 73 200 250/16G22 RMK AO2
94908KDBQ DBQ20101114111511011/14/10 11:15:31  5-MIN KDBQ 141715Z 25016G22KT 10SM FEW017 SCT080 04/M01 A2984 1160 70 200 250/16G22 RMK AO2
94908KDBQ DBQ20101114112010411/14/10 11:20:31  5-MIN KDBQ 141720Z 25016KT 10SM FEW017 SCT080 04/M01 A2984 1160 73 100 250/16 RMK AO2
94908KDBQ DBQ20101114112510411/14/10 11:25:31  5-MIN KDBQ 141725Z 25016KT 10SM FEW017 BKN080 04/M01 A2984 1160 73 100 240/16 RMK AO2
94908KDBQ DBQ20101114113010411/14/10 11:30:31  5-MIN KDBQ 141730Z 26013KT 10SM FEW017 BKN080 04/M01 A2983 1160 73 100 260/13 RMK AO2
94908KDBQ DBQ20101114113509611/14/10 11:35:31  5-MIN KDBQ 141735Z 25015KT 10SM BKN085 04/00 A2983 1160 76 100 250/15 RMK AO2
94908KDBQ DBQ20101114114009611/14/10 11:40:31  5-MIN KDBQ 141740Z 26014KT 10SM OVC085 04/00 A2983 1160 76 100 260/14 RMK AO2
94908KDBQ DBQ20101114114510311/14/10 11:45:31  5-MIN KDBQ 141745Z 25016KT 10SM FEW019 OVC085 04/00 A2983 1160 76 100 250/16 RMK AO2
94908KDBQ DBQ20101114115013911/14/10 11:50:31  5-MIN KDBQ 141750Z 25015KT 10SM FEW021 OVC085 04/M01 A2983 1160 70 200 250/15 RMK AO2 SLP110 T00441006 10044 20011 51011
94908KDBQ DBQ20101114115511111/14/10 11:55:31  5-MIN KDBQ 141755Z 25014KT 10SM FEW020 SCT026 OVC085 04/M01 A2983 1160 70 200 250/14 RMK AO2
94908KDBQ DBQ20101114120010411/14/10 12:00:31  5-MIN KDBQ 141800Z 27012KT 10SM BKN023 OVC085 04/M01 A2983 1160 70 200 270/12 RMK AO2
94908KDBQ DBQ20101114120511011/14/10 12:05:31  5-MIN KDBQ 141805Z 25015KT 10SM BKN021 BKN026 OVC085 04/00 A2983 1160 73 200 250/15 RMK AO2
94908KDBQ DBQ20101114121010411/14/10 12:10:31  5-MIN KDBQ 141810Z 25015KT 10SM BKN023 OVC085 04/M01 A2983 1160 70 200 250/15 RMK AO2
94908KDBQ DBQ20101114121509711/14/10 12:15:31  5-MIN KDBQ 141815Z 26013KT 10SM OVC023 04/M01 A2983 1160 70 200 260/13 RMK AO2
94908KDBQ DBQ20101114122009711/14/10 12:20:31  5-MIN KDBQ 141820Z 26015KT 10SM OVC023 04/M01 A2983 1160 70 200 260/15 RMK AO2
94908KDBQ DBQ20101114122509611/14/10 12:25:31  5-MIN KDBQ 141825Z 25014KT 10SM OVC023 04/00 A2983 1170 73 200 240/14 RMK AO2
94908KDBQ DBQ20101114123009611/14/10 12:30:31  5-MIN KDBQ 141830Z 26016KT 10SM OVC023 04/00 A2983 1160 73 200 260/16 RMK AO2
94908KDBQ DBQ20101114123509711/14/10 12:35:31  5-MIN KDBQ 141835Z 26014KT 10SM OVC023 04/M01 A2983 1170 70 200 260/14 RMK AO2
94908KDBQ DBQ20101114124010411/14/10 12:40:31  5-MIN KDBQ 141840Z 26012KT 10SM BKN023 BKN031 04/M01 A2983 1160 70 200 260/12 RMK AO2
94908KDBQ DBQ20101114124510311/14/10 12:45:31  5-MIN KDBQ 141845Z 26011KT 10SM BKN023 BKN027 04/00 A2982 1170 73 200 260/11 RMK AO2
94908KDBQ DBQ20101114125011311/14/10 12:50:31  5-MIN KDBQ 141850Z 26013KT 10SM BKN023 04/00 A2982 1170 76 100 260/13 RMK AO2 SLP108 T00390000
94908KDBQ DBQ20101114125511011/14/10 12:55:31  5-MIN KDBQ 141855Z 26011KT 10SM BKN021 BKN027 OVC034 04/00 A2982 1170 73 200 250/11 RMK AO2
94908KDBQ DBQ20101114130011011/14/10 13:00:31  5-MIN KDBQ 141900Z 25012KT 10SM SCT021 BKN027 OVC034 04/00 A2982 1170 73 200 250/12 RMK AO2
94908KDBQ DBQ20101114130511011/14/10 13:05:31  5-MIN KDBQ 141905Z 24010KT 10SM BKN022 BKN026 OVC034 04/00 A2982 1180 73 200 240/10 RMK AO2
94908KDBQ DBQ20101114131011011/14/10 13:10:31  5-MIN KDBQ 141910Z 24010KT 10SM BKN020 BKN028 OVC036 04/01 A2982 1170 76 200 240/10 RMK AO2
94908KDBQ DBQ20101114131510311/14/10 13:15:31  5-MIN KDBQ 141915Z 25010KT 10SM BKN022 OVC028 04/01 A2982 1180 76 200 250/10 RMK AO2
94908KDBQ DBQ20101114132011011/14/10 13:20:31  5-MIN KDBQ 141920Z 23014KT 10SM BKN022 BKN029 OVC036 04/00 A2981 1180 73 200 230/14 RMK AO2
94908KDBQ DBQ20101114132510311/14/10 13:25:31  5-MIN KDBQ 141925Z 23016KT 10SM BKN022 OVC032 04/00 A2981 1180 73 200 230/16 RMK AO2
94908KDBQ DBQ20101114133011011/14/10 13:30:31  5-MIN KDBQ 141930Z 25016KT 10SM BKN022 BKN031 OVC041 04/00 A2981 1180 73 200 250/16 RMK AO2
94908KDBQ DBQ20101114133511011/14/10 13:35:31  5-MIN KDBQ 141935Z 24014KT 10SM BKN022 BKN031 OVC038 04/00 A2981 1180 73 200 240/14 RMK AO2
94908KDBQ DBQ20101114134011611/14/10 13:40:31  5-MIN KDBQ 141940Z 24013G20KT 10SM BKN022 BKN031 OVC038 04/00 A2981 1180 73 200 240/13G20 RMK AO2
94908KDBQ DBQ20101114134511011/14/10 13:45:31  5-MIN KDBQ 141945Z 24016KT 10SM BKN022 BKN031 OVC038 04/00 A2980 1190 73 200 240/16 RMK AO2
94908KDBQ DBQ20101114135012711/14/10 13:50:31  5-MIN KDBQ 141950Z 25015KT 10SM BKN022 BKN031 OVC038 04/00 A2980 1190 73 200 250/15 RMK AO2 SLP100 T00440000
94908KDBQ DBQ20101114135511011/14/10 13:55:31  5-MIN KDBQ 141955Z 24014KT 10SM SCT031 BKN042 OVC060 04/00 A2980 1190 73 200 240/14 RMK AO2
94908KDBQ DBQ20101114140011611/14/10 14:00:31  5-MIN KDBQ 142000Z 24015G20KT 10SM FEW026 BKN044 OVC060 04/00 A2980 1190 73 200 240/15G20 RMK AO2
94908KDBQ DBQ20101114140511011/14/10 14:05:31  5-MIN KDBQ 142005Z 24012KT 10SM SCT026 BKN033 OVC060 04/00 A2980 1190 73 200 240/12 RMK AO2
94908KDBQ DBQ20101114141011011/14/10 14:10:31  5-MIN KDBQ 142010Z 24011KT 10SM SCT024 BKN031 OVC060 04/01 A2980 1190 76 200 240/11 RMK AO2
94908KDBQ DBQ20101114141511011/14/10 14:15:31  5-MIN KDBQ 142015Z 25014KT 10SM FEW022 BKN028 OVC046 04/01 A2980 1190 79 200 250/14 RMK AO2
94908KDBQ DBQ20101114142012511/14/10 14:20:31  5-MIN KDBQ 142020Z 25014KT 9SM -RA FEW022 BKN028 OVC046 04/01 A2979 1190 79 200 250/14 RMK AO2 RAB18 P0000
94908KDBQ DBQ20101114142512611/14/10 14:25:31  5-MIN KDBQ 142025Z 25013KT 10SM -RA BKN024 BKN030 OVC035 04/01 A2980 1190 79 200 250/13 RMK AO2 RAB18 P0000
94908KDBQ DBQ20101114143011811/14/10 14:30:31  5-MIN KDBQ 142030Z 24015KT 10SM SCT021 OVC027 04/01 A2980 1190 79 200 240/15 RMK AO2 RAB18E28 P0000
94908KDBQ DBQ20101114143512511/14/10 14:35:31  5-MIN KDBQ 142035Z 24013KT 8SM -RA BKN021 BKN027 OVC034 04/01 A2980 1190 79 200 240/13 RMK AO2 RAB18 P0000
94908KDBQ DBQ20101114144011811/14/10 14:40:31  5-MIN KDBQ 142040Z 25013KT 9SM -RA SCT019 OVC027 04/01 A2980 1190 82 200 240/13 RMK AO2 RAB18 P0000
94908KDBQ DBQ20101114144513111/14/10 14:45:31  5-MIN KDBQ 142045Z 26015G19KT 10SM SCT017 BKN027 OVC037 04/01 A2980 1190 82 200 260/15G19 RMK AO2 RAB18E44 P0000
94908KDBQ DBQ20101114145015411/14/10 14:50:31  5-MIN KDBQ 142050Z 25015KT 10SM SCT019 BKN024 OVC044 04/01 A2980 1190 79 200 250/15 RMK AO2 RAB18E44 SLP100 P0000 60000 T00390006 58013
94908KDBQ DBQ20101114145511011/14/10 14:55:31  5-MIN KDBQ 142055Z 25016KT 10SM SCT019 BKN029 OVC041 04/01 A2980 1190 79 200 250/16 RMK AO2
94908KDBQ DBQ20101114150011011/14/10 15:00:31  5-MIN KDBQ 142100Z 25018KT 10SM SCT019 BKN036 OVC043 04/01 A2980 1190 79 200 250/18 RMK AO2
94908KDBQ DBQ20101114150511011/14/10 15:05:31  5-MIN KDBQ 142105Z 25017KT 10SM FEW019 SCT026 OVC039 04/00 A2981 1180 76 200 250/17 RMK AO2
94908KDBQ DBQ20101114151011011/14/10 15:10:31  5-MIN KDBQ 142110Z 25017KT 10SM FEW019 SCT026 OVC037 04/00 A2981 1180 76 200 250/17 RMK AO2
94908KDBQ DBQ20101114151511011/14/10 15:15:31  5-MIN KDBQ 142115Z 25015KT 10SM SCT024 BKN033 OVC040 03/00 A2981 1180 79 100 250/15 RMK AO2
94908KDBQ DBQ20101114152011611/14/10 15:20:31  5-MIN KDBQ 142120Z 26017G23KT 10SM FEW024 SCT028 OVC038 03/00 A2982 1180 79 100 260/17G23 RMK AO2
94908KDBQ DBQ20101114152511011/14/10 15:25:31  5-MIN KDBQ 142125Z 25016G23KT 10SM SCT024 OVC036 03/M01 A2981 1180 76 100 250/16G23 RMK AO2
94908KDBQ DBQ20101114153010411/14/10 15:30:31  5-MIN KDBQ 142130Z 25016KT 10SM SCT026 OVC036 03/M01 A2981 1180 76 100 250/16 RMK AO2
94908KDBQ DBQ20101114153510411/14/10 15:35:31  5-MIN KDBQ 142135Z 25015KT 10SM BKN026 OVC036 03/M01 A2981 1180 76 100 250/15 RMK AO2
94908KDBQ DBQ20101114154011111/14/10 15:40:31  5-MIN KDBQ 142140Z 25016KT 10SM FEW023 SCT029 OVC035 03/M01 A2981 1180 76 100 250/16 RMK AO2
94908KDBQ DBQ20101114154511111/14/10 15:45:31  5-MIN KDBQ 142145Z 25017KT 10SM FEW023 BKN029 OVC070 03/M01 A2981 1180 76 100 250/17 RMK AO2
94908KDBQ DBQ20101114155011111/14/10 15:50:31  5-MIN KDBQ 142150Z 25016KT 10SM FEW027 BKN034 OVC070 03/M01 A2981 1180 72 100 250/16 RMK AO2
94908KDBQ DBQ20101114155511111/14/10 15:55:31  5-MIN KDBQ 142155Z 25015KT 10SM FEW027 SCT034 OVC070 03/M01 A2981 1180 76 100 250/15 RMK AO2
94908KDBQ DBQ20101114160011111/14/10 16:00:31  5-MIN KDBQ 142200Z 25017KT 10SM FEW027 SCT034 OVC070 03/M01 A2981 1180 72 100 250/17 RMK AO2
94908KDBQ DBQ20101114160511111/14/10 16:05:31  5-MIN KDBQ 142205Z 25014KT 10SM FEW034 SCT042 OVC070 03/M01 A2981 1180 72 100 240/14 RMK AO2
94908KDBQ DBQ20101114161011111/14/10 16:10:31  5-MIN KDBQ 142210Z 25014KT 10SM FEW034 SCT042 OVC070 03/M01 A2981 1180 76 100 240/14 RMK AO2
94908KDBQ DBQ20101114161510811/14/10 16:15:31  5-MIN KDBQ 142215Z 24013G19KT 10SM FEW042 OVC070 03/M01 A2981 1180 79 0 240/13G19 RMK AO2
94908KDBQ DBQ20101114162011011/14/10 16:20:31  5-MIN KDBQ 142220Z 24013G19KT 10SM FEW042 OVC070 03/M01 A2981 1180 76 100 240/13G19 RMK AO2
94908KDBQ DBQ20101114162510811/14/10 16:25:31  5-MIN KDBQ 142225Z 24013G21KT 10SM FEW042 OVC070 03/M01 A2981 1180 79 0 240/13G21 RMK AO2
94908KDBQ DBQ20101114163010811/14/10 16:30:31  5-MIN KDBQ 142230Z 24013G21KT 10SM FEW040 OVC070 03/M01 A2981 1180 79 0 240/13G21 RMK AO2
94908KDBQ DBQ20101114163510211/14/10 16:35:31  5-MIN KDBQ 142235Z 24012KT 10SM FEW040 OVC070 03/M01 A2982 1180 79 0 240/12 RMK AO2
94908KDBQ DBQ20101114164010811/14/10 16:40:31  5-MIN KDBQ 142240Z 24013KT 10SM FEW025 SCT039 OVC070 03/00 A2981 1180 82 0 230/13 RMK AO2
94908KDBQ DBQ20101114164511711/14/10 16:45:31  5-MIN KDBQ 142245Z 24013G20KT 10SM FEW025 BKN039 OVC070 03/M01 A2981 1180 76 100 230/13G20 RMK AO2
94908KDBQ DBQ20101114165013311/14/10 16:50:31  5-MIN KDBQ 142250Z 23013G20KT 10SM FEW025 BKN039 OVC070 03/00 A2981 1180 79 100 230/13G20 RMK AO2 SLP104 T00330000
94908KDBQ DBQ20101114165511111/14/10 16:55:31  5-MIN KDBQ 142255Z 23011KT 10SM FEW025 BKN039 OVC070 03/M01 A2981 1180 76 100 230/11 RMK AO2
94908KDBQ DBQ20101114170011711/14/10 17:00:31  5-MIN KDBQ 142300Z 24013G20KT 10SM FEW023 BKN039 OVC075 03/M01 A2981 1180 76 100 230/13G20 RMK AO2
94908KDBQ DBQ20101114170511711/14/10 17:05:31  5-MIN KDBQ 142305Z 24014G20KT 10SM FEW023 BKN030 OVC039 03/M01 A2981 1180 76 100 240/14G20 RMK AO2
94908KDBQ DBQ20101114171011711/14/10 17:10:31  5-MIN KDBQ 142310Z 24014G20KT 10SM FEW024 SCT029 OVC039 03/M01 A2982 1170 76 100 240/14G20 RMK AO2
94908KDBQ DBQ20101114171511711/14/10 17:15:31  5-MIN KDBQ 142315Z 24013G20KT 10SM FEW024 BKN030 OVC039 03/M01 A2982 1170 76 100 240/13G20 RMK AO2
94908KDBQ DBQ20101114172011111/14/10 17:20:31  5-MIN KDBQ 142320Z 24012KT 10SM BKN028 BKN033 OVC039 03/M01 A2982 1170 76 100 240/12 RMK AO2
94908KDBQ DBQ20101114172511711/14/10 17:25:31  5-MIN KDBQ 142325Z 24013G20KT 10SM BKN030 BKN036 OVC044 03/M01 A2982 1170 76 100 230/13G20 RMK AO2
94908KDBQ DBQ20101114173011511/14/10 17:30:31  5-MIN KDBQ 142330Z 23014G20KT 10SM FEW028 BKN036 OVC046 03/M01 A2982 1170 79 0 230/14G20 RMK AO2
94908KDBQ DBQ20101114173511011/14/10 17:35:31  5-MIN KDBQ 142335Z 24012G19KT 10SM SCT032 OVC046 03/M01 A2982 1170 76 100 240/12G19 RMK AO2
94908KDBQ DBQ20101114174011511/14/10 17:40:31  5-MIN KDBQ 142340Z 24013G19KT 10SM FEW028 SCT034 OVC044 03/M01 A2981 1180 79 0 240/13G19 RMK AO2
94908KDBQ DBQ20101114174510811/14/10 17:45:31  5-MIN KDBQ 142345Z 24013G20KT 10SM FEW030 OVC042 03/M01 A2982 1170 79 0 240/13G20 RMK AO2
94908KDBQ DBQ20101114175014211/14/10 17:50:31  5-MIN KDBQ 142350Z 24012G20KT 10SM OVC042 03/M01 A2982 1170 79 0 240/12G20 RMK AO2 SLP108 60000 T00281006 10044 20028 56009
94908KDBQ DBQ20101114175510811/14/10 17:55:31  5-MIN KDBQ 142355Z 24014G19KT 10SM BKN039 OVC048 03/M01 A2982 1170 79 0 240/14G19 RMK AO2
94908KDBQ DBQ20101114180010811/14/10 18:00:31  5-MIN KDBQ 150000Z 24014G20KT 10SM BKN039 OVC065 03/M01 A2982 1170 79 0 240/14G20 RMK AO2
94908KDBQ DBQ20101114180511511/14/10 18:05:31  5-MIN KDBQ 150005Z 24011G20KT 10SM FEW031 BKN041 OVC065 03/M01 A2982 1170 79 0 240/11G20 RMK AO2
94908KDBQ DBQ20101114181011511/14/10 18:10:31  5-MIN KDBQ 150010Z 24015G19KT 10SM FEW031 BKN041 OVC065 03/M01 A2982 1170 79 0 240/15G19 RMK AO2
94908KDBQ DBQ20101114181510811/14/10 18:15:31  5-MIN KDBQ 150015Z 24014KT 9SM FEW027 BKN041 OVC065 03/M01 A2983 1170 79 0 240/14 RMK AO2
94908KDBQ DBQ20101114182012411/14/10 18:20:31  5-MIN KDBQ 150020Z 25013KT 8SM -SN SCT025 BKN033 OVC065 03/M01 A2983 1160 79 0 250/13 RMK AO2 SNB16 P0000
94908KDBQ DBQ20101114182512411/14/10 18:25:31  5-MIN KDBQ 150025Z 25012KT 8SM -SN FEW019 BKN024 OVC065 03/M01 A2983 1160 79 0 250/12 RMK AO2 SNB16 P0000
94908KDBQ DBQ20101114183012311/14/10 18:30:31  5-MIN KDBQ 150030Z 27011KT 9SM SCT021 BKN030 OVC065 03/M01 A2983 1160 79 0 270/11 RMK AO2 SNB16E27 P0000
94908KDBQ DBQ20101114183512411/14/10 18:35:31  5-MIN KDBQ 150035Z 27013KT 10SM SCT021 BKN028 OVC065 03/M01 A2983 1160 79 0 270/13 RMK AO2 SNB16E27 P0000
94908KDBQ DBQ20101114184013011/14/10 18:40:31  5-MIN KDBQ 150040Z 27010G18KT 10SM SCT021 SCT028 OVC070 02/M01 A2983 1160 78 0 270/10G18 RMK AO2 SNB16E27 P0000
94908KDBQ DBQ20101114184512411/14/10 18:45:31  5-MIN KDBQ 150045Z 27010KT 10SM FEW019 SCT025 OVC070 02/M01 A2983 1160 78 0 270/10 RMK AO2 SNB16E27 P0000
94908KDBQ DBQ20101114185014311/14/10 18:50:31  5-MIN KDBQ 150050Z 26013G18KT 10SM FEW019 OVC070 02/M01 A2983 1160 82 -100 260/13G18 RMK AO2 SNB16E27 SLP112 P0000 T00171011
94908KDBQ DBQ20101114185509811/14/10 18:55:31  5-MIN KDBQ 150055Z 27011KT 10SM OVC070 02/M01 A2983 1160 82 -100 270/11 RMK AO2
94908KDBQ DBQ20101114190009811/14/10 19:00:31  5-MIN KDBQ 150100Z 27011KT 10SM OVC070 02/M01 A2983 1160 82 -100 270/11 RMK AO2
94908KDBQ DBQ20101114190509811/14/10 19:05:31  5-MIN KDBQ 150105Z 27009KT 10SM OVC070 02/M01 A2983 1160 82 -100 270/09 RMK AO2
94908KDBQ DBQ20101114191009811/14/10 19:10:31  5-MIN KDBQ 150110Z 27010KT 10SM OVC070 02/M02 A2983 1160 78 -100 270/10 RMK AO2
94908KDBQ DBQ20101114191509811/14/10 19:15:31  5-MIN KDBQ 150115Z 27009KT 10SM BKN070 02/M02 A2983 1160 78 -100 270/09 RMK AO2
94908KDBQ DBQ20101114192009811/14/10 19:20:31  5-MIN KDBQ 150120Z 26009KT 10SM BKN065 01/M02 A2983 1160 82 -200 260/09 RMK AO2
94908KDBQ DBQ20101114192509811/14/10 19:25:31  5-MIN KDBQ 150125Z 26008KT 10SM SCT065 01/M02 A2983 1160 82 -200 260/08 RMK AO2
94908KDBQ DBQ20101114193010511/14/10 19:30:31  5-MIN KDBQ 150130Z 27007KT 10SM FEW033 SCT065 01/M02 A2983 1160 82 -200 270/07 RMK AO2
94908KDBQ DBQ20101114193510511/14/10 19:35:31  5-MIN KDBQ 150135Z 27008KT 10SM SCT033 SCT065 01/M02 A2983 1160 82 -200 270/08 RMK AO2
94908KDBQ DBQ20101114194009811/14/10 19:40:31  5-MIN KDBQ 150140Z 27007KT 10SM SCT035 01/M02 A2983 1160 82 -200 270/07 RMK AO2
94908KDBQ DBQ20101114194509811/14/10 19:45:31  5-MIN KDBQ 150145Z 26007KT 10SM SCT035 01/M02 A2983 1160 85 -200 260/07 RMK AO2
94908KDBQ DBQ20101114195011511/14/10 19:50:31  5-MIN KDBQ 150150Z 26007KT 10SM SCT035 01/M02 A2983 1160 85 -200 250/07 RMK AO2 SLP111 T00061017
94908KDBQ DBQ20101114195509811/14/10 19:55:31  5-MIN KDBQ 150155Z 26006KT 10SM SCT035 01/M02 A2983 1170 85 -200 260/06 RMK AO2
94908KDBQ DBQ20101114200010311/14/10 20:00:31  5-MIN KDBQ 150200Z AUTO 26005KT 10SM FEW035 00/M02 A2983 1170 88 -300 250/05 RMK AO2
94908KDBQ DBQ20101114200510311/14/10 20:05:31  5-MIN KDBQ 150205Z AUTO 25006KT 10SM FEW035 00/M02 A2983 1170 88 -300 250/06 RMK AO2
94908KDBQ DBQ20101114201010211/14/10 20:10:31  5-MIN KDBQ 150210Z AUTO 26006KT 9SM FEW035 00/M02 A2983 1170 88 -300 260/06 RMK AO2
94908KDBQ DBQ20101114201509911/14/10 20:15:31  5-MIN KDBQ 150215Z AUTO 25005KT 9SM CLR 00/M02 A2983 1170 85 -300 250/05 RMK AO2
94908KDBQ DBQ20101114202010011/14/10 20:20:31  5-MIN KDBQ 150220Z AUTO 25005KT 9SM CLR M01/M02 A2983 1160 88 -400 250/05 RMK AO2
94908KDBQ DBQ20101114202510011/14/10 20:25:31  5-MIN KDBQ 150225Z AUTO 23004KT 9SM CLR M01/M02 A2983 1160 92 -400 230/04 RMK AO2
94908KDBQ DBQ20101114203010011/14/10 20:30:31  5-MIN KDBQ 150230Z AUTO 22004KT 8SM CLR M01/M02 A2983 1160 92 -400 220/04 RMK AO2
94908KDBQ DBQ20101114203510011/14/10 20:35:31  5-MIN KDBQ 150235Z AUTO 22005KT 8SM CLR M01/M02 A2983 1160 88 -400 220/05 RMK AO2
94908KDBQ DBQ20101114204010011/14/10 20:40:31  5-MIN KDBQ 150240Z AUTO 22005KT 8SM CLR M01/M02 A2983 1160 92 -400 220/05 RMK AO2
94908KDBQ DBQ20101114204510011/14/10 20:45:31  5-MIN KDBQ 150245Z AUTO 22005KT 7SM CLR M01/M02 A2983 1160 92 -400 220/05 RMK AO2
94908KDBQ DBQ20101114205012911/14/10 20:50:31  5-MIN KDBQ 150250Z AUTO 22005KT 7SM CLR M01/M02 A2983 1160 92 -400 220/05 RMK AO2 SLP113 60000 T10111022 53004
94908KDBQ DBQ20101114205510011/14/10 20:55:31  5-MIN KDBQ 150255Z AUTO 23005KT 7SM CLR M01/M02 A2983 1160 92 -400 230/05 RMK AO2
94908KDBQ DBQ20101114210010011/14/10 21:00:31  5-MIN KDBQ 150300Z AUTO 23005KT 7SM CLR M01/M02 A2983 1160 88 -400 230/05 RMK AO2
94908KDBQ DBQ20101114210510011/14/10 21:05:31  5-MIN KDBQ 150305Z AUTO 24005KT 7SM CLR M01/M02 A2983 1160 92 -400 230/05 RMK AO2
94908KDBQ DBQ20101114211010311/14/10 21:10:31  5-MIN KDBQ 150310Z AUTO 24004KT 6SM BR CLR M01/M02 A2983 1160 92 -400 240/04 RMK AO2
94908KDBQ DBQ20101114211510311/14/10 21:15:31  5-MIN KDBQ 150315Z AUTO 22004KT 6SM BR CLR M01/M02 A2983 1160 92 -400 220/04 RMK AO2
94908KDBQ DBQ20101114212010311/14/10 21:20:31  5-MIN KDBQ 150320Z AUTO 21004KT 6SM BR CLR M02/M03 A2983 1160 92 -500 210/04 RMK AO2
94908KDBQ DBQ20101114212510311/14/10 21:25:31  5-MIN KDBQ 150325Z AUTO 20005KT 6SM BR CLR M02/M03 A2984 1160 92 -500 200/05 RMK AO2
94908KDBQ DBQ20101114213010311/14/10 21:30:31  5-MIN KDBQ 150330Z AUTO 21006KT 6SM BR CLR M02/M03 A2984 1160 92 -500 210/06 RMK AO2
94908KDBQ DBQ20101114213510311/14/10 21:35:31  5-MIN KDBQ 150335Z AUTO 21005KT 6SM BR CLR M02/M03 A2983 1160 92 -500 210/05 RMK AO2
94908KDBQ DBQ20101114214010311/14/10 21:40:31  5-MIN KDBQ 150340Z AUTO 22005KT 6SM BR CLR M02/M03 A2983 1160 92 -500 210/05 RMK AO2
94908KDBQ DBQ20101114214510311/14/10 21:45:31  5-MIN KDBQ 150345Z AUTO 22005KT 6SM BR CLR M02/M03 A2984 1160 92 -500 220/05 RMK AO2
94908KDBQ DBQ20101114215012011/14/10 21:50:31  5-MIN KDBQ 150350Z AUTO 22005KT 6SM BR CLR M02/M03 A2984 1150 92 -500 220/05 RMK AO2 SLP115 T10171028
94908KDBQ DBQ20101114215510311/14/10 21:55:31  5-MIN KDBQ 150355Z AUTO 23005KT 5SM BR CLR M02/M03 A2984 1150 92 -500 230/05 RMK AO2
94908KDBQ DBQ20101114220010311/14/10 22:00:31  5-MIN KDBQ 150400Z AUTO 23004KT 5SM BR CLR M02/M03 A2984 1150 92 -500 230/04 RMK AO2
94908KDBQ DBQ20101114220510311/14/10 22:05:31  5-MIN KDBQ 150405Z AUTO 25005KT 5SM BR CLR M02/M03 A2984 1160 92 -500 250/05 RMK AO2
94908KDBQ DBQ20101114221010311/14/10 22:10:31  5-MIN KDBQ 150410Z AUTO 24006KT 6SM BR CLR M02/M03 A2984 1160 92 -500 240/06 RMK AO2
94908KDBQ DBQ20101114221510311/14/10 22:15:31  5-MIN KDBQ 150415Z AUTO 23005KT 6SM BR CLR M02/M03 A2984 1160 92 -500 230/05 RMK AO2
94908KDBQ DBQ20101114222010011/14/10 22:20:31  5-MIN KDBQ 150420Z AUTO 24004KT 7SM CLR M02/M03 A2983 1160 92 -500 240/04 RMK AO2
94908KDBQ DBQ20101114222510011/14/10 22:25:31  5-MIN KDBQ 150425Z AUTO 24005KT 7SM CLR M02/M03 A2984 1160 92 -500 240/05 RMK AO2
94908KDBQ DBQ20101114223010011/14/10 22:30:31  5-MIN KDBQ 150430Z AUTO 25004KT 7SM CLR M02/M03 A2983 1160 92 -500 240/04 RMK AO2
94908KDBQ DBQ20101114223510011/14/10 22:35:31  5-MIN KDBQ 150435Z AUTO 24004KT 7SM CLR M02/M03 A2983 1160 92 -500 230/04 RMK AO2
94908KDBQ DBQ20101114224010011/14/10 22:40:31  5-MIN KDBQ 150440Z AUTO 23004KT 7SM CLR M01/M03 A2983 1160 88 -400 230/04 RMK AO2
94908KDBQ DBQ20101114224510011/14/10 22:45:31  5-MIN KDBQ 150445Z AUTO 20003KT 7SM CLR M02/M03 A2983 1160 92 -500 200/03 RMK AO2
94908KDBQ DBQ20101114225012311/14/10 22:50:31  5-MIN KDBQ 150450Z AUTO 20004KT 6SM BR FEW090 M02/M03 A2983 1160 92 -500 200/04 RMK AO2 SLP112 T10171028
94908KDBQ DBQ20101114225510611/14/10 22:55:31  5-MIN KDBQ 150455Z AUTO 00000KT 6SM BR SCT085 M02/M03 A2983 1160 92 -500 000/00 RMK AO2
94908KDBQ DBQ20101114230010311/14/10 23:00:31  5-MIN KDBQ 150500Z AUTO 21003KT 7SM SCT085 M02/M03 A2983 1160 92 -500 210/03 RMK AO2
94908KDBQ DBQ20101114230510611/14/10 23:05:31  5-MIN KDBQ 150505Z AUTO 19003KT 6SM BR FEW085 M02/M03 A2983 1160 92 -500 190/03 RMK AO2
94908KDBQ DBQ20101114231010611/14/10 23:10:31  5-MIN KDBQ 150510Z AUTO 19003KT 6SM BR FEW085 M02/M03 A2983 1160 96 -600 190/03 RMK AO2
94908KDBQ DBQ20101114231510611/14/10 23:15:31  5-MIN KDBQ 150515Z AUTO 19004KT 6SM BR FEW085 M02/M03 A2983 1160 96 -600 190/04 RMK AO2
94908KDBQ DBQ20101114232010611/14/10 23:20:31  5-MIN KDBQ 150520Z AUTO 19004KT 6SM BR FEW085 M02/M03 A2983 1160 92 -600 190/04 RMK AO2
94908KDBQ DBQ20101114232510311/14/10 23:25:31  5-MIN KDBQ 150525Z AUTO 20004KT 6SM BR CLR M02/M03 A2983 1160 92 -500 200/04 RMK AO2
94908KDBQ DBQ20101114233010311/14/10 23:30:31  5-MIN KDBQ 150530Z AUTO 20005KT 6SM BR CLR M02/M03 A2983 1160 92 -500 190/05 RMK AO2
94908KDBQ DBQ20101114233510311/14/10 23:35:31  5-MIN KDBQ 150535Z AUTO 20005KT 6SM BR CLR M02/M03 A2983 1160 92 -500 200/05 RMK AO2
94908KDBQ DBQ20101114234010311/14/10 23:40:31  5-MIN KDBQ 150540Z AUTO 20004KT 6SM BR CLR M02/M03 A2983 1160 92 -600 200/04 RMK AO2
94908KDBQ DBQ20101114234510311/14/10 23:45:31  5-MIN KDBQ 150545Z AUTO 20005KT 6SM BR CLR M02/M03 A2983 1160 92 -600 200/05 RMK AO2
94908KDBQ DBQ20101114235015411/14/10 23:50:31  5-MIN KDBQ 150550Z AUTO 20005KT 6SM BR CLR M02/M03 A2983 1160 92 -600 200/05 RMK AO2 SLP111 60000 T10221033 10028 21022 400441022 51003
94908KDBQ DBQ20101114235510311/14/10 23:55:31  5-MIN KDBQ 150555Z AUTO 20005KT 6SM BR CLR M02/M03 A2983 1160 92 -600 200/05 RMK AO2
94908KDBQ DBQ20101115000010011/15/10 00:00:38  5-MIN KDBQ 150600Z AUTO 20004KT 7SM CLR M02/M03 A2983 1160 88 -500 200/04 RMK AO2
94908KDBQ DBQ20101115000510011/15/10 00:05:31  5-MIN KDBQ 150605Z AUTO 20004KT 7SM CLR M02/M03 A2983 1160 88 -500 200/04 RMK AO2
94908KDBQ DBQ20101115001010011/15/10 00:10:31  5-MIN KDBQ 150610Z AUTO 20005KT 7SM CLR M02/M03 A2983 1160 88 -500 190/05 RMK AO2
94908KDBQ DBQ20101115001510011/15/10 00:15:33  5-MIN KDBQ 150615Z AUTO 20005KT 7SM CLR M02/M03 A2983 1160 88 -500 200/05 RMK AO2
94908KDBQ DBQ20101115002010011/15/10 00:20:31  5-MIN KDBQ 150620Z AUTO 20005KT 7SM CLR M02/M03 A2983 1170 88 -500 200/05 RMK AO2
94908KDBQ DBQ20101115002510011/15/10 00:25:31  5-MIN KDBQ 150625Z AUTO 20005KT 7SM CLR M02/M03 A2982 1170 92 -600 190/05 RMK AO2
94908KDBQ DBQ20101115003010011/15/10 00:30:31  5-MIN KDBQ 150630Z AUTO 19005KT 7SM CLR M02/M03 A2982 1170 92 -600 190/05 RMK AO2
94908KDBQ DBQ20101115003510011/15/10 00:35:31  5-MIN KDBQ 150635Z AUTO 20005KT 7SM CLR M02/M03 A2982 1170 92 -600 200/05 RMK AO2
94908KDBQ DBQ20101115004010011/15/10 00:40:31  5-MIN KDBQ 150640Z AUTO 20005KT 7SM CLR M03/M04 A2982 1170 92 -600 200/05 RMK AO2
94908KDBQ DBQ20101115004510011/15/10 00:45:31  5-MIN KDBQ 150645Z AUTO 20005KT 7SM CLR M03/M04 A2982 1170 92 -600 200/05 RMK AO2
94908KDBQ DBQ20101115005011711/15/10 00:50:31  5-MIN KDBQ 150650Z AUTO 20005KT 7SM CLR M03/M04 A2981 1180 92 -600 200/05 RMK AO2 SLP107 T10281039
94908KDBQ DBQ20101115005510011/15/10 00:55:31  5-MIN KDBQ 150655Z AUTO 19005KT 7SM CLR M02/M04 A2981 1180 88 -600 190/05 RMK AO2
94908KDBQ DBQ20101115010010011/15/10 01:00:31  5-MIN KDBQ 150700Z AUTO 18004KT 7SM CLR M03/M04 A2981 1180 92 -600 180/04 RMK AO2
94908KDBQ DBQ20101115010510011/15/10 01:05:31  5-MIN KDBQ 150705Z AUTO 19005KT 7SM CLR M03/M04 A2981 1180 92 -600 190/05 RMK AO2
94908KDBQ DBQ20101115011010011/15/10 01:10:31  5-MIN KDBQ 150710Z AUTO 18006KT 7SM CLR M02/M04 A2981 1180 88 -600 180/06 RMK AO2
94908KDBQ DBQ20101115011510011/15/10 01:15:31  5-MIN KDBQ 150715Z AUTO 17006KT 7SM CLR M03/M04 A2981 1180 92 -600 170/06 RMK AO2
94908KDBQ DBQ20101115012010011/15/10 01:20:31  5-MIN KDBQ 150720Z AUTO 17007KT 7SM CLR M02/M04 A2981 1180 88 -600 170/07 RMK AO2
94908KDBQ DBQ20101115012510011/15/10 01:25:31  5-MIN KDBQ 150725Z AUTO 17006KT 7SM CLR M02/M04 A2981 1180 88 -600 170/06 RMK AO2
94908KDBQ DBQ20101115013010011/15/10 01:30:31  5-MIN KDBQ 150730Z AUTO 17003KT 7SM CLR M03/M04 A2981 1180 92 -600 170/03 RMK AO2
94908KDBQ DBQ20101115013510011/15/10 01:35:31  5-MIN KDBQ 150735Z AUTO 19004KT 7SM CLR M03/M04 A2981 1180 92 -600 190/04 RMK AO2
94908KDBQ DBQ20101115014010311/15/10 01:40:31  5-MIN KDBQ 150740Z AUTO 21004KT 6SM BR CLR M03/M04 A2981 1180 92 -600 210/04 RMK AO2
94908KDBQ DBQ20101115014510311/15/10 01:45:31  5-MIN KDBQ 150745Z AUTO 20004KT 6SM BR CLR M02/M04 A2981 1180 88 -600 200/04 RMK AO2
94908KDBQ DBQ20101115015012011/15/10 01:50:31  5-MIN KDBQ 150750Z AUTO 18005KT 6SM BR CLR M03/M04 A2981 1180 92 -600 180/05 RMK AO2 SLP105 T10281039
94908KDBQ DBQ20101115015510311/15/10 01:55:31  5-MIN KDBQ 150755Z AUTO 18005KT 6SM BR CLR M02/M03 A2981 1180 92 -600 180/05 RMK AO2
94908KDBQ DBQ20101115020010311/15/10 02:00:31  5-MIN KDBQ 150800Z AUTO 18005KT 6SM BR CLR M03/M04 A2981 1180 92 -600 180/05 RMK AO2
94908KDBQ DBQ20101115020510311/15/10 02:05:31  5-MIN KDBQ 150805Z AUTO 18006KT 6SM BR CLR M02/M03 A2981 1180 92 -600 180/06 RMK AO2
94908KDBQ DBQ20101115021010311/15/10 02:10:31  5-MIN KDBQ 150810Z AUTO 19006KT 6SM BR CLR M03/M04 A2981 1180 92 -600 190/06 RMK AO2
94908KDBQ DBQ20101115021510311/15/10 02:15:31  5-MIN KDBQ 150815Z AUTO 19006KT 6SM BR CLR M03/M04 A2981 1180 92 -600 190/06 RMK AO2
94908KDBQ DBQ20101115022010311/15/10 02:20:31  5-MIN KDBQ 150820Z AUTO 19005KT 6SM BR CLR M03/M04 A2981 1180 92 -600 190/05 RMK AO2
94908KDBQ DBQ20101115022510311/15/10 02:25:31  5-MIN KDBQ 150825Z AUTO 19003KT 6SM BR CLR M03/M04 A2981 1180 92 -600 190/03 RMK AO2
94908KDBQ DBQ20101115023010311/15/10 02:30:31  5-MIN KDBQ 150830Z AUTO 19004KT 6SM BR CLR M03/M04 A2981 1180 92 -600 190/04 RMK AO2
94908KDBQ DBQ20101115023510311/15/10 02:35:31  5-MIN KDBQ 150835Z AUTO 19005KT 6SM BR CLR M03/M04 A2981 1180 92 -600 190/05 RMK AO2
94908KDBQ DBQ20101115024010311/15/10 02:40:31  5-MIN KDBQ 150840Z AUTO 19006KT 6SM BR CLR M03/M04 A2981 1180 92 -600 190/06 RMK AO2
94908KDBQ DBQ20101115024510311/15/10 02:45:31  5-MIN KDBQ 150845Z AUTO 19007KT 6SM BR CLR M03/M04 A2981 1180 92 -600 190/07 RMK AO2
94908KDBQ DBQ20101115025012611/15/10 02:50:31  5-MIN KDBQ 150850Z AUTO 19007KT 6SM BR CLR M03/M04 A2981 1180 92 -600 190/07 RMK AO2 SLP104 T10281039 58000
94908KDBQ DBQ20101115025510311/15/10 02:55:31  5-MIN KDBQ 150855Z AUTO 19006KT 6SM BR CLR M02/M04 A2981 1180 88 -500 190/06 RMK AO2
94908KDBQ DBQ20101115030010311/15/10 03:00:31  5-MIN KDBQ 150900Z AUTO 17007KT 6SM BR CLR M02/M04 A2980 1190 88 -500 170/07 RMK AO2
94908KDBQ DBQ20101115030510311/15/10 03:05:31  5-MIN KDBQ 150905Z AUTO 17007KT 6SM BR CLR M02/M03 A2980 1190 92 -500 170/07 RMK AO2
94908KDBQ DBQ20101115031010311/15/10 03:10:31  5-MIN KDBQ 150910Z AUTO 17007KT 6SM BR CLR M02/M03 A2980 1190 92 -500 170/07 RMK AO2
94908KDBQ DBQ20101115031510311/15/10 03:15:31  5-MIN KDBQ 150915Z AUTO 17006KT 5SM BR CLR M02/M03 A2980 1190 92 -500 170/06 RMK AO2
94908KDBQ DBQ20101115032010311/15/10 03:20:31  5-MIN KDBQ 150920Z AUTO 17006KT 5SM BR CLR M02/M03 A2980 1190 92 -500 170/06 RMK AO2
94908KDBQ DBQ20101115032510311/15/10 03:25:31  5-MIN KDBQ 150925Z AUTO 18006KT 6SM BR CLR M02/M03 A2980 1190 92 -500 170/06 RMK AO2
94908KDBQ DBQ20101115033010311/15/10 03:30:31  5-MIN KDBQ 150930Z AUTO 17007KT 6SM BR CLR M02/M03 A2980 1190 92 -500 170/07 RMK AO2
94908KDBQ DBQ20101115033510311/15/10 03:35:31  5-MIN KDBQ 150935Z AUTO 17007KT 6SM BR CLR M02/M03 A2980 1190 92 -500 170/07 RMK AO2
94908KDBQ DBQ20101115034010311/15/10 03:40:31  5-MIN KDBQ 150940Z AUTO 17008KT 6SM BR CLR M02/M03 A2980 1190 92 -500 170/08 RMK AO2
94908KDBQ DBQ20101115034510311/15/10 03:45:31  5-MIN KDBQ 150945Z AUTO 16007KT 6SM BR CLR M02/M03 A2980 1190 92 -500 160/07 RMK AO2
94908KDBQ DBQ20101115035011711/15/10 03:50:31  5-MIN KDBQ 150950Z AUTO 16007KT 7SM CLR M02/M03 A2980 1190 92 -500 160/07 RMK AO2 SLP100 T10171028
94908KDBQ DBQ20101115035510011/15/10 03:55:31  5-MIN KDBQ 150955Z AUTO 16007KT 7SM CLR M01/M03 A2980 1190 88 -400 160/07 RMK AO2
94908KDBQ DBQ20101115040010011/15/10 04:00:31  5-MIN KDBQ 151000Z AUTO 16007KT 7SM CLR M01/M03 A2980 1190 88 -400 160/07 RMK AO2
94908KDBQ DBQ20101115040510011/15/10 04:05:31  5-MIN KDBQ 151005Z AUTO 16008KT 7SM CLR M01/M03 A2980 1190 88 -400 160/08 RMK AO2
94908KDBQ DBQ20101115041010011/15/10 04:10:31  5-MIN KDBQ 151010Z AUTO 16007KT 7SM CLR M01/M03 A2980 1190 88 -400 160/07 RMK AO2
94908KDBQ DBQ20101115041510011/15/10 04:15:31  5-MIN KDBQ 151015Z AUTO 16007KT 7SM CLR M01/M03 A2980 1190 88 -400 160/07 RMK AO2
94908KDBQ DBQ20101115042010011/15/10 04:20:31  5-MIN KDBQ 151020Z AUTO 16007KT 7SM CLR M01/M03 A2979 1190 88 -400 160/07 RMK AO2
94908KDBQ DBQ20101115042510011/15/10 04:25:31  5-MIN KDBQ 151025Z AUTO 16006KT 7SM CLR M01/M03 A2979 1200 88 -400 160/06 RMK AO2
94908KDBQ DBQ20101115043010011/15/10 04:30:31  5-MIN KDBQ 151030Z AUTO 17005KT 7SM CLR M02/M03 A2979 1200 92 -500 170/05 RMK AO2
94908KDBQ DBQ20101115043510011/15/10 04:35:31  5-MIN KDBQ 151035Z AUTO 17005KT 7SM CLR M02/M03 A2979 1200 92 -500 170/05 RMK AO2
94908KDBQ DBQ20101115044010011/15/10 04:40:31  5-MIN KDBQ 151040Z AUTO 17005KT 7SM CLR M02/M03 A2979 1200 88 -500 170/05 RMK AO2
94908KDBQ DBQ20101115044510011/15/10 04:45:31  5-MIN KDBQ 151045Z AUTO 17006KT 7SM CLR M02/M03 A2979 1200 88 -500 170/06 RMK AO2
94908KDBQ DBQ20101115045012011/15/10 04:50:31  5-MIN KDBQ 151050Z AUTO 17006KT 7SM FEW050 M02/M03 A2979 1200 88 -500 170/06 RMK AO2 SLP098 T10171033
94908KDBQ DBQ20101115045510311/15/10 04:55:31  5-MIN KDBQ 151055Z AUTO 17006KT 7SM FEW050 M01/M03 A2979 1200 88 -400 170/06 RMK AO2
94908KDBQ DBQ20101115050010311/15/10 05:00:31  5-MIN KDBQ 151100Z AUTO 17006KT 7SM SCT050 M01/M03 A2979 1200 88 -400 170/06 RMK AO2
94908KDBQ DBQ20101115050510311/15/10 05:05:31  5-MIN KDBQ 151105Z AUTO 17006KT 7SM BKN055 M01/M03 A2979 1200 88 -400 170/06 RMK AO2
94908KDBQ DBQ20101115051010311/15/10 05:10:31  5-MIN KDBQ 151110Z AUTO 17006KT 7SM BKN055 M01/M02 A2979 1200 92 -400 170/06 RMK AO2
94908KDBQ DBQ20101115051510311/15/10 05:15:31  5-MIN KDBQ 151115Z AUTO 17006KT 7SM BKN055 M01/M02 A2979 1200 88 -300 170/06 RMK AO2
94908KDBQ DBQ20101115052010311/15/10 05:20:31  5-MIN KDBQ 151120Z AUTO 16007KT 7SM OVC055 M01/M02 A2979 1200 88 -300 160/07 RMK AO2
94908KDBQ DBQ20101115052510311/15/10 05:25:31  5-MIN KDBQ 151125Z AUTO 17007KT 7SM OVC055 M01/M02 A2979 1200 88 -300 160/07 RMK AO2
94908KDBQ DBQ20101115053010311/15/10 05:30:31  5-MIN KDBQ 151130Z AUTO 17007KT 7SM OVC055 M01/M02 A2979 1200 88 -300 170/07 RMK AO2
94908KDBQ DBQ20101115053510311/15/10 05:35:31  5-MIN KDBQ 151135Z AUTO 17008KT 7SM OVC055 M01/M02 A2979 1200 88 -300 170/08 RMK AO2
94908KDBQ DBQ20101115054010311/15/10 05:40:31  5-MIN KDBQ 151140Z AUTO 16007KT 8SM OVC055 M01/M02 A2978 1200 88 -300 160/07 RMK AO2
94908KDBQ DBQ20101115054509811/15/10 05:45:31  5-MIN KDBQ 151145Z 16008KT 8SM OVC055 M01/M02 A2978 1210 88 -300 160/08 RMK AO2
94908KDBQ DBQ20101115055013311/15/10 05:50:31  5-MIN KDBQ 151150Z 16008KT 8SM BKN055 M01/M02 A2978 1210 88 -300 160/08 RMK AO2 SLP095 T10061022 11006 21028 56008
94908KDBQ DBQ20101115055509811/15/10 05:55:31  5-MIN KDBQ 151155Z 16007KT 8SM SCT055 M01/M02 A2978 1210 88 -300 160/07 RMK AO2
94908KDBQ DBQ20101115060009811/15/10 06:00:31  5-MIN KDBQ 151200Z 16007KT 8SM SCT055 M01/M02 A2978 1210 88 -300 160/07 RMK AO2
94908KDBQ DBQ20101115060509811/15/10 06:05:31  5-MIN KDBQ 151205Z 16006KT 8SM FEW055 M01/M02 A2978 1210 88 -300 160/06 RMK AO2
94908KDBQ DBQ20101115061009811/15/10 06:10:31  5-MIN KDBQ 151210Z 16007KT 8SM FEW055 M01/M02 A2978 1210 88 -300 160/07 RMK AO2
94908KDBQ DBQ20101115061509811/15/10 06:15:31  5-MIN KDBQ 151215Z 16007KT 8SM FEW060 M01/M02 A2978 1210 88 -300 160/07 RMK AO2
94908KDBQ DBQ20101115062009811/15/10 06:20:31  5-MIN KDBQ 151220Z 17007KT 8SM SCT060 M01/M02 A2978 1210 88 -300 170/07 RMK AO2
94908KDBQ DBQ20101115062509811/15/10 06:25:31  5-MIN KDBQ 151225Z 16007KT 7SM SCT060 M01/M02 A2978 1210 88 -300 160/07 RMK AO2
94908KDBQ DBQ20101115063009811/15/10 06:30:31  5-MIN KDBQ 151230Z 17006KT 7SM SCT060 M01/M02 A2978 1210 88 -300 160/06 RMK AO2
94908KDBQ DBQ20101115063509811/15/10 06:35:31  5-MIN KDBQ 151235Z 17007KT 7SM BKN060 M01/M02 A2978 1210 88 -300 170/07 RMK AO2
94908KDBQ DBQ20101115064009811/15/10 06:40:31  5-MIN KDBQ 151240Z 17007KT 7SM BKN060 M01/M02 A2979 1200 88 -300 170/07 RMK AO2
94908KDBQ DBQ20101115064509811/15/10 06:45:31  5-MIN KDBQ 151245Z 16007KT 7SM SCT060 M01/M02 A2979 1200 88 -300 160/07 RMK AO2
94908KDBQ DBQ20101115065011511/15/10 06:50:31  5-MIN KDBQ 151250Z 16007KT 7SM SCT060 M01/M02 A2979 1200 88 -300 160/07 RMK AO2 SLP098 T10061022
94908KDBQ DBQ20101115065510111/15/10 06:55:31  5-MIN KDBQ 151255Z 17007KT 6SM BR FEW060 M01/M02 A2979 1200 88 -300 170/07 RMK AO2
94908KDBQ DBQ20101115070010111/15/10 07:00:31  5-MIN KDBQ 151300Z 18007KT 6SM BR FEW060 M01/M02 A2979 1200 88 -300 170/07 RMK AO2
94908KDBQ DBQ20101115070509811/15/10 07:05:31  5-MIN KDBQ 151305Z 18007KT 6SM BR CLR M01/M02 A2979 1200 88 -300 180/07 RMK AO2
94908KDBQ DBQ20101115071009811/15/10 07:10:31  5-MIN KDBQ 151310Z 18006KT 6SM BR CLR M01/M03 A2979 1200 88 -400 180/06 RMK AO2
94908KDBQ DBQ20101115071509811/15/10 07:15:31  5-MIN KDBQ 151315Z 18007KT 6SM BR CLR M01/M03 A2979 1200 88 -400 180/07 RMK AO2
94908KDBQ DBQ20101115072009811/15/10 07:20:31  5-MIN KDBQ 151320Z 19006KT 6SM BR CLR M01/M03 A2979 1200 88 -400 190/06 RMK AO2
94908KDBQ DBQ20101115072510111/15/10 07:25:31  5-MIN KDBQ 151325Z 18007KT 6SM BR FEW065 M01/M02 A2979 1200 92 -400 180/07 RMK AO2
94908KDBQ DBQ20101115073010111/15/10 07:30:31  5-MIN KDBQ 151330Z 18007KT 6SM BR SCT065 M01/M02 A2979 1200 88 -300 180/07 RMK AO2
94908KDBQ DBQ20101115073510111/15/10 07:35:31  5-MIN KDBQ 151335Z 19006KT 6SM BR BKN065 M01/M02 A2979 1200 88 -300 180/06 RMK AO2
94908KDBQ DBQ20101115074010111/15/10 07:40:31  5-MIN KDBQ 151340Z 18006KT 6SM BR BKN065 M01/M02 A2979 1200 88 -300 180/06 RMK AO2
94908KDBQ DBQ20101115074510111/15/10 07:45:31  5-MIN KDBQ 151345Z 18006KT 6SM BR SCT065 M01/M02 A2979 1200 88 -300 180/06 RMK AO2
94908KDBQ DBQ20101115075011811/15/10 07:50:31  5-MIN KDBQ 151350Z 18006KT 6SM BR SCT065 M01/M02 A2979 1200 92 -300 180/06 RMK AO2 SLP099 T10061017
94908KDBQ DBQ20101115075510111/15/10 07:55:31  5-MIN KDBQ 151355Z 18006KT 6SM BR SCT065 M01/M02 A2979 1200 92 -300 180/06 RMK AO2
94908KDBQ DBQ20101115080010111/15/10 08:00:31  5-MIN KDBQ 151400Z 18006KT 6SM BR FEW065 M01/M02 A2979 1200 92 -300 180/06 RMK AO2
94908KDBQ DBQ20101115080509811/15/10 08:05:31  5-MIN KDBQ 151405Z 18006KT 6SM BR CLR M01/M02 A2979 1200 92 -300 170/06 RMK AO2
94908KDBQ DBQ20101115081009811/15/10 08:10:31  5-MIN KDBQ 151410Z 18006KT 6SM BR CLR M01/M02 A2979 1200 92 -300 180/06 RMK AO2
94908KDBQ DBQ20101115081509811/15/10 08:15:31  5-MIN KDBQ 151415Z 18006KT 5SM BR CLR M01/M02 A2979 1200 92 -300 180/06 RMK AO2
94908KDBQ DBQ20101115082009711/15/10 08:20:31  5-MIN KDBQ 151420Z 18005KT 5SM BR CLR 00/M01 A2979 1200 92 -300 180/05 RMK AO2
94908KDBQ DBQ20101115082509711/15/10 08:25:31  5-MIN KDBQ 151425Z 18005KT 5SM BR CLR 00/M01 A2979 1200 92 -300 180/05 RMK AO2
94908KDBQ DBQ20101115083009711/15/10 08:30:31  5-MIN KDBQ 151430Z 18006KT 5SM BR CLR 00/M01 A2979 1200 92 -300 180/06 RMK AO2
94908KDBQ DBQ20101115083509711/15/10 08:35:31  5-MIN KDBQ 151435Z 18007KT 5SM BR CLR 00/M01 A2979 1190 92 -300 170/07 RMK AO2
94908KDBQ DBQ20101115084009711/15/10 08:40:31  5-MIN KDBQ 151440Z 19006KT 6SM BR CLR 01/M01 A2980 1190 89 -200 190/06 RMK AO2
94908KDBQ DBQ20101115084509711/15/10 08:45:31  5-MIN KDBQ 151445Z 19005KT 6SM BR CLR 01/M01 A2980 1190 89 -200 190/05 RMK AO2
94908KDBQ DBQ20101115085012011/15/10 08:50:31  5-MIN KDBQ 151450Z 19005KT 6SM BR CLR 01/M01 A2980 1190 92 -200 180/05 RMK AO2 SLP101 T00061006 57008
94908KDBQ DBQ20101115085509711/15/10 08:55:31  5-MIN KDBQ 151455Z 18007KT 6SM BR CLR 01/M01 A2980 1190 89 -100 180/07 RMK AO2
94908KDBQ DBQ20101115090009311/15/10 09:00:31  5-MIN KDBQ 151500Z 18007KT 6SM BR CLR 02/00 A2980 1190 89 0 180/07 RMK AO2
94908KDBQ DBQ20101115090509311/15/10 09:05:31  5-MIN KDBQ 151505Z 19008KT 7SM CLR 02/00 A2980 1190 89 -100 190/08 RMK AO2
94908KDBQ DBQ20101115091009011/15/10 09:10:31  5-MIN KDBQ 151510Z 18007KT 7SM CLR 02/00 A2980 1190 85 0 180/07 RMK AO2
94908KDBQ DBQ20101115091509011/15/10 09:15:31  5-MIN KDBQ 151515Z 18007KT 7SM CLR 02/00 A2980 1190 85 0 180/07 RMK AO2
94908KDBQ DBQ20101115092013011/15/10 09:20:31  5-MIN KDBQ 151520Z 19008G30KT 180V240 7SM CLR 02/01 A2980 1190 89 0 190/08G30 180V240 RMK AO2 PK WND 16030/1517
94908KDBQ DBQ20101115092508211/15/10 09:25:31  5-MIN KDBQ 151525Z 8SM CLR 03/01 A2980 1190 85 0 M /M RMK AO2 $
94908KDBQ DBQ20101115093011811/15/10 09:30:31  5-MIN KDBQ 151530Z 20013G30KT 9SM CLR 03/01 A2980 1190 82 100 200/13G30 RMK AO2 PK WND 26030/1526 $
94908KDBQ DBQ20101115093511811/15/10 09:35:31  5-MIN KDBQ 151535Z 20015G35KT 9SM CLR 03/01 A2980 1190 82 100 190/15G35 RMK AO2 PK WND 16035/1534 $
94908KDBQ DBQ20101115094011811/15/10 09:40:31  5-MIN KDBQ 151540Z 20012G35KT 9SM CLR 04/01 A2980 1190 82 200 200/12G35 RMK AO2 PK WND 16035/1534 $
94908KDBQ DBQ20101115094511811/15/10 09:45:31  5-MIN KDBQ 151545Z 20014G30KT 9SM CLR 04/01 A2980 1190 82 200 200/14G30 RMK AO2 PK WND 16035/1534 $
94908KDBQ DBQ20101115095010111/15/10 09:50:31  5-MIN KDBQ 151550Z 9SM CLR 04/01 A2980 1190 79 200 M /M RMK AO2 SLP101 T00390006 $
94908KDBQ DBQ20101115095509411/15/10 09:55:31  5-MIN KDBQ 151555Z 19012KT 9SM CLR 04/01 A2980 1190 82 200 190/12 RMK AO2 $
94908KDBQ DBQ20101115100009411/15/10 10:00:31  5-MIN KDBQ 151600Z 19012KT 9SM CLR 04/01 A2980 1190 82 200 190/12 RMK AO2 $
94908KDBQ DBQ20101115100509511/15/10 10:05:31  5-MIN KDBQ 151605Z 19010KT 10SM CLR 04/02 A2980 1190 82 200 190/10 RMK AO2 $
94908KDBQ DBQ20101115101009511/15/10 10:10:31  5-MIN KDBQ 151610Z 19010KT 10SM CLR 04/02 A2980 1190 82 200 190/10 RMK AO2 $
94908KDBQ DBQ20101115101509511/15/10 10:15:31  5-MIN KDBQ 151615Z 20011KT 10SM CLR 05/02 A2980 1190 79 300 200/11 RMK AO2 $
94908KDBQ DBQ20101115102009511/15/10 10:20:31  5-MIN KDBQ 151620Z 20010KT 10SM CLR 06/02 A2980 1190 79 400 190/10 RMK AO2 $
94908KDBQ DBQ20101115102509511/15/10 10:25:31  5-MIN KDBQ 151625Z 19010KT 10SM CLR 06/02 A2980 1190 79 400 190/10 RMK AO2 $
94908KDBQ DBQ20101115103009511/15/10 10:30:31  5-MIN KDBQ 151630Z 20009KT 10SM CLR 06/02 A2980 1190 79 400 200/09 RMK AO2 $
94908KDBQ DBQ20101115103509511/15/10 10:35:31  5-MIN KDBQ 151635Z 20011KT 10SM CLR 06/02 A2980 1190 76 400 200/11 RMK AO2 $
94908KDBQ DBQ20101115104009511/15/10 10:40:31  5-MIN KDBQ 151640Z 20010KT 10SM CLR 06/02 A2980 1190 76 400 200/10 RMK AO2 $
94908KDBQ DBQ20101115104509511/15/10 10:45:31  5-MIN KDBQ 151645Z 21012KT 10SM CLR 06/02 A2980 1190 76 400 210/12 RMK AO2 $
94908KDBQ DBQ20101115105011211/15/10 10:50:31  5-MIN KDBQ 151650Z 21012KT 10SM CLR 07/03 A2980 1190 76 500 210/12 RMK AO2 SLP100 T00670028 $
94908KDBQ DBQ20101115105509511/15/10 10:55:31  5-MIN KDBQ 151655Z 20011KT 10SM CLR 07/03 A2980 1190 76 500 200/11 RMK AO2 $
94908KDBQ DBQ20101115110009511/15/10 11:00:31  5-MIN KDBQ 151700Z 21012KT 10SM CLR 07/03 A2980 1190 73 600 200/12 RMK AO2 $
94908KDBQ DBQ20101115110509511/15/10 11:05:31  5-MIN KDBQ 151705Z 21011KT 10SM CLR 07/03 A2980 1190 73 600 210/11 RMK AO2 $
94908KDBQ DBQ20101115111009511/15/10 11:10:31  5-MIN KDBQ 151710Z 20012KT 10SM CLR 07/03 A2980 1190 73 600 200/12 RMK AO2 $
94908KDBQ DBQ20101115111509511/15/10 11:15:31  5-MIN KDBQ 151715Z 20011KT 10SM CLR 08/03 A2980 1190 70 700 190/11 RMK AO2 $
94908KDBQ DBQ20101115112009511/15/10 11:20:31  5-MIN KDBQ 151720Z 20011KT 10SM CLR 08/03 A2979 1200 70 700 200/11 RMK AO2 $
94908KDBQ DBQ20101115112509511/15/10 11:25:31  5-MIN KDBQ 151725Z 20012KT 10SM CLR 08/03 A2979 1200 73 700 200/12 RMK AO2 $
94908KDBQ DBQ20101115113009511/15/10 11:30:31  5-MIN KDBQ 151730Z 21010KT 10SM CLR 08/03 A2979 1200 70 700 210/10 RMK AO2 $
94908KDBQ DBQ20101115113509511/15/10 11:35:31  5-MIN KDBQ 151735Z 21011KT 10SM CLR 08/03 A2979 1200 70 700 210/11 RMK AO2 $
94908KDBQ DBQ20101115114009511/15/10 11:40:31  5-MIN KDBQ 151740Z 20011KT 10SM CLR 08/03 A2979 1200 70 700 200/11 RMK AO2 $
94908KDBQ DBQ20101115114509811/15/10 11:45:31  5-MIN KDBQ 151745Z 20013KT 10SM FEW022 09/03 A2978 1200 68 800 200/13 RMK AO2 $
94908KDBQ DBQ20101115115013311/15/10 11:50:31  5-MIN KDBQ 151750Z 21012KT 10SM FEW022 09/03 A2978 1200 68 800 210/12 RMK AO2 SLP094 T00890033 10089 21011 51005 $
94908KDBQ DBQ20101115115509811/15/10 11:55:31  5-MIN KDBQ 151755Z 21012KT 10SM FEW022 09/04 A2978 1200 71 800 210/12 RMK AO2 $
94908KDBQ DBQ20101115120009811/15/10 12:00:31  5-MIN KDBQ 151800Z 21014KT 10SM FEW022 09/03 A2978 1210 68 800 200/14 RMK AO2 $
94908KDBQ DBQ20101115120509811/15/10 12:05:31  5-MIN KDBQ 151805Z 19015KT 10SM FEW022 09/03 A2978 1210 68 800 190/15 RMK AO2 $
94908KDBQ DBQ20101115121010311/15/10 12:10:31  5-MIN KDBQ 151810Z AUTO 21015KT 10SM FEW024 09/03 A2978 1210 68 800 210/15 RMK AO2 $
94908KDBQ DBQ20101115121509811/15/10 12:15:31  5-MIN KDBQ 151815Z 21013KT 10SM FEW024 09/03 A2978 1210 68 800 210/13 RMK AO2 $
94908KDBQ DBQ20101115122009811/15/10 12:20:31  5-MIN KDBQ 151820Z 21011KT 10SM FEW024 09/03 A2978 1210 68 800 210/11 RMK AO2 $
94908KDBQ DBQ20101115122510411/15/10 12:25:31  5-MIN KDBQ 151825Z 20013KT 10SM FEW024 09/03 A2977 1210 65 900 200/13 RMK AO2 P0001 $
94908KDBQ DBQ20101115123010111/15/10 12:30:31  5-MIN KDBQ 151830Z 20014KT 10SM CLR 09/03 A2977 1220 65 900 200/14 RMK AO2 P0001 $
94908KDBQ DBQ20101115123510111/15/10 12:35:31  5-MIN KDBQ 151835Z 22013KT 10SM CLR 09/03 A2977 1220 63 900 210/13 RMK AO2 P0001 $
94908KDBQ DBQ20101115124010111/15/10 12:40:31  5-MIN KDBQ 151840Z 21012KT 10SM CLR 09/03 A2977 1220 65 900 210/12 RMK AO2 P0001 $
94908KDBQ DBQ20101115124510111/15/10 12:45:31  5-MIN KDBQ 151845Z 21011KT 10SM CLR 09/03 A2977 1220 68 800 210/11 RMK AO2 P0001 $
94908KDBQ DBQ20101115125012111/15/10 12:50:31  5-MIN KDBQ 151850Z 21013KT 10SM FEW055 09/03 A2977 1220 65 900 210/13 RMK AO2 SLP089 P0001 T00940033 $
94908KDBQ DBQ20101115125510511/15/10 12:55:31  5-MIN KDBQ 151855Z 20013KT 10SM FEW027 SCT055 09/03 A2977 1220 65 900 200/13 RMK AO2 $
94908KDBQ DBQ20101115130010511/15/10 13:00:31  5-MIN KDBQ 151900Z 20012KT 10SM FEW027 SCT060 09/03 A2977 1220 63 900 200/12 RMK AO2 $
94908KDBQ DBQ20101115130509911/15/10 13:05:31  5-MIN KDBQ 151905Z 22013KT 10SM FEW027 10/03 A2977 1220 60 1000 210/13 RMK AO2 $
94908KDBQ DBQ20101115131009811/15/10 13:10:31  5-MIN KDBQ 151910Z 20012KT 10SM FEW027 09/03 A2977 1220 63 900 190/12 RMK AO2 $
94908KDBQ DBQ20101115131509911/15/10 13:15:31  5-MIN KDBQ 151915Z 21012KT 10SM FEW027 10/03 A2977 1220 60 1000 210/12 RMK AO2 $
94908KDBQ DBQ20101115132009911/15/10 13:20:31  5-MIN KDBQ 151920Z 20011KT 10SM FEW029 10/03 A2977 1220 63 1000 200/11 RMK AO2 $
94908KDBQ DBQ20101115132509911/15/10 13:25:31  5-MIN KDBQ 151925Z 21010KT 10SM FEW029 10/03 A2977 1220 60 1000 210/10 RMK AO2 $
94908KDBQ DBQ20101115133009911/15/10 13:30:31  5-MIN KDBQ 151930Z 22008KT 10SM FEW029 10/03 A2977 1220 60 1000 220/08 RMK AO2 $
94908KDBQ DBQ20101115133509811/15/10 13:35:31  5-MIN KDBQ 151935Z 22010KT 10SM SCT029 09/03 A2976 1220 63 900 220/10 RMK AO2 $
94908KDBQ DBQ20101115134009811/15/10 13:40:31  5-MIN KDBQ 151940Z 20011KT 10SM FEW029 09/03 A2977 1220 63 900 190/11 RMK AO2 $
94908KDBQ DBQ20101115134510511/15/10 13:45:31  5-MIN KDBQ 151945Z 21010KT 10SM FEW031 SCT035 09/03 A2977 1220 63 900 200/10 RMK AO2 $
94908KDBQ DBQ20101115135011611/15/10 13:50:31  5-MIN KDBQ 151950Z 21009KT 10SM SCT031 10/03 A2977 1220 63 1000 210/09 RMK AO2 SLP088 T01000033 $
94908KDBQ DBQ20101115135509911/15/10 13:55:31  5-MIN KDBQ 151955Z 21012KT 10SM SCT033 10/03 A2976 1220 60 1000 210/12 RMK AO2 $
94908KDBQ DBQ20101115140009911/15/10 14:00:31  5-MIN KDBQ 152000Z 21014KT 10SM SCT033 10/03 A2977 1220 60 1000 210/14 RMK AO2 $
94908KDBQ DBQ20101115140510611/15/10 14:05:31  5-MIN KDBQ 152005Z 20013KT 10SM SCT035 SCT042 10/02 A2977 1220 58 1000 200/13 RMK AO2 $
94908KDBQ DBQ20101115141010511/15/10 14:10:31  5-MIN KDBQ 152010Z 21010KT 10SM SCT034 SCT041 09/03 A2977 1220 63 900 210/10 RMK AO2 $
94908KDBQ DBQ20101115141509911/15/10 14:15:31  5-MIN KDBQ 152015Z 21012KT 10SM SCT036 10/03 A2977 1220 60 1000 210/12 RMK AO2 $
94908KDBQ DBQ20101115142010511/15/10 14:20:31  5-MIN KDBQ 152020Z 22012KT 10SM SCT036 BKN043 09/03 A2976 1220 63 900 220/12 RMK AO2 $
94908KDBQ DBQ20101115142510511/15/10 14:25:31  5-MIN KDBQ 152025Z 22011KT 10SM SCT036 BKN045 09/03 A2977 1220 63 900 220/11 RMK AO2 $
94908KDBQ DBQ20101115143010511/15/10 14:30:31  5-MIN KDBQ 152030Z 21012KT 10SM SCT038 BKN045 09/03 A2977 1220 63 900 200/12 RMK AO2 $
94908KDBQ DBQ20101115143510611/15/10 14:35:31  5-MIN KDBQ 152035Z 21012KT 10SM BKN036 BKN045 10/03 A2976 1220 60 1000 210/12 RMK AO2 $
94908KDBQ DBQ20101115144010511/15/10 14:40:31  5-MIN KDBQ 152040Z 21011KT 10SM SCT036 BKN045 09/03 A2976 1220 63 900 210/11 RMK AO2 $
94908KDBQ DBQ20101115144510511/15/10 14:45:31  5-MIN KDBQ 152045Z 23011KT 10SM FEW034 BKN045 09/03 A2977 1220 63 900 220/11 RMK AO2 $
94908KDBQ DBQ20101115145013411/15/10 14:50:31  5-MIN KDBQ 152050Z 22010KT 10SM FEW034 BKN043 09/02 A2977 1220 60 900 220/10 RMK AO2 SLP088 60001 T00940022 58004 $
94908KDBQ DBQ20101115145510511/15/10 14:55:31  5-MIN KDBQ 152055Z 22010KT 10SM SCT034 BKN043 09/03 A2977 1220 63 900 220/10 RMK AO2 $
94908KDBQ DBQ20101115150009811/15/10 15:00:31  5-MIN KDBQ 152100Z 21010KT 10SM BKN038 09/03 A2977 1220 63 900 210/10 RMK AO2 $
94908KDBQ DBQ20101115150511011/15/10 15:05:31  5-MIN KDBQ 152105Z 21008KT 10SM BKN039 BKN046 BKN060 09/03 A2977 1220 63 900 210/08 RMK AO2
94908KDBQ DBQ20101115151011011/15/10 15:10:31  5-MIN KDBQ 152110Z 21009KT 10SM BKN041 BKN049 BKN060 09/03 A2977 1220 63 900 210/09 RMK AO2
94908KDBQ DBQ20101115151511011/15/10 15:15:31  5-MIN KDBQ 152115Z 22010KT 10SM SCT041 BKN049 BKN060 09/03 A2977 1220 63 900 220/10 RMK AO2
94908KDBQ DBQ20101115152010311/15/10 15:20:31  5-MIN KDBQ 152120Z 21007KT 10SM BKN039 BKN047 09/03 A2977 1220 63 900 210/07 RMK AO2
94908KDBQ DBQ20101115152510311/15/10 15:25:31  5-MIN KDBQ 152125Z 21012KT 10SM BKN039 BKN047 10/03 A2977 1220 60 900 200/12 RMK AO2
94908KDBQ DBQ20101115153010311/15/10 15:30:31  5-MIN KDBQ 152130Z 21010KT 10SM BKN039 BKN049 10/02 A2977 1210 58 900 210/10 RMK AO2
94908KDBQ DBQ20101115153510311/15/10 15:35:31  5-MIN KDBQ 152135Z 20010KT 10SM SCT037 BKN047 09/02 A2978 1210 60 900 200/10 RMK AO2
94908KDBQ DBQ20101115154010311/15/10 15:40:31  5-MIN KDBQ 152140Z 22009KT 10SM SCT035 BKN044 09/03 A2978 1210 63 900 220/09 RMK AO2
94908KDBQ DBQ20101115154510311/15/10 15:45:31  5-MIN KDBQ 152145Z 22009KT 10SM SCT037 SCT047 09/03 A2978 1210 63 900 220/09 RMK AO2
94908KDBQ DBQ20101115155012011/15/10 15:50:31  5-MIN KDBQ 152150Z 22008KT 10SM FEW037 SCT110 09/02 A2978 1210 63 800 220/08 RMK AO2 SLP093 T00890022
94908KDBQ DBQ20101115155510311/15/10 15:55:31  5-MIN KDBQ 152155Z 22009KT 10SM FEW035 SCT110 09/02 A2978 1210 63 800 220/09 RMK AO2
94908KDBQ DBQ20101115160010311/15/10 16:00:31  5-MIN KDBQ 152200Z 22008KT 10SM FEW035 SCT110 09/02 A2978 1210 63 800 220/08 RMK AO2
94908KDBQ DBQ20101115160509611/15/10 16:05:31  5-MIN KDBQ 152205Z 21007KT 10SM FEW110 09/02 A2978 1210 63 800 210/07 RMK AO2
94908KDBQ DBQ20101115161009611/15/10 16:10:31  5-MIN KDBQ 152210Z 21006KT 10SM FEW110 08/02 A2978 1210 65 700 210/06 RMK AO2
94908KDBQ DBQ20101115161509611/15/10 16:15:31  5-MIN KDBQ 152215Z 21006KT 10SM FEW110 08/02 A2978 1210 68 700 210/06 RMK AO2
94908KDBQ DBQ20101115162009611/15/10 16:20:31  5-MIN KDBQ 152220Z 20005KT 10SM FEW110 07/02 A2978 1200 70 600 200/05 RMK AO2
94908KDBQ DBQ20101115162509311/15/10 16:25:31  5-MIN KDBQ 152225Z 21006KT 10SM CLR 07/02 A2978 1200 70 500 210/06 RMK AO2
94908KDBQ DBQ20101115163009311/15/10 16:30:31  5-MIN KDBQ 152230Z 21006KT 10SM CLR 07/02 A2978 1200 73 500 200/06 RMK AO2
94908KDBQ DBQ20101115163509311/15/10 16:35:31  5-MIN KDBQ 152235Z 21005KT 10SM CLR 07/02 A2978 1200 70 500 210/05 RMK AO2
94908KDBQ DBQ20101115164009311/15/10 16:40:31  5-MIN KDBQ 152240Z 20005KT 10SM CLR 06/02 A2979 1200 73 500 200/05 RMK AO2
94908KDBQ DBQ20101115164509311/15/10 16:45:31  5-MIN KDBQ 152245Z 21005KT 10SM CLR 06/02 A2979 1200 73 500 210/05 RMK AO2
94908KDBQ DBQ20101115165011011/15/10 16:50:31  5-MIN KDBQ 152250Z 22004KT 10SM CLR 06/02 A2979 1200 76 400 220/04 RMK AO2 SLP096 T00560017
94908KDBQ DBQ20101115165509311/15/10 16:55:31  5-MIN KDBQ 152255Z 22003KT 10SM CLR 05/01 A2979 1200 76 300 220/03 RMK AO2
94908KDBQ DBQ20101115170009311/15/10 17:00:31  5-MIN KDBQ 152300Z 21003KT 10SM CLR 06/01 A2979 1200 73 400 210/03 RMK AO2
94908KDBQ DBQ20101115170509311/15/10 17:05:31  5-MIN KDBQ 152305Z 19003KT 10SM CLR 06/01 A2978 1200 73 400 190/03 RMK AO2
94908KDBQ DBQ20101115171009311/15/10 17:10:31  5-MIN KDBQ 152310Z 19003KT 10SM CLR 04/01 A2979 1200 79 300 190/03 RMK AO2
94908KDBQ DBQ20101115171509311/15/10 17:15:31  5-MIN KDBQ 152315Z 20003KT 10SM CLR 05/01 A2979 1200 76 300 200/03 RMK AO2
94908KDBQ DBQ20101115172009611/15/10 17:20:31  5-MIN KDBQ 152320Z 19003KT 10SM FEW065 05/01 A2979 1200 73 300 190/03 RMK AO2
94908KDBQ DBQ20101115172509611/15/10 17:25:31  5-MIN KDBQ 152325Z 19003KT 10SM FEW065 05/01 A2979 1200 76 300 190/03 RMK AO2
94908KDBQ DBQ20101115173009611/15/10 17:30:31  5-MIN KDBQ 152330Z 18003KT 10SM FEW065 04/01 A2979 1200 79 300 180/03 RMK AO2
94908KDBQ DBQ20101115173509611/15/10 17:35:31  5-MIN KDBQ 152335Z 00000KT 10SM FEW065 04/01 A2979 1200 76 300 000/00 RMK AO2
94908KDBQ DBQ20101115174009611/15/10 17:40:31  5-MIN KDBQ 152340Z 17004KT 10SM FEW065 05/01 A2979 1200 76 300 170/04 RMK AO2
94908KDBQ DBQ20101115174509311/15/10 17:45:31  5-MIN KDBQ 152345Z 16004KT 10SM CLR 05/01 A2979 1200 76 300 160/04 RMK AO2
94908KDBQ DBQ20101115175013411/15/10 17:50:31  5-MIN KDBQ 152350Z 15005KT 10SM CLR 04/01 A2979 1200 79 300 150/05 RMK AO2 SLP096 60001 T00440011 10100 20044 55006
94908KDBQ DBQ20101115175509311/15/10 17:55:31  5-MIN KDBQ 152355Z 16005KT 10SM CLR 05/01 A2979 1200 76 300 160/05 RMK AO2
94908KDBQ DBQ20101115180009311/15/10 18:00:31  5-MIN KDBQ 160000Z 16005KT 10SM CLR 05/01 A2979 1200 76 300 160/05 RMK AO2
94908KDBQ DBQ20101115180509311/15/10 18:05:31  5-MIN KDBQ 160005Z 16005KT 10SM CLR 05/01 A2979 1200 76 300 160/05 RMK AO2
94908KDBQ DBQ20101115181009311/15/10 18:10:31  5-MIN KDBQ 160010Z 17004KT 10SM CLR 05/01 A2979 1200 76 300 170/04 RMK AO2
94908KDBQ DBQ20101115181509311/15/10 18:15:31  5-MIN KDBQ 160015Z 17004KT 10SM CLR 05/01 A2979 1200 76 300 170/04 RMK AO2
94908KDBQ DBQ20101115182009611/15/10 18:20:31  5-MIN KDBQ 160020Z 16008KT 10SM SCT050 05/01 A2979 1200 76 300 160/08 RMK AO2
94908KDBQ DBQ20101115182509611/15/10 18:25:31  5-MIN KDBQ 160025Z 16007KT 10SM BKN050 06/02 A2979 1200 76 400 160/07 RMK AO2
94908KDBQ DBQ20101115183009611/15/10 18:30:31  5-MIN KDBQ 160030Z 17008KT 10SM SCT050 06/02 A2979 1190 76 400 170/08 RMK AO2
94908KDBQ DBQ20101115183509611/15/10 18:35:31  5-MIN KDBQ 160035Z 17009KT 10SM SCT050 04/02 A2980 1190 82 200 160/09 RMK AO2
94908KDBQ DBQ20101115184010311/15/10 18:40:31  5-MIN KDBQ 160040Z 16007KT 10SM SCT050 SCT100 04/02 A2980 1190 82 200 160/07 RMK AO2
94908KDBQ DBQ20101115184510311/15/10 18:45:31  5-MIN KDBQ 160045Z 17008KT 10SM SCT050 BKN100 04/02 A2980 1190 82 200 170/08 RMK AO2
94908KDBQ DBQ20101115185012011/15/10 18:50:31  5-MIN KDBQ 160050Z 18006KT 10SM FEW050 BKN110 04/02 A2980 1190 82 200 180/06 RMK AO2 SLP099 T00440017
94908KDBQ DBQ20101115185509611/15/10 18:55:31  5-MIN KDBQ 160055Z 19006KT 10SM BKN100 04/02 A2980 1190 82 200 190/06 RMK AO2
94908KDBQ DBQ20101115190009611/15/10 19:00:31  5-MIN KDBQ 160100Z 19006KT 10SM BKN100 04/02 A2980 1190 82 200 190/06 RMK AO2
94908KDBQ DBQ20101115190509611/15/10 19:05:31  5-MIN KDBQ 160105Z 18006KT 10SM BKN100 04/02 A2980 1190 82 200 180/06 RMK AO2
94908KDBQ DBQ20101115191009611/15/10 19:10:31  5-MIN KDBQ 160110Z 18005KT 10SM BKN100 04/02 A2980 1190 85 200 180/05 RMK AO2
94908KDBQ DBQ20101115191509611/15/10 19:15:31  5-MIN KDBQ 160115Z 18006KT 10SM BKN100 04/02 A2980 1190 82 200 180/06 RMK AO2
94908KDBQ DBQ20101115192009611/15/10 19:20:31  5-MIN KDBQ 160120Z 18005KT 10SM BKN100 04/02 A2980 1190 82 200 180/05 RMK AO2
94908KDBQ DBQ20101115192509611/15/10 19:25:31  5-MIN KDBQ 160125Z 18005KT 10SM BKN100 04/02 A2980 1190 82 200 180/05 RMK AO2
94908KDBQ DBQ20101115193009611/15/10 19:30:31  5-MIN KDBQ 160130Z 19004KT 10SM OVC100 04/02 A2980 1190 82 200 190/04 RMK AO2
94908KDBQ DBQ20101115193509611/15/10 19:35:31  5-MIN KDBQ 160135Z 19004KT 10SM OVC100 04/02 A2979 1190 82 200 190/04 RMK AO2
94908KDBQ DBQ20101115194009611/15/10 19:40:31  5-MIN KDBQ 160140Z 19005KT 10SM OVC095 04/02 A2979 1190 82 200 190/05 RMK AO2
94908KDBQ DBQ20101115194509611/15/10 19:45:31  5-MIN KDBQ 160145Z 20004KT 10SM OVC095 04/02 A2979 1200 85 200 190/04 RMK AO2
94908KDBQ DBQ20101115195011311/15/10 19:50:31  5-MIN KDBQ 160150Z 20004KT 10SM OVC100 04/02 A2980 1190 85 200 200/04 RMK AO2 SLP100 T00390017
94908KDBQ DBQ20101115195509611/15/10 19:55:31  5-MIN KDBQ 160155Z 20004KT 10SM OVC100 04/02 A2980 1190 85 200 200/04 RMK AO2
94908KDBQ DBQ20101115200010111/15/10 20:00:31  5-MIN KDBQ 160200Z AUTO 20005KT 10SM OVC100 04/02 A2979 1190 85 200 200/05 RMK AO2
94908KDBQ DBQ20101115200510111/15/10 20:05:31  5-MIN KDBQ 160205Z AUTO 20005KT 10SM OVC095 04/02 A2980 1190 85 200 200/05 RMK AO2
94908KDBQ DBQ20101115201010111/15/10 20:10:31  5-MIN KDBQ 160210Z AUTO 21005KT 10SM OVC100 04/02 A2979 1190 82 200 200/05 RMK AO2
94908KDBQ DBQ20101115201510111/15/10 20:15:31  5-MIN KDBQ 160215Z AUTO 20004KT 10SM OVC100 04/02 A2979 1190 89 200 200/04 RMK AO2
94908KDBQ DBQ20101115202010111/15/10 20:20:31  5-MIN KDBQ 160220Z AUTO 20005KT 10SM OVC100 04/02 A2979 1200 89 200 200/05 RMK AO2
94908KDBQ DBQ20101115202510111/15/10 20:25:31  5-MIN KDBQ 160225Z AUTO 19004KT 10SM OVC100 04/02 A2979 1200 89 200 190/04 RMK AO2
94908KDBQ DBQ20101115203010111/15/10 20:30:31  5-MIN KDBQ 160230Z AUTO 19005KT 10SM OVC095 04/02 A2980 1190 89 200 190/05 RMK AO2
94908KDBQ DBQ20101115203510111/15/10 20:35:31  5-MIN KDBQ 160235Z AUTO 19004KT 10SM OVC095 04/02 A2980 1190 85 200 180/04 RMK AO2
94908KDBQ DBQ20101115204010111/15/10 20:40:31  5-MIN KDBQ 160240Z AUTO 19004KT 10SM OVC100 04/02 A2979 1200 85 200 190/04 RMK AO2
94908KDBQ DBQ20101115204510111/15/10 20:45:31  5-MIN KDBQ 160245Z AUTO 17005KT 10SM OVC100 04/02 A2979 1200 85 200 170/05 RMK AO2
94908KDBQ DBQ20101115205012411/15/10 20:50:31  5-MIN KDBQ 160250Z AUTO 17006KT 10SM OVC095 04/02 A2979 1200 85 300 170/06 RMK AO2 SLP097 T00440022 51007
94908KDBQ DBQ20101115205510111/15/10 20:55:31  5-MIN KDBQ 160255Z AUTO 17005KT 10SM OVC100 05/02 A2979 1200 82 300 170/05 RMK AO2
94908KDBQ DBQ20101115210010111/15/10 21:00:31  5-MIN KDBQ 160300Z AUTO 17005KT 10SM OVC100 05/02 A2979 1200 82 300 170/05 RMK AO2
94908KDBQ DBQ20101115210510111/15/10 21:05:31  5-MIN KDBQ 160305Z AUTO 18004KT 10SM OVC095 04/02 A2979 1200 85 300 180/04 RMK AO2
94908KDBQ DBQ20101115211010111/15/10 21:10:31  5-MIN KDBQ 160310Z AUTO 18003KT 10SM OVC095 04/02 A2979 1200 85 300 180/03 RMK AO2
94908KDBQ DBQ20101115211510111/15/10 21:15:31  5-MIN KDBQ 160315Z AUTO 19003KT 10SM OVC095 04/02 A2979 1200 85 300 190/03 RMK AO2
94908KDBQ DBQ20101115212010111/15/10 21:20:31  5-MIN KDBQ 160320Z AUTO 17005KT 10SM OVC095 04/02 A2979 1200 85 200 170/05 RMK AO2
94908KDBQ DBQ20101115212510111/15/10 21:25:31  5-MIN KDBQ 160325Z AUTO 17006KT 10SM OVC095 06/03 A2979 1200 82 400 160/06 RMK AO2
94908KDBQ DBQ20101115213010111/15/10 21:30:31  5-MIN KDBQ 160330Z AUTO 17006KT 10SM OVC095 05/03 A2979 1200 85 300 170/06 RMK AO2
94908KDBQ DBQ20101115213510111/15/10 21:35:31  5-MIN KDBQ 160335Z AUTO 19004KT 10SM OVC095 05/03 A2979 1200 85 300 190/04 RMK AO2
94908KDBQ DBQ20101115214010111/15/10 21:40:31  5-MIN KDBQ 160340Z AUTO 23004KT 10SM BKN095 04/02 A2979 1200 89 200 230/04 RMK AO2
94908KDBQ DBQ20101115214510111/15/10 21:45:31  5-MIN KDBQ 160345Z AUTO 18005KT 10SM BKN095 05/03 A2979 1200 85 300 180/05 RMK AO2
94908KDBQ DBQ20101115215011811/15/10 21:50:31  5-MIN KDBQ 160350Z AUTO 17004KT 10SM SCT095 04/03 A2979 1200 89 200 170/04 RMK AO2 SLP097 T00440028
94908KDBQ DBQ20101115215510811/15/10 21:55:31  5-MIN KDBQ 160355Z AUTO 00000KT 10SM FEW060 BKN095 04/02 A2979 1200 89 200 000/00 RMK AO2
94908KDBQ DBQ20101115220010811/15/10 22:00:31  5-MIN KDBQ 160400Z AUTO 19003KT 10SM SCT055 BKN095 04/02 A2979 1200 89 200 180/03 RMK AO2
94908KDBQ DBQ20101115220510111/15/10 22:05:31  5-MIN KDBQ 160405Z AUTO 19003KT 10SM SCT055 04/02 A2979 1200 89 200 180/03 RMK AO2
94908KDBQ DBQ20101115221010111/15/10 22:10:31  5-MIN KDBQ 160410Z AUTO 18004KT 10SM FEW060 04/02 A2979 1200 89 200 180/04 RMK AO2
94908KDBQ DBQ20101115221510111/15/10 22:15:31  5-MIN KDBQ 160415Z AUTO 18004KT 10SM FEW060 03/02 A2979 1200 92 100 180/04 RMK AO2
94908KDBQ DBQ20101115222010111/15/10 22:20:31  5-MIN KDBQ 160420Z AUTO 17003KT 10SM FEW060 04/02 A2979 1200 89 200 170/03 RMK AO2
94908KDBQ DBQ20101115222510111/15/10 22:25:31  5-MIN KDBQ 160425Z AUTO 16003KT 10SM FEW055 04/02 A2979 1200 89 200 160/03 RMK AO2
94908KDBQ DBQ20101115223009711/15/10 22:30:31  5-MIN KDBQ 160430Z AUTO 16003KT 9SM CLR 03/02 A2979 1200 92 100 160/03 RMK AO2
94908KDBQ DBQ20101115223509711/15/10 22:35:31  5-MIN KDBQ 160435Z AUTO 00000KT 9SM CLR 03/02 A2979 1200 89 100 000/00 RMK AO2
94908KDBQ DBQ20101115224009711/15/10 22:40:31  5-MIN KDBQ 160440Z AUTO 19003KT 9SM CLR 03/01 A2978 1200 89 100 190/03 RMK AO2
94908KDBQ DBQ20101115224509711/15/10 22:45:31  5-MIN KDBQ 160445Z AUTO 19003KT 9SM CLR 03/02 A2978 1210 89 100 180/03 RMK AO2
94908KDBQ DBQ20101115225011411/15/10 22:50:31  5-MIN KDBQ 160450Z AUTO 17003KT 9SM CLR 03/02 A2978 1210 89 100 170/03 RMK AO2 SLP092 T00330017
94908KDBQ DBQ20101115225509711/15/10 22:55:31  5-MIN KDBQ 160455Z AUTO 16004KT 9SM CLR 03/02 A2978 1210 92 100 160/04 RMK AO2
94908KDBQ DBQ20101115230009711/15/10 23:00:31  5-MIN KDBQ 160500Z AUTO 16004KT 9SM CLR 03/02 A2978 1210 89 100 160/04 RMK AO2
94908KDBQ DBQ20101115230509711/15/10 23:05:31  5-MIN KDBQ 160505Z AUTO 16003KT 9SM CLR 03/02 A2978 1210 89 100 160/03 RMK AO2
94908KDBQ DBQ20101115231009711/15/10 23:10:31  5-MIN KDBQ 160510Z AUTO 16003KT 8SM CLR 03/02 A2978 1210 92 100 160/03 RMK AO2
94908KDBQ DBQ20101115231509711/15/10 23:15:31  5-MIN KDBQ 160515Z AUTO 17003KT 8SM CLR 03/02 A2978 1210 89 100 160/03 RMK AO2
94908KDBQ DBQ20101115232009711/15/10 23:20:31  5-MIN KDBQ 160520Z AUTO 00000KT 8SM CLR 03/02 A2978 1210 92 100 000/00 RMK AO2
94908KDBQ DBQ20101115232509711/15/10 23:25:31  5-MIN KDBQ 160525Z AUTO 17003KT 8SM CLR 03/01 A2978 1210 89 100 170/03 RMK AO2
94908KDBQ DBQ20101115233009511/15/10 23:30:31  5-MIN KDBQ 160530Z AUTO 00000KT 8SM CLR 02/01 A2978 1210 92 0 000/00 RMK AO2
94908KDBQ DBQ20101115233509511/15/10 23:35:31  5-MIN KDBQ 160535Z AUTO 00000KT 8SM CLR 02/01 A2978 1210 92 0 000/00 RMK AO2
94908KDBQ DBQ20101115234009511/15/10 23:40:31  5-MIN KDBQ 160540Z AUTO 17003KT 8SM CLR 02/01 A2978 1210 92 0 170/03 RMK AO2
94908KDBQ DBQ20101115234509511/15/10 23:45:31  5-MIN KDBQ 160545Z AUTO 18003KT 8SM CLR 02/01 A2978 1210 92 0 180/03 RMK AO2
94908KDBQ DBQ20101115235014211/15/10 23:50:31  5-MIN KDBQ 160550Z AUTO 19004KT 8SM CLR 03/01 A2978 1210 89 100 190/04 RMK AO2 SLP089 T00280011 10056 20022 401001028 50001
94908KDBQ DBQ20101115235509511/15/10 23:55:31  5-MIN KDBQ 160555Z AUTO 18003KT 8SM CLR 02/01 A2978 1210 92 0 180/03 RMK AO2
94908KDBQ DBQ20101116000009511/16/10 00:00:38  5-MIN KDBQ 160600Z AUTO 18004KT 8SM CLR 02/01 A2978 1210 89 0 180/04 RMK AO2
94908KDBQ DBQ20101116000509511/16/10 00:05:31  5-MIN KDBQ 160605Z AUTO 00000KT 8SM CLR 02/01 A2977 1210 92 0 000/00 RMK AO2
94908KDBQ DBQ20101116001009711/16/10 00:10:31  5-MIN KDBQ 160610Z AUTO 16003KT 8SM CLR 03/01 A2977 1210 89 100 150/03 RMK AO2
94908KDBQ DBQ20101116001509511/16/10 00:15:31  5-MIN KDBQ 160615Z AUTO 00000KT 8SM CLR 02/01 A2977 1210 92 0 000/00 RMK AO2
94908KDBQ DBQ20101116002009711/16/10 00:20:31  5-MIN KDBQ 160620Z AUTO 00000KT 8SM CLR 03/01 A2977 1210 89 100 000/00 RMK AO2
94908KDBQ DBQ20101116002509511/16/10 00:25:31  5-MIN KDBQ 160625Z AUTO 00000KT 8SM CLR 02/01 A2977 1220 89 0 000/00 RMK AO2
94908KDBQ DBQ20101116003009711/16/10 00:30:31  5-MIN KDBQ 160630Z AUTO 19004KT 8SM CLR 03/01 A2977 1220 89 100 190/04 RMK AO2
94908KDBQ DBQ20101116003509511/16/10 00:35:31  5-MIN KDBQ 160635Z AUTO 19005KT 8SM CLR 02/01 A2977 1220 89 0 190/05 RMK AO2
94908KDBQ DBQ20101116004009511/16/10 00:40:31  5-MIN KDBQ 160640Z AUTO 19004KT 8SM CLR 02/01 A2977 1220 89 0 190/04 RMK AO2
94908KDBQ DBQ20101116004509511/16/10 00:45:31  5-MIN KDBQ 160645Z AUTO 20004KT 8SM CLR 02/01 A2977 1220 92 0 200/04 RMK AO2
94908KDBQ DBQ20101116005011211/16/10 00:50:31  5-MIN KDBQ 160650Z AUTO 19004KT 7SM CLR 02/01 A2977 1220 92 0 190/04 RMK AO2 SLP086 T00170006
94908KDBQ DBQ20101116005509511/16/10 00:55:31  5-MIN KDBQ 160655Z AUTO 19003KT 7SM CLR 02/01 A2976 1220 92 0 190/03 RMK AO2
94908KDBQ DBQ20101116010009511/16/10 01:00:31  5-MIN KDBQ 160700Z AUTO 20003KT 7SM CLR 02/01 A2977 1220 92 0 200/03 RMK AO2
94908KDBQ DBQ20101116010509511/16/10 01:05:31  5-MIN KDBQ 160705Z AUTO 20003KT 7SM CLR 02/01 A2977 1220 92 0 200/03 RMK AO2
94908KDBQ DBQ20101116011009511/16/10 01:10:31  5-MIN KDBQ 160710Z AUTO 20004KT 7SM CLR 02/01 A2976 1220 92 0 200/04 RMK AO2
94908KDBQ DBQ20101116011509511/16/10 01:15:31  5-MIN KDBQ 160715Z AUTO 19003KT 7SM CLR 02/01 A2976 1220 92 0 190/03 RMK AO2
94908KDBQ DBQ20101116012009511/16/10 01:20:31  5-MIN KDBQ 160720Z AUTO 20003KT 7SM CLR 02/01 A2977 1220 92 0 200/03 RMK AO2
94908KDBQ DBQ20101116012509811/16/10 01:25:31  5-MIN KDBQ 160725Z AUTO 20004KT 6SM BR CLR 02/01 A2977 1220 96 0 200/04 RMK AO2
94908KDBQ DBQ20101116013010111/16/10 01:30:31  5-MIN KDBQ 160730Z AUTO 19003KT 5SM BR CLR 01/01 A2977 1220 96 -100 190/03 RMK AO2
94908KDBQ DBQ20101116013509811/16/10 01:35:31  5-MIN KDBQ 160735Z AUTO 19003KT 5SM BR CLR 02/01 A2977 1220 92 0 190/03 RMK AO2
94908KDBQ DBQ20101116014009811/16/10 01:40:31  5-MIN KDBQ 160740Z AUTO 00000KT 5SM BR CLR 02/01 A2977 1220 92 0 000/00 RMK AO2
94908KDBQ DBQ20101116014509811/16/10 01:45:31  5-MIN KDBQ 160745Z AUTO 21004KT 5SM BR CLR 02/01 A2977 1220 92 0 210/04 RMK AO2
94908KDBQ DBQ20101116015011511/16/10 01:50:31  5-MIN KDBQ 160750Z AUTO 19006KT 5SM BR CLR 02/01 A2977 1220 92 0 190/06 RMK AO2 SLP087 T00220011
94908KDBQ DBQ20101116015509811/16/10 01:55:31  5-MIN KDBQ 160755Z AUTO 20004KT 5SM BR CLR 02/01 A2977 1220 96 0 200/04 RMK AO2
94908KDBQ DBQ20101116020010111/16/10 02:00:31  5-MIN KDBQ 160800Z AUTO 21003KT 4SM BR CLR 01/01 A2977 1220 96 -100 210/03 RMK AO2
94908KDBQ DBQ20101116020510111/16/10 02:05:31  5-MIN KDBQ 160805Z AUTO 21003KT 4SM BR CLR 01/00 A2976 1220 96 -200 210/03 RMK AO2
94908KDBQ DBQ20101116021010111/16/10 02:10:31  5-MIN KDBQ 160810Z AUTO 20003KT 3SM BR CLR 01/00 A2977 1220 96 -200 200/03 RMK AO2
94908KDBQ DBQ20101116021510111/16/10 02:15:31  5-MIN KDBQ 160815Z AUTO 20004KT 4SM BR CLR 01/01 A2977 1220 96 -100 200/04 RMK AO2
94908KDBQ DBQ20101116022010111/16/10 02:20:31  5-MIN KDBQ 160820Z AUTO 20003KT 3SM BR CLR 01/01 A2976 1220 96 -100 200/03 RMK AO2
94908KDBQ DBQ20101116022510111/16/10 02:25:31  5-MIN KDBQ 160825Z AUTO 20003KT 3SM BR CLR 01/01 A2976 1220 96 -100 200/03 RMK AO2
94908KDBQ DBQ20101116023010211/16/10 02:30:31  5-MIN KDBQ 160830Z AUTO 20004KT 3SM BR CLR 01/01 A2976 1220 100 -100 200/04 RMK AO2
94908KDBQ DBQ20101116023510511/16/10 02:35:31  5-MIN KDBQ 160835Z AUTO 20004KT 2 1/2SM BR CLR 01/00 A2976 1220 96 -100 200/04 RMK AO2
94908KDBQ DBQ20101116024011811/16/10 02:40:31  5-MIN KDBQ 160840Z AUTO 20005KT 2SM R36/6000VP6000FT BR CLR 01/00 A2976 1220 96 -200 200/05 RMK AO2
94908KDBQ DBQ20101116024511811/16/10 02:45:31  5-MIN KDBQ 160845Z AUTO 20004KT 1SM R36/2200VP6000FT BR CLR 01/00 A2976 1220 96 -100 200/04 RMK AO2
94908KDBQ DBQ20101116025012411/16/10 02:50:31  5-MIN KDBQ 160850Z AUTO 20003KT 1/2SM R36/1800V6000FT FG CLR 01/00 A2976 1230 96 -100 200/03 RMK AO2 TSNO
94908KDBQ DBQ20101116025512411/16/10 02:55:31  5-MIN KDBQ 160855Z AUTO 20003KT 1/2SM R36/1800V6000FT FG CLR 01/00 A2976 1230 96 -100 200/03 RMK AO2 TSNO
94908KDBQ DBQ20101116030012611/16/10 03:00:31  5-MIN KDBQ 160900Z AUTO 19003KT 1/4SM R36/1800VP6000FT FG CLR 00/M01 A2976 1230 96 -200 190/03 RMK AO2 TSNO
94908KDBQ DBQ20101116030512111/16/10 03:05:31  5-MIN KDBQ 160905Z AUTO 19003KT 1/4SM R36/3000VP6000FT FG CLR 00/00 A2976 1230 100 -200 190/03 RMK AO2
94908KDBQ DBQ20101116031012111/16/10 03:10:31  5-MIN KDBQ 160910Z AUTO 19003KT 1/4SM R36/2000VP6000FT FG CLR 00/00 A2976 1230 100 -200 190/03 RMK AO2
94908KDBQ DBQ20101116031512311/16/10 03:15:31  5-MIN KDBQ 160915Z AUTO 00000KT 1/2SM R36/2000VP6000FT FG FEW050 01/00 A2976 1230 96 -100 000/00 RMK AO2
94908KDBQ DBQ20101116032012211/16/10 03:20:31  5-MIN KDBQ 160920Z AUTO 00000KT 1/2SM R36/2200V5500FT FG SCT050 01/00 A2975 1230 96 -100 000/00 RMK AO2
94908KDBQ DBQ20101116032512211/16/10 03:25:31  5-MIN KDBQ 160925Z AUTO 00000KT 1/2SM R36/1600V5500FT FG SCT050 01/01 A2975 1230 96 -100 000/00 RMK AO2
94908KDBQ DBQ20101116033012211/16/10 03:30:31  5-MIN KDBQ 160930Z AUTO 20003KT 1/2SM R36/1400V4000FT FG BKN050 01/01 A2975 1230 96 -100 200/03 RMK AO2
94908KDBQ DBQ20101116033512311/16/10 03:35:31  5-MIN KDBQ 160935Z AUTO 00000KT 1/4SM R36/1200V1600FT FG BKN050 01/01 A2975 1240 100 -100 000/00 RMK AO2
94908KDBQ DBQ20101116034012211/16/10 03:40:31  5-MIN KDBQ 160940Z AUTO 22003KT 1/4SM R36/1000V1600FT FG BKN050 01/00 A2975 1240 96 -100 220/03 RMK AO2
94908KDBQ DBQ20101116034512311/16/10 03:45:31  5-MIN KDBQ 160945Z AUTO 21003KT 1/4SM R36/1000V1400FT FG BKN050 00/00 A2975 1240 100 -200 210/03 RMK AO2
94908KDBQ DBQ20101116035013911/16/10 03:50:31  5-MIN KDBQ 160950Z AUTO 21003KT 1/4SM R36/1000V1400FT FG OVC050 01/00 A2975 1240 96 -100 210/03 RMK AO2 SLP081 T00060000
94908KDBQ DBQ20101116035512211/16/10 03:55:31  5-MIN KDBQ 160955Z AUTO 20003KT 1/4SM R36/1000V1400FT FG OVC050 01/00 A2975 1240 96 -100 200/03 RMK AO2
94908KDBQ DBQ20101116040012911/16/10 04:00:31  5-MIN KDBQ 161000Z AUTO 19003KT 1/4SM R36/1000V2800FT FG FEW001 BKN050 01/00 A2975 1240 96 -100 190/03 RMK AO2
94908KDBQ DBQ20101116040512911/16/10 04:05:31  5-MIN KDBQ 161005Z AUTO 00000KT 1/4SM R36/1200V5000FT FG FEW001 BKN048 01/01 A2975 1240 96 -100 000/00 RMK AO2
94908KDBQ DBQ20101116041013511/16/10 04:10:31  5-MIN KDBQ 161010Z AUTO 21003KT 1/4SM R36/1800V5000FT FG FEW001 BKN048 00/00 A2975 1240 100 -200 210/03 RMK AO2 TSNO
94908KDBQ DBQ20101116041513911/16/10 04:15:31  5-MIN KDBQ 161015Z AUTO 00000KT 1/4SM R36/1400V3500FT FZFG FEW001 BKN048 M01/M01 A2975 1240 100 -300 000/00 RMK AO2 TSNO
94908KDBQ DBQ20101116042013911/16/10 04:20:31  5-MIN KDBQ 161020Z AUTO 00000KT 1/4SM R36/1200V2600FT FZFG FEW001 SCT048 M01/M01 A2975 1240 100 -300 000/00 RMK AO2 TSNO
94908KDBQ DBQ20101116042512811/16/10 04:25:31  5-MIN KDBQ 161025Z AUTO 19003KT 1/4SM R36/1000V1400FT FG FEW001 00/M01 A2975 1240 96 -200 190/03 RMK AO2 TSNO
94908KDBQ DBQ20101116043012711/16/10 04:30:31  5-MIN KDBQ 161030Z AUTO 18004KT 1/4SM R36/0600V1400FT FG FEW001 01/00 A2975 1240 96 -100 180/04 RMK AO2 TSNO
94908KDBQ DBQ20101116043512811/16/10 04:35:31  5-MIN KDBQ 161035Z AUTO 17004KT 1/4SM R36/0600VP6000FT FG VV001 00/00 A2975 1240 100 -200 170/04 RMK AO2 TSNO
94908KDBQ DBQ20101116044012511/16/10 04:40:31  5-MIN KDBQ 161040Z AUTO 16004KT 1/2SM R36/1600VP6000FT FG CLR 01/01 A2975 1240 96 -100 160/04 RMK AO2 TSNO
94908KDBQ DBQ20101116044512311/16/10 04:45:31  5-MIN KDBQ 161045Z AUTO 17003KT 2SM R36/1600VP6000FT BR CLR 01/01 A2975 1240 96 -100 170/03 RMK AO2 TSNO
94908KDBQ DBQ20101116045014511/16/10 04:50:31  5-MIN KDBQ 161050Z AUTO 16004KT 2 1/2SM R36/2400VP6000FT BR CLR 01/01 A2975 1240 100 -100 160/04 RMK AO2 SLP081 T00110011 TSNO
94908KDBQ DBQ20101116045512811/16/10 04:55:31  5-MIN KDBQ 161055Z AUTO 14007KT 2 1/2SM R36/4000VP6000FT BR CLR 01/01 A2975 1240 100 -100 140/07 RMK AO2 TSNO
94908KDBQ DBQ20101116050010311/16/10 05:00:31  5-MIN KDBQ 161100Z AUTO 15006KT 3SM BR CLR 02/01 A2974 1240 96 0 140/06 RMK AO2 TSNO
94908KDBQ DBQ20101116050510411/16/10 05:05:31  5-MIN KDBQ 161105Z AUTO 14005KT 3SM BR CLR 02/02 A2974 1240 100 0 140/05 RMK AO2 TSNO
94908KDBQ DBQ20101116051010311/16/10 05:10:31  5-MIN KDBQ 161110Z AUTO 14006KT 3SM BR CLR 02/01 A2974 1240 96 0 140/06 RMK AO2 TSNO
94908KDBQ DBQ20101116051510311/16/10 05:15:31  5-MIN KDBQ 161115Z AUTO 14006KT 3SM BR CLR 02/01 A2974 1250 96 0 140/06 RMK AO2 TSNO
94908KDBQ DBQ20101116052010711/16/10 05:20:31  5-MIN KDBQ 161120Z AUTO 15003KT 2 1/2SM BR CLR 02/01 A2974 1250 96 0 150/03 RMK AO2 TSNO
94908KDBQ DBQ20101116052510711/16/10 05:25:31  5-MIN KDBQ 161125Z AUTO 14006KT 2 1/2SM BR CLR 02/01 A2973 1250 96 0 140/06 RMK AO2 TSNO
94908KDBQ DBQ20101116053010311/16/10 05:30:31  5-MIN KDBQ 161130Z AUTO 14005KT 3SM BR CLR 02/02 A2973 1260 96 0 140/05 RMK AO2 TSNO
94908KDBQ DBQ20101116053510311/16/10 05:35:31  5-MIN KDBQ 161135Z AUTO 00000KT 3SM BR CLR 02/02 A2973 1260 96 0 000/00 RMK AO2 TSNO
94908KDBQ DBQ20101116054009411/16/10 05:40:31  5-MIN KDBQ 161140Z VRB03KT 3SM BR CLR 02/02 A2973 1260 100 0 VRB/03 RMK AO2
94908KDBQ DBQ20101116054509411/16/10 05:45:31  5-MIN KDBQ 161145Z 21005KT 3SM BR CLR 02/02 A2973 1250 100 0 210/05 RMK AO2
94908KDBQ DBQ20101116055011811/16/10 05:50:31  5-MIN KDBQ 161150Z 21004KT 2 1/2SM R36/5500VP6000FT BR CLR 01/01 A2973 1260 100 -100 210/04 RMK AO2
94908KDBQ DBQ20101116055511811/16/10 05:55:31  5-MIN KDBQ 161155Z 00000KT 1 1/4SM R36/5000VP6000FT BR CLR 00/M01 A2973 1260 96 -200 000/00 RMK AO2
94908KDBQ DBQ20101116060011511/16/10 06:00:31  5-MIN KDBQ 161200Z 23003KT 3/4SM R36/1400VP6000FT BR CLR 01/00 A2973 1260 96 -100 230/03 RMK AO2
94908KDBQ DBQ20101116060511711/16/10 06:05:31  5-MIN KDBQ 161205Z 23004KT 1/2SM R36/1400V4000FT FG VV001 00/M01 A2973 1260 96 -200 230/04 RMK AO2
94908KDBQ DBQ20101116061012811/16/10 06:10:31  5-MIN KDBQ 161210Z 23005KT 1/4SM R36/1000V3000FT FZFG FEW001 SCT006 M01/M01 A2973 1260 96 -200 230/05 RMK AO2
94908KDBQ DBQ20101116061512911/16/10 06:15:31  5-MIN KDBQ 161215Z 23006KT 1/4SM R36/0600V1400FT FZFG SCT001 BKN006 M01/M01 A2973 1260 100 -300 230/06 RMK AO2
94908KDBQ DBQ20101116062012811/16/10 06:20:31  5-MIN KDBQ 161220Z 23005KT 1/4SM R36/0500V0800FT FZFG BKN001 BKN006 M01/M01 A2973 1260 96 -200 230/05 RMK AO2
94908KDBQ DBQ20101116062513011/16/10 06:25:31  5-MIN KDBQ 161225Z 22006KT M1/4SM R36/0400V0600FT FZFG BKN001 BKN006 M01/M01 A2973 1260 100 -200 220/06 RMK AO2
94908KDBQ DBQ20101116063012611/16/10 06:30:31  5-MIN KDBQ 161230Z 21005KT M1/4SM R36/0400V0500FT FG BKN001 OVC006 00/M01 A2973 1260 96 -200 210/05 RMK AO2
94908KDBQ DBQ20101116063511811/16/10 06:35:31  5-MIN KDBQ 161235Z 20004KT M1/4SM R36/0400V0500FT FG VV001 00/00 A2973 1260 100 -200 200/04 RMK AO2
94908KDBQ DBQ20101116064011811/16/10 06:40:31  5-MIN KDBQ 161240Z 21003KT M1/4SM R36/0300V0400FT FG VV001 00/00 A2973 1260 100 -200 210/03 RMK AO2
94908KDBQ DBQ20101116064511811/16/10 06:45:31  5-MIN KDBQ 161245Z 19003KT M1/4SM R36/0300V0400FT FG VV001 00/M01 A2973 1260 96 -200 190/03 RMK AO2
94908KDBQ DBQ20101116065013011/16/10 06:50:31  5-MIN KDBQ 161250Z 20003KT M1/4SM R36/0300FT FG VV001 00/M01 A2973 1260 96 -200 200/03 RMK AO2 SLP075 T00001006
94908KDBQ DBQ20101116065511811/16/10 06:55:31  5-MIN KDBQ 161255Z 20003KT M1/4SM R36/0300V0400FT FG VV001 00/M01 A2972 1260 96 -200 190/03 RMK AO2
94908KDBQ DBQ20101116070011811/16/10 07:00:31  5-MIN KDBQ 161300Z 20003KT M1/4SM R36/0300V0400FT FG VV001 00/M01 A2972 1260 96 -200 200/03 RMK AO2
94908KDBQ DBQ20101116070511311/16/10 07:05:31  5-MIN KDBQ 161305Z 21003KT M1/4SM R36/0300FT FG VV001 00/M01 A2972 1260 96 -200 210/03 RMK AO2
94908KDBQ DBQ20101116071011811/16/10 07:10:31  5-MIN KDBQ 161310Z 00000KT M1/4SM R36/0300V0400FT FG VV001 00/M01 A2972 1260 96 -200 000/00 RMK AO2
94908KDBQ DBQ20101116071511811/16/10 07:15:31  5-MIN KDBQ 161315Z 19003KT M1/4SM R36/0300V0400FT FG VV001 00/M01 A2972 1260 96 -200 190/03 RMK AO2
94908KDBQ DBQ20101116072011811/16/10 07:20:31  5-MIN KDBQ 161320Z 20003KT M1/4SM R36/0300V0400FT FG VV001 00/M01 A2972 1260 96 -200 200/03 RMK AO2
94908KDBQ DBQ20101116072511811/16/10 07:25:31  5-MIN KDBQ 161325Z 19003KT M1/4SM R36/0300V0400FT FG VV001 00/M01 A2972 1260 96 -200 190/03 RMK AO2
94908KDBQ DBQ20101116073011811/16/10 07:30:31  5-MIN KDBQ 161330Z 18003KT M1/4SM R36/0300V0400FT FG VV001 00/M01 A2972 1270 96 -200 180/03 RMK AO2
94908KDBQ DBQ20101116073511811/16/10 07:35:31  5-MIN KDBQ 161335Z 19003KT M1/4SM R36/0300V0400FT FG VV001 00/M01 A2972 1260 96 -200 190/03 RMK AO2
94908KDBQ DBQ20101116074011311/16/10 07:40:31  5-MIN KDBQ 161340Z 20003KT M1/4SM R36/0400FT FG VV001 00/M01 A2972 1270 96 -200 200/03 RMK AO2
94908KDBQ DBQ20101116074511711/16/10 07:45:31  5-MIN KDBQ 161345Z 19003KT M1/4SM R36/0400FT FZFG VV001 M01/M01 A2972 1270 100 -200 190/03 RMK AO2
94908KDBQ DBQ20101116075013411/16/10 07:50:31  5-MIN KDBQ 161350Z 00000KT M1/4SM R36/0400FT FZFG VV001 M01/M01 A2972 1270 100 -200 000/00 RMK AO2 SLP073 T10061006
94908KDBQ DBQ20101116075511711/16/10 07:55:31  5-MIN KDBQ 161355Z 00000KT M1/4SM R36/0400FT FZFG VV001 M01/M01 A2971 1270 100 -200 000/00 RMK AO2
94908KDBQ DBQ20101116080011711/16/10 08:00:31  5-MIN KDBQ 161400Z 00000KT M1/4SM R36/0400FT FZFG VV001 M01/M01 A2971 1270 100 -200 000/00 RMK AO2
94908KDBQ DBQ20101116080511711/16/10 08:05:31  5-MIN KDBQ 161405Z 00000KT M1/4SM R36/0400FT FZFG VV001 M01/M01 A2970 1280 100 -200 000/00 RMK AO2
94908KDBQ DBQ20101116081011311/16/10 08:10:31  5-MIN KDBQ 161410Z 00000KT M1/4SM R36/0400FT FG VV001 00/00 A2970 1280 100 -200 000/00 RMK AO2
94908KDBQ DBQ20101116081511811/16/10 08:15:31  5-MIN KDBQ 161415Z 00000KT M1/4SM R36/0300V0500FT FG VV001 00/00 A2971 1280 100 -200 000/00 RMK AO2
94908KDBQ DBQ20101116082011811/16/10 08:20:31  5-MIN KDBQ 161420Z 00000KT M1/4SM R36/0300V0500FT FG VV001 00/00 A2971 1280 100 -200 000/00 RMK AO2
94908KDBQ DBQ20101116082511311/16/10 08:25:31  5-MIN KDBQ 161425Z 00000KT M1/4SM R36/0400FT FG VV001 00/M01 A2971 1280 96 -200 000/00 RMK AO2
94908KDBQ DBQ20101116083011311/16/10 08:30:31  5-MIN KDBQ 161430Z 26003KT M1/4SM R36/0400FT FG VV001 00/M01 A2970 1280 96 -100 260/03 RMK AO2
94908KDBQ DBQ20101116083511311/16/10 08:35:31  5-MIN KDBQ 161435Z 00000KT M1/4SM R36/0400FT FG VV001 00/00 A2970 1280 100 -100 000/00 RMK AO2
94908KDBQ DBQ20101116084011311/16/10 08:40:31  5-MIN KDBQ 161440Z 00000KT M1/4SM R36/0400FT FG VV001 00/00 A2970 1280 100 -100 000/00 RMK AO2
94908KDBQ DBQ20101116084511311/16/10 08:45:31  5-MIN KDBQ 161445Z 00000KT M1/4SM R36/0400FT FG VV001 00/00 A2970 1280 100 -100 000/00 RMK AO2
94908KDBQ DBQ20101116085013611/16/10 08:50:31  5-MIN KDBQ 161450Z 00000KT M1/4SM R36/0400FT FG VV001 00/00 A2970 1280 100 -100 000/00 RMK AO2 SLP067 T00000000 58011
94908KDBQ DBQ20101116085511311/16/10 08:55:31  5-MIN KDBQ 161455Z 00000KT M1/4SM R36/0400FT FG VV001 00/00 A2970 1280 100 -100 000/00 RMK AO2
94908KDBQ DBQ20101116090011311/16/10 09:00:31  5-MIN KDBQ 161500Z 00000KT M1/4SM R36/0400FT FG VV001 01/01 A2970 1280 100 -100 000/00 RMK AO2
94908KDBQ DBQ20101116090511811/16/10 09:05:31  5-MIN KDBQ 161505Z 11003KT M1/4SM R36/0400V0500FT FG VV001 01/01 A2970 1290 100 -100 100/03 RMK AO2
94908KDBQ DBQ20101116091011511/16/10 09:10:31  5-MIN KDBQ 161510Z 00000KT M1/4SM R36/0400V0500FT FG VV001 02/02 A2969 1290 100 0 000/00 RMK AO2
94908KDBQ DBQ20101116091511111/16/10 09:15:31  5-MIN KDBQ 161515Z 00000KT M1/4SM R36/0500FT FG VV001 03/02 A2970 1280 96 200 000/00 RMK AO2
94908KDBQ DBQ20101116092011711/16/10 09:20:31  5-MIN KDBQ 161520Z 00000KT M1/4SM R36/0400V0500FT FG VV001 03/03 A2970 1290 100 200 000/00 RMK AO2
94908KDBQ DBQ20101116092511611/16/10 09:25:31  5-MIN KDBQ 161525Z 00000KT M1/4SM R36/0400V0500FT FG VV001 03/02 A2970 1280 96 200 000/00 RMK AO2
94908KDBQ DBQ20101116093011711/16/10 09:30:31  5-MIN KDBQ 161530Z 00000KT M1/4SM R36/0400V0500FT FG VV001 02/02 A2970 1280 100 100 000/00 RMK AO2
94908KDBQ DBQ20101116093511611/16/10 09:35:31  5-MIN KDBQ 161535Z 00000KT M1/4SM R36/0400V0500FT FG VV001 03/02 A2970 1280 96 200 000/00 RMK AO2
94908KDBQ DBQ20101116094011711/16/10 09:40:31  5-MIN KDBQ 161540Z 00000KT M1/4SM R36/0400V0500FT FG VV001 02/02 A2970 1280 100 100 000/00 RMK AO2
94908KDBQ DBQ20101116094511111/16/10 09:45:31  5-MIN KDBQ 161545Z 00000KT M1/4SM R36/0400FT FG VV001 03/02 A2970 1290 96 200 000/00 RMK AO2
94908KDBQ DBQ20101116095012811/16/10 09:50:31  5-MIN KDBQ 161550Z 00000KT M1/4SM R36/0400FT FG VV001 03/02 A2970 1290 96 200 000/00 RMK AO2 SLP064 T00280022
94908KDBQ DBQ20101116095511211/16/10 09:55:31  5-MIN KDBQ 161555Z 00000KT M1/4SM R36/0400FT FG VV001 03/03 A2970 1290 100 200 000/00 RMK AO2
94908KDBQ DBQ20101116100011211/16/10 10:00:31  5-MIN KDBQ 161600Z 00000KT M1/4SM R36/0400FT FG VV001 03/03 A2970 1290 100 200 000/00 RMK AO2
94908KDBQ DBQ20101116100511211/16/10 10:05:31  5-MIN KDBQ 161605Z 00000KT M1/4SM R36/0400FT FG VV001 03/03 A2970 1290 100 200 000/00 RMK AO2
94908KDBQ DBQ20101116101011111/16/10 10:10:31  5-MIN KDBQ 161610Z 00000KT M1/4SM R36/0400FT FG VV001 03/03 A2969 1290 96 200 000/00 RMK AO2
94908KDBQ DBQ20101116101511211/16/10 10:15:31  5-MIN KDBQ 161615Z 00000KT M1/4SM R36/0400FT FG VV001 03/03 A2969 1290 100 200 000/00 RMK AO2
94908KDBQ DBQ20101116102011711/16/10 10:20:31  5-MIN KDBQ 161620Z 00000KT M1/4SM R36/0400V0500FT FG VV001 03/03 A2969 1290 100 200 000/00 RMK AO2
94908KDBQ DBQ20101116102511211/16/10 10:25:31  5-MIN KDBQ 161625Z 00000KT M1/4SM R36/0500FT FG VV001 03/03 A2969 1290 100 200 000/00 RMK AO2
94908KDBQ DBQ20101116103011711/16/10 10:30:31  5-MIN KDBQ 161630Z 00000KT M1/4SM R36/0500V0600FT FG VV001 04/04 A2969 1290 100 300 000/00 RMK AO2
94908KDBQ DBQ20101116103511711/16/10 10:35:31  5-MIN KDBQ 161635Z 00000KT M1/4SM R36/0500V0800FT FG VV001 04/04 A2969 1290 100 300 000/00 RMK AO2
94908KDBQ DBQ20101116104011611/16/10 10:40:31  5-MIN KDBQ 161640Z 00000KT 1/4SM R36/0600V1200FT FG VV001 04/04 A2969 1300 100 400 000/00 RMK AO2
94908KDBQ DBQ20101116104511611/16/10 10:45:31  5-MIN KDBQ 161645Z 00000KT 3/4SM R36/0800V2200FT BR OVC001 05/04 A2969 1290 96 400 000/00 RMK AO2
94908KDBQ DBQ20101116105011911/16/10 10:50:31  5-MIN KDBQ 161650Z 00000KT 1 1/4SM R36/1200V4500FT BR OVC001 05/05 A2969 1290 100 400 000/00 RMK AO2
94908KDBQ DBQ20101116105511411/16/10 10:55:31  5-MIN KDBQ 161655Z 00000KT 2SM R36/2400V4500FT BR OVC001 05/04 A2969 1290 96 400 000/00 RMK AO2
94908KDBQ DBQ20101116110011611/16/10 11:00:31  5-MIN KDBQ 161700Z VRB03KT 1/4SM R36/2400V5000FT FG OVC003 06/05 A2969 1290 96 500 VRB/03 RMK AO2
94908KDBQ DBQ20101116110512711/16/10 11:05:31  5-MIN KDBQ 161705Z 00000KT 1SM R36/3500VP6000FT BR BKN003 06/05 A2969 1300 96 500 000/00 RMK AO2 CIG 001V006
94908KDBQ DBQ20101116111012711/16/10 11:10:31  5-MIN KDBQ 161710Z 00000KT 1SM R36/4000VP6000FT BR BKN003 06/04 A2968 1300 92 500 000/00 RMK AO2 CIG 001V006
94908KDBQ DBQ20101116111511011/16/10 11:15:31  5-MIN KDBQ 161715Z 15003KT 2SM BR BKN003 05/04 A2968 1300 96 400 150/03 RMK AO2 CIG 002V006
94908KDBQ DBQ20101116112011011/16/10 11:20:31  5-MIN KDBQ 161720Z 18004KT 2SM BR BKN003 06/04 A2968 1300 92 500 180/04 RMK AO2 CIG 002V006
94908KDBQ DBQ20101116112509811/16/10 11:25:31  5-MIN KDBQ 161725Z 00000KT 2SM BR SCT003 06/04 A2968 1300 92 500 000/00 RMK AO2
94908KDBQ DBQ20101116113010511/16/10 11:30:31  5-MIN KDBQ 161730Z VRB03KT 2SM BR FEW005 SCT060 06/04 A2968 1310 92 500 VRB/03 RMK AO2
94908KDBQ DBQ20101116113510511/16/10 11:35:31  5-MIN KDBQ 161735Z 00000KT 2SM BR FEW005 BKN060 06/04 A2967 1310 89 600 000/00 RMK AO2
94908KDBQ DBQ20101116114010511/16/10 11:40:31  5-MIN KDBQ 161740Z 00000KT 2SM BR FEW005 BKN060 07/04 A2967 1310 86 700 000/00 RMK AO2
94908KDBQ DBQ20101116114509811/16/10 11:45:31  5-MIN KDBQ 161745Z 00000KT 2SM HZ BKN060 07/04 A2967 1310 82 700 000/00 RMK AO2
94908KDBQ DBQ20101116115009811/16/10 11:50:31  5-MIN KDBQ 161750Z 02004KT 4SM BR BKN060 07/05 A2967 1310 89 700 020/04 RMK AO2
94908KDBQ DBQ20101116115509811/16/10 11:55:31  5-MIN KDBQ 161755Z 02003KT 3SM BR OVC060 07/05 A2967 1310 89 700 020/03 RMK AO2
94908KDBQ DBQ20101116120009811/16/10 12:00:31  5-MIN KDBQ 161800Z 00000KT 4SM BR OVC065 07/04 A2967 1310 86 700 000/00 RMK AO2
94908KDBQ DBQ20101116120509811/16/10 12:05:31  5-MIN KDBQ 161805Z 00000KT 4SM BR OVC065 07/05 A2967 1310 86 700 000/00 RMK AO2
94908KDBQ DBQ20101116121009811/16/10 12:10:31  5-MIN KDBQ 161810Z 00000KT 4SM BR OVC065 07/05 A2966 1320 86 700 000/00 RMK AO2
94908KDBQ DBQ20101116121509811/16/10 12:15:31  5-MIN KDBQ 161815Z 00000KT 4SM HZ BKN065 08/05 A2966 1320 82 800 000/00 RMK AO2
94908KDBQ DBQ20101116122009811/16/10 12:20:31  5-MIN KDBQ 161820Z 00000KT 5SM HZ OVC060 07/04 A2966 1320 82 700 000/00 RMK AO2
94908KDBQ DBQ20101116122510511/16/10 12:25:31  5-MIN KDBQ 161825Z 00000KT 5SM HZ BKN060 OVC100 08/04 A2966 1320 79 800 000/00 RMK AO2
94908KDBQ DBQ20101116123011211/16/10 12:30:31  5-MIN KDBQ 161830Z 00000KT 5SM HZ FEW013 BKN060 BKN100 08/04 A2966 1320 76 900 000/00 RMK AO2
94908KDBQ DBQ20101116123511211/16/10 12:35:31  5-MIN KDBQ 161835Z 00000KT 5SM HZ FEW013 BKN060 BKN100 08/05 A2966 1320 79 900 000/00 RMK AO2
94908KDBQ DBQ20101116124011211/16/10 12:40:31  5-MIN KDBQ 161840Z 09003KT 5SM HZ FEW013 BKN060 BKN090 08/05 A2965 1330 79 900 090/03 RMK AO2
94908KDBQ DBQ20101116124511211/16/10 12:45:31  5-MIN KDBQ 161845Z 00000KT 5SM HZ FEW013 BKN060 OVC100 08/04 A2965 1330 79 800 000/00 RMK AO2
94908KDBQ DBQ20101116125012911/16/10 12:50:31  5-MIN KDBQ 161850Z 00000KT 5SM HZ FEW013 SCT060 OVC100 08/04 A2965 1330 79 800 000/00 RMK AO2 SLP047 T00780044
94908KDBQ DBQ20101116125510511/16/10 12:55:31  5-MIN KDBQ 161855Z 13003KT 6SM HZ FEW013 OVC100 08/04 A2965 1330 73 900 130/03 RMK AO2
94908KDBQ DBQ20101116130010211/16/10 13:00:31  5-MIN KDBQ 161900Z 00000KT 8SM FEW013 OVC100 08/04 A2964 1340 73 900 000/00 RMK AO2
94908KDBQ DBQ20101116130510211/16/10 13:05:31  5-MIN KDBQ 161905Z 00000KT 8SM FEW060 OVC100 08/03 A2964 1340 70 900 000/00 RMK AO2
94908KDBQ DBQ20101116131009611/16/10 13:10:31  5-MIN KDBQ 161910Z 00000KT 9SM OVC100 09/03 A2964 1340 65 1000 000/00 RMK AO2
94908KDBQ DBQ20101116131509711/16/10 13:15:31  5-MIN KDBQ 161915Z 00000KT 10SM OVC100 09/03 A2964 1340 65 1000 000/00 RMK AO2
94908KDBQ DBQ20101116132009711/16/10 13:20:31  5-MIN KDBQ 161920Z 00000KT 10SM OVC100 09/03 A2964 1340 68 1000 000/00 RMK AO2
94908KDBQ DBQ20101116132509611/16/10 13:25:31  5-MIN KDBQ 161925Z 00000KT 9SM OVC100 09/03 A2964 1340 68 1000 000/00 RMK AO2
94908KDBQ DBQ20101116133009611/16/10 13:30:31  5-MIN KDBQ 161930Z 00000KT 7SM OVC100 09/04 A2964 1340 73 1000 000/00 RMK AO2
94908KDBQ DBQ20101116133509911/16/10 13:35:31  5-MIN KDBQ 161935Z 00000KT 6SM HZ OVC100 09/04 A2963 1340 73 1000 000/00 RMK AO2
94908KDBQ DBQ20101116134009611/16/10 13:40:31  5-MIN KDBQ 161940Z 08003KT 7SM OVC100 09/04 A2963 1350 73 1000 080/03 RMK AO2
94908KDBQ DBQ20101116134509611/16/10 13:45:31  5-MIN KDBQ 161945Z 09003KT 7SM OVC100 09/04 A2963 1350 73 1000 090/03 RMK AO2
94908KDBQ DBQ20101116135011311/16/10 13:50:31  5-MIN KDBQ 161950Z 13003KT 7SM OVC100 09/04 A2963 1350 71 1000 130/03 RMK AO2 SLP038 T00890039
94908KDBQ DBQ20101116135509611/16/10 13:55:31  5-MIN KDBQ 161955Z 12003KT 9SM OVC100 09/02 A2963 1350 63 1000 120/03 RMK AO2
94908KDBQ DBQ20101116140009711/16/10 14:00:31  5-MIN KDBQ 162000Z 00000KT 10SM OVC100 09/02 A2962 1350 60 1000 000/00 RMK AO2
94908KDBQ DBQ20101116140509711/16/10 14:05:31  5-MIN KDBQ 162005Z 00000KT 10SM OVC100 09/02 A2962 1350 60 1000 000/00 RMK AO2
94908KDBQ DBQ20101116141009711/16/10 14:10:31  5-MIN KDBQ 162010Z 00000KT 10SM OVC100 09/02 A2962 1360 63 1000 000/00 RMK AO2
94908KDBQ DBQ20101116141509711/16/10 14:15:31  5-MIN KDBQ 162015Z 00000KT 10SM OVC100 09/02 A2962 1360 60 1000 000/00 RMK AO2
94908KDBQ DBQ20101116142009711/16/10 14:20:31  5-MIN KDBQ 162020Z 00000KT 10SM OVC100 09/02 A2962 1360 63 1000 000/00 RMK AO2
94908KDBQ DBQ20101116142509611/16/10 14:25:31  5-MIN KDBQ 162025Z 00000KT 9SM OVC100 09/04 A2962 1360 68 1100 000/00 RMK AO2
94908KDBQ DBQ20101116143009611/16/10 14:30:31  5-MIN KDBQ 162030Z 36003KT 8SM OVC100 09/04 A2962 1360 68 1100 360/03 RMK AO2
94908KDBQ DBQ20101116143509611/16/10 14:35:31  5-MIN KDBQ 162035Z 00000KT 9SM OVC100 09/03 A2962 1360 65 1100 000/00 RMK AO2
94908KDBQ DBQ20101116144009711/16/10 14:40:31  5-MIN KDBQ 162040Z VRB03KT 10SM OVC100 09/03 A2962 1350 63 1100 VRB/03 RMK AO2
94908KDBQ DBQ20101116144509611/16/10 14:45:31  5-MIN KDBQ 162045Z 35006KT 9SM OVC100 09/04 A2962 1350 68 1000 350/06 RMK AO2
94908KDBQ DBQ20101116145011911/16/10 14:50:31  5-MIN KDBQ 162050Z 35004KT 8SM OVC100 09/04 A2963 1350 71 1000 350/04 RMK AO2 SLP039 T00890039 58012
94908KDBQ DBQ20101116145509611/16/10 14:55:31  5-MIN KDBQ 162055Z 35003KT 8SM OVC100 09/04 A2963 1350 71 1000 350/03 RMK AO2
94908KDBQ DBQ20101116150009611/16/10 15:00:31  5-MIN KDBQ 162100Z 00000KT 7SM OVC100 09/04 A2963 1350 71 1000 000/00 RMK AO2
94908KDBQ DBQ20101116150509611/16/10 15:05:31  5-MIN KDBQ 162105Z 01003KT 7SM OVC100 09/04 A2962 1350 71 1000 010/03 RMK AO2
94908KDBQ DBQ20101116151009611/16/10 15:10:31  5-MIN KDBQ 162110Z 02004KT 7SM OVC100 09/04 A2963 1350 71 1000 020/04 RMK AO2
94908KDBQ DBQ20101116151509511/16/10 15:15:31  5-MIN KDBQ 162115Z 02005KT 7SM OVC100 08/03 A2963 1350 70 900 020/05 RMK AO2
94908KDBQ DBQ20101116152009511/16/10 15:20:31  5-MIN KDBQ 162120Z 03004KT 7SM OVC100 08/03 A2963 1350 70 900 020/04 RMK AO2
94908KDBQ DBQ20101116152510211/16/10 15:25:31  5-MIN KDBQ 162125Z 04004KT 7SM FEW080 OVC100 08/03 A2963 1350 70 900 040/04 RMK AO2
94908KDBQ DBQ20101116153010211/16/10 15:30:31  5-MIN KDBQ 162130Z 03005KT 7SM SCT075 OVC100 08/03 A2963 1350 70 900 030/05 RMK AO2
94908KDBQ DBQ20101116153510211/16/10 15:35:31  5-MIN KDBQ 162135Z 03005KT 7SM SCT075 OVC100 08/03 A2963 1350 70 900 030/05 RMK AO2
94908KDBQ DBQ20101116154010211/16/10 15:40:31  5-MIN KDBQ 162140Z 03005KT 7SM BKN075 OVC100 08/03 A2963 1350 73 800 030/05 RMK AO2
94908KDBQ DBQ20101116154510211/16/10 15:45:31  5-MIN KDBQ 162145Z 03005KT 7SM BKN075 OVC100 08/03 A2963 1350 73 800 030/05 RMK AO2
94908KDBQ DBQ20101116155011911/16/10 15:50:31  5-MIN KDBQ 162150Z 03005KT 7SM BKN075 OVC100 08/03 A2963 1350 70 800 030/05 RMK AO2 SLP042 T00780028
94908KDBQ DBQ20101116155510211/16/10 15:55:31  5-MIN KDBQ 162155Z 03005KT 7SM SCT075 OVC100 08/03 A2963 1340 70 800 030/05 RMK AO2
94908KDBQ DBQ20101116160010211/16/10 16:00:31  5-MIN KDBQ 162200Z 03005KT 7SM FEW070 OVC100 07/03 A2964 1340 73 800 030/05 RMK AO2
94908KDBQ DBQ20101116160510211/16/10 16:05:31  5-MIN KDBQ 162205Z 02005KT 7SM FEW070 OVC100 07/03 A2964 1340 76 800 020/05 RMK AO2
94908KDBQ DBQ20101116161010511/16/10 16:10:31  5-MIN KDBQ 162210Z 02005KT 6SM HZ FEW070 OVC095 07/03 A2964 1340 76 800 020/05 RMK AO2
94908KDBQ DBQ20101116161509811/16/10 16:15:31  5-MIN KDBQ 162215Z 03005KT 6SM HZ OVC095 07/03 A2964 1340 76 800 030/05 RMK AO2
94908KDBQ DBQ20101116162010511/16/10 16:20:31  5-MIN KDBQ 162220Z 02005KT 6SM HZ FEW080 OVC100 07/03 A2964 1340 76 800 020/05 RMK AO2
94908KDBQ DBQ20101116162510511/16/10 16:25:31  5-MIN KDBQ 162225Z 02004KT 6SM HZ FEW080 OVC100 07/03 A2964 1340 79 700 020/04 RMK AO2
94908KDBQ DBQ20101116163010511/16/10 16:30:31  5-MIN KDBQ 162230Z 02004KT 6SM HZ FEW080 OVC100 07/03 A2964 1340 76 700 020/04 RMK AO2
94908KDBQ DBQ20101116163510511/16/10 16:35:31  5-MIN KDBQ 162235Z 03004KT 6SM HZ FEW080 OVC100 07/02 A2964 1340 73 700 030/04 RMK AO2
94908KDBQ DBQ20101116164010211/16/10 16:40:31  5-MIN KDBQ 162240Z 03004KT 7SM FEW080 OVC100 07/02 A2964 1340 73 700 030/04 RMK AO2
94908KDBQ DBQ20101116164510211/16/10 16:45:31  5-MIN KDBQ 162245Z 03004KT 7SM BKN085 OVC100 06/02 A2964 1340 76 600 030/04 RMK AO2
94908KDBQ DBQ20101116165011911/16/10 16:50:31  5-MIN KDBQ 162250Z 04004KT 7SM SCT090 OVC100 06/02 A2964 1340 76 600 040/04 RMK AO2 SLP046 T00610022
94908KDBQ DBQ20101116165509511/16/10 16:55:31  5-MIN KDBQ 162255Z 04003KT 8SM OVC100 06/02 A2964 1340 76 600 040/03 RMK AO2
94908KDBQ DBQ20101116170009511/16/10 17:00:31  5-MIN KDBQ 162300Z 03004KT 8SM OVC100 06/02 A2964 1340 76 600 030/04 RMK AO2
94908KDBQ DBQ20101116170509511/16/10 17:05:31  5-MIN KDBQ 162305Z 03005KT 8SM OVC100 06/02 A2964 1340 76 600 030/05 RMK AO2
94908KDBQ DBQ20101116171009511/16/10 17:10:31  5-MIN KDBQ 162310Z 02005KT 8SM OVC100 06/02 A2964 1340 76 600 010/05 RMK AO2
94908KDBQ DBQ20101116171509511/16/10 17:15:31  5-MIN KDBQ 162315Z 01005KT 8SM OVC110 06/02 A2965 1330 76 600 010/05 RMK AO2
94908KDBQ DBQ20101116172009511/16/10 17:20:31  5-MIN KDBQ 162320Z 01005KT 8SM BKN110 06/02 A2965 1330 76 600 010/05 RMK AO2
94908KDBQ DBQ20101116172509511/16/10 17:25:31  5-MIN KDBQ 162325Z 02006KT 8SM BKN110 05/02 A2965 1330 79 500 020/06 RMK AO2
94908KDBQ DBQ20101116173009511/16/10 17:30:31  5-MIN KDBQ 162330Z 02005KT 8SM BKN110 05/02 A2965 1330 79 500 020/05 RMK AO2
94908KDBQ DBQ20101116173509511/16/10 17:35:31  5-MIN KDBQ 162335Z 36004KT 8SM OVC110 05/02 A2965 1330 82 500 360/04 RMK AO2
94908KDBQ DBQ20101116174009511/16/10 17:40:31  5-MIN KDBQ 162340Z 02005KT 8SM OVC110 04/02 A2965 1330 82 400 020/05 RMK AO2
94908KDBQ DBQ20101116174509511/16/10 17:45:31  5-MIN KDBQ 162345Z 01005KT 8SM OVC110 05/02 A2965 1330 82 500 010/05 RMK AO2
94908KDBQ DBQ20101116175013011/16/10 17:50:31  5-MIN KDBQ 162350Z 01005KT 7SM OVC110 04/02 A2965 1330 85 400 010/05 RMK AO2 SLP049 T00440022 10094 20044 55013
94908KDBQ DBQ20101116175509511/16/10 17:55:31  5-MIN KDBQ 162355Z 36006KT 7SM OVC100 04/02 A2965 1330 85 400 360/06 RMK AO2
94908KDBQ DBQ20101116180010211/16/10 18:00:31  5-MIN KDBQ 170000Z 36007KT 7SM FEW070 OVC100 04/02 A2965 1330 85 400 360/07 RMK AO2
94908KDBQ DBQ20101116180510511/16/10 18:05:31  5-MIN KDBQ 170005Z 36007KT 6SM BR SCT065 OVC100 04/03 A2965 1330 89 400 360/07 RMK AO2
94908KDBQ DBQ20101116181010511/16/10 18:10:31  5-MIN KDBQ 170010Z 36007KT 6SM BR SCT065 OVC100 04/03 A2965 1330 89 400 360/07 RMK AO2
94908KDBQ DBQ20101116181510511/16/10 18:15:31  5-MIN KDBQ 170015Z 01007KT 6SM BR SCT065 OVC095 04/03 A2965 1330 89 400 010/07 RMK AO2
94908KDBQ DBQ20101116182010511/16/10 18:20:31  5-MIN KDBQ 170020Z 02007KT 6SM BR SCT070 OVC095 04/03 A2965 1330 89 400 010/07 RMK AO2
94908KDBQ DBQ20101116182510511/16/10 18:25:31  5-MIN KDBQ 170025Z 02008KT 6SM BR SCT070 OVC095 05/03 A2965 1330 85 500 020/08 RMK AO2
94908KDBQ DBQ20101116183010511/16/10 18:30:31  5-MIN KDBQ 170030Z 02007KT 6SM BR BKN070 OVC095 05/03 A2965 1330 85 500 010/07 RMK AO2
94908KDBQ DBQ20101116183510511/16/10 18:35:31  5-MIN KDBQ 170035Z 01006KT 6SM BR SCT070 OVC095 05/03 A2966 1320 85 500 010/06 RMK AO2
94908KDBQ DBQ20101116184010511/16/10 18:40:31  5-MIN KDBQ 170040Z 01006KT 5SM BR FEW070 OVC095 05/03 A2966 1320 85 500 010/06 RMK AO2
94908KDBQ DBQ20101116184510511/16/10 18:45:31  5-MIN KDBQ 170045Z 01006KT 6SM BR FEW070 OVC095 04/03 A2966 1320 89 400 010/06 RMK AO2
94908KDBQ DBQ20101116185012211/16/10 18:50:31  5-MIN KDBQ 170050Z 35006KT 5SM BR FEW070 OVC095 04/03 A2966 1320 89 400 350/06 RMK AO2 SLP054 T00440028
94908KDBQ DBQ20101116185509811/16/10 18:55:31  5-MIN KDBQ 170055Z 35005KT 5SM BR OVC095 04/03 A2967 1310 89 400 350/05 RMK AO2
94908KDBQ DBQ20101116190010511/16/10 19:00:31  5-MIN KDBQ 170100Z 34004KT 5SM BR SCT042 OVC095 04/03 A2967 1310 92 400 340/04 RMK AO2
94908KDBQ DBQ20101116190510511/16/10 19:05:31  5-MIN KDBQ 170105Z 32003KT 5SM BR BKN042 OVC095 04/03 A2967 1310 92 400 320/03 RMK AO2
94908KDBQ DBQ20101116191010511/16/10 19:10:31  5-MIN KDBQ 170110Z 32003KT 5SM BR BKN040 OVC095 05/03 A2967 1310 89 500 320/03 RMK AO2
94908KDBQ DBQ20101116191510511/16/10 19:15:31  5-MIN KDBQ 170115Z 00000KT 5SM BR BKN040 OVC095 05/03 A2967 1310 89 500 000/00 RMK AO2
94908KDBQ DBQ20101116192010511/16/10 19:20:31  5-MIN KDBQ 170120Z 35003KT 5SM BR BKN038 OVC095 05/03 A2967 1310 89 500 340/03 RMK AO2
94908KDBQ DBQ20101116192509811/16/10 19:25:31  5-MIN KDBQ 170125Z 34003KT 5SM BR OVC038 05/04 A2967 1310 92 500 340/03 RMK AO2
94908KDBQ DBQ20101116193009811/16/10 19:30:31  5-MIN KDBQ 170130Z 33003KT 5SM BR OVC038 05/03 A2968 1310 89 500 330/03 RMK AO2
94908KDBQ DBQ20101116193509811/16/10 19:35:31  5-MIN KDBQ 170135Z 34004KT 5SM BR OVC036 05/03 A2968 1310 89 500 340/04 RMK AO2
94908KDBQ DBQ20101116194010511/16/10 19:40:31  5-MIN KDBQ 170140Z 35004KT 5SM BR SCT030 OVC036 05/03 A2968 1300 89 500 350/04 RMK AO2
94908KDBQ DBQ20101116194511211/16/10 19:45:31  5-MIN KDBQ 170145Z 36005KT 5SM BR FEW030 BKN036 OVC090 05/03 A2968 1300 89 500 360/05 RMK AO2
94908KDBQ DBQ20101116195012211/16/10 19:50:31  5-MIN KDBQ 170150Z 01004KT 6SM BR BKN033 OVC090 05/03 A2968 1300 85 500 360/04 RMK AO2 SLP058 T00500028
94908KDBQ DBQ20101116195510511/16/10 19:55:31  5-MIN KDBQ 170155Z 01004KT 6SM BR BKN033 OVC090 05/03 A2968 1300 85 400 010/04 RMK AO2
94908KDBQ DBQ20101116200011711/16/10 20:00:31  5-MIN KDBQ 170200Z AUTO 00000KT 6SM BR FEW023 BKN031 OVC090 05/03 A2968 1300 85 400 000/00 RMK AO2
94908KDBQ DBQ20101116200511711/16/10 20:05:31  5-MIN KDBQ 170205Z AUTO 00000KT 6SM HZ SCT025 BKN031 OVC090 06/03 A2968 1300 82 500 000/00 RMK AO2
94908KDBQ DBQ20101116201011711/16/10 20:10:31  5-MIN KDBQ 170210Z AUTO 00000KT 6SM HZ BKN027 BKN034 OVC090 06/03 A2969 1290 82 500 000/00 RMK AO2
94908KDBQ DBQ20101116201511011/16/10 20:15:31  5-MIN KDBQ 170215Z AUTO 00000KT 6SM HZ BKN027 OVC090 06/03 A2969 1290 82 500 000/00 RMK AO2
94908KDBQ DBQ20101116202010011/16/10 20:20:31  5-MIN KDBQ 170220Z AUTO 00000KT 7SM OVC029 06/03 A2969 1290 82 500 000/00 RMK AO2
94908KDBQ DBQ20101116202510311/16/10 20:25:31  5-MIN KDBQ 170225Z AUTO 00000KT 6SM HZ OVC029 06/03 A2969 1290 82 500 000/00 RMK AO2
94908KDBQ DBQ20101116203010311/16/10 20:30:31  5-MIN KDBQ 170230Z AUTO 35003KT 6SM HZ OVC029 06/03 A2969 1290 82 500 350/03 RMK AO2
94908KDBQ DBQ20101116203510311/16/10 20:35:31  5-MIN KDBQ 170235Z AUTO 32003KT 6SM BR OVC029 05/03 A2969 1290 85 400 320/03 RMK AO2
94908KDBQ DBQ20101116204010711/16/10 20:40:31  5-MIN KDBQ 170240Z AUTO 00000KT 7SM BKN029 OVC039 05/03 A2969 1290 85 400 000/00 RMK AO2
94908KDBQ DBQ20101116204511011/16/10 20:45:31  5-MIN KDBQ 170245Z AUTO 00000KT 6SM BR BKN029 OVC039 05/03 A2969 1290 85 400 000/00 RMK AO2
94908KDBQ DBQ20101116205013311/16/10 20:50:31  5-MIN KDBQ 170250Z AUTO 00000KT 6SM BR BKN029 OVC041 05/03 A2969 1290 85 400 000/00 RMK AO2 SLP064 T00500028 53008
94908KDBQ DBQ20101116205510711/16/10 20:55:31  5-MIN KDBQ 170255Z AUTO 28004KT 7SM BKN029 OVC041 05/03 A2970 1280 85 400 270/04 RMK AO2
94908KDBQ DBQ20101116210011011/16/10 21:00:31  5-MIN KDBQ 170300Z AUTO 27004KT 6SM BR BKN029 OVC043 05/03 A2970 1280 85 400 270/04 RMK AO2
94908KDBQ DBQ20101116210511011/16/10 21:05:31  5-MIN KDBQ 170305Z AUTO 28003KT 6SM BR BKN029 OVC039 05/03 A2970 1280 85 400 280/03 RMK AO2
94908KDBQ DBQ20101116211011011/16/10 21:10:31  5-MIN KDBQ 170310Z AUTO 29003KT 6SM BR BKN031 OVC036 05/03 A2970 1280 85 400 290/03 RMK AO2
94908KDBQ DBQ20101116211511011/16/10 21:15:31  5-MIN KDBQ 170315Z AUTO 31003KT 6SM BR SCT031 OVC035 05/03 A2970 1280 85 400 310/03 RMK AO2
94908KDBQ DBQ20101116212011011/16/10 21:20:31  5-MIN KDBQ 170320Z AUTO 33004KT 6SM BR SCT031 OVC035 05/03 A2970 1280 85 400 330/04 RMK AO2
94908KDBQ DBQ20101116212511011/16/10 21:25:31  5-MIN KDBQ 170325Z AUTO 32004KT 6SM BR FEW028 OVC037 05/03 A2971 1280 85 400 320/04 RMK AO2
94908KDBQ DBQ20101116213010311/16/10 21:30:31  5-MIN KDBQ 170330Z AUTO 31005KT 6SM BR OVC037 05/03 A2971 1280 85 400 310/05 RMK AO2
94908KDBQ DBQ20101116213511011/16/10 21:35:31  5-MIN KDBQ 170335Z AUTO 31004KT 6SM BR BKN037 OVC070 05/03 A2971 1270 85 400 310/04 RMK AO2
94908KDBQ DBQ20101116214011011/16/10 21:40:31  5-MIN KDBQ 170340Z AUTO 00000KT 6SM BR BKN037 OVC070 05/03 A2971 1270 85 400 000/00 RMK AO2
94908KDBQ DBQ20101116214511011/16/10 21:45:31  5-MIN KDBQ 170345Z AUTO 31003KT 6SM BR BKN039 OVC075 05/03 A2971 1270 85 400 310/03 RMK AO2
94908KDBQ DBQ20101116215012711/16/10 21:50:31  5-MIN KDBQ 170350Z AUTO 30003KT 6SM BR BKN039 OVC075 05/03 A2971 1270 85 400 300/03 RMK AO2 SLP070 T00500028
94908KDBQ DBQ20101116215511011/16/10 21:55:31  5-MIN KDBQ 170355Z AUTO 29004KT 6SM BR BKN039 OVC080 04/03 A2972 1270 89 300 290/04 RMK AO2
94908KDBQ DBQ20101116220011711/16/10 22:00:31  5-MIN KDBQ 170400Z AUTO 29003KT 6SM BR FEW031 SCT039 OVC080 04/03 A2972 1270 89 300 290/03 RMK AO2
94908KDBQ DBQ20101116220511711/16/10 22:05:31  5-MIN KDBQ 170405Z AUTO 30004KT 6SM BR FEW018 BKN041 OVC080 04/03 A2972 1270 89 300 300/04 RMK AO2
94908KDBQ DBQ20101116221011711/16/10 22:10:31  5-MIN KDBQ 170410Z AUTO 30003KT 6SM BR FEW018 BKN041 OVC080 04/03 A2972 1260 89 300 290/03 RMK AO2
94908KDBQ DBQ20101116221511711/16/10 22:15:31  5-MIN KDBQ 170415Z AUTO 00000KT 6SM BR FEW018 BKN041 OVC080 04/03 A2972 1260 89 300 000/00 RMK AO2
94908KDBQ DBQ20101116222011711/16/10 22:20:31  5-MIN KDBQ 170420Z AUTO 00000KT 6SM BR FEW018 BKN028 OVC080 04/03 A2972 1260 89 300 000/00 RMK AO2
94908KDBQ DBQ20101116222511711/16/10 22:25:31  5-MIN KDBQ 170425Z AUTO 00000KT 5SM BR FEW018 BKN028 OVC085 04/03 A2972 1260 89 300 000/00 RMK AO2
94908KDBQ DBQ20101116223011011/16/10 22:30:31  5-MIN KDBQ 170430Z AUTO 00000KT 5SM BR FEW018 OVC028 04/03 A2972 1260 89 300 000/00 RMK AO2
94908KDBQ DBQ20101116223510311/16/10 22:35:31  5-MIN KDBQ 170435Z AUTO 00000KT 5SM BR OVC028 04/03 A2973 1260 89 300 000/00 RMK AO2
94908KDBQ DBQ20101116224010311/16/10 22:40:31  5-MIN KDBQ 170440Z AUTO 00000KT 5SM BR OVC028 04/03 A2973 1260 89 300 000/00 RMK AO2
94908KDBQ DBQ20101116224510311/16/10 22:45:31  5-MIN KDBQ 170445Z AUTO 00000KT 5SM BR OVC028 04/03 A2973 1260 89 300 000/00 RMK AO2
94908KDBQ DBQ20101116225010311/16/10 22:50:31  5-MIN KDBQ 170450Z AUTO 29003KT 5SM BR OVC030 04/03 A2973 1250 89 300 290/03 RMK AO2
94908KDBQ DBQ20101116225511011/16/10 22:55:31  5-MIN KDBQ 170455Z AUTO 30003KT 4SM BR BKN030 OVC085 04/03 A2973 1250 92 300 300/03 RMK AO2
94908KDBQ DBQ20101116230011011/16/10 23:00:31  5-MIN KDBQ 170500Z AUTO 30003KT 4SM BR BKN030 OVC085 04/03 A2973 1250 92 300 300/03 RMK AO2
94908KDBQ DBQ20101116230511011/16/10 23:05:31  5-MIN KDBQ 170505Z AUTO 29004KT 4SM BR SCT030 OVC085 04/03 A2973 1250 92 300 290/04 RMK AO2
94908KDBQ DBQ20101116231011011/16/10 23:10:31  5-MIN KDBQ 170510Z AUTO 29003KT 4SM BR FEW030 OVC085 04/03 A2974 1250 92 300 290/03 RMK AO2
94908KDBQ DBQ20101116231511011/16/10 23:15:31  5-MIN KDBQ 170515Z AUTO 29003KT 3SM BR FEW032 OVC085 04/03 A2974 1250 92 300 280/03 RMK AO2
94908KDBQ DBQ20101116232010311/16/10 23:20:31  5-MIN KDBQ 170520Z AUTO 29004KT 3SM BR OVC085 04/03 A2974 1250 96 200 290/04 RMK AO2
94908KDBQ DBQ20101116232510311/16/10 23:25:31  5-MIN KDBQ 170525Z AUTO 29004KT 3SM BR OVC090 04/03 A2974 1250 96 200 290/04 RMK AO2
94908KDBQ DBQ20101116233010311/16/10 23:30:31  5-MIN KDBQ 170530Z AUTO 29004KT 3SM BR OVC090 04/03 A2974 1250 92 200 290/04 RMK AO2
94908KDBQ DBQ20101116233510311/16/10 23:35:31  5-MIN KDBQ 170535Z AUTO 29003KT 4SM BR OVC090 04/03 A2974 1240 92 200 290/03 RMK AO2
94908KDBQ DBQ20101116234010311/16/10 23:40:31  5-MIN KDBQ 170540Z AUTO 29004KT 4SM BR OVC090 04/03 A2974 1240 92 200 290/04 RMK AO2
94908KDBQ DBQ20101116234510311/16/10 23:45:31  5-MIN KDBQ 170545Z AUTO 28005KT 3SM BR OVC090 03/03 A2975 1240 96 200 280/05 RMK AO2
94908KDBQ DBQ20101116235012011/16/10 23:50:31  5-MIN KDBQ 170550Z AUTO 26007KT 3SM BR FEW005 OVC090 03/02 A2975 1240 92 200 260/07 RMK AO2 400941011
94908KDBQ DBQ20101116235511011/16/10 23:55:31  5-MIN KDBQ 170555Z AUTO 27007KT 3SM BR SCT005 OVC090 03/03 A2975 1240 96 200 270/07 RMK AO2
94908KDBQ DBQ20101117000011411/17/10 00:00:38  5-MIN KDBQ 170600Z AUTO 27006KT 2 1/2SM BR BKN005 OVC090 04/03 A2975 1230 92 200 270/06 RMK AO2
94908KDBQ DBQ20101117000511411/17/10 00:05:31  5-MIN KDBQ 170605Z AUTO 28006KT 2 1/2SM BR BKN005 OVC090 04/03 A2975 1230 92 200 280/06 RMK AO2
94908KDBQ DBQ20101117001012611/17/10 00:10:31  5-MIN KDBQ 170610Z AUTO 29008KT 2 1/2SM BR BKN003 OVC090 03/03 A2976 1230 96 200 290/08 RMK AO2 CIG 002V006
94908KDBQ DBQ20101117001511911/17/10 00:15:32  5-MIN KDBQ 170615Z AUTO 30007KT 2 1/2SM BR OVC003 03/03 A2976 1230 96 200 300/07 RMK AO2 CIG 002V006
94908KDBQ DBQ20101117002011511/17/10 00:20:31  5-MIN KDBQ 170620Z AUTO 30007KT 2SM BR OVC003 03/03 A2976 1230 96 200 300/07 RMK AO2 CIG 002V005
94908KDBQ DBQ20101117002510311/17/10 00:25:31  5-MIN KDBQ 170625Z AUTO 29007KT 2SM BR OVC003 03/03 A2976 1230 96 200 290/07 RMK AO2
94908KDBQ DBQ20101117003010311/17/10 00:30:31  5-MIN KDBQ 170630Z AUTO 30007KT 2SM BR OVC003 03/03 A2976 1230 96 100 300/07 RMK AO2
94908KDBQ DBQ20101117003510311/17/10 00:35:31  5-MIN KDBQ 170635Z AUTO 30009KT 2SM BR OVC003 03/03 A2976 1220 96 100 300/09 RMK AO2
94908KDBQ DBQ20101117004010711/17/10 00:40:31  5-MIN KDBQ 170640Z AUTO 31008KT 2 1/2SM BR OVC003 03/03 A2976 1220 96 100 310/08 RMK AO2
94908KDBQ DBQ20101117004510711/17/10 00:45:31  5-MIN KDBQ 170645Z AUTO 31009KT 2 1/2SM BR OVC003 03/03 A2977 1220 96 100 310/09 RMK AO2
94908KDBQ DBQ20101117005010311/17/10 00:50:31  5-MIN KDBQ 170650Z AUTO 31007KT 3SM BR OVC003 03/03 A2977 1220 96 100 300/07 RMK AO2
94908KDBQ DBQ20101117005510311/17/10 00:55:31  5-MIN KDBQ 170655Z AUTO 31009KT 3SM BR OVC003 03/03 A2977 1220 96 100 310/09 RMK AO2
94908KDBQ DBQ20101117010010311/17/10 01:00:31  5-MIN KDBQ 170700Z AUTO 30007KT 3SM BR OVC003 03/02 A2977 1220 92 100 300/07 RMK AO2
94908KDBQ DBQ20101117010511511/17/10 01:05:31  5-MIN KDBQ 170705Z AUTO 31008KT 4SM BR OVC003 03/02 A2977 1210 92 100 310/08 RMK AO2 CIG 002V006
94908KDBQ DBQ20101117011010311/17/10 01:10:31  5-MIN KDBQ 170710Z AUTO 31007KT 4SM BR OVC003 03/02 A2978 1210 92 100 300/07 RMK AO2
94908KDBQ DBQ20101117011510311/17/10 01:15:31  5-MIN KDBQ 170715Z AUTO 31007KT 4SM BR OVC005 03/02 A2978 1210 92 100 310/07 RMK AO2
94908KDBQ DBQ20101117012010311/17/10 01:20:31  5-MIN KDBQ 170720Z AUTO 30006KT 4SM BR OVC005 03/02 A2978 1210 92 100 300/06 RMK AO2
94908KDBQ DBQ20101117012511011/17/10 01:25:31  5-MIN KDBQ 170725Z AUTO 30006KT 4SM BR BKN005 BKN040 03/02 A2978 1210 96 100 300/06 RMK AO2
94908KDBQ DBQ20101117013011011/17/10 01:30:31  5-MIN KDBQ 170730Z AUTO 29005KT 4SM BR BKN005 BKN040 03/02 A2978 1210 92 100 290/05 RMK AO2
94908KDBQ DBQ20101117013510811/17/10 01:35:31  5-MIN KDBQ 170735Z AUTO 29006KT 4SM BR SCT005 BKN040 02/02 A2979 1200 96 0 290/06 RMK AO2
94908KDBQ DBQ20101117014010811/17/10 01:40:31  5-MIN KDBQ 170740Z AUTO 28006KT 4SM BR SCT005 BKN040 02/02 A2979 1200 96 0 280/06 RMK AO2
94908KDBQ DBQ20101117014510811/17/10 01:45:31  5-MIN KDBQ 170745Z AUTO 29006KT 4SM BR FEW005 SCT040 02/01 A2979 1200 92 0 290/06 RMK AO2
94908KDBQ DBQ20101117015012511/17/10 01:50:31  5-MIN KDBQ 170750Z AUTO 30008KT 4SM BR SCT005 BKN040 02/02 A2979 1200 96 0 300/08 RMK AO2 SLP095 T00220017
94908KDBQ DBQ20101117015510811/17/10 01:55:31  5-MIN KDBQ 170755Z AUTO 30010KT 4SM BR BKN005 BKN040 02/02 A2980 1190 96 0 300/10 RMK AO2
94908KDBQ DBQ20101117020010811/17/10 02:00:31  5-MIN KDBQ 170800Z AUTO 31009KT 4SM BR BKN005 BKN040 03/02 A2980 1190 92 0 300/09 RMK AO2
94908KDBQ DBQ20101117020510111/17/10 02:05:31  5-MIN KDBQ 170805Z AUTO 31009KT 4SM BR BKN005 03/02 A2980 1190 92 0 310/09 RMK AO2
94908KDBQ DBQ20101117021010111/17/10 02:10:31  5-MIN KDBQ 170810Z AUTO 31007KT 4SM BR BKN005 02/02 A2980 1190 96 0 310/07 RMK AO2
94908KDBQ DBQ20101117021510111/17/10 02:15:31  5-MIN KDBQ 170815Z AUTO 30006KT 4SM BR BKN005 02/02 A2980 1190 96 0 300/06 RMK AO2
94908KDBQ DBQ20101117022010411/17/10 02:20:31  5-MIN KDBQ 170820Z AUTO 30005KT 4SM BR BKN005 02/01 A2980 1190 96 -100 300/05 RMK AO2
94908KDBQ DBQ20101117022510411/17/10 02:25:31  5-MIN KDBQ 170825Z AUTO 29006KT 3SM BR BKN005 02/01 A2981 1180 96 -100 290/06 RMK AO2
94908KDBQ DBQ20101117023010111/17/10 02:30:31  5-MIN KDBQ 170830Z AUTO 29006KT 3SM BR BKN005 02/01 A2981 1180 92 0 290/06 RMK AO2
94908KDBQ DBQ20101117023511111/17/10 02:35:31  5-MIN KDBQ 170835Z AUTO 29007KT 4SM BR BKN005 BKN075 02/01 A2981 1180 96 -100 290/07 RMK AO2
94908KDBQ DBQ20101117024010811/17/10 02:40:31  5-MIN KDBQ 170840Z AUTO 29007KT 4SM BR SCT005 BKN075 02/01 A2982 1170 92 0 290/07 RMK AO2
94908KDBQ DBQ20101117024510811/17/10 02:45:31  5-MIN KDBQ 170845Z AUTO 29009KT 4SM BR SCT005 BKN075 02/01 A2982 1170 92 0 290/09 RMK AO2
94908KDBQ DBQ20101117025013811/17/10 02:50:31  5-MIN KDBQ 170850Z AUTO 29009KT 4SM BR FEW005 SCT043 BKN075 02/02 A2982 1170 96 0 290/09 RMK AO2 SLP105 T00220017 53017
94908KDBQ DBQ20101117025511511/17/10 02:55:31  5-MIN KDBQ 170855Z AUTO 30010KT 5SM BR FEW005 SCT022 BKN043 03/02 A2982 1170 92 0 300/10 RMK AO2
94908KDBQ DBQ20101117030011511/17/10 03:00:31  5-MIN KDBQ 170900Z AUTO 30010KT 5SM BR FEW015 SCT022 BKN043 03/02 A2983 1160 92 0 290/10 RMK AO2
94908KDBQ DBQ20101117030511511/17/10 03:05:31  5-MIN KDBQ 170905Z AUTO 29009KT 5SM BR BKN020 BKN043 BKN075 03/02 A2983 1160 92 0 290/09 RMK AO2
94908KDBQ DBQ20101117031011511/17/10 03:10:31  5-MIN KDBQ 170910Z AUTO 29010KT 5SM BR BKN020 BKN026 BKN043 03/02 A2983 1160 92 0 290/10 RMK AO2
94908KDBQ DBQ20101117031511511/17/10 03:15:31  5-MIN KDBQ 170915Z AUTO 30009KT 6SM BR BKN020 BKN026 OVC043 03/02 A2983 1160 92 0 300/09 RMK AO2
94908KDBQ DBQ20101117032011511/17/10 03:20:31  5-MIN KDBQ 170920Z AUTO 30009KT 6SM BR BKN020 BKN026 OVC043 03/02 A2983 1160 92 0 300/09 RMK AO2
94908KDBQ DBQ20101117032511011/17/10 03:25:31  5-MIN KDBQ 170925Z AUTO 30010KT 6SM BR BKN020 OVC026 03/02 A2983 1160 92 100 300/10 RMK AO2
94908KDBQ DBQ20101117033011011/17/10 03:30:31  5-MIN KDBQ 170930Z AUTO 30010KT 6SM BR BKN020 OVC026 03/02 A2983 1160 92 100 300/10 RMK AO2
94908KDBQ DBQ20101117033510311/17/10 03:35:31  5-MIN KDBQ 170935Z AUTO 29009KT 6SM BR OVC022 03/02 A2983 1160 92 100 290/09 RMK AO2
94908KDBQ DBQ20101117034010311/17/10 03:40:31  5-MIN KDBQ 170940Z AUTO 30010KT 6SM BR OVC022 03/02 A2983 1160 92 100 300/10 RMK AO2
94908KDBQ DBQ20101117034510311/17/10 03:45:31  5-MIN KDBQ 170945Z AUTO 31009KT 6SM BR OVC022 03/02 A2984 1160 92 100 300/09 RMK AO2
94908KDBQ DBQ20101117035012011/17/10 03:50:31  5-MIN KDBQ 170950Z AUTO 30009KT 6SM BR OVC022 03/02 A2984 1150 92 100 300/09 RMK AO2 SLP111 T00330022
94908KDBQ DBQ20101117035510311/17/10 03:55:31  5-MIN KDBQ 170955Z AUTO 30010KT 6SM BR OVC022 03/02 A2984 1150 92 100 300/10 RMK AO2
94908KDBQ DBQ20101117040010311/17/10 04:00:31  5-MIN KDBQ 171000Z AUTO 29009KT 6SM BR OVC022 03/02 A2984 1150 92 100 290/09 RMK AO2
94908KDBQ DBQ20101117040510311/17/10 04:05:31  5-MIN KDBQ 171005Z AUTO 30010KT 6SM BR OVC024 03/02 A2984 1150 92 100 300/10 RMK AO2
94908KDBQ DBQ20101117041011011/17/10 04:10:31  5-MIN KDBQ 171010Z AUTO 30009KT 6SM BR BKN024 OVC080 03/02 A2985 1150 92 100 300/09 RMK AO2
94908KDBQ DBQ20101117041511711/17/10 04:15:31  5-MIN KDBQ 171015Z AUTO 30009KT 6SM BR FEW007 BKN024 OVC080 03/02 A2985 1150 92 100 300/09 RMK AO2
94908KDBQ DBQ20101117042011511/17/10 04:20:31  5-MIN KDBQ 171020Z AUTO 30008KT 6SM BR FEW007 BKN024 OVC080 03/02 A2985 1150 92 0 300/08 RMK AO2
94908KDBQ DBQ20101117042511511/17/10 04:25:31  5-MIN KDBQ 171025Z AUTO 31009KT 6SM BR FEW007 BKN026 OVC080 03/02 A2985 1150 92 0 310/09 RMK AO2
94908KDBQ DBQ20101117043011511/17/10 04:30:31  5-MIN KDBQ 171030Z AUTO 31008KT 6SM BR FEW007 SCT026 OVC080 03/02 A2985 1150 92 0 310/08 RMK AO2
94908KDBQ DBQ20101117043511511/17/10 04:35:31  5-MIN KDBQ 171035Z AUTO 31009KT 6SM BR FEW007 SCT026 OVC080 03/02 A2985 1150 92 0 310/09 RMK AO2
94908KDBQ DBQ20101117044011511/17/10 04:40:31  5-MIN KDBQ 171040Z AUTO 31009KT 6SM BR SCT007 SCT025 OVC080 03/02 A2985 1140 92 0 310/09 RMK AO2
94908KDBQ DBQ20101117044511511/17/10 04:45:31  5-MIN KDBQ 171045Z AUTO 30010KT 6SM BR SCT007 BKN025 OVC080 03/02 A2985 1140 92 0 300/10 RMK AO2
94908KDBQ DBQ20101117045011511/17/10 04:50:31  5-MIN KDBQ 171050Z AUTO 31009KT 6SM BR BKN007 BKN025 OVC080 03/03 A2986 1140 96 0 300/09 RMK AO2
94908KDBQ DBQ20101117045510811/17/10 04:55:31  5-MIN KDBQ 171055Z AUTO 31008KT 5SM BR BKN007 OVC080 03/03 A2986 1130 96 0 310/08 RMK AO2
94908KDBQ DBQ20101117050010811/17/10 05:00:31  5-MIN KDBQ 171100Z AUTO 31006KT 5SM BR BKN007 OVC075 03/03 A2987 1130 96 0 310/06 RMK AO2
94908KDBQ DBQ20101117050510111/17/10 05:05:31  5-MIN KDBQ 171105Z AUTO 31008KT 5SM BR OVC005 03/03 A2987 1130 96 0 310/08 RMK AO2
94908KDBQ DBQ20101117051010111/17/10 05:10:31  5-MIN KDBQ 171110Z AUTO 31008KT 5SM BR OVC005 03/03 A2987 1120 96 0 310/08 RMK AO2
94908KDBQ DBQ20101117051510111/17/10 05:15:31  5-MIN KDBQ 171115Z AUTO 31007KT 5SM BR OVC005 03/03 A2987 1120 96 0 310/07 RMK AO2
94908KDBQ DBQ20101117052010111/17/10 05:20:31  5-MIN KDBQ 171120Z AUTO 31007KT 5SM BR OVC005 03/03 A2987 1120 96 0 310/07 RMK AO2
94908KDBQ DBQ20101117052510111/17/10 05:25:31  5-MIN KDBQ 171125Z AUTO 31006KT 5SM BR OVC005 03/03 A2987 1120 96 0 310/06 RMK AO2
94908KDBQ DBQ20101117053010311/17/10 05:30:31  5-MIN KDBQ 171130Z AUTO 32005KT 4SM BR OVC005 04/03 A2988 1120 92 100 320/05 RMK AO2
94908KDBQ DBQ20101117053510111/17/10 05:35:31  5-MIN KDBQ 171135Z AUTO 32006KT 4SM BR OVC005 03/03 A2988 1110 96 0 320/06 RMK AO2
94908KDBQ DBQ20101117054010311/17/10 05:40:31  5-MIN KDBQ 171140Z AUTO 33006KT 4SM BR OVC005 04/03 A2989 1110 92 100 320/06 RMK AO2
94908KDBQ DBQ20101117054510311/17/10 05:45:31  5-MIN KDBQ 171145Z AUTO 31005KT 4SM BR OVC005 04/03 A2989 1110 92 100 310/05 RMK AO2
94908KDBQ DBQ20101117055013311/17/10 05:50:31  5-MIN KDBQ 171150Z 31008KT 4SM BR OVC005 04/03 A2989 1110 92 100 310/08 RMK AO2 SLP131 T00390028 10039 20017 53024
94908KDBQ DBQ20101117055509811/17/10 05:55:31  5-MIN KDBQ 171155Z 31006KT 4SM BR OVC005 04/03 A2990 1100 92 100 310/06 RMK AO2
94908KDBQ DBQ20101117060011011/17/10 06:00:31  5-MIN KDBQ 171200Z 31006KT 4SM BR OVC005 04/03 A2990 1100 92 100 310/06 RMK AO2 CIG 004V008
94908KDBQ DBQ20101117060511711/17/10 06:05:31  5-MIN KDBQ 171205Z 31007KT 4SM BR BKN005 OVC010 04/03 A2990 1090 92 100 310/07 RMK AO2 CIG 004V008
94908KDBQ DBQ20101117061011011/17/10 06:10:31  5-MIN KDBQ 171210Z 31008KT 4SM BR OVC008 04/03 A2990 1090 92 100 310/08 RMK AO2 CIG 004V012
94908KDBQ DBQ20101117061511011/17/10 06:15:31  5-MIN KDBQ 171215Z 32008KT 5SM BR OVC008 04/02 A2990 1090 89 100 320/08 RMK AO2 CIG 004V012
94908KDBQ DBQ20101117062011011/17/10 06:20:31  5-MIN KDBQ 171220Z 31008KT 5SM BR OVC008 04/02 A2990 1090 89 100 310/08 RMK AO2 CIG 004V013
94908KDBQ DBQ20101117062509611/17/10 06:25:31  5-MIN KDBQ 171225Z 31007KT 5SM BR OVC005 04/02 A2991 1090 89 0 310/07 RMK AO2
94908KDBQ DBQ20101117063009611/17/10 06:30:31  5-MIN KDBQ 171230Z 31008KT 5SM BR OVC005 04/02 A2991 1090 89 0 310/08 RMK AO2
94908KDBQ DBQ20101117063509611/17/10 06:35:31  5-MIN KDBQ 171235Z 33010KT 5SM BR OVC005 04/02 A2991 1080 89 0 330/10 RMK AO2
94908KDBQ DBQ20101117064009611/17/10 06:40:31  5-MIN KDBQ 171240Z 32008KT 5SM BR OVC005 04/02 A2992 1080 89 0 320/08 RMK AO2
94908KDBQ DBQ20101117064510811/17/10 06:45:31  5-MIN KDBQ 171245Z 32010KT 6SM BR OVC009 04/02 A2992 1080 89 0 320/10 RMK AO2 CIG 007V013
94908KDBQ DBQ20101117065011311/17/10 06:50:31  5-MIN KDBQ 171250Z 32007KT 6SM BR OVC009 04/02 A2992 1070 89 0 320/07 RMK AO2 SLP142 T00390022
94908KDBQ DBQ20101117065509611/17/10 06:55:31  5-MIN KDBQ 171255Z 31010KT 6SM BR OVC009 04/02 A2993 1070 89 0 310/10 RMK AO2
94908KDBQ DBQ20101117070009611/17/10 07:00:31  5-MIN KDBQ 171300Z 32007KT 6SM BR OVC009 04/02 A2993 1070 89 0 320/07 RMK AO2
94908KDBQ DBQ20101117070509611/17/10 07:05:31  5-MIN KDBQ 171305Z 30007KT 6SM BR OVC009 04/02 A2994 1060 89 0 300/07 RMK AO2
94908KDBQ DBQ20101117071009611/17/10 07:10:31  5-MIN KDBQ 171310Z 31008KT 5SM BR OVC009 04/02 A2994 1060 89 0 310/08 RMK AO2
94908KDBQ DBQ20101117071509611/17/10 07:15:31  5-MIN KDBQ 171315Z 30007KT 4SM BR OVC009 04/02 A2994 1060 89 0 300/07 RMK AO2
94908KDBQ DBQ20101117072009611/17/10 07:20:31  5-MIN KDBQ 171320Z 31006KT 5SM BR OVC009 04/02 A2995 1050 89 0 310/06 RMK AO2
94908KDBQ DBQ20101117072509611/17/10 07:25:31  5-MIN KDBQ 171325Z 32008KT 5SM BR OVC009 04/02 A2995 1050 89 0 320/08 RMK AO2
94908KDBQ DBQ20101117073009611/17/10 07:30:31  5-MIN KDBQ 171330Z 31008KT 4SM BR OVC009 04/02 A2995 1050 89 0 310/08 RMK AO2
94908KDBQ DBQ20101117073509611/17/10 07:35:31  5-MIN KDBQ 171335Z 32008KT 4SM BR OVC009 04/02 A2996 1040 89 0 320/08 RMK AO2
94908KDBQ DBQ20101117074009611/17/10 07:40:31  5-MIN KDBQ 171340Z 32009KT 4SM BR OVC009 04/02 A2996 1040 89 0 320/09 RMK AO2
94908KDBQ DBQ20101117074509611/17/10 07:45:31  5-MIN KDBQ 171345Z 33008KT 4SM BR OVC009 04/02 A2996 1040 89 0 320/08 RMK AO2
94908KDBQ DBQ20101117075011311/17/10 07:50:31  5-MIN KDBQ 171350Z 32008KT 4SM BR OVC009 04/02 A2997 1040 89 0 320/08 RMK AO2 SLP156 T00390022
94908KDBQ DBQ20101117075509611/17/10 07:55:31  5-MIN KDBQ 171355Z 32010KT 4SM BR OVC009 04/02 A2997 1030 89 0 320/10 RMK AO2
94908KDBQ DBQ20101117080009611/17/10 08:00:31  5-MIN KDBQ 171400Z 34009KT 4SM BR OVC009 04/02 A2997 1030 89 0 340/09 RMK AO2
94908KDBQ DBQ20101117080510311/17/10 08:05:31  5-MIN KDBQ 171405Z 33010KT 4SM BR BKN009 OVC024 04/02 A2997 1030 89 0 330/10 RMK AO2
94908KDBQ DBQ20101117081010311/17/10 08:10:31  5-MIN KDBQ 171410Z 32009KT 4SM BR BKN009 OVC024 04/02 A2998 1020 89 0 320/09 RMK AO2
94908KDBQ DBQ20101117081510311/17/10 08:15:31  5-MIN KDBQ 171415Z 32008KT 4SM BR BKN009 OVC024 04/02 A2998 1020 89 0 320/08 RMK AO2
94908KDBQ DBQ20101117082010311/17/10 08:20:31  5-MIN KDBQ 171420Z 31009KT 4SM BR BKN009 OVC024 04/02 A2998 1020 89 0 310/09 RMK AO2
94908KDBQ DBQ20101117082510611/17/10 08:25:31  5-MIN KDBQ 171425Z 30007KT 4SM BR BKN009 OVC024 03/02 A2999 1010 92 -100 300/07 RMK AO2
94908KDBQ DBQ20101117083012511/17/10 08:30:31  5-MIN KDBQ 171430Z 29008G21KT 270V330 4SM BR BKN009 OVC024 04/02 A2999 1010 89 0 290/08G21 270V330 RMK AO2
94908KDBQ DBQ20101117083512511/17/10 08:35:31  5-MIN KDBQ 171435Z 30011G23KT 260V320 4SM BR BKN009 OVC024 04/02 A3000 1010 89 0 300/11G23 260V320 RMK AO2
94908KDBQ DBQ20101117084014311/17/10 08:40:31  5-MIN KDBQ 171440Z 32018G32KT 250V010 4SM BR BKN009 OVC024 04/02 A3000 1000 89 0 320/18G32 250V010 RMK AO2 PK WND 01032/1440
94908KDBQ DBQ20101117084509311/17/10 08:45:31  5-MIN KDBQ 171445Z 4SM BR BKN009 OVC026 04/02 A3000 1000 85 0 M /M RMK AO2
94908KDBQ DBQ20101117085012811/17/10 08:50:31  5-MIN KDBQ 171450Z 32006KT 4SM BR BKN009 OVC028 04/02 A3001 1000 85 0 320/06 RMK AO2 SLP170 T00390017 53023 $
94908KDBQ DBQ20101117085509511/17/10 08:55:31  5-MIN KDBQ 171455Z 4SM BR BKN009 OVC028 04/02 A3001 1000 85 0 M /M RMK AO2 $
94908KDBQ DBQ20101117090011011/17/10 09:00:31  5-MIN KDBQ 171500Z 32009G16KT 4SM BR BKN009 OVC028 04/02 A3001 990 85 0 320/09G16 RMK AO2 $
94908KDBQ DBQ20101117090510311/17/10 09:05:31  5-MIN KDBQ 171505Z 32009G16KT 5SM BR OVC009 04/02 A3002 990 85 0 320/09G16 RMK AO2 $
94908KDBQ DBQ20101117091010311/17/10 09:10:31  5-MIN KDBQ 171510Z 32009G16KT 5SM BR OVC009 04/02 A3002 990 85 0 320/09G16 RMK AO2 $
94908KDBQ DBQ20101117091510311/17/10 09:15:31  5-MIN KDBQ 171515Z 32009G16KT 5SM BR OVC009 04/02 A3002 990 85 0 320/09G16 RMK AO2 $
94908KDBQ DBQ20101117092010311/17/10 09:20:31  5-MIN KDBQ 171520Z 32009G16KT 5SM BR OVC009 04/02 A3002 980 85 0 320/09G16 RMK AO2 $
94908KDBQ DBQ20101117092510311/17/10 09:25:31  5-MIN KDBQ 171525Z 32009G16KT 5SM BR OVC009 04/02 A3003 980 85 0 320/09G16 RMK AO2 $
94908KDBQ DBQ20101117093010611/17/10 09:30:31  5-MIN KDBQ 171530Z 32009G16KT 5SM BR OVC009 03/02 A3003 980 89 -100 320/09G16 RMK AO2 $
94908KDBQ DBQ20101117093510011/17/10 09:35:31  5-MIN KDBQ 171535Z 33010KT 5SM BR OVC009 03/02 A3003 980 89 -100 330/10 RMK AO2 $
94908KDBQ DBQ20101117094009711/17/10 09:40:31  5-MIN KDBQ 171540Z 33006KT 5SM BR OVC009 04/02 A3003 980 85 0 330/06 RMK AO2 $
94908KDBQ DBQ20101117094509711/17/10 09:45:31  5-MIN KDBQ 171545Z 32008KT 5SM BR OVC009 04/02 A3003 980 85 0 320/08 RMK AO2 $
94908KDBQ DBQ20101117095011711/17/10 09:50:31  5-MIN KDBQ 171550Z 32010KT 5SM BR OVC009 03/02 A3004 970 89 -100 320/10 RMK AO2 SLP180 T00330017 $
94908KDBQ DBQ20101117095510011/17/10 09:55:31  5-MIN KDBQ 171555Z 31009KT 5SM BR OVC009 03/02 A3004 970 89 -100 310/09 RMK AO2 $
94908KDBQ DBQ20101117100010011/17/10 10:00:31  5-MIN KDBQ 171600Z 31011KT 5SM BR OVC009 03/02 A3004 960 89 -100 310/11 RMK AO2 $
94908KDBQ DBQ20101117100510011/17/10 10:05:31  5-MIN KDBQ 171605Z 31010KT 5SM BR OVC009 03/02 A3005 960 89 -100 310/10 RMK AO2 $
94908KDBQ DBQ20101117101010011/17/10 10:10:31  5-MIN KDBQ 171610Z 30010KT 5SM BR OVC009 03/02 A3005 960 89 -100 300/10 RMK AO2 $
94908KDBQ DBQ20101117101510011/17/10 10:15:31  5-MIN KDBQ 171615Z 30010KT 5SM BR OVC009 03/01 A3006 950 85 -100 300/10 RMK AO2 $
94908KDBQ DBQ20101117102010011/17/10 10:20:31  5-MIN KDBQ 171620Z 29011KT 5SM BR OVC009 03/01 A3006 950 85 -100 290/11 RMK AO2 $
94908KDBQ DBQ20101117102510011/17/10 10:25:31  5-MIN KDBQ 171625Z 31007KT 5SM BR OVC009 03/01 A3006 950 85 -100 310/07 RMK AO2 $
94908KDBQ DBQ20101117103010011/17/10 10:30:31  5-MIN KDBQ 171630Z 30008KT 5SM BR OVC009 03/02 A3006 950 89 -100 300/08 RMK AO2 $
94908KDBQ DBQ20101117103510011/17/10 10:35:31  5-MIN KDBQ 171635Z 30009KT 5SM BR OVC009 03/01 A3006 950 85 -100 300/09 RMK AO2 $
94908KDBQ DBQ20101117104010011/17/10 10:40:31  5-MIN KDBQ 171640Z 30009KT 5SM BR OVC009 03/01 A3006 940 85 -200 300/09 RMK AO2 $
94908KDBQ DBQ20101117104510011/17/10 10:45:31  5-MIN KDBQ 171645Z 31007KT 5SM BR OVC009 03/01 A3007 940 85 -200 310/07 RMK AO2 $
94908KDBQ DBQ20101117105011711/17/10 10:50:31  5-MIN KDBQ 171650Z 31005KT 5SM BR OVC009 03/01 A3007 940 85 -200 310/05 RMK AO2 SLP191 T00330011 $
94908KDBQ DBQ20101117105510011/17/10 10:55:31  5-MIN KDBQ 171655Z 33010KT 5SM BR OVC009 03/01 A3007 940 85 -200 320/10 RMK AO2 $
94908KDBQ DBQ20101117110010011/17/10 11:00:31  5-MIN KDBQ 171700Z 32008KT 5SM BR OVC009 03/01 A3007 940 85 -200 320/08 RMK AO2 $
94908KDBQ DBQ20101117110510011/17/10 11:05:31  5-MIN KDBQ 171705Z 31009KT 5SM BR OVC009 03/01 A3007 940 85 -200 310/09 RMK AO2 $
94908KDBQ DBQ20101117111010011/17/10 11:10:31  5-MIN KDBQ 171710Z 31010KT 5SM BR OVC009 03/01 A3007 940 85 -200 310/10 RMK AO2 $
94908KDBQ DBQ20101117111510011/17/10 11:15:31  5-MIN KDBQ 171715Z 31008KT 5SM BR OVC009 03/01 A3008 940 85 -200 310/08 RMK AO2 $
94908KDBQ DBQ20101117112010011/17/10 11:20:31  5-MIN KDBQ 171720Z 31009KT 5SM BR OVC009 03/01 A3008 940 85 -200 310/09 RMK AO2 $
94908KDBQ DBQ20101117112510011/17/10 11:25:31  5-MIN KDBQ 171725Z 32010KT 5SM BR OVC009 03/01 A3008 930 85 -200 320/10 RMK AO2 $
94908KDBQ DBQ20101117113010011/17/10 11:30:31  5-MIN KDBQ 171730Z 32011KT 5SM BR OVC009 03/01 A3007 940 85 -200 320/11 RMK AO2 $
94908KDBQ DBQ20101117113510011/17/10 11:35:31  5-MIN KDBQ 171735Z 33010KT 5SM BR OVC009 03/01 A3007 940 85 -200 330/10 RMK AO2 $
94908KDBQ DBQ20101117114010011/17/10 11:40:31  5-MIN KDBQ 171740Z 32012KT 6SM BR OVC009 03/01 A3008 930 85 -200 320/12 RMK AO2 $
94908KDBQ DBQ20101117114511911/17/10 11:45:31  5-MIN KDBQ 171745Z 33010KT 6SM HZ BKN009 OVC013 04/01 A3008 930 82 -100 330/10 RMK AO2 CIG 009V012 $
94908KDBQ DBQ20101117115010011/17/10 11:50:31  5-MIN KDBQ 171750Z 34013KT 6SM HZ OVC011 04/01 A3008 940 82 -100 330/13 RMK AO2 $
94908KDBQ DBQ20101117115510011/17/10 11:55:31  5-MIN KDBQ 171755Z 34012KT 6SM HZ OVC011 04/01 A3008 940 82 -100 330/12 RMK AO2 $
94908KDBQ DBQ20101117120010011/17/10 12:00:31  5-MIN KDBQ 171800Z 34011KT 6SM HZ OVC011 04/01 A3007 940 82 -100 340/11 RMK AO2 $
94908KDBQ DBQ20101117120510011/17/10 12:05:31  5-MIN KDBQ 171805Z 32010KT 6SM HZ OVC011 04/01 A3008 940 82 -100 320/10 RMK AO2 $
94908KDBQ DBQ20101117121010011/17/10 12:10:31  5-MIN KDBQ 171810Z 34012KT 6SM HZ OVC011 04/01 A3008 930 82 -100 340/12 RMK AO2 $
94908KDBQ DBQ20101117121510011/17/10 12:15:31  5-MIN KDBQ 171815Z 34012KT 6SM HZ OVC011 04/01 A3008 940 82 -100 340/12 RMK AO2 $
94908KDBQ DBQ20101117122010011/17/10 12:20:31  5-MIN KDBQ 171820Z 34014KT 6SM HZ OVC011 04/01 A3008 930 82 -100 340/14 RMK AO2 $
94908KDBQ DBQ20101117122510011/17/10 12:25:31  5-MIN KDBQ 171825Z 34014KT 6SM HZ OVC011 04/01 A3008 930 82 -100 330/14 RMK AO2 $
94908KDBQ DBQ20101117123010011/17/10 12:30:31  5-MIN KDBQ 171830Z 35010KT 5SM HZ OVC011 04/01 A3008 930 82 -100 350/10 RMK AO2 $
94908KDBQ DBQ20101117123510011/17/10 12:35:31  5-MIN KDBQ 171835Z 34013KT 5SM HZ OVC011 04/01 A3008 930 82 -100 340/13 RMK AO2 $
94908KDBQ DBQ20101117124010011/17/10 12:40:31  5-MIN KDBQ 171840Z 33013KT 5SM HZ OVC011 04/01 A3008 930 82 -100 330/13 RMK AO2 $
94908KDBQ DBQ20101117124510011/17/10 12:45:31  5-MIN KDBQ 171845Z 35013KT 5SM HZ OVC011 04/01 A3008 930 82 -100 350/13 RMK AO2 $
94908KDBQ DBQ20101117125011711/17/10 12:50:31  5-MIN KDBQ 171850Z 34012KT 5SM HZ OVC011 04/01 A3008 930 82 -100 340/12 RMK AO2 SLP196 T00390011 $
94908KDBQ DBQ20101117125510011/17/10 12:55:31  5-MIN KDBQ 171855Z 35012KT 6SM HZ OVC011 04/01 A3008 930 82 -100 350/12 RMK AO2 $
94908KDBQ DBQ20101117130010011/17/10 13:00:31  5-MIN KDBQ 171900Z 35013KT 6SM HZ OVC011 03/01 A3008 930 82 -200 340/13 RMK AO2 $
94908KDBQ DBQ20101117130510011/17/10 13:05:31  5-MIN KDBQ 171905Z 34012KT 5SM HZ OVC011 03/01 A3009 920 82 -200 340/12 RMK AO2 $
94908KDBQ DBQ20101117131010011/17/10 13:10:31  5-MIN KDBQ 171910Z 34013KT 5SM HZ OVC011 03/01 A3009 920 82 -200 340/13 RMK AO2 $
94908KDBQ DBQ20101117131510011/17/10 13:15:31  5-MIN KDBQ 171915Z 34013KT 5SM HZ OVC011 03/01 A3009 920 82 -200 340/13 RMK AO2 $
94908KDBQ DBQ20101117132010011/17/10 13:20:31  5-MIN KDBQ 171920Z 34010KT 5SM HZ OVC011 03/01 A3009 920 82 -200 340/10 RMK AO2 $
94908KDBQ DBQ20101117132510011/17/10 13:25:31  5-MIN KDBQ 171925Z 36012KT 5SM HZ OVC009 03/01 A3009 920 82 -200 350/12 RMK AO2 $
94908KDBQ DBQ20101117133010011/17/10 13:30:31  5-MIN KDBQ 171930Z 35012KT 5SM BR OVC009 03/01 A3008 930 85 -200 350/12 RMK AO2 $
94908KDBQ DBQ20101117133510011/17/10 13:35:31  5-MIN KDBQ 171935Z 35011KT 5SM HZ OVC009 03/01 A3008 930 82 -200 350/11 RMK AO2 $
94908KDBQ DBQ20101117134010011/17/10 13:40:31  5-MIN KDBQ 171940Z 36008KT 5SM BR OVC009 03/01 A3009 930 85 -200 360/08 RMK AO2 $
94908KDBQ DBQ20101117134510011/17/10 13:45:31  5-MIN KDBQ 171945Z 34012KT 5SM HZ OVC009 03/01 A3009 920 82 -200 340/12 RMK AO2 $
94908KDBQ DBQ20101117135011711/17/10 13:50:31  5-MIN KDBQ 171950Z 34011KT 5SM HZ OVC009 03/01 A3009 930 82 -200 340/11 RMK AO2 SLP198 T00330006 $
94908KDBQ DBQ20101117135510011/17/10 13:55:31  5-MIN KDBQ 171955Z 34010KT 6SM HZ OVC009 03/01 A3009 930 82 -200 340/10 RMK AO2 $
94908KDBQ DBQ20101117140010011/17/10 14:00:31  5-MIN KDBQ 172000Z 35010KT 6SM HZ OVC009 03/01 A3008 930 82 -200 350/10 RMK AO2 $
94908KDBQ DBQ20101117140510011/17/10 14:05:31  5-MIN KDBQ 172005Z 01010KT 6SM HZ OVC009 03/01 A3008 930 82 -200 010/10 RMK AO2 $
94908KDBQ DBQ20101117141010011/17/10 14:10:31  5-MIN KDBQ 172010Z 34007KT 6SM BR OVC009 03/01 A3008 930 85 -200 340/07 RMK AO2 $
94908KDBQ DBQ20101117141509711/17/10 14:15:31  5-MIN KDBQ 172015Z 35008KT 7SM OVC009 03/01 A3009 930 82 -200 350/08 RMK AO2 $
94908KDBQ DBQ20101117142009711/17/10 14:20:31  5-MIN KDBQ 172020Z 33007KT 7SM OVC009 03/01 A3009 920 85 -200 330/07 RMK AO2 $
94908KDBQ DBQ20101117142509711/17/10 14:25:31  5-MIN KDBQ 172025Z 34008KT 7SM OVC009 03/01 A3009 920 82 -200 330/08 RMK AO2 $
94908KDBQ DBQ20101117143009711/17/10 14:30:31  5-MIN KDBQ 172030Z 32008KT 7SM OVC009 03/01 A3009 920 85 -300 310/08 RMK AO2 $
94908KDBQ DBQ20101117143509711/17/10 14:35:31  5-MIN KDBQ 172035Z 33006KT 7SM OVC009 03/00 A3009 920 82 -300 330/06 RMK AO2 $
94908KDBQ DBQ20101117144009711/17/10 14:40:31  5-MIN KDBQ 172040Z 35004KT 7SM OVC009 03/01 A3009 920 85 -300 350/04 RMK AO2 $
94908KDBQ DBQ20101117144509711/17/10 14:45:31  5-MIN KDBQ 172045Z 36006KT 7SM OVC009 03/00 A3010 920 82 -300 360/06 RMK AO2 $
94908KDBQ DBQ20101117145009711/17/10 14:50:31  5-MIN KDBQ 172050Z 35007KT 7SM OVC011 03/01 A3010 910 85 -300 350/07 RMK AO2 $
94908KDBQ DBQ20101117145509711/17/10 14:55:31  5-MIN KDBQ 172055Z 35007KT 7SM OVC011 03/00 A3010 910 82 -300 350/07 RMK AO2 $
94908KDBQ DBQ20101117150009711/17/10 15:00:31  5-MIN KDBQ 172100Z 35005KT 7SM OVC011 03/01 A3010 910 85 -300 340/05 RMK AO2 $
94908KDBQ DBQ20101117150509711/17/10 15:05:31  5-MIN KDBQ 172105Z 35005KT 7SM OVC011 03/00 A3010 910 79 -200 350/05 RMK AO2 $
94908KDBQ DBQ20101117151009711/17/10 15:10:31  5-MIN KDBQ 172110Z 34006KT 7SM OVC011 03/00 A3010 910 79 -200 340/06 RMK AO2 $
94908KDBQ DBQ20101117151509711/17/10 15:15:31  5-MIN KDBQ 172115Z 34004KT 7SM OVC011 03/00 A3011 910 79 -200 340/04 RMK AO2 $
94908KDBQ DBQ20101117152009711/17/10 15:20:31  5-MIN KDBQ 172120Z 34005KT 7SM OVC011 03/00 A3011 910 79 -200 340/05 RMK AO2 $
94908KDBQ DBQ20101117152509711/17/10 15:25:31  5-MIN KDBQ 172125Z 35006KT 7SM OVC013 03/00 A3011 900 79 -200 350/06 RMK AO2 $
94908KDBQ DBQ20101117153009711/17/10 15:30:31  5-MIN KDBQ 172130Z 34005KT 8SM OVC013 03/00 A3011 900 79 -200 340/05 RMK AO2 $
94908KDBQ DBQ20101117153509711/17/10 15:35:31  5-MIN KDBQ 172135Z 33005KT 8SM OVC013 03/00 A3011 900 79 -200 330/05 RMK AO2 $
94908KDBQ DBQ20101117154009711/17/10 15:40:31  5-MIN KDBQ 172140Z 32005KT 8SM OVC013 03/00 A3012 900 79 -200 320/05 RMK AO2 $
94908KDBQ DBQ20101117154509711/17/10 15:45:31  5-MIN KDBQ 172145Z 31006KT 8SM OVC015 03/00 A3012 900 79 -200 310/06 RMK AO2 $
94908KDBQ DBQ20101117155009711/17/10 15:50:31  5-MIN KDBQ 172150Z 35005KT 8SM OVC015 03/00 A3012 900 79 -200 350/05 RMK AO2 $
94908KDBQ DBQ20101117155509711/17/10 15:55:31  5-MIN KDBQ 172155Z 33004KT 8SM OVC015 03/00 A3012 890 79 -200 330/04 RMK AO2 $
94908KDBQ DBQ20101117160009811/17/10 16:00:31  5-MIN KDBQ 172200Z 33004KT 8SM OVC017 03/M01 A3012 890 76 -200 330/04 RMK AO2 $
94908KDBQ DBQ20101117160509811/17/10 16:05:31  5-MIN KDBQ 172205Z 33006KT 8SM BKN017 03/M01 A3012 890 76 -200 330/06 RMK AO2 $
94908KDBQ DBQ20101117161009811/17/10 16:10:31  5-MIN KDBQ 172210Z 34005KT 7SM BKN017 03/M01 A3013 890 79 -300 330/05 RMK AO2 $
94908KDBQ DBQ20101117161509611/17/10 16:15:31  5-MIN KDBQ 172215Z 34004KT 7SM SCT017 03/M01 A3012 890 79 -300 340/04 RMK AO2
94908KDBQ DBQ20101117162009611/17/10 16:20:31  5-MIN KDBQ 172220Z 34005KT 7SM FEW017 02/M01 A3012 890 82 -400 340/05 RMK AO2
94908KDBQ DBQ20101117162509611/17/10 16:25:31  5-MIN KDBQ 172225Z 35003KT 7SM FEW019 02/M01 A3012 890 82 -400 350/03 RMK AO2
94908KDBQ DBQ20101117163009311/17/10 16:30:31  5-MIN KDBQ 172230Z 35004KT 7SM CLR 02/M01 A3013 890 82 -400 350/04 RMK AO2
94908KDBQ DBQ20101117163509311/17/10 16:35:31  5-MIN KDBQ 172235Z 36004KT 7SM CLR 02/M01 A3012 890 82 -400 360/04 RMK AO2
94908KDBQ DBQ20101117164009311/17/10 16:40:31  5-MIN KDBQ 172240Z 36004KT 7SM CLR 02/M01 A3012 890 82 -400 360/04 RMK AO2
94908KDBQ DBQ20101117164509311/17/10 16:45:31  5-MIN KDBQ 172245Z 36003KT 7SM CLR 02/M01 A3013 890 82 -400 360/03 RMK AO2
94908KDBQ DBQ20101117165011011/17/10 16:50:31  5-MIN KDBQ 172250Z 34003KT 7SM CLR 02/M01 A3013 890 78 -400 330/03 RMK AO2 SLP212 T00221011
94908KDBQ DBQ20101117165509311/17/10 16:55:31  5-MIN KDBQ 172255Z 00000KT 8SM CLR 02/M01 A3013 890 78 -400 000/00 RMK AO2
94908KDBQ DBQ20101117170009311/17/10 17:00:31  5-MIN KDBQ 172300Z 00000KT 8SM CLR 02/M01 A3013 890 82 -400 000/00 RMK AO2
94908KDBQ DBQ20101117170509311/17/10 17:05:31  5-MIN KDBQ 172305Z 00000KT 8SM CLR 01/M01 A3013 880 85 -500 000/00 RMK AO2
94908KDBQ DBQ20101117171009311/17/10 17:10:31  5-MIN KDBQ 172310Z 00000KT 8SM CLR 01/M01 A3013 880 85 -500 000/00 RMK AO2
94908KDBQ DBQ20101117171509311/17/10 17:15:31  5-MIN KDBQ 172315Z 00000KT 8SM CLR 01/M01 A3013 880 85 -500 000/00 RMK AO2
94908KDBQ DBQ20101117172009311/17/10 17:20:31  5-MIN KDBQ 172320Z 00000KT 8SM CLR 01/M01 A3013 880 89 -600 000/00 RMK AO2
94908KDBQ DBQ20101117172509411/17/10 17:25:31  5-MIN KDBQ 172325Z 00000KT 7SM CLR M01/M02 A3013 880 92 -700 000/00 RMK AO2
94908KDBQ DBQ20101117173009311/17/10 17:30:31  5-MIN KDBQ 172330Z 00000KT 7SM CLR 00/M02 A3014 880 85 -600 000/00 RMK AO2
94908KDBQ DBQ20101117173509311/17/10 17:35:31  5-MIN KDBQ 172335Z 00000KT 7SM CLR 00/M02 A3014 880 85 -700 000/00 RMK AO2
94908KDBQ DBQ20101117174009311/17/10 17:40:31  5-MIN KDBQ 172340Z 28003KT 7SM CLR 00/M02 A3015 870 85 -700 280/03 RMK AO2
94908KDBQ DBQ20101117174509711/17/10 17:45:31  5-MIN KDBQ 172345Z 27003KT 7SM FEW025 M01/M02 A3015 870 88 -700 270/03 RMK AO2
94908KDBQ DBQ20101117175013511/17/10 17:50:31  5-MIN KDBQ 172350Z 26003KT 6SM BR FEW025 M01/M02 A3015 870 88 -700 260/03 RMK AO2 SLP221 T10061022 10039 21006 51006
94908KDBQ DBQ20101117175509711/17/10 17:55:31  5-MIN KDBQ 172355Z 00000KT 6SM BR CLR M01/M02 A3015 860 92 -800 000/00 RMK AO2
94908KDBQ DBQ20101117180009711/17/10 18:00:31  5-MIN KDBQ 180000Z 00000KT 6SM BR CLR M01/M03 A3016 860 88 -800 000/00 RMK AO2
94908KDBQ DBQ20101117180509711/17/10 18:05:31  5-MIN KDBQ 180005Z 30003KT 6SM BR CLR M01/M03 A3016 860 88 -800 300/03 RMK AO2
94908KDBQ DBQ20101117181009411/17/10 18:10:31  5-MIN KDBQ 180010Z 30005KT 7SM CLR M01/M03 A3016 860 88 -800 300/05 RMK AO2
94908KDBQ DBQ20101117181509411/17/10 18:15:31  5-MIN KDBQ 180015Z 30004KT 7SM CLR M01/M02 A3016 860 92 -800 300/04 RMK AO2
94908KDBQ DBQ20101117182009411/17/10 18:20:31  5-MIN KDBQ 180020Z 30004KT 7SM CLR M01/M02 A3016 860 88 -700 300/04 RMK AO2
94908KDBQ DBQ20101117182509611/17/10 18:25:31  5-MIN KDBQ 180025Z 29004KT 6SM BR CLR 00/M02 A3016 850 85 -700 290/04 RMK AO2
94908KDBQ DBQ20101117183009711/17/10 18:30:31  5-MIN KDBQ 180030Z 28005KT 6SM BR CLR M01/M02 A3016 850 88 -700 280/05 RMK AO2
94908KDBQ DBQ20101117183509411/17/10 18:35:31  5-MIN KDBQ 180035Z 28005KT 7SM CLR M01/M02 A3016 860 88 -700 280/05 RMK AO2
94908KDBQ DBQ20101117184009411/17/10 18:40:31  5-MIN KDBQ 180040Z 29005KT 7SM CLR M01/M02 A3016 850 88 -700 290/05 RMK AO2
94908KDBQ DBQ20101117184509411/17/10 18:45:31  5-MIN KDBQ 180045Z 30005KT 8SM CLR M01/M03 A3017 850 88 -800 300/05 RMK AO2
94908KDBQ DBQ20101117185011111/17/10 18:50:31  5-MIN KDBQ 180050Z VRB04KT 8SM CLR M01/M03 A3017 850 85 -800 VRB/04 RMK AO2 SLP227 T10061028
94908KDBQ DBQ20101117185509411/17/10 18:55:31  5-MIN KDBQ 180055Z 31004KT 8SM CLR M01/M02 A3017 850 88 -800 310/04 RMK AO2
94908KDBQ DBQ20101117190009711/17/10 19:00:31  5-MIN KDBQ 180100Z 32005KT 8SM FEW029 M01/M03 A3017 840 88 -800 320/05 RMK AO2
94908KDBQ DBQ20101117190509611/17/10 19:05:31  5-MIN KDBQ 180105Z 33006KT 9SM SCT029 00/M02 A3018 840 85 -700 330/06 RMK AO2
94908KDBQ DBQ20101117191009611/17/10 19:10:31  5-MIN KDBQ 180110Z 33006KT 9SM SCT029 00/M02 A3018 840 85 -700 330/06 RMK AO2
94908KDBQ DBQ20101117191509611/17/10 19:15:31  5-MIN KDBQ 180115Z 33006KT 9SM SCT029 00/M02 A3018 840 85 -700 330/06 RMK AO2
94908KDBQ DBQ20101117192009711/17/10 19:20:31  5-MIN KDBQ 180120Z 35005KT 9SM SCT029 M01/M02 A3018 840 88 -800 340/05 RMK AO2
94908KDBQ DBQ20101117192509611/17/10 19:25:31  5-MIN KDBQ 180125Z 35005KT 9SM SCT029 00/M02 A3018 840 85 -700 350/05 RMK AO2
94908KDBQ DBQ20101117193009611/17/10 19:30:31  5-MIN KDBQ 180130Z 35005KT 9SM FEW029 00/M02 A3018 840 85 -700 350/05 RMK AO2
94908KDBQ DBQ20101117193509611/17/10 19:35:31  5-MIN KDBQ 180135Z 35006KT 9SM FEW029 00/M02 A3018 840 85 -700 350/06 RMK AO2
94908KDBQ DBQ20101117194009311/17/10 19:40:31  5-MIN KDBQ 180140Z 35004KT 9SM CLR 00/M02 A3018 840 85 -700 340/04 RMK AO2
94908KDBQ DBQ20101117194509311/17/10 19:45:31  5-MIN KDBQ 180145Z 35004KT 9SM CLR 00/M02 A3018 840 85 -700 350/04 RMK AO2
94908KDBQ DBQ20101117195011011/17/10 19:50:31  5-MIN KDBQ 180150Z 34003KT 9SM CLR 00/M02 A3019 830 85 -700 340/03 RMK AO2 SLP233 T00001022
94908KDBQ DBQ20101117195509311/17/10 19:55:31  5-MIN KDBQ 180155Z 00000KT 9SM CLR 00/M03 A3019 830 81 -700 000/00 RMK AO2
94908KDBQ DBQ20101117200009811/17/10 20:00:31  5-MIN KDBQ 180200Z AUTO 00000KT 9SM CLR 00/M03 A3019 830 81 -700 000/00 RMK AO2
94908KDBQ DBQ20101117200509811/17/10 20:05:31  5-MIN KDBQ 180205Z AUTO 01003KT 9SM CLR 01/M02 A3019 830 82 -600 010/03 RMK AO2
94908KDBQ DBQ20101117201009811/17/10 20:10:31  5-MIN KDBQ 180210Z AUTO 00000KT 9SM CLR 00/M03 A3019 830 81 -700 000/00 RMK AO2
94908KDBQ DBQ20101117201510011/17/10 20:15:31  5-MIN KDBQ 180215Z AUTO 00000KT 10SM CLR M01/M03 A3019 830 85 -800 000/00 RMK AO2
94908KDBQ DBQ20101117202010011/17/10 20:20:31  5-MIN KDBQ 180220Z AUTO 00000KT 9SM CLR M02/M04 A3019 830 88 -1000 000/00 RMK AO2
94908KDBQ DBQ20101117202510011/17/10 20:25:31  5-MIN KDBQ 180225Z AUTO 00000KT 8SM CLR M02/M04 A3019 830 88 -1000 000/00 RMK AO2
94908KDBQ DBQ20101117203010011/17/10 20:30:31  5-MIN KDBQ 180230Z AUTO 00000KT 8SM CLR M03/M04 A3019 830 88 -1100 000/00 RMK AO2
94908KDBQ DBQ20101117203509911/17/10 20:35:31  5-MIN KDBQ 180235Z AUTO 00000KT 8SM CLR M02/M04 A3019 830 85 -900 000/00 RMK AO2
94908KDBQ DBQ20101117204010011/17/10 20:40:31  5-MIN KDBQ 180240Z AUTO 00000KT 8SM CLR M02/M03 A3019 830 92 -1000 000/00 RMK AO2
94908KDBQ DBQ20101117204510011/17/10 20:45:31  5-MIN KDBQ 180245Z AUTO 34003KT 8SM CLR M03/M04 A3019 830 92 -1100 340/03 RMK AO2
94908KDBQ DBQ20101117205012311/17/10 20:50:31  5-MIN KDBQ 180250Z AUTO 00000KT 8SM CLR M02/M04 A3019 830 88 -1000 000/00 RMK AO2 SLP234 T10221039 53010
94908KDBQ DBQ20101117205510011/17/10 20:55:31  5-MIN KDBQ 180255Z AUTO 00000KT 8SM CLR M03/M04 A3019 830 92 -1100 000/00 RMK AO2
94908KDBQ DBQ20101117210010011/17/10 21:00:31  5-MIN KDBQ 180300Z AUTO 00000KT 7SM CLR M03/M04 A3019 830 92 -1100 000/00 RMK AO2
94908KDBQ DBQ20101117210510011/17/10 21:05:31  5-MIN KDBQ 180305Z AUTO 00000KT 7SM CLR M03/M05 A3020 820 88 -1100 000/00 RMK AO2
94908KDBQ DBQ20101117211010011/17/10 21:10:31  5-MIN KDBQ 180310Z AUTO 00000KT 7SM CLR M03/M05 A3020 820 88 -1100 000/00 RMK AO2
94908KDBQ DBQ20101117211510011/17/10 21:15:31  5-MIN KDBQ 180315Z AUTO 33003KT 8SM CLR M02/M04 A3020 820 85 -1000 330/03 RMK AO2
94908KDBQ DBQ20101117212010011/17/10 21:20:31  5-MIN KDBQ 180320Z AUTO 00000KT 9SM CLR M02/M04 A3020 820 88 -1000 000/00 RMK AO2
94908KDBQ DBQ20101117212510011/17/10 21:25:31  5-MIN KDBQ 180325Z AUTO 32005KT 9SM CLR M02/M04 A3020 820 88 -1000 320/05 RMK AO2
94908KDBQ DBQ20101117213009911/17/10 21:30:31  5-MIN KDBQ 180330Z AUTO 33006KT 9SM CLR M02/M04 A3020 820 85 -900 330/06 RMK AO2
94908KDBQ DBQ20101117213510311/17/10 21:35:31  5-MIN KDBQ 180335Z AUTO 31005KT 10SM FEW030 M01/M03 A3020 820 85 -900 310/05 RMK AO2
94908KDBQ DBQ20101117214010311/17/10 21:40:31  5-MIN KDBQ 180340Z AUTO 30005KT 10SM SCT030 M01/M03 A3021 810 85 -900 300/05 RMK AO2
94908KDBQ DBQ20101117214510311/17/10 21:45:31  5-MIN KDBQ 180345Z AUTO 32005KT 10SM FEW030 M01/M03 A3021 810 85 -900 320/05 RMK AO2
94908KDBQ DBQ20101117215012011/17/10 21:50:31  5-MIN KDBQ 180350Z AUTO 33006KT 10SM SCT030 M01/M03 A3021 810 85 -800 330/06 RMK AO2 SLP242 T10061028
94908KDBQ DBQ20101117215510311/17/10 21:55:31  5-MIN KDBQ 180355Z AUTO 32005KT 10SM SCT030 M01/M03 A3022 810 85 -800 320/05 RMK AO2
94908KDBQ DBQ20101117220010311/17/10 22:00:31  5-MIN KDBQ 180400Z AUTO 33008KT 10SM BKN030 M01/M03 A3022 810 85 -800 330/08 RMK AO2
94908KDBQ DBQ20101117220510211/17/10 22:05:31  5-MIN KDBQ 180405Z AUTO 33007KT 10SM BKN030 00/M02 A3022 800 85 -700 330/07 RMK AO2
94908KDBQ DBQ20101117221010211/17/10 22:10:31  5-MIN KDBQ 180410Z AUTO 33006KT 10SM BKN030 00/M02 A3022 800 85 -700 330/06 RMK AO2
94908KDBQ DBQ20101117221510211/17/10 22:15:31  5-MIN KDBQ 180415Z AUTO 33009KT 10SM BKN030 00/M02 A3022 800 85 -700 330/09 RMK AO2
94908KDBQ DBQ20101117222010211/17/10 22:20:31  5-MIN KDBQ 180420Z AUTO 33009KT 10SM OVC030 00/M02 A3022 800 85 -700 330/09 RMK AO2
94908KDBQ DBQ20101117222510211/17/10 22:25:31  5-MIN KDBQ 180425Z AUTO 33007KT 10SM OVC030 00/M02 A3022 800 85 -700 330/07 RMK AO2
94908KDBQ DBQ20101117223010211/17/10 22:30:31  5-MIN KDBQ 180430Z AUTO 33009KT 10SM OVC030 00/M02 A3023 800 85 -800 330/09 RMK AO2
94908KDBQ DBQ20101117223510211/17/10 22:35:31  5-MIN KDBQ 180435Z AUTO 33010KT 10SM OVC030 00/M02 A3022 800 85 -700 330/10 RMK AO2
94908KDBQ DBQ20101117224010211/17/10 22:40:31  5-MIN KDBQ 180440Z AUTO 33010KT 10SM OVC030 00/M02 A3023 800 85 -800 330/10 RMK AO2
94908KDBQ DBQ20101117224510211/17/10 22:45:31  5-MIN KDBQ 180445Z AUTO 33010KT 10SM OVC030 00/M02 A3023 790 85 -800 330/10 RMK AO2
94908KDBQ DBQ20101117225011911/17/10 22:50:31  5-MIN KDBQ 180450Z AUTO 33010KT 10SM OVC030 00/M02 A3023 790 85 -800 330/10 RMK AO2 SLP248 T00001022
94908KDBQ DBQ20101117225510211/17/10 22:55:31  5-MIN KDBQ 180455Z AUTO 33010KT 10SM OVC030 00/M02 A3023 790 85 -800 330/10 RMK AO2
94908KDBQ DBQ20101117230010211/17/10 23:00:31  5-MIN KDBQ 180500Z AUTO 33010KT 10SM OVC030 00/M02 A3023 790 85 -800 330/10 RMK AO2
94908KDBQ DBQ20101117230510211/17/10 23:05:31  5-MIN KDBQ 180505Z AUTO 33010KT 10SM OVC030 00/M02 A3023 790 85 -800 330/10 RMK AO2
94908KDBQ DBQ20101117231010211/17/10 23:10:31  5-MIN KDBQ 180510Z AUTO 33010KT 10SM OVC030 00/M02 A3024 790 85 -800 330/10 RMK AO2
94908KDBQ DBQ20101117231510211/17/10 23:15:31  5-MIN KDBQ 180515Z AUTO 34011KT 10SM OVC030 00/M02 A3024 790 85 -800 330/11 RMK AO2
94908KDBQ DBQ20101117232010211/17/10 23:20:31  5-MIN KDBQ 180520Z AUTO 34012KT 10SM OVC030 00/M02 A3023 790 85 -800 330/12 RMK AO2
94908KDBQ DBQ20101117232510211/17/10 23:25:31  5-MIN KDBQ 180525Z AUTO 33010KT 10SM OVC030 00/M02 A3024 790 85 -800 330/10 RMK AO2
94908KDBQ DBQ20101117233010211/17/10 23:30:31  5-MIN KDBQ 180530Z AUTO 33012KT 10SM OVC030 00/M02 A3024 790 85 -800 330/12 RMK AO2
94908KDBQ DBQ20101117233510211/17/10 23:35:31  5-MIN KDBQ 180535Z AUTO 33010KT 10SM OVC030 00/M02 A3024 780 85 -800 330/10 RMK AO2
94908KDBQ DBQ20101117234010211/17/10 23:40:31  5-MIN KDBQ 180540Z AUTO 33010KT 10SM OVC030 00/M02 A3024 780 85 -800 330/10 RMK AO2
94908KDBQ DBQ20101117234510211/17/10 23:45:31  5-MIN KDBQ 180545Z AUTO 34012KT 10SM OVC030 00/M02 A3024 780 85 -800 330/12 RMK AO2
94908KDBQ DBQ20101117235014711/17/10 23:50:31  5-MIN KDBQ 180550Z AUTO 34010KT 10SM OVC030 00/M02 A3025 780 85 -800 340/10 RMK AO2 SLP253 T00001022 10006 21033 400391033 51013
94908KDBQ DBQ20101117235510211/17/10 23:55:31  5-MIN KDBQ 180555Z AUTO 34008KT 10SM OVC030 00/M02 A3025 780 85 -800 340/08 RMK AO2
94908KDBQ DBQ20101118000010211/18/10 00:00:38  5-MIN KDBQ 180600Z AUTO 34008KT 10SM OVC030 00/M02 A3025 780 85 -800 340/08 RMK AO2
94908KDBQ DBQ20101118000510211/18/10 00:05:31  5-MIN KDBQ 180605Z AUTO 34007KT 10SM OVC030 00/M02 A3025 770 85 -800 340/07 RMK AO2
94908KDBQ DBQ20101118001010211/18/10 00:10:31  5-MIN KDBQ 180610Z AUTO 35008KT 10SM OVC030 00/M02 A3025 770 85 -800 350/08 RMK AO2
94908KDBQ DBQ20101118001510211/18/10 00:15:32  5-MIN KDBQ 180615Z AUTO 35006KT 10SM OVC030 00/M02 A3025 770 85 -800 350/06 RMK AO2
94908KDBQ DBQ20101118002010211/18/10 00:20:31  5-MIN KDBQ 180620Z AUTO 35006KT 10SM OVC030 00/M02 A3025 770 85 -800 350/06 RMK AO2
94908KDBQ DBQ20101118002510211/18/10 00:25:31  5-MIN KDBQ 180625Z AUTO 35008KT 10SM OVC030 00/M02 A3025 770 85 -800 340/08 RMK AO2
94908KDBQ DBQ20101118003010211/18/10 00:30:31  5-MIN KDBQ 180630Z AUTO 35007KT 10SM OVC030 00/M02 A3026 770 85 -800 340/07 RMK AO2
94908KDBQ DBQ20101118003510211/18/10 00:35:31  5-MIN KDBQ 180635Z AUTO 34007KT 10SM OVC030 00/M02 A3025 770 85 -800 340/07 RMK AO2
94908KDBQ DBQ20101118004010211/18/10 00:40:31  5-MIN KDBQ 180640Z AUTO 34007KT 10SM OVC030 00/M02 A3025 770 85 -800 340/07 RMK AO2
94908KDBQ DBQ20101118004510211/18/10 00:45:31  5-MIN KDBQ 180645Z AUTO 34008KT 10SM OVC030 00/M03 A3026 770 81 -800 340/08 RMK AO2
94908KDBQ DBQ20101118005011911/18/10 00:50:31  5-MIN KDBQ 180650Z AUTO 34007KT 10SM OVC030 00/M02 A3025 770 85 -800 340/07 RMK AO2 SLP255 T00001022
94908KDBQ DBQ20101118005510211/18/10 00:55:31  5-MIN KDBQ 180655Z AUTO 34008KT 10SM OVC030 00/M03 A3025 770 81 -800 340/08 RMK AO2
94908KDBQ DBQ20101118010010211/18/10 01:00:31  5-MIN KDBQ 180700Z AUTO 33006KT 10SM OVC030 00/M03 A3025 770 81 -800 330/06 RMK AO2
94908KDBQ DBQ20101118010510211/18/10 01:05:31  5-MIN KDBQ 180705Z AUTO 34007KT 10SM OVC030 00/M03 A3025 770 81 -800 340/07 RMK AO2
94908KDBQ DBQ20101118011010211/18/10 01:10:31  5-MIN KDBQ 180710Z AUTO 35007KT 10SM OVC030 00/M03 A3025 770 81 -800 340/07 RMK AO2
94908KDBQ DBQ20101118011510211/18/10 01:15:31  5-MIN KDBQ 180715Z AUTO 35006KT 10SM OVC030 00/M03 A3025 770 81 -800 350/06 RMK AO2
94908KDBQ DBQ20101118012010211/18/10 01:20:31  5-MIN KDBQ 180720Z AUTO 35006KT 10SM OVC030 00/M03 A3025 770 81 -800 350/06 RMK AO2
94908KDBQ DBQ20101118012510211/18/10 01:25:31  5-MIN KDBQ 180725Z AUTO 35006KT 10SM OVC030 00/M03 A3025 770 81 -800 350/06 RMK AO2
94908KDBQ DBQ20101118013010211/18/10 01:30:31  5-MIN KDBQ 180730Z AUTO 35006KT 10SM OVC030 00/M03 A3025 780 81 -800 350/06 RMK AO2
94908KDBQ DBQ20101118013510211/18/10 01:35:31  5-MIN KDBQ 180735Z AUTO 35006KT 10SM OVC030 00/M03 A3025 780 78 -800 350/06 RMK AO2
94908KDBQ DBQ20101118014010311/18/10 01:40:31  5-MIN KDBQ 180740Z AUTO 35007KT 10SM BKN030 M01/M03 A3025 780 81 -800 350/07 RMK AO2
94908KDBQ DBQ20101118014510311/18/10 01:45:31  5-MIN KDBQ 180745Z AUTO 34006KT 10SM BKN030 M01/M03 A3025 780 85 -900 340/06 RMK AO2
94908KDBQ DBQ20101118015012111/18/10 01:50:31  5-MIN KDBQ 180750Z AUTO 35005KT 10SM BKN030 M02/M04 A3025 780 85 -1000 350/05 RMK AO2 SLP254 T10171039
94908KDBQ DBQ20101118015510411/18/10 01:55:31  5-MIN KDBQ 180755Z AUTO 35005KT 10SM SCT030 M02/M04 A3025 780 85 -1000 340/05 RMK AO2
94908KDBQ DBQ20101118020010411/18/10 02:00:31  5-MIN KDBQ 180800Z AUTO 35005KT 10SM FEW030 M02/M04 A3025 780 85 -1100 340/05 RMK AO2
94908KDBQ DBQ20101118020510411/18/10 02:05:31  5-MIN KDBQ 180805Z AUTO 35005KT 10SM FEW030 M02/M04 A3025 780 85 -1100 340/05 RMK AO2
94908KDBQ DBQ20101118021010411/18/10 02:10:31  5-MIN KDBQ 180810Z AUTO 34005KT 10SM FEW030 M02/M04 A3025 770 81 -1000 340/05 RMK AO2
94908KDBQ DBQ20101118021510111/18/10 02:15:31  5-MIN KDBQ 180815Z AUTO 33006KT 10SM CLR M03/M04 A3025 770 88 -1100 330/06 RMK AO2
94908KDBQ DBQ20101118022010111/18/10 02:20:31  5-MIN KDBQ 180820Z AUTO 33006KT 10SM CLR M03/M04 A3025 770 88 -1100 330/06 RMK AO2
94908KDBQ DBQ20101118022510111/18/10 02:25:31  5-MIN KDBQ 180825Z AUTO 34006KT 10SM CLR M03/M04 A3025 770 88 -1100 340/06 RMK AO2
94908KDBQ DBQ20101118023010111/18/10 02:30:31  5-MIN KDBQ 180830Z AUTO 33006KT 10SM CLR M03/M05 A3026 770 85 -1100 330/06 RMK AO2
94908KDBQ DBQ20101118023510111/18/10 02:35:31  5-MIN KDBQ 180835Z AUTO 32004KT 10SM CLR M03/M05 A3026 770 85 -1100 320/04 RMK AO2
94908KDBQ DBQ20101118024010111/18/10 02:40:31  5-MIN KDBQ 180840Z AUTO 32005KT 10SM CLR M03/M05 A3026 770 85 -1100 320/05 RMK AO2
94908KDBQ DBQ20101118024510411/18/10 02:45:31  5-MIN KDBQ 180845Z AUTO 29005KT 10SM FEW034 M03/M05 A3026 770 85 -1100 290/05 RMK AO2
94908KDBQ DBQ20101118025012711/18/10 02:50:31  5-MIN KDBQ 180850Z AUTO 29005KT 10SM SCT032 M02/M04 A3026 770 85 -1100 290/05 RMK AO2 SLP259 T10221044 51019
94908KDBQ DBQ20101118025510411/18/10 02:55:31  5-MIN KDBQ 180855Z AUTO VRB05KT 10SM FEW032 M03/M04 A3026 770 88 -1100 VRB/05 RMK AO2
94908KDBQ DBQ20101118030010411/18/10 03:00:31  5-MIN KDBQ 180900Z AUTO VRB05KT 10SM SCT032 M03/M05 A3026 770 85 -1100 VRB/05 RMK AO2
94908KDBQ DBQ20101118030510411/18/10 03:05:31  5-MIN KDBQ 180905Z AUTO VRB05KT 10SM BKN030 M02/M04 A3026 770 85 -1100 VRB/05 RMK AO2
94908KDBQ DBQ20101118031010411/18/10 03:10:31  5-MIN KDBQ 180910Z AUTO 29005KT 10SM BKN030 M02/M04 A3026 770 85 -1100 290/05 RMK AO2
94908KDBQ DBQ20101118031510411/18/10 03:15:31  5-MIN KDBQ 180915Z AUTO 29005KT 10SM BKN030 M02/M04 A3026 770 85 -1100 290/05 RMK AO2
94908KDBQ DBQ20101118032010411/18/10 03:20:31  5-MIN KDBQ 180920Z AUTO 28005KT 10SM BKN030 M02/M04 A3026 760 85 -1100 280/05 RMK AO2
94908KDBQ DBQ20101118032510411/18/10 03:25:31  5-MIN KDBQ 180925Z AUTO 29006KT 10SM OVC030 M02/M04 A3027 760 85 -1100 290/06 RMK AO2
94908KDBQ DBQ20101118033010411/18/10 03:30:31  5-MIN KDBQ 180930Z AUTO 29006KT 10SM OVC030 M02/M04 A3027 760 85 -1000 290/06 RMK AO2
94908KDBQ DBQ20101118033510311/18/10 03:35:31  5-MIN KDBQ 180935Z AUTO 27005KT 10SM OVC030 M01/M04 A3027 760 81 -900 270/05 RMK AO2
94908KDBQ DBQ20101118034010311/18/10 03:40:31  5-MIN KDBQ 180940Z AUTO 28005KT 10SM OVC030 M01/M04 A3027 760 81 -900 280/05 RMK AO2
94908KDBQ DBQ20101118034510311/18/10 03:45:31  5-MIN KDBQ 180945Z AUTO 30005KT 10SM OVC030 M01/M04 A3027 760 81 -900 300/05 RMK AO2
94908KDBQ DBQ20101118035012011/18/10 03:50:31  5-MIN KDBQ 180950Z AUTO 29005KT 10SM OVC030 M01/M04 A3027 760 81 -900 290/05 RMK AO2 SLP262 T10111039
94908KDBQ DBQ20101118035510311/18/10 03:55:31  5-MIN KDBQ 180955Z AUTO 30005KT 10SM OVC030 M01/M04 A3027 760 78 -900 300/05 RMK AO2
94908KDBQ DBQ20101118040010311/18/10 04:00:31  5-MIN KDBQ 181000Z AUTO 31004KT 10SM OVC030 M01/M03 A3027 750 81 -900 310/04 RMK AO2
94908KDBQ DBQ20101118040510311/18/10 04:05:31  5-MIN KDBQ 181005Z AUTO 30005KT 10SM OVC030 M01/M04 A3027 750 78 -900 290/05 RMK AO2
94908KDBQ DBQ20101118041010311/18/10 04:10:31  5-MIN KDBQ 181010Z AUTO VRB05KT 10SM OVC030 M01/M04 A3027 760 78 -900 VRB/05 RMK AO2
94908KDBQ DBQ20101118041510311/18/10 04:15:31  5-MIN KDBQ 181015Z AUTO 30005KT 10SM OVC030 M01/M03 A3027 760 81 -900 300/05 RMK AO2
94908KDBQ DBQ20101118042010311/18/10 04:20:31  5-MIN KDBQ 181020Z AUTO 30006KT 10SM OVC030 M01/M03 A3027 760 81 -900 300/06 RMK AO2
94908KDBQ DBQ20101118042510311/18/10 04:25:31  5-MIN KDBQ 181025Z AUTO 29005KT 10SM OVC030 M01/M03 A3027 760 81 -900 290/05 RMK AO2
94908KDBQ DBQ20101118043010311/18/10 04:30:31  5-MIN KDBQ 181030Z AUTO 30006KT 10SM OVC032 M01/M03 A3027 760 81 -900 300/06 RMK AO2
94908KDBQ DBQ20101118043510211/18/10 04:35:31  5-MIN KDBQ 181035Z AUTO VRB05KT 9SM OVC032 M01/M03 A3026 760 81 -900 VRB/05 RMK AO2
94908KDBQ DBQ20101118044010211/18/10 04:40:31  5-MIN KDBQ 181040Z AUTO 28005KT 9SM OVC032 M01/M03 A3026 760 81 -900 280/05 RMK AO2
94908KDBQ DBQ20101118044510211/18/10 04:45:31  5-MIN KDBQ 181045Z AUTO VRB06KT 9SM OVC032 M01/M03 A3027 760 81 -900 VRB/06 RMK AO2
94908KDBQ DBQ20101118045011911/18/10 04:50:31  5-MIN KDBQ 181050Z AUTO 31007KT 9SM OVC032 M01/M03 A3027 750 81 -900 310/07 RMK AO2 SLP263 T10061033
94908KDBQ DBQ20101118045510211/18/10 04:55:31  5-MIN KDBQ 181055Z AUTO 31007KT 9SM OVC032 M01/M03 A3027 750 81 -900 310/07 RMK AO2
94908KDBQ DBQ20101118050010211/18/10 05:00:31  5-MIN KDBQ 181100Z AUTO VRB05KT 9SM OVC030 M01/M03 A3028 750 81 -900 VRB/05 RMK AO2
94908KDBQ DBQ20101118050510211/18/10 05:05:31  5-MIN KDBQ 181105Z AUTO 31008KT 9SM OVC030 M01/M03 A3028 750 85 -900 310/08 RMK AO2
94908KDBQ DBQ20101118051010211/18/10 05:10:31  5-MIN KDBQ 181110Z AUTO 32008KT 10SM OVC030 00/M03 A3028 750 81 -800 320/08 RMK AO2
94908KDBQ DBQ20101118051510211/18/10 05:15:31  5-MIN KDBQ 181115Z AUTO 32008KT 10SM OVC030 00/M03 A3028 740 81 -800 320/08 RMK AO2
94908KDBQ DBQ20101118052010211/18/10 05:20:31  5-MIN KDBQ 181120Z AUTO 33010KT 10SM OVC030 00/M03 A3028 750 81 -800 330/10 RMK AO2
94908KDBQ DBQ20101118052510211/18/10 05:25:31  5-MIN KDBQ 181125Z AUTO 32009KT 10SM OVC028 00/M03 A3028 740 81 -800 320/09 RMK AO2
94908KDBQ DBQ20101118053010211/18/10 05:30:31  5-MIN KDBQ 181130Z AUTO 33008KT 10SM OVC028 00/M03 A3028 740 81 -800 330/08 RMK AO2
94908KDBQ DBQ20101118053510211/18/10 05:35:31  5-MIN KDBQ 181135Z AUTO 32008KT 10SM OVC028 00/M03 A3029 740 81 -800 320/08 RMK AO2
94908KDBQ DBQ20101118054010211/18/10 05:40:31  5-MIN KDBQ 181140Z AUTO VRB05KT 10SM OVC028 00/M03 A3029 740 81 -800 VRB/05 RMK AO2
94908KDBQ DBQ20101118054509711/18/10 05:45:31  5-MIN KDBQ 181145Z 31007KT 10SM OVC028 00/M03 A3029 730 81 -800 310/07 RMK AO2
94908KDBQ DBQ20101118055013211/18/10 05:50:31  5-MIN KDBQ 181150Z 32008KT 10SM OVC028 00/M03 A3029 730 78 -800 320/08 RMK AO2 SLP271 T00001033 10000 21028 53004
94908KDBQ DBQ20101118055509711/18/10 05:55:31  5-MIN KDBQ 181155Z 32009KT 10SM OVC028 00/M03 A3029 730 81 -800 320/09 RMK AO2
94908KDBQ DBQ20101118060009711/18/10 06:00:31  5-MIN KDBQ 181200Z 31008KT 10SM OVC028 00/M03 A3029 740 78 -800 310/08 RMK AO2
94908KDBQ DBQ20101118060509711/18/10 06:05:31  5-MIN KDBQ 181205Z 32008KT 10SM OVC026 00/M03 A3029 740 78 -800 320/08 RMK AO2
94908KDBQ DBQ20101118061009711/18/10 06:10:31  5-MIN KDBQ 181210Z 32007KT 10SM OVC026 00/M03 A3029 740 78 -800 320/07 RMK AO2
94908KDBQ DBQ20101118061509711/18/10 06:15:31  5-MIN KDBQ 181215Z 32007KT 10SM OVC026 00/M03 A3029 740 78 -800 320/07 RMK AO2
94908KDBQ DBQ20101118062009711/18/10 06:20:31  5-MIN KDBQ 181220Z 31005KT 10SM OVC026 00/M03 A3029 740 78 -800 310/05 RMK AO2
94908KDBQ DBQ20101118062509711/18/10 06:25:31  5-MIN KDBQ 181225Z 33006KT 10SM OVC026 00/M03 A3028 740 78 -800 330/06 RMK AO2
94908KDBQ DBQ20101118063009711/18/10 06:30:31  5-MIN KDBQ 181230Z 34007KT 10SM OVC026 00/M03 A3028 740 78 -800 340/07 RMK AO2
94908KDBQ DBQ20101118063509711/18/10 06:35:31  5-MIN KDBQ 181235Z 34005KT 10SM OVC026 00/M03 A3028 740 78 -800 340/05 RMK AO2
94908KDBQ DBQ20101118064009711/18/10 06:40:31  5-MIN KDBQ 181240Z 35005KT 10SM OVC024 00/M03 A3028 740 78 -800 350/05 RMK AO2
94908KDBQ DBQ20101118064509711/18/10 06:45:31  5-MIN KDBQ 181245Z 36006KT 10SM OVC024 00/M04 A3028 740 75 -800 360/06 RMK AO2
94908KDBQ DBQ20101118065011411/18/10 06:50:31  5-MIN KDBQ 181250Z 35005KT 10SM OVC024 00/M03 A3029 740 78 -800 350/05 RMK AO2 SLP268 T00001033
94908KDBQ DBQ20101118065509711/18/10 06:55:31  5-MIN KDBQ 181255Z 35006KT 10SM OVC022 00/M03 A3029 740 78 -800 350/06 RMK AO2
94908KDBQ DBQ20101118070009711/18/10 07:00:31  5-MIN KDBQ 181300Z 36005KT 10SM OVC022 00/M03 A3029 740 78 -800 360/05 RMK AO2
94908KDBQ DBQ20101118070509711/18/10 07:05:31  5-MIN KDBQ 181305Z 36005KT 10SM OVC022 00/M03 A3028 740 78 -800 360/05 RMK AO2
94908KDBQ DBQ20101118071009711/18/10 07:10:31  5-MIN KDBQ 181310Z 36004KT 10SM OVC022 00/M03 A3028 750 78 -800 360/04 RMK AO2
94908KDBQ DBQ20101118071509711/18/10 07:15:31  5-MIN KDBQ 181315Z 36005KT 10SM OVC022 00/M03 A3028 740 78 -800 360/05 RMK AO2
94908KDBQ DBQ20101118072009711/18/10 07:20:31  5-MIN KDBQ 181320Z 35005KT 10SM OVC022 00/M04 A3029 740 75 -800 350/05 RMK AO2
94908KDBQ DBQ20101118072509711/18/10 07:25:31  5-MIN KDBQ 181325Z 35005KT 10SM OVC022 00/M03 A3030 730 78 -800 350/05 RMK AO2
94908KDBQ DBQ20101118073009711/18/10 07:30:31  5-MIN KDBQ 181330Z VRB06KT 10SM OVC022 00/M04 A3030 730 75 -800 VRB/06 RMK AO2
94908KDBQ DBQ20101118073509711/18/10 07:35:31  5-MIN KDBQ 181335Z 34003KT 10SM OVC022 00/M03 A3030 730 78 -800 340/03 RMK AO2
94908KDBQ DBQ20101118074009711/18/10 07:40:31  5-MIN KDBQ 181340Z 34005KT 10SM OVC022 00/M03 A3030 730 78 -800 340/05 RMK AO2
94908KDBQ DBQ20101118074509711/18/10 07:45:31  5-MIN KDBQ 181345Z 35005KT 10SM OVC022 00/M04 A3030 730 75 -800 340/05 RMK AO2
94908KDBQ DBQ20101118075011411/18/10 07:50:31  5-MIN KDBQ 181350Z 33005KT 10SM OVC022 00/M03 A3031 720 78 -800 330/05 RMK AO2 SLP275 T00001033
94908KDBQ DBQ20101118075509711/18/10 07:55:31  5-MIN KDBQ 181355Z 31004KT 10SM OVC022 00/M04 A3031 720 75 -800 310/04 RMK AO2
94908KDBQ DBQ20101118080009711/18/10 08:00:31  5-MIN KDBQ 181400Z 00000KT 10SM OVC022 00/M03 A3031 720 78 -800 000/00 RMK AO2
94908KDBQ DBQ20101118080509711/18/10 08:05:31  5-MIN KDBQ 181405Z 33003KT 10SM OVC022 00/M03 A3031 720 78 -900 330/03 RMK AO2
94908KDBQ DBQ20101118081009711/18/10 08:10:31  5-MIN KDBQ 181410Z 32004KT 10SM OVC022 00/M03 A3031 720 78 -900 320/04 RMK AO2
94908KDBQ DBQ20101118081509711/18/10 08:15:31  5-MIN KDBQ 181415Z VRB04KT 10SM OVC022 00/M03 A3032 710 78 -900 VRB/04 RMK AO2
94908KDBQ DBQ20101118082009711/18/10 08:20:31  5-MIN KDBQ 181420Z 32003KT 10SM OVC024 00/M03 A3032 710 78 -900 320/03 RMK AO2
94908KDBQ DBQ20101118082509711/18/10 08:25:31  5-MIN KDBQ 181425Z 31003KT 10SM OVC024 00/M03 A3032 710 78 -900 310/03 RMK AO2
94908KDBQ DBQ20101118083009711/18/10 08:30:31  5-MIN KDBQ 181430Z 30004KT 10SM OVC024 00/M04 A3032 710 75 -900 300/04 RMK AO2
94908KDBQ DBQ20101118083509711/18/10 08:35:31  5-MIN KDBQ 181435Z VRB05KT 10SM OVC024 01/M04 A3032 710 72 -800 VRB/05 RMK AO2
94908KDBQ DBQ20101118084009711/18/10 08:40:31  5-MIN KDBQ 181440Z VRB05KT 10SM OVC024 01/M04 A3032 710 72 -800 VRB/05 RMK AO2
94908KDBQ DBQ20101118084509711/18/10 08:45:31  5-MIN KDBQ 181445Z VRB05KT 10SM OVC024 01/M04 A3032 710 72 -800 VRB/05 RMK AO2
94908KDBQ DBQ20101118085013611/18/10 08:50:31  5-MIN KDBQ 181450Z 32007KT 280V350 10SM OVC024 01/M04 A3032 710 69 -800 320/07 280V350 RMK AO2 SLP282 T00061044 53011
94908KDBQ DBQ20101118085509711/18/10 08:55:31  5-MIN KDBQ 181455Z VRB05KT 10SM OVC026 01/M04 A3032 710 69 -800 VRB/05 RMK AO2
94908KDBQ DBQ20101118090009711/18/10 09:00:31  5-MIN KDBQ 181500Z VRB05KT 10SM OVC026 01/M04 A3033 710 69 -800 VRB/05 RMK AO2
94908KDBQ DBQ20101118090509711/18/10 09:05:31  5-MIN KDBQ 181505Z 31007KT 10SM OVC026 01/M04 A3033 700 69 -800 310/07 RMK AO2
94908KDBQ DBQ20101118091009711/18/10 09:10:31  5-MIN KDBQ 181510Z 32006KT 10SM OVC026 01/M04 A3033 700 69 -800 320/06 RMK AO2
94908KDBQ DBQ20101118091509711/18/10 09:15:31  5-MIN KDBQ 181515Z 34007KT 10SM OVC026 01/M05 A3033 700 66 -800 340/07 RMK AO2
94908KDBQ DBQ20101118092009711/18/10 09:20:31  5-MIN KDBQ 181520Z 32008KT 10SM OVC028 01/M04 A3033 700 66 -700 320/08 RMK AO2
94908KDBQ DBQ20101118092509711/18/10 09:25:31  5-MIN KDBQ 181525Z 32006KT 10SM OVC028 01/M05 A3034 700 66 -800 320/06 RMK AO2
94908KDBQ DBQ20101118093009711/18/10 09:30:31  5-MIN KDBQ 181530Z 34007KT 10SM OVC028 01/M05 A3034 690 66 -800 340/07 RMK AO2
94908KDBQ DBQ20101118093509711/18/10 09:35:31  5-MIN KDBQ 181535Z 34008KT 10SM OVC028 01/M05 A3034 690 64 -700 330/08 RMK AO2
94908KDBQ DBQ20101118094009711/18/10 09:40:31  5-MIN KDBQ 181540Z VRB04KT 10SM OVC028 01/M05 A3034 690 64 -700 VRB/04 RMK AO2
94908KDBQ DBQ20101118094509711/18/10 09:45:31  5-MIN KDBQ 181545Z VRB06KT 10SM OVC028 01/M05 A3034 690 64 -700 VRB/06 RMK AO2
94908KDBQ DBQ20101118095011411/18/10 09:50:31  5-MIN KDBQ 181550Z VRB06KT 10SM OVC028 01/M05 A3034 690 64 -700 VRB/06 RMK AO2 SLP287 T00111050
94908KDBQ DBQ20101118095509711/18/10 09:55:31  5-MIN KDBQ 181555Z 31005KT 10SM OVC028 01/M05 A3034 690 64 -700 310/05 RMK AO2
94908KDBQ DBQ20101118100009711/18/10 10:00:31  5-MIN KDBQ 181600Z 33008KT 10SM OVC028 01/M05 A3035 690 64 -800 330/08 RMK AO2
94908KDBQ DBQ20101118100509711/18/10 10:05:31  5-MIN KDBQ 181605Z VRB06KT 10SM OVC028 01/M05 A3035 690 64 -700 VRB/06 RMK AO2
94908KDBQ DBQ20101118101009711/18/10 10:10:31  5-MIN KDBQ 181610Z 36005KT 10SM OVC028 01/M05 A3035 680 64 -800 350/05 RMK AO2
94908KDBQ DBQ20101118101509711/18/10 10:15:31  5-MIN KDBQ 181615Z 32008KT 10SM OVC028 01/M04 A3036 680 66 -800 320/08 RMK AO2
94908KDBQ DBQ20101118102009711/18/10 10:20:31  5-MIN KDBQ 181620Z 31007KT 10SM OVC028 01/M05 A3036 670 64 -800 310/07 RMK AO2
94908KDBQ DBQ20101118102509711/18/10 10:25:31  5-MIN KDBQ 181625Z 32008KT 10SM OVC028 01/M05 A3036 670 64 -800 320/08 RMK AO2
94908KDBQ DBQ20101118103009711/18/10 10:30:31  5-MIN KDBQ 181630Z 30007KT 10SM OVC028 01/M05 A3036 670 64 -800 300/07 RMK AO2
94908KDBQ DBQ20101118103509711/18/10 10:35:31  5-MIN KDBQ 181635Z 30006KT 10SM OVC028 01/M05 A3036 670 64 -800 290/06 RMK AO2
94908KDBQ DBQ20101118104009711/18/10 10:40:31  5-MIN KDBQ 181640Z 29006KT 10SM OVC028 01/M05 A3036 680 64 -800 290/06 RMK AO2
94908KDBQ DBQ20101118104509711/18/10 10:45:31  5-MIN KDBQ 181645Z VRB06KT 10SM OVC028 01/M05 A3035 680 64 -800 VRB/06 RMK AO2
94908KDBQ DBQ20101118105011411/18/10 10:50:31  5-MIN KDBQ 181650Z 33007KT 10SM OVC028 01/M05 A3035 680 64 -800 330/07 RMK AO2 SLP290 T00111050
94908KDBQ DBQ20101118105509711/18/10 10:55:31  5-MIN KDBQ 181655Z VRB06KT 10SM OVC028 01/M05 A3035 690 64 -800 VRB/06 RMK AO2
94908KDBQ DBQ20101118110009711/18/10 11:00:31  5-MIN KDBQ 181700Z 36005KT 10SM OVC028 01/M05 A3034 690 64 -700 360/05 RMK AO2
94908KDBQ DBQ20101118110509711/18/10 11:05:31  5-MIN KDBQ 181705Z 34004KT 10SM OVC028 01/M05 A3034 690 64 -700 340/04 RMK AO2
94908KDBQ DBQ20101118111009711/18/10 11:10:31  5-MIN KDBQ 181710Z 34004KT 10SM OVC028 01/M06 A3034 690 61 -700 340/04 RMK AO2
94908KDBQ DBQ20101118111509711/18/10 11:15:31  5-MIN KDBQ 181715Z 00000KT 10SM OVC028 01/M06 A3033 700 61 -700 000/00 RMK AO2
94908KDBQ DBQ20101118112009711/18/10 11:20:31  5-MIN KDBQ 181720Z 00000KT 10SM OVC028 01/M05 A3033 700 64 -700 000/00 RMK AO2
94908KDBQ DBQ20101118112509711/18/10 11:25:31  5-MIN KDBQ 181725Z VRB03KT 10SM OVC028 01/M05 A3033 700 64 -700 VRB/03 RMK AO2
94908KDBQ DBQ20101118113009711/18/10 11:30:31  5-MIN KDBQ 181730Z 34005KT 10SM OVC028 01/M05 A3033 700 64 -700 340/05 RMK AO2
94908KDBQ DBQ20101118113509711/18/10 11:35:31  5-MIN KDBQ 181735Z 36003KT 10SM OVC028 01/M06 A3033 700 61 -700 360/03 RMK AO2
94908KDBQ DBQ20101118114009711/18/10 11:40:31  5-MIN KDBQ 181740Z 34004KT 10SM OVC028 01/M06 A3033 700 61 -700 340/04 RMK AO2
94908KDBQ DBQ20101118114509711/18/10 11:45:31  5-MIN KDBQ 181745Z 33004KT 10SM OVC028 01/M06 A3033 700 61 -700 320/04 RMK AO2
94908KDBQ DBQ20101118115013211/18/10 11:50:31  5-MIN KDBQ 181750Z 32003KT 10SM OVC028 01/M06 A3033 700 61 -700 320/03 RMK AO2 SLP283 T00111056 10011 20000 53010
94908KDBQ DBQ20101118115509711/18/10 11:55:31  5-MIN KDBQ 181755Z 00000KT 10SM OVC028 01/M06 A3033 700 61 -700 000/00 RMK AO2
94908KDBQ DBQ20101118120009711/18/10 12:00:31  5-MIN KDBQ 181800Z 33004KT 10SM OVC028 01/M06 A3033 710 61 -700 330/04 RMK AO2
94908KDBQ DBQ20101118120509711/18/10 12:05:31  5-MIN KDBQ 181805Z 34005KT 10SM OVC028 01/M06 A3032 710 61 -700 340/05 RMK AO2
94908KDBQ DBQ20101118121009711/18/10 12:10:31  5-MIN KDBQ 181810Z 01004KT 10SM OVC028 01/M06 A3032 710 61 -700 360/04 RMK AO2
94908KDBQ DBQ20101118121509711/18/10 12:15:31  5-MIN KDBQ 181815Z VRB03KT 10SM OVC028 02/M06 A3031 720 59 -600 VRB/03 RMK AO2
94908KDBQ DBQ20101118122009711/18/10 12:20:31  5-MIN KDBQ 181820Z 00000KT 10SM OVC028 01/M06 A3031 720 61 -700 000/00 RMK AO2
94908KDBQ DBQ20101118122509711/18/10 12:25:31  5-MIN KDBQ 181825Z VRB03KT 10SM OVC028 02/M05 A3031 720 61 -600 VRB/03 RMK AO2
94908KDBQ DBQ20101118123009711/18/10 12:30:31  5-MIN KDBQ 181830Z 00000KT 10SM OVC028 02/M05 A3030 720 61 -600 000/00 RMK AO2
94908KDBQ DBQ20101118123511311/18/10 12:35:31  5-MIN KDBQ 181835Z 32007KT 270V340 10SM OVC028 02/M05 A3030 730 59 -600 320/07 270V340 RMK AO2
94908KDBQ DBQ20101118124009711/18/10 12:40:31  5-MIN KDBQ 181840Z 31005KT 10SM OVC028 02/M05 A3031 720 59 -600 300/05 RMK AO2
94908KDBQ DBQ20101118124509711/18/10 12:45:31  5-MIN KDBQ 181845Z 31004KT 10SM OVC028 02/M06 A3031 720 59 -600 310/04 RMK AO2
94908KDBQ DBQ20101118125011411/18/10 12:50:31  5-MIN KDBQ 181850Z 00000KT 10SM OVC028 03/M05 A3030 730 56 -500 000/00 RMK AO2 SLP273 T00281050
94908KDBQ DBQ20101118125509711/18/10 12:55:31  5-MIN KDBQ 181855Z 00000KT 10SM OVC028 03/M05 A3030 730 56 -500 000/00 RMK AO2
94908KDBQ DBQ20101118130009711/18/10 13:00:31  5-MIN KDBQ 181900Z 30004KT 10SM BKN028 02/M06 A3030 730 56 -600 290/04 RMK AO2
94908KDBQ DBQ20101118130509711/18/10 13:05:31  5-MIN KDBQ 181905Z 30004KT 10SM BKN028 02/M06 A3030 730 59 -600 300/04 RMK AO2
94908KDBQ DBQ20101118131009711/18/10 13:10:31  5-MIN KDBQ 181910Z VRB03KT 10SM BKN028 02/M06 A3030 730 59 -600 VRB/03 RMK AO2
94908KDBQ DBQ20101118131509711/18/10 13:15:31  5-MIN KDBQ 181915Z 32004KT 10SM BKN028 02/M06 A3030 730 56 -600 310/04 RMK AO2
94908KDBQ DBQ20101118132009711/18/10 13:20:31  5-MIN KDBQ 181920Z 29004KT 10SM BKN028 02/M06 A3030 730 56 -600 290/04 RMK AO2
94908KDBQ DBQ20101118132509711/18/10 13:25:31  5-MIN KDBQ 181925Z 26006KT 10SM BKN028 02/M06 A3030 730 59 -600 260/06 RMK AO2
94908KDBQ DBQ20101118133009711/18/10 13:30:31  5-MIN KDBQ 181930Z 27007KT 10SM BKN028 01/M06 A3029 740 61 -700 270/07 RMK AO2
94908KDBQ DBQ20101118133509711/18/10 13:35:31  5-MIN KDBQ 181935Z 28007KT 10SM BKN028 02/M05 A3029 740 61 -600 280/07 RMK AO2
94908KDBQ DBQ20101118134009711/18/10 13:40:31  5-MIN KDBQ 181940Z 26007KT 10SM BKN028 01/M06 A3029 740 61 -700 260/07 RMK AO2
94908KDBQ DBQ20101118134509711/18/10 13:45:31  5-MIN KDBQ 181945Z 25007KT 10SM BKN028 01/M05 A3029 740 64 -700 250/07 RMK AO2
94908KDBQ DBQ20101118135009711/18/10 13:50:31  5-MIN KDBQ 181950Z 26005KT 10SM SCT028 02/M05 A3029 740 61 -600 260/05 RMK AO2
94908KDBQ DBQ20101118135509411/18/10 13:55:31  5-MIN KDBQ 181955Z 26006KT 10SM CLR 02/M05 A3029 740 59 -500 260/06 RMK AO2
94908KDBQ DBQ20101118140009711/18/10 14:00:31  5-MIN KDBQ 182000Z 27006KT 10SM FEW028 02/M05 A3029 740 59 -500 270/06 RMK AO2
94908KDBQ DBQ20101118140509711/18/10 14:05:31  5-MIN KDBQ 182005Z 26005KT 10SM SCT028 02/M04 A3029 740 61 -500 250/05 RMK AO2
94908KDBQ DBQ20101118141009711/18/10 14:10:31  5-MIN KDBQ 182010Z 28007KT 10SM SCT028 02/M04 A3029 740 64 -600 280/07 RMK AO2
94908KDBQ DBQ20101118141509711/18/10 14:15:31  5-MIN KDBQ 182015Z 29005KT 10SM BKN028 02/M05 A3029 740 61 -600 290/05 RMK AO2
94908KDBQ DBQ20101118142009711/18/10 14:20:31  5-MIN KDBQ 182020Z 28003KT 10SM BKN028 02/M04 A3028 740 61 -500 280/03 RMK AO2
94908KDBQ DBQ20101118142510311/18/10 14:25:31  5-MIN KDBQ 182025Z 24010G17KT 10SM BKN028 02/M05 A3029 740 59 -500 240/10G17 RMK AO2
94908KDBQ DBQ20101118143010311/18/10 14:30:31  5-MIN KDBQ 182030Z 24007G17KT 10SM BKN028 02/M05 A3028 750 61 -600 240/07G17 RMK AO2
94908KDBQ DBQ20101118143509711/18/10 14:35:31  5-MIN KDBQ 182035Z 24008KT 10SM BKN028 02/M05 A3028 750 61 -600 230/08 RMK AO2
94908KDBQ DBQ20101118144009711/18/10 14:40:31  5-MIN KDBQ 182040Z 22007KT 10SM SCT028 02/M05 A3028 750 61 -600 220/07 RMK AO2
94908KDBQ DBQ20101118144509711/18/10 14:45:31  5-MIN KDBQ 182045Z 23006KT 10SM SCT028 02/M05 A3028 750 61 -600 230/06 RMK AO2
94908KDBQ DBQ20101118145012011/18/10 14:50:31  5-MIN KDBQ 182050Z 24006KT 10SM FEW028 02/M05 A3028 750 61 -600 240/06 RMK AO2 SLP267 T00171050 50002
94908KDBQ DBQ20101118145509911/18/10 14:55:31  5-MIN KDBQ 182055Z AUTO 26006KT 10SM CLR 02/M06 A3028 750 59 -600 260/06 RMK AO2
94908KDBQ DBQ20101118150009411/18/10 15:00:31  5-MIN KDBQ 182100Z 26004KT 10SM CLR 02/M06 A3028 750 59 -600 260/04 RMK AO2
94908KDBQ DBQ20101118150509411/18/10 15:05:31  5-MIN KDBQ 182105Z 27004KT 10SM CLR 02/M05 A3028 750 59 -500 270/04 RMK AO2
94908KDBQ DBQ20101118151009411/18/10 15:10:31  5-MIN KDBQ 182110Z 22005KT 10SM CLR 02/M05 A3028 750 61 -600 220/05 RMK AO2
94908KDBQ DBQ20101118151509711/18/10 15:15:31  5-MIN KDBQ 182115Z 22006KT 10SM FEW029 01/M05 A3028 750 64 -700 220/06 RMK AO2
94908KDBQ DBQ20101118152009411/18/10 15:20:31  5-MIN KDBQ 182120Z 26005KT 10SM CLR 02/M05 A3028 750 61 -600 250/05 RMK AO2
94908KDBQ DBQ20101118152509411/18/10 15:25:31  5-MIN KDBQ 182125Z 24005KT 10SM CLR 02/M05 A3028 750 61 -600 240/05 RMK AO2
94908KDBQ DBQ20101118153009411/18/10 15:30:31  5-MIN KDBQ 182130Z 22004KT 10SM CLR 01/M05 A3027 750 64 -700 220/04 RMK AO2
94908KDBQ DBQ20101118153509411/18/10 15:35:31  5-MIN KDBQ 182135Z 25005KT 10SM CLR 01/M05 A3027 760 64 -700 240/05 RMK AO2
94908KDBQ DBQ20101118154009411/18/10 15:40:31  5-MIN KDBQ 182140Z 27005KT 10SM CLR 01/M05 A3027 750 64 -700 270/05 RMK AO2
94908KDBQ DBQ20101118154509411/18/10 15:45:31  5-MIN KDBQ 182145Z 24005KT 10SM CLR 01/M05 A3027 750 64 -700 240/05 RMK AO2
94908KDBQ DBQ20101118155011111/18/10 15:50:31  5-MIN KDBQ 182150Z 23004KT 10SM CLR 01/M04 A3028 750 66 -700 230/04 RMK AO2 SLP265 T00111044
94908KDBQ DBQ20101118155509411/18/10 15:55:31  5-MIN KDBQ 182155Z 23004KT 10SM CLR 01/M05 A3028 750 64 -700 230/04 RMK AO2
94908KDBQ DBQ20101118160009411/18/10 16:00:31  5-MIN KDBQ 182200Z 25004KT 10SM CLR 01/M04 A3028 750 66 -700 250/04 RMK AO2
94908KDBQ DBQ20101118160509411/18/10 16:05:31  5-MIN KDBQ 182205Z 24005KT 10SM CLR 01/M05 A3028 750 66 -700 240/05 RMK AO2
94908KDBQ DBQ20101118161009411/18/10 16:10:31  5-MIN KDBQ 182210Z 25004KT 10SM CLR 01/M05 A3028 750 66 -700 250/04 RMK AO2
94908KDBQ DBQ20101118161509411/18/10 16:15:31  5-MIN KDBQ 182215Z 26004KT 10SM CLR 00/M05 A3028 750 69 -800 260/04 RMK AO2
94908KDBQ DBQ20101118162009411/18/10 16:20:31  5-MIN KDBQ 182220Z 27004KT 10SM CLR 00/M05 A3028 750 69 -800 270/04 RMK AO2
94908KDBQ DBQ20101118162509411/18/10 16:25:31  5-MIN KDBQ 182225Z 27004KT 10SM CLR 00/M05 A3028 750 69 -800 270/04 RMK AO2
94908KDBQ DBQ20101118163009511/18/10 16:30:31  5-MIN KDBQ 182230Z 28004KT 10SM CLR M01/M05 A3028 750 72 -900 280/04 RMK AO2
94908KDBQ DBQ20101118163509611/18/10 16:35:31  5-MIN KDBQ 182235Z 28003KT 10SM CLR M01/M05 A3028 750 75 -1000 280/03 RMK AO2
94908KDBQ DBQ20101118164009511/18/10 16:40:31  5-MIN KDBQ 182240Z 27004KT 10SM CLR M01/M05 A3028 750 72 -900 270/04 RMK AO2
94908KDBQ DBQ20101118164509511/18/10 16:45:31  5-MIN KDBQ 182245Z 00000KT 10SM CLR M01/M05 A3028 750 72 -900 000/00 RMK AO2
94908KDBQ DBQ20101118165011211/18/10 16:50:31  5-MIN KDBQ 182250Z 00000KT 10SM CLR M01/M05 A3028 750 72 -900 000/00 RMK AO2 SLP266 T10061050
94908KDBQ DBQ20101118165509511/18/10 16:55:31  5-MIN KDBQ 182255Z 00000KT 10SM CLR M01/M05 A3028 750 75 -900 000/00 RMK AO2
94908KDBQ DBQ20101118170009511/18/10 17:00:31  5-MIN KDBQ 182300Z 00000KT 10SM CLR M01/M05 A3027 750 75 -900 000/00 RMK AO2
94908KDBQ DBQ20101118170509511/18/10 17:05:31  5-MIN KDBQ 182305Z 00000KT 10SM CLR M01/M05 A3027 750 75 -900 000/00 RMK AO2
94908KDBQ DBQ20101118171009511/18/10 17:10:31  5-MIN KDBQ 182310Z 00000KT 10SM CLR M01/M05 A3027 760 75 -900 000/00 RMK AO2
94908KDBQ DBQ20101118171509611/18/10 17:15:31  5-MIN KDBQ 182315Z 00000KT 10SM CLR M02/M05 A3027 760 78 -1000 000/00 RMK AO2
94908KDBQ DBQ20101118172009611/18/10 17:20:31  5-MIN KDBQ 182320Z 00000KT 10SM CLR M02/M05 A3027 760 78 -1000 000/00 RMK AO2
94908KDBQ DBQ20101118172509611/18/10 17:25:31  5-MIN KDBQ 182325Z 00000KT 10SM CLR M02/M05 A3027 760 78 -1000 000/00 RMK AO2
94908KDBQ DBQ20101118173009611/18/10 17:30:31  5-MIN KDBQ 182330Z 00000KT 10SM CLR M02/M05 A3027 760 78 -1000 000/00 RMK AO2
94908KDBQ DBQ20101118173509611/18/10 17:35:31  5-MIN KDBQ 182335Z 00000KT 10SM CLR M02/M05 A3027 750 78 -1000 000/00 RMK AO2
94908KDBQ DBQ20101118174009611/18/10 17:40:31  5-MIN KDBQ 182340Z 00000KT 10SM CLR M02/M05 A3027 750 81 -1100 000/00 RMK AO2
94908KDBQ DBQ20101118174509611/18/10 17:45:31  5-MIN KDBQ 182345Z 00000KT 10SM CLR M02/M06 A3027 750 78 -1100 000/00 RMK AO2
94908KDBQ DBQ20101118175013111/18/10 17:50:31  5-MIN KDBQ 182350Z 00000KT 10SM CLR M02/M05 A3027 760 81 -1100 000/00 RMK AO2 SLP263 T10221050 10028 21022 56016
94908KDBQ DBQ20101118175509611/18/10 17:55:31  5-MIN KDBQ 182355Z 19003KT 10SM CLR M02/M05 A3027 760 81 -1100 190/03 RMK AO2
94908KDBQ DBQ20101118180009611/18/10 18:00:31  5-MIN KDBQ 190000Z 18003KT 10SM CLR M02/M05 A3026 760 81 -1100 180/03 RMK AO2
94908KDBQ DBQ20101118180509611/18/10 18:05:31  5-MIN KDBQ 190005Z 17003KT 10SM CLR M02/M05 A3026 770 78 -1000 170/03 RMK AO2
94908KDBQ DBQ20101118181009611/18/10 18:10:31  5-MIN KDBQ 190010Z 17003KT 10SM CLR M02/M05 A3026 770 78 -1000 170/03 RMK AO2
94908KDBQ DBQ20101118181509611/18/10 18:15:31  5-MIN KDBQ 190015Z 16004KT 10SM CLR M02/M05 A3026 770 81 -1100 160/04 RMK AO2
94908KDBQ DBQ20101118182009611/18/10 18:20:31  5-MIN KDBQ 190020Z 16003KT 10SM CLR M02/M05 A3026 770 81 -1100 160/03 RMK AO2
94908KDBQ DBQ20101118182509611/18/10 18:25:31  5-MIN KDBQ 190025Z 00000KT 10SM CLR M02/M05 A3026 770 81 -1100 000/00 RMK AO2
94908KDBQ DBQ20101118183009611/18/10 18:30:31  5-MIN KDBQ 190030Z 00000KT 10SM CLR M02/M05 A3026 770 78 -1000 000/00 RMK AO2
94908KDBQ DBQ20101118183509611/18/10 18:35:31  5-MIN KDBQ 190035Z 00000KT 10SM CLR M02/M05 A3026 770 81 -1100 000/00 RMK AO2
94908KDBQ DBQ20101118184009611/18/10 18:40:31  5-MIN KDBQ 190040Z 17003KT 10SM CLR M02/M05 A3026 770 81 -1100 170/03 RMK AO2
94908KDBQ DBQ20101118184509611/18/10 18:45:31  5-MIN KDBQ 190045Z 00000KT 10SM CLR M02/M05 A3026 760 81 -1100 000/00 RMK AO2
94908KDBQ DBQ20101118185011311/18/10 18:50:31  5-MIN KDBQ 190050Z 00000KT 10SM CLR M03/M06 A3026 760 81 -1100 000/00 RMK AO2 SLP262 T10281056
94908KDBQ DBQ20101118185509611/18/10 18:55:31  5-MIN KDBQ 190055Z 20003KT 10SM CLR M03/M06 A3026 760 81 -1100 200/03 RMK AO2
94908KDBQ DBQ20101118190009611/18/10 19:00:31  5-MIN KDBQ 190100Z 21003KT 10SM CLR M03/M06 A3027 760 81 -1200 210/03 RMK AO2
94908KDBQ DBQ20101118190509611/18/10 19:05:31  5-MIN KDBQ 190105Z 00000KT 10SM CLR M03/M06 A3027 760 85 -1200 000/00 RMK AO2
94908KDBQ DBQ20101118191009611/18/10 19:10:31  5-MIN KDBQ 190110Z 00000KT 10SM CLR M03/M06 A3026 760 81 -1100 000/00 RMK AO2
94908KDBQ DBQ20101118191509611/18/10 19:15:31  5-MIN KDBQ 190115Z 17003KT 10SM CLR M03/M06 A3026 770 81 -1100 170/03 RMK AO2
94908KDBQ DBQ20101118192009611/18/10 19:20:31  5-MIN KDBQ 190120Z 00000KT 10SM CLR M03/M06 A3026 770 81 -1100 000/00 RMK AO2
94908KDBQ DBQ20101118192509611/18/10 19:25:31  5-MIN KDBQ 190125Z 16003KT 10SM CLR M03/M06 A3025 770 81 -1100 160/03 RMK AO2
94908KDBQ DBQ20101118193009611/18/10 19:30:31  5-MIN KDBQ 190130Z 16003KT 10SM CLR M03/M06 A3025 770 81 -1100 150/03 RMK AO2
94908KDBQ DBQ20101118193509611/18/10 19:35:31  5-MIN KDBQ 190135Z 15005KT 10SM CLR M03/M06 A3025 780 81 -1100 150/05 RMK AO2
94908KDBQ DBQ20101118194009611/18/10 19:40:31  5-MIN KDBQ 190140Z 15006KT 10SM CLR M02/M05 A3024 780 81 -1100 150/06 RMK AO2
94908KDBQ DBQ20101118194509611/18/10 19:45:31  5-MIN KDBQ 190145Z 15006KT 10SM CLR M02/M05 A3024 780 81 -1100 150/06 RMK AO2
94908KDBQ DBQ20101118195011311/18/10 19:50:31  5-MIN KDBQ 190150Z 16005KT 10SM CLR M02/M05 A3025 780 81 -1100 160/05 RMK AO2 SLP255 T10221050
94908KDBQ DBQ20101118195509611/18/10 19:55:31  5-MIN KDBQ 190155Z 16005KT 10SM CLR M02/M05 A3024 780 81 -1100 160/05 RMK AO2
94908KDBQ DBQ20101118200009611/18/10 20:00:31  5-MIN KDBQ 190200Z 16006KT 10SM CLR M02/M05 A3024 780 81 -1000 160/06 RMK AO2
94908KDBQ DBQ20101118200510111/18/10 20:05:31  5-MIN KDBQ 190205Z AUTO 16006KT 10SM CLR M03/M05 A3024 790 85 -1100 160/06 RMK AO2
94908KDBQ DBQ20101118201010111/18/10 20:10:31  5-MIN KDBQ 190210Z AUTO 16006KT 10SM CLR M02/M05 A3024 790 81 -1000 160/06 RMK AO2
94908KDBQ DBQ20101118201510111/18/10 20:15:31  5-MIN KDBQ 190215Z AUTO 17007KT 10SM CLR M02/M05 A3024 790 81 -1000 170/07 RMK AO2
94908KDBQ DBQ20101118202010111/18/10 20:20:31  5-MIN KDBQ 190220Z AUTO 17006KT 10SM CLR M02/M05 A3023 790 81 -1000 170/06 RMK AO2
94908KDBQ DBQ20101118202510011/18/10 20:25:31  5-MIN KDBQ 190225Z AUTO 17007KT 9SM CLR M02/M05 A3023 790 81 -1000 170/07 RMK AO2
94908KDBQ DBQ20101118203010011/18/10 20:30:31  5-MIN KDBQ 190230Z AUTO 17006KT 9SM CLR M03/M05 A3023 790 85 -1100 170/06 RMK AO2
94908KDBQ DBQ20101118203510011/18/10 20:35:31  5-MIN KDBQ 190235Z AUTO 17007KT 9SM CLR M03/M05 A3023 790 85 -1100 170/07 RMK AO2
94908KDBQ DBQ20101118204010011/18/10 20:40:31  5-MIN KDBQ 190240Z AUTO 17006KT 9SM CLR M03/M05 A3023 790 85 -1100 170/06 RMK AO2
94908KDBQ DBQ20101118204510011/18/10 20:45:31  5-MIN KDBQ 190245Z AUTO 17007KT 9SM CLR M03/M05 A3023 800 85 -1100 170/07 RMK AO2
94908KDBQ DBQ20101118205012311/18/10 20:50:31  5-MIN KDBQ 190250Z AUTO 18007KT 9SM CLR M03/M05 A3023 790 85 -1100 180/07 RMK AO2 SLP250 T10281050 58005
94908KDBQ DBQ20101118205510011/18/10 20:55:31  5-MIN KDBQ 190255Z AUTO 18007KT 8SM CLR M02/M05 A3023 790 81 -1000 180/07 RMK AO2
94908KDBQ DBQ20101118210010011/18/10 21:00:31  5-MIN KDBQ 190300Z AUTO 18006KT 8SM CLR M02/M05 A3023 790 81 -1000 180/06 RMK AO2
94908KDBQ DBQ20101118210510011/18/10 21:05:31  5-MIN KDBQ 190305Z AUTO 17006KT 8SM CLR M03/M05 A3023 790 85 -1100 170/06 RMK AO2
94908KDBQ DBQ20101118211010011/18/10 21:10:31  5-MIN KDBQ 190310Z AUTO 17007KT 8SM CLR M03/M05 A3023 800 85 -1100 170/07 RMK AO2
94908KDBQ DBQ20101118211510011/18/10 21:15:31  5-MIN KDBQ 190315Z AUTO 18008KT 8SM CLR M03/M05 A3023 800 85 -1100 180/08 RMK AO2
94908KDBQ DBQ20101118212010011/18/10 21:20:31  5-MIN KDBQ 190320Z AUTO 19008KT 8SM CLR M03/M05 A3023 800 85 -1100 190/08 RMK AO2
94908KDBQ DBQ20101118212510011/18/10 21:25:31  5-MIN KDBQ 190325Z AUTO 19008KT 8SM CLR M03/M05 A3023 800 85 -1100 190/08 RMK AO2
94908KDBQ DBQ20101118213010011/18/10 21:30:31  5-MIN KDBQ 190330Z AUTO 19007KT 7SM CLR M03/M05 A3023 800 85 -1100 180/07 RMK AO2
94908KDBQ DBQ20101118213510011/18/10 21:35:31  5-MIN KDBQ 190335Z AUTO 17007KT 7SM CLR M03/M05 A3022 800 88 -1200 170/07 RMK AO2
94908KDBQ DBQ20101118214010011/18/10 21:40:31  5-MIN KDBQ 190340Z AUTO 17008KT 7SM CLR M03/M05 A3022 810 88 -1200 170/08 RMK AO2
94908KDBQ DBQ20101118214510011/18/10 21:45:31  5-MIN KDBQ 190345Z AUTO 17009KT 7SM CLR M03/M05 A3021 810 88 -1200 170/09 RMK AO2
94908KDBQ DBQ20101118215011711/18/10 21:50:31  5-MIN KDBQ 190350Z AUTO 18008KT 7SM CLR M03/M05 A3021 810 85 -1100 170/08 RMK AO2 SLP244 T10281050
94908KDBQ DBQ20101118215510011/18/10 21:55:31  5-MIN KDBQ 190355Z AUTO 18007KT 7SM CLR M03/M05 A3021 810 85 -1100 180/07 RMK AO2
94908KDBQ DBQ20101118220010011/18/10 22:00:31  5-MIN KDBQ 190400Z AUTO 17007KT 7SM CLR M03/M05 A3021 810 85 -1100 170/07 RMK AO2
94908KDBQ DBQ20101118220510011/18/10 22:05:31  5-MIN KDBQ 190405Z AUTO 17009KT 7SM CLR M03/M05 A3021 810 85 -1100 170/09 RMK AO2
94908KDBQ DBQ20101118221010011/18/10 22:10:31  5-MIN KDBQ 190410Z AUTO 17009KT 7SM CLR M03/M05 A3020 820 85 -1100 170/09 RMK AO2
94908KDBQ DBQ20101118221510011/18/10 22:15:31  5-MIN KDBQ 190415Z AUTO 17009KT 7SM CLR M03/M04 A3020 820 88 -1100 170/09 RMK AO2
94908KDBQ DBQ20101118222010011/18/10 22:20:31  5-MIN KDBQ 190420Z AUTO 17009KT 7SM CLR M03/M04 A3020 820 88 -1100 170/09 RMK AO2
94908KDBQ DBQ20101118222510011/18/10 22:25:31  5-MIN KDBQ 190425Z AUTO 17009KT 7SM CLR M03/M04 A3020 830 88 -1100 170/09 RMK AO2
94908KDBQ DBQ20101118223010011/18/10 22:30:31  5-MIN KDBQ 190430Z AUTO 17009KT 7SM CLR M03/M04 A3019 830 88 -1100 170/09 RMK AO2
94908KDBQ DBQ20101118223510011/18/10 22:35:31  5-MIN KDBQ 190435Z AUTO 17009KT 7SM CLR M03/M04 A3019 830 88 -1100 170/09 RMK AO2
94908KDBQ DBQ20101118224010611/18/10 22:40:31  5-MIN KDBQ 190440Z AUTO 17011KT 6SM BR FEW018 M02/M04 A3018 840 88 -1000 170/11 RMK AO2
94908KDBQ DBQ20101118224510511/18/10 22:45:31  5-MIN KDBQ 190445Z AUTO 18009KT 6SM BR SCT018 M02/M04 A3018 830 85 -900 180/09 RMK AO2
94908KDBQ DBQ20101118225012211/18/10 22:50:31  5-MIN KDBQ 190450Z AUTO 18010KT 6SM BR FEW018 M02/M04 A3018 840 85 -900 180/10 RMK AO2 SLP232 T10171039
94908KDBQ DBQ20101118225510511/18/10 22:55:31  5-MIN KDBQ 190455Z AUTO 18011KT 6SM BR FEW018 M02/M04 A3017 840 85 -900 180/11 RMK AO2
94908KDBQ DBQ20101118230010511/18/10 23:00:31  5-MIN KDBQ 190500Z AUTO 18011KT 6SM BR FEW018 M02/M04 A3017 850 85 -900 180/11 RMK AO2
94908KDBQ DBQ20101118230510511/18/10 23:05:31  5-MIN KDBQ 190505Z AUTO 18010KT 6SM BR FEW018 M02/M04 A3017 850 85 -900 180/10 RMK AO2
94908KDBQ DBQ20101118231010611/18/10 23:10:31  5-MIN KDBQ 190510Z AUTO 18010KT 6SM BR FEW018 M02/M04 A3017 850 88 -1000 180/10 RMK AO2
94908KDBQ DBQ20101118231510311/18/10 23:15:31  5-MIN KDBQ 190515Z AUTO 18011KT 6SM BR CLR M02/M04 A3016 860 88 -1000 180/11 RMK AO2
94908KDBQ DBQ20101118232010311/18/10 23:20:31  5-MIN KDBQ 190520Z AUTO 17010KT 6SM BR CLR M02/M04 A3016 860 88 -1000 170/10 RMK AO2
94908KDBQ DBQ20101118232510311/18/10 23:25:31  5-MIN KDBQ 190525Z AUTO 18010KT 6SM BR CLR M02/M04 A3016 860 88 -1000 170/10 RMK AO2
94908KDBQ DBQ20101118233010311/18/10 23:30:31  5-MIN KDBQ 190530Z AUTO 17010KT 6SM BR CLR M02/M04 A3016 860 88 -1000 170/10 RMK AO2
94908KDBQ DBQ20101118233510211/18/10 23:35:31  5-MIN KDBQ 190535Z AUTO 18011KT 6SM BR CLR M02/M04 A3015 860 88 -900 180/11 RMK AO2
94908KDBQ DBQ20101118234010211/18/10 23:40:31  5-MIN KDBQ 190540Z AUTO 18010KT 6SM BR CLR M02/M04 A3015 860 88 -900 180/10 RMK AO2
94908KDBQ DBQ20101118234510211/18/10 23:45:31  5-MIN KDBQ 190545Z AUTO 18011KT 6SM BR CLR M02/M04 A3015 860 88 -900 180/11 RMK AO2
94908KDBQ DBQ20101118235014711/18/10 23:50:31  5-MIN KDBQ 190550Z AUTO 17010KT 6SM BR CLR M02/M04 A3015 870 88 -900 170/10 RMK AO2 SLP222 T10221039 11017 21033 400281033 58012
94908KDBQ DBQ20101118235510211/18/10 23:55:31  5-MIN KDBQ 190555Z AUTO 18011KT 6SM BR CLR M02/M04 A3015 870 88 -900 170/11 RMK AO2
94908KDBQ DBQ20101119000010211/19/10 00:00:38  5-MIN KDBQ 190600Z AUTO 18010KT 6SM BR CLR M02/M04 A3015 860 88 -900 180/10 RMK AO2
94908KDBQ DBQ20101119000510311/19/10 00:05:31  5-MIN KDBQ 190605Z AUTO 18009KT 6SM BR CLR M02/M04 A3016 860 88 -1000 180/09 RMK AO2
94908KDBQ DBQ20101119001010311/19/10 00:10:31  5-MIN KDBQ 190610Z AUTO 18009KT 6SM BR CLR M02/M04 A3016 860 88 -1000 180/09 RMK AO2
94908KDBQ DBQ20101119001510311/19/10 00:15:31  5-MIN KDBQ 190615Z AUTO 18010KT 6SM BR CLR M02/M04 A3016 860 88 -1000 180/10 RMK AO2
94908KDBQ DBQ20101119002010211/19/10 00:20:31  5-MIN KDBQ 190620Z AUTO 18011KT 6SM BR CLR M02/M04 A3015 860 88 -900 180/11 RMK AO2
94908KDBQ DBQ20101119002510211/19/10 00:25:31  5-MIN KDBQ 190625Z AUTO 18009KT 6SM BR CLR M02/M04 A3015 860 88 -900 180/09 RMK AO2
94908KDBQ DBQ20101119003010311/19/10 00:30:31  5-MIN KDBQ 190630Z AUTO 18010KT 6SM BR CLR M02/M04 A3016 860 88 -1000 180/10 RMK AO2
94908KDBQ DBQ20101119003510311/19/10 00:35:31  5-MIN KDBQ 190635Z AUTO 18010KT 6SM BR CLR M02/M04 A3016 860 88 -1000 180/10 RMK AO2
94908KDBQ DBQ20101119004010211/19/10 00:40:31  5-MIN KDBQ 190640Z AUTO 18010KT 6SM BR CLR M02/M04 A3015 870 88 -900 180/10 RMK AO2
94908KDBQ DBQ20101119004510211/19/10 00:45:31  5-MIN KDBQ 190645Z AUTO 18010KT 6SM BR CLR M02/M04 A3015 870 88 -900 180/10 RMK AO2
94908KDBQ DBQ20101119005011911/19/10 00:50:31  5-MIN KDBQ 190650Z AUTO 18011KT 6SM BR CLR M02/M04 A3015 870 88 -900 180/11 RMK AO2 SLP222 T10221039
94908KDBQ DBQ20101119005509911/19/10 00:55:31  5-MIN KDBQ 190655Z AUTO 18012KT 7SM CLR M02/M04 A3014 870 88 -900 180/12 RMK AO2
94908KDBQ DBQ20101119010009911/19/10 01:00:31  5-MIN KDBQ 190700Z AUTO 18011KT 7SM CLR M02/M04 A3014 870 88 -900 180/11 RMK AO2
94908KDBQ DBQ20101119010509911/19/10 01:05:31  5-MIN KDBQ 190705Z AUTO 18011KT 7SM CLR M02/M04 A3014 870 88 -900 180/11 RMK AO2
94908KDBQ DBQ20101119011009911/19/10 01:10:31  5-MIN KDBQ 190710Z AUTO 18012KT 7SM CLR M02/M04 A3014 870 88 -900 180/12 RMK AO2
94908KDBQ DBQ20101119011509911/19/10 01:15:31  5-MIN KDBQ 190715Z AUTO 18011KT 7SM CLR M02/M04 A3014 880 88 -900 180/11 RMK AO2
94908KDBQ DBQ20101119012010211/19/10 01:20:31  5-MIN KDBQ 190720Z AUTO 18011KT 6SM BR CLR M02/M04 A3014 880 88 -900 180/11 RMK AO2
94908KDBQ DBQ20101119012510211/19/10 01:25:31  5-MIN KDBQ 190725Z AUTO 17011KT 6SM BR CLR M02/M04 A3013 890 88 -900 170/11 RMK AO2
94908KDBQ DBQ20101119013010211/19/10 01:30:31  5-MIN KDBQ 190730Z AUTO 17012KT 6SM BR CLR M02/M04 A3013 890 88 -900 170/12 RMK AO2
94908KDBQ DBQ20101119013510211/19/10 01:35:31  5-MIN KDBQ 190735Z AUTO 18011KT 6SM BR CLR M02/M04 A3013 880 88 -900 180/11 RMK AO2
94908KDBQ DBQ20101119014010211/19/10 01:40:31  5-MIN KDBQ 190740Z AUTO 17012KT 6SM BR CLR M02/M04 A3013 880 88 -900 170/12 RMK AO2
94908KDBQ DBQ20101119014510211/19/10 01:45:31  5-MIN KDBQ 190745Z AUTO 17012KT 6SM BR CLR M02/M04 A3013 890 88 -900 170/12 RMK AO2
94908KDBQ DBQ20101119015011911/19/10 01:50:31  5-MIN KDBQ 190750Z AUTO 17011KT 6SM BR CLR M02/M04 A3013 890 88 -900 170/11 RMK AO2 SLP214 T10221039
94908KDBQ DBQ20101119015510211/19/10 01:55:31  5-MIN KDBQ 190755Z AUTO 17011KT 6SM BR CLR M02/M04 A3012 890 88 -900 170/11 RMK AO2
94908KDBQ DBQ20101119020010211/19/10 02:00:31  5-MIN KDBQ 190800Z AUTO 17012KT 6SM BR CLR M02/M04 A3012 900 88 -900 170/12 RMK AO2
94908KDBQ DBQ20101119020510211/19/10 02:05:31  5-MIN KDBQ 190805Z AUTO 17012KT 6SM BR CLR M02/M04 A3012 900 88 -900 170/12 RMK AO2
94908KDBQ DBQ20101119021010211/19/10 02:10:31  5-MIN KDBQ 190810Z AUTO 17012KT 6SM BR CLR M02/M04 A3011 900 88 -900 170/12 RMK AO2
94908KDBQ DBQ20101119021510211/19/10 02:15:31  5-MIN KDBQ 190815Z AUTO 17012KT 6SM BR CLR M02/M04 A3011 900 88 -900 170/12 RMK AO2
94908KDBQ DBQ20101119022010211/19/10 02:20:31  5-MIN KDBQ 190820Z AUTO 17012KT 6SM BR CLR M02/M04 A3011 900 88 -900 170/12 RMK AO2
94908KDBQ DBQ20101119022510211/19/10 02:25:31  5-MIN KDBQ 190825Z AUTO 17012KT 6SM BR CLR M02/M04 A3011 910 88 -900 170/12 RMK AO2
94908KDBQ DBQ20101119023010211/19/10 02:30:31  5-MIN KDBQ 190830Z AUTO 17012KT 6SM BR CLR M02/M04 A3011 910 88 -900 170/12 RMK AO2
94908KDBQ DBQ20101119023510211/19/10 02:35:31  5-MIN KDBQ 190835Z AUTO 17012KT 6SM BR CLR M02/M04 A3010 910 88 -900 170/12 RMK AO2
94908KDBQ DBQ20101119024010211/19/10 02:40:31  5-MIN KDBQ 190840Z AUTO 17012KT 6SM BR CLR M02/M04 A3010 910 88 -900 170/12 RMK AO2
94908KDBQ DBQ20101119024510211/19/10 02:45:31  5-MIN KDBQ 190845Z AUTO 18012KT 6SM BR CLR M02/M04 A3010 920 88 -900 180/12 RMK AO2
94908KDBQ DBQ20101119025012511/19/10 02:50:31  5-MIN KDBQ 190850Z AUTO 17013KT 6SM BR CLR M02/M04 A3009 920 88 -900 170/13 RMK AO2 SLP202 T10221039 58026
94908KDBQ DBQ20101119025510211/19/10 02:55:31  5-MIN KDBQ 190855Z AUTO 17013KT 6SM BR CLR M02/M04 A3009 920 88 -900 170/13 RMK AO2
94908KDBQ DBQ20101119030010211/19/10 03:00:31  5-MIN KDBQ 190900Z AUTO 17013KT 6SM BR CLR M02/M04 A3008 930 88 -900 170/13 RMK AO2
94908KDBQ DBQ20101119030510211/19/10 03:05:31  5-MIN KDBQ 190905Z AUTO 17013KT 6SM BR CLR M02/M04 A3008 930 88 -900 170/13 RMK AO2
94908KDBQ DBQ20101119031010211/19/10 03:10:31  5-MIN KDBQ 190910Z AUTO 18014KT 6SM BR CLR M02/M04 A3008 930 88 -900 170/14 RMK AO2
94908KDBQ DBQ20101119031510211/19/10 03:15:31  5-MIN KDBQ 190915Z AUTO 17013KT 6SM BR CLR M02/M04 A3007 940 88 -900 170/13 RMK AO2
94908KDBQ DBQ20101119032010211/19/10 03:20:31  5-MIN KDBQ 190920Z AUTO 17014KT 6SM BR CLR M02/M04 A3007 940 88 -800 170/14 RMK AO2
94908KDBQ DBQ20101119032510211/19/10 03:25:31  5-MIN KDBQ 190925Z AUTO 17014KT 6SM BR CLR M02/M04 A3006 950 88 -800 170/14 RMK AO2
94908KDBQ DBQ20101119033010211/19/10 03:30:31  5-MIN KDBQ 190930Z AUTO 18013KT 5SM BR CLR M02/M04 A3006 950 88 -800 180/13 RMK AO2
94908KDBQ DBQ20101119033510211/19/10 03:35:31  5-MIN KDBQ 190935Z AUTO 18013KT 5SM BR CLR M02/M04 A3006 950 88 -800 180/13 RMK AO2
94908KDBQ DBQ20101119034010211/19/10 03:40:31  5-MIN KDBQ 190940Z AUTO 18013KT 5SM BR CLR M02/M04 A3006 950 88 -800 170/13 RMK AO2
94908KDBQ DBQ20101119034510211/19/10 03:45:31  5-MIN KDBQ 190945Z AUTO 17013KT 5SM BR CLR M02/M04 A3006 950 88 -800 170/13 RMK AO2
94908KDBQ DBQ20101119035011911/19/10 03:50:31  5-MIN KDBQ 190950Z AUTO 18013KT 5SM BR CLR M02/M04 A3006 950 88 -800 170/13 RMK AO2 SLP191 T10221039
94908KDBQ DBQ20101119035510211/19/10 03:55:31  5-MIN KDBQ 190955Z AUTO 17013KT 5SM BR CLR M02/M04 A3006 950 88 -800 170/13 RMK AO2
94908KDBQ DBQ20101119040010211/19/10 04:00:31  5-MIN KDBQ 191000Z AUTO 17013KT 5SM BR CLR M02/M04 A3006 950 88 -800 170/13 RMK AO2
94908KDBQ DBQ20101119040510211/19/10 04:05:31  5-MIN KDBQ 191005Z AUTO 17014KT 5SM BR CLR M02/M04 A3005 960 88 -800 170/14 RMK AO2
94908KDBQ DBQ20101119041010211/19/10 04:10:31  5-MIN KDBQ 191010Z AUTO 18013KT 5SM BR CLR M02/M04 A3005 960 88 -800 180/13 RMK AO2
94908KDBQ DBQ20101119041510811/19/10 04:15:31  5-MIN KDBQ 191015Z AUTO 18013G22KT 5SM BR CLR M02/M04 A3005 960 88 -800 180/13G22 RMK AO2
94908KDBQ DBQ20101119042010811/19/10 04:20:31  5-MIN KDBQ 191020Z AUTO 18013G22KT 6SM BR CLR M02/M04 A3005 960 88 -800 180/13G22 RMK AO2
94908KDBQ DBQ20101119042510211/19/10 04:25:31  5-MIN KDBQ 191025Z AUTO 18013KT 5SM BR CLR M02/M04 A3005 960 88 -800 170/13 RMK AO2
94908KDBQ DBQ20101119043010211/19/10 04:30:31  5-MIN KDBQ 191030Z AUTO 17013KT 5SM BR CLR M02/M04 A3004 970 88 -800 170/13 RMK AO2
94908KDBQ DBQ20101119043510211/19/10 04:35:31  5-MIN KDBQ 191035Z AUTO 17015KT 5SM BR CLR M02/M04 A3004 970 88 -800 170/15 RMK AO2
94908KDBQ DBQ20101119044010211/19/10 04:40:31  5-MIN KDBQ 191040Z AUTO 17014KT 5SM BR CLR M02/M04 A3003 980 85 -700 170/14 RMK AO2
94908KDBQ DBQ20101119044510211/19/10 04:45:31  5-MIN KDBQ 191045Z AUTO 17012KT 5SM BR CLR M02/M04 A3003 980 85 -700 170/12 RMK AO2
94908KDBQ DBQ20101119045011911/19/10 04:50:31  5-MIN KDBQ 191050Z AUTO 17013KT 5SM BR CLR M02/M03 A3003 980 88 -700 170/13 RMK AO2 SLP182 T10171033
94908KDBQ DBQ20101119045510211/19/10 04:55:31  5-MIN KDBQ 191055Z AUTO 17013KT 5SM BR CLR M02/M03 A3003 980 88 -700 170/13 RMK AO2
94908KDBQ DBQ20101119050010211/19/10 05:00:31  5-MIN KDBQ 191100Z AUTO 17013KT 5SM BR CLR M02/M03 A3003 980 88 -700 170/13 RMK AO2
94908KDBQ DBQ20101119050510211/19/10 05:05:31  5-MIN KDBQ 191105Z AUTO 17014KT 5SM BR CLR M02/M03 A3003 980 88 -700 170/14 RMK AO2
94908KDBQ DBQ20101119051010211/19/10 05:10:31  5-MIN KDBQ 191110Z AUTO 17013KT 5SM BR CLR M02/M03 A3003 980 88 -700 170/13 RMK AO2
94908KDBQ DBQ20101119051510211/19/10 05:15:31  5-MIN KDBQ 191115Z AUTO 17013KT 5SM BR CLR M02/M03 A3003 980 88 -700 170/13 RMK AO2
94908KDBQ DBQ20101119052010211/19/10 05:20:31  5-MIN KDBQ 191120Z AUTO 18014KT 5SM BR CLR M02/M03 A3003 980 88 -700 180/14 RMK AO2
94908KDBQ DBQ20101119052510811/19/10 05:25:31  5-MIN KDBQ 191125Z AUTO 18019G24KT 5SM BR CLR M02/M03 A3003 980 88 -700 180/19G24 RMK AO2
94908KDBQ DBQ20101119053011111/19/10 05:30:31  5-MIN KDBQ 191130Z AUTO 18014G25KT 6SM BR FEW013 M01/M03 A3002 990 85 -700 180/14G25 RMK AO2
94908KDBQ DBQ20101119053511111/19/10 05:35:31  5-MIN KDBQ 191135Z AUTO 18014G25KT 6SM BR FEW013 M02/M03 A3002 990 88 -700 180/14G25 RMK AO2
94908KDBQ DBQ20101119054010511/19/10 05:40:31  5-MIN KDBQ 191140Z AUTO 18013KT 5SM BR FEW013 M02/M03 A3001 990 88 -700 180/13 RMK AO2
94908KDBQ DBQ20101119054510611/19/10 05:45:31  5-MIN KDBQ 191145Z AUTO 17014KT 5SM BR FEW012 M02/M03 A3001 1000 88 -700 170/14 RMK AO2
94908KDBQ DBQ20101119055014911/19/10 05:50:31  5-MIN KDBQ 191150Z 17018G23KT 5SM BR FEW012 M02/M03 A2999 1010 88 -700 170/18G23 RMK AO2 PRESFR SLP169 T10171033 11011 21022 58020
94908KDBQ DBQ20101119055511411/19/10 05:55:31  5-MIN KDBQ 191155Z 17019G24KT 5SM BR FEW012 M02/M03 A2997 1030 88 -700 170/19G24 RMK AO2 PRESFR
94908KDBQ DBQ20101119060010711/19/10 06:00:31  5-MIN KDBQ 191200Z 16018G25KT 5SM BR FEW010 M02/M03 A2997 1040 88 -700 160/18G25 RMK AO2
94908KDBQ DBQ20101119060510711/19/10 06:05:31  5-MIN KDBQ 191205Z 17016G25KT 5SM BR FEW010 M02/M03 A2998 1030 88 -700 170/16G25 RMK AO2
94908KDBQ DBQ20101119061010411/19/10 06:10:31  5-MIN KDBQ 191210Z 18015G24KT 5SM BR CLR M02/M03 A2998 1020 92 -700 170/15G24 RMK AO2
94908KDBQ DBQ20101119061510411/19/10 06:15:31  5-MIN KDBQ 191215Z 19016G23KT 5SM BR CLR M02/M03 A2998 1020 92 -700 180/16G23 RMK AO2
94908KDBQ DBQ20101119062010411/19/10 06:20:31  5-MIN KDBQ 191220Z 19014G23KT 5SM BR CLR M02/M03 A2999 1020 92 -700 190/14G23 RMK AO2
94908KDBQ DBQ20101119062510411/19/10 06:25:31  5-MIN KDBQ 191225Z 19015G23KT 5SM BR CLR M02/M03 A2999 1010 92 -700 180/15G23 RMK AO2
94908KDBQ DBQ20101119063010711/19/10 06:30:31  5-MIN KDBQ 191230Z 19016G22KT 5SM BR FEW011 M02/M03 A2999 1020 92 -700 190/16G22 RMK AO2
94908KDBQ DBQ20101119063510711/19/10 06:35:31  5-MIN KDBQ 191235Z 19018G23KT 5SM BR FEW013 M01/M03 A2999 1020 88 -600 190/18G23 RMK AO2
94908KDBQ DBQ20101119064010711/19/10 06:40:31  5-MIN KDBQ 191240Z 19016G23KT 5SM BR SCT011 M01/M03 A2998 1020 88 -600 190/16G23 RMK AO2
94908KDBQ DBQ20101119064510711/19/10 06:45:31  5-MIN KDBQ 191245Z 18016G23KT 5SM BR SCT011 M01/M03 A2999 1020 88 -600 180/16G23 RMK AO2
94908KDBQ DBQ20101119065012411/19/10 06:50:31  5-MIN KDBQ 191250Z 18017G24KT 5SM BR SCT011 M01/M03 A2999 1010 88 -600 180/17G24 RMK AO2 SLP169 T10111028
94908KDBQ DBQ20101119065510711/19/10 06:55:31  5-MIN KDBQ 191255Z 18015G24KT 5SM BR SCT011 M01/M03 A2998 1020 88 -600 180/15G24 RMK AO2
94908KDBQ DBQ20101119070010711/19/10 07:00:31  5-MIN KDBQ 191300Z 18016G23KT 5SM BR SCT011 M01/M03 A2998 1030 88 -600 180/16G23 RMK AO2
94908KDBQ DBQ20101119070510711/19/10 07:05:31  5-MIN KDBQ 191305Z 18014G23KT 4SM BR FEW011 M01/M03 A2998 1030 88 -600 180/14G23 RMK AO2
94908KDBQ DBQ20101119071010711/19/10 07:10:31  5-MIN KDBQ 191310Z 19018G22KT 4SM BR FEW011 M01/M03 A2998 1020 88 -600 190/18G22 RMK AO2
94908KDBQ DBQ20101119071510711/19/10 07:15:31  5-MIN KDBQ 191315Z 18017G23KT 4SM BR SCT011 M01/M03 A2998 1030 88 -600 180/17G23 RMK AO2
94908KDBQ DBQ20101119072010711/19/10 07:20:31  5-MIN KDBQ 191320Z 18016G24KT 4SM BR SCT011 M01/M02 A2997 1030 92 -600 180/16G24 RMK AO2
94908KDBQ DBQ20101119072510711/19/10 07:25:31  5-MIN KDBQ 191325Z 18018G24KT 4SM BR SCT011 M01/M02 A2998 1030 92 -600 180/18G24 RMK AO2
94908KDBQ DBQ20101119073010711/19/10 07:30:31  5-MIN KDBQ 191330Z 18015G24KT 4SM BR SCT009 M01/M02 A2998 1030 92 -600 180/15G24 RMK AO2
94908KDBQ DBQ20101119073510711/19/10 07:35:31  5-MIN KDBQ 191335Z 19018G25KT 4SM BR SCT009 M01/M02 A2997 1030 92 -600 190/18G25 RMK AO2
94908KDBQ DBQ20101119074011911/19/10 07:40:31  5-MIN KDBQ 191340Z 19017G25KT 4SM BR BKN009 M01/M02 A2997 1030 92 -600 180/17G25 RMK AO2 CIG 008V012
94908KDBQ DBQ20101119074511911/19/10 07:45:31  5-MIN KDBQ 191345Z 19019G24KT 4SM BR BKN009 M01/M02 A2997 1030 92 -600 180/19G24 RMK AO2 CIG 008V012
94908KDBQ DBQ20101119075013611/19/10 07:50:31  5-MIN KDBQ 191350Z 18015G24KT 4SM BR BKN009 M01/M02 A2997 1030 88 -500 180/15G24 RMK AO2 CIG 007V012 SLP161 T10061022
94908KDBQ DBQ20101119075511911/19/10 07:55:31  5-MIN KDBQ 191355Z 18018G24KT 4SM BR BKN009 M01/M02 A2997 1030 88 -500 180/18G24 RMK AO2 CIG 007V012
94908KDBQ DBQ20101119080011911/19/10 08:00:31  5-MIN KDBQ 191400Z 19015G24KT 4SM BR BKN009 M01/M02 A2997 1030 92 -500 180/15G24 RMK AO2 CIG 007V012
94908KDBQ DBQ20101119080511911/19/10 08:05:31  5-MIN KDBQ 191405Z 19014G24KT 4SM BR OVC009 M01/M02 A2997 1030 92 -500 180/14G24 RMK AO2 CIG 007V012
94908KDBQ DBQ20101119081010711/19/10 08:10:31  5-MIN KDBQ 191410Z 19016G24KT 4SM BR OVC009 M01/M02 A2998 1030 92 -500 190/16G24 RMK AO2
94908KDBQ DBQ20101119081510711/19/10 08:15:31  5-MIN KDBQ 191415Z 19015G23KT 4SM BR OVC009 M01/M02 A2998 1030 92 -500 190/15G23 RMK AO2
94908KDBQ DBQ20101119082010711/19/10 08:20:31  5-MIN KDBQ 191420Z 19014G23KT 4SM BR OVC009 M01/M02 A2998 1030 92 -500 190/14G23 RMK AO2
94908KDBQ DBQ20101119082510611/19/10 08:25:31  5-MIN KDBQ 191425Z 19014G22KT 4SM BR OVC007 00/M02 A2998 1030 88 -500 180/14G22 RMK AO2
94908KDBQ DBQ20101119083010611/19/10 08:30:31  5-MIN KDBQ 191430Z 19013G22KT 4SM BR OVC007 00/M02 A2998 1020 88 -500 190/13G22 RMK AO2
94908KDBQ DBQ20101119083510611/19/10 08:35:31  5-MIN KDBQ 191435Z 19016G21KT 4SM BR OVC007 00/M01 A2998 1020 92 -500 190/16G21 RMK AO2
94908KDBQ DBQ20101119084010611/19/10 08:40:31  5-MIN KDBQ 191440Z 19013G22KT 4SM BR OVC007 00/M01 A2998 1020 92 -500 190/13G22 RMK AO2
94908KDBQ DBQ20101119084510611/19/10 08:45:31  5-MIN KDBQ 191445Z 19014G22KT 4SM BR OVC007 00/M01 A2998 1020 92 -500 190/14G22 RMK AO2
94908KDBQ DBQ20101119085012911/19/10 08:50:31  5-MIN KDBQ 191450Z 19013G21KT 4SM BR OVC007 00/M01 A2998 1020 92 -500 190/13G21 RMK AO2 SLP166 T00001011 58037
94908KDBQ DBQ20101119085510611/19/10 08:55:31  5-MIN KDBQ 191455Z 20013G20KT 4SM BR OVC007 01/M01 A2999 1020 89 -400 200/13G20 RMK AO2
94908KDBQ DBQ20101119090010011/19/10 09:00:31  5-MIN KDBQ 191500Z 20014KT 4SM BR OVC007 01/M01 A2999 1020 89 -400 200/14 RMK AO2
94908KDBQ DBQ20101119090510011/19/10 09:05:31  5-MIN KDBQ 191505Z 20014KT 4SM BR OVC007 01/M01 A2998 1020 92 -400 200/14 RMK AO2
94908KDBQ DBQ20101119091010611/19/10 09:10:31  5-MIN KDBQ 191510Z 20014G24KT 4SM BR OVC007 01/M01 A2998 1020 92 -400 200/14G24 RMK AO2
94908KDBQ DBQ20101119091510611/19/10 09:15:31  5-MIN KDBQ 191515Z 20015G24KT 4SM BR OVC007 01/M01 A2998 1030 89 -300 200/15G24 RMK AO2
94908KDBQ DBQ20101119092011811/19/10 09:20:31  5-MIN KDBQ 191520Z 20016G23KT 4SM BR OVC007 01/M01 A2997 1030 89 -300 200/16G23 RMK AO2 CIG 007V011
94908KDBQ DBQ20101119092511811/19/10 09:25:31  5-MIN KDBQ 191525Z 20016G23KT 4SM BR OVC007 01/M01 A2997 1030 89 -300 200/16G23 RMK AO2 CIG 007V013
94908KDBQ DBQ20101119093011311/19/10 09:30:31  5-MIN KDBQ 191530Z 20014G23KT 4SM BR BKN007 OVC012 01/M01 A2997 1030 89 -300 200/14G23 RMK AO2
94908KDBQ DBQ20101119093511211/19/10 09:35:31  5-MIN KDBQ 191535Z 20019G23KT 4SM BR BKN007 OVC012 01/00 A2997 1030 92 -300 200/19G23 RMK AO2
94908KDBQ DBQ20101119094011711/19/10 09:40:31  5-MIN KDBQ 191540Z 20015G23KT 5SM BR OVC009 02/00 A2997 1030 89 -200 190/15G23 RMK AO2 CIG 007V013
94908KDBQ DBQ20101119094511711/19/10 09:45:31  5-MIN KDBQ 191545Z 20014G25KT 5SM BR OVC009 02/00 A2997 1030 89 -200 200/14G25 RMK AO2 CIG 007V013
94908KDBQ DBQ20101119095013411/19/10 09:50:31  5-MIN KDBQ 191550Z 20015G25KT 5SM BR OVC009 02/00 A2997 1030 85 -200 200/15G25 RMK AO2 CIG 007V014 SLP160 T00220000
94908KDBQ DBQ20101119095511811/19/10 09:55:31  5-MIN KDBQ 191555Z 21015KT 5SM BR BKN009 OVC014 02/00 A2997 1030 85 -200 210/15 RMK AO2 CIG 008V013
94908KDBQ DBQ20101119100009911/19/10 10:00:31  5-MIN KDBQ 191600Z 21015KT 5SM BR OVC012 02/01 A2997 1030 89 -200 210/15 RMK AO2
94908KDBQ DBQ20101119100510611/19/10 10:05:31  5-MIN KDBQ 191605Z 21015KT 5SM BR BKN009 OVC014 02/01 A2997 1030 89 -200 210/15 RMK AO2
94908KDBQ DBQ20101119101011211/19/10 10:10:31  5-MIN KDBQ 191610Z 21016G22KT 5SM BR BKN009 OVC014 03/01 A2997 1040 85 -100 210/16G22 RMK AO2
94908KDBQ DBQ20101119101511211/19/10 10:15:31  5-MIN KDBQ 191615Z 21014G22KT 6SM BR BKN009 OVC014 03/01 A2997 1040 85 -100 210/14G22 RMK AO2
94908KDBQ DBQ20101119102010611/19/10 10:20:31  5-MIN KDBQ 191620Z 21014KT 6SM BR BKN009 OVC014 03/01 A2996 1040 85 -100 210/14 RMK AO2
94908KDBQ DBQ20101119102511211/19/10 10:25:31  5-MIN KDBQ 191625Z 21014KT 6SM BR BKN009 OVC014 03/01 A2996 1040 85 -100 210/14 RMK AO2 P0001
94908KDBQ DBQ20101119103010911/19/10 10:30:31  5-MIN KDBQ 191630Z 22015KT 6SM HZ BKN009 OVC014 03/01 A2996 1040 82 0 220/15 RMK AO2 P0001
94908KDBQ DBQ20101119103510911/19/10 10:35:31  5-MIN KDBQ 191635Z 21013KT 6SM HZ BKN009 OVC014 03/01 A2996 1040 82 0 210/13 RMK AO2 P0001
94908KDBQ DBQ20101119104011511/19/10 10:40:31  5-MIN KDBQ 191640Z 21016G21KT 6SM HZ BKN009 OVC014 03/01 A2996 1040 82 0 210/16G21 RMK AO2 P0001
94908KDBQ DBQ20101119104511211/19/10 10:45:31  5-MIN KDBQ 191645Z 22017G21KT 7SM BKN009 OVC014 04/01 A2995 1050 79 0 220/17G21 RMK AO2 P0001
94908KDBQ DBQ20101119105012311/19/10 10:50:31  5-MIN KDBQ 191650Z 22018KT 7SM BKN009 OVC014 04/01 A2995 1050 79 0 220/18 RMK AO2 SLP153 P0001 T00390006
94908KDBQ DBQ20101119105509311/19/10 10:55:31  5-MIN KDBQ 191655Z 23016KT 7SM OVC016 04/01 A2995 1050 79 0 220/16 RMK AO2
94908KDBQ DBQ20101119110009911/19/10 11:00:31  5-MIN KDBQ 191700Z 22014G22KT 7SM OVC016 04/01 A2995 1050 79 0 220/14G22 RMK AO2
94908KDBQ DBQ20101119110511711/19/10 11:05:31  5-MIN KDBQ 191705Z 22017G29KT 7SM OVC016 04/01 A2995 1050 79 0 220/17G29 RMK AO2 PK WND 22029/1702
94908KDBQ DBQ20101119111011711/19/10 11:10:31  5-MIN KDBQ 191710Z 22017G29KT 7SM OVC016 04/01 A2995 1050 79 0 220/17G29 RMK AO2 PK WND 22029/1702
94908KDBQ DBQ20101119111511111/19/10 11:15:31  5-MIN KDBQ 191715Z 23015KT 7SM BKN016 04/01 A2995 1050 79 0 230/15 RMK AO2 PK WND 22029/1702
94908KDBQ DBQ20101119112011311/19/10 11:20:31  5-MIN KDBQ 191720Z 23016KT 7SM BKN016 04/01 A2994 1060 76 100 230/16 RMK AO2 PK WND 22029/1702
94908KDBQ DBQ20101119112511911/19/10 11:25:31  5-MIN KDBQ 191725Z 21014G20KT 7SM BKN016 04/01 A2994 1060 76 100 210/14G20 RMK AO2 PK WND 22029/1702
94908KDBQ DBQ20101119113011911/19/10 11:30:31  5-MIN KDBQ 191730Z 23016G25KT 7SM BKN016 04/01 A2994 1060 76 100 220/16G25 RMK AO2 PK WND 22029/1702
94908KDBQ DBQ20101119113511911/19/10 11:35:31  5-MIN KDBQ 191735Z 22015G25KT 7SM BKN016 05/01 A2994 1060 76 100 210/15G25 RMK AO2 PK WND 22029/1702
94908KDBQ DBQ20101119114011311/19/10 11:40:31  5-MIN KDBQ 191740Z 22014KT 8SM BKN016 05/01 A2993 1070 73 200 220/14 RMK AO2 PK WND 22029/1702
94908KDBQ DBQ20101119114511911/19/10 11:45:31  5-MIN KDBQ 191745Z 23013G20KT 8SM SCT018 05/01 A2994 1060 73 100 230/13G20 RMK AO2 PK WND 22029/1702
94908KDBQ DBQ20101119115015411/19/10 11:50:31  5-MIN KDBQ 191750Z 22013KT 8SM SCT016 06/01 A2994 1060 73 200 220/13 RMK AO2 PK WND 22029/1702 SLP148 60001 T00560011 10056 21017 56016
94908KDBQ DBQ20101119115510111/19/10 11:55:31  5-MIN KDBQ 191755Z 23016KT 8SM BKN019 06/01 A2993 1070 73 200 230/16 RMK AO2 P0001
94908KDBQ DBQ20101119120010111/19/10 12:00:31  5-MIN KDBQ 191800Z 22016KT 8SM BKN021 06/01 A2993 1070 73 200 220/16 RMK AO2 P0001
94908KDBQ DBQ20101119120510111/19/10 12:05:31  5-MIN KDBQ 191805Z 23014KT 8SM BKN021 06/01 A2993 1070 73 200 230/14 RMK AO2 P0001
94908KDBQ DBQ20101119121010111/19/10 12:10:31  5-MIN KDBQ 191810Z 23012KT 8SM BKN021 05/01 A2993 1070 76 200 220/12 RMK AO2 P0001
94908KDBQ DBQ20101119121510711/19/10 12:15:31  5-MIN KDBQ 191815Z 22015G20KT 8SM OVC021 06/01 A2993 1070 73 200 220/15G20 RMK AO2 P0001
94908KDBQ DBQ20101119122010111/19/10 12:20:31  5-MIN KDBQ 191820Z 23013KT 8SM OVC021 06/01 A2993 1070 73 200 230/13 RMK AO2 P0001
94908KDBQ DBQ20101119122510111/19/10 12:25:31  5-MIN KDBQ 191825Z 24016KT 8SM OVC021 06/01 A2993 1070 70 200 230/16 RMK AO2 P0001
94908KDBQ DBQ20101119123010711/19/10 12:30:31  5-MIN KDBQ 191830Z 24016G21KT 8SM OVC021 06/01 A2993 1070 70 200 240/16G21 RMK AO2 P0001
94908KDBQ DBQ20101119123510111/19/10 12:35:31  5-MIN KDBQ 191835Z 24014KT 8SM OVC021 06/01 A2994 1060 70 200 230/14 RMK AO2 P0001
94908KDBQ DBQ20101119124010111/19/10 12:40:31  5-MIN KDBQ 191840Z 24016KT 8SM OVC021 06/01 A2993 1070 70 200 230/16 RMK AO2 P0001
94908KDBQ DBQ20101119124510111/19/10 12:45:31  5-MIN KDBQ 191845Z 24015KT 8SM OVC021 06/01 A2994 1060 70 200 240/15 RMK AO2 P0001
94908KDBQ DBQ20101119125011811/19/10 12:50:31  5-MIN KDBQ 191850Z 25014KT 8SM OVC021 06/01 A2993 1070 70 200 240/14 RMK AO2 SLP147 P0001 T00560006
94908KDBQ DBQ20101119125510111/19/10 12:55:31  5-MIN KDBQ 191855Z 24014G20KT 8SM OVC021 06/01 A2993 1070 73 200 240/14G20 RMK AO2
94908KDBQ DBQ20101119130009511/19/10 13:00:31  5-MIN KDBQ 191900Z 24014KT 8SM OVC021 06/01 A2994 1060 70 200 240/14 RMK AO2
94908KDBQ DBQ20101119130510111/19/10 13:05:31  5-MIN KDBQ 191905Z 25014G19KT 8SM OVC021 06/01 A2994 1060 73 200 250/14G19 RMK AO2
94908KDBQ DBQ20101119131010111/19/10 13:10:31  5-MIN KDBQ 191910Z 25016G19KT 8SM OVC021 06/01 A2993 1060 70 200 250/16G19 RMK AO2
94908KDBQ DBQ20101119131509511/19/10 13:15:31  5-MIN KDBQ 191915Z 25013KT 8SM OVC021 06/01 A2994 1060 70 200 250/13 RMK AO2
94908KDBQ DBQ20101119132009511/19/10 13:20:31  5-MIN KDBQ 191920Z 25013KT 8SM OVC021 06/01 A2994 1060 70 200 250/13 RMK AO2
94908KDBQ DBQ20101119132509511/19/10 13:25:31  5-MIN KDBQ 191925Z 25013KT 8SM OVC021 06/01 A2994 1060 70 200 250/13 RMK AO2
94908KDBQ DBQ20101119133009511/19/10 13:30:31  5-MIN KDBQ 191930Z 26014KT 8SM OVC021 06/01 A2994 1060 70 200 260/14 RMK AO2
94908KDBQ DBQ20101119133509511/19/10 13:35:31  5-MIN KDBQ 191935Z 25014KT 7SM OVC021 06/01 A2995 1060 70 200 250/14 RMK AO2
94908KDBQ DBQ20101119134009511/19/10 13:40:31  5-MIN KDBQ 191940Z 25011KT 7SM OVC021 06/01 A2995 1050 73 200 250/11 RMK AO2
94908KDBQ DBQ20101119134510111/19/10 13:45:31  5-MIN KDBQ 191945Z 25011G18KT 7SM OVC021 06/01 A2994 1060 70 200 250/11G18 RMK AO2
94908KDBQ DBQ20101119135011211/19/10 13:50:31  5-MIN KDBQ 191950Z 26012KT 7SM OVC021 06/01 A2994 1060 70 200 250/12 RMK AO2 SLP150 T00560006
94908KDBQ DBQ20101119135510111/19/10 13:55:31  5-MIN KDBQ 191955Z 26013G18KT 7SM OVC021 06/01 A2995 1050 73 200 260/13G18 RMK AO2
94908KDBQ DBQ20101119140010111/19/10 14:00:31  5-MIN KDBQ 192000Z 27014G18KT 7SM OVC021 06/01 A2995 1050 70 200 270/14G18 RMK AO2
94908KDBQ DBQ20101119140509511/19/10 14:05:31  5-MIN KDBQ 192005Z 26014KT 7SM OVC021 06/01 A2995 1050 70 200 260/14 RMK AO2
94908KDBQ DBQ20101119141009511/19/10 14:10:31  5-MIN KDBQ 192010Z 25012KT 7SM OVC021 06/01 A2994 1060 70 200 250/12 RMK AO2
94908KDBQ DBQ20101119141509511/19/10 14:15:31  5-MIN KDBQ 192015Z 25010KT 7SM OVC021 06/01 A2994 1060 73 200 250/10 RMK AO2
94908KDBQ DBQ20101119142009511/19/10 14:20:31  5-MIN KDBQ 192020Z 25014KT 7SM OVC021 06/01 A2994 1060 73 200 250/14 RMK AO2
94908KDBQ DBQ20101119142509511/19/10 14:25:31  5-MIN KDBQ 192025Z 26014KT 7SM OVC021 06/01 A2994 1060 73 200 260/14 RMK AO2
94908KDBQ DBQ20101119143009511/19/10 14:30:31  5-MIN KDBQ 192030Z 25012KT 7SM OVC021 06/01 A2994 1060 73 200 250/12 RMK AO2
94908KDBQ DBQ20101119143509511/19/10 14:35:31  5-MIN KDBQ 192035Z 26013KT 7SM OVC021 06/01 A2995 1050 70 300 260/13 RMK AO2
94908KDBQ DBQ20101119144009511/19/10 14:40:31  5-MIN KDBQ 192040Z 26012KT 7SM OVC021 06/01 A2995 1050 73 200 260/12 RMK AO2
94908KDBQ DBQ20101119144509511/19/10 14:45:31  5-MIN KDBQ 192045Z 26012KT 7SM OVC021 06/01 A2995 1050 73 200 260/12 RMK AO2
94908KDBQ DBQ20101119145012411/19/10 14:50:31  5-MIN KDBQ 192050Z 27013KT 7SM OVC021 06/01 A2996 1050 73 200 270/13 RMK AO2 SLP155 60001 T00560011 56012
94908KDBQ DBQ20101119145509511/19/10 14:55:31  5-MIN KDBQ 192055Z 27011KT 7SM OVC021 06/01 A2996 1050 73 200 270/11 RMK AO2
94908KDBQ DBQ20101119150009511/19/10 15:00:31  5-MIN KDBQ 192100Z 26009KT 7SM OVC021 06/01 A2996 1040 73 200 260/09 RMK AO2
94908KDBQ DBQ20101119150509511/19/10 15:05:31  5-MIN KDBQ 192105Z 27012KT 7SM OVC021 06/01 A2996 1040 73 200 270/12 RMK AO2
94908KDBQ DBQ20101119151009511/19/10 15:10:31  5-MIN KDBQ 192110Z 27010KT 7SM OVC021 06/01 A2996 1040 73 200 270/10 RMK AO2
94908KDBQ DBQ20101119151509511/19/10 15:15:31  5-MIN KDBQ 192115Z 25009KT 7SM OVC021 06/01 A2996 1040 73 200 250/09 RMK AO2
94908KDBQ DBQ20101119152009511/19/10 15:20:31  5-MIN KDBQ 192120Z 26010KT 7SM OVC021 06/01 A2996 1040 73 200 260/10 RMK AO2
94908KDBQ DBQ20101119152509511/19/10 15:25:31  5-MIN KDBQ 192125Z 27010KT 7SM OVC021 06/01 A2996 1040 73 200 270/10 RMK AO2
94908KDBQ DBQ20101119153009511/19/10 15:30:31  5-MIN KDBQ 192130Z 26010KT 7SM OVC021 06/01 A2997 1040 73 200 260/10 RMK AO2
94908KDBQ DBQ20101119153509511/19/10 15:35:31  5-MIN KDBQ 192135Z 26010KT 7SM OVC023 06/01 A2997 1040 73 200 260/10 RMK AO2
94908KDBQ DBQ20101119154009511/19/10 15:40:31  5-MIN KDBQ 192140Z 27009KT 7SM OVC023 06/01 A2997 1030 73 200 260/09 RMK AO2
94908KDBQ DBQ20101119154509511/19/10 15:45:31  5-MIN KDBQ 192145Z 26009KT 7SM OVC023 06/01 A2997 1030 73 200 260/09 RMK AO2
94908KDBQ DBQ20101119155011211/19/10 15:50:31  5-MIN KDBQ 192150Z 26009KT 7SM OVC023 06/01 A2997 1030 73 200 250/09 RMK AO2 SLP160 T00560011
94908KDBQ DBQ20101119155509511/19/10 15:55:31  5-MIN KDBQ 192155Z 26009KT 7SM OVC023 06/01 A2998 1030 73 200 260/09 RMK AO2
94908KDBQ DBQ20101119160009511/19/10 16:00:31  5-MIN KDBQ 192200Z 25010KT 7SM OVC023 06/01 A2998 1020 73 200 250/10 RMK AO2
94908KDBQ DBQ20101119160509511/19/10 16:05:31  5-MIN KDBQ 192205Z 26010KT 7SM OVC023 06/01 A2998 1020 73 200 260/10 RMK AO2
94908KDBQ DBQ20101119161009511/19/10 16:10:31  5-MIN KDBQ 192210Z 26009KT 7SM OVC021 06/01 A2999 1020 73 200 260/09 RMK AO2
94908KDBQ DBQ20101119161509511/19/10 16:15:31  5-MIN KDBQ 192215Z 25008KT 7SM OVC021 06/01 A2999 1020 73 200 250/08 RMK AO2
94908KDBQ DBQ20101119162009511/19/10 16:20:31  5-MIN KDBQ 192220Z 26008KT 7SM OVC021 06/01 A2999 1020 73 200 260/08 RMK AO2
94908KDBQ DBQ20101119162509511/19/10 16:25:31  5-MIN KDBQ 192225Z 26008KT 7SM OVC021 06/01 A2999 1010 73 200 260/08 RMK AO2
94908KDBQ DBQ20101119163009511/19/10 16:30:31  5-MIN KDBQ 192230Z 27008KT 7SM OVC021 06/01 A3000 1010 73 200 270/08 RMK AO2
94908KDBQ DBQ20101119163509511/19/10 16:35:31  5-MIN KDBQ 192235Z 28007KT 7SM OVC021 05/02 A3000 1000 79 100 280/07 RMK AO2
94908KDBQ DBQ20101119164009511/19/10 16:40:31  5-MIN KDBQ 192240Z 28010KT 7SM OVC021 05/01 A3001 1000 76 100 280/10 RMK AO2
94908KDBQ DBQ20101119164509511/19/10 16:45:31  5-MIN KDBQ 192245Z 29008KT 7SM OVC021 05/01 A3001 1000 76 100 290/08 RMK AO2
94908KDBQ DBQ20101119165011111/19/10 16:50:31  5-MIN KDBQ 192250Z 29009KT 8SM OVC019 05/01 A3001 990 76 100 280/09 RMK AO2 SLP174 T00500011
94908KDBQ DBQ20101119165509411/19/10 16:55:31  5-MIN KDBQ 192255Z 28007KT 8SM OVC019 05/01 A3001 990 76 100 280/07 RMK AO2
94908KDBQ DBQ20101119170009511/19/10 17:00:31  5-MIN KDBQ 192300Z 28009KT 8SM OVC019 05/01 A3001 1000 76 100 270/09 RMK AO2
94908KDBQ DBQ20101119170509511/19/10 17:05:31  5-MIN KDBQ 192305Z 28008KT 8SM OVC019 05/01 A3001 1000 76 100 270/08 RMK AO2
94908KDBQ DBQ20101119171009411/19/10 17:10:31  5-MIN KDBQ 192310Z 27009KT 8SM OVC019 05/01 A3001 990 76 100 270/09 RMK AO2
94908KDBQ DBQ20101119171509411/19/10 17:15:31  5-MIN KDBQ 192315Z 27009KT 9SM OVC019 05/01 A3002 990 76 100 270/09 RMK AO2
94908KDBQ DBQ20101119172009411/19/10 17:20:31  5-MIN KDBQ 192320Z 29009KT 9SM OVC019 05/01 A3001 990 76 100 290/09 RMK AO2
94908KDBQ DBQ20101119172509211/19/10 17:25:31  5-MIN KDBQ 192325Z 27008KT 8SM OVC019 04/01 A3002 990 79 0 270/08 RMK AO2
94908KDBQ DBQ20101119173009211/19/10 17:30:31  5-MIN KDBQ 192330Z 27007KT 8SM OVC019 04/01 A3002 990 79 0 270/07 RMK AO2
94908KDBQ DBQ20101119173509211/19/10 17:35:31  5-MIN KDBQ 192335Z 29008KT 8SM OVC019 04/01 A3002 990 79 0 280/08 RMK AO2
94908KDBQ DBQ20101119174009211/19/10 17:40:31  5-MIN KDBQ 192340Z 29009KT 8SM OVC019 04/01 A3003 980 79 0 290/09 RMK AO2
94908KDBQ DBQ20101119174509211/19/10 17:45:31  5-MIN KDBQ 192345Z 29009KT 8SM OVC019 04/01 A3003 980 79 0 290/09 RMK AO2
94908KDBQ DBQ20101119175013311/19/10 17:50:31  5-MIN KDBQ 192350Z 30007KT 9SM OVC019 04/01 A3003 980 79 0 290/07 RMK AO2 SLP180 60001 T00440011 10061 20044 53008
94908KDBQ DBQ20101119175509211/19/10 17:55:31  5-MIN KDBQ 192355Z 30008KT 9SM OVC019 04/01 A3003 980 79 0 300/08 RMK AO2
94908KDBQ DBQ20101119180009211/19/10 18:00:31  5-MIN KDBQ 200000Z 30007KT 9SM OVC019 04/01 A3003 970 79 0 300/07 RMK AO2
94908KDBQ DBQ20101119180509211/19/10 18:05:31  5-MIN KDBQ 200005Z 30006KT 9SM OVC019 04/01 A3004 970 79 0 300/06 RMK AO2
94908KDBQ DBQ20101119181009211/19/10 18:10:31  5-MIN KDBQ 200010Z 29007KT 9SM OVC019 04/01 A3004 970 79 0 290/07 RMK AO2
94908KDBQ DBQ20101119181509211/19/10 18:15:31  5-MIN KDBQ 200015Z 30006KT 9SM OVC019 04/01 A3004 970 79 0 300/06 RMK AO2
94908KDBQ DBQ20101119182009511/19/10 18:20:31  5-MIN KDBQ 200020Z 30006KT 8SM OVC019 04/01 A3004 970 79 -100 300/06 RMK AO2
94908KDBQ DBQ20101119182509511/19/10 18:25:31  5-MIN KDBQ 200025Z 30006KT 8SM BKN019 03/01 A3004 970 82 -100 300/06 RMK AO2
94908KDBQ DBQ20101119183009511/19/10 18:30:31  5-MIN KDBQ 200030Z 29007KT 8SM BKN019 04/01 A3004 970 79 -100 290/07 RMK AO2
94908KDBQ DBQ20101119183509211/19/10 18:35:31  5-MIN KDBQ 200035Z 29007KT 8SM OVC019 04/01 A3004 970 79 0 290/07 RMK AO2
94908KDBQ DBQ20101119184009511/19/10 18:40:31  5-MIN KDBQ 200040Z 29007KT 8SM OVC019 04/01 A3004 970 82 -100 290/07 RMK AO2
94908KDBQ DBQ20101119184509211/19/10 18:45:31  5-MIN KDBQ 200045Z 30005KT 8SM OVC019 04/01 A3004 970 79 0 290/05 RMK AO2
94908KDBQ DBQ20101119185011211/19/10 18:50:31  5-MIN KDBQ 200050Z 30006KT 8SM OVC021 04/01 A3004 970 82 -100 290/06 RMK AO2 SLP184 T00390011
94908KDBQ DBQ20101119185509511/19/10 18:55:31  5-MIN KDBQ 200055Z 30006KT 8SM OVC021 04/01 A3005 960 82 -100 300/06 RMK AO2
94908KDBQ DBQ20101119190009511/19/10 19:00:31  5-MIN KDBQ 200100Z 30006KT 8SM OVC021 03/01 A3004 970 82 -100 300/06 RMK AO2
94908KDBQ DBQ20101119190509511/19/10 19:05:31  5-MIN KDBQ 200105Z 31006KT 9SM OVC021 03/01 A3005 960 82 -100 300/06 RMK AO2
94908KDBQ DBQ20101119191009511/19/10 19:10:31  5-MIN KDBQ 200110Z 31006KT 9SM BKN021 03/00 A3005 960 82 -200 310/06 RMK AO2
94908KDBQ DBQ20101119191509511/19/10 19:15:31  5-MIN KDBQ 200115Z 31006KT 9SM BKN021 02/00 A3005 960 85 -300 300/06 RMK AO2
94908KDBQ DBQ20101119192009611/19/10 19:20:31  5-MIN KDBQ 200120Z 31005KT 9SM SCT021 02/M01 A3005 960 82 -300 310/05 RMK AO2
94908KDBQ DBQ20101119192509611/19/10 19:25:31  5-MIN KDBQ 200125Z 31006KT 9SM SCT021 02/M01 A3005 960 82 -300 310/06 RMK AO2
94908KDBQ DBQ20101119193009611/19/10 19:30:31  5-MIN KDBQ 200130Z 31006KT 9SM FEW021 02/M01 A3005 960 85 -300 310/06 RMK AO2
94908KDBQ DBQ20101119193509311/19/10 19:35:31  5-MIN KDBQ 200135Z 31006KT 9SM CLR 02/M01 A3005 960 85 -300 300/06 RMK AO2
94908KDBQ DBQ20101119194009611/19/10 19:40:31  5-MIN KDBQ 200140Z 30005KT 9SM FEW021 02/M01 A3005 950 82 -300 300/05 RMK AO2
94908KDBQ DBQ20101119194509611/19/10 19:45:31  5-MIN KDBQ 200145Z 31005KT 9SM FEW021 02/M01 A3005 950 85 -300 310/05 RMK AO2
94908KDBQ DBQ20101119195011311/19/10 19:50:31  5-MIN KDBQ 200150Z 30004KT 9SM FEW021 01/M01 A3006 950 89 -400 300/04 RMK AO2 SLP190 T00111006
94908KDBQ DBQ20101119195509611/19/10 19:55:31  5-MIN KDBQ 200155Z 30004KT 8SM SCT021 01/M01 A3006 950 89 -400 300/04 RMK AO2
94908KDBQ DBQ20101119200010111/19/10 20:00:31  5-MIN KDBQ 200200Z AUTO 29004KT 9SM SCT021 02/M01 A3007 940 85 -400 290/04 RMK AO2
94908KDBQ DBQ20101119200510111/19/10 20:05:31  5-MIN KDBQ 200205Z AUTO 30005KT 9SM BKN021 02/M01 A3007 940 82 -300 300/05 RMK AO2
94908KDBQ DBQ20101119201010111/19/10 20:10:31  5-MIN KDBQ 200210Z AUTO 30006KT 9SM BKN021 02/M01 A3007 940 82 -300 300/06 RMK AO2
94908KDBQ DBQ20101119201510111/19/10 20:15:31  5-MIN KDBQ 200215Z AUTO 32004KT 9SM BKN021 02/M01 A3007 940 82 -300 320/04 RMK AO2
94908KDBQ DBQ20101119202010111/19/10 20:20:31  5-MIN KDBQ 200220Z AUTO 33004KT 9SM OVC019 02/M01 A3008 930 82 -300 320/04 RMK AO2
94908KDBQ DBQ20101119202510011/19/10 20:25:31  5-MIN KDBQ 200225Z AUTO 34004KT 9SM OVC019 02/00 A3008 930 85 -300 340/04 RMK AO2
94908KDBQ DBQ20101119203010011/19/10 20:30:31  5-MIN KDBQ 200230Z AUTO 34007KT 9SM OVC019 03/00 A3007 940 82 -200 340/07 RMK AO2
94908KDBQ DBQ20101119203510011/19/10 20:35:31  5-MIN KDBQ 200235Z AUTO 34008KT 9SM OVC017 02/00 A3007 940 85 -300 340/08 RMK AO2
94908KDBQ DBQ20101119204010111/19/10 20:40:31  5-MIN KDBQ 200240Z AUTO 36007KT 9SM OVC017 02/M01 A3008 930 85 -400 350/07 RMK AO2
94908KDBQ DBQ20101119204510111/19/10 20:45:31  5-MIN KDBQ 200245Z AUTO 36007KT 8SM OVC017 02/M01 A3008 930 85 -400 360/07 RMK AO2
94908KDBQ DBQ20101119205012411/19/10 20:50:31  5-MIN KDBQ 200250Z AUTO 36006KT 8SM BKN017 02/M01 A3008 930 82 -300 360/06 RMK AO2 SLP196 T00221006 51024
94908KDBQ DBQ20101119205510111/19/10 20:55:31  5-MIN KDBQ 200255Z AUTO 35006KT 8SM BKN017 02/M01 A3008 930 85 -400 350/06 RMK AO2
94908KDBQ DBQ20101119210010111/19/10 21:00:31  5-MIN KDBQ 200300Z AUTO 35006KT 9SM SCT017 01/M01 A3009 920 85 -500 340/06 RMK AO2
94908KDBQ DBQ20101119210510111/19/10 21:05:31  5-MIN KDBQ 200305Z AUTO 34005KT 8SM FEW017 01/M01 A3009 930 85 -500 340/05 RMK AO2
94908KDBQ DBQ20101119211010111/19/10 21:10:31  5-MIN KDBQ 200310Z AUTO 36006KT 8SM FEW017 01/M01 A3008 930 85 -400 360/06 RMK AO2
94908KDBQ DBQ20101119211509811/19/10 21:15:31  5-MIN KDBQ 200315Z AUTO 36005KT 8SM CLR 01/M01 A3009 920 85 -500 360/05 RMK AO2
94908KDBQ DBQ20101119212009811/19/10 21:20:31  5-MIN KDBQ 200320Z AUTO 35005KT 8SM CLR 01/M01 A3009 920 85 -500 350/05 RMK AO2
94908KDBQ DBQ20101119212509811/19/10 21:25:31  5-MIN KDBQ 200325Z AUTO 35005KT 8SM CLR 01/M01 A3009 920 85 -500 350/05 RMK AO2
94908KDBQ DBQ20101119213009811/19/10 21:30:31  5-MIN KDBQ 200330Z AUTO 35006KT 8SM CLR 01/M01 A3009 920 85 -500 350/06 RMK AO2
94908KDBQ DBQ20101119213509811/19/10 21:35:31  5-MIN KDBQ 200335Z AUTO 35008KT 9SM CLR 01/M02 A3009 920 82 -500 340/08 RMK AO2
94908KDBQ DBQ20101119214009811/19/10 21:40:31  5-MIN KDBQ 200340Z AUTO 34009KT 8SM CLR 01/M02 A3010 920 85 -500 340/09 RMK AO2
94908KDBQ DBQ20101119214509811/19/10 21:45:31  5-MIN KDBQ 200345Z AUTO 35009KT 8SM CLR 01/M01 A3009 920 89 -500 350/09 RMK AO2
94908KDBQ DBQ20101119215011511/19/10 21:50:31  5-MIN KDBQ 200350Z AUTO 35010KT 8SM CLR 01/M01 A3010 920 85 -500 350/10 RMK AO2 SLP203 T00111011
94908KDBQ DBQ20101119215509811/19/10 21:55:31  5-MIN KDBQ 200355Z AUTO 35011KT 8SM CLR 01/M01 A3010 910 85 -500 350/11 RMK AO2
94908KDBQ DBQ20101119220009811/19/10 22:00:31  5-MIN KDBQ 200400Z AUTO 35010KT 8SM CLR 01/M01 A3010 910 85 -500 350/10 RMK AO2
94908KDBQ DBQ20101119220509811/19/10 22:05:31  5-MIN KDBQ 200405Z AUTO 35011KT 8SM CLR 01/M01 A3010 910 85 -500 350/11 RMK AO2
94908KDBQ DBQ20101119221009811/19/10 22:10:31  5-MIN KDBQ 200410Z AUTO 34011KT 8SM CLR 01/M01 A3010 910 85 -500 340/11 RMK AO2
94908KDBQ DBQ20101119221509811/19/10 22:15:31  5-MIN KDBQ 200415Z AUTO 34010KT 8SM CLR 01/M01 A3010 910 85 -500 340/10 RMK AO2
94908KDBQ DBQ20101119222009811/19/10 22:20:31  5-MIN KDBQ 200420Z AUTO 34010KT 8SM CLR 01/M01 A3010 910 85 -500 340/10 RMK AO2
94908KDBQ DBQ20101119222509811/19/10 22:25:31  5-MIN KDBQ 200425Z AUTO 34010KT 8SM CLR 01/M01 A3011 910 85 -500 340/10 RMK AO2
94908KDBQ DBQ20101119223009811/19/10 22:30:31  5-MIN KDBQ 200430Z AUTO 34009KT 8SM CLR 01/M01 A3011 910 85 -500 340/09 RMK AO2
94908KDBQ DBQ20101119223509811/19/10 22:35:31  5-MIN KDBQ 200435Z AUTO 34010KT 8SM CLR 01/M01 A3011 900 85 -500 340/10 RMK AO2
94908KDBQ DBQ20101119224009811/19/10 22:40:31  5-MIN KDBQ 200440Z AUTO 34010KT 8SM CLR 01/M01 A3011 900 89 -500 340/10 RMK AO2
94908KDBQ DBQ20101119224509811/19/10 22:45:31  5-MIN KDBQ 200445Z AUTO 34009KT 7SM CLR 01/M01 A3012 900 89 -600 340/09 RMK AO2
94908KDBQ DBQ20101119225011511/19/10 22:50:31  5-MIN KDBQ 200450Z AUTO 34008KT 7SM CLR 01/M01 A3012 900 89 -600 340/08 RMK AO2 SLP209 T00061011
94908KDBQ DBQ20101119225509811/19/10 22:55:31  5-MIN KDBQ 200455Z AUTO 35009KT 7SM CLR 01/M01 A3012 900 89 -600 340/09 RMK AO2
94908KDBQ DBQ20101119230009811/19/10 23:00:31  5-MIN KDBQ 200500Z AUTO 34008KT 7SM CLR 01/M01 A3012 900 89 -600 340/08 RMK AO2
94908KDBQ DBQ20101119230509811/19/10 23:05:31  5-MIN KDBQ 200505Z AUTO 34009KT 7SM CLR 01/M01 A3012 900 89 -600 340/09 RMK AO2
94908KDBQ DBQ20101119231009811/19/10 23:10:31  5-MIN KDBQ 200510Z AUTO 35010KT 8SM CLR 00/M02 A3012 890 88 -600 350/10 RMK AO2
94908KDBQ DBQ20101119231509811/19/10 23:15:31  5-MIN KDBQ 200515Z AUTO 35010KT 8SM CLR 00/M02 A3012 890 88 -600 350/10 RMK AO2
94908KDBQ DBQ20101119232009811/19/10 23:20:31  5-MIN KDBQ 200520Z AUTO 35010KT 8SM CLR 00/M02 A3012 890 88 -600 350/10 RMK AO2
94908KDBQ DBQ20101119232509811/19/10 23:25:31  5-MIN KDBQ 200525Z AUTO 35010KT 8SM CLR 00/M02 A3012 890 85 -600 350/10 RMK AO2
94908KDBQ DBQ20101119233009811/19/10 23:30:31  5-MIN KDBQ 200530Z AUTO 35009KT 8SM CLR 00/M02 A3012 890 85 -600 350/09 RMK AO2
94908KDBQ DBQ20101119233509811/19/10 23:35:31  5-MIN KDBQ 200535Z AUTO 35007KT 9SM CLR 00/M02 A3013 890 85 -600 350/07 RMK AO2
94908KDBQ DBQ20101119234009911/19/10 23:40:31  5-MIN KDBQ 200540Z AUTO 36007KT 9SM CLR M01/M02 A3013 890 88 -700 360/07 RMK AO2
94908KDBQ DBQ20101119234509911/19/10 23:45:31  5-MIN KDBQ 200545Z AUTO 36007KT 9SM CLR M01/M02 A3013 880 88 -700 360/07 RMK AO2
94908KDBQ DBQ20101119235014411/19/10 23:50:31  5-MIN KDBQ 200550Z AUTO 36008KT 9SM CLR M01/M03 A3013 880 85 -700 360/08 RMK AO2 SLP214 T10061028 10044 21006 400611022 53017
94908KDBQ DBQ20101119235509911/19/10 23:55:31  5-MIN KDBQ 200555Z AUTO 36007KT 9SM CLR M01/M03 A3014 880 85 -700 360/07 RMK AO2
94908KDBQ DBQ20101120000009911/20/10 00:00:38  5-MIN KDBQ 200600Z AUTO 36006KT 9SM CLR M01/M03 A3014 870 85 -700 360/06 RMK AO2
94908KDBQ DBQ20101120000510011/20/10 00:05:31  5-MIN KDBQ 200605Z AUTO 36007KT 10SM CLR M01/M03 A3014 870 85 -700 360/07 RMK AO2
94908KDBQ DBQ20101120001010011/20/10 00:10:31  5-MIN KDBQ 200610Z AUTO 01008KT 10SM CLR M01/M03 A3014 880 85 -700 010/08 RMK AO2
94908KDBQ DBQ20101120001510011/20/10 00:15:32  5-MIN KDBQ 200615Z AUTO 01007KT 10SM CLR M01/M03 A3014 880 85 -700 010/07 RMK AO2
94908KDBQ DBQ20101120002010011/20/10 00:20:31  5-MIN KDBQ 200620Z AUTO 01008KT 10SM CLR M01/M03 A3014 870 85 -700 360/08 RMK AO2
94908KDBQ DBQ20101120002510011/20/10 00:25:31  5-MIN KDBQ 200625Z AUTO 36008KT 10SM CLR M01/M03 A3014 870 85 -800 360/08 RMK AO2
94908KDBQ DBQ20101120003010011/20/10 00:30:31  5-MIN KDBQ 200630Z AUTO 36012KT 10SM CLR M01/M03 A3014 870 85 -800 360/12 RMK AO2
94908KDBQ DBQ20101120003510011/20/10 00:35:31  5-MIN KDBQ 200635Z AUTO 36012KT 10SM CLR M01/M03 A3014 870 85 -800 360/12 RMK AO2
94908KDBQ DBQ20101120004010011/20/10 00:40:31  5-MIN KDBQ 200640Z AUTO 36013KT 10SM CLR M01/M03 A3014 880 85 -800 360/13 RMK AO2
94908KDBQ DBQ20101120004510011/20/10 00:45:31  5-MIN KDBQ 200645Z AUTO 36012KT 10SM CLR M01/M03 A3014 880 85 -800 360/12 RMK AO2
94908KDBQ DBQ20101120005011711/20/10 00:50:31  5-MIN KDBQ 200650Z AUTO 36013KT 10SM CLR M01/M03 A3014 870 85 -800 360/13 RMK AO2 SLP217 T10111033
94908KDBQ DBQ20101120005510011/20/10 00:55:31  5-MIN KDBQ 200655Z AUTO 01011KT 10SM CLR M01/M03 A3015 870 85 -800 360/11 RMK AO2
94908KDBQ DBQ20101120010010011/20/10 01:00:31  5-MIN KDBQ 200700Z AUTO 01013KT 10SM CLR M01/M03 A3015 870 85 -800 010/13 RMK AO2
94908KDBQ DBQ20101120010510011/20/10 01:05:31  5-MIN KDBQ 200705Z AUTO 01011KT 10SM CLR M01/M03 A3015 870 85 -800 010/11 RMK AO2
94908KDBQ DBQ20101120011010011/20/10 01:10:31  5-MIN KDBQ 200710Z AUTO 01010KT 10SM CLR M02/M04 A3015 870 85 -900 010/10 RMK AO2
94908KDBQ DBQ20101120011510011/20/10 01:15:31  5-MIN KDBQ 200715Z AUTO 01010KT 10SM CLR M02/M04 A3014 870 85 -900 010/10 RMK AO2
94908KDBQ DBQ20101120012010011/20/10 01:20:31  5-MIN KDBQ 200720Z AUTO 01011KT 10SM CLR M02/M04 A3014 870 85 -900 010/11 RMK AO2
94908KDBQ DBQ20101120012510011/20/10 01:25:31  5-MIN KDBQ 200725Z AUTO 02011KT 10SM CLR M02/M04 A3015 870 85 -900 020/11 RMK AO2
94908KDBQ DBQ20101120013010011/20/10 01:30:31  5-MIN KDBQ 200730Z AUTO 02011KT 10SM CLR M01/M04 A3015 870 81 -800 010/11 RMK AO2
94908KDBQ DBQ20101120013510011/20/10 01:35:31  5-MIN KDBQ 200735Z AUTO 02010KT 10SM CLR M02/M04 A3015 870 85 -900 010/10 RMK AO2
94908KDBQ DBQ20101120014010011/20/10 01:40:31  5-MIN KDBQ 200740Z AUTO 01011KT 10SM CLR M02/M04 A3015 870 81 -900 010/11 RMK AO2
94908KDBQ DBQ20101120014510011/20/10 01:45:31  5-MIN KDBQ 200745Z AUTO 01010KT 10SM CLR M02/M04 A3015 860 81 -900 010/10 RMK AO2
94908KDBQ DBQ20101120015011711/20/10 01:50:31  5-MIN KDBQ 200750Z AUTO 01010KT 10SM CLR M02/M04 A3015 860 81 -900 010/10 RMK AO2 SLP221 T10171044
94908KDBQ DBQ20101120015510011/20/10 01:55:31  5-MIN KDBQ 200755Z AUTO 01012KT 10SM CLR M02/M04 A3016 860 81 -900 010/12 RMK AO2
94908KDBQ DBQ20101120020010011/20/10 02:00:31  5-MIN KDBQ 200800Z AUTO 01012KT 10SM CLR M02/M04 A3016 860 81 -900 010/12 RMK AO2
94908KDBQ DBQ20101120020510011/20/10 02:05:31  5-MIN KDBQ 200805Z AUTO 01011KT 10SM CLR M02/M04 A3016 860 81 -900 010/11 RMK AO2
94908KDBQ DBQ20101120021010011/20/10 02:10:31  5-MIN KDBQ 200810Z AUTO 01011KT 10SM CLR M02/M04 A3016 860 81 -900 010/11 RMK AO2
94908KDBQ DBQ20101120021510011/20/10 02:15:31  5-MIN KDBQ 200815Z AUTO 01010KT 10SM CLR M02/M04 A3016 860 81 -900 010/10 RMK AO2
94908KDBQ DBQ20101120022010011/20/10 02:20:31  5-MIN KDBQ 200820Z AUTO 01010KT 10SM CLR M02/M04 A3016 860 81 -900 010/10 RMK AO2
94908KDBQ DBQ20101120022510011/20/10 02:25:31  5-MIN KDBQ 200825Z AUTO 01012KT 10SM CLR M02/M04 A3016 860 81 -900 010/12 RMK AO2
94908KDBQ DBQ20101120023010011/20/10 02:30:31  5-MIN KDBQ 200830Z AUTO 01011KT 10SM CLR M02/M04 A3016 860 81 -900 010/11 RMK AO2
94908KDBQ DBQ20101120023510011/20/10 02:35:31  5-MIN KDBQ 200835Z AUTO 02011KT 10SM CLR M02/M05 A3016 860 78 -900 010/11 RMK AO2
94908KDBQ DBQ20101120024010011/20/10 02:40:31  5-MIN KDBQ 200840Z AUTO 02011KT 10SM CLR M02/M05 A3016 860 78 -900 010/11 RMK AO2
94908KDBQ DBQ20101120024510111/20/10 02:45:31  5-MIN KDBQ 200845Z AUTO 02011KT 10SM CLR M02/M05 A3016 860 81 -1000 020/11 RMK AO2
94908KDBQ DBQ20101120025012311/20/10 02:50:31  5-MIN KDBQ 200850Z AUTO 01012KT 10SM CLR M02/M05 A3016 860 78 -900 010/12 RMK AO2 SLP223 T10171050 53018
94908KDBQ DBQ20101120025510111/20/10 02:55:31  5-MIN KDBQ 200855Z AUTO 01011KT 10SM CLR M02/M05 A3016 860 81 -1000 010/11 RMK AO2
94908KDBQ DBQ20101120030010011/20/10 03:00:31  5-MIN KDBQ 200900Z AUTO 01012KT 10SM CLR M02/M05 A3016 850 78 -900 010/12 RMK AO2
94908KDBQ DBQ20101120030510011/20/10 03:05:31  5-MIN KDBQ 200905Z AUTO 01012KT 10SM CLR M02/M05 A3016 850 78 -900 010/12 RMK AO2
94908KDBQ DBQ20101120031010011/20/10 03:10:31  5-MIN KDBQ 200910Z AUTO 02013KT 10SM CLR M02/M05 A3016 850 78 -900 020/13 RMK AO2
94908KDBQ DBQ20101120031510111/20/10 03:15:31  5-MIN KDBQ 200915Z AUTO 02012KT 10SM CLR M02/M05 A3016 860 81 -1000 010/12 RMK AO2
94908KDBQ DBQ20101120032010111/20/10 03:20:31  5-MIN KDBQ 200920Z AUTO 01008KT 10SM CLR M02/M05 A3017 850 81 -1000 010/08 RMK AO2
94908KDBQ DBQ20101120032510711/20/10 03:25:31  5-MIN KDBQ 200925Z AUTO 01010G17KT 10SM CLR M02/M05 A3017 850 81 -1000 010/10G17 RMK AO2
94908KDBQ DBQ20101120033010611/20/10 03:30:31  5-MIN KDBQ 200930Z AUTO 02013G19KT 10SM CLR M02/M05 A3017 850 78 -900 010/13G19 RMK AO2
94908KDBQ DBQ20101120033512311/20/10 03:35:31  5-MIN KDBQ 200935Z AUTO 22011G19KT 220V290 10SM CLR M02/M05 A3017 850 81 -1000 220/11G19 220V290 RMK AO2
94908KDBQ DBQ20101120034009311/20/10 03:40:31  5-MIN KDBQ 200940Z AUTO 10SM CLR M02/M05 A3017 850 81 -1000 M /M RMK AO2 $
94908KDBQ DBQ20101120034509311/20/10 03:45:31  5-MIN KDBQ 200945Z AUTO 10SM CLR M02/M05 A3017 850 81 -1000 M /M RMK AO2 $
94908KDBQ DBQ20101120035014211/20/10 03:50:31  5-MIN KDBQ 200950Z AUTO 02013G27KT 320V030 10SM CLR M02/M06 A3017 850 78 -1000 020/13G27 320V030 RMK AO2 SLP228 T10221056 $
94908KDBQ DBQ20101120035510911/20/10 03:55:31  5-MIN KDBQ 200955Z AUTO 02014G24KT 10SM CLR M02/M06 A3017 850 78 -1000 020/14G24 RMK AO2 $
94908KDBQ DBQ20101120040010311/20/10 04:00:31  5-MIN KDBQ 201000Z AUTO 02014KT 10SM CLR M02/M06 A3017 850 78 -1000 020/14 RMK AO2 $
94908KDBQ DBQ20101120040510111/20/10 04:05:31  5-MIN KDBQ 201005Z AUTO 02014KT 10SM CLR M02/M06 A3017 850 78 -1000 020/14 RMK AO2
94908KDBQ DBQ20101120041010111/20/10 04:10:31  5-MIN KDBQ 201010Z AUTO 02013KT 10SM CLR M02/M06 A3017 850 78 -1000 020/13 RMK AO2
94908KDBQ DBQ20101120041510111/20/10 04:15:31  5-MIN KDBQ 201015Z AUTO 02014KT 10SM CLR M02/M06 A3017 850 78 -1000 020/14 RMK AO2
94908KDBQ DBQ20101120042010111/20/10 04:20:31  5-MIN KDBQ 201020Z AUTO 02015KT 10SM CLR M02/M06 A3017 850 78 -1000 020/15 RMK AO2
94908KDBQ DBQ20101120042510111/20/10 04:25:31  5-MIN KDBQ 201025Z AUTO 02013KT 10SM CLR M02/M06 A3017 850 78 -1000 020/13 RMK AO2
94908KDBQ DBQ20101120043010111/20/10 04:30:31  5-MIN KDBQ 201030Z AUTO 02015KT 10SM CLR M02/M06 A3017 850 78 -1000 020/15 RMK AO2
94908KDBQ DBQ20101120043510111/20/10 04:35:31  5-MIN KDBQ 201035Z AUTO 02014KT 10SM CLR M02/M06 A3018 840 78 -1000 020/14 RMK AO2
94908KDBQ DBQ20101120044010111/20/10 04:40:31  5-MIN KDBQ 201040Z AUTO 02014KT 10SM CLR M02/M06 A3017 850 78 -1000 020/14 RMK AO2
94908KDBQ DBQ20101120044510111/20/10 04:45:31  5-MIN KDBQ 201045Z AUTO 03013KT 10SM CLR M02/M06 A3017 840 78 -1000 030/13 RMK AO2
94908KDBQ DBQ20101120045011811/20/10 04:50:31  5-MIN KDBQ 201050Z AUTO 03011KT 10SM CLR M02/M06 A3018 840 78 -1000 030/11 RMK AO2 SLP230 T10221056
94908KDBQ DBQ20101120045510111/20/10 04:55:31  5-MIN KDBQ 201055Z AUTO 03011KT 10SM CLR M02/M06 A3018 840 78 -1000 030/11 RMK AO2
94908KDBQ DBQ20101120050010111/20/10 05:00:31  5-MIN KDBQ 201100Z AUTO 03012KT 10SM CLR M02/M06 A3018 840 78 -1000 030/12 RMK AO2
94908KDBQ DBQ20101120050510111/20/10 05:05:31  5-MIN KDBQ 201105Z AUTO 03011KT 10SM CLR M02/M06 A3018 840 78 -1000 030/11 RMK AO2
94908KDBQ DBQ20101120051010111/20/10 05:10:31  5-MIN KDBQ 201110Z AUTO 03012KT 10SM CLR M02/M06 A3018 840 78 -1000 030/12 RMK AO2
94908KDBQ DBQ20101120051510111/20/10 05:15:31  5-MIN KDBQ 201115Z AUTO 03013KT 10SM CLR M02/M06 A3018 840 78 -1000 030/13 RMK AO2
94908KDBQ DBQ20101120052010111/20/10 05:20:31  5-MIN KDBQ 201120Z AUTO 03011KT 10SM CLR M02/M06 A3019 830 78 -1000 030/11 RMK AO2
94908KDBQ DBQ20101120052510111/20/10 05:25:31  5-MIN KDBQ 201125Z AUTO 03012KT 10SM CLR M02/M06 A3019 830 78 -1000 030/12 RMK AO2
94908KDBQ DBQ20101120053010111/20/10 05:30:31  5-MIN KDBQ 201130Z AUTO 03012KT 10SM CLR M02/M06 A3019 830 75 -1000 030/12 RMK AO2
94908KDBQ DBQ20101120053510111/20/10 05:35:31  5-MIN KDBQ 201135Z AUTO 03013KT 10SM CLR M02/M06 A3019 830 75 -1000 020/13 RMK AO2
94908KDBQ DBQ20101120054010111/20/10 05:40:31  5-MIN KDBQ 201140Z AUTO 03013KT 10SM CLR M02/M06 A3019 830 75 -1000 030/13 RMK AO2
94908KDBQ DBQ20101120054510111/20/10 05:45:31  5-MIN KDBQ 201145Z AUTO 03011KT 10SM CLR M02/M06 A3019 830 75 -1000 030/11 RMK AO2
94908KDBQ DBQ20101120055014211/20/10 05:50:31  5-MIN KDBQ 201150Z AUTO 03010KT 10SM CLR M02/M06 A3020 820 75 -1000 030/10 RMK AO2 SLP237 70002 T10221061 11006 21022 51007
94908KDBQ DBQ20101120055509611/20/10 05:55:31  5-MIN KDBQ 201155Z 03011KT 10SM CLR M02/M06 A3020 820 75 -1000 030/11 RMK AO2
94908KDBQ DBQ20101120060009611/20/10 06:00:31  5-MIN KDBQ 201200Z 03011KT 10SM CLR M02/M06 A3020 820 75 -1000 030/11 RMK AO2
94908KDBQ DBQ20101120060509611/20/10 06:05:31  5-MIN KDBQ 201205Z 03011KT 10SM CLR M02/M06 A3021 820 75 -1000 020/11 RMK AO2
94908KDBQ DBQ20101120061009611/20/10 06:10:31  5-MIN KDBQ 201210Z 03011KT 10SM CLR M02/M06 A3021 810 75 -1000 030/11 RMK AO2
94908KDBQ DBQ20101120061509611/20/10 06:15:31  5-MIN KDBQ 201215Z 03011KT 10SM CLR M03/M06 A3021 810 78 -1100 030/11 RMK AO2
94908KDBQ DBQ20101120062009611/20/10 06:20:31  5-MIN KDBQ 201220Z 03010KT 10SM CLR M02/M06 A3021 810 75 -1000 030/10 RMK AO2
94908KDBQ DBQ20101120062509611/20/10 06:25:31  5-MIN KDBQ 201225Z 03010KT 10SM CLR M03/M06 A3022 810 78 -1100 030/10 RMK AO2
94908KDBQ DBQ20101120063009611/20/10 06:30:31  5-MIN KDBQ 201230Z 03011KT 10SM CLR M03/M07 A3022 800 75 -1100 030/11 RMK AO2
94908KDBQ DBQ20101120063509611/20/10 06:35:31  5-MIN KDBQ 201235Z 03012KT 10SM CLR M03/M07 A3022 800 75 -1100 030/12 RMK AO2
94908KDBQ DBQ20101120064009611/20/10 06:40:31  5-MIN KDBQ 201240Z 04010KT 10SM CLR M03/M07 A3022 800 75 -1100 040/10 RMK AO2
94908KDBQ DBQ20101120064509611/20/10 06:45:31  5-MIN KDBQ 201245Z 04010KT 10SM CLR M03/M07 A3023 790 75 -1100 030/10 RMK AO2
94908KDBQ DBQ20101120065011311/20/10 06:50:31  5-MIN KDBQ 201250Z 04009KT 10SM CLR M03/M07 A3023 790 75 -1100 040/09 RMK AO2 SLP250 T10281067
94908KDBQ DBQ20101120065509611/20/10 06:55:31  5-MIN KDBQ 201255Z 03009KT 10SM CLR M03/M07 A3023 790 75 -1100 030/09 RMK AO2
94908KDBQ DBQ20101120070009611/20/10 07:00:31  5-MIN KDBQ 201300Z 04011KT 10SM CLR M03/M07 A3023 790 75 -1100 040/11 RMK AO2
94908KDBQ DBQ20101120070509611/20/10 07:05:31  5-MIN KDBQ 201305Z 04012KT 10SM CLR M03/M07 A3024 790 71 -1100 040/12 RMK AO2
94908KDBQ DBQ20101120071009611/20/10 07:10:31  5-MIN KDBQ 201310Z 04011KT 10SM CLR M03/M07 A3024 790 71 -1100 040/11 RMK AO2
94908KDBQ DBQ20101120071509611/20/10 07:15:31  5-MIN KDBQ 201315Z 04010KT 10SM CLR M03/M07 A3024 780 71 -1100 040/10 RMK AO2
94908KDBQ DBQ20101120072009611/20/10 07:20:31  5-MIN KDBQ 201320Z 04011KT 10SM CLR M03/M07 A3024 780 71 -1100 040/11 RMK AO2
94908KDBQ DBQ20101120072509611/20/10 07:25:31  5-MIN KDBQ 201325Z 04010KT 10SM CLR M03/M07 A3024 780 71 -1100 030/10 RMK AO2
94908KDBQ DBQ20101120073009611/20/10 07:30:31  5-MIN KDBQ 201330Z 04010KT 10SM CLR M03/M07 A3024 780 71 -1100 040/10 RMK AO2
94908KDBQ DBQ20101120073509611/20/10 07:35:31  5-MIN KDBQ 201335Z 04010KT 10SM CLR M03/M07 A3024 780 71 -1100 040/10 RMK AO2
94908KDBQ DBQ20101120074009611/20/10 07:40:31  5-MIN KDBQ 201340Z 04009KT 10SM CLR M03/M07 A3024 780 71 -1100 040/09 RMK AO2
94908KDBQ DBQ20101120074509611/20/10 07:45:31  5-MIN KDBQ 201345Z 04010KT 10SM CLR M03/M07 A3025 780 71 -1100 040/10 RMK AO2
94908KDBQ DBQ20101120075011311/20/10 07:50:31  5-MIN KDBQ 201350Z 04009KT 10SM CLR M03/M07 A3025 780 71 -1100 040/09 RMK AO2 SLP257 T10281072
94908KDBQ DBQ20101120075509611/20/10 07:55:31  5-MIN KDBQ 201355Z 05008KT 10SM CLR M03/M07 A3025 770 71 -1100 040/08 RMK AO2
94908KDBQ DBQ20101120080009611/20/10 08:00:31  5-MIN KDBQ 201400Z 05008KT 10SM CLR M03/M07 A3026 770 71 -1100 050/08 RMK AO2
94908KDBQ DBQ20101120080509611/20/10 08:05:31  5-MIN KDBQ 201405Z 04008KT 10SM CLR M03/M07 A3026 770 71 -1100 040/08 RMK AO2
94908KDBQ DBQ20101120081009611/20/10 08:10:31  5-MIN KDBQ 201410Z 04009KT 10SM CLR M03/M07 A3026 770 71 -1100 040/09 RMK AO2
94908KDBQ DBQ20101120081509611/20/10 08:15:31  5-MIN KDBQ 201415Z 04007KT 10SM CLR M03/M07 A3026 770 71 -1100 040/07 RMK AO2
94908KDBQ DBQ20101120082009611/20/10 08:20:31  5-MIN KDBQ 201420Z 04009KT 10SM CLR M03/M07 A3026 770 71 -1100 040/09 RMK AO2
94908KDBQ DBQ20101120082509611/20/10 08:25:31  5-MIN KDBQ 201425Z 04008KT 10SM CLR M03/M07 A3026 760 71 -1100 040/08 RMK AO2
94908KDBQ DBQ20101120083009611/20/10 08:30:31  5-MIN KDBQ 201430Z 04010KT 10SM CLR M03/M07 A3026 770 71 -1100 040/10 RMK AO2
94908KDBQ DBQ20101120083509611/20/10 08:35:31  5-MIN KDBQ 201435Z 04009KT 10SM CLR M03/M07 A3026 760 71 -1100 040/09 RMK AO2
94908KDBQ DBQ20101120084009611/20/10 08:40:31  5-MIN KDBQ 201440Z 04008KT 10SM CLR M03/M07 A3026 760 71 -1100 040/08 RMK AO2
94908KDBQ DBQ20101120084509611/20/10 08:45:31  5-MIN KDBQ 201445Z 05011KT 10SM CLR M03/M07 A3027 760 71 -1100 050/11 RMK AO2
94908KDBQ DBQ20101120085011911/20/10 08:50:31  5-MIN KDBQ 201450Z 04011KT 10SM CLR M03/M07 A3027 760 71 -1100 040/11 RMK AO2 SLP261 T10281072 53013
94908KDBQ DBQ20101120085509611/20/10 08:55:31  5-MIN KDBQ 201455Z 04010KT 10SM CLR M03/M07 A3026 760 71 -1100 040/10 RMK AO2
94908KDBQ DBQ20101120090009611/20/10 09:00:31  5-MIN KDBQ 201500Z 04012KT 10SM CLR M03/M08 A3026 760 68 -1100 040/12 RMK AO2
94908KDBQ DBQ20101120090509611/20/10 09:05:31  5-MIN KDBQ 201505Z 04012KT 10SM CLR M02/M08 A3026 760 66 -1100 040/12 RMK AO2
94908KDBQ DBQ20101120091009611/20/10 09:10:31  5-MIN KDBQ 201510Z 05010KT 10SM CLR M02/M08 A3026 770 66 -1100 050/10 RMK AO2
94908KDBQ DBQ20101120091509611/20/10 09:15:31  5-MIN KDBQ 201515Z 05011KT 10SM CLR M02/M07 A3026 770 69 -1100 050/11 RMK AO2
94908KDBQ DBQ20101120092009611/20/10 09:20:31  5-MIN KDBQ 201520Z 04013KT 10SM CLR M02/M08 A3026 760 63 -1000 040/13 RMK AO2
94908KDBQ DBQ20101120092509611/20/10 09:25:31  5-MIN KDBQ 201525Z 04013KT 10SM CLR M02/M08 A3026 770 63 -1000 040/13 RMK AO2
94908KDBQ DBQ20101120093009611/20/10 09:30:31  5-MIN KDBQ 201530Z 04014KT 10SM CLR M02/M08 A3026 770 63 -1000 040/14 RMK AO2
94908KDBQ DBQ20101120093509511/20/10 09:35:31  5-MIN KDBQ 201535Z 04014KT 10SM CLR M01/M08 A3026 770 58 -900 040/14 RMK AO2
94908KDBQ DBQ20101120094010111/20/10 09:40:31  5-MIN KDBQ 201540Z 04013G18KT 10SM CLR M01/M08 A3026 770 58 -900 040/13G18 RMK AO2
94908KDBQ DBQ20101120094510111/20/10 09:45:31  5-MIN KDBQ 201545Z 04014G18KT 10SM CLR M01/M08 A3026 770 58 -900 040/14G18 RMK AO2
94908KDBQ DBQ20101120095011211/20/10 09:50:31  5-MIN KDBQ 201550Z 04013KT 10SM CLR M01/M08 A3026 770 56 -900 040/13 RMK AO2 SLP258 T10061083
94908KDBQ DBQ20101120095509511/20/10 09:55:31  5-MIN KDBQ 201555Z 04011KT 10SM CLR M01/M08 A3026 770 56 -900 040/11 RMK AO2
94908KDBQ DBQ20101120100009511/20/10 10:00:31  5-MIN KDBQ 201600Z 04013KT 10SM CLR M01/M08 A3026 770 56 -900 040/13 RMK AO2
94908KDBQ DBQ20101120100509511/20/10 10:05:31  5-MIN KDBQ 201605Z 05012KT 10SM CLR M01/M08 A3026 770 56 -900 050/12 RMK AO2
94908KDBQ DBQ20101120101009511/20/10 10:10:31  5-MIN KDBQ 201610Z 05012KT 10SM CLR M01/M09 A3026 760 53 -900 040/12 RMK AO2
94908KDBQ DBQ20101120101509511/20/10 10:15:31  5-MIN KDBQ 201615Z 05010KT 10SM CLR M01/M08 A3026 760 56 -900 050/10 RMK AO2
94908KDBQ DBQ20101120102009511/20/10 10:20:31  5-MIN KDBQ 201620Z 05010KT 10SM CLR M01/M08 A3026 770 56 -900 050/10 RMK AO2
94908KDBQ DBQ20101120102509511/20/10 10:25:31  5-MIN KDBQ 201625Z 05012KT 10SM CLR M01/M09 A3026 770 53 -900 050/12 RMK AO2
94908KDBQ DBQ20101120103009511/20/10 10:30:31  5-MIN KDBQ 201630Z 04012KT 10SM CLR M01/M09 A3025 770 53 -900 040/12 RMK AO2
94908KDBQ DBQ20101120103510111/20/10 10:35:31  5-MIN KDBQ 201635Z 05010G18KT 10SM CLR M01/M08 A3025 780 56 -800 050/10G18 RMK AO2
94908KDBQ DBQ20101120104009411/20/10 10:40:31  5-MIN KDBQ 201640Z 06012KT 10SM CLR 01/M08 A3025 780 54 -700 050/12 RMK AO2
94908KDBQ DBQ20101120104509411/20/10 10:45:31  5-MIN KDBQ 201645Z 05011KT 10SM CLR 01/M08 A3024 780 51 -700 040/11 RMK AO2
94908KDBQ DBQ20101120105011111/20/10 10:50:31  5-MIN KDBQ 201650Z 06013KT 10SM CLR 00/M08 A3024 780 53 -800 060/13 RMK AO2 SLP254 T00001083
94908KDBQ DBQ20101120105509411/20/10 10:55:31  5-MIN KDBQ 201655Z 05010KT 10SM CLR 01/M08 A3025 780 51 -700 050/10 RMK AO2
94908KDBQ DBQ20101120110009411/20/10 11:00:31  5-MIN KDBQ 201700Z 05010KT 10SM CLR 01/M08 A3025 780 49 -600 050/10 RMK AO2
94908KDBQ DBQ20101120110509411/20/10 11:05:31  5-MIN KDBQ 201705Z 06007KT 10SM CLR 01/M08 A3025 770 51 -700 060/07 RMK AO2
94908KDBQ DBQ20101120111009411/20/10 11:10:31  5-MIN KDBQ 201710Z 06008KT 10SM CLR 01/M08 A3025 770 51 -600 060/08 RMK AO2
94908KDBQ DBQ20101120111509411/20/10 11:15:31  5-MIN KDBQ 201715Z 07009KT 10SM CLR 01/M08 A3025 780 51 -600 070/09 RMK AO2
94908KDBQ DBQ20101120112009411/20/10 11:20:31  5-MIN KDBQ 201720Z 07008KT 10SM CLR 01/M08 A3025 770 49 -600 070/08 RMK AO2
94908KDBQ DBQ20101120112509411/20/10 11:25:31  5-MIN KDBQ 201725Z 08007KT 10SM CLR 02/M08 A3025 770 47 -500 080/07 RMK AO2
94908KDBQ DBQ20101120113009411/20/10 11:30:31  5-MIN KDBQ 201730Z 09009KT 10SM CLR 02/M08 A3025 780 47 -600 090/09 RMK AO2
94908KDBQ DBQ20101120113509411/20/10 11:35:31  5-MIN KDBQ 201735Z 06011KT 10SM CLR 02/M08 A3025 770 47 -600 060/11 RMK AO2
94908KDBQ DBQ20101120114009411/20/10 11:40:31  5-MIN KDBQ 201740Z 06010KT 10SM CLR 02/M09 A3025 770 44 -500 060/10 RMK AO2
94908KDBQ DBQ20101120114509411/20/10 11:45:31  5-MIN KDBQ 201745Z 06011KT 10SM CLR 02/M09 A3025 770 45 -600 060/11 RMK AO2
94908KDBQ DBQ20101120115012911/20/10 11:50:31  5-MIN KDBQ 201750Z 05009KT 10SM CLR 02/M09 A3025 780 45 -600 050/09 RMK AO2 SLP256 T00171089 10022 21028 51021
94908KDBQ DBQ20101120115509411/20/10 11:55:31  5-MIN KDBQ 201755Z 07011KT 10SM CLR 02/M09 A3024 780 43 -600 070/11 RMK AO2
94908KDBQ DBQ20101120120010111/20/10 12:00:31  5-MIN KDBQ 201800Z 07010KT 10SM CLR 02/M08 A3023 790 47 -500 070/10 RMK AO2 PRESFR
94908KDBQ DBQ20101120120509411/20/10 12:05:31  5-MIN KDBQ 201805Z 06012KT 10SM CLR 02/M09 A3023 790 45 -500 060/12 RMK AO2
94908KDBQ DBQ20101120121009411/20/10 12:10:31  5-MIN KDBQ 201810Z 05012KT 10SM CLR 02/M08 A3023 800 47 -500 050/12 RMK AO2
94908KDBQ DBQ20101120121509411/20/10 12:15:31  5-MIN KDBQ 201815Z 05013KT 10SM CLR 02/M08 A3022 800 47 -500 050/13 RMK AO2
94908KDBQ DBQ20101120122009411/20/10 12:20:31  5-MIN KDBQ 201820Z 05013KT 10SM CLR 02/M08 A3021 810 47 -500 050/13 RMK AO2
94908KDBQ DBQ20101120122509411/20/10 12:25:31  5-MIN KDBQ 201825Z 04011KT 10SM CLR 02/M08 A3022 810 47 -500 040/11 RMK AO2
94908KDBQ DBQ20101120123009411/20/10 12:30:31  5-MIN KDBQ 201830Z 04012KT 10SM CLR 02/M08 A3022 800 49 -500 040/12 RMK AO2
94908KDBQ DBQ20101120123509411/20/10 12:35:31  5-MIN KDBQ 201835Z 06011KT 10SM CLR 02/M08 A3021 810 49 -500 060/11 RMK AO2
94908KDBQ DBQ20101120124009411/20/10 12:40:31  5-MIN KDBQ 201840Z 05011KT 10SM CLR 02/M08 A3021 810 47 -500 050/11 RMK AO2
94908KDBQ DBQ20101120124509411/20/10 12:45:31  5-MIN KDBQ 201845Z 06010KT 10SM CLR 02/M08 A3021 810 47 -500 060/10 RMK AO2
94908KDBQ DBQ20101120125011111/20/10 12:50:31  5-MIN KDBQ 201850Z 06013KT 10SM CLR 02/M08 A3021 810 45 -500 060/13 RMK AO2 SLP244 T00221083
94908KDBQ DBQ20101120125509411/20/10 12:55:31  5-MIN KDBQ 201855Z 06011KT 10SM CLR 02/M08 A3021 810 45 -500 060/11 RMK AO2
94908KDBQ DBQ20101120130009411/20/10 13:00:31  5-MIN KDBQ 201900Z 06009KT 10SM CLR 02/M08 A3021 810 47 -500 060/09 RMK AO2
94908KDBQ DBQ20101120130509411/20/10 13:05:31  5-MIN KDBQ 201905Z 05012KT 10SM CLR 02/M08 A3021 810 47 -500 050/12 RMK AO2
94908KDBQ DBQ20101120131009411/20/10 13:10:31  5-MIN KDBQ 201910Z 06010KT 10SM CLR 03/M08 A3021 820 46 -400 060/10 RMK AO2
94908KDBQ DBQ20101120131509411/20/10 13:15:31  5-MIN KDBQ 201915Z 07009KT 10SM CLR 03/M08 A3020 820 44 -400 070/09 RMK AO2
94908KDBQ DBQ20101120132009411/20/10 13:20:31  5-MIN KDBQ 201920Z 06009KT 10SM CLR 03/M08 A3020 820 46 -400 060/09 RMK AO2
94908KDBQ DBQ20101120132509411/20/10 13:25:31  5-MIN KDBQ 201925Z 07012KT 10SM CLR 03/M08 A3020 820 46 -400 070/12 RMK AO2
94908KDBQ DBQ20101120133009411/20/10 13:30:31  5-MIN KDBQ 201930Z 08013KT 10SM CLR 03/M08 A3020 820 46 -400 080/13 RMK AO2
94908KDBQ DBQ20101120133509411/20/10 13:35:31  5-MIN KDBQ 201935Z 07015KT 10SM CLR 03/M08 A3019 830 44 -400 070/15 RMK AO2
94908KDBQ DBQ20101120134009411/20/10 13:40:31  5-MIN KDBQ 201940Z 07014KT 10SM CLR 03/M08 A3019 830 46 -400 070/14 RMK AO2
94908KDBQ DBQ20101120134509411/20/10 13:45:31  5-MIN KDBQ 201945Z 08013KT 10SM CLR 03/M08 A3019 830 46 -400 080/13 RMK AO2
94908KDBQ DBQ20101120135011111/20/10 13:50:31  5-MIN KDBQ 201950Z 08014KT 10SM CLR 02/M08 A3019 830 47 -400 080/14 RMK AO2 SLP235 T00221078
94908KDBQ DBQ20101120135509411/20/10 13:55:31  5-MIN KDBQ 201955Z 07008KT 10SM CLR 02/M08 A3020 830 47 -400 070/08 RMK AO2
94908KDBQ DBQ20101120140009411/20/10 14:00:31  5-MIN KDBQ 202000Z 09009KT 10SM CLR 03/M08 A3020 820 46 -400 090/09 RMK AO2
94908KDBQ DBQ20101120140509411/20/10 14:05:31  5-MIN KDBQ 202005Z 09009KT 10SM CLR 03/M08 A3020 820 44 -400 090/09 RMK AO2
94908KDBQ DBQ20101120141009711/20/10 14:10:31  5-MIN KDBQ 202010Z 10010KT 10SM FEW021 03/M08 A3020 820 44 -400 100/10 RMK AO2
94908KDBQ DBQ20101120141509711/20/10 14:15:31  5-MIN KDBQ 202015Z 09008KT 10SM FEW021 03/M08 A3020 820 46 -400 090/08 RMK AO2
94908KDBQ DBQ20101120142009711/20/10 14:20:31  5-MIN KDBQ 202020Z 08009KT 10SM FEW021 03/M08 A3020 820 46 -400 080/09 RMK AO2
94908KDBQ DBQ20101120142509711/20/10 14:25:31  5-MIN KDBQ 202025Z 07009KT 10SM FEW021 03/M07 A3021 820 48 -400 070/09 RMK AO2
94908KDBQ DBQ20101120143009711/20/10 14:30:31  5-MIN KDBQ 202030Z 09008KT 10SM FEW021 03/M07 A3020 820 48 -400 090/08 RMK AO2
94908KDBQ DBQ20101120143509411/20/10 14:35:31  5-MIN KDBQ 202035Z 08011KT 10SM CLR 03/M07 A3020 820 48 -400 080/11 RMK AO2
94908KDBQ DBQ20101120144009411/20/10 14:40:31  5-MIN KDBQ 202040Z 08010KT 10SM CLR 02/M07 A3020 820 50 -400 070/10 RMK AO2
94908KDBQ DBQ20101120144509411/20/10 14:45:31  5-MIN KDBQ 202045Z 06011KT 10SM CLR 02/M07 A3020 820 50 -400 060/11 RMK AO2
94908KDBQ DBQ20101120145011711/20/10 14:50:31  5-MIN KDBQ 202050Z 06011KT 10SM CLR 02/M07 A3020 820 52 -400 060/11 RMK AO2 SLP238 T00221067 56006
94908KDBQ DBQ20101120145509411/20/10 14:55:31  5-MIN KDBQ 202055Z 06010KT 10SM CLR 02/M07 A3020 820 52 -400 060/10 RMK AO2
94908KDBQ DBQ20101120150009411/20/10 15:00:31  5-MIN KDBQ 202100Z 06012KT 10SM CLR 02/M07 A3020 820 52 -400 060/12 RMK AO2
94908KDBQ DBQ20101120150509411/20/10 15:05:31  5-MIN KDBQ 202105Z 07010KT 10SM CLR 02/M07 A3019 830 52 -400 070/10 RMK AO2
94908KDBQ DBQ20101120151009411/20/10 15:10:31  5-MIN KDBQ 202110Z 07010KT 10SM CLR 02/M07 A3020 820 52 -400 070/10 RMK AO2
94908KDBQ DBQ20101120151509411/20/10 15:15:31  5-MIN KDBQ 202115Z 08009KT 10SM CLR 02/M07 A3020 820 52 -400 080/09 RMK AO2
94908KDBQ DBQ20101120152009411/20/10 15:20:31  5-MIN KDBQ 202120Z 08009KT 10SM CLR 02/M07 A3019 830 52 -400 080/09 RMK AO2
94908KDBQ DBQ20101120152509411/20/10 15:25:31  5-MIN KDBQ 202125Z 08008KT 10SM CLR 02/M06 A3019 830 54 -400 080/08 RMK AO2
94908KDBQ DBQ20101120153009411/20/10 15:30:31  5-MIN KDBQ 202130Z 07010KT 10SM CLR 02/M06 A3019 830 54 -400 070/10 RMK AO2
94908KDBQ DBQ20101120153509411/20/10 15:35:31  5-MIN KDBQ 202135Z 08008KT 10SM CLR 02/M06 A3019 830 54 -400 080/08 RMK AO2
94908KDBQ DBQ20101120154009411/20/10 15:40:31  5-MIN KDBQ 202140Z 08009KT 10SM CLR 02/M06 A3019 830 56 -500 080/09 RMK AO2
94908KDBQ DBQ20101120154509411/20/10 15:45:31  5-MIN KDBQ 202145Z 08011KT 10SM CLR 02/M06 A3019 830 56 -500 080/11 RMK AO2
94908KDBQ DBQ20101120155011411/20/10 15:50:31  5-MIN KDBQ 202150Z 09011KT 10SM FEW037 02/M07 A3019 830 54 -500 090/11 RMK AO2 SLP235 T00171067
94908KDBQ DBQ20101120155509711/20/10 15:55:31  5-MIN KDBQ 202155Z 08011KT 10SM FEW037 02/M07 A3019 830 54 -500 080/11 RMK AO2
94908KDBQ DBQ20101120160009711/20/10 16:00:31  5-MIN KDBQ 202200Z 08010KT 10SM SCT037 02/M06 A3018 840 56 -500 080/10 RMK AO2
94908KDBQ DBQ20101120160510311/20/10 16:05:31  5-MIN KDBQ 202205Z 08013G18KT 10SM BKN037 02/M07 A3018 840 54 -500 080/13G18 RMK AO2
94908KDBQ DBQ20101120161010311/20/10 16:10:31  5-MIN KDBQ 202210Z 07007G18KT 10SM BKN037 02/M06 A3018 840 56 -500 070/07G18 RMK AO2
94908KDBQ DBQ20101120161509711/20/10 16:15:31  5-MIN KDBQ 202215Z 08011KT 10SM BKN037 02/M06 A3018 840 56 -500 070/11 RMK AO2
94908KDBQ DBQ20101120162009711/20/10 16:20:31  5-MIN KDBQ 202220Z 07012KT 10SM OVC037 02/M07 A3018 840 54 -500 070/12 RMK AO2
94908KDBQ DBQ20101120162509711/20/10 16:25:31  5-MIN KDBQ 202225Z 08009KT 10SM OVC037 02/M07 A3017 850 54 -500 070/09 RMK AO2
94908KDBQ DBQ20101120163009711/20/10 16:30:31  5-MIN KDBQ 202230Z 08009KT 10SM OVC037 02/M07 A3017 850 54 -500 070/09 RMK AO2
94908KDBQ DBQ20101120163509711/20/10 16:35:31  5-MIN KDBQ 202235Z 08011KT 10SM OVC037 02/M07 A3017 850 54 -500 070/11 RMK AO2
94908KDBQ DBQ20101120164009711/20/10 16:40:31  5-MIN KDBQ 202240Z 07009KT 10SM OVC037 02/M07 A3017 850 54 -500 070/09 RMK AO2
94908KDBQ DBQ20101120164509711/20/10 16:45:31  5-MIN KDBQ 202245Z 07011KT 10SM OVC037 02/M07 A3017 850 54 -500 070/11 RMK AO2
94908KDBQ DBQ20101120165011411/20/10 16:50:31  5-MIN KDBQ 202250Z 07011KT 10SM BKN037 01/M07 A3017 850 56 -500 070/11 RMK AO2 SLP229 T00111067
94908KDBQ DBQ20101120165509711/20/10 16:55:31  5-MIN KDBQ 202255Z 07011KT 10SM BKN037 01/M07 A3017 850 56 -500 070/11 RMK AO2
94908KDBQ DBQ20101120170009711/20/10 17:00:31  5-MIN KDBQ 202300Z 07010KT 10SM BKN037 01/M07 A3016 850 56 -500 070/10 RMK AO2
94908KDBQ DBQ20101120170509711/20/10 17:05:31  5-MIN KDBQ 202305Z 07011KT 10SM BKN037 01/M07 A3016 860 56 -500 060/11 RMK AO2
94908KDBQ DBQ20101120171009711/20/10 17:10:31  5-MIN KDBQ 202310Z 06010KT 10SM SCT037 01/M07 A3016 860 56 -500 060/10 RMK AO2
94908KDBQ DBQ20101120171509711/20/10 17:15:31  5-MIN KDBQ 202315Z 06013KT 10SM SCT037 01/M07 A3016 860 56 -500 060/13 RMK AO2
94908KDBQ DBQ20101120172009711/20/10 17:20:31  5-MIN KDBQ 202320Z 06011KT 10SM SCT037 01/M07 A3016 860 56 -500 060/11 RMK AO2
94908KDBQ DBQ20101120172509711/20/10 17:25:31  5-MIN KDBQ 202325Z 06011KT 10SM SCT037 01/M07 A3015 860 56 -500 060/11 RMK AO2
94908KDBQ DBQ20101120173009711/20/10 17:30:31  5-MIN KDBQ 202330Z 06012KT 10SM FEW037 01/M06 A3015 860 58 -500 050/12 RMK AO2
94908KDBQ DBQ20101120173509711/20/10 17:35:31  5-MIN KDBQ 202335Z 06010KT 10SM FEW037 01/M06 A3015 860 58 -500 050/10 RMK AO2
94908KDBQ DBQ20101120174010311/20/10 17:40:31  5-MIN KDBQ 202340Z 06014G18KT 10SM FEW037 01/M06 A3015 870 58 -500 060/14G18 RMK AO2
94908KDBQ DBQ20101120174509411/20/10 17:45:31  5-MIN KDBQ 202345Z 06012KT 10SM CLR 01/M06 A3016 860 58 -500 060/12 RMK AO2
94908KDBQ DBQ20101120175012911/20/10 17:50:31  5-MIN KDBQ 202350Z 06012KT 10SM CLR 01/M06 A3015 860 58 -500 060/12 RMK AO2 SLP224 T00111061 10028 20011 55015
94908KDBQ DBQ20101120175509411/20/10 17:55:31  5-MIN KDBQ 202355Z 05010KT 10SM CLR 01/M06 A3015 870 58 -500 050/10 RMK AO2
94908KDBQ DBQ20101120180009411/20/10 18:00:31  5-MIN KDBQ 210000Z 05011KT 10SM CLR 01/M06 A3015 870 61 -600 050/11 RMK AO2
94908KDBQ DBQ20101120180509411/20/10 18:05:31  5-MIN KDBQ 210005Z 05012KT 10SM CLR 01/M06 A3015 870 61 -600 050/12 RMK AO2
94908KDBQ DBQ20101120181009411/20/10 18:10:31  5-MIN KDBQ 210010Z 05012KT 10SM CLR 01/M06 A3015 870 61 -600 050/12 RMK AO2
94908KDBQ DBQ20101120181509411/20/10 18:15:31  5-MIN KDBQ 210015Z 05012KT 10SM CLR 01/M06 A3015 860 61 -600 050/12 RMK AO2
94908KDBQ DBQ20101120182009411/20/10 18:20:31  5-MIN KDBQ 210020Z 05012KT 10SM CLR 01/M06 A3015 870 61 -600 050/12 RMK AO2
94908KDBQ DBQ20101120182509411/20/10 18:25:31  5-MIN KDBQ 210025Z 05013KT 10SM CLR 01/M06 A3014 880 61 -600 050/13 RMK AO2
94908KDBQ DBQ20101120183009411/20/10 18:30:31  5-MIN KDBQ 210030Z 06010KT 10SM CLR 01/M06 A3015 870 61 -600 050/10 RMK AO2
94908KDBQ DBQ20101120183510011/20/10 18:35:31  5-MIN KDBQ 210035Z 06010G18KT 10SM CLR 01/M06 A3014 870 61 -600 060/10G18 RMK AO2
94908KDBQ DBQ20101120184010011/20/10 18:40:31  5-MIN KDBQ 210040Z 06012G19KT 10SM CLR 01/M06 A3014 880 61 -600 060/12G19 RMK AO2
94908KDBQ DBQ20101120184510011/20/10 18:45:31  5-MIN KDBQ 210045Z 06012G19KT 10SM CLR 01/M06 A3014 880 61 -600 060/12G19 RMK AO2
94908KDBQ DBQ20101120185011111/20/10 18:50:31  5-MIN KDBQ 210050Z 06012KT 10SM CLR 01/M06 A3013 890 61 -600 060/12 RMK AO2 SLP216 T00061061
94908KDBQ DBQ20101120185509411/20/10 18:55:31  5-MIN KDBQ 210055Z 07010KT 10SM CLR 01/M06 A3012 890 63 -600 070/10 RMK AO2
94908KDBQ DBQ20101120190009411/20/10 19:00:31  5-MIN KDBQ 210100Z 08012KT 10SM CLR 01/M06 A3012 890 63 -600 070/12 RMK AO2
94908KDBQ DBQ20101120190509411/20/10 19:05:31  5-MIN KDBQ 210105Z 08011KT 10SM CLR 01/M06 A3012 900 63 -600 080/11 RMK AO2
94908KDBQ DBQ20101120191009411/20/10 19:10:31  5-MIN KDBQ 210110Z 07010KT 10SM CLR 01/M06 A3012 900 63 -600 070/10 RMK AO2
94908KDBQ DBQ20101120191509411/20/10 19:15:31  5-MIN KDBQ 210115Z 08011KT 10SM CLR 01/M05 A3012 890 66 -600 080/11 RMK AO2
94908KDBQ DBQ20101120192010011/20/10 19:20:31  5-MIN KDBQ 210120Z 06009G19KT 10SM CLR 01/M05 A3013 890 66 -600 060/09G19 RMK AO2
94908KDBQ DBQ20101120192510011/20/10 19:25:31  5-MIN KDBQ 210125Z 06010G19KT 10SM CLR 01/M05 A3013 880 66 -600 060/10G19 RMK AO2
94908KDBQ DBQ20101120193009411/20/10 19:30:31  5-MIN KDBQ 210130Z 06010KT 10SM CLR 01/M05 A3013 880 66 -600 060/10 RMK AO2
94908KDBQ DBQ20101120193509411/20/10 19:35:31  5-MIN KDBQ 210135Z 08011KT 10SM CLR 01/M05 A3013 880 66 -600 070/11 RMK AO2
94908KDBQ DBQ20101120194009411/20/10 19:40:31  5-MIN KDBQ 210140Z 08011KT 10SM CLR 01/M04 A3013 880 69 -600 080/11 RMK AO2
94908KDBQ DBQ20101120194509411/20/10 19:45:31  5-MIN KDBQ 210145Z 07010KT 10SM CLR 01/M04 A3014 880 72 -600 070/10 RMK AO2
94908KDBQ DBQ20101120195011111/20/10 19:50:31  5-MIN KDBQ 210150Z 07011KT 10SM CLR 01/M04 A3014 880 72 -600 070/11 RMK AO2 SLP219 T00061039
94908KDBQ DBQ20101120195509911/20/10 19:55:31  5-MIN KDBQ 210155Z AUTO 08010KT 10SM CLR 01/M04 A3014 880 72 -600 080/10 RMK AO2
94908KDBQ DBQ20101120200009911/20/10 20:00:31  5-MIN KDBQ 210200Z AUTO 08012KT 10SM CLR 01/M04 A3013 880 72 -600 080/12 RMK AO2
94908KDBQ DBQ20101120200509911/20/10 20:05:31  5-MIN KDBQ 210205Z AUTO 08012KT 10SM CLR 01/M04 A3013 880 72 -600 080/12 RMK AO2
94908KDBQ DBQ20101120201009911/20/10 20:10:31  5-MIN KDBQ 210210Z AUTO 07010KT 10SM CLR 01/M04 A3014 870 72 -600 070/10 RMK AO2
94908KDBQ DBQ20101120201510211/20/10 20:15:31  5-MIN KDBQ 210215Z AUTO 07010KT 10SM SCT028 01/M04 A3014 870 72 -600 070/10 RMK AO2
94908KDBQ DBQ20101120202010211/20/10 20:20:31  5-MIN KDBQ 210220Z AUTO 07010KT 10SM BKN028 01/M04 A3014 870 72 -600 070/10 RMK AO2
94908KDBQ DBQ20101120202510211/20/10 20:25:31  5-MIN KDBQ 210225Z AUTO 07012KT 10SM BKN028 01/M04 A3014 880 72 -600 070/12 RMK AO2
94908KDBQ DBQ20101120203010211/20/10 20:30:31  5-MIN KDBQ 210230Z AUTO 08011KT 10SM BKN028 01/M04 A3015 870 72 -600 080/11 RMK AO2
94908KDBQ DBQ20101120203510811/20/10 20:35:31  5-MIN KDBQ 210235Z AUTO 07012G18KT 10SM OVC026 01/M04 A3015 870 72 -600 070/12G18 RMK AO2
94908KDBQ DBQ20101120204010211/20/10 20:40:31  5-MIN KDBQ 210240Z AUTO 07012KT 10SM OVC026 01/M04 A3014 870 72 -600 070/12 RMK AO2
94908KDBQ DBQ20101120204510211/20/10 20:45:31  5-MIN KDBQ 210245Z AUTO 07013KT 10SM OVC026 01/M03 A3014 880 75 -600 070/13 RMK AO2
94908KDBQ DBQ20101120205012511/20/10 20:50:31  5-MIN KDBQ 210250Z AUTO 07012KT 10SM OVC024 01/M03 A3014 870 75 -600 070/12 RMK AO2 SLP221 T00061033 58016
94908KDBQ DBQ20101120205510211/20/10 20:55:31  5-MIN KDBQ 210255Z AUTO 08010KT 10SM OVC024 01/M03 A3015 870 75 -600 080/10 RMK AO2
94908KDBQ DBQ20101120210010211/20/10 21:00:31  5-MIN KDBQ 210300Z AUTO 08010KT 10SM OVC024 01/M03 A3014 870 75 -600 080/10 RMK AO2
94908KDBQ DBQ20101120210510211/20/10 21:05:31  5-MIN KDBQ 210305Z AUTO 09011KT 10SM OVC024 01/M03 A3014 870 75 -600 080/11 RMK AO2
94908KDBQ DBQ20101120211010211/20/10 21:10:31  5-MIN KDBQ 210310Z AUTO 08010KT 10SM OVC024 01/M03 A3014 870 75 -600 080/10 RMK AO2
94908KDBQ DBQ20101120211510211/20/10 21:15:31  5-MIN KDBQ 210315Z AUTO 08011KT 10SM OVC024 01/M03 A3014 880 75 -600 080/11 RMK AO2
94908KDBQ DBQ20101120212010811/20/10 21:20:31  5-MIN KDBQ 210320Z AUTO 08012G16KT 10SM OVC024 01/M03 A3014 880 75 -600 080/12G16 RMK AO2
94908KDBQ DBQ20101120212510211/20/10 21:25:31  5-MIN KDBQ 210325Z AUTO 08009KT 10SM OVC022 01/M03 A3014 880 75 -600 080/09 RMK AO2
94908KDBQ DBQ20101120213010211/20/10 21:30:31  5-MIN KDBQ 210330Z AUTO 09012KT 10SM OVC022 01/M03 A3014 880 75 -600 090/12 RMK AO2
94908KDBQ DBQ20101120213510211/20/10 21:35:31  5-MIN KDBQ 210335Z AUTO 08008KT 10SM OVC022 01/M03 A3014 880 78 -600 080/08 RMK AO2
94908KDBQ DBQ20101120214010211/20/10 21:40:31  5-MIN KDBQ 210340Z AUTO 08009KT 10SM OVC022 01/M03 A3014 880 78 -600 080/09 RMK AO2
94908KDBQ DBQ20101120214510211/20/10 21:45:31  5-MIN KDBQ 210345Z AUTO 09009KT 10SM OVC022 01/M03 A3014 880 78 -600 090/09 RMK AO2
94908KDBQ DBQ20101120215012511/20/10 21:50:31  5-MIN KDBQ 210350Z AUTO 09012G17KT 10SM OVC020 01/M03 A3013 880 78 -600 090/12G17 RMK AO2 SLP216 T00061028
94908KDBQ DBQ20101120215510811/20/10 21:55:31  5-MIN KDBQ 210355Z AUTO 09010G17KT 10SM OVC020 01/M03 A3013 880 78 -600 090/10G17 RMK AO2
94908KDBQ DBQ20101120220010811/20/10 22:00:31  5-MIN KDBQ 210400Z AUTO 10012G17KT 10SM OVC020 01/M03 A3013 890 75 -500 100/12G17 RMK AO2
94908KDBQ DBQ20101120220510811/20/10 22:05:31  5-MIN KDBQ 210405Z AUTO 09009G17KT 10SM OVC020 01/M03 A3013 890 75 -500 090/09G17 RMK AO2
94908KDBQ DBQ20101120221010811/20/10 22:10:31  5-MIN KDBQ 210410Z AUTO 10012G17KT 10SM OVC018 01/M03 A3013 890 75 -500 100/12G17 RMK AO2
94908KDBQ DBQ20101120221510211/20/10 22:15:31  5-MIN KDBQ 210415Z AUTO 10010KT 10SM OVC018 01/M03 A3013 890 75 -500 100/10 RMK AO2
94908KDBQ DBQ20101120222010211/20/10 22:20:31  5-MIN KDBQ 210420Z AUTO 09008KT 10SM OVC018 01/M03 A3013 890 75 -500 090/08 RMK AO2
94908KDBQ DBQ20101120222510211/20/10 22:25:31  5-MIN KDBQ 210425Z AUTO 09012KT 10SM OVC018 01/M03 A3013 890 75 -500 090/12 RMK AO2
94908KDBQ DBQ20101120223010211/20/10 22:30:31  5-MIN KDBQ 210430Z AUTO 09010KT 10SM OVC018 01/M03 A3012 890 75 -500 090/10 RMK AO2
94908KDBQ DBQ20101120223510211/20/10 22:35:31  5-MIN KDBQ 210435Z AUTO 09011KT 10SM OVC018 01/M03 A3012 890 75 -500 090/11 RMK AO2
94908KDBQ DBQ20101120224010211/20/10 22:40:31  5-MIN KDBQ 210440Z AUTO 09007KT 10SM OVC018 01/M03 A3012 890 75 -500 090/07 RMK AO2
94908KDBQ DBQ20101120224510211/20/10 22:45:31  5-MIN KDBQ 210445Z AUTO 09009KT 10SM OVC018 01/M03 A3012 900 75 -500 090/09 RMK AO2
94908KDBQ DBQ20101120225011911/20/10 22:50:31  5-MIN KDBQ 210450Z AUTO 09009KT 10SM OVC016 01/M03 A3011 900 75 -500 090/09 RMK AO2 SLP210 T00111028
94908KDBQ DBQ20101120225510211/20/10 22:55:31  5-MIN KDBQ 210455Z AUTO 09009KT 10SM OVC016 01/M02 A3011 900 78 -500 090/09 RMK AO2
94908KDBQ DBQ20101120230010211/20/10 23:00:31  5-MIN KDBQ 210500Z AUTO 09011KT 10SM OVC016 01/M02 A3010 910 78 -500 090/11 RMK AO2
94908KDBQ DBQ20101120230510211/20/10 23:05:31  5-MIN KDBQ 210505Z AUTO 09011KT 10SM OVC016 01/M02 A3010 910 78 -500 080/11 RMK AO2
94908KDBQ DBQ20101120231010211/20/10 23:10:31  5-MIN KDBQ 210510Z AUTO 10010KT 10SM OVC016 01/M02 A3010 910 78 -500 090/10 RMK AO2
94908KDBQ DBQ20101120231510211/20/10 23:15:31  5-MIN KDBQ 210515Z AUTO 09008KT 10SM OVC016 01/M02 A3010 920 78 -500 090/08 RMK AO2
94908KDBQ DBQ20101120232010211/20/10 23:20:31  5-MIN KDBQ 210520Z AUTO 09008KT 10SM OVC014 01/M02 A3010 920 78 -500 090/08 RMK AO2
94908KDBQ DBQ20101120232510211/20/10 23:25:31  5-MIN KDBQ 210525Z AUTO 09010KT 10SM OVC014 01/M02 A3010 920 78 -500 090/10 RMK AO2
94908KDBQ DBQ20101120233010211/20/10 23:30:31  5-MIN KDBQ 210530Z AUTO 10008KT 10SM OVC014 01/M02 A3009 920 78 -500 100/08 RMK AO2
94908KDBQ DBQ20101120233510211/20/10 23:35:31  5-MIN KDBQ 210535Z AUTO 10009KT 10SM OVC014 02/M02 A3009 920 75 -400 090/09 RMK AO2
94908KDBQ DBQ20101120234010211/20/10 23:40:31  5-MIN KDBQ 210540Z AUTO 09009KT 10SM OVC014 02/M02 A3009 920 78 -400 090/09 RMK AO2
94908KDBQ DBQ20101120234510211/20/10 23:45:31  5-MIN KDBQ 210545Z AUTO 10010KT 10SM OVC014 02/M02 A3009 920 78 -400 100/10 RMK AO2
94908KDBQ DBQ20101120235015311/20/10 23:50:31  5-MIN KDBQ 210550Z AUTO 10011G16KT 10SM OVC014 02/M02 A3008 930 78 -400 100/11G16 RMK AO2 SLP197 T00171017 10017 20006 400281028 55001
94908KDBQ DBQ20101120235510211/20/10 23:55:31  5-MIN KDBQ 210555Z AUTO 10010KT 10SM OVC014 02/M02 A3008 930 78 -400 100/10 RMK AO2
94908KDBQ DBQ20101121000010911/21/10 00:00:38  5-MIN KDBQ 210600Z AUTO 10011KT 10SM OVC014 02/M02 A3007 940 78 -400 100/11 RMK AO2 PRESFR
94908KDBQ DBQ20101121000510911/21/10 00:05:31  5-MIN KDBQ 210605Z AUTO 10012KT 10SM OVC012 02/M02 A3006 950 78 -400 100/12 RMK AO2 PRESFR
94908KDBQ DBQ20101121001010911/21/10 00:10:31  5-MIN KDBQ 210610Z AUTO 10013KT 10SM OVC012 02/M02 A3005 960 78 -300 100/13 RMK AO2 PRESFR
94908KDBQ DBQ20101121001510211/21/10 00:15:31  5-MIN KDBQ 210615Z AUTO 10010KT 10SM OVC012 02/M02 A3005 960 78 -300 100/10 RMK AO2
94908KDBQ DBQ20101121002010211/21/10 00:20:31  5-MIN KDBQ 210620Z AUTO 10012KT 10SM OVC012 02/M02 A3005 960 78 -300 100/12 RMK AO2
94908KDBQ DBQ20101121002510811/21/10 00:25:31  5-MIN KDBQ 210625Z AUTO 10012G17KT 10SM OVC012 02/M02 A3005 960 78 -300 100/12G17 RMK AO2
94908KDBQ DBQ20101121003010811/21/10 00:30:31  5-MIN KDBQ 210630Z AUTO 10011G17KT 10SM OVC012 02/M01 A3005 960 82 -300 100/11G17 RMK AO2
94908KDBQ DBQ20101121003510211/21/10 00:35:31  5-MIN KDBQ 210635Z AUTO 10010KT 10SM OVC012 02/M01 A3005 960 82 -300 100/10 RMK AO2
94908KDBQ DBQ20101121004010211/21/10 00:40:31  5-MIN KDBQ 210640Z AUTO 10011KT 10SM OVC012 02/M01 A3005 960 82 -300 100/11 RMK AO2
94908KDBQ DBQ20101121004510811/21/10 00:45:31  5-MIN KDBQ 210645Z AUTO 11008G16KT 10SM OVC012 02/M01 A3004 960 82 -300 110/08G16 RMK AO2
94908KDBQ DBQ20101121005011911/21/10 00:50:31  5-MIN KDBQ 210650Z AUTO 10011KT 10SM OVC010 02/M01 A3004 970 82 -300 100/11 RMK AO2 SLP183 T00171011
94908KDBQ DBQ20101121005510211/21/10 00:55:31  5-MIN KDBQ 210655Z AUTO 10012KT 10SM OVC010 02/M01 A3004 970 82 -300 100/12 RMK AO2
94908KDBQ DBQ20101121010010211/21/10 01:00:31  5-MIN KDBQ 210700Z AUTO 10010KT 10SM OVC010 02/M01 A3004 970 78 -300 100/10 RMK AO2
94908KDBQ DBQ20101121010510211/21/10 01:05:31  5-MIN KDBQ 210705Z AUTO 10009KT 10SM OVC010 02/M01 A3004 970 78 -300 100/09 RMK AO2
94908KDBQ DBQ20101121011010211/21/10 01:10:31  5-MIN KDBQ 210710Z AUTO 10010KT 10SM OVC010 02/M01 A3004 970 78 -300 100/10 RMK AO2
94908KDBQ DBQ20101121011510211/21/10 01:15:31  5-MIN KDBQ 210715Z AUTO 10011KT 10SM OVC010 02/M01 A3004 970 78 -300 100/11 RMK AO2
94908KDBQ DBQ20101121012010211/21/10 01:20:31  5-MIN KDBQ 210720Z AUTO 10008KT 10SM OVC010 02/M01 A3004 970 82 -300 090/08 RMK AO2
94908KDBQ DBQ20101121012510211/21/10 01:25:31  5-MIN KDBQ 210725Z AUTO 10008KT 10SM OVC010 02/M01 A3003 980 82 -200 100/08 RMK AO2
94908KDBQ DBQ20101121013010211/21/10 01:30:31  5-MIN KDBQ 210730Z AUTO 10010KT 10SM OVC010 02/M01 A3003 980 82 -300 100/10 RMK AO2
94908KDBQ DBQ20101121013510211/21/10 01:35:31  5-MIN KDBQ 210735Z AUTO 10009KT 10SM OVC010 02/M01 A3003 980 82 -200 090/09 RMK AO2
94908KDBQ DBQ20101121014010211/21/10 01:40:31  5-MIN KDBQ 210740Z AUTO 10008KT 10SM OVC010 02/M01 A3002 980 82 -200 100/08 RMK AO2
94908KDBQ DBQ20101121014510211/21/10 01:45:31  5-MIN KDBQ 210745Z AUTO 09010KT 10SM OVC010 02/M01 A3002 980 82 -200 090/10 RMK AO2
94908KDBQ DBQ20101121015011911/21/10 01:50:31  5-MIN KDBQ 210750Z AUTO 10010KT 10SM OVC010 02/M01 A3002 990 82 -200 090/10 RMK AO2 SLP175 T00221006
94908KDBQ DBQ20101121015510211/21/10 01:55:31  5-MIN KDBQ 210755Z AUTO 10012KT 10SM OVC010 02/M01 A3002 990 82 -200 100/12 RMK AO2
94908KDBQ DBQ20101121020010211/21/10 02:00:31  5-MIN KDBQ 210800Z AUTO 10011KT 10SM OVC010 02/M01 A3001 990 82 -200 100/11 RMK AO2
94908KDBQ DBQ20101121020510211/21/10 02:05:31  5-MIN KDBQ 210805Z AUTO 09010KT 10SM OVC010 02/M01 A3002 990 82 -200 090/10 RMK AO2
94908KDBQ DBQ20101121021010811/21/10 02:10:31  5-MIN KDBQ 210810Z AUTO 10008G15KT 10SM OVC010 02/M01 A3001 990 82 -200 100/08G15 RMK AO2
94908KDBQ DBQ20101121021510211/21/10 02:15:31  5-MIN KDBQ 210815Z AUTO 10009KT 10SM OVC010 02/M01 A3001 990 82 -200 100/09 RMK AO2
94908KDBQ DBQ20101121022010311/21/10 02:20:31  5-MIN KDBQ 210820Z AUTO 10009KT 10SM OVC010 02/M01 A3001 1000 82 -200 100/09 RMK AO2
94908KDBQ DBQ20101121022510311/21/10 02:25:31  5-MIN KDBQ 210825Z AUTO 10009KT 10SM OVC010 02/M01 A3000 1000 82 -200 100/09 RMK AO2
94908KDBQ DBQ20101121023010211/21/10 02:30:31  5-MIN KDBQ 210830Z AUTO 10009KT 10SM OVC010 02/00 A2999 1010 85 -200 100/09 RMK AO2
94908KDBQ DBQ20101121023510111/21/10 02:35:31  5-MIN KDBQ 210835Z AUTO 10010KT 9SM OVC008 02/00 A2999 1010 85 -200 100/10 RMK AO2
94908KDBQ DBQ20101121024010111/21/10 02:40:31  5-MIN KDBQ 210840Z AUTO 10008KT 9SM OVC008 02/00 A2999 1010 85 -200 100/08 RMK AO2
94908KDBQ DBQ20101121024510111/21/10 02:45:31  5-MIN KDBQ 210845Z AUTO 10009KT 9SM OVC008 02/00 A2999 1020 85 -200 100/09 RMK AO2
94908KDBQ DBQ20101121025012411/21/10 02:50:31  5-MIN KDBQ 210850Z AUTO 11009KT 9SM OVC008 02/00 A2998 1020 85 -200 110/09 RMK AO2 SLP162 T00220000 58021
94908KDBQ DBQ20101121025510111/21/10 02:55:31  5-MIN KDBQ 210855Z AUTO 10009KT 9SM OVC008 02/00 A2998 1020 85 -200 100/09 RMK AO2
94908KDBQ DBQ20101121030010111/21/10 03:00:31  5-MIN KDBQ 210900Z AUTO 11008KT 9SM OVC008 02/00 A2998 1020 85 -200 110/08 RMK AO2
94908KDBQ DBQ20101121030510111/21/10 03:05:31  5-MIN KDBQ 210905Z AUTO 11007KT 9SM OVC008 02/00 A2998 1020 85 -200 110/07 RMK AO2
94908KDBQ DBQ20101121031010111/21/10 03:10:31  5-MIN KDBQ 210910Z AUTO 12010KT 8SM OVC008 02/00 A2998 1020 85 -200 110/10 RMK AO2
94908KDBQ DBQ20101121031510111/21/10 03:15:31  5-MIN KDBQ 210915Z AUTO 10008KT 8SM OVC008 02/00 A2998 1030 85 -200 100/08 RMK AO2
94908KDBQ DBQ20101121032010111/21/10 03:20:31  5-MIN KDBQ 210920Z AUTO 11009KT 8SM OVC008 02/00 A2997 1030 85 -200 110/09 RMK AO2
94908KDBQ DBQ20101121032510111/21/10 03:25:31  5-MIN KDBQ 210925Z AUTO 11009KT 8SM OVC008 02/01 A2997 1030 89 -200 100/09 RMK AO2
94908KDBQ DBQ20101121033010111/21/10 03:30:31  5-MIN KDBQ 210930Z AUTO 11008KT 8SM OVC008 02/01 A2996 1040 89 -200 110/08 RMK AO2
94908KDBQ DBQ20101121033510111/21/10 03:35:31  5-MIN KDBQ 210935Z AUTO 11007KT 8SM OVC006 02/01 A2996 1040 89 -200 110/07 RMK AO2
94908KDBQ DBQ20101121034010111/21/10 03:40:31  5-MIN KDBQ 210940Z AUTO 11006KT 7SM OVC006 02/01 A2996 1040 89 -200 110/06 RMK AO2
94908KDBQ DBQ20101121034510111/21/10 03:45:31  5-MIN KDBQ 210945Z AUTO 11008KT 7SM OVC006 03/01 A2996 1040 85 -100 110/08 RMK AO2
94908KDBQ DBQ20101121035012111/21/10 03:50:31  5-MIN KDBQ 210950Z AUTO 11008KT 6SM BR OVC006 03/01 A2996 1040 89 -100 110/08 RMK AO2 SLP155 T00280011
94908KDBQ DBQ20101121035510411/21/10 03:55:31  5-MIN KDBQ 210955Z AUTO 11009KT 6SM BR OVC006 03/01 A2996 1050 89 -100 110/09 RMK AO2
94908KDBQ DBQ20101121040010411/21/10 04:00:31  5-MIN KDBQ 211000Z AUTO 12009KT 6SM BR OVC006 03/01 A2995 1050 89 -100 120/09 RMK AO2
94908KDBQ DBQ20101121040510411/21/10 04:05:31  5-MIN KDBQ 211005Z AUTO 11007KT 6SM BR OVC006 03/01 A2995 1050 89 -100 110/07 RMK AO2
94908KDBQ DBQ20101121041010411/21/10 04:10:31  5-MIN KDBQ 211010Z AUTO 11008KT 5SM BR OVC006 03/01 A2995 1050 89 -100 110/08 RMK AO2
94908KDBQ DBQ20101121041510411/21/10 04:15:31  5-MIN KDBQ 211015Z AUTO 11008KT 5SM BR OVC006 03/01 A2995 1050 89 -100 110/08 RMK AO2
94908KDBQ DBQ20101121042010411/21/10 04:20:31  5-MIN KDBQ 211020Z AUTO 11008KT 5SM BR OVC006 03/01 A2995 1050 89 -100 110/08 RMK AO2
94908KDBQ DBQ20101121042510411/21/10 04:25:31  5-MIN KDBQ 211025Z AUTO 11006KT 5SM BR OVC006 03/02 A2995 1050 92 -100 110/06 RMK AO2
94908KDBQ DBQ20101121043010411/21/10 04:30:31  5-MIN KDBQ 211030Z AUTO 12006KT 5SM BR OVC006 03/02 A2995 1050 92 -100 120/06 RMK AO2
94908KDBQ DBQ20101121043510411/21/10 04:35:31  5-MIN KDBQ 211035Z AUTO 12007KT 5SM BR OVC006 03/02 A2995 1050 92 -100 120/07 RMK AO2
94908KDBQ DBQ20101121044010411/21/10 04:40:31  5-MIN KDBQ 211040Z AUTO 11007KT 5SM BR OVC006 03/02 A2995 1050 92 -100 110/07 RMK AO2
94908KDBQ DBQ20101121044510111/21/10 04:45:31  5-MIN KDBQ 211045Z AUTO 11007KT 5SM BR OVC006 03/02 A2994 1060 89 0 110/07 RMK AO2
94908KDBQ DBQ20101121045011811/21/10 04:50:31  5-MIN KDBQ 211050Z AUTO 11007KT 5SM BR OVC006 03/02 A2994 1060 89 0 110/07 RMK AO2 SLP149 T00330017
94908KDBQ DBQ20101121045510111/21/10 04:55:31  5-MIN KDBQ 211055Z AUTO 12007KT 5SM BR OVC006 03/02 A2994 1060 89 0 120/07 RMK AO2
94908KDBQ DBQ20101121050010111/21/10 05:00:31  5-MIN KDBQ 211100Z AUTO 12007KT 5SM BR OVC006 03/02 A2994 1060 89 0 120/07 RMK AO2
94908KDBQ DBQ20101121050510111/21/10 05:05:31  5-MIN KDBQ 211105Z AUTO 12007KT 5SM BR OVC006 03/02 A2994 1060 89 0 120/07 RMK AO2
94908KDBQ DBQ20101121051010111/21/10 05:10:31  5-MIN KDBQ 211110Z AUTO 12007KT 5SM BR OVC006 03/02 A2993 1070 89 0 120/07 RMK AO2
94908KDBQ DBQ20101121051510111/21/10 05:15:31  5-MIN KDBQ 211115Z AUTO 14006KT 5SM BR OVC006 03/02 A2993 1070 89 0 130/06 RMK AO2
94908KDBQ DBQ20101121052010111/21/10 05:20:31  5-MIN KDBQ 211120Z AUTO 14007KT 5SM BR OVC006 03/02 A2993 1070 92 0 140/07 RMK AO2
94908KDBQ DBQ20101121052510111/21/10 05:25:31  5-MIN KDBQ 211125Z AUTO 14007KT 5SM BR OVC006 03/02 A2993 1070 92 0 140/07 RMK AO2
94908KDBQ DBQ20101121053010111/21/10 05:30:31  5-MIN KDBQ 211130Z AUTO 14007KT 5SM BR OVC006 03/02 A2992 1080 92 0 140/07 RMK AO2
94908KDBQ DBQ20101121053510111/21/10 05:35:31  5-MIN KDBQ 211135Z AUTO 14009KT 5SM BR OVC006 03/02 A2992 1080 92 0 140/09 RMK AO2
94908KDBQ DBQ20101121054010111/21/10 05:40:31  5-MIN KDBQ 211140Z AUTO 14007KT 4SM BR OVC006 03/02 A2992 1080 92 0 130/07 RMK AO2
94908KDBQ DBQ20101121054510111/21/10 05:45:31  5-MIN KDBQ 211145Z AUTO 14008KT 4SM BR OVC006 04/02 A2992 1080 89 0 140/08 RMK AO2
94908KDBQ DBQ20101121055013111/21/10 05:50:31  5-MIN KDBQ 211150Z 15007KT 4SM BR OVC006 04/02 A2992 1080 89 0 150/07 RMK AO2 SLP140 T00390022 10039 20017 57033
94908KDBQ DBQ20101121055509611/21/10 05:55:31  5-MIN KDBQ 211155Z 14008KT 4SM BR OVC006 04/02 A2992 1080 89 0 140/08 RMK AO2
94908KDBQ DBQ20101121060009611/21/10 06:00:31  5-MIN KDBQ 211200Z 15006KT 4SM BR OVC004 04/03 A2991 1090 92 0 150/06 RMK AO2
94908KDBQ DBQ20101121060509611/21/10 06:05:31  5-MIN KDBQ 211205Z 14007KT 4SM BR OVC004 04/03 A2991 1090 92 0 140/07 RMK AO2
94908KDBQ DBQ20101121061009611/21/10 06:10:31  5-MIN KDBQ 211210Z 14007KT 4SM BR OVC006 04/03 A2992 1080 92 0 140/07 RMK AO2
94908KDBQ DBQ20101121061509611/21/10 06:15:31  5-MIN KDBQ 211215Z 14006KT 4SM BR OVC006 04/03 A2991 1090 92 0 140/06 RMK AO2
94908KDBQ DBQ20101121062009811/21/10 06:20:31  5-MIN KDBQ 211220Z 14006KT 3SM BR OVC006 04/03 A2990 1100 92 100 140/06 RMK AO2
94908KDBQ DBQ20101121062509811/21/10 06:25:31  5-MIN KDBQ 211225Z 14005KT 3SM BR OVC006 04/03 A2990 1100 92 100 140/05 RMK AO2
94908KDBQ DBQ20101121063009811/21/10 06:30:31  5-MIN KDBQ 211230Z 15009KT 3SM BR OVC006 04/03 A2991 1090 92 100 150/09 RMK AO2
94908KDBQ DBQ20101121063509811/21/10 06:35:31  5-MIN KDBQ 211235Z 14007KT 3SM BR OVC006 04/03 A2991 1090 92 100 140/07 RMK AO2
94908KDBQ DBQ20101121064009811/21/10 06:40:31  5-MIN KDBQ 211240Z 15008KT 3SM BR OVC006 04/03 A2991 1090 92 100 150/08 RMK AO2
94908KDBQ DBQ20101121064509811/21/10 06:45:31  5-MIN KDBQ 211245Z 15007KT 3SM BR OVC006 04/03 A2991 1090 92 100 150/07 RMK AO2
94908KDBQ DBQ20101121065009811/21/10 06:50:31  5-MIN KDBQ 211250Z 15008KT 3SM BR OVC004 04/03 A2991 1090 92 100 150/08 RMK AO2
94908KDBQ DBQ20101121065509811/21/10 06:55:31  5-MIN KDBQ 211255Z 15007KT 3SM BR OVC004 04/03 A2991 1090 92 100 150/07 RMK AO2
94908KDBQ DBQ20101121070009811/21/10 07:00:31  5-MIN KDBQ 211300Z 14007KT 3SM BR OVC004 04/04 A2990 1100 96 100 140/07 RMK AO2
94908KDBQ DBQ20101121070511011/21/10 07:05:31  5-MIN KDBQ 211305Z 15007KT 3SM BR OVC004 04/04 A2990 1100 96 100 150/07 RMK AO2 CIG 004V007
94908KDBQ DBQ20101121071011011/21/10 07:10:31  5-MIN KDBQ 211310Z 16006KT 3SM BR OVC004 04/04 A2991 1090 96 100 160/06 RMK AO2 CIG 004V007
94908KDBQ DBQ20101121071510211/21/10 07:15:31  5-MIN KDBQ 211315Z 16007KT 2 1/2SM BR OVC004 04/04 A2991 1090 96 100 160/07 RMK AO2
94908KDBQ DBQ20101121072009811/21/10 07:20:31  5-MIN KDBQ 211320Z 15007KT 2SM BR OVC004 05/04 A2990 1100 92 200 150/07 RMK AO2
94908KDBQ DBQ20101121072509811/21/10 07:25:31  5-MIN KDBQ 211325Z 16009KT 2SM BR OVC004 05/04 A2991 1090 92 200 160/09 RMK AO2
94908KDBQ DBQ20101121073009811/21/10 07:30:31  5-MIN KDBQ 211330Z 16009KT 2SM BR OVC004 05/04 A2990 1090 92 200 150/09 RMK AO2
94908KDBQ DBQ20101121073509811/21/10 07:35:31  5-MIN KDBQ 211335Z 17009KT 2SM BR OVC004 05/04 A2990 1100 92 200 160/09 RMK AO2
94908KDBQ DBQ20101121074009811/21/10 07:40:31  5-MIN KDBQ 211340Z 16009KT 2SM BR OVC004 05/04 A2990 1100 92 200 160/09 RMK AO2
94908KDBQ DBQ20101121074509811/21/10 07:45:31  5-MIN KDBQ 211345Z 16011KT 2SM BR OVC004 06/04 A2989 1100 92 300 160/11 RMK AO2
94908KDBQ DBQ20101121075011511/21/10 07:50:31  5-MIN KDBQ 211350Z 16010KT 2SM BR OVC004 06/04 A2989 1110 92 300 160/10 RMK AO2 SLP130 T00560044
94908KDBQ DBQ20101121075509811/21/10 07:55:31  5-MIN KDBQ 211355Z 16011KT 2SM BR OVC004 06/04 A2989 1110 92 300 160/11 RMK AO2
94908KDBQ DBQ20101121080009811/21/10 08:00:31  5-MIN KDBQ 211400Z 15009KT 2SM BR OVC004 06/04 A2989 1110 92 300 150/09 RMK AO2
94908KDBQ DBQ20101121080510411/21/10 08:05:31  5-MIN KDBQ 211405Z 16011G16KT 2SM BR OVC004 06/04 A2988 1120 92 300 160/11G16 RMK AO2
94908KDBQ DBQ20101121081011111/21/10 08:10:31  5-MIN KDBQ 211410Z 15011G17KT 2SM BR BKN004 OVC013 06/04 A2988 1120 92 300 150/11G17 RMK AO2
94908KDBQ DBQ20101121081511211/21/10 08:15:31  5-MIN KDBQ 211415Z 15012KT 2SM BR BKN004 BKN013 OVC029 06/04 A2987 1120 92 300 150/12 RMK AO2
94908KDBQ DBQ20101121082011811/21/10 08:20:31  5-MIN KDBQ 211420Z 15013G20KT 2SM BR BKN004 BKN013 OVC029 06/04 A2987 1130 89 400 140/13G20 RMK AO2
94908KDBQ DBQ20101121082511811/21/10 08:25:31  5-MIN KDBQ 211425Z 15015G20KT 2SM BR BKN004 BKN013 OVC029 06/04 A2987 1130 89 400 150/15G20 RMK AO2
94908KDBQ DBQ20101121083011811/21/10 08:30:31  5-MIN KDBQ 211430Z 16014G20KT 2SM BR BKN004 BKN013 OVC029 06/05 A2987 1120 93 400 150/14G20 RMK AO2
94908KDBQ DBQ20101121083511211/21/10 08:35:31  5-MIN KDBQ 211435Z 16013KT 2SM BR BKN004 BKN013 OVC029 06/05 A2987 1130 93 400 150/13 RMK AO2
94908KDBQ DBQ20101121084011211/21/10 08:40:31  5-MIN KDBQ 211440Z 16012KT 2SM BR BKN004 BKN013 OVC029 06/05 A2987 1120 93 400 160/12 RMK AO2
94908KDBQ DBQ20101121084511211/21/10 08:45:31  5-MIN KDBQ 211445Z 16011KT 2SM BR BKN004 BKN013 OVC029 06/05 A2987 1120 93 400 160/11 RMK AO2
94908KDBQ DBQ20101121085013511/21/10 08:50:31  5-MIN KDBQ 211450Z 16009KT 2SM BR BKN004 BKN013 OVC029 06/05 A2987 1120 93 400 160/09 RMK AO2 SLP124 T00610050 58021
94908KDBQ DBQ20101121085511911/21/10 08:55:31  5-MIN KDBQ 211455Z 16009KT 1 3/4SM R36/5500VP6000FT BR OVC004 06/05 A2987 1130 93 400 160/09 RMK AO2
94908KDBQ DBQ20101121090011811/21/10 09:00:31  5-MIN KDBQ 211500Z 16011KT 1 1/4SM R36/5000V6000FT BR OVC004 06/06 A2986 1130 96 400 160/11 RMK AO2
94908KDBQ DBQ20101121090511811/21/10 09:05:31  5-MIN KDBQ 211505Z 16008KT 1 1/4SM R36/4500V5500FT BR OVC004 06/06 A2986 1130 96 400 160/08 RMK AO2
94908KDBQ DBQ20101121091011811/21/10 09:10:31  5-MIN KDBQ 211510Z 16010KT 1 1/4SM R36/4000V5000FT BR OVC004 06/06 A2986 1130 96 400 160/10 RMK AO2
94908KDBQ DBQ20101121091511411/21/10 09:15:31  5-MIN KDBQ 211515Z 16009KT 1SM R36/4000V5000FT BR OVC004 06/06 A2986 1140 96 400 160/09 RMK AO2
94908KDBQ DBQ20101121092012011/21/10 09:20:31  5-MIN KDBQ 211520Z 16010KT 1SM R36/4000V5000FT BR OVC004 06/06 A2986 1140 96 400 160/10 RMK AO2 P0001
94908KDBQ DBQ20101121092512011/21/10 09:25:31  5-MIN KDBQ 211525Z 15012KT 1SM R36/4500V5000FT BR OVC004 06/06 A2985 1140 96 400 150/12 RMK AO2 P0001
94908KDBQ DBQ20101121093012011/21/10 09:30:31  5-MIN KDBQ 211530Z 16012KT 1SM R36/4500V5500FT BR OVC004 06/06 A2985 1140 96 400 160/12 RMK AO2 P0001
94908KDBQ DBQ20101121093512011/21/10 09:35:31  5-MIN KDBQ 211535Z 16011KT 1SM R36/4500V5500FT BR OVC004 06/06 A2985 1140 96 400 160/11 RMK AO2 P0001
94908KDBQ DBQ20101121094013011/21/10 09:40:31  5-MIN KDBQ 211540Z 16012KT 1SM R36/4000V5000FT -RA BR OVC004 06/06 A2985 1140 96 400 160/12 RMK AO2 RAB37 P0001
94908KDBQ DBQ20101121094513411/21/10 09:45:31  5-MIN KDBQ 211545Z 16011KT 1 1/4SM R36/4000V5000FT -RA BR OVC004 07/06 A2985 1140 96 500 160/11 RMK AO2 RAB37 P0001
94908KDBQ DBQ20101121095015011/21/10 09:50:31  5-MIN KDBQ 211550Z 16011KT 1 1/4SM R36/4500V5000FT BR OVC004 07/06 A2985 1150 96 500 160/11 RMK AO2 RAB37E46 SLP116 P0001 T00670061
94908KDBQ DBQ20101121095511411/21/10 09:55:31  5-MIN KDBQ 211555Z 16012KT 1SM R36/4500V5000FT BR OVC004 07/06 A2984 1150 96 500 160/12 RMK AO2
94908KDBQ DBQ20101121100011411/21/10 10:00:31  5-MIN KDBQ 211600Z 16011KT 1SM R36/4500V5000FT BR OVC004 07/06 A2984 1150 96 500 160/11 RMK AO2
94908KDBQ DBQ20101121100512611/21/10 10:05:31  5-MIN KDBQ 211605Z 16012G17KT 1SM R36/3500V5000FT BR OVC004 07/06 A2984 1160 96 500 150/12G17 RMK AO2 P0001
94908KDBQ DBQ20101121101012611/21/10 10:10:31  5-MIN KDBQ 211610Z 16012G18KT 1SM R36/3500V5000FT BR OVC004 07/06 A2984 1160 96 500 160/12G18 RMK AO2 P0001
94908KDBQ DBQ20101121101513711/21/10 10:15:31  5-MIN KDBQ 211615Z 16014G18KT 1SM R36/4500V5000FT -RA BR OVC004 07/07 A2983 1160 100 500 160/14G18 RMK AO2 RAB14 P0001
94908KDBQ DBQ20101121102014011/21/10 10:20:31  5-MIN KDBQ 211620Z 16013G20KT 1 1/4SM R36/4500V6000FT -RA BR OVC004 07/07 A2983 1160 96 500 160/13G20 RMK AO2 RAB14 P0001
94908KDBQ DBQ20101121102513911/21/10 10:25:31  5-MIN KDBQ 211625Z 16013G22KT 1 1/2SM R36/5000V6000FT BR OVC004 07/07 A2982 1170 96 600 160/13G22 RMK AO2 RAB14E24 P0001
94908KDBQ DBQ20101121103013911/21/10 10:30:31  5-MIN KDBQ 211630Z 16014G24KT 1 1/2SM R36/5000V6000FT BR OVC004 07/07 A2982 1170 96 600 160/14G24 RMK AO2 RAB14E24 P0001
94908KDBQ DBQ20101121103513911/21/10 10:35:31  5-MIN KDBQ 211635Z 16015G24KT 1 1/2SM R36/5500V6000FT BR OVC004 07/07 A2981 1180 96 600 150/15G24 RMK AO2 RAB14E24 P0001
94908KDBQ DBQ20101121104013911/21/10 10:40:31  5-MIN KDBQ 211640Z 16016G23KT 1 1/2SM R36/5000V6000FT BR OVC004 07/07 A2981 1180 96 600 150/16G23 RMK AO2 RAB14E24 P0001
94908KDBQ DBQ20101121104513911/21/10 10:45:31  5-MIN KDBQ 211645Z 16016G23KT 1 1/2SM R36/5000V5500FT BR OVC004 08/07 A2981 1180 96 600 160/16G23 RMK AO2 RAB14E24 P0002
94908KDBQ DBQ20101121105015011/21/10 10:50:31  5-MIN KDBQ 211650Z 16013KT 1 1/2SM R36/5000V5500FT BR OVC002 08/07 A2980 1190 96 600 160/13 RMK AO2 RAB14E24 SLP101 P0002 T00780072
94908KDBQ DBQ20101121105512411/21/10 10:55:31  5-MIN KDBQ 211655Z 17014G21KT 1 1/2SM R36/5000V5500FT BR OVC002 08/07 A2980 1190 96 600 160/14G21 RMK AO2
94908KDBQ DBQ20101121110012511/21/10 11:00:31  5-MIN KDBQ 211700Z 17013G21KT 1 1/4SM R36/5000V5500FT BR OVC002 08/08 A2980 1190 100 600 170/13G21 RMK AO2
94908KDBQ DBQ20101121110512411/21/10 11:05:31  5-MIN KDBQ 211705Z 17018G24KT 1 1/4SM R36/4500V5500FT BR OVC002 08/08 A2980 1190 96 700 170/18G24 RMK AO2
94908KDBQ DBQ20101121111012411/21/10 11:10:31  5-MIN KDBQ 211710Z 17017G24KT 1 1/4SM R36/4000V5500FT BR OVC002 08/08 A2979 1200 96 700 170/17G24 RMK AO2
94908KDBQ DBQ20101121111512011/21/10 11:15:31  5-MIN KDBQ 211715Z 17017G24KT 1SM R36/3500V5000FT BR OVC002 08/08 A2979 1200 96 700 170/17G24 RMK AO2
94908KDBQ DBQ20101121112012211/21/10 11:20:31  5-MIN KDBQ 211720Z 17015G24KT 3/4SM R36/3000V4000FT BR OVC002 08/08 A2978 1200 96 700 170/15G24 RMK AO2
94908KDBQ DBQ20101121112512211/21/10 11:25:31  5-MIN KDBQ 211725Z 17016G24KT 1/2SM R36/2400V3500FT FG OVC002 08/08 A2978 1210 96 700 170/16G24 RMK AO2
94908KDBQ DBQ20101121113012211/21/10 11:30:31  5-MIN KDBQ 211730Z 17015G24KT 1/2SM R36/2200V2800FT FG OVC002 08/08 A2978 1210 96 700 170/15G24 RMK AO2
94908KDBQ DBQ20101121113512311/21/10 11:35:31  5-MIN KDBQ 211735Z 17013G24KT 1/4SM R36/1800V2600FT FG OVC002 08/08 A2977 1210 100 700 170/13G24 RMK AO2
94908KDBQ DBQ20101121114011711/21/10 11:40:31  5-MIN KDBQ 211740Z 17015KT 1/4SM R36/1800V2000FT FG OVC002 08/08 A2977 1220 100 700 170/15 RMK AO2
94908KDBQ DBQ20101121114512211/21/10 11:45:31  5-MIN KDBQ 211745Z 17014G22KT 1/4SM R36/1600V2000FT FG VV001 08/08 A2977 1220 100 700 170/14G22 RMK AO2
94908KDBQ DBQ20101121115012711/21/10 11:50:31  5-MIN KDBQ 211750Z 17014G22KT 1/4SM R36/1600V1800FT FG VV001 09/08 A2976 1220 96 800 170/14G22 RMK AO2 P0001
94908KDBQ DBQ20101121115512111/21/10 11:55:31  5-MIN KDBQ 211755Z 17013G22KT 1/4SM R36/1600V1800FT FG VV001 09/08 A2976 1230 96 800 170/13G22 RMK AO2
94908KDBQ DBQ20101121120011111/21/10 12:00:31  5-MIN KDBQ 211800Z 17013KT 1/4SM R36/1800FT FG VV001 09/09 A2976 1230 100 800 170/13 RMK AO2
94908KDBQ DBQ20101121120511611/21/10 12:05:31  5-MIN KDBQ 211805Z 18013KT 1/4SM R36/1800V2200FT FG VV001 09/09 A2976 1230 100 800 180/13 RMK AO2
94908KDBQ DBQ20101121121011511/21/10 12:10:31  5-MIN KDBQ 211810Z 18013KT 1/4SM R36/1800V2600FT FG VV001 09/09 A2976 1230 96 900 170/13 RMK AO2
94908KDBQ DBQ20101121121512211/21/10 12:15:31  5-MIN KDBQ 211815Z 18014G24KT 1/2SM R36/2400V3500FT FG VV001 09/09 A2976 1230 100 900 180/14G24 RMK AO2
94908KDBQ DBQ20101121122012311/21/10 12:20:31  5-MIN KDBQ 211820Z 18013G24KT 1/2SM R36/2800V4000FT FG OVC001 10/09 A2976 1230 96 1000 180/13G24 RMK AO2
94908KDBQ DBQ20101121122512311/21/10 12:25:31  5-MIN KDBQ 211825Z 18014G21KT 3/4SM R36/3500V4500FT BR OVC001 10/09 A2975 1240 96 1000 180/14G21 RMK AO2
94908KDBQ DBQ20101121123011511/21/10 12:30:31  5-MIN KDBQ 211830Z 18014KT 1SM R36/4000V5000FT BR OVC001 10/09 A2975 1240 96 1000 170/14 RMK AO2
94908KDBQ DBQ20101121123512611/21/10 12:35:31  5-MIN KDBQ 211835Z 18013G21KT 1 1/4SM R36/4500V5500FT BR OVC001 10/10 A2975 1240 100 1000 180/13G21 RMK AO2
94908KDBQ DBQ20101121124013111/21/10 12:40:31  5-MIN KDBQ 211840Z 18012G21KT 1 1/2SM R36/5000V6000FT BR OVC001 11/10 A2975 1240 96 1000 180/12G21 RMK AO2 P0001
94908KDBQ DBQ20101121124513111/21/10 12:45:31  5-MIN KDBQ 211845Z 18014G22KT 1 1/2SM R36/5500V6000FT BR OVC001 11/10 A2974 1250 96 1000 180/14G22 RMK AO2 P0001
94908KDBQ DBQ20101121125014911/21/10 12:50:31  5-MIN KDBQ 211850Z 18014G22KT 1 3/4SM R36/5500VP6000FT BR OVC001 11/10 A2974 1250 96 1100 180/14G22 RMK AO2 SLP076 P0001 T01060100
94908KDBQ DBQ20101121125512211/21/10 12:55:31  5-MIN KDBQ 211855Z 18014G21KT 2SM R36/6000VP6000FT BR OVC003 11/10 A2974 1250 96 1100 180/14G21 RMK AO2
94908KDBQ DBQ20101121130011111/21/10 13:00:31  5-MIN KDBQ 211900Z 18013KT 2SM BR OVC003 11/11 A2973 1250 96 1100 180/13 RMK AO2 CIG 002V006
94908KDBQ DBQ20101121130511511/21/10 13:05:31  5-MIN KDBQ 211905Z 18015KT 2 1/2SM BR OVC003 11/11 A2973 1260 96 1100 180/15 RMK AO2 CIG 002V006
94908KDBQ DBQ20101121131011511/21/10 13:10:31  5-MIN KDBQ 211910Z 18014KT 2 1/2SM BR OVC003 11/11 A2972 1260 96 1100 180/14 RMK AO2 CIG 002V007
94908KDBQ DBQ20101121131511511/21/10 13:15:31  5-MIN KDBQ 211915Z 18014KT 2 1/2SM BR OVC003 12/11 A2972 1260 93 1200 180/14 RMK AO2 CIG 003V008
94908KDBQ DBQ20101121132011111/21/10 13:20:31  5-MIN KDBQ 211920Z 18014KT 3SM BR OVC005 12/11 A2972 1260 93 1200 180/14 RMK AO2 CIG 003V009
94908KDBQ DBQ20101121132511111/21/10 13:25:31  5-MIN KDBQ 211925Z 18013KT 3SM BR OVC005 12/11 A2972 1260 93 1200 180/13 RMK AO2 CIG 004V009
94908KDBQ DBQ20101121133011711/21/10 13:30:31  5-MIN KDBQ 211930Z 19014KT 3SM BR OVC005 12/11 A2972 1260 93 1200 180/14 RMK AO2 CIG 004V009 P0001
94908KDBQ DBQ20101121133512311/21/10 13:35:31  5-MIN KDBQ 211935Z 18014G21KT 3SM BR OVC005 12/11 A2972 1270 93 1200 180/14G21 RMK AO2 CIG 004V010 P0001
94908KDBQ DBQ20101121134011711/21/10 13:40:31  5-MIN KDBQ 211940Z 18015KT 3SM BR OVC007 12/11 A2972 1270 93 1200 180/15 RMK AO2 CIG 005V011 P0001
94908KDBQ DBQ20101121134511711/21/10 13:45:31  5-MIN KDBQ 211945Z 19014KT 3SM BR OVC007 12/11 A2972 1260 93 1200 180/14 RMK AO2 CIG 005V011 P0001
94908KDBQ DBQ20101121135013411/21/10 13:50:31  5-MIN KDBQ 211950Z 19013KT 3SM BR OVC007 12/11 A2972 1270 93 1200 190/13 RMK AO2 CIG 005V011 SLP069 P0001 T01170106
94908KDBQ DBQ20101121135511111/21/10 13:55:31  5-MIN KDBQ 211955Z 19014KT 3SM BR OVC007 12/11 A2972 1260 96 1200 190/14 RMK AO2 CIG 005V011
94908KDBQ DBQ20101121140011111/21/10 14:00:31  5-MIN KDBQ 212000Z 19014KT 3SM BR OVC009 12/11 A2972 1270 93 1300 190/14 RMK AO2 CIG 006V012
94908KDBQ DBQ20101121140511111/21/10 14:05:31  5-MIN KDBQ 212005Z 19014KT 3SM BR OVC009 12/11 A2972 1270 89 1300 190/14 RMK AO2 CIG 006V012
94908KDBQ DBQ20101121141011111/21/10 14:10:31  5-MIN KDBQ 212010Z 19014KT 4SM BR OVC009 12/11 A2971 1270 89 1300 190/14 RMK AO2 CIG 006V013
94908KDBQ DBQ20101121141511111/21/10 14:15:31  5-MIN KDBQ 212015Z 19014KT 4SM BR OVC009 12/11 A2971 1270 89 1300 190/14 RMK AO2 CIG 007V013
94908KDBQ DBQ20101121142011111/21/10 14:20:31  5-MIN KDBQ 212020Z 19014KT 4SM BR OVC009 12/11 A2971 1280 93 1300 190/14 RMK AO2 CIG 007V013
94908KDBQ DBQ20101121142510511/21/10 14:25:31  5-MIN KDBQ 212025Z 19015G22KT 4SM BR OVC011 12/11 A2971 1280 93 1300 190/15G22 RMK AO2
94908KDBQ DBQ20101121143010511/21/10 14:30:31  5-MIN KDBQ 212030Z 18014G22KT 4SM BR OVC011 12/11 A2970 1280 93 1300 180/14G22 RMK AO2
94908KDBQ DBQ20101121143510511/21/10 14:35:31  5-MIN KDBQ 212035Z 18014G21KT 4SM BR OVC011 12/11 A2970 1280 93 1300 180/14G21 RMK AO2
94908KDBQ DBQ20101121144009911/21/10 14:40:31  5-MIN KDBQ 212040Z 19014KT 4SM BR OVC011 12/11 A2970 1280 93 1300 180/14 RMK AO2
94908KDBQ DBQ20101121144509911/21/10 14:45:31  5-MIN KDBQ 212045Z 18014KT 4SM BR OVC011 12/11 A2970 1280 93 1300 180/14 RMK AO2
94908KDBQ DBQ20101121145012811/21/10 14:50:31  5-MIN KDBQ 212050Z 18015KT 4SM BR OVC013 12/11 A2970 1280 93 1300 180/15 RMK AO2 SLP063 60002 T01220111 58035
94908KDBQ DBQ20101121145509911/21/10 14:55:31  5-MIN KDBQ 212055Z 19014KT 4SM BR OVC013 12/11 A2970 1280 93 1300 180/14 RMK AO2
94908KDBQ DBQ20101121150009911/21/10 15:00:31  5-MIN KDBQ 212100Z 18014KT 4SM BR OVC013 12/11 A2971 1280 93 1300 180/14 RMK AO2
94908KDBQ DBQ20101121150510511/21/10 15:05:31  5-MIN KDBQ 212105Z 19013KT 4SM BR OVC013 12/11 A2971 1280 93 1300 190/13 RMK AO2 P0001
94908KDBQ DBQ20101121151010511/21/10 15:10:31  5-MIN KDBQ 212110Z 19014KT 4SM BR OVC013 12/11 A2971 1270 93 1300 190/14 RMK AO2 P0001
94908KDBQ DBQ20101121151510511/21/10 15:15:31  5-MIN KDBQ 212115Z 19014KT 4SM BR OVC013 12/11 A2971 1270 93 1300 190/14 RMK AO2 P0001
94908KDBQ DBQ20101121152010511/21/10 15:20:31  5-MIN KDBQ 212120Z 19014KT 4SM BR OVC013 12/11 A2971 1270 93 1300 190/14 RMK AO2 P0001
94908KDBQ DBQ20101121152511911/21/10 15:25:31  5-MIN KDBQ 212125Z 19014KT 4SM BR BKN013 BKN018 OVC046 12/11 A2971 1270 93 1300 190/14 RMK AO2 P0001
94908KDBQ DBQ20101121153011911/21/10 15:30:31  5-MIN KDBQ 212130Z 19014KT 4SM BR BKN013 BKN018 OVC046 12/11 A2971 1270 93 1300 190/14 RMK AO2 P0001
94908KDBQ DBQ20101121153512511/21/10 15:35:31  5-MIN KDBQ 212135Z 18013G21KT 4SM BR BKN013 BKN018 OVC046 12/11 A2971 1270 93 1300 180/13G21 RMK AO2 P0001
94908KDBQ DBQ20101121154011911/21/10 15:40:31  5-MIN KDBQ 212140Z 19014KT 4SM BR BKN013 BKN018 OVC048 12/11 A2971 1270 93 1300 190/14 RMK AO2 P0001
94908KDBQ DBQ20101121154511911/21/10 15:45:31  5-MIN KDBQ 212145Z 19014KT 4SM BR SCT013 SCT018 OVC048 12/11 A2971 1270 93 1300 180/14 RMK AO2 P0001
94908KDBQ DBQ20101121155013611/21/10 15:50:31  5-MIN KDBQ 212150Z 19014KT 5SM BR FEW013 SCT018 OVC048 12/11 A2971 1270 93 1300 190/14 RMK AO2 SLP067 P0001 T01220111
94908KDBQ DBQ20101121155510611/21/10 15:55:31  5-MIN KDBQ 212155Z 19014KT 5SM BR FEW015 OVC048 12/11 A2971 1270 93 1300 190/14 RMK AO2
94908KDBQ DBQ20101121160010611/21/10 16:00:31  5-MIN KDBQ 212200Z 18014KT 5SM BR FEW013 OVC048 12/11 A2971 1270 93 1300 180/14 RMK AO2
94908KDBQ DBQ20101121160510611/21/10 16:05:31  5-MIN KDBQ 212205Z 18014KT 5SM BR FEW013 OVC048 12/11 A2971 1270 89 1300 180/14 RMK AO2
94908KDBQ DBQ20101121161009911/21/10 16:10:31  5-MIN KDBQ 212210Z 18013KT 5SM BR OVC048 12/11 A2971 1270 89 1300 180/13 RMK AO2
94908KDBQ DBQ20101121161509911/21/10 16:15:31  5-MIN KDBQ 212215Z 18014KT 5SM BR OVC048 12/11 A2971 1270 89 1300 180/14 RMK AO2
94908KDBQ DBQ20101121162009911/21/10 16:20:31  5-MIN KDBQ 212220Z 18014KT 5SM BR OVC048 12/11 A2971 1270 89 1300 180/14 RMK AO2
94908KDBQ DBQ20101121162509911/21/10 16:25:31  5-MIN KDBQ 212225Z 18014KT 5SM BR OVC048 12/11 A2971 1270 89 1300 180/14 RMK AO2
94908KDBQ DBQ20101121163009911/21/10 16:30:31  5-MIN KDBQ 212230Z 18014KT 5SM BR OVC048 12/11 A2971 1270 89 1300 180/14 RMK AO2
94908KDBQ DBQ20101121163509911/21/10 16:35:31  5-MIN KDBQ 212235Z 18013KT 5SM BR OVC048 12/11 A2971 1270 89 1300 180/13 RMK AO2
94908KDBQ DBQ20101121164010611/21/10 16:40:31  5-MIN KDBQ 212240Z 18014KT 5SM BR FEW038 OVC048 12/11 A2972 1270 89 1300 180/14 RMK AO2
94908KDBQ DBQ20101121164510611/21/10 16:45:31  5-MIN KDBQ 212245Z 18013KT 5SM BR FEW038 OVC050 12/11 A2972 1270 89 1300 180/13 RMK AO2
94908KDBQ DBQ20101121165013011/21/10 16:50:31  5-MIN KDBQ 212250Z 18013KT 5SM BR FEW026 SCT037 OVC050 12/11 A2972 1270 89 1300 180/13 RMK AO2 SLP068 T01220106
94908KDBQ DBQ20101121165511311/21/10 16:55:31  5-MIN KDBQ 212255Z 18014KT 6SM BR FEW026 SCT037 OVC050 12/11 A2972 1270 89 1300 180/14 RMK AO2
94908KDBQ DBQ20101121170011311/21/10 17:00:31  5-MIN KDBQ 212300Z 19013KT 6SM BR FEW014 BKN040 OVC050 12/11 A2972 1260 89 1300 190/13 RMK AO2
94908KDBQ DBQ20101121170511311/21/10 17:05:31  5-MIN KDBQ 212305Z 19013KT 6SM BR FEW014 BKN037 OVC050 12/11 A2972 1260 89 1300 190/13 RMK AO2
94908KDBQ DBQ20101121171011911/21/10 17:10:31  5-MIN KDBQ 212310Z 18014G19KT 6SM BR FEW014 BKN028 OVC050 12/11 A2972 1260 89 1300 180/14G19 RMK AO2
94908KDBQ DBQ20101121171511911/21/10 17:15:31  5-MIN KDBQ 212315Z 19012G19KT 6SM BR SCT014 BKN023 OVC050 12/11 A2972 1260 89 1300 190/12G19 RMK AO2
94908KDBQ DBQ20101121172011311/21/10 17:20:31  5-MIN KDBQ 212320Z 20011KT 6SM BR SCT014 BKN023 OVC050 12/11 A2973 1250 89 1300 200/11 RMK AO2
94908KDBQ DBQ20101121172511911/21/10 17:25:31  5-MIN KDBQ 212325Z 21010KT 6SM BR FEW014 BKN023 OVC048 12/11 A2974 1250 89 1300 200/10 RMK AO2 P0001
94908KDBQ DBQ20101121173011911/21/10 17:30:31  5-MIN KDBQ 212330Z 21011KT 6SM BR FEW014 BKN021 OVC048 12/11 A2974 1240 89 1200 210/11 RMK AO2 P0001
94908KDBQ DBQ20101121173511911/21/10 17:35:31  5-MIN KDBQ 212335Z 21010KT 6SM BR SCT014 BKN021 OVC048 12/11 A2974 1240 89 1200 210/10 RMK AO2 P0001
94908KDBQ DBQ20101121174011911/21/10 17:40:31  5-MIN KDBQ 212340Z 21009KT 6SM BR BKN016 BKN021 OVC031 12/11 A2974 1240 93 1200 210/09 RMK AO2 P0001
94908KDBQ DBQ20101121174511911/21/10 17:45:31  5-MIN KDBQ 212345Z 21010KT 6SM BR SCT016 BKN021 OVC031 12/11 A2975 1240 93 1200 210/10 RMK AO2 P0001
94908KDBQ DBQ20101121175015311/21/10 17:50:31  5-MIN KDBQ 212350Z 22010KT 4SM BR BKN016 OVC025 12/11 A2975 1240 93 1200 220/10 RMK AO2 SLP078 P0001 60004 T01220111 10122 20089 56020
94908KDBQ DBQ20101121175510611/21/10 17:55:31  5-MIN KDBQ 212355Z 22008KT 4SM BR BKN016 OVC022 12/11 A2975 1240 93 1200 220/08 RMK AO2
94908KDBQ DBQ20101121180010611/21/10 18:00:31  5-MIN KDBQ 220000Z 21007KT 4SM BR BKN016 OVC021 12/11 A2975 1240 89 1200 210/07 RMK AO2
94908KDBQ DBQ20101121180510611/21/10 18:05:31  5-MIN KDBQ 220005Z 21007KT 4SM BR BKN016 OVC021 12/11 A2975 1240 89 1200 210/07 RMK AO2
94908KDBQ DBQ20101121181010611/21/10 18:10:31  5-MIN KDBQ 220010Z 21007KT 5SM BR BKN016 OVC021 12/11 A2975 1230 89 1200 210/07 RMK AO2
94908KDBQ DBQ20101121181509911/21/10 18:15:31  5-MIN KDBQ 220015Z 21007KT 5SM BR OVC014 12/11 A2975 1230 89 1200 210/07 RMK AO2
94908KDBQ DBQ20101121182009911/21/10 18:20:31  5-MIN KDBQ 220020Z 21007KT 5SM BR OVC014 12/11 A2975 1230 93 1200 210/07 RMK AO2
94908KDBQ DBQ20101121182509911/21/10 18:25:31  5-MIN KDBQ 220025Z 22007KT 6SM BR OVC012 12/11 A2976 1230 89 1200 220/07 RMK AO2
94908KDBQ DBQ20101121183009911/21/10 18:30:31  5-MIN KDBQ 220030Z 23007KT 6SM BR OVC012 12/11 A2976 1230 89 1200 230/07 RMK AO2
94908KDBQ DBQ20101121183509911/21/10 18:35:31  5-MIN KDBQ 220035Z 26011KT 6SM BR OVC012 12/11 A2976 1230 89 1200 260/11 RMK AO2
94908KDBQ DBQ20101121184009911/21/10 18:40:31  5-MIN KDBQ 220040Z 27010KT 6SM BR OVC012 12/09 A2976 1230 86 1200 270/10 RMK AO2
94908KDBQ DBQ20101121184510811/21/10 18:45:31  5-MIN KDBQ 220045Z 26010KT 7SM OVC010 11/09 A2976 1230 89 1100 260/10 RMK AO2 CIG 007V014
94908KDBQ DBQ20101121185012511/21/10 18:50:31  5-MIN KDBQ 220050Z 26009KT 7SM OVC010 11/09 A2976 1220 89 1100 260/09 RMK AO2 CIG 007V013 SLP084 T01110094
94908KDBQ DBQ20101121185509611/21/10 18:55:31  5-MIN KDBQ 220055Z 26009KT 7SM OVC010 11/09 A2977 1220 86 1100 260/09 RMK AO2
94908KDBQ DBQ20101121190009611/21/10 19:00:31  5-MIN KDBQ 220100Z 26009KT 7SM OVC010 11/09 A2977 1220 89 1000 260/09 RMK AO2
94908KDBQ DBQ20101121190509611/21/10 19:05:31  5-MIN KDBQ 220105Z 26009KT 7SM OVC012 11/09 A2977 1220 89 1000 260/09 RMK AO2
94908KDBQ DBQ20101121191009611/21/10 19:10:31  5-MIN KDBQ 220110Z 26010KT 7SM OVC012 11/09 A2977 1220 89 1000 260/10 RMK AO2
94908KDBQ DBQ20101121191510511/21/10 19:15:31  5-MIN KDBQ 220115Z 26013G17KT 6SM BR OVC012 11/09 A2977 1220 89 1000 260/13G17 RMK AO2
94908KDBQ DBQ20101121192011711/21/10 19:20:31  5-MIN KDBQ 220120Z 27013KT 6SM BR BKN009 OVC012 10/08 A2977 1220 89 900 270/13 RMK AO2 CIG 008V012
94908KDBQ DBQ20101121192511711/21/10 19:25:31  5-MIN KDBQ 220125Z 27012KT 6SM BR BKN009 OVC012 10/08 A2978 1210 89 900 270/12 RMK AO2 CIG 008V012
94908KDBQ DBQ20101121193009811/21/10 19:30:31  5-MIN KDBQ 220130Z 27014KT 6SM BR OVC009 09/08 A2978 1210 89 900 270/14 RMK AO2
94908KDBQ DBQ20101121193510411/21/10 19:35:31  5-MIN KDBQ 220135Z 27014G18KT 5SM BR OVC009 09/08 A2978 1210 89 900 270/14G18 RMK AO2
94908KDBQ DBQ20101121194009811/21/10 19:40:31  5-MIN KDBQ 220140Z 27013KT 5SM BR OVC009 09/08 A2978 1210 93 800 270/13 RMK AO2
94908KDBQ DBQ20101121194511011/21/10 19:45:31  5-MIN KDBQ 220145Z 27011KT 5SM BR OVC009 09/07 A2978 1210 89 800 270/11 RMK AO2 CIG 007V012
94908KDBQ DBQ20101121195012711/21/10 19:50:31  5-MIN KDBQ 220150Z 26011KT 5SM BR OVC009 09/07 A2978 1210 89 800 260/11 RMK AO2 CIG 007V012 SLP089 T00890072
94908KDBQ DBQ20101121195511611/21/10 19:55:31  5-MIN KDBQ 220155Z 25013G18KT 5SM BR OVC009 08/07 A2977 1220 93 700 250/13G18 RMK AO2 CIG 006V012
94908KDBQ DBQ20101121200011611/21/10 20:00:31  5-MIN KDBQ 220200Z AUTO 25010G18KT 5SM BR BKN009 OVC013 08/07 A2978 1210 93 700 250/10G18 RMK AO2
94908KDBQ DBQ20101121200512211/21/10 20:05:31  5-MIN KDBQ 220205Z AUTO 26013KT 5SM BR BKN009 OVC015 08/07 A2978 1210 89 700 260/13 RMK AO2 CIG 006V011
94908KDBQ DBQ20101121201012211/21/10 20:10:31  5-MIN KDBQ 220210Z AUTO 26013KT 5SM BR BKN009 OVC015 08/06 A2978 1200 86 700 260/13 RMK AO2 CIG 006V013
94908KDBQ DBQ20101121201512211/21/10 20:15:31  5-MIN KDBQ 220215Z AUTO 26011KT 5SM BR BKN009 OVC015 08/06 A2978 1200 89 700 260/11 RMK AO2 CIG 006V010
94908KDBQ DBQ20101121202012211/21/10 20:20:31  5-MIN KDBQ 220220Z AUTO 27009KT 5SM BR BKN009 OVC015 08/06 A2979 1200 89 700 270/09 RMK AO2 CIG 006V013
94908KDBQ DBQ20101121202511011/21/10 20:25:31  5-MIN KDBQ 220225Z AUTO 28014KT 5SM BR SCT009 OVC015 08/06 A2979 1200 89 700 280/14 RMK AO2
94908KDBQ DBQ20101121203011011/21/10 20:30:31  5-MIN KDBQ 220230Z AUTO 28014KT 6SM BR SCT009 OVC017 07/05 A2979 1200 86 600 280/14 RMK AO2
94908KDBQ DBQ20101121203511011/21/10 20:35:31  5-MIN KDBQ 220235Z AUTO 28011KT 6SM BR SCT009 OVC017 07/04 A2980 1190 86 500 280/11 RMK AO2
94908KDBQ DBQ20101121204010711/21/10 20:40:31  5-MIN KDBQ 220240Z AUTO 28012KT 7SM SCT009 OVC017 07/04 A2980 1190 82 500 280/12 RMK AO2
94908KDBQ DBQ20101121204510711/21/10 20:45:31  5-MIN KDBQ 220245Z AUTO 27010KT 8SM FEW009 OVC017 07/03 A2980 1190 79 500 270/10 RMK AO2
94908KDBQ DBQ20101121205013011/21/10 20:50:31  5-MIN KDBQ 220250Z AUTO 27013KT 8SM FEW009 OVC019 07/03 A2980 1190 79 500 270/13 RMK AO2 SLP097 T00670033 53015
94908KDBQ DBQ20101121205510711/21/10 20:55:31  5-MIN KDBQ 220255Z AUTO 27012KT 8SM FEW009 OVC019 07/03 A2980 1190 79 500 270/12 RMK AO2
94908KDBQ DBQ20101121210010711/21/10 21:00:31  5-MIN KDBQ 220300Z AUTO 27012KT 8SM FEW009 OVC019 07/03 A2980 1190 79 500 270/12 RMK AO2
94908KDBQ DBQ20101121210510011/21/10 21:05:31  5-MIN KDBQ 220305Z AUTO 28009KT 8SM OVC019 07/03 A2980 1190 79 500 280/09 RMK AO2
94908KDBQ DBQ20101121211010011/21/10 21:10:31  5-MIN KDBQ 220310Z AUTO 28010KT 8SM OVC019 07/03 A2980 1190 79 500 280/10 RMK AO2
94908KDBQ DBQ20101121211510011/21/10 21:15:31  5-MIN KDBQ 220315Z AUTO 28007KT 8SM OVC021 06/03 A2980 1190 82 400 280/07 RMK AO2
94908KDBQ DBQ20101121212010611/21/10 21:20:31  5-MIN KDBQ 220320Z AUTO 28010G14KT 8SM OVC021 06/03 A2980 1190 82 400 280/10G14 RMK AO2
94908KDBQ DBQ20101121212510011/21/10 21:25:31  5-MIN KDBQ 220325Z AUTO 27008KT 8SM OVC021 06/03 A2981 1180 82 400 270/08 RMK AO2
94908KDBQ DBQ20101121213010011/21/10 21:30:31  5-MIN KDBQ 220330Z AUTO 27008KT 8SM OVC021 06/03 A2981 1180 82 400 270/08 RMK AO2
94908KDBQ DBQ20101121213510011/21/10 21:35:31  5-MIN KDBQ 220335Z AUTO 28009KT 7SM OVC021 06/03 A2981 1180 82 400 280/09 RMK AO2
94908KDBQ DBQ20101121214010011/21/10 21:40:31  5-MIN KDBQ 220340Z AUTO 27008KT 7SM OVC023 06/03 A2981 1180 82 400 270/08 RMK AO2
94908KDBQ DBQ20101121214510011/21/10 21:45:31  5-MIN KDBQ 220345Z AUTO 27008KT 7SM OVC023 06/03 A2981 1180 82 400 270/08 RMK AO2
94908KDBQ DBQ20101121215011711/21/10 21:50:31  5-MIN KDBQ 220350Z AUTO 27006KT 7SM OVC023 06/03 A2980 1190 82 400 270/06 RMK AO2 SLP098 T00610033
94908KDBQ DBQ20101121215510011/21/10 21:55:31  5-MIN KDBQ 220355Z AUTO 27007KT 7SM OVC023 06/04 A2981 1180 86 400 270/07 RMK AO2
94908KDBQ DBQ20101121220010011/21/10 22:00:31  5-MIN KDBQ 220400Z AUTO 27007KT 7SM OVC025 06/03 A2981 1180 82 400 270/07 RMK AO2
94908KDBQ DBQ20101121220510011/21/10 22:05:31  5-MIN KDBQ 220405Z AUTO 27005KT 7SM OVC025 06/03 A2980 1190 82 400 270/05 RMK AO2
94908KDBQ DBQ20101121221010311/21/10 22:10:31  5-MIN KDBQ 220410Z AUTO 26005KT 6SM BR OVC025 06/04 A2980 1190 86 400 260/05 RMK AO2
94908KDBQ DBQ20101121221510311/21/10 22:15:31  5-MIN KDBQ 220415Z AUTO 27007KT 6SM BR OVC025 06/04 A2981 1180 86 400 270/07 RMK AO2
94908KDBQ DBQ20101121222010011/21/10 22:20:31  5-MIN KDBQ 220420Z AUTO 26006KT 7SM OVC025 06/03 A2981 1180 82 400 260/06 RMK AO2
94908KDBQ DBQ20101121222510011/21/10 22:25:31  5-MIN KDBQ 220425Z AUTO 27007KT 7SM OVC025 06/03 A2981 1180 82 400 270/07 RMK AO2
94908KDBQ DBQ20101121223010311/21/10 22:30:31  5-MIN KDBQ 220430Z AUTO 27006KT 6SM HZ OVC025 06/03 A2981 1180 82 400 270/06 RMK AO2
94908KDBQ DBQ20101121223510311/21/10 22:35:31  5-MIN KDBQ 220435Z AUTO 27007KT 6SM HZ OVC025 06/03 A2981 1180 82 400 260/07 RMK AO2
94908KDBQ DBQ20101121224010011/21/10 22:40:31  5-MIN KDBQ 220440Z AUTO 28006KT 7SM OVC027 06/03 A2981 1180 82 400 280/06 RMK AO2
94908KDBQ DBQ20101121224511111/21/10 22:45:31  5-MIN KDBQ 220445Z AUTO 28006KT 7SM OVC027 06/03 A2980 1190 82 400 280/06 RMK AO2 LTG DSNT S
94908KDBQ DBQ20101121225012811/21/10 22:50:31  5-MIN KDBQ 220450Z AUTO 27007KT 7SM OVC027 06/03 A2980 1190 82 400 270/07 RMK AO2 LTG DSNT S SLP097 T00610033
94908KDBQ DBQ20101121225511111/21/10 22:55:31  5-MIN KDBQ 220455Z AUTO 27007KT 7SM OVC027 06/03 A2981 1180 82 400 270/07 RMK AO2 LTG DSNT S
94908KDBQ DBQ20101121230011111/21/10 23:00:31  5-MIN KDBQ 220500Z AUTO 26005KT 7SM OVC027 06/03 A2980 1190 82 400 260/05 RMK AO2 LTG DSNT S
94908KDBQ DBQ20101121230511811/21/10 23:05:31  5-MIN KDBQ 220505Z AUTO 26006KT 7SM OVC027 06/03 A2981 1180 82 400 260/06 RMK AO2 LTG DSNT SE AND S
94908KDBQ DBQ20101121231011811/21/10 23:10:31  5-MIN KDBQ 220510Z AUTO 26007KT 7SM OVC027 06/03 A2981 1180 82 400 260/07 RMK AO2 LTG DSNT SE AND S
94908KDBQ DBQ20101121231512111/21/10 23:15:31  5-MIN KDBQ 220515Z AUTO 25005KT 6SM HZ OVC027 06/03 A2982 1170 82 400 250/05 RMK AO2 LTG DSNT SE AND S
94908KDBQ DBQ20101121232011511/21/10 23:20:31  5-MIN KDBQ 220520Z AUTO 24007KT 6SM HZ OVC027 06/03 A2982 1170 82 400 240/07 RMK AO2 LTG DSNT SE
94908KDBQ DBQ20101121232511511/21/10 23:25:31  5-MIN KDBQ 220525Z AUTO 25006KT 6SM BR OVC027 06/03 A2982 1170 85 400 250/06 RMK AO2 LTG DSNT SE
94908KDBQ DBQ20101121233012811/21/10 23:30:31  5-MIN KDBQ 220530Z AUTO 24005KT 6SM BR BKN027 OVC037 06/03 A2982 1180 85 400 240/05 RMK AO2 LTG DSNT E AND SE
94908KDBQ DBQ20101121233513511/21/10 23:35:31  5-MIN KDBQ 220535Z AUTO 26007KT 6SM BR BKN027 BKN037 OVC048 06/03 A2982 1170 85 400 250/07 RMK AO2 LTG DSNT E AND SE
94908KDBQ DBQ20101121234012811/21/10 23:40:31  5-MIN KDBQ 220540Z AUTO 26005KT 6SM BR SCT027 BKN034 OVC050 06/03 A2981 1180 85 400 260/05 RMK AO2 LTG DSNT E
94908KDBQ DBQ20101121234512811/21/10 23:45:31  5-MIN KDBQ 220545Z AUTO 24005KT 6SM BR SCT027 BKN039 OVC050 06/03 A2982 1180 85 400 240/05 RMK AO2 LTG DSNT E
94908KDBQ DBQ20101121235012711/21/10 23:50:31  5-MIN KDBQ 220550Z AUTO 25003KT 6SM BR BKN027 BKN035 OVC050 06/03 A2981 1180 85 400 250/03 RMK AO2 401220017
94908KDBQ DBQ20101121235512911/21/10 23:55:31  5-MIN KDBQ 220555Z AUTO 25007KT 6SM BR BKN027 BKN035 OVC050 06/04 A2982 1170 89 400 250/07 RMK AO2 LTG DSNT SW
94908KDBQ DBQ20101122000013511/22/10 00:00:38  5-MIN KDBQ 220600Z AUTO 25007KT 6SM BR FEW011 BKN027 OVC044 06/03 A2982 1170 85 400 250/07 RMK AO2 LTG DSNT E AND SW
94908KDBQ DBQ20101122000513511/22/10 00:05:31  5-MIN KDBQ 220605Z AUTO 25007KT 6SM BR FEW011 BKN025 OVC050 06/03 A2982 1170 85 400 250/07 RMK AO2 LTG DSNT E AND SW
94908KDBQ DBQ20101122001012811/22/10 00:10:31  5-MIN KDBQ 220610Z AUTO 24006KT 6SM BR FEW011 OVC025 06/03 A2982 1170 85 400 240/06 RMK AO2 LTG DSNT E AND SW
94908KDBQ DBQ20101122001512211/22/10 00:15:33  5-MIN KDBQ 220615Z AUTO 26006KT 6SM BR FEW011 OVC025 06/03 A2982 1170 85 400 260/06 RMK AO2 LTG DSNT SW
94908KDBQ DBQ20101122002011011/22/10 00:20:31  5-MIN KDBQ 220620Z AUTO 28005KT 6SM BR FEW011 OVC025 06/03 A2982 1170 85 400 280/05 RMK AO2
94908KDBQ DBQ20101122002512111/22/10 00:25:31  5-MIN KDBQ 220625Z AUTO 29006KT 6SM BR SCT011 OVC025 06/03 A2983 1170 85 300 290/06 RMK AO2 LTG DSNT E
94908KDBQ DBQ20101122003012711/22/10 00:30:31  5-MIN KDBQ 220630Z AUTO 28006KT 6SM BR SCT011 OVC025 05/03 A2982 1170 89 300 280/06 RMK AO2 LTG DSNT E AND S
94908KDBQ DBQ20101122003512711/22/10 00:35:31  5-MIN KDBQ 220635Z AUTO 28006KT 5SM BR BKN011 OVC025 05/03 A2983 1170 89 300 280/06 RMK AO2 LTG DSNT E AND S
94908KDBQ DBQ20101122004012811/22/10 00:40:31  5-MIN KDBQ 220640Z AUTO 27007KT 5SM BR BKN011 OVC025 05/03 A2983 1170 89 300 270/07 RMK AO2 LTG DSNT SE AND S
94908KDBQ DBQ20101122004512811/22/10 00:45:31  5-MIN KDBQ 220645Z AUTO 25007KT 5SM BR BKN011 OVC025 04/03 A2984 1160 92 200 250/07 RMK AO2 LTG DSNT E AND SE
94908KDBQ DBQ20101122005013811/22/10 00:50:31  5-MIN KDBQ 220650Z AUTO 27005KT 5SM BR OVC011 05/03 A2983 1160 89 300 270/05 RMK AO2 LTG DSNT E AND SE SLP107 T00500033
94908KDBQ DBQ20101122005513311/22/10 00:55:31  5-MIN KDBQ 220655Z AUTO 28007KT 6SM BR OVC009 05/03 A2983 1160 85 300 280/07 RMK AO2 LTG DSNT E AND SE CIG 008V012
94908KDBQ DBQ20101122010011411/22/10 01:00:31  5-MIN KDBQ 220700Z AUTO 27007KT 6SM BR OVC009 05/03 A2983 1160 89 300 270/07 RMK AO2 LTG DSNT E
94908KDBQ DBQ20101122010511411/22/10 01:05:31  5-MIN KDBQ 220705Z AUTO 28007KT 5SM BR OVC009 05/03 A2983 1160 89 300 280/07 RMK AO2 LTG DSNT E
94908KDBQ DBQ20101122011011411/22/10 01:10:31  5-MIN KDBQ 220710Z AUTO 27007KT 5SM BR OVC009 05/03 A2984 1160 89 300 270/07 RMK AO2 LTG DSNT E
94908KDBQ DBQ20101122011511411/22/10 01:15:31  5-MIN KDBQ 220715Z AUTO 27007KT 5SM BR OVC009 04/03 A2984 1160 92 200 270/07 RMK AO2 LTG DSNT E
94908KDBQ DBQ20101122012011511/22/10 01:20:31  5-MIN KDBQ 220720Z AUTO 27006KT 5SM BR OVC009 04/03 A2984 1160 92 200 270/06 RMK AO2 CIG 006V010
94908KDBQ DBQ20101122012511511/22/10 01:25:31  5-MIN KDBQ 220725Z AUTO 28006KT 4SM BR OVC009 04/03 A2984 1160 92 200 280/06 RMK AO2 CIG 005V010
94908KDBQ DBQ20101122013012211/22/10 01:30:31  5-MIN KDBQ 220730Z AUTO 28007KT 4SM BR BKN009 OVC024 04/03 A2984 1160 92 200 270/07 RMK AO2 CIG 005V010
94908KDBQ DBQ20101122013513411/22/10 01:35:31  5-MIN KDBQ 220735Z AUTO 27007KT 4SM BR BKN007 OVC024 04/03 A2984 1150 92 200 270/07 RMK AO2 LTG DSNT SE CIG 005V010
94908KDBQ DBQ20101122014013511/22/10 01:40:31  5-MIN KDBQ 220740Z AUTO 28007KT 4SM BR BKN005 BKN011 OVC024 04/03 A2984 1150 92 200 280/07 RMK AO2 LTG DSNT E AND SE
94908KDBQ DBQ20101122014513511/22/10 01:45:31  5-MIN KDBQ 220745Z AUTO 28006KT 4SM BR BKN005 BKN011 OVC024 04/03 A2984 1160 92 200 280/06 RMK AO2 LTG DSNT E AND SE
94908KDBQ DBQ20101122015012111/22/10 01:50:31  5-MIN KDBQ 220750Z AUTO 27006KT 4SM BR SCT005 OVC024 04/03 A2984 1150 92 200 270/06 RMK AO2 LTG DSNT E
94908KDBQ DBQ20101122015512111/22/10 01:55:31  5-MIN KDBQ 220755Z AUTO 28005KT 4SM BR SCT005 OVC024 04/03 A2984 1150 92 200 280/05 RMK AO2 LTG DSNT E
94908KDBQ DBQ20101122020011011/22/10 02:00:31  5-MIN KDBQ 220800Z AUTO 28004KT 4SM BR BKN005 OVC024 04/03 A2984 1150 92 200 280/04 RMK AO2
94908KDBQ DBQ20101122020511011/22/10 02:05:31  5-MIN KDBQ 220805Z AUTO 29006KT 4SM BR BKN005 OVC024 04/03 A2984 1150 92 200 290/06 RMK AO2
94908KDBQ DBQ20101122021011011/22/10 02:10:31  5-MIN KDBQ 220810Z AUTO 30005KT 4SM BR BKN005 OVC024 04/03 A2984 1150 92 100 300/05 RMK AO2
94908KDBQ DBQ20101122021511011/22/10 02:15:31  5-MIN KDBQ 220815Z AUTO 29005KT 4SM BR BKN005 OVC024 04/03 A2984 1150 92 100 290/05 RMK AO2
94908KDBQ DBQ20101122022011011/22/10 02:20:31  5-MIN KDBQ 220820Z AUTO 29005KT 4SM BR BKN005 OVC024 04/03 A2984 1150 92 100 290/05 RMK AO2
94908KDBQ DBQ20101122022511011/22/10 02:25:31  5-MIN KDBQ 220825Z AUTO 30005KT 4SM BR BKN005 OVC024 04/03 A2984 1160 92 100 300/05 RMK AO2
94908KDBQ DBQ20101122023011011/22/10 02:30:31  5-MIN KDBQ 220830Z AUTO 30005KT 4SM BR SCT005 OVC024 04/03 A2984 1160 92 100 300/05 RMK AO2
94908KDBQ DBQ20101122023511011/22/10 02:35:31  5-MIN KDBQ 220835Z AUTO 29005KT 5SM BR SCT005 OVC024 04/03 A2984 1160 92 100 290/05 RMK AO2
94908KDBQ DBQ20101122024011011/22/10 02:40:31  5-MIN KDBQ 220840Z AUTO 31003KT 5SM BR FEW005 OVC024 04/03 A2984 1160 92 100 300/03 RMK AO2
94908KDBQ DBQ20101122024510311/22/10 02:45:31  5-MIN KDBQ 220845Z AUTO 29004KT 5SM BR OVC022 04/03 A2984 1150 92 100 290/04 RMK AO2
94908KDBQ DBQ20101122025012611/22/10 02:50:31  5-MIN KDBQ 220850Z AUTO 00000KT 5SM BR OVC022 04/03 A2984 1150 92 100 000/00 RMK AO2 SLP110 T00390028 53003
94908KDBQ DBQ20101122025512211/22/10 02:55:31  5-MIN KDBQ 220855Z AUTO 00000KT 4SM BR FEW005 OVC022 04/03 A2984 1150 92 100 000/00 RMK AO2 LTG DSNT NW
94908KDBQ DBQ20101122030012211/22/10 03:00:31  5-MIN KDBQ 220900Z AUTO 30003KT 5SM BR SCT005 OVC022 04/03 A2984 1160 92 100 300/03 RMK AO2 LTG DSNT NW
94908KDBQ DBQ20101122030512211/22/10 03:05:31  5-MIN KDBQ 220905Z AUTO 00000KT 5SM BR SCT005 OVC022 04/03 A2984 1160 92 100 000/00 RMK AO2 LTG DSNT NW
94908KDBQ DBQ20101122031012111/22/10 03:10:31  5-MIN KDBQ 220910Z AUTO 00000KT 5SM VCTS BR SCT005 OVC022 04/03 A2984 1160 92 100 000/00 RMK AO2 TSB08
94908KDBQ DBQ20101122031512111/22/10 03:15:31  5-MIN KDBQ 220915Z AUTO 00000KT 5SM VCTS BR BKN005 OVC022 04/03 A2984 1160 92 100 000/00 RMK AO2 TSB08
94908KDBQ DBQ20101122032012111/22/10 03:20:31  5-MIN KDBQ 220920Z AUTO 00000KT 5SM VCTS BR BKN005 OVC022 04/03 A2983 1160 92 100 000/00 RMK AO2 TSB08
94908KDBQ DBQ20101122032513111/22/10 03:25:31  5-MIN KDBQ 220925Z AUTO 00000KT 5SM BR BKN005 OVC020 04/03 A2982 1170 92 100 000/00 RMK AO2 LTG DSNT NE TSB08E23
94908KDBQ DBQ20101122033013111/22/10 03:30:31  5-MIN KDBQ 220930Z AUTO 00000KT 5SM BR SCT005 OVC020 04/03 A2984 1150 92 100 000/00 RMK AO2 LTG DSNT NE TSB08E23
94908KDBQ DBQ20101122033513111/22/10 03:35:31  5-MIN KDBQ 220935Z AUTO 00000KT 5SM BR SCT005 OVC020 04/03 A2983 1160 92 100 000/00 RMK AO2 LTG DSNT NE TSB08E23
94908KDBQ DBQ20101122034013111/22/10 03:40:31  5-MIN KDBQ 220940Z AUTO 00000KT 5SM BR SCT005 OVC020 04/03 A2982 1170 89 200 000/00 RMK AO2 LTG DSNT NE TSB08E23
94908KDBQ DBQ20101122034513111/22/10 03:45:31  5-MIN KDBQ 220945Z AUTO 00000KT 5SM BR SCT005 OVC020 04/03 A2982 1170 89 200 000/00 RMK AO2 LTG DSNT NE TSB08E23
94908KDBQ DBQ20101122035013611/22/10 03:50:31  5-MIN KDBQ 220950Z AUTO 00000KT 5SM BR FEW005 OVC018 04/03 A2983 1170 89 200 000/00 RMK AO2 TSB08E23 SLP104 T00440028
94908KDBQ DBQ20101122035511011/22/10 03:55:31  5-MIN KDBQ 220955Z AUTO 02003KT 4SM BR FEW005 OVC018 04/03 A2982 1170 89 200 020/03 RMK AO2
94908KDBQ DBQ20101122040011011/22/10 04:00:31  5-MIN KDBQ 221000Z AUTO 02003KT 4SM BR FEW005 OVC018 04/03 A2982 1170 92 200 020/03 RMK AO2
94908KDBQ DBQ20101122040511011/22/10 04:05:31  5-MIN KDBQ 221005Z AUTO 02003KT 4SM BR FEW005 OVC018 04/03 A2981 1180 89 200 020/03 RMK AO2
94908KDBQ DBQ20101122041012611/22/10 04:10:31  5-MIN KDBQ 221010Z AUTO 03003KT 4SM -RA BR FEW005 OVC018 04/03 A2981 1180 89 200 030/03 RMK AO2 RAB08 P0000
94908KDBQ DBQ20101122041512611/22/10 04:15:31  5-MIN KDBQ 221015Z AUTO 04003KT 4SM -RA BR FEW005 OVC018 04/03 A2981 1180 92 200 040/03 RMK AO2 RAB08 P0000
94908KDBQ DBQ20101122042012611/22/10 04:20:31  5-MIN KDBQ 221020Z AUTO 06003KT 4SM -RA BR SCT005 OVC018 04/03 A2980 1190 92 200 060/03 RMK AO2 RAB08 P0000
94908KDBQ DBQ20101122042512511/22/10 04:25:31  5-MIN KDBQ 221025Z AUTO 06003KT 4SM BR FEW005 OVC018 04/03 A2980 1190 96 200 060/03 RMK AO2 RAB08E21 P0000
94908KDBQ DBQ20101122043012511/22/10 04:30:31  5-MIN KDBQ 221030Z AUTO 05004KT 4SM BR FEW005 OVC018 04/03 A2980 1190 96 200 050/04 RMK AO2 RAB08E21 P0000
94908KDBQ DBQ20101122043512511/22/10 04:35:31  5-MIN KDBQ 221035Z AUTO 06004KT 3SM BR FEW005 OVC018 04/03 A2980 1190 96 200 050/04 RMK AO2 RAB08E21 P0000
94908KDBQ DBQ20101122044012511/22/10 04:40:31  5-MIN KDBQ 221040Z AUTO 05005KT 3SM BR FEW005 OVC016 04/03 A2979 1200 96 200 050/05 RMK AO2 RAB08E21 P0000
94908KDBQ DBQ20101122044512511/22/10 04:45:31  5-MIN KDBQ 221045Z AUTO 06004KT 3SM BR FEW005 OVC016 04/03 A2979 1200 96 200 060/04 RMK AO2 RAB08E21 P0000
94908KDBQ DBQ20101122045014211/22/10 04:50:31  5-MIN KDBQ 221050Z AUTO 06004KT 3SM BR FEW003 OVC016 04/03 A2979 1200 96 200 060/04 RMK AO2 RAB08E21 SLP092 P0000 T00390033
94908KDBQ DBQ20101122045511011/22/10 04:55:31  5-MIN KDBQ 221055Z AUTO 07004KT 3SM BR FEW003 OVC014 04/03 A2978 1200 96 200 070/04 RMK AO2
94908KDBQ DBQ20101122050011011/22/10 05:00:31  5-MIN KDBQ 221100Z AUTO 07005KT 3SM BR FEW003 OVC014 04/03 A2978 1210 96 200 070/05 RMK AO2
94908KDBQ DBQ20101122050511011/22/10 05:05:31  5-MIN KDBQ 221105Z AUTO 07005KT 3SM BR FEW003 OVC012 04/03 A2978 1210 96 200 070/05 RMK AO2
94908KDBQ DBQ20101122051012111/22/10 05:10:31  5-MIN KDBQ 221110Z AUTO 04004KT 3SM VCTS BR SCT003 OVC012 04/03 A2978 1210 92 300 040/04 RMK AO2 TSB07
94908KDBQ DBQ20101122051513311/22/10 05:15:31  5-MIN KDBQ 221115Z AUTO 07003KT 3SM VCTS BR SCT003 OVC012 04/03 A2978 1210 92 300 070/03 RMK AO2 LTG DSNT SW TSB07
94908KDBQ DBQ20101122052013311/22/10 05:20:31  5-MIN KDBQ 221120Z AUTO 06003KT 3SM VCTS BR SCT003 OVC012 04/03 A2977 1210 92 300 060/03 RMK AO2 LTG DSNT SW TSB07
94908KDBQ DBQ20101122052513111/22/10 05:25:31  5-MIN KDBQ 221125Z AUTO 07004KT 3SM BR BKN003 OVC012 04/03 A2977 1220 92 300 070/04 RMK AO2 LTG DSNT SW TSB07E22
94908KDBQ DBQ20101122053013711/22/10 05:30:31  5-MIN KDBQ 221130Z AUTO 08005KT 3SM BR BKN003 OVC014 04/03 A2976 1230 92 300 080/05 RMK AO2 LTG DSNT S AND SW TSB07E22
94908KDBQ DBQ20101122053514511/22/10 05:35:31  5-MIN KDBQ 221135Z AUTO 07005KT 2 1/2SM VCTS BR BKN003 OVC014 04/03 A2976 1230 92 300 070/05 RMK AO2 LTG DSNT E-SW TSB07E22B34
94908KDBQ DBQ20101122054014611/22/10 05:40:31  5-MIN KDBQ 221140Z AUTO 08004KT 2 1/2SM VCTS BR SCT003 OVC014 04/03 A2976 1230 92 300 080/04 RMK AO2 LTG DSNT ALQDS TSB07E22B34
94908KDBQ DBQ20101122054514011/22/10 05:45:31  5-MIN KDBQ 221145Z AUTO 00000KT 3SM TS BR SCT003 OVC014 04/04 A2978 1210 96 300 000/00 RMK AO2 LTG DSNT ALQDS TSB07E22B34
94908KDBQ DBQ20101122055013511/22/10 05:50:31  5-MIN KDBQ 221150Z 00000KT 3SM TS BR BKN003 OVC014 04/04 A2978 1210 96 300 000/00 RMK AO2 LTG DSNT ALQDS TSB07E22B34
94908KDBQ DBQ20101122055515611/22/10 05:55:31  5-MIN KDBQ 221155Z 00000KT 2SM R36/5000VP6000FT +TSRA BR BKN003 OVC014 04/04 A2979 1200 96 300 000/00 RMK AO2 LTG DSNT ALQDS PRESRR P0000
94908KDBQ DBQ20101122060015111/22/10 06:00:31  5-MIN KDBQ 221200Z 12003KT 2SM R36/5000VP6000FT VCTS -RA BR SCT003 OVC016 04/04 A2978 1210 96 300 120/03 RMK AO2 LTG DSNT N-SE P0006
94908KDBQ DBQ20101122060514611/22/10 06:05:31  5-MIN KDBQ 221205Z 09005KT 2 1/2SM VCTS -RA BR SCT003 BKN016 OVC023 04/04 A2976 1230 96 300 090/05 RMK AO2 LTG DSNT NE-SE P0006
94908KDBQ DBQ20101122061014211/22/10 06:10:31  5-MIN KDBQ 221210Z 03004KT 3SM -RA BR SCT003 BKN013 OVC018 04/04 A2976 1230 96 300 030/04 RMK AO2 LTG DSNT N-SE TSE09 P0006
94908KDBQ DBQ20101122061512911/22/10 06:15:31  5-MIN KDBQ 221215Z 34005KT 3SM BR FEW003 BKN011 OVC018 04/04 A2978 1210 96 300 340/05 RMK AO2 TSE09RAE11 P0006
94908KDBQ DBQ20101122062013311/22/10 06:20:31  5-MIN KDBQ 221220Z 35004KT 2 1/2SM BR FEW005 SCT011 OVC018 04/04 A2977 1220 96 300 350/04 RMK AO2 TSE09RAE11 P0006
94908KDBQ DBQ20101122062512911/22/10 06:25:31  5-MIN KDBQ 221225Z 03004KT 2SM BR FEW003 SCT011 OVC018 04/04 A2976 1230 96 300 030/04 RMK AO2 TSE09RAE11 P0006
94908KDBQ DBQ20101122063013311/22/10 06:30:31  5-MIN KDBQ 221230Z 05003KT 1 3/4SM BR SCT003 BKN011 OVC018 04/04 A2976 1230 96 300 050/03 RMK AO2 TSE09RAE11 P0006
94908KDBQ DBQ20101122063512611/22/10 06:35:31  5-MIN KDBQ 221235Z 03003KT 1 3/4SM BR SCT003 OVC016 04/04 A2976 1230 96 300 030/03 RMK AO2 TSE09RAE11 P0006
94908KDBQ DBQ20101122064013311/22/10 06:40:31  5-MIN KDBQ 221240Z 04004KT 1 3/4SM BR BKN003 BKN010 OVC016 04/04 A2976 1230 96 300 040/04 RMK AO2 TSE09RAE11 P0006
94908KDBQ DBQ20101122064513411/22/10 06:45:31  5-MIN KDBQ 221245Z 05004KT 1 1/2SM BR BKN003 BKN008 OVC016 04/04 A2975 1230 100 200 050/04 RMK AO2 TSE09RAE11 P0006
94908KDBQ DBQ20101122065016711/22/10 06:50:31  5-MIN KDBQ 221250Z 09003KT 1 1/4SM R36/6000VP6000FT BR BKN003 BKN008 OVC014 04/04 A2975 1230 96 300 090/03 RMK AO2 TSE09RAE11 SLP080 P0006 T00440039
94908KDBQ DBQ20101122065512011/22/10 06:55:31  5-MIN KDBQ 221255Z 00000KT 1 1/2SM R36/6000FT BR BKN001 OVC014 04/04 A2976 1230 96 300 000/00 RMK AO2
94908KDBQ DBQ20101122070012011/22/10 07:00:31  5-MIN KDBQ 221300Z 05003KT 1 1/2SM R36/6000FT BR BKN001 OVC014 04/04 A2975 1230 96 300 050/03 RMK AO2
94908KDBQ DBQ20101122070512511/22/10 07:05:31  5-MIN KDBQ 221305Z 07005KT 1 1/2SM R36/4500V6000FT BR BKN001 OVC012 04/04 A2974 1240 96 300 070/05 RMK AO2
94908KDBQ DBQ20101122071012511/22/10 07:10:31  5-MIN KDBQ 221310Z 07003KT 1 1/4SM R36/4500V6000FT BR BKN001 OVC010 04/04 A2974 1240 96 300 070/03 RMK AO2
94908KDBQ DBQ20101122071513711/22/10 07:15:31  5-MIN KDBQ 221315Z 06003KT 1 1/2SM R36/4500V5500FT BR SCT001 OVC010 04/04 A2975 1240 96 300 060/03 RMK AO2 CIG 009V013
94908KDBQ DBQ20101122072012511/22/10 07:20:31  5-MIN KDBQ 221320Z 00000KT 1 1/2SM R36/5000V5500FT BR SCT001 OVC010 04/04 A2975 1240 96 300 000/00 RMK AO2
94908KDBQ DBQ20101122072512111/22/10 07:25:31  5-MIN KDBQ 221325Z 05003KT 1SM R36/5000V5500FT BR FEW001 OVC008 04/04 A2974 1240 96 300 040/03 RMK AO2
94908KDBQ DBQ20101122073012311/22/10 07:30:31  5-MIN KDBQ 221330Z 05003KT 3/4SM R36/4500V5500FT BR FEW001 OVC008 04/04 A2974 1250 96 300 050/03 RMK AO2
94908KDBQ DBQ20101122073512811/22/10 07:35:31  5-MIN KDBQ 221335Z 05004KT 3/4SM R36/4500V5000FT BR OVC008 04/04 A2974 1250 96 300 050/04 RMK AO2 CIG 006V009
94908KDBQ DBQ20101122074012811/22/10 07:40:31  5-MIN KDBQ 221340Z 00000KT 3/4SM R36/4500V5000FT BR OVC006 04/04 A2974 1250 96 300 000/00 RMK AO2 CIG 005V009
94908KDBQ DBQ20101122074512811/22/10 07:45:31  5-MIN KDBQ 221345Z 08003KT 3/4SM R36/4500V5500FT BR OVC006 05/04 A2974 1250 96 400 080/03 RMK AO2 CIG 005V009
94908KDBQ DBQ20101122075011411/22/10 07:50:31  5-MIN KDBQ 221350Z 06003KT 1SM R36/4500V5500FT BR OVC006 05/04 A2973 1250 96 400 060/03 RMK AO2
94908KDBQ DBQ20101122075511411/22/10 07:55:31  5-MIN KDBQ 221355Z 07003KT 1SM R36/4500V5500FT BR OVC006 05/04 A2973 1260 96 400 070/03 RMK AO2
94908KDBQ DBQ20101122080011811/22/10 08:00:31  5-MIN KDBQ 221400Z 07004KT 1 1/4SM R36/4500V6000FT BR OVC006 05/04 A2972 1260 96 400 070/04 RMK AO2
94908KDBQ DBQ20101122080511911/22/10 08:05:31  5-MIN KDBQ 221405Z 00000KT 1 1/4SM R36/5500VP6000FT BR OVC004 05/04 A2972 1260 96 400 000/00 RMK AO2
94908KDBQ DBQ20101122081011911/22/10 08:10:31  5-MIN KDBQ 221410Z 11003KT 1 1/2SM R36/5500VP6000FT BR OVC004 06/05 A2972 1260 96 500 110/03 RMK AO2
94908KDBQ DBQ20101122081511911/22/10 08:15:31  5-MIN KDBQ 221415Z 11003KT 1 3/4SM R36/5500VP6000FT BR OVC004 06/05 A2972 1260 96 500 110/03 RMK AO2
94908KDBQ DBQ20101122082009811/22/10 08:20:31  5-MIN KDBQ 221420Z 11006KT 2SM BR OVC004 06/05 A2972 1260 93 500 110/06 RMK AO2
94908KDBQ DBQ20101122082509811/22/10 08:25:31  5-MIN KDBQ 221425Z 12005KT 2SM BR OVC004 06/05 A2972 1270 96 500 120/05 RMK AO2
94908KDBQ DBQ20101122083011911/22/10 08:30:31  5-MIN KDBQ 221430Z 12004KT 1 3/4SM R36/6000VP6000FT BR OVC002 06/06 A2972 1270 96 500 120/04 RMK AO2
94908KDBQ DBQ20101122083511911/22/10 08:35:31  5-MIN KDBQ 221435Z 13005KT 1 1/2SM R36/6000VP6000FT BR OVC002 06/06 A2971 1270 96 500 130/05 RMK AO2
94908KDBQ DBQ20101122084011811/22/10 08:40:31  5-MIN KDBQ 221440Z 12004KT 1 1/2SM R36/5500V6000FT BR OVC002 06/06 A2971 1280 96 600 120/04 RMK AO2
94908KDBQ DBQ20101122084511911/22/10 08:45:31  5-MIN KDBQ 221445Z 11005KT 1 1/4SM R36/5000V5500FT BR OVC002 06/06 A2970 1280 100 600 110/05 RMK AO2
94908KDBQ DBQ20101122085014711/22/10 08:50:31  5-MIN KDBQ 221450Z 10006KT 1 1/4SM R36/5000V6000FT BR OVC002 07/06 A2970 1280 96 600 100/06 RMK AO2 SLP063 60006 T00670061 55012
94908KDBQ DBQ20101122085511911/22/10 08:55:31  5-MIN KDBQ 221455Z 10004KT 1 1/2SM R36/5500VP6000FT BR OVC002 07/06 A2970 1290 96 600 100/04 RMK AO2
94908KDBQ DBQ20101122090011911/22/10 09:00:31  5-MIN KDBQ 221500Z 10005KT 1 1/2SM R36/6000VP6000FT BR OVC002 07/06 A2969 1290 93 700 100/05 RMK AO2
94908KDBQ DBQ20101122090511911/22/10 09:05:31  5-MIN KDBQ 221505Z 12005KT 1 3/4SM R36/6000VP6000FT BR OVC002 07/07 A2969 1290 96 700 120/05 RMK AO2
94908KDBQ DBQ20101122091011911/22/10 09:10:31  5-MIN KDBQ 221510Z 14008KT 1 3/4SM R36/6000VP6000FT BR OVC002 07/07 A2969 1300 96 700 130/08 RMK AO2
94908KDBQ DBQ20101122091511911/22/10 09:15:31  5-MIN KDBQ 221515Z 14008KT 1 3/4SM R36/6000VP6000FT BR OVC002 07/07 A2968 1300 96 700 130/08 RMK AO2
94908KDBQ DBQ20101122092012511/22/10 09:20:31  5-MIN KDBQ 221520Z 14009G15KT 1 1/2SM R36/5500VP6000FT BR OVC002 07/07 A2968 1300 96 700 140/09G15 RMK AO2
94908KDBQ DBQ20101122092511911/22/10 09:25:31  5-MIN KDBQ 221525Z 14010KT 1 1/2SM R36/5500VP6000FT BR OVC002 07/07 A2968 1300 96 700 140/10 RMK AO2
94908KDBQ DBQ20101122093012411/22/10 09:30:31  5-MIN KDBQ 221530Z 14009G15KT 1 1/2SM R36/5500V6000FT BR OVC002 07/07 A2968 1300 96 700 140/09G15 RMK AO2
94908KDBQ DBQ20101122093512411/22/10 09:35:31  5-MIN KDBQ 221535Z 15010G15KT 1 1/4SM R36/5000V5500FT BR OVC002 08/07 A2967 1310 96 800 140/10G15 RMK AO2
94908KDBQ DBQ20101122094012411/22/10 09:40:31  5-MIN KDBQ 221540Z 14008G15KT 1 1/4SM R36/5000V5500FT BR OVC002 08/07 A2967 1310 96 800 140/08G15 RMK AO2
94908KDBQ DBQ20101122094511811/22/10 09:45:31  5-MIN KDBQ 221545Z 15007KT 1 1/4SM R36/4500V5000FT BR OVC002 08/07 A2967 1310 96 800 150/07 RMK AO2
94908KDBQ DBQ20101122095013511/22/10 09:50:31  5-MIN KDBQ 221550Z 15008KT 1 1/4SM R36/4500V5000FT BR OVC002 08/08 A2966 1320 96 900 150/08 RMK AO2 SLP050 T00830078
94908KDBQ DBQ20101122095512411/22/10 09:55:31  5-MIN KDBQ 221555Z 15010G20KT 1 1/4SM R36/4500V5000FT BR OVC002 09/08 A2966 1320 96 900 150/10G20 RMK AO2
94908KDBQ DBQ20101122100012411/22/10 10:00:31  5-MIN KDBQ 221600Z 15013G20KT 1 1/4SM R36/4500V5000FT BR OVC002 09/08 A2966 1320 96 900 150/13G20 RMK AO2
94908KDBQ DBQ20101122100511911/22/10 10:05:31  5-MIN KDBQ 221605Z 16013KT 1 1/4SM R36/4500V5000FT BR OVC002 09/09 A2966 1320 96 1000 160/13 RMK AO2
94908KDBQ DBQ20101122101011911/22/10 10:10:31  5-MIN KDBQ 221610Z 16012KT 1 1/4SM R36/4500V5000FT BR OVC002 09/09 A2966 1320 96 1000 160/12 RMK AO2
94908KDBQ DBQ20101122101511911/22/10 10:15:31  5-MIN KDBQ 221615Z 16014KT 1 1/4SM R36/4500V5000FT BR OVC002 10/09 A2966 1320 96 1100 160/14 RMK AO2
94908KDBQ DBQ20101122102013211/22/10 10:20:31  5-MIN KDBQ 221620Z 16016G21KT 1 1/4SM R36/4000V4500FT BR OVC002 10/10 A2965 1330 100 1100 150/16G21 RMK AO2 P0001
94908KDBQ DBQ20101122102513111/22/10 10:25:31  5-MIN KDBQ 221625Z 16015G22KT 1 1/4SM R36/4000V4500FT BR OVC002 11/10 A2964 1340 96 1200 160/15G22 RMK AO2 P0001
94908KDBQ DBQ20101122103013111/22/10 10:30:31  5-MIN KDBQ 221630Z 16014G22KT 1 1/4SM R36/4000V4500FT BR OVC002 11/10 A2964 1340 96 1200 160/14G22 RMK AO2 P0001
94908KDBQ DBQ20101122103514111/22/10 10:35:31  5-MIN KDBQ 221635Z 16012G21KT 1 1/4SM R36/4500V5000FT -RA BR OVC002 11/10 A2964 1340 96 1200 160/12G21 RMK AO2 RAB33 P0001
94908KDBQ DBQ20101122104014211/22/10 10:40:31  5-MIN KDBQ 221640Z 16013G20KT 1 1/4SM R36/4000V5500FT -RA BR OVC002 11/11 A2963 1340 100 1200 160/13G20 RMK AO2 RAB33 P0001
94908KDBQ DBQ20101122104513411/22/10 10:45:31  5-MIN KDBQ 221645Z 17014KT 1 1/4SM R36/4000V5500FT RA BR OVC002 11/11 A2963 1340 96 1200 160/14 RMK AO2 RAB33 P0003
94908KDBQ DBQ20101122105017011/22/10 10:50:31  5-MIN KDBQ 221650Z 17014G22KT 1 1/4SM R36/4000V6000FT -RA BR OVC002 12/11 A2963 1350 96 1300 160/14G22 RMK AO2 RAB33 CIG 001V006 SLP038 P0003 T01170111
94908KDBQ DBQ20101122105513911/22/10 10:55:31  5-MIN KDBQ 221655Z 17015G22KT 1 3/4SM R36/5000VP6000FT BR OVC002 12/12 A2963 1350 100 1300 170/15G22 RMK AO2 CIG 001V006
94908KDBQ DBQ20101122110012711/22/10 11:00:31  5-MIN KDBQ 221700Z 17013KT 1 3/4SM R36/5000VP6000FT BR BKN002 OVC006 12/12 A2963 1350 96 1400 170/13 RMK AO2
94908KDBQ DBQ20101122110513911/22/10 11:05:31  5-MIN KDBQ 221705Z 18014KT 1 3/4SM R36/5500VP6000FT BR BKN002 OVC010 13/12 A2963 1350 96 1400 180/14 RMK AO2 CIG 001V006
94908KDBQ DBQ20101122111015411/22/10 11:10:31  5-MIN KDBQ 221710Z 17014G21KT 2SM R36/6000VP6000FT BR BKN004 BKN010 OVC024 13/13 A2962 1360 96 1500 170/14G21 RMK AO2 CIG 002V007 P0001
94908KDBQ DBQ20101122111514111/22/10 11:15:31  5-MIN KDBQ 221715Z 18015G22KT 2 1/2SM BR BKN004 BKN008 OVC024 14/13 A2962 1360 93 1600 180/15G22 RMK AO2 CIG 002V006 P0001
94908KDBQ DBQ20101122112013711/22/10 11:20:31  5-MIN KDBQ 221720Z 18015G22KT 3SM BR SCT004 BKN008 BKN024 14/13 A2962 1360 93 1700 180/15G22 RMK AO2 CIG 007V012 P0001
94908KDBQ DBQ20101122112514711/22/10 11:25:31  5-MIN KDBQ 221725Z 18015G23KT 3SM -RA BR BKN006 BKN010 OVC024 14/13 A2961 1370 93 1700 180/15G23 RMK AO2 RAB24 CIG 003V007 P0001
94908KDBQ DBQ20101122113014711/22/10 11:30:31  5-MIN KDBQ 221730Z 18014G23KT 3SM -RA BR BKN006 BKN010 OVC024 14/14 A2961 1370 96 1700 180/14G23 RMK AO2 RAB24 CIG 003V007 P0002
94908KDBQ DBQ20101122113514011/22/10 11:35:31  5-MIN KDBQ 221735Z 18015KT 4SM BR SCT006 BKN010 OVC024 15/14 A2961 1370 93 1700 180/15 RMK AO2 RAB24E33 CIG 008V012 P0002
94908KDBQ DBQ20101122114014011/22/10 11:40:31  5-MIN KDBQ 221740Z 19015KT 4SM BR SCT006 BKN010 OVC021 15/14 A2960 1370 93 1700 190/15 RMK AO2 RAB24E33 CIG 008V013 P0002
94908KDBQ DBQ20101122114514011/22/10 11:45:31  5-MIN KDBQ 221745Z 19016KT 4SM BR SCT006 BKN010 OVC021 15/14 A2960 1380 93 1700 190/16 RMK AO2 RAB24E33 CIG 009V013 P0002
94908KDBQ DBQ20101122115013911/22/10 11:50:31  5-MIN KDBQ 221750Z 19014G21KT 4SM BR BKN008 OVC012 15/14 A2960 1380 93 1700 190/14G21 RMK AO2 RAB24E33 CIG 005V011 P0002
94908KDBQ DBQ20101122115512411/22/10 11:55:31  5-MIN KDBQ 221755Z 19015G21KT 4SM BR BKN008 OVC016 15/14 A2960 1380 96 1700 190/15G21 RMK AO2 CIG 006V012
94908KDBQ DBQ20101122120011311/22/10 12:00:31  5-MIN KDBQ 221800Z 19015KT 4SM BR SCT008 BKN014 OVC022 16/14 A2960 1380 93 1800 190/15 RMK AO2
94908KDBQ DBQ20101122120511911/22/10 12:05:31  5-MIN KDBQ 221805Z 20013G20KT 5SM BR SCT008 BKN014 OVC022 16/14 A2959 1380 93 1800 200/13G20 RMK AO2
94908KDBQ DBQ20101122121011911/22/10 12:10:31  5-MIN KDBQ 221810Z 20013KT 5SM BR SCT010 BKN016 OVC022 16/14 A2959 1390 93 1800 200/13 RMK AO2 P0001
94908KDBQ DBQ20101122121512511/22/10 12:15:31  5-MIN KDBQ 221815Z 21017G23KT 6SM BR SCT012 BKN016 OVC031 16/14 A2958 1390 90 1900 210/17G23 RMK AO2 P0001
94908KDBQ DBQ20101122122012211/22/10 12:20:31  5-MIN KDBQ 221820Z 21017G25KT 7SM SCT012 BKN021 OVC034 17/14 A2958 1400 86 2000 210/17G25 RMK AO2 P0001
94908KDBQ DBQ20101122122512211/22/10 12:25:31  5-MIN KDBQ 221825Z 22017G25KT 7SM FEW012 BKN019 BKN025 17/14 A2957 1400 83 2000 220/17G25 RMK AO2 P0001
94908KDBQ DBQ20101122123011611/22/10 12:30:31  5-MIN KDBQ 221830Z 21018KT 8SM SCT015 BKN022 OVC030 17/14 A2957 1400 83 2000 210/18 RMK AO2 P0001
94908KDBQ DBQ20101122123514011/22/10 12:35:31  5-MIN KDBQ 221835Z 25014G26KT 8SM SCT015 BKN022 OVC030 17/14 A2957 1400 83 2000 250/14G26 RMK AO2 PK WND 23026/1833 P0001
94908KDBQ DBQ20101122124014011/22/10 12:40:31  5-MIN KDBQ 221840Z 27021G27KT 7SM SCT012 BKN017 OVC032 16/14 A2958 1400 90 1800 270/21G27 RMK AO2 PK WND 28027/1840 P0001
94908KDBQ DBQ20101122124515411/22/10 12:45:31  5-MIN KDBQ 221845Z 26019G27KT 6SM BR SCT012 BKN020 OVC049 15/13 A2957 1400 86 1800 260/19G27 RMK AO2 PK WND 26027/1843 WSHFT 1829 P0001
94908KDBQ DBQ20101122125017111/22/10 12:50:31  5-MIN KDBQ 221850Z 26020G27KT 6SM BR FEW012 BKN022 OVC044 14/13 A2958 1400 90 1700 260/20G27 RMK AO2 PK WND 26027/1843 WSHFT 1829 SLP018 P0001 T01440128
94908KDBQ DBQ20101122125511911/22/10 12:55:31  5-MIN KDBQ 221855Z 25017G27KT 6SM BR SCT014 BKN025 OVC044 15/13 A2957 1400 86 1800 250/17G27 RMK AO2
94908KDBQ DBQ20101122130013711/22/10 13:00:31  5-MIN KDBQ 221900Z 25018G27KT 6SM BR SCT014 BKN027 OVC036 14/13 A2958 1400 90 1700 250/18G27 RMK AO2 PK WND 25027/1858
94908KDBQ DBQ20101122130513711/22/10 13:05:31  5-MIN KDBQ 221905Z 25018G27KT 6SM BR SCT012 BKN025 OVC032 14/12 A2958 1390 86 1700 240/18G27 RMK AO2 PK WND 25027/1858
94908KDBQ DBQ20101122131013711/22/10 13:10:31  5-MIN KDBQ 221910Z 25021G27KT 6SM HZ SCT016 BKN025 OVC043 15/12 A2958 1390 83 1800 250/21G27 RMK AO2 PK WND 26027/1909
94908KDBQ DBQ20101122131513411/22/10 13:15:31  5-MIN KDBQ 221915Z 24021G29KT 7SM SCT016 BKN028 OVC043 14/12 A2958 1390 86 1700 240/21G29 RMK AO2 PK WND 24029/1913
94908KDBQ DBQ20101122132013411/22/10 13:20:31  5-MIN KDBQ 221920Z 24016G29KT 7SM FEW014 BKN028 OVC045 14/12 A2958 1390 86 1700 240/16G29 RMK AO2 PK WND 24029/1913
94908KDBQ DBQ20101122132513411/22/10 13:25:31  5-MIN KDBQ 221925Z 26017G27KT 7SM BKN016 BKN031 OVC043 15/13 A2958 1400 86 1800 250/17G27 RMK AO2 PK WND 24029/1913
94908KDBQ DBQ20101122133013411/22/10 13:30:31  5-MIN KDBQ 221930Z 25022G28KT 7SM SCT015 BKN020 OVC050 15/12 A2958 1400 80 1800 250/22G28 RMK AO2 PK WND 24029/1913
94908KDBQ DBQ20101122133513411/22/10 13:35:31  5-MIN KDBQ 221935Z 25021G30KT 8SM BKN018 BKN025 BKN050 14/11 A2958 1400 80 1700 240/21G30 RMK AO2 PK WND 25030/1931
94908KDBQ DBQ20101122134013411/22/10 13:40:31  5-MIN KDBQ 221940Z 25020G31KT 9SM SCT018 BKN025 BKN043 14/11 A2958 1390 80 1700 250/20G31 RMK AO2 PK WND 23031/1936
94908KDBQ DBQ20101122134512011/22/10 13:45:31  5-MIN KDBQ 221945Z 25020G31KT 9SM SCT018 14/11 A2958 1390 80 1600 250/20G31 RMK AO2 PK WND 23031/1936
94908KDBQ DBQ20101122135012711/22/10 13:50:31  5-MIN KDBQ 221950Z 26020G30KT 9SM FEW018 SCT025 14/10 A2959 1390 77 1600 250/20G30 RMK AO2 PK WND 23031/1936
94908KDBQ DBQ20101122135512711/22/10 13:55:31  5-MIN KDBQ 221955Z 26021G30KT 9SM SCT020 SCT025 13/10 A2959 1390 80 1600 260/21G30 RMK AO2 PK WND 27027/1954
94908KDBQ DBQ20101122140012711/22/10 14:00:31  5-MIN KDBQ 222000Z 27020G27KT 8SM SCT020 BKN025 13/09 A2960 1380 80 1500 270/20G27 RMK AO2 PK WND 27027/1954
94908KDBQ DBQ20101122140513411/22/10 14:05:31  5-MIN KDBQ 222005Z 27020G27KT 7SM SCT020 BKN025 13/09 A2961 1370 80 1500 270/20G27 RMK AO2 PK WND 26027/2005 PRESRR
94908KDBQ DBQ20101122141012711/22/10 14:10:31  5-MIN KDBQ 222010Z 27021G31KT 7SM SCT016 BKN023 12/09 A2961 1370 83 1300 270/21G31 RMK AO2 PK WND 26031/2010
94908KDBQ DBQ20101122141512711/22/10 14:15:31  5-MIN KDBQ 222015Z 27020G31KT 7SM SCT016 BKN023 11/08 A2962 1360 83 1300 270/20G31 RMK AO2 PK WND 26031/2010
94908KDBQ DBQ20101122142013711/22/10 14:20:31  5-MIN KDBQ 222020Z 27022G29KT 6SM BR FEW010 BKN016 OVC023 10/08 A2962 1350 89 1100 270/22G29 RMK AO2 PK WND 26031/2010
94908KDBQ DBQ20101122142513711/22/10 14:25:31  5-MIN KDBQ 222025Z 28019G32KT 5SM BR SCT010 BKN016 OVC022 09/08 A2962 1360 89 1100 270/19G32 RMK AO2 PK WND 26032/2022
94908KDBQ DBQ20101122143014211/22/10 14:30:31  5-MIN KDBQ 222030Z 27020G32KT 5SM BR BKN010 OVC017 09/07 A2962 1350 86 1000 270/20G32 RMK AO2 PK WND 26032/2022 CIG 008V013
94908KDBQ DBQ20101122143514211/22/10 14:35:31  5-MIN KDBQ 222035Z 27018G28KT 6SM BR BKN010 OVC014 09/07 A2963 1350 86 1000 270/18G28 RMK AO2 PK WND 26032/2022 CIG 008V013
94908KDBQ DBQ20101122144011911/22/10 14:40:31  5-MIN KDBQ 222040Z 27019G28KT 7SM OVC012 08/06 A2963 1350 86 900 270/19G28 RMK AO2 PK WND 26032/2022
94908KDBQ DBQ20101122144514111/22/10 14:45:31  5-MIN KDBQ 222045Z 27017G28KT 6SM BR BKN010 OVC014 08/06 A2963 1350 86 800 270/17G28 RMK AO2 PK WND 26032/2022 CIG 008V012
94908KDBQ DBQ20101122145014111/22/10 14:50:31  5-MIN KDBQ 222050Z 28016G24KT 5SM BR BKN008 OVC014 08/06 A2964 1340 86 800 270/16G24 RMK AO2 PK WND 26032/2022 CIG 006V012
94908KDBQ DBQ20101122145511811/22/10 14:55:31  5-MIN KDBQ 222055Z 28014G23KT 5SM BR BKN008 OVC013 07/06 A2965 1330 89 800 280/14G23 RMK AO2 PRESRR
94908KDBQ DBQ20101122150011111/22/10 15:00:31  5-MIN KDBQ 222100Z 28015G23KT 5SM BR BKN008 OVC013 07/05 A2965 1330 89 700 280/15G23 RMK AO2
94908KDBQ DBQ20101122150512211/22/10 15:05:31  5-MIN KDBQ 222105Z 27017G27KT 6SM BR OVC008 07/05 A2965 1330 89 700 270/17G27 RMK AO2 PK WND 29027/2102
94908KDBQ DBQ20101122151011911/22/10 15:10:31  5-MIN KDBQ 222110Z 28019G27KT 7SM OVC008 06/04 A2966 1320 89 600 270/19G27 RMK AO2 PK WND 29027/2102
94908KDBQ DBQ20101122151513111/22/10 15:15:31  5-MIN KDBQ 222115Z 27020G26KT 7SM OVC008 06/04 A2966 1320 89 600 270/20G26 RMK AO2 PK WND 29027/2102 CIG 006V010
94908KDBQ DBQ20101122152013111/22/10 15:20:31  5-MIN KDBQ 222120Z 27017G26KT 8SM OVC008 06/04 A2966 1320 86 600 270/17G26 RMK AO2 PK WND 29027/2102 CIG 006V010
94908KDBQ DBQ20101122152513211/22/10 15:25:31  5-MIN KDBQ 222125Z 28022G27KT 10SM OVC008 06/03 A2966 1320 85 500 280/22G27 RMK AO2 PK WND 27027/2124 CIG 006V012
94908KDBQ DBQ20101122153013211/22/10 15:30:31  5-MIN KDBQ 222130Z 28020G27KT 10SM OVC008 06/03 A2966 1320 85 500 280/20G27 RMK AO2 PK WND 27027/2124 CIG 006V012
94908KDBQ DBQ20101122153513211/22/10 15:35:31  5-MIN KDBQ 222135Z 28017G26KT 10SM OVC008 06/03 A2967 1310 85 500 280/17G26 RMK AO2 PK WND 27027/2124 CIG 006V012
94908KDBQ DBQ20101122154012011/22/10 15:40:31  5-MIN KDBQ 222140Z 28016G25KT 10SM OVC008 06/03 A2967 1310 85 500 280/16G25 RMK AO2 PK WND 27027/2124
94908KDBQ DBQ20101122154512011/22/10 15:45:31  5-MIN KDBQ 222145Z 28020G25KT 10SM OVC010 05/03 A2967 1310 85 500 280/20G25 RMK AO2 PK WND 27027/2124
94908KDBQ DBQ20101122155012011/22/10 15:50:31  5-MIN KDBQ 222150Z 28019G30KT 10SM OVC010 05/03 A2968 1300 85 500 280/19G30 RMK AO2 PK WND 28030/2148
94908KDBQ DBQ20101122155510211/22/10 15:55:31  5-MIN KDBQ 222155Z 28018G30KT 10SM OVC010 05/03 A2968 1300 85 400 280/18G30 RMK AO2
94908KDBQ DBQ20101122160012011/22/10 16:00:31  5-MIN KDBQ 222200Z 28021G30KT 10SM OVC010 04/02 A2968 1300 85 400 280/21G30 RMK AO2 PK WND 28030/2159
94908KDBQ DBQ20101122160512011/22/10 16:05:31  5-MIN KDBQ 222205Z 28022G30KT 10SM OVC010 04/02 A2968 1300 85 400 280/22G30 RMK AO2 PK WND 28030/2201
94908KDBQ DBQ20101122161012011/22/10 16:10:31  5-MIN KDBQ 222210Z 28022G30KT 10SM OVC010 04/02 A2969 1300 85 400 280/22G30 RMK AO2 PK WND 28030/2201
94908KDBQ DBQ20101122161512011/22/10 16:15:31  5-MIN KDBQ 222215Z 28021G31KT 10SM OVC010 04/02 A2969 1290 85 300 280/21G31 RMK AO2 PK WND 29031/2215
94908KDBQ DBQ20101122162012011/22/10 16:20:31  5-MIN KDBQ 222220Z 28021G31KT 10SM OVC010 04/02 A2970 1290 85 300 280/21G31 RMK AO2 PK WND 29031/2215
94908KDBQ DBQ20101122162512011/22/10 16:25:31  5-MIN KDBQ 222225Z 29019G27KT 10SM OVC010 04/02 A2970 1280 85 300 290/19G27 RMK AO2 PK WND 29031/2215
94908KDBQ DBQ20101122163012011/22/10 16:30:31  5-MIN KDBQ 222230Z 28018G26KT 10SM OVC010 04/02 A2970 1280 85 300 280/18G26 RMK AO2 PK WND 29031/2215
94908KDBQ DBQ20101122163512011/22/10 16:35:31  5-MIN KDBQ 222235Z 29018G29KT 10SM OVC010 04/02 A2971 1280 85 300 290/18G29 RMK AO2 PK WND 29031/2215
94908KDBQ DBQ20101122164012011/22/10 16:40:31  5-MIN KDBQ 222240Z 30020G29KT 10SM OVC010 03/02 A2971 1270 89 200 300/20G29 RMK AO2 PK WND 29031/2215
94908KDBQ DBQ20101122164512011/22/10 16:45:31  5-MIN KDBQ 222245Z 29019G26KT 10SM OVC010 03/01 A2972 1270 85 200 290/19G26 RMK AO2 PK WND 29031/2215
94908KDBQ DBQ20101122165013711/22/10 16:50:31  5-MIN KDBQ 222250Z 29021G31KT 10SM OVC010 03/01 A2972 1260 85 200 290/21G31 RMK AO2 PK WND 28031/2250 SLP073 T00330011
94908KDBQ DBQ20101122165510911/22/10 16:55:31  5-MIN KDBQ 222255Z 30012G31KT 10SM OVC010 03/01 A2973 1250 85 200 300/12G31 RMK AO2 PRESRR
94908KDBQ DBQ20101122170010211/22/10 17:00:31  5-MIN KDBQ 222300Z 30019G24KT 10SM OVC010 03/01 A2973 1250 89 100 300/19G24 RMK AO2
94908KDBQ DBQ20101122170512011/22/10 17:05:31  5-MIN KDBQ 222305Z 29016G28KT 10SM OVC010 03/01 A2973 1250 85 100 290/16G28 RMK AO2 PK WND 30028/2302
94908KDBQ DBQ20101122171012011/22/10 17:10:31  5-MIN KDBQ 222310Z 29016G28KT 10SM OVC010 03/01 A2974 1250 85 100 290/16G28 RMK AO2 PK WND 30028/2302
94908KDBQ DBQ20101122171512011/22/10 17:15:31  5-MIN KDBQ 222315Z 29019G24KT 10SM OVC010 03/01 A2974 1250 85 100 290/19G24 RMK AO2 PK WND 30028/2302
94908KDBQ DBQ20101122172012011/22/10 17:20:31  5-MIN KDBQ 222320Z 30012G27KT 10SM OVC010 03/01 A2974 1250 85 100 300/12G27 RMK AO2 PK WND 30028/2302
94908KDBQ DBQ20101122172512011/22/10 17:25:31  5-MIN KDBQ 222325Z 29014G27KT 10SM OVC010 03/01 A2974 1240 85 100 290/14G27 RMK AO2 PK WND 30028/2302
94908KDBQ DBQ20101122173012011/22/10 17:30:31  5-MIN KDBQ 222330Z 29015G23KT 10SM OVC010 03/01 A2975 1240 85 100 290/15G23 RMK AO2 PK WND 30028/2302
94908KDBQ DBQ20101122173511811/22/10 17:35:31  5-MIN KDBQ 222335Z 29017G24KT 10SM OVC010 02/00 A2975 1230 85 0 290/17G24 RMK AO2 PK WND 30028/2302
94908KDBQ DBQ20101122174011811/22/10 17:40:31  5-MIN KDBQ 222340Z 29019G24KT 10SM OVC010 02/00 A2976 1230 85 0 290/19G24 RMK AO2 PK WND 30028/2302
94908KDBQ DBQ20101122174511811/22/10 17:45:31  5-MIN KDBQ 222345Z 29017G23KT 10SM OVC010 02/00 A2976 1220 85 0 290/17G23 RMK AO2 PK WND 30028/2302
94908KDBQ DBQ20101122175015911/22/10 17:50:31  5-MIN KDBQ 222350Z 31017G24KT 10SM OVC010 02/00 A2977 1220 85 0 310/17G24 RMK AO2 PK WND 30028/2302 SLP088 60001 T00220000 10150 20022 53023
94908KDBQ DBQ20101122175510011/22/10 17:55:31  5-MIN KDBQ 222355Z 29014G24KT 10SM OVC010 02/00 A2977 1220 85 0 290/14G24 RMK AO2
94908KDBQ DBQ20101122180010011/22/10 18:00:31  5-MIN KDBQ 230000Z 30015G22KT 10SM OVC012 02/00 A2977 1220 85 0 290/15G22 RMK AO2
94908KDBQ DBQ20101122180510011/22/10 18:05:31  5-MIN KDBQ 230005Z 30014G21KT 10SM OVC012 02/00 A2977 1210 85 0 300/14G21 RMK AO2
94908KDBQ DBQ20101122181010111/22/10 18:10:31  5-MIN KDBQ 230010Z 30016G24KT 10SM OVC012 02/M01 A2977 1210 82 0 300/16G24 RMK AO2
94908KDBQ DBQ20101122181510111/22/10 18:15:31  5-MIN KDBQ 230015Z 31017G24KT 10SM OVC012 02/M01 A2977 1210 82 0 310/17G24 RMK AO2
94908KDBQ DBQ20101122182009511/22/10 18:20:31  5-MIN KDBQ 230020Z 30015KT 10SM OVC012 02/M01 A2978 1210 82 0 300/15 RMK AO2
94908KDBQ DBQ20101122182510111/22/10 18:25:31  5-MIN KDBQ 230025Z 31015G23KT 10SM OVC012 02/M01 A2978 1210 82 0 300/15G23 RMK AO2
94908KDBQ DBQ20101122183010111/22/10 18:30:31  5-MIN KDBQ 230030Z 29017G25KT 10SM OVC012 02/M01 A2977 1210 82 0 290/17G25 RMK AO2
94908KDBQ DBQ20101122183510111/22/10 18:35:31  5-MIN KDBQ 230035Z 31016G25KT 10SM OVC012 02/M01 A2978 1210 85 0 310/16G25 RMK AO2
94908KDBQ DBQ20101122184010111/22/10 18:40:31  5-MIN KDBQ 230040Z 30017G25KT 10SM OVC012 02/M01 A2978 1210 85 0 300/17G25 RMK AO2
94908KDBQ DBQ20101122184510111/22/10 18:45:31  5-MIN KDBQ 230045Z 30019G24KT 10SM OVC012 02/M01 A2978 1210 82 0 300/19G24 RMK AO2
94908KDBQ DBQ20101122185011811/22/10 18:50:31  5-MIN KDBQ 230050Z 29016G24KT 10SM OVC012 02/M01 A2978 1200 82 0 290/16G24 RMK AO2 SLP094 T00171011
94908KDBQ DBQ20101122185510111/22/10 18:55:31  5-MIN KDBQ 230055Z 31017G25KT 10SM OVC012 02/M01 A2979 1200 82 0 310/17G25 RMK AO2
94908KDBQ DBQ20101122190010111/22/10 19:00:31  5-MIN KDBQ 230100Z 31015G25KT 10SM OVC012 02/M01 A2979 1200 82 0 310/15G25 RMK AO2
94908KDBQ DBQ20101122190510111/22/10 19:05:31  5-MIN KDBQ 230105Z 30012G23KT 10SM OVC014 02/M01 A2980 1190 82 0 300/12G23 RMK AO2
94908KDBQ DBQ20101122191010411/22/10 19:10:31  5-MIN KDBQ 230110Z 30017G24KT 10SM OVC014 02/M01 A2980 1190 82 -100 300/17G24 RMK AO2
94908KDBQ DBQ20101122191510411/22/10 19:15:31  5-MIN KDBQ 230115Z 30015G24KT 10SM OVC014 02/M01 A2981 1180 82 -100 290/15G24 RMK AO2
94908KDBQ DBQ20101122192010411/22/10 19:20:31  5-MIN KDBQ 230120Z 28014G24KT 10SM OVC014 01/M01 A2981 1180 85 -100 280/14G24 RMK AO2
94908KDBQ DBQ20101122192510411/22/10 19:25:31  5-MIN KDBQ 230125Z 29018G25KT 10SM OVC014 01/M01 A2981 1180 85 -100 290/18G25 RMK AO2
94908KDBQ DBQ20101122193010411/22/10 19:30:31  5-MIN KDBQ 230130Z 29014G25KT 10SM OVC014 01/M02 A2981 1180 82 -100 290/14G25 RMK AO2
94908KDBQ DBQ20101122193510411/22/10 19:35:31  5-MIN KDBQ 230135Z 29017G24KT 10SM OVC012 01/M02 A2981 1180 85 -200 280/17G24 RMK AO2
94908KDBQ DBQ20101122194010411/22/10 19:40:31  5-MIN KDBQ 230140Z 29017G23KT 10SM OVC012 01/M02 A2982 1170 85 -200 290/17G23 RMK AO2
94908KDBQ DBQ20101122194510411/22/10 19:45:31  5-MIN KDBQ 230145Z 30018G24KT 10SM OVC012 01/M02 A2982 1170 85 -200 300/18G24 RMK AO2
94908KDBQ DBQ20101122195012111/22/10 19:50:31  5-MIN KDBQ 230150Z 30018G24KT 10SM OVC012 01/M02 A2983 1170 85 -200 300/18G24 RMK AO2 SLP109 T00061017
94908KDBQ DBQ20101122195510411/22/10 19:55:31  5-MIN KDBQ 230155Z 30015G24KT 10SM OVC012 01/M02 A2983 1160 82 -200 300/15G24 RMK AO2
94908KDBQ DBQ20101122200010411/22/10 20:00:31  5-MIN KDBQ 230200Z 30015G23KT 10SM OVC012 00/M02 A2983 1160 85 -300 300/15G23 RMK AO2
94908KDBQ DBQ20101122200510911/22/10 20:05:31  5-MIN KDBQ 230205Z AUTO 29017G23KT 10SM OVC012 00/M02 A2983 1160 85 -300 290/17G23 RMK AO2
94908KDBQ DBQ20101122201010911/22/10 20:10:31  5-MIN KDBQ 230210Z AUTO 29011G23KT 10SM OVC012 00/M02 A2983 1160 85 -300 290/11G23 RMK AO2
94908KDBQ DBQ20101122201510911/22/10 20:15:31  5-MIN KDBQ 230215Z AUTO 29016G23KT 10SM OVC012 00/M02 A2983 1160 85 -300 290/16G23 RMK AO2
94908KDBQ DBQ20101122202012711/22/10 20:20:31  5-MIN KDBQ 230220Z AUTO 29018G26KT 10SM OVC012 00/M02 A2984 1160 85 -300 290/18G26 RMK AO2 PK WND 30026/0219
94908KDBQ DBQ20101122202512711/22/10 20:25:31  5-MIN KDBQ 230225Z AUTO 29015G26KT 10SM OVC012 00/M03 A2984 1150 81 -300 290/15G26 RMK AO2 PK WND 30026/0219
94908KDBQ DBQ20101122203012711/22/10 20:30:31  5-MIN KDBQ 230230Z AUTO 29013G21KT 10SM OVC012 00/M03 A2985 1150 81 -300 290/13G21 RMK AO2 PK WND 30026/0219
94908KDBQ DBQ20101122203512711/22/10 20:35:31  5-MIN KDBQ 230235Z AUTO 29015G22KT 10SM OVC012 00/M03 A2985 1140 81 -300 290/15G22 RMK AO2 PK WND 30026/0219
94908KDBQ DBQ20101122204012711/22/10 20:40:31  5-MIN KDBQ 230240Z AUTO 30016G26KT 10SM OVC014 00/M03 A2986 1140 81 -300 300/16G26 RMK AO2 PK WND 30026/0236
94908KDBQ DBQ20101122204512711/22/10 20:45:31  5-MIN KDBQ 230245Z AUTO 29020G28KT 10SM OVC014 00/M03 A2986 1130 78 -300 290/20G28 RMK AO2 PK WND 29028/0243
94908KDBQ DBQ20101122205015011/22/10 20:50:31  5-MIN KDBQ 230250Z AUTO 31019G28KT 10SM OVC014 00/M03 A2986 1130 78 -300 310/19G28 RMK AO2 PK WND 29028/0243 SLP121 T00001033 53041
94908KDBQ DBQ20101122205510911/22/10 20:55:31  5-MIN KDBQ 230255Z AUTO 30015G25KT 10SM OVC014 00/M03 A2986 1130 78 -300 300/15G25 RMK AO2
94908KDBQ DBQ20101122210011011/22/10 21:00:31  5-MIN KDBQ 230300Z AUTO 29016G21KT 10SM OVC014 M01/M03 A2987 1130 85 -400 290/16G21 RMK AO2
94908KDBQ DBQ20101122210511011/22/10 21:05:31  5-MIN KDBQ 230305Z AUTO 30014G21KT 10SM OVC014 M01/M03 A2987 1120 85 -400 300/14G21 RMK AO2
94908KDBQ DBQ20101122211011011/22/10 21:10:31  5-MIN KDBQ 230310Z AUTO 30018G24KT 10SM OVC014 M01/M03 A2988 1120 81 -400 300/18G24 RMK AO2
94908KDBQ DBQ20101122211512811/22/10 21:15:31  5-MIN KDBQ 230315Z AUTO 30021G28KT 10SM OVC012 M01/M03 A2988 1120 81 -400 290/21G28 RMK AO2 PK WND 30028/0314
94908KDBQ DBQ20101122212012811/22/10 21:20:31  5-MIN KDBQ 230320Z AUTO 29020G29KT 10SM OVC012 M01/M03 A2988 1120 85 -500 290/20G29 RMK AO2 PK WND 30029/0319
94908KDBQ DBQ20101122212512811/22/10 21:25:31  5-MIN KDBQ 230325Z AUTO 29019G29KT 10SM OVC012 M01/M03 A2987 1120 85 -500 290/19G29 RMK AO2 PK WND 30029/0319
94908KDBQ DBQ20101122213012811/22/10 21:30:31  5-MIN KDBQ 230330Z AUTO 29019G28KT 10SM OVC012 M01/M04 A2988 1120 81 -500 290/19G28 RMK AO2 PK WND 30029/0319
94908KDBQ DBQ20101122213512811/22/10 21:35:31  5-MIN KDBQ 230335Z AUTO 29021G30KT 10SM OVC012 M01/M04 A2989 1110 81 -500 290/21G30 RMK AO2 PK WND 30030/0335
94908KDBQ DBQ20101122214012811/22/10 21:40:31  5-MIN KDBQ 230340Z AUTO 29019G30KT 10SM OVC012 M01/M04 A2989 1110 81 -500 290/19G30 RMK AO2 PK WND 30030/0335
94908KDBQ DBQ20101122214513511/22/10 21:45:31  5-MIN KDBQ 230345Z AUTO 28021G27KT 10SM OVC014 M01/M04 A2990 1100 78 -500 280/21G27 RMK AO2 PK WND 30030/0335 PRESRR
94908KDBQ DBQ20101122215015211/22/10 21:50:31  5-MIN KDBQ 230350Z AUTO 29022G29KT 10SM OVC014 M01/M04 A2991 1090 78 -500 290/22G29 RMK AO2 PK WND 30030/0335 PRESRR SLP135 T10111044
94908KDBQ DBQ20101122215512811/22/10 21:55:31  5-MIN KDBQ 230355Z AUTO 29020G29KT 10SM OVC014 M02/M04 A2991 1090 81 -600 290/20G29 RMK AO2 PK WND 29027/0354
94908KDBQ DBQ20101122220012811/22/10 22:00:31  5-MIN KDBQ 230400Z AUTO 29022G27KT 10SM OVC014 M02/M04 A2991 1090 81 -600 290/22G27 RMK AO2 PK WND 29027/0354
94908KDBQ DBQ20101122220512811/22/10 22:05:31  5-MIN KDBQ 230405Z AUTO 29022G30KT 10SM OVC014 M02/M05 A2992 1080 81 -700 290/22G30 RMK AO2 PK WND 30030/0403
94908KDBQ DBQ20101122221012811/22/10 22:10:31  5-MIN KDBQ 230410Z AUTO 29020G32KT 10SM OVC014 M02/M06 A2992 1070 78 -700 290/20G32 RMK AO2 PK WND 29032/0407
94908KDBQ DBQ20101122221512811/22/10 22:15:31  5-MIN KDBQ 230415Z AUTO 29019G32KT 10SM OVC014 M02/M06 A2993 1070 78 -700 290/19G32 RMK AO2 PK WND 29032/0407
94908KDBQ DBQ20101122222012811/22/10 22:20:31  5-MIN KDBQ 230420Z AUTO 29018G29KT 10SM OVC014 M02/M06 A2993 1070 78 -700 290/18G29 RMK AO2 PK WND 29032/0407
94908KDBQ DBQ20101122222512811/22/10 22:25:31  5-MIN KDBQ 230425Z AUTO 29020G29KT 10SM OVC014 M03/M06 A2993 1070 78 -800 290/20G29 RMK AO2 PK WND 29032/0407
94908KDBQ DBQ20101122223012811/22/10 22:30:31  5-MIN KDBQ 230430Z AUTO 29017G29KT 10SM BKN014 M03/M06 A2993 1070 81 -800 290/17G29 RMK AO2 PK WND 29032/0407
94908KDBQ DBQ20101122223512811/22/10 22:35:31  5-MIN KDBQ 230435Z AUTO 29015G25KT 10SM BKN014 M03/M06 A2993 1070 85 -800 290/15G25 RMK AO2 PK WND 29032/0407
94908KDBQ DBQ20101122224012811/22/10 22:40:31  5-MIN KDBQ 230440Z AUTO 29018G23KT 10SM BKN014 M03/M06 A2993 1070 81 -800 290/18G23 RMK AO2 PK WND 29032/0407
94908KDBQ DBQ20101122224512811/22/10 22:45:31  5-MIN KDBQ 230445Z AUTO 29022G30KT 10SM BKN014 M03/M06 A2993 1070 81 -800 290/22G30 RMK AO2 PK WND 29032/0407
94908KDBQ DBQ20101122225014511/22/10 22:50:31  5-MIN KDBQ 230450Z AUTO 30020G30KT 10SM BKN014 M03/M06 A2993 1070 81 -800 300/20G30 RMK AO2 PK WND 29032/0407 SLP145 T10331061
94908KDBQ DBQ20101122225512811/22/10 22:55:31  5-MIN KDBQ 230455Z AUTO 30022G28KT 10SM BKN016 M03/M07 A2993 1060 78 -800 300/22G28 RMK AO2 PK WND 30028/0454
94908KDBQ DBQ20101122230012811/22/10 23:00:31  5-MIN KDBQ 230500Z AUTO 30016G28KT 10SM BKN016 M03/M06 A2993 1070 81 -800 300/16G28 RMK AO2 PK WND 30028/0454
94908KDBQ DBQ20101122230512811/22/10 23:05:31  5-MIN KDBQ 230505Z AUTO 30013G24KT 10SM OVC014 M03/M06 A2993 1070 81 -800 300/13G24 RMK AO2 PK WND 30028/0454
94908KDBQ DBQ20101122231012811/22/10 23:10:31  5-MIN KDBQ 230510Z AUTO 30018G23KT 10SM OVC014 M04/M07 A2994 1060 81 -900 300/18G23 RMK AO2 PK WND 30028/0454
94908KDBQ DBQ20101122231512811/22/10 23:15:31  5-MIN KDBQ 230515Z AUTO 29016G23KT 10SM OVC014 M04/M07 A2994 1060 81 -900 290/16G23 RMK AO2 PK WND 30028/0454
94908KDBQ DBQ20101122232012811/22/10 23:20:31  5-MIN KDBQ 230520Z AUTO 30014G23KT 10SM OVC014 M04/M07 A2993 1060 78 -900 290/14G23 RMK AO2 PK WND 30028/0454
94908KDBQ DBQ20101122232512811/22/10 23:25:31  5-MIN KDBQ 230525Z AUTO 30016G23KT 10SM OVC014 M04/M07 A2994 1060 78 -900 300/16G23 RMK AO2 PK WND 30028/0454
94908KDBQ DBQ20101122233012911/22/10 23:30:31  5-MIN KDBQ 230530Z AUTO 30016G20KT 10SM BKN014 M04/M07 A2995 1050 81 -1000 290/16G20 RMK AO2 PK WND 30028/0454
94908KDBQ DBQ20101122233512911/22/10 23:35:31  5-MIN KDBQ 230535Z AUTO 29014G21KT 10SM BKN014 M04/M07 A2996 1040 81 -1000 290/14G21 RMK AO2 PK WND 30028/0454
94908KDBQ DBQ20101122234012911/22/10 23:40:31  5-MIN KDBQ 230540Z AUTO 29015G23KT 10SM BKN014 M04/M07 A2996 1040 81 -1000 290/15G23 RMK AO2 PK WND 30028/0454
94908KDBQ DBQ20101122234512911/22/10 23:45:31  5-MIN KDBQ 230545Z AUTO 29015G23KT 10SM SCT014 M04/M07 A2996 1040 81 -1000 290/15G23 RMK AO2 PK WND 30028/0454
94908KDBQ DBQ20101122235013911/22/10 23:50:31  5-MIN KDBQ 230550Z AUTO 30016G22KT 10SM FEW014 M04/M07 A2996 1040 81 -1000 300/16G22 RMK AO2 PK WND 30028/0454 401721044
94908KDBQ DBQ20101122235511111/22/10 23:55:31  5-MIN KDBQ 230555Z AUTO 30016G22KT 10SM FEW014 M04/M08 A2996 1040 78 -1000 300/16G22 RMK AO2
94908KDBQ DBQ20101123000010811/23/10 00:00:38  5-MIN KDBQ 230600Z AUTO 30015G22KT 10SM CLR M04/M08 A2996 1040 78 -1000 300/15G22 RMK AO2
94908KDBQ DBQ20101123000510811/23/10 00:05:31  5-MIN KDBQ 230605Z AUTO 29016G22KT 10SM CLR M04/M08 A2996 1040 78 -1000 290/16G22 RMK AO2
94908KDBQ DBQ20101123001010811/23/10 00:10:31  5-MIN KDBQ 230610Z AUTO 29016G22KT 10SM CLR M05/M08 A2996 1040 81 -1100 290/16G22 RMK AO2
94908KDBQ DBQ20101123001510811/23/10 00:15:34  5-MIN KDBQ 230615Z AUTO 30012G22KT 10SM CLR M05/M08 A2997 1040 81 -1100 300/12G22 RMK AO2
94908KDBQ DBQ20101123002010811/23/10 00:20:31  5-MIN KDBQ 230620Z AUTO 29014G20KT 10SM CLR M05/M08 A2997 1030 81 -1100 290/14G20 RMK AO2
94908KDBQ DBQ20101123002510811/23/10 00:25:31  5-MIN KDBQ 230625Z AUTO 29013G21KT 10SM CLR M05/M08 A2997 1030 77 -1100 290/13G21 RMK AO2
94908KDBQ DBQ20101123003010811/23/10 00:30:31  5-MIN KDBQ 230630Z AUTO 29011G22KT 10SM CLR M05/M08 A2997 1040 77 -1100 290/11G22 RMK AO2
94908KDBQ DBQ20101123003510811/23/10 00:35:31  5-MIN KDBQ 230635Z AUTO 30011G22KT 10SM CLR M05/M08 A2997 1030 77 -1100 300/11G22 RMK AO2
94908KDBQ DBQ20101123004010811/23/10 00:40:31  5-MIN KDBQ 230640Z AUTO 29012G19KT 10SM CLR M05/M08 A2997 1030 77 -1100 290/12G19 RMK AO2
94908KDBQ DBQ20101123004510811/23/10 00:45:31  5-MIN KDBQ 230645Z AUTO 29013G19KT 10SM CLR M05/M08 A2998 1020 77 -1100 290/13G19 RMK AO2
94908KDBQ DBQ20101123005012511/23/10 00:50:31  5-MIN KDBQ 230650Z AUTO 30010G19KT 10SM CLR M05/M08 A2998 1030 77 -1100 290/10G19 RMK AO2 SLP159 T10501083
94908KDBQ DBQ20101123005510811/23/10 00:55:31  5-MIN KDBQ 230655Z AUTO 29012G18KT 10SM CLR M05/M08 A2998 1020 77 -1100 290/12G18 RMK AO2
94908KDBQ DBQ20101123010010811/23/10 01:00:31  5-MIN KDBQ 230700Z AUTO 29012G18KT 10SM CLR M05/M08 A2999 1010 77 -1100 290/12G18 RMK AO2
94908KDBQ DBQ20101123010510811/23/10 01:05:31  5-MIN KDBQ 230705Z AUTO 29010G18KT 10SM CLR M05/M08 A2999 1010 81 -1100 290/10G18 RMK AO2
94908KDBQ DBQ20101123011010811/23/10 01:10:31  5-MIN KDBQ 230710Z AUTO 29012G18KT 10SM CLR M05/M08 A3000 1010 81 -1100 290/12G18 RMK AO2
94908KDBQ DBQ20101123011510811/23/10 01:15:31  5-MIN KDBQ 230715Z AUTO 29014G20KT 10SM CLR M05/M08 A3000 1010 81 -1100 290/14G20 RMK AO2
94908KDBQ DBQ20101123012010811/23/10 01:20:31  5-MIN KDBQ 230720Z AUTO 29015G21KT 10SM CLR M05/M08 A2999 1010 81 -1100 290/15G21 RMK AO2
94908KDBQ DBQ20101123012510811/23/10 01:25:31  5-MIN KDBQ 230725Z AUTO 29013G21KT 10SM CLR M05/M08 A3000 1010 77 -1100 290/13G21 RMK AO2
94908KDBQ DBQ20101123013010811/23/10 01:30:31  5-MIN KDBQ 230730Z AUTO 28017G24KT 10SM CLR M05/M08 A3001 1000 77 -1100 280/17G24 RMK AO2
94908KDBQ DBQ20101123013510811/23/10 01:35:31  5-MIN KDBQ 230735Z AUTO 29014G24KT 10SM CLR M05/M08 A3001 1000 77 -1100 290/14G24 RMK AO2
94908KDBQ DBQ20101123014010711/23/10 01:40:31  5-MIN KDBQ 230740Z AUTO 29017G21KT 10SM CLR M05/M08 A3001 990 77 -1100 290/17G21 RMK AO2
94908KDBQ DBQ20101123014510711/23/10 01:45:31  5-MIN KDBQ 230745Z AUTO 28016G21KT 10SM CLR M05/M08 A3002 990 77 -1100 280/16G21 RMK AO2
94908KDBQ DBQ20101123015011811/23/10 01:50:31  5-MIN KDBQ 230750Z AUTO 28015KT 10SM CLR M05/M08 A3002 990 77 -1100 280/15 RMK AO2 SLP173 T10501083
94908KDBQ DBQ20101123015511011/23/10 01:55:31  5-MIN KDBQ 230755Z AUTO 29014G20KT 10SM FEW028 M05/M08 A3002 990 77 -1200 290/14G20 RMK AO2
94908KDBQ DBQ20101123020011011/23/10 02:00:31  5-MIN KDBQ 230800Z AUTO 29014G20KT 10SM SCT028 M05/M08 A3002 980 77 -1200 290/14G20 RMK AO2
94908KDBQ DBQ20101123020511011/23/10 02:05:31  5-MIN KDBQ 230805Z AUTO 29017G23KT 10SM BKN028 M05/M08 A3002 980 77 -1200 290/17G23 RMK AO2
94908KDBQ DBQ20101123021011011/23/10 02:10:31  5-MIN KDBQ 230810Z AUTO 29019G24KT 10SM BKN026 M04/M08 A3002 980 74 -1100 290/19G24 RMK AO2
94908KDBQ DBQ20101123021511011/23/10 02:15:31  5-MIN KDBQ 230815Z AUTO 30016G24KT 10SM BKN026 M04/M08 A3002 990 74 -1100 300/16G24 RMK AO2
94908KDBQ DBQ20101123022011011/23/10 02:20:31  5-MIN KDBQ 230820Z AUTO 30018G23KT 10SM OVC026 M04/M08 A3002 990 74 -1100 290/18G23 RMK AO2
94908KDBQ DBQ20101123022512811/23/10 02:25:31  5-MIN KDBQ 230825Z AUTO 29019G26KT 10SM OVC026 M04/M08 A3002 980 74 -1100 290/19G26 RMK AO2 PK WND 30026/0825
94908KDBQ DBQ20101123023012811/23/10 02:30:31  5-MIN KDBQ 230830Z AUTO 31015G26KT 10SM OVC026 M04/M08 A3003 980 74 -1100 310/15G26 RMK AO2 PK WND 30026/0825
94908KDBQ DBQ20101123023512811/23/10 02:35:31  5-MIN KDBQ 230835Z AUTO 30017G22KT 10SM OVC026 M04/M09 A3002 980 71 -1100 300/17G22 RMK AO2 PK WND 30026/0825
94908KDBQ DBQ20101123024012811/23/10 02:40:31  5-MIN KDBQ 230840Z AUTO 31012G20KT 10SM OVC026 M04/M08 A3003 980 74 -1100 310/12G20 RMK AO2 PK WND 30026/0825
94908KDBQ DBQ20101123024512211/23/10 02:45:31  5-MIN KDBQ 230845Z AUTO 30013KT 10SM OVC026 M04/M08 A3003 980 74 -1100 300/13 RMK AO2 PK WND 30026/0825
94908KDBQ DBQ20101123025014511/23/10 02:50:31  5-MIN KDBQ 230850Z AUTO 30015KT 10SM OVC026 M04/M08 A3003 980 74 -1100 300/15 RMK AO2 PK WND 30026/0825 SLP179 T10441083 51032
94908KDBQ DBQ20101123025511011/23/10 02:55:31  5-MIN KDBQ 230855Z AUTO 30016G22KT 10SM OVC026 M04/M08 A3003 980 74 -1100 300/16G22 RMK AO2
94908KDBQ DBQ20101123030011011/23/10 03:00:31  5-MIN KDBQ 230900Z AUTO 30014G24KT 10SM OVC026 M04/M09 A3002 980 71 -1100 300/14G24 RMK AO2
94908KDBQ DBQ20101123030511011/23/10 03:05:31  5-MIN KDBQ 230905Z AUTO 29016G24KT 10SM OVC026 M04/M08 A3002 980 74 -1100 290/16G24 RMK AO2
94908KDBQ DBQ20101123031011011/23/10 03:10:31  5-MIN KDBQ 230910Z AUTO 30018G22KT 10SM OVC024 M04/M09 A3003 980 71 -1100 300/18G22 RMK AO2
94908KDBQ DBQ20101123031510411/23/10 03:15:31  5-MIN KDBQ 230915Z AUTO 30018KT 10SM OVC024 M04/M09 A3003 980 71 -1100 300/18 RMK AO2
94908KDBQ DBQ20101123032011011/23/10 03:20:31  5-MIN KDBQ 230920Z AUTO 30015G23KT 10SM OVC024 M04/M09 A3003 970 71 -1100 300/15G23 RMK AO2
94908KDBQ DBQ20101123032511011/23/10 03:25:31  5-MIN KDBQ 230925Z AUTO 30015G23KT 10SM OVC024 M04/M09 A3004 970 71 -1100 300/15G23 RMK AO2
94908KDBQ DBQ20101123033011011/23/10 03:30:31  5-MIN KDBQ 230930Z AUTO 31015G23KT 10SM OVC022 M05/M09 A3004 970 74 -1200 310/15G23 RMK AO2
94908KDBQ DBQ20101123033511011/23/10 03:35:31  5-MIN KDBQ 230935Z AUTO 30019G24KT 10SM OVC022 M05/M09 A3004 970 74 -1200 290/19G24 RMK AO2
94908KDBQ DBQ20101123034011011/23/10 03:40:31  5-MIN KDBQ 230940Z AUTO 30019G24KT 10SM BKN022 M05/M09 A3004 970 71 -1200 300/19G24 RMK AO2
94908KDBQ DBQ20101123034511011/23/10 03:45:31  5-MIN KDBQ 230945Z AUTO 30014G24KT 10SM BKN022 M05/M09 A3004 970 71 -1200 290/14G24 RMK AO2
94908KDBQ DBQ20101123035012711/23/10 03:50:31  5-MIN KDBQ 230950Z AUTO 30016G24KT 10SM BKN022 M06/M09 A3005 960 74 -1300 300/16G24 RMK AO2 SLP187 T10561094
94908KDBQ DBQ20101123035511011/23/10 03:55:31  5-MIN KDBQ 230955Z AUTO 30017G24KT 10SM BKN022 M06/M09 A3005 960 74 -1300 300/17G24 RMK AO2
94908KDBQ DBQ20101123040011011/23/10 04:00:31  5-MIN KDBQ 231000Z AUTO 30018G24KT 10SM BKN022 M06/M09 A3005 960 74 -1300 300/18G24 RMK AO2
94908KDBQ DBQ20101123040512811/23/10 04:05:31  5-MIN KDBQ 231005Z AUTO 30018G27KT 10SM BKN022 M06/M10 A3005 960 71 -1300 300/18G27 RMK AO2 PK WND 29027/1003
94908KDBQ DBQ20101123041012811/23/10 04:10:31  5-MIN KDBQ 231010Z AUTO 30016G27KT 10SM BKN022 M06/M10 A3006 950 71 -1300 290/16G27 RMK AO2 PK WND 29027/1003
94908KDBQ DBQ20101123041512811/23/10 04:15:31  5-MIN KDBQ 231015Z AUTO 29017G24KT 10SM BKN022 M06/M10 A3006 950 74 -1300 290/17G24 RMK AO2 PK WND 29027/1003
94908KDBQ DBQ20101123042012811/23/10 04:20:31  5-MIN KDBQ 231020Z AUTO 30016G23KT 10SM BKN022 M06/M10 A3005 960 74 -1300 300/16G23 RMK AO2 PK WND 29027/1003
94908KDBQ DBQ20101123042512811/23/10 04:25:31  5-MIN KDBQ 231025Z AUTO 30019G24KT 10SM SCT022 M06/M10 A3006 950 74 -1300 300/19G24 RMK AO2 PK WND 29027/1003
94908KDBQ DBQ20101123043012811/23/10 04:30:31  5-MIN KDBQ 231030Z AUTO 30016G25KT 10SM FEW022 M06/M11 A3006 950 71 -1300 300/16G25 RMK AO2 PK WND 29027/1003
94908KDBQ DBQ20101123043512811/23/10 04:35:31  5-MIN KDBQ 231035Z AUTO 30012G25KT 10SM FEW022 M06/M10 A3006 950 74 -1300 300/12G25 RMK AO2 PK WND 29027/1003
94908KDBQ DBQ20101123044012211/23/10 04:40:31  5-MIN KDBQ 231040Z AUTO 30013KT 10SM FEW022 M06/M10 A3006 950 74 -1300 300/13 RMK AO2 PK WND 29027/1003
94908KDBQ DBQ20101123044511911/23/10 04:45:31  5-MIN KDBQ 231045Z AUTO 30015KT 10SM CLR M06/M10 A3006 950 74 -1300 300/15 RMK AO2 PK WND 29027/1003
94908KDBQ DBQ20101123045013611/23/10 04:50:31  5-MIN KDBQ 231050Z AUTO 30012KT 10SM CLR M06/M10 A3006 950 74 -1300 300/12 RMK AO2 PK WND 29027/1003 SLP193 T10611100
94908KDBQ DBQ20101123045510111/23/10 04:55:31  5-MIN KDBQ 231055Z AUTO 31011KT 10SM CLR M07/M10 A3006 950 77 -1400 310/11 RMK AO2
94908KDBQ DBQ20101123050010111/23/10 05:00:31  5-MIN KDBQ 231100Z AUTO 30013KT 10SM CLR M07/M10 A3006 950 77 -1400 300/13 RMK AO2
94908KDBQ DBQ20101123050510111/23/10 05:05:31  5-MIN KDBQ 231105Z AUTO 31012KT 10SM CLR M07/M10 A3007 940 77 -1400 310/12 RMK AO2
94908KDBQ DBQ20101123051010111/23/10 05:10:31  5-MIN KDBQ 231110Z AUTO 30011KT 10SM CLR M07/M10 A3007 940 77 -1400 300/11 RMK AO2
94908KDBQ DBQ20101123051510711/23/10 05:15:31  5-MIN KDBQ 231115Z AUTO 30015G21KT 10SM CLR M07/M10 A3007 940 77 -1400 300/15G21 RMK AO2
94908KDBQ DBQ20101123052010711/23/10 05:20:31  5-MIN KDBQ 231120Z AUTO 30013G21KT 10SM CLR M07/M10 A3007 940 77 -1400 300/13G21 RMK AO2
94908KDBQ DBQ20101123052510711/23/10 05:25:31  5-MIN KDBQ 231125Z AUTO 30014G20KT 10SM CLR M07/M10 A3007 940 77 -1400 300/14G20 RMK AO2
94908KDBQ DBQ20101123053010711/23/10 05:30:31  5-MIN KDBQ 231130Z AUTO 30014G20KT 10SM CLR M07/M10 A3008 940 77 -1400 300/14G20 RMK AO2
94908KDBQ DBQ20101123053510711/23/10 05:35:31  5-MIN KDBQ 231135Z AUTO 30014G21KT 10SM CLR M07/M10 A3008 930 77 -1400 300/14G21 RMK AO2
94908KDBQ DBQ20101123054010711/23/10 05:40:31  5-MIN KDBQ 231140Z AUTO 31012G21KT 10SM CLR M07/M10 A3008 930 77 -1400 300/12G21 RMK AO2
94908KDBQ DBQ20101123054510111/23/10 05:45:31  5-MIN KDBQ 231145Z AUTO 30013KT 10SM CLR M07/M10 A3008 930 77 -1400 290/13 RMK AO2
94908KDBQ DBQ20101123055013711/23/10 05:50:31  5-MIN KDBQ 231150Z 29010KT 10SM CLR M07/M10 A3008 930 81 -1500 290/10 RMK AO2 SLP201 70012 T10721100 11044 21072 51022
94908KDBQ DBQ20101123055510211/23/10 05:55:31  5-MIN KDBQ 231155Z 30013G19KT 10SM CLR M07/M10 A3009 920 81 -1500 300/13G19 RMK AO2
94908KDBQ DBQ20101123060010211/23/10 06:00:31  5-MIN KDBQ 231200Z 29010G19KT 10SM CLR M07/M10 A3010 920 81 -1500 290/10G19 RMK AO2
94908KDBQ DBQ20101123060510211/23/10 06:05:31  5-MIN KDBQ 231205Z 29012G17KT 10SM CLR M07/M10 A3010 910 81 -1500 290/12G17 RMK AO2
94908KDBQ DBQ20101123061010511/23/10 06:10:31  5-MIN KDBQ 231210Z 30010G17KT 10SM FEW019 M07/M11 A3010 910 77 -1500 300/10G17 RMK AO2
94908KDBQ DBQ20101123061509911/23/10 06:15:31  5-MIN KDBQ 231215Z 29010KT 10SM FEW017 M07/M10 A3011 910 81 -1500 290/10 RMK AO2
94908KDBQ DBQ20101123062009911/23/10 06:20:31  5-MIN KDBQ 231220Z 30011KT 10SM FEW017 M07/M10 A3011 900 81 -1500 300/11 RMK AO2
94908KDBQ DBQ20101123062509911/23/10 06:25:31  5-MIN KDBQ 231225Z 31010KT 10SM FEW019 M07/M10 A3011 900 81 -1500 310/10 RMK AO2
94908KDBQ DBQ20101123063009911/23/10 06:30:31  5-MIN KDBQ 231230Z 31009KT 10SM FEW019 M07/M11 A3011 910 77 -1500 310/09 RMK AO2
94908KDBQ DBQ20101123063509911/23/10 06:35:31  5-MIN KDBQ 231235Z 31013KT 10SM FEW019 M07/M11 A3010 910 77 -1500 310/13 RMK AO2
94908KDBQ DBQ20101123064010511/23/10 06:40:31  5-MIN KDBQ 231240Z 31011G17KT 10SM FEW019 M07/M11 A3010 910 74 -1500 310/11G17 RMK AO2
94908KDBQ DBQ20101123064509911/23/10 06:45:31  5-MIN KDBQ 231245Z 31009KT 10SM FEW019 M08/M11 A3011 910 77 -1600 310/09 RMK AO2
94908KDBQ DBQ20101123065011311/23/10 06:50:31  5-MIN KDBQ 231250Z 31009KT 10SM CLR M08/M11 A3011 900 77 -1600 310/09 RMK AO2 SLP211 T10781111
94908KDBQ DBQ20101123065509611/23/10 06:55:31  5-MIN KDBQ 231255Z 31011KT 10SM CLR M08/M11 A3012 900 77 -1600 300/11 RMK AO2
94908KDBQ DBQ20101123070009611/23/10 07:00:31  5-MIN KDBQ 231300Z 31011KT 10SM CLR M08/M11 A3012 900 77 -1600 310/11 RMK AO2
94908KDBQ DBQ20101123070509611/23/10 07:05:31  5-MIN KDBQ 231305Z 32011KT 10SM CLR M08/M11 A3012 890 77 -1600 310/11 RMK AO2
94908KDBQ DBQ20101123071009611/23/10 07:10:31  5-MIN KDBQ 231310Z 31012KT 10SM CLR M08/M12 A3013 890 74 -1600 310/12 RMK AO2
94908KDBQ DBQ20101123071509611/23/10 07:15:31  5-MIN KDBQ 231315Z 31012KT 10SM CLR M08/M12 A3013 880 74 -1600 310/12 RMK AO2
94908KDBQ DBQ20101123072010211/23/10 07:20:31  5-MIN KDBQ 231320Z 32008G18KT 10SM CLR M08/M12 A3013 880 74 -1600 310/08G18 RMK AO2
94908KDBQ DBQ20101123072510211/23/10 07:25:31  5-MIN KDBQ 231325Z 31012G17KT 10SM CLR M08/M12 A3013 880 74 -1600 310/12G17 RMK AO2
94908KDBQ DBQ20101123073010211/23/10 07:30:31  5-MIN KDBQ 231330Z 32013G17KT 10SM CLR M08/M12 A3013 880 71 -1600 320/13G17 RMK AO2
94908KDBQ DBQ20101123073509611/23/10 07:35:31  5-MIN KDBQ 231335Z 32014KT 10SM CLR M08/M12 A3013 880 71 -1600 320/14 RMK AO2
94908KDBQ DBQ20101123074010211/23/10 07:40:31  5-MIN KDBQ 231340Z 31012G18KT 10SM CLR M08/M12 A3014 880 71 -1600 310/12G18 RMK AO2
94908KDBQ DBQ20101123074509611/23/10 07:45:31  5-MIN KDBQ 231345Z 31012KT 10SM CLR M08/M12 A3014 880 71 -1600 310/12 RMK AO2
94908KDBQ DBQ20101123075011311/23/10 07:50:31  5-MIN KDBQ 231350Z 32008KT 10SM CLR M08/M12 A3014 880 71 -1600 320/08 RMK AO2 SLP221 T10781122
94908KDBQ DBQ20101123075509611/23/10 07:55:31  5-MIN KDBQ 231355Z 33009KT 10SM CLR M07/M12 A3015 870 71 -1600 330/09 RMK AO2
94908KDBQ DBQ20101123080009611/23/10 08:00:31  5-MIN KDBQ 231400Z 30008KT 10SM CLR M07/M12 A3015 870 71 -1600 300/08 RMK AO2
94908KDBQ DBQ20101123080509611/23/10 08:05:31  5-MIN KDBQ 231405Z 31010KT 10SM CLR M07/M12 A3015 860 68 -1600 310/10 RMK AO2
94908KDBQ DBQ20101123081009611/23/10 08:10:31  5-MIN KDBQ 231410Z 31010KT 10SM CLR M07/M12 A3016 860 71 -1600 310/10 RMK AO2
94908KDBQ DBQ20101123081509611/23/10 08:15:31  5-MIN KDBQ 231415Z 29010KT 10SM CLR M07/M12 A3016 860 71 -1600 290/10 RMK AO2
94908KDBQ DBQ20101123082009611/23/10 08:20:31  5-MIN KDBQ 231420Z 30011KT 10SM CLR M07/M12 A3016 860 71 -1600 300/11 RMK AO2
94908KDBQ DBQ20101123082509611/23/10 08:25:31  5-MIN KDBQ 231425Z 30013KT 10SM CLR M07/M12 A3017 850 71 -1600 300/13 RMK AO2
94908KDBQ DBQ20101123083009611/23/10 08:30:31  5-MIN KDBQ 231430Z 31010KT 10SM CLR M07/M12 A3017 840 68 -1600 310/10 RMK AO2
94908KDBQ DBQ20101123083509611/23/10 08:35:31  5-MIN KDBQ 231435Z 30011KT 10SM CLR M07/M12 A3018 840 68 -1500 300/11 RMK AO2
94908KDBQ DBQ20101123084009611/23/10 08:40:31  5-MIN KDBQ 231440Z 29012KT 10SM CLR M07/M12 A3017 840 71 -1600 290/12 RMK AO2
94908KDBQ DBQ20101123084509611/23/10 08:45:31  5-MIN KDBQ 231445Z 29011KT 10SM CLR M07/M12 A3017 840 68 -1500 290/11 RMK AO2
94908KDBQ DBQ20101123085011911/23/10 08:50:31  5-MIN KDBQ 231450Z 31010KT 10SM CLR M07/M12 A3018 840 68 -1500 310/10 RMK AO2 SLP234 T10671117 53020
94908KDBQ DBQ20101123085509611/23/10 08:55:31  5-MIN KDBQ 231455Z 30011KT 10SM CLR M07/M12 A3018 840 68 -1500 300/11 RMK AO2
94908KDBQ DBQ20101123090009611/23/10 09:00:31  5-MIN KDBQ 231500Z 30012KT 10SM CLR M07/M12 A3018 840 68 -1600 300/12 RMK AO2
94908KDBQ DBQ20101123090509611/23/10 09:05:31  5-MIN KDBQ 231505Z 30010KT 10SM CLR M07/M12 A3018 840 68 -1600 300/10 RMK AO2
94908KDBQ DBQ20101123091009611/23/10 09:10:31  5-MIN KDBQ 231510Z 29010KT 10SM CLR M06/M12 A3018 840 65 -1500 290/10 RMK AO2
94908KDBQ DBQ20101123091510211/23/10 09:15:31  5-MIN KDBQ 231515Z 31010G17KT 10SM CLR M06/M12 A3018 840 65 -1500 310/10G17 RMK AO2
94908KDBQ DBQ20101123092010211/23/10 09:20:31  5-MIN KDBQ 231520Z 31010G17KT 10SM CLR M06/M12 A3019 830 65 -1500 310/10G17 RMK AO2
94908KDBQ DBQ20101123092509611/23/10 09:25:31  5-MIN KDBQ 231525Z 30012KT 10SM CLR M06/M12 A3019 830 65 -1500 300/12 RMK AO2
94908KDBQ DBQ20101123093009611/23/10 09:30:31  5-MIN KDBQ 231530Z 30009KT 10SM CLR M06/M12 A3019 830 62 -1400 300/09 RMK AO2
94908KDBQ DBQ20101123093509611/23/10 09:35:31  5-MIN KDBQ 231535Z 28010KT 10SM CLR M06/M11 A3019 830 65 -1400 280/10 RMK AO2
94908KDBQ DBQ20101123094009611/23/10 09:40:31  5-MIN KDBQ 231540Z 29010KT 10SM CLR M06/M11 A3019 830 65 -1400 290/10 RMK AO2
94908KDBQ DBQ20101123094509611/23/10 09:45:31  5-MIN KDBQ 231545Z 30012KT 10SM CLR M06/M11 A3020 820 65 -1400 300/12 RMK AO2
94908KDBQ DBQ20101123095011311/23/10 09:50:31  5-MIN KDBQ 231550Z 29010KT 10SM CLR M06/M11 A3020 820 65 -1400 290/10 RMK AO2 SLP242 T10561111
94908KDBQ DBQ20101123095509611/23/10 09:55:31  5-MIN KDBQ 231555Z 29009KT 10SM CLR M06/M11 A3020 820 65 -1400 290/09 RMK AO2
94908KDBQ DBQ20101123100009611/23/10 10:00:31  5-MIN KDBQ 231600Z 30009KT 10SM CLR M06/M11 A3020 820 65 -1400 290/09 RMK AO2
94908KDBQ DBQ20101123100509611/23/10 10:05:31  5-MIN KDBQ 231605Z 28009KT 10SM CLR M05/M11 A3020 820 62 -1400 280/09 RMK AO2
94908KDBQ DBQ20101123101010211/23/10 10:10:31  5-MIN KDBQ 231610Z 30009KT 10SM CLR M05/M11 A3021 810 62 -1400 300/09 RMK AO2 P0001
94908KDBQ DBQ20101123101510811/23/10 10:15:31  5-MIN KDBQ 231615Z 29010G18KT 10SM CLR M05/M11 A3021 810 62 -1400 290/10G18 RMK AO2 P0001
94908KDBQ DBQ20101123102010811/23/10 10:20:31  5-MIN KDBQ 231620Z 30010G18KT 10SM CLR M05/M11 A3020 820 62 -1400 300/10G18 RMK AO2 P0001
94908KDBQ DBQ20101123102510211/23/10 10:25:31  5-MIN KDBQ 231625Z 30011KT 10SM CLR M05/M11 A3021 810 62 -1400 300/11 RMK AO2 P0001
94908KDBQ DBQ20101123103010211/23/10 10:30:31  5-MIN KDBQ 231630Z 31011KT 10SM CLR M05/M11 A3021 810 62 -1400 310/11 RMK AO2 P0001
94908KDBQ DBQ20101123103510211/23/10 10:35:31  5-MIN KDBQ 231635Z 29008KT 10SM CLR M04/M11 A3022 800 62 -1300 290/08 RMK AO2 P0001
94908KDBQ DBQ20101123104010211/23/10 10:40:31  5-MIN KDBQ 231640Z 30009KT 10SM CLR M04/M11 A3022 800 60 -1300 290/09 RMK AO2 P0001
94908KDBQ DBQ20101123104510211/23/10 10:45:31  5-MIN KDBQ 231645Z 28009KT 10SM CLR M04/M11 A3022 800 62 -1300 280/09 RMK AO2 P0001
94908KDBQ DBQ20101123105012511/23/10 10:50:31  5-MIN KDBQ 231650Z 29010G18KT 10SM CLR M04/M11 A3023 800 62 -1300 290/10G18 RMK AO2 SLP252 P0001 T10441106
94908KDBQ DBQ20101123105510211/23/10 10:55:31  5-MIN KDBQ 231655Z 28011G18KT 10SM CLR M04/M11 A3023 800 62 -1300 280/11G18 RMK AO2
94908KDBQ DBQ20101123110010211/23/10 11:00:31  5-MIN KDBQ 231700Z 29009G17KT 10SM CLR M04/M11 A3022 800 62 -1300 290/09G17 RMK AO2
94908KDBQ DBQ20101123110510211/23/10 11:05:31  5-MIN KDBQ 231705Z 29008G17KT 10SM CLR M04/M11 A3022 800 60 -1200 290/08G17 RMK AO2
94908KDBQ DBQ20101123111010211/23/10 11:10:31  5-MIN KDBQ 231710Z 28010G17KT 10SM CLR M04/M11 A3022 800 60 -1200 280/10G17 RMK AO2
94908KDBQ DBQ20101123111509611/23/10 11:15:31  5-MIN KDBQ 231715Z 29010KT 10SM CLR M04/M11 A3021 810 60 -1200 290/10 RMK AO2
94908KDBQ DBQ20101123112009611/23/10 11:20:31  5-MIN KDBQ 231720Z 27009KT 10SM CLR M04/M11 A3022 800 60 -1200 270/09 RMK AO2
94908KDBQ DBQ20101123112509611/23/10 11:25:31  5-MIN KDBQ 231725Z 28010KT 10SM CLR M04/M11 A3022 810 60 -1200 280/10 RMK AO2
94908KDBQ DBQ20101123113009611/23/10 11:30:31  5-MIN KDBQ 231730Z 28009KT 10SM CLR M04/M11 A3022 800 60 -1200 280/09 RMK AO2
94908KDBQ DBQ20101123113509611/23/10 11:35:31  5-MIN KDBQ 231735Z 27011KT 10SM CLR M03/M11 A3022 800 57 -1200 270/11 RMK AO2
94908KDBQ DBQ20101123114010211/23/10 11:40:31  5-MIN KDBQ 231740Z 29010G17KT 10SM CLR M03/M10 A3022 800 60 -1200 280/10G17 RMK AO2
94908KDBQ DBQ20101123114510211/23/10 11:45:31  5-MIN KDBQ 231745Z 28011G17KT 10SM CLR M03/M10 A3022 800 60 -1200 280/11G17 RMK AO2
94908KDBQ DBQ20101123115014311/23/10 11:50:31  5-MIN KDBQ 231750Z 29010G17KT 10SM CLR M03/M11 A3022 800 57 -1200 290/10G17 RMK AO2 SLP250 60001 T10331106 11033 21078 53030
94908KDBQ DBQ20101123115510211/23/10 11:55:31  5-MIN KDBQ 231755Z 29013G18KT 10SM CLR M03/M10 A3022 800 58 -1100 290/13G18 RMK AO2
94908KDBQ DBQ20101123120010211/23/10 12:00:31  5-MIN KDBQ 231800Z 28009G18KT 10SM CLR M03/M11 A3022 800 57 -1200 280/09G18 RMK AO2
94908KDBQ DBQ20101123120510211/23/10 12:05:31  5-MIN KDBQ 231805Z 27008G16KT 10SM CLR M03/M11 A3023 800 55 -1100 270/08G16 RMK AO2
94908KDBQ DBQ20101123121010211/23/10 12:10:31  5-MIN KDBQ 231810Z 29014G19KT 10SM CLR M03/M10 A3023 800 58 -1100 290/14G19 RMK AO2
94908KDBQ DBQ20101123121510211/23/10 12:15:31  5-MIN KDBQ 231815Z 30010G19KT 10SM CLR M03/M11 A3022 800 55 -1100 300/10G19 RMK AO2
94908KDBQ DBQ20101123122010211/23/10 12:20:31  5-MIN KDBQ 231820Z 29013G18KT 10SM CLR M03/M11 A3023 800 57 -1200 280/13G18 RMK AO2
94908KDBQ DBQ20101123122510211/23/10 12:25:31  5-MIN KDBQ 231825Z 29012G18KT 10SM CLR M03/M11 A3023 790 55 -1100 290/12G18 RMK AO2
94908KDBQ DBQ20101123123009611/23/10 12:30:31  5-MIN KDBQ 231830Z 29010KT 10SM CLR M03/M11 A3023 790 55 -1100 290/10 RMK AO2
94908KDBQ DBQ20101123123509611/23/10 12:35:31  5-MIN KDBQ 231835Z 27011KT 10SM CLR M03/M10 A3023 790 58 -1100 270/11 RMK AO2
94908KDBQ DBQ20101123124010211/23/10 12:40:31  5-MIN KDBQ 231840Z 29014G19KT 10SM CLR M02/M10 A3023 790 55 -1000 290/14G19 RMK AO2
94908KDBQ DBQ20101123124510211/23/10 12:45:31  5-MIN KDBQ 231845Z 31009G19KT 10SM CLR M03/M11 A3022 800 55 -1100 310/09G19 RMK AO2
94908KDBQ DBQ20101123125011311/23/10 12:50:31  5-MIN KDBQ 231850Z 28008KT 10SM CLR M03/M11 A3022 800 55 -1100 280/08 RMK AO2 SLP250 T10281106
94908KDBQ DBQ20101123125509611/23/10 12:55:31  5-MIN KDBQ 231855Z 29010KT 10SM CLR M02/M10 A3023 800 55 -1000 290/10 RMK AO2
94908KDBQ DBQ20101123130010211/23/10 13:00:31  5-MIN KDBQ 231900Z 28010G17KT 10SM CLR M02/M11 A3023 800 53 -1000 280/10G17 RMK AO2
94908KDBQ DBQ20101123130510211/23/10 13:05:31  5-MIN KDBQ 231905Z 29009G17KT 10SM CLR M02/M10 A3023 790 55 -1000 290/09G17 RMK AO2
94908KDBQ DBQ20101123131010211/23/10 13:10:31  5-MIN KDBQ 231910Z 29013G17KT 10SM CLR M02/M10 A3023 790 55 -1000 290/13G17 RMK AO2
94908KDBQ DBQ20101123131510211/23/10 13:15:31  5-MIN KDBQ 231915Z 27011G18KT 10SM CLR M03/M11 A3023 790 55 -1100 270/11G18 RMK AO2
94908KDBQ DBQ20101123132010211/23/10 13:20:31  5-MIN KDBQ 231920Z 28011G18KT 10SM CLR M02/M09 A3024 790 58 -1000 280/11G18 RMK AO2
94908KDBQ DBQ20101123132509611/23/10 13:25:31  5-MIN KDBQ 231925Z 28009KT 10SM CLR M02/M10 A3024 790 55 -1000 280/09 RMK AO2
94908KDBQ DBQ20101123133010211/23/10 13:30:31  5-MIN KDBQ 231930Z 27009G16KT 10SM CLR M02/M10 A3024 790 55 -1000 270/09G16 RMK AO2
94908KDBQ DBQ20101123133510211/23/10 13:35:31  5-MIN KDBQ 231935Z 28011G17KT 10SM CLR M02/M10 A3024 780 55 -1000 270/11G17 RMK AO2
94908KDBQ DBQ20101123134009611/23/10 13:40:31  5-MIN KDBQ 231940Z 28012KT 10SM CLR M02/M10 A3023 790 55 -1000 280/12 RMK AO2
94908KDBQ DBQ20101123134509611/23/10 13:45:31  5-MIN KDBQ 231945Z 27010KT 10SM CLR M02/M10 A3024 790 55 -1000 270/10 RMK AO2
94908KDBQ DBQ20101123135011311/23/10 13:50:31  5-MIN KDBQ 231950Z 29010KT 10SM CLR M02/M10 A3024 790 53 -1000 290/10 RMK AO2 SLP254 T10171100
94908KDBQ DBQ20101123135510211/23/10 13:55:31  5-MIN KDBQ 231955Z 28007G16KT 10SM CLR M02/M09 A3024 790 55 -1000 280/07G16 RMK AO2
94908KDBQ DBQ20101123140009611/23/10 14:00:31  5-MIN KDBQ 232000Z 29009KT 10SM CLR M02/M09 A3024 780 55 -1000 280/09 RMK AO2
94908KDBQ DBQ20101123140509611/23/10 14:05:31  5-MIN KDBQ 232005Z 28010KT 10SM CLR M02/M10 A3024 790 53 -1000 280/10 RMK AO2
94908KDBQ DBQ20101123141009611/23/10 14:10:31  5-MIN KDBQ 232010Z 27009KT 10SM CLR M02/M10 A3024 790 53 -1000 270/09 RMK AO2
94908KDBQ DBQ20101123141509611/23/10 14:15:31  5-MIN KDBQ 232015Z 29011KT 10SM CLR M02/M10 A3024 780 53 -1000 280/11 RMK AO2
94908KDBQ DBQ20101123142009611/23/10 14:20:31  5-MIN KDBQ 232020Z 31009KT 10SM CLR M02/M10 A3024 780 53 -1000 310/09 RMK AO2
94908KDBQ DBQ20101123142509611/23/10 14:25:31  5-MIN KDBQ 232025Z 25007KT 10SM CLR M02/M10 A3024 780 55 -1100 250/07 RMK AO2
94908KDBQ DBQ20101123143009611/23/10 14:30:31  5-MIN KDBQ 232030Z 28009KT 10SM CLR M02/M09 A3024 780 55 -1000 280/09 RMK AO2
94908KDBQ DBQ20101123143509611/23/10 14:35:31  5-MIN KDBQ 232035Z 28008KT 10SM CLR M02/M10 A3024 780 53 -1000 280/08 RMK AO2
94908KDBQ DBQ20101123144009611/23/10 14:40:31  5-MIN KDBQ 232040Z 27008KT 10SM CLR M02/M09 A3025 780 55 -1000 270/08 RMK AO2
94908KDBQ DBQ20101123144509611/23/10 14:45:31  5-MIN KDBQ 232045Z 27008KT 10SM CLR M02/M09 A3025 780 58 -1100 270/08 RMK AO2
94908KDBQ DBQ20101123145011911/23/10 14:50:31  5-MIN KDBQ 232050Z 28009KT 10SM CLR M02/M09 A3025 780 55 -1000 280/09 RMK AO2 SLP258 T10171094 50014
94908KDBQ DBQ20101123145509611/23/10 14:55:31  5-MIN KDBQ 232055Z 27008KT 10SM CLR M02/M09 A3025 780 55 -1000 270/08 RMK AO2
94908KDBQ DBQ20101123150009611/23/10 15:00:31  5-MIN KDBQ 232100Z 29007KT 10SM CLR M02/M09 A3025 770 55 -1000 290/07 RMK AO2
94908KDBQ DBQ20101123150509611/23/10 15:05:31  5-MIN KDBQ 232105Z 28009KT 10SM CLR M02/M09 A3025 770 58 -1100 280/09 RMK AO2
94908KDBQ DBQ20101123151009611/23/10 15:10:31  5-MIN KDBQ 232110Z 28008KT 10SM CLR M02/M09 A3025 770 55 -1000 280/08 RMK AO2
94908KDBQ DBQ20101123151509611/23/10 15:15:31  5-MIN KDBQ 232115Z 26008KT 10SM CLR M02/M09 A3025 770 58 -1100 260/08 RMK AO2
94908KDBQ DBQ20101123152009611/23/10 15:20:31  5-MIN KDBQ 232120Z 29008KT 10SM CLR M02/M09 A3025 770 55 -1000 290/08 RMK AO2
94908KDBQ DBQ20101123152509611/23/10 15:25:31  5-MIN KDBQ 232125Z 29007KT 10SM CLR M02/M09 A3026 770 55 -1000 290/07 RMK AO2
94908KDBQ DBQ20101123153009611/23/10 15:30:31  5-MIN KDBQ 232130Z 28007KT 10SM CLR M02/M09 A3026 770 58 -1100 280/07 RMK AO2
94908KDBQ DBQ20101123153509611/23/10 15:35:31  5-MIN KDBQ 232135Z 29009KT 10SM CLR M02/M09 A3026 760 58 -1100 280/09 RMK AO2
94908KDBQ DBQ20101123154009611/23/10 15:40:31  5-MIN KDBQ 232140Z 28006KT 10SM CLR M02/M09 A3026 760 58 -1100 280/06 RMK AO2
94908KDBQ DBQ20101123154509611/23/10 15:45:31  5-MIN KDBQ 232145Z 28007KT 10SM CLR M02/M09 A3026 760 58 -1100 280/07 RMK AO2
94908KDBQ DBQ20101123155011311/23/10 15:50:31  5-MIN KDBQ 232150Z 28007KT 10SM CLR M02/M09 A3026 760 58 -1100 280/07 RMK AO2 SLP265 T10221094
94908KDBQ DBQ20101123155509611/23/10 15:55:31  5-MIN KDBQ 232155Z 28008KT 10SM CLR M02/M09 A3027 760 58 -1100 280/08 RMK AO2
94908KDBQ DBQ20101123160010611/23/10 16:00:31  5-MIN KDBQ 232200Z AUTO 27008KT 10SM CLR M02/M09 A3027 760 58 -1100 270/08 RMK AO2 TSNO
94908KDBQ DBQ20101123160510611/23/10 16:05:31  5-MIN KDBQ 232205Z AUTO 28008KT 10SM CLR M03/M09 A3027 760 60 -1200 270/08 RMK AO2 TSNO
94908KDBQ DBQ20101123161010611/23/10 16:10:31  5-MIN KDBQ 232210Z AUTO 28007KT 10SM CLR M03/M09 A3027 760 60 -1200 280/07 RMK AO2 TSNO
94908KDBQ DBQ20101123161510611/23/10 16:15:31  5-MIN KDBQ 232215Z AUTO 28007KT 10SM CLR M03/M09 A3027 760 60 -1200 280/07 RMK AO2 TSNO
94908KDBQ DBQ20101123162010611/23/10 16:20:31  5-MIN KDBQ 232220Z AUTO 30007KT 10SM CLR M03/M09 A3027 760 60 -1200 300/07 RMK AO2 TSNO
94908KDBQ DBQ20101123162509611/23/10 16:25:31  5-MIN KDBQ 232225Z 30006KT 10SM CLR M03/M09 A3027 760 63 -1200 300/06 RMK AO2
94908KDBQ DBQ20101123163009611/23/10 16:30:31  5-MIN KDBQ 232230Z 28005KT 10SM CLR M03/M09 A3027 760 63 -1200 280/05 RMK AO2
94908KDBQ DBQ20101123163509611/23/10 16:35:31  5-MIN KDBQ 232235Z 28005KT 10SM CLR M04/M09 A3027 760 65 -1300 280/05 RMK AO2
94908KDBQ DBQ20101123164009611/23/10 16:40:31  5-MIN KDBQ 232240Z 28005KT 10SM CLR M04/M09 A3027 760 65 -1300 280/05 RMK AO2
94908KDBQ DBQ20101123164509611/23/10 16:45:31  5-MIN KDBQ 232245Z 28004KT 10SM CLR M04/M09 A3027 760 65 -1300 280/04 RMK AO2
94908KDBQ DBQ20101123165011311/23/10 16:50:31  5-MIN KDBQ 232250Z 29003KT 10SM CLR M04/M09 A3027 760 68 -1400 290/03 RMK AO2 SLP266 T10441094
94908KDBQ DBQ20101123165509611/23/10 16:55:31  5-MIN KDBQ 232255Z 28003KT 10SM CLR M04/M09 A3027 760 68 -1400 270/03 RMK AO2
94908KDBQ DBQ20101123170009611/23/10 17:00:31  5-MIN KDBQ 232300Z 29003KT 10SM CLR M04/M09 A3027 760 68 -1400 290/03 RMK AO2
94908KDBQ DBQ20101123170509611/23/10 17:05:31  5-MIN KDBQ 232305Z 29003KT 10SM CLR M04/M09 A3027 760 68 -1400 290/03 RMK AO2
94908KDBQ DBQ20101123171009611/23/10 17:10:31  5-MIN KDBQ 232310Z 29003KT 10SM CLR M04/M09 A3027 760 68 -1400 290/03 RMK AO2
94908KDBQ DBQ20101123171509611/23/10 17:15:31  5-MIN KDBQ 232315Z 30004KT 10SM CLR M04/M09 A3026 760 68 -1400 300/04 RMK AO2
94908KDBQ DBQ20101123172009611/23/10 17:20:31  5-MIN KDBQ 232320Z 30004KT 10SM CLR M05/M09 A3027 760 71 -1400 300/04 RMK AO2
94908KDBQ DBQ20101123172510211/23/10 17:25:31  5-MIN KDBQ 232325Z VRB03G19KT 10SM CLR M05/M09 A3027 760 71 -1400 VRB/03G19 RMK AO2
94908KDBQ DBQ20101123173010211/23/10 17:30:31  5-MIN KDBQ 232330Z VRB04G19KT 10SM CLR M05/M09 A3027 760 71 -1400 VRB/04G19 RMK AO2
94908KDBQ DBQ20101123173509611/23/10 17:35:31  5-MIN KDBQ 232335Z 00000KT 10SM CLR M05/M09 A3026 760 71 -1400 000/00 RMK AO2
94908KDBQ DBQ20101123174010211/23/10 17:40:31  5-MIN KDBQ 232340Z 34003G23KT 10SM CLR M04/M09 A3026 760 68 -1400 340/03G23 RMK AO2
94908KDBQ DBQ20101123174509611/23/10 17:45:31  5-MIN KDBQ 232345Z 34003KT 10SM CLR M05/M09 A3027 760 71 -1400 340/03 RMK AO2
94908KDBQ DBQ20101123175013111/23/10 17:50:31  5-MIN KDBQ 232350Z 32004KT 10SM CLR M05/M10 A3027 760 68 -1400 310/04 RMK AO2 SLP269 T10501100 11017 21056 53008
94908KDBQ DBQ20101123175509611/23/10 17:55:31  5-MIN KDBQ 232355Z 00000KT 10SM CLR M06/M09 A3027 760 74 -1500 000/00 RMK AO2
94908KDBQ DBQ20101123180009611/23/10 18:00:31  5-MIN KDBQ 240000Z 28003KT 10SM CLR M07/M10 A3027 750 77 -1700 280/03 RMK AO2
94908KDBQ DBQ20101123180509611/23/10 18:05:31  5-MIN KDBQ 240005Z 24003KT 10SM CLR M07/M09 A3027 750 81 -1700 240/03 RMK AO2
94908KDBQ DBQ20101123181009611/23/10 18:10:31  5-MIN KDBQ 240010Z 26003KT 10SM CLR M07/M10 A3027 760 81 -1700 250/03 RMK AO2
94908KDBQ DBQ20101123181509611/23/10 18:15:31  5-MIN KDBQ 240015Z 00000KT 10SM CLR M07/M10 A3027 760 77 -1600 000/00 RMK AO2
94908KDBQ DBQ20101123182009611/23/10 18:20:31  5-MIN KDBQ 240020Z 00000KT 10SM CLR M07/M09 A3026 760 81 -1600 000/00 RMK AO2
94908KDBQ DBQ20101123182509611/23/10 18:25:31  5-MIN KDBQ 240025Z 00000KT 10SM CLR M06/M09 A3027 760 77 -1600 000/00 RMK AO2
94908KDBQ DBQ20101123183009611/23/10 18:30:31  5-MIN KDBQ 240030Z 00000KT 10SM CLR M07/M10 A3027 760 77 -1600 000/00 RMK AO2
94908KDBQ DBQ20101123183509611/23/10 18:35:31  5-MIN KDBQ 240035Z 00000KT 10SM CLR M06/M09 A3026 760 77 -1600 000/00 RMK AO2
94908KDBQ DBQ20101123184009611/23/10 18:40:31  5-MIN KDBQ 240040Z 00000KT 10SM CLR M06/M09 A3027 760 74 -1500 000/00 RMK AO2
94908KDBQ DBQ20101123184509611/23/10 18:45:31  5-MIN KDBQ 240045Z 00000KT 10SM CLR M06/M09 A3027 760 77 -1600 000/00 RMK AO2
94908KDBQ DBQ20101123185011311/23/10 18:50:31  5-MIN KDBQ 240050Z 00000KT 10SM CLR M06/M09 A3026 760 77 -1600 000/00 RMK AO2 SLP268 T10611094
94908KDBQ DBQ20101123185509611/23/10 18:55:31  5-MIN KDBQ 240055Z 00000KT 10SM CLR M06/M09 A3026 760 77 -1600 000/00 RMK AO2
94908KDBQ DBQ20101123190009611/23/10 19:00:31  5-MIN KDBQ 240100Z 00000KT 10SM CLR M07/M09 A3026 760 81 -1600 000/00 RMK AO2
94908KDBQ DBQ20101123190509611/23/10 19:05:31  5-MIN KDBQ 240105Z 00000KT 10SM CLR M06/M09 A3026 760 77 -1600 000/00 RMK AO2
94908KDBQ DBQ20101123191009611/23/10 19:10:31  5-MIN KDBQ 240110Z 00000KT 10SM CLR M06/M09 A3026 760 77 -1600 000/00 RMK AO2
94908KDBQ DBQ20101123191509611/23/10 19:15:31  5-MIN KDBQ 240115Z 00000KT 10SM CLR M07/M09 A3027 760 81 -1600 000/00 RMK AO2
94908KDBQ DBQ20101123192009611/23/10 19:20:31  5-MIN KDBQ 240120Z 00000KT 10SM CLR M07/M10 A3026 760 77 -1600 000/00 RMK AO2
94908KDBQ DBQ20101123192509611/23/10 19:25:31  5-MIN KDBQ 240125Z 00000KT 10SM CLR M07/M10 A3026 760 81 -1700 000/00 RMK AO2
94908KDBQ DBQ20101123193009611/23/10 19:30:31  5-MIN KDBQ 240130Z 00000KT 10SM CLR M08/M11 A3027 760 84 -1900 000/00 RMK AO2
94908KDBQ DBQ20101123193509611/23/10 19:35:31  5-MIN KDBQ 240135Z 00000KT 10SM CLR M07/M10 A3027 760 81 -1700 000/00 RMK AO2
94908KDBQ DBQ20101123194009611/23/10 19:40:31  5-MIN KDBQ 240140Z 00000KT 10SM CLR M07/M09 A3027 760 81 -1700 000/00 RMK AO2
94908KDBQ DBQ20101123194509611/23/10 19:45:31  5-MIN KDBQ 240145Z 00000KT 10SM CLR M07/M09 A3027 760 84 -1700 000/00 RMK AO2
94908KDBQ DBQ20101123195011311/23/10 19:50:31  5-MIN KDBQ 240150Z 00000KT 10SM CLR M07/M10 A3026 760 81 -1700 000/00 RMK AO2 SLP268 T10721100
94908KDBQ DBQ20101123195509611/23/10 19:55:31  5-MIN KDBQ 240155Z 00000KT 10SM CLR M07/M09 A3027 760 84 -1700 000/00 RMK AO2
94908KDBQ DBQ20101123200009611/23/10 20:00:31  5-MIN KDBQ 240200Z 00000KT 10SM CLR M07/M09 A3027 760 84 -1700 000/00 RMK AO2
94908KDBQ DBQ20101123200509611/23/10 20:05:31  5-MIN KDBQ 240205Z 00000KT 10SM CLR M08/M10 A3027 760 84 -1800 000/00 RMK AO2
94908KDBQ DBQ20101123201009611/23/10 20:10:31  5-MIN KDBQ 240210Z 00000KT 10SM CLR M07/M10 A3026 760 81 -1700 000/00 RMK AO2
94908KDBQ DBQ20101123201509611/23/10 20:15:31  5-MIN KDBQ 240215Z 04003KT 10SM CLR M07/M10 A3026 770 77 -1600 040/03 RMK AO2
94908KDBQ DBQ20101123202009611/23/10 20:20:31  5-MIN KDBQ 240220Z 04004KT 10SM CLR M07/M10 A3025 770 77 -1600 040/04 RMK AO2
94908KDBQ DBQ20101123202509611/23/10 20:25:31  5-MIN KDBQ 240225Z 05005KT 10SM CLR M07/M10 A3026 770 77 -1600 050/05 RMK AO2
94908KDBQ DBQ20101123203009611/23/10 20:30:31  5-MIN KDBQ 240230Z 05005KT 10SM CLR M07/M10 A3025 770 77 -1600 050/05 RMK AO2
94908KDBQ DBQ20101123203509611/23/10 20:35:31  5-MIN KDBQ 240235Z 05004KT 10SM CLR M07/M10 A3026 770 81 -1700 050/04 RMK AO2
94908KDBQ DBQ20101123204009611/23/10 20:40:31  5-MIN KDBQ 240240Z 06003KT 10SM CLR M07/M10 A3026 770 81 -1700 050/03 RMK AO2
94908KDBQ DBQ20101123204509611/23/10 20:45:31  5-MIN KDBQ 240245Z 00000KT 10SM CLR M07/M10 A3026 760 77 -1600 000/00 RMK AO2
94908KDBQ DBQ20101123205011911/23/10 20:50:31  5-MIN KDBQ 240250Z 00000KT 10SM CLR M07/M10 A3026 760 77 -1600 000/00 RMK AO2 SLP268 T10671100 51008
94908KDBQ DBQ20101123205509611/23/10 20:55:31  5-MIN KDBQ 240255Z 06003KT 10SM CLR M06/M10 A3026 770 74 -1600 060/03 RMK AO2
94908KDBQ DBQ20101123210009611/23/10 21:00:31  5-MIN KDBQ 240300Z 07005KT 10SM CLR M07/M11 A3026 770 77 -1700 070/05 RMK AO2
94908KDBQ DBQ20101123210509611/23/10 21:05:31  5-MIN KDBQ 240305Z 06005KT 10SM CLR M07/M10 A3026 770 77 -1600 060/05 RMK AO2
94908KDBQ DBQ20101123211009611/23/10 21:10:31  5-MIN KDBQ 240310Z 06005KT 10SM CLR M07/M10 A3026 770 77 -1600 060/05 RMK AO2
94908KDBQ DBQ20101123211509611/23/10 21:15:31  5-MIN KDBQ 240315Z 06005KT 10SM CLR M06/M10 A3025 770 74 -1600 060/05 RMK AO2
94908KDBQ DBQ20101123212009611/23/10 21:20:31  5-MIN KDBQ 240320Z 06004KT 10SM CLR M06/M10 A3026 770 74 -1600 060/04 RMK AO2
94908KDBQ DBQ20101123212509611/23/10 21:25:31  5-MIN KDBQ 240325Z 06004KT 10SM CLR M07/M10 A3026 770 77 -1600 050/04 RMK AO2
94908KDBQ DBQ20101123213009611/23/10 21:30:31  5-MIN KDBQ 240330Z 06003KT 10SM CLR M06/M10 A3026 760 74 -1600 060/03 RMK AO2
94908KDBQ DBQ20101123213509611/23/10 21:35:31  5-MIN KDBQ 240335Z 06004KT 10SM CLR M06/M10 A3026 760 74 -1600 060/04 RMK AO2
94908KDBQ DBQ20101123214009611/23/10 21:40:31  5-MIN KDBQ 240340Z 08004KT 10SM CLR M06/M10 A3027 760 74 -1600 080/04 RMK AO2
94908KDBQ DBQ20101123214509611/23/10 21:45:31  5-MIN KDBQ 240345Z 08005KT 10SM CLR M06/M10 A3027 760 71 -1500 080/05 RMK AO2
94908KDBQ DBQ20101123215011311/23/10 21:50:31  5-MIN KDBQ 240350Z 08006KT 10SM CLR M06/M10 A3027 760 74 -1600 080/06 RMK AO2 SLP268 T10611100
94908KDBQ DBQ20101123215509611/23/10 21:55:31  5-MIN KDBQ 240355Z 08007KT 10SM CLR M06/M10 A3026 760 74 -1600 080/07 RMK AO2
94908KDBQ DBQ20101123220009611/23/10 22:00:31  5-MIN KDBQ 240400Z 07007KT 10SM CLR M06/M09 A3026 770 74 -1500 070/07 RMK AO2
94908KDBQ DBQ20101123220509611/23/10 22:05:31  5-MIN KDBQ 240405Z 07007KT 10SM CLR M06/M09 A3026 770 74 -1500 070/07 RMK AO2
94908KDBQ DBQ20101123221009611/23/10 22:10:31  5-MIN KDBQ 240410Z 07007KT 10SM CLR M06/M09 A3025 770 74 -1500 070/07 RMK AO2
94908KDBQ DBQ20101123221509611/23/10 22:15:31  5-MIN KDBQ 240415Z 07006KT 10SM CLR M06/M09 A3025 770 74 -1500 070/06 RMK AO2
94908KDBQ DBQ20101123222009611/23/10 22:20:31  5-MIN KDBQ 240420Z 08006KT 10SM CLR M06/M09 A3026 770 74 -1500 080/06 RMK AO2
94908KDBQ DBQ20101123222509611/23/10 22:25:31  5-MIN KDBQ 240425Z 07006KT 10SM CLR M06/M09 A3026 770 74 -1500 070/06 RMK AO2
94908KDBQ DBQ20101123223009611/23/10 22:30:31  5-MIN KDBQ 240430Z 06006KT 10SM CLR M06/M09 A3026 770 74 -1500 060/06 RMK AO2
94908KDBQ DBQ20101123223509611/23/10 22:35:31  5-MIN KDBQ 240435Z 06006KT 10SM CLR M06/M09 A3025 770 74 -1500 060/06 RMK AO2
94908KDBQ DBQ20101123224009611/23/10 22:40:31  5-MIN KDBQ 240440Z 06006KT 10SM CLR M06/M09 A3025 770 74 -1500 060/06 RMK AO2
94908KDBQ DBQ20101123224509611/23/10 22:45:31  5-MIN KDBQ 240445Z 06006KT 10SM CLR M06/M09 A3025 780 74 -1500 050/06 RMK AO2
94908KDBQ DBQ20101123225011311/23/10 22:50:31  5-MIN KDBQ 240450Z 06008KT 10SM CLR M06/M09 A3025 780 74 -1500 060/08 RMK AO2 SLP259 T10561094
94908KDBQ DBQ20101123225509611/23/10 22:55:31  5-MIN KDBQ 240455Z 07007KT 10SM CLR M06/M09 A3025 780 74 -1500 070/07 RMK AO2
94908KDBQ DBQ20101123230009611/23/10 23:00:31  5-MIN KDBQ 240500Z 07009KT 10SM CLR M06/M09 A3024 780 74 -1500 070/09 RMK AO2
94908KDBQ DBQ20101123230509611/23/10 23:05:31  5-MIN KDBQ 240505Z 06010KT 10SM CLR M06/M09 A3024 780 74 -1500 060/10 RMK AO2
94908KDBQ DBQ20101123231009611/23/10 23:10:31  5-MIN KDBQ 240510Z 06007KT 10SM CLR M06/M09 A3024 780 74 -1500 060/07 RMK AO2
94908KDBQ DBQ20101123231509611/23/10 23:15:31  5-MIN KDBQ 240515Z 06008KT 10SM CLR M06/M09 A3024 790 74 -1500 060/08 RMK AO2
94908KDBQ DBQ20101123232009611/23/10 23:20:31  5-MIN KDBQ 240520Z 06008KT 10SM CLR M06/M09 A3024 780 74 -1500 060/08 RMK AO2
94908KDBQ DBQ20101123232509611/23/10 23:25:31  5-MIN KDBQ 240525Z 07010KT 10SM CLR M06/M09 A3024 780 74 -1500 070/10 RMK AO2
94908KDBQ DBQ20101123233009611/23/10 23:30:31  5-MIN KDBQ 240530Z 07010KT 10SM CLR M06/M09 A3023 790 74 -1500 070/10 RMK AO2
94908KDBQ DBQ20101123233509611/23/10 23:35:31  5-MIN KDBQ 240535Z 07010KT 10SM CLR M06/M09 A3023 790 74 -1500 070/10 RMK AO2
94908KDBQ DBQ20101123234009611/23/10 23:40:31  5-MIN KDBQ 240540Z 07010KT 10SM CLR M06/M09 A3024 790 74 -1500 070/10 RMK AO2
94908KDBQ DBQ20101123234509611/23/10 23:45:31  5-MIN KDBQ 240545Z 07010KT 10SM CLR M06/M09 A3024 790 74 -1500 070/10 RMK AO2
94908KDBQ DBQ20101123235014111/23/10 23:50:31  5-MIN KDBQ 240550Z 07010KT 10SM CLR M06/M09 A3023 790 74 -1500 070/10 RMK AO2 SLP254 T10561094 11050 21083 410171083 56003
94908KDBQ DBQ20101123235509611/23/10 23:55:31  5-MIN KDBQ 240555Z 07010KT 10SM CLR M06/M09 A3023 790 74 -1500 070/10 RMK AO2
94908KDBQ DBQ20101124000009611/24/10 00:00:38  5-MIN KDBQ 240600Z 07011KT 10SM CLR M06/M09 A3023 800 74 -1500 070/11 RMK AO2
94908KDBQ DBQ20101124000509611/24/10 00:05:31  5-MIN KDBQ 240605Z 08011KT 10SM CLR M06/M09 A3023 800 74 -1500 080/11 RMK AO2
94908KDBQ DBQ20101124001009611/24/10 00:10:31  5-MIN KDBQ 240610Z 08011KT 10SM CLR M05/M09 A3023 800 71 -1400 080/11 RMK AO2
94908KDBQ DBQ20101124001509611/24/10 00:15:32  5-MIN KDBQ 240615Z 07010KT 10SM CLR M06/M09 A3023 800 74 -1500 070/10 RMK AO2
94908KDBQ DBQ20101124002009611/24/10 00:20:31  5-MIN KDBQ 240620Z 07010KT 10SM CLR M05/M09 A3023 800 71 -1400 070/10 RMK AO2
94908KDBQ DBQ20101124002509611/24/10 00:25:31  5-MIN KDBQ 240625Z 07009KT 10SM CLR M05/M09 A3023 800 71 -1400 070/09 RMK AO2
94908KDBQ DBQ20101124003009611/24/10 00:30:31  5-MIN KDBQ 240630Z 07009KT 10SM CLR M05/M09 A3023 790 71 -1400 070/09 RMK AO2
94908KDBQ DBQ20101124003509611/24/10 00:35:31  5-MIN KDBQ 240635Z 07008KT 10SM CLR M05/M09 A3023 800 71 -1400 070/08 RMK AO2
94908KDBQ DBQ20101124004009611/24/10 00:40:31  5-MIN KDBQ 240640Z 08007KT 10SM CLR M05/M09 A3023 800 71 -1400 070/07 RMK AO2
94908KDBQ DBQ20101124004509611/24/10 00:45:31  5-MIN KDBQ 240645Z 09008KT 10SM CLR M05/M09 A3023 790 71 -1400 090/08 RMK AO2
94908KDBQ DBQ20101124005011311/24/10 00:50:31  5-MIN KDBQ 240650Z 09008KT 10SM CLR M05/M09 A3023 790 71 -1400 090/08 RMK AO2 SLP253 T10501094
94908KDBQ DBQ20101124005509611/24/10 00:55:31  5-MIN KDBQ 240655Z 09008KT 10SM CLR M05/M09 A3023 790 71 -1400 090/08 RMK AO2
94908KDBQ DBQ20101124010009611/24/10 01:00:31  5-MIN KDBQ 240700Z 09008KT 10SM CLR M05/M09 A3023 790 71 -1400 090/08 RMK AO2
94908KDBQ DBQ20101124010509611/24/10 01:05:31  5-MIN KDBQ 240705Z 09008KT 10SM CLR M05/M09 A3023 790 71 -1400 090/08 RMK AO2
94908KDBQ DBQ20101124011009611/24/10 01:10:31  5-MIN KDBQ 240710Z 08008KT 10SM CLR M05/M09 A3023 800 71 -1400 080/08 RMK AO2
94908KDBQ DBQ20101124011509611/24/10 01:15:31  5-MIN KDBQ 240715Z 08008KT 10SM CLR M06/M09 A3023 800 74 -1500 080/08 RMK AO2
94908KDBQ DBQ20101124012009611/24/10 01:20:31  5-MIN KDBQ 240720Z 08006KT 10SM CLR M06/M09 A3022 800 74 -1500 080/06 RMK AO2
94908KDBQ DBQ20101124012509611/24/10 01:25:31  5-MIN KDBQ 240725Z 09006KT 10SM CLR M06/M09 A3023 800 74 -1500 090/06 RMK AO2
94908KDBQ DBQ20101124013009611/24/10 01:30:31  5-MIN KDBQ 240730Z 10007KT 10SM CLR M06/M09 A3023 800 74 -1500 100/07 RMK AO2
94908KDBQ DBQ20101124013510211/24/10 01:35:31  5-MIN KDBQ 240735Z 10009G15KT 10SM CLR M05/M09 A3023 800 71 -1400 100/09G15 RMK AO2
94908KDBQ DBQ20101124014010211/24/10 01:40:31  5-MIN KDBQ 240740Z 10008G15KT 10SM CLR M05/M09 A3023 800 71 -1400 100/08G15 RMK AO2
94908KDBQ DBQ20101124014509611/24/10 01:45:31  5-MIN KDBQ 240745Z 09008KT 10SM CLR M06/M09 A3022 800 77 -1500 090/08 RMK AO2
94908KDBQ DBQ20101124015011311/24/10 01:50:31  5-MIN KDBQ 240750Z 09008KT 10SM CLR M06/M09 A3022 800 77 -1500 090/08 RMK AO2 SLP249 T10561089
94908KDBQ DBQ20101124015509611/24/10 01:55:31  5-MIN KDBQ 240755Z 09007KT 10SM CLR M06/M09 A3022 810 77 -1400 090/07 RMK AO2
94908KDBQ DBQ20101124020009611/24/10 02:00:31  5-MIN KDBQ 240800Z 10007KT 10SM CLR M06/M09 A3022 800 77 -1400 100/07 RMK AO2
94908KDBQ DBQ20101124020509611/24/10 02:05:31  5-MIN KDBQ 240805Z 10007KT 10SM CLR M06/M09 A3022 800 77 -1500 100/07 RMK AO2
94908KDBQ DBQ20101124021009611/24/10 02:10:31  5-MIN KDBQ 240810Z 11007KT 10SM CLR M06/M09 A3022 800 77 -1500 110/07 RMK AO2
94908KDBQ DBQ20101124021509611/24/10 02:15:31  5-MIN KDBQ 240815Z 11007KT 10SM CLR M06/M09 A3022 800 77 -1500 110/07 RMK AO2
94908KDBQ DBQ20101124022009611/24/10 02:20:31  5-MIN KDBQ 240820Z 12009KT 10SM CLR M06/M09 A3022 800 77 -1500 110/09 RMK AO2
94908KDBQ DBQ20101124022509611/24/10 02:25:31  5-MIN KDBQ 240825Z 11008KT 10SM CLR M06/M09 A3022 800 77 -1500 110/08 RMK AO2
94908KDBQ DBQ20101124023009611/24/10 02:30:31  5-MIN KDBQ 240830Z 11007KT 10SM CLR M06/M09 A3021 810 77 -1400 110/07 RMK AO2
94908KDBQ DBQ20101124023509611/24/10 02:35:31  5-MIN KDBQ 240835Z 10008KT 10SM CLR M06/M09 A3021 810 77 -1400 100/08 RMK AO2
94908KDBQ DBQ20101124024009611/24/10 02:40:31  5-MIN KDBQ 240840Z 10007KT 10SM CLR M06/M09 A3021 810 77 -1400 090/07 RMK AO2
94908KDBQ DBQ20101124024509611/24/10 02:45:31  5-MIN KDBQ 240845Z 10008KT 10SM CLR M06/M09 A3021 810 77 -1400 090/08 RMK AO2
94908KDBQ DBQ20101124025011911/24/10 02:50:31  5-MIN KDBQ 240850Z 09009KT 10SM CLR M06/M09 A3020 830 77 -1400 090/09 RMK AO2 SLP240 T10561089 58010
94908KDBQ DBQ20101124025510311/24/10 02:55:31  5-MIN KDBQ 240855Z 09010KT 10SM CLR M06/M09 A3019 830 77 -1400 080/10 RMK AO2 PRESFR
94908KDBQ DBQ20101124030010311/24/10 03:00:31  5-MIN KDBQ 240900Z 08010KT 10SM CLR M06/M09 A3018 840 77 -1400 080/10 RMK AO2 PRESFR
94908KDBQ DBQ20101124030509611/24/10 03:05:31  5-MIN KDBQ 240905Z 09011KT 10SM CLR M06/M09 A3018 840 77 -1400 080/11 RMK AO2
94908KDBQ DBQ20101124031009611/24/10 03:10:31  5-MIN KDBQ 240910Z 09011KT 10SM CLR M06/M09 A3018 840 77 -1400 090/11 RMK AO2
94908KDBQ DBQ20101124031509611/24/10 03:15:31  5-MIN KDBQ 240915Z 10010KT 10SM CLR M06/M09 A3019 830 77 -1400 100/10 RMK AO2
94908KDBQ DBQ20101124032009611/24/10 03:20:31  5-MIN KDBQ 240920Z 10010KT 10SM CLR M06/M09 A3018 840 77 -1400 100/10 RMK AO2
94908KDBQ DBQ20101124032509611/24/10 03:25:31  5-MIN KDBQ 240925Z 11009KT 10SM CLR M06/M09 A3018 840 77 -1400 110/09 RMK AO2
94908KDBQ DBQ20101124033009611/24/10 03:30:31  5-MIN KDBQ 240930Z 10008KT 10SM CLR M06/M09 A3018 840 77 -1400 100/08 RMK AO2
94908KDBQ DBQ20101124033509911/24/10 03:35:31  5-MIN KDBQ 240935Z 11009KT 10SM FEW100 M06/M09 A3017 850 77 -1400 100/09 RMK AO2
94908KDBQ DBQ20101124034009911/24/10 03:40:31  5-MIN KDBQ 240940Z 10009KT 10SM SCT100 M06/M09 A3016 850 77 -1400 100/09 RMK AO2
94908KDBQ DBQ20101124034510611/24/10 03:45:31  5-MIN KDBQ 240945Z 10010KT 10SM BKN100 M05/M09 A3016 860 74 -1300 100/10 RMK AO2 PRESFR
94908KDBQ DBQ20101124035011611/24/10 03:50:31  5-MIN KDBQ 240950Z 11009KT 10SM BKN100 M05/M09 A3015 860 74 -1300 100/09 RMK AO2 SLP226 T10501089
94908KDBQ DBQ20101124035509911/24/10 03:55:31  5-MIN KDBQ 240955Z 10010KT 10SM OVC100 M05/M09 A3015 870 74 -1300 100/10 RMK AO2
94908KDBQ DBQ20101124040009911/24/10 04:00:31  5-MIN KDBQ 241000Z 10011KT 10SM OVC100 M05/M09 A3014 870 74 -1300 100/11 RMK AO2
94908KDBQ DBQ20101124040509911/24/10 04:05:31  5-MIN KDBQ 241005Z 10009KT 10SM OVC100 M05/M09 A3014 870 74 -1300 100/09 RMK AO2
94908KDBQ DBQ20101124041009911/24/10 04:10:31  5-MIN KDBQ 241010Z 10009KT 10SM OVC095 M05/M08 A3015 870 77 -1300 100/09 RMK AO2
94908KDBQ DBQ20101124041509911/24/10 04:15:31  5-MIN KDBQ 241015Z 11008KT 10SM OVC095 M05/M08 A3015 860 77 -1300 100/08 RMK AO2
94908KDBQ DBQ20101124042009911/24/10 04:20:31  5-MIN KDBQ 241020Z 11009KT 10SM OVC095 M05/M08 A3015 870 77 -1300 100/09 RMK AO2
94908KDBQ DBQ20101124042509911/24/10 04:25:31  5-MIN KDBQ 241025Z 10009KT 10SM OVC095 M05/M08 A3015 870 77 -1300 100/09 RMK AO2
94908KDBQ DBQ20101124043009911/24/10 04:30:31  5-MIN KDBQ 241030Z 10008KT 10SM OVC095 M04/M08 A3014 870 74 -1200 100/08 RMK AO2
94908KDBQ DBQ20101124043509911/24/10 04:35:31  5-MIN KDBQ 241035Z 10009KT 10SM OVC095 M04/M08 A3014 870 74 -1200 100/09 RMK AO2
94908KDBQ DBQ20101124044010511/24/10 04:40:31  5-MIN KDBQ 241040Z 10012G17KT 10SM OVC095 M04/M08 A3014 870 74 -1200 100/12G17 RMK AO2
94908KDBQ DBQ20101124044510511/24/10 04:45:31  5-MIN KDBQ 241045Z 11010G17KT 10SM OVC095 M04/M08 A3014 870 74 -1200 110/10G17 RMK AO2
94908KDBQ DBQ20101124045011611/24/10 04:50:31  5-MIN KDBQ 241050Z 11010KT 10SM OVC095 M04/M08 A3014 880 74 -1200 110/10 RMK AO2 SLP222 T10441083
94908KDBQ DBQ20101124045509911/24/10 04:55:31  5-MIN KDBQ 241055Z 11010KT 10SM OVC090 M04/M08 A3014 880 74 -1200 110/10 RMK AO2
94908KDBQ DBQ20101124050009911/24/10 05:00:31  5-MIN KDBQ 241100Z 12010KT 10SM OVC090 M04/M08 A3014 880 74 -1200 120/10 RMK AO2
94908KDBQ DBQ20101124050510511/24/10 05:05:31  5-MIN KDBQ 241105Z 11012G17KT 10SM OVC090 M04/M08 A3013 880 74 -1200 110/12G17 RMK AO2
94908KDBQ DBQ20101124051010511/24/10 05:10:31  5-MIN KDBQ 241110Z 11009G17KT 10SM OVC090 M04/M08 A3014 880 78 -1200 110/09G17 RMK AO2
94908KDBQ DBQ20101124051510511/24/10 05:15:31  5-MIN KDBQ 241115Z 11011G16KT 10SM OVC090 M04/M08 A3013 880 78 -1200 110/11G16 RMK AO2
94908KDBQ DBQ20101124052010511/24/10 05:20:31  5-MIN KDBQ 241120Z 11010G16KT 10SM OVC085 M04/M08 A3013 880 74 -1100 110/10G16 RMK AO2
94908KDBQ DBQ20101124052509911/24/10 05:25:31  5-MIN KDBQ 241125Z 11010KT 10SM OVC080 M04/M08 A3013 890 74 -1100 110/10 RMK AO2
94908KDBQ DBQ20101124053009911/24/10 05:30:31  5-MIN KDBQ 241130Z 12011KT 10SM OVC080 M04/M07 A3013 890 78 -1100 120/11 RMK AO2
94908KDBQ DBQ20101124053509911/24/10 05:35:31  5-MIN KDBQ 241135Z 12011KT 10SM OVC080 M04/M07 A3013 890 78 -1100 120/11 RMK AO2
94908KDBQ DBQ20101124054009911/24/10 05:40:31  5-MIN KDBQ 241140Z 12011KT 10SM OVC080 M04/M07 A3013 890 78 -1100 120/11 RMK AO2
94908KDBQ DBQ20101124054510511/24/10 05:45:31  5-MIN KDBQ 241145Z 12010G17KT 10SM OVC080 M04/M07 A3013 890 78 -1100 120/10G17 RMK AO2
94908KDBQ DBQ20101124055014611/24/10 05:50:31  5-MIN KDBQ 241150Z 12010G17KT 10SM OVC080 M04/M07 A3013 880 78 -1100 120/10G17 RMK AO2 SLP219 70001 T10391072 11039 21056 58014
94908KDBQ DBQ20101124055510511/24/10 05:55:31  5-MIN KDBQ 241155Z 12011G16KT 10SM OVC080 M03/M07 A3013 880 78 -1100 120/11G16 RMK AO2
94908KDBQ DBQ20101124060010511/24/10 06:00:31  5-MIN KDBQ 241200Z 13011G16KT 10SM OVC080 M03/M07 A3013 880 78 -1100 130/11G16 RMK AO2
94908KDBQ DBQ20101124060510511/24/10 06:05:31  5-MIN KDBQ 241205Z 13009G16KT 10SM OVC080 M03/M07 A3012 890 78 -1100 130/09G16 RMK AO2
94908KDBQ DBQ20101124061010511/24/10 06:10:31  5-MIN KDBQ 241210Z 13012G16KT 10SM OVC080 M03/M07 A3012 890 78 -1100 130/12G16 RMK AO2
94908KDBQ DBQ20101124061510511/24/10 06:15:31  5-MIN KDBQ 241215Z 13013G17KT 10SM OVC080 M03/M07 A3013 890 78 -1100 130/13G17 RMK AO2
94908KDBQ DBQ20101124062010511/24/10 06:20:31  5-MIN KDBQ 241220Z 13015G20KT 10SM OVC080 M03/M07 A3012 890 78 -1100 120/15G20 RMK AO2
94908KDBQ DBQ20101124062510511/24/10 06:25:31  5-MIN KDBQ 241225Z 13011G20KT 10SM OVC085 M03/M06 A3012 890 81 -1100 130/11G20 RMK AO2
94908KDBQ DBQ20101124063009911/24/10 06:30:31  5-MIN KDBQ 241230Z 13012KT 10SM OVC085 M03/M06 A3012 890 81 -1100 130/12 RMK AO2
94908KDBQ DBQ20101124063509911/24/10 06:35:31  5-MIN KDBQ 241235Z 12013KT 10SM OVC080 M03/M06 A3012 900 81 -1000 120/13 RMK AO2
94908KDBQ DBQ20101124064009911/24/10 06:40:31  5-MIN KDBQ 241240Z 13012KT 10SM OVC080 M03/M06 A3012 900 78 -1000 130/12 RMK AO2
94908KDBQ DBQ20101124064510511/24/10 06:45:31  5-MIN KDBQ 241245Z 12010G17KT 10SM OVC080 M03/M06 A3011 900 78 -1000 120/10G17 RMK AO2
94908KDBQ DBQ20101124065012211/24/10 06:50:31  5-MIN KDBQ 241250Z 12010G16KT 10SM OVC080 M03/M06 A3010 910 78 -1000 120/10G16 RMK AO2 SLP210 T10281061
94908KDBQ DBQ20101124065510511/24/10 06:55:31  5-MIN KDBQ 241255Z 12011G16KT 10SM OVC080 M03/M06 A3010 910 78 -1000 120/11G16 RMK AO2
94908KDBQ DBQ20101124070010411/24/10 07:00:31  5-MIN KDBQ 241300Z 13011G17KT 10SM BKN080 M03/M06 A3009 920 78 -900 120/11G17 RMK AO2
94908KDBQ DBQ20101124070510511/24/10 07:05:31  5-MIN KDBQ 241305Z 13011G17KT 10SM BKN080 M03/M06 A3009 920 81 -1000 130/11G17 RMK AO2
94908KDBQ DBQ20101124071010411/24/10 07:10:31  5-MIN KDBQ 241310Z 13015G23KT 10SM BKN080 M03/M06 A3008 930 81 -900 120/15G23 RMK AO2
94908KDBQ DBQ20101124071511111/24/10 07:15:31  5-MIN KDBQ 241315Z 13015G23KT 10SM BKN080 M03/M06 A3008 930 81 -900 130/15G23 RMK AO2 PRESFR
94908KDBQ DBQ20101124072010411/24/10 07:20:31  5-MIN KDBQ 241320Z 12014G22KT 10SM BKN080 M03/M06 A3007 940 81 -900 120/14G22 RMK AO2
94908KDBQ DBQ20101124072510411/24/10 07:25:31  5-MIN KDBQ 241325Z 13014G20KT 10SM BKN080 M03/M06 A3008 930 81 -900 120/14G20 RMK AO2
94908KDBQ DBQ20101124073010411/24/10 07:30:31  5-MIN KDBQ 241330Z 13014G20KT 10SM BKN080 M03/M06 A3008 930 81 -900 130/14G20 RMK AO2
94908KDBQ DBQ20101124073510411/24/10 07:35:31  5-MIN KDBQ 241335Z 14011G20KT 10SM OVC080 M03/M06 A3009 920 81 -900 130/11G20 RMK AO2
94908KDBQ DBQ20101124074009811/24/10 07:40:31  5-MIN KDBQ 241340Z 14014KT 10SM OVC080 M02/M06 A3009 930 78 -900 140/14 RMK AO2
94908KDBQ DBQ20101124074510411/24/10 07:45:31  5-MIN KDBQ 241345Z 14013G18KT 10SM OVC080 M02/M06 A3009 920 78 -900 130/13G18 RMK AO2
94908KDBQ DBQ20101124075012111/24/10 07:50:31  5-MIN KDBQ 241350Z 14011G18KT 10SM OVC080 M02/M06 A3009 920 78 -900 140/11G18 RMK AO2 SLP205 T10221056
94908KDBQ DBQ20101124075510411/24/10 07:55:31  5-MIN KDBQ 241355Z 14011G19KT 10SM OVC080 M02/M06 A3008 930 78 -900 140/11G19 RMK AO2
94908KDBQ DBQ20101124080010411/24/10 08:00:31  5-MIN KDBQ 241400Z 14014G21KT 10SM OVC080 M02/M06 A3007 940 78 -900 130/14G21 RMK AO2
94908KDBQ DBQ20101124080510411/24/10 08:05:31  5-MIN KDBQ 241405Z 13014G24KT 10SM OVC080 M02/M06 A3008 930 78 -900 130/14G24 RMK AO2
94908KDBQ DBQ20101124081010411/24/10 08:10:31  5-MIN KDBQ 241410Z 13014G24KT 10SM BKN080 M02/M06 A3007 940 78 -800 130/14G24 RMK AO2
94908KDBQ DBQ20101124081510411/24/10 08:15:31  5-MIN KDBQ 241415Z 13014G21KT 10SM BKN080 M02/M06 A3007 940 78 -900 130/14G21 RMK AO2
94908KDBQ DBQ20101124082010411/24/10 08:20:31  5-MIN KDBQ 241420Z 13016G21KT 10SM BKN080 M02/M05 A3006 950 78 -800 130/16G21 RMK AO2
94908KDBQ DBQ20101124082510411/24/10 08:25:31  5-MIN KDBQ 241425Z 13014G21KT 10SM BKN080 M02/M05 A3008 930 78 -800 130/14G21 RMK AO2
94908KDBQ DBQ20101124083010411/24/10 08:30:31  5-MIN KDBQ 241430Z 14012G20KT 10SM BKN080 M02/M05 A3008 930 78 -800 140/12G20 RMK AO2
94908KDBQ DBQ20101124083510411/24/10 08:35:31  5-MIN KDBQ 241435Z 13012G17KT 10SM BKN080 M02/M05 A3008 930 78 -800 130/12G17 RMK AO2
94908KDBQ DBQ20101124084010411/24/10 08:40:31  5-MIN KDBQ 241440Z 14011G17KT 10SM BKN080 M02/M05 A3007 940 78 -800 130/11G17 RMK AO2
94908KDBQ DBQ20101124084510411/24/10 08:45:31  5-MIN KDBQ 241445Z 14012G19KT 10SM BKN080 M02/M05 A3007 940 78 -800 140/12G19 RMK AO2
94908KDBQ DBQ20101124085012711/24/10 08:50:31  5-MIN KDBQ 241450Z 13016G24KT 10SM BKN075 M02/M05 A3007 940 78 -800 130/16G24 RMK AO2 SLP197 T10171050 56018
94908KDBQ DBQ20101124085510411/24/10 08:55:31  5-MIN KDBQ 241455Z 13017G24KT 10SM BKN075 M01/M05 A3006 950 75 -700 130/17G24 RMK AO2
94908KDBQ DBQ20101124090011111/24/10 09:00:31  5-MIN KDBQ 241500Z 13017G24KT 10SM BKN075 M01/M05 A3005 960 75 -700 130/17G24 RMK AO2 PRESFR
94908KDBQ DBQ20101124090512211/24/10 09:05:31  5-MIN KDBQ 241505Z 13018G28KT 10SM OVC075 M01/M05 A3005 960 75 -700 130/18G28 RMK AO2 PK WND 13028/1505
94908KDBQ DBQ20101124091012211/24/10 09:10:31  5-MIN KDBQ 241510Z 12015G28KT 10SM OVC070 M01/M05 A3004 970 75 -700 120/15G28 RMK AO2 PK WND 13028/1505
94908KDBQ DBQ20101124091512211/24/10 09:15:31  5-MIN KDBQ 241515Z 13016G25KT 10SM OVC075 M01/M05 A3004 960 75 -700 130/16G25 RMK AO2 PK WND 13028/1505
94908KDBQ DBQ20101124092012211/24/10 09:20:31  5-MIN KDBQ 241520Z 13016G22KT 10SM OVC075 M01/M05 A3004 970 75 -700 130/16G22 RMK AO2 PK WND 13028/1505
94908KDBQ DBQ20101124092512211/24/10 09:25:31  5-MIN KDBQ 241525Z 13014G22KT 10SM OVC075 M01/M05 A3004 970 75 -700 130/14G22 RMK AO2 PK WND 13028/1505
94908KDBQ DBQ20101124093012211/24/10 09:30:31  5-MIN KDBQ 241530Z 13016G24KT 10SM OVC075 M01/M05 A3004 970 75 -700 130/16G24 RMK AO2 PK WND 13028/1505
94908KDBQ DBQ20101124093512211/24/10 09:35:31  5-MIN KDBQ 241535Z 14018G26KT 10SM OVC075 M01/M05 A3004 970 75 -700 130/18G26 RMK AO2 PK WND 13028/1505
94908KDBQ DBQ20101124094012211/24/10 09:40:31  5-MIN KDBQ 241540Z 13017G26KT 10SM OVC070 M01/M05 A3003 980 75 -700 130/17G26 RMK AO2 PK WND 13028/1505
94908KDBQ DBQ20101124094512911/24/10 09:45:31  5-MIN KDBQ 241545Z 12017G26KT 10SM OVC070 M01/M05 A3002 990 75 -600 120/17G26 RMK AO2 PK WND 13028/1505 PRESFR
94908KDBQ DBQ20101124095014711/24/10 09:50:31  5-MIN KDBQ 241550Z 12015G25KT 10SM OVC070 M01/M05 A3001 1000 75 -600 120/15G25 RMK AO2 PK WND 13028/1505 PRESFR SLP177 T10111050
94908KDBQ DBQ20101124095512311/24/10 09:55:31  5-MIN KDBQ 241555Z 12020G26KT 10SM BKN070 M01/M05 A3001 1000 75 -600 120/20G26 RMK AO2 PK WND 13026/1555
94908KDBQ DBQ20101124100012311/24/10 10:00:31  5-MIN KDBQ 241600Z 12019G29KT 10SM BKN070 M01/M05 A3000 1000 75 -600 120/19G29 RMK AO2 PK WND 13029/1556
94908KDBQ DBQ20101124100512311/24/10 10:05:31  5-MIN KDBQ 241605Z 12013G29KT 10SM BKN070 M01/M05 A3001 1000 72 -600 120/13G29 RMK AO2 PK WND 13029/1556
94908KDBQ DBQ20101124101012311/24/10 10:10:31  5-MIN KDBQ 241610Z 12017G26KT 10SM BKN070 M01/M05 A3000 1000 72 -600 120/17G26 RMK AO2 PK WND 13029/1556
94908KDBQ DBQ20101124101512311/24/10 10:15:31  5-MIN KDBQ 241615Z 13017G26KT 10SM BKN070 M01/M05 A3000 1010 72 -600 120/17G26 RMK AO2 PK WND 13029/1556
94908KDBQ DBQ20101124102012311/24/10 10:20:31  5-MIN KDBQ 241620Z 13016G26KT 10SM BKN070 M01/M05 A3000 1010 72 -600 130/16G26 RMK AO2 PK WND 13029/1556
94908KDBQ DBQ20101124102512311/24/10 10:25:31  5-MIN KDBQ 241625Z 12019G26KT 10SM BKN070 M01/M05 A3000 1010 72 -600 120/19G26 RMK AO2 PK WND 13029/1556
94908KDBQ DBQ20101124103012311/24/10 10:30:31  5-MIN KDBQ 241630Z 12018G26KT 10SM OVC070 M01/M06 A3000 1010 69 -600 120/18G26 RMK AO2 PK WND 13029/1556
94908KDBQ DBQ20101124103512311/24/10 10:35:31  5-MIN KDBQ 241635Z 13016G28KT 10SM OVC070 M01/M06 A2999 1010 69 -600 120/16G28 RMK AO2 PK WND 13029/1556
94908KDBQ DBQ20101124104012311/24/10 10:40:31  5-MIN KDBQ 241640Z 13019G28KT 10SM OVC065 M01/M06 A2998 1020 69 -500 130/19G28 RMK AO2 PK WND 13029/1556
94908KDBQ DBQ20101124104512311/24/10 10:45:31  5-MIN KDBQ 241645Z 12015G25KT 10SM OVC060 M01/M06 A2998 1020 69 -500 120/15G25 RMK AO2 PK WND 13029/1556
94908KDBQ DBQ20101124105014011/24/10 10:50:31  5-MIN KDBQ 241650Z 12016G25KT 10SM OVC060 M01/M06 A2998 1020 69 -500 120/16G25 RMK AO2 PK WND 13029/1556 SLP167 T10061056
94908KDBQ DBQ20101124105510411/24/10 10:55:31  5-MIN KDBQ 241655Z 12018G25KT 10SM OVC060 00/M06 A2997 1030 66 -500 120/18G25 RMK AO2
94908KDBQ DBQ20101124110012211/24/10 11:00:31  5-MIN KDBQ 241700Z 11020G26KT 10SM OVC060 00/M06 A2996 1040 66 -500 110/20G26 RMK AO2 PK WND 11026/1700
94908KDBQ DBQ20101124110512211/24/10 11:05:31  5-MIN KDBQ 241705Z 12017G26KT 10SM OVC055 00/M06 A2996 1040 66 -400 120/17G26 RMK AO2 PK WND 11026/1700
94908KDBQ DBQ20101124111012211/24/10 11:10:31  5-MIN KDBQ 241710Z 12020G31KT 10SM OVC055 00/M06 A2996 1040 66 -400 120/20G31 RMK AO2 PK WND 13031/1706
94908KDBQ DBQ20101124111513611/24/10 11:15:31  5-MIN KDBQ 241715Z 13015G31KT 10SM BKN049 OVC060 00/M06 A2995 1050 66 -400 130/15G31 RMK AO2 PK WND 13031/1706 PRESFR
94908KDBQ DBQ20101124112012911/24/10 11:20:31  5-MIN KDBQ 241720Z 13018G28KT 10SM BKN049 OVC060 01/M06 A2995 1050 63 -400 130/18G28 RMK AO2 PK WND 13031/1706
94908KDBQ DBQ20101124112512911/24/10 11:25:31  5-MIN KDBQ 241725Z 12019G28KT 10SM BKN047 OVC055 01/M06 A2994 1060 63 -400 120/19G28 RMK AO2 PK WND 13031/1706
94908KDBQ DBQ20101124113012211/24/10 11:30:31  5-MIN KDBQ 241730Z 12018G28KT 10SM OVC047 00/M06 A2994 1060 66 -400 120/18G28 RMK AO2 PK WND 13031/1706
94908KDBQ DBQ20101124113512211/24/10 11:35:31  5-MIN KDBQ 241735Z 13019G28KT 10SM OVC047 00/M06 A2994 1060 66 -400 120/19G28 RMK AO2 PK WND 13031/1706
94908KDBQ DBQ20101124114012211/24/10 11:40:31  5-MIN KDBQ 241740Z 13015G27KT 10SM OVC045 00/M06 A2993 1070 66 -400 130/15G27 RMK AO2 PK WND 13031/1706
94908KDBQ DBQ20101124114512211/24/10 11:45:31  5-MIN KDBQ 241745Z 13020G30KT 10SM OVC043 00/M06 A2993 1070 66 -400 130/20G30 RMK AO2 PK WND 13031/1706
94908KDBQ DBQ20101124115015711/24/10 11:50:31  5-MIN KDBQ 241750Z 13019G30KT 10SM OVC043 00/M06 A2992 1080 66 -400 120/19G30 RMK AO2 PK WND 13031/1706 SLP147 T00001056 10006 21033 56022
94908KDBQ DBQ20101124115511111/24/10 11:55:31  5-MIN KDBQ 241755Z 12018G28KT 10SM BKN038 OVC045 00/M06 A2992 1080 66 -400 120/18G28 RMK AO2
94908KDBQ DBQ20101124120012211/24/10 12:00:31  5-MIN KDBQ 241800Z 12020G29KT 10SM OVC036 00/M06 A2991 1090 66 -400 120/20G29 RMK AO2 PK WND 13029/1800
94908KDBQ DBQ20101124120512811/24/10 12:05:31  5-MIN KDBQ 241805Z 13019G29KT 9SM OVC036 00/M05 A2990 1100 69 -400 130/19G29 RMK AO2 PK WND 13029/1800 PRESFR
94908KDBQ DBQ20101124121012911/24/10 12:10:31  5-MIN KDBQ 241810Z 12016G26KT 7SM OVC033 M01/M05 A2989 1100 72 -400 120/16G26 RMK AO2 PK WND 13029/1800 PRESFR
94908KDBQ DBQ20101124121512211/24/10 12:15:31  5-MIN KDBQ 241815Z 12014G25KT 7SM OVC033 M01/M04 A2989 1110 75 -400 120/14G25 RMK AO2 PK WND 13029/1800
94908KDBQ DBQ20101124122012211/24/10 12:20:31  5-MIN KDBQ 241820Z 13014G24KT 8SM OVC033 M01/M04 A2988 1110 75 -400 120/14G24 RMK AO2 PK WND 13029/1800
94908KDBQ DBQ20101124122512211/24/10 12:25:31  5-MIN KDBQ 241825Z 12017G24KT 9SM OVC031 M01/M04 A2988 1110 75 -400 120/17G24 RMK AO2 PK WND 13029/1800
94908KDBQ DBQ20101124123012211/24/10 12:30:31  5-MIN KDBQ 241830Z 12013G23KT 10SM OVC031 00/M04 A2988 1120 72 -400 120/13G23 RMK AO2 PK WND 13029/1800
94908KDBQ DBQ20101124123512211/24/10 12:35:31  5-MIN KDBQ 241835Z 13015G21KT 10SM OVC031 00/M04 A2988 1120 72 -300 130/15G21 RMK AO2 PK WND 13029/1800
94908KDBQ DBQ20101124124012211/24/10 12:40:31  5-MIN KDBQ 241840Z 13017G24KT 10SM OVC031 00/M05 A2988 1110 69 -400 130/17G24 RMK AO2 PK WND 13029/1800
94908KDBQ DBQ20101124124512211/24/10 12:45:31  5-MIN KDBQ 241845Z 13016G24KT 10SM OVC033 00/M04 A2987 1120 72 -300 130/16G24 RMK AO2 PK WND 13029/1800
94908KDBQ DBQ20101124125013911/24/10 12:50:31  5-MIN KDBQ 241850Z 13017G23KT 10SM OVC033 00/M04 A2987 1130 72 -300 130/17G23 RMK AO2 PK WND 13029/1800 SLP127 T00001044
94908KDBQ DBQ20101124125512211/24/10 12:55:31  5-MIN KDBQ 241855Z 12018G26KT 10SM OVC033 00/M04 A2986 1140 72 -300 120/18G26 RMK AO2 PK WND 12026/1854
94908KDBQ DBQ20101124130012211/24/10 13:00:31  5-MIN KDBQ 241900Z 12018G28KT 10SM OVC031 00/M04 A2986 1140 72 -300 120/18G28 RMK AO2 PK WND 11028/1858
94908KDBQ DBQ20101124130512911/24/10 13:05:31  5-MIN KDBQ 241905Z 12017G31KT 10SM OVC031 00/M04 A2984 1150 72 -300 120/17G31 RMK AO2 PK WND 12031/1902 PRESFR
94908KDBQ DBQ20101124131012211/24/10 13:10:31  5-MIN KDBQ 241910Z 13017G31KT 10SM OVC028 00/M04 A2984 1150 72 -300 130/17G31 RMK AO2 PK WND 12031/1902
94908KDBQ DBQ20101124131512911/24/10 13:15:31  5-MIN KDBQ 241915Z 12015G23KT 10SM OVC028 00/M04 A2983 1160 72 -300 120/15G23 RMK AO2 PK WND 12031/1902 PRESFR
94908KDBQ DBQ20101124132012211/24/10 13:20:31  5-MIN KDBQ 241920Z 12020G27KT 10SM OVC028 00/M04 A2982 1170 72 -300 120/20G27 RMK AO2 PK WND 12031/1902
94908KDBQ DBQ20101124132512911/24/10 13:25:31  5-MIN KDBQ 241925Z 12019G27KT 10SM OVC026 00/M04 A2980 1190 72 -300 110/19G27 RMK AO2 PK WND 12031/1902 PRESFR
94908KDBQ DBQ20101124133012911/24/10 13:30:31  5-MIN KDBQ 241930Z 12019G29KT 10SM OVC026 00/M04 A2979 1200 72 -300 110/19G29 RMK AO2 PK WND 12031/1902 PRESFR
94908KDBQ DBQ20101124133512211/24/10 13:35:31  5-MIN KDBQ 241935Z 12015G29KT 10SM OVC024 00/M04 A2980 1190 75 -300 120/15G29 RMK AO2 PK WND 12031/1902
94908KDBQ DBQ20101124134012211/24/10 13:40:31  5-MIN KDBQ 241940Z 12016G27KT 10SM OVC024 00/M04 A2980 1190 75 -300 120/16G27 RMK AO2 PK WND 12031/1902
94908KDBQ DBQ20101124134512911/24/10 13:45:31  5-MIN KDBQ 241945Z 12014G27KT 10SM BKN019 OVC025 00/M04 A2981 1180 75 -300 120/14G27 RMK AO2 PK WND 12031/1902
94908KDBQ DBQ20101124135015311/24/10 13:50:31  5-MIN KDBQ 241950Z 13014G24KT 10SM BKN019 OVC023 00/M04 A2984 1160 75 -300 130/14G24 RMK AO2 PK WND 12031/1902 PRESRR SLP118 T00001039
94908KDBQ DBQ20101124135511111/24/10 13:55:31  5-MIN KDBQ 241955Z 13016G24KT 9SM BKN017 OVC022 M01/M04 A2982 1170 78 -400 130/16G24 RMK AO2
94908KDBQ DBQ20101124140012111/24/10 14:00:31  5-MIN KDBQ 242000Z 11014G24KT 8SM UP OVC017 M01/M03 A2981 1180 81 -300 110/14G24 RMK AO2 UPB1957 P0000
94908KDBQ DBQ20101124140512211/24/10 14:05:31  5-MIN KDBQ 242005Z 11010G21KT 10SM UP OVC017 M01/M03 A2982 1170 81 -400 110/10G21 RMK AO2 UPB1957 P0000
94908KDBQ DBQ20101124141012211/24/10 14:10:31  5-MIN KDBQ 242010Z 12013G20KT 10SM OVC015 M01/M03 A2983 1160 81 -400 120/13G20 RMK AO2 UPB1957E07 P0000
94908KDBQ DBQ20101124141514311/24/10 14:15:31  5-MIN KDBQ 242015Z 13009G20KT 8SM VCTS UP OVC015 M01/M03 A2983 1160 81 -400 130/09G20 RMK AO2 LTG DSNT SW TSB14UPB1957 P0000
94908KDBQ DBQ20101124142014911/24/10 14:20:31  5-MIN KDBQ 242020Z 12011G17KT 6SM -TSRA OVC015 M01/M03 A2983 1160 81 -400 120/11G17 RMK AO2 LTG DSNT SW TSB14UPB1957E17RAB17 P0001
94908KDBQ DBQ20101124142515311/24/10 14:25:31  5-MIN KDBQ 242025Z 12014KT 5SM -TSRA BR OVC015 M01/M03 A2981 1180 85 -300 120/14 RMK AO2 LTG DSNT SE AND SW TSB14UPB1957E17RAB17 P0001
94908KDBQ DBQ20101124143017611/24/10 14:30:31  5-MIN KDBQ 242030Z 12013G20KT 3SM R36/5500VP6000FT -TSRA BR OVC015 M01/M02 A2981 1180 88 -300 120/13G20 RMK AO2 LTG DSNT SE AND SW TSB14UPB1957E17RAB17 P0002
94908KDBQ DBQ20101124143517111/24/10 14:35:31  5-MIN KDBQ 242035Z 14011G20KT 3SM R36/5500VP6000FT -TSRA BR OVC015 M01/M02 A2983 1160 88 -400 140/11G20 RMK AO2 LTG DSNT E-SW TSB14UPB1957E17RAB17 P0003
94908KDBQ DBQ20101124144017211/24/10 14:40:31  5-MIN KDBQ 242040Z 13011G18KT 1 3/4SM R36/3500VP6000FT -TSRA BR OVC015 M01/M02 A2983 1160 92 -400 130/11G18 RMK AO2 LTG DSNT E TSB14UPB1957E17RAB17 P0006
94908KDBQ DBQ20101124144517211/24/10 14:45:31  5-MIN KDBQ 242045Z 12013G20KT 1 1/2SM R36/3500VP6000FT -TSRA BR OVC015 M01/M02 A2979 1200 92 -300 120/13G20 RMK AO2 LTG DSNT E TSB14UPB1957E17RAB17 P0023
94908KDBQ DBQ20101124145015111/24/10 14:50:31  5-MIN KDBQ 242050Z 12014G24KT 4SM -TSRA BR OVC013 M01/M02 A2980 1190 92 -300 120/14G24 RMK AO2 LTG DSNT E TSB14UPB1957E17RAB17 P0023
94908KDBQ DBQ20101124145513711/24/10 14:55:31  5-MIN KDBQ 242055Z 13015G24KT 8SM VCTS -RA OVC013 M01/M02 A2981 1190 92 -300 130/15G24 RMK AO2 LTG DSNT NE AND E P0000
94908KDBQ DBQ20101124150013411/24/10 15:00:31  5-MIN KDBQ 242100Z 14009G22KT 8SM -RA OVC013 M01/M02 A2981 1180 92 -300 140/09G22 RMK AO2 LTG DSNT NE TSE2057 P0000
94908KDBQ DBQ20101124150513411/24/10 15:05:31  5-MIN KDBQ 242105Z 12015G20KT 8SM -RA OVC013 M01/M02 A2979 1200 92 -300 120/15G20 RMK AO2 LTG DSNT NE TSE2057 P0000
94908KDBQ DBQ20101124151013711/24/10 15:10:31  5-MIN KDBQ 242110Z 15011G23KT 6SM -RA BR OVC010 M01/M02 A2980 1190 92 -300 150/11G23 RMK AO2 LTG DSNT NE TSE2057 P0000
94908KDBQ DBQ20101124151516611/24/10 15:15:31  5-MIN KDBQ 242115Z 15011G23KT 3SM R36/5500VP6000FT -RA BR OVC010 M01/M02 A2981 1180 92 -300 150/11G23 RMK AO2 LTG DSNT NE TSE2057 CIG 008V015 P0000
94908KDBQ DBQ20101124152017011/24/10 15:20:31  5-MIN KDBQ 242120Z 13014G17KT 1 1/2SM R36/4500VP6000FT -RA BR OVC010 M01/M02 A2978 1200 92 -300 130/14G17 RMK AO2 LTG DSNT NE TSE2057 CIG 008V012 P0000
94908KDBQ DBQ20101124152516411/24/10 15:25:31  5-MIN KDBQ 242125Z 13015G22KT 1 1/4SM R36/4500V5500FT -RA BR OVC010 M01/M02 A2976 1220 92 -300 120/15G22 RMK AO2 TSE2057 CIG 007V012 PRESFR P0001
94908KDBQ DBQ20101124153018311/24/10 15:30:31  5-MIN KDBQ 242130Z 13015G26KT 1 1/4SM R36/4500VP6000FT -RA BR OVC010 M01/M02 A2975 1230 92 -300 130/15G26 RMK AO2 PK WND 12026/2128 TSE2057 CIG 007V012 PRESFR P0001
94908KDBQ DBQ20101124153517611/24/10 15:35:31  5-MIN KDBQ 242135Z 12018G26KT 1 3/4SM R36/4500VP6000FT -RA BR OVC010 M01/M02 A2975 1240 92 -300 120/18G26 RMK AO2 PK WND 12026/2128 TSE2057 CIG 007V012 P0001
94908KDBQ DBQ20101124154017611/24/10 15:40:31  5-MIN KDBQ 242140Z 12018G25KT 1 3/4SM R36/5500VP6000FT -RA BR OVC008 M01/M02 A2975 1240 92 -300 120/18G25 RMK AO2 PK WND 12026/2128 TSE2057 CIG 007V012 P0001
94908KDBQ DBQ20101124154518311/24/10 15:45:31  5-MIN KDBQ 242145Z 12015G25KT 1 1/2SM R36/5500VP6000FT -RA BR OVC008 M01/M02 A2973 1250 92 -300 120/15G25 RMK AO2 PK WND 12026/2128 TSE2057 CIG 005V012 PRESFR P0001
94908KDBQ DBQ20101124155020011/24/10 15:50:31  5-MIN KDBQ 242150Z 12015G25KT 1 1/2SM R36/6000VP6000FT -RA BR BKN008 OVC011 M01/M02 A2974 1240 92 -300 120/15G25 RMK AO2 PK WND 12026/2128 TSE2057 CIG 005V009 SLP086 P0001 T10061017
94908KDBQ DBQ20101124155514011/24/10 15:55:31  5-MIN KDBQ 242155Z 12015G23KT 2SM -RA BR OVC008 M01/M02 A2975 1240 92 -300 110/15G23 RMK AO2 LTG DSNT S CIG 005V011 P0000
94908KDBQ DBQ20101124160014011/24/10 16:00:31  5-MIN KDBQ 242200Z 11015G23KT 3SM -RA BR OVC008 M01/M02 A2974 1240 92 -300 110/15G23 RMK AO2 LTG DSNT S CIG 005V011 P0000
94908KDBQ DBQ20101124160514011/24/10 16:05:31  5-MIN KDBQ 242205Z 12015G24KT 3SM -RA BR OVC006 M01/M02 A2973 1250 92 -300 120/15G24 RMK AO2 LTG DSNT S CIG 005V011 P0000
94908KDBQ DBQ20101124161012911/24/10 16:10:31  5-MIN KDBQ 242210Z 12016G24KT 4SM -RA BR OVC006 M01/M02 A2972 1260 92 -200 120/16G24 RMK AO2 CIG 005V010 P0000
94908KDBQ DBQ20101124161511711/24/10 16:15:31  5-MIN KDBQ 242215Z 12016G24KT 4SM -RA BR OVC006 M01/M02 A2973 1250 92 -300 120/16G24 RMK AO2 P0000
94908KDBQ DBQ20101124162011711/24/10 16:20:31  5-MIN KDBQ 242220Z 12016G24KT 4SM -RA BR OVC006 M01/M02 A2972 1260 92 -200 120/16G24 RMK AO2 P0000
94908KDBQ DBQ20101124162511611/24/10 16:25:31  5-MIN KDBQ 242225Z 12016G24KT 4SM -RA BR OVC006 00/M01 A2972 1260 92 -200 120/16G24 RMK AO2 P0000
94908KDBQ DBQ20101124163011611/24/10 16:30:31  5-MIN KDBQ 242230Z 12019G25KT 3SM -RA BR OVC006 00/M01 A2972 1270 92 -200 120/19G25 RMK AO2 P0001
94908KDBQ DBQ20101124163513011/24/10 16:35:31  5-MIN KDBQ 242235Z 12014G25KT 3SM -RA BR BKN006 BKN010 OVC014 00/M01 A2971 1270 92 -200 120/14G25 RMK AO2 P0003
94908KDBQ DBQ20101124164012311/24/10 16:40:31  5-MIN KDBQ 242240Z 12016G23KT 4SM -RA BR BKN006 OVC014 00/M01 A2970 1280 92 -100 120/16G23 RMK AO2 P0004
94908KDBQ DBQ20101124164513511/24/10 16:45:31  5-MIN KDBQ 242245Z 13014G23KT 5SM -RA BR BKN008 OVC014 00/M01 A2971 1270 92 -200 130/14G23 RMK AO2 CIG 006V010 P0004
94908KDBQ DBQ20101124165015211/24/10 16:50:31  5-MIN KDBQ 242250Z 13014G23KT 5SM -RA BR BKN008 OVC014 00/M01 A2970 1280 92 -100 130/14G23 RMK AO2 CIG 005V012 SLP071 P0005 T00001011
94908KDBQ DBQ20101124165512311/24/10 16:55:31  5-MIN KDBQ 242255Z 13014G25KT 4SM -RA BR BKN006 OVC010 00/M01 A2971 1280 92 -200 130/14G25 RMK AO2 P0000
94908KDBQ DBQ20101124170013911/24/10 17:00:31  5-MIN KDBQ 242300Z 13014G25KT 3SM -RA BR BKN006 OVC014 00/M01 A2970 1280 92 -100 130/14G25 RMK AO2 CIG 005V010 P0000 PNO
94908KDBQ DBQ20101124170512911/24/10 17:05:31  5-MIN KDBQ 242305Z 14016G25KT 2 1/2SM -RA BR BKN006 OVC012 00/M01 A2970 1280 96 -100 140/16G25 RMK AO2 P0001 $
94908KDBQ DBQ20101124171014711/24/10 17:10:31  5-MIN KDBQ 242310Z 13016G29KT 2 1/2SM -RA BR BKN006 OVC014 00/M01 A2971 1280 96 -200 130/16G29 RMK AO2 PK WND 13029/2306 P0003 $
94908KDBQ DBQ20101124171514311/24/10 17:15:31  5-MIN KDBQ 242315Z 13014G29KT 4SM -RA BR BKN006 OVC014 00/M01 A2970 1280 96 -100 130/14G29 RMK AO2 PK WND 13029/2306 P0005 $
94908KDBQ DBQ20101124172014311/24/10 17:20:31  5-MIN KDBQ 242320Z 13013G25KT 4SM -RA BR BKN006 OVC010 00/M01 A2971 1270 96 -200 130/13G25 RMK AO2 PK WND 13029/2306 P0005 $
94908KDBQ DBQ20101124172514311/24/10 17:25:31  5-MIN KDBQ 242325Z 13017G23KT 4SM -RA BR BKN006 OVC010 00/M01 A2970 1280 96 -100 130/17G23 RMK AO2 PK WND 13029/2306 P0007 $
94908KDBQ DBQ20101124173014311/24/10 17:30:31  5-MIN KDBQ 242330Z 13011G23KT 5SM -RA BR BKN006 OVC010 00/M01 A2971 1280 96 -200 130/11G23 RMK AO2 PK WND 13029/2306 P0007 $
94908KDBQ DBQ20101124173514311/24/10 17:35:31  5-MIN KDBQ 242335Z 13013G19KT 6SM -RA BR BKN006 OVC010 00/M01 A2970 1280 96 -100 120/13G19 RMK AO2 PK WND 13029/2306 P0007 $
94908KDBQ DBQ20101124174013611/24/10 17:40:31  5-MIN KDBQ 242340Z 12016G22KT 5SM -RA BR OVC006 00/M01 A2969 1290 96 -100 120/16G22 RMK AO2 PK WND 13029/2306 P0007 $
94908KDBQ DBQ20101124174513611/24/10 17:45:31  5-MIN KDBQ 242345Z 12013G22KT 4SM -RA BR OVC006 00/M01 A2969 1290 96 -100 120/13G22 RMK AO2 PK WND 13029/2306 P0007 $
94908KDBQ DBQ20101124175018911/24/10 17:50:31  5-MIN KDBQ 242350Z 12013G22KT 4SM -RA BR OVC006 00/M01 A2969 1290 96 -100 120/13G22 RMK AO2 PK WND 13029/2306 CIG 005V010 SLP066 P0008 60037 T00001006 10000 21006 56039 $
94908KDBQ DBQ20101124175511811/24/10 17:55:31  5-MIN KDBQ 242355Z 12013G22KT 4SM -RA BR OVC006 00/M01 A2969 1300 96 -100 120/13G22 RMK AO2 P0000 $
94908KDBQ DBQ20101124180011811/24/10 18:00:31  5-MIN KDBQ 250000Z 11012G19KT 4SM -RA BR OVC006 00/M01 A2969 1290 96 -100 110/12G19 RMK AO2 P0001 $
94908KDBQ DBQ20101124180511811/24/10 18:05:31  5-MIN KDBQ 250005Z 12012G18KT 4SM -RA BR OVC006 00/M01 A2969 1290 96 -100 120/12G18 RMK AO2 P0001 $
94908KDBQ DBQ20101124181011811/24/10 18:10:31  5-MIN KDBQ 250010Z 12009G18KT 5SM -RA BR OVC006 01/M01 A2969 1290 92 -100 120/09G18 RMK AO2 P0001 $
94908KDBQ DBQ20101124181511811/24/10 18:15:31  5-MIN KDBQ 250015Z 11013G19KT 4SM -RA BR OVC006 01/M01 A2969 1290 92 -100 110/13G19 RMK AO2 P0001 $
94908KDBQ DBQ20101124182011811/24/10 18:20:31  5-MIN KDBQ 250020Z 12008G19KT 4SM -RA BR OVC006 01/M01 A2970 1280 92 -100 120/08G19 RMK AO2 P0002 $
94908KDBQ DBQ20101124182511811/24/10 18:25:31  5-MIN KDBQ 250025Z 13006G18KT 4SM -RA BR OVC006 01/M01 A2970 1280 92 -100 130/06G18 RMK AO2 P0002 $
94908KDBQ DBQ20101124183011711/24/10 18:30:31  5-MIN KDBQ 250030Z 12006G16KT 4SM -RA BR OVC006 01/00 A2971 1270 96 -100 120/06G16 RMK AO2 P0002 $
94908KDBQ DBQ20101124183511111/24/10 18:35:31  5-MIN KDBQ 250035Z 13006KT 4SM -RA BR OVC006 01/00 A2971 1270 96 -100 130/06 RMK AO2 P0002 $
94908KDBQ DBQ20101124184011111/24/10 18:40:31  5-MIN KDBQ 250040Z 13008KT 4SM -RA BR OVC006 01/00 A2971 1270 96 -100 130/08 RMK AO2 P0003 $
94908KDBQ DBQ20101124184511111/24/10 18:45:31  5-MIN KDBQ 250045Z 13010KT 3SM -RA BR OVC006 01/00 A2971 1270 96 -100 130/10 RMK AO2 P0004 $
94908KDBQ DBQ20101124185011511/24/10 18:50:31  5-MIN KDBQ 250050Z 13008KT 2 1/2SM -RA BR OVC006 01/00 A2971 1270 96 -100 130/08 RMK AO2 P0004 $
94908KDBQ DBQ20101124185512711/24/10 18:55:31  5-MIN KDBQ 250055Z 13009KT 2 1/2SM -RA BR OVC006 01/00 A2971 1270 96 -100 130/09 RMK AO2 CIG 004V008 P0000 $
94908KDBQ DBQ20101124190013311/24/10 19:00:31  5-MIN KDBQ 250100Z 14008G14KT 2 1/2SM -RA BR OVC006 01/00 A2971 1270 96 -100 140/08G14 RMK AO2 CIG 004V010 P0000 $
94908KDBQ DBQ20101124190512711/24/10 19:05:31  5-MIN KDBQ 250105Z 14007KT 2 1/2SM -RA BR OVC006 01/00 A2971 1270 96 -100 140/07 RMK AO2 CIG 004V010 P0001 $
94908KDBQ DBQ20101124191012711/24/10 19:10:31  5-MIN KDBQ 250110Z 14009KT 2 1/2SM -RA BR OVC006 01/00 A2971 1280 96 -100 140/09 RMK AO2 CIG 004V010 P0001 $
94908KDBQ DBQ20101124191512711/24/10 19:15:31  5-MIN KDBQ 250115Z 14008KT 2 1/2SM -RA BR OVC006 01/00 A2970 1280 96 -100 140/08 RMK AO2 CIG 003V010 P0001 $
94908KDBQ DBQ20101124192012711/24/10 19:20:31  5-MIN KDBQ 250120Z 14006KT 2 1/2SM -RA BR OVC006 01/00 A2970 1280 96 -100 140/06 RMK AO2 CIG 002V009 P0001 $
94908KDBQ DBQ20101124192512711/24/10 19:25:31  5-MIN KDBQ 250125Z 14007KT 2 1/2SM -RA BR OVC006 01/00 A2970 1290 96 -100 140/07 RMK AO2 CIG 002V009 P0001 $
94908KDBQ DBQ20101124193012311/24/10 19:30:31  5-MIN KDBQ 250130Z 15005KT 3SM -RA BR OVC006 01/00 A2970 1290 96 -100 150/05 RMK AO2 CIG 002V008 P0002 $
94908KDBQ DBQ20101124193512311/24/10 19:35:31  5-MIN KDBQ 250135Z 14005KT 3SM -RA BR OVC004 01/00 A2969 1290 96 -100 140/05 RMK AO2 CIG 002V008 P0002 $
94908KDBQ DBQ20101124194012311/24/10 19:40:31  5-MIN KDBQ 250140Z 14008KT 3SM -RA BR OVC004 01/00 A2969 1290 96 -100 140/08 RMK AO2 CIG 002V008 P0002 $
94908KDBQ DBQ20101124194512311/24/10 19:45:31  5-MIN KDBQ 250145Z 14005KT 3SM -RA BR OVC004 01/00 A2969 1290 96 -100 140/05 RMK AO2 CIG 002V008 P0002 $
94908KDBQ DBQ20101124195014011/24/10 19:50:31  5-MIN KDBQ 250150Z 14005KT 3SM -RA BR OVC004 01/00 A2968 1300 96 -100 140/05 RMK AO2 CIG 002V008 SLP063 P0002 T00060000 $
94908KDBQ DBQ20101124195512311/24/10 19:55:31  5-MIN KDBQ 250155Z 14006KT 3SM -RA BR OVC004 01/00 A2968 1300 96 -100 140/06 RMK AO2 CIG 002V007 P0000 $
94908KDBQ DBQ20101124200011611/24/10 20:00:31  5-MIN KDBQ 250200Z AUTO 14005KT 3SM -RA BR OVC004 01/00 A2968 1300 96 -100 140/05 RMK AO2 P0000 $
94908KDBQ DBQ20101124200511311/24/10 20:05:31  5-MIN KDBQ 250205Z AUTO 15006KT 3SM -RA BR OVC002 01/00 A2968 1310 96 0 140/06 RMK AO2 P0000 $
94908KDBQ DBQ20101124201011411/24/10 20:10:31  5-MIN KDBQ 250210Z AUTO 15006KT 3SM -RA BR OVC002 01/01 A2968 1310 100 0 150/06 RMK AO2 P0000 $
94908KDBQ DBQ20101124201511411/24/10 20:15:31  5-MIN KDBQ 250215Z AUTO 15006KT 3SM -RA BR OVC002 01/01 A2968 1310 100 0 150/06 RMK AO2 P0000 $
94908KDBQ DBQ20101124202011411/24/10 20:20:31  5-MIN KDBQ 250220Z AUTO 16005KT 3SM -RA BR OVC002 01/01 A2968 1300 100 0 160/05 RMK AO2 P0000 $
94908KDBQ DBQ20101124202511811/24/10 20:25:31  5-MIN KDBQ 250225Z AUTO 16005KT 2 1/2SM -RA BR OVC002 01/01 A2968 1300 100 0 160/05 RMK AO2 P0000 $
94908KDBQ DBQ20101124203011811/24/10 20:30:31  5-MIN KDBQ 250230Z AUTO 16006KT 2 1/2SM -RA BR OVC002 01/01 A2968 1300 100 0 160/06 RMK AO2 P0000 $
94908KDBQ DBQ20101124203511811/24/10 20:35:31  5-MIN KDBQ 250235Z AUTO 16007KT 2 1/2SM -RA BR OVC002 01/01 A2967 1310 100 0 160/07 RMK AO2 P0000 $
94908KDBQ DBQ20101124204011811/24/10 20:40:31  5-MIN KDBQ 250240Z AUTO 15008KT 2 1/2SM -RA BR OVC002 01/01 A2967 1310 100 0 150/08 RMK AO2 P0000 $
94908KDBQ DBQ20101124204511711/24/10 20:45:31  5-MIN KDBQ 250245Z AUTO 16007KT 2 1/2SM -RA BR OVC002 01/01 A2967 1310 96 0 160/07 RMK AO2 P0000 $
94908KDBQ DBQ20101124205014611/24/10 20:50:31  5-MIN KDBQ 250250Z AUTO 16008KT 2 1/2SM -RA BR OVC002 01/01 A2967 1310 96 0 160/08 RMK AO2 SLP059 P0000 60007 T00110006 56038 $
94908KDBQ DBQ20101124205511711/24/10 20:55:31  5-MIN KDBQ 250255Z AUTO 16008KT 2 1/2SM -RA BR OVC002 01/01 A2967 1310 96 0 160/08 RMK AO2 P0000 $
94908KDBQ DBQ20101124210011711/24/10 21:00:31  5-MIN KDBQ 250300Z AUTO 16008KT 2 1/2SM -RA BR OVC002 01/01 A2968 1310 96 0 160/08 RMK AO2 P0000 $
94908KDBQ DBQ20101124210511711/24/10 21:05:31  5-MIN KDBQ 250305Z AUTO 16008KT 2 1/2SM -RA BR OVC002 01/01 A2968 1310 96 0 160/08 RMK AO2 P0000 $
94908KDBQ DBQ20101124211011711/24/10 21:10:31  5-MIN KDBQ 250310Z AUTO 16009KT 2 1/2SM -RA BR OVC002 01/01 A2968 1310 96 0 160/09 RMK AO2 P0000 $
94908KDBQ DBQ20101124211511711/24/10 21:15:31  5-MIN KDBQ 250315Z AUTO 16009KT 2 1/2SM -RA BR OVC002 01/01 A2968 1300 96 0 160/09 RMK AO2 P0000 $
94908KDBQ DBQ20101124212011711/24/10 21:20:31  5-MIN KDBQ 250320Z AUTO 16007KT 2 1/2SM -RA BR OVC002 01/01 A2968 1310 96 0 150/07 RMK AO2 P0000 $
94908KDBQ DBQ20101124212511311/24/10 21:25:31  5-MIN KDBQ 250325Z AUTO 16006KT 2SM -RA BR OVC002 01/01 A2968 1300 96 0 160/06 RMK AO2 P0000 $
94908KDBQ DBQ20101124213011311/24/10 21:30:31  5-MIN KDBQ 250330Z AUTO 16007KT 2SM -RA BR OVC002 01/01 A2968 1310 96 0 160/07 RMK AO2 P0000 $
94908KDBQ DBQ20101124213511411/24/10 21:35:31  5-MIN KDBQ 250335Z AUTO 16007KT 2SM -RA BR OVC002 01/01 A2967 1310 100 0 160/07 RMK AO2 P0000 $
94908KDBQ DBQ20101124214011311/24/10 21:40:31  5-MIN KDBQ 250340Z AUTO 16007KT 2SM -RA BR OVC002 01/01 A2967 1310 96 0 160/07 RMK AO2 P0000 $
94908KDBQ DBQ20101124214511811/24/10 21:45:31  5-MIN KDBQ 250345Z AUTO 17008KT 1 3/4SM -RA BR OVC002 01/01 A2968 1300 100 0 170/08 RMK AO2 P0000 $
94908KDBQ DBQ20101124215013511/24/10 21:50:31  5-MIN KDBQ 250350Z AUTO 17008KT 1 3/4SM -RA BR OVC002 01/01 A2968 1310 100 0 170/08 RMK AO2 SLP060 P0000 T00110011 $
94908KDBQ DBQ20101124215513511/24/10 21:55:31  5-MIN KDBQ 250355Z AUTO 17007KT 1 3/4SM R36/6000VP6000FT -RA BR OVC002 01/01 A2968 1300 100 0 170/07 RMK AO2 P0000 $
94908KDBQ DBQ20101124220013511/24/10 22:00:31  5-MIN KDBQ 250400Z AUTO 17007KT 1 1/2SM R36/6000VP6000FT -RA BR OVC002 01/01 A2968 1300 100 0 160/07 RMK AO2 P0000 $
94908KDBQ DBQ20101124220513411/24/10 22:05:31  5-MIN KDBQ 250405Z AUTO 17007KT 1 1/2SM R36/5500V6000FT -RA BR OVC002 01/01 A2968 1300 100 0 170/07 RMK AO2 P0000 $
94908KDBQ DBQ20101124221013411/24/10 22:10:31  5-MIN KDBQ 250410Z AUTO 17007KT 1 1/2SM R36/5000V6000FT -RA BR OVC002 01/01 A2968 1300 100 0 170/07 RMK AO2 P0000 $
94908KDBQ DBQ20101124221513411/24/10 22:15:31  5-MIN KDBQ 250415Z AUTO 17006KT 1 1/4SM R36/4500V6000FT -RA BR OVC002 01/01 A2968 1300 100 0 170/06 RMK AO2 P0000 $
94908KDBQ DBQ20101124222013411/24/10 22:20:31  5-MIN KDBQ 250420Z AUTO 17006KT 1 1/4SM R36/4000V5000FT -RA BR OVC002 01/01 A2968 1300 100 0 170/06 RMK AO2 P0000 $
94908KDBQ DBQ20101124222513011/24/10 22:25:31  5-MIN KDBQ 250425Z AUTO 17007KT 1SM R36/3500V5000FT -RA BR OVC002 01/01 A2968 1300 100 0 170/07 RMK AO2 P0000 $
94908KDBQ DBQ20101124223013211/24/10 22:30:31  5-MIN KDBQ 250430Z AUTO 18006KT 3/4SM R36/2600V3500FT -RA BR OVC002 01/01 A2968 1300 100 0 170/06 RMK AO2 P0000 $
94908KDBQ DBQ20101124223513111/24/10 22:35:31  5-MIN KDBQ 250435Z AUTO 18005KT 3/4SM R36/2000V3000FT -RA BR VV001 01/01 A2968 1300 100 0 180/05 RMK AO2 P0000 $
94908KDBQ DBQ20101124224013111/24/10 22:40:31  5-MIN KDBQ 250440Z AUTO 19005KT 1/2SM R36/2000V2600FT -RA FG VV001 01/01 A2968 1300 100 0 190/05 RMK AO2 P0000 $
94908KDBQ DBQ20101124224513111/24/10 22:45:31  5-MIN KDBQ 250445Z AUTO 20003KT 1/2SM R36/1800V2200FT -RA FG VV001 01/01 A2968 1300 100 0 200/03 RMK AO2 P0000 $
94908KDBQ DBQ20101124225014811/24/10 22:50:31  5-MIN KDBQ 250450Z AUTO 21003KT 1/2SM R36/1800V2000FT -RA FG VV001 01/01 A2968 1300 100 0 210/03 RMK AO2 SLP062 P0000 T00110011 $
94908KDBQ DBQ20101124225512511/24/10 22:55:31  5-MIN KDBQ 250455Z AUTO 21004KT 1/2SM R36/1800FT -RA FG VV001 01/01 A2968 1300 96 0 210/04 RMK AO2 P0000 $
94908KDBQ DBQ20101124230013011/24/10 23:00:31  5-MIN KDBQ 250500Z AUTO 22004KT 1/2SM R36/1400V1800FT -RA FG VV001 01/01 A2969 1300 96 0 220/04 RMK AO2 P0000 $
94908KDBQ DBQ20101124230513011/24/10 23:05:31  5-MIN KDBQ 250505Z AUTO 23004KT 1/2SM R36/1400V1800FT -RA FG VV001 01/01 A2969 1290 96 0 220/04 RMK AO2 P0000 $
94908KDBQ DBQ20101124231012511/24/10 23:10:31  5-MIN KDBQ 250510Z AUTO 24003KT 1/4SM R36/1400FT -RA FG VV001 01/01 A2969 1300 96 0 240/03 RMK AO2 P0000 $
94908KDBQ DBQ20101124231512511/24/10 23:15:31  5-MIN KDBQ 250515Z AUTO 00000KT 1/4SM R36/1400FT -RA FG VV001 01/01 A2968 1300 96 0 000/00 RMK AO2 P0000 $
94908KDBQ DBQ20101124232012511/24/10 23:20:31  5-MIN KDBQ 250520Z AUTO 22003KT 1/4SM R36/1400FT -RA FG VV001 01/01 A2969 1300 96 0 220/03 RMK AO2 P0000 $
94908KDBQ DBQ20101124232513111/24/10 23:25:31  5-MIN KDBQ 250525Z AUTO 19003KT 1/4SM R36/1400V1800FT -RA FG VV001 01/01 A2969 1290 100 0 190/03 RMK AO2 P0000 $
94908KDBQ DBQ20101124233013111/24/10 23:30:31  5-MIN KDBQ 250530Z AUTO 20003KT 1/4SM R36/1600V1800FT -RA FG VV001 01/01 A2969 1290 100 0 200/03 RMK AO2 P0001 $
94908KDBQ DBQ20101124233513911/24/10 23:35:31  5-MIN KDBQ 250535Z AUTO 21004KT 1/4SM R36/1600V1800FT -RA FG BKN001 OVC006 01/01 A2969 1290 100 0 210/04 RMK AO2 P0001 $
94908KDBQ DBQ20101124234013911/24/10 23:40:31  5-MIN KDBQ 250540Z AUTO 20003KT 1/4SM R36/1400V1800FT -RA FG BKN001 OVC006 01/01 A2969 1290 100 0 200/03 RMK AO2 P0001 $
94908KDBQ DBQ20101124234513911/24/10 23:45:31  5-MIN KDBQ 250545Z AUTO 00000KT 1/2SM R36/1400V2000FT -RA FG BKN001 OVC006 01/01 A2969 1290 100 0 000/00 RMK AO2 P0001 $
94908KDBQ DBQ20101124235019011/24/10 23:50:31  5-MIN KDBQ 250550Z AUTO 00000KT 1/2SM R36/1600V2000FT -RA FG BKN001 OVC006 01/01 A2969 1290 100 0 000/00 RMK AO2 SLP065 P0001 60008 T00110011 10011 20000 400111056 53005 $
94908KDBQ DBQ20101124235513911/24/10 23:55:31  5-MIN KDBQ 250555Z AUTO 00000KT 1/2SM R36/1600V1800FT -RA FG BKN001 OVC006 01/01 A2969 1290 100 0 000/00 RMK AO2 P0000 $
94908KDBQ DBQ20101125000013911/25/10 00:00:38  5-MIN KDBQ 250600Z AUTO 00000KT 1/2SM R36/1400V1800FT -RA FG BKN001 OVC006 01/01 A2969 1300 100 0 000/00 RMK AO2 P0000 $
94908KDBQ DBQ20101125000513911/25/10 00:05:31  5-MIN KDBQ 250605Z AUTO 00000KT 1/2SM R36/1200V1600FT -RA FG BKN001 OVC006 01/01 A2969 1300 100 0 000/00 RMK AO2 P0000 $
94908KDBQ DBQ20101125001013911/25/10 00:10:31  5-MIN KDBQ 250610Z AUTO 00000KT 1/4SM R36/1200V1400FT -RA FG BKN001 OVC006 01/01 A2968 1300 100 0 000/00 RMK AO2 P0000 $
94908KDBQ DBQ20101125001513311/25/10 00:15:34  5-MIN KDBQ 250615Z AUTO 00000KT 1/4SM R36/1400FT -RA FG BKN001 OVC006 01/01 A2968 1300 96 0 000/00 RMK AO2 P0000 $
94908KDBQ DBQ20101125002013811/25/10 00:20:31  5-MIN KDBQ 250620Z AUTO 00000KT 1/4SM R36/1200V1400FT -RA FG BKN001 OVC006 01/01 A2968 1300 96 0 000/00 RMK AO2 P0000 $
94908KDBQ DBQ20101125002513911/25/10 00:25:31  5-MIN KDBQ 250625Z AUTO 00000KT 1/4SM R36/1200V1400FT -RA FG BKN001 OVC006 01/01 A2968 1300 100 0 000/00 RMK AO2 P0000 $
94908KDBQ DBQ20101125003013911/25/10 00:30:31  5-MIN KDBQ 250630Z AUTO 00000KT 1/4SM R36/1200V1400FT -RA FG BKN001 OVC006 01/01 A2968 1300 100 0 000/00 RMK AO2 P0000 $
94908KDBQ DBQ20101125003514611/25/10 00:35:31  5-MIN KDBQ 250635Z AUTO 16003KT 1/4SM R36/1200V1400FT -RA FG FEW001 BKN006 OVC011 01/01 A2968 1310 100 0 160/03 RMK AO2 P0000 $
94908KDBQ DBQ20101125004014011/25/10 00:40:31  5-MIN KDBQ 250640Z AUTO 00000KT 1/4SM R36/1400FT -RA FG FEW001 BKN006 OVC011 01/01 A2967 1310 96 0 000/00 RMK AO2 P0000 $
94908KDBQ DBQ20101125004513911/25/10 00:45:31  5-MIN KDBQ 250645Z AUTO 00000KT 1/4SM R36/1400V1800FT -RA FG FEW001 OVC009 01/01 A2967 1310 100 0 000/00 RMK AO2 P0000 $
94908KDBQ DBQ20101125005015611/25/10 00:50:31  5-MIN KDBQ 250650Z AUTO 21003KT 1/4SM R36/1200V2000FT -RA FG FEW003 OVC009 01/01 A2968 1300 100 0 200/03 RMK AO2 SLP060 P0000 T00110011 $
94908KDBQ DBQ20101125005513911/25/10 00:55:31  5-MIN KDBQ 250655Z AUTO 00000KT 1/4SM R36/1200V2000FT -RA FG BKN007 OVC011 01/01 A2968 1300 100 0 000/00 RMK AO2 P0000 $
94908KDBQ DBQ20101125010013811/25/10 01:00:31  5-MIN KDBQ 250700Z AUTO 25003KT 1/4SM R36/1000V1200FT -RA FG SCT001 OVC007 01/01 A2968 1300 96 0 250/03 RMK AO2 P0000 $
94908KDBQ DBQ20101125010514211/25/10 01:05:31  5-MIN KDBQ 250705Z AUTO 27003KT 1/4SM R36/1000V1200FT -RA FG SCT001 OVC007 01/01 A2968 1300 100 -100 270/03 RMK AO2 P0000 $
94908KDBQ DBQ20101125011014211/25/10 01:10:31  5-MIN KDBQ 250710Z AUTO 27003KT 1/4SM R36/1200V1600FT -RA FG SCT001 OVC007 01/01 A2968 1300 100 -100 270/03 RMK AO2 P0000 $
94908KDBQ DBQ20101125011513811/25/10 01:15:31  5-MIN KDBQ 250715Z AUTO 00000KT 1/4SM R36/1200V2000FT -RA FG BKN001 OVC007 01/01 A2967 1310 96 0 000/00 RMK AO2 P0000 $
94908KDBQ DBQ20101125012013811/25/10 01:20:31  5-MIN KDBQ 250720Z AUTO 00000KT 1/2SM R36/1800V3500FT -RA FG BKN001 OVC007 01/01 A2966 1320 96 0 000/00 RMK AO2 P0000 $
94908KDBQ DBQ20101125012513111/25/10 01:25:31  5-MIN KDBQ 250725Z AUTO 00000KT 1/2SM R36/2000V3500FT -RA FG OVC004 01/01 A2966 1320 96 0 000/00 RMK AO2 P0000 $
94908KDBQ DBQ20101125013013111/25/10 01:30:31  5-MIN KDBQ 250730Z AUTO 29004KT 1/2SM R36/2000V3000FT -RA FG OVC002 01/01 A2967 1310 96 0 290/04 RMK AO2 P0000 $
94908KDBQ DBQ20101125013513211/25/10 01:35:31  5-MIN KDBQ 250735Z AUTO 30005KT 3/4SM R36/2000V6000FT -RA BR OVC002 01/01 A2967 1310 100 0 300/05 RMK AO2 P0000 $
94908KDBQ DBQ20101125014014311/25/10 01:40:31  5-MIN KDBQ 250740Z AUTO 29006KT 2SM R36/2200VP6000FT -RA BR OVC004 01/01 A2968 1300 100 0 290/06 RMK AO2 CIG 001V006 P0000 $
94908KDBQ DBQ20101125014512611/25/10 01:45:31  5-MIN KDBQ 250745Z AUTO 30006KT 3SM -RA BR OVC004 01/01 A2968 1300 100 0 300/06 RMK AO2 CIG 001V006 P0000 $
94908KDBQ DBQ20101125015014311/25/10 01:50:31  5-MIN KDBQ 250750Z AUTO 30007KT 4SM -RA BR OVC004 01/01 A2968 1300 100 0 300/07 RMK AO2 CIG 002V006 SLP061 P0000 T00110011 $
94908KDBQ DBQ20101125015511411/25/10 01:55:31  5-MIN KDBQ 250755Z AUTO 29007KT 4SM -RA BR OVC004 01/01 A2969 1300 100 0 290/07 RMK AO2 P0000 $
94908KDBQ DBQ20101125020011311/25/10 02:00:31  5-MIN KDBQ 250800Z AUTO 30009KT 4SM -RA BR OVC004 01/01 A2969 1290 96 0 290/09 RMK AO2 P0000 $
94908KDBQ DBQ20101125020511311/25/10 02:05:31  5-MIN KDBQ 250805Z AUTO 30008KT 4SM -RA BR OVC004 01/01 A2969 1290 96 0 300/08 RMK AO2 P0000 $
94908KDBQ DBQ20101125021011311/25/10 02:10:31  5-MIN KDBQ 250810Z AUTO 30008KT 4SM -RA BR OVC004 01/01 A2969 1290 96 0 300/08 RMK AO2 P0000 $
94908KDBQ DBQ20101125021511311/25/10 02:15:31  5-MIN KDBQ 250815Z AUTO 30008KT 4SM -RA BR OVC004 01/01 A2970 1280 96 0 290/08 RMK AO2 P0000 $
94908KDBQ DBQ20101125022011711/25/10 02:20:31  5-MIN KDBQ 250820Z AUTO 29009KT 4SM -RA BR OVC004 01/01 A2970 1280 100 -100 290/09 RMK AO2 P0000 $
94908KDBQ DBQ20101125022511711/25/10 02:25:31  5-MIN KDBQ 250825Z AUTO 28008KT 5SM -RA BR OVC004 01/01 A2971 1270 100 -100 280/08 RMK AO2 P0000 $
94908KDBQ DBQ20101125023011711/25/10 02:30:31  5-MIN KDBQ 250830Z AUTO 29009KT 4SM -RA BR OVC004 01/01 A2971 1270 100 -100 290/09 RMK AO2 P0000 $
94908KDBQ DBQ20101125023511711/25/10 02:35:31  5-MIN KDBQ 250835Z AUTO 29008KT 4SM -RA BR OVC004 01/01 A2971 1280 100 -100 290/08 RMK AO2 P0000 $
94908KDBQ DBQ20101125024011611/25/10 02:40:31  5-MIN KDBQ 250840Z AUTO 29008KT 4SM -RA BR OVC004 01/00 A2971 1270 96 -100 290/08 RMK AO2 P0000 $
94908KDBQ DBQ20101125024511611/25/10 02:45:31  5-MIN KDBQ 250845Z AUTO 29010KT 4SM -RA BR OVC004 01/00 A2971 1270 96 -100 290/10 RMK AO2 P0000 $
94908KDBQ DBQ20101125025016411/25/10 02:50:31  5-MIN KDBQ 250850Z AUTO 30008KT 5SM -RA BR BKN004 OVC012 01/00 A2971 1270 96 -100 300/08 RMK AO2 CIG 003V008 SLP072 P0000 60000 T00060000 51003 $
94908KDBQ DBQ20101125025513511/25/10 02:55:31  5-MIN KDBQ 250855Z AUTO 29008KT 5SM -RA BR BKN004 OVC012 01/00 A2972 1260 96 -100 290/08 RMK AO2 CIG 003V008 P0000 $
94908KDBQ DBQ20101125030012311/25/10 03:00:31  5-MIN KDBQ 250900Z AUTO 31010KT 6SM -RA BR SCT004 OVC012 01/00 A2972 1270 96 -100 300/10 RMK AO2 P0000 $
94908KDBQ DBQ20101125030512011/25/10 03:05:31  5-MIN KDBQ 250905Z AUTO 32010KT 7SM -RA SCT004 OVC012 01/00 A2971 1270 96 -100 320/10 RMK AO2 P0000 $
94908KDBQ DBQ20101125031012011/25/10 03:10:31  5-MIN KDBQ 250910Z AUTO 31009KT 8SM -RA SCT006 OVC012 01/00 A2972 1270 96 -100 310/09 RMK AO2 P0000 $
94908KDBQ DBQ20101125031512511/25/10 03:15:31  5-MIN KDBQ 250915Z AUTO 31010KT 8SM -RA OVC010 01/00 A2972 1260 96 -100 310/10 RMK AO2 CIG 004V014 P0000 $
94908KDBQ DBQ20101125032013311/25/10 03:20:31  5-MIN KDBQ 250920Z AUTO 33012KT 8SM -RA BKN008 OVC012 01/M01 A2972 1260 92 -100 320/12 RMK AO2 CIG 006V010 P0000 $
94908KDBQ DBQ20101125032513311/25/10 03:25:31  5-MIN KDBQ 250925Z AUTO 33010KT 8SM -RA BKN008 OVC012 00/M01 A2972 1270 96 -200 330/10 RMK AO2 CIG 006V010 P0000 $
94908KDBQ DBQ20101125033012611/25/10 03:30:31  5-MIN KDBQ 250930Z AUTO 32010KT 8SM -RA OVC008 00/M01 A2972 1270 96 -200 320/10 RMK AO2 CIG 006V010 P0000 $
94908KDBQ DBQ20101125033511411/25/10 03:35:31  5-MIN KDBQ 250935Z AUTO 32012KT 8SM -RA OVC008 00/M01 A2972 1260 96 -200 320/12 RMK AO2 P0000 $
94908KDBQ DBQ20101125034011411/25/10 03:40:31  5-MIN KDBQ 250940Z AUTO 32011KT 8SM -RA OVC008 00/M01 A2972 1260 96 -200 320/11 RMK AO2 P0000 $
94908KDBQ DBQ20101125034511411/25/10 03:45:31  5-MIN KDBQ 250945Z AUTO 32009KT 7SM -RA OVC006 00/M01 A2972 1270 96 -200 320/09 RMK AO2 P0000 $
94908KDBQ DBQ20101125035013111/25/10 03:50:31  5-MIN KDBQ 250950Z AUTO 33010KT 7SM -RA OVC006 00/M01 A2972 1270 96 -200 330/10 RMK AO2 SLP074 P0000 T00001006 $
94908KDBQ DBQ20101125035511411/25/10 03:55:31  5-MIN KDBQ 250955Z AUTO 33010KT 7SM -RA OVC006 00/M01 A2972 1270 96 -200 320/10 RMK AO2 P0000 $
94908KDBQ DBQ20101125040012011/25/10 04:00:31  5-MIN KDBQ 251000Z AUTO 32007G16KT 7SM -RA OVC006 00/M01 A2972 1260 96 -200 320/07G16 RMK AO2 P0000 $
94908KDBQ DBQ20101125040512611/25/10 04:05:31  5-MIN KDBQ 251005Z AUTO 32007KT 7SM -RA OVC006 00/M01 A2973 1250 96 -200 320/07 RMK AO2 CIG 005V009 P0000 $
94908KDBQ DBQ20101125041013311/25/10 04:10:31  5-MIN KDBQ 251010Z AUTO 31006KT 7SM -RA OVC008 00/M01 A2974 1240 96 -200 310/06 RMK AO2 CIG 005V011 PRESRR P0000 $
94908KDBQ DBQ20101125041513311/25/10 04:15:31  5-MIN KDBQ 251015Z AUTO 30008KT 7SM -RA OVC008 00/M01 A2975 1230 96 -200 290/08 RMK AO2 CIG 005V011 PRESRR P0000 $
94908KDBQ DBQ20101125042012911/25/10 04:20:31  5-MIN KDBQ 251020Z AUTO 30006KT 6SM -RA BR OVC008 00/M01 A2975 1240 96 -200 300/06 RMK AO2 CIG 005V011 P0000 $
94908KDBQ DBQ20101125042512911/25/10 04:25:31  5-MIN KDBQ 251025Z AUTO 32006KT 5SM -RA BR OVC008 00/M01 A2973 1260 96 -200 320/06 RMK AO2 CIG 005V011 P0000 $
94908KDBQ DBQ20101125043012411/25/10 04:30:31  5-MIN KDBQ 251030Z AUTO 31006KT 5SM -RA BR BKN006 OVC010 00/M01 A2973 1260 96 -200 310/06 RMK AO2 P0000 $
94908KDBQ DBQ20101125043513611/25/10 04:35:31  5-MIN KDBQ 251035Z AUTO 29008KT 5SM -RA BR BKN006 OVC010 00/M01 A2975 1240 96 -200 290/08 RMK AO2 CIG 005V008 P0000 $
94908KDBQ DBQ20101125044011711/25/10 04:40:31  5-MIN KDBQ 251040Z AUTO 30006KT 5SM -RA BR OVC006 00/M01 A2974 1250 96 -200 300/06 RMK AO2 P0000 $
94908KDBQ DBQ20101125044511711/25/10 04:45:31  5-MIN KDBQ 251045Z AUTO 29009KT 5SM -RA BR OVC006 00/M01 A2976 1230 96 -200 290/09 RMK AO2 P0000 $
94908KDBQ DBQ20101125045014011/25/10 04:50:31  5-MIN KDBQ 251050Z AUTO 29013G20KT 6SM -RA BR OVC006 00/M01 A2976 1230 96 -200 290/13G20 RMK AO2 SLP089 P0000 T00001006 $
94908KDBQ DBQ20101125045512011/25/10 04:55:31  5-MIN KDBQ 251055Z AUTO 29011G20KT 7SM -RA OVC006 00/M01 A2976 1230 96 -200 290/11G20 RMK AO2 P0000 $
94908KDBQ DBQ20101125050011411/25/10 05:00:31  5-MIN KDBQ 251100Z AUTO 30010KT 8SM -RA OVC006 00/M01 A2976 1220 96 -200 300/10 RMK AO2 P0000 $
94908KDBQ DBQ20101125050511411/25/10 05:05:31  5-MIN KDBQ 251105Z AUTO 30011KT 8SM -RA OVC006 00/M01 A2977 1220 96 -200 290/11 RMK AO2 P0000 $
94908KDBQ DBQ20101125051012611/25/10 05:10:31  5-MIN KDBQ 251110Z AUTO 30011KT 7SM -RA OVC006 00/M01 A2976 1220 96 -200 300/11 RMK AO2 CIG 005V008 P0000 $
94908KDBQ DBQ20101125051513311/25/10 05:15:31  5-MIN KDBQ 251115Z AUTO 31011KT 7SM -RA BKN006 OVC012 00/M01 A2976 1230 96 -200 310/11 RMK AO2 CIG 005V008 P0000 $
94908KDBQ DBQ20101125052012111/25/10 05:20:31  5-MIN KDBQ 251120Z AUTO 31012KT 9SM -RA BKN006 OVC012 00/M01 A2975 1240 92 -200 310/12 RMK AO2 P0000 $
94908KDBQ DBQ20101125052513211/25/10 05:25:31  5-MIN KDBQ 251125Z AUTO 31013G22KT 9SM -RA OVC006 00/M01 A2975 1240 92 -200 310/13G22 RMK AO2 CIG 005V011 P0000 $
94908KDBQ DBQ20101125053012711/25/10 05:30:31  5-MIN KDBQ 251130Z AUTO 31014G22KT 9SM -RA BKN006 OVC011 00/M01 A2975 1240 92 -200 310/14G22 RMK AO2 P0000 $
94908KDBQ DBQ20101125053512711/25/10 05:35:31  5-MIN KDBQ 251135Z AUTO 30013KT 9SM -RA OVC006 M01/M01 A2974 1240 96 -300 300/13 RMK AO2 CIG 005V011 P0000 $
94908KDBQ DBQ20101125054013311/25/10 05:40:31  5-MIN KDBQ 251140Z AUTO 30014G20KT 8SM -RA OVC006 M01/M01 A2975 1240 96 -300 300/14G20 RMK AO2 CIG 005V011 P0000 $
94908KDBQ DBQ20101125054514011/25/10 05:45:31  5-MIN KDBQ 251145Z AUTO 30015G22KT 8SM -RA BKN006 OVC011 M01/M02 A2975 1240 92 -300 300/15G22 RMK AO2 CIG 005V010 P0000 $
94908KDBQ DBQ20101125055018211/25/10 05:50:31  5-MIN KDBQ 251150Z 30014G22KT 9SM -RA BKN006 OVC011 M01/M02 A2975 1240 92 -300 300/14G22 RMK AO2 CIG 005V010 SLP086 P0000 60000 70046 T10061017 10011 21006 53013 $
94908KDBQ DBQ20101125055512511/25/10 05:55:31  5-MIN KDBQ 251155Z 29015G20KT 9SM BKN006 OVC011 M01/M02 A2975 1230 88 -300 290/15G20 RMK AO2 CIG 005V009 $
94908KDBQ DBQ20101125060011811/25/10 06:00:31  5-MIN KDBQ 251200Z 30017G23KT 8SM OVC008 M01/M02 A2976 1220 88 -300 300/17G23 RMK AO2 CIG 005V012 $
94908KDBQ DBQ20101125060513611/25/10 06:05:31  5-MIN KDBQ 251205Z 30017G26KT 8SM OVC008 M01/M02 A2977 1220 92 -400 300/17G26 RMK AO2 PK WND 30026/1203 CIG 005V012 $
94908KDBQ DBQ20101125061013611/25/10 06:10:31  5-MIN KDBQ 251210Z 30015G26KT 8SM OVC008 M01/M03 A2977 1220 88 -400 300/15G26 RMK AO2 PK WND 30026/1203 CIG 007V012 $
94908KDBQ DBQ20101125061513111/25/10 06:15:31  5-MIN KDBQ 251215Z 30014G22KT 8SM BKN008 OVC012 M01/M03 A2977 1220 88 -400 300/14G22 RMK AO2 PK WND 30026/1203 $
94908KDBQ DBQ20101125062012411/25/10 06:20:31  5-MIN KDBQ 251220Z 31016G21KT 8SM OVC008 M01/M03 A2977 1220 88 -400 310/16G21 RMK AO2 PK WND 30026/1203 $
94908KDBQ DBQ20101125062512411/25/10 06:25:31  5-MIN KDBQ 251225Z 30018G25KT 7SM OVC008 M02/M03 A2976 1220 88 -400 300/18G25 RMK AO2 PK WND 30026/1203 $
94908KDBQ DBQ20101125063013611/25/10 06:30:31  5-MIN KDBQ 251230Z 30017G25KT 7SM OVC008 M02/M03 A2976 1220 92 -500 300/17G25 RMK AO2 PK WND 30026/1203 CIG 006V010 $
94908KDBQ DBQ20101125063513911/25/10 06:35:31  5-MIN KDBQ 251235Z 30019G28KT 6SM BR OVC008 M03/M04 A2977 1220 92 -600 300/19G28 RMK AO2 PK WND 30028/1231 CIG 006V010 $
94908KDBQ DBQ20101125064013911/25/10 06:40:31  5-MIN KDBQ 251240Z 31017G28KT 6SM BR OVC008 M03/M04 A2977 1220 92 -600 310/17G28 RMK AO2 PK WND 30028/1231 CIG 006V010 $
94908KDBQ DBQ20101125064513911/25/10 06:45:31  5-MIN KDBQ 251245Z 30020G30KT 6SM BR OVC008 M03/M04 A2976 1220 88 -600 300/20G30 RMK AO2 PK WND 30030/1244 CIG 006V010 $
94908KDBQ DBQ20101125065014411/25/10 06:50:31  5-MIN KDBQ 251250Z 30018G30KT 6SM BR OVC006 M03/M04 A2976 1220 92 -600 300/18G30 RMK AO2 PK WND 30030/1244 SLP091 T10331044 $
94908KDBQ DBQ20101125065510911/25/10 06:55:31  5-MIN KDBQ 251255Z 30016G24KT 6SM BR OVC006 M03/M04 A2977 1210 92 -700 300/16G24 RMK AO2 $
94908KDBQ DBQ20101125070012711/25/10 07:00:31  5-MIN KDBQ 251300Z 30017G26KT 6SM BR OVC006 M03/M04 A2978 1210 92 -700 300/17G26 RMK AO2 PK WND 30026/1258 $
94908KDBQ DBQ20101125070513411/25/10 07:05:31  5-MIN KDBQ 251305Z 29016G26KT 6SM BR OVC006 M03/M04 A2979 1200 92 -700 290/16G26 RMK AO2 PK WND 30026/1258 PRESRR $
94908KDBQ DBQ20101125071012711/25/10 07:10:31  5-MIN KDBQ 251310Z 30017G23KT 6SM BR OVC006 M03/M05 A2978 1210 88 -700 290/17G23 RMK AO2 PK WND 30026/1258 $
94908KDBQ DBQ20101125071512711/25/10 07:15:31  5-MIN KDBQ 251315Z 30013G23KT 6SM BR OVC006 M03/M05 A2979 1200 88 -700 300/13G23 RMK AO2 PK WND 30026/1258 $
94908KDBQ DBQ20101125072012711/25/10 07:20:31  5-MIN KDBQ 251320Z 30014G23KT 6SM BR OVC006 M04/M05 A2979 1200 92 -700 300/14G23 RMK AO2 PK WND 30026/1258 $
94908KDBQ DBQ20101125072512111/25/10 07:25:31  5-MIN KDBQ 251325Z 30015KT 6SM BR OVC006 M04/M05 A2979 1200 92 -700 300/15 RMK AO2 PK WND 30026/1258 $
94908KDBQ DBQ20101125073012111/25/10 07:30:31  5-MIN KDBQ 251330Z 32014KT 6SM BR OVC006 M04/M06 A2979 1200 88 -700 320/14 RMK AO2 PK WND 30026/1258 $
94908KDBQ DBQ20101125073513311/25/10 07:35:31  5-MIN KDBQ 251335Z 32014KT 6SM BR OVC006 M04/M06 A2979 1200 88 -700 320/14 RMK AO2 PK WND 30026/1258 CIG 006V011 $
94908KDBQ DBQ20101125074013611/25/10 07:40:31  5-MIN KDBQ 251340Z 31015G20KT 7SM BKN008 M04/M06 A2979 1200 88 -800 310/15G20 RMK AO2 PK WND 30026/1258 CIG 006V012 $
94908KDBQ DBQ20101125074513011/25/10 07:45:31  5-MIN KDBQ 251345Z 31015KT 7SM BKN008 M04/M07 A2979 1200 84 -800 310/15 RMK AO2 PK WND 30026/1258 CIG 006V012 $
94908KDBQ DBQ20101125075012511/25/10 07:50:31  5-MIN KDBQ 251350Z 32015KT 8SM SCT008 SCT011 M04/M07 A2980 1190 81 -800 310/15 RMK AO2 PK WND 30026/1258 $
94908KDBQ DBQ20101125075510011/25/10 07:55:31  5-MIN KDBQ 251355Z 31013KT 8SM SCT008 M04/M07 A2980 1190 81 -800 310/13 RMK AO2 $
94908KDBQ DBQ20101125080010011/25/10 08:00:31  5-MIN KDBQ 251400Z 31014KT 8SM FEW010 M04/M08 A2980 1190 78 -800 310/14 RMK AO2 $
94908KDBQ DBQ20101125080509711/25/10 08:05:31  5-MIN KDBQ 251405Z 32012KT 8SM CLR M04/M08 A2979 1200 78 -800 320/12 RMK AO2 $
94908KDBQ DBQ20101125081009711/25/10 08:10:31  5-MIN KDBQ 251410Z 32009KT 8SM CLR M04/M08 A2979 1190 78 -800 320/09 RMK AO2 $
94908KDBQ DBQ20101125081509711/25/10 08:15:31  5-MIN KDBQ 251415Z 32009KT 8SM CLR M04/M08 A2979 1200 78 -800 310/09 RMK AO2 $
94908KDBQ DBQ20101125082009711/25/10 08:20:31  5-MIN KDBQ 251420Z 31008KT 8SM CLR M04/M08 A2980 1190 78 -800 310/08 RMK AO2 $
94908KDBQ DBQ20101125082509711/25/10 08:25:31  5-MIN KDBQ 251425Z 31010KT 9SM CLR M04/M08 A2980 1190 74 -800 310/10 RMK AO2 $
94908KDBQ DBQ20101125083009711/25/10 08:30:31  5-MIN KDBQ 251430Z 31012KT 9SM CLR M04/M08 A2979 1200 74 -800 310/12 RMK AO2 $
94908KDBQ DBQ20101125083509711/25/10 08:35:31  5-MIN KDBQ 251435Z 32013KT 9SM CLR M04/M09 A2980 1190 71 -800 320/13 RMK AO2 $
94908KDBQ DBQ20101125084009811/25/10 08:40:31  5-MIN KDBQ 251440Z 32013KT 10SM CLR M04/M09 A2980 1190 71 -800 320/13 RMK AO2 $
94908KDBQ DBQ20101125084509811/25/10 08:45:31  5-MIN KDBQ 251445Z 31010KT 10SM CLR M04/M09 A2980 1190 71 -800 310/10 RMK AO2 $
94908KDBQ DBQ20101125085012111/25/10 08:50:31  5-MIN KDBQ 251450Z 30011KT 10SM CLR M04/M09 A2980 1190 71 -800 300/11 RMK AO2 SLP106 T10441089 50012 $
94908KDBQ DBQ20101125085509811/25/10 08:55:31  5-MIN KDBQ 251455Z 32013KT 10SM CLR M04/M09 A2981 1180 71 -800 310/13 RMK AO2 $
94908KDBQ DBQ20101125090009811/25/10 09:00:31  5-MIN KDBQ 251500Z 32012KT 10SM CLR M04/M09 A2982 1170 68 -800 320/12 RMK AO2 $
94908KDBQ DBQ20101125090509811/25/10 09:05:31  5-MIN KDBQ 251505Z 32009KT 10SM CLR M04/M09 A2981 1180 68 -800 320/09 RMK AO2 $
94908KDBQ DBQ20101125091010311/25/10 09:10:31  5-MIN KDBQ 251510Z 30014G19KT 9SM CLR M04/M08 A2983 1170 74 -900 300/14G19 RMK AO2 $
94908KDBQ DBQ20101125091510311/25/10 09:15:31  5-MIN KDBQ 251515Z 30014G19KT 9SM CLR M04/M08 A2983 1170 74 -900 300/14G19 RMK AO2 $
94908KDBQ DBQ20101125092010311/25/10 09:20:31  5-MIN KDBQ 251520Z 31014G20KT 9SM CLR M04/M08 A2983 1160 74 -900 310/14G20 RMK AO2 $
94908KDBQ DBQ20101125092510411/25/10 09:25:31  5-MIN KDBQ 251525Z 32012G20KT 10SM CLR M05/M09 A2983 1160 71 -900 320/12G20 RMK AO2 $
94908KDBQ DBQ20101125093009811/25/10 09:30:31  5-MIN KDBQ 251530Z 31011KT 10SM CLR M05/M09 A2983 1160 71 -900 310/11 RMK AO2 $
94908KDBQ DBQ20101125093510411/25/10 09:35:31  5-MIN KDBQ 251535Z 31013G19KT 10SM CLR M05/M10 A2983 1160 68 -900 310/13G19 RMK AO2 $
94908KDBQ DBQ20101125094009811/25/10 09:40:31  5-MIN KDBQ 251540Z 30011KT 10SM CLR M05/M10 A2984 1160 68 -900 300/11 RMK AO2 $
94908KDBQ DBQ20101125094509811/25/10 09:45:31  5-MIN KDBQ 251545Z 30012KT 10SM CLR M05/M09 A2984 1160 71 -900 300/12 RMK AO2 $
94908KDBQ DBQ20101125095011511/25/10 09:50:31  5-MIN KDBQ 251550Z 30012KT 10SM CLR M05/M11 A2984 1160 65 -900 300/12 RMK AO2 SLP116 T10501106 $
94908KDBQ DBQ20101125095510411/25/10 09:55:31  5-MIN KDBQ 251555Z 31013G21KT 10SM CLR M05/M10 A2983 1160 68 -900 310/13G21 RMK AO2 $
94908KDBQ DBQ20101125100010411/25/10 10:00:31  5-MIN KDBQ 251600Z 32014G21KT 10SM CLR M05/M10 A2984 1160 68 -900 320/14G21 RMK AO2 $
94908KDBQ DBQ20101125100509811/25/10 10:05:31  5-MIN KDBQ 251605Z 32013KT 10SM CLR M05/M10 A2984 1150 68 -900 320/13 RMK AO2 $
94908KDBQ DBQ20101125101010411/25/10 10:10:31  5-MIN KDBQ 251610Z 32012G19KT 10SM CLR M05/M10 A2984 1150 68 -900 320/12G19 RMK AO2 $
94908KDBQ DBQ20101125101509811/25/10 10:15:31  5-MIN KDBQ 251615Z 32010KT 10SM CLR M05/M10 A2984 1150 68 -900 320/10 RMK AO2 $
94908KDBQ DBQ20101125102009911/25/10 10:20:31  5-MIN KDBQ 251620Z 31012KT 10SM CLR M06/M09 A2984 1150 74 -1000 310/12 RMK AO2 $
94908KDBQ DBQ20101125102510511/25/10 10:25:31  5-MIN KDBQ 251625Z 31016G21KT 10SM CLR M06/M11 A2984 1150 68 -1000 310/16G21 RMK AO2 $
94908KDBQ DBQ20101125103010511/25/10 10:30:31  5-MIN KDBQ 251630Z 32013G21KT 10SM CLR M06/M11 A2985 1150 65 -1000 320/13G21 RMK AO2 $
94908KDBQ DBQ20101125103509911/25/10 10:35:31  5-MIN KDBQ 251635Z 32014KT 10SM CLR M06/M12 A2984 1150 62 -1000 320/14 RMK AO2 $
94908KDBQ DBQ20101125104009911/25/10 10:40:31  5-MIN KDBQ 251640Z 32012KT 10SM CLR M06/M11 A2985 1150 65 -1000 320/12 RMK AO2 $
94908KDBQ DBQ20101125104509911/25/10 10:45:31  5-MIN KDBQ 251645Z 32013KT 10SM CLR M06/M12 A2984 1150 62 -1000 320/13 RMK AO2 $
94908KDBQ DBQ20101125105011511/25/10 10:50:31  5-MIN KDBQ 251650Z 33014KT 10SM CLR M05/M11 A2984 1150 62 -900 320/14 RMK AO2 SLP119 T10501111 $
94908KDBQ DBQ20101125105509811/25/10 10:55:31  5-MIN KDBQ 251655Z 32014KT 10SM CLR M05/M11 A2984 1150 62 -900 320/14 RMK AO2 $
94908KDBQ DBQ20101125110009811/25/10 11:00:31  5-MIN KDBQ 251700Z 32013KT 10SM CLR M05/M11 A2984 1150 62 -900 320/13 RMK AO2 $
94908KDBQ DBQ20101125110509911/25/10 11:05:31  5-MIN KDBQ 251705Z 31015KT 10SM CLR M06/M12 A2984 1150 62 -1000 310/15 RMK AO2 $
94908KDBQ DBQ20101125111009911/25/10 11:10:31  5-MIN KDBQ 251710Z 32015KT 10SM CLR M06/M12 A2983 1160 62 -1000 320/15 RMK AO2 $
94908KDBQ DBQ20101125111509911/25/10 11:15:31  5-MIN KDBQ 251715Z 33014KT 10SM CLR M06/M12 A2983 1160 62 -1000 330/14 RMK AO2 $
94908KDBQ DBQ20101125112010511/25/10 11:20:31  5-MIN KDBQ 251720Z 31013G20KT 10SM CLR M06/M12 A2983 1160 59 -1000 310/13G20 RMK AO2 $
94908KDBQ DBQ20101125112510411/25/10 11:25:31  5-MIN KDBQ 251725Z 32012G20KT 10SM CLR M05/M12 A2983 1160 60 -900 320/12G20 RMK AO2 $
94908KDBQ DBQ20101125113010411/25/10 11:30:31  5-MIN KDBQ 251730Z 32017G22KT 10SM CLR M05/M12 A2983 1160 57 -900 320/17G22 RMK AO2 $
94908KDBQ DBQ20101125113510411/25/10 11:35:31  5-MIN KDBQ 251735Z 33012G22KT 10SM CLR M04/M12 A2983 1160 57 -900 320/12G22 RMK AO2 $
94908KDBQ DBQ20101125114010411/25/10 11:40:31  5-MIN KDBQ 251740Z 32015G21KT 10SM CLR M04/M12 A2983 1160 57 -900 320/15G21 RMK AO2 $
94908KDBQ DBQ20101125114510411/25/10 11:45:31  5-MIN KDBQ 251745Z 32016G21KT 10SM CLR M04/M12 A2983 1160 57 -900 320/16G21 RMK AO2 $
94908KDBQ DBQ20101125115013911/25/10 11:50:31  5-MIN KDBQ 251750Z 32013G20KT 10SM CLR M04/M12 A2983 1170 55 -900 320/13G20 RMK AO2 SLP113 T10441122 11006 21056 51018 $
94908KDBQ DBQ20101125115509811/25/10 11:55:31  5-MIN KDBQ 251755Z 33012KT 10SM CLR M04/M12 A2982 1170 55 -800 330/12 RMK AO2 $
94908KDBQ DBQ20101125120009811/25/10 12:00:31  5-MIN KDBQ 251800Z 32012KT 10SM CLR M04/M12 A2982 1170 55 -800 320/12 RMK AO2 $
94908KDBQ DBQ20101125120509811/25/10 12:05:31  5-MIN KDBQ 251805Z 31016KT 10SM CLR M04/M12 A2982 1170 57 -800 310/16 RMK AO2 $
94908KDBQ DBQ20101125121009811/25/10 12:10:31  5-MIN KDBQ 251810Z 32017KT 10SM CLR M04/M13 A2983 1170 50 -900 310/17 RMK AO2 $
94908KDBQ DBQ20101125121510411/25/10 12:15:31  5-MIN KDBQ 251815Z 33012G21KT 10SM CLR M04/M13 A2982 1170 52 -800 330/12G21 RMK AO2 $
94908KDBQ DBQ20101125122010411/25/10 12:20:31  5-MIN KDBQ 251820Z 32013G19KT 10SM CLR M04/M12 A2982 1170 55 -800 320/13G19 RMK AO2 $
94908KDBQ DBQ20101125122510411/25/10 12:25:31  5-MIN KDBQ 251825Z 33011G19KT 10SM CLR M04/M12 A2981 1180 55 -800 330/11G19 RMK AO2 $
94908KDBQ DBQ20101125123009811/25/10 12:30:31  5-MIN KDBQ 251830Z 32011KT 10SM CLR M04/M12 A2982 1170 52 -800 320/11 RMK AO2 $
94908KDBQ DBQ20101125123510411/25/10 12:35:31  5-MIN KDBQ 251835Z 33011G18KT 10SM CLR M04/M12 A2982 1170 55 -800 330/11G18 RMK AO2 $
94908KDBQ DBQ20101125124010111/25/10 12:40:31  5-MIN KDBQ 251840Z 33010KT 10SM FEW100 M04/M12 A2983 1170 55 -900 330/10 RMK AO2 $
94908KDBQ DBQ20101125124510111/25/10 12:45:31  5-MIN KDBQ 251845Z 34011KT 10SM SCT100 M05/M12 A2982 1170 57 -900 340/11 RMK AO2 $
94908KDBQ DBQ20101125125011811/25/10 12:50:31  5-MIN KDBQ 251850Z 33008KT 10SM FEW100 M05/M12 A2983 1160 57 -900 330/08 RMK AO2 SLP114 T10501122 $
94908KDBQ DBQ20101125125510111/25/10 12:55:31  5-MIN KDBQ 251855Z 32008KT 10SM FEW100 M04/M12 A2983 1160 57 -900 320/08 RMK AO2 $
94908KDBQ DBQ20101125130010111/25/10 13:00:31  5-MIN KDBQ 251900Z 32008KT 10SM FEW100 M04/M12 A2983 1160 55 -900 320/08 RMK AO2 $
94908KDBQ DBQ20101125130510111/25/10 13:05:31  5-MIN KDBQ 251905Z 33008KT 10SM FEW100 M04/M12 A2983 1160 57 -900 320/08 RMK AO2 $
94908KDBQ DBQ20101125131010111/25/10 13:10:31  5-MIN KDBQ 251910Z 33009KT 10SM FEW100 M04/M12 A2983 1170 57 -900 330/09 RMK AO2 $
94908KDBQ DBQ20101125131509811/25/10 13:15:31  5-MIN KDBQ 251915Z 32009KT 10SM CLR M04/M12 A2982 1180 57 -800 320/09 RMK AO2 $
94908KDBQ DBQ20101125132009811/25/10 13:20:31  5-MIN KDBQ 251920Z 30011KT 10SM CLR M04/M12 A2981 1180 57 -800 300/11 RMK AO2 $
94908KDBQ DBQ20101125132509811/25/10 13:25:31  5-MIN KDBQ 251925Z 31009KT 10SM CLR M04/M12 A2981 1180 57 -800 310/09 RMK AO2 $
94908KDBQ DBQ20101125133009811/25/10 13:30:31  5-MIN KDBQ 251930Z 31010KT 10SM CLR M04/M12 A2981 1180 57 -800 310/10 RMK AO2 $
94908KDBQ DBQ20101125133509811/25/10 13:35:31  5-MIN KDBQ 251935Z 31010KT 10SM CLR M04/M12 A2980 1190 57 -800 310/10 RMK AO2 $
94908KDBQ DBQ20101125134009811/25/10 13:40:31  5-MIN KDBQ 251940Z 31011KT 10SM CLR M04/M11 A2980 1190 60 -800 310/11 RMK AO2 $
94908KDBQ DBQ20101125134509811/25/10 13:45:31  5-MIN KDBQ 251945Z 30010KT 10SM CLR M04/M11 A2980 1190 60 -800 300/10 RMK AO2 $
94908KDBQ DBQ20101125135011511/25/10 13:50:31  5-MIN KDBQ 251950Z 30010KT 10SM CLR M04/M11 A2980 1190 60 -800 300/10 RMK AO2 SLP104 T10441111 $
94908KDBQ DBQ20101125135509811/25/10 13:55:31  5-MIN KDBQ 251955Z 30011KT 10SM CLR M04/M11 A2980 1190 60 -800 300/11 RMK AO2 $
94908KDBQ DBQ20101125140009811/25/10 14:00:31  5-MIN KDBQ 252000Z 31011KT 10SM CLR M04/M11 A2981 1190 60 -800 310/11 RMK AO2 $
94908KDBQ DBQ20101125140510411/25/10 14:05:31  5-MIN KDBQ 252005Z 29013G18KT 10SM CLR M04/M12 A2981 1180 57 -800 290/13G18 RMK AO2 $
94908KDBQ DBQ20101125141010411/25/10 14:10:31  5-MIN KDBQ 252010Z 29011G18KT 10SM CLR M04/M12 A2980 1190 57 -800 290/11G18 RMK AO2 $
94908KDBQ DBQ20101125141510411/25/10 14:15:31  5-MIN KDBQ 252015Z 29012G19KT 10SM CLR M04/M12 A2981 1180 55 -800 290/12G19 RMK AO2 $
94908KDBQ DBQ20101125142010411/25/10 14:20:31  5-MIN KDBQ 252020Z 29012G19KT 10SM CLR M04/M12 A2981 1180 57 -800 290/12G19 RMK AO2 $
94908KDBQ DBQ20101125142510411/25/10 14:25:31  5-MIN KDBQ 252025Z 29014G19KT 10SM CLR M04/M12 A2981 1180 55 -800 290/14G19 RMK AO2 $
94908KDBQ DBQ20101125143010411/25/10 14:30:31  5-MIN KDBQ 252030Z 28015G19KT 10SM CLR M04/M12 A2981 1180 55 -800 270/15G19 RMK AO2 $
94908KDBQ DBQ20101125143510411/25/10 14:35:31  5-MIN KDBQ 252035Z 29013G20KT 10SM CLR M04/M12 A2981 1180 55 -800 290/13G20 RMK AO2 $
94908KDBQ DBQ20101125144010411/25/10 14:40:31  5-MIN KDBQ 252040Z 30011G20KT 10SM CLR M04/M11 A2981 1180 57 -800 300/11G20 RMK AO2 $
94908KDBQ DBQ20101125144510411/25/10 14:45:31  5-MIN KDBQ 252045Z 28016G20KT 10SM CLR M04/M11 A2981 1180 57 -800 280/16G20 RMK AO2 $
94908KDBQ DBQ20101125145012111/25/10 14:50:31  5-MIN KDBQ 252050Z 29018KT 10SM CLR M04/M12 A2982 1180 55 -800 290/18 RMK AO2 SLP110 T10391117 50005 $
94908KDBQ DBQ20101125145510411/25/10 14:55:31  5-MIN KDBQ 252055Z 29018G22KT 10SM CLR M04/M12 A2982 1180 57 -800 290/18G22 RMK AO2 $
94908KDBQ DBQ20101125150010411/25/10 15:00:31  5-MIN KDBQ 252100Z 30017G24KT 10SM CLR M04/M12 A2982 1170 55 -800 290/17G24 RMK AO2 $
94908KDBQ DBQ20101125150510411/25/10 15:05:31  5-MIN KDBQ 252105Z 29015G24KT 10SM CLR M04/M12 A2982 1170 55 -800 290/15G24 RMK AO2 $
94908KDBQ DBQ20101125151010411/25/10 15:10:31  5-MIN KDBQ 252110Z 28016G21KT 10SM CLR M04/M12 A2982 1170 57 -900 280/16G21 RMK AO2 $
94908KDBQ DBQ20101125151509811/25/10 15:15:31  5-MIN KDBQ 252115Z 27015KT 10SM CLR M04/M11 A2983 1160 60 -900 270/15 RMK AO2 $
94908KDBQ DBQ20101125152010411/25/10 15:20:31  5-MIN KDBQ 252120Z 28015G23KT 10SM CLR M04/M12 A2983 1160 57 -900 270/15G23 RMK AO2 $
94908KDBQ DBQ20101125152510411/25/10 15:25:31  5-MIN KDBQ 252125Z 29015G23KT 10SM CLR M05/M12 A2983 1160 57 -900 290/15G23 RMK AO2 $
94908KDBQ DBQ20101125153010411/25/10 15:30:31  5-MIN KDBQ 252130Z 29016G23KT 10SM CLR M05/M13 A2983 1160 55 -900 290/16G23 RMK AO2 $
94908KDBQ DBQ20101125153510411/25/10 15:35:31  5-MIN KDBQ 252135Z 29014G23KT 10SM CLR M05/M12 A2984 1160 57 -900 290/14G23 RMK AO2 $
94908KDBQ DBQ20101125154010411/25/10 15:40:31  5-MIN KDBQ 252140Z 29017G23KT 10SM CLR M05/M12 A2984 1160 57 -900 290/17G23 RMK AO2 $
94908KDBQ DBQ20101125154510411/25/10 15:45:31  5-MIN KDBQ 252145Z 29015G24KT 10SM CLR M05/M13 A2984 1160 55 -900 290/15G24 RMK AO2 $
94908KDBQ DBQ20101125155012111/25/10 15:50:31  5-MIN KDBQ 252150Z 28018G25KT 10SM CLR M05/M13 A2984 1160 55 -900 280/18G25 RMK AO2 SLP116 T10501128 $
94908KDBQ DBQ20101125155510511/25/10 15:55:31  5-MIN KDBQ 252155Z 29015G25KT 10SM CLR M06/M13 A2984 1150 54 -1000 290/15G25 RMK AO2 $
94908KDBQ DBQ20101125160010511/25/10 16:00:31  5-MIN KDBQ 252200Z 29017G24KT 10SM CLR M06/M13 A2984 1150 57 -1000 280/17G24 RMK AO2 $
94908KDBQ DBQ20101125160510511/25/10 16:05:31  5-MIN KDBQ 252205Z 29017G24KT 10SM CLR M06/M13 A2984 1160 57 -1000 280/17G24 RMK AO2 $
94908KDBQ DBQ20101125161010511/25/10 16:10:31  5-MIN KDBQ 252210Z 29015G24KT 10SM CLR M06/M13 A2984 1160 57 -1000 290/15G24 RMK AO2 $
94908KDBQ DBQ20101125161510511/25/10 16:15:31  5-MIN KDBQ 252215Z 29017G23KT 10SM CLR M06/M13 A2984 1160 57 -1000 290/17G23 RMK AO2 $
94908KDBQ DBQ20101125162010511/25/10 16:20:31  5-MIN KDBQ 252220Z 29019G24KT 10SM CLR M06/M13 A2984 1160 57 -1100 290/19G24 RMK AO2 $
94908KDBQ DBQ20101125162510511/25/10 16:25:31  5-MIN KDBQ 252225Z 29013G24KT 10SM CLR M06/M13 A2984 1150 59 -1100 290/13G24 RMK AO2 $
94908KDBQ DBQ20101125163010511/25/10 16:30:31  5-MIN KDBQ 252230Z 28015G21KT 10SM CLR M06/M13 A2984 1150 59 -1100 280/15G21 RMK AO2 $
94908KDBQ DBQ20101125163510511/25/10 16:35:31  5-MIN KDBQ 252235Z 29015G24KT 10SM CLR M06/M13 A2984 1150 57 -1100 290/15G24 RMK AO2 $
94908KDBQ DBQ20101125164012311/25/10 16:40:31  5-MIN KDBQ 252240Z 28016G26KT 10SM CLR M06/M13 A2985 1150 57 -1100 280/16G26 RMK AO2 PK WND 30026/2238 $
94908KDBQ DBQ20101125164512311/25/10 16:45:31  5-MIN KDBQ 252245Z 28018G26KT 10SM CLR M06/M13 A2985 1140 59 -1100 280/18G26 RMK AO2 PK WND 30026/2238 $
94908KDBQ DBQ20101125165014011/25/10 16:50:31  5-MIN KDBQ 252250Z 28017G23KT 10SM CLR M06/M13 A2985 1150 57 -1100 280/17G23 RMK AO2 PK WND 30026/2238 SLP122 T10611133 $
94908KDBQ DBQ20101125165509911/25/10 16:55:31  5-MIN KDBQ 252255Z 29016KT 10SM CLR M06/M13 A2985 1140 57 -1100 290/16 RMK AO2 $
94908KDBQ DBQ20101125170010511/25/10 17:00:31  5-MIN KDBQ 252300Z 28019G25KT 10SM CLR M06/M13 A2985 1140 57 -1100 280/19G25 RMK AO2 $
94908KDBQ DBQ20101125170510511/25/10 17:05:31  5-MIN KDBQ 252305Z 29018G25KT 10SM CLR M07/M13 A2986 1130 59 -1200 280/18G25 RMK AO2 $
94908KDBQ DBQ20101125171010511/25/10 17:10:31  5-MIN KDBQ 252310Z 29018G25KT 10SM CLR M07/M14 A2986 1130 57 -1200 290/18G25 RMK AO2 $
94908KDBQ DBQ20101125171510511/25/10 17:15:31  5-MIN KDBQ 252315Z 28018G25KT 10SM CLR M07/M14 A2986 1130 57 -1200 280/18G25 RMK AO2 $
94908KDBQ DBQ20101125172010511/25/10 17:20:31  5-MIN KDBQ 252320Z 28016G25KT 10SM CLR M07/M14 A2987 1130 57 -1200 280/16G25 RMK AO2 $
94908KDBQ DBQ20101125172510511/25/10 17:25:31  5-MIN KDBQ 252325Z 28014G25KT 10SM CLR M07/M13 A2987 1130 59 -1200 280/14G25 RMK AO2 $
94908KDBQ DBQ20101125173009911/25/10 17:30:31  5-MIN KDBQ 252330Z 28013KT 10SM CLR M07/M13 A2987 1130 59 -1200 280/13 RMK AO2 $
94908KDBQ DBQ20101125173509911/25/10 17:35:31  5-MIN KDBQ 252335Z 28014KT 10SM CLR M07/M13 A2988 1120 62 -1200 270/14 RMK AO2 $
94908KDBQ DBQ20101125174009911/25/10 17:40:31  5-MIN KDBQ 252340Z 28013KT 10SM CLR M07/M13 A2988 1120 62 -1200 280/13 RMK AO2 $
94908KDBQ DBQ20101125174510511/25/10 17:45:31  5-MIN KDBQ 252345Z 27013G18KT 10SM CLR M07/M13 A2988 1120 62 -1200 270/13G18 RMK AO2 $
94908KDBQ DBQ20101125175014011/25/10 17:50:31  5-MIN KDBQ 252350Z 27012G19KT 10SM CLR M07/M13 A2988 1110 62 -1200 270/12G19 RMK AO2 SLP133 T10671128 11039 21067 55003 $
94908KDBQ DBQ20101125175510511/25/10 17:55:31  5-MIN KDBQ 252355Z 28013G19KT 10SM CLR M07/M13 A2988 1110 62 -1200 280/13G19 RMK AO2 $
94908KDBQ DBQ20101125180009911/25/10 18:00:31  5-MIN KDBQ 260000Z 27013KT 10SM CLR M07/M13 A2988 1120 62 -1200 260/13 RMK AO2 $
94908KDBQ DBQ20101125180509911/25/10 18:05:31  5-MIN KDBQ 260005Z 28013KT 10SM CLR M07/M13 A2988 1120 62 -1200 280/13 RMK AO2 $
94908KDBQ DBQ20101125181009911/25/10 18:10:31  5-MIN KDBQ 260010Z 28012KT 10SM CLR M07/M13 A2988 1120 62 -1200 280/12 RMK AO2 $
94908KDBQ DBQ20101125181510511/25/10 18:15:31  5-MIN KDBQ 260015Z 28014G18KT 10SM CLR M07/M13 A2988 1120 62 -1200 280/14G18 RMK AO2 $
94908KDBQ DBQ20101125182010511/25/10 18:20:31  5-MIN KDBQ 260020Z 27014G18KT 10SM CLR M07/M13 A2987 1120 65 -1300 270/14G18 RMK AO2 $
94908KDBQ DBQ20101125182509911/25/10 18:25:31  5-MIN KDBQ 260025Z 28013KT 10SM CLR M07/M13 A2987 1130 65 -1300 280/13 RMK AO2 $
94908KDBQ DBQ20101125183009911/25/10 18:30:31  5-MIN KDBQ 260030Z 28013KT 10SM CLR M07/M13 A2987 1130 65 -1300 270/13 RMK AO2 $
94908KDBQ DBQ20101125183509911/25/10 18:35:31  5-MIN KDBQ 260035Z 28012KT 10SM CLR M07/M13 A2986 1130 62 -1200 280/12 RMK AO2 $
94908KDBQ DBQ20101125184009911/25/10 18:40:31  5-MIN KDBQ 260040Z 27013KT 10SM CLR M07/M13 A2986 1140 65 -1200 270/13 RMK AO2 $
94908KDBQ DBQ20101125184510511/25/10 18:45:31  5-MIN KDBQ 260045Z 27014G19KT 10SM CLR M07/M13 A2986 1130 65 -1300 260/14G19 RMK AO2 $
94908KDBQ DBQ20101125185012211/25/10 18:50:31  5-MIN KDBQ 260050Z 27013G19KT 10SM CLR M07/M13 A2986 1130 65 -1300 270/13G19 RMK AO2 SLP128 T10721128 $
94908KDBQ DBQ20101125185509911/25/10 18:55:31  5-MIN KDBQ 260055Z 28012KT 10SM CLR M07/M12 A2986 1130 68 -1300 280/12 RMK AO2 $
94908KDBQ DBQ20101125190009911/25/10 19:00:31  5-MIN KDBQ 260100Z 27012KT 10SM CLR M07/M12 A2986 1130 68 -1300 270/12 RMK AO2 $
94908KDBQ DBQ20101125190510511/25/10 19:05:31  5-MIN KDBQ 260105Z 27015G21KT 10SM CLR M07/M12 A2986 1140 68 -1200 270/15G21 RMK AO2 $
94908KDBQ DBQ20101125191010511/25/10 19:10:31  5-MIN KDBQ 260110Z 28012G21KT 10SM CLR M07/M12 A2986 1140 68 -1200 280/12G21 RMK AO2 $
94908KDBQ DBQ20101125191509911/25/10 19:15:31  5-MIN KDBQ 260115Z 27013KT 10SM CLR M07/M12 A2986 1130 68 -1300 270/13 RMK AO2 $
94908KDBQ DBQ20101125192010511/25/10 19:20:31  5-MIN KDBQ 260120Z 27014G18KT 10SM CLR M07/M12 A2987 1130 68 -1300 260/14G18 RMK AO2 $
94908KDBQ DBQ20101125192509911/25/10 19:25:31  5-MIN KDBQ 260125Z 27013KT 10SM CLR M07/M13 A2987 1130 62 -1200 270/13 RMK AO2 $
94908KDBQ DBQ20101125193009911/25/10 19:30:31  5-MIN KDBQ 260130Z 27014KT 10SM CLR M07/M13 A2986 1130 65 -1300 270/14 RMK AO2 $
94908KDBQ DBQ20101125193512311/25/10 19:35:31  5-MIN KDBQ 260135Z 27015G27KT 10SM CLR M07/M12 A2986 1130 65 -1200 270/15G27 RMK AO2 PK WND 28027/0133 $
94908KDBQ DBQ20101125194012611/25/10 19:40:31  5-MIN KDBQ 260140Z 28016G27KT 10SM FEW036 M07/M12 A2987 1130 65 -1200 280/16G27 RMK AO2 PK WND 28027/0133 $
94908KDBQ DBQ20101125194513311/25/10 19:45:31  5-MIN KDBQ 260145Z 28018G26KT 10SM SCT036 BKN042 M07/M12 A2987 1130 65 -1200 280/18G26 RMK AO2 PK WND 28027/0133 $
94908KDBQ DBQ20101125195015011/25/10 19:50:31  5-MIN KDBQ 260150Z 28018G26KT 10SM BKN036 BKN042 M07/M12 A2987 1130 65 -1200 280/18G26 RMK AO2 PK WND 28027/0133 SLP131 T10671122 $
94908KDBQ DBQ20101125195514011/25/10 19:55:31  5-MIN KDBQ 260155Z 29022G28KT 10SM FEW025 SCT030 BKN037 M07/M12 A2987 1130 65 -1200 290/22G28 RMK AO2 PK WND 29028/0154 $
94908KDBQ DBQ20101125200014011/25/10 20:00:31  5-MIN KDBQ 260200Z 29022G34KT 10SM FEW025 SCT030 BKN037 M07/M12 A2987 1130 65 -1200 290/22G34 RMK AO2 PK WND 29034/0157 $
94908KDBQ DBQ20101125200513811/25/10 20:05:31  5-MIN KDBQ 260205Z AUTO 29021G34KT 10SM FEW028 BKN037 M07/M13 A2987 1120 65 -1300 290/21G34 RMK AO2 PK WND 29034/0157 $
94908KDBQ DBQ20101125201013811/25/10 20:10:31  5-MIN KDBQ 260210Z AUTO 28026G34KT 10SM FEW025 SCT037 M07/M13 A2987 1120 62 -1300 280/26G34 RMK AO2 PK WND 29034/0206 $
94908KDBQ DBQ20101125201513811/25/10 20:15:31  5-MIN KDBQ 260215Z AUTO 28022G34KT 10SM FEW027 SCT037 M07/M14 A2987 1120 59 -1300 280/22G34 RMK AO2 PK WND 29034/0206 $
94908KDBQ DBQ20101125202013111/25/10 20:20:31  5-MIN KDBQ 260220Z AUTO 28020G32KT 10SM FEW027 M08/M14 A2987 1130 62 -1300 280/20G32 RMK AO2 PK WND 29034/0206 $
94908KDBQ DBQ20101125202512811/25/10 20:25:31  5-MIN KDBQ 260225Z AUTO 28021G32KT 10SM CLR M08/M14 A2987 1120 62 -1300 280/21G32 RMK AO2 PK WND 29034/0206 $
94908KDBQ DBQ20101125203012811/25/10 20:30:31  5-MIN KDBQ 260230Z AUTO 28022G33KT 10SM CLR M08/M14 A2987 1130 62 -1300 280/22G33 RMK AO2 PK WND 29034/0206 $
94908KDBQ DBQ20101125203512811/25/10 20:35:31  5-MIN KDBQ 260235Z AUTO 29023G33KT 10SM CLR M08/M14 A2987 1130 59 -1300 290/23G33 RMK AO2 PK WND 29034/0206 $
94908KDBQ DBQ20101125204012811/25/10 20:40:31  5-MIN KDBQ 260240Z AUTO 28020G32KT 10SM CLR M08/M14 A2987 1130 62 -1300 280/20G32 RMK AO2 PK WND 29034/0206 $
94908KDBQ DBQ20101125204512811/25/10 20:45:31  5-MIN KDBQ 260245Z AUTO 28019G32KT 10SM CLR M08/M14 A2987 1130 59 -1300 280/19G32 RMK AO2 PK WND 29034/0206 $
94908KDBQ DBQ20101125205015111/25/10 20:50:31  5-MIN KDBQ 260250Z AUTO 29023G33KT 10SM CLR M08/M14 A2987 1130 62 -1400 280/23G33 RMK AO2 PK WND 29034/0206 SLP131 T10831144 53023 $
94908KDBQ DBQ20101125205512811/25/10 20:55:31  5-MIN KDBQ 260255Z AUTO 29020G33KT 10SM CLR M08/M14 A2987 1130 62 -1400 280/20G33 RMK AO2 PK WND 29028/0255 $
94908KDBQ DBQ20101125210012811/25/10 21:00:31  5-MIN KDBQ 260300Z AUTO 29022G31KT 10SM CLR M08/M14 A2987 1120 64 -1400 290/22G31 RMK AO2 PK WND 29029/0258 $
94908KDBQ DBQ20101125210512811/25/10 21:05:31  5-MIN KDBQ 260305Z AUTO 28019G29KT 10SM CLR M08/M14 A2987 1130 64 -1400 280/19G29 RMK AO2 PK WND 29029/0258 $
94908KDBQ DBQ20101125211012811/25/10 21:10:31  5-MIN KDBQ 260310Z AUTO 28018G28KT 10SM CLR M08/M14 A2987 1130 64 -1400 280/18G28 RMK AO2 PK WND 29029/0258 $
94908KDBQ DBQ20101125211512811/25/10 21:15:31  5-MIN KDBQ 260315Z AUTO 28020G28KT 10SM CLR M08/M14 A2987 1130 64 -1400 280/20G28 RMK AO2 PK WND 29029/0258 $
94908KDBQ DBQ20101125212012811/25/10 21:20:31  5-MIN KDBQ 260320Z AUTO 28017G28KT 10SM CLR M08/M14 A2987 1120 64 -1400 280/17G28 RMK AO2 PK WND 29029/0258 $
94908KDBQ DBQ20101125212512811/25/10 21:25:31  5-MIN KDBQ 260325Z AUTO 29020G28KT 10SM CLR M08/M14 A2987 1120 64 -1400 290/20G28 RMK AO2 PK WND 29029/0258 $
94908KDBQ DBQ20101125213012811/25/10 21:30:31  5-MIN KDBQ 260330Z AUTO 29020G28KT 10SM CLR M08/M14 A2988 1120 64 -1400 290/20G28 RMK AO2 PK WND 29029/0258 $
94908KDBQ DBQ20101125213512811/25/10 21:35:31  5-MIN KDBQ 260335Z AUTO 29018G27KT 10SM CLR M08/M14 A2988 1120 64 -1400 290/18G27 RMK AO2 PK WND 29029/0258 $
94908KDBQ DBQ20101125214012811/25/10 21:40:31  5-MIN KDBQ 260340Z AUTO 29017G27KT 10SM CLR M08/M14 A2988 1120 64 -1400 280/17G27 RMK AO2 PK WND 29029/0258 $
94908KDBQ DBQ20101125214512811/25/10 21:45:31  5-MIN KDBQ 260345Z AUTO 29018G25KT 10SM CLR M08/M14 A2988 1120 64 -1400 290/18G25 RMK AO2 PK WND 29029/0258 $
94908KDBQ DBQ20101125215013911/25/10 21:50:31  5-MIN KDBQ 260350Z AUTO 29019KT 10SM CLR M08/M14 A2988 1120 64 -1400 290/19 RMK AO2 PK WND 29029/0258 SLP135 T10831139 $
94908KDBQ DBQ20101125215511011/25/10 21:55:31  5-MIN KDBQ 260355Z AUTO 28017G24KT 10SM CLR M08/M14 A2988 1120 64 -1400 280/17G24 RMK AO2 $
94908KDBQ DBQ20101125220011011/25/10 22:00:31  5-MIN KDBQ 260400Z AUTO 28019G25KT 10SM CLR M08/M14 A2988 1120 64 -1400 280/19G25 RMK AO2 $
94908KDBQ DBQ20101125220511011/25/10 22:05:31  5-MIN KDBQ 260405Z AUTO 28015G25KT 10SM CLR M09/M14 A2987 1120 67 -1500 280/15G25 RMK AO2 $
94908KDBQ DBQ20101125221011011/25/10 22:10:31  5-MIN KDBQ 260410Z AUTO 28015G25KT 10SM CLR M09/M14 A2987 1130 67 -1500 280/15G25 RMK AO2 $
94908KDBQ DBQ20101125221511011/25/10 22:15:31  5-MIN KDBQ 260415Z AUTO 27017G23KT 10SM CLR M09/M14 A2987 1120 67 -1500 270/17G23 RMK AO2 $
94908KDBQ DBQ20101125222011011/25/10 22:20:31  5-MIN KDBQ 260420Z AUTO 28015G23KT 10SM CLR M09/M14 A2988 1120 67 -1500 280/15G23 RMK AO2 $
94908KDBQ DBQ20101125222510411/25/10 22:25:31  5-MIN KDBQ 260425Z AUTO 28015KT 10SM CLR M09/M14 A2988 1120 67 -1500 280/15 RMK AO2 $
94908KDBQ DBQ20101125223010411/25/10 22:30:31  5-MIN KDBQ 260430Z AUTO 28016KT 10SM CLR M09/M14 A2988 1120 67 -1500 280/16 RMK AO2 $
94908KDBQ DBQ20101125223510411/25/10 22:35:31  5-MIN KDBQ 260435Z AUTO 28015KT 10SM CLR M09/M14 A2988 1120 67 -1500 280/15 RMK AO2 $
94908KDBQ DBQ20101125224011011/25/10 22:40:31  5-MIN KDBQ 260440Z AUTO 28016G24KT 10SM CLR M09/M14 A2988 1120 67 -1500 280/16G24 RMK AO2 $
94908KDBQ DBQ20101125224511011/25/10 22:45:31  5-MIN KDBQ 260445Z AUTO 27014G24KT 10SM CLR M09/M14 A2988 1120 67 -1500 270/14G24 RMK AO2 $
94908KDBQ DBQ20101125225012711/25/10 22:50:31  5-MIN KDBQ 260450Z AUTO 28013G19KT 10SM CLR M09/M14 A2988 1120 67 -1500 280/13G19 RMK AO2 SLP136 T10891139 $
94908KDBQ DBQ20101125225511011/25/10 22:55:31  5-MIN KDBQ 260455Z AUTO 28014G21KT 10SM CLR M09/M14 A2988 1120 67 -1500 280/14G21 RMK AO2 $
94908KDBQ DBQ20101125230011011/25/10 23:00:31  5-MIN KDBQ 260500Z AUTO 27014G21KT 10SM CLR M09/M14 A2988 1120 67 -1500 270/14G21 RMK AO2 $
94908KDBQ DBQ20101125230511011/25/10 23:05:31  5-MIN KDBQ 260505Z AUTO 27015G22KT 10SM CLR M09/M14 A2987 1120 67 -1500 270/15G22 RMK AO2 $
94908KDBQ DBQ20101125231011011/25/10 23:10:31  5-MIN KDBQ 260510Z AUTO 27014G22KT 10SM CLR M09/M14 A2987 1120 67 -1500 270/14G22 RMK AO2 $
94908KDBQ DBQ20101125231511011/25/10 23:15:31  5-MIN KDBQ 260515Z AUTO 27014G21KT 10SM CLR M09/M14 A2987 1120 67 -1500 270/14G21 RMK AO2 $
94908KDBQ DBQ20101125232011011/25/10 23:20:31  5-MIN KDBQ 260520Z AUTO 29013G21KT 10SM CLR M09/M14 A2987 1130 67 -1500 290/13G21 RMK AO2 $
94908KDBQ DBQ20101125232511011/25/10 23:25:31  5-MIN KDBQ 260525Z AUTO 27014G21KT 10SM CLR M09/M14 A2987 1130 67 -1500 270/14G21 RMK AO2 $
94908KDBQ DBQ20101125233011011/25/10 23:30:31  5-MIN KDBQ 260530Z AUTO 28016G21KT 10SM CLR M09/M14 A2987 1120 67 -1500 280/16G21 RMK AO2 $
94908KDBQ DBQ20101125233511011/25/10 23:35:31  5-MIN KDBQ 260535Z AUTO 28015G21KT 10SM CLR M09/M14 A2987 1120 67 -1500 280/15G21 RMK AO2 $
94908KDBQ DBQ20101125234011011/25/10 23:40:31  5-MIN KDBQ 260540Z AUTO 28013G19KT 10SM CLR M09/M14 A2987 1120 67 -1500 280/13G19 RMK AO2 $
94908KDBQ DBQ20101125234511011/25/10 23:45:31  5-MIN KDBQ 260545Z AUTO 28013G19KT 10SM CLR M09/M14 A2988 1120 67 -1500 280/13G19 RMK AO2 $
94908KDBQ DBQ20101125235014911/25/10 23:50:31  5-MIN KDBQ 260550Z AUTO 28015KT 10SM CLR M09/M14 A2988 1120 67 -1500 280/15 RMK AO2 SLP135 T10891139 11067 21089 400111089 56005 $
94908KDBQ DBQ20101125235511011/25/10 23:55:31  5-MIN KDBQ 260555Z AUTO 27014G23KT 10SM CLR M09/M14 A2988 1120 67 -1500 270/14G23 RMK AO2 $
94908KDBQ DBQ20101126000011011/26/10 00:00:38  5-MIN KDBQ 260600Z AUTO 28013G23KT 10SM CLR M09/M14 A2987 1120 67 -1500 280/13G23 RMK AO2 $
94908KDBQ DBQ20101126000510411/26/10 00:05:31  5-MIN KDBQ 260605Z AUTO 28013KT 10SM CLR M09/M14 A2987 1120 67 -1500 280/13 RMK AO2 $
94908KDBQ DBQ20101126001010411/26/10 00:10:31  5-MIN KDBQ 260610Z AUTO 28012KT 10SM CLR M09/M14 A2987 1120 67 -1500 280/12 RMK AO2 $
94908KDBQ DBQ20101126001510411/26/10 00:15:33  5-MIN KDBQ 260615Z AUTO 27014KT 10SM CLR M09/M14 A2987 1120 67 -1500 270/14 RMK AO2 $
94908KDBQ DBQ20101126002010411/26/10 00:20:31  5-MIN KDBQ 260620Z AUTO 28010KT 10SM CLR M09/M14 A2987 1130 67 -1500 280/10 RMK AO2 $
94908KDBQ DBQ20101126002510411/26/10 00:25:31  5-MIN KDBQ 260625Z AUTO 27013KT 10SM CLR M09/M14 A2987 1120 67 -1500 270/13 RMK AO2 $
94908KDBQ DBQ20101126003010411/26/10 00:30:31  5-MIN KDBQ 260630Z AUTO 28010KT 10SM CLR M09/M14 A2987 1120 67 -1500 280/10 RMK AO2 $
94908KDBQ DBQ20101126003510411/26/10 00:35:31  5-MIN KDBQ 260635Z AUTO 28011KT 10SM CLR M09/M14 A2987 1120 67 -1500 280/11 RMK AO2 $
94908KDBQ DBQ20101126004010411/26/10 00:40:31  5-MIN KDBQ 260640Z AUTO 28011KT 10SM CLR M09/M13 A2987 1120 73 -1600 270/11 RMK AO2 $
94908KDBQ DBQ20101126004510411/26/10 00:45:31  5-MIN KDBQ 260645Z AUTO 28012KT 10SM CLR M09/M13 A2988 1120 73 -1600 280/12 RMK AO2 $
94908KDBQ DBQ20101126005012111/26/10 00:50:31  5-MIN KDBQ 260650Z AUTO 27012KT 10SM CLR M09/M13 A2987 1120 70 -1500 270/12 RMK AO2 SLP135 T10891133 $
94908KDBQ DBQ20101126005510411/26/10 00:55:31  5-MIN KDBQ 260655Z AUTO 28012KT 10SM CLR M09/M13 A2987 1120 73 -1600 280/12 RMK AO2 $
94908KDBQ DBQ20101126010010411/26/10 01:00:31  5-MIN KDBQ 260700Z AUTO 27012KT 10SM CLR M09/M14 A2987 1120 67 -1500 270/12 RMK AO2 $
94908KDBQ DBQ20101126010510411/26/10 01:05:31  5-MIN KDBQ 260705Z AUTO 27013KT 10SM CLR M09/M13 A2987 1120 73 -1600 270/13 RMK AO2 $
94908KDBQ DBQ20101126011010411/26/10 01:10:31  5-MIN KDBQ 260710Z AUTO 28012KT 10SM CLR M09/M13 A2987 1120 73 -1600 280/12 RMK AO2 $
94908KDBQ DBQ20101126011511011/26/10 01:15:31  5-MIN KDBQ 260715Z AUTO 28013G19KT 10SM CLR M09/M13 A2987 1120 73 -1600 280/13G19 RMK AO2 $
94908KDBQ DBQ20101126012010411/26/10 01:20:31  5-MIN KDBQ 260720Z AUTO 27013KT 10SM CLR M09/M13 A2987 1130 73 -1600 270/13 RMK AO2 $
94908KDBQ DBQ20101126012511011/26/10 01:25:31  5-MIN KDBQ 260725Z AUTO 28012G19KT 10SM CLR M09/M13 A2987 1120 73 -1600 280/12G19 RMK AO2 $
94908KDBQ DBQ20101126013010411/26/10 01:30:31  5-MIN KDBQ 260730Z AUTO 27013KT 10SM CLR M09/M13 A2987 1120 73 -1600 270/13 RMK AO2 $
94908KDBQ DBQ20101126013510411/26/10 01:35:31  5-MIN KDBQ 260735Z AUTO 28012KT 10SM CLR M09/M14 A2987 1130 70 -1500 270/12 RMK AO2 $
94908KDBQ DBQ20101126014010411/26/10 01:40:31  5-MIN KDBQ 260740Z AUTO 28012KT 10SM CLR M09/M14 A2987 1130 70 -1500 270/12 RMK AO2 $
94908KDBQ DBQ20101126014510411/26/10 01:45:31  5-MIN KDBQ 260745Z AUTO 27013KT 10SM CLR M09/M13 A2987 1120 73 -1600 270/13 RMK AO2 $
94908KDBQ DBQ20101126015012711/26/10 01:50:31  5-MIN KDBQ 260750Z AUTO 26013G19KT 10SM CLR M09/M13 A2988 1120 73 -1600 260/13G19 RMK AO2 SLP136 T10941133 $
94908KDBQ DBQ20101126015510411/26/10 01:55:31  5-MIN KDBQ 260755Z AUTO 27012KT 10SM CLR M09/M13 A2988 1120 73 -1600 270/12 RMK AO2 $
94908KDBQ DBQ20101126020010411/26/10 02:00:31  5-MIN KDBQ 260800Z AUTO 28012KT 10SM CLR M09/M13 A2988 1110 73 -1600 270/12 RMK AO2 $
94908KDBQ DBQ20101126020510411/26/10 02:05:31  5-MIN KDBQ 260805Z AUTO 27012KT 10SM CLR M09/M13 A2988 1110 73 -1600 270/12 RMK AO2 $
94908KDBQ DBQ20101126021010411/26/10 02:10:31  5-MIN KDBQ 260810Z AUTO 27012KT 10SM CLR M09/M13 A2988 1110 73 -1600 270/12 RMK AO2 $
94908KDBQ DBQ20101126021510411/26/10 02:15:31  5-MIN KDBQ 260815Z AUTO 27013KT 10SM CLR M09/M13 A2988 1110 73 -1600 270/13 RMK AO2 $
94908KDBQ DBQ20101126022010411/26/10 02:20:31  5-MIN KDBQ 260820Z AUTO 27012KT 10SM CLR M09/M13 A2988 1110 73 -1600 270/12 RMK AO2 $
94908KDBQ DBQ20101126022510411/26/10 02:25:31  5-MIN KDBQ 260825Z AUTO 27013KT 10SM CLR M09/M13 A2988 1120 73 -1600 270/13 RMK AO2 $
94908KDBQ DBQ20101126023010411/26/10 02:30:31  5-MIN KDBQ 260830Z AUTO 28013KT 10SM CLR M09/M13 A2989 1110 73 -1600 280/13 RMK AO2 $
94908KDBQ DBQ20101126023510411/26/10 02:35:31  5-MIN KDBQ 260835Z AUTO 28010KT 10SM CLR M09/M13 A2988 1110 73 -1600 280/10 RMK AO2 $
94908KDBQ DBQ20101126024010411/26/10 02:40:31  5-MIN KDBQ 260840Z AUTO 28011KT 10SM CLR M09/M13 A2988 1120 73 -1600 280/11 RMK AO2 $
94908KDBQ DBQ20101126024510411/26/10 02:45:31  5-MIN KDBQ 260845Z AUTO 28011KT 10SM CLR M09/M13 A2987 1120 73 -1600 280/11 RMK AO2 $
94908KDBQ DBQ20101126025013311/26/10 02:50:31  5-MIN KDBQ 260850Z AUTO 28012G17KT 10SM CLR M09/M13 A2987 1120 73 -1600 280/12G17 RMK AO2 SLP134 T10941133 50003 $
94908KDBQ DBQ20101126025511011/26/10 02:55:31  5-MIN KDBQ 260855Z AUTO 28011G17KT 10SM CLR M09/M13 A2987 1120 73 -1600 280/11G17 RMK AO2 $
94908KDBQ DBQ20101126030010411/26/10 03:00:31  5-MIN KDBQ 260900Z AUTO 28011KT 10SM CLR M09/M13 A2987 1120 73 -1600 280/11 RMK AO2 $
94908KDBQ DBQ20101126030510411/26/10 03:05:31  5-MIN KDBQ 260905Z AUTO 28011KT 10SM CLR M09/M13 A2987 1130 73 -1500 270/11 RMK AO2 $
94908KDBQ DBQ20101126031010411/26/10 03:10:31  5-MIN KDBQ 260910Z AUTO 28012KT 10SM CLR M09/M13 A2987 1130 73 -1600 270/12 RMK AO2 $
94908KDBQ DBQ20101126031510411/26/10 03:15:31  5-MIN KDBQ 260915Z AUTO 27012KT 10SM CLR M09/M13 A2987 1130 73 -1500 270/12 RMK AO2 $
94908KDBQ DBQ20101126032010411/26/10 03:20:31  5-MIN KDBQ 260920Z AUTO 28012KT 10SM CLR M09/M13 A2986 1130 73 -1500 280/12 RMK AO2 $
94908KDBQ DBQ20101126032510411/26/10 03:25:31  5-MIN KDBQ 260925Z AUTO 27012KT 10SM CLR M09/M13 A2986 1130 73 -1500 270/12 RMK AO2 $
94908KDBQ DBQ20101126033010411/26/10 03:30:31  5-MIN KDBQ 260930Z AUTO 27011KT 10SM CLR M09/M13 A2986 1130 73 -1500 270/11 RMK AO2 $
94908KDBQ DBQ20101126033510411/26/10 03:35:31  5-MIN KDBQ 260935Z AUTO 28011KT 10SM CLR M09/M13 A2986 1130 73 -1500 270/11 RMK AO2 $
94908KDBQ DBQ20101126034010411/26/10 03:40:31  5-MIN KDBQ 260940Z AUTO 27012KT 10SM CLR M09/M13 A2986 1130 73 -1500 270/12 RMK AO2 $
94908KDBQ DBQ20101126034510411/26/10 03:45:31  5-MIN KDBQ 260945Z AUTO 27011KT 10SM CLR M09/M13 A2986 1130 73 -1500 270/11 RMK AO2 $
94908KDBQ DBQ20101126035012111/26/10 03:50:31  5-MIN KDBQ 260950Z AUTO 27012KT 10SM CLR M09/M13 A2986 1130 73 -1500 270/12 RMK AO2 SLP130 T10941133 $
94908KDBQ DBQ20101126035510411/26/10 03:55:31  5-MIN KDBQ 260955Z AUTO 27012KT 10SM CLR M09/M13 A2986 1130 73 -1500 270/12 RMK AO2 $
94908KDBQ DBQ20101126040010411/26/10 04:00:31  5-MIN KDBQ 261000Z AUTO 28013KT 10SM CLR M09/M13 A2986 1130 73 -1500 280/13 RMK AO2 $
94908KDBQ DBQ20101126040510411/26/10 04:05:31  5-MIN KDBQ 261005Z AUTO 26012KT 10SM CLR M09/M13 A2986 1140 73 -1500 260/12 RMK AO2 $
94908KDBQ DBQ20101126041010411/26/10 04:10:31  5-MIN KDBQ 261010Z AUTO 28012KT 10SM CLR M09/M13 A2986 1140 73 -1500 280/12 RMK AO2 $
94908KDBQ DBQ20101126041510411/26/10 04:15:31  5-MIN KDBQ 261015Z AUTO 27012KT 10SM CLR M09/M13 A2986 1140 73 -1500 270/12 RMK AO2 $
94908KDBQ DBQ20101126042010411/26/10 04:20:31  5-MIN KDBQ 261020Z AUTO 28011KT 10SM CLR M09/M13 A2986 1130 77 -1500 280/11 RMK AO2 $
94908KDBQ DBQ20101126042510411/26/10 04:25:31  5-MIN KDBQ 261025Z AUTO 27012KT 10SM CLR M09/M13 A2986 1130 77 -1500 270/12 RMK AO2 $
94908KDBQ DBQ20101126043010411/26/10 04:30:31  5-MIN KDBQ 261030Z AUTO 28012KT 10SM CLR M09/M13 A2986 1130 73 -1500 280/12 RMK AO2 $
94908KDBQ DBQ20101126043510411/26/10 04:35:31  5-MIN KDBQ 261035Z AUTO 28012KT 10SM CLR M09/M13 A2986 1130 73 -1500 280/12 RMK AO2 $
94908KDBQ DBQ20101126044010411/26/10 04:40:31  5-MIN KDBQ 261040Z AUTO 28012KT 10SM CLR M09/M13 A2987 1130 73 -1500 270/12 RMK AO2 $
94908KDBQ DBQ20101126044510411/26/10 04:45:31  5-MIN KDBQ 261045Z AUTO 27013KT 10SM CLR M09/M13 A2987 1130 73 -1500 270/13 RMK AO2 $
94908KDBQ DBQ20101126045012111/26/10 04:50:31  5-MIN KDBQ 261050Z AUTO 27012KT 10SM CLR M09/M13 A2987 1130 73 -1500 270/12 RMK AO2 SLP133 T10941133 $
94908KDBQ DBQ20101126045510411/26/10 04:55:31  5-MIN KDBQ 261055Z AUTO 28011KT 10SM CLR M09/M13 A2987 1130 77 -1500 280/11 RMK AO2 $
94908KDBQ DBQ20101126050010411/26/10 05:00:31  5-MIN KDBQ 261100Z AUTO 28012KT 10SM CLR M09/M13 A2987 1130 77 -1600 280/12 RMK AO2 $
94908KDBQ DBQ20101126050510411/26/10 05:05:31  5-MIN KDBQ 261105Z AUTO 28011KT 10SM CLR M09/M13 A2987 1120 77 -1600 280/11 RMK AO2 $
94908KDBQ DBQ20101126051010411/26/10 05:10:31  5-MIN KDBQ 261110Z AUTO 28013KT 10SM CLR M09/M13 A2987 1130 73 -1500 280/13 RMK AO2 $
94908KDBQ DBQ20101126051510411/26/10 05:15:31  5-MIN KDBQ 261115Z AUTO 28012KT 10SM CLR M09/M13 A2987 1130 73 -1600 280/12 RMK AO2 $
94908KDBQ DBQ20101126052010411/26/10 05:20:31  5-MIN KDBQ 261120Z AUTO 28011KT 10SM CLR M09/M13 A2987 1130 73 -1500 280/11 RMK AO2 $
94908KDBQ DBQ20101126052510411/26/10 05:25:31  5-MIN KDBQ 261125Z AUTO 28012KT 10SM CLR M09/M13 A2987 1130 73 -1500 280/12 RMK AO2 $
94908KDBQ DBQ20101126053010411/26/10 05:30:31  5-MIN KDBQ 261130Z AUTO 28010KT 10SM CLR M09/M13 A2987 1130 73 -1600 280/10 RMK AO2 $
94908KDBQ DBQ20101126053510411/26/10 05:35:31  5-MIN KDBQ 261135Z AUTO 28012KT 10SM CLR M09/M13 A2987 1130 73 -1600 280/12 RMK AO2 $
94908KDBQ DBQ20101126054010411/26/10 05:40:31  5-MIN KDBQ 261140Z AUTO 28011KT 10SM CLR M09/M13 A2987 1130 73 -1500 280/11 RMK AO2 $
94908KDBQ DBQ20101126054510411/26/10 05:45:31  5-MIN KDBQ 261145Z AUTO 28012KT 10SM CLR M09/M13 A2987 1130 73 -1500 280/12 RMK AO2 $
94908KDBQ DBQ20101126055013411/26/10 05:50:31  5-MIN KDBQ 261150Z 28012KT 10SM CLR M09/M13 A2987 1130 73 -1600 280/12 RMK AO2 SLP134 T10941133 11089 21094 56001 $
94908KDBQ DBQ20101126055509911/26/10 05:55:31  5-MIN KDBQ 261155Z 28012KT 10SM CLR M09/M13 A2987 1120 73 -1600 280/12 RMK AO2 $
94908KDBQ DBQ20101126060009911/26/10 06:00:31  5-MIN KDBQ 261200Z 27012KT 10SM CLR M09/M13 A2987 1120 73 -1600 270/12 RMK AO2 $
94908KDBQ DBQ20101126060509911/26/10 06:05:31  5-MIN KDBQ 261205Z 28011KT 10SM CLR M09/M13 A2987 1120 73 -1600 280/11 RMK AO2 $
94908KDBQ DBQ20101126061009911/26/10 06:10:31  5-MIN KDBQ 261210Z 28012KT 10SM CLR M09/M13 A2988 1120 73 -1600 270/12 RMK AO2 $
94908KDBQ DBQ20101126061509911/26/10 06:15:31  5-MIN KDBQ 261215Z 28012KT 10SM CLR M09/M13 A2988 1120 73 -1600 280/12 RMK AO2 $
94908KDBQ DBQ20101126062009911/26/10 06:20:31  5-MIN KDBQ 261220Z 27009KT 10SM CLR M09/M13 A2987 1120 73 -1600 270/09 RMK AO2 $
94908KDBQ DBQ20101126062509911/26/10 06:25:31  5-MIN KDBQ 261225Z 28011KT 10SM CLR M09/M13 A2987 1120 73 -1600 280/11 RMK AO2 $
94908KDBQ DBQ20101126063009911/26/10 06:30:31  5-MIN KDBQ 261230Z 28011KT 10SM CLR M09/M13 A2987 1120 73 -1600 270/11 RMK AO2 $
94908KDBQ DBQ20101126063509911/26/10 06:35:31  5-MIN KDBQ 261235Z 26011KT 10SM CLR M09/M13 A2987 1120 77 -1600 260/11 RMK AO2 $
94908KDBQ DBQ20101126064009911/26/10 06:40:31  5-MIN KDBQ 261240Z 27011KT 10SM CLR M09/M13 A2987 1120 77 -1600 270/11 RMK AO2 $
94908KDBQ DBQ20101126064509911/26/10 06:45:31  5-MIN KDBQ 261245Z 27011KT 10SM CLR M09/M13 A2987 1120 77 -1600 270/11 RMK AO2 $
94908KDBQ DBQ20101126065011611/26/10 06:50:31  5-MIN KDBQ 261250Z 28011KT 10SM CLR M09/M13 A2987 1130 77 -1600 280/11 RMK AO2 SLP134 T10941128 $
94908KDBQ DBQ20101126065509911/26/10 06:55:31  5-MIN KDBQ 261255Z 27011KT 10SM CLR M09/M13 A2987 1130 77 -1500 270/11 RMK AO2 $
94908KDBQ DBQ20101126070009711/26/10 07:00:31  5-MIN KDBQ 261300Z 26011KT 10SM CLR M09/M13 A2987 1130 77 -1500 260/11 RMK AO2
94908KDBQ DBQ20101126070509711/26/10 07:05:31  5-MIN KDBQ 261305Z 26012KT 10SM CLR M09/M13 A2987 1120 77 -1600 260/12 RMK AO2
94908KDBQ DBQ20101126071009711/26/10 07:10:31  5-MIN KDBQ 261310Z 27011KT 10SM CLR M09/M13 A2987 1120 77 -1600 270/11 RMK AO2
94908KDBQ DBQ20101126071509711/26/10 07:15:31  5-MIN KDBQ 261315Z 27011KT 10SM CLR M09/M13 A2987 1130 77 -1600 270/11 RMK AO2
94908KDBQ DBQ20101126072009711/26/10 07:20:31  5-MIN KDBQ 261320Z 27012KT 10SM CLR M09/M13 A2987 1130 77 -1600 270/12 RMK AO2
94908KDBQ DBQ20101126072509711/26/10 07:25:31  5-MIN KDBQ 261325Z 26011KT 10SM CLR M09/M13 A2987 1130 77 -1500 260/11 RMK AO2
94908KDBQ DBQ20101126073009711/26/10 07:30:31  5-MIN KDBQ 261330Z 26010KT 10SM CLR M09/M13 A2987 1130 77 -1500 260/10 RMK AO2
94908KDBQ DBQ20101126073509711/26/10 07:35:31  5-MIN KDBQ 261335Z 26010KT 10SM CLR M09/M13 A2987 1130 74 -1500 260/10 RMK AO2
94908KDBQ DBQ20101126074009711/26/10 07:40:31  5-MIN KDBQ 261340Z 26011KT 10SM CLR M09/M13 A2987 1130 74 -1500 260/11 RMK AO2
94908KDBQ DBQ20101126074509711/26/10 07:45:31  5-MIN KDBQ 261345Z 26011KT 10SM CLR M09/M13 A2987 1120 74 -1500 250/11 RMK AO2
94908KDBQ DBQ20101126075011711/26/10 07:50:31  5-MIN KDBQ 261350Z 26010KT 10SM FEW110 M09/M13 A2987 1130 74 -1500 260/10 RMK AO2 SLP133 T10891128
94908KDBQ DBQ20101126075510611/26/10 07:55:31  5-MIN KDBQ 261355Z 26009G15KT 10SM FEW110 M08/M13 A2987 1120 70 -1400 260/09G15 RMK AO2
94908KDBQ DBQ20101126080010611/26/10 08:00:31  5-MIN KDBQ 261400Z 25009G15KT 10SM FEW110 M08/M12 A2987 1130 74 -1400 250/09G15 RMK AO2
94908KDBQ DBQ20101126080510011/26/10 08:05:31  5-MIN KDBQ 261405Z 25010KT 10SM FEW110 M08/M12 A2987 1130 74 -1400 250/10 RMK AO2
94908KDBQ DBQ20101126081010011/26/10 08:10:31  5-MIN KDBQ 261410Z 25010KT 10SM FEW110 M08/M12 A2987 1130 74 -1400 250/10 RMK AO2
94908KDBQ DBQ20101126081510011/26/10 08:15:31  5-MIN KDBQ 261415Z 26010KT 10SM FEW110 M08/M12 A2987 1130 74 -1400 250/10 RMK AO2
94908KDBQ DBQ20101126082010011/26/10 08:20:31  5-MIN KDBQ 261420Z 25009KT 10SM FEW110 M08/M12 A2987 1130 74 -1400 250/09 RMK AO2
94908KDBQ DBQ20101126082509711/26/10 08:25:31  5-MIN KDBQ 261425Z 25010KT 10SM CLR M08/M12 A2986 1130 71 -1300 250/10 RMK AO2
94908KDBQ DBQ20101126083009711/26/10 08:30:31  5-MIN KDBQ 261430Z 25011KT 10SM CLR M08/M12 A2986 1130 71 -1300 250/11 RMK AO2
94908KDBQ DBQ20101126083509711/26/10 08:35:31  5-MIN KDBQ 261435Z 25008KT 10SM CLR M07/M12 A2986 1130 71 -1300 250/08 RMK AO2
94908KDBQ DBQ20101126084009711/26/10 08:40:31  5-MIN KDBQ 261440Z 25011KT 10SM CLR M07/M12 A2986 1140 71 -1200 250/11 RMK AO2
94908KDBQ DBQ20101126084510311/26/10 08:45:31  5-MIN KDBQ 261445Z 25011G15KT 10SM CLR M07/M12 A2986 1140 71 -1200 250/11G15 RMK AO2
94908KDBQ DBQ20101126085012011/26/10 08:50:31  5-MIN KDBQ 261450Z 24013KT 10SM CLR M07/M12 A2986 1140 71 -1200 240/13 RMK AO2 SLP130 T10721117 55002
94908KDBQ DBQ20101126085509711/26/10 08:55:31  5-MIN KDBQ 261455Z 26012KT 10SM CLR M07/M12 A2986 1140 68 -1200 260/12 RMK AO2
94908KDBQ DBQ20101126090009711/26/10 09:00:31  5-MIN KDBQ 261500Z 25012KT 10SM CLR M07/M12 A2986 1130 68 -1200 250/12 RMK AO2
94908KDBQ DBQ20101126090510311/26/10 09:05:31  5-MIN KDBQ 261505Z 25013G18KT 10SM CLR M07/M12 A2985 1140 68 -1200 250/13G18 RMK AO2
94908KDBQ DBQ20101126091009711/26/10 09:10:31  5-MIN KDBQ 261510Z 25013KT 10SM CLR M07/M12 A2985 1140 68 -1200 240/13 RMK AO2
94908KDBQ DBQ20101126091509711/26/10 09:15:31  5-MIN KDBQ 261515Z 24012KT 10SM CLR M06/M11 A2985 1140 68 -1100 240/12 RMK AO2
94908KDBQ DBQ20101126092009711/26/10 09:20:31  5-MIN KDBQ 261520Z 25013KT 10SM CLR M06/M12 A2985 1140 65 -1100 250/13 RMK AO2
94908KDBQ DBQ20101126092509711/26/10 09:25:31  5-MIN KDBQ 261525Z 25011KT 10SM CLR M06/M12 A2985 1140 65 -1100 250/11 RMK AO2
94908KDBQ DBQ20101126093009711/26/10 09:30:31  5-MIN KDBQ 261530Z 25014KT 10SM CLR M06/M12 A2985 1140 65 -1100 250/14 RMK AO2
94908KDBQ DBQ20101126093509711/26/10 09:35:31  5-MIN KDBQ 261535Z 25013KT 10SM CLR M06/M11 A2985 1150 65 -1000 250/13 RMK AO2
94908KDBQ DBQ20101126094009711/26/10 09:40:31  5-MIN KDBQ 261540Z 25012KT 10SM CLR M06/M12 A2984 1150 62 -1000 250/12 RMK AO2
94908KDBQ DBQ20101126094509711/26/10 09:45:31  5-MIN KDBQ 261545Z 24013KT 10SM CLR M06/M11 A2985 1150 65 -1000 240/13 RMK AO2
94908KDBQ DBQ20101126095011911/26/10 09:50:31  5-MIN KDBQ 261550Z 25014G19KT 10SM CLR M04/M11 A2984 1150 62 -900 250/14G19 RMK AO2 SLP122 T10441106
94908KDBQ DBQ20101126095510211/26/10 09:55:31  5-MIN KDBQ 261555Z 25014G20KT 10SM CLR M04/M11 A2984 1150 60 -900 250/14G20 RMK AO2
94908KDBQ DBQ20101126100009711/26/10 10:00:31  5-MIN KDBQ 261600Z 26015KT 10SM CLR M05/M12 A2985 1140 60 -1000 260/15 RMK AO2
94908KDBQ DBQ20101126100509711/26/10 10:05:31  5-MIN KDBQ 261605Z 26014KT 10SM CLR M05/M12 A2985 1150 60 -1000 260/14 RMK AO2
94908KDBQ DBQ20101126101009711/26/10 10:10:31  5-MIN KDBQ 261610Z 25014KT 10SM CLR M05/M12 A2985 1150 60 -1000 250/14 RMK AO2
94908KDBQ DBQ20101126101509611/26/10 10:15:31  5-MIN KDBQ 261615Z 25014KT 10SM CLR M05/M12 A2985 1150 60 -900 250/14 RMK AO2
94908KDBQ DBQ20101126102009611/26/10 10:20:31  5-MIN KDBQ 261620Z 26014KT 10SM CLR M05/M11 A2984 1150 62 -900 260/14 RMK AO2
94908KDBQ DBQ20101126102509611/26/10 10:25:31  5-MIN KDBQ 261625Z 26015KT 10SM CLR M04/M11 A2984 1150 60 -900 260/15 RMK AO2
94908KDBQ DBQ20101126103010211/26/10 10:30:31  5-MIN KDBQ 261630Z 27015G20KT 10SM CLR M04/M11 A2984 1150 57 -800 270/15G20 RMK AO2
94908KDBQ DBQ20101126103509611/26/10 10:35:31  5-MIN KDBQ 261635Z 26016KT 10SM CLR M03/M11 A2983 1160 57 -700 260/16 RMK AO2
94908KDBQ DBQ20101126104010211/26/10 10:40:31  5-MIN KDBQ 261640Z 26015G21KT 10SM CLR M04/M11 A2984 1160 57 -800 260/15G21 RMK AO2
94908KDBQ DBQ20101126104509611/26/10 10:45:31  5-MIN KDBQ 261645Z 25014KT 10SM CLR M03/M11 A2983 1160 55 -700 250/14 RMK AO2
94908KDBQ DBQ20101126105011311/26/10 10:50:31  5-MIN KDBQ 261650Z 25014KT 10SM CLR M03/M11 A2984 1160 55 -700 250/14 RMK AO2 SLP120 T10331111
94908KDBQ DBQ20101126105509611/26/10 10:55:31  5-MIN KDBQ 261655Z 25013KT 10SM CLR M03/M11 A2983 1160 57 -700 250/13 RMK AO2
94908KDBQ DBQ20101126110009611/26/10 11:00:31  5-MIN KDBQ 261700Z 25014KT 10SM CLR M03/M11 A2983 1160 57 -700 250/14 RMK AO2
94908KDBQ DBQ20101126110509611/26/10 11:05:31  5-MIN KDBQ 261705Z 25014KT 10SM CLR M03/M11 A2983 1160 57 -700 250/14 RMK AO2
94908KDBQ DBQ20101126111009611/26/10 11:10:31  5-MIN KDBQ 261710Z 26015KT 10SM CLR M03/M11 A2983 1160 55 -600 260/15 RMK AO2
94908KDBQ DBQ20101126111509611/26/10 11:15:31  5-MIN KDBQ 261715Z 26015KT 10SM CLR M03/M11 A2983 1160 55 -600 260/15 RMK AO2
94908KDBQ DBQ20101126112009611/26/10 11:20:31  5-MIN KDBQ 261720Z 27014KT 10SM CLR M02/M10 A2983 1160 55 -600 270/14 RMK AO2
94908KDBQ DBQ20101126112509911/26/10 11:25:31  5-MIN KDBQ 261725Z 26014KT 10SM FEW085 M03/M11 A2982 1170 55 -600 250/14 RMK AO2
94908KDBQ DBQ20101126113009911/26/10 11:30:31  5-MIN KDBQ 261730Z 24014KT 10SM SCT085 M03/M10 A2982 1170 58 -600 240/14 RMK AO2
94908KDBQ DBQ20101126113509911/26/10 11:35:31  5-MIN KDBQ 261735Z 27013KT 10SM BKN080 M03/M10 A2983 1170 58 -600 270/13 RMK AO2
94908KDBQ DBQ20101126114009911/26/10 11:40:31  5-MIN KDBQ 261740Z 26014KT 10SM BKN080 M03/M11 A2982 1170 55 -600 260/14 RMK AO2
94908KDBQ DBQ20101126114509911/26/10 11:45:31  5-MIN KDBQ 261745Z 26014KT 10SM BKN080 M03/M10 A2982 1170 58 -600 260/14 RMK AO2
94908KDBQ DBQ20101126115013411/26/10 11:50:31  5-MIN KDBQ 261750Z 26015KT 10SM OVC080 M03/M10 A2981 1180 58 -600 260/15 RMK AO2 SLP113 T10281100 11022 21094 58004
94908KDBQ DBQ20101126115510511/26/10 11:55:31  5-MIN KDBQ 261755Z 26015G21KT 10SM OVC080 M03/M10 A2982 1170 58 -600 260/15G21 RMK AO2
94908KDBQ DBQ20101126120009911/26/10 12:00:31  5-MIN KDBQ 261800Z 27015KT 10SM OVC080 M03/M10 A2982 1170 58 -600 270/15 RMK AO2
94908KDBQ DBQ20101126120509911/26/10 12:05:31  5-MIN KDBQ 261805Z 26016KT 10SM OVC080 M03/M10 A2982 1180 58 -600 260/16 RMK AO2
94908KDBQ DBQ20101126121010611/26/10 12:10:31  5-MIN KDBQ 261810Z 26016KT 10SM FEW060 OVC080 M03/M10 A2981 1180 58 -600 260/16 RMK AO2
94908KDBQ DBQ20101126121511211/26/10 12:15:31  5-MIN KDBQ 261815Z 27015G22KT 10SM SCT060 OVC080 M03/M10 A2980 1190 58 -600 260/15G22 RMK AO2
94908KDBQ DBQ20101126122011211/26/10 12:20:31  5-MIN KDBQ 261820Z 26016G22KT 10SM BKN055 OVC080 M03/M10 A2981 1180 58 -600 260/16G22 RMK AO2
94908KDBQ DBQ20101126122511911/26/10 12:25:31  5-MIN KDBQ 261825Z 26015G22KT 10SM BKN050 BKN065 OVC080 M03/M10 A2981 1180 58 -600 260/15G22 RMK AO2
94908KDBQ DBQ20101126123011911/26/10 12:30:31  5-MIN KDBQ 261830Z 27015G22KT 10SM BKN050 BKN060 OVC080 M03/M09 A2981 1180 60 -600 270/15G22 RMK AO2
94908KDBQ DBQ20101126123511211/26/10 12:35:31  5-MIN KDBQ 261835Z 27017G25KT 10SM BKN050 OVC060 M02/M09 A2981 1180 58 -600 270/17G25 RMK AO2
94908KDBQ DBQ20101126124010511/26/10 12:40:31  5-MIN KDBQ 261840Z 26014G25KT 10SM OVC050 M03/M09 A2981 1180 60 -600 260/14G25 RMK AO2
94908KDBQ DBQ20101126124510511/26/10 12:45:31  5-MIN KDBQ 261845Z 26015G23KT 10SM OVC050 M02/M09 A2981 1180 58 -500 260/15G23 RMK AO2
94908KDBQ DBQ20101126125012911/26/10 12:50:31  5-MIN KDBQ 261850Z 27014G23KT 10SM BKN050 OVC080 M02/M09 A2980 1190 60 -500 260/14G23 RMK AO2 SLP108 T10221089
94908KDBQ DBQ20101126125511211/26/10 12:55:31  5-MIN KDBQ 261855Z 27017G24KT 10SM BKN050 OVC080 M02/M09 A2980 1190 58 -500 270/17G24 RMK AO2
94908KDBQ DBQ20101126130011211/26/10 13:00:31  5-MIN KDBQ 261900Z 27018G25KT 10SM BKN050 OVC080 M02/M09 A2981 1180 55 -500 270/18G25 RMK AO2
94908KDBQ DBQ20101126130511211/26/10 13:05:31  5-MIN KDBQ 261905Z 27018G25KT 10SM BKN048 OVC080 M02/M09 A2981 1180 58 -500 270/18G25 RMK AO2
94908KDBQ DBQ20101126131011911/26/10 13:10:31  5-MIN KDBQ 261910Z 27019G25KT 10SM BKN048 BKN065 OVC080 M02/M09 A2981 1180 55 -500 270/19G25 RMK AO2
94908KDBQ DBQ20101126131511911/26/10 13:15:31  5-MIN KDBQ 261915Z 26015G25KT 10SM SCT048 BKN065 OVC080 M02/M09 A2981 1180 58 -500 260/15G25 RMK AO2
94908KDBQ DBQ20101126132011311/26/10 13:20:31  5-MIN KDBQ 261920Z 27016KT 10SM FEW046 BKN065 OVC080 M01/M09 A2981 1180 55 -400 270/16 RMK AO2
94908KDBQ DBQ20101126132513711/26/10 13:25:31  5-MIN KDBQ 261925Z 27019G26KT 10SM SCT048 BKN065 OVC080 M01/M09 A2981 1180 55 -400 270/19G26 RMK AO2 PK WND 28026/1924
94908KDBQ DBQ20101126133013711/26/10 13:30:31  5-MIN KDBQ 261930Z 27017G26KT 10SM SCT050 BKN065 OVC080 M01/M09 A2981 1180 55 -400 270/17G26 RMK AO2 PK WND 28026/1924
94908KDBQ DBQ20101126133513711/26/10 13:35:31  5-MIN KDBQ 261935Z 28020G25KT 10SM FEW035 BKN050 OVC080 M02/M08 A2981 1180 60 -500 280/20G25 RMK AO2 PK WND 28026/1924
94908KDBQ DBQ20101126134013711/26/10 13:40:31  5-MIN KDBQ 261940Z 27015G25KT 10SM SCT033 BKN050 OVC080 M02/M09 A2981 1180 58 -500 270/15G25 RMK AO2 PK WND 28026/1924
94908KDBQ DBQ20101126134513111/26/10 13:45:31  5-MIN KDBQ 261945Z 28015KT 10SM BKN033 BKN050 OVC080 M02/M08 A2981 1180 60 -500 280/15 RMK AO2 PK WND 28026/1924
94908KDBQ DBQ20101126135014111/26/10 13:50:31  5-MIN KDBQ 261950Z 28016KT 10SM BKN031 OVC050 M02/M08 A2981 1180 60 -500 280/16 RMK AO2 PK WND 28026/1924 SLP112 T10171083
94908KDBQ DBQ20101126135511211/26/10 13:55:31  5-MIN KDBQ 261955Z 29015G23KT 10SM BKN031 OVC050 M02/M08 A2981 1180 60 -500 280/15G23 RMK AO2
94908KDBQ DBQ20101126140011211/26/10 14:00:31  5-MIN KDBQ 262000Z 27016G23KT 10SM BKN029 OVC035 M02/M08 A2981 1180 60 -500 270/16G23 RMK AO2
94908KDBQ DBQ20101126140509911/26/10 14:05:31  5-MIN KDBQ 262005Z 28014KT 10SM OVC029 M02/M08 A2982 1180 63 -500 280/14 RMK AO2
94908KDBQ DBQ20101126141010511/26/10 14:10:31  5-MIN KDBQ 262010Z 27016G23KT 10SM OVC029 M02/M08 A2982 1170 63 -500 270/16G23 RMK AO2
94908KDBQ DBQ20101126141510511/26/10 14:15:31  5-MIN KDBQ 262015Z 28017G24KT 10SM OVC029 M02/M08 A2982 1170 63 -500 280/17G24 RMK AO2
94908KDBQ DBQ20101126142010511/26/10 14:20:31  5-MIN KDBQ 262020Z 28017G24KT 10SM OVC029 M02/M08 A2982 1170 63 -500 280/17G24 RMK AO2
94908KDBQ DBQ20101126142510511/26/10 14:25:31  5-MIN KDBQ 262025Z 28016G25KT 10SM OVC029 M02/M08 A2982 1170 63 -500 280/16G25 RMK AO2
94908KDBQ DBQ20101126143010511/26/10 14:30:31  5-MIN KDBQ 262030Z 28017G25KT 10SM OVC029 M02/M07 A2982 1170 66 -500 280/17G25 RMK AO2
94908KDBQ DBQ20101126143512311/26/10 14:35:31  5-MIN KDBQ 262035Z 28019G26KT 10SM OVC029 M02/M07 A2982 1170 66 -500 280/19G26 RMK AO2 PK WND 28026/2033
94908KDBQ DBQ20101126144012311/26/10 14:40:31  5-MIN KDBQ 262040Z 28017G26KT 10SM OVC029 M02/M07 A2982 1170 66 -500 280/17G26 RMK AO2 PK WND 28026/2033
94908KDBQ DBQ20101126144511711/26/10 14:45:31  5-MIN KDBQ 262045Z 28017KT 10SM OVC029 M02/M07 A2982 1170 66 -500 280/17 RMK AO2 PK WND 28026/2033
94908KDBQ DBQ20101126145015611/26/10 14:50:31  5-MIN KDBQ 262050Z AUTO 28020G29KT 10SM OVC027 M02/M07 A2982 1170 66 -500 280/20G29 RMK AO2 PK WND 29029/2047 SLP115 T10171072 58012 TSNO
94908KDBQ DBQ20101126145510511/26/10 14:55:31  5-MIN KDBQ 262055Z 28017G29KT 10SM OVC027 M02/M07 A2982 1170 66 -500 280/17G29 RMK AO2
94908KDBQ DBQ20101126150010511/26/10 15:00:31  5-MIN KDBQ 262100Z 28015G25KT 10SM OVC027 M02/M07 A2982 1170 66 -500 280/15G25 RMK AO2
94908KDBQ DBQ20101126150510511/26/10 15:05:31  5-MIN KDBQ 262105Z 27015G24KT 10SM OVC027 M02/M07 A2982 1170 69 -500 270/15G24 RMK AO2
94908KDBQ DBQ20101126151009911/26/10 15:10:31  5-MIN KDBQ 262110Z 27015KT 10SM OVC027 M02/M07 A2982 1170 69 -500 270/15 RMK AO2
94908KDBQ DBQ20101126151511211/26/10 15:15:31  5-MIN KDBQ 262115Z 28015G25KT 10SM BKN027 OVC039 M02/M07 A2982 1170 69 -500 280/15G25 RMK AO2
94908KDBQ DBQ20101126152011211/26/10 15:20:31  5-MIN KDBQ 262120Z 28016G25KT 10SM BKN027 OVC039 M02/M07 A2983 1160 69 -500 280/16G25 RMK AO2
94908KDBQ DBQ20101126152510611/26/10 15:25:31  5-MIN KDBQ 262125Z 28015KT 10SM BKN027 OVC039 M02/M07 A2983 1160 69 -500 280/15 RMK AO2
94908KDBQ DBQ20101126153010511/26/10 15:30:31  5-MIN KDBQ 262130Z 29014G21KT 10SM OVC027 M02/M07 A2983 1160 69 -500 280/14G21 RMK AO2
94908KDBQ DBQ20101126153510511/26/10 15:35:31  5-MIN KDBQ 262135Z 27016G21KT 10SM OVC025 M02/M07 A2983 1160 69 -500 270/16G21 RMK AO2
94908KDBQ DBQ20101126154010511/26/10 15:40:31  5-MIN KDBQ 262140Z 28016G24KT 10SM OVC025 M02/M07 A2983 1160 69 -500 280/16G24 RMK AO2
94908KDBQ DBQ20101126154512311/26/10 15:45:31  5-MIN KDBQ 262145Z 28018G26KT 10SM OVC025 M02/M07 A2983 1160 69 -500 280/18G26 RMK AO2 PK WND 29026/2145
94908KDBQ DBQ20101126155014011/26/10 15:50:31  5-MIN KDBQ 262150Z 28017G26KT 10SM OVC025 M02/M07 A2984 1160 69 -500 280/17G26 RMK AO2 PK WND 29026/2145 SLP120 T10171067
94908KDBQ DBQ20101126155510511/26/10 15:55:31  5-MIN KDBQ 262155Z 28015G24KT 10SM OVC025 M02/M06 A2984 1150 72 -500 280/15G24 RMK AO2
94908KDBQ DBQ20101126160010511/26/10 16:00:31  5-MIN KDBQ 262200Z 28015G20KT 10SM OVC025 M02/M06 A2984 1160 72 -500 280/15G20 RMK AO2
94908KDBQ DBQ20101126160510511/26/10 16:05:31  5-MIN KDBQ 262205Z 28014G20KT 10SM OVC025 M02/M06 A2984 1150 72 -500 280/14G20 RMK AO2
94908KDBQ DBQ20101126161009911/26/10 16:10:31  5-MIN KDBQ 262210Z 29013KT 10SM OVC025 M02/M06 A2984 1150 72 -500 280/13 RMK AO2
94908KDBQ DBQ20101126161510511/26/10 16:15:31  5-MIN KDBQ 262215Z 29011G18KT 10SM OVC025 M02/M06 A2984 1150 72 -500 290/11G18 RMK AO2
94908KDBQ DBQ20101126162010511/26/10 16:20:31  5-MIN KDBQ 262220Z 29012G18KT 10SM OVC025 M02/M06 A2984 1150 72 -500 280/12G18 RMK AO2
94908KDBQ DBQ20101126162509911/26/10 16:25:31  5-MIN KDBQ 262225Z 29012KT 10SM OVC025 M02/M06 A2985 1150 72 -500 290/12 RMK AO2
94908KDBQ DBQ20101126163009911/26/10 16:30:31  5-MIN KDBQ 262230Z 29013KT 10SM OVC025 M02/M06 A2985 1140 72 -500 290/13 RMK AO2
94908KDBQ DBQ20101126163510511/26/10 16:35:31  5-MIN KDBQ 262235Z 28010G18KT 10SM OVC025 M02/M06 A2985 1150 72 -500 280/10G18 RMK AO2
94908KDBQ DBQ20101126164010511/26/10 16:40:31  5-MIN KDBQ 262240Z 29013G18KT 10SM OVC025 M02/M06 A2985 1140 72 -500 280/13G18 RMK AO2
94908KDBQ DBQ20101126164509911/26/10 16:45:31  5-MIN KDBQ 262245Z 29011KT 10SM OVC025 M02/M06 A2985 1140 72 -500 290/11 RMK AO2
94908KDBQ DBQ20101126165011611/26/10 16:50:31  5-MIN KDBQ 262250Z 29011KT 10SM OVC025 M02/M06 A2985 1140 75 -500 290/11 RMK AO2 SLP127 T10171056
94908KDBQ DBQ20101126165509911/26/10 16:55:31  5-MIN KDBQ 262255Z 29011KT 10SM OVC023 M01/M06 A2986 1140 72 -500 290/11 RMK AO2
94908KDBQ DBQ20101126170010511/26/10 17:00:31  5-MIN KDBQ 262300Z 30013G18KT 10SM OVC023 M01/M06 A2986 1140 72 -500 300/13G18 RMK AO2
94908KDBQ DBQ20101126170509911/26/10 17:05:31  5-MIN KDBQ 262305Z 29011KT 10SM OVC023 M01/M06 A2986 1140 72 -500 290/11 RMK AO2
94908KDBQ DBQ20101126171009911/26/10 17:10:31  5-MIN KDBQ 262310Z 29012KT 10SM OVC023 M01/M06 A2986 1140 72 -500 290/12 RMK AO2
94908KDBQ DBQ20101126171509911/26/10 17:15:31  5-MIN KDBQ 262315Z 28011KT 10SM OVC023 M01/M06 A2986 1130 72 -500 280/11 RMK AO2
94908KDBQ DBQ20101126172009911/26/10 17:20:31  5-MIN KDBQ 262320Z 29011KT 10SM OVC023 M01/M06 A2986 1130 72 -500 290/11 RMK AO2
94908KDBQ DBQ20101126172510511/26/10 17:25:31  5-MIN KDBQ 262325Z 29014G19KT 10SM OVC023 M01/M06 A2986 1130 72 -500 290/14G19 RMK AO2
94908KDBQ DBQ20101126173010511/26/10 17:30:31  5-MIN KDBQ 262330Z 29013G19KT 10SM OVC023 M01/M06 A2986 1130 72 -500 290/13G19 RMK AO2
94908KDBQ DBQ20101126173509911/26/10 17:35:31  5-MIN KDBQ 262335Z 30013KT 10SM OVC023 M01/M06 A2986 1130 72 -500 300/13 RMK AO2
94908KDBQ DBQ20101126174010511/26/10 17:40:31  5-MIN KDBQ 262340Z 30010G21KT 10SM OVC023 M01/M06 A2987 1130 72 -500 300/10G21 RMK AO2
94908KDBQ DBQ20101126174510511/26/10 17:45:31  5-MIN KDBQ 262345Z 30014G21KT 10SM OVC023 M01/M06 A2987 1130 72 -500 300/14G21 RMK AO2
94908KDBQ DBQ20101126175014011/26/10 17:50:31  5-MIN KDBQ 262350Z 30013G25KT 10SM OVC023 M01/M06 A2987 1130 72 -500 300/13G25 RMK AO2 SLP131 T10111056 11011 21028 55000
94908KDBQ DBQ20101126175510511/26/10 17:55:31  5-MIN KDBQ 262355Z 30014G25KT 10SM OVC023 M01/M05 A2987 1130 75 -500 300/14G25 RMK AO2
94908KDBQ DBQ20101126180009911/26/10 18:00:31  5-MIN KDBQ 270000Z 30012KT 10SM OVC023 M01/M05 A2987 1130 75 -500 300/12 RMK AO2
94908KDBQ DBQ20101126180510511/26/10 18:05:31  5-MIN KDBQ 270005Z 30011G21KT 10SM OVC021 M01/M05 A2987 1130 75 -500 300/11G21 RMK AO2
94908KDBQ DBQ20101126181010511/26/10 18:10:31  5-MIN KDBQ 270010Z 30014G21KT 10SM OVC021 M01/M05 A2987 1130 75 -500 300/14G21 RMK AO2
94908KDBQ DBQ20101126181509911/26/10 18:15:31  5-MIN KDBQ 270015Z 31015KT 10SM OVC021 M01/M05 A2987 1130 75 -500 300/15 RMK AO2
94908KDBQ DBQ20101126182010511/26/10 18:20:31  5-MIN KDBQ 270020Z 30013G20KT 10SM OVC021 M01/M05 A2987 1130 75 -500 300/13G20 RMK AO2
94908KDBQ DBQ20101126182510511/26/10 18:25:31  5-MIN KDBQ 270025Z 30010G20KT 10SM OVC021 M01/M05 A2986 1130 75 -500 300/10G20 RMK AO2
94908KDBQ DBQ20101126183010511/26/10 18:30:31  5-MIN KDBQ 270030Z 30012G17KT 10SM OVC021 M01/M05 A2986 1130 75 -500 300/12G17 RMK AO2
94908KDBQ DBQ20101126183509911/26/10 18:35:31  5-MIN KDBQ 270035Z 30014KT 10SM OVC021 M01/M05 A2986 1130 75 -500 300/14 RMK AO2
94908KDBQ DBQ20101126184010511/26/10 18:40:31  5-MIN KDBQ 270040Z 30011G18KT 10SM OVC021 M01/M05 A2986 1130 75 -500 300/11G18 RMK AO2
94908KDBQ DBQ20101126184511211/26/10 18:45:31  5-MIN KDBQ 270045Z 30012G18KT 10SM BKN019 OVC049 M01/M05 A2986 1130 75 -500 300/12G18 RMK AO2
94908KDBQ DBQ20101126185012311/26/10 18:50:31  5-MIN KDBQ 270050Z 30013KT 10SM BKN019 OVC049 M01/M05 A2986 1130 75 -500 290/13 RMK AO2 SLP129 T10111050
94908KDBQ DBQ20101126185511311/26/10 18:55:31  5-MIN KDBQ 270055Z 30014KT 10SM SCT019 SCT026 OVC049 M01/M05 A2987 1130 75 -500 300/14 RMK AO2
94908KDBQ DBQ20101126190011911/26/10 19:00:31  5-MIN KDBQ 270100Z 30017G24KT 10SM FEW021 SCT026 OVC047 M01/M05 A2986 1130 75 -500 300/17G24 RMK AO2
94908KDBQ DBQ20101126190511211/26/10 19:05:31  5-MIN KDBQ 270105Z 30013G24KT 10SM FEW023 OVC047 M01/M05 A2986 1130 75 -500 300/13G24 RMK AO2
94908KDBQ DBQ20101126191011311/26/10 19:10:31  5-MIN KDBQ 270110Z 29015KT 10SM FEW021 SCT027 OVC047 M01/M05 A2986 1130 75 -500 290/15 RMK AO2
94908KDBQ DBQ20101126191511911/26/10 19:15:31  5-MIN KDBQ 270115Z 29014G21KT 10SM FEW021 SCT027 OVC047 M01/M05 A2987 1130 75 -500 290/14G21 RMK AO2
94908KDBQ DBQ20101126192011211/26/10 19:20:31  5-MIN KDBQ 270120Z 29016G23KT 10SM SCT021 OVC047 M01/M05 A2987 1130 75 -500 290/16G23 RMK AO2
94908KDBQ DBQ20101126192511211/26/10 19:25:31  5-MIN KDBQ 270125Z 30013G23KT 10SM SCT023 OVC047 M01/M05 A2987 1130 75 -500 290/13G23 RMK AO2
94908KDBQ DBQ20101126193011211/26/10 19:30:31  5-MIN KDBQ 270130Z 30016G21KT 10SM SCT023 OVC045 M01/M06 A2987 1130 72 -500 290/16G21 RMK AO2
94908KDBQ DBQ20101126193511211/26/10 19:35:31  5-MIN KDBQ 270135Z 30018G23KT 10SM FEW023 OVC045 M01/M06 A2987 1120 72 -500 300/18G23 RMK AO2
94908KDBQ DBQ20101126194011211/26/10 19:40:31  5-MIN KDBQ 270140Z 30017G23KT 10SM FEW023 OVC043 M02/M06 A2987 1120 75 -600 300/17G23 RMK AO2
94908KDBQ DBQ20101126194511211/26/10 19:45:31  5-MIN KDBQ 270145Z 30016G23KT 10SM FEW023 OVC043 M02/M06 A2987 1130 75 -600 300/16G23 RMK AO2
94908KDBQ DBQ20101126195012211/26/10 19:50:31  5-MIN KDBQ 270150Z 30013G23KT 10SM OVC041 M02/M06 A2987 1120 75 -600 300/13G23 RMK AO2 SLP131 T10171056
94908KDBQ DBQ20101126195511011/26/10 19:55:31  5-MIN KDBQ 270155Z AUTO 30016G22KT 10SM OVC039 M02/M06 A2987 1120 75 -600 300/16G22 RMK AO2
94908KDBQ DBQ20101126200011011/26/10 20:00:31  5-MIN KDBQ 270200Z AUTO 30015G22KT 10SM OVC039 M02/M06 A2987 1120 72 -600 300/15G22 RMK AO2
94908KDBQ DBQ20101126200510411/26/10 20:05:31  5-MIN KDBQ 270205Z AUTO 30016KT 10SM OVC039 M02/M06 A2987 1120 72 -600 300/16 RMK AO2
94908KDBQ DBQ20101126201010411/26/10 20:10:31  5-MIN KDBQ 270210Z AUTO 30014KT 10SM OVC039 M02/M06 A2987 1120 72 -600 300/14 RMK AO2
94908KDBQ DBQ20101126201510411/26/10 20:15:31  5-MIN KDBQ 270215Z AUTO 30013KT 10SM OVC039 M02/M06 A2987 1120 72 -600 300/13 RMK AO2
94908KDBQ DBQ20101126202010411/26/10 20:20:31  5-MIN KDBQ 270220Z AUTO 30012KT 10SM OVC037 M02/M06 A2987 1120 72 -600 300/12 RMK AO2
94908KDBQ DBQ20101126202510411/26/10 20:25:31  5-MIN KDBQ 270225Z AUTO 31013KT 10SM OVC037 M02/M07 A2988 1120 69 -600 310/13 RMK AO2
94908KDBQ DBQ20101126203010411/26/10 20:30:31  5-MIN KDBQ 270230Z AUTO 31012KT 10SM OVC035 M02/M07 A2988 1120 69 -600 310/12 RMK AO2
94908KDBQ DBQ20101126203510411/26/10 20:35:31  5-MIN KDBQ 270235Z AUTO 31012KT 10SM OVC035 M02/M07 A2988 1110 69 -600 310/12 RMK AO2
94908KDBQ DBQ20101126204010411/26/10 20:40:31  5-MIN KDBQ 270240Z AUTO 30014KT 10SM OVC033 M02/M07 A2989 1110 69 -600 300/14 RMK AO2
94908KDBQ DBQ20101126204512811/26/10 20:45:31  5-MIN KDBQ 270245Z AUTO 30015G26KT 10SM OVC033 M02/M07 A2989 1110 66 -600 300/15G26 RMK AO2 PK WND 30026/0241
94908KDBQ DBQ20101126205015111/26/10 20:50:31  5-MIN KDBQ 270250Z AUTO 31015G26KT 10SM BKN031 M02/M07 A2989 1110 69 -600 310/15G26 RMK AO2 PK WND 30026/0241 SLP135 T10221072 51016
94908KDBQ DBQ20101126205511011/26/10 20:55:31  5-MIN KDBQ 270255Z AUTO 31012G21KT 10SM BKN031 M02/M07 A2989 1110 69 -600 310/12G21 RMK AO2
94908KDBQ DBQ20101126210011011/26/10 21:00:31  5-MIN KDBQ 270300Z AUTO 30012G19KT 10SM BKN031 M02/M07 A2989 1100 69 -600 300/12G19 RMK AO2
94908KDBQ DBQ20101126210510411/26/10 21:05:31  5-MIN KDBQ 270305Z AUTO 31016KT 10SM BKN029 M02/M07 A2990 1100 69 -700 300/16 RMK AO2
94908KDBQ DBQ20101126211010411/26/10 21:10:31  5-MIN KDBQ 270310Z AUTO 31013KT 10SM BKN029 M02/M07 A2990 1100 69 -700 310/13 RMK AO2
94908KDBQ DBQ20101126211510411/26/10 21:15:31  5-MIN KDBQ 270315Z AUTO 31015KT 10SM BKN029 M02/M07 A2990 1100 69 -700 300/15 RMK AO2
94908KDBQ DBQ20101126212011011/26/10 21:20:31  5-MIN KDBQ 270320Z AUTO 30016G21KT 10SM SCT027 M03/M08 A2990 1100 68 -700 300/16G21 RMK AO2
94908KDBQ DBQ20101126212511011/26/10 21:25:31  5-MIN KDBQ 270325Z AUTO 30016G21KT 10SM SCT027 M03/M08 A2990 1100 68 -700 300/16G21 RMK AO2
94908KDBQ DBQ20101126213011011/26/10 21:30:31  5-MIN KDBQ 270330Z AUTO 31014G21KT 10SM FEW027 M03/M08 A2990 1100 68 -700 310/14G21 RMK AO2
94908KDBQ DBQ20101126213511011/26/10 21:35:31  5-MIN KDBQ 270335Z AUTO 31012G19KT 10SM FEW027 M03/M08 A2990 1100 71 -800 300/12G19 RMK AO2
94908KDBQ DBQ20101126214010411/26/10 21:40:31  5-MIN KDBQ 270340Z AUTO 31012KT 10SM FEW027 M03/M08 A2990 1100 71 -800 310/12 RMK AO2
94908KDBQ DBQ20101126214510111/26/10 21:45:31  5-MIN KDBQ 270345Z AUTO 30013KT 10SM CLR M03/M08 A2990 1100 71 -800 300/13 RMK AO2
94908KDBQ DBQ20101126215011811/26/10 21:50:31  5-MIN KDBQ 270350Z AUTO 30011KT 10SM CLR M03/M08 A2990 1100 71 -800 300/11 RMK AO2 SLP141 T10331078
94908KDBQ DBQ20101126215510111/26/10 21:55:31  5-MIN KDBQ 270355Z AUTO 31011KT 10SM CLR M03/M08 A2990 1090 71 -800 310/11 RMK AO2
94908KDBQ DBQ20101126220010111/26/10 22:00:31  5-MIN KDBQ 270400Z AUTO 31009KT 10SM CLR M03/M08 A2991 1090 71 -800 310/09 RMK AO2
94908KDBQ DBQ20101126220510111/26/10 22:05:31  5-MIN KDBQ 270405Z AUTO 31010KT 10SM CLR M04/M08 A2991 1090 71 -900 310/10 RMK AO2
94908KDBQ DBQ20101126221010111/26/10 22:10:31  5-MIN KDBQ 270410Z AUTO 31010KT 10SM CLR M04/M08 A2991 1090 71 -900 310/10 RMK AO2
94908KDBQ DBQ20101126221510111/26/10 22:15:31  5-MIN KDBQ 270415Z AUTO 30009KT 10SM CLR M04/M08 A2991 1090 71 -900 300/09 RMK AO2
94908KDBQ DBQ20101126222010111/26/10 22:20:31  5-MIN KDBQ 270420Z AUTO 31011KT 10SM CLR M04/M09 A2991 1090 68 -900 300/11 RMK AO2
94908KDBQ DBQ20101126222510111/26/10 22:25:31  5-MIN KDBQ 270425Z AUTO 31011KT 10SM CLR M04/M08 A2991 1090 71 -900 310/11 RMK AO2
94908KDBQ DBQ20101126223010211/26/10 22:30:31  5-MIN KDBQ 270430Z AUTO 30009KT 10SM CLR M04/M09 A2991 1080 71 -1000 300/09 RMK AO2
94908KDBQ DBQ20101126223510211/26/10 22:35:31  5-MIN KDBQ 270435Z AUTO 30010KT 10SM CLR M04/M09 A2992 1080 71 -1000 300/10 RMK AO2
94908KDBQ DBQ20101126224010211/26/10 22:40:31  5-MIN KDBQ 270440Z AUTO 31012KT 10SM CLR M04/M09 A2992 1080 71 -1000 310/12 RMK AO2
94908KDBQ DBQ20101126224510211/26/10 22:45:31  5-MIN KDBQ 270445Z AUTO 31009KT 10SM CLR M04/M09 A2992 1080 68 -1000 310/09 RMK AO2
94908KDBQ DBQ20101126225011911/26/10 22:50:31  5-MIN KDBQ 270450Z AUTO 32010KT 10SM CLR M04/M10 A2992 1080 65 -1000 320/10 RMK AO2 SLP147 T10441100
94908KDBQ DBQ20101126225510211/26/10 22:55:31  5-MIN KDBQ 270455Z AUTO 32010KT 10SM CLR M04/M10 A2992 1080 65 -1000 320/10 RMK AO2
94908KDBQ DBQ20101126230010211/26/10 23:00:31  5-MIN KDBQ 270500Z AUTO 32009KT 10SM CLR M05/M10 A2992 1080 68 -1000 320/09 RMK AO2
94908KDBQ DBQ20101126230510211/26/10 23:05:31  5-MIN KDBQ 270505Z AUTO 32008KT 10SM CLR M05/M10 A2992 1080 68 -1000 310/08 RMK AO2
94908KDBQ DBQ20101126231010211/26/10 23:10:31  5-MIN KDBQ 270510Z AUTO 32007KT 10SM CLR M05/M09 A2992 1080 71 -1000 310/07 RMK AO2
94908KDBQ DBQ20101126231510211/26/10 23:15:31  5-MIN KDBQ 270515Z AUTO 31008KT 10SM CLR M06/M09 A2992 1080 74 -1100 310/08 RMK AO2
94908KDBQ DBQ20101126232010211/26/10 23:20:31  5-MIN KDBQ 270520Z AUTO 31008KT 10SM CLR M06/M09 A2992 1080 74 -1100 310/08 RMK AO2
94908KDBQ DBQ20101126232510211/26/10 23:25:31  5-MIN KDBQ 270525Z AUTO 31009KT 10SM CLR M06/M09 A2992 1070 74 -1100 310/09 RMK AO2
94908KDBQ DBQ20101126233010211/26/10 23:30:31  5-MIN KDBQ 270530Z AUTO 31010KT 10SM CLR M05/M09 A2993 1070 71 -1000 310/10 RMK AO2
94908KDBQ DBQ20101126233510211/26/10 23:35:31  5-MIN KDBQ 270535Z AUTO 31009KT 10SM CLR M06/M09 A2993 1070 74 -1100 310/09 RMK AO2
94908KDBQ DBQ20101126234010211/26/10 23:40:31  5-MIN KDBQ 270540Z AUTO 30009KT 10SM CLR M06/M09 A2993 1070 74 -1100 300/09 RMK AO2
94908KDBQ DBQ20101126234510211/26/10 23:45:31  5-MIN KDBQ 270545Z AUTO 30008KT 10SM CLR M06/M09 A2993 1070 74 -1100 300/08 RMK AO2
94908KDBQ DBQ20101126235014711/26/10 23:50:31  5-MIN KDBQ 270550Z AUTO 30007KT 10SM CLR M06/M09 A2993 1070 74 -1100 300/07 RMK AO2 SLP152 T10561094 11011 21056 410111094 53006
94908KDBQ DBQ20101126235510211/26/10 23:55:31  5-MIN KDBQ 270555Z AUTO 31006KT 10SM CLR M06/M09 A2993 1070 74 -1100 310/06 RMK AO2
94908KDBQ DBQ20101127000010211/27/10 00:00:38  5-MIN KDBQ 270600Z AUTO 31006KT 10SM CLR M06/M09 A2993 1070 74 -1100 310/06 RMK AO2
94908KDBQ DBQ20101127000510211/27/10 00:05:31  5-MIN KDBQ 270605Z AUTO 30005KT 10SM CLR M06/M09 A2993 1070 77 -1200 300/05 RMK AO2
94908KDBQ DBQ20101127001010211/27/10 00:10:31  5-MIN KDBQ 270610Z AUTO 29005KT 10SM CLR M06/M09 A2993 1070 77 -1200 290/05 RMK AO2
94908KDBQ DBQ20101127001510211/27/10 00:15:32  5-MIN KDBQ 270615Z AUTO 28006KT 10SM CLR M07/M09 A2993 1070 81 -1300 280/06 RMK AO2
94908KDBQ DBQ20101127002010211/27/10 00:20:31  5-MIN KDBQ 270620Z AUTO 28008KT 10SM CLR M06/M09 A2993 1070 77 -1200 280/08 RMK AO2
94908KDBQ DBQ20101127002510211/27/10 00:25:31  5-MIN KDBQ 270625Z AUTO 27007KT 10SM CLR M06/M09 A2994 1060 77 -1200 270/07 RMK AO2
94908KDBQ DBQ20101127003010211/27/10 00:30:31  5-MIN KDBQ 270630Z AUTO 28008KT 10SM CLR M06/M09 A2993 1070 77 -1200 280/08 RMK AO2
94908KDBQ DBQ20101127003510211/27/10 00:35:31  5-MIN KDBQ 270635Z AUTO 28008KT 10SM CLR M06/M09 A2993 1070 77 -1200 280/08 RMK AO2
94908KDBQ DBQ20101127004010211/27/10 00:40:31  5-MIN KDBQ 270640Z AUTO 29009KT 10SM CLR M06/M09 A2994 1060 77 -1200 290/09 RMK AO2
94908KDBQ DBQ20101127004510211/27/10 00:45:31  5-MIN KDBQ 270645Z AUTO 29009KT 10SM CLR M06/M09 A2994 1060 77 -1200 290/09 RMK AO2
94908KDBQ DBQ20101127005011911/27/10 00:50:31  5-MIN KDBQ 270650Z AUTO 29008KT 10SM CLR M06/M09 A2994 1060 77 -1200 290/08 RMK AO2 SLP154 T10611094
94908KDBQ DBQ20101127005510211/27/10 00:55:31  5-MIN KDBQ 270655Z AUTO 29008KT 10SM CLR M06/M10 A2994 1060 74 -1200 290/08 RMK AO2
94908KDBQ DBQ20101127010010211/27/10 01:00:31  5-MIN KDBQ 270700Z AUTO 29009KT 10SM CLR M06/M10 A2994 1060 74 -1200 290/09 RMK AO2
94908KDBQ DBQ20101127010510811/27/10 01:05:31  5-MIN KDBQ 270705Z AUTO 29009G16KT 10SM CLR M06/M10 A2994 1060 74 -1200 290/09G16 RMK AO2
94908KDBQ DBQ20101127011010211/27/10 01:10:31  5-MIN KDBQ 270710Z AUTO 29009KT 10SM CLR M06/M10 A2994 1060 74 -1200 290/09 RMK AO2
94908KDBQ DBQ20101127011510211/27/10 01:15:31  5-MIN KDBQ 270715Z AUTO 30009KT 10SM CLR M06/M10 A2994 1060 74 -1200 300/09 RMK AO2
94908KDBQ DBQ20101127012010211/27/10 01:20:31  5-MIN KDBQ 270720Z AUTO 30008KT 10SM CLR M07/M10 A2994 1060 77 -1300 300/08 RMK AO2
94908KDBQ DBQ20101127012510211/27/10 01:25:31  5-MIN KDBQ 270725Z AUTO 29008KT 10SM CLR M07/M10 A2994 1060 77 -1300 290/08 RMK AO2
94908KDBQ DBQ20101127013010211/27/10 01:30:31  5-MIN KDBQ 270730Z AUTO 29008KT 10SM CLR M07/M10 A2994 1060 77 -1300 290/08 RMK AO2
94908KDBQ DBQ20101127013510211/27/10 01:35:31  5-MIN KDBQ 270735Z AUTO 29010KT 10SM CLR M07/M10 A2994 1060 77 -1300 290/10 RMK AO2
94908KDBQ DBQ20101127014010211/27/10 01:40:31  5-MIN KDBQ 270740Z AUTO 29009KT 10SM CLR M07/M10 A2994 1060 77 -1300 290/09 RMK AO2
94908KDBQ DBQ20101127014510211/27/10 01:45:31  5-MIN KDBQ 270745Z AUTO 29011KT 10SM CLR M07/M10 A2994 1060 77 -1300 290/11 RMK AO2
94908KDBQ DBQ20101127015011911/27/10 01:50:31  5-MIN KDBQ 270750Z AUTO 30009KT 10SM CLR M07/M10 A2994 1060 77 -1300 290/09 RMK AO2 SLP156 T10671100
94908KDBQ DBQ20101127015510211/27/10 01:55:31  5-MIN KDBQ 270755Z AUTO 29008KT 10SM CLR M07/M10 A2995 1050 77 -1300 290/08 RMK AO2
94908KDBQ DBQ20101127020010211/27/10 02:00:31  5-MIN KDBQ 270800Z AUTO 29009KT 10SM CLR M07/M10 A2995 1050 77 -1300 290/09 RMK AO2
94908KDBQ DBQ20101127020510211/27/10 02:05:31  5-MIN KDBQ 270805Z AUTO 29009KT 10SM CLR M07/M10 A2995 1050 77 -1300 290/09 RMK AO2
94908KDBQ DBQ20101127021010211/27/10 02:10:31  5-MIN KDBQ 270810Z AUTO 29010KT 10SM CLR M07/M11 A2995 1050 74 -1300 290/10 RMK AO2
94908KDBQ DBQ20101127021510811/27/10 02:15:31  5-MIN KDBQ 270815Z AUTO 28009G17KT 10SM CLR M07/M11 A2995 1050 74 -1300 280/09G17 RMK AO2
94908KDBQ DBQ20101127022010811/27/10 02:20:31  5-MIN KDBQ 270820Z AUTO 29008G17KT 10SM CLR M07/M11 A2996 1050 74 -1300 290/08G17 RMK AO2
94908KDBQ DBQ20101127022510211/27/10 02:25:31  5-MIN KDBQ 270825Z AUTO 30006KT 10SM CLR M07/M11 A2996 1040 77 -1400 300/06 RMK AO2
94908KDBQ DBQ20101127023010211/27/10 02:30:31  5-MIN KDBQ 270830Z AUTO 29007KT 10SM CLR M07/M11 A2996 1040 77 -1400 290/07 RMK AO2
94908KDBQ DBQ20101127023510211/27/10 02:35:31  5-MIN KDBQ 270835Z AUTO 30007KT 10SM CLR M07/M11 A2996 1040 77 -1400 290/07 RMK AO2
94908KDBQ DBQ20101127024010211/27/10 02:40:31  5-MIN KDBQ 270840Z AUTO 29007KT 10SM CLR M07/M11 A2996 1040 77 -1400 290/07 RMK AO2
94908KDBQ DBQ20101127024510211/27/10 02:45:31  5-MIN KDBQ 270845Z AUTO 29007KT 10SM CLR M07/M11 A2997 1030 77 -1400 290/07 RMK AO2
94908KDBQ DBQ20101127025012511/27/10 02:50:31  5-MIN KDBQ 270850Z AUTO 29007KT 10SM CLR M07/M11 A2997 1030 74 -1400 290/07 RMK AO2 SLP164 T10721111 51015
94908KDBQ DBQ20101127025510211/27/10 02:55:31  5-MIN KDBQ 270855Z AUTO 29007KT 10SM CLR M07/M11 A2997 1030 74 -1400 290/07 RMK AO2
94908KDBQ DBQ20101127030010211/27/10 03:00:31  5-MIN KDBQ 270900Z AUTO 30008KT 10SM CLR M07/M11 A2998 1030 74 -1400 300/08 RMK AO2
94908KDBQ DBQ20101127030510211/27/10 03:05:31  5-MIN KDBQ 270905Z AUTO 30009KT 10SM CLR M07/M11 A2998 1030 74 -1400 300/09 RMK AO2
94908KDBQ DBQ20101127031010211/27/10 03:10:31  5-MIN KDBQ 270910Z AUTO 30008KT 10SM CLR M07/M11 A2997 1030 74 -1400 290/08 RMK AO2
94908KDBQ DBQ20101127031510211/27/10 03:15:31  5-MIN KDBQ 270915Z AUTO 29009KT 10SM CLR M07/M11 A2998 1030 74 -1400 290/09 RMK AO2
94908KDBQ DBQ20101127032010211/27/10 03:20:31  5-MIN KDBQ 270920Z AUTO 29009KT 10SM CLR M07/M11 A2998 1030 74 -1400 290/09 RMK AO2
94908KDBQ DBQ20101127032510211/27/10 03:25:31  5-MIN KDBQ 270925Z AUTO 28010KT 10SM CLR M07/M11 A2998 1030 74 -1400 280/10 RMK AO2
94908KDBQ DBQ20101127033010211/27/10 03:30:31  5-MIN KDBQ 270930Z AUTO 28009KT 10SM CLR M07/M11 A2998 1020 74 -1400 280/09 RMK AO2
94908KDBQ DBQ20101127033510211/27/10 03:35:31  5-MIN KDBQ 270935Z AUTO 29010KT 10SM CLR M07/M12 A2998 1020 71 -1400 290/10 RMK AO2
94908KDBQ DBQ20101127034010211/27/10 03:40:31  5-MIN KDBQ 270940Z AUTO 29010KT 10SM CLR M07/M12 A2998 1020 71 -1400 290/10 RMK AO2
94908KDBQ DBQ20101127034510211/27/10 03:45:31  5-MIN KDBQ 270945Z AUTO 29011KT 10SM CLR M07/M12 A2999 1020 71 -1400 290/11 RMK AO2
94908KDBQ DBQ20101127035011911/27/10 03:50:31  5-MIN KDBQ 270950Z AUTO 29012KT 10SM CLR M07/M12 A2999 1020 71 -1400 290/12 RMK AO2 SLP170 T10721117
94908KDBQ DBQ20101127035510211/27/10 03:55:31  5-MIN KDBQ 270955Z AUTO 29010KT 10SM CLR M07/M12 A2999 1010 71 -1400 290/10 RMK AO2
94908KDBQ DBQ20101127040010211/27/10 04:00:31  5-MIN KDBQ 271000Z AUTO 29010KT 10SM CLR M07/M12 A2999 1010 71 -1400 290/10 RMK AO2
94908KDBQ DBQ20101127040510211/27/10 04:05:31  5-MIN KDBQ 271005Z AUTO 29009KT 10SM CLR M07/M11 A2999 1010 74 -1400 290/09 RMK AO2
94908KDBQ DBQ20101127041010211/27/10 04:10:31  5-MIN KDBQ 271010Z AUTO 30009KT 10SM CLR M08/M11 A2999 1010 77 -1500 300/09 RMK AO2
94908KDBQ DBQ20101127041510211/27/10 04:15:31  5-MIN KDBQ 271015Z AUTO 30011KT 10SM CLR M07/M11 A2999 1010 74 -1400 300/11 RMK AO2
94908KDBQ DBQ20101127042010211/27/10 04:20:31  5-MIN KDBQ 271020Z AUTO 30011KT 10SM CLR M08/M11 A2999 1020 77 -1500 290/11 RMK AO2
94908KDBQ DBQ20101127042510811/27/10 04:25:31  5-MIN KDBQ 271025Z AUTO 29013G20KT 10SM CLR M08/M11 A2998 1020 77 -1500 290/13G20 RMK AO2
94908KDBQ DBQ20101127043010811/27/10 04:30:31  5-MIN KDBQ 271030Z AUTO 29013G20KT 10SM CLR M08/M11 A2998 1020 77 -1500 290/13G20 RMK AO2
94908KDBQ DBQ20101127043510211/27/10 04:35:31  5-MIN KDBQ 271035Z AUTO 30011KT 10SM CLR M08/M11 A2999 1020 77 -1500 300/11 RMK AO2
94908KDBQ DBQ20101127044010211/27/10 04:40:31  5-MIN KDBQ 271040Z AUTO 30012KT 10SM CLR M08/M11 A2999 1020 77 -1500 300/12 RMK AO2
94908KDBQ DBQ20101127044510211/27/10 04:45:31  5-MIN KDBQ 271045Z AUTO 31009KT 10SM CLR M08/M12 A2999 1020 74 -1500 310/09 RMK AO2
94908KDBQ DBQ20101127045011911/27/10 04:50:31  5-MIN KDBQ 271050Z AUTO 31008KT 10SM CLR M08/M12 A2999 1020 74 -1500 310/08 RMK AO2 SLP170 T10781117
94908KDBQ DBQ20101127045510211/27/10 04:55:31  5-MIN KDBQ 271055Z AUTO 31009KT 10SM CLR M08/M12 A2999 1020 74 -1500 310/09 RMK AO2
94908KDBQ DBQ20101127050010211/27/10 05:00:31  5-MIN KDBQ 271100Z AUTO 31009KT 10SM CLR M08/M12 A2998 1020 74 -1500 310/09 RMK AO2
94908KDBQ DBQ20101127050510211/27/10 05:05:31  5-MIN KDBQ 271105Z AUTO 31008KT 10SM CLR M08/M12 A2998 1020 74 -1500 300/08 RMK AO2
94908KDBQ DBQ20101127051010211/27/10 05:10:31  5-MIN KDBQ 271110Z AUTO 30008KT 10SM CLR M08/M12 A2999 1020 74 -1500 300/08 RMK AO2
94908KDBQ DBQ20101127051510211/27/10 05:15:31  5-MIN KDBQ 271115Z AUTO 30009KT 10SM CLR M08/M12 A2999 1020 74 -1500 300/09 RMK AO2
94908KDBQ DBQ20101127052010211/27/10 05:20:31  5-MIN KDBQ 271120Z AUTO 29010KT 10SM CLR M08/M12 A2999 1010 74 -1500 290/10 RMK AO2
94908KDBQ DBQ20101127052510211/27/10 05:25:31  5-MIN KDBQ 271125Z AUTO 30009KT 10SM CLR M08/M12 A2999 1010 74 -1500 300/09 RMK AO2
94908KDBQ DBQ20101127053010211/27/10 05:30:31  5-MIN KDBQ 271130Z AUTO 30009KT 10SM CLR M08/M12 A2999 1010 74 -1500 300/09 RMK AO2
94908KDBQ DBQ20101127053510211/27/10 05:35:31  5-MIN KDBQ 271135Z AUTO 29009KT 10SM CLR M08/M12 A3000 1010 74 -1500 290/09 RMK AO2
94908KDBQ DBQ20101127054010211/27/10 05:40:31  5-MIN KDBQ 271140Z AUTO 30009KT 10SM CLR M08/M12 A2999 1010 77 -1500 300/09 RMK AO2
94908KDBQ DBQ20101127054510211/27/10 05:45:31  5-MIN KDBQ 271145Z AUTO 29010KT 10SM CLR M08/M12 A3000 1010 74 -1500 290/10 RMK AO2
94908KDBQ DBQ20101127055013711/27/10 05:50:31  5-MIN KDBQ 271150Z AUTO 29009KT 10SM CLR M08/M12 A2999 1010 74 -1500 290/09 RMK AO2 SLP173 T10781117 11056 21083 53012
94908KDBQ DBQ20101127055509711/27/10 05:55:31  5-MIN KDBQ 271155Z 28008KT 10SM CLR M08/M12 A3000 1010 74 -1500 280/08 RMK AO2
94908KDBQ DBQ20101127060009711/27/10 06:00:31  5-MIN KDBQ 271200Z 28010KT 10SM CLR M08/M12 A3000 1000 74 -1500 280/10 RMK AO2
94908KDBQ DBQ20101127060510311/27/10 06:05:31  5-MIN KDBQ 271205Z 28010G17KT 10SM CLR M08/M12 A3000 1000 77 -1600 280/10G17 RMK AO2
94908KDBQ DBQ20101127061010311/27/10 06:10:31  5-MIN KDBQ 271210Z 29009G17KT 10SM CLR M08/M12 A3000 1000 77 -1600 290/09G17 RMK AO2
94908KDBQ DBQ20101127061510311/27/10 06:15:31  5-MIN KDBQ 271215Z 28009G17KT 10SM CLR M08/M12 A3001 1000 77 -1600 280/09G17 RMK AO2
94908KDBQ DBQ20101127062009711/27/10 06:20:31  5-MIN KDBQ 271220Z 28008KT 10SM CLR M08/M12 A3001 1000 77 -1600 280/08 RMK AO2
94908KDBQ DBQ20101127062509611/27/10 06:25:31  5-MIN KDBQ 271225Z 28007KT 10SM CLR M08/M12 A3001 990 77 -1600 280/07 RMK AO2
94908KDBQ DBQ20101127063009611/27/10 06:30:31  5-MIN KDBQ 271230Z 27007KT 10SM CLR M08/M12 A3001 990 77 -1600 270/07 RMK AO2
94908KDBQ DBQ20101127063509611/27/10 06:35:31  5-MIN KDBQ 271235Z 27006KT 10SM CLR M08/M12 A3002 990 77 -1600 270/06 RMK AO2
94908KDBQ DBQ20101127064009611/27/10 06:40:31  5-MIN KDBQ 271240Z 28008KT 10SM CLR M08/M12 A3002 990 77 -1600 280/08 RMK AO2
94908KDBQ DBQ20101127064509611/27/10 06:45:31  5-MIN KDBQ 271245Z 28008KT 10SM CLR M08/M12 A3002 990 77 -1600 280/08 RMK AO2
94908KDBQ DBQ20101127065011311/27/10 06:50:31  5-MIN KDBQ 271250Z 29008KT 10SM CLR M08/M12 A3002 990 77 -1600 290/08 RMK AO2 SLP181 T10831117
94908KDBQ DBQ20101127065509611/27/10 06:55:31  5-MIN KDBQ 271255Z 29009KT 10SM CLR M08/M12 A3002 980 77 -1600 290/09 RMK AO2
94908KDBQ DBQ20101127070009611/27/10 07:00:31  5-MIN KDBQ 271300Z 28007KT 10SM CLR M08/M12 A3002 980 77 -1600 280/07 RMK AO2
94908KDBQ DBQ20101127070509611/27/10 07:05:31  5-MIN KDBQ 271305Z 28007KT 10SM CLR M08/M12 A3003 980 77 -1600 280/07 RMK AO2
94908KDBQ DBQ20101127071009611/27/10 07:10:31  5-MIN KDBQ 271310Z 28008KT 10SM CLR M08/M12 A3003 980 77 -1600 280/08 RMK AO2
94908KDBQ DBQ20101127071509611/27/10 07:15:31  5-MIN KDBQ 271315Z 28009KT 10SM CLR M08/M12 A3003 980 77 -1600 280/09 RMK AO2
94908KDBQ DBQ20101127072009611/27/10 07:20:31  5-MIN KDBQ 271320Z 28007KT 10SM CLR M08/M12 A3003 970 77 -1600 280/07 RMK AO2
94908KDBQ DBQ20101127072509611/27/10 07:25:31  5-MIN KDBQ 271325Z 28008KT 10SM CLR M08/M12 A3004 970 77 -1600 280/08 RMK AO2
94908KDBQ DBQ20101127073009611/27/10 07:30:31  5-MIN KDBQ 271330Z 28008KT 10SM CLR M08/M12 A3004 970 77 -1600 280/08 RMK AO2
94908KDBQ DBQ20101127073509611/27/10 07:35:31  5-MIN KDBQ 271335Z 28009KT 10SM CLR M08/M12 A3004 970 74 -1500 280/09 RMK AO2
94908KDBQ DBQ20101127074009611/27/10 07:40:31  5-MIN KDBQ 271340Z 28010KT 10SM CLR M08/M12 A3004 960 74 -1500 280/10 RMK AO2
94908KDBQ DBQ20101127074510211/27/10 07:45:31  5-MIN KDBQ 271345Z 28008G15KT 10SM CLR M08/M12 A3005 960 74 -1500 280/08G15 RMK AO2
94908KDBQ DBQ20101127075011911/27/10 07:50:31  5-MIN KDBQ 271350Z 29009G15KT 10SM CLR M08/M12 A3005 960 74 -1500 290/09G15 RMK AO2 SLP191 T10781117
94908KDBQ DBQ20101127075509611/27/10 07:55:31  5-MIN KDBQ 271355Z 29008KT 10SM CLR M07/M11 A3005 960 74 -1500 290/08 RMK AO2
94908KDBQ DBQ20101127080010211/27/10 08:00:31  5-MIN KDBQ 271400Z 29009G16KT 10SM CLR M07/M11 A3005 950 74 -1500 290/09G16 RMK AO2
94908KDBQ DBQ20101127080510211/27/10 08:05:31  5-MIN KDBQ 271405Z 29007G16KT 10SM CLR M07/M11 A3006 950 74 -1500 290/07G16 RMK AO2
94908KDBQ DBQ20101127081009611/27/10 08:10:31  5-MIN KDBQ 271410Z 29007KT 10SM CLR M07/M11 A3006 950 74 -1500 290/07 RMK AO2
94908KDBQ DBQ20101127081509611/27/10 08:15:31  5-MIN KDBQ 271415Z 28007KT 10SM CLR M07/M11 A3006 950 71 -1400 280/07 RMK AO2
94908KDBQ DBQ20101127082009611/27/10 08:20:31  5-MIN KDBQ 271420Z 29006KT 10SM CLR M07/M11 A3006 950 71 -1400 290/06 RMK AO2
94908KDBQ DBQ20101127082509611/27/10 08:25:31  5-MIN KDBQ 271425Z 29007KT 10SM CLR M07/M11 A3006 950 71 -1400 290/07 RMK AO2
94908KDBQ DBQ20101127083009611/27/10 08:30:31  5-MIN KDBQ 271430Z 30008KT 10SM CLR M06/M11 A3006 950 71 -1300 300/08 RMK AO2
94908KDBQ DBQ20101127083509611/27/10 08:35:31  5-MIN KDBQ 271435Z 30006KT 10SM CLR M06/M11 A3007 940 71 -1300 300/06 RMK AO2
94908KDBQ DBQ20101127084009611/27/10 08:40:31  5-MIN KDBQ 271440Z 29006KT 10SM CLR M06/M11 A3007 940 68 -1300 280/06 RMK AO2
94908KDBQ DBQ20101127084509611/27/10 08:45:31  5-MIN KDBQ 271445Z 30008KT 10SM CLR M06/M11 A3007 940 68 -1300 300/08 RMK AO2
94908KDBQ DBQ20101127085011911/27/10 08:50:31  5-MIN KDBQ 271450Z 28006KT 10SM CLR M06/M11 A3007 940 68 -1300 280/06 RMK AO2 SLP199 T10561106 51009
94908KDBQ DBQ20101127085509611/27/10 08:55:31  5-MIN KDBQ 271455Z 28008KT 10SM CLR M05/M11 A3008 930 65 -1200 280/08 RMK AO2
94908KDBQ DBQ20101127090009611/27/10 09:00:31  5-MIN KDBQ 271500Z 29008KT 10SM CLR M05/M10 A3008 930 68 -1200 290/08 RMK AO2
94908KDBQ DBQ20101127090509611/27/10 09:05:31  5-MIN KDBQ 271505Z 30009KT 10SM CLR M05/M10 A3008 930 68 -1200 290/09 RMK AO2
94908KDBQ DBQ20101127091009611/27/10 09:10:31  5-MIN KDBQ 271510Z 29010KT 10SM CLR M05/M11 A3008 930 65 -1200 290/10 RMK AO2
94908KDBQ DBQ20101127091509611/27/10 09:15:31  5-MIN KDBQ 271515Z 29010KT 10SM CLR M05/M10 A3009 920 68 -1200 290/10 RMK AO2
94908KDBQ DBQ20101127092009611/27/10 09:20:31  5-MIN KDBQ 271520Z 29010KT 10SM CLR M04/M10 A3009 920 65 -1200 290/10 RMK AO2
94908KDBQ DBQ20101127092509611/27/10 09:25:31  5-MIN KDBQ 271525Z 29008KT 10SM CLR M05/M11 A3009 920 65 -1200 290/08 RMK AO2
94908KDBQ DBQ20101127093009611/27/10 09:30:31  5-MIN KDBQ 271530Z 30007KT 10SM CLR M04/M10 A3009 920 65 -1200 300/07 RMK AO2
94908KDBQ DBQ20101127093509611/27/10 09:35:31  5-MIN KDBQ 271535Z 29009KT 10SM CLR M04/M10 A3009 920 65 -1200 290/09 RMK AO2
94908KDBQ DBQ20101127094009611/27/10 09:40:31  5-MIN KDBQ 271540Z 30009KT 10SM CLR M04/M10 A3009 920 65 -1200 300/09 RMK AO2
94908KDBQ DBQ20101127094509611/27/10 09:45:31  5-MIN KDBQ 271545Z 30009KT 10SM CLR M04/M10 A3009 920 63 -1100 300/09 RMK AO2
94908KDBQ DBQ20101127095011311/27/10 09:50:31  5-MIN KDBQ 271550Z 30010KT 10SM CLR M04/M10 A3009 920 63 -1100 300/10 RMK AO2 SLP205 T10391100
94908KDBQ DBQ20101127095509611/27/10 09:55:31  5-MIN KDBQ 271555Z 30008KT 10SM CLR M04/M10 A3009 920 63 -1100 300/08 RMK AO2
94908KDBQ DBQ20101127100009611/27/10 10:00:31  5-MIN KDBQ 271600Z 29009KT 10SM CLR M03/M10 A3009 920 60 -1000 290/09 RMK AO2
94908KDBQ DBQ20101127100510211/27/10 10:05:31  5-MIN KDBQ 271605Z 29010G17KT 10SM CLR M04/M10 A3009 920 63 -1100 290/10G17 RMK AO2
94908KDBQ DBQ20101127101010211/27/10 10:10:31  5-MIN KDBQ 271610Z 30008G17KT 10SM CLR M03/M10 A3010 920 60 -1000 300/08G17 RMK AO2
94908KDBQ DBQ20101127101509611/27/10 10:15:31  5-MIN KDBQ 271615Z 30008KT 10SM CLR M03/M10 A3010 910 60 -1000 300/08 RMK AO2
94908KDBQ DBQ20101127102009611/27/10 10:20:31  5-MIN KDBQ 271620Z 29012KT 10SM CLR M03/M10 A3010 910 58 -1000 290/12 RMK AO2
94908KDBQ DBQ20101127102509611/27/10 10:25:31  5-MIN KDBQ 271625Z 30010KT 10SM CLR M03/M10 A3010 920 60 -1000 300/10 RMK AO2
94908KDBQ DBQ20101127103009611/27/10 10:30:31  5-MIN KDBQ 271630Z 29009KT 10SM CLR M03/M10 A3010 910 58 -1000 290/09 RMK AO2
94908KDBQ DBQ20101127103509611/27/10 10:35:31  5-MIN KDBQ 271635Z 30010KT 10SM CLR M03/M10 A3010 920 58 -1000 300/10 RMK AO2
94908KDBQ DBQ20101127104009611/27/10 10:40:31  5-MIN KDBQ 271640Z 31007KT 10SM CLR M03/M10 A3010 910 58 -1000 300/07 RMK AO2
94908KDBQ DBQ20101127104509611/27/10 10:45:31  5-MIN KDBQ 271645Z 29009KT 10SM CLR M03/M10 A3010 910 58 -1000 280/09 RMK AO2
94908KDBQ DBQ20101127105011211/27/10 10:50:31  5-MIN KDBQ 271650Z 31008KT 10SM CLR M02/M10 A3010 910 55 -900 310/08 RMK AO2 SLP208 T10221100
94908KDBQ DBQ20101127105509511/27/10 10:55:31  5-MIN KDBQ 271655Z 31008KT 10SM CLR M02/M10 A3010 910 55 -900 300/08 RMK AO2
94908KDBQ DBQ20101127110009511/27/10 11:00:31  5-MIN KDBQ 271700Z 30007KT 10SM CLR M02/M10 A3010 920 55 -900 300/07 RMK AO2
94908KDBQ DBQ20101127110509511/27/10 11:05:31  5-MIN KDBQ 271705Z 29010KT 10SM CLR M02/M10 A3010 910 55 -900 290/10 RMK AO2
94908KDBQ DBQ20101127111010111/27/10 11:10:31  5-MIN KDBQ 271710Z 29010G16KT 10SM CLR M02/M10 A3010 910 55 -900 290/10G16 RMK AO2
94908KDBQ DBQ20101127111510111/27/10 11:15:31  5-MIN KDBQ 271715Z 30009G16KT 10SM CLR M02/M09 A3010 910 55 -800 300/09G16 RMK AO2
94908KDBQ DBQ20101127112009511/27/10 11:20:31  5-MIN KDBQ 271720Z 30009KT 10SM CLR M02/M09 A3010 910 55 -800 300/09 RMK AO2
94908KDBQ DBQ20101127112509511/27/10 11:25:31  5-MIN KDBQ 271725Z 30008KT 10SM CLR M02/M09 A3010 910 55 -800 300/08 RMK AO2
94908KDBQ DBQ20101127113009511/27/10 11:30:31  5-MIN KDBQ 271730Z 29010KT 10SM CLR M02/M09 A3010 920 55 -800 280/10 RMK AO2
94908KDBQ DBQ20101127113510111/27/10 11:35:31  5-MIN KDBQ 271735Z 28010G16KT 10SM CLR M02/M09 A3010 920 55 -800 280/10G16 RMK AO2
94908KDBQ DBQ20101127114010111/27/10 11:40:31  5-MIN KDBQ 271740Z 29008G16KT 10SM CLR M02/M09 A3010 920 55 -800 290/08G16 RMK AO2
94908KDBQ DBQ20101127114509511/27/10 11:45:31  5-MIN KDBQ 271745Z 31008KT 10SM CLR M02/M09 A3010 920 55 -800 310/08 RMK AO2
94908KDBQ DBQ20101127115013011/27/10 11:50:31  5-MIN KDBQ 271750Z 30007KT 10SM CLR M01/M09 A3009 920 53 -700 300/07 RMK AO2 SLP205 T10111094 11011 21083 51026
94908KDBQ DBQ20101127115509511/27/10 11:55:31  5-MIN KDBQ 271755Z 29006KT 10SM CLR M01/M09 A3009 920 53 -700 290/06 RMK AO2
94908KDBQ DBQ20101127120009511/27/10 12:00:31  5-MIN KDBQ 271800Z 28007KT 10SM CLR M01/M09 A3009 920 53 -700 280/07 RMK AO2
94908KDBQ DBQ20101127120509511/27/10 12:05:31  5-MIN KDBQ 271805Z 30008KT 10SM CLR M01/M09 A3008 930 53 -700 300/08 RMK AO2
94908KDBQ DBQ20101127121009511/27/10 12:10:31  5-MIN KDBQ 271810Z 29009KT 10SM CLR M01/M09 A3009 930 55 -700 290/09 RMK AO2
94908KDBQ DBQ20101127121512211/27/10 12:15:31  5-MIN KDBQ 271815Z 33062G72KT 10SM SQ CLR M01/M09 A3009 920 53 -700 330/62G72 RMK AO2 PK WND 33072/1815
94908KDBQ DBQ20101127122012211/27/10 12:20:31  5-MIN KDBQ 271820Z 29008G72KT 10SM SQ CLR M01/M09 A3009 920 51 -700 280/08G72 RMK AO2 PK WND 33072/1815
94908KDBQ DBQ20101127122511311/27/10 12:25:31  5-MIN KDBQ 271825Z 30009KT 10SM CLR M01/M09 A3009 930 51 -700 300/09 RMK AO2 PK WND 33072/1815
94908KDBQ DBQ20101127123011311/27/10 12:30:31  5-MIN KDBQ 271830Z 30008KT 10SM CLR M01/M09 A3008 930 51 -700 300/08 RMK AO2 PK WND 33072/1815
94908KDBQ DBQ20101127123511311/27/10 12:35:31  5-MIN KDBQ 271835Z 29006KT 10SM CLR M01/M09 A3008 930 51 -700 290/06 RMK AO2 PK WND 33072/1815
94908KDBQ DBQ20101127124011211/27/10 12:40:31  5-MIN KDBQ 271840Z 31008KT 10SM CLR 00/M09 A3008 930 51 -600 310/08 RMK AO2 PK WND 33072/1815
94908KDBQ DBQ20101127124511211/27/10 12:45:31  5-MIN KDBQ 271845Z 29007KT 10SM CLR 00/M09 A3008 930 49 -600 290/07 RMK AO2 PK WND 33072/1815
94908KDBQ DBQ20101127125012911/27/10 12:50:31  5-MIN KDBQ 271850Z 30007KT 10SM CLR 00/M09 A3008 930 49 -600 300/07 RMK AO2 PK WND 33072/1815 SLP202 T00001094
94908KDBQ DBQ20101127125509411/27/10 12:55:31  5-MIN KDBQ 271855Z 28011KT 10SM CLR 00/M09 A3008 930 51 -600 280/11 RMK AO2
94908KDBQ DBQ20101127130009511/27/10 13:00:31  5-MIN KDBQ 271900Z 27008KT 10SM CLR M01/M09 A3008 930 53 -700 270/08 RMK AO2
94908KDBQ DBQ20101127130509411/27/10 13:05:31  5-MIN KDBQ 271905Z 28011KT 10SM CLR 00/M09 A3009 920 51 -600 280/11 RMK AO2
94908KDBQ DBQ20101127131009411/27/10 13:10:31  5-MIN KDBQ 271910Z 28010KT 10SM CLR 00/M09 A3009 930 51 -600 270/10 RMK AO2
94908KDBQ DBQ20101127131509411/27/10 13:15:31  5-MIN KDBQ 271915Z 28009KT 10SM CLR 00/M09 A3009 930 51 -600 280/09 RMK AO2
94908KDBQ DBQ20101127132009411/27/10 13:20:31  5-MIN KDBQ 271920Z 27012KT 10SM CLR 00/M09 A3009 920 51 -600 270/12 RMK AO2
94908KDBQ DBQ20101127132509411/27/10 13:25:31  5-MIN KDBQ 271925Z 28010KT 10SM CLR 00/M08 A3009 920 53 -600 280/10 RMK AO2
94908KDBQ DBQ20101127133009411/27/10 13:30:31  5-MIN KDBQ 271930Z 28008KT 10SM CLR 00/M08 A3009 920 53 -600 280/08 RMK AO2
94908KDBQ DBQ20101127133509411/27/10 13:35:31  5-MIN KDBQ 271935Z 28011KT 10SM CLR 00/M08 A3009 920 53 -600 280/11 RMK AO2
94908KDBQ DBQ20101127134009411/27/10 13:40:31  5-MIN KDBQ 271940Z 28008KT 10SM CLR 00/M08 A3009 930 53 -600 280/08 RMK AO2
94908KDBQ DBQ20101127134509411/27/10 13:45:31  5-MIN KDBQ 271945Z 28010KT 10SM CLR 00/M08 A3008 930 53 -600 280/10 RMK AO2
94908KDBQ DBQ20101127135011111/27/10 13:50:31  5-MIN KDBQ 271950Z 27009KT 10SM CLR 01/M08 A3008 930 51 -500 270/09 RMK AO2 SLP202 T00061083
94908KDBQ DBQ20101127135509411/27/10 13:55:31  5-MIN KDBQ 271955Z 28008KT 10SM CLR 01/M08 A3008 930 51 -500 280/08 RMK AO2
94908KDBQ DBQ20101127140009411/27/10 14:00:31  5-MIN KDBQ 272000Z 27009KT 10SM CLR 01/M08 A3008 930 51 -500 270/09 RMK AO2
94908KDBQ DBQ20101127140509411/27/10 14:05:31  5-MIN KDBQ 272005Z 28009KT 10SM CLR 01/M08 A3008 930 51 -500 280/09 RMK AO2
94908KDBQ DBQ20101127141009411/27/10 14:10:31  5-MIN KDBQ 272010Z 27008KT 10SM CLR 00/M08 A3008 930 53 -600 270/08 RMK AO2
94908KDBQ DBQ20101127141510011/27/10 14:15:31  5-MIN KDBQ 272015Z 28012G17KT 10SM CLR 01/M08 A3009 930 51 -500 280/12G17 RMK AO2
94908KDBQ DBQ20101127142010011/27/10 14:20:31  5-MIN KDBQ 272020Z 29009G17KT 10SM CLR 01/M08 A3008 930 51 -500 290/09G17 RMK AO2
94908KDBQ DBQ20101127142509411/27/10 14:25:31  5-MIN KDBQ 272025Z 28010KT 10SM CLR 01/M08 A3009 920 51 -500 280/10 RMK AO2
94908KDBQ DBQ20101127143010011/27/10 14:30:31  5-MIN KDBQ 272030Z 28007G16KT 10SM CLR 01/M08 A3009 920 51 -500 280/07G16 RMK AO2
94908KDBQ DBQ20101127143510011/27/10 14:35:31  5-MIN KDBQ 272035Z 28009G16KT 10SM CLR 01/M08 A3009 920 54 -500 280/09G16 RMK AO2
94908KDBQ DBQ20101127144009411/27/10 14:40:31  5-MIN KDBQ 272040Z 27010KT 10SM CLR 01/M08 A3009 920 54 -500 270/10 RMK AO2
94908KDBQ DBQ20101127144509411/27/10 14:45:31  5-MIN KDBQ 272045Z 28009KT 10SM CLR 01/M08 A3009 920 54 -500 270/09 RMK AO2
94908KDBQ DBQ20101127145011711/27/10 14:50:31  5-MIN KDBQ 272050Z 27011KT 10SM CLR 01/M08 A3009 920 54 -500 270/11 RMK AO2 SLP204 T00061078 50006
94908KDBQ DBQ20101127145509411/27/10 14:55:31  5-MIN KDBQ 272055Z 27006KT 10SM CLR 01/M08 A3009 920 51 -500 270/06 RMK AO2
94908KDBQ DBQ20101127150009411/27/10 15:00:31  5-MIN KDBQ 272100Z 28008KT 10SM CLR 01/M08 A3009 920 51 -500 280/08 RMK AO2
94908KDBQ DBQ20101127150509411/27/10 15:05:31  5-MIN KDBQ 272105Z 28010KT 10SM CLR 00/M08 A3009 920 53 -600 280/10 RMK AO2
94908KDBQ DBQ20101127151009411/27/10 15:10:31  5-MIN KDBQ 272110Z 28008KT 10SM CLR 00/M08 A3009 920 53 -600 280/08 RMK AO2
94908KDBQ DBQ20101127151509411/27/10 15:15:31  5-MIN KDBQ 272115Z 28008KT 10SM CLR 01/M08 A3009 920 54 -500 270/08 RMK AO2
94908KDBQ DBQ20101127152009411/27/10 15:20:31  5-MIN KDBQ 272120Z 27009KT 10SM CLR 00/M08 A3010 920 53 -600 270/09 RMK AO2
94908KDBQ DBQ20101127152509411/27/10 15:25:31  5-MIN KDBQ 272125Z 28007KT 10SM CLR 00/M08 A3010 920 53 -600 280/07 RMK AO2
94908KDBQ DBQ20101127153009511/27/10 15:30:31  5-MIN KDBQ 272130Z 28007KT 10SM CLR M01/M08 A3010 910 58 -700 280/07 RMK AO2
94908KDBQ DBQ20101127153509511/27/10 15:35:31  5-MIN KDBQ 272135Z 28006KT 10SM CLR M01/M08 A3010 920 58 -700 280/06 RMK AO2
94908KDBQ DBQ20101127154009511/27/10 15:40:31  5-MIN KDBQ 272140Z 27007KT 10SM CLR M01/M08 A3010 920 60 -700 270/07 RMK AO2
94908KDBQ DBQ20101127154509511/27/10 15:45:31  5-MIN KDBQ 272145Z 27007KT 10SM CLR M01/M08 A3010 910 58 -700 270/07 RMK AO2
94908KDBQ DBQ20101127155011211/27/10 15:50:31  5-MIN KDBQ 272150Z 27008KT 10SM CLR M01/M08 A3010 910 56 -700 270/08 RMK AO2 SLP208 T10061083
94908KDBQ DBQ20101127155509511/27/10 15:55:31  5-MIN KDBQ 272155Z 27006KT 10SM CLR M01/M08 A3010 910 58 -700 260/06 RMK AO2
94908KDBQ DBQ20101127160009511/27/10 16:00:31  5-MIN KDBQ 272200Z 26005KT 10SM CLR M01/M08 A3010 910 58 -700 260/05 RMK AO2
94908KDBQ DBQ20101127160509511/27/10 16:05:31  5-MIN KDBQ 272205Z 27004KT 10SM CLR M01/M08 A3010 920 58 -700 270/04 RMK AO2
94908KDBQ DBQ20101127161009511/27/10 16:10:31  5-MIN KDBQ 272210Z 26005KT 10SM CLR M02/M08 A3010 910 60 -800 260/05 RMK AO2
94908KDBQ DBQ20101127161509511/27/10 16:15:31  5-MIN KDBQ 272215Z 26004KT 10SM CLR M02/M08 A3010 910 60 -800 260/04 RMK AO2
94908KDBQ DBQ20101127162009511/27/10 16:20:31  5-MIN KDBQ 272220Z 25004KT 10SM CLR M01/M08 A3010 910 58 -700 250/04 RMK AO2
94908KDBQ DBQ20101127162509511/27/10 16:25:31  5-MIN KDBQ 272225Z 26004KT 10SM CLR M02/M08 A3010 910 60 -800 260/04 RMK AO2
94908KDBQ DBQ20101127163009511/27/10 16:30:31  5-MIN KDBQ 272230Z 25005KT 10SM CLR M02/M08 A3010 910 60 -800 250/05 RMK AO2
94908KDBQ DBQ20101127163509511/27/10 16:35:31  5-MIN KDBQ 272235Z 25005KT 10SM CLR M02/M08 A3010 910 63 -900 250/05 RMK AO2
94908KDBQ DBQ20101127164009511/27/10 16:40:31  5-MIN KDBQ 272240Z 25005KT 10SM CLR M02/M08 A3010 910 63 -900 250/05 RMK AO2
94908KDBQ DBQ20101127164509611/27/10 16:45:31  5-MIN KDBQ 272245Z 24003KT 10SM CLR M03/M08 A3010 910 66 -1000 240/03 RMK AO2
94908KDBQ DBQ20101127165011311/27/10 16:50:31  5-MIN KDBQ 272250Z 00000KT 10SM CLR M03/M08 A3010 910 68 -1000 000/00 RMK AO2 SLP210 T10281078
94908KDBQ DBQ20101127165509511/27/10 16:55:31  5-MIN KDBQ 272255Z 25003KT 10SM CLR M02/M08 A3010 910 66 -900 250/03 RMK AO2
94908KDBQ DBQ20101127170009611/27/10 17:00:31  5-MIN KDBQ 272300Z 25004KT 10SM CLR M03/M08 A3010 910 68 -1000 250/04 RMK AO2
94908KDBQ DBQ20101127170509511/27/10 17:05:31  5-MIN KDBQ 272305Z 00000KT 10SM CLR M02/M08 A3010 910 63 -900 000/00 RMK AO2
94908KDBQ DBQ20101127171009511/27/10 17:10:31  5-MIN KDBQ 272310Z 23003KT 10SM CLR M02/M08 A3010 910 63 -900 230/03 RMK AO2
94908KDBQ DBQ20101127171509611/27/10 17:15:31  5-MIN KDBQ 272315Z 22003KT 10SM CLR M03/M08 A3010 910 66 -1000 220/03 RMK AO2
94908KDBQ DBQ20101127172009611/27/10 17:20:31  5-MIN KDBQ 272320Z 22003KT 10SM CLR M03/M08 A3010 920 71 -1000 210/03 RMK AO2
94908KDBQ DBQ20101127172509611/27/10 17:25:31  5-MIN KDBQ 272325Z 22003KT 10SM CLR M03/M08 A3009 920 71 -1000 220/03 RMK AO2
94908KDBQ DBQ20101127173009611/27/10 17:30:31  5-MIN KDBQ 272330Z 23003KT 10SM CLR M03/M08 A3010 910 68 -1000 230/03 RMK AO2
94908KDBQ DBQ20101127173509611/27/10 17:35:31  5-MIN KDBQ 272335Z 22004KT 10SM CLR M04/M08 A3010 910 74 -1100 220/04 RMK AO2
94908KDBQ DBQ20101127174009611/27/10 17:40:31  5-MIN KDBQ 272340Z 00000KT 10SM CLR M04/M08 A3010 910 74 -1100 000/00 RMK AO2
94908KDBQ DBQ20101127174509611/27/10 17:45:31  5-MIN KDBQ 272345Z 20003KT 10SM CLR M03/M08 A3010 910 71 -1000 200/03 RMK AO2
94908KDBQ DBQ20101127175013111/27/10 17:50:31  5-MIN KDBQ 272350Z 00000KT 10SM CLR M03/M08 A3010 910 68 -1000 000/00 RMK AO2 SLP210 T10331083 10011 21039 55001
94908KDBQ DBQ20101127175509611/27/10 17:55:31  5-MIN KDBQ 272355Z 20003KT 10SM CLR M03/M08 A3010 920 68 -1000 190/03 RMK AO2
94908KDBQ DBQ20101127180009611/27/10 18:00:31  5-MIN KDBQ 280000Z 20003KT 10SM CLR M03/M08 A3009 920 68 -1000 200/03 RMK AO2
94908KDBQ DBQ20101127180509611/27/10 18:05:31  5-MIN KDBQ 280005Z 21004KT 10SM CLR M03/M08 A3009 920 68 -1000 210/04 RMK AO2
94908KDBQ DBQ20101127181009611/27/10 18:10:31  5-MIN KDBQ 280010Z 20003KT 10SM CLR M03/M09 A3009 920 65 -1000 200/03 RMK AO2
94908KDBQ DBQ20101127181509611/27/10 18:15:31  5-MIN KDBQ 280015Z 19003KT 10SM CLR M03/M09 A3009 920 65 -1000 190/03 RMK AO2
94908KDBQ DBQ20101127182009611/27/10 18:20:31  5-MIN KDBQ 280020Z 00000KT 10SM CLR M03/M09 A3009 920 65 -1000 000/00 RMK AO2
94908KDBQ DBQ20101127182509611/27/10 18:25:31  5-MIN KDBQ 280025Z 00000KT 10SM CLR M03/M09 A3010 920 65 -1000 000/00 RMK AO2
94908KDBQ DBQ20101127183009611/27/10 18:30:31  5-MIN KDBQ 280030Z 00000KT 10SM CLR M03/M09 A3010 910 63 -1000 000/00 RMK AO2
94908KDBQ DBQ20101127183509611/27/10 18:35:31  5-MIN KDBQ 280035Z 00000KT 10SM CLR M03/M09 A3010 910 65 -1000 000/00 RMK AO2
94908KDBQ DBQ20101127184009611/27/10 18:40:31  5-MIN KDBQ 280040Z 00000KT 10SM CLR M03/M09 A3010 920 63 -1000 000/00 RMK AO2
94908KDBQ DBQ20101127184509611/27/10 18:45:31  5-MIN KDBQ 280045Z 00000KT 10SM CLR M04/M09 A3009 920 65 -1100 000/00 RMK AO2
94908KDBQ DBQ20101127185011311/27/10 18:50:31  5-MIN KDBQ 280050Z 00000KT 10SM CLR M04/M09 A3009 920 68 -1100 000/00 RMK AO2 SLP208 T10391089
94908KDBQ DBQ20101127185509611/27/10 18:55:31  5-MIN KDBQ 280055Z 16003KT 10SM CLR M04/M08 A3009 920 74 -1200 160/03 RMK AO2
94908KDBQ DBQ20101127190009611/27/10 19:00:31  5-MIN KDBQ 280100Z 00000KT 10SM CLR M04/M09 A3009 920 71 -1200 000/00 RMK AO2
94908KDBQ DBQ20101127190509611/27/10 19:05:31  5-MIN KDBQ 280105Z 17003KT 10SM CLR M04/M09 A3009 920 68 -1100 170/03 RMK AO2
94908KDBQ DBQ20101127191009611/27/10 19:10:31  5-MIN KDBQ 280110Z 20004KT 10SM CLR M04/M09 A3009 920 65 -1100 200/04 RMK AO2
94908KDBQ DBQ20101127191509611/27/10 19:15:31  5-MIN KDBQ 280115Z 21004KT 10SM CLR M04/M09 A3009 920 65 -1100 210/04 RMK AO2
94908KDBQ DBQ20101127192009611/27/10 19:20:31  5-MIN KDBQ 280120Z 20004KT 10SM CLR M04/M09 A3009 920 68 -1200 200/04 RMK AO2
94908KDBQ DBQ20101127192509611/27/10 19:25:31  5-MIN KDBQ 280125Z 19004KT 10SM CLR M04/M09 A3009 920 68 -1200 190/04 RMK AO2
94908KDBQ DBQ20101127193009611/27/10 19:30:31  5-MIN KDBQ 280130Z 19004KT 10SM CLR M05/M09 A3009 920 71 -1200 190/04 RMK AO2
94908KDBQ DBQ20101127193509611/27/10 19:35:31  5-MIN KDBQ 280135Z 19003KT 10SM CLR M04/M09 A3010 920 68 -1200 190/03 RMK AO2
94908KDBQ DBQ20101127194009611/27/10 19:40:31  5-MIN KDBQ 280140Z 19003KT 10SM CLR M04/M09 A3010 910 68 -1200 190/03 RMK AO2
94908KDBQ DBQ20101127194509611/27/10 19:45:31  5-MIN KDBQ 280145Z 20003KT 10SM CLR M04/M09 A3010 910 68 -1200 200/03 RMK AO2
94908KDBQ DBQ20101127195011311/27/10 19:50:31  5-MIN KDBQ 280150Z 21003KT 10SM CLR M05/M10 A3011 910 68 -1200 210/03 RMK AO2 SLP212 T10501100
94908KDBQ DBQ20101127195509611/27/10 19:55:31  5-MIN KDBQ 280155Z 00000KT 10SM CLR M04/M09 A3010 910 68 -1200 000/00 RMK AO2
94908KDBQ DBQ20101127200010111/27/10 20:00:31  5-MIN KDBQ 280200Z AUTO 00000KT 10SM CLR M04/M09 A3010 910 68 -1200 000/00 RMK AO2
94908KDBQ DBQ20101127200510111/27/10 20:05:31  5-MIN KDBQ 280205Z AUTO 00000KT 10SM CLR M04/M09 A3010 910 68 -1200 000/00 RMK AO2
94908KDBQ DBQ20101127201010111/27/10 20:10:31  5-MIN KDBQ 280210Z AUTO 00000KT 10SM CLR M04/M09 A3010 910 68 -1200 000/00 RMK AO2
94908KDBQ DBQ20101127201510111/27/10 20:15:31  5-MIN KDBQ 280215Z AUTO 19003KT 10SM CLR M04/M09 A3010 910 68 -1200 180/03 RMK AO2
94908KDBQ DBQ20101127202010111/27/10 20:20:31  5-MIN KDBQ 280220Z AUTO 19003KT 10SM CLR M05/M09 A3010 910 74 -1200 190/03 RMK AO2
94908KDBQ DBQ20101127202510111/27/10 20:25:31  5-MIN KDBQ 280225Z AUTO 19003KT 10SM CLR M04/M09 A3010 910 68 -1200 190/03 RMK AO2
94908KDBQ DBQ20101127203010111/27/10 20:30:31  5-MIN KDBQ 280230Z AUTO 20004KT 10SM CLR M05/M09 A3010 910 74 -1200 200/04 RMK AO2
94908KDBQ DBQ20101127203510111/27/10 20:35:31  5-MIN KDBQ 280235Z AUTO 19003KT 10SM CLR M04/M09 A3010 910 68 -1200 190/03 RMK AO2
94908KDBQ DBQ20101127204010111/27/10 20:40:31  5-MIN KDBQ 280240Z AUTO 19003KT 10SM CLR M04/M09 A3010 920 68 -1200 190/03 RMK AO2
94908KDBQ DBQ20101127204510111/27/10 20:45:31  5-MIN KDBQ 280245Z AUTO 19003KT 10SM CLR M05/M09 A3010 920 71 -1200 190/03 RMK AO2
94908KDBQ DBQ20101127205012411/27/10 20:50:31  5-MIN KDBQ 280250Z AUTO 20004KT 10SM CLR M05/M09 A3010 920 71 -1200 200/04 RMK AO2 SLP209 T10501094 50003
94908KDBQ DBQ20101127205510111/27/10 20:55:31  5-MIN KDBQ 280255Z AUTO 20004KT 10SM CLR M05/M09 A3010 910 71 -1200 200/04 RMK AO2
94908KDBQ DBQ20101127210010111/27/10 21:00:31  5-MIN KDBQ 280300Z AUTO 20004KT 10SM CLR M05/M09 A3010 910 71 -1200 200/04 RMK AO2
94908KDBQ DBQ20101127210510111/27/10 21:05:31  5-MIN KDBQ 280305Z AUTO 19003KT 10SM CLR M05/M09 A3010 910 71 -1200 190/03 RMK AO2
94908KDBQ DBQ20101127211010111/27/10 21:10:31  5-MIN KDBQ 280310Z AUTO 20003KT 10SM CLR M05/M09 A3010 910 71 -1200 200/03 RMK AO2
94908KDBQ DBQ20101127211510111/27/10 21:15:31  5-MIN KDBQ 280315Z AUTO 19003KT 10SM CLR M05/M09 A3010 910 71 -1200 190/03 RMK AO2
94908KDBQ DBQ20101127212010111/27/10 21:20:31  5-MIN KDBQ 280320Z AUTO 19003KT 10SM CLR M04/M09 A3010 910 68 -1200 190/03 RMK AO2
94908KDBQ DBQ20101127212510111/27/10 21:25:31  5-MIN KDBQ 280325Z AUTO 20003KT 10SM CLR M04/M09 A3010 920 71 -1200 200/03 RMK AO2
94908KDBQ DBQ20101127213010111/27/10 21:30:31  5-MIN KDBQ 280330Z AUTO 21003KT 10SM CLR M05/M09 A3010 910 74 -1200 210/03 RMK AO2
94908KDBQ DBQ20101127213510111/27/10 21:35:31  5-MIN KDBQ 280335Z AUTO 21004KT 10SM CLR M05/M09 A3010 910 71 -1200 210/04 RMK AO2
94908KDBQ DBQ20101127214010111/27/10 21:40:31  5-MIN KDBQ 280340Z AUTO 20004KT 10SM CLR M05/M09 A3010 920 71 -1200 200/04 RMK AO2
94908KDBQ DBQ20101127214510111/27/10 21:45:31  5-MIN KDBQ 280345Z AUTO 20004KT 10SM CLR M04/M09 A3010 910 68 -1200 200/04 RMK AO2
94908KDBQ DBQ20101127215011811/27/10 21:50:31  5-MIN KDBQ 280350Z AUTO 19003KT 10SM CLR M05/M09 A3010 910 71 -1200 190/03 RMK AO2 SLP209 T10501094
94908KDBQ DBQ20101127215510111/27/10 21:55:31  5-MIN KDBQ 280355Z AUTO 18003KT 10SM CLR M04/M09 A3010 920 68 -1200 180/03 RMK AO2
94908KDBQ DBQ20101127220010111/27/10 22:00:31  5-MIN KDBQ 280400Z AUTO 18003KT 10SM CLR M04/M09 A3009 920 71 -1200 180/03 RMK AO2
94908KDBQ DBQ20101127220510111/27/10 22:05:31  5-MIN KDBQ 280405Z AUTO 18004KT 10SM CLR M04/M09 A3009 920 71 -1200 180/04 RMK AO2
94908KDBQ DBQ20101127221010111/27/10 22:10:31  5-MIN KDBQ 280410Z AUTO 18004KT 10SM CLR M04/M09 A3009 920 71 -1200 180/04 RMK AO2
94908KDBQ DBQ20101127221510111/27/10 22:15:31  5-MIN KDBQ 280415Z AUTO 18005KT 10SM CLR M04/M09 A3009 920 71 -1200 180/05 RMK AO2
94908KDBQ DBQ20101127222010111/27/10 22:20:31  5-MIN KDBQ 280420Z AUTO 18005KT 10SM CLR M05/M09 A3009 920 74 -1200 180/05 RMK AO2
94908KDBQ DBQ20101127222510111/27/10 22:25:31  5-MIN KDBQ 280425Z AUTO 19005KT 10SM CLR M04/M09 A3009 920 71 -1200 190/05 RMK AO2
94908KDBQ DBQ20101127223010111/27/10 22:30:31  5-MIN KDBQ 280430Z AUTO 19004KT 10SM CLR M04/M09 A3009 920 71 -1200 190/04 RMK AO2
94908KDBQ DBQ20101127223510111/27/10 22:35:31  5-MIN KDBQ 280435Z AUTO 18005KT 10SM CLR M04/M08 A3009 920 74 -1200 180/05 RMK AO2
94908KDBQ DBQ20101127224010111/27/10 22:40:31  5-MIN KDBQ 280440Z AUTO 19005KT 10SM CLR M04/M08 A3009 920 74 -1200 190/05 RMK AO2
94908KDBQ DBQ20101127224510111/27/10 22:45:31  5-MIN KDBQ 280445Z AUTO 19004KT 10SM CLR M04/M08 A3009 920 74 -1200 190/04 RMK AO2
94908KDBQ DBQ20101127225011811/27/10 22:50:31  5-MIN KDBQ 280450Z AUTO 18004KT 10SM CLR M04/M08 A3008 930 74 -1200 180/04 RMK AO2 SLP202 T10441083
94908KDBQ DBQ20101127225510111/27/10 22:55:31  5-MIN KDBQ 280455Z AUTO 18006KT 10SM CLR M04/M08 A3009 930 74 -1200 180/06 RMK AO2
94908KDBQ DBQ20101127230010111/27/10 23:00:31  5-MIN KDBQ 280500Z AUTO 18006KT 10SM CLR M04/M08 A3009 920 74 -1200 180/06 RMK AO2
94908KDBQ DBQ20101127230510111/27/10 23:05:31  5-MIN KDBQ 280505Z AUTO 19005KT 10SM CLR M04/M08 A3009 920 71 -1100 190/05 RMK AO2
94908KDBQ DBQ20101127231010111/27/10 23:10:31  5-MIN KDBQ 280510Z AUTO 19004KT 10SM CLR M04/M08 A3009 920 78 -1200 190/04 RMK AO2
94908KDBQ DBQ20101127231510111/27/10 23:15:31  5-MIN KDBQ 280515Z AUTO 19003KT 10SM CLR M04/M08 A3009 920 78 -1200 190/03 RMK AO2
94908KDBQ DBQ20101127232010111/27/10 23:20:31  5-MIN KDBQ 280520Z AUTO 19003KT 10SM CLR M04/M08 A3009 920 78 -1200 190/03 RMK AO2
94908KDBQ DBQ20101127232510111/27/10 23:25:31  5-MIN KDBQ 280525Z AUTO 18004KT 10SM CLR M04/M08 A3009 920 78 -1200 180/04 RMK AO2
94908KDBQ DBQ20101127233010111/27/10 23:30:31  5-MIN KDBQ 280530Z AUTO 18005KT 10SM CLR M04/M08 A3009 920 78 -1200 180/05 RMK AO2
94908KDBQ DBQ20101127233510111/27/10 23:35:31  5-MIN KDBQ 280535Z AUTO 18004KT 10SM CLR M04/M08 A3009 920 78 -1200 180/04 RMK AO2
94908KDBQ DBQ20101127234010111/27/10 23:40:31  5-MIN KDBQ 280540Z AUTO 19004KT 10SM CLR M04/M08 A3009 930 74 -1100 190/04 RMK AO2
94908KDBQ DBQ20101127234510111/27/10 23:45:31  5-MIN KDBQ 280545Z AUTO 19005KT 10SM CLR M04/M08 A3009 920 78 -1200 190/05 RMK AO2
94908KDBQ DBQ20101127235014611/27/10 23:50:31  5-MIN KDBQ 280550Z AUTO 18005KT 10SM CLR M04/M08 A3009 920 78 -1200 180/05 RMK AO2 SLP203 T10441078 11033 21056 400111083 58000
94908KDBQ DBQ20101127235510111/27/10 23:55:31  5-MIN KDBQ 280555Z AUTO 19006KT 10SM CLR M04/M08 A3009 920 78 -1200 180/06 RMK AO2
94908KDBQ DBQ20101128000010111/28/10 00:00:38  5-MIN KDBQ 280600Z AUTO 18005KT 10SM CLR M04/M08 A3009 930 78 -1200 180/05 RMK AO2
94908KDBQ DBQ20101128000510111/28/10 00:05:31  5-MIN KDBQ 280605Z AUTO 18005KT 10SM CLR M04/M08 A3008 930 78 -1200 180/05 RMK AO2
94908KDBQ DBQ20101128001010111/28/10 00:10:31  5-MIN KDBQ 280610Z AUTO 18005KT 10SM CLR M05/M08 A3008 930 81 -1200 180/05 RMK AO2
94908KDBQ DBQ20101128001510111/28/10 00:15:31  5-MIN KDBQ 280615Z AUTO 19005KT 10SM CLR M05/M08 A3008 930 81 -1200 190/05 RMK AO2
94908KDBQ DBQ20101128002010111/28/10 00:20:31  5-MIN KDBQ 280620Z AUTO 19006KT 10SM CLR M04/M08 A3008 930 78 -1200 190/06 RMK AO2
94908KDBQ DBQ20101128002510111/28/10 00:25:31  5-MIN KDBQ 280625Z AUTO 18006KT 10SM CLR M05/M08 A3008 930 81 -1200 180/06 RMK AO2
94908KDBQ DBQ20101128003010111/28/10 00:30:31  5-MIN KDBQ 280630Z AUTO 18005KT 10SM CLR M05/M08 A3008 930 81 -1200 180/05 RMK AO2
94908KDBQ DBQ20101128003510111/28/10 00:35:31  5-MIN KDBQ 280635Z AUTO 19005KT 10SM CLR M05/M08 A3008 930 81 -1200 190/05 RMK AO2
94908KDBQ DBQ20101128004010111/28/10 00:40:31  5-MIN KDBQ 280640Z AUTO 19005KT 10SM CLR M05/M08 A3008 930 81 -1200 190/05 RMK AO2
94908KDBQ DBQ20101128004510111/28/10 00:45:31  5-MIN KDBQ 280645Z AUTO 18007KT 10SM CLR M05/M08 A3008 930 81 -1200 180/07 RMK AO2
94908KDBQ DBQ20101128005011811/28/10 00:50:31  5-MIN KDBQ 280650Z AUTO 18006KT 10SM CLR M05/M08 A3008 930 81 -1200 180/06 RMK AO2 SLP200 T10501078
94908KDBQ DBQ20101128005510111/28/10 00:55:31  5-MIN KDBQ 280655Z AUTO 18007KT 10SM CLR M05/M08 A3008 930 81 -1200 180/07 RMK AO2
94908KDBQ DBQ20101128010010111/28/10 01:00:31  5-MIN KDBQ 280700Z AUTO 18008KT 10SM CLR M05/M08 A3008 930 81 -1200 180/08 RMK AO2
94908KDBQ DBQ20101128010510111/28/10 01:05:31  5-MIN KDBQ 280705Z AUTO 18007KT 10SM CLR M05/M08 A3008 930 81 -1200 180/07 RMK AO2
94908KDBQ DBQ20101128011010111/28/10 01:10:31  5-MIN KDBQ 280710Z AUTO 18007KT 10SM CLR M05/M08 A3008 930 81 -1200 180/07 RMK AO2
94908KDBQ DBQ20101128011510111/28/10 01:15:31  5-MIN KDBQ 280715Z AUTO 18008KT 10SM CLR M05/M07 A3008 930 84 -1200 180/08 RMK AO2
94908KDBQ DBQ20101128012010111/28/10 01:20:31  5-MIN KDBQ 280720Z AUTO 18009KT 10SM CLR M05/M07 A3008 930 84 -1200 180/09 RMK AO2
94908KDBQ DBQ20101128012510111/28/10 01:25:31  5-MIN KDBQ 280725Z AUTO 18008KT 10SM CLR M04/M07 A3008 930 81 -1100 170/08 RMK AO2
94908KDBQ DBQ20101128013010111/28/10 01:30:31  5-MIN KDBQ 280730Z AUTO 18008KT 10SM CLR M04/M07 A3008 930 81 -1200 180/08 RMK AO2
94908KDBQ DBQ20101128013510111/28/10 01:35:31  5-MIN KDBQ 280735Z AUTO 18007KT 10SM CLR M04/M07 A3008 930 81 -1200 180/07 RMK AO2
94908KDBQ DBQ20101128014010111/28/10 01:40:31  5-MIN KDBQ 280740Z AUTO 18007KT 10SM CLR M04/M07 A3008 930 81 -1200 180/07 RMK AO2
94908KDBQ DBQ20101128014510111/28/10 01:45:31  5-MIN KDBQ 280745Z AUTO 19007KT 10SM CLR M04/M07 A3008 930 81 -1200 190/07 RMK AO2
94908KDBQ DBQ20101128015011811/28/10 01:50:31  5-MIN KDBQ 280750Z AUTO 18008KT 10SM CLR M04/M07 A3008 930 84 -1100 180/08 RMK AO2 SLP200 T10441067
94908KDBQ DBQ20101128015510111/28/10 01:55:31  5-MIN KDBQ 280755Z AUTO 18009KT 10SM CLR M04/M07 A3008 930 84 -1100 180/09 RMK AO2
94908KDBQ DBQ20101128020010111/28/10 02:00:31  5-MIN KDBQ 280800Z AUTO 18009KT 10SM CLR M04/M07 A3008 930 84 -1100 180/09 RMK AO2
94908KDBQ DBQ20101128020510111/28/10 02:05:31  5-MIN KDBQ 280805Z AUTO 18008KT 10SM CLR M04/M07 A3008 930 81 -1100 180/08 RMK AO2
94908KDBQ DBQ20101128021010111/28/10 02:10:31  5-MIN KDBQ 280810Z AUTO 18007KT 10SM CLR M04/M07 A3008 930 81 -1100 180/07 RMK AO2
94908KDBQ DBQ20101128021510111/28/10 02:15:31  5-MIN KDBQ 280815Z AUTO 19008KT 10SM CLR M04/M07 A3008 930 81 -1100 190/08 RMK AO2
94908KDBQ DBQ20101128022010111/28/10 02:20:31  5-MIN KDBQ 280820Z AUTO 19007KT 10SM CLR M04/M07 A3009 930 81 -1100 190/07 RMK AO2
94908KDBQ DBQ20101128022510111/28/10 02:25:31  5-MIN KDBQ 280825Z AUTO 19006KT 10SM CLR M04/M07 A3009 920 81 -1100 190/06 RMK AO2
94908KDBQ DBQ20101128023010111/28/10 02:30:31  5-MIN KDBQ 280830Z AUTO 19005KT 10SM CLR M04/M07 A3009 920 84 -1200 190/05 RMK AO2
94908KDBQ DBQ20101128023510111/28/10 02:35:31  5-MIN KDBQ 280835Z AUTO 18005KT 10SM CLR M04/M07 A3009 930 84 -1200 180/05 RMK AO2
94908KDBQ DBQ20101128024010111/28/10 02:40:31  5-MIN KDBQ 280840Z AUTO 18005KT 10SM CLR M04/M07 A3008 930 84 -1200 170/05 RMK AO2
94908KDBQ DBQ20101128024510111/28/10 02:45:31  5-MIN KDBQ 280845Z AUTO 17006KT 10SM CLR M04/M07 A3008 930 81 -1100 170/06 RMK AO2
94908KDBQ DBQ20101128025012411/28/10 02:50:31  5-MIN KDBQ 280850Z AUTO 16008KT 10SM CLR M03/M06 A3008 930 81 -1000 160/08 RMK AO2 SLP199 T10331061 55003
94908KDBQ DBQ20101128025510111/28/10 02:55:31  5-MIN KDBQ 280855Z AUTO 16010KT 10SM CLR M03/M06 A3008 930 81 -1000 160/10 RMK AO2
94908KDBQ DBQ20101128030010111/28/10 03:00:31  5-MIN KDBQ 280900Z AUTO 16011KT 10SM CLR M03/M06 A3008 930 81 -1000 160/11 RMK AO2
94908KDBQ DBQ20101128030510011/28/10 03:05:31  5-MIN KDBQ 280905Z AUTO 16010KT 10SM CLR M03/M06 A3007 940 78 -900 160/10 RMK AO2
94908KDBQ DBQ20101128031010111/28/10 03:10:31  5-MIN KDBQ 280910Z AUTO 16010KT 10SM CLR M03/M06 A3007 940 81 -1000 160/10 RMK AO2
94908KDBQ DBQ20101128031510111/28/10 03:15:31  5-MIN KDBQ 280915Z AUTO 17010KT 10SM CLR M03/M06 A3007 940 81 -1000 160/10 RMK AO2
94908KDBQ DBQ20101128032010111/28/10 03:20:31  5-MIN KDBQ 280920Z AUTO 17011KT 10SM CLR M03/M06 A3007 940 81 -1000 160/11 RMK AO2
94908KDBQ DBQ20101128032510011/28/10 03:25:31  5-MIN KDBQ 280925Z AUTO 16010KT 10SM CLR M03/M06 A3007 940 78 -900 160/10 RMK AO2
94908KDBQ DBQ20101128033010011/28/10 03:30:31  5-MIN KDBQ 280930Z AUTO 16011KT 10SM CLR M03/M06 A3007 940 81 -900 160/11 RMK AO2
94908KDBQ DBQ20101128033510011/28/10 03:35:31  5-MIN KDBQ 280935Z AUTO 16009KT 10SM CLR M03/M06 A3007 940 81 -900 160/09 RMK AO2
94908KDBQ DBQ20101128034010011/28/10 03:40:31  5-MIN KDBQ 280940Z AUTO 16011KT 10SM CLR M03/M06 A3006 950 81 -900 160/11 RMK AO2
94908KDBQ DBQ20101128034510011/28/10 03:45:31  5-MIN KDBQ 280945Z AUTO 16010KT 10SM CLR M03/M06 A3006 950 78 -900 160/10 RMK AO2
94908KDBQ DBQ20101128035011711/28/10 03:50:31  5-MIN KDBQ 280950Z AUTO 17011KT 10SM CLR M03/M06 A3006 950 78 -900 160/11 RMK AO2 SLP195 T10281061
94908KDBQ DBQ20101128035510111/28/10 03:55:31  5-MIN KDBQ 280955Z AUTO 17011KT 10SM CLR M03/M06 A3007 940 81 -1000 160/11 RMK AO2
94908KDBQ DBQ20101128040010111/28/10 04:00:31  5-MIN KDBQ 281000Z AUTO 17009KT 10SM CLR M03/M06 A3007 940 81 -1000 170/09 RMK AO2
94908KDBQ DBQ20101128040510111/28/10 04:05:31  5-MIN KDBQ 281005Z AUTO 17010KT 10SM CLR M03/M06 A3007 940 81 -1000 160/10 RMK AO2
94908KDBQ DBQ20101128041010111/28/10 04:10:31  5-MIN KDBQ 281010Z AUTO 16011KT 10SM CLR M03/M06 A3007 940 81 -1000 160/11 RMK AO2
94908KDBQ DBQ20101128041510111/28/10 04:15:31  5-MIN KDBQ 281015Z AUTO 16010KT 10SM CLR M03/M06 A3007 940 81 -1000 160/10 RMK AO2
94908KDBQ DBQ20101128042010111/28/10 04:20:31  5-MIN KDBQ 281020Z AUTO 16010KT 10SM CLR M03/M06 A3006 950 81 -1000 160/10 RMK AO2
94908KDBQ DBQ20101128042510111/28/10 04:25:31  5-MIN KDBQ 281025Z AUTO 16011KT 10SM CLR M03/M06 A3006 950 81 -1000 160/11 RMK AO2
94908KDBQ DBQ20101128043010111/28/10 04:30:31  5-MIN KDBQ 281030Z AUTO 16010KT 10SM CLR M03/M06 A3006 950 81 -1000 160/10 RMK AO2
94908KDBQ DBQ20101128043510111/28/10 04:35:31  5-MIN KDBQ 281035Z AUTO 17009KT 10SM CLR M03/M06 A3006 950 81 -1000 170/09 RMK AO2
94908KDBQ DBQ20101128044010111/28/10 04:40:31  5-MIN KDBQ 281040Z AUTO 16009KT 10SM CLR M03/M06 A3006 950 81 -1000 160/09 RMK AO2
94908KDBQ DBQ20101128044510111/28/10 04:45:31  5-MIN KDBQ 281045Z AUTO 16008KT 10SM CLR M03/M06 A3006 950 81 -1000 160/08 RMK AO2
94908KDBQ DBQ20101128045011811/28/10 04:50:31  5-MIN KDBQ 281050Z AUTO 16010KT 10SM CLR M03/M06 A3006 950 81 -1000 160/10 RMK AO2 SLP195 T10331061
94908KDBQ DBQ20101128045510111/28/10 04:55:31  5-MIN KDBQ 281055Z AUTO 16008KT 10SM CLR M03/M06 A3006 950 81 -1000 160/08 RMK AO2
94908KDBQ DBQ20101128050010111/28/10 05:00:31  5-MIN KDBQ 281100Z AUTO 16008KT 10SM CLR M03/M06 A3006 950 81 -1000 160/08 RMK AO2
94908KDBQ DBQ20101128050510111/28/10 05:05:31  5-MIN KDBQ 281105Z AUTO 17008KT 10SM CLR M03/M06 A3006 950 81 -1000 170/08 RMK AO2
94908KDBQ DBQ20101128051010111/28/10 05:10:31  5-MIN KDBQ 281110Z AUTO 17007KT 10SM CLR M03/M06 A3006 950 81 -1000 170/07 RMK AO2
94908KDBQ DBQ20101128051510111/28/10 05:15:31  5-MIN KDBQ 281115Z AUTO 18007KT 10SM CLR M04/M06 A3006 950 85 -1100 180/07 RMK AO2
94908KDBQ DBQ20101128052010111/28/10 05:20:31  5-MIN KDBQ 281120Z AUTO 18007KT 10SM CLR M04/M06 A3007 940 85 -1100 180/07 RMK AO2
94908KDBQ DBQ20101128052510111/28/10 05:25:31  5-MIN KDBQ 281125Z AUTO 18007KT 10SM CLR M04/M06 A3007 940 85 -1100 180/07 RMK AO2
94908KDBQ DBQ20101128053010111/28/10 05:30:31  5-MIN KDBQ 281130Z AUTO 19007KT 10SM CLR M04/M06 A3007 940 85 -1100 190/07 RMK AO2
94908KDBQ DBQ20101128053510111/28/10 05:35:31  5-MIN KDBQ 281135Z AUTO 19007KT 10SM CLR M04/M06 A3007 940 85 -1100 190/07 RMK AO2
94908KDBQ DBQ20101128054010111/28/10 05:40:31  5-MIN KDBQ 281140Z AUTO 20007KT 10SM CLR M04/M06 A3007 940 85 -1100 200/07 RMK AO2
94908KDBQ DBQ20101128054510111/28/10 05:45:31  5-MIN KDBQ 281145Z AUTO 19006KT 10SM CLR M04/M06 A3008 930 85 -1100 190/06 RMK AO2
94908KDBQ DBQ20101128055013111/28/10 05:50:31  5-MIN KDBQ 281150Z 18007KT 10SM CLR M04/M06 A3008 930 85 -1100 180/07 RMK AO2 SLP200 T10391061 11028 21050 56003
94908KDBQ DBQ20101128055509611/28/10 05:55:31  5-MIN KDBQ 281155Z 18009KT 10SM CLR M04/M06 A3008 930 85 -1100 180/09 RMK AO2
94908KDBQ DBQ20101128060009611/28/10 06:00:31  5-MIN KDBQ 281200Z 18009KT 10SM CLR M04/M06 A3008 930 88 -1100 180/09 RMK AO2
94908KDBQ DBQ20101128060509611/28/10 06:05:31  5-MIN KDBQ 281205Z 18009KT 10SM CLR M04/M06 A3008 930 88 -1100 170/09 RMK AO2
94908KDBQ DBQ20101128061009611/28/10 06:10:31  5-MIN KDBQ 281210Z 18009KT 10SM CLR M04/M06 A3008 930 88 -1100 180/09 RMK AO2
94908KDBQ DBQ20101128061509611/28/10 06:15:31  5-MIN KDBQ 281215Z 18008KT 10SM CLR M04/M06 A3008 930 88 -1100 180/08 RMK AO2
94908KDBQ DBQ20101128062009611/28/10 06:20:31  5-MIN KDBQ 281220Z 18007KT 10SM CLR M04/M06 A3008 930 88 -1100 180/07 RMK AO2
94908KDBQ DBQ20101128062509611/28/10 06:25:31  5-MIN KDBQ 281225Z 17008KT 10SM CLR M03/M06 A3008 930 85 -1000 170/08 RMK AO2
94908KDBQ DBQ20101128063009611/28/10 06:30:31  5-MIN KDBQ 281230Z 17010KT 10SM CLR M03/M06 A3008 930 85 -1000 170/10 RMK AO2
94908KDBQ DBQ20101128063509611/28/10 06:35:31  5-MIN KDBQ 281235Z 17010KT 10SM CLR M03/M06 A3008 930 85 -1000 170/10 RMK AO2
94908KDBQ DBQ20101128064009611/28/10 06:40:31  5-MIN KDBQ 281240Z 17008KT 10SM CLR M03/M06 A3008 930 85 -1000 170/08 RMK AO2
94908KDBQ DBQ20101128064509611/28/10 06:45:31  5-MIN KDBQ 281245Z 18007KT 10SM CLR M03/M06 A3008 930 85 -1000 180/07 RMK AO2
94908KDBQ DBQ20101128065011211/28/10 06:50:31  5-MIN KDBQ 281250Z 20006KT 9SM CLR M04/M06 A3008 930 88 -1100 200/06 RMK AO2 SLP202 T10391056
94908KDBQ DBQ20101128065509511/28/10 06:55:31  5-MIN KDBQ 281255Z 21006KT 9SM CLR M04/M06 A3008 930 85 -1100 210/06 RMK AO2
94908KDBQ DBQ20101128070009511/28/10 07:00:31  5-MIN KDBQ 281300Z 22006KT 9SM CLR M04/M06 A3008 930 88 -1100 210/06 RMK AO2
94908KDBQ DBQ20101128070509511/28/10 07:05:31  5-MIN KDBQ 281305Z 20006KT 9SM CLR M04/M06 A3008 930 88 -1100 200/06 RMK AO2
94908KDBQ DBQ20101128071009511/28/10 07:10:31  5-MIN KDBQ 281310Z 19005KT 8SM CLR M04/M06 A3008 930 88 -1100 180/05 RMK AO2
94908KDBQ DBQ20101128071509511/28/10 07:15:31  5-MIN KDBQ 281315Z 17008KT 8SM CLR M03/M05 A3008 930 88 -1000 170/08 RMK AO2
94908KDBQ DBQ20101128072009411/28/10 07:20:31  5-MIN KDBQ 281320Z 16009KT 8SM CLR M03/M05 A3008 930 85 -900 160/09 RMK AO2
94908KDBQ DBQ20101128072509411/28/10 07:25:31  5-MIN KDBQ 281325Z 16009KT 8SM CLR M03/M04 A3008 930 88 -900 160/09 RMK AO2
94908KDBQ DBQ20101128073010011/28/10 07:30:31  5-MIN KDBQ 281330Z 15010G15KT 8SM CLR M02/M04 A3008 930 85 -900 150/10G15 RMK AO2
94908KDBQ DBQ20101128073509411/28/10 07:35:31  5-MIN KDBQ 281335Z 15010KT 8SM CLR M02/M04 A3007 940 85 -900 150/10 RMK AO2
94908KDBQ DBQ20101128074009411/28/10 07:40:31  5-MIN KDBQ 281340Z 15010KT 8SM CLR M02/M04 A3007 940 85 -900 150/10 RMK AO2
94908KDBQ DBQ20101128074509411/28/10 07:45:31  5-MIN KDBQ 281345Z 15012KT 8SM CLR M02/M04 A3007 940 85 -900 150/12 RMK AO2
94908KDBQ DBQ20101128075011111/28/10 07:50:31  5-MIN KDBQ 281350Z 15010KT 8SM CLR M02/M04 A3007 940 81 -800 150/10 RMK AO2 SLP197 T10171044
94908KDBQ DBQ20101128075510011/28/10 07:55:31  5-MIN KDBQ 281355Z 15012G19KT 8SM CLR M02/M04 A3007 940 85 -800 150/12G19 RMK AO2
94908KDBQ DBQ20101128080010011/28/10 08:00:31  5-MIN KDBQ 281400Z 15012G20KT 8SM CLR M02/M04 A3007 940 85 -800 150/12G20 RMK AO2
94908KDBQ DBQ20101128080510011/28/10 08:05:31  5-MIN KDBQ 281405Z 15014G20KT 8SM CLR M02/M04 A3007 940 85 -800 150/14G20 RMK AO2
94908KDBQ DBQ20101128081010011/28/10 08:10:31  5-MIN KDBQ 281410Z 15011G19KT 8SM CLR M01/M04 A3007 940 81 -700 150/11G19 RMK AO2
94908KDBQ DBQ20101128081510011/28/10 08:15:31  5-MIN KDBQ 281415Z 15014G20KT 8SM CLR M01/M04 A3007 940 81 -700 150/14G20 RMK AO2
94908KDBQ DBQ20101128082010011/28/10 08:20:31  5-MIN KDBQ 281420Z 15014G20KT 8SM CLR M01/M04 A3007 940 81 -700 150/14G20 RMK AO2
94908KDBQ DBQ20101128082510011/28/10 08:25:31  5-MIN KDBQ 281425Z 15014G20KT 8SM CLR M01/M04 A3006 950 81 -700 150/14G20 RMK AO2
94908KDBQ DBQ20101128083010011/28/10 08:30:31  5-MIN KDBQ 281430Z 15014G19KT 8SM CLR M01/M03 A3006 950 81 -600 150/14G19 RMK AO2
94908KDBQ DBQ20101128083510011/28/10 08:35:31  5-MIN KDBQ 281435Z 16012G20KT 8SM CLR M01/M03 A3007 940 81 -600 160/12G20 RMK AO2
94908KDBQ DBQ20101128084009911/28/10 08:40:31  5-MIN KDBQ 281440Z 16013G20KT 9SM CLR 00/M03 A3007 940 78 -600 160/13G20 RMK AO2
94908KDBQ DBQ20101128084509911/28/10 08:45:31  5-MIN KDBQ 281445Z 16012G20KT 9SM CLR 00/M03 A3006 950 81 -600 160/12G20 RMK AO2
94908KDBQ DBQ20101128085012211/28/10 08:50:31  5-MIN KDBQ 281450Z 16014G20KT 9SM CLR 00/M03 A3006 950 81 -600 160/14G20 RMK AO2 SLP194 T00001028 55000
94908KDBQ DBQ20101128085509911/28/10 08:55:31  5-MIN KDBQ 281455Z 16012G20KT 9SM CLR 00/M03 A3007 940 81 -600 160/12G20 RMK AO2
94908KDBQ DBQ20101128090009911/28/10 09:00:31  5-MIN KDBQ 281500Z 16010G20KT 9SM CLR 00/M03 A3007 940 81 -600 160/10G20 RMK AO2
94908KDBQ DBQ20101128090509311/28/10 09:05:31  5-MIN KDBQ 281505Z 16011KT 9SM CLR 01/M03 A3007 940 78 -500 160/11 RMK AO2
94908KDBQ DBQ20101128091009911/28/10 09:10:31  5-MIN KDBQ 281510Z 15014G21KT 9SM CLR 01/M03 A3007 940 78 -500 150/14G21 RMK AO2
94908KDBQ DBQ20101128091509911/28/10 09:15:31  5-MIN KDBQ 281515Z 16014G21KT 9SM CLR 01/M03 A3007 940 78 -500 150/14G21 RMK AO2
94908KDBQ DBQ20101128092009911/28/10 09:20:31  5-MIN KDBQ 281520Z 15014G20KT 9SM CLR 01/M03 A3007 940 78 -500 150/14G20 RMK AO2
94908KDBQ DBQ20101128092509911/28/10 09:25:31  5-MIN KDBQ 281525Z 15012G20KT 8SM CLR 01/M03 A3007 940 78 -500 150/12G20 RMK AO2
94908KDBQ DBQ20101128093009911/28/10 09:30:31  5-MIN KDBQ 281530Z 16013G18KT 9SM CLR 01/M02 A3007 940 78 -400 150/13G18 RMK AO2
94908KDBQ DBQ20101128093509911/28/10 09:35:31  5-MIN KDBQ 281535Z 16011G21KT 9SM CLR 01/M03 A3007 940 75 -400 160/11G21 RMK AO2
94908KDBQ DBQ20101128094009911/28/10 09:40:31  5-MIN KDBQ 281540Z 16011G21KT 9SM CLR 01/M02 A3007 940 78 -400 160/11G21 RMK AO2
94908KDBQ DBQ20101128094509911/28/10 09:45:31  5-MIN KDBQ 281545Z 17008G18KT 9SM CLR 02/M02 A3007 940 75 -400 160/08G18 RMK AO2
94908KDBQ DBQ20101128095011611/28/10 09:50:31  5-MIN KDBQ 281550Z 16010G18KT 9SM CLR 02/M02 A3007 940 75 -400 160/10G18 RMK AO2 SLP196 T00171022
94908KDBQ DBQ20101128095509911/28/10 09:55:31  5-MIN KDBQ 281555Z 16012G18KT 9SM CLR 02/M02 A3007 940 75 -400 160/12G18 RMK AO2
94908KDBQ DBQ20101128100009911/28/10 10:00:31  5-MIN KDBQ 281600Z 16010G18KT 9SM CLR 02/M02 A3006 950 75 -400 150/10G18 RMK AO2
94908KDBQ DBQ20101128100509911/28/10 10:05:31  5-MIN KDBQ 281605Z 15016G22KT 9SM CLR 02/M02 A3006 950 72 -300 150/16G22 RMK AO2
94908KDBQ DBQ20101128101009911/28/10 10:10:31  5-MIN KDBQ 281610Z 16012G22KT 9SM CLR 02/M02 A3005 960 72 -300 150/12G22 RMK AO2
94908KDBQ DBQ20101128101509911/28/10 10:15:31  5-MIN KDBQ 281615Z 15015G22KT 9SM CLR 02/M02 A3005 960 75 -300 150/15G22 RMK AO2
94908KDBQ DBQ20101128102009911/28/10 10:20:31  5-MIN KDBQ 281620Z 15015G24KT 9SM CLR 03/M02 A3005 960 69 -200 150/15G24 RMK AO2
94908KDBQ DBQ20101128102509911/28/10 10:25:31  5-MIN KDBQ 281625Z 15014G24KT 9SM CLR 03/M02 A3004 960 72 -200 150/14G24 RMK AO2
94908KDBQ DBQ20101128103009911/28/10 10:30:31  5-MIN KDBQ 281630Z 15019G23KT 9SM CLR 03/M02 A3004 970 72 -200 150/19G23 RMK AO2
94908KDBQ DBQ20101128103509911/28/10 10:35:31  5-MIN KDBQ 281635Z 15015G23KT 9SM CLR 03/M02 A3004 970 70 -100 150/15G23 RMK AO2
94908KDBQ DBQ20101128104009911/28/10 10:40:31  5-MIN KDBQ 281640Z 15016G23KT 9SM CLR 03/M02 A3004 970 70 -100 150/16G23 RMK AO2
94908KDBQ DBQ20101128104509911/28/10 10:45:31  5-MIN KDBQ 281645Z 15017G23KT 9SM CLR 03/M02 A3004 970 70 -100 150/17G23 RMK AO2
94908KDBQ DBQ20101128105011611/28/10 10:50:31  5-MIN KDBQ 281650Z 16013G23KT 9SM CLR 03/M01 A3003 970 72 -100 160/13G23 RMK AO2 SLP183 T00331011
94908KDBQ DBQ20101128105509611/28/10 10:55:31  5-MIN KDBQ 281655Z 16014G21KT 9SM CLR 04/M01 A3003 980 70 0 150/14G21 RMK AO2
94908KDBQ DBQ20101128110009711/28/10 11:00:31  5-MIN KDBQ 281700Z 15016G22KT 10SM CLR 04/M01 A3002 990 70 0 150/16G22 RMK AO2
94908KDBQ DBQ20101128110510411/28/10 11:05:31  5-MIN KDBQ 281705Z 15017G22KT 10SM CLR 04/M02 A3002 990 67 0 150/17G22 RMK AO2 PRESFR
94908KDBQ DBQ20101128111009711/28/10 11:10:31  5-MIN KDBQ 281710Z 15015G22KT 10SM CLR 04/M01 A3001 990 67 0 150/15G22 RMK AO2
94908KDBQ DBQ20101128111509711/28/10 11:15:31  5-MIN KDBQ 281715Z 15016G22KT 10SM CLR 04/M01 A3001 990 67 0 150/16G22 RMK AO2
94908KDBQ DBQ20101128112009811/28/10 11:20:31  5-MIN KDBQ 281720Z 15015G22KT 10SM CLR 04/M01 A3001 1000 67 0 150/15G22 RMK AO2
94908KDBQ DBQ20101128112510011/28/10 11:25:31  5-MIN KDBQ 281725Z 15017G23KT 10SM CLR 05/M01 A3001 1000 64 100 150/17G23 RMK AO2
94908KDBQ DBQ20101128113010011/28/10 11:30:31  5-MIN KDBQ 281730Z 15014G23KT 10SM CLR 05/M01 A3001 1000 64 100 150/14G23 RMK AO2
94908KDBQ DBQ20101128113510011/28/10 11:35:31  5-MIN KDBQ 281735Z 16016G21KT 10SM CLR 06/M01 A3001 1000 65 100 150/16G21 RMK AO2
94908KDBQ DBQ20101128114010011/28/10 11:40:31  5-MIN KDBQ 281740Z 16013G21KT 10SM CLR 06/M01 A3000 1000 62 100 160/13G21 RMK AO2
94908KDBQ DBQ20101128114510011/28/10 11:45:31  5-MIN KDBQ 281745Z 16013G20KT 10SM CLR 06/M01 A3000 1010 62 100 150/13G20 RMK AO2
94908KDBQ DBQ20101128115013511/28/10 11:50:31  5-MIN KDBQ 281750Z 16013G21KT 10SM CLR 05/M01 A3000 1010 64 100 160/13G21 RMK AO2 SLP169 T00501011 10056 21044 58004
94908KDBQ DBQ20101128115510011/28/10 11:55:31  5-MIN KDBQ 281755Z 16013G21KT 10SM CLR 06/M01 A2999 1010 62 200 160/13G21 RMK AO2
94908KDBQ DBQ20101128120010011/28/10 12:00:31  5-MIN KDBQ 281800Z 15015G21KT 10SM CLR 06/M01 A2999 1010 62 200 150/15G21 RMK AO2
94908KDBQ DBQ20101128120510011/28/10 12:05:31  5-MIN KDBQ 281805Z 16015G21KT 10SM CLR 06/M01 A2999 1020 60 200 160/15G21 RMK AO2
94908KDBQ DBQ20101128121009411/28/10 12:10:31  5-MIN KDBQ 281810Z 15015KT 10SM CLR 06/M01 A2999 1020 60 200 150/15 RMK AO2
94908KDBQ DBQ20101128121510011/28/10 12:15:31  5-MIN KDBQ 281815Z 15015G23KT 10SM CLR 06/M01 A2998 1020 60 200 150/15G23 RMK AO2
94908KDBQ DBQ20101128122010011/28/10 12:20:31  5-MIN KDBQ 281820Z 16015G23KT 10SM CLR 07/M01 A2998 1020 60 300 160/15G23 RMK AO2
94908KDBQ DBQ20101128122510011/28/10 12:25:31  5-MIN KDBQ 281825Z 16013G22KT 10SM CLR 07/M01 A2998 1020 55 400 160/13G22 RMK AO2
94908KDBQ DBQ20101128123010011/28/10 12:30:31  5-MIN KDBQ 281830Z 16014G22KT 10SM CLR 07/M01 A2998 1030 55 400 160/14G22 RMK AO2
94908KDBQ DBQ20101128123510011/28/10 12:35:31  5-MIN KDBQ 281835Z 15017G23KT 10SM CLR 07/M01 A2997 1030 57 400 150/17G23 RMK AO2
94908KDBQ DBQ20101128124010011/28/10 12:40:31  5-MIN KDBQ 281840Z 15014G23KT 10SM CLR 07/M01 A2997 1030 57 400 150/14G23 RMK AO2
94908KDBQ DBQ20101128124510011/28/10 12:45:31  5-MIN KDBQ 281845Z 15014G22KT 10SM CLR 07/M01 A2997 1040 57 400 150/14G22 RMK AO2
94908KDBQ DBQ20101128125011711/28/10 12:50:31  5-MIN KDBQ 281850Z 15016G23KT 10SM CLR 07/M01 A2996 1040 57 400 140/16G23 RMK AO2 SLP157 T00721006
94908KDBQ DBQ20101128125510011/28/10 12:55:31  5-MIN KDBQ 281855Z 14014G23KT 10SM CLR 07/M01 A2996 1040 57 400 140/14G23 RMK AO2
94908KDBQ DBQ20101128130010011/28/10 13:00:31  5-MIN KDBQ 281900Z 15017G24KT 10SM CLR 07/M01 A2996 1040 57 400 150/17G24 RMK AO2
94908KDBQ DBQ20101128130510011/28/10 13:05:31  5-MIN KDBQ 281905Z 15015G24KT 10SM CLR 07/M01 A2996 1050 57 400 150/15G24 RMK AO2
94908KDBQ DBQ20101128131010011/28/10 13:10:31  5-MIN KDBQ 281910Z 15018G24KT 10SM CLR 07/M01 A2995 1050 57 400 150/18G24 RMK AO2
94908KDBQ DBQ20101128131510011/28/10 13:15:31  5-MIN KDBQ 281915Z 15018G24KT 10SM CLR 07/M01 A2995 1050 57 400 140/18G24 RMK AO2
94908KDBQ DBQ20101128132011811/28/10 13:20:31  5-MIN KDBQ 281920Z 15016G26KT 10SM CLR 07/M01 A2995 1050 57 400 150/16G26 RMK AO2 PK WND 14026/1917
94908KDBQ DBQ20101128132511811/28/10 13:25:31  5-MIN KDBQ 281925Z 15018G26KT 10SM CLR 07/M01 A2995 1060 57 400 150/18G26 RMK AO2 PK WND 14026/1917
94908KDBQ DBQ20101128133011711/28/10 13:30:31  5-MIN KDBQ 281930Z 15016G24KT 10SM CLR 08/00 A2995 1050 58 500 150/16G24 RMK AO2 PK WND 14026/1917
94908KDBQ DBQ20101128133511811/28/10 13:35:31  5-MIN KDBQ 281935Z 16015G24KT 10SM CLR 08/M01 A2995 1050 55 500 160/15G24 RMK AO2 PK WND 14026/1917
94908KDBQ DBQ20101128134011811/28/10 13:40:31  5-MIN KDBQ 281940Z 15017G24KT 10SM CLR 08/M01 A2995 1050 55 500 150/17G24 RMK AO2 PK WND 14026/1917
94908KDBQ DBQ20101128134511811/28/10 13:45:31  5-MIN KDBQ 281945Z 15017G24KT 10SM CLR 08/M01 A2995 1050 55 500 150/17G24 RMK AO2 PK WND 14026/1917
94908KDBQ DBQ20101128135013511/28/10 13:50:31  5-MIN KDBQ 281950Z 16014G23KT 10SM CLR 08/M01 A2995 1050 55 500 150/14G23 RMK AO2 PK WND 14026/1917 SLP151 T00781006
94908KDBQ DBQ20101128135510011/28/10 13:55:31  5-MIN KDBQ 281955Z 16012G22KT 10SM CLR 08/M01 A2994 1060 55 500 150/12G22 RMK AO2
94908KDBQ DBQ20101128140010011/28/10 14:00:31  5-MIN KDBQ 282000Z 15015G22KT 10SM CLR 08/M01 A2994 1060 55 500 150/15G22 RMK AO2
94908KDBQ DBQ20101128140509911/28/10 14:05:31  5-MIN KDBQ 282005Z 15015G22KT 10SM CLR 08/00 A2994 1060 58 500 150/15G22 RMK AO2
94908KDBQ DBQ20101128141009911/28/10 14:10:31  5-MIN KDBQ 282010Z 16013G23KT 10SM CLR 08/00 A2993 1070 58 500 150/13G23 RMK AO2
94908KDBQ DBQ20101128141509911/28/10 14:15:31  5-MIN KDBQ 282015Z 15018G23KT 10SM CLR 08/00 A2993 1070 55 600 150/18G23 RMK AO2
94908KDBQ DBQ20101128142010011/28/10 14:20:31  5-MIN KDBQ 282020Z 15017G23KT 10SM CLR 08/M01 A2993 1070 53 600 150/17G23 RMK AO2
94908KDBQ DBQ20101128142510011/28/10 14:25:31  5-MIN KDBQ 282025Z 15015G23KT 10SM CLR 08/M01 A2992 1080 55 500 150/15G23 RMK AO2
94908KDBQ DBQ20101128143010011/28/10 14:30:31  5-MIN KDBQ 282030Z 15018G24KT 10SM CLR 08/M01 A2992 1080 55 500 150/18G24 RMK AO2
94908KDBQ DBQ20101128143510011/28/10 14:35:31  5-MIN KDBQ 282035Z 15019G24KT 10SM CLR 08/M01 A2991 1080 53 600 150/19G24 RMK AO2
94908KDBQ DBQ20101128144011811/28/10 14:40:31  5-MIN KDBQ 282040Z 15018G26KT 10SM CLR 08/M01 A2991 1090 53 600 150/18G26 RMK AO2 PK WND 14026/2036
94908KDBQ DBQ20101128144511811/28/10 14:45:31  5-MIN KDBQ 282045Z 14020G26KT 10SM CLR 08/M01 A2991 1090 55 500 140/20G26 RMK AO2 PK WND 15026/2043
94908KDBQ DBQ20101128145014111/28/10 14:50:31  5-MIN KDBQ 282050Z 15020G26KT 10SM CLR 08/M01 A2991 1090 55 500 140/20G26 RMK AO2 PK WND 15026/2043 SLP137 T00781006 58023
94908KDBQ DBQ20101128145510011/28/10 14:55:31  5-MIN KDBQ 282055Z 15016G25KT 10SM CLR 07/M01 A2991 1090 57 500 150/16G25 RMK AO2
94908KDBQ DBQ20101128150010011/28/10 15:00:31  5-MIN KDBQ 282100Z 15015G24KT 10SM CLR 08/M01 A2991 1090 55 500 150/15G24 RMK AO2
94908KDBQ DBQ20101128150510011/28/10 15:05:31  5-MIN KDBQ 282105Z 15018G24KT 10SM CLR 07/M01 A2991 1080 57 400 150/18G24 RMK AO2
94908KDBQ DBQ20101128151010011/28/10 15:10:31  5-MIN KDBQ 282110Z 15014G24KT 10SM CLR 07/M01 A2991 1090 57 500 150/14G24 RMK AO2
94908KDBQ DBQ20101128151511811/28/10 15:15:31  5-MIN KDBQ 282115Z 15017G26KT 10SM CLR 07/M01 A2991 1090 57 500 150/17G26 RMK AO2 PK WND 14026/2114
94908KDBQ DBQ20101128152011811/28/10 15:20:31  5-MIN KDBQ 282120Z 15016G26KT 10SM CLR 07/M01 A2990 1090 57 500 150/16G26 RMK AO2 PK WND 14026/2114
94908KDBQ DBQ20101128152511811/28/10 15:25:31  5-MIN KDBQ 282125Z 14017G25KT 10SM CLR 07/M01 A2990 1100 57 500 140/17G25 RMK AO2 PK WND 14026/2114
94908KDBQ DBQ20101128153011811/28/10 15:30:31  5-MIN KDBQ 282130Z 15016G25KT 10SM CLR 07/M01 A2990 1090 57 500 140/16G25 RMK AO2 PK WND 14026/2114
94908KDBQ DBQ20101128153511811/28/10 15:35:31  5-MIN KDBQ 282135Z 15014G24KT 10SM CLR 07/M01 A2990 1100 57 500 140/14G24 RMK AO2 PK WND 14026/2114
94908KDBQ DBQ20101128154011811/28/10 15:40:31  5-MIN KDBQ 282140Z 15019G24KT 10SM CLR 07/M01 A2990 1100 60 400 140/19G24 RMK AO2 PK WND 14026/2114
94908KDBQ DBQ20101128154511811/28/10 15:45:31  5-MIN KDBQ 282145Z 15019G25KT 10SM CLR 07/M01 A2990 1100 60 400 150/19G25 RMK AO2 PK WND 14026/2114
94908KDBQ DBQ20101128155013511/28/10 15:50:31  5-MIN KDBQ 282150Z 15017G26KT 10SM CLR 06/M01 A2990 1100 62 300 150/17G26 RMK AO2 PK WND 14026/2147 SLP134 T00611006
94908KDBQ DBQ20101128155510011/28/10 15:55:31  5-MIN KDBQ 282155Z 15016G26KT 10SM CLR 06/M01 A2989 1110 62 300 150/16G26 RMK AO2
94908KDBQ DBQ20101128160010011/28/10 16:00:31  5-MIN KDBQ 282200Z 15017G25KT 10SM CLR 06/M01 A2989 1110 62 300 150/17G25 RMK AO2
94908KDBQ DBQ20101128160510011/28/10 16:05:31  5-MIN KDBQ 282205Z 15017G25KT 10SM CLR 06/M01 A2989 1110 62 300 150/17G25 RMK AO2
94908KDBQ DBQ20101128161010011/28/10 16:10:31  5-MIN KDBQ 282210Z 15017G24KT 10SM CLR 06/M01 A2989 1110 62 300 150/17G24 RMK AO2
94908KDBQ DBQ20101128161510011/28/10 16:15:31  5-MIN KDBQ 282215Z 15020G25KT 10SM CLR 06/M01 A2989 1110 60 300 150/20G25 RMK AO2
94908KDBQ DBQ20101128162010011/28/10 16:20:31  5-MIN KDBQ 282220Z 15017G25KT 10SM CLR 06/M01 A2989 1110 65 300 150/17G25 RMK AO2
94908KDBQ DBQ20101128162511811/28/10 16:25:31  5-MIN KDBQ 282225Z 15020G26KT 10SM CLR 06/M01 A2989 1110 65 300 150/20G26 RMK AO2 PK WND 15026/2221
94908KDBQ DBQ20101128163011811/28/10 16:30:31  5-MIN KDBQ 282230Z 15019G26KT 10SM CLR 06/M01 A2989 1110 65 300 140/19G26 RMK AO2 PK WND 15026/2221
94908KDBQ DBQ20101128163511811/28/10 16:35:31  5-MIN KDBQ 282235Z 15016G25KT 10SM CLR 06/M01 A2989 1110 65 300 150/16G25 RMK AO2 PK WND 15026/2221
94908KDBQ DBQ20101128164011811/28/10 16:40:31  5-MIN KDBQ 282240Z 15017G24KT 10SM CLR 06/M01 A2989 1110 65 300 150/17G24 RMK AO2 PK WND 15026/2221
94908KDBQ DBQ20101128164511811/28/10 16:45:31  5-MIN KDBQ 282245Z 15016G24KT 10SM CLR 06/M01 A2989 1110 65 300 150/16G24 RMK AO2 PK WND 15026/2221
94908KDBQ DBQ20101128165013511/28/10 16:50:31  5-MIN KDBQ 282250Z 15016G24KT 10SM CLR 06/M01 A2989 1110 65 300 150/16G24 RMK AO2 PK WND 15026/2221 SLP131 T00561006
94908KDBQ DBQ20101128165510011/28/10 16:55:31  5-MIN KDBQ 282255Z 15016G24KT 10SM CLR 06/M01 A2989 1110 65 300 150/16G24 RMK AO2
94908KDBQ DBQ20101128170010011/28/10 17:00:31  5-MIN KDBQ 282300Z 14018G24KT 10SM CLR 06/M01 A2989 1110 65 300 140/18G24 RMK AO2
94908KDBQ DBQ20101128170510011/28/10 17:05:31  5-MIN KDBQ 282305Z 14017G24KT 10SM CLR 05/M01 A2988 1110 67 200 140/17G24 RMK AO2
94908KDBQ DBQ20101128171010011/28/10 17:10:31  5-MIN KDBQ 282310Z 15017G25KT 10SM CLR 06/M01 A2988 1110 65 300 150/17G25 RMK AO2
94908KDBQ DBQ20101128171511811/28/10 17:15:31  5-MIN KDBQ 282315Z 15018G27KT 10SM CLR 06/M01 A2989 1110 65 300 150/18G27 RMK AO2 PK WND 14027/2313
94908KDBQ DBQ20101128172011811/28/10 17:20:31  5-MIN KDBQ 282320Z 15012G27KT 10SM CLR 05/M01 A2989 1110 67 200 150/12G27 RMK AO2 PK WND 14027/2313
94908KDBQ DBQ20101128172511811/28/10 17:25:31  5-MIN KDBQ 282325Z 15015G23KT 10SM CLR 05/M01 A2989 1100 67 200 150/15G23 RMK AO2 PK WND 14027/2313
94908KDBQ DBQ20101128173011811/28/10 17:30:31  5-MIN KDBQ 282330Z 15017G24KT 10SM CLR 05/M01 A2989 1100 67 200 150/17G24 RMK AO2 PK WND 14027/2313
94908KDBQ DBQ20101128173511811/28/10 17:35:31  5-MIN KDBQ 282335Z 15016G24KT 10SM CLR 05/M01 A2989 1100 67 200 150/16G24 RMK AO2 PK WND 14027/2313
94908KDBQ DBQ20101128174011811/28/10 17:40:31  5-MIN KDBQ 282340Z 15015G24KT 10SM CLR 04/M01 A2990 1100 70 100 150/15G24 RMK AO2 PK WND 14027/2313
94908KDBQ DBQ20101128174511811/28/10 17:45:31  5-MIN KDBQ 282345Z 14019G24KT 10SM CLR 05/M01 A2989 1100 67 200 140/19G24 RMK AO2 PK WND 14027/2313
94908KDBQ DBQ20101128175015311/28/10 17:50:31  5-MIN KDBQ 282350Z 15017G25KT 10SM CLR 05/M01 A2989 1110 67 200 150/17G25 RMK AO2 PK WND 14027/2313 SLP133 T00501006 10083 20044 58028
94908KDBQ DBQ20101128175510011/28/10 17:55:31  5-MIN KDBQ 282355Z 14021G25KT 10SM CLR 04/M01 A2989 1110 70 100 140/21G25 RMK AO2
94908KDBQ DBQ20101128180010011/28/10 18:00:31  5-MIN KDBQ 290000Z 15016G24KT 10SM CLR 04/M01 A2989 1110 70 100 150/16G24 RMK AO2
94908KDBQ DBQ20101128180511811/28/10 18:05:31  5-MIN KDBQ 290005Z 14018G28KT 10SM CLR 04/M01 A2988 1110 70 100 140/18G28 RMK AO2 PK WND 14028/0003
94908KDBQ DBQ20101128181011811/28/10 18:10:31  5-MIN KDBQ 290010Z 14017G28KT 10SM CLR 04/M01 A2988 1110 70 100 140/17G28 RMK AO2 PK WND 14028/0003
94908KDBQ DBQ20101128181511811/28/10 18:15:31  5-MIN KDBQ 290015Z 14019G26KT 10SM CLR 04/M01 A2988 1110 70 100 140/19G26 RMK AO2 PK WND 14028/0003
94908KDBQ DBQ20101128182011811/28/10 18:20:31  5-MIN KDBQ 290020Z 15019G26KT 10SM CLR 04/M01 A2988 1110 70 100 140/19G26 RMK AO2 PK WND 14028/0003
94908KDBQ DBQ20101128182511811/28/10 18:25:31  5-MIN KDBQ 290025Z 15018G25KT 10SM CLR 04/M01 A2988 1110 70 100 150/18G25 RMK AO2 PK WND 14028/0003
94908KDBQ DBQ20101128183011711/28/10 18:30:31  5-MIN KDBQ 290030Z 15016G28KT 10SM CLR 04/00 A2988 1110 73 100 150/16G28 RMK AO2 PK WND 14028/0028
94908KDBQ DBQ20101128183511711/28/10 18:35:31  5-MIN KDBQ 290035Z 15018G28KT 10SM CLR 04/00 A2988 1110 73 100 150/18G28 RMK AO2 PK WND 14028/0033
94908KDBQ DBQ20101128184011711/28/10 18:40:31  5-MIN KDBQ 290040Z 15017G28KT 10SM CLR 04/00 A2988 1120 73 100 150/17G28 RMK AO2 PK WND 14028/0033
94908KDBQ DBQ20101128184511711/28/10 18:45:31  5-MIN KDBQ 290045Z 15017G27KT 10SM CLR 04/00 A2988 1110 73 100 150/17G27 RMK AO2 PK WND 14028/0033
94908KDBQ DBQ20101128185013411/28/10 18:50:31  5-MIN KDBQ 290050Z 15019G26KT 10SM CLR 04/00 A2989 1110 73 100 150/19G26 RMK AO2 PK WND 14028/0033 SLP132 T00440000
94908KDBQ DBQ20101128185509911/28/10 18:55:31  5-MIN KDBQ 290055Z 15016G25KT 10SM CLR 04/00 A2988 1110 76 100 150/16G25 RMK AO2
94908KDBQ DBQ20101128190009911/28/10 19:00:31  5-MIN KDBQ 290100Z 15021G25KT 10SM CLR 04/00 A2988 1110 76 100 150/21G25 RMK AO2
94908KDBQ DBQ20101128190511711/28/10 19:05:31  5-MIN KDBQ 290105Z 14020G27KT 10SM CLR 04/00 A2988 1120 76 100 140/20G27 RMK AO2 PK WND 16027/0102
94908KDBQ DBQ20101128191011711/28/10 19:10:31  5-MIN KDBQ 290110Z 15017G27KT 10SM CLR 04/00 A2988 1120 76 100 150/17G27 RMK AO2 PK WND 16027/0102
94908KDBQ DBQ20101128191511711/28/10 19:15:31  5-MIN KDBQ 290115Z 14019G25KT 10SM CLR 04/00 A2988 1120 76 100 140/19G25 RMK AO2 PK WND 16027/0102
94908KDBQ DBQ20101128192011711/28/10 19:20:31  5-MIN KDBQ 290120Z 14019G28KT 10SM CLR 04/00 A2988 1120 76 100 140/19G28 RMK AO2 PK WND 15028/0117
94908KDBQ DBQ20101128192511711/28/10 19:25:31  5-MIN KDBQ 290125Z 14021G28KT 10SM CLR 04/00 A2988 1120 76 100 140/21G28 RMK AO2 PK WND 15028/0117
94908KDBQ DBQ20101128193011711/28/10 19:30:31  5-MIN KDBQ 290130Z 14021G28KT 10SM CLR 04/00 A2988 1120 76 100 140/21G28 RMK AO2 PK WND 14028/0128
94908KDBQ DBQ20101128193511511/28/10 19:35:31  5-MIN KDBQ 290135Z 15020G29KT 10SM CLR 03/00 A2988 1120 79 0 140/20G29 RMK AO2 PK WND 15029/0131
94908KDBQ DBQ20101128194011511/28/10 19:40:31  5-MIN KDBQ 290140Z 14020G29KT 10SM CLR 03/00 A2987 1120 79 0 140/20G29 RMK AO2 PK WND 14029/0139
94908KDBQ DBQ20101128194511511/28/10 19:45:31  5-MIN KDBQ 290145Z 14022G29KT 10SM CLR 03/00 A2987 1120 79 0 140/22G29 RMK AO2 PK WND 13029/0144
94908KDBQ DBQ20101128195013211/28/10 19:50:31  5-MIN KDBQ 290150Z 15018G29KT 10SM CLR 03/00 A2987 1120 79 0 150/18G29 RMK AO2 PK WND 13029/0144 SLP126 T00330000
94908KDBQ DBQ20101128195511511/28/10 19:55:31  5-MIN KDBQ 290155Z 15019G28KT 10SM CLR 03/00 A2988 1120 79 0 150/19G28 RMK AO2 PK WND 15026/0155
94908KDBQ DBQ20101128200012011/28/10 20:00:31  5-MIN KDBQ 290200Z AUTO 14019G27KT 10SM CLR 03/00 A2988 1120 79 0 140/19G27 RMK AO2 PK WND 15027/0156
94908KDBQ DBQ20101128200512011/28/10 20:05:31  5-MIN KDBQ 290205Z AUTO 15018G27KT 10SM CLR 03/00 A2988 1120 79 0 150/18G27 RMK AO2 PK WND 13027/0202
94908KDBQ DBQ20101128201012011/28/10 20:10:31  5-MIN KDBQ 290210Z AUTO 15020G27KT 10SM CLR 03/00 A2988 1120 79 0 140/20G27 RMK AO2 PK WND 13027/0202
94908KDBQ DBQ20101128201512011/28/10 20:15:31  5-MIN KDBQ 290215Z AUTO 15022G27KT 10SM CLR 03/00 A2988 1110 79 0 150/22G27 RMK AO2 PK WND 13027/0212
94908KDBQ DBQ20101128202012011/28/10 20:20:31  5-MIN KDBQ 290220Z AUTO 15017G27KT 10SM CLR 03/00 A2988 1110 79 0 150/17G27 RMK AO2 PK WND 13027/0212
94908KDBQ DBQ20101128202512011/28/10 20:25:31  5-MIN KDBQ 290225Z AUTO 15016G25KT 10SM CLR 03/00 A2988 1110 82 0 150/16G25 RMK AO2 PK WND 13027/0212
94908KDBQ DBQ20101128203012011/28/10 20:30:31  5-MIN KDBQ 290230Z AUTO 15017G25KT 10SM CLR 03/00 A2988 1110 82 0 150/17G25 RMK AO2 PK WND 13027/0212
94908KDBQ DBQ20101128203512011/28/10 20:35:31  5-MIN KDBQ 290235Z AUTO 15019G25KT 10SM CLR 03/00 A2988 1110 82 0 150/19G25 RMK AO2 PK WND 13027/0212
94908KDBQ DBQ20101128204011911/28/10 20:40:31  5-MIN KDBQ 290240Z AUTO 15019G25KT 9SM CLR 03/00 A2988 1120 82 0 150/19G25 RMK AO2 PK WND 13027/0212
94908KDBQ DBQ20101128204511911/28/10 20:45:31  5-MIN KDBQ 290245Z AUTO 15018G26KT 9SM CLR 03/00 A2988 1120 82 0 150/18G26 RMK AO2 PK WND 13027/0212
94908KDBQ DBQ20101128205014211/28/10 20:50:31  5-MIN KDBQ 290250Z AUTO 15020G26KT 9SM CLR 03/00 A2987 1120 82 0 150/20G26 RMK AO2 PK WND 13027/0212 SLP127 T00280000 55006
94908KDBQ DBQ20101128205510111/28/10 20:55:31  5-MIN KDBQ 290255Z AUTO 15018G26KT 9SM CLR 03/00 A2988 1120 82 0 150/18G26 RMK AO2
94908KDBQ DBQ20101128210011911/28/10 21:00:31  5-MIN KDBQ 290300Z AUTO 15019G26KT 9SM CLR 03/00 A2988 1120 82 0 150/19G26 RMK AO2 PK WND 14026/0257
94908KDBQ DBQ20101128210511911/28/10 21:05:31  5-MIN KDBQ 290305Z AUTO 15018G26KT 9SM CLR 03/00 A2988 1120 82 0 150/18G26 RMK AO2 PK WND 14026/0302
94908KDBQ DBQ20101128211011911/28/10 21:10:31  5-MIN KDBQ 290310Z AUTO 15017G26KT 9SM CLR 03/00 A2988 1110 82 0 150/17G26 RMK AO2 PK WND 14026/0302
94908KDBQ DBQ20101128211512211/28/10 21:15:31  5-MIN KDBQ 290315Z AUTO 16017G24KT 9SM CLR 02/00 A2989 1110 85 -100 160/17G24 RMK AO2 PK WND 14026/0302
94908KDBQ DBQ20101128212012211/28/10 21:20:31  5-MIN KDBQ 290320Z AUTO 15017G24KT 9SM CLR 02/00 A2988 1110 85 -100 150/17G24 RMK AO2 PK WND 14026/0302
94908KDBQ DBQ20101128212512211/28/10 21:25:31  5-MIN KDBQ 290325Z AUTO 15016G24KT 9SM CLR 02/00 A2988 1110 85 -100 150/16G24 RMK AO2 PK WND 14026/0302
94908KDBQ DBQ20101128213012211/28/10 21:30:31  5-MIN KDBQ 290330Z AUTO 15018G25KT 9SM CLR 02/00 A2988 1110 85 -100 150/18G25 RMK AO2 PK WND 14026/0302
94908KDBQ DBQ20101128213512211/28/10 21:35:31  5-MIN KDBQ 290335Z AUTO 16013G25KT 9SM CLR 02/00 A2989 1110 85 -100 160/13G25 RMK AO2 PK WND 14026/0302
94908KDBQ DBQ20101128214012211/28/10 21:40:31  5-MIN KDBQ 290340Z AUTO 16015G23KT 9SM CLR 02/00 A2989 1110 85 -100 160/15G23 RMK AO2 PK WND 14026/0302
94908KDBQ DBQ20101128214512211/28/10 21:45:31  5-MIN KDBQ 290345Z AUTO 16015G23KT 9SM CLR 02/00 A2989 1110 85 -100 160/15G23 RMK AO2 PK WND 14026/0302
94908KDBQ DBQ20101128215013911/28/10 21:50:31  5-MIN KDBQ 290350Z AUTO 16016G23KT 8SM CLR 02/00 A2989 1100 85 -100 150/16G23 RMK AO2 PK WND 14026/0302 SLP132 T00220000
94908KDBQ DBQ20101128215510411/28/10 21:55:31  5-MIN KDBQ 290355Z AUTO 16016G22KT 8SM CLR 02/00 A2990 1100 85 -100 150/16G22 RMK AO2
94908KDBQ DBQ20101128220010411/28/10 22:00:31  5-MIN KDBQ 290400Z AUTO 15015G22KT 8SM CLR 02/00 A2989 1100 85 -100 150/15G22 RMK AO2
94908KDBQ DBQ20101128220510511/28/10 22:05:31  5-MIN KDBQ 290405Z AUTO 15015G21KT 8SM CLR 02/M01 A2989 1100 82 -100 150/15G21 RMK AO2
94908KDBQ DBQ20101128221010511/28/10 22:10:31  5-MIN KDBQ 290410Z AUTO 15013G21KT 8SM CLR 02/M01 A2989 1110 82 -100 150/13G21 RMK AO2
94908KDBQ DBQ20101128221510511/28/10 22:15:31  5-MIN KDBQ 290415Z AUTO 15015G22KT 8SM CLR 02/M01 A2989 1100 82 -100 150/15G22 RMK AO2
94908KDBQ DBQ20101128222010511/28/10 22:20:31  5-MIN KDBQ 290420Z AUTO 15016G22KT 8SM CLR 02/M01 A2989 1100 82 -100 150/16G22 RMK AO2
94908KDBQ DBQ20101128222510511/28/10 22:25:31  5-MIN KDBQ 290425Z AUTO 15013G22KT 8SM CLR 02/M01 A2989 1100 82 -100 150/13G22 RMK AO2
94908KDBQ DBQ20101128223010511/28/10 22:30:31  5-MIN KDBQ 290430Z AUTO 15015G21KT 8SM CLR 02/M01 A2990 1100 82 -100 150/15G21 RMK AO2
94908KDBQ DBQ20101128223510511/28/10 22:35:31  5-MIN KDBQ 290435Z AUTO 15014G22KT 8SM CLR 02/M01 A2990 1100 82 -100 150/14G22 RMK AO2
94908KDBQ DBQ20101128224010511/28/10 22:40:31  5-MIN KDBQ 290440Z AUTO 15015G22KT 8SM CLR 02/M01 A2990 1100 82 -100 150/15G22 RMK AO2
94908KDBQ DBQ20101128224510511/28/10 22:45:31  5-MIN KDBQ 290445Z AUTO 15015G22KT 8SM CLR 02/M01 A2990 1100 82 -100 150/15G22 RMK AO2
94908KDBQ DBQ20101128225012211/28/10 22:50:31  5-MIN KDBQ 290450Z AUTO 15014G22KT 8SM CLR 02/M01 A2990 1100 82 -100 150/14G22 RMK AO2 SLP134 T00221006
94908KDBQ DBQ20101128225510511/28/10 22:55:31  5-MIN KDBQ 290455Z AUTO 15013G22KT 8SM CLR 02/M01 A2990 1100 85 -200 150/13G22 RMK AO2
94908KDBQ DBQ20101128230010511/28/10 23:00:31  5-MIN KDBQ 290500Z AUTO 15012G20KT 8SM CLR 02/M01 A2990 1100 85 -200 150/12G20 RMK AO2
94908KDBQ DBQ20101128230510511/28/10 23:05:31  5-MIN KDBQ 290505Z AUTO 15013G19KT 8SM CLR 02/M01 A2990 1100 85 -200 150/13G19 RMK AO2
94908KDBQ DBQ20101128231010511/28/10 23:10:31  5-MIN KDBQ 290510Z AUTO 15012G19KT 8SM CLR 02/M01 A2990 1090 85 -200 150/12G19 RMK AO2
94908KDBQ DBQ20101128231510511/28/10 23:15:31  5-MIN KDBQ 290515Z AUTO 15013G19KT 8SM CLR 02/M01 A2990 1090 85 -200 150/13G19 RMK AO2
94908KDBQ DBQ20101128232009911/28/10 23:20:31  5-MIN KDBQ 290520Z AUTO 15013KT 8SM CLR 02/M01 A2990 1100 85 -200 150/13 RMK AO2
94908KDBQ DBQ20101128232509911/28/10 23:25:31  5-MIN KDBQ 290525Z AUTO 15013KT 8SM CLR 02/M01 A2990 1090 85 -200 150/13 RMK AO2
94908KDBQ DBQ20101128233009911/28/10 23:30:31  5-MIN KDBQ 290530Z AUTO 15013KT 9SM CLR 02/M01 A2990 1090 85 -200 150/13 RMK AO2
94908KDBQ DBQ20101128233510511/28/10 23:35:31  5-MIN KDBQ 290535Z AUTO 15012G18KT 9SM CLR 02/M01 A2991 1090 85 -200 150/12G18 RMK AO2
94908KDBQ DBQ20101128234010511/28/10 23:40:31  5-MIN KDBQ 290540Z AUTO 15013G20KT 9SM CLR 02/M01 A2990 1090 85 -200 150/13G20 RMK AO2
94908KDBQ DBQ20101128234510511/28/10 23:45:31  5-MIN KDBQ 290545Z AUTO 15012G20KT 9SM CLR 02/M01 A2991 1090 85 -200 150/12G20 RMK AO2
94908KDBQ DBQ20101128235015011/28/10 23:50:31  5-MIN KDBQ 290550Z AUTO 15013G18KT 9SM CLR 02/M01 A2991 1090 82 -200 150/13G18 RMK AO2 SLP136 T00171011 10044 20017 400831050 55004
94908KDBQ DBQ20101128235510511/28/10 23:55:31  5-MIN KDBQ 290555Z AUTO 15013G19KT 9SM CLR 02/M01 A2991 1090 82 -200 150/13G19 RMK AO2
94908KDBQ DBQ20101129000009911/29/10 00:00:38  5-MIN KDBQ 290600Z AUTO 15013KT 9SM CLR 02/M01 A2991 1090 82 -200 150/13 RMK AO2
94908KDBQ DBQ20101129000509911/29/10 00:05:31  5-MIN KDBQ 290605Z AUTO 15013KT 9SM CLR 02/M01 A2991 1090 82 -200 150/13 RMK AO2
94908KDBQ DBQ20101129001010511/29/10 00:10:31  5-MIN KDBQ 290610Z AUTO 15013G22KT 9SM CLR 02/M01 A2991 1090 82 -200 150/13G22 RMK AO2
94908KDBQ DBQ20101129001510511/29/10 00:15:31  5-MIN KDBQ 290615Z AUTO 15013G22KT 9SM CLR 02/M01 A2991 1090 82 -200 150/13G22 RMK AO2
94908KDBQ DBQ20101129002010511/29/10 00:20:31  5-MIN KDBQ 290620Z AUTO 15013G20KT 9SM CLR 02/M01 A2991 1090 82 -200 150/13G20 RMK AO2
94908KDBQ DBQ20101129002509911/29/10 00:25:31  5-MIN KDBQ 290625Z AUTO 16014KT 9SM CLR 02/M01 A2991 1090 82 -200 150/14 RMK AO2
94908KDBQ DBQ20101129003010511/29/10 00:30:31  5-MIN KDBQ 290630Z AUTO 15012G21KT 9SM CLR 02/M01 A2991 1090 82 -200 150/12G21 RMK AO2
94908KDBQ DBQ20101129003510511/29/10 00:35:31  5-MIN KDBQ 290635Z AUTO 15012G21KT 9SM CLR 02/M01 A2991 1090 82 -200 150/12G21 RMK AO2
94908KDBQ DBQ20101129004010511/29/10 00:40:31  5-MIN KDBQ 290640Z AUTO 15011G18KT 9SM CLR 02/M01 A2991 1090 82 -200 150/11G18 RMK AO2
94908KDBQ DBQ20101129004509911/29/10 00:45:31  5-MIN KDBQ 290645Z AUTO 15012KT 9SM CLR 02/M01 A2991 1090 82 -200 150/12 RMK AO2
94908KDBQ DBQ20101129005012211/29/10 00:50:31  5-MIN KDBQ 290650Z AUTO 15012G19KT 9SM CLR 02/M01 A2991 1090 82 -200 150/12G19 RMK AO2 SLP136 T00171011
94908KDBQ DBQ20101129005510511/29/10 00:55:31  5-MIN KDBQ 290655Z AUTO 15011G19KT 9SM CLR 02/M01 A2990 1090 82 -200 150/11G19 RMK AO2
94908KDBQ DBQ20101129010010511/29/10 01:00:31  5-MIN KDBQ 290700Z AUTO 15012G18KT 9SM CLR 02/M01 A2990 1090 82 -200 150/12G18 RMK AO2
94908KDBQ DBQ20101129010509911/29/10 01:05:31  5-MIN KDBQ 290705Z AUTO 16012KT 9SM CLR 02/M01 A2990 1100 82 -200 150/12 RMK AO2
94908KDBQ DBQ20101129011009911/29/10 01:10:31  5-MIN KDBQ 290710Z AUTO 16012KT 9SM CLR 02/M01 A2990 1090 82 -200 160/12 RMK AO2
94908KDBQ DBQ20101129011509911/29/10 01:15:31  5-MIN KDBQ 290715Z AUTO 15012KT 9SM CLR 02/M01 A2990 1100 82 -200 150/12 RMK AO2
94908KDBQ DBQ20101129012010511/29/10 01:20:31  5-MIN KDBQ 290720Z AUTO 15010G18KT 9SM CLR 02/M01 A2990 1100 82 -200 150/10G18 RMK AO2
94908KDBQ DBQ20101129012510511/29/10 01:25:31  5-MIN KDBQ 290725Z AUTO 15012G19KT 9SM CLR 02/M01 A2990 1100 82 -200 150/12G19 RMK AO2
94908KDBQ DBQ20101129013010511/29/10 01:30:31  5-MIN KDBQ 290730Z AUTO 15013G19KT 9SM CLR 02/M01 A2990 1100 82 -200 150/13G19 RMK AO2
94908KDBQ DBQ20101129013510511/29/10 01:35:31  5-MIN KDBQ 290735Z AUTO 15013G19KT 9SM CLR 02/M01 A2990 1100 82 -200 150/13G19 RMK AO2
94908KDBQ DBQ20101129014009911/29/10 01:40:31  5-MIN KDBQ 290740Z AUTO 15013KT 9SM CLR 02/M01 A2990 1100 82 -200 140/13 RMK AO2
94908KDBQ DBQ20101129014510511/29/10 01:45:31  5-MIN KDBQ 290745Z AUTO 15011G18KT 9SM CLR 02/M01 A2990 1100 82 -200 150/11G18 RMK AO2
94908KDBQ DBQ20101129015011611/29/10 01:50:31  5-MIN KDBQ 290750Z AUTO 15013KT 9SM CLR 02/M01 A2990 1100 82 -200 150/13 RMK AO2 SLP131 T00171011
94908KDBQ DBQ20101129015509911/29/10 01:55:31  5-MIN KDBQ 290755Z AUTO 15011KT 9SM CLR 02/M01 A2989 1100 82 -200 150/11 RMK AO2
94908KDBQ DBQ20101129020009911/29/10 02:00:31  5-MIN KDBQ 290800Z AUTO 15012KT 9SM CLR 02/M01 A2989 1100 82 -200 150/12 RMK AO2
94908KDBQ DBQ20101129020509911/29/10 02:05:31  5-MIN KDBQ 290805Z AUTO 15011KT 9SM CLR 02/M01 A2989 1110 82 -200 150/11 RMK AO2
94908KDBQ DBQ20101129021010511/29/10 02:10:31  5-MIN KDBQ 290810Z AUTO 15013G19KT 9SM CLR 02/M01 A2989 1110 78 -100 150/13G19 RMK AO2
94908KDBQ DBQ20101129021510511/29/10 02:15:31  5-MIN KDBQ 290815Z AUTO 14013G21KT 9SM CLR 02/M01 A2989 1110 78 -100 140/13G21 RMK AO2
94908KDBQ DBQ20101129022010511/29/10 02:20:31  5-MIN KDBQ 290820Z AUTO 15014G21KT 9SM CLR 02/M01 A2988 1110 82 -200 140/14G21 RMK AO2
94908KDBQ DBQ20101129022510511/29/10 02:25:31  5-MIN KDBQ 290825Z AUTO 14011G21KT 9SM CLR 02/M01 A2988 1110 82 -100 140/11G21 RMK AO2
94908KDBQ DBQ20101129023010511/29/10 02:30:31  5-MIN KDBQ 290830Z AUTO 14012G18KT 9SM CLR 02/M01 A2988 1120 82 -100 140/12G18 RMK AO2
94908KDBQ DBQ20101129023509911/29/10 02:35:31  5-MIN KDBQ 290835Z AUTO 14011KT 9SM CLR 02/M01 A2988 1120 82 -100 140/11 RMK AO2
94908KDBQ DBQ20101129024009911/29/10 02:40:31  5-MIN KDBQ 290840Z AUTO 14011KT 9SM CLR 02/M01 A2988 1120 82 -100 140/11 RMK AO2
94908KDBQ DBQ20101129024509911/29/10 02:45:31  5-MIN KDBQ 290845Z AUTO 14011KT 9SM CLR 02/M01 A2987 1120 82 -100 140/11 RMK AO2
94908KDBQ DBQ20101129025012811/29/10 02:50:31  5-MIN KDBQ 290850Z AUTO 14012G18KT 9SM CLR 02/M01 A2987 1130 82 -100 140/12G18 RMK AO2 SLP122 T00171011 51009
94908KDBQ DBQ20101129025510511/29/10 02:55:31  5-MIN KDBQ 290855Z AUTO 14012G20KT 9SM CLR 02/M01 A2987 1130 82 -100 140/12G20 RMK AO2
94908KDBQ DBQ20101129030010511/29/10 03:00:31  5-MIN KDBQ 290900Z AUTO 14013G20KT 9SM CLR 02/M01 A2987 1130 82 -100 140/13G20 RMK AO2
94908KDBQ DBQ20101129030510511/29/10 03:05:31  5-MIN KDBQ 290905Z AUTO 14012G18KT 9SM CLR 02/M01 A2987 1130 82 -100 140/12G18 RMK AO2
94908KDBQ DBQ20101129031009911/29/10 03:10:31  5-MIN KDBQ 290910Z AUTO 14013KT 9SM CLR 02/M01 A2986 1130 82 -100 140/13 RMK AO2
94908KDBQ DBQ20101129031510511/29/10 03:15:31  5-MIN KDBQ 290915Z AUTO 14013G19KT 9SM CLR 02/M01 A2986 1140 82 -100 140/13G19 RMK AO2
94908KDBQ DBQ20101129032010511/29/10 03:20:31  5-MIN KDBQ 290920Z AUTO 14012G19KT 9SM CLR 02/M01 A2986 1130 82 -100 140/12G19 RMK AO2
94908KDBQ DBQ20101129032510511/29/10 03:25:31  5-MIN KDBQ 290925Z AUTO 14012G18KT 9SM CLR 02/M01 A2986 1140 82 -100 140/12G18 RMK AO2
94908KDBQ DBQ20101129033010511/29/10 03:30:31  5-MIN KDBQ 290930Z AUTO 14012G18KT 9SM CLR 02/M01 A2986 1140 82 -100 140/12G18 RMK AO2
94908KDBQ DBQ20101129033510511/29/10 03:35:31  5-MIN KDBQ 290935Z AUTO 14012G18KT 9SM CLR 02/M02 A2985 1140 78 -100 140/12G18 RMK AO2
94908KDBQ DBQ20101129034010511/29/10 03:40:31  5-MIN KDBQ 290940Z AUTO 14013G19KT 9SM CLR 02/M02 A2985 1140 78 -100 140/13G19 RMK AO2
94908KDBQ DBQ20101129034510511/29/10 03:45:31  5-MIN KDBQ 290945Z AUTO 14012G22KT 9SM CLR 02/M02 A2985 1140 78 -100 140/12G22 RMK AO2
94908KDBQ DBQ20101129035012211/29/10 03:50:31  5-MIN KDBQ 290950Z AUTO 14014G22KT 9SM CLR 02/M02 A2985 1150 78 -100 140/14G22 RMK AO2 SLP115 T00171017
94908KDBQ DBQ20101129035509911/29/10 03:55:31  5-MIN KDBQ 290955Z AUTO 14015KT 9SM CLR 02/M02 A2985 1150 78 -100 140/15 RMK AO2
94908KDBQ DBQ20101129040010511/29/10 04:00:31  5-MIN KDBQ 291000Z AUTO 14013G19KT 9SM CLR 02/M02 A2984 1150 78 -100 140/13G19 RMK AO2
94908KDBQ DBQ20101129040510511/29/10 04:05:31  5-MIN KDBQ 291005Z AUTO 15013G22KT 9SM CLR 02/M02 A2984 1150 78 -100 140/13G22 RMK AO2
94908KDBQ DBQ20101129041010511/29/10 04:10:31  5-MIN KDBQ 291010Z AUTO 15012G22KT 9SM CLR 02/M02 A2984 1150 78 -100 150/12G22 RMK AO2
94908KDBQ DBQ20101129041510511/29/10 04:15:31  5-MIN KDBQ 291015Z AUTO 15014G20KT 9SM CLR 02/M02 A2984 1150 78 -100 150/14G20 RMK AO2
94908KDBQ DBQ20101129042010511/29/10 04:20:31  5-MIN KDBQ 291020Z AUTO 15014G23KT 9SM CLR 02/M02 A2984 1150 78 -100 140/14G23 RMK AO2
94908KDBQ DBQ20101129042510511/29/10 04:25:31  5-MIN KDBQ 291025Z AUTO 15016G23KT 9SM CLR 02/M02 A2984 1150 78 -100 140/16G23 RMK AO2
94908KDBQ DBQ20101129043010511/29/10 04:30:31  5-MIN KDBQ 291030Z AUTO 15014G23KT 9SM CLR 02/M02 A2984 1150 78 -100 150/14G23 RMK AO2
94908KDBQ DBQ20101129043510511/29/10 04:35:31  5-MIN KDBQ 291035Z AUTO 15013G22KT 9SM CLR 02/M02 A2984 1150 78 -100 150/13G22 RMK AO2
94908KDBQ DBQ20101129044010511/29/10 04:40:31  5-MIN KDBQ 291040Z AUTO 15014G22KT 9SM CLR 02/M02 A2984 1150 78 -100 150/14G22 RMK AO2
94908KDBQ DBQ20101129044510511/29/10 04:45:31  5-MIN KDBQ 291045Z AUTO 15013G21KT 9SM CLR 02/M02 A2984 1160 78 -100 150/13G21 RMK AO2
94908KDBQ DBQ20101129045012211/29/10 04:50:31  5-MIN KDBQ 291050Z AUTO 15012G20KT 9SM CLR 02/M02 A2984 1160 78 -100 150/12G20 RMK AO2 SLP111 T00171017
94908KDBQ DBQ20101129045510511/29/10 04:55:31  5-MIN KDBQ 291055Z AUTO 15012G19KT 9SM CLR 02/M02 A2983 1160 78 -100 150/12G19 RMK AO2
94908KDBQ DBQ20101129050010511/29/10 05:00:31  5-MIN KDBQ 291100Z AUTO 15013G19KT 9SM CLR 02/M02 A2983 1160 78 -100 150/13G19 RMK AO2
94908KDBQ DBQ20101129050510611/29/10 05:05:31  5-MIN KDBQ 291105Z AUTO 15012G19KT 10SM CLR 02/M02 A2983 1160 78 -100 150/12G19 RMK AO2
94908KDBQ DBQ20101129051010611/29/10 05:10:31  5-MIN KDBQ 291110Z AUTO 15014G20KT 10SM CLR 02/M02 A2983 1160 78 -100 150/14G20 RMK AO2
94908KDBQ DBQ20101129051510611/29/10 05:15:31  5-MIN KDBQ 291115Z AUTO 15013G21KT 10SM CLR 02/M02 A2983 1160 78 -100 150/13G21 RMK AO2
94908KDBQ DBQ20101129052010611/29/10 05:20:31  5-MIN KDBQ 291120Z AUTO 15012G21KT 10SM CLR 02/M02 A2983 1160 78 -100 150/12G21 RMK AO2
94908KDBQ DBQ20101129052510611/29/10 05:25:31  5-MIN KDBQ 291125Z AUTO 15014G20KT 10SM CLR 02/M02 A2983 1160 78 -100 150/14G20 RMK AO2
94908KDBQ DBQ20101129053010011/29/10 05:30:31  5-MIN KDBQ 291130Z AUTO 15013KT 10SM CLR 02/M02 A2983 1160 78 -100 150/13 RMK AO2
94908KDBQ DBQ20101129053510611/29/10 05:35:31  5-MIN KDBQ 291135Z AUTO 15012G20KT 10SM CLR 02/M02 A2983 1160 78 -100 150/12G20 RMK AO2
94908KDBQ DBQ20101129054010611/29/10 05:40:31  5-MIN KDBQ 291140Z AUTO 15012G20KT 10SM CLR 02/M02 A2983 1170 78 -100 150/12G20 RMK AO2
94908KDBQ DBQ20101129054510611/29/10 05:45:31  5-MIN KDBQ 291145Z AUTO 15012G19KT 10SM CLR 02/M02 A2982 1170 78 -100 150/12G19 RMK AO2
94908KDBQ DBQ20101129055013011/29/10 05:50:31  5-MIN KDBQ 291150Z 15012KT 10SM CLR 01/M02 A2982 1170 82 -200 150/12 RMK AO2 SLP108 T00111017 10022 20011 58012
94908KDBQ DBQ20101129055509511/29/10 05:55:31  5-MIN KDBQ 291155Z 15012KT 10SM CLR 02/M02 A2983 1170 78 -100 150/12 RMK AO2
94908KDBQ DBQ20101129060009511/29/10 06:00:31  5-MIN KDBQ 291200Z 15013KT 10SM CLR 02/M02 A2983 1170 78 -100 150/13 RMK AO2
94908KDBQ DBQ20101129060509511/29/10 06:05:31  5-MIN KDBQ 291205Z 15012KT 10SM CLR 02/M02 A2982 1170 78 -100 150/12 RMK AO2
94908KDBQ DBQ20101129061009811/29/10 06:10:31  5-MIN KDBQ 291210Z 15012KT 10SM FEW050 02/M02 A2982 1170 78 -100 150/12 RMK AO2
94908KDBQ DBQ20101129061509811/29/10 06:15:31  5-MIN KDBQ 291215Z 15012KT 10SM SCT055 02/M02 A2983 1170 78 -100 150/12 RMK AO2
94908KDBQ DBQ20101129062010411/29/10 06:20:31  5-MIN KDBQ 291220Z 15013G19KT 10SM BKN055 02/M02 A2982 1170 78 -100 150/13G19 RMK AO2
94908KDBQ DBQ20101129062509811/29/10 06:25:31  5-MIN KDBQ 291225Z 15012KT 10SM BKN060 02/M02 A2983 1170 78 -100 150/12 RMK AO2
94908KDBQ DBQ20101129063010411/29/10 06:30:31  5-MIN KDBQ 291230Z 15012G18KT 10SM BKN060 02/M02 A2983 1160 78 -100 150/12G18 RMK AO2
94908KDBQ DBQ20101129063510211/29/10 06:35:31  5-MIN KDBQ 291235Z 15011KT 10SM FEW049 OVC060 02/M02 A2983 1160 75 0 150/11 RMK AO2
94908KDBQ DBQ20101129064010111/29/10 06:40:31  5-MIN KDBQ 291240Z 15014G22KT 10SM OVC060 02/M02 A2982 1170 75 0 150/14G22 RMK AO2
94908KDBQ DBQ20101129064510111/29/10 06:45:31  5-MIN KDBQ 291245Z 15013G22KT 10SM OVC060 02/M02 A2982 1170 75 0 150/13G22 RMK AO2
94908KDBQ DBQ20101129065011811/29/10 06:50:31  5-MIN KDBQ 291250Z 15013G19KT 10SM OVC055 02/M02 A2982 1170 75 0 150/13G19 RMK AO2 SLP108 T00221017
94908KDBQ DBQ20101129065510111/29/10 06:55:31  5-MIN KDBQ 291255Z 15012G22KT 10SM OVC055 02/M02 A2982 1170 75 0 150/12G22 RMK AO2
94908KDBQ DBQ20101129070010111/29/10 07:00:31  5-MIN KDBQ 291300Z 15014G22KT 10SM OVC055 02/M01 A2982 1170 78 0 150/14G22 RMK AO2
94908KDBQ DBQ20101129070510811/29/10 07:05:31  5-MIN KDBQ 291305Z 15015G23KT 10SM BKN047 OVC055 02/M01 A2982 1170 78 0 150/15G23 RMK AO2
94908KDBQ DBQ20101129071010811/29/10 07:10:31  5-MIN KDBQ 291310Z 15014G23KT 10SM BKN047 OVC055 02/M01 A2982 1170 78 0 150/14G23 RMK AO2
94908KDBQ DBQ20101129071510811/29/10 07:15:31  5-MIN KDBQ 291315Z 15011G22KT 10SM BKN049 OVC060 02/M01 A2983 1160 78 0 150/11G22 RMK AO2
94908KDBQ DBQ20101129072010111/29/10 07:20:31  5-MIN KDBQ 291320Z 16013G22KT 10SM OVC049 02/M01 A2983 1160 78 0 160/13G22 RMK AO2
94908KDBQ DBQ20101129072510111/29/10 07:25:31  5-MIN KDBQ 291325Z 16013G20KT 10SM OVC047 02/M01 A2983 1160 78 0 160/13G20 RMK AO2
94908KDBQ DBQ20101129073010811/29/10 07:30:31  5-MIN KDBQ 291330Z 16013G19KT 10SM BKN045 OVC050 02/M01 A2984 1160 78 0 150/13G19 RMK AO2
94908KDBQ DBQ20101129073510111/29/10 07:35:31  5-MIN KDBQ 291335Z 16014G20KT 10SM OVC043 03/M01 A2983 1160 75 0 150/14G20 RMK AO2
94908KDBQ DBQ20101129074010811/29/10 07:40:31  5-MIN KDBQ 291340Z 16012G20KT 10SM BKN043 OVC050 03/M01 A2984 1160 75 0 160/12G20 RMK AO2
94908KDBQ DBQ20101129074510111/29/10 07:45:31  5-MIN KDBQ 291345Z 16013G20KT 10SM OVC043 02/M01 A2984 1160 78 0 160/13G20 RMK AO2
94908KDBQ DBQ20101129075011811/29/10 07:50:31  5-MIN KDBQ 291350Z 16013G20KT 10SM OVC043 03/M01 A2984 1160 75 0 150/13G20 RMK AO2 SLP112 T00281011
94908KDBQ DBQ20101129075510811/29/10 07:55:31  5-MIN KDBQ 291355Z 15011G20KT 10SM BKN043 OVC050 02/M01 A2983 1160 78 0 150/11G20 RMK AO2
94908KDBQ DBQ20101129080010711/29/10 08:00:31  5-MIN KDBQ 291400Z 15013G24KT 9SM BKN043 OVC050 02/M01 A2983 1160 78 0 150/13G24 RMK AO2
94908KDBQ DBQ20101129080510011/29/10 08:05:31  5-MIN KDBQ 291405Z 15014G24KT 9SM OVC046 02/M01 A2983 1170 78 0 150/14G24 RMK AO2
94908KDBQ DBQ20101129081010011/29/10 08:10:31  5-MIN KDBQ 291410Z 14013G21KT 9SM OVC046 02/M01 A2982 1170 78 0 140/13G21 RMK AO2
94908KDBQ DBQ20101129081510011/29/10 08:15:31  5-MIN KDBQ 291415Z 15015G22KT 9SM OVC050 02/M01 A2982 1170 78 0 150/15G22 RMK AO2
94908KDBQ DBQ20101129082010111/29/10 08:20:31  5-MIN KDBQ 291420Z 14015G22KT 10SM OVC050 02/M01 A2982 1170 78 0 140/15G22 RMK AO2
94908KDBQ DBQ20101129082510811/29/10 08:25:31  5-MIN KDBQ 291425Z 15012G21KT 10SM FEW041 OVC055 02/M01 A2982 1170 78 0 150/12G21 RMK AO2
94908KDBQ DBQ20101129083010111/29/10 08:30:31  5-MIN KDBQ 291430Z 15014G24KT 10SM OVC055 03/M01 A2982 1170 75 0 150/14G24 RMK AO2
94908KDBQ DBQ20101129083511511/29/10 08:35:31  5-MIN KDBQ 291435Z 15015G25KT 10SM BKN050 BKN070 OVC080 03/M01 A2982 1170 75 0 150/15G25 RMK AO2
94908KDBQ DBQ20101129084011511/29/10 08:40:31  5-MIN KDBQ 291440Z 15017G25KT 10SM BKN055 BKN070 OVC080 03/M01 A2982 1170 75 0 150/17G25 RMK AO2
94908KDBQ DBQ20101129084510811/29/10 08:45:31  5-MIN KDBQ 291445Z 15016G23KT 10SM BKN055 OVC080 03/M01 A2983 1170 75 0 150/16G23 RMK AO2
94908KDBQ DBQ20101129085013111/29/10 08:50:31  5-MIN KDBQ 291450Z 15015G23KT 10SM BKN055 OVC080 03/M01 A2983 1170 79 0 150/15G23 RMK AO2 SLP110 T00281006 56014
94908KDBQ DBQ20101129085511511/29/10 08:55:31  5-MIN KDBQ 291455Z 15015G22KT 10SM BKN055 BKN070 OVC080 03/M01 A2983 1160 79 0 150/15G22 RMK AO2
94908KDBQ DBQ20101129090011511/29/10 09:00:31  5-MIN KDBQ 291500Z 16014G22KT 10SM BKN055 BKN065 OVC080 03/M01 A2983 1170 79 0 160/14G22 RMK AO2
94908KDBQ DBQ20101129091511011/29/10 09:15:31  5-MIN KDBQ 291515Z 15016G23KT 10SM BKN040 OVC055 03/M01 A2982 1170 76 100 150/16G23 RMK AO2
94908KDBQ DBQ20101129092011011/29/10 09:20:31  5-MIN KDBQ 291520Z 15018G24KT 10SM BKN040 OVC055 03/M01 A2981 1180 76 100 140/18G24 RMK AO2
94908KDBQ DBQ20101129092511011/29/10 09:25:31  5-MIN KDBQ 291525Z 14018G25KT 10SM BKN040 OVC050 03/M01 A2981 1180 76 100 140/18G25 RMK AO2
94908KDBQ DBQ20101129093011011/29/10 09:30:31  5-MIN KDBQ 291530Z 15014G25KT 10SM BKN040 OVC050 03/M01 A2981 1180 76 100 150/14G25 RMK AO2
94908KDBQ DBQ20101129093510311/29/10 09:35:31  5-MIN KDBQ 291535Z 15016G22KT 10SM OVC040 03/M01 A2981 1180 76 100 150/16G22 RMK AO2
94908KDBQ DBQ20101129094010311/29/10 09:40:31  5-MIN KDBQ 291540Z 14017G25KT 10SM OVC038 03/M01 A2981 1180 76 100 140/17G25 RMK AO2
94908KDBQ DBQ20101129094510311/29/10 09:45:31  5-MIN KDBQ 291545Z 14016G25KT 10SM OVC038 03/M01 A2980 1190 76 100 140/16G25 RMK AO2
94908KDBQ DBQ20101129095012011/29/10 09:50:31  5-MIN KDBQ 291550Z 15016G23KT 10SM OVC038 03/M01 A2980 1190 76 100 140/16G23 RMK AO2 SLP100 T00331006
94908KDBQ DBQ20101129095510211/29/10 09:55:31  5-MIN KDBQ 291555Z 14017G24KT 10SM OVC038 04/00 A2980 1190 76 200 140/17G24 RMK AO2
94908KDBQ DBQ20101129100010211/29/10 10:00:31  5-MIN KDBQ 291600Z 15015G25KT 10SM OVC038 04/00 A2980 1190 76 200 150/15G25 RMK AO2
94908KDBQ DBQ20101129100510211/29/10 10:05:31  5-MIN KDBQ 291605Z 15015G25KT 10SM OVC038 04/00 A2980 1190 76 200 150/15G25 RMK AO2
94908KDBQ DBQ20101129101010211/29/10 10:10:31  5-MIN KDBQ 291610Z 14016G25KT 10SM OVC038 04/00 A2980 1190 76 200 140/16G25 RMK AO2
94908KDBQ DBQ20101129101510211/29/10 10:15:31  5-MIN KDBQ 291615Z 15016G23KT 10SM OVC038 04/00 A2980 1190 76 200 150/16G23 RMK AO2
94908KDBQ DBQ20101129102010911/29/10 10:20:31  5-MIN KDBQ 291620Z 14017G24KT 10SM BKN038 OVC085 04/00 A2979 1200 76 200 140/17G24 RMK AO2
94908KDBQ DBQ20101129102512711/29/10 10:25:31  5-MIN KDBQ 291625Z 14018G26KT 10SM BKN038 OVC085 04/00 A2979 1200 76 200 140/18G26 RMK AO2 PK WND 14026/1622
94908KDBQ DBQ20101129103012711/29/10 10:30:31  5-MIN KDBQ 291630Z 15017G26KT 10SM SCT038 OVC085 04/00 A2978 1210 73 300 150/17G26 RMK AO2 PK WND 14026/1622
94908KDBQ DBQ20101129103513411/29/10 10:35:31  5-MIN KDBQ 291635Z 15016G24KT 10SM FEW038 SCT060 OVC085 04/00 A2978 1210 73 300 150/16G24 RMK AO2 PK WND 14026/1622
94908KDBQ DBQ20101129104013411/29/10 10:40:31  5-MIN KDBQ 291640Z 15015G25KT 10SM FEW038 SCT060 OVC085 04/00 A2978 1210 73 300 150/15G25 RMK AO2 PK WND 14026/1622
94908KDBQ DBQ20101129104512711/29/10 10:45:31  5-MIN KDBQ 291645Z 15016G26KT 10SM SCT060 OVC085 04/00 A2977 1220 73 300 150/16G26 RMK AO2 PK WND 13026/1641
94908KDBQ DBQ20101129105014411/29/10 10:50:31  5-MIN KDBQ 291650Z 15014G26KT 10SM FEW060 OVC085 04/01 A2977 1220 76 300 150/14G26 RMK AO2 PK WND 13026/1641 SLP087 T00440006
94908KDBQ DBQ20101129105510911/29/10 10:55:31  5-MIN KDBQ 291655Z 15018G25KT 10SM FEW060 OVC085 05/01 A2976 1230 73 400 150/18G25 RMK AO2
94908KDBQ DBQ20101129110010911/29/10 11:00:31  5-MIN KDBQ 291700Z 15016G24KT 10SM FEW060 BKN080 04/01 A2976 1230 76 300 150/16G24 RMK AO2
94908KDBQ DBQ20101129110510911/29/10 11:05:31  5-MIN KDBQ 291705Z 15014G23KT 10SM FEW060 BKN080 06/01 A2976 1230 70 400 150/14G23 RMK AO2
94908KDBQ DBQ20101129111012011/29/10 11:10:31  5-MIN KDBQ 291710Z 15017G27KT 10SM BKN080 06/01 A2976 1230 70 400 150/17G27 RMK AO2 PK WND 13027/1709
94908KDBQ DBQ20101129111512011/29/10 11:15:31  5-MIN KDBQ 291715Z 15017G27KT 10SM BKN080 05/01 A2976 1230 73 400 150/17G27 RMK AO2 PK WND 13027/1709
94908KDBQ DBQ20101129112012011/29/10 11:20:31  5-MIN KDBQ 291720Z 15016G25KT 10SM BKN085 06/01 A2975 1230 70 400 150/16G25 RMK AO2 PK WND 13027/1709
94908KDBQ DBQ20101129112512011/29/10 11:25:31  5-MIN KDBQ 291725Z 15017G24KT 10SM BKN085 06/01 A2975 1240 70 500 150/17G24 RMK AO2 PK WND 13027/1709
94908KDBQ DBQ20101129113012711/29/10 11:30:31  5-MIN KDBQ 291730Z 15018G24KT 10SM FEW055 BKN085 06/01 A2975 1240 70 500 150/18G24 RMK AO2 PK WND 13027/1709
94908KDBQ DBQ20101129113512711/29/10 11:35:31  5-MIN KDBQ 291735Z 15016G24KT 10SM FEW055 SCT085 06/01 A2975 1240 70 500 150/16G24 RMK AO2 PK WND 13027/1709
94908KDBQ DBQ20101129114012711/29/10 11:40:31  5-MIN KDBQ 291740Z 15016G24KT 10SM FEW055 SCT085 06/01 A2974 1240 70 500 150/16G24 RMK AO2 PK WND 13027/1709
94908KDBQ DBQ20101129114512711/29/10 11:45:31  5-MIN KDBQ 291745Z 15016G23KT 10SM FEW055 SCT080 06/01 A2974 1250 70 500 150/16G23 RMK AO2 PK WND 13027/1709
94908KDBQ DBQ20101129115016211/29/10 11:50:31  5-MIN KDBQ 291750Z 15017G25KT 10SM FEW055 SCT080 06/01 A2973 1250 70 500 150/17G25 RMK AO2 PK WND 13027/1709 SLP077 T00610011 10061 20017 58000
94908KDBQ DBQ20101129115510911/29/10 11:55:31  5-MIN KDBQ 291755Z 15019G25KT 10SM FEW055 BKN080 06/01 A2974 1250 70 500 150/19G25 RMK AO2
94908KDBQ DBQ20101129120010211/29/10 12:00:31  5-MIN KDBQ 291800Z 15017G25KT 10SM BKN080 06/01 A2973 1250 70 500 150/17G25 RMK AO2
94908KDBQ DBQ20101129120512011/29/10 12:05:31  5-MIN KDBQ 291805Z 14018G26KT 10SM BKN080 06/01 A2972 1260 70 500 140/18G26 RMK AO2 PK WND 14026/1803
94908KDBQ DBQ20101129121012711/29/10 12:10:31  5-MIN KDBQ 291810Z 14016G26KT 10SM BKN080 06/01 A2971 1270 70 500 140/16G26 RMK AO2 PK WND 14026/1806 PRESFR
94908KDBQ DBQ20101129121512011/29/10 12:15:31  5-MIN KDBQ 291815Z 15014G26KT 10SM BKN080 07/02 A2971 1270 70 600 150/14G26 RMK AO2 PK WND 14026/1806
94908KDBQ DBQ20101129122012711/29/10 12:20:31  5-MIN KDBQ 291820Z 15014G25KT 10SM FEW027 BKN080 07/02 A2971 1270 70 600 150/14G25 RMK AO2 PK WND 14026/1806
94908KDBQ DBQ20101129122512711/29/10 12:25:31  5-MIN KDBQ 291825Z 16015G25KT 10SM SCT027 BKN080 07/02 A2972 1260 70 600 150/15G25 RMK AO2 PK WND 14026/1806
94908KDBQ DBQ20101129123012711/29/10 12:30:31  5-MIN KDBQ 291830Z 15015G22KT 10SM BKN027 BKN080 07/02 A2972 1270 70 600 150/15G22 RMK AO2 PK WND 14026/1806
94908KDBQ DBQ20101129123512711/29/10 12:35:31  5-MIN KDBQ 291835Z 15012G21KT 10SM BKN027 BKN080 07/02 A2970 1280 68 700 150/12G21 RMK AO2 PK WND 14026/1806
94908KDBQ DBQ20101129124013411/29/10 12:40:31  5-MIN KDBQ 291840Z 14016G22KT 10SM BKN027 BKN033 07/02 A2968 1300 70 700 140/16G22 RMK AO2 PK WND 14026/1806 PRESFR
94908KDBQ DBQ20101129124513411/29/10 12:45:31  5-MIN KDBQ 291845Z 14015G24KT 10SM BKN027 BKN033 07/02 A2968 1300 70 700 140/15G24 RMK AO2 PK WND 14026/1806 PRESFR
94908KDBQ DBQ20101129125012711/29/10 12:50:31  5-MIN KDBQ 291850Z 14017G24KT 10SM SCT027 07/02 A2966 1320 70 700 130/17G24 RMK AO2 PK WND 14026/1806 PRESFR
94908KDBQ DBQ20101129125510211/29/10 12:55:31  5-MIN KDBQ 291855Z 13016G24KT 10SM SCT027 07/02 A2967 1310 70 700 130/16G24 RMK AO2
94908KDBQ DBQ20101129130010211/29/10 13:00:31  5-MIN KDBQ 291900Z 13015G22KT 10SM FEW027 07/02 A2967 1310 70 700 130/15G22 RMK AO2
94908KDBQ DBQ20101129130509911/29/10 13:05:31  5-MIN KDBQ 291905Z 14014G22KT 10SM CLR 07/02 A2967 1310 70 700 140/14G22 RMK AO2
94908KDBQ DBQ20101129131009911/29/10 13:10:31  5-MIN KDBQ 291910Z 14013G23KT 10SM CLR 07/02 A2967 1310 70 700 130/13G23 RMK AO2
94908KDBQ DBQ20101129131509911/29/10 13:15:31  5-MIN KDBQ 291915Z 14011G23KT 10SM CLR 07/02 A2967 1310 70 700 140/11G23 RMK AO2
94908KDBQ DBQ20101129132009911/29/10 13:20:31  5-MIN KDBQ 291920Z 14014G20KT 10SM CLR 07/02 A2967 1310 70 700 140/14G20 RMK AO2
94908KDBQ DBQ20101129132509911/29/10 13:25:31  5-MIN KDBQ 291925Z 14017G24KT 10SM CLR 07/02 A2968 1300 70 700 140/17G24 RMK AO2
94908KDBQ DBQ20101129133009911/29/10 13:30:31  5-MIN KDBQ 291930Z 15014G24KT 10SM CLR 07/03 A2968 1300 73 700 140/14G24 RMK AO2
94908KDBQ DBQ20101129133509911/29/10 13:35:31  5-MIN KDBQ 291935Z 14012G21KT 10SM CLR 07/03 A2968 1300 73 700 140/12G21 RMK AO2
94908KDBQ DBQ20101129134009311/29/10 13:40:31  5-MIN KDBQ 291940Z 14012KT 10SM CLR 07/02 A2968 1300 70 700 140/12 RMK AO2
94908KDBQ DBQ20101129134509911/29/10 13:45:31  5-MIN KDBQ 291945Z 15013G19KT 10SM CLR 07/02 A2969 1290 70 700 150/13G19 RMK AO2
94908KDBQ DBQ20101129135011611/29/10 13:50:31  5-MIN KDBQ 291950Z 14012G19KT 10SM CLR 07/03 A2969 1290 73 700 140/12G19 RMK AO2 SLP061 T00720028
94908KDBQ DBQ20101129135509911/29/10 13:55:31  5-MIN KDBQ 291955Z 14011G20KT 10SM CLR 07/03 A2968 1300 73 700 140/11G20 RMK AO2
94908KDBQ DBQ20101129140012511/29/10 14:00:31  5-MIN KDBQ 292000Z 15016G21KT 10SM -RA FEW029 SCT070 07/03 A2969 1290 73 700 150/16G21 RMK AO2 RAB00 P0000
94908KDBQ DBQ20101129140512411/29/10 14:05:31  5-MIN KDBQ 292005Z 14010G21KT 9SM -RA FEW031 BKN050 07/03 A2967 1310 76 700 140/10G21 RMK AO2 RAB00 P0000
94908KDBQ DBQ20101129141012511/29/10 14:10:31  5-MIN KDBQ 292010Z 15014KT 7SM -RA SCT027 BKN045 BKN065 07/03 A2969 1290 79 600 150/14 RMK AO2 RAB00 P0000
94908KDBQ DBQ20101129141512511/29/10 14:15:31  5-MIN KDBQ 292015Z 15014KT 6SM -RA SCT022 BKN030 BKN049 07/03 A2969 1290 79 600 150/14 RMK AO2 RAB00 P0001
94908KDBQ DBQ20101129142012711/29/10 14:20:31  5-MIN KDBQ 292020Z 15010KT 2SM RA BR SCT022 BKN030 BKN049 06/04 A2969 1290 86 600 150/10 RMK AO2 RAB00 P0002
94908KDBQ DBQ20101129142512711/29/10 14:25:31  5-MIN KDBQ 292025Z 17009KT 2SM RA BR SCT022 BKN030 OVC049 06/04 A2970 1290 86 600 160/09 RMK AO2 RAB00 P0004
94908KDBQ DBQ20101129143014011/29/10 14:30:31  5-MIN KDBQ 292030Z 19013G19KT 2SM RA BR FEW017 BKN024 OVC049 06/04 A2974 1240 89 500 190/13G19 RMK AO2 RAB00 PRESRR P0006
94908KDBQ DBQ20101129143515111/29/10 14:35:31  5-MIN KDBQ 292035Z 19012G19KT 2SM R36/5500VP6000FT +RA BR SCT017 BKN021 OVC039 06/04 A2974 1250 92 400 190/12G19 RMK AO2 RAB00 P0009
94908KDBQ DBQ20101129144014411/29/10 14:40:31  5-MIN KDBQ 292040Z 19009KT 2SM R36/5500VP6000FT RA BR BKN017 BKN022 OVC028 06/05 A2973 1250 96 500 190/09 RMK AO2 RAB00 P0012
94908KDBQ DBQ20101129144513711/29/10 14:45:31  5-MIN KDBQ 292045Z 19010KT 2SM R36/6000VP6000FT RA BR BKN017 OVC025 06/05 A2972 1260 96 500 180/10 RMK AO2 RAB00 P0013
94908KDBQ DBQ20101129145014911/29/10 14:50:31  5-MIN KDBQ 292050Z 18010KT 2SM RA BR SCT017 OVC025 06/05 A2972 1270 96 500 180/10 RMK AO2 RAB00 SLP072 P0015 60015 T00560050 57029
94908KDBQ DBQ20101129145512111/29/10 14:55:31  5-MIN KDBQ 292055Z 17009KT 3SM RA BR BKN017 OVC025 06/05 A2971 1270 96 500 170/09 RMK AO2 PRESFR P0001
94908KDBQ DBQ20101129150011411/29/10 15:00:31  5-MIN KDBQ 292100Z 17008KT 3SM RA BR BKN020 OVC028 06/05 A2971 1270 96 500 170/08 RMK AO2 P0003
94908KDBQ DBQ20101129150511811/29/10 15:05:31  5-MIN KDBQ 292105Z 16009KT 2 1/2SM RA BR BKN018 OVC025 06/04 A2970 1280 92 500 160/09 RMK AO2 P0004
94908KDBQ DBQ20101129151013811/29/10 15:10:31  5-MIN KDBQ 292110Z 15010KT 2SM R36/5500VP6000FT RA BR BKN018 OVC025 06/05 A2969 1290 96 500 150/10 RMK AO2 PRESFR P0006
94908KDBQ DBQ20101129151514511/29/10 15:15:31  5-MIN KDBQ 292115Z 14010KT 2SM R36/5500VP6000FT RA BR SCT018 BKN025 OVC030 06/05 A2968 1300 96 500 140/10 RMK AO2 PRESFR P0009
94908KDBQ DBQ20101129152011811/29/10 15:20:31  5-MIN KDBQ 292120Z 14010KT 2 1/2SM RA BR SCT018 OVC032 06/05 A2968 1310 96 500 140/10 RMK AO2 P0011
94908KDBQ DBQ20101129152512511/29/10 15:25:31  5-MIN KDBQ 292125Z 13010KT 2 1/2SM RA BR FEW018 OVC032 06/05 A2967 1320 96 500 130/10 RMK AO2 PRESFR P0012
94908KDBQ DBQ20101129153012111/29/10 15:30:31  5-MIN KDBQ 292130Z 13010KT 3SM RA BR FEW018 BKN032 OVC070 06/05 A2966 1320 96 500 130/10 RMK AO2 P0014
94908KDBQ DBQ20101129153512211/29/10 15:35:31  5-MIN KDBQ 292135Z 12010KT 4SM -RA BR BKN034 BKN070 06/05 A2965 1330 96 500 120/10 RMK AO2 PRESFR P0014
94908KDBQ DBQ20101129154012211/29/10 15:40:31  5-MIN KDBQ 292140Z 12012KT 5SM -RA BR BKN036 OVC075 06/05 A2965 1330 96 600 120/12 RMK AO2 PRESFR P0014
94908KDBQ DBQ20101129154511711/29/10 15:45:31  5-MIN KDBQ 292145Z 13013KT 5SM BR SCT041 OVC075 06/05 A2964 1340 96 600 130/13 RMK AO2 RAE41 P0014
94908KDBQ DBQ20101129155014011/29/10 15:50:31  5-MIN KDBQ 292150Z 14014G20KT 5SM BR FEW045 OVC080 06/04 A2964 1340 92 600 140/14G20 RMK AO2 RAE41 SLP046 P0014 T00560044
94908KDBQ DBQ20101129155511111/29/10 15:55:31  5-MIN KDBQ 292155Z 14013G20KT 5SM BR FEW006 OVC080 06/05 A2964 1340 96 600 140/13G20 RMK AO2
94908KDBQ DBQ20101129160011811/29/10 16:00:31  5-MIN KDBQ 292200Z 14016G23KT 5SM BR FEW006 SCT017 OVC075 06/05 A2965 1330 96 600 140/16G23 RMK AO2
94908KDBQ DBQ20101129160511811/29/10 16:05:31  5-MIN KDBQ 292205Z 14014G23KT 5SM BR SCT006 BKN015 OVC080 06/04 A2964 1340 92 600 140/14G23 RMK AO2
94908KDBQ DBQ20101129161011811/29/10 16:10:31  5-MIN KDBQ 292210Z 14016G22KT 5SM BR SCT006 BKN015 OVC080 06/04 A2963 1350 92 600 140/16G22 RMK AO2
94908KDBQ DBQ20101129161513611/29/10 16:15:31  5-MIN KDBQ 292215Z 14018G26KT 5SM BR BKN006 BKN015 OVC080 06/04 A2963 1350 92 600 140/18G26 RMK AO2 PK WND 13026/2215
94908KDBQ DBQ20101129162013611/29/10 16:20:31  5-MIN KDBQ 292220Z 15015G26KT 5SM BR BKN006 BKN015 OVC080 06/04 A2963 1350 92 600 150/15G26 RMK AO2 PK WND 13026/2215
94908KDBQ DBQ20101129162513611/29/10 16:25:31  5-MIN KDBQ 292225Z 15018G25KT 5SM BR BKN006 BKN015 OVC080 06/04 A2964 1340 92 600 150/18G25 RMK AO2 PK WND 13026/2215
94908KDBQ DBQ20101129163013611/29/10 16:30:31  5-MIN KDBQ 292230Z 15018G25KT 5SM BR BKN006 BKN015 OVC080 06/04 A2964 1340 92 600 150/18G25 RMK AO2 PK WND 13026/2215
94908KDBQ DBQ20101129163513611/29/10 16:35:31  5-MIN KDBQ 292235Z 15018G25KT 5SM BR BKN006 BKN015 OVC080 06/04 A2964 1340 92 600 150/18G25 RMK AO2 PK WND 13026/2215
94908KDBQ DBQ20101129164013611/29/10 16:40:31  5-MIN KDBQ 292240Z 15017G27KT 6SM BR BKN006 BKN015 OVC080 06/04 A2964 1340 92 600 150/17G27 RMK AO2 PK WND 14027/2240
94908KDBQ DBQ20101129164513611/29/10 16:45:31  5-MIN KDBQ 292245Z 15018G27KT 6SM BR BKN006 BKN015 OVC080 06/04 A2964 1340 92 600 150/18G27 RMK AO2 PK WND 14027/2242
94908KDBQ DBQ20101129165013911/29/10 16:50:31  5-MIN KDBQ 292250Z 15018G27KT 6SM BR OVC006 06/04 A2965 1330 92 600 150/18G27 RMK AO2 PK WND 14027/2242 SLP047 T00560044
94908KDBQ DBQ20101129165510411/29/10 16:55:31  5-MIN KDBQ 292255Z 15015G25KT 5SM BR OVC006 06/04 A2965 1330 92 600 150/15G25 RMK AO2
94908KDBQ DBQ20101129170010411/29/10 17:00:31  5-MIN KDBQ 292300Z 15017G23KT 5SM BR OVC006 06/05 A2964 1340 96 600 150/17G23 RMK AO2
94908KDBQ DBQ20101129170510411/29/10 17:05:31  5-MIN KDBQ 292305Z 15015G23KT 5SM BR OVC004 06/05 A2964 1340 96 600 150/15G23 RMK AO2
94908KDBQ DBQ20101129171010411/29/10 17:10:31  5-MIN KDBQ 292310Z 15017G24KT 5SM BR OVC004 06/05 A2964 1330 96 600 150/17G24 RMK AO2
94908KDBQ DBQ20101129171510411/29/10 17:15:31  5-MIN KDBQ 292315Z 15015G24KT 5SM BR OVC004 06/05 A2964 1340 96 600 150/15G24 RMK AO2
94908KDBQ DBQ20101129172010411/29/10 17:20:31  5-MIN KDBQ 292320Z 15016G24KT 5SM BR OVC004 06/05 A2964 1340 96 600 150/16G24 RMK AO2
94908KDBQ DBQ20101129172510411/29/10 17:25:31  5-MIN KDBQ 292325Z 15015G24KT 5SM BR OVC004 06/05 A2964 1340 96 600 150/15G24 RMK AO2
94908KDBQ DBQ20101129173010411/29/10 17:30:31  5-MIN KDBQ 292330Z 15017G24KT 5SM BR OVC004 06/05 A2963 1340 96 600 150/17G24 RMK AO2
94908KDBQ DBQ20101129173510411/29/10 17:35:31  5-MIN KDBQ 292335Z 15013G24KT 5SM BR OVC004 06/05 A2963 1350 96 600 150/13G24 RMK AO2
94908KDBQ DBQ20101129174010411/29/10 17:40:31  5-MIN KDBQ 292340Z 15016G23KT 4SM BR OVC004 06/05 A2963 1350 96 600 150/16G23 RMK AO2
94908KDBQ DBQ20101129174510411/29/10 17:45:31  5-MIN KDBQ 292345Z 15015G23KT 4SM BR OVC004 06/05 A2963 1350 96 600 150/15G23 RMK AO2
94908KDBQ DBQ20101129175014511/29/10 17:50:31  5-MIN KDBQ 292350Z 15016G24KT 4SM BR OVC004 06/05 A2963 1340 96 600 150/16G24 RMK AO2 SLP043 60029 T00560050 10072 20056 53017
94908KDBQ DBQ20101129175510411/29/10 17:55:31  5-MIN KDBQ 292355Z 15017G24KT 4SM BR OVC004 06/05 A2963 1340 96 600 150/17G24 RMK AO2
94908KDBQ DBQ20101129180012211/29/10 18:00:31  5-MIN KDBQ 300000Z 15017G26KT 3SM BR OVC004 06/05 A2963 1350 96 600 150/17G26 RMK AO2 PK WND 14026/2357
94908KDBQ DBQ20101129180512211/29/10 18:05:31  5-MIN KDBQ 300005Z 15015G26KT 3SM BR OVC004 06/05 A2963 1350 96 600 150/15G26 RMK AO2 PK WND 14026/2357
94908KDBQ DBQ20101129181012211/29/10 18:10:31  5-MIN KDBQ 300010Z 15014G21KT 3SM BR OVC004 06/05 A2962 1350 96 600 150/14G21 RMK AO2 PK WND 14026/2357
94908KDBQ DBQ20101129181512211/29/10 18:15:31  5-MIN KDBQ 300015Z 15015G22KT 3SM BR OVC004 06/05 A2962 1360 96 600 150/15G22 RMK AO2 PK WND 14026/2357
94908KDBQ DBQ20101129182012211/29/10 18:20:31  5-MIN KDBQ 300020Z 15014G22KT 3SM BR OVC004 06/06 A2962 1360 96 700 150/14G22 RMK AO2 PK WND 14026/2357
94908KDBQ DBQ20101129182514211/29/10 18:25:31  5-MIN KDBQ 300025Z 15012G22KT 2 1/2SM -RA BR OVC004 06/06 A2962 1360 96 700 150/12G22 RMK AO2 PK WND 14026/2357 RAB23 P0000
94908KDBQ DBQ20101129183013811/29/10 18:30:31  5-MIN KDBQ 300030Z 15013G22KT 2SM -RA BR OVC004 06/06 A2962 1360 96 700 150/13G22 RMK AO2 PK WND 14026/2357 RAB23 P0000
94908KDBQ DBQ20101129183514111/29/10 18:35:31  5-MIN KDBQ 300035Z 15014G25KT 2 1/2SM BR OVC002 06/06 A2961 1360 96 700 150/14G25 RMK AO2 PK WND 14026/2357 RAB23E35 P0000
94908KDBQ DBQ20101129184013711/29/10 18:40:31  5-MIN KDBQ 300040Z 15015G25KT 3SM BR OVC002 06/06 A2961 1370 96 700 150/15G25 RMK AO2 PK WND 14026/2357 RAB23E35 P0000
94908KDBQ DBQ20101129184513711/29/10 18:45:31  5-MIN KDBQ 300045Z 15015G23KT 3SM BR OVC002 06/06 A2961 1360 96 700 150/15G23 RMK AO2 PK WND 14026/2357 RAB23E35 P0000
94908KDBQ DBQ20101129185015411/29/10 18:50:31  5-MIN KDBQ 300050Z 15015G22KT 3SM BR OVC002 06/06 A2961 1360 96 700 150/15G22 RMK AO2 PK WND 14026/2357 RAB23E35 SLP036 P0000 T00610056
94908KDBQ DBQ20101129185510411/29/10 18:55:31  5-MIN KDBQ 300055Z 16012G21KT 3SM BR OVC002 06/06 A2961 1370 96 700 160/12G21 RMK AO2
94908KDBQ DBQ20101129190011011/29/10 19:00:31  5-MIN KDBQ 300100Z 16011G18KT 3SM BR OVC002 06/06 A2962 1360 96 700 160/11G18 RMK AO2 P0001
94908KDBQ DBQ20101129190511411/29/10 19:05:31  5-MIN KDBQ 300105Z 16012G18KT 2 1/2SM BR OVC002 06/06 A2962 1360 96 700 160/12G18 RMK AO2 P0001
94908KDBQ DBQ20101129191010411/29/10 19:10:31  5-MIN KDBQ 300110Z 16012KT 2SM BR OVC002 06/06 A2961 1360 96 700 160/12 RMK AO2 P0001
94908KDBQ DBQ20101129191511411/29/10 19:15:31  5-MIN KDBQ 300115Z 16011G18KT 1 3/4SM BR OVC002 06/06 A2961 1360 96 700 160/11G18 RMK AO2 P0001
94908KDBQ DBQ20101129192011411/29/10 19:20:31  5-MIN KDBQ 300120Z 17010G18KT 1 3/4SM BR OVC002 06/06 A2961 1370 96 700 160/10G18 RMK AO2 P0001
94908KDBQ DBQ20101129192511411/29/10 19:25:31  5-MIN KDBQ 300125Z 17011G17KT 1 3/4SM BR OVC002 06/06 A2961 1370 96 700 170/11G17 RMK AO2 P0001
94908KDBQ DBQ20101129193010811/29/10 19:30:31  5-MIN KDBQ 300130Z 16010KT 1 3/4SM BR OVC002 06/06 A2961 1370 96 700 160/10 RMK AO2 P0001
94908KDBQ DBQ20101129193510811/29/10 19:35:31  5-MIN KDBQ 300135Z 17011KT 1 3/4SM BR OVC002 06/06 A2960 1370 96 700 170/11 RMK AO2 P0001
94908KDBQ DBQ20101129194010911/29/10 19:40:31  5-MIN KDBQ 300140Z 17011KT 1 3/4SM BR OVC002 06/06 A2961 1370 100 700 160/11 RMK AO2 P0001
94908KDBQ DBQ20101129194510811/29/10 19:45:31  5-MIN KDBQ 300145Z 16010KT 1 3/4SM BR OVC002 06/06 A2960 1370 96 700 160/10 RMK AO2 P0001
94908KDBQ DBQ20101129195010511/29/10 19:50:31  5-MIN KDBQ 300150Z 16010KT 2SM BR OVC002 06/06 A2960 1380 100 700 160/10 RMK AO2 P0001
94908KDBQ DBQ20101129195509911/29/10 19:55:31  5-MIN KDBQ 300155Z 16011KT 2SM BR OVC002 06/06 A2959 1380 100 700 160/11 RMK AO2
94908KDBQ DBQ20101129200010811/29/10 20:00:31  5-MIN KDBQ 300200Z AUTO 16011KT 1 3/4SM BR OVC002 06/06 A2959 1380 100 700 160/11 RMK AO2
94908KDBQ DBQ20101129200510811/29/10 20:05:31  5-MIN KDBQ 300205Z AUTO 17011KT 1 1/2SM BR OVC002 06/06 A2959 1380 100 700 170/11 RMK AO2
94908KDBQ DBQ20101129201010811/29/10 20:10:31  5-MIN KDBQ 300210Z AUTO 16011KT 1 1/2SM BR OVC002 06/06 A2959 1390 100 700 160/11 RMK AO2
94908KDBQ DBQ20101129201510811/29/10 20:15:31  5-MIN KDBQ 300215Z AUTO 16012KT 1 3/4SM BR OVC002 06/06 A2959 1390 100 700 160/12 RMK AO2
94908KDBQ DBQ20101129202010811/29/10 20:20:31  5-MIN KDBQ 300220Z AUTO 17012KT 1 3/4SM BR OVC002 06/06 A2959 1380 100 700 170/12 RMK AO2
94908KDBQ DBQ20101129202510811/29/10 20:25:31  5-MIN KDBQ 300225Z AUTO 17010KT 1 3/4SM BR OVC002 06/06 A2959 1390 100 700 170/10 RMK AO2
94908KDBQ DBQ20101129203010811/29/10 20:30:31  5-MIN KDBQ 300230Z AUTO 17010KT 1 1/2SM BR OVC002 06/06 A2959 1380 100 700 170/10 RMK AO2
94908KDBQ DBQ20101129203512511/29/10 20:35:31  5-MIN KDBQ 300235Z AUTO 17010KT 1 1/4SM R36/6000VP6000FT BR OVC002 06/06 A2959 1390 100 700 170/10 RMK AO2
94908KDBQ DBQ20101129204012111/29/10 20:40:31  5-MIN KDBQ 300240Z AUTO 17011KT 1SM R36/5500VP6000FT BR OVC002 06/06 A2959 1380 100 700 170/11 RMK AO2
94908KDBQ DBQ20101129204512011/29/10 20:45:31  5-MIN KDBQ 300245Z AUTO 17010KT 1SM R36/5500V6000FT BR OVC002 06/06 A2959 1390 100 700 170/10 RMK AO2
94908KDBQ DBQ20101129205014911/29/10 20:50:31  5-MIN KDBQ 300250Z AUTO 17011KT 1SM R36/5500V6000FT BR OVC002 06/06 A2959 1390 100 700 170/11 RMK AO2 SLP026 60001 T00610061 56026
94908KDBQ DBQ20101129205512011/29/10 20:55:31  5-MIN KDBQ 300255Z AUTO 17011KT 1SM R36/5500V6000FT BR OVC002 06/06 A2958 1390 100 700 170/11 RMK AO2
94908KDBQ DBQ20101129210012011/29/10 21:00:31  5-MIN KDBQ 300300Z AUTO 17011KT 1SM R36/5500V6000FT BR OVC002 06/06 A2958 1400 100 700 170/11 RMK AO2
94908KDBQ DBQ20101129210511911/29/10 21:05:31  5-MIN KDBQ 300305Z AUTO 17012KT 1SM R36/5500V6000FT BR OVC002 07/06 A2957 1400 96 800 170/12 RMK AO2
94908KDBQ DBQ20101129211012311/29/10 21:10:31  5-MIN KDBQ 300310Z AUTO 17012KT 1 1/4SM R36/5500V6000FT BR OVC002 07/06 A2957 1400 96 800 170/12 RMK AO2
94908KDBQ DBQ20101129211511911/29/10 21:15:31  5-MIN KDBQ 300315Z AUTO 17012KT 1SM R36/5000V6000FT BR OVC002 07/06 A2957 1400 96 800 170/12 RMK AO2
94908KDBQ DBQ20101129212011911/29/10 21:20:31  5-MIN KDBQ 300320Z AUTO 17012KT 1SM R36/5000V5500FT BR OVC002 07/06 A2957 1400 96 800 170/12 RMK AO2
94908KDBQ DBQ20101129212512011/29/10 21:25:31  5-MIN KDBQ 300325Z AUTO 18011KT 1SM R36/4500V5500FT BR OVC002 07/07 A2957 1400 100 800 180/11 RMK AO2
94908KDBQ DBQ20101129213012011/29/10 21:30:31  5-MIN KDBQ 300330Z AUTO 17012KT 1SM R36/4500V5500FT BR OVC002 07/07 A2957 1410 100 800 170/12 RMK AO2
94908KDBQ DBQ20101129213512211/29/10 21:35:31  5-MIN KDBQ 300335Z AUTO 17012KT 3/4SM R36/4000V4500FT BR OVC002 07/07 A2957 1410 100 800 170/12 RMK AO2
94908KDBQ DBQ20101129214012211/29/10 21:40:31  5-MIN KDBQ 300340Z AUTO 17012KT 3/4SM R36/4000V5000FT BR OVC002 07/07 A2956 1410 100 800 170/12 RMK AO2
94908KDBQ DBQ20101129214512011/29/10 21:45:31  5-MIN KDBQ 300345Z AUTO 18012KT 1SM R36/4500V5000FT BR OVC002 07/07 A2956 1410 100 800 170/12 RMK AO2
94908KDBQ DBQ20101129215012111/29/10 21:50:31  5-MIN KDBQ 300350Z AUTO 18012KT 1SM R36/4000VP6000FT BR OVC002 07/07 A2956 1410 100 800 180/12 RMK AO2
94908KDBQ DBQ20101129215512111/29/10 21:55:31  5-MIN KDBQ 300355Z AUTO 17012KT 1SM R36/4000VP6000FT BR OVC002 07/07 A2956 1410 100 800 170/12 RMK AO2
94908KDBQ DBQ20101129220010811/29/10 22:00:31  5-MIN KDBQ 300400Z AUTO 18011KT 1 1/2SM BR OVC002 07/07 A2956 1410 100 800 180/11 RMK AO2
94908KDBQ DBQ20101129220512411/29/10 22:05:31  5-MIN KDBQ 300405Z AUTO 18012KT 1 1/2SM -RA BR OVC002 07/07 A2956 1410 100 800 170/12 RMK AO2 RAB04 P0000
94908KDBQ DBQ20101129221012311/29/10 22:10:31  5-MIN KDBQ 300410Z AUTO 18012KT 1 1/2SM -RA BR OVC002 07/07 A2956 1410 96 900 180/12 RMK AO2 RAB04 P0000
94908KDBQ DBQ20101129221511811/29/10 22:15:31  5-MIN KDBQ 300415Z AUTO 18012KT 2SM BR OVC002 07/07 A2956 1420 96 900 180/12 RMK AO2 RAB04E15 P0001
94908KDBQ DBQ20101129222012211/29/10 22:20:31  5-MIN KDBQ 300420Z AUTO 19013KT 2 1/2SM BR OVC002 07/07 A2956 1420 96 900 190/13 RMK AO2 RAB04E15 P0001
94908KDBQ DBQ20101129222512211/29/10 22:25:31  5-MIN KDBQ 300425Z AUTO 19012KT 2 1/2SM BR OVC002 07/07 A2956 1420 96 900 180/12 RMK AO2 RAB04E15 P0001
94908KDBQ DBQ20101129223011811/29/10 22:30:31  5-MIN KDBQ 300430Z AUTO 19012KT 3SM BR OVC002 07/07 A2956 1420 96 900 190/12 RMK AO2 RAB04E15 P0001
94908KDBQ DBQ20101129223512211/29/10 22:35:31  5-MIN KDBQ 300435Z AUTO 19012KT 2 1/2SM BR OVC002 07/07 A2956 1420 96 900 190/12 RMK AO2 RAB04E15 P0001
94908KDBQ DBQ20101129224012211/29/10 22:40:31  5-MIN KDBQ 300440Z AUTO 19011KT 2 1/2SM BR OVC002 07/07 A2956 1420 96 900 190/11 RMK AO2 RAB04E15 P0001
94908KDBQ DBQ20101129224512211/29/10 22:45:31  5-MIN KDBQ 300445Z AUTO 18012KT 2 1/2SM BR OVC002 07/07 A2956 1420 96 900 180/12 RMK AO2 RAB04E15 P0001
94908KDBQ DBQ20101129225013911/29/10 22:50:31  5-MIN KDBQ 300450Z AUTO 19012KT 2 1/2SM BR OVC002 07/07 A2956 1410 96 900 190/12 RMK AO2 RAB04E15 SLP015 P0001 T00720067
94908KDBQ DBQ20101129225510711/29/10 22:55:31  5-MIN KDBQ 300455Z AUTO 19011KT 2 1/2SM BR OVC002 07/07 A2956 1420 96 900 190/11 RMK AO2
94908KDBQ DBQ20101129230010711/29/10 23:00:31  5-MIN KDBQ 300500Z AUTO 19011KT 2 1/2SM BR OVC002 07/07 A2955 1420 96 900 190/11 RMK AO2
94908KDBQ DBQ20101129230510311/29/10 23:05:31  5-MIN KDBQ 300505Z AUTO 19010KT 2SM BR OVC002 07/07 A2955 1420 96 900 190/10 RMK AO2
94908KDBQ DBQ20101129231010411/29/10 23:10:31  5-MIN KDBQ 300510Z AUTO 19011KT 2SM BR OVC002 07/07 A2955 1420 100 800 190/11 RMK AO2
94908KDBQ DBQ20101129231510311/29/10 23:15:31  5-MIN KDBQ 300515Z AUTO 19012KT 2SM BR OVC002 07/07 A2954 1430 96 900 190/12 RMK AO2
94908KDBQ DBQ20101129232010311/29/10 23:20:31  5-MIN KDBQ 300520Z AUTO 18010KT 3SM BR OVC002 07/07 A2954 1430 96 900 180/10 RMK AO2
94908KDBQ DBQ20101129232510711/29/10 23:25:31  5-MIN KDBQ 300525Z AUTO 18011KT 2 1/2SM BR OVC002 07/07 A2954 1430 96 900 180/11 RMK AO2
94908KDBQ DBQ20101129233010811/29/10 23:30:31  5-MIN KDBQ 300530Z AUTO 18009KT 2 1/2SM BR OVC002 07/07 A2953 1440 100 800 180/09 RMK AO2
94908KDBQ DBQ20101129233510811/29/10 23:35:31  5-MIN KDBQ 300535Z AUTO 18010KT 1 3/4SM BR OVC002 07/07 A2953 1440 100 800 180/10 RMK AO2
94908KDBQ DBQ20101129234012511/29/10 23:40:31  5-MIN KDBQ 300540Z AUTO 18009KT 1 1/2SM R36/6000VP6000FT BR OVC002 07/07 A2953 1440 100 800 180/09 RMK AO2
94908KDBQ DBQ20101129234512111/29/10 23:45:31  5-MIN KDBQ 300545Z AUTO 18010KT 1SM R36/4500VP6000FT BR OVC002 07/07 A2953 1440 100 800 180/10 RMK AO2
94908KDBQ DBQ20101129235013811/29/10 23:50:31  5-MIN KDBQ 300550Z AUTO 18009KT 3/4SM R36/4500V5000FT BR OVC002 07/07 A2953 1440 100 800 180/09 RMK AO2 P0001 400720011
94908KDBQ DBQ20101129235512211/29/10 23:55:31  5-MIN KDBQ 300555Z AUTO 18009KT 3/4SM R36/4000V5000FT BR OVC002 07/07 A2952 1450 100 800 180/09 RMK AO2
94908KDBQ DBQ20101130000012111/30/10 00:00:38  5-MIN KDBQ 300600Z AUTO 19009KT 3/4SM R36/4000V5500FT BR VV001 07/07 A2952 1450 100 800 190/09 RMK AO2
94908KDBQ DBQ20101130000512311/30/10 00:05:31  5-MIN KDBQ 300605Z AUTO 19009KT 3/4SM R36/4500VP6000FT BR OVC001 07/07 A2952 1450 100 800 190/09 RMK AO2
94908KDBQ DBQ20101130001012511/30/10 00:10:31  5-MIN KDBQ 300610Z AUTO 19010KT 1 1/4SM R36/5500VP6000FT BR OVC001 07/07 A2952 1450 100 800 190/10 RMK AO2
94908KDBQ DBQ20101130001510411/30/10 00:15:32  5-MIN KDBQ 300615Z AUTO 19009KT 2SM BR OVC001 07/07 A2951 1460 100 800 190/09 RMK AO2
94908KDBQ DBQ20101130002010411/30/10 00:20:31  5-MIN KDBQ 300620Z AUTO 19010KT 2SM BR OVC001 07/07 A2951 1460 100 800 190/10 RMK AO2
94908KDBQ DBQ20101130002510711/30/10 00:25:31  5-MIN KDBQ 300625Z AUTO 19009KT 2 1/2SM BR OVC001 07/07 A2951 1460 96 900 190/09 RMK AO2
94908KDBQ DBQ20101130003010711/30/10 00:30:31  5-MIN KDBQ 300630Z AUTO 20011KT 2 1/2SM BR OVC001 07/07 A2951 1460 96 900 200/11 RMK AO2
94908KDBQ DBQ20101130003510311/30/10 00:35:31  5-MIN KDBQ 300635Z AUTO 20013KT 2SM BR OVC001 07/07 A2951 1460 96 900 190/13 RMK AO2
94908KDBQ DBQ20101130004010311/30/10 00:40:31  5-MIN KDBQ 300640Z AUTO 20012KT 2SM BR OVC001 07/07 A2952 1460 96 900 190/12 RMK AO2
94908KDBQ DBQ20101130004510711/30/10 00:45:31  5-MIN KDBQ 300645Z AUTO 20011KT 1 3/4SM BR OVC001 07/07 A2952 1450 96 900 190/11 RMK AO2
94908KDBQ DBQ20101130005012511/30/10 00:50:31  5-MIN KDBQ 300650Z AUTO 20009KT 1 1/2SM R36/6000VP6000FT BR OVC001 07/07 A2952 1450 100 800 200/09 RMK AO2
94908KDBQ DBQ20101130005512511/30/10 00:55:31  5-MIN KDBQ 300655Z AUTO 20009KT 1 1/4SM R36/6000VP6000FT BR OVC001 07/07 A2952 1460 100 800 200/09 RMK AO2
94908KDBQ DBQ20101130010012511/30/10 01:00:31  5-MIN KDBQ 300700Z AUTO 20009KT 1 1/4SM R36/5000VP6000FT BR OVC001 07/07 A2951 1460 100 800 200/09 RMK AO2
94908KDBQ DBQ20101130010512511/30/10 01:05:31  5-MIN KDBQ 300705Z AUTO 20010KT 1 1/4SM R36/5000VP6000FT BR OVC001 07/07 A2951 1460 100 800 200/10 RMK AO2
94908KDBQ DBQ20101130011012511/30/10 01:10:31  5-MIN KDBQ 300710Z AUTO 21012KT 1 1/2SM R36/6000VP6000FT BR OVC001 07/07 A2951 1460 100 800 200/12 RMK AO2
94908KDBQ DBQ20101130011511411/30/10 01:15:31  5-MIN KDBQ 300715Z AUTO 26016G20KT 1 3/4SM BR OVC001 06/06 A2951 1460 100 800 260/16G20 RMK AO2
94908KDBQ DBQ20101130012013111/30/10 01:20:31  5-MIN KDBQ 300720Z AUTO 25015G20KT 1 1/2SM R36/5500VP6000FT BR OVC001 04/04 A2952 1450 100 600 250/15G20 RMK AO2
94908KDBQ DBQ20101130012513511/30/10 01:25:31  5-MIN KDBQ 300725Z AUTO 26015KT 1 1/4SM R36/4000VP6000FT BR OVC001 04/03 A2952 1450 96 500 260/15 RMK AO2 WSHFT 0709
94908KDBQ DBQ20101130013013111/30/10 01:30:31  5-MIN KDBQ 300730Z AUTO 25014KT 1SM R36/2800V5500FT BR OVC001 03/03 A2952 1450 100 400 250/14 RMK AO2 WSHFT 0709
94908KDBQ DBQ20101130013513311/30/10 01:35:31  5-MIN KDBQ 300735Z AUTO 25014KT 3/4SM R36/2800V4000FT BR OVC001 03/03 A2953 1440 100 400 250/14 RMK AO2 WSHFT 0709
94908KDBQ DBQ20101130014013211/30/10 01:40:31  5-MIN KDBQ 300740Z AUTO 25014KT 1SM R36/2800VP6000FT BR OVC001 03/03 A2953 1440 100 300 250/14 RMK AO2 WSHFT 0709
94908KDBQ DBQ20101130014513611/30/10 01:45:31  5-MIN KDBQ 300745Z AUTO 25014KT 1 1/4SM R36/4000VP6000FT BR OVC001 03/03 A2953 1440 100 300 240/14 RMK AO2 WSHFT 0709
94908KDBQ DBQ20101130015013611/30/10 01:50:31  5-MIN KDBQ 300750Z AUTO 24014KT 1 3/4SM BR OVC001 02/02 A2953 1440 100 300 240/14 RMK AO2 WSHFT 0709 SLP008 T00220022
94908KDBQ DBQ20101130015510311/30/10 01:55:31  5-MIN KDBQ 300755Z AUTO 24014KT 2SM BR OVC001 02/02 A2953 1440 96 300 240/14 RMK AO2
94908KDBQ DBQ20101130020012411/30/10 02:00:31  5-MIN KDBQ 300800Z AUTO 24014KT 1 1/2SM R36/5500VP6000FT BR OVC001 02/02 A2953 1440 96 300 240/14 RMK AO2
94908KDBQ DBQ20101130020512411/30/10 02:05:31  5-MIN KDBQ 300805Z AUTO 26015KT 1 1/4SM R36/4500VP6000FT BR OVC001 02/02 A2954 1440 96 300 250/15 RMK AO2
94908KDBQ DBQ20101130021012011/30/10 02:10:31  5-MIN KDBQ 300810Z AUTO 25014KT 1SM R36/2400V5500FT BR OVC001 02/02 A2953 1440 100 200 250/14 RMK AO2
94908KDBQ DBQ20101130021512111/30/10 02:15:31  5-MIN KDBQ 300815Z AUTO 25014KT 3/4SM R36/1400V4000FT BR OVC001 02/01 A2954 1430 96 200 250/14 RMK AO2
94908KDBQ DBQ20101130022012111/30/10 02:20:31  5-MIN KDBQ 300820Z AUTO 25014KT 1/2SM R36/1400V5000FT FG OVC001 02/01 A2954 1430 96 200 250/14 RMK AO2
94908KDBQ DBQ20101130022512311/30/10 02:25:31  5-MIN KDBQ 300825Z AUTO 26014KT 1/2SM R36/1600VP6000FT FG OVC001 01/01 A2954 1430 100 100 260/14 RMK AO2
94908KDBQ DBQ20101130023012811/30/10 02:30:31  5-MIN KDBQ 300830Z AUTO 26016G25KT 3/4SM R36/2600VP6000FT BR OVC001 01/01 A2953 1440 96 100 260/16G25 RMK AO2
94908KDBQ DBQ20101130023512911/30/10 02:35:31  5-MIN KDBQ 300835Z AUTO 26016G25KT 3/4SM R36/2600VP6000FT BR OVC001 01/01 A2954 1440 100 100 260/16G25 RMK AO2
94908KDBQ DBQ20101130024012011/30/10 02:40:31  5-MIN KDBQ 300840Z AUTO 26015KT 1SM R36/4500VP6000FT BR OVC001 01/00 A2954 1430 96 100 260/15 RMK AO2
94908KDBQ DBQ20101130024512111/30/10 02:45:31  5-MIN KDBQ 300845Z AUTO 26014KT 1SM R36/4000VP6000FT BR OVC001 01/01 A2955 1430 100 100 260/14 RMK AO2
94908KDBQ DBQ20101130025015011/30/10 02:50:31  5-MIN KDBQ 300850Z AUTO 27012G20KT 1SM R36/2600VP6000FT BR OVC001 01/01 A2955 1430 100 100 270/12G20 RMK AO2 SLP013 T00060006 58019
94908KDBQ DBQ20101130025512211/30/10 02:55:31  5-MIN KDBQ 300855Z AUTO 25014KT 3/4SM R36/1200V4500FT BR OVC001 01/01 A2955 1430 100 100 250/14 RMK AO2
94908KDBQ DBQ20101130030012011/30/10 03:00:31  5-MIN KDBQ 300900Z AUTO 25014KT 1/2SM R36/1200V2000FT FG OVC001 00/00 A2955 1430 100 0 250/14 RMK AO2
94908KDBQ DBQ20101130030512011/30/10 03:05:31  5-MIN KDBQ 300905Z AUTO 25013KT 1/2SM R36/1400V2600FT FG OVC001 00/00 A2955 1430 100 0 250/13 RMK AO2
94908KDBQ DBQ20101130031012011/30/10 03:10:31  5-MIN KDBQ 300910Z AUTO 25014KT 1/2SM R36/1800V2600FT FG OVC001 00/M01 A2955 1420 96 0 250/14 RMK AO2
94908KDBQ DBQ20101130031512011/30/10 03:15:31  5-MIN KDBQ 300915Z AUTO 26015KT 3/4SM R36/2000V2800FT BR OVC001 00/M01 A2955 1420 96 0 260/15 RMK AO2
94908KDBQ DBQ20101130032012811/30/10 03:20:31  5-MIN KDBQ 300920Z AUTO 26014G22KT 3/4SM R36/2000V2800FT BR OVC001 M01/M01 A2955 1430 100 0 260/14G22 RMK AO2
94908KDBQ DBQ20101130032512811/30/10 03:25:31  5-MIN KDBQ 300925Z AUTO 26017G23KT 3/4SM R36/2400V3000FT BR OVC001 M01/M01 A2955 1420 100 0 260/17G23 RMK AO2
94908KDBQ DBQ20101130033012811/30/10 03:30:31  5-MIN KDBQ 300930Z AUTO 26015G23KT 3/4SM R36/2800V4000FT BR OVC001 M01/M01 A2955 1420 100 0 250/15G23 RMK AO2
94908KDBQ DBQ20101130033513111/30/10 03:35:31  5-MIN KDBQ 300935Z AUTO 25017G24KT 3/4SM R36/2800V4500FT BR OVC001 M01/M01 A2956 1410 100 -100 250/17G24 RMK AO2
94908KDBQ DBQ20101130034014811/30/10 03:40:31  5-MIN KDBQ 300940Z AUTO 25019G26KT 1SM R36/3500VP6000FT BR OVC001 M01/M01 A2956 1410 100 -100 250/19G26 RMK AO2 PK WND 25026/0939
94908KDBQ DBQ20101130034515211/30/10 03:45:31  5-MIN KDBQ 300945Z AUTO 25017G26KT 1 1/4SM R36/5500VP6000FT BR OVC001 M01/M01 A2957 1410 100 -100 250/17G26 RMK AO2 PK WND 25026/0939
94908KDBQ DBQ20101130035015211/30/10 03:50:31  5-MIN KDBQ 300950Z AUTO 25014G26KT 1 3/4SM BR OVC001 M01/M01 A2957 1400 100 -100 250/14G26 RMK AO2 PK WND 24026/0946 SLP022 T10111011
94908KDBQ DBQ20101130035511311/30/10 03:55:31  5-MIN KDBQ 300955Z AUTO 26016G26KT 2SM BR OVC001 M01/M01 A2957 1410 100 -100 260/16G26 RMK AO2
94908KDBQ DBQ20101130040011111/30/10 04:00:31  5-MIN KDBQ 301000Z AUTO 27018KT 2 1/2SM BR OVC001 M01/M01 A2956 1410 100 -100 270/18 RMK AO2
94908KDBQ DBQ20101130040511311/30/10 04:05:31  5-MIN KDBQ 301005Z AUTO 26017G24KT 3SM BR OVC001 M01/M01 A2957 1400 100 -100 260/17G24 RMK AO2
94908KDBQ DBQ20101130041011311/30/10 04:10:31  5-MIN KDBQ 301010Z AUTO 26016G24KT 3SM BR OVC001 M01/M01 A2958 1400 100 -100 260/16G24 RMK AO2
94908KDBQ DBQ20101130041510711/30/10 04:15:31  5-MIN KDBQ 301015Z AUTO 26016KT 3SM BR OVC001 M01/M01 A2957 1400 100 -100 260/16 RMK AO2
94908KDBQ DBQ20101130042011311/30/10 04:20:31  5-MIN KDBQ 301020Z AUTO 26017G24KT 3SM BR OVC001 M01/M01 A2957 1400 100 -100 260/17G24 RMK AO2
94908KDBQ DBQ20101130042511311/30/10 04:25:31  5-MIN KDBQ 301025Z AUTO 26016G25KT 3SM BR OVC001 M01/M01 A2958 1400 100 -100 260/16G25 RMK AO2
94908KDBQ DBQ20101130043013111/30/10 04:30:31  5-MIN KDBQ 301030Z AUTO 26017G26KT 4SM BR OVC001 M01/M01 A2958 1390 100 -100 260/17G26 RMK AO2 PK WND 25026/1027
94908KDBQ DBQ20101130043513111/30/10 04:35:31  5-MIN KDBQ 301035Z AUTO 26020G26KT 4SM BR OVC003 M01/M01 A2958 1390 100 -100 260/20G26 RMK AO2 PK WND 25026/1034
94908KDBQ DBQ20101130044013111/30/10 04:40:31  5-MIN KDBQ 301040Z AUTO 26014G26KT 4SM BR OVC003 M02/M02 A2958 1390 100 -200 250/14G26 RMK AO2 PK WND 25026/1034
94908KDBQ DBQ20101130044513111/30/10 04:45:31  5-MIN KDBQ 301045Z AUTO 26016G25KT 4SM BR OVC003 M02/M02 A2958 1390 100 -200 260/16G25 RMK AO2 PK WND 25026/1034
94908KDBQ DBQ20101130045014811/30/10 04:50:31  5-MIN KDBQ 301050Z AUTO 26015G25KT 4SM BR OVC003 M02/M02 A2958 1390 100 -200 250/15G25 RMK AO2 PK WND 25026/1034 SLP026 T10171017
94908KDBQ DBQ20101130045510711/30/10 04:55:31  5-MIN KDBQ 301055Z AUTO 26016KT 5SM BR OVC003 M02/M02 A2958 1400 100 -200 250/16 RMK AO2
94908KDBQ DBQ20101130050011311/30/10 05:00:31  5-MIN KDBQ 301100Z AUTO 26015G24KT 5SM BR OVC003 M02/M02 A2958 1400 100 -200 260/15G24 RMK AO2
94908KDBQ DBQ20101130050513111/30/10 05:05:31  5-MIN KDBQ 301105Z AUTO 27018G26KT 5SM BR OVC003 M02/M02 A2957 1400 100 -200 270/18G26 RMK AO2 PK WND 25026/1103
94908KDBQ DBQ20101130051013111/30/10 05:10:31  5-MIN KDBQ 301110Z AUTO 27018G27KT 5SM BR OVC003 M02/M02 A2958 1400 100 -200 270/18G27 RMK AO2 PK WND 28027/1106
94908KDBQ DBQ20101130051513111/30/10 05:15:31  5-MIN KDBQ 301115Z AUTO 26018G27KT 5SM BR OVC003 M02/M02 A2958 1400 100 -200 260/18G27 RMK AO2 PK WND 28027/1106
94908KDBQ DBQ20101130052013111/30/10 05:20:31  5-MIN KDBQ 301120Z AUTO 26017G25KT 6SM BR OVC003 M02/M02 A2958 1400 100 -300 260/17G25 RMK AO2 PK WND 28027/1106
94908KDBQ DBQ20101130052513111/30/10 05:25:31  5-MIN KDBQ 301125Z AUTO 27016G26KT 6SM BR OVC005 M02/M02 A2958 1390 100 -300 260/16G26 RMK AO2 PK WND 28027/1106
94908KDBQ DBQ20101130053013111/30/10 05:30:31  5-MIN KDBQ 301130Z AUTO 26015G26KT 6SM BR OVC005 M02/M02 A2958 1390 100 -300 260/15G26 RMK AO2 PK WND 28027/1106
94908KDBQ DBQ20101130053513111/30/10 05:35:31  5-MIN KDBQ 301135Z AUTO 27018G26KT 6SM BR OVC005 M02/M02 A2958 1390 100 -300 270/18G26 RMK AO2 PK WND 28027/1106
94908KDBQ DBQ20101130054012811/30/10 05:40:31  5-MIN KDBQ 301140Z AUTO 27020G26KT 7SM OVC005 M02/M02 A2958 1400 100 -300 270/20G26 RMK AO2 PK WND 28027/1106
94908KDBQ DBQ20101130054512811/30/10 05:45:31  5-MIN KDBQ 301145Z AUTO 27018G25KT 7SM OVC005 M02/M02 A2958 1400 100 -300 270/18G25 RMK AO2 PK WND 28027/1106
94908KDBQ DBQ20101130055015811/30/10 05:50:31  5-MIN KDBQ 301150Z 27017KT 7SM OVC005 M02/M02 A2957 1400 100 -300 270/17 RMK AO2 PK WND 28027/1106 SLP024 70032 T10221022 10072 21022 53006
94908KDBQ DBQ20101130055510511/30/10 05:55:31  5-MIN KDBQ 301155Z 27016G23KT 7SM OVC005 M02/M02 A2957 1400 100 -300 270/16G23 RMK AO2
94908KDBQ DBQ20101130060010511/30/10 06:00:31  5-MIN KDBQ 301200Z 27018G24KT 8SM OVC005 M02/M02 A2957 1400 100 -300 270/18G24 RMK AO2
94908KDBQ DBQ20101130060510511/30/10 06:05:31  5-MIN KDBQ 301205Z 27017G24KT 8SM OVC005 M02/M02 A2957 1410 100 -300 270/17G24 RMK AO2
94908KDBQ DBQ20101130061009911/30/10 06:10:31  5-MIN KDBQ 301210Z 26015KT 7SM OVC005 M02/M02 A2957 1400 100 -300 260/15 RMK AO2
94908KDBQ DBQ20101130061510511/30/10 06:15:31  5-MIN KDBQ 301215Z 26016G22KT 7SM OVC005 M02/M02 A2958 1400 100 -300 260/16G22 RMK AO2
94908KDBQ DBQ20101130062010411/30/10 06:20:31  5-MIN KDBQ 301220Z 26018G25KT 7SM OVC007 M02/M03 A2958 1390 96 -300 260/18G25 RMK AO2
94908KDBQ DBQ20101130062510511/30/10 06:25:31  5-MIN KDBQ 301225Z 27018G25KT 8SM OVC007 M03/M03 A2958 1390 100 -400 270/18G25 RMK AO2
94908KDBQ DBQ20101130063010511/30/10 06:30:31  5-MIN KDBQ 301230Z 26015G24KT 8SM OVC007 M03/M03 A2958 1390 100 -400 260/15G24 RMK AO2
94908KDBQ DBQ20101130063510411/30/10 06:35:31  5-MIN KDBQ 301235Z 26016G25KT 8SM OVC007 M03/M03 A2959 1390 96 -400 260/16G25 RMK AO2
94908KDBQ DBQ20101130064010411/30/10 06:40:31  5-MIN KDBQ 301240Z 26015G25KT 8SM OVC007 M03/M03 A2959 1390 96 -400 260/15G25 RMK AO2
94908KDBQ DBQ20101130064510411/30/10 06:45:31  5-MIN KDBQ 301245Z 26016G23KT 8SM OVC007 M03/M03 A2959 1390 96 -400 260/16G23 RMK AO2
94908KDBQ DBQ20101130065012111/30/10 06:50:31  5-MIN KDBQ 301250Z 26017G23KT 8SM OVC007 M03/M03 A2959 1390 96 -400 260/17G23 RMK AO2 SLP029 T10281033
94908KDBQ DBQ20101130065510411/30/10 06:55:31  5-MIN KDBQ 301255Z 27017G23KT 8SM OVC007 M03/M03 A2959 1390 96 -400 270/17G23 RMK AO2
94908KDBQ DBQ20101130070010411/30/10 07:00:31  5-MIN KDBQ 301300Z 27018G24KT 8SM OVC007 M03/M04 A2958 1390 92 -400 270/18G24 RMK AO2
94908KDBQ DBQ20101130070510411/30/10 07:05:31  5-MIN KDBQ 301305Z 27018G24KT 9SM OVC007 M03/M04 A2959 1390 92 -400 270/18G24 RMK AO2
94908KDBQ DBQ20101130071010411/30/10 07:10:31  5-MIN KDBQ 301310Z 27017G23KT 9SM OVC007 M03/M04 A2959 1380 92 -400 270/17G23 RMK AO2
94908KDBQ DBQ20101130072010411/30/10 07:20:31  5-MIN KDBQ 301320Z 26018G24KT 9SM OVC007 M03/M04 A2959 1380 92 -400 260/18G24 RMK AO2
94908KDBQ DBQ20101130072510411/30/10 07:25:31  5-MIN KDBQ 301325Z 25014G24KT 9SM OVC007 M03/M04 A2960 1370 92 -400 250/14G24 RMK AO2
94908KDBQ DBQ20101130073010411/30/10 07:30:31  5-MIN KDBQ 301330Z 25016G23KT 9SM OVC007 M03/M04 A2961 1360 92 -400 250/16G23 RMK AO2
94908KDBQ DBQ20101130073510411/30/10 07:35:31  5-MIN KDBQ 301335Z 27017G23KT 9SM OVC007 M03/M04 A2961 1370 88 -400 270/17G23 RMK AO2
94908KDBQ DBQ20101130074010411/30/10 07:40:31  5-MIN KDBQ 301340Z 27013G23KT 9SM OVC007 M03/M04 A2961 1370 88 -400 270/13G23 RMK AO2
94908KDBQ DBQ20101130074510411/30/10 07:45:31  5-MIN KDBQ 301345Z 24013G23KT 9SM OVC009 M03/M04 A2962 1360 92 -400 240/13G23 RMK AO2
94908KDBQ DBQ20101130075011511/30/10 07:50:31  5-MIN KDBQ 301350Z 24014KT 9SM OVC009 M03/M04 A2962 1350 88 -400 240/14 RMK AO2 SLP041 T10281044
94908KDBQ DBQ20101130075509811/30/10 07:55:31  5-MIN KDBQ 301355Z 26015KT 9SM OVC009 M03/M04 A2963 1350 88 -400 260/15 RMK AO2
94908KDBQ DBQ20101130080010511/30/10 08:00:31  5-MIN KDBQ 301400Z 25013KT 9SM OVC009 M03/M04 A2964 1340 88 -400 250/13 RMK AO2 PRESRR
94908KDBQ DBQ20101130080509811/30/10 08:05:31  5-MIN KDBQ 301405Z 25012KT 9SM OVC009 M03/M04 A2963 1340 88 -400 250/12 RMK AO2
94908KDBQ DBQ20101130081010411/30/10 08:10:31  5-MIN KDBQ 301410Z 25015G22KT 9SM OVC009 M03/M05 A2963 1350 88 -500 250/15G22 RMK AO2
94908KDBQ DBQ20101130081510411/30/10 08:15:31  5-MIN KDBQ 301415Z 25013G22KT 9SM OVC009 M03/M05 A2963 1350 88 -500 240/13G22 RMK AO2
94908KDBQ DBQ20101130082010511/30/10 08:20:31  5-MIN KDBQ 301420Z 25014G22KT 10SM OVC009 M03/M05 A2964 1340 88 -500 250/14G22 RMK AO2
94908KDBQ DBQ20101130082510511/30/10 08:25:31  5-MIN KDBQ 301425Z 25016G23KT 10SM OVC009 M03/M05 A2964 1340 88 -500 250/16G23 RMK AO2
94908KDBQ DBQ20101130083010511/30/10 08:30:31  5-MIN KDBQ 301430Z 25016G23KT 10SM OVC009 M03/M05 A2964 1340 88 -500 250/16G23 RMK AO2
94908KDBQ DBQ20101130083510511/30/10 08:35:31  5-MIN KDBQ 301435Z 26015G22KT 10SM OVC009 M03/M05 A2964 1340 88 -500 260/15G22 RMK AO2
94908KDBQ DBQ20101130084009911/30/10 08:40:31  5-MIN KDBQ 301440Z 25014KT 10SM OVC009 M03/M05 A2964 1340 88 -500 250/14 RMK AO2
94908KDBQ DBQ20101130084510511/30/10 08:45:31  5-MIN KDBQ 301445Z 25013G22KT 10SM OVC009 M03/M05 A2965 1330 88 -500 250/13G22 RMK AO2
94908KDBQ DBQ20101130085012211/30/10 08:50:31  5-MIN KDBQ 301450Z 25014KT 10SM OVC009 M03/M05 A2965 1330 88 -500 250/14 RMK AO2 SLP051 T10331050 50009
94908KDBQ DBQ20101130085510411/30/10 08:55:31  5-MIN KDBQ 301455Z 25016G25KT 9SM OVC009 M03/M05 A2965 1330 88 -500 250/16G25 RMK AO2
94908KDBQ DBQ20101130090010411/30/10 09:00:31  5-MIN KDBQ 301500Z 26015G25KT 8SM OVC009 M03/M05 A2965 1330 88 -500 260/15G25 RMK AO2
94908KDBQ DBQ20101130090510411/30/10 09:05:31  5-MIN KDBQ 301505Z 26016G23KT 8SM OVC009 M03/M05 A2965 1330 88 -500 260/16G23 RMK AO2
94908KDBQ DBQ20101130091010411/30/10 09:10:31  5-MIN KDBQ 301510Z 26015G23KT 8SM OVC009 M03/M05 A2965 1330 88 -500 260/15G23 RMK AO2
94908KDBQ DBQ20101130091509811/30/10 09:15:31  5-MIN KDBQ 301515Z 27015KT 8SM OVC009 M03/M05 A2965 1330 88 -500 270/15 RMK AO2
94908KDBQ DBQ20101130092009811/30/10 09:20:31  5-MIN KDBQ 301520Z 26014KT 7SM OVC009 M03/M05 A2965 1330 88 -500 260/14 RMK AO2
94908KDBQ DBQ20101130092509811/30/10 09:25:31  5-MIN KDBQ 301525Z 26014KT 7SM OVC009 M03/M05 A2965 1330 88 -500 250/14 RMK AO2
94908KDBQ DBQ20101130093010711/30/10 09:30:31  5-MIN KDBQ 301530Z 26015G21KT 6SM BR OVC011 M03/M05 A2965 1330 88 -500 260/15G21 RMK AO2
94908KDBQ DBQ20101130093510111/30/10 09:35:31  5-MIN KDBQ 301535Z 25014KT 6SM BR OVC011 M03/M05 A2965 1330 88 -500 250/14 RMK AO2
94908KDBQ DBQ20101130094010411/30/10 09:40:31  5-MIN KDBQ 301540Z 27017G23KT 7SM OVC011 M03/M05 A2964 1340 88 -500 270/17G23 RMK AO2
94908KDBQ DBQ20101130094509811/30/10 09:45:31  5-MIN KDBQ 301545Z 26016KT 7SM OVC011 M03/M06 A2965 1330 85 -500 260/16 RMK AO2
94908KDBQ DBQ20101130095012111/30/10 09:50:31  5-MIN KDBQ 301550Z 26015G23KT 7SM OVC011 M03/M05 A2965 1330 88 -500 260/15G23 RMK AO2 SLP052 T10331050
94908KDBQ DBQ20101130095510711/30/10 09:55:31  5-MIN KDBQ 301555Z 26017G23KT 6SM BR OVC011 M03/M05 A2965 1330 88 -500 260/17G23 RMK AO2
94908KDBQ DBQ20101130100010711/30/10 10:00:31  5-MIN KDBQ 301600Z 26014G23KT 6SM BR OVC011 M03/M05 A2965 1330 88 -500 260/14G23 RMK AO2
94908KDBQ DBQ20101130100510711/30/10 10:05:31  5-MIN KDBQ 301605Z 27018G23KT 6SM BR OVC011 M03/M05 A2965 1330 88 -500 270/18G23 RMK AO2
94908KDBQ DBQ20101130101010111/30/10 10:10:31  5-MIN KDBQ 301610Z 26015KT 6SM BR OVC011 M03/M05 A2965 1330 88 -500 260/15 RMK AO2
94908KDBQ DBQ20101130101510411/30/10 10:15:31  5-MIN KDBQ 301615Z 27018G25KT 7SM OVC011 M03/M05 A2965 1330 88 -500 270/18G25 RMK AO2
94908KDBQ DBQ20101130102012211/30/10 10:20:31  5-MIN KDBQ 301620Z 27019G27KT 8SM OVC011 M03/M06 A2965 1330 85 -500 270/19G27 RMK AO2 PK WND 28027/1620
94908KDBQ DBQ20101130102512211/30/10 10:25:31  5-MIN KDBQ 301625Z 27019G28KT 8SM OVC011 M03/M06 A2964 1330 85 -500 270/19G28 RMK AO2 PK WND 29028/1622
94908KDBQ DBQ20101130103012211/30/10 10:30:31  5-MIN KDBQ 301630Z 27016G28KT 9SM OVC011 M03/M06 A2964 1340 85 -500 270/16G28 RMK AO2 PK WND 29028/1622
94908KDBQ DBQ20101130103512211/30/10 10:35:31  5-MIN KDBQ 301635Z 27019G26KT 9SM OVC011 M03/M06 A2964 1340 85 -500 270/19G26 RMK AO2 PK WND 29028/1622
94908KDBQ DBQ20101130104012211/30/10 10:40:31  5-MIN KDBQ 301640Z 27017G27KT 9SM OVC011 M03/M06 A2964 1330 85 -500 270/17G27 RMK AO2 PK WND 29028/1622
94908KDBQ DBQ20101130104512211/30/10 10:45:31  5-MIN KDBQ 301645Z 27019G27KT 8SM OVC011 M03/M06 A2965 1330 85 -500 270/19G27 RMK AO2 PK WND 29028/1622
94908KDBQ DBQ20101130105013911/30/10 10:50:31  5-MIN KDBQ 301650Z 27017G25KT 9SM OVC011 M03/M06 A2965 1330 85 -500 260/17G25 RMK AO2 PK WND 29028/1622 SLP049 T10331056
94908KDBQ DBQ20101130105510411/30/10 10:55:31  5-MIN KDBQ 301655Z 27013G25KT 9SM OVC011 M03/M06 A2964 1340 85 -500 270/13G25 RMK AO2
94908KDBQ DBQ20101130110010411/30/10 11:00:31  5-MIN KDBQ 301700Z 27018G23KT 9SM OVC011 M04/M06 A2965 1330 88 -600 270/18G23 RMK AO2
94908KDBQ DBQ20101130110510411/30/10 11:05:31  5-MIN KDBQ 301705Z 26014G23KT 9SM OVC011 M04/M06 A2965 1330 88 -600 260/14G23 RMK AO2
94908KDBQ DBQ20101130111010511/30/10 11:10:31  5-MIN KDBQ 301710Z 28012G22KT 10SM OVC011 M03/M06 A2965 1330 85 -500 280/12G22 RMK AO2
94908KDBQ DBQ20101130111511711/30/10 11:15:31  5-MIN KDBQ 301715Z 27018G24KT 10SM OVC011 M03/M06 A2966 1320 85 -500 270/18G24 RMK AO2 CIG 009V013
94908KDBQ DBQ20101130112012311/30/10 11:20:31  5-MIN KDBQ 301720Z 27018G28KT 10SM OVC011 M04/M06 A2966 1320 88 -600 270/18G28 RMK AO2 PK WND 29028/1720
94908KDBQ DBQ20101130112512311/30/10 11:25:31  5-MIN KDBQ 301725Z 27016G28KT 10SM OVC011 M04/M06 A2966 1320 85 -600 270/16G28 RMK AO2 PK WND 29028/1720
94908KDBQ DBQ20101130113012311/30/10 11:30:31  5-MIN KDBQ 301730Z 28016G26KT 10SM OVC011 M04/M06 A2966 1320 85 -600 280/16G26 RMK AO2 PK WND 29028/1720
94908KDBQ DBQ20101130113512311/30/10 11:35:31  5-MIN KDBQ 301735Z 29014G26KT 10SM OVC011 M04/M06 A2966 1320 88 -600 290/14G26 RMK AO2 PK WND 29028/1720
94908KDBQ DBQ20101130114012211/30/10 11:40:31  5-MIN KDBQ 301740Z 28017G22KT 8SM OVC011 M04/M06 A2966 1320 88 -600 280/17G22 RMK AO2 PK WND 29028/1720
94908KDBQ DBQ20101130114512211/30/10 11:45:31  5-MIN KDBQ 301745Z 28016G23KT 8SM OVC011 M04/M06 A2966 1320 85 -600 280/16G23 RMK AO2 PK WND 29028/1720
94908KDBQ DBQ20101130115015711/30/10 11:50:31  5-MIN KDBQ 301750Z 27018G27KT 8SM OVC011 M04/M06 A2966 1320 85 -600 270/18G27 RMK AO2 PK WND 29028/1720 SLP054 T10391061 11022 21039 53026
94908KDBQ DBQ20101130115512211/30/10 11:55:31  5-MIN KDBQ 301755Z 27020G27KT 8SM OVC011 M04/M06 A2966 1320 85 -600 270/20G27 RMK AO2 PK WND 28026/1755
94908KDBQ DBQ20101130120012211/30/10 12:00:31  5-MIN KDBQ 301800Z 28016G26KT 8SM OVC011 M04/M06 A2966 1320 85 -600 280/16G26 RMK AO2 PK WND 28026/1755
94908KDBQ DBQ20101130120512211/30/10 12:05:31  5-MIN KDBQ 301805Z 28018G26KT 9SM OVC011 M04/M06 A2966 1320 85 -600 270/18G26 RMK AO2 PK WND 28026/1803
94908KDBQ DBQ20101130121012311/30/10 12:10:31  5-MIN KDBQ 301810Z 28019G27KT 10SM OVC011 M04/M06 A2966 1320 85 -600 280/19G27 RMK AO2 PK WND 29027/1807
94908KDBQ DBQ20101130121512311/30/10 12:15:31  5-MIN KDBQ 301815Z 28012G27KT 10SM OVC011 M04/M06 A2966 1320 85 -600 280/12G27 RMK AO2 PK WND 29027/1807
94908KDBQ DBQ20101130122012311/30/10 12:20:31  5-MIN KDBQ 301820Z 28017G25KT 10SM OVC011 M04/M06 A2967 1310 85 -600 280/17G25 RMK AO2 PK WND 29027/1807
94908KDBQ DBQ20101130122512311/30/10 12:25:31  5-MIN KDBQ 301825Z 29018G26KT 10SM OVC011 M04/M07 A2967 1310 81 -600 290/18G26 RMK AO2 PK WND 29027/1807
94908KDBQ DBQ20101130123012311/30/10 12:30:31  5-MIN KDBQ 301830Z 29015G26KT 10SM OVC011 M04/M06 A2967 1310 85 -600 290/15G26 RMK AO2 PK WND 29027/1807
94908KDBQ DBQ20101130123512311/30/10 12:35:31  5-MIN KDBQ 301835Z 28015G21KT 10SM OVC011 M04/M06 A2967 1310 85 -600 280/15G21 RMK AO2 PK WND 29027/1807
94908KDBQ DBQ20101130124012311/30/10 12:40:31  5-MIN KDBQ 301840Z 27015G22KT 10SM OVC011 M04/M06 A2967 1310 85 -600 270/15G22 RMK AO2 PK WND 29027/1807
94908KDBQ DBQ20101130124512311/30/10 12:45:31  5-MIN KDBQ 301845Z 29016G22KT 10SM OVC011 M04/M06 A2967 1310 85 -600 290/16G22 RMK AO2 PK WND 29027/1807
94908KDBQ DBQ20101130125014011/30/10 12:50:31  5-MIN KDBQ 301850Z 29017G23KT 10SM OVC013 M04/M06 A2967 1310 85 -600 290/17G23 RMK AO2 PK WND 29027/1807 SLP059 T10391061
94908KDBQ DBQ20101130125510511/30/10 12:55:31  5-MIN KDBQ 301855Z 29015G26KT 10SM OVC013 M04/M06 A2968 1310 85 -600 280/15G26 RMK AO2
94908KDBQ DBQ20101130130010511/30/10 13:00:31  5-MIN KDBQ 301900Z 29018G26KT 10SM OVC013 M04/M06 A2968 1300 85 -600 290/18G26 RMK AO2
94908KDBQ DBQ20101130130510511/30/10 13:05:31  5-MIN KDBQ 301905Z 28013G25KT 10SM OVC013 M04/M06 A2968 1300 85 -600 280/13G25 RMK AO2
94908KDBQ DBQ20101130131010511/30/10 13:10:31  5-MIN KDBQ 301910Z 28018G23KT 10SM OVC013 M04/M07 A2968 1300 81 -600 280/18G23 RMK AO2
94908KDBQ DBQ20101130131510511/30/10 13:15:31  5-MIN KDBQ 301915Z 27017G23KT 10SM OVC013 M04/M07 A2968 1300 81 -600 270/17G23 RMK AO2
94908KDBQ DBQ20101130132010511/30/10 13:20:31  5-MIN KDBQ 301920Z 27016G23KT 10SM OVC013 M04/M07 A2968 1300 81 -600 260/16G23 RMK AO2
94908KDBQ DBQ20101130132510511/30/10 13:25:31  5-MIN KDBQ 301925Z 29016G21KT 10SM OVC013 M04/M07 A2968 1300 81 -600 290/16G21 RMK AO2
94908KDBQ DBQ20101130133010511/30/10 13:30:31  5-MIN KDBQ 301930Z 29016G25KT 10SM OVC013 M04/M07 A2968 1300 81 -600 290/16G25 RMK AO2
94908KDBQ DBQ20101130133512311/30/10 13:35:31  5-MIN KDBQ 301935Z 28020G26KT 10SM OVC013 M04/M07 A2968 1300 81 -600 280/20G26 RMK AO2 PK WND 28026/1933
94908KDBQ DBQ20101130134012311/30/10 13:40:31  5-MIN KDBQ 301940Z 28023G28KT 10SM OVC015 M04/M07 A2968 1300 78 -600 280/23G28 RMK AO2 PK WND 29028/1940
94908KDBQ DBQ20101130134512311/30/10 13:45:31  5-MIN KDBQ 301945Z 28021G28KT 10SM OVC015 M04/M07 A2968 1300 78 -600 280/21G28 RMK AO2 PK WND 29028/1940
94908KDBQ DBQ20101130135014011/30/10 13:50:31  5-MIN KDBQ 301950Z 29018G28KT 10SM OVC015 M04/M07 A2968 1300 78 -600 290/18G28 RMK AO2 PK WND 29028/1947 SLP062 T10391072
94908KDBQ DBQ20101130135512311/30/10 13:55:31  5-MIN KDBQ 301955Z 28020G28KT 10SM OVC015 M04/M07 A2968 1300 78 -600 280/20G28 RMK AO2 PK WND 29026/1955
94908KDBQ DBQ20101130140012311/30/10 14:00:31  5-MIN KDBQ 302000Z 29018G27KT 10SM OVC015 M04/M07 A2969 1290 81 -600 290/18G27 RMK AO2 PK WND 28026/1957
94908KDBQ DBQ20101130140512311/30/10 14:05:31  5-MIN KDBQ 302005Z 29017G26KT 10SM OVC015 M04/M07 A2969 1290 81 -600 290/17G26 RMK AO2 PK WND 28026/1957
94908KDBQ DBQ20101130141012311/30/10 14:10:31  5-MIN KDBQ 302010Z 29022G30KT 10SM OVC015 M04/M07 A2969 1290 78 -600 280/22G30 RMK AO2 PK WND 29030/2006
94908KDBQ DBQ20101130141512311/30/10 14:15:31  5-MIN KDBQ 302015Z 28019G30KT 10SM OVC015 M04/M07 A2969 1290 78 -600 280/19G30 RMK AO2 PK WND 29030/2006
94908KDBQ DBQ20101130142012311/30/10 14:20:31  5-MIN KDBQ 302020Z 29022G31KT 10SM OVC015 M04/M07 A2969 1290 81 -700 290/22G31 RMK AO2 PK WND 29031/2016
94908KDBQ DBQ20101130142512311/30/10 14:25:31  5-MIN KDBQ 302025Z 28022G31KT 10SM OVC015 M04/M07 A2970 1290 78 -600 280/22G31 RMK AO2 PK WND 29031/2016
94908KDBQ DBQ20101130143012311/30/10 14:30:31  5-MIN KDBQ 302030Z 29020G29KT 10SM OVC015 M04/M07 A2969 1290 81 -700 280/20G29 RMK AO2 PK WND 29031/2016
94908KDBQ DBQ20101130143512311/30/10 14:35:31  5-MIN KDBQ 302035Z 28020G27KT 10SM OVC015 M04/M07 A2970 1280 81 -700 280/20G27 RMK AO2 PK WND 29031/2016
94908KDBQ DBQ20101130144012311/30/10 14:40:31  5-MIN KDBQ 302040Z 28019G27KT 10SM OVC017 M04/M07 A2970 1280 81 -700 280/19G27 RMK AO2 PK WND 29031/2016
94908KDBQ DBQ20101130144512811/30/10 14:45:31  5-MIN KDBQ 302045Z AUTO 29018G28KT 10SM OVC017 M04/M08 A2970 1280 78 -700 290/18G28 RMK AO2 PK WND 29031/2016
94908KDBQ DBQ20101130145015111/30/10 14:50:31  5-MIN KDBQ 302050Z AUTO 28021G30KT 10SM OVC017 M04/M07 A2971 1280 81 -700 280/21G30 RMK AO2 PK WND 29031/2016 SLP073 T10441072 53003
94908KDBQ DBQ20101130145510511/30/10 14:55:31  5-MIN KDBQ 302055Z 28019G30KT 10SM OVC017 M04/M07 A2971 1270 81 -700 280/19G30 RMK AO2
94908KDBQ DBQ20101130150012211/30/10 15:00:31  5-MIN KDBQ 302100Z 29016G27KT 9SM OVC017 M04/M07 A2971 1270 81 -700 290/16G27 RMK AO2 PK WND 28027/2056
94908KDBQ DBQ20101130150512211/30/10 15:05:31  5-MIN KDBQ 302105Z 28019G27KT 9SM OVC017 M04/M07 A2972 1270 81 -700 280/19G27 RMK AO2 PK WND 28027/2056
94908KDBQ DBQ20101130151012311/30/10 15:10:31  5-MIN KDBQ 302110Z 28020G25KT 10SM OVC017 M04/M07 A2972 1270 81 -700 280/20G25 RMK AO2 PK WND 28027/2056
94908KDBQ DBQ20101130151512311/30/10 15:15:31  5-MIN KDBQ 302115Z 28018G26KT 10SM OVC017 M04/M08 A2972 1260 78 -700 280/18G26 RMK AO2 PK WND 28027/2056
94908KDBQ DBQ20101130152012311/30/10 15:20:31  5-MIN KDBQ 302120Z 29017G26KT 10SM OVC017 M04/M07 A2972 1260 81 -700 290/17G26 RMK AO2 PK WND 28027/2056
94908KDBQ DBQ20101130152512311/30/10 15:25:31  5-MIN KDBQ 302125Z 28019G28KT 10SM OVC017 M04/M08 A2973 1260 78 -700 280/19G28 RMK AO2 PK WND 29028/2123
94908KDBQ DBQ20101130153012311/30/10 15:30:31  5-MIN KDBQ 302130Z 28021G28KT 10SM OVC017 M04/M08 A2973 1260 78 -700 280/21G28 RMK AO2 PK WND 29028/2130
94908KDBQ DBQ20101130153512311/30/10 15:35:31  5-MIN KDBQ 302135Z 29021G28KT 10SM OVC017 M04/M08 A2973 1260 78 -700 290/21G28 RMK AO2 PK WND 29028/2135
94908KDBQ DBQ20101130154012311/30/10 15:40:31  5-MIN KDBQ 302140Z 29022G32KT 10SM OVC017 M04/M08 A2973 1250 78 -700 280/22G32 RMK AO2 PK WND 29032/2138
94908KDBQ DBQ20101130154512311/30/10 15:45:31  5-MIN KDBQ 302145Z 28018G32KT 10SM OVC017 M04/M08 A2973 1250 78 -700 280/18G32 RMK AO2 PK WND 29032/2138
94908KDBQ DBQ20101130155014011/30/10 15:50:31  5-MIN KDBQ 302150Z 29020G28KT 10SM OVC017 M04/M08 A2974 1250 78 -700 280/20G28 RMK AO2 PK WND 29032/2138 SLP084 T10441078
94908KDBQ DBQ20101130155512311/30/10 15:55:31  5-MIN KDBQ 302155Z 28020G30KT 10SM OVC017 M04/M08 A2974 1250 78 -700 280/20G30 RMK AO2 PK WND 29026/2154
94908KDBQ DBQ20101130160012311/30/10 16:00:31  5-MIN KDBQ 302200Z 29021G30KT 10SM OVC017 M04/M08 A2974 1250 78 -800 290/21G30 RMK AO2 PK WND 29029/2200
94908KDBQ DBQ20101130160512311/30/10 16:05:31  5-MIN KDBQ 302205Z 29020G29KT 10SM OVC017 M04/M08 A2974 1250 74 -800 290/20G29 RMK AO2 PK WND 29029/2200
94908KDBQ DBQ20101130161012311/30/10 16:10:31  5-MIN KDBQ 302210Z 28021G28KT 10SM OVC017 M04/M08 A2974 1240 78 -800 280/21G28 RMK AO2 PK WND 29029/2200
94908KDBQ DBQ20101130161512311/30/10 16:15:31  5-MIN KDBQ 302215Z 29021G28KT 10SM OVC019 M04/M08 A2974 1240 74 -800 290/21G28 RMK AO2 PK WND 29029/2200
94908KDBQ DBQ20101130162012311/30/10 16:20:31  5-MIN KDBQ 302220Z 28021G28KT 10SM OVC019 M04/M08 A2974 1240 74 -800 280/21G28 RMK AO2 PK WND 29029/2200
94908KDBQ DBQ20101130162512311/30/10 16:25:31  5-MIN KDBQ 302225Z 29023G31KT 10SM OVC019 M04/M08 A2974 1240 74 -800 290/23G31 RMK AO2 PK WND 29031/2225
94908KDBQ DBQ20101130163012311/30/10 16:30:31  5-MIN KDBQ 302230Z 29021G31KT 10SM OVC019 M04/M08 A2975 1240 74 -800 290/21G31 RMK AO2 PK WND 29031/2225
94908KDBQ DBQ20101130163512311/30/10 16:35:31  5-MIN KDBQ 302235Z 28019G30KT 10SM OVC019 M04/M08 A2975 1240 74 -800 280/19G30 RMK AO2 PK WND 29031/2225
94908KDBQ DBQ20101130164012311/30/10 16:40:31  5-MIN KDBQ 302240Z 29018G30KT 10SM OVC019 M04/M08 A2975 1240 74 -800 290/18G30 RMK AO2 PK WND 29031/2225
94908KDBQ DBQ20101130164512311/30/10 16:45:31  5-MIN KDBQ 302245Z 28022G30KT 10SM OVC019 M04/M08 A2975 1240 74 -800 280/22G30 RMK AO2 PK WND 29031/2225
94908KDBQ DBQ20101130165014011/30/10 16:50:31  5-MIN KDBQ 302250Z 29018G28KT 10SM OVC019 M04/M08 A2975 1230 74 -800 290/18G28 RMK AO2 PK WND 29031/2225 SLP089 T10441083
94908KDBQ DBQ20101130165510511/30/10 16:55:31  5-MIN KDBQ 302255Z 29018G25KT 10SM OVC019 M04/M08 A2976 1230 74 -800 290/18G25 RMK AO2
94908KDBQ DBQ20101130170012311/30/10 17:00:31  5-MIN KDBQ 302300Z 29022G29KT 10SM OVC019 M05/M09 A2976 1230 74 -800 290/22G29 RMK AO2 PK WND 28029/2258
94908KDBQ DBQ20101130170512311/30/10 17:05:31  5-MIN KDBQ 302305Z 28021G29KT 10SM OVC019 M05/M09 A2976 1220 74 -900 280/21G29 RMK AO2 PK WND 28029/2258
94908KDBQ DBQ20101130171012311/30/10 17:10:31  5-MIN KDBQ 302310Z 29020G27KT 10SM OVC019 M05/M08 A2976 1220 77 -900 290/20G27 RMK AO2 PK WND 28029/2258
94908KDBQ DBQ20101130171512311/30/10 17:15:31  5-MIN KDBQ 302315Z 29021G28KT 10SM OVC021 M05/M09 A2977 1220 74 -900 290/21G28 RMK AO2 PK WND 28029/2258
94908KDBQ DBQ20101130172012311/30/10 17:20:31  5-MIN KDBQ 302320Z 28017G29KT 10SM OVC021 M05/M08 A2977 1220 77 -900 280/17G29 RMK AO2 PK WND 29029/2316
94908KDBQ DBQ20101130172512311/30/10 17:25:31  5-MIN KDBQ 302325Z 29020G29KT 10SM OVC021 M05/M08 A2977 1220 77 -900 290/20G29 RMK AO2 PK WND 29029/2316
94908KDBQ DBQ20101130173012311/30/10 17:30:31  5-MIN KDBQ 302330Z 28024G31KT 10SM OVC021 M05/M08 A2978 1210 77 -900 280/24G31 RMK AO2 PK WND 29031/2329
94908KDBQ DBQ20101130173512311/30/10 17:35:31  5-MIN KDBQ 302335Z 29020G31KT 10SM OVC021 M05/M08 A2978 1210 77 -900 290/20G31 RMK AO2 PK WND 29031/2329
94908KDBQ DBQ20101130174012311/30/10 17:40:31  5-MIN KDBQ 302340Z 29018G27KT 10SM OVC021 M05/M09 A2978 1210 74 -900 290/18G27 RMK AO2 PK WND 29031/2329
94908KDBQ DBQ20101130174513711/30/10 17:45:31  5-MIN KDBQ 302345Z 29019G29KT 10SM SCT019 BKN026 OVC041 M05/M09 A2978 1210 74 -900 290/19G29 RMK AO2 PK WND 29031/2329
94908KDBQ DBQ20101130175017211/30/10 17:50:31  5-MIN KDBQ 302350Z 29018G29KT 10SM BKN022 BKN028 OVC041 M05/M09 A2978 1210 74 -900 290/18G29 RMK AO2 PK WND 29031/2329 SLP099 T10501089 11039 21050 53016
94908KDBQ DBQ20101130175513011/30/10 17:55:31  5-MIN KDBQ 302355Z 29020G26KT 10SM BKN022 OVC028 M05/M09 A2978 1210 74 -900 290/20G26 RMK AO2 PK WND 29026/2354
94908KDBQ DBQ20101130180013011/30/10 18:00:31  5-MIN KDBQ 010000Z 29019G26KT 10SM BKN022 OVC026 M05/M09 A2979 1200 74 -900 290/19G26 RMK AO2 PK WND 29026/2354
94908KDBQ DBQ20101130180513011/30/10 18:05:31  5-MIN KDBQ 010005Z 29016G24KT 10SM BKN022 OVC026 M05/M08 A2979 1200 77 -900 280/16G24 RMK AO2 PK WND 29026/2354
94908KDBQ DBQ20101130181012911/30/10 18:10:31  5-MIN KDBQ 010010Z 29017G24KT 9SM BKN020 OVC026 M05/M08 A2979 1200 77 -900 290/17G24 RMK AO2 PK WND 29026/2354
94908KDBQ DBQ20101130181512211/30/10 18:15:31  5-MIN KDBQ 010015Z 29017G23KT 8SM OVC020 M05/M08 A2979 1200 81 -900 290/17G23 RMK AO2 PK WND 29026/2354
94908KDBQ DBQ20101130182014611/30/10 18:20:31  5-MIN KDBQ 010020Z 29018G27KT 7SM -SN BKN020 OVC024 M06/M08 A2979 1200 81 -1000 280/18G27 RMK AO2 PK WND 29027/0016 SNB18 P0000
94908KDBQ DBQ20101130182514611/30/10 18:25:31  5-MIN KDBQ 010025Z 29019G27KT 8SM -SN BKN020 OVC026 M06/M09 A2979 1200 77 -1000 290/19G27 RMK AO2 PK WND 29027/0016 SNB18 P0000
94908KDBQ DBQ20101130183014511/30/10 18:30:31  5-MIN KDBQ 010030Z 29019G26KT 9SM BKN020 OVC026 M06/M09 A2979 1200 77 -1000 290/19G26 RMK AO2 PK WND 29027/0016 SNB18E27 P0000
94908KDBQ DBQ20101130183514611/30/10 18:35:31  5-MIN KDBQ 010035Z 29017G24KT 10SM BKN020 OVC026 M06/M09 A2979 1200 77 -1000 290/17G24 RMK AO2 PK WND 29027/0016 SNB18E27 P0000
94908KDBQ DBQ20101130184014511/30/10 18:40:31  5-MIN KDBQ 010040Z 29020G25KT 9SM BKN020 OVC028 M06/M09 A2979 1200 77 -1000 290/20G25 RMK AO2 PK WND 29027/0016 SNB18E27 P0000
94908KDBQ DBQ20101130184515211/30/10 18:45:31  5-MIN KDBQ 010045Z 29017G25KT 8SM -SN BKN020 OVC025 M06/M09 A2979 1200 77 -1000 290/17G25 RMK AO2 PK WND 29027/0016 SNB18E27B43 P0000
94908KDBQ DBQ20101130185016911/30/10 18:50:31  5-MIN KDBQ 010050Z 28019G23KT 6SM -SN BKN018 OVC024 M06/M09 A2979 1200 77 -1000 280/19G23 RMK AO2 PK WND 29027/0016 SNB18E27B43 SLP104 P0000 T10561089
94908KDBQ DBQ20101130185514011/30/10 18:55:31  5-MIN KDBQ 010055Z 29021G28KT 7SM -SN BKN018 OVC024 M06/M09 A2979 1200 77 -1000 290/21G28 RMK AO2 PK WND 29028/0055 P0000
94908KDBQ DBQ20101130190014211/30/10 19:00:31  5-MIN KDBQ 010100Z 30021G28KT 9SM SCT018 OVC026 M06/M10 A2980 1190 71 -1000 300/21G28 RMK AO2 PK WND 29028/0055 SNE00 P0000
94908KDBQ DBQ20101130190514211/30/10 19:05:31  5-MIN KDBQ 010105Z 29016G27KT 9SM SCT018 OVC026 M06/M09 A2980 1190 74 -1000 290/16G27 RMK AO2 PK WND 29028/0055 SNE00 P0000
94908KDBQ DBQ20101130191014311/30/10 19:10:31  5-MIN KDBQ 010110Z 30018G23KT 10SM FEW018 OVC026 M06/M09 A2980 1190 74 -1000 300/18G23 RMK AO2 PK WND 29028/0055 SNE00 P0000
94908KDBQ DBQ20101130191514311/30/10 19:15:31  5-MIN KDBQ 010115Z 30018G27KT 10SM FEW018 OVC026 M06/M10 A2980 1190 71 -1000 300/18G27 RMK AO2 PK WND 29028/0055 SNE00 P0000
94908KDBQ DBQ20101130192015011/30/10 19:20:31  5-MIN KDBQ 010120Z 30014G27KT 10SM FEW022 BKN026 OVC034 M06/M10 A2980 1190 71 -1000 290/14G27 RMK AO2 PK WND 29028/0055 SNE00 P0000
94908KDBQ DBQ20101130192514311/30/10 19:25:31  5-MIN KDBQ 010125Z 30019G24KT 10SM BKN028 OVC034 M06/M10 A2980 1190 71 -1000 300/19G24 RMK AO2 PK WND 29028/0055 SNE00 P0000
94908KDBQ DBQ20101130193014311/30/10 19:30:31  5-MIN KDBQ 010130Z 30019G25KT 10SM BKN026 OVC034 M06/M10 A2981 1180 71 -1000 300/19G25 RMK AO2 PK WND 29028/0055 SNE00 P0000
94908KDBQ DBQ20101130193514311/30/10 19:35:31  5-MIN KDBQ 010135Z 30016G25KT 10SM BKN026 OVC034 M06/M10 A2981 1190 71 -1000 300/16G25 RMK AO2 PK WND 29028/0055 SNE00 P0000
94908KDBQ DBQ20101130194015011/30/10 19:40:31  5-MIN KDBQ 010140Z 30019G25KT 10SM SCT024 BKN030 OVC034 M06/M10 A2981 1180 71 -1000 300/19G25 RMK AO2 PK WND 29028/0055 SNE00 P0000
94908KDBQ DBQ20101130194515011/30/10 19:45:31  5-MIN KDBQ 010145Z 30014G26KT 10SM BKN021 BKN026 OVC034 M06/M10 A2981 1180 71 -1000 300/14G26 RMK AO2 PK WND 29028/0055 SNE00 P0000
94908KDBQ DBQ20101130195016611/30/10 19:50:31  5-MIN KDBQ 010150Z 29014G26KT 8SM BKN021 BKN029 OVC034 M06/M09 A2981 1180 74 -1000 290/14G26 RMK AO2 PK WND 29028/0055 SNE00 SLP108 P0000 T10561094
94908KDBQ DBQ20101130195511211/30/10 19:55:31  5-MIN KDBQ 010155Z 29015G20KT 7SM BKN021 OVC029 M06/M09 A2981 1180 81 -1000 290/15G20 RMK AO2
94908KDBQ DBQ20101130200011711/30/10 20:00:31  5-MIN KDBQ 010200Z AUTO 29016G25KT 8SM BKN021 OVC031 M06/M09 A2981 1180 81 -1000 290/16G25 RMK AO2
94908KDBQ DBQ20101130200511811/30/10 20:05:31  5-MIN KDBQ 010205Z AUTO 29017G25KT 10SM FEW017 OVC022 M06/M09 A2981 1180 77 -1000 290/17G25 RMK AO2
94908KDBQ DBQ20101130201012911/30/10 20:10:31  5-MIN KDBQ 010210Z AUTO 29020G26KT 10SM OVC022 M06/M09 A2981 1180 77 -1000 290/20G26 RMK AO2 PK WND 30026/0210
94908KDBQ DBQ20101130201513611/30/10 20:15:31  5-MIN KDBQ 010215Z AUTO 29017G27KT 10SM FEW017 OVC022 M06/M10 A2981 1180 74 -1000 290/17G27 RMK AO2 PK WND 29027/0213
94908KDBQ DBQ20101130202012911/30/10 20:20:31  5-MIN KDBQ 010220Z AUTO 29016G27KT 10SM OVC022 M06/M10 A2981 1180 74 -1000 290/16G27 RMK AO2 PK WND 29027/0213
94908KDBQ DBQ20101130202512911/30/10 20:25:31  5-MIN KDBQ 010225Z AUTO 28020G25KT 10SM OVC022 M06/M10 A2981 1180 74 -1000 280/20G25 RMK AO2 PK WND 29027/0213
94908KDBQ DBQ20101130203012911/30/10 20:30:31  5-MIN KDBQ 010230Z AUTO 29020G29KT 10SM OVC022 M06/M10 A2981 1180 74 -1000 290/20G29 RMK AO2 PK WND 30029/0227
94908KDBQ DBQ20101130203512911/30/10 20:35:31  5-MIN KDBQ 010235Z AUTO 29017G29KT 10SM OVC022 M06/M10 A2981 1180 74 -1000 290/17G29 RMK AO2 PK WND 30029/0227
94908KDBQ DBQ20101130204012911/30/10 20:40:31  5-MIN KDBQ 010240Z AUTO 30020G27KT 10SM OVC022 M06/M10 A2981 1180 74 -1100 300/20G27 RMK AO2 PK WND 30029/0227
94908KDBQ DBQ20101130204512911/30/10 20:45:31  5-MIN KDBQ 010245Z AUTO 29016G27KT 10SM OVC024 M06/M10 A2981 1180 74 -1100 290/16G27 RMK AO2 PK WND 30029/0227
94908KDBQ DBQ20101130205015811/30/10 20:50:31  5-MIN KDBQ 010250Z AUTO 29019G26KT 10SM OVC024 M06/M10 A2982 1180 74 -1100 290/19G26 RMK AO2 PK WND 30029/0227 SLP111 60000 T10611100 51023
94908KDBQ DBQ20101130205511111/30/10 20:55:31  5-MIN KDBQ 010255Z AUTO 29018G27KT 10SM OVC024 M06/M10 A2982 1180 74 -1100 290/18G27 RMK AO2
94908KDBQ DBQ20101130210012911/30/10 21:00:31  5-MIN KDBQ 010300Z AUTO 29019G27KT 10SM OVC024 M06/M10 A2982 1180 74 -1100 280/19G27 RMK AO2 PK WND 30027/0257
94908KDBQ DBQ20101130210513611/30/10 21:05:31  5-MIN KDBQ 010305Z AUTO 29020G27KT 10SM BKN024 OVC049 M06/M10 A2982 1180 74 -1100 290/20G27 RMK AO2 PK WND 30027/0257
94908KDBQ DBQ20101130211014311/30/10 21:10:31  5-MIN KDBQ 010310Z AUTO 29020G26KT 10SM SCT024 BKN028 OVC049 M06/M10 A2982 1180 74 -1100 290/20G26 RMK AO2 PK WND 30027/0257
94908KDBQ DBQ20101130211513611/30/10 21:15:31  5-MIN KDBQ 010315Z AUTO 29020G27KT 10SM BKN024 OVC049 M06/M10 A2982 1180 74 -1100 290/20G27 RMK AO2 PK WND 29027/0315
94908KDBQ DBQ20101130212013511/30/10 21:20:31  5-MIN KDBQ 010320Z AUTO 29017G27KT 9SM BKN024 OVC049 M07/M10 A2982 1170 77 -1100 290/17G27 RMK AO2 PK WND 29027/0315
94908KDBQ DBQ20101130212513511/30/10 21:25:31  5-MIN KDBQ 010325Z AUTO 30020G27KT 9SM SCT024 OVC049 M07/M09 A2982 1180 81 -1100 290/20G27 RMK AO2 PK WND 30027/0324
94908KDBQ DBQ20101130213013611/30/10 21:30:31  5-MIN KDBQ 010330Z AUTO 29021G29KT 10SM SCT024 OVC049 M07/M10 A2981 1180 77 -1100 290/21G29 RMK AO2 PK WND 29029/0328
94908KDBQ DBQ20101130213514311/30/10 21:35:31  5-MIN KDBQ 010335Z AUTO 30016G29KT 10SM FEW019 SCT024 OVC049 M06/M10 A2981 1180 74 -1100 300/16G29 RMK AO2 PK WND 29029/0328
94908KDBQ DBQ20101130214014211/30/10 21:40:31  5-MIN KDBQ 010340Z AUTO 30015G25KT 9SM FEW019 SCT024 OVC049 M07/M10 A2981 1180 77 -1100 290/15G25 RMK AO2 PK WND 29029/0328
94908KDBQ DBQ20101130214514211/30/10 21:45:31  5-MIN KDBQ 010345Z AUTO 29021G29KT 8SM FEW020 BKN024 OVC049 M07/M10 A2981 1180 77 -1100 290/21G29 RMK AO2 PK WND 30029/0344
94908KDBQ DBQ20101130215015911/30/10 21:50:31  5-MIN KDBQ 010350Z AUTO 29019G29KT 9SM BKN024 BKN029 OVC049 M07/M10 A2981 1180 77 -1100 290/19G29 RMK AO2 PK WND 30029/0344 SLP111 T10671100
94908KDBQ DBQ20101130215512411/30/10 21:55:31  5-MIN KDBQ 010355Z AUTO 30018G25KT 9SM BKN023 BKN029 OVC049 M07/M10 A2981 1180 77 -1100 300/18G25 RMK AO2
94908KDBQ DBQ20101130220012511/30/10 22:00:31  5-MIN KDBQ 010400Z AUTO 29020G25KT 10SM BKN023 BKN030 OVC049 M07/M10 A2981 1180 77 -1100 290/20G25 RMK AO2
94908KDBQ DBQ20101130220512511/30/10 22:05:31  5-MIN KDBQ 010405Z AUTO 30019G25KT 10SM FEW020 BKN025 OVC049 M07/M10 A2981 1180 77 -1100 300/19G25 RMK AO2
94908KDBQ DBQ20101130221011811/30/10 22:10:31  5-MIN KDBQ 010410Z AUTO 29017G25KT 10SM FEW020 OVC025 M07/M10 A2982 1180 77 -1100 290/17G25 RMK AO2
94908KDBQ DBQ20101130221511811/30/10 22:15:31  5-MIN KDBQ 010415Z AUTO 29015G25KT 10SM BKN023 OVC029 M07/M10 A2982 1180 77 -1100 290/15G25 RMK AO2
94908KDBQ DBQ20101130222013611/30/10 22:20:31  5-MIN KDBQ 010420Z AUTO 29015G27KT 10SM BKN023 OVC043 M07/M10 A2981 1180 77 -1100 290/15G27 RMK AO2 PK WND 30027/0416
94908KDBQ DBQ20101130222512911/30/10 22:25:31  5-MIN KDBQ 010425Z AUTO 29015G27KT 10SM OVC023 M07/M10 A2981 1180 77 -1100 290/15G27 RMK AO2 PK WND 30027/0416
94908KDBQ DBQ20101130223012911/30/10 22:30:31  5-MIN KDBQ 010430Z AUTO 30018G25KT 10SM OVC023 M07/M10 A2981 1180 77 -1100 290/18G25 RMK AO2 PK WND 30027/0416
94908KDBQ DBQ20101130223512911/30/10 22:35:31  5-MIN KDBQ 010435Z AUTO 29019G25KT 10SM OVC022 M07/M10 A2981 1180 77 -1100 290/19G25 RMK AO2 PK WND 30027/0416
94908KDBQ DBQ20101130224013611/30/10 22:40:31  5-MIN KDBQ 010440Z AUTO 29020G29KT 10SM BKN022 OVC026 M07/M10 A2982 1180 77 -1100 290/20G29 RMK AO2 PK WND 29029/0440
94908KDBQ DBQ20101130224512911/30/10 22:45:31  5-MIN KDBQ 010445Z AUTO 29015G29KT 10SM OVC022 M07/M11 A2981 1180 74 -1100 290/15G29 RMK AO2 PK WND 29029/0440
94908KDBQ DBQ20101130225014611/30/10 22:50:31  5-MIN KDBQ 010450Z AUTO 29018G26KT 10SM OVC022 M07/M10 A2982 1180 77 -1100 290/18G26 RMK AO2 PK WND 29029/0440 SLP113 T10671100
94908KDBQ DBQ20101130225511011/30/10 22:55:31  5-MIN KDBQ 010455Z AUTO 29018G25KT 9SM OVC022 M07/M10 A2982 1170 77 -1100 290/18G25 RMK AO2
94908KDBQ DBQ20101130230012911/30/10 23:00:31  5-MIN KDBQ 010500Z AUTO 30020G27KT 10SM OVC022 M07/M10 A2982 1170 77 -1100 300/20G27 RMK AO2 PK WND 30027/0458
94908KDBQ DBQ20101130230512911/30/10 23:05:31  5-MIN KDBQ 010505Z AUTO 30019G27KT 10SM OVC022 M07/M10 A2982 1170 77 -1100 300/19G27 RMK AO2 PK WND 29027/0504
94908KDBQ DBQ20101130231012911/30/10 23:10:31  5-MIN KDBQ 010510Z AUTO 30019G27KT 10SM OVC022 M07/M10 A2982 1170 77 -1100 290/19G27 RMK AO2 PK WND 29027/0504
94908KDBQ DBQ20101130231512911/30/10 23:15:31  5-MIN KDBQ 010515Z AUTO 29013G24KT 10SM OVC022 M07/M10 A2983 1170 77 -1100 290/13G24 RMK AO2 PK WND 29027/0504
94908KDBQ DBQ20101130232012911/30/10 23:20:31  5-MIN KDBQ 010520Z AUTO 29019G25KT 10SM OVC022 M07/M10 A2982 1170 77 -1100 290/19G25 RMK AO2 PK WND 29027/0504
94908KDBQ DBQ20101130232512811/30/10 23:25:31  5-MIN KDBQ 010525Z AUTO 29016G26KT 9SM OVC022 M07/M10 A2982 1170 77 -1100 290/16G26 RMK AO2 PK WND 29027/0504
94908KDBQ DBQ20101130233012811/30/10 23:30:31  5-MIN KDBQ 010530Z AUTO 28016G26KT 8SM OVC022 M07/M10 A2982 1170 77 -1100 280/16G26 RMK AO2 PK WND 29027/0504
94908KDBQ DBQ20101130233512811/30/10 23:35:31  5-MIN KDBQ 010535Z AUTO 29016G24KT 8SM OVC022 M07/M09 A2982 1170 81 -1100 280/16G24 RMK AO2 PK WND 29027/0504
94908KDBQ DBQ20101130234012811/30/10 23:40:31  5-MIN KDBQ 010540Z AUTO 28016G24KT 9SM OVC020 M07/M10 A2982 1170 77 -1100 280/16G24 RMK AO2 PK WND 29027/0504
94908KDBQ DBQ20101130234512911/30/10 23:45:31  5-MIN KDBQ 010545Z AUTO 28014G20KT 10SM OVC020 M07/M09 A2982 1170 81 -1100 280/14G20 RMK AO2 PK WND 29027/0504
94908KDBQ DBQ20101130235018011/30/10 23:50:31  5-MIN KDBQ 010550Z AUTO 29017G24KT 10SM OVC020 M07/M10 A2982 1170 77 -1100 290/17G24 RMK AO2 PK WND 29027/0504 SLP115 60000 T10671100 11050 21067 400721067 51011
94908KDBQ DBQ20101130235511111/30/10 23:55:31  5-MIN KDBQ 010555Z AUTO 29020G24KT 10SM OVC020 M07/M10 A2983 1170 77 -1100 290/20G24 RMK AO2
