94908KDBQ DBQ20050201000011802/01/05 00:00:49  5-MIN KDBQ 010600Z AUTO 00000KT 2SM BR FEW015 OVC021 M01/M02 A3036 670 92 -1000 000/00 RMK AO2 TSNO
94908KDBQ DBQ20050201000511802/01/05 00:05:31  5-MIN KDBQ 010605Z AUTO 00000KT 2SM BR FEW015 OVC021 M01/M02 A3036 670 92 -1000 000/00 RMK AO2 TSNO
94908KDBQ DBQ20050201001011802/01/05 00:10:31  5-MIN KDBQ 010610Z AUTO 00000KT 2SM BR FEW015 OVC021 M01/M02 A3036 670 92 -1000 000/00 RMK AO2 TSNO
94908KDBQ DBQ20050201001511802/01/05 00:15:33  5-MIN KDBQ 010615Z AUTO 00000KT 2SM BR FEW015 OVC021 M02/M02 A3036 670 96 -1100 000/00 RMK AO2 TSNO
94908KDBQ DBQ20050201002012202/01/05 00:20:31  5-MIN KDBQ 010620Z AUTO 00000KT 1 3/4SM BR FEW015 OVC021 M02/M03 A3036 670 92 -1100 000/00 RMK AO2 TSNO
94908KDBQ DBQ20050201002511502/01/05 00:25:31  5-MIN KDBQ 010625Z AUTO 00000KT 1 3/4SM BR OVC021 M02/M03 A3036 680 92 -1100 000/00 RMK AO2 TSNO
94908KDBQ DBQ20050201003011502/01/05 00:30:31  5-MIN KDBQ 010630Z AUTO 00000KT 1 3/4SM BR OVC021 M02/M02 A3036 680 96 -1100 000/00 RMK AO2 TSNO
94908KDBQ DBQ20050201003511502/01/05 00:35:31  5-MIN KDBQ 010635Z AUTO 00000KT 1 3/4SM BR OVC021 M02/M03 A3036 680 92 -1100 000/00 RMK AO2 TSNO
94908KDBQ DBQ20050201004011502/01/05 00:40:31  5-MIN KDBQ 010640Z AUTO 00000KT 1 3/4SM BR OVC021 M02/M02 A3036 680 96 -1100 000/00 RMK AO2 TSNO
94908KDBQ DBQ20050201004511502/01/05 00:45:31  5-MIN KDBQ 010645Z AUTO 00000KT 1 3/4SM BR OVC021 M02/M02 A3036 680 96 -1100 000/00 RMK AO2 TSNO
94908KDBQ DBQ20050201005013202/01/05 00:50:31  5-MIN KDBQ 010650Z AUTO 00000KT 1 3/4SM BR OVC021 M02/M02 A3035 680 96 -1100 000/00 RMK AO2 SLP293 T10171022 TSNO
94908KDBQ DBQ20050201005513202/01/05 00:55:31  5-MIN KDBQ 010655Z AUTO 00000KT 1 3/4SM BR OVC021 M02/M02 A3035 680 96 -1100 000/00 RMK AO2 SLP293 T10171022 TSNO
94908KDBQ DBQ20050201010011502/01/05 01:00:31  5-MIN KDBQ 010700Z AUTO 00000KT 1 1/2SM BR OVC021 M02/M03 A3035 680 92 -1100 000/00 RMK AO2 TSNO
94908KDBQ DBQ20050201010511502/01/05 01:05:31  5-MIN KDBQ 010705Z AUTO 00000KT 1 1/2SM BR OVC021 M02/M03 A3035 680 92 -1100 000/00 RMK AO2 TSNO
94908KDBQ DBQ20050201011011502/01/05 01:10:31  5-MIN KDBQ 010710Z AUTO 00000KT 1 1/2SM BR OVC021 M02/M02 A3035 680 96 -1100 000/00 RMK AO2 TSNO
94908KDBQ DBQ20050201011511502/01/05 01:15:31  5-MIN KDBQ 010715Z AUTO 00000KT 1 1/2SM BR OVC021 M02/M02 A3036 680 96 -1100 000/00 RMK AO2 TSNO
94908KDBQ DBQ20050201012011502/01/05 01:20:31  5-MIN KDBQ 010720Z AUTO 00000KT 1 1/4SM BR OVC021 M02/M02 A3035 680 96 -1100 000/00 RMK AO2 TSNO
94908KDBQ DBQ20050201012511502/01/05 01:25:31  5-MIN KDBQ 010725Z AUTO 00000KT 1 1/4SM BR OVC021 M01/M02 A3035 680 92 -1000 000/00 RMK AO2 TSNO
94908KDBQ DBQ20050201013011502/01/05 01:30:31  5-MIN KDBQ 010730Z AUTO 00000KT 1 1/4SM BR OVC021 M01/M02 A3035 680 92 -1000 000/00 RMK AO2 TSNO
94908KDBQ DBQ20050201013511502/01/05 01:35:31  5-MIN KDBQ 010735Z AUTO 00000KT 1 1/2SM BR OVC021 M01/M02 A3036 680 92 -1000 000/00 RMK AO2 TSNO
94908KDBQ DBQ20050201014011502/01/05 01:40:31  5-MIN KDBQ 010740Z AUTO 00000KT 1 1/2SM BR OVC021 M01/M02 A3036 680 92 -1000 000/00 RMK AO2 TSNO
94908KDBQ DBQ20050201014511502/01/05 01:45:31  5-MIN KDBQ 010745Z AUTO 00000KT 1 1/2SM BR OVC019 M01/M02 A3036 680 92 -1000 000/00 RMK AO2 TSNO
94908KDBQ DBQ20050201015013202/01/05 01:50:31  5-MIN KDBQ 010750Z AUTO 00000KT 1 3/4SM BR OVC019 M01/M02 A3036 680 92 -1000 000/00 RMK AO2 SLP294 T10111022 TSNO
94908KDBQ DBQ20050201015513202/01/05 01:55:31  5-MIN KDBQ 010755Z AUTO 00000KT 1 3/4SM BR OVC019 M01/M02 A3036 670 92 -1000 000/00 RMK AO2 SLP294 T10111022 TSNO
94908KDBQ DBQ20050201020011502/01/05 02:00:31  5-MIN KDBQ 010800Z AUTO 00000KT 1 3/4SM BR OVC019 M01/M02 A3036 670 92 -1000 000/00 RMK AO2 TSNO
94908KDBQ DBQ20050201020511502/01/05 02:05:31  5-MIN KDBQ 010805Z AUTO 00000KT 1 3/4SM BR OVC019 M01/M02 A3036 670 92 -1000 000/00 RMK AO2 TSNO
94908KDBQ DBQ20050201021011502/01/05 02:10:31  5-MIN KDBQ 010810Z AUTO 00000KT 1 3/4SM BR OVC019 M01/M02 A3036 670 92 -1000 000/00 RMK AO2 TSNO
94908KDBQ DBQ20050201021511502/01/05 02:15:31  5-MIN KDBQ 010815Z AUTO 00000KT 1 3/4SM BR OVC019 M01/M02 A3036 670 92 -1000 000/00 RMK AO2 TSNO
94908KDBQ DBQ20050201022011502/01/05 02:20:31  5-MIN KDBQ 010820Z AUTO 00000KT 1 3/4SM BR OVC019 M01/M02 A3037 670 92 -1100 000/00 RMK AO2 TSNO
94908KDBQ DBQ20050201022511502/01/05 02:25:31  5-MIN KDBQ 010825Z AUTO 00000KT 1 3/4SM BR OVC019 M01/M02 A3037 670 92 -1100 000/00 RMK AO2 TSNO
94908KDBQ DBQ20050201023011502/01/05 02:30:31  5-MIN KDBQ 010830Z AUTO 00000KT 1 1/2SM BR OVC019 M01/M02 A3037 670 92 -1100 000/00 RMK AO2 TSNO
94908KDBQ DBQ20050201023511502/01/05 02:35:31  5-MIN KDBQ 010835Z AUTO 00000KT 1 1/2SM BR OVC019 M01/M02 A3037 670 92 -1100 000/00 RMK AO2 TSNO
94908KDBQ DBQ20050201024011502/01/05 02:40:31  5-MIN KDBQ 010840Z AUTO 00000KT 1 1/2SM BR OVC019 M01/M02 A3037 670 92 -1100 000/00 RMK AO2 TSNO
94908KDBQ DBQ20050201024511502/01/05 02:45:31  5-MIN KDBQ 010845Z AUTO 00000KT 1 1/2SM BR OVC019 M01/M02 A3036 670 92 -1100 000/00 RMK AO2 TSNO
94908KDBQ DBQ20050201025013802/01/05 02:50:31  5-MIN KDBQ 010850Z AUTO 00000KT 1 1/2SM BR OVC019 M01/M02 A3036 670 92 -1100 000/00 RMK AO2 SLP296 T10111022 51003 TSNO
94908KDBQ DBQ20050201025513802/01/05 02:55:31  5-MIN KDBQ 010855Z AUTO 00000KT 1 1/2SM BR OVC019 M01/M02 A3036 670 92 -1100 000/00 RMK AO2 SLP296 T10111022 53001 TSNO
94908KDBQ DBQ20050201030011502/01/05 03:00:31  5-MIN KDBQ 010900Z AUTO 00000KT 1 1/2SM BR OVC019 M01/M02 A3036 670 92 -1000 000/00 RMK AO2 TSNO
94908KDBQ DBQ20050201030511502/01/05 03:05:31  5-MIN KDBQ 010905Z AUTO 00000KT 1 1/2SM BR OVC019 M01/M02 A3036 670 92 -1000 000/00 RMK AO2 TSNO
94908KDBQ DBQ20050201031011502/01/05 03:10:31  5-MIN KDBQ 010910Z AUTO 00000KT 1 1/2SM BR OVC019 M01/M02 A3036 670 92 -1000 000/00 RMK AO2 TSNO
94908KDBQ DBQ20050201031511502/01/05 03:15:31  5-MIN KDBQ 010915Z AUTO 00000KT 1 1/2SM BR OVC019 M01/M02 A3036 670 92 -1000 000/00 RMK AO2 TSNO
94908KDBQ DBQ20050201032011502/01/05 03:20:31  5-MIN KDBQ 010920Z AUTO 00000KT 1 1/2SM BR OVC019 M01/M02 A3036 670 92 -1000 000/00 RMK AO2 TSNO
94908KDBQ DBQ20050201032511502/01/05 03:25:31  5-MIN KDBQ 010925Z AUTO 00000KT 1 1/2SM BR OVC019 M01/M02 A3036 670 92 -1000 000/00 RMK AO2 TSNO
94908KDBQ DBQ20050201033011502/01/05 03:30:31  5-MIN KDBQ 010930Z AUTO 00000KT 1 3/4SM BR OVC019 M01/M02 A3036 670 92 -1000 000/00 RMK AO2 TSNO
94908KDBQ DBQ20050201033511502/01/05 03:35:31  5-MIN KDBQ 010935Z AUTO 00000KT 1 1/2SM BR OVC019 M01/M02 A3036 670 92 -1000 000/00 RMK AO2 TSNO
94908KDBQ DBQ20050201034011502/01/05 03:40:31  5-MIN KDBQ 010940Z AUTO 00000KT 1 1/2SM BR OVC021 M01/M02 A3036 670 92 -1000 000/00 RMK AO2 TSNO
94908KDBQ DBQ20050201034511502/01/05 03:45:31  5-MIN KDBQ 010945Z AUTO 00000KT 1 1/4SM BR OVC021 M01/M02 A3036 670 92 -1000 000/00 RMK AO2 TSNO
94908KDBQ DBQ20050201035013202/01/05 03:50:31  5-MIN KDBQ 010950Z AUTO 00000KT 1 1/4SM BR OVC021 M01/M02 A3036 670 92 -1000 000/00 RMK AO2 SLP296 T10111022 TSNO
94908KDBQ DBQ20050201035513202/01/05 03:55:31  5-MIN KDBQ 010955Z AUTO 00000KT 1 1/2SM BR OVC021 M01/M02 A3036 670 92 -1000 000/00 RMK AO2 SLP296 T10111022 TSNO
94908KDBQ DBQ20050201040011502/01/05 04:00:31  5-MIN KDBQ 011000Z AUTO 00000KT 1 1/2SM BR OVC021 M01/M02 A3036 670 92 -1000 000/00 RMK AO2 TSNO
94908KDBQ DBQ20050201040511502/01/05 04:05:31  5-MIN KDBQ 011005Z AUTO 00000KT 1 1/2SM BR OVC021 M01/M02 A3037 670 92 -1100 000/00 RMK AO2 TSNO
94908KDBQ DBQ20050201041011502/01/05 04:10:31  5-MIN KDBQ 011010Z AUTO 00000KT 1 1/4SM BR OVC021 M01/M02 A3037 670 92 -1100 000/00 RMK AO2 TSNO
94908KDBQ DBQ20050201041511502/01/05 04:15:31  5-MIN KDBQ 011015Z AUTO 00000KT 1 1/4SM BR OVC021 M01/M02 A3036 670 92 -1000 000/00 RMK AO2 TSNO
94908KDBQ DBQ20050201042011502/01/05 04:20:31  5-MIN KDBQ 011020Z AUTO 00000KT 1 1/4SM BR OVC021 M01/M02 A3037 670 92 -1100 000/00 RMK AO2 TSNO
94908KDBQ DBQ20050201042511502/01/05 04:25:31  5-MIN KDBQ 011025Z AUTO 00000KT 1 1/4SM BR OVC021 M01/M02 A3037 670 92 -1100 000/00 RMK AO2 TSNO
94908KDBQ DBQ20050201043011502/01/05 04:30:31  5-MIN KDBQ 011030Z AUTO 00000KT 1 1/4SM BR OVC021 M01/M02 A3037 670 92 -1100 000/00 RMK AO2 TSNO
94908KDBQ DBQ20050201043511502/01/05 04:35:31  5-MIN KDBQ 011035Z AUTO 00000KT 1 1/4SM BR OVC021 M01/M02 A3037 670 92 -1100 000/00 RMK AO2 TSNO
94908KDBQ DBQ20050201044011502/01/05 04:40:31  5-MIN KDBQ 011040Z AUTO 00000KT 1 1/4SM BR OVC021 M01/M02 A3037 670 92 -1100 000/00 RMK AO2 TSNO
94908KDBQ DBQ20050201044511502/01/05 04:45:31  5-MIN KDBQ 011045Z AUTO 00000KT 1 1/4SM BR OVC021 M01/M02 A3037 670 92 -1100 000/00 RMK AO2 TSNO
94908KDBQ DBQ20050201045013202/01/05 04:50:31  5-MIN KDBQ 011050Z AUTO 00000KT 1 1/2SM BR OVC021 M01/M02 A3037 670 92 -1100 000/00 RMK AO2 SLP298 T10111022 TSNO
94908KDBQ DBQ20050201045513202/01/05 04:55:31  5-MIN KDBQ 011055Z AUTO 00000KT 1 1/2SM BR OVC021 M01/M02 A3037 660 92 -1100 000/00 RMK AO2 SLP299 T10111022 TSNO
94908KDBQ DBQ20050201050011502/01/05 05:00:31  5-MIN KDBQ 011100Z AUTO 00000KT 1 1/2SM BR OVC021 M01/M02 A3037 660 92 -1100 000/00 RMK AO2 TSNO
94908KDBQ DBQ20050201050511502/01/05 05:05:31  5-MIN KDBQ 011105Z AUTO 00000KT 1 3/4SM BR OVC021 M01/M02 A3037 660 92 -1100 000/00 RMK AO2 TSNO
94908KDBQ DBQ20050201051011502/01/05 05:10:31  5-MIN KDBQ 011110Z AUTO 00000KT 1 3/4SM BR OVC021 M01/M02 A3037 660 92 -1100 000/00 RMK AO2 TSNO
94908KDBQ DBQ20050201051511502/01/05 05:15:31  5-MIN KDBQ 011115Z AUTO 00000KT 1 3/4SM BR OVC021 M01/M02 A3037 660 92 -1100 000/00 RMK AO2 TSNO
94908KDBQ DBQ20050201052011502/01/05 05:20:31  5-MIN KDBQ 011120Z AUTO 00000KT 1 3/4SM BR OVC021 M01/M02 A3038 660 92 -1100 000/00 RMK AO2 TSNO
94908KDBQ DBQ20050201052511502/01/05 05:25:31  5-MIN KDBQ 011125Z AUTO 00000KT 1 3/4SM BR OVC021 M01/M02 A3038 660 92 -1100 000/00 RMK AO2 TSNO
94908KDBQ DBQ20050201053011102/01/05 05:30:31  5-MIN KDBQ 011130Z AUTO 00000KT 2SM BR OVC021 M01/M02 A3038 660 88 -1000 000/00 RMK AO2 TSNO
94908KDBQ DBQ20050201053511802/01/05 05:35:31  5-MIN KDBQ 011135Z AUTO 01003KT 2SM BR FEW012 OVC021 M01/M02 A3038 650 92 -1100 010/03 RMK AO2 TSNO
94908KDBQ DBQ20050201054011802/01/05 05:40:31  5-MIN KDBQ 011140Z AUTO 03003KT 2SM BR FEW012 OVC021 M01/M02 A3038 650 92 -1100 030/03 RMK AO2 TSNO
94908KDBQ DBQ20050201054511802/01/05 05:45:31  5-MIN KDBQ 011145Z AUTO 03003KT 2SM BR SCT012 OVC021 M01/M02 A3039 650 92 -1100 030/03 RMK AO2 TSNO
94908KDBQ DBQ20050201055015302/01/05 05:50:31  5-MIN KDBQ 011150Z AUTO 03004KT 2SM BR SCT012 OVC021 M01/M02 A3039 650 92 -1100 030/04 RMK AO2 SLP305 T10111022 11006 21017 53001 TSNO
94908KDBQ DBQ20050201055514302/01/05 05:55:31  5-MIN KDBQ 011155Z 04003KT 2SM BR SCT012 OVC021 M01/M03 A3039 650 88 -1100 040/03 RMK AO2 SLP305 T10111028 11006 21017 53008
94908KDBQ DBQ20050201060010802/01/05 06:00:31  5-MIN KDBQ 011200Z 06003KT 2SM BR SCT012 OVC021 M01/M03 A3039 650 88 -1100 060/03 RMK AO2
94908KDBQ DBQ20050201060510802/01/05 06:05:31  5-MIN KDBQ 011205Z 05003KT 2SM BR FEW012 BKN021 M01/M02 A3039 640 92 -1100 050/03 RMK AO2
94908KDBQ DBQ20050201061010802/01/05 06:10:31  5-MIN KDBQ 011210Z 05003KT 2SM BR FEW012 BKN021 M01/M02 A3040 640 92 -1100 040/03 RMK AO2
94908KDBQ DBQ20050201061510802/01/05 06:15:31  5-MIN KDBQ 011215Z 03003KT 2SM BR FEW012 BKN021 M01/M02 A3040 640 92 -1100 030/03 RMK AO2
94908KDBQ DBQ20050201062010802/01/05 06:20:31  5-MIN KDBQ 011220Z 05003KT 2SM BR FEW010 BKN021 M01/M02 A3040 640 92 -1100 040/03 RMK AO2
94908KDBQ DBQ20050201062510802/01/05 06:25:31  5-MIN KDBQ 011225Z 06003KT 2SM BR FEW010 BKN021 M01/M02 A3040 640 92 -1100 060/03 RMK AO2
94908KDBQ DBQ20050201063010802/01/05 06:30:31  5-MIN KDBQ 011230Z 07003KT 2SM BR FEW010 BKN021 M01/M02 A3040 630 92 -1100 070/03 RMK AO2
94908KDBQ DBQ20050201063510802/01/05 06:35:31  5-MIN KDBQ 011235Z 08003KT 2SM BR FEW010 OVC021 M01/M02 A3040 630 92 -1100 080/03 RMK AO2
94908KDBQ DBQ20050201064011202/01/05 06:40:31  5-MIN KDBQ 011240Z 00000KT 1 3/4SM BR FEW010 OVC021 M01/M02 A3040 630 92 -1100 000/00 RMK AO2
94908KDBQ DBQ20050201064510502/01/05 06:45:31  5-MIN KDBQ 011245Z 00000KT 1 3/4SM BR OVC021 M01/M02 A3041 630 92 -1100 000/00 RMK AO2
94908KDBQ DBQ20050201065012902/01/05 06:50:31  5-MIN KDBQ 011250Z 00000KT 1 3/4SM BR FEW011 OVC021 M01/M02 A3041 630 92 -1100 000/00 RMK AO2 SLP310 T10111022
94908KDBQ DBQ20050201065512902/01/05 06:55:31  5-MIN KDBQ 011255Z 00000KT 1 3/4SM BR FEW011 OVC021 M01/M02 A3041 630 92 -1100 000/00 RMK AO2 SLP310 T10111022
94908KDBQ DBQ20050201070011202/01/05 07:00:31  5-MIN KDBQ 011300Z 00000KT 1 3/4SM BR FEW011 OVC021 M01/M02 A3041 630 92 -1100 000/00 RMK AO2
94908KDBQ DBQ20050201070510802/01/05 07:05:31  5-MIN KDBQ 011305Z 00000KT 2SM BR FEW011 OVC021 M01/M02 A3041 630 92 -1100 000/00 RMK AO2
94908KDBQ DBQ20050201071010802/01/05 07:10:31  5-MIN KDBQ 011310Z 00000KT 2SM BR FEW011 OVC021 M01/M02 A3041 630 92 -1100 000/00 RMK AO2
94908KDBQ DBQ20050201071510802/01/05 07:15:31  5-MIN KDBQ 011315Z 00000KT 2SM BR SCT011 OVC021 M01/M02 A3041 630 92 -1100 000/00 RMK AO2
94908KDBQ DBQ20050201072010802/01/05 07:20:31  5-MIN KDBQ 011320Z 00000KT 2SM BR SCT011 OVC019 M01/M02 A3041 630 92 -1100 000/00 RMK AO2
94908KDBQ DBQ20050201072511202/01/05 07:25:31  5-MIN KDBQ 011325Z 16003KT 1 1/4SM BR SCT011 OVC019 M01/M02 A3041 630 92 -1100 160/03 RMK AO2
94908KDBQ DBQ20050201073010802/01/05 07:30:31  5-MIN KDBQ 011330Z 15003KT 1SM BR SCT011 OVC019 M01/M02 A3041 630 92 -1100 150/03 RMK AO2
94908KDBQ DBQ20050201073510802/01/05 07:35:31  5-MIN KDBQ 011335Z 18003KT 1SM BR SCT011 OVC019 M01/M02 A3041 630 92 -1100 170/03 RMK AO2
94908KDBQ DBQ20050201074010802/01/05 07:40:31  5-MIN KDBQ 011340Z 16003KT 1SM BR SCT011 OVC019 M01/M02 A3041 630 92 -1100 160/03 RMK AO2
94908KDBQ DBQ20050201074510802/01/05 07:45:31  5-MIN KDBQ 011345Z 00000KT 1SM BR SCT011 OVC019 M01/M02 A3041 630 92 -1100 000/00 RMK AO2
94908KDBQ DBQ20050201075012502/01/05 07:50:31  5-MIN KDBQ 011350Z 00000KT 1SM BR BKN011 OVC019 M01/M02 A3041 630 92 -1100 000/00 RMK AO2 SLP312 T10111022
94908KDBQ DBQ20050201075512502/01/05 07:55:31  5-MIN KDBQ 011355Z 00000KT 1SM BR BKN011 OVC019 M01/M02 A3041 630 92 -1100 000/00 RMK AO2 SLP313 T10111022
94908KDBQ DBQ20050201080010802/01/05 08:00:31  5-MIN KDBQ 011400Z 00000KT 1SM BR BKN011 OVC019 M01/M02 A3041 630 92 -1100 000/00 RMK AO2
94908KDBQ DBQ20050201080510102/01/05 08:05:31  5-MIN KDBQ 011405Z 00000KT 1SM BR OVC011 M01/M02 A3041 630 92 -1100 000/00 RMK AO2
94908KDBQ DBQ20050201081010102/01/05 08:10:31  5-MIN KDBQ 011410Z 00000KT 1SM BR OVC011 M01/M02 A3041 620 92 -1100 000/00 RMK AO2
94908KDBQ DBQ20050201081510502/01/05 08:15:31  5-MIN KDBQ 011415Z 00000KT 1 1/4SM BR OVC011 M01/M02 A3041 620 88 -1000 000/00 RMK AO2
94908KDBQ DBQ20050201082010502/01/05 08:20:31  5-MIN KDBQ 011420Z 00000KT 1 1/4SM BR OVC011 M01/M02 A3041 630 88 -1000 000/00 RMK AO2
94908KDBQ DBQ20050201082510502/01/05 08:25:31  5-MIN KDBQ 011425Z 00000KT 1 1/4SM BR OVC011 M01/M02 A3041 630 92 -1100 000/00 RMK AO2
94908KDBQ DBQ20050201083010502/01/05 08:30:31  5-MIN KDBQ 011430Z 13003KT 1 1/4SM BR OVC011 M01/M02 A3041 630 88 -1000 130/03 RMK AO2
94908KDBQ DBQ20050201083510502/01/05 08:35:31  5-MIN KDBQ 011435Z 00000KT 1 1/4SM BR OVC011 M01/M02 A3041 630 88 -1000 000/00 RMK AO2
94908KDBQ DBQ20050201084010502/01/05 08:40:31  5-MIN KDBQ 011440Z 00000KT 1 1/4SM BR OVC011 M01/M02 A3041 630 88 -1000 000/00 RMK AO2
94908KDBQ DBQ20050201084510502/01/05 08:45:31  5-MIN KDBQ 011445Z 00000KT 1 1/4SM BR OVC011 M01/M02 A3041 630 88 -1000 000/00 RMK AO2
94908KDBQ DBQ20050201085012802/01/05 08:50:31  5-MIN KDBQ 011450Z 00000KT 1 1/4SM BR OVC011 M01/M02 A3041 630 88 -1000 000/00 RMK AO2 SLP313 T10061022 53008
94908KDBQ DBQ20050201085512802/01/05 08:55:31  5-MIN KDBQ 011455Z 00000KT 1 1/4SM BR OVC011 M01/M02 A3041 630 88 -1000 000/00 RMK AO2 SLP313 T10061022 51007
94908KDBQ DBQ20050201090010502/01/05 09:00:31  5-MIN KDBQ 011500Z 00000KT 1 1/4SM BR OVC011 M01/M02 A3041 630 88 -1000 000/00 RMK AO2
94908KDBQ DBQ20050201090510502/01/05 09:05:31  5-MIN KDBQ 011505Z 00000KT 1 1/4SM BR OVC011 M01/M02 A3041 630 88 -1000 000/00 RMK AO2
94908KDBQ DBQ20050201091010502/01/05 09:10:31  5-MIN KDBQ 011510Z 15003KT 1 1/2SM BR OVC011 M01/M02 A3041 630 88 -1000 150/03 RMK AO2
94908KDBQ DBQ20050201091510502/01/05 09:15:31  5-MIN KDBQ 011515Z 14003KT 1 1/2SM BR OVC011 M01/M02 A3041 630 88 -1000 140/03 RMK AO2
94908KDBQ DBQ20050201092010502/01/05 09:20:31  5-MIN KDBQ 011520Z 15003KT 1 1/4SM BR OVC011 M01/M02 A3041 630 88 -1000 150/03 RMK AO2
94908KDBQ DBQ20050201092510502/01/05 09:25:31  5-MIN KDBQ 011525Z 00000KT 1 1/2SM BR OVC011 M01/M02 A3041 630 88 -1000 000/00 RMK AO2
94908KDBQ DBQ20050201093010502/01/05 09:30:31  5-MIN KDBQ 011530Z 16003KT 1 1/2SM BR OVC011 M01/M02 A3041 620 88 -1000 150/03 RMK AO2
94908KDBQ DBQ20050201093510502/01/05 09:35:31  5-MIN KDBQ 011535Z 16003KT 1 1/2SM BR OVC011 M01/M02 A3042 620 88 -1000 160/03 RMK AO2
94908KDBQ DBQ20050201094010402/01/05 09:40:31  5-MIN KDBQ 011540Z 18003KT 1 1/2SM BR OVC011 00/M02 A3042 620 88 -1000 180/03 RMK AO2
94908KDBQ DBQ20050201094510402/01/05 09:45:31  5-MIN KDBQ 011545Z 17003KT 1 1/2SM BR OVC011 00/M02 A3042 620 88 -1000 160/03 RMK AO2
94908KDBQ DBQ20050201095012102/01/05 09:50:31  5-MIN KDBQ 011550Z 00000KT 1 1/2SM BR OVC011 00/M02 A3042 620 88 -1000 000/00 RMK AO2 SLP313 T00001017
94908KDBQ DBQ20050201095512102/01/05 09:55:31  5-MIN KDBQ 011555Z 18003KT 1 3/4SM BR OVC011 00/M02 A3042 620 88 -1000 180/03 RMK AO2 SLP313 T00001017
94908KDBQ DBQ20050201100010402/01/05 10:00:31  5-MIN KDBQ 011600Z 18004KT 1 3/4SM BR OVC011 00/M02 A3042 620 85 -1000 180/04 RMK AO2
94908KDBQ DBQ20050201100510402/01/05 10:05:31  5-MIN KDBQ 011605Z 18004KT 1 3/4SM HZ OVC011 00/M03 A3042 620 81 -1000 180/04 RMK AO2
94908KDBQ DBQ20050201101010402/01/05 10:10:31  5-MIN KDBQ 011610Z 18004KT 1 3/4SM HZ OVC011 00/M03 A3042 620 81 -1000 180/04 RMK AO2
94908KDBQ DBQ20050201101510402/01/05 10:15:31  5-MIN KDBQ 011615Z 18005KT 1 3/4SM HZ OVC011 00/M03 A3042 620 81 -1000 180/05 RMK AO2
94908KDBQ DBQ20050201102010402/01/05 10:20:31  5-MIN KDBQ 011620Z 18005KT 1 3/4SM HZ OVC011 00/M03 A3042 620 81 -1000 180/05 RMK AO2
94908KDBQ DBQ20050201102510002/01/05 10:25:31  5-MIN KDBQ 011625Z 17005KT 3SM HZ OVC011 00/M03 A3042 620 81 -1000 170/05 RMK AO2
94908KDBQ DBQ20050201103010002/01/05 10:30:31  5-MIN KDBQ 011630Z 17005KT 3SM HZ OVC011 00/M03 A3042 620 81 -1000 170/05 RMK AO2
94908KDBQ DBQ20050201103510002/01/05 10:35:31  5-MIN KDBQ 011635Z 17004KT 3SM HZ OVC011 00/M03 A3042 620 81 -1000 160/04 RMK AO2
94908KDBQ DBQ20050201104010002/01/05 10:40:31  5-MIN KDBQ 011640Z 17004KT 3SM HZ OVC011 00/M03 A3042 620 81 -1000 170/04 RMK AO2
94908KDBQ DBQ20050201104510002/01/05 10:45:31  5-MIN KDBQ 011645Z 17004KT 3SM HZ OVC011 00/M03 A3042 620 81 -1000 170/04 RMK AO2
94908KDBQ DBQ20050201105011702/01/05 10:50:31  5-MIN KDBQ 011650Z 18004KT 3SM HZ OVC011 00/M03 A3042 620 81 -1000 180/04 RMK AO2 SLP315 T00001028
94908KDBQ DBQ20050201105512402/01/05 10:55:31  5-MIN KDBQ 011655Z 18005KT 3SM HZ BKN011 OVC017 00/M03 A3042 620 81 -1000 180/05 RMK AO2 SLP315 T00001028
94908KDBQ DBQ20050201110010702/01/05 11:00:31  5-MIN KDBQ 011700Z 17004KT 3SM HZ BKN011 OVC017 00/M03 A3042 620 81 -1000 170/04 RMK AO2
94908KDBQ DBQ20050201110510002/01/05 11:05:31  5-MIN KDBQ 011705Z 18004KT 3SM HZ OVC015 00/M03 A3042 620 81 -1000 180/04 RMK AO2
94908KDBQ DBQ20050201111010002/01/05 11:10:31  5-MIN KDBQ 011710Z 17005KT 3SM HZ OVC015 00/M03 A3042 620 81 -1000 160/05 RMK AO2
94908KDBQ DBQ20050201111510002/01/05 11:15:31  5-MIN KDBQ 011715Z 16004KT 3SM HZ OVC015 00/M03 A3042 620 81 -1000 160/04 RMK AO2
94908KDBQ DBQ20050201112009902/01/05 11:20:31  5-MIN KDBQ 011720Z 16005KT 3SM HZ OVC015 01/M03 A3042 620 78 -900 160/05 RMK AO2
94908KDBQ DBQ20050201112510002/01/05 11:25:31  5-MIN KDBQ 011725Z 16005KT 3SM HZ OVC015 00/M03 A3041 630 81 -1000 160/05 RMK AO2
94908KDBQ DBQ20050201113009902/01/05 11:30:31  5-MIN KDBQ 011730Z 16004KT 3SM HZ OVC015 01/M02 A3041 630 82 -900 160/04 RMK AO2
94908KDBQ DBQ20050201113509902/01/05 11:35:31  5-MIN KDBQ 011735Z 16004KT 3SM HZ OVC015 01/M02 A3041 630 82 -900 160/04 RMK AO2
94908KDBQ DBQ20050201114010602/01/05 11:40:31  5-MIN KDBQ 011740Z 16004KT 3SM HZ BKN015 OVC055 01/M03 A3041 630 78 -900 160/04 RMK AO2
94908KDBQ DBQ20050201114510602/01/05 11:45:31  5-MIN KDBQ 011745Z 16005KT 3SM HZ BKN015 OVC055 01/M02 A3041 630 82 -900 160/05 RMK AO2
94908KDBQ DBQ20050201115014102/01/05 11:50:31  5-MIN KDBQ 011750Z 17004KT 3SM HZ BKN015 OVC055 01/M02 A3041 630 82 -900 160/04 RMK AO2 SLP311 T00061022 10006 21011 51007
94908KDBQ DBQ20050201115514102/01/05 11:55:31  5-MIN KDBQ 011755Z 17005KT 3SM HZ BKN015 OVC055 01/M03 A3041 630 78 -900 170/05 RMK AO2 SLP310 T00061028 10006 21011 58001
94908KDBQ DBQ20050201120010602/01/05 12:00:31  5-MIN KDBQ 011800Z 17004KT 3SM HZ SCT015 OVC055 01/M02 A3041 630 82 -900 170/04 RMK AO2
94908KDBQ DBQ20050201120510602/01/05 12:05:31  5-MIN KDBQ 011805Z 17005KT 3SM HZ BKN015 OVC055 01/M02 A3041 630 82 -900 160/05 RMK AO2
94908KDBQ DBQ20050201121010602/01/05 12:10:31  5-MIN KDBQ 011810Z 16004KT 3SM HZ BKN015 OVC055 01/M03 A3041 630 78 -900 160/04 RMK AO2
94908KDBQ DBQ20050201121510602/01/05 12:15:31  5-MIN KDBQ 011815Z 16005KT 3SM HZ BKN015 OVC055 01/M02 A3040 630 82 -900 160/05 RMK AO2
94908KDBQ DBQ20050201122010602/01/05 12:20:31  5-MIN KDBQ 011820Z 17005KT 3SM HZ BKN015 OVC055 01/M02 A3040 630 82 -900 160/05 RMK AO2
94908KDBQ DBQ20050201122510602/01/05 12:25:31  5-MIN KDBQ 011825Z 16005KT 4SM HZ BKN015 OVC055 01/M02 A3040 640 82 -900 160/05 RMK AO2
94908KDBQ DBQ20050201123010602/01/05 12:30:31  5-MIN KDBQ 011830Z 16005KT 4SM HZ BKN015 OVC055 01/M02 A3040 640 82 -900 160/05 RMK AO2
94908KDBQ DBQ20050201123510602/01/05 12:35:31  5-MIN KDBQ 011835Z 16005KT 4SM HZ BKN015 OVC055 01/M02 A3040 640 82 -900 160/05 RMK AO2
94908KDBQ DBQ20050201124010602/01/05 12:40:31  5-MIN KDBQ 011840Z 16005KT 4SM HZ BKN015 OVC055 01/M02 A3040 640 82 -900 160/05 RMK AO2
94908KDBQ DBQ20050201124510602/01/05 12:45:31  5-MIN KDBQ 011845Z 16005KT 4SM HZ BKN015 OVC055 01/M02 A3040 640 78 -800 160/05 RMK AO2
94908KDBQ DBQ20050201125012302/01/05 12:50:31  5-MIN KDBQ 011850Z 16005KT 4SM HZ BKN015 OVC055 01/M02 A3040 640 78 -800 160/05 RMK AO2 SLP307 T00111022
94908KDBQ DBQ20050201125512302/01/05 12:55:31  5-MIN KDBQ 011855Z 17005KT 5SM HZ BKN015 OVC055 01/M02 A3040 640 78 -800 170/05 RMK AO2 SLP307 T00111022
94908KDBQ DBQ20050201130009902/01/05 13:00:31  5-MIN KDBQ 011900Z 17005KT 5SM HZ OVC015 01/M02 A3040 640 78 -800 170/05 RMK AO2
94908KDBQ DBQ20050201130509902/01/05 13:05:31  5-MIN KDBQ 011905Z 18004KT 5SM HZ OVC015 01/M03 A3040 640 75 -800 170/04 RMK AO2
94908KDBQ DBQ20050201131009902/01/05 13:10:31  5-MIN KDBQ 011910Z 16005KT 5SM HZ OVC015 01/M03 A3040 640 75 -800 160/05 RMK AO2
94908KDBQ DBQ20050201131509902/01/05 13:15:31  5-MIN KDBQ 011915Z 15005KT 5SM HZ OVC015 01/M03 A3040 640 75 -800 150/05 RMK AO2
94908KDBQ DBQ20050201132009902/01/05 13:20:31  5-MIN KDBQ 011920Z 16005KT 5SM HZ OVC015 01/M03 A3040 640 75 -800 160/05 RMK AO2
94908KDBQ DBQ20050201132509902/01/05 13:25:31  5-MIN KDBQ 011925Z 17004KT 5SM HZ OVC015 01/M03 A3040 640 75 -800 170/04 RMK AO2
94908KDBQ DBQ20050201133009902/01/05 13:30:31  5-MIN KDBQ 011930Z 18005KT 4SM HZ OVC015 01/M03 A3040 640 75 -800 180/05 RMK AO2
94908KDBQ DBQ20050201133509902/01/05 13:35:31  5-MIN KDBQ 011935Z 19006KT 5SM HZ OVC015 01/M03 A3040 640 72 -800 190/06 RMK AO2
94908KDBQ DBQ20050201134009902/01/05 13:40:31  5-MIN KDBQ 011940Z 18006KT 5SM HZ OVC017 01/M03 A3040 640 72 -800 180/06 RMK AO2
94908KDBQ DBQ20050201134509902/01/05 13:45:31  5-MIN KDBQ 011945Z 18006KT 6SM HZ OVC017 01/M03 A3040 640 72 -800 180/06 RMK AO2
94908KDBQ DBQ20050201135011602/01/05 13:50:31  5-MIN KDBQ 011950Z 18006KT 5SM HZ OVC017 01/M03 A3040 640 72 -800 180/06 RMK AO2 SLP308 T00111033
94908KDBQ DBQ20050201135511602/01/05 13:55:31  5-MIN KDBQ 011955Z 17004KT 5SM HZ OVC017 01/M04 A3040 630 69 -800 170/04 RMK AO2 SLP308 T00111039
94908KDBQ DBQ20050201140009902/01/05 14:00:31  5-MIN KDBQ 012000Z 18004KT 5SM HZ OVC017 01/M03 A3040 630 72 -800 170/04 RMK AO2
94908KDBQ DBQ20050201140509902/01/05 14:05:31  5-MIN KDBQ 012005Z 18005KT 4SM HZ OVC017 01/M03 A3041 630 72 -800 180/05 RMK AO2
94908KDBQ DBQ20050201141009902/01/05 14:10:31  5-MIN KDBQ 012010Z 18005KT 4SM HZ OVC017 01/M03 A3041 630 72 -800 170/05 RMK AO2
94908KDBQ DBQ20050201141509902/01/05 14:15:31  5-MIN KDBQ 012015Z 18005KT 4SM HZ OVC017 01/M03 A3041 630 72 -800 180/05 RMK AO2
94908KDBQ DBQ20050201142009902/01/05 14:20:31  5-MIN KDBQ 012020Z 18005KT 4SM HZ OVC017 01/M03 A3041 630 72 -800 180/05 RMK AO2
94908KDBQ DBQ20050201142509902/01/05 14:25:31  5-MIN KDBQ 012025Z 17004KT 4SM HZ OVC017 01/M03 A3041 630 75 -800 170/04 RMK AO2
94908KDBQ DBQ20050201143009902/01/05 14:30:31  5-MIN KDBQ 012030Z 18004KT 4SM HZ OVC017 01/M03 A3041 630 75 -800 170/04 RMK AO2
94908KDBQ DBQ20050201143509902/01/05 14:35:31  5-MIN KDBQ 012035Z 18004KT 3SM HZ OVC017 01/M03 A3041 620 75 -800 180/04 RMK AO2
94908KDBQ DBQ20050201144009902/01/05 14:40:31  5-MIN KDBQ 012040Z 18005KT 4SM HZ OVC017 01/M03 A3042 620 75 -800 180/05 RMK AO2
94908KDBQ DBQ20050201144509902/01/05 14:45:31  5-MIN KDBQ 012045Z 18004KT 4SM HZ OVC017 01/M03 A3042 620 75 -800 180/04 RMK AO2
94908KDBQ DBQ20050201145012202/01/05 14:50:31  5-MIN KDBQ 012050Z 18004KT 4SM HZ OVC019 01/M03 A3042 620 75 -800 180/04 RMK AO2 SLP313 T00111028 58001
94908KDBQ DBQ20050201145512202/01/05 14:55:31  5-MIN KDBQ 012055Z 18004KT 4SM HZ OVC019 01/M03 A3042 620 75 -800 180/04 RMK AO2 SLP314 T00111028 53004
94908KDBQ DBQ20050201150009902/01/05 15:00:31  5-MIN KDBQ 012100Z 18004KT 4SM HZ OVC019 01/M03 A3042 620 75 -800 180/04 RMK AO2
94908KDBQ DBQ20050201150509902/01/05 15:05:31  5-MIN KDBQ 012105Z 16004KT 4SM HZ OVC019 01/M02 A3042 620 78 -800 160/04 RMK AO2
94908KDBQ DBQ20050201151009902/01/05 15:10:31  5-MIN KDBQ 012110Z 16004KT 4SM HZ OVC019 01/M03 A3042 620 75 -800 160/04 RMK AO2
94908KDBQ DBQ20050201151509902/01/05 15:15:31  5-MIN KDBQ 012115Z 16004KT 4SM HZ OVC019 01/M03 A3042 620 75 -800 160/04 RMK AO2
94908KDBQ DBQ20050201152009902/01/05 15:20:31  5-MIN KDBQ 012120Z 17005KT 4SM HZ OVC019 01/M02 A3042 620 78 -800 160/05 RMK AO2
94908KDBQ DBQ20050201152509902/01/05 15:25:31  5-MIN KDBQ 012125Z 17005KT 4SM HZ OVC019 01/M03 A3042 620 75 -800 170/05 RMK AO2
94908KDBQ DBQ20050201153009902/01/05 15:30:31  5-MIN KDBQ 012130Z 16003KT 4SM HZ OVC019 01/M03 A3042 620 75 -800 160/03 RMK AO2
94908KDBQ DBQ20050201153509902/01/05 15:35:31  5-MIN KDBQ 012135Z 16004KT 4SM HZ OVC019 01/M02 A3042 620 82 -900 160/04 RMK AO2
94908KDBQ DBQ20050201154009902/01/05 15:40:31  5-MIN KDBQ 012140Z 16003KT 5SM HZ OVC019 01/M03 A3043 610 78 -900 160/03 RMK AO2
94908KDBQ DBQ20050201154509902/01/05 15:45:31  5-MIN KDBQ 012145Z 16003KT 5SM HZ OVC019 01/M02 A3042 610 82 -900 160/03 RMK AO2
94908KDBQ DBQ20050201155011602/01/05 15:50:31  5-MIN KDBQ 012150Z 16004KT 5SM HZ OVC019 01/M03 A3043 610 78 -900 160/04 RMK AO2 SLP316 T00061028
94908KDBQ DBQ20050201155511602/01/05 15:55:31  5-MIN KDBQ 012155Z 17003KT 4SM HZ OVC019 01/M03 A3043 610 78 -900 160/03 RMK AO2 SLP317 T00061028
94908KDBQ DBQ20050201160009902/01/05 16:00:31  5-MIN KDBQ 012200Z 16003KT 4SM HZ OVC019 01/M03 A3043 610 78 -900 160/03 RMK AO2
94908KDBQ DBQ20050201160509902/01/05 16:05:31  5-MIN KDBQ 012205Z 16003KT 5SM HZ OVC019 01/M03 A3043 610 78 -900 160/03 RMK AO2
94908KDBQ DBQ20050201161009902/01/05 16:10:31  5-MIN KDBQ 012210Z 00000KT 5SM HZ OVC019 01/M03 A3043 610 78 -900 000/00 RMK AO2
94908KDBQ DBQ20050201161510602/01/05 16:15:31  5-MIN KDBQ 012215Z 00000KT 5SM HZ BKN021 OVC050 01/M03 A3043 610 78 -900 000/00 RMK AO2
94908KDBQ DBQ20050201162010602/01/05 16:20:31  5-MIN KDBQ 012220Z 00000KT 5SM HZ BKN021 OVC050 01/M03 A3043 610 78 -900 000/00 RMK AO2
94908KDBQ DBQ20050201162510602/01/05 16:25:31  5-MIN KDBQ 012225Z 00000KT 4SM HZ SCT021 OVC050 01/M03 A3043 610 75 -800 000/00 RMK AO2
94908KDBQ DBQ20050201163010602/01/05 16:30:31  5-MIN KDBQ 012230Z 00000KT 4SM HZ BKN021 OVC050 01/M03 A3043 610 75 -800 000/00 RMK AO2
94908KDBQ DBQ20050201163510602/01/05 16:35:31  5-MIN KDBQ 012235Z 00000KT 4SM HZ BKN021 OVC050 01/M03 A3043 610 75 -800 000/00 RMK AO2
94908KDBQ DBQ20050201164010602/01/05 16:40:31  5-MIN KDBQ 012240Z 00000KT 4SM HZ SCT021 OVC050 01/M02 A3043 610 78 -800 000/00 RMK AO2
94908KDBQ DBQ20050201164510602/01/05 16:45:31  5-MIN KDBQ 012245Z 00000KT 4SM HZ BKN021 OVC050 01/M03 A3043 610 75 -800 000/00 RMK AO2
94908KDBQ DBQ20050201165012302/01/05 16:50:31  5-MIN KDBQ 012250Z 00000KT 4SM HZ BKN021 OVC050 01/M03 A3043 610 78 -900 000/00 RMK AO2 SLP316 T00061028
94908KDBQ DBQ20050201165512302/01/05 16:55:31  5-MIN KDBQ 012255Z 00000KT 4SM HZ BKN021 OVC050 01/M03 A3043 610 78 -900 000/00 RMK AO2 SLP316 T00061028
94908KDBQ DBQ20050201170010602/01/05 17:00:31  5-MIN KDBQ 012300Z 00000KT 4SM HZ BKN021 OVC050 01/M03 A3043 610 78 -900 000/00 RMK AO2
94908KDBQ DBQ20050201170510602/01/05 17:05:31  5-MIN KDBQ 012305Z 00000KT 4SM HZ SCT021 OVC050 01/M03 A3043 610 78 -900 000/00 RMK AO2
94908KDBQ DBQ20050201171010602/01/05 17:10:31  5-MIN KDBQ 012310Z 00000KT 3SM HZ SCT021 OVC050 01/M03 A3043 610 78 -900 000/00 RMK AO2
94908KDBQ DBQ20050201171510602/01/05 17:15:31  5-MIN KDBQ 012315Z 00000KT 3SM HZ FEW021 OVC050 01/M03 A3043 610 78 -900 000/00 RMK AO2
94908KDBQ DBQ20050201172010602/01/05 17:20:31  5-MIN KDBQ 012320Z 00000KT 3SM HZ FEW021 OVC050 01/M03 A3043 610 78 -900 000/00 RMK AO2
94908KDBQ DBQ20050201172509902/01/05 17:25:31  5-MIN KDBQ 012325Z 00000KT 3SM HZ OVC050 01/M03 A3044 610 78 -900 000/00 RMK AO2
94908KDBQ DBQ20050201173009902/01/05 17:30:31  5-MIN KDBQ 012330Z 00000KT 4SM HZ OVC050 01/M03 A3044 600 78 -900 000/00 RMK AO2
94908KDBQ DBQ20050201173509902/01/05 17:35:31  5-MIN KDBQ 012335Z 15003KT 4SM HZ OVC050 01/M02 A3044 600 82 -900 150/03 RMK AO2
94908KDBQ DBQ20050201174009902/01/05 17:40:31  5-MIN KDBQ 012340Z 15003KT 4SM HZ OVC050 01/M02 A3044 600 82 -900 150/03 RMK AO2
94908KDBQ DBQ20050201174510602/01/05 17:45:31  5-MIN KDBQ 012345Z 17004KT 5SM HZ FEW020 OVC050 01/M03 A3044 600 78 -900 160/04 RMK AO2
94908KDBQ DBQ20050201175014102/01/05 17:50:31  5-MIN KDBQ 012350Z 16005KT 5SM HZ FEW020 OVC050 01/M03 A3045 590 78 -900 160/05 RMK AO2 SLP323 T00061028 10011 20006 53004
94908KDBQ DBQ20050201175513402/01/05 17:55:31  5-MIN KDBQ 012355Z 17005KT 5SM HZ OVC050 01/M02 A3045 590 82 -900 170/05 RMK AO2 SLP324 T00061022 10011 20006 53009
94908KDBQ DBQ20050201180010602/01/05 18:00:31  5-MIN KDBQ 020000Z 17005KT 4SM HZ FEW021 OVC050 01/M02 A3045 590 82 -900 160/05 RMK AO2
94908KDBQ DBQ20050201180510602/01/05 18:05:31  5-MIN KDBQ 020005Z 16005KT 4SM HZ FEW021 OVC050 01/M02 A3045 600 82 -900 160/05 RMK AO2
94908KDBQ DBQ20050201181010602/01/05 18:10:31  5-MIN KDBQ 020010Z 16004KT 4SM HZ FEW021 OVC050 01/M02 A3044 600 82 -900 160/04 RMK AO2
94908KDBQ DBQ20050201181509902/01/05 18:15:31  5-MIN KDBQ 020015Z 15003KT 4SM HZ OVC050 01/M02 A3044 600 82 -900 150/03 RMK AO2
94908KDBQ DBQ20050201182009902/01/05 18:20:31  5-MIN KDBQ 020020Z 15004KT 4SM HZ OVC050 01/M02 A3044 600 82 -900 150/04 RMK AO2
94908KDBQ DBQ20050201182510002/01/05 18:25:31  5-MIN KDBQ 020025Z 15004KT 4SM BR OVC050 00/M02 A3044 600 85 -1000 150/04 RMK AO2
94908KDBQ DBQ20050201183010002/01/05 18:30:31  5-MIN KDBQ 020030Z 15004KT 4SM BR OVC050 00/M02 A3044 600 85 -1000 150/04 RMK AO2
94908KDBQ DBQ20050201183510002/01/05 18:35:31  5-MIN KDBQ 020035Z 14003KT 4SM BR OVC050 00/M02 A3043 610 85 -1000 140/03 RMK AO2
94908KDBQ DBQ20050201184009902/01/05 18:40:31  5-MIN KDBQ 020040Z 14004KT 4SM HZ OVC050 01/M02 A3043 610 82 -900 140/04 RMK AO2
94908KDBQ DBQ20050201184509902/01/05 18:45:31  5-MIN KDBQ 020045Z 13003KT 3SM HZ OVC050 01/M02 A3043 610 82 -900 130/03 RMK AO2
94908KDBQ DBQ20050201185011602/01/05 18:50:31  5-MIN KDBQ 020050Z 13004KT 3SM HZ OVC050 01/M02 A3042 620 82 -900 130/04 RMK AO2 SLP316 T00061022
94908KDBQ DBQ20050201185511702/01/05 18:55:31  5-MIN KDBQ 020055Z 14004KT 3SM BR OVC050 00/M02 A3042 620 85 -1000 130/04 RMK AO2 SLP316 T00001022
94908KDBQ DBQ20050201190010002/01/05 19:00:31  5-MIN KDBQ 020100Z 12003KT 3SM BR OVC050 00/M02 A3042 620 85 -1000 120/03 RMK AO2
94908KDBQ DBQ20050201190509902/01/05 19:05:31  5-MIN KDBQ 020105Z 13003KT 3SM HZ OVC050 01/M02 A3042 620 82 -900 130/03 RMK AO2
94908KDBQ DBQ20050201191009902/01/05 19:10:31  5-MIN KDBQ 020110Z 00000KT 3SM HZ OVC050 01/M02 A3042 620 82 -900 000/00 RMK AO2
94908KDBQ DBQ20050201191509902/01/05 19:15:31  5-MIN KDBQ 020115Z 00000KT 3SM HZ OVC050 01/M02 A3042 620 82 -900 000/00 RMK AO2
94908KDBQ DBQ20050201192009902/01/05 19:20:31  5-MIN KDBQ 020120Z 00000KT 3SM HZ OVC050 01/M02 A3042 620 82 -900 000/00 RMK AO2
94908KDBQ DBQ20050201192510002/01/05 19:25:31  5-MIN KDBQ 020125Z 15003KT 3SM BR OVC050 00/M02 A3042 620 85 -1000 150/03 RMK AO2
94908KDBQ DBQ20050201193010002/01/05 19:30:31  5-MIN KDBQ 020130Z 15004KT 3SM BR OVC050 00/M02 A3042 620 85 -1000 150/04 RMK AO2
94908KDBQ DBQ20050201193510002/01/05 19:35:31  5-MIN KDBQ 020135Z 15003KT 3SM BR OVC050 00/M02 A3042 620 85 -1000 150/03 RMK AO2
94908KDBQ DBQ20050201194010002/01/05 19:40:31  5-MIN KDBQ 020140Z 15003KT 3SM BR OVC050 00/M02 A3042 610 85 -1000 150/03 RMK AO2
94908KDBQ DBQ20050201194510002/01/05 19:45:31  5-MIN KDBQ 020145Z 15004KT 3SM BR OVC050 00/M02 A3043 610 85 -1000 150/04 RMK AO2
94908KDBQ DBQ20050201195011702/01/05 19:50:31  5-MIN KDBQ 020150Z 15004KT 3SM BR OVC050 00/M02 A3043 610 85 -1000 150/04 RMK AO2 SLP317 T00001022
94908KDBQ DBQ20050201195512702/01/05 19:55:31  5-MIN KDBQ 020155Z AUTO 15003KT 3SM BR OVC050 00/M02 A3043 610 85 -1000 150/03 RMK AO2 SLP318 T00001022 TSNO
94908KDBQ DBQ20050201200011002/01/05 20:00:31  5-MIN KDBQ 020200Z AUTO 15004KT 3SM BR OVC050 00/M02 A3043 610 85 -1000 150/04 RMK AO2 TSNO
94908KDBQ DBQ20050201200511002/01/05 20:05:31  5-MIN KDBQ 020205Z AUTO 15004KT 3SM BR OVC050 00/M02 A3043 610 85 -1000 150/04 RMK AO2 TSNO
94908KDBQ DBQ20050201201011002/01/05 20:10:31  5-MIN KDBQ 020210Z AUTO 16003KT 3SM BR OVC050 00/M02 A3043 610 85 -1000 160/03 RMK AO2 TSNO
94908KDBQ DBQ20050201201511002/01/05 20:15:31  5-MIN KDBQ 020215Z AUTO 16003KT 3SM BR OVC050 00/M02 A3043 610 85 -1000 160/03 RMK AO2 TSNO
94908KDBQ DBQ20050201202011002/01/05 20:20:31  5-MIN KDBQ 020220Z AUTO 00000KT 3SM BR OVC050 00/M02 A3043 610 88 -1000 000/00 RMK AO2 TSNO
94908KDBQ DBQ20050201202511002/01/05 20:25:31  5-MIN KDBQ 020225Z AUTO 18003KT 3SM BR OVC050 00/M02 A3043 610 88 -1000 180/03 RMK AO2 TSNO
94908KDBQ DBQ20050201203011002/01/05 20:30:31  5-MIN KDBQ 020230Z AUTO 18004KT 3SM BR OVC050 00/M02 A3043 610 85 -1000 180/04 RMK AO2 TSNO
94908KDBQ DBQ20050201203511002/01/05 20:35:31  5-MIN KDBQ 020235Z AUTO 18004KT 3SM BR OVC050 00/M02 A3043 610 85 -1000 180/04 RMK AO2 TSNO
94908KDBQ DBQ20050201204011002/01/05 20:40:31  5-MIN KDBQ 020240Z AUTO 17004KT 3SM BR OVC050 00/M02 A3043 610 85 -1000 170/04 RMK AO2 TSNO
94908KDBQ DBQ20050201204511002/01/05 20:45:31  5-MIN KDBQ 020245Z AUTO 17004KT 3SM BR OVC050 00/M02 A3042 610 85 -1000 170/04 RMK AO2 TSNO
94908KDBQ DBQ20050201205013302/01/05 20:50:31  5-MIN KDBQ 020250Z AUTO 18004KT 3SM BR OVC050 00/M02 A3042 620 85 -1000 180/04 RMK AO2 SLP316 T00001022 53009 TSNO
94908KDBQ DBQ20050201205513302/01/05 20:55:31  5-MIN KDBQ 020255Z AUTO 18005KT 3SM BR OVC050 00/M02 A3042 620 85 -1000 180/05 RMK AO2 SLP315 T00001022 56008 TSNO
94908KDBQ DBQ20050201210011002/01/05 21:00:31  5-MIN KDBQ 020300Z AUTO 17006KT 3SM BR OVC050 00/M02 A3042 620 85 -1000 170/06 RMK AO2 TSNO
94908KDBQ DBQ20050201210511002/01/05 21:05:31  5-MIN KDBQ 020305Z AUTO 17005KT 3SM BR OVC050 00/M02 A3042 620 85 -1000 170/05 RMK AO2 TSNO
94908KDBQ DBQ20050201211011002/01/05 21:10:31  5-MIN KDBQ 020310Z AUTO 18005KT 3SM BR OVC050 00/M02 A3042 620 85 -1000 170/05 RMK AO2 TSNO
94908KDBQ DBQ20050201211511002/01/05 21:15:31  5-MIN KDBQ 020315Z AUTO 19005KT 3SM BR OVC050 00/M02 A3042 620 85 -1000 190/05 RMK AO2 TSNO
94908KDBQ DBQ20050201212011002/01/05 21:20:31  5-MIN KDBQ 020320Z AUTO 19004KT 3SM BR OVC050 00/M02 A3042 620 85 -1000 190/04 RMK AO2 TSNO
94908KDBQ DBQ20050201212511002/01/05 21:25:31  5-MIN KDBQ 020325Z AUTO 18004KT 3SM BR OVC050 00/M02 A3042 620 85 -1000 180/04 RMK AO2 TSNO
94908KDBQ DBQ20050201213011002/01/05 21:30:31  5-MIN KDBQ 020330Z AUTO 17004KT 3SM BR OVC050 00/M02 A3042 620 85 -1000 170/04 RMK AO2 TSNO
94908KDBQ DBQ20050201213511002/01/05 21:35:31  5-MIN KDBQ 020335Z AUTO 16005KT 3SM BR OVC050 00/M02 A3042 620 85 -1000 160/05 RMK AO2 TSNO
94908KDBQ DBQ20050201214011002/01/05 21:40:31  5-MIN KDBQ 020340Z AUTO 16005KT 3SM BR OVC050 00/M02 A3043 610 85 -1000 160/05 RMK AO2 TSNO
94908KDBQ DBQ20050201214511002/01/05 21:45:31  5-MIN KDBQ 020345Z AUTO 16004KT 3SM BR OVC050 00/M02 A3043 610 85 -1000 160/04 RMK AO2 TSNO
94908KDBQ DBQ20050201215012702/01/05 21:50:31  5-MIN KDBQ 020350Z AUTO 16004KT 3SM BR OVC050 00/M02 A3043 610 85 -1000 160/04 RMK AO2 SLP316 T00001022 TSNO
94908KDBQ DBQ20050201215512702/01/05 21:55:31  5-MIN KDBQ 020355Z AUTO 17003KT 3SM BR OVC050 00/M02 A3042 620 85 -1000 170/03 RMK AO2 SLP316 T00001022 TSNO
94908KDBQ DBQ20050201220011002/01/05 22:00:31  5-MIN KDBQ 020400Z AUTO 17005KT 3SM BR OVC050 00/M02 A3042 620 85 -1000 160/05 RMK AO2 TSNO
94908KDBQ DBQ20050201220511002/01/05 22:05:31  5-MIN KDBQ 020405Z AUTO 16005KT 4SM BR OVC050 00/M02 A3042 620 85 -1000 160/05 RMK AO2 TSNO
94908KDBQ DBQ20050201221011002/01/05 22:10:31  5-MIN KDBQ 020410Z AUTO 16007KT 4SM BR OVC050 00/M02 A3042 620 85 -1000 160/07 RMK AO2 TSNO
94908KDBQ DBQ20050201221511002/01/05 22:15:31  5-MIN KDBQ 020415Z AUTO 15007KT 4SM BR OVC050 00/M02 A3042 620 85 -1000 150/07 RMK AO2 TSNO
94908KDBQ DBQ20050201222011002/01/05 22:20:31  5-MIN KDBQ 020420Z AUTO 16006KT 3SM BR OVC050 00/M02 A3042 620 85 -1000 160/06 RMK AO2 TSNO
94908KDBQ DBQ20050201222511002/01/05 22:25:31  5-MIN KDBQ 020425Z AUTO 17004KT 3SM BR OVC050 00/M02 A3042 620 85 -1000 160/04 RMK AO2 TSNO
94908KDBQ DBQ20050201223011002/01/05 22:30:31  5-MIN KDBQ 020430Z AUTO 19003KT 3SM BR OVC050 00/M02 A3042 620 85 -1000 190/03 RMK AO2 TSNO
94908KDBQ DBQ20050201223511002/01/05 22:35:31  5-MIN KDBQ 020435Z AUTO VRB03KT 3SM BR OVC050 00/M02 A3042 620 85 -1000 VRB/03 RMK AO2 TSNO
94908KDBQ DBQ20050201224011002/01/05 22:40:31  5-MIN KDBQ 020440Z AUTO 15004KT 3SM BR OVC050 00/M02 A3041 630 85 -1000 150/04 RMK AO2 TSNO
94908KDBQ DBQ20050201224511002/01/05 22:45:31  5-MIN KDBQ 020445Z AUTO 15005KT 3SM BR OVC050 00/M02 A3041 630 85 -1000 150/05 RMK AO2 TSNO
94908KDBQ DBQ20050201225012702/01/05 22:50:31  5-MIN KDBQ 020450Z AUTO 13005KT 3SM BR OVC050 00/M02 A3041 630 85 -1000 130/05 RMK AO2 SLP311 T00001022 TSNO
94908KDBQ DBQ20050201225512702/01/05 22:55:31  5-MIN KDBQ 020455Z AUTO 14005KT 3SM HZ OVC050 00/M03 A3041 630 81 -1000 140/05 RMK AO2 SLP310 T00001028 TSNO
94908KDBQ DBQ20050201230011002/01/05 23:00:31  5-MIN KDBQ 020500Z AUTO 15005KT 3SM HZ OVC050 00/M03 A3041 630 81 -1000 150/05 RMK AO2 TSNO
94908KDBQ DBQ20050201230511002/01/05 23:05:31  5-MIN KDBQ 020505Z AUTO 14005KT 3SM BR OVC050 00/M02 A3041 630 85 -1000 140/05 RMK AO2 TSNO
94908KDBQ DBQ20050201231011002/01/05 23:10:31  5-MIN KDBQ 020510Z AUTO 00000KT 3SM BR OVC050 00/M02 A3041 630 85 -1000 000/00 RMK AO2 TSNO
94908KDBQ DBQ20050201231511002/01/05 23:15:31  5-MIN KDBQ 020515Z AUTO 00000KT 3SM BR OVC050 00/M02 A3041 630 85 -1000 000/00 RMK AO2 TSNO
94908KDBQ DBQ20050201232011002/01/05 23:20:31  5-MIN KDBQ 020520Z AUTO 00000KT 3SM BR OVC050 00/M02 A3041 630 85 -1000 000/00 RMK AO2 TSNO
94908KDBQ DBQ20050201232511002/01/05 23:25:31  5-MIN KDBQ 020525Z AUTO 00000KT 3SM BR OVC050 00/M02 A3041 630 85 -1000 000/00 RMK AO2 TSNO
94908KDBQ DBQ20050201233011002/01/05 23:30:31  5-MIN KDBQ 020530Z AUTO 16003KT 3SM BR OVC050 00/M02 A3041 630 85 -1000 160/03 RMK AO2 TSNO
94908KDBQ DBQ20050201233511102/01/05 23:35:31  5-MIN KDBQ 020535Z AUTO 17003KT 4SM BR OVC050 M01/M02 A3041 630 88 -1000 170/03 RMK AO2 TSNO
94908KDBQ DBQ20050201234011102/01/05 23:40:31  5-MIN KDBQ 020540Z AUTO 00000KT 4SM BR OVC050 M01/M02 A3041 630 88 -1000 000/00 RMK AO2 TSNO
94908KDBQ DBQ20050201234511102/01/05 23:45:31  5-MIN KDBQ 020545Z AUTO 17004KT 3SM BR OVC050 M01/M02 A3041 630 88 -1000 170/04 RMK AO2 TSNO
94908KDBQ DBQ20050201235015602/01/05 23:50:31  5-MIN KDBQ 020550Z AUTO 17003KT 3SM BR OVC050 M01/M02 A3041 630 88 -1000 170/03 RMK AO2 SLP310 T10061022 10006 21006 400111017 56008 TSNO
94908KDBQ DBQ20050201235515602/01/05 23:55:31  5-MIN KDBQ 020555Z AUTO 16003KT 3SM BR OVC050 M01/M02 A3041 630 88 -1000 160/03 RMK AO2 SLP309 T10061022 10006 21006 400111017 58006 TSNO
94908KDBQ DBQ20050202000011102/02/05 00:00:38  5-MIN KDBQ 020600Z AUTO 16003KT 3SM BR OVC050 M01/M02 A3041 630 88 -1000 160/03 RMK AO2 TSNO
94908KDBQ DBQ20050202000511102/02/05 00:05:31  5-MIN KDBQ 020605Z AUTO 17003KT 3SM BR OVC050 M01/M02 A3041 630 88 -1000 170/03 RMK AO2 TSNO
94908KDBQ DBQ20050202001011102/02/05 00:10:31  5-MIN KDBQ 020610Z AUTO 18004KT 3SM BR OVC050 M01/M02 A3041 630 88 -1000 180/04 RMK AO2 TSNO
94908KDBQ DBQ20050202001511102/02/05 00:15:32  5-MIN KDBQ 020615Z AUTO 17004KT 3SM BR OVC050 M01/M03 A3041 630 85 -1000 170/04 RMK AO2 TSNO
94908KDBQ DBQ20050202002011102/02/05 00:20:31  5-MIN KDBQ 020620Z AUTO 18004KT 3SM BR OVC050 M01/M03 A3041 630 85 -1000 170/04 RMK AO2 TSNO
94908KDBQ DBQ20050202002511102/02/05 00:25:31  5-MIN KDBQ 020625Z AUTO 19003KT 3SM BR OVC050 M01/M02 A3041 630 88 -1000 190/03 RMK AO2 TSNO
94908KDBQ DBQ20050202003011102/02/05 00:30:31  5-MIN KDBQ 020630Z AUTO 20004KT 3SM BR OVC050 M01/M03 A3041 630 85 -1000 200/04 RMK AO2 TSNO
94908KDBQ DBQ20050202003511102/02/05 00:35:31  5-MIN KDBQ 020635Z AUTO 17003KT 3SM BR OVC050 M01/M03 A3040 630 85 -1000 170/03 RMK AO2 TSNO
94908KDBQ DBQ20050202004011102/02/05 00:40:31  5-MIN KDBQ 020640Z AUTO 17004KT 3SM BR OVC050 M01/M03 A3040 640 85 -1000 170/04 RMK AO2 TSNO
94908KDBQ DBQ20050202004511102/02/05 00:45:31  5-MIN KDBQ 020645Z AUTO 17004KT 4SM BR OVC050 M01/M03 A3040 640 85 -1000 170/04 RMK AO2 TSNO
94908KDBQ DBQ20050202005012802/02/05 00:50:31  5-MIN KDBQ 020650Z AUTO VRB04KT 4SM BR OVC050 M01/M03 A3040 640 85 -1000 VRB/04 RMK AO2 SLP307 T10061028 TSNO
94908KDBQ DBQ20050202005512802/02/05 00:55:31  5-MIN KDBQ 020655Z AUTO 17004KT 4SM BR OVC050 M01/M03 A3040 640 85 -1000 170/04 RMK AO2 SLP307 T10061028 TSNO
94908KDBQ DBQ20050202010011102/02/05 01:00:31  5-MIN KDBQ 020700Z AUTO 16005KT 4SM BR OVC050 M01/M03 A3040 640 85 -1000 160/05 RMK AO2 TSNO
94908KDBQ DBQ20050202010511102/02/05 01:05:31  5-MIN KDBQ 020705Z AUTO 16005KT 4SM BR OVC050 M01/M03 A3039 640 85 -1000 160/05 RMK AO2 TSNO
94908KDBQ DBQ20050202011011102/02/05 01:10:31  5-MIN KDBQ 020710Z AUTO 17004KT 4SM BR OVC050 M01/M03 A3040 640 85 -1000 170/04 RMK AO2 TSNO
94908KDBQ DBQ20050202011511102/02/05 01:15:31  5-MIN KDBQ 020715Z AUTO 16005KT 4SM BR OVC050 M01/M03 A3040 640 85 -1000 160/05 RMK AO2 TSNO
94908KDBQ DBQ20050202012011102/02/05 01:20:31  5-MIN KDBQ 020720Z AUTO 16005KT 4SM BR OVC050 M01/M03 A3040 640 85 -1000 160/05 RMK AO2 TSNO
94908KDBQ DBQ20050202012511102/02/05 01:25:31  5-MIN KDBQ 020725Z AUTO 17004KT 4SM BR OVC050 M01/M03 A3040 640 85 -1000 160/04 RMK AO2 TSNO
94908KDBQ DBQ20050202013011102/02/05 01:30:31  5-MIN KDBQ 020730Z AUTO 17005KT 4SM BR OVC050 M01/M03 A3040 640 85 -1000 170/05 RMK AO2 TSNO
94908KDBQ DBQ20050202013511102/02/05 01:35:31  5-MIN KDBQ 020735Z AUTO 16005KT 4SM BR OVC050 M01/M03 A3040 640 85 -1000 160/05 RMK AO2 TSNO
94908KDBQ DBQ20050202014011102/02/05 01:40:31  5-MIN KDBQ 020740Z AUTO 16006KT 4SM BR OVC050 M01/M03 A3039 640 85 -1000 160/06 RMK AO2 TSNO
94908KDBQ DBQ20050202014511102/02/05 01:45:31  5-MIN KDBQ 020745Z AUTO 17006KT 4SM BR OVC050 M01/M03 A3039 640 85 -1000 160/06 RMK AO2 TSNO
94908KDBQ DBQ20050202015012802/02/05 01:50:31  5-MIN KDBQ 020750Z AUTO 17006KT 4SM HZ OVC050 M01/M03 A3039 640 81 -1000 160/06 RMK AO2 SLP305 T10061033 TSNO
94908KDBQ DBQ20050202015512802/02/05 01:55:31  5-MIN KDBQ 020755Z AUTO 17005KT 5SM BR OVC050 M01/M03 A3039 640 85 -1000 170/05 RMK AO2 SLP305 T10061028 TSNO
94908KDBQ DBQ20050202020011102/02/05 02:00:31  5-MIN KDBQ 020800Z AUTO 17004KT 4SM BR OVC050 M01/M03 A3040 640 85 -1000 170/04 RMK AO2 TSNO
94908KDBQ DBQ20050202020511102/02/05 02:05:31  5-MIN KDBQ 020805Z AUTO 17006KT 4SM BR OVC050 M01/M03 A3040 640 85 -1000 170/06 RMK AO2 TSNO
94908KDBQ DBQ20050202021011102/02/05 02:10:31  5-MIN KDBQ 020810Z AUTO 16005KT 4SM BR OVC050 M01/M03 A3040 640 85 -1000 160/05 RMK AO2 TSNO
94908KDBQ DBQ20050202021511102/02/05 02:15:31  5-MIN KDBQ 020815Z AUTO 17005KT 4SM BR OVC050 M01/M03 A3040 640 85 -1000 170/05 RMK AO2 TSNO
94908KDBQ DBQ20050202022011102/02/05 02:20:31  5-MIN KDBQ 020820Z AUTO 17005KT 4SM BR OVC050 M01/M03 A3040 640 85 -1000 160/05 RMK AO2 TSNO
94908KDBQ DBQ20050202022511102/02/05 02:25:31  5-MIN KDBQ 020825Z AUTO 18005KT 4SM BR OVC050 M01/M03 A3040 640 85 -1000 180/05 RMK AO2 TSNO
94908KDBQ DBQ20050202023011102/02/05 02:30:31  5-MIN KDBQ 020830Z AUTO 17006KT 4SM BR OVC050 M01/M03 A3040 640 85 -1000 170/06 RMK AO2 TSNO
94908KDBQ DBQ20050202023511102/02/05 02:35:31  5-MIN KDBQ 020835Z AUTO 17005KT 4SM BR OVC050 M01/M03 A3040 640 85 -1000 170/05 RMK AO2 TSNO
94908KDBQ DBQ20050202024011102/02/05 02:40:31  5-MIN KDBQ 020840Z AUTO 16005KT 4SM BR OVC050 M01/M03 A3040 640 85 -1000 160/05 RMK AO2 TSNO
94908KDBQ DBQ20050202024511102/02/05 02:45:31  5-MIN KDBQ 020845Z AUTO 17003KT 4SM BR OVC050 M01/M03 A3040 640 85 -1000 170/03 RMK AO2 TSNO
94908KDBQ DBQ20050202025013402/02/05 02:50:31  5-MIN KDBQ 020850Z AUTO 18004KT 3SM BR OVC050 M01/M03 A3040 640 85 -1000 180/04 RMK AO2 SLP307 T10061028 58006 TSNO
94908KDBQ DBQ20050202025513402/02/05 02:55:31  5-MIN KDBQ 020855Z AUTO 17003KT 3SM BR OVC050 M01/M03 A3040 640 85 -1000 170/03 RMK AO2 SLP307 T10061028 55002 TSNO
94908KDBQ DBQ20050202030011102/02/05 03:00:31  5-MIN KDBQ 020900Z AUTO 18004KT 3SM BR OVC050 M01/M03 A3040 640 88 -1100 180/04 RMK AO2 TSNO
94908KDBQ DBQ20050202030511102/02/05 03:05:31  5-MIN KDBQ 020905Z AUTO 18004KT 3SM BR OVC050 M01/M03 A3040 640 88 -1100 180/04 RMK AO2 TSNO
94908KDBQ DBQ20050202031011102/02/05 03:10:31  5-MIN KDBQ 020910Z AUTO 18005KT 3SM BR OVC050 M01/M03 A3040 640 88 -1100 180/05 RMK AO2 TSNO
94908KDBQ DBQ20050202031511102/02/05 03:15:31  5-MIN KDBQ 020915Z AUTO 17005KT 4SM BR OVC050 M01/M03 A3040 640 85 -1000 170/05 RMK AO2 TSNO
94908KDBQ DBQ20050202032011102/02/05 03:20:31  5-MIN KDBQ 020920Z AUTO 18005KT 4SM BR OVC050 M01/M03 A3040 630 88 -1100 180/05 RMK AO2 TSNO
94908KDBQ DBQ20050202032511102/02/05 03:25:31  5-MIN KDBQ 020925Z AUTO 18004KT 4SM HZ OVC050 M01/M03 A3040 630 81 -1000 180/04 RMK AO2 TSNO
94908KDBQ DBQ20050202033011102/02/05 03:30:31  5-MIN KDBQ 020930Z AUTO 18004KT 4SM BR OVC050 M01/M03 A3040 640 85 -1000 180/04 RMK AO2 TSNO
94908KDBQ DBQ20050202033511102/02/05 03:35:31  5-MIN KDBQ 020935Z AUTO 18005KT 4SM BR OVC050 M01/M03 A3040 640 85 -1000 180/05 RMK AO2 TSNO
94908KDBQ DBQ20050202034011102/02/05 03:40:31  5-MIN KDBQ 020940Z AUTO 18005KT 4SM HZ OVC050 M01/M03 A3040 640 81 -1000 180/05 RMK AO2 TSNO
94908KDBQ DBQ20050202034511102/02/05 03:45:31  5-MIN KDBQ 020945Z AUTO 18005KT 4SM BR OVC050 M01/M03 A3040 640 85 -1100 180/05 RMK AO2 TSNO
94908KDBQ DBQ20050202035012802/02/05 03:50:31  5-MIN KDBQ 020950Z AUTO 18005KT 4SM BR OVC050 M01/M03 A3040 640 85 -1100 180/05 RMK AO2 SLP307 T10111033 TSNO
94908KDBQ DBQ20050202035512802/02/05 03:55:31  5-MIN KDBQ 020955Z AUTO 18005KT 4SM BR OVC050 M01/M03 A3040 640 85 -1100 180/05 RMK AO2 SLP307 T10111033 TSNO
94908KDBQ DBQ20050202040011102/02/05 04:00:31  5-MIN KDBQ 021000Z AUTO 19005KT 4SM BR OVC050 M01/M03 A3040 640 85 -1100 190/05 RMK AO2 TSNO
94908KDBQ DBQ20050202040511102/02/05 04:05:31  5-MIN KDBQ 021005Z AUTO 18005KT 4SM BR OVC050 M01/M03 A3040 640 85 -1100 180/05 RMK AO2 TSNO
94908KDBQ DBQ20050202041011102/02/05 04:10:31  5-MIN KDBQ 021010Z AUTO 18005KT 5SM HZ OVC050 M01/M03 A3040 640 81 -1000 180/05 RMK AO2 TSNO
94908KDBQ DBQ20050202041511102/02/05 04:15:31  5-MIN KDBQ 021015Z AUTO 16004KT 5SM HZ OVC050 M01/M03 A3039 640 81 -1000 160/04 RMK AO2 TSNO
94908KDBQ DBQ20050202042011102/02/05 04:20:31  5-MIN KDBQ 021020Z AUTO 00000KT 5SM BR OVC050 M01/M03 A3039 640 85 -1100 000/00 RMK AO2 TSNO
94908KDBQ DBQ20050202042511102/02/05 04:25:31  5-MIN KDBQ 021025Z AUTO 00000KT 4SM BR OVC050 M01/M03 A3039 640 85 -1100 000/00 RMK AO2 TSNO
94908KDBQ DBQ20050202043011102/02/05 04:30:31  5-MIN KDBQ 021030Z AUTO 00000KT 4SM BR OVC048 M01/M03 A3039 640 85 -1100 000/00 RMK AO2 TSNO
94908KDBQ DBQ20050202043511102/02/05 04:35:31  5-MIN KDBQ 021035Z AUTO 18003KT 4SM BR OVC048 M01/M03 A3039 640 88 -1100 180/03 RMK AO2 TSNO
94908KDBQ DBQ20050202044011102/02/05 04:40:31  5-MIN KDBQ 021040Z AUTO 00000KT 4SM BR OVC048 M01/M03 A3039 640 88 -1100 000/00 RMK AO2 TSNO
94908KDBQ DBQ20050202044511102/02/05 04:45:31  5-MIN KDBQ 021045Z AUTO 00000KT 4SM BR OVC048 M01/M03 A3040 640 88 -1100 000/00 RMK AO2 TSNO
94908KDBQ DBQ20050202045012802/02/05 04:50:31  5-MIN KDBQ 021050Z AUTO 00000KT 4SM BR OVC048 M01/M03 A3039 640 88 -1100 000/00 RMK AO2 SLP305 T10111028 TSNO
94908KDBQ DBQ20050202045512802/02/05 04:55:31  5-MIN KDBQ 021055Z AUTO 00000KT 4SM BR OVC048 M01/M03 A3039 640 88 -1100 000/00 RMK AO2 SLP305 T10111028 TSNO
94908KDBQ DBQ20050202050011102/02/05 05:00:31  5-MIN KDBQ 021100Z AUTO 00000KT 4SM BR OVC048 M01/M03 A3039 650 88 -1100 000/00 RMK AO2 TSNO
94908KDBQ DBQ20050202050511102/02/05 05:05:31  5-MIN KDBQ 021105Z AUTO 16003KT 4SM BR OVC048 M01/M03 A3039 650 88 -1100 160/03 RMK AO2 TSNO
94908KDBQ DBQ20050202051011102/02/05 05:10:31  5-MIN KDBQ 021110Z AUTO 00000KT 4SM BR OVC048 M01/M03 A3039 650 88 -1100 000/00 RMK AO2 TSNO
94908KDBQ DBQ20050202051511102/02/05 05:15:31  5-MIN KDBQ 021115Z AUTO 00000KT 4SM BR OVC048 M01/M03 A3039 650 88 -1100 000/00 RMK AO2 TSNO
94908KDBQ DBQ20050202052011102/02/05 05:20:31  5-MIN KDBQ 021120Z AUTO 15003KT 4SM BR OVC048 M01/M03 A3039 650 88 -1100 150/03 RMK AO2 TSNO
94908KDBQ DBQ20050202052511102/02/05 05:25:31  5-MIN KDBQ 021125Z AUTO 16003KT 4SM BR OVC048 M01/M03 A3039 650 88 -1100 160/03 RMK AO2 TSNO
94908KDBQ DBQ20050202053011102/02/05 05:30:31  5-MIN KDBQ 021130Z AUTO 17003KT 4SM BR OVC048 M01/M03 A3039 650 88 -1100 170/03 RMK AO2 TSNO
94908KDBQ DBQ20050202053511102/02/05 05:35:31  5-MIN KDBQ 021135Z AUTO 00000KT 4SM BR OVC048 M01/M03 A3039 650 88 -1100 000/00 RMK AO2 TSNO
94908KDBQ DBQ20050202054011102/02/05 05:40:31  5-MIN KDBQ 021140Z AUTO 00000KT 4SM BR OVC048 M01/M03 A3039 650 85 -1100 000/00 RMK AO2 TSNO
94908KDBQ DBQ20050202054511102/02/05 05:45:31  5-MIN KDBQ 021145Z AUTO 00000KT 4SM BR OVC048 M01/M03 A3039 650 85 -1100 000/00 RMK AO2 TSNO
94908KDBQ DBQ20050202055014602/02/05 05:50:31  5-MIN KDBQ 021150Z AUTO 00000KT 4SM BR OVC048 M01/M03 A3039 640 85 -1100 000/00 RMK AO2 SLP305 T10111033 11006 21011 55002 TSNO
94908KDBQ DBQ20050202055513602/02/05 05:55:31  5-MIN KDBQ 021155Z 00000KT 4SM BR OVC048 M01/M03 A3039 640 85 -1100 000/00 RMK AO2 SLP305 T10111033 11006 21011 58002
94908KDBQ DBQ20050202060010102/02/05 06:00:31  5-MIN KDBQ 021200Z 00000KT 4SM BR OVC048 M01/M03 A3039 650 85 -1100 000/00 RMK AO2
94908KDBQ DBQ20050202060510102/02/05 06:05:31  5-MIN KDBQ 021205Z 00000KT 4SM BR OVC048 M01/M03 A3039 650 85 -1100 000/00 RMK AO2
94908KDBQ DBQ20050202061010102/02/05 06:10:31  5-MIN KDBQ 021210Z 00000KT 4SM BR OVC048 M01/M03 A3039 640 85 -1100 000/00 RMK AO2
94908KDBQ DBQ20050202061510102/02/05 06:15:31  5-MIN KDBQ 021215Z 00000KT 4SM BR OVC048 M01/M03 A3039 640 85 -1100 000/00 RMK AO2
94908KDBQ DBQ20050202062010102/02/05 06:20:31  5-MIN KDBQ 021220Z 00000KT 4SM BR OVC048 M01/M03 A3039 640 85 -1100 000/00 RMK AO2
94908KDBQ DBQ20050202062510102/02/05 06:25:31  5-MIN KDBQ 021225Z 00000KT 4SM BR OVC050 M01/M03 A3039 640 85 -1100 000/00 RMK AO2
94908KDBQ DBQ20050202063010102/02/05 06:30:31  5-MIN KDBQ 021230Z 00000KT 4SM BR OVC050 M02/M03 A3040 640 88 -1200 000/00 RMK AO2
94908KDBQ DBQ20050202063510102/02/05 06:35:31  5-MIN KDBQ 021235Z 00000KT 4SM BR OVC050 M01/M03 A3040 640 85 -1100 000/00 RMK AO2
94908KDBQ DBQ20050202064010102/02/05 06:40:31  5-MIN KDBQ 021240Z 00000KT 4SM BR OVC050 M01/M03 A3040 640 85 -1100 000/00 RMK AO2
94908KDBQ DBQ20050202064510102/02/05 06:45:31  5-MIN KDBQ 021245Z 00000KT 4SM BR OVC050 M01/M03 A3040 640 85 -1100 000/00 RMK AO2
94908KDBQ DBQ20050202065011802/02/05 06:50:31  5-MIN KDBQ 021250Z 00000KT 4SM BR OVC050 M01/M03 A3040 640 88 -1100 000/00 RMK AO2 SLP306 T10111028
94908KDBQ DBQ20050202065511802/02/05 06:55:31  5-MIN KDBQ 021255Z 00000KT 4SM BR OVC050 M01/M03 A3040 640 85 -1100 000/00 RMK AO2 SLP308 T10111033
94908KDBQ DBQ20050202070010102/02/05 07:00:31  5-MIN KDBQ 021300Z 00000KT 4SM BR OVC050 M01/M03 A3040 640 85 -1100 000/00 RMK AO2
94908KDBQ DBQ20050202070510102/02/05 07:05:31  5-MIN KDBQ 021305Z 00000KT 4SM BR OVC050 M01/M03 A3040 640 85 -1100 000/00 RMK AO2
94908KDBQ DBQ20050202071010102/02/05 07:10:31  5-MIN KDBQ 021310Z 00000KT 4SM BR OVC050 M01/M03 A3040 630 85 -1100 000/00 RMK AO2
94908KDBQ DBQ20050202071510102/02/05 07:15:31  5-MIN KDBQ 021315Z 00000KT 4SM BR OVC050 M01/M03 A3040 630 85 -1100 000/00 RMK AO2
94908KDBQ DBQ20050202072010102/02/05 07:20:31  5-MIN KDBQ 021320Z 00000KT 4SM BR OVC050 M01/M03 A3041 630 85 -1100 000/00 RMK AO2
94908KDBQ DBQ20050202072510102/02/05 07:25:31  5-MIN KDBQ 021325Z 00000KT 3SM BR OVC050 M01/M03 A3041 630 88 -1100 000/00 RMK AO2
94908KDBQ DBQ20050202073010502/02/05 07:30:31  5-MIN KDBQ 021330Z 00000KT 2 1/2SM BR OVC050 M02/M03 A3040 630 92 -1200 000/00 RMK AO2
94908KDBQ DBQ20050202073510502/02/05 07:35:31  5-MIN KDBQ 021335Z 00000KT 2 1/2SM BR OVC050 M02/M03 A3040 640 92 -1200 000/00 RMK AO2
94908KDBQ DBQ20050202074010502/02/05 07:40:31  5-MIN KDBQ 021340Z 00000KT 2 1/2SM BR OVC050 M01/M03 A3040 630 88 -1100 000/00 RMK AO2
94908KDBQ DBQ20050202074510502/02/05 07:45:31  5-MIN KDBQ 021345Z 00000KT 2 1/2SM BR OVC050 M02/M03 A3040 630 92 -1200 000/00 RMK AO2
94908KDBQ DBQ20050202075011802/02/05 07:50:31  5-MIN KDBQ 021350Z 16003KT 2SM BR OVC050 M02/M03 A3041 630 92 -1200 160/03 RMK AO2 SLP310 T10171028
94908KDBQ DBQ20050202075512202/02/05 07:55:31  5-MIN KDBQ 021355Z 17004KT 2 1/2SM BR OVC050 M01/M03 A3041 630 88 -1100 170/04 RMK AO2 SLP311 T10111028
94908KDBQ DBQ20050202080010502/02/05 08:00:31  5-MIN KDBQ 021400Z 15004KT 2 1/2SM BR OVC050 M01/M03 A3041 630 85 -1100 150/04 RMK AO2
94908KDBQ DBQ20050202080510502/02/05 08:05:31  5-MIN KDBQ 021405Z 15005KT 2 1/2SM BR OVC050 M01/M03 A3040 630 85 -1100 150/05 RMK AO2
94908KDBQ DBQ20050202081010102/02/05 08:10:31  5-MIN KDBQ 021410Z 15006KT 3SM BR OVC050 M01/M03 A3040 630 85 -1100 150/06 RMK AO2
94908KDBQ DBQ20050202081510102/02/05 08:15:31  5-MIN KDBQ 021415Z 15007KT 3SM BR OVC050 M01/M03 A3040 630 85 -1100 150/07 RMK AO2
94908KDBQ DBQ20050202082010102/02/05 08:20:31  5-MIN KDBQ 021420Z 15007KT 3SM BR OVC050 M01/M03 A3041 630 85 -1100 150/07 RMK AO2
94908KDBQ DBQ20050202082510102/02/05 08:25:31  5-MIN KDBQ 021425Z 15006KT 3SM BR OVC050 M01/M03 A3041 630 85 -1100 150/06 RMK AO2
94908KDBQ DBQ20050202083010102/02/05 08:30:31  5-MIN KDBQ 021430Z 15007KT 4SM BR OVC050 M01/M03 A3041 630 85 -1100 150/07 RMK AO2
94908KDBQ DBQ20050202083510102/02/05 08:35:31  5-MIN KDBQ 021435Z 15006KT 4SM BR OVC050 M01/M03 A3041 630 85 -1100 150/06 RMK AO2
94908KDBQ DBQ20050202084010102/02/05 08:40:31  5-MIN KDBQ 021440Z 17005KT 4SM BR OVC050 M01/M03 A3041 630 85 -1100 170/05 RMK AO2
94908KDBQ DBQ20050202084510102/02/05 08:45:31  5-MIN KDBQ 021445Z 17004KT 4SM BR OVC050 M01/M03 A3041 630 85 -1100 170/04 RMK AO2
94908KDBQ DBQ20050202085012402/02/05 08:50:31  5-MIN KDBQ 021450Z 17004KT 3SM BR OVC050 M01/M03 A3041 630 85 -1100 170/04 RMK AO2 SLP310 T10111033 58002
94908KDBQ DBQ20050202085512402/02/05 08:55:31  5-MIN KDBQ 021455Z 19004KT 3SM BR OVC050 M01/M03 A3041 630 85 -1100 180/04 RMK AO2 SLP311 T10111033 51005
94908KDBQ DBQ20050202090010102/02/05 09:00:31  5-MIN KDBQ 021500Z 18004KT 3SM BR OVC050 M01/M03 A3041 630 85 -1100 180/04 RMK AO2
94908KDBQ DBQ20050202090510102/02/05 09:05:31  5-MIN KDBQ 021505Z 18003KT 3SM BR OVC050 M01/M03 A3041 630 85 -1100 180/03 RMK AO2
94908KDBQ DBQ20050202091010102/02/05 09:10:31  5-MIN KDBQ 021510Z 17003KT 3SM BR OVC050 M01/M03 A3040 630 85 -1100 170/03 RMK AO2
94908KDBQ DBQ20050202091510102/02/05 09:15:31  5-MIN KDBQ 021515Z 17004KT 3SM BR OVC050 M01/M03 A3040 630 85 -1100 170/04 RMK AO2
94908KDBQ DBQ20050202092010102/02/05 09:20:31  5-MIN KDBQ 021520Z 17005KT 3SM BR OVC050 M01/M03 A3040 630 85 -1100 170/05 RMK AO2
94908KDBQ DBQ20050202092510102/02/05 09:25:31  5-MIN KDBQ 021525Z 16005KT 3SM BR OVC050 M01/M03 A3040 630 85 -1100 160/05 RMK AO2
94908KDBQ DBQ20050202093010102/02/05 09:30:31  5-MIN KDBQ 021530Z 17006KT 3SM BR OVC050 M01/M03 A3040 640 85 -1100 170/06 RMK AO2
94908KDBQ DBQ20050202093510102/02/05 09:35:31  5-MIN KDBQ 021535Z 17006KT 3SM BR OVC050 M01/M03 A3040 640 85 -1100 170/06 RMK AO2
94908KDBQ DBQ20050202094010102/02/05 09:40:31  5-MIN KDBQ 021540Z 18005KT 3SM BR OVC050 M01/M03 A3040 640 85 -1100 180/05 RMK AO2
94908KDBQ DBQ20050202094510102/02/05 09:45:31  5-MIN KDBQ 021545Z 18004KT 3SM BR OVC050 M01/M03 A3040 640 85 -1100 180/04 RMK AO2
94908KDBQ DBQ20050202095011802/02/05 09:50:31  5-MIN KDBQ 021550Z 18004KT 3SM BR OVC050 M01/M03 A3040 640 85 -1100 180/04 RMK AO2 SLP308 T10111033
94908KDBQ DBQ20050202095511802/02/05 09:55:31  5-MIN KDBQ 021555Z 19004KT 3SM BR OVC050 M01/M03 A3040 640 85 -1100 190/04 RMK AO2 SLP308 T10111033
94908KDBQ DBQ20050202100010102/02/05 10:00:31  5-MIN KDBQ 021600Z 18004KT 3SM BR OVC050 M01/M03 A3040 640 85 -1100 180/04 RMK AO2
94908KDBQ DBQ20050202100510102/02/05 10:05:31  5-MIN KDBQ 021605Z 17004KT 3SM BR OVC050 M01/M03 A3040 640 85 -1100 170/04 RMK AO2
94908KDBQ DBQ20050202101010102/02/05 10:10:31  5-MIN KDBQ 021610Z 18004KT 4SM BR OVC050 M01/M03 A3039 640 85 -1100 180/04 RMK AO2
94908KDBQ DBQ20050202101510102/02/05 10:15:31  5-MIN KDBQ 021615Z 18004KT 4SM HZ OVC050 M01/M03 A3039 640 81 -1000 180/04 RMK AO2
94908KDBQ DBQ20050202102010102/02/05 10:20:31  5-MIN KDBQ 021620Z 19003KT 4SM BR OVC050 M01/M03 A3039 640 85 -1100 190/03 RMK AO2
94908KDBQ DBQ20050202102510102/02/05 10:25:31  5-MIN KDBQ 021625Z 00000KT 4SM BR OVC050 M01/M03 A3039 640 85 -1100 000/00 RMK AO2
94908KDBQ DBQ20050202103010102/02/05 10:30:31  5-MIN KDBQ 021630Z 00000KT 4SM HZ OVC050 M01/M03 A3039 640 81 -1000 000/00 RMK AO2
94908KDBQ DBQ20050202103510102/02/05 10:35:31  5-MIN KDBQ 021635Z 21003KT 4SM HZ OVC050 M01/M03 A3039 640 81 -1000 210/03 RMK AO2
94908KDBQ DBQ20050202104010102/02/05 10:40:31  5-MIN KDBQ 021640Z 00000KT 4SM HZ OVC050 M01/M04 A3039 640 78 -1000 000/00 RMK AO2
94908KDBQ DBQ20050202104510102/02/05 10:45:31  5-MIN KDBQ 021645Z 00000KT 4SM HZ OVC050 M01/M03 A3039 650 81 -1000 000/00 RMK AO2
94908KDBQ DBQ20050202105011802/02/05 10:50:31  5-MIN KDBQ 021650Z 00000KT 4SM HZ OVC050 M01/M03 A3039 640 81 -1000 000/00 RMK AO2 SLP305 T10061033
94908KDBQ DBQ20050202105511802/02/05 10:55:31  5-MIN KDBQ 021655Z 00000KT 4SM HZ OVC050 M01/M03 A3039 650 81 -1000 000/00 RMK AO2 SLP304 T10061033
94908KDBQ DBQ20050202110010102/02/05 11:00:31  5-MIN KDBQ 021700Z 00000KT 4SM HZ OVC050 M01/M03 A3039 650 81 -1000 000/00 RMK AO2
94908KDBQ DBQ20050202110510102/02/05 11:05:31  5-MIN KDBQ 021705Z 17003KT 4SM HZ OVC050 M01/M03 A3039 650 81 -1000 160/03 RMK AO2
94908KDBQ DBQ20050202111010102/02/05 11:10:31  5-MIN KDBQ 021710Z 18003KT 4SM HZ OVC050 M01/M03 A3039 650 81 -1000 180/03 RMK AO2
94908KDBQ DBQ20050202111510102/02/05 11:15:31  5-MIN KDBQ 021715Z 00000KT 4SM HZ OVC050 M01/M03 A3039 650 81 -1000 000/00 RMK AO2
94908KDBQ DBQ20050202112010102/02/05 11:20:31  5-MIN KDBQ 021720Z 00000KT 4SM HZ OVC050 M01/M03 A3039 640 81 -1000 000/00 RMK AO2
94908KDBQ DBQ20050202112510102/02/05 11:25:31  5-MIN KDBQ 021725Z 00000KT 4SM HZ OVC050 M01/M03 A3039 650 81 -1000 000/00 RMK AO2
94908KDBQ DBQ20050202113009902/02/05 11:30:31  5-MIN KDBQ 021730Z 00000KT 4SM HZ OVC050 00/M03 A3039 650 78 -900 000/00 RMK AO2
94908KDBQ DBQ20050202113510102/02/05 11:35:31  5-MIN KDBQ 021735Z 00000KT 4SM HZ OVC050 M01/M03 A3038 650 81 -1000 000/00 RMK AO2
94908KDBQ DBQ20050202114009902/02/05 11:40:31  5-MIN KDBQ 021740Z 00000KT 4SM HZ OVC050 00/M03 A3038 660 78 -900 000/00 RMK AO2
94908KDBQ DBQ20050202114509902/02/05 11:45:31  5-MIN KDBQ 021745Z 00000KT 4SM HZ OVC050 00/M03 A3037 660 78 -900 000/00 RMK AO2
94908KDBQ DBQ20050202115013602/02/05 11:50:31  5-MIN KDBQ 021750Z 00000KT 4SM HZ OVC050 M01/M03 A3038 660 81 -1000 000/00 RMK AO2 SLP300 T10061033 10000 21017 51005
94908KDBQ DBQ20050202115513402/02/05 11:55:31  5-MIN KDBQ 021755Z 00000KT 4SM HZ OVC050 00/M03 A3037 660 78 -900 000/00 RMK AO2 SLP299 T00001033 10000 21017 58010
94908KDBQ DBQ20050202120009902/02/05 12:00:31  5-MIN KDBQ 021800Z 00000KT 4SM HZ OVC050 00/M03 A3037 670 81 -900 000/00 RMK AO2
94908KDBQ DBQ20050202120510102/02/05 12:05:31  5-MIN KDBQ 021805Z 00000KT 4SM HZ OVC050 M01/M03 A3037 670 81 -1000 000/00 RMK AO2
94908KDBQ DBQ20050202121009902/02/05 12:10:31  5-MIN KDBQ 021810Z 00000KT 4SM HZ OVC050 00/M03 A3036 670 78 -900 000/00 RMK AO2
94908KDBQ DBQ20050202121509902/02/05 12:15:31  5-MIN KDBQ 021815Z 00000KT 4SM HZ OVC050 00/M03 A3035 680 78 -900 000/00 RMK AO2
94908KDBQ DBQ20050202122009902/02/05 12:20:31  5-MIN KDBQ 021820Z 00000KT 4SM HZ OVC050 00/M03 A3035 680 78 -900 000/00 RMK AO2
94908KDBQ DBQ20050202122509902/02/05 12:25:31  5-MIN KDBQ 021825Z 00000KT 4SM HZ OVC050 00/M03 A3035 680 78 -900 000/00 RMK AO2
94908KDBQ DBQ20050202123009902/02/05 12:30:31  5-MIN KDBQ 021830Z 00000KT 4SM HZ OVC050 00/M03 A3035 680 78 -900 000/00 RMK AO2
94908KDBQ DBQ20050202123509902/02/05 12:35:31  5-MIN KDBQ 021835Z 00000KT 4SM HZ OVC050 00/M03 A3035 680 78 -900 000/00 RMK AO2
94908KDBQ DBQ20050202124009902/02/05 12:40:31  5-MIN KDBQ 021840Z 14003KT 4SM HZ OVC050 00/M03 A3035 690 78 -900 140/03 RMK AO2
94908KDBQ DBQ20050202124509902/02/05 12:45:31  5-MIN KDBQ 021845Z 15003KT 5SM HZ OVC050 00/M03 A3034 690 78 -900 150/03 RMK AO2
94908KDBQ DBQ20050202125011602/02/05 12:50:31  5-MIN KDBQ 021850Z 16004KT 5SM HZ OVC050 00/M04 A3034 690 75 -900 160/04 RMK AO2 SLP286 T00001039
94908KDBQ DBQ20050202125511602/02/05 12:55:31  5-MIN KDBQ 021855Z 17004KT 5SM HZ OVC050 01/M04 A3034 690 72 -800 160/04 RMK AO2 SLP286 T00061039
94908KDBQ DBQ20050202130009902/02/05 13:00:31  5-MIN KDBQ 021900Z 16004KT 5SM HZ OVC050 01/M04 A3034 700 72 -800 160/04 RMK AO2
94908KDBQ DBQ20050202130509902/02/05 13:05:31  5-MIN KDBQ 021905Z 15004KT 5SM HZ OVC050 01/M04 A3034 700 72 -800 150/04 RMK AO2
94908KDBQ DBQ20050202131009902/02/05 13:10:31  5-MIN KDBQ 021910Z 17004KT 5SM HZ OVC050 01/M04 A3033 700 72 -800 160/04 RMK AO2
94908KDBQ DBQ20050202131509902/02/05 13:15:31  5-MIN KDBQ 021915Z 15004KT 5SM HZ OVC050 01/M03 A3033 700 75 -800 150/04 RMK AO2
94908KDBQ DBQ20050202132009902/02/05 13:20:31  5-MIN KDBQ 021920Z 14005KT 5SM HZ OVC050 01/M04 A3033 700 72 -800 140/05 RMK AO2
94908KDBQ DBQ20050202132509902/02/05 13:25:31  5-MIN KDBQ 021925Z 15005KT 5SM HZ OVC050 01/M03 A3032 710 75 -800 150/05 RMK AO2
94908KDBQ DBQ20050202133009902/02/05 13:30:31  5-MIN KDBQ 021930Z 15005KT 5SM HZ OVC050 01/M03 A3032 710 75 -800 150/05 RMK AO2
94908KDBQ DBQ20050202133509902/02/05 13:35:31  5-MIN KDBQ 021935Z 16005KT 5SM HZ OVC050 01/M03 A3032 710 75 -800 160/05 RMK AO2
94908KDBQ DBQ20050202134009902/02/05 13:40:31  5-MIN KDBQ 021940Z 15005KT 5SM HZ OVC050 01/M03 A3032 710 75 -800 150/05 RMK AO2
94908KDBQ DBQ20050202134509902/02/05 13:45:31  5-MIN KDBQ 021945Z 15006KT 5SM HZ OVC050 01/M03 A3031 720 75 -800 150/06 RMK AO2
94908KDBQ DBQ20050202135011602/02/05 13:50:31  5-MIN KDBQ 021950Z 16005KT 5SM HZ OVC050 01/M03 A3031 720 75 -800 160/05 RMK AO2 SLP276 T00061033
94908KDBQ DBQ20050202135511602/02/05 13:55:31  5-MIN KDBQ 021955Z 16006KT 5SM HZ OVC050 01/M03 A3031 720 75 -800 160/06 RMK AO2 SLP276 T00061033
94908KDBQ DBQ20050202140009902/02/05 14:00:31  5-MIN KDBQ 022000Z 16005KT 5SM HZ OVC050 01/M03 A3031 720 75 -800 160/05 RMK AO2
94908KDBQ DBQ20050202140509902/02/05 14:05:31  5-MIN KDBQ 022005Z 16004KT 5SM HZ OVC050 01/M03 A3031 720 75 -800 160/04 RMK AO2
94908KDBQ DBQ20050202141009902/02/05 14:10:31  5-MIN KDBQ 022010Z 17003KT 5SM HZ OVC050 01/M03 A3031 720 75 -800 170/03 RMK AO2
94908KDBQ DBQ20050202141509902/02/05 14:15:31  5-MIN KDBQ 022015Z 17004KT 6SM HZ OVC050 01/M04 A3031 720 72 -800 170/04 RMK AO2
94908KDBQ DBQ20050202142009902/02/05 14:20:31  5-MIN KDBQ 022020Z 15004KT 6SM HZ OVC050 01/M04 A3031 720 72 -800 150/04 RMK AO2
94908KDBQ DBQ20050202142509902/02/05 14:25:31  5-MIN KDBQ 022025Z 15005KT 6SM HZ OVC050 01/M04 A3031 720 72 -800 150/05 RMK AO2
94908KDBQ DBQ20050202143009902/02/05 14:30:31  5-MIN KDBQ 022030Z 16005KT 6SM HZ OVC050 01/M04 A3031 720 72 -800 160/05 RMK AO2
94908KDBQ DBQ20050202143509902/02/05 14:35:31  5-MIN KDBQ 022035Z 16004KT 5SM HZ OVC050 01/M03 A3031 720 75 -800 160/04 RMK AO2
94908KDBQ DBQ20050202144009902/02/05 14:40:31  5-MIN KDBQ 022040Z 16003KT 5SM HZ OVC050 01/M04 A3031 720 72 -800 160/03 RMK AO2
94908KDBQ DBQ20050202144509902/02/05 14:45:31  5-MIN KDBQ 022045Z 15003KT 6SM HZ OVC050 01/M04 A3031 720 69 -700 150/03 RMK AO2
94908KDBQ DBQ20050202145012202/02/05 14:50:31  5-MIN KDBQ 022050Z 00000KT 6SM HZ OVC050 01/M04 A3031 720 69 -700 000/00 RMK AO2 SLP277 T00111039 58010
94908KDBQ DBQ20050202145512202/02/05 14:55:31  5-MIN KDBQ 022055Z 15003KT 6SM HZ OVC050 01/M04 A3031 720 69 -700 140/03 RMK AO2 SLP276 T00111039 56021
94908KDBQ DBQ20050202150009902/02/05 15:00:31  5-MIN KDBQ 022100Z 15003KT 6SM HZ OVC050 01/M04 A3031 720 69 -700 150/03 RMK AO2
94908KDBQ DBQ20050202150509902/02/05 15:05:31  5-MIN KDBQ 022105Z 15004KT 6SM HZ OVC050 01/M03 A3031 720 72 -700 150/04 RMK AO2
94908KDBQ DBQ20050202151009902/02/05 15:10:31  5-MIN KDBQ 022110Z 14003KT 6SM HZ OVC050 01/M04 A3031 720 69 -700 140/03 RMK AO2
94908KDBQ DBQ20050202151509902/02/05 15:15:31  5-MIN KDBQ 022115Z 00000KT 6SM HZ OVC050 01/M03 A3031 720 72 -700 000/00 RMK AO2
94908KDBQ DBQ20050202152009902/02/05 15:20:31  5-MIN KDBQ 022120Z 00000KT 5SM HZ OVC050 01/M04 A3031 720 69 -700 000/00 RMK AO2
94908KDBQ DBQ20050202152509902/02/05 15:25:31  5-MIN KDBQ 022125Z 00000KT 5SM HZ OVC050 01/M04 A3031 720 69 -700 000/00 RMK AO2
94908KDBQ DBQ20050202153009902/02/05 15:30:31  5-MIN KDBQ 022130Z 00000KT 5SM HZ OVC050 01/M03 A3031 720 72 -700 000/00 RMK AO2
94908KDBQ DBQ20050202153509902/02/05 15:35:31  5-MIN KDBQ 022135Z 00000KT 5SM HZ OVC050 01/M04 A3031 720 69 -700 000/00 RMK AO2
94908KDBQ DBQ20050202154009902/02/05 15:40:31  5-MIN KDBQ 022140Z 00000KT 5SM HZ OVC050 02/M04 A3032 720 66 -600 000/00 RMK AO2
94908KDBQ DBQ20050202154509902/02/05 15:45:31  5-MIN KDBQ 022145Z 00000KT 5SM HZ OVC050 01/M04 A3031 720 69 -700 000/00 RMK AO2
94908KDBQ DBQ20050202155011602/02/05 15:50:31  5-MIN KDBQ 022150Z 00000KT 5SM HZ OVC050 01/M04 A3031 720 69 -700 000/00 RMK AO2 SLP278 T00111039
94908KDBQ DBQ20050202155511602/02/05 15:55:31  5-MIN KDBQ 022155Z 00000KT 6SM HZ OVC050 01/M04 A3032 710 69 -700 000/00 RMK AO2 SLP279 T00111039
94908KDBQ DBQ20050202160009902/02/05 16:00:31  5-MIN KDBQ 022200Z 00000KT 6SM HZ OVC050 01/M04 A3032 710 69 -700 000/00 RMK AO2
94908KDBQ DBQ20050202160509902/02/05 16:05:31  5-MIN KDBQ 022205Z 00000KT 6SM HZ OVC050 01/M04 A3032 710 69 -700 000/00 RMK AO2
94908KDBQ DBQ20050202161009902/02/05 16:10:31  5-MIN KDBQ 022210Z 00000KT 6SM HZ OVC050 02/M04 A3033 700 64 -700 000/00 RMK AO2
94908KDBQ DBQ20050202161509902/02/05 16:15:31  5-MIN KDBQ 022215Z 00000KT 6SM HZ OVC050 01/M04 A3033 700 69 -700 000/00 RMK AO2
94908KDBQ DBQ20050202162009902/02/05 16:20:31  5-MIN KDBQ 022220Z 00000KT 6SM HZ OVC050 01/M04 A3032 710 66 -700 000/00 RMK AO2
94908KDBQ DBQ20050202162509902/02/05 16:25:31  5-MIN KDBQ 022225Z 00000KT 6SM HZ OVC050 01/M04 A3032 710 66 -700 000/00 RMK AO2
94908KDBQ DBQ20050202163009902/02/05 16:30:31  5-MIN KDBQ 022230Z 00000KT 6SM HZ OVC050 01/M04 A3032 710 69 -700 000/00 RMK AO2
94908KDBQ DBQ20050202163509902/02/05 16:35:31  5-MIN KDBQ 022235Z 00000KT 6SM HZ OVC050 01/M04 A3032 710 69 -700 000/00 RMK AO2
94908KDBQ DBQ20050202164009902/02/05 16:40:31  5-MIN KDBQ 022240Z 00000KT 6SM HZ OVC050 01/M04 A3032 710 69 -700 000/00 RMK AO2
94908KDBQ DBQ20050202164509902/02/05 16:45:31  5-MIN KDBQ 022245Z 00000KT 5SM HZ OVC050 01/M04 A3032 710 69 -700 000/00 RMK AO2
94908KDBQ DBQ20050202165011602/02/05 16:50:31  5-MIN KDBQ 022250Z 00000KT 5SM HZ OVC050 01/M04 A3032 710 69 -700 000/00 RMK AO2 SLP281 T00111039
94908KDBQ DBQ20050202165511602/02/05 16:55:31  5-MIN KDBQ 022255Z 00000KT 5SM HZ OVC050 01/M04 A3032 710 69 -700 000/00 RMK AO2 SLP281 T00111039
94908KDBQ DBQ20050202170009902/02/05 17:00:31  5-MIN KDBQ 022300Z 00000KT 5SM HZ OVC050 01/M04 A3032 710 69 -700 000/00 RMK AO2
94908KDBQ DBQ20050202170509902/02/05 17:05:31  5-MIN KDBQ 022305Z 00000KT 5SM HZ OVC050 01/M04 A3032 710 69 -700 000/00 RMK AO2
94908KDBQ DBQ20050202171009902/02/05 17:10:31  5-MIN KDBQ 022310Z 00000KT 5SM HZ OVC050 01/M03 A3032 710 72 -700 000/00 RMK AO2
94908KDBQ DBQ20050202171509902/02/05 17:15:31  5-MIN KDBQ 022315Z 00000KT 5SM HZ OVC050 01/M03 A3033 700 72 -700 000/00 RMK AO2
94908KDBQ DBQ20050202172009902/02/05 17:20:31  5-MIN KDBQ 022320Z 00000KT 5SM HZ OVC050 01/M03 A3033 700 75 -800 000/00 RMK AO2
94908KDBQ DBQ20050202172509902/02/05 17:25:31  5-MIN KDBQ 022325Z 00000KT 5SM HZ OVC050 01/M03 A3033 700 75 -800 000/00 RMK AO2
94908KDBQ DBQ20050202173009902/02/05 17:30:31  5-MIN KDBQ 022330Z 00000KT 6SM HZ OVC050 01/M03 A3033 700 72 -700 000/00 RMK AO2
94908KDBQ DBQ20050202173509902/02/05 17:35:31  5-MIN KDBQ 022335Z 00000KT 6SM HZ OVC050 01/M03 A3033 700 72 -700 000/00 RMK AO2
94908KDBQ DBQ20050202174009902/02/05 17:40:31  5-MIN KDBQ 022340Z 00000KT 6SM HZ OVC050 01/M04 A3033 700 69 -700 000/00 RMK AO2
94908KDBQ DBQ20050202174509602/02/05 17:45:31  5-MIN KDBQ 022345Z 00000KT 7SM OVC050 01/M03 A3033 700 72 -700 000/00 RMK AO2
94908KDBQ DBQ20050202175013402/02/05 17:50:31  5-MIN KDBQ 022350Z 00000KT 6SM HZ OVC050 01/M03 A3033 700 72 -700 000/00 RMK AO2 SLP284 T00111033 10017 21006 56021
94908KDBQ DBQ20050202175513402/02/05 17:55:31  5-MIN KDBQ 022355Z 00000KT 6SM HZ OVC050 01/M03 A3033 700 75 -800 000/00 RMK AO2 SLP283 T00061033 10017 21006 51006
94908KDBQ DBQ20050202180009902/02/05 18:00:31  5-MIN KDBQ 030000Z 00000KT 6SM HZ OVC050 01/M03 A3033 700 78 -800 000/00 RMK AO2
94908KDBQ DBQ20050202180509902/02/05 18:05:31  5-MIN KDBQ 030005Z 00000KT 6SM HZ OVC050 01/M03 A3033 700 78 -800 000/00 RMK AO2
94908KDBQ DBQ20050202181009902/02/05 18:10:31  5-MIN KDBQ 030010Z 00000KT 6SM HZ OVC050 01/M03 A3033 710 78 -800 000/00 RMK AO2
94908KDBQ DBQ20050202181509902/02/05 18:15:31  5-MIN KDBQ 030015Z 00000KT 6SM HZ OVC050 01/M03 A3032 710 78 -800 000/00 RMK AO2
94908KDBQ DBQ20050202182009902/02/05 18:20:31  5-MIN KDBQ 030020Z 00000KT 6SM HZ OVC050 01/M03 A3032 710 78 -800 000/00 RMK AO2
94908KDBQ DBQ20050202182509902/02/05 18:25:31  5-MIN KDBQ 030025Z 00000KT 6SM HZ OVC050 01/M03 A3033 700 78 -800 000/00 RMK AO2
94908KDBQ DBQ20050202183009902/02/05 18:30:31  5-MIN KDBQ 030030Z 00000KT 6SM HZ OVC050 01/M03 A3033 700 78 -800 000/00 RMK AO2
94908KDBQ DBQ20050202183509902/02/05 18:35:31  5-MIN KDBQ 030035Z 00000KT 6SM HZ OVC050 01/M03 A3033 710 78 -800 000/00 RMK AO2
94908KDBQ DBQ20050202184009902/02/05 18:40:31  5-MIN KDBQ 030040Z 00000KT 6SM HZ OVC050 01/M03 A3032 710 78 -800 000/00 RMK AO2
94908KDBQ DBQ20050202184509902/02/05 18:45:31  5-MIN KDBQ 030045Z 00000KT 6SM HZ OVC050 00/M03 A3032 710 81 -900 000/00 RMK AO2
94908KDBQ DBQ20050202185011602/02/05 18:50:31  5-MIN KDBQ 030050Z 00000KT 6SM HZ OVC050 01/M03 A3032 710 78 -800 000/00 RMK AO2 SLP281 T00061028
94908KDBQ DBQ20050202185511602/02/05 18:55:31  5-MIN KDBQ 030055Z 00000KT 6SM HZ OVC050 01/M03 A3032 710 78 -800 000/00 RMK AO2 SLP280 T00061028
94908KDBQ DBQ20050202190009902/02/05 19:00:31  5-MIN KDBQ 030100Z 00000KT 6SM HZ OVC050 01/M03 A3032 710 78 -800 000/00 RMK AO2
94908KDBQ DBQ20050202190509902/02/05 19:05:31  5-MIN KDBQ 030105Z 00000KT 6SM HZ OVC050 00/M03 A3032 710 78 -900 000/00 RMK AO2
94908KDBQ DBQ20050202191009902/02/05 19:10:31  5-MIN KDBQ 030110Z 00000KT 6SM HZ OVC050 01/M03 A3032 710 78 -800 000/00 RMK AO2
94908KDBQ DBQ20050202191509902/02/05 19:15:31  5-MIN KDBQ 030115Z 00000KT 6SM HZ OVC050 00/M03 A3031 720 78 -900 000/00 RMK AO2
94908KDBQ DBQ20050202192009902/02/05 19:20:31  5-MIN KDBQ 030120Z 00000KT 6SM HZ OVC050 00/M03 A3031 720 78 -900 000/00 RMK AO2
94908KDBQ DBQ20050202192509902/02/05 19:25:31  5-MIN KDBQ 030125Z 00000KT 6SM HZ OVC050 00/M03 A3031 720 78 -900 000/00 RMK AO2
94908KDBQ DBQ20050202193009902/02/05 19:30:31  5-MIN KDBQ 030130Z 00000KT 6SM HZ OVC050 00/M03 A3032 720 78 -900 000/00 RMK AO2
94908KDBQ DBQ20050202193509902/02/05 19:35:31  5-MIN KDBQ 030135Z 00000KT 6SM HZ BKN050 00/M03 A3032 710 78 -900 000/00 RMK AO2
94908KDBQ DBQ20050202194010002/02/05 19:40:31  5-MIN KDBQ 030140Z 00000KT 5SM HZ BKN050 M01/M04 A3031 720 78 -900 000/00 RMK AO2
94908KDBQ DBQ20050202194510002/02/05 19:45:31  5-MIN KDBQ 030145Z 00000KT 6SM HZ SCT050 M01/M04 A3032 710 78 -900 000/00 RMK AO2
94908KDBQ DBQ20050202195012302/02/05 19:50:31  5-MIN KDBQ 030150Z AUTO 00000KT 5SM HZ FEW050 M01/M04 A3031 720 81 -1000 000/00 RMK AO2 SLP279 T10111039
94908KDBQ DBQ20050202195512802/02/05 19:55:31  5-MIN KDBQ 030155Z AUTO 00000KT 6SM HZ FEW050 M01/M04 A3032 710 81 -1000 000/00 RMK AO2 SLP279 T10111039 TSNO
94908KDBQ DBQ20050202200010802/02/05 20:00:31  5-MIN KDBQ 030200Z AUTO 00000KT 6SM HZ CLR M01/M04 A3032 710 81 -1000 000/00 RMK AO2 TSNO
94908KDBQ DBQ20050202200510802/02/05 20:05:31  5-MIN KDBQ 030205Z AUTO 00000KT 6SM HZ CLR M01/M04 A3032 710 78 -1000 000/00 RMK AO2 TSNO
94908KDBQ DBQ20050202201010802/02/05 20:10:31  5-MIN KDBQ 030210Z AUTO 00000KT 5SM HZ CLR M01/M04 A3032 720 78 -1000 000/00 RMK AO2 TSNO
94908KDBQ DBQ20050202201510802/02/05 20:15:31  5-MIN KDBQ 030215Z AUTO 00000KT 5SM HZ CLR M02/M05 A3031 720 81 -1100 000/00 RMK AO2 TSNO
94908KDBQ DBQ20050202202010802/02/05 20:20:31  5-MIN KDBQ 030220Z AUTO 00000KT 5SM HZ CLR M02/M05 A3031 720 78 -1100 000/00 RMK AO2 TSNO
94908KDBQ DBQ20050202202510802/02/05 20:25:31  5-MIN KDBQ 030225Z AUTO 00000KT 5SM HZ CLR M02/M04 A3031 720 81 -1100 000/00 RMK AO2 TSNO
94908KDBQ DBQ20050202203010802/02/05 20:30:31  5-MIN KDBQ 030230Z AUTO 00000KT 5SM HZ CLR M02/M04 A3031 720 81 -1100 000/00 RMK AO2 TSNO
94908KDBQ DBQ20050202203510802/02/05 20:35:31  5-MIN KDBQ 030235Z AUTO 00000KT 5SM BR CLR M03/M04 A3031 720 88 -1200 000/00 RMK AO2 TSNO
94908KDBQ DBQ20050202204010802/02/05 20:40:31  5-MIN KDBQ 030240Z AUTO 00000KT 4SM BR CLR M03/M05 A3031 720 88 -1300 000/00 RMK AO2 TSNO
94908KDBQ DBQ20050202204510802/02/05 20:45:31  5-MIN KDBQ 030245Z AUTO 00000KT 4SM BR CLR M04/M06 A3032 710 88 -1300 000/00 RMK AO2 TSNO
94908KDBQ DBQ20050202205013102/02/05 20:50:31  5-MIN KDBQ 030250Z AUTO 00000KT 4SM HZ CLR M03/M06 A3032 710 81 -1200 000/00 RMK AO2 SLP280 T10281056 51006 TSNO
94908KDBQ DBQ20050202205513102/02/05 20:55:31  5-MIN KDBQ 030255Z AUTO 00000KT 4SM BR CLR M03/M05 A3031 720 85 -1200 000/00 RMK AO2 SLP280 T10281050 56004 TSNO
94908KDBQ DBQ20050202210010802/02/05 21:00:31  5-MIN KDBQ 030300Z AUTO 00000KT 4SM HZ CLR M02/M05 A3032 710 81 -1100 000/00 RMK AO2 TSNO
94908KDBQ DBQ20050202210510802/02/05 21:05:31  5-MIN KDBQ 030305Z AUTO 00000KT 4SM BR CLR M03/M05 A3031 720 88 -1300 000/00 RMK AO2 TSNO
94908KDBQ DBQ20050202211010802/02/05 21:10:31  5-MIN KDBQ 030310Z AUTO 00000KT 4SM BR CLR M03/M05 A3031 720 85 -1200 000/00 RMK AO2 TSNO
94908KDBQ DBQ20050202211510802/02/05 21:15:31  5-MIN KDBQ 030315Z AUTO 00000KT 4SM BR CLR M03/M05 A3031 720 88 -1300 000/00 RMK AO2 TSNO
94908KDBQ DBQ20050202212010802/02/05 21:20:31  5-MIN KDBQ 030320Z AUTO 00000KT 3SM BR CLR M04/M06 A3030 720 88 -1300 000/00 RMK AO2 TSNO
94908KDBQ DBQ20050202212510802/02/05 21:25:31  5-MIN KDBQ 030325Z AUTO 17003KT 4SM BR CLR M03/M05 A3030 730 88 -1300 170/03 RMK AO2 TSNO
94908KDBQ DBQ20050202213010802/02/05 21:30:31  5-MIN KDBQ 030330Z AUTO 17003KT 4SM BR CLR M03/M06 A3030 730 85 -1300 170/03 RMK AO2 TSNO
94908KDBQ DBQ20050202213510802/02/05 21:35:31  5-MIN KDBQ 030335Z AUTO 17003KT 4SM BR CLR M03/M06 A3030 730 85 -1300 170/03 RMK AO2 TSNO
94908KDBQ DBQ20050202214010802/02/05 21:40:31  5-MIN KDBQ 030340Z AUTO 17003KT 4SM BR CLR M03/M05 A3030 730 85 -1200 170/03 RMK AO2 TSNO
94908KDBQ DBQ20050202214510802/02/05 21:45:31  5-MIN KDBQ 030345Z AUTO 18003KT 4SM BR CLR M03/M05 A3030 730 85 -1200 180/03 RMK AO2 TSNO
94908KDBQ DBQ20050202215012502/02/05 21:50:31  5-MIN KDBQ 030350Z AUTO 19003KT 4SM HZ CLR M03/M06 A3030 730 81 -1200 190/03 RMK AO2 SLP274 T10281056 TSNO
94908KDBQ DBQ20050202215512502/02/05 21:55:31  5-MIN KDBQ 030355Z AUTO 00000KT 4SM BR CLR M04/M06 A3030 730 88 -1300 000/00 RMK AO2 SLP275 T10391056 TSNO
94908KDBQ DBQ20050202220010802/02/05 22:00:31  5-MIN KDBQ 030400Z AUTO 22003KT 4SM BR CLR M03/M06 A3030 730 85 -1300 220/03 RMK AO2 TSNO
94908KDBQ DBQ20050202220510802/02/05 22:05:31  5-MIN KDBQ 030405Z AUTO 00000KT 4SM BR CLR M04/M06 A3029 730 88 -1400 000/00 RMK AO2 TSNO
94908KDBQ DBQ20050202221010802/02/05 22:10:31  5-MIN KDBQ 030410Z AUTO 00000KT 4SM BR CLR M04/M06 A3030 730 88 -1400 000/00 RMK AO2 TSNO
94908KDBQ DBQ20050202221510802/02/05 22:15:31  5-MIN KDBQ 030415Z AUTO 00000KT 4SM BR CLR M04/M06 A3029 730 85 -1300 000/00 RMK AO2 TSNO
94908KDBQ DBQ20050202222010802/02/05 22:20:31  5-MIN KDBQ 030420Z AUTO 22003KT 4SM BR CLR M04/M06 A3029 730 85 -1300 220/03 RMK AO2 TSNO
94908KDBQ DBQ20050202222510802/02/05 22:25:31  5-MIN KDBQ 030425Z AUTO 24003KT 3SM BR CLR M04/M06 A3030 730 88 -1300 240/03 RMK AO2 TSNO
94908KDBQ DBQ20050202223010802/02/05 22:30:31  5-MIN KDBQ 030430Z AUTO 22004KT 3SM BR CLR M04/M06 A3029 730 88 -1400 220/04 RMK AO2 TSNO
94908KDBQ DBQ20050202223511202/02/05 22:35:31  5-MIN KDBQ 030435Z AUTO 21004KT 2 1/2SM BR CLR M04/M06 A3029 740 88 -1400 210/04 RMK AO2 TSNO
94908KDBQ DBQ20050202224010802/02/05 22:40:31  5-MIN KDBQ 030440Z AUTO 21003KT 3SM BR CLR M04/M06 A3029 740 88 -1300 210/03 RMK AO2 TSNO
94908KDBQ DBQ20050202224510802/02/05 22:45:31  5-MIN KDBQ 030445Z AUTO 21003KT 3SM BR CLR M04/M06 A3029 740 88 -1400 210/03 RMK AO2 TSNO
94908KDBQ DBQ20050202225012902/02/05 22:50:31  5-MIN KDBQ 030450Z AUTO 21003KT 2 1/2SM BR CLR M04/M06 A3029 740 88 -1400 210/03 RMK AO2 SLP271 T10441061 TSNO
94908KDBQ DBQ20050202225512902/02/05 22:55:31  5-MIN KDBQ 030455Z AUTO 21004KT 2 1/2SM BR CLR M04/M06 A3029 740 88 -1400 200/04 RMK AO2 SLP272 T10441061 TSNO
94908KDBQ DBQ20050202230011202/02/05 23:00:31  5-MIN KDBQ 030500Z AUTO 21004KT 2 1/2SM BR CLR M04/M06 A3029 740 88 -1400 210/04 RMK AO2 TSNO
94908KDBQ DBQ20050202230511202/02/05 23:05:31  5-MIN KDBQ 030505Z AUTO 20003KT 2 1/2SM BR CLR M05/M07 A3029 740 88 -1500 200/03 RMK AO2 TSNO
94908KDBQ DBQ20050202231011202/02/05 23:10:31  5-MIN KDBQ 030510Z AUTO 20005KT 2 1/2SM BR CLR M05/M06 A3029 740 92 -1500 200/05 RMK AO2 TSNO
94908KDBQ DBQ20050202231511202/02/05 23:15:31  5-MIN KDBQ 030515Z AUTO 21004KT 2 1/2SM BR CLR M05/M06 A3029 740 92 -1500 210/04 RMK AO2 TSNO
94908KDBQ DBQ20050202232011202/02/05 23:20:31  5-MIN KDBQ 030520Z AUTO 21004KT 2 1/2SM BR CLR M05/M07 A3029 740 88 -1500 210/04 RMK AO2 TSNO
94908KDBQ DBQ20050202232511202/02/05 23:25:31  5-MIN KDBQ 030525Z AUTO 21004KT 2 1/2SM BR CLR M06/M07 A3029 740 92 -1500 210/04 RMK AO2 TSNO
94908KDBQ DBQ20050202233011202/02/05 23:30:31  5-MIN KDBQ 030530Z AUTO 21005KT 2 1/2SM BR CLR M06/M07 A3029 740 92 -1500 200/05 RMK AO2 TSNO
94908KDBQ DBQ20050202233511202/02/05 23:35:31  5-MIN KDBQ 030535Z AUTO 20005KT 2 1/2SM BR CLR M05/M07 A3029 740 88 -1500 200/05 RMK AO2 TSNO
94908KDBQ DBQ20050202234010802/02/05 23:40:31  5-MIN KDBQ 030540Z AUTO 21006KT 2SM BR CLR M05/M07 A3029 740 88 -1500 210/06 RMK AO2 TSNO
94908KDBQ DBQ20050202234510802/02/05 23:45:31  5-MIN KDBQ 030545Z AUTO 21006KT 2SM BR CLR M05/M06 A3028 740 92 -1500 210/06 RMK AO2 TSNO
94908KDBQ DBQ20050202235015702/02/05 23:50:31  5-MIN KDBQ 030550Z AUTO 21006KT 2 1/2SM BR CLR M05/M06 A3028 750 92 -1500 210/06 RMK AO2 SLP270 T10501061 10006 21056 400171056 56004 TSNO
94908KDBQ DBQ20050202235515702/02/05 23:55:31  5-MIN KDBQ 030555Z AUTO 21006KT 2 1/2SM BR CLR M05/M06 A3028 750 92 -1400 210/06 RMK AO2 SLP268 T10501061 10006 21056 400171056 56012 TSNO
94908KDBQ DBQ20050203000010802/03/05 00:00:38  5-MIN KDBQ 030600Z AUTO 21006KT 2SM BR CLR M05/M06 A3028 750 92 -1400 210/06 RMK AO2 TSNO
94908KDBQ DBQ20050203000511202/03/05 00:05:31  5-MIN KDBQ 030605Z AUTO 22005KT 2 1/2SM BR CLR M06/M07 A3028 750 92 -1500 220/05 RMK AO2 TSNO
94908KDBQ DBQ20050203001010802/03/05 00:10:31  5-MIN KDBQ 030610Z AUTO 21006KT 2SM BR CLR M06/M07 A3028 750 96 -1600 210/06 RMK AO2 TSNO
94908KDBQ DBQ20050203001510802/03/05 00:15:32  5-MIN KDBQ 030615Z AUTO 21006KT 2SM BR CLR M06/M07 A3028 740 92 -1500 210/06 RMK AO2 TSNO
94908KDBQ DBQ20050203002010802/03/05 00:20:31  5-MIN KDBQ 030620Z AUTO 21006KT 2SM BR CLR M06/M06 A3028 740 96 -1500 210/06 RMK AO2 TSNO
94908KDBQ DBQ20050203002511202/03/05 00:25:31  5-MIN KDBQ 030625Z AUTO 22006KT 2 1/2SM BR CLR M05/M07 A3028 740 88 -1500 220/06 RMK AO2 TSNO
94908KDBQ DBQ20050203003011202/03/05 00:30:31  5-MIN KDBQ 030630Z AUTO 21006KT 2 1/2SM BR CLR M06/M07 A3028 740 92 -1500 210/06 RMK AO2 TSNO
94908KDBQ DBQ20050203003511202/03/05 00:35:31  5-MIN KDBQ 030635Z AUTO 22006KT 2 1/2SM BR CLR M06/M07 A3028 740 92 -1500 220/06 RMK AO2 TSNO
94908KDBQ DBQ20050203004011202/03/05 00:40:31  5-MIN KDBQ 030640Z AUTO 22006KT 2 1/2SM BR CLR M06/M07 A3028 750 92 -1500 220/06 RMK AO2 TSNO
94908KDBQ DBQ20050203004510802/03/05 00:45:31  5-MIN KDBQ 030645Z AUTO 22006KT 2SM BR CLR M06/M07 A3028 750 92 -1500 220/06 RMK AO2 TSNO
94908KDBQ DBQ20050203005012502/03/05 00:50:31  5-MIN KDBQ 030650Z AUTO 21007KT 2SM BR CLR M06/M07 A3028 750 92 -1500 210/07 RMK AO2 SLP269 T10561067 TSNO
94908KDBQ DBQ20050203005512902/03/05 00:55:31  5-MIN KDBQ 030655Z AUTO 21007KT 2 1/2SM BR CLR M06/M07 A3028 750 92 -1500 210/07 RMK AO2 SLP268 T10561067 TSNO
94908KDBQ DBQ20050203010011202/03/05 01:00:31  5-MIN KDBQ 030700Z AUTO 21007KT 2 1/2SM BR CLR M06/M07 A3028 750 92 -1500 200/07 RMK AO2 TSNO
94908KDBQ DBQ20050203010511202/03/05 01:05:31  5-MIN KDBQ 030705Z AUTO 21007KT 2 1/2SM BR CLR M06/M07 A3027 750 92 -1500 210/07 RMK AO2 TSNO
94908KDBQ DBQ20050203011011202/03/05 01:10:31  5-MIN KDBQ 030710Z AUTO 21006KT 2 1/2SM BR CLR M06/M07 A3028 750 92 -1500 210/06 RMK AO2 TSNO
94908KDBQ DBQ20050203011511202/03/05 01:15:31  5-MIN KDBQ 030715Z AUTO 21006KT 2 1/2SM BR CLR M06/M07 A3028 750 92 -1500 210/06 RMK AO2 TSNO
94908KDBQ DBQ20050203012011202/03/05 01:20:31  5-MIN KDBQ 030720Z AUTO 21006KT 2 1/2SM BR CLR M06/M07 A3028 750 92 -1500 210/06 RMK AO2 TSNO
94908KDBQ DBQ20050203012511202/03/05 01:25:31  5-MIN KDBQ 030725Z AUTO 20006KT 2 1/2SM BR CLR M06/M07 A3027 750 92 -1500 200/06 RMK AO2 TSNO
94908KDBQ DBQ20050203013011202/03/05 01:30:31  5-MIN KDBQ 030730Z AUTO 19006KT 2 1/2SM BR CLR M06/M07 A3028 750 92 -1500 190/06 RMK AO2 TSNO
94908KDBQ DBQ20050203013511202/03/05 01:35:31  5-MIN KDBQ 030735Z AUTO 20006KT 2 1/2SM BR CLR M05/M07 A3028 750 88 -1400 200/06 RMK AO2 TSNO
94908KDBQ DBQ20050203014010802/03/05 01:40:31  5-MIN KDBQ 030740Z AUTO 20006KT 3SM BR CLR M05/M07 A3028 750 88 -1400 200/06 RMK AO2 TSNO
94908KDBQ DBQ20050203014510802/03/05 01:45:31  5-MIN KDBQ 030745Z AUTO 20004KT 3SM BR CLR M05/M07 A3028 750 88 -1400 200/04 RMK AO2 TSNO
94908KDBQ DBQ20050203015012502/03/05 01:50:31  5-MIN KDBQ 030750Z AUTO 20005KT 3SM BR CLR M06/M07 A3028 750 88 -1500 200/05 RMK AO2 SLP267 T10561072 TSNO
94908KDBQ DBQ20050203015512502/03/05 01:55:31  5-MIN KDBQ 030755Z AUTO 20005KT 3SM BR CLR M05/M07 A3028 750 84 -1400 200/05 RMK AO2 SLP266 T10501072 TSNO
94908KDBQ DBQ20050203020010802/03/05 02:00:31  5-MIN KDBQ 030800Z AUTO 20006KT 3SM BR CLR M05/M07 A3027 750 84 -1400 200/06 RMK AO2 TSNO
94908KDBQ DBQ20050203020510802/03/05 02:05:31  5-MIN KDBQ 030805Z AUTO 20006KT 3SM BR CLR M05/M07 A3028 750 88 -1400 200/06 RMK AO2 TSNO
94908KDBQ DBQ20050203021010802/03/05 02:10:31  5-MIN KDBQ 030810Z AUTO 20006KT 3SM BR CLR M05/M07 A3027 750 88 -1400 200/06 RMK AO2 TSNO
94908KDBQ DBQ20050203021510802/03/05 02:15:31  5-MIN KDBQ 030815Z AUTO 20007KT 3SM BR CLR M06/M07 A3027 760 88 -1500 200/07 RMK AO2 TSNO
94908KDBQ DBQ20050203022010802/03/05 02:20:31  5-MIN KDBQ 030820Z AUTO 20007KT 3SM BR CLR M06/M07 A3027 760 88 -1500 200/07 RMK AO2 TSNO
94908KDBQ DBQ20050203022510802/03/05 02:25:31  5-MIN KDBQ 030825Z AUTO 21007KT 3SM BR CLR M05/M07 A3027 760 84 -1400 210/07 RMK AO2 TSNO
94908KDBQ DBQ20050203023010802/03/05 02:30:31  5-MIN KDBQ 030830Z AUTO 21007KT 3SM BR CLR M06/M07 A3027 750 88 -1500 210/07 RMK AO2 TSNO
94908KDBQ DBQ20050203023510802/03/05 02:35:31  5-MIN KDBQ 030835Z AUTO 21007KT 3SM BR CLR M06/M07 A3027 750 88 -1500 210/07 RMK AO2 TSNO
94908KDBQ DBQ20050203024010802/03/05 02:40:31  5-MIN KDBQ 030840Z AUTO 21007KT 3SM BR CLR M06/M07 A3027 750 88 -1500 210/07 RMK AO2 TSNO
94908KDBQ DBQ20050203024510802/03/05 02:45:31  5-MIN KDBQ 030845Z AUTO 21006KT 3SM BR CLR M06/M07 A3028 750 88 -1500 210/06 RMK AO2 TSNO
94908KDBQ DBQ20050203025013102/03/05 02:50:31  5-MIN KDBQ 030850Z AUTO 21007KT 3SM BR CLR M05/M07 A3028 750 88 -1500 210/07 RMK AO2 SLP269 T10501067 56012 TSNO
94908KDBQ DBQ20050203025513102/03/05 02:55:31  5-MIN KDBQ 030855Z AUTO 22006KT 3SM BR CLR M05/M07 A3028 740 84 -1500 210/06 RMK AO2 SLP270 T10501072 53002 TSNO
94908KDBQ DBQ20050203030010802/03/05 03:00:31  5-MIN KDBQ 030900Z AUTO 23006KT 3SM BR CLR M06/M07 A3029 740 92 -1500 230/06 RMK AO2 TSNO
94908KDBQ DBQ20050203030510802/03/05 03:05:31  5-MIN KDBQ 030905Z AUTO 22006KT 3SM BR CLR M06/M07 A3029 740 92 -1500 220/06 RMK AO2 TSNO
94908KDBQ DBQ20050203031010802/03/05 03:10:31  5-MIN KDBQ 030910Z AUTO 21006KT 3SM BR CLR M05/M07 A3028 740 88 -1500 210/06 RMK AO2 TSNO
94908KDBQ DBQ20050203031510802/03/05 03:15:31  5-MIN KDBQ 030915Z AUTO 22005KT 3SM BR CLR M05/M07 A3028 750 88 -1400 220/05 RMK AO2 TSNO
94908KDBQ DBQ20050203032010802/03/05 03:20:31  5-MIN KDBQ 030920Z AUTO 21006KT 3SM BR CLR M06/M07 A3028 750 92 -1500 210/06 RMK AO2 TSNO
94908KDBQ DBQ20050203032510802/03/05 03:25:31  5-MIN KDBQ 030925Z AUTO 20006KT 3SM BR CLR M06/M07 A3028 750 88 -1500 200/06 RMK AO2 TSNO
94908KDBQ DBQ20050203033011202/03/05 03:30:31  5-MIN KDBQ 030930Z AUTO 19006KT 2 1/2SM BR CLR M06/M07 A3027 760 92 -1600 190/06 RMK AO2 TSNO
94908KDBQ DBQ20050203033511202/03/05 03:35:31  5-MIN KDBQ 030935Z AUTO 19007KT 2 1/2SM BR CLR M06/M07 A3026 760 88 -1500 190/07 RMK AO2 TSNO
94908KDBQ DBQ20050203034011202/03/05 03:40:31  5-MIN KDBQ 030940Z AUTO 20007KT 2 1/2SM BR CLR M06/M07 A3026 760 88 -1500 200/07 RMK AO2 TSNO
94908KDBQ DBQ20050203034510802/03/05 03:45:31  5-MIN KDBQ 030945Z AUTO 21007KT 3SM BR CLR M06/M07 A3026 770 88 -1500 210/07 RMK AO2 TSNO
94908KDBQ DBQ20050203035012502/03/05 03:50:31  5-MIN KDBQ 030950Z AUTO 20007KT 3SM BR CLR M06/M07 A3026 760 88 -1500 200/07 RMK AO2 SLP262 T10561072 TSNO
94908KDBQ DBQ20050203035512502/03/05 03:55:31  5-MIN KDBQ 030955Z AUTO 20007KT 3SM BR CLR M06/M07 A3025 770 88 -1500 200/07 RMK AO2 SLP259 T10561072 TSNO
94908KDBQ DBQ20050203040010802/03/05 04:00:31  5-MIN KDBQ 031000Z AUTO 19008KT 3SM BR CLR M06/M07 A3025 780 88 -1500 190/08 RMK AO2 TSNO
94908KDBQ DBQ20050203040510802/03/05 04:05:31  5-MIN KDBQ 031005Z AUTO 19007KT 3SM BR CLR M05/M07 A3025 780 88 -1400 190/07 RMK AO2 TSNO
94908KDBQ DBQ20050203041010802/03/05 04:10:31  5-MIN KDBQ 031010Z AUTO 19007KT 3SM BR CLR M05/M07 A3025 770 88 -1400 190/07 RMK AO2 TSNO
94908KDBQ DBQ20050203041510802/03/05 04:15:31  5-MIN KDBQ 031015Z AUTO 20004KT 3SM BR CLR M05/M07 A3026 770 88 -1400 200/04 RMK AO2 TSNO
94908KDBQ DBQ20050203042010802/03/05 04:20:31  5-MIN KDBQ 031020Z AUTO 20004KT 3SM BR CLR M05/M07 A3025 770 88 -1400 200/04 RMK AO2 TSNO
94908KDBQ DBQ20050203042510802/03/05 04:25:31  5-MIN KDBQ 031025Z AUTO 21003KT 3SM BR CLR M06/M07 A3026 770 92 -1500 200/03 RMK AO2 TSNO
94908KDBQ DBQ20050203043010802/03/05 04:30:31  5-MIN KDBQ 031030Z AUTO 20003KT 3SM BR CLR M06/M07 A3026 770 88 -1500 200/03 RMK AO2 TSNO
94908KDBQ DBQ20050203043510802/03/05 04:35:31  5-MIN KDBQ 031035Z AUTO 19003KT 3SM BR CLR M06/M07 A3026 770 88 -1500 190/03 RMK AO2 TSNO
94908KDBQ DBQ20050203044010802/03/05 04:40:31  5-MIN KDBQ 031040Z AUTO 18005KT 3SM BR CLR M06/M07 A3025 780 88 -1500 180/05 RMK AO2 TSNO
94908KDBQ DBQ20050203044510802/03/05 04:45:31  5-MIN KDBQ 031045Z AUTO 20005KT 3SM BR CLR M06/M07 A3025 770 88 -1500 200/05 RMK AO2 TSNO
94908KDBQ DBQ20050203045012902/03/05 04:50:31  5-MIN KDBQ 031050Z AUTO 21004KT 2 1/2SM BR CLR M06/M07 A3025 770 88 -1500 210/04 RMK AO2 SLP259 T10561072 TSNO
94908KDBQ DBQ20050203045512902/03/05 04:55:31  5-MIN KDBQ 031055Z AUTO 20006KT 2 1/2SM BR CLR M06/M07 A3025 770 88 -1500 200/06 RMK AO2 SLP258 T10561072 TSNO
94908KDBQ DBQ20050203050011202/03/05 05:00:31  5-MIN KDBQ 031100Z AUTO 21006KT 2 1/2SM BR CLR M06/M07 A3025 780 88 -1500 200/06 RMK AO2 TSNO
94908KDBQ DBQ20050203050511202/03/05 05:05:31  5-MIN KDBQ 031105Z AUTO 22006KT 2 1/2SM BR CLR M06/M07 A3025 770 92 -1600 220/06 RMK AO2 TSNO
94908KDBQ DBQ20050203051011202/03/05 05:10:31  5-MIN KDBQ 031110Z AUTO 21006KT 2 1/2SM BR CLR M06/M08 A3025 780 88 -1600 210/06 RMK AO2 TSNO
94908KDBQ DBQ20050203051511202/03/05 05:15:31  5-MIN KDBQ 031115Z AUTO 22007KT 2 1/2SM BR CLR M06/M08 A3025 780 88 -1600 210/07 RMK AO2 TSNO
94908KDBQ DBQ20050203052011202/03/05 05:20:31  5-MIN KDBQ 031120Z AUTO 22007KT 2 1/2SM BR CLR M06/M07 A3025 780 88 -1500 220/07 RMK AO2 TSNO
94908KDBQ DBQ20050203052510802/03/05 05:25:31  5-MIN KDBQ 031125Z AUTO 23006KT 3SM BR CLR M06/M07 A3025 780 92 -1600 230/06 RMK AO2 TSNO
94908KDBQ DBQ20050203053011202/03/05 05:30:31  5-MIN KDBQ 031130Z AUTO 22006KT 2 1/2SM BR CLR M06/M07 A3025 770 88 -1500 220/06 RMK AO2 TSNO
94908KDBQ DBQ20050203053511202/03/05 05:35:31  5-MIN KDBQ 031135Z AUTO 22007KT 2 1/2SM BR CLR M06/M07 A3025 780 88 -1500 220/07 RMK AO2 TSNO
94908KDBQ DBQ20050203054011202/03/05 05:40:31  5-MIN KDBQ 031140Z AUTO 22007KT 2 1/2SM BR CLR M06/M07 A3025 780 88 -1500 220/07 RMK AO2 TSNO
94908KDBQ DBQ20050203054511202/03/05 05:45:31  5-MIN KDBQ 031145Z AUTO 22007KT 2 1/2SM BR CLR M06/M07 A3024 780 92 -1500 220/07 RMK AO2 TSNO
94908KDBQ DBQ20050203055014702/03/05 05:50:31  5-MIN KDBQ 031150Z AUTO 21008KT 2 1/2SM BR CLR M06/M07 A3024 790 88 -1500 210/08 RMK AO2 SLP253 T10561072 11050 21061 53002 TSNO
94908KDBQ DBQ20050203055513702/03/05 05:55:31  5-MIN KDBQ 031155Z 21008KT 2 1/2SM BR CLR M06/M07 A3023 790 92 -1500 210/08 RMK AO2 SLP254 T10611072 11050 21061 56017
94908KDBQ DBQ20050203060010202/03/05 06:00:31  5-MIN KDBQ 031200Z 21007KT 2 1/2SM BR CLR M06/M07 A3024 790 88 -1500 210/07 RMK AO2
94908KDBQ DBQ20050203060510202/03/05 06:05:31  5-MIN KDBQ 031205Z 21006KT 2 1/2SM BR CLR M06/M07 A3023 790 88 -1500 210/06 RMK AO2
94908KDBQ DBQ20050203061010202/03/05 06:10:31  5-MIN KDBQ 031210Z 21004KT 2 1/2SM BR CLR M06/M07 A3024 790 88 -1500 210/04 RMK AO2
94908KDBQ DBQ20050203061510202/03/05 06:15:31  5-MIN KDBQ 031215Z 22005KT 2 1/2SM BR CLR M06/M07 A3024 790 88 -1500 210/05 RMK AO2
94908KDBQ DBQ20050203062010202/03/05 06:20:31  5-MIN KDBQ 031220Z 22005KT 2 1/2SM BR CLR M06/M07 A3024 790 92 -1500 220/05 RMK AO2
94908KDBQ DBQ20050203062510202/03/05 06:25:31  5-MIN KDBQ 031225Z 23005KT 2 1/2SM BR CLR M05/M07 A3024 780 88 -1400 230/05 RMK AO2
94908KDBQ DBQ20050203063010202/03/05 06:30:31  5-MIN KDBQ 031230Z 23005KT 2 1/2SM BR CLR M06/M07 A3025 770 92 -1500 230/05 RMK AO2
94908KDBQ DBQ20050203063510202/03/05 06:35:31  5-MIN KDBQ 031235Z 23005KT 2 1/2SM BR CLR M06/M07 A3025 770 92 -1500 230/05 RMK AO2
94908KDBQ DBQ20050203064010202/03/05 06:40:31  5-MIN KDBQ 031240Z 23004KT 2 1/2SM BR CLR M06/M07 A3026 770 88 -1500 230/04 RMK AO2
94908KDBQ DBQ20050203064510202/03/05 06:45:31  5-MIN KDBQ 031245Z 24005KT 2 1/2SM BR CLR M06/M07 A3026 760 88 -1500 240/05 RMK AO2
94908KDBQ DBQ20050203065011902/03/05 06:50:31  5-MIN KDBQ 031250Z 23005KT 2 1/2SM BR CLR M06/M07 A3027 760 92 -1500 230/05 RMK AO2 SLP264 T10561067
94908KDBQ DBQ20050203065511902/03/05 06:55:31  5-MIN KDBQ 031255Z 22006KT 2 1/2SM BR CLR M05/M07 A3026 760 88 -1400 220/06 RMK AO2 SLP263 T10501067
94908KDBQ DBQ20050203070010202/03/05 07:00:31  5-MIN KDBQ 031300Z 21008KT 2 1/2SM BR CLR M06/M07 A3026 770 92 -1600 210/08 RMK AO2
94908KDBQ DBQ20050203070510202/03/05 07:05:31  5-MIN KDBQ 031305Z 21008KT 2 1/2SM BR CLR M06/M07 A3026 770 92 -1600 210/08 RMK AO2
94908KDBQ DBQ20050203071010202/03/05 07:10:31  5-MIN KDBQ 031310Z 20008KT 2 1/2SM BR CLR M06/M07 A3025 770 92 -1500 200/08 RMK AO2
94908KDBQ DBQ20050203071510202/03/05 07:15:31  5-MIN KDBQ 031315Z 21010KT 1 3/4SM BR CLR M06/M07 A3025 780 88 -1500 210/10 RMK AO2
94908KDBQ DBQ20050203072010202/03/05 07:20:31  5-MIN KDBQ 031320Z 21010KT 1 1/2SM BR CLR M06/M07 A3024 780 92 -1500 210/10 RMK AO2
94908KDBQ DBQ20050203072510202/03/05 07:25:31  5-MIN KDBQ 031325Z 20009KT 1 1/2SM BR CLR M05/M07 A3024 780 88 -1400 200/09 RMK AO2
94908KDBQ DBQ20050203073010202/03/05 07:30:31  5-MIN KDBQ 031330Z 20010KT 1 1/2SM BR CLR M06/M07 A3024 790 92 -1500 200/10 RMK AO2
94908KDBQ DBQ20050203073510202/03/05 07:35:31  5-MIN KDBQ 031335Z 20009KT 1 1/2SM BR CLR M06/M07 A3023 790 92 -1500 200/09 RMK AO2
94908KDBQ DBQ20050203074010202/03/05 07:40:31  5-MIN KDBQ 031340Z 20009KT 1 1/2SM BR CLR M06/M07 A3023 800 92 -1500 200/09 RMK AO2
94908KDBQ DBQ20050203074510202/03/05 07:45:31  5-MIN KDBQ 031345Z 21009KT 1 1/2SM BR CLR M05/M06 A3022 800 92 -1400 200/09 RMK AO2
94908KDBQ DBQ20050203075011902/03/05 07:50:31  5-MIN KDBQ 031350Z 21009KT 1 3/4SM BR CLR M05/M06 A3022 800 92 -1400 210/09 RMK AO2 SLP248 T10501061
94908KDBQ DBQ20050203075511902/03/05 07:55:31  5-MIN KDBQ 031355Z 21010KT 1 3/4SM BR CLR M04/M06 A3022 800 88 -1300 210/10 RMK AO2 SLP249 T10441061
94908KDBQ DBQ20050203080010202/03/05 08:00:31  5-MIN KDBQ 031400Z 22010KT 1 1/2SM BR CLR M05/M06 A3022 800 92 -1400 220/10 RMK AO2
94908KDBQ DBQ20050203080510202/03/05 08:05:31  5-MIN KDBQ 031405Z 23012KT 1 3/4SM BR CLR M04/M06 A3022 800 88 -1300 220/12 RMK AO2
94908KDBQ DBQ20050203081010202/03/05 08:10:31  5-MIN KDBQ 031410Z 23012KT 1 3/4SM BR CLR M04/M06 A3023 800 88 -1300 230/12 RMK AO2
94908KDBQ DBQ20050203081510502/03/05 08:15:31  5-MIN KDBQ 031415Z 24011KT 2SM BR CLR M04/M06 A3025 780 88 -1300 240/11 RMK AO2 PRESRR
94908KDBQ DBQ20050203082009802/03/05 08:20:31  5-MIN KDBQ 031420Z 23011KT 2SM BR CLR M03/M06 A3025 780 85 -1200 230/11 RMK AO2
94908KDBQ DBQ20050203082510202/03/05 08:25:31  5-MIN KDBQ 031425Z 23010KT 2 1/2SM BR CLR M03/M06 A3025 780 85 -1200 230/10 RMK AO2
94908KDBQ DBQ20050203083010202/03/05 08:30:31  5-MIN KDBQ 031430Z 23010KT 2 1/2SM BR CLR M03/M05 A3025 770 88 -1200 230/10 RMK AO2
94908KDBQ DBQ20050203083510202/03/05 08:35:31  5-MIN KDBQ 031435Z 24010KT 2 1/2SM BR CLR M03/M05 A3025 770 88 -1200 230/10 RMK AO2
94908KDBQ DBQ20050203084010202/03/05 08:40:31  5-MIN KDBQ 031440Z 24011KT 2 1/2SM BR CLR M03/M05 A3025 770 85 -1100 240/11 RMK AO2
94908KDBQ DBQ20050203084510202/03/05 08:45:31  5-MIN KDBQ 031445Z 24012KT 2 1/2SM HZ CLR M02/M05 A3025 780 81 -1100 240/12 RMK AO2
94908KDBQ DBQ20050203085012502/03/05 08:50:31  5-MIN KDBQ 031450Z 23012KT 2 1/2SM HZ CLR M02/M05 A3024 780 81 -1000 230/12 RMK AO2 SLP255 T10221050 56017
94908KDBQ DBQ20050203085512102/03/05 08:55:31  5-MIN KDBQ 031455Z 23013KT 3SM HZ CLR M02/M05 A3023 790 81 -1000 230/13 RMK AO2 SLP253 T10221050 51000
94908KDBQ DBQ20050203090009802/03/05 09:00:31  5-MIN KDBQ 031500Z 23013KT 3SM HZ CLR M02/M05 A3023 790 78 -1000 230/13 RMK AO2
94908KDBQ DBQ20050203090509802/03/05 09:05:31  5-MIN KDBQ 031505Z 23012KT 3SM HZ CLR M02/M04 A3023 790 81 -1000 230/12 RMK AO2
94908KDBQ DBQ20050203091009802/03/05 09:10:31  5-MIN KDBQ 031510Z 22010KT 3SM HZ CLR M02/M04 A3023 790 81 -1000 220/10 RMK AO2
94908KDBQ DBQ20050203091509802/03/05 09:15:31  5-MIN KDBQ 031515Z 23012KT 3SM HZ CLR M02/M04 A3022 800 81 -1000 230/12 RMK AO2
94908KDBQ DBQ20050203092009802/03/05 09:20:31  5-MIN KDBQ 031520Z 23014KT 3SM HZ CLR M02/M04 A3022 810 81 -1000 230/14 RMK AO2
94908KDBQ DBQ20050203092510402/03/05 09:25:31  5-MIN KDBQ 031525Z 24016KT 3SM HZ CLR M01/M04 A3021 810 78 -900 230/16 RMK AO2 PRESFR
94908KDBQ DBQ20050203093010402/03/05 09:30:31  5-MIN KDBQ 031530Z 23018KT 3SM HZ CLR M01/M04 A3019 830 78 -800 230/18 RMK AO2 PRESFR
94908KDBQ DBQ20050203093510402/03/05 09:35:31  5-MIN KDBQ 031535Z 23018KT 3SM HZ CLR M01/M04 A3018 840 78 -800 230/18 RMK AO2 PRESFR
94908KDBQ DBQ20050203094009602/03/05 09:40:31  5-MIN KDBQ 031540Z 23017KT 4SM HZ CLR 00/M04 A3020 820 75 -700 230/17 RMK AO2
94908KDBQ DBQ20050203094509602/03/05 09:45:31  5-MIN KDBQ 031545Z 24015KT 4SM HZ CLR 00/M04 A3020 820 75 -700 240/15 RMK AO2
94908KDBQ DBQ20050203095011302/03/05 09:50:31  5-MIN KDBQ 031550Z 24015KT 4SM HZ CLR 00/M04 A3021 810 75 -700 240/15 RMK AO2 SLP243 T00001039
94908KDBQ DBQ20050203095511302/03/05 09:55:31  5-MIN KDBQ 031555Z 24014KT 4SM HZ CLR 00/M04 A3021 810 75 -700 240/14 RMK AO2 SLP245 T00001039
94908KDBQ DBQ20050203100009602/03/05 10:00:31  5-MIN KDBQ 031600Z 24016KT 4SM HZ CLR 01/M03 A3022 810 75 -700 230/16 RMK AO2
94908KDBQ DBQ20050203100509602/03/05 10:05:31  5-MIN KDBQ 031605Z 23013KT 4SM HZ CLR 01/M03 A3022 800 75 -700 230/13 RMK AO2
94908KDBQ DBQ20050203101009602/03/05 10:10:31  5-MIN KDBQ 031610Z 23013KT 4SM HZ CLR 01/M03 A3022 800 75 -700 230/13 RMK AO2
94908KDBQ DBQ20050203101509602/03/05 10:15:31  5-MIN KDBQ 031615Z 23013KT 4SM HZ CLR 01/M03 A3022 800 75 -700 230/13 RMK AO2
94908KDBQ DBQ20050203102009602/03/05 10:20:31  5-MIN KDBQ 031620Z 23013KT 4SM HZ CLR 01/M03 A3022 800 75 -600 230/13 RMK AO2
94908KDBQ DBQ20050203102509602/03/05 10:25:31  5-MIN KDBQ 031625Z 23012KT 4SM HZ CLR 01/M03 A3023 800 75 -600 230/12 RMK AO2
94908KDBQ DBQ20050203103009602/03/05 10:30:31  5-MIN KDBQ 031630Z 24014KT 5SM HZ CLR 02/M03 A3022 800 72 -500 240/14 RMK AO2
94908KDBQ DBQ20050203103509602/03/05 10:35:31  5-MIN KDBQ 031635Z 23015KT 5SM HZ CLR 02/M03 A3023 800 72 -500 230/15 RMK AO2
94908KDBQ DBQ20050203104009602/03/05 10:40:31  5-MIN KDBQ 031640Z 23014KT 5SM HZ CLR 02/M02 A3023 800 75 -500 230/14 RMK AO2
94908KDBQ DBQ20050203104509602/03/05 10:45:31  5-MIN KDBQ 031645Z 23014KT 5SM HZ CLR 02/M02 A3023 790 75 -500 230/14 RMK AO2
94908KDBQ DBQ20050203105011302/03/05 10:50:31  5-MIN KDBQ 031650Z 22013KT 5SM HZ CLR 02/M02 A3023 790 72 -500 220/13 RMK AO2 SLP250 T00221022
94908KDBQ DBQ20050203105511302/03/05 10:55:31  5-MIN KDBQ 031655Z 23011KT 5SM HZ CLR 02/M02 A3023 790 72 -500 230/11 RMK AO2 SLP252 T00221022
94908KDBQ DBQ20050203110009602/03/05 11:00:31  5-MIN KDBQ 031700Z 23011KT 5SM HZ CLR 02/M02 A3024 780 72 -500 230/11 RMK AO2
94908KDBQ DBQ20050203110510302/03/05 11:05:31  5-MIN KDBQ 031705Z 29005KT 5SM HZ CLR 02/M02 A3025 770 75 -500 290/05 RMK AO2 PRESRR
94908KDBQ DBQ20050203111009602/03/05 11:10:31  5-MIN KDBQ 031710Z 28007KT 6SM HZ CLR 02/M02 A3026 770 75 -500 280/07 RMK AO2
94908KDBQ DBQ20050203111509602/03/05 11:15:31  5-MIN KDBQ 031715Z 27010KT 6SM HZ CLR 03/M02 A3025 770 69 -400 270/10 RMK AO2
94908KDBQ DBQ20050203112009602/03/05 11:20:31  5-MIN KDBQ 031720Z 27008KT 6SM HZ CLR 03/M02 A3025 780 69 -400 270/08 RMK AO2
94908KDBQ DBQ20050203112509602/03/05 11:25:31  5-MIN KDBQ 031725Z 26006KT 6SM HZ CLR 03/M02 A3024 780 72 -400 250/06 RMK AO2
94908KDBQ DBQ20050203113009602/03/05 11:30:31  5-MIN KDBQ 031730Z 27007KT 6SM HZ CLR 03/M02 A3024 780 72 -400 260/07 RMK AO2
94908KDBQ DBQ20050203113509602/03/05 11:35:31  5-MIN KDBQ 031735Z 26006KT 6SM HZ CLR 03/M02 A3024 780 69 -400 260/06 RMK AO2
94908KDBQ DBQ20050203114009602/03/05 11:40:31  5-MIN KDBQ 031740Z 24008KT 6SM HZ CLR 03/M02 A3023 790 72 -400 240/08 RMK AO2
94908KDBQ DBQ20050203114509602/03/05 11:45:31  5-MIN KDBQ 031745Z 25008KT 6SM HZ CLR 03/M02 A3023 800 72 -400 240/08 RMK AO2
94908KDBQ DBQ20050203115013102/03/05 11:50:31  5-MIN KDBQ 031750Z 25010KT 6SM HZ CLR 03/M02 A3022 800 72 -400 250/10 RMK AO2 SLP247 T00281017 10028 21061 51000
94908KDBQ DBQ20050203115513102/03/05 11:55:31  5-MIN KDBQ 031755Z 25011KT 6SM HZ CLR 03/M02 A3022 800 72 -400 250/11 RMK AO2 SLP247 T00281017 10028 21061 56004
94908KDBQ DBQ20050203120009602/03/05 12:00:31  5-MIN KDBQ 031800Z 24007KT 6SM HZ CLR 03/M02 A3022 800 72 -400 240/07 RMK AO2
94908KDBQ DBQ20050203120509602/03/05 12:05:31  5-MIN KDBQ 031805Z 26008KT 6SM HZ CLR 03/M02 A3024 790 72 -400 260/08 RMK AO2
94908KDBQ DBQ20050203121009602/03/05 12:10:31  5-MIN KDBQ 031810Z 28009KT 6SM HZ CLR 03/M02 A3023 790 70 -300 280/09 RMK AO2
94908KDBQ DBQ20050203121509302/03/05 12:15:31  5-MIN KDBQ 031815Z 26013KT 7SM CLR 03/M02 A3023 790 70 -300 260/13 RMK AO2
94908KDBQ DBQ20050203122009602/03/05 12:20:31  5-MIN KDBQ 031820Z 26010KT 6SM HZ CLR 03/M02 A3023 790 70 -300 260/10 RMK AO2
94908KDBQ DBQ20050203122509602/03/05 12:25:31  5-MIN KDBQ 031825Z 26010KT 6SM HZ CLR 03/M02 A3022 800 70 -300 260/10 RMK AO2
94908KDBQ DBQ20050203123009602/03/05 12:30:31  5-MIN KDBQ 031830Z 24011KT 6SM HZ CLR 03/M02 A3022 810 72 -400 240/11 RMK AO2
94908KDBQ DBQ20050203123509602/03/05 12:35:31  5-MIN KDBQ 031835Z 25010KT 6SM HZ CLR 03/M01 A3023 800 75 -400 250/10 RMK AO2
94908KDBQ DBQ20050203124009602/03/05 12:40:31  5-MIN KDBQ 031840Z 26010KT 6SM HZ CLR 03/M02 A3023 800 70 -300 260/10 RMK AO2
94908KDBQ DBQ20050203124509602/03/05 12:45:31  5-MIN KDBQ 031845Z 25008KT 6SM HZ CLR 03/M02 A3022 800 70 -300 250/08 RMK AO2
94908KDBQ DBQ20050203125011302/03/05 12:50:31  5-MIN KDBQ 031850Z 25010KT 6SM HZ CLR 03/M01 A3022 800 72 -300 250/10 RMK AO2 SLP247 T00331011
94908KDBQ DBQ20050203125511302/03/05 12:55:31  5-MIN KDBQ 031855Z 26010KT 6SM HZ CLR 03/M01 A3022 800 72 -300 250/10 RMK AO2 SLP246 T00331011
94908KDBQ DBQ20050203130009602/03/05 13:00:31  5-MIN KDBQ 031900Z 25011KT 6SM HZ CLR 03/M01 A3022 800 75 -400 250/11 RMK AO2
94908KDBQ DBQ20050203130509602/03/05 13:05:31  5-MIN KDBQ 031905Z 25011KT 6SM HZ CLR 03/M01 A3021 810 72 -300 250/11 RMK AO2
94908KDBQ DBQ20050203131009602/03/05 13:10:31  5-MIN KDBQ 031910Z 25011KT 6SM HZ CLR 03/M02 A3021 810 70 -300 250/11 RMK AO2
94908KDBQ DBQ20050203131509602/03/05 13:15:31  5-MIN KDBQ 031915Z 25010KT 6SM HZ CLR 03/M01 A3021 810 75 -400 250/10 RMK AO2
94908KDBQ DBQ20050203132009602/03/05 13:20:31  5-MIN KDBQ 031920Z 25010KT 6SM HZ CLR 03/M01 A3021 810 72 -300 250/10 RMK AO2
94908KDBQ DBQ20050203132509602/03/05 13:25:31  5-MIN KDBQ 031925Z 26012KT 6SM HZ CLR 03/M02 A3021 810 70 -300 260/12 RMK AO2
94908KDBQ DBQ20050203133009602/03/05 13:30:31  5-MIN KDBQ 031930Z 26010KT 6SM HZ CLR 03/M01 A3021 810 72 -300 260/10 RMK AO2
94908KDBQ DBQ20050203133509602/03/05 13:35:31  5-MIN KDBQ 031935Z 26010KT 6SM HZ CLR 03/M01 A3021 810 72 -300 260/10 RMK AO2
94908KDBQ DBQ20050203134009602/03/05 13:40:31  5-MIN KDBQ 031940Z 26008KT 6SM HZ CLR 03/M01 A3021 810 72 -300 260/08 RMK AO2
94908KDBQ DBQ20050203134509602/03/05 13:45:31  5-MIN KDBQ 031945Z 26008KT 6SM HZ CLR 03/M01 A3021 810 72 -300 260/08 RMK AO2
94908KDBQ DBQ20050203135011302/03/05 13:50:31  5-MIN KDBQ 031950Z 26009KT 6SM HZ CLR 03/M01 A3021 810 72 -300 260/09 RMK AO2 SLP242 T00331011
94908KDBQ DBQ20050203135511302/03/05 13:55:31  5-MIN KDBQ 031955Z 25008KT 6SM HZ CLR 03/M01 A3021 810 72 -300 250/08 RMK AO2 SLP242 T00331011
94908KDBQ DBQ20050203140009602/03/05 14:00:31  5-MIN KDBQ 032000Z 27007KT 6SM HZ CLR 03/M01 A3021 810 72 -300 260/07 RMK AO2
94908KDBQ DBQ20050203140509602/03/05 14:05:31  5-MIN KDBQ 032005Z 27011KT 6SM HZ CLR 03/M02 A3021 810 70 -300 270/11 RMK AO2
94908KDBQ DBQ20050203141009602/03/05 14:10:31  5-MIN KDBQ 032010Z 27011KT 6SM HZ CLR 03/M02 A3021 810 70 -300 270/11 RMK AO2
94908KDBQ DBQ20050203141509602/03/05 14:15:31  5-MIN KDBQ 032015Z 27009KT 5SM HZ CLR 03/M01 A3021 810 72 -300 270/09 RMK AO2
94908KDBQ DBQ20050203142009602/03/05 14:20:31  5-MIN KDBQ 032020Z 26006KT 5SM HZ CLR 03/M01 A3021 810 72 -300 260/06 RMK AO2
94908KDBQ DBQ20050203142509602/03/05 14:25:31  5-MIN KDBQ 032025Z 27006KT 5SM HZ CLR 03/M01 A3021 810 72 -300 270/06 RMK AO2
94908KDBQ DBQ20050203143009602/03/05 14:30:31  5-MIN KDBQ 032030Z 27009KT 5SM HZ CLR 03/M01 A3021 810 72 -300 270/09 RMK AO2
94908KDBQ DBQ20050203143509602/03/05 14:35:31  5-MIN KDBQ 032035Z 27008KT 5SM HZ CLR 03/M01 A3021 810 72 -300 270/08 RMK AO2
94908KDBQ DBQ20050203144009602/03/05 14:40:31  5-MIN KDBQ 032040Z 27008KT 5SM HZ CLR 03/M01 A3022 810 72 -300 270/08 RMK AO2
94908KDBQ DBQ20050203144509602/03/05 14:45:31  5-MIN KDBQ 032045Z 27010KT 5SM HZ CLR 03/M01 A3022 800 72 -300 270/10 RMK AO2
94908KDBQ DBQ20050203145011902/03/05 14:50:31  5-MIN KDBQ 032050Z 27008KT 5SM HZ CLR 03/M01 A3022 800 72 -300 270/08 RMK AO2 SLP247 T00331011 56004
94908KDBQ DBQ20050203145511902/03/05 14:55:31  5-MIN KDBQ 032055Z 28010KT 5SM HZ CLR 03/M01 A3022 800 72 -300 280/10 RMK AO2 SLP248 T00331011 53001
94908KDBQ DBQ20050203150009602/03/05 15:00:31  5-MIN KDBQ 032100Z 27009KT 5SM HZ CLR 03/M01 A3022 800 72 -300 270/09 RMK AO2
94908KDBQ DBQ20050203150509602/03/05 15:05:31  5-MIN KDBQ 032105Z 27010KT 5SM HZ CLR 03/M01 A3022 800 72 -300 270/10 RMK AO2
94908KDBQ DBQ20050203151009602/03/05 15:10:31  5-MIN KDBQ 032110Z 28011KT 5SM HZ CLR 03/M01 A3022 800 72 -300 280/11 RMK AO2
94908KDBQ DBQ20050203151509602/03/05 15:15:31  5-MIN KDBQ 032115Z 27009KT 5SM HZ CLR 03/M01 A3023 800 72 -300 270/09 RMK AO2
94908KDBQ DBQ20050203152009602/03/05 15:20:31  5-MIN KDBQ 032120Z 26008KT 5SM HZ CLR 03/M01 A3023 800 72 -300 260/08 RMK AO2
94908KDBQ DBQ20050203152509602/03/05 15:25:31  5-MIN KDBQ 032125Z 25005KT 5SM HZ CLR 03/M01 A3023 790 79 -400 250/05 RMK AO2
94908KDBQ DBQ20050203153009602/03/05 15:30:31  5-MIN KDBQ 032130Z 25006KT 5SM HZ CLR 03/M01 A3023 790 79 -400 240/06 RMK AO2
94908KDBQ DBQ20050203153509602/03/05 15:35:31  5-MIN KDBQ 032135Z 27006KT 5SM HZ CLR 03/M01 A3023 790 79 -400 270/06 RMK AO2
94908KDBQ DBQ20050203154009602/03/05 15:40:31  5-MIN KDBQ 032140Z 28007KT 5SM HZ CLR 03/M01 A3023 790 72 -300 270/07 RMK AO2
94908KDBQ DBQ20050203154509602/03/05 15:45:31  5-MIN KDBQ 032145Z 27006KT 5SM HZ CLR 03/M01 A3023 790 72 -300 270/06 RMK AO2
94908KDBQ DBQ20050203155011302/03/05 15:50:31  5-MIN KDBQ 032150Z 26007KT 5SM HZ CLR 03/M01 A3023 790 75 -400 260/07 RMK AO2 SLP251 T00281011
94908KDBQ DBQ20050203155511302/03/05 15:55:31  5-MIN KDBQ 032155Z 25006KT 5SM HZ CLR 03/M01 A3023 790 79 -400 250/06 RMK AO2 SLP252 T00281006
94908KDBQ DBQ20050203160009602/03/05 16:00:31  5-MIN KDBQ 032200Z 26005KT 5SM HZ CLR 02/M01 A3024 790 82 -500 260/05 RMK AO2
94908KDBQ DBQ20050203160509602/03/05 16:05:31  5-MIN KDBQ 032205Z 27004KT 5SM HZ CLR 03/M01 A3023 790 75 -400 270/04 RMK AO2
94908KDBQ DBQ20050203161009602/03/05 16:10:31  5-MIN KDBQ 032210Z 26003KT 5SM HZ CLR 03/M01 A3024 790 75 -400 250/03 RMK AO2
94908KDBQ DBQ20050203161509602/03/05 16:15:31  5-MIN KDBQ 032215Z 25003KT 5SM HZ CLR 03/M01 A3024 790 79 -400 250/03 RMK AO2
94908KDBQ DBQ20050203162009602/03/05 16:20:31  5-MIN KDBQ 032220Z 26005KT 5SM HZ CLR 03/M01 A3024 780 75 -400 260/05 RMK AO2
94908KDBQ DBQ20050203162509602/03/05 16:25:31  5-MIN KDBQ 032225Z 27005KT 5SM HZ CLR 03/M01 A3024 780 75 -400 270/05 RMK AO2
94908KDBQ DBQ20050203163009602/03/05 16:30:31  5-MIN KDBQ 032230Z 27006KT 5SM HZ CLR 03/M01 A3024 780 75 -400 260/06 RMK AO2
94908KDBQ DBQ20050203163509602/03/05 16:35:31  5-MIN KDBQ 032235Z 26008KT 5SM HZ CLR 03/M01 A3024 780 75 -400 260/08 RMK AO2
94908KDBQ DBQ20050203164009602/03/05 16:40:31  5-MIN KDBQ 032240Z 26007KT 5SM HZ CLR 03/M01 A3024 780 75 -400 260/07 RMK AO2
94908KDBQ DBQ20050203164509602/03/05 16:45:31  5-MIN KDBQ 032245Z 25005KT 5SM HZ CLR 03/M01 A3025 780 75 -400 250/05 RMK AO2
94908KDBQ DBQ20050203165011302/03/05 16:50:31  5-MIN KDBQ 032250Z 25007KT 5SM HZ CLR 02/M01 A3025 780 78 -500 250/07 RMK AO2 SLP257 T00221011
94908KDBQ DBQ20050203165511302/03/05 16:55:31  5-MIN KDBQ 032255Z 26008KT 4SM HZ CLR 02/M01 A3025 780 78 -500 260/08 RMK AO2 SLP258 T00221011
94908KDBQ DBQ20050203170009602/03/05 17:00:31  5-MIN KDBQ 032300Z 26007KT 4SM HZ CLR 02/M01 A3025 770 78 -500 260/07 RMK AO2
94908KDBQ DBQ20050203170509602/03/05 17:05:31  5-MIN KDBQ 032305Z 26006KT 4SM HZ CLR 02/M01 A3025 770 82 -600 260/06 RMK AO2
94908KDBQ DBQ20050203171009602/03/05 17:10:31  5-MIN KDBQ 032310Z 27005KT 4SM HZ CLR 02/M01 A3025 770 82 -600 270/05 RMK AO2
94908KDBQ DBQ20050203171509602/03/05 17:15:31  5-MIN KDBQ 032315Z 26005KT 4SM HZ CLR 02/M02 A3025 770 78 -600 260/05 RMK AO2
94908KDBQ DBQ20050203172009602/03/05 17:20:31  5-MIN KDBQ 032320Z 00000KT 4SM HZ CLR 02/M02 A3026 770 78 -600 000/00 RMK AO2
94908KDBQ DBQ20050203172509602/03/05 17:25:31  5-MIN KDBQ 032325Z 27003KT 4SM HZ CLR 02/M02 A3026 770 78 -600 270/03 RMK AO2
94908KDBQ DBQ20050203173009602/03/05 17:30:31  5-MIN KDBQ 032330Z 29004KT 4SM HZ CLR 02/M01 A3026 770 78 -500 290/04 RMK AO2
94908KDBQ DBQ20050203173509602/03/05 17:35:31  5-MIN KDBQ 032335Z 29003KT 4SM HZ CLR 02/M01 A3026 770 78 -500 290/03 RMK AO2
94908KDBQ DBQ20050203174009602/03/05 17:40:31  5-MIN KDBQ 032340Z 00000KT 5SM HZ CLR 02/M02 A3026 770 78 -600 000/00 RMK AO2
94908KDBQ DBQ20050203174509602/03/05 17:45:31  5-MIN KDBQ 032345Z 00000KT 6SM HZ CLR 02/M02 A3026 770 78 -600 000/00 RMK AO2
94908KDBQ DBQ20050203175013102/03/05 17:50:31  5-MIN KDBQ 032350Z 00000KT 6SM HZ CLR 02/M02 A3026 760 75 -500 000/00 RMK AO2 SLP262 T00221017 10033 20017 53001
94908KDBQ DBQ20050203175513102/03/05 17:55:31  5-MIN KDBQ 032355Z 00000KT 6SM HZ CLR 02/M02 A3026 760 78 -600 000/00 RMK AO2 SLP263 T00171017 10033 20017 53013
94908KDBQ DBQ20050203180009602/03/05 18:00:31  5-MIN KDBQ 040000Z 00000KT 5SM HZ CLR 02/M02 A3027 760 78 -600 000/00 RMK AO2
94908KDBQ DBQ20050203180509602/03/05 18:05:31  5-MIN KDBQ 040005Z 00000KT 5SM HZ CLR 01/M02 A3027 760 82 -700 000/00 RMK AO2
94908KDBQ DBQ20050203181009602/03/05 18:10:31  5-MIN KDBQ 040010Z 00000KT 5SM HZ CLR 01/M02 A3027 760 82 -700 000/00 RMK AO2
94908KDBQ DBQ20050203181509602/03/05 18:15:31  5-MIN KDBQ 040015Z 00000KT 5SM HZ CLR 01/M02 A3027 760 82 -700 000/00 RMK AO2
94908KDBQ DBQ20050203182009602/03/05 18:20:31  5-MIN KDBQ 040020Z 26003KT 5SM HZ CLR 01/M02 A3027 760 82 -700 250/03 RMK AO2
94908KDBQ DBQ20050203182509602/03/05 18:25:31  5-MIN KDBQ 040025Z 23003KT 5SM HZ CLR 01/M02 A3027 760 82 -700 230/03 RMK AO2
94908KDBQ DBQ20050203183009602/03/05 18:30:31  5-MIN KDBQ 040030Z 25004KT 5SM HZ CLR 01/M02 A3027 760 82 -700 250/04 RMK AO2
94908KDBQ DBQ20050203183509602/03/05 18:35:31  5-MIN KDBQ 040035Z 00000KT 5SM HZ CLR 01/M02 A3027 760 82 -700 000/00 RMK AO2
94908KDBQ DBQ20050203184009602/03/05 18:40:31  5-MIN KDBQ 040040Z 00000KT 5SM HZ CLR 01/M02 A3027 750 82 -700 000/00 RMK AO2
94908KDBQ DBQ20050203184509602/03/05 18:45:31  5-MIN KDBQ 040045Z 27003KT 5SM HZ CLR 01/M02 A3027 750 82 -700 270/03 RMK AO2
94908KDBQ DBQ20050203185011302/03/05 18:50:31  5-MIN KDBQ 040050Z 27004KT 5SM HZ CLR 02/M02 A3027 750 78 -600 270/04 RMK AO2 SLP266 T00171017
94908KDBQ DBQ20050203185511302/03/05 18:55:31  5-MIN KDBQ 040055Z 27003KT 5SM HZ CLR 01/M02 A3028 750 82 -700 260/03 RMK AO2 SLP267 T00111017
94908KDBQ DBQ20050203190009602/03/05 19:00:31  5-MIN KDBQ 040100Z 26004KT 5SM HZ CLR 01/M02 A3028 750 82 -700 260/04 RMK AO2
94908KDBQ DBQ20050203190509602/03/05 19:05:31  5-MIN KDBQ 040105Z 25004KT 5SM BR CLR 01/M02 A3028 750 85 -700 250/04 RMK AO2
94908KDBQ DBQ20050203191009602/03/05 19:10:31  5-MIN KDBQ 040110Z 23003KT 5SM BR CLR 01/M02 A3028 750 85 -700 230/03 RMK AO2
94908KDBQ DBQ20050203191509602/03/05 19:15:31  5-MIN KDBQ 040115Z 00000KT 5SM BR CLR 01/M02 A3028 740 85 -700 000/00 RMK AO2
94908KDBQ DBQ20050203192009602/03/05 19:20:31  5-MIN KDBQ 040120Z 00000KT 5SM BR CLR 01/M02 A3028 740 85 -700 000/00 RMK AO2
94908KDBQ DBQ20050203192509602/03/05 19:25:31  5-MIN KDBQ 040125Z 25003KT 5SM BR CLR 00/M02 A3028 740 88 -800 250/03 RMK AO2
94908KDBQ DBQ20050203193009602/03/05 19:30:31  5-MIN KDBQ 040130Z 24004KT 5SM BR CLR 01/M02 A3028 740 85 -700 240/04 RMK AO2
94908KDBQ DBQ20050203193509602/03/05 19:35:31  5-MIN KDBQ 040135Z 23003KT 5SM BR CLR 00/M02 A3029 740 85 -800 230/03 RMK AO2
94908KDBQ DBQ20050203194010602/03/05 19:40:31  5-MIN KDBQ 040140Z AUTO 23003KT 4SM BR CLR 00/M02 A3029 740 85 -800 230/03 RMK AO2 TSNO
94908KDBQ DBQ20050203194510702/03/05 19:45:31  5-MIN KDBQ 040145Z AUTO 00000KT 4SM BR CLR M01/M02 A3029 740 88 -900 000/00 RMK AO2 TSNO
94908KDBQ DBQ20050203195012302/03/05 19:50:31  5-MIN KDBQ 040150Z AUTO 00000KT 4SM BR CLR 00/M02 A3029 740 85 -800 000/00 RMK AO2 SLP270 T00001022 TSNO
94908KDBQ DBQ20050203195512302/03/05 19:55:31  5-MIN KDBQ 040155Z AUTO 23003KT 4SM BR CLR 00/M02 A3029 740 85 -800 230/03 RMK AO2 SLP270 T00001022 TSNO
94908KDBQ DBQ20050203200010602/03/05 20:00:31  5-MIN KDBQ 040200Z AUTO 24003KT 4SM BR CLR 00/M02 A3029 740 85 -800 240/03 RMK AO2 TSNO
94908KDBQ DBQ20050203200510702/03/05 20:05:31  5-MIN KDBQ 040205Z AUTO 25003KT 4SM BR CLR M01/M02 A3029 740 88 -900 250/03 RMK AO2 TSNO
94908KDBQ DBQ20050203201010602/03/05 20:10:31  5-MIN KDBQ 040210Z AUTO 27004KT 4SM BR CLR 00/M02 A3029 740 88 -800 270/04 RMK AO2 TSNO
94908KDBQ DBQ20050203201510602/03/05 20:15:31  5-MIN KDBQ 040215Z AUTO 27003KT 4SM BR CLR 00/M02 A3028 740 88 -800 260/03 RMK AO2 TSNO
94908KDBQ DBQ20050203202010702/03/05 20:20:31  5-MIN KDBQ 040220Z AUTO 00000KT 4SM BR CLR M01/M02 A3028 740 88 -900 000/00 RMK AO2 TSNO
94908KDBQ DBQ20050203202510702/03/05 20:25:31  5-MIN KDBQ 040225Z AUTO 00000KT 4SM BR CLR M01/M02 A3028 740 88 -900 000/00 RMK AO2 TSNO
94908KDBQ DBQ20050203203010702/03/05 20:30:31  5-MIN KDBQ 040230Z AUTO 00000KT 4SM BR CLR M01/M02 A3028 740 88 -900 000/00 RMK AO2 TSNO
94908KDBQ DBQ20050203203510702/03/05 20:35:31  5-MIN KDBQ 040235Z AUTO 00000KT 4SM BR CLR M01/M02 A3029 740 88 -900 000/00 RMK AO2 TSNO
94908KDBQ DBQ20050203204010702/03/05 20:40:31  5-MIN KDBQ 040240Z AUTO 00000KT 4SM BR CLR M01/M02 A3029 740 88 -900 000/00 RMK AO2 TSNO
94908KDBQ DBQ20050203204510702/03/05 20:45:31  5-MIN KDBQ 040245Z AUTO 00000KT 4SM BR CLR M01/M02 A3028 740 88 -900 000/00 RMK AO2 TSNO
94908KDBQ DBQ20050203205013102/03/05 20:50:31  5-MIN KDBQ 040250Z AUTO 00000KT 4SM BR CLR M01/M03 A3028 740 88 -1000 000/00 RMK AO2 SLP270 T10111028 53013 TSNO
94908KDBQ DBQ20050203205513102/03/05 20:55:31  5-MIN KDBQ 040255Z AUTO 00000KT 4SM BR CLR M01/M03 A3029 740 88 -1000 000/00 RMK AO2 SLP270 T10111028 50007 TSNO
94908KDBQ DBQ20050203210010702/03/05 21:00:31  5-MIN KDBQ 040300Z AUTO 00000KT 4SM BR CLR M01/M03 A3029 740 85 -900 000/00 RMK AO2 TSNO
94908KDBQ DBQ20050203210510802/03/05 21:05:31  5-MIN KDBQ 040305Z AUTO 00000KT 4SM BR CLR M01/M02 A3029 740 92 -1000 000/00 RMK AO2 TSNO
94908KDBQ DBQ20050203211010802/03/05 21:10:31  5-MIN KDBQ 040310Z AUTO 21003KT 4SM BR CLR M01/M03 A3029 740 88 -1000 210/03 RMK AO2 TSNO
94908KDBQ DBQ20050203211510802/03/05 21:15:31  5-MIN KDBQ 040315Z AUTO 00000KT 4SM BR CLR M02/M03 A3029 740 92 -1000 000/00 RMK AO2 TSNO
94908KDBQ DBQ20050203212010802/03/05 21:20:31  5-MIN KDBQ 040320Z AUTO 00000KT 4SM BR CLR M02/M03 A3029 740 88 -1000 000/00 RMK AO2 TSNO
94908KDBQ DBQ20050203212510802/03/05 21:25:31  5-MIN KDBQ 040325Z AUTO 00000KT 4SM BR CLR M01/M03 A3028 740 88 -1000 000/00 RMK AO2 TSNO
94908KDBQ DBQ20050203213010702/03/05 21:30:31  5-MIN KDBQ 040330Z AUTO 00000KT 4SM BR CLR M01/M02 A3028 740 88 -900 000/00 RMK AO2 TSNO
94908KDBQ DBQ20050203213510802/03/05 21:35:31  5-MIN KDBQ 040335Z AUTO 00000KT 4SM BR CLR M02/M03 A3028 740 92 -1000 000/00 RMK AO2 TSNO
94908KDBQ DBQ20050203214010802/03/05 21:40:31  5-MIN KDBQ 040340Z AUTO 00000KT 4SM BR CLR M02/M03 A3028 740 92 -1100 000/00 RMK AO2 TSNO
94908KDBQ DBQ20050203214510702/03/05 21:45:31  5-MIN KDBQ 040345Z AUTO 00000KT 4SM BR CLR M01/M03 A3028 740 85 -900 000/00 RMK AO2 TSNO
94908KDBQ DBQ20050203215012302/03/05 21:50:31  5-MIN KDBQ 040350Z AUTO 00000KT 4SM BR CLR 00/M02 A3028 750 88 -800 000/00 RMK AO2 SLP267 T00001017 TSNO
94908KDBQ DBQ20050203215512402/03/05 21:55:31  5-MIN KDBQ 040355Z AUTO 00000KT 4SM BR CLR M01/M02 A3028 750 88 -900 000/00 RMK AO2 SLP267 T10061022 TSNO
94908KDBQ DBQ20050203220010802/03/05 22:00:31  5-MIN KDBQ 040400Z AUTO 00000KT 4SM BR CLR M02/M03 A3028 750 92 -1000 000/00 RMK AO2 TSNO
94908KDBQ DBQ20050203220510802/03/05 22:05:31  5-MIN KDBQ 040405Z AUTO 00000KT 4SM BR CLR M02/M03 A3028 750 92 -1100 000/00 RMK AO2 TSNO
94908KDBQ DBQ20050203221010702/03/05 22:10:31  5-MIN KDBQ 040410Z AUTO 00000KT 4SM BR CLR M01/M03 A3028 750 88 -900 000/00 RMK AO2 TSNO
94908KDBQ DBQ20050203221510702/03/05 22:15:31  5-MIN KDBQ 040415Z AUTO 00000KT 4SM BR CLR M01/M03 A3027 750 88 -900 000/00 RMK AO2 TSNO
94908KDBQ DBQ20050203222010702/03/05 22:20:31  5-MIN KDBQ 040420Z AUTO 00000KT 4SM BR CLR M01/M03 A3027 750 88 -900 000/00 RMK AO2 TSNO
94908KDBQ DBQ20050203222510702/03/05 22:25:31  5-MIN KDBQ 040425Z AUTO 00000KT 4SM BR CLR M01/M03 A3027 750 88 -900 000/00 RMK AO2 TSNO
94908KDBQ DBQ20050203223010802/03/05 22:30:31  5-MIN KDBQ 040430Z AUTO 00000KT 4SM BR CLR M02/M03 A3027 750 92 -1000 000/00 RMK AO2 TSNO
94908KDBQ DBQ20050203223510802/03/05 22:35:31  5-MIN KDBQ 040435Z AUTO 00000KT 4SM BR CLR M02/M04 A3027 750 88 -1100 000/00 RMK AO2 TSNO
94908KDBQ DBQ20050203224010802/03/05 22:40:31  5-MIN KDBQ 040440Z AUTO 00000KT 4SM BR CLR M02/M03 A3027 750 88 -1000 000/00 RMK AO2 TSNO
94908KDBQ DBQ20050203224510802/03/05 22:45:31  5-MIN KDBQ 040445Z AUTO 00000KT 4SM BR CLR M02/M03 A3027 750 88 -1000 000/00 RMK AO2 TSNO
94908KDBQ DBQ20050203225012502/03/05 22:50:31  5-MIN KDBQ 040450Z AUTO 00000KT 4SM BR CLR M03/M04 A3027 750 92 -1200 000/00 RMK AO2 SLP263 T10281039 TSNO
94908KDBQ DBQ20050203225512502/03/05 22:55:31  5-MIN KDBQ 040455Z AUTO 00000KT 4SM BR CLR M03/M04 A3027 750 88 -1200 000/00 RMK AO2 SLP264 T10281044 TSNO
94908KDBQ DBQ20050203230010802/03/05 23:00:31  5-MIN KDBQ 040500Z AUTO 00000KT 4SM BR CLR M02/M04 A3027 760 85 -1100 000/00 RMK AO2 TSNO
94908KDBQ DBQ20050203230510802/03/05 23:05:31  5-MIN KDBQ 040505Z AUTO 00000KT 4SM BR CLR M02/M04 A3027 760 88 -1100 000/00 RMK AO2 TSNO
94908KDBQ DBQ20050203231010802/03/05 23:10:31  5-MIN KDBQ 040510Z AUTO 00000KT 4SM BR CLR M03/M04 A3027 760 88 -1200 000/00 RMK AO2 TSNO
94908KDBQ DBQ20050203231510802/03/05 23:15:31  5-MIN KDBQ 040515Z AUTO 00000KT 4SM BR CLR M03/M04 A3027 760 92 -1200 000/00 RMK AO2 TSNO
94908KDBQ DBQ20050203232010802/03/05 23:20:31  5-MIN KDBQ 040520Z AUTO 00000KT 3SM BR CLR M03/M04 A3027 760 92 -1100 000/00 RMK AO2 TSNO
94908KDBQ DBQ20050203232510802/03/05 23:25:31  5-MIN KDBQ 040525Z AUTO 00000KT 3SM BR CLR M03/M04 A3026 760 88 -1100 000/00 RMK AO2 TSNO
94908KDBQ DBQ20050203233010802/03/05 23:30:31  5-MIN KDBQ 040530Z AUTO 21003KT 3SM BR CLR M03/M04 A3026 770 92 -1100 210/03 RMK AO2 TSNO
94908KDBQ DBQ20050203233510802/03/05 23:35:31  5-MIN KDBQ 040535Z AUTO 00000KT 3SM BR CLR M03/M04 A3026 770 92 -1200 000/00 RMK AO2 TSNO
94908KDBQ DBQ20050203234010802/03/05 23:40:31  5-MIN KDBQ 040540Z AUTO 00000KT 3SM BR CLR M03/M04 A3026 760 92 -1200 000/00 RMK AO2 TSNO
94908KDBQ DBQ20050203234510802/03/05 23:45:31  5-MIN KDBQ 040545Z AUTO 00000KT 3SM BR CLR M03/M04 A3026 760 92 -1200 000/00 RMK AO2 TSNO
94908KDBQ DBQ20050203235015302/03/05 23:50:31  5-MIN KDBQ 040550Z AUTO 00000KT 3SM BR CLR M03/M04 A3026 760 88 -1100 000/00 RMK AO2 SLP260 T10281044 10017 21033 400331061 50007 TSNO
94908KDBQ DBQ20050203235515302/03/05 23:55:31  5-MIN KDBQ 040555Z AUTO 22003KT 3SM BR CLR M03/M04 A3026 760 92 -1200 220/03 RMK AO2 SLP260 T10331044 10017 21033 400331061 58008 TSNO
94908KDBQ DBQ20050204000010802/04/05 00:00:38  5-MIN KDBQ 040600Z AUTO 23003KT 3SM BR CLR M04/M05 A3026 760 92 -1300 230/03 RMK AO2 TSNO
94908KDBQ DBQ20050204000510802/04/05 00:05:31  5-MIN KDBQ 040605Z AUTO 22004KT 3SM BR CLR M04/M05 A3026 770 92 -1300 220/04 RMK AO2 TSNO
94908KDBQ DBQ20050204001010802/04/05 00:10:31  5-MIN KDBQ 040610Z AUTO 21004KT 3SM BR CLR M04/M05 A3026 770 92 -1300 210/04 RMK AO2 TSNO
94908KDBQ DBQ20050204001510802/04/05 00:15:32  5-MIN KDBQ 040615Z AUTO 22005KT 3SM BR CLR M04/M05 A3026 770 92 -1300 220/05 RMK AO2 TSNO
94908KDBQ DBQ20050204002011202/04/05 00:20:31  5-MIN KDBQ 040620Z AUTO 21005KT 2 1/2SM BR CLR M03/M05 A3026 770 88 -1200 200/05 RMK AO2 TSNO
94908KDBQ DBQ20050204002511202/04/05 00:25:31  5-MIN KDBQ 040625Z AUTO 20004KT 2 1/2SM BR CLR M03/M04 A3025 770 88 -1100 200/04 RMK AO2 TSNO
94908KDBQ DBQ20050204003011202/04/05 00:30:31  5-MIN KDBQ 040630Z AUTO 21005KT 2 1/2SM BR CLR M03/M04 A3025 770 92 -1100 200/05 RMK AO2 TSNO
94908KDBQ DBQ20050204003511202/04/05 00:35:31  5-MIN KDBQ 040635Z AUTO 20006KT 2 1/2SM BR CLR M03/M04 A3025 770 92 -1200 200/06 RMK AO2 TSNO
94908KDBQ DBQ20050204004011202/04/05 00:40:31  5-MIN KDBQ 040640Z AUTO 21006KT 2 1/2SM BR CLR M03/M04 A3025 770 92 -1100 210/06 RMK AO2 TSNO
94908KDBQ DBQ20050204004510802/04/05 00:45:31  5-MIN KDBQ 040645Z AUTO 21006KT 2SM BR CLR M04/M04 A3025 770 96 -1300 210/06 RMK AO2 TSNO
94908KDBQ DBQ20050204005012502/04/05 00:50:31  5-MIN KDBQ 040650Z AUTO 21006KT 2SM BR CLR M04/M06 A3025 770 92 -1300 210/06 RMK AO2 SLP258 T10441056 TSNO
94908KDBQ DBQ20050204005512902/04/05 00:55:31  5-MIN KDBQ 040655Z AUTO 20005KT 1 3/4SM BR CLR M04/M05 A3025 770 92 -1300 200/05 RMK AO2 SLP257 T10391050 TSNO
94908KDBQ DBQ20050204010011202/04/05 01:00:31  5-MIN KDBQ 040700Z AUTO 21005KT 1 3/4SM BR CLR M03/M04 A3025 770 92 -1200 200/05 RMK AO2 TSNO
94908KDBQ DBQ20050204010511202/04/05 01:05:31  5-MIN KDBQ 040705Z AUTO 20005KT 1 3/4SM BR CLR M03/M04 A3025 770 96 -1200 200/05 RMK AO2 TSNO
94908KDBQ DBQ20050204011011302/04/05 01:10:31  5-MIN KDBQ 040710Z AUTO 20004KT 1 3/4SM BR CLR M04/M04 A3025 770 100 -1300 200/04 RMK AO2 TSNO
94908KDBQ DBQ20050204011511202/04/05 01:15:31  5-MIN KDBQ 040715Z AUTO 20004KT 1 1/2SM BR CLR M04/M04 A3026 770 96 -1300 200/04 RMK AO2 TSNO
94908KDBQ DBQ20050204012011202/04/05 01:20:31  5-MIN KDBQ 040720Z AUTO 20006KT 1 1/2SM BR CLR M04/M04 A3025 770 96 -1300 200/06 RMK AO2 TSNO
94908KDBQ DBQ20050204012511202/04/05 01:25:31  5-MIN KDBQ 040725Z AUTO 20006KT 1 1/2SM BR CLR M03/M04 A3025 770 92 -1200 200/06 RMK AO2 TSNO
94908KDBQ DBQ20050204013011202/04/05 01:30:31  5-MIN KDBQ 040730Z AUTO 20006KT 1 3/4SM BR CLR M03/M04 A3025 780 96 -1200 200/06 RMK AO2 TSNO
94908KDBQ DBQ20050204013510802/04/05 01:35:31  5-MIN KDBQ 040735Z AUTO 20005KT 2SM BR CLR M03/M04 A3025 770 96 -1200 200/05 RMK AO2 TSNO
94908KDBQ DBQ20050204014010802/04/05 01:40:31  5-MIN KDBQ 040740Z AUTO 20005KT 2SM BR CLR M03/M03 A3025 780 96 -1100 200/05 RMK AO2 TSNO
94908KDBQ DBQ20050204014510802/04/05 01:45:31  5-MIN KDBQ 040745Z AUTO 20005KT 2SM BR CLR M03/M04 A3025 780 96 -1200 200/05 RMK AO2 TSNO
94908KDBQ DBQ20050204015012502/04/05 01:50:31  5-MIN KDBQ 040750Z AUTO 19004KT 2SM BR CLR M04/M04 A3025 780 96 -1300 190/04 RMK AO2 SLP255 T10391044 TSNO
94908KDBQ DBQ20050204015512502/04/05 01:55:31  5-MIN KDBQ 040755Z AUTO 19003KT 2SM BR CLR M03/M04 A3025 780 92 -1200 180/03 RMK AO2 SLP256 T10331044 TSNO
94908KDBQ DBQ20050204020010802/04/05 02:00:31  5-MIN KDBQ 040800Z AUTO 00000KT 2SM BR CLR M03/M04 A3025 770 92 -1100 000/00 RMK AO2 TSNO
94908KDBQ DBQ20050204020510802/04/05 02:05:31  5-MIN KDBQ 040805Z AUTO 00000KT 2SM BR CLR M03/M04 A3025 770 92 -1100 000/00 RMK AO2 TSNO
94908KDBQ DBQ20050204021010802/04/05 02:10:31  5-MIN KDBQ 040810Z AUTO 00000KT 2SM BR CLR M03/M04 A3025 770 92 -1200 000/00 RMK AO2 TSNO
94908KDBQ DBQ20050204021510802/04/05 02:15:31  5-MIN KDBQ 040815Z AUTO 00000KT 2SM BR CLR M03/M04 A3025 770 92 -1200 000/00 RMK AO2 TSNO
94908KDBQ DBQ20050204022010802/04/05 02:20:31  5-MIN KDBQ 040820Z AUTO 19003KT 2SM BR CLR M03/M04 A3025 770 92 -1200 190/03 RMK AO2 TSNO
94908KDBQ DBQ20050204022510802/04/05 02:25:31  5-MIN KDBQ 040825Z AUTO 19004KT 2SM BR CLR M03/M04 A3025 770 92 -1100 190/04 RMK AO2 TSNO
94908KDBQ DBQ20050204023011202/04/05 02:30:31  5-MIN KDBQ 040830Z AUTO 19005KT 1 3/4SM BR CLR M03/M04 A3025 780 92 -1200 190/05 RMK AO2 TSNO
94908KDBQ DBQ20050204023511202/04/05 02:35:31  5-MIN KDBQ 040835Z AUTO 20006KT 1 3/4SM BR CLR M03/M04 A3025 780 92 -1200 200/06 RMK AO2 TSNO
94908KDBQ DBQ20050204024011202/04/05 02:40:31  5-MIN KDBQ 040840Z AUTO 20005KT 1 3/4SM BR CLR M04/M04 A3025 770 96 -1300 200/05 RMK AO2 TSNO
94908KDBQ DBQ20050204024511302/04/05 02:45:31  5-MIN KDBQ 040845Z AUTO 21005KT 1 1/2SM BR CLR M05/M05 A3025 770 100 -1400 210/05 RMK AO2 TSNO
94908KDBQ DBQ20050204025013502/04/05 02:50:31  5-MIN KDBQ 040850Z AUTO 21004KT 1 1/2SM BR CLR M05/M06 A3025 770 96 -1400 210/04 RMK AO2 SLP258 T10501056 58008 TSNO
94908KDBQ DBQ20050204025513502/04/05 02:55:31  5-MIN KDBQ 040855Z AUTO 20004KT 1 1/2SM BR CLR M05/M06 A3025 770 96 -1400 200/04 RMK AO2 SLP258 T10501056 55002 TSNO
94908KDBQ DBQ20050204030011202/04/05 03:00:31  5-MIN KDBQ 040900Z AUTO 19005KT 1 1/2SM BR CLR M04/M05 A3025 770 96 -1300 190/05 RMK AO2 TSNO
94908KDBQ DBQ20050204030511202/04/05 03:05:31  5-MIN KDBQ 040905Z AUTO 20004KT 1 3/4SM BR CLR M04/M05 A3025 770 96 -1300 200/04 RMK AO2 TSNO
94908KDBQ DBQ20050204031010802/04/05 03:10:31  5-MIN KDBQ 040910Z AUTO 19004KT 2SM BR CLR M04/M05 A3025 770 96 -1300 190/04 RMK AO2 TSNO
94908KDBQ DBQ20050204031510802/04/05 03:15:31  5-MIN KDBQ 040915Z AUTO 19003KT 2SM BR CLR M04/M05 A3025 770 96 -1300 190/03 RMK AO2 TSNO
94908KDBQ DBQ20050204032010802/04/05 03:20:31  5-MIN KDBQ 040920Z AUTO 19003KT 2SM BR CLR M04/M05 A3026 770 92 -1300 190/03 RMK AO2 TSNO
94908KDBQ DBQ20050204032511202/04/05 03:25:31  5-MIN KDBQ 040925Z AUTO 20005KT 1 3/4SM BR CLR M03/M05 A3026 770 88 -1200 190/05 RMK AO2 TSNO
94908KDBQ DBQ20050204033011202/04/05 03:30:31  5-MIN KDBQ 040930Z AUTO 20004KT 1 3/4SM BR CLR M04/M04 A3026 760 96 -1300 200/04 RMK AO2 TSNO
94908KDBQ DBQ20050204033511202/04/05 03:35:31  5-MIN KDBQ 040935Z AUTO 19003KT 1 1/2SM BR CLR M04/M04 A3026 760 96 -1300 190/03 RMK AO2 TSNO
94908KDBQ DBQ20050204034011202/04/05 03:40:31  5-MIN KDBQ 040940Z AUTO 19005KT 1 1/2SM BR CLR M04/M04 A3026 770 96 -1300 190/05 RMK AO2 TSNO
94908KDBQ DBQ20050204034511202/04/05 03:45:31  5-MIN KDBQ 040945Z AUTO 18004KT 1 1/2SM BR CLR M04/M04 A3026 770 96 -1300 180/04 RMK AO2 TSNO
94908KDBQ DBQ20050204035012902/04/05 03:50:31  5-MIN KDBQ 040950Z AUTO 18004KT 1 1/4SM BR CLR M03/M04 A3026 770 92 -1200 180/04 RMK AO2 SLP259 T10331044 TSNO
94908KDBQ DBQ20050204035512902/04/05 03:55:31  5-MIN KDBQ 040955Z AUTO 17005KT 1 1/2SM BR CLR M04/M04 A3026 770 96 -1300 170/05 RMK AO2 SLP259 T10391044 TSNO
94908KDBQ DBQ20050204040011202/04/05 04:00:31  5-MIN KDBQ 041000Z AUTO 18005KT 1 1/2SM BR CLR M03/M04 A3026 770 92 -1200 180/05 RMK AO2 TSNO
94908KDBQ DBQ20050204040511202/04/05 04:05:31  5-MIN KDBQ 041005Z AUTO 18005KT 1 1/2SM BR CLR M03/M04 A3025 770 96 -1200 170/05 RMK AO2 TSNO
94908KDBQ DBQ20050204041011202/04/05 04:10:31  5-MIN KDBQ 041010Z AUTO 18006KT 1 1/2SM BR CLR M03/M04 A3025 770 96 -1200 180/06 RMK AO2 TSNO
94908KDBQ DBQ20050204041511202/04/05 04:15:31  5-MIN KDBQ 041015Z AUTO 18006KT 1 1/2SM BR CLR M03/M04 A3025 770 96 -1200 180/06 RMK AO2 TSNO
94908KDBQ DBQ20050204042011202/04/05 04:20:31  5-MIN KDBQ 041020Z AUTO 18005KT 1 1/2SM BR CLR M03/M04 A3025 770 92 -1200 180/05 RMK AO2 TSNO
94908KDBQ DBQ20050204042511202/04/05 04:25:31  5-MIN KDBQ 041025Z AUTO 18005KT 1 3/4SM BR CLR M03/M04 A3025 770 96 -1200 180/05 RMK AO2 TSNO
94908KDBQ DBQ20050204043011202/04/05 04:30:31  5-MIN KDBQ 041030Z AUTO 17006KT 1 1/2SM BR CLR M03/M04 A3025 770 92 -1200 170/06 RMK AO2 TSNO
94908KDBQ DBQ20050204043511202/04/05 04:35:31  5-MIN KDBQ 041035Z AUTO 17006KT 1 1/2SM BR CLR M03/M04 A3025 780 96 -1200 170/06 RMK AO2 TSNO
94908KDBQ DBQ20050204044011202/04/05 04:40:31  5-MIN KDBQ 041040Z AUTO 18006KT 1 1/2SM BR CLR M03/M04 A3025 780 96 -1200 180/06 RMK AO2 TSNO
94908KDBQ DBQ20050204044511202/04/05 04:45:31  5-MIN KDBQ 041045Z AUTO 18005KT 1 1/2SM BR CLR M03/M04 A3025 780 96 -1200 180/05 RMK AO2 TSNO
94908KDBQ DBQ20050204045012902/04/05 04:50:31  5-MIN KDBQ 041050Z AUTO 19005KT 1 1/2SM BR CLR M03/M04 A3025 780 96 -1200 190/05 RMK AO2 SLP257 T10331039 TSNO
94908KDBQ DBQ20050204045512902/04/05 04:55:31  5-MIN KDBQ 041055Z AUTO 19005KT 1 3/4SM BR CLR M04/M04 A3025 770 96 -1300 190/05 RMK AO2 SLP257 T10391044 TSNO
94908KDBQ DBQ20050204050011202/04/05 05:00:31  5-MIN KDBQ 041100Z AUTO 19005KT 1 3/4SM BR CLR M04/M04 A3025 770 96 -1300 190/05 RMK AO2 TSNO
94908KDBQ DBQ20050204050511202/04/05 05:05:31  5-MIN KDBQ 041105Z AUTO 18005KT 1 3/4SM BR CLR M04/M04 A3025 770 96 -1300 180/05 RMK AO2 TSNO
94908KDBQ DBQ20050204051011202/04/05 05:10:31  5-MIN KDBQ 041110Z AUTO 19006KT 1 3/4SM BR CLR M04/M04 A3025 780 96 -1300 190/06 RMK AO2 TSNO
94908KDBQ DBQ20050204051511202/04/05 05:15:31  5-MIN KDBQ 041115Z AUTO 19006KT 1 3/4SM BR CLR M04/M04 A3025 780 96 -1300 190/06 RMK AO2 TSNO
94908KDBQ DBQ20050204052011202/04/05 05:20:31  5-MIN KDBQ 041120Z AUTO 19005KT 1 3/4SM BR CLR M04/M04 A3025 780 96 -1300 190/05 RMK AO2 TSNO
94908KDBQ DBQ20050204052511202/04/05 05:25:31  5-MIN KDBQ 041125Z AUTO 19006KT 1 3/4SM BR CLR M03/M04 A3025 780 92 -1200 190/06 RMK AO2 TSNO
94908KDBQ DBQ20050204053011202/04/05 05:30:31  5-MIN KDBQ 041130Z AUTO 20006KT 1 3/4SM BR CLR M04/M04 A3025 780 96 -1300 190/06 RMK AO2 TSNO
94908KDBQ DBQ20050204053510802/04/05 05:35:31  5-MIN KDBQ 041135Z AUTO 20006KT 2SM BR CLR M03/M04 A3025 780 96 -1200 190/06 RMK AO2 TSNO
94908KDBQ DBQ20050204054010802/04/05 05:40:31  5-MIN KDBQ 041140Z AUTO 20006KT 2SM BR CLR M04/M04 A3025 780 96 -1300 190/06 RMK AO2 TSNO
94908KDBQ DBQ20050204054509802/04/05 05:45:31  5-MIN KDBQ 041145Z 20005KT 2SM BR CLR M04/M05 A3024 780 92 -1300 200/05 RMK AO2
94908KDBQ DBQ20050204055013302/04/05 05:50:31  5-MIN KDBQ 041150Z 20006KT 2SM BR CLR M04/M05 A3024 780 92 -1300 200/06 RMK AO2 SLP255 T10391050 11028 21050 55002
94908KDBQ DBQ20050204055513302/04/05 05:55:31  5-MIN KDBQ 041155Z 20006KT 2SM BR CLR M04/M04 A3024 780 96 -1300 200/06 RMK AO2 SLP254 T10391044 11028 21050 58004
94908KDBQ DBQ20050204060009802/04/05 06:00:31  5-MIN KDBQ 041200Z 19005KT 2SM BR CLR M03/M04 A3024 780 92 -1100 190/05 RMK AO2
94908KDBQ DBQ20050204060510202/04/05 06:05:31  5-MIN KDBQ 041205Z 19005KT 2 1/2SM BR CLR M03/M04 A3024 780 96 -1200 190/05 RMK AO2
94908KDBQ DBQ20050204061009802/04/05 06:10:31  5-MIN KDBQ 041210Z 19004KT 2SM BR CLR M03/M04 A3024 780 96 -1200 180/04 RMK AO2
94908KDBQ DBQ20050204061510202/04/05 06:15:31  5-MIN KDBQ 041215Z 17006KT 2 1/2SM BR CLR M03/M04 A3024 780 92 -1100 170/06 RMK AO2
94908KDBQ DBQ20050204062010202/04/05 06:20:31  5-MIN KDBQ 041220Z 18005KT 2 1/2SM BR CLR M03/M04 A3024 780 96 -1200 180/05 RMK AO2
94908KDBQ DBQ20050204062510202/04/05 06:25:31  5-MIN KDBQ 041225Z 19005KT 2 1/2SM BR CLR M03/M04 A3024 780 96 -1200 190/05 RMK AO2
94908KDBQ DBQ20050204063010202/04/05 06:30:31  5-MIN KDBQ 041230Z 19006KT 2 1/2SM BR CLR M03/M04 A3025 780 96 -1200 190/06 RMK AO2
94908KDBQ DBQ20050204063510202/04/05 06:35:31  5-MIN KDBQ 041235Z 19006KT 2 1/2SM BR CLR M03/M04 A3024 780 92 -1100 190/06 RMK AO2
94908KDBQ DBQ20050204064010202/04/05 06:40:31  5-MIN KDBQ 041240Z 19007KT 2 1/2SM BR CLR M03/M04 A3024 780 96 -1200 190/07 RMK AO2
94908KDBQ DBQ20050204064510202/04/05 06:45:31  5-MIN KDBQ 041245Z 19007KT 2 1/2SM BR CLR M03/M04 A3024 780 92 -1100 190/07 RMK AO2
94908KDBQ DBQ20050204065011902/04/05 06:50:31  5-MIN KDBQ 041250Z 20006KT 2 1/2SM BR CLR M03/M03 A3024 780 96 -1100 200/06 RMK AO2 SLP254 T10281033
94908KDBQ DBQ20050204065511902/04/05 06:55:31  5-MIN KDBQ 041255Z 20006KT 2 1/2SM BR CLR M03/M04 A3024 780 92 -1100 190/06 RMK AO2 SLP254 T10281039
94908KDBQ DBQ20050204070010202/04/05 07:00:31  5-MIN KDBQ 041300Z 20006KT 2 1/2SM BR CLR M03/M04 A3024 780 96 -1200 200/06 RMK AO2
94908KDBQ DBQ20050204070510202/04/05 07:05:31  5-MIN KDBQ 041305Z 20007KT 2 1/2SM BR CLR M04/M04 A3024 780 96 -1300 200/07 RMK AO2
94908KDBQ DBQ20050204071009802/04/05 07:10:31  5-MIN KDBQ 041310Z 20007KT 2SM BR CLR M03/M04 A3024 780 92 -1100 200/07 RMK AO2
94908KDBQ DBQ20050204071510202/04/05 07:15:31  5-MIN KDBQ 041315Z 20007KT 1 1/2SM BR CLR M03/M04 A3024 780 92 -1100 200/07 RMK AO2
94908KDBQ DBQ20050204072010202/04/05 07:20:31  5-MIN KDBQ 041320Z 20007KT 1 1/2SM BR CLR M03/M04 A3024 780 92 -1100 200/07 RMK AO2
94908KDBQ DBQ20050204072510202/04/05 07:25:31  5-MIN KDBQ 041325Z 20007KT 1 1/2SM BR CLR M03/M04 A3025 780 92 -1100 200/07 RMK AO2
94908KDBQ DBQ20050204073010202/04/05 07:30:31  5-MIN KDBQ 041330Z 20007KT 1 1/2SM BR CLR M03/M04 A3025 780 92 -1100 200/07 RMK AO2
94908KDBQ DBQ20050204073510202/04/05 07:35:31  5-MIN KDBQ 041335Z 20007KT 1 1/2SM BR CLR M03/M04 A3025 780 92 -1100 200/07 RMK AO2
94908KDBQ DBQ20050204074010202/04/05 07:40:31  5-MIN KDBQ 041340Z 20007KT 1 1/2SM BR CLR M03/M04 A3024 780 92 -1100 200/07 RMK AO2
94908KDBQ DBQ20050204074510202/04/05 07:45:31  5-MIN KDBQ 041345Z 20007KT 1 1/2SM BR CLR M03/M03 A3024 780 96 -1100 200/07 RMK AO2
94908KDBQ DBQ20050204075011902/04/05 07:50:31  5-MIN KDBQ 041350Z 20007KT 1 1/2SM BR CLR M03/M03 A3024 780 96 -1100 200/07 RMK AO2 SLP254 T10281033
94908KDBQ DBQ20050204075511902/04/05 07:55:31  5-MIN KDBQ 041355Z 20008KT 1 1/4SM BR CLR M03/M03 A3025 780 96 -1100 200/08 RMK AO2 SLP256 T10281033
94908KDBQ DBQ20050204080010202/04/05 08:00:31  5-MIN KDBQ 041400Z 20008KT 1 1/4SM BR CLR M02/M03 A3025 780 96 -1100 200/08 RMK AO2
94908KDBQ DBQ20050204080510202/04/05 08:05:31  5-MIN KDBQ 041405Z 20008KT 1 1/4SM BR CLR M02/M03 A3025 780 96 -1100 200/08 RMK AO2
94908KDBQ DBQ20050204081010202/04/05 08:10:31  5-MIN KDBQ 041410Z 20008KT 1 1/4SM BR CLR M02/M03 A3025 780 96 -1100 200/08 RMK AO2
94908KDBQ DBQ20050204081510202/04/05 08:15:31  5-MIN KDBQ 041415Z 21006KT 1 1/4SM BR CLR M02/M03 A3025 780 96 -1100 210/06 RMK AO2
94908KDBQ DBQ20050204082010302/04/05 08:20:31  5-MIN KDBQ 041420Z 22005KT 1 1/4SM BR CLR M03/M03 A3025 770 100 -1100 220/05 RMK AO2
94908KDBQ DBQ20050204082509902/04/05 08:25:31  5-MIN KDBQ 041425Z 21006KT 1SM BR CLR M03/M03 A3025 770 100 -1100 210/06 RMK AO2
94908KDBQ DBQ20050204083009802/04/05 08:30:31  5-MIN KDBQ 041430Z 21006KT 1SM BR CLR M02/M03 A3026 770 96 -1100 210/06 RMK AO2
94908KDBQ DBQ20050204083510202/04/05 08:35:31  5-MIN KDBQ 041435Z 21006KT 1 1/4SM BR CLR M02/M03 A3026 770 96 -1100 210/06 RMK AO2
94908KDBQ DBQ20050204084010202/04/05 08:40:31  5-MIN KDBQ 041440Z 20006KT 1 1/4SM BR CLR M02/M02 A3026 770 96 -1000 200/06 RMK AO2
94908KDBQ DBQ20050204084510202/04/05 08:45:31  5-MIN KDBQ 041445Z 19006KT 1 1/4SM BR CLR M02/M02 A3026 770 96 -1000 190/06 RMK AO2
94908KDBQ DBQ20050204085012402/04/05 08:50:31  5-MIN KDBQ 041450Z 18007KT 1 1/4SM BR CLR M01/M02 A3025 770 96 -900 180/07 RMK AO2 SLP258 T10111017 58004
94908KDBQ DBQ20050204085512402/04/05 08:55:31  5-MIN KDBQ 041455Z 18006KT 1 1/2SM BR CLR M01/M02 A3025 770 96 -900 180/06 RMK AO2 SLP258 T10111017 53004
94908KDBQ DBQ20050204090010102/04/05 09:00:31  5-MIN KDBQ 041500Z 18008KT 1 1/2SM BR CLR M01/M01 A3025 780 96 -800 180/08 RMK AO2
94908KDBQ DBQ20050204090510102/04/05 09:05:31  5-MIN KDBQ 041505Z 19009KT 1 3/4SM BR CLR M01/M01 A3024 780 96 -800 190/09 RMK AO2
94908KDBQ DBQ20050204091010102/04/05 09:10:31  5-MIN KDBQ 041510Z 19008KT 1 3/4SM BR CLR M01/M01 A3025 780 96 -800 190/08 RMK AO2
94908KDBQ DBQ20050204091509602/04/05 09:15:31  5-MIN KDBQ 041515Z 19007KT 2SM BR CLR 01/M01 A3025 780 89 -700 190/07 RMK AO2
94908KDBQ DBQ20050204092009602/04/05 09:20:31  5-MIN KDBQ 041520Z 20008KT 2SM BR CLR 00/M01 A3025 780 96 -800 200/08 RMK AO2
94908KDBQ DBQ20050204092510002/04/05 09:25:31  5-MIN KDBQ 041525Z 20009KT 2 1/2SM BR CLR 00/M01 A3025 780 96 -800 200/09 RMK AO2
94908KDBQ DBQ20050204093010002/04/05 09:30:31  5-MIN KDBQ 041530Z 20009KT 2 1/2SM BR CLR 01/M01 A3025 780 92 -700 200/09 RMK AO2
94908KDBQ DBQ20050204093510002/04/05 09:35:31  5-MIN KDBQ 041535Z 19009KT 2 1/2SM BR CLR 01/M01 A3025 780 92 -700 190/09 RMK AO2
94908KDBQ DBQ20050204094010002/04/05 09:40:31  5-MIN KDBQ 041540Z 19009KT 2 1/2SM BR CLR 01/M01 A3025 780 92 -700 190/09 RMK AO2
94908KDBQ DBQ20050204094509602/04/05 09:45:31  5-MIN KDBQ 041545Z 20009KT 3SM BR CLR 01/M01 A3024 780 89 -600 190/09 RMK AO2
94908KDBQ DBQ20050204095011302/04/05 09:50:31  5-MIN KDBQ 041550Z 20010KT 3SM BR CLR 01/M01 A3024 780 89 -600 190/10 RMK AO2 SLP254 T00111006
94908KDBQ DBQ20050204095510502/04/05 09:55:31  5-MIN KDBQ 041555Z 3SM BR CLR 01/M01 A3025 780 89 -600 M /M RMK AO2 SLP255 T00111006 $
94908KDBQ DBQ20050204100007702/04/05 10:00:31  5-MIN KDBQ 041600Z 01/M01 A3025 780 89 -600 M /M RMK AO2 $
94908KDBQ DBQ20050204100507702/04/05 10:05:31  5-MIN KDBQ 041605Z 01/M01 A3025 780 89 -600 M /M RMK AO2 $
94908KDBQ DBQ20050204101007702/04/05 10:10:31  5-MIN KDBQ 041610Z 01/M01 A3025 780 89 -600 M /M RMK AO2 $
94908KDBQ DBQ20050204101506402/04/05 10:15:31  5-MIN KDBQ 041615Z A3025 M M M M /M RMK AO2 $
94908KDBQ DBQ20050204102006402/04/05 10:20:31  5-MIN KDBQ 041620Z A3025 M M M M /M RMK AO2 $
94908KDBQ DBQ20050204102506402/04/05 10:25:31  5-MIN KDBQ 041625Z A3024 M M M M /M RMK AO2 $
94908KDBQ DBQ20050204103006402/04/05 10:30:31  5-MIN KDBQ 041630Z A3025 M M M M /M RMK AO2 $
94908KDBQ DBQ20050204103506402/04/05 10:35:31  5-MIN KDBQ 041635Z A3025 M M M M /M RMK AO2 $
94908KDBQ DBQ20050204104006402/04/05 10:40:31  5-MIN KDBQ 041640Z A3025 M M M M /M RMK AO2 $
94908KDBQ DBQ20050204104506402/04/05 10:45:31  5-MIN KDBQ 041645Z A3025 M M M M /M RMK AO2 $
94908KDBQ DBQ20050204105007002/04/05 10:50:31  5-MIN KDBQ 041650Z A3025 M M M M /M RMK AO2 SLPNO $
94908KDBQ DBQ20050204105507002/04/05 10:55:31  5-MIN KDBQ 041655Z A3024 M M M M /M RMK AO2 SLPNO $
94908KDBQ DBQ20050204110006402/04/05 11:00:31  5-MIN KDBQ 041700Z A3024 M M M M /M RMK AO2 $
94908KDBQ DBQ20050204110506402/04/05 11:05:31  5-MIN KDBQ 041705Z A3024 M M M M /M RMK AO2 $
94908KDBQ DBQ20050204111006402/04/05 11:10:31  5-MIN KDBQ 041710Z A3024 M M M M /M RMK AO2 $
94908KDBQ DBQ20050204111506402/04/05 11:15:31  5-MIN KDBQ 041715Z A3024 M M M M /M RMK AO2 $
94908KDBQ DBQ20050204112006402/04/05 11:20:31  5-MIN KDBQ 041720Z A3023 M M M M /M RMK AO2 $
94908KDBQ DBQ20050204112506402/04/05 11:25:31  5-MIN KDBQ 041725Z A3023 M M M M /M RMK AO2 $
94908KDBQ DBQ20050204113006402/04/05 11:30:31  5-MIN KDBQ 041730Z A3023 M M M M /M RMK AO2 $
94908KDBQ DBQ20050204113506402/04/05 11:35:31  5-MIN KDBQ 041735Z A3023 M M M M /M RMK AO2 $
94908KDBQ DBQ20050204114006402/04/05 11:40:31  5-MIN KDBQ 041740Z A3022 M M M M /M RMK AO2 $
94908KDBQ DBQ20050204114506402/04/05 11:45:31  5-MIN KDBQ 041745Z A3022 M M M M /M RMK AO2 $
94908KDBQ DBQ20050204115008202/04/05 11:50:31  5-MIN KDBQ 041750Z A3022 M M M M /M RMK AO2 SLPNO 6//// 53004 $
94908KDBQ DBQ20050204115508202/04/05 11:55:31  5-MIN KDBQ 041755Z A3022 M M M M /M RMK AO2 SLPNO 6//// 58009 $
94908KDBQ DBQ20050204120008602/04/05 12:00:31  5-MIN KDBQ 041800Z 20010KT 04/01 A3021 810 76 -200 200/10 RMK AO2 $
94908KDBQ DBQ20050204121509502/04/05 12:15:31  5-MIN KDBQ 041815Z AUTO 21007KT M M M 210/07 RMK AO2 PWINO FZRANO TSNO PNO $
94908KDBQ DBQ20050204122009302/04/05 12:20:31  5-MIN KDBQ 041820Z AUTO 22005KT 06/01 A3021 810 70 0 220/05 RMK AO2 TSNO $
94908KDBQ DBQ20050204122509802/04/05 12:25:31  5-MIN KDBQ 041825Z AUTO 24004KT 10SM 06/01 A3021 810 70 0 230/04 RMK AO2 TSNO $
94908KDBQ DBQ20050204123008802/04/05 12:30:31  5-MIN KDBQ 041830Z 23006KT 10SM 06/01 A3021 810 70 0 230/06 RMK AO2 $
94908KDBQ DBQ20050204123508802/04/05 12:35:31  5-MIN KDBQ 041835Z 22007KT 10SM 06/01 A3021 810 70 0 220/07 RMK AO2 $
94908KDBQ DBQ20050204124008802/04/05 12:40:31  5-MIN KDBQ 041840Z 22007KT 10SM 06/01 A3021 820 70 0 220/07 RMK AO2 $
94908KDBQ DBQ20050204124509202/04/05 12:45:31  5-MIN KDBQ 041845Z 22007KT 10SM CLR 06/01 A3021 810 70 0 220/07 RMK AO2 $
94908KDBQ DBQ20050204125010902/04/05 12:50:31  5-MIN KDBQ 041850Z 22008KT 10SM CLR 06/01 A3021 810 67 0 220/08 RMK AO2 SLP240 T00610006 $
94908KDBQ DBQ20050204125510902/04/05 12:55:31  5-MIN KDBQ 041855Z 22008KT 10SM CLR 06/01 A3020 820 67 0 220/08 RMK AO2 SLP239 T00610006 $
94908KDBQ DBQ20050204130009202/04/05 13:00:31  5-MIN KDBQ 041900Z 22009KT 10SM CLR 06/01 A3020 820 67 0 220/09 RMK AO2 $
94908KDBQ DBQ20050204130509202/04/05 13:05:31  5-MIN KDBQ 041905Z 22009KT 10SM CLR 06/01 A3020 820 67 0 220/09 RMK AO2 $
94908KDBQ DBQ20050204131009202/04/05 13:10:31  5-MIN KDBQ 041910Z 22009KT 10SM CLR 06/01 A3020 820 67 0 220/09 RMK AO2 $
94908KDBQ DBQ20050204131509202/04/05 13:15:31  5-MIN KDBQ 041915Z 21007KT 10SM CLR 06/01 A3019 830 67 0 210/07 RMK AO2 $
94908KDBQ DBQ20050204132009202/04/05 13:20:31  5-MIN KDBQ 041920Z 21008KT 10SM CLR 06/01 A3019 830 67 0 210/08 RMK AO2 $
94908KDBQ DBQ20050204132509202/04/05 13:25:31  5-MIN KDBQ 041925Z 21008KT 10SM CLR 06/01 A3019 830 67 0 210/08 RMK AO2 $
94908KDBQ DBQ20050204133009202/04/05 13:30:31  5-MIN KDBQ 041930Z 20008KT 10SM CLR 06/01 A3019 830 67 0 200/08 RMK AO2 $
94908KDBQ DBQ20050204133509202/04/05 13:35:31  5-MIN KDBQ 041935Z 20010KT 10SM CLR 06/01 A3019 830 70 0 200/10 RMK AO2 $
94908KDBQ DBQ20050204134009202/04/05 13:40:31  5-MIN KDBQ 041940Z 20009KT 10SM CLR 06/01 A3019 830 70 0 200/09 RMK AO2 $
94908KDBQ DBQ20050204134509202/04/05 13:45:31  5-MIN KDBQ 041945Z 20011KT 10SM CLR 06/01 A3018 830 70 0 200/11 RMK AO2 $
94908KDBQ DBQ20050204135010902/04/05 13:50:31  5-MIN KDBQ 041950Z 20010KT 10SM CLR 06/01 A3019 830 70 0 200/10 RMK AO2 SLP233 T00610011 $
94908KDBQ DBQ20050204135510902/04/05 13:55:31  5-MIN KDBQ 041955Z 20010KT 10SM CLR 06/01 A3019 830 70 0 200/10 RMK AO2 SLP233 T00610011 $
94908KDBQ DBQ20050204140009202/04/05 14:00:31  5-MIN KDBQ 042000Z 20010KT 10SM CLR 06/01 A3018 840 67 0 200/10 RMK AO2 $
94908KDBQ DBQ20050204140509402/04/05 14:05:31  5-MIN KDBQ 042005Z 20010KT 10SM CLR 07/01 A3018 840 67 100 200/10 RMK AO2 $
94908KDBQ DBQ20050204141009202/04/05 14:10:31  5-MIN KDBQ 042010Z 20010KT 10SM CLR 06/01 A3018 840 67 0 200/10 RMK AO2 $
94908KDBQ DBQ20050204141509002/04/05 14:15:31  5-MIN KDBQ 042015Z 20009KT 10SM CLR 06/01 A3018 840 70 0 190/09 RMK AO2
94908KDBQ DBQ20050204142009202/04/05 14:20:31  5-MIN KDBQ 042020Z 19007KT 10SM CLR 07/01 A3018 840 67 100 190/07 RMK AO2
94908KDBQ DBQ20050204142509202/04/05 14:25:31  5-MIN KDBQ 042025Z 19007KT 10SM CLR 07/01 A3018 840 67 100 190/07 RMK AO2
94908KDBQ DBQ20050204143009202/04/05 14:30:31  5-MIN KDBQ 042030Z 19008KT 10SM CLR 07/01 A3018 840 67 100 180/08 RMK AO2
94908KDBQ DBQ20050204143509102/04/05 14:35:31  5-MIN KDBQ 042035Z 18008KT 9SM CLR 07/01 A3018 840 67 100 180/08 RMK AO2
94908KDBQ DBQ20050204144009102/04/05 14:40:31  5-MIN KDBQ 042040Z 19008KT 9SM CLR 07/01 A3018 840 67 100 180/08 RMK AO2
94908KDBQ DBQ20050204144509102/04/05 14:45:31  5-MIN KDBQ 042045Z 19009KT 9SM CLR 07/01 A3017 840 67 100 190/09 RMK AO2
94908KDBQ DBQ20050204145010802/04/05 14:50:31  5-MIN KDBQ 042050Z 19010KT 9SM CLR 07/01 A3017 850 67 100 190/10 RMK AO2 SLP229 T00670011
94908KDBQ DBQ20050204145510802/04/05 14:55:31  5-MIN KDBQ 042055Z 19010KT 9SM CLR 07/01 A3017 850 67 100 180/10 RMK AO2 SLP228 T00670011
94908KDBQ DBQ20050204150009102/04/05 15:00:31  5-MIN KDBQ 042100Z 19010KT 9SM CLR 07/01 A3017 850 67 100 180/10 RMK AO2
94908KDBQ DBQ20050204150509102/04/05 15:05:31  5-MIN KDBQ 042105Z 19009KT 9SM CLR 07/01 A3018 840 67 100 190/09 RMK AO2
94908KDBQ DBQ20050204151009102/04/05 15:10:31  5-MIN KDBQ 042110Z 19009KT 9SM CLR 07/01 A3018 840 67 100 190/09 RMK AO2
94908KDBQ DBQ20050204151508902/04/05 15:15:31  5-MIN KDBQ 042115Z 18007KT 9SM CLR 06/01 A3018 840 70 0 180/07 RMK AO2
94908KDBQ DBQ20050204152008902/04/05 15:20:31  5-MIN KDBQ 042120Z 18007KT 8SM CLR 06/01 A3018 840 70 0 180/07 RMK AO2
94908KDBQ DBQ20050204152508902/04/05 15:25:31  5-MIN KDBQ 042125Z 19007KT 8SM CLR 06/01 A3018 840 73 0 190/07 RMK AO2
94908KDBQ DBQ20050204153008902/04/05 15:30:31  5-MIN KDBQ 042130Z 19008KT 8SM CLR 06/01 A3018 840 73 0 190/08 RMK AO2
94908KDBQ DBQ20050204153508902/04/05 15:35:31  5-MIN KDBQ 042135Z 19008KT 8SM CLR 06/01 A3018 840 70 0 190/08 RMK AO2
94908KDBQ DBQ20050204154008902/04/05 15:40:31  5-MIN KDBQ 042140Z 19008KT 8SM CLR 06/01 A3018 840 73 0 190/08 RMK AO2
94908KDBQ DBQ20050204154509202/04/05 15:45:31  5-MIN KDBQ 042145Z 19009KT 7SM CLR 05/01 A3018 840 76 -100 190/09 RMK AO2
94908KDBQ DBQ20050204155010902/04/05 15:50:31  5-MIN KDBQ 042150Z 19008KT 8SM CLR 05/01 A3018 840 76 -100 190/08 RMK AO2 SLP231 T00500011
94908KDBQ DBQ20050204155510902/04/05 15:55:31  5-MIN KDBQ 042155Z 19008KT 8SM CLR 05/01 A3018 840 76 -100 190/08 RMK AO2 SLP231 T00500011
94908KDBQ DBQ20050204160009202/04/05 16:00:31  5-MIN KDBQ 042200Z 19009KT 7SM CLR 05/01 A3018 840 76 -100 190/09 RMK AO2
94908KDBQ DBQ20050204160509202/04/05 16:05:31  5-MIN KDBQ 042205Z 20009KT 7SM CLR 05/01 A3018 840 76 -100 190/09 RMK AO2
94908KDBQ DBQ20050204161009202/04/05 16:10:31  5-MIN KDBQ 042210Z 19009KT 7SM CLR 05/01 A3018 840 76 -100 190/09 RMK AO2
94908KDBQ DBQ20050204161509202/04/05 16:15:31  5-MIN KDBQ 042215Z 20008KT 7SM CLR 05/01 A3018 840 76 -100 200/08 RMK AO2
94908KDBQ DBQ20050204162009202/04/05 16:20:31  5-MIN KDBQ 042220Z 20008KT 7SM CLR 05/01 A3017 840 76 -100 200/08 RMK AO2
94908KDBQ DBQ20050204162509202/04/05 16:25:31  5-MIN KDBQ 042225Z 20008KT 7SM CLR 05/01 A3018 840 76 -100 190/08 RMK AO2
94908KDBQ DBQ20050204163009202/04/05 16:30:31  5-MIN KDBQ 042230Z 20008KT 7SM CLR 05/01 A3018 840 76 -100 190/08 RMK AO2
94908KDBQ DBQ20050204163509202/04/05 16:35:31  5-MIN KDBQ 042235Z 19007KT 7SM CLR 05/01 A3018 840 76 -100 190/07 RMK AO2
94908KDBQ DBQ20050204164009202/04/05 16:40:31  5-MIN KDBQ 042240Z 19008KT 7SM CLR 05/01 A3018 840 76 -100 190/08 RMK AO2
94908KDBQ DBQ20050204164509202/04/05 16:45:31  5-MIN KDBQ 042245Z 19008KT 7SM CLR 05/01 A3017 840 76 -100 190/08 RMK AO2
94908KDBQ DBQ20050204165010902/04/05 16:50:31  5-MIN KDBQ 042250Z 19009KT 7SM CLR 05/01 A3017 840 76 -100 190/09 RMK AO2 SLP229 T00500011
94908KDBQ DBQ20050204165510902/04/05 16:55:31  5-MIN KDBQ 042255Z 19009KT 8SM CLR 05/01 A3017 840 76 -100 190/09 RMK AO2 SLP229 T00500011
94908KDBQ DBQ20050204170009202/04/05 17:00:31  5-MIN KDBQ 042300Z 19009KT 7SM CLR 05/01 A3017 850 76 -100 190/09 RMK AO2
94908KDBQ DBQ20050204170509202/04/05 17:05:31  5-MIN KDBQ 042305Z 19010KT 7SM CLR 04/01 A3017 850 79 -100 190/10 RMK AO2
94908KDBQ DBQ20050204171009202/04/05 17:10:31  5-MIN KDBQ 042310Z 19010KT 7SM CLR 04/01 A3017 850 79 -100 190/10 RMK AO2
94908KDBQ DBQ20050204171509202/04/05 17:15:31  5-MIN KDBQ 042315Z 19010KT 7SM CLR 04/01 A3017 850 79 -100 190/10 RMK AO2
94908KDBQ DBQ20050204172009202/04/05 17:20:31  5-MIN KDBQ 042320Z 19009KT 7SM CLR 04/01 A3017 850 79 -200 190/09 RMK AO2
94908KDBQ DBQ20050204172509202/04/05 17:25:31  5-MIN KDBQ 042325Z 20010KT 7SM CLR 04/01 A3017 850 79 -200 190/10 RMK AO2
94908KDBQ DBQ20050204173009202/04/05 17:30:31  5-MIN KDBQ 042330Z 20010KT 7SM CLR 04/01 A3017 840 79 -200 190/10 RMK AO2
94908KDBQ DBQ20050204173509202/04/05 17:35:31  5-MIN KDBQ 042335Z 20010KT 7SM CLR 04/01 A3017 840 79 -200 190/10 RMK AO2
94908KDBQ DBQ20050204174009202/04/05 17:40:31  5-MIN KDBQ 042340Z 19010KT 8SM CLR 04/01 A3017 840 79 -200 190/10 RMK AO2
94908KDBQ DBQ20050204174509202/04/05 17:45:31  5-MIN KDBQ 042345Z 19009KT 8SM CLR 03/01 A3017 840 82 -300 190/09 RMK AO2
94908KDBQ DBQ20050204175012102/04/05 17:50:31  5-MIN KDBQ 042350Z 19009KT 8SM CLR 03/01 A3018 840 82 -300 190/09 RMK AO2 SLP231 T00330006 10067 20033
94908KDBQ DBQ20050204175512702/04/05 17:55:31  5-MIN KDBQ 042355Z 20009KT 8SM CLR 03/01 A3018 840 85 -300 190/09 RMK AO2 SLP232 T00280006 10067 20028 51002
94908KDBQ DBQ20050204180009202/04/05 18:00:31  5-MIN KDBQ 050000Z 20010KT 8SM CLR 03/01 A3018 840 82 -300 200/10 RMK AO2
94908KDBQ DBQ20050204180509202/04/05 18:05:31  5-MIN KDBQ 050005Z 20010KT 8SM CLR 04/01 A3018 840 82 -200 200/10 RMK AO2
94908KDBQ DBQ20050204181009202/04/05 18:10:31  5-MIN KDBQ 050010Z 20011KT 8SM CLR 04/01 A3018 840 82 -200 200/11 RMK AO2
94908KDBQ DBQ20050204181509202/04/05 18:15:31  5-MIN KDBQ 050015Z 20011KT 8SM CLR 04/01 A3018 840 79 -100 200/11 RMK AO2
94908KDBQ DBQ20050204182009402/04/05 18:20:31  5-MIN KDBQ 050020Z 20011KT 8SM CLR 04/02 A3018 840 82 -100 200/11 RMK AO2 $
94908KDBQ DBQ20050204182509002/04/05 18:25:31  5-MIN KDBQ 050025Z 20011KT CLR 04/01 A3018 840 79 -100 200/11 RMK AO2 $
94908KDBQ DBQ20050204183009402/04/05 18:30:31  5-MIN KDBQ 050030Z 20011KT 8SM CLR 04/01 A3018 840 79 -100 200/11 RMK AO2 $
94908KDBQ DBQ20050204183509402/04/05 18:35:31  5-MIN KDBQ 050035Z 20010KT 8SM CLR 04/01 A3018 840 82 -200 200/10 RMK AO2 $
94908KDBQ DBQ20050204184009402/04/05 18:40:31  5-MIN KDBQ 050040Z 20010KT 8SM CLR 04/01 A3018 840 82 -200 200/10 RMK AO2 $
94908KDBQ DBQ20050204184509002/04/05 18:45:31  5-MIN KDBQ 050045Z 20010KT CLR 04/01 A3018 840 82 -200 200/10 RMK AO2 $
94908KDBQ DBQ20050204185010702/04/05 18:50:31  5-MIN KDBQ 050050Z 20010KT CLR 04/01 A3018 840 82 -200 200/10 RMK AO2 SLP233 T00390011 $
94908KDBQ DBQ20050204185511102/04/05 18:55:31  5-MIN KDBQ 050055Z 20011KT 8SM CLR 04/01 A3019 830 82 -200 200/11 RMK AO2 SLP234 T00390011 $
94908KDBQ DBQ20050204190009402/04/05 19:00:31  5-MIN KDBQ 050100Z 20010KT 8SM CLR 03/01 A3019 830 85 -300 200/10 RMK AO2 $
94908KDBQ DBQ20050204190509402/04/05 19:05:31  5-MIN KDBQ 050105Z 20010KT 8SM CLR 04/01 A3019 830 82 -200 200/10 RMK AO2 $
94908KDBQ DBQ20050204191009402/04/05 19:10:31  5-MIN KDBQ 050110Z 20010KT 8SM CLR 04/01 A3019 830 82 -200 200/10 RMK AO2 $
94908KDBQ DBQ20050204191509402/04/05 19:15:31  5-MIN KDBQ 050115Z 20010KT 8SM CLR 04/01 A3019 830 82 -200 200/10 RMK AO2 $
94908KDBQ DBQ20050204192009402/04/05 19:20:31  5-MIN KDBQ 050120Z 20010KT 9SM CLR 04/01 A3019 830 82 -200 200/10 RMK AO2 $
94908KDBQ DBQ20050204192509402/04/05 19:25:31  5-MIN KDBQ 050125Z 20010KT 9SM CLR 04/01 A3019 830 82 -200 200/10 RMK AO2 $
94908KDBQ DBQ20050204193009402/04/05 19:30:31  5-MIN KDBQ 050130Z 20010KT 9SM CLR 04/01 A3019 830 82 -200 200/10 RMK AO2 $
94908KDBQ DBQ20050204193509402/04/05 19:35:31  5-MIN KDBQ 050135Z 20010KT 9SM CLR 04/01 A3019 830 82 -200 200/10 RMK AO2 $
94908KDBQ DBQ20050204194010402/04/05 19:40:31  5-MIN KDBQ 050140Z AUTO 20010KT 9SM CLR 04/01 A3019 830 82 -200 200/10 RMK AO2 TSNO $
94908KDBQ DBQ20050204194510402/04/05 19:45:31  5-MIN KDBQ 050145Z AUTO 20011KT 9SM CLR 04/01 A3019 830 79 -200 200/11 RMK AO2 TSNO $
94908KDBQ DBQ20050204195012102/04/05 19:50:31  5-MIN KDBQ 050150Z AUTO 20010KT 9SM CLR 04/01 A3019 830 82 -200 200/10 RMK AO2 SLP236 T00390011 TSNO $
94908KDBQ DBQ20050204195512102/04/05 19:55:31  5-MIN KDBQ 050155Z AUTO 20009KT 9SM CLR 04/01 A3020 820 82 -200 200/09 RMK AO2 SLP238 T00390011 TSNO $
94908KDBQ DBQ20050204200010402/04/05 20:00:31  5-MIN KDBQ 050200Z AUTO 20009KT 9SM CLR 04/01 A3020 820 82 -200 200/09 RMK AO2 TSNO $
94908KDBQ DBQ20050204200510402/04/05 20:05:31  5-MIN KDBQ 050205Z AUTO 20010KT 9SM CLR 04/01 A3020 820 82 -200 200/10 RMK AO2 TSNO $
94908KDBQ DBQ20050204201010402/04/05 20:10:31  5-MIN KDBQ 050210Z AUTO 20010KT 9SM CLR 04/01 A3020 820 82 -200 200/10 RMK AO2 TSNO $
94908KDBQ DBQ20050204201510402/04/05 20:15:31  5-MIN KDBQ 050215Z AUTO 20010KT 9SM CLR 04/01 A3020 820 82 -200 200/10 RMK AO2 TSNO $
94908KDBQ DBQ20050204202010402/04/05 20:20:31  5-MIN KDBQ 050220Z AUTO 20010KT 9SM CLR 04/01 A3020 820 82 -200 200/10 RMK AO2 TSNO $
94908KDBQ DBQ20050204202510402/04/05 20:25:31  5-MIN KDBQ 050225Z AUTO 20010KT 9SM CLR 04/01 A3020 820 82 -200 200/10 RMK AO2 TSNO $
94908KDBQ DBQ20050204203010402/04/05 20:30:31  5-MIN KDBQ 050230Z AUTO 20010KT 9SM CLR 04/01 A3020 820 82 -200 200/10 RMK AO2 TSNO $
94908KDBQ DBQ20050204203510402/04/05 20:35:31  5-MIN KDBQ 050235Z AUTO 20011KT 8SM CLR 04/01 A3020 820 82 -200 200/11 RMK AO2 TSNO $
94908KDBQ DBQ20050204204010402/04/05 20:40:31  5-MIN KDBQ 050240Z AUTO 20010KT 8SM CLR 04/01 A3020 820 82 -200 200/10 RMK AO2 TSNO $
94908KDBQ DBQ20050204204510402/04/05 20:45:31  5-MIN KDBQ 050245Z AUTO 20010KT 8SM CLR 04/01 A3019 830 79 -200 200/10 RMK AO2 TSNO $
94908KDBQ DBQ20050204205012702/04/05 20:50:31  5-MIN KDBQ 050250Z AUTO 20010KT 8SM CLR 03/01 A3019 830 82 -300 200/10 RMK AO2 SLP236 T00330006 51002 TSNO $
94908KDBQ DBQ20050204205512702/04/05 20:55:31  5-MIN KDBQ 050255Z AUTO 20011KT 8SM CLR 03/01 A3019 830 82 -300 200/11 RMK AO2 SLP236 T00330006 50005 TSNO $
94908KDBQ DBQ20050204210010402/04/05 21:00:31  5-MIN KDBQ 050300Z AUTO 20011KT 8SM CLR 03/01 A3019 830 82 -300 200/11 RMK AO2 TSNO $
94908KDBQ DBQ20050204210510402/04/05 21:05:31  5-MIN KDBQ 050305Z AUTO 20011KT 8SM CLR 03/01 A3019 830 82 -300 200/11 RMK AO2 TSNO $
94908KDBQ DBQ20050204211010402/04/05 21:10:31  5-MIN KDBQ 050310Z AUTO 21010KT 8SM CLR 03/01 A3019 830 82 -300 200/10 RMK AO2 TSNO $
94908KDBQ DBQ20050204211510402/04/05 21:15:31  5-MIN KDBQ 050315Z AUTO 21010KT 8SM CLR 03/01 A3019 830 82 -300 210/10 RMK AO2 TSNO $
94908KDBQ DBQ20050204212010402/04/05 21:20:31  5-MIN KDBQ 050320Z AUTO 21009KT 8SM CLR 03/01 A3019 830 82 -300 210/09 RMK AO2 TSNO $
94908KDBQ DBQ20050204212510402/04/05 21:25:31  5-MIN KDBQ 050325Z AUTO 21010KT 8SM CLR 03/01 A3020 830 82 -300 200/10 RMK AO2 TSNO $
94908KDBQ DBQ20050204213010402/04/05 21:30:31  5-MIN KDBQ 050330Z AUTO 20010KT 7SM CLR 03/01 A3020 820 82 -300 200/10 RMK AO2 TSNO $
94908KDBQ DBQ20050204213510402/04/05 21:35:31  5-MIN KDBQ 050335Z AUTO 20010KT 7SM CLR 03/01 A3020 820 82 -300 200/10 RMK AO2 TSNO $
94908KDBQ DBQ20050204214010402/04/05 21:40:31  5-MIN KDBQ 050340Z AUTO 20009KT 7SM CLR 03/01 A3020 820 82 -300 200/09 RMK AO2 TSNO $
94908KDBQ DBQ20050204214510402/04/05 21:45:31  5-MIN KDBQ 050345Z AUTO 21009KT 7SM CLR 03/01 A3020 820 82 -300 210/09 RMK AO2 TSNO $
94908KDBQ DBQ20050204215012102/04/05 21:50:31  5-MIN KDBQ 050350Z AUTO 20010KT 7SM CLR 04/01 A3020 820 82 -200 200/10 RMK AO2 SLP236 T00390011 TSNO $
94908KDBQ DBQ20050204215512102/04/05 21:55:31  5-MIN KDBQ 050355Z AUTO 20011KT 8SM CLR 04/01 A3020 820 79 -200 200/11 RMK AO2 SLP236 T00440011 TSNO $
94908KDBQ DBQ20050204220010402/04/05 22:00:31  5-MIN KDBQ 050400Z AUTO 20011KT 8SM CLR 04/01 A3020 820 79 -200 200/11 RMK AO2 TSNO $
94908KDBQ DBQ20050204220510402/04/05 22:05:31  5-MIN KDBQ 050405Z AUTO 20012KT 7SM CLR 04/01 A3020 820 82 -200 200/12 RMK AO2 TSNO $
94908KDBQ DBQ20050204221010402/04/05 22:10:31  5-MIN KDBQ 050410Z AUTO 20011KT 7SM CLR 04/01 A3020 820 82 -200 200/11 RMK AO2 TSNO $
94908KDBQ DBQ20050204221510402/04/05 22:15:31  5-MIN KDBQ 050415Z AUTO 20011KT 7SM CLR 04/01 A3020 820 79 -200 200/11 RMK AO2 TSNO $
94908KDBQ DBQ20050204222010402/04/05 22:20:31  5-MIN KDBQ 050420Z AUTO 20011KT 7SM CLR 04/01 A3020 820 79 -200 200/11 RMK AO2 TSNO $
94908KDBQ DBQ20050204222510402/04/05 22:25:31  5-MIN KDBQ 050425Z AUTO 20010KT 7SM CLR 04/01 A3020 820 79 -200 200/10 RMK AO2 TSNO $
94908KDBQ DBQ20050204223010402/04/05 22:30:31  5-MIN KDBQ 050430Z AUTO 20010KT 7SM CLR 03/01 A3020 820 82 -300 200/10 RMK AO2 TSNO $
94908KDBQ DBQ20050204223510402/04/05 22:35:31  5-MIN KDBQ 050435Z AUTO 20010KT 7SM CLR 03/01 A3020 820 82 -300 200/10 RMK AO2 TSNO $
94908KDBQ DBQ20050204224010402/04/05 22:40:31  5-MIN KDBQ 050440Z AUTO 20012KT 7SM CLR 03/01 A3020 820 82 -300 200/12 RMK AO2 TSNO $
94908KDBQ DBQ20050204224510402/04/05 22:45:31  5-MIN KDBQ 050445Z AUTO 20012KT 7SM CLR 04/01 A3020 820 79 -200 200/12 RMK AO2 TSNO $
94908KDBQ DBQ20050204225012002/04/05 22:50:31  5-MIN KDBQ 050450Z AUTO 20012KT 7SM CLR 03/01 A3020 820 82 -300 200/12 RMK AO2 SLPNO T00330006 TSNO $
94908KDBQ DBQ20050204225512002/04/05 22:55:31  5-MIN KDBQ 050455Z AUTO 20012KT 7SM CLR 03/01 A3020 820 82 -300 200/12 RMK AO2 SLPNO T00330006 TSNO $
94908KDBQ DBQ20050204230010402/04/05 23:00:31  5-MIN KDBQ 050500Z AUTO 20012KT 7SM CLR 03/01 A3020 820 82 -300 200/12 RMK AO2 TSNO $
94908KDBQ DBQ20050204230510402/04/05 23:05:31  5-MIN KDBQ 050505Z AUTO 20012KT 7SM CLR 03/01 A3020 820 85 -400 190/12 RMK AO2 TSNO $
94908KDBQ DBQ20050204231010402/04/05 23:10:31  5-MIN KDBQ 050510Z AUTO 19010KT 7SM CLR 03/00 A3020 820 82 -400 190/10 RMK AO2 TSNO $
94908KDBQ DBQ20050204231510402/04/05 23:15:31  5-MIN KDBQ 050515Z AUTO 20011KT 7SM CLR 03/00 A3020 820 82 -400 190/11 RMK AO2 TSNO $
94908KDBQ DBQ20050204232010402/04/05 23:20:31  5-MIN KDBQ 050520Z AUTO 20011KT 7SM CLR 03/00 A3020 820 82 -400 190/11 RMK AO2 TSNO $
94908KDBQ DBQ20050204232510402/04/05 23:25:31  5-MIN KDBQ 050525Z AUTO 19011KT 7SM CLR 03/01 A3020 820 82 -300 190/11 RMK AO2 TSNO $
94908KDBQ DBQ20050204233010402/04/05 23:30:31  5-MIN KDBQ 050530Z AUTO 19011KT 7SM CLR 03/01 A3020 820 82 -300 190/11 RMK AO2 TSNO $
94908KDBQ DBQ20050204233510402/04/05 23:35:31  5-MIN KDBQ 050535Z AUTO 19011KT 7SM CLR 03/01 A3020 820 82 -300 190/11 RMK AO2 TSNO $
94908KDBQ DBQ20050204234010402/04/05 23:40:31  5-MIN KDBQ 050540Z AUTO 19011KT 7SM CLR 03/01 A3020 820 85 -400 190/11 RMK AO2 TSNO $
94908KDBQ DBQ20050204234510402/04/05 23:45:31  5-MIN KDBQ 050545Z AUTO 19010KT 7SM CLR 03/01 A3020 820 82 -300 180/10 RMK AO2 TSNO $
94908KDBQ DBQ20050204235014802/04/05 23:50:31  5-MIN KDBQ 050550Z AUTO 19008KT 7SM CLR 03/01 A3020 820 85 -400 190/08 RMK AO2 SLPNO T00280006 10044 20022 400671050 50005 TSNO $
94908KDBQ DBQ20050204235514802/04/05 23:55:31  5-MIN KDBQ 050555Z AUTO 18009KT 7SM CLR 03/01 A3020 820 82 -300 180/09 RMK AO2 SLPNO T00330006 10044 20022 400671050 51004 TSNO $
94908KDBQ DBQ20050205000010402/05/05 00:00:38  5-MIN KDBQ 050600Z AUTO 19008KT 7SM CLR 03/01 A3020 820 85 -400 190/08 RMK AO2 TSNO $
94908KDBQ DBQ20050205000510402/05/05 00:05:31  5-MIN KDBQ 050605Z AUTO 19009KT 7SM CLR 03/00 A3020 820 82 -400 190/09 RMK AO2 TSNO $
94908KDBQ DBQ20050205001010402/05/05 00:10:31  5-MIN KDBQ 050610Z AUTO 19009KT 7SM CLR 03/00 A3020 820 82 -400 190/09 RMK AO2 TSNO $
94908KDBQ DBQ20050205001510402/05/05 00:15:31  5-MIN KDBQ 050615Z AUTO 19009KT 7SM CLR 03/00 A3020 820 82 -400 180/09 RMK AO2 TSNO $
94908KDBQ DBQ20050205002010402/05/05 00:20:31  5-MIN KDBQ 050620Z AUTO 19008KT 7SM CLR 03/00 A3020 820 82 -400 190/08 RMK AO2 TSNO $
94908KDBQ DBQ20050205002510402/05/05 00:25:31  5-MIN KDBQ 050625Z AUTO 19008KT 7SM CLR 03/00 A3020 820 82 -400 190/08 RMK AO2 TSNO $
94908KDBQ DBQ20050205003010402/05/05 00:30:31  5-MIN KDBQ 050630Z AUTO 19009KT 7SM CLR 03/00 A3020 820 82 -400 190/09 RMK AO2 TSNO $
94908KDBQ DBQ20050205003510402/05/05 00:35:31  5-MIN KDBQ 050635Z AUTO 19009KT 7SM CLR 03/00 A3020 820 82 -400 190/09 RMK AO2 TSNO $
94908KDBQ DBQ20050205004010402/05/05 00:40:31  5-MIN KDBQ 050640Z AUTO 19009KT 7SM CLR 03/00 A3020 820 82 -400 190/09 RMK AO2 TSNO $
94908KDBQ DBQ20050205004510402/05/05 00:45:31  5-MIN KDBQ 050645Z AUTO 19009KT 7SM CLR 03/00 A3020 820 82 -400 190/09 RMK AO2 TSNO $
94908KDBQ DBQ20050205005012102/05/05 00:50:31  5-MIN KDBQ 050650Z AUTO 19009KT 7SM CLR 03/00 A3020 820 82 -400 190/09 RMK AO2 SLP237 T00280000 TSNO $
94908KDBQ DBQ20050205005512102/05/05 00:55:31  5-MIN KDBQ 050655Z AUTO 19009KT 7SM CLR 03/00 A3020 820 82 -400 190/09 RMK AO2 SLP237 T00280000 TSNO $
94908KDBQ DBQ20050205010010402/05/05 01:00:31  5-MIN KDBQ 050700Z AUTO 18009KT 7SM CLR 03/00 A3020 820 82 -400 180/09 RMK AO2 TSNO $
94908KDBQ DBQ20050205010510402/05/05 01:05:31  5-MIN KDBQ 050705Z AUTO 18009KT 7SM CLR 03/00 A3020 820 82 -400 180/09 RMK AO2 TSNO $
94908KDBQ DBQ20050205011010402/05/05 01:10:31  5-MIN KDBQ 050710Z AUTO 18008KT 7SM CLR 03/00 A3020 820 82 -400 180/08 RMK AO2 TSNO $
94908KDBQ DBQ20050205011510402/05/05 01:15:31  5-MIN KDBQ 050715Z AUTO 18008KT 7SM CLR 02/00 A3020 820 85 -400 180/08 RMK AO2 TSNO $
94908KDBQ DBQ20050205012010502/05/05 01:20:31  5-MIN KDBQ 050720Z AUTO 18008KT 7SM CLR 02/M01 A3021 820 82 -400 180/08 RMK AO2 TSNO $
94908KDBQ DBQ20050205012510502/05/05 01:25:31  5-MIN KDBQ 050725Z AUTO 18008KT 7SM CLR 02/M01 A3021 820 85 -500 180/08 RMK AO2 TSNO $
94908KDBQ DBQ20050205013010802/05/05 01:30:31  5-MIN KDBQ 050730Z AUTO 18008KT 6SM BR CLR 02/M01 A3020 820 85 -500 180/08 RMK AO2 TSNO $
94908KDBQ DBQ20050205013510802/05/05 01:35:31  5-MIN KDBQ 050735Z AUTO 17009KT 6SM BR CLR 01/M01 A3020 820 89 -600 170/09 RMK AO2 TSNO $
94908KDBQ DBQ20050205014010802/05/05 01:40:31  5-MIN KDBQ 050740Z AUTO 17009KT 6SM BR CLR 01/M01 A3020 820 89 -600 170/09 RMK AO2 TSNO $
94908KDBQ DBQ20050205014510802/05/05 01:45:31  5-MIN KDBQ 050745Z AUTO 17009KT 6SM BR CLR 01/M01 A3020 820 89 -600 170/09 RMK AO2 TSNO $
94908KDBQ DBQ20050205015012502/05/05 01:50:31  5-MIN KDBQ 050750Z AUTO 17009KT 6SM BR CLR 01/M01 A3020 820 89 -600 170/09 RMK AO2 SLP237 T00111006 TSNO $
94908KDBQ DBQ20050205015512502/05/05 01:55:31  5-MIN KDBQ 050755Z AUTO 17009KT 6SM BR CLR 01/M01 A3020 820 89 -600 170/09 RMK AO2 SLP237 T00111006 TSNO $
94908KDBQ DBQ20050205020010802/05/05 02:00:31  5-MIN KDBQ 050800Z AUTO 18008KT 6SM BR CLR 01/M01 A3021 820 89 -600 170/08 RMK AO2 TSNO $
94908KDBQ DBQ20050205020510802/05/05 02:05:31  5-MIN KDBQ 050805Z AUTO 18009KT 6SM BR CLR 01/M01 A3021 810 85 -600 180/09 RMK AO2 TSNO $
94908KDBQ DBQ20050205021010802/05/05 02:10:31  5-MIN KDBQ 050810Z AUTO 18008KT 6SM BR CLR 01/M01 A3021 820 85 -600 180/08 RMK AO2 TSNO $
94908KDBQ DBQ20050205021510802/05/05 02:15:31  5-MIN KDBQ 050815Z AUTO 18008KT 6SM BR CLR 01/M01 A3021 810 85 -600 180/08 RMK AO2 TSNO $
94908KDBQ DBQ20050205022010802/05/05 02:20:31  5-MIN KDBQ 050820Z AUTO 19007KT 6SM BR CLR 01/M01 A3021 810 85 -600 180/07 RMK AO2 TSNO $
94908KDBQ DBQ20050205022510802/05/05 02:25:31  5-MIN KDBQ 050825Z AUTO 19007KT 6SM BR CLR 01/M01 A3021 810 89 -600 190/07 RMK AO2 TSNO $
94908KDBQ DBQ20050205023010502/05/05 02:30:31  5-MIN KDBQ 050830Z AUTO 19007KT 7SM CLR 02/M01 A3021 810 82 -500 190/07 RMK AO2 TSNO $
94908KDBQ DBQ20050205023510502/05/05 02:35:31  5-MIN KDBQ 050835Z AUTO 19007KT 7SM CLR 02/M01 A3021 810 82 -500 190/07 RMK AO2 TSNO $
94908KDBQ DBQ20050205024010502/05/05 02:40:31  5-MIN KDBQ 050840Z AUTO 19008KT 7SM CLR 01/M01 A3021 820 85 -600 190/08 RMK AO2 TSNO $
94908KDBQ DBQ20050205024510502/05/05 02:45:31  5-MIN KDBQ 050845Z AUTO 19008KT 7SM CLR 01/M01 A3021 810 85 -600 190/08 RMK AO2 TSNO $
94908KDBQ DBQ20050205025012802/05/05 02:50:31  5-MIN KDBQ 050850Z AUTO 19009KT 7SM CLR 01/M01 A3021 810 85 -600 190/09 RMK AO2 SLP238 T00111011 51004 TSNO $
94908KDBQ DBQ20050205025512802/05/05 02:55:31  5-MIN KDBQ 050855Z AUTO 19009KT 7SM CLR 02/M01 A3020 820 82 -500 190/09 RMK AO2 SLP238 T00171011 55000 TSNO $
94908KDBQ DBQ20050205030010502/05/05 03:00:31  5-MIN KDBQ 050900Z AUTO 19011KT 7SM CLR 02/M01 A3020 820 82 -400 190/11 RMK AO2 TSNO $
94908KDBQ DBQ20050205030510502/05/05 03:05:31  5-MIN KDBQ 050905Z AUTO 19009KT 7SM CLR 02/M01 A3020 820 85 -500 190/09 RMK AO2 TSNO $
94908KDBQ DBQ20050205031010502/05/05 03:10:31  5-MIN KDBQ 050910Z AUTO 19009KT 7SM CLR 01/M01 A3020 820 85 -600 190/09 RMK AO2 TSNO $
94908KDBQ DBQ20050205031510802/05/05 03:15:31  5-MIN KDBQ 050915Z AUTO 19010KT 6SM BR CLR 01/M01 A3020 820 85 -600 190/10 RMK AO2 TSNO $
94908KDBQ DBQ20050205032010802/05/05 03:20:31  5-MIN KDBQ 050920Z AUTO 19010KT 6SM BR CLR 01/M01 A3020 820 85 -600 190/10 RMK AO2 TSNO $
94908KDBQ DBQ20050205032510802/05/05 03:25:31  5-MIN KDBQ 050925Z AUTO 19009KT 6SM BR CLR 01/M01 A3020 820 85 -600 190/09 RMK AO2 TSNO $
94908KDBQ DBQ20050205033010802/05/05 03:30:31  5-MIN KDBQ 050930Z AUTO 19009KT 6SM BR CLR 01/M01 A3020 820 85 -600 190/09 RMK AO2 TSNO $
94908KDBQ DBQ20050205033510802/05/05 03:35:31  5-MIN KDBQ 050935Z AUTO 19008KT 6SM BR CLR 01/M01 A3020 820 85 -600 190/08 RMK AO2 TSNO $
94908KDBQ DBQ20050205034010802/05/05 03:40:31  5-MIN KDBQ 050940Z AUTO 19009KT 6SM BR CLR 01/M01 A3021 820 85 -600 190/09 RMK AO2 TSNO $
94908KDBQ DBQ20050205034510802/05/05 03:45:31  5-MIN KDBQ 050945Z AUTO 19009KT 6SM BR CLR 01/M01 A3021 810 85 -600 190/09 RMK AO2 TSNO $
94908KDBQ DBQ20050205035012502/05/05 03:50:31  5-MIN KDBQ 050950Z AUTO 19008KT 6SM BR CLR 01/M02 A3021 810 85 -700 190/08 RMK AO2 SLP240 T00061017 TSNO $
94908KDBQ DBQ20050205035512502/05/05 03:55:31  5-MIN KDBQ 050955Z AUTO 19008KT 6SM BR CLR 01/M02 A3021 820 85 -700 190/08 RMK AO2 SLP239 T00061017 TSNO $
94908KDBQ DBQ20050205040010802/05/05 04:00:31  5-MIN KDBQ 051000Z AUTO 19008KT 6SM BR CLR 01/M01 A3020 820 85 -600 190/08 RMK AO2 TSNO $
94908KDBQ DBQ20050205040510802/05/05 04:05:31  5-MIN KDBQ 051005Z AUTO 19008KT 6SM BR CLR 01/M01 A3020 820 85 -600 190/08 RMK AO2 TSNO $
94908KDBQ DBQ20050205041010802/05/05 04:10:31  5-MIN KDBQ 051010Z AUTO 19009KT 6SM BR CLR 01/M01 A3020 820 85 -600 180/09 RMK AO2 TSNO $
94908KDBQ DBQ20050205041510802/05/05 04:15:31  5-MIN KDBQ 051015Z AUTO 19010KT 6SM HZ CLR 02/M01 A3021 820 82 -500 190/10 RMK AO2 TSNO $
94908KDBQ DBQ20050205042010802/05/05 04:20:31  5-MIN KDBQ 051020Z AUTO 19010KT 6SM HZ CLR 02/M01 A3021 810 82 -500 190/10 RMK AO2 TSNO $
94908KDBQ DBQ20050205042510802/05/05 04:25:31  5-MIN KDBQ 051025Z AUTO 19010KT 6SM HZ CLR 02/M01 A3021 810 82 -500 190/10 RMK AO2 TSNO $
94908KDBQ DBQ20050205043010802/05/05 04:30:31  5-MIN KDBQ 051030Z AUTO 19009KT 6SM BR CLR 01/M01 A3021 810 85 -600 180/09 RMK AO2 TSNO $
94908KDBQ DBQ20050205043510802/05/05 04:35:31  5-MIN KDBQ 051035Z AUTO 18008KT 6SM BR CLR 01/M01 A3021 810 85 -600 180/08 RMK AO2 TSNO $
94908KDBQ DBQ20050205044010802/05/05 04:40:31  5-MIN KDBQ 051040Z AUTO 18008KT 6SM BR CLR 01/M01 A3021 810 85 -600 180/08 RMK AO2 TSNO $
94908KDBQ DBQ20050205044510802/05/05 04:45:31  5-MIN KDBQ 051045Z AUTO 18008KT 6SM BR CLR 01/M01 A3021 810 85 -600 180/08 RMK AO2 TSNO $
94908KDBQ DBQ20050205045012502/05/05 04:50:31  5-MIN KDBQ 051050Z AUTO 19008KT 6SM BR CLR 01/M01 A3021 810 85 -600 180/08 RMK AO2 SLP239 T00111011 TSNO $
94908KDBQ DBQ20050205045512502/05/05 04:55:31  5-MIN KDBQ 051055Z AUTO 18008KT 6SM BR CLR 01/M01 A3021 810 89 -700 180/08 RMK AO2 SLP240 T00061011 TSNO $
94908KDBQ DBQ20050205050010802/05/05 05:00:31  5-MIN KDBQ 051100Z AUTO 18007KT 6SM BR CLR 01/M01 A3021 810 89 -700 180/07 RMK AO2 TSNO $
94908KDBQ DBQ20050205050510802/05/05 05:05:31  5-MIN KDBQ 051105Z AUTO 18007KT 6SM BR CLR 00/M02 A3021 810 88 -700 180/07 RMK AO2 TSNO $
94908KDBQ DBQ20050205051010802/05/05 05:10:31  5-MIN KDBQ 051110Z AUTO 18007KT 6SM BR CLR 00/M02 A3021 810 88 -700 180/07 RMK AO2 TSNO $
94908KDBQ DBQ20050205051510802/05/05 05:15:31  5-MIN KDBQ 051115Z AUTO 18007KT 6SM BR CLR 00/M02 A3021 810 88 -700 180/07 RMK AO2 TSNO $
94908KDBQ DBQ20050205052010802/05/05 05:20:31  5-MIN KDBQ 051120Z AUTO 18007KT 6SM BR CLR 00/M02 A3021 810 88 -700 180/07 RMK AO2 TSNO $
94908KDBQ DBQ20050205052510802/05/05 05:25:31  5-MIN KDBQ 051125Z AUTO 18007KT 6SM BR CLR 00/M02 A3021 810 88 -700 180/07 RMK AO2 TSNO $
94908KDBQ DBQ20050205053010802/05/05 05:30:31  5-MIN KDBQ 051130Z AUTO 18007KT 5SM BR CLR 00/M02 A3021 810 85 -700 180/07 RMK AO2 TSNO $
94908KDBQ DBQ20050205053510902/05/05 05:35:31  5-MIN KDBQ 051135Z AUTO 18007KT 5SM BR CLR M01/M02 A3021 810 88 -800 180/07 RMK AO2 TSNO $
94908KDBQ DBQ20050205054010902/05/05 05:40:31  5-MIN KDBQ 051140Z AUTO 18007KT 5SM BR CLR M01/M02 A3021 810 88 -800 180/07 RMK AO2 TSNO $
94908KDBQ DBQ20050205054510302/05/05 05:45:31  5-MIN KDBQ 051145Z 17008KT 5SM BR CLR 00/M02 A3020 820 85 -700 170/08 RMK AO2 TSNO $
94908KDBQ DBQ20050205055013902/05/05 05:50:31  5-MIN KDBQ 051150Z 17008KT 6SM BR CLR 00/M02 A3020 820 88 -700 170/08 RMK AO2 SLP239 7//// T00001017 10033 21006 55000 $
94908KDBQ DBQ20050205055513902/05/05 05:55:31  5-MIN KDBQ 051155Z 18007KT 6SM BR CLR 00/M02 A3020 820 85 -700 180/07 RMK AO2 SLP238 7//// T00001022 10033 21006 58001 $
94908KDBQ DBQ20050205060009802/05/05 06:00:31  5-MIN KDBQ 051200Z 18007KT 6SM BR CLR 00/M02 A3020 820 88 -700 180/07 RMK AO2 $
94908KDBQ DBQ20050205060509802/05/05 06:05:31  5-MIN KDBQ 051205Z 18007KT 6SM BR CLR 00/M02 A3020 820 88 -700 180/07 RMK AO2 $
94908KDBQ DBQ20050205061009802/05/05 06:10:31  5-MIN KDBQ 051210Z 18008KT 6SM BR CLR 00/M02 A3020 820 88 -700 180/08 RMK AO2 $
94908KDBQ DBQ20050205061509802/05/05 06:15:31  5-MIN KDBQ 051215Z 18008KT 6SM BR CLR 00/M02 A3020 820 88 -700 180/08 RMK AO2 $
94908KDBQ DBQ20050205062009802/05/05 06:20:31  5-MIN KDBQ 051220Z 19007KT 6SM BR CLR 00/M02 A3020 820 85 -700 180/07 RMK AO2 $
94908KDBQ DBQ20050205062509902/05/05 06:25:31  5-MIN KDBQ 051225Z 19008KT 6SM BR CLR M01/M02 A3020 820 88 -800 190/08 RMK AO2 $
94908KDBQ DBQ20050205063009802/05/05 06:30:31  5-MIN KDBQ 051230Z 19008KT 6SM BR CLR 00/M02 A3020 820 85 -700 190/08 RMK AO2 $
94908KDBQ DBQ20050205063509802/05/05 06:35:31  5-MIN KDBQ 051235Z 19008KT 6SM BR CLR 00/M02 A3020 820 85 -700 190/08 RMK AO2 $
94908KDBQ DBQ20050205064009802/05/05 06:40:31  5-MIN KDBQ 051240Z 19008KT 6SM BR CLR 00/M02 A3020 820 88 -700 190/08 RMK AO2 $
94908KDBQ DBQ20050205064509802/05/05 06:45:31  5-MIN KDBQ 051245Z 19007KT 6SM BR CLR 00/M02 A3020 820 88 -700 190/07 RMK AO2 $
94908KDBQ DBQ20050205065011502/05/05 06:50:31  5-MIN KDBQ 051250Z 19007KT 6SM BR CLR 01/M02 A3020 820 85 -700 190/07 RMK AO2 SLP238 T00061017 $
94908KDBQ DBQ20050205065511502/05/05 06:55:31  5-MIN KDBQ 051255Z 18008KT 6SM BR CLR 01/M02 A3020 820 85 -700 180/08 RMK AO2 SLP238 T00061017 $
94908KDBQ DBQ20050205070009802/05/05 07:00:31  5-MIN KDBQ 051300Z 19008KT 5SM BR CLR 00/M02 A3020 820 88 -700 190/08 RMK AO2 $
94908KDBQ DBQ20050205070509802/05/05 07:05:31  5-MIN KDBQ 051305Z 19008KT 5SM BR CLR 01/M02 A3021 820 85 -700 190/08 RMK AO2 $
94908KDBQ DBQ20050205071009802/05/05 07:10:31  5-MIN KDBQ 051310Z 19008KT 4SM BR CLR 01/M02 A3021 810 85 -700 190/08 RMK AO2 $
94908KDBQ DBQ20050205071509802/05/05 07:15:31  5-MIN KDBQ 051315Z 19008KT 4SM BR CLR 00/M02 A3021 810 88 -700 190/08 RMK AO2 $
94908KDBQ DBQ20050205072009802/05/05 07:20:31  5-MIN KDBQ 051320Z 20007KT 4SM BR CLR 01/M02 A3021 810 85 -700 200/07 RMK AO2 $
94908KDBQ DBQ20050205072509802/05/05 07:25:31  5-MIN KDBQ 051325Z 21008KT 4SM BR CLR 00/M02 A3022 800 88 -700 210/08 RMK AO2 $
94908KDBQ DBQ20050205073009802/05/05 07:30:31  5-MIN KDBQ 051330Z 20008KT 4SM BR CLR 00/M02 A3022 800 88 -700 200/08 RMK AO2 $
94908KDBQ DBQ20050205073509802/05/05 07:35:31  5-MIN KDBQ 051335Z 19008KT 4SM BR CLR 00/M02 A3022 800 88 -700 190/08 RMK AO2 $
94908KDBQ DBQ20050205074009802/05/05 07:40:31  5-MIN KDBQ 051340Z 19008KT 4SM BR CLR 01/M01 A3022 800 89 -700 190/08 RMK AO2 $
94908KDBQ DBQ20050205074509802/05/05 07:45:31  5-MIN KDBQ 051345Z 19009KT 4SM BR CLR 01/M01 A3022 800 89 -700 190/09 RMK AO2 $
94908KDBQ DBQ20050205075011502/05/05 07:50:31  5-MIN KDBQ 051350Z 19009KT 4SM BR CLR 01/M01 A3022 800 85 -600 190/09 RMK AO2 SLP243 T00111011 $
94908KDBQ DBQ20050205075511502/05/05 07:55:31  5-MIN KDBQ 051355Z 19009KT 5SM BR CLR 02/M01 A3022 800 85 -500 190/09 RMK AO2 SLP244 T00171006 $
94908KDBQ DBQ20050205080009802/05/05 08:00:31  5-MIN KDBQ 051400Z 20008KT 5SM BR CLR 02/M01 A3022 800 85 -500 200/08 RMK AO2 $
94908KDBQ DBQ20050205080509802/05/05 08:05:31  5-MIN KDBQ 051405Z 20009KT 5SM BR CLR 02/M01 A3022 800 85 -500 200/09 RMK AO2 $
94908KDBQ DBQ20050205081009802/05/05 08:10:31  5-MIN KDBQ 051410Z 20009KT 5SM BR CLR 02/M01 A3022 800 85 -500 200/09 RMK AO2 $
94908KDBQ DBQ20050205081509802/05/05 08:15:31  5-MIN KDBQ 051415Z 19009KT 5SM BR CLR 02/M01 A3022 800 85 -500 190/09 RMK AO2 $
94908KDBQ DBQ20050205082009802/05/05 08:20:31  5-MIN KDBQ 051420Z 19008KT 5SM BR CLR 02/M01 A3022 800 85 -500 190/08 RMK AO2 $
94908KDBQ DBQ20050205082509802/05/05 08:25:31  5-MIN KDBQ 051425Z 19007KT 5SM BR CLR 02/M01 A3022 800 85 -500 190/07 RMK AO2 $
94908KDBQ DBQ20050205083009802/05/05 08:30:31  5-MIN KDBQ 051430Z 18007KT 5SM BR CLR 02/M01 A3021 810 85 -500 180/07 RMK AO2 $
94908KDBQ DBQ20050205083509802/05/05 08:35:31  5-MIN KDBQ 051435Z 18009KT 5SM BR CLR 02/M01 A3021 810 85 -500 170/09 RMK AO2 $
94908KDBQ DBQ20050205084009802/05/05 08:40:31  5-MIN KDBQ 051440Z 18008KT 5SM BR CLR 02/M01 A3021 810 85 -500 180/08 RMK AO2 $
94908KDBQ DBQ20050205084509802/05/05 08:45:31  5-MIN KDBQ 051445Z 19010KT 5SM HZ CLR 02/M01 A3020 820 82 -400 190/10 RMK AO2 $
94908KDBQ DBQ20050205085012102/05/05 08:50:31  5-MIN KDBQ 051450Z 18012KT 5SM HZ CLR 02/M01 A3020 820 82 -400 180/12 RMK AO2 SLP238 T00221006 58001 $
94908KDBQ DBQ20050205085512102/05/05 08:55:31  5-MIN KDBQ 051455Z 17011KT 5SM HZ CLR 02/M01 A3020 820 82 -400 170/11 RMK AO2 SLP237 T00221006 50000 $
94908KDBQ DBQ20050205090009802/05/05 09:00:31  5-MIN KDBQ 051500Z 18011KT 5SM HZ CLR 02/M01 A3020 820 82 -400 180/11 RMK AO2 $
94908KDBQ DBQ20050205090509802/05/05 09:05:31  5-MIN KDBQ 051505Z 17010KT 5SM HZ CLR 02/M01 A3020 820 82 -400 170/10 RMK AO2 $
94908KDBQ DBQ20050205091009802/05/05 09:10:31  5-MIN KDBQ 051510Z 17010KT 5SM HZ CLR 02/M01 A3020 820 82 -400 170/10 RMK AO2 $
94908KDBQ DBQ20050205091509702/05/05 09:15:31  5-MIN KDBQ 051515Z 18011KT 5SM BR CLR 02/00 A3019 830 85 -400 180/11 RMK AO2 $
94908KDBQ DBQ20050205092010302/05/05 09:20:31  5-MIN KDBQ 051520Z 17010G19KT 5SM HZ CLR 03/00 A3019 830 82 -400 170/10G19 RMK AO2 $
94908KDBQ DBQ20050205092510302/05/05 09:25:31  5-MIN KDBQ 051525Z 18010G19KT 5SM BR CLR 02/00 A3019 830 85 -400 180/10G19 RMK AO2 $
94908KDBQ DBQ20050205093009702/05/05 09:30:31  5-MIN KDBQ 051530Z 18008KT 5SM HZ CLR 03/00 A3020 820 82 -400 180/08 RMK AO2 $
94908KDBQ DBQ20050205093509702/05/05 09:35:31  5-MIN KDBQ 051535Z 19008KT 5SM HZ CLR 03/00 A3020 820 82 -400 190/08 RMK AO2 $
94908KDBQ DBQ20050205094009702/05/05 09:40:31  5-MIN KDBQ 051540Z 19008KT 6SM HZ CLR 03/00 A3019 830 82 -400 190/08 RMK AO2 $
94908KDBQ DBQ20050205094509002/05/05 09:45:31  5-MIN KDBQ 051545Z 19009KT CLR 03/00 A3019 830 82 -400 180/09 RMK AO2 $
94908KDBQ DBQ20050205095010702/05/05 09:50:31  5-MIN KDBQ 051550Z 19011KT CLR 03/00 A3019 830 79 -300 190/11 RMK AO2 SLP233 T00330000 $
94908KDBQ DBQ20050205095511402/05/05 09:55:31  5-MIN KDBQ 051555Z 18010KT 6SM HZ CLR 03/00 A3019 830 79 -300 180/10 RMK AO2 SLP232 T00330000 $
94908KDBQ DBQ20050205100009702/05/05 10:00:31  5-MIN KDBQ 051600Z 19011KT 6SM HZ CLR 03/00 A3019 830 79 -300 190/11 RMK AO2 $
94908KDBQ DBQ20050205100509702/05/05 10:05:31  5-MIN KDBQ 051605Z 19012KT 6SM HZ CLR 03/00 A3019 830 79 -300 180/12 RMK AO2 $
94908KDBQ DBQ20050205101009402/05/05 10:10:31  5-MIN KDBQ 051610Z 19011KT 7SM CLR 03/00 A3018 830 79 -300 190/11 RMK AO2 $
94908KDBQ DBQ20050205101509402/05/05 10:15:31  5-MIN KDBQ 051615Z 19011KT 7SM CLR 04/01 A3018 840 79 -200 190/11 RMK AO2 $
94908KDBQ DBQ20050205102009402/05/05 10:20:31  5-MIN KDBQ 051620Z 19010KT 7SM CLR 04/01 A3018 840 79 -200 190/10 RMK AO2 $
94908KDBQ DBQ20050205102509402/05/05 10:25:31  5-MIN KDBQ 051625Z 18010KT 7SM CLR 04/01 A3018 840 79 -200 180/10 RMK AO2 $
94908KDBQ DBQ20050205103009402/05/05 10:30:31  5-MIN KDBQ 051630Z 18009KT 7SM CLR 04/01 A3018 840 79 -200 180/09 RMK AO2 $
94908KDBQ DBQ20050205103509402/05/05 10:35:31  5-MIN KDBQ 051635Z 18009KT 7SM CLR 04/01 A3018 840 79 -200 180/09 RMK AO2 $
94908KDBQ DBQ20050205104009402/05/05 10:40:31  5-MIN KDBQ 051640Z 19008KT 7SM CLR 04/01 A3018 830 79 -200 180/08 RMK AO2 $
94908KDBQ DBQ20050205104509402/05/05 10:45:31  5-MIN KDBQ 051645Z 18009KT 7SM CLR 04/01 A3018 840 79 -200 180/09 RMK AO2 $
94908KDBQ DBQ20050205105011102/05/05 10:50:31  5-MIN KDBQ 051650Z 18009KT 7SM CLR 04/01 A3018 840 79 -200 170/09 RMK AO2 SLP230 T00390006 $
94908KDBQ DBQ20050205105511102/05/05 10:55:31  5-MIN KDBQ 051655Z 18008KT 7SM CLR 04/01 A3018 840 79 -200 170/08 RMK AO2 SLP229 T00390006 $
94908KDBQ DBQ20050205110009402/05/05 11:00:31  5-MIN KDBQ 051700Z 17009KT 8SM CLR 04/01 A3018 840 76 -100 170/09 RMK AO2 $
94908KDBQ DBQ20050205110509402/05/05 11:05:31  5-MIN KDBQ 051705Z 17010KT 8SM CLR 04/01 A3017 840 76 -100 170/10 RMK AO2 $
94908KDBQ DBQ20050205111009402/05/05 11:10:31  5-MIN KDBQ 051710Z 16010KT 8SM CLR 04/01 A3017 850 76 -100 160/10 RMK AO2 $
94908KDBQ DBQ20050205111509402/05/05 11:15:31  5-MIN KDBQ 051715Z 16011KT 7SM CLR 04/01 A3017 850 76 -100 160/11 RMK AO2 $
94908KDBQ DBQ20050205112009402/05/05 11:20:31  5-MIN KDBQ 051720Z 17011KT 7SM CLR 04/01 A3017 850 79 -200 170/11 RMK AO2 $
94908KDBQ DBQ20050205112509402/05/05 11:25:31  5-MIN KDBQ 051725Z 17010KT 7SM CLR 04/01 A3017 850 79 -200 170/10 RMK AO2 $
94908KDBQ DBQ20050205113009402/05/05 11:30:31  5-MIN KDBQ 051730Z 17011KT 7SM CLR 04/01 A3016 860 79 -200 170/11 RMK AO2 $
94908KDBQ DBQ20050205113509402/05/05 11:35:31  5-MIN KDBQ 051735Z 17011KT 8SM CLR 04/01 A3016 860 76 -100 170/11 RMK AO2 $
94908KDBQ DBQ20050205114009402/05/05 11:40:31  5-MIN KDBQ 051740Z 17010KT 8SM CLR 04/01 A3016 860 79 -200 170/10 RMK AO2 $
94908KDBQ DBQ20050205114509402/05/05 11:45:31  5-MIN KDBQ 051745Z 17010KT 8SM CLR 04/01 A3016 860 76 -100 170/10 RMK AO2 $
94908KDBQ DBQ20050205115012902/05/05 11:50:31  5-MIN KDBQ 051750Z 17011KT 8SM CLR 04/01 A3015 870 76 -100 170/11 RMK AO2 SLP219 T00440006 10044 21006 50000 $
94908KDBQ DBQ20050205115512602/05/05 11:55:31  5-MIN KDBQ 051755Z 17011KT 9SM CLR 05/01 A3015 860 73 0 170/11 RMK AO2 SLP220 T00500006 10050 21006 58015 $
94908KDBQ DBQ20050205120009102/05/05 12:00:31  5-MIN KDBQ 051800Z 17010KT 9SM CLR 05/01 A3015 860 73 0 170/10 RMK AO2 $
94908KDBQ DBQ20050205120509102/05/05 12:05:31  5-MIN KDBQ 051805Z 17009KT 8SM CLR 05/01 A3016 860 73 0 170/09 RMK AO2 $
94908KDBQ DBQ20050205121009402/05/05 12:10:31  5-MIN KDBQ 051810Z 18009KT 8SM CLR 05/01 A3016 860 73 -100 180/09 RMK AO2 $
94908KDBQ DBQ20050205121509102/05/05 12:15:31  5-MIN KDBQ 051815Z 18009KT 8SM CLR 05/01 A3015 860 73 0 170/09 RMK AO2 $
94908KDBQ DBQ20050205122009102/05/05 12:20:31  5-MIN KDBQ 051820Z 17008KT 8SM CLR 06/01 A3015 860 70 0 170/08 RMK AO2 $
94908KDBQ DBQ20050205122509102/05/05 12:25:31  5-MIN KDBQ 051825Z 17008KT 8SM CLR 05/01 A3015 870 76 0 160/08 RMK AO2 $
94908KDBQ DBQ20050205123009102/05/05 12:30:31  5-MIN KDBQ 051830Z 17008KT 9SM CLR 06/01 A3015 870 73 0 170/08 RMK AO2 $
94908KDBQ DBQ20050205123508702/05/05 12:35:31  5-MIN KDBQ 051835Z 17008KT CLR 06/01 A3015 870 73 0 170/08 RMK AO2 $
94908KDBQ DBQ20050205124009102/05/05 12:40:31  5-MIN KDBQ 051840Z 17007KT 9SM CLR 06/01 A3014 870 73 0 170/07 RMK AO2 $
94908KDBQ DBQ20050205124509302/05/05 12:45:31  5-MIN KDBQ 051845Z 19009KT 9SM CLR 07/02 A3014 870 70 100 190/09 RMK AO2 $
94908KDBQ DBQ20050205125011002/05/05 12:50:31  5-MIN KDBQ 051850Z 18007KT 9SM CLR 07/01 A3014 880 67 100 170/07 RMK AO2 SLP215 T00670011 $
94908KDBQ DBQ20050205125511002/05/05 12:55:31  5-MIN KDBQ 051855Z 18006KT 9SM CLR 07/02 A3014 880 70 100 180/06 RMK AO2 SLP213 T00670017 $
94908KDBQ DBQ20050205130009302/05/05 13:00:31  5-MIN KDBQ 051900Z 18009KT 9SM CLR 07/02 A3014 880 70 100 170/09 RMK AO2 $
94908KDBQ DBQ20050205130509302/05/05 13:05:31  5-MIN KDBQ 051905Z 17009KT 9SM CLR 07/01 A3013 880 67 100 170/09 RMK AO2 $
94908KDBQ DBQ20050205131009302/05/05 13:10:31  5-MIN KDBQ 051910Z 17009KT 9SM CLR 06/01 A3013 890 70 100 170/09 RMK AO2 $
94908KDBQ DBQ20050205131509302/05/05 13:15:31  5-MIN KDBQ 051915Z 17009KT 9SM CLR 07/02 A3012 890 70 100 170/09 RMK AO2 $
94908KDBQ DBQ20050205132009302/05/05 13:20:31  5-MIN KDBQ 051920Z 17011KT 9SM CLR 07/02 A3012 900 70 100 170/11 RMK AO2 $
94908KDBQ DBQ20050205132509302/05/05 13:25:31  5-MIN KDBQ 051925Z 17011KT 9SM CLR 07/02 A3011 900 70 200 160/11 RMK AO2 $
94908KDBQ DBQ20050205133009302/05/05 13:30:31  5-MIN KDBQ 051930Z 16011KT 9SM CLR 06/02 A3011 900 73 100 160/11 RMK AO2 $
94908KDBQ DBQ20050205133509302/05/05 13:35:31  5-MIN KDBQ 051935Z 16011KT 8SM CLR 06/02 A3011 910 73 100 160/11 RMK AO2 $
94908KDBQ DBQ20050205134009302/05/05 13:40:31  5-MIN KDBQ 051940Z 16011KT 8SM CLR 06/02 A3011 910 73 100 160/11 RMK AO2 $
94908KDBQ DBQ20050205134509302/05/05 13:45:31  5-MIN KDBQ 051945Z 16010KT 8SM CLR 06/02 A3010 910 73 100 160/10 RMK AO2 $
94908KDBQ DBQ20050205135011002/05/05 13:50:31  5-MIN KDBQ 051950Z 16011KT 8SM CLR 06/02 A3010 920 73 100 160/11 RMK AO2 SLP201 T00610017 $
94908KDBQ DBQ20050205135510802/05/05 13:55:31  5-MIN KDBQ 051955Z 16011KT 8SM CLR 06/02 A3009 920 76 0 160/11 RMK AO2 SLP200 T00560017 $
94908KDBQ DBQ20050205140009302/05/05 14:00:31  5-MIN KDBQ 052000Z 16011KT 7SM CLR 06/02 A3009 920 73 100 160/11 RMK AO2 $
94908KDBQ DBQ20050205140509302/05/05 14:05:31  5-MIN KDBQ 052005Z 16012KT 7SM CLR 06/02 A3009 920 73 100 160/12 RMK AO2 $
94908KDBQ DBQ20050205141009302/05/05 14:10:31  5-MIN KDBQ 052010Z 16012KT 7SM CLR 06/02 A3008 930 73 100 160/12 RMK AO2 $
94908KDBQ DBQ20050205141509302/05/05 14:15:31  5-MIN KDBQ 052015Z 16012KT 8SM CLR 06/02 A3008 930 73 100 160/12 RMK AO2 $
94908KDBQ DBQ20050205142009302/05/05 14:20:31  5-MIN KDBQ 052020Z 16012KT 8SM CLR 06/02 A3007 940 73 100 160/12 RMK AO2 $
94908KDBQ DBQ20050205142509302/05/05 14:25:31  5-MIN KDBQ 052025Z 16013KT 8SM CLR 07/02 A3007 940 70 200 160/13 RMK AO2 $
94908KDBQ DBQ20050205143009302/05/05 14:30:31  5-MIN KDBQ 052030Z 16014KT 8SM CLR 07/02 A3007 940 70 200 160/14 RMK AO2 $
94908KDBQ DBQ20050205143509302/05/05 14:35:31  5-MIN KDBQ 052035Z 16013KT 8SM CLR 07/02 A3007 940 70 200 160/13 RMK AO2 $
94908KDBQ DBQ20050205144009302/05/05 14:40:31  5-MIN KDBQ 052040Z 16013KT 8SM CLR 07/02 A3007 940 70 200 160/13 RMK AO2 $
94908KDBQ DBQ20050205144509302/05/05 14:45:31  5-MIN KDBQ 052045Z 16014KT 8SM CLR 07/02 A3007 940 68 300 160/14 RMK AO2 $
94908KDBQ DBQ20050205145011602/05/05 14:50:31  5-MIN KDBQ 052050Z 16013KT 8SM CLR 07/02 A3007 940 68 300 160/13 RMK AO2 SLP190 T00720017 58015 $
94908KDBQ DBQ20050205145511602/05/05 14:55:31  5-MIN KDBQ 052055Z 16013KT 8SM CLR 07/02 A3007 940 68 300 160/13 RMK AO2 SLP191 T00720017 58028 $
94908KDBQ DBQ20050205150009302/05/05 15:00:31  5-MIN KDBQ 052100Z 16012KT 8SM CLR 07/02 A3007 940 70 200 160/12 RMK AO2 $
94908KDBQ DBQ20050205150509302/05/05 15:05:31  5-MIN KDBQ 052105Z 16013KT 8SM CLR 07/02 A3007 940 70 200 160/13 RMK AO2 $
94908KDBQ DBQ20050205151009302/05/05 15:10:31  5-MIN KDBQ 052110Z 16012KT 8SM CLR 07/02 A3007 940 70 200 160/12 RMK AO2 $
94908KDBQ DBQ20050205151509302/05/05 15:15:31  5-MIN KDBQ 052115Z 16012KT 8SM CLR 07/02 A3007 940 70 200 160/12 RMK AO2 $
94908KDBQ DBQ20050205152009302/05/05 15:20:31  5-MIN KDBQ 052120Z 16012KT 8SM CLR 07/02 A3007 940 70 200 160/12 RMK AO2 $
94908KDBQ DBQ20050205152509302/05/05 15:25:31  5-MIN KDBQ 052125Z 16012KT 8SM CLR 07/02 A3007 940 73 200 160/12 RMK AO2 $
94908KDBQ DBQ20050205153009302/05/05 15:30:31  5-MIN KDBQ 052130Z 16012KT 8SM CLR 07/02 A3007 940 73 200 160/12 RMK AO2 $
94908KDBQ DBQ20050205153509302/05/05 15:35:31  5-MIN KDBQ 052135Z 16013KT 8SM CLR 07/02 A3007 940 73 200 160/13 RMK AO2 $
94908KDBQ DBQ20050205154009302/05/05 15:40:31  5-MIN KDBQ 052140Z 16012KT 8SM CLR 07/02 A3006 950 70 200 150/12 RMK AO2 $
94908KDBQ DBQ20050205154509302/05/05 15:45:31  5-MIN KDBQ 052145Z 16012KT 8SM CLR 07/02 A3006 950 70 200 160/12 RMK AO2 $
94908KDBQ DBQ20050205155011002/05/05 15:50:31  5-MIN KDBQ 052150Z 16012KT 8SM CLR 07/02 A3007 940 70 200 160/12 RMK AO2 SLP190 T00670017 $
94908KDBQ DBQ20050205155511002/05/05 15:55:31  5-MIN KDBQ 052155Z 16012KT 8SM CLR 07/02 A3007 940 70 200 160/12 RMK AO2 SLP190 T00670017 $
94908KDBQ DBQ20050205160009302/05/05 16:00:31  5-MIN KDBQ 052200Z 16013KT 7SM CLR 07/02 A3007 940 70 200 160/13 RMK AO2 $
94908KDBQ DBQ20050205160509302/05/05 16:05:31  5-MIN KDBQ 052205Z 16013KT 7SM CLR 07/02 A3007 940 70 200 160/13 RMK AO2 $
94908KDBQ DBQ20050205161009302/05/05 16:10:31  5-MIN KDBQ 052210Z 17013KT 8SM CLR 07/02 A3007 940 70 200 170/13 RMK AO2 $
94908KDBQ DBQ20050205161509302/05/05 16:15:31  5-MIN KDBQ 052215Z 17014KT 8SM CLR 07/02 A3007 940 70 200 160/14 RMK AO2 $
94908KDBQ DBQ20050205162009302/05/05 16:20:31  5-MIN KDBQ 052220Z 17012KT 8SM CLR 06/02 A3008 930 73 100 170/12 RMK AO2 $
94908KDBQ DBQ20050205162509302/05/05 16:25:31  5-MIN KDBQ 052225Z 17012KT 8SM CLR 07/02 A3008 930 70 200 170/12 RMK AO2 $
94908KDBQ DBQ20050205163009302/05/05 16:30:31  5-MIN KDBQ 052230Z 16013KT 8SM CLR 06/02 A3008 930 73 100 160/13 RMK AO2 $
94908KDBQ DBQ20050205163509302/05/05 16:35:31  5-MIN KDBQ 052235Z 16012KT 8SM CLR 06/02 A3008 930 73 100 160/12 RMK AO2 $
94908KDBQ DBQ20050205164009302/05/05 16:40:31  5-MIN KDBQ 052240Z 16012KT 8SM CLR 06/02 A3008 930 76 100 160/12 RMK AO2 $
94908KDBQ DBQ20050205164509302/05/05 16:45:31  5-MIN KDBQ 052245Z 16012KT 8SM CLR 06/02 A3008 930 73 100 160/12 RMK AO2 $
94908KDBQ DBQ20050205165011002/05/05 16:50:31  5-MIN KDBQ 052250Z 16013KT 8SM CLR 06/02 A3008 930 73 100 160/13 RMK AO2 SLP195 T00610017 $
94908KDBQ DBQ20050205165511002/05/05 16:55:31  5-MIN KDBQ 052255Z 16013KT 8SM CLR 06/02 A3008 930 76 100 160/13 RMK AO2 SLP195 T00560017 $
94908KDBQ DBQ20050205170009302/05/05 17:00:31  5-MIN KDBQ 052300Z 16012KT 8SM CLR 06/02 A3008 930 73 100 160/12 RMK AO2 $
94908KDBQ DBQ20050205170509302/05/05 17:05:31  5-MIN KDBQ 052305Z 16012KT 8SM CLR 06/01 A3008 940 70 100 160/12 RMK AO2 $
94908KDBQ DBQ20050205171009302/05/05 17:10:31  5-MIN KDBQ 052310Z 15014KT 9SM CLR 06/01 A3007 940 70 100 150/14 RMK AO2 $
94908KDBQ DBQ20050205171509302/05/05 17:15:31  5-MIN KDBQ 052315Z 15014KT 9SM CLR 06/01 A3006 950 70 100 150/14 RMK AO2 $
94908KDBQ DBQ20050205172009302/05/05 17:20:31  5-MIN KDBQ 052320Z 16013KT 9SM CLR 06/01 A3007 940 70 100 160/13 RMK AO2 $
94908KDBQ DBQ20050205172509402/05/05 17:25:31  5-MIN KDBQ 052325Z 16012KT 10SM CLR 06/01 A3007 940 73 100 160/12 RMK AO2 $
94908KDBQ DBQ20050205173009402/05/05 17:30:31  5-MIN KDBQ 052330Z 16013KT 10SM CLR 06/01 A3007 940 73 100 160/13 RMK AO2 $
94908KDBQ DBQ20050205173509402/05/05 17:35:31  5-MIN KDBQ 052335Z 16014KT 10SM CLR 06/01 A3007 940 73 100 160/14 RMK AO2 $
94908KDBQ DBQ20050205174009402/05/05 17:40:31  5-MIN KDBQ 052340Z 16014KT 10SM CLR 06/01 A3007 940 70 100 160/14 RMK AO2 $
94908KDBQ DBQ20050205174509402/05/05 17:45:31  5-MIN KDBQ 052345Z 16015KT 10SM CLR 06/01 A3007 940 70 100 160/15 RMK AO2 $
94908KDBQ DBQ20050205175012902/05/05 17:50:31  5-MIN KDBQ 052350Z 16014KT 10SM CLR 06/01 A3007 940 70 100 160/14 RMK AO2 SLP193 T00560006 10072 20050 58028 $
94908KDBQ DBQ20050205175512702/05/05 17:55:31  5-MIN KDBQ 052355Z 16014KT 10SM CLR 05/01 A3007 940 73 0 160/14 RMK AO2 SLP192 T00500006 10072 20050 50000 $
94908KDBQ DBQ20050205180009202/05/05 18:00:31  5-MIN KDBQ 060000Z 16014KT 10SM CLR 05/01 A3007 940 73 0 160/14 RMK AO2 $
94908KDBQ DBQ20050205180509202/05/05 18:05:31  5-MIN KDBQ 060005Z 16014KT 10SM CLR 05/01 A3007 940 73 0 160/14 RMK AO2 $
94908KDBQ DBQ20050205181009202/05/05 18:10:31  5-MIN KDBQ 060010Z 16014KT 10SM CLR 04/01 A3007 940 76 0 160/14 RMK AO2 $
94908KDBQ DBQ20050205181509202/05/05 18:15:31  5-MIN KDBQ 060015Z 16013KT 10SM CLR 04/01 A3008 930 76 0 160/13 RMK AO2 $
94908KDBQ DBQ20050205182011902/05/05 18:20:31  5-MIN KDBQ 060020Z 16021G205KT 10SM CLR 04/01 A3007 940 76 0 160/21G205 RMK AO2 PK WND 160205/0020 $
94908KDBQ DBQ20050205182511902/05/05 18:25:31  5-MIN KDBQ 060025Z 16014G205KT 10SM CLR 04/01 A3007 940 76 0 160/14G205 RMK AO2 PK WND 160205/0020 $
94908KDBQ DBQ20050205183011102/05/05 18:30:31  5-MIN KDBQ 060030Z 16013KT 10SM CLR 04/01 A3007 940 76 0 160/13 RMK AO2 PK WND 160205/0020 $
94908KDBQ DBQ20050205183511102/05/05 18:35:31  5-MIN KDBQ 060035Z 16012KT 10SM CLR 04/01 A3007 940 76 0 160/12 RMK AO2 PK WND 160205/0020 $
94908KDBQ DBQ20050205184011102/05/05 18:40:31  5-MIN KDBQ 060040Z 16012KT 10SM CLR 04/01 A3007 940 76 0 160/12 RMK AO2 PK WND 160205/0020 $
94908KDBQ DBQ20050205184511102/05/05 18:45:31  5-MIN KDBQ 060045Z 16013KT 10SM CLR 04/01 A3007 940 76 0 160/13 RMK AO2 PK WND 160205/0020 $
94908KDBQ DBQ20050205185012802/05/05 18:50:31  5-MIN KDBQ 060050Z 16013KT 10SM CLR 04/01 A3007 940 76 0 160/13 RMK AO2 PK WND 160205/0020 SLP194 T00440006 $
94908KDBQ DBQ20050205185512802/05/05 18:55:31  5-MIN KDBQ 060055Z 16014KT 10SM CLR 04/01 A3007 940 76 0 160/14 RMK AO2 PK WND 160205/0020 SLP194 T00440006 $
94908KDBQ DBQ20050205190009202/05/05 19:00:31  5-MIN KDBQ 060100Z 16014KT 10SM CLR 04/01 A3007 940 76 0 160/14 RMK AO2 $
94908KDBQ DBQ20050205190509202/05/05 19:05:31  5-MIN KDBQ 060105Z 16013KT 10SM CLR 04/01 A3007 940 76 0 160/13 RMK AO2 $
94908KDBQ DBQ20050205191009202/05/05 19:10:31  5-MIN KDBQ 060110Z 16013KT 10SM CLR 04/01 A3007 940 76 0 150/13 RMK AO2 $
94908KDBQ DBQ20050205191509202/05/05 19:15:31  5-MIN KDBQ 060115Z 16013KT 10SM CLR 04/01 A3007 940 76 0 160/13 RMK AO2 $
94908KDBQ DBQ20050205192009202/05/05 19:20:31  5-MIN KDBQ 060120Z 16013KT 10SM CLR 04/01 A3007 940 76 0 160/13 RMK AO2 $
94908KDBQ DBQ20050205192509202/05/05 19:25:31  5-MIN KDBQ 060125Z 15013KT 10SM CLR 05/01 A3007 940 73 0 150/13 RMK AO2 $
94908KDBQ DBQ20050205193009202/05/05 19:30:31  5-MIN KDBQ 060130Z 15014KT 10SM CLR 05/01 A3007 940 73 0 150/14 RMK AO2 $
94908KDBQ DBQ20050205193509202/05/05 19:35:31  5-MIN KDBQ 060135Z 15014KT 10SM CLR 05/01 A3007 940 76 0 150/14 RMK AO2 $
94908KDBQ DBQ20050205194009202/05/05 19:40:31  5-MIN KDBQ 060140Z 15015KT 10SM CLR 05/01 A3006 950 76 0 150/15 RMK AO2 $
94908KDBQ DBQ20050205194509202/05/05 19:45:31  5-MIN KDBQ 060145Z 16015KT 10SM CLR 05/01 A3006 950 76 0 160/15 RMK AO2 $
94908KDBQ DBQ20050205195011902/05/05 19:50:31  5-MIN KDBQ 060150Z AUTO 16015KT 10SM CLR 05/01 A3006 950 76 0 150/15 RMK AO2 SLP188 T00500011 TSNO $
94908KDBQ DBQ20050205195511902/05/05 19:55:31  5-MIN KDBQ 060155Z AUTO 16015KT 10SM CLR 05/01 A3006 950 76 0 160/15 RMK AO2 SLP188 T00500011 TSNO $
94908KDBQ DBQ20050205200010202/05/05 20:00:31  5-MIN KDBQ 060200Z AUTO 16015KT 10SM CLR 04/01 A3007 940 79 0 160/15 RMK AO2 TSNO $
94908KDBQ DBQ20050205200510202/05/05 20:05:31  5-MIN KDBQ 060205Z AUTO 16014KT 10SM CLR 04/01 A3007 940 79 0 160/14 RMK AO2 TSNO $
94908KDBQ DBQ20050205201010102/05/05 20:10:31  5-MIN KDBQ 060210Z AUTO 16014KT 9SM CLR 04/01 A3007 940 79 0 160/14 RMK AO2 TSNO $
94908KDBQ DBQ20050205201510102/05/05 20:15:31  5-MIN KDBQ 060215Z AUTO 16014KT 9SM CLR 04/01 A3007 940 79 0 160/14 RMK AO2 TSNO $
94908KDBQ DBQ20050205202010402/05/05 20:20:31  5-MIN KDBQ 060220Z AUTO 16014KT 9SM CLR 04/01 A3007 940 82 -100 160/14 RMK AO2 TSNO $
94908KDBQ DBQ20050205202510402/05/05 20:25:31  5-MIN KDBQ 060225Z AUTO 16013KT 9SM CLR 04/01 A3007 940 82 -100 160/13 RMK AO2 TSNO $
94908KDBQ DBQ20050205203010402/05/05 20:30:31  5-MIN KDBQ 060230Z AUTO 17012KT 9SM CLR 04/01 A3007 940 82 -100 170/12 RMK AO2 TSNO $
94908KDBQ DBQ20050205203510402/05/05 20:35:31  5-MIN KDBQ 060235Z AUTO 18011KT 8SM CLR 04/01 A3008 930 82 -100 180/11 RMK AO2 TSNO $
94908KDBQ DBQ20050205204010402/05/05 20:40:31  5-MIN KDBQ 060240Z AUTO 17012KT 8SM CLR 04/01 A3008 930 82 -100 170/12 RMK AO2 TSNO $
94908KDBQ DBQ20050205204510402/05/05 20:45:31  5-MIN KDBQ 060245Z AUTO 17012KT 8SM CLR 04/01 A3007 940 82 -100 170/12 RMK AO2 TSNO $
94908KDBQ DBQ20050205205012702/05/05 20:50:31  5-MIN KDBQ 060250Z AUTO 17014KT 8SM CLR 04/01 A3007 940 82 -100 170/14 RMK AO2 SLP192 T00390011 50000 TSNO $
94908KDBQ DBQ20050205205512702/05/05 20:55:31  5-MIN KDBQ 060255Z AUTO 17014KT 8SM CLR 04/01 A3007 940 82 -100 170/14 RMK AO2 SLP191 T00390011 55000 TSNO $
94908KDBQ DBQ20050205210010402/05/05 21:00:31  5-MIN KDBQ 060300Z AUTO 17014KT 7SM CLR 04/01 A3006 950 82 -100 170/14 RMK AO2 TSNO $
94908KDBQ DBQ20050205210510402/05/05 21:05:31  5-MIN KDBQ 060305Z AUTO 17014KT 7SM CLR 04/01 A3007 940 82 -100 170/14 RMK AO2 TSNO $
94908KDBQ DBQ20050205211010402/05/05 21:10:31  5-MIN KDBQ 060310Z AUTO 17015KT 7SM CLR 04/01 A3007 940 82 -100 170/15 RMK AO2 TSNO $
94908KDBQ DBQ20050205211510402/05/05 21:15:31  5-MIN KDBQ 060315Z AUTO 16016KT 7SM CLR 04/01 A3006 950 82 -100 160/16 RMK AO2 TSNO $
94908KDBQ DBQ20050205212010402/05/05 21:20:31  5-MIN KDBQ 060320Z AUTO 16015KT 7SM CLR 04/01 A3006 950 82 -100 160/15 RMK AO2 TSNO $
94908KDBQ DBQ20050205212510402/05/05 21:25:31  5-MIN KDBQ 060325Z AUTO 17014KT 7SM CLR 04/01 A3006 950 82 -100 160/14 RMK AO2 TSNO $
94908KDBQ DBQ20050205213010402/05/05 21:30:31  5-MIN KDBQ 060330Z AUTO 17013KT 7SM CLR 04/01 A3007 940 82 -100 170/13 RMK AO2 TSNO $
94908KDBQ DBQ20050205213510702/05/05 21:35:31  5-MIN KDBQ 060335Z AUTO 17014KT 6SM HZ CLR 04/01 A3007 940 82 -100 170/14 RMK AO2 TSNO $
94908KDBQ DBQ20050205214010702/05/05 21:40:31  5-MIN KDBQ 060340Z AUTO 17014KT 6SM HZ CLR 04/01 A3007 940 82 -100 160/14 RMK AO2 TSNO $
94908KDBQ DBQ20050205214510702/05/05 21:45:31  5-MIN KDBQ 060345Z AUTO 17014KT 6SM HZ CLR 04/01 A3007 940 82 -100 160/14 RMK AO2 TSNO $
94908KDBQ DBQ20050205215012402/05/05 21:50:31  5-MIN KDBQ 060350Z AUTO 17013KT 6SM HZ CLR 04/01 A3007 940 82 -100 170/13 RMK AO2 SLP193 T00390011 TSNO $
94908KDBQ DBQ20050205215512402/05/05 21:55:31  5-MIN KDBQ 060355Z AUTO 17013KT 6SM HZ CLR 04/01 A3007 940 82 -100 170/13 RMK AO2 SLP192 T00390011 TSNO $
94908KDBQ DBQ20050205220010702/05/05 22:00:31  5-MIN KDBQ 060400Z AUTO 17012KT 6SM HZ CLR 04/01 A3007 940 82 -100 170/12 RMK AO2 TSNO $
94908KDBQ DBQ20050205220510702/05/05 22:05:31  5-MIN KDBQ 060405Z AUTO 17011KT 6SM HZ CLR 04/01 A3007 940 82 -100 170/11 RMK AO2 TSNO $
94908KDBQ DBQ20050205221010702/05/05 22:10:31  5-MIN KDBQ 060410Z AUTO 17012KT 6SM HZ CLR 04/01 A3008 930 82 -100 170/12 RMK AO2 TSNO $
94908KDBQ DBQ20050205221510702/05/05 22:15:31  5-MIN KDBQ 060415Z AUTO 17013KT 6SM HZ CLR 04/01 A3007 940 82 -100 170/13 RMK AO2 TSNO $
94908KDBQ DBQ20050205222010702/05/05 22:20:31  5-MIN KDBQ 060420Z AUTO 17013KT 6SM HZ CLR 04/01 A3007 940 82 -100 170/13 RMK AO2 TSNO $
94908KDBQ DBQ20050205222510702/05/05 22:25:31  5-MIN KDBQ 060425Z AUTO 17012KT 6SM HZ CLR 04/01 A3007 940 82 -100 170/12 RMK AO2 TSNO $
94908KDBQ DBQ20050205223010702/05/05 22:30:31  5-MIN KDBQ 060430Z AUTO 17012KT 6SM HZ CLR 04/01 A3007 940 82 -100 170/12 RMK AO2 TSNO $
94908KDBQ DBQ20050205223510702/05/05 22:35:31  5-MIN KDBQ 060435Z AUTO 17012KT 6SM HZ CLR 04/01 A3007 940 82 -100 170/12 RMK AO2 TSNO $
94908KDBQ DBQ20050205224010702/05/05 22:40:31  5-MIN KDBQ 060440Z AUTO 17012KT 6SM HZ CLR 04/01 A3007 940 82 -100 170/12 RMK AO2 TSNO $
94908KDBQ DBQ20050205224510702/05/05 22:45:31  5-MIN KDBQ 060445Z AUTO 17012KT 6SM HZ CLR 04/01 A3007 940 82 -100 170/12 RMK AO2 TSNO $
94908KDBQ DBQ20050205225012402/05/05 22:50:31  5-MIN KDBQ 060450Z AUTO 17012KT 6SM HZ CLR 04/01 A3007 940 82 -100 170/12 RMK AO2 SLP192 T00390011 TSNO $
94908KDBQ DBQ20050205225512402/05/05 22:55:31  5-MIN KDBQ 060455Z AUTO 17013KT 6SM HZ CLR 04/01 A3007 940 82 -100 170/13 RMK AO2 SLP193 T00390011 TSNO $
94908KDBQ DBQ20050205230010402/05/05 23:00:31  5-MIN KDBQ 060500Z AUTO 17013KT 6SM HZ CLR 04/01 A3008 940 79 0 170/13 RMK AO2 TSNO $
94908KDBQ DBQ20050205230510702/05/05 23:05:31  5-MIN KDBQ 060505Z AUTO 17012KT 6SM HZ CLR 04/01 A3007 940 82 -100 170/12 RMK AO2 TSNO $
94908KDBQ DBQ20050205231010702/05/05 23:10:31  5-MIN KDBQ 060510Z AUTO 17011KT 6SM HZ CLR 04/01 A3007 940 82 -100 170/11 RMK AO2 TSNO $
94908KDBQ DBQ20050205231510702/05/05 23:15:31  5-MIN KDBQ 060515Z AUTO 17012KT 6SM HZ CLR 04/01 A3008 940 82 -100 170/12 RMK AO2 TSNO $
94908KDBQ DBQ20050205232010702/05/05 23:20:31  5-MIN KDBQ 060520Z AUTO 17012KT 6SM HZ CLR 04/01 A3008 930 82 -100 170/12 RMK AO2 TSNO $
94908KDBQ DBQ20050205232510702/05/05 23:25:31  5-MIN KDBQ 060525Z AUTO 17011KT 6SM HZ CLR 04/01 A3007 940 82 -100 170/11 RMK AO2 TSNO $
94908KDBQ DBQ20050205233010702/05/05 23:30:31  5-MIN KDBQ 060530Z AUTO 17011KT 6SM BR CLR 03/01 A3007 940 85 -200 170/11 RMK AO2 TSNO $
94908KDBQ DBQ20050205233510702/05/05 23:35:31  5-MIN KDBQ 060535Z AUTO 17012KT 6SM HZ CLR 04/01 A3007 940 82 -100 160/12 RMK AO2 TSNO $
94908KDBQ DBQ20050205234010702/05/05 23:40:31  5-MIN KDBQ 060540Z AUTO 17012KT 6SM BR CLR 03/01 A3007 940 85 -200 160/12 RMK AO2 TSNO $
94908KDBQ DBQ20050205234510702/05/05 23:45:31  5-MIN KDBQ 060545Z AUTO 17011KT 6SM BR CLR 03/01 A3007 940 85 -200 170/11 RMK AO2 TSNO $
94908KDBQ DBQ20050205235015202/05/05 23:50:31  5-MIN KDBQ 060550Z AUTO 17011KT 6SM BR CLR 03/01 A3007 940 85 -200 170/11 RMK AO2 SLP191 T00330011 10050 20033 400721006 55000 TSNO $
94908KDBQ DBQ20050205235515202/05/05 23:55:31  5-MIN KDBQ 060555Z AUTO 17012KT 6SM BR CLR 03/01 A3007 940 85 -200 170/12 RMK AO2 SLP192 T00330011 10050 20033 400721006 50000 TSNO $
94908KDBQ DBQ20050206000010702/06/05 00:00:38  5-MIN KDBQ 060600Z AUTO 17011KT 6SM BR CLR 03/01 A3007 940 85 -200 170/11 RMK AO2 TSNO $
94908KDBQ DBQ20050206000510702/06/05 00:05:31  5-MIN KDBQ 060605Z AUTO 17011KT 6SM BR CLR 03/01 A3007 940 85 -200 170/11 RMK AO2 TSNO $
94908KDBQ DBQ20050206001010702/06/05 00:10:31  5-MIN KDBQ 060610Z AUTO 17012KT 6SM HZ CLR 04/01 A3007 940 82 -100 170/12 RMK AO2 TSNO $
94908KDBQ DBQ20050206001510702/06/05 00:15:31  5-MIN KDBQ 060615Z AUTO 17012KT 6SM BR CLR 03/01 A3007 940 85 -200 160/12 RMK AO2 TSNO $
94908KDBQ DBQ20050206002010702/06/05 00:20:31  5-MIN KDBQ 060620Z AUTO 16013KT 6SM HZ CLR 04/01 A3006 950 82 -100 160/13 RMK AO2 TSNO $
94908KDBQ DBQ20050206002510702/06/05 00:25:31  5-MIN KDBQ 060625Z AUTO 16012KT 6SM HZ CLR 03/01 A3006 950 82 -100 160/12 RMK AO2 TSNO $
94908KDBQ DBQ20050206003010702/06/05 00:30:31  5-MIN KDBQ 060630Z AUTO 16012KT 6SM HZ CLR 04/01 A3006 950 82 -100 160/12 RMK AO2 TSNO $
94908KDBQ DBQ20050206003510702/06/05 00:35:31  5-MIN KDBQ 060635Z AUTO 17013KT 6SM HZ CLR 04/01 A3006 950 79 -100 160/13 RMK AO2 TSNO $
94908KDBQ DBQ20050206004010702/06/05 00:40:31  5-MIN KDBQ 060640Z AUTO 17013KT 6SM HZ CLR 03/01 A3006 950 82 -100 160/13 RMK AO2 TSNO $
94908KDBQ DBQ20050206004510702/06/05 00:45:31  5-MIN KDBQ 060645Z AUTO 17013KT 6SM HZ CLR 03/01 A3006 950 82 -100 170/13 RMK AO2 TSNO $
94908KDBQ DBQ20050206005012402/06/05 00:50:31  5-MIN KDBQ 060650Z AUTO 17013KT 6SM HZ CLR 03/01 A3006 950 82 -200 170/13 RMK AO2 SLP189 T00330006 TSNO $
94908KDBQ DBQ20050206005512402/06/05 00:55:31  5-MIN KDBQ 060655Z AUTO 17014KT 6SM HZ CLR 04/01 A3006 940 79 -100 170/14 RMK AO2 SLP188 T00390006 TSNO $
94908KDBQ DBQ20050206010010702/06/05 01:00:31  5-MIN KDBQ 060700Z AUTO 17013KT 6SM HZ CLR 04/01 A3006 950 82 -100 170/13 RMK AO2 TSNO $
94908KDBQ DBQ20050206010510702/06/05 01:05:31  5-MIN KDBQ 060705Z AUTO 17013KT 6SM HZ CLR 04/01 A3006 950 82 -100 170/13 RMK AO2 TSNO $
94908KDBQ DBQ20050206011010702/06/05 01:10:31  5-MIN KDBQ 060710Z AUTO 17012KT 6SM HZ CLR 04/01 A3007 940 79 -100 170/12 RMK AO2 TSNO $
94908KDBQ DBQ20050206011510702/06/05 01:15:31  5-MIN KDBQ 060715Z AUTO 17012KT 6SM HZ CLR 04/01 A3007 940 79 -100 170/12 RMK AO2 TSNO $
94908KDBQ DBQ20050206012010702/06/05 01:20:31  5-MIN KDBQ 060720Z AUTO 17011KT 6SM HZ CLR 04/01 A3007 940 79 -100 170/11 RMK AO2 TSNO $
94908KDBQ DBQ20050206012511002/06/05 01:25:31  5-MIN KDBQ 060725Z AUTO 17011KT 6SM HZ FEW110 03/01 A3007 940 82 -200 170/11 RMK AO2 TSNO $
94908KDBQ DBQ20050206013011002/06/05 01:30:31  5-MIN KDBQ 060730Z AUTO 17011KT 6SM HZ SCT110 03/01 A3007 940 82 -200 170/11 RMK AO2 TSNO $
94908KDBQ DBQ20050206013511002/06/05 01:35:31  5-MIN KDBQ 060735Z AUTO 17011KT 6SM HZ SCT110 03/01 A3007 940 82 -200 170/11 RMK AO2 TSNO $
94908KDBQ DBQ20050206014011002/06/05 01:40:31  5-MIN KDBQ 060740Z AUTO 17011KT 6SM HZ BKN110 03/01 A3007 940 82 -200 170/11 RMK AO2 TSNO $
94908KDBQ DBQ20050206014511002/06/05 01:45:31  5-MIN KDBQ 060745Z AUTO 17012KT 6SM HZ BKN110 03/01 A3007 940 82 -200 170/12 RMK AO2 TSNO $
94908KDBQ DBQ20050206015012702/06/05 01:50:31  5-MIN KDBQ 060750Z AUTO 17012KT 6SM HZ BKN110 03/01 A3007 940 82 -200 170/12 RMK AO2 SLP190 T00330006 TSNO $
94908KDBQ DBQ20050206015512702/06/05 01:55:31  5-MIN KDBQ 060755Z AUTO 17012KT 6SM HZ BKN110 04/01 A3007 940 79 -100 170/12 RMK AO2 SLP190 T00390006 TSNO $
94908KDBQ DBQ20050206020011002/06/05 02:00:31  5-MIN KDBQ 060800Z AUTO 17012KT 6SM HZ SCT110 03/01 A3007 940 82 -200 170/12 RMK AO2 TSNO $
94908KDBQ DBQ20050206020511002/06/05 02:05:31  5-MIN KDBQ 060805Z AUTO 17012KT 6SM HZ FEW110 04/01 A3007 940 79 -100 170/12 RMK AO2 TSNO $
94908KDBQ DBQ20050206021011002/06/05 02:10:31  5-MIN KDBQ 060810Z AUTO 17011KT 6SM HZ FEW110 04/01 A3008 930 79 -100 170/11 RMK AO2 TSNO $
94908KDBQ DBQ20050206021510702/06/05 02:15:31  5-MIN KDBQ 060815Z AUTO 18010KT 6SM HZ CLR 03/01 A3008 930 82 -200 180/10 RMK AO2 TSNO $
94908KDBQ DBQ20050206022010702/06/05 02:20:31  5-MIN KDBQ 060820Z AUTO 18011KT 6SM HZ CLR 03/01 A3008 930 82 -200 170/11 RMK AO2 TSNO $
94908KDBQ DBQ20050206022510702/06/05 02:25:31  5-MIN KDBQ 060825Z AUTO 17011KT 6SM HZ CLR 03/01 A3008 940 82 -200 170/11 RMK AO2 TSNO $
94908KDBQ DBQ20050206023010702/06/05 02:30:31  5-MIN KDBQ 060830Z AUTO 17011KT 6SM HZ CLR 03/01 A3007 940 82 -200 170/11 RMK AO2 TSNO $
94908KDBQ DBQ20050206023510702/06/05 02:35:31  5-MIN KDBQ 060835Z AUTO 17012KT 6SM HZ CLR 03/01 A3007 940 82 -200 170/12 RMK AO2 TSNO $
94908KDBQ DBQ20050206024010702/06/05 02:40:31  5-MIN KDBQ 060840Z AUTO 17012KT 6SM HZ CLR 03/01 A3007 940 82 -200 170/12 RMK AO2 TSNO $
94908KDBQ DBQ20050206024510702/06/05 02:45:31  5-MIN KDBQ 060845Z AUTO 17012KT 6SM HZ CLR 03/01 A3007 940 82 -200 160/12 RMK AO2 TSNO $
94908KDBQ DBQ20050206025013002/06/05 02:50:31  5-MIN KDBQ 060850Z AUTO 17012KT 6SM HZ CLR 03/01 A3007 940 82 -200 160/12 RMK AO2 SLP189 T00330006 50000 TSNO $
94908KDBQ DBQ20050206025513002/06/05 02:55:31  5-MIN KDBQ 060855Z AUTO 17012KT 6SM HZ CLR 03/01 A3007 940 82 -200 160/12 RMK AO2 SLP189 T00330006 56001 TSNO $
94908KDBQ DBQ20050206030010702/06/05 03:00:31  5-MIN KDBQ 060900Z AUTO 17011KT 6SM HZ CLR 03/01 A3007 940 82 -200 170/11 RMK AO2 TSNO $
94908KDBQ DBQ20050206030510402/06/05 03:05:31  5-MIN KDBQ 060905Z AUTO 17011KT 7SM CLR 03/01 A3007 940 82 -200 170/11 RMK AO2 TSNO $
94908KDBQ DBQ20050206031010402/06/05 03:10:31  5-MIN KDBQ 060910Z AUTO 17011KT 7SM CLR 04/01 A3007 940 79 -100 170/11 RMK AO2 TSNO $
94908KDBQ DBQ20050206031510402/06/05 03:15:31  5-MIN KDBQ 060915Z AUTO 18010KT 7SM CLR 04/01 A3007 940 79 -100 180/10 RMK AO2 TSNO $
94908KDBQ DBQ20050206032010402/06/05 03:20:31  5-MIN KDBQ 060920Z AUTO 18010KT 7SM CLR 04/01 A3007 940 79 -100 180/10 RMK AO2 TSNO $
94908KDBQ DBQ20050206032510402/06/05 03:25:31  5-MIN KDBQ 060925Z AUTO 18011KT 7SM CLR 04/01 A3007 940 79 -100 180/11 RMK AO2 TSNO $
94908KDBQ DBQ20050206033010402/06/05 03:30:31  5-MIN KDBQ 060930Z AUTO 18010KT 7SM CLR 04/01 A3007 940 79 -100 180/10 RMK AO2 TSNO $
94908KDBQ DBQ20050206033510402/06/05 03:35:31  5-MIN KDBQ 060935Z AUTO 19010KT 7SM CLR 04/01 A3007 940 79 -100 180/10 RMK AO2 TSNO $
94908KDBQ DBQ20050206034010402/06/05 03:40:31  5-MIN KDBQ 060940Z AUTO 18010KT 7SM CLR 04/01 A3007 940 79 -100 180/10 RMK AO2 TSNO $
94908KDBQ DBQ20050206034510402/06/05 03:45:31  5-MIN KDBQ 060945Z AUTO 19011KT 7SM CLR 04/01 A3008 930 79 -100 180/11 RMK AO2 TSNO $
94908KDBQ DBQ20050206035012102/06/05 03:50:31  5-MIN KDBQ 060950Z AUTO 19010KT 7SM CLR 04/01 A3008 930 79 -100 190/10 RMK AO2 SLP192 T00390006 TSNO $
94908KDBQ DBQ20050206035512102/06/05 03:55:31  5-MIN KDBQ 060955Z AUTO 19011KT 7SM CLR 04/01 A3008 930 79 -100 180/11 RMK AO2 SLP192 T00390006 TSNO $
94908KDBQ DBQ20050206040010402/06/05 04:00:31  5-MIN KDBQ 061000Z AUTO 19011KT 7SM CLR 04/01 A3008 930 79 -100 180/11 RMK AO2 TSNO $
94908KDBQ DBQ20050206040510402/06/05 04:05:31  5-MIN KDBQ 061005Z AUTO 18012KT 7SM CLR 04/01 A3008 930 79 -100 180/12 RMK AO2 TSNO $
94908KDBQ DBQ20050206041010402/06/05 04:10:31  5-MIN KDBQ 061010Z AUTO 18012KT 7SM CLR 04/01 A3008 930 79 -100 180/12 RMK AO2 TSNO $
94908KDBQ DBQ20050206041510402/06/05 04:15:31  5-MIN KDBQ 061015Z AUTO 18011KT 7SM CLR 04/01 A3008 930 79 -100 180/11 RMK AO2 TSNO $
94908KDBQ DBQ20050206042010402/06/05 04:20:31  5-MIN KDBQ 061020Z AUTO 18011KT 7SM CLR 04/01 A3008 930 79 -100 180/11 RMK AO2 TSNO $
94908KDBQ DBQ20050206042510402/06/05 04:25:31  5-MIN KDBQ 061025Z AUTO 18011KT 7SM CLR 04/01 A3008 930 79 -100 170/11 RMK AO2 TSNO $
94908KDBQ DBQ20050206043010402/06/05 04:30:31  5-MIN KDBQ 061030Z AUTO 17011KT 7SM CLR 04/01 A3007 940 79 -100 170/11 RMK AO2 TSNO $
94908KDBQ DBQ20050206043510002/06/05 04:35:31  5-MIN KDBQ 061035Z AUTO 17011KT CLR 03/01 A3007 940 82 -200 170/11 RMK AO2 TSNO $
94908KDBQ DBQ20050206044010002/06/05 04:40:31  5-MIN KDBQ 061040Z AUTO 17011KT CLR 03/01 A3007 940 82 -200 170/11 RMK AO2 TSNO $
94908KDBQ DBQ20050206044510702/06/05 04:45:31  5-MIN KDBQ 061045Z AUTO 17011KT 6SM HZ CLR 03/01 A3007 940 82 -200 170/11 RMK AO2 TSNO $
94908KDBQ DBQ20050206045012402/06/05 04:50:31  5-MIN KDBQ 061050Z AUTO 17011KT 6SM HZ CLR 03/01 A3007 940 82 -200 170/11 RMK AO2 SLP192 T00330006 TSNO $
94908KDBQ DBQ20050206045512402/06/05 04:55:31  5-MIN KDBQ 061055Z AUTO 18010KT 6SM HZ CLR 03/01 A3007 940 82 -200 180/10 RMK AO2 SLP193 T00330006 TSNO $
94908KDBQ DBQ20050206050010702/06/05 05:00:31  5-MIN KDBQ 061100Z AUTO 17011KT 6SM HZ CLR 03/01 A3007 940 82 -200 170/11 RMK AO2 TSNO $
94908KDBQ DBQ20050206050510702/06/05 05:05:31  5-MIN KDBQ 061105Z AUTO 17010KT 6SM HZ CLR 03/01 A3007 940 82 -200 170/10 RMK AO2 TSNO $
94908KDBQ DBQ20050206051010702/06/05 05:10:31  5-MIN KDBQ 061110Z AUTO 18010KT 6SM HZ CLR 03/01 A3007 940 82 -200 180/10 RMK AO2 TSNO $
94908KDBQ DBQ20050206051510702/06/05 05:15:31  5-MIN KDBQ 061115Z AUTO 17011KT 6SM HZ CLR 03/01 A3007 940 82 -200 170/11 RMK AO2 TSNO $
94908KDBQ DBQ20050206052010702/06/05 05:20:31  5-MIN KDBQ 061120Z AUTO 19010KT 6SM HZ CLR 03/01 A3007 940 82 -200 190/10 RMK AO2 TSNO $
94908KDBQ DBQ20050206052510702/06/05 05:25:31  5-MIN KDBQ 061125Z AUTO 18011KT 6SM HZ CLR 03/00 A3007 940 79 -200 180/11 RMK AO2 TSNO $
94908KDBQ DBQ20050206053010402/06/05 05:30:31  5-MIN KDBQ 061130Z AUTO 18012KT 7SM CLR 03/01 A3007 940 82 -200 180/12 RMK AO2 TSNO $
94908KDBQ DBQ20050206053510402/06/05 05:35:31  5-MIN KDBQ 061135Z AUTO 18012KT 7SM CLR 03/01 A3007 940 82 -200 180/12 RMK AO2 TSNO $
94908KDBQ DBQ20050206054010402/06/05 05:40:31  5-MIN KDBQ 061140Z AUTO 18011KT 7SM CLR 03/01 A3007 940 82 -200 180/11 RMK AO2 TSNO $
94908KDBQ DBQ20050206054510402/06/05 05:45:31  5-MIN KDBQ 061145Z AUTO 18012KT 7SM CLR 03/01 A3007 940 82 -200 180/12 RMK AO2 TSNO $
94908KDBQ DBQ20050206055013902/06/05 05:50:31  5-MIN KDBQ 061150Z AUTO 17011KT 7SM CLR 04/01 A3007 940 79 -100 170/11 RMK AO2 SLP189 T00390006 10039 20028 56001 TSNO $
94908KDBQ DBQ20050206055512902/06/05 05:55:31  5-MIN KDBQ 061155Z 17011KT 7SM CLR 04/00 A3007 940 76 -100 170/11 RMK AO2 SLP190 T00390000 10039 20028 58001 $
94908KDBQ DBQ20050206060009402/06/05 06:00:31  5-MIN KDBQ 061200Z 17011KT 7SM CLR 03/00 A3007 940 79 -200 170/11 RMK AO2 $
94908KDBQ DBQ20050206060509402/06/05 06:05:31  5-MIN KDBQ 061205Z 18010KT 7SM CLR 03/00 A3007 940 79 -200 180/10 RMK AO2 $
94908KDBQ DBQ20050206061009402/06/05 06:10:31  5-MIN KDBQ 061210Z 18010KT 7SM CLR 03/00 A3007 940 79 -200 180/10 RMK AO2 $
94908KDBQ DBQ20050206061509402/06/05 06:15:31  5-MIN KDBQ 061215Z 19010KT 7SM CLR 03/00 A3007 940 79 -200 190/10 RMK AO2 $
94908KDBQ DBQ20050206062009402/06/05 06:20:31  5-MIN KDBQ 061220Z 19010KT 7SM CLR 03/00 A3007 940 79 -200 190/10 RMK AO2 $
94908KDBQ DBQ20050206062509402/06/05 06:25:31  5-MIN KDBQ 061225Z 19008KT 7SM CLR 03/00 A3007 940 79 -200 190/08 RMK AO2 $
94908KDBQ DBQ20050206063009402/06/05 06:30:31  5-MIN KDBQ 061230Z 20007KT 7SM CLR 03/00 A3006 950 79 -100 200/07 RMK AO2 $
94908KDBQ DBQ20050206063509402/06/05 06:35:31  5-MIN KDBQ 061235Z 20008KT 7SM CLR 03/00 A3007 940 79 -200 200/08 RMK AO2 $
94908KDBQ DBQ20050206064009402/06/05 06:40:31  5-MIN KDBQ 061240Z 20009KT 7SM CLR 03/00 A3007 940 79 -200 200/09 RMK AO2 $
94908KDBQ DBQ20050206064509402/06/05 06:45:31  5-MIN KDBQ 061245Z 19009KT 7SM CLR 03/00 A3007 940 79 -200 190/09 RMK AO2 $
94908KDBQ DBQ20050206065011102/06/05 06:50:31  5-MIN KDBQ 061250Z 18010KT 7SM CLR 03/00 A3007 940 79 -200 180/10 RMK AO2 SLP191 T00330000 $
94908KDBQ DBQ20050206065511102/06/05 06:55:31  5-MIN KDBQ 061255Z 18010KT 7SM CLR 03/00 A3007 940 79 -200 180/10 RMK AO2 SLP192 T00330000 $
94908KDBQ DBQ20050206070009402/06/05 07:00:31  5-MIN KDBQ 061300Z 19010KT 7SM CLR 03/00 A3007 940 79 -200 190/10 RMK AO2 $
94908KDBQ DBQ20050206070509402/06/05 07:05:31  5-MIN KDBQ 061305Z 19008KT 7SM CLR 03/00 A3007 940 79 -200 190/08 RMK AO2 $
94908KDBQ DBQ20050206071009402/06/05 07:10:31  5-MIN KDBQ 061310Z 19009KT 7SM CLR 03/00 A3007 940 82 -200 190/09 RMK AO2 $
94908KDBQ DBQ20050206071509402/06/05 07:15:31  5-MIN KDBQ 061315Z 19008KT 7SM CLR 03/00 A3007 940 79 -200 190/08 RMK AO2 $
94908KDBQ DBQ20050206072009402/06/05 07:20:31  5-MIN KDBQ 061320Z 19009KT 7SM CLR 03/00 A3007 940 79 -200 190/09 RMK AO2 $
94908KDBQ DBQ20050206072509702/06/05 07:25:31  5-MIN KDBQ 061325Z 19009KT 6SM HZ CLR 03/00 A3008 930 79 -200 190/09 RMK AO2 $
94908KDBQ DBQ20050206073009702/06/05 07:30:31  5-MIN KDBQ 061330Z 19009KT 6SM HZ CLR 03/00 A3008 940 79 -200 190/09 RMK AO2 $
94908KDBQ DBQ20050206073509702/06/05 07:35:31  5-MIN KDBQ 061335Z 19008KT 5SM HZ CLR 03/00 A3008 930 82 -200 190/08 RMK AO2 $
94908KDBQ DBQ20050206074009702/06/05 07:40:31  5-MIN KDBQ 061340Z 20009KT 5SM HZ CLR 03/00 A3008 930 82 -200 200/09 RMK AO2 $
94908KDBQ DBQ20050206074508702/06/05 07:45:31  5-MIN KDBQ 061345Z 5SM HZ CLR 03/00 A3008 930 82 -200 M /M RMK AO2 $
94908KDBQ DBQ20050206075011402/06/05 07:50:31  5-MIN KDBQ 061350Z 20009KT 5SM HZ CLR 03/00 A3009 920 82 -200 190/09 RMK AO2 SLP198 T00280000 $
94908KDBQ DBQ20050206075511402/06/05 07:55:31  5-MIN KDBQ 061355Z 19009KT 5SM HZ CLR 03/00 A3009 920 82 -300 190/09 RMK AO2 SLP199 T00280000 $
94908KDBQ DBQ20050206080009702/06/05 08:00:31  5-MIN KDBQ 061400Z 19009KT 5SM BR CLR 03/01 A3009 920 85 -300 190/09 RMK AO2 $
94908KDBQ DBQ20050206080509702/06/05 08:05:31  5-MIN KDBQ 061405Z 19008KT 5SM BR CLR 03/01 A3010 920 85 -300 190/08 RMK AO2 $
94908KDBQ DBQ20050206081009702/06/05 08:10:31  5-MIN KDBQ 061410Z 19008KT 5SM BR CLR 03/01 A3010 920 85 -300 190/08 RMK AO2 $
94908KDBQ DBQ20050206081509702/06/05 08:15:31  5-MIN KDBQ 061415Z 19007KT 5SM BR CLR 03/01 A3010 920 85 -300 190/07 RMK AO2 $
94908KDBQ DBQ20050206082009702/06/05 08:20:31  5-MIN KDBQ 061420Z 19007KT 5SM BR CLR 03/01 A3010 920 85 -300 190/07 RMK AO2 $
94908KDBQ DBQ20050206082509702/06/05 08:25:31  5-MIN KDBQ 061425Z 19008KT 5SM BR CLR 03/01 A3010 910 85 -300 190/08 RMK AO2 $
94908KDBQ DBQ20050206083009702/06/05 08:30:31  5-MIN KDBQ 061430Z 19009KT 5SM HZ CLR 03/01 A3010 910 82 -200 190/09 RMK AO2 $
94908KDBQ DBQ20050206083509702/06/05 08:35:31  5-MIN KDBQ 061435Z 18009KT 5SM HZ CLR 03/01 A3011 900 82 -200 180/09 RMK AO2 $
94908KDBQ DBQ20050206084009702/06/05 08:40:31  5-MIN KDBQ 061440Z 18009KT 5SM HZ CLR 03/01 A3012 900 82 -200 180/09 RMK AO2 $
94908KDBQ DBQ20050206084509702/06/05 08:45:31  5-MIN KDBQ 061445Z 19010KT 6SM HZ CLR 03/01 A3012 890 82 -200 190/10 RMK AO2 $
94908KDBQ DBQ20050206085012002/06/05 08:50:31  5-MIN KDBQ 061450Z 19009KT 6SM HZ CLR 03/01 A3012 890 82 -200 190/09 RMK AO2 SLP209 T00330006 58001 $
94908KDBQ DBQ20050206085512002/06/05 08:55:31  5-MIN KDBQ 061455Z 19010KT 6SM HZ CLR 03/01 A3012 890 82 -200 190/10 RMK AO2 SLP210 T00330006 53019 $
94908KDBQ DBQ20050206090009702/06/05 09:00:31  5-MIN KDBQ 061500Z 19009KT 6SM HZ CLR 03/01 A3013 890 82 -200 190/09 RMK AO2 $
94908KDBQ DBQ20050206090509702/06/05 09:05:31  5-MIN KDBQ 061505Z 20009KT 5SM HZ CLR 03/01 A3012 890 82 -200 200/09 RMK AO2 $
94908KDBQ DBQ20050206091009702/06/05 09:10:31  5-MIN KDBQ 061510Z 20008KT 5SM BR CLR 03/01 A3012 890 85 -300 200/08 RMK AO2 $
94908KDBQ DBQ20050206091509702/06/05 09:15:31  5-MIN KDBQ 061515Z 20008KT 5SM HZ CLR 03/01 A3012 890 82 -200 200/08 RMK AO2 $
94908KDBQ DBQ20050206092009002/06/05 09:20:31  5-MIN KDBQ 061520Z 20009KT CLR 03/01 A3012 890 82 -200 200/09 RMK AO2 $
94908KDBQ DBQ20050206092509702/06/05 09:25:31  5-MIN KDBQ 061525Z 20009KT 6SM HZ CLR 03/01 A3012 890 82 -200 200/09 RMK AO2 $
94908KDBQ DBQ20050206093009702/06/05 09:30:31  5-MIN KDBQ 061530Z 19010KT 6SM HZ CLR 03/01 A3013 880 82 -200 190/10 RMK AO2 $
94908KDBQ DBQ20050206093509702/06/05 09:35:31  5-MIN KDBQ 061535Z 20009KT 6SM HZ CLR 03/01 A3013 890 82 -200 200/09 RMK AO2 $
94908KDBQ DBQ20050206094009702/06/05 09:40:31  5-MIN KDBQ 061540Z 23006KT 6SM HZ CLR 03/01 A3011 900 82 -200 230/06 RMK AO2 $
94908KDBQ DBQ20050206094509702/06/05 09:45:31  5-MIN KDBQ 061545Z 20009KT 6SM HZ CLR 04/01 A3012 890 79 -100 200/09 RMK AO2 $
94908KDBQ DBQ20050206095011702/06/05 09:50:31  5-MIN KDBQ 061550Z 20010KT 6SM HZ FEW100 04/01 A3013 880 79 -200 200/10 RMK AO2 SLP212 T00390006 $
94908KDBQ DBQ20050206095511702/06/05 09:55:31  5-MIN KDBQ 061555Z 20008KT 6SM HZ FEW100 04/01 A3013 890 79 -200 200/08 RMK AO2 SLP212 T00390006 $
94908KDBQ DBQ20050206100010002/06/05 10:00:31  5-MIN KDBQ 061600Z 21009KT 6SM HZ FEW095 04/01 A3013 890 79 -200 210/09 RMK AO2 $
94908KDBQ DBQ20050206100509702/06/05 10:05:31  5-MIN KDBQ 061605Z 21009KT 7SM FEW095 04/01 A3013 890 79 -200 210/09 RMK AO2 $
94908KDBQ DBQ20050206101009702/06/05 10:10:31  5-MIN KDBQ 061610Z 22007KT 7SM FEW090 04/01 A3012 890 79 -100 220/07 RMK AO2 $
94908KDBQ DBQ20050206101509702/06/05 10:15:31  5-MIN KDBQ 061615Z 21009KT 7SM FEW090 04/01 A3012 890 76 -100 210/09 RMK AO2 $
94908KDBQ DBQ20050206102009402/06/05 10:20:31  5-MIN KDBQ 061620Z 22008KT 7SM CLR 04/01 A3012 900 76 -100 220/08 RMK AO2 $
94908KDBQ DBQ20050206102509702/06/05 10:25:31  5-MIN KDBQ 061625Z 21008KT 7SM FEW090 04/01 A3012 890 76 -100 210/08 RMK AO2 $
94908KDBQ DBQ20050206103009402/06/05 10:30:31  5-MIN KDBQ 061630Z 21010KT 7SM CLR 04/01 A3013 890 76 -100 210/10 RMK AO2 $
94908KDBQ DBQ20050206103509702/06/05 10:35:31  5-MIN KDBQ 061635Z 21009KT 7SM FEW080 04/01 A3013 890 76 -100 210/09 RMK AO2 $
94908KDBQ DBQ20050206104009702/06/05 10:40:31  5-MIN KDBQ 061640Z 22009KT 8SM FEW085 04/01 A3013 880 76 -100 220/09 RMK AO2 $
94908KDBQ DBQ20050206104509402/06/05 10:45:31  5-MIN KDBQ 061645Z 21008KT 8SM CLR 04/01 A3013 880 79 -100 210/08 RMK AO2 $
94908KDBQ DBQ20050206105011102/06/05 10:50:31  5-MIN KDBQ 061650Z 20006KT 8SM CLR 04/01 A3013 880 79 -100 200/06 RMK AO2 SLP213 T00440011 $
94908KDBQ DBQ20050206105511102/06/05 10:55:31  5-MIN KDBQ 061655Z 21004KT 7SM CLR 04/01 A3012 890 79 -100 210/04 RMK AO2 SLP210 T00440011 $
94908KDBQ DBQ20050206110009402/06/05 11:00:31  5-MIN KDBQ 061700Z 20007KT 7SM CLR 04/01 A3013 880 79 -100 200/07 RMK AO2 $
94908KDBQ DBQ20050206110509702/06/05 11:05:31  5-MIN KDBQ 061705Z 20007KT 7SM FEW080 04/01 A3013 880 79 -100 200/07 RMK AO2 $
94908KDBQ DBQ20050206111009702/06/05 11:10:31  5-MIN KDBQ 061710Z 20007KT 7SM FEW085 04/01 A3013 890 79 -100 200/07 RMK AO2 $
94908KDBQ DBQ20050206111509402/06/05 11:15:31  5-MIN KDBQ 061715Z 20006KT 8SM FEW085 05/01 A3013 890 76 0 200/06 RMK AO2 $
94908KDBQ DBQ20050206112010102/06/05 11:20:31  5-MIN KDBQ 061720Z 20005KT 8SM FEW080 SCT095 05/01 A3012 890 76 0 200/05 RMK AO2 $
94908KDBQ DBQ20050206112510102/06/05 11:25:31  5-MIN KDBQ 061725Z 18008KT 8SM FEW080 SCT095 05/02 A3013 890 79 0 180/08 RMK AO2 $
94908KDBQ DBQ20050206113010102/06/05 11:30:31  5-MIN KDBQ 061730Z 18009KT 8SM SCT080 SCT095 05/01 A3013 880 76 0 180/09 RMK AO2 $
94908KDBQ DBQ20050206113510102/06/05 11:35:31  5-MIN KDBQ 061735Z 19009KT 8SM SCT075 SCT085 05/02 A3013 880 79 0 190/09 RMK AO2 $
94908KDBQ DBQ20050206114010102/06/05 11:40:31  5-MIN KDBQ 061740Z 19009KT 8SM FEW070 SCT085 05/02 A3013 890 79 0 190/09 RMK AO2 $
94908KDBQ DBQ20050206114509402/06/05 11:45:31  5-MIN KDBQ 061745Z 20007KT 8SM FEW075 05/02 A3013 890 79 0 200/07 RMK AO2 $
94908KDBQ DBQ20050206115012902/06/05 11:50:31  5-MIN KDBQ 061750Z 20009KT 8SM FEW075 05/02 A3013 890 79 0 200/09 RMK AO2 SLP212 T00500017 10050 20028 53019 $
94908KDBQ DBQ20050206115512902/06/05 11:55:31  5-MIN KDBQ 061755Z 21008KT 8SM SCT080 05/02 A3013 890 79 0 210/08 RMK AO2 SLP212 T00500017 10050 20028 51002 $
94908KDBQ DBQ20050206120009402/06/05 12:00:31  5-MIN KDBQ 061800Z 20007KT 8SM SCT080 05/02 A3013 890 79 0 200/07 RMK AO2 $
94908KDBQ DBQ20050206120509402/06/05 12:05:31  5-MIN KDBQ 061805Z 20008KT 8SM SCT080 05/02 A3013 890 79 0 200/08 RMK AO2 $
94908KDBQ DBQ20050206121010102/06/05 12:10:31  5-MIN KDBQ 061810Z 21007KT 8SM SCT065 BKN080 05/02 A3013 890 79 0 210/07 RMK AO2 $
94908KDBQ DBQ20050206121510802/06/05 12:15:31  5-MIN KDBQ 061815Z 20008KT 8SM FEW060 BKN075 BKN085 05/02 A3013 890 79 0 200/08 RMK AO2 $
94908KDBQ DBQ20050206122010102/06/05 12:20:31  5-MIN KDBQ 061820Z 21007KT 8SM BKN070 BKN085 05/02 A3012 890 79 0 210/07 RMK AO2 $
94908KDBQ DBQ20050206122509402/06/05 12:25:31  5-MIN KDBQ 061825Z 22007KT 8SM BKN070 05/02 A3012 890 79 0 220/07 RMK AO2 $
94908KDBQ DBQ20050206123009402/06/05 12:30:31  5-MIN KDBQ 061830Z 22004KT 8SM BKN070 05/01 A3012 900 76 0 220/04 RMK AO2 $
94908KDBQ DBQ20050206123509402/06/05 12:35:31  5-MIN KDBQ 061835Z 22006KT 8SM BKN070 05/02 A3012 900 79 0 220/06 RMK AO2 $
94908KDBQ DBQ20050206124009402/06/05 12:40:31  5-MIN KDBQ 061840Z 23005KT 8SM SCT070 05/02 A3011 900 79 0 230/05 RMK AO2 $
94908KDBQ DBQ20050206124509402/06/05 12:45:31  5-MIN KDBQ 061845Z 22005KT 7SM SCT065 05/02 A3011 900 79 0 220/05 RMK AO2 $
94908KDBQ DBQ20050206125011802/06/05 12:50:31  5-MIN KDBQ 061850Z 21006KT 7SM FEW036 BKN065 05/02 A3012 900 79 0 210/06 RMK AO2 SLP207 T00500017 $
94908KDBQ DBQ20050206125514102/06/05 12:55:31  5-MIN KDBQ 061855Z 20008KT 7SM -RA FEW031 SCT044 BKN065 05/02 A3012 900 79 0 200/08 RMK AO2 RAB52 SLP208 P0000 T00500017 $
94908KDBQ DBQ20050206130011802/06/05 13:00:31  5-MIN KDBQ 061900Z 19009KT 7SM -RA FEW034 SCT044 BKN060 05/02 A3012 890 79 0 190/09 RMK AO2 P0000 $
94908KDBQ DBQ20050206130511802/06/05 13:05:31  5-MIN KDBQ 061905Z 19009KT 6SM -RA SCT033 SCT044 OVC060 05/02 A3012 890 82 0 190/09 RMK AO2 P0000 $
94908KDBQ DBQ20050206131011802/06/05 13:10:31  5-MIN KDBQ 061910Z 19009KT 6SM -RA SCT027 BKN044 OVC060 05/02 A3012 890 82 0 180/09 RMK AO2 P0000 $
94908KDBQ DBQ20050206131511802/06/05 13:15:31  5-MIN KDBQ 061915Z 19009KT 6SM -RA BKN025 BKN044 OVC060 05/02 A3012 890 82 0 190/09 RMK AO2 P0000 $
94908KDBQ DBQ20050206132011802/06/05 13:20:31  5-MIN KDBQ 061920Z 19009KT 5SM -RA FEW017 BKN025 OVC060 05/02 A3012 890 82 0 190/09 RMK AO2 P0000 $
94908KDBQ DBQ20050206132512102/06/05 13:25:31  5-MIN KDBQ 061925Z 20007KT 4SM -RA BR FEW017 BKN023 OVC055 05/03 A3012 890 85 0 190/07 RMK AO2 P0000 $
94908KDBQ DBQ20050206133012302/06/05 13:30:31  5-MIN KDBQ 061930Z 20007KT 5SM BR FEW017 BKN023 BKN042 05/03 A3012 900 85 0 190/07 RMK AO2 RAE30 P0000 $
94908KDBQ DBQ20050206133512302/06/05 13:35:31  5-MIN KDBQ 061935Z 20008KT 6SM BR FEW017 SCT023 BKN033 05/03 A3012 900 85 0 200/08 RMK AO2 RAE30 P0000 $
94908KDBQ DBQ20050206134012302/06/05 13:40:31  5-MIN KDBQ 061940Z 21008KT 6SM BR FEW017 BKN025 BKN033 05/03 A3011 900 85 0 200/08 RMK AO2 RAE30 P0000 $
94908KDBQ DBQ20050206134512102/06/05 13:45:31  5-MIN KDBQ 061945Z 20007KT 6SM -RA BR FEW017 BKN025 BKN033 05/03 A3011 900 85 0 200/07 RMK AO2 P0000 $
94908KDBQ DBQ20050206135013802/06/05 13:50:31  5-MIN KDBQ 061950Z 20008KT 6SM -RA BR SCT015 BKN031 BKN040 05/03 A3011 900 85 0 200/08 RMK AO2 SLP206 P0000 T00500028 $
94908KDBQ DBQ20050206135514102/06/05 13:55:31  5-MIN KDBQ 061955Z 20007KT 5SM -RA BR FEW015 SCT027 BKN035 04/03 A3011 900 89 -100 200/07 RMK AO2 SLP206 P0000 T00440028 $
94908KDBQ DBQ20050206140012402/06/05 14:00:31  5-MIN KDBQ 062000Z 21007KT 5SM -RA BR FEW015 BKN029 OVC046 04/03 A3011 900 89 -100 210/07 RMK AO2 P0000 $
94908KDBQ DBQ20050206140512402/06/05 14:05:31  5-MIN KDBQ 062005Z 21007KT 5SM -RA BR FEW015 SCT029 OVC046 04/03 A3011 900 89 -100 210/07 RMK AO2 P0000 $
94908KDBQ DBQ20050206141012402/06/05 14:10:31  5-MIN KDBQ 062010Z 21007KT 5SM -RA BR FEW015 SCT029 OVC046 04/03 A3011 900 89 -100 210/07 RMK AO2 P0000 $
94908KDBQ DBQ20050206141512402/06/05 14:15:31  5-MIN KDBQ 062015Z 21006KT 5SM -RA BR FEW015 SCT029 OVC046 04/03 A3010 910 89 -100 210/06 RMK AO2 P0000 $
94908KDBQ DBQ20050206142012402/06/05 14:20:31  5-MIN KDBQ 062020Z 22004KT 5SM -RA BR FEW015 SCT029 OVC046 04/03 A3011 910 89 -100 220/04 RMK AO2 P0000 $
94908KDBQ DBQ20050206142512402/06/05 14:25:31  5-MIN KDBQ 062025Z 20003KT 4SM -RA BR FEW015 SCT029 OVC046 04/03 A3010 910 92 -100 200/03 RMK AO2 P0000 $
94908KDBQ DBQ20050206143012402/06/05 14:30:31  5-MIN KDBQ 062030Z 21004KT 4SM -RA BR FEW015 SCT029 OVC046 04/03 A3010 910 92 -100 210/04 RMK AO2 P0000 $
94908KDBQ DBQ20050206143512402/06/05 14:35:31  5-MIN KDBQ 062035Z 20005KT 4SM -RA BR FEW015 SCT029 OVC046 04/03 A3010 910 92 -100 200/05 RMK AO2 P0000 $
94908KDBQ DBQ20050206144011702/06/05 14:40:31  5-MIN KDBQ 062040Z 21004KT 4SM -RA BR BKN033 OVC042 04/03 A3010 910 92 -100 210/04 RMK AO2 P0000 $
94908KDBQ DBQ20050206144512602/06/05 14:45:31  5-MIN KDBQ 062045Z 19004KT 4SM BR BKN031 BKN039 OVC070 04/03 A3010 910 92 -100 190/04 RMK AO2 RAE42 P0000 $
94908KDBQ DBQ20050206145015502/06/05 14:50:31  5-MIN KDBQ 062050Z 00000KT 4SM BR FEW028 BKN036 OVC070 04/03 A3010 910 92 -100 000/00 RMK AO2 RAE42 SLP201 P0000 60000 T00440033 51002 $
94908KDBQ DBQ20050206145515502/06/05 14:55:31  5-MIN KDBQ 062055Z 19003KT 4SM BR SCT031 BKN055 OVC065 04/03 A3010 910 92 -100 190/03 RMK AO2 RAE42 SLP202 P0000 60000 T00440033 58009 $
94908KDBQ DBQ20050206150011402/06/05 15:00:31  5-MIN KDBQ 062100Z 18003KT 4SM BR FEW031 BKN050 OVC065 04/03 A3010 910 92 -100 180/03 RMK AO2 $
94908KDBQ DBQ20050206150513002/06/05 15:05:31  5-MIN KDBQ 062105Z 17003KT 4SM -RA BR FEW031 BKN050 OVC065 04/03 A3010 910 92 -100 170/03 RMK AO2 RAB01 P0000 $
94908KDBQ DBQ20050206151013002/06/05 15:10:31  5-MIN KDBQ 062110Z 17003KT 4SM -RA BR SCT034 BKN048 OVC065 04/03 A3010 910 92 -100 170/03 RMK AO2 RAB01 P0000 $
94908KDBQ DBQ20050206151513002/06/05 15:15:31  5-MIN KDBQ 062115Z 00000KT 3SM -RA BR BKN032 BKN044 OVC065 04/03 A3010 910 92 -100 000/00 RMK AO2 RAB01 P0000 $
94908KDBQ DBQ20050206152012302/06/05 15:20:31  5-MIN KDBQ 062120Z 16004KT 3SM -RA BR BKN033 OVC047 04/03 A3010 910 96 -100 160/04 RMK AO2 RAB01 P0000 $
94908KDBQ DBQ20050206152512302/06/05 15:25:31  5-MIN KDBQ 062125Z 16003KT 3SM -RA BR SCT030 OVC036 04/03 A3010 910 92 -100 160/03 RMK AO2 RAB01 P0000 $
94908KDBQ DBQ20050206153012302/06/05 15:30:31  5-MIN KDBQ 062130Z 16004KT 3SM -RA BR BKN030 OVC036 04/03 A3010 910 92 -100 160/04 RMK AO2 RAB01 P0000 $
94908KDBQ DBQ20050206153512302/06/05 15:35:31  5-MIN KDBQ 062135Z 16003KT 3SM -RA BR FEW026 OVC034 04/03 A3010 910 96 -100 160/03 RMK AO2 RAB01 P0000 $
94908KDBQ DBQ20050206154012302/06/05 15:40:31  5-MIN KDBQ 062140Z 00000KT 3SM -RA BR BKN036 OVC047 04/03 A3010 910 96 -100 000/00 RMK AO2 RAB01 P0000 $
94908KDBQ DBQ20050206154512702/06/05 15:45:31  5-MIN KDBQ 062145Z 17003KT 2 1/2SM -RA BR BKN036 OVC047 04/03 A3010 910 96 -100 170/03 RMK AO2 RAB01 P0001 $
94908KDBQ DBQ20050206155013702/06/05 15:50:31  5-MIN KDBQ 062150Z 00000KT 2 1/2SM -RA BR OVC038 04/03 A3010 910 96 -100 000/00 RMK AO2 RAB01 SLP201 P0001 T00390033 $
94908KDBQ DBQ20050206155513702/06/05 15:55:31  5-MIN KDBQ 062155Z 00000KT 2 1/2SM -RA BR OVC038 04/03 A3010 920 96 -100 000/00 RMK AO2 RAB01 SLP200 P0001 T00390033 $
94908KDBQ DBQ20050206160012102/06/05 16:00:31  5-MIN KDBQ 062200Z 00000KT 2 1/2SM -RA BR BKN038 OVC047 04/03 A3009 920 96 -100 000/00 RMK AO2 P0000 $
94908KDBQ DBQ20050206160512402/06/05 16:05:31  5-MIN KDBQ 062205Z 13003KT 3SM -RA BR BKN038 BKN048 OVC070 04/03 A3009 920 96 -100 130/03 RMK AO2 P0000 $
94908KDBQ DBQ20050206161012402/06/05 16:10:31  5-MIN KDBQ 062210Z 13003KT 3SM -RA BR BKN038 BKN050 OVC070 04/03 A3009 920 96 -100 120/03 RMK AO2 P0000 $
94908KDBQ DBQ20050206161512302/06/05 16:15:31  5-MIN KDBQ 062215Z 13003KT 2 1/2SM BR BKN038 OVC070 04/03 A3010 910 92 -100 130/03 RMK AO2 RAE11 P0000 $
94908KDBQ DBQ20050206162012802/06/05 16:20:31  5-MIN KDBQ 062220Z 12004KT 2 1/2SM -RA BR BKN038 BKN048 OVC070 04/03 A3009 920 92 -100 120/04 RMK AO2 P0000 $
94908KDBQ DBQ20050206162512802/06/05 16:25:31  5-MIN KDBQ 062225Z 13006KT 2 1/2SM -RA BR BKN038 BKN050 OVC070 04/03 A3010 920 92 -100 130/06 RMK AO2 P0000 $
94908KDBQ DBQ20050206163011702/06/05 16:30:31  5-MIN KDBQ 062230Z 12005KT 3SM -RA BR BKN038 OVC048 04/03 A3009 920 92 -100 120/05 RMK AO2 P0000 $
94908KDBQ DBQ20050206163512302/06/05 16:35:31  5-MIN KDBQ 062235Z 12005KT 2 1/2SM BR BKN038 OVC048 04/03 A3009 920 96 -100 120/05 RMK AO2 RAE35 P0000 $
94908KDBQ DBQ20050206164012302/06/05 16:40:31  5-MIN KDBQ 062240Z 13006KT 2 1/2SM BR SCT038 OVC048 04/03 A3009 920 92 -100 130/06 RMK AO2 RAE35 P0000 $
94908KDBQ DBQ20050206164512302/06/05 16:45:31  5-MIN KDBQ 062245Z 12006KT 2 1/2SM BR BKN041 OVC048 04/03 A3009 920 92 -100 120/06 RMK AO2 RAE35 P0000 $
94908KDBQ DBQ20050206165013302/06/05 16:50:31  5-MIN KDBQ 062250Z 13007KT 2 1/2SM BR OVC041 04/03 A3010 920 92 -100 130/07 RMK AO2 RAE35 SLP201 P0000 T00390028 $
94908KDBQ DBQ20050206165513302/06/05 16:55:31  5-MIN KDBQ 062255Z 14006KT 2 1/2SM BR OVC041 03/03 A3010 910 96 -200 130/06 RMK AO2 RAE35 SLP201 P0000 T00330028 $
94908KDBQ DBQ20050206170010402/06/05 17:00:31  5-MIN KDBQ 062300Z 14007KT 2 1/2SM BR OVC041 03/03 A3010 910 96 -200 130/07 RMK AO2 $
94908KDBQ DBQ20050206170512002/06/05 17:05:31  5-MIN KDBQ 062305Z 14008KT 2 1/2SM -RA BR OVC041 03/03 A3010 910 96 -200 140/08 RMK AO2 RAB04 P0000 $
94908KDBQ DBQ20050206171012002/06/05 17:10:31  5-MIN KDBQ 062310Z 14008KT 2 1/2SM -RA BR OVC039 03/03 A3010 910 96 -200 140/08 RMK AO2 RAB04 P0000 $
94908KDBQ DBQ20050206171513602/06/05 17:15:31  5-MIN KDBQ 062315Z 14008KT 070V150 2 1/2SM -RA BR OVC039 04/03 A3010 910 92 -100 140/08 070V150 RMK AO2 RAB04 P0000 $
94908KDBQ DBQ20050206172011602/06/05 17:20:31  5-MIN KDBQ 062320Z 14010KT 3SM -RA BR OVC039 04/03 A3010 910 92 -100 140/10 RMK AO2 RAB04 P0000 $
94908KDBQ DBQ20050206172511602/06/05 17:25:31  5-MIN KDBQ 062325Z 14009KT 4SM -RA BR OVC037 04/03 A3010 910 92 -100 140/09 RMK AO2 RAB04 P0001 $
94908KDBQ DBQ20050206173012302/06/05 17:30:31  5-MIN KDBQ 062330Z 14007KT 4SM -RA BR BKN037 OVC049 04/03 A3010 910 92 -100 140/07 RMK AO2 RAB04 P0001 $
94908KDBQ DBQ20050206173513002/06/05 17:35:31  5-MIN KDBQ 062335Z 15006KT 4SM -RA BR BKN035 BKN042 OVC049 03/03 A3010 910 96 -200 150/06 RMK AO2 RAB04 P0001 $
94908KDBQ DBQ20050206174012302/06/05 17:40:31  5-MIN KDBQ 062340Z 15005KT 4SM -RA BR BKN035 OVC047 03/03 A3011 910 96 -200 150/05 RMK AO2 RAB04 P0001 $
94908KDBQ DBQ20050206174513002/06/05 17:45:31  5-MIN KDBQ 062345Z 16005KT 3SM -RA BR BKN035 BKN042 OVC049 03/03 A3011 910 96 -200 150/05 RMK AO2 RAB04 P0001 $
94908KDBQ DBQ20050206175016402/06/05 17:50:31  5-MIN KDBQ 062350Z 16005KT 3SM -RA BR BKN035 OVC042 03/03 A3011 900 96 -200 160/05 RMK AO2 RAB04 SLP205 P0002 60003 T00330028 10050 20033 58009 $
94908KDBQ DBQ20050206175516402/06/05 17:55:31  5-MIN KDBQ 062355Z 17003KT 3SM -RA BR BKN035 OVC049 03/02 A3011 900 96 -300 170/03 RMK AO2 RAB04 SLP205 P0002 60003 T00280022 10050 20028 53003 $
94908KDBQ DBQ20050206180011002/06/05 18:00:31  5-MIN KDBQ 070000Z 00000KT 3SM -RA BR OVC035 03/02 A3011 900 96 -300 000/00 RMK AO2 P0000 $
94908KDBQ DBQ20050206180511402/06/05 18:05:31  5-MIN KDBQ 070005Z 00000KT 2 1/2SM -RA BR OVC035 03/02 A3011 900 96 -300 000/00 RMK AO2 P0001 $
94908KDBQ DBQ20050206181011402/06/05 18:10:31  5-MIN KDBQ 070010Z 00000KT 2 1/2SM -RA BR OVC035 03/02 A3011 900 96 -300 000/00 RMK AO2 P0001 $
94908KDBQ DBQ20050206181511402/06/05 18:15:31  5-MIN KDBQ 070015Z 00000KT 2 1/2SM -RA BR OVC035 03/02 A3011 900 96 -300 000/00 RMK AO2 P0001 $
94908KDBQ DBQ20050206182011402/06/05 18:20:31  5-MIN KDBQ 070020Z 15003KT 2 1/2SM -RA BR OVC033 03/02 A3011 900 96 -300 150/03 RMK AO2 P0001 $
94908KDBQ DBQ20050206182511002/06/05 18:25:31  5-MIN KDBQ 070025Z 15003KT 3SM -RA BR OVC033 03/02 A3011 900 96 -300 150/03 RMK AO2 P0002 $
94908KDBQ DBQ20050206183011002/06/05 18:30:31  5-MIN KDBQ 070030Z 15003KT 3SM -RA BR OVC033 03/03 A3011 900 96 -200 150/03 RMK AO2 P0002 $
94908KDBQ DBQ20050206183511102/06/05 18:35:31  5-MIN KDBQ 070035Z 16003KT 3SM -RA BR OVC033 03/03 A3011 900 100 -300 160/03 RMK AO2 P0002 $
94908KDBQ DBQ20050206184011402/06/05 18:40:31  5-MIN KDBQ 070040Z 00000KT 2 1/2SM -RA BR OVC033 03/02 A3011 900 96 -300 000/00 RMK AO2 P0003 $
94908KDBQ DBQ20050206184511402/06/05 18:45:31  5-MIN KDBQ 070045Z 00000KT 2 1/2SM -RA BR OVC033 03/02 A3012 900 96 -300 000/00 RMK AO2 P0003 $
94908KDBQ DBQ20050206185013102/06/05 18:50:31  5-MIN KDBQ 070050Z 00000KT 2 1/2SM -RA BR OVC033 03/02 A3012 900 96 -300 000/00 RMK AO2 SLP208 P0003 T00280022 $
94908KDBQ DBQ20050206185512702/06/05 18:55:31  5-MIN KDBQ 070055Z 00000KT 2SM -RA BR OVC033 03/02 A3012 900 96 -300 000/00 RMK AO2 SLP208 P0004 T00280022 $
94908KDBQ DBQ20050206190011002/06/05 19:00:31  5-MIN KDBQ 070100Z 00000KT 2SM -RA BR OVC033 03/02 A3012 890 96 -300 000/00 RMK AO2 P0000 $
94908KDBQ DBQ20050206190511102/06/05 19:05:31  5-MIN KDBQ 070105Z 15004KT 2SM -RA BR OVC031 03/03 A3012 890 100 -300 150/04 RMK AO2 P0001 $
94908KDBQ DBQ20050206191011402/06/05 19:10:31  5-MIN KDBQ 070110Z 14005KT 2 1/2SM -RA BR OVC031 03/03 A3012 890 96 -200 140/05 RMK AO2 P0009 $
94908KDBQ DBQ20050206191511402/06/05 19:15:31  5-MIN KDBQ 070115Z 13003KT 2 1/2SM -RA BR OVC031 03/03 A3012 900 96 -200 130/03 RMK AO2 P0009 $
94908KDBQ DBQ20050206192011402/06/05 19:20:31  5-MIN KDBQ 070120Z 14004KT 2 1/2SM -RA BR OVC031 03/03 A3012 900 96 -200 140/04 RMK AO2 P0010 $
94908KDBQ DBQ20050206192511402/06/05 19:25:31  5-MIN KDBQ 070125Z 00000KT 2 1/2SM -RA BR OVC031 04/03 A3012 900 96 -100 000/00 RMK AO2 P0010 $
94908KDBQ DBQ20050206193011402/06/05 19:30:31  5-MIN KDBQ 070130Z 00000KT 2 1/2SM -RA BR OVC029 03/03 A3012 890 96 -200 000/00 RMK AO2 P0010 $
94908KDBQ DBQ20050206193511702/06/05 19:35:31  5-MIN KDBQ 070135Z 00000KT 2SM -RA BR FEW024 OVC029 03/03 A3012 900 96 -200 000/00 RMK AO2 P0011 $
94908KDBQ DBQ20050206194011502/06/05 19:40:31  5-MIN KDBQ 070140Z 15006KT 2 1/2SM -RA BR OVC029 03/03 A3012 890 100 -300 140/06 RMK AO2 P0011 $
94908KDBQ DBQ20050206194511402/06/05 19:45:31  5-MIN KDBQ 070145Z 13005KT 2 1/2SM -RA BR OVC029 03/03 A3011 900 96 -200 130/05 RMK AO2 P0011 $
94908KDBQ DBQ20050206195012702/06/05 19:50:31  5-MIN KDBQ 070150Z 14006KT 3SM -RA BR OVC029 03/03 A3011 900 96 -200 140/06 RMK AO2 SLP206 P0011 T00330028 $
94908KDBQ DBQ20050206195513702/06/05 19:55:31  5-MIN KDBQ 070155Z AUTO 15006KT 3SM -RA BR OVC029 03/03 A3011 900 96 -200 140/06 RMK AO2 SLP207 P0011 T00330028 TSNO $
94908KDBQ DBQ20050206200012702/06/05 20:00:31  5-MIN KDBQ 070200Z AUTO 15005KT 3SM -RA BR FEW019 OVC029 03/03 A3012 890 96 -200 150/05 RMK AO2 P0001 TSNO $
94908KDBQ DBQ20050206200512702/06/05 20:05:31  5-MIN KDBQ 070205Z AUTO 15005KT 3SM -RA BR FEW019 OVC029 03/03 A3012 890 96 -200 150/05 RMK AO2 P0001 TSNO $
94908KDBQ DBQ20050206201012002/06/05 20:10:31  5-MIN KDBQ 070210Z AUTO 16004KT 3SM -RA BR OVC029 03/03 A3012 890 96 -200 160/04 RMK AO2 P0001 TSNO $
94908KDBQ DBQ20050206201512702/06/05 20:15:31  5-MIN KDBQ 070215Z AUTO 14003KT 3SM -RA BR BKN029 OVC046 03/03 A3012 900 96 -200 140/03 RMK AO2 P0001 TSNO $
94908KDBQ DBQ20050206202013802/06/05 20:20:31  5-MIN KDBQ 070220Z AUTO 16003KT 2 1/2SM -RA BR BKN029 BKN038 OVC046 03/02 A3013 890 92 -200 160/03 RMK AO2 P0001 TSNO $
94908KDBQ DBQ20050206202513802/06/05 20:25:31  5-MIN KDBQ 070225Z AUTO 16003KT 2 1/2SM -RA BR BKN031 BKN038 OVC046 03/02 A3012 890 96 -300 160/03 RMK AO2 P0001 TSNO $
94908KDBQ DBQ20050206203013102/06/05 20:30:31  5-MIN KDBQ 070230Z AUTO 15003KT 2 1/2SM -RA BR BKN031 OVC046 03/02 A3012 890 92 -200 150/03 RMK AO2 P0001 TSNO $
94908KDBQ DBQ20050206203513402/06/05 20:35:31  5-MIN KDBQ 070235Z AUTO 13004KT 2 1/2SM BR BKN031 OVC046 03/03 A3012 900 100 -300 130/04 RMK AO2 RAEMM P0001 TSNO $
94908KDBQ DBQ20050206204013302/06/05 20:40:31  5-MIN KDBQ 070240Z AUTO 13006KT 2 1/2SM BR BKN031 OVC046 03/03 A3011 900 96 -200 130/06 RMK AO2 RAEMM P0001 TSNO $
94908KDBQ DBQ20050206204512602/06/05 20:45:31  5-MIN KDBQ 070245Z AUTO 13006KT 2 1/2SM BR OVC031 03/03 A3011 910 96 -200 130/06 RMK AO2 RAEMM P0001 TSNO $
94908KDBQ DBQ20050206205016202/06/05 20:50:31  5-MIN KDBQ 070250Z AUTO 12006KT 2 1/2SM BR FEW022 OVC029 03/03 A3010 910 96 -200 120/06 RMK AO2 RAEMM SLP203 P0001 60016 T00330028 53003 TSNO $
94908KDBQ DBQ20050206205516202/06/05 20:55:31  5-MIN KDBQ 070255Z AUTO 13006KT 2 1/2SM BR SCT022 OVC029 04/03 A3010 910 96 -100 130/06 RMK AO2 RAEMM SLP203 P0001 60016 T00390033 58002 TSNO $
94908KDBQ DBQ20050206210012102/06/05 21:00:31  5-MIN KDBQ 070300Z AUTO 13006KT 2 1/2SM BR SCT022 OVC029 04/03 A3011 910 96 -100 130/06 RMK AO2 TSNO $
94908KDBQ DBQ20050206210512202/06/05 21:05:31  5-MIN KDBQ 070305Z AUTO 13006KT 2 1/2SM BR SCT020 OVC029 03/03 A3011 910 100 -200 130/06 RMK AO2 TSNO $
94908KDBQ DBQ20050206211012802/06/05 21:10:31  5-MIN KDBQ 070310Z AUTO 13006KT 2 1/2SM BR SCT020 BKN029 OVC041 03/03 A3011 910 96 -200 130/06 RMK AO2 TSNO $
94908KDBQ DBQ20050206211512802/06/05 21:15:31  5-MIN KDBQ 070315Z AUTO 13006KT 2 1/2SM BR FEW012 BKN019 OVC041 04/03 A3010 910 96 -100 120/06 RMK AO2 TSNO $
94908KDBQ DBQ20050206212012402/06/05 21:20:31  5-MIN KDBQ 070320Z AUTO 13005KT 2SM BR SCT014 BKN019 OVC031 04/03 A3011 910 96 -100 130/05 RMK AO2 TSNO $
94908KDBQ DBQ20050206212512502/06/05 21:25:31  5-MIN KDBQ 070325Z AUTO 13006KT 2SM BR BKN012 BKN019 OVC031 03/03 A3011 910 100 -200 130/06 RMK AO2 TSNO $
94908KDBQ DBQ20050206213012402/06/05 21:30:31  5-MIN KDBQ 070330Z AUTO 12005KT 2SM BR BKN012 BKN019 OVC041 04/03 A3010 910 96 -100 120/05 RMK AO2 TSNO $
94908KDBQ DBQ20050206213512802/06/05 21:35:31  5-MIN KDBQ 070335Z AUTO 12005KT 1 3/4SM BR BKN009 BKN012 OVC019 04/03 A3010 910 96 -100 120/05 RMK AO2 TSNO $
94908KDBQ DBQ20050206214013402/06/05 21:40:31  5-MIN KDBQ 070340Z AUTO 12004KT 1 3/4SM BR BKN009 OVC012 03/03 A3010 910 100 -200 120/04 RMK AO2 CIG 007V012 TSNO $
94908KDBQ DBQ20050206214513402/06/05 21:45:31  5-MIN KDBQ 070345Z AUTO 13004KT 1 1/2SM BR BKN009 OVC014 03/03 A3010 910 100 -200 120/04 RMK AO2 CIG 007V012 TSNO $
94908KDBQ DBQ20050206215014402/06/05 21:50:31  5-MIN KDBQ 070350Z AUTO 13005KT 1 1/2SM BR OVC009 03/03 A3010 910 100 -200 130/05 RMK AO2 CIG 006V012 SLP203 T00330033 TSNO $
94908KDBQ DBQ20050206215514302/06/05 21:55:31  5-MIN KDBQ 070355Z AUTO 13006KT 1 1/4SM BR OVC007 03/03 A3010 910 96 -200 130/06 RMK AO2 CIG 004V010 SLP202 T00330028 TSNO $
94908KDBQ DBQ20050206220013302/06/05 22:00:31  5-MIN KDBQ 070400Z AUTO 13007KT 1 1/4SM BR BKN005 OVC009 03/03 A3010 910 96 -200 130/07 RMK AO2 CIG 004V007 TSNO $
94908KDBQ DBQ20050206220512702/06/05 22:05:31  5-MIN KDBQ 070405Z AUTO 13006KT 1 1/4SM BR OVC005 03/03 A3010 910 100 -200 130/06 RMK AO2 CIG 003V010 TSNO $
94908KDBQ DBQ20050206221012702/06/05 22:10:31  5-MIN KDBQ 070410Z AUTO 13006KT 1 1/4SM BR OVC005 03/03 A3010 920 100 -200 130/06 RMK AO2 CIG 002V007 TSNO $
94908KDBQ DBQ20050206221512302/06/05 22:15:31  5-MIN KDBQ 070415Z AUTO 13006KT 1SM BR OVC003 03/03 A3009 920 100 -200 130/06 RMK AO2 CIG 002V006 TSNO $
94908KDBQ DBQ20050206222011302/06/05 22:20:31  5-MIN KDBQ 070420Z AUTO 13006KT 3/4SM BR OVC003 03/03 A3009 920 100 -200 130/06 RMK AO2 TSNO $
94908KDBQ DBQ20050206222511302/06/05 22:25:31  5-MIN KDBQ 070425Z AUTO 13005KT 3/4SM BR OVC003 03/03 A3009 920 100 -200 130/05 RMK AO2 TSNO $
94908KDBQ DBQ20050206223011302/06/05 22:30:31  5-MIN KDBQ 070430Z AUTO 13005KT 1/2SM FG OVC003 03/03 A3009 920 100 -200 130/05 RMK AO2 TSNO $
94908KDBQ DBQ20050206223511302/06/05 22:35:31  5-MIN KDBQ 070435Z AUTO 13004KT 1/2SM FG OVC003 03/03 A3009 920 100 -200 130/04 RMK AO2 TSNO $
94908KDBQ DBQ20050206224011302/06/05 22:40:31  5-MIN KDBQ 070440Z AUTO 13004KT 1/4SM FG OVC003 03/03 A3009 920 100 -200 130/04 RMK AO2 TSNO $
94908KDBQ DBQ20050206224511302/06/05 22:45:31  5-MIN KDBQ 070445Z AUTO 00000KT 1/4SM FG OVC003 03/03 A3009 920 100 -200 000/00 RMK AO2 TSNO $
94908KDBQ DBQ20050206225012902/06/05 22:50:31  5-MIN KDBQ 070450Z AUTO 00000KT 1/4SM FG VV001 03/03 A3009 920 100 -200 000/00 RMK AO2 SLP198 T00330033 TSNO $
94908KDBQ DBQ20050206225512902/06/05 22:55:31  5-MIN KDBQ 070455Z AUTO 00000KT 1/4SM FG VV001 03/03 A3009 920 100 -200 000/00 RMK AO2 SLP197 T00280028 TSNO $
94908KDBQ DBQ20050206230011702/06/05 23:00:31  5-MIN KDBQ 070500Z AUTO 00000KT 1/4SM FG VV001 03/02 A3009 930 96 -200 000/00 RMK AO2 P0001 TSNO $
94908KDBQ DBQ20050206230511702/06/05 23:05:31  5-MIN KDBQ 070505Z AUTO 00000KT 1/4SM FG VV001 03/02 A3008 930 92 -200 000/00 RMK AO2 P0001 TSNO $
94908KDBQ DBQ20050206231011702/06/05 23:10:31  5-MIN KDBQ 070510Z AUTO 14003KT 1/4SM FG VV001 03/03 A3008 930 96 -200 140/03 RMK AO2 P0001 TSNO $
94908KDBQ DBQ20050206231512602/06/05 23:15:31  5-MIN KDBQ 070515Z AUTO 14004KT 1/4SM FG BKN001 OVC007 03/03 A3008 930 100 -200 130/04 RMK AO2 P0001 TSNO $
94908KDBQ DBQ20050206232012602/06/05 23:20:31  5-MIN KDBQ 070520Z AUTO 14003KT 1/4SM FG BKN001 OVC007 03/03 A3008 930 100 -200 140/03 RMK AO2 P0001 TSNO $
94908KDBQ DBQ20050206232512602/06/05 23:25:31  5-MIN KDBQ 070525Z AUTO 14003KT 1/4SM FG BKN001 OVC007 03/03 A3008 930 100 -200 130/03 RMK AO2 P0001 TSNO $
94908KDBQ DBQ20050206233012602/06/05 23:30:31  5-MIN KDBQ 070530Z AUTO 14003KT 1/4SM FG BKN001 OVC007 03/03 A3008 930 100 -200 140/03 RMK AO2 P0001 TSNO $
94908KDBQ DBQ20050206233512602/06/05 23:35:31  5-MIN KDBQ 070535Z AUTO 00000KT 1/4SM FG BKN003 OVC007 03/03 A3008 940 100 -200 000/00 RMK AO2 P0001 TSNO $
94908KDBQ DBQ20050206234012602/06/05 23:40:31  5-MIN KDBQ 070540Z AUTO 00000KT 1/4SM FG BKN003 OVC007 03/03 A3008 930 100 -200 000/00 RMK AO2 P0001 TSNO $
94908KDBQ DBQ20050206234512602/06/05 23:45:31  5-MIN KDBQ 070545Z AUTO 00000KT 1/4SM FG BKN003 OVC007 03/03 A3007 940 100 -200 000/00 RMK AO2 P0001 TSNO $
94908KDBQ DBQ20050206235017702/06/05 23:50:31  5-MIN KDBQ 070550Z AUTO 00000KT 1/4SM FG BKN001 OVC007 03/03 A3007 940 100 -200 000/00 RMK AO2 SLP193 P0001 60017 T00330033 10039 20028 400500028 58002 TSNO $
94908KDBQ DBQ20050206235517702/06/05 23:55:31  5-MIN KDBQ 070555Z AUTO 00000KT 1/4SM FG BKN001 OVC007 03/03 A3007 940 100 -200 000/00 RMK AO2 SLP193 P0001 60017 T00330033 10039 20028 400500028 58010 TSNO $
94908KDBQ DBQ20050207000012002/07/05 00:00:38  5-MIN KDBQ 070600Z AUTO 00000KT 1/4SM FG BKN001 OVC007 03/03 A3007 940 100 -200 000/00 RMK AO2 TSNO $
94908KDBQ DBQ20050207000511902/07/05 00:05:31  5-MIN KDBQ 070605Z AUTO 00000KT 1/4SM FG BKN001 OVC007 03/03 A3007 940 96 -200 000/00 RMK AO2 TSNO $
94908KDBQ DBQ20050207001011902/07/05 00:10:31  5-MIN KDBQ 070610Z AUTO 00000KT 1/4SM FG BKN001 OVC007 03/03 A3007 940 96 -200 000/00 RMK AO2 TSNO $
94908KDBQ DBQ20050207001512502/07/05 00:15:32  5-MIN KDBQ 070615Z AUTO 00000KT 1/4SM FG BKN001 OVC007 03/03 A3007 940 96 -200 000/00 RMK AO2 P0001 TSNO $
94908KDBQ DBQ20050207002012502/07/05 00:20:31  5-MIN KDBQ 070620Z AUTO 00000KT 1/4SM FG BKN001 OVC007 03/03 A3006 950 96 -100 000/00 RMK AO2 P0001 TSNO $
94908KDBQ DBQ20050207002512502/07/05 00:25:31  5-MIN KDBQ 070625Z AUTO 06003KT 1/4SM FG BKN001 OVC007 03/03 A3006 950 96 -100 060/03 RMK AO2 P0001 TSNO $
94908KDBQ DBQ20050207003011702/07/05 00:30:31  5-MIN KDBQ 070630Z AUTO 05003KT 1/4SM FG VV001 03/03 A3006 950 96 -100 040/03 RMK AO2 P0001 TSNO $
94908KDBQ DBQ20050207003511802/07/05 00:35:31  5-MIN KDBQ 070635Z AUTO 04005KT 1/4SM FG VV001 03/03 A3005 960 100 -200 040/05 RMK AO2 P0001 TSNO $
94908KDBQ DBQ20050207004011802/07/05 00:40:31  5-MIN KDBQ 070640Z AUTO 04004KT 1/4SM FG VV001 03/03 A3005 960 100 -200 040/04 RMK AO2 P0001 TSNO $
94908KDBQ DBQ20050207004511802/07/05 00:45:31  5-MIN KDBQ 070645Z AUTO 05003KT 1/4SM FG VV001 03/03 A3005 950 100 -200 040/03 RMK AO2 P0001 TSNO $
94908KDBQ DBQ20050207005013502/07/05 00:50:31  5-MIN KDBQ 070650Z AUTO VRB03KT 1/4SM FG OVC001 03/02 A3005 960 96 -200 VRB/03 RMK AO2 SLP186 P0001 T00280022 TSNO $
94908KDBQ DBQ20050207005513602/07/05 00:55:31  5-MIN KDBQ 070655Z AUTO 00000KT 1/4SM FG OVC001 03/03 A3005 960 100 -200 000/00 RMK AO2 SLP185 P0001 T00280028 TSNO $
94908KDBQ DBQ20050207010011202/07/05 01:00:31  5-MIN KDBQ 070700Z AUTO 00000KT 1/4SM FG VV001 03/03 A3005 960 100 -200 000/00 RMK AO2 TSNO $
94908KDBQ DBQ20050207010511302/07/05 01:05:31  5-MIN KDBQ 070705Z AUTO 00000KT 1/4SM FG OVC001 03/03 A3005 960 100 -200 000/00 RMK AO2 TSNO $
94908KDBQ DBQ20050207011011202/07/05 01:10:31  5-MIN KDBQ 070710Z AUTO 00000KT 1/4SM FG VV001 02/02 A3005 960 100 -300 000/00 RMK AO2 TSNO $
94908KDBQ DBQ20050207011512802/07/05 01:15:31  5-MIN KDBQ 070715Z AUTO 00000KT 1/4SM -RA FG VV001 02/02 A3005 960 100 -300 000/00 RMK AO2 RAB14 P0000 TSNO $
94908KDBQ DBQ20050207012012802/07/05 01:20:31  5-MIN KDBQ 070720Z AUTO 00000KT 1/4SM -RA FG VV001 02/02 A3005 960 100 -300 000/00 RMK AO2 RAB14 P0001 TSNO $
94908KDBQ DBQ20050207012512802/07/05 01:25:31  5-MIN KDBQ 070725Z AUTO 00000KT 1/4SM -RA FG VV001 03/03 A3005 960 100 -200 000/00 RMK AO2 RAB14 P0001 TSNO $
94908KDBQ DBQ20050207013012802/07/05 01:30:31  5-MIN KDBQ 070730Z AUTO 00000KT 1/4SM -RA FG VV001 03/03 A3005 960 100 -200 000/00 RMK AO2 RAB14 P0001 TSNO $
94908KDBQ DBQ20050207013512802/07/05 01:35:31  5-MIN KDBQ 070735Z AUTO 00000KT 1/4SM -RA FG VV001 03/03 A3005 960 100 -200 000/00 RMK AO2 RAB14 P0001 TSNO $
94908KDBQ DBQ20050207014013602/07/05 01:40:31  5-MIN KDBQ 070740Z AUTO 00000KT 1/4SM -RA FG BKN001 OVC007 03/03 A3004 960 100 -200 000/00 RMK AO2 RAB14 P0002 TSNO $
94908KDBQ DBQ20050207014513602/07/05 01:45:31  5-MIN KDBQ 070745Z AUTO 00000KT 1/4SM -RA FG BKN001 OVC005 03/03 A3004 970 100 -200 000/00 RMK AO2 RAB14 P0002 TSNO $
94908KDBQ DBQ20050207015016002/07/05 01:50:31  5-MIN KDBQ 070750Z AUTO 08003KT 1/4SM -RA FG BKN001 BKN005 OVC010 03/03 A3004 970 100 -200 080/03 RMK AO2 RAB14 SLP182 P0002 T00280028 TSNO $
94908KDBQ DBQ20050207015515902/07/05 01:55:31  5-MIN KDBQ 070755Z AUTO 00000KT 1/4SM -RA FG SCT001 BKN005 OVC016 03/02 A3004 970 96 -200 000/00 RMK AO2 RAB14 SLP182 P0002 T00280022 TSNO $
94908KDBQ DBQ20050207020013602/07/05 02:00:31  5-MIN KDBQ 070800Z AUTO 00000KT 1/4SM -RA FG BKN004 BKN010 OVC016 03/02 A3004 970 96 -200 000/00 RMK AO2 P0001 TSNO $
94908KDBQ DBQ20050207020513702/07/05 02:05:31  5-MIN KDBQ 070805Z AUTO 03003KT 1/4SM -RA FG BKN004 BKN007 OVC014 02/02 A3004 970 100 -300 030/03 RMK AO2 P0001 TSNO $
94908KDBQ DBQ20050207021013002/07/05 02:10:31  5-MIN KDBQ 070810Z AUTO 01005KT 1/4SM -RA FG BKN004 OVC009 02/02 A3004 970 100 -300 010/05 RMK AO2 P0001 TSNO $
94908KDBQ DBQ20050207021512902/07/05 02:15:31  5-MIN KDBQ 070815Z AUTO 01006KT 1/4SM -RA FG BKN002 OVC007 03/02 A3004 970 96 -200 010/06 RMK AO2 P0001 TSNO $
94908KDBQ DBQ20050207022012902/07/05 02:20:31  5-MIN KDBQ 070820Z AUTO 01006KT 1/4SM -RA FG BKN002 OVC007 03/02 A3004 970 96 -200 010/06 RMK AO2 P0001 TSNO $
94908KDBQ DBQ20050207022512902/07/05 02:25:31  5-MIN KDBQ 070825Z AUTO 02006KT 1/4SM -RA FG BKN002 OVC007 03/02 A3004 970 96 -200 010/06 RMK AO2 P0001 TSNO $
94908KDBQ DBQ20050207023012302/07/05 02:30:31  5-MIN KDBQ 070830Z AUTO 01005KT 1/4SM -RA FG OVC002 02/02 A3004 970 100 -300 010/05 RMK AO2 P0002 TSNO $
94908KDBQ DBQ20050207023512202/07/05 02:35:31  5-MIN KDBQ 070835Z AUTO 01005KT 1/4SM -RA FG VV001 02/02 A3004 970 100 -300 360/05 RMK AO2 P0002 TSNO $
94908KDBQ DBQ20050207024012202/07/05 02:40:31  5-MIN KDBQ 070840Z AUTO 01004KT 1/4SM -RA FG VV001 02/02 A3004 970 100 -300 010/04 RMK AO2 P0002 TSNO $
94908KDBQ DBQ20050207024512202/07/05 02:45:31  5-MIN KDBQ 070845Z AUTO 35006KT 1/4SM -RA FG VV001 02/02 A3004 970 100 -300 350/06 RMK AO2 P0002 TSNO $
94908KDBQ DBQ20050207025015002/07/05 02:50:31  5-MIN KDBQ 070850Z AUTO 36006KT 1/4SM -RA FG VV001 03/02 A3004 970 96 -200 360/06 RMK AO2 SLP181 P0002 60005 T00280022 58010 TSNO $
94908KDBQ DBQ20050207025515102/07/05 02:55:31  5-MIN KDBQ 070855Z AUTO 36006KT 1/4SM -RA FG VV001 02/02 A3004 970 100 -300 350/06 RMK AO2 SLP182 P0002 60005 T00220022 55010 TSNO $
94908KDBQ DBQ20050207030012202/07/05 03:00:31  5-MIN KDBQ 070900Z AUTO 36007KT 1/4SM -RA FG VV001 02/02 A3004 970 100 -300 360/07 RMK AO2 P0001 TSNO $
94908KDBQ DBQ20050207030512202/07/05 03:05:31  5-MIN KDBQ 070905Z AUTO 36007KT 1/4SM -RA FG VV001 02/02 A3004 970 100 -300 350/07 RMK AO2 P0001 TSNO $
94908KDBQ DBQ20050207031012202/07/05 03:10:31  5-MIN KDBQ 070910Z AUTO 36008KT 1/4SM -RA FG VV001 02/02 A3003 970 100 -300 360/08 RMK AO2 P0001 TSNO $
94908KDBQ DBQ20050207031512202/07/05 03:15:31  5-MIN KDBQ 070915Z AUTO 36008KT 1/4SM -RA FG VV001 02/02 A3003 970 100 -300 360/08 RMK AO2 P0002 TSNO $
94908KDBQ DBQ20050207032012202/07/05 03:20:31  5-MIN KDBQ 070920Z AUTO 36009KT 1/4SM -RA FG VV001 02/02 A3003 970 100 -300 360/09 RMK AO2 P0002 TSNO $
94908KDBQ DBQ20050207032512102/07/05 03:25:31  5-MIN KDBQ 070925Z AUTO 36008KT 1/4SM -RA FG VV001 02/02 A3004 970 96 -300 360/08 RMK AO2 P0002 TSNO $
94908KDBQ DBQ20050207033012102/07/05 03:30:31  5-MIN KDBQ 070930Z AUTO 36009KT 1/4SM -RA FG VV001 02/02 A3004 970 96 -300 360/09 RMK AO2 P0002 TSNO $
94908KDBQ DBQ20050207033512102/07/05 03:35:31  5-MIN KDBQ 070935Z AUTO 36008KT 1/4SM -RA FG VV001 02/02 A3004 970 96 -300 360/08 RMK AO2 P0002 TSNO $
94908KDBQ DBQ20050207034013102/07/05 03:40:31  5-MIN KDBQ 070940Z AUTO 36008KT 1/4SM UP FG VV001 02/02 A3004 970 96 -300 360/08 RMK AO2 RAE38UPB38 P0002 TSNO $
94908KDBQ DBQ20050207034513102/07/05 03:45:31  5-MIN KDBQ 070945Z AUTO 36008KT 1/4SM UP FG VV001 02/02 A3004 970 96 -300 360/08 RMK AO2 RAE38UPB38 P0002 TSNO $
94908KDBQ DBQ20050207035014902/07/05 03:50:31  5-MIN KDBQ 070950Z AUTO 01010KT 1/4SM UP FG VV001 02/02 A3003 980 100 -300 010/10 RMK AO2 RAE38UPB38 SLP178 P0002 T00170017 TSNO $
94908KDBQ DBQ20050207035514802/07/05 03:55:31  5-MIN KDBQ 070955Z AUTO 36008KT 1/4SM -RA FG VV001 02/02 A3003 970 100 -300 360/08 RMK AO2 UPB38E53 SLP181 P0002 T00170017 TSNO $
94908KDBQ DBQ20050207040012202/07/05 04:00:31  5-MIN KDBQ 071000Z AUTO 36008KT 1/4SM -RA FG VV001 02/02 A3004 970 100 -300 360/08 RMK AO2 P0000 TSNO $
94908KDBQ DBQ20050207040512202/07/05 04:05:31  5-MIN KDBQ 071005Z AUTO 36009KT 1/4SM -RA FG VV001 02/02 A3004 970 100 -300 360/09 RMK AO2 P0001 TSNO $
94908KDBQ DBQ20050207041013102/07/05 04:10:31  5-MIN KDBQ 071010Z AUTO 36009KT 1/4SM UP FG VV001 02/01 A3004 970 96 -300 360/09 RMK AO2 RAE09UPB09 P0001 TSNO $
94908KDBQ DBQ20050207041513102/07/05 04:15:31  5-MIN KDBQ 071015Z AUTO 36009KT 1/4SM UP FG VV001 02/01 A3003 970 96 -300 360/09 RMK AO2 RAE09UPB09 P0001 TSNO $
94908KDBQ DBQ20050207042013002/07/05 04:20:31  5-MIN KDBQ 071020Z AUTO 36009KT 1/4SM -RA FG VV001 02/01 A3003 970 96 -300 360/09 RMK AO2 UPB09E19 P0001 TSNO $
94908KDBQ DBQ20050207042513002/07/05 04:25:31  5-MIN KDBQ 071025Z AUTO 36010KT 1/2SM -RA FG VV001 02/01 A3003 980 96 -300 360/10 RMK AO2 UPB09E19 P0001 TSNO $
94908KDBQ DBQ20050207043013102/07/05 04:30:31  5-MIN KDBQ 071030Z AUTO 01011KT 1/2SM -RA FG VV001 01/01 A3003 980 100 -400 010/11 RMK AO2 UPB09E19 P0001 TSNO $
94908KDBQ DBQ20050207043513102/07/05 04:35:31  5-MIN KDBQ 071035Z AUTO 01012KT 1/2SM -RA FG VV001 01/01 A3002 980 100 -400 010/12 RMK AO2 UPB09E34 P0001 TSNO $
94908KDBQ DBQ20050207044013102/07/05 04:40:31  5-MIN KDBQ 071040Z AUTO 01012KT 1/2SM -RA FG VV001 01/01 A3002 980 100 -400 010/12 RMK AO2 UPB09E34 P0001 TSNO $
94908KDBQ DBQ20050207044513402/07/05 04:45:31  5-MIN KDBQ 071045Z AUTO 36011KT 1 1/4SM -RA BR OVC001 01/01 A3003 980 100 -400 360/11 RMK AO2 UPB09E34 P0002 TSNO $
94908KDBQ DBQ20050207045014602/07/05 04:50:31  5-MIN KDBQ 071050Z AUTO 36012KT 2SM -RA BR OVC001 01/01 A3003 980 96 -400 360/12 RMK AO2 UPB09E34 SLP178 P0002 T00110006 TSNO $
94908KDBQ DBQ20050207045515702/07/05 04:55:31  5-MIN KDBQ 071055Z AUTO 36011KT 2 1/2SM UP BR OVC001 01/01 A3003 980 96 -400 360/11 RMK AO2 RAE55UPB09E34B55 SLP178 P0002 T00110006 TSNO $
94908KDBQ DBQ20050207050011902/07/05 05:00:31  5-MIN KDBQ 071100Z AUTO 36012KT 3SM UP BR OVC001 01/01 A3003 980 96 -400 360/12 RMK AO2 P0000 TSNO $
94908KDBQ DBQ20050207050511902/07/05 05:05:31  5-MIN KDBQ 071105Z AUTO 36011KT 3SM UP BR OVC001 01/01 A3003 980 96 -400 360/11 RMK AO2 P0000 TSNO $
94908KDBQ DBQ20050207051013202/07/05 05:10:31  5-MIN KDBQ 071110Z AUTO 01012KT 4SM -RA BR OVC001 01/01 A3003 970 100 -500 360/12 RMK AO2 UPE07RAB07 P0000 TSNO $
94908KDBQ DBQ20050207051513202/07/05 05:15:31  5-MIN KDBQ 071115Z AUTO 01012KT 4SM -RA BR OVC001 01/01 A3003 970 100 -500 010/12 RMK AO2 UPE07RAB07 P0000 TSNO $
94908KDBQ DBQ20050207052013202/07/05 05:20:31  5-MIN KDBQ 071120Z AUTO 36013KT 4SM -RA BR OVC001 01/01 A3003 980 100 -500 360/13 RMK AO2 UPE07RAB07 P0001 TSNO $
94908KDBQ DBQ20050207052513202/07/05 05:25:31  5-MIN KDBQ 071125Z AUTO 01014KT 4SM -RA BR OVC001 01/01 A3003 970 100 -500 360/14 RMK AO2 UPE07RAB07 P0001 TSNO $
94908KDBQ DBQ20050207053013902/07/05 05:30:31  5-MIN KDBQ 071130Z AUTO 01014KT 4SM -SN BR OVC001 01/00 A3003 970 96 -500 010/14 RMK AO2 UPE07RAB07E28SNB28 P0001 TSNO $
94908KDBQ DBQ20050207053515102/07/05 05:35:31  5-MIN KDBQ 071135Z AUTO 36013KT 4SM -SN BR OVC001 01/00 A3003 980 96 -500 360/13 RMK AO2 UPE07RAB07E28SNB28 CIG 001V005 P0001 TSNO $
94908KDBQ DBQ20050207054015602/07/05 05:40:31  5-MIN KDBQ 071140Z AUTO 01012KT 4SM UP BR OVC001 01/00 A3003 970 96 -500 360/12 RMK AO2 UPE07B39RAB07E28SNB28E39 CIG 001V005 P0001 TSNO $
94908KDBQ DBQ20050207054514402/07/05 05:45:31  5-MIN KDBQ 071145Z AUTO 01014KT 4SM UP BR OVC001 01/00 A3003 980 96 -500 360/14 RMK AO2 UPE07B39RAB07E28SNB28E39 P0001 TSNO $
94908KDBQ DBQ20050207055019102/07/05 05:50:31  5-MIN KDBQ 071150Z AUTO 01013KT 4SM UP BR OVC001 01/00 A3003 980 96 -500 360/13 RMK AO2 UPE07B39RAB07E28SNB28E39 SLP180 P0001 60010 70030 T00060000 10033 20006 55010 TSNO $
94908KDBQ DBQ20050207055518102/07/05 05:55:31  5-MIN KDBQ 071155Z 01013KT 4SM UP BR OVC001 01/00 A3003 980 96 -500 010/13 RMK AO2 UPE07B39RAB07E28SNB28E39 SLP180 P0001 60010 70030 T00060000 10033 20006 55004 $
94908KDBQ DBQ20050207060010902/07/05 06:00:31  5-MIN KDBQ 071200Z 36013KT 4SM UP BR OVC001 01/00 A3003 980 96 -500 360/13 RMK AO2 P0000 $
94908KDBQ DBQ20050207060510902/07/05 06:05:31  5-MIN KDBQ 071205Z 01013KT 4SM UP BR OVC001 01/00 A3003 980 96 -500 010/13 RMK AO2 P0000 $
94908KDBQ DBQ20050207061011202/07/05 06:10:31  5-MIN KDBQ 071210Z 01013KT 5SM BR OVC001 01/00 A3003 980 96 -500 010/13 RMK AO2 UPE08 P0000 $
94908KDBQ DBQ20050207061510902/07/05 06:15:31  5-MIN KDBQ 071215Z 01013KT 5SM UP BR OVC001 01/00 A3003 980 96 -500 010/13 RMK AO2 P0000 $
94908KDBQ DBQ20050207062010902/07/05 06:20:31  5-MIN KDBQ 071220Z 36013KT 5SM UP BR OVC001 01/00 A3004 970 96 -500 360/13 RMK AO2 P0000 $
94908KDBQ DBQ20050207062510902/07/05 06:25:31  5-MIN KDBQ 071225Z 36015KT 5SM UP BR OVC001 01/00 A3004 970 96 -500 360/15 RMK AO2 P0000 $
94908KDBQ DBQ20050207063011002/07/05 06:30:31  5-MIN KDBQ 071230Z 01012KT 5SM UP BR OVC001 00/00 A3004 970 100 -500 360/12 RMK AO2 P0000 $
94908KDBQ DBQ20050207063512202/07/05 06:35:31  5-MIN KDBQ 071235Z 01015KT 4SM -RA BR OVC001 00/00 A3004 970 100 -500 010/15 RMK AO2 UPE32RAB32 P0001 $
94908KDBQ DBQ20050207064011902/07/05 06:40:31  5-MIN KDBQ 071240Z 01014KT 4SM UP BR OVC001 00/00 A3004 970 100 -500 010/14 RMK AO2 RAB32E36 P0001 $
94908KDBQ DBQ20050207064512602/07/05 06:45:31  5-MIN KDBQ 071245Z 36013KT 5SM UP BR BKN001 OVC006 00/00 A3004 970 100 -500 360/13 RMK AO2 RAB32E36 P0001 $
94908KDBQ DBQ20050207065015502/07/05 06:50:31  5-MIN KDBQ 071250Z 36013KT 6SM UP BR BKN003 OVC007 00/00 A3004 970 100 -500 360/13 RMK AO2 RAB32E36 CIG 002V006 SLP183 P0001 T00000000 $
94908KDBQ DBQ20050207065514302/07/05 06:55:31  5-MIN KDBQ 071255Z 01015KT 6SM UP BR BKN003 OVC007 00/00 A3004 970 100 -500 010/15 RMK AO2 RAB32E36 SLP183 P0001 T00000000 $
94908KDBQ DBQ20050207070012002/07/05 07:00:31  5-MIN KDBQ 071300Z 01015KT 5SM UP BR OVC003 00/M01 A3004 970 96 -500 010/15 RMK AO2 CIG 002V006 P0000
94908KDBQ DBQ20050207070512702/07/05 07:05:31  5-MIN KDBQ 071305Z 01015KT 5SM UP BR BKN003 OVC007 00/M01 A3004 970 96 -500 010/15 RMK AO2 CIG 002V006 P0000
94908KDBQ DBQ20050207071011502/07/05 07:10:31  5-MIN KDBQ 071310Z 01014KT 4SM UP BR BKN003 OVC007 00/M01 A3004 970 96 -500 010/14 RMK AO2 P0000
94908KDBQ DBQ20050207071510802/07/05 07:15:31  5-MIN KDBQ 071315Z 01014KT 4SM UP BR OVC003 00/M01 A3005 960 96 -500 010/14 RMK AO2 P0000
94908KDBQ DBQ20050207072010802/07/05 07:20:31  5-MIN KDBQ 071320Z 01014KT 3SM UP BR OVC003 00/M01 A3004 960 96 -500 360/14 RMK AO2 P0000
94908KDBQ DBQ20050207072510802/07/05 07:25:31  5-MIN KDBQ 071325Z 01014KT 4SM UP BR OVC003 00/M01 A3005 960 96 -500 010/14 RMK AO2 P0001
94908KDBQ DBQ20050207073010802/07/05 07:30:31  5-MIN KDBQ 071330Z 01015KT 4SM UP BR OVC003 00/M01 A3005 960 96 -500 010/15 RMK AO2 P0001
94908KDBQ DBQ20050207073510802/07/05 07:35:31  5-MIN KDBQ 071335Z 01015KT 4SM UP BR OVC003 00/M01 A3005 960 96 -600 360/15 RMK AO2 P0001
94908KDBQ DBQ20050207074010802/07/05 07:40:31  5-MIN KDBQ 071340Z 36014KT 4SM UP BR OVC003 00/M01 A3005 960 96 -600 360/14 RMK AO2 P0001
94908KDBQ DBQ20050207074511302/07/05 07:45:31  5-MIN KDBQ 071345Z 01015KT 3SM BR OVC003 00/M01 A3005 960 96 -600 010/15 RMK AO2 UPEMM P0001 $
94908KDBQ DBQ20050207075013902/07/05 07:50:31  5-MIN KDBQ 071350Z 01017KT 3SM UP BR OVC003 00/M01 A3005 960 96 -600 010/17 RMK AO2 CIG 002V008 SLP187 P0001 T00001006 $
94908KDBQ DBQ20050207075513902/07/05 07:55:31  5-MIN KDBQ 071355Z 01015KT 3SM UP BR OVC003 00/M01 A3005 960 96 -600 010/15 RMK AO2 CIG 002V007 SLP188 P0001 T00001006 $
94908KDBQ DBQ20050207080012202/07/05 08:00:31  5-MIN KDBQ 071400Z 01015KT 3SM UP BR OVC003 00/M01 A3005 950 96 -600 010/15 RMK AO2 CIG 002V007 P0000 $
94908KDBQ DBQ20050207080512602/07/05 08:05:31  5-MIN KDBQ 071405Z 01015KT 2 1/2SM UP BR OVC003 00/M01 A3005 950 96 -600 010/15 RMK AO2 CIG 002V007 P0000 $
94908KDBQ DBQ20050207081012902/07/05 08:10:31  5-MIN KDBQ 071410Z 01015KT 2 1/2SM BR OVC003 00/M01 A3005 950 96 -600 010/15 RMK AO2 UPEMM CIG 002V007 P0001 $
94908KDBQ DBQ20050207081511402/07/05 08:15:31  5-MIN KDBQ 071415Z 01015KT 2 1/2SM UP BR OVC003 00/M01 A3005 960 96 -600 010/15 RMK AO2 P0001 $
94908KDBQ DBQ20050207082013002/07/05 08:20:31  5-MIN KDBQ 071420Z 01017KT 2 1/2SM -FZRA BR OVC003 00/M01 A3005 960 96 -600 010/17 RMK AO2 UPE18FZRAB18 P0001 $
94908KDBQ DBQ20050207082513002/07/05 08:25:31  5-MIN KDBQ 071425Z 01017KT 2 1/2SM -FZRA BR OVC003 00/M01 A3005 960 96 -600 010/17 RMK AO2 UPE18FZRAB18 P0001 $
94908KDBQ DBQ20050207083013102/07/05 08:30:31  5-MIN KDBQ 071430Z 01015KT 2 1/2SM -FZRA BR OVC003 M01/M01 A3005 960 96 -600 010/15 RMK AO2 UPE18FZRAB18 P0001 $
94908KDBQ DBQ20050207083512702/07/05 08:35:31  5-MIN KDBQ 071435Z 01015KT 3SM -FZRA BR OVC003 M01/M01 A3006 950 96 -600 010/15 RMK AO2 UPE18FZRAB18 P0001 $
94908KDBQ DBQ20050207084012702/07/05 08:40:31  5-MIN KDBQ 071440Z 01014KT 3SM -FZRA BR OVC003 M01/M01 A3005 960 96 -600 010/14 RMK AO2 UPE18FZRAB18 P0001 $
94908KDBQ DBQ20050207084513302/07/05 08:45:31  5-MIN KDBQ 071445Z 01016G20KT 3SM -FZRA BR OVC003 M01/M01 A3006 950 96 -600 010/16G20 RMK AO2 UPE18FZRAB18 P0001 $
94908KDBQ DBQ20050207085017402/07/05 08:50:31  5-MIN KDBQ 071450Z 01014G20KT 3SM -FZRA BR OVC003 M01/M01 A3005 960 96 -600 010/14G20 RMK AO2 UPE18FZRAB18 CIG 002V007 SLP188 P0001 60003 T10061011 55004 $
94908KDBQ DBQ20050207085516802/07/05 08:55:31  5-MIN KDBQ 071455Z 01014KT 3SM -FZRA BR OVC003 M01/M01 A3005 960 96 -600 010/14 RMK AO2 UPE18FZRAB18 CIG 002V007 SLP188 P0001 60003 T10061011 51007 $
94908KDBQ DBQ20050207090012602/07/05 09:00:31  5-MIN KDBQ 071500Z 01015KT 3SM -FZRA BR OVC003 M01/M01 A3006 950 96 -600 010/15 RMK AO2 CIG 002V007 P0000 $
94908KDBQ DBQ20050207090513302/07/05 09:05:31  5-MIN KDBQ 071505Z 01015KT 3SM -FZRA BR BKN003 OVC039 M01/M01 A3006 950 96 -600 010/15 RMK AO2 CIG 002V007 P0000 $
94908KDBQ DBQ20050207091012602/07/05 09:10:31  5-MIN KDBQ 071510Z 01016KT 3SM -FZRA BR OVC003 M01/M01 A3006 950 96 -600 010/16 RMK AO2 CIG 002V007 P0000 $
94908KDBQ DBQ20050207091513002/07/05 09:15:31  5-MIN KDBQ 071515Z 01013KT 2 1/2SM -FZRA BR OVC003 M01/M01 A3006 950 96 -600 010/13 RMK AO2 CIG 002V007 P0000 $
94908KDBQ DBQ20050207092013002/07/05 09:20:31  5-MIN KDBQ 071520Z 36015KT 2 1/2SM -FZRA BR OVC003 M01/M01 A3006 950 96 -600 360/15 RMK AO2 CIG 002V007 P0000 $
94908KDBQ DBQ20050207092513002/07/05 09:25:31  5-MIN KDBQ 071525Z 01014KT 2 1/2SM -FZRA BR OVC003 M01/M01 A3006 950 96 -600 010/14 RMK AO2 CIG 002V006 P0000 $
94908KDBQ DBQ20050207093013002/07/05 09:30:31  5-MIN KDBQ 071530Z 01014KT 2 1/2SM -FZRA BR OVC003 M01/M01 A3006 950 96 -600 010/14 RMK AO2 CIG 002V006 P0000 $
94908KDBQ DBQ20050207093514102/07/05 09:35:31  5-MIN KDBQ 071535Z 01014KT 2 1/2SM -SN BR OVC003 M01/M01 A3007 940 96 -600 010/14 RMK AO2 FZRAE31SNB31 CIG 002V006 P0000 $
94908KDBQ DBQ20050207094012502/07/05 09:40:31  5-MIN KDBQ 071540Z 36014KT 2SM -SN BR OVC003 M01/M01 A3007 940 96 -600 360/14 RMK AO2 FZRAE31SNB31 P0000 $
94908KDBQ DBQ20050207094515002/07/05 09:45:31  5-MIN KDBQ 071545Z 01016G20KT 2SM UP BR OVC003 M01/M02 A3007 940 96 -700 010/16G20 RMK AO2 UPB41FZRAE31SNB31E41 CIG 002V006 P0000 $
94908KDBQ DBQ20050207095017402/07/05 09:50:31  5-MIN KDBQ 071550Z 01016G20KT 2SM -SN BR OVC003 M01/M02 A3007 940 92 -600 010/16G20 RMK AO2 UPB41E47FZRAE31SNB31E41B47 CIG 002V006 SLP193 P0000 T10061017 $
94908KDBQ DBQ20050207095518102/07/05 09:55:31  5-MIN KDBQ 071555Z 36016G20KT 2SM -SN BR BKN003 OVC028 M01/M02 A3007 940 96 -700 360/16G20 RMK AO2 UPB41E47FZRAE31SNB31E41B47 CIG 002V007 SLP193 P0000 T10111017 $
94908KDBQ DBQ20050207100013102/07/05 10:00:31  5-MIN KDBQ 071600Z 01015KT 2SM -SN BR BKN003 OVC026 M01/M02 A3007 940 96 -700 360/15 RMK AO2 CIG 002V007 P0000 $
94908KDBQ DBQ20050207100511902/07/05 10:05:31  5-MIN KDBQ 071605Z 36013KT 2SM -SN BR BKN003 OVC026 M01/M02 A3007 940 96 -700 360/13 RMK AO2 P0000 $
94908KDBQ DBQ20050207101012302/07/05 10:10:31  5-MIN KDBQ 071610Z 36013KT 2 1/2SM -SN BR BKN003 OVC026 M01/M02 A3007 940 96 -700 360/13 RMK AO2 P0000 $
94908KDBQ DBQ20050207101512302/07/05 10:15:31  5-MIN KDBQ 071615Z 36014KT 2 1/2SM -SN BR BKN003 OVC026 M01/M02 A3007 940 92 -700 360/14 RMK AO2 P0000 $
94908KDBQ DBQ20050207102013602/07/05 10:20:31  5-MIN KDBQ 071620Z 36013KT 3SM UP BR BKN003 BKN016 OVC026 M01/M02 A3007 940 92 -700 360/13 RMK AO2 UPB19SNE19 P0001 $
94908KDBQ DBQ20050207102513602/07/05 10:25:31  5-MIN KDBQ 071625Z 01016KT 4SM UP BR BKN003 BKN018 OVC026 M01/M02 A3007 940 92 -700 010/16 RMK AO2 UPB19SNE19 P0001 $
94908KDBQ DBQ20050207103012902/07/05 10:30:31  5-MIN KDBQ 071630Z 01013KT 4SM UP BR BKN005 OVC020 M01/M02 A3007 940 92 -700 360/13 RMK AO2 UPB19SNE19 P0001 $
94908KDBQ DBQ20050207103512902/07/05 10:35:31  5-MIN KDBQ 071635Z 01013KT 4SM UP BR BKN005 OVC020 M01/M02 A3007 940 92 -700 360/13 RMK AO2 UPB19SNE19 P0001 $
94908KDBQ DBQ20050207104014202/07/05 10:40:31  5-MIN KDBQ 071640Z 01015KT 5SM -FZRA BR BKN005 OVC020 M01/M02 A3008 940 92 -700 360/15 RMK AO2 UPB19E39FZRAB39SNE19 P0001 $
94908KDBQ DBQ20050207104514902/07/05 10:45:31  5-MIN KDBQ 071645Z 01016KT 5SM -FZRA BR BKN005 BKN020 OVC036 M01/M02 A3008 930 92 -700 010/16 RMK AO2 UPB19E39FZRAB39SNE19 P0001 $
94908KDBQ DBQ20050207105015902/07/05 10:50:31  5-MIN KDBQ 071650Z 01015KT 5SM -FZRA BR BKN005 OVC036 M01/M02 A3007 940 92 -700 010/15 RMK AO2 UPB19E39FZRAB39SNE19 SLP195 P0001 T10111022 $
94908KDBQ DBQ20050207105516602/07/05 10:55:31  5-MIN KDBQ 071655Z 01012KT 5SM -FZRA BR BKN005 BKN030 OVC036 M01/M02 A3007 940 92 -700 010/12 RMK AO2 UPB19E39FZRAB39SNE19 SLP195 P0001 T10111022 $
94908KDBQ DBQ20050207110012102/07/05 11:00:31  5-MIN KDBQ 071700Z 01010KT 6SM -FZRA BR BKN005 OVC036 M01/M02 A3008 930 92 -700 010/10 RMK AO2 P0000 $
94908KDBQ DBQ20050207110512102/07/05 11:05:31  5-MIN KDBQ 071705Z 36013KT 6SM -FZRA BR BKN005 OVC036 M01/M02 A3008 930 92 -700 360/13 RMK AO2 P0000 $
94908KDBQ DBQ20050207111012102/07/05 11:10:31  5-MIN KDBQ 071710Z 36012KT 6SM -FZRA BR BKN005 OVC036 M02/M02 A3008 930 96 -800 360/12 RMK AO2 P0000 $
94908KDBQ DBQ20050207111511402/07/05 11:15:31  5-MIN KDBQ 071715Z 36011KT 6SM -FZRA BR OVC005 M02/M02 A3008 930 96 -800 360/11 RMK AO2 P0000 $
94908KDBQ DBQ20050207112011302/07/05 11:20:31  5-MIN KDBQ 071720Z 01012KT 7SM OVC005 M02/M03 A3008 930 92 -800 360/12 RMK AO2 FZRAE16 P0000 $
94908KDBQ DBQ20050207112511302/07/05 11:25:31  5-MIN KDBQ 071725Z 36011KT 7SM OVC005 M02/M03 A3008 930 92 -800 360/11 RMK AO2 FZRAE16 P0000 $
94908KDBQ DBQ20050207113011302/07/05 11:30:31  5-MIN KDBQ 071730Z 36010KT 7SM OVC005 M02/M03 A3008 930 92 -800 360/10 RMK AO2 FZRAE16 P0000 $
94908KDBQ DBQ20050207113511302/07/05 11:35:31  5-MIN KDBQ 071735Z 36012KT 8SM OVC005 M02/M03 A3008 930 92 -800 360/12 RMK AO2 FZRAE16 P0000 $
94908KDBQ DBQ20050207114011302/07/05 11:40:31  5-MIN KDBQ 071740Z 36011KT 8SM OVC005 M02/M03 A3008 930 92 -800 360/11 RMK AO2 FZRAE16 P0000 $
94908KDBQ DBQ20050207114511302/07/05 11:45:31  5-MIN KDBQ 071745Z 36010KT 8SM OVC005 M02/M03 A3008 930 92 -800 360/10 RMK AO2 FZRAE16 P0000 $
94908KDBQ DBQ20050207115015402/07/05 11:50:31  5-MIN KDBQ 071750Z 01011KT 8SM OVC005 M02/M03 A3008 930 92 -800 360/11 RMK AO2 FZRAE16 SLP196 P0000 60004 T10171028 10006 21017 51007 $
94908KDBQ DBQ20050207115515402/07/05 11:55:31  5-MIN KDBQ 071755Z 01010KT 8SM OVC005 M02/M03 A3008 930 92 -800 360/10 RMK AO2 FZRAE16 SLP196 P0000 60004 T10171028 10006 21017 51008 $
94908KDBQ DBQ20050207120011102/07/05 12:00:31  5-MIN KDBQ 071800Z 36009KT 8SM OVC005 M02/M03 A3008 930 92 -800 360/09 RMK AO2 CIG 005V009 $
94908KDBQ DBQ20050207120509902/07/05 12:05:31  5-MIN KDBQ 071805Z 35010KT 7SM OVC005 M02/M03 A3008 940 92 -800 350/10 RMK AO2 $
94908KDBQ DBQ20050207121009902/07/05 12:10:31  5-MIN KDBQ 071810Z 35011KT 7SM OVC005 M02/M03 A3007 940 92 -800 350/11 RMK AO2 $
94908KDBQ DBQ20050207121509902/07/05 12:15:31  5-MIN KDBQ 071815Z 36011KT 8SM OVC005 M02/M03 A3007 940 92 -800 360/11 RMK AO2 $
94908KDBQ DBQ20050207122009902/07/05 12:20:31  5-MIN KDBQ 071820Z 35011KT 8SM OVC005 M02/M03 A3007 940 92 -800 350/11 RMK AO2 $
94908KDBQ DBQ20050207122510602/07/05 12:25:31  5-MIN KDBQ 071825Z 35011G256KT SQ OVC005 M02/M03 A3007 940 96 -900 350/11G256 RMK AO2 $
94908KDBQ DBQ20050207123010702/07/05 12:30:31  5-MIN KDBQ 071830Z 36010G256KT 7SM OVC005 M02/M03 A3007 940 96 -900 360/10G256 RMK AO2 $
94908KDBQ DBQ20050207123510702/07/05 12:35:31  5-MIN KDBQ 071835Z 36008G106KT 7SM OVC005 M02/M03 A3007 940 96 -900 350/08G106 RMK AO2 $
94908KDBQ DBQ20050207124009902/07/05 12:40:31  5-MIN KDBQ 071840Z 36009KT 7SM OVC005 M02/M03 A3007 940 92 -900 360/09 RMK AO2 $
94908KDBQ DBQ20050207124509902/07/05 12:45:31  5-MIN KDBQ 071845Z 36010KT 7SM OVC005 M02/M03 A3007 940 92 -900 360/10 RMK AO2 $
94908KDBQ DBQ20050207125011602/07/05 12:50:31  5-MIN KDBQ 071850Z 35008KT 7SM OVC005 M02/M03 A3007 940 96 -900 350/08 RMK AO2 SLP195 T10221028 $
94908KDBQ DBQ20050207125511902/07/05 12:55:31  5-MIN KDBQ 071855Z 35010KT 6SM BR OVC005 M02/M03 A3007 940 92 -900 350/10 RMK AO2 SLP195 T10221033 $
94908KDBQ DBQ20050207130010202/07/05 13:00:31  5-MIN KDBQ 071900Z 36011KT 6SM BR OVC005 M02/M03 A3007 940 92 -800 360/11 RMK AO2 $
94908KDBQ DBQ20050207130510202/07/05 13:05:31  5-MIN KDBQ 071905Z 36010KT 6SM BR OVC005 M02/M03 A3006 950 92 -800 350/10 RMK AO2 $
94908KDBQ DBQ20050207131011402/07/05 13:10:31  5-MIN KDBQ 071910Z 36009KT 6SM BR OVC005 M02/M03 A3006 950 92 -800 360/09 RMK AO2 CIG 005V009 $
94908KDBQ DBQ20050207131511402/07/05 13:15:31  5-MIN KDBQ 071915Z 36011KT 6SM BR OVC005 M02/M03 A3006 950 92 -800 360/11 RMK AO2 CIG 005V009 $
94908KDBQ DBQ20050207132010202/07/05 13:20:31  5-MIN KDBQ 071920Z 36009KT 6SM BR OVC005 M02/M03 A3006 950 92 -800 360/09 RMK AO2 $
94908KDBQ DBQ20050207132510202/07/05 13:25:31  5-MIN KDBQ 071925Z 35010KT 6SM BR OVC007 M02/M03 A3006 950 92 -800 350/10 RMK AO2 $
94908KDBQ DBQ20050207133011402/07/05 13:30:31  5-MIN KDBQ 071930Z 35009KT 6SM BR OVC007 M02/M03 A3006 950 92 -800 350/09 RMK AO2 CIG 005V010 $
94908KDBQ DBQ20050207133511402/07/05 13:35:31  5-MIN KDBQ 071935Z 34011KT 6SM BR OVC007 M03/M04 A3006 950 92 -900 340/11 RMK AO2 CIG 005V010 $
94908KDBQ DBQ20050207134010202/07/05 13:40:31  5-MIN KDBQ 071940Z 35011KT 6SM BR OVC007 M03/M04 A3006 950 92 -900 350/11 RMK AO2 $
94908KDBQ DBQ20050207134509902/07/05 13:45:31  5-MIN KDBQ 071945Z 36009KT 7SM OVC007 M03/M04 A3006 950 92 -900 360/09 RMK AO2 $
94908KDBQ DBQ20050207135013102/07/05 13:50:31  5-MIN KDBQ 071950Z 35009KT 6SM BR OVC007 M03/M04 A3006 950 92 -900 350/09 RMK AO2 CIG 005V011 SLP191 T10281039 $
94908KDBQ DBQ20050207135514202/07/05 13:55:31  5-MIN KDBQ 071955Z 34008KT 330V210 6SM BR BKN007 OVC010 M03/M04 A3006 950 92 -900 340/08 330V210 RMK AO2 SLP191 T10281039 $
94908KDBQ DBQ20050207140009902/07/05 14:00:31  5-MIN KDBQ 072000Z 6SM BR BKN007 OVC010 M03/M04 A3006 950 92 -900 M /M RMK AO2 $
94908KDBQ DBQ20050207140510202/07/05 14:05:31  5-MIN KDBQ 072005Z 35011KT 6SM BR OVC007 M03/M04 A3006 950 92 -900 340/11 RMK AO2 $
94908KDBQ DBQ20050207141011402/07/05 14:10:31  5-MIN KDBQ 072010Z 35009KT 6SM BR OVC007 M03/M04 A3006 950 92 -900 350/09 RMK AO2 CIG 005V010 $
94908KDBQ DBQ20050207141512102/07/05 14:15:31  5-MIN KDBQ 072015Z 34011KT 6SM BR BKN007 OVC012 M03/M04 A3006 950 92 -900 340/11 RMK AO2 CIG 005V011 $
94908KDBQ DBQ20050207142011402/07/05 14:20:31  5-MIN KDBQ 072020Z 34011KT 6SM BR OVC007 M03/M04 A3006 950 88 -900 340/11 RMK AO2 CIG 005V011 $
94908KDBQ DBQ20050207142510202/07/05 14:25:31  5-MIN KDBQ 072025Z 35011KT 6SM BR OVC007 M03/M04 A3006 950 88 -900 350/11 RMK AO2 $
94908KDBQ DBQ20050207143010202/07/05 14:30:31  5-MIN KDBQ 072030Z 35012KT 6SM BR OVC007 M03/M04 A3006 950 92 -900 350/12 RMK AO2 $
94908KDBQ DBQ20050207143510902/07/05 14:35:31  5-MIN KDBQ 072035Z 35010KT 6SM BR BKN007 OVC012 M03/M04 A3006 950 88 -900 350/10 RMK AO2 $
94908KDBQ DBQ20050207144010602/07/05 14:40:31  5-MIN KDBQ 072040Z 34011KT 7SM BKN007 OVC012 M03/M04 A3006 950 88 -900 340/11 RMK AO2 $
94908KDBQ DBQ20050207144510602/07/05 14:45:31  5-MIN KDBQ 072045Z 35011KT 7SM BKN007 OVC012 M03/M04 A3006 950 88 -900 350/11 RMK AO2 $
94908KDBQ DBQ20050207145013402/07/05 14:50:31  5-MIN KDBQ 072050Z 35012KT 7SM BKN007 BKN012 OVC023 M03/M04 A3006 950 88 -900 350/12 RMK AO2 SLP192 T10281044 51008
94908KDBQ DBQ20050207145513402/07/05 14:55:31  5-MIN KDBQ 072055Z 35012KT 7SM BKN007 BKN012 OVC022 M03/M04 A3006 950 88 -900 350/12 RMK AO2 SLP193 T10281044 55004
94908KDBQ DBQ20050207150011102/07/05 15:00:31  5-MIN KDBQ 072100Z 35010KT 7SM BKN007 BKN012 OVC024 M03/M04 A3006 950 88 -900 350/10 RMK AO2
94908KDBQ DBQ20050207150510402/07/05 15:05:31  5-MIN KDBQ 072105Z 35010KT 7SM SCT007 OVC024 M03/M04 A3006 950 88 -900 350/10 RMK AO2
94908KDBQ DBQ20050207151010602/07/05 15:10:31  5-MIN KDBQ 072110Z 36011KT 7SM BKN007 OVC024 M03/M04 A3006 950 88 -900 360/11 RMK AO2 $
94908KDBQ DBQ20050207151512202/07/05 15:15:31  5-MIN KDBQ 072115Z 35011KT 220V050 7SM FEW007 OVC024 M03/M04 A3007 940 88 -900 350/11 220V050 RMK AO2 $
94908KDBQ DBQ20050207152010602/07/05 15:20:31  5-MIN KDBQ 072120Z 36012KT 7SM SCT007 OVC024 M03/M04 A3007 940 88 -900 360/12 RMK AO2 $
94908KDBQ DBQ20050207152511302/07/05 15:25:31  5-MIN KDBQ 072125Z 36011KT 7SM SCT007 SCT013 OVC022 M03/M04 A3007 940 88 -900 360/11 RMK AO2 $
94908KDBQ DBQ20050207153011402/07/05 15:30:31  5-MIN KDBQ 072130Z 35011KT 7SM SCT007 SCT013 OVC022 M03/M04 A3007 940 92 -1000 350/11 RMK AO2 $
94908KDBQ DBQ20050207153511402/07/05 15:35:31  5-MIN KDBQ 072135Z 36011KT 7SM SCT007 SCT013 OVC022 M03/M04 A3007 940 92 -1000 360/11 RMK AO2 $
94908KDBQ DBQ20050207154011302/07/05 15:40:31  5-MIN KDBQ 072140Z 36011KT 7SM SCT007 SCT013 OVC022 M03/M04 A3007 940 88 -900 360/11 RMK AO2 $
94908KDBQ DBQ20050207154511402/07/05 15:45:31  5-MIN KDBQ 072145Z 36011KT 7SM SCT007 SCT013 OVC022 M03/M05 A3007 940 88 -1000 360/11 RMK AO2 $
94908KDBQ DBQ20050207155012802/07/05 15:50:31  5-MIN KDBQ 072150Z 36010KT 7SM OVC010 M03/M04 A3007 940 88 -900 360/10 RMK AO2 CIG 007V014 SLP196 T10281044 $
94908KDBQ DBQ20050207155512802/07/05 15:55:31  5-MIN KDBQ 072155Z 36010KT 7SM OVC010 M03/M04 A3007 940 88 -900 360/10 RMK AO2 CIG 008V014 SLP197 T10281044 $
94908KDBQ DBQ20050207160011102/07/05 16:00:31  5-MIN KDBQ 072200Z 35008KT 7SM OVC010 M03/M04 A3008 930 88 -900 350/08 RMK AO2 CIG 008V014 $
94908KDBQ DBQ20050207160511102/07/05 16:05:31  5-MIN KDBQ 072205Z 35009KT 7SM OVC010 M03/M04 A3008 930 88 -900 350/09 RMK AO2 CIG 008V014 $
94908KDBQ DBQ20050207161008902/07/05 16:10:31  5-MIN KDBQ 072210Z 7SM OVC010 M03/M04 A3008 930 88 -900 M /M RMK AO2 $
94908KDBQ DBQ20050207161511102/07/05 16:15:31  5-MIN KDBQ 072215Z 36010KT 8SM OVC010 M03/M04 A3008 930 88 -900 360/10 RMK AO2 CIG 008V014 $
94908KDBQ DBQ20050207162011102/07/05 16:20:31  5-MIN KDBQ 072220Z 36010KT 8SM OVC010 M03/M04 A3008 930 88 -900 360/10 RMK AO2 CIG 008V014 $
94908KDBQ DBQ20050207162511102/07/05 16:25:31  5-MIN KDBQ 072225Z 36008KT 8SM OVC010 M03/M05 A3008 930 85 -900 360/08 RMK AO2 CIG 008V014 $
94908KDBQ DBQ20050207163011102/07/05 16:30:31  5-MIN KDBQ 072230Z 36008KT 8SM OVC010 M03/M05 A3008 930 85 -900 360/08 RMK AO2 CIG 009V014 $
94908KDBQ DBQ20050207163511102/07/05 16:35:31  5-MIN KDBQ 072235Z 36008KT 8SM OVC010 M03/M05 A3008 930 85 -900 360/08 RMK AO2 CIG 009V014 $
94908KDBQ DBQ20050207164012702/07/05 16:40:31  5-MIN KDBQ 072240Z 09008KT 320V250 8SM OVC010 M03/M05 A3009 920 85 -900 080/08 320V250 RMK AO2 CIG 009V014 $
94908KDBQ DBQ20050207164512802/07/05 16:45:31  5-MIN KDBQ 072245Z 32008KT 280V010 8SM OVC010 M03/M05 A3009 920 88 -1000 320/08 280V010 RMK AO2 CIG 009V014 $
94908KDBQ DBQ20050207165012902/07/05 16:50:31  5-MIN KDBQ 072250Z 33008KT 7SM OVC010 M03/M05 A3009 920 88 -1000 330/08 RMK AO2 CIG 009V014 SLP203 T10331050 $
94908KDBQ DBQ20050207165511702/07/05 16:55:31  5-MIN KDBQ 072255Z 36007KT 8SM OVC010 M03/M05 A3009 920 88 -1000 350/07 RMK AO2 SLP203 T10331050 $
94908KDBQ DBQ20050207170010702/07/05 17:00:31  5-MIN KDBQ 072300Z 35009KT 8SM BKN010 OVC014 M03/M05 A3009 920 88 -1000 350/09 RMK AO2 $
94908KDBQ DBQ20050207170512602/07/05 17:05:31  5-MIN KDBQ 072305Z 36007KT 8SM BKN010 BKN014 OVC027 M03/M05 A3009 920 88 -1000 360/07 RMK AO2 CIG 009V013 $
94908KDBQ DBQ20050207171011402/07/05 17:10:31  5-MIN KDBQ 072310Z 36009KT 8SM SCT010 BKN014 OVC025 M03/M05 A3009 920 88 -1000 360/09 RMK AO2 $
94908KDBQ DBQ20050207171510702/07/05 17:15:31  5-MIN KDBQ 072315Z 36011KT 7SM BKN012 OVC025 M03/M05 A3009 920 88 -1000 360/11 RMK AO2 $
94908KDBQ DBQ20050207172012302/07/05 17:20:31  5-MIN KDBQ 072320Z 36011KT 7SM -SN BKN012 OVC025 M03/M06 A3010 920 85 -1000 360/11 RMK AO2 SNB20 P0000 $
94908KDBQ DBQ20050207172512602/07/05 17:25:31  5-MIN KDBQ 072325Z 36010KT 5SM -SN BR BKN012 OVC025 M03/M05 A3010 920 88 -1000 360/10 RMK AO2 SNB20 P0000 $
94908KDBQ DBQ20050207173012602/07/05 17:30:31  5-MIN KDBQ 072330Z 36007KT 4SM -SN BR FEW014 OVC027 M03/M05 A3010 910 88 -1000 360/07 RMK AO2 SNB20 P0000 $
94908KDBQ DBQ20050207173511902/07/05 17:35:31  5-MIN KDBQ 072335Z 36010KT 4SM -SN BR OVC027 M03/M05 A3010 910 88 -1000 360/10 RMK AO2 SNB20 P0000 $
94908KDBQ DBQ20050207174013502/07/05 17:40:31  5-MIN KDBQ 072340Z 36010KT 350V100 4SM -SN BR OVC027 M03/M06 A3010 910 85 -1000 360/10 350V100 RMK AO2 SNB20 P0000 $
94908KDBQ DBQ20050207174511902/07/05 17:45:31  5-MIN KDBQ 072345Z 36009KT 3SM -SN BR OVC027 M03/M05 A3010 910 88 -1000 360/09 RMK AO2 SNB20 P0000 $
94908KDBQ DBQ20050207175016702/07/05 17:50:31  5-MIN KDBQ 072350Z 35010KT 3SM -SN BR BKN027 OVC047 M03/M05 A3010 910 88 -1000 350/10 RMK AO2 SNB20 SLP207 P0000 60000 T10331050 11017 21033 55004 $
94908KDBQ DBQ20050207175517402/07/05 17:55:31  5-MIN KDBQ 072355Z 01010KT 3SM -SN BR FEW016 BKN027 OVC047 M03/M05 A3010 910 88 -1000 360/10 RMK AO2 SNB20 SLP207 P0000 60000 T10331050 11017 21033 53013 $
94908KDBQ DBQ20050207180012702/07/05 18:00:31  5-MIN KDBQ 080000Z 35010KT 3SM -SN BR FEW016 BKN027 OVC047 M03/M05 A3011 910 88 -1000 350/10 RMK AO2 P0000 $
94908KDBQ DBQ20050207180512702/07/05 18:05:31  5-MIN KDBQ 080005Z 36009KT 3SM -SN BR FEW016 BKN040 OVC047 M04/M06 A3011 900 88 -1100 360/09 RMK AO2 P0000 $
94908KDBQ DBQ20050207181013102/07/05 18:10:31  5-MIN KDBQ 080010Z 36009KT 2 1/2SM -SN BR SCT016 BKN027 OVC047 M04/M05 A3011 900 92 -1100 360/09 RMK AO2 P0000 $
94908KDBQ DBQ20050207181513102/07/05 18:15:31  5-MIN KDBQ 080015Z 36008KT 2 1/2SM -SN BR SCT016 BKN041 OVC047 M04/M06 A3011 900 88 -1100 350/08 RMK AO2 P0000 $
94908KDBQ DBQ20050207182013102/07/05 18:20:31  5-MIN KDBQ 080020Z 36009KT 2 1/2SM -SN BR SCT016 BKN041 OVC047 M04/M06 A3011 900 88 -1100 360/09 RMK AO2 P0000 $
94908KDBQ DBQ20050207182512402/07/05 18:25:31  5-MIN KDBQ 080025Z 36008KT 2 1/2SM -SN BR SCT016 OVC043 M04/M06 A3012 900 88 -1100 360/08 RMK AO2 P0000 $
94908KDBQ DBQ20050207183013102/07/05 18:30:31  5-MIN KDBQ 080030Z 35008KT 2 1/2SM -SN BR SCT018 BKN039 OVC046 M04/M06 A3012 900 88 -1100 350/08 RMK AO2 P0000 $
94908KDBQ DBQ20050207183512402/07/05 18:35:31  5-MIN KDBQ 080035Z 35007KT 2 1/2SM -SN BR FEW018 OVC043 M04/M06 A3012 900 88 -1100 350/07 RMK AO2 P0000 $
94908KDBQ DBQ20050207184012402/07/05 18:40:31  5-MIN KDBQ 080040Z 36007KT 2 1/2SM -SN BR FEW018 OVC043 M04/M06 A3012 900 88 -1100 360/07 RMK AO2 P0000 $
94908KDBQ DBQ20050207184512402/07/05 18:45:31  5-MIN KDBQ 080045Z 01008KT 2 1/2SM -SN BR FEW018 OVC043 M04/M06 A3011 900 88 -1100 010/08 RMK AO2 P0000 $
94908KDBQ DBQ20050207185014102/07/05 18:50:31  5-MIN KDBQ 080050Z 36008KT 2 1/2SM -SN BR FEW018 OVC043 M04/M06 A3011 900 88 -1100 360/08 RMK AO2 SLP211 P0000 T10391056 $
94908KDBQ DBQ20050207185513402/07/05 18:55:31  5-MIN KDBQ 080055Z 36009KT 2 1/2SM -SN BR OVC021 M04/M06 A3011 900 88 -1100 360/09 RMK AO2 SLP211 P0000 T10391056 $
94908KDBQ DBQ20050207190011702/07/05 19:00:31  5-MIN KDBQ 080100Z 01009KT 2 1/2SM -SN BR OVC021 M04/M06 A3011 900 88 -1100 360/09 RMK AO2 P0000 $
94908KDBQ DBQ20050207190513302/07/05 19:05:31  5-MIN KDBQ 080105Z 01009KT 350V130 2 1/2SM -SN BR OVC023 M04/M06 A3012 900 88 -1100 010/09 350V130 RMK AO2 P0000 $
94908KDBQ DBQ20050207191011702/07/05 19:10:31  5-MIN KDBQ 080110Z 36010KT 2 1/2SM -SN BR OVC023 M04/M06 A3012 900 88 -1100 360/10 RMK AO2 P0000 $
94908KDBQ DBQ20050207191511702/07/05 19:15:31  5-MIN KDBQ 080115Z 36009KT 2 1/2SM -SN BR OVC023 M04/M06 A3012 900 88 -1100 360/09 RMK AO2 P0000 $
94908KDBQ DBQ20050207192011702/07/05 19:20:31  5-MIN KDBQ 080120Z 36007KT 2 1/2SM -SN BR OVC023 M03/M06 A3012 900 85 -1000 360/07 RMK AO2 P0000 $
94908KDBQ DBQ20050207192511702/07/05 19:25:31  5-MIN KDBQ 080125Z 36010KT 2 1/2SM -SN BR OVC023 M03/M06 A3012 900 85 -1000 360/10 RMK AO2 P0000 $
94908KDBQ DBQ20050207193011702/07/05 19:30:31  5-MIN KDBQ 080130Z 36010KT 2 1/2SM -SN BR OVC023 M03/M06 A3012 900 85 -1000 360/10 RMK AO2 P0000 $
94908KDBQ DBQ20050207193511702/07/05 19:35:31  5-MIN KDBQ 080135Z 36008KT 2 1/2SM -SN BR OVC025 M03/M06 A3012 900 85 -1000 360/08 RMK AO2 P0000 $
94908KDBQ DBQ20050207194011702/07/05 19:40:31  5-MIN KDBQ 080140Z 36009KT 2 1/2SM -SN BR OVC029 M03/M06 A3012 900 85 -1000 360/09 RMK AO2 P0000 $
94908KDBQ DBQ20050207194514002/07/05 19:45:31  5-MIN KDBQ 080145Z 01008KT 340V070 2 1/2SM -SN BR BKN029 OVC049 M03/M06 A3012 900 85 -1000 010/08 340V070 RMK AO2 P0000 $
94908KDBQ DBQ20050207195015102/07/05 19:50:31  5-MIN KDBQ 080150Z AUTO 36008KT 2 1/2SM -SN BR BKN031 OVC049 M03/M06 A3012 900 85 -1000 360/08 RMK AO2 SLP213 P0000 T10331056 TSNO $
94908KDBQ DBQ20050207195516702/07/05 19:55:31  5-MIN KDBQ 080155Z AUTO 36008KT 230V120 2 1/2SM -SN BR BKN033 OVC049 M03/M06 A3012 900 85 -1000 360/08 230V120 RMK AO2 SLP213 P0000 T10331056 TSNO $
94908KDBQ DBQ20050207200012702/07/05 20:00:31  5-MIN KDBQ 080200Z AUTO 36009KT 7SM -SN BKN040 OVC049 M03/M06 A3012 890 85 -1100 360/09 RMK AO2 P0000 TSNO $
94908KDBQ DBQ20050207200514502/07/05 20:05:31  5-MIN KDBQ 080205Z AUTO 36008KT 170V010 8SM FEW019 OVC045 M03/M06 A3012 890 85 -1100 360/08 170V010 RMK AO2 SNE03 P0000 TSNO $
94908KDBQ DBQ20050207201012902/07/05 20:10:31  5-MIN KDBQ 080210Z AUTO 36009KT 9SM SCT019 OVC045 M03/M06 A3012 890 85 -1100 360/09 RMK AO2 SNE03 P0000 TSNO $
94908KDBQ DBQ20050207201513002/07/05 20:15:31  5-MIN KDBQ 080215Z AUTO 36009KT 10SM BKN019 OVC045 M03/M06 A3012 890 85 -1100 360/09 RMK AO2 SNE03 P0000 TSNO $
94908KDBQ DBQ20050207202013002/07/05 20:20:31  5-MIN KDBQ 080220Z AUTO 36009KT 10SM BKN019 OVC047 M03/M06 A3012 900 85 -1000 360/09 RMK AO2 SNE03 P0000 TSNO $
94908KDBQ DBQ20050207202513002/07/05 20:25:31  5-MIN KDBQ 080225Z AUTO 36008KT 10SM BKN017 OVC055 M03/M06 A3012 900 85 -1000 360/08 RMK AO2 SNE03 P0000 TSNO $
94908KDBQ DBQ20050207203012302/07/05 20:30:31  5-MIN KDBQ 080230Z AUTO 36008KT 10SM OVC017 M03/M06 A3012 900 85 -1000 360/08 RMK AO2 SNE03 P0000 TSNO $
94908KDBQ DBQ20050207203513002/07/05 20:35:31  5-MIN KDBQ 080235Z AUTO 36008KT 10SM BKN014 OVC019 M03/M06 A3012 900 85 -1000 360/08 RMK AO2 SNE03 P0000 TSNO $
94908KDBQ DBQ20050207204012302/07/05 20:40:31  5-MIN KDBQ 080240Z AUTO 01007KT 10SM OVC014 M03/M06 A3012 890 85 -1100 360/07 RMK AO2 SNE03 P0000 TSNO $
94908KDBQ DBQ20050207204512302/07/05 20:45:31  5-MIN KDBQ 080245Z AUTO 36008KT 10SM OVC014 M03/M06 A3012 900 85 -1000 360/08 RMK AO2 SNE03 P0000 TSNO $
94908KDBQ DBQ20050207205015202/07/05 20:50:31  5-MIN KDBQ 080250Z AUTO 36007KT 10SM OVC014 M03/M06 A3012 900 85 -1000 360/07 RMK AO2 SNE03 SLP213 P0000 60000 T10331056 53013 TSNO $
94908KDBQ DBQ20050207205514202/07/05 20:55:31  5-MIN KDBQ 080255Z AUTO 10SM OVC014 M03/M06 A3012 900 85 -1100 M /M RMK AO2 SNE03 SLP213 P0000 60000 T10331056 51005 TSNO $
94908KDBQ DBQ20050207210010102/07/05 21:00:31  5-MIN KDBQ 080300Z AUTO 10SM OVC014 M03/M06 A3012 900 85 -1000 M /M RMK AO2 TSNO $
94908KDBQ DBQ20050207210510102/07/05 21:05:31  5-MIN KDBQ 080305Z AUTO 10SM OVC014 M03/M06 A3012 900 85 -1000 M /M RMK AO2 TSNO $
94908KDBQ DBQ20050207211010102/07/05 21:10:31  5-MIN KDBQ 080310Z AUTO 10SM OVC014 M03/M06 A3012 900 85 -1100 M /M RMK AO2 TSNO $
94908KDBQ DBQ20050207211510102/07/05 21:15:31  5-MIN KDBQ 080315Z AUTO 10SM OVC014 M03/M06 A3012 900 85 -1100 M /M RMK AO2 TSNO $
94908KDBQ DBQ20050207212011102/07/05 21:20:31  5-MIN KDBQ 080320Z AUTO 35009KT 10SM OVC014 M03/M06 A3012 900 81 -1000 350/09 RMK AO2 TSNO $
94908KDBQ DBQ20050207212511102/07/05 21:25:31  5-MIN KDBQ 080325Z AUTO 36008KT 10SM OVC014 M03/M06 A3012 900 81 -1000 360/08 RMK AO2 TSNO $
94908KDBQ DBQ20050207213011102/07/05 21:30:31  5-MIN KDBQ 080330Z AUTO 01009KT 10SM OVC014 M03/M06 A3011 900 81 -1000 010/09 RMK AO2 TSNO $
94908KDBQ DBQ20050207213511102/07/05 21:35:31  5-MIN KDBQ 080335Z AUTO 36007KT 10SM OVC014 M03/M06 A3011 900 81 -1000 360/07 RMK AO2 TSNO $
94908KDBQ DBQ20050207214011102/07/05 21:40:31  5-MIN KDBQ 080340Z AUTO 36008KT 10SM OVC014 M03/M06 A3011 900 81 -1000 350/08 RMK AO2 TSNO $
94908KDBQ DBQ20050207214511102/07/05 21:45:31  5-MIN KDBQ 080345Z AUTO 35007KT 10SM OVC014 M04/M06 A3011 900 85 -1100 350/07 RMK AO2 TSNO $
94908KDBQ DBQ20050207215012802/07/05 21:50:31  5-MIN KDBQ 080350Z AUTO 01007KT 10SM OVC014 M04/M06 A3012 900 85 -1100 360/07 RMK AO2 SLP212 T10391061 TSNO $
94908KDBQ DBQ20050207215512802/07/05 21:55:31  5-MIN KDBQ 080355Z AUTO 36007KT 10SM OVC014 M04/M06 A3012 900 85 -1100 360/07 RMK AO2 SLP213 T10391061 TSNO $
94908KDBQ DBQ20050207220011102/07/05 22:00:31  5-MIN KDBQ 080400Z AUTO 36009KT 10SM OVC014 M04/M06 A3012 900 85 -1100 360/09 RMK AO2 TSNO $
94908KDBQ DBQ20050207220511102/07/05 22:05:31  5-MIN KDBQ 080405Z AUTO 36007KT 10SM OVC014 M04/M06 A3012 890 85 -1100 350/07 RMK AO2 TSNO $
94908KDBQ DBQ20050207221011102/07/05 22:10:31  5-MIN KDBQ 080410Z AUTO 01008KT 10SM OVC014 M04/M06 A3012 890 85 -1100 360/08 RMK AO2 TSNO $
94908KDBQ DBQ20050207221511102/07/05 22:15:31  5-MIN KDBQ 080415Z AUTO 01009KT 10SM OVC014 M04/M06 A3012 890 85 -1100 360/09 RMK AO2 TSNO $
94908KDBQ DBQ20050207222011102/07/05 22:20:31  5-MIN KDBQ 080420Z AUTO 36008KT 10SM OVC014 M04/M06 A3012 890 85 -1100 360/08 RMK AO2 TSNO $
94908KDBQ DBQ20050207222511102/07/05 22:25:31  5-MIN KDBQ 080425Z AUTO 01010KT 10SM OVC014 M04/M06 A3012 890 85 -1100 010/10 RMK AO2 TSNO $
94908KDBQ DBQ20050207223011102/07/05 22:30:31  5-MIN KDBQ 080430Z AUTO 36009KT 10SM OVC014 M04/M06 A3012 890 85 -1100 360/09 RMK AO2 TSNO $
94908KDBQ DBQ20050207223511102/07/05 22:35:31  5-MIN KDBQ 080435Z AUTO 36008KT 10SM OVC012 M04/M06 A3013 890 85 -1100 360/08 RMK AO2 TSNO $
94908KDBQ DBQ20050207224012702/07/05 22:40:31  5-MIN KDBQ 080440Z AUTO 35007KT 260V010 10SM OVC012 M04/M06 A3013 890 85 -1100 350/07 260V010 RMK AO2 TSNO $
94908KDBQ DBQ20050207224511102/07/05 22:45:31  5-MIN KDBQ 080445Z AUTO 35007KT 10SM OVC012 M04/M06 A3013 890 85 -1100 350/07 RMK AO2 TSNO $
94908KDBQ DBQ20050207225012802/07/05 22:50:31  5-MIN KDBQ 080450Z AUTO 35008KT 10SM OVC012 M04/M06 A3013 890 85 -1100 350/08 RMK AO2 SLP215 T10391061 TSNO $
94908KDBQ DBQ20050207225512802/07/05 22:55:31  5-MIN KDBQ 080455Z AUTO 36009KT 10SM OVC012 M04/M06 A3013 890 85 -1100 360/09 RMK AO2 SLP216 T10391061 TSNO $
94908KDBQ DBQ20050207230011102/07/05 23:00:31  5-MIN KDBQ 080500Z AUTO 35009KT 10SM OVC012 M04/M06 A3013 880 85 -1100 350/09 RMK AO2 TSNO $
94908KDBQ DBQ20050207230511102/07/05 23:05:31  5-MIN KDBQ 080505Z AUTO 35010KT 10SM OVC012 M04/M06 A3013 880 85 -1100 350/10 RMK AO2 TSNO $
94908KDBQ DBQ20050207231011102/07/05 23:10:31  5-MIN KDBQ 080510Z AUTO 36010KT 10SM OVC012 M04/M06 A3013 880 85 -1100 350/10 RMK AO2 TSNO $
94908KDBQ DBQ20050207231511102/07/05 23:15:31  5-MIN KDBQ 080515Z AUTO 36009KT 10SM OVC012 M04/M06 A3013 880 85 -1100 360/09 RMK AO2 TSNO $
94908KDBQ DBQ20050207232011102/07/05 23:20:31  5-MIN KDBQ 080520Z AUTO 36011KT 10SM OVC012 M04/M06 A3013 890 85 -1100 360/11 RMK AO2 TSNO $
94908KDBQ DBQ20050207232511802/07/05 23:25:31  5-MIN KDBQ 080525Z AUTO 36010KT 10SM BKN012 OVC019 M04/M06 A3013 890 85 -1100 360/10 RMK AO2 TSNO $
94908KDBQ DBQ20050207233011802/07/05 23:30:31  5-MIN KDBQ 080530Z AUTO 36010KT 10SM BKN012 OVC019 M04/M06 A3012 890 85 -1100 360/10 RMK AO2 TSNO $
94908KDBQ DBQ20050207233511802/07/05 23:35:31  5-MIN KDBQ 080535Z AUTO 36009KT 10SM SCT012 OVC019 M04/M06 A3013 890 85 -1100 360/09 RMK AO2 TSNO $
94908KDBQ DBQ20050207234011802/07/05 23:40:31  5-MIN KDBQ 080540Z AUTO 36010KT 10SM SCT012 OVC019 M04/M06 A3013 890 85 -1100 360/10 RMK AO2 TSNO $
94908KDBQ DBQ20050207234511802/07/05 23:45:31  5-MIN KDBQ 080545Z AUTO 36010KT 10SM FEW012 OVC019 M04/M06 A3013 890 85 -1100 360/10 RMK AO2 TSNO $
94908KDBQ DBQ20050207235016902/07/05 23:50:31  5-MIN KDBQ 080550Z AUTO 01009KT 10SM FEW012 OVC019 M04/M06 A3013 890 85 -1100 360/09 RMK AO2 SLP218 60000 T10391061 11033 21039 400331039 51005 TSNO $
94908KDBQ DBQ20050207235516202/07/05 23:55:31  5-MIN KDBQ 080555Z AUTO 36009KT 10SM OVC019 M04/M06 A3013 890 85 -1100 360/09 RMK AO2 SLP217 60000 T10391061 11033 21039 400331039 53003 TSNO $
94908KDBQ DBQ20050208000011802/08/05 00:00:38  5-MIN KDBQ 080600Z AUTO 36008KT 10SM SCT013 OVC019 M04/M06 A3013 880 85 -1100 360/08 RMK AO2 TSNO $
94908KDBQ DBQ20050208000511802/08/05 00:05:31  5-MIN KDBQ 080605Z AUTO 01010KT 10SM BKN013 OVC019 M04/M06 A3013 880 85 -1100 360/10 RMK AO2 TSNO $
94908KDBQ DBQ20050208001011802/08/05 00:10:31  5-MIN KDBQ 080610Z AUTO 36009KT 10SM BKN013 OVC019 M04/M06 A3013 880 85 -1100 360/09 RMK AO2 TSNO $
94908KDBQ DBQ20050208001511802/08/05 00:15:34  5-MIN KDBQ 080615Z AUTO 35010KT 10SM BKN013 OVC019 M04/M06 A3014 880 85 -1100 350/10 RMK AO2 TSNO $
94908KDBQ DBQ20050208002011102/08/05 00:20:31  5-MIN KDBQ 080620Z AUTO 36009KT 10SM OVC013 M04/M06 A3014 880 85 -1100 360/09 RMK AO2 TSNO $
94908KDBQ DBQ20050208002511002/08/05 00:25:31  5-MIN KDBQ 080625Z AUTO 35010KT 9SM OVC013 M04/M06 A3014 880 85 -1100 350/10 RMK AO2 TSNO $
94908KDBQ DBQ20050208003011002/08/05 00:30:31  5-MIN KDBQ 080630Z AUTO 36011KT 9SM OVC013 M04/M06 A3014 880 88 -1200 350/11 RMK AO2 TSNO $
94908KDBQ DBQ20050208003511002/08/05 00:35:31  5-MIN KDBQ 080635Z AUTO 36010KT 8SM OVC013 M04/M06 A3014 880 88 -1200 360/10 RMK AO2 TSNO $
94908KDBQ DBQ20050208004012902/08/05 00:40:31  5-MIN KDBQ 080640Z AUTO 35008KT 8SM BKN010 OVC015 M04/M06 A3014 870 88 -1200 350/08 RMK AO2 CIG 008V012 TSNO $
94908KDBQ DBQ20050208004512902/08/05 00:45:31  5-MIN KDBQ 080645Z AUTO 34008KT 8SM BKN010 OVC015 M04/M06 A3014 870 88 -1200 340/08 RMK AO2 CIG 008V012 TSNO $
94908KDBQ DBQ20050208005014602/08/05 00:50:31  5-MIN KDBQ 080650Z AUTO 35009KT 7SM BKN010 OVC015 M04/M06 A3014 870 88 -1200 350/09 RMK AO2 CIG 008V012 SLP222 T10441061 TSNO $
94908KDBQ DBQ20050208005514602/08/05 00:55:31  5-MIN KDBQ 080655Z AUTO 35009KT 7SM BKN010 OVC015 M04/M06 A3014 870 88 -1200 350/09 RMK AO2 CIG 007V011 SLP222 T10441061 TSNO $
94908KDBQ DBQ20050208010013202/08/05 01:00:31  5-MIN KDBQ 080700Z AUTO 36010KT 6SM BR BKN008 OVC017 M04/M06 A3014 870 88 -1200 360/10 RMK AO2 CIG 007V011 TSNO $
94908KDBQ DBQ20050208010512702/08/05 01:05:31  5-MIN KDBQ 080705Z AUTO 36009KT 6SM BR BKN008 BKN011 OVC017 M04/M06 A3014 880 88 -1200 360/09 RMK AO2 TSNO $
94908KDBQ DBQ20050208011012702/08/05 01:10:31  5-MIN KDBQ 080710Z AUTO 36009KT 6SM BR SCT008 BKN011 OVC017 M04/M06 A3014 880 92 -1200 350/09 RMK AO2 TSNO $
94908KDBQ DBQ20050208011513202/08/05 01:15:31  5-MIN KDBQ 080715Z AUTO 36011KT 5SM BR BKN008 OVC017 M04/M06 A3014 870 92 -1200 360/11 RMK AO2 CIG 005V011 TSNO $
94908KDBQ DBQ20050208012012702/08/05 01:20:31  5-MIN KDBQ 080720Z AUTO 35008KT 5SM BR BKN006 BKN010 OVC017 M04/M06 A3014 870 92 -1200 350/08 RMK AO2 TSNO $
94908KDBQ DBQ20050208012513202/08/05 01:25:31  5-MIN KDBQ 080725Z AUTO 36008KT 4SM BR BKN006 OVC017 M04/M06 A3014 870 92 -1200 360/08 RMK AO2 CIG 004V010 TSNO $
94908KDBQ DBQ20050208013013202/08/05 01:30:31  5-MIN KDBQ 080730Z AUTO 36010KT 4SM BR BKN006 OVC017 M04/M06 A3014 880 92 -1200 360/10 RMK AO2 CIG 004V009 TSNO $
94908KDBQ DBQ20050208013513202/08/05 01:35:31  5-MIN KDBQ 080735Z AUTO 36009KT 4SM BR BKN006 OVC019 M04/M06 A3014 880 92 -1200 360/09 RMK AO2 CIG 004V009 TSNO $
94908KDBQ DBQ20050208014013202/08/05 01:40:31  5-MIN KDBQ 080740Z AUTO 36010KT 4SM BR BKN006 OVC019 M04/M06 A3014 880 92 -1200 360/10 RMK AO2 CIG 004V009 TSNO $
94908KDBQ DBQ20050208014512002/08/05 01:45:31  5-MIN KDBQ 080745Z AUTO 01011KT 4SM BR BKN006 OVC019 M04/M06 A3014 880 92 -1200 360/11 RMK AO2 TSNO $
94908KDBQ DBQ20050208015013702/08/05 01:50:31  5-MIN KDBQ 080750Z AUTO 36009KT 5SM BR BKN006 OVC019 M04/M06 A3014 870 92 -1200 360/09 RMK AO2 SLP222 T10441056 TSNO $
94908KDBQ DBQ20050208015513702/08/05 01:55:31  5-MIN KDBQ 080755Z AUTO 36011KT 5SM BR SCT006 OVC019 M04/M06 A3014 880 92 -1200 360/11 RMK AO2 SLP221 T10441056 TSNO $
94908KDBQ DBQ20050208020012002/08/05 02:00:31  5-MIN KDBQ 080800Z AUTO 36010KT 5SM BR FEW006 OVC019 M04/M06 A3014 870 88 -1200 360/10 RMK AO2 TSNO $
94908KDBQ DBQ20050208020512002/08/05 02:05:31  5-MIN KDBQ 080805Z AUTO 36010KT 4SM BR FEW006 OVC019 M04/M06 A3015 870 88 -1200 360/10 RMK AO2 TSNO $
94908KDBQ DBQ20050208021011302/08/05 02:10:31  5-MIN KDBQ 080810Z AUTO 36010KT 4SM BR OVC019 M04/M06 A3015 870 88 -1200 360/10 RMK AO2 TSNO $
94908KDBQ DBQ20050208021511302/08/05 02:15:31  5-MIN KDBQ 080815Z AUTO 36010KT 3SM BR OVC019 M04/M06 A3015 860 88 -1200 360/10 RMK AO2 TSNO $
94908KDBQ DBQ20050208022013302/08/05 02:20:31  5-MIN KDBQ 080820Z AUTO 36010KT 2 1/2SM -SN BR OVC019 M04/M06 A3015 860 88 -1200 350/10 RMK AO2 SNB16 P0000 TSNO $
94908KDBQ DBQ20050208022512902/08/05 02:25:31  5-MIN KDBQ 080825Z AUTO 36010KT 2SM -SN BR OVC019 M04/M06 A3015 860 88 -1200 360/10 RMK AO2 SNB16 P0000 TSNO $
94908KDBQ DBQ20050208023012902/08/05 02:30:31  5-MIN KDBQ 080830Z AUTO 36009KT 2SM -SN BR OVC019 M04/M06 A3015 860 88 -1200 360/09 RMK AO2 SNB16 P0000 TSNO $
94908KDBQ DBQ20050208023512902/08/05 02:35:31  5-MIN KDBQ 080835Z AUTO 36009KT 2SM -SN BR OVC021 M04/M06 A3015 860 88 -1200 350/09 RMK AO2 SNB16 P0000 TSNO $
94908KDBQ DBQ20050208024013302/08/05 02:40:31  5-MIN KDBQ 080840Z AUTO 36008KT 2 1/2SM -SN BR OVC021 M04/M06 A3015 860 88 -1200 350/08 RMK AO2 SNB16 P0000 TSNO $
94908KDBQ DBQ20050208024514002/08/05 02:45:31  5-MIN KDBQ 080845Z AUTO 36010KT 2 1/2SM -SN BR BKN021 OVC028 M05/M06 A3015 870 92 -1300 360/10 RMK AO2 SNB16 P0000 TSNO $
94908KDBQ DBQ20050208025016502/08/05 02:50:31  5-MIN KDBQ 080850Z AUTO 36010KT 3SM -SN BR BKN021 OVC028 M05/M06 A3015 870 92 -1300 360/10 RMK AO2 SNB16 SLP225 P0000 60000 T10501061 53003 TSNO $
94908KDBQ DBQ20050208025515702/08/05 02:55:31  5-MIN KDBQ 080855Z AUTO 01010KT 4SM BR OVC026 M05/M06 A3015 870 92 -1300 360/10 RMK AO2 SNB16E55 SLP224 P0000 60000 T10501061 51005 TSNO $
94908KDBQ DBQ20050208030011302/08/05 03:00:31  5-MIN KDBQ 080900Z AUTO 36011KT 4SM BR OVC026 M05/M06 A3014 870 92 -1300 360/11 RMK AO2 TSNO $
94908KDBQ DBQ20050208030511302/08/05 03:05:31  5-MIN KDBQ 080905Z AUTO 36009KT 5SM BR OVC026 M05/M06 A3014 870 92 -1300 360/09 RMK AO2 TSNO $
94908KDBQ DBQ20050208031011302/08/05 03:10:31  5-MIN KDBQ 080910Z AUTO 36009KT 6SM BR OVC026 M05/M06 A3014 870 92 -1300 360/09 RMK AO2 TSNO $
94908KDBQ DBQ20050208031511302/08/05 03:15:31  5-MIN KDBQ 080915Z AUTO 36010KT 6SM BR OVC026 M05/M06 A3014 870 92 -1300 360/10 RMK AO2 TSNO $
94908KDBQ DBQ20050208032011302/08/05 03:20:31  5-MIN KDBQ 080920Z AUTO 01010KT 6SM BR OVC026 M05/M06 A3014 880 92 -1300 010/10 RMK AO2 TSNO $
94908KDBQ DBQ20050208032511002/08/05 03:25:31  5-MIN KDBQ 080925Z AUTO 01012KT 7SM OVC026 M05/M07 A3014 880 88 -1300 010/12 RMK AO2 TSNO $
94908KDBQ DBQ20050208033011002/08/05 03:30:31  5-MIN KDBQ 080930Z AUTO 01011KT 7SM OVC026 M05/M07 A3014 880 88 -1300 010/11 RMK AO2 TSNO $
94908KDBQ DBQ20050208033511002/08/05 03:35:31  5-MIN KDBQ 080935Z AUTO 01012KT 7SM OVC026 M05/M07 A3014 880 88 -1300 360/12 RMK AO2 TSNO $
94908KDBQ DBQ20050208034011002/08/05 03:40:31  5-MIN KDBQ 080940Z AUTO 01010KT 8SM OVC026 M05/M07 A3014 870 88 -1300 360/10 RMK AO2 TSNO $
94908KDBQ DBQ20050208034511002/08/05 03:45:31  5-MIN KDBQ 080945Z AUTO 36010KT 8SM OVC026 M05/M07 A3015 870 88 -1300 360/10 RMK AO2 TSNO $
94908KDBQ DBQ20050208035012702/08/05 03:50:31  5-MIN KDBQ 080950Z AUTO 01011KT 8SM OVC026 M05/M07 A3014 870 88 -1300 360/11 RMK AO2 SLP224 T10501067 TSNO $
94908KDBQ DBQ20050208035512702/08/05 03:55:31  5-MIN KDBQ 080955Z AUTO 01012KT 8SM OVC026 M05/M06 A3014 870 92 -1300 010/12 RMK AO2 SLP224 T10501061 TSNO $
94908KDBQ DBQ20050208040011002/08/05 04:00:31  5-MIN KDBQ 081000Z AUTO 01013KT 8SM OVC026 M05/M06 A3014 870 92 -1300 010/13 RMK AO2 TSNO $
94908KDBQ DBQ20050208040511002/08/05 04:05:31  5-MIN KDBQ 081005Z AUTO 01011KT 8SM OVC026 M05/M06 A3014 870 92 -1300 010/11 RMK AO2 TSNO $
94908KDBQ DBQ20050208041011002/08/05 04:10:31  5-MIN KDBQ 081010Z AUTO 01013KT 8SM OVC024 M05/M06 A3014 880 92 -1300 010/13 RMK AO2 TSNO $
94908KDBQ DBQ20050208041511002/08/05 04:15:31  5-MIN KDBQ 081015Z AUTO 01014KT 8SM OVC024 M05/M07 A3014 880 88 -1300 010/14 RMK AO2 TSNO $
94908KDBQ DBQ20050208042011002/08/05 04:20:31  5-MIN KDBQ 081020Z AUTO 01012KT 8SM OVC024 M05/M07 A3014 870 88 -1300 010/12 RMK AO2 TSNO $
94908KDBQ DBQ20050208042511002/08/05 04:25:31  5-MIN KDBQ 081025Z AUTO 01014KT 8SM OVC024 M05/M07 A3014 870 88 -1300 010/14 RMK AO2 TSNO $
94908KDBQ DBQ20050208043011002/08/05 04:30:31  5-MIN KDBQ 081030Z AUTO 01015KT 8SM OVC024 M05/M07 A3014 870 88 -1300 010/15 RMK AO2 TSNO $
94908KDBQ DBQ20050208043511002/08/05 04:35:31  5-MIN KDBQ 081035Z AUTO 01014KT 8SM OVC024 M05/M07 A3014 870 88 -1300 010/14 RMK AO2 TSNO $
94908KDBQ DBQ20050208044011002/08/05 04:40:31  5-MIN KDBQ 081040Z AUTO 01014KT 8SM OVC024 M05/M07 A3015 870 88 -1300 010/14 RMK AO2 TSNO $
94908KDBQ DBQ20050208044511002/08/05 04:45:31  5-MIN KDBQ 081045Z AUTO 01015KT 8SM OVC024 M05/M07 A3014 870 88 -1300 010/15 RMK AO2 TSNO $
94908KDBQ DBQ20050208045012702/08/05 04:50:31  5-MIN KDBQ 081050Z AUTO 01014KT 8SM OVC024 M05/M07 A3014 870 88 -1300 010/14 RMK AO2 SLP224 T10501067 TSNO $
94908KDBQ DBQ20050208045512702/08/05 04:55:31  5-MIN KDBQ 081055Z AUTO 01012KT 8SM OVC024 M05/M06 A3015 870 92 -1300 010/12 RMK AO2 SLP225 T10501061 TSNO $
94908KDBQ DBQ20050208050011002/08/05 05:00:31  5-MIN KDBQ 081100Z AUTO 01012KT 8SM OVC024 M05/M06 A3015 870 92 -1300 010/12 RMK AO2 TSNO $
94908KDBQ DBQ20050208050511002/08/05 05:05:31  5-MIN KDBQ 081105Z AUTO 01013KT 8SM OVC024 M05/M06 A3015 870 92 -1300 010/13 RMK AO2 TSNO $
94908KDBQ DBQ20050208051011002/08/05 05:10:31  5-MIN KDBQ 081110Z AUTO 01014KT 8SM OVC024 M05/M06 A3015 860 92 -1300 010/14 RMK AO2 TSNO $
94908KDBQ DBQ20050208051511002/08/05 05:15:31  5-MIN KDBQ 081115Z AUTO 01013KT 8SM OVC024 M05/M06 A3016 860 92 -1300 010/13 RMK AO2 TSNO $
94908KDBQ DBQ20050208052011002/08/05 05:20:31  5-MIN KDBQ 081120Z AUTO 01013KT 8SM OVC024 M04/M06 A3015 860 88 -1200 010/13 RMK AO2 TSNO $
94908KDBQ DBQ20050208052511002/08/05 05:25:31  5-MIN KDBQ 081125Z AUTO 01012KT 8SM OVC024 M04/M06 A3016 860 88 -1200 010/12 RMK AO2 TSNO $
94908KDBQ DBQ20050208053011002/08/05 05:30:31  5-MIN KDBQ 081130Z AUTO 01014KT 8SM OVC024 M04/M06 A3015 870 88 -1200 010/14 RMK AO2 TSNO $
94908KDBQ DBQ20050208053511002/08/05 05:35:31  5-MIN KDBQ 081135Z AUTO 01013KT 8SM OVC024 M04/M06 A3015 860 88 -1200 010/13 RMK AO2 TSNO $
94908KDBQ DBQ20050208054011002/08/05 05:40:31  5-MIN KDBQ 081140Z AUTO 01013KT 8SM OVC024 M04/M06 A3016 860 88 -1200 010/13 RMK AO2 TSNO $
94908KDBQ DBQ20050208054511002/08/05 05:45:31  5-MIN KDBQ 081145Z AUTO 01012KT 8SM OVC024 M04/M06 A3016 860 88 -1200 010/12 RMK AO2 TSNO $
94908KDBQ DBQ20050208055015702/08/05 05:50:31  5-MIN KDBQ 081150Z AUTO 01013KT 8SM OVC024 M04/M06 A3016 860 88 -1200 360/13 RMK AO2 SLP229 60000 70004 T10441061 11039 21050 51005 TSNO $
94908KDBQ DBQ20050208055514702/08/05 05:55:31  5-MIN KDBQ 081155Z 36010KT 8SM OVC024 M04/M06 A3016 860 88 -1200 360/10 RMK AO2 SLP229 60000 70004 T10441061 11039 21050 53005 $
94908KDBQ DBQ20050208060010002/08/05 06:00:31  5-MIN KDBQ 081200Z 36012KT 8SM OVC024 M04/M06 A3016 860 88 -1200 360/12 RMK AO2 $
94908KDBQ DBQ20050208060510002/08/05 06:05:31  5-MIN KDBQ 081205Z 36011KT 8SM OVC024 M04/M06 A3016 850 88 -1200 360/11 RMK AO2 $
94908KDBQ DBQ20050208061010002/08/05 06:10:31  5-MIN KDBQ 081210Z 36012KT 8SM OVC024 M04/M06 A3016 860 88 -1200 360/12 RMK AO2 $
94908KDBQ DBQ20050208061510002/08/05 06:15:31  5-MIN KDBQ 081215Z 36011KT 8SM OVC024 M04/M06 A3017 850 88 -1200 360/11 RMK AO2 $
94908KDBQ DBQ20050208062010002/08/05 06:20:31  5-MIN KDBQ 081220Z 36011KT 8SM OVC024 M04/M06 A3017 850 88 -1200 360/11 RMK AO2 $
94908KDBQ DBQ20050208062510002/08/05 06:25:31  5-MIN KDBQ 081225Z 36009KT 8SM OVC024 M04/M06 A3018 840 88 -1300 360/09 RMK AO2 $
94908KDBQ DBQ20050208063010002/08/05 06:30:31  5-MIN KDBQ 081230Z 36010KT 8SM OVC024 M04/M06 A3017 850 88 -1300 360/10 RMK AO2 $
94908KDBQ DBQ20050208063510002/08/05 06:35:31  5-MIN KDBQ 081235Z 36009KT 8SM OVC022 M04/M06 A3017 840 88 -1300 360/09 RMK AO2 $
94908KDBQ DBQ20050208064010002/08/05 06:40:31  5-MIN KDBQ 081240Z 36009KT 8SM OVC022 M04/M06 A3018 840 88 -1300 360/09 RMK AO2 $
94908KDBQ DBQ20050208064510002/08/05 06:45:31  5-MIN KDBQ 081245Z 36009KT 8SM OVC022 M04/M06 A3018 840 88 -1300 360/09 RMK AO2 $
94908KDBQ DBQ20050208065011702/08/05 06:50:31  5-MIN KDBQ 081250Z 36008KT 8SM OVC024 M04/M06 A3018 840 88 -1300 360/08 RMK AO2 SLP236 T10441061 $
94908KDBQ DBQ20050208065511702/08/05 06:55:31  5-MIN KDBQ 081255Z 36010KT 8SM OVC024 M04/M06 A3018 840 88 -1300 360/10 RMK AO2 SLP235 T10441061 $
94908KDBQ DBQ20050208070010002/08/05 07:00:31  5-MIN KDBQ 081300Z 01010KT 9SM OVC024 M04/M06 A3018 840 88 -1300 010/10 RMK AO2 $
94908KDBQ DBQ20050208070510002/08/05 07:05:31  5-MIN KDBQ 081305Z 01010KT 9SM OVC024 M04/M06 A3018 840 88 -1300 010/10 RMK AO2 $
94908KDBQ DBQ20050208071010002/08/05 07:10:31  5-MIN KDBQ 081310Z 01012KT 9SM OVC024 M04/M06 A3017 850 88 -1300 010/12 RMK AO2 $
94908KDBQ DBQ20050208071510002/08/05 07:15:31  5-MIN KDBQ 081315Z 01013KT 8SM OVC024 M04/M06 A3017 840 88 -1300 010/13 RMK AO2 $
94908KDBQ DBQ20050208072010002/08/05 07:20:31  5-MIN KDBQ 081320Z 01012KT 7SM OVC024 M04/M06 A3018 840 88 -1300 010/12 RMK AO2 $
94908KDBQ DBQ20050208072509802/08/05 07:25:31  5-MIN KDBQ 081325Z 01011KT 7SM OVC024 M04/M06 A3018 840 88 -1300 010/11 RMK AO2
94908KDBQ DBQ20050208073009802/08/05 07:30:31  5-MIN KDBQ 081330Z 01012KT 7SM OVC024 M04/M06 A3018 840 88 -1300 010/12 RMK AO2
94908KDBQ DBQ20050208073509802/08/05 07:35:31  5-MIN KDBQ 081335Z 01012KT 7SM OVC024 M04/M06 A3018 840 88 -1300 010/12 RMK AO2
94908KDBQ DBQ20050208074009802/08/05 07:40:31  5-MIN KDBQ 081340Z 01014KT 7SM OVC024 M04/M06 A3018 840 88 -1300 010/14 RMK AO2
94908KDBQ DBQ20050208074509802/08/05 07:45:31  5-MIN KDBQ 081345Z 01012KT 7SM OVC024 M04/M06 A3018 840 88 -1300 010/12 RMK AO2
94908KDBQ DBQ20050208075011502/08/05 07:50:31  5-MIN KDBQ 081350Z 02014KT 7SM OVC024 M04/M06 A3018 840 88 -1300 020/14 RMK AO2 SLP237 T10441061
94908KDBQ DBQ20050208075511502/08/05 07:55:31  5-MIN KDBQ 081355Z 01014KT 7SM OVC024 M04/M06 A3019 830 88 -1300 010/14 RMK AO2 SLP238 T10441061
94908KDBQ DBQ20050208080009802/08/05 08:00:31  5-MIN KDBQ 081400Z 01012KT 7SM OVC024 M04/M06 A3019 830 88 -1300 010/12 RMK AO2
94908KDBQ DBQ20050208080509802/08/05 08:05:31  5-MIN KDBQ 081405Z 01013KT 7SM OVC024 M04/M06 A3019 830 88 -1300 010/13 RMK AO2
94908KDBQ DBQ20050208081009802/08/05 08:10:31  5-MIN KDBQ 081410Z 36011KT 7SM OVC024 M04/M06 A3019 830 88 -1300 360/11 RMK AO2
94908KDBQ DBQ20050208081509802/08/05 08:15:31  5-MIN KDBQ 081415Z 01012KT 7SM OVC024 M04/M06 A3020 820 88 -1300 010/12 RMK AO2
94908KDBQ DBQ20050208082009802/08/05 08:20:31  5-MIN KDBQ 081420Z 36010KT 7SM OVC024 M04/M06 A3020 820 88 -1300 360/10 RMK AO2
94908KDBQ DBQ20050208082509802/08/05 08:25:31  5-MIN KDBQ 081425Z 01012KT 7SM OVC024 M04/M06 A3020 820 88 -1300 010/12 RMK AO2
94908KDBQ DBQ20050208083009802/08/05 08:30:31  5-MIN KDBQ 081430Z 01013KT 7SM OVC024 M04/M06 A3020 820 88 -1300 010/13 RMK AO2
94908KDBQ DBQ20050208083509802/08/05 08:35:31  5-MIN KDBQ 081435Z 01012KT 7SM OVC024 M04/M06 A3020 820 88 -1300 010/12 RMK AO2
94908KDBQ DBQ20050208084009802/08/05 08:40:31  5-MIN KDBQ 081440Z 01012KT 7SM OVC024 M04/M06 A3020 820 88 -1300 010/12 RMK AO2
94908KDBQ DBQ20050208084509802/08/05 08:45:31  5-MIN KDBQ 081445Z 01012KT 7SM OVC024 M04/M06 A3020 820 85 -1200 010/12 RMK AO2
94908KDBQ DBQ20050208085012102/08/05 08:50:31  5-MIN KDBQ 081450Z 01011KT 7SM OVC024 M04/M06 A3020 820 88 -1200 010/11 RMK AO2 SLP241 T10391056 53005
94908KDBQ DBQ20050208085512102/08/05 08:55:31  5-MIN KDBQ 081455Z 02012KT 7SM OVC010 M04/M06 A3020 820 85 -1200 010/12 RMK AO2 SLP242 T10391061 51013
94908KDBQ DBQ20050208090009802/08/05 09:00:31  5-MIN KDBQ 081500Z 02013KT 7SM OVC010 M04/M06 A3020 820 88 -1200 020/13 RMK AO2
94908KDBQ DBQ20050208090509802/08/05 09:05:31  5-MIN KDBQ 081505Z 02013KT 7SM OVC010 M04/M06 A3020 820 88 -1200 020/13 RMK AO2
94908KDBQ DBQ20050208091009802/08/05 09:10:31  5-MIN KDBQ 081510Z 02011KT 7SM OVC010 M04/M06 A3020 820 88 -1200 020/11 RMK AO2
94908KDBQ DBQ20050208091509802/08/05 09:15:31  5-MIN KDBQ 081515Z 02009KT 7SM OVC010 M04/M06 A3020 820 88 -1200 020/09 RMK AO2
94908KDBQ DBQ20050208092009802/08/05 09:20:31  5-MIN KDBQ 081520Z 02009KT 7SM OVC010 M04/M06 A3020 820 88 -1200 020/09 RMK AO2
94908KDBQ DBQ20050208092510002/08/05 09:25:31  5-MIN KDBQ 081525Z 01005KT 7SM OVC010 M04/M06 A3020 820 88 -1200 010/05 RMK AO2 $
94908KDBQ DBQ20050208093010002/08/05 09:30:31  5-MIN KDBQ 081530Z 02007KT 7SM OVC010 M04/M06 A3020 820 88 -1200 020/07 RMK AO2 $
94908KDBQ DBQ20050208093510002/08/05 09:35:31  5-MIN KDBQ 081535Z 02006KT 7SM OVC010 M04/M06 A3020 820 85 -1200 020/06 RMK AO2 $
94908KDBQ DBQ20050208094010002/08/05 09:40:31  5-MIN KDBQ 081540Z 01007KT 7SM OVC010 M03/M06 A3020 820 85 -1100 010/07 RMK AO2 $
94908KDBQ DBQ20050208094510002/08/05 09:45:31  5-MIN KDBQ 081545Z 03008KT 7SM OVC010 M03/M06 A3020 820 85 -1100 030/08 RMK AO2 $
94908KDBQ DBQ20050208095011702/08/05 09:50:31  5-MIN KDBQ 081550Z 02009KT 7SM OVC010 M03/M06 A3021 810 85 -1200 020/09 RMK AO2 SLP244 T10331056 $
94908KDBQ DBQ20050208095512002/08/05 09:55:31  5-MIN KDBQ 081555Z 02007KT 6SM BR OVC010 M03/M06 A3021 810 85 -1200 020/07 RMK AO2 SLP245 T10331056 $
94908KDBQ DBQ20050208100010702/08/05 10:00:31  5-MIN KDBQ 081600Z 02008KT 7SM BKN010 OVC025 M03/M06 A3021 810 85 -1200 020/08 RMK AO2 $
94908KDBQ DBQ20050208100510702/08/05 10:05:31  5-MIN KDBQ 081605Z 02007KT 7SM BKN010 OVC025 M03/M06 A3021 810 85 -1200 010/07 RMK AO2 $
94908KDBQ DBQ20050208101011002/08/05 10:10:31  5-MIN KDBQ 081610Z 01008KT 6SM BR BKN010 OVC025 M03/M06 A3021 810 85 -1200 010/08 RMK AO2 $
94908KDBQ DBQ20050208101511002/08/05 10:15:31  5-MIN KDBQ 081615Z 02006KT 6SM BR BKN010 OVC025 M03/M06 A3021 810 85 -1200 010/06 RMK AO2 $
94908KDBQ DBQ20050208102010002/08/05 10:20:31  5-MIN KDBQ 081620Z 01006KT 7SM OVC010 M03/M06 A3021 810 85 -1200 010/06 RMK AO2 $
94908KDBQ DBQ20050208102510002/08/05 10:25:31  5-MIN KDBQ 081625Z 02007KT 7SM OVC010 M03/M06 A3021 810 85 -1200 020/07 RMK AO2 $
94908KDBQ DBQ20050208103010302/08/05 10:30:31  5-MIN KDBQ 081630Z 02005KT 6SM BR OVC010 M03/M06 A3021 810 85 -1200 020/05 RMK AO2 $
94908KDBQ DBQ20050208103510302/08/05 10:35:31  5-MIN KDBQ 081635Z 03005KT 6SM BR OVC010 M03/M06 A3021 810 85 -1200 030/05 RMK AO2 $
94908KDBQ DBQ20050208104010302/08/05 10:40:31  5-MIN KDBQ 081640Z 04005KT 6SM BR OVC010 M03/M06 A3021 810 85 -1200 040/05 RMK AO2 $
94908KDBQ DBQ20050208104510302/08/05 10:45:31  5-MIN KDBQ 081645Z 02006KT 6SM BR OVC010 M03/M06 A3022 810 85 -1200 010/06 RMK AO2 $
94908KDBQ DBQ20050208105012002/08/05 10:50:31  5-MIN KDBQ 081650Z 02005KT 6SM BR OVC010 M03/M05 A3022 810 88 -1200 020/05 RMK AO2 SLP247 T10331050 $
94908KDBQ DBQ20050208105512002/08/05 10:55:31  5-MIN KDBQ 081655Z 03006KT 6SM BR OVC010 M03/M06 A3021 810 85 -1200 030/06 RMK AO2 SLP247 T10331056 $
94908KDBQ DBQ20050208110010302/08/05 11:00:31  5-MIN KDBQ 081700Z 01005KT 6SM BR OVC010 M03/M05 A3021 810 85 -1100 010/05 RMK AO2 $
94908KDBQ DBQ20050208110510302/08/05 11:05:31  5-MIN KDBQ 081705Z 02006KT 6SM BR OVC010 M03/M05 A3021 810 85 -1100 020/06 RMK AO2 $
94908KDBQ DBQ20050208111010302/08/05 11:10:31  5-MIN KDBQ 081710Z 04006KT 6SM BR OVC010 M03/M05 A3021 810 85 -1100 030/06 RMK AO2 $
94908KDBQ DBQ20050208111510302/08/05 11:15:31  5-MIN KDBQ 081715Z 01006KT 6SM BR OVC010 M03/M05 A3021 810 85 -1100 010/06 RMK AO2 $
94908KDBQ DBQ20050208112010302/08/05 11:20:31  5-MIN KDBQ 081720Z 02007KT 6SM BR OVC010 M03/M05 A3020 820 85 -1100 020/07 RMK AO2 $
94908KDBQ DBQ20050208112510302/08/05 11:25:31  5-MIN KDBQ 081725Z 02006KT 6SM BR OVC010 M03/M05 A3020 820 85 -1100 020/06 RMK AO2 $
94908KDBQ DBQ20050208113010302/08/05 11:30:31  5-MIN KDBQ 081730Z 05006KT 6SM BR OVC010 M03/M05 A3020 820 85 -1100 050/06 RMK AO2 $
94908KDBQ DBQ20050208113510302/08/05 11:35:31  5-MIN KDBQ 081735Z 03006KT 6SM BR OVC010 M03/M05 A3020 820 85 -1100 030/06 RMK AO2 $
94908KDBQ DBQ20050208114010302/08/05 11:40:31  5-MIN KDBQ 081740Z 02008KT 6SM BR OVC010 M03/M05 A3020 820 85 -1100 020/08 RMK AO2 $
94908KDBQ DBQ20050208114510302/08/05 11:45:31  5-MIN KDBQ 081745Z 04007KT 6SM BR OVC010 M03/M05 A3019 830 85 -1100 040/07 RMK AO2 $
94908KDBQ DBQ20050208115013802/08/05 11:50:31  5-MIN KDBQ 081750Z 03007KT 6SM BR OVC010 M03/M05 A3019 830 85 -1100 030/07 RMK AO2 SLP238 T10281050 11028 21044 51013 $
94908KDBQ DBQ20050208115513802/08/05 11:55:31  5-MIN KDBQ 081755Z 03006KT 6SM BR OVC010 M03/M05 A3019 830 85 -1100 030/06 RMK AO2 SLP237 T10281050 11028 21044 58004 $
94908KDBQ DBQ20050208120010302/08/05 12:00:31  5-MIN KDBQ 081800Z 03007KT 6SM BR OVC010 M03/M05 A3018 840 85 -1100 030/07 RMK AO2 $
94908KDBQ DBQ20050208120510302/08/05 12:05:31  5-MIN KDBQ 081805Z 03006KT 6SM BR OVC010 M02/M04 A3018 840 85 -1000 030/06 RMK AO2 $
94908KDBQ DBQ20050208121010302/08/05 12:10:31  5-MIN KDBQ 081810Z 04007KT 6SM BR OVC010 M02/M04 A3017 840 85 -1000 040/07 RMK AO2 $
94908KDBQ DBQ20050208121510302/08/05 12:15:31  5-MIN KDBQ 081815Z 03009KT 6SM BR OVC008 M03/M04 A3017 850 88 -1000 030/09 RMK AO2 $
94908KDBQ DBQ20050208122010302/08/05 12:20:31  5-MIN KDBQ 081820Z 03009KT 6SM BR OVC008 M03/M04 A3017 850 88 -1000 020/09 RMK AO2 $
94908KDBQ DBQ20050208122510302/08/05 12:25:31  5-MIN KDBQ 081825Z 02009KT 6SM BR OVC008 M03/M04 A3017 850 88 -1000 020/09 RMK AO2 $
94908KDBQ DBQ20050208123010302/08/05 12:30:31  5-MIN KDBQ 081830Z 03008KT 6SM BR OVC008 M02/M04 A3016 850 85 -1000 030/08 RMK AO2 $
94908KDBQ DBQ20050208123510302/08/05 12:35:31  5-MIN KDBQ 081835Z 03008KT 6SM BR OVC008 M03/M04 A3016 860 88 -1000 030/08 RMK AO2 $
94908KDBQ DBQ20050208124010302/08/05 12:40:31  5-MIN KDBQ 081840Z 03010KT 6SM BR OVC008 M02/M04 A3016 860 85 -1000 030/10 RMK AO2 $
94908KDBQ DBQ20050208124510202/08/05 12:45:31  5-MIN KDBQ 081845Z 02011KT 6SM BR OVC008 M02/M04 A3015 860 85 -900 020/11 RMK AO2 $
94908KDBQ DBQ20050208125011902/08/05 12:50:31  5-MIN KDBQ 081850Z 03009KT 5SM BR OVC008 M02/M04 A3015 870 85 -900 030/09 RMK AO2 SLP225 T10221044 $
94908KDBQ DBQ20050208125511902/08/05 12:55:31  5-MIN KDBQ 081855Z 03009KT 5SM BR OVC008 M02/M04 A3015 860 85 -900 030/09 RMK AO2 SLP226 T10221044 $
94908KDBQ DBQ20050208130010202/08/05 13:00:31  5-MIN KDBQ 081900Z 02008KT 5SM BR OVC008 M02/M04 A3015 860 85 -900 020/08 RMK AO2 $
94908KDBQ DBQ20050208130510202/08/05 13:05:31  5-MIN KDBQ 081905Z 03007KT 5SM BR OVC008 M02/M04 A3015 870 85 -900 030/07 RMK AO2 $
94908KDBQ DBQ20050208131010202/08/05 13:10:31  5-MIN KDBQ 081910Z 05007KT 6SM BR OVC008 M02/M04 A3015 870 85 -900 040/07 RMK AO2 $
94908KDBQ DBQ20050208131510202/08/05 13:15:31  5-MIN KDBQ 081915Z 06008KT 6SM BR OVC008 M02/M04 A3015 860 88 -900 060/08 RMK AO2 $
94908KDBQ DBQ20050208132010202/08/05 13:20:31  5-MIN KDBQ 081920Z 05008KT 6SM BR OVC008 M02/M04 A3015 870 88 -900 050/08 RMK AO2 $
94908KDBQ DBQ20050208132510202/08/05 13:25:31  5-MIN KDBQ 081925Z 05007KT 6SM BR OVC008 M02/M04 A3015 860 85 -900 050/07 RMK AO2 $
94908KDBQ DBQ20050208133009902/08/05 13:30:31  5-MIN KDBQ 081930Z 04007KT 7SM OVC008 M02/M04 A3015 870 85 -900 040/07 RMK AO2 $
94908KDBQ DBQ20050208133510202/08/05 13:35:31  5-MIN KDBQ 081935Z 03006KT 6SM BR OVC008 M02/M04 A3015 860 85 -900 030/06 RMK AO2 $
94908KDBQ DBQ20050208134009902/08/05 13:40:31  5-MIN KDBQ 081940Z 05006KT 7SM OVC008 M02/M04 A3015 860 85 -900 050/06 RMK AO2 $
94908KDBQ DBQ20050208134510002/08/05 13:45:31  5-MIN KDBQ 081945Z 03006KT 7SM OVC008 M02/M04 A3016 860 85 -1000 030/06 RMK AO2 $
94908KDBQ DBQ20050208135011602/08/05 13:50:31  5-MIN KDBQ 081950Z 02007KT 7SM OVC008 M02/M04 A3015 860 85 -900 020/07 RMK AO2 SLP226 T10221044 $
94908KDBQ DBQ20050208135511902/08/05 13:55:31  5-MIN KDBQ 081955Z 01007KT 6SM BR OVC008 M02/M04 A3015 870 85 -900 010/07 RMK AO2 SLP225 T10221044 $
94908KDBQ DBQ20050208140010002/08/05 14:00:31  5-MIN KDBQ 082000Z 02007KT 7SM OVC008 M02/M04 A3016 860 85 -1000 020/07 RMK AO2 $
94908KDBQ DBQ20050208140508302/08/05 14:05:31  5-MIN KDBQ 082005Z M02/M04 A3016 860 85 -1000 M /M RMK AO2 PNO $
94908KDBQ DBQ20050208141008302/08/05 14:10:31  5-MIN KDBQ 082010Z M02/M04 A3015 860 85 -1000 M /M RMK AO2 PNO $
94908KDBQ DBQ20050208141508302/08/05 14:15:31  5-MIN KDBQ 082015Z M02/M04 A3016 860 85 -1000 M /M RMK AO2 PNO $
94908KDBQ DBQ20050208142006802/08/05 14:20:31  5-MIN KDBQ 082020Z A3015 M M M M /M RMK AO2 PNO $
94908KDBQ DBQ20050208142506802/08/05 14:25:31  5-MIN KDBQ 082025Z A3016 M M M M /M RMK AO2 PNO $
94908KDBQ DBQ20050208143006802/08/05 14:30:31  5-MIN KDBQ 082030Z A3015 M M M M /M RMK AO2 PNO $
94908KDBQ DBQ20050208143508802/08/05 14:35:31  5-MIN KDBQ 082035Z 05004KT M02/M04 A3015 860 88 -900 050/04 RMK AO2 $
94908KDBQ DBQ20050208144009502/08/05 14:40:31  5-MIN KDBQ 082040Z 03004KT 6SM BR M02/M04 A3015 860 88 -900 030/04 RMK AO2 $
94908KDBQ DBQ20050208144509602/08/05 14:45:31  5-MIN KDBQ 082045Z 03006KT 6SM BR M02/M04 A3016 860 88 -1000 020/06 RMK AO2 $
94908KDBQ DBQ20050208145011802/08/05 14:50:31  5-MIN KDBQ 082050Z 02008KT 5SM BR M02/M04 A3015 860 88 -900 020/08 RMK AO2 SLP226 T10221039 58004 $
94908KDBQ DBQ20050208145511902/08/05 14:55:31  5-MIN KDBQ 082055Z 03008KT 3SM BR M03/M04 A3015 870 92 -1000 030/08 RMK AO2 SLP226 T10281039 56012 $
94908KDBQ DBQ20050208150010802/08/05 15:00:31  5-MIN KDBQ 082100Z 04009KT 3SM BR BKN003 OVC008 M03/M04 A3015 870 92 -1000 040/09 RMK AO2
94908KDBQ DBQ20050208150510802/08/05 15:05:31  5-MIN KDBQ 082105Z 03009KT 3SM BR BKN003 OVC008 M03/M04 A3015 870 92 -1000 030/09 RMK AO2
94908KDBQ DBQ20050208151010802/08/05 15:10:31  5-MIN KDBQ 082110Z 03009KT 3SM BR BKN003 OVC008 M03/M04 A3015 870 92 -1000 030/09 RMK AO2
94908KDBQ DBQ20050208151510102/08/05 15:15:31  5-MIN KDBQ 082115Z 03008KT 3SM BR OVC003 M03/M04 A3015 870 92 -1000 030/08 RMK AO2
94908KDBQ DBQ20050208152010102/08/05 15:20:31  5-MIN KDBQ 082120Z 03009KT 3SM BR OVC003 M03/M04 A3015 870 92 -1000 030/09 RMK AO2
94908KDBQ DBQ20050208152510102/08/05 15:25:31  5-MIN KDBQ 082125Z 03008KT 3SM BR OVC003 M03/M04 A3015 870 92 -1000 030/08 RMK AO2
94908KDBQ DBQ20050208153010102/08/05 15:30:31  5-MIN KDBQ 082130Z 03009KT 4SM BR OVC003 M03/M04 A3015 860 92 -1000 030/09 RMK AO2
94908KDBQ DBQ20050208153510102/08/05 15:35:31  5-MIN KDBQ 082135Z 02009KT 4SM BR OVC003 M03/M04 A3016 860 92 -1000 020/09 RMK AO2
94908KDBQ DBQ20050208154010102/08/05 15:40:31  5-MIN KDBQ 082140Z 03008KT 4SM BR OVC003 M03/M04 A3015 860 92 -1000 030/08 RMK AO2
94908KDBQ DBQ20050208154510102/08/05 15:45:31  5-MIN KDBQ 082145Z 02008KT 4SM BR OVC003 M03/M04 A3015 860 92 -1000 020/08 RMK AO2
94908KDBQ DBQ20050208155011802/08/05 15:50:31  5-MIN KDBQ 082150Z 02009KT 4SM BR OVC003 M03/M04 A3015 860 92 -1000 020/09 RMK AO2 SLP227 T10281039
94908KDBQ DBQ20050208155511802/08/05 15:55:31  5-MIN KDBQ 082155Z 02009KT 5SM BR OVC005 M03/M04 A3015 870 92 -1000 020/09 RMK AO2 SLP226 T10281039
94908KDBQ DBQ20050208160010102/08/05 16:00:31  5-MIN KDBQ 082200Z 02010KT 5SM BR OVC005 M03/M04 A3015 860 88 -1000 020/10 RMK AO2
94908KDBQ DBQ20050208160510102/08/05 16:05:31  5-MIN KDBQ 082205Z 03009KT 5SM BR OVC005 M03/M04 A3016 860 88 -1000 020/09 RMK AO2
94908KDBQ DBQ20050208161010102/08/05 16:10:31  5-MIN KDBQ 082210Z 03010KT 5SM BR OVC005 M03/M04 A3016 860 88 -1000 030/10 RMK AO2
94908KDBQ DBQ20050208161510102/08/05 16:15:31  5-MIN KDBQ 082215Z 04009KT 5SM BR OVC005 M03/M04 A3015 860 88 -1000 040/09 RMK AO2
94908KDBQ DBQ20050208162010102/08/05 16:20:31  5-MIN KDBQ 082220Z 04011KT 6SM BR OVC005 M03/M04 A3015 860 92 -1100 030/11 RMK AO2
94908KDBQ DBQ20050208162509802/08/05 16:25:31  5-MIN KDBQ 082225Z 04009KT 7SM OVC005 M03/M04 A3015 860 92 -1100 040/09 RMK AO2
94908KDBQ DBQ20050208163009802/08/05 16:30:31  5-MIN KDBQ 082230Z 03008KT 7SM OVC005 M03/M04 A3016 860 92 -1100 030/08 RMK AO2
94908KDBQ DBQ20050208163509802/08/05 16:35:31  5-MIN KDBQ 082235Z 03008KT 7SM OVC005 M03/M04 A3016 860 92 -1100 030/08 RMK AO2
94908KDBQ DBQ20050208164010102/08/05 16:40:31  5-MIN KDBQ 082240Z 03010KT 6SM BR OVC005 M03/M04 A3016 860 92 -1100 030/10 RMK AO2
94908KDBQ DBQ20050208164510102/08/05 16:45:31  5-MIN KDBQ 082245Z 03009KT 6SM BR OVC005 M03/M04 A3016 850 92 -1100 030/09 RMK AO2
94908KDBQ DBQ20050208165011802/08/05 16:50:31  5-MIN KDBQ 082250Z 03009KT 6SM BR OVC005 M03/M04 A3016 860 92 -1100 030/09 RMK AO2 SLP230 T10331044
94908KDBQ DBQ20050208165511802/08/05 16:55:31  5-MIN KDBQ 082255Z 04010KT 6SM BR OVC003 M03/M04 A3016 860 92 -1100 030/10 RMK AO2 SLP229 T10331044
94908KDBQ DBQ20050208170010102/08/05 17:00:31  5-MIN KDBQ 082300Z 03010KT 6SM BR OVC003 M03/M04 A3016 860 92 -1100 030/10 RMK AO2
94908KDBQ DBQ20050208170510102/08/05 17:05:31  5-MIN KDBQ 082305Z 03009KT 6SM BR OVC003 M03/M04 A3016 860 92 -1100 030/09 RMK AO2
94908KDBQ DBQ20050208171010102/08/05 17:10:31  5-MIN KDBQ 082310Z 03009KT 6SM BR OVC003 M03/M04 A3016 860 92 -1100 020/09 RMK AO2
94908KDBQ DBQ20050208171510102/08/05 17:15:31  5-MIN KDBQ 082315Z 03008KT 6SM BR OVC003 M03/M04 A3016 860 92 -1100 030/08 RMK AO2
94908KDBQ DBQ20050208172010102/08/05 17:20:31  5-MIN KDBQ 082320Z 03008KT 6SM BR OVC003 M03/M04 A3016 860 92 -1100 030/08 RMK AO2
94908KDBQ DBQ20050208172510102/08/05 17:25:31  5-MIN KDBQ 082325Z 04009KT 6SM BR OVC003 M03/M04 A3016 860 92 -1100 030/09 RMK AO2
94908KDBQ DBQ20050208173010102/08/05 17:30:31  5-MIN KDBQ 082330Z 04010KT 6SM BR OVC003 M03/M04 A3016 860 92 -1100 040/10 RMK AO2
94908KDBQ DBQ20050208173509802/08/05 17:35:31  5-MIN KDBQ 082335Z 03009KT 7SM OVC003 M03/M04 A3016 860 92 -1100 030/09 RMK AO2
94908KDBQ DBQ20050208174010102/08/05 17:40:31  5-MIN KDBQ 082340Z 04009KT 6SM BR OVC003 M03/M04 A3016 850 92 -1100 040/09 RMK AO2
94908KDBQ DBQ20050208174510102/08/05 17:45:31  5-MIN KDBQ 082345Z 04008KT 6SM BR OVC003 M03/M04 A3016 860 92 -1100 040/08 RMK AO2
94908KDBQ DBQ20050208175013602/08/05 17:50:31  5-MIN KDBQ 082350Z 03010KT 6SM BR OVC003 M03/M04 A3016 860 92 -1100 030/10 RMK AO2 SLP230 T10331044 11022 21033 56012
94908KDBQ DBQ20050208175513602/08/05 17:55:31  5-MIN KDBQ 082355Z 04009KT 6SM BR OVC003 M03/M04 A3016 860 92 -1100 040/09 RMK AO2 SLP230 T10331044 11022 21033 53004
94908KDBQ DBQ20050208180009802/08/05 18:00:31  5-MIN KDBQ 090000Z 04008KT 7SM OVC003 M03/M04 A3016 860 92 -1100 040/08 RMK AO2
94908KDBQ DBQ20050208180509802/08/05 18:05:31  5-MIN KDBQ 090005Z 03009KT 7SM OVC003 M03/M04 A3016 850 92 -1100 030/09 RMK AO2
94908KDBQ DBQ20050208181009802/08/05 18:10:31  5-MIN KDBQ 090010Z 04010KT 7SM OVC003 M03/M04 A3017 850 92 -1100 040/10 RMK AO2
94908KDBQ DBQ20050208181510102/08/05 18:15:31  5-MIN KDBQ 090015Z 04011KT 6SM BR OVC003 M03/M04 A3016 850 92 -1100 040/11 RMK AO2
94908KDBQ DBQ20050208182010102/08/05 18:20:31  5-MIN KDBQ 090020Z 04010KT 6SM BR OVC003 M04/M05 A3016 850 92 -1200 040/10 RMK AO2
94908KDBQ DBQ20050208182510102/08/05 18:25:31  5-MIN KDBQ 090025Z 04009KT 6SM BR OVC003 M04/M04 A3016 860 96 -1200 040/09 RMK AO2
94908KDBQ DBQ20050208183010102/08/05 18:30:31  5-MIN KDBQ 090030Z 05008KT 6SM BR OVC003 M04/M05 A3016 860 92 -1200 050/08 RMK AO2
94908KDBQ DBQ20050208183510102/08/05 18:35:31  5-MIN KDBQ 090035Z 05009KT 5SM BR OVC003 M04/M04 A3016 860 96 -1200 050/09 RMK AO2
94908KDBQ DBQ20050208184010102/08/05 18:40:31  5-MIN KDBQ 090040Z 05008KT 5SM BR OVC003 M03/M04 A3016 850 92 -1100 050/08 RMK AO2
94908KDBQ DBQ20050208184510102/08/05 18:45:31  5-MIN KDBQ 090045Z 05009KT 6SM BR OVC003 M04/M04 A3017 850 96 -1200 050/09 RMK AO2
94908KDBQ DBQ20050208185011802/08/05 18:50:31  5-MIN KDBQ 090050Z 04009KT 6SM BR OVC003 M04/M05 A3017 850 92 -1200 040/09 RMK AO2 SLP231 T10391050
94908KDBQ DBQ20050208185511802/08/05 18:55:31  5-MIN KDBQ 090055Z 04008KT 6SM BR OVC003 M04/M05 A3017 850 92 -1200 040/08 RMK AO2 SLP232 T10391050
94908KDBQ DBQ20050208190010102/08/05 19:00:31  5-MIN KDBQ 090100Z 05008KT 6SM BR OVC003 M04/M05 A3017 850 92 -1200 050/08 RMK AO2
94908KDBQ DBQ20050208190510102/08/05 19:05:31  5-MIN KDBQ 090105Z 05007KT 6SM BR OVC003 M04/M05 A3017 850 92 -1200 050/07 RMK AO2
94908KDBQ DBQ20050208191009802/08/05 19:10:31  5-MIN KDBQ 090110Z 05008KT 7SM OVC003 M04/M05 A3017 850 92 -1200 040/08 RMK AO2
94908KDBQ DBQ20050208191509802/08/05 19:15:31  5-MIN KDBQ 090115Z 05008KT 7SM OVC003 M04/M05 A3017 850 92 -1200 040/08 RMK AO2
94908KDBQ DBQ20050208192010102/08/05 19:20:31  5-MIN KDBQ 090120Z 05007KT 6SM BR OVC003 M04/M05 A3017 850 92 -1200 050/07 RMK AO2
94908KDBQ DBQ20050208192510102/08/05 19:25:31  5-MIN KDBQ 090125Z 04008KT 6SM BR OVC003 M04/M05 A3017 850 92 -1200 040/08 RMK AO2
94908KDBQ DBQ20050208193010102/08/05 19:30:31  5-MIN KDBQ 090130Z 04008KT 6SM BR OVC005 M04/M05 A3017 850 92 -1200 040/08 RMK AO2
94908KDBQ DBQ20050208193510102/08/05 19:35:31  5-MIN KDBQ 090135Z 04009KT 6SM BR OVC005 M04/M05 A3016 850 92 -1200 040/09 RMK AO2
94908KDBQ DBQ20050208194010102/08/05 19:40:31  5-MIN KDBQ 090140Z 04009KT 6SM BR OVC005 M04/M05 A3016 860 92 -1200 040/09 RMK AO2
94908KDBQ DBQ20050208194511102/08/05 19:45:31  5-MIN KDBQ 090145Z AUTO 04010KT 6SM BR OVC005 M04/M05 A3016 860 92 -1200 040/10 RMK AO2 TSNO
94908KDBQ DBQ20050208195012802/08/05 19:50:31  5-MIN KDBQ 090150Z AUTO 05008KT 6SM BR OVC005 M04/M05 A3016 860 92 -1200 040/08 RMK AO2 SLP229 T10391050 TSNO
94908KDBQ DBQ20050208195512802/08/05 19:55:31  5-MIN KDBQ 090155Z AUTO 04008KT 6SM BR OVC005 M04/M05 A3016 860 92 -1200 040/08 RMK AO2 SLP228 T10391050 TSNO
94908KDBQ DBQ20050208200011102/08/05 20:00:31  5-MIN KDBQ 090200Z AUTO 05009KT 6SM BR OVC005 M04/M05 A3016 860 92 -1200 050/09 RMK AO2 TSNO
94908KDBQ DBQ20050208200511102/08/05 20:05:31  5-MIN KDBQ 090205Z AUTO 05008KT 6SM BR OVC005 M04/M05 A3016 860 92 -1200 050/08 RMK AO2 TSNO
94908KDBQ DBQ20050208201011102/08/05 20:10:31  5-MIN KDBQ 090210Z AUTO 04009KT 6SM BR OVC005 M04/M05 A3016 860 92 -1200 040/09 RMK AO2 TSNO
94908KDBQ DBQ20050208201510802/08/05 20:15:31  5-MIN KDBQ 090215Z AUTO 05009KT 7SM OVC005 M04/M05 A3016 860 92 -1200 050/09 RMK AO2 TSNO
94908KDBQ DBQ20050208202010802/08/05 20:20:31  5-MIN KDBQ 090220Z AUTO 05007KT 7SM OVC005 M04/M05 A3016 860 92 -1200 050/07 RMK AO2 TSNO
94908KDBQ DBQ20050208202510802/08/05 20:25:31  5-MIN KDBQ 090225Z AUTO 05008KT 7SM OVC005 M04/M05 A3016 860 92 -1200 050/08 RMK AO2 TSNO
94908KDBQ DBQ20050208203010802/08/05 20:30:31  5-MIN KDBQ 090230Z AUTO 05009KT 7SM OVC005 M04/M05 A3016 860 92 -1200 050/09 RMK AO2 TSNO
94908KDBQ DBQ20050208203511102/08/05 20:35:31  5-MIN KDBQ 090235Z AUTO 05007KT 6SM BR OVC005 M04/M05 A3016 860 92 -1200 050/07 RMK AO2 TSNO
94908KDBQ DBQ20050208204011102/08/05 20:40:31  5-MIN KDBQ 090240Z AUTO 05008KT 6SM BR OVC005 M04/M05 A3016 850 92 -1200 040/08 RMK AO2 TSNO
94908KDBQ DBQ20050208204512702/08/05 20:45:31  5-MIN KDBQ 090245Z AUTO 05007KT 5SM -SN BR OVC005 M04/M05 A3016 850 92 -1200 050/07 RMK AO2 SNB43 P0000 TSNO
94908KDBQ DBQ20050208205015602/08/05 20:50:31  5-MIN KDBQ 090250Z AUTO 05006KT 4SM -SN BR OVC005 M04/M05 A3016 850 92 -1200 050/06 RMK AO2 SNB43 SLP231 P0000 60000 T10391050 53004 TSNO
94908KDBQ DBQ20050208205515602/08/05 20:55:31  5-MIN KDBQ 090255Z AUTO 04007KT 3SM -SN BR OVC005 M04/M05 A3016 850 92 -1200 040/07 RMK AO2 SNB43 SLP231 P0000 60000 T10391050 51001 TSNO
94908KDBQ DBQ20050208210012102/08/05 21:00:31  5-MIN KDBQ 090300Z AUTO 04007KT 3SM -SN BR OVC005 M04/M05 A3016 860 92 -1200 040/07 RMK AO2 P0000 TSNO
94908KDBQ DBQ20050208210512502/08/05 21:05:31  5-MIN KDBQ 090305Z AUTO 05007KT 2 1/2SM -SN BR OVC005 M04/M05 A3016 860 92 -1200 040/07 RMK AO2 P0000 TSNO
94908KDBQ DBQ20050208211012802/08/05 21:10:31  5-MIN KDBQ 090310Z AUTO 05007KT 2SM -SN BR BKN005 OVC009 M04/M05 A3016 860 92 -1200 050/07 RMK AO2 P0000 TSNO
94908KDBQ DBQ20050208211513202/08/05 21:15:31  5-MIN KDBQ 090315Z AUTO 05008KT 1 1/2SM -SN BR BKN005 OVC009 M04/M05 A3015 870 96 -1200 050/08 RMK AO2 P0000 TSNO
94908KDBQ DBQ20050208212013202/08/05 21:20:31  5-MIN KDBQ 090320Z AUTO 05009KT 1 1/4SM -SN BR SCT005 OVC009 M04/M06 A3015 870 92 -1200 050/09 RMK AO2 P0000 TSNO
94908KDBQ DBQ20050208212512002/08/05 21:25:31  5-MIN KDBQ 090325Z AUTO 05008KT 1SM -SN BR VV007 M04/M06 A3014 870 92 -1200 050/08 RMK AO2 P0001 TSNO
94908KDBQ DBQ20050208213012002/08/05 21:30:31  5-MIN KDBQ 090330Z AUTO 06008KT 1SM -SN BR VV007 M04/M06 A3014 870 92 -1200 060/08 RMK AO2 P0001 TSNO
94908KDBQ DBQ20050208213512002/08/05 21:35:31  5-MIN KDBQ 090335Z AUTO 05008KT 1SM -SN BR VV008 M04/M06 A3014 880 92 -1200 050/08 RMK AO2 P0001 TSNO
94908KDBQ DBQ20050208214012002/08/05 21:40:31  5-MIN KDBQ 090340Z AUTO 05009KT 1SM -SN BR VV008 M04/M06 A3013 880 92 -1200 050/09 RMK AO2 P0001 TSNO
94908KDBQ DBQ20050208214512002/08/05 21:45:31  5-MIN KDBQ 090345Z AUTO 05009KT 1SM -SN BR VV008 M04/M06 A3013 880 92 -1200 050/09 RMK AO2 P0001 TSNO
94908KDBQ DBQ20050208215013702/08/05 21:50:31  5-MIN KDBQ 090350Z AUTO 05008KT 1SM -SN BR VV008 M04/M06 A3013 880 92 -1200 050/08 RMK AO2 SLP219 P0002 T10441056 TSNO
94908KDBQ DBQ20050208215513702/08/05 21:55:31  5-MIN KDBQ 090355Z AUTO 05008KT 1SM -SN BR VV009 M04/M06 A3013 890 92 -1200 050/08 RMK AO2 SLP218 P0002 T10441056 TSNO
94908KDBQ DBQ20050208220012002/08/05 22:00:31  5-MIN KDBQ 090400Z AUTO 06008KT 1SM -SN BR VV009 M04/M06 A3013 890 92 -1200 060/08 RMK AO2 P0000 TSNO
94908KDBQ DBQ20050208220512202/08/05 22:05:31  5-MIN KDBQ 090405Z AUTO 06006KT 3/4SM -SN BR VV008 M04/M06 A3013 890 92 -1200 060/06 RMK AO2 P0000 TSNO
94908KDBQ DBQ20050208221012202/08/05 22:10:31  5-MIN KDBQ 090410Z AUTO 06005KT 3/4SM -SN BR VV008 M04/M06 A3012 890 92 -1200 060/05 RMK AO2 P0001 TSNO
94908KDBQ DBQ20050208221512002/08/05 22:15:31  5-MIN KDBQ 090415Z AUTO 06006KT 1SM -SN BR VV007 M04/M06 A3013 890 92 -1200 060/06 RMK AO2 P0001 TSNO
94908KDBQ DBQ20050208222012202/08/05 22:20:31  5-MIN KDBQ 090420Z AUTO 07005KT 3/4SM -SN BR VV007 M04/M06 A3013 890 92 -1200 060/05 RMK AO2 P0002 TSNO
94908KDBQ DBQ20050208222512202/08/05 22:25:31  5-MIN KDBQ 090425Z AUTO 07007KT 3/4SM -SN BR VV006 M04/M06 A3013 890 92 -1200 070/07 RMK AO2 P0002 TSNO
94908KDBQ DBQ20050208223013002/08/05 22:30:31  5-MIN KDBQ 090430Z AUTO 08009KT 3/4SM -SN BR BKN006 OVC014 M04/M06 A3013 890 88 -1200 080/09 RMK AO2 P0002 TSNO
94908KDBQ DBQ20050208223513002/08/05 22:35:31  5-MIN KDBQ 090435Z AUTO 08007KT 3/4SM -SN BR BKN006 OVC014 M04/M06 A3013 890 88 -1200 080/07 RMK AO2 P0003 TSNO
94908KDBQ DBQ20050208224013002/08/05 22:40:31  5-MIN KDBQ 090440Z AUTO 07007KT 3/4SM -SN BR BKN006 OVC014 M04/M06 A3012 890 88 -1200 070/07 RMK AO2 P0003 TSNO
94908KDBQ DBQ20050208224513002/08/05 22:45:31  5-MIN KDBQ 090445Z AUTO 08008KT 3/4SM -SN BR BKN008 OVC014 M04/M06 A3012 890 88 -1200 080/08 RMK AO2 P0004 TSNO
94908KDBQ DBQ20050208225014702/08/05 22:50:31  5-MIN KDBQ 090450Z AUTO 07007KT 3/4SM -SN BR BKN008 OVC014 M04/M06 A3012 900 88 -1200 070/07 RMK AO2 SLP215 P0004 T10441061 TSNO
94908KDBQ DBQ20050208225514502/08/05 22:55:31  5-MIN KDBQ 090455Z AUTO 07007KT 1SM -SN BR BKN010 OVC014 M04/M06 A3012 900 88 -1200 070/07 RMK AO2 SLP214 P0004 T10441061 TSNO
94908KDBQ DBQ20050208230013502/08/05 23:00:31  5-MIN KDBQ 090500Z AUTO 07008KT 1SM -SN BR BKN010 BKN014 OVC021 M04/M06 A3011 900 88 -1200 060/08 RMK AO2 P0001 TSNO
94908KDBQ DBQ20050208230513202/08/05 23:05:31  5-MIN KDBQ 090505Z AUTO 07008KT 1 1/4SM -SN BR BKN010 OVC021 M05/M06 A3012 900 92 -1300 060/08 RMK AO2 P0001 TSNO
94908KDBQ DBQ20050208231013902/08/05 23:10:31  5-MIN KDBQ 090510Z AUTO 06008KT 1 1/4SM -SN BR BKN012 BKN021 OVC035 M05/M06 A3011 900 92 -1300 060/08 RMK AO2 P0001 TSNO
94908KDBQ DBQ20050208231513902/08/05 23:15:31  5-MIN KDBQ 090515Z AUTO 05007KT 1 1/2SM -SN BR BKN014 BKN021 OVC035 M05/M06 A3011 900 92 -1300 050/07 RMK AO2 P0001 TSNO
94908KDBQ DBQ20050208232013902/08/05 23:20:31  5-MIN KDBQ 090520Z AUTO 05005KT 1 1/2SM -SN BR BKN016 BKN021 OVC035 M05/M06 A3011 900 92 -1300 040/05 RMK AO2 P0001 TSNO
94908KDBQ DBQ20050208232513202/08/05 23:25:31  5-MIN KDBQ 090525Z AUTO 06006KT 1 3/4SM -SN BR BKN016 OVC035 M05/M06 A3011 900 92 -1300 060/06 RMK AO2 P0001 TSNO
94908KDBQ DBQ20050208233013202/08/05 23:30:31  5-MIN KDBQ 090530Z AUTO 05007KT 1 1/2SM -SN BR BKN016 OVC033 M05/M06 A3011 900 92 -1300 050/07 RMK AO2 P0001 TSNO
94908KDBQ DBQ20050208233513202/08/05 23:35:31  5-MIN KDBQ 090535Z AUTO 06007KT 1 1/2SM -SN BR BKN018 OVC033 M05/M06 A3011 900 92 -1300 060/07 RMK AO2 P0001 TSNO
94908KDBQ DBQ20050208234013202/08/05 23:40:31  5-MIN KDBQ 090540Z AUTO 06006KT 1 1/2SM -SN BR BKN018 OVC033 M05/M06 A3011 900 92 -1300 050/06 RMK AO2 P0001 TSNO
94908KDBQ DBQ20050208234513202/08/05 23:45:31  5-MIN KDBQ 090545Z AUTO 05004KT 1 1/2SM -SN BR BKN020 OVC033 M05/M06 A3011 900 92 -1300 040/04 RMK AO2 P0001 TSNO
94908KDBQ DBQ20050208235018302/08/05 23:50:31  5-MIN KDBQ 090550Z AUTO 05006KT 1 3/4SM -SN BR BKN020 OVC033 M05/M06 A3011 910 92 -1200 050/06 RMK AO2 SLP211 P0002 60008 T10501061 11033 21050 410221050 51001 TSNO
94908KDBQ DBQ20050208235518302/08/05 23:55:31  5-MIN KDBQ 090555Z AUTO 04005KT 1 1/2SM -SN BR BKN020 OVC033 M05/M06 A3010 910 92 -1200 040/05 RMK AO2 SLP210 P0002 60008 T10501061 11033 21050 410221050 56020 TSNO
94908KDBQ DBQ20050209000013902/09/05 00:00:38  5-MIN KDBQ 090600Z AUTO 04004KT 1 1/4SM -SN BR BKN020 BKN029 OVC037 M05/M06 A3010 910 92 -1200 040/04 RMK AO2 P0000 TSNO
94908KDBQ DBQ20050209000513902/09/05 00:05:31  5-MIN KDBQ 090605Z AUTO 03006KT 1 1/4SM -SN BR SCT022 BKN029 OVC085 M05/M06 A3010 910 92 -1200 030/06 RMK AO2 P0000 TSNO
94908KDBQ DBQ20050209001013902/09/05 00:10:31  5-MIN KDBQ 090610Z AUTO 04005KT 1 1/2SM -SN BR BKN030 BKN037 OVC085 M05/M06 A3010 910 92 -1200 040/05 RMK AO2 P0000 TSNO
94908KDBQ DBQ20050209001513902/09/05 00:15:33  5-MIN KDBQ 090615Z AUTO 05006KT 1 3/4SM -SN BR FEW028 BKN043 OVC085 M05/M06 A3010 910 92 -1200 050/06 RMK AO2 P0000 TSNO
94908KDBQ DBQ20050209002013502/09/05 00:20:31  5-MIN KDBQ 090620Z AUTO 05006KT 2SM -SN BR FEW028 BKN055 OVC085 M05/M06 A3010 910 92 -1200 050/06 RMK AO2 P0000 TSNO
94908KDBQ DBQ20050209002513902/09/05 00:25:31  5-MIN KDBQ 090625Z AUTO 05004KT 2 1/2SM -SN BR FEW028 BKN055 OVC085 M05/M06 A3010 920 92 -1200 050/04 RMK AO2 P0000 TSNO
94908KDBQ DBQ20050209003012802/09/05 00:30:31  5-MIN KDBQ 090630Z AUTO 04005KT 3SM -SN BR SCT050 OVC085 M05/M06 A3009 920 92 -1200 040/05 RMK AO2 P0000 TSNO
94908KDBQ DBQ20050209003513502/09/05 00:35:31  5-MIN KDBQ 090635Z AUTO 03005KT 3SM -SN BR FEW029 BKN048 OVC080 M05/M06 A3009 920 92 -1200 030/05 RMK AO2 P0000 TSNO
94908KDBQ DBQ20050209004013902/09/05 00:40:31  5-MIN KDBQ 090640Z AUTO 03005KT 2 1/2SM -SN BR FEW029 BKN041 OVC080 M05/M06 A3009 920 92 -1200 030/05 RMK AO2 P0000 TSNO
94908KDBQ DBQ20050209004513502/09/05 00:45:31  5-MIN KDBQ 090645Z AUTO 03005KT 2SM -SN BR BKN036 BKN046 OVC085 M05/M06 A3009 920 92 -1200 030/05 RMK AO2 P0000 TSNO
94908KDBQ DBQ20050209005015202/09/05 00:50:31  5-MIN KDBQ 090650Z AUTO 03005KT 2SM -SN BR BKN032 BKN044 OVC080 M05/M06 A3009 920 92 -1200 030/05 RMK AO2 SLP205 P0000 T10501061 TSNO
94908KDBQ DBQ20050209005514502/09/05 00:55:31  5-MIN KDBQ 090655Z AUTO 03005KT 2SM -SN BR BKN030 OVC044 M05/M06 A3009 920 92 -1200 020/05 RMK AO2 SLP206 P0001 T10501061 TSNO
94908KDBQ DBQ20050209010012802/09/05 01:00:31  5-MIN KDBQ 090700Z AUTO 02006KT 2SM -SN BR BKN026 OVC044 M05/M06 A3009 920 92 -1200 020/06 RMK AO2 P0000 TSNO
94908KDBQ DBQ20050209010512802/09/05 01:05:31  5-MIN KDBQ 090705Z AUTO 02006KT 2SM -SN BR BKN024 OVC044 M06/M06 A3009 920 96 -1300 020/06 RMK AO2 P0000 TSNO
94908KDBQ DBQ20050209011012802/09/05 01:10:31  5-MIN KDBQ 090710Z AUTO 02006KT 2SM -SN BR BKN022 OVC042 M06/M06 A3009 920 96 -1300 020/06 RMK AO2 P0000 TSNO
94908KDBQ DBQ20050209011512802/09/05 01:15:31  5-MIN KDBQ 090715Z AUTO 03006KT 2SM -SN BR BKN020 OVC035 M06/M06 A3009 920 96 -1300 020/06 RMK AO2 P0000 TSNO
94908KDBQ DBQ20050209012013202/09/05 01:20:31  5-MIN KDBQ 090720Z AUTO 02006KT 1 3/4SM -SN BR BKN018 OVC035 M06/M06 A3009 920 96 -1300 020/06 RMK AO2 P0000 TSNO
94908KDBQ DBQ20050209012512502/09/05 01:25:31  5-MIN KDBQ 090725Z AUTO 02007KT 1 3/4SM -SN BR OVC020 M06/M06 A3009 920 96 -1300 020/07 RMK AO2 P0000 TSNO
94908KDBQ DBQ20050209013013202/09/05 01:30:31  5-MIN KDBQ 090730Z AUTO 03006KT 1 3/4SM -SN BR BKN022 OVC048 M06/M06 A3009 920 96 -1300 030/06 RMK AO2 P0000 TSNO
94908KDBQ DBQ20050209013513202/09/05 01:35:31  5-MIN KDBQ 090735Z AUTO 03006KT 1 3/4SM -SN BR BKN024 OVC039 M06/M06 A3009 920 96 -1300 030/06 RMK AO2 P0000 TSNO
94908KDBQ DBQ20050209014013202/09/05 01:40:31  5-MIN KDBQ 090740Z AUTO 03006KT 1 3/4SM -SN BR BKN024 OVC042 M06/M06 A3009 920 96 -1300 030/06 RMK AO2 P0000 TSNO
94908KDBQ DBQ20050209014513202/09/05 01:45:31  5-MIN KDBQ 090745Z AUTO 02007KT 1 3/4SM -SN BR BKN024 OVC042 M06/M06 A3009 920 96 -1300 020/07 RMK AO2 P0000 TSNO
94908KDBQ DBQ20050209015014502/09/05 01:50:31  5-MIN KDBQ 090750Z AUTO 03006KT 2SM -SN BR BKN026 OVC040 M06/M06 A3009 920 96 -1300 030/06 RMK AO2 SLP206 P0000 T10561061 TSNO
94908KDBQ DBQ20050209015514502/09/05 01:55:31  5-MIN KDBQ 090755Z AUTO 03006KT 2SM -SN BR BKN028 OVC040 M06/M06 A3009 920 96 -1300 030/06 RMK AO2 SLP206 P0000 T10561061 TSNO
94908KDBQ DBQ20050209020013502/09/05 02:00:31  5-MIN KDBQ 090800Z AUTO 03005KT 2SM -SN BR SCT023 BKN028 OVC040 M06/M06 A3009 920 96 -1300 030/05 RMK AO2 P0001 TSNO
94908KDBQ DBQ20050209020513502/09/05 02:05:31  5-MIN KDBQ 090805Z AUTO 02006KT 2SM -SN BR FEW004 BKN028 OVC040 M06/M06 A3009 920 96 -1300 020/06 RMK AO2 P0001 TSNO
94908KDBQ DBQ20050209021013902/09/05 02:10:31  5-MIN KDBQ 090810Z AUTO 02007KT 2 1/2SM -SN BR FEW004 BKN020 OVC036 M06/M06 A3009 920 96 -1300 020/07 RMK AO2 P0001 TSNO
94908KDBQ DBQ20050209021513902/09/05 02:15:31  5-MIN KDBQ 090815Z AUTO 02006KT 2 1/2SM -SN BR FEW004 BKN020 OVC044 M06/M07 A3009 920 92 -1300 020/06 RMK AO2 P0001 TSNO
94908KDBQ DBQ20050209022013902/09/05 02:20:31  5-MIN KDBQ 090820Z AUTO 02006KT 2 1/2SM -SN BR FEW004 BKN024 OVC055 M06/M06 A3010 920 96 -1300 020/06 RMK AO2 P0001 TSNO
94908KDBQ DBQ20050209022513902/09/05 02:25:31  5-MIN KDBQ 090825Z AUTO 02005KT 2 1/2SM -SN BR FEW004 BKN024 OVC055 M06/M06 A3010 920 96 -1300 020/05 RMK AO2 P0001 TSNO
94908KDBQ DBQ20050209023013902/09/05 02:30:31  5-MIN KDBQ 090830Z AUTO 02005KT 2 1/2SM -SN BR SCT004 BKN024 OVC055 M06/M06 A3010 910 96 -1300 020/05 RMK AO2 P0001 TSNO
94908KDBQ DBQ20050209023513502/09/05 02:35:31  5-MIN KDBQ 090835Z AUTO 02005KT 3SM -SN BR FEW004 BKN024 OVC055 M06/M06 A3010 910 96 -1300 020/05 RMK AO2 P0001 TSNO
94908KDBQ DBQ20050209024013902/09/05 02:40:31  5-MIN KDBQ 090840Z AUTO 03004KT 2 1/2SM -SN BR FEW004 BKN022 OVC055 M06/M06 A3010 920 96 -1300 030/04 RMK AO2 P0001 TSNO
94908KDBQ DBQ20050209024513902/09/05 02:45:31  5-MIN KDBQ 090845Z AUTO 03005KT 1 3/4SM -SN BR FEW004 BKN020 OVC033 M06/M06 A3009 920 96 -1300 030/05 RMK AO2 P0001 TSNO
94908KDBQ DBQ20050209025016802/09/05 02:50:31  5-MIN KDBQ 090850Z AUTO 03006KT 1 1/4SM -SN BR FEW004 BKN020 OVC033 M06/M06 A3009 920 96 -1300 020/06 RMK AO2 SLP205 P0001 60002 T10561061 56020 TSNO
94908KDBQ DBQ20050209025516402/09/05 02:55:31  5-MIN KDBQ 090855Z AUTO 03005KT 1SM -SN BR FEW006 BKN018 OVC033 M06/M06 A3009 920 96 -1300 030/05 RMK AO2 SLP205 P0002 60003 T10561061 56005 TSNO
94908KDBQ DBQ20050209030012802/09/05 03:00:31  5-MIN KDBQ 090900Z AUTO 03006KT 1SM -SN BR BKN018 OVC033 M06/M06 A3009 920 96 -1300 030/06 RMK AO2 P0000 TSNO
94908KDBQ DBQ20050209030513202/09/05 03:05:31  5-MIN KDBQ 090905Z AUTO 03006KT 1 1/4SM -SN BR BKN016 OVC033 M06/M06 A3009 920 96 -1300 030/06 RMK AO2 P0000 TSNO
94908KDBQ DBQ20050209031013202/09/05 03:10:31  5-MIN KDBQ 090910Z AUTO 03005KT 1 1/2SM -SN BR BKN016 OVC033 M06/M07 A3009 920 92 -1300 030/05 RMK AO2 P0000 TSNO
94908KDBQ DBQ20050209031512502/09/05 03:15:31  5-MIN KDBQ 090915Z AUTO 03005KT 1 1/2SM -SN BR OVC016 M06/M06 A3009 930 96 -1300 030/05 RMK AO2 P0000 TSNO
94908KDBQ DBQ20050209032012502/09/05 03:20:31  5-MIN KDBQ 090920Z AUTO 03005KT 1 1/4SM -SN BR OVC014 M06/M06 A3008 930 96 -1300 030/05 RMK AO2 P0000 TSNO
94908KDBQ DBQ20050209032512502/09/05 03:25:31  5-MIN KDBQ 090925Z AUTO 02006KT 1 1/4SM -SN BR OVC012 M06/M07 A3009 930 92 -1300 020/06 RMK AO2 P0000 TSNO
94908KDBQ DBQ20050209033012002/09/05 03:30:31  5-MIN KDBQ 090930Z AUTO 03006KT 1SM -SN BR VV012 M06/M07 A3008 930 92 -1300 030/06 RMK AO2 P0001 TSNO
94908KDBQ DBQ20050209033512502/09/05 03:35:31  5-MIN KDBQ 090935Z AUTO 03006KT 1 1/4SM -SN BR OVC012 M06/M07 A3008 930 92 -1300 030/06 RMK AO2 P0001 TSNO
94908KDBQ DBQ20050209034012502/09/05 03:40:31  5-MIN KDBQ 090940Z AUTO 02006KT 1 1/2SM -SN BR OVC012 M06/M07 A3008 930 92 -1300 020/06 RMK AO2 P0001 TSNO
94908KDBQ DBQ20050209034512502/09/05 03:45:31  5-MIN KDBQ 090945Z AUTO 03005KT 1 1/2SM -SN BR OVC017 M06/M07 A3008 930 92 -1300 030/05 RMK AO2 P0001 TSNO
94908KDBQ DBQ20050209035014902/09/05 03:50:31  5-MIN KDBQ 090950Z AUTO 03006KT 1 3/4SM -SN BR BKN027 OVC055 M06/M07 A3008 930 92 -1300 030/06 RMK AO2 SLP201 P0001 T10561067 TSNO
94908KDBQ DBQ20050209035514202/09/05 03:55:31  5-MIN KDBQ 090955Z AUTO 03006KT 1 3/4SM -SN BR OVC033 M06/M07 A3008 930 92 -1300 030/06 RMK AO2 SLP201 P0001 T10561067 TSNO
94908KDBQ DBQ20050209040013202/09/05 04:00:31  5-MIN KDBQ 091000Z AUTO 03006KT 1 3/4SM -SN BR BKN039 OVC060 M06/M07 A3008 930 92 -1300 030/06 RMK AO2 P0000 TSNO
94908KDBQ DBQ20050209040512802/09/05 04:05:31  5-MIN KDBQ 091005Z AUTO 02005KT 2SM -SN BR BKN045 OVC055 M06/M07 A3008 930 92 -1300 020/05 RMK AO2 P0001 TSNO
94908KDBQ DBQ20050209041013202/09/05 04:10:31  5-MIN KDBQ 091010Z AUTO 02005KT 2 1/2SM -SN BR BKN049 OVC060 M06/M07 A3008 930 92 -1300 020/05 RMK AO2 P0001 TSNO
94908KDBQ DBQ20050209041513202/09/05 04:15:31  5-MIN KDBQ 091015Z AUTO 02006KT 2 1/2SM -SN BR BKN049 OVC065 M06/M07 A3008 930 92 -1300 020/06 RMK AO2 P0001 TSNO
94908KDBQ DBQ20050209042013202/09/05 04:20:31  5-MIN KDBQ 091020Z AUTO 03006KT 2 1/2SM -SN BR BKN049 OVC065 M06/M07 A3007 940 96 -1400 030/06 RMK AO2 P0001 TSNO
94908KDBQ DBQ20050209042513202/09/05 04:25:31  5-MIN KDBQ 091025Z AUTO 03007KT 2 1/2SM -SN BR BKN049 OVC065 M06/M07 A3007 940 96 -1400 030/07 RMK AO2 P0001 TSNO
94908KDBQ DBQ20050209043013202/09/05 04:30:31  5-MIN KDBQ 091030Z AUTO 03007KT 2 1/2SM -SN BR BKN045 OVC060 M06/M07 A3008 930 96 -1400 030/07 RMK AO2 P0001 TSNO
94908KDBQ DBQ20050209043513202/09/05 04:35:31  5-MIN KDBQ 091035Z AUTO 03007KT 2 1/2SM -SN BR BKN043 OVC060 M06/M07 A3008 930 92 -1400 030/07 RMK AO2 P0001 TSNO
94908KDBQ DBQ20050209044012802/09/05 04:40:31  5-MIN KDBQ 091040Z AUTO 03006KT 3SM -SN BR BKN041 OVC060 M07/M07 A3008 930 96 -1400 030/06 RMK AO2 P0001 TSNO
94908KDBQ DBQ20050209044512802/09/05 04:45:31  5-MIN KDBQ 091045Z AUTO 02006KT 3SM -SN BR BKN039 OVC060 M07/M07 A3008 930 96 -1400 020/06 RMK AO2 P0001 TSNO
94908KDBQ DBQ20050209045014502/09/05 04:50:31  5-MIN KDBQ 091050Z AUTO 02006KT 3SM -SN BR BKN039 OVC060 M07/M07 A3008 930 96 -1400 020/06 RMK AO2 SLP202 P0001 T10671072 TSNO
94908KDBQ DBQ20050209045514702/09/05 04:55:31  5-MIN KDBQ 091055Z AUTO 02007KT 3SM BR SCT039 OVC055 M07/M08 A3008 930 92 -1400 020/07 RMK AO2 SNE54 SLP202 P0001 T10671078 TSNO
94908KDBQ DBQ20050209050011802/09/05 05:00:31  5-MIN KDBQ 091100Z AUTO 03007KT 3SM BR SCT039 OVC055 M07/M08 A3007 940 96 -1500 030/07 RMK AO2 TSNO
94908KDBQ DBQ20050209050512502/09/05 05:05:31  5-MIN KDBQ 091105Z AUTO 03007KT 4SM BR FEW028 BKN050 OVC060 M07/M08 A3007 940 96 -1500 030/07 RMK AO2 TSNO
94908KDBQ DBQ20050209051012502/09/05 05:10:31  5-MIN KDBQ 091110Z AUTO 03006KT 4SM BR SCT028 BKN039 OVC060 M07/M08 A3008 930 92 -1400 030/06 RMK AO2 TSNO
94908KDBQ DBQ20050209051511802/09/05 05:15:31  5-MIN KDBQ 091115Z AUTO 03005KT 4SM BR BKN028 OVC050 M07/M07 A3008 930 96 -1400 030/05 RMK AO2 TSNO
94908KDBQ DBQ20050209052011802/09/05 05:20:31  5-MIN KDBQ 091120Z AUTO 03005KT 4SM BR BKN028 OVC050 M06/M07 A3008 930 92 -1400 030/05 RMK AO2 TSNO
94908KDBQ DBQ20050209052511802/09/05 05:25:31  5-MIN KDBQ 091125Z AUTO 03004KT 4SM BR BKN028 OVC050 M06/M07 A3008 930 92 -1400 030/04 RMK AO2 TSNO
94908KDBQ DBQ20050209053011102/09/05 05:30:31  5-MIN KDBQ 091130Z AUTO 03004KT 4SM BR OVC028 M06/M07 A3008 930 96 -1400 030/04 RMK AO2 TSNO
94908KDBQ DBQ20050209053511102/09/05 05:35:31  5-MIN KDBQ 091135Z AUTO 03005KT 4SM BR OVC028 M06/M07 A3008 930 96 -1400 030/05 RMK AO2 TSNO
94908KDBQ DBQ20050209054011102/09/05 05:40:31  5-MIN KDBQ 091140Z AUTO 04006KT 4SM BR OVC026 M06/M07 A3008 930 96 -1400 040/06 RMK AO2 TSNO
94908KDBQ DBQ20050209054511102/09/05 05:45:31  5-MIN KDBQ 091145Z AUTO 04005KT 5SM BR OVC026 M06/M07 A3008 930 96 -1400 040/05 RMK AO2 TSNO
94908KDBQ DBQ20050209055015802/09/05 05:50:31  5-MIN KDBQ 091150Z AUTO 04006KT 5SM BR OVC026 M06/M07 A3008 930 96 -1400 040/06 RMK AO2 SLP201 60005 70013 T10611067 11050 21072 56005 TSNO
94908KDBQ DBQ20050209055516502/09/05 05:55:31  5-MIN KDBQ 091155Z AUTO 04006KT 5SM BR BKN026 OVC035 M06/M07 A3008 940 92 -1400 040/06 RMK AO2 SLP200 60005 70013 T10611072 11050 21072 56004 TSNO
94908KDBQ DBQ20050209060010802/09/05 06:00:31  5-MIN KDBQ 091200Z 04006KT 5SM BR BKN026 OVC035 M06/M07 A3008 930 92 -1400 040/06 RMK AO2
94908KDBQ DBQ20050209060510802/09/05 06:05:31  5-MIN KDBQ 091205Z 04006KT 4SM BR BKN026 OVC035 M06/M07 A3008 930 92 -1400 040/06 RMK AO2
94908KDBQ DBQ20050209061010802/09/05 06:10:31  5-MIN KDBQ 091210Z 04006KT 5SM BR SCT026 OVC035 M06/M07 A3007 940 92 -1400 040/06 RMK AO2
94908KDBQ DBQ20050209061510802/09/05 06:15:31  5-MIN KDBQ 091215Z 04006KT 5SM BR FEW026 OVC035 M06/M07 A3008 940 92 -1400 040/06 RMK AO2
94908KDBQ DBQ20050209062010802/09/05 06:20:31  5-MIN KDBQ 091220Z 03006KT 5SM BR FEW026 OVC035 M06/M07 A3008 940 92 -1400 030/06 RMK AO2
94908KDBQ DBQ20050209062510802/09/05 06:25:31  5-MIN KDBQ 091225Z 04007KT 5SM BR FEW026 OVC035 M06/M07 A3007 940 92 -1400 030/07 RMK AO2
94908KDBQ DBQ20050209063011702/09/05 06:30:31  5-MIN KDBQ 091230Z 04008KT 5SM -SN BR OVC035 M06/M07 A3007 940 92 -1400 040/08 RMK AO2 SNB27 P0000
94908KDBQ DBQ20050209063511702/09/05 06:35:31  5-MIN KDBQ 091235Z 04007KT 4SM -SN BR OVC035 M06/M07 A3007 940 92 -1300 040/07 RMK AO2 SNB27 P0000
94908KDBQ DBQ20050209064011702/09/05 06:40:31  5-MIN KDBQ 091240Z 04007KT 4SM -SN BR OVC033 M06/M07 A3007 940 92 -1400 040/07 RMK AO2 SNB27 P0000
94908KDBQ DBQ20050209064511702/09/05 06:45:31  5-MIN KDBQ 091245Z 04007KT 4SM -SN BR OVC033 M06/M07 A3007 940 92 -1400 040/07 RMK AO2 SNB27 P0000
94908KDBQ DBQ20050209065013402/09/05 06:50:31  5-MIN KDBQ 091250Z 04007KT 5SM -SN BR OVC033 M06/M07 A3007 940 92 -1400 040/07 RMK AO2 SNB27 SLP201 P0000 T10611072
94908KDBQ DBQ20050209065514102/09/05 06:55:31  5-MIN KDBQ 091255Z 04006KT 5SM -SN BR FEW004 OVC033 M06/M07 A3007 940 92 -1400 040/06 RMK AO2 SNB27 SLP201 P0000 T10611072
94908KDBQ DBQ20050209070012202/09/05 07:00:31  5-MIN KDBQ 091300Z 03007KT 5SM BR SCT004 OVC033 M06/M07 A3008 930 92 -1400 020/07 RMK AO2 SNE1259 P0000
94908KDBQ DBQ20050209070513402/09/05 07:05:31  5-MIN KDBQ 091305Z 03007KT 5SM BR BKN004 OVC033 M06/M07 A3008 930 92 -1400 020/07 RMK AO2 SNE1259 CIG 003V006 P0000
94908KDBQ DBQ20050209071012202/09/05 07:10:31  5-MIN KDBQ 091310Z 03007KT 4SM BR BKN004 OVC033 M06/M07 A3008 930 92 -1400 030/07 RMK AO2 SNE1259 P0000
94908KDBQ DBQ20050209071512202/09/05 07:15:31  5-MIN KDBQ 091315Z 03007KT 3SM BR BKN004 OVC033 M06/M07 A3008 930 92 -1400 030/07 RMK AO2 SNE1259 P0000
94908KDBQ DBQ20050209072012702/09/05 07:20:31  5-MIN KDBQ 091320Z 03006KT 3SM BR OVC004 M06/M07 A3008 930 92 -1400 030/06 RMK AO2 SNE1259 CIG 003V007 P0000
94908KDBQ DBQ20050209072512702/09/05 07:25:31  5-MIN KDBQ 091325Z 04006KT 3SM BR OVC004 M06/M07 A3008 930 92 -1400 040/06 RMK AO2 SNE1259 CIG 002V007 P0000
94908KDBQ DBQ20050209073012702/09/05 07:30:31  5-MIN KDBQ 091330Z 03005KT 3SM BR OVC004 M06/M07 A3008 930 92 -1400 030/05 RMK AO2 SNE1259 CIG 002V007 P0000
94908KDBQ DBQ20050209073512202/09/05 07:35:31  5-MIN KDBQ 091335Z 02006KT 3SM BR BKN004 OVC007 M06/M07 A3008 930 92 -1400 020/06 RMK AO2 SNE1259 P0000
94908KDBQ DBQ20050209074011502/09/05 07:40:31  5-MIN KDBQ 091340Z 03006KT 3SM BR OVC004 M07/M07 A3008 930 96 -1400 030/06 RMK AO2 SNE1259 P0000
94908KDBQ DBQ20050209074512902/09/05 07:45:31  5-MIN KDBQ 091345Z 03007KT 4SM BR BKN004 BKN007 OVC036 M07/M07 A3008 930 96 -1400 030/07 RMK AO2 SNE1259 P0000
94908KDBQ DBQ20050209075015102/09/05 07:50:31  5-MIN KDBQ 091350Z 04007KT 4SM BR BKN004 OVC036 M07/M08 A3008 930 92 -1400 040/07 RMK AO2 SNE1259 CIG 002V007 SLP203 P0000 T10671078
94908KDBQ DBQ20050209075514602/09/05 07:55:31  5-MIN KDBQ 091355Z 03006KT 4SM BR BKN004 BKN036 OVC060 M07/M08 A3008 930 92 -1400 030/06 RMK AO2 SNE1259 SLP203 P0000 T10671078
94908KDBQ DBQ20050209080011502/09/05 08:00:31  5-MIN KDBQ 091400Z 04006KT 4SM BR BKN004 BKN036 OVC060 M07/M08 A3008 930 92 -1400 030/06 RMK AO2
94908KDBQ DBQ20050209080511502/09/05 08:05:31  5-MIN KDBQ 091405Z 03006KT 4SM BR BKN004 BKN036 OVC060 M07/M07 A3008 930 96 -1400 030/06 RMK AO2
94908KDBQ DBQ20050209081011502/09/05 08:10:31  5-MIN KDBQ 091410Z 04006KT 4SM BR SCT004 SCT036 OVC060 M07/M07 A3008 930 96 -1400 040/06 RMK AO2
94908KDBQ DBQ20050209081510802/09/05 08:15:31  5-MIN KDBQ 091415Z 04006KT 4SM BR FEW004 OVC060 M07/M07 A3008 930 96 -1400 040/06 RMK AO2
94908KDBQ DBQ20050209082010802/09/05 08:20:31  5-MIN KDBQ 091420Z 03006KT 4SM BR FEW004 OVC060 M07/M07 A3008 930 96 -1400 030/06 RMK AO2
94908KDBQ DBQ20050209082510802/09/05 08:25:31  5-MIN KDBQ 091425Z 04006KT 5SM BR FEW004 OVC060 M07/M08 A3008 930 92 -1400 040/06 RMK AO2
94908KDBQ DBQ20050209083010102/09/05 08:30:31  5-MIN KDBQ 091430Z 03005KT 5SM BR OVC060 M07/M07 A3008 930 96 -1400 030/05 RMK AO2
94908KDBQ DBQ20050209083510102/09/05 08:35:31  5-MIN KDBQ 091435Z 04004KT 5SM BR OVC060 M07/M07 A3008 930 96 -1400 040/04 RMK AO2
94908KDBQ DBQ20050209084010102/09/05 08:40:31  5-MIN KDBQ 091440Z 03005KT 5SM BR OVC060 M07/M07 A3008 930 96 -1400 020/05 RMK AO2
94908KDBQ DBQ20050209084510102/09/05 08:45:31  5-MIN KDBQ 091445Z 02004KT 5SM BR OVC060 M06/M07 A3008 930 92 -1400 020/04 RMK AO2
94908KDBQ DBQ20050209085013702/09/05 08:50:31  5-MIN KDBQ 091450Z 03004KT 5SM BR FEW048 OVC060 M06/M07 A3008 930 92 -1400 020/04 RMK AO2 SLP204 60000 T10611072 56004
94908KDBQ DBQ20050209085515302/09/05 08:55:31  5-MIN KDBQ 091455Z 02005KT 4SM -SN BR SCT042 OVC060 M06/M07 A3008 930 92 -1400 020/05 RMK AO2 SNB55 SLP204 P0000 60000 T10611072 53003
94908KDBQ DBQ20050209090012502/09/05 09:00:31  5-MIN KDBQ 091500Z 02005KT 3SM -SN BR SCT034 BKN043 OVC060 M06/M07 A3008 930 92 -1400 020/05 RMK AO2 P0000
94908KDBQ DBQ20050209090512202/09/05 09:05:31  5-MIN KDBQ 091505Z 04004KT 2 1/2SM -SN BR BKN030 OVC060 M06/M08 A3008 930 88 -1400 040/04 RMK AO2 P0000
94908KDBQ DBQ20050209091012502/09/05 09:10:31  5-MIN KDBQ 091510Z 04005KT 2SM -SN BR BKN030 BKN044 OVC060 M06/M08 A3008 930 88 -1400 040/05 RMK AO2 P0000
94908KDBQ DBQ20050209091512202/09/05 09:15:31  5-MIN KDBQ 091515Z 03004KT 1 3/4SM -SN BR BKN030 OVC044 M06/M07 A3008 930 92 -1400 030/04 RMK AO2 P0000
94908KDBQ DBQ20050209092012902/09/05 09:20:31  5-MIN KDBQ 091520Z 02004KT 1 3/4SM -SN BR BKN027 BKN032 OVC043 M06/M07 A3008 930 92 -1400 020/04 RMK AO2 P0000
94908KDBQ DBQ20050209092512902/09/05 09:25:31  5-MIN KDBQ 091525Z 02004KT 1 3/4SM -SN BR BKN025 BKN032 OVC055 M06/M07 A3008 930 92 -1400 020/04 RMK AO2 P0000
94908KDBQ DBQ20050209093012202/09/05 09:30:31  5-MIN KDBQ 091530Z 02004KT 1 3/4SM -SN BR BKN027 OVC055 M06/M07 A3008 930 88 -1300 020/04 RMK AO2 P0000
94908KDBQ DBQ20050209093512502/09/05 09:35:31  5-MIN KDBQ 091535Z 03005KT 2SM -SN BR BKN031 BKN045 OVC055 M06/M07 A3008 940 88 -1300 030/05 RMK AO2 P0000
94908KDBQ DBQ20050209094012502/09/05 09:40:31  5-MIN KDBQ 091540Z 04004KT 2SM -SN BR BKN031 BKN045 OVC055 M06/M08 A3008 940 84 -1300 040/04 RMK AO2 P0000
94908KDBQ DBQ20050209094512502/09/05 09:45:31  5-MIN KDBQ 091545Z 05003KT 2SM -SN BR FEW007 BKN031 OVC055 M06/M07 A3008 930 88 -1300 050/03 RMK AO2 P0000
94908KDBQ DBQ20050209095014602/09/05 09:50:31  5-MIN KDBQ 091550Z 03004KT 2 1/2SM -SN BR FEW007 BKN033 OVC055 M06/M07 A3007 940 88 -1300 030/04 RMK AO2 SLP201 P0000 T10561072
94908KDBQ DBQ20050209095514202/09/05 09:55:31  5-MIN KDBQ 091555Z 02004KT 3SM -SN BR FEW007 BKN035 OVC050 M06/M07 A3007 940 88 -1300 020/04 RMK AO2 SLP200 P0000 T10561072
94908KDBQ DBQ20050209100012502/09/05 10:00:31  5-MIN KDBQ 091600Z 02005KT 3SM -SN BR SCT035 BKN044 OVC050 M05/M07 A3007 940 84 -1200 020/05 RMK AO2 P0000
94908KDBQ DBQ20050209100512502/09/05 10:05:31  5-MIN KDBQ 091605Z 03004KT 3SM -SN BR SCT037 BKN044 OVC050 M05/M07 A3007 940 84 -1200 030/04 RMK AO2 P0000
94908KDBQ DBQ20050209101012502/09/05 10:10:31  5-MIN KDBQ 091610Z 04004KT 3SM -SN BR SCT041 BKN050 OVC090 M05/M07 A3007 940 84 -1200 040/04 RMK AO2 P0000
94908KDBQ DBQ20050209101512502/09/05 10:15:31  5-MIN KDBQ 091615Z VRB03KT 3SM -SN BR BKN043 BKN050 OVC090 M06/M08 A3007 940 84 -1300 VRB/03 RMK AO2 P0000
94908KDBQ DBQ20050209102012502/09/05 10:20:31  5-MIN KDBQ 091620Z 03004KT 4SM -SN BR SCT043 BKN050 OVC090 M05/M07 A3007 940 84 -1200 030/04 RMK AO2 P0000
94908KDBQ DBQ20050209102511102/09/05 10:25:31  5-MIN KDBQ 091625Z 02003KT 5SM -SN BR OVC046 M05/M07 A3007 940 84 -1200 020/03 RMK AO2 P0000
94908KDBQ DBQ20050209103011802/09/05 10:30:31  5-MIN KDBQ 091630Z 03004KT 5SM -SN BR BKN044 OVC050 M05/M07 A3007 940 84 -1200 030/04 RMK AO2 P0000
94908KDBQ DBQ20050209103512002/09/05 10:35:31  5-MIN KDBQ 091635Z 04004KT 6SM HZ BKN044 OVC050 M05/M08 A3007 940 81 -1200 040/04 RMK AO2 SNE31 P0000
94908KDBQ DBQ20050209104011702/09/05 10:40:31  5-MIN KDBQ 091640Z 03004KT 8SM BKN042 OVC050 M05/M08 A3007 940 81 -1200 030/04 RMK AO2 SNE31 P0000
94908KDBQ DBQ20050209104512402/09/05 10:45:31  5-MIN KDBQ 091645Z 03003KT 8SM FEW021 BKN034 OVC044 M05/M07 A3007 940 84 -1200 030/03 RMK AO2 SNE31 P0000
94908KDBQ DBQ20050209105014102/09/05 10:50:31  5-MIN KDBQ 091650Z 02004KT 8SM FEW019 BKN029 OVC044 M04/M07 A3007 940 81 -1100 020/04 RMK AO2 SNE31 SLP200 P0000 T10441072
94908KDBQ DBQ20050209105514402/09/05 10:55:31  5-MIN KDBQ 091655Z 04004KT 6SM HZ FEW017 BKN025 OVC044 M04/M07 A3007 940 81 -1100 040/04 RMK AO2 SNE31 SLP199 P0000 T10441072
94908KDBQ DBQ20050209110013002/09/05 11:00:31  5-MIN KDBQ 091700Z 02005KT 5SM -SN FEW011 BKN025 OVC044 M04/M07 A3007 940 81 -1100 010/05 RMK AO2 SNB1659 P0000
94908KDBQ DBQ20050209110512302/09/05 11:05:31  5-MIN KDBQ 091705Z 03003KT 4SM -SN SCT011 OVC021 M04/M07 A3007 940 81 -1100 030/03 RMK AO2 SNB1659 P0000
94908KDBQ DBQ20050209111012302/09/05 11:10:31  5-MIN KDBQ 091710Z 00000KT 3SM -SN SCT011 OVC021 M04/M07 A3007 940 81 -1100 000/00 RMK AO2 SNB1659 P0000
94908KDBQ DBQ20050209111513002/09/05 11:15:31  5-MIN KDBQ 091715Z 00000KT 2 1/2SM -SN BR BKN011 OVC019 M04/M07 A3008 940 84 -1100 000/00 RMK AO2 SNB1659 P0000
94908KDBQ DBQ20050209112013002/09/05 11:20:31  5-MIN KDBQ 091720Z 00000KT 2 1/2SM -SN BR BKN011 OVC019 M04/M07 A3008 930 84 -1100 000/00 RMK AO2 SNB1659 P0000
94908KDBQ DBQ20050209112513002/09/05 11:25:31  5-MIN KDBQ 091725Z 00000KT 2 1/2SM -SN BR BKN011 OVC044 M04/M07 A3008 930 84 -1100 000/00 RMK AO2 SNB1659 P0000
94908KDBQ DBQ20050209113013702/09/05 11:30:31  5-MIN KDBQ 091730Z 00000KT 2 1/2SM -SN BR BKN011 BKN018 OVC044 M04/M07 A3007 940 84 -1100 000/00 RMK AO2 SNB1659 P0000
94908KDBQ DBQ20050209113513702/09/05 11:35:31  5-MIN KDBQ 091735Z 32004KT 2 1/2SM -SN BR SCT011 BKN023 OVC044 M04/M07 A3007 940 84 -1100 320/04 RMK AO2 SNB1659 P0000
94908KDBQ DBQ20050209114013402/09/05 11:40:31  5-MIN KDBQ 091740Z 32004KT 2 1/2SM -SN BKN011 BKN025 OVC044 M04/M07 A3007 940 81 -1100 320/04 RMK AO2 SNB1659 P0000
94908KDBQ DBQ20050209114513402/09/05 11:45:31  5-MIN KDBQ 091745Z 34004KT 2 1/2SM -SN BKN013 BKN025 OVC044 M04/M07 A3007 940 81 -1100 340/04 RMK AO2 SNB1659 P0000
94908KDBQ DBQ20050209115017502/09/05 11:50:31  5-MIN KDBQ 091750Z 35003KT 2 1/2SM -SN SCT013 BKN023 OVC044 M04/M07 A3007 940 81 -1100 350/03 RMK AO2 SNB1659 SLP197 P0000 60000 T10441072 11044 21067 53003
94908KDBQ DBQ20050209115517502/09/05 11:55:31  5-MIN KDBQ 091755Z 36004KT 2 1/2SM -SN SCT013 BKN019 OVC044 M04/M07 A3006 950 78 -1100 360/04 RMK AO2 SNB1659 SLP196 P0000 60000 T10391072 11039 21067 56007
94908KDBQ DBQ20050209120012202/09/05 12:00:31  5-MIN KDBQ 091800Z 35003KT 4SM -SN FEW013 BKN019 OVC044 M04/M07 A3006 950 81 -1100 350/03 RMK AO2 P0000
94908KDBQ DBQ20050209120512202/09/05 12:05:31  5-MIN KDBQ 091805Z 34005KT 3SM -SN BKN017 BKN029 OVC044 M04/M07 A3006 950 81 -1100 340/05 RMK AO2 P0000
94908KDBQ DBQ20050209121012202/09/05 12:10:31  5-MIN KDBQ 091810Z 33005KT 3SM -SN FEW014 BKN031 OVC044 M04/M07 A3006 950 81 -1100 330/05 RMK AO2 P0000
94908KDBQ DBQ20050209121512902/09/05 12:15:31  5-MIN KDBQ 091815Z 34004KT 2 1/2SM -SN BR FEW014 BKN033 OVC044 M04/M07 A3005 960 84 -1100 340/04 RMK AO2 P0000
94908KDBQ DBQ20050209122012602/09/05 12:20:31  5-MIN KDBQ 091820Z 33005KT 2 1/2SM -SN BKN018 BKN033 OVC046 M04/M07 A3005 960 81 -1000 330/05 RMK AO2 P0000
94908KDBQ DBQ20050209122511902/09/05 12:25:31  5-MIN KDBQ 091825Z 34004KT 2 1/2SM -SN BKN018 OVC046 M04/M07 A3005 960 81 -1000 340/04 RMK AO2 P0000
94908KDBQ DBQ20050209123012202/09/05 12:30:31  5-MIN KDBQ 091830Z 33004KT 3SM -SN BKN016 BKN035 OVC046 M04/M07 A3005 960 81 -1000 330/04 RMK AO2 P0000
94908KDBQ DBQ20050209123512902/09/05 12:35:31  5-MIN KDBQ 091835Z 34004KT 2 1/2SM -SN BR BKN016 BKN037 OVC046 M04/M07 A3005 960 84 -1100 340/04 RMK AO2 P0000
94908KDBQ DBQ20050209124012902/09/05 12:40:31  5-MIN KDBQ 091840Z 33004KT 2 1/2SM -SN BR BKN016 BKN037 OVC046 M04/M07 A3005 960 84 -1100 330/04 RMK AO2 P0000
94908KDBQ DBQ20050209124512202/09/05 12:45:31  5-MIN KDBQ 091845Z 31003KT 2 1/2SM -SN BR BKN016 OVC046 M04/M07 A3004 960 84 -1100 310/03 RMK AO2 P0000
94908KDBQ DBQ20050209125013902/09/05 12:50:31  5-MIN KDBQ 091850Z 32004KT 2 1/2SM -SN BR BKN016 OVC046 M04/M07 A3004 970 84 -1100 320/04 RMK AO2 SLP189 P0000 T10441067
94908KDBQ DBQ20050209125513902/09/05 12:55:31  5-MIN KDBQ 091855Z 32003KT 2 1/2SM -SN BR BKN016 OVC046 M04/M07 A3004 970 84 -1100 320/03 RMK AO2 SLP188 P0000 T10441067
94908KDBQ DBQ20050209130011102/09/05 13:00:31  5-MIN KDBQ 091900Z 33004KT 2SM -SN BR OVC016 M04/M07 A3004 970 84 -1100 320/04 RMK AO2 P0000
94908KDBQ DBQ20050209130510802/09/05 13:05:31  5-MIN KDBQ 091905Z 34003KT 2SM -SN OVC014 M04/M07 A3004 970 81 -1000 340/03 RMK AO2 P0000
94908KDBQ DBQ20050209131011202/09/05 13:10:31  5-MIN KDBQ 091910Z 34004KT 2 1/2SM -SN OVC014 M04/M07 A3004 970 81 -1000 340/04 RMK AO2 P0000
94908KDBQ DBQ20050209131511502/09/05 13:15:31  5-MIN KDBQ 091915Z 32004KT 2 1/2SM -SN BR OVC014 M04/M07 A3004 970 84 -1100 320/04 RMK AO2 P0000
94908KDBQ DBQ20050209132011502/09/05 13:20:31  5-MIN KDBQ 091920Z 29004KT 2 1/2SM -SN BR OVC012 M04/M06 A3004 970 88 -1100 290/04 RMK AO2 P0000
94908KDBQ DBQ20050209132511502/09/05 13:25:31  5-MIN KDBQ 091925Z 28006KT 2 1/2SM -SN BR OVC012 M04/M07 A3004 970 84 -1100 280/06 RMK AO2 P0000
94908KDBQ DBQ20050209133011502/09/05 13:30:31  5-MIN KDBQ 091930Z 28007KT 2 1/2SM -SN BR OVC012 M04/M07 A3003 970 84 -1100 280/07 RMK AO2 P0000
94908KDBQ DBQ20050209133511202/09/05 13:35:31  5-MIN KDBQ 091935Z 28007KT 2 1/2SM -SN OVC012 M04/M07 A3003 970 81 -1000 280/07 RMK AO2 P0000
94908KDBQ DBQ20050209134011502/09/05 13:40:31  5-MIN KDBQ 091940Z 28007KT 2 1/2SM -SN BR OVC014 M04/M07 A3003 970 84 -1100 270/07 RMK AO2 P0000
94908KDBQ DBQ20050209134512902/09/05 13:45:31  5-MIN KDBQ 091945Z 29007KT 2 1/2SM -SN BR BKN014 BKN018 OVC032 M04/M06 A3003 980 85 -1000 290/07 RMK AO2 P0000
94908KDBQ DBQ20050209135013602/09/05 13:50:31  5-MIN KDBQ 091950Z 29008KT 2 1/2SM -SN BKN014 OVC032 M04/M07 A3003 980 81 -1000 290/08 RMK AO2 SLP185 P0000 T10391067
94908KDBQ DBQ20050209135512902/09/05 13:55:31  5-MIN KDBQ 091955Z 30010KT 2 1/2SM -SN OVC014 M04/M07 A3003 980 81 -1000 300/10 RMK AO2 SLP185 P0000 T10391067
94908KDBQ DBQ20050209140011102/09/05 14:00:31  5-MIN KDBQ 092000Z 30008KT 2SM -SN BR OVC014 M04/M07 A3003 980 84 -1100 290/08 RMK AO2 P0000
94908KDBQ DBQ20050209140511502/09/05 14:05:31  5-MIN KDBQ 092005Z 29009KT 2SM -SN BKN014 OVC020 M04/M07 A3003 980 81 -1000 290/09 RMK AO2 P0000
94908KDBQ DBQ20050209141012502/09/05 14:10:31  5-MIN KDBQ 092010Z 30009KT 2SM -SN BR BKN016 BKN021 OVC033 M04/M07 A3003 980 84 -1100 300/09 RMK AO2 P0000
94908KDBQ DBQ20050209141511802/09/05 14:15:31  5-MIN KDBQ 092015Z 29009KT 2SM -SN BR BKN016 OVC021 M04/M07 A3003 980 84 -1100 290/09 RMK AO2 P0000
94908KDBQ DBQ20050209142011802/09/05 14:20:31  5-MIN KDBQ 092020Z 30009KT 2SM -SN BR BKN016 OVC021 M04/M07 A3003 980 84 -1100 300/09 RMK AO2 P0000
94908KDBQ DBQ20050209142511802/09/05 14:25:31  5-MIN KDBQ 092025Z 30008KT 2SM -SN BR BKN017 OVC022 M04/M07 A3003 970 84 -1100 300/08 RMK AO2 P0000
94908KDBQ DBQ20050209143011502/09/05 14:30:31  5-MIN KDBQ 092030Z 31009KT 2 1/2SM -SN BR OVC019 M04/M07 A3003 980 84 -1100 310/09 RMK AO2 P0000
94908KDBQ DBQ20050209143510802/09/05 14:35:31  5-MIN KDBQ 092035Z 30007KT 2SM -SN OVC019 M04/M07 A3003 980 81 -1100 300/07 RMK AO2 P0000
94908KDBQ DBQ20050209144012202/09/05 14:40:31  5-MIN KDBQ 092040Z 30009KT 1 3/4SM -SN BR BKN019 OVC029 M04/M07 A3003 980 84 -1100 300/09 RMK AO2 P0000
94908KDBQ DBQ20050209144511802/09/05 14:45:31  5-MIN KDBQ 092045Z 30008KT 2SM -SN BR BKN019 OVC029 M04/M07 A3003 980 84 -1100 300/08 RMK AO2 P0000
94908KDBQ DBQ20050209145015402/09/05 14:50:31  5-MIN KDBQ 092050Z 30008KT 2SM -SN BR BKN017 BKN023 OVC029 M04/M07 A3003 980 84 -1100 300/08 RMK AO2 SLP186 P0000 60000 T10441067 56007
94908KDBQ DBQ20050209145515402/09/05 14:55:31  5-MIN KDBQ 092055Z 30008KT 2SM -SN BR BKN016 BKN022 OVC029 M04/M07 A3003 970 84 -1100 300/08 RMK AO2 SLP187 P0000 60000 T10441067 55010
94908KDBQ DBQ20050209150012902/09/05 15:00:31  5-MIN KDBQ 092100Z 30008KT 1 3/4SM -SN BR SCT015 BKN021 OVC027 M04/M07 A3003 970 84 -1100 300/08 RMK AO2 P0000
94908KDBQ DBQ20050209150512202/09/05 15:05:31  5-MIN KDBQ 092105Z 30008KT 1 1/4SM -SN BR SCT015 OVC024 M04/M07 A3003 970 84 -1100 290/08 RMK AO2 P0000
94908KDBQ DBQ20050209151012202/09/05 15:10:31  5-MIN KDBQ 092110Z 30009KT 1 1/4SM -SN BR SCT015 OVC021 M04/M07 A3004 970 84 -1100 300/09 RMK AO2 P0000
94908KDBQ DBQ20050209151512902/09/05 15:15:31  5-MIN KDBQ 092115Z 30009KT 1 1/4SM -SN BR FEW012 BKN019 OVC025 M04/M07 A3004 970 84 -1100 300/09 RMK AO2 P0000
94908KDBQ DBQ20050209152012902/09/05 15:20:31  5-MIN KDBQ 092120Z 32008KT 1 1/4SM -SN BR FEW012 BKN019 OVC026 M04/M07 A3004 970 84 -1100 320/08 RMK AO2 P0000
94908KDBQ DBQ20050209152512602/09/05 15:25:31  5-MIN KDBQ 092125Z 32009KT 1 3/4SM -SN SCT016 BKN022 OVC038 M04/M07 A3004 970 81 -1100 320/09 RMK AO2 P0000
94908KDBQ DBQ20050209153012602/09/05 15:30:31  5-MIN KDBQ 092130Z 32009KT 1 3/4SM -SN FEW016 BKN022 OVC038 M04/M07 A3004 970 81 -1100 320/09 RMK AO2 P0000
94908KDBQ DBQ20050209153512602/09/05 15:35:31  5-MIN KDBQ 092135Z 32008KT 1 3/4SM -SN FEW016 BKN022 OVC038 M04/M07 A3004 970 81 -1100 320/08 RMK AO2 P0000
94908KDBQ DBQ20050209154012502/09/05 15:40:31  5-MIN KDBQ 092140Z 32006KT 2SM -SN BR FEW016 BKN022 OVC029 M04/M07 A3004 970 84 -1100 320/06 RMK AO2 P0000
94908KDBQ DBQ20050209154512502/09/05 15:45:31  5-MIN KDBQ 092145Z 34006KT 2SM -SN BR FEW012 BKN025 OVC032 M04/M07 A3004 970 84 -1100 340/06 RMK AO2 P0000
94908KDBQ DBQ20050209155014202/09/05 15:50:31  5-MIN KDBQ 092150Z 33007KT 2SM -SN BR FEW012 BKN025 OVC035 M04/M07 A3004 970 84 -1100 330/07 RMK AO2 SLP189 P0000 T10441067
94908KDBQ DBQ20050209155514202/09/05 15:55:31  5-MIN KDBQ 092155Z 34007KT 2SM -SN BR SCT014 BKN025 OVC031 M04/M07 A3004 970 84 -1100 340/07 RMK AO2 SLP189 P0000 T10441067
94908KDBQ DBQ20050209160011802/09/05 16:00:31  5-MIN KDBQ 092200Z 35005KT 2SM -SN BR SCT014 OVC024 M04/M07 A3004 970 84 -1100 350/05 RMK AO2 P0000
94908KDBQ DBQ20050209160512902/09/05 16:05:31  5-MIN KDBQ 092205Z 36005KT 2 1/2SM -SN BR FEW010 SCT014 OVC024 M04/M07 A3004 970 84 -1100 350/05 RMK AO2 P0000
94908KDBQ DBQ20050209161012902/09/05 16:10:31  5-MIN KDBQ 092210Z 36006KT 2 1/2SM -SN BR FEW010 BKN014 OVC026 M04/M07 A3004 970 84 -1100 360/06 RMK AO2 P0000
94908KDBQ DBQ20050209161512502/09/05 16:15:31  5-MIN KDBQ 092215Z 36006KT 2SM -SN BR FEW010 BKN014 OVC024 M04/M07 A3004 970 84 -1100 350/06 RMK AO2 P0000
94908KDBQ DBQ20050209162012502/09/05 16:20:31  5-MIN KDBQ 092220Z 34006KT 2SM -SN BR SCT010 BKN016 OVC024 M04/M07 A3004 970 84 -1100 340/06 RMK AO2 P0000
94908KDBQ DBQ20050209162511802/09/05 16:25:31  5-MIN KDBQ 092225Z 33008KT 2SM -SN BR BKN012 OVC016 M05/M07 A3004 960 88 -1200 330/08 RMK AO2 P0000
94908KDBQ DBQ20050209163012902/09/05 16:30:31  5-MIN KDBQ 092230Z 35007KT 1 3/4SM -SN BR FEW008 BKN012 OVC018 M05/M07 A3004 960 88 -1200 340/07 RMK AO2 P0000
94908KDBQ DBQ20050209163511802/09/05 16:35:31  5-MIN KDBQ 092235Z 35007KT 2SM -SN BR SCT012 OVC020 M05/M07 A3004 970 88 -1200 350/07 RMK AO2 P0000
94908KDBQ DBQ20050209164012202/09/05 16:40:31  5-MIN KDBQ 092240Z 35006KT 2 1/2SM -SN BR SCT012 OVC020 M05/M07 A3004 960 88 -1200 350/06 RMK AO2 P0000
94908KDBQ DBQ20050209164512202/09/05 16:45:31  5-MIN KDBQ 092245Z 35006KT 2 1/2SM -SN BR BKN012 OVC020 M05/M07 A3004 970 88 -1200 350/06 RMK AO2 P0000
94908KDBQ DBQ20050209165014602/09/05 16:50:31  5-MIN KDBQ 092250Z 34008KT 2 1/2SM -SN BR FEW009 BKN014 OVC022 M05/M07 A3004 970 88 -1200 340/08 RMK AO2 SLP191 P0000 T10501067
94908KDBQ DBQ20050209165514602/09/05 16:55:31  5-MIN KDBQ 092255Z 34008KT 2 1/2SM -SN BR FEW009 BKN014 OVC022 M05/M07 A3005 960 88 -1200 340/08 RMK AO2 SLP192 P0000 T10501067
94908KDBQ DBQ20050209170012902/09/05 17:00:31  5-MIN KDBQ 092300Z 34008KT 2 1/2SM -SN BR FEW009 BKN016 OVC022 M05/M07 A3005 960 88 -1200 340/08 RMK AO2 P0000
94908KDBQ DBQ20050209170512202/09/05 17:05:31  5-MIN KDBQ 092305Z 34008KT 2 1/2SM -SN BR FEW009 OVC018 M05/M07 A3005 960 84 -1200 340/08 RMK AO2 P0000
94908KDBQ DBQ20050209171012502/09/05 17:10:31  5-MIN KDBQ 092310Z 33008KT 2SM -SN BR FEW009 SCT016 OVC021 M05/M07 A3005 960 84 -1200 330/08 RMK AO2 P0000
94908KDBQ DBQ20050209171512902/09/05 17:15:31  5-MIN KDBQ 092315Z 34008KT 2 1/2SM -SN BR FEW015 BKN021 OVC026 M05/M07 A3005 960 84 -1200 340/08 RMK AO2 P0000
94908KDBQ DBQ20050209172011502/09/05 17:20:31  5-MIN KDBQ 092320Z 35008KT 2 1/2SM -SN BR OVC021 M05/M07 A3005 960 84 -1200 350/08 RMK AO2 P0000
94908KDBQ DBQ20050209172511502/09/05 17:25:31  5-MIN KDBQ 092325Z 34008KT 2 1/2SM -SN BR OVC023 M05/M07 A3005 960 84 -1200 340/08 RMK AO2 P0000
94908KDBQ DBQ20050209173012202/09/05 17:30:31  5-MIN KDBQ 092330Z 34007KT 2 1/2SM -SN BR BKN023 OVC065 M05/M07 A3006 950 84 -1200 340/07 RMK AO2 P0000
94908KDBQ DBQ20050209173512202/09/05 17:35:31  5-MIN KDBQ 092335Z 34008KT 2 1/2SM -SN BR BKN023 OVC065 M05/M07 A3006 950 84 -1200 340/08 RMK AO2 P0000
94908KDBQ DBQ20050209174012202/09/05 17:40:31  5-MIN KDBQ 092340Z 34007KT 2 1/2SM -SN BR SCT025 OVC065 M06/M07 A3006 950 88 -1300 340/07 RMK AO2 P0000
94908KDBQ DBQ20050209174511802/09/05 17:45:31  5-MIN KDBQ 092345Z 34006KT 3SM -SN BR FEW025 OVC065 M06/M07 A3006 950 88 -1300 340/06 RMK AO2 P0000
94908KDBQ DBQ20050209175015902/09/05 17:50:31  5-MIN KDBQ 092350Z 34006KT 4SM -SN BR FEW025 OVC065 M06/M07 A3006 950 88 -1300 340/06 RMK AO2 SLP197 P0000 60000 T10561072 11039 21056 55010
94908KDBQ DBQ20050209175515902/09/05 17:55:31  5-MIN KDBQ 092355Z 34006KT 4SM -SN BR FEW049 OVC065 M06/M07 A3006 950 88 -1300 340/06 RMK AO2 SLP198 P0000 60000 T10561072 11039 21056 53010
94908KDBQ DBQ20050209180011802/09/05 18:00:31  5-MIN KDBQ 100000Z 33006KT 4SM -SN BR FEW047 OVC065 M06/M07 A3006 950 88 -1300 330/06 RMK AO2 P0000
94908KDBQ DBQ20050209180511802/09/05 18:05:31  5-MIN KDBQ 100005Z 32005KT 3SM -SN BR SCT047 OVC065 M06/M07 A3007 940 88 -1300 320/05 RMK AO2 P0000
94908KDBQ DBQ20050209181011802/09/05 18:10:31  5-MIN KDBQ 100010Z 30006KT 3SM -SN BR SCT047 OVC065 M06/M07 A3007 940 88 -1300 300/06 RMK AO2 P0000
94908KDBQ DBQ20050209181511802/09/05 18:15:31  5-MIN KDBQ 100015Z 31006KT 3SM -SN BR SCT047 OVC060 M06/M07 A3007 940 88 -1300 310/06 RMK AO2 P0000
94908KDBQ DBQ20050209182011802/09/05 18:20:31  5-MIN KDBQ 100020Z 31007KT 4SM -SN BR SCT047 OVC060 M06/M07 A3007 940 88 -1300 310/07 RMK AO2 P0000
94908KDBQ DBQ20050209182511802/09/05 18:25:31  5-MIN KDBQ 100025Z 31007KT 4SM -SN BR SCT047 OVC060 M06/M07 A3007 940 88 -1300 310/07 RMK AO2 P0000
94908KDBQ DBQ20050209183011802/09/05 18:30:31  5-MIN KDBQ 100030Z 30007KT 4SM -SN BR BKN047 OVC060 M06/M07 A3008 940 88 -1300 300/07 RMK AO2 P0000
94908KDBQ DBQ20050209183511802/09/05 18:35:31  5-MIN KDBQ 100035Z 30009KT 4SM -SN BR BKN047 OVC060 M06/M07 A3008 940 88 -1300 300/09 RMK AO2 P0000
94908KDBQ DBQ20050209184011802/09/05 18:40:31  5-MIN KDBQ 100040Z 30008KT 4SM -SN BR BKN045 OVC060 M06/M08 A3008 940 84 -1300 300/08 RMK AO2 P0000
94908KDBQ DBQ20050209184511802/09/05 18:45:31  5-MIN KDBQ 100045Z 30009KT 4SM -SN BR SCT045 OVC060 M06/M08 A3008 930 84 -1300 300/09 RMK AO2 P0000
94908KDBQ DBQ20050209185013502/09/05 18:50:31  5-MIN KDBQ 100050Z 30009KT 4SM -SN BR SCT045 OVC060 M06/M08 A3008 930 84 -1300 300/09 RMK AO2 SLP203 P0000 T10561078
94908KDBQ DBQ20050209185514202/09/05 18:55:31  5-MIN KDBQ 100055Z 30008KT 4SM -SN BR FEW026 BKN038 OVC060 M06/M08 A3008 930 84 -1300 300/08 RMK AO2 SLP202 P0000 T10561078
94908KDBQ DBQ20050209190012502/09/05 19:00:31  5-MIN KDBQ 100100Z 30008KT 4SM -SN BR FEW026 BKN034 OVC060 M06/M08 A3008 930 84 -1300 300/08 RMK AO2 P0000
94908KDBQ DBQ20050209190512502/09/05 19:05:31  5-MIN KDBQ 100105Z 30008KT 4SM -SN BR FEW026 BKN034 OVC060 M06/M08 A3008 930 88 -1400 300/08 RMK AO2 P0000
94908KDBQ DBQ20050209191012502/09/05 19:10:31  5-MIN KDBQ 100110Z 31008KT 4SM -SN BR SCT026 BKN032 OVC060 M06/M08 A3008 930 84 -1300 310/08 RMK AO2 P0000
94908KDBQ DBQ20050209191512502/09/05 19:15:31  5-MIN KDBQ 100115Z 30008KT 4SM -SN BR BKN026 BKN048 OVC060 M06/M08 A3008 930 88 -1400 300/08 RMK AO2 P0000
94908KDBQ DBQ20050209192011802/09/05 19:20:31  5-MIN KDBQ 100120Z 31009KT 4SM -SN BR BKN028 OVC050 M06/M08 A3008 930 84 -1400 310/09 RMK AO2 P0000
94908KDBQ DBQ20050209192512502/09/05 19:25:31  5-MIN KDBQ 100125Z 30007KT 4SM -SN BR BKN026 BKN037 OVC060 M06/M08 A3008 930 84 -1400 300/07 RMK AO2 P0000
94908KDBQ DBQ20050209193012502/09/05 19:30:31  5-MIN KDBQ 100130Z 30008KT 4SM -SN BR SCT026 BKN042 OVC060 M06/M08 A3008 930 84 -1400 300/08 RMK AO2 P0000
94908KDBQ DBQ20050209193512502/09/05 19:35:31  5-MIN KDBQ 100135Z 30007KT 5SM -SN BR SCT026 BKN046 OVC060 M06/M08 A3008 930 84 -1400 290/07 RMK AO2 P0000
94908KDBQ DBQ20050209194012502/09/05 19:40:31  5-MIN KDBQ 100140Z 29008KT 4SM -SN BR FEW026 BKN046 OVC060 M06/M08 A3008 930 84 -1400 290/08 RMK AO2 P0000
94908KDBQ DBQ20050209194512502/09/05 19:45:31  5-MIN KDBQ 100145Z 29008KT 4SM -SN BR FEW026 BKN048 OVC060 M06/M08 A3008 930 88 -1400 290/08 RMK AO2 P0000
94908KDBQ DBQ20050209195013502/09/05 19:50:31  5-MIN KDBQ 100150Z 30010KT 3SM -SN BR BKN048 OVC065 M06/M08 A3008 930 84 -1400 290/10 RMK AO2 SLP205 P0000 T10611083
94908KDBQ DBQ20050209195513502/09/05 19:55:31  5-MIN KDBQ 100155Z 29011KT 4SM -SN BR BKN048 OVC060 M06/M08 A3008 930 84 -1400 290/11 RMK AO2 SLP205 P0000 T10611083
94908KDBQ DBQ20050209200012802/09/05 20:00:31  5-MIN KDBQ 100200Z AUTO 30009KT 4SM -SN BR BKN048 OVC065 M06/M08 A3009 930 84 -1400 300/09 RMK AO2 P0000 TSNO
94908KDBQ DBQ20050209200512802/09/05 20:05:31  5-MIN KDBQ 100205Z AUTO 30008KT 4SM -SN BR BKN050 OVC065 M06/M08 A3009 930 84 -1400 300/08 RMK AO2 P0000 TSNO
94908KDBQ DBQ20050209201012802/09/05 20:10:31  5-MIN KDBQ 100210Z AUTO 30008KT 4SM -SN BR BKN050 OVC065 M06/M08 A3009 920 84 -1400 300/08 RMK AO2 P0000 TSNO
94908KDBQ DBQ20050209201512802/09/05 20:15:31  5-MIN KDBQ 100215Z AUTO 30007KT 4SM -SN BR SCT050 OVC065 M06/M08 A3009 920 84 -1400 290/07 RMK AO2 P0000 TSNO
94908KDBQ DBQ20050209202012102/09/05 20:20:31  5-MIN KDBQ 100220Z AUTO 30007KT 3SM -SN BR OVC060 M07/M08 A3008 930 88 -1400 290/07 RMK AO2 P0000 TSNO
94908KDBQ DBQ20050209202512102/09/05 20:25:31  5-MIN KDBQ 100225Z AUTO 29008KT 3SM -SN BR OVC065 M07/M08 A3009 930 88 -1400 290/08 RMK AO2 P0000 TSNO
94908KDBQ DBQ20050209203012102/09/05 20:30:31  5-MIN KDBQ 100230Z AUTO 29007KT 4SM -SN BR OVC065 M07/M08 A3009 920 88 -1400 290/07 RMK AO2 P0000 TSNO
94908KDBQ DBQ20050209203512102/09/05 20:35:31  5-MIN KDBQ 100235Z AUTO 30009KT 4SM -SN BR OVC065 M07/M08 A3009 920 88 -1400 300/09 RMK AO2 P0000 TSNO
94908KDBQ DBQ20050209204012802/09/05 20:40:31  5-MIN KDBQ 100240Z AUTO 30010KT 3SM -SN BR FEW050 OVC070 M07/M08 A3009 920 88 -1400 300/10 RMK AO2 P0000 TSNO
94908KDBQ DBQ20050209204513502/09/05 20:45:31  5-MIN KDBQ 100245Z AUTO 30007KT 3SM -SN BR FEW037 BKN065 OVC080 M07/M09 A3009 920 84 -1400 300/07 RMK AO2 P0000 TSNO
94908KDBQ DBQ20050209205015702/09/05 20:50:31  5-MIN KDBQ 100250Z AUTO 30008KT 4SM -SN BR FEW037 OVC070 M07/M09 A3009 920 84 -1400 300/08 RMK AO2 SLP208 P0000 60000 T10671089 53010 TSNO
94908KDBQ DBQ20050209205516402/09/05 20:55:31  5-MIN KDBQ 100255Z AUTO 30009KT 5SM -SN BR FEW033 SCT040 OVC070 M07/M09 A3009 920 84 -1400 300/09 RMK AO2 SLP207 P0000 60000 T10671089 51009 TSNO
94908KDBQ DBQ20050209210013902/09/05 21:00:31  5-MIN KDBQ 100300Z AUTO 30010KT 6SM HZ SCT033 BKN070 OVC085 M07/M09 A3009 920 81 -1400 300/10 RMK AO2 SNE0258 P0000 TSNO
94908KDBQ DBQ20050209210513602/09/05 21:05:31  5-MIN KDBQ 100305Z AUTO 30010KT 7SM SCT033 BKN070 OVC085 M07/M09 A3009 920 81 -1400 300/10 RMK AO2 SNE0258 P0000 TSNO
94908KDBQ DBQ20050209211013602/09/05 21:10:31  5-MIN KDBQ 100310Z AUTO 30010KT 7SM FEW033 BKN075 OVC085 M07/M09 A3009 920 81 -1400 300/10 RMK AO2 SNE0258 P0000 TSNO
94908KDBQ DBQ20050209211513602/09/05 21:15:31  5-MIN KDBQ 100315Z AUTO 30009KT 8SM FEW033 SCT075 OVC085 M07/M09 A3009 920 81 -1400 300/09 RMK AO2 SNE0258 P0000 TSNO
94908KDBQ DBQ20050209212012902/09/05 21:20:31  5-MIN KDBQ 100320Z AUTO 30010KT 8SM FEW031 OVC085 M07/M09 A3010 920 84 -1500 300/10 RMK AO2 SNE0258 P0000 TSNO
94908KDBQ DBQ20050209212512902/09/05 21:25:31  5-MIN KDBQ 100325Z AUTO 30008KT 8SM FEW031 OVC085 M07/M10 A3010 910 81 -1500 300/08 RMK AO2 SNE0258 P0000 TSNO
94908KDBQ DBQ20050209213012902/09/05 21:30:31  5-MIN KDBQ 100330Z AUTO 30009KT 8SM FEW041 OVC085 M07/M10 A3010 910 81 -1500 300/09 RMK AO2 SNE0258 P0000 TSNO
94908KDBQ DBQ20050209213512202/09/05 21:35:31  5-MIN KDBQ 100335Z AUTO 31008KT 8SM OVC085 M07/M10 A3010 910 81 -1500 300/08 RMK AO2 SNE0258 P0000 TSNO
94908KDBQ DBQ20050209214012202/09/05 21:40:31  5-MIN KDBQ 100340Z AUTO 30008KT 8SM OVC085 M08/M10 A3010 910 84 -1600 300/08 RMK AO2 SNE0258 P0000 TSNO
94908KDBQ DBQ20050209214512202/09/05 21:45:31  5-MIN KDBQ 100345Z AUTO 30009KT 8SM OVC085 M08/M10 A3010 910 84 -1600 300/09 RMK AO2 SNE0258 P0000 TSNO
94908KDBQ DBQ20050209215014602/09/05 21:50:31  5-MIN KDBQ 100350Z AUTO 30008KT 9SM FEW035 OVC085 M08/M11 A3010 910 80 -1600 300/08 RMK AO2 SNE0258 SLP212 P0000 T10781106 TSNO
94908KDBQ DBQ20050209215514602/09/05 21:55:31  5-MIN KDBQ 100355Z AUTO 30009KT 9SM SCT035 OVC085 M08/M11 A3010 910 84 -1700 300/09 RMK AO2 SNE0258 SLP212 P0000 T10831106 TSNO
94908KDBQ DBQ20050209220012202/09/05 22:00:31  5-MIN KDBQ 100400Z AUTO 31009KT 9SM FEW030 BKN050 OVC085 M08/M11 A3010 910 84 -1700 300/09 RMK AO2 TSNO
94908KDBQ DBQ20050209220512202/09/05 22:05:31  5-MIN KDBQ 100405Z AUTO 31009KT 9SM FEW030 BKN036 OVC085 M08/M11 A3010 910 84 -1700 300/09 RMK AO2 TSNO
94908KDBQ DBQ20050209221012202/09/05 22:10:31  5-MIN KDBQ 100410Z AUTO 31008KT 9SM SCT030 BKN036 OVC085 M08/M11 A3010 910 84 -1700 300/08 RMK AO2 TSNO
94908KDBQ DBQ20050209221512202/09/05 22:15:31  5-MIN KDBQ 100415Z AUTO 30009KT 9SM BKN030 BKN036 OVC085 M08/M11 A3011 910 84 -1700 300/09 RMK AO2 TSNO
94908KDBQ DBQ20050209222011502/09/05 22:20:31  5-MIN KDBQ 100420Z AUTO 30009KT 9SM BKN028 OVC036 M08/M11 A3011 910 80 -1600 300/09 RMK AO2 TSNO
94908KDBQ DBQ20050209222511502/09/05 22:25:31  5-MIN KDBQ 100425Z AUTO 30009KT 9SM BKN028 OVC036 M08/M11 A3011 910 80 -1600 300/09 RMK AO2 TSNO
94908KDBQ DBQ20050209223011502/09/05 22:30:31  5-MIN KDBQ 100430Z AUTO 30009KT 8SM BKN028 OVC034 M08/M10 A3011 900 84 -1600 300/09 RMK AO2 TSNO
94908KDBQ DBQ20050209223510802/09/05 22:35:31  5-MIN KDBQ 100435Z AUTO 30009KT 8SM OVC028 M08/M10 A3011 900 84 -1600 300/09 RMK AO2 TSNO
94908KDBQ DBQ20050209224010802/09/05 22:40:31  5-MIN KDBQ 100440Z AUTO 30008KT 8SM OVC026 M08/M10 A3011 900 84 -1600 300/08 RMK AO2 TSNO
94908KDBQ DBQ20050209224510802/09/05 22:45:31  5-MIN KDBQ 100445Z AUTO 30009KT 8SM OVC026 M08/M10 A3011 900 84 -1600 300/09 RMK AO2 TSNO
94908KDBQ DBQ20050209225012502/09/05 22:50:31  5-MIN KDBQ 100450Z AUTO 30008KT 8SM OVC026 M08/M10 A3011 900 84 -1600 300/08 RMK AO2 SLP216 T10781100 TSNO
94908KDBQ DBQ20050209225513202/09/05 22:55:31  5-MIN KDBQ 100455Z AUTO 31008KT 7SM BKN026 OVC090 M08/M11 A3012 900 80 -1600 310/08 RMK AO2 SLP216 T10781106 TSNO
94908KDBQ DBQ20050209230011502/09/05 23:00:31  5-MIN KDBQ 100500Z AUTO 31008KT 7SM BKN026 OVC090 M08/M11 A3012 900 84 -1700 310/08 RMK AO2 TSNO
94908KDBQ DBQ20050209230511502/09/05 23:05:31  5-MIN KDBQ 100505Z AUTO 31010KT 8SM SCT026 OVC090 M08/M11 A3012 900 80 -1600 310/10 RMK AO2 TSNO
94908KDBQ DBQ20050209231011502/09/05 23:10:31  5-MIN KDBQ 100510Z AUTO 31010KT 8SM FEW026 OVC090 M08/M11 A3012 900 80 -1600 310/10 RMK AO2 TSNO
94908KDBQ DBQ20050209231511502/09/05 23:15:31  5-MIN KDBQ 100515Z AUTO 31011KT 8SM FEW028 OVC090 M08/M11 A3012 900 80 -1600 310/11 RMK AO2 TSNO
94908KDBQ DBQ20050209232009802/09/05 23:20:31  5-MIN KDBQ 100520Z AUTO 8SM OVC090 M08/M11 A3012 900 80 -1600 M /M RMK AO2 TSNO
94908KDBQ DBQ20050209232511002/09/05 23:25:31  5-MIN KDBQ 100525Z AUTO 32011KT 8SM OVC090 M08/M11 A3012 900 84 -1700 310/11 RMK AO2 TSNO $
94908KDBQ DBQ20050209233011002/09/05 23:30:31  5-MIN KDBQ 100530Z AUTO 31009KT 8SM OVC090 M08/M11 A3012 890 84 -1700 300/09 RMK AO2 TSNO $
94908KDBQ DBQ20050209233510002/09/05 23:35:31  5-MIN KDBQ 100535Z AUTO 7SM OVC090 M08/M11 A3012 890 84 -1700 M /M RMK AO2 TSNO $
94908KDBQ DBQ20050209234010002/09/05 23:40:31  5-MIN KDBQ 100540Z AUTO 7SM OVC090 M08/M11 A3012 890 84 -1700 M /M RMK AO2 TSNO $
94908KDBQ DBQ20050209234510002/09/05 23:45:31  5-MIN KDBQ 100545Z AUTO 7SM BKN090 M09/M11 A3012 900 88 -1800 M /M RMK AO2 TSNO $
94908KDBQ DBQ20050209235015102/09/05 23:50:31  5-MIN KDBQ 100550Z AUTO 7SM BKN090 M09/M11 A3012 900 84 -1800 M /M RMK AO2 SLP218 60000 T10891111 11056 21089 410391089 51009 TSNO $
94908KDBQ DBQ20050209235516102/09/05 23:55:31  5-MIN KDBQ 100555Z AUTO 31010KT 7SM SCT090 M09/M11 A3012 900 84 -1800 310/10 RMK AO2 SLP217 60000 T10891111 11056 21089 410391089 51009 TSNO $
94908KDBQ DBQ20050210000010702/10/05 00:00:38  5-MIN KDBQ 100600Z AUTO 7SM FEW022 SCT090 M09/M11 A3012 890 88 -1800 M /M RMK AO2 TSNO $
94908KDBQ DBQ20050210000510702/10/05 00:05:31  5-MIN KDBQ 100605Z AUTO 7SM SCT022 BKN090 M09/M11 A3012 890 88 -1800 M /M RMK AO2 TSNO $
94908KDBQ DBQ20050210001010002/10/05 00:10:31  5-MIN KDBQ 100610Z AUTO 7SM BKN024 M08/M11 A3012 890 84 -1700 M /M RMK AO2 TSNO $
94908KDBQ DBQ20050210001510002/10/05 00:15:34  5-MIN KDBQ 100615Z AUTO 7SM BKN024 M08/M11 A3013 890 84 -1700 M /M RMK AO2 TSNO $
94908KDBQ DBQ20050210002010002/10/05 00:20:31  5-MIN KDBQ 100620Z AUTO 7SM BKN024 M08/M11 A3013 890 84 -1700 M /M RMK AO2 TSNO $
94908KDBQ DBQ20050210002510002/10/05 00:25:31  5-MIN KDBQ 100625Z AUTO 7SM OVC024 M08/M11 A3013 890 84 -1700 M /M RMK AO2 TSNO $
94908KDBQ DBQ20050210003010002/10/05 00:30:31  5-MIN KDBQ 100630Z AUTO 7SM OVC024 M08/M11 A3013 890 84 -1700 M /M RMK AO2 TSNO $
94908KDBQ DBQ20050210003510002/10/05 00:35:31  5-MIN KDBQ 100635Z AUTO 7SM OVC024 M08/M11 A3013 890 84 -1700 M /M RMK AO2 TSNO $
94908KDBQ DBQ20050210004010002/10/05 00:40:31  5-MIN KDBQ 100640Z AUTO 7SM OVC024 M08/M11 A3013 890 84 -1700 M /M RMK AO2 TSNO $
94908KDBQ DBQ20050210004510002/10/05 00:45:31  5-MIN KDBQ 100645Z AUTO 7SM OVC024 M08/M11 A3013 890 84 -1700 M /M RMK AO2 TSNO $
94908KDBQ DBQ20050210005011702/10/05 00:50:31  5-MIN KDBQ 100650Z AUTO 7SM BKN024 M09/M11 A3013 890 88 -1800 M /M RMK AO2 SLP221 T10941111 TSNO $
94908KDBQ DBQ20050210005511702/10/05 00:55:31  5-MIN KDBQ 100655Z AUTO 7SM BKN026 M09/M11 A3013 890 88 -1800 M /M RMK AO2 SLP220 T10941111 TSNO $
94908KDBQ DBQ20050210010011002/10/05 01:00:31  5-MIN KDBQ 100700Z AUTO 34010KT 7SM BKN026 M09/M11 A3013 890 88 -1800 340/10 RMK AO2 TSNO $
94908KDBQ DBQ20050210010510002/10/05 01:05:31  5-MIN KDBQ 100705Z AUTO 7SM SCT026 M09/M11 A3013 890 88 -1800 M /M RMK AO2 TSNO $
94908KDBQ DBQ20050210011010002/10/05 01:10:31  5-MIN KDBQ 100710Z AUTO 7SM SCT026 M10/M12 A3013 890 88 -1900 M /M RMK AO2 TSNO $
94908KDBQ DBQ20050210011510002/10/05 01:15:31  5-MIN KDBQ 100715Z AUTO 7SM FEW026 M10/M12 A3013 890 88 -1900 M /M RMK AO2 TSNO $
94908KDBQ DBQ20050210012010002/10/05 01:20:31  5-MIN KDBQ 100720Z AUTO 7SM FEW026 M10/M12 A3013 890 88 -1900 M /M RMK AO2 TSNO $
94908KDBQ DBQ20050210012509702/10/05 01:25:31  5-MIN KDBQ 100725Z AUTO 7SM CLR M10/M12 A3013 890 88 -1900 M /M RMK AO2 TSNO $
94908KDBQ DBQ20050210013009702/10/05 01:30:31  5-MIN KDBQ 100730Z AUTO 7SM CLR M10/M12 A3013 890 84 -1900 M /M RMK AO2 TSNO $
94908KDBQ DBQ20050210013509702/10/05 01:35:31  5-MIN KDBQ 100735Z AUTO 7SM CLR M11/M12 A3013 890 88 -2000 M /M RMK AO2 TSNO $
94908KDBQ DBQ20050210014009702/10/05 01:40:31  5-MIN KDBQ 100740Z AUTO 7SM CLR M11/M12 A3013 890 88 -2000 M /M RMK AO2 TSNO $
94908KDBQ DBQ20050210014509702/10/05 01:45:31  5-MIN KDBQ 100745Z AUTO 7SM CLR M10/M12 A3013 890 84 -1900 M /M RMK AO2 TSNO $
94908KDBQ DBQ20050210015011402/10/05 01:50:31  5-MIN KDBQ 100750Z AUTO 7SM CLR M11/M12 A3013 890 88 -2000 M /M RMK AO2 SLP221 T11061122 TSNO $
94908KDBQ DBQ20050210015511402/10/05 01:55:31  5-MIN KDBQ 100755Z AUTO 7SM CLR M10/M12 A3013 890 84 -1900 M /M RMK AO2 SLP221 T11001122 TSNO $
94908KDBQ DBQ20050210020009702/10/05 02:00:31  5-MIN KDBQ 100800Z AUTO 7SM CLR M11/M12 A3013 890 88 -2000 M /M RMK AO2 TSNO $
94908KDBQ DBQ20050210020509702/10/05 02:05:31  5-MIN KDBQ 100805Z AUTO 7SM CLR M11/M12 A3013 890 88 -2000 M /M RMK AO2 TSNO $
94908KDBQ DBQ20050210021009702/10/05 02:10:31  5-MIN KDBQ 100810Z AUTO 7SM CLR M11/M12 A3013 890 88 -2000 M /M RMK AO2 TSNO $
94908KDBQ DBQ20050210021509702/10/05 02:15:31  5-MIN KDBQ 100815Z AUTO 7SM CLR M11/M12 A3013 890 88 -2000 M /M RMK AO2 TSNO $
94908KDBQ DBQ20050210022009702/10/05 02:20:31  5-MIN KDBQ 100820Z AUTO 7SM CLR M11/M12 A3013 890 88 -2000 M /M RMK AO2 TSNO $
94908KDBQ DBQ20050210022509702/10/05 02:25:31  5-MIN KDBQ 100825Z AUTO 7SM CLR M11/M12 A3013 880 88 -2000 M /M RMK AO2 TSNO $
94908KDBQ DBQ20050210023009702/10/05 02:30:31  5-MIN KDBQ 100830Z AUTO 7SM CLR M11/M13 A3013 880 88 -2100 M /M RMK AO2 TSNO $
94908KDBQ DBQ20050210023509702/10/05 02:35:31  5-MIN KDBQ 100835Z AUTO 7SM CLR M11/M12 A3013 880 88 -2000 M /M RMK AO2 TSNO $
94908KDBQ DBQ20050210024009702/10/05 02:40:31  5-MIN KDBQ 100840Z AUTO 7SM CLR M11/M13 A3013 880 84 -2000 M /M RMK AO2 TSNO $
94908KDBQ DBQ20050210024509702/10/05 02:45:31  5-MIN KDBQ 100845Z AUTO 7SM CLR M11/M13 A3014 880 84 -2000 M /M RMK AO2 TSNO $
94908KDBQ DBQ20050210025012002/10/05 02:50:31  5-MIN KDBQ 100850Z AUTO 7SM CLR M11/M13 A3014 880 88 -2100 M /M RMK AO2 SLP225 T11111128 51009 TSNO $
94908KDBQ DBQ20050210025512002/10/05 02:55:31  5-MIN KDBQ 100855Z AUTO 7SM CLR M11/M13 A3014 880 88 -2100 M /M RMK AO2 SLP226 T11111128 53007 TSNO $
94908KDBQ DBQ20050210030009702/10/05 03:00:31  5-MIN KDBQ 100900Z AUTO 7SM CLR M11/M12 A3014 870 88 -2000 M /M RMK AO2 TSNO $
94908KDBQ DBQ20050210030509702/10/05 03:05:31  5-MIN KDBQ 100905Z AUTO 7SM CLR M11/M13 A3014 870 84 -2000 M /M RMK AO2 TSNO $
94908KDBQ DBQ20050210031009702/10/05 03:10:31  5-MIN KDBQ 100910Z AUTO 7SM CLR M11/M12 A3014 870 88 -2000 M /M RMK AO2 TSNO $
94908KDBQ DBQ20050210031509702/10/05 03:15:31  5-MIN KDBQ 100915Z AUTO 7SM CLR M11/M12 A3014 870 88 -2000 M /M RMK AO2 TSNO $
94908KDBQ DBQ20050210032009702/10/05 03:20:31  5-MIN KDBQ 100920Z AUTO 7SM CLR M10/M12 A3014 870 84 -1900 M /M RMK AO2 TSNO $
94908KDBQ DBQ20050210032509702/10/05 03:25:31  5-MIN KDBQ 100925Z AUTO 7SM CLR M11/M12 A3015 870 88 -2000 M /M RMK AO2 TSNO $
94908KDBQ DBQ20050210033009702/10/05 03:30:31  5-MIN KDBQ 100930Z AUTO 7SM CLR M11/M12 A3015 870 88 -2000 M /M RMK AO2 TSNO $
94908KDBQ DBQ20050210033509702/10/05 03:35:31  5-MIN KDBQ 100935Z AUTO 7SM CLR M11/M13 A3015 870 88 -2100 M /M RMK AO2 TSNO $
94908KDBQ DBQ20050210034009702/10/05 03:40:31  5-MIN KDBQ 100940Z AUTO 7SM CLR M11/M13 A3015 870 88 -2100 M /M RMK AO2 TSNO $
94908KDBQ DBQ20050210034509702/10/05 03:45:31  5-MIN KDBQ 100945Z AUTO 7SM CLR M11/M12 A3015 870 88 -2000 M /M RMK AO2 TSNO $
94908KDBQ DBQ20050210035011402/10/05 03:50:31  5-MIN KDBQ 100950Z AUTO 7SM CLR M11/M12 A3015 870 88 -2000 M /M RMK AO2 SLP227 T11061122 TSNO $
94908KDBQ DBQ20050210035511402/10/05 03:55:31  5-MIN KDBQ 100955Z AUTO 7SM CLR M11/M12 A3015 870 88 -2000 M /M RMK AO2 SLP227 T11061122 TSNO $
94908KDBQ DBQ20050210040009702/10/05 04:00:31  5-MIN KDBQ 101000Z AUTO 7SM CLR M11/M13 A3014 870 84 -2000 M /M RMK AO2 TSNO $
94908KDBQ DBQ20050210040509702/10/05 04:05:31  5-MIN KDBQ 101005Z AUTO 7SM CLR M11/M12 A3015 870 88 -2000 M /M RMK AO2 TSNO $
94908KDBQ DBQ20050210041009702/10/05 04:10:31  5-MIN KDBQ 101010Z AUTO 7SM CLR M11/M13 A3015 870 88 -2100 M /M RMK AO2 TSNO $
94908KDBQ DBQ20050210041509702/10/05 04:15:31  5-MIN KDBQ 101015Z AUTO 7SM CLR M11/M13 A3015 870 88 -2100 M /M RMK AO2 TSNO $
94908KDBQ DBQ20050210042009702/10/05 04:20:31  5-MIN KDBQ 101020Z AUTO 7SM CLR M11/M13 A3015 870 84 -2100 M /M RMK AO2 TSNO $
94908KDBQ DBQ20050210042509702/10/05 04:25:31  5-MIN KDBQ 101025Z AUTO 7SM CLR M11/M13 A3015 870 88 -2100 M /M RMK AO2 TSNO $
94908KDBQ DBQ20050210043009702/10/05 04:30:31  5-MIN KDBQ 101030Z AUTO 7SM CLR M11/M13 A3015 860 88 -2100 M /M RMK AO2 TSNO $
94908KDBQ DBQ20050210043509702/10/05 04:35:31  5-MIN KDBQ 101035Z AUTO 7SM CLR M11/M13 A3016 860 88 -2100 M /M RMK AO2 TSNO $
94908KDBQ DBQ20050210044009702/10/05 04:40:31  5-MIN KDBQ 101040Z AUTO 7SM CLR M12/M13 A3016 860 87 -2200 M /M RMK AO2 TSNO $
94908KDBQ DBQ20050210044509702/10/05 04:45:31  5-MIN KDBQ 101045Z AUTO 7SM CLR M12/M14 A3016 860 87 -2300 M /M RMK AO2 TSNO $
94908KDBQ DBQ20050210045011402/10/05 04:50:31  5-MIN KDBQ 101050Z AUTO 7SM CLR M12/M13 A3017 850 87 -2200 M /M RMK AO2 SLP235 T11171133 TSNO $
94908KDBQ DBQ20050210045511402/10/05 04:55:31  5-MIN KDBQ 101055Z AUTO 7SM CLR M11/M13 A3017 850 88 -2100 M /M RMK AO2 SLP236 T11111128 TSNO $
94908KDBQ DBQ20050210050009702/10/05 05:00:31  5-MIN KDBQ 101100Z AUTO 7SM CLR M11/M13 A3017 850 88 -2100 M /M RMK AO2 TSNO $
94908KDBQ DBQ20050210050509702/10/05 05:05:31  5-MIN KDBQ 101105Z AUTO 7SM CLR M11/M13 A3017 850 88 -2100 M /M RMK AO2 TSNO $
94908KDBQ DBQ20050210051009702/10/05 05:10:31  5-MIN KDBQ 101110Z AUTO 7SM CLR M11/M13 A3017 850 84 -2100 M /M RMK AO2 TSNO $
94908KDBQ DBQ20050210051509702/10/05 05:15:31  5-MIN KDBQ 101115Z AUTO 7SM CLR M11/M13 A3017 850 88 -2100 M /M RMK AO2 TSNO $
94908KDBQ DBQ20050210052009702/10/05 05:20:31  5-MIN KDBQ 101120Z AUTO 7SM CLR M11/M13 A3017 850 88 -2100 M /M RMK AO2 TSNO $
94908KDBQ DBQ20050210052509702/10/05 05:25:31  5-MIN KDBQ 101125Z AUTO 7SM CLR M12/M13 A3018 840 87 -2200 M /M RMK AO2 TSNO $
94908KDBQ DBQ20050210053009702/10/05 05:30:31  5-MIN KDBQ 101130Z AUTO 7SM CLR M12/M14 A3018 840 87 -2300 M /M RMK AO2 TSNO $
94908KDBQ DBQ20050210053509702/10/05 05:35:31  5-MIN KDBQ 101135Z AUTO 7SM CLR M12/M14 A3018 840 87 -2300 M /M RMK AO2 TSNO $
94908KDBQ DBQ20050210054010002/10/05 05:40:31  5-MIN KDBQ 101140Z AUTO 6SM BR CLR M13/M14 A3018 840 87 -2400 M /M RMK AO2 TSNO $
94908KDBQ DBQ20050210054510002/10/05 05:45:31  5-MIN KDBQ 101145Z AUTO 6SM BR CLR M12/M14 A3018 840 87 -2300 M /M RMK AO2 TSNO $
94908KDBQ DBQ20050210055013202/10/05 05:50:31  5-MIN KDBQ 101150Z AUTO 7SM CLR M12/M14 A3018 840 87 -2300 M /M RMK AO2 SLP241 T11221139 11083 21128 53007 TSNO $
94908KDBQ DBQ20050210055512202/10/05 05:55:31  5-MIN KDBQ 101155Z 7SM CLR M11/M13 A3018 830 84 -2100 M /M RMK AO2 SLP242 T11111133 11083 21128 53015 $
94908KDBQ DBQ20050210060008702/10/05 06:00:31  5-MIN KDBQ 101200Z 7SM CLR M11/M13 A3019 830 88 -2100 M /M RMK AO2 $
94908KDBQ DBQ20050210060508702/10/05 06:05:31  5-MIN KDBQ 101205Z 7SM CLR M11/M13 A3019 830 84 -2100 M /M RMK AO2 $
94908KDBQ DBQ20050210061008702/10/05 06:10:31  5-MIN KDBQ 101210Z 7SM CLR M11/M13 A3020 830 88 -2100 M /M RMK AO2 $
94908KDBQ DBQ20050210061508702/10/05 06:15:31  5-MIN KDBQ 101215Z 7SM CLR M11/M13 A3020 820 84 -2100 M /M RMK AO2 $
94908KDBQ DBQ20050210062008702/10/05 06:20:31  5-MIN KDBQ 101220Z 7SM CLR M11/M13 A3020 820 88 -2200 M /M RMK AO2 $
94908KDBQ DBQ20050210062508702/10/05 06:25:31  5-MIN KDBQ 101225Z 7SM CLR M11/M13 A3020 820 84 -2200 M /M RMK AO2 $
94908KDBQ DBQ20050210063008702/10/05 06:30:31  5-MIN KDBQ 101230Z 7SM CLR M11/M13 A3020 820 88 -2200 M /M RMK AO2 $
94908KDBQ DBQ20050210063508702/10/05 06:35:31  5-MIN KDBQ 101235Z 7SM CLR M11/M13 A3020 820 88 -2200 M /M RMK AO2 $
94908KDBQ DBQ20050210064008702/10/05 06:40:31  5-MIN KDBQ 101240Z 7SM CLR M12/M13 A3020 820 87 -2200 M /M RMK AO2 $
94908KDBQ DBQ20050210064508702/10/05 06:45:31  5-MIN KDBQ 101245Z 7SM CLR M12/M13 A3021 810 91 -2300 M /M RMK AO2 $
94908KDBQ DBQ20050210065010702/10/05 06:50:31  5-MIN KDBQ 101250Z 6SM BR CLR M13/M14 A3021 810 87 -2400 M /M RMK AO2 SLP250 T11281144 $
94908KDBQ DBQ20050210065510702/10/05 06:55:31  5-MIN KDBQ 101255Z 6SM BR CLR M13/M14 A3021 820 91 -2500 M /M RMK AO2 SLP250 T11331144 $
94908KDBQ DBQ20050210070009002/10/05 07:00:31  5-MIN KDBQ 101300Z 6SM BR CLR M13/M15 A3021 810 84 -2400 M /M RMK AO2 $
94908KDBQ DBQ20050210070509002/10/05 07:05:31  5-MIN KDBQ 101305Z 5SM BR CLR M13/M14 A3021 820 87 -2400 M /M RMK AO2 $
94908KDBQ DBQ20050210071009002/10/05 07:10:31  5-MIN KDBQ 101310Z 5SM BR CLR M13/M14 A3021 810 87 -2400 M /M RMK AO2 $
94908KDBQ DBQ20050210071509002/10/05 07:15:31  5-MIN KDBQ 101315Z 4SM BR CLR M13/M14 A3021 810 91 -2500 M /M RMK AO2 $
94908KDBQ DBQ20050210072009002/10/05 07:20:31  5-MIN KDBQ 101320Z 4SM BR CLR M14/M15 A3022 810 91 -2500 M /M RMK AO2 $
94908KDBQ DBQ20050210072509002/10/05 07:25:31  5-MIN KDBQ 101325Z 4SM BR CLR M13/M15 A3022 800 87 -2500 M /M RMK AO2 $
94908KDBQ DBQ20050210073009002/10/05 07:30:31  5-MIN KDBQ 101330Z 4SM BR CLR M13/M15 A3022 800 87 -2500 M /M RMK AO2 $
94908KDBQ DBQ20050210073509002/10/05 07:35:31  5-MIN KDBQ 101335Z 4SM BR CLR M14/M15 A3022 800 91 -2600 M /M RMK AO2 $
94908KDBQ DBQ20050210074009002/10/05 07:40:31  5-MIN KDBQ 101340Z 4SM BR CLR M14/M15 A3023 800 91 -2600 M /M RMK AO2 $
94908KDBQ DBQ20050210074509002/10/05 07:45:31  5-MIN KDBQ 101345Z 4SM BR CLR M13/M15 A3022 800 87 -2500 M /M RMK AO2 $
94908KDBQ DBQ20050210075010702/10/05 07:50:31  5-MIN KDBQ 101350Z 5SM HZ CLR M11/M14 A3023 800 80 -2200 M /M RMK AO2 SLP256 T11111139 $
94908KDBQ DBQ20050210075510702/10/05 07:55:31  5-MIN KDBQ 101355Z 6SM BR CLR M11/M13 A3023 790 84 -2100 M /M RMK AO2 SLP257 T11061128 $
94908KDBQ DBQ20050210080009002/10/05 08:00:31  5-MIN KDBQ 101400Z 6SM BR CLR M11/M13 A3023 790 84 -2100 M /M RMK AO2 $
94908KDBQ DBQ20050210080509002/10/05 08:05:31  5-MIN KDBQ 101405Z 6SM BR CLR M11/M12 A3024 790 88 -2100 M /M RMK AO2 $
94908KDBQ DBQ20050210081009002/10/05 08:10:31  5-MIN KDBQ 101410Z 6SM BR CLR M10/M12 A3024 780 84 -2100 M /M RMK AO2 $
94908KDBQ DBQ20050210081509002/10/05 08:15:31  5-MIN KDBQ 101415Z 6SM BR CLR M10/M12 A3024 780 84 -2100 M /M RMK AO2 $
94908KDBQ DBQ20050210082009002/10/05 08:20:31  5-MIN KDBQ 101420Z 6SM BR CLR M09/M12 A3024 780 84 -2000 M /M RMK AO2 $
94908KDBQ DBQ20050210082509002/10/05 08:25:31  5-MIN KDBQ 101425Z 6SM BR CLR M09/M12 A3024 790 84 -2000 M /M RMK AO2 $
94908KDBQ DBQ20050210083009002/10/05 08:30:31  5-MIN KDBQ 101430Z 6SM BR CLR M09/M12 A3024 780 84 -2000 M /M RMK AO2 $
94908KDBQ DBQ20050210083509002/10/05 08:35:31  5-MIN KDBQ 101435Z 6SM BR CLR M09/M12 A3024 790 84 -2000 M /M RMK AO2 $
94908KDBQ DBQ20050210084009002/10/05 08:40:31  5-MIN KDBQ 101440Z 6SM HZ CLR M09/M12 A3024 790 80 -1900 M /M RMK AO2 $
94908KDBQ DBQ20050210084509002/10/05 08:45:31  5-MIN KDBQ 101445Z 6SM HZ CLR M09/M12 A3024 790 80 -1900 M /M RMK AO2 $
94908KDBQ DBQ20050210085011302/10/05 08:50:31  5-MIN KDBQ 101450Z 6SM BR CLR M09/M11 A3023 790 84 -1900 M /M RMK AO2 SLP258 T10891111 53015 $
94908KDBQ DBQ20050210085511302/10/05 08:55:31  5-MIN KDBQ 101455Z 6SM BR CLR M09/M11 A3023 790 84 -1900 M /M RMK AO2 SLP258 T10891111 51016 $
94908KDBQ DBQ20050210090009002/10/05 09:00:31  5-MIN KDBQ 101500Z 6SM HZ CLR M08/M11 A3023 790 80 -1800 M /M RMK AO2 $
94908KDBQ DBQ20050210090509002/10/05 09:05:31  5-MIN KDBQ 101505Z 6SM BR CLR M08/M11 A3023 790 84 -1800 M /M RMK AO2 $
94908KDBQ DBQ20050210091009002/10/05 09:10:31  5-MIN KDBQ 101510Z 6SM HZ CLR M08/M11 A3023 790 80 -1800 M /M RMK AO2 $
94908KDBQ DBQ20050210091509002/10/05 09:15:31  5-MIN KDBQ 101515Z 6SM HZ CLR M08/M11 A3023 790 80 -1800 M /M RMK AO2 $
94908KDBQ DBQ20050210092009002/10/05 09:20:31  5-MIN KDBQ 101520Z 6SM HZ CLR M08/M11 A3024 790 80 -1800 M /M RMK AO2 $
94908KDBQ DBQ20050210092509002/10/05 09:25:31  5-MIN KDBQ 101525Z 6SM HZ CLR M08/M11 A3024 790 80 -1800 M /M RMK AO2 $
94908KDBQ DBQ20050210093009002/10/05 09:30:31  5-MIN KDBQ 101530Z 6SM HZ CLR M08/M11 A3024 790 80 -1800 M /M RMK AO2 $
94908KDBQ DBQ20050210093509002/10/05 09:35:31  5-MIN KDBQ 101535Z 6SM HZ CLR M08/M11 A3024 790 80 -1800 M /M RMK AO2 $
94908KDBQ DBQ20050210094008702/10/05 09:40:31  5-MIN KDBQ 101540Z 7SM CLR M08/M11 A3024 780 80 -1800 M /M RMK AO2 $
94908KDBQ DBQ20050210094508702/10/05 09:45:31  5-MIN KDBQ 101545Z 7SM CLR M08/M11 A3024 780 80 -1800 M /M RMK AO2 $
94908KDBQ DBQ20050210095010402/10/05 09:50:31  5-MIN KDBQ 101550Z 7SM CLR M08/M10 A3025 770 84 -1800 M /M RMK AO2 SLP264 T10781100 $
94908KDBQ DBQ20050210095513002/10/05 09:55:31  5-MIN KDBQ 101555Z 34007KT 260V030 7SM CLR M07/M10 A3025 770 81 -1700 340/07 260V030 RMK AO2 SLP265 T10721100 $
94908KDBQ DBQ20050210100009702/10/05 10:00:31  5-MIN KDBQ 101600Z 09006KT 7SM CLR M07/M10 A3026 770 81 -1700 090/06 RMK AO2 $
94908KDBQ DBQ20050210100509702/10/05 10:05:31  5-MIN KDBQ 101605Z VRB04KT 8SM CLR M07/M10 A3026 770 81 -1700 VRB/04 RMK AO2 $
94908KDBQ DBQ20050210101009702/10/05 10:10:31  5-MIN KDBQ 101610Z 33004KT 8SM CLR M07/M10 A3026 770 81 -1700 330/04 RMK AO2 $
94908KDBQ DBQ20050210101509702/10/05 10:15:31  5-MIN KDBQ 101615Z 34005KT 8SM CLR M07/M09 A3026 770 81 -1600 330/05 RMK AO2 $
94908KDBQ DBQ20050210102009702/10/05 10:20:31  5-MIN KDBQ 101620Z 34006KT 9SM CLR M07/M09 A3026 760 81 -1600 340/06 RMK AO2 $
94908KDBQ DBQ20050210102509602/10/05 10:25:31  5-MIN KDBQ 101625Z 33008KT 10SM CLR M07/M09 A3027 760 81 -1600 330/08 RMK AO2
94908KDBQ DBQ20050210103009602/10/05 10:30:31  5-MIN KDBQ 101630Z 33006KT 10SM CLR M07/M09 A3027 760 81 -1700 320/06 RMK AO2
94908KDBQ DBQ20050210103509602/10/05 10:35:31  5-MIN KDBQ 101635Z 31006KT 10SM CLR M07/M09 A3028 750 81 -1700 310/06 RMK AO2
94908KDBQ DBQ20050210104009602/10/05 10:40:31  5-MIN KDBQ 101640Z 33005KT 10SM CLR M07/M09 A3028 750 81 -1700 330/05 RMK AO2
94908KDBQ DBQ20050210104509602/10/05 10:45:31  5-MIN KDBQ 101645Z 34004KT 10SM CLR M06/M09 A3028 750 77 -1600 340/04 RMK AO2
94908KDBQ DBQ20050210105011302/10/05 10:50:31  5-MIN KDBQ 101650Z 35003KT 10SM CLR M06/M09 A3028 750 77 -1600 350/03 RMK AO2 SLP273 T10611094
94908KDBQ DBQ20050210105511302/10/05 10:55:31  5-MIN KDBQ 101655Z 00000KT 10SM CLR M06/M09 A3028 750 77 -1500 000/00 RMK AO2 SLP272 T10561089
94908KDBQ DBQ20050210110009602/10/05 11:00:31  5-MIN KDBQ 101700Z 00000KT 10SM CLR M05/M09 A3028 750 74 -1400 000/00 RMK AO2
94908KDBQ DBQ20050210110509602/10/05 11:05:31  5-MIN KDBQ 101705Z 34004KT 10SM CLR M06/M09 A3028 750 77 -1500 340/04 RMK AO2
94908KDBQ DBQ20050210111009602/10/05 11:10:31  5-MIN KDBQ 101710Z 34005KT 10SM CLR M06/M09 A3027 750 77 -1500 340/05 RMK AO2
94908KDBQ DBQ20050210111509602/10/05 11:15:31  5-MIN KDBQ 101715Z 33005KT 10SM CLR M06/M09 A3028 750 77 -1500 330/05 RMK AO2
94908KDBQ DBQ20050210112009602/10/05 11:20:31  5-MIN KDBQ 101720Z 32006KT 10SM CLR M06/M09 A3028 750 77 -1500 320/06 RMK AO2
94908KDBQ DBQ20050210112509602/10/05 11:25:31  5-MIN KDBQ 101725Z 31004KT 10SM CLR M06/M09 A3028 750 74 -1500 310/04 RMK AO2
94908KDBQ DBQ20050210113009602/10/05 11:30:31  5-MIN KDBQ 101730Z 32004KT 10SM CLR M06/M09 A3028 750 77 -1500 320/04 RMK AO2
94908KDBQ DBQ20050210113509602/10/05 11:35:31  5-MIN KDBQ 101735Z 00000KT 10SM CLR M06/M09 A3027 750 77 -1500 000/00 RMK AO2
94908KDBQ DBQ20050210114009602/10/05 11:40:31  5-MIN KDBQ 101740Z 32003KT 10SM CLR M06/M09 A3028 750 77 -1500 320/03 RMK AO2
94908KDBQ DBQ20050210114509602/10/05 11:45:31  5-MIN KDBQ 101745Z 00000KT 10SM CLR M05/M09 A3027 750 74 -1400 000/00 RMK AO2
94908KDBQ DBQ20050210115013102/10/05 11:50:31  5-MIN KDBQ 101750Z 00000KT 10SM CLR M05/M09 A3027 760 74 -1400 000/00 RMK AO2 SLP270 T10501089 11044 21144 51016
94908KDBQ DBQ20050210115513402/10/05 11:55:31  5-MIN KDBQ 101755Z 00000KT 10SM FEW018 M06/M09 A3027 760 77 -1500 000/00 RMK AO2 SLP269 T10561089 11044 21144 50011
94908KDBQ DBQ20050210120009902/10/05 12:00:31  5-MIN KDBQ 101800Z 00000KT 10SM SCT018 M06/M09 A3027 760 77 -1500 000/00 RMK AO2
94908KDBQ DBQ20050210120509902/10/05 12:05:31  5-MIN KDBQ 101805Z 00000KT 10SM FEW018 M05/M09 A3026 760 74 -1400 000/00 RMK AO2
94908KDBQ DBQ20050210121009902/10/05 12:10:31  5-MIN KDBQ 101810Z 24007KT 10SM FEW018 M06/M09 A3026 760 77 -1500 240/07 RMK AO2
94908KDBQ DBQ20050210121509902/10/05 12:15:31  5-MIN KDBQ 101815Z 24007KT 10SM FEW018 M06/M09 A3026 760 77 -1500 240/07 RMK AO2
94908KDBQ DBQ20050210122009902/10/05 12:20:31  5-MIN KDBQ 101820Z 24007KT 10SM FEW018 M06/M09 A3026 760 77 -1500 240/07 RMK AO2
94908KDBQ DBQ20050210122509902/10/05 12:25:31  5-MIN KDBQ 101825Z 25006KT 10SM FEW018 M06/M09 A3026 760 77 -1500 250/06 RMK AO2
94908KDBQ DBQ20050210123009602/10/05 12:30:31  5-MIN KDBQ 101830Z 25007KT 10SM CLR M06/M09 A3027 760 77 -1500 250/07 RMK AO2
94908KDBQ DBQ20050210123509602/10/05 12:35:31  5-MIN KDBQ 101835Z 26006KT 10SM CLR M05/M09 A3026 760 74 -1400 260/06 RMK AO2
94908KDBQ DBQ20050210124009602/10/05 12:40:31  5-MIN KDBQ 101840Z 24008KT 10SM CLR M06/M09 A3026 770 77 -1500 240/08 RMK AO2
94908KDBQ DBQ20050210124509602/10/05 12:45:31  5-MIN KDBQ 101845Z 26008KT 10SM CLR M06/M09 A3026 770 77 -1500 260/08 RMK AO2
94908KDBQ DBQ20050210125011302/10/05 12:50:31  5-MIN KDBQ 101850Z 28007KT 10SM CLR M06/M09 A3025 770 74 -1500 280/07 RMK AO2 SLP265 T10561094
94908KDBQ DBQ20050210125511302/10/05 12:55:31  5-MIN KDBQ 101855Z 27007KT 10SM CLR M05/M09 A3026 770 71 -1400 270/07 RMK AO2 SLP265 T10501094
94908KDBQ DBQ20050210130009602/10/05 13:00:31  5-MIN KDBQ 101900Z 27008KT 10SM CLR M05/M09 A3026 770 71 -1400 270/08 RMK AO2
94908KDBQ DBQ20050210130509602/10/05 13:05:31  5-MIN KDBQ 101905Z 27007KT 10SM CLR M05/M09 A3025 770 71 -1400 270/07 RMK AO2
94908KDBQ DBQ20050210131009602/10/05 13:10:31  5-MIN KDBQ 101910Z 28008KT 10SM CLR M05/M09 A3026 770 74 -1400 280/08 RMK AO2
94908KDBQ DBQ20050210131509602/10/05 13:15:31  5-MIN KDBQ 101915Z 27008KT 10SM CLR M05/M09 A3025 770 71 -1400 270/08 RMK AO2
94908KDBQ DBQ20050210132009602/10/05 13:20:31  5-MIN KDBQ 101920Z 27009KT 10SM CLR M05/M09 A3025 780 71 -1400 260/09 RMK AO2
94908KDBQ DBQ20050210132509602/10/05 13:25:31  5-MIN KDBQ 101925Z 26009KT 10SM CLR M05/M09 A3025 780 74 -1400 260/09 RMK AO2
94908KDBQ DBQ20050210133009602/10/05 13:30:31  5-MIN KDBQ 101930Z 28007KT 10SM CLR M05/M09 A3025 780 74 -1400 280/07 RMK AO2
94908KDBQ DBQ20050210133509602/10/05 13:35:31  5-MIN KDBQ 101935Z 28010KT 10SM CLR M05/M09 A3025 780 71 -1400 280/10 RMK AO2
94908KDBQ DBQ20050210134009602/10/05 13:40:31  5-MIN KDBQ 101940Z 26010KT 10SM CLR M05/M09 A3024 780 71 -1400 260/10 RMK AO2
94908KDBQ DBQ20050210134509602/10/05 13:45:31  5-MIN KDBQ 101945Z 27009KT 10SM CLR M05/M10 A3024 780 68 -1400 270/09 RMK AO2
94908KDBQ DBQ20050210135011302/10/05 13:50:31  5-MIN KDBQ 101950Z 26008KT 10SM CLR M05/M10 A3024 780 68 -1400 260/08 RMK AO2 SLP261 T10501100
94908KDBQ DBQ20050210135511302/10/05 13:55:31  5-MIN KDBQ 101955Z 27008KT 10SM CLR M05/M10 A3024 780 68 -1400 270/08 RMK AO2 SLP261 T10501100
94908KDBQ DBQ20050210140009602/10/05 14:00:31  5-MIN KDBQ 102000Z 27008KT 10SM CLR M05/M10 A3024 780 68 -1400 270/08 RMK AO2
94908KDBQ DBQ20050210140509602/10/05 14:05:31  5-MIN KDBQ 102005Z 26009KT 10SM CLR M05/M10 A3024 780 68 -1400 260/09 RMK AO2
94908KDBQ DBQ20050210141009602/10/05 14:10:31  5-MIN KDBQ 102010Z 28009KT 10SM CLR M05/M11 A3024 790 65 -1400 280/09 RMK AO2
94908KDBQ DBQ20050210141509602/10/05 14:15:31  5-MIN KDBQ 102015Z 28009KT 10SM CLR M05/M11 A3024 790 65 -1400 280/09 RMK AO2
94908KDBQ DBQ20050210142009602/10/05 14:20:31  5-MIN KDBQ 102020Z 28007KT 10SM CLR M05/M11 A3023 790 65 -1400 280/07 RMK AO2
94908KDBQ DBQ20050210142509602/10/05 14:25:31  5-MIN KDBQ 102025Z 28007KT 10SM CLR M04/M10 A3023 790 65 -1300 280/07 RMK AO2
94908KDBQ DBQ20050210143009602/10/05 14:30:31  5-MIN KDBQ 102030Z 28005KT 10SM CLR M05/M10 A3022 800 68 -1400 280/05 RMK AO2
94908KDBQ DBQ20050210143509602/10/05 14:35:31  5-MIN KDBQ 102035Z 26006KT 10SM CLR M05/M10 A3022 800 68 -1400 260/06 RMK AO2
94908KDBQ DBQ20050210144009602/10/05 14:40:31  5-MIN KDBQ 102040Z 26007KT 10SM CLR M05/M10 A3022 800 68 -1400 260/07 RMK AO2
94908KDBQ DBQ20050210144509602/10/05 14:45:31  5-MIN KDBQ 102045Z 25007KT 10SM CLR M05/M10 A3022 800 68 -1400 250/07 RMK AO2
94908KDBQ DBQ20050210145011902/10/05 14:50:31  5-MIN KDBQ 102050Z 25007KT 10SM CLR M05/M10 A3022 800 68 -1400 250/07 RMK AO2 SLP255 T10501100 50011
94908KDBQ DBQ20050210145511902/10/05 14:55:31  5-MIN KDBQ 102055Z 25007KT 10SM CLR M05/M10 A3022 800 68 -1400 250/07 RMK AO2 SLP254 T10501100 58015
94908KDBQ DBQ20050210150009602/10/05 15:00:31  5-MIN KDBQ 102100Z 24007KT 10SM CLR M05/M10 A3022 800 68 -1400 240/07 RMK AO2
94908KDBQ DBQ20050210150509602/10/05 15:05:31  5-MIN KDBQ 102105Z 24007KT 10SM CLR M05/M10 A3022 800 68 -1400 240/07 RMK AO2
94908KDBQ DBQ20050210151009602/10/05 15:10:31  5-MIN KDBQ 102110Z 25007KT 10SM CLR M05/M10 A3022 800 68 -1400 250/07 RMK AO2
94908KDBQ DBQ20050210151509602/10/05 15:15:31  5-MIN KDBQ 102115Z 26007KT 10SM CLR M05/M10 A3022 800 68 -1400 250/07 RMK AO2
94908KDBQ DBQ20050210152009602/10/05 15:20:31  5-MIN KDBQ 102120Z 25007KT 10SM CLR M05/M10 A3022 800 68 -1400 250/07 RMK AO2
94908KDBQ DBQ20050210152509602/10/05 15:25:31  5-MIN KDBQ 102125Z 25008KT 10SM CLR M05/M10 A3022 800 68 -1400 250/08 RMK AO2
94908KDBQ DBQ20050210153009602/10/05 15:30:31  5-MIN KDBQ 102130Z 25007KT 10SM CLR M05/M10 A3022 800 68 -1400 250/07 RMK AO2
94908KDBQ DBQ20050210153509602/10/05 15:35:31  5-MIN KDBQ 102135Z 24006KT 10SM CLR M05/M10 A3022 800 68 -1400 240/06 RMK AO2
94908KDBQ DBQ20050210154009602/10/05 15:40:31  5-MIN KDBQ 102140Z 23008KT 10SM CLR M05/M10 A3022 800 68 -1400 230/08 RMK AO2
94908KDBQ DBQ20050210154509602/10/05 15:45:31  5-MIN KDBQ 102145Z 22006KT 10SM CLR M05/M10 A3021 810 68 -1400 220/06 RMK AO2
94908KDBQ DBQ20050210155011302/10/05 15:50:31  5-MIN KDBQ 102150Z 23006KT 10SM CLR M05/M10 A3021 810 68 -1400 230/06 RMK AO2 SLP251 T10501100
94908KDBQ DBQ20050210155511302/10/05 15:55:31  5-MIN KDBQ 102155Z 24008KT 10SM CLR M05/M10 A3022 800 68 -1400 240/08 RMK AO2 SLP253 T10501100
94908KDBQ DBQ20050210160009602/10/05 16:00:31  5-MIN KDBQ 102200Z 23007KT 10SM CLR M06/M10 A3022 810 71 -1400 230/07 RMK AO2
94908KDBQ DBQ20050210160509602/10/05 16:05:31  5-MIN KDBQ 102205Z 24007KT 10SM CLR M06/M10 A3021 810 71 -1400 230/07 RMK AO2
94908KDBQ DBQ20050210161009602/10/05 16:10:31  5-MIN KDBQ 102210Z 23007KT 10SM CLR M06/M10 A3021 810 71 -1400 230/07 RMK AO2
94908KDBQ DBQ20050210161509602/10/05 16:15:31  5-MIN KDBQ 102215Z 25008KT 10SM CLR M06/M11 A3022 810 68 -1400 240/08 RMK AO2
94908KDBQ DBQ20050210162009602/10/05 16:20:31  5-MIN KDBQ 102220Z 24008KT 10SM CLR M06/M10 A3022 800 71 -1400 240/08 RMK AO2
94908KDBQ DBQ20050210162509602/10/05 16:25:31  5-MIN KDBQ 102225Z 24008KT 10SM CLR M06/M10 A3022 800 71 -1500 240/08 RMK AO2
94908KDBQ DBQ20050210163009602/10/05 16:30:31  5-MIN KDBQ 102230Z 24010KT 10SM CLR M06/M10 A3023 800 71 -1500 240/10 RMK AO2
94908KDBQ DBQ20050210163509602/10/05 16:35:31  5-MIN KDBQ 102235Z 25009KT 10SM CLR M06/M10 A3023 800 71 -1500 250/09 RMK AO2
94908KDBQ DBQ20050210164009602/10/05 16:40:31  5-MIN KDBQ 102240Z 25011KT 10SM CLR M06/M10 A3023 790 71 -1500 250/11 RMK AO2
94908KDBQ DBQ20050210164509602/10/05 16:45:31  5-MIN KDBQ 102245Z 25009KT 10SM CLR M06/M10 A3023 800 71 -1500 250/09 RMK AO2
94908KDBQ DBQ20050210165011302/10/05 16:50:31  5-MIN KDBQ 102250Z 25008KT 10SM CLR M06/M10 A3023 800 74 -1500 250/08 RMK AO2 SLP257 T10611100
94908KDBQ DBQ20050210165511302/10/05 16:55:31  5-MIN KDBQ 102255Z 24008KT 10SM CLR M06/M10 A3022 800 74 -1500 240/08 RMK AO2 SLP254 T10611100
94908KDBQ DBQ20050210170009602/10/05 17:00:31  5-MIN KDBQ 102300Z 25008KT 10SM CLR M06/M11 A3022 800 71 -1500 240/08 RMK AO2
94908KDBQ DBQ20050210170509602/10/05 17:05:31  5-MIN KDBQ 102305Z 26009KT 10SM CLR M06/M11 A3023 800 71 -1500 260/09 RMK AO2
94908KDBQ DBQ20050210171009602/10/05 17:10:31  5-MIN KDBQ 102310Z 26010KT 10SM CLR M06/M11 A3023 790 71 -1500 260/10 RMK AO2
94908KDBQ DBQ20050210171509602/10/05 17:15:31  5-MIN KDBQ 102315Z 27010KT 10SM CLR M06/M11 A3023 790 68 -1500 260/10 RMK AO2
94908KDBQ DBQ20050210172009602/10/05 17:20:31  5-MIN KDBQ 102320Z 26009KT 10SM CLR M07/M11 A3023 790 71 -1600 260/09 RMK AO2
94908KDBQ DBQ20050210172509602/10/05 17:25:31  5-MIN KDBQ 102325Z 26008KT 10SM CLR M06/M11 A3023 800 68 -1500 250/08 RMK AO2
94908KDBQ DBQ20050210173009602/10/05 17:30:31  5-MIN KDBQ 102330Z 25008KT 10SM CLR M07/M11 A3022 800 71 -1600 250/08 RMK AO2
94908KDBQ DBQ20050210173509602/10/05 17:35:31  5-MIN KDBQ 102335Z 25008KT 10SM CLR M07/M11 A3022 810 74 -1600 240/08 RMK AO2
94908KDBQ DBQ20050210174009602/10/05 17:40:31  5-MIN KDBQ 102340Z 22005KT 10SM CLR M07/M11 A3021 810 74 -1600 220/05 RMK AO2
94908KDBQ DBQ20050210174509602/10/05 17:45:31  5-MIN KDBQ 102345Z 21006KT 10SM CLR M07/M11 A3021 820 74 -1600 210/06 RMK AO2
94908KDBQ DBQ20050210175013102/10/05 17:50:31  5-MIN KDBQ 102350Z 21006KT 10SM CLR M07/M11 A3020 820 74 -1600 210/06 RMK AO2 SLP249 T10671106 11044 21067 58015
94908KDBQ DBQ20050210175513102/10/05 17:55:31  5-MIN KDBQ 102355Z 19005KT 10SM CLR M07/M11 A3020 820 77 -1600 190/05 RMK AO2 SLP247 T10721106 11044 21072 58007
94908KDBQ DBQ20050210180009602/10/05 18:00:31  5-MIN KDBQ 110000Z 19006KT 10SM CLR M07/M11 A3019 830 74 -1600 190/06 RMK AO2
94908KDBQ DBQ20050210180509602/10/05 18:05:31  5-MIN KDBQ 110005Z 20007KT 10SM CLR M07/M11 A3019 830 74 -1600 200/07 RMK AO2
94908KDBQ DBQ20050210181009602/10/05 18:10:31  5-MIN KDBQ 110010Z 20006KT 10SM CLR M08/M11 A3019 830 77 -1700 200/06 RMK AO2
94908KDBQ DBQ20050210181509602/10/05 18:15:31  5-MIN KDBQ 110015Z 23006KT 10SM CLR M08/M11 A3020 820 77 -1700 230/06 RMK AO2
94908KDBQ DBQ20050210182009602/10/05 18:20:31  5-MIN KDBQ 110020Z 24008KT 10SM CLR M08/M11 A3020 820 77 -1700 240/08 RMK AO2
94908KDBQ DBQ20050210182509602/10/05 18:25:31  5-MIN KDBQ 110025Z 24008KT 10SM CLR M07/M11 A3020 820 77 -1600 240/08 RMK AO2
94908KDBQ DBQ20050210183009602/10/05 18:30:31  5-MIN KDBQ 110030Z 23007KT 10SM CLR M07/M11 A3020 820 77 -1600 230/07 RMK AO2
94908KDBQ DBQ20050210183509602/10/05 18:35:31  5-MIN KDBQ 110035Z 23007KT 10SM CLR M07/M11 A3019 830 77 -1600 220/07 RMK AO2
94908KDBQ DBQ20050210184009502/10/05 18:40:31  5-MIN KDBQ 110040Z 22008KT 9SM CLR M07/M11 A3018 840 77 -1600 220/08 RMK AO2
94908KDBQ DBQ20050210184509502/10/05 18:45:31  5-MIN KDBQ 110045Z 22009KT 9SM CLR M07/M11 A3018 840 77 -1600 220/09 RMK AO2
94908KDBQ DBQ20050210185011202/10/05 18:50:31  5-MIN KDBQ 110050Z 22008KT 9SM CLR M07/M11 A3018 840 77 -1600 220/08 RMK AO2 SLP242 T10721106
94908KDBQ DBQ20050210185511202/10/05 18:55:31  5-MIN KDBQ 110055Z 22007KT 9SM CLR M08/M11 A3018 840 80 -1700 220/07 RMK AO2 SLP242 T10781106
94908KDBQ DBQ20050210190009502/10/05 19:00:31  5-MIN KDBQ 110100Z 22008KT 9SM CLR M08/M11 A3018 840 77 -1700 220/08 RMK AO2
94908KDBQ DBQ20050210190509502/10/05 19:05:31  5-MIN KDBQ 110105Z 22009KT 9SM CLR M08/M11 A3018 840 77 -1700 220/09 RMK AO2
94908KDBQ DBQ20050210191009502/10/05 19:10:31  5-MIN KDBQ 110110Z 22008KT 9SM CLR M08/M11 A3018 840 80 -1800 220/08 RMK AO2
94908KDBQ DBQ20050210191509502/10/05 19:15:31  5-MIN KDBQ 110115Z 21008KT 8SM CLR M08/M11 A3018 840 80 -1800 210/08 RMK AO2
94908KDBQ DBQ20050210192009502/10/05 19:20:31  5-MIN KDBQ 110120Z 21008KT 8SM CLR M08/M11 A3018 840 77 -1700 210/08 RMK AO2
94908KDBQ DBQ20050210192509502/10/05 19:25:31  5-MIN KDBQ 110125Z 20007KT 8SM CLR M08/M11 A3017 850 77 -1700 200/07 RMK AO2
94908KDBQ DBQ20050210193009502/10/05 19:30:31  5-MIN KDBQ 110130Z 21007KT 8SM CLR M08/M12 A3017 850 77 -1800 210/07 RMK AO2
94908KDBQ DBQ20050210193509502/10/05 19:35:31  5-MIN KDBQ 110135Z 22006KT 8SM CLR M08/M12 A3017 850 77 -1800 210/06 RMK AO2
94908KDBQ DBQ20050210194009502/10/05 19:40:31  5-MIN KDBQ 110140Z 22007KT 8SM CLR M09/M12 A3017 850 80 -1800 220/07 RMK AO2
94908KDBQ DBQ20050210194509502/10/05 19:45:31  5-MIN KDBQ 110145Z 22007KT 8SM CLR M09/M12 A3017 850 80 -1800 220/07 RMK AO2
94908KDBQ DBQ20050210195012202/10/05 19:50:31  5-MIN KDBQ 110150Z AUTO 21008KT 8SM CLR M08/M12 A3016 850 77 -1700 210/08 RMK AO2 SLP236 T10831117 TSNO
94908KDBQ DBQ20050210195512202/10/05 19:55:31  5-MIN KDBQ 110155Z AUTO 21008KT 8SM CLR M09/M12 A3016 860 80 -1800 210/08 RMK AO2 SLP233 T10891117 TSNO
94908KDBQ DBQ20050210200010502/10/05 20:00:31  5-MIN KDBQ 110200Z AUTO 21009KT 8SM CLR M08/M12 A3015 860 77 -1700 210/09 RMK AO2 TSNO
94908KDBQ DBQ20050210200510502/10/05 20:05:31  5-MIN KDBQ 110205Z AUTO 20008KT 8SM CLR M08/M11 A3015 860 80 -1700 200/08 RMK AO2 TSNO
94908KDBQ DBQ20050210201010502/10/05 20:10:31  5-MIN KDBQ 110210Z AUTO 21008KT 8SM CLR M08/M11 A3016 860 80 -1700 210/08 RMK AO2 TSNO
94908KDBQ DBQ20050210201510502/10/05 20:15:31  5-MIN KDBQ 110215Z AUTO 21008KT 8SM CLR M08/M11 A3015 860 77 -1700 210/08 RMK AO2 TSNO
94908KDBQ DBQ20050210202010502/10/05 20:20:31  5-MIN KDBQ 110220Z AUTO 22008KT 8SM CLR M08/M11 A3016 860 80 -1700 220/08 RMK AO2 TSNO
94908KDBQ DBQ20050210202510502/10/05 20:25:31  5-MIN KDBQ 110225Z AUTO 22008KT 8SM CLR M08/M11 A3016 860 80 -1700 220/08 RMK AO2 TSNO
94908KDBQ DBQ20050210203010502/10/05 20:30:31  5-MIN KDBQ 110230Z AUTO 23008KT 8SM CLR M09/M12 A3016 850 80 -1800 230/08 RMK AO2 TSNO
94908KDBQ DBQ20050210203510502/10/05 20:35:31  5-MIN KDBQ 110235Z AUTO 24010KT 8SM CLR M09/M12 A3017 850 80 -1800 240/10 RMK AO2 TSNO
94908KDBQ DBQ20050210204010502/10/05 20:40:31  5-MIN KDBQ 110240Z AUTO 23010KT 8SM CLR M09/M12 A3016 850 80 -1800 230/10 RMK AO2 TSNO
94908KDBQ DBQ20050210204510502/10/05 20:45:31  5-MIN KDBQ 110245Z AUTO 23010KT 8SM CLR M09/M12 A3016 860 80 -1800 230/10 RMK AO2 TSNO
94908KDBQ DBQ20050210205012802/10/05 20:50:31  5-MIN KDBQ 110250Z AUTO 23010KT 8SM CLR M09/M12 A3016 860 80 -1800 220/10 RMK AO2 SLP234 T10891117 58007 TSNO
94908KDBQ DBQ20050210205512802/10/05 20:55:31  5-MIN KDBQ 110255Z AUTO 22008KT 8SM CLR M08/M11 A3016 860 80 -1700 220/08 RMK AO2 SLP232 T10831111 56014 TSNO
94908KDBQ DBQ20050210210010502/10/05 21:00:31  5-MIN KDBQ 110300Z AUTO 21007KT 8SM CLR M09/M12 A3016 860 80 -1800 210/07 RMK AO2 TSNO
94908KDBQ DBQ20050210210510502/10/05 21:05:31  5-MIN KDBQ 110305Z AUTO 21008KT 8SM CLR M09/M12 A3016 860 80 -1800 210/08 RMK AO2 TSNO
94908KDBQ DBQ20050210211010502/10/05 21:10:31  5-MIN KDBQ 110310Z AUTO 22008KT 7SM CLR M09/M12 A3016 860 80 -1800 220/08 RMK AO2 TSNO
94908KDBQ DBQ20050210211510502/10/05 21:15:31  5-MIN KDBQ 110315Z AUTO 22007KT 7SM CLR M09/M12 A3016 860 80 -1800 220/07 RMK AO2 TSNO
94908KDBQ DBQ20050210212010502/10/05 21:20:31  5-MIN KDBQ 110320Z AUTO 21008KT 7SM CLR M09/M12 A3016 860 80 -1800 210/08 RMK AO2 TSNO
94908KDBQ DBQ20050210212510502/10/05 21:25:31  5-MIN KDBQ 110325Z AUTO 21008KT 7SM CLR M09/M12 A3015 860 80 -1800 210/08 RMK AO2 TSNO
94908KDBQ DBQ20050210213010502/10/05 21:30:31  5-MIN KDBQ 110330Z AUTO 21009KT 7SM CLR M09/M12 A3015 870 80 -1800 210/09 RMK AO2 TSNO
94908KDBQ DBQ20050210213510802/10/05 21:35:31  5-MIN KDBQ 110335Z AUTO 21008KT 7SM FEW120 M08/M11 A3015 870 80 -1700 210/08 RMK AO2 TSNO
94908KDBQ DBQ20050210214010802/10/05 21:40:31  5-MIN KDBQ 110340Z AUTO 21008KT 7SM SCT120 M08/M11 A3015 870 84 -1700 210/08 RMK AO2 TSNO
94908KDBQ DBQ20050210214510802/10/05 21:45:31  5-MIN KDBQ 110345Z AUTO 22007KT 8SM BKN120 M08/M11 A3015 870 84 -1700 220/07 RMK AO2 TSNO
94908KDBQ DBQ20050210215012502/10/05 21:50:31  5-MIN KDBQ 110350Z AUTO 22008KT 8SM BKN110 M08/M11 A3014 870 84 -1700 220/08 RMK AO2 SLP227 T10831106 TSNO
94908KDBQ DBQ20050210215512502/10/05 21:55:31  5-MIN KDBQ 110355Z AUTO 21008KT 8SM BKN120 M08/M11 A3014 880 84 -1700 210/08 RMK AO2 SLP225 T10831106 TSNO
94908KDBQ DBQ20050210220010802/10/05 22:00:31  5-MIN KDBQ 110400Z AUTO 21010KT 8SM OVC110 M08/M11 A3013 890 80 -1600 210/10 RMK AO2 TSNO
94908KDBQ DBQ20050210220510802/10/05 22:05:31  5-MIN KDBQ 110405Z AUTO 21011KT 8SM BKN110 M08/M11 A3013 890 80 -1600 210/11 RMK AO2 TSNO
94908KDBQ DBQ20050210221010802/10/05 22:10:31  5-MIN KDBQ 110410Z AUTO 21011KT 9SM BKN110 M08/M11 A3012 890 80 -1600 210/11 RMK AO2 TSNO
94908KDBQ DBQ20050210221510802/10/05 22:15:31  5-MIN KDBQ 110415Z AUTO 21012KT 9SM OVC110 M07/M10 A3012 900 81 -1500 210/12 RMK AO2 TSNO
94908KDBQ DBQ20050210222010802/10/05 22:20:31  5-MIN KDBQ 110420Z AUTO 21012KT 9SM OVC110 M07/M10 A3012 900 81 -1500 210/12 RMK AO2 TSNO
94908KDBQ DBQ20050210222510802/10/05 22:25:31  5-MIN KDBQ 110425Z AUTO 21012KT 9SM OVC100 M07/M10 A3012 890 81 -1600 210/12 RMK AO2 TSNO
94908KDBQ DBQ20050210223010802/10/05 22:30:31  5-MIN KDBQ 110430Z AUTO 21010KT 9SM BKN100 M07/M10 A3012 890 81 -1600 210/10 RMK AO2 TSNO
94908KDBQ DBQ20050210223510802/10/05 22:35:31  5-MIN KDBQ 110435Z AUTO 21012KT 9SM BKN100 M07/M10 A3011 900 81 -1500 210/12 RMK AO2 TSNO
94908KDBQ DBQ20050210224010802/10/05 22:40:31  5-MIN KDBQ 110440Z AUTO 21013KT 9SM OVC100 M07/M10 A3011 900 81 -1500 210/13 RMK AO2 TSNO
94908KDBQ DBQ20050210224510802/10/05 22:45:31  5-MIN KDBQ 110445Z AUTO 21014KT 9SM OVC100 M07/M10 A3011 900 77 -1500 210/14 RMK AO2 TSNO
94908KDBQ DBQ20050210225013202/10/05 22:50:31  5-MIN KDBQ 110450Z AUTO 21012KT 9SM SCT070 OVC100 M07/M10 A3011 900 77 -1500 210/12 RMK AO2 SLP214 T10671100 TSNO
94908KDBQ DBQ20050210225513202/10/05 22:55:31  5-MIN KDBQ 110455Z AUTO 21011KT 9SM BKN065 OVC100 M07/M10 A3011 900 77 -1500 210/11 RMK AO2 SLP214 T10671100 TSNO
94908KDBQ DBQ20050210230011502/10/05 23:00:31  5-MIN KDBQ 110500Z AUTO 21011KT 9SM BKN070 OVC100 M07/M09 A3011 910 81 -1500 210/11 RMK AO2 TSNO
94908KDBQ DBQ20050210230511502/10/05 23:05:31  5-MIN KDBQ 110505Z AUTO 21011KT 9SM BKN070 OVC095 M07/M09 A3010 910 81 -1500 210/11 RMK AO2 TSNO
94908KDBQ DBQ20050210231011502/10/05 23:10:31  5-MIN KDBQ 110510Z AUTO 22011KT 9SM BKN070 OVC090 M07/M09 A3011 910 81 -1500 220/11 RMK AO2 TSNO
94908KDBQ DBQ20050210231511502/10/05 23:15:31  5-MIN KDBQ 110515Z AUTO 22010KT 9SM BKN070 OVC090 M07/M09 A3011 910 81 -1500 220/10 RMK AO2 TSNO
94908KDBQ DBQ20050210232011502/10/05 23:20:31  5-MIN KDBQ 110520Z AUTO 22010KT 9SM BKN070 OVC090 M07/M09 A3010 910 81 -1500 220/10 RMK AO2 TSNO
94908KDBQ DBQ20050210232511502/10/05 23:25:31  5-MIN KDBQ 110525Z AUTO 21010KT 9SM BKN070 OVC090 M06/M09 A3011 910 77 -1400 210/10 RMK AO2 TSNO
94908KDBQ DBQ20050210233011502/10/05 23:30:31  5-MIN KDBQ 110530Z AUTO 21010KT 9SM BKN060 OVC090 M06/M09 A3011 910 81 -1400 210/10 RMK AO2 TSNO
94908KDBQ DBQ20050210233512202/10/05 23:35:31  5-MIN KDBQ 110535Z AUTO 21010KT 9SM BKN048 BKN065 OVC090 M06/M09 A3010 910 81 -1400 210/10 RMK AO2 TSNO
94908KDBQ DBQ20050210234012202/10/05 23:40:31  5-MIN KDBQ 110540Z AUTO 21011KT 8SM BKN046 BKN075 OVC090 M06/M09 A3010 910 81 -1400 210/11 RMK AO2 TSNO
94908KDBQ DBQ20050210234511502/10/05 23:45:31  5-MIN KDBQ 110545Z AUTO 21011KT 8SM BKN050 OVC075 M06/M09 A3010 910 81 -1400 210/11 RMK AO2 TSNO
94908KDBQ DBQ20050210235016702/10/05 23:50:31  5-MIN KDBQ 110550Z AUTO 21010KT 9SM BKN047 BKN055 OVC075 M06/M09 A3010 910 77 -1300 210/10 RMK AO2 SLP209 T10561089 11056 21089 410441144 56014 TSNO
94908KDBQ DBQ20050210235516002/10/05 23:55:31  5-MIN KDBQ 110555Z AUTO 21010KT 9SM BKN047 OVC075 M06/M09 A3010 920 77 -1300 210/10 RMK AO2 SLP209 T10561089 11056 21089 410441144 56020 TSNO
94908KDBQ DBQ20050211000014002/11/05 00:00:38  5-MIN KDBQ 110600Z AUTO 22011KT 6SM -SN BKN047 BKN060 OVC075 M06/M09 A3010 920 77 -1300 210/11 RMK AO2 SNB0559 P0000 TSNO
94908KDBQ DBQ20050211000514002/11/05 00:05:31  5-MIN KDBQ 110605Z AUTO 22012KT 4SM -SN SCT047 BKN055 OVC070 M06/M08 A3009 920 81 -1300 220/12 RMK AO2 SNB0559 P0000 TSNO
94908KDBQ DBQ20050211001014002/11/05 00:10:31  5-MIN KDBQ 110610Z AUTO 22014KT 5SM -SN SCT037 BKN047 OVC070 M06/M08 A3009 920 81 -1300 220/14 RMK AO2 SNB0559 P0000 TSNO
94908KDBQ DBQ20050211001514002/11/05 00:15:31  5-MIN KDBQ 110615Z AUTO 22013KT 6SM -SN FEW032 BKN047 OVC065 M06/M08 A3009 930 81 -1300 220/13 RMK AO2 SNB0559 P0000 TSNO
94908KDBQ DBQ20050211002014002/11/05 00:20:31  5-MIN KDBQ 110620Z AUTO 22012KT 6SM -SN FEW032 BKN049 OVC060 M06/M08 A3009 920 81 -1300 220/12 RMK AO2 SNB0559 P0000 TSNO
94908KDBQ DBQ20050211002513902/11/05 00:25:31  5-MIN KDBQ 110625Z AUTO 22012KT 7SM FEW035 BKN049 OVC060 M06/M08 A3009 920 81 -1300 220/12 RMK AO2 SNB0559E23 P0000 TSNO
94908KDBQ DBQ20050211003013902/11/05 00:30:31  5-MIN KDBQ 110630Z AUTO 22011KT 8SM FEW030 BKN049 OVC060 M06/M08 A3009 920 81 -1300 220/11 RMK AO2 SNB0559E23 P0000 TSNO
94908KDBQ DBQ20050211003513902/11/05 00:35:31  5-MIN KDBQ 110635Z AUTO 22011KT 9SM FEW027 BKN049 OVC060 M06/M08 A3008 930 81 -1300 220/11 RMK AO2 SNB0559E23 P0000 TSNO
94908KDBQ DBQ20050211004013202/11/05 00:40:31  5-MIN KDBQ 110640Z AUTO 22011KT 9SM BKN049 OVC060 M06/M08 A3009 930 81 -1300 220/11 RMK AO2 SNB0559E23 P0000 TSNO
94908KDBQ DBQ20050211004513202/11/05 00:45:31  5-MIN KDBQ 110645Z AUTO 22011KT 9SM BKN049 OVC060 M06/M09 A3008 930 81 -1400 220/11 RMK AO2 SNB0559E23 P0000 TSNO
94908KDBQ DBQ20050211005014202/11/05 00:50:31  5-MIN KDBQ 110650Z AUTO 22010KT 9SM BKN049 M06/M09 A3008 930 81 -1400 220/10 RMK AO2 SNB0559E23 SLP203 P0000 T10611089 TSNO
94908KDBQ DBQ20050211012010502/11/05 01:20:31  5-MIN KDBQ 110720Z AUTO 23009KT 9SM CLR M07/M09 A3007 940 84 -1500 230/09 RMK AO2 TSNO
94908KDBQ DBQ20050211012510502/11/05 01:25:31  5-MIN KDBQ 110725Z AUTO 23009KT 9SM CLR M07/M09 A3007 940 84 -1500 230/09 RMK AO2 TSNO
94908KDBQ DBQ20050211013010502/11/05 01:30:31  5-MIN KDBQ 110730Z AUTO 23009KT 9SM CLR M07/M10 A3007 940 81 -1500 230/09 RMK AO2 TSNO
94908KDBQ DBQ20050211013510502/11/05 01:35:31  5-MIN KDBQ 110735Z AUTO 23006KT 9SM CLR M07/M10 A3007 940 81 -1500 230/06 RMK AO2 TSNO
94908KDBQ DBQ20050211014010502/11/05 01:40:31  5-MIN KDBQ 110740Z AUTO 22006KT 8SM CLR M07/M10 A3007 940 81 -1500 220/06 RMK AO2 TSNO
94908KDBQ DBQ20050211014510502/11/05 01:45:31  5-MIN KDBQ 110745Z AUTO 23007KT 8SM CLR M07/M10 A3007 940 81 -1500 230/07 RMK AO2 TSNO
94908KDBQ DBQ20050211015012202/11/05 01:50:31  5-MIN KDBQ 110750Z AUTO 22009KT 8SM CLR M07/M10 A3007 940 81 -1500 220/09 RMK AO2 SLP200 T10721100 TSNO
94908KDBQ DBQ20050211015512202/11/05 01:55:31  5-MIN KDBQ 110755Z AUTO 23008KT 8SM CLR M07/M10 A3007 940 81 -1500 230/08 RMK AO2 SLP200 T10721100 TSNO
94908KDBQ DBQ20050211020010502/11/05 02:00:31  5-MIN KDBQ 110800Z AUTO 22006KT 8SM CLR M07/M10 A3007 940 81 -1500 220/06 RMK AO2 TSNO
94908KDBQ DBQ20050211020510502/11/05 02:05:31  5-MIN KDBQ 110805Z AUTO 21005KT 8SM CLR M07/M09 A3006 950 84 -1500 210/05 RMK AO2 TSNO
94908KDBQ DBQ20050211021010502/11/05 02:10:31  5-MIN KDBQ 110810Z AUTO 20004KT 8SM CLR M08/M09 A3006 950 88 -1600 200/04 RMK AO2 TSNO
94908KDBQ DBQ20050211021510502/11/05 02:15:31  5-MIN KDBQ 110815Z AUTO 18003KT 8SM CLR M08/M10 A3006 950 84 -1600 180/03 RMK AO2 TSNO
94908KDBQ DBQ20050211022010502/11/05 02:20:31  5-MIN KDBQ 110820Z AUTO 00000KT 8SM CLR M08/M10 A3006 950 84 -1600 000/00 RMK AO2 TSNO
94908KDBQ DBQ20050211022510502/11/05 02:25:31  5-MIN KDBQ 110825Z AUTO VRB04KT 8SM CLR M08/M10 A3006 950 84 -1600 VRB/04 RMK AO2 TSNO
94908KDBQ DBQ20050211023010502/11/05 02:30:31  5-MIN KDBQ 110830Z AUTO 22004KT 8SM CLR M08/M09 A3006 950 88 -1600 220/04 RMK AO2 TSNO
94908KDBQ DBQ20050211023510502/11/05 02:35:31  5-MIN KDBQ 110835Z AUTO 24006KT 8SM CLR M08/M09 A3006 950 88 -1600 230/06 RMK AO2 TSNO
94908KDBQ DBQ20050211024010502/11/05 02:40:31  5-MIN KDBQ 110840Z AUTO 24006KT 8SM CLR M07/M09 A3006 950 84 -1500 230/06 RMK AO2 TSNO
94908KDBQ DBQ20050211024510502/11/05 02:45:31  5-MIN KDBQ 110845Z AUTO 24006KT 8SM CLR M07/M09 A3006 950 84 -1500 240/06 RMK AO2 TSNO
94908KDBQ DBQ20050211025013402/11/05 02:50:31  5-MIN KDBQ 110850Z AUTO 25007KT 7SM CLR M07/M09 A3006 950 84 -1500 250/07 RMK AO2 SLP196 60000 T10721094 56020 TSNO
94908KDBQ DBQ20050211025513402/11/05 02:55:31  5-MIN KDBQ 110855Z AUTO 26008KT 7SM CLR M07/M09 A3006 950 84 -1500 250/08 RMK AO2 SLP197 60000 T10721094 56012 TSNO
94908KDBQ DBQ20050211030010502/11/05 03:00:31  5-MIN KDBQ 110900Z AUTO 26007KT 7SM CLR M07/M09 A3006 950 84 -1400 260/07 RMK AO2 TSNO
94908KDBQ DBQ20050211030510502/11/05 03:05:31  5-MIN KDBQ 110905Z AUTO 26007KT 7SM CLR M07/M09 A3006 950 84 -1400 260/07 RMK AO2 TSNO
94908KDBQ DBQ20050211031010502/11/05 03:10:31  5-MIN KDBQ 110910Z AUTO 26007KT 7SM CLR M07/M09 A3006 950 84 -1400 260/07 RMK AO2 TSNO
94908KDBQ DBQ20050211031510502/11/05 03:15:31  5-MIN KDBQ 110915Z AUTO 26008KT 7SM CLR M07/M09 A3006 950 84 -1400 260/08 RMK AO2 TSNO
94908KDBQ DBQ20050211032010502/11/05 03:20:31  5-MIN KDBQ 110920Z AUTO 27007KT 7SM CLR M07/M09 A3006 950 84 -1400 270/07 RMK AO2 TSNO
94908KDBQ DBQ20050211032510502/11/05 03:25:31  5-MIN KDBQ 110925Z AUTO 28007KT 7SM CLR M07/M09 A3006 950 84 -1400 270/07 RMK AO2 TSNO
94908KDBQ DBQ20050211033010502/11/05 03:30:31  5-MIN KDBQ 110930Z AUTO 28009KT 7SM CLR M07/M09 A3006 950 84 -1400 280/09 RMK AO2 TSNO
94908KDBQ DBQ20050211033510502/11/05 03:35:31  5-MIN KDBQ 110935Z AUTO 28009KT 7SM CLR M07/M09 A3006 950 84 -1400 280/09 RMK AO2 TSNO
94908KDBQ DBQ20050211034010502/11/05 03:40:31  5-MIN KDBQ 110940Z AUTO 28010KT 7SM CLR M06/M09 A3006 950 81 -1300 280/10 RMK AO2 TSNO
94908KDBQ DBQ20050211034510502/11/05 03:45:31  5-MIN KDBQ 110945Z AUTO 28010KT 7SM CLR M06/M08 A3006 950 84 -1300 280/10 RMK AO2 TSNO
94908KDBQ DBQ20050211035012202/11/05 03:50:31  5-MIN KDBQ 110950Z AUTO 28009KT 7SM CLR M06/M08 A3006 950 84 -1300 280/09 RMK AO2 SLP198 T10611083 TSNO
94908KDBQ DBQ20050211035512202/11/05 03:55:31  5-MIN KDBQ 110955Z AUTO 28009KT 7SM CLR M06/M08 A3006 950 84 -1300 280/09 RMK AO2 SLP198 T10611083 TSNO
94908KDBQ DBQ20050211040010502/11/05 04:00:31  5-MIN KDBQ 111000Z AUTO 28010KT 7SM CLR M06/M08 A3007 940 84 -1300 280/10 RMK AO2 TSNO
94908KDBQ DBQ20050211040510502/11/05 04:05:31  5-MIN KDBQ 111005Z AUTO 28009KT 7SM CLR M07/M09 A3007 940 84 -1400 280/09 RMK AO2 TSNO
94908KDBQ DBQ20050211041010502/11/05 04:10:31  5-MIN KDBQ 111010Z AUTO 28009KT 7SM CLR M06/M09 A3007 940 81 -1300 280/09 RMK AO2 TSNO
94908KDBQ DBQ20050211041510802/11/05 04:15:31  5-MIN KDBQ 111015Z AUTO 29009KT 6SM BR CLR M07/M09 A3007 940 84 -1400 280/09 RMK AO2 TSNO
94908KDBQ DBQ20050211042010802/11/05 04:20:31  5-MIN KDBQ 111020Z AUTO 28009KT 6SM BR CLR M07/M09 A3007 940 84 -1400 280/09 RMK AO2 TSNO
94908KDBQ DBQ20050211042510802/11/05 04:25:31  5-MIN KDBQ 111025Z AUTO 29009KT 6SM BR CLR M07/M09 A3007 940 84 -1400 280/09 RMK AO2 TSNO
94908KDBQ DBQ20050211043010802/11/05 04:30:31  5-MIN KDBQ 111030Z AUTO 29009KT 6SM BR CLR M07/M09 A3007 940 84 -1400 290/09 RMK AO2 TSNO
94908KDBQ DBQ20050211043510802/11/05 04:35:31  5-MIN KDBQ 111035Z AUTO 29009KT 6SM BR CLR M07/M09 A3007 940 84 -1400 290/09 RMK AO2 TSNO
94908KDBQ DBQ20050211044010802/11/05 04:40:31  5-MIN KDBQ 111040Z AUTO 29008KT 6SM BR CLR M07/M09 A3007 940 84 -1400 290/08 RMK AO2 TSNO
94908KDBQ DBQ20050211044510802/11/05 04:45:31  5-MIN KDBQ 111045Z AUTO 29008KT 6SM BR CLR M07/M09 A3007 940 84 -1400 280/08 RMK AO2 TSNO
94908KDBQ DBQ20050211045012502/11/05 04:50:31  5-MIN KDBQ 111050Z AUTO 28008KT 6SM BR CLR M07/M09 A3007 940 84 -1400 280/08 RMK AO2 SLP200 T10671089 TSNO
94908KDBQ DBQ20050211045512502/11/05 04:55:31  5-MIN KDBQ 111055Z AUTO 27008KT 6SM BR CLR M07/M09 A3007 940 88 -1500 270/08 RMK AO2 SLP203 T10721089 TSNO
94908KDBQ DBQ20050211050010802/11/05 05:00:31  5-MIN KDBQ 111100Z AUTO 29007KT 6SM BR CLR M07/M09 A3008 930 84 -1400 290/07 RMK AO2 TSNO
94908KDBQ DBQ20050211050510802/11/05 05:05:31  5-MIN KDBQ 111105Z AUTO 30008KT 6SM BR CLR M07/M09 A3007 940 88 -1500 300/08 RMK AO2 TSNO
94908KDBQ DBQ20050211051010802/11/05 05:10:31  5-MIN KDBQ 111110Z AUTO 30009KT 6SM BR CLR M07/M09 A3007 940 84 -1400 290/09 RMK AO2 TSNO
94908KDBQ DBQ20050211051510502/11/05 05:15:31  5-MIN KDBQ 111115Z AUTO 29009KT 7SM CLR M07/M09 A3007 940 84 -1400 290/09 RMK AO2 TSNO
94908KDBQ DBQ20050211052010502/11/05 05:20:31  5-MIN KDBQ 111120Z AUTO 29010KT 7SM CLR M07/M09 A3008 930 84 -1400 290/10 RMK AO2 TSNO
94908KDBQ DBQ20050211052510502/11/05 05:25:31  5-MIN KDBQ 111125Z AUTO 28009KT 7SM CLR M07/M09 A3008 930 84 -1400 280/09 RMK AO2 TSNO
94908KDBQ DBQ20050211053010502/11/05 05:30:31  5-MIN KDBQ 111130Z AUTO 29008KT 7SM CLR M07/M09 A3008 930 84 -1400 290/08 RMK AO2 TSNO
94908KDBQ DBQ20050211053510502/11/05 05:35:31  5-MIN KDBQ 111135Z AUTO 29010KT 7SM CLR M07/M09 A3009 920 84 -1400 290/10 RMK AO2 TSNO
94908KDBQ DBQ20050211054009502/11/05 05:40:31  5-MIN KDBQ 111140Z 30008KT 7SM CLR M07/M09 A3009 930 84 -1400 300/08 RMK AO2
94908KDBQ DBQ20050211054509502/11/05 05:45:31  5-MIN KDBQ 111145Z 30011KT 7SM CLR M06/M08 A3009 920 84 -1400 300/11 RMK AO2
94908KDBQ DBQ20050211055013602/11/05 05:50:31  5-MIN KDBQ 111150Z 30013KT 7SM CLR M06/M08 A3009 920 84 -1400 300/13 RMK AO2 SLP208 60000 T10611083 11056 21078 56012
94908KDBQ DBQ20050211055513602/11/05 05:55:31  5-MIN KDBQ 111155Z 30010KT 7SM CLR M06/M08 A3010 910 84 -1400 300/10 RMK AO2 SLP211 60000 T10611083 11056 21078 53013
94908KDBQ DBQ20050211060009502/11/05 06:00:31  5-MIN KDBQ 111200Z 29008KT 7SM CLR M06/M08 A3010 910 84 -1400 290/08 RMK AO2
94908KDBQ DBQ20050211060509502/11/05 06:05:31  5-MIN KDBQ 111205Z 30009KT 7SM CLR M07/M08 A3010 920 88 -1500 300/09 RMK AO2
94908KDBQ DBQ20050211061009502/11/05 06:10:31  5-MIN KDBQ 111210Z 30010KT 7SM CLR M06/M08 A3010 910 84 -1400 300/10 RMK AO2
94908KDBQ DBQ20050211061509502/11/05 06:15:31  5-MIN KDBQ 111215Z 29008KT 7SM CLR M06/M08 A3010 910 84 -1400 290/08 RMK AO2
94908KDBQ DBQ20050211062009502/11/05 06:20:31  5-MIN KDBQ 111220Z 29010KT 7SM CLR M06/M08 A3010 910 84 -1400 290/10 RMK AO2
94908KDBQ DBQ20050211062509502/11/05 06:25:31  5-MIN KDBQ 111225Z 30009KT 7SM CLR M06/M08 A3011 910 84 -1400 300/09 RMK AO2
94908KDBQ DBQ20050211063009502/11/05 06:30:31  5-MIN KDBQ 111230Z 30009KT 7SM CLR M06/M08 A3011 910 84 -1400 300/09 RMK AO2
94908KDBQ DBQ20050211063509502/11/05 06:35:31  5-MIN KDBQ 111235Z 31008KT 7SM CLR M06/M08 A3010 910 84 -1400 300/08 RMK AO2
94908KDBQ DBQ20050211064009502/11/05 06:40:31  5-MIN KDBQ 111240Z 30007KT 7SM CLR M06/M08 A3010 910 84 -1400 300/07 RMK AO2
94908KDBQ DBQ20050211064509502/11/05 06:45:31  5-MIN KDBQ 111245Z 30009KT 7SM CLR M07/M08 A3010 910 88 -1500 300/09 RMK AO2
94908KDBQ DBQ20050211065011202/11/05 06:50:31  5-MIN KDBQ 111250Z 29008KT 7SM CLR M06/M08 A3010 910 84 -1400 290/08 RMK AO2 SLP211 T10611083
94908KDBQ DBQ20050211065511202/11/05 06:55:31  5-MIN KDBQ 111255Z 29009KT 8SM CLR M06/M08 A3010 910 84 -1400 290/09 RMK AO2 SLP212 T10611083
94908KDBQ DBQ20050211070009502/11/05 07:00:31  5-MIN KDBQ 111300Z 30009KT 8SM CLR M06/M08 A3010 910 84 -1400 290/09 RMK AO2
94908KDBQ DBQ20050211070509502/11/05 07:05:31  5-MIN KDBQ 111305Z 30009KT 7SM CLR M06/M08 A3009 920 84 -1400 300/09 RMK AO2
94908KDBQ DBQ20050211071009802/11/05 07:10:31  5-MIN KDBQ 111310Z 30008KT 6SM BR CLR M07/M08 A3009 920 88 -1400 300/08 RMK AO2
94908KDBQ DBQ20050211071509802/11/05 07:15:31  5-MIN KDBQ 111315Z 31007KT 6SM BR CLR M07/M08 A3009 920 88 -1400 310/07 RMK AO2
94908KDBQ DBQ20050211072009502/11/05 07:20:31  5-MIN KDBQ 111320Z 31008KT 7SM CLR M07/M08 A3009 920 88 -1400 310/08 RMK AO2
94908KDBQ DBQ20050211072509502/11/05 07:25:31  5-MIN KDBQ 111325Z 30008KT 7SM CLR M07/M08 A3009 920 88 -1400 300/08 RMK AO2
94908KDBQ DBQ20050211073009502/11/05 07:30:31  5-MIN KDBQ 111330Z 31008KT 8SM CLR M07/M08 A3009 920 88 -1400 310/08 RMK AO2
94908KDBQ DBQ20050211073509502/11/05 07:35:31  5-MIN KDBQ 111335Z 31009KT 8SM CLR M07/M08 A3010 920 88 -1500 310/09 RMK AO2
94908KDBQ DBQ20050211074009502/11/05 07:40:31  5-MIN KDBQ 111340Z 32009KT 8SM CLR M06/M08 A3010 920 88 -1400 310/09 RMK AO2
94908KDBQ DBQ20050211074509502/11/05 07:45:31  5-MIN KDBQ 111345Z 31009KT 8SM CLR M05/M08 A3010 910 81 -1200 310/09 RMK AO2
94908KDBQ DBQ20050211075011202/11/05 07:50:31  5-MIN KDBQ 111350Z 31009KT 9SM CLR M05/M07 A3010 910 84 -1200 310/09 RMK AO2 SLP212 T10501072
94908KDBQ DBQ20050211075511202/11/05 07:55:31  5-MIN KDBQ 111355Z 28007KT 9SM CLR M06/M08 A3011 910 84 -1300 280/07 RMK AO2 SLP213 T10561078
94908KDBQ DBQ20050211080009502/11/05 08:00:31  5-MIN KDBQ 111400Z 28008KT 8SM CLR M05/M08 A3010 910 81 -1200 280/08 RMK AO2
94908KDBQ DBQ20050211080509502/11/05 08:05:31  5-MIN KDBQ 111405Z 29009KT 8SM CLR M05/M07 A3011 910 84 -1300 280/09 RMK AO2
94908KDBQ DBQ20050211081009502/11/05 08:10:31  5-MIN KDBQ 111410Z 28010KT 8SM CLR M04/M07 A3011 900 81 -1200 280/10 RMK AO2
94908KDBQ DBQ20050211081509502/11/05 08:15:31  5-MIN KDBQ 111415Z 28008KT 9SM CLR M04/M07 A3011 900 81 -1200 280/08 RMK AO2
94908KDBQ DBQ20050211082009502/11/05 08:20:31  5-MIN KDBQ 111420Z 29009KT 8SM CLR M04/M07 A3011 900 81 -1200 290/09 RMK AO2
94908KDBQ DBQ20050211082509502/11/05 08:25:31  5-MIN KDBQ 111425Z 29010KT 9SM CLR M04/M07 A3012 900 81 -1200 280/10 RMK AO2
94908KDBQ DBQ20050211083009502/11/05 08:30:31  5-MIN KDBQ 111430Z 28009KT 9SM CLR M04/M07 A3012 890 81 -1200 280/09 RMK AO2
94908KDBQ DBQ20050211083509502/11/05 08:35:31  5-MIN KDBQ 111435Z 29007KT 9SM CLR M04/M07 A3012 890 81 -1200 290/07 RMK AO2
94908KDBQ DBQ20050211084009502/11/05 08:40:31  5-MIN KDBQ 111440Z 29007KT 9SM CLR M04/M07 A3013 890 78 -1100 290/07 RMK AO2
94908KDBQ DBQ20050211084509602/11/05 08:45:31  5-MIN KDBQ 111445Z 29007KT 10SM CLR M04/M07 A3012 890 81 -1100 290/07 RMK AO2
94908KDBQ DBQ20050211085011902/11/05 08:50:31  5-MIN KDBQ 111450Z 29008KT 10SM CLR M04/M07 A3012 890 81 -1100 290/08 RMK AO2 SLP219 T10391067 53013
94908KDBQ DBQ20050211085511902/11/05 08:55:31  5-MIN KDBQ 111455Z 29007KT 10SM CLR M03/M07 A3012 890 78 -1100 290/07 RMK AO2 SLP218 T10331067 53008
94908KDBQ DBQ20050211090009602/11/05 09:00:31  5-MIN KDBQ 111500Z 29007KT 10SM CLR M03/M06 A3012 890 81 -1100 290/07 RMK AO2
94908KDBQ DBQ20050211090509602/11/05 09:05:31  5-MIN KDBQ 111505Z 29006KT 10SM CLR M03/M06 A3012 890 81 -1100 290/06 RMK AO2
94908KDBQ DBQ20050211091009602/11/05 09:10:31  5-MIN KDBQ 111510Z 28007KT 10SM CLR M03/M06 A3012 890 78 -1000 280/07 RMK AO2
94908KDBQ DBQ20050211091509602/11/05 09:15:31  5-MIN KDBQ 111515Z 28007KT 10SM CLR M03/M06 A3012 900 78 -1000 280/07 RMK AO2
94908KDBQ DBQ20050211092009602/11/05 09:20:31  5-MIN KDBQ 111520Z 28007KT 10SM CLR M03/M06 A3012 890 78 -1000 280/07 RMK AO2
94908KDBQ DBQ20050211092509602/11/05 09:25:31  5-MIN KDBQ 111525Z 27006KT 10SM CLR M03/M06 A3012 900 81 -1000 270/06 RMK AO2
94908KDBQ DBQ20050211093009602/11/05 09:30:31  5-MIN KDBQ 111530Z 29006KT 10SM CLR M03/M06 A3012 900 78 -1000 290/06 RMK AO2
94908KDBQ DBQ20050211093509502/11/05 09:35:31  5-MIN KDBQ 111535Z 29006KT 10SM CLR M02/M06 A3012 900 78 -900 290/06 RMK AO2
94908KDBQ DBQ20050211094009502/11/05 09:40:31  5-MIN KDBQ 111540Z 31006KT 10SM CLR M02/M06 A3011 900 78 -900 310/06 RMK AO2
94908KDBQ DBQ20050211094509502/11/05 09:45:31  5-MIN KDBQ 111545Z 31007KT 10SM CLR M02/M05 A3012 900 78 -800 310/07 RMK AO2
94908KDBQ DBQ20050211095011202/11/05 09:50:31  5-MIN KDBQ 111550Z 30006KT 10SM CLR M02/M05 A3012 900 78 -800 300/06 RMK AO2 SLP215 T10171050
94908KDBQ DBQ20050211095511202/11/05 09:55:31  5-MIN KDBQ 111555Z 29005KT 10SM CLR M01/M05 A3011 900 75 -800 290/05 RMK AO2 SLP212 T10111050
94908KDBQ DBQ20050211100009502/11/05 10:00:31  5-MIN KDBQ 111600Z 28007KT 10SM CLR M01/M05 A3011 900 75 -800 280/07 RMK AO2
94908KDBQ DBQ20050211100509502/11/05 10:05:31  5-MIN KDBQ 111605Z 27007KT 10SM CLR M01/M05 A3011 900 75 -800 270/07 RMK AO2
94908KDBQ DBQ20050211101009502/11/05 10:10:31  5-MIN KDBQ 111610Z 26007KT 10SM CLR M01/M05 A3012 900 75 -800 260/07 RMK AO2
94908KDBQ DBQ20050211101509502/11/05 10:15:31  5-MIN KDBQ 111615Z 27007KT 10SM CLR M01/M05 A3012 900 75 -800 270/07 RMK AO2
94908KDBQ DBQ20050211102009502/11/05 10:20:31  5-MIN KDBQ 111620Z 28008KT 10SM CLR M01/M05 A3012 890 75 -800 280/08 RMK AO2
94908KDBQ DBQ20050211102509502/11/05 10:25:31  5-MIN KDBQ 111625Z 28007KT 10SM CLR M01/M05 A3012 890 72 -700 280/07 RMK AO2
94908KDBQ DBQ20050211103009502/11/05 10:30:31  5-MIN KDBQ 111630Z 26007KT 10SM CLR M01/M04 A3012 900 78 -800 260/07 RMK AO2
94908KDBQ DBQ20050211103509502/11/05 10:35:31  5-MIN KDBQ 111635Z 26008KT 10SM CLR M01/M04 A3011 900 75 -700 260/08 RMK AO2
94908KDBQ DBQ20050211104009502/11/05 10:40:31  5-MIN KDBQ 111640Z 26007KT 10SM CLR M01/M04 A3011 900 75 -700 260/07 RMK AO2
94908KDBQ DBQ20050211104509502/11/05 10:45:31  5-MIN KDBQ 111645Z 24007KT 10SM CLR M01/M04 A3011 900 75 -700 240/07 RMK AO2
94908KDBQ DBQ20050211105011202/11/05 10:50:31  5-MIN KDBQ 111650Z 25008KT 10SM CLR M01/M04 A3011 900 78 -800 250/08 RMK AO2 SLP212 T10111044
94908KDBQ DBQ20050211105511202/11/05 10:55:31  5-MIN KDBQ 111655Z 26007KT 10SM CLR M01/M04 A3011 910 78 -800 260/07 RMK AO2 SLP211 T10111044
94908KDBQ DBQ20050211110009502/11/05 11:00:31  5-MIN KDBQ 111700Z 29005KT 10SM CLR M01/M04 A3010 910 75 -700 290/05 RMK AO2
94908KDBQ DBQ20050211110509402/11/05 11:05:31  5-MIN KDBQ 111705Z 29006KT 10SM CLR 00/M04 A3010 910 72 -600 290/06 RMK AO2
94908KDBQ DBQ20050211111009402/11/05 11:10:31  5-MIN KDBQ 111710Z 29007KT 10SM CLR 00/M04 A3010 910 72 -600 290/07 RMK AO2
94908KDBQ DBQ20050211111509402/11/05 11:15:31  5-MIN KDBQ 111715Z 29007KT 10SM CLR 00/M04 A3010 910 72 -600 290/07 RMK AO2
94908KDBQ DBQ20050211112009402/11/05 11:20:31  5-MIN KDBQ 111720Z 29005KT 10SM CLR 01/M04 A3010 920 72 -500 290/05 RMK AO2
94908KDBQ DBQ20050211112509402/11/05 11:25:31  5-MIN KDBQ 111725Z 27005KT 10SM CLR 01/M04 A3009 920 72 -500 270/05 RMK AO2
94908KDBQ DBQ20050211113009402/11/05 11:30:31  5-MIN KDBQ 111730Z 24007KT 10SM CLR 01/M04 A3009 920 69 -500 240/07 RMK AO2
94908KDBQ DBQ20050211113509402/11/05 11:35:31  5-MIN KDBQ 111735Z 25007KT 10SM CLR 00/M04 A3009 920 75 -600 250/07 RMK AO2
94908KDBQ DBQ20050211114009402/11/05 11:40:31  5-MIN KDBQ 111740Z 25008KT 10SM CLR 00/M04 A3009 920 75 -600 250/08 RMK AO2
94908KDBQ DBQ20050211114509402/11/05 11:45:31  5-MIN KDBQ 111745Z 25009KT 10SM CLR 00/M04 A3009 920 75 -600 240/09 RMK AO2
94908KDBQ DBQ20050211115012902/11/05 11:50:31  5-MIN KDBQ 111750Z 25009KT 10SM CLR 00/M04 A3009 920 75 -600 240/09 RMK AO2 SLP206 T00001039 10006 21067 53008
94908KDBQ DBQ20050211115512902/11/05 11:55:31  5-MIN KDBQ 111755Z 25008KT 10SM CLR 00/M04 A3009 920 75 -600 250/08 RMK AO2 SLP206 T00001039 10006 21067 58009
94908KDBQ DBQ20050211120009402/11/05 12:00:31  5-MIN KDBQ 111800Z 25007KT 10SM CLR 01/M04 A3010 920 72 -500 250/07 RMK AO2
94908KDBQ DBQ20050211120509402/11/05 12:05:31  5-MIN KDBQ 111805Z 26006KT 10SM CLR 01/M04 A3009 920 72 -500 260/06 RMK AO2
94908KDBQ DBQ20050211121009402/11/05 12:10:31  5-MIN KDBQ 111810Z 25009KT 10SM CLR 01/M03 A3009 920 72 -500 240/09 RMK AO2
94908KDBQ DBQ20050211121509402/11/05 12:15:31  5-MIN KDBQ 111815Z 25010KT 10SM CLR 01/M03 A3009 920 72 -500 250/10 RMK AO2
94908KDBQ DBQ20050211122009402/11/05 12:20:31  5-MIN KDBQ 111820Z 26008KT 10SM CLR 01/M04 A3009 920 69 -500 260/08 RMK AO2
94908KDBQ DBQ20050211122509402/11/05 12:25:31  5-MIN KDBQ 111825Z 26010KT 10SM CLR 01/M04 A3009 920 69 -500 260/10 RMK AO2
94908KDBQ DBQ20050211123009402/11/05 12:30:31  5-MIN KDBQ 111830Z 25011KT 10SM CLR 01/M03 A3009 920 72 -500 250/11 RMK AO2
94908KDBQ DBQ20050211123509402/11/05 12:35:31  5-MIN KDBQ 111835Z 25010KT 10SM CLR 01/M03 A3009 920 72 -500 250/10 RMK AO2
94908KDBQ DBQ20050211124009402/11/05 12:40:31  5-MIN KDBQ 111840Z 26009KT 10SM CLR 01/M03 A3010 920 72 -500 260/09 RMK AO2
94908KDBQ DBQ20050211124509402/11/05 12:45:31  5-MIN KDBQ 111845Z 27011KT 10SM CLR 02/M04 A3009 920 66 -400 270/11 RMK AO2
94908KDBQ DBQ20050211125011102/11/05 12:50:31  5-MIN KDBQ 111850Z 27012KT 10SM CLR 02/M04 A3009 920 66 -400 270/12 RMK AO2 SLP204 T00171039
94908KDBQ DBQ20050211125511102/11/05 12:55:31  5-MIN KDBQ 111855Z 26012KT 10SM CLR 02/M04 A3009 920 66 -400 260/12 RMK AO2 SLP204 T00171039
94908KDBQ DBQ20050211130009402/11/05 13:00:31  5-MIN KDBQ 111900Z 26010KT 10SM CLR 02/M03 A3009 920 69 -400 260/10 RMK AO2
94908KDBQ DBQ20050211130509402/11/05 13:05:31  5-MIN KDBQ 111905Z 25011KT 10SM CLR 02/M03 A3009 920 69 -400 250/11 RMK AO2
94908KDBQ DBQ20050211131009402/11/05 13:10:31  5-MIN KDBQ 111910Z 26012KT 10SM CLR 02/M03 A3009 920 67 -300 260/12 RMK AO2
94908KDBQ DBQ20050211131509402/11/05 13:15:31  5-MIN KDBQ 111915Z 25011KT 10SM CLR 02/M03 A3008 930 69 -300 250/11 RMK AO2
94908KDBQ DBQ20050211132009402/11/05 13:20:31  5-MIN KDBQ 111920Z 25013KT 10SM CLR 02/M03 A3008 930 69 -300 250/13 RMK AO2
94908KDBQ DBQ20050211132509402/11/05 13:25:31  5-MIN KDBQ 111925Z 25014KT 10SM CLR 02/M03 A3009 930 69 -300 250/14 RMK AO2
94908KDBQ DBQ20050211133009402/11/05 13:30:31  5-MIN KDBQ 111930Z 26013KT 10SM CLR 02/M03 A3008 930 69 -300 250/13 RMK AO2
94908KDBQ DBQ20050211133509402/11/05 13:35:31  5-MIN KDBQ 111935Z 26012KT 10SM CLR 02/M03 A3007 940 67 -300 260/12 RMK AO2
94908KDBQ DBQ20050211134009402/11/05 13:40:31  5-MIN KDBQ 111940Z 26013KT 10SM CLR 03/M03 A3007 940 64 -200 260/13 RMK AO2
94908KDBQ DBQ20050211134509402/11/05 13:45:31  5-MIN KDBQ 111945Z 26013KT 10SM CLR 03/M03 A3008 930 64 -200 260/13 RMK AO2
94908KDBQ DBQ20050211135011102/11/05 13:50:31  5-MIN KDBQ 111950Z 26012KT 10SM CLR 03/M03 A3007 940 64 -200 250/12 RMK AO2 SLP197 T00281033
94908KDBQ DBQ20050211135511102/11/05 13:55:31  5-MIN KDBQ 111955Z 25012KT 10SM CLR 03/M03 A3007 940 64 -200 250/12 RMK AO2 SLP196 T00281033
94908KDBQ DBQ20050211140009402/11/05 14:00:31  5-MIN KDBQ 112000Z 26013KT 10SM CLR 03/M03 A3007 940 67 -200 260/13 RMK AO2
94908KDBQ DBQ20050211140509402/11/05 14:05:31  5-MIN KDBQ 112005Z 27014KT 10SM CLR 03/M03 A3007 940 64 -200 260/14 RMK AO2
94908KDBQ DBQ20050211141009402/11/05 14:10:31  5-MIN KDBQ 112010Z 26012KT 10SM CLR 03/M03 A3007 940 64 -200 260/12 RMK AO2
94908KDBQ DBQ20050211141509402/11/05 14:15:31  5-MIN KDBQ 112015Z 26011KT 10SM CLR 03/M03 A3007 940 67 -200 260/11 RMK AO2
94908KDBQ DBQ20050211142009402/11/05 14:20:31  5-MIN KDBQ 112020Z 26013KT 10SM CLR 03/M03 A3006 950 64 -200 260/13 RMK AO2
94908KDBQ DBQ20050211142509402/11/05 14:25:31  5-MIN KDBQ 112025Z 26012KT 10SM CLR 03/M03 A3006 950 67 -200 260/12 RMK AO2
94908KDBQ DBQ20050211143009402/11/05 14:30:31  5-MIN KDBQ 112030Z 25013KT 10SM CLR 03/M03 A3006 950 64 -200 250/13 RMK AO2
94908KDBQ DBQ20050211143509402/11/05 14:35:31  5-MIN KDBQ 112035Z 26011KT 10SM CLR 03/M03 A3006 950 64 -200 260/11 RMK AO2
94908KDBQ DBQ20050211144009402/11/05 14:40:31  5-MIN KDBQ 112040Z 26012KT 10SM CLR 03/M03 A3007 940 67 -200 260/12 RMK AO2
94908KDBQ DBQ20050211144509402/11/05 14:45:31  5-MIN KDBQ 112045Z 26012KT 10SM CLR 03/M03 A3006 940 67 -200 260/12 RMK AO2
94908KDBQ DBQ20050211145011702/11/05 14:50:31  5-MIN KDBQ 112050Z 25015KT 10SM CLR 03/M03 A3006 950 64 -200 250/15 RMK AO2 SLP194 T00281033 58009
94908KDBQ DBQ20050211145511702/11/05 14:55:31  5-MIN KDBQ 112055Z 25013KT 10SM CLR 03/M03 A3006 950 67 -200 250/13 RMK AO2 SLP193 T00281028 58012
94908KDBQ DBQ20050211150009402/11/05 15:00:31  5-MIN KDBQ 112100Z 26014KT 10SM CLR 03/M03 A3006 950 67 -200 250/14 RMK AO2
94908KDBQ DBQ20050211150509402/11/05 15:05:31  5-MIN KDBQ 112105Z 26015KT 10SM CLR 03/M03 A3005 960 67 -200 250/15 RMK AO2
94908KDBQ DBQ20050211151009402/11/05 15:10:31  5-MIN KDBQ 112110Z 26015KT 10SM CLR 03/M03 A3005 960 67 -200 260/15 RMK AO2
94908KDBQ DBQ20050211151509402/11/05 15:15:31  5-MIN KDBQ 112115Z 25015KT 10SM CLR 03/M03 A3005 960 67 -200 250/15 RMK AO2
94908KDBQ DBQ20050211152009402/11/05 15:20:31  5-MIN KDBQ 112120Z 25014KT 10SM CLR 03/M03 A3004 960 67 -200 250/14 RMK AO2
94908KDBQ DBQ20050211152509402/11/05 15:25:31  5-MIN KDBQ 112125Z 25015KT 10SM CLR 03/M02 A3004 970 69 -200 250/15 RMK AO2
94908KDBQ DBQ20050211153009402/11/05 15:30:31  5-MIN KDBQ 112130Z 25013KT 10SM CLR 03/M02 A3004 970 69 -200 250/13 RMK AO2
94908KDBQ DBQ20050211153509402/11/05 15:35:31  5-MIN KDBQ 112135Z 25013KT 10SM CLR 03/M02 A3004 970 69 -200 250/13 RMK AO2
94908KDBQ DBQ20050211154009402/11/05 15:40:31  5-MIN KDBQ 112140Z 25014KT 10SM CLR 03/M02 A3004 970 69 -200 250/14 RMK AO2
94908KDBQ DBQ20050211154509402/11/05 15:45:31  5-MIN KDBQ 112145Z 25013KT 10SM CLR 03/M02 A3004 960 69 -200 250/13 RMK AO2
94908KDBQ DBQ20050211155011102/11/05 15:50:31  5-MIN KDBQ 112150Z 25013KT 10SM CLR 03/M02 A3004 970 69 -200 250/13 RMK AO2 SLP187 T00281022
94908KDBQ DBQ20050211155511102/11/05 15:55:31  5-MIN KDBQ 112155Z 25014KT 10SM CLR 03/M03 A3004 970 67 -200 250/14 RMK AO2 SLP187 T00281028
94908KDBQ DBQ20050211160009402/11/05 16:00:31  5-MIN KDBQ 112200Z 25013KT 10SM CLR 03/M03 A3004 970 67 -200 250/13 RMK AO2
94908KDBQ DBQ20050211160509402/11/05 16:05:31  5-MIN KDBQ 112205Z 25012KT 10SM CLR 03/M03 A3004 970 67 -200 250/12 RMK AO2
94908KDBQ DBQ20050211161009402/11/05 16:10:31  5-MIN KDBQ 112210Z 25014KT 10SM CLR 03/M03 A3004 970 67 -200 250/14 RMK AO2
94908KDBQ DBQ20050211161509402/11/05 16:15:31  5-MIN KDBQ 112215Z 25013KT 10SM CLR 03/M02 A3003 970 69 -200 250/13 RMK AO2
94908KDBQ DBQ20050211162009402/11/05 16:20:31  5-MIN KDBQ 112220Z 25014KT 10SM CLR 03/M02 A3003 980 69 -200 250/14 RMK AO2
94908KDBQ DBQ20050211162509402/11/05 16:25:31  5-MIN KDBQ 112225Z 24011KT 10SM CLR 03/M02 A3002 980 69 -200 240/11 RMK AO2
94908KDBQ DBQ20050211163009402/11/05 16:30:31  5-MIN KDBQ 112230Z 24012KT 10SM CLR 02/M02 A3002 990 72 -200 240/12 RMK AO2
94908KDBQ DBQ20050211163509402/11/05 16:35:31  5-MIN KDBQ 112235Z 24011KT 10SM CLR 02/M02 A3002 990 72 -200 240/11 RMK AO2
94908KDBQ DBQ20050211164009402/11/05 16:40:31  5-MIN KDBQ 112240Z 24011KT 10SM CLR 02/M02 A3002 990 75 -200 240/11 RMK AO2
94908KDBQ DBQ20050211164509402/11/05 16:45:31  5-MIN KDBQ 112245Z 24011KT 10SM CLR 02/M02 A3001 990 75 -200 240/11 RMK AO2
94908KDBQ DBQ20050211165011202/11/05 16:50:31  5-MIN KDBQ 112250Z 24011KT 10SM CLR 02/M02 A3001 1000 72 -200 240/11 RMK AO2 SLP175 T00221022
94908KDBQ DBQ20050211165511202/11/05 16:55:31  5-MIN KDBQ 112255Z 24010KT 10SM CLR 02/M02 A3001 1000 72 -200 240/10 RMK AO2 SLP175 T00221022
94908KDBQ DBQ20050211170009502/11/05 17:00:31  5-MIN KDBQ 112300Z 24010KT 10SM CLR 02/M02 A3000 1000 75 -300 240/10 RMK AO2
94908KDBQ DBQ20050211170509502/11/05 17:05:31  5-MIN KDBQ 112305Z 24011KT 10SM CLR 02/M02 A3000 1000 75 -300 240/11 RMK AO2
94908KDBQ DBQ20050211171009502/11/05 17:10:31  5-MIN KDBQ 112310Z 24012KT 10SM CLR 02/M02 A3000 1000 75 -300 240/12 RMK AO2
94908KDBQ DBQ20050211171509502/11/05 17:15:31  5-MIN KDBQ 112315Z 24011KT 10SM CLR 02/M02 A3000 1000 75 -300 240/11 RMK AO2
94908KDBQ DBQ20050211172009502/11/05 17:20:31  5-MIN KDBQ 112320Z 23011KT 10SM CLR 02/M02 A3000 1000 75 -300 230/11 RMK AO2
94908KDBQ DBQ20050211172509502/11/05 17:25:31  5-MIN KDBQ 112325Z 23010KT 10SM CLR 02/M02 A3001 1000 75 -300 230/10 RMK AO2
94908KDBQ DBQ20050211173009502/11/05 17:30:31  5-MIN KDBQ 112330Z 23010KT 10SM CLR 01/M02 A3001 1000 78 -400 230/10 RMK AO2
94908KDBQ DBQ20050211173509502/11/05 17:35:31  5-MIN KDBQ 112335Z 23010KT 10SM CLR 01/M02 A3000 1000 78 -400 230/10 RMK AO2
94908KDBQ DBQ20050211174009502/11/05 17:40:31  5-MIN KDBQ 112340Z 23010KT 10SM CLR 01/M02 A3000 1000 78 -400 230/10 RMK AO2
94908KDBQ DBQ20050211174509502/11/05 17:45:31  5-MIN KDBQ 112345Z 23010KT 10SM CLR 01/M02 A3000 1000 78 -400 230/10 RMK AO2
94908KDBQ DBQ20050211175013002/11/05 17:50:31  5-MIN KDBQ 112350Z 23009KT 10SM CLR 01/M02 A3000 1010 78 -400 230/09 RMK AO2 SLP172 T00111022 10028 20000 58012
94908KDBQ DBQ20050211175513002/11/05 17:55:31  5-MIN KDBQ 112355Z 23009KT 10SM CLR 01/M02 A3000 1010 82 -400 230/09 RMK AO2 SLP173 T00061022 10028 20000 56021
94908KDBQ DBQ20050211180009502/11/05 18:00:31  5-MIN KDBQ 120000Z 23009KT 10SM CLR 01/M03 A3000 1010 78 -400 230/09 RMK AO2
94908KDBQ DBQ20050211180509502/11/05 18:05:31  5-MIN KDBQ 120005Z 23010KT 10SM CLR 01/M03 A2999 1010 78 -400 230/10 RMK AO2
94908KDBQ DBQ20050211181009502/11/05 18:10:31  5-MIN KDBQ 120010Z 23010KT 10SM CLR 01/M03 A2999 1010 78 -400 230/10 RMK AO2
94908KDBQ DBQ20050211181509502/11/05 18:15:31  5-MIN KDBQ 120015Z 24010KT 10SM CLR 01/M03 A2999 1020 78 -400 230/10 RMK AO2
94908KDBQ DBQ20050211182009502/11/05 18:20:31  5-MIN KDBQ 120020Z 23009KT 10SM CLR 00/M03 A2999 1020 81 -500 230/09 RMK AO2
94908KDBQ DBQ20050211182509502/11/05 18:25:31  5-MIN KDBQ 120025Z 23008KT 10SM CLR 00/M03 A2999 1010 81 -500 230/08 RMK AO2
94908KDBQ DBQ20050211183009502/11/05 18:30:31  5-MIN KDBQ 120030Z 23009KT 10SM CLR 00/M03 A2999 1010 81 -500 230/09 RMK AO2
94908KDBQ DBQ20050211183509502/11/05 18:35:31  5-MIN KDBQ 120035Z 23008KT 10SM CLR 00/M03 A2999 1010 81 -500 230/08 RMK AO2
94908KDBQ DBQ20050211184009502/11/05 18:40:31  5-MIN KDBQ 120040Z 23007KT 10SM CLR 00/M03 A2999 1010 81 -500 230/07 RMK AO2
94908KDBQ DBQ20050211184509502/11/05 18:45:31  5-MIN KDBQ 120045Z 23008KT 10SM CLR 00/M03 A2999 1010 81 -500 230/08 RMK AO2
94908KDBQ DBQ20050211185012202/11/05 18:50:31  5-MIN KDBQ 120050Z AUTO 23008KT 10SM CLR 00/M03 A2999 1020 81 -500 230/08 RMK AO2 SLP169 T00001028 TSNO
94908KDBQ DBQ20050211185512202/11/05 18:55:31  5-MIN KDBQ 120055Z AUTO 23009KT 10SM CLR 00/M03 A2998 1020 81 -500 220/09 RMK AO2 SLP168 T00001028 TSNO
94908KDBQ DBQ20050211190010502/11/05 19:00:31  5-MIN KDBQ 120100Z AUTO 23008KT 10SM CLR 00/M03 A2998 1020 81 -500 230/08 RMK AO2 TSNO
94908KDBQ DBQ20050211190510502/11/05 19:05:31  5-MIN KDBQ 120105Z AUTO 23007KT 10SM CLR 00/M03 A2998 1020 81 -500 230/07 RMK AO2 TSNO
94908KDBQ DBQ20050211191010602/11/05 19:10:31  5-MIN KDBQ 120110Z AUTO 23007KT 10SM CLR M01/M03 A2998 1020 81 -500 230/07 RMK AO2 TSNO
94908KDBQ DBQ20050211191510602/11/05 19:15:31  5-MIN KDBQ 120115Z AUTO 23007KT 10SM CLR M01/M03 A2997 1030 81 -500 230/07 RMK AO2 TSNO
94908KDBQ DBQ20050211192010602/11/05 19:20:31  5-MIN KDBQ 120120Z AUTO 23008KT 10SM CLR M01/M03 A2997 1030 81 -500 230/08 RMK AO2 TSNO
94908KDBQ DBQ20050211192510602/11/05 19:25:31  5-MIN KDBQ 120125Z AUTO 23008KT 10SM CLR M01/M03 A2997 1040 81 -500 230/08 RMK AO2 TSNO
94908KDBQ DBQ20050211193010602/11/05 19:30:31  5-MIN KDBQ 120130Z AUTO 22008KT 10SM CLR M01/M03 A2997 1030 81 -500 220/08 RMK AO2 TSNO
94908KDBQ DBQ20050211193510602/11/05 19:35:31  5-MIN KDBQ 120135Z AUTO 23009KT 10SM CLR M01/M03 A2997 1040 81 -500 230/09 RMK AO2 TSNO
94908KDBQ DBQ20050211194010602/11/05 19:40:31  5-MIN KDBQ 120140Z AUTO 23009KT 10SM CLR M01/M03 A2997 1030 81 -500 230/09 RMK AO2 TSNO
94908KDBQ DBQ20050211194510502/11/05 19:45:31  5-MIN KDBQ 120145Z AUTO 23009KT 10SM CLR 00/M03 A2997 1030 78 -500 230/09 RMK AO2 TSNO
94908KDBQ DBQ20050211195012202/11/05 19:50:31  5-MIN KDBQ 120150Z AUTO 24010KT 10SM CLR 00/M03 A2997 1030 78 -500 240/10 RMK AO2 SLP162 T00001033 TSNO
94908KDBQ DBQ20050211195512202/11/05 19:55:31  5-MIN KDBQ 120155Z AUTO 24011KT 10SM CLR 00/M03 A2997 1030 78 -500 240/11 RMK AO2 SLP163 T00001033 TSNO
94908KDBQ DBQ20050211200010502/11/05 20:00:31  5-MIN KDBQ 120200Z AUTO 24012KT 10SM CLR 01/M03 A2997 1030 78 -400 240/12 RMK AO2 TSNO
94908KDBQ DBQ20050211200510502/11/05 20:05:31  5-MIN KDBQ 120205Z AUTO 24013KT 10SM CLR 01/M03 A2997 1040 78 -400 240/13 RMK AO2 TSNO
94908KDBQ DBQ20050211201010502/11/05 20:10:31  5-MIN KDBQ 120210Z AUTO 24012KT 10SM CLR 01/M03 A2996 1040 78 -400 240/12 RMK AO2 TSNO
94908KDBQ DBQ20050211201510502/11/05 20:15:31  5-MIN KDBQ 120215Z AUTO 24013KT 10SM CLR 01/M03 A2997 1040 78 -400 240/13 RMK AO2 TSNO
94908KDBQ DBQ20050211202010502/11/05 20:20:31  5-MIN KDBQ 120220Z AUTO 24014KT 10SM CLR 01/M03 A2996 1040 78 -400 240/14 RMK AO2 TSNO
94908KDBQ DBQ20050211202510502/11/05 20:25:31  5-MIN KDBQ 120225Z AUTO 24014KT 10SM CLR 01/M03 A2997 1040 75 -300 240/14 RMK AO2 TSNO
94908KDBQ DBQ20050211203010502/11/05 20:30:31  5-MIN KDBQ 120230Z AUTO 24014KT 10SM CLR 01/M03 A2996 1040 75 -300 240/14 RMK AO2 TSNO
94908KDBQ DBQ20050211203510502/11/05 20:35:31  5-MIN KDBQ 120235Z AUTO 24013KT 10SM CLR 01/M03 A2997 1040 78 -400 240/13 RMK AO2 TSNO
94908KDBQ DBQ20050211204010502/11/05 20:40:31  5-MIN KDBQ 120240Z AUTO 25013KT 10SM CLR 01/M03 A2997 1040 78 -400 250/13 RMK AO2 TSNO
94908KDBQ DBQ20050211204510502/11/05 20:45:31  5-MIN KDBQ 120245Z AUTO 25013KT 10SM CLR 01/M03 A2997 1040 78 -400 250/13 RMK AO2 TSNO
94908KDBQ DBQ20050211205012802/11/05 20:50:31  5-MIN KDBQ 120250Z AUTO 25013KT 10SM CLR 01/M03 A2997 1040 78 -400 250/13 RMK AO2 SLP161 T00061028 56021 TSNO
94908KDBQ DBQ20050211205512802/11/05 20:55:31  5-MIN KDBQ 120255Z AUTO 25012KT 10SM CLR 01/M03 A2996 1040 78 -400 240/12 RMK AO2 SLP159 T00061028 56011 TSNO
94908KDBQ DBQ20050211210010502/11/05 21:00:31  5-MIN KDBQ 120300Z AUTO 24012KT 10SM CLR 01/M03 A2996 1040 78 -400 240/12 RMK AO2 TSNO
94908KDBQ DBQ20050211210510502/11/05 21:05:31  5-MIN KDBQ 120305Z AUTO 24012KT 10SM CLR 01/M03 A2996 1040 78 -400 240/12 RMK AO2 TSNO
94908KDBQ DBQ20050211211010502/11/05 21:10:31  5-MIN KDBQ 120310Z AUTO 24013KT 10SM CLR 01/M03 A2996 1040 78 -400 240/13 RMK AO2 TSNO
94908KDBQ DBQ20050211211510502/11/05 21:15:31  5-MIN KDBQ 120315Z AUTO 24013KT 10SM CLR 01/M03 A2996 1040 75 -300 240/13 RMK AO2 TSNO
94908KDBQ DBQ20050211212010502/11/05 21:20:31  5-MIN KDBQ 120320Z AUTO 24014KT 10SM CLR 01/M03 A2996 1050 75 -300 240/14 RMK AO2 TSNO
94908KDBQ DBQ20050211212510502/11/05 21:25:31  5-MIN KDBQ 120325Z AUTO 24012KT 10SM CLR 01/M03 A2996 1040 75 -300 240/12 RMK AO2 TSNO
94908KDBQ DBQ20050211213010502/11/05 21:30:31  5-MIN KDBQ 120330Z AUTO 24012KT 10SM CLR 01/M03 A2996 1050 75 -300 240/12 RMK AO2 TSNO
94908KDBQ DBQ20050211213510502/11/05 21:35:31  5-MIN KDBQ 120335Z AUTO 24010KT 10SM CLR 01/M03 A2995 1050 75 -300 230/10 RMK AO2 TSNO
94908KDBQ DBQ20050211214010502/11/05 21:40:31  5-MIN KDBQ 120340Z AUTO 23011KT 10SM CLR 01/M03 A2995 1050 78 -400 230/11 RMK AO2 TSNO
94908KDBQ DBQ20050211214510502/11/05 21:45:31  5-MIN KDBQ 120345Z AUTO 23011KT 10SM CLR 01/M03 A2994 1060 78 -400 230/11 RMK AO2 TSNO
94908KDBQ DBQ20050211215012202/11/05 21:50:31  5-MIN KDBQ 120350Z AUTO 23013KT 10SM CLR 01/M03 A2994 1060 78 -400 230/13 RMK AO2 SLP152 T00061028 TSNO
94908KDBQ DBQ20050211215512202/11/05 21:55:31  5-MIN KDBQ 120355Z AUTO 24014KT 10SM CLR 01/M03 A2994 1060 78 -400 240/14 RMK AO2 SLP150 T00061028 TSNO
94908KDBQ DBQ20050211220010502/11/05 22:00:31  5-MIN KDBQ 120400Z AUTO 24014KT 10SM CLR 01/M03 A2994 1060 75 -300 240/14 RMK AO2 TSNO
94908KDBQ DBQ20050211220510502/11/05 22:05:31  5-MIN KDBQ 120405Z AUTO 24014KT 10SM CLR 01/M03 A2994 1060 75 -300 240/14 RMK AO2 TSNO
94908KDBQ DBQ20050211221010502/11/05 22:10:31  5-MIN KDBQ 120410Z AUTO 24015KT 10SM CLR 01/M03 A2994 1060 75 -300 240/15 RMK AO2 TSNO
94908KDBQ DBQ20050211221510502/11/05 22:15:31  5-MIN KDBQ 120415Z AUTO 25014KT 10SM CLR 01/M03 A2994 1060 75 -300 240/14 RMK AO2 TSNO
94908KDBQ DBQ20050211222010502/11/05 22:20:31  5-MIN KDBQ 120420Z AUTO 25013KT 10SM CLR 01/M03 A2994 1060 75 -300 250/13 RMK AO2 TSNO
94908KDBQ DBQ20050211222510502/11/05 22:25:31  5-MIN KDBQ 120425Z AUTO 25013KT 10SM CLR 01/M03 A2994 1060 75 -300 250/13 RMK AO2 TSNO
94908KDBQ DBQ20050211223010502/11/05 22:30:31  5-MIN KDBQ 120430Z AUTO 25013KT 10SM CLR 01/M03 A2994 1060 75 -300 250/13 RMK AO2 TSNO
94908KDBQ DBQ20050211223510502/11/05 22:35:31  5-MIN KDBQ 120435Z AUTO 25013KT 10SM CLR 01/M03 A2994 1060 75 -300 250/13 RMK AO2 TSNO
94908KDBQ DBQ20050211224010502/11/05 22:40:31  5-MIN KDBQ 120440Z AUTO 25012KT 10SM CLR 01/M03 A2994 1060 75 -300 250/12 RMK AO2 TSNO
94908KDBQ DBQ20050211224510502/11/05 22:45:31  5-MIN KDBQ 120445Z AUTO 25012KT 10SM CLR 01/M03 A2994 1060 75 -300 250/12 RMK AO2 TSNO
94908KDBQ DBQ20050211225012202/11/05 22:50:31  5-MIN KDBQ 120450Z AUTO 25011KT 10SM CLR 01/M03 A2994 1060 75 -300 250/11 RMK AO2 SLP149 T00111028 TSNO
94908KDBQ DBQ20050211225512202/11/05 22:55:31  5-MIN KDBQ 120455Z AUTO 25011KT 10SM CLR 01/M03 A2993 1070 75 -300 250/11 RMK AO2 SLP148 T00111028 TSNO
94908KDBQ DBQ20050211230010502/11/05 23:00:31  5-MIN KDBQ 120500Z AUTO 25010KT 10SM CLR 01/M03 A2993 1070 72 -300 250/10 RMK AO2 TSNO
94908KDBQ DBQ20050211230510502/11/05 23:05:31  5-MIN KDBQ 120505Z AUTO 25008KT 10SM CLR 01/M03 A2993 1070 75 -300 240/08 RMK AO2 TSNO
94908KDBQ DBQ20050211231010502/11/05 23:10:31  5-MIN KDBQ 120510Z AUTO 25008KT 10SM CLR 01/M03 A2993 1070 75 -300 240/08 RMK AO2 TSNO
94908KDBQ DBQ20050211231510502/11/05 23:15:31  5-MIN KDBQ 120515Z AUTO 24008KT 10SM CLR 01/M03 A2993 1070 75 -300 240/08 RMK AO2 TSNO
94908KDBQ DBQ20050211232010502/11/05 23:20:31  5-MIN KDBQ 120520Z AUTO 25008KT 10SM CLR 01/M03 A2993 1070 75 -300 240/08 RMK AO2 TSNO
94908KDBQ DBQ20050211232510502/11/05 23:25:31  5-MIN KDBQ 120525Z AUTO 25007KT 10SM CLR 01/M03 A2993 1070 75 -300 240/07 RMK AO2 TSNO
94908KDBQ DBQ20050211233010502/11/05 23:30:31  5-MIN KDBQ 120530Z AUTO 25007KT 10SM CLR 01/M03 A2993 1070 75 -300 240/07 RMK AO2 TSNO
94908KDBQ DBQ20050211233510502/11/05 23:35:31  5-MIN KDBQ 120535Z AUTO 24006KT 10SM CLR 00/M03 A2992 1070 78 -400 240/06 RMK AO2 TSNO
94908KDBQ DBQ20050211234010502/11/05 23:40:31  5-MIN KDBQ 120540Z AUTO 24007KT 10SM CLR 00/M03 A2992 1080 78 -400 230/07 RMK AO2 TSNO
94908KDBQ DBQ20050211234510602/11/05 23:45:31  5-MIN KDBQ 120545Z AUTO 23006KT 10SM CLR M01/M04 A2992 1070 78 -500 230/06 RMK AO2 TSNO
94908KDBQ DBQ20050211235015102/11/05 23:50:31  5-MIN KDBQ 120550Z AUTO 23005KT 10SM CLR M01/M04 A2993 1070 78 -500 220/05 RMK AO2 SLP146 T10061039 10011 21006 400281078 56011 TSNO
94908KDBQ DBQ20050211235515102/11/05 23:55:31  5-MIN KDBQ 120555Z AUTO 21004KT 10SM CLR M01/M04 A2993 1070 78 -500 210/04 RMK AO2 SLP146 T10061039 10011 21006 400281078 56012 TSNO
94908KDBQ DBQ20050212000010602/12/05 00:00:38  5-MIN KDBQ 120600Z AUTO 20003KT 10SM CLR M01/M04 A2993 1070 78 -500 200/03 RMK AO2 TSNO
94908KDBQ DBQ20050212000510502/12/05 00:05:31  5-MIN KDBQ 120605Z AUTO 18003KT 10SM CLR 00/M04 A2993 1070 75 -400 180/03 RMK AO2 TSNO
94908KDBQ DBQ20050212001010502/12/05 00:10:31  5-MIN KDBQ 120610Z AUTO 17003KT 10SM CLR 00/M03 A2993 1070 78 -400 170/03 RMK AO2 TSNO
94908KDBQ DBQ20050212001510602/12/05 00:15:32  5-MIN KDBQ 120615Z AUTO 18005KT 10SM CLR M01/M04 A2992 1080 78 -500 180/05 RMK AO2 TSNO
94908KDBQ DBQ20050212002010602/12/05 00:20:31  5-MIN KDBQ 120620Z AUTO 19005KT 10SM CLR M01/M04 A2992 1080 78 -500 190/05 RMK AO2 TSNO
94908KDBQ DBQ20050212002510502/12/05 00:25:31  5-MIN KDBQ 120625Z AUTO 18006KT 10SM CLR 00/M04 A2992 1080 75 -400 180/06 RMK AO2 TSNO
94908KDBQ DBQ20050212003010602/12/05 00:30:31  5-MIN KDBQ 120630Z AUTO 17005KT 10SM CLR M01/M04 A2991 1080 78 -500 170/05 RMK AO2 TSNO
94908KDBQ DBQ20050212003510602/12/05 00:35:31  5-MIN KDBQ 120635Z AUTO 18007KT 10SM CLR M01/M04 A2991 1090 78 -500 180/07 RMK AO2 TSNO
94908KDBQ DBQ20050212004010602/12/05 00:40:31  5-MIN KDBQ 120640Z AUTO 19007KT 10SM CLR M01/M04 A2991 1090 78 -500 180/07 RMK AO2 TSNO
94908KDBQ DBQ20050212004510602/12/05 00:45:31  5-MIN KDBQ 120645Z AUTO 19008KT 10SM CLR M01/M04 A2992 1080 81 -500 190/08 RMK AO2 TSNO
94908KDBQ DBQ20050212005012302/12/05 00:50:31  5-MIN KDBQ 120650Z AUTO 19006KT 10SM CLR M01/M04 A2991 1080 81 -500 190/06 RMK AO2 SLP141 T10111039 TSNO
94908KDBQ DBQ20050212005512302/12/05 00:55:31  5-MIN KDBQ 120655Z AUTO 19005KT 10SM CLR M01/M04 A2991 1090 81 -500 190/05 RMK AO2 SLP141 T10111039 TSNO
94908KDBQ DBQ20050212010010602/12/05 01:00:31  5-MIN KDBQ 120700Z AUTO 19005KT 10SM CLR M01/M04 A2991 1090 81 -500 190/05 RMK AO2 TSNO
94908KDBQ DBQ20050212010510602/12/05 01:05:31  5-MIN KDBQ 120705Z AUTO 20005KT 10SM CLR M02/M04 A2990 1090 85 -600 200/05 RMK AO2 TSNO
94908KDBQ DBQ20050212011010602/12/05 01:10:31  5-MIN KDBQ 120710Z AUTO 20005KT 10SM CLR M02/M04 A2990 1100 85 -600 200/05 RMK AO2 TSNO
94908KDBQ DBQ20050212011510602/12/05 01:15:31  5-MIN KDBQ 120715Z AUTO 22006KT 10SM CLR M01/M04 A2990 1100 81 -500 210/06 RMK AO2 TSNO
94908KDBQ DBQ20050212012010602/12/05 01:20:31  5-MIN KDBQ 120720Z AUTO 21007KT 10SM CLR M01/M04 A2990 1100 81 -500 210/07 RMK AO2 TSNO
94908KDBQ DBQ20050212012510602/12/05 01:25:31  5-MIN KDBQ 120725Z AUTO 21008KT 10SM CLR M01/M04 A2990 1100 81 -500 200/08 RMK AO2 TSNO
94908KDBQ DBQ20050212013010602/12/05 01:30:31  5-MIN KDBQ 120730Z AUTO 20006KT 10SM CLR M01/M04 A2989 1100 81 -500 200/06 RMK AO2 TSNO
94908KDBQ DBQ20050212013510602/12/05 01:35:31  5-MIN KDBQ 120735Z AUTO 20006KT 10SM CLR M01/M04 A2989 1100 81 -500 200/06 RMK AO2 TSNO
94908KDBQ DBQ20050212014010602/12/05 01:40:31  5-MIN KDBQ 120740Z AUTO 20006KT 10SM CLR M01/M04 A2989 1110 81 -500 200/06 RMK AO2 TSNO
94908KDBQ DBQ20050212014510602/12/05 01:45:31  5-MIN KDBQ 120745Z AUTO 20005KT 10SM CLR M01/M04 A2989 1100 81 -500 200/05 RMK AO2 TSNO
94908KDBQ DBQ20050212015012302/12/05 01:50:31  5-MIN KDBQ 120750Z AUTO 21006KT 10SM CLR M01/M04 A2989 1100 78 -400 200/06 RMK AO2 SLP133 T10061039 TSNO
94908KDBQ DBQ20050212015512302/12/05 01:55:31  5-MIN KDBQ 120755Z AUTO 21007KT 10SM CLR M01/M04 A2989 1100 81 -500 210/07 RMK AO2 SLP133 T10111039 TSNO
94908KDBQ DBQ20050212020010602/12/05 02:00:31  5-MIN KDBQ 120800Z AUTO 23008KT 10SM CLR M01/M04 A2989 1100 81 -500 230/08 RMK AO2 TSNO
94908KDBQ DBQ20050212020510602/12/05 02:05:31  5-MIN KDBQ 120805Z AUTO 23007KT 10SM CLR M01/M04 A2990 1100 81 -500 230/07 RMK AO2 TSNO
94908KDBQ DBQ20050212021010602/12/05 02:10:31  5-MIN KDBQ 120810Z AUTO 23008KT 10SM CLR M01/M04 A2990 1100 81 -500 230/08 RMK AO2 TSNO
94908KDBQ DBQ20050212021510602/12/05 02:15:31  5-MIN KDBQ 120815Z AUTO 23008KT 10SM CLR M01/M04 A2990 1100 78 -400 230/08 RMK AO2 TSNO
94908KDBQ DBQ20050212022010602/12/05 02:20:31  5-MIN KDBQ 120820Z AUTO 23008KT 10SM CLR M01/M04 A2990 1100 81 -500 230/08 RMK AO2 TSNO
94908KDBQ DBQ20050212022510602/12/05 02:25:31  5-MIN KDBQ 120825Z AUTO 23008KT 10SM CLR M01/M04 A2990 1100 78 -400 230/08 RMK AO2 TSNO
94908KDBQ DBQ20050212023010602/12/05 02:30:31  5-MIN KDBQ 120830Z AUTO 23008KT 10SM CLR M01/M04 A2990 1090 78 -400 230/08 RMK AO2 TSNO
94908KDBQ DBQ20050212023510602/12/05 02:35:31  5-MIN KDBQ 120835Z AUTO 23008KT 10SM CLR M01/M04 A2990 1100 81 -500 230/08 RMK AO2 TSNO
94908KDBQ DBQ20050212024010602/12/05 02:40:31  5-MIN KDBQ 120840Z AUTO 24008KT 10SM CLR M01/M04 A2990 1100 81 -500 240/08 RMK AO2 TSNO
94908KDBQ DBQ20050212024510602/12/05 02:45:31  5-MIN KDBQ 120845Z AUTO 24009KT 10SM CLR M01/M04 A2990 1100 81 -500 230/09 RMK AO2 TSNO
94908KDBQ DBQ20050212025012902/12/05 02:50:31  5-MIN KDBQ 120850Z AUTO 23009KT 10SM CLR M01/M04 A2990 1100 78 -500 230/09 RMK AO2 SLP135 T10111044 56012 TSNO
94908KDBQ DBQ20050212025512902/12/05 02:55:31  5-MIN KDBQ 120855Z AUTO 23008KT 10SM CLR M01/M04 A2990 1100 78 -500 230/08 RMK AO2 SLP135 T10111044 55009 TSNO
94908KDBQ DBQ20050212030010602/12/05 03:00:31  5-MIN KDBQ 120900Z AUTO 23008KT 10SM CLR M02/M04 A2990 1100 81 -600 230/08 RMK AO2 TSNO
94908KDBQ DBQ20050212030510602/12/05 03:05:31  5-MIN KDBQ 120905Z AUTO 24008KT 10SM CLR M02/M04 A2989 1100 81 -600 240/08 RMK AO2 TSNO
94908KDBQ DBQ20050212031010602/12/05 03:10:31  5-MIN KDBQ 120910Z AUTO 24008KT 10SM CLR M02/M04 A2989 1100 81 -600 240/08 RMK AO2 TSNO
94908KDBQ DBQ20050212031510602/12/05 03:15:31  5-MIN KDBQ 120915Z AUTO 24007KT 10SM CLR M02/M04 A2989 1110 81 -600 240/07 RMK AO2 TSNO
94908KDBQ DBQ20050212032010602/12/05 03:20:31  5-MIN KDBQ 120920Z AUTO 24006KT 10SM CLR M01/M04 A2989 1100 78 -500 240/06 RMK AO2 TSNO
94908KDBQ DBQ20050212032510602/12/05 03:25:31  5-MIN KDBQ 120925Z AUTO 24005KT 10SM CLR M01/M04 A2989 1110 81 -500 240/05 RMK AO2 TSNO
94908KDBQ DBQ20050212033010602/12/05 03:30:31  5-MIN KDBQ 120930Z AUTO 25007KT 10SM CLR M01/M04 A2989 1110 81 -500 240/07 RMK AO2 TSNO
94908KDBQ DBQ20050212033510602/12/05 03:35:31  5-MIN KDBQ 120935Z AUTO 26008KT 10SM CLR M01/M04 A2989 1110 81 -500 260/08 RMK AO2 TSNO
94908KDBQ DBQ20050212034010602/12/05 03:40:31  5-MIN KDBQ 120940Z AUTO 25007KT 10SM CLR M01/M04 A2989 1110 78 -500 250/07 RMK AO2 TSNO
94908KDBQ DBQ20050212034510602/12/05 03:45:31  5-MIN KDBQ 120945Z AUTO 22003KT 10SM CLR M02/M04 A2989 1110 85 -600 220/03 RMK AO2 TSNO
94908KDBQ DBQ20050212035012202/12/05 03:50:31  5-MIN KDBQ 120950Z AUTO 21003KT 9SM CLR M02/M04 A2989 1110 85 -600 210/03 RMK AO2 SLP133 T10221044 TSNO
94908KDBQ DBQ20050212035512202/12/05 03:55:31  5-MIN KDBQ 120955Z AUTO 25004KT 9SM CLR M02/M04 A2989 1100 85 -600 250/04 RMK AO2 SLP134 T10221044 TSNO
94908KDBQ DBQ20050212040010502/12/05 04:00:31  5-MIN KDBQ 121000Z AUTO 00000KT 9SM CLR M03/M05 A2989 1110 85 -700 000/00 RMK AO2 TSNO
94908KDBQ DBQ20050212040510502/12/05 04:05:31  5-MIN KDBQ 121005Z AUTO 00000KT 9SM CLR M03/M05 A2989 1110 85 -700 000/00 RMK AO2 TSNO
94908KDBQ DBQ20050212041010502/12/05 04:10:31  5-MIN KDBQ 121010Z AUTO 00000KT 9SM CLR M02/M04 A2989 1110 85 -600 000/00 RMK AO2 TSNO
94908KDBQ DBQ20050212041510502/12/05 04:15:31  5-MIN KDBQ 121015Z AUTO 00000KT 9SM CLR M02/M04 A2989 1110 81 -600 000/00 RMK AO2 TSNO
94908KDBQ DBQ20050212042010502/12/05 04:20:31  5-MIN KDBQ 121020Z AUTO 24003KT 9SM CLR M02/M04 A2989 1110 81 -600 230/03 RMK AO2 TSNO
94908KDBQ DBQ20050212042510502/12/05 04:25:31  5-MIN KDBQ 121025Z AUTO 23003KT 9SM CLR M03/M05 A2989 1110 85 -700 230/03 RMK AO2 TSNO
94908KDBQ DBQ20050212043010502/12/05 04:30:31  5-MIN KDBQ 121030Z AUTO 24004KT 9SM CLR M02/M05 A2989 1100 81 -600 230/04 RMK AO2 TSNO
94908KDBQ DBQ20050212043510502/12/05 04:35:31  5-MIN KDBQ 121035Z AUTO 22005KT 9SM CLR M02/M04 A2990 1100 85 -700 220/05 RMK AO2 TSNO
94908KDBQ DBQ20050212044010502/12/05 04:40:31  5-MIN KDBQ 121040Z AUTO 24006KT 9SM CLR M02/M04 A2990 1100 81 -600 230/06 RMK AO2 TSNO
94908KDBQ DBQ20050212044510502/12/05 04:45:31  5-MIN KDBQ 121045Z AUTO 25005KT 9SM CLR M03/M05 A2990 1100 85 -700 240/05 RMK AO2 TSNO
94908KDBQ DBQ20050212045012202/12/05 04:50:31  5-MIN KDBQ 121050Z AUTO 23004KT 9SM CLR M03/M05 A2990 1090 85 -700 230/04 RMK AO2 SLP137 T10281050 TSNO
94908KDBQ DBQ20050212045512202/12/05 04:55:31  5-MIN KDBQ 121055Z AUTO 22004KT 9SM CLR M02/M04 A2990 1100 81 -600 220/04 RMK AO2 SLP137 T10171044 TSNO
94908KDBQ DBQ20050212050010502/12/05 05:00:31  5-MIN KDBQ 121100Z AUTO 24004KT 9SM CLR M02/M04 A2990 1090 81 -600 240/04 RMK AO2 TSNO
94908KDBQ DBQ20050212050510502/12/05 05:05:31  5-MIN KDBQ 121105Z AUTO 00000KT 9SM CLR M02/M04 A2990 1100 81 -600 000/00 RMK AO2 TSNO
94908KDBQ DBQ20050212051010502/12/05 05:10:31  5-MIN KDBQ 121110Z AUTO 00000KT 9SM CLR M01/M04 A2990 1100 81 -500 000/00 RMK AO2 TSNO
94908KDBQ DBQ20050212051510502/12/05 05:15:31  5-MIN KDBQ 121115Z AUTO VRB03KT 9SM CLR M01/M04 A2990 1100 81 -500 VRB/03 RMK AO2 TSNO
94908KDBQ DBQ20050212052010502/12/05 05:20:31  5-MIN KDBQ 121120Z AUTO 33003KT 9SM CLR M01/M04 A2990 1100 81 -500 330/03 RMK AO2 TSNO
94908KDBQ DBQ20050212052510502/12/05 05:25:31  5-MIN KDBQ 121125Z AUTO 33003KT 9SM CLR M01/M04 A2990 1100 78 -400 330/03 RMK AO2 TSNO
94908KDBQ DBQ20050212053010502/12/05 05:30:31  5-MIN KDBQ 121130Z AUTO 35004KT 9SM CLR M02/M04 A2990 1100 85 -700 340/04 RMK AO2 TSNO
94908KDBQ DBQ20050212053510502/12/05 05:35:31  5-MIN KDBQ 121135Z AUTO 35004KT 8SM CLR M03/M05 A2990 1100 85 -700 350/04 RMK AO2 TSNO
94908KDBQ DBQ20050212054010502/12/05 05:40:31  5-MIN KDBQ 121140Z AUTO 01004KT 9SM CLR M02/M04 A2990 1100 81 -600 010/04 RMK AO2 TSNO
94908KDBQ DBQ20050212054511602/12/05 05:45:31  5-MIN 005KT 8SM CLR M02/M05 A2989 1110 81  -600 020/05 RMK AO2 SLP134 T10221050 10000 21033 58003
94908KDBQ DBQ20050212060009502/12/05 06:00:31  5-MIN KDBQ 121200Z 02005KT 8SM CLR M02/M04 A2989 1110 81 -600 020/05 RMK AO2
94908KDBQ DBQ20050212060508002/12/05 06:05:31  5-MIN KDBQ 121205Z 02006KT 8S988 1110 85  -600 030/05 RMK AO2
94908KDBQ DBQ20050212063009502/12/05 06:30:31  5-MIN KDBQ 121230Z 04005KT 7SM CLR M02/M04 A2988 1120 85 -600 030/05 RMK AO2
94908KDBQ DBQ20050212063510702/12/05 06:35:31  5-MIN KDBQ 121235Z 03005KT 7SM CLR M02/M04 A2988 1110 85 -600 030/05 RMK AO2 02/12/05 85
94908KDBQ DBQ20050212070009802/12/05 07:00:31  5-MIN KDBQ 121300Z 36003KT 6SM BR CLR M04/M06 A2989 1100 85 -900 360/03 RMK AO2
94908KDBQ DBQ20050212070509802/12/05 07:05:31  5-MIN KDBQ 121305Z 01003KT 5SM BR CLR M04/M06 A2990 1100 88 -900 010/03 RMK AO2
94908KDBQ DBQ20050212073509802/12/05 07:35:31  5-MIN KDBQ 121335Z 21004KT 5SM BR CLR M04/M05 A2991 1090 92 -900 210/04 RMK AO2
94908KDBQ DBQ20050212074009802/12/05 07:40:31  5-MIN KDBQ 121340Z 20004KT 5SM BR CLR M03/M05 A2991 1090 88 -800 190/04 RMK AO2
94908KDBQ DBQ20050212074509502/12/05 07:45:31  5-MIN KDBQ 12090 003KT 5SM BR CLR M03/M04 A2991 1090  88 -700 210/03 RMK AO2
94908KDBQ DBQ20050212081009802/12/05 08:10:31  5-MIN KDBQ 121410Z 00000KT 5SM BR CLR M03/M04 A2991 1090 88 -700 000/00 RMK AO2
94908KDBQ DBQ20050212081514202/12/05 08:15:31  5-MIN KDBQ 121415Z 00000KT 5SM BR CLR M02/M04 A2991 10901435Z 00000KT 6SM BR CLR M02/M04 A2991 1090  88 -700 000/00 RMK AO2
94908KDBQ DBQ20050212084009802/12/05 08:40:31  5-MIN KDBQ 121440Z 00000KT 6SM BR CLR M02/M03 A2991 1090 88 -600 000/00 RMK AO2
94908KDBQ DBQ20050212084512302/12/05 08:45:31  5-MIN KDBQ 121445Z 00000KT 6SM BR CLR M02/M03 A2991 1M BR CLR M01/M03 A2991 1090  85 -500 000/00 RMK AO2
94908KDBQ DBQ20050212091009802/12/05 09:10:31  5-MIN KDBQ 121510Z 00000KT 6SM BR CLR M01/M03 A2991 1090 85 -500 000/00 RMK AO2
94908KDBQ DBQ20050212091507402/12/05 09:15:31  5-MIN KDBQ 121515Z 00000KT 7SM CLR 00/M03 A2991 1090 81
94908KDBQ DBQ20050212094509402/12/05 09:45:31  5-MIN KDBQ 121545Z 00000KT 7SM CLR 01/M02 A2991 1090 82 -300 000/00 RMK AO2
94908KDBQ DBQ20050212095009102/12/05 09:50:31  5-MIN KDBQ 121550Z 00000KT 7SM CLR 03/M02 A2990 1100 72 0 000/00 RMK AO2
94908KDBQ DBQ20050212101509102/12/05 10:15:31  5-MIN KDBQ 121615Z 00000KT 8SM CLR 03/M02 A2990 1100 72 0 000/00 RMK AO2
94908KDBQ DBQ20050212102015802/12/05 10:20:31  5-MIN KDBQ 121620Z 00000KT 8SM CLR 03/M01 A2990 1100 75 0 000/00 RMK AO202/12/051645Z 00000KT 9SM CLR 03/M01 A2990 1100 72 0 000/00 RMK AO2
94908KDBQ DBQ20050212105010802/12/05 10:50:31  5-MIN KDBQ 121650Z 00000KT 9SM CLR 03/M01 A2990 1100 72 0 000/00 RMK AO2 SLP134 T00331011
94908KDBQ DBQ20050212105511102/12/05 10:55:31  5-MIN KDBQ 121655Z 00000KT 10SM CLR 04/M01 A2990 1100 70 100 000/00 RMK AO2 SLP135 T00391011
94908KDBQ DBQ20050212110009402/12/05 11:00:31  5-MIN KDBQ 121700Z 00000KT 10SM CLR 05/M01 A2990 1100 64 200 000/00 RMK AO2
94908KDBQ DBQ20050212110509402/12/05 11:05:31  5-MIN KDBQ 121705Z 00000KT 10SM CLR 05/M01 A2990 1100 67 200 000/00 RMK AO2
94908KDBQ DBQ20050212111009402/12/05 11:10:31  5-MIN KDBQ 121710Z 00000KT 10SM CLR 06/M01 A2990 1090 62 300 000/00 RMK AO2
94908KDBQ DBQ20050212111509402/12/05 11:15:31  5-MIN KDBQ 121715Z 00000KT 10SM CLR 05/M01 A2990 1100 64 200 000/00 RMK AO2
94908KDBQ DBQ20050212112009402/12/05 11:20:31  5-MIN KDBQ 121720Z 00000KT 10SM CLR 06/M01 A2990 1100 62 300 000/00 RMK AO2
94908KDBQ DBQ20050212112509402/12/05 11:25:31  5-MIN KDBQ 121725Z 00000KT 10SM CLR 06/M01 A2990 1100 65 300 000/00 RMK AO2
94908KDBQ DBQ20050212113009402/12/05 11:30:31  5-MIN KDBQ 121730Z 00000KT 10SM CLR 06/M01 A2990 1100 65 300 000/00 RMK AO2
94908KDBQ DBQ20050212113509402/12/05 11:35:31  5-MIN KDBQ 121735Z 00000KT 10SM CLR 06/M01 A2989 1100 62 300 000/00 RMK AO2
94908KDBQ DBQ20050212114009302/12/05 11:40:31  5-MIN KDBQ 121740Z 00000KT 10SM CLR 06/00 A2989 1100 65 300 000/00 RMK AO2
94908KDBQ DBQ20050212114509302/12/05 11:45:31  5-MIN KDBQ 121745Z 00000KT 10SM CLR 06/00 A2989 1100 65 300 000/00 RMK AO2
94908KDBQ DBQ20050212115012802/12/05 11:50:31  5-MIN KDBQ 121750Z 21003KT 10SM CLR 06/01 A2989 1100 70 300 210/03 RMK AO2 SLP132 T00560006 10067 21044 50005
94908KDBQ DBQ20050212115512702/12/05 11:55:31  5-MIN KDBQ 121755Z 22003KT 9SM CLR 06/00 A2989 1100 67 300 220/03 RMK AO2 SLP132 T00560000 10067 21044 58004
94908KDBQ DBQ20050212120009302/12/05 12:00:31  5-MIN KDBQ 121800Z 17003KT 10SM CLR 06/00 A2989 1100 65 300 170/03 RMK AO2
94908KDBQ DBQ20050212120509302/12/05 12:05:31  5-MIN KDBQ 121805Z 21004KT 10SM CLR 07/01 A2989 1100 65 400 210/04 RMK AO2
94908KDBQ DBQ20050212121009302/12/05 12:10:31  5-MIN KDBQ 121810Z 18005KT 10SM CLR 07/00 A2989 1110 62 400 180/05 RMK AO2
94908KDBQ DBQ20050212121509302/12/05 12:15:31  5-MIN KDBQ 121815Z 17004KT 10SM CLR 07/00 A2989 1110 62 400 170/04 RMK AO2
94908KDBQ DBQ20050212122009302/12/05 12:20:31  5-MIN KDBQ 121820Z 19003KT 10SM CLR 07/01 A2989 1110 65 400 190/03 RMK AO2
94908KDBQ DBQ20050212122509302/12/05 12:25:31  5-MIN KDBQ 121825Z 17005KT 10SM CLR 07/01 A2988 1110 65 400 160/05 RMK AO2
94908KDBQ DBQ20050212123009402/12/05 12:30:31  5-MIN KDBQ 121830Z 16005KT 10SM CLR 07/M01 A2988 1110 60 400 160/05 RMK AO2
94908KDBQ DBQ20050212123509302/12/05 12:35:31  5-MIN KDBQ 121835Z 18005KT 10SM CLR 07/01 A2988 1110 65 400 180/05 RMK AO2
94908KDBQ DBQ20050212124009302/12/05 12:40:31  5-MIN KDBQ 121840Z 17006KT 10SM CLR 07/00 A2988 1110 62 400 170/06 RMK AO2
94908KDBQ DBQ20050212124509302/12/05 12:45:31  5-MIN KDBQ 121845Z 16006KT 10SM CLR 07/00 A2988 1120 62 400 160/06 RMK AO2
94908KDBQ DBQ20050212125011002/12/05 12:50:31  5-MIN KDBQ 121850Z 17006KT 10SM CLR 07/00 A2988 1110 62 400 170/06 RMK AO2 SLP128 T00670000
94908KDBQ DBQ20050212125511002/12/05 12:55:31  5-MIN KDBQ 121855Z 17006KT 10SM CLR 07/00 A2988 1110 62 400 170/06 RMK AO2 SLP128 T00670000
94908KDBQ DBQ20050212130009302/12/05 13:00:31  5-MIN KDBQ 121900Z 16004KT 10SM CLR 07/00 A2988 1120 62 400 160/04 RMK AO2
94908KDBQ DBQ20050212130509302/12/05 13:05:31  5-MIN KDBQ 121905Z 14004KT 10SM CLR 07/01 A2988 1120 65 400 140/04 RMK AO2
94908KDBQ DBQ20050212131009302/12/05 13:10:31  5-MIN KDBQ 121910Z 15004KT 10SM CLR 07/01 A2988 1110 65 400 150/04 RMK AO2
94908KDBQ DBQ20050212131509302/12/05 13:15:31  5-MIN KDBQ 121915Z 14004KT 10SM CLR 07/01 A2988 1120 65 400 140/04 RMK AO2
94908KDBQ DBQ20050212132009302/12/05 13:20:31  5-MIN KDBQ 121920Z 15004KT 10SM CLR 07/01 A2988 1120 65 400 150/04 RMK AO2
94908KDBQ DBQ20050212132513602/12/05 13:25:31  5-MIN KDBQ 121925Z 16004KT 10SM CLR 07/00 A2988 1120 62 400 160/04 RMK ASM CLR 07/01 A2988 1110 65 400 160/05 RMK AO2
94908KDBQ DBQ20050212134509202/12/05 13:45:31  5-MIN KDBQ 121945Z 16004KT 9SM CLR 07/01 A2988 1110 65 400 150/04 RMK AO2
94908KDBQ DBQ20050212135010802/12/05 13:50:31  5-MIN KDBQ 121950Z 14006KT 9SM CLR 07/01 A2988 1120 67 400 140/06 RMK AO2 SLP1204 RMK AO2
94908KDBQ DBQ20050212141509202/12/05 14:15:31  5-MIN KDBQ 122015Z 08006KT 9SM CLR 07/01 A2987 1130 65 500 080/06 RMK AO2
94908KDBQ DBQ20050212142009202/12/05 14:20:31  5-MIN KDBQ 122020Z 08005KT 9SM CLR 07/01 A2986 1130 65 500 080/05 RMK AO2
94908KDBQ DBQ20050212142508402/12/05 14:25:31  5-MIN KDBQ 122025Z 09M CLR 07/02 A2985 1140 68 500 140/05 RMK AO2
94908KDBQ DBQ20050212145011502/12/05 14:50:31  5-MIN KDBQ 122050Z 15005KT 9SM CLR 07/01 A2985 1140 65 500 140/05 RMK AO2 SLP118 T00720011 58004
94908KDBQ DBQ20050212145511102/12/05 14:55:31  5-MIN KDBQ 122055Z 15004KT 9SM CLR 07/01 A2986 1140 65 2/01 A2985 1140 65 500 150/03 RMK AO2
94908KDBQ DBQ20050212150512702/12/05 15:05:31  5-MIN KDBQ 122105Z 15004KT 9SM CLR 07/01 A2985 1140 65 000KT 10SM CLR 07/01 A2986 1140 65 500 000/00 RMK AO2
94908KDBQ DBQ20050212154009302/12/05 15:40:31  5-MIN KDBQ 122140Z 00000KT 10SM CLR 07/01 A2986 1140 65 500 000/00 RMK AO2
94908KDBQ DBQ20050212154508402/12/05 15:45:31  5-MIN KDBQ 122145Z 00000KT 9SM CLR 07/02 A2986 1140 68 500 000/O2
94908KDBQ DBQ20050212161009202/12/05 16:10:31  5-MIN KDBQ 122210Z 15004KT 9SM CLR 06/01 A2985 1140 70 400 150/04 RMK AO2
94908KDBQ DBQ20050212161509202/12/05 16:15:31  5-MIN KDBQ 122215Z 15004KT 8SM CLR 06/01 A2985 1140 73 300 150/04 RMK AO2
94908KDBQ DBQ20050212162004902/12/05 16:20:31  5-MIN KDBQ 122220Z 15003KT 8S3
94908KDBQ DBQ20050212164509202/12/05 16:45:31  5-MIN KDBQ 122245Z 16004KT 8SM CLR 05/01 A2985 1140 73 200 150/04 RMK AO2
94908KDBQ DBQ20050212165010902/12/05 16:50:31  5-MIN KDBQ 122250Z 16005KT 8SM CLR 05/01 A2985 1140 73 200 150/05 RMK AO2 SLP119 T00500006
94908KDBQ DBQ20050212165509402/12/05 16:55:31  5-MIN KDBQ 126 2315Z 15005KT 8SM CLR 04/01 A2986 1140 76 200 140/05 RMK AO2
94908KDBQ DBQ20050212172009202/12/05 17:20:31  5-MIN KDBQ 122320Z 14004KT 7SM CLR 04/01 A2986 1140 76 200 130/04 RMK AO2
94908KDBQ DBQ20050212172511802/12/05 17:25:31  5-MIN KDBQ 122325Z 14005KT 7SM CLR 04/01 A2985 1140 79 M CLR 04/01 A2985 1140 79 100 130/05 RMK AO2
94908KDBQ DBQ20050212175012502/12/05 17:50:31  5-MIN KDBQ 122350Z 15005KT 8SM CLR 03/01 A2986 1140 82 0 140/05 RMK AO2 SLP122 T00330006 10078 20033 58012
94908KDBQ DBQ20050212175512502/12/05 17:55:31  5-MIN KDBQ 122355Z 15003KT 8SM CLR 03/00 A2986 1130 82 0 150/03 RMK AO2 SLP124 T00280000 10078 20028 53002
94908KDBQ DBQ20050212180009002/12/05 18:00:31  5-MIN KDBQ 130000Z 15004KT 8SM CLR 03/00 A2986 1130 79 0 150/04 RMK AO2
94908KDBQ DBQ20050212180509202/12/05 18:05:31  5-MIN KDBQ 130005Z 13005KT 8SM CLR 04/01 A2986 1130 79 100 130/05 RMK AO2
94908KDBQ DBQ20050212181009202/12/05 18:10:31  5-MIN KDBQ 130010Z 14005KT 8SM CLR 04/01 A2986 1140 79 100 140/05 RMK AO2
94908KDBQ DBQ20050212181509202/12/05 18:15:31  5-MIN KDBQ 130015Z 15006KT 8SM CLR 04/01 A2986 1140 79 100 150/06 RMK AO2
94908KDBQ DBQ20050212182009002/12/05 18:20:31  5-MIN KDBQ 130020Z 14007KT 8SM CLR 03/01 A2986 1130 82 0 140/07 RMK AO2
94908KDBQ DBQ20050212182509202/12/05 18:25:31  5-MIN KDBQ 130025Z 14005KT 8SM CLR 04/01 A2986 1130 79 100 140/05 RMK AO2
94908KDBQ DBQ20050212183007302/12/05 18:30:31  5-MIN KDBQ 130030Z 14007KT 8SM CLR 04/01 A2986 1130 79
94908KDBQ DBQ20050212184509102/12/05 18:45:31  5-MIN KDBQ 130045Z 14006KT 8SM CLR 03/01 A2986 1130 82 0  140/06 RMK AO2
94908KDBQ DBQ20050212185011802/12/05 18:50:31  5-MIN KDBQ 130050Z 14006KT 8S9  KDBQ 130110Z 13006KT 8SM CLR 04/01 A2986 1140 82 100 130/06 RMK AO2
94908KDBQ DBQ20050212191509002/12/05 19:15:31  5-MIN KDBQ 130115Z 13006KT 7SM CLR 03/01 A2986 1130 82 0 130/06 RMK AO2
94908KDBQ DBQ20050212192012502/12/05 19:20:31  5-MIN KDBQ 130120Z 13004KT 7SM CLR 04/01 A2986 1130 82 006KT 7SM CLR 03/01 A2986 1130 82 0  130/06 RMK AO2
94908KDBQ DBQ20050212194509002/12/05 19:45:31  5-MIN KDBQ 130145Z 13006KT 7SM CLR 03/01 A2986 1130 82 0 130/06 RMK AO2
94908KDBQ DBQ20050212195009302/12/05 19:50:31  5-MIN KDBQ 130150Z AUTO 12005KT 7SM CLR 03/01 A2986 1130 82 0 120/05 RMKNO
94908KDBQ DBQ20050212195515402/12/05 19:55:31  5-MIN KDBQ 130155Z AUTO 12006KT 7SM CLR 03/01 A2986 1130 82 0 120/06 RMK AO2 SLPKT 6SM BR CLR 03/01 A2986 1130 85 0 110/06 RMK AO2 TSNO
94908KDBQ DBQ20050212203010302/12/05 20:30:31  5-MIN KDBQ 130230Z AUTO 11007KT 6SM BR CLR 03/01 A2986 1130 85 0 110/07 RMK AO2 TSNO
94908KDBQ DBQ20050212203513702/12/05 20:35:31  5-MIN KDBQ 130235Z AUTO 10008KT 6SM BR CLR 03/01 A2986 /01 A29851140 82 100 080/09 RMK AO2 SLP118 T00390011 58004 TSNO
94908KDBQ DBQ20050212210020502/12/05 21:00:31  5-MIN KDBQ 130300Z AUTO 09007KT 7SM CLR 04/01 A2985 1150 82 100 090/07 RMK AO2 TSNO TO 08007KT 6SM BR CLR 03/01 A2984 05Z AUTO 10005KT 6SM HZ CLR 04/01 A298 1150 89 0 080/07 RMK AO2 TSNO
94908KDBQ DBQ20050212213010502/12/05 21:30:31  5-MIN KDBQ 130330Z AUTO 09006KT 6SM BR CLR 03/01 A2984 1150 85 100 090/06 RMK AO2 TSNO
94908KDBQ DBQ20050212213506502/12/05 21:35:31  5-MIN KDBQ 130335Z AUTO 09006KT 6SM BR CLR 034
94908KDBQ DBQ20050212220012102/12/05 22:00:31  5-MIN KDBQ 130400Z AUTO 12004KT 6SM BR CLR 03/01 A2983 1160 89 0 120/04 RMK AO2 TSNO 02/12/05 22:05:34
94908KDBQ DBQ20050212222510502/12/05 22:25:31  5-MIN KDBQ 130425Z AUTO 11006KT 6SM BR CLR 03/01 A2984 1150 85 100 110/06 RMK AO2 TSNO
94908KDBQ DBQ20050212223010302/12/05 22:30:31  5-MIN KDBQ 130430Z AUTO 10006KT 5SM BR CLR 03/01 A2984 1150 89 0 100/06 RMK AO2 TSNO
94908KDBQ DBQ20050212223504802/12/05 22:35:31  5-MIN4  SLP112 T00280011 TSNO
94908KDBQ DBQ20050212224010302/12/05 22:40:31  5-MIN KDBQ 130440Z AUTO 12007KT 5SM BR CLR 03/01 A2984 1150 89 0 120/07 RMK AO2 TSNO
94908KDBQ DBQ20050212224510302/12/05 22:45:31  5-MIN KDBQ 130445Z AUTO 12005KT 5SM BR CLR 03/01 A2984 1160 89 0 110/05 RMK AO2 TSNO
94908KDBQ DBQ20050212225012002/12/05 22:50:31  5-MIN KDBQ 130450Z AUTO 12004KT 5SM BR CLR 03/01 A2984 1160 89 0 120/04 RMK AO2 SLP112 T00280011 TSNO
94908KDBQ DBQ20050212225512002/12/05 22:55:31  5-MIN KDBQ 130455Z AUTO 12007KT 5SM BR CLR 03/01 A2984 1160 89 0 120/07 RMK AO2 SLP111 T00280011 TSNO
94908KDBQ DBQ20050212230010302/12/05 23:00:31  5-MIN KDBQ 130500Z AUTO 11008KT 5SM BR CLR 03/01 A2983 1160 89 0 110/08 RMK AO2 TSNO
94908KDBQ DBQ20050212230510302/12/05 23:05:31  5-MIN KDBQ 130505Z AUTO 12009KT 5SM BR CLR 03/01 A2983 1160 89 0 120/09 RMK AO2 TSNO
94908KDBQ DBQ20050212231010502/12/05 23:10:31  5-MIN KDBQ 130510Z AUTO 12008KT 5SM BR CLR 03/01 A2983 1160 85 100 120/08 RMK AO2 TSNO
94908KDBQ DBQ20050212231510502/12/05 23:15:31  5-MIN KDBQ 130515Z AUTO 12010KT 6SM BR CLR 03/01 A2983 1160 85 100 120/10 RMK AO2 TSNO
94908KDBQ DBQ20050212232010502/12/05 23:20:31  5-MIN KDBQ 130520Z AUTO 12010KT 6SM BR CLR 03/01 A2983 1160 85 100 120/10 RMK AO2 TSNO
94908KDBQ DBQ20050212232510502/12/05 23:25:31  5-MIN KDBQ 130525Z AUTO 12011KT 6SM BR CLR 03/01 A2983 1160 85 100 120/11 RMK AO2 TSNO
94908KDBQ DBQ20050212233010502/12/05 23:30:31  5-MIN KDBQ 130530Z AUTO 12012KT 6SM BR CLR 03/01 A2983 1160 85 100 120/12 RMK AO2 TSNO
94908KDBQ DBQ20050212233510502/12/05 23:35:31  5-MIN KDBQ 130535Z AUTO 13011KT 6SM BR CLR 03/01 A2983 1170 85 100 120/11 RMK AO2 TSNO
94908KDBQ DBQ20050212234010502/12/05 23:40:31  5-MIN KDBQ 130540Z AUTO 13012KT 6SM BR CLR 03/01 A2983 1170 85 100 130/12 RMK AO2 TSNO
94908KDBQ DBQ20050212234510502/12/05 23:45:31  5-MIN KDBQ 130545Z AUTO 13012KT 6SM BR CLR 03/01 A2983 1170 85 100 130/12 RMK AO2 TSNO
94908KDBQ DBQ20050212235015002/12/05 23:50:31  5-MIN KDBQ 130550Z AUTO 13010KT 6SM BR CLR 03/01 A2983 1170 85 100 130/10 RMK AO2 SLP108 T00330011 10044 20028 400781044 58004 TSNO
94908KDBQ DBQ20050212235515002/12/05 23:55:31  5-MIN KDBQ 130555Z AUTO 13010KT 6SM BR CLR 03/01 A2983 1170 85 100 130/10 RMK AO2 SLP108 T00330011 10044 20028 400781044 56008 TSNO
94908KDBQ DBQ20050213000010502/13/05 00:00:38  5-MIN KDBQ 130600Z AUTO 13010KT 6SM BR CLR 03/01 A2983 1160 85 100 130/10 RMK AO2 TSNO
94908KDBQ DBQ20050213000510502/13/05 00:05:31  5-MIN KDBQ 130605Z AUTO 12010KT 6SM BR CLR 03/01 A2983 1160 85 100 120/10 RMK AO2 TSNO
94908KDBQ DBQ20050213001010502/13/05 00:10:31  5-MIN KDBQ 130610Z AUTO 12009KT 6SM BR CLR 03/01 A2983 1160 85 100 120/09 RMK AO2 TSNO
94908KDBQ DBQ20050213001510302/13/05 00:15:31  5-MIN KDBQ 130615Z AUTO 12008KT 6SM BR CLR 03/01 A2983 1160 89 0 110/08 RMK AO2 TSNO
94908KDBQ DBQ20050213002010302/13/05 00:20:31  5-MIN KDBQ 130620Z AUTO 11008KT 5SM BR CLR 03/01 A2983 1170 85 0 110/08 RMK AO2 TSNO
94908KDBQ DBQ20050213002510302/13/05 00:25:31  5-MIN KDBQ 130625Z AUTO 12008KT 5SM BR CLR 03/01 A2982 1170 89 0 120/08 RMK AO2 TSNO
94908KDBQ DBQ20050213003010502/13/05 00:30:31  5-MIN KDBQ 130630Z AUTO 12010KT 5SM BR CLR 03/01 A2982 1170 85 100 120/10 RMK AO2 TSNO
94908KDBQ DBQ20050213003510302/13/05 00:35:31  5-MIN KDBQ 130635Z AUTO 11009KT 5SM BR CLR 03/01 A2982 1170 89 0 110/09 RMK AO2 TSNO
94908KDBQ DBQ20050213004010302/13/05 00:40:31  5-MIN KDBQ 130640Z AUTO 11010KT 5SM BR CLR 03/01 A2981 1180 89 0 110/10 RMK AO2 TSNO
94908KDBQ DBQ20050213004510302/13/05 00:45:31  5-MIN KDBQ 130645Z AUTO 11011KT 5SM BR CLR 03/01 A2981 1180 89 0 110/11 RMK AO2 TSNO
94908KDBQ DBQ20050213005012202/13/05 00:50:31  5-MIN KDBQ 130650Z AUTO 11011KT 5SM BR CLR 03/01 A2981 1180 85 100 110/11 RMK AO2 SLP102 T00330011 TSNO
94908KDBQ DBQ20050213005512202/13/05 00:55:31  5-MIN KDBQ 130655Z AUTO 10010KT 5SM BR CLR 03/01 A2981 1180 85 100 100/10 RMK A 100 100/10 RMK AO2 TSNO
94908KDBQ DBQ20050213011510502/13/05 01:15:31  5-MIN KDBQ 130715Z AUTO 10009KT 5SM BR CLR 03/01 A2981 1180 85 100 100/09 RMK AO2 TSNO
94908KDBQ DBQ20050213012011102/13/05 01:20:31  5-MIN KDBQ 130720Z AUTO 10009KT 5SM BR CLR 03/01 A2980 1190 85 100 100/09 RMK AO2 TSNO  TSNO
94908KDBQ DBQ20050213014510302/13/05 01:45:31  5-MIN KDBQ 130745Z AUTO 09009KT 5SM BR CLR 03/01 A2980 1190 89 0 090/09 RMK AO2 TSNO
94908KDBQ DBQ20050213015013502/13/05 01:50:31  5-MIN KDBQ 130750Z AUTO 10009KT 5SM BR CLR 03/01 A2980 1190 89 0 100/09 RMK AO2 SLP098 T00280011 TSNO 0 RMK AO2 TSNO
94908KDBQ DBQ20050213021510302/13/05 02:15:31  5-MIN KDBQ 130815Z AUTO 10010KT 5SM BR CLR 03/01 A2979 1200 89 0 100/10 RMK AO2 TSNO
94908KDBQ DBQ20050213022013002/13/05 02:20:31  5-MIN KDBQ 130820Z AUTO 09011KT 5SM BR CLR 03/01 A2979 1200 89 100 090/11 RMK AO2 TSNO 02/13/05912 RMK AO2 TSNO
94908KDBQ DBQ20050213023015202/13/05 02:30:31  5-MIN KDBQ 130830Z AUTO 10012KT 5SM BR CLR 03/01 A2979 1200 89 100 100/12 RMK AO2 TSNO 100 080/10 RMK AO2 SLP091 T00280011 58016 TSNO
94908KDBQ DBQ20050213030010502/13/05 03:00:31  5-MIN KDBQ 130900Z AUTO 09011KT 5SM BR CLR 03/01 A2978 1210 89 100 090/11 RMK AO2 TSNO
94908KDBQ DBQ20050213030510502/13/05 03:05:31  5-MIN KDBQ 130905Z AUTO 08012KT 5SM BR CLR 03/01 A2978 1220 89 100 080/12 RMK AO2 TSNO
94908KDBQ DBQ20050213033010502/13/05 03:30:31  5-MIN KDBQ 130930Z AUTO 09011KT 5SM BR CLR 03/01 A2977 1220 89 100 080/11 RMK AO2 TSNO
94908KDBQ DBQ20050213033511802/13/05 03:35:31  5-MIN KDBQ 130935Z AUTO 09013KT 5SM BR CLR 03/01 A2977 20 92 0 090/12 RMK AO2 SLP087 T00220011 TSNO
94908KDBQ DBQ20050213040010602/13/05 04:00:31  5-MIN KDBQ 131000Z AUTO 09011KT 4SM BR SCT110 02/01 A2976 1220 92 0 090/11 RMK AO2 TSNO
94908KDBQ DBQ20050213040512302/13/05 04:05:31  5-MIN KDBQ 131005Z AUTO 09010KT 4SM BR SCT110 02/01 A2976 12SNO 02/01A2976 1230 92 0 090/10 RMK AO2 TSNO
94908KDBQ DBQ20050213043010602/13/05 04:30:31  5-MIN KDBQ 131030Z AUTO 10010KT 4SM BR BKN095 02/01 A2976 1230 92 0 100/10 RMK AO2 TSNO
94908KDBQ DBQ20050213043512802/13/05 04:35:31  5-MIN KDBQ 131035Z AUTO 10011KT 4SM BR BKN090 02/01 A2976 12SNO30 89 100 100/14 RMK AO2 SLP083 T00280011 TSNO
94908KDBQ DBQ20050213050010802/13/05 05:00:31  5-MIN KDBQ 131100Z AUTO 10014KT 4SM BR OVC075 03/01 A2975 1240 89 100 100/14 RMK AO2 TSNO
94908KDBQ DBQ20050213050510502/13/05 05:05:31  5-MIN KDBQ 131105Z AUTO 10015KT 4SM BR OVC070 03/01 A2975 12O UPB09E13RAB13 P0000 TSNO
94908KDBQ DBQ20050213052513202/13/05 05:25:31  5-MIN KDBQ 131125Z AUTO 10012KT 4SM -RA BR OVC060 03/02 A2975 1240 92 100 100/12 RMK AO2 UPB09E13RAB13 P0000 TSNO
94908KDBQ DBQ20050213053009502/13/05 05:30:31  5-MIN KDBQ 131130Z AUTO 10011KT 4SM UP BR OVC060 03/02 O5RAB13E28 P0000 TSNO
94908KDBQ DBQ20050213055017302/13/05 05:50:31  5-MIN KDBQ 131150Z 08014G19KT 4SM BR BKN100 03/01 A2973 1250 89 100 080/14G19 RMK AO2 UPB09E35RAB13E28 SLP076 P0000 60000 T00280011 10033 20022 58016 TSNO
94908KDBQ DBQ20050213055516202/13/05 05:55:31  5-MIN KDBQ 131155Z 09015KT 4SM BR BKN110 03/01 A2973 1250 89 100 090/15 RMK AO2 UPB09E35RAB13E28 SLP077 P0000 60000 T00280011 10033 20022 58016
94908KDBQ DBQ20050213060009802/13/05 06:00:31  5-MIN KDBQ 131200Z 09015KT 4SM BR BKN110 03/02 A2973 1260 92 100 090/15 RMK AO2
94908KDBQ DBQ20050213060509802/13/05 06:05:31  5-MIN KDBQ 131205Z 09016KT 4SM BR BKN110 03/02 A2973 1260 92 100 090/16 RMK AO2
94908KDBQ DBQ20050213061009802/13/05 06:10:31  5-MIN KDBQ 131210Z 09014KT 4SM BR BKN110 03/02 A2973 1260 92 100 090/14 RMK AO2
94908KDBQ DBQ20050213061509802/13/05 06:15:31  5-MIN KDBQ 131215Z 10014KT 4SM BR SCT110 03/02 A2973 1260 92 100 090/14 RMK AO2
94908KDBQ DBQ20050213062009802/13/05 06:20:31  5-MIN KDBQ 131220Z 10013KT 4SM BR SCT110 03/02 A2973 1260 92 100 090/13 RMK AO2
94908KDBQ DBQ20050213062509802/13/05 06:25:31  5-MIN KDBQ 131225Z 10015KT 4SM BR BKN110 03/02 A2973 1260 92 100 100/15 RMK AO2
94908KDBQ DBQ20050213063009802/13/05 06:30:31  5-MIN KDBQ 131230Z 10015KT 4SM BR BKN110 03/02 A2973 1260 92 100 100/15 RMK AO2
94908KDBQ DBQ20050213063509802/13/05 06:35:31  5-MIN KDBQ 131235Z 10014KT 4SM BR BKN110 03/01 A2973 1260 89 100 100/14 RMK AO2
94908KDBQ DBQ20050213064009802/13/05 06:40:31  5-MIN KDBQ 131240Z 10014KT 4SM BR BKN110 03/01 A2973 1260 89 100 100/14 RMK AO2
94908KDBQ DBQ20050213064509802/13/05 06:45:31  5-MIN KDBQ 131245Z 10015KT 4SM BR OVC110 03/01 A2973 1260 89 100 100/15 RMK AO2
94908KDBQ DBQ20050213065011502/13/05 06:50:31  5-MIN KDBQ 131250Z 10013KT 4SM BR OVC110 03/01 A2973 1260 89 100 100/13 RMK AO2 SLP074 T00280011
94908KDBQ DBQ20050213065516502/13/05 06:55:31  5-MIN KDBQ 131255Z 10012KT 4SM BR OVC110 03/01 A2972 1260 89 100 100/12 RMK AO2 SLP074 T00280011 02/13/05 07:00:31 A29731260 89 100 100/13 RMK AO2
94908KDBQ DBQ20050213071009802/13/05 07:10:31  5-MIN KDBQ 131310Z 10012KT 4SM BR BKN100 03/01 A2973 1260 89 100 100/12 RMK AO2
94908KDBQ DBQ20050213071517802/13/05 07:15:31  5-MIN KDBQ 131315Z 10012KT 4SM BR FEW037 BKN100 03/01 A2973 1260 89 100 100/12 RMK AO21335Z 10012KT 3SM BR SCT039 OVC090 03/02 A2973 1260 89 200 100/12 RMK AO2
94908KDBQ DBQ20050213074020602/13/05 07:40:31  5-MIN KDBQ 131340Z 10012KT 3SM BR SCT039 OVC080 03/02 A2973 1250 89 200 100/12 RMK AO2 M -RA BR FEW041 OVC060 N KDBQ 131345Z 10013G18KT 3SM BR 03/02 A2973 1260 89 200 100/13 RMK AO2 P0000
94908KDBQ DBQ20050213080511502/13/05 08:05:31  5-MIN KDBQ 131405Z 10014KT 3SM -RA BR BKN055 OVC065 03/02 A2973 1260 89 200 100/14 RMK AO2 P0000
94908KDBQ DBQ20050213081517102/13/05 08:15:31  5-MIN KDBQ 131415Z 10016KT 3SM -RA BR SCT042 OVC055 03/02 A2973 1260 89 200 0001 1/2SM -RA BR BKN037 OVC050 03/02 A2972 1260 89 200 100/16 RMK AO2 P0002
94908KDBQ DBQ20050213084511502/13/05 08:45:31  5-MIN KDBQ 131445Z 10016KT 2SM -RA BR BKN037 OVC048 03/02 A2972 1270 89 200 100/16 RMK AO2 P0003
94908KDBQ DBQ20050213085012202/13/05 08:50:31  5-MIN KDBQ 131450Z 10015KT 2 M -RA BR SCT011 BKN036 OVC060 03/02 A2972 1270 89 200 100/15 RMK AO2 P0000
94908KDBQ DBQ20050213090512602/13/05 09:05:31  5-MIN KDBQ 131505Z 10015KT 2 1/2SM -RA BR BKN011 BKN036 OVC060 03/02 A2972 1270 89 200 100/15 RMK AO2 P0000
94908KDBQ DBQ20050213091014102/13/05 09:10:31  5-MIN KDBQ 1347  KDBQ 131525Z 10014G21KT 2 1/2SM -RA BR OVC009 03/02 A2971 1270 92 200 100/14G21 RMK AO2 CIG 006V011 P0001
94908KDBQ DBQ20050213093022602/13/05 09:30:31  5-MIN KDBQ 131530Z 10017KT 2 1/2SM -RA BR OVC009 03/02 A2971 1280 92 200 100/17 RMK AO2 P0002 02/13/05 09:35:31550Z 09014KT 2 1/2SM -RA BR OVC007 03/02 A2970 1290 92 200 090/14 RMK AO2 SLP064 P0002 T00330022
94908KDBQ DBQ20050213095513902/13/05 09:55:31  5-MIN KDBQ 131555Z 09015KT 2 1/2SM -RA BR OVC007 03/02 A2969 1290 92 200 090/15 RMK AO2 SLP063 P0003 T00330022 02/13/052
94908KDBQ DBQ20050213101511202/13/05 10:15:31  5-MIN KDBQ 131615Z 09013KT 1 3/4SM -RA BR OVC005 03/02 A2969 1300 92 200 090/13 RMK AO2 P0000
94908KDBQ DBQ20050213102014802/13/05 10:20:31  5-MIN KDBQ 131620Z 09016KT 2SM -RA BR OVC005 03/02 A2968 1300 92 200 080/16 RMK AO2 P0001 968 1300 92 200 090/16G21 RMK AO2 P0001
94908KDBQ DBQ20050213104511802/13/05 10:45:31  5-MIN KDBQ 131645Z 10013G21KT 1 3/4SM -RA BR OVC005 03/03 A2968 1300 96 200 090/13G21 RMK AO2 P0001
94908KDBQ DBQ20050213105016302/13/05 10:50:31  5-MIN KDBQ 131650Z 10013KT 1 1/2SM -RA BR OVC005 03/03 3 KDBQ 131705Z 10015KT 1 1/4SM -RA BR OVC005 03/03 A2968 1300 96 200 100/15 RMK AO2 P0001
94908KDBQ DBQ20050213111011202/13/05 11:10:31  5-MIN KDBQ 131710Z 10014KT 1 1/4SM -RA BR OVC005 03/03 A2968 1300 96 200 100/14 RMK AO2 P0002
94908KDBQ DBQ20050213111511602/13/05 11:15:31  5-MIN KDBQ 133  1 1/4SM -RA BR OVC005 03/03 A2968 1300 96 200 100/14G20 RMK AO2 CIG 003V007 P0003
94908KDBQ DBQ20050213113513002/13/05 11:35:31  5-MIN KDBQ 131735Z 11014G20KT 1 1/2SM -RA BR OVC005 03/03 A2968 1300 96 200 110/14G20 RMK AO2 CIG 003V008 P0003
94908KDBQ DBQ20050213114004602/13/05 11:40:31  5-MIN0028 10033 20028 58004
94908KDBQ DBQ20050213115516102/13/05 11:55:31  5-MIN KDBQ 131755Z 11014KT 2SM -RA BR OVC005 03/03 A2967 1310 96 200 110/14 RMK AO2 CIG 004V009 SLP056 P0004 60012 T00330028 10033 20028 56014
94908KDBQ DBQ20050213120007202/13/05 12:00:31  5-MIN KDBQ 131800Z 11014KT 2 1 0 090/13 RMK AO2 P0001
94908KDBQ DBQ20050213120510802/13/05 12:05:31  5-MIN KDBQ 131805Z 11013KT 2SM -RA BR OVC005 03/03 A2967 1310 96 300 100/13 RMK AO2 P0001
94908KDBQ DBQ20050213121011202/13/05 12:10:31  5-MIN KDBQ 131810Z 10014KT 1 3/4SM -RA BR OVC005 03/03 A2967 1310 96 300 100/14 RMK AO2 P0001
94908KDBQ DBQ20050213121511202/13/05 12:15:31  5-MIN KDBQ 131815Z 10013KT 1 3/4SM -RA BR OVC005 03/03 A2966 1320 96 300 090/13 RMK AO2 P0001
94908KDBQ DBQ20050213122012402/13/05 12:20:31  5-MIN KDBQ 131820Z 10013KT 1 3/4SM -RA BR OVC005 03/03 A2966 1320 96 300 100/13 RMK AO2 CIG 004V009 P0002
94908KDBQ DBQ20050213122512402/13/05 12:25:31  5-MIN KDBQ 131825Z 10014KT 1 1/2SM -RA BR OVC005 03/03 A2966 1320 96 300 100/14 RMK AO2 CIG 004V009 P0002
94908KDBQ DBQ20050213123012602/13/05 12:30:31  5-MIN KDBQ 131830Z 10014KT 1 1/2SM BR OVC005 03/03 A2966 1320 96 300 090/14 RMK AO2 RAE29 CIG 004V009 P0002
94908KDBQ DBQ20050213123512402/13/05 12:35:31  5-MIN KDBQ 131835Z 10013KT 1 1/4SM -RA BR OVC005 03/03 A2965 1330 96 300 100/13 RMK AO2 CIG 003V009 P0002
94908KDBQ DBQ20050213124012402/13/05 12:40:31  5-MIN KDBQ 131840Z 09013KT 1 1/4SM -RA BR OVC005 03/03 A2965 1330 96 300 090/13 RMK AO2 CIG 003V009 P0002
94908KDBQ DBQ20050213124512602/13/05 12:45:31  5-MIN KDBQ 131845Z 10013KT 1 1/2SM BR OVC005 03/03 A2965 1330 96 300 090/13 RMK AO2 RAE43 CIG 003V009 P0002
94908KDBQ DBQ20050213125014302/13/05 12:50:31  5-MIN KDBQ 131850Z 10012KT 1 1/4SM BR OVC005 03/03 A2964 1340 96 300 090/12 RMK AO2 RAE43 CIG 003V009 SLP046 P0002 T00330028
94908KDBQ DBQ20050213125514302/13/05 12:55:31  5-MIN KDBQ 131855Z 09013KT 1 1/4SM BR OVC005 03/03 A2964 1340 96 300 090/13 RMK AO2 RAE43 CIG 003V008 SLP045 P0002 T00330028
94908KDBQ DBQ20050213130013002/13/05 13:00:31  5-MIN KDBQ 131900Z 09015KT 1 1/4SM -RA BR OVC003 03/03 A2964 1340 96 300 090/15 RMK AO2 RAB00 CIG 003V006 P0000
94908KDBQ DBQ20050213130511402/13/05 13:05:31  5-MIN KDBQ 131905Z 10013KT 1SM -RA BR OVC003 03/03 A2964 1340 96 300 100/13 RMK AO2 RAB00 P0000
94908KDBQ DBQ20050213131011402/13/05 13:10:31  5-MIN KDBQ 131910Z 09014KT 1SM -RA BR OVC003 03/03 A2963 1350 96 300 090/14 RMK AO2 RAB00 P0000
94908KDBQ DBQ20050213131511402/13/05 13:15:31  5-MIN KDBQ 131915Z 09014KT 1SM -RA BR OVC003 03/03 A2963 1350 96 300 090/14 RMK AO2 RAB00 P0001
94908KDBQ DBQ20050213132011402/13/05 13:20:31  5-MIN KDBQ 131920Z 09014KT 1SM -RA BR OVC003 03/03 A2962 1350 96 300 090/14 RMK AO2 RAB00 P0001
94908KDBQ DBQ20050213132511402/13/05 13:25:31  5-MIN KDBQ 131925Z 09013KT 1SM -RA BR OVC003 03/03 A2962 1350 96 300 090/13 RMK AO2 RAB00 P0001
94908KDBQ DBQ20050213133011702/13/05 13:30:31  5-MIN KDBQ 131930Z 09016KT 1 1/4SM BR OVC003 03/03 A2962 1360 96 300 090/16 RMK AO2 RAB00E26 P0001
94908KDBQ DBQ20050213133511702/13/05 13:35:31  5-MIN KDBQ 131935Z 09015KT 1 1/4SM BR OVC003 03/03 A2962 1360 96 300 090/15 RMK AO2 RAB00E26 P0001
94908KDBQ DBQ20050213134012302/13/05 13:40:31  5-MIN KDBQ 131940Z 09016G20KT 1 1/2SM BR OVC003 03/03 A2962 1360 96 300 090/16G20 RMK AO2 RAB00E26 P0001
94908KDBQ DBQ20050213134512302/13/05 13:45:31  5-MIN KDBQ 131945Z 09015G20KT 1 1/2SM BR OVC003 03/03 A2961 1360 96 300 090/15G20 RMK AO2 RAB00E26 P0001
94908KDBQ DBQ20050213135013402/13/05 13:50:31  5-MIN KDBQ 131950Z 09014KT 1 1/2SM BR OVC003 03/03 A2961 1370 96 300 090/14 RMK AO2 RAB00E26 SLP035 P0001 T00330028
94908KDBQ DBQ20050213135513402/13/05 13:55:31  5-MIN KDBQ 131955Z 09014KT 1 1/4SM BR OVC003 03/03 A2961 1370 96 300 090/14 RMK AO2 RAB00E26 SLP034 P0001 T00330028
94908KDBQ DBQ20050213140010202/13/05 14:00:31  5-MIN KDBQ 132000Z 09013KT 1 1/4SM BR OVC003 03/03 A2961 1370 96 300 090/13 RMK AO2
94908KDBQ DBQ20050213140510202/13/05 14:05:31  5-MIN KDBQ 132005Z 10012KT 1 1/4SM BR OVC003 03/03 A2960 1370 96 300 100/12 RMK AO2
94908KDBQ DBQ20050213141010202/13/05 14:10:31  5-MIN KDBQ 132010Z 10014KT 1 1/4SM BR OVC003 03/03 A2960 1370 96 300 100/14 RMK AO2
94908KDBQ DBQ20050213141510202/13/05 14:15:31  5-MIN KDBQ 132015Z 10013KT 1 1/4SM BR OVC003 03/03 A2960 1370 96 300 100/13 RMK AO2
94908KDBQ DBQ20050213142009802/13/05 14:20:31  5-MIN KDBQ 132020Z 09013KT 1SM BR OVC003 03/03 A2960 1380 96 300 090/13 RMK AO2
94908KDBQ DBQ20050213142510402/13/05 14:25:31  5-MIN KDBQ 132025Z 10014G20KT 1SM BR OVC003 03/03 A2959 1380 96 300 100/14G20 RMK AO2
94908KDBQ DBQ20050213143011402/13/05 14:30:31  5-MIN KDBQ 132030Z 09013KT 1SM -RA BR OVC003 03/03 A2959 1380 96 300 090/13 RMK AO2 RAB26 P0000
94908KDBQ DBQ20050213143511802/13/05 14:35:31  5-MIN KDBQ 132035Z 09014KT 1 1/4SM -RA BR OVC003 03/03 A2959 1380 96 300 090/14 RMK AO2 RAB26 P0000
94908KDBQ DBQ20050213144011802/13/05 14:40:31  5-MIN KDBQ 132040Z 10014KT 1 1/2SM -RA BR OVC003 03/03 A2959 1380 96 300 100/14 RMK AO2 RAB26 P0000
94908KDBQ DBQ20050213144511802/13/05 14:45:31  5-MIN KDBQ 132045Z 10013KT 1 3/4SM -RA BR OVC003 03/03 A2959 1380 96 300 090/13 RMK AO2 RAB26 P0000
94908KDBQ DBQ20050213145015102/13/05 14:50:31  5-MIN KDBQ 132050Z AUTO 09013KT 1 3/4SM BR OVC003 03/03 A2959 1390 96 300 090/13 RMK AO2 RAB26E47 SLP027 P0000 60003 T00330028 56014
94908KDBQ DBQ20050213145514602/13/05 14:55:31  5-MIN KDBQ 132055Z 09012KT 1 1/2SM BR OVC003 03/03 A2959 1390 96 300 090/12 RMK AO2 RAB26E47 SLP027 P0000 60003 T00330028 56028
94908KDBQ DBQ20050213150010202/13/05 15:00:31  5-MIN KDBQ 132100Z 10012KT 1 1/4SM BR OVC003 03/03 A2959 1390 96 300 100/12 RMK AO2
94908KDBQ DBQ20050213150510202/13/05 15:05:31  5-MIN KDBQ 132105Z 09014KT 1 1/4SM BR OVC003 04/03 A2959 1390 96 400 090/14 RMK AO2
94908KDBQ DBQ20050213151011802/13/05 15:10:31  5-MIN KDBQ 132110Z 10013KT 1 1/4SM -RA BR OVC003 03/03 A2958 1390 96 400 090/13 RMK AO2 RAB07 P0000
94908KDBQ DBQ20050213151513002/13/05 15:15:31  5-MIN KDBQ 132115Z 09013KT 1 1/2SM -RA BR OVC003 03/03 A2958 1390 96 400 090/13 RMK AO2 RAB07 CIG 002V005 P0000
94908KDBQ DBQ20050213152013002/13/05 15:20:31  5-MIN KDBQ 132120Z 09014KT 1 3/4SM -RA BR OVC003 04/03 A2958 1390 92 400 090/14 RMK AO2 RAB07 CIG 002V006 P0000
94908KDBQ DBQ20050213152512502/13/05 15:25:31  5-MIN KDBQ 132125Z 09014KT 2SM BR OVC003 04/03 A2958 1400 92 400 090/14 RMK AO2 RAB07E24 CIG 002V006 P0000
94908KDBQ DBQ20050213153011702/13/05 15:30:31  5-MIN KDBQ 132130Z 10016KT 1 3/4SM BR OVC003 04/03 A2958 1400 92 400 100/16 RMK AO2 RAB07E24 P0001
94908KDBQ DBQ20050213153511702/13/05 15:35:31  5-MIN KDBQ 132135Z 09013KT 1 1/2SM BR OVC003 04/03 A2957 1400 92 400 090/13 RMK AO2 RAB07E24 P0001
94908KDBQ DBQ20050213154012402/13/05 15:40:31  5-MIN KDBQ 132140Z 10014KT 1 1/2SM -RA BR OVC003 04/03 A2957 1400 92 400 100/14 RMK AO2 RAB07E24B40 P0001
94908KDBQ DBQ20050213154512402/13/05 15:45:31  5-MIN KDBQ 132145Z 10015KT 1 3/4SM -RA BR OVC003 03/03 A2957 1400 96 400 100/15 RMK AO2 RAB07E24B40 P0001
94908KDBQ DBQ20050213155013602/13/05 15:50:31  5-MIN KDBQ 132150Z 10014KT 2SM RA BR OVC003 04/03 A2957 1400 92 400 090/14 RMK AO2 RAB07E24B40 SLP022 P0002 T00390028
94908KDBQ DBQ20050213155513702/13/05 15:55:31  5-MIN KDBQ 132155Z 09013KT 2SM -RA BR OVC003 04/03 A2957 1400 92 400 090/13 RMK AO2 RAB07E24B40 SLP022 P0002 T00390028
94908KDBQ DBQ20050213160011202/13/05 16:00:31  5-MIN KDBQ 132200Z 10013KT 1 3/4SM -RA BR OVC003 03/03 A2957 1400 96 400 100/13 RMK AO2 P0001
94908KDBQ DBQ20050213160510802/13/05 16:05:31  5-MIN KDBQ 132205Z 09014KT 2SM -RA BR OVC003 03/03 A2957 1400 96 400 090/14 RMK AO2 P0001
94908KDBQ DBQ20050213161010702/13/05 16:10:31  5-MIN KDBQ 132210Z 09014KT 2SM RA BR OVC003 03/03 A2957 1410 96 400 090/14 RMK AO2 P0002
94908KDBQ DBQ20050213161510702/13/05 16:15:31  5-MIN KDBQ 132215Z 10012KT 2SM RA BR OVC003 03/03 A2957 1410 96 400 100/12 RMK AO2 P0003
94908KDBQ DBQ20050213162010702/13/05 16:20:31  5-MIN KDBQ 132220Z 10013KT 2SM RA BR OVC003 03/03 A2957 1410 96 400 100/13 RMK AO2 P0004
94908KDBQ DBQ20050213162510802/13/05 16:25:31  5-MIN KDBQ 132225Z 10013KT 2SM -RA BR OVC003 03/03 A2956 1410 96 400 090/13 RMK AO2 P0004
94908KDBQ DBQ20050213163011202/13/05 16:30:31  5-MIN KDBQ 132230Z 09015KT 1 1/2SM -RA BR OVC003 03/03 A2956 1410 96 400 090/15 RMK AO2 P0004
94908KDBQ DBQ20050213163511202/13/05 16:35:31  5-MIN KDBQ 132235Z 09015KT 1 1/4SM -RA BR OVC003 03/03 A2956 1410 96 400 090/15 RMK AO2 P0004
94908KDBQ DBQ20050213164011202/13/05 16:40:31  5-MIN KDBQ 132240Z 10013KT 1 1/4SM -RA BR OVC003 03/03 A2956 1410 96 400 100/13 RMK AO2 P0004
94908KDBQ DBQ20050213164510802/13/05 16:45:31  5-MIN KDBQ 132245Z 09014KT 1SM -RA BR OVC003 03/03 A2956 1410 96 400 090/14 RMK AO2 P0005
94908KDBQ DBQ20050213165012902/13/05 16:50:31  5-MIN KDBQ 132250Z 09013KT 1 1/4SM -RA BR OVC003 03/03 A2956 1410 96 400 090/13 RMK AO2 SLP017 P0005 T00330028
94908KDBQ DBQ20050213165513002/13/05 16:55:31  5-MIN KDBQ 132255Z 09012KT 1 1/4SM -RA BR OVC003 03/03 A2956 14003 03/03 A2956 1420 96 400 090/12 RMK AO2 P0000
94908KDBQ DBQ20050213171011202/13/05 17:10:31  5-MIN KDBQ 132310Z 09013KT 1 1/4SM -RA BR OVC003 03/03 A2956 1420 96 400 090/13 RMK AO2 P0000
94908KDBQ DBQ20050213171513802/13/05 17:15:31  5-MIN KDBQ 132315Z 09013KT 1 3/4SM -RA BR OVC003 03/03 1/2SM -RA BR OVC003 03/03 A2955 1420 96 400 090/14 RMK AO2 P0001
94908KDBQ DBQ20050213174011202/13/05 17:40:31  5-MIN KDBQ 132340Z 09013KT 1 1/2SM -RA BR OVC003 03/03 A2955 1420 96 400 090/13 RMK AO2 P0001
94908KDBQ DBQ20050213174510502/13/05 17:45:31  5-MIN KDBQ 132345Z 08014KT 1 1/2SM -R3 003 03/03A2955 1420 96 400 090/15 RMK AO2 P0000
94908KDBQ DBQ20050213180511202/13/05 18:05:31  5-MIN KDBQ 140005Z 08016KT 2 1/2SM -RA BR OVC003 03/03 A2955 1420 96 400 080/16 RMK AO2 P0000
94908KDBQ DBQ20050213181008802/13/05 18:10:31  5-MIN KDBQ 140010Z 08015KT 2 1/2SM -RA BR OVC003 03/03  RMK AO2 P0001
94908KDBQ DBQ20050213182011202/13/05 18:20:31  5-MIN KDBQ 140020Z 09014KT 2 1/2SM -RA BR OVC003 03/02 A2955 1430 92 400 090/14 RMK AO2 P0001
94908KDBQ DBQ20050213182503202/13/05 18:25:31  5-MIN2  P0001
94908KDBQ DBQ20050213184511202/13/05 18:45:31  5-MIN KDBQ 140045Z 09014KT 2 1/2SM -RA BR OVC003 03/02 A2954 1430 92 400 080/14 RMK AO2 P0001
94908KDBQ DBQ20050213185011602/13/05 18:50:31  5-MIN KDBQ 140050Z 09015KT 5SM -RA BR OVC003 03/02 A2954 1430 96 300 090/15 RMK AO2 SLP011 P00010
94908KDBQ DBQ20050213191010802/13/05 19:10:31  5-MIN KDBQ 140110Z 08015KT 5SM -RA BR OVC003 03/02 A2953 1440 96 300 080/15 RMK AO2 P0001
94908KDBQ DBQ20050213191516902/13/05 19:15:31  5-MIN KDBQ 140115Z 08013KT 5SM -RA BR OVC003 03/02 A2953 1440 96 300 080/13 RMK AO2 P0001 02/13/05 19:20:31  1450 96 400 080/13 RMK AO2 UPB22E29 P0001
94908KDBQ DBQ20050213194011702/13/05 19:40:31  5-MIN KDBQ 140140Z 08014KT 4SM -RA BR OVC003 03/02 A2952 1450 96 400 080/14 RMK AO2 UPB22E29 P0001
94908KDBQ DBQ20050213194511802/13/05 19:45:31  5-MIN KDBQ 140145Z AUTO 08012KT 4SM -RA BR OVC003 03/02 A2952 1450 96 400 080/13 RMK AO2 P0000 TSNO
94908KDBQ DBQ20050213200512802/13/05 20:05:31  5-MIN KDBQ 140205Z AUTO 08014KT 4SM UP BR OVC003 03/02 A2951 1460 96 400 080/14 RMK AO2 RAE04UPB04 P0000 TSNO
94908KDBQ DBQ20050213201011202/13/05 20:10:31  5-MIN KDBQ 140210Z AUTO 08013KT 4SM UP BR OVC2 60 96 400 070/11 RMK AO2 RAE04UPB04 P0000 TSNO
94908KDBQ DBQ20050213203013502/13/05 20:30:31  5-MIN KDBQ 140230Z AUTO 07011KT 5SM -RA BR OVC003 03/02 A2951 1460 92 400 070/11 RMK AO2 RAE04B26UPB04E26 P0000 TSNO
94908KDBQ DBQ20050213203514802/13/05 20:35:31  5-MIN KDBQ 140235Z AUTO 07012KT 5SM -02 A2950 1470 92 400 070/11 RMK AO2 RAE04B26UPB04E26 SLP997 P0001 60004 T00280017 56013 TSNO
94908KDBQ DBQ20050213205519702/13/05 20:55:31  5-MIN KDBQ 140255Z AUTO 07010KT 4SM -RA BR OVC003 03/02 A2950 1470 92 400 070/10 RMK AO2 RAE04B26UPB04E26 SLP996 P0001 60004 C003 02/02A2949 1470 96 300 060/08 RMK AO2 P0001 TSNO
94908KDBQ DBQ20050213211511802/13/05 21:15:31  5-MIN KDBQ 140315Z AUTO 06010KT 4SM -RA BR OVC003 02/02 A2949 1480 96 300 060/10 RMK AO2 P0001 TSNO
94908KDBQ DBQ20050213212013302/13/05 21:20:31  5-MIN KDBQ 140320Z AUTO 04007KT 4SM -RA BR OVKT 3SM -RA BR OVC003 02/02A2949 1480 96 300 040/06 RMK AO2 P0001 TSNO
94908KDBQ DBQ20050213214013202/13/05 21:40:31  5-MIN KDBQ 140340Z AUTO 03006KT 1 1/4SM -RA BR OVC003 02/02 A2948 1490 96 300 030/06 RMK AO2 VIS 1/2V3 P0001 TSNO
94908KDBQ DBQ20050213220510702/13/05 22:05:31  5-MIN KDBQ 140405Z AUTO 06008KT 1 3/4SM -RA BR OVC003 02/02 A2947 1500 96 300 060/08 R02
94908KDBQ DBQ20050213223019402/13/05 22:30:31  5-MIN KDBQ 140430Z AUTO 02007KT 1/4SM UP FG OVC001 02/02  A2947 1500 100 300 020/07 RMK AO2 RAE29NO 1 02/02A2946 1500 100 300 020/07 RMK AO2 RAE29UPB0357E0359B29E34 P0000 TSNO
94908KDBQ DBQ20050213223514002/13/05 22:35:31  5-MIN KDBQ 140435Z AUTO 03007KT 1/4SM FG VV001 02/02 A2947 1500 100 300 030/07 RMK AO2 RAE29UPB0357E0359B29E34 P0000 TSNO
94908KDBQ DBQ20050213224014002/13/05 22:40:31  5-MIN KDBQ 140440Z AUTO 03006KT 1/4SM FG VV001 02/02 A2946 1500 100 300 030/06 RMK AO2 RAE29UPB0357E0359B29E34 P0000 TSNO
94908KDBQ DBQ20050213224514002/13/05 22:45:31  5-MIN KDBQ 140445Z AUTO 02007KT 1/4SM FG VV001 02/02 A2946 1500 100 300 020/07 RMK AO2 RAE29UPB0357E0359B29E34 P0000 TSNO
94908KDBQ DBQ20050213225015702/13/05 22:50:31  5-MIN KDBQ 140450Z AUTO 02006KT 1/4SM FG VV001 02/02 A2946 1510 100 300 020/06 RMK AO2 RAE29UPB0357E0359B29E34 SLP984 P0000 T00170017 TSNO
94908KDBQ DBQ20050213225515702/13/05 22:55:31  5-MIN KDBQ 140455Z AUTO 03006KT 1/4SM FG VV001 02/02 A2946 1510 100 300 030/06 RMK AO2 RAE29UPB0357E0359B29E34 SLP984 P0000 T00170017 TSNO
94908KDBQ DBQ20050213230011002/13/05 23:00:31  5-MIN KDBQ 140500Z AUTO 03005KT 1/4SM FG VV001 02/02 A2946 1510 100 300 030/05 RMK AO2 TSNO
94908KDBQ DBQ20050213230511002/13/05 23:05:31  5-MIN KDBQ 140505Z AUTO 01006KT 1/4SM FG VV001 02/02 A2946 1510 100 300 010/06 RMK AO2 TSNO
94908KDBQ DBQ20050213231011002/13/05 23:10:31  5-MIN KDBQ 140510Z AUTO 02007KT 1/4SM FG VV001 02/02 A2946 1510 100 300 020/07 RMK AO2 TSNO
94908KDBQ DBQ20050213231511002/13/05 23:15:31  5-MIN KDBQ 140515Z AUTO 03005KT 1/4SM FG VV001 02/02 A2946 1510 100 300 030/05 RMK AO2 TSNO
94908KDBQ DBQ20050213232011002/13/05 23:20:31  5-MIN KDBQ 140520Z AUTO 02005KT 1/4SM FG VV001 02/02 A2946 1510 100 300 020/05 RMK AO2 TSNO
94908KDBQ DBQ20050213232511002/13/05 23:25:31  5-MIN KDBQ 140525Z AUTO 02006KT 1/4SM FG VV001 02/02 A2945 1510 100 300 020/06 RMK AO2 TSNO
94908KDBQ DBQ20050213233011002/13/05 23:30:31  5-MIN KDBQ 140530Z AUTO 02006KT 1/4SM FG VV001 02/02 A2945 1510 100 300 020/06 RMK AO2 TSNO
94908KDBQ DBQ20050213233511002/13/05 23:35:31  5-MIN KDBQ 140535Z AUTO 02007KT 1/4SM FG VV001 02/02 A2945 1520 100 300 020/07 RMK AO2 TSNO
94908KDBQ DBQ20050213234011002/13/05 23:40:31  5-MIN KDBQ 140540Z AUTO 03007KT 1/4SM FG VV001 02/02 A2945 1520 100 300 020/07 RMK AO2 TSNO
94908KDBQ DBQ20050213234511002/13/05 23:45:31  5-MIN KDBQ 140545Z AUTO 01006KT 1/4SM FG VV001 02/02 A2945 1520 100 300 010/06 RMK AO2 TSNO
94908KDBQ DBQ20050213235016102/13/05 23:50:31  5-MIN KDBQ 140550Z AUTO 02006KT 1/4SM FG VV001 02/02 A2945 1520 100 300 020/06 RMK AO2 SLP980 60006 T00170017 10033 20017 400390017 58017 TSNO
94908KDBQ DBQ20050213235516102/13/05 23:55:31  5-MIN KDBQ 140555Z AUTO 03007KT 1/4SM FG VV001 02/02 A2944 1520 100 300 030/07 RMK AO2 SLP979 60006 T00170017 10033 20017 400390017 56018 TSNO
94908KDBQ DBQ20050214000011002/14/05 00:00:38  5-MIN KDBQ 140600Z AUTO 02006KT 1/4SM FG VV001 02/02 A2944 1520 100 300 020/06 RMK AO2 TSNO
94908KDBQ DBQ20050214000511002/14/05 00:05:31  5-MIN KDBQ 140605Z AUTO 03006KT 1/4SM FG VV001 02/02 A2944 1520 100 300 030/06 RMK AO2 TSNO
94908KDBQ DBQ20050214001011002/14/05 00:10:31  5-MIN KDBQ 140610Z AUTO 02006KT 1/4SM FG VV001 02/02 A2944 1520 100 300 020/06 RMK AO2 TSNO
94908KDBQ DBQ20050214001511002/14/05 00:15:34  5-MIN KDBQ 140615Z AUTO 03006KT 1/4SM FG VV001 02/02 A2944 1530 100 300 020/06 RMK AO2 TSNO
94908KDBQ DBQ20050214002011002/14/05 00:20:31  5-MIN KDBQ 140620Z AUTO 01007KT 1/4SM FG VV001 02/02 A2944 1530 100 300 010/07 RMK AO2 TSNO
94908KDBQ DBQ20050214002511002/14/05 00:25:31  5-MIN KDBQ 140625Z AUTO 03007KT 1/4SM FG VV001 02/02 A2944 1530 100 300 030/07 RMK AO2 TSNO
94908KDBQ DBQ20050214003011002/14/05 00:30:31  5-MIN KDBQ 140630Z AUTO 02005KT 1/4SM FG VV001 02/02 A2944 1530 100 300 020/05 RMK AO2 TSNO
94908KDBQ DBQ20050214003511002/14/05 00:35:31  5-MIN KDBQ 140635Z AUTO 02007KT 1/4SM FG VV001 02/02 A2944 1530 100 300 020/07 RMK AO2 TSNO
94908KDBQ DBQ20050214004011802/14/05 00:40:31  5-MIN KDBQ 140640Z AUTO 02009KT 1/4SM FG BKN001 OVC005 02/02 A2944 1530 100 300 020/09 RMK AO2 TSNO
94908KDBQ DBQ20050214004511802/14/05 00:45:31  5-MIN KDBQ 140645Z AUTO 01006KT 1/4SM FG BKN001 OVC005 02/02 A2944 1530 100 300 010/06 RMK AO2 TSNO
94908KDBQ DBQ20050214005012702/14/05 00:50:31  5-MIN KDBQ 140650Z AUTO 02007KT 1/4SM FG VV001 02/02 A2944 1530 100 300 020/07 RMK AO2 SLP977 T00170017 TSNO
94908KDBQ DBQ20050214005512702/14/05 00:55:31  5-MIN KDBQ 140655Z AUTO 02006KT 1/4SM FG VV001 02/02 A2944 1530 100 300 020/06 RMK AO2 SLP977 T00170017 TSNO
94908KDBQ DBQ20050214010011002/14/05 01:00:31  5-MIN KDBQ 140700Z AUTO 02006KT 1/4SM FG VV001 02/02 A2944 1530 100 300 010/06 RMK AO2 TSNO
94908KDBQ DBQ20050214010511002/14/05 01:05:31  5-MIN KDBQ 140705Z AUTO 02006KT 1/4SM FG VV001 02/02 A2943 1530 100 300 020/06 RMK AO2 TSNO
94908KDBQ DBQ20050214011011002/14/05 01:10:31  5-MIN KDBQ 140710Z AUTO 02006KT 1/4SM FG VV001 02/02 A2943 1540 100 300 020/06 RMK AO2 TSNO
94908KDBQ DBQ20050214011511002/14/05 01:15:31  5-MIN KDBQ 140715Z AUTO 02006KT 1/4SM FG VV001 02/02 A2943 1540 100 300 020/06 RMK AO2 TSNO
94908KDBQ DBQ20050214012011002/14/05 01:20:31  5-MIN KDBQ 140720Z AUTO 02007KT 1/4SM FG VV001 02/02 A2943 1540 100 300 010/07 RMK AO2 TSNO
94908KDBQ DBQ20050214012511002/14/05 01:25:31  5-MIN KDBQ 140725Z AUTO 02007KT 1/4SM FG VV001 02/02 A2942 1540 100 300 020/07 RMK AO2 TSNO
94908KDBQ DBQ20050214013011002/14/05 01:30:31  5-MIN KDBQ 140730Z AUTO 01006KT 1/4SM FG VV001 02/02 A2942 1540 100 300 010/06 RMK AO2 TSNO
94908KDBQ DBQ20050214013512502/14/05 01:35:31  5-MIN KDBQ 140735Z AUTO 01006KT 1/4SM UP FG VV001 02/02 A2942 1540 100 300 010/06 RMK AO2 UPB35 P0000 TSNO
94908KDBQ DBQ20050214014013402/14/05 01:40:31  5-MIN KDBQ 140740Z AUTO 36005KT 1/4SM -RA FG VV001 02/02 A2942 1540 100 300 360/05 RMK AO2 UPB35E38RAB38 P0000 TSNO
94908KDBQ DBQ20050214014513302/14/05 01:45:31  5-MIN KDBQ 140745Z AUTO 36005KT 1/4SM -RA FG VV001 02/01 A2943 1540 96 300 360/05 RMK AO2 UPB35E38RAB38 P0001 TSNO
94908KDBQ DBQ20050214015015002/14/05 01:50:31  5-MIN KDBQ 140750Z AUTO 36005KT 1/4SM -RA FG VV001 02/01 A2943 1540 96 300 360/05 RMK AO2 UPB35E38RAB38 SLP973 P0001 T00170011 TSNO
94908KDBQ DBQ20050214015515002/14/05 01:55:31  5-MIN KDBQ 140755Z AUTO 36005KT 1/4SM -RA FG VV001 02/01 A2943 1540 96 300 360/05 RMK AO2 UPB35E38RAB38 SLP973 P0001 T00170011 TSNO
94908KDBQ DBQ20050214020012002/14/05 02:00:31  5-MIN KDBQ 140800Z AUTO 35006KT 1/2SM -RA FG VV001 01/01 A2943 1540 100 300 350/06 RMK AO2 P0000 TSNO
94908KDBQ DBQ20050214020512002/14/05 02:05:31  5-MIN KDBQ 140805Z AUTO 35006KT 1/2SM -RA FG VV001 01/01 A2943 1540 100 300 350/06 RMK AO2 P0001 TSNO
94908KDBQ DBQ20050214021012002/14/05 02:10:31  5-MIN KDBQ 140810Z AUTO 35005KT 1/2SM -RA FG VV001 01/01 A2943 1540 100 300 350/05 RMK AO2 P0001 TSNO
94908KDBQ DBQ20050214021512002/14/05 02:15:31  5-MIN KDBQ 140815Z AUTO 36005KT 1/2SM -RA FG VV001 01/01 A2943 1540 100 300 360/05 RMK AO2 P0001 TSNO
94908KDBQ DBQ20050214022012002/14/05 02:20:31  5-MIN KDBQ 140820Z AUTO 35006KT 3/4SM -RA BR VV001 01/01 A2943 1530 100 300 350/06 RMK AO2 P0001 TSNO
94908KDBQ DBQ20050214022513802/14/05 02:25:31  5-MIN KDBQ 140825Z AUTO 35006KT 1/2SM UP FG BKN001 OVC007 01/01 A2943 1530 100 300 340/06 RMK AO2 RAE24UPB24 P0001 TSNO
94908KDBQ DBQ20050214023013802/14/05 02:30:31  5-MIN KDBQ 140830Z AUTO 34007KT 1/2SM FG BKN001 OVC007 01/01 A2943 1530 100 300 340/07 RMK AO2 RAE24UPB24E26 P0001 TSNO
94908KDBQ DBQ20050214023513002/14/05 02:35:31  5-MIN KDBQ 140835Z AUTO 34007KT 1/4SM UP FG VV001 01/01 A2944 1530 100 300 340/07 RMK AO2 RAE24UPB24 P0002 TSNO
94908KDBQ DBQ20050214024013802/14/05 02:40:31  5-MIN KDBQ 140840Z AUTO 34006KT 1/4SM UP FG BKN001 OVC007 01/01 A2944 1530 100 300 340/06 RMK AO2 RAE24UPB24 P0002 TSNO
94908KDBQ DBQ20050214024513802/14/05 02:45:31  5-MIN KDBQ 140845Z AUTO 34006KT 1/4SM UP FG BKN001 OVC007 01/01 A2944 1530 100 300 340/06 RMK AO2 RAE24UPB24 P0002 TSNO
94908KDBQ DBQ20050214025017402/14/05 02:50:31  5-MIN KDBQ 140850Z AUTO 34006KT 1/4SM -RA FG BKN001 OVC007 01/01 A2944 1530 100 200 340/06 RMK AO2 RAE24B48UPB24E48 SLP976 P0002 60003 T00110011 56018 TSNO
94908KDBQ DBQ20050214025517402/14/05 02:55:31  5-MIN KDBQ 140855Z AUTO 34006KT 1/2SM -RA FG SCT001 OVC007 01/01 A2944 1530 100 200 330/06 RMK AO2 RAE24B48UPB24E48 SLP977 P0002 60003 T00110011 55002 TSNO
94908KDBQ DBQ20050214030012802/14/05 03:00:31  5-MIN KDBQ 140900Z AUTO 34006KT 1/2SM -RA FG SCT001 OVC007 01/01 A2944 1530 100 200 340/06 RMK AO2 P0000 TSNO
94908KDBQ DBQ20050214030513802/14/05 03:05:31  5-MIN KDBQ 140905Z AUTO 34005KT 1/2SM UP FG SCT001 OVC007 01/01 A2944 1520 100 200 330/05 RMK AO2 RAE02UPB02 P0001 TSNO
94908KDBQ DBQ20050214031013702/14/05 03:10:31  5-MIN KDBQ 140910Z AUTO 32005KT 1/2SM -RA FG BKN001 OVC007 01/01 A2944 1520 100 200 320/05 RMK AO2 UPB02E07 P0001 TSNO
94908KDBQ DBQ20050214031513702/14/05 03:15:31  5-MIN KDBQ 140915Z AUTO 32005KT 1/2SM -RA FG BKN001 OVC007 01/01 A2945 1520 100 200 310/05 RMK AO2 UPB02E07 P0001 TSNO
94908KDBQ DBQ20050214032013602/14/05 03:20:31  5-MIN KDBQ 140920Z AUTO 32006KT 3/4SM RA BR BKN001 OVC007 01/01 A2945 1520 100 200 310/06 RMK AO2 UPB02E07 P0002 TSNO
94908KDBQ DBQ20050214032513902/14/05 03:25:31  5-MIN KDBQ 140925Z AUTO 31006KT 1 1/4SM -RA BR BKN001 OVC007 01/01 A2945 1520 100 200 310/06 RMK AO2 UPB02E07 P0002 TSNO
94908KDBQ DBQ20050214033013102/14/05 03:30:31  5-MIN KDBQ 140930Z AUTO 31005KT 1 3/4SM RA BR OVC001 01/01 A2945 1520 100 200 310/05 RMK AO2 UPB02E07 P0003 TSNO
94908KDBQ DBQ20050214033512702/14/05 03:35:31  5-MIN KDBQ 140935Z AUTO 31005KT 2SM RA BR OVC001 01/01 A2945 1520 100 200 310/05 RMK AO2 UPB02E07 P0004 TSNO
94908KDBQ DBQ20050214034013102/14/05 03:40:31  5-MIN KDBQ 140940Z AUTO 30005KT 2 1/2SM RA BR OVC001 01/01 A2945 1510 100 200 300/05 RMK AO2 UPB02E07 P0005 TSNO
94908KDBQ DBQ20050214034512802/14/05 03:45:31  5-MIN KDBQ 140945Z AUTO 30005KT 3SM -RA BR OVC001 01/01 A2945 1510 100 200 300/05 RMK AO2 UPB02E07 P0006 TSNO
94908KDBQ DBQ20050214035014302/14/05 03:50:31  5-MIN KDBQ 140950Z AUTO 30006KT 3SM RA BR OVC001 01/01 A2946 1510 96 200 300/06 RMK AO2 UPB02E07 SLP984 P0007 T00110006 TSNO
94908KDBQ DBQ20050214035514402/14/05 03:55:31  5-MIN KDBQ 140955Z AUTO 30007KT 4SM -RA BR OVC003 01/01 A2946 1510 96 200 300/07 RMK AO2 UPB02E07 SLP985 P0008 T00110006 TSNO
94908KDBQ DBQ20050214040011802/14/05 04:00:31  5-MIN KDBQ 141000Z AUTO 30007KT 4SM -RA BR OVC003 01/01 A2946 1500 96 200 300/07 RMK AO2 P0001 TSNO
94908KDBQ DBQ20050214040511802/14/05 04:05:31  5-MIN KDBQ 141005Z AUTO 30007KT 5SM -RA BR OVC003 01/01 A2947 1500 96 200 300/07 RMK AO2 P0001 TSNO
94908KDBQ DBQ20050214041012902/14/05 04:10:31  5-MIN KDBQ 141010Z AUTO 30007KT 4SM -SN BR OVC003 01/01 A2947 1500 96 200 300/07 RMK AO2 RAE06SNB06 P0002 TSNO
94908KDBQ DBQ20050214041514302/14/05 04:15:31  5-MIN KDBQ 141015Z AUTO 30006KT 4SM -SN BR BKN003 BKN023 OVC040 01/01 A2947 1500 96 200 300/06 RMK AO2 RAE06SNB06 P0002 TSNO
94908KDBQ DBQ20050214042014202/14/05 04:20:31  5-MIN KDBQ 141020Z AUTO 30006KT 4SM -RA BR BKN003 BKN023 OVC040 01/01 A2947 1500 100 100 300/06 RMK AO2 SNB06E17 P0002 TSNO
94908KDBQ DBQ20050214042514202/14/05 04:25:31  5-MIN KDBQ 141025Z AUTO 30005KT 4SM -RA BR SCT003 BKN023 OVC040 01/01 A2947 1500 100 100 300/05 RMK AO2 SNB06E17 P0003 TSNO
94908KDBQ DBQ20050214043014202/14/05 04:30:31  5-MIN KDBQ 141030Z AUTO 29005KT 5SM -RA BR SCT003 BKN021 OVC040 01/01 A2947 1490 100 100 290/05 RMK AO2 SNB06E17 P0003 TSNO
94908KDBQ DBQ20050214043514402/14/05 04:35:31  5-MIN KDBQ 141035Z AUTO 29006KT 4SM -SN BR BKN003 BKN021 OVC040 01/01 A2948 1490 100 100 290/06 RMK AO2 RAE32SNB06 P0003 TSNO
94908KDBQ DBQ20050214044014302/14/05 04:40:31  5-MIN KDBQ 141040Z AUTO 29007KT 4SM -SN BR BKN003 BKN021 OVC040 01/00 A2948 1490 96 100 290/07 RMK AO2 RAE32SNB06 P0004 TSNO
94908KDBQ DBQ20050214044514302/14/05 04:45:31  5-MIN KDBQ 141045Z AUTO 28007KT 3SM -SN BR BKN003 BKN009 OVC040 01/00 A2948 1480 96 100 280/07 RMK AO2 RAE32SNB06 P0004 TSNO
94908KDBQ DBQ20050214045016002/14/05 04:50:31  5-MIN KDBQ 141050Z AUTO 29007KT 3SM -SN BR BKN003 BKN009 OVC020 01/00 A2949 1480 96 100 280/07 RMK AO2 RAE32SNB06 SLP993 P0004 T00060000 TSNO
94908KDBQ DBQ20050214045514602/14/05 04:55:31  5-MIN KDBQ 141055Z AUTO 28007KT 4SM -SN BR OVC003 01/00 A2949 1480 96 100 280/07 RMK AO2 RAE32SNB06 SLP995 P0004 T00060000 TSNO
94908KDBQ DBQ20050214050011802/14/05 05:00:31  5-MIN KDBQ 141100Z AUTO 27008KT 3SM -SN BR OVC003 01/00 A2949 1480 96 100 270/08 RMK AO2 P0000 TSNO
94908KDBQ DBQ20050214050512202/14/05 05:05:31  5-MIN KDBQ 141105Z AUTO 28008KT 2 1/2SM -SN BR OVC003 01/00 A2949 1480 96 100 280/08 RMK AO2 P0001 TSNO
94908KDBQ DBQ20050214051012202/14/05 05:10:31  5-MIN KDBQ 141110Z AUTO 29008KT 2 1/2SM -SN BR OVC003 01/00 A2949 1480 96 100 290/08 RMK AO2 P0001 TSNO
94908KDBQ DBQ20050214051512202/14/05 05:15:31  5-MIN KDBQ 141115Z AUTO 29008KT 2 1/2SM -SN BR OVC003 01/00 A2949 1480 96 100 290/08 RMK AO2 P0001 TSNO
94908KDBQ DBQ20050214052011802/14/05 05:20:31  5-MIN KDBQ 141120Z AUTO 28008KT 3SM -SN BR OVC003 01/00 A2949 1480 96 100 280/08 RMK AO2 P0001 TSNO
94908KDBQ DBQ20050214052511802/14/05 05:25:31  5-MIN KDBQ 141125Z AUTO 28009KT 3SM -SN BR OVC003 01/00 A2950 1470 96 100 280/09 RMK AO2 P0002 TSNO
94908KDBQ DBQ20050214053011802/14/05 05:30:31  5-MIN KDBQ 141130Z AUTO 28008KT 4SM -SN BR OVC003 01/00 A2950 1470 96 100 280/08 RMK AO2 P0002 TSNO
94908KDBQ DBQ20050214053511802/14/05 05:35:31  5-MIN KDBQ 141135Z AUTO 28011KT 4SM -SN BR OVC003 01/00 A2950 1470 96 100 280/11 RMK AO2 P0002 TSNO
94908KDBQ DBQ20050214054011802/14/05 05:40:31  5-MIN KDBQ 141140Z AUTO 28010KT 5SM -SN BR OVC003 01/00 A2951 1460 96 100 280/10 RMK AO2 P0002 TSNO
94908KDBQ DBQ20050214054512002/14/05 05:45:31  5-MIN KDBQ 141145Z AUTO 28010KT 5SM BR OVC003 01/00 A2951 1460 96 100 270/10 RMK AO2 SNE42 P0002 TSNO
94908KDBQ DBQ20050214055016702/14/05 05:50:31  5-MIN KDBQ 141150Z AUTO 28010KT 5SM BR OVC003 01/00 A2951 1460 96 100 270/10 RMK AO2 SNE42 SLP002 P0002 60017 70046 T00060000 10017 20006 55002 TSNO
94908KDBQ DBQ20050214055515702/14/05 05:55:31  5-MIN KDBQ 141155Z 28011KT 5SM BR OVC003 01/00 A2951 1460 96 100 280/11 RMK AO2 SNE42 SLP002 P0002 60017 70046 T00060000 10017 20006 52024
94908KDBQ DBQ20050214060011602/14/05 06:00:31  5-MIN KDBQ 141200Z 28013KT 4SM -SN BR OVC003 01/00 A2951 1460 96 100 280/13 RMK AO2 SNB1156 P0000
94908KDBQ DBQ20050214060511602/14/05 06:05:31  5-MIN KDBQ 141205Z 28011KT 4SM -SN BR OVC003 01/00 A2951 1460 96 100 280/11 RMK AO2 SNB1156 P0000
94908KDBQ DBQ20050214061011602/14/05 06:10:31  5-MIN KDBQ 141210Z 28011KT 4SM -SN BR OVC003 01/00 A2952 1450 96 100 280/11 RMK AO2 SNB1156 P0000
94908KDBQ DBQ20050214061511602/14/05 06:15:31  5-MIN KDBQ 141215Z 28012KT 4SM -SN BR OVC003 01/00 A2952 1450 96 100 280/12 RMK AO2 SNB1156 P0000
94908KDBQ DBQ20050214062011602/14/05 06:20:31  5-MIN KDBQ 141220Z 28011KT 4SM -SN BR OVC003 01/00 A2952 1450 96 100 280/11 RMK AO2 SNB1156 P0000
94908KDBQ DBQ20050214062511602/14/05 06:25:31  5-MIN KDBQ 141225Z 28011KT 4SM -SN BR OVC003 01/00 A2952 1450 96 100 280/11 RMK AO2 SNB1156 P0000
94908KDBQ DBQ20050214063011602/14/05 06:30:31  5-MIN KDBQ 141230Z 28012KT 3SM -SN BR OVC003 01/00 A2952 1450 96 100 280/12 RMK AO2 SNB1156 P0000
94908KDBQ DBQ20050214063511602/14/05 06:35:31  5-MIN KDBQ 141235Z 29010KT 4SM -SN BR OVC003 01/00 A2953 1450 96 100 280/10 RMK AO2 SNB1156 P0000
94908KDBQ DBQ20050214064011602/14/05 06:40:31  5-MIN KDBQ 141240Z 29011KT 5SM -SN BR OVC003 01/00 A2953 1440 96 100 290/11 RMK AO2 SNB1156 P0000
94908KDBQ DBQ20050214064511602/14/05 06:45:31  5-MIN KDBQ 141245Z 29012KT 5SM -SN BR OVC003 01/00 A2953 1440 96 100 290/12 RMK AO2 SNB1156 P0000
94908KDBQ DBQ20050214065014502/14/05 06:50:31  5-MIN KDBQ 141250Z 29015KT 5SM -SN BR OVC005 01/00 A2953 1440 96 100 290/15 RMK AO2 SNB1156 CIG 004V009 SLP011 P0000 T00060000
94908KDBQ DBQ20050214065514502/14/05 06:55:31  5-MIN KDBQ 141255Z 29014KT 5SM -SN BR OVC005 01/00 A2954 1430 96 100 290/14 RMK AO2 SNB1156 CIG 004V009 SLP012 P0000 T00060000
94908KDBQ DBQ20050214070012702/14/05 07:00:31  5-MIN KDBQ 141300Z 29013KT 5SM -SN BR BKN005 OVC010 01/00 A2954 1430 96 100 280/13 RMK AO2 CIG 004V009 P0000
94908KDBQ DBQ20050214070511502/14/05 07:05:31  5-MIN KDBQ 141305Z 29014KT 6SM -SN BR BKN005 OVC010 01/00 A2954 1430 96 100 280/14 RMK AO2 P0000
94908KDBQ DBQ20050214071012902/14/05 07:10:31  5-MIN KDBQ 141310Z 29012KT 6SM BR BKN007 OVC012 01/00 A2955 1430 96 100 290/12 RMK AO2 SNE06 CIG 005V010 P0000
94908KDBQ DBQ20050214071512602/14/05 07:15:31  5-MIN KDBQ 141315Z 29012KT 7SM BKN007 OVC012 01/00 A2955 1420 92 100 290/12 RMK AO2 SNE06 CIG 005V010 P0000
94908KDBQ DBQ20050214072013302/14/05 07:20:31  5-MIN KDBQ 141320Z 29015KT 7SM BKN007 BKN012 OVC049 01/00 A2955 1420 92 100 290/15 RMK AO2 SNE06 CIG 005V011 P0000
94908KDBQ DBQ20050214072513602/14/05 07:25:31  5-MIN KDBQ 141325Z 29015KT 6SM BR BKN007 BKN012 OVC049 01/00 A2955 1420 92 100 290/15 RMK AO2 SNE06 CIG 005V011 P0000
94908KDBQ DBQ20050214073013002/14/05 07:30:31  5-MIN KDBQ 141330Z 29015G20KT 6SM BR SCT007 BKN012 OVC049 01/00 A2956 1420 92 100 290/15G20 RMK AO2 SNE06 P0000
94908KDBQ DBQ20050214073513502/14/05 07:35:31  5-MIN KDBQ 141335Z 28016G20KT 6SM BR BKN010 OVC049 01/00 A2956 1410 92 100 280/16G20 RMK AO2 SNE06 CIG 005V013 P0000
94908KDBQ DBQ20050214074012902/14/05 07:40:31  5-MIN KDBQ 141340Z 28014KT 6SM BR BKN010 OVC049 01/00 A2957 1410 92 100 280/14 RMK AO2 SNE06 CIG 006V013 P0000
94908KDBQ DBQ20050214074512902/14/05 07:45:31  5-MIN KDBQ 141345Z 28015KT 6SM BR BKN010 OVC049 01/00 A2957 1400 92 100 280/15 RMK AO2 SNE06 CIG 006V013 P0000
94908KDBQ DBQ20050214075014602/14/05 07:50:31  5-MIN KDBQ 141350Z 28014KT 6SM BR BKN010 OVC049 01/00 A2958 1400 92 100 280/14 RMK AO2 SNE06 CIG 008V013 SLP024 P0000 T00110000
94908KDBQ DBQ20050214075515302/14/05 07:55:31  5-MIN KDBQ 141355Z 28014KT 6SM BR BKN010 BKN015 OVC049 01/00 A2958 1390 92 100 280/14 RMK AO2 SNE06 CIG 008V013 SLP025 P0000 T00110000
94908KDBQ DBQ20050214080010502/14/05 08:00:31  5-MIN KDBQ 141400Z 28015KT 6SM BR BKN012 OVC049 01/00 A2959 1390 92 100 280/15 RMK AO2
94908KDBQ DBQ20050214080510502/14/05 08:05:31  5-MIN KDBQ 141405Z 29016KT 6SM BR BKN012 OVC049 01/00 A2959 1390 92 100 290/16 RMK AO2
94908KDBQ DBQ20050214081010502/14/05 08:10:31  5-MIN KDBQ 141410Z 28014KT 6SM BR BKN012 OVC047 01/00 A2959 1380 92 100 280/14 RMK AO2
94908KDBQ DBQ20050214081510502/14/05 08:15:31  5-MIN KDBQ 141415Z 28015KT 6SM BR BKN012 OVC016 01/00 A2960 1380 92 100 280/15 RMK AO2
94908KDBQ DBQ20050214082009802/14/05 08:20:31  5-MIN KDBQ 141420Z 28012KT 6SM BR OVC012 01/00 A2960 1370 92 100 280/12 RMK AO2
94908KDBQ DBQ20050214082509602/14/05 08:25:31  5-MIN KDBQ 141425Z 29015KT 6SM BR OVC012 01/00 A2961 1370 92 0 280/15 RMK AO2
94908KDBQ DBQ20050214083009902/14/05 08:30:31  5-MIN KDBQ 141430Z 29014G20KT 7SM OVC012 01/00 A2961 1370 92 0 290/14G20 RMK AO2
94908KDBQ DBQ20050214083509902/14/05 08:35:31  5-MIN KDBQ 141435Z 29012G20KT 7SM OVC012 01/00 A2962 1360 92 0 290/12G20 RMK AO2
94908KDBQ DBQ20050214084009302/14/05 08:40:31  5-MIN KDBQ 141440Z 29015KT 7SM OVC012 01/00 A2962 1360 92 0 290/15 RMK AO2
94908KDBQ DBQ20050214084509302/14/05 08:45:31  5-MIN KDBQ 141445Z 28013KT 7SM OVC012 01/00 A2962 1350 92 0 280/13 RMK AO2
94908KDBQ DBQ20050214085012202/14/05 08:50:31  5-MIN KDBQ 141450Z 29015KT 7SM OVC012 01/00 A2963 1350 92 0 290/15 RMK AO2 SLP041 60000 T00110000 52024
94908KDBQ DBQ20050214085512802/14/05 08:55:31  5-MIN KDBQ 141455Z 29014G20KT 7SM OVC012 01/00 A2963 1350 92 0 290/14G20 RMK AO2 SLP041 60000 T00110000 53038
94908KDBQ DBQ20050214090010002/14/05 09:00:31  5-MIN KDBQ 141500Z 28017G20KT 7SM OVC012 01/M01 A2963 1350 89 0 280/17G20 RMK AO2
94908KDBQ DBQ20050214090509402/14/05 09:05:31  5-MIN KDBQ 141505Z 29017KT 7SM OVC012 01/M01 A2963 1350 89 0 290/17 RMK AO2
94908KDBQ DBQ20050214091009402/14/05 09:10:31  5-MIN KDBQ 141510Z 29015KT 7SM OVC012 01/M01 A2963 1350 89 0 290/15 RMK AO2
94908KDBQ DBQ20050214091509402/14/05 09:15:31  5-MIN KDBQ 141515Z 29016KT 7SM OVC012 01/M01 A2963 1340 89 0 290/16 RMK AO2
94908KDBQ DBQ20050214092009402/14/05 09:20:31  5-MIN KDBQ 141520Z 29014KT 7SM OVC012 01/M01 A2964 1340 89 0 290/14 RMK AO2
94908KDBQ DBQ20050214092510002/14/05 09:25:31  5-MIN KDBQ 141525Z 29015G20KT 7SM OVC012 01/M01 A2964 1330 89 0 290/15G20 RMK AO2
94908KDBQ DBQ20050214093010002/14/05 09:30:31  5-MIN KDBQ 141530Z 29015G23KT 7SM OVC012 01/M01 A2965 1330 89 0 290/15G23 RMK AO2
94908KDBQ DBQ20050214093510002/14/05 09:35:31  5-MIN KDBQ 141535Z 29015G23KT 7SM OVC010 01/M01 A2965 1330 89 0 290/15G23 RMK AO2
94908KDBQ DBQ20050214094011202/14/05 09:40:31  5-MIN KDBQ 141540Z 29017G21KT 7SM OVC010 01/M01 A2966 1320 89 0 290/17G21 RMK AO2 CIG 009V014
94908KDBQ DBQ20050214094509402/14/05 09:45:31  5-MIN KDBQ 141545Z 28018KT 8SM OVC010 01/M01 A2966 1320 89 0 280/18 RMK AO2
94908KDBQ DBQ20050214095011302/14/05 09:50:31  5-MIN KDBQ 141550Z 29013KT 8SM OVC010 02/M01 A2966 1320 85 100 290/13 RMK AO2 SLP053 T00171006
94908KDBQ DBQ20050214095511902/14/05 09:55:31  5-MIN KDBQ 141555Z 29016G21KT 8SM OVC010 02/M01 A2966 1320 85 100 290/16G21 RMK AO2 SLP052 T00171006
94908KDBQ DBQ20050214100009402/14/05 10:00:31  5-MIN KDBQ 141600Z 29018KT 8SM OVC010 01/M01 A2966 1320 89 0 290/18 RMK AO2
94908KDBQ DBQ20050214100510002/14/05 10:05:31  5-MIN KDBQ 141605Z 29017G22KT 8SM OVC010 01/M01 A2966 1320 89 0 290/17G22 RMK AO2
94908KDBQ DBQ20050214101009402/14/05 10:10:31  5-MIN KDBQ 141610Z 29017KT 8SM OVC010 01/M01 A2967 1310 89 0 290/17 RMK AO2
94908KDBQ DBQ20050214101509402/14/05 10:15:31  5-MIN KDBQ 141615Z 29015KT 8SM OVC010 02/M01 A2967 1310 85 0 290/15 RMK AO2
94908KDBQ DBQ20050214102010002/14/05 10:20:31  5-MIN KDBQ 141620Z 30018G21KT 8SM OVC010 02/M01 A2967 1310 85 0 290/18G21 RMK AO2
94908KDBQ DBQ20050214102510002/14/05 10:25:31  5-MIN KDBQ 141625Z 30013G21KT 8SM OVC012 02/M01 A2967 1310 85 0 300/13G21 RMK AO2
94908KDBQ DBQ20050214103010002/14/05 10:30:31  5-MIN KDBQ 141630Z 29015G21KT 8SM OVC012 02/M01 A2968 1300 85 0 290/15G21 RMK AO2
94908KDBQ DBQ20050214103509402/14/05 10:35:31  5-MIN KDBQ 141635Z 30014KT 8SM OVC012 02/M01 A2968 1300 85 0 300/14 RMK AO2
94908KDBQ DBQ20050214104009302/14/05 10:40:31  5-MIN KDBQ 141640Z 29018KT 8SM OVC012 02/00 A2969 1300 89 0 290/18 RMK AO2
94908KDBQ DBQ20050214104509402/14/05 10:45:31  5-MIN KDBQ 141645Z 30014KT 8SM OVC012 02/M01 A2968 1300 85 0 300/14 RMK AO2
94908KDBQ DBQ20050214105011102/14/05 10:50:31  5-MIN KDBQ 141650Z 30015KT 8SM OVC012 02/M01 A2969 1290 85 0 290/15 RMK AO2 SLP063 T00171006
94908KDBQ DBQ20050214105511602/14/05 10:55:31  5-MIN KDBQ 141655Z 29015G21KT 8SM OVC012 02/00 A2969 1290 89 0 290/15G21 RMK AO2 SLP064 T00170000
94908KDBQ DBQ20050214110009402/14/05 11:00:31  5-MIN KDBQ 141700Z 30019KT 8SM OVC012 02/M01 A2969 1290 85 0 300/19 RMK AO2
94908KDBQ DBQ20050214110509402/14/05 11:05:31  5-MIN KDBQ 141705Z 30017KT 8SM OVC012 02/M01 A2969 1290 85 0 290/17 RMK AO2
94908KDBQ DBQ20050214111009302/14/05 11:10:31  5-MIN KDBQ 141710Z 30016KT 8SM OVC012 02/00 A2968 1300 89 0 300/16 RMK AO2
94908KDBQ DBQ20050214111509502/14/05 11:15:31  5-MIN KDBQ 141715Z 30014KT 7SM OVC012 02/00 A2968 1300 85 100 300/14 RMK AO2
94908KDBQ DBQ20050214112010102/14/05 11:20:31  5-MIN KDBQ 141720Z 31016G22KT 8SM OVC012 02/00 A2968 1300 85 100 300/16G22 RMK AO2
94908KDBQ DBQ20050214112510102/14/05 11:25:31  5-MIN KDBQ 141725Z 31015G22KT 8SM OVC012 02/00 A2968 1300 85 100 310/15G22 RMK AO2
94908KDBQ DBQ20050214113009502/14/05 11:30:31  5-MIN KDBQ 141730Z 30016KT 8SM OVC012 02/00 A2968 1300 85 100 300/16 RMK AO2
94908KDBQ DBQ20050214113509502/14/05 11:35:31  5-MIN KDBQ 141735Z 31013KT 8SM OVC012 03/00 A2968 1300 82 200 310/13 RMK AO2
94908KDBQ DBQ20050214114010102/14/05 11:40:31  5-MIN KDBQ 141740Z 29016G20KT 8SM OVC012 03/00 A2968 1300 82 200 290/16G20 RMK AO2
94908KDBQ DBQ20050214114509502/14/05 11:45:31  5-MIN KDBQ 141745Z 29013KT 7SM OVC012 02/00 A2969 1300 85 100 290/13 RMK AO2
94908KDBQ DBQ20050214115013602/14/05 11:50:31  5-MIN KDBQ 141750Z 29014KT 7SM OVC012 02/00 A2969 1290 85 100 290/14 RMK AO2 SLP063 60000 T00220000 10028 20006 53038
94908KDBQ DBQ20050214115513602/14/05 11:55:31  5-MIN KDBQ 141755Z 29016KT 7SM OVC012 03/00 A2969 1290 82 200 290/16 RMK AO2 SLP064 60000 T00280000 10028 20006 51022
94908KDBQ DBQ20050214120009502/14/05 12:00:31  5-MIN KDBQ 141800Z 29013KT 8SM OVC012 02/00 A2969 1290 85 100 290/13 RMK AO2
94908KDBQ DBQ20050214120509502/14/05 12:05:31  5-MIN KDBQ 141805Z 29017KT 8SM OVC012 02/00 A2969 1290 85 100 290/17 RMK AO2
94908KDBQ DBQ20050214121010102/14/05 12:10:31  5-MIN KDBQ 141810Z 27015G20KT 7SM OVC012 02/00 A2970 1290 85 100 270/15G20 RMK AO2
94908KDBQ DBQ20050214121509502/14/05 12:15:31  5-MIN KDBQ 141815Z 28014KT 7SM OVC012 02/00 A2969 1290 85 100 270/14 RMK AO2
94908KDBQ DBQ20050214122011002/14/05 12:20:31  5-MIN KDBQ 141820Z 29015KT 6SM BR OVC010 02/00 A2969 1290 85 100 280/15 RMK AO2 CIG 009V014
94908KDBQ DBQ20050214122511002/14/05 12:25:31  5-MIN KDBQ 141825Z 28012KT 6SM BR OVC010 02/00 A2969 1290 85 100 280/12 RMK AO2 CIG 009V014
94908KDBQ DBQ20050214123017302/14/05 12:30:31  5-MIN KDBQ 141830Z 28015KT 6SM BR OVC010 02/01 A2969 1290 89 100 280/15 RMK AO2 02/14/051845Z 27015KT 6SM BR OVC010 02/00 A2969 1290 85 100 270/15 RMK AO2
94908KDBQ DBQ20050214125012102/14/05 12:50:31  5-MIN KDBQ 141850Z 28017G21KT 6SM BR OVC010 02/00 A2970 1290 85 100 280/17G21 RMK AO2 SLP065 T00220000
94908KDBQ DBQ20050214125514602/14/05 12:55:31  5-MIN KDBQ 141855Z 27016KT 6S02/14/05 13:15:31  5-MIN KDBQ 141915Z 27018KT 5SM BR OVC008 02/00 A2970 1280 85 100 270/18 RMK AO2
94908KDBQ DBQ20050214132009802/14/05 13:20:31  5-MIN KDBQ 141920Z 27015KT 5SM BR OVC008 02/01 A2970 1280 89 100 270/15 RMK AO2
94908KDBQ DBQ20050214132509602/14/05 13:25:31  5-MIN KDBQ 141925Z 27 5SM BR OVC008 02/01 A2972 1270 89 100 260/15G22 RMK AO2
94908KDBQ DBQ20050214135011502/14/05 13:50:31  5-MIN KDBQ 141950Z 26017KT 5SM BR OVC008 02/01 A2972 1260 89 100 260/17 RMK AO2 SLP074 T00220006
94908KDBQ DBQ20050214135511902/14/05 13:55:31  5-MIN KDBQ 141955Z 26014KT 5SM BR OVC008 02/0  5SM BR OVC008 02/01 A2973 1250 89 0 260/17G21 RMK AO2
94908KDBQ DBQ20050214142009602/14/05 14:20:31  5-MIN KDBQ 142020Z 26017KT 5SM BR OVC008 02/01 A2973 1250 89 0 260/17 RMK AO2
94908KDBQ DBQ20050214142507902/14/05 14:25:31  5-MIN KDBQ 142025Z 27013KT 5SM BR OVC008 02/01 A2973 1250 89
94908KDBQ DBQ20050214150511702/14/05 15:05:31  5-MIN KDBQ 142105Z 26011KT 4SM BR BKN006 OVC012 03/01 A2974 1240 89 100 260/11 RMK AO2 CIG 005V010
94908KDBQ DBQ20050214151002702/14/05 15:10:31  5-MIN O2
94908KDBQ DBQ20050214153009802/14/05 15:30:31  5-MIN KDBQ 142130Z 27012KT 5SM BR OVC012 03/02 A2976 1230 89 200 270/12 RMK AO2
94908KDBQ DBQ20050214153509802/14/05 15:35:31  5-MIN KDBQ 142135Z 26012KT 5SM BR OVC012 03/02 A2977 1220 89 100 260/12 RMK AO2
94908KDBQ DBQ20050214154003202/14/05 15:40:31  5-MIN KDBQ 14
94908KDBQ DBQ20050214160009802/14/05 16:00:31  5-MIN KDBQ 142200Z 27011KT 6SM BR BKN014 04/02 A2977 1220 85 200 270/11 RMK AO2
94908KDBQ DBQ20050214160509802/14/05 16:05:31  5-MIN KDBQ 142205Z 26011KT 6SM HZ BKN014 04/02 A2977 1210 82 300 260/11 RMK AO2
94908KDBQ DBQ20050214161008202/14/05 16:10:31  5-MIN KDBQ 142210Z 26014 04/02 A2978 1210 82 300 250/10 RMK AO2
94908KDBQ DBQ20050214163509502/14/05 16:35:31  5-MIN KDBQ 142235Z 25010KT 6SM BR CLR 04/02 A2978 1210 85 200 250/10 RMK AO2
94908KDBQ DBQ20050214164011702/14/05 16:40:31  5-MIN KDBQ 142240Z 25008KT 5SM BR CLR 04/02 A2978 1200 85 200 250/08 RMK AO2 89 200 240/07 RMK AO2
94908KDBQ DBQ20050214170509502/14/05 17:05:31  5-MIN KDBQ 142305Z 24007KT 5SM BR CLR 03/02 A2978 1210 89 100 240/07 RMK AO2
94908KDBQ DBQ20050214171011302/14/05 17:10:31  5-MIN KDBQ 142310Z 24005KT 4SM BR CLR 03/02 A2979 1200 89 100 240/05 RMK AO2 02/14/05 17:15:30
94908KDBQ DBQ20050214173509302/14/05 17:35:31  5-MIN KDBQ 142335Z 20005KT 4SM BR CLR 02/01 A2979 1200 92 0 200/05 RMK AO2
94908KDBQ DBQ20050214174009602/14/05 17:40:31  5-MIN KDBQ 142340Z 20006KT 4SM BR FEW110 02/01 A2979 1200 92 0 190/06 RMK AO2
94908KDBQ DBQ20050214174509602/14/05 17:45:31  5-MIN KDBQ 142345Z 20005KT 4SM BR FEW110 02/01 A2979 1200 92 0 200/05 RMK AO2
94908KDBQ DBQ20050214175013102/14/05 17:50:31  5-MIN KDBQ 142350Z 20006KT 4SM BR SCT110 02/01 A2979 1200 92 0 200/06 RMK AO2 SLP099 T00220011 10044 20022 53017
94908KDBQ DBQ20050214175513102/14/05 17:55:31  5-MIN KDBQ 142355Z 20007KT 5SM BR FEW110 02/01 A2979 1200 92 0 200/07 RMK AO2 SLP099 T00170006 10044 20017 51016
94908KDBQ DBQ20050214180009902/14/05 18:00:31  5-MIN KDBQ 150000Z 21006KT 4SM BR SCT110 02/01 A2980 1190 92 -100 200/06 RMK AO2
94908KDBQ DBQ20050214180509602/14/05 18:05:31  5-MIN KDBQ 150005Z 19008KT 4SM BR BKN120 02/01 A2979 1200 92 0 190/08 RMK AO2
94908KDBQ DBQ20050214181009602/14/05 18:10:31  5-MIN KDBQ 150010Z 20008KT 4SM BR BKN120 02/01 A2980 1190 96 0 200/08 RMK AO2
94908KDBQ DBQ20050214181509902/14/05 18:15:31  5-MIN KDBQ 150015Z 20007KT 4SM BR BKN120 02/01 A2980 1190 92 -100 200/07 RMK AO2
94908KDBQ DBQ20050214182009902/14/05 18:20:31  5-MIN KDBQ 150020Z 20009KT 4SM BR BKN120 02/01 A2980 1190 92 -100 200/09 RMK AO2
94908KDBQ DBQ20050214182509602/14/05 18:25:31  5-MIN KDBQ 150025Z 20008KT 4SM BR BKN120 02/01 A2980 1190 92 0 200/08 RMK AO2
94908KDBQ DBQ20050214183009902/14/05 18:30:31  5-MIN KDBQ 150030Z 20008KT 4SM BR SCT120 02/01 A2980 1190 96 -100 200/08 RMK AO2
94908KDBQ DBQ20050214183509602/14/05 18:35:31  5-MIN KDBQ 150035Z 20008KT 4SM BR SCT120 02/01 A2981 1190 92 0 200/08 RMK AO2
94908KDBQ DBQ20050214184009602/14/05 18:40:31  5-MIN KDBQ 150040Z 21008KT 4SM BR FEW120 02/01 A2981 1180 92 0 210/08 RMK AO2
94908KDBQ DBQ20050214184509602/14/05 18:45:31  5-MIN KDBQ 150045Z 20007KT 4SM BR FEW120 02/01 A2981 1180 92 0 200/07 RMK AO2
94908KDBQ DBQ20050214185011302/14/05 18:50:31  5-MIN KDBQ 150050Z 20007KT 4SM BR FEW120 02/01 A2980 1190 92 0 200/07 RMK AO2 SLP102 T00220011
94908KDBQ DBQ20050214185511002/14/05 18:55:31  5-MIN KDBQ 150055Z 20006KT 4SM BR CLR 02/01 A2980 1190 92 0 200/06 RMK AO2 SLP102 T00220011
94908KDBQ DBQ20050214190009602/14/05 19:00:31  5-MIN KDBQ 150100Z 20007KT 4SM BR CLR 02/01 A2980 1190 96 -100 200/07 RMK AO2
94908KDBQ DBQ20050214191009602/14/05 19:10:31  5-MIN KDBQ 150110Z 21005KT 4SM BR CLR 02/01 A2981 1180 96 -100 210/05 RMK AO2
94908KDBQ DBQ20050214191508502/14/05 19:15:31  5-MIN KDBQ 150115Z 20005KT 4SM BR CLR 02/01 A0 92 0 190/06 RMK AO2
94908KDBQ DBQ20050214194009602/14/05 19:40:31  5-MIN KDBQ 150140Z 20007KT 4SM BR CLR 02/01 A2981 1180 96 -100 200/07 RMK AO2
94908KDBQ DBQ20050214194514202/14/05 19:45:31  5-MIN KDBQ 150145Z AUTO 21005KT 4SM BR CLR 02/01 A2981 1180 92 0 200/05 RMK AO2 TSNO 02/14/0521170 92 0 210/06 RMK AO2 TSNO
94908KDBQ DBQ20050214201010302/14/05 20:10:31  5-MIN KDBQ 150210Z AUTO 21005KT 4SM BR CLR 02/01 A2983 1170 92 0 210/05 RMK AO2 TSNO
94908KDBQ DBQ20050214201513102/14/05 20:15:31  5-MIN KDBQ 150215Z AUTO 21005KT 4SM BR CLR 02/01 A2983 1160 96 -100 200/05 RMK 31160 96 -100 200/05 RMK AO2 TSNO
94908KDBQ DBQ20050214204010302/14/05 20:40:31  5-MIN KDBQ 150240Z AUTO 19005KT 4SM BR CLR 02/01 A2983 1170 92 0 190/05 RMK AO2 TSNO
94908KDBQ DBQ20050214204510302/14/05 20:45:31  5-MIN KDBQ 150245Z AUTO 19006KT 4SM BR CLR 02/01 A2983 1160 92 0 190/06 RMK AO2 TSNO
94908KDBQ DBQ20050214205011802/14/05 20:50:31  5-MIN KDBQ 150250Z AUTO 20005KT 4SM BR CLR 02KT 4SM BR CLR 02/02 A29841150 96 0 200/04 RMK AO2 TSNO
94908KDBQ DBQ20050214212010302/14/05 21:20:31  5-MIN KDBQ 150320Z AUTO 19003KT 4SM BR CLR 02/02 A2984 1150 96 0 190/03 RMK AO2 TSNO
94908KDBQ DBQ20050214212509602/14/05 21:25:31  5-MIN KDBQ 150325Z AUTO 20004KT 4SM BR CLR 02/02 A2984 00 190/03 RMK AO2 TSNO
94908KDBQ DBQ20050214215012302/14/05 21:50:31  5-MIN KDBQ 150350Z AUTO 19004KT 4SM BR BKN120 03/02 A2984 1150 92 0 190/04 RMK AO2 SLP115 T00280017 TSNO
94908KDBQ DBQ20050214215508602/14/05 21:55:31  5-MIN KDBQ 150355Z AUTO 00000KT 4SM BR OVC110 03/02 MK AO2 TSNO92 0
94908KDBQ DBQ20050214222010602/14/05 22:20:31  5-MIN KDBQ 150420Z AUTO 00000KT 4SM BR OVC120 02/02 A2985 1150 96 0 000/00 RMK AO2 TSNO
94908KDBQ DBQ20050214222515402/14/05 22:25:31  5-MIN KDBQ 150425Z AUTO 00000KT 4SM BR OVC120 02/01 A2985 1150 96 -100 000/00 RMK AO2 TSNO 02/01 A2984 1150 96 -100 190/03 RMK AO2 TSNO
94908KDBQ DBQ20050214225013302/14/05 22:50:31  5-MIN KDBQ 150450Z AUTO 19003KT 4SM BR BKN080 OVC095 02/01 A2984 1150 96 -100 190/03 RMK AO2 SLP116 T00170011 TSNO
94908KDBQ DBQ20050214225510502/14/05 22:55:31  5-MIN KDBQ 150455Z AUTO 20003KT 4SM B OVC095 03/02 A2984 1150 96 0 190/03 RMK AO2 TSNO
94908KDBQ DBQ20050214231511302/14/05 23:15:31  5-MIN KDBQ 150515Z AUTO 00000KT 4SM BR BKN065 OVC085 02/02 A2984 1150 96 0 000/00 RMK AO2 TSNO
94908KDBQ DBQ20050214232013002/14/05 23:20:31  5-MIN KDBQ 150520Z AUTO 00000KT 4SM BR BKN060 OVC080 KT 4SM BR OVC060 03/02 A2985 1140 92 0 000/00 RMK AO2 TSNO
94908KDBQ DBQ20050214234010602/14/05 23:40:31  5-MIN KDBQ 150540Z AUTO 00000KT 4SM BR OVC060 02/02 A2985 1140 96 0 000/00 RMK AO2 TSNO
94908KDBQ DBQ20050214234516002/14/05 23:45:31  5-MIN KDBQ 150545Z AUTO 00000KT 4SM -RA BR FEW050 OVC0/00 RMK AO2 RAB43E54UPB54 SLP119 P0000 60000 T00280022 10028 20011 400440006 53006 TSNO
94908KDBQ DBQ20050214235017302/14/05 23:50:31  5-MIN KDBQ 150550Z AUTO 00000KT 4SM -RA BR OVC060 03/02 A2986 1140 96 0 000/00 RMK AO2 RAB43 SLP119 P0000 60000 T00280022 10028 20011 400440006 53013 TSNO
94908KDBQ DBQ20050214235518702/14/05 23:55:31  5-MIN KDBQ 150555Z AUTO 00000KT 4SM UP BR BKN055 OVC070 03/02 A2985 1140 96 0 000/00 RMK AO2 RAB43E54UPB54 SLP119 P0000 60000 T00280022 10028 20011 400440006 53006 TSNO
94908KDBQ DBQ20050215000005902/15/05 00:00:38  5-MIN KDBQ 150600Z AUTO 00000KT 4SM -060
94908KDBQ DBQ20050215000514002/15/05 00:05:31  5-MIN KDBQ 150605Z AUTO 00000KT 4SM -RA BR SCT049 OVC060 04/03 A2986 1140 92 100 000/00 RMK AO2 UPE0558RAB0558 P0000 TSNO
94908KDBQ DBQ20050215001011402/15/05 00:10:31  5-MIN KDBQ 150610Z AUTO 00000KT 4SM -RA BR BKN047 OVC060 03/03 A2986 1140 96 0 00558 P0001 TSNO
94908KDBQ DBQ20050215003013802/15/05 00:30:31  5-MIN KDBQ 150630Z AUTO 36005KT 4SM -RA BR SCT043 OVC065 03/03 A2986 1140 96 0 360/05 RMK AO2 UPE0558RAB0558 P0001 TSNO
94908KDBQ DBQ20050215003516402/15/05 00:35:31  5-MIN KDBQ 150635Z AUTO 34005KT 4SM -RA BR SCT043 BKN070 OVC080 03/03 A2986 1130 96 0 340/05 RMK AO2 UPE0558RAB0558E48 SLP122 P0001T00330028 TSNO
94908KDBQ DBQ20050215005524702/15/05 00:55:31  5-MIN KDBQ 150655Z AUTO 34007KT 4SM -RA BR FEW043 OVC080 03/03 A2986 1130 96 0 340/07 RMK AO2 UPE0558RAB0558 SLP121 P0001 T00330028O KDBQ 150715Z AUTO 35005KT 4SM BR OVC080 04/03 A2986 1130 96 100 350/05 RMK AO2 RAE01 P0000 TSNO
94908KDBQ DBQ20050215012022402/15/05 01:20:31  5-MIN KDBQ 150720Z AUTO 36004KT 5SM -RA BR OVC080 04/03 A2987 1130 96 100 360/04 RMK AO2 RAE01B20 P0000 TSNO 03TO 34004KT 5SM -RA BR OVC080 04/03 A2989 1110 92 100 340/04 RMK AO2 RAE01B20 PRESRR P0001 TSNO
94908KDBQ DBQ20050215014520002/15/05 01:45:31  5-MIN KDBQ 150745Z AUTO 34007KT 5SM -RA BR FEW050 OVC080 04/03 A2989 1110 92 100 340/07 RMK AO2 RAE01B20 P0001 TSNO 02/15/05 OVC075 04/02 A2989 1110 85 100 350/10 RMK AO2 P0001 TSNO
94908KDBQ DBQ20050215020512902/15/05 02:05:31  5-MIN KDBQ 150805Z AUTO 35010KT 7SM -RA SCT042 BKN050 OVC075 04/02 A2988 1110 85 100 350/10 RMK AO2 P0001 TSNO
94908KDBQ DBQ20050215021010502/15/05 02:10:31  5-MIN KDBQ 150810Z AUTO 35009 OVC070 04/01 A2989 1100 82 100 350/09 RMK AO2 P0001 TSNO
94908KDBQ DBQ20050215023013002/15/05 02:30:31  5-MIN KDBQ 150830Z AUTO 35010KT 10SM -RA SCT048 BKN055 OVC070 04/01 A2990 1100 82 100 350/10 RMK AO2 P0001 TSNO
94908KDBQ DBQ20050215023512502/15/05 02:35:31  5-MIN KDBQ 150835Z AUTO 34007 03/01 A2989 1110 85 0 020/04 RMK AO2 SLP131 P0001 60003 T00330011 53006 TSNO
94908KDBQ DBQ20050215025515602/15/05 02:55:31  5-MIN KDBQ 150855Z AUTO 00000KT 8SM -RA BKN044 BKN055 OVC070 03/01 A2989 1100 85 0 000/00 RMK AO2 SLP131 P0002 60004 T00330011 53013 TSNO
94908KDBQ DBQ20050215032012902/15/05 03:20:31  5-MIN KDBQ 150920Z AUTO 02008KT 9SM -RA SCT044 OVC075 03/01 A2988 1120 82 0 020/08 RMK AO2 P0000 TSNO 02/15/05
94908KDBQ DBQ20050215034012202/15/05 03:40:31  5-MIN KDBQ 150940Z AUTO 36009KT 9SM FEW044 OVC075 03/01 A2989 1110 85 0 360/09 RMK AO2 RAE32 P0000 TSNO
94908KDBQ DBQ20050215034507302/15/05 03:45:31  5-MIN KDBQ 150945Z AUTO 03010KT 9SM OVC075 03/01 A2989
94908KDBQ DBQ20050215041013502/15/05 04:10:31  5-MIN KDBQ 151010Z AUTO 35009KT 8SM UP OVC075 03/01 A2989 1100 85 0 350/09 RMK AO2 UPB01 P0000 TSNO RAB11 P0001 TSNO
94908KDBQ DBQ20050215043013702/15/05 04:30:31  5-MIN KDBQ 151030Z AUTO 02008KT 8SM -RA BKN038 OVC075 02/01 A2989 1100 89 -100 010/08 RMK AO2 UPB01E11RAB11 P0001 TSNO
94908KDBQ DBQ20050215043508002/15/05 04:35:31  5-MIN KDBQ 151035Z AUTO 36011KT 7SM UP BKN038 BKN050 OVC075 0
94908KDBQ DBQ20050215045509902/15/05 04:55:31  5-MIN KDBQ 151055Z AUTO 36011KT 7SM FEW040 OVC080 02/01 A2991 1090 89 -1AO2 TSNO
94908KDBQ DBQ20050215051510602/15/05 05:15:31  5-MIN KDBQ 151115Z AUTO 03008KT 7SM OVC080 02/01 A2990 1100 92 -200 030/08 RMK AO2 TSNO
94908KDBQ DBQ20050215052010902/15/05 05:20:31  5-MIN KDBQ 151120Z AUTO 02007KT 6SM BR OVC080 02/01 A2991 1090 92 -200 020/07 RMK AO2 TSNO
94908KDBQ DBQ20050215052510902/15/05 05:25:31  5-MIN KDBQ 151125Z AUTO 02009KT 6SM BR OVC080 02/01 A2991 1090 92 -200 010/09 RMK AO2 TSNO
94908KDBQ DBQ20050215053010902/15/05 05:30:31  5-MIN KDBQ 151130Z AUTO 01009KT 6SM BR OVC080 02/01 A2991 1090 92 -200 010/09 RMK AO2 TSNO
94908KDBQ DBQ20050215053510902/15/05 05:35:31  5-MIN KDBQ 151135Z AUTO 01010KT 6SM BR OVC080 02/01 A2991 1090 92 -200 010/10 RMK AO2 TSNO
94908KDBQ DBQ20050215054010902/15/05 05:40:31  5-MIN KDBQ 151140Z AUTO 02007KT 6SM BR OVC080 02/01 A2991 1090 92 -200 020/07 RMK AO2 TSNO
94908KDBQ DBQ20050215054510902/15/05 05:45:31  5-MIN KDBQ 151145Z AUTO 04007KT 6SM BR OVC080 02/01 A2991 1090 92 -200 030/07 RMK AO2 TSNO
94908KDBQ DBQ20050215055015602/15/05 05:50:31  5-MIN KDBQ 151150Z AUTO 05006KT 6SM BR OVC080 02/01 A2990 1090 92 -200 050/06 RMK AO2 SLP136 60005 70005 T00170006 10044 20017 53013 TSNO
94908KDBQ DBQ20050215055514602/15/05 05:55:31  5-MIN KDBQ 151155Z 05006KT 6SM BR OVC075 02/01 A2990 1100 92 -200 050/06 RMK AO2 SLP135 60005 70005 T00170006 10044 20017 50001
94908KDBQ DBQ20050215060009902/15/05 06:00:31  5-MIN KDBQ 151200Z 03005KT 6SM BR OVC080 02/01 A2990 1100 92 -200 030/05 RMK AO2
94908KDBQ DBQ20050215060509902/15/05 06:05:31  5-MIN KDBQ 151205Z 02008KT 6SM BR OVC080 02/01 A2990 1100 92 -200 010/08 RMK AO2
94908KDBQ DBQ20050215061009902/15/05 06:10:31  5-MIN KDBQ 151210Z 02007KT 6SM BR OVC080 02/00 A2990 1100 89 -200 020/07 RMK AO2
94908KDBQ DBQ20050215061509902/15/05 06:15:31  5-MIN KDBQ 151215Z 03007KT 6SM BR OVC080 02/00 A2989 1110 89 -200 020/07 RMK AO2
94908KDBQ DBQ20050215062009902/15/05 06:20:31  5-MIN KDBQ 151220Z 02007KT 6SM BR OVC080 02/00 A2989 1110 89 -200 020/07 RMK AO2
94908KDBQ DBQ20050215062509902/15/05 06:25:31  5-MIN KDBQ 151225Z 01009KT 6SM BR OVC080 02/00 A2989 1100 89 -200 010/09 RMK AO2
94908KDBQ DBQ20050215063009602/15/05 06:30:31  5-MIN KDBQ 151230Z 01008KT 7SM OVC080 02/00 A2990 1090 89 -200 360/08 RMK AO2
94908KDBQ DBQ20050215063509602/15/05 06:35:31  5-MIN KDBQ 151235Z 36009KT 7SM OVC080 02/00 A2990 1090 89 -200 360/09 RMK AO2
94908KDBQ DBQ20050215064009602/15/05 06:40:31  5-MIN KDBQ 151240Z 01008KT 7SM OVC080 02/00 A2990 1100 89 -200 360/08 RMK AO2
94908KDBQ DBQ20050215064509602/15/05 06:45:31  5-MIN KDBQ 151245Z 36007KT 7SM OVC085 02/00 A2991 1090 89 -200 360/07 RMK AO2
94908KDBQ DBQ20050215065011302/15/05 06:50:31  5-MIN KDBQ 151250Z 01007KT 7SM OVC085 02/00 A2990 1090 89 -200 010/07 RMK AO2 SLP136 T00170000
94908KDBQ DBQ20050215065511302/15/05 06:55:31  5-MIN KDBQ 151255Z 01007KT 7SM OVC085 02/00 A2991 1090 89 -200 010/07 RMK AO2 SLP136 T00170000
94908KDBQ DBQ20050215070009602/15/05 07:00:31  5-MIN KDBQ 151300Z 01007KT 7SM OVC085 02/00 A2991 1090 89 -200 010/07 RMK AO2
94908KDBQ DBQ20050215070509602/15/05 07:05:31  5-MIN KDBQ 151305Z 01007KT 7SM OVC085 02/00 A2992 1080 89 -200 360/07 RMK AO2
94908KDBQ DBQ20050215071009602/15/05 07:10:31  5-MIN KDBQ 151310Z 01009KT 7SM OVC085 02/00 A2992 1080 89 -200 010/09 RMK AO2
94908KDBQ DBQ20050215071509602/15/05 07:15:31  5-MIN KDBQ 151315Z 36010KT 7SM OVC085 01/00 A2992 1080 92 -300 360/10 RMK AO2
94908KDBQ DBQ20050215072009902/15/05 07:20:31  5-MIN KDBQ 151320Z 35010KT 6SM BR OVC085 01/00 A2993 1070 92 -300 350/10 RMK AO2
94908KDBQ DBQ20050215072510602/15/05 07:25:31  5-MIN KDBQ 151325Z 35011KT 5SM BR OVC085 01/00 A2994 1060 92 -300 350/11 RMK AO2 PRESRR
94908KDBQ DBQ20050215073010002/15/05 07:30:31  5-MIN KDBQ 151330Z 36010KT 5SM BR OVC085 01/M01 A2993 1070 89 -300 360/10 RMK AO2
94908KDBQ DBQ20050215073510002/15/05 07:35:31  5-MIN KDBQ 151335Z 35010KT 5SM BR OVC085 01/M01 A2994 1060 89 -300 350/10 RMK AO2
94908KDBQ DBQ20050215074010002/15/05 07:40:31  5-MIN KDBQ 151340Z 36011KT 5SM BR OVC090 01/M01 A2993 1070 89 -300 360/11 RMK AO2
94908KDBQ DBQ20050215074510002/15/05 07:45:31  5-MIN KDBQ 151345Z 36011KT 6SM BR OVC090 01/M01 A2993 1060 89 -300 360/11 RMK AO2
94908KDBQ DBQ20050215075011702/15/05 07:50:31  5-MIN KDBQ 151350Z 36012KT 6SM BR OVC090 01/M01 A2994 1060 89 -300 360/12 RMK AO2 SLP148 T00111006
94908KDBQ DBQ20050215075511702/15/05 07:55:31  5-MIN KDBQ 151355Z 36012KT 6SM BR OVC090 01/M01 A2994 1060 89 -300 360/12 RMK AO2 SLP148 T00111006
94908KDBQ DBQ20050215080010002/15/05 08:00:31  5-MIN KDBQ 151400Z 01012KT 6SM BR OVC090 01/M01 A2993 1070 89 -300 360/12 RMK AO2
94908KDBQ DBQ20050215080510002/15/05 08:05:31  5-MIN KDBQ 151405Z 36010KT 6SM BR OVC090 01/M01 A2994 1060 89 -300 360/10 RMK AO2
94908KDBQ DBQ20050215081010002/15/05 08:10:31  5-MIN KDBQ 151410Z 36011KT 6SM BR OVC090 01/M01 A2994 1060 89 -300 360/11 RMK AO2
94908KDBQ DBQ20050215081510002/15/05 08:15:31  5-MIN KDBQ 151415Z 36010KT 6SM BR OVC090 01/M01 A2994 1060 89 -300 360/10 RMK AO2
94908KDBQ DBQ20050215082010002/15/05 08:20:31  5-MIN KDBQ 151420Z 01011KT 5SM BR OVC090 01/M01 A2993 1060 89 -300 010/11 RMK AO2
94908KDBQ DBQ20050215082510002/15/05 08:25:31  5-MIN KDBQ 151425Z 01011KT 5SM BR OVC090 01/M01 A2994 1060 89 -300 010/11 RMK AO2
94908KDBQ DBQ20050215083010002/15/05 08:30:31  5-MIN KDBQ 151430Z 36011KT 6SM BR OVC090 01/M01 A2994 1060 89 -300 360/11 RMK AO2
94908KDBQ DBQ20050215083510002/15/05 08:35:31  5-MIN KDBQ 151435Z 36010KT 6SM BR OVC090 01/M01 A2994 1060 85 -300 360/10 RMK AO2
94908KDBQ DBQ20050215084010002/15/05 08:40:31  5-MIN KDBQ 151440Z 36010KT 6SM BR OVC090 01/M01 A2995 1050 85 -300 360/10 RMK AO2
94908KDBQ DBQ20050215084510002/15/05 08:45:31  5-MIN KDBQ 151445Z 36010KT 6SM BR OVC090 01/M01 A2995 1050 85 -300 360/10 RMK AO2
94908KDBQ DBQ20050215085012302/15/05 08:50:31  5-MIN KDBQ 151450Z 36010KT 6SM BR BKN090 01/M01 A2996 1050 85 -300 360/10 RMK AO2 SLP154 T00111011 50001
94908KDBQ DBQ20050215085512302/15/05 08:55:31  5-MIN KDBQ 151455Z 36011KT 6SM BR BKN090 01/M01 A2996 1040 85 -300 350/11 RMK AO2 SLP157 T00111011 53021
94908KDBQ DBQ20050215090010702/15/05 09:00:31  5-MIN KDBQ 151500Z 35011KT 6SM BR SCT080 BKN090 01/M01 A2996 1040 85 -300 350/11 RMK AO2
94908KDBQ DBQ20050215090510702/15/05 09:05:31  5-MIN KDBQ 151505Z 36012KT 6SM BR SCT070 BKN090 01/M01 A2996 1040 85 -300 360/12 RMK AO2
94908KDBQ DBQ20050215091010702/15/05 09:10:31  5-MIN KDBQ 151510Z 36012KT 6SM BR SCT070 BKN090 01/M01 A2996 1040 85 -300 360/12 RMK AO2
94908KDBQ DBQ20050215091510402/15/05 09:15:31  5-MIN KDBQ 151515Z 36012KT 7SM SCT070 BKN095 01/M02 A2996 1040 82 -300 360/12 RMK AO2
94908KDBQ DBQ20050215092010402/15/05 09:20:31  5-MIN KDBQ 151520Z 36013KT 7SM FEW070 BKN095 01/M02 A2996 1040 82 -300 360/13 RMK AO2
94908KDBQ DBQ20050215092510402/15/05 09:25:31  5-MIN KDBQ 151525Z 36012KT 7SM FEW070 BKN095 01/M02 A2996 1040 82 -300 360/12 RMK AO2
94908KDBQ DBQ20050215093010402/15/05 09:30:31  5-MIN KDBQ 151530Z 01014KT 7SM FEW065 BKN095 01/M02 A2996 1040 82 -300 360/14 RMK AO2
94908KDBQ DBQ20050215093510402/15/05 09:35:31  5-MIN KDBQ 151535Z 01011KT 7SM FEW065 SCT095 01/M02 A2996 1040 82 -300 010/11 RMK AO2
94908KDBQ DBQ20050215094010402/15/05 09:40:31  5-MIN KDBQ 151540Z 01014KT 7SM FEW060 BKN095 01/M02 A2996 1040 82 -300 010/14 RMK AO2
94908KDBQ DBQ20050215094510402/15/05 09:45:31  5-MIN KDBQ 151545Z 01013KT 7SM FEW060 SCT095 01/M02 A2995 1050 82 -300 010/13 RMK AO2
94908KDBQ DBQ20050215095012102/15/05 09:50:31  5-MIN KDBQ 151550Z 01012KT 8SM FEW060 SCT100 01/M02 A2996 1050 82 -300 010/12 RMK AO2 SLP154 T00111017
94908KDBQ DBQ20050215095512102/15/05 09:55:31  5-MIN KDBQ 151555Z 01013KT 8SM FEW060 BKN095 01/M02 A2996 1050 82 -300 010/13 RMK AO2 SLP154 T00111017
94908KDBQ DBQ20050215100010402/15/05 10:00:31  5-MIN KDBQ 151600Z 36011KT 7SM FEW060 BKN095 01/M02 A2996 1040 82 -300 360/11 RMK AO2
94908KDBQ DBQ20050215100510402/15/05 10:05:31  5-MIN KDBQ 151605Z 36011KT 8SM FEW055 SCT095 01/M02 A2997 1040 78 -300 360/11 RMK AO2
94908KDBQ DBQ20050215101009702/15/05 10:10:31  5-MIN KDBQ 151610Z 36011KT 8SM FEW095 01/M02 A2997 1030 82 -300 360/11 RMK AO2
94908KDBQ DBQ20050215101509702/15/05 10:15:31  5-MIN KDBQ 151615Z 35010KT 8SM SCT095 01/M02 A2997 1030 82 -300 350/10 RMK AO2
94908KDBQ DBQ20050215102009702/15/05 10:20:31  5-MIN KDBQ 151620Z 36010KT 8SM FEW080 01/M02 A2998 1030 82 -300 360/10 RMK AO2
94908KDBQ DBQ20050215102509402/15/05 10:25:31  5-MIN KDBQ 151625Z 36009KT 8SM CLR 01/M02 A2997 1030 82 -300 360/09 RMK AO2
94908KDBQ DBQ20050215103009402/15/05 10:30:31  5-MIN KDBQ 151630Z 35011KT 8SM CLR 01/M02 A2998 1030 82 -300 350/11 RMK AO2
94908KDBQ DBQ20050215103509402/15/05 10:35:31  5-MIN KDBQ 151635Z 36010KT 8SM CLR 01/M02 A2998 1030 82 -300 360/10 RMK AO2
94908KDBQ DBQ20050215104009402/15/05 10:40:31  5-MIN KDBQ 151640Z 35012KT 8SM CLR 01/M02 A2998 1030 82 -300 350/12 RMK AO2
94908KDBQ DBQ20050215104509702/15/05 10:45:31  5-MIN KDBQ 151645Z 35011KT 8SM FEW085 01/M02 A2998 1030 82 -300 350/11 RMK AO2
94908KDBQ DBQ20050215105011402/15/05 10:50:31  5-MIN KDBQ 151650Z 36012KT 8SM FEW080 01/M02 A2997 1030 78 -300 360/12 RMK AO2 SLP161 T00111022
94908KDBQ DBQ20050215105511402/15/05 10:55:31  5-MIN KDBQ 151655Z 36010KT 8SM FEW080 01/M02 A2997 1030 78 -300 360/10 RMK AO2 SLP161 T00111022
94908KDBQ DBQ20050215110009702/15/05 11:00:31  5-MIN KDBQ 151700Z 36012KT 8SM SCT080 01/M02 A2997 1030 78 -300 360/12 RMK AO2
94908KDBQ DBQ20050215110509702/15/05 11:05:31  5-MIN KDBQ 151705Z 36010KT 8SM SCT075 01/M02 A2997 1030 78 -300 360/10 RMK AO2
94908KDBQ DBQ20050215111009702/15/05 11:10:31  5-MIN KDBQ 151710Z 36010KT 8SM SCT070 01/M02 A2997 1030 78 -300 360/10 RMK AO2
94908KDBQ DBQ20050215111509702/15/05 11:15:31  5-MIN KDBQ 151715Z 36010KT 8SM SCT070 01/M02 A2997 1030 82 -300 360/10 RMK AO2
94908KDBQ DBQ20050215112009702/15/05 11:20:31  5-MIN KDBQ 151720Z 35009KT 8SM FEW075 02/M02 A2997 1030 78 -200 350/09 RMK AO2
94908KDBQ DBQ20050215112509702/15/05 11:25:31  5-MIN KDBQ 151725Z 36013KT 8SM FEW070 02/M02 A2997 1030 78 -200 360/13 RMK AO2
94908KDBQ DBQ20050215113009702/15/05 11:30:31  5-MIN KDBQ 151730Z 01013KT 8SM FEW070 01/M02 A2997 1030 78 -300 010/13 RMK AO2
94908KDBQ DBQ20050215113509702/15/05 11:35:31  5-MIN KDBQ 151735Z 35013KT 8SM FEW075 02/M02 A2997 1030 75 -300 350/13 RMK AO2
94908KDBQ DBQ20050215114009702/15/05 11:40:31  5-MIN KDBQ 151740Z 36011KT 8SM SCT080 02/M02 A2997 1040 75 -200 360/11 RMK AO2
94908KDBQ DBQ20050215114510402/15/05 11:45:31  5-MIN KDBQ 151745Z 35012KT 8SM SCT080 BKN100 02/M02 A2996 1040 78 -200 350/12 RMK AO2
94908KDBQ DBQ20050215115013902/15/05 11:50:31  5-MIN KDBQ 151750Z 36013KT 8SM SCT080 BKN100 02/M02 A2996 1040 78 -200 360/13 RMK AO2 SLP156 T00171017 10017 20011 53021
94908KDBQ DBQ20050215115513902/15/05 11:55:31  5-MIN KDBQ 151755Z 36013KT 8SM FEW075 BKN095 02/M02 A2997 1030 75 -200 350/13 RMK AO2 SLP158 T00171022 10017 20011 53003
94908KDBQ DBQ20050215120010402/15/05 12:00:31  5-MIN KDBQ 151800Z 36013KT 8SM FEW080 BKN095 02/M02 A2997 1030 75 -200 360/13 RMK AO2
94908KDBQ DBQ20050215120510402/15/05 12:05:31  5-MIN KDBQ 151805Z 35011KT 8SM FEW080 BKN095 02/M02 A2997 1040 75 -200 350/11 RMK AO2
94908KDBQ DBQ20050215121010402/15/05 12:10:31  5-MIN KDBQ 151810Z 35011KT 8SM FEW080 BKN100 02/M02 A2997 1030 78 -200 350/11 RMK AO2
94908KDBQ DBQ20050215121509702/15/05 12:15:31  5-MIN KDBQ 151815Z 35010KT 8SM BKN095 02/M02 A2997 1040 78 -200 350/10 RMK AO2
94908KDBQ DBQ20050215122009702/15/05 12:20:31  5-MIN KDBQ 151820Z 35011KT 8SM SCT095 02/M02 A2997 1040 78 -200 350/11 RMK AO2
94908KDBQ DBQ20050215122509702/15/05 12:25:31  5-MIN KDBQ 151825Z 36009KT 8SM SCT090 02/M02 A2997 1040 78 -200 360/09 RMK AO2
94908KDBQ DBQ20050215123009702/15/05 12:30:31  5-MIN KDBQ 151830Z 34013KT 8SM FEW090 02/M02 A2997 1030 75 -200 340/13 RMK AO2
94908KDBQ DBQ20050215123509702/15/05 12:35:31  5-MIN KDBQ 151835Z 35012KT 8SM FEW095 02/M02 A2997 1030 75 -200 350/12 RMK AO2
94908KDBQ DBQ20050215124009702/15/05 12:40:31  5-MIN KDBQ 151840Z 35011KT 8SM FEW070 02/M02 A2997 1040 75 -200 350/11 RMK AO2
94908KDBQ DBQ20050215124509402/15/05 12:45:31  5-MIN KDBQ 151845Z 35010KT 8SM CLR 02/M02 A2996 1040 75 -200 350/10 RMK AO2
94908KDBQ DBQ20050215125011402/15/05 12:50:31  5-MIN KDBQ 151850Z 35012KT 8SM FEW060 02/M02 A2997 1040 75 -200 350/12 RMK AO2 SLP157 T00171022
94908KDBQ DBQ20050215125511402/15/05 12:55:31  5-MIN KDBQ 151855Z 35010KT 8SM FEW060 02/M02 A2997 1040 75 -200 350/10 RMK AO2 SLP157 T00171022
94908KDBQ DBQ20050215130009702/15/05 13:00:31  5-MIN KDBQ 151900Z 35011KT 8SM FEW065 02/M02 A2997 1040 75 -200 350/11 RMK AO2
94908KDBQ DBQ20050215130509702/15/05 13:05:31  5-MIN KDBQ 151905Z 36012KT 8SM FEW065 02/M02 A2997 1040 75 -200 360/12 RMK AO2
94908KDBQ DBQ20050215131009702/15/05 13:10:31  5-MIN KDBQ 151910Z 35010KT 9SM FEW065 02/M02 A2996 1040 75 -200 350/10 RMK AO2
94908KDBQ DBQ20050215131509702/15/05 13:15:31  5-MIN KDBQ 151915Z 35014KT 9SM SCT065 02/M03 A2997 1030 72 -200 340/14 RMK AO2
94908KDBQ DBQ20050215132009702/15/05 13:20:31  5-MIN KDBQ 151920Z 35014KT 9SM SCT070 02/M03 A2997 1030 72 -200 350/14 RMK AO2
94908KDBQ DBQ20050215132509702/15/05 13:25:31  5-MIN KDBQ 151925Z 36012KT 9SM SCT065 02/M03 A2996 1040 72 -200 360/12 RMK AO2
94908KDBQ DBQ20050215133009702/15/05 13:30:31  5-MIN KDBQ 151930Z 36012KT 9SM SCT065 02/M03 A2996 1040 72 -200 360/12 RMK AO2
94908KDBQ DBQ20050215133509702/15/05 13:35:31  5-MIN KDBQ 151935Z 36011KT 9SM BKN065 02/M03 A2996 1050 72 -200 360/11 RMK AO2
94908KDBQ DBQ20050215134009802/15/05 13:40:31  5-MIN KDBQ 151940Z 36011KT 10SM BKN065 02/M03 A2995 1050 72 -200 360/11 RMK AO2
94908KDBQ DBQ20050215134509802/15/05 13:45:31  5-MIN KDBQ 151945Z 36012KT 10SM BKN060 02/M03 A2995 1050 72 -200 360/12 RMK AO2
94908KDBQ DBQ20050215135011502/15/05 13:50:31  5-MIN KDBQ 151950Z 36011KT 10SM BKN060 02/M03 A2995 1050 72 -200 360/11 RMK AO2 SLP152 T00171028
94908KDBQ DBQ20050215135511502/15/05 13:55:31  5-MIN KDBQ 151955Z 35011KT 10SM SCT060 02/M03 A2995 1050 72 -200 350/11 RMK AO2 SLP150 T00171028
94908KDBQ DBQ20050215140009802/15/05 14:00:31  5-MIN KDBQ 152000Z 35011KT 10SM SCT060 02/M03 A2995 1050 72 -200 350/11 RMK AO2
94908KDBQ DBQ20050215140511202/15/05 14:05:31  5-MIN KDBQ 152005Z 36013KT 10SM FEW055 SCT070 SCT080 02/M03 A2995 1050 69 -200 350/13 RMK AO2
94908KDBQ DBQ20050215141010502/15/05 14:10:31  5-MIN KDBQ 152010Z 35011KT 10SM FEW070 BKN100 01/M03 A2995 1050 72 -300 350/11 RMK AO2
94908KDBQ DBQ20050215141510502/15/05 14:15:31  5-MIN KDBQ 152015Z 35010KT 10SM FEW075 BKN100 01/M04 A2995 1050 69 -300 350/10 RMK AO2
94908KDBQ DBQ20050215142010502/15/05 14:20:31  5-MIN KDBQ 152020Z 35010KT 10SM SCT075 BKN100 01/M04 A2995 1050 69 -300 350/10 RMK AO2
94908KDBQ DBQ20050215142510502/15/05 14:25:31  5-MIN KDBQ 152025Z 36011KT 10SM SCT075 BKN100 02/M04 A2995 1050 64 -200 360/11 RMK AO2
94908KDBQ DBQ20050215143010502/15/05 14:30:31  5-MIN KDBQ 152030Z 36009KT 10SM SCT075 BKN100 02/M04 A2995 1050 64 -200 360/09 RMK AO2
94908KDBQ DBQ20050215143510502/15/05 14:35:31  5-MIN KDBQ 152035Z 36012KT 10SM FEW075 BKN100 02/M04 A2995 1050 64 -200 360/12 RMK AO2
94908KDBQ DBQ20050215144010502/15/05 14:40:31  5-MIN KDBQ 152040Z 01014KT 10SM FEW075 BKN100 02/M05 A2995 1050 61 -200 010/14 RMK AO2
94908KDBQ DBQ20050215144510502/15/05 14:45:31  5-MIN KDBQ 152045Z 01010KT 10SM FEW075 BKN110 02/M05 A2995 1050 61 -200 010/10 RMK AO2
94908KDBQ DBQ20050215145012102/15/05 14:50:31  5-MIN KDBQ 152050Z 36007KT 10SM SCT100 02/M04 A2995 1050 64 -200 360/07 RMK AO2 SLP151 T00171044 53003
94908KDBQ DBQ20050215145512102/15/05 14:55:31  5-MIN KDBQ 152055Z 36010KT 10SM BKN100 02/M04 A2995 1050 66 -200 360/10 RMK AO2 SLP152 T00171039 55006
94908KDBQ DBQ20050215150010502/15/05 15:00:31  5-MIN KDBQ 152100Z 35009KT 10SM FEW080 BKN100 01/M04 A2995 1050 69 -300 350/09 RMK AO2
94908KDBQ DBQ20050215150509802/15/05 15:05:31  5-MIN KDBQ 152105Z 34010KT 10SM BKN100 01/M04 A2995 1050 66 -300 340/10 RMK AO2
94908KDBQ DBQ20050215151009802/15/05 15:10:31  5-MIN KDBQ 152110Z 35011KT 10SM BKN095 01/M04 A2996 1040 69 -300 350/11 RMK AO2
94908KDBQ DBQ20050215151509802/15/05 15:15:31  5-MIN KDBQ 152115Z 36009KT 10SM BKN095 01/M04 A2996 1040 66 -300 360/09 RMK AO2
94908KDBQ DBQ20050215152009802/15/05 15:20:31  5-MIN KDBQ 152120Z 36010KT 10SM OVC095 01/M04 A2997 1030 66 -300 350/10 RMK AO2
94908KDBQ DBQ20050215152509802/15/05 15:25:31  5-MIN KDBQ 152125Z 35010KT 10SM OVC095 01/M04 A2997 1030 66 -300 350/10 RMK AO2
94908KDBQ DBQ20050215153009802/15/05 15:30:31  5-MIN KDBQ 152130Z 36009KT 10SM OVC100 01/M05 A2997 1030 64 -300 360/09 RMK AO2
94908KDBQ DBQ20050215153510502/15/05 15:35:31  5-MIN KDBQ 152135Z 36009KT 10SM BKN100 OVC120 01/M05 A2997 1030 64 -300 360/09 RMK AO2
94908KDBQ DBQ20050215154010502/15/05 15:40:31  5-MIN KDBQ 152140Z 36008KT 10SM BKN100 OVC120 01/M05 A2997 1030 64 -300 360/08 RMK AO2
94908KDBQ DBQ20050215154510502/15/05 15:45:31  5-MIN KDBQ 152145Z 34007KT 10SM BKN095 OVC120 01/M04 A2998 1030 66 -300 340/07 RMK AO2
94908KDBQ DBQ20050215155012202/15/05 15:50:31  5-MIN KDBQ 152150Z 35009KT 10SM BKN095 BKN120 01/M04 A2998 1020 69 -300 340/09 RMK AO2 SLP161 T00111039
94908KDBQ DBQ20050215155512202/15/05 15:55:31  5-MIN KDBQ 152155Z 34011KT 10SM SCT100 BKN120 01/M04 A2998 1020 66 -300 340/11 RMK AO2 SLP163 T00111044
94908KDBQ DBQ20050215160010502/15/05 16:00:31  5-MIN KDBQ 152200Z 34011KT 10SM FEW090 BKN110 01/M04 A2999 1020 66 -300 340/11 RMK AO2
94908KDBQ DBQ20050215160510502/15/05 16:05:31  5-MIN KDBQ 152205Z 34012KT 10SM BKN095 BKN110 01/M04 A2999 1020 69 -400 340/12 RMK AO2
94908KDBQ DBQ20050215161010502/15/05 16:10:31  5-MIN KDBQ 152210Z 33010KT 10SM BKN090 BKN110 01/M04 A2999 1010 69 -400 330/10 RMK AO2
94908KDBQ DBQ20050215161510502/15/05 16:15:31  5-MIN KDBQ 152215Z 34009KT 10SM BKN090 BKN110 01/M04 A2999 1010 69 -400 340/09 RMK AO2
94908KDBQ DBQ20050215162010502/15/05 16:20:31  5-MIN KDBQ 152220Z 33009KT 10SM BKN090 OVC110 01/M04 A2999 1010 69 -400 330/09 RMK AO2
94908KDBQ DBQ20050215162511202/15/05 16:25:31  5-MIN KDBQ 152225Z 34010KT 10SM FEW075 BKN090 OVC110 01/M04 A2999 1010 69 -400 340/10 RMK AO2
94908KDBQ DBQ20050215163009802/15/05 16:30:31  5-MIN KDBQ 152230Z 33008KT 10SM BKN090 01/M04 A2999 1010 69 -400 330/08 RMK AO2
94908KDBQ DBQ20050215163509802/15/05 16:35:31  5-MIN KDBQ 152235Z 34008KT 10SM BKN090 01/M04 A2999 1020 69 -400 340/08 RMK AO2
94908KDBQ DBQ20050215164010502/15/05 16:40:31  5-MIN KDBQ 152240Z 35008KT 10SM SCT080 SCT100 01/M05 A2999 1020 66 -400 350/08 RMK AO2
94908KDBQ DBQ20050215164510502/15/05 16:45:31  5-MIN KDBQ 152245Z 34007KT 10SM FEW075 SCT100 01/M04 A2999 1010 69 -400 340/07 RMK AO2
94908KDBQ DBQ20050215165012202/15/05 16:50:31  5-MIN KDBQ 152250Z 34010KT 10SM FEW080 SCT100 01/M05 A2999 1010 66 -400 340/10 RMK AO2 SLP167 T00061050
94908KDBQ DBQ20050215165512202/15/05 16:55:31  5-MIN KDBQ 152255Z 34008KT 10SM SCT080 SCT100 01/M05 A2999 1010 66 -400 340/08 RMK AO2 SLP167 T00061050
94908KDBQ DBQ20050215170010502/15/05 17:00:31  5-MIN KDBQ 152300Z 34009KT 10SM SCT085 BKN110 01/M05 A2999 1010 66 -400 340/09 RMK AO2
94908KDBQ DBQ20050215170510502/15/05 17:05:31  5-MIN KDBQ 152305Z 34008KT 10SM SCT100 BKN120 01/M05 A3000 1010 66 -400 340/08 RMK AO2
94908KDBQ DBQ20050215171010502/15/05 17:10:31  5-MIN KDBQ 152310Z 35007KT 10SM FEW090 SCT110 01/M05 A3000 1010 66 -400 350/07 RMK AO2
94908KDBQ DBQ20050215171510502/15/05 17:15:31  5-MIN KDBQ 152315Z 35007KT 10SM SCT100 SCT120 01/M05 A3000 1010 66 -400 350/07 RMK AO2
94908KDBQ DBQ20050215172010502/15/05 17:20:31  5-MIN KDBQ 152320Z 35007KT 10SM FEW100 SCT120 00/M05 A2999 1010 69 -500 350/07 RMK AO2
94908KDBQ DBQ20050215172509802/15/05 17:25:31  5-MIN KDBQ 152325Z 36007KT 10SM FEW110 00/M05 A3000 1010 69 -500 350/07 RMK AO2
94908KDBQ DBQ20050215173009802/15/05 17:30:31  5-MIN KDBQ 152330Z 35006KT 10SM FEW120 00/M05 A3000 1000 69 -500 350/06 RMK AO2
94908KDBQ DBQ20050215173509802/15/05 17:35:31  5-MIN KDBQ 152335Z 35007KT 10SM FEW085 00/M05 A3001 1000 69 -500 340/07 RMK AO2
94908KDBQ DBQ20050215174010502/15/05 17:40:31  5-MIN KDBQ 152340Z 36005KT 10SM FEW080 SCT120 00/M05 A3001 1000 69 -500 360/05 RMK AO2
94908KDBQ DBQ20050215174510502/15/05 17:45:31  5-MIN KDBQ 152345Z 36006KT 10SM FEW080 BKN120 00/M05 A3001 1000 69 -500 360/06 RMK AO2
94908KDBQ DBQ20050215175014002/15/05 17:50:31  5-MIN KDBQ 152350Z 36007KT 10SM FEW080 BKN120 00/M05 A3001 1000 69 -500 360/07 RMK AO2 SLP173 T00001050 10017 20000 55006
94908KDBQ DBQ20050215175514002/15/05 17:55:31  5-MIN KDBQ 152355Z 35005KT 10SM FEW085 BKN120 00/M05 A3001 1000 69 -500 350/05 RMK AO2 SLP173 T00001050 10017 20000 51019
94908KDBQ DBQ20050215180010502/15/05 18:00:31  5-MIN KDBQ 160000Z 36004KT 10SM FEW085 OVC120 00/M05 A3001 1000 69 -500 360/04 RMK AO2
94908KDBQ DBQ20050215180510502/15/05 18:05:31  5-MIN KDBQ 160005Z 36006KT 10SM SCT080 OVC120 00/M05 A3001 1000 69 -500 360/06 RMK AO2
94908KDBQ DBQ20050215181010402/15/05 18:10:31  5-MIN KDBQ 160010Z 35009KT 10SM FEW080 BKN120 00/M05 A3001 990 69 -500 350/09 RMK AO2
94908KDBQ DBQ20050215181510402/15/05 18:15:31  5-MIN KDBQ 160015Z 36008KT 10SM FEW080 BKN110 00/M05 A3002 990 69 -500 360/08 RMK AO2
94908KDBQ DBQ20050215182010402/15/05 18:20:31  5-MIN KDBQ 160020Z 01005KT 10SM BKN085 BKN120 00/M05 A3002 990 69 -500 360/05 RMK AO2
94908KDBQ DBQ20050215182510402/15/05 18:25:31  5-MIN KDBQ 160025Z 34007KT 10SM BKN085 BKN120 00/M04 A3003 980 72 -500 340/07 RMK AO2
94908KDBQ DBQ20050215183010402/15/05 18:30:31  5-MIN KDBQ 160030Z 36007KT 10SM BKN085 BKN120 00/M04 A3002 980 72 -500 350/07 RMK AO2
94908KDBQ DBQ20050215183510402/15/05 18:35:31  5-MIN KDBQ 160035Z VRB03KT 10SM BKN085 BKN120 00/M04 A3002 980 72 -500 VRB/03 RMK AO2
94908KDBQ DBQ20050215184010402/15/05 18:40:31  5-MIN KDBQ 160040Z 35004KT 10SM BKN085 OVC110 00/M04 A3003 980 72 -500 350/04 RMK AO2
94908KDBQ DBQ20050215184510402/15/05 18:45:31  5-MIN KDBQ 160045Z 35006KT 10SM BKN085 OVC110 00/M04 A3003 980 72 -500 350/06 RMK AO2
94908KDBQ DBQ20050215185012102/15/05 18:50:31  5-MIN KDBQ 160050Z 34007KT 10SM BKN085 OVC110 00/M04 A3003 970 72 -500 340/07 RMK AO2 SLP181 T00001044
94908KDBQ DBQ20050215185512102/15/05 18:55:31  5-MIN KDBQ 160055Z 34011KT 10SM BKN090 OVC110 00/M04 A3004 970 72 -500 340/11 RMK AO2 SLP182 T00001044
94908KDBQ DBQ20050215190010402/15/05 19:00:31  5-MIN KDBQ 160100Z 34008KT 10SM BKN090 OVC110 00/M04 A3004 970 72 -500 340/08 RMK AO2
94908KDBQ DBQ20050215190510402/15/05 19:05:31  5-MIN KDBQ 160105Z 34007KT 10SM BKN090 OVC110 00/M04 A3004 970 75 -500 340/07 RMK AO2
94908KDBQ DBQ20050215191010402/15/05 19:10:31  5-MIN KDBQ 160110Z 34007KT 10SM BKN090 OVC110 00/M04 A3004 970 72 -500 340/07 RMK AO2
94908KDBQ DBQ20050215191510402/15/05 19:15:31  5-MIN KDBQ 160115Z 36006KT 10SM BKN100 OVC110 00/M04 A3004 970 72 -500 360/06 RMK AO2
94908KDBQ DBQ20050215192009702/15/05 19:20:31  5-MIN KDBQ 160120Z 01005KT 10SM OVC100 00/M04 A3004 970 72 -500 010/05 RMK AO2
94908KDBQ DBQ20050215192509702/15/05 19:25:31  5-MIN KDBQ 160125Z 35007KT 10SM OVC095 00/M04 A3003 970 72 -500 350/07 RMK AO2
94908KDBQ DBQ20050215193009702/15/05 19:30:31  5-MIN KDBQ 160130Z 34010KT 10SM OVC095 00/M04 A3004 970 72 -500 340/10 RMK AO2
94908KDBQ DBQ20050215193509702/15/05 19:35:31  5-MIN KDBQ 160135Z 34012KT 10SM OVC090 00/M04 A3004 970 72 -500 330/12 RMK AO2
94908KDBQ DBQ20050215194009802/15/05 19:40:31  5-MIN KDBQ 160140Z 33008KT 10SM OVC090 M01/M04 A3004 960 75 -600 330/08 RMK AO2
94908KDBQ DBQ20050215194509802/15/05 19:45:31  5-MIN KDBQ 160145Z 34010KT 10SM OVC095 M01/M04 A3004 970 75 -600 340/10 RMK AO2
94908KDBQ DBQ20050215195012502/15/05 19:50:31  5-MIN KDBQ 160150Z AUTO 34009KT 10SM OVC095 M01/M05 A3004 970 72 -600 340/09 RMK AO2 SLP185 T10061050 TSNO
94908KDBQ DBQ20050215195512502/15/05 19:55:31  5-MIN KDBQ 160155Z AUTO 34010KT 10SM OVC095 M01/M05 A3005 960 72 -600 340/10 RMK AO2 SLP187 T10061050 TSNO
94908KDBQ DBQ20050215200010802/15/05 20:00:31  5-MIN KDBQ 160200Z AUTO 35008KT 10SM OVC095 M01/M04 A3004 960 75 -600 350/08 RMK AO2 TSNO
94908KDBQ DBQ20050215200510802/15/05 20:05:31  5-MIN KDBQ 160205Z AUTO 35007KT 10SM OVC100 M01/M04 A3004 970 75 -600 340/07 RMK AO2 TSNO
94908KDBQ DBQ20050215201010802/15/05 20:10:31  5-MIN KDBQ 160210Z AUTO 34009KT 10SM OVC095 M01/M04 A3005 960 75 -600 340/09 RMK AO2 TSNO
94908KDBQ DBQ20050215201510802/15/05 20:15:31  5-MIN KDBQ 160215Z AUTO 34009KT 10SM OVC100 M01/M04 A3005 960 75 -600 340/09 RMK AO2 TSNO
94908KDBQ DBQ20050215202010802/15/05 20:20:31  5-MIN KDBQ 160220Z AUTO 34008KT 10SM OVC100 M01/M04 A3005 960 75 -600 340/08 RMK AO2 TSNO
94908KDBQ DBQ20050215202510802/15/05 20:25:31  5-MIN KDBQ 160225Z AUTO 34009KT 10SM OVC100 M01/M04 A3005 960 75 -600 340/09 RMK AO2 TSNO
94908KDBQ DBQ20050215203010802/15/05 20:30:31  5-MIN KDBQ 160230Z AUTO 33011KT 10SM OVC100 M01/M04 A3006 950 75 -600 330/11 RMK AO2 TSNO
94908KDBQ DBQ20050215203510802/15/05 20:35:31  5-MIN KDBQ 160235Z AUTO 32013KT 10SM OVC100 M01/M04 A3007 940 75 -600 320/13 RMK AO2 TSNO
94908KDBQ DBQ20050215204010802/15/05 20:40:31  5-MIN KDBQ 160240Z AUTO 33012KT 10SM OVC100 M01/M04 A3006 950 75 -600 330/12 RMK AO2 TSNO
94908KDBQ DBQ20050215204510802/15/05 20:45:31  5-MIN KDBQ 160245Z AUTO 32013KT 10SM OVC100 M01/M04 A3006 950 75 -600 320/13 RMK AO2 TSNO
94908KDBQ DBQ20050215205013102/15/05 20:50:31  5-MIN KDBQ 160250Z AUTO 33011KT 10SM OVC100 M01/M04 A3007 940 75 -600 330/11 RMK AO2 SLP193 T10061044 51019 TSNO
94908KDBQ DBQ20050215205513102/15/05 20:55:31  5-MIN KDBQ 160255Z AUTO 33011KT 10SM OVC100 M01/M04 A3007 940 75 -600 330/11 RMK AO2 SLP193 T10061044 51019 TSNO
94908KDBQ DBQ20050215210010802/15/05 21:00:31  5-MIN KDBQ 160300Z AUTO 33010KT 10SM OVC100 M01/M04 A3007 940 75 -600 330/10 RMK AO2 TSNO
94908KDBQ DBQ20050215210510802/15/05 21:05:31  5-MIN KDBQ 160305Z AUTO 33009KT 10SM OVC095 M01/M04 A3007 940 75 -600 330/09 RMK AO2 TSNO
94908KDBQ DBQ20050215211010802/15/05 21:10:31  5-MIN KDBQ 160310Z AUTO 34010KT 10SM OVC090 M01/M04 A3007 940 75 -600 340/10 RMK AO2 TSNO
94908KDBQ DBQ20050215211510802/15/05 21:15:31  5-MIN KDBQ 160315Z AUTO 33009KT 10SM OVC090 M01/M04 A3007 940 75 -600 330/09 RMK AO2 TSNO
94908KDBQ DBQ20050215212017302/15/05 21:20:31  5-MIN KDBQ 160320Z AUTO 35008KT 10SM OVC090 M01/M04 A3006 950 75 -600 340/08 RMK AO2 TSNO A3006 950 78 -700 340/09 RMK AO2 TSNO AUTO 34009KT 10SM OVC090 M
94908KDBQ DBQ20050215213510802/15/05 21:35:31  5-MIN KDBQ 160335Z AUTO 34010KT 10SM OVC090 M01/M04 A3006 950 78 -700 340/10 RMK AO2 TSNO
94908KDBQ DBQ20050215214008802/15/05 21:40:31  5-MIN KDBQ 160340Z AUTO 34010KT 10SM BKN090 M01/M04 93 T10111044 TSNO
94908KDBQ DBQ20050215220010702/15/05 22:00:31  5-MIN KDBQ 160400Z AUTO 33012KT 9SM BKN090 M01/M04 A3007 940 78 -700 320/12 RMK AO2 TSNO
94908KDBQ DBQ20050215220510702/15/05 22:05:31  5-MIN KDBQ 160405Z AUTO 33011KT 9SM SCT090 M01/M04 A3007 940 78 -700 330/11 RMK AO2 TSNO
94908KDBQ DBQ20050215223010402/15/05 22:30:31  5-MIN KDBQ 160430Z AUTO 33014KT 8SM CLR M01/M04 A3006 950 78 -700 330/14 RMK AO2 TSNO
94908KDBQ DBQ20050215223510402/15/05 22:35:31  5-MIN KDBQ 160435Z AUTO 33013KT 8SM CLR M01/M04 A3007 940 78 -700 330/13 RMK AO2 TSNO
94908KDBQ DBQ20050215224006602/15/05 22:40:31  5-MIN -700 330/13 RMK AO2 SLP191 T10111050 TSNO
94908KDBQ DBQ20050215230010702/15/05 23:00:31  5-MIN KDBQ 160500Z AUTO 33012KT 8SM FEW120 M01/M04 A3005 960 78 -700 330/12 RMK AO2 TSNO
94908KDBQ DBQ20050215230510702/15/05 23:05:31  5-MIN KDBQ 160505Z AUTO 33012KT 8SM FEW120 M01/M05 A3005 950 75 -700 330/12 RMK AO2 TSNO
94908KDBQ DBQ20050215231003502/15/05 23:10:31  5-MIN KDBQ 16006
94908KDBQ DBQ20050215233510402/15/05 23:35:31  5-MIN KDBQ 160535Z AUTO 33016KT 8SM CLR M02/M05 A3007 940 78 -800 330/16 RMK AO2 TSNO
94908KDBQ DBQ20050215234010702/15/05 23:40:31  5-MIN KDBQ 160540Z AUTO 33016KT 8SM FEW120 M02/M06 A3007 940 75 -800 330/16 RMK AO2 TSNO
94908KDBQ DBQ20050215234511402/15/05 23:45:31  5-MIN KDBQ 160600Z AUTO 33013KT 9SM SCT020 BKN120 M02/M06 A3007 940 75 -800 330/13 RMK AO2 TSNO
94908KDBQ DBQ20050216000511402/16/05 00:05:31  5-MIN KDBQ 160605Z AUTO 33012KT 9SM BKN020 BKN120 M02/M06 A3007 940 75 -800 330/12 RMK AO2 TSNO
94908KDBQ DBQ20050216001005602/16/05 00:10:31  5-MIN KDBQ 16-800 330/12 RMK AO2 TSNO
94908KDBQ DBQ20050216003010702/16/05 00:30:31  5-MIN KDBQ 160630Z AUTO 33013KT 9SM OVC020 M02/M06 A3008 930 75 -800 330/13 RMK AO2 TSNO
94908KDBQ DBQ20050216003515102/16/05 00:35:31  5-MIN KDBQ 160635Z AUTO 33011KT 9SM OVC020 M02/M06 A3008 930 75 -800 330/11 RMK 008 930 78 -900 330/13 RMK AO2 SLP197 T10221056 TSNO
94908KDBQ DBQ20050216010010702/16/05 01:00:31  5-MIN KDBQ 160700Z AUTO 33014KT 9SM OVC020 M02/M06 A3007 940 78 -900 330/14 RMK AO2 TSNO
94908KDBQ DBQ20050216010509202/16/05 01:05:31  5-MIN KDBQ 160705Z AUTO 32014KT 10SM OVC020 M02/M06 0 320/13 RMK AO2 TSNO
94908KDBQ DBQ20050216013010802/16/05 01:30:31  5-MIN KDBQ 160730Z AUTO 32012KT 10SM SCT020 M02/M06 A3008 930 75 -900 320/12 RMK AO2 TSNO
94908KDBQ DBQ20050216013512502/16/05 01:35:31  5-MIN KDBQ 160735Z AUTO 32012KT 10SM SCT020 M02/M06 A3008 930 75 -900 330/09 RMK AO2 SLP199 T10281067 TSNO
94908KDBQ DBQ20050216020010802/16/05 02:00:31  5-MIN KDBQ 160800Z AUTO 33010KT 10SM FEW020 M03/M07 A3008 930 75 -900 330/10 RMK AO2 TSNO
94908KDBQ DBQ20050216020510002/16/05 02:05:31  5-MIN KDBQ 160805Z AUTO 33010KT 10SM SCT022 M03/M07 0 78 -900 330/07 RMK AO2 TSNO
94908KDBQ DBQ20050216023010802/16/05 02:30:31  5-MIN KDBQ 160830Z AUTO 34006KT 10SM BKN022 M03/M06 A3008 930 78 -900 330/06 RMK AO2 TSNO
94908KDBQ DBQ20050216023510802/16/05 02:35:31  5-MIN KDBQ 160835Z AUTO 33006KT 10SM OVC022 M03/M06 A3008 940 78 -900 330/06 RMK AO2 TSNO
94908KDBQ DBQ20050216024010802/16/05 02:40:31  5-MIN KDBQ 160840Z AUTO 33006KT 10SM BKN022 M03/M06 A3007 940 78 -900 330/06 RMK AO2 TSNO
94908KDBQ DBQ20050216024510802/16/05 02:45:31  5-MIN KDBQ 160845Z AUTO 33006KT 10SM BKN022 M03/M07 A3007 940 75 -900 330/06 RMK AO2 TSNO
94908KDBQ DBQ20050216025013202/16/05 02:50:31  5-MIN KDBQ 160850Z AUTO 32006KT 10SM BKN022 M03/M07 A3008 940 78 -1000 320/06 RMK AO2 SLP197 T10331067 53002 TSNO
94908KDBQ DBQ20050216025513202/16/05 02:55:31  5-MIN KDBQ 160855Z AUTO 31006KT 10SM BKN022 M03/M07 A3007 940 78 -1000 310/06 RMK AO2 SLP197 T10331067 50001 TSNO
94908KDBQ DBQ20050216030010902/16/05 03:00:31  5-MIN KDBQ 160900Z AUTO 30006KT 10SM BKN020 M03/M06 A3008 930 81 -1000 300/06 RMK AO2 TSNO
94908KDBQ DBQ20050216030510902/16/05 03:05:31  5-MIN KDBQ 160905Z AUTO 30007KT 10SM BKN020 M03/M06 A3008 930 81 -1000 300/07 RMK AO2 TSNO
94908KDBQ DBQ20050216031010902/16/05 03:10:31  5-MIN KDBQ 160910Z AUTO 31007KT 10SM SCT020 M03/M06 A3008 930 81 -1000 310/07 RMK AO2 TSNO
94908KDBQ DBQ20050216031510902/16/05 03:15:31  5-MIN KDBQ 160915Z AUTO 30006KT 10SM BKN020 M03/M06 A3008 930 81 -1000 290/06 RMK AO2 TSNO
94908KDBQ DBQ20050216032010902/16/05 03:20:31  5-MIN KDBQ 160920Z AUTO 30007KT 10SM BKN020 M03/M06 A3008 930 81 -1000 300/07 RMK AO2 TSNO
94908KDBQ DBQ20050216032510902/16/05 03:25:31  5-MIN KDBQ 160925Z AUTO 29007KT 10SM BKN020 M03/M06 A3008 930 81 -1000 290/07 RMK AO2 TSNO
94908KDBQ DBQ20050216033010902/16/05 03:30:31  5-MIN KDBQ 160930Z AUTO 32008KT 10SM SCT020 M03/M07 A3008 940 78 -1000 320/08 RMK AO2 TSNO
94908KDBQ DBQ20050216033510902/16/05 03:35:31  5-MIN KDBQ 160935Z AUTO 31009KT 10SM SCT020 M03/M07 A3008 930 78 -1000 310/09 RMK AO2 TSNO
94908KDBQ DBQ20050216034010902/16/05 03:40:31  5-MIN KDBQ 160940Z AUTO 30007KT 10SM SCT020 M04/M07 A3008 930 81 -1100 300/07 RMK AO2 TSNO
94908KDBQ DBQ20050216034510902/16/05 03:45:31  5-MIN KDBQ 160945Z AUTO 29006KT 10SM FEW020 M04/M07 A3008 930 81 -1100 290/06 RMK AO2 TSNO
94908KDBQ DBQ20050216035012302/16/05 03:50:31  5-MIN KDBQ 160950Z AUTO 29007KT 10SM CLR M04/M07 A3008 930 81 -1100 290/07 RMK AO2 SLP199 T10391067 TSNO
94908KDBQ DBQ20050216035512302/16/05 03:55:31  5-MIN KDBQ 160955Z AUTO 30010KT 10SM CLR M04/M07 A3008 930 81 -1100 300/10 RMK AO2 SLP200 T10391067 TSNO
94908KDBQ DBQ20050216040010602/16/05 04:00:31  5-MIN KDBQ 161000Z AUTO 30009KT 10SM CLR M04/M07 A3009 930 81 -1100 290/09 RMK AO2 TSNO
94908KDBQ DBQ20050216040510602/16/05 04:05:31  5-MIN KDBQ 161005Z AUTO 29008KT 10SM CLR M04/M07 A3009 920 81 -1100 290/08 RMK AO2 TSNO
94908KDBQ DBQ20050216041010602/16/05 04:10:31  5-MIN KDBQ 161010Z AUTO 28006KT 10SM CLR M04/M07 A3009 920 81 -1100 280/06 RMK AO2 TSNO
94908KDBQ DBQ20050216041510602/16/05 04:15:31  5-MIN KDBQ 161015Z AUTO 30010KT 10SM CLR M04/M07 A3009 920 81 -1100 300/10 RMK AO2 TSNO
94908KDBQ DBQ20050216042010602/16/05 04:20:31  5-MIN KDBQ 161020Z AUTO 30009KT 10SM CLR M04/M07 A3009 920 81 -1100 300/09 RMK AO2 TSNO
94908KDBQ DBQ20050216042510602/16/05 04:25:31  5-MIN KDBQ 161025Z AUTO 29008KT 10SM CLR M04/M07 A3009 930 81 -1100 290/08 RMK AO2 TSNO
94908KDBQ DBQ20050216043010602/16/05 04:30:31  5-MIN KDBQ 161030Z AUTO 29008KT 10SM CLR M04/M07 A3008 930 81 -1100 290/08 RMK AO2 TSNO
94908KDBQ DBQ20050216043510602/16/05 04:35:31  5-MIN KDBQ 161035Z AUTO 29008KT 10SM CLR M04/M07 A3008 930 81 -1100 290/08 RMK AO2 TSNO
94908KDBQ DBQ20050216044010602/16/05 04:40:31  5-MIN KDBQ 161040Z AUTO 29008KT 10SM CLR M04/M07 A3008 930 81 -1100 290/08 RMK AO2 TSNO
94908KDBQ DBQ20050216044510602/16/05 04:45:31  5-MIN KDBQ 161045Z AUTO 30009KT 10SM CLR M04/M07 A3008 930 78 -1100 300/09 RMK AO2 TSNO
94908KDBQ DBQ20050216045012302/16/05 04:50:31  5-MIN KDBQ 161050Z AUTO 31008KT 10SM CLR M04/M07 A3008 930 78 -1100 310/08 RMK AO2 SLP200 T10391072 TSNO
94908KDBQ DBQ20050216045512302/16/05 04:55:31  5-MIN KDBQ 161055Z AUTO 31008KT 10SM CLR M04/M07 A3008 930 78 -1100 310/08 RMK AO2 SLP199 T10391072 TSNO
94908KDBQ DBQ20050216050010602/16/05 05:00:31  5-MIN KDBQ 161100Z AUTO 31007KT 10SM CLR M04/M07 A3008 930 78 -1100 310/07 RMK AO2 TSNO
94908KDBQ DBQ20050216050510602/16/05 05:05:31  5-MIN KDBQ 161105Z AUTO 30009KT 10SM CLR M04/M07 A3008 930 81 -1100 300/09 RMK AO2 TSNO
94908KDBQ DBQ20050216051010602/16/05 05:10:31  5-MIN KDBQ 161110Z AUTO 30008KT 10SM CLR M04/M07 A3008 930 81 -1100 300/08 RMK AO2 TSNO
94908KDBQ DBQ20050216051510602/16/05 05:15:31  5-MIN KDBQ 161115Z AUTO 29009KT 10SM CLR M04/M07 A3008 930 81 -1100 290/09 RMK AO2 TSNO
94908KDBQ DBQ20050216052010602/16/05 05:20:31  5-MIN KDBQ 161120Z AUTO 29008KT 10SM CLR M04/M07 A3008 930 81 -1200 290/08 RMK AO2 TSNO
94908KDBQ DBQ20050216052510602/16/05 05:25:31  5-MIN KDBQ 161125Z AUTO 28009KT 10SM CLR M04/M07 A3008 930 81 -1200 280/09 RMK AO2 TSNO
94908KDBQ DBQ20050216053010602/16/05 05:30:31  5-MIN KDBQ 161130Z AUTO 28008KT 10SM CLR M04/M07 A3008 930 81 -1100 280/08 RMK AO2 TSNO
94908KDBQ DBQ20050216053510602/16/05 05:35:31  5-MIN KDBQ 161135Z AUTO 28007KT 10SM CLR M04/M07 A3008 930 84 -1100 280/07 RMK AO2 TSNO
94908KDBQ DBQ20050216054010602/16/05 05:40:31  5-MIN KDBQ 161140Z AUTO 28008KT 10SM CLR M04/M07 A3008 930 84 -1100 270/08 RMK AO2 TSNO
94908KDBQ DBQ20050216054510602/16/05 05:45:31  5-MIN KDBQ 161145Z AUTO 28007KT 10SM CLR M04/M07 A3008 930 84 -1100 280/07 RMK AO2 TSNO
94908KDBQ DBQ20050216055014102/16/05 05:50:31  5-MIN KDBQ 161150Z AUTO 28007KT 10SM CLR M04/M07 A3008 930 84 -1100 280/07 RMK AO2 SLP200 T10441067 11017 21044 50001 TSNO
94908KDBQ DBQ20050216055513102/16/05 05:55:31  5-MIN KDBQ 161155Z 28008KT 10SM CLR M04/M07 A3008 930 84 -1100 280/08 RMK AO2 SLP200 T10441067 11017 21044 51002
94908KDBQ DBQ20050216060009602/16/05 06:00:31  5-MIN KDBQ 161200Z 27007KT 10SM CLR M04/M07 A3008 930 84 -1100 270/07 RMK AO2
94908KDBQ DBQ20050216060509602/16/05 06:05:31  5-MIN KDBQ 161205Z 27008KT 10SM CLR M04/M07 A3008 930 84 -1200 270/08 RMK AO2
94908KDBQ DBQ20050216061009902/16/05 06:10:31  5-MIN KDBQ 161210Z 28006KT 10SM SCT050 M04/M07 A3008 930 84 -1200 280/06 RMK AO2
94908KDBQ DBQ20050216061510602/16/05 06:15:31  5-MIN KDBQ 161215Z 28007KT 10SM FEW040 BKN050 M04/M07 A3008 930 84 -1200 280/07 RMK AO2
94908KDBQ DBQ20050216062010602/16/05 06:20:31  5-MIN KDBQ 161220Z 28006KT 10SM FEW040 BKN050 M04/M07 A3008 930 81 -1100 280/06 RMK AO2
94908KDBQ DBQ20050216062510602/16/05 06:25:31  5-MIN KDBQ 161225Z 28007KT 10SM FEW040 BKN050 M04/M07 A3008 930 81 -1100 280/07 RMK AO2
94908KDBQ DBQ20050216063010602/16/05 06:30:31  5-MIN KDBQ 161230Z 28007KT 10SM FEW040 OVC050 M04/M06 A3008 930 85 -1100 280/07 RMK AO2
94908KDBQ DBQ20050216063510602/16/05 06:35:31  5-MIN KDBQ 161235Z 27009KT 10SM FEW040 OVC050 M04/M06 A3008 930 85 -1100 270/09 RMK AO2
94908KDBQ DBQ20050216064010502/16/05 06:40:31  5-MIN KDBQ 161240Z 27008KT 9SM FEW042 OVC050 M04/M06 A3008 930 85 -1100 270/08 RMK AO2
94908KDBQ DBQ20050216064509802/16/05 06:45:31  5-MIN KDBQ 161245Z 26008KT 9SM OVC050 M04/M06 A3008 930 85 -1100 260/08 RMK AO2
94908KDBQ DBQ20050216065011502/16/05 06:50:31  5-MIN KDBQ 161250Z 26009KT 9SM OVC050 M04/M06 A3009 930 85 -1100 260/09 RMK AO2 SLP202 T10391061
94908KDBQ DBQ20050216065512202/16/05 06:55:31  5-MIN KDBQ 161255Z 26009KT 9SM FEW024 OVC050 M04/M06 A3009 920 85 -1100 260/09 RMK AO2 SLP202 T10391061
94908KDBQ DBQ20050216070011202/16/05 07:00:31  5-MIN KDBQ 161300Z 26007KT 9SM FEW024 SCT029 OVC048 M04/M06 A3009 930 85 -1100 260/07 RMK AO2
94908KDBQ DBQ20050216070511202/16/05 07:05:31  5-MIN KDBQ 161305Z 26007KT 9SM FEW024 SCT028 OVC046 M04/M06 A3009 930 85 -1100 260/07 RMK AO2
94908KDBQ DBQ20050216071010502/16/05 07:10:31  5-MIN KDBQ 161310Z 26008KT 8SM SCT024 OVC046 M04/M06 A3008 930 85 -1100 260/08 RMK AO2
94908KDBQ DBQ20050216071510502/16/05 07:15:31  5-MIN KDBQ 161315Z 26007KT 8SM FEW024 OVC044 M04/M06 A3009 930 85 -1100 260/07 RMK AO2
94908KDBQ DBQ20050216072010502/16/05 07:20:31  5-MIN KDBQ 161320Z 26009KT 8SM FEW022 OVC044 M04/M06 A3009 920 85 -1100 260/09 RMK AO2
94908KDBQ DBQ20050216072510502/16/05 07:25:31  5-MIN KDBQ 161325Z 26009KT 8SM SCT021 OVC044 M04/M06 A3009 920 88 -1100 260/09 RMK AO2
94908KDBQ DBQ20050216073010502/16/05 07:30:31  5-MIN KDBQ 161330Z 26008KT 8SM SCT021 OVC044 M03/M06 A3009 920 85 -1000 260/08 RMK AO2
94908KDBQ DBQ20050216073512102/16/05 07:35:31  5-MIN KDBQ 161335Z 26008KT 8SM -SN SCT021 OVC044 M03/M06 A3009 920 85 -1000 260/08 RMK AO2 SNB34 P0000
94908KDBQ DBQ20050216074012102/16/05 07:40:31  5-MIN KDBQ 161340Z 25009KT 7SM -SN SCT021 OVC044 M03/M06 A3009 920 85 -1000 250/09 RMK AO2 SNB34 P0000
94908KDBQ DBQ20050216074513102/16/05 07:45:31  5-MIN KDBQ 161345Z 26009KT 5SM -SN BR FEW013 BKN021 OVC044 M03/M06 A3010 920 85 -1000 260/09 RMK AO2 SNB34 P0000
94908KDBQ DBQ20050216075014802/16/05 07:50:31  5-MIN KDBQ 161350Z 26008KT 4SM -SN BR FEW013 BKN021 OVC044 M03/M06 A3009 920 85 -1000 250/08 RMK AO2 SNB34 SLP205 P0000 T10331056
94908KDBQ DBQ20050216075514802/16/05 07:55:31  5-MIN KDBQ 161355Z 25008KT 3SM -SN BR SCT015 BKN021 OVC044 M03/M06 A3010 910 85 -1000 250/08 RMK AO2 SNB34 SLP206 P0000 T10331056
94908KDBQ DBQ20050216080012202/16/05 08:00:31  5-MIN KDBQ 161400Z 26008KT 2 1/2SM -SN BR BKN017 OVC023 M03/M06 A3010 910 85 -1000 250/08 RMK AO2 P0000
94908KDBQ DBQ20050216080512202/16/05 08:05:31  5-MIN KDBQ 161405Z 26009KT 2 1/2SM -SN BR SCT014 OVC019 M03/M05 A3010 910 88 -1000 260/09 RMK AO2 P0000
94908KDBQ DBQ20050216081011802/16/05 08:10:31  5-MIN KDBQ 161410Z 26010KT 3SM -SN BR BKN014 OVC019 M03/M05 A3010 920 88 -1000 260/10 RMK AO2 P0000
94908KDBQ DBQ20050216081511802/16/05 08:15:31  5-MIN KDBQ 161415Z 26009KT 3SM -SN BR BKN012 OVC019 M03/M05 A3009 920 88 -1000 260/09 RMK AO2 P0000
94908KDBQ DBQ20050216082011102/16/05 08:20:31  5-MIN KDBQ 161420Z 26010KT 3SM -SN BR OVC014 M03/M05 A3009 920 88 -1000 260/10 RMK AO2 P0000
94908KDBQ DBQ20050216082511002/16/05 08:25:31  5-MIN KDBQ 161425Z 27011KT 4SM -SN BR OVC014 M03/M05 A3008 930 85 -900 270/11 RMK AO2 P0000
94908KDBQ DBQ20050216083011702/16/05 08:30:31  5-MIN KDBQ 161430Z 27013KT 4SM -SN BR BKN014 OVC029 M03/M05 A3008 930 85 -900 270/13 RMK AO2 P0000
94908KDBQ DBQ20050216083512102/16/05 08:35:31  5-MIN KDBQ 161435Z 29014KT 6SM -SN BKN014 BKN024 OVC039 M03/M06 A3008 930 81 -900 290/14 RMK AO2 P0000
94908KDBQ DBQ20050216084012302/16/05 08:40:31  5-MIN KDBQ 161440Z 30016KT 8SM SCT012 SCT021 BKN028 M03/M07 A3009 920 75 -900 300/16 RMK AO2 SNE37 P0000
94908KDBQ DBQ20050216084512402/16/05 08:45:31  5-MIN KDBQ 161445Z 29016KT 10SM FEW014 SCT030 SCT040 M03/M08 A3009 920 66 -900 290/16 RMK AO2 SNE37 P0000
94908KDBQ DBQ20050216085014602/16/05 08:50:31  5-MIN KDBQ 161450Z 29018KT 10SM FEW013 SCT040 M03/M09 A3009 920 60 -900 290/18 RMK AO2 SNE37 SLP204 P0000 60000 T10281094 51002
94908KDBQ DBQ20050216085516302/16/05 08:55:31  5-MIN KDBQ 161455Z 30022G27KT 10SM FEW031 M03/M11 A3009 920 53 -900 300/22G27 RMK AO2 PK WND 30027/1454 SNE37 SLP204 P0000 60000 T10281111 50004
94908KDBQ DBQ20050216090010502/16/05 09:00:31  5-MIN KDBQ 161500Z 29020G27KT 10SM FEW023 M03/M11 A3009 920 55 -1000 290/20G27 RMK AO2
94908KDBQ DBQ20050216090512002/16/05 09:05:31  5-MIN KDBQ 161505Z 30020G30KT 10SM CLR M03/M11 A3010 920 55 -1000 290/20G30 RMK AO2 PK WND 29030/1501
94908KDBQ DBQ20050216091012002/16/05 09:10:31  5-MIN KDBQ 161510Z 30019G30KT 10SM CLR M03/M11 A3010 910 55 -1000 300/19G30 RMK AO2 PK WND 29030/1501
94908KDBQ DBQ20050216091512002/16/05 09:15:31  5-MIN KDBQ 161515Z 30019G27KT 10SM CLR M03/M11 A3010 910 57 -1000 300/19G27 RMK AO2 PK WND 29030/1501
94908KDBQ DBQ20050216092012002/16/05 09:20:31  5-MIN KDBQ 161520Z 29021G27KT 10SM CLR M03/M11 A3010 910 55 -1000 290/21G27 RMK AO2 PK WND 29030/1501
94908KDBQ DBQ20050216092512002/16/05 09:25:31  5-MIN KDBQ 161525Z 29022G25KT 10SM CLR M03/M11 A3010 910 55 -1000 290/22G25 RMK AO2 PK WND 29030/1501
94908KDBQ DBQ20050216093011402/16/05 09:30:31  5-MIN KDBQ 161530Z 30019KT 10SM CLR M03/M11 A3010 910 55 -1000 300/19 RMK AO2 PK WND 29030/1501
94908KDBQ DBQ20050216093511402/16/05 09:35:31  5-MIN KDBQ 161535Z 29021KT 10SM CLR M03/M11 A3010 920 57 -1000 290/21 RMK AO2 PK WND 29030/1501
94908KDBQ DBQ20050216094012002/16/05 09:40:31  5-MIN KDBQ 161540Z 30021G26KT 10SM CLR M03/M11 A3010 910 57 -1000 300/21G26 RMK AO2 PK WND 29030/1501
94908KDBQ DBQ20050216094512002/16/05 09:45:31  5-MIN KDBQ 161545Z 30022G27KT 10SM CLR M03/M11 A3010 920 57 -1000 300/22G27 RMK AO2 PK WND 29030/1501
94908KDBQ DBQ20050216095013702/16/05 09:50:31  5-MIN KDBQ 161550Z 30021G27KT 10SM CLR M03/M11 A3010 920 57 -1000 300/21G27 RMK AO2 PK WND 29030/1501 SLP205 T10331106
94908KDBQ DBQ20050216095513702/16/05 09:55:31  5-MIN KDBQ 161555Z 29023G30KT 10SM CLR M03/M11 A3010 920 57 -1000 280/23G30 RMK AO2 PK WND 28030/1555 SLP205 T10331106
94908KDBQ DBQ20050216100012002/16/05 10:00:31  5-MIN KDBQ 161600Z 29021G30KT 10SM CLR M03/M11 A3010 920 57 -1000 290/21G30 RMK AO2 PK WND 29026/1600
94908KDBQ DBQ20050216100512002/16/05 10:05:31  5-MIN KDBQ 161605Z 29018G26KT 10SM CLR M03/M10 A3010 920 58 -1000 290/18G26 RMK AO2 PK WND 29026/1600
94908KDBQ DBQ20050216101011402/16/05 10:10:31  5-MIN KDBQ 161610Z 30023KT 10SM CLR M03/M11 A3010 920 55 -1000 300/23 RMK AO2 PK WND 29026/1609
94908KDBQ DBQ20050216101512002/16/05 10:15:31  5-MIN KDBQ 161615Z 30022G28KT 10SM CLR M03/M11 A3010 910 57 -1000 290/22G28 RMK AO2 PK WND 29028/1613
94908KDBQ DBQ20050216102012002/16/05 10:20:31  5-MIN KDBQ 161620Z 29021G28KT 10SM CLR M03/M10 A3010 910 60 -1000 290/21G28 RMK AO2 PK WND 29028/1613
94908KDBQ DBQ20050216102512002/16/05 10:25:31  5-MIN KDBQ 161625Z 29021G26KT 10SM CLR M03/M10 A3010 910 58 -1000 290/21G26 RMK AO2 PK WND 29028/1613
94908KDBQ DBQ20050216103012002/16/05 10:30:31  5-MIN KDBQ 161630Z 29022G29KT 10SM CLR M03/M11 A3010 910 55 -1000 290/22G29 RMK AO2 PK WND 29029/1628
94908KDBQ DBQ20050216103512002/16/05 10:35:31  5-MIN KDBQ 161635Z 29024G30KT 10SM CLR M03/M11 A3011 910 55 -1000 290/24G30 RMK AO2 PK WND 28030/1635
94908KDBQ DBQ20050216104012002/16/05 10:40:31  5-MIN KDBQ 161640Z 30022G30KT 10SM CLR M03/M11 A3011 910 57 -1000 300/22G30 RMK AO2 PK WND 28030/1635
94908KDBQ DBQ20050216104512002/16/05 10:45:31  5-MIN KDBQ 161645Z 30020G28KT 10SM CLR M03/M11 A3010 910 55 -1000 300/20G28 RMK AO2 PK WND 28030/1635
94908KDBQ DBQ20050216105013702/16/05 10:50:31  5-MIN KDBQ 161650Z 29023G28KT 10SM CLR M03/M10 A3010 910 58 -1000 290/23G28 RMK AO2 PK WND 28030/1635 SLP207 T10281100
94908KDBQ DBQ20050216105513702/16/05 10:55:31  5-MIN KDBQ 161655Z 29021G27KT 10SM CLR M03/M11 A3010 910 55 -1000 290/21G27 RMK AO2 PK WND 28030/1635 SLP207 T10281106
94908KDBQ DBQ20050216110009602/16/05 11:00:31  5-MIN KDBQ 161700Z 29019KT 10SM CLR M03/M10 A3010 910 58 -1000 290/19 RMK AO2
94908KDBQ DBQ20050216110509502/16/05 11:05:31  5-MIN KDBQ 161705Z 30018KT 10SM CLR M02/M09 A3010 910 58 -900 300/18 RMK AO2
94908KDBQ DBQ20050216111009602/16/05 11:10:31  5-MIN KDBQ 161710Z 30019KT 10SM CLR M03/M10 A3010 910 58 -1000 300/19 RMK AO2
94908KDBQ DBQ20050216111509602/16/05 11:15:31  5-MIN KDBQ 161715Z 31020KT 10SM CLR M03/M10 A3010 910 58 -1000 300/20 RMK AO2
94908KDBQ DBQ20050216112009502/16/05 11:20:31  5-MIN KDBQ 161720Z 31017KT 10SM CLR M02/M09 A3010 920 58 -900 310/17 RMK AO2
94908KDBQ DBQ20050216112509502/16/05 11:25:31  5-MIN KDBQ 161725Z 29016KT 10SM CLR M02/M09 A3009 920 60 -900 290/16 RMK AO2
94908KDBQ DBQ20050216113010102/16/05 11:30:31  5-MIN KDBQ 161730Z 31017G21KT 10SM CLR M02/M09 A3009 920 58 -900 310/17G21 RMK AO2
94908KDBQ DBQ20050216113509502/16/05 11:35:31  5-MIN KDBQ 161735Z 31018KT 10SM CLR M02/M09 A3009 920 58 -900 310/18 RMK AO2
94908KDBQ DBQ20050216114009802/16/05 11:40:31  5-MIN KDBQ 161740Z 30016KT 10SM FEW033 M02/M09 A3009 920 60 -900 300/16 RMK AO2
94908KDBQ DBQ20050216114510402/16/05 11:45:31  5-MIN KDBQ 161745Z 30016G23KT 10SM FEW031 M02/M09 A3009 920 60 -900 300/16G23 RMK AO2
94908KDBQ DBQ20050216115014202/16/05 11:50:31  5-MIN KDBQ 161750Z 29019G23KT 10SM CLR M02/M09 A3009 920 60 -900 290/19G23 RMK AO2 SLP202 60000 T10221089 11022 21044 50004
94908KDBQ DBQ20050216115514202/16/05 11:55:31  5-MIN KDBQ 161755Z 30021G25KT 10SM CLR M02/M09 A3008 930 58 -900 300/21G25 RMK AO2 SLP201 60000 T10221094 11022 21044 58003
94908KDBQ DBQ20050216120009502/16/05 12:00:31  5-MIN KDBQ 161800Z 29018KT 10SM CLR M02/M09 A3008 930 58 -900 290/18 RMK AO2
94908KDBQ DBQ20050216120509502/16/05 12:05:31  5-MIN KDBQ 161805Z 30020KT 10SM CLR M02/M09 A3008 930 58 -900 300/20 RMK AO2
94908KDBQ DBQ20050216121010102/16/05 12:10:31  5-MIN KDBQ 161810Z 29017G23KT 10SM CLR M02/M09 A3008 930 58 -800 290/17G23 RMK AO2
94908KDBQ DBQ20050216121509502/16/05 12:15:31  5-MIN KDBQ 161815Z 30015KT 10SM CLR M02/M09 A3008 930 58 -900 300/15 RMK AO2
94908KDBQ DBQ20050216122009502/16/05 12:20:31  5-MIN KDBQ 161820Z 30017KT 10SM CLR M02/M08 A3008 930 60 -800 300/17 RMK AO2
94908KDBQ DBQ20050216122510102/16/05 12:25:31  5-MIN KDBQ 161825Z 30020G24KT 10SM CLR M02/M09 A3008 930 60 -900 300/20G24 RMK AO2
94908KDBQ DBQ20050216123010102/16/05 12:30:31  5-MIN KDBQ 161830Z 30016G25KT 10SM CLR M02/M09 A3008 930 58 -900 300/16G25 RMK AO2
94908KDBQ DBQ20050216123510102/16/05 12:35:31  5-MIN KDBQ 161835Z 30019G25KT 10SM CLR M02/M09 A3008 930 58 -800 300/19G25 RMK AO2
94908KDBQ DBQ20050216124009502/16/05 12:40:31  5-MIN KDBQ 161840Z 30021KT 10SM CLR M02/M09 A3008 930 55 -800 290/21 RMK AO2
94908KDBQ DBQ20050216124511902/16/05 12:45:31  5-MIN KDBQ 161845Z 29022G26KT 10SM CLR M02/M09 A3009 930 58 -900 290/22G26 RMK AO2 PK WND 29026/1844
94908KDBQ DBQ20050216125013602/16/05 12:50:31  5-MIN KDBQ 161850Z 28019G26KT 10SM CLR M02/M09 A3009 930 60 -900 280/19G26 RMK AO2 PK WND 29026/1844 SLP202 T10221089
94908KDBQ DBQ20050216125513602/16/05 12:55:31  5-MIN KDBQ 161855Z 30020G24KT 10SM CLR M02/M10 A3008 930 55 -900 300/20G24 RMK AO2 PK WND 29026/1844 SLP201 T10221100
94908KDBQ DBQ20050216130010102/16/05 13:00:31  5-MIN KDBQ 161900Z 31019G25KT 10SM CLR M02/M09 A3008 930 55 -800 310/19G25 RMK AO2
94908KDBQ DBQ20050216130511902/16/05 13:05:31  5-MIN KDBQ 161905Z 31020G26KT 10SM CLR M02/M10 A3008 930 53 -800 310/20G26 RMK AO2 PK WND 30026/1904
94908KDBQ DBQ20050216131011902/16/05 13:10:31  5-MIN KDBQ 161910Z 30017G26KT 10SM CLR M02/M10 A3009 930 55 -900 300/17G26 RMK AO2 PK WND 30026/1904
94908KDBQ DBQ20050216131511302/16/05 13:15:31  5-MIN KDBQ 161915Z 30017KT 10SM CLR M02/M09 A3008 930 58 -900 300/17 RMK AO2 PK WND 30026/1904
94908KDBQ DBQ20050216132011902/16/05 13:20:31  5-MIN KDBQ 161920Z 29022G27KT 10SM CLR M02/M09 A3008 930 55 -800 290/22G27 RMK AO2 PK WND 29027/1920
94908KDBQ DBQ20050216132511902/16/05 13:25:31  5-MIN KDBQ 161925Z 29021G27KT 10SM CLR M02/M10 A3008 930 53 -800 290/21G27 RMK AO2 PK WND 29027/1920
94908KDBQ DBQ20050216133011902/16/05 13:30:31  5-MIN KDBQ 161930Z 30021G25KT 10SM CLR M02/M09 A3008 930 55 -800 300/21G25 RMK AO2 PK WND 29027/1920
94908KDBQ DBQ20050216133511902/16/05 13:35:31  5-MIN KDBQ 161935Z 30016G25KT 10SM CLR M02/M09 A3008 930 55 -800 300/16G25 RMK AO2 PK WND 29027/1920
94908KDBQ DBQ20050216134011602/16/05 13:40:31  5-MIN KDBQ 161940Z 30015KT 10SM FEW037 M02/M09 A3008 930 58 -800 300/15 RMK AO2 PK WND 29027/1920
94908KDBQ DBQ20050216134512202/16/05 13:45:31  5-MIN KDBQ 161945Z 28017G20KT 10SM SCT035 M02/M09 A3008 930 58 -800 280/17G20 RMK AO2 PK WND 29027/1920
94908KDBQ DBQ20050216135013902/16/05 13:50:31  5-MIN KDBQ 161950Z 27019G22KT 10SM FEW035 M02/M09 A3008 930 58 -800 270/19G22 RMK AO2 PK WND 29027/1920 SLP201 T10171089
94908KDBQ DBQ20050216135513902/16/05 13:55:31  5-MIN KDBQ 161955Z 30017G27KT 10SM FEW035 M02/M09 A3008 930 58 -800 300/17G27 RMK AO2 PK WND 27027/1953 SLP201 T10171089
94908KDBQ DBQ20050216140010402/16/05 14:00:31  5-MIN KDBQ 162000Z 28019G27KT 10SM FEW035 M02/M08 A3008 930 60 -800 280/19G27 RMK AO2
94908KDBQ DBQ20050216140509802/16/05 14:05:31  5-MIN KDBQ 162005Z 29017KT 10SM FEW035 M02/M09 A3008 930 60 -900 290/17 RMK AO2
94908KDBQ DBQ20050216141009802/16/05 14:10:31  5-MIN KDBQ 162010Z 29015KT 10SM SCT035 M02/M09 A3008 930 58 -800 290/15 RMK AO2
94908KDBQ DBQ20050216141509802/16/05 14:15:31  5-MIN KDBQ 162015Z 28017KT 10SM SCT035 M02/M09 A3008 930 58 -800 280/17 RMK AO2
94908KDBQ DBQ20050216142009802/16/05 14:20:31  5-MIN KDBQ 162020Z 27019KT 10SM SCT037 M02/M09 A3008 930 58 -800 270/19 RMK AO2
94908KDBQ DBQ20050216142510402/16/05 14:25:31  5-MIN KDBQ 162025Z 28017G21KT 10SM SCT037 M02/M09 A3008 930 58 -800 280/17G21 RMK AO2
94908KDBQ DBQ20050216143010402/16/05 14:30:31  5-MIN KDBQ 162030Z 30015G25KT 10SM BKN037 M02/M09 A3008 930 55 -800 300/15G25 RMK AO2
94908KDBQ DBQ20050216143510402/16/05 14:35:31  5-MIN KDBQ 162035Z 28019G23KT 10SM SCT037 M02/M09 A3008 930 58 -800 280/19G23 RMK AO2
94908KDBQ DBQ20050216144010402/16/05 14:40:31  5-MIN KDBQ 162040Z 28016G23KT 10SM SCT037 M02/M09 A3008 930 55 -800 280/16G23 RMK AO2
94908KDBQ DBQ20050216144510402/16/05 14:45:31  5-MIN KDBQ 162045Z 29016G20KT 10SM FEW037 M01/M09 A3008 930 55 -700 290/16G20 RMK AO2
94908KDBQ DBQ20050216145012702/16/05 14:50:31  5-MIN KDBQ 162050Z 29015G20KT 10SM FEW039 M02/M09 A3008 930 58 -800 280/15G20 RMK AO2 SLP200 T10171089 58003
94908KDBQ DBQ20050216145512702/16/05 14:55:31  5-MIN KDBQ 162055Z 29018G23KT 10SM FEW039 M01/M09 A3008 930 55 -700 290/18G23 RMK AO2 SLP200 T10111089 58001
94908KDBQ DBQ20050216150010402/16/05 15:00:31  5-MIN KDBQ 162100Z 29018G24KT 10SM FEW039 M02/M09 A3008 930 55 -800 280/18G24 RMK AO2
94908KDBQ DBQ20050216150510402/16/05 15:05:31  5-MIN KDBQ 162105Z 30017G24KT 10SM FEW039 M01/M09 A3009 930 53 -700 300/17G24 RMK AO2
94908KDBQ DBQ20050216151010402/16/05 15:10:31  5-MIN KDBQ 162110Z 30019G24KT 10SM FEW039 M01/M09 A3008 930 55 -700 300/19G24 RMK AO2
94908KDBQ DBQ20050216151511902/16/05 15:15:31  5-MIN KDBQ 162115Z 30020G26KT 10SM CLR M01/M09 A3009 930 53 -700 300/20G26 RMK AO2 PK WND 29026/2115
94908KDBQ DBQ20050216152011902/16/05 15:20:31  5-MIN KDBQ 162120Z 30017G26KT 10SM CLR M01/M09 A3009 920 53 -700 300/17G26 RMK AO2 PK WND 29026/2116
94908KDBQ DBQ20050216152511902/16/05 15:25:31  5-MIN KDBQ 162125Z 30019G26KT 10SM CLR M02/M09 A3009 920 58 -800 300/19G26 RMK AO2 PK WND 29026/2116
94908KDBQ DBQ20050216153012202/16/05 15:30:31  5-MIN KDBQ 162130Z 28016G23KT 10SM FEW041 M01/M09 A3009 920 55 -700 280/16G23 RMK AO2 PK WND 29026/2116
94908KDBQ DBQ20050216153512202/16/05 15:35:31  5-MIN KDBQ 162135Z 29022G30KT 10SM FEW041 M01/M09 A3009 920 53 -700 290/22G30 RMK AO2 PK WND 29030/2134
94908KDBQ DBQ20050216154011902/16/05 15:40:31  5-MIN KDBQ 162140Z 30023G30KT 10SM CLR M02/M10 A3009 920 53 -800 300/23G30 RMK AO2 PK WND 29030/2134
94908KDBQ DBQ20050216154511902/16/05 15:45:31  5-MIN KDBQ 162145Z 29020G25KT 10SM CLR M01/M09 A3009 920 53 -700 290/20G25 RMK AO2 PK WND 29030/2134
94908KDBQ DBQ20050216155013602/16/05 15:50:31  5-MIN KDBQ 162150Z 29017G25KT 10SM CLR M02/M09 A3009 920 55 -800 290/17G25 RMK AO2 PK WND 29030/2134 SLP204 T10171094
94908KDBQ DBQ20050216155513602/16/05 15:55:31  5-MIN KDBQ 162155Z 30022G27KT 10SM CLR M02/M10 A3009 920 53 -800 300/22G27 RMK AO2 PK WND 29030/2134 SLP205 T10171100
94908KDBQ DBQ20050216160010402/16/05 16:00:31  5-MIN KDBQ 162200Z 29019G27KT 10SM FEW045 M02/M10 A3010 920 53 -800 290/19G27 RMK AO2
94908KDBQ DBQ20050216160512202/16/05 16:05:31  5-MIN KDBQ 162205Z 28020G28KT 10SM SCT043 M02/M09 A3010 920 55 -800 280/20G28 RMK AO2 PK WND 29028/2204
94908KDBQ DBQ20050216161012202/16/05 16:10:31  5-MIN KDBQ 162210Z 29021G28KT 10SM SCT045 M02/M09 A3010 920 55 -800 280/21G28 RMK AO2 PK WND 29028/2204
94908KDBQ DBQ20050216161512202/16/05 16:15:31  5-MIN KDBQ 162215Z 29018G25KT 10SM BKN045 M02/M10 A3009 920 53 -800 290/18G25 RMK AO2 PK WND 29028/2204
94908KDBQ DBQ20050216162012202/16/05 16:20:31  5-MIN KDBQ 162220Z 29018G25KT 10SM BKN047 M02/M09 A3009 920 55 -800 290/18G25 RMK AO2 PK WND 29028/2204
94908KDBQ DBQ20050216162512202/16/05 16:25:31  5-MIN KDBQ 162225Z 30015G22KT 10SM OVC047 M02/M09 A3010 920 55 -800 290/15G22 RMK AO2 PK WND 29028/2204
94908KDBQ DBQ20050216163012202/16/05 16:30:31  5-MIN KDBQ 162230Z 30020G27KT 10SM OVC047 M02/M09 A3010 910 55 -800 300/20G27 RMK AO2 PK WND 29028/2204
94908KDBQ DBQ20050216163512202/16/05 16:35:31  5-MIN KDBQ 162235Z 29020G27KT 10SM OVC047 M02/M09 A3010 910 55 -800 290/20G27 RMK AO2 PK WND 29028/2204
94908KDBQ DBQ20050216164012202/16/05 16:40:31  5-MIN KDBQ 162240Z 29017G24KT 10SM OVC047 M02/M09 A3010 910 55 -800 290/17G24 RMK AO2 PK WND 29028/2204
94908KDBQ DBQ20050216164512202/16/05 16:45:31  5-MIN KDBQ 162245Z 30015G24KT 10SM OVC049 M02/M09 A3010 910 55 -800 300/15G24 RMK AO2 PK WND 29028/2204
94908KDBQ DBQ20050216165013902/16/05 16:50:31  5-MIN KDBQ 162250Z 31015G22KT 10SM OVC049 M02/M09 A3010 910 58 -900 300/15G22 RMK AO2 PK WND 29028/2204 SLP209 T10221094
94908KDBQ DBQ20050216165513902/16/05 16:55:31  5-MIN KDBQ 162255Z 30019G24KT 10SM OVC049 M02/M09 A3010 910 60 -900 300/19G24 RMK AO2 PK WND 29028/2204 SLP209 T10221089
94908KDBQ DBQ20050216170010402/16/05 17:00:31  5-MIN KDBQ 162300Z 30020G24KT 10SM OVC047 M02/M09 A3010 910 58 -900 300/20G24 RMK AO2
94908KDBQ DBQ20050216170509802/16/05 17:05:31  5-MIN KDBQ 162305Z 30017KT 10SM OVC047 M02/M09 A3011 910 60 -900 300/17 RMK AO2
94908KDBQ DBQ20050216171010402/16/05 17:10:31  5-MIN KDBQ 162310Z 29016G22KT 10SM OVC047 M02/M09 A3011 910 60 -900 290/16G22 RMK AO2
94908KDBQ DBQ20050216171510402/16/05 17:15:31  5-MIN KDBQ 162315Z 30016G22KT 10SM OVC047 M02/M09 A3011 910 60 -900 300/16G22 RMK AO2
94908KDBQ DBQ20050216172010402/16/05 17:20:31  5-MIN KDBQ 162320Z 30012G22KT 10SM OVC047 M02/M08 A3010 910 63 -900 300/12G22 RMK AO2
94908KDBQ DBQ20050216172510502/16/05 17:25:31  5-MIN KDBQ 162325Z 31015KT 10SM BKN043 OVC050 M02/M09 A3010 910 60 -900 300/15 RMK AO2
94908KDBQ DBQ20050216173010502/16/05 17:30:31  5-MIN KDBQ 162330Z 31013KT 10SM BKN043 OVC050 M02/M09 A3010 910 60 -900 300/13 RMK AO2
94908KDBQ DBQ20050216173510602/16/05 17:35:31  5-MIN KDBQ 162335Z 30012KT 10SM SCT039 BKN050 M03/M09 A3010 910 63 -1000 300/12 RMK AO2
94908KDBQ DBQ20050216174010602/16/05 17:40:31  5-MIN KDBQ 162340Z 30011KT 10SM SCT039 BKN048 M03/M09 A3010 910 63 -1000 300/11 RMK AO2
94908KDBQ DBQ20050216174510602/16/05 17:45:31  5-MIN KDBQ 162345Z 30010KT 10SM SCT039 BKN048 M03/M08 A3010 910 66 -1000 300/10 RMK AO2
94908KDBQ DBQ20050216175014102/16/05 17:50:31  5-MIN KDBQ 162350Z 30009KT 10SM SCT039 BKN048 M03/M08 A3010 910 66 -1000 290/09 RMK AO2 SLP207 T10281083 11011 21028 58001
94908KDBQ DBQ20050216175513402/16/05 17:55:31  5-MIN KDBQ 162355Z 30010KT 10SM SCT039 M03/M08 A3010 910 66 -1000 300/10 RMK AO2 SLP207 T10281083 11011 21028 50006
94908KDBQ DBQ20050216180009902/16/05 18:00:31  5-MIN KDBQ 170000Z 29011KT 10SM FEW039 M03/M08 A3010 910 66 -1000 290/11 RMK AO2
94908KDBQ DBQ20050216180509902/16/05 18:05:31  5-MIN KDBQ 170005Z 30010KT 10SM FEW039 M03/M08 A3010 910 66 -1000 290/10 RMK AO2
94908KDBQ DBQ20050216181009902/16/05 18:10:31  5-MIN KDBQ 170010Z 29010KT 10SM FEW039 M03/M08 A3010 910 68 -1000 290/10 RMK AO2
94908KDBQ DBQ20050216181509902/16/05 18:15:31  5-MIN KDBQ 170015Z 28009KT 10SM FEW039 M03/M08 A3010 910 66 -1000 280/09 RMK AO2
94908KDBQ DBQ20050216182009902/16/05 18:20:31  5-MIN KDBQ 170020Z 29010KT 10SM FEW041 M03/M08 A3010 910 66 -1000 290/10 RMK AO2
94908KDBQ DBQ20050216182510602/16/05 18:25:31  5-MIN KDBQ 170025Z 29008KT 10SM FEW034 SCT043 M03/M08 A3010 910 66 -1000 290/08 RMK AO2
94908KDBQ DBQ20050216183010602/16/05 18:30:31  5-MIN KDBQ 170030Z 28007KT 10SM FEW034 BKN041 M03/M08 A3010 910 66 -1000 280/07 RMK AO2
94908KDBQ DBQ20050216183509902/16/05 18:35:31  5-MIN KDBQ 170035Z 29007KT 10SM BKN039 M03/M08 A3010 910 68 -1000 280/07 RMK AO2
94908KDBQ DBQ20050216184009902/16/05 18:40:31  5-MIN KDBQ 170040Z 28008KT 10SM BKN039 M03/M08 A3010 920 68 -1000 280/08 RMK AO2
94908KDBQ DBQ20050216184510602/16/05 18:45:31  5-MIN KDBQ 170045Z 28007KT 10SM BKN039 OVC055 M03/M08 A3009 920 68 -1000 280/07 RMK AO2
94908KDBQ DBQ20050216185012302/16/05 18:50:31  5-MIN KDBQ 170050Z 28007KT 10SM BKN037 OVC055 M03/M08 A3010 920 68 -1000 280/07 RMK AO2 SLP206 T10281078
94908KDBQ DBQ20050216185512302/16/05 18:55:31  5-MIN KDBQ 170055Z 28008KT 10SM BKN039 OVC060 M03/M08 A3009 920 68 -1000 280/08 RMK AO2 SLP206 T10281078
94908KDBQ DBQ20050216190010502/16/05 19:00:31  5-MIN KDBQ 170100Z 29008KT 10SM SCT037 OVC060 M03/M08 A3009 920 68 -900 290/08 RMK AO2
94908KDBQ DBQ20050216190510602/16/05 19:05:31  5-MIN KDBQ 170105Z 28008KT 10SM SCT037 OVC060 M03/M08 A3009 920 68 -1000 280/08 RMK AO2
94908KDBQ DBQ20050216191010602/16/05 19:10:31  5-MIN KDBQ 170110Z 28008KT 10SM FEW037 OVC060 M03/M08 A3009 920 68 -1000 280/08 RMK AO2
94908KDBQ DBQ20050216191510502/16/05 19:15:31  5-MIN KDBQ 170115Z 28007KT 10SM FEW039 OVC060 M03/M08 A3009 920 68 -900 280/07 RMK AO2
94908KDBQ DBQ20050216192009802/16/05 19:20:31  5-MIN KDBQ 170120Z 28008KT 10SM OVC060 M03/M07 A3009 920 71 -900 280/08 RMK AO2
94908KDBQ DBQ20050216192509802/16/05 19:25:31  5-MIN KDBQ 170125Z 27006KT 10SM OVC060 M03/M07 A3009 920 71 -900 270/06 RMK AO2
94908KDBQ DBQ20050216193009802/16/05 19:30:31  5-MIN KDBQ 170130Z 26007KT 10SM OVC060 M03/M07 A3008 930 71 -900 260/07 RMK AO2
94908KDBQ DBQ20050216193515502/16/05 19:35:31  5-MIN02/16/05 19:50:31  5-MIN KDBQ 170150Z AUTO 27006KT 10SMSCT037 BKN060M03/M07 A3009 930 74 -1000 270/06 RMK AO2 SLP203 T10331072 TSNO
94908KDBQ DBQ20050216195506902/16/05 19:55:31  5-MIN KDBQ 170155Z AUTO 27008KT 10SM SCT037 OVC060
94908KDBQ DBQ20050216202016302/16/05 20:20:31  5-MIN KDBQ 170220Z AUTO 28011KT 6SM -SN BKN031 BKN038 OVC060 M02/M06 A3009 920 OVC060 M03/M06 A3010 910 81 -1000 300/11 RMK AO2 SNB13 P0000 TSNO
94908KDBQ DBQ20050216204013802/16/05 20:40:31  5-MIN KDBQ 170240Z AUTO 33013KT 5SM -SN SCT018 BKN027 OVC060 M03/M06 A3010 910 81 -1000 330/13 RMK AO2 SNB13 P0000 TSNO
94908KDBQ DBQ20050216204508202/16/05 20:45:31  5-MIN KDBQ 170245Z AUTO 33011KT 5SM -SN FEW016 BKN023 OVC055 MO
94908KDBQ DBQ20050216211014202/16/05 21:10:31  5-MIN KDBQ 170310Z AUTO 32014KT 10SM OVC055 M03/M08 A3010 920 71 -1000 320/14 RMK AO2 TSNO 02/16/05 21:15:38 0 RMK AO2 TSNO
94908KDBQ DBQ20050216213510902/16/05 21:35:31  5-MIN KDBQ 170335Z AUTO 31013KT 10SM OVC055 M03/M08 A3010 910 71 -1000 310/13 RMK AO2 TSNO
94908KDBQ DBQ20050216214010902/16/05 21:40:31  5-MIN KDBQ 170340Z AUTO 32012KT 10SM OVC055 M03/M08 A3010 910 68 -1000 310/12 RMK AO2 TSNO
94908KDBQ DBQ20050216220012302/16/05 22:00:31  5-MIN KDBQ 170400Z AUTO 31012KT 10SM FEW029 SCT035 BKN055 M04/M08 A3010 910 71 -1100 310/12 RMK AO2 TSNO
94908KDBQ DBQ20050216220511402/16/05 22:05:31  5-MIN KDBQ 170405Z AUTO 31013G20KT 10SM FEW029 SCT055 M04/M08 A3010 910 71 -1100 310/13G20 RMKO
94908KDBQ DBQ20050216223020602/16/05 22:30:31  5-MIN KDBQ 170430Z AUTO 31013KT 10SM CLR M04/M09 A3010 910 71 -1200 310/13 RMK AO2 TSNO 0450Z AUTO 30016G20KT 10SM CLR M05/M09 U A3010 910 71 -1200 290/16G20 RMK AO2 SLP210 T10501094 TSNO
94908KDBQ DBQ20050216225513802/16/05 22:55:31  5-MIN KDBQ 170455Z AUTO 30018G24KT 10SM CLR M05/M11 A3010 910 65 -1200 300/18G24 RMK AO2 SLP210 T10501106 TSNO 02/16/05
94908KDBQ DBQ20050216232010602/16/05 23:20:31  5-MIN KDBQ 170520Z AUTO 30014KT 10SM CLR M06/M11 A3011 910 65 -1300 300/14 RMK AO2 TSNO
94908KDBQ DBQ20050216232513102/16/05 23:25:31  5-MIN KDBQ 170525Z AUTO 30014KT 10SM CLR M06/M11 A3011 910 65 -1300 290/14 RMK AO2 TSNO O2/16/05 23:30:3AO2 TSNO
94908KDBQ DBQ20050216235015702/16/05 23:50:31  5-MIN KDBQ 170550Z AUTO 30019KT 10SM CLR M07/M13 A3011 900 59 -1500 300/19 RMK AO2 SLP213 60000 T10671133 11022 21067 410111067 55001 TSNO
94908KDBQ DBQ20050216235508002/16/05 23:55:31  5-MIN KDBQ 170555Z AUTO 30017KT 10SM CLR M07/M13 A30102/17/05
94908KDBQ DBQ20050217002010602/17/05 00:20:31  5-MIN KDBQ 170620Z AUTO 31017KT 10SM CLR M07/M13 A3011 900 62 -1500 310/17 RMK AO2 TSNO
94908KDBQ DBQ20050217002503202/17/05 00:25:31  5-MINAO2 TSNO
94908KDBQ DBQ20050217004510602/17/05 00:45:31  5-MIN KDBQ 170645Z AUTO 30018KT 10SM CLR M08/M14 A3012 900 62 -1600 300/18 RMK AO2 TSNO
94908KDBQ DBQ20050217005012302/17/05 00:50:31  5-MIN KDBQ 170650Z AUTO 30017KT 10SM CLR M08/M14 A3012 900 62 -1600 300/17 RMK AO2 SLP215 T10781139 TSNO
94908KDBQ DBQ20050217005509902/17/05 00:55:31  5-MIN KDBQ 170655Z AUTO 32018KT 10SM CLR M08/M14 A3012 AO2 SLP215 T10831139 TSNO
94908KDBQ DBQ20050217010010602/17/05 01:00:31  5-MIN KDBQ 170700Z AUTO 32019KT 10SM CLR M08/M14 A3012 900 62 -1700 320/19 RMK AO2 TSNO
94908KDBQ DBQ20050217010513902/17/05 01:05:31  5-MIN KDBQ 170705Z AUTO 32020KT 10SM CLR M08/M14 A3012 900 62 -1700 310/20 RMK AO2 TSNO 900 67 -1800 310/14 RMK AO2 TSNO
94908KDBQ DBQ20050217013011202/17/05 01:30:31  5-MIN KDBQ 170730Z AUTO 32010G19KT 10SM CLR M09/M14 A3012 890 67 -1800 310/10G19 RMK AO2 TSNO
94908KDBQ DBQ20050217013509002/17/05 01:35:31  5-MIN KDBQ 170735Z AUTO 31017KT 10SM CLR M09/M14 A3012 890 67 -1800 310
94908KDBQ DBQ20050217020013402/17/05 02:00:31  5-MIN KDBQ 170800Z AUTO 31013KT 10SM CLR M09/M14 A3013 890 70 -1900 310/13 RMK AO2 TSNO  AO2 PK WND 29027/0817 TSNO
94908KDBQ DBQ20050217022513002/17/05 02:25:31  5-MIN KDBQ 170825Z AUTO 31012G27KT 10SM CLR M09/M15 A3013 880 64 -1900 310/12G27 RMK AO2 PK WND 29027/0817 TSNO
94908KDBQ DBQ20050217023013902/17/05 02:30:31  5-MIN KDBQ 170830Z AUTO 32014G21KT 10SM CLR M09/M15 A3013 880 64 -1900 320/14G21 RMK AO2 PK WND 29027/0817 TSNO SNO17/05
94908KDBQ DBQ20050217025515302/17/05 02:55:31  5-MIN KDBQ 170855Z AUTO 31016G20KT 10SM CLR M09/M16 A3013 880 61 -1900 310/16G20 RMK AO2 PK WND 29027/0817 SLP221 T10941156 53007 TSNO
94908KDBQ DBQ20050217030011302/17/05 03:00:31  5-MIN KDBQ 170900Z AUTO 31016G23KT 10SM CLR M09/M16 A3013 88O0 61 -1900 310/17G22 RMK AO2 TSNO
94908KDBQ DBQ20050217032511202/17/05 03:25:31  5-MIN KDBQ 170925Z AUTO 31018G21KT 10SM CLR M09/M16 A3014 880 61 -1900 310/18G21 RMK AO2 TSNO
94908KDBQ DBQ20050217033012302/17/05 03:30:31  5-MIN KDBQ 170930Z AUTO 32017KT 10SM CLR M10/M16 A3014 870 67 -1900 310/15 RMK AO2 SLP225 T11001150 TSNO
94908KDBQ DBQ20050217035512302/17/05 03:55:31  5-MIN KDBQ 170955Z AUTO 32014KT 10SM CLR M10/M15 A3014 870 67 -1900 320/14 RMK AO2 SLP225 T11001150 TSNO
94908KDBQ DBQ20050217040009702/17/05 04:00:31  5-MIN KDBQ 171000Z AUTO 31012KT 10SM CLR M10/ 870 64 -1900 310/12 RMK AO2 TSNO
94908KDBQ DBQ20050217042510602/17/05 04:25:31  5-MIN KDBQ 171025Z AUTO 31011KT 10SM CLR M10/M16 A3015 870 64 -1900 310/11 RMK AO2 TSNO
94908KDBQ DBQ20050217043015702/17/05 04:30:31  5-MIN KDBQ 171030Z AUTO 32013KT 10SM CLR M10/M16 A3015 870 64 -1900 320/13 RMK M16 A3015 860 61 -2000 320/13 RMK AO2 SLP229 T11001161 TSNO
94908KDBQ DBQ20050217045512302/17/05 04:55:31  5-MIN KDBQ 171055Z AUTO 32013KT 10SM CLR M10/M16 A3016 860 61 -2000 320/13 RMK AO2 SLP230 T11001161 TSNO
94908KDBQ DBQ20050217050013202/17/05 05:00:31  5-MIN KDBQ 171100Z AUTO 320126  KDBQ 171120Z AUTO 31011KT 10SM CLR M11/M16 A3016 860 64 -2000 310/11 RMK AO2 TSNO
94908KDBQ DBQ20050217052510602/17/05 05:25:31  5-MIN KDBQ 171125Z AUTO 31009KT 10SM CLR M11/M16 A3016 860 64 -2000 310/09 RMK AO2 TSNO
94908KDBQ DBQ20050217053016402/17/05 05:30:31  5-MIN KDBQ 171130Z AUTO 32010 KDBQ 171150Z AUTO 31008KT 10SMCLR M11/M16 A3016 860 64 -2000 310/08 RMK AO2 SLP231 T11061161 11067 21106 53007 TSNO
94908KDBQ DBQ20050217055512902/17/05 05:55:31  5-MIN KDBQ 171155Z 31008KT 10SM CLR M11/M16 A3016 860 64 -2000 310/08 RMK AO2 SLP232 T11061161 1 10/08 RMK AO2
94908KDBQ DBQ20050217062009602/17/05 06:20:31  5-MIN KDBQ 171220Z 30008KT 10SM CLR M11/M16 A3017 850 64 -2000 300/08 RMK AO2
94908KDBQ DBQ20050217062509602/17/05 06:25:31  5-MIN KDBQ 171225Z 31009KT 10SM CLR M11/M16 A3017 850 64 -2000 310/09 RMK AO2
94908KDBQ DBQ20050217063008102/17/05 06:30:31  5-MIN KDBQ 17SM CLR M11/M16 A3017 850 67  -2000 290/07 RMK AO2
94908KDBQ DBQ20050217064009602/17/05 06:40:31  5-MIN KDBQ 171240Z 30008KT 10SM CLR M11/M16 A3017 840 64 -2000 300/08 RMK AO2
94908KDBQ DBQ20050217064515302/17/05 06:45:31  5-MIN KDBQ 171245Z 29007KT 10SM CLR M11/M16 A3017 850 67 -2000 2K AO21305Z 28006KT 10SM CLR M11/M16 A3017 850 67  -2000 280/06 RMK AO2
94908KDBQ DBQ20050217071009602/17/05 07:10:31  5-MIN KDBQ 171310Z 28007KT 10SM CLR M11/M16 A3018 840 67 -2100 280/07 RMK AO2
94908KDBQ DBQ20050217071508002/17/05 07:15:31  5-MIN KDBQ 171315Z 27006KT 10SM CLR M11/M15 A3018 84002/17/05
94908KDBQ DBQ20050217075511402/17/05 07:55:31  5-MIN KDBQ 171355Z 27008KT 10SM CLR M10/M14 A3019 830 70  -2000 270/08 RMK AO2 SLP242 T11001144
94908KDBQ DBQ20050217080018602/17/05 08:00:31  5-MIN KDBQ 171400Z 27009KT 10SM CLR M09/M14 A3019 830 70 -1900 260/09 RMK AO2 02/17/05 08:05:3 KDBQ 171425Z 27011KT 10SM CLR M09/M13 A3020 820 74  -1900 270/11 RMK AO2
94908KDBQ DBQ20050217083009602/17/05 08:30:31  5-MIN KDBQ 171430Z 27012KT 10SM CLR M08/M13 A3020 820 70 -1800 270/12 RMK AO2
94908KDBQ DBQ20050217083514002/17/05 08:35:31  5-MIN KDBQ 171435Z 28010KT 10SM CLR M08/M13 A 67 SM CLR M08/M13 A3020 820 67  -1700 280/11 RMK AO2 SLP243 T10781128 51012
94908KDBQ DBQ20050217090009602/17/05 09:00:31  5-MIN KDBQ 171500Z 28013KT 10SM CLR M08/M13 A3020 820 67 -1700 280/13 RMK AO2
94908KDBQ DBQ20050217090514402/17/05 09:05:31  5-MIN KDBQ 171505Z 28012KT 10SM CLR M07/M13 A 65  KDBQ 171525Z 31011KT 10SM SCT029 M07/M13 A3020 820  62 -1600 310/11 RMK AO2
94908KDBQ DBQ20050217093009902/17/05 09:30:31  5-MIN KDBQ 171530Z 29013KT 10SM FEW029 M07/M13 A3020 820 62 -1600 290/13 RMK AO2
94908KDBQ DBQ20050217093506102/17/05 09:35:31  5-MIN KDBQ 171535Z 29013KT 10SM FEW03820 2
94908KDBQ DBQ20050217095512202/17/05 09:55:31  5-MIN KDBQ 171555Z 28014G20KT 10SM BKN037 M06/M12 A3019 830 62 -1500 280/14G20 RMK AO2 SLP241 T10611122
94908KDBQ DBQ20050217100011102/17/05 10:00:31  5-MIN KDBQ 171600Z 28014KT 10SM BKN037 M06/M12 A3019 830 62 -1500 280/14 RMK AO2 02/17/05830
94908KDBQ DBQ20050217103010002/17/05 10:30:31  5-MIN KDBQ 171630Z 29017KT 10SM FEW033 M05/M11 A3018 840  62 -1300 290/17 RMK AO2
94908KDBQ DBQ20050217103504302/17/05 10:35:31  5-MIN KDBQ 171635Z 29840
94908KDBQ DBQ20050217104009902/17/05 10:40:31  5-MIN KDBQ 171640Z 30017KT 10SM FEW030 M04/M11 A3018 840 60 -1300 300/17 RMK AO2
94908KDBQ DBQ20050217104510502/17/05 10:45:31  5-MIN KDBQ 171645Z 29013G20KT 10SM SCT030 M04/M11 A3018 840 60 -1300 290/13G20 RMK AO2
94908KDBQ DBQ20050217105012202/17/05 10:50:31  5-MIN KDBQ 171650Z 30015G20KT 10SM SCT030 M05/M11 A3018 840 65 -1300 300/15G20 RMK AO2 SLP238 T10501106
94908KDBQ DBQ20050217105511602/17/05 10:55:31  5-MIN KDBQ 171655Z 30016KT 10SM BKN032 M04/M11 A3018 840 60 -1200 300/16 RMK AO2 SLP237 T10391106
94908KDBQ DBQ20050217110010602/17/05 11:00:31  5-MIN KDBQ 171700Z 28016KT 10SM BKN030 BKN036 M04/M11 A3018 840 62 -1300 280/16 RMK AO2
94908KDBQ DBQ20050217110511202/17/05 11:05:31  5-MIN KDBQ 171705Z 30019G22KT 10SM BKN030 OVC036 M04/M11 A3018 840 62 -1300 300/19G22 RMK AO2
94908KDBQ DBQ20050217111011202/17/05 11:10:31  5-MIN KDBQ 171710Z 29016G22KT 10SM BKN030 OVC036 M04/M11 A3018 840 62 -1300 290/16G22 RMK AO2
94908KDBQ DBQ20050217111509902/17/05 11:15:31  5-MIN KDBQ 171715Z 28018KT 10SM OVC032 M04/M11 A3018 840 62 -1300 280/18 RMK AO2
94908KDBQ DBQ20050217112010602/17/05 11:20:31  5-MIN KDBQ 171720Z 29016KT 10SM BKN032 OVC039 M04/M11 A3018 840 62 -1300 290/16 RMK AO2
94908KDBQ DBQ20050217112509902/17/05 11:25:31  5-MIN KDBQ 171725Z 30015KT 10SM OVC032 M04/M11 A3018 840 62 -1300 300/15 RMK AO2
94908KDBQ DBQ20050217113009902/17/05 11:30:31  5-MIN KDBQ 171730Z 32015KT 10SM OVC034 M04/M11 A3019 830 60 -1200 320/15 RMK AO2
94908KDBQ DBQ20050217113511202/17/05 11:35:31  5-MIN KDBQ 171735Z 28016G20KT 10SM BKN030 OVC036 M04/M10 A3018 840 63 -1200 280/16G20 RMK AO2
94908KDBQ DBQ20050217114010602/17/05 11:40:31  5-MIN KDBQ 171740Z 30016KT 10SM BKN030 OVC038 M04/M10 A3018 840 63 -1200 300/16 RMK AO2
94908KDBQ DBQ20050217114510602/17/05 11:45:31  5-MIN KDBQ 171745Z 30017KT 10SM SCT030 OVC038 M04/M11 A3018 840 60 -1200 300/17 RMK AO2
94908KDBQ DBQ20050217115013402/17/05 11:50:31  5-MIN KDBQ 171750Z 30016KT 10SM OVC034 M04/M10 A3017 840 63 -1200 300/16 RMK AO2 SLP235 T10391100 11039 21106 51012
94908KDBQ DBQ20050217115514102/17/05 11:55:31  5-MIN KDBQ 171755Z 29017KT 10SM BKN030 OVC036 M04/M11 A3018 840 60 -1200 290/17 RMK AO2 SLP235 T10391106 11033 21106 58007
94908KDBQ DBQ20050217120010602/17/05 12:00:31  5-MIN KDBQ 171800Z 31013KT 10SM SCT030 OVC036 M04/M11 A3018 840 60 -1200 310/13 RMK AO2
94908KDBQ DBQ20050217120509902/17/05 12:05:31  5-MIN KDBQ 171805Z 29014KT 10SM OVC034 M04/M11 A3017 850 60 -1200 290/14 RMK AO2
94908KDBQ DBQ20050217121009902/17/05 12:10:31  5-MIN KDBQ 171810Z 29015KT 10SM OVC034 M03/M10 A3017 850 60 -1100 290/15 RMK AO2
94908KDBQ DBQ20050217121509902/17/05 12:15:31  5-MIN KDBQ 171815Z 29017KT 10SM OVC034 M03/M10 A3017 850 60 -1100 290/17 RMK AO2
94908KDBQ DBQ20050217122010602/17/05 12:20:31  5-MIN KDBQ 171820Z 31017KT 10SM BKN034 OVC044 M04/M11 A3017 850 60 -1200 310/17 RMK AO2
94908KDBQ DBQ20050217122513002/17/05 12:25:31  5-MIN KDBQ 171825Z 32020G26KT 10SM BKN034 OVC044 M03/M11 A3017 850 57 -1100 320/20G26 RMK AO2 PK WND 31026/1823
94908KDBQ DBQ20050217123013002/17/05 12:30:31  5-MIN KDBQ 171830Z 31020G26KT 10SM BKN034 OVC044 M03/M11 A3017 850 57 -1100 310/20G26 RMK AO2 PK WND 31026/1823
94908KDBQ DBQ20050217123513002/17/05 12:35:31  5-MIN KDBQ 171835Z 31019G24KT 10SM BKN034 OVC042 M03/M11 A3016 850 55 -1100 310/19G24 RMK AO2 PK WND 31026/1823
94908KDBQ DBQ20050217124013002/17/05 12:40:31  5-MIN KDBQ 171840Z 31018G24KT 10SM BKN036 OVC044 M03/M11 A3016 860 55 -1000 310/18G24 RMK AO2 PK WND 31026/1823
94908KDBQ DBQ20050217124507602/17/05 12:45:31  5-MIN KDBQ 171845Z 31017KT 10SM BKN036 OVC043 M03/M11 823
94908KDBQ DBQ20050217125514002/17/05 12:55:31  5-MIN KDBQ 171855Z 31018G23KT 10SM OVC038 M03/M11 A3015 870 55 -1000 310/18G23 RMK AO2 PK WND 31026/1823 SLP227 T10281106
94908KDBQ DBQ20050217130010802/17/05 13:00:31  5-MIN KDBQ 171900Z 30016G23KT 10SM BKN036 OVC045 M03/M11A3015 870 57 -1100 320/16 RMK AO2
94908KDBQ DBQ20050217132510602/17/05 13:25:31  5-MIN KDBQ 171925Z 31017KT 10SM BKN038 BKN048 M03/M11 A3015 870 55 -1000 310/17 RMK AO2
94908KDBQ DBQ20050217133016102/17/05 13:30:31  5-MIN KDBQ 171930Z 31017KT 10SM BKN036 BKN046 M03/M11 A3015 870 57 -1100 310/1870 57 -1100 310/19G23 RMK AO2 PK WND 32027/1936 SLP225T10331106
94908KDBQ DBQ20050217135514002/17/05 13:55:31  5-MIN KDBQ 171955Z 30022G26KT 10SM BKN036 M03/M11 A3014 870 55 -1000 300/22G26 RMK AO2 PK WND 32027/1936 SLP225 T10281106
94908KDBQ DBQ20050217140011102/17/05 14:00:31  5-MIN KDBQ 17 KDBQ 172020Z 32017G21KT 10SM BKN040 M02/M09 A3014870 55 -900 320/17G21 RMK AO2
94908KDBQ DBQ20050217142510502/17/05 14:25:31  5-MIN KDBQ 172025Z 32014KT 10SM BKN038 BKN045 M02/M10 A3014 870 55 -900 320/14 RMK AO2
94908KDBQ DBQ20050217143008102/17/05 14:30:31  5-MIN KDBQ 172030Z 34015KT 10 A3014 870 55 -900 330/15 RMK AO2
94908KDBQ DBQ20050217143509502/17/05 14:35:31  5-MIN KDBQ 172035Z 33017G21KTM10 00 330/14G21 RMK AO2 SLP227 T10221100 55008
94908KDBQ DBQ20050217150009802/17/05 15:00:31  5-MIN KDBQ 172100Z 30015KT 10SM BKN040 M02/M10 A3015 860 55 -900 300/15 RMK AO2
94908KDBQ DBQ20050217150513402/17/05 15:05:31  5-MIN KDBQ 172105Z 31017KT 10SM BKN040 M02/M11 A3015 870017KT 10SM FEW040 M02/M11 A3015 870  51 -900 310/17 RMK AO2
94908KDBQ DBQ20050217153010402/17/05 15:30:31  5-MIN KDBQ 172130Z 31016G22KT 10SM FEW043 M02/M11 A3015 870 53 -900 310/16G22 RMK AO2
94908KDBQ DBQ20050217153512302/17/05 15:35:31  5-MIN KDBQ 172135Z 30016G22KT 10SM CLR M02/M11 A3015 O2 15870 53 -900 300/15G21 RMK AO2 SLP227 T10221106
94908KDBQ DBQ20050217160010502/17/05 16:00:31  5-MIN KDBQ 172200Z 29013KT 10SM SCT042 SCT049 M02/M11 A3015 870 53 -900 290/13 RMK AO2
94908KDBQ DBQ20050217160507802/17/05 16:05:31  5-MIN KDBQ 172205Z 30016G19KT 10SM BKN042 BKN049 M02/M11M11
94908KDBQ DBQ20050217163010002/17/05 16:30:31  5-MIN KDBQ 172230Z 30014KT 10SM FEW042 M03/M11 A3015 870  53 -1000 300/14 RMK AO2
94908KDBQ DBQ20050217163512602/17/05 16:35:31  5-MIN KDBQ 172235Z 31870 2255Z 31011KT 10SM CLR M03/M11 A3015 860 55  -1000 310/11 RMK AO2 SLP228 T10281106
94908KDBQ DBQ20050217170009602/17/05 17:00:31  5-MIN KDBQ 172300Z 32008KT 10SM CLR M03/M10 A3015 860 58 -1000 320/08 RMK AO2
94908KDBQ DBQ20050217170513702/17/05 17:05:31  5-MIN KDBQ 172305Z 32010KT 10SM CLR M1  5-MIN KDBQ 172330Z 31009KT 10SM CLR M03/M10 A3016 860 60  -1100 310/09 RMK AO2
94908KDBQ DBQ20050217173509602/17/05 17:35:31  5-MIN KDBQ 172335Z 32010KT 10SM CLR M04/M10 A3016 850 63 -1200 320/10 RMK AO2
94908KDBQ DBQ20050217174509602/17/05 17:45:31  5-MIN KDBQ 172345Z 32009KT 10SM CLR M04/M10 A3017 850 63 -1200 310/09 RMK AO2
94908KDBQ DBQ20050217175012402/17/05 17:50:31  5-MIN KDBQ 172350Z 32009KT 10SM CLR M04/M10 A3017 850 63 -1200 320/09 RMK AO2 SLP234 T10391100 1  63K AO2
94908KDBQ DBQ20050217181509602/17/05 18:15:31  5-MIN KDBQ 180015Z 33007KT 10SM CLR M04/M10 A3017 840 65 -1300 330/07 RMK AO2
94908KDBQ DBQ20050217182009602/17/05 18:20:31  5-MIN KDBQ 180020Z 33008KT 10SM CLR M04/M10 A3018 840 65 -1300 330/08 RMK AO2
94908KDBQ DBQ20050217182509302/17/05 18:25:31  5-MIN KDBQ 18 65 008KT 10SM CLR M06/M10 A3018 840 71  -1400 350/08 RMK AO2
94908KDBQ DBQ20050217185011302/17/05 18:50:31  5-MIN KDBQ 180050Z 34010KT 10SM CLR M05/M10 A3018 840 68 -1300 340/10 RMK AO2 SLP241 T10501100
94908KDBQ DBQ20050217185508002/17/05 18:55:31  5-MIN KDBQ 180055Z 35009KT 10SM CLR M05/M10 A02/17/05 19:05:3
94908KDBQ DBQ20050217191006902/17/05 19:10:31  5-MIN KDBQ 180110Z 33010KT 10 -1400 340/10 RMK AO2
94908KDBQ DBQ20050217194009602/17/05 19:40:31  5-MIN KDBQ 180140Z 34009KT 10SM CLR M06/M11 A3020 820 68 -1400 340/09 RMK AO2
94908KDBQ DBQ20050217194509602/17/05 19:45:31  5-MIN KDBQ 180145Z 34010KT 10SM CLR M06/M11 A3020 820 68 -1400 340/10 RMK AO2
94908KDBQ DBQ20050217195010602/17/05 19:50:31  5-MIN KDBQ 180205Z AUTO 33011KT 10SM CLR M06/M11 A3021 810 71 -1500 330/11 RMK AO2 TSNO
94908KDBQ DBQ20050217201010602/17/05 20:10:31  5-MIN KDBQ 180210Z AUTO 33012KT 10SM CLR M06/M11 A3021 810 68 -1500 330/12 RMK AO2 TSNO
94908KDBQ DBQ20050217201515402/17/05 20:15:31  5-MIN KDBQ 180215Z AUTO 3401002/17/05 20:35:31  5-MIN KDBQ 180235Z AUTO 35010KT 10SM CLR M06/M11 A3022 800 68 -1500 350/10 RMK AO2 TSNO
94908KDBQ DBQ20050217204010602/17/05 20:40:31  5-MIN KDBQ 180240Z AUTO 36009KT 10SM CLR M07/M12 A3022 800 68 -1600 360/09 RMK AO2 TSNO
94908KDBQ DBQ20050217210510602/17/05 21:05:31  5-MIN KDBQ 180305Z AUTO 36010KT 10SM CLR M07/M12 A3023 800 65 -1600 360/10 RMK AO2 TSNO
94908KDBQ DBQ20050217211009002/17/05 21:10:31  5-MIN KDBQ 180310Z AUTO 36009KT 10SM CLR M07/M12 A3023 790 68 -1700 360
94908KDBQ DBQ20050217213010602/17/05 21:30:31  5-MIN KDBQ 180330Z AUTO 01010KT 10SM CLR M07/M13 A3024 790 65 -1700 010/10 RMK AO2 TSNO
94908KDBQ DBQ20050217213510602/17/05 21:35:31  5-MIN KDBQ 180335Z AUTO 01012KT 10SM CLR M07/M13 A3024 780 65 -1700 010/12 RMK AO2 TSNO
94908KDBQ DBQ20050217214004102/17/05 21:40:31  5-MIN61 T10781133 TSNO
94908KDBQ DBQ20050217220011202/17/05 22:00:31  5-MIN KDBQ 180400Z AUTO 01012G15KT 10SM CLR M08/M14 A3024 780 62 -1800 010/12G15 RMK AO2 TSNO
94908KDBQ DBQ20050217220514002/17/05 22:05:31  5-MIN KDBQ 180405Z AUTO 01008KT 10SM CLR M08/M14 A3025 780 62 -1800 010/08 RMK AO2 TSNO5 780 64 -1800 010/09 RMK AO2 TSNO
94908KDBQ DBQ20050217222510602/17/05 22:25:31  5-MIN KDBQ 180425Z AUTO 01009KT 10SM CLR M08/M14 A3025 780 64 -1800 010/09 RMK AO2 TSNO
94908KDBQ DBQ20050217223009002/17/05 22:30:31  5-MIN KDBQ 180430Z AUTO 01011KT 10SM CLR M08/M14 A3025 780 62 -1800 010
94908KDBQ DBQ20050217225012302/17/05 22:50:31  5-MIN KDBQ 180450Z AUTO 01011KT 10SM CLR M09/M15 A3025 770 61 -1900 010/11 RMK AO2 SLP264 T10891150 TSNO
94908KDBQ DBQ20050217225512302/17/05 22:55:31  5-MIN KDBQ 180455Z AUTO 01010KT 10SM CLR M09/M15 A3026 770 61 -1900 010/10 RMK AO2 SLP264 T10891150 TSNO
94908KDBQ DBQ20050217230010602/17/05 23:00:31  5-MIN KDBQ 180500Z AUTO 01011KT 10SM CLR M09/M16 A3026 770 59 -1900 360/11 RMK AO2 TSNO
94908KDBQ DBQ20050217230510602/17/05 23:05:31  5-MIN KDBQ 180505Z AUTO 01011KT 10SM CLR M09/M16 A3026 770 59 -1900 010/11 RMK AO2 TSNO
94908KDBQ DBQ20050217231010602/17/05 23:10:31  5-MIN KDBQ 180510Z AUTO 36008KT 10SM CLR M09/M16 A3026 770 61 -2000 360/08 RMK AO2 TSNO
94908KDBQ DBQ20050217231510602/17/05 23:15:31  5-MIN KDBQ 180515Z AUTO 36007KT 10SM CLR M09/M16 A3026 770 61 -2000 360/07 RMK AO2 TSNO
94908KDBQ DBQ20050217232010602/17/05 23:20:31  5-MIN KDBQ 180520Z AUTO 36009KT 10SM CLR M09/M16 A3026 770 61 -2000 360/09 RMK AO2 TSNO
94908KDBQ DBQ20050217232510602/17/05 23:25:31  5-MIN KDBQ 180525Z AUTO 36008KT 10SM CLR M09/M16 A3026 760 59 -2000 360/08 RMK AO2 TSNO
94908KDBQ DBQ20050217233010602/17/05 23:30:31  5-MIN KDBQ 180530Z AUTO 36008KT 10SM CLR M09/M16 A3026 760 61 -2000 360/08 RMK AO2 TSNO
94908KDBQ DBQ20050217233510602/17/05 23:35:31  5-MIN KDBQ 180535Z AUTO 36007KT 10SM CLR M09/M16 A3027 760 59 -2000 360/07 RMK AO2 TSNO
94908KDBQ DBQ20050217234010602/17/05 23:40:31  5-MIN KDBQ 180540Z AUTO 01010KT 10SM CLR M09/M16 A3027 760 61 -2000 010/10 RMK AO2 TSNO
94908KDBQ DBQ20050217234510602/17/05 23:45:31  5-MIN KDBQ 180545Z AUTO 02011KT 10SM CLR M09/M16 A3027 760 59 -2000 020/11 RMK AO2 TSNO
94908KDBQ DBQ20050217235015102/17/05 23:50:31  5-MIN KDBQ 180550Z AUTO 01012KT 10SM CLR M09/M16 A3027 760 59 -2000 010/12 RMK AO2 SLP269 T10941161 11039 21100 410171106 52018 TSNO
94908KDBQ DBQ20050217235515102/17/05 23:55:31  5-MIN KDBQ 180555Z AUTO 01011KT 10SM CLR M09/M17 A3027 760 56 -2000 010/11 RMK AO2 SLP269 T10941167 11039 21100 410171106 51015 TSNO
94908KDBQ DBQ20050218000010602/18/05 00:00:38  5-MIN KDBQ 180600Z AUTO 01012KT 10SM CLR M10/M17 A3027 760 58 -2100 010/12 RMK AO2 TSNO
94908KDBQ DBQ20050218000510602/18/05 00:05:31  5-MIN KDBQ 180605Z AUTO 01009KT 10SM CLR M10/M17 A3027 750 58 -2100 010/09 RMK AO2 TSNO
94908KDBQ DBQ20050218001010602/18/05 00:10:31  5-MIN KDBQ 180610Z AUTO 01010KT 10SM CLR M10/M17 A3027 750 58 -2100 010/10 RMK AO2 TSNO
94908KDBQ DBQ20050218001510802/18/05 00:15:32  5-MIN KDBQ 180615Z AUTO 01012KT 10SM CLR M10/M17 A3028 750 58 -2100 010/12 RMK AO2 TSNO 8
94908KDBQ DBQ20050218002510602/18/05 00:25:31  5-MIN KDBQ 180625Z AUTO 01013KT 10SM CLR M10/M17 A3028 750 56 -2100 010/13 RMK AO2 TSNO
94908KDBQ DBQ20050218003010602/18/05 00:30:31  5-MIN KDBQ 180630Z AUTO 01015KT 10SM CLR M10/M18 A3028 740 53 -2100 010/15 RMK AO2 TSNO
94908KDBQ DBQ20050218003505702/18/05 00:35:31  5-MIN/09 RMK AO2 SLP276 T11061178 TSNO
94908KDBQ DBQ20050218005512302/18/05 00:55:31  5-MIN KDBQ 180655Z AUTO 36008KT 10SM CLR M11/M18 A3029 740 56 -2200 360/08 RMK AO2 SLP277 T11061178 TSNO
94908KDBQ DBQ20050218010007502/18/05 01:00:31  5-MIN KDBQ 180700Z AUTO 36007KT 10SM CLR M11/M18 A3029 9
94908KDBQ DBQ20050218012510602/18/05 01:25:31  5-MIN KDBQ 180725Z AUTO 36007KT 10SM CLR M11/M18 A3030 730 58 -2300 360/07 RMK AO2 TSNO
94908KDBQ DBQ20050218013008202/18/05 01:30:31  5-MIN KDBQ 18CLR M12/M17 A3030 730 64 -2300 360/06 RMK AO2 TSNO
94908KDBQ DBQ20050218015012302/18/05 01:50:31  5-MIN KDBQ 180750Z AUTO 36007KT 10SM CLR M12/M18 A3030 730 61 -2300 360/07 RMK AO2 SLP280 T11171178 TSNO
94908KDBQ DBQ20050218015509602/18/05 01:55:31  5-MIN KDBQ 180755Z AUTO 36006KT 10SM CLR M12/730 64 -2300 010/09 RMK AO2 TSNO
94908KDBQ DBQ20050218021510602/18/05 02:15:31  5-MIN KDBQ 180815Z AUTO 01008KT 10SM CLR M12/M17 A3030 730 64 -2300 010/08 RMK AO2 TSNO
94908KDBQ DBQ20050218022007302/18/05 02:20:31  5-MIN KDBQ 180820Z AUTO 01007KT 10SM CLR M12/M18 A3030
94908KDBQ DBQ20050218024510602/18/05 02:45:31  5-MIN KDBQ 180845Z AUTO 01006KT 10SM CLR M12/M17 A3030 730 64 -2300 010/06 RMK AO2 TSNO
94908KDBQ DBQ20050218025009002/18/05 02:50:31  5-MINTO 01005KT 10SM CLR M12/M18 A3030 730 64 -2400 010/05 RMK AO2 TSNO
94908KDBQ DBQ20050218031010602/18/05 03:10:31  5-MIN KDBQ 180910Z AUTO 01007KT 10SM CLR M12/M18 A3030 730 64 -2400 010/07 RMK AO2 TSNO
94908KDBQ DBQ20050218031515402/18/05 03:15:31  5-MIN KDBQ 180915Z AUTO 01008KT 10SM CLR M12/1  5-MIN KDBQ 180935Z AUTO 01006KT 10SM CLR M12/M18 A3030 730 64 -2400 010/06 RMK AO2 TSNO
94908KDBQ DBQ20050218034010602/18/05 03:40:31  5-MIN KDBQ 180940Z AUTO 01006KT 10SM CLR M12/M18 A3030 730 64 -2400 010/06 RMK AO2 TSNO
94908KDBQ DBQ20050218034509002/18/05 03:45:31  5-MIN KDBQ 180945Z AUCLR M12/M18 A3030 730 61 -2400 010/08 RMK AO2 TSNO
94908KDBQ DBQ20050218040510602/18/05 04:05:31  5-MIN KDBQ 181005Z AUTO 01006KT 10SM CLR M12/M18 A3030 730 61 -2400 010/06 RMK AO2 TSNO
94908KDBQ DBQ20050218041007302/18/05 04:10:31  5-MIN KDBQ 181010Z AUTO 36007KT 10SM CLR M13/M18 A3031
94908KDBQ DBQ20050218043010602/18/05 04:30:31  5-MIN KDBQ 181030Z AUTO 01008KT 10SM CLR M12/M19 A3031 720 58 -2400 010/08 RMK AO2 TSNO
94908KDBQ DBQ20050218043510602/18/05 04:35:31  5-MIN KDBQ 181035Z AUTO 01007KT 10SM CLR M12/M19 A3031 720 58 -2400 010/07 RMK AO2 TSNO
94908KDBQ DBQ20050218044008302/18/05 04:40:31  5-MINM18 A3031 720 63 -2500 010/08 RMK AO2 SLP286 T11281183 TSNO
94908KDBQ DBQ20050218050010602/18/05 05:00:31  5-MIN KDBQ 181100Z AUTO 01008KT 10SM CLR M13/M18 A3031 720 63 -2500 010/08 RMK AO2 TSNO
94908KDBQ DBQ20050218050510602/18/05 05:05:31  5-MIN KDBQ 181105Z AUTO 02007KT 10SM CLR M13/M18 A3031 720 63 -2500 020/07 RMK AO2 TSNO
94908KDBQ DBQ20050218051014902/18/05 05:10:31  5-MIN KDBQ 181110Z AUTO 02007KT 10SM CLR M13/M18 A3031 720 63 -2500 020/07 RMK 2CLR M13/M19 A3032 710 63 -2600 000/00 RMK AO2 TSNO
94908KDBQ DBQ20050218054510602/18/05 05:45:31  5-MIN KDBQ 181145Z AUTO 36003KT 10SM CLR M13/M18 A3032 710 66 -2600 360/03 RMK AO2 TSNO
94908KDBQ DBQ20050218055007502/18/05 05:50:31  5-MIN KDBQ 181150Z 00000KT 10SM CLR M13/M18 A3032 710 66
94908KDBQ DBQ20050218061509702/18/05 06:15:31  5-MIN KDBQ 181215Z 36003KT 10SM CLR M13/M18 A3033 700 66  -2600 360/03 RMK AO2
94908KDBQ DBQ20050218062012902/18/05 06:20:31  5-MIN KDBQ 181220Z 35003KT 101  5-MIN KDBQ 181240Z 00000KT 10SM CLR M14/M18 A3034 690 69  -2700 000/00 RMK AO2
94908KDBQ DBQ20050218064509602/18/05 06:45:31  5-MIN KDBQ 181245Z 00000KT 10SM CLR M14/M18 A3034 690 69 -2700 000/00 RMK AO2
94908KDBQ DBQ20050218065008902/18/05 06:50:31  5-MIN KDBQ 181250Z 00000KT 10SM CLR M13/M19 A 69  -2700 000/00 RMK AO2
94908KDBQ DBQ20050218071509602/18/05 07:15:31  5-MIN KDBQ 181315Z 34003KT 10SM CLR M14/M18 A3035 690 73 -2700 340/03 RMK AO2
94908KDBQ DBQ20050218072009602/18/05 07:20:31  5-MIN KDBQ 181320Z 33003KT 10SM CLR M14/M18 A3035 680 73 -2700 330/03 RMK AO2
94908KDBQ DBQ20050218075011402/18/05 07:50:31  5-MIN KDBQ 181350Z 33003KT 10SM CLR M12/M18 A3036 680 61  -2500 330/03 RMK AO2 SLP301 T11221183
94908KDBQ DBQ20050218075508902/18/05 07:55:31  5-MIN KDBQ 18003KT 10SM CLR M12/M18 A3037 670 64  -2500 330/03 RMK AO2
94908KDBQ DBQ20050218082009602/18/05 08:20:31  5-MIN KDBQ 181420Z 00000KT 10SM CLR M12/M18 A3037 670 61 -2500 000/00 RMK AO2
94908KDBQ DBQ20050218082510402/18/05 08:25:31  5-MIN KDBQ 181425Z 00000KT 10SM CLR M12/M18 A3037 670 58 -2400 0 -2400 000/00 RMK AO2
94908KDBQ DBQ20050218085011902/18/05 08:50:31  5-MIN KDBQ 181450Z 00000KT 10SM CLR M12/M18 A3037 670 58 -2400 000/00 RMK AO2 SLP304 T11171183 53008
94908KDBQ DBQ20050218085515302/18/05 08:55:31  5-MIN KDBQ 181455Z 00000KT 10SM CLR M12/M18 A3037 670 58 -2400 000/00 RM1013 000KT 10SM CLR M11/M19 A3036 670 51  -2300 000/00 RMK AO2
94908KDBQ DBQ20050218092009602/18/05 09:20:31  5-MIN KDBQ 181520Z 00000KT 10SM CLR M11/M20 A3036 670 46 -2300 000/00 RMK AO2
94908KDBQ DBQ20050218092509602/18/05 09:25:31  5-MIN KDBQ 181525Z 00000KT 10SM CLR M11/M19 A3037 670 51 -2300 000/00 RMK AO2
94908KDBQ DBQ20050218093009602/18/05 09:30:31  5-MIN KDBQ 181530Z 00000KT 10SM CLR M11/M19 A3036 670 48 -2300 000/00 RMK AO2
94908KDBQ DBQ20050218093509602/18/05 09:35:31  5-MIN KDBQ 181535Z 00000KT 10SM CLR M11/M19 A3036 680 51 -2300 000/00 RMK AO2
94908KDBQ DBQ20050218094009602/18/05 09:40:31  5-MIN KDBQ 181540Z 00000KT 10SM CLR M11/M19 A3036 680 51 -2300 000/00 RMK AO2
94908KDBQ DBQ20050218094509602/18/05 09:45:31  5-MIN KDBQ 181545Z 00000KT 10SM CLR M11/M19 A3036 680 51 -2300 000/00 RMK AO2
94908KDBQ DBQ20050218095011302/18/05 09:50:31  5-MIN KDBQ 181550Z 00000KT 10SM CLR M11/M20 A3036 680 46 -2300 000/00 RMK AO2 SLP302 T11061200
94908KDBQ DBQ20050218095511302/18/05 09:55:31  5-MIN KDBQ 181555Z 00000KT 10SM CLR M11/M19 A3036 680 51 -2300 000/00 RMK AO2 SLP301 T11061189
94908KDBQ DBQ20050218100009602/18/05 10:00:31  5-MIN KDBQ 181600Z VRB03KT 10SM CLR M11/M19 A3036 680 51 -2300 VRB/03 RMK AO2
94908KDBQ DBQ20050218100509602/18/05 10:05:31  5-MIN KDBQ 181605Z 25004KT 10SM CLR M10/M18 A3036 680 51 -2200 250/04 RMK AO2
94908KDBQ DBQ20050218101009602/18/05 10:10:31  5-MIN KDBQ 181610Z 25004KT 10SM CLR M10/M18 A3036 680 51 -2200 250/04 RMK AO2
94908KDBQ DBQ20050218101509602/18/05 10:15:31  5-MIN KDBQ 181615Z VRB04KT 10SM CLR M10/M18 A3036 680 51 -2200 VRB/04 RMK AO2
94908KDBQ DBQ20050218102009602/18/05 10:20:31  5-MIN KDBQ 181620Z 22005KT 10SM CLR M09/M18 A3036 670 49 -2100 220/05 RMK AO2
94908KDBQ DBQ20050218102509602/18/05 10:25:31  5-MIN KDBQ 181625Z 24005KT 10SM CLR M10/M18 A3036 670 51 -2200 240/05 RMK AO2
94908KDBQ DBQ20050218103009602/18/05 10:30:31  5-MIN KDBQ 181630Z 20005KT 10SM CLR M09/M18 A3036 670 49 -2100 190/05 RMK AO2
94908KDBQ DBQ20050218103509602/18/05 10:35:31  5-MIN KDBQ 181635Z 24005KT 10SM CLR M09/M18 A3036 670 51 -2100 240/05 RMK AO2
94908KDBQ DBQ20050218104009602/18/05 10:40:31  5-MIN KDBQ 181640Z 25004KT 10SM CLR M09/M17 A3036 670 51 -2000 250/04 RMK AO2
94908KDBQ DBQ20050218104509602/18/05 10:45:31  5-MIN KDBQ 181645Z 21006KT 10SM CLR M09/M18 A3036 670 49 -2000 210/06 RMK AO2
94908KDBQ DBQ20050218105011302/18/05 10:50:31  5-MIN KDBQ 181650Z 22005KT 10SM CLR M09/M17 A3037 670 51 -2100 220/05 RMK AO2 SLP304 T10891172
94908KDBQ DBQ20050218105511302/18/05 10:55:31  5-MIN KDBQ 181655Z 26008KT 10SM CLR M09/M17 A3037 670 51 -2100 260/08 RMK AO2 SLP304 T10891172
94908KDBQ DBQ20050218110009602/18/05 11:00:31  5-MIN KDBQ 181700Z 25007KT 10SM CLR M09/M17 A3037 670 51 -2100 240/07 RMK AO2
94908KDBQ DBQ20050218110511202/18/05 11:05:31  5-MIN KDBQ 181705Z 26008KT 230V290 10SM CLR M09/M17 A3036 670 54 -2000 260/08 230V290 RMK AO2
94908KDBQ DBQ20050218111009602/18/05 11:10:31  5-MIN KDBQ 181710Z 25007KT 10SM CLR M09/M17 A3037 670 51 -2100 250/07 RMK AO2
94908KDBQ DBQ20050218111509602/18/05 11:15:31  5-MIN KDBQ 181715Z 26008KT 10SM CLR M09/M18 A3036 670 49 -2100 260/08 RMK AO2
94908KDBQ DBQ20050218112009602/18/05 11:20:31  5-MIN KDBQ 181720Z VRB05KT 10SM CLR M09/M17 A3036 670 51 -2000 VRB/05 RMK AO2
94908KDBQ DBQ20050218112509602/18/05 11:25:31  5-MIN KDBQ 181725Z VRB05KT 10SM CLR M09/M17 A3036 670 51 -2000 VRB/05 RMK AO2
94908KDBQ DBQ20050218113009602/18/05 11:30:31  5-MIN KDBQ 181730Z 26008KT 10SM CLR M08/M17 A3036 670 49 -2000 260/08 RMK AO2
94908KDBQ DBQ20050218113509602/18/05 11:35:31  5-MIN KDBQ 181735Z VRB05KT 10SM CLR M08/M17 A3036 670 49 -2000 VRB/05 RMK AO2
94908KDBQ DBQ20050218114009602/18/05 11:40:31  5-MIN KDBQ 181740Z 25007KT 10SM CLR M08/M17 A3036 670 49 -1900 250/07 RMK AO2
94908KDBQ DBQ20050218114509602/18/05 11:45:31  5-MIN KDBQ 181745Z 27006KT 10SM CLR M08/M17 A3036 680 51 -2000 270/06 RMK AO2
94908KDBQ DBQ20050218115013102/18/05 11:50:31  5-MIN KDBQ 181750Z 25008KT 10SM CLR M08/M17 A3035 680 49 -1900 250/08 RMK AO2 SLP298 T10781167 11078 21139 51013
94908KDBQ DBQ20050218115513102/18/05 11:55:31  5-MIN KDBQ 181755Z 25007KT 10SM CLR M08/M17 A3035 680 49 -2000 250/07 RMK AO2 SLP298 T10831172 11078 21139 58006
94908KDBQ DBQ20050218120009602/18/05 12:00:31  5-MIN KDBQ 181800Z 22008KT 10SM CLR M08/M17 A3035 690 49 -1900 220/08 RMK AO2
94908KDBQ DBQ20050218120509602/18/05 12:05:31  5-MIN KDBQ 181805Z 27008KT 10SM CLR M08/M16 A3035 690 51 -1900 270/08 RMK AO2
94908KDBQ DBQ20050218121009602/18/05 12:10:31  5-MIN KDBQ 181810Z VRB06KT 10SM CLR M08/M16 A3034 690 51 -1900 VRB/06 RMK AO2
94908KDBQ DBQ20050218121509602/18/05 12:15:31  5-MIN KDBQ 181815Z 26008KT 10SM CLR M07/M17 A3034 690 47 -1800 260/08 RMK AO2
94908KDBQ DBQ20050218122009602/18/05 12:20:31  5-MIN KDBQ 181820Z 28009KT 10SM CLR M07/M16 A3034 690 49 -1800 280/09 RMK AO2
94908KDBQ DBQ20050218122509602/18/05 12:25:31  5-MIN KDBQ 181825Z 28010KT 10SM CLR M07/M16 A3034 690 47 -1700 280/10 RMK AO2
94908KDBQ DBQ20050218123009602/18/05 12:30:31  5-MIN KDBQ 181830Z 26007KT 10SM CLR M07/M16 A3033 700 49 -1800 260/07 RMK AO2
94908KDBQ DBQ20050218123509602/18/05 12:35:31  5-MIN KDBQ 181835Z 27009KT 10SM CLR M07/M16 A3033 700 49 -1800 270/09 RMK AO2
94908KDBQ DBQ20050218124009602/18/05 12:40:31  5-MIN KDBQ 181840Z 30008KT 10SM CLR M07/M16 A3032 710 52 -1800 290/08 RMK AO2
94908KDBQ DBQ20050218124509602/18/05 12:45:31  5-MIN KDBQ 181845Z 29004KT 10SM CLR M07/M16 A3032 710 52 -1800 290/04 RMK AO2
94908KDBQ DBQ20050218125012002/18/05 12:50:31  5-MIN KDBQ 181850Z 29009KT 10SM CLR M07/M16 A3031 720 49 -1800 290/09 RMK AO2 PRESFR SLP285 T10721161
94908KDBQ DBQ20050218125511302/18/05 12:55:31  5-MIN KDBQ 181855Z 29007KT 10SM CLR M07/M16 A3031 720 47 -1700 290/07 RMK AO2 SLP284 T10671161
94908KDBQ DBQ20050218130009602/18/05 13:00:31  5-MIN KDBQ 181900Z 28008KT 10SM CLR M07/M16 A3031 720 47 -1700 280/08 RMK AO2
94908KDBQ DBQ20050218130509602/18/05 13:05:31  5-MIN KDBQ 181905Z 26008KT 10SM CLR M07/M16 A3030 730 47 -1700 260/08 RMK AO2
94908KDBQ DBQ20050218131009602/18/05 13:10:31  5-MIN KDBQ 181910Z 26006KT 10SM CLR M07/M16 A3030 730 47 -1700 260/06 RMK AO2
94908KDBQ DBQ20050218131509602/18/05 13:15:31  5-MIN KDBQ 181915Z 30007KT 10SM CLR M07/M16 A3030 730 49 -1700 290/07 RMK AO2
94908KDBQ DBQ20050218132009602/18/05 13:20:31  5-MIN KDBQ 181920Z 22005KT 10SM CLR M07/M16 A3030 730 47 -1700 220/05 RMK AO2
94908KDBQ DBQ20050218132511202/18/05 13:25:31  5-MIN KDBQ 181925Z 26007KT 230V310 10SM CLR M06/M16 A3030 730 47 -1600 260/07 230V310 RMK AO2
94908KDBQ DBQ20050218133009602/18/05 13:30:31  5-MIN KDBQ 181930Z 27009KT 10SM CLR M06/M16 A3030 730 47 -1600 270/09 RMK AO2
94908KDBQ DBQ20050218133509602/18/05 13:35:31  5-MIN KDBQ 181935Z 28009KT 10SM CLR M06/M15 A3030 730 50 -1600 280/09 RMK AO2
94908KDBQ DBQ20050218134009602/18/05 13:40:31  5-MIN KDBQ 181940Z 26009KT 10SM CLR M06/M15 A3030 730 48 -1500 260/09 RMK AO2
94908KDBQ DBQ20050218134509602/18/05 13:45:31  5-MIN KDBQ 181945Z 27011KT 10SM CLR M06/M15 A3030 730 48 -1500 270/11 RMK AO2
94908KDBQ DBQ20050218135011902/18/05 13:50:31  5-MIN KDBQ 181950Z 28013G17KT 10SM CLR M06/M15 A3030 730 48 -1500 280/13G17 RMK AO2 SLP279 T10561150
94908KDBQ DBQ20050218135511302/18/05 13:55:31  5-MIN KDBQ 181955Z 26010KT 10SM CLR M06/M15 A3029 740 48 -1500 250/10 RMK AO2 SLP278 T10561150
94908KDBQ DBQ20050218140009602/18/05 14:00:31  5-MIN KDBQ 182000Z 27012KT 10SM CLR M06/M15 A3029 740 48 -1500 270/12 RMK AO2
94908KDBQ DBQ20050218140509602/18/05 14:05:31  5-MIN KDBQ 182005Z 25012KT 10SM CLR M06/M15 A3029 740 48 -1500 250/12 RMK AO2
94908KDBQ DBQ20050218141009602/18/05 14:10:31  5-MIN KDBQ 182010Z 25011KT 10SM CLR M06/M15 A3028 750 48 -1500 250/11 RMK AO2
94908KDBQ DBQ20050218141509602/18/05 14:15:31  5-MIN KDBQ 182015Z 26009KT 10SM CLR M06/M16 A3028 750 45 -1500 260/09 RMK AO2
94908KDBQ DBQ20050218142009602/18/05 14:20:31  5-MIN KDBQ 182020Z 27009KT 10SM CLR M06/M15 A3028 740 48 -1500 270/09 RMK AO2
94908KDBQ DBQ20050218142509602/18/05 14:25:31  5-MIN KDBQ 182025Z 27013KT 10SM CLR M05/M15 A3028 740 46 -1500 270/13 RMK AO2
94908KDBQ DBQ20050218143009602/18/05 14:30:31  5-MIN KDBQ 182030Z 27009KT 10SM CLR M06/M15 A3028 740 48 -1500 270/09 RMK AO2
94908KDBQ DBQ20050218143511202/18/05 14:35:31  5-MIN KDBQ 182035Z 28007KT 250V310 10SM CLR M05/M15 A3028 740 46 -1500 280/07 250V310 RMK AO2
94908KDBQ DBQ20050218144009602/18/05 14:40:31  5-MIN KDBQ 182040Z 27008KT 10SM CLR M05/M15 A3028 740 46 -1500 270/08 RMK AO2
94908KDBQ DBQ20050218144509602/18/05 14:45:31  5-MIN KDBQ 182045Z 25012KT 10SM CLR M05/M14 A3028 740 48 -1500 250/12 RMK AO2
94908KDBQ DBQ20050218145011902/18/05 14:50:31  5-MIN KDBQ 182050Z 26011KT 10SM CLR M05/M15 A3028 740 46 -1500 260/11 RMK AO2 SLP275 T10501150 58006
94908KDBQ DBQ20050218145511902/18/05 14:55:31  5-MIN KDBQ 182055Z 26011KT 10SM CLR M05/M14 A3029 740 48 -1500 260/11 RMK AO2 SLP276 T10501144 56020
94908KDBQ DBQ20050218150009602/18/05 15:00:31  5-MIN KDBQ 182100Z 28011KT 10SM CLR M05/M14 A3029 740 48 -1500 280/11 RMK AO2
94908KDBQ DBQ20050218150509602/18/05 15:05:31  5-MIN KDBQ 182105Z 27012KT 10SM CLR M04/M14 A3028 740 46 -1400 270/12 RMK AO2
94908KDBQ DBQ20050218151009602/18/05 15:10:31  5-MIN KDBQ 182110Z 27011KT 10SM CLR M04/M14 A3028 750 46 -1400 270/11 RMK AO2
94908KDBQ DBQ20050218151509602/18/05 15:15:31  5-MIN KDBQ 182115Z 27013KT 10SM CLR M04/M14 A3028 740 46 -1400 270/13 RMK AO2
94908KDBQ DBQ20050218152009602/18/05 15:20:31  5-MIN KDBQ 182120Z 27011KT 10SM CLR M04/M14 A3028 750 48 -1400 270/11 RMK AO2
94908KDBQ DBQ20050218152509602/18/05 15:25:31  5-MIN KDBQ 182125Z 26012KT 10SM CLR M04/M14 A3028 750 48 -1400 260/12 RMK AO2
94908KDBQ DBQ20050218153009602/18/05 15:30:31  5-MIN KDBQ 182130Z 25012KT 10SM CLR M04/M14 A3028 750 46 -1400 250/12 RMK AO2
94908KDBQ DBQ20050218153509602/18/05 15:35:31  5-MIN KDBQ 182135Z 27011KT 10SM CLR M04/M14 A3028 750 46 -1400 270/11 RMK AO2
94908KDBQ DBQ20050218154009602/18/05 15:40:31  5-MIN KDBQ 182140Z 26010KT 10SM CLR M04/M14 A3028 750 48 -1400 260/10 RMK AO2
94908KDBQ DBQ20050218154509602/18/05 15:45:31  5-MIN KDBQ 182145Z 27014KT 10SM CLR M04/M14 A3027 760 46 -1300 270/14 RMK AO2
94908KDBQ DBQ20050218155011302/18/05 15:50:31  5-MIN KDBQ 182150Z 25012KT 10SM CLR M04/M14 A3028 750 48 -1400 250/12 RMK AO2 SLP273 T10441139
94908KDBQ DBQ20050218155511302/18/05 15:55:31  5-MIN KDBQ 182155Z 25013KT 10SM CLR M04/M14 A3027 750 46 -1300 250/13 RMK AO2 SLP272 T10391139
94908KDBQ DBQ20050218160009602/18/05 16:00:31  5-MIN KDBQ 182200Z 26012KT 10SM CLR M04/M14 A3027 750 48 -1400 260/12 RMK AO2
94908KDBQ DBQ20050218160509602/18/05 16:05:31  5-MIN KDBQ 182205Z 26013KT 10SM CLR M04/M13 A3027 750 48 -1300 260/13 RMK AO2
94908KDBQ DBQ20050218161009602/18/05 16:10:31  5-MIN KDBQ 182210Z 27010KT 10SM CLR M04/M13 A3027 750 48 -1300 270/10 RMK AO2
94908KDBQ DBQ20050218161509602/18/05 16:15:31  5-MIN KDBQ 182215Z 26014KT 10SM CLR M04/M14 A3027 760 46 -1300 260/14 RMK AO2
94908KDBQ DBQ20050218162009602/18/05 16:20:31  5-MIN KDBQ 182220Z 27011KT 10SM CLR M04/M14 A3027 760 46 -1300 270/11 RMK AO2
94908KDBQ DBQ20050218162509602/18/05 16:25:31  5-MIN KDBQ 182225Z 28011KT 10SM CLR M04/M13 A3027 760 48 -1300 280/11 RMK AO2
94908KDBQ DBQ20050218163009602/18/05 16:30:31  5-MIN KDBQ 182230Z 27010KT 10SM CLR M04/M14 A3026 760 46 -1300 270/10 RMK AO2
94908KDBQ DBQ20050218163509602/18/05 16:35:31  5-MIN KDBQ 182235Z 26013KT 10SM CLR M04/M13 A3026 760 48 -1300 260/13 RMK AO2
94908KDBQ DBQ20050218164009602/18/05 16:40:31  5-MIN KDBQ 182240Z 28010KT 10SM CLR M04/M13 A3026 760 48 -1300 280/10 RMK AO2
94908KDBQ DBQ20050218164509602/18/05 16:45:31  5-MIN KDBQ 182245Z 27010KT 10SM CLR M04/M13 A3026 760 48 -1300 270/10 RMK AO2
94908KDBQ DBQ20050218165011302/18/05 16:50:31  5-MIN KDBQ 182250Z 27010KT 10SM CLR M04/M13 A3027 760 48 -1300 270/10 RMK AO2 SLP269 T10391133
94908KDBQ DBQ20050218165511302/18/05 16:55:31  5-MIN KDBQ 182255Z 29010KT 10SM CLR M04/M13 A3027 760 48 -1300 290/10 RMK AO2 SLP269 T10391133
94908KDBQ DBQ20050218170009602/18/05 17:00:31  5-MIN KDBQ 182300Z 28011KT 10SM CLR M04/M13 A3027 760 50 -1300 280/11 RMK AO2
94908KDBQ DBQ20050218170509602/18/05 17:05:31  5-MIN KDBQ 182305Z 27013KT 10SM CLR M04/M13 A3026 760 52 -1400 270/13 RMK AO2
94908KDBQ DBQ20050218171009602/18/05 17:10:31  5-MIN KDBQ 182310Z 27010KT 10SM CLR M04/M13 A3026 770 52 -1400 260/10 RMK AO2
94908KDBQ DBQ20050218171509602/18/05 17:15:31  5-MIN KDBQ 182315Z 26011KT 10SM CLR M04/M13 A3026 760 52 -1400 260/11 RMK AO2
94908KDBQ DBQ20050218172009602/18/05 17:20:31  5-MIN KDBQ 182320Z 26010KT 10SM CLR M04/M13 A3026 770 52 -1400 260/10 RMK AO2
94908KDBQ DBQ20050218172509602/18/05 17:25:31  5-MIN KDBQ 182325Z 26011KT 10SM CLR M04/M13 A3026 770 52 -1400 260/11 RMK AO2
94908KDBQ DBQ20050218173009602/18/05 17:30:31  5-MIN KDBQ 182330Z 27008KT 10SM CLR M04/M13 A3025 770 52 -1300 260/08 RMK AO2
94908KDBQ DBQ20050218173509602/18/05 17:35:31  5-MIN KDBQ 182335Z 27007KT 10SM CLR M04/M12 A3026 770 55 -1400 270/07 RMK AO2
94908KDBQ DBQ20050218174009602/18/05 17:40:31  5-MIN KDBQ 182340Z 27006KT 10SM CLR M05/M12 A3026 770 57 -1400 270/06 RMK AO2
94908KDBQ DBQ20050218174509602/18/05 17:45:31  5-MIN KDBQ 182345Z 27006KT 10SM CLR M05/M12 A3026 770 60 -1400 260/06 RMK AO2
94908KDBQ DBQ20050218175013102/18/05 17:50:31  5-MIN KDBQ 182350Z 26004KT 10SM CLR M05/M12 A3026 770 60 -1400 260/04 RMK AO2 SLP267 T10501117 11039 21083 56020
94908KDBQ DBQ20050218175513102/18/05 17:55:31  5-MIN KDBQ 182355Z 26004KT 10SM CLR M05/M12 A3026 770 60 -1400 260/04 RMK AO2 SLP267 T10501117 11039 21083 57010
94908KDBQ DBQ20050218180009602/18/05 18:00:31  5-MIN KDBQ 190000Z 25004KT 10SM CLR M05/M12 A3025 770 60 -1400 250/04 RMK AO2
94908KDBQ DBQ20050218180509602/18/05 18:05:31  5-MIN KDBQ 190005Z 24004KT 10SM CLR M06/M12 A3025 770 62 -1500 230/04 RMK AO2
94908KDBQ DBQ20050218181009602/18/05 18:10:31  5-MIN KDBQ 190010Z 24004KT 10SM CLR M06/M12 A3025 770 62 -1500 240/04 RMK AO2
94908KDBQ DBQ20050218181509602/18/05 18:15:31  5-MIN KDBQ 190015Z 23003KT 10SM CLR M06/M12 A3025 770 65 -1600 230/03 RMK AO2
94908KDBQ DBQ20050218182009602/18/05 18:20:31  5-MIN KDBQ 190020Z 21005KT 10SM CLR M06/M12 A3025 780 65 -1600 210/05 RMK AO2
94908KDBQ DBQ20050218182509602/18/05 18:25:31  5-MIN KDBQ 190025Z 21005KT 10SM CLR M07/M12 A3024 780 68 -1600 210/05 RMK AO2
94908KDBQ DBQ20050218183009602/18/05 18:30:31  5-MIN KDBQ 190030Z 20006KT 10SM CLR M07/M11 A3024 780 71 -1600 200/06 RMK AO2
94908KDBQ DBQ20050218183509602/18/05 18:35:31  5-MIN KDBQ 190035Z 20006KT 10SM CLR M07/M11 A3024 780 71 -1600 200/06 RMK AO2
94908KDBQ DBQ20050218184009602/18/05 18:40:31  5-MIN KDBQ 190040Z 20007KT 10SM CLR M07/M11 A3024 780 71 -1600 200/07 RMK AO2
94908KDBQ DBQ20050218184509602/18/05 18:45:31  5-MIN KDBQ 190045Z 20007KT 10SM CLR M07/M11 A3024 780 71 -1600 190/07 RMK AO2
94908KDBQ DBQ20050218185011302/18/05 18:50:31  5-MIN KDBQ 190050Z 20008KT 10SM CLR M07/M11 A3024 790 71 -1600 190/08 RMK AO2 SLP262 T10671111
94908KDBQ DBQ20050218185511302/18/05 18:55:31  5-MIN KDBQ 190055Z 20008KT 10SM CLR M07/M11 A3024 790 71 -1600 200/08 RMK AO2 SLP262 T10671111
94908KDBQ DBQ20050218190009602/18/05 19:00:31  5-MIN KDBQ 190100Z 20007KT 10SM CLR M07/M11 A3024 790 71 -1600 200/07 RMK AO2
94908KDBQ DBQ20050218190509602/18/05 19:05:31  5-MIN KDBQ 190105Z 20007KT 10SM CLR M07/M11 A3024 790 74 -1700 200/07 RMK AO2
94908KDBQ DBQ20050218191009602/18/05 19:10:31  5-MIN KDBQ 190110Z 21006KT 10SM CLR M07/M11 A3023 790 74 -1700 210/06 RMK AO2
94908KDBQ DBQ20050218191509602/18/05 19:15:31  5-MIN KDBQ 190115Z 21006KT 10SM CLR M07/M11 A3023 790 74 -1700 210/06 RMK AO2
94908KDBQ DBQ20050218192009602/18/05 19:20:31  5-MIN KDBQ 190120Z 21006KT 10SM CLR M07/M11 A3023 790 74 -1700 210/06 RMK AO2
94908KDBQ DBQ20050218192509602/18/05 19:25:31  5-MIN KDBQ 190125Z 21006KT 10SM CLR M07/M11 A3023 790 74 -1700 210/06 RMK AO2
94908KDBQ DBQ20050218193009602/18/05 19:30:31  5-MIN KDBQ 190130Z 21008KT 10SM CLR M07/M11 A3023 790 71 -1600 210/08 RMK AO2
94908KDBQ DBQ20050218193509602/18/05 19:35:31  5-MIN KDBQ 190135Z 21007KT 10SM CLR M07/M11 A3023 790 71 -1600 210/07 RMK AO2
94908KDBQ DBQ20050218194009602/18/05 19:40:31  5-MIN KDBQ 190140Z 20007KT 10SM CLR M07/M11 A3023 800 71 -1600 200/07 RMK AO2
94908KDBQ DBQ20050218194509602/18/05 19:45:31  5-MIN KDBQ 190145Z 20009KT 10SM CLR M07/M11 A3022 800 71 -1600 200/09 RMK AO2
94908KDBQ DBQ20050218195012302/18/05 19:50:31  5-MIN KDBQ 190150Z AUTO 20010KT 10SM CLR M07/M11 A3022 800 71 -1600 200/10 RMK AO2 SLP256 T10671111 TSNO
94908KDBQ DBQ20050218195512302/18/05 19:55:31  5-MIN KDBQ 190155Z AUTO 21009KT 10SM CLR M07/M11 A3023 800 71 -1600 210/09 RMK AO2 SLP256 T10671111 TSNO
94908KDBQ DBQ20050218200010602/18/05 20:00:31  5-MIN KDBQ 190200Z AUTO 21008KT 10SM CLR M07/M11 A3023 800 71 -1600 210/08 RMK AO2 TSNO
94908KDBQ DBQ20050218200510602/18/05 20:05:31  5-MIN KDBQ 190205Z AUTO 21008KT 10SM CLR M07/M11 A3022 800 71 -1600 210/08 RMK AO2 TSNO
94908KDBQ DBQ20050218201010602/18/05 20:10:31  5-MIN KDBQ 190210Z AUTO 21009KT 10SM CLR M07/M11 A3022 800 74 -1600 210/09 RMK AO2 TSNO
94908KDBQ DBQ20050218201510602/18/05 20:15:31  5-MIN KDBQ 190215Z AUTO 22009KT 10SM CLR M07/M11 A3022 800 74 -1600 210/09 RMK AO2 TSNO
94908KDBQ DBQ20050218202010602/18/05 20:20:31  5-MIN KDBQ 190220Z AUTO 22009KT 10SM CLR M07/M11 A3022 800 74 -1600 210/09 RMK AO2 TSNO
94908KDBQ DBQ20050218202510602/18/05 20:25:31  5-MIN KDBQ 190225Z AUTO 21010KT 10SM CLR M07/M11 A3022 800 74 -1600 210/10 RMK AO2 TSNO
94908KDBQ DBQ20050218203010602/18/05 20:30:31  5-MIN KDBQ 190230Z AUTO 20009KT 10SM CLR M07/M11 A3023 790 74 -1600 200/09 RMK AO2 TSNO
94908KDBQ DBQ20050218203510602/18/05 20:35:31  5-MIN KDBQ 190235Z AUTO 20009KT 10SM CLR M06/M11 A3023 790 71 -1500 200/09 RMK AO2 TSNO
94908KDBQ DBQ20050218204010602/18/05 20:40:31  5-MIN KDBQ 190240Z AUTO 20008KT 10SM CLR M07/M11 A3023 790 74 -1600 200/08 RMK AO2 TSNO
94908KDBQ DBQ20050218204510602/18/05 20:45:31  5-MIN KDBQ 190245Z AUTO 20008KT 10SM CLR M07/M11 A3023 790 74 -1600 200/08 RMK AO2 TSNO
94908KDBQ DBQ20050218205012902/18/05 20:50:31  5-MIN KDBQ 190250Z AUTO 21009KT 10SM CLR M07/M11 A3023 790 74 -1600 210/09 RMK AO2 SLP258 T10671106 57010 TSNO
94908KDBQ DBQ20050218205512902/18/05 20:55:31  5-MIN KDBQ 190255Z AUTO 21010KT 10SM CLR M06/M11 A3023 790 71 -1500 210/10 RMK AO2 SLP257 T10611106 55009 TSNO
94908KDBQ DBQ20050218210010602/18/05 21:00:31  5-MIN KDBQ 190300Z AUTO 21011KT 10SM CLR M06/M11 A3023 800 71 -1500 210/11 RMK AO2 TSNO
94908KDBQ DBQ20050218210510602/18/05 21:05:31  5-MIN KDBQ 190305Z AUTO 21011KT 10SM CLR M06/M11 A3023 800 71 -1500 210/11 RMK AO2 TSNO
94908KDBQ DBQ20050218211010602/18/05 21:10:31  5-MIN KDBQ 190310Z AUTO 21011KT 10SM CLR M06/M11 A3023 800 71 -1500 210/11 RMK AO2 TSNO
94908KDBQ DBQ20050218211510602/18/05 21:15:31  5-MIN KDBQ 190315Z AUTO 22011KT 10SM CLR M06/M11 A3023 800 71 -1500 210/11 RMK AO2 TSNO
94908KDBQ DBQ20050218212010602/18/05 21:20:31  5-MIN KDBQ 190320Z AUTO 21011KT 10SM CLR M06/M11 A3023 800 71 -1500 210/11 RMK AO2 TSNO
94908KDBQ DBQ20050218212510602/18/05 21:25:31  5-MIN KDBQ 190325Z AUTO 21010KT 10SM CLR M06/M11 A3023 800 71 -1500 210/10 RMK AO2 TSNO
94908KDBQ DBQ20050218213010602/18/05 21:30:31  5-MIN KDBQ 190330Z AUTO 22009KT 10SM CLR M06/M11 A3023 800 71 -1500 210/09 RMK AO2 TSNO
94908KDBQ DBQ20050218213510602/18/05 21:35:31  5-MIN KDBQ 190335Z AUTO 21009KT 10SM CLR M06/M11 A3023 800 71 -1500 210/09 RMK AO2 TSNO
94908KDBQ DBQ20050218214010602/18/05 21:40:31  5-MIN KDBQ 190340Z AUTO 22009KT 10SM CLR M07/M11 A3023 800 74 -1600 220/09 RMK AO2 TSNO
94908KDBQ DBQ20050218214510602/18/05 21:45:31  5-MIN KDBQ 190345Z AUTO 22010KT 10SM CLR M06/M11 A3023 800 71 -1500 220/10 RMK AO2 TSNO
94908KDBQ DBQ20050218215012302/18/05 21:50:31  5-MIN KDBQ 190350Z AUTO 22009KT 10SM CLR M07/M11 A3023 800 74 -1600 220/09 RMK AO2 SLP256 T10671106 TSNO
94908KDBQ DBQ20050218215512302/18/05 21:55:31  5-MIN KDBQ 190355Z AUTO 22008KT 10SM CLR M07/M11 A3022 800 74 -1600 220/08 RMK AO2 SLP255 T10671106 TSNO
94908KDBQ DBQ20050218220010602/18/05 22:00:31  5-MIN KDBQ 190400Z AUTO 22009KT 10SM CLR M07/M11 A3022 800 74 -1600 220/09 RMK AO2 TSNO
94908KDBQ DBQ20050218220510602/18/05 22:05:31  5-MIN KDBQ 190405Z AUTO 22009KT 10SM CLR M07/M11 A3022 800 74 -1600 220/09 RMK AO2 TSNO
94908KDBQ DBQ20050218221010602/18/05 22:10:31  5-MIN KDBQ 190410Z AUTO 22008KT 10SM CLR M07/M11 A3022 800 74 -1600 220/08 RMK AO2 TSNO
94908KDBQ DBQ20050218221510602/18/05 22:15:31  5-MIN KDBQ 190415Z AUTO 22009KT 10SM CLR M07/M11 A3022 800 74 -1600 220/09 RMK AO2 TSNO
94908KDBQ DBQ20050218222010602/18/05 22:20:31  5-MIN KDBQ 190420Z AUTO 22009KT 10SM CLR M07/M11 A3022 800 74 -1600 220/09 RMK AO2 TSNO
94908KDBQ DBQ20050218222510602/18/05 22:25:31  5-MIN KDBQ 190425Z AUTO 22009KT 10SM CLR M07/M11 A3022 800 74 -1600 220/09 RMK AO2 TSNO
94908KDBQ DBQ20050218223010602/18/05 22:30:31  5-MIN KDBQ 190430Z AUTO 22009KT 10SM CLR M06/M11 A3022 800 71 -1500 220/09 RMK AO2 TSNO
94908KDBQ DBQ20050218223510602/18/05 22:35:31  5-MIN KDBQ 190435Z AUTO 22010KT 10SM CLR M06/M11 A3022 800 71 -1500 220/10 RMK AO2 TSNO
94908KDBQ DBQ20050218224010602/18/05 22:40:31  5-MIN KDBQ 190440Z AUTO 22010KT 10SM CLR M06/M11 A3022 800 71 -1500 210/10 RMK AO2 TSNO
94908KDBQ DBQ20050218224510602/18/05 22:45:31  5-MIN KDBQ 190445Z AUTO 21009KT 10SM CLR M06/M10 A3022 800 74 -1500 210/09 RMK AO2 TSNO
94908KDBQ DBQ20050218225012302/18/05 22:50:31  5-MIN KDBQ 190450Z AUTO 22010KT 10SM CLR M06/M10 A3022 800 74 -1500 210/10 RMK AO2 SLP253 T10611100 TSNO
94908KDBQ DBQ20050218225512302/18/05 22:55:31  5-MIN KDBQ 190455Z AUTO 21010KT 10SM CLR M06/M10 A3022 800 74 -1500 210/10 RMK AO2 SLP253 T10611100 TSNO
94908KDBQ DBQ20050218230010602/18/05 23:00:31  5-MIN KDBQ 190500Z AUTO 22009KT 10SM CLR M06/M10 A3022 800 74 -1500 210/09 RMK AO2 TSNO
94908KDBQ DBQ20050218230510602/18/05 23:05:31  5-MIN KDBQ 190505Z AUTO 22009KT 10SM CLR M06/M10 A3022 800 74 -1500 220/09 RMK AO2 TSNO
94908KDBQ DBQ20050218231010602/18/05 23:10:31  5-MIN KDBQ 190510Z AUTO 22008KT 10SM CLR M06/M10 A3022 810 74 -1500 220/08 RMK AO2 TSNO
94908KDBQ DBQ20050218231510602/18/05 23:15:31  5-MIN KDBQ 190515Z AUTO 22008KT 10SM CLR M06/M10 A3022 810 74 -1500 220/08 RMK AO2 TSNO
94908KDBQ DBQ20050218232010602/18/05 23:20:31  5-MIN KDBQ 190520Z AUTO 22009KT 10SM CLR M06/M10 A3022 810 74 -1500 220/09 RMK AO2 TSNO
94908KDBQ DBQ20050218232510602/18/05 23:25:31  5-MIN KDBQ 190525Z AUTO 22009KT 10SM CLR M06/M10 A3021 810 74 -1500 220/09 RMK AO2 TSNO
94908KDBQ DBQ20050218233010602/18/05 23:30:31  5-MIN KDBQ 190530Z AUTO 21009KT 10SM CLR M06/M10 A3021 810 74 -1500 210/09 RMK AO2 TSNO
94908KDBQ DBQ20050218233510602/18/05 23:35:31  5-MIN KDBQ 190535Z AUTO 21009KT 10SM CLR M06/M10 A3021 810 74 -1500 210/09 RMK AO2 TSNO
94908KDBQ DBQ20050218234010602/18/05 23:40:31  5-MIN KDBQ 190540Z AUTO 21009KT 10SM CLR M06/M10 A3021 810 74 -1500 210/09 RMK AO2 TSNO
94908KDBQ DBQ20050218234510602/18/05 23:45:31  5-MIN KDBQ 190545Z AUTO 21009KT 10SM CLR M07/M10 A3021 810 77 -1600 210/09 RMK AO2 TSNO
94908KDBQ DBQ20050218235015102/18/05 23:50:31  5-MIN KDBQ 190550Z AUTO 22009KT 10SM CLR M06/M10 A3021 810 74 -1500 220/09 RMK AO2 SLP250 T10611100 11050 21072 410391139 55009 TSNO
94908KDBQ DBQ20050218235515102/18/05 23:55:31  5-MIN KDBQ 190555Z AUTO 22008KT 10SM CLR M07/M10 A3021 810 77 -1600 220/08 RMK AO2 SLP250 T10671100 11050 21072 410391139 58005 TSNO
94908KDBQ DBQ20050219000010602/19/05 00:00:38  5-MIN KDBQ 190600Z AUTO 22009KT 10SM CLR M07/M10 A3021 810 77 -1600 210/09 RMK AO2 TSNO
94908KDBQ DBQ20050219000510902/19/05 00:05:31  5-MIN KDBQ 190605Z AUTO 22009KT 10SM FEW060 M06/M10 A3021 810 74 -1500 220/09 RMK AO2 TSNO
94908KDBQ DBQ20050219001010902/19/05 00:10:31  5-MIN KDBQ 190610Z AUTO 22008KT 10SM SCT060 M06/M09 A3021 810 77 -1500 210/08 RMK AO2 TSNO
94908KDBQ DBQ20050219001510902/19/05 00:15:32  5-MIN KDBQ 190615Z AUTO 22009KT 10SM BKN060 M06/M09 A3021 810 74 -1400 220/09 RMK AO2 TSNO
94908KDBQ DBQ20050219002010902/19/05 00:20:31  5-MIN KDBQ 190620Z AUTO 22009KT 10SM BKN060 M06/M09 A3021 810 74 -1400 220/09 RMK AO2 TSNO
94908KDBQ DBQ20050219002510902/19/05 00:25:31  5-MIN KDBQ 190625Z AUTO 22009KT 10SM BKN060 M06/M09 A3021 810 77 -1400 220/09 RMK AO2 TSNO
94908KDBQ DBQ20050219003010902/19/05 00:30:31  5-MIN KDBQ 190630Z AUTO 22009KT 10SM OVC060 M06/M09 A3021 810 77 -1400 220/09 RMK AO2 TSNO
94908KDBQ DBQ20050219003510902/19/05 00:35:31  5-MIN KDBQ 190635Z AUTO 22010KT 10SM OVC060 M05/M09 A3021 810 74 -1400 220/10 RMK AO2 TSNO
94908KDBQ DBQ20050219004010902/19/05 00:40:31  5-MIN KDBQ 190640Z AUTO 22009KT 10SM OVC060 M05/M09 A3021 810 74 -1400 220/09 RMK AO2 TSNO
94908KDBQ DBQ20050219004510902/19/05 00:45:31  5-MIN KDBQ 190645Z AUTO 22009KT 10SM OVC060 M05/M09 A3021 810 74 -1400 220/09 RMK AO2 TSNO
94908KDBQ DBQ20050219005012602/19/05 00:50:31  5-MIN KDBQ 190650Z AUTO 22009KT 10SM OVC060 M04/M08 A3021 810 74 -1300 220/09 RMK AO2 SLP247 T10441083 TSNO
94908KDBQ DBQ20050219005512602/19/05 00:55:31  5-MIN KDBQ 190655Z AUTO 22009KT 10SM OVC060 M04/M08 A3021 810 74 -1300 220/09 RMK AO2 SLP247 T10441083 TSNO
94908KDBQ DBQ20050219010010902/19/05 01:00:31  5-MIN KDBQ 190700Z AUTO 22010KT 10SM OVC055 M04/M08 A3021 810 74 -1300 220/10 RMK AO2 TSNO
94908KDBQ DBQ20050219010510902/19/05 01:05:31  5-MIN KDBQ 190705Z AUTO 22010KT 10SM OVC055 M04/M08 A3021 810 74 -1300 220/10 RMK AO2 TSNO
94908KDBQ DBQ20050219011010902/19/05 01:10:31  5-MIN KDBQ 190710Z AUTO 23009KT 10SM OVC055 M04/M08 A3021 810 74 -1300 230/09 RMK AO2 TSNO
94908KDBQ DBQ20050219011510902/19/05 01:15:31  5-MIN KDBQ 190715Z AUTO 23009KT 10SM OVC060 M04/M08 A3021 810 74 -1300 230/09 RMK AO2 TSNO
94908KDBQ DBQ20050219012010902/19/05 01:20:31  5-MIN KDBQ 190720Z AUTO 23010KT 10SM OVC060 M04/M08 A3021 810 74 -1300 230/10 RMK AO2 TSNO
94908KDBQ DBQ20050219012510902/19/05 01:25:31  5-MIN KDBQ 190725Z AUTO 23010KT 10SM OVC055 M04/M08 A3021 810 74 -1300 230/10 RMK AO2 TSNO
94908KDBQ DBQ20050219013011602/19/05 01:30:31  5-MIN KDBQ 190730Z AUTO 23010KT 10SM FEW048 OVC060 M04/M08 A3021 810 74 -1300 230/10 RMK AO2 TSNO
94908KDBQ DBQ20050219013510902/19/05 01:35:31  5-MIN KDBQ 190735Z AUTO 23011KT 10SM OVC055 M04/M08 A3021 810 74 -1300 220/11 RMK AO2 TSNO
94908KDBQ DBQ20050219014010902/19/05 01:40:31  5-MIN KDBQ 190740Z AUTO 22010KT 10SM OVC055 M04/M08 A3021 820 74 -1300 220/10 RMK AO2 TSNO
94908KDBQ DBQ20050219014510902/19/05 01:45:31  5-MIN KDBQ 190745Z AUTO 22010KT 10SM OVC055 M04/M08 A3021 820 74 -1300 220/10 RMK AO2 TSNO
94908KDBQ DBQ20050219015012602/19/05 01:50:31  5-MIN KDBQ 190750Z AUTO 23010KT 10SM OVC055 M04/M08 A3021 810 74 -1300 230/10 RMK AO2 SLP246 T10441083 TSNO
94908KDBQ DBQ20050219015512602/19/05 01:55:31  5-MIN KDBQ 190755Z AUTO 23009KT 10SM OVC055 M04/M08 A3021 810 74 -1300 220/09 RMK AO2 SLP246 T10441083 TSNO
94908KDBQ DBQ20050219020010102/19/05 02:00:31  5-MIN KDBQ 190800Z AUTO 22009KT 10SM OVC055 M04/M08 A3021 810 74 -139 RMK AO2 TSNO
94908KDBQ DBQ20050219020510902/19/05 02:05:31  5-MIN KDBQ 190805Z AUTO 22009KT 10SM OVC055 M04/M08 A3021 810 74 -1300 220/09 RMK AO2 TSNO
94908KDBQ DBQ20050219021014002/19/05 02:10:31  5-MIN KDBQ 190810Z AUTO 22009KT 10SM OVC055 M04/M08 A3021 820 74 -1300 220/09 RMK AO2 TSNO 0 74 -1300 230/08 RMK AO2 TSNO
94908KDBQ DBQ20050219023510902/19/05 02:35:31  5-MIN KDBQ 190835Z AUTO 23007KT 10SM OVC060 M04/M08 A3021 810 74 -1300 230/07 RMK AO2 TSNO
94908KDBQ DBQ20050219024007002/19/05 02:40:31  5-MIN KDBQ 190840Z AUTO 27007KT 10SM OVC060 M04/M08
94908KDBQ DBQ20050219030010902/19/05 03:00:31  5-MIN KDBQ 190900Z AUTO 28008KT 10SM OVC060 M04/M08 A3022 800 74 -1300 280/08 RMK AO2 TSNO
94908KDBQ DBQ20050219030510902/19/05 03:05:31  5-MIN KDBQ 190905Z AUTO 29009KT 10SM OVC060 M04/M08 A3022 800 71 -1200 280/09 RMK AO2 TSNO
94908KDBQ DBQ20050219031007002/19/05 03:10:31  5-MIN KDBQ 190910Z AUTO 28010KT 10SM OVC060 M04/M08
94908KDBQ DBQ20050219034010902/19/05 03:40:31  5-MIN KDBQ 190940Z AUTO 27007KT 10SM FEW060 M05/M08 A3023 800 77 -1400 270/07 RMK AO2 TSNO
94908KDBQ DBQ20050219034513402/19/05 03:45:31  5-MIN KDBQ 190945Z AUTO 28007KT 10SM FEW060 M05/M08 A3023 800 77 -1400 280/07 RMK AO2 TSNO 02/19/05 03:50:3AO2 TSNO
94908KDBQ DBQ20050219040510602/19/05 04:05:31  5-MIN KDBQ 191005Z AUTO 28004KT 10SM CLR M06/M09 A3023 790 77 -1500 270/04 RMK AO2 TSNO
94908KDBQ DBQ20050219041013002/19/05 04:10:31  5-MIN KDBQ 191010Z AUTO 27003KT 9SM CLR M06/M09 A3023 790 81 -1500 270/03 RMK AO2 TSNO 02/19/05 04:15:3AO2 TSNO
94908KDBQ DBQ20050219043510602/19/05 04:35:31  5-MIN KDBQ 191035Z AUTO 00000KT 10SM CLR M06/M09 A3023 790 77 -1500 000/00 RMK AO2 TSNO
94908KDBQ DBQ20050219044017102/19/05 04:40:31  5-MIN KDBQ 191040Z AUTO 23003KT 9SM CLR M06/M09 A3023 790 81 -1500 230/03 RMK AO2 TSNO 02/19/05 04:45:3790 84 -1600 210/03 RMK AO2 SLP254 T10671089 TSNO
94908KDBQ DBQ20050219050010502/19/05 05:00:31  5-MIN KDBQ 191100Z AUTO 21004KT 9SM CLR M07/M09 A3023 790 84 -1600 210/04 RMK AO2 TSNO
94908KDBQ DBQ20050219050514602/19/05 05:05:31  5-MIN KDBQ 191105Z AUTO 21004KT 9SM CLR M07/M09 A3023 790 84 -TO 22004KT 9SM CLR M07/M09 A3023 800 81 -1600 220/04 RMK AO2 TSNO
94908KDBQ DBQ20050219052510502/19/05 05:25:31  5-MIN KDBQ 191125Z AUTO 22005KT 8SM CLR M07/M09 A3023 800 84 -1700 220/05 RMK AO2 TSNO
94908KDBQ DBQ20050219053006402/19/05 05:30:31  5-MIN KDBQ 191130Z AUTO 21004KT 8SM CLR M07/M
94908KDBQ DBQ20050219055512302/19/05 05:55:31  5-MIN KDBQ 191155Z 21004KT 8SM FEW095 M08/M10 A3023 790 RMK AO20 210/04 RMK AO2 SLP254 T10781100 11039 2
94908KDBQ DBQ20050219062009802/19/05 06:20:31  5-MIN KDBQ 191220Z 00000KT 8SM OVC095 M07/M09 A3023 790 84 -1700 000/00 RMK AO2
94908KDBQ DBQ20050219062509802/19/05 06:25:31  5-MIN KDBQ 191225Z 21004KT 8SM OVC095 M07/M09 A3024 790 84 -1700 210/04 RMK AO2
94908KDBQ DBQ20050219063005002/19/05 06:30:31  5-MIN90 84 -1700 200/04 RMK AO2
94908KDBQ DBQ20050219065011502/19/05 06:50:31  5-MIN KDBQ 191250Z 21004KT 8SM OVC095 M07/M09 A3024 780 84 -1700 200/04 RMK AO2 SLP260 T10721094
94908KDBQ DBQ20050219065509202/19/05 06:55:31  5-MIN KDBQ 191255Z 20004KT 7SM OVC095 M07/M09 A3024 780 84 -1600 200/0480
94908KDBQ DBQ20050219070009802/19/05 07:00:31  5-MIN KDBQ 191300Z 20003KT 7SM OVC095 M07/M09 A3024 780 84 -1600 200/03 RMK AO2
94908KDBQ DBQ20050219070509802/19/05 07:05:31  5-MIN KDBQ 191305Z 20004KT 7SM OVC095 M07/M09 A3025 780 84 -1600 200/04 RMK AO2
94908KDBQ DBQ20050219071009802/19/05 07:10:31  5-MIN KDBQ 191310Z 21004KT 7SM OVC095 M07/M09 A3025 780 84 -1600 210/04 RMK AO2
94908KDBQ DBQ20050219071509802/19/05 07:15:31  5-MIN KDBQ 191315Z 21003KT 7SM OVC095 M07/M09 A3025 780 84 -1600 200/03 RMK AO2
94908KDBQ DBQ20050219072009802/19/05 07:20:31  5-MIN KDBQ 191320Z 20003KT 7SM OVC095 M07/M09 A3025 780 84 -1600 200/03 RMK AO2
94908KDBQ DBQ20050219072509802/19/05 07:25:31  5-MIN KDBQ 191325Z 00000KT 7SM OVC095 M07/M09 A3025 780 84 -1600 000/00 RMK AO2
94908KDBQ DBQ20050219073009802/19/05 07:30:31  5-MIN KDBQ 191330Z 00000KT 7SM OVC095 M07/M09 A3025 780 84 -1600 000/00 RMK AO2
94908KDBQ DBQ20050219073509802/19/05 07:35:31  5-MIN KDBQ 191335Z 00000KT 7SM OVC095 M06/M08 A3025 780 84 -1600 000/00 RMK AO2
94908KDBQ DBQ20050219074009802/19/05 07:40:31  5-MIN KDBQ 191340Z 00000KT 7SM OVC100 M06/M08 A3025 770 84 -1600 000/00 RMK AO2
94908KDBQ DBQ20050219074509802/19/05 07:45:31  5-MIN KDBQ 191345Z 00000KT 7SM OVC100 M06/M08 A3025 770 81 -1500 000/00 RMK AO2
94908KDBQ DBQ20050219075011502/19/05 07:50:31  5-MIN KDBQ 191350Z 18003KT 8SM OVC100 M06/M08 A3025 770 84 -1500 180/03 RMK AO2 SLP263 T10561078
94908KDBQ DBQ20050219075511502/19/05 07:55:31  5-MIN KDBQ 191355Z 17003KT 8SM OVC100 M05/M07 A3025 770 84 -1400 170/03 RMK AO2 SLP263 T10501072
94908KDBQ DBQ20050219080009802/19/05 08:00:31  5-MIN KDBQ 191400Z 18003KT 8SM OVC100 M04/M07 A3026 770 81 -1300 180/03 RMK AO2
94908KDBQ DBQ20050219080509802/19/05 08:05:31  5-MIN KDBQ 191405Z 19004KT 8SM OVC100 M04/M08 A3026 770 78 -1400 190/04 RMK AO2
94908KDBQ DBQ20050219081018102/19/05 08:10:31  5-MIN KDBQ 191410Z 20004KT 8SM OVC100 M04/M07 A3026 770 81 -1400 200/04 RMK AO2 02/19/05 KDBQ 191415Z 20004KT 8SM OVC100 M04/M07 A3026 760 78 -1300 200/04 RMK AO2
94908KDBQ DBQ20050219082009802/19/05 08:20:31  5-MIN KDBQ 191420Z 20003KT 9SM OVC100 M04/M07 A3026 770 78 -1300 190/03 RMK AO2
94908KDBQ DBQ20050219082511702/19/05 08:25:31  5-MIN KDBQ 191425Z 20003KT 9SM OVC100 M03/M0770 M OVC100 M03/M07 A3026 770 75 -1100 200/04 RMK AO2
94908KDBQ DBQ20050219085012102/19/05 08:50:31  5-MIN KDBQ 191450Z 21003KT 9SM BKN100 M03/M07 A3026 770 75 -1100 210/03 RMK AO2 SLP262 T10281067 50003
94908KDBQ DBQ20050219085509802/19/05 08:55:31  5-MIN KDBQ 191455Z 20003KT 9SM BKN095 M03/M06 A3026 760 75 -1100 190/06 RMK AO2
94908KDBQ DBQ20050219092010502/19/05 09:20:31  5-MIN KDBQ 191520Z 20006KT 9SM BKN085 OVC100 M02/M06 A3026 770 72 -1000 200/06 RMK AO2
94908KDBQ DBQ20050219092510402/19/05 09:25:31  5-MIN KDBQ 191525Z 21006KT 9SM BKN085 OVC100 M02/M06 A3026 770 72 -1000 210/0 RMK AO2
94908KDBQ DBQ20050219095011502/19/05 09:50:31  5-MIN KDBQ 191550Z 19005KT 10SM BKN080 M01/M06 A3027 760 69 -900 190/05 RMK AO2 SLP267 T10111061
94908KDBQ DBQ20050219095517802/19/05 09:55:31  5-MIN KDBQ 191555Z 19005KT 10SM FEW065 BKN080 M01/M06 A3027 750 69 -900 190/05 RMK AO2 SLP268 1605Z 22006KT 10SM SCT080 M01/M06 A3027750 69 -900 220/06 RMK AO2
94908KDBQ DBQ20050219101013502/19/05 10:10:31  5-MIN KDBQ 191610Z 21006KT 10SM SCT07750  KDBQ 191640Z 22005KT 10SM OVC080 M01/M07 A3028 750  63 -900 220/05 RMK AO2
94908KDBQ DBQ20050219104509802/19/05 10:45:31  5-MIN KDBQ 191645Z 21004KT 10SM OVC080 M01/M07 A3028 750 63 -900 210/04 RMK AO2
94908KDBQ DBQ20050219105008602/19/05 10:50:31  5-MIN KDBQ 191650Z 20006KT 10SM OVC080 00/M0761 -800 200/06 RMK AO2
94908KDBQ DBQ20050219111509702/19/05 11:15:31  5-MIN KDBQ 191715Z 21006KT 10SM OVC085 00/M07 A3027 750 61 -800 210/06 RMK AO2
94908KDBQ DBQ20050219112009702/19/05 11:20:31  5-MIN KDBQ 191720Z 21006KT 10SM OVC085 01/M07 A3027 750 58 -700 210/06 RMK AO2
94908KDBQ DBQ20050219112509702/19/05 11:25:31  5-MIN KDBQ 191745Z 20006KT 10SM OVC090 01/M07 A3026 760 58 -700 200/06 RMK AO2
94908KDBQ DBQ20050219115013202/19/05 11:50:31  5-MIN KDBQ 191750Z 18006KT 10SM OVC090 01/M07 A3026 760 58 -700 180/06 RMK AO2 SLP263 T00061067 10006 21078 51009
94908KDBQ DBQ20050219115508902/19/05 11:55:31  5-MIN1815Z 20005KT 10SM OVC085 01/M07 A3025 770 56 -600 200/05 RMK AO2
94908KDBQ DBQ20050219122009702/19/05 12:20:31  5-MIN KDBQ 191820Z 17007KT 10SM OVC085 01/M07 A3025 780 56 -600 170/07 RMK AO2
94908KDBQ DBQ20050219122512002/19/05 12:25:31  5-MIN KDBQ 191825Z 17006KT 10SM BKN085 01/M06 A3025 7 0 BKN095 02/M06A3024 780 56 -600 180/10 RMK AO2
94908KDBQ DBQ20050219125012102/19/05 12:50:31  5-MIN KDBQ 191850Z 20007KT 10SM BKN080 BKN095 02/M07 A3024 790 54 -600 200/07 RMK AO2 SLP252 T00171067
94908KDBQ DBQ20050219125509702/19/05 12:55:31  5-MIN KDBQ 191855Z 19009KT 10SM BKN080 BKN095  A3023 79056 -500 150/07 RMK AO2
94908KDBQ DBQ20050219132009702/19/05 13:20:31  5-MIN KDBQ 191920Z 15007KT 10SM SCT095 02/M06 A3023 800 56 -500 150/07 RMK AO2
94908KDBQ DBQ20050219132509702/19/05 13:25:31  5-MIN KDBQ 191925Z 16007KT 10SM BKN090 02/M06 A3022 800 56 -500 160/07 RMK AO2
94908KDBQ DBQ20050219133009702/19/05 13:30:31  5-MIN KDBQ 191930Z 16006KT 10SM BKN090 02/M06 A3022 800 59 -500 160/06 RMK AO2
94908KDBQ DBQ20050219133509702/19/05 13:35:31  5-MIN KDBQ 191935Z 15008KT 10SM BKN085 02/M06 A3022 800 59 -500 150/08 RMK AO2
94908KDBQ DBQ20050219134010402/19/05 13:40:31  5-MIN KDBQ 191940Z 17007KT 10SM BKN080 BKN095 01/M06 A3022 800 61 -600 160/07 RMK AO2
94908KDBQ DBQ20050219134511102/19/05 13:45:31  5-MIN KDBQ 191945Z 17006KT 10SM FEW060 BKN075 OVC090 01/M06 A3021 810 58 -600 170/06 RMK AO2
94908KDBQ DBQ20050219135012802/19/05 13:50:31  5-MIN KDBQ 191950Z 15008KT 10SM FEW060 SCT070 BKN090 02/M06 A3021 810 59 -500 150/08 RMK AO2 SLP244 T00171056
94908KDBQ DBQ20050219135512102/19/05 13:55:31  5-MIN KDBQ 191955Z 16007KT 10SM SCT070 BKN085 02/M06 A3021 810 59 -500 160/07 RMK AO2 SLP244 T00171056
94908KDBQ DBQ20050219142509702/19/05 14:25:31  5-MIN KDBQ 192025Z 15009KT 10SM FEW055 02/M05 A3020 820 59 -400 150/09 RMK AO2
94908KDBQ DBQ20050219143012002/19/05 14:30:31  5-MIN KDBQ 192030Z 15009KT 10SM FEW085 02/M06 A3018 840 56 -400 160/08 RMK AO2 SLP233 T00221056 50001
94908KDBQ DBQ20050219145512002/19/05 14:55:31  5-MIN KDBQ 192055Z 15009KT 10SM BKN075 02/M05 A3018 840 59 -400 150/09 RMK AO2 SLP234 T00221050 56026
94908KDBQ DBQ20050219150007502/19/05 15:00:31  5-MIN KDBQ 192100Z 14009KT 1040 4059 -400 140/11 RMK AO2
94908KDBQ DBQ20050219152509702/19/05 15:25:31  5-MIN KDBQ 192125Z 14009KT 10SM BKN070 02/M05 A3017 840 59 -400 130/09 RMK AO2
94908KDBQ DBQ20050219153010402/19/05 15:30:31  5-MIN KDBQ 192130Z 14009KT 10SM BKN070 BKN100 02/M05 A3018 840 61 -500 140/09 RMK AO2
94908KDBQ DBQ20050219154511102/19/05 15:45:31  5-MIN KDBQ 192145Z 14010KT 10SM BKN060 BKN080 BKN100 02/M05 A3017 850 61 -500 140/10 RMK AO2
94908KDBQ DBQ20050219155006202/19/05 15:50:31  5-MIN KDBQ 192150Z 13011KT 10SM BKN06MK AO2
94908KDBQ DBQ20050219161509702/19/05 16:15:31  5-MIN KDBQ 192215Z 13010KT 10SM OVC060 02/M05 A3015 860 61 -500 130/10 RMK AO2
94908KDBQ DBQ20050219162009702/19/05 16:20:31  5-MIN KDBQ 192220Z 13008KT 10SM OVC060 02/M05 A3016 860 61 -500 130/08 RMK AO2
94908KDBQ DBQ20050219162505402/19/05 16:25:31  5-MIN KDBQ 1964 -500 120/09 RMK AO2
94908KDBQ DBQ20050219165011402/19/05 16:50:31  5-MIN KDBQ 192250Z 13008KT 10SM OVC055 01/M05 A3016 860 64 -500 130/08 RMK AO2 SLP228 T00111050
94908KDBQ DBQ20050219165507402/19/05 16:55:31  5-MIN KDBQ 192255Z 13008KT 10SM OVC055 01/M05 A3016 860
94908KDBQ DBQ20050219172009702/19/05 17:20:31  5-MIN KDBQ 192320Z 13008KT 10SM OVC050 01/M05 A3016 860 64 -500 120/08 RMK AO2
94908KDBQ DBQ20050219172509702/19/05 17:25:31  5-MIN KDBQ 192325Z 12008KT 10SM OVC050 01/M05 A3017 850 64 -500 120/08 RMK AO2
94908KDBQ DBQ20050219173004202/19/05 17:30:31  5-MIN KDBQ 192330Z 1250
94908KDBQ DBQ20050219175515802/19/05 17:55:31  5-MIN KDBQ 192355Z 12009KT 10SM OVC050 01/M04 A3016 860 66 -500 120/09 RMK AO2 SLP228 T08 SM OVC050 01/M05 A3016 860 64 -500 120/09 RMK AO2
94908KDBQ DBQ20050219182510102/19/05 18:25:31  5-MIN KDBQ 200025Z 13007KT 10SM OVC050 01/M05 A3016 860 64 -500 130/07 RMK AO2 PNO
94908KDBQ DBQ20050219183014102/19/05 18:30:31  5-MIN KDBQ 200030Z 13009KT 10SM OVC050 01/M05 A3016 860 64 -500 6001/M05 A3015 860 64 -500 130/09 RMK AO2 SLP226 T00111050
94908KDBQ DBQ20050219183509702/19/05 18:35:31  5-MIN KDBQ 200035Z 13009KT 10SM OVC050 01/M05 A3015 860 64 -500 130/09 RMK AO2
94908KDBQ DBQ20050219184010402/19/05 18:40:31  5-MIN KDBQ 200040Z 13009KT 10SM FEW023 OVC050 01/M05 A3015 860 64 -500 130/09 RMK AO2
94908KDBQ DBQ20050219184511102/19/05 18:45:31  5-MIN KDBQ 200045Z 13011KT 10SM SCT023 SCT036 OVC050 01/M05 A3015 860 64 -500 130/11 RMK AO2
94908KDBQ DBQ20050219185012802/19/05 18:50:31  5-MIN KDBQ 200050Z 13009KT 10SM SCT023 BKN036 OVC050 01/M05 A3015 860 64 -500 130/09 RMK AO2 SLP226 T00111050
94908KDBQ DBQ20050219185512802/19/05 18:55:31  5-MIN KDBQ 200055Z 13011KT 10SM BKN023 BKN036 OVC050 01/M05 A3015 860 66 -600 130/11 RMK AO2 SLP226 T00061050
94908KDBQ DBQ20050219190011102/19/05 19:00:31  5-MIN KDBQ 200100Z 13010KT 10SM BKN023 BKN036 OVC050 01/M05 A3015 870 66 -600 130/10 RMK AO2
94908KDBQ DBQ20050219190509702/19/05 19:05:31  5-MIN KDBQ 200105Z 13011KT 10SM OVC023 01/M05 A3014 870 66 -600 130/11 RMK AO2
94908KDBQ DBQ20050219191009702/19/05 19:10:31  5-MIN KDBQ 200110Z 12013KT 10SM OVC023 01/M05 A3015 870 66 -600 120/13 RMK AO2
94908KDBQ DBQ20050219191511202/19/05 19:15:31  5-MIN KDBQ 200115Z 13013KT 8SM -SN OVC021 00/M04 A3015 870 72 -700 130/13 RMK AO2 SNB13 P0000
94908KDBQ DBQ20050219192011902/19/05 19:20:31  5-MIN KDBQ 200120Z 14014KT 6SM -SN BKN021 OVC045 00/M04 A3015 870 75 -700 140/14 RMK AO2 SNB13 P0000
94908KDBQ DBQ20050219192511902/19/05 19:25:31  5-MIN KDBQ 200125Z 14014KT 6SM -SN BKN021 OVC047 00/M04 A3015 870 75 -700 140/14 RMK AO2 SNB13 P0000
94908KDBQ DBQ20050219193012002/19/05 19:30:31  5-MIN KDBQ 200130Z 13012KT 5SM -SN BKN021 OVC047 M01/M04 A3015 870 78 -700 130/12 RMK AO2 SNB13 P0000
94908KDBQ DBQ20050219193512702/19/05 19:35:31  5-MIN KDBQ 200135Z 13011KT 5SM -SN BKN019 BKN024 OVC047 M01/M04 A3015 860 78 -700 130/11 RMK AO2 SNB13 P0000
94908KDBQ DBQ20050219194012702/19/05 19:40:31  5-MIN KDBQ 200140Z 13009KT 6SM -SN BKN019 BKN024 OVC047 M01/M04 A3015 860 78 -700 130/09 RMK AO2 SNB13 P0000
94908KDBQ DBQ20050219194512502/19/05 19:45:31  5-MIN KDBQ 200145Z 14010KT 7SM BKN019 BKN024 OVC047 00/M04 A3015 860 75 -700 140/10 RMK AO2 SNB13E42 P0000
94908KDBQ DBQ20050219195014502/19/05 19:50:31  5-MIN KDBQ 200150Z AUTO 13009KT 8SM FEW017 OVC049 00/M04 A3015 870 75 -700 130/09 RMK AO2 SNB13E42 SLP225 P0000 T00001039 TSNO
94908KDBQ DBQ20050219195513802/19/05 19:55:31  5-MIN KDBQ 200155Z AUTO 13011KT 8SM OVC049 00/M04 A3015 870 75 -700 130/11 RMK AO2 SNB13E42 SLP223 P0000 T00001039 TSNO
94908KDBQ DBQ20050219200013102/19/05 20:00:31  5-MIN KDBQ 200200Z AUTO 13012KT 6SM -SN FEW022 OVC049 00/M04 A3015 870 72 -700 130/12 RMK AO2 SNB0158 P0000 TSNO
94908KDBQ DBQ20050219200513102/19/05 20:05:31  5-MIN KDBQ 200205Z AUTO 13011KT 4SM -SN SCT020 OVC049 00/M04 A3015 870 75 -700 130/11 RMK AO2 SNB0158 P0000 TSNO
94908KDBQ DBQ20050219201013202/19/05 20:10:31  5-MIN KDBQ 200210Z AUTO 13012KT 3SM -SN BKN018 OVC049 M01/M04 A3015 870 78 -700 130/12 RMK AO2 SNB0158 P0000 TSNO
94908KDBQ DBQ20050219201513602/19/05 20:15:31  5-MIN KDBQ 200215Z AUTO 13011KT 2 1/2SM -SN BKN018 OVC049 M01/M04 A3015 860 78 -700 130/11 RMK AO2 SNB0158 P0000 TSNO
94908KDBQ DBQ20050219202013902/19/05 20:20:31  5-MIN KDBQ 200220Z AUTO 13012KT 2SM -SN BKN016 BKN026 OVC049 M01/M03 A3015 870 81 -700 130/12 RMK AO2 SNB0158 P0000 TSNO
94908KDBQ DBQ20050219202513902/19/05 20:25:31  5-MIN KDBQ 200225Z AUTO 12011KT 1 1/2SM -SN BR BKN018 OVC028 M01/M03 A3015 870 85 -800 120/11 RMK AO2 SNB0158 P0000 TSNO
94908KDBQ DBQ20050219203013902/19/05 20:30:31  5-MIN KDBQ 200230Z AUTO 12012KT 1 1/2SM -SN BR BKN016 OVC026 M01/M03 A3015 870 88 -800 120/12 RMK AO2 SNB0158 P0000 TSNO
94908KDBQ DBQ20050219203514602/19/05 20:35:31  5-MIN KDBQ 200235Z AUTO 12012KT 1 1/2SM -SN BR SCT016 BKN024 OVC028 M01/M03 A3014 870 88 -800 120/12 RMK AO2 SNB0158 P0000 TSNO
94908KDBQ DBQ20050219204014602/19/05 20:40:31  5-MIN KDBQ 200240Z AUTO 13012KT 1 1/2SM -SN BR SCT014 BKN024 OVC028 M01/M03 A3015 870 88 -800 130/12 RMK AO2 SNB0158 P0000 TSNO
94908KDBQ DBQ20050219204514202/19/05 20:45:31  5-MIN KDBQ 200245Z AUTO 13012KT 2SM -SN BR SCT014 SCT020 OVC028 M01/M03 A3014 870 88 -800 130/12 RMK AO2 SNB0158 P0000 TSNO
94908KDBQ DBQ20050219205016802/19/05 20:50:31  5-MIN KDBQ 200250Z AUTO 13012KT 2 1/2SM -SN BR BKN017 OVC028 M01/M03 A3014 870 88 -800 130/12 RMK AO2 SNB0158 SLP221 P0000 60000 T10111028 56008 TSNO
94908KDBQ DBQ20050219205517502/19/05 20:55:31  5-MIN KDBQ 200255Z AUTO 13012KT 2 1/2SM -SN BR BKN017 BKN024 OVC029 M01/M03 A3014 880 88 -800 120/12 RMK AO2 SNB0158 SLP220 P0000 60000 T10111028 58007 TSNO
94908KDBQ DBQ20050219210013402/19/05 21:00:31  5-MIN KDBQ 200300Z AUTO 13012KT 2SM -SN BR SCT015 BKN021 OVC029 M01/M03 A3014 880 88 -800 130/12 RMK AO2 P0000 TSNO
94908KDBQ DBQ20050219210513102/19/05 21:05:31  5-MIN KDBQ 200305Z AUTO 12011KT 1 3/4SM -SN BR BKN015 OVC021 M01/M03 A3014 880 88 -800 120/11 RMK AO2 P0000 TSNO
94908KDBQ DBQ20050219211012402/19/05 21:10:31  5-MIN KDBQ 200310Z AUTO 13013KT 1 3/4SM -SN BR OVC015 M01/M03 A3014 880 88 -800 130/13 RMK AO2 P0001 TSNO
94908KDBQ DBQ20050219211513102/19/05 21:15:31  5-MIN KDBQ 200315Z AUTO 13014KT 1 3/4SM -SN BR BKN015 OVC019 M01/M03 A3013 880 88 -800 130/14 RMK AO2 P0001 TSNO
94908KDBQ DBQ20050219212013402/19/05 21:20:31  5-MIN KDBQ 200320Z AUTO 13011KT 2SM -SN BR BKN015 BKN021 OVC026 M01/M03 A3013 880 88 -800 130/11 RMK AO2 P0001 TSNO
94908KDBQ DBQ20050219212513402/19/05 21:25:31  5-MIN KDBQ 200325Z AUTO 13011KT 3SM -SN BR BKN013 BKN021 OVC026 M01/M03 A3013 880 88 -800 130/11 RMK AO2 P0001 TSNO
94908KDBQ DBQ20050219213012702/19/05 21:30:31  5-MIN KDBQ 200330Z AUTO 13011KT 3SM -SN BR BKN013 OVC026 M01/M03 A3013 880 88 -800 120/11 RMK AO2 P0001 TSNO
94908KDBQ DBQ20050219213512702/19/05 21:35:31  5-MIN KDBQ 200335Z AUTO 12012KT 3SM -SN BR BKN013 OVC021 M01/M03 A3013 890 88 -800 120/12 RMK AO2 P0001 TSNO
94908KDBQ DBQ20050219214013102/19/05 21:40:31  5-MIN KDBQ 200340Z AUTO 12010KT 2 1/2SM -SN BR BKN015 OVC021 M01/M03 A3013 890 88 -800 120/10 RMK AO2 P0001 TSNO
94908KDBQ DBQ20050219214513102/19/05 21:45:31  5-MIN KDBQ 200345Z AUTO 12012KT 2 1/2SM -SN BR BKN015 OVC024 M01/M03 A3012 890 88 -800 120/12 RMK AO2 P0001 TSNO
94908KDBQ DBQ20050219215013702/19/05 21:50:31  5-MIN KDBQ 200350Z AUTO 12011KT 3SM -SN BR OVC015 M01/M03 A3012 890 88 -800 120/11 RMK AO2 SLP213 P0001 T10111028 TSNO
94908KDBQ DBQ20050219215513702/19/05 21:55:31  5-MIN KDBQ 200355Z AUTO 12011KT 3SM -SN BR OVC015 M01/M03 A3012 900 88 -800 120/11 RMK AO2 SLP212 P0001 T10111028 TSNO
94908KDBQ DBQ20050219220012402/19/05 22:00:31  5-MIN KDBQ 200400Z AUTO 12012KT 2 1/2SM -SN BR OVC015 M01/M02 A3012 890 92 -800 120/12 RMK AO2 P0000 TSNO
94908KDBQ DBQ20050219220513102/19/05 22:05:31  5-MIN KDBQ 200405Z AUTO 11011KT 2 1/2SM -SN BR BKN013 OVC018 M01/M02 A3012 890 92 -800 110/11 RMK AO2 P0000 TSNO
94908KDBQ DBQ20050219221012402/19/05 22:10:31  5-MIN KDBQ 200410Z AUTO 13012KT 2 1/2SM -SN BR OVC013 M01/M02 A3012 900 92 -800 130/12 RMK AO2 P0000 TSNO
94908KDBQ DBQ20050219221512002/19/05 22:15:31  5-MIN KDBQ 200415Z AUTO 12013KT 3SM -SN BR OVC011 M01/M02 A3012 900 92 -800 120/13 RMK AO2 P0000 TSNO
94908KDBQ DBQ20050219222014502/19/05 22:20:31  5-MIN KDBQ 200420Z AUTO 12011G18KT 4SM -SN BR BKN009 OVC014 M01/M02 A3012 900 92 -800 120/11G18 RMK AO2 CIG 007V011 P0000 TSNO
94908KDBQ DBQ20050219222514102/19/05 22:25:31  5-MIN KDBQ 200425Z AUTO 12013KT 4SM BR BKN009 OVC014 M01/M02 A3011 910 92 -800 120/13 RMK AO2 SNE24 CIG 007V011 P0000 TSNO
94908KDBQ DBQ20050219223014102/19/05 22:30:31  5-MIN KDBQ 200430Z AUTO 12013KT 5SM BR OVC009 M01/M02 A3010 920 92 -700 120/13 RMK AO2 SNE24 CIG 006V013 PRESFR P0000 TSNO
94908KDBQ DBQ20050219223514702/19/05 22:35:31  5-MIN KDBQ 200435Z AUTO 12014G19KT 5SM BR OVC009 M01/M02 A3009 920 92 -700 120/14G19 RMK AO2 SNE24 CIG 006V011 PRESFR P0000 TSNO
94908KDBQ DBQ20050219224014802/19/05 22:40:31  5-MIN KDBQ 200440Z AUTO 13014G19KT 5SM UP BR OVC007 M01/M02 A3009 930 92 -700 120/14G19 RMK AO2 UPB37SNE24 CIG 006V011 P0000 TSNO
94908KDBQ DBQ20050219224514802/19/05 22:45:31  5-MIN KDBQ 200445Z AUTO 13014G19KT 4SM UP BR OVC007 M01/M02 A3008 930 92 -700 130/14G19 RMK AO2 UPB37SNE24 CIG 006V010 P0000 TSNO
94908KDBQ DBQ20050219225015902/19/05 22:50:31  5-MIN KDBQ 200450Z AUTO 12014KT 5SM UP BR OVC007 M01/M02 A3008 930 92 -700 120/14 RMK AO2 UPB37SNE24 CIG 005V010 SLP199 P0000 T10111022 TSNO
94908KDBQ DBQ20050219225514702/19/05 22:55:31  5-MIN KDBQ 200455Z AUTO 12013KT 6SM BR OVC007 M01/M02 A3008 930 92 -700 120/13 RMK AO2 UPB37E51SNE24 SLP198 P0000 T10111022 TSNO
94908KDBQ DBQ20050219230011002/19/05 23:00:31  5-MIN KDBQ 200500Z AUTO 12013KT 6SM BR OVC007 M01/M02 A3008 930 92 -700 120/13 RMK AO2 TSNO
94908KDBQ DBQ20050219230512202/19/05 23:05:31  5-MIN KDBQ 200505Z AUTO 13010KT 6SM BR OVC007 M01/M02 A3008 930 88 -700 130/10 RMK AO2 CIG 005V010 TSNO
94908KDBQ DBQ20050219231012202/19/05 23:10:31  5-MIN KDBQ 200510Z AUTO 13013KT 6SM BR OVC007 M01/M02 A3009 930 88 -700 130/13 RMK AO2 CIG 005V010 TSNO
94908KDBQ DBQ20050219231512202/19/05 23:15:31  5-MIN KDBQ 200515Z AUTO 13012KT 6SM BR OVC007 M01/M02 A3009 920 88 -700 130/12 RMK AO2 CIG 005V009 TSNO
94908KDBQ DBQ20050219232012202/19/05 23:20:31  5-MIN KDBQ 200520Z AUTO 13010KT 6SM BR OVC007 M01/M02 A3008 930 92 -700 130/10 RMK AO2 CIG 005V009 TSNO
94908KDBQ DBQ20050219232512202/19/05 23:25:31  5-MIN KDBQ 200525Z AUTO 13013KT 6SM BR OVC007 M01/M02 A3007 940 92 -600 130/13 RMK AO2 CIG 005V009 TSNO
94908KDBQ DBQ20050219233012202/19/05 23:30:31  5-MIN KDBQ 200530Z AUTO 13013KT 6SM BR OVC007 M01/M02 A3007 940 92 -600 130/13 RMK AO2 CIG 005V009 TSNO
94908KDBQ DBQ20050219233517702/19/05 23:35:31  5-MIN KDBQ 200535Z AUTO 13013KT 6SM BR OVC007 M01/M02 A3007 940 92 -600 130/13 RMK AO2O TO 13012KT 6SM BR OVC007 M01/M02 A3006 950 92 -600 130/12 RMK AO2 TSNO
94908KDBQ DBQ20050219234512202/19/05 23:45:31  5-MIN KDBQ 200545Z AUTO 13014KT 5SM BR OVC007 M01/M02 A3006 950 92 -600 130/14 RMK AO2 CIG 005V009 TSNO
94908KDBQ DBQ20050219235008502/19/05 23:50:31  5-MIN KDBQ 200550Z AUTO 13013A3006 950 92 -600 130/13 RMK AO2 TSNO
94908KDBQ DBQ20050220000511002/20/05 00:05:31  5-MIN KDBQ 200605Z AUTO 14012KT 5SM BR OVC007 M01/M02 A3005 950 92 -600 130/12 RMK AO2 TSNO
94908KDBQ DBQ20050220001015902/20/05 00:10:31  5-MIN KDBQ 200610Z AUTO 14014KT 5SM BR OVC007 M01/M02 A3005 960 92 -60SN BR OVC007 M01/M02 A3005 960 92 -600 140/14 RMK AO2 SNB30 P0000 TSNO
94908KDBQ DBQ20050220003512602/20/05 00:35:31  5-MIN KDBQ 200635Z AUTO 14015KT 4SM -SN BR OVC007 M01/M02 A3005 960 92 -600 140/15 RMK AO2 SNB30 P0000 TSNO
94908KDBQ DBQ20050220004014902/20/05 00:40:31  5-MIN KDBQ 200640Z AUTO 15015G22KT 4SM -SN BR OVC005 M01/M02 A3004 970 92 -600 150/15G22 RMK AO2 SNB30 SLP185 P0000 T10061017 TSNO
94908KDBQ DBQ20050220010012002/20/05 01:00:31  5-MIN KDBQ 200700Z AUTO 14015KT 4SM -SN BR OVC005 M01/M02 A3004 960 92 -600 140/15 RMK AO2 P0000 TSNO
94908KDBQ DBQ20050220010508002/20/05 01:05:31  5-MINC005 M01/M02 A3003 980 92 -600 140/16 RMK AO2 P0001 TSNO
94908KDBQ DBQ20050220012012002/20/05 01:20:31  5-MIN KDBQ 200720Z AUTO 14017KT 3SM -SN BR OVC005 M01/M02 A3002 980 92 -600 140/17 RMK AO2 P0001 TSNO
94908KDBQ DBQ20050220012517202/20/05 01:25:31  5-MIN KDBQ 200725Z AUTO 14015KT 3SM -SNO 0740Z AUTO 14014KT 2 1/2SM -SN BR BKN007 OVC013 M01/M02 A3001 1000 92 -600 140/14 RMK AO2 CIG 005V011 P0001 TSNO
94908KDBQ DBQ20050220014518802/20/05 01:45:31  5-MIN KDBQ 200745Z AUTO 14016G19KT 3SM -SN BR OVC007 M01/M02 A3000 1000 92 -600 140/16G19 RMK AO2 CIGSNO A3000 1000 92 -600 140/15 RMK AO2 SNE0758 CIG 005V010 P0000 TSNO
94908KDBQ DBQ20050220020513702/20/05 02:05:31  5-MIN KDBQ 200805Z AUTO 14015KT 5SM BR OVC007 M01/M02 A3000 1010 92 -600 140/15 RMK AO2 SNE0758 CIG 005V010 P0000 TSNO
94908KDBQ DBQ20050220021003202/20/05 02:10:31  5-MIN KDBQ 20
94908KDBQ DBQ20050220022515002/20/05 02:25:31  5-MIN KDBQ 200825Z AUTO 14014G19KT 3SM -SN BR OVC007 M01/M02 A2999 1010 92 -500 140/14G19 RMK AO2 SNE0758B15 CIG 005V010 P0000 TSNO
94908KDBQ DBQ20050220023018102/20/05 02:30:31  5-MIN KDBQ 200830Z AUTO 14015G20KT 3SM BR OVC007 M01/M02 A2999 1NOKT 3SM -SN BR OVC007 M01/M02 A2998 1030 92 -500 140/15 RMK AO2 SNE0758B15 CIG 005V010 P0000 TSNO
94908KDBQ DBQ20050220025023902/20/05 02:50:31  5-MIN KDBQ 200850Z AUTO 14014KT 2 1/2SM -SN BR OVC007 M01/M02 A2998 1030 92 -500 140/14 RMK AO2 SNE0758B15 CIG 005V010 0905Z AUTO 13012KT 3SM -SN BR OVC007 M01/M02 A2996 1040 92 -500 130/12 RMK AO2 CIG 005V010 P0000 TSNO
94908KDBQ DBQ20050220031018402/20/05 03:10:31  5-MIN KDBQ 200910Z AUTO 13014KT 3SM -SN BR OVC007 M01/M02 A2996 1040 92 -500 130/14 RMK AO2 P0000 TSNO 02/20/05C005A2995 1050 92 -500 130/12 RMK AO2 SNE30 P0000 TSNO
94908KDBQ DBQ20050220033512302/20/05 03:35:31  5-MIN KDBQ 200935Z AUTO 14011KT 4SM BR OVC005 M01/M02 A2995 1050 92 -500 140/11 RMK AO2 SNE30 P0001 TSNO
94908KDBQ DBQ20050220034016902/20/05 03:40:31  5-MIN KDBQ 200940Z AUTO 13013KT 4SM -TSNO 0955Z AUTO 14012KT 4SM BR OVC005 M01/M01 A2995 1050 96 -500 140/12 RMK AO2 SNE45 SLP153 P0001 T10061011 TSNO
94908KDBQ DBQ20050220040011102/20/05 04:00:31  5-MIN KDBQ 201000Z AUTO 14012KT 4SM BR OVC003 M01/M01 A2995 1050 96 -500 140/12 RMK AO2 TSNO
94908KDBQ DBQ20050220042507102/20/05 04:25:31  5-MIN KDBQ 201025Z AUTO 13012G20KT 2 1/2SM BR OVC003
94908KDBQ DBQ20050220044511002/20/05 04:45:31  5-MIN KDBQ 201045Z AUTO 13010KT 3SM BR OVC003 00/M01 A2992 1070 92 -400 130/10 RMK AO2 TSNO
94908KDBQ DBQ20050220045023702/20/05 04:50:31  5-MIN KDBQ 201050Z AUTO 13013KT 3SM BR OVC003 00/M01 A2992 1080 92 -400 130/13 RMK AO2 SLP143 T00001011 TSNO                                                        R OVC003 00/M01 A2992 1080 96 -400 140/12 RMK AO2 TSNO
94908KDBQ DBQ20050220051511002/20/05 05:15:31  5-MIN KDBQ 201115Z AUTO 14011KT 3SM BR OVC003 00/M01 A2992 1080 96 -400 140/11 RMK AO2 TSNO
94908KDBQ DBQ20050220052011002/20/05 05:20:31  5-MIN KDBQ 201120Z AUTO 14013KT 3SM BR OVC003 00/M01 A2990 1090 96 -400 140/13 RMK AO2 TSNO
94908KDBQ DBQ20050220054512202/20/05 05:45:31  5-MIN KDBQ 201145Z AUTO 14013KT 3SM BR OVC003 00/M01 A2990 1100 96 -400 140/13 RMK AO2 CIG 002V007 TSNO
94908KDBQ DBQ20050220060012202/20/05 06:00:31  5-MIN KDBQ 201200Z AUTO 13012KT 3SM BR OVC003 00/M01 A2990 1100 96 -400 130/12 RMK AO2 CIG 003V007 TSNO
94908KDBQ DBQ20050220060507802/20/05 06:05:31  5-MIN KDBQ 201205Z AUTO 1301210 96 -400 130/14 RMK AO2 TSNO
94908KDBQ DBQ20050220062511002/20/05 06:25:31  5-MIN KDBQ 201225Z AUTO 14012KT 3SM BR OVC003 00/M01 A2988 1110 96 -400 130/12 RMK AO2 TSNO
94908KDBQ DBQ20050220063007102/20/05 06:30:31  5-MIN KDBQ 201230Z AUTO 14012KT 3SM BR OVC003 00/M01
94908KDBQ DBQ20050220065519802/20/05 06:55:31  5-MIN KDBQ 201255Z AUTO 14012KT 3SM BR OVC003 00/M01 A2988 1120 96 -400 140/12 RMK AO2 SLP129 T000010KT 2 1/2SM BR OVC003 00/M01 A2988 1110 96 -400 140/11 RMK AO2 CIG 003V008 TSNO
94908KDBQ DBQ20050220070510302/20/05 07:05:31  5-MIN KDBQ 20SM BR OVC003 00/M01  A2987 1130 96 -300 130/12 RMK AO2 CIG 003V007 TSNO
94908KDBQ DBQ20050220073012102/20/05 07:30:31  5-MIN KDBQ 201330Z AUTO 13009KT 1 1/2SM BR BKN003 OVC007 00/M01 A2987 1120 96 -300 130/09 RMK AO2 TSNO
94908KDBQ DBQ20050220073510302/20/05 07:35:31  5-MIN KDBQ 201335Z AUM01 10 96 -400 140/09 RMK AO2 CIG 003V008 SLP130 T00001006 TSNO
94908KDBQ DBQ20050220075512702/20/05 07:55:31  5-MIN KDBQ 201355Z AUTO 13010KT 2SM BR OVC003 00/M01 A2987 1130 96 -300 130/10 RMK AO2 SLP126 T00001006 TSNO
94908KDBQ DBQ20050220080008302/20/05 08:00:31  5-MIN KDBQ 201400Z AUTO 13012  RMK AO2 FZRAB12 PRESFR P0000 TSNO
94908KDBQ DBQ20050220082013402/20/05 08:20:31  5-MIN KDBQ 201420Z AUTO 12015KT 1 3/4SM -FZRA BR OVC003 00/M01 A2982 1170 96 -300 120/15 RMK AO2 FZRAB12 P0001 TSNO
94908KDBQ DBQ20050220084513002/20/05 08:45:31  5-MIN KDBQ 201445Z AUTO 14011KT 4SM -FZRA BR OVC003 00/M01 A2983 1160 96 -300 140/11 RMK AO2 FZRAB12 P0001 TSNO
94908KDBQ DBQ20050220091011402/20/05 09:10:31  5-MIN KDBQ 201510Z 13011KT 4SM BR OVC003 00/M01 A2981 1180 96 -300 120/11 RMK AO2 FZRAE05 P0000
94908KDBQ DBQ20050220093511402/20/05 09:35:31  5-MIN KDBQ 201535Z 12007KT 3SM BR OVC003 00/00 A2981 1180 100 -300 120/07 RMK AO2 FZRAE05 P0000
94908KDBQ DBQ20050220094009902/20/05 09:40:31  5-MIN0/00 A2980 1190 100 -300 110/07 RMK AO2 UPB48FZRAE05 SLP104 P0000 T00000000
94908KDBQ DBQ20050220100010902/20/05 10:00:31  5-MIN KDBQ 201600Z 12006KT 4SM UP BR OVC003 00/00 A2980 1190 100 -300 120/06 RMK AO2 P0001
94908KDBQ DBQ20050220100505002/20/05 10:05:31  5-MIN KDBQ 201605Z 12007KT 3S01
94908KDBQ DBQ20050220103010802/20/05 10:30:31  5-MIN KDBQ 201630Z 09007KT 3SM UP BR OVC003 01/00 A2977 1220 96 -200 090/07 RMK AO2 P0004
94908KDBQ DBQ20050220103505102/20/05 10:35:31  5-MIN AO2 SLP092 P0006 T00061006
94908KDBQ DBQ20050220105513802/20/05 10:55:31  5-MIN KDBQ 201655Z 12009KT 5SM -RA BR OVC003 01/M01 A2976 1230 92 -100 120/09 RMK AO2 UPE54RAB54 SLP088 P0006 T00061006
94908KDBQ DBQ20050220110007002/20/05 11:00:31  5-MIN KDBQ 201700Z 12009KT 5SM -RA BR OVC003 01/M01
94908KDBQ DBQ20050220112011802/20/05 11:20:31  5-MIN KDBQ 201720Z 13005KT 4SM -RA BR OVC003 01/00 A2976 1230 96 -100 130/05 RMK AO2 UPB04E18 P0000
94908KDBQ DBQ20050220112517902/20/05 11:25:31  5-MIN KDBQ 201725Z 10004KT 4SM -RA BR OVC003 01/00 A2976 1230 96 -100 100/04 RMK AO2 UPB04E18 P0000  01/00 A2976 1230 96 -100 090/06 RMK AO2 RAE38UPB04E18 P0000
94908KDBQ DBQ20050220113011802/20/05 11:30:31  5-MIN KDBQ 201730Z 08004KT 5SM -RA BR OVC003 01/00 A2976 1230 96 -100 080/04 RMK AO2 UPB04E18 P0000
94908KDBQ DBQ20050220113511802/20/05 11:35:31  5-MIN KDBQ 201735Z 08005KT 6SM -RA BR OVC003 01/00 A2976 1230 96 -100 080/05 RMK AO2 UPB04E18 P0000
94908KDBQ DBQ20050220114011602/20/05 11:40:31  5-MIN KDBQ 201740Z 08005KT 7SM OVC003 01/00 A2976 1230 96 -100 080/05 RMK AO2 RAE38UPB04E18 P0000
94908KDBQ DBQ20050220114511602/20/05 11:45:31  5-MIN KDBQ 201745Z 09006KT 7SM OVC003 01/00 A2976 1230 96 -100 090/06 RMK AO2 RAE38UPB04E18 P0000
94908KDBQ DBQ20050220115015702/20/05 11:50:31  5-MIN KDBQ 201750Z 10006KT 7SM OVC003 01/00 A2975 1240 96 -100 100/06 RMK AO2 RAE38UPB04E18 SLP085 P0000 60007 T00060000 10006 20000 58026
94908KDBQ DBQ20050220115516002/20/05 11:55:31  5-MIN KDBQ 201755Z 11006KT 6SM BR OVC003 01/00 A2974 1240 96 -100 110/06 RMK AO2 RAE38UPB04E18 SLP083 P0000 60007 T00060000 10006 20000 56025
94908KDBQ DBQ20050220120011402/20/05 12:00:31  5-MIN KDBQ 201800Z 11005KT 4SM UP BR OVC003 01/00 A2974 1240 96 -100 110/05 RMK AO2 UPB00 P0000
94908KDBQ DBQ20050220120511802/20/05 12:05:31  5-MIN KDBQ 201805Z 11005KT 2 1/2SM UP BR OVC003 01/00 A2974 1240 96 -100 110/05 RMK AO2 UPB00 P0000
94908KDBQ DBQ20050220121012702/20/05 12:10:31  5-MIN KDBQ 201810Z 10005KT 1 1/2SM -RA BR OVC003 01/00 A2973 1250 96 -100 100/05 RMK AO2 UPB00E07RAB07 P0001
94908KDBQ DBQ20050220121512702/20/05 12:15:31  5-MIN KDBQ 201815Z 11006KT 1 1/2SM -RA BR OVC003 01/00 A2973 1250 96 -100 110/06 RMK AO2 UPB00E07RAB07 P0001
94908KDBQ DBQ20050220122012702/20/05 12:20:31  5-MIN KDBQ 201820Z 11006KT 1 1/2SM -RA BR OVC003 01/00 A2973 1260 96 -100 110/06 RMK AO2 UPB00E07RAB07 P0002
94908KDBQ DBQ20050220124511902/20/05 12:45:31  5-MIN KDBQ 201845Z 12005KT 2 1/2SM BR BKN003 BKN007 -100 110/06 RMK AO21280 96 -100 120/05 RMK AO2 U
94908KDBQ DBQ20050220130511402/20/05 13:05:31  5-MIN KDBQ 201905Z 11005KT 3SM UP BR OVC003 01/00 A2969 1290 96 -100 100/05 RMK AO2 UPB03 P0000
94908KDBQ DBQ20050220131010002/20/05 13:10:31  5-MIN KDBQ 201910Z 11004KT 3SM UP BR BKN003 OVC007 01/00 A2969 1300 96 -100 110/5
94908KDBQ DBQ20050220133511002/20/05 13:35:31  5-MIN KDBQ 201935Z 00000KT 3SM -RA BR OVC003 01/01 A2969  1290 100 -100 000/00 RMK AO2 UP01
94908KDBQ DBQ20050220140010502/20/05 14:00:31  5-MIN KDBQ 202000Z 35004KT 4SM UP BR OVC003 01/00 A2968 1300 92 0 350/04 RMK AO2 P0000
94908KDBQ DBQ20050220140508702/20/05 14:05:31  5-MIN968 1300 96 -100 010/04 RMK AO2 UPE17RAB02E14 CIG 001V006 P0000
94908KDBQ DBQ20050220143013502/20/05 14:30:31  5-MIN KDBQ 202030Z 01004KT 2 1/2SM BR OVC003 01/00 A2968 1300 96 -100 010/04 RMK AO2 UPE17RAB02E14 CIG 001V006 P0000
94908KDBQ DBQ20050220143515202/20/05 14:35:31  5-MIN KDBQ 202035Z 36 /00 A29681300 96 -100 360/03 RMK AO2 UPE17B38E48RAB02E14B48E49 SLP063 R36RVR 2400FT P0000 60004 T00060000 56025
94908KDBQ DBQ20050220145514302/20/05 14:55:31  5-MIN KDBQ 202055Z 35004KT 1/2SM FG OVC001 01/00 A2968 1300 96 -100 350/04 RMK AO2 UPE17B38E48RAB02E14B AO2 RAB2056E05 P0000
94908KDBQ DBQ20050220151511702/20/05 15:15:31  5-MIN KDBQ 202115Z 36004KT 1/4SM FG VV001 01/00 A2969 1290 96 -100 360/04 RMK AO2 RAB2056E05 P0000
94908KDBQ DBQ20050220152018302/20/05 15:20:31  5-MIN KDBQ 202120Z 35005KT 1/4SM FG VV001 01/00 A2969 1290 96 -100 350/05 RMK 2140Z 01004KT 1/4SM FG VV001 01/01 A2968 1300 100 -100 010/04 RMK AO2 RAB2056E05 P0000
94908KDBQ DBQ20050220154511802/20/05 15:45:31  5-MIN KDBQ 202145Z 35003KT 1/4SM FG VV001 01/01 A2968 1300 100 -100 350/03 RMK AO2 RAB2056E05 P0000
94908KDBQ DBQ20050220155004402/20/05 15:50:31  5-MIN KDBQ 200/05 RMK AO2
94908KDBQ DBQ20050220161011502/20/05 16:10:31  5-MIN KDBQ 202210Z 32006KT 1/4SM FG VV001 01/01 A2969 1290 100 -100 320/06 RMK AO2 R36RVR 2000FT
94908KDBQ DBQ20050220161519902/20/05 16:15:31  5-MIN KDBQ 202215Z 33004KT 1/4SM FG VV001 01/01 A2969 1290 100 -100 330/04 RMK AO2 R36FT  KDBQ 202235Z 33005KT 1/4SM FG VV001 01/01 A2970 1290 100 -100 330/05 RMK AO2 R36RVR 2000FT
94908KDBQ DBQ20050220164011502/20/05 16:40:31  5-MIN KDBQ 202240Z 33006KT 1/4SM FG VV001 01/01 A2970 1280 100 -100 330/06 RMK AO2 R36RVR 2000FT
94908KDBQ DBQ20050220164506902/20/05 16:45:31  5-MIN KDBQ 20/00 A2971 1280 96 -100 340/07 RMK AO2
94908KDBQ DBQ20050220170510202/20/05 17:05:31  5-MIN KDBQ 202305Z 34007KT 1/2SM FG OVC001 01/01 A2971 1280 100 -100 340/07 RMK AO2
94908KDBQ DBQ20050220171011802/20/05 17:10:31  5-MIN KDBQ 202310Z 33006KT 1/2SM FG OVC001 01/01 A2971 1270 100 -100 331 0/06 RMK AO2 R36RVR 2400FT
94908KDBQ DBQ20050220173511602/20/05 17:35:31  5-MIN KDBQ 202335Z 32006KT 1/4SM FG OVC001 01/01 A2973 1260 100 -100 320/06 RMK AO2 R36RVR 2400FT
94908KDBQ DBQ20050220174017602/20/05 17:40:31  5-MIN KDBQ 202340Z 32006KT 1/4SM FG OVC001 01/01 A2973 1250 100 -100 32FT 1250 100 -100 310/07 RMK AO2 SLP082 R36RVR 2400FT 60004 T00060006 10011 20006 53018
94908KDBQ DBQ20050220180010002/20/05 18:00:31  5-MIN KDBQ 210000Z 31008KT 1SM BR OVC001 01/01 A2974 1250 100 -100 310/08 RMK AO2
94908KDBQ DBQ20050220180509202/20/05 18:05:31  5-MIN KDBQ 210005Z 31006KT 3/4 1250 100 -100 320/04 RMK AO2 R36RVR 4500FT
94908KDBQ DBQ20050220182511402/20/05 18:25:31  5-MIN KDBQ 210025Z 32005KT 1SM BR OVC001 01/01 A2974 1250 100 -100 320/05 RMK AO2 R36RVR 4500FT
94908KDBQ DBQ20050220183011402/20/05 18:30:31  5-MIN KDBQ 210030Z 31007KT 1SM BR OVC001 01/01 A2974 1240 100 -100 310/07 RMK AO2 R36RVR 4500FT
94908KDBQ DBQ20050220183511702/20/05 18:35:31  5-MIN KDBQ 210035Z 30006KT 1 1/4SM BR OVC001 01/00 A2975 1240 96 -100 300/06 RMK AO2 R36RVR 4500FT
94908KDBQ DBQ20050220184011302/20/05 18:40:31  5-MIN KDBQ 210040Z 30008KT 1SM BR OVC001 01/00 A2975 1230 96 -100 300/08 RMK AO2 R36RVR 4500FT
94908KDBQ DBQ20050220184511302/20/05 18:45:31  5-MIN KDBQ 210045Z 30008KT 1SM BR OVC001 01/00 A2976 1230 96 -100 300/08 RMK AO2 R36RVR 4500FT
94908KDBQ DBQ20050220185013002/20/05 18:50:31  5-MIN KDBQ 210050Z 30009KT 1SM BR OVC001 01/00 A2976 1230 96 -100 300/09 RMK AO2 SLP089 R36RVR 4500FT T00060000
94908KDBQ DBQ20050220185513002/20/05 18:55:31  5-MIN KDBQ 210055Z 29008KT 1SM BR OVC001 01/00 A2977 1220 96 -200 290/08 RMK AO2 SLP090 R36RVR 4500FT T00060000
94908KDBQ DBQ20050220190010302/20/05 19:00:31  5-MIN KDBQ 210100Z 29009KT 1 1/4SM BR OVC001 01/00 A2977 1220 96 -200 290/09 RMK AO2
94908KDBQ DBQ20050220190510302/20/05 19:05:31  5-MIN KDBQ 210105Z 29007KT 1 3/4SM BR OVC001 01/00 A2977 1220 96 -200 290/07 RMK AO2
94908KDBQ DBQ20050220191009902/20/05 19:10:31  5-MIN KDBQ 210110Z 29008KT 2SM BR OVC001 01/00 A2977 1210 96 -200 290/08 RMK AO2
94908KDBQ DBQ20050220191511302/20/05 19:15:31  5-MIN KDBQ 210115Z AUTO 29010KT 2 1/2SM BR OVC001 01/00 A2978 1210 96 -200 290/10 RMK AO2 TSNO
94908KDBQ DBQ20050220192010902/20/05 19:20:31  5-MIN KDBQ 210120Z AUTO 30010KT 4SM BR OVC001 01/00 A2978 1210 96 -200 300/10 RMK AO2 TSNO
94908KDBQ DBQ20050220192512102/20/05 19:25:31  5-MIN KDBQ 210125Z AUTO 30010KT 5SM BR OVC001 01/00 A2978 1210 96 -200 300/10 RMK AO2 CIG 001V006 TSNO
94908KDBQ DBQ20050220193012102/20/05 19:30:31  5-MIN KDBQ 210130Z AUTO 31010KT 5SM BR OVC003 01/00 A2978 1210 96 -200 310/10 RMK AO2 CIG 001V006 TSNO
94908KDBQ DBQ20050220193512102/20/05 19:35:31  5-MIN KDBQ 210135Z AUTO 31009KT 6SM BR OVC003 01/00 A2978 1210 96 -200 310/09 RMK AO2 CIG 001V006 TSNO
94908KDBQ DBQ20050220194012102/20/05 19:40:31  5-MIN KDBQ 210140Z AUTO 30008KT 6SM BR OVC003 01/00 A2978 1210 96 -200 300/08 RMK AO2 CIG 002V006 TSNO
94908KDBQ DBQ20050220194510902/20/05 19:45:31  5-MIN KDBQ 210145Z AUTO 30007KT 6SM BR OVC003 01/00 A2978 1200 96 -200 300/07 RMK AO2 TSNO
94908KDBQ DBQ20050220195012602/20/05 19:50:31  5-MIN KDBQ 210150Z AUTO 30007KT 6SM BR OVC003 01/00 A2978 1210 96 -200 300/07 RMK AO2 SLP096 T00060000 TSNO
94908KDBQ DBQ20050220195512602/20/05 19:55:31  5-MIN KDBQ 210155Z AUTO 31009KT 5SM BR OVC003 01/00 A2979 1200 96 -200 310/09 RMK AO2 SLP098 T00060000 TSNO
94908KDBQ DBQ20050220200010902/20/05 20:00:31  5-MIN KDBQ 210200Z AUTO 31007KT 5SM BR OVC003 01/00 A2979 1200 96 -200 310/07 RMK AO2 TSNO
94908KDBQ DBQ20050220200511002/20/05 20:05:31  5-MIN KDBQ 210205Z AUTO 31007KT 4SM BR OVC003 01/01 A2979 1200 100 -200 310/07 RMK AO2 TSNO
94908KDBQ DBQ20050220201011002/20/05 20:10:31  5-MIN KDBQ 210210Z AUTO 30008KT 4SM BR OVC003 01/01 A2979 1190 100 -200 300/08 RMK AO2 TSNO
94908KDBQ DBQ20050220201511002/20/05 20:15:31  5-MIN KDBQ 210215Z AUTO 30008KT 3SM BR OVC003 01/01 A2980 1190 100 -200 300/08 RMK AO2 TSNO
94908KDBQ DBQ20050220202011402/20/05 20:20:31  5-MIN KDBQ 210220Z AUTO 30008KT 2 1/2SM BR OVC003 01/01 A2980 1190 100 -200 300/08 RMK AO2 TSNO
94908KDBQ DBQ20050220202511002/20/05 20:25:31  5-MIN KDBQ 210225Z AUTO 30008KT 2SM BR OVC003 01/01 A2980 1190 100 -200 290/08 RMK AO2 TSNO
94908KDBQ DBQ20050220203011402/20/05 20:30:31  5-MIN KDBQ 210230Z AUTO 29008KT 1 3/4SM BR OVC003 01/01 A2980 1190 100 -200 290/08 RMK AO2 TSNO
94908KDBQ DBQ20050220203511402/20/05 20:35:31  5-MIN KDBQ 210235Z AUTO 30008KT 1 1/2SM BR OVC003 01/01 A2981 1180 100 -200 300/08 RMK AO2 TSNO
94908KDBQ DBQ20050220204011402/20/05 20:40:31  5-MIN KDBQ 210240Z AUTO 30009KT 1 3/4SM BR OVC003 01/01 A2981 1180 100 -200 300/09 RMK AO2 TSNO
94908KDBQ DBQ20050220204511402/20/05 20:45:31  5-MIN KDBQ 210245Z AUTO 30010KT 1 3/4SM BR OVC003 01/01 A2981 1180 100 -200 300/10 RMK AO2 TSNO
94908KDBQ DBQ20050220205013702/20/05 20:50:31  5-MIN KDBQ 210250Z AUTO 30008KT 1 3/4SM BR OVC003 01/01 A2981 1180 100 -200 300/08 RMK AO2 SLP106 T00060006 53018 TSNO
94908KDBQ DBQ20050220205513302/20/05 20:55:31  5-MIN KDBQ 210255Z AUTO 30009KT 2SM BR OVC003 01/01 A2981 1180 100 -200 300/09 RMK AO2 SLP107 T00060006 52024 TSNO
94908KDBQ DBQ20050220210011302/20/05 21:00:31  5-MIN KDBQ 210300Z AUTO 31009KT 2 1/2SM BR OVC003 01/01 A2981 1180 96 -100 300/09 RMK AO2 TSNO
94908KDBQ DBQ20050220210511302/20/05 21:05:31  5-MIN KDBQ 210305Z AUTO 30007KT 2 1/2SM BR OVC003 01/01 A2982 1170 96 -100 300/07 RMK AO2 TSNO
94908KDBQ DBQ20050220211010902/20/05 21:10:31  5-MIN KDBQ 210310Z AUTO 31009KT 3SM BR OVC003 01/01 A2982 1170 96 -100 300/09 RMK AO2 TSNO
94908KDBQ DBQ20050220211510902/20/05 21:15:31  5-MIN KDBQ 210315Z AUTO 31008KT 3SM BR OVC003 01/01 A2982 1170 96 -100 300/08 RMK AO2 TSNO
94908KDBQ DBQ20050220212010902/20/05 21:20:31  5-MIN KDBQ 210320Z AUTO 31009KT 3SM BR OVC003 01/01 A2982 1170 96 -100 300/09 RMK AO2 TSNO
94908KDBQ DBQ20050220212510902/20/05 21:25:31  5-MIN KDBQ 210325Z AUTO 31008KT 3SM BR OVC003 01/01 A2983 1170 96 -200 310/08 RMK AO2 TSNO
94908KDBQ DBQ20050220213010902/20/05 21:30:31  5-MIN KDBQ 210330Z AUTO 30008KT 3SM BR OVC003 01/01 A2983 1160 96 -200 300/08 RMK AO2 TSNO
94908KDBQ DBQ20050220213510902/20/05 21:35:31  5-MIN KDBQ 210335Z AUTO 30007KT 3SM BR OVC003 01/01 A2983 1160 96 -200 300/07 RMK AO2 TSNO
94908KDBQ DBQ20050220214010902/20/05 21:40:31  5-MIN KDBQ 210340Z AUTO 30008KT 3SM BR OVC003 01/01 A2983 1160 96 -200 300/08 RMK AO2 TSNO
94908KDBQ DBQ20050220214512102/20/05 21:45:31  5-MIN KDBQ 210345Z AUTO 30008KT 3SM BR OVC003 01/01 A2983 1160 96 -200 300/08 RMK AO2 CIG 002V007 TSNO
94908KDBQ DBQ20050220215013802/20/05 21:50:31  5-MIN KDBQ 210350Z AUTO 30008KT 4SM BR OVC003 01/01 A2983 1160 96 -200 300/08 RMK AO2 CIG 002V007 SLP113 T00110006 TSNO
94908KDBQ DBQ20050220215513802/20/05 21:55:31  5-MIN KDBQ 210355Z AUTO 31008KT 4SM BR OVC003 01/01 A2983 1160 96 -200 310/08 RMK AO2 CIG 002V007 SLP114 T00110006 TSNO
94908KDBQ DBQ20050220220012102/20/05 22:00:31  5-MIN KDBQ 210400Z AUTO 31009KT 4SM BR OVC003 01/01 A2983 1160 96 -200 310/09 RMK AO2 CIG 002V008 TSNO
94908KDBQ DBQ20050220220512102/20/05 22:05:31  5-MIN KDBQ 210405Z AUTO 31010KT 4SM BR OVC005 01/01 A2984 1160 96 -200 310/10 RMK AO2 CIG 003V009 TSNO
94908KDBQ DBQ20050220221012802/20/05 22:10:31  5-MIN KDBQ 210410Z AUTO 32009KT 4SM BR BKN005 OVC009 01/01 A2984 1160 96 -200 320/09 RMK AO2 CIG 003V007 TSNO
94908KDBQ DBQ20050220221512102/20/05 22:15:31  5-MIN KDBQ 210415Z AUTO 32009KT 5SM BR OVC007 01/01 A2984 1150 96 -200 320/09 RMK AO2 CIG 003V011 TSNO
94908KDBQ DBQ20050220222012102/20/05 22:20:31  5-MIN KDBQ 210420Z AUTO 32011KT 5SM BR OVC007 01/01 A2984 1150 96 -200 320/11 RMK AO2 CIG 003V011 TSNO
94908KDBQ DBQ20050220222512102/20/05 22:25:31  5-MIN KDBQ 210425Z AUTO 32012KT 5SM BR OVC007 01/00 A2984 1150 92 -200 320/12 RMK AO2 CIG 005V011 TSNO
94908KDBQ DBQ20050220223012102/20/05 22:30:31  5-MIN KDBQ 210430Z AUTO 32012KT 6SM BR OVC007 01/00 A2984 1150 92 -200 320/12 RMK AO2 CIG 005V011 TSNO
94908KDBQ DBQ20050220223512102/20/05 22:35:31  5-MIN KDBQ 210435Z AUTO 32014KT 6SM BR OVC007 01/00 A2984 1150 92 -200 320/14 RMK AO2 CIG 005V010 TSNO
94908KDBQ DBQ20050220224012102/20/05 22:40:31  5-MIN KDBQ 210440Z AUTO 31012KT 6SM BR OVC007 01/00 A2985 1150 92 -200 310/12 RMK AO2 CIG 005V010 TSNO
94908KDBQ DBQ20050220230010602/20/05 23:00:31  5-MIN KDBQ 210500Z AUTO 32011KT 7SM OVC007 01/00 A2985 1140 92 -200 320/11 RMK AO2 TSNO
94908KDBQ DBQ20050220230513602/20/05 23:05:31  5-MIN KDBQ 210505Z AUTO 32010KT 7SM OVC007 016 KT 7SM OVC007 01/00 A2985 1140 92 -200 320/10 RMK AO2 CIG 007V012 TSNO
94908KDBQ DBQ20050220233011802/20/05 23:30:31  5-MIN KDBQ 210530Z AUTO 32009KT 7SM OVC010 01/00 A2986 1140 92 -200 310/09 RMK AO2 CIG 007V013 TSNO
94908KDBQ DBQ20050220233508302/20/05 23:35:31  5-MIN KDBQ 210535Z AUTO 3201000 10011 20006 400111006 52024 TSNO
94908KDBQ DBQ20050220235515202/20/05 23:55:31  5-MIN KDBQ 210555Z AUTO 32008KT 8SM OVC014 01/M01 A2986 1140 89 -200 320/08 RMK AO2 SLP121 T00111006 10011 20006 400111006 51015 TSNO
94908KDBQ DBQ20050221000015502/21/05 00:00:38  5-MIN KDBQ 210600Z AUTO 3300902/21/05 00:20:31  5-MIN KDBQ 210620Z AUTO 32013KT 9SM OVC012 01/M01 A2987 1130 89 -200 320/13 RMK AO2 TSNO
94908KDBQ DBQ20050221002510702/21/05 00:25:31  5-MIN KDBQ 210625Z AUTO 32009KT 9SM OVC012 01/M01 A2987 1130 89 -200 320/09 RMK AO2 TSNO
94908KDBQ DBQ20050221003007402/21/05 00:30:31  5-MIN KDBQ 210630Z AUTO 31012KT 9SM OVC012 01/M01 A2987
94908KDBQ DBQ20050221010014302/21/05 01:00:31  5-MIN KDBQ 210700Z AUTO 32011KT 7SM OVC008 01/M01 A2987 1130 89 -200 320/11 RMK AO2 TSNO 02/21/05 01:05:387 /11 RMK AO2 TSNO
94908KDBQ DBQ20050221012510702/21/05 01:25:31  5-MIN KDBQ 210725Z AUTO 32011KT 7SM OVC008 01/M01 A2988 1120 89 -200 320/11 RMK AO2 TSNO
94908KDBQ DBQ20050221013015702/21/05 01:30:31  5-MIN KDBQ 210730Z AUTO 32009KT 7SM OVC008 01/M01 A2988 1120 89 -200 320/09 RMK AO2 TSNO 1110 89 -300 310/11 RMK AO2 SLP130 T00061011 TSNO
94908KDBQ DBQ20050221015512402/21/05 01:55:31  5-MIN KDBQ 210755Z AUTO 30011KT 7SM OVC008 01/M01 A2989 1110 89 -300 300/11 RMK AO2 SLP131 T00061011 TSNO
94908KDBQ DBQ20050221020009902/21/05 02:00:31  5-MIN KDBQ 210800Z AUTO 31010KT 7SM OVC008 0189 1100 89 -300 320/12 RMK AO2 TSNO
94908KDBQ DBQ20050221022510702/21/05 02:25:31  5-MIN KDBQ 210825Z AUTO 33010KT 7SM OVC010 01/M01 A2989 1110 89 -300 330/10 RMK AO2 TSNO
94908KDBQ DBQ20050221023015202/21/05 02:30:31  5-MIN KDBQ 210830Z AUTO 33010KT 7SM OVC010 01/M01 A2989 1110 89 -300 330A2989 1110 89 -300 320/08 RMK AO2 SLP134 T00061011 51015 TSNO
94908KDBQ DBQ20050221025513302/21/05 02:55:31  5-MIN KDBQ 210855Z AUTO 31008KT 6SM BR OVC008 01/M01 A2989 1110 89 -300 300/08 RMK AO2 SLP134 T00061011 51011 TSNO
94908KDBQ DBQ20050221030011902/21/05 03:00:31  5-MIN KDBQ 210900Z AU 0920Z AUTO 32008KT 6SM BR OVC008 01/M01 A2990 1100 89 -300 320/08 RMK AO2 TSNO
94908KDBQ DBQ20050221032511002/21/05 03:25:31  5-MIN KDBQ 210925Z AUTO 34011KT 6SM BR OVC008 01/M01 A2990 1090 89 -300 340/11 RMK AO2 TSNO
94908KDBQ DBQ20050221033017502/21/05 03:30:31  5-MIN KDBQ 210930Z AUTO 3301002/21/05 03:50:31  5-MIN KDBQ 210950Z AUTO 31005KT 6SM BR OVC010 00/M01 A2990 1090 92 -400 310/05 RMK AO2 SLP138 T00001011 TSNO
94908KDBQ DBQ20050221035512702/21/05 03:55:31  5-MIN KDBQ 210955Z AUTO 32007KT 6SM BR OVC010 00/M01 A2991 1090 92 -400 320/07 RMK AO 00 310/09 RMK AO2 TSNO
94908KDBQ DBQ20050221042011002/21/05 04:20:31  5-MIN KDBQ 211020Z AUTO 30010KT 5SM BR OVC008 00/M02 A2992 1080 88 -400 300/10 RMK AO2 TSNO
94908KDBQ DBQ20050221042511002/21/05 04:25:31  5-MIN KDBQ 211025Z AUTO 30009KT 5SM BR OVC008 00/M02 A2992 1070 88 -400 300/09 RMK AO2 TSNO
94908KDBQ DBQ20050221043016502/21/05 04:30:31  5-MIN KDBQ 211030Z AUTO 31008KT 5SM BR OVC008 00/M02 A2993 1070 88 -400 310/08 RMK AO2 TSNO 02/21/05 04:35:3A2993 1070 88 -400 310/08 RMK AO2 TSNO
94908KDBQ DBQ20050221044011002/21/05 04:40:31  5-MIN KDBQ 211040Z AUTO 30008KT 5SM BR OVC008 00/M02 A2993 1070 88 -400 300/08 RMK AO2 TSNO
94908KDBQ DBQ20050221044513802/21/05 04:45:31  5-MIN KDBQ 211045Z AUTO 31008KT 5SM BR OVC008 00/M02 A2993 1070 88 -4A2993 1070 88 -500 320/10 RMK AO2 CIG 008V011 TSNO
94908KDBQ DBQ20050221050512302/21/05 05:05:31  5-MIN KDBQ 211105Z AUTO 31010KT 6SM BR OVC010 M01/M02 A2993 1070 88 -500 310/10 RMK AO2 CIG 008V012 TSNO
94908KDBQ DBQ20050221051006602/21/05 05:10:31  5-MIN KDBQ 211110Z AUTO 31010KT 6SM BR OVC010NO
94908KDBQ DBQ20050221053012302/21/05 05:30:31  5-MIN KDBQ 211130Z AUTO 31010KT 5SM BR OVC010 M01/M02 A2994 1060 88 -500 300/10 RMK AO2 CIG 009V012 TSNO
94908KDBQ DBQ20050221053511202/21/05 05:35:31  5-MIN KDBQ 211135Z AUTO 31010KT 5SM BR OVC010 M01/M03 A2994 1060 85 -500 310/10 RMK AONO TSNO
94908KDBQ DBQ20050221055514202/21/05 05:55:31  5-MIN KDBQ 211155Z 30008KT 6SM BR OVC010 M01/M03 A2995 1050 88 -600 300/08 RMK AO2 SLP155 70011 T10111028 10011 21011 53021
94908KDBQ DBQ20050221060010102/21/05 06:00:31  5-MIN KDBQ 211200Z 30008KT 6SM BR OVC010 M01/M03 A2996 1040 88 -600 300/08 RMK AO2
94908KDBQ DBQ20050221060514902/21/05 06:05:31  5-MIN KDBQ 211205Z 29008KT 5S02/21/05 06:30:31  5-MIN KDBQ 211230Z 30009KT 5SM BR OVC008 M02/M03 A2997 1040 88 -700 300/09 RMK AO2
94908KDBQ DBQ20050221063510102/21/05 06:35:31  5-MIN KDBQ 211235Z 31009KT 5SM BR OVC008 M02/M03 A2997 1030 92 -700 300/09 RMK AO2
94908KDBQ DBQ20050221064006402/21/05 06:40:31  5-MIN KDBQ 21AO2 CIG 007V010 SLP164 T10171039
94908KDBQ DBQ20050221070011002/21/05 07:00:31  5-MIN KDBQ 211300Z 31010KT 7SM OVC008 M02/M04 A2998 1030 85 -700 310/10 RMK AO2 CIG 007V011
94908KDBQ DBQ20050221070509402/21/05 07:05:31  5-MIN KDBQ 211305Z 31009KT 7SM OVC010 M02/M04 A2998 1020 85 -700 310/09 011
94908KDBQ DBQ20050221073009302/21/05 07:30:31  5-MIN KDBQ 211330Z 5SM BR OVC010 M02/M04 A2998 1030 85 -700 M /M RMK AO2 $
94908KDBQ DBQ20050221073516602/21/05 07:35:31  5-MIN KDBQ 211335Z 5SM BR OVC010 M02/M04 A299 07:55:31  5-MIN KDBQ 211355Z 6SM BR OVC010 M02/M04 A2999 1020 85 -700 M /M RMK AO2 SLP167 T10171039 $
94908KDBQ DBQ20050221080009302/21/05 08:00:31  5-MIN KDBQ 211400Z 6SM BR OVC010 M02/M04 A2999 1010 85 -700 M /M RMK AO2 $
94908KDBQ DBQ20050221083009102/21/05 08:30:31  5-MIN KDBQ 211430Z 7SM OVC012 M02/M04 A2999 1010 81 -700  M /M RMK AO2 $
94908KDBQ DBQ20050221083509002/21/05 08:35:31  5-MIN KDBQ 211435Z 7SM OVC012 M02/M04 A2999 1010 81 -700 M /M RMK AO2 $
94908KDBQ DBQ20050221090009002/21/05 09:00:31  5-MIN KDBQ 211500Z 7SM OVC012 M02/M04 A3000 1010 81 -700 M /M RMK AO2 $
94908KDBQ DBQ20050221090509002/21/05 09:05:31  5-MIN KDBQ 211505Z 7SM OVC012 M02/M04 A3000 1000 81 -700 M /M RMK AO2 $
94908KDBQ DBQ20050221093508902/21/05 09:35:31  5-MIN KDBQ 211535Z 7SM OVC012 M02/M04 A3000 1000 81 -700  M /M RMK AO2
94908KDBQ DBQ20050221094009902/21/05 09:40:31  5-MIN KDBQ 211540Z 6SM HZ OVC012 M02/M04 A3001 1000 81 2 990 81-700 M /M RMK AO2
94908KDBQ DBQ20050221100509102/21/05 10:05:31  5-MIN KDBQ 211605Z 6SM HZ OVC012 M02/M04 A3001 1000 81 -700 M /M RMK AO2
94908KDBQ DBQ20050221101008802/21/05 10:10:31  5-MIN KDBQ 211610Z 7SM OVC012 M02/M04 A3001 1000 81 -700 M /M RMK AO2
94908KDBQ DBQ20050221101508702/21/05 10:15:31  5-MIN KDBQ 211615Z 7SM OVC012 M02/M05 A3001 990 78 -700 M /M RMK AO2
94908KDBQ DBQ20050221102008702/21/05 10:20:31  5-MIN KDBQ 211620Z 7SM OVC012 M02/M04 A3002 990 81 -700 M /M RMK AO2
94908KDBQ DBQ20050221102508702/21/05 10:25:31  5-MIN KDBQ 211625Z 7SM OVC012 M02/M05 A3002 990 78 -700 M /M RMK AO2
94908KDBQ DBQ20050221103008702/21/05 10:30:31  5-MIN KDBQ 211630Z 7SM OVC014 M02/M05 A3002 980 78 -700 M /M RMK AO2
94908KDBQ DBQ20050221103508702/21/05 10:35:31  5-MIN KDBQ 211635Z 7SM OVC014 M02/M05 A3003 980 78 -700 M /M RMK AO2
94908KDBQ DBQ20050221104008702/21/05 10:40:31  5-MIN KDBQ 211640Z 8SM OVC014 M02/M05 A3003 980 78 -700 M /M RMK AO2
94908KDBQ DBQ20050221104508702/21/05 10:45:31  5-MIN KDBQ 211645Z 8SM OVC014 M02/M05 A3003 980 78 -700 M /M RMK AO2
94908KDBQ DBQ20050221105010402/21/05 10:50:31  5-MIN KDBQ 211650Z 8SM OVC014 M02/M05 A3003 980 78 -700 M /M RMK AO2 SLP180 T10171050
94908KDBQ DBQ20050221110008702/21/05 11:00:31  5-MIN KDBQ 211700Z 8SM BKN014 M01/M05 A3003 980 75 -700 M /M RMK AO2
94908KDBQ DBQ20050221110512302/21/05 11:05:31  5-MIN KDBQ 211705Z 8SM OVC014 M02/M051730Z 34005KT 8SM OVC016 M01/M04 A3003 980 78 -700 340/05 RMK AO2 $
94908KDBQ DBQ20050221113509902/21/05 11:35:31  5-MIN KDBQ 211735Z 01007KT 8SM OVC016 M01/M05 A3004 970 75 -700 010/07 RMK AO2 $
94908KDBQ DBQ20050221114006602/21/05 11:40:31  5-MIN KDBQ 211740Z 35006KT 8SM OVC016 M01/M0470
94908KDBQ DBQ20050221120509702/21/05 12:05:31  5-MIN KDBQ 211805Z 34006KT 9SM BKN016 M01/M04 A3002 990 75 -600 340/06 RMK AO2
94908KDBQ DBQ20050221121007002/21/05 12:10:31  5-MIN KDBQ 211810Z 34005KT 8SM BKN016330/05 RMK AO2
94908KDBQ DBQ20050221123509702/21/05 12:35:31  5-MIN KDBQ 211835Z 35004KT 9SM OVC016 M01/M05 A3002 990 72 -600 350/04 RMK AO2
94908KDBQ DBQ20050221124009602/21/05 12:40:31  5-MIN KDBQ 211840Z 35006KT 9SM OVC018 00/M04 A3001 990 72 -500 340/06 RMK AO2
94908KDBQ DBQ20050221124513702/21/05 12:45:31  5-MIN KDBQ 211845Z VRB04KT 10SM BKN018 00/M04 A3001 990 000004KT 10SM BKN018 01/M04 A3001 1000  69 -400 010/04 RMK AO2
94908KDBQ DBQ20050221131509802/21/05 13:15:31  5-MIN KDBQ 211915Z 28003KT 10SM BKN018 00/M05 A3001 1000 69 -500 280/03 RMK AO2
94908KDBQ DBQ20050221132010102/21/05 13:20:31  5-MIN KDBQ 211920Z 30007KT 10SM FEW020 01/M04 A3001 1000010 66 -300 VRB/05 RMK AO2
94908KDBQ DBQ20050221134511402/21/05 13:45:31  5-MIN KDBQ 211945Z 31008KT 260V330 10SM FEW020 01/M04 A3000 1000 69 -400 300/08 260V330 RMK AO2
94908KDBQ DBQ20050221135009002/21/05 13:50:31  5-MIN KDBQ 211950Z 30005KT 10SM FEW020 01/M04 A3000 1000 69 -400 300/05
94908KDBQ DBQ20050221141009802/21/05 14:10:31  5-MIN KDBQ 212010Z 30006KT 10SM SCT022 01/M04 A3001 1000 69 -400 300/06 RMK AO2
94908KDBQ DBQ20050221141509802/21/05 14:15:31  5-MIN KDBQ 212015Z 28007KT 10SM SCT022 01/M04 A3001 1000 69 -400 280/07 RMK AO2
94908KDBQ DBQ20050221142006202/21/05 14:20:31  5-MIN KDBQ 21000 000 72 -400 280/07 RMK AO2
94908KDBQ DBQ20050221144509702/21/05 14:45:31  5-MIN KDBQ 212045Z 27006KT 10SM SCT022 01/M04 A3001 990 72 -400 270/06 RMK AO2
94908KDBQ DBQ20050221145017502/21/05 14:50:31  5-MIN KDBQ 212050Z 30006KT 10SM SCT022 01/M04 A3001 990 72 -400 300/06 RMK AO2 SLP174 T090 2110Z 26006KT 10SM FEW022 01/M04 A3002 990 72 -400 260/06 RMK AO2
94908KDBQ DBQ20050221151509702/21/05 15:15:31  5-MIN KDBQ 212115Z 28008KT 10SM FEW022 01/M04 A3002 980 72 -400 280/08 RMK AO2
94908KDBQ DBQ20050221152007802/21/05 15:20:31  5-MIN KDBQ 212120Z 27007KT 10SM FEW095 01/M03 A3002 9MK AO2
94908KDBQ DBQ20050221154509702/21/05 15:45:31  5-MIN KDBQ 212145Z 28006KT 10SM SCT110 01/M04 A3002 980 72 -400 280/06 RMK AO2
94908KDBQ DBQ20050221155011402/21/05 15:50:31  5-MIN KDBQ 212150Z 28005KT 10SM BKN120 01/M04 A3002 980 72 -400 280/05 RMK AO2 SLP178 T00061039
94908KDBQ DBQ20050221155511402/21/05 15:55:31  5-MIN KDBQ 212155Z 27007KT 10SM BKN120 01/M04 A3002 980 72 -500 270/07 RMK AO2 SLP179 T00061039
94908KDBQ DBQ20050221160009702/21/05 16:00:31  5-MIN KDBQ 212200Z 28006KT 10SM BKN120 01/M04 A3003 980 72 -500 280/06 RMK AO2
94908KDBQ DBQ20050221160509702/21/05 16:05:31  5-MIN KDBQ 212205Z 27006KT 10SM OVC110 01/M04 A3003 980 72 -500 260/06 RMK AO2
94908KDBQ DBQ20050221161009702/21/05 16:10:31  5-MIN KDBQ 212210Z 29006KT 10SM OVC110 01/M04 A3003 980 72 -500 290/06 RMK AO2
94908KDBQ DBQ20050221161509702/21/05 16:15:31  5-MIN KDBQ 212215Z 29006KT 10SM OVC110 01/M04 A3003 980 72 -500 290/06 RMK AO2
94908KDBQ DBQ20050221162009702/21/05 16:20:31  5-MIN KDBQ 212220Z 29006KT 10SM OVC100 01/M04 A3003 980 72 -500 290/06 RMK AO2
94908KDBQ DBQ20050221162509702/21/05 16:25:31  5-MIN KDBQ 212225Z 28006KT 10SM OVC100 01/M04 A3003 980 72 -500 280/06 RMK AO2
94908KDBQ DBQ20050221163009702/21/05 16:30:31  5-MIN KDBQ 212230Z 27005KT 10SM OVC100 01/M04 A3003 970 72 -500 270/05 RMK AO2
94908KDBQ DBQ20050221163509702/21/05 16:35:31  5-MIN KDBQ 212235Z 27005KT 10SM OVC100 01/M04 A3003 970 72 -500 270/05 RMK AO2
94908KDBQ DBQ20050221164009702/21/05 16:40:31  5-MIN KDBQ 212240Z 27005KT 10SM OVC100 01/M04 A3003 970 72 -500 270/05 RMK AO2
94908KDBQ DBQ20050221164509702/21/05 16:45:31  5-MIN KDBQ 212245Z 26006KT 10SM OVC100 01/M04 A3003 970 72 -500 260/06 RMK AO2
94908KDBQ DBQ20050221165011402/21/05 16:50:31  5-MIN KDBQ 212250Z 28005KT 10SM OVC100 01/M04 A3003 970 72 -500 280/05 RMK AO2 SLP182 T00061039
94908KDBQ DBQ20050221165511402/21/05 16:55:31  5-MIN KDBQ 212255Z 27004KT 10SM OVC100 01/M04 A3003 970 72 -500 270/04 RMK AO2 SLP182 T00061039
94908KDBQ DBQ20050221170009702/21/05 17:00:31  5-MIN KDBQ 212300Z 27004KT 10SM OVC100 01/M04 A3003 970 72 -500 270/04 RMK AO2
94908KDBQ DBQ20050221170509702/21/05 17:05:31  5-MIN KDBQ 212305Z 27004KT 10SM OVC100 01/M04 A3003 970 72 -500 270/04 RMK AO2
94908KDBQ DBQ20050221171015502/21/05 17:10:31  5-MIN KDBQ 212310Z 28004KT 10SM OVC100 01/M04 A3003 980 72 -500 280/04 RMK AO2 003KT 10SM OVC110 00/M04 A3003 970 75 -500 260/03 RMK AO2
94908KDBQ DBQ20050221173510402/21/05 17:35:31  5-MIN KDBQ 212335Z 27004KT 10SM FEW085 OVC110 00/M03 A3004 970 78 -500 270/04 RMK AO2
94908KDBQ DBQ20050221174013902/21/05 17:40:31  5-MIN KDBQ 212340Z 27005KT 10SM SCT085 OVC120 00/M03 A3004 970 78 -500 270/04 RMK AO2 SLP186 T00001033 10011 21011 51009
94908KDBQ DBQ20050221180009702/21/05 18:00:31  5-MIN KDBQ 220000Z 26003KT 10SM OVC075 00/M03 A3004 970 78 -500 260/03 RMK AO2
94908KDBQ DBQ20050221180509302/21/05 18:05:31  5-MIN KDBQ 220005Z 00000KT 10SM OVC075 00/M03 A3004 978 -500270/04 RMK AO2
94908KDBQ DBQ20050221182509702/21/05 18:25:31  5-MIN KDBQ 220025Z 27004KT 10SM OVC070 00/M03 A3005 960 78 -500 270/04 RMK AO2
94908KDBQ DBQ20050221183017902/21/05 18:30:31  5-MIN KDBQ 220030Z 28005KT 10SM OVC070 00/M03 A3005 960 78 -500 280/05 RMK AO2 02/21/05 18:35:30040Z 29006KT 10SM OVC070 00/M03 A3005 960 78 -600 290/06 RMK AO2
94908KDBQ DBQ20050221184512502/21/05 18:45:31  5-MIN KDBQ 220045Z 29006KT 10SM OVC070 00/M03 KT 10SM OVC065 00/M04 A3006  950 75 -600 340/03 RMK AO2 TSNO
94908KDBQ DBQ20050221191510702/21/05 19:15:31  5-MIN KDBQ 220115Z AUTO 34003KT 10SM OVC060 00/M04 A3005 950 75 -600 340/03 RMK AO2 TSNO
94908KDBQ DBQ20050221192006702/21/05 19:20:31  5-MIN KDBQ 220120Z AUTO 34004KT 10SM OVC060 0006
94908KDBQ DBQ20050221194011402/21/05 19:40:31  5-MIN KDBQ 220140Z AUTO 31005KT 10SM BKN050 OVC060 00/M03 A3006 950 78 -600 310/05 RMK AO2 TSNO
94908KDBQ DBQ20050221194520702/21/05 19:45:31  5-MIN KDBQ 220145Z AUTO 31008KT 10SM BKN050 OVC060 00/M03 A3006 950 78 -600 310/08 RMK AO2 TSNO 02/21/05 KDBQ 220205Z AUTO 31007KT 10SM OVC045 M01/M04 A3006 950 78 -600 310/07 RMK AO2 TSNO
94908KDBQ DBQ20050221201014902/21/05 20:10:31  5-MIN KDBQ 220210Z AUTO 31006KT 10SM OVC045 M01/M03 A3007 940 81 -600 310/06 RMK AO2 TSNO 0 350/06 RMK AO2 TSNOMIN KDBQ 220215Z AU
94908KDBQ DBQ20050221203510802/21/05 20:35:31  5-MIN KDBQ 220235Z AUTO 35006KT 10SM OVC043 M01/M04 A3007 940 75 -600 350/06 RMK AO2 TSNO
94908KDBQ DBQ20050221204010302/21/05 20:40:31  5-MIN KDBQ 220240Z AUTO 35006KT 10SM OVC043 M01/M04 T10061044 51012 TSNO0/06 RMK AO2
94908KDBQ DBQ20050221210010802/21/05 21:00:31  5-MIN KDBQ 220300Z AUTO 33007KT 10SM OVC043 M01/M04 A3008 930 75 -600 330/07 RMK AO2 TSNO
94908KDBQ DBQ20050221210519902/21/05 21:05:31  5-MIN KDBQ 220305Z AUTO 33008KT 10SM OVC043 M01/M05 A3008 930 72 -700 330/08 RMK AO2 TSNO TO 33005KT 3SM -SN BKN020 OVC043 M01/M04 A3008 930 78 -700 330/05 RMK AO2 SNB09 P0000 TSNO
94908KDBQ DBQ20050221211013002/21/05 21:10:31  5-MIN KDBQ 220310Z AUTO 32008KT 7SM -SN FEW030 OVC043 M01/M05 A3008 930 72 -700 320/08 RMK AO2 SNB09 P0000 TSNO
94908KDBQ DBQ20050221211513002/21/05 21:15:31  5-MIN KDBQ 220315Z AUTO 32008KT 5SM -SN SCT024 OVC043 M01/M04 A3008 930 75 -700 320/08 RMK AO2 SNB09 P0000 TSNO
94908KDBQ DBQ20050221212013002/21/05 21:20:31  5-MIN KDBQ 220320Z AUTO 33006KT 3SM -SN BKN022 OVC043 M01/M04 A3008 930 78 -700 330/06 RMK AO2 SNB09 P0000 TSNO
94908KDBQ DBQ20050221212513002/21/05 21:25:31  5-MIN KDBQ 220325Z AUTO 33005KT 3SM -SN BKN020 OVC043 M01/M04 A3008 930 78 -700 330/05 RMK AO2 SNB09 P0000 TSNO
94908KDBQ DBQ20050221213013002/21/05 21:30:31  5-MIN KDBQ 220330Z AUTO 34006KT 3SM -SN BKN020 OVC043 M01/M04 A3008 930 78 -700 340/06 RMK AO2 SNB09 P0000 TSNO
94908KDBQ DBQ20050221213512702/21/05 21:35:31  5-MIN KDBQ 220335Z AUTO 33007KT 2 1/2SM -SN OVC018 M01/M04 A3009 920 81 -700 330/07 RMK AO2 SNB09 P0000 TSNO
94908KDBQ DBQ20050221214013002/21/05 21:40:31  5-MIN KDBQ 220340Z AUTO 33007KT 1 1/2SM -SN BR OVC014 M02/M04 A3009 930 85 -800 330/07 RMK AO2 SNB09 P0001 TSNO
94908KDBQ DBQ20050221214513002/21/05 21:45:31  5-MIN KDBQ 220345Z AUTO 33007KT 1 1/2SM -SN BR OVC014 M02/M04 A3009 930 85 -800 330/07 RMK AO2 SNB09 P0001 TSNO
94908KDBQ DBQ20050221215014302/21/05 21:50:31  5-MIN KDBQ 220350Z AUTO 35005KT 2SM -SN BR OVC014 M02/M04 A3008 930 85 -800 350/05 RMK AO2 SNB09 SLP201 P0001 T10171039 TSNO
94908KDBQ DBQ20050221215514702/21/05 21:55:31  5-MIN KDBQ 220355Z AUTO 35005KT 1 3/4SM -SN BR OVC012 M02/M04 A3008 930 85 -800 350/05 RMK AO2 SNB09 SLP201 P0001 T10171039 TSNO
94908KDBQ DBQ20050221220012402/21/05 22:00:31  5-MIN KDBQ 220400Z AUTO 35005KT 1 1/2SM -SN BR OVC010 M02/M04 A3009 920 85 -800 350/05 RMK AO2 P0000 TSNO
94908KDBQ DBQ20050221220512402/21/05 22:05:31  5-MIN KDBQ 220405Z AUTO 34006KT 1 1/4SM -SN BR OVC008 M02/M03 A3009 920 92 -900 340/06 RMK AO2 P0000 TSNO
94908KDBQ DBQ20050221221011902/21/05 22:10:31  5-MIN KDBQ 220410Z AUTO 34005KT 1SM -SN BR VV008 M02/M03 A3009 920 92 -900 330/05 RMK AO2 P0000 TSNO
94908KDBQ DBQ20050221221512702/21/05 22:15:31  5-MIN KDBQ 220415Z AUTO 34008KT 1SM -SN BR BKN008 OVC029 M02/M03 A3009 920 92 -900 330/08 RMK AO2 P0001 TSNO
94908KDBQ DBQ20050221222013802/21/05 22:20:31  5-MIN KDBQ 220420Z AUTO 35006KT 1 1/2SM -SN BR SCT006 BKN027 OVC032 M02/M03 A3009 920 92 -900 350/06 RMK AO2 P0001 TSNO
94908KDBQ DBQ20050221222513102/21/05 22:25:31  5-MIN KDBQ 220425Z AUTO 34007KT 2 1/2SM -SN BR SCT006 OVC029 M02/M03 A3009 920 92 -900 340/07 RMK AO2 P0001 TSNO
94908KDBQ DBQ20050221223012702/21/05 22:30:31  5-MIN KDBQ 220430Z AUTO 36006KT 3SM -SN BR FEW004 OVC029 M02/M03 A3009 920 92 -900 350/06 RMK AO2 P0001 TSNO
94908KDBQ DBQ20050221223512702/21/05 22:35:31  5-MIN KDBQ 220435Z AUTO 35005KT 4SM -SN BR FEW004 OVC029 M02/M03 A3009 920 92 -900 350/05 RMK AO2 P0001 TSNO
94908KDBQ DBQ20050221224012002/21/05 22:40:31  5-MIN KDBQ 220440Z AUTO 34006KT 4SM -SN BR OVC029 M02/M03 A3009 920 92 -900 340/06 RMK AO2 P0001 TSNO
94908KDBQ DBQ20050221224512202/21/05 22:45:31  5-MIN KDBQ 220445Z AUTO 34005KT 5SM BR OVC029 M02/M03 A3010 920 92 -900 340/05 RMK AO2 SNE44 P0001 TSNO
94908KDBQ DBQ20050221225014602/21/05 22:50:31  5-MIN KDBQ 220450Z AUTO 34005KT 5SM BR FEW015 OVC029 M02/M03 A3009 920 92 -900 340/05 RMK AO2 SNE44 SLP205 P0001 T10221033 TSNO
94908KDBQ DBQ20050221225514402/21/05 22:55:31  5-MIN KDBQ 220455Z AUTO 35005KT 5SM -SN BR FEW015 OVC029 M02/M03 A3009 920 92 -900 350/05 RMK AO2 SLP204 P0001 T10221033 TSNO
94908KDBQ DBQ20050221230013402/21/05 23:00:31  5-MIN KDBQ 220500Z AUTO 36004KT 4SM -SN BR FEW007 BKN026 OVC031 M02/M03 A3009 920 92 -900 350/04 RMK AO2 P0000 TSNO
94908KDBQ DBQ20050221230513402/21/05 23:05:31  5-MIN KDBQ 220505Z AUTO 36003KT 3SM -SN BR FEW010 BKN026 OVC031 M02/M03 A3009 920 92 -900 360/03 RMK AO2 P0000 TSNO
94908KDBQ DBQ20050221231013402/21/05 23:10:31  5-MIN KDBQ 220510Z AUTO 36003KT 3SM -SN BR FEW010 SCT020 OVC028 M02/M03 A3009 920 92 -900 360/03 RMK AO2 P0000 TSNO
94908KDBQ DBQ20050221231513802/21/05 23:15:31  5-MIN KDBQ 220515Z AUTO 01004KT 2 1/2SM -SN BR SCT010 BKN018 OVC028 M02/M03 A3009 920 92 -900 360/04 RMK AO2 P0000 TSNO
94908KDBQ DBQ20050221232013802/21/05 23:20:31  5-MIN KDBQ 220520Z AUTO 35005KT 1 3/4SM -SN BR SCT010 BKN014 OVC028 M02/M03 A3009 920 92 -900 350/05 RMK AO2 P0000 TSNO
94908KDBQ DBQ20050221232513802/21/05 23:25:31  5-MIN KDBQ 220525Z AUTO 02004KT 1 1/2SM -SN BR SCT009 BKN014 OVC028 M02/M03 A3009 930 92 -900 010/04 RMK AO2 P0000 TSNO
94908KDBQ DBQ20050221233013802/21/05 23:30:31  5-MIN KDBQ 220530Z AUTO 36005KT 1 1/2SM -SN BR FEW006 BKN012 OVC028 M02/M03 A3009 920 92 -900 360/05 RMK AO2 P0001 TSNO
94908KDBQ DBQ20050221233513402/21/05 23:35:31  5-MIN KDBQ 220535Z AUTO 01003KT 2SM -SN BR FEW006 BKN014 OVC050 M02/M03 A3009 920 92 -900 010/03 RMK AO2 P0001 TSNO
94908KDBQ DBQ20050221234013402/21/05 23:40:31  5-MIN KDBQ 220540Z AUTO 36004KT 2SM -SN BR FEW006 BKN012 OVC050 M02/M03 A3010 920 92 -900 350/04 RMK AO2 P0001 TSNO
94908KDBQ DBQ20050221234513402/21/05 23:45:31  5-MIN KDBQ 220545Z AUTO 35004KT 2SM -SN BR SCT006 BKN012 OVC050 M02/M03 A3010 920 92 -900 350/04 RMK AO2 P0001 TSNO
94908KDBQ DBQ20050221235018502/21/05 23:50:31  5-MIN KDBQ 220550Z AUTO 35004KT 2SM -SN BR SCT006 BKN009 OVC050 M02/M03 A3010 910 92 -900 350/04 RMK AO2 SLP205 P0001 60003 T10221033 10000 21022 400111022 51012 TSNO
94908KDBQ DBQ20050221235519002/21/05 23:55:31  5-MIN KDBQ 220555Z AUTO 34005KT 2 1/2SM -SN BR BKN008 BKN015 OVC050 M03/M04 A3010 910 92 -1000 340/05 RMK AO2 SLP207 P0001 60003 T10281039 10000 21028 400111028 53008 TSNO
94908KDBQ DBQ20050222000013202/22/05 00:00:38  5-MIN KDBQ 220600Z AUTO 35005KT 2 1/2SM -SN BR BKN008 OVC050 M03/M04 A3010 910 92 -1000 350/05 RMK AO2 P0000 TSNO
94908KDBQ DBQ20050222000513702/22/05 00:05:31  5-MIN KDBQ 220605Z AUTO 35006KT 1 3/4SM -SN BR OVC008 M03/M04 A3010 910 92 -1000 340/06 RMK AO2 CIG 004V011 P0000 TSNO
94908KDBQ DBQ20050222001013702/22/05 00:10:31  5-MIN KDBQ 220610Z AUTO 35006KT 1 1/4SM -SN BR OVC008 M03/M04 A3011 910 92 -1000 340/06 RMK AO2 CIG 004V010 P0000 TSNO
94908KDBQ DBQ20050222001513302/22/05 00:15:32  5-MIN KDBQ 220615Z AUTO 35005KT 1SM -SN BR OVC008 M03/M04 A3010 910 92 -1000 350/05 RMK AO2 CIG 005V012 P0001 TSNO
94908KDBQ DBQ20050222002014402/22/05 00:20:31  5-MIN KDBQ 220620Z AUTO 35005KT 1 1/4SM -SN BR BKN008 OVC015 M03/M03 A3010 910 96 -1000 350/05 RMK AO2 CIG 005V012 P0001 TSNO
94908KDBQ DBQ20050222002514702/22/05 00:25:31  5-MIN KDBQ 220625Z AUTO 36003KT 2SM -SN BR BKN008 BKN015 OVC055 M03/M04 A3010 910 92 -1000 360/03 RMK AO2 CIG 005V012 P0001 TSNO
94908KDBQ DBQ20050222003013902/22/05 00:30:31  5-MIN KDBQ 220630Z AUTO 01004KT 2 1/2SM -SN BR SCT008 BKN015 OVC055 M03/M03 A3010 910 96 -1000 010/04 RMK AO2 P0001 TSNO
94908KDBQ DBQ20050222003513502/22/05 00:35:31  5-MIN KDBQ 220635Z AUTO 36003KT 3SM -SN BR FEW008 SCT015 OVC055 M03/M04 A3010 910 92 -1000 360/03 RMK AO2 P0001 TSNO
94908KDBQ DBQ20050222004013502/22/05 00:40:31  5-MIN KDBQ 220640Z AUTO 36004KT 3SM -SN BR SCT008 BKN015 OVC055 M03/M03 A3011 910 96 -1000 360/04 RMK AO2 P0001 TSNO
94908KDBQ DBQ20050222004514702/22/05 00:45:31  5-MIN KDBQ 220645Z AUTO 36003KT 3SM -SN BR BKN008 BKN015 OVC055 M03/M03 A3011 900 96 -1000 360/03 RMK AO2 CIG 005V010 P0001 TSNO
94908KDBQ DBQ20050222005016402/22/05 00:50:31  5-MIN KDBQ 220650Z AUTO 34005KT 4SM -SN BR BKN008 BKN013 OVC055 M03/M03 A3012 900 96 -1000 330/05 RMK AO2 CIG 004V010 SLP211 P0001 T10281033 TSNO
94908KDBQ DBQ20050222005516402/22/05 00:55:31  5-MIN KDBQ 220655Z AUTO 34006KT 3SM -SN BR BKN006 BKN013 OVC060 M03/M04 A3012 900 92 -1000 340/06 RMK AO2 CIG 003V010 SLP211 P0001 T10281039 TSNO
94908KDBQ DBQ20050222010014002/22/05 01:00:31  5-MIN KDBQ 220700Z AUTO 35006KT 3SM -SN BR BKN006 OVC013 M03/M03 A3012 900 96 -1000 340/06 RMK AO2 CIG 003V010 P0000 TSNO
94908KDBQ DBQ20050222010514002/22/05 01:05:31  5-MIN KDBQ 220705Z AUTO 36005KT 3SM -SN BR BKN004 OVC008 M03/M04 A3011 900 92 -1000 360/05 RMK AO2 CIG 003V007 P0000 TSNO
94908KDBQ DBQ20050222011014002/22/05 01:10:31  5-MIN KDBQ 220710Z AUTO 35005KT 4SM -SN BR BKN004 OVC008 M03/M04 A3011 900 92 -1000 350/05 RMK AO2 CIG 003V006 P0000 TSNO
94908KDBQ DBQ20050222011513302/22/05 01:15:31  5-MIN KDBQ 220715Z AUTO 35005KT 4SM -SN BR OVC004 M03/M04 A3011 900 92 -1000 350/05 RMK AO2 CIG 003V009 P0000 TSNO
94908KDBQ DBQ20050222012013302/22/05 01:20:31  5-MIN KDBQ 220720Z AUTO 35007KT 5SM -SN BR OVC006 M03/M04 A3012 900 88 -1000 350/07 RMK AO2 CIG 003V009 P0000 TSNO
94908KDBQ DBQ20050222012513502/22/05 01:25:31  5-MIN KDBQ 220725Z AUTO 34007KT 5SM BR OVC006 M03/M04 A3012 900 88 -1000 340/07 RMK AO2 SNE21 CIG 003V009 P0000 TSNO
94908KDBQ DBQ20050222013014202/22/05 01:30:31  5-MIN KDBQ 220730Z AUTO 34006KT 5SM BR BKN006 OVC009 M03/M04 A3011 900 88 -1000 340/06 RMK AO2 SNE21 CIG 003V009 P0000 TSNO
94908KDBQ DBQ20050222013513302/22/05 01:35:31  5-MIN KDBQ 220735Z AUTO 34007KT 5SM -SN BR OVC009 M03/M04 A3011 900 88 -1000 340/07 RMK AO2 CIG 003V011 P0000 TSNO
94908KDBQ DBQ20050222014013302/22/05 01:40:31  5-MIN KDBQ 220740Z AUTO 33007KT 4SM -SN BR OVC009 M03/M05 A3011 900 88 -1000 330/07 RMK AO2 CIG 005V010 P0000 TSNO
94908KDBQ DBQ20050222014513502/22/05 01:45:31  5-MIN KDBQ 220745Z AUTO 33008KT 4SM -SN BR FEW006 BKN011 OVC016 M03/M05 A3012 900 88 -1000 330/08 RMK AO2 P0000 TSNO
94908KDBQ DBQ20050222015016602/22/05 01:50:31  5-MIN KDBQ 220750Z AUTO 33008KT 5SM BR BKN009 BKN014 OVC043 M03/M05 A3012 900 88 -1100 330/08 RMK AO2 SNE50 CIG 006V012 SLP212 P0000 T10331050 TSNO
94908KDBQ DBQ20050222015515102/22/05 01:55:31  5-MIN KDBQ 220755Z AUTO 35005KT 7SM SCT009 BKN016 OVC043 M03/M04 A3012 900 92 -1000 350/05 RMK AO2 SNE50 SLP212 P0000 T10331044 TSNO
94908KDBQ DBQ20050222020012202/22/05 02:00:31  5-MIN KDBQ 220800Z AUTO 35006KT 8SM SCT011 SCT016 OVC043 M03/M05 A3011 900 88 -1000 350/06 RMK AO2 TSNO
94908KDBQ DBQ20050222020512202/22/05 02:05:31  5-MIN KDBQ 220805Z AUTO 35007KT 8SM FEW011 BKN043 OVC060 M03/M05 A3011 910 88 -1000 350/07 RMK AO2 TSNO
94908KDBQ DBQ20050222021012202/22/05 02:10:31  5-MIN KDBQ 220810Z AUTO 34007KT 8SM FEW013 BKN043 OVC060 M03/M05 A3011 910 88 -1000 340/07 RMK AO2 TSNO
94908KDBQ DBQ20050222021512202/22/05 02:15:31  5-MIN KDBQ 220815Z AUTO 36005KT 7SM FEW029 BKN043 OVC060 M03/M05 A3011 900 88 -1000 360/05 RMK AO2 TSNO
94908KDBQ DBQ20050222022012202/22/05 02:20:31  5-MIN KDBQ 220820Z AUTO 35007KT 7SM FEW029 SCT043 OVC060 M03/M05 A3011 910 88 -1000 350/07 RMK AO2 TSNO
94908KDBQ DBQ20050222022511502/22/05 02:25:31  5-MIN KDBQ 220825Z AUTO 35006KT 7SM FEW029 OVC060 M03/M05 A3011 900 88 -1000 340/06 RMK AO2 TSNO
94908KDBQ DBQ20050222023012502/22/05 02:30:31  5-MIN KDBQ 220830Z AUTO 34007KT 6SM BR FEW009 SCT029 OVC060 M03/M05 A3011 900 88 -1000 340/07 RMK AO2 TSNO
94908KDBQ DBQ20050222023512502/22/05 02:35:31  5-MIN KDBQ 220835Z AUTO 34006KT 6SM BR SCT009 BKN029 OVC060 M03/M05 A3011 900 88 -1000 340/06 RMK AO2 TSNO
94908KDBQ DBQ20050222024012502/22/05 02:40:31  5-MIN KDBQ 220840Z AUTO 34007KT 6SM BR BKN009 BKN029 OVC060 M03/M05 A3011 900 88 -1000 340/07 RMK AO2 TSNO
94908KDBQ DBQ20050222024512502/22/05 02:45:31  5-MIN KDBQ 220845Z AUTO 35007KT 6SM BR BKN009 BKN029 OVC060 M03/M05 A3011 900 88 -1000 350/07 RMK AO2 TSNO
94908KDBQ DBQ20050222025014702/22/05 02:50:31  5-MIN KDBQ 220850Z AUTO 35007KT 6SM BR BKN007 OVC029 M03/M05 A3011 900 88 -1000 350/07 RMK AO2 SLP209 60001 T10331050 53008 TSNO
94908KDBQ DBQ20050222025514702/22/05 02:55:31  5-MIN KDBQ 220855Z AUTO 34007KT 6SM BR BKN007 OVC029 M03/M05 A3011 900 88 -1000 340/07 RMK AO2 SLP210 60001 T10331050 50004 TSNO
94908KDBQ DBQ20050222030011802/22/05 03:00:31  5-MIN KDBQ 220900Z AUTO 35007KT 6SM BR SCT007 OVC029 M03/M05 A3011 900 88 -1000 350/07 RMK AO2 TSNO
94908KDBQ DBQ20050222030511802/22/05 03:05:31  5-MIN KDBQ 220905Z AUTO 34007KT 6SM BR SCT007 OVC029 M03/M05 A3011 900 88 -1000 340/07 RMK AO2 TSNO
94908KDBQ DBQ20050222031011802/22/05 03:10:31  5-MIN KDBQ 220910Z AUTO 34007KT 6SM BR BKN007 OVC029 M03/M05 A3011 900 88 -1000 330/07 RMK AO2 TSNO
94908KDBQ DBQ20050222031511802/22/05 03:15:31  5-MIN KDBQ 220915Z AUTO 34008KT 6SM BR BKN007 OVC029 M03/M05 A3011 900 88 -1000 340/08 RMK AO2 TSNO
94908KDBQ DBQ20050222032011802/22/05 03:20:31  5-MIN KDBQ 220920Z AUTO 33007KT 6SM BR BKN007 OVC029 M03/M05 A3011 900 88 -1000 330/07 RMK AO2 TSNO
94908KDBQ DBQ20050222032511802/22/05 03:25:31  5-MIN KDBQ 220925Z AUTO 33007KT 6SM BR BKN007 OVC029 M04/M05 A3011 900 92 -1100 330/07 RMK AO2 TSNO
94908KDBQ DBQ20050222033011102/22/05 03:30:31  5-MIN KDBQ 220930Z AUTO 33007KT 6SM BR OVC007 M04/M06 A3011 900 88 -1100 330/07 RMK AO2 TSNO
94908KDBQ DBQ20050222033510802/22/05 03:35:31  5-MIN KDBQ 220935Z AUTO 33007KT 7SM OVC007 M04/M05 A3011 900 92 -1100 330/07 RMK AO2 TSNO
94908KDBQ DBQ20050222034012002/22/05 03:40:31  5-MIN KDBQ 220940Z AUTO 33006KT 7SM OVC007 M04/M06 A3012 900 88 -1100 330/06 RMK AO2 CIG 006V010 TSNO
94908KDBQ DBQ20050222034512702/22/05 03:45:31  5-MIN KDBQ 220945Z AUTO 33006KT 7SM BKN007 OVC029 M04/M06 A3012 900 88 -1100 330/06 RMK AO2 CIG 006V010 TSNO
94908KDBQ DBQ20050222035013202/22/05 03:50:31  5-MIN KDBQ 220950Z AUTO 34006KT 7SM SCT007 OVC029 M04/M06 A3011 900 88 -1100 340/06 RMK AO2 SLP211 T10391056 TSNO
94908KDBQ DBQ20050222035513202/22/05 03:55:31  5-MIN KDBQ 220955Z AUTO 33006KT 7SM SCT007 OVC029 M04/M06 A3012 890 88 -1100 330/06 RMK AO2 SLP213 T10391056 TSNO
94908KDBQ DBQ20050222040011502/22/05 04:00:31  5-MIN KDBQ 221000Z AUTO 33006KT 8SM FEW007 OVC029 M04/M06 A3012 900 88 -1100 330/06 RMK AO2 TSNO
94908KDBQ DBQ20050222040512202/22/05 04:05:31  5-MIN KDBQ 221005Z AUTO 33006KT 7SM FEW009 BKN029 OVC050 M04/M06 A3012 890 88 -1100 330/06 RMK AO2 TSNO
94908KDBQ DBQ20050222041011502/22/05 04:10:31  5-MIN KDBQ 221010Z AUTO 32007KT 7SM SCT029 OVC050 M04/M06 A3013 890 88 -1100 320/07 RMK AO2 TSNO
94908KDBQ DBQ20050222041511502/22/05 04:15:31  5-MIN KDBQ 221015Z AUTO 33007KT 7SM SCT029 OVC050 M04/M06 A3013 890 88 -1100 330/07 RMK AO2 TSNO
94908KDBQ DBQ20050222042012202/22/05 04:20:31  5-MIN KDBQ 221020Z AUTO 33006KT 7SM FEW010 SCT029 OVC050 M04/M06 A3013 890 88 -1100 330/06 RMK AO2 TSNO
94908KDBQ DBQ20050222042512202/22/05 04:25:31  5-MIN KDBQ 221025Z AUTO 33006KT 7SM SCT010 SCT029 OVC050 M04/M06 A3013 890 88 -1100 330/06 RMK AO2 TSNO
94908KDBQ DBQ20050222043011502/22/05 04:30:31  5-MIN KDBQ 221030Z AUTO 34006KT 7SM SCT012 OVC050 M04/M06 A3013 890 88 -1100 340/06 RMK AO2 TSNO
94908KDBQ DBQ20050222043512202/22/05 04:35:31  5-MIN KDBQ 221035Z AUTO 34006KT 7SM SCT008 BKN012 OVC050 M04/M06 A3013 890 88 -1100 340/06 RMK AO2 TSNO
94908KDBQ DBQ20050222044012702/22/05 04:40:31  5-MIN KDBQ 221040Z AUTO 34006KT 7SM BKN010 OVC050 M04/M06 A3013 880 88 -1100 330/06 RMK AO2 CIG 008V014 TSNO
94908KDBQ DBQ20050222044512302/22/05 04:45:31  5-MIN KDBQ 221045Z AUTO 34006KT 6SM BR OVC010 M04/M06 A3013 890 88 -1100 340/06 RMK AO2 CIG 008V014 TSNO
94908KDBQ DBQ20050222045014002/22/05 04:50:31  5-MIN KDBQ 221050Z AUTO 33006KT 6SM BR OVC010 M04/M06 A3014 880 88 -1100 330/06 RMK AO2 CIG 008V014 SLP219 T10391056 TSNO
94908KDBQ DBQ20050222045514002/22/05 04:55:31  5-MIN KDBQ 221055Z AUTO 34009KT 6SM BR OVC010 M04/M06 A3013 880 88 -1100 340/09 RMK AO2 CIG 008V014 SLP218 T10391056 TSNO
94908KDBQ DBQ20050222050012002/22/05 05:00:31  5-MIN KDBQ 221100Z AUTO 35008KT 7SM OVC010 M04/M06 A3013 890 85 -1100 340/08 RMK AO2 CIG 008V013 TSNO
94908KDBQ DBQ20050222050512302/22/05 05:05:31  5-MIN KDBQ 221105Z AUTO 34009KT 6SM BR OVC010 M04/M06 A3013 880 88 -1200 340/09 RMK AO2 CIG 008V013 TSNO
94908KDBQ DBQ20050222051011102/22/05 05:10:31  5-MIN KDBQ 221110Z AUTO 35008KT 6SM BR OVC010 M04/M06 A3013 880 88 -1200 340/08 RMK AO2 TSNO
94908KDBQ DBQ20050222051511102/22/05 05:15:31  5-MIN KDBQ 221115Z AUTO 35008KT 6SM BR OVC010 M04/M06 A3013 880 88 -1200 350/08 RMK AO2 TSNO
94908KDBQ DBQ20050222052011102/22/05 05:20:31  5-MIN KDBQ 221120Z AUTO 34007KT 6SM BR OVC010 M04/M06 A3013 880 88 -1200 340/07 RMK AO2 TSNO
94908KDBQ DBQ20050222052511102/22/05 05:25:31  5-MIN KDBQ 221125Z AUTO 35007KT 6SM BR OVC010 M04/M06 A3013 880 88 -1200 350/07 RMK AO2 TSNO
94908KDBQ DBQ20050222053012302/22/05 05:30:31  5-MIN KDBQ 221130Z AUTO 35006KT 6SM BR OVC010 M04/M07 A3013 880 84 -1200 350/06 RMK AO2 CIG 008V012 TSNO
94908KDBQ DBQ20050222053512302/22/05 05:35:31  5-MIN KDBQ 221135Z AUTO 34006KT 6SM BR OVC010 M05/M07 A3014 880 88 -1300 340/06 RMK AO2 CIG 008V013 TSNO
94908KDBQ DBQ20050222054012302/22/05 05:40:31  5-MIN KDBQ 221140Z AUTO 34006KT 6SM BR OVC010 M05/M07 A3014 880 88 -1300 340/06 RMK AO2 CIG 009V013 TSNO
94908KDBQ DBQ20050222054512302/22/05 05:45:31  5-MIN KDBQ 221145Z AUTO 34006KT 6SM BR OVC010 M05/M07 A3014 880 88 -1300 340/06 RMK AO2 CIG 009V013 TSNO
94908KDBQ DBQ20050222055015802/22/05 05:50:31  5-MIN KDBQ 221150Z AUTO 34006KT 6SM BR OVC010 M05/M07 A3014 870 88 -1300 330/06 RMK AO2 SLP222 60001 70004 T10501067 11028 21050 50004 TSNO
94908KDBQ DBQ20050222055514802/22/05 05:55:31  5-MIN KDBQ 221155Z 33006KT 6SM BR OVC010 M05/M07 A3015 870 88 -1300 330/06 RMK AO2 SLP224 60001 70004 T10501067 11028 21050 53013
94908KDBQ DBQ20050222060010102/22/05 06:00:31  5-MIN KDBQ 221200Z 33006KT 6SM BR OVC010 M05/M07 A3015 860 88 -1300 330/06 RMK AO2
94908KDBQ DBQ20050222060510102/22/05 06:05:31  5-MIN KDBQ 221205Z 33006KT 6SM BR OVC010 M05/M07 A3015 860 88 -1300 330/06 RMK AO2
94908KDBQ DBQ20050222061011702/22/05 06:10:31  5-MIN KDBQ 221210Z 34008KT 6SM BR OVC010 M05/M07 A3015 860 88 -1300 330/08 RMK 1300 330/06 RMK AO2
94908KDBQ DBQ20050222062010102/22/05 06:20:31  5-MIN KDBQ 221220Z 33008KT 6SM BR OVC010 M05/M07 A3016 860 88 -1300 330/08 RMK AO2
94908KDBQ DBQ20050222062514802/22/05 06:25:31  5-MIN KDBQ 221225Z 34008KT 6SM BR OVC010 M05/M07 A3016 860 88 -1300 330/08 RMK AO2 02/22/0572M07 A3018840 88 -1400 310/09 RMK AO2
94908KDBQ DBQ20050222065013702/22/05 06:50:31  5-MIN KDBQ 221250Z 31008KT 5SM BR BKN010 BKN034 M06/M07 A3019 830 88 -1400 310/08 RMK AO2 CIG 009V013 SLP238 T10561072
94908KDBQ DBQ20050222065511802/22/05 06:55:31  5-MIN KDBQ 221255Z 32008KT 5SM BR BKN0 M BR SCT010 OVC070 M06/M07 A3020 820 88 -1400 310/07 RMK AO2
94908KDBQ DBQ20050222071510802/22/05 07:15:31  5-MIN KDBQ 221315Z 32006KT 5SM BR SCT010 OVC070 M06/M07 A3020 820 88 -1400 320/06 RMK AO2
94908KDBQ DBQ20050222072010802/22/05 07:20:31  5-MIN KDBQ 221320Z 32007KT 5SM BR FEW010 OVC070 M06/M07 A3020 820 88 -1400 320/07 RMK AO2
94908KDBQ DBQ20050222072511902/22/05 07:25:31  5-MIN KDBQ 222 006KT 5SM BR FEW070 SCT120 M06/M08 A3021 820 84 -1400 340/06 RMK AO2 SLP244 T10561078
94908KDBQ DBQ20050222075512502/22/05 07:55:31  5-MIN KDBQ 221355Z 35007KT 5SM HZ FEW065 BKN120 M06/M08 A3021 810 81 -1400 350/07 RMK AO2 SLP245 T10561083
94908KDBQ DBQ20050222080002502/22/05 08:00:31  5-MIN2
94908KDBQ DBQ20050222082011502/22/05 08:20:31  5-MIN KDBQ 221420Z 35007KT 5SM HZ SCT065 SCT100 BKN120 M05/M08 A3021 810 81 -1400 350/07 RMK AO2
94908KDBQ DBQ20050222082513702/22/05 08:25:31  5-MIN KDBQ 221425Z 36007KT 6SM HZ FEW065 SCT120 M05/M08 A3021 810 81 -1400 350/07 RMK AO2 02/22/0521400 340/08 RMK AO2
94908KDBQ DBQ20050222085012102/22/05 08:50:31  5-MIN KDBQ 221450Z 34009KT 6SM HZ CLR M05/M08 A3022 800 81 -1400 340/09 RMK AO2 SLP250 T10501078 53013
94908KDBQ DBQ20050222085511902/22/05 08:55:31  5-MIN KDBQ 221455Z 34009KT 6SM HZ CLR M04/M08 A3023 790 78 -1300 340/09 90 9078 -1300 310/05 RMK AO2
94908KDBQ DBQ20050222092009802/22/05 09:20:31  5-MIN KDBQ 221520Z 33006KT 7SM BKN070 M04/M08 A3023 790 78 -1300 330/06 RMK AO2
94908KDBQ DBQ20050222092516502/22/05 09:25:31  5-MIN KDBQ 221525Z 32007KT 7SM BKN070 M04/M08 A3023 790 78 -1300 320/07 RMK AO2 1545Z 32008KT 9SM OVC070 M04/M08 A3024 790 71 -1300 320/08 RMK AO2
94908KDBQ DBQ20050222095011502/22/05 09:50:31  5-MIN KDBQ 221550Z 30009KT 9SM OVC065 M04/M08 A3024 780 74 -1300 300/09 RMK AO2 SLP256 T10391078
94908KDBQ DBQ20050222095509502/22/05 09:55:31  5-MIN KDBQ 221555Z 31010KT 9S80 0 M03/M08 A3025 780  71 -1200 320/10 RMK AO2
94908KDBQ DBQ20050222102009902/22/05 10:20:31  5-MIN KDBQ 221620Z 33011KT 10SM FEW060 M03/M08 A3025 780 68 -1100 330/11 RMK AO2
94908KDBQ DBQ20050222102507502/22/05 10:25:31  5-MIN KDBQ 221625Z 31009KT 10SM CLR M03/M08 A3025 780 71
94908KDBQ DBQ20050222105511402/22/05 10:55:31  5-MIN KDBQ 221655Z 34010KT 10SM CLR M02/M08 A3025 780 66  -1100 340/10 RMK AO2 SLP257 T10221078
94908KDBQ DBQ20050222112009602/22/05 11:20:31  5-MIN KDBQ 221720Z 34009KT 10SM CLR M02/M08 A3024 780 63 -1000 330/09 RMK AO2
94908KDBQ DBQ20050222112509602/22/05 11:25:31  5-MIN KDBQ 221725Z 32008KT 10SM CLR M02/M08 A3024 780 63 -1000 320/08 RMK AO2
94908KDBQ DBQ20050222113013302/22/05 11:30:31  5-MIN KDBQ 221730Z 30014KT 10 63 R M01/M07 A3024 780  63 -900 330/12G17 RMK AO2 SLP256 T10111072 11011 21061 51026
94908KDBQ DBQ20050222115520502/22/05 11:55:31  5-MIN KDBQ 221755Z 32014G17KT 10SM CLR M01/M07 A3024 780 66 -900 320/14G17 RMK AO2 SLP255 T10111067 11011 21061 50004 02/22/05 12:00:3 66 SM CLR M01/M06 A3024 790 66  -800 310/09 RMK AO2
94908KDBQ DBQ20050222120009502/22/05 12:00:31  5-MIN KDBQ 221800Z 31015KT 10SM CLR M01/M07 A3024 780 66 -900 310/15 RMK AO2
94908KDBQ DBQ20050222120509502/22/05 12:05:31  5-MIN KDBQ 221805Z 32013KT 10SM CLR M01/M07 A3024 780 66 -900 320/13 RMK AO2
94908KDBQ DBQ20050222121009502/22/05 12:10:31  5-MIN KDBQ 221810Z 32013KT 10SM CLR M01/M06 A3024 780 66 -800 320/13 RMK AO2
94908KDBQ DBQ20050222121509502/22/05 12:15:31  5-MIN KDBQ 221815Z 33010KT 10SM CLR M01/M07 A3024 790 66 -900 330/10 RMK AO2
94908KDBQ DBQ20050222122009502/22/05 12:20:31  5-MIN KDBQ 221820Z 32009KT 10SM CLR M01/M06 A3024 790 66 -800 310/09 RMK AO2
94908KDBQ DBQ20050222122509502/22/05 12:25:31  5-MIN KDBQ 221825Z 31011KT 10SM CLR M01/M06 A3024 790 66 -800 310/11 RMK AO2
94908KDBQ DBQ20050222123009402/22/05 12:30:31  5-MIN KDBQ 221830Z 34011KT 10SM CLR 00/M06 A3023 790 63 -800 330/11 RMK AO2
94908KDBQ DBQ20050222123509402/22/05 12:35:31  5-MIN KDBQ 221835Z 32011KT 10SM CLR 00/M06 A3023 790 66 -800 320/11 RMK AO2
94908KDBQ DBQ20050222124010002/22/05 12:40:31  5-MIN KDBQ 221840Z 32014G19KT 10SM CLR 00/M06 A3023 790 63 -800 320/14G19 RMK AO2
94908KDBQ DBQ20050222124510002/22/05 12:45:31  5-MIN KDBQ 221845Z 33014G19KT 10SM CLR 00/M06 A3023 790 63 -800 330/14G19 RMK AO2
94908KDBQ DBQ20050222125011102/22/05 12:50:31  5-MIN KDBQ 221850Z 32013KT 10SM CLR 00/M06 A3023 790 66 -800 320/13 RMK AO2 SLP250 T00001056
94908KDBQ DBQ20050222125507902/22/05 12:55:31  5-MIN KDBQ 221855Z 32011KT 10SM CLR 00/M06 A3023 790 66 1056
94908KDBQ DBQ20050222130009402/22/05 13:00:31  5-MIN KDBQ 221900Z 31015KT 10SM CLR 00/M06 A3023 790 66 -800 310/15 RMK AO2
94908KDBQ DBQ20050222130509402/22/05 13:05:31  5-MIN KDBQ 221905Z 32014KT 10SM CLR 00/M06 A3023 790 63 -800 320/14 RMK AO2
94908KDBQ DBQ20050222131006202/22/05 13:10:31  5-MIN KDBQ 221910Z 3466 -800 330/13 RMK AO2
94908KDBQ DBQ20050222133009402/22/05 13:30:31  5-MIN KDBQ 221930Z 32014KT 10SM CLR 01/M06 A3024 790 63 -700 320/14 RMK AO2
94908KDBQ DBQ20050222133509402/22/05 13:35:31  5-MIN KDBQ 221935Z 32013KT 10SM CLR 00/M06 A3024 790 66 -800 320/13 RMK AO2
94908KDBQ DBQ20050222134002902/22/05 13:40:31  5-MIN63 61
94908KDBQ DBQ20050222140009402/22/05 14:00:31  5-MIN KDBQ 222000Z 35016KT 10SM CLR 01/M06 A3023 790 63 -700 340/16 RMK AO2
94908KDBQ DBQ20050222140509402/22/05 14:05:31  5-MIN KDBQ 222005Z 34016KT 10SM CLR 01/M06 A3023 790 63 -700 340/16 RMK AO2
94908KDBQ DBQ20050222141004302/22/05 14:10:31  5-MIN KDBQ 222010Z 34AO2
94908KDBQ DBQ20050222142009402/22/05 14:20:31  5-MIN KDBQ 222020Z 34013KT 10SM CLR 00/M06 A3024 780 63 -800 340/13 RMK AO2
94908KDBQ DBQ20050222142509602/22/05 14:25:31  5-MIN KDBQ 222025Z 34 A3024 780 66 -700 340/11 RMK AO2 SLP255 T00061050 50004
94908KDBQ DBQ20050222145512002/22/05 14:55:31  5-MIN KDBQ 222055Z 33012KT 10SM FEW029 01/M05 A3025 780 66 -700 330/12 RMK AO2 SLP256 T00061050 53002
94908KDBQ DBQ20050222150011302/22/05 15:00:31  5-MIN KDBQ 222100Z 32011KT 10SM FEW0280 012KT 10SM CLR 01/M05 A3025 780 66 -700 330/12 RMK AO2
94908KDBQ DBQ20050222152509402/22/05 15:25:31  5-MIN KDBQ 222125Z 33014KT 10SM CLR 00/M06 A3025 780 66 -800 330/14 RMK AO2
94908KDBQ DBQ20050222153008402/22/05 15:30:31  5-MIN KDBQ 222130Z 33014G19KT 10SM CLR 01/M06 A3025 780 63 -700 2
94908KDBQ DBQ20050222160009602/22/05 16:00:31  5-MIN KDBQ 222200Z 35009KT 9SM FEW029 01/M05 A3025 770 66 -700 350/09 RMK AO2
94908KDBQ DBQ20050222160507202/22/05 16:05:31  5-MIN KDBQ 222205Z 35A3025 770 69 -700 350/09 RMK AO2
94908KDBQ DBQ20050222163009602/22/05 16:30:31  5-MIN KDBQ 222230Z 36009KT 9SM FEW030 00/M05 A3025 770 69 -800 350/09 RMK AO2
94908KDBQ DBQ20050222163514202/22/05 16:35:31  5-MIN KDBQ 222235Z 36008KT 9SM CLR 00/M05 A3025 770 69 -800 360/08 RMK AO2 02/22/05069 -800 340/08 RMK AO2 SLP261 T00001050
94908KDBQ DBQ20050222170009602/22/05 17:00:31  5-MIN KDBQ 222300Z 35007KT 8SM BKN030 00/M05 A3026 770 69 -800 350/07 RMK AO2
94908KDBQ DBQ20050222170517002/22/05 17:05:31  5-MIN KDBQ 222305Z 34005KT 8SM BKN030 00/M05 A3026 760 69 -800 340/05 RMK AO2  KDBQ 222330Z 31006KT 8SM FEW030 M01/M06 A3027 760 69 -900 310/06 RMK AO2
94908KDBQ DBQ20050222173509702/22/05 17:35:31  5-MIN KDBQ 222335Z 31005KT 8SM FEW030 M01/M05 A3027 760 75 -900 310/05 RMK AO2
94908KDBQ DBQ20050222174009402/22/05 17:40:31  5-MIN KDBQ 222340Z 31006KT 8SM CLR M01/M06 A3027 750 72 -900 300/06 RMK AO2
94908KDBQ DBQ20050222174509402/22/05 17:45:31  5-MIN KDBQ 222345Z 30005KT 8SM CLR M01/M05 A3027 750 75 -900 300/05 RMK AO2
94908KDBQ DBQ20050222175012902/22/05 17:50:31  5-MIN KDBQ 222350Z 30004KT 8SM CLR M01/M05 A3028 750 75 -900 300/04 RMK AO2 SLP268 T10111050 10006 21011 53002
94908KDBQ DBQ20050222175513002/22/05 17:55:31  5-MIN KDBQ 222355Z 30004KT 8SM CLR M01/M05 A3028 750 75 -1000 300/04 RMK AO2 SLP269 T10111050 10006 21011 53010
94908KDBQ DBQ20050222180009502/22/05 18:00:31  5-MIN KDBQ 230000Z 30003KT 8SM CLR M01/M05 A3028 750 75 -1000 300/03 RMK AO2
94908KDBQ DBQ20050222180509502/22/05 18:05:31  5-MIN KDBQ 230005Z 30003KT 9SM CLR M01/M05 A3028 750 75 -1000 300/03 RMK AO2
94908KDBQ DBQ20050222181009502/22/05 18:10:31  5-MIN KDBQ 230010Z 30003KT 9SM CLR M01/M05 A3028 740 75 -1000 300/03 RMK AO2
94908KDBQ DBQ20050222181509502/22/05 18:15:31  5-MIN KDBQ 230015Z 30004KT 9SM CLR M01/M06 A3029 740 72 -1000 300/04 RMK AO2
94908KDBQ DBQ20050222182009802/22/05 18:20:31  5-MIN KDBQ 230020Z 30004KT 9SM FEW032 M01/M06 A3029 740 72 -1000 300/04 RMK AO2
94908KDBQ DBQ20050222182509802/22/05 18:25:31  5-MIN KDBQ 230025Z 30004KT 9SM FEW032 M01/M06 A3029 740 72 -1000 300/04 RMK AO2
94908KDBQ DBQ20050222183009502/22/05 18:30:31  5-MIN KDBQ 230030Z 31005KT 9SM CLR M02/M06 A3029 740 75 -1000 300/05 RMK AO2
94908KDBQ DBQ20050222183509502/22/05 18:35:31  5-MIN KDBQ 230035Z 31005KT 9SM CLR M02/M06 A3029 730 75 -1000 310/05 RMK AO2
94908KDBQ DBQ20050222184009502/22/05 18:40:31  5-MIN KDBQ 230040Z 32004KT 9SM CLR M02/M06 A3030 730 75 -1100 320/04 RMK AO2
94908KDBQ DBQ20050222184509502/22/05 18:45:31  5-MIN KDBQ 230045Z 32004KT 9SM CLR M02/M06 A3030 730 75 -1000 320/04 RMK AO2
94908KDBQ DBQ20050222185011202/22/05 18:50:31  5-MIN KDBQ 230050Z 32004KT 9SM CLR M02/M06 A3030 730 75 -1000 320/04 RMK AO2 SLP276 T10171056
94908KDBQ DBQ20050222185511202/22/05 18:55:31  5-MIN KDBQ 230055Z 32004KT 9SM CLR M02/M06 A3030 730 75 -1000 320/04 RMK AO2 SLP276 T10171056
94908KDBQ DBQ20050222190004202/22/05 19:00:31  5-MIN KDBQ 230100Z 3178
94908KDBQ DBQ20050222191009502/22/05 19:10:31  5-MIN KDBQ 230110Z 29004KT 9SM CLR M02/M06 A3030 720 75 -1100 290/04 RMK AO2
94908KDBQ DBQ20050222191509502/22/05 19:15:31  5-MIN KDBQ 230115Z 28004KT 9SM CLR M02/M06 A3031 720 78 -1100 280/04 RMK AO2
94908KDBQ DBQ20050222192004202/22/05 19:20:31  5-MIN KDBQ 230120Z 0081
94908KDBQ DBQ20050222194509502/22/05 19:45:31  5-MIN KDBQ 230145Z 00000KT 7SM CLR M03/M05 A3031 720 85 -1200 000/00 RMK AO2
94908KDBQ DBQ20050222195010502/22/05 19:50:31  5-MIN KDBQ 230150Z 31003KT 8SM CLR M02/M05 A306 A3031 720 85 -1300 320/05 RMK AO2 TSNO
94908KDBQ DBQ20050222201510502/22/05 20:15:31  5-MIN KDBQ 230215Z AUTO 32004KT 8SM CLR M03/M06 A3031 720 85 -1300 320/04 RMK AO2 TSNO
94908KDBQ DBQ20050222202011302/22/05 20:20:31  5-MIN KDBQ 230220Z AUTO 32004KT 8SM CLR M03/M06 A3031 720 81 -1200 320/04 RMK /05 RMK AO2 TSNO
94908KDBQ DBQ20050222204510502/22/05 20:45:31  5-MIN KDBQ 230245Z AUTO 33005KT 9SM CLR M03/M06 A3031 720 78 -1200 330/05 RMK AO2 TSNO
94908KDBQ DBQ20050222205014602/22/05 20:50:31  5-MIN KDBQ 230250Z AUTO 33004KT 9SM CLR M03/M06 A3031 TO 20003KT 9SM CLR M03/M07 A3031 0 T1028 720 78 -1300 200/03 RMK AO2 TSNO
94908KDBQ DBQ20050222211510502/22/05 21:15:31  5-MIN KDBQ 230315Z AUTO 21003KT 9SM CLR M03/M07 A3032 710 75 -1200 210/03 RMK AO2 TSNO
94908KDBQ DBQ20050222212013802/22/05 21:20:31  5-MIN KDBQ 230320Z AUTO 21003KT 9SM CLR M03/M 0340Z AUTO 00000KT 8SM CLR M03/M07 A3031 720 78 -1300 000/00 RMK AO2 TSNO
94908KDBQ DBQ20050222214510502/22/05 21:45:31  5-MIN KDBQ 230345Z AUTO 00000KT 8SM CLR M03/M07 A3031 720 78 -1300 000/00 RMK AO2 TSNO
94908KDBQ DBQ20050222215006502/22/05 21:50:31  5-MIN KDBQ 230350Z AUTO 00000KT 8SM C AO2 TSNO
94908KDBQ DBQ20050222221010502/22/05 22:10:31  5-MIN KDBQ 230410Z AUTO 00000KT 8SM CLR M04/M06 A3031 720 85 -1300 000/00 RMK AO2 TSNO
94908KDBQ DBQ20050222221510502/22/05 22:15:31  5-MIN KDBQ 230415Z AUTO 00000KT 8SM CLR M04/M06 A3031 720 85 -1300 000/00 RMK AO2 TSNO
94908KDBQ DBQ20050222222010502/22/05 22:20:31  5-MIN KDBQ 230440Z AUTO 34004KT 8SM CLR M04/M07 A3031 720 84 -1400 340/04 RMK AO2 TSNO
94908KDBQ DBQ20050222224510502/22/05 22:45:31  5-MIN KDBQ 230445Z AUTO 35004KT 9SM CLR M04/M07 A3031 720 84 -1400 350/04 RMK AO2 TSNO
94908KDBQ DBQ20050222225010602/22/05 22:50:31  5-MIN KDBQ 230450Z AU TO 00000KT 9SM CLR M05/M08 A3031 720 81 -1500 000/00 RMK AO2 TSNO
94908KDBQ DBQ20050222231010502/22/05 23:10:31  5-MIN KDBQ 230510Z AUTO 34004KT 8SM CLR M05/M07 A3030 730 84 -1500 340/04 RMK AO2 TSNO
94908KDBQ DBQ20050222231508102/22/05 23:15:31  5-MIN KDBQ 230515Z AUTO 34004KT 8SM CLR M05/M /05 RMK AO2 TSNO
94908KDBQ DBQ20050222232010502/22/05 23:20:31  5-MIN KDBQ 230520Z AUTO 34005KT 9SM CLR M04/M07 A3031 720 81 -1400 340/05 RMK AO2 TSNO
94908KDBQ DBQ20050222232510502/22/05 23:25:31  5-MIN KDBQ 230525Z AUTO 34005KT 9SM CLR M04/M08 A3031 720 78 -1400 340/05 RMK AO2 TSNO
94908KDBQ DBQ20050222233010602/22/05 23:30:31  5-MIN KDBQ 230530Z AUTO 34005KT 10SM CLR M04/M08 A3031 720 78 -1400 340/05 RMK AO2 TSNO
94908KDBQ DBQ20050222233510602/22/05 23:35:31  5-MIN KDBQ 230535Z AUTO 34006KT 10SM CLR M04/M08 A3031 720 78 -1400 340/06 RMK AO2 TSNO
94908KDBQ DBQ20050222234010602/22/05 23:40:31  5-MIN KDBQ 230540Z AUTO 33005KT 10SM CLR M04/M08 A3031 720 78 -1400 330/05 RMK AO2 TSNO
94908KDBQ DBQ20050222234510602/22/05 23:45:31  5-MIN KDBQ 230545Z AUTO 34005KT 10SM CLR M05/M08 A3031 720 81 -1500 340/05 RMK AO2 TSNO
94908KDBQ DBQ20050222235015102/22/05 23:50:31  5-MIN KDBQ 230550Z AUTO 33005KT 10SM CLR M04/M07 A3031 720 81 -1400 330/05 RMK AO2 SLP280 T10441072 11011 21056 400061061 51010 TSNO
94908KDBQ DBQ20050222235515102/22/05 23:55:31  5-MIN KDBQ 230555Z AUTO 34005KT 10SM CLR M04/M08 A3031 720 78 -1400 340/05 RMK AO2 SLP279 T10441078 11011 21056 400061061 50000 TSNO
94908KDBQ DBQ20050223000010602/23/05 00:00:38  5-MIN KDBQ 230600Z AUTO 34005KT 10SM CLR M04/M08 A3031 720 78 -1400 340/05 RMK AO2 TSNO
94908KDBQ DBQ20050223000510602/23/05 00:05:31  5-MIN KDBQ 230605Z AUTO 34004KT 10SM CLR M04/M08 A3031 720 78 -1400 340/04 RMK AO2 TSNO
94908KDBQ DBQ20050223001010602/23/05 00:10:31  5-MIN KDBQ 230610Z AUTO 33004KT 10SM CLR M05/M08 A3031 720 81 -1500 330/04 RMK AO2 TSNO
94908KDBQ DBQ20050223001510502/23/05 00:15:33  5-MIN KDBQ 230615Z AUTO 00000KT 9SM CLR M06/M08 A3031 720 84 -1600 000/00 RMK AO2 TSNO
94908KDBQ DBQ20050223002010502/23/05 00:20:31  5-MIN KDBQ 230620Z AUTO 00000KT 9SM CLR M04/M08 A3031 720 78 -1400 000/00 RMK AO2 TSNO
94908KDBQ DBQ20050223002510502/23/05 00:25:31  5-MIN KDBQ 230625Z AUTO 00000KT 9SM CLR M04/M08 A3031 720 78 -1400 000/00 RMK AO2 TSNO
94908KDBQ DBQ20050223003010502/23/05 00:30:31  5-MIN KDBQ 230630Z AUTO 00000KT 9SM CLR M04/M07 A3031 720 81 -1400 000/00 RMK AO2 TSNO
94908KDBQ DBQ20050223003510602/23/05 00:35:31  5-MIN KDBQ 230635Z AUTO 36003KT 10SM CLR M05/M08 A3031 720 81 -1500 360/03 RMK AO2 TSNO
94908KDBQ DBQ20050223004010602/23/05 00:40:31  5-MIN KDBQ 230640Z AUTO 36006KT 10SM CLR M04/M08 A3030 730 78 -1400 360/06 RMK AO2 TSNO
94908KDBQ DBQ20050223004510602/23/05 00:45:31  5-MIN KDBQ 230645Z AUTO 01006KT 10SM CLR M04/M08 A3030 730 78 -1400 010/06 RMK AO2 TSNO
94908KDBQ DBQ20050223005012302/23/05 00:50:31  5-MIN KDBQ 230650Z AUTO 01005KT 10SM CLR M04/M08 A3031 720 78 -1400 010/05 RMK AO2 SLP277 T10441078 TSNO
94908KDBQ DBQ20050223005512302/23/05 00:55:31  5-MIN KDBQ 230655Z AUTO 01005KT 10SM CLR M04/M08 A3031 720 78 -1400 010/05 RMK AO2 SLP278 T10441078 TSNO
94908KDBQ DBQ20050223010010602/23/05 01:00:31  5-MIN KDBQ 230700Z AUTO 01005KT 10SM CLR M04/M08 A3031 720 78 -1400 010/05 RMK AO2 TSNO
94908KDBQ DBQ20050223010510602/23/05 01:05:31  5-MIN KDBQ 230705Z AUTO 01006KT 10SM CLR M04/M08 A3031 720 74 -1400 010/06 RMK AO2 TSNO
94908KDBQ DBQ20050223011010602/23/05 01:10:31  5-MIN KDBQ 230710Z AUTO 01006KT 10SM CLR M04/M08 A3031 720 74 -1400 010/06 RMK AO2 TSNO
94908KDBQ DBQ20050223011510602/23/05 01:15:31  5-MIN KDBQ 230715Z AUTO 01006KT 10SM CLR M04/M08 A3031 720 74 -1400 010/06 RMK AO2 TSNO
94908KDBQ DBQ20050223012010602/23/05 01:20:31  5-MIN KDBQ 230720Z AUTO 01006KT 10SM CLR M04/M08 A3031 720 74 -1400 010/06 RMK AO2 TSNO
94908KDBQ DBQ20050223012510602/23/05 01:25:31  5-MIN KDBQ 230725Z AUTO 01006KT 10SM CLR M04/M08 A3031 720 78 -1400 360/06 RMK AO2 TSNO
94908KDBQ DBQ20050223013010902/23/05 01:30:31  5-MIN KDBQ 230730Z AUTO 36006KT 10SM FEW043 M05/M08 A3031 720 77 -1500 360/06 RMK AO2 TSNO
94908KDBQ DBQ20050223013510902/23/05 01:35:31  5-MIN KDBQ 230735Z AUTO 36006KT 10SM FEW043 M05/M08 A3031 720 77 -1500 360/06 RMK AO2 TSNO
94908KDBQ DBQ20050223014010902/23/05 01:40:31  5-MIN KDBQ 230740Z AUTO 36006KT 10SM FEW043 M05/M08 A3031 720 77 -1500 360/06 RMK AO2 TSNO
94908KDBQ DBQ20050223014510902/23/05 01:45:31  5-MIN KDBQ 230745Z AUTO 36006KT 10SM FEW043 M06/M08 A3031 720 81 -1600 360/06 RMK AO2 TSNO
94908KDBQ DBQ20050223015012602/23/05 01:50:31  5-MIN KDBQ 230750Z AUTO 36006KT 10SM FEW043 M05/M08 A3031 720 77 -1500 360/06 RMK AO2 SLP278 T10501083 TSNO
94908KDBQ DBQ20050223015512602/23/05 01:55:31  5-MIN KDBQ 230755Z AUTO 36006KT 10SM FEW043 M05/M08 A3031 720 77 -1500 360/06 RMK AO2 SLP278 T10501083 TSNO
94908KDBQ DBQ20050223020010602/23/05 02:00:31  5-MIN KDBQ 230800Z AUTO 36006KT 10SM CLR M05/M08 A3031 720 77 -1500 350/06 RMK AO2 TSNO
94908KDBQ DBQ20050223020510602/23/05 02:05:31  5-MIN KDBQ 230805Z AUTO 35007KT 10SM CLR M06/M08 A3031 720 81 -1600 350/07 RMK AO2 TSNO
94908KDBQ DBQ20050223021010602/23/05 02:10:31  5-MIN KDBQ 230810Z AUTO 35008KT 10SM CLR M05/M08 A3031 720 77 -1500 350/08 RMK AO2 TSNO
94908KDBQ DBQ20050223021510602/23/05 02:15:31  5-MIN KDBQ 230815Z AUTO 35008KT 10SM CLR M05/M08 A3031 720 77 -1500 350/08 RMK AO2 TSNO
94908KDBQ DBQ20050223022020702/23/05 02:20:31  5-MIN KDBQ 230820Z AUTO 35008KT 10SM CLR M05/M08 A3031 720 77 -1500 350/08 RMK AO2 TSNO 02/23/05 02:25:31  KDBQ 230830Z AUTO 36006KT 10SM CLR M05/M08 A3030 730 77 -1500 360/06 RMK AO2 TSNO
94908KDBQ DBQ20050223023510602/23/05 02:35:31  5-MIN KDBQ 230835Z AUTO 36006KT 10SM CLR M06/M08 A3030 730 81 -1500 360/06 RMK AO2 TSNO
94908KDBQ DBQ20050223030010602/23/05 03:00:31  5-MIN KDBQ 230900Z AUTO 35005KT 10SM CLR M06/M09 A3031 720 77 -1600 350/05 RMK AO2 TSNO
94908KDBQ DBQ20050223030514002/23/05 03:05:31  5-MIN KDBQ 230905Z AUTO 35006KT 10SM CLR M06/M09 A3031 720 77 -1600 350/06 RMK AO2 TSNO 02/23/0511600 360/06 RMK AO2 TSNO
94908KDBQ DBQ20050223033010502/23/05 03:30:31  5-MIN KDBQ 230930Z AUTO 36006KT 9SM CLR M06/M09 A3031 720 81 -1600 360/06 RMK AO2 TSNO
94908KDBQ DBQ20050223033513102/23/05 03:35:31  5-MIN KDBQ 230935Z AUTO 36006KT 9SM CLR M06/M09 A3031 720 77 -1600 360/06 RMK AO2 TSNO 02/23/05 03:40:31094 TSNO
94908KDBQ DBQ20050223040010502/23/05 04:00:31  5-MIN KDBQ 231000Z AUTO 36006KT 9SM CLR M06/M09 A3031 720 77 -1600 360/06 RMK AO2 TSNO
94908KDBQ DBQ20050223040511402/23/05 04:05:31  5-MIN KDBQ 231005Z AUTO 36005KT 9SM CLR M06/M09 A3031 720 77 -1600 360/05 RMK AO2 TSNO 02/23/05
94908KDBQ DBQ20050223043011602/23/05 04:30:31  5-MIN KDBQ 231030Z AUTO 36004KT 10SM FEW029 SCT036 M06/M09 A3032 710 77 -1600 360/04 RMK AO2 TSNO
94908KDBQ DBQ20050223043512702/23/05 04:35:31  5-MIN KDBQ 231035Z AUTO 36004KT 10SM SCT029 BKN036 M06/M09 A3032 710 77 -1600 360/04 RMK AO2 TSNO 01083 TSNO
94908KDBQ DBQ20050223050010802/23/05 05:00:31  5-MIN KDBQ 231100Z AUTO 35003KT 9SM OVC032 M05/M08 A3032 710 77 -1500 350/03 RMK AO2 TSNO
94908KDBQ DBQ20050223050511902/23/05 05:05:31  5-MIN KDBQ 231105Z AUTO 34004KT 9SM OVC032 M05/M08 A3032 710 77 -1500 340/04 RMK AO2 TSNO 02/23/05OO
94908KDBQ DBQ20050223053010902/23/05 05:30:31  5-MIN KDBQ 231130Z AUTO 36004KT 10SM OVC034 M05/M08 A3032 710 77 -1500 360/04 RMK AO2 TSNO
94908KDBQ DBQ20050223053521302/23/05 05:35:31  5-MIN KDBQ 231135Z AUTO 01004KT 10SM OVC034 M05/M08 A3032 710 77 -1500 010/04 RMK AO2 TSNO O2/23/05000KT 10SM OVC032 M04/M09 A3032 710  71 -1400 000/00 RMK AO2 SLP284 T10441089 11044 21061 51005
94908KDBQ DBQ20050223060009902/23/05 06:00:31  5-MIN KDBQ 231200Z 35003KT 10SM OVC032 M04/M08 A3032 710 74 -1400 350/03 RMK AO2
94908KDBQ DBQ20050223060504002/23/05 06:05:31  5-MIN KDBQ 231205Z 36
94908KDBQ DBQ20050223063010002/23/05 06:30:31  5-MIN KDBQ 231230Z 36005KT 10SM OVC032 M05/M08 A3032 710  77 -1500 360/05 RMK AO2
94908KDBQ DBQ20050223063504202/23/05 06:35:31  5-MIN KDBQ 231235Z 3610
94908KDBQ DBQ20050223070009802/23/05 07:00:31  5-MIN KDBQ 231300Z 01006KT 8SM OVC032 M05/M08 A3031 720 77 -1500 010/06 RMK AO2
94908KDBQ DBQ20050223070505202/23/05 07:05:31  5-MIN20 1077 -1500 010/08 RMK AO2
94908KDBQ DBQ20050223073009802/23/05 07:30:31  5-MIN KDBQ 231330Z 01008KT 7SM OVC032 M05/M08 A3032 710 77 -1500 010/08 RMK AO2
94908KDBQ DBQ20050223075011802/23/05 07:50:31  5-MIN KDBQ 231350Z 03009KT 6SM HZ OVC032 M04/M08 A3032 710 78 -1400 030/09 RMK AO2 SLP281 T10441078
94908KDBQ DBQ20050223075512102/23/05 07:55:31  5-MIN KDBQ 231355Z 01009KT 6SM HZ OVC032 M04/M08 A3032 10  74 -1300 010/09 RMK 78 -1400 360/07 RMK AO2
94908KDBQ DBQ20050223082009802/23/05 08:20:31  5-MIN KDBQ 231420Z 01007KT 8SM FEW032 M03/M07 A3033 700 74 -1300 010/07 RMK AO2
94908KDBQ DBQ20050223082510602/23/05 08:25:31  5-MIN KDBQ 231425Z 36007KT 7SM CLR M03/M07 A3032 710 74 -1300 360/07 RMK AO2 02/23/0574
94908KDBQ DBQ20050223085012102/23/05 08:50:31  5-MIN KDBQ 231450Z 01007KT 8SM BKN029 M03/M07 A3033 700 71 -1200 010/07 RMK AO2 SLP286 T10281072 51005
94908KDBQ DBQ20050223085507402/23/05 08:55:31  5-MIN KDBQ 231455Z 01008KT 8SM BKN029 M03/M07 A3033 710
94908KDBQ DBQ20050223091509802/23/05 09:15:31  5-MIN KDBQ 231515Z 03008KT 8SM OVC029 M03/M07 A3032 710 75 -1200 030/08 RMK AO2
94908KDBQ DBQ20050223092009802/23/05 09:20:31  5-MIN KDBQ 231520Z 03007KT 8SM OVC027 M03/M07 A3032 720 71 -1200 020/07 RMK AO2
94908KDBQ DBQ20050223092506302/23/05 09:25:31  5-MIN KDBQ 231525Z 3675 -1200 020/08 RMK AO2
94908KDBQ DBQ20050223094509802/23/05 09:45:31  5-MIN KDBQ 231545Z 03008KT 7SM OVC027 M03/M07 A3031 720 75 -1200 030/08 RMK AO2
94908KDBQ DBQ20050223095012202/23/05 09:50:31  5-MIN KDBQ 231550Z 02010KT 7SM BKN027 M03/M07 A3031 720 75 -1200 020/10 RMK AO2 SLP278 T10281067RMK AO2
94908KDBQ DBQ20050223101009802/23/05 10:10:31  5-MIN KDBQ 231610Z 36006KT 8SM FEW027 M02/M07 A3030 730 69 -1100 350/06 RMK AO2
94908KDBQ DBQ20050223101516902/23/05 10:15:31  5-MIN KDBQ 231615Z 02008KT 9SM CLR M02/M07 A3030 730 69 -1000 020/08 RMK AO2  KDBQ 231640Z 36005KT 10SM CLR M02/M07 A3031 720 69  -1100 360/05 RMK AO2
94908KDBQ DBQ20050223104509602/23/05 10:45:31  5-MIN KDBQ 231645Z 34007KT 10SM CLR M02/M07 A3030 720 66 -1100 340/07 RMK AO2
94908KDBQ DBQ20050223105014202/23/05 10:50:31  5-MIN KDBQ 231650Z 35003KT 10SM CLR M02/M07 A 66  KDBQ 231710Z 33007KT 9SM SCT009 M02/M07 A3030 730 69 -1000 330/07 RMK AO2
94908KDBQ DBQ20050223105511302/23/05 10:55:31  5-MIN KDBQ 231655Z 36005KT 10SM CLR M02/M07 A3030 720 69 -1100 360/05 RMK AO2 SLP278 T10171067
94908KDBQ DBQ20050223110009502/23/05 11:00:31  5-MIN KDBQ 231700Z 36007KT 9SM CLR M02/M06 A3030 730 72 -1000 360/07 RMK AO2
94908KDBQ DBQ20050223110511402/23/05 11:05:31  5-MIN KDBQ 231705Z 33008KT 310V020 9SM SCT009 M02/M07 A3030 730 69 -1000 330/08 310V020 RMK AO2
94908KDBQ DBQ20050223111009802/23/05 11:10:31  5-MIN KDBQ 231710Z 33007KT 9SM SCT009 M02/M07 A3030 730 69 -1000 330/07 RMK AO2
94908KDBQ DBQ20050223111509802/23/05 11:15:31  5-MIN KDBQ 231715Z 31005KT 9SM SCT009 M02/M07 A3029 730 69 -1100 300/05 RMK AO2
94908KDBQ DBQ20050223112009902/23/05 11:20:31  5-MIN KDBQ 231720Z VRB04KT 10SM SCT009 M02/M07 A3029 730 69 -1100 VRB/04 RMK AO2
94908KDBQ DBQ20050223112509902/23/05 11:25:31  5-MIN KDBQ 231725Z VRB04KT 10SM SCT009 M01/M06 A3029 740 69 -1000 VRB/04 RMK AO2
94908KDBQ DBQ20050223113009802/23/05 11:30:31  5-MIN KDBQ 231730Z 01005KT 9SM SCT009 M02/M07 A3029 740 69 -1000 010/05 RMK AO2
94908KDBQ DBQ20050223113509802/23/05 11:35:31  5-MIN KDBQ 231735Z 31006KT 9SM SCT009 M02/M06 A3029 740 72 -1000 310/06 RMK AO2
94908KDBQ DBQ20050223114009902/23/05 11:40:31  5-MIN KDBQ 231740Z VRB03KT 10SM SCT009 M02/M07 A3029 740 69 -1000 VRB/03 RMK AO2
94908KDBQ DBQ20050223114509902/23/05 11:45:31  5-MIN KDBQ 231745Z VRB04KT 10SM SCT009 M01/M07 A3029 740 66 -1000 VRB/04 RMK AO2
94908KDBQ DBQ20050223115013402/23/05 11:50:31  5-MIN KDBQ 231750Z 34006KT 10SM SCT009 M01/M06 A3028 740 69 -1000 340/06 RMK AO2 SLP270 T10111061 11011 21050 53001
94908KDBQ DBQ20050223115513302/23/05 11:55:31  5-MIN KDBQ 231755Z 01007KT 9SM SCT009 M02/M07 A3028 750 69 -1000 010/07 RMK AO2 SLP269 T10171067 11011 21050 58015
94908KDBQ DBQ20050223120009802/23/05 12:00:31  5-MIN KDBQ 231800Z VRB04KT 10SM SCT025 M01/M07 A3028 750 66 -900 VRB/04 RMK AO2
94908KDBQ DBQ20050223120509802/23/05 12:05:31  5-MIN KDBQ 231805Z 34008KT 10SM SCT025 M01/M07 A3028 750 66 -900 340/08 RMK AO2
94908KDBQ DBQ20050223121009802/23/05 12:10:31  5-MIN KDBQ 231810Z 02006KT 10SM BKN025 M01/M07 A3027 750 66 -900 020/06 RMK AO2
94908KDBQ DBQ20050223121509802/23/05 12:15:31  5-MIN KDBQ 231815Z VRB05KT 10SM SCT025 M01/M07 A3027 760 66 -900 VRB/05 RMK AO2
94908KDBQ DBQ20050223122009802/23/05 12:20:31  5-MIN KDBQ 231820Z 34004KT 10SM FEW025 M01/M07 A3027 760 66 -900 340/04 RMK AO2
94908KDBQ DBQ20050223122509802/23/05 12:25:31  5-MIN KDBQ 231825Z 36006KT 10SM SCT025 M01/M06 A3027 760 66 -900 360/06 RMK AO2
94908KDBQ DBQ20050223123009702/23/05 12:30:31  5-MIN KDBQ 231830Z 35005KT 9SM SCT025 M01/M06 A3027 760 66 -900 350/05 RMK AO2
94908KDBQ DBQ20050223123509702/23/05 12:35:31  5-MIN KDBQ 231835Z 01006KT 9SM FEW025 M01/M06 A3026 760 66 -900 360/06 RMK AO2
94908KDBQ DBQ20050223124009802/23/05 12:40:31  5-MIN KDBQ 231840Z VRB04KT 10SM FEW025 M01/M07 A3026 760 63 -900 VRB/04 RMK AO2
94908KDBQ DBQ20050223124509802/23/05 12:45:31  5-MIN KDBQ 231845Z 33008KT 10SM FEW025 M01/M07 A3026 770 63 -900 330/08 RMK AO2
94908KDBQ DBQ20050223125011502/23/05 12:50:31  5-MIN KDBQ 231850Z 35004KT 10SM FEW025 M01/M07 A3025 770 63 -900 350/04 RMK AO2 SLP260 T10111072
94908KDBQ DBQ20050223125511202/23/05 12:55:31  5-MIN KDBQ 231855Z 01008KT 10SM CLR M01/M07 A3025 770 63 -900 010/08 RMK AO2 SLP259 T10061067
94908KDBQ DBQ20050223130009702/23/05 13:00:31  5-MIN KDBQ 231900Z 01006KT 9SM SCT005 M01/M07 A3025 770 63 -800 010/06 RMK AO2
94908KDBQ DBQ20050223130509702/23/05 13:05:31  5-MIN KDBQ 231905Z VRB04KT 9SM SCT005 M01/M06 A3025 780 66 -800 VRB/04 RMK AO2
94908KDBQ DBQ20050223131009702/23/05 13:10:31  5-MIN KDBQ 231910Z 35007KT 9SM SCT005 M01/M07 A3025 780 63 -800 350/07 RMK AO2
94908KDBQ DBQ20050223131509702/23/05 13:15:31  5-MIN KDBQ 231915Z 01005KT 10SM SCT005 00/M07 A3024 780 61 -800 010/05 RMK AO2
94908KDBQ DBQ20050223132009702/23/05 13:20:31  5-MIN KDBQ 231920Z VRB05KT 10SM SCT005 00/M07 A3024 780 61 -800 VRB/05 RMK AO2
94908KDBQ DBQ20050223132509802/23/05 13:25:31  5-MIN KDBQ 231925Z VRB04KT 10SM SCT005 M01/M07 A3024 780 61 -800 VRB/04 RMK AO2
94908KDBQ DBQ20050223133009702/23/05 13:30:31  5-MIN KDBQ 231930Z 36008KT 10SM SCT005 00/M07 A3024 780 61 -800 360/08 RMK AO2
94908KDBQ DBQ20050223133509702/23/05 13:35:31  5-MIN KDBQ 231935Z 34004KT 10SM SCT005 00/M07 A3024 790 58 -800 340/04 RMK AO2
94908KDBQ DBQ20050223134009702/23/05 13:40:31  5-MIN KDBQ 231940Z 33006KT 10SM SCT005 00/M07 A3024 790 58 -800 330/06 RMK AO2
94908KDBQ DBQ20050223134509802/23/05 13:45:31  5-MIN KDBQ 231945Z 00000KT 10SM SCT005 M01/M07 A3024 790 61 -800 000/00 RMK AO2
94908KDBQ DBQ20050223135011402/23/05 13:50:31  5-MIN KDBQ 231950Z 35005KT 10SM SCT005 00/M07 A3023 790 61 -800 350/05 RMK AO2 SLP253 T00001067
94908KDBQ DBQ20050223135511402/23/05 13:55:31  5-MIN KDBQ 231955Z VRB03KT 10SM SCT005 00/M07 A3023 790 61 -800 VRB/03 RMK AO2 SLP252 T00001067
94908KDBQ DBQ20050223140009702/23/05 14:00:31  5-MIN KDBQ 232000Z VRB04KT 10SM FEW032 00/M07 A3023 790 58 -800 VRB/04 RMK AO2
94908KDBQ DBQ20050223140509702/23/05 14:05:31  5-MIN KDBQ 232005Z VRB05KT 10SM FEW032 01/M07 A3023 790 56 -700 VRB/05 RMK AO2
94908KDBQ DBQ20050223141009702/23/05 14:10:31  5-MIN KDBQ 232010Z 36005KT 10SM SCT032 00/M07 A3023 800 61 -800 360/05 RMK AO2
94908KDBQ DBQ20050223141509702/23/05 14:15:31  5-MIN KDBQ 232015Z 36004KT 10SM SCT032 00/M07 A3022 800 58 -700 360/04 RMK AO2
94908KDBQ DBQ20050223142009802/23/05 14:20:31  5-MIN KDBQ 232020Z 35006KT 10SM FEW032 M01/M08 A3022 800 58 -800 350/06 RMK AO2
94908KDBQ DBQ20050223142509802/23/05 14:25:31  5-MIN KDBQ 232025Z 01004KT 10SM FEW032 M01/M08 A3022 810 58 -800 010/04 RMK AO2
94908KDBQ DBQ20050223143009802/23/05 14:30:31  5-MIN KDBQ 232030Z VRB04KT 10SM FEW032 M01/M08 A3021 810 56 -800 VRB/04 RMK AO2
94908KDBQ DBQ20050223143509402/23/05 14:35:31  5-MIN KDBQ 232035Z 32004KT 10SM CLR 00/M08 A3021 810 56 -700 320/04 RMK AO2
94908KDBQ DBQ20050223144009702/23/05 14:40:31  5-MIN KDBQ 232040Z 00000KT 10SM FEW035 00/M08 A3021 810 56 -700 000/00 RMK AO2
94908KDBQ DBQ20050223144509702/23/05 14:45:31  5-MIN KDBQ 232045Z VRB04KT 10SM SCT033 01/M07 A3021 810 58 -700 VRB/04 RMK AO2
94908KDBQ DBQ20050223145012002/23/05 14:50:31  5-MIN KDBQ 232050Z 02007KT 10SM SCT033 01/M07 A3021 810 56 -700 020/07 RMK AO2 SLP243 T00061072 58015
94908KDBQ DBQ20050223145512002/23/05 14:55:31  5-MIN KDBQ 232055Z 02007KT 10SM FEW033 01/M07 A3021 810 56 -700 020/07 RMK AO2 SLP243 T00061072 57024
94908KDBQ DBQ20050223150009702/23/05 15:00:31  5-MIN KDBQ 232100Z 03004KT 10SM SCT033 01/M07 A3021 810 56 -700 030/04 RMK AO2
94908KDBQ DBQ20050223150509702/23/05 15:05:31  5-MIN KDBQ 232105Z 36004KT 10SM SCT033 01/M07 A3021 810 56 -700 360/04 RMK AO2
94908KDBQ DBQ20050223151009702/23/05 15:10:31  5-MIN KDBQ 232110Z 34006KT 10SM SCT033 01/M07 A3021 810 56 -700 340/06 RMK AO2
94908KDBQ DBQ20050223151509702/23/05 15:15:31  5-MIN KDBQ 232115Z 33006KT 10SM FEW033 00/M07 A3021 810 58 -700 330/06 RMK AO2
94908KDBQ DBQ20050223152009802/23/05 15:20:31  5-MIN KDBQ 232120Z 33007KT 10SM FEW033 M01/M08 A3021 810 58 -800 330/07 RMK AO2
94908KDBQ DBQ20050223152509702/23/05 15:25:31  5-MIN KDBQ 232125Z 35006KT 10SM FEW033 00/M07 A3021 810 58 -700 350/06 RMK AO2
94908KDBQ DBQ20050223153009402/23/05 15:30:31  5-MIN KDBQ 232130Z 33005KT 10SM CLR 00/M07 A3021 810 58 -700 330/05 RMK AO2
94908KDBQ DBQ20050223153509402/23/05 15:35:31  5-MIN KDBQ 232135Z 34005KT 10SM CLR 00/M07 A3021 810 58 -700 340/05 RMK AO2
94908KDBQ DBQ20050223154009702/23/05 15:40:31  5-MIN KDBQ 232140Z VRB03KT 10SM FEW034 00/M08 A3021 820 56 -700 VRB/03 RMK AO2
94908KDBQ DBQ20050223154509702/23/05 15:45:31  5-MIN KDBQ 232145Z 33004KT 10SM FEW034 01/M07 A3021 810 56 -700 330/04 RMK AO2
94908KDBQ DBQ20050223155011402/23/05 15:50:31  5-MIN KDBQ 232150Z 34007KT 10SM FEW034 01/M07 A3021 820 58 -700 340/07 RMK AO2 SLP243 T00061067
94908KDBQ DBQ20050223155511402/23/05 15:55:31  5-MIN KDBQ 232155Z 34005KT 10SM FEW034 00/M07 A3020 820 61 -700 340/05 RMK AO2 SLP243 T00001067
94908KDBQ DBQ20050223160009802/23/05 16:00:31  5-MIN KDBQ 232200Z 33005KT 10SM FEW034 M01/M07 A3020 820 63 -800 330/05 RMK AO2
94908KDBQ DBQ20050223160509802/23/05 16:05:31  5-MIN KDBQ 232205Z 33005KT 10SM FEW034 M01/M07 A3020 820 63 -800 330/05 RMK AO2
94908KDBQ DBQ20050223161009502/23/05 16:10:31  5-MIN KDBQ 232210Z 32005KT 10SM CLR M01/M07 A3020 820 61 -800 320/05 RMK AO2
94908KDBQ DBQ20050223161509502/23/05 16:15:31  5-MIN KDBQ 232215Z 30004KT 10SM CLR M01/M07 A3020 820 61 -800 300/04 RMK AO2
94908KDBQ DBQ20050223162009502/23/05 16:20:31  5-MIN KDBQ 232220Z 32003KT 10SM CLR M01/M08 A3020 820 58 -800 320/03 RMK AO2
94908KDBQ DBQ20050223162509402/23/05 16:25:31  5-MIN KDBQ 232225Z 00000KT 10SM CLR 00/M07 A3020 820 58 -700 000/00 RMK AO2
94908KDBQ DBQ20050223163009702/23/05 16:30:31  5-MIN KDBQ 232230Z 00000KT 10SM FEW034 01/M08 A3020 820 54 -700 000/00 RMK AO2
94908KDBQ DBQ20050223163509702/23/05 16:35:31  5-MIN KDBQ 232235Z 00000KT 10SM FEW034 01/M08 A3020 820 54 -700 000/00 RMK AO2
94908KDBQ DBQ20050223164009702/23/05 16:40:31  5-MIN KDBQ 232240Z 00000KT 10SM FEW034 00/M07 A3020 820 58 -700 000/00 RMK AO2
94908KDBQ DBQ20050223164509702/23/05 16:45:31  5-MIN KDBQ 232245Z 34005KT 10SM FEW034 00/M07 A3020 820 58 -700 340/05 RMK AO2
94908KDBQ DBQ20050223165011402/23/05 16:50:31  5-MIN KDBQ 232250Z 33005KT 10SM FEW034 00/M07 A3020 820 61 -700 330/05 RMK AO2 SLP242 T00001067
94908KDBQ DBQ20050223165511402/23/05 16:55:31  5-MIN KDBQ 232255Z 32004KT 10SM FEW034 00/M07 A3020 820 61 -700 320/04 RMK AO2 SLP240 T00001067
94908KDBQ DBQ20050223170009402/23/05 17:00:31  5-MIN KDBQ 232300Z 00000KT 10SM CLR 00/M07 A3020 820 58 -700 000/00 RMK AO2
94908KDBQ DBQ20050223170509402/23/05 17:05:31  5-MIN KDBQ 232305Z 00000KT 10SM CLR 00/M07 A3020 820 58 -700 000/00 RMK AO2
94908KDBQ DBQ20050223171009402/23/05 17:10:31  5-MIN KDBQ 232310Z 01003KT 10SM CLR 00/M07 A3020 820 58 -700 010/03 RMK AO2
94908KDBQ DBQ20050223171509402/23/05 17:15:31  5-MIN KDBQ 232315Z 00000KT 10SM CLR 00/M07 A3020 820 61 -700 000/00 RMK AO2
94908KDBQ DBQ20050223172009502/23/05 17:20:31  5-MIN KDBQ 232320Z 33003KT 10SM CLR M01/M07 A3020 830 63 -800 330/03 RMK AO2
94908KDBQ DBQ20050223172509502/23/05 17:25:31  5-MIN KDBQ 232325Z 33003KT 10SM CLR M01/M07 A3019 830 63 -800 330/03 RMK AO2
94908KDBQ DBQ20050223173009502/23/05 17:30:31  5-MIN KDBQ 232330Z 33003KT 10SM CLR M01/M07 A3019 830 66 -900 330/03 RMK AO2
94908KDBQ DBQ20050223173509502/23/05 17:35:31  5-MIN KDBQ 232335Z 33003KT 10SM CLR M01/M06 A3019 830 69 -900 330/03 RMK AO2
94908KDBQ DBQ20050223174009502/23/05 17:40:31  5-MIN KDBQ 232340Z 34003KT 10SM CLR M02/M06 A3019 830 72 -900 340/03 RMK AO2
94908KDBQ DBQ20050223174510902/23/05 17:45:31  5-MIN 69 M CLR M02/M07 A3019 830 69 -900 000/00 RMK AO2 SLP240 T10171067 10006 21017 57024
94908KDBQ DBQ20050223175512902/23/05 17:55:31  5-MIN KDBQ 232355Z 00000KT 9SM CLR M02/M07 A3019 830 69 -900 000/00 RMK AO2 SLP240 T10171067 10006 21017 57005
94908KDBQ DBQ20050223180012302/23/05 18:00:31  5-MIN02/23/05 18:20:31  5-MIN KDBQ 240020Z 00000KT 10SM FEW036 M02/M07 A3019 830  66 -900 000/00 RMK AO2
94908KDBQ DBQ20050223182509902/23/05 18:25:31  5-MIN KDBQ 240025Z 00000KT 10SM FEW036 M02/M07 A3019 830 72 -1000 000/00 RMK AO2
94908KDBQ DBQ20050223183006402/23/05 18:30:31  5-MIN KDBQ 240030Z 04  63 -900 000/00 RMK AO2
94908KDBQ DBQ20050223185011502/23/05 18:50:31  5-MIN KDBQ 240050Z 00000KT 10SM SCT036 M02/M08 A3019 830 63 -900 000/00 RMK AO2 SLP239 T10171078
94908KDBQ DBQ20050223185516602/23/05 18:55:31  5-MIN KDBQ 240055Z 00000KT 10SM SCT036 M01/M08 A3019 830 60 -900 000/00830 KDBQ 240115Z 03004KT 10SM CLR M04/M07 A3019 830 78  -1200 030/04 RMK AO2
94908KDBQ DBQ20050223192009602/23/05 19:20:31  5-MIN KDBQ 240120Z 03004KT 10SM CLR M03/M07 A3019 830 71 -1100 030/04 RMK AO2
94908KDBQ DBQ20050223192515002/23/05 19:25:31  5-MIN KDBQ 240125Z 05004KT 10SM CLR M03/M07 A3019 830 71 -1100 050/04 RMK AO2 02/23/05 19:30:3 66 /03 RMK AO2 SLP239 T10221078 TSNO
94908KDBQ DBQ20050223195512202/23/05 19:55:31  5-MIN KDBQ 240155Z AUTO 09003KT 10SM CLR M02/M08 A3019 830 63 -900 090/03 RMK AO2 SLP239 T10171078 TSNO
94908KDBQ DBQ20050223200009902/23/05 20:00:31  5-MIN KDBQ 240200Z AUTO 08003KT 10SM CLR M02/M08 A3019 91100 090/04 RMK AO2 TSNO
94908KDBQ DBQ20050223202010502/23/05 20:20:31  5-MIN KDBQ 240220Z AUTO 09004KT 9SM CLR M04/M08 A3019 830 74 -1200 090/04 RMK AO2 TSNO
94908KDBQ DBQ20050223202513102/23/05 20:25:31  5-MIN KDBQ 240225Z AUTO 10004KT 9SM CLR M03/M08 A3019 830 71 -1100 100/04 RMK AO2 TSNO -1100 100/05 RMK AO2 TSNO
94908KDBQ DBQ20050223205013102/23/05 20:50:31  5-MIN KDBQ 240250Z AUTO 10006KT 9SM FEW032 M03/M07 A3019 830 74 -1100 100/06 RMK AO2 SLP238 T10331072 57005 TSNO
94908KDBQ DBQ20050223205507602/23/05 20:55:31  5-MIN KDBQ 240255Z AUTO 10006KT 9SM FEW032 M03/M07 A3019O
94908KDBQ DBQ20050223211510502/23/05 21:15:31  5-MIN KDBQ 240315Z AUTO 11006KT 8SM CLR M04/M08 A3018 840 74 -1200 110/06 RMK AO2 TSNO
94908KDBQ DBQ20050223212010502/23/05 21:20:31  5-MIN KDBQ 240320Z AUTO 11006KT 8SM CLR M04/M08 A3018 840 74 -1200 110/06 RMK AO2 TSNO
94908KDBQ DBQ20050223212504002/23/05 21:25:31  5-MIN/05 RMK AO2 TSNO
94908KDBQ DBQ20050223214510502/23/05 21:45:31  5-MIN KDBQ 240345Z AUTO 12003KT 8SM CLR M04/M07 A3018 840 81 -1300 120/03 RMK AO2 TSNO
94908KDBQ DBQ20050223215014702/23/05 21:50:31  5-MIN KDBQ 240350Z AUTO 13003KT 8SM CLR M04/M07 A3018 840 78 -1200 130/03 RMK AO2 SLP234 T1039O 840 78 -1200 140/03 RMK AO2 TSNO
94908KDBQ DBQ20050223221010502/23/05 22:10:31  5-MIN KDBQ 240410Z AUTO 13003KT 7SM CLR M04/M07 A3017 850 78 -1200 130/03 RMK AO2 TSNO
94908KDBQ DBQ20050223221510502/23/05 22:15:31  5-MIN KDBQ 240415Z AUTO 15003KT 7SM CLR M04/M07 A3017 850 78 -1200 150/03 RMK AO2 TSNO
94908KDBQ DBQ20050223222010502/23/05 22:20:31  5-MIN KDBQ 240420Z AUTO 00000KT 7SM CLR M04/M07 A3017 840 78 -1200 000/00 RMK AO2 TSNO
94908KDBQ DBQ20050223222510502/23/05 22:25:31  5-MIN KDBQ 240425Z AUTO 00000KT 8SM CLR M04/M07 A3018 840 78 -1200 000/00 RMK AO2 TSNO
94908KDBQ DBQ20050223223010502/23/05 22:30:31  5-MIN KDBQ 240430Z AUTO 00000KT 8SM CLR M04/M08 A3018 840 78 -1300 000/00 RMK AO2 TSNO
94908KDBQ DBQ20050223223510502/23/05 22:35:31  5-MIN KDBQ 240435Z AUTO 00000KT 8SM CLR M05/M08 A3018 840 81 -1300 000/00 RMK AO2 TSNO
94908KDBQ DBQ20050223224010502/23/05 22:40:31  5-MIN KDBQ 240440Z AUTO 00000KT 8SM CLR M04/M08 A3018 840 78 -1300 000/00 RMK AO2 TSNO
94908KDBQ DBQ20050223224510502/23/05 22:45:31  5-MIN KDBQ 240445Z AUTO 22003KT 8SM CLR M04/M08 A3018 840 78 -1300 220/03 RMK AO2 TSNO
94908KDBQ DBQ20050223225012202/23/05 22:50:31  5-MIN KDBQ 240450Z AUTO 00000KT 8SM CLR M05/M08 A3018 840 81 -1300 000/00 RMK AO2 SLP233 T10501078 TSNO
94908KDBQ DBQ20050223225512202/23/05 22:55:31  5-MIN KDBQ 240455Z AUTO 00000KT 7SM CLR M05/M07 A3017 840 84 -1300 000/00 RMK AO2 SLP233 T10501072 TSNO
94908KDBQ DBQ20050223230010502/23/05 23:00:31  5-MIN KDBQ 240500Z AUTO 00000KT 8SM CLR M04/M07 A3017 840 81 -1300 000/00 RMK AO2 TSNO
94908KDBQ DBQ20050223230510502/23/05 23:05:31  5-MIN KDBQ 240505Z AUTO 00000KT 8SM CLR M04/M07 A3018 840 81 -1300 000/00 RMK AO2 TSNO
94908KDBQ DBQ20050223231010502/23/05 23:10:31  5-MIN KDBQ 240510Z AUTO 00000KT 8SM CLR M04/M07 A3017 840 81 -1300 000/00 RMK AO2 TSNO
94908KDBQ DBQ20050223231510502/23/05 23:15:31  5-MIN KDBQ 240515Z AUTO 00000KT 7SM CLR M05/M07 A3017 840 84 -1300 000/00 RMK AO2 TSNO
94908KDBQ DBQ20050223232010502/23/05 23:20:31  5-MIN KDBQ 240520Z AUTO 00000KT 7SM CLR M04/M07 A3018 840 81 -1300 000/00 RMK AO2 TSNO
94908KDBQ DBQ20050223232510502/23/05 23:25:31  5-MIN KDBQ 240525Z AUTO 00000KT 7SM CLR M05/M07 A3017 850 84 -1300 000/00 RMK AO2 TSNO
94908KDBQ DBQ20050223233010502/23/05 23:30:31  5-MIN KDBQ 240530Z AUTO 00000KT 7SM CLR M05/M07 A3017 840 84 -1300 000/00 RMK AO2 TSNO
94908KDBQ DBQ20050223233510502/23/05 23:35:31  5-MIN KDBQ 240535Z AUTO 00000KT 7SM CLR M06/M07 A3017 850 88 -1400 000/00 RMK AO2 TSNO
94908KDBQ DBQ20050223234006502/23/05 23:40:31  5-MIN KDBQ 24 850 81 -1300 000/00 RMK AO2 TSNO
94908KDBQ DBQ20050223234510502/23/05 23:45:31  5-MIN KDBQ 240545Z AUTO 00000KT 8SM CLR M04/M08 A3017 850 78 -1300 000/00 RMK AO2 TSNO
94908KDBQ DBQ20050223235012102/23/05 23:50:31  5-MIN KDBQ 240550Z AUTO 00000KT 8SM CLR M04/M08 A3017 850 78 -1300 000/00 RMK 1300 020/05 RMK AO2 TSNO
94908KDBQ DBQ20050224001010902/24/05 00:10:31  5-MIN KDBQ 240610Z AUTO 02004KT 10SM FEW110 M04/M08 A3017 850 74 -1200 020/04 RMK AO2 TSNO
94908KDBQ DBQ20050224001513302/24/05 00:15:31  5-MIN KDBQ 240615Z AUTO 01004KT 10SM SCT110 M04/M08 A3017 850 74 -1200 010/04 RMK AO0 74 -1200 360/03 RMK AO2 TSNO
94908KDBQ DBQ20050224004010902/24/05 00:40:31  5-MIN KDBQ 240640Z AUTO 01004KT 10SM OVC110 M04/M08 A3016 850 71 -1200 010/04 RMK AO2 TSNO
94908KDBQ DBQ20050224004514802/24/05 00:45:31  5-MIN KDBQ 240645Z AUTO 01003KT 10SM OVC110 M04/M08 0705Z AUTO 00000KT 10SM OVC100 M04/M08 A3016 850 71 -1200 000/00 RMK AO2 TSNO
94908KDBQ DBQ20050224011010902/24/05 01:10:31  5-MIN KDBQ 240710Z AUTO 00000KT 10SM OVC100 M04/M08 A3016 850 71 -1200 000/00 RMK AO2 TSNO
94908KDBQ DBQ20050224011519502/24/05 01:15:31  5-MIN KDBQ 240715Z AUTO 00000KT 10SM OVC100 M04/M08 A3016 850 71 -1200 000/00 RMK AO2 TSNO  KDBQ 240745Z AUTO 00000KT 10SM OVC090 M04/M08 A3016 860 74 -1200 000/00 RMK AO2 TSNO
94908KDBQ DBQ20050224015012602/24/05 01:50:31  5-MIN KDBQ 240750Z AUTO 00000KT 10SM OVC090 M04/M08 A3016 860 74 -1200 000/00 RMK AO2 SLP226 T10441083 TSNO
94908KDBQ DBQ20050224021510902/24/05 02:15:31  5-MIN KDBQ 240815Z AUTO 03003KT 10SM OVC090 M04/M08 A3015 870 74 -1200 030/03 RMK AO2 TSNO
94908KDBQ DBQ20050224022012602/24/05 02:20:31  5-MIN KDBQ 240820Z AUTO 00000KT 10SM OVC090 M04/M08 A3015 870 74 -1200 000/00 RMK AO2 TSNO 2 TSNO05 02:25:3
94908KDBQ DBQ20050224024010902/24/05 02:40:31  5-MIN KDBQ 240840Z AUTO 00000KT 10SM OVC090 M04/M08 A3014 870 74 -1200 000/00 RMK AO2 TSNO
94908KDBQ DBQ20050224024518702/24/05 02:45:31  5-MIN KDBQ 240845Z AUTO 00000KT 10SM OVC085 M04/M08 A3014 870 78 -1200 000/00 RMK AO2 TSNO 0905Z AUTO 00000KT 10SM OVC090 M04/M08 A3013 880 74 -1200 000/00 RMK AO2 TSNO
94908KDBQ DBQ20050224031019702/24/05 03:10:31  5-MIN KDBQ 240910Z AUTO 04003KT 10SM OVC090 M04/M08 A3013 880 78 -1200 040/03 RMK AO2 TSNO  KDBQ 240935Z AUTO 00000KT 10SM OVC085 M04/M08 3 A3013 890 74 -1200 000/00 RMK AO2 TSNO
94908KDBQ DBQ20050224034014902/24/05 03:40:31  5-MIN KDBQ 240940Z AUTO 00000KT 10SM BKN080 OVC095 M04/M08 A3013 890 78 -1200 000/00 RMK AO2 TSNO 0 74 -1200 000/00 RMK AO2 TSNO24
94908KDBQ DBQ20050224040510902/24/05 04:05:31  5-MIN KDBQ 241005Z AUTO 00000KT 10SM OVC090 M04/M08 A3013 890 74 -1200 000/00 RMK AO2 TSNO
94908KDBQ DBQ20050224041018602/24/05 04:10:31  5-MIN KDBQ 241010Z AUTO 00000KT 10SM OVC090 M04/M08 A3013 890 74 -1200 000/0 KDBQ 241030Z AUTO 00000KT 9SM SCT080 OVC095 M04/M08 A3012 890 78 -1200 000/00 RMK AO2 TSNO
94908KDBQ DBQ20050224043511502/24/05 04:35:31  5-MIN KDBQ 241035Z AUTO 00000KT 9SM BKN075 OVC095 M04/M08 A3012 890 78 -1200 000/00 RMK AO2 TSNO
94908KDBQ DBQ20050224044011502/24/05 04:40:31  5-MIN KDBQ 241040Z AUTO 00000KT 9SM BKN080 OVC095 M04/M08 A3012 890 78 -1200 000/00 RMK AO2 TSNO
94908KDBQ DBQ20050224044511502/24/05 04:45:31  5-MIN KDBQ 241045Z AUTO 00000KT 9SM BKN080 OVC095 M04/M08 A3012 890 78 -1200 000/00 RMK AO2 TSNO
94908KDBQ DBQ20050224045013202/24/05 04:50:31  5-MIN KDBQ 241050Z AUTO 05003KT 9SM BKN080 OVC100 M04/M07 A3012 890 81 -1200 050/03 RMK AO2 SLP214 T10441072 TSNO
94908KDBQ DBQ20050224045513202/24/05 04:55:31  5-MIN KDBQ 241055Z AUTO 04004KT 9SM BKN080 OVC095 M04/M08 A3012 890 78 -1200 040/04 RMK AO2 SLP214 T10441078 TSNO
94908KDBQ DBQ20050224050011502/24/05 05:00:31  5-MIN KDBQ 241100Z AUTO 04004KT 9SM BKN080 OVC095 M04/M08 A3012 890 78 -1200 040/04 RMK AO2 TSNO
94908KDBQ DBQ20050224050510802/24/05 05:05:31  5-MIN KDBQ 241105Z AUTO 05005KT 9SM OVC080 M04/M08 A3012 900 78 -1200 050/05 RMK AO2 TSNO
94908KDBQ DBQ20050224051010802/24/05 05:10:31  5-MIN KDBQ 241110Z AUTO 05005KT 8SM OVC080 M05/M07 A3012 900 84 -1300 050/05 RMK AO2 TSNO
94908KDBQ DBQ20050224051510802/24/05 05:15:31  5-MIN KDBQ 241115Z AUTO 06004KT 8SM OVC080 M05/M08 A3012 900 81 -1300 050/04 RMK AO2 TSNO
94908KDBQ DBQ20050224052011502/24/05 05:20:31  5-MIN KDBQ 241120Z AUTO 05004KT 8SM BKN075 OVC085 M05/M08 A3012 900 81 -1300 050/04 RMK AO2 TSNO
94908KDBQ DBQ20050224052510802/24/05 05:25:31  5-MIN KDBQ 241125Z AUTO 05003KT 8SM OVC075 M05/M07 A3012 900 84 -1300 050/03 RMK AO2 TSNO
94908KDBQ DBQ20050224053010802/24/05 05:30:31  5-MIN KDBQ 241130Z AUTO 00000KT 8SM OVC070 M05/M07 A3012 900 84 -1300 000/00 RMK AO2 TSNO
94908KDBQ DBQ20050224053510802/24/05 05:35:31  5-MIN KDBQ 241135Z AUTO 08003KT 8SM OVC070 M05/M07 A3012 900 84 -1300 080/03 RMK AO2 TSNO
94908KDBQ DBQ20050224054010802/24/05 05:40:31  5-MIN KDBQ 241140Z AUTO 09003KT 8SM OVC070 M04/M07 A3012 900 81 -1200 090/03 RMK AO2 TSNO
94908KDBQ DBQ20050224054511502/24/05 05:45:31  5-MIN KDBQ 241145Z AUTO 00000KT 8SM BKN070 OVC100 M04/M07 A3012 900 81 -1200 000/00 RMK AO2 TSNO
94908KDBQ DBQ20050224055015002/24/05 05:50:31  5-MIN KDBQ 241150Z AUTO 10003KT 7SM BKN075 OVC100 M04/M07 A3012 900 81 -1200 100/03 RMK AO2 SLP213 T10441072 11039 21050 58010 TSNO
94908KDBQ DBQ20050224055513302/24/05 05:55:31  5-MIN KDBQ 241155Z 11003KT 7SM OVC070 M04/M07 A3012 900 84 -1200 110/03 RMK AO2 SLP213 T10441067 11039 21050 56007
94908KDBQ DBQ20050224060009802/24/05 06:00:31  5-MIN KDBQ 241200Z 00000KT 7SM OVC075 M04/M07 A3012 900 84 -1200 000/00 RMK AO2
94908KDBQ DBQ20050224060509802/24/05 06:05:31  5-MIN KDBQ 241205Z 00000KT 7SM OVC075 M04/M07 A3012 890 81 -1100 000/00 RMK AO2
94908KDBQ DBQ20050224061010502/24/05 06:10:31  5-MIN KDBQ 241210Z 00000KT 7SM BKN075 OVC090 M04/M07 A3012 900 78 -1100 000/00 RMK AO2
94908KDBQ DBQ20050224061509802/24/05 06:15:31  5-MIN KDBQ 241215Z 00000KT 7SM OVC075 M04/M07 A3012 890 78 -1100 000/00 RMK AO2
94908KDBQ DBQ20050224062009802/24/05 06:20:31  5-MIN KDBQ 241220Z 11003KT 7SM OVC075 M04/M07 A3012 890 78 -1100 110/03 RMK AO2
94908KDBQ DBQ20050224062510502/24/05 06:25:31  5-MIN KDBQ 241225Z 00000KT 7SM BKN070 OVC080 M04/M07 A3012 890 78 -1100 000/00 RMK AO2
94908KDBQ DBQ20050224063010502/24/05 06:30:31  5-MIN KDBQ 241230Z 00000KT 7SM BKN070 OVC080 M04/M07 A3012 890 78 -1100 000/00 RMK AO2
94908KDBQ DBQ20050224063510502/24/05 06:35:31  5-MIN KDBQ 241235Z 00000KT 7SM BKN070 OVC080 M04/M07 A3012 890 81 -1100 000/00 RMK AO2
94908KDBQ DBQ20050224064010502/24/05 06:40:31  5-MIN KDBQ 241240Z 00000KT 7SM SCT065 OVC080 M04/M07 A3012 890 81 -1100 000/00 RMK AO2
94908KDBQ DBQ20050224064510502/24/05 06:45:31  5-MIN KDBQ 241245Z 00000KT 7SM BKN060 OVC080 M04/M07 A3013 890 81 -1100 000/00 RMK AO2
94908KDBQ DBQ20050224065012202/24/05 06:50:31  5-MIN KDBQ 241250Z 00000KT 7SM BKN060 OVC080 M04/M07 A3013 890 81 -1100 000/00 RMK AO2 SLP217 T10391067
94908KDBQ DBQ20050224065512502/24/05 06:55:31  5-MIN KDBQ 241255Z 00000KT 6SM BR SCT065 OVC080 M04/M07 A3013 890 84 -1200 000/00 RMK AO2 SLP217 T10441067
94908KDBQ DBQ20050224070010802/24/05 07:00:31  5-MIN KDBQ 241300Z 00000KT 5SM BR BKN065 OVC080 M04/M07 A3013 890 84 -1200 000/00 RMK AO2
94908KDBQ DBQ20050224070510802/24/05 07:05:31  5-MIN KDBQ 241305Z 00000KT 6SM BR BKN065 OVC080 M04/M07 A3013 890 84 -1200 000/00 RMK AO2
94908KDBQ DBQ20050224071010802/24/05 07:10:31  5-MIN KDBQ 241310Z 00000KT 6SM BR BKN065 OVC080 M04/M07 A3013 890 84 -1200 000/00 RMK AO2
94908KDBQ DBQ20050224071510802/24/05 07:15:31  5-MIN KDBQ 241315Z 00000KT 6SM BR BKN060 OVC080 M04/M07 A3013 880 84 -1200 000/00 RMK AO2
94908KDBQ DBQ20050224072010102/24/05 07:20:31  5-MIN KDBQ 241320Z 00000KT 6SM HZ OVC060 M04/M07 A3013 880 81 -1200 000/00 RMK AO2
94908KDBQ DBQ20050224072510102/24/05 07:25:31  5-MIN KDBQ 241325Z 00000KT 6SM HZ OVC060 M04/M07 A3013 880 81 -1200 000/00 RMK AO2
94908KDBQ DBQ20050224073010102/24/05 07:30:31  5-MIN KDBQ 241330Z 00000KT 6SM HZ OVC060 M04/M07 A3013 880 81 -1200 000/00 RMK AO2
94908KDBQ DBQ20050224073510102/24/05 07:35:31  5-MIN KDBQ 241335Z 00000KT 6SM BR OVC060 M04/M07 A3013 880 84 -1200 000/00 RMK AO2
94908KDBQ DBQ20050224074010102/24/05 07:40:31  5-MIN KDBQ 241340Z 00000KT 6SM BR OVC060 M04/M07 A3014 880 84 -1200 000/00 RMK AO2
94908KDBQ DBQ20050224074510102/24/05 07:45:31  5-MIN KDBQ 241345Z 00000KT 5SM HZ OVC060 M04/M07 A3014 880 81 -1100 000/00 RMK AO2
94908KDBQ DBQ20050224075011802/24/05 07:50:31  5-MIN KDBQ 241350Z 00000KT 5SM BR OVC060 M04/M07 A3014 880 84 -1200 000/00 RMK AO2 SLP221 T10441067
94908KDBQ DBQ20050224075511802/24/05 07:55:31  5-MIN KDBQ 241355Z 00000KT 5SM HZ OVC060 M04/M07 A3014 870 81 -1100 000/00 RMK AO2 SLP222 T10391067
94908KDBQ DBQ20050224080010102/24/05 08:00:31  5-MIN KDBQ 241400Z 04004KT 5SM BR OVC065 M04/M07 A3014 880 84 -1200 030/04 RMK AO2
94908KDBQ DBQ20050224080510102/24/05 08:05:31  5-MIN KDBQ 241405Z 05005KT 5SM HZ OVC065 M04/M07 A3014 880 81 -1100 050/05 RMK AO2
94908KDBQ DBQ20050224081010102/24/05 08:10:31  5-MIN KDBQ 241410Z 04004KT 5SM HZ OVC070 M04/M07 A3014 880 81 -1200 040/04 RMK AO2
94908KDBQ DBQ20050224081510102/24/05 08:15:31  5-MIN KDBQ 241415Z 04004KT 5SM HZ OVC070 M04/M07 A3014 880 81 -1200 040/04 RMK AO2
94908KDBQ DBQ20050224082010102/24/05 08:20:31  5-MIN KDBQ 241420Z 05003KT 5SM HZ OVC065 M04/M07 A3014 880 78 -1100 040/03 RMK AO2
94908KDBQ DBQ20050224082510102/24/05 08:25:31  5-MIN KDBQ 241425Z 00000KT 5SM HZ OVC070 M04/M07 A3014 880 81 -1100 000/00 RMK AO2
94908KDBQ DBQ20050224083010802/24/05 08:30:31  5-MIN KDBQ 241430Z 00000KT 5SM HZ BKN065 OVC080 M03/M07 A3014 880 78 -1100 000/00 RMK AO2
94908KDBQ DBQ20050224083510102/24/05 08:35:31  5-MIN KDBQ 241435Z 00000KT 5SM HZ OVC075 M03/M07 A3014 880 78 -1100 000/00 RMK AO2
94908KDBQ DBQ20050224084010102/24/05 08:40:31  5-MIN KDBQ 241440Z 00000KT 5SM HZ OVC075 M03/M07 A3014 880 78 -1100 000/00 RMK AO2
94908KDBQ DBQ20050224084510102/24/05 08:45:31  5-MIN KDBQ 241445Z 00000KT 5SM HZ OVC070 M03/M07 A3013 880 78 -1100 000/00 RMK AO2
94908KDBQ DBQ20050224085012402/24/05 08:50:31  5-MIN KDBQ 241450Z 00000KT 5SM HZ BKN075 M03/M06 A3014 880 78 -1000 000/00 RMK AO2 SLP220 T10281061 56007
94908KDBQ DBQ20050224085512402/24/05 08:55:31  5-MIN KDBQ 241455Z 00000KT 5SM HZ BKN075 M03/M06 A3014 880 78 -1000 000/00 RMK AO2 SLP220 T10281061 50007
94908KDBQ DBQ20050224090010102/24/05 09:00:31  5-MIN KDBQ 241500Z 00000KT 5SM HZ SCT075 M03/M06 A3014 880 78 -1000 000/00 RMK AO2
94908KDBQ DBQ20050224090510102/24/05 09:05:31  5-MIN KDBQ 241505Z 00000KT 5SM HZ SCT075 M03/M06 A3014 880 78 -1000 000/00 RMK AO2
94908KDBQ DBQ20050224091010002/24/05 09:10:31  5-MIN KDBQ 241510Z 14003KT 5SM HZ FEW075 M02/M06 A3014 880 75 -900 140/03 RMK AO2
94908KDBQ DBQ20050224091509702/24/05 09:15:31  5-MIN KDBQ 241515Z 13003KT 5SM HZ CLR M02/M06 A3013 880 75 -900 130/03 RMK AO2
94908KDBQ DBQ20050224092009702/24/05 09:20:31  5-MIN KDBQ 241520Z 11003KT 6SM HZ CLR M02/M06 A3013 880 75 -900 110/03 RMK AO2
94908KDBQ DBQ20050224092509702/24/05 09:25:31  5-MIN KDBQ 241525Z 00000KT 6SM HZ CLR M02/M06 A3013 880 75 -900 000/00 RMK AO2
94908KDBQ DBQ20050224093009702/24/05 09:30:31  5-MIN KDBQ 241530Z VRB03KT 6SM HZ CLR M02/M06 A3013 880 75 -900 VRB/03 RMK AO2
94908KDBQ DBQ20050224093509702/24/05 09:35:31  5-MIN KDBQ 241535Z 14003KT 6SM HZ CLR M02/M06 A3014 880 75 -900 130/03 RMK AO2
94908KDBQ DBQ20050224094009702/24/05 09:40:31  5-MIN KDBQ 241540Z 00000KT 6SM HZ CLR M02/M06 A3014 880 75 -900 000/00 RMK AO2
94908KDBQ DBQ20050224094509702/24/05 09:45:31  5-MIN KDBQ 241545Z 18004KT 6SM HZ CLR M02/M06 A3014 870 72 -900 180/04 RMK AO2
94908KDBQ DBQ20050224095011102/24/05 09:50:31  5-MIN KDBQ 241550Z 00000KT 7SM CLR M02/M06 A3014 870 72 -900 000/00 RMK AO2 SLP222 T10171061
94908KDBQ DBQ20050224095511102/24/05 09:55:31  5-MIN KDBQ 241555Z 00000KT 7SM CLR M02/M06 A3014 870 72 -900 000/00 RMK AO2 SLP223 T10171061
94908KDBQ DBQ20050224100009402/24/05 10:00:31  5-MIN KDBQ 241600Z 00000KT 7SM CLR M02/M06 A3014 870 72 -900 000/00 RMK AO2
94908KDBQ DBQ20050224100509402/24/05 10:05:31  5-MIN KDBQ 241605Z 00000KT 7SM CLR M01/M06 A3014 870 69 -700 000/00 RMK AO2
94908KDBQ DBQ20050224101009402/24/05 10:10:31  5-MIN KDBQ 241610Z 00000KT 7SM CLR M01/M06 A3014 870 72 -800 000/00 RMK AO2
94908KDBQ DBQ20050224101509402/24/05 10:15:31  5-MIN KDBQ 241615Z 00000KT 7SM CLR M01/M06 A3014 870 69 -800 000/00 RMK AO2
94908KDBQ DBQ20050224102009402/24/05 10:20:31  5-MIN KDBQ 241620Z 00000KT 7SM CLR M01/M06 A3014 870 69 -800 000/00 RMK AO2
94908KDBQ DBQ20050224102509402/24/05 10:25:31  5-MIN KDBQ 241625Z 00000KT 7SM CLR M01/M06 A3014 880 69 -800 000/00 RMK AO2
94908KDBQ DBQ20050224103009402/24/05 10:30:31  5-MIN KDBQ 241630Z 28003KT 7SM CLR M01/M06 A3014 880 66 -700 280/03 RMK AO2
94908KDBQ DBQ20050224103509402/24/05 10:35:31  5-MIN KDBQ 241635Z 00000KT 7SM CLR M01/M06 A3014 880 72 -800 000/00 RMK AO2
94908KDBQ DBQ20050224104009402/24/05 10:40:31  5-MIN KDBQ 241640Z 00000KT 7SM CLR M01/M06 A3014 880 69 -700 000/00 RMK AO2
94908KDBQ DBQ20050224104509602/24/05 10:45:31  5-MIN KDBQ 241645Z VRB03KT 7SM FEW024 00/M05 A3014 870 69 -700 VRB/03 RMK AO2
94908KDBQ DBQ20050224105011402/24/05 10:50:31  5-MIN KDBQ 241650Z 29004KT 8SM FEW024 M01/M06 A3014 870 66 -700 290/04 RMK AO2 SLP223 T10061061
94908KDBQ DBQ20050224105511302/24/05 10:55:31  5-MIN KDBQ 241655Z VRB03KT 8SM FEW024 00/M06 A3014 870 63 -700 VRB/03 RMK AO2 SLP222 T00001061
94908KDBQ DBQ20050224110009702/24/05 11:00:31  5-MIN KDBQ 241700Z 33003KT 8SM SCT026 M01/M06 A3014 870 66 -700 320/03 RMK AO2
94908KDBQ DBQ20050224110509702/24/05 11:05:31  5-MIN KDBQ 241705Z 00000KT 8SM BKN026 M01/M07 A3014 870 63 -700 000/00 RMK AO2
94908KDBQ DBQ20050224111009602/24/05 11:10:31  5-MIN KDBQ 241710Z 00000KT 8SM BKN026 00/M07 A3014 880 61 -700 000/00 RMK AO2
94908KDBQ DBQ20050224111509602/24/05 11:15:31  5-MIN KDBQ 241715Z 00000KT 8SM SCT026 00/M06 A3014 880 63 -700 000/00 RMK AO2
94908KDBQ DBQ20050224112009702/24/05 11:20:31  5-MIN KDBQ 241720Z 30004KT 8SM FEW026 M01/M06 A3014 880 66 -700 300/04 RMK AO2
94908KDBQ DBQ20050224112509602/24/05 11:25:31  5-MIN KDBQ 241725Z VRB03KT 8SM FEW026 00/M06 A3014 880 63 -600 VRB/03 RMK AO2
94908KDBQ DBQ20050224113009602/24/05 11:30:31  5-MIN KDBQ 241730Z VRB03KT 8SM FEW026 00/M06 A3013 880 66 -600 VRB/03 RMK AO2
94908KDBQ DBQ20050224113509302/24/05 11:35:31  5-MIN KDBQ 241735Z 19003KT 8SM CLR 00/M06 A3014 880 63 -600 180/03 RMK AO2
94908KDBQ DBQ20050224114009302/24/05 11:40:31  5-MIN KDBQ 241740Z VRB03KT 9SM CLR 00/M06 A3014 880 63 -700 VRB/03 RMK AO2
94908KDBQ DBQ20050224114509302/24/05 11:45:31  5-MIN KDBQ 241745Z 21003KT 9SM CLR 01/M06 A3014 880 63 -600 210/03 RMK AO2
94908KDBQ DBQ20050224115012802/24/05 11:50:31  5-MIN KDBQ 241750Z 00000KT 9SM CLR 01/M07 A3013 880 58 -600 000/00 RMK AO2 SLP218 T00061067 10006 21044 50007
94908KDBQ DBQ20050224115512902/24/05 11:55:31  5-MIN KDBQ 241755Z 00000KT 10SM CLR 01/M07 A3013 880 58 -600 000/00 RMK AO2 SLP218 T00061067 10006 21044 58001
94908KDBQ DBQ20050224120009402/24/05 12:00:31  5-MIN KDBQ 241800Z 13003KT 10SM CLR 00/M07 A3013 880 58 -600 130/03 RMK AO2
94908KDBQ DBQ20050224120509402/24/05 12:05:31  5-MIN KDBQ 241805Z 00000KT 10SM CLR 01/M06 A3013 880 61 -600 000/00 RMK AO2
94908KDBQ DBQ20050224121009702/24/05 12:10:31  5-MIN KDBQ 241810Z 26006KT 10SM FEW031 01/M06 A3013 880 61 -600 260/06 RMK AO2
94908KDBQ DBQ20050224121509702/24/05 12:15:31  5-MIN KDBQ 241815Z 30003KT 10SM FEW031 01/M06 A3013 890 61 -600 300/03 RMK AO2
94908KDBQ DBQ20050224122009402/24/05 12:20:31  5-MIN KDBQ 241820Z 21004KT 10SM CLR 01/M06 A3013 890 61 -600 210/04 RMK AO2
94908KDBQ DBQ20050224122509402/24/05 12:25:31  5-MIN KDBQ 241825Z 24005KT 10SM CLR 01/M06 A3013 890 61 -600 240/05 RMK AO2
94908KDBQ DBQ20050224123009402/24/05 12:30:31  5-MIN KDBQ 241830Z VRB03KT 10SM CLR 01/M06 A3013 890 61 -600 VRB/03 RMK AO2
94908KDBQ DBQ20050224123509402/24/05 12:35:31  5-MIN KDBQ 241835Z 22003KT 10SM CLR 01/M06 A3012 890 61 -600 220/03 RMK AO2
94908KDBQ DBQ20050224124009402/24/05 12:40:31  5-MIN KDBQ 241840Z 17006KT 10SM CLR 01/M06 A3012 890 58 -500 170/06 RMK AO2
94908KDBQ DBQ20050224124509402/24/05 12:45:31  5-MIN KDBQ 241845Z 19003KT 10SM CLR 01/M07 A3012 900 58 -600 190/03 RMK AO2
94908KDBQ DBQ20050224125011002/24/05 12:50:31  5-MIN KDBQ 241850Z 19003KT 9SM CLR 00/M07 A3012 900 61 -600 190/03 RMK AO2 SLP212 T00001067
94908KDBQ DBQ20050224125511002/24/05 12:55:31  5-MIN KDBQ 241855Z 00000KT 9SM CLR 01/M07 A3011 900 58 -600 000/00 RMK AO2 SLP212 T00061067
94908KDBQ DBQ20050224130009302/24/05 13:00:31  5-MIN KDBQ 241900Z 00000KT 9SM CLR 01/M07 A3011 900 58 -600 000/00 RMK AO2
94908KDBQ DBQ20050224130509302/24/05 13:05:31  5-MIN KDBQ 241905Z 00000KT 9SM CLR 01/M07 A3011 900 58 -600 000/00 RMK AO2
94908KDBQ DBQ20050224131009302/24/05 13:10:31  5-MIN KDBQ 241910Z 00000KT 9SM CLR 01/M07 A3011 900 58 -600 000/00 RMK AO2
94908KDBQ DBQ20050224131509402/24/05 13:15:31  5-MIN KDBQ 241915Z VRB03KT 10SM CLR 01/M06 A3011 900 61 -500 VRB/03 RMK AO2
94908KDBQ DBQ20050224132009402/24/05 13:20:31  5-MIN KDBQ 241920Z 00000KT 10SM CLR 01/M07 A3011 900 56 -500 000/00 RMK AO2
94908KDBQ DBQ20050224132509302/24/05 13:25:31  5-MIN KDBQ 241925Z 00000KT 9SM CLR 02/M07 A3011 910 54 -400 000/00 RMK AO2
94908KDBQ DBQ20050224133009402/24/05 13:30:31  5-MIN KDBQ 241930Z 00000KT 10SM CLR 02/M07 A3010 910 54 -400 000/00 RMK AO2
94908KDBQ DBQ20050224133509402/24/05 13:35:31  5-MIN KDBQ 241935Z VRB04KT 10SM CLR 02/M06 A3010 910 56 -400 VRB/04 RMK AO2
94908KDBQ DBQ20050224134009402/24/05 13:40:31  5-MIN KDBQ 241940Z 23005KT 10SM CLR 01/M06 A3010 910 58 -500 230/05 RMK AO2
94908KDBQ DBQ20050224134509402/24/05 13:45:31  5-MIN KDBQ 241945Z VRB03KT 10SM CLR 01/M07 A3010 920 56 -500 VRB/03 RMK AO2
94908KDBQ DBQ20050224135011102/24/05 13:50:31  5-MIN KDBQ 241950Z 25004KT 10SM CLR 02/M06 A3010 920 56 -400 250/04 RMK AO2 SLP204 T00171061
94908KDBQ DBQ20050224135511102/24/05 13:55:31  5-MIN KDBQ 241955Z VRB03KT 10SM CLR 01/M07 A3010 920 54 -500 VRB/03 RMK AO2 SLP205 T00111072
94908KDBQ DBQ20050224140009402/24/05 14:00:31  5-MIN KDBQ 242000Z 00000KT 10SM CLR 02/M08 A3009 920 49 -400 000/00 RMK AO2
94908KDBQ DBQ20050224140509402/24/05 14:05:31  5-MIN KDBQ 242005Z 23004KT 10SM CLR 01/M08 A3010 920 51 -500 230/04 RMK AO2
94908KDBQ DBQ20050224141009402/24/05 14:10:31  5-MIN KDBQ 242010Z 00000KT 10SM CLR 01/M08 A3009 920 51 -500 000/00 RMK AO2
94908KDBQ DBQ20050224141509402/24/05 14:15:31  5-MIN KDBQ 242015Z 00000KT 10SM CLR 02/M07 A3009 920 52 -400 000/00 RMK AO2
94908KDBQ DBQ20050224142009402/24/05 14:20:31  5-MIN KDBQ 242020Z 00000KT 10SM CLR 02/M07 A3009 920 54 -400 000/00 RMK AO2
94908KDBQ DBQ20050224142509402/24/05 14:25:31  5-MIN KDBQ 242025Z 00000KT 10SM CLR 02/M07 A3009 920 54 -400 000/00 RMK AO2
94908KDBQ DBQ20050224143009402/24/05 14:30:31  5-MIN KDBQ 242030Z 00000KT 10SM CLR 02/M07 A3009 920 54 -400 000/00 RMK AO2
94908KDBQ DBQ20050224143509402/24/05 14:35:31  5-MIN KDBQ 242035Z 00000KT 10SM CLR 02/M06 A3009 920 56 -400 000/00 RMK AO2
94908KDBQ DBQ20050224144009402/24/05 14:40:31  5-MIN KDBQ 242040Z 00000KT 10SM CLR 02/M07 A3009 920 54 -400 000/00 RMK AO2
94908KDBQ DBQ20050224144509402/24/05 14:45:31  5-MIN KDBQ 242045Z 00000KT 10SM CLR 02/M06 A3009 920 54 -300 000/00 RMK AO2
94908KDBQ DBQ20050224145012002/24/05 14:50:31  5-MIN KDBQ 242050Z 18003KT 10SM FEW036 02/M06 A3009 920 56 -400 180/03 RMK AO2 SLP202 T00171061 58001
94908KDBQ DBQ20050224145512002/24/05 14:55:31  5-MIN KDBQ 242055Z 28006KT 10SM SCT036 02/M07 A3009 920 52 -300 280/06 RMK AO2 SLP202 T00221067 56014
94908KDBQ DBQ20050224150009702/24/05 15:00:31  5-MIN KDBQ 242100Z 29005KT 10SM FEW036 02/M07 A3009 920 52 -300 290/05 RMK AO2
94908KDBQ DBQ20050224150509702/24/05 15:05:31  5-MIN KDBQ 242105Z 29004KT 10SM FEW036 02/M06 A3009 920 54 -300 290/04 RMK AO2
94908KDBQ DBQ20050224151009702/24/05 15:10:31  5-MIN KDBQ 242110Z 24006KT 10SM FEW036 02/M06 A3009 920 54 -300 240/06 RMK AO2
94908KDBQ DBQ20050224151505802/24/05 15:15:31  5-MIN KDBQ 242115Z 28004KT 10SM FEW0320
94908KDBQ DBQ20050224153509402/24/05 15:35:31  5-MIN KDBQ 242135Z 26004KT 10SM CLR 02/M07 A3009 920 52 -400 260/04 RMK AO2
94908KDBQ DBQ20050224154009402/24/05 15:40:31  5-MIN KDBQ 242140Z 28005KT 10SM CLR 02/M07 A3009 920 52 -300 280/05 RMK AO2
94908KDBQ DBQ20050224154505102/24/05 15:45:31  5-MIN KDBQ 242145Z 23007KT 10AO2
94908KDBQ DBQ20050224160509402/24/05 16:05:31  5-MIN KDBQ 242205Z 25003KT 10SM CLR 02/M06 A3009 920 59 -400 250/03 RMK AO2
94908KDBQ DBQ20050224161009302/24/05 16:10:31  5-MIN KDBQ 242210Z 23004KT 9SM CLR 02/M06 A3009 920 56 -400 230/04 RMK AO2
94908KDBQ DBQ20050224161511102/24/05 16:15:31  5-MIN KDBQ 242215Z 279  KDBQ 242225Z 28005KT 9SM CLR 02/M06 A3009 920 56 -400 270/05 RMK AO2
94908KDBQ DBQ20050224163011402/24/05 16:30:31  5-MIN KDBQ 242230Z 29005KT 9SM CLR 02/M06 A309 A3009 92061 -400 000/00 RMK AO2 SLP202 T00171050
94908KDBQ DBQ20050224170009602/24/05 17:00:31  5-MIN KDBQ 242300Z 28004KT 9SM FEW038 02/M06 A3009 920 59 -400 270/04 RMK AO2
94908KDBQ DBQ20050224170508502/24/05 17:05:31  5-MIN KDBQ 242305Z 28004KT 10SM FEW038 01/M06 A3009 920 61 -500 20
94908KDBQ DBQ20050224173509402/24/05 17:35:31  5-MIN KDBQ 242335Z 26003KT 10SM CLR 01/M06 A3010 910 63 -500 260/03 RMK AO2
94908KDBQ DBQ20050224174013402/24/05 17:40:31  5-MIN KDBQ 242340Z 00000KT 10SM CLR 01  5-MIN KDBQ 250000Z 00000KT 10SM CLR 01/M06 A3010 910 63 -500 000/00 RMK AO2
94908KDBQ DBQ20050224180509402/24/05 18:05:31  5-MIN KDBQ 250005Z 00000KT 10SM CLR 01/M06 A3010 910 63 -500 000/00 RMK AO2
94908KDBQ DBQ20050224181008002/24/05 18:10:31  5-MIN KDBQ 250010Z 00000KT 10SM CLR 01/M06 A302/24/05 18:35:3
94908KDBQ DBQ20050224184009602/24/05 18:40:31  5-MIN KDBQ 250040Z 16003KT 10SM CLR M01/M05 A3010 910 72  -700 160/03 RMK AO2
94908KDBQ DBQ20050224184511302/24/05 18:45:31  5-MIN KDBQ 250045Z 1772  KDBQ 250105Z 17005KT 9SM CLR M01/M05 A3010 910 75 -700 170/05 RMK AO2
94908KDBQ DBQ20050224191009402/24/05 19:10:31  5-MIN KDBQ 250110Z 18004KT 9SM CLR M01/M05 A3010 910 75 -700 170/04 RMK AO2
94908KDBQ DBQ20050224191508002/24/05 19:15:31  5-MIN KDBQ 250115Z 18005KT 9SM CLR M02/M05 A3010 910  19:40:3
94908KDBQ DBQ20050224192009402/24/05 19:20:31  5-MIN KDBQ 250120Z 17005KT 9SM CLR M02/M05 A3010 910 78 -800 170/05 RMK AO2
94908KDBQ DBQ20050224192509402/24/05 19:25:31  5-MIN KDBQ 250125Z 17004KT 8SM CLR M02/M05 A3010 910 78 -800 170/04 RMK AO2
94908KDBQ DBQ20050224193009402/24/05 19:30:31  5-MIN KDBQ 250130Z 18003KT 8SM CLR M02/M05 A3010 910 78 -800 170/03 RMK AO2
94908KDBQ DBQ20050224193509402/24/05 19:35:31  5-MIN KDBQ 250135Z 18004KT 8SM CLR M02/M05 A3010 910 81 -900 180/04 RMK AO2
94908KDBQ DBQ20050224194009402/24/05 19:40:31  5-MIN KDBQ 250140Z 18004KT 8SM CLR M02/M05 A3009 920 78 -800 180/04 RMK AO2
94908KDBQ DBQ20050224194509402/24/05 19:45:31  5-MIN KDBQ 250145Z 20003KT 8SM CLR M02/M05 A3009 920 78 -800 200/03 RMK AO2
94908KDBQ DBQ20050224195011102/24/05 19:50:31  5-MIN KDBQ 250150Z 21003KT 8SM CLR M02/M06 A3009 920 78 -900 210/03 RMK AO2 SLP206 T10221056
94908KDBQ DBQ20050224195512102/24/05 19:55:31  5-MIN KDBQ 250155Z AUTO 00000KT 8SM CLR M02/M05 A3009 920 78 -800 000/00 RMK AO2 SLP206 T10171050 TSNO
94908KDBQ DBQ20050224200010402/24/05 20:00:31  5-MIN KDBQ 250200Z AUTO 19004KT 8SM CLR M02/M05 A3009 920 78 -800 190/04 RMK AO2 TSNO
94908KDBQ DBQ20050224200510402/24/05 20:05:31  5-MIN KDBQ 250205Z AUTO 19004KT 8SM CLR M01/M06 A3009 920 72 -700 190/04 RMK AO2 TSNO
94908KDBQ DBQ20050224201010402/24/05 20:10:31  5-MIN KDBQ 250210Z AUTO 19004KT 8SM CLR M02/M06 A3009 920 75 -800 190/04 RMK AO2 TSNO
94908KDBQ DBQ20050224201510402/24/05 20:15:31  5-MIN KDBQ 250215Z AUTO 00000KT 8SM CLR M02/M06 A3009 920 75 -800 000/00 RMK AO2 TSNO
94908KDBQ DBQ20050224202010402/24/05 20:20:31  5-MIN KDBQ 250220Z AUTO 19003KT 8SM CLR M02/M06 A3009 920 75 -800 190/03 RMK AO2 TSNO
94908KDBQ DBQ20050224202510402/24/05 20:25:31  5-MIN KDBQ 250225Z AUTO 00000KT 8SM CLR M02/M06 A3009 920 78 -900 000/00 RMK AO2 TSNO
94908KDBQ DBQ20050224203010402/24/05 20:30:31  5-MIN KDBQ 250230Z AUTO 20003KT 8SM CLR M02/M06 A3009 920 78 -900 200/03 RMK AO2 TSNO
94908KDBQ DBQ20050224203510402/24/05 20:35:31  5-MIN KDBQ 250235Z AUTO 21004KT 8SM CLR M02/M06 A3009 920 78 -900 210/04 RMK AO2 TSNO
94908KDBQ DBQ20050224204010402/24/05 20:40:31  5-MIN KDBQ 250240Z AUTO 21003KT 8SM CLR M02/M06 A3009 920 78 -900 210/03 RMK AO2 TSNO
94908KDBQ DBQ20050224204510402/24/05 20:45:31  5-MIN KDBQ 250245Z AUTO 21004KT 8SM CLR M03/M06 A3009 920 81 -900 210/04 RMK AO2 TSNO
94908KDBQ DBQ20050224205012702/24/05 20:50:31  5-MIN KDBQ 250250Z AUTO 20004KT 8SM CLR M03/M06 A3009 930 81 -900 200/04 RMK AO2 SLP203 T10281056 53003 TSNO
94908KDBQ DBQ20050224205507202/24/05 20:55:31  5-MIN KDBQ 250255Z AUTO 20005KT 8SM CLR M03/M06 A3009
94908KDBQ DBQ20050224211010802/24/05 21:10:31  5-MIN KDBQ 250310Z AUTO 20005KT 8SM SCT045 M03/M06 A3009  920 81 -900 200/05 RMK AO2 TSNO
94908KDBQ DBQ20050224211506302/24/05 21:15:31  5-MIN009 009 920 81 -800 200/05 RMK AO2 TSNO
94908KDBQ DBQ20050224213510702/24/05 21:35:31  5-MIN KDBQ 250335Z AUTO 20005KT 7SM OVC043 M02/M04 A3008 930 81 -800 200/05 RMK AO2 TSNO
94908KDBQ DBQ20050224214009102/24/05 21:40:31  5-MIN KDBQ 250340Z AUTO 20006KT 7SM OVC043 M02/M04 A3008 930 81 -800 200
94908KDBQ DBQ20050224220010702/24/05 22:00:31  5-MIN KDBQ 250400Z AUTO 20010KT 7SM OVC043 M01/M04 A3008 930 78 -700 200/10 RMK AO2 TSNO
94908KDBQ DBQ20050224220513602/24/05 22:05:31  5-MIN KDBQ 250405Z AUTO 20009KT 7SM OVC043 M01/M04 A3008 930 78 -700 200/09 RMK AO2 TSNO 02/24/05 22:10:3008 AO2 TSNO
94908KDBQ DBQ20050224221507502/24/05 22:15:31  5-MIN KDBQ 250415Z AUTO 21009KT 7SM OVC043 M01/M04 A3007
94908KDBQ DBQ20050224225013702/24/05 22:50:31  5-MIN KDBQ 250450Z AUTO 22006KT 7SM OVC041 M01/M04 A3007  940 78 -700 220/06 RMK AO2 SLP194 T10111044 TSNO 006AO2 TSNO
94908KDBQ DBQ20050224231010702/24/05 23:10:31  5-MIN KDBQ 250510Z AUTO 23006KT 7SM OVC041 M01/M04 A3006 950 81 -700 230/06 RMK AO2 TSNO
94908KDBQ DBQ20050224231518402/24/05 23:15:31  5-MIN KDBQ 250515Z AUTO 23005KT 7SM OVC041 M01/M04 A3005 960 81 -700 230/05 RMK AO2 TSNO 02/24/05TO 21004KT 7SM OVC041 M01/M03 A3005  960 85 -700 210/04 RMK AO2 TSNO
94908KDBQ DBQ20050224234010702/24/05 23:40:31  5-MIN KDBQ 250540Z AUTO 21004KT 7SM OVC041 M01/M03 A3005 960 85 -700 210/04 RMK AO2 TSNO
94908KDBQ DBQ20050224234505902/24/05 23:45:31  5-MIN KDBQ 250545Z AUTO 21004KT 7SM O005
94908KDBQ DBQ20050225000511002/25/05 00:05:31  5-MIN KDBQ 250605Z AUTO 21005KT 6SM BR OVC039 M01/M03 A3004 970 85 -700 210/05 RMK AO2 TSNO
94908KDBQ DBQ20050225001006202/25/05 00:10:31  5-MIN A3003 980 85 -700 210/06 RMK AO2 TSNO
94908KDBQ DBQ20050225003011002/25/05 00:30:31  5-MIN KDBQ 250630Z AUTO 22007KT 6SM BR OVC041 M01/M03 A3003 980 85 -700 210/07 RMK AO2 TSNO
94908KDBQ DBQ20050225003515102/25/05 00:35:31  5-MIN KDBQ 250635Z AUTO 23007KT 6SM BR OVC039 M01/M03 A3003 980 88 -70M01/M03 A3003 980 85 -600 230/06 RMK AO2 SLP181 T10061028 TSNO
94908KDBQ DBQ20050225005512702/25/05 00:55:31  5-MIN KDBQ 250655Z AUTO 23006KT 5SM BR OVC031 M01/M03 A3003 980 85 -600 230/06 RMK AO2 SLP181 T10061028 TSNO
94908KDBQ DBQ20050225010013302/25/05 01:00:31  5-MIN KDBQ 250700Z AUTO 24007 KDBQ 250720Z AUTO 24008KT 6SM BR OVC031 M01/M03A3003 970 85 -600 240/08 RMK AO2 TSNO
94908KDBQ DBQ20050225012511002/25/05 01:25:31  5-MIN KDBQ 250725Z AUTO 25009KT 6SM BR OVC031 M01/M03 A3004 970 85 -600 250/09 RMK AO2 TSNO
94908KDBQ DBQ20050225014511002/25/05 01:45:31  5-MIN KDBQ 250745Z AUTO 26007KT 5SM BR OVC029 M01/M03 A3004 970 85 -600 260/07 RMK AO2 TSNO
94908KDBQ DBQ20050225015008102/25/05 01:50:31  5-MIN KDBQ 250750Z AUTO 26008KT 5SM BR OVC027 M01/M03 A3004 97
94908KDBQ DBQ20050225021011002/25/05 02:10:31  5-MIN KDBQ 250810Z AUTO 26008KT 6SM BR OVC025 M01/M03 A3003 980 85 -600 250/08 RMK AO2 TSNO
94908KDBQ DBQ20050225021517202/25/05 02:15:31  5-MIN KDBQ 250815Z AUTO 26009KT 6SM BR OVC025 M01/M03 A3003 980 85 -600 260/09 RMK AO2 TSNO 02/25/05 02:20:3M01/M03 A3003 980 85 -600 240/07 RMK AO2 TSNO
94908KDBQ DBQ20050225024011002/25/05 02:40:31  5-MIN KDBQ 250840Z AUTO 24007KT 5SM BR OVC031 M01/M03 A3003 980 85 -600 240/07 RMK AO2 TSNO
94908KDBQ DBQ20050225024511002/25/05 02:45:31  5-MIN KDBQ 250845Z AUTO 24007KT 5SM BR OVC033 M01/M03 A3002 980 85 -600 240/07 RMK AO2 TSNO
94908KDBQ DBQ20050225025011102/25/05 02:50:31  5-MIN KDBQ 250910Z AUTO 23009KT 5SM BR OVC033 M01/M03 A3001 1000 85 -600 230/09 RMK AO2 TSNO
94908KDBQ DBQ20050225031511802/25/05 03:15:31  5-MIN KDBQ 250915Z AUTO 23009KT 5SM BR BKN033 OVC110 M01/M03 A3000 1000 85 -600 230/09 RMK AO2 TSNO
94908KDBQ DBQ20050225032015102/25/05 03:20:31  5-MIN KDBQ 250920Z AU02/25/05 03:40:31  5-MIN KDBQ 250940Z AUTO 25009KT 5SM BR OVC033 M01/M03 A3001 1000 85 -600 250/09 RMK AO2 TSNO
94908KDBQ DBQ20050225034512002/25/05 03:45:31  5-MIN KDBQ 250945Z AUTO 25008KT 5SM BR OVC033 M01/M03 A3001 1000 85 -600 250/08 RMK AO2 TSNO 02/25/05
94908KDBQ DBQ20050225041011102/25/05 04:10:31  5-MIN KDBQ 251010Z AUTO 27009KT 6SM HZ OVC031 M01/M03 A3001 1000 81 -600 270/09 RMK AO2 TSNO
94908KDBQ DBQ20050225041505902/25/05 04:15:31  5-MIN O 1000 81 -600 280/09 RMK AO2 TSNO
94908KDBQ DBQ20050225043510802/25/05 04:35:31  5-MIN KDBQ 251035Z AUTO 28010KT 7SM OVC029 M01/M03 A3001 1000 81 -600 270/10 RMK AO2 TSNO
94908KDBQ DBQ20050225044009802/25/05 04:40:31  5-MIN KDBQ 251040Z AUTO 28009KT 7SM OVC029 M01/M03 A3001 990 81 -600 28039 TSNO
94908KDBQ DBQ20050225050011502/25/05 05:00:31  5-MIN KDBQ 251100Z AUTO 26008KT 7SM BKN029 OVC100 M01/M04 A3000 1000 81 -600 260/08 RMK AO2 TSNO
94908KDBQ DBQ20050225050517202/25/05 05:05:31  5-MIN KDBQ 251105Z AUTO 26008KT 7SM SCT029 OVC100 M01/M04 A3000 1000 81 -600 260/08 RMK AOC100 KN027 OVC100M02/M04 A3000 1000 85 -700 260/08 RMK AO2 TSNO
94908KDBQ DBQ20050225053011502/25/05 05:30:31  5-MIN KDBQ 251130Z AUTO 25008KT 7SM BKN027 BKN100 M02/M04 A3000 1010 85 -700 250/08 RMK AO2 TSNO
94908KDBQ DBQ20050225053510202/25/05 05:35:31  5-MIN KDBQ 251135Z AUTO 26007KT 7SM S 27 RMK AO2 SLP171 T10221044 11006 21022 58007
94908KDBQ DBQ20050225055513302/25/05 05:55:31  5-MIN KDBQ 251155Z 24006KT 7SM SCT100 M02/M04 A3000 1010 85 -800 240/06 RMK AO2 SLP171 T10221044 11006 21022 56007
94908KDBQ DBQ20050225060008302/25/05 06:00:31  5-MIN KDBQ 251200Z 24006KT 7SM SCT100010  85 -800 240/07 RMK AO2
94908KDBQ DBQ20050225062509802/25/05 06:25:31  5-MIN KDBQ 251225Z 24007KT 6SM BR CLR M03/M05 A3000 1010 85 -800 240/07 RMK AO2
94908KDBQ DBQ20050225063009802/25/05 06:30:31  5-MIN KDBQ 251230Z 24007KT 6SM BR CLR M03/M05 A3000 1010 85 -800 240/07 RMK AO2
94908KDBQ DBQ20050225063507502/25/05 06:35:31  5-MIN KDBQ 251235Z 24007KT 6SM BR CLR M03/M05 A3000 1010
94908KDBQ DBQ20050225070010102/25/05 07:00:31  5-MIN KDBQ 251300Z 24003KT 5SM BR BKN100 M03/M05 A3000 1000 88 -900 240/03 RMK AO2
94908KDBQ DBQ20050225070507702/25/05 07:05:31  5-MIN KDBQ 25095 M02/M04 A3000 1000 85 -800 240/04 RMK AO2
94908KDBQ DBQ20050225073010102/25/05 07:30:31  5-MIN KDBQ 251330Z 23005KT 5SM BR BKN095 M02/M04 A3000 1000 85 -800 230/05 RMK AO2
94908KDBQ DBQ20050225073515202/25/05 07:35:31  5-MIN KDBQ 251335Z 21004KT 5SM BR BKN090 M02/M04 A3000 1010 85 -800 210090 M02/M04 A3000 1000 85 -800 230/04 RMK AO2 SLP173 T10221044
94908KDBQ DBQ20050225080010102/25/05 08:00:31  5-MIN KDBQ 251400Z 24005KT 5SM BR SCT090 M02/M04 A3000 1000 85 -700 240/05 RMK AO2
94908KDBQ DBQ20050225080508202/25/05 08:05:31  5-MIN KDBQ 251405Z 25007KT 5SM BR BKN090 M02/M04 A300/07 RMKAO2
94908KDBQ DBQ20050225082510102/25/05 08:25:31  5-MIN KDBQ 251425Z 25007KT 6SM HZ OVC095 M01/M04 A3000 1000 81 -600 250/07 RMK AO2
94908KDBQ DBQ20050225083010102/25/05 08:30:31  5-MIN KDBQ 251430Z 25006KT 6SM HZ OVC095 M01/M04 A3000 1000 81 -600 250/06 RMK AO2
94908KDBQ DBQ20050225083510102/25/05 08:35:31  5-MIN KDBQ 251435Z 24007KT 6SM HZ OVC090 M01/M04 A3000 1000 81 -600 240/07 RMK AO2
94908KDBQ DBQ20050225084010102/25/05 08:40:31  5-MIN KDBQ 251440Z 24006KT 6SM HZ OVC090 M01/M04 A3001 1000 81 -600 240/06 RMK AO2
94908KDBQ DBQ20050225084510102/25/05 08:45:31  5-MIN KDBQ 251445Z 24007KT 6SM HZ OVC090 M01/M04 A3001 1000 81 -600 240/07 RMK AO2
94908KDBQ DBQ20050225085012402/25/05 08:50:31  5-MIN KDBQ 251450Z 25007KT 6SM HZ OVC090 M01/M04 A3001 1000 81 -600 240/07 RMK AO2 SLP175 T10111039 56007
94908KDBQ DBQ20050225085512402/25/05 08:55:31  5-MIN KDBQ 251455Z 24007KT 6SM HZ OVC090 M01/M04 A3001 1000 78 -600 240/07 RMK AO2 SLP174 T10061039 53002
94908KDBQ DBQ20050225090010102/25/05 09:00:31  5-MIN KDBQ 251500Z 24007KT 6SM HZ OVC090 M01/M03 A3000 1000 81 -600 230/07 RMK AO2
94908KDBQ DBQ20050225090510102/25/05 09:05:31  5-MIN KDBQ 251505Z 24007KT 6SM HZ OVC090 M01/M03 A3000 1000 81 -600 240/07 RMK AO2
94908KDBQ DBQ20050225091010102/25/05 09:10:31  5-MIN KDBQ 251510Z 24007KT 6SM HZ BKN090 M01/M03 A3000 1000 81 -600 240/07 RMK AO2
94908KDBQ DBQ20050225091510102/25/05 09:15:31  5-MIN KDBQ 251515Z 24008KT 6SM HZ BKN090 M01/M03 A3000 1000 81 -600 240/08 RMK AO2
94908KDBQ DBQ20050225092010002/25/05 09:20:31  5-MIN KDBQ 251520Z 23008KT 6SM HZ SCT090 00/M03 A3000 1010 81 -500 220/08 RMK AO2
94908KDBQ DBQ20050225092510002/25/05 09:25:31  5-MIN KDBQ 251525Z 23007KT 6SM HZ SCT090 00/M03 A3000 1010 81 -500 230/07 RMK AO2
94908KDBQ DBQ20050225093010002/25/05 09:30:31  5-MIN KDBQ 251530Z 23007KT 6SM HZ FEW085 00/M03 A3000 1010 81 -500 230/07 RMK AO2
94908KDBQ DBQ20050225093510002/25/05 09:35:31  5-MIN KDBQ 251535Z 23006KT 6SM HZ FEW085 00/M03 A3000 1010 81 -500 230/06 RMK AO2
94908KDBQ DBQ20050225094009702/25/05 09:40:31  5-MIN KDBQ 251540Z 24005KT 6SM HZ CLR 00/M03 A3000 1010 81 -500 230/05 RMK AO2
94908KDBQ DBQ20050225094509702/25/05 09:45:31  5-MIN KDBQ 251545Z 21003KT 6SM HZ CLR 00/M03 A3000 1010 81 -500 210/03 RMK AO2
94908KDBQ DBQ20050225095011402/25/05 09:50:31  5-MIN KDBQ 251550Z VRB03KT 6SM HZ CLR 01/M03 A3000 1010 78 -400 VRB/03 RMK AO2 SLP170 T00061028
94908KDBQ DBQ20050225095511402/25/05 09:55:31  5-MIN KDBQ 251555Z 21004KT 6SM HZ CLR 01/M03 A3000 1010 78 -400 210/04 RMK AO2 SLP170 T00061028
94908KDBQ DBQ20050225100009702/25/05 10:00:31  5-MIN KDBQ 251600Z 00000KT 6SM HZ CLR 01/M02 A3000 1000 82 -400 000/00 RMK AO2
94908KDBQ DBQ20050225100509702/25/05 10:05:31  5-MIN KDBQ 251605Z 21003KT 6SM HZ CLR 01/M02 A3000 1000 78 -400 210/03 RMK AO2
94908KDBQ DBQ20050225101009702/25/05 10:10:31  5-MIN KDBQ 251610Z 23005KT 6SM HZ CLR 01/M02 A3000 1000 78 -400 230/05 RMK AO2
94908KDBQ DBQ20050225101509402/25/05 10:15:31  5-MIN KDBQ 251615Z 22004KT 7SM CLR 01/M03 A3000 1010 75 -400 220/04 RMK AO2
94908KDBQ DBQ20050225102009402/25/05 10:20:31  5-MIN KDBQ 251620Z 26004KT 7SM CLR 01/M03 A3000 1000 72 -400 260/04 RMK AO2
94908KDBQ DBQ20050225102509402/25/05 10:25:31  5-MIN KDBQ 251625Z 24003KT 7SM CLR 01/M03 A3000 1000 75 -400 240/03 RMK AO2
94908KDBQ DBQ20050225103009402/25/05 10:30:31  5-MIN KDBQ 251630Z VRB04KT 7SM CLR 01/M03 A3000 1000 72 -400 VRB/04 RMK AO2
94908KDBQ DBQ20050225103509402/25/05 10:35:31  5-MIN KDBQ 251635Z 25004KT 7SM CLR 02/M03 A3000 1000 72 -300 250/04 RMK AO2
94908KDBQ DBQ20050225104009402/25/05 10:40:31  5-MIN KDBQ 251640Z 22004KT 7SM CLR 02/M03 A3000 1000 72 -300 220/04 RMK AO2
94908KDBQ DBQ20050225104509402/25/05 10:45:31  5-MIN KDBQ 251645Z 00000KT 7SM CLR 02/M03 A3000 1000 72 -300 000/00 RMK AO2
94908KDBQ DBQ20050225105011102/25/05 10:50:31  5-MIN KDBQ 251650Z 23006KT 7SM CLR 02/M02 A3000 1010 72 -200 230/06 RMK AO2 SLP170 T00221022
94908KDBQ DBQ20050225105511102/25/05 10:55:31  5-MIN KDBQ 251655Z VRB04KT 7SM CLR 02/M03 A3000 1010 72 -300 VRB/04 RMK AO2 SLP170 T00171028
94908KDBQ DBQ20050225110009402/25/05 11:00:31  5-MIN KDBQ 251700Z 27003KT 7SM CLR 02/M03 A3000 1000 69 -200 270/03 RMK AO2
94908KDBQ DBQ20050225110509402/25/05 11:05:31  5-MIN KDBQ 251705Z 27004KT 7SM CLR 02/M02 A3000 1000 72 -200 270/04 RMK AO2
94908KDBQ DBQ20050225111009402/25/05 11:10:31  5-MIN KDBQ 251710Z 22005KT 7SM CLR 02/M02 A3000 1000 72 -200 220/05 RMK AO2
94908KDBQ DBQ20050225111509402/25/05 11:15:31  5-MIN KDBQ 251715Z VRB04KT 7SM CLR 03/M02 A3000 1000 69 -100 VRB/04 RMK AO2
94908KDBQ DBQ20050225112009402/25/05 11:20:31  5-MIN KDBQ 251720Z VRB06KT 7SM CLR 03/M02 A3000 1000 72 -100 VRB/06 RMK AO2
94908KDBQ DBQ20050225112509402/25/05 11:25:31  5-MIN KDBQ 251725Z 29006KT 7SM CLR 03/M02 A3000 1000 69 -100 290/06 RMK AO2
94908KDBQ DBQ20050225113009402/25/05 11:30:31  5-MIN KDBQ 251730Z 00000KT 7SM CLR 03/M02 A3000 1000 69 -100 000/00 RMK AO2
94908KDBQ DBQ20050225113509402/25/05 11:35:31  5-MIN KDBQ 251735Z VRB03KT 7SM CLR 03/M02 A3000 1000 69 -100 VRB/03 RMK AO2
94908KDBQ DBQ20050225114009402/25/05 11:40:31  5-MIN KDBQ 251740Z 24004KT 7SM CLR 03/M03 A3000 1010 67 -100 240/04 RMK AO2
94908KDBQ DBQ20050225114509402/25/05 11:45:31  5-MIN KDBQ 251745Z 00000KT 7SM CLR 03/M02 A3000 1010 69 -100 000/00 RMK AO2
94908KDBQ DBQ20050225115013202/25/05 11:50:31  5-MIN KDBQ 251750Z VRB03KT 8SM FEW023 03/M02 A3000 1010 67 -100 VRB/03 RMK AO2 SLP168 T00331022 10033 21033 53002
94908KDBQ DBQ20050225115513202/25/05 11:55:31  5-MIN KDBQ 251755Z 17004KT 8SM FEW023 03/M02 A2999 1010 72 -100 170/04 RMK AO2 SLP168 T00281017 10033 21033 56003
94908KDBQ DBQ20050225120009702/25/05 12:00:31  5-MIN KDBQ 251800Z 28004KT 7SM FEW023 03/M02 A2999 1010 70 -100 280/04 RMK AO2
94908KDBQ DBQ20050225120509702/25/05 12:05:31  5-MIN KDBQ 251805Z 00000KT 8SM FEW023 03/M02 A2999 1010 67 -100 000/00 RMK AO2
94908KDBQ DBQ20050225121009702/25/05 12:10:31  5-MIN KDBQ 251810Z 00000KT 8SM FEW023 03/M03 A2999 1010 64 -100 000/00 RMK AO2
94908KDBQ DBQ20050225121509702/25/05 12:15:31  5-MIN KDBQ 251815Z 27004KT 8SM FEW023 03/M02 A2999 1010 67 -100 270/04 RMK AO2
94908KDBQ DBQ20050225122009402/25/05 12:20:31  5-MIN KDBQ 251820Z 00000KT 8SM CLR 03/M03 A2999 1010 64 -100 000/00 RMK AO2
94908KDBQ DBQ20050225122509402/25/05 12:25:31  5-MIN KDBQ 251825Z 24005KT 8SM CLR 03/M03 A2999 1010 64 -100 240/05 RMK AO2
94908KDBQ DBQ20050225123009402/25/05 12:30:31  5-MIN KDBQ 251830Z 24003KT 8SM CLR 03/M02 A2999 1010 67 -100 240/03 RMK AO2
94908KDBQ DBQ20050225123509702/25/05 12:35:31  5-MIN KDBQ 251835Z 00000KT 8SM FEW026 03/M03 A2999 1010 64 -100 000/00 RMK AO2
94908KDBQ DBQ20050225124009402/25/05 12:40:31  5-MIN KDBQ 251840Z VRB03KT 8SM SCT026 04/M02 A2999 1010 62 0 VRB/03 RMK AO2
94908KDBQ DBQ20050225124509402/25/05 12:45:31  5-MIN KDBQ 251845Z VRB03KT 8SM SCT026 04/M02 A2999 1010 62 0 VRB/03 RMK AO2
94908KDBQ DBQ20050225125011102/25/05 12:50:31  5-MIN KDBQ 251850Z VRB05KT 8SM BKN026 04/M01 A2999 1010 67 0 VRB/05 RMK AO2 SLP165 T00441011
94908KDBQ DBQ20050225125511102/25/05 12:55:31  5-MIN KDBQ 251855Z VRB03KT 8SM SCT026 04/M02 A2999 1010 67 0 VRB/03 RMK AO2 SLP166 T00391017
94908KDBQ DBQ20050225130009402/25/05 13:00:31  5-MIN KDBQ 251900Z 35004KT 8SM SCT026 04/M02 A2999 1010 64 0 350/04 RMK AO2
94908KDBQ DBQ20050225130509602/25/05 13:05:31  5-MIN KDBQ 251905Z VRB03KT 8SM SCT026 05/M02 A2999 1010 62 100 VRB/03 RMK AO2
94908KDBQ DBQ20050225131009402/25/05 13:10:31  5-MIN KDBQ 251910Z 28006KT 8SM SCT026 04/M02 A2999 1010 62 0 280/06 RMK AO2
94908KDBQ DBQ20050225131509402/25/05 13:15:31  5-MIN KDBQ 251915Z 30003KT 8SM SCT026 04/M02 A2999 1010 62 0 300/03 RMK AO2
94908KDBQ DBQ20050225132009402/25/05 13:20:31  5-MIN KDBQ 251920Z 29006KT 8SM SCT026 04/M02 A2999 1010 64 0 290/06 RMK AO2
94908KDBQ DBQ20050225132509402/25/05 13:25:31  5-MIN KDBQ 251925Z 31005KT 8SM SCT026 04/M02 A2999 1010 64 0 310/05 RMK AO2
94908KDBQ DBQ20050225133009402/25/05 13:30:31  5-MIN KDBQ 251930Z 33003KT 7SM SCT026 04/M02 A2999 1010 64 0 330/03 RMK AO2
94908KDBQ DBQ20050225133509402/25/05 13:35:31  5-MIN KDBQ 251935Z 30005KT 7SM SCT026 04/M02 A2999 1010 64 0 300/05 RMK AO2
94908KDBQ DBQ20050225134009402/25/05 13:40:31  5-MIN KDBQ 251940Z VRB03KT 7SM SCT026 04/M02 A2999 1010 64 0 VRB/03 RMK AO2
94908KDBQ DBQ20050225134509402/25/05 13:45:31  5-MIN KDBQ 251945Z 27004KT 7SM FEW026 04/M02 A2999 1010 64 0 270/04 RMK AO2
94908KDBQ DBQ20050225135011102/25/05 13:50:31  5-MIN KDBQ 251950Z 28005KT 7SM FEW026 04/M02 A2999 1010 62 0 280/05 RMK AO2 SLP166 T00441022
94908KDBQ DBQ20050225135511102/25/05 13:55:31  5-MIN KDBQ 251955Z VRB03KT 8SM FEW026 04/M02 A2999 1010 62 0 VRB/03 RMK AO2 SLP166 T00441022
94908KDBQ DBQ20050225140009302/25/05 14:00:31  5-MIN KDBQ 252000Z 30007KT 8SM CLR 05/M01 A2999 1010 64 100 300/07 RMK AO2
94908KDBQ DBQ20050225140509602/25/05 14:05:31  5-MIN KDBQ 252005Z 30005KT 8SM FEW030 05/M02 A2999 1010 62 100 300/05 RMK AO2
94908KDBQ DBQ20050225141009402/25/05 14:10:31  5-MIN KDBQ 252010Z 00000KT 7SM FEW028 04/M02 A2999 1010 64 0 000/00 RMK AO2
94908KDBQ DBQ20050225141509602/25/05 14:15:31  5-MIN KDBQ 252015Z 00000KT 7SM SCT028 05/M02 A2999 1010 62 100 000/00 RMK AO2
94908KDBQ DBQ20050225142009602/25/05 14:20:31  5-MIN KDBQ 252020Z 31007KT 8SM SCT028 05/M01 A3000 1010 64 100 310/07 RMK AO2
94908KDBQ DBQ20050225142509602/25/05 14:25:31  5-MIN KDBQ 252025Z 32006KT 7SM SCT028 05/M01 A2999 1010 64 100 310/06 RMK AO2
94908KDBQ DBQ20050225143009602/25/05 14:30:31  5-MIN KDBQ 252030Z 29006KT 7SM SCT028 05/M02 A3000 1010 62 100 290/06 RMK AO2
94908KDBQ DBQ20050225143509402/25/05 14:35:31  5-MIN KDBQ 252035Z 28007KT 7SM SCT028 04/M02 A3000 1010 64 0 280/07 RMK AO2
94908KDBQ DBQ20050225144009402/25/05 14:40:31  5-MIN KDBQ 252040Z 29006KT 7SM FEW028 04/M02 A3000 1010 64 0 290/06 RMK AO2
94908KDBQ DBQ20050225144509602/25/05 14:45:31  5-MIN KDBQ 252045Z 32005KT 7SM FEW028 05/M01 A3000 1000 64 100 320/05 RMK AO2
94908KDBQ DBQ20050225145011902/25/05 14:50:31  5-MIN KDBQ 252050Z 00000KT 7SM SCT028 05/M02 A3001 1000 62 100 000/00 RMK AO2 SLP171 T00501017 56003
94908KDBQ DBQ20050225145511902/25/05 14:55:31  5-MIN KDBQ 252055Z 26007KT 7SM BKN028 05/M01 A3000 1000 64 100 260/07 RMK AO2 SLP170 T00501011 53003
94908KDBQ DBQ20050225150009602/25/05 15:00:31  5-MIN KDBQ 252100Z 28007KT 7SM BKN028 06/M01 A3001 1000 62 100 280/07 RMK AO2
94908KDBQ DBQ20050225150509602/25/05 15:05:31  5-MIN KDBQ 252105Z 29006KT 7SM BKN028 05/M01 A3001 1000 64 100 290/06 RMK AO2
94908KDBQ DBQ20050225151009602/25/05 15:10:31  5-MIN KDBQ 252110Z 33007KT 7SM BKN028 05/M01 A3001 1000 64 100 320/07 RMK AO2
94908KDBQ DBQ20050225151509502/25/05 15:15:31  5-MIN KDBQ 252115Z 33008KT 7SM BKN028 06/M02 A3001 990 59 100 330/08 RMK AO2
94908KDBQ DBQ20050225152009502/25/05 15:20:31  5-MIN KDBQ 252120Z VRB03KT 8SM BKN028 05/M02 A3001 990 62 100 VRB/03 RMK AO2
94908KDBQ DBQ20050225152509502/25/05 15:25:31  5-MIN KDBQ 252125Z 30008KT 8SM BKN028 05/M02 A3001 990 62 100 300/08 RMK AO2
94908KDBQ DBQ20050225153009502/25/05 15:30:31  5-MIN KDBQ 252130Z 31008KT 8SM BKN028 05/M02 A3001 990 62 100 310/08 RMK AO2
94908KDBQ DBQ20050225153509502/25/05 15:35:31  5-MIN KDBQ 252135Z 29008KT 8SM BKN028 05/M02 A3001 990 62 100 290/08 RMK AO2
94908KDBQ DBQ20050225154009502/25/05 15:40:31  5-MIN KDBQ 252140Z 28007KT 8SM BKN028 05/M02 A3002 990 59 100 280/07 RMK AO2
94908KDBQ DBQ20050225154509502/25/05 15:45:31  5-MIN KDBQ 252145Z 31007KT 8SM BKN028 05/M02 A3002 990 62 100 310/07 RMK AO2
94908KDBQ DBQ20050225155011202/25/05 15:50:31  5-MIN KDBQ 252150Z 36007KT 8SM BKN031 06/M02 A3002 990 59 100 360/07 RMK AO2 SLP175 T00561017
94908KDBQ DBQ20050225155511202/25/05 15:55:31  5-MIN KDBQ 252155Z 34007KT 8SM BKN031 06/M02 A3002 990 59 100 340/07 RMK AO2 SLP175 T00561017
94908KDBQ DBQ20050225160009502/25/05 16:00:31  5-MIN KDBQ 252200Z 36007KT 8SM BKN031 06/M02 A3002 980 59 100 360/07 RMK AO2
94908KDBQ DBQ20050225160509302/25/05 16:05:31  5-MIN KDBQ 252205Z 36008KT 8SM BKN031 05/M02 A3003 980 59 0 360/08 RMK AO2
94908KDBQ DBQ20050225161009502/25/05 16:10:31  5-MIN KDBQ 252210Z 36007KT 8SM BKN033 06/M02 A3002 980 59 100 360/07 RMK AO2
94908KDBQ DBQ20050225161509302/25/05 16:15:31  5-MIN KDBQ 252215Z 36008KT 7SM BKN033 05/M02 A3003 980 62 0 360/08 RMK AO2
94908KDBQ DBQ20050225162009302/25/05 16:20:31  5-MIN KDBQ 252220Z 36008KT 7SM BKN033 05/M02 A3003 980 62 0 360/08 RMK AO2
94908KDBQ DBQ20050225162509302/25/05 16:25:31  5-MIN KDBQ 252225Z 36008KT 7SM SCT033 04/M02 A3003 970 64 0 360/08 RMK AO2
94908KDBQ DBQ20050225163009602/25/05 16:30:31  5-MIN KDBQ 252230Z 36008KT 6SM HZ SCT033 04/M02 A3003 970 64 0 360/08 RMK AO2
94908KDBQ DBQ20050225163509602/25/05 16:35:31  5-MIN KDBQ 252235Z 01007KT 6SM HZ SCT033 04/M02 A3004 970 64 0 010/07 RMK AO2
94908KDBQ DBQ20050225164009602/25/05 16:40:31  5-MIN KDBQ 252240Z 01007KT 7SM FEW033 04/M03 A3004 970 62 -100 010/07 RMK AO2
94908KDBQ DBQ20050225164509602/25/05 16:45:31  5-MIN KDBQ 252245Z 02010KT 7SM FEW031 04/M03 A3004 970 62 -100 020/10 RMK AO2
94908KDBQ DBQ20050225165011302/25/05 16:50:31  5-MIN KDBQ 252250Z 01009KT 7SM FEW031 03/M03 A3004 970 64 -100 010/09 RMK AO2 SLP184 T00331028
94908KDBQ DBQ20050225165511302/25/05 16:55:31  5-MIN KDBQ 252255Z 01008KT 7SM FEW031 03/M03 A3004 960 64 -100 010/08 RMK AO2 SLP185 T00331028
94908KDBQ DBQ20050225170009602/25/05 17:00:31  5-MIN KDBQ 252300Z 01006KT 7SM FEW033 03/M03 A3005 960 64 -100 010/06 RMK AO2
94908KDBQ DBQ20050225170509602/25/05 17:05:31  5-MIN KDBQ 252305Z 01006KT 7SM FEW033 03/M03 A3005 960 67 -200 010/06 RMK AO2
94908KDBQ DBQ20050225171009602/25/05 17:10:31  5-MIN KDBQ 252310Z 01006KT 7SM FEW033 03/M03 A3005 960 67 -200 010/06 RMK AO2
94908KDBQ DBQ20050225171509602/25/05 17:15:31  5-MIN KDBQ 252315Z 01005KT 7SM FEW033 03/M03 A3005 950 67 -200 010/05 RMK AO2
94908KDBQ DBQ20050225172009602/25/05 17:20:31  5-MIN KDBQ 252320Z 36004KT 7SM FEW033 03/M03 A3006 950 67 -200 360/04 RMK AO2
94908KDBQ DBQ20050225172509902/25/05 17:25:31  5-MIN KDBQ 252325Z 35006KT 6SM HZ FEW033 02/M03 A3006 950 69 -300 350/06 RMK AO2
94908KDBQ DBQ20050225173009902/25/05 17:30:31  5-MIN KDBQ 252330Z 36006KT 6SM HZ FEW033 02/M03 A3006 950 69 -300 360/06 RMK AO2
94908KDBQ DBQ20050225173509902/25/05 17:35:31  5-MIN KDBQ 252335Z 36007KT 6SM HZ FEW034 02/M03 A3007 940 69 -300 360/07 RMK AO2
94908KDBQ DBQ20050225174009902/25/05 17:40:31  5-MIN KDBQ 252340Z 36006KT 6SM HZ SCT034 02/M03 A3007 940 69 -300 360/06 RMK AO2
94908KDBQ DBQ20050225174509902/25/05 17:45:31  5-MIN KDBQ 252345Z 36005KT 6SM HZ SCT034 02/M03 A3007 940 69 -300 360/05 RMK AO2
94908KDBQ DBQ20050225175013402/25/05 17:50:31  5-MIN KDBQ 252350Z 36004KT 6SM HZ SCT034 02/M03 A3007 940 72 -400 360/04 RMK AO2 SLP195 T00171028 10056 20017 53003
94908KDBQ DBQ20050225175513402/25/05 17:55:31  5-MIN KDBQ 252355Z 35004KT 6SM HZ BKN034 02/M03 A3007 940 72 -400 350/04 RMK AO2 SLP195 T00171028 10056 20017 53022
94908KDBQ DBQ20050225180009602/25/05 18:00:31  5-MIN KDBQ 260000Z 35005KT 7SM BKN034 02/M03 A3007 940 72 -400 350/05 RMK AO2
94908KDBQ DBQ20050225180509602/25/05 18:05:31  5-MIN KDBQ 260005Z 34006KT 7SM OVC034 02/M03 A3008 930 72 -400 340/06 RMK AO2
94908KDBQ DBQ20050225181009602/25/05 18:10:31  5-MIN KDBQ 260010Z 34006KT 8SM OVC034 02/M03 A3008 930 72 -400 340/06 RMK AO2
94908KDBQ DBQ20050225181509602/25/05 18:15:31  5-MIN KDBQ 260015Z 34006KT 8SM OVC034 01/M03 A3008 930 75 -400 340/06 RMK AO2
94908KDBQ DBQ20050225182009602/25/05 18:20:31  5-MIN KDBQ 260020Z 34007KT 7SM BKN034 01/M03 A3008 930 75 -500 340/07 RMK AO2
94908KDBQ DBQ20050225182509602/25/05 18:25:31  5-MIN KDBQ 260025Z 35007KT 7SM BKN034 00/M03 A3008 930 78 -600 350/07 RMK AO2
94908KDBQ DBQ20050225183009602/25/05 18:30:31  5-MIN KDBQ 260030Z 35007KT 7SM SCT034 01/M03 A3008 930 75 -500 340/07 RMK AO2
94908KDBQ DBQ20050225183509602/25/05 18:35:31  5-MIN KDBQ 260035Z 34008KT 7SM SCT034 01/M03 A3008 930 75 -500 340/08 RMK AO2
94908KDBQ DBQ20050225184009602/25/05 18:40:31  5-MIN KDBQ 260040Z 34008KT 7SM FEW034 01/M03 A3009 930 75 -500 340/08 RMK AO2
94908KDBQ DBQ20050225184509302/25/05 18:45:31  5-MIN KDBQ 260045Z 34007KT 7SM CLR 01/M03 A3009 920 75 -500 340/07 RMK AO2
94908KDBQ DBQ20050225185011002/25/05 18:50:31  5-MIN KDBQ 260050Z 35008KT 7SM CLR 01/M03 A3009 920 75 -500 350/08 RMK AO2 SLP203 T00061033
94908KDBQ DBQ20050225185511002/25/05 18:55:31  5-MIN KDBQ 260055Z 36007KT 7SM CLR 01/M03 A3009 920 75 -500 360/07 RMK AO2 SLP204 T00061033
94908KDBQ DBQ20050225190009302/25/05 19:00:31  5-MIN KDBQ 260100Z 36007KT 7SM CLR 01/M03 A3010 920 75 -500 360/07 RMK AO2
94908KDBQ DBQ20050225190509602/25/05 19:05:31  5-MIN KDBQ 260105Z 35007KT 7SM FEW029 01/M03 A3010 920 75 -500 350/07 RMK AO2
94908KDBQ DBQ20050225191010602/25/05 19:10:31  5-MIN KDBQ 260110Z AUTO 36007KT 7SM FEW029 00/M03 A3010 920 78 -600 360/07 RMK AO2 TSNO
94908KDBQ DBQ20050225191510302/25/05 19:15:31  5-MIN KDBQ 260115Z AUTO 01007KT 7SM CLR 00/M04 A3010 910 75 -600 010/07 RMK AO2 TSNO
94908KDBQ DBQ20050225192010302/25/05 19:20:31  5-MIN KDBQ 260120Z AUTO 02008KT 7SM CLR 01/M04 A3010 910 72 -500 020/08 RMK AO2 TSNO
94908KDBQ DBQ20050225192510302/25/05 19:25:31  5-MIN KDBQ 260125Z AUTO 02008KT 8SM CLR 01/M04 A3010 910 69 -500 020/08 RMK AO2 TSNO
94908KDBQ DBQ20050225193010302/25/05 19:30:31  5-MIN KDBQ 260130Z AUTO 02008KT 8SM CLR 01/M04 A3010 910 69 -500 020/08 RMK AO2 TSNO
94908KDBQ DBQ20050225193510302/25/05 19:35:31  5-MIN KDBQ 260135Z AUTO 02008KT 9SM CLR 01/M05 A3010 910 66 -500 020/08 RMK AO2 TSNO
94908KDBQ DBQ20050225194010302/25/05 19:40:31  5-MIN KDBQ 260140Z AUTO 02008KT 9SM CLR 01/M05 A3011 910 66 -500 020/08 RMK AO2 TSNO
94908KDBQ DBQ20050225194510302/25/05 19:45:31  5-MIN KDBQ 260145Z AUTO 02006KT 9SM CLR 00/M05 A3011 900 69 -600 020/06 RMK AO2 TSNO
94908KDBQ DBQ20050225195012002/25/05 19:50:31  5-MIN KDBQ 260150Z AUTO 01005KT 9SM CLR 00/M05 A3011 910 69 -600 010/05 RMK AO2 SLP209 T00001050 TSNO
94908KDBQ DBQ20050225195512102/25/05 19:55:31  5-MIN KDBQ 260155Z AUTO 01005KT 9SM CLR M01/M06 A3011 900 69 -700 360/05 RMK AO2 SLP209 T10061056 TSNO
94908KDBQ DBQ20050225200010402/25/05 20:00:31  5-MIN KDBQ 260200Z AUTO 36006KT 9SM CLR M01/M06 A3011 900 69 -700 360/06 RMK AO2 TSNO
94908KDBQ DBQ20050225200510402/25/05 20:05:31  5-MIN KDBQ 260205Z AUTO 36007KT 9SM CLR M01/M06 A3011 900 69 -700 360/07 RMK AO2 TSNO
94908KDBQ DBQ20050225201010702/25/05 20:10:31  5-MIN KDBQ 260210Z AUTO 36007KT 9SM FEW033 M01/M06 A3011 900 69 -700 360/07 RMK AO2 TSNO
94908KDBQ DBQ20050225201510702/25/05 20:15:31  5-MIN KDBQ 260215Z AUTO 36006KT 9SM SCT033 M01/M06 A3012 900 69 -700 360/06 RMK AO2 TSNO
94908KDBQ DBQ20050225202010702/25/05 20:20:31  5-MIN KDBQ 260220Z AUTO 36004KT 9SM FEW033 M01/M06 A3012 890 72 -800 360/04 RMK AO2 TSNO
94908KDBQ DBQ20050225202510702/25/05 20:25:31  5-MIN KDBQ 260225Z AUTO 01005KT 9SM FEW033 M01/M06 A3012 890 72 -800 010/05 RMK AO2 TSNO
94908KDBQ DBQ20050225203010702/25/05 20:30:31  5-MIN KDBQ 260230Z AUTO 01004KT 9SM FEW033 M01/M06 A3012 890 72 -800 010/04 RMK AO2 TSNO
94908KDBQ DBQ20050225203510702/25/05 20:35:31  5-MIN KDBQ 260235Z AUTO 01005KT 9SM FEW033 M01/M06 A3013 890 69 -800 360/05 RMK AO2 TSNO
94908KDBQ DBQ20050225204010702/25/05 20:40:31  5-MIN KDBQ 260240Z AUTO 01006KT 9SM FEW033 M01/M06 A3013 890 69 -800 360/06 RMK AO2 TSNO
94908KDBQ DBQ20050225204510402/25/05 20:45:31  5-MIN KDBQ 260245Z AUTO 36006KT 9SM CLR M01/M06 A3013 890 69 -800 360/06 RMK AO2 TSNO
94908KDBQ DBQ20050225205012702/25/05 20:50:31  5-MIN KDBQ 260250Z AUTO 01005KT 9SM CLR M02/M06 A3013 880 72 -900 010/05 RMK AO2 SLP217 T10171061 53022 TSNO
94908KDBQ DBQ20050225205512702/25/05 20:55:31  5-MIN KDBQ 260255Z AUTO 01006KT 9SM CLR M02/M07 A3014 880 69 -900 010/06 RMK AO2 SLP218 T10171067 53021 TSNO
94908KDBQ DBQ20050225210010402/25/05 21:00:31  5-MIN KDBQ 260300Z AUTO 01005KT 9SM CLR M02/M06 A3014 880 72 -900 010/05 RMK AO2 TSNO
94908KDBQ DBQ20050225210510402/25/05 21:05:31  5-MIN KDBQ 260305Z AUTO 01006KT 9SM CLR M02/M06 A3014 880 72 -900 010/06 RMK AO2 TSNO
94908KDBQ DBQ20050225211010402/25/05 21:10:31  5-MIN KDBQ 260310Z AUTO 01006KT 9SM CLR M02/M06 A3014 880 72 -900 010/06 RMK AO2 TSNO
94908KDBQ DBQ20050225211510402/25/05 21:15:31  5-MIN KDBQ 260315Z AUTO 01006KT 9SM CLR M01/M06 A3014 870 69 -800 010/06 RMK AO2 TSNO
94908KDBQ DBQ20050225212010402/25/05 21:20:31  5-MIN KDBQ 260320Z AUTO 02006KT 9SM CLR M02/M06 A3015 870 72 -900 020/06 RMK AO2 TSNO
94908KDBQ DBQ20050225212510402/25/05 21:25:31  5-MIN KDBQ 260325Z AUTO 03005KT 9SM CLR M02/M06 A3015 870 72 -900 030/05 RMK AO2 TSNO
94908KDBQ DBQ20050225213010402/25/05 21:30:31  5-MIN KDBQ 260330Z AUTO 03006KT 9SM CLR M01/M06 A3015 870 69 -800 030/06 RMK AO2 TSNO
94908KDBQ DBQ20050225213510402/25/05 21:35:31  5-MIN KDBQ 260335Z AUTO 03007KT 9SM CLR M02/M06 A3015 870 72 -900 030/07 RMK AO2 TSNO
94908KDBQ DBQ20050225214010402/25/05 21:40:31  5-MIN KDBQ 260340Z AUTO 03007KT 8SM CLR M01/M06 A3015 860 69 -800 030/07 RMK AO2 TSNO
94908KDBQ DBQ20050225214510402/25/05 21:45:31  5-MIN KDBQ 260345Z AUTO 03007KT 8SM CLR M01/M06 A3015 860 69 -800 030/07 RMK AO2 TSNO
94908KDBQ DBQ20050225215012102/25/05 21:50:31  5-MIN KDBQ 260350Z AUTO 03008KT 8SM CLR M01/M06 A3016 860 69 -800 030/08 RMK AO2 SLP224 T10111061 TSNO
94908KDBQ DBQ20050225215512102/25/05 21:55:31  5-MIN KDBQ 260355Z AUTO 04008KT 8SM CLR M01/M06 A3016 860 69 -800 030/08 RMK AO2 SLP224 T10111061 TSNO
94908KDBQ DBQ20050225220010402/25/05 22:00:31  5-MIN KDBQ 260400Z AUTO 04009KT 8SM CLR M01/M06 A3016 860 72 -800 030/09 RMK AO2 TSNO
94908KDBQ DBQ20050225220510402/25/05 22:05:31  5-MIN KDBQ 260405Z AUTO 04009KT 8SM CLR M02/M06 A3016 860 75 -900 040/09 RMK AO2 TSNO
94908KDBQ DBQ20050225221010402/25/05 22:10:31  5-MIN KDBQ 260410Z AUTO 04009KT 8SM CLR M02/M06 A3016 860 75 -900 040/09 RMK AO2 TSNO
94908KDBQ DBQ20050225221510402/25/05 22:15:31  5-MIN KDBQ 260415Z AUTO 04009KT 8SM CLR M02/M06 A3016 860 75 -900 040/09 RMK AO2 TSNO
94908KDBQ DBQ20050225222010402/25/05 22:20:31  5-MIN KDBQ 260420Z AUTO 04008KT 8SM CLR M02/M06 A3016 860 75 -900 040/08 RMK AO2 TSNO
94908KDBQ DBQ20050225222510402/25/05 22:25:31  5-MIN KDBQ 260425Z AUTO 04009KT 8SM CLR M02/M06 A3016 860 75 -900 040/09 RMK AO2 TSNO
94908KDBQ DBQ20050225223010402/25/05 22:30:31  5-MIN KDBQ 260430Z AUTO 04009KT 8SM CLR M02/M06 A3016 860 75 -900 040/09 RMK AO2 TSNO
94908KDBQ DBQ20050225223510402/25/05 22:35:31  5-MIN KDBQ 260435Z AUTO 04009KT 8SM CLR M02/M06 A3016 860 75 -900 040/09 RMK AO2 TSNO
94908KDBQ DBQ20050225224010402/25/05 22:40:31  5-MIN KDBQ 260440Z AUTO 04009KT 8SM CLR M02/M06 A3016 860 75 -900 040/09 RMK AO2 TSNO
94908KDBQ DBQ20050225224510402/25/05 22:45:31  5-MIN KDBQ 260445Z AUTO 04008KT 8SM CLR M02/M06 A3016 850 75 -900 040/08 RMK AO2 TSNO
94908KDBQ DBQ20050225225012202/25/05 22:50:31  5-MIN KDBQ 260450Z AUTO 04008KT 8SM CLR M02/M06 A3016 860 78 -1000 040/08 RMK AO2 SLP226 T10221056 TSNO
94908KDBQ DBQ20050225225512202/25/05 22:55:31  5-MIN KDBQ 260455Z AUTO 03008KT 8SM CLR M02/M06 A3016 860 78 -1000 030/08 RMK AO2 SLP226 T10221056 TSNO
94908KDBQ DBQ20050225230010502/25/05 23:00:31  5-MIN KDBQ 260500Z AUTO 04009KT 8SM CLR M02/M06 A3016 860 78 -1000 040/09 RMK AO2 TSNO
94908KDBQ DBQ20050225230510502/25/05 23:05:31  5-MIN KDBQ 260505Z AUTO 04009KT 8SM CLR M02/M06 A3016 860 78 -1000 040/09 RMK AO2 TSNO
94908KDBQ DBQ20050225231010502/25/05 23:10:31  5-MIN KDBQ 260510Z AUTO 04009KT 8SM CLR M02/M06 A3016 860 78 -1000 040/09 RMK AO2 TSNO
94908KDBQ DBQ20050225231510502/25/05 23:15:31  5-MIN KDBQ 260515Z AUTO 04009KT 8SM CLR M02/M06 A3016 860 78 -1000 040/09 RMK AO2 TSNO
94908KDBQ DBQ20050225232010502/25/05 23:20:31  5-MIN KDBQ 260520Z AUTO 04010KT 7SM CLR M02/M06 A3017 850 78 -1000 040/10 RMK AO2 TSNO
94908KDBQ DBQ20050225232510502/25/05 23:25:31  5-MIN KDBQ 260525Z AUTO 04008KT 7SM CLR M02/M06 A3017 850 78 -1000 040/08 RMK AO2 TSNO
94908KDBQ DBQ20050225233010502/25/05 23:30:31  5-MIN KDBQ 260530Z AUTO 04008KT 7SM CLR M02/M06 A3017 850 78 -1000 030/08 RMK AO2 TSNO
94908KDBQ DBQ20050225233510502/25/05 23:35:31  5-MIN KDBQ 260535Z AUTO 04007KT 7SM CLR M03/M06 A3017 850 81 -1000 040/07 RMK AO2 TSNO
94908KDBQ DBQ20050225234010502/25/05 23:40:31  5-MIN KDBQ 260540Z AUTO 04006KT 7SM CLR M03/M06 A3018 840 81 -1000 040/06 RMK AO2 TSNO
94908KDBQ DBQ20050225234510502/25/05 23:45:31  5-MIN KDBQ 260545Z AUTO 04006KT 7SM CLR M03/M06 A3018 840 81 -1000 040/06 RMK AO2 TSNO
94908KDBQ DBQ20050225235015002/25/05 23:50:31  5-MIN KDBQ 260550Z AUTO 04006KT 7SM CLR M03/M06 A3018 840 78 -1000 030/06 RMK AO2 SLP231 T10281061 10017 21028 400561033 53021 TSNO
94908KDBQ DBQ20050225235515002/25/05 23:55:31  5-MIN KDBQ 260555Z AUTO 04006KT 7SM CLR M03/M06 A3018 840 78 -1000 040/06 RMK AO2 SLP231 T10281061 10017 21028 400561033 51013 TSNO
94908KDBQ DBQ20050226000010502/26/05 00:00:38  5-MIN KDBQ 260600Z AUTO 04007KT 7SM CLR M03/M06 A3018 840 81 -1000 040/07 RMK AO2 TSNO
94908KDBQ DBQ20050226000513002/26/05 00:05:31  5-MIN KDBQ 260605Z AUTO 03007KT 7SM CLR M03/M06 A3018 840 81 -1000 030/07 RMK AO2 TSNO 02/26/05 00:10:3AO2 TSNO
94908KDBQ DBQ20050226001510502/26/05 00:15:32  5-MIN KDBQ 260615Z AUTO 04005KT 7SM CLR M03/M06 A3018 840 85 -1100 040/05 RMK AO2 TSNO
94908KDBQ DBQ20050226002012202/26/05 00:20:31  5-MIN KDBQ 260620Z AUTO 04006KT 7SM CLR M03/M06 A3018 840 81 -1100 040/06 RMK AO2 TSNO 02/26/05 00:25:3
94908KDBQ DBQ20050226004510502/26/05 00:45:31  5-MIN KDBQ 260645Z AUTO 03005KT 7SM CLR M03/M06 A3019 830 81 -1100 030/05 RMK AO2 TSNO
94908KDBQ DBQ20050226005014802/26/05 00:50:31  5-MIN KDBQ 260650Z AUTO 03006KT 7SM CLR M04/M06 A3019 830 85 -1200 030/06 RMK AO2 SLP236 T10391061 TSNO 02/26/050/04 RMK AO2 TSNO
94908KDBQ DBQ20050226011510802/26/05 01:15:31  5-MIN KDBQ 260715Z AUTO 04005KT 6SM HZ CLR M03/M06 A3019 830 81 -1100 040/05 RMK AO2 TSNO
94908KDBQ DBQ20050226012010802/26/05 01:20:31  5-MIN KDBQ 260720Z AUTO 04004KT 6SM BR CLR M04/M06 A3020 820 85 -1200 040/04 RMK AO2 TSNO
94908KDBQ DBQ20050226014010802/26/05 01:40:31  5-MIN KDBQ 260740Z AUTO 04004KT 6SM BR CLR M04/M06 A3021 820 85 -1200 030/04 RMK AO2 TSNO
94908KDBQ DBQ20050226014510802/26/05 01:45:31  5-MIN KDBQ 260745Z AUTO 03004KT 6SM HZ CLR M04/M07 A3021 820 81 -1200 030/04 RMK AO2 TSNO
94908KDBQ DBQ20050226015006702/26/05 01:50:31  5-MIN KDBQ 260750Z AUTO 03004KT 6SM HZ CLR M0021
94908KDBQ DBQ20050226021010802/26/05 02:10:31  5-MIN KDBQ 260810Z AUTO 04004KT 6SM BR CLR M04/M07 A3021 810 84 -1300 040/04 RMK AO2 TSNO
94908KDBQ DBQ20050226021519602/26/05 02:15:31  5-MIN KDBQ 260815Z AUTO 04005KT 6SM BR CLR M04/M07 A3021 810 84 -1300 040/05 RMK AO2 TSNO 02/26/05 02:20:3O TO 03005KT 6SM BR CLR M04/M07 A3021  820 84 -1300 030/05 RMK AO2 TSNO
94908KDBQ DBQ20050226024010802/26/05 02:40:31  5-MIN KDBQ 260840Z AUTO 03005KT 6SM BR CLR M04/M07 A3021 820 84 -1300 030/05 RMK AO2 TSNO
94908KDBQ DBQ20050226024508502/26/05 02:45:31  5-MIN KDBQ 260845Z AUTO 03005KT 6SM B021 -1300 030/06 RMK AO2 TSNO
94908KDBQ DBQ20050226030510802/26/05 03:05:31  5-MIN KDBQ 260905Z AUTO 03006KT 6SM BR CLR M04/M07 A3021 820 84 -1300 030/06 RMK AO2 TSNO
94908KDBQ DBQ20050226031010202/26/05 03:10:31  5-MIN KDBQ 260910Z AUTO 04006KT 6SM BR CLR M04/M07 A3020 820 84 -1300 030/06 RMKO O
94908KDBQ DBQ20050226033010802/26/05 03:30:31  5-MIN KDBQ 260930Z AUTO 04005KT 6SM BR CLR M04/M07 A3021 810 84 -1300 040/05 RMK AO2 TSNO
94908KDBQ DBQ20050226033515102/26/05 03:35:31  5-MIN KDBQ 260935Z AUTO 04005KT 6SM BR CLR M04/M07 A3021 810 84 -1300 040/05 RMK AO2 TSNO 02/26/05 03:40:3 AO2 SLP243 T10441067 TSNO
94908KDBQ DBQ20050226035512502/26/05 03:55:31  5-MIN KDBQ 260955Z AUTO 05006KT 6SM BR CLR M04/M07 A3022 810 84 -1300 050/06 RMK AO2 SLP244 T10441067 TSNO
94908KDBQ DBQ20050226040008402/26/05 04:00:31  5-MIN KDBQ 261000Z AUTO 05006KT 6SM BR CLR M04/M07 A3022 810 84 O
94908KDBQ DBQ20050226042010802/26/05 04:20:31  5-MIN KDBQ 261020Z AUTO 03006KT 6SM BR CLR M05/M07 A3022 800 84 -1400 030/06 RMK AO2 TSNO
94908KDBQ DBQ20050226042513802/26/05 04:25:31  5-MIN KDBQ 261025Z AUTO 03006KT 6SM BR CLR M05/M07 A3022 800 84 -1400 030/06 RMK AO2 TSNO 02/26/05 04:30:3023  AO2 TSNO
94908KDBQ DBQ20050226045012502/26/05 04:50:31  5-MIN KDBQ 261050Z AUTO 03005KT 6SM BR CLR M06/M07 A3024 790 88 -1500 030/05 RMK AO2 SLP253 T10561072 TSNO
94908KDBQ DBQ20050226045517802/26/05 04:55:31  5-MIN KDBQ 261055Z AUTO 03005KT 6SM BR CLR M06/M07 A3024 780 88 -1500 030/05 RMKO 1115Z AUTO 04005KT 5SM BR CLR M06/M07 A3024  780 88 -1500 040/05 RMK AO2 TSNO
94908KDBQ DBQ20050226052010802/26/05 05:20:31  5-MIN KDBQ 261120Z AUTO 05005KT 5SM BR CLR M06/M07 A3024 780 88 -1500 040/05 RMK AO2 TSNO
94908KDBQ DBQ20050226052510802/26/05 05:25:31  5-MIN KDBQ 261125Z AUTO 05005KT 5SM BR CLR M06/M07 A3024 780 88 -1500 040/05 RMK AO2 TSNO
94908KDBQ DBQ20050226053010802/26/05 05:30:31  5-MIN KDBQ 261130Z AUTO 04005KT 5SM BR CLR M06/M07 A3024 780 88 -1500 040/05 RMK AO2 TSNO
94908KDBQ DBQ20050226053510802/26/05 05:35:31  5-MIN KDBQ 261135Z AUTO 04005KT 5SM BR CLR M06/M07 A3024 780 88 -1500 040/05 RMK AO2 TSNO
94908KDBQ DBQ20050226054010802/26/05 05:40:31  5-MIN KDBQ 261140Z AUTO 05006KT 5SM BR CLR M06/M07 A3024 780 88 -1500 040/06 RMK AO2 TSNO
94908KDBQ DBQ20050226054509802/26/05 05:45:31  5-MIN KDBQ 261145Z 04006KT 5SM BR CLR M06/M07 A3024 780 88 -1500 040/06 RMK AO2
94908KDBQ DBQ20050226055013302/26/05 05:50:31  5-MIN KDBQ 261150Z 04006KT 5SM BR CLR M06/M07 A3024 780 88 -1500 040/06 RMK AO2 SLP256 T10561072 11028 21056 50009
94908KDBQ DBQ20050226055513302/26/05 05:55:31  5-MIN KDBQ 261155Z 04006KT 6SM BR CLR M06/M07 A3025 780 88 -1500 040/06 RMK AO2 SLP256 T10561072 11028 21056 51013
94908KDBQ DBQ20050226060009802/26/05 06:00:31  5-MIN KDBQ 261200Z 04006KT 6SM BR CLR M06/M07 A3025 780 88 -1500 040/06 RMK AO2
94908KDBQ DBQ20050226060509802/26/05 06:05:31  5-MIN KDBQ 261205Z 04006KT 6SM BR CLR M06/M07 A3025 780 88 -1500 040/06 RMK AO2
94908KDBQ DBQ20050226061009802/26/05 06:10:31  5-MIN KDBQ 261210Z 05006KT 5SM BR CLR M06/M07 A3025 770 88 -1500 050/06 RMK AO2
94908KDBQ DBQ20050226061509802/26/05 06:15:31  5-MIN KDBQ 261215Z 05006KT 6SM BR CLR M06/M07 A3025 770 88 -1500 050/06 RMK AO2
94908KDBQ DBQ20050226062009802/26/05 06:20:31  5-MIN KDBQ 261220Z 05007KT 6SM BR CLR M06/M07 A3025 770 88 -1500 050/07 RMK AO2
94908KDBQ DBQ20050226062509802/26/05 06:25:31  5-MIN KDBQ 261225Z 05007KT 6SM BR CLR M05/M07 A3025 770 84 -1400 050/07 RMK AO2
94908KDBQ DBQ20050226063009802/26/05 06:30:31  5-MIN KDBQ 261230Z 05007KT 6SM HZ CLR M05/M08 A3026 770 81 -1400 050/07 RMK AO2
94908KDBQ DBQ20050226063509802/26/05 06:35:31  5-MIN KDBQ 261235Z 05007KT 6SM HZ CLR M05/M08 A3026 770 81 -1400 050/07 RMK AO2
94908KDBQ DBQ20050226064009802/26/05 06:40:31  5-MIN KDBQ 261240Z 05006KT 6SM HZ CLR M05/M08 A3026 760 81 -1400 050/06 RMK AO2
94908KDBQ DBQ20050226064509802/26/05 06:45:31  5-MIN KDBQ 261245Z 05007KT 5SM BR CLR M06/M08 A3026 760 84 -1500 050/07 RMK AO2
94908KDBQ DBQ20050226065011502/26/05 06:50:31  5-MIN KDBQ 261250Z 05006KT 5SM BR CLR M06/M08 A3026 760 84 -1500 050/06 RMK AO2 SLP263 T10561078
94908KDBQ DBQ20050226065511502/26/05 06:55:31  5-MIN KDBQ 261255Z 05006KT 5SM BR CLR M06/M08 A3027 760 84 -1500 050/06 RMK AO2 SLP263 T10561078
94908KDBQ DBQ20050226070009802/26/05 07:00:31  5-MIN KDBQ 261300Z 05006KT 5SM BR CLR M06/M08 A3027 760 84 -1500 050/06 RMK AO2
94908KDBQ DBQ20050226070509802/26/05 07:05:31  5-MIN KDBQ 261305Z 05006KT 5SM BR CLR M06/M08 A3027 760 84 -1500 050/06 RMK AO2
94908KDBQ DBQ20050226071009802/26/05 07:10:31  5-MIN KDBQ 261310Z 05005KT 4SM BR CLR M06/M08 A3027 760 84 -1500 050/05 RMK AO2
94908KDBQ DBQ20050226071509802/26/05 07:15:31  5-MIN KDBQ 261315Z 05006KT 4SM BR CLR M05/M07 A3027 760 84 -1400 050/06 RMK AO2
94908KDBQ DBQ20050226072009802/26/05 07:20:31  5-MIN KDBQ 261320Z 05006KT 4SM BR CLR M05/M07 A3027 750 84 -1400 050/06 RMK AO2
94908KDBQ DBQ20050226072509802/26/05 07:25:31  5-MIN KDBQ 261325Z 05005KT 4SM BR CLR M05/M07 A3028 750 84 -1400 050/05 RMK AO2
94908KDBQ DBQ20050226073009802/26/05 07:30:31  5-MIN KDBQ 261330Z 05005KT 4SM BR CLR M05/M07 A3028 750 84 -1400 050/05 RMK AO2
94908KDBQ DBQ20050226073509802/26/05 07:35:31  5-MIN KDBQ 261335Z 05005KT 4SM BR CLR M05/M07 A3028 740 84 -1500 050/05 RMK AO2
94908KDBQ DBQ20050226074009802/26/05 07:40:31  5-MIN KDBQ 261340Z 05005KT 4SM BR CLR M05/M07 A3028 740 84 -1500 050/05 RMK AO2
94908KDBQ DBQ20050226074509802/26/05 07:45:31  5-MIN KDBQ 261345Z 06005KT 4SM HZ CLR M04/M07 A3028 740 81 -1400 060/05 RMK AO2
94908KDBQ DBQ20050226075011502/26/05 07:50:31  5-MIN KDBQ 261350Z 05006KT 4SM HZ CLR M04/M07 A3029 740 81 -1400 050/06 RMK AO2 SLP270 T10441072
94908KDBQ DBQ20050226075511502/26/05 07:55:31  5-MIN KDBQ 261355Z 05006KT 4SM HZ CLR M04/M07 A3029 740 81 -1400 050/06 RMK AO2 SLP270 T10441072
94908KDBQ DBQ20050226080009802/26/05 08:00:31  5-MIN KDBQ 261400Z 05005KT 4SM BR CLR M04/M07 A3029 740 84 -1400 050/05 RMK AO2
94908KDBQ DBQ20050226080509802/26/05 08:05:31  5-MIN KDBQ 261405Z 07006KT 4SM HZ CLR M04/M07 A3029 740 81 -1300 060/06 RMK AO2
94908KDBQ DBQ20050226081009802/26/05 08:10:31  5-MIN KDBQ 261410Z 08007KT 5SM HZ CLR M04/M07 A3029 740 81 -1300 070/07 RMK AO2
94908KDBQ DBQ20050226081509802/26/05 08:15:31  5-MIN KDBQ 261415Z 08007KT 5SM HZ CLR M04/M07 A3029 730 81 -1300 070/07 RMK AO2
94908KDBQ DBQ20050226082009802/26/05 08:20:31  5-MIN KDBQ 261420Z 07008KT 5SM HZ CLR M04/M07 A3029 730 81 -1300 070/08 RMK AO2
94908KDBQ DBQ20050226082509802/26/05 08:25:31  5-MIN KDBQ 261425Z 07009KT 5SM BR CLR M04/M06 A3029 730 85 -1300 070/09 RMK AO2
94908KDBQ DBQ20050226083009802/26/05 08:30:31  5-MIN KDBQ 261430Z 08009KT 5SM HZ CLR M04/M07 A3030 730 81 -1300 070/09 RMK AO2
94908KDBQ DBQ20050226083509802/26/05 08:35:31  5-MIN KDBQ 261435Z 08008KT 5SM HZ CLR M04/M07 A3030 730 81 -1300 080/08 RMK AO2
94908KDBQ DBQ20050226084009802/26/05 08:40:31  5-MIN KDBQ 261440Z 07008KT 5SM HZ CLR M03/M06 A3029 740 81 -1200 070/08 RMK AO2
94908KDBQ DBQ20050226084509802/26/05 08:45:31  5-MIN KDBQ 261445Z 07008KT 5SM HZ CLR M03/M06 A3029 730 81 -1300 070/08 RMK AO2
94908KDBQ DBQ20050226085012102/26/05 08:50:31  5-MIN KDBQ 261450Z 06008KT 5SM HZ CLR M03/M06 A3029 730 81 -1300 060/08 RMK AO2 SLP273 T10331061 51013
94908KDBQ DBQ20050226085512102/26/05 08:55:31  5-MIN KDBQ 261455Z 08008KT 5SM HZ CLR M03/M06 A3030 730 81 -1300 080/08 RMK AO2 SLP273 T10331061 51017
94908KDBQ DBQ20050226090009802/26/05 09:00:31  5-MIN KDBQ 261500Z 08007KT 5SM HZ CLR M03/M06 A3030 730 78 -1200 080/07 RMK AO2
94908KDBQ DBQ20050226090509802/26/05 09:05:31  5-MIN KDBQ 261505Z 08008KT 5SM HZ CLR M03/M06 A3029 730 78 -1200 070/08 RMK AO2
94908KDBQ DBQ20050226091009802/26/05 09:10:31  5-MIN KDBQ 261510Z 08007KT 5SM HZ CLR M03/M06 A3030 730 78 -1200 080/07 RMK AO2
94908KDBQ DBQ20050226091509802/26/05 09:15:31  5-MIN KDBQ 261515Z 08007KT 5SM HZ CLR M03/M06 A3030 730 78 -1200 080/07 RMK AO2
94908KDBQ DBQ20050226092009802/26/05 09:20:31  5-MIN KDBQ 261520Z 09008KT 5SM HZ CLR M03/M06 A3030 730 78 -1200 090/08 RMK AO2
94908KDBQ DBQ20050226092509802/26/05 09:25:31  5-MIN KDBQ 261525Z 07006KT 5SM HZ CLR M02/M06 A3030 730 78 -1100 070/06 RMK AO2
94908KDBQ DBQ20050226093009802/26/05 09:30:31  5-MIN KDBQ 261530Z 07008KT 5SM HZ CLR M02/M06 A3030 730 78 -1100 060/08 RMK AO2
94908KDBQ DBQ20050226093509802/26/05 09:35:31  5-MIN KDBQ 261535Z 07007KT 5SM HZ CLR M02/M06 A3030 730 78 -1100 070/07 RMK AO2
94908KDBQ DBQ20050226094009802/26/05 09:40:31  5-MIN KDBQ 261540Z 11008KT 6SM HZ CLR M02/M06 A3030 730 78 -1100 110/08 RMK AO2
94908KDBQ DBQ20050226094509802/26/05 09:45:31  5-MIN KDBQ 261545Z 09009KT 6SM HZ CLR M02/M06 A3030 730 78 -1100 090/09 RMK AO2
94908KDBQ DBQ20050226095011502/26/05 09:50:31  5-MIN KDBQ 261550Z 09011KT 6SM HZ CLR M02/M06 A3030 730 72 -1000 090/11 RMK AO2 SLP272 T10171061
94908KDBQ DBQ20050226095511502/26/05 09:55:31  5-MIN KDBQ 261555Z 12009KT 6SM HZ CLR M02/M06 A3030 730 75 -1000 120/09 RMK AO2 SLP273 T10171056
94908KDBQ DBQ20050226100009802/26/05 10:00:31  5-MIN KDBQ 261600Z 10006KT 6SM HZ CLR M02/M06 A3030 730 75 -1000 100/06 RMK AO2
94908KDBQ DBQ20050226100509802/26/05 10:05:31  5-MIN KDBQ 261605Z 10007KT 6SM HZ CLR M01/M05 A3030 730 75 -1000 090/07 RMK AO2
94908KDBQ DBQ20050226101009802/26/05 10:10:31  5-MIN KDBQ 261610Z 08009KT 6SM HZ CLR M01/M06 A3030 730 72 -1000 080/09 RMK AO2
94908KDBQ DBQ20050226101510102/26/05 10:15:31  5-MIN KDBQ 261615Z 09010KT 6SM HZ FEW019 M01/M06 A3030 730 72 -1000 090/10 RMK AO2
94908KDBQ DBQ20050226102010102/26/05 10:20:31  5-MIN KDBQ 261620Z 10009KT 6SM HZ FEW019 M01/M06 A3030 730 72 -1000 100/09 RMK AO2
94908KDBQ DBQ20050226102509802/26/05 10:25:31  5-MIN KDBQ 261625Z 10009KT 6SM HZ CLR M01/M06 A3030 730 72 -1000 100/09 RMK AO2
94908KDBQ DBQ20050226103009802/26/05 10:30:31  5-MIN KDBQ 261630Z 11009KT 6SM HZ CLR M01/M06 A3030 730 72 -1000 110/09 RMK AO2
94908KDBQ DBQ20050226103509802/26/05 10:35:31  5-MIN KDBQ 261635Z 10010KT 6SM HZ CLR M01/M06 A3030 730 72 -1000 100/10 RMK AO2
94908KDBQ DBQ20050226104015102/26/05 10:40:31  5-MIN KDBQ 261640Z 10011KT 7SM CLR M01/M05 A3030 730 72 -900 100/11 RMK AO2 730 72 -900 110/07 RMK AO2 SLP274 T10061050KT 6SM HZ CLR
94908KDBQ DBQ20050226110009902/26/05 11:00:31  5-MIN KDBQ 261700Z 11008KT 6SM HZ FEW019 00/M05 A3030 730 69 -800 110/08 RMK AO2
94908KDBQ DBQ20050226110509202/26/05 11:05:31  5-MIN KDBQ 261705Z 10008KT 6SM HZ CLR M01/M05 A3030 730 72 -900 100/08 R0
94908KDBQ DBQ20050226113509602/26/05 11:35:31  5-MIN KDBQ 261735Z 12009KT 7SM FEW020 00/M05 A3029 740 69 -800 120/09 RMK AO2
94908KDBQ DBQ20050226114013602/26/05 11:40:31  5-MIN KDBQ 261740Z 09008KT 7SM CLR 011  5-MIN KDBQ 261800Z 11008KT 7SM SCT021 01/M05 A3029 740 66 -800 110/08 RMK AO2
94908KDBQ DBQ20050226120509602/26/05 12:05:31  5-MIN KDBQ 261805Z 12008KT 7SM SCT021 00/M05 A3029 740 69 -800 120/08 RMK AO2
94908KDBQ DBQ20050226121005702/26/05 12:10:31  5-MIN KDBQ 261810Z 11008KT 7SM SCT0210
94908KDBQ DBQ20050226123009602/26/05 12:30:31  5-MIN KDBQ 261830Z 13005KT 7SM BKN021 01/M04 A3028 750 69 -700 130/05 RMK AO2
94908KDBQ DBQ20050226123509602/26/05 12:35:31  5-MIN KDBQ 261835Z 11009KT 7SM BKN021 01/M04 A3028 750 69 -700 110/09 RMK AO2
94908KDBQ DBQ20050226124010302/26/05 12:40:31  5-MIN KDBQ 261840Z 12007KT 7SM BKN021M SCT023 01/M04 A3027 76066 -700 100/07 RMK AO2
94908KDBQ DBQ20050226130509602/26/05 13:05:31  5-MIN KDBQ 261905Z 15007KT 9SM SCT023 02/M04 A3027 760 66 -600 150/07 RMK AO2
94908KDBQ DBQ20050226131007302/26/05 13:10:31  5-MIN KDBQ 261910Z 11007KT 9SM SCT023 02/M04 A3026 760
94908KDBQ DBQ20050226134016102/26/05 13:40:31  5-MIN KDBQ 261940Z 09008KT 10SM SCT025 02/M04 A3026 770 66 -600 090/08 RMK AO2 009KT 10SM OVC027 02/M04 A3025 770 5Z 13 64 -500 120/09 RMK AO2
94908KDBQ DBQ20050226141009702/26/05 14:10:31  5-MIN KDBQ 262010Z 15011KT 10SM OVC027 02/M04 A3025 770 64 -500 150/11 RMK AO2
94908KDBQ DBQ20050226141509102/26/05 14:15:31  5-MIN KDBQ 262015Z 16010KT 10SM OVC027 02/M04 A3025 770 70160/09 RMK AO2
94908KDBQ DBQ20050226144009702/26/05 14:40:31  5-MIN KDBQ 262040Z 14009KT 10SM BKN027 02/M04 A3025 780 64 -500 140/09 RMK AO2
94908KDBQ DBQ20050226144509702/26/05 14:45:31  5-MIN KDBQ 262045Z 13008KT 10SM BKN027 02/M04 A3025 780 66 -600 130/08 RMK AO2
94908KDBQ DBQ20050226145012102/26/05 14:50:31  5-MIN02/26/05 15:10:31  5-MIN KDBQ 262110Z 11011KT 10SM OVC027 02/M04 A3024 790 66 -600 110/11 RMK AO2
94908KDBQ DBQ20050226151509702/26/05 15:15:31  5-MIN KDBQ 262115Z 12010KT 10SM BKN027 02/M04 A3024 790 64 -500 120/10 RMK AO2
94908KDBQ DBQ20050226152006202/26/05 15:20:31  5-MIN KDBQ 262120Z 1364 -500 120/12 RMK AO2
94908KDBQ DBQ20050226154509702/26/05 15:45:31  5-MIN KDBQ 262145Z 11009KT 10SM BKN027 01/M04 A3023 790 66 -600 110/09 RMK AO2
94908KDBQ DBQ20050226155011402/26/05 15:50:31  5-MIN KDBQ 262150Z 11011KT 10SM BKN027 02/M04 A3023 790 64 -500 110/11 RMK AO2 SLP251 T00171044
94908KDBQ DBQ20050226155511402/26/05 15:55:31  5-MIN KDBQ 262155Z 11009KT 10SM BKN027 01/M04 A3023 800 66 -600 110/09 RMK AO2 SLP250 T00111044
94908KDBQ DBQ20050226160009702/26/05 16:00:31  5-MIN KDBQ 262200Z 12011KT 10SM BKN027 01/M04 A3023 800 66 -600 120/11 RMK AO2
94908KDBQ DBQ20050226160509702/26/05 16:05:31  5-MIN KDBQ 262205Z 11011KT 10SM BKN027 01/M04 A3023 800 66 -600 110/11 RMK AO2
94908KDBQ DBQ20050226161009702/26/05 16:10:31  5-MIN KDBQ 262210Z 11013KT 10SM BKN027 01/M04 A3023 800 66 -600 110/13 RMK AO2
94908KDBQ DBQ20050226161509702/26/05 16:15:31  5-MIN KDBQ 262215Z 11011KT 10SM BKN027 01/M04 A3023 800 66 -600 110/11 RMK AO2
94908KDBQ DBQ20050226162009702/26/05 16:20:31  5-MIN KDBQ 262220Z 11011KT 10SM BKN027 01/M04 A3023 800 69 -700 110/11 RMK AO2
94908KDBQ DBQ20050226162509702/26/05 16:25:31  5-MIN KDBQ 262225Z 11011KT 10SM BKN027 01/M04 A3022 800 69 -700 110/11 RMK AO2
94908KDBQ DBQ20050226163009702/26/05 16:30:31  5-MIN KDBQ 262230Z 12012KT 10SM BKN027 01/M04 A3022 800 69 -700 120/12 RMK AO2
94908KDBQ DBQ20050226163509702/26/05 16:35:31  5-MIN KDBQ 262235Z 11011KT 10SM BKN027 01/M04 A3022 800 69 -700 100/11 RMK AO2
94908KDBQ DBQ20050226164009702/26/05 16:40:31  5-MIN KDBQ 262240Z 11011KT 10SM BKN025 01/M04 A3021 810 69 -700 110/11 RMK AO2
94908KDBQ DBQ20050226164509702/26/05 16:45:31  5-MIN KDBQ 262245Z 11011KT 10SM BKN025 01/M04 A3021 810 69 -700 110/11 RMK AO2
94908KDBQ DBQ20050226165011402/26/05 16:50:31  5-MIN KDBQ 262250Z 12009KT 10SM SCT025 01/M04 A3021 810 69 -700 120/09 RMK AO2 SLP245 T00061044
94908KDBQ DBQ20050226165511402/26/05 16:55:31  5-MIN KDBQ 262255Z 11010KT 10SM SCT025 01/M04 A3021 810 69 -700 110/10 RMK AO2 SLP244 T00061044
94908KDBQ DBQ20050226170009702/26/05 17:00:31  5-MIN KDBQ 262300Z 12008KT 10SM FEW025 00/M04 A3021 810 72 -700 120/08 RMK AO2
94908KDBQ DBQ20050226170509702/26/05 17:05:31  5-MIN KDBQ 262305Z 11006KT 10SM FEW025 00/M04 A3021 810 72 -700 110/06 RMK AO2
94908KDBQ DBQ20050226171009702/26/05 17:10:31  5-MIN KDBQ 262310Z 12010KT 10SM SCT025 01/M04 A3021 810 69 -700 120/10 RMK AO2
94908KDBQ DBQ20050226171509702/26/05 17:15:31  5-MIN KDBQ 262315Z 12010KT 10SM SCT025 01/M04 A3021 810 69 -700 120/10 RMK AO2
94908KDBQ DBQ20050226172009702/26/05 17:20:31  5-MIN KDBQ 262320Z 12010KT 10SM FEW025 00/M04 A3021 810 72 -700 120/10 RMK AO2
94908KDBQ DBQ20050226172509702/26/05 17:25:31  5-MIN KDBQ 262325Z 12008KT 10SM SCT025 00/M04 A3021 810 72 -700 120/08 RMK AO2
94908KDBQ DBQ20050226173009702/26/05 17:30:31  5-MIN KDBQ 262330Z 12010KT 10SM SCT025 00/M04 A3021 810 72 -700 120/10 RMK AO2
94908KDBQ DBQ20050226173509702/26/05 17:35:31  5-MIN KDBQ 262335Z 11010KT 10SM FEW025 00/M04 A3021 810 72 -700 110/10 RMK AO2
94908KDBQ DBQ20050226174009702/26/05 17:40:31  5-MIN KDBQ 262340Z 12009KT 10SM FEW025 00/M04 A3021 810 72 -700 110/09 RMK AO2
94908KDBQ DBQ20050226174509702/26/05 17:45:31  5-MIN KDBQ 262345Z 12009KT 10SM FEW025 00/M04 A3021 810 72 -700 120/09 RMK AO2
94908KDBQ DBQ20050226175013202/26/05 17:50:31  5-MIN KDBQ 262350Z 12008KT 10SM FEW025 00/M04 A3021 810 72 -700 120/08 RMK AO2 SLP246 T00001044 10028 21006 56016
94908KDBQ DBQ20050226175514002/26/05 17:55:31  5-MIN KDBQ 262355Z AUTO 12008KT 10SM CLR M01/M04 A3021 810 75 -800 120/08 RMK AO2 SLP246 T10061044 10028 21006 55010 TSNO
94908KDBQ DBQ20050226180010502/26/05 18:00:31  5-MIN KDBQ 270000Z AUTO 12008KT 10SM CLR M01/M04 A3021 810 75 -800 110/08 RMK AO2 TSNO
94908KDBQ DBQ20050226180510502/26/05 18:05:31  5-MIN KDBQ 270005Z AUTO 12007KT 10SM CLR M01/M04 A3021 810 75 -800 110/07 RMK AO2 TSNO
94908KDBQ DBQ20050226181010502/26/05 18:10:31  5-MIN KDBQ 270010Z AUTO 11008KT 10SM CLR M01/M04 A3021 810 75 -800 110/08 RMK AO2 TSNO
94908KDBQ DBQ20050226181510502/26/05 18:15:31  5-MIN KDBQ 270015Z AUTO 12008KT 10SM CLR M01/M05 A3021 810 72 -800 110/08 RMK AO2 TSNO
94908KDBQ DBQ20050226182010502/26/05 18:20:31  5-MIN KDBQ 270020Z AUTO 12007KT 10SM CLR M01/M05 A3021 810 72 -800 120/07 RMK AO2 TSNO
94908KDBQ DBQ20050226182510502/26/05 18:25:31  5-MIN KDBQ 270025Z AUTO 12008KT 10SM CLR M01/M05 A3021 810 72 -800 120/08 RMK AO2 TSNO
94908KDBQ DBQ20050226183010502/26/05 18:30:31  5-MIN KDBQ 270030Z AUTO 12008KT 10SM CLR M01/M05 A3021 810 72 -800 120/08 RMK AO2 TSNO
94908KDBQ DBQ20050226183510502/26/05 18:35:31  5-MIN KDBQ 270035Z AUTO 11009KT 10SM CLR M01/M05 A3021 810 75 -900 110/09 RMK AO2 TSNO
94908KDBQ DBQ20050226184010502/26/05 18:40:31  5-MIN KDBQ 270040Z AUTO 11009KT 10SM CLR M01/M05 A3021 810 75 -900 110/09 RMK AO2 TSNO
94908KDBQ DBQ20050226184510502/26/05 18:45:31  5-MIN KDBQ 270045Z AUTO 12009KT 10SM CLR M01/M05 A3021 810 75 -900 120/09 RMK AO2 TSNO
94908KDBQ DBQ20050226185012202/26/05 18:50:31  5-MIN KDBQ 270050Z AUTO 12008KT 10SM CLR M01/M05 A3021 810 75 -900 110/08 RMK AO2 SLP245 T10111050 TSNO
94908KDBQ DBQ20050226185512202/26/05 18:55:31  5-MIN KDBQ 270055Z AUTO 12007KT 10SM CLR M01/M05 A3021 810 75 -900 110/07 RMK AO2 SLP245 T10111050 TSNO
94908KDBQ DBQ20050226190010502/26/05 19:00:31  5-MIN KDBQ 270100Z AUTO 12008KT 10SM CLR M01/M05 A3021 810 75 -900 120/08 RMK AO2 TSNO
94908KDBQ DBQ20050226190510502/26/05 19:05:31  5-MIN KDBQ 270105Z AUTO 12009KT 10SM CLR M01/M05 A3021 810 75 -900 120/09 RMK AO2 TSNO
94908KDBQ DBQ20050226191010502/26/05 19:10:31  5-MIN KDBQ 270110Z AUTO 12008KT 10SM CLR M01/M05 A3021 810 75 -900 120/08 RMK AO2 TSNO
94908KDBQ DBQ20050226191510502/26/05 19:15:31  5-MIN KDBQ 270115Z AUTO 12009KT 10SM CLR M01/M05 A3021 810 75 -900 120/09 RMK AO2 TSNO
94908KDBQ DBQ20050226192010502/26/05 19:20:31  5-MIN KDBQ 270120Z AUTO 13009KT 10SM CLR M01/M05 A3021 810 75 -900 130/09 RMK AO2 TSNO
94908KDBQ DBQ20050226192510502/26/05 19:25:31  5-MIN KDBQ 270125Z AUTO 13009KT 10SM CLR M01/M05 A3021 810 75 -900 130/09 RMK AO2 TSNO
94908KDBQ DBQ20050226193010502/26/05 19:30:31  5-MIN KDBQ 270130Z AUTO 13009KT 10SM CLR M01/M05 A3021 810 75 -900 130/09 RMK AO2 TSNO
94908KDBQ DBQ20050226193510502/26/05 19:35:31  5-MIN KDBQ 270135Z AUTO 13009KT 10SM CLR M01/M05 A3021 810 75 -900 130/09 RMK AO2 TSNO
94908KDBQ DBQ20050226194010502/26/05 19:40:31  5-MIN KDBQ 270140Z AUTO 13009KT 10SM CLR M01/M05 A3021 810 75 -900 130/09 RMK AO2 TSNO
94908KDBQ DBQ20050226194510502/26/05 19:45:31  5-MIN KDBQ 270145Z AUTO 13009KT 10SM CLR M01/M05 A3021 810 75 -900 130/09 RMK AO2 TSNO
94908KDBQ DBQ20050226195012502/26/05 19:50:31  5-MIN KDBQ 270150Z AUTO 13010KT 10SM FEW029 M01/M05 A3021 810 75 -900 130/10 RMK AO2 SLP245 T10111050 TSNO
94908KDBQ DBQ20050226195512502/26/05 19:55:31  5-MIN KDBQ 270155Z AUTO 13010KT 10SM FEW029 M01/M05 A3021 810 75 -900 130/10 RMK AO2 SLP245 T10111050 TSNO
94908KDBQ DBQ20050226200010802/26/05 20:00:31  5-MIN KDBQ 270200Z AUTO 13008KT 10SM FEW029 M01/M05 A3021 810 75 -900 130/08 RMK AO2 TSNO
94908KDBQ DBQ20050226200510802/26/05 20:05:31  5-MIN KDBQ 270205Z AUTO 13009KT 10SM FEW029 M01/M05 A3021 810 75 -900 130/09 RMK AO2 TSNO
94908KDBQ DBQ20050226201010802/26/05 20:10:31  5-MIN KDBQ 270210Z AUTO 13010KT 10SM FEW029 M01/M05 A3021 810 75 -900 130/10 RMK AO2 TSNO
94908KDBQ DBQ20050226201510802/26/05 20:15:31  5-MIN KDBQ 270215Z AUTO 13010KT 10SM FEW029 M01/M05 A3021 810 75 -900 130/10 RMK AO2 TSNO
94908KDBQ DBQ20050226202010502/26/05 20:20:31  5-MIN KDBQ 270220Z AUTO 13010KT 10SM CLR M01/M05 A3021 810 75 -900 130/10 RMK AO2 TSNO
94908KDBQ DBQ20050226202510502/26/05 20:25:31  5-MIN KDBQ 270225Z AUTO 13010KT 10SM CLR M01/M05 A3021 810 75 -900 130/10 RMK AO2 TSNO
94908KDBQ DBQ20050226203010502/26/05 20:30:31  5-MIN KDBQ 270230Z AUTO 13010KT 10SM CLR M01/M05 A3021 810 75 -900 130/10 RMK AO2 TSNO
94908KDBQ DBQ20050226203510502/26/05 20:35:31  5-MIN KDBQ 270235Z AUTO 13011KT 10SM CLR M01/M05 A3021 810 75 -900 130/11 RMK AO2 TSNO
94908KDBQ DBQ20050226204010502/26/05 20:40:31  5-MIN KDBQ 270240Z AUTO 13010KT 10SM CLR M01/M05 A3021 810 75 -900 130/10 RMK AO2 TSNO
94908KDBQ DBQ20050226204510502/26/05 20:45:31  5-MIN KDBQ 270245Z AUTO 13010KT 10SM CLR M01/M05 A3021 820 75 -900 130/10 RMK AO2 TSNO
94908KDBQ DBQ20050226205012802/26/05 20:50:31  5-MIN KDBQ 270250Z AUTO 13010KT 10SM CLR M02/M05 A3020 820 78 -900 130/10 RMK AO2 SLP242 T10171050 55010 TSNO
94908KDBQ DBQ20050226205512802/26/05 20:55:31  5-MIN KDBQ 270255Z AUTO 13010KT 10SM CLR M02/M05 A3020 820 78 -900 130/10 RMK AO2 SLP241 T10171050 58003 TSNO
94908KDBQ DBQ20050226210010502/26/05 21:00:31  5-MIN KDBQ 270300Z AUTO 13011KT 10SM CLR M02/M05 A3020 820 78 -900 130/11 RMK AO2 TSNO
94908KDBQ DBQ20050226210510502/26/05 21:05:31  5-MIN KDBQ 270305Z AUTO 13012KT 10SM CLR M02/M05 A3020 820 78 -900 130/12 RMK AO2 TSNO
94908KDBQ DBQ20050226211010502/26/05 21:10:31  5-MIN KDBQ 270310Z AUTO 13011KT 10SM CLR M02/M05 A3020 820 78 -900 130/11 RMK AO2 TSNO
94908KDBQ DBQ20050226211510502/26/05 21:15:31  5-MIN KDBQ 270315Z AUTO 13012KT 10SM CLR M02/M05 A3020 820 78 -900 130/12 RMK AO2 TSNO
94908KDBQ DBQ20050226212010502/26/05 21:20:31  5-MIN KDBQ 270320Z AUTO 13011KT 10SM CLR M02/M05 A3019 830 78 -900 130/11 RMK AO2 TSNO
94908KDBQ DBQ20050226212510502/26/05 21:25:31  5-MIN KDBQ 270325Z AUTO 13012KT 10SM CLR M02/M06 A3019 830 75 -900 130/12 RMK AO2 TSNO
94908KDBQ DBQ20050226213010502/26/05 21:30:31  5-MIN KDBQ 270330Z AUTO 13012KT 10SM CLR M02/M06 A3019 830 75 -900 130/12 RMK AO2 TSNO
94908KDBQ DBQ20050226213510502/26/05 21:35:31  5-MIN KDBQ 270335Z AUTO 13011KT 10SM CLR M02/M06 A3019 830 75 -900 130/11 RMK AO2 TSNO
94908KDBQ DBQ20050226214010502/26/05 21:40:31  5-MIN KDBQ 270340Z AUTO 13013KT 10SM CLR M02/M06 A3019 830 75 -900 130/13 RMK AO2 TSNO
94908KDBQ DBQ20050226214510502/26/05 21:45:31  5-MIN KDBQ 270345Z AUTO 13013KT 10SM CLR M02/M06 A3019 830 75 -900 130/13 RMK AO2 TSNO
94908KDBQ DBQ20050226215012202/26/05 21:50:31  5-MIN KDBQ 270350Z AUTO 12012KT 10SM CLR M02/M06 A3019 830 75 -900 120/12 RMK AO2 SLP236 T10171056 TSNO
94908KDBQ DBQ20050226215506402/26/05 21:55:31  5-MIN KDBQ 27 840 75 -900 120/13 RMK AO2 TSNO
94908KDBQ DBQ20050226220510502/26/05 22:05:31  5-MIN KDBQ 270405Z AUTO 13011KT 10SM CLR M02/M05 A3018 840 78 -900 130/11 RMK AO2 TSNO
94908KDBQ DBQ20050226221010102/26/05 22:10:31  5-MIN KDBQ 270410Z AUTO 13012KT 10SM CLR M02/M06 A3017 -900 130/14G19 RMK AO2 TSNO
94908KDBQ DBQ20050226223510402/26/05 22:35:31  5-MIN KDBQ 270435Z AUTO 13014KT 9SM CLR M02/M06 A3016 860 75 -900 130/14 RMK AO2 TSNO
94908KDBQ DBQ20050226224019202/26/05 22:40:31  5-MIN KDBQ 270440Z AUTO 13014KT 9SM CLR M02/M06 A3015 860 75 -900 130/14 RMK AO2 TSNO                                KT 9SM CLR M02/M06 A3015 870 78 -900 140/12 RMK AO2 TSNO
94908KDBQ DBQ20050226230510402/26/05 23:05:31  5-MIN KDBQ 270505Z AUTO 14012KT 9SM CLR M02/M05 A3015 860 81 -900 140/12 RMK AO2 TSNO
94908KDBQ DBQ20050226231012802/26/05 23:10:31  5-MIN KDBQ 270510Z AUTO 14013KT 8SM CLR M02/M05 A3015 M CLR M02/M05 A3014  880 81 -900 140/13G18 RMK AO2 TSNO
94908KDBQ DBQ20050226233510402/26/05 23:35:31  5-MIN KDBQ 270535Z AUTO 15013KT 9SM CLR M02/M06 A3014 870 78 -900 140/13 RMK AO2 TSNO
94908KDBQ DBQ20050226234010402/26/05 23:40:31  5-MIN KDBQ 270540Z AUTO 15013KT 9SM CLR M02/M06 A3015 870 78 -900 150/13 RMK AO2 TSNO
94908KDBQ DBQ20050226234505202/26/05 23:45:31  5-MIN KDBQ 27014 /12 RMK AO2 TSNO
94908KDBQ DBQ20050227001010702/27/05 00:10:31  5-MIN KDBQ 270610Z AUTO 14014KT 9SM SCT120 M02/M06 A3013 890 78 -900 140/14 RMK AO2 TSNO
94908KDBQ DBQ20050227001514802/27/05 00:15:32  5-MIN KDBQ 270615Z AUTO 14011KT 9SM SCT110 M02/M06 A3013 890 78 -900 140/11 RMK AO2 TSNO A3013 890 78 -900 150/12G18 RMK AO2 TSNO
94908KDBQ DBQ20050227004010702/27/05 00:40:31  5-MIN KDBQ 270640Z AUTO 15013KT 9SM SCT110 M02/M06 A3012 890 78 -900 150/13 RMK AO2 TSNO
94908KDBQ DBQ20050227004510502/27/05 00:45:31  5-MIN KDBQ 270645Z AUTO 15015KT 9SM FEW110 M02/M06 A3012 890 78900 150/13 RMK AO2 TSNO
94908KDBQ DBQ20050227010510402/27/05 01:05:31  5-MIN KDBQ 270705Z AUTO 16012KT 9SM CLR M02/M06 A3012 890 78 -900 150/12 RMK AO2 TSNO
94908KDBQ DBQ20050227011017702/27/05 01:10:31  5-MIN KDBQ 270710Z AUTO 15011KT 9SM CLR M02/M06 A3012 890 78 -900 150/11 RMK AO2 TSNO 0735Z AUTO 15011KT 9SM CLR M02/M06 A3012 900 78 -900 140/11 RMK AO2 TSNO
94908KDBQ DBQ20050227014010402/27/05 01:40:31  5-MIN KDBQ 270740Z AUTO 15011KT 9SM CLR M02/M06 A3012 900 78 -900 140/11 RMK AO2 TSNO
94908KDBQ DBQ20050227014505602/27/05 01:45:31  5-MIN KDBQ 270745Z AUTO 15010KT 9SM C
94908KDBQ DBQ20050227020510402/27/05 02:05:31  5-MIN KDBQ 270805Z AUTO 15011KT 9SM CLR M02/M06 A3011 910 78 -900 150/11 RMK AO2 TSNO
94908KDBQ DBQ20050227021010402/27/05 02:10:31  5-MIN KDBQ 270810Z AUTO 14014KT 9SM CLR M02/M06 A3010 910 78 -900 140/14 RMK AO2 TSNO
94908KDBQ DBQ20050227021502402/27/05 02:15:31  5-MIN
94908KDBQ DBQ20050227023510702/27/05 02:35:31  5-MIN KDBQ 270835Z AUTO 15011KT 9SM FEW120 M02/M06 A3010 920 78 -900 150/11 RMK AO2 TSNO
94908KDBQ DBQ20050227024019602/27/05 02:40:31  5-MIN KDBQ 270840Z AUTO 15012KT 9SM FEW120 M02/M06 A3009 920 78 -900 150/12 RMK AO2 TSNO 02/27/05 02:45:3009 TO 15013KT 9SM BKN120 M02/M06 A3008  930 78 -900 150/13 RMK AO2 TSNO
94908KDBQ DBQ20050227024510702/27/05 02:45:31  5-MIN KDBQ 270845Z AUTO 15011KT 9SM FEW120 M02/M06 A3009 920 78 -900 150/11 RMK AO2 TSNO
94908KDBQ DBQ20050227025013002/27/05 02:50:31  5-MIN KDBQ 270850Z AUTO 15012KT 9SM FEW120 M02/M06 A3009 920 78 -900 150/12 RMK AO2 SLP201 T10221056 56021 TSNO
94908KDBQ DBQ20050227025513002/27/05 02:55:31  5-MIN KDBQ 270855Z AUTO 16012KT 9SM SCT120 M02/M06 A3009 930 78 -900 150/12 RMK AO2 SLP200 T10221056 58017 TSNO
94908KDBQ DBQ20050227030010702/27/05 03:00:31  5-MIN KDBQ 270900Z AUTO 15013KT 9SM BKN120 M02/M06 A3008 930 78 -900 150/13 RMK AO2 TSNO
94908KDBQ DBQ20050227030510702/27/05 03:05:31  5-MIN KDBQ 270905Z AUTO 15012KT 9SM BKN120 M02/M06 A3008 930 78 -900 150/12 RMK AO2 TSNO
94908KDBQ DBQ20050227031010702/27/05 03:10:31  5-MIN KDBQ 270910Z AUTO 15014KT 9SM BKN120 M02/M06 A3008 930 78 -900 150/14 RMK AO2 TSNO
94908KDBQ DBQ20050227031511302/27/05 03:15:31  5-MIN KDBQ 270915Z AUTO 15015G19KT 9SM OVC120 M02/M06 A3008 930 78 -900 150/15G19 RMK AO2 TSNO
94908KDBQ DBQ20050227032011302/27/05 03:20:31  5-MIN KDBQ 270920Z AUTO 15014G19KT 9SM OVC120 M02/M06 A3008 940 78 -900 150/14G19 RMK AO2 TSNO
94908KDBQ DBQ20050227032510702/27/05 03:25:31  5-MIN KDBQ 270925Z AUTO 16012KT 9SM OVC120 M02/M06 A3008 930 78 -900 160/12 RMK AO2 TSNO
94908KDBQ DBQ20050227033010702/27/05 03:30:31  5-MIN KDBQ 270930Z AUTO 16014KT 9SM OVC120 M02/M06 A3008 930 78 -900 160/14 RMK AO2 TSNO
94908KDBQ DBQ20050227033511302/27/05 03:35:31  5-MIN KDBQ 270935Z AUTO 16013G18KT 9SM OVC120 M02/M06 A3007 940 78 -900 150/13G18 RMK AO2 TSNO
94908KDBQ DBQ20050227034010702/27/05 03:40:31  5-MIN KDBQ 270940Z AUTO 15015KT 9SM OVC120 M02/M06 A3007 940 78 -900 150/15 RMK AO2 TSNO
94908KDBQ DBQ20050227034510702/27/05 03:45:31  5-MIN KDBQ 270945Z AUTO 15013KT 9SM OVC120 M02/M06 A3007 940 78 -900 150/13 RMK AO2 TSNO
94908KDBQ DBQ20050227035012402/27/05 03:50:31  5-MIN KDBQ 270950Z AUTO 15013KT 9SM OVC120 M02/M06 A3007 940 78 -900 150/13 RMK AO2 SLP196 T10221056 TSNO
94908KDBQ DBQ20050227035512402/27/05 03:55:31  5-MIN KDBQ 270955Z AUTO 15010KT 9SM OVC120 M02/M06 A3008 930 78 -900 150/10 RMK AO2 SLP197 T10221056 TSNO
94908KDBQ DBQ20050227040010702/27/05 04:00:31  5-MIN KDBQ 271000Z AUTO 15011KT 9SM OVC120 M02/M06 A3008 930 78 -900 150/11 RMK AO2 TSNO
94908KDBQ DBQ20050227040510702/27/05 04:05:31  5-MIN KDBQ 271005Z AUTO 15011KT 9SM OVC110 M02/M06 A3007 940 78 -900 150/11 RMK AO2 TSNO
94908KDBQ DBQ20050227041010702/27/05 04:10:31  5-MIN KDBQ 271010Z AUTO 15011KT 9SM OVC110 M02/M06 A3007 940 78 -800 150/11 RMK AO2 TSNO
94908KDBQ DBQ20050227041510702/27/05 04:15:31  5-MIN KDBQ 271015Z AUTO 15012KT 9SM OVC110 M02/M06 A3007 940 78 -800 150/12 RMK AO2 TSNO
94908KDBQ DBQ20050227042010702/27/05 04:20:31  5-MIN KDBQ 271020Z AUTO 16010KT 9SM OVC110 M02/M06 A3007 940 78 -800 160/10 RMK AO2 TSNO
94908KDBQ DBQ20050227042510702/27/05 04:25:31  5-MIN KDBQ 271025Z AUTO 16012KT 9SM OVC120 M02/M05 A3006 950 81 -800 160/12 RMK AO2 TSNO
94908KDBQ DBQ20050227043010702/27/05 04:30:31  5-MIN KDBQ 271030Z AUTO 16012KT 9SM OVC120 M02/M05 A3006 950 81 -800 160/12 RMK AO2 TSNO
94908KDBQ DBQ20050227043510702/27/05 04:35:31  5-MIN KDBQ 271035Z AUTO 16010KT 9SM OVC120 M02/M05 A3006 950 81 -800 160/10 RMK AO2 TSNO
94908KDBQ DBQ20050227044010702/27/05 04:40:31  5-MIN KDBQ 271040Z AUTO 15014KT 8SM OVC120 M02/M05 A3006 950 81 -800 150/14 RMK AO2 TSNO
94908KDBQ DBQ20050227044510702/27/05 04:45:31  5-MIN KDBQ 271045Z AUTO 15012KT 8SM OVC120 M02/M05 A3006 950 81 -800 150/12 RMK AO2 TSNO
94908KDBQ DBQ20050227045007502/27/05 04:50:31  5-MIN KDBQ 271050Z AUTO 16010KT 8SM OVC120 M02/M05 A3006
94908KDBQ DBQ20050227050016102/27/05 05:00:31  5-MIN KDBQ 271100Z AUTO 15010KT 8SM OVC110 M02/M05 A3005  960 81 -800 150/10 RMK AO2 TSNO 02/27/05 05:05:3004  970 81 -800 150/14 RMK AO2 TSNO
94908KDBQ DBQ20050227052510702/27/05 05:25:31  5-MIN KDBQ 271125Z AUTO 15014KT 8SM OVC110 M02/M05 A3003 980 81 -800 150/14 RMK AO2 TSNO
94908KDBQ DBQ20050227053009902/27/05 05:30:31  5-MIN KDBQ 271130Z AUTO 16012KT 8SM OVC110 M02/M05 A3003 970 81 -800 150AO2 TSNO
94908KDBQ DBQ20050227055014202/27/05 05:50:31  5-MIN KDBQ 271150Z AUTO 16013KT 8SM OVC110 M02/M05 A3003 980 81 -800 150/13 RMK AO2 SLP181 T10221050 11017 21022 58017 TSNO
94908KDBQ DBQ20050227055514902/27/05 05:55:31  5-MIN KDBQ 271155Z 16012KT 8SM OVC100 M02/M05 A3003 980 81 -800 91215Z 16013KT 8SM OVC090 M02/M04 A3002 990 85 -800 160/13 RMK AO2
94908KDBQ DBQ20050227062010402/27/05 06:20:31  5-MIN KDBQ 271220Z 15013KT 8SM SCT080 OVC095 M02/M04 A3002 990 85 -800 150/13 RMK AO2
94908KDBQ DBQ20050227062510102/27/05 06:25:31  5-MIN KDBQ 271225Z 16014G19KT 8SM SCT075 OVC090 M02/M04 A3001 990 85 -800 150/14 2
94908KDBQ DBQ20050227065012202/27/05 06:50:31  5-MIN KDBQ 271250Z 16012KT 7SM FEW075 OVC095 M02/M04 A3000 1000 85 -800 160/12 RMK AO2 SLP173 T10221044
94908KDBQ DBQ20050227065513602/27/05 06:55:31  5-MIN KDBQ 271255Z 16013KT 6SM BR FEW070 BKN100 OVC110 M02/M04 A3000 1000 85 -800 160/144 1000 85 -800 170/10 RMK AO2
94908KDBQ DBQ20050227072010102/27/05 07:20:31  5-MIN KDBQ 271320Z 16009KT 6SM BR OVC110 M02/M04 A3000 1010 88 -800 160/09 RMK AO2
94908KDBQ DBQ20050227072517102/27/05 07:25:31  5-MIN KDBQ 271325Z 16012KT 6SM BR OVC110 M02/M04 A3000 1010 85 -700 160/12 RMK AO2 02/27/05011KT 6SM BR OVC100 M02/M04 A2999 1010 85 -700 160/11 RMK AO2
94908KDBQ DBQ20050227075012502/27/05 07:50:31  5-MIN KDBQ 271350Z 17012KT 6SM HZ FEW080 OVC100 M01/M04 A2999 1010 81 -600 170/12 RMK AO2 SLP168 T10111039
94908KDBQ DBQ20050227075514102/27/05 07:55:31  5-MIN KDBQ 271355Z 17010KT 6S 08:15:31  5-MIN KDBQ 271415Z 16013KT 6SM BR OVC090 M01/M03 A2998 1030 85 -600 160/13 RMK AO2
94908KDBQ DBQ20050227082010102/27/05 08:20:31  5-MIN KDBQ 271420Z 16013KT 6SM HZ OVC090 M01/M03 A2997 1030 81 -500 160/13 RMK AO2
94908KDBQ DBQ20050227082504102/27/05 08:25:31  5-MIN KDBQ 271425Z 177
94908KDBQ DBQ20050227084510702/27/05 08:45:31  5-MIN KDBQ 271445Z 17014G19KT 6SM HZ OVC090 M01/M03 A2996 1040 81 -500 170/14G19 RMK AO2
94908KDBQ DBQ20050227085014502/27/05 08:50:31  5-MIN KDBQ 271450Z 17011G19KT 6SM HZ OVC090 M01/M03 A2997 1040 81 -500 170/11G19 RMK AO2 SLP160 T10061033 58 00 170/12 RMK AO2
94908KDBQ DBQ20050227091010802/27/05 09:10:31  5-MIN KDBQ 271510Z 17014KT 6SM BR BKN070 OVC090 M01/M03 A2996 1040 85 -500 170/14 RMK AO2
94908KDBQ DBQ20050227091517102/27/05 09:15:31  5-MIN KDBQ 271515Z 18009KT 6SM BR BKN070 OVC090 M01/M03 A2996 1040 85 -500 180/09 RMK AO2 2012KT 5SM BR OVC065 M01/M03 A2995 1050 85 -500 170/12 RMK AO2
94908KDBQ DBQ20050227094010102/27/05 09:40:31  5-MIN KDBQ 271540Z 16012KT 5SM BR OVC065 M01/M03 A2994 1060 85 -500 160/12 RMK AO2
94908KDBQ DBQ20050227094508002/27/05 09:45:31  5-MIN KDBQ 271545Z 17013KT 5SM HZ BKN065 OVC090 00/M0 10:05:3
94908KDBQ DBQ20050227101010702/27/05 10:10:31  5-MIN KDBQ 271610Z 17015KT 6SM HZ FEW070 BKN090 01/M02 A2993 1070 78 -300 170/15 RMK AO2
94908KDBQ DBQ20050227101510002/27/05 10:15:31  5-MIN KDBQ 271615Z 17016KT 6SM HZ BKN095 02/M02 A2993 1070 78 -200 170/16 RMK AO2
94908KDBQ DBQ20050227102010702/27/05 10:20:31  5-MIN KDBQ 271620Z 17012KT 6SM HZ FEW070 BKN090 02/M02 A2993 1070 78 -200 170/12 RMK AO2
94908KDBQ DBQ20050227102510702/27/05 10:25:31  5-MIN KDBQ 271625Z 18016KT 6SM HZ SCT070 BKN090 02/M02 A2992 1080 75 -100 180/16 RMK AO2
94908KDBQ DBQ20050227103010702/27/05 10:30:31  5-MIN KDBQ 271630Z 17014KT 6SM HZ BKN070 BKN090 02/M01 A2992 1080 78 -100 170/14 RMK AO2
94908KDBQ DBQ20050227103510702/27/05 10:35:31  5-MIN KDBQ 271635Z 17013KT 6SM HZ BKN070 BKN095 02/M01 A2992 1080 78 -100 170/13 RMK AO2
94908KDBQ DBQ20050227104010702/27/05 10:40:31  5-MIN KDBQ 271640Z 17014KT 6SM HZ BKN070 BKN100 02/M01 A2992 1080 78 -100 170/14 RMK AO2
94908KDBQ DBQ20050227104510002/27/05 10:45:31  5-MIN KDBQ 271645Z 17014KT 6SM HZ BKN070 02/M01 A2991 1090 78 -100 170/14 RMK AO2
94908KDBQ DBQ20050227105012402/27/05 10:50:31  5-MIN KDBQ 271650Z 17014KT 6SM HZ BKN075 OVC090 02/M01 A2991 1090 78 -100 170/14 RMK AO2 SLP140 T00221011
94908KDBQ DBQ20050227105512102/27/05 10:55:31  5-MIN KDBQ 271655Z 17014KT 6SM HZ BKN075 BKN095 03/M01 A2991 1090 75 0 170/14 RMK AO2 SLP140 T00281011
94908KDBQ DBQ20050227110014402/27/05 11:00:31  5-MIN KDBQ 271700Z 1802/27/05 11:10:31  5-MIN KDBQ 271710Z 17016KT 6SM HZ FEW070 BKN100 03/M01 A2990 1090 76 0 170/16 RMK AO2
94908KDBQ DBQ20050227111510402/27/05 11:15:31  5-MIN KDBQ 271715Z 17016KT 6SM HZ FEW070 OVC100 03/M01 A2990 1090 76 0 170/16 RMK AO2
94908KDBQ DBQ20050227112003602/27/05 11:20:31  5-MIN1 15 RMK AO2
94908KDBQ DBQ20050227114009902/27/05 11:40:31  5-MIN KDBQ 271740Z 18016KT 6SM HZ OVC110 04/M01 A2990 1090 73 100 180/16 RMK AO2
94908KDBQ DBQ20050227114509902/27/05 11:45:31  5-MIN KDBQ 271745Z 18015KT 6SM HZ OVC110 04/M01 A2990 1100 73 100 180/15 RMK AO2
94908KDBQ DBQ20050227115005602/27/05 11:50:31  5-MIN1 A2988 1110 76 0 170/18 RMK AO2
94908KDBQ DBQ20050227121011102/27/05 12:10:31  5-MIN KDBQ 271810Z 17016KT 5SM HZ SCT070 BKN085 BKN110 03/M01 A2988 1110 79 0 170/16 RMK AO2
94908KDBQ DBQ20050227121508902/27/05 12:15:31  5-MIN KDBQ 271815Z 17015KT 5SM HZ BKN070 03/M01 A2988 1110 75 0 170/15
94908KDBQ DBQ20050227124010002/27/05 12:40:31  5-MIN KDBQ 271840Z 19013KT 5SM HZ OVC070 02/M01 A2988 1120 78 -100 180/13 RMK AO2
94908KDBQ DBQ20050227124509702/27/05 12:45:31  5-MIN KDBQ 271845Z 18011KT 5SM HZ BKN070 03/M01 A2988 1120 75 0 180/11 RMK AO2
94908KDBQ DBQ20050227125008702/27/05 12:50:31  5-MIN KDBQ 271850Z 18A2987 1120 75 0 180/12 RMK AO2 SLP126 T00281011
94908KDBQ DBQ20050227125511802/27/05 12:55:31  5-MIN KDBQ 271855Z 17013KT 5SM HZ BKN070 BKN0015 SCT090 BKN11003/M01 A2986 1140 76 0 190/11 RMK AO2
94908KDBQ DBQ20050227132511102/27/05 13:25:31  5-MIN KDBQ 271925Z 18011KT 5SM HZ SCT015 BKN090 BKN110 03/M01 A2986 1140 76 0 180/11 RMK AO2
94908KDBQ DBQ20050227133010902/27/05 13:30:31  5-MIN KDBQ 271930Z 19012KT 5SM HZ BKN015 BKN11 1150 76 100 190/10 RMK AO2 SLP116 T00390000
94908KDBQ DBQ20050227135512202/27/05 13:55:31  5-MIN KDBQ 271955Z 18012KT 5SM HZ BKN015 BKN085 03/00 A2984 1150 79 100 180/12 RMK AO2 SLP115 T00330000
94908KDBQ DBQ20050227140012802/27/05 14:00:31  5-MIN KDBQ 272000Z 20012KT 5SM HZ BKN015 BKN025 04/00M HZ SCT017 OVC025 04/00A2982 1170 73 200 190/11 RMK AO2
94908KDBQ DBQ20050227142510502/27/05 14:25:31  5-MIN KDBQ 272025Z 20010KT 5SM HZ SCT017 OVC025 04/00 A2982 1170 73 200 200/10 RMK AO2
94908KDBQ DBQ20050227143016202/27/05 14:30:31  5-MIN KDBQ 272030Z 18010KT 5SM HZ FEW017 OVC025 04/01 2050Z 18010KT 5SM HZ BKN025 04/00 A2981 1180 76 200 180/10 RMK AO2 SLP105 T00390000 56023
94908KDBQ DBQ20050227145515302/27/05 14:55:31  5-MIN KDBQ 272055Z 19011KT 5SM HZ BKN025 BKN100 04/01 A2981 1180 76 200 190/11 RMK AO2 SLP104 T00440006 58028 02/27/05 15:00:3 RMK AO2
94908KDBQ DBQ20050227152009802/27/05 15:20:31  5-MIN KDBQ 272120Z 19010KT 5SM HZ BKN025 04/01 A2981 1180 76 200 190/10 RMK AO2
94908KDBQ DBQ20050227152509802/27/05 15:25:31  5-MIN KDBQ 272125Z 20009KT 5SM HZ BKN025 04/01 A2980 1190 76 200 200/09 RMK AO2
94908KDBQ DBQ20050227153011002/27/05 15:30:31  5-MIN O22150Z 19008KT 5SM HZ BKN025 04/01 A2980 1190 76 200 190/08 RMK AO2 SLP103 T00440006
94908KDBQ DBQ20050227155511502/27/05 15:55:31  5-MIN KDBQ 272155Z 19008KT 5SM HZ BKN025 04/01 A2981 1190 76 200 190/08 RMK AO2 SLP103 T00440006
94908KDBQ DBQ20050227160006102/27/05 16:00:31  5-MIN KDBQ 27 O21190 76 200 190/07 RMK AO2
94908KDBQ DBQ20050227160509802/27/05 16:05:31  5-MIN KDBQ 272205Z 19008KT 5SM HZ OVC027 04/01 A2980 1190 76 200 190/08 RMK AO2
94908KDBQ DBQ20050227161009802/27/05 16:10:31  5-MIN KDBQ 272210Z 19007KT 5SM HZ OVC027 04/01 A2980 1190 76 200 190/07 RMK AO2
94908KDBQ DBQ20050227161509802/27/05 16:15:31  5-MIN KDBQ 272215Z 19008KT 5SM HZ OVC027 04/01 A2981 1190 76 200 190/08 RMK AO2
94908KDBQ DBQ20050227162009802/27/05 16:20:31  5-MIN KDBQ 272220Z 19007KT 5SM HZ OVC027 04/01 A2980 1190 76 200 190/07 RMK AO2
94908KDBQ DBQ20050227162509802/27/05 16:25:31  5-MIN KDBQ 272225Z 19007KT 5SM HZ OVC025 04/01 A2980 1190 76 200 190/07 RMK AO2
94908KDBQ DBQ20050227163009802/27/05 16:30:31  5-MIN KDBQ 272230Z 19006KT 5SM HZ OVC025 04/01 A2980 1190 79 200 190/06 RMK AO2
94908KDBQ DBQ20050227163509802/27/05 16:35:31  5-MIN KDBQ 272235Z 19005KT 4SM HZ OVC023 04/01 A2980 1190 79 200 190/05 RMK AO2
94908KDBQ DBQ20050227164009802/27/05 16:40:31  5-MIN KDBQ 272240Z 19006KT 4SM HZ OVC023 04/01 A2980 1190 79 200 190/06 RMK AO2
94908KDBQ DBQ20050227164509802/27/05 16:45:31  5-MIN KDBQ 272245Z 19006KT 4SM HZ OVC023 04/01 A2980 1190 79 200 190/06 RMK AO2
94908KDBQ DBQ20050227165011502/27/05 16:50:31  5-MIN KDBQ 272250Z 19006KT 4SM HZ OVC023 04/01 A2980 1190 79 200 190/06 RMK AO2 SLP103 T00390006
94908KDBQ DBQ20050227165511502/27/05 16:55:31  5-MIN KDBQ 272255Z 19005KT 4SM HZ OVC023 04/01 A2980 1190 79 200 190/05 RMK AO2 SLP103 T00390006
94908KDBQ DBQ20050227170009802/27/05 17:00:31  5-MIN KDBQ 272300Z 20005KT 4SM HZ OVC023 04/01 A2980 1190 79 200 200/05 RMK AO2
94908KDBQ DBQ20050227170511102/27/05 17:05:31  5-MIN KDBQ 272305Z 20005KT 4SM -RA OVC023 03/01 A2980 1190 82 100 200/05 RMK AO2 RAB03 P0000
94908KDBQ DBQ20050227171011402/27/05 17:10:31  5-MIN KDBQ 272310Z 20004KT 4SM -RA BR OVC023 03/01 A2980 1190 85 100 200/04 RMK AO2 RAB03 P0000
94908KDBQ DBQ20050227171511402/27/05 17:15:31  5-MIN KDBQ 272315Z 20004KT 3SM -RA BR OVC021 03/01 A2981 1180 85 100 190/04 RMK AO2 RAB03 P0001
94908KDBQ DBQ20050227172011402/27/05 17:20:31  5-MIN KDBQ 272320Z 20005KT 4SM -RA BR OVC021 03/01 A2981 1180 85 100 200/05 RMK AO2 RAB03 P0001
94908KDBQ DBQ20050227172511402/27/05 17:25:31  5-MIN KDBQ 272325Z 20004KT 4SM -RA BR OVC021 03/01 A2981 1180 85 100 200/04 RMK AO2 RAB03 P0001
94908KDBQ DBQ20050227173011202/27/05 17:30:31  5-MIN KDBQ 272330Z 20004KT 3SM -RA BR OVC017 03/01 A2981 1180 89 0 200/04 RMK AO2 RAB03 P0001
94908KDBQ DBQ20050227173511602/27/05 17:35:31  5-MIN KDBQ 272335Z 21004KT 2 1/2SM -RA BR OVC017 03/01 A2981 1180 89 0 210/04 RMK AO2 RAB03 P0001
94908KDBQ DBQ20050227174011602/27/05 17:40:31  5-MIN KDBQ 272340Z 23003KT 2 1/2SM -RA BR OVC017 03/01 A2981 1180 89 0 230/03 RMK AO2 RAB03 P0002
94908KDBQ DBQ20050227174511202/27/05 17:45:31  5-MIN KDBQ 272345Z 25004KT 3SM -RA BR OVC017 03/01 A2981 1180 89 0 250/04 RMK AO2 RAB03 P0002
94908KDBQ DBQ20050227175015702/27/05 17:50:31  5-MIN KDBQ 272350Z 27007KT 2 1/2SM -RA BR OVC015 03/01 A2981 1180 89 0 270/07 RMK AO2 RAB03 SLP105 P0002 60002 T00280011 10044 20022 58028
94908KDBQ DBQ20050227175515702/27/05 17:55:31  5-MIN KDBQ 272355Z 29007KT 2 1/2SM -RA BR OVC017 03/01 A2981 1180 89 0 290/07 RMK AO2 RAB03 SLP106 P0002 60002 T00280011 10044 20022 53001
94908KDBQ DBQ20050227180011002/27/05 18:00:31  5-MIN KDBQ 280000Z 30006KT 2 1/2SM -RA BR OVC017 03/01 A2981 1180 89 0 300/06 RMK AO2 P0001
94908KDBQ DBQ20050227180511002/27/05 18:05:31  5-MIN KDBQ 280005Z 30008KT 2 1/2SM -RA BR OVC017 02/02 A2981 1180 96 0 300/08 RMK AO2 P0001
94908KDBQ DBQ20050227181011002/27/05 18:10:31  5-MIN KDBQ 280010Z 31008KT 2 1/2SM -RA BR OVC017 02/01 A2981 1180 92 0 310/08 RMK AO2 P0001
94908KDBQ DBQ20050227181512302/27/05 18:15:31  5-MIN KDBQ 280015Z 32008KT 3SM UP BR FEW005 OVC017 02/01 A2981 1180 92 0 320/08 RMK AO2 RAE14UPB14 P0001
94908KDBQ DBQ20050227182012302/27/05 18:20:31  5-MIN KDBQ 280020Z 34013KT 3SM BR SCT005 OVC017 02/01 A2981 1180 92 0 340/13 RMK AO2 RAE14UPB14E16 P0001
94908KDBQ DBQ20050227182512102/27/05 18:25:31  5-MIN KDBQ 280025Z 34012KT 3SM BR BKN 01/00 A2981 1180 92 -100 340/12 RMK AO2 RAE14UPB14E40SNB40 P0001
94908KDBQ DBQ20050227184517202/27/05 18:45:31  5-MIN KDBQ 280045Z 34013KT 4SM -SN BR BKN005 OVC009 01/00 A2981 1180 92 -100 340/13 RMK AO2 RAE14UPB14E40SNB40 CIG 003V007 P0001RMK AO2 CIG 003V007 P0000
94908KDBQ DBQ20050227190512802/27/05 19:05:31  5-MIN KDBQ 280105Z 35011KT 2SM -SN BR BKN005 OVC011 01/00 A2981 1180 96 -200 350/11 RMK AO2 CIG 002V007 P0000
94908KDBQ DBQ20050227191012202/27/05 19:10:31  5-MIN KDBQ 280110Z 35009KT 2SM -SN BR OVC005 01/00 A2981 1180 96A2981 1180 92 -200 350/10 RMK AO2 P0000
94908KDBQ DBQ20050227192518002/27/05 19:25:31  5-MIN KDBQ 280125Z 35011KT 2 1/2SM -SN BR OVC005 00/M01 A2981 1180 96 -300 350/11 RMK AO2 P0000 02/27/05005 M01/M01 A2981 1180 96 -300 340/12 RMK AO2 SNE26 P0000
94908KDBQ DBQ20050227195014402/27/05 19:50:31  5-MIN KDBQ 280150Z AUTO 33012KT 1 3/4SM BR OVC002 M01/M01 A2981 1180 96 -300 330/12 RMK AO2 SNE26 SLP107 P0000 T10061011 TSNO
94908KDBQ DBQ20050227195512602/27/05 19:55:31  5-MIN KDBQ 281  5-MIN KDBQ 280210Z AUTO 33015KT 2SM BR OVC002 M01/M02A2981 1180 96 -400 330/15 RMK AO2 TSNO
94908KDBQ DBQ20050227201511502/27/05 20:15:31  5-MIN KDBQ 280215Z AUTO 33017KT 2 1/2SM BR OVC002 M01/M02 A2981 1180 92 -400 330/17 RMK AO2 TSNO
94908KDBQ DBQ20050227202004602/27/05 20:20:31  5-MIN00 330/15 RMK AO2 TSNO
94908KDBQ DBQ20050227204011502/27/05 20:40:31  5-MIN KDBQ 280240Z AUTO 33018KT 2 1/2SM BR OVC002 M02/M03 A2981 1180 92 -500 330/18 RMK AO2 TSNO
94908KDBQ DBQ20050227204512402/27/05 20:45:31  5-MIN KDBQ 280245Z AUTO 33017KT 3SM BR OVC002 M02/M03 A2981 1180 92 -500 330/1 5 RMK AO2 CIG 003V008 TSNO
94908KDBQ DBQ20050227210512302/27/05 21:05:31  5-MIN KDBQ 280305Z AUTO 35015KT 5SM BR OVC006 M02/M03 A2981 1180 92 -600 350/15 RMK AO2 CIG 003V008 TSNO
94908KDBQ DBQ20050227211008302/27/05 21:10:31  5-MIN KDBQ 280310Z AUTO 35015KT 5SM BR OVC006 M02/M03 A2981 11NO
94908KDBQ DBQ20050227213520202/27/05 21:35:31  5-MIN KDBQ 280335Z AUTO 35016KT 7SM SCT008 OVC014 M03/M04 A2981 1180 88 -600 350/16 RMK AO2 TSNO 02/27/05 21:40:3VC014 M02/M04 A2980  1190 85 -500 350/15 RMK AO2 SLP104 T10221044 TSNO
94908KDBQ DBQ20050227220011402/27/05 22:00:31  5-MIN KDBQ 280400Z AUTO 35014G21KT 7SM OVC014 M02/M04 A2980 1190 85 -500 350/14G21 RMK AO2 TSNO
94908KDBQ DBQ20050227220512902/27/05 22:05:31  5-MIN KDBQ 280405Z AUTO 35014980 0425Z AUTO 35012KT 8SM OVC018 M02/M05 A2979  1200 81 -500 350/12 RMK AO2 TSNO
94908KDBQ DBQ20050227223010802/27/05 22:30:31  5-MIN KDBQ 280430Z AUTO 36013KT 8SM OVC018 M02/M05 A2979 1200 81 -500 350/13 RMK AO2 TSNO
94908KDBQ DBQ20050227223504902/27/05 22:35:31  5-MIN KDBQ 280435Z AUTO 36012O
94908KDBQ DBQ20050227230011902/27/05 23:00:31  5-MIN KDBQ 280500Z AUTO 35012KT 8SM OVC020 M02/M05 A2979  1200 81 -500 350/12 RMK AO2 TSNO 02/27/05O
94908KDBQ DBQ20050227232510802/27/05 23:25:31  5-MIN KDBQ 280525Z AUTO 35010KT 7SM OVC020 M02/M05 A2978 1200 81 -500 350/10 RMK AO2 TSNO
94908KDBQ DBQ20050227233010802/27/05 23:30:31  5-MIN KDBQ 280530Z AUTO 34013KT 8SM OVC022 M02/M05 A2978 1210 81 -500 340/13 RMK AO2 TSNO
94908KDBQ DBQ20050227233505402/27/05 23:35:31  5-MIN KDBQ 280535Z AUTO 35011978 NO
94908KDBQ DBQ20050227235515902/27/05 23:55:31  5-MIN KDBQ 280555Z AUTO 34012KT 8SM OVC022 M02/M05 A2978 1210 81 -500 340/12 RMK AO2 SLP094 60001 T10221050 10028 21028 400441028 58011 TSNO
94908KDBQ DBQ20050228000007302/28/05 00:00:38  5-MIN KDBQ 280600Z AUTO 34013KT 8SM OVC022 M02/M05 A2O
94908KDBQ DBQ20050228002510902/28/05 00:25:31  5-MIN KDBQ 280625Z AUTO 34012KT 7SM OVC024 M02/M05 A2977  1220 81 -500 330/12 RMK AO2 TSNO
94908KDBQ DBQ20050228003016302/28/05 00:30:31  5-MIN KDBQ 280630Z AUTO 34012KT 7SM OVC024 M02/M05 A2977OOTO 34012KT 7SM OVC024 M02/M05 A2977  1220 81 -500 340/12 RMK AO2 SLP091 T10221050 TSNO
94908KDBQ DBQ20050228010010802/28/05 01:00:31  5-MIN KDBQ 280700Z AUTO 34012KT 7SM OVC024 M02/M05 A2977 1220 81 -500 340/12 RMK AO2 TSNO
94908KDBQ DBQ20050228010511102/28/05 01:05:31  5-MIN KDBQ 280705Z AUO TO 33011KT 7SM OVC024 M02/M05 A2976  1220 81 -500 330/11 RMK AO2 TSNO
94908KDBQ DBQ20050228013010802/28/05 01:30:31  5-MIN KDBQ 280730Z AUTO 34009KT 7SM OVC024 M02/M05 A2976 1220 81 -500 340/09 RMK AO2 TSNO
94908KDBQ DBQ20050228015513202/28/05 01:55:31  5-MIN KDBQ 280755Z AUTO 33011KT 8SM FEW019 OVC026 M02/M05 A2976 1230 81 -500 330/11 RMK AO2 SLP088 T10221050 TSNO
94908KDBQ DBQ20050228020013402/28/05 02:00:31  5-MIN KDBQ 280800Z AUTO 33011KT 8SM FEW019 OVC026 M02/M05 A2976 1230 81 -500 330/11 RMK AO -500 330/10 RMK AO2 TSNO
94908KDBQ DBQ20050228022510802/28/05 02:25:31  5-MIN KDBQ 280825Z AUTO 33012KT 7SM OVC022 M02/M05 A2975 1240 81 -500 330/12 RMK AO2 TSNO
94908KDBQ DBQ20050228023019302/28/05 02:30:31  5-MIN KDBQ 280830Z AUTO 33011KT 8SM OVC022 M02/M06 A2975 1240 78 -500 330/11 RMKO TO 33011KT 8SM OVC020 M02/M06 A2974  1240 78 -500 330/11 RMK AO2 SLP082 T10221056 58011 TSNO
94908KDBQ DBQ20050228025517302/28/05 02:55:31  5-MIN KDBQ 280855Z AUTO 33011KT 8SM OVC020 M02/M06 A2974 1250 78 -500 330/11 RMK AO2 SLP081 T10221056 58012 TSNO 02/28/05 03:00:3 -500 320/09 RMK AO2 TSNO
94908KDBQ DBQ20050228032010802/28/05 03:20:31  5-MIN KDBQ 280920Z AUTO 33010KT 7SM OVC020 M03/M06 A2974 1250 81 -500 320/10 RMK AO2 TSNO
94908KDBQ DBQ20050228032515902/28/05 03:25:31  5-MIN KDBQ 280925Z AUTO 33010KT 7SM OVC020 M03/M05 A2974 1250 85 -500 330/10 RMKO CT019 OVC024M03/M06 A2973 1250 81 -500 330/11 RMK AO2 TSNO
94908KDBQ DBQ20050228035013202/28/05 03:50:31  5-MIN KDBQ 280950Z AUTO 33009KT 7SM FEW017 OVC024 M03/M06 A2973 1250 81 -500 330/09 RMK AO2 SLP079 T10281056 TSNO
94908KDBQ DBQ20050228041510802/28/05 04:15:31  5-MIN KDBQ 281015Z AUTO 32013KT 7SM OVC019 M03/M06 A2973 1250 81 -500 320/13 RMK AO2 TSNO
94908KDBQ DBQ20050228042012802/28/05 04:20:31  5-MIN KDBQ 281020Z AUTO 32012KT 6SM HZ OVC019 M03/M06 A2973 1250 81 -500 320/12 RMK AO2 TSNO 02/28/05 04:25:3
94908KDBQ DBQ20050228044511102/28/05 04:45:31  5-MIN KDBQ 281045Z AUTO 33013KT 6SM HZ OVC019 M03/M06 A2973 1250 81 -500 330/13 RMK AO2 TSNO
94908KDBQ DBQ20050228045012802/28/05 04:50:31  5-MIN KDBQ 281050Z AUTO 32012KT 6SM BR OVC019 M03/M06 A2973 1250 85 -600 320/12 RMK AO2 SLP079 T10331056 TSNO
94908KDBQ DBQ20050228045512802/28/05 04:55:31  5-MIN KDBQ 281055Z AUTO 32014KT 6SM BR OVC019 M03/M06 A2973 1250 85 -600 320/14 RMK AO2 SLP079 T10331056 TSNO
94908KDBQ DBQ20050228050011102/28/05 05:00:31  5-MIN KDBQ 281100Z AUTO 33011KT 6SM BR OVC019 M03/M06 A2973 1250 85 -600 330/11 RMK AO2 TSNO
94908KDBQ DBQ20050228050511102/28/05 05:05:31  5-MIN KDBQ 281105Z AUTO 33012KT 6SM HZ OVC021 M03/M06 A2973 1250 81 -600 320/12 RMK AO2 TSNO
94908KDBQ DBQ20050228051011102/28/05 05:10:31  5-MIN KDBQ 281110Z AUTO 33014KT 6SM HZ OVC023 M03/M06 A2973 1250 81 -600 330/14 RMK AO2 TSNO
94908KDBQ DBQ20050228051511802/28/05 05:15:31  5-MIN KDBQ 281115Z AUTO 33009KT 5SM HZ SCT019 OVC023 M03/M06 A2973 1260 81 -600 330/09 RMK AO2 TSNO
94908KDBQ DBQ20050228052011802/28/05 05:20:31  5-MIN KDBQ 281120Z AUTO 33011KT 5SM HZ FEW019 OVC025 M03/M06 A2973 1260 81 -600 330/11 RMK AO2 TSNO
94908KDBQ DBQ20050228052513102/28/05 05:25:31  5-MIN KDBQ 281125Z AUTO 32012KT 5SM -SN FEW019 OVC025 M03/M06 A2973 1260 81 -600 320/12 RMK AO2 SNB21 P0000 TSNO
94908KDBQ DBQ20050228053013102/28/05 05:30:31  5-MIN KDBQ 281130Z AUTO 33011KT 5SM -SN FEW019 OVC027 M03/M06 A2973 1260 81 -600 330/11 RMK AO2 SNB21 P0000 TSNO
94908KDBQ DBQ20050228053512602/28/05 05:35:31  5-MIN KDBQ 281135Z AUTO 33013KT 5SM HZ OVC027 M03/M06 A2973 1260 81 -600 320/13 RMK AO2 SNB21E31 P0000 TSNO
94908KDBQ DBQ20050228054012402/28/05 05:40:31  5-MIN KDBQ 281140Z AUTO 32014KT 5SM -SN OVC029 M03/M06 A2973 1260 81 -600 320/14 RMK AO2 SNB21 P0000 TSNO
94908KDBQ DBQ20050228054512402/28/05 05:45:31  5-MIN KDBQ 281145Z AUTO 33011KT 4SM -SN OVC029 M03/M06 A2973 1260 81 -600 330/11 RMK AO2 SNB21 P0000 TSNO
94908KDBQ DBQ20050228055017802/28/05 05:50:31  5-MIN KDBQ 281150Z AUTO 33010KT 4SM -SN FEW015 OVC029 M03/M06 A2973 1260 81 -600 330/10 RMK AO2 SNB21 SLP078 P0000 60000 70003 T10331061 11022 21033 58012 TSNO
94908KDBQ DBQ20050228055516802/28/05 05:55:31  5-MIN KDBQ 281155Z 32012KT 4SM -SN FEW015 OVC029 M03/M06 A2973 1260 81 -600 320/12 RMK AO2 SNB21 SLP078 P0000 60000 70003 T10331061 11022 21033 56004
94908KDBQ DBQ20050228060011502/28/05 06:00:31  5-MIN KDBQ 281200Z 32011KT 4SM -SN FEW015 OVC029 M03/M06 A2973 1260 81 -600 320/11 RMK AO2 P0000
94908KDBQ DBQ20050228060511502/28/05 06:05:31  5-MIN KDBQ 281205Z 32013KT 4SM -SN FEW015 OVC029 M03/M06 A2973 1260 81 -600 320/13 RMK AO2 P0000
94908KDBQ DBQ20050228061011502/28/05 06:10:31  5-MIN KDBQ 281210Z 33013KT 4SM -SN FEW015 OVC031 M03/M06 A2973 1260 81 -600 320/13 RMK AO2 P0000
94908KDBQ DBQ20050228061511502/28/05 06:15:31  5-MIN KDBQ 281215Z 33011KT 4SM -SN FEW015 OVC031 M03/M06 A2973 1260 81 -600 320/11 RMK AO2 P0000
94908KDBQ DBQ20050228062011502/28/05 06:20:31  5-MIN KDBQ 281220Z 32011KT 4SM -SN FEW015 OVC031 M03/M06 A2973 1260 81 -600 320/11 RMK AO2 P0000
94908KDBQ DBQ20050228062511502/28/05 06:25:31  5-MIN KDBQ 281225Z 32011KT 4SM -SN FEW015 OVC031 M03/M06 A2973 1260 81 -600 320/11 RMK AO2 P0000
94908KDBQ DBQ20050228063011802/28/05 06:30:31  5-MIN KDBQ 281230Z 32013KT 4SM -SN BR FEW015 OVC031 M04/M06 A2972 1260 85 -700 320/13 RMK AO2 P0000
94908KDBQ DBQ20050228063511802/28/05 06:35:31  5-MIN KDBQ 281235Z 32011KT 4SM -SN BR FEW015 OVC031 M04/M06 A2972 1260 85 -700 320/11 RMK AO2 P0000
94908KDBQ DBQ20050228064011802/28/05 06:40:31  5-MIN KDBQ 281240Z 32015KT 4SM -SN BR FEW015 OVC031 M04/M06 A2972 1260 85 -700 320/15 RMK AO2 P0000
94908KDBQ DBQ20050228064512402/28/05 06:45:31  5-MIN KDBQ 281245Z 32016G20KT 3SM -SN BR SCT015 OVC031 M04/M06 A2972 1260 85 -700 320/16G20 RMK AO2 P0000
94908KDBQ DBQ20050228065013802/28/05 06:50:31  5-MIN KDBQ 281250Z 33014G20KT 4SM -SN FEW015 OVC031 M04/M07 A2972 1260 81 -700 330/14G20 RMK AO2 SLP078 P0000 T10391067
94908KDBQ DBQ20050228065513202/28/05 06:55:31  5-MIN KDBQ 281255Z 32015KT 4SM -SN FEW015 OVC031 M04/M07 A2972 1260 81 -700 320/15 RMK AO2 SLP078 P0000 T10391067
94908KDBQ DBQ20050228070011502/28/05 07:00:31  5-MIN KDBQ 281300Z 33012KT 4SM -SN FEW015 OVC031 M04/M07 A2972 1260 81 -700 320/12 RMK AO2 P0000
94908KDBQ DBQ20050228070511502/28/05 07:05:31  5-MIN KDBQ 281305Z 33014KT 3SM -SN FEW015 OVC031 M04/M07 A2972 1260 81 -700 330/14 RMK AO2 P0000
94908KDBQ DBQ20050228071010802/28/05 07:10:31  5-MIN KDBQ 281310Z 33016KT 3SM -SN OVC031 M04/M07 A2972 1260 78 -700 330/16 RMK AO2 P0000
94908KDBQ DBQ20050228071511202/28/05 07:15:31  5-MIN KDBQ 281315Z 33015KT 2 1/2SM -SN OVC031 M04/M07 A2972 1260 81 -700 330/15 RMK AO2 P0000
94908KDBQ DBQ20050228072011802/28/05 07:20:31  5-MIN KDBQ 281320Z 33014G19KT 2 1/2SM -SN OVC033 M04/M07 A2972 1260 81 -700 330/14G19 RMK AO2 P0000
94908KDBQ DBQ20050228072511902/28/05 07:25:31  5-MIN KDBQ 281325Z 33014KT 2 1/2SM -SN FEW017 OVC033 M04/M07 A2973 1260 81 -700 330/14 RMK AO2 P0000
94908KDBQ DBQ20050228073011902/28/05 07:30:31  5-MIN KDBQ 281330Z 33014KT 2 1/2SM -SN FEW017 OVC033 M04/M07 A2973 1260 81 -700 330/14 RMK AO2 P0000
94908KDBQ DBQ20050228073512502/28/05 07:35:31  5-MIN KDBQ 281335Z 33016G19KT 2 1/2SM -SN FEW017 OVC035 M04/M07 A2973 1260 81 -700 330/16G19 RMK AO2 P0000
94908KDBQ DBQ20050228074011502/28/05 07:40:31  5-MIN KDBQ 281340Z 33013KT 3SM -SN FEW017 OVC037 M04/M07 A2973 1260 81 -700 330/13 RMK AO2 P0000
94908KDBQ DBQ20050228074511502/28/05 07:45:31  5-MIN KDBQ 281345Z 33014KT 4SM -SN FEW017 OVC037 M04/M07 A2972 1260 78 -700 330/14 RMK AO2 P0000
94908KDBQ DBQ20050228075013202/28/05 07:50:31  5-MIN KDBQ 281350Z 33012KT 5SM -SN FEW017 OVC039 M04/M07 A2972 1260 78 -700 330/12 RMK AO2 SLP078 P0000 T10391072
94908KDBQ DBQ20050228075513202/28/05 07:55:31  5-MIN KDBQ 281355Z 32013KT 5SM -SN FEW017 OVC041 M04/M07 A2972 1260 78 -700 320/13 RMK AO2 SLP078 P0000 T10391072
94908KDBQ DBQ20050228080010902/28/05 08:00:31  5-MIN KDBQ 281400Z 33016KT 6SM HZ OVC041 M04/M08 A2972 1260 74 -700 320/16 RMK AO2 SNE1356
94908KDBQ DBQ20050228080510602/28/05 08:05:31  5-MIN KDBQ 281405Z 33013KT 7SM OVC041 M04/M08 A2972 1260 74 -700 330/13 RMK AO2 SNE1356
94908KDBQ DBQ20050228081010602/28/05 08:10:31  5-MIN KDBQ 281410Z 33014KT 7SM OVC041 M04/M08 A2972 1260 74 -700 330/14 RMK AO2 SNE1356
94908KDBQ DBQ20050228081510602/28/05 08:15:31  5-MIN KDBQ 281415Z 32013KT 7SM OVC041 M04/M08 A2972 1270 71 -700 320/13 RMK AO2 SNE1356
94908KDBQ DBQ20050228082010602/28/05 08:20:31  5-MIN KDBQ 281420Z 32014KT 8SM OVC043 M04/M08 A2972 1270 71 -700 320/14 RMK AO2 SNE1356
94908KDBQ DBQ20050228082510602/28/05 08:25:31  5-MIN KDBQ 281425Z 32011KT 8SM OVC043 M04/M08 A2972 1270 74 -700 320/11 RMK AO2 SNE1356
94908KDBQ DBQ20050228083010602/28/05 08:30:31  5-MIN KDBQ 281430Z 32016KT 8SM OVC043 M04/M08 A2972 1270 74 -700 320/16 RMK AO2 SNE1356
94908KDBQ DBQ20050228083512602/28/05 08:35:31  5-MIN KDBQ 281435Z 32014KT 7SM -SN FEW038 OVC044 M04/M08 A2972 1270 74 -700 320/14 RMK AO2 SNE1356B33 P0000
94908KDBQ DBQ20050228084011902/28/05 08:40:31  5-MIN KDBQ 281440Z 33011KT 7SM -SN OVC046 M03/M08 A2972 1270 71 -600 330/11 RMK AO2 SNE1356B33 P0000
94908KDBQ DBQ20050228084513102/28/05 08:45:31  5-MIN KDBQ 281445Z 34013G21KT 7SM FEW020 OVC046 M04/M08 A2972 1270 74 -700 340/13G21 RMK AO2 SNE1356B33E42 P0000
94908KDBQ DBQ20050228085015302/28/05 08:50:31  5-MIN KDBQ 281450Z 33013G21KT 7SM OVC046 M04/M07 A2972 1270 78 -700 330/13G21 RMK AO2 SNE1356B33E42 SLP077 P0000 60000 T10391072 56004
94908KDBQ DBQ20050228085515402/28/05 08:55:31  5-MIN KDBQ 281455Z 33012KT 7SM FEW020 OVC046 M03/M07 A2972 1270 74 -600 330/12 RMK AO2 SNE1356B33E42 SLP076 P0000 60000 T10331072 58004
94908KDBQ DBQ20050228090010502/28/05 09:00:31  5-MIN KDBQ 281500Z 33013KT 7SM SCT020 OVC046 M03/M07 A2972 1270 74 -600 320/13 RMK AO2
94908KDBQ DBQ20050228090510802/28/05 09:05:31  5-MIN KDBQ 281505Z 33013KT 6SM HZ BKN020 OVC046 M03/M07 A2972 1270 74 -600 330/13 RMK AO2
94908KDBQ DBQ20050228091010802/28/05 09:10:31  5-MIN KDBQ 281510Z 35016KT 6SM HZ BKN020 OVC046 M03/M07 A2971 1270 74 -600 340/16 RMK AO2
94908KDBQ DBQ20050228091511502/28/05 09:15:31  5-MIN KDBQ 281515Z 34012KT 6SM HZ BKN020 BKN040 OVC046 M03/M07 A2971 1270 74 -600 340/12 RMK AO2
94908KDBQ DBQ20050228092011502/28/05 09:20:31  5-MIN KDBQ 281520Z 33012KT 6SM HZ BKN020 BKN040 OVC048 M03/M07 A2971 1270 78 -600 330/12 RMK AO2
94908KDBQ DBQ20050228092511502/28/05 09:25:31  5-MIN KDBQ 281525Z 33013KT 6SM HZ BKN020 BKN040 OVC048 M03/M06 A2971 1270 78 -500 330/13 RMK AO2
94908KDBQ DBQ20050228093011202/28/05 09:30:31  5-MIN KDBQ 281530Z 34013KT 7SM BKN020 BKN040 OVC048 M03/M07 A2971 1270 75 -500 340/13 RMK AO2
94908KDBQ DBQ20050228093511202/28/05 09:35:31  5-MIN KDBQ 281535Z 34014KT 8SM BKN020 BKN040 OVC048 M03/M07 A2971 1270 75 -500 340/14 RMK AO2
94908KDBQ DBQ20050228094011202/28/05 09:40:31  5-MIN KDBQ 281540Z 33012KT 8SM BKN020 BKN040 OVC048 M03/M07 A2971 1270 75 -500 330/12 RMK AO2
94908KDBQ DBQ20050228094511202/28/05 09:45:31  5-MIN KDBQ 281545Z 35015KT 8SM BKN018 BKN023 OVC046 M03/M07 A2971 1270 71 -500 340/15 RMK AO2
94908KDBQ DBQ20050228095012202/28/05 09:50:31  5-MIN KDBQ 281550Z 33014KT 9SM BKN021 OVC048 M03/M07 A2971 1270 71 -500 330/14 RMK AO2 SLP074 T10281072
94908KDBQ DBQ20050228095512202/28/05 09:55:31  5-MIN KDBQ 281555Z 33017KT 9SM BKN021 OVC048 M03/M07 A2971 1280 71 -500 330/17 RMK AO2 SLP073 T10281072
94908KDBQ DBQ20050228100010502/28/05 10:00:31  5-MIN KDBQ 281600Z 33015KT 9SM BKN021 OVC048 M03/M07 A2971 1270 71 -500 330/15 RMK AO2
94908KDBQ DBQ20050228100510502/28/05 10:05:31  5-MIN KDBQ 281605Z 34016KT 9SM BKN021 OVC048 M03/M07 A2971 1270 71 -500 340/16 RMK AO2
94908KDBQ DBQ20050228101010602/28/05 10:10:31  5-MIN KDBQ 281610Z 33016KT 10SM BKN023 OVC048 M03/M07 A2971 1270 71 -500 330/16 RMK AO2
94908KDBQ DBQ20050228101510602/28/05 10:15:31  5-MIN KDBQ 281615Z 34015KT 10SM BKN023 OVC050 M02/M07 A2971 1270 69 -400 330/15 RMK AO2
94908KDBQ DBQ20050228102011302/28/05 10:20:31  5-MIN KDBQ 281620Z 34014KT 10SM BKN023 BKN045 OVC050 M02/M07 A2971 1270 72 -400 340/14 RMK AO2
94908KDBQ DBQ20050228102511302/28/05 10:25:31  5-MIN KDBQ 281625Z 33012KT 10SM BKN023 BKN030 OVC050 M02/M07 A2971 1270 69 -400 330/12 RMK AO2
94908KDBQ DBQ20050228103011302/28/05 10:30:31  5-MIN KDBQ 281630Z 33014KT 10SM BKN023 BKN030 OVC050 M03/M07 A2971 1270 71 -500 330/14 RMK AO2
94908KDBQ DBQ20050228103511302/28/05 10:35:31  5-MIN KDBQ 281635Z 32015KT 10SM BKN023 BKN030 OVC050 M03/M07 A2971 1270 71 -500 320/15 RMK AO2
94908KDBQ DBQ20050228104011902/28/05 10:40:31  5-MIN KDBQ 281640Z 34014G21KT 10SM BKN023 BKN028 OVC050 M03/M07 A2971 1270 75 -500 340/14G21 RMK AO2
94908KDBQ DBQ20050228104511902/28/05 10:45:31  5-MIN KDBQ 281645Z 32015G22KT 10SM BKN023 BKN028 OVC050 M03/M07 A2971 1270 71 -500 320/15G22 RMK AO2
94908KDBQ DBQ20050228105013602/28/05 10:50:31  5-MIN KDBQ 281650Z 32014G22KT 10SM BKN023 BKN028 OVC050 M03/M07 A2971 1270 71 -500 320/14G22 RMK AO2 SLP073 T10281072
94908KDBQ DBQ20050228105512902/28/05 10:55:31  5-MIN KDBQ 281655Z 33013KT 9SM BKN024 BKN030 OVC050 M02/M07 A2971 1270 69 -400 330/13 RMK AO2 SLP074 T10221072
94908KDBQ DBQ20050228110010502/28/05 11:00:31  5-MIN KDBQ 281700Z 33016KT 9SM BKN024 OVC028 M03/M07 A2971 1270 71 -500 330/16 RMK AO2
94908KDBQ DBQ20050228110511202/28/05 11:05:31  5-MIN KDBQ 281705Z 33015KT 9SM BKN024 BKN028 OVC035 M03/M07 A2971 1270 71 -500 330/15 RMK AO2
94908KDBQ DBQ20050228111011302/28/05 11:10:31  5-MIN KDBQ 281710Z 34016KT 10SM BKN024 BKN028 OVC050 M03/M07 A2971 1270 71 -500 340/16 RMK AO2
94908KDBQ DBQ20050228111511302/28/05 11:15:31  5-MIN KDBQ 281715Z 33015KT 10SM SCT022 BKN028 OVC050 M02/M07 A2971 1270 69 -400 330/15 RMK AO2
94908KDBQ DBQ20050228112011302/28/05 11:20:31  5-MIN KDBQ 281720Z 33013KT 10SM BKN024 BKN031 OVC050 M02/M07 A2971 1280 69 -400 320/13 RMK AO2
94908KDBQ DBQ20050228112511302/28/05 11:25:31  5-MIN KDBQ 281725Z 34014KT 10SM BKN024 BKN034 OVC055 M02/M07 A2971 1280 69 -400 330/14 RMK AO2
94908KDBQ DBQ20050228113011202/28/05 11:30:31  5-MIN KDBQ 281730Z 32016KT 8SM BKN024 BKN032 OVC055 M02/M07 A2971 1280 69 -400 320/16 RMK AO2
94908KDBQ DBQ20050228113512802/28/05 11:35:31  5-MIN KDBQ 281735Z 33013KT 7SM -SN BKN024 BKN032 OVC044 M03/M07 A2971 1280 71 -500 330/13 RMK AO2 SNB31 P0000
94908KDBQ DBQ20050228114012802/28/05 11:40:31  5-MIN KDBQ 281740Z 33014KT 7SM -SN BKN024 BKN032 OVC042 M03/M07 A2971 1280 71 -500 330/14 RMK AO2 SNB31 P0000
94908KDBQ DBQ20050228114512702/28/05 11:45:31  5-MIN KDBQ 281745Z 34014KT 8SM BKN024 BKN032 OVC060 M02/M07 A2970 1280 72 -400 340/14 RMK AO2 SNB31E44 P0000
94908KDBQ DBQ20050228115016802/28/05 11:50:31  5-MIN KDBQ 281750Z 34015KT 8SM BKN024 BKN030 OVC060 M02/M07 A2970 1280 72 -400 340/15 RMK AO2 SNB31E44 SLP072 P0000 60000 T10221067 11022 21044 58004
94908KDBQ DBQ20050228115516802/28/05 11:55:31  5-MIN KDBQ 281755Z 33014KT 9SM BKN024 BKN030 OVC060 M02/M07 A2970 1280 69 -400 330/14 RMK AO2 SNB31E44 SLP071 P0000 60000 T10221072 11022 21044 58004
94908KDBQ DBQ20050228120013002/28/05 12:00:31  5-MIN KDBQ 281800Z 33014KT 7SM -SN BKN024 BKN029 OVC060 M03/M07 A2970 1280 75 -500 330/14 RMK AO2 SNB1758 P0000
94908KDBQ DBQ20050228120513002/28/05 12:05:31  5-MIN KDBQ 281805Z 31018KT 3SM -SN FEW018 BKN022 OVC060 M03/M07 A2970 1280 78 -600 310/18 RMK AO2 SNB1758 P0000
94908KDBQ DBQ20050228121013402/28/05 12:10:31  5-MIN KDBQ 281810Z 32016KT 1 1/2SM -SN BKN022 BKN029 OVC060 M03/M07 A2970 1280 78 -600 320/16 RMK AO2 SNB1758 P0000
94908KDBQ DBQ20050228121512702/28/05 12:15:31  5-MIN KDBQ 281815Z 33017KT 1 1/2SM -SN BKN022 OVC030 M03/M07 A2970 1280 78 -600 330/17 RMK AO2 SNB1758 P0000
94908KDBQ DBQ20050228122012702/28/05 12:20:31  5-MIN KDBQ 281820Z 32012KT 1 3/4SM -SN BKN022 OVC026 M03/M06 A2970 1280 81 -600 320/12 RMK AO2 SNB1758 P0000
94908KDBQ DBQ20050228122512702/28/05 12:25:31  5-MIN KDBQ 281825Z 33012KT 1 1/4SM -SN BKN021 OVC027 M03/M06 A2970 1280 81 -600 330/12 RMK AO2 SNB1758 P0000
94908KDBQ DBQ20050228123012302/28/05 12:30:31  5-MIN KDBQ 281830Z 33015KT 1SM -SN BKN018 OVC024 M03/M06 A2970 1280 81 -600 320/15 RMK AO2 SNB1758 P0000
94908KDBQ DBQ20050228123512702/28/05 12:35:31  5-MIN KDBQ 281835Z 33015KT 1 1/2SM -SN BKN020 OVC024 M03/M06 A2970 1280 81 -600 330/15 RMK AO2 SNB1758 P0000
94908KDBQ DBQ20050228124012302/28/05 12:40:31  5-MIN KDBQ 281840Z 33011KT 2SM -SN BKN019 OVC026 M03/M06 A2970 1280 81 -600 330/11 RMK AO2 SNB1758 P0000
94908KDBQ DBQ20050228124512302/28/05 12:45:31  5-MIN KDBQ 281845Z 32014KT 2SM -SN BKN015 OVC021 M03/M06 A2970 1280 81 -600 320/14 RMK AO2 SNB1758 P0000
94908KDBQ DBQ20050228125015102/28/05 12:50:31  5-MIN KDBQ 281850Z 32013KT 2 1/2SM -SN SCT014 BKN019 OVC025 M03/M07 A2970 1280 78 -600 320/13 RMK AO2 SNB1758 SLP071 P0000 T10331067
94908KDBQ DBQ20050228125514702/28/05 12:55:31  5-MIN KDBQ 281855Z 32014KT 4SM -SN SCT014 BKN019 OVC033 M03/M07 A2970 1290 78 -600 320/14 RMK AO2 SNB1758 SLP070 P0000 T10331067
94908KDBQ DBQ20050228130012202/28/05 13:00:31  5-MIN KDBQ 281900Z 33013KT 3SM -SN FEW015 BKN020 OVC029 M03/M07 A2970 1280 78 -600 320/13 RMK AO2 P0000
94908KDBQ DBQ20050228130511502/28/05 13:05:31  5-MIN KDBQ 281905Z 32014KT 3SM -SN BKN018 OVC026 M03/M07 A2970 1290 78 -600 320/14 RMK AO2 P0000
94908KDBQ DBQ20050228131012202/28/05 13:10:31  5-MIN KDBQ 281910Z 33017KT 3SM -SN FEW014 BKN018 OVC026 M03/M07 A2969 1290 78 -600 330/17 RMK AO2 P0000
94908KDBQ DBQ20050228131512202/28/05 13:15:31  5-MIN KDBQ 281915Z 32014KT 3SM -SN SCT018 BKN026 OVC031 M03/M06 A2969 1290 78 -500 320/14 RMK AO2 P0000
94908KDBQ DBQ20050228132011502/28/05 13:20:31  5-MIN KDBQ 281920Z 32017KT 3SM -SN BKN021 OVC028 M03/M07 A2969 1290 78 -600 320/17 RMK AO2 P0000
94908KDBQ DBQ20050228132511502/28/05 13:25:31  5-MIN KDBQ 281925Z 32014KT 3SM -SN BKN021 OVC026 M03/M07 A2969 1290 78 -600 310/14 RMK AO2 P0000
94908KDBQ DBQ20050228133011502/28/05 13:30:31  5-MIN KDBQ 281930Z 32014KT 3SM -SN BKN019 OVC026 M03/M07 A2969 1290 78 -600 320/14 RMK AO2 P0000
94908KDBQ DBQ20050228133512802/28/05 13:35:31  5-MIN KDBQ 281935Z 32014G20KT 4SM -SN SCT019 BKN023 OVC034 M03/M07 A2969 1290 74 -600 320/14G20 RMK AO2 P0000
94908KDBQ DBQ20050228134012202/28/05 13:40:31  5-MIN KDBQ 281940Z 33015KT 7SM -SN BKN021 BKN028 OVC034 M03/M07 A2969 1290 74 -600 330/15 RMK AO2 P0000
94908KDBQ DBQ20050228134512402/28/05 13:45:31  5-MIN KDBQ 281945Z 33014KT 9SM FEW018 BKN024 OVC050 M03/M08 A2969 1290 68 -500 330/14 RMK AO2 SNE43 P0000
94908KDBQ DBQ20050228135014202/28/05 13:50:31  5-MIN KDBQ 281950Z 33014KT 10SM BKN023 BKN030 OVC050 M03/M07 A2969 1290 71 -500 330/14 RMK AO2 SNE43 SLP067 P0000 T10281072
94908KDBQ DBQ20050228135514102/28/05 13:55:31  5-MIN KDBQ 281955Z 32013KT 8SM BKN019 BKN026 OVC050 M03/M08 A2969 1290 71 -600 320/13 RMK AO2 SNE43 SLP068 P0000 T10331078
94908KDBQ DBQ20050228140011202/28/05 14:00:31  5-MIN KDBQ 282000Z 33015KT 7SM BKN019 BKN029 OVC050 M03/M07 A2969 1290 74 -600 330/15 RMK AO2
94908KDBQ DBQ20050228140511202/28/05 14:05:31  5-MIN KDBQ 282005Z 32016KT 7SM BKN019 BKN029 OVC050 M03/M07 A2969 1290 74 -600 320/16 RMK AO2
94908KDBQ DBQ20050228141011202/28/05 14:10:31  5-MIN KDBQ 282010Z 33014KT 8SM BKN019 BKN029 OVC050 M03/M07 A2969 1290 74 -600 330/14 RMK AO2
94908KDBQ DBQ20050228141511302/28/05 14:15:31  5-MIN KDBQ 282015Z 32012KT 10SM BKN019 BKN029 OVC050 M03/M07 A2969 1290 74 -600 320/12 RMK AO2
94908KDBQ DBQ20050228142011802/28/05 14:20:31  5-MIN KDBQ 282020Z 34015G19KT 9SM BKN019 BKN029 OVC050 M03/M07 A2969 1290 74 -600 330/15G19 RMK AO2
94908KDBQ DBQ20050228142511202/28/05 14:25:31  5-MIN KDBQ 282025Z 33014KT 8SM BKN019 BKN029 OVC050 M03/M07 A2969 1290 74 -600 330/14 RMK AO2
94908KDBQ DBQ20050228143011202/28/05 14:30:31  5-MIN KDBQ 282030Z 32011KT 8SM BKN019 BKN029 OVC050 M03/M07 A2969 1290 74 -600 320/11 RMK AO2
94908KDBQ DBQ20050228143511202/28/05 14:35:31  5-MIN KDBQ 282035Z 33014KT 9SM BKN019 BKN029 OVC050 M03/M07 A2969 1290 71 -500 320/14 RMK AO2
94908KDBQ DBQ20050228144011302/28/05 14:40:31  5-MIN KDBQ 282040Z 31016KT 10SM BKN019 BKN029 OVC050 M03/M07 A2969 1290 74 -600 310/16 RMK AO2
94908KDBQ DBQ20050228144511302/28/05 14:45:31  5-MIN KDBQ 282045Z 33013KT 10SM BKN019 BKN029 OVC050 M03/M08 A2969 1290 71 -600 330/13 RMK AO2
94908KDBQ DBQ20050228145014202/28/05 14:50:31  5-MIN KDBQ 282050Z 32014KT 10SM BKN021 BKN027 OVC048 M03/M07 A2969 1290 74 -600 310/14 RMK AO2 SLP068 60000 T10331072 58004
94908KDBQ DBQ20050228145513502/28/05 14:55:31  5-MIN KDBQ 282055Z 33016KT 10SM BKN023 OVC048 M03/M08 A2969 1290 71 -600 320/16 RMK AO2 SLP068 60000 T10331078 56003
94908KDBQ DBQ20050228150010602/28/05 15:00:31  5-MIN KDBQ 282100Z 32017KT 10SM BKN023 OVC050 M03/M08 A2969 1290 71 -600 320/17 RMK AO2
94908KDBQ DBQ20050228150510602/28/05 15:05:31  5-MIN KDBQ 282105Z 32017KT 10SM BKN023 OVC050 M03/M08 A2969 1290 71 -600 310/17 RMK AO2
94908KDBQ DBQ20050228151010602/28/05 15:10:31  5-MIN KDBQ 282110Z 32015KT 10SM BKN023 OVC050 M03/M08 A2969 1290 71 -600 320/15 RMK AO2
94908KDBQ DBQ20050228151510602/28/05 15:15:31  5-MIN KDBQ 282115Z 31014KT 10SM BKN023 OVC055 M03/M08 A2969 1290 71 -600 310/14 RMK AO2
94908KDBQ DBQ20050228152010502/28/05 15:20:31  5-MIN KDBQ 282120Z 32017KT 9SM BKN023 OVC055 M03/M08 A2969 1290 71 -600 310/17 RMK AO2
94908KDBQ DBQ20050228152510502/28/05 15:25:31  5-MIN KDBQ 282125Z 32016KT 8SM BKN023 OVC055 M03/M08 A2970 1290 71 -600 320/16 RMK AO2
94908KDBQ DBQ20050228153010502/28/05 15:30:31  5-MIN KDBQ 282130Z 32015KT 8SM BKN023 OVC055 M03/M08 A2969 1290 71 -600 320/15 RMK AO2
94908KDBQ DBQ20050228153510502/28/05 15:35:31  5-MIN KDBQ 282135Z 32016KT 8SM BKN023 OVC055 M03/M07 A2969 1290 74 -600 320/16 RMK AO2
94908KDBQ DBQ20050228154011102/28/05 15:40:31  5-MIN KDBQ 282140Z 32017G22KT 7SM BKN023 OVC055 M03/M07 A2970 1290 74 -600 320/17G22 RMK AO2
94908KDBQ DBQ20050228154511402/28/05 15:45:31  5-MIN KDBQ 282145Z 33015G22KT 6SM HZ BKN023 OVC055 M03/M07 A2969 1290 74 -600 320/15G22 RMK AO2
94908KDBQ DBQ20050228155012902/28/05 15:50:31  5-MIN KDBQ 282150Z 32012KT 7SM SCT021 BKN027 OVC055 M03/M07 A2970 1290 74 -600 320/12 RMK AO2 SLP070 T10331072
94908KDBQ DBQ20050228155513502/28/05 15:55:31  5-MIN KDBQ 282155Z 33015G20KT 8SM SCT021 BKN025 OVC055 M03/M07 A2970 1290 71 -500 330/15G20 RMK AO2 SLP070 T10281072
94908KDBQ DBQ20050228160011202/28/05 16:00:31  5-MIN KDBQ 282200Z 33015KT 7SM BKN021 BKN025 OVC055 M03/M07 A2970 1290 74 -600 330/15 RMK AO2
94908KDBQ DBQ20050228160511202/28/05 16:05:31  5-MIN KDBQ 282205Z 33016KT 7SM BKN021 BKN025 OVC055 M03/M08 A2970 1290 71 -600 330/16 RMK AO2
94908KDBQ DBQ20050228161011202/28/05 16:10:31  5-MIN KDBQ 282210Z 33014KT 7SM BKN021 BKN025 OVC055 M03/M08 A2970 1290 71 -600 330/14 RMK AO2
94908KDBQ DBQ20050228161511202/28/05 16:15:31  5-MIN KDBQ 282215Z 33012KT 7SM BKN021 BKN028 OVC070 M03/M08 A2970 1290 71 -600 330/12 RMK AO2
94908KDBQ DBQ20050228162010502/28/05 16:20:31  5-MIN KDBQ 282220Z 31013KT 8SM BKN021 OVC028 M03/M07 A2970 1290 74 -600 310/13 RMK AO2
94908KDBQ DBQ20050228162512702/28/05 16:25:31  5-MIN KDBQ 282225Z 32016G19KT 6SM -SN SCT019 OVC026 M03/M07 A2970 1280 74 -600 320/16G19 RMK AO2 SNB23 P0000
94908KDBQ DBQ20050228163012802/28/05 16:30:31  5-MIN KDBQ 282230Z 33015KT 4SM -SN SCT020 BKN025 OVC050 M04/M07 A2970 1280 78 -600 320/15 RMK AO2 SNB23 P0000
94908KDBQ DBQ20050228163512802/28/05 16:35:31  5-MIN KDBQ 282235Z 31013KT 3SM -SN SCT020 BKN025 OVC048 M04/M07 A2970 1280 78 -600 310/13 RMK AO2 SNB23 P0000
94908KDBQ DBQ20050228164012802/28/05 16:40:31  5-MIN KDBQ 282240Z 32019KT 2SM -SN SCT018 BKN025 OVC050 M04/M07 A2970 1280 78 -600 320/19 RMK AO2 SNB23 P0000
94908KDBQ DBQ20050228164513202/28/05 16:45:31  5-MIN KDBQ 282245Z 33015KT 1 3/4SM -SN SCT018 BKN027 OVC046 M04/M07 A2970 1280 78 -600 320/15 RMK AO2 SNB23 P0000
94908KDBQ DBQ20050228165014902/28/05 16:50:31  5-MIN KDBQ 282250Z 33015KT 1 3/4SM -SN FEW018 BKN034 OVC046 M04/M07 A2971 1280 78 -600 330/15 RMK AO2 SNB23 SLP073 P0000 T10391072
94908KDBQ DBQ20050228165514902/28/05 16:55:31  5-MIN KDBQ 282255Z 33014KT 1 1/2SM -SN FEW018 BKN034 OVC048 M04/M07 A2971 1280 78 -600 330/14 RMK AO2 SNB23 SLP073 P0000 T10391072
94908KDBQ DBQ20050228170012602/28/05 17:00:31  5-MIN KDBQ 282300Z 33012KT 1 1/4SM -SN SCT016 BKN030 OVC046 M04/M07 A2971 1270 81 -600 330/12 RMK AO2 P0000
94908KDBQ DBQ20050228170512602/28/05 17:05:31  5-MIN KDBQ 282305Z 32016KT 1 1/4SM -SN SCT016 BKN032 OVC046 M04/M07 A2971 1270 81 -600 320/16 RMK AO2 P0000
94908KDBQ DBQ20050228171012902/28/05 17:10:31  5-MIN KDBQ 282310Z 33013KT 1 1/4SM -SN BR SCT016 BKN032 OVC046 M04/M07 A2971 1270 84 -700 330/13 RMK AO2 P0000
94908KDBQ DBQ20050228171512902/28/05 17:15:31  5-MIN KDBQ 282315Z 31013KT 1 1/2SM -SN BR SCT016 BKN032 OVC046 M04/M07 A2971 1270 84 -700 310/13 RMK AO2 P0000
94908KDBQ DBQ20050228172012902/28/05 17:20:31  5-MIN KDBQ 282320Z 32012KT 1 1/2SM -SN BR SCT016 BKN032 OVC046 M04/M07 A2971 1270 84 -700 320/12 RMK AO2 P0000
94908KDBQ DBQ20050228172513102/28/05 17:25:31  5-MIN KDBQ 282325Z 32015G20KT 2SM -SN BR SCT016 BKN032 OVC046 M04/M07 A2971 1270 84 -700 320/15G20 RMK AO2 P0000
94908KDBQ DBQ20050228173013202/28/05 17:30:31  5-MIN KDBQ 282330Z 32013G20KT 2 1/2SM -SN FEW016 BKN023 OVC046 M04/M07 A2972 1270 81 -700 320/13G20 RMK AO2 P0000
94908KDBQ DBQ20050228173512502/28/05 17:35:31  5-MIN KDBQ 282335Z 32014KT 2SM -SN BR FEW016 BKN039 OVC046 M04/M07 A2972 1270 84 -700 320/14 RMK AO2 P0000
94908KDBQ DBQ20050228174012602/28/05 17:40:31  5-MIN KDBQ 282340Z 32013KT 2 1/2SM -SN FEW016 SCT023 OVC048 M04/M07 A2972 1270 81 -700 320/13 RMK AO2 P0000
94908KDBQ DBQ20050228174512602/28/05 17:45:31  5-MIN KDBQ 282345Z 32012KT 2 1/2SM -SN SCT019 BKN050 OVC075 M04/M07 A2971 1270 81 -700 320/12 RMK AO2 P0000
94908KDBQ DBQ20050228175016302/28/05 17:50:31  5-MIN KDBQ 282350Z 31011KT 4SM -SN SCT019 BKN047 OVC065 M04/M07 A2972 1260 81 -700 310/11 RMK AO2 SLP079 P0000 60000 T10441072 11022 21044 56003
94908KDBQ DBQ20050228175517402/28/05 17:55:31  5-MIN KDBQ 282355Z 32014G17KT 5SM HZ SCT017 BKN049 OVC060 M04/M07 A2972 1260 81 -700 320/14G17 RMK AO2 SNE52 SLP079 P0000 60000 T10441072 11022 21044 53010
94908KDBQ DBQ20050228180006702/28/05 18:00:31  5-MIN KDBQ 010000Z 320 81 -700 320/14G18 RMK AO2
94908KDBQ DBQ20050228180511202/28/05 18:05:31  5-MIN KDBQ 010005Z 32014KT 7SM SCT017 BKN049 OVC080 M04/M07 A2972 1260 81 -700 320/14 RMK AO2
94908KDBQ DBQ20050228181009602/28/05 18:10:31  5-MIN KDBQ 010010Z 32012KT 7SM SCT017 BKN049 OVC080 M04/M07 A2973 1260 81 -72
94908KDBQ DBQ20050228183518802/28/05 18:35:31  5-MIN KDBQ 010035Z 32012KT 6SM HZ SCT017 BKN065 OVC080 M04/M07 A2973 1260 81 -700 320/12 RMK AO M04/M08 A2973 1250 78 -700 310/13 RMK AO2 SNB14E23 SLP084 P0000 T10441078
94908KDBQ DBQ20050228185523502/28/05 18:55:31  5-MIN KDBQ 010055Z 33013KT 8SM SCT017 BKN060 OVC080 M04/M07 A2973 1250 81 -700 330/13 RMK AO2 SNB14E23 SLP084 P0000 T10441072 02/28/05 19:00:3M -SN FEW017 OVC055 M04/M08  A2974 1250 78 -800 320/17 RMK AO2 SNB00 P0000
94908KDBQ DBQ20050228192012702/28/05 19:20:31  5-MIN KDBQ 010120Z 33017G21KT 3SM -SN FEW020 OVC050 M05/M08 A2974 1250 81 -800 330/17G21 RMK AO2 SNB00 P0000
94908KDBQ DBQ20050228192519802/28/05 19:25:31  5-MIN KDBQ 010125Z 33015KT 4SM -SN FEW020 OVC050 M05/M08TO 32017KT 4SM -SN FEW038 SCT049 2 SNB00 OVC060 M05/M08 A2974 1250 81 -800 320/17 RMK AO2 SNB00 SLP085 P0000 T10501078 TSNO
94908KDBQ DBQ20050228195516402/28/05 19:55:31  5-MIN KDBQ 010155Z AUTO 33014KT 3SM -SN FEW040 SCT049 OVC060 M05/M08 A2974 1250 81 -800 330/14 RMK AO22974 1250 81 -800 320/13 RMK AO2 P0000 TSNO
94908KDBQ DBQ20050228201512502/28/05 20:15:31  5-MIN KDBQ 010215Z AUTO 32015KT 2SM -SN SCT042 OVC055 M05/M08 A2974 1250 81 -800 320/15 RMK AO2 P0000 TSNO
94908KDBQ DBQ20050228202011302/28/05 20:20:31  5-MIN KDBQ 010220Z AUTO 33014KT 2 1/2SM -SN FSNO  A2974 1250 84 -900 330/15 RMK AO2 P0000 TSNO
94908KDBQ DBQ20050228204013402/28/05 20:40:31  5-MIN KDBQ 010240Z AUTO 33013G20KT 2SM -SN BR FEW042 OVC050 M06/M08 A2974 1250 84 -900 330/13G20 RMK AO2 P0000 TSNO
94908KDBQ DBQ20050228204505602/28/05 20:45:31  5-MIN KDBQ 010245Z AUTO 32014KT 2 1/2
94908KDBQ DBQ20050228210521502/28/05 21:05:31  5-MIN KDBQ 010305Z AUTO 32016KT 3SM -SN BR FEW042 BKN055  OVC080 M06/M08 A2974 1240 84 -900 320/10325Z AUTO 33015KT 2 1/2SM -SN BR BKN050OVC075 M06/M08 A2974 1240 84 -900 330/15 RMK AO2 P0000 TSNO
94908KDBQ DBQ20050228213018302/28/05 21:30:31  5-MIN KDBQ 010330Z AUTO 33015KT 2SM -SN BR BKN050 BKN060 OVC075 M06/M08 A2974 1240 84 -900 330/15 RMK AO2 P0000 TSNO 055A2974 1240 84 -900 330/14 RMK AO2 P0000 TSNO
94908KDBQ DBQ20050228214513502/28/05 21:45:31  5-MIN KDBQ 010345Z AUTO 33014KT 2SM -SN BR BKN046 BKN060 OVC070 M06/M08 A2974 1240 84 -900 330/14 RMK AO2 P0000 TSNO
94908KDBQ DBQ20050228215015302/28/05 21:50:31  5-MIN KDBQ 010350Z AUTO 34015KT 2SM - TO 34017KT 2SM -SN BR FEW015 BKN047  OVC060 M06/M07 A2974 1240 88 -900 340/17 RMK AO2 P0000 TSNO
94908KDBQ DBQ20050228221016402/28/05 22:10:31  5-MIN KDBQ 010410Z AUTO 33016KT 2SM -SN BR FEW015 BKN045 OVC060 M06/M07 A2974 1240 88 -900 330/16 RMK AO2 P0000 TSNO 00 340/17 RMK AO2 P0000 TSNO
94908KDBQ DBQ20050228223013902/28/05 22:30:31  5-MIN KDBQ 010430Z AUTO 33015KT 1 3/4SM -SN BR FEW015 SCT045 OVC055 M06/M07 A2975 1240 88 -900 330/15 RMK AO2 P0000 TSNO
94908KDBQ DBQ20050228223518502/28/05 22:35:31  5-MIN KDBQ 010435Z AUTO 33017KT 1 3/4SM -SN BR SCT0451  5-MIN KDBQ 010445Z AUTO 34014KT 2SM -SN BR FEW045 OVC055  M06/M07 A2975 1240 88 -900 340/14 RMK AO2 P0000 TSNO
94908KDBQ DBQ20050228225020302/28/05 22:50:31  5-MIN KDBQ 010450Z AUTO 34014KT 2 1/2SM -SN BR FEW045 OVC055 M05/M07 A2975 1240 84 -800 340/14 RMK AO2 KT 3SM -SN BR FEW018 OVC055  M06/M07 A2975 1240 88 -900 340/16 RMK AO2 P0000 TSNO
94908KDBQ DBQ20050228231013002/28/05 23:10:31  5-MIN KDBQ 010510Z AUTO 34018KT 4SM BR FEW018 OVC060 M06/M07 A2975 1240 88 -900 340/18 RMK AO2 SNE10 P0000 TSNO
94908KDBQ DBQ20050228231513302/28/05 23:15:31  5-MIN 0525Z AUTO 35015G23KT 7SM SCT020 BKN060 OVC090 M05/M07 A2975 1240 84 -800 350/15G23 RMK AO2 SNE10 P0000 TSNO
94908KDBQ DBQ20050228233012602/28/05 23:30:31  5-MIN KDBQ 010530Z AUTO 35015KT 8SM SCT020 BKN060 OVC075 M06/M07 A2975 1230 88 -900 340/15 RMK AO2 SNE10SNO
94908KDBQ DBQ20050228235508702/28/05 23:55:31  5-MIN KDBQ 010555Z AUTO 35017KT 10SM 0 0 81 -800 340/16 RMK AO2 TSNO
