94908KDBQ DBQ20020201000013502/01/02 00:00:31  5-MIN KDBQ 010600Z AUTO 35011KT 4SM -SN BR FEW010 BKN030 OVC040 M04/M04 A2976 1230 96 -700 350/11 RMK AO2 P0000 TSNO
94908KDBQ DBQ20020201000514502/01/02 00:05:31  5-MIN KDBQ 010605Z AUTO 36012KT 5SM UP BR FEW012 BKN030 OVC040 M04/M05 A2976 1230 92 -700 350/12 RMK AO2 UPB05SNE05 P0000 TSNO
94908KDBQ DBQ20020201001013802/01/02 00:10:31  5-MIN KDBQ 010610Z AUTO 35011KT 5SM BR BKN030 OVC038 M04/M05 A2976 1230 92 -700 350/11 RMK AO2 UPB05E07SNE05 P0000 TSNO
94908KDBQ DBQ20020201001513802/01/02 00:15:31  5-MIN KDBQ 010615Z AUTO 35011KT 6SM BR FEW006 OVC032 M04/M05 A2976 1230 92 -700 350/11 RMK AO2 UPB05E07SNE05 P0000 TSNO
94908KDBQ DBQ20020201002014502/01/02 00:20:31  5-MIN KDBQ 010620Z AUTO 36011KT 5SM BR FEW006 SCT012 OVC030 M04/M05 A2975 1230 92 -700 360/11 RMK AO2 UPB05E07SNE05 P0000 TSNO
94908KDBQ DBQ20020201002514502/01/02 00:25:31  5-MIN KDBQ 010625Z AUTO 36011KT 6SM BR FEW006 SCT012 OVC030 M04/M05 A2975 1240 92 -700 360/11 RMK AO2 UPB05E07SNE05 P0000 TSNO
94908KDBQ DBQ20020201003014502/01/02 00:30:31  5-MIN KDBQ 010630Z AUTO 36013KT 6SM BR FEW006 SCT012 OVC030 M04/M05 A2975 1240 92 -700 360/13 RMK AO2 UPB05E07SNE05 P0000 TSNO
94908KDBQ DBQ20020201003514502/01/02 00:35:31  5-MIN KDBQ 010635Z AUTO 35011KT 6SM BR FEW006 SCT013 OVC030 M04/M05 A2975 1230 92 -700 350/11 RMK AO2 UPB05E07SNE05 P0000 TSNO
94908KDBQ DBQ20020201004014202/01/02 00:40:31  5-MIN KDBQ 010640Z AUTO 35010KT 7SM FEW006 BKN013 OVC030 M04/M05 A2976 1230 92 -700 350/10 RMK AO2 UPB05E07SNE05 P0000 TSNO
94908KDBQ DBQ20020201004514202/01/02 00:45:31  5-MIN KDBQ 010645Z AUTO 35010KT 7SM FEW006 BKN013 OVC030 M04/M05 A2976 1230 92 -700 350/10 RMK AO2 UPB05E07SNE05 P0000 TSNO
94908KDBQ DBQ20020201005015902/01/02 00:50:31  5-MIN KDBQ 010650Z AUTO 36011KT 7SM BKN013 BKN019 OVC030 M04/M05 A2976 1230 92 -700 360/11 RMK AO2 UPB05E07SNE05 SLP090 P0000 T10391050 TSNO
94908KDBQ DBQ20020201005515902/01/02 00:55:31  5-MIN KDBQ 010655Z AUTO 35010KT 7SM BKN013 BKN019 OVC030 M04/M05 A2976 1230 92 -700 350/10 RMK AO2 UPB05E07SNE05 SLP092 P0000 T10391050 TSNO
94908KDBQ DBQ20020201010012202/01/02 01:00:31  5-MIN KDBQ 010700Z AUTO 34010KT 7SM FEW008 BKN013 OVC030 M04/M05 A2977 1220 92 -700 340/10 RMK AO2 TSNO
94908KDBQ DBQ20020201010512202/01/02 01:05:31  5-MIN KDBQ 010705Z AUTO 35009KT 7SM FEW010 BKN013 OVC019 M04/M05 A2977 1220 92 -700 350/09 RMK AO2 TSNO
94908KDBQ DBQ20020201011011502/01/02 01:10:31  5-MIN KDBQ 010710Z AUTO 34011KT 7SM BKN013 OVC019 M04/M05 A2977 1220 92 -700 340/11 RMK AO2 TSNO
94908KDBQ DBQ20020201011511502/01/02 01:15:31  5-MIN KDBQ 010715Z AUTO 34010KT 7SM BKN013 OVC019 M04/M05 A2977 1220 92 -700 340/10 RMK AO2 TSNO
94908KDBQ DBQ20020201012011502/01/02 01:20:31  5-MIN KDBQ 010720Z AUTO 34010KT 7SM FEW009 OVC013 M04/M05 A2977 1220 92 -700 340/10 RMK AO2 TSNO
94908KDBQ DBQ20020201012511502/01/02 01:25:31  5-MIN KDBQ 010725Z AUTO 33012KT 7SM SCT007 OVC013 M04/M05 A2977 1210 92 -700 330/12 RMK AO2 TSNO
94908KDBQ DBQ20020201013012702/01/02 01:30:31  5-MIN KDBQ 010730Z AUTO 33013KT 9SM BKN010 OVC013 M04/M05 A2978 1210 92 -700 330/13 RMK AO2 CIG 006V013 TSNO
94908KDBQ DBQ20020201013512802/01/02 01:35:31  5-MIN KDBQ 010735Z AUTO 33014KT 10SM BKN010 OVC013 M04/M06 A2978 1210 88 -700 330/14 RMK AO2 CIG 006V013 TSNO
94908KDBQ DBQ20020201014012802/01/02 01:40:31  5-MIN KDBQ 010740Z AUTO 33015KT 10SM BKN010 OVC013 M04/M06 A2978 1200 88 -700 330/15 RMK AO2 CIG 006V012 TSNO
94908KDBQ DBQ20020201014510902/01/02 01:45:31  5-MIN KDBQ 010745Z AUTO 33015KT 10SM OVC012 M04/M06 A2979 1200 88 -700 330/15 RMK AO2 TSNO
94908KDBQ DBQ20020201015012602/01/02 01:50:31  5-MIN KDBQ 010750Z AUTO 33014KT 10SM OVC012 M04/M06 A2979 1200 88 -700 330/14 RMK AO2 SLP102 T10391056 TSNO
94908KDBQ DBQ20020201015514202/01/02 01:55:31  5-MIN KDBQ 010755Z AUTO 33015KT 10SM -SN OVC012 M04/M06 A2980 1190 88 -700 330/15 RMK AO2 SNB53 SLP104 P0000 T10391056 TSNO
94908KDBQ DBQ20020201020011802/01/02 02:00:31  5-MIN KDBQ 010800Z AUTO 32015KT 9SM -SN OVC012 M04/M06 A2980 1190 92 -800 320/15 RMK AO2 P0000 TSNO
94908KDBQ DBQ20020201020511802/01/02 02:05:31  5-MIN KDBQ 010805Z AUTO 33015KT 7SM -SN OVC012 M04/M06 A2980 1190 92 -800 330/15 RMK AO2 P0000 TSNO
94908KDBQ DBQ20020201021012102/01/02 02:10:31  5-MIN KDBQ 010810Z AUTO 33014KT 6SM -SN BR OVC012 M04/M06 A2980 1190 88 -800 330/14 RMK AO2 P0000 TSNO
94908KDBQ DBQ20020201021512102/01/02 02:15:31  5-MIN KDBQ 010815Z AUTO 33014KT 5SM -SN BR OVC012 M04/M06 A2980 1190 88 -800 330/14 RMK AO2 P0000 TSNO
94908KDBQ DBQ20020201022012102/01/02 02:20:31  5-MIN KDBQ 010820Z AUTO 33015KT 4SM -SN BR OVC012 M04/M06 A2980 1190 88 -800 330/15 RMK AO2 P0000 TSNO
94908KDBQ DBQ20020201022512802/01/02 02:25:31  5-MIN KDBQ 010825Z AUTO 32016KT 2SM -SN BR BKN012 OVC018 M04/M06 A2981 1180 92 -800 320/16 RMK AO2 P0000 TSNO
94908KDBQ DBQ20020201023013202/01/02 02:30:31  5-MIN KDBQ 010830Z AUTO 33016KT 1 1/2SM -SN BR BKN012 OVC020 M04/M06 A2981 1180 92 -800 330/16 RMK AO2 P0000 TSNO
94908KDBQ DBQ20020201023513202/01/02 02:35:31  5-MIN KDBQ 010835Z AUTO 33017KT 1 3/4SM -SN BR BKN012 OVC020 M04/M06 A2981 1180 92 -800 330/17 RMK AO2 P0000 TSNO
94908KDBQ DBQ20020201024013202/01/02 02:40:31  5-MIN KDBQ 010840Z AUTO 33016KT 1 1/2SM -SN BR BKN012 OVC020 M04/M06 A2982 1170 92 -800 330/16 RMK AO2 P0000 TSNO
94908KDBQ DBQ20020201024513902/01/02 02:45:31  5-MIN KDBQ 010845Z AUTO 33017KT 1 1/2SM -SN BR BKN010 BKN020 OVC027 M04/M06 A2982 1170 92 -800 320/17 RMK AO2 P0000 TSNO
94908KDBQ DBQ20020201025016802/01/02 02:50:31  5-MIN KDBQ 010850Z AUTO 33016KT 1 3/4SM -SN BR FEW011 BKN016 OVC043 M04/M06 A2982 1170 92 -800 320/16 RMK AO2 SLP113 P0000 60000 T10441056 55003 TSNO
94908KDBQ DBQ20020201025516402/01/02 02:55:31  5-MIN KDBQ 010855Z AUTO 33016KT 2SM -SN BR FEW011 BKN019 OVC043 M04/M06 A2982 1170 92 -800 320/16 RMK AO2 SLP113 P0000 60000 T10441056 53019 TSNO
94908KDBQ DBQ20020201030013902/01/02 03:00:31  5-MIN KDBQ 010900Z AUTO 33018KT 1 3/4SM -SN BR BKN013 BKN022 OVC032 M04/M06 A2982 1170 92 -900 330/18 RMK AO2 P0000 TSNO
94908KDBQ DBQ20020201030513202/01/02 03:05:31  5-MIN KDBQ 010905Z AUTO 33015KT 1 1/2SM -SN BR BKN013 OVC026 M04/M06 A2983 1160 92 -900 330/15 RMK AO2 P0000 TSNO
94908KDBQ DBQ20020201031013902/01/02 03:10:31  5-MIN KDBQ 010910Z AUTO 33016KT 1 3/4SM -SN BR FEW010 BKN016 OVC028 M04/M06 A2983 1160 92 -900 330/16 RMK AO2 P0000 TSNO
94908KDBQ DBQ20020201031513902/01/02 03:15:31  5-MIN KDBQ 010915Z AUTO 33013KT 1 3/4SM -SN BR SCT012 BKN016 OVC033 M04/M06 A2983 1160 92 -900 330/13 RMK AO2 P0000 TSNO
94908KDBQ DBQ20020201032013202/01/02 03:20:31  5-MIN KDBQ 010920Z AUTO 33013KT 1 1/2SM -SN BR BKN012 OVC024 M04/M06 A2984 1160 92 -900 330/13 RMK AO2 P0000 TSNO
94908KDBQ DBQ20020201032513802/01/02 03:25:31  5-MIN KDBQ 010925Z AUTO 32017G21KT 1 1/4SM -SN BR BKN012 OVC024 M04/M06 A2984 1150 92 -900 320/17G21 RMK AO2 P0000 TSNO
94908KDBQ DBQ20020201033013402/01/02 03:30:31  5-MIN KDBQ 010930Z AUTO 32019G23KT 1SM -SN BR BKN012 OVC024 M04/M06 A2984 1150 92 -900 320/19G23 RMK AO2 P0000 TSNO
94908KDBQ DBQ20020201033513902/01/02 03:35:31  5-MIN KDBQ 010935Z AUTO 33018KT 1 1/4SM -SN BR BKN012 BKN024 OVC030 M04/M06 A2985 1150 88 -900 330/18 RMK AO2 P0000 TSNO
94908KDBQ DBQ20020201034013202/01/02 03:40:31  5-MIN KDBQ 010940Z AUTO 33019KT 1 3/4SM -SN BR BKN012 OVC024 M04/M06 A2985 1140 88 -900 330/19 RMK AO2 P0000 TSNO
94908KDBQ DBQ20020201034513902/01/02 03:45:31  5-MIN KDBQ 010945Z AUTO 33021KT 1 3/4SM -SN BR BKN012 BKN024 OVC030 M04/M06 A2986 1140 88 -900 330/21 RMK AO2 P0000 TSNO
94908KDBQ DBQ20020201035015202/01/02 03:50:31  5-MIN KDBQ 010950Z AUTO 33018KT 2SM -SN BR SCT012 BKN019 OVC065 M04/M06 A2986 1130 88 -900 330/18 RMK AO2 SLP126 P0000 T10441061 TSNO
94908KDBQ DBQ20020201035516302/01/02 03:55:31  5-MIN KDBQ 010955Z AUTO 33017G24KT 2 1/2SM -SN BR SCT012 BKN031 OVC075 M05/M06 A2986 1130 92 -1000 330/17G24 RMK AO2 SLP127 P0000 T10501061 TSNO
94908KDBQ DBQ20020201040013602/01/02 04:00:31  5-MIN KDBQ 011000Z AUTO 33017KT 4SM -SN BR FEW012 BKN043 OVC080 M05/M07 A2987 1130 88 -1000 330/17 RMK AO2 P0000 TSNO
94908KDBQ DBQ20020201040513602/01/02 04:05:31  5-MIN KDBQ 011005Z AUTO 32017KT 4SM -SN BR FEW016 BKN065 OVC095 M05/M07 A2987 1120 88 -1000 320/17 RMK AO2 P0000 TSNO
94908KDBQ DBQ20020201041013602/01/02 04:10:31  5-MIN KDBQ 011010Z AUTO 33016KT 4SM -SN BR FEW017 BKN080 OVC095 M05/M07 A2988 1120 88 -1000 330/16 RMK AO2 P0000 TSNO
94908KDBQ DBQ20020201041513602/01/02 04:15:31  5-MIN KDBQ 011015Z AUTO 33015KT 4SM -SN BR FEW044 BKN080 OVC095 M05/M07 A2988 1120 88 -1000 330/15 RMK AO2 P0000 TSNO
94908KDBQ DBQ20020201042013602/01/02 04:20:31  5-MIN KDBQ 011020Z AUTO 33015KT 4SM -SN BR FEW049 BKN080 OVC095 M05/M07 A2988 1110 88 -1000 330/15 RMK AO2 P0000 TSNO
94908KDBQ DBQ20020201042513602/01/02 04:25:31  5-MIN KDBQ 011025Z AUTO 33015KT 4SM -SN BR FEW049 SCT070 OVC085 M05/M07 A2989 1110 88 -1000 330/15 RMK AO2 P0000 TSNO
94908KDBQ DBQ20020201043012902/01/02 04:30:31  5-MIN KDBQ 011030Z AUTO 33015KT 5SM -SN BR FEW049 OVC080 M05/M07 A2989 1100 88 -1000 320/15 RMK AO2 P0000 TSNO
94908KDBQ DBQ20020201043512902/01/02 04:35:31  5-MIN KDBQ 011035Z AUTO 33015KT 5SM -SN BR BKN075 OVC090 M05/M07 A2990 1100 88 -1000 330/15 RMK AO2 P0000 TSNO
94908KDBQ DBQ20020201044012902/01/02 04:40:31  5-MIN KDBQ 011040Z AUTO 32016KT 5SM -SN BR BKN080 OVC090 M05/M07 A2991 1090 88 -1000 320/16 RMK AO2 P0000 TSNO
94908KDBQ DBQ20020201044512202/01/02 04:45:31  5-MIN KDBQ 011045Z AUTO 32016KT 6SM -SN BR OVC080 M05/M07 A2991 1090 88 -1000 320/16 RMK AO2 P0000 TSNO
94908KDBQ DBQ20020201045015602/01/02 04:50:31  5-MIN KDBQ 011050Z AUTO 32016G21KT 8SM -SN SCT016 BKN080 OVC090 M05/M07 A2991 1090 88 -1000 320/16G21 RMK AO2 SLP144 P0000 T10501067 TSNO
94908KDBQ DBQ20020201045516602/01/02 04:55:31  5-MIN KDBQ 011055Z AUTO 32016G21KT 9SM UP BKN016 BKN080 OVC090 M05/M07 A2992 1080 88 -1000 320/16G21 RMK AO2 UPB54SNE54 SLP145 P0000 T10501067 TSNO
94908KDBQ DBQ20020201050013002/01/02 05:00:31  5-MIN KDBQ 011100Z AUTO 33016KT 9SM BKN016 OVC085 M05/M07 A2992 1080 88 -1000 320/16 RMK AO2 UPE1058 P0000 TSNO
94908KDBQ DBQ20020201050514402/01/02 05:05:31  5-MIN KDBQ 011105Z AUTO 32017KT 10SM -FZRA BKN016 OVC085 M05/M07 A2992 1070 84 -1000 320/17 RMK AO2 UPE1058FZRAB05 P0000 TSNO
94908KDBQ DBQ20020201051013602/01/02 05:10:31  5-MIN KDBQ 011110Z AUTO 32018KT 8SM -FZRA OVC016 M05/M07 A2993 1070 84 -1000 320/18 RMK AO2 UPE1058FZRAB05 P0000 TSNO
94908KDBQ DBQ20020201051513602/01/02 05:15:31  5-MIN KDBQ 011115Z AUTO 32019KT 7SM -FZRA OVC014 M05/M07 A2993 1060 84 -1100 320/19 RMK AO2 UPE1058FZRAB05 P0000 TSNO
94908KDBQ DBQ20020201052014202/01/02 05:20:31  5-MIN KDBQ 011120Z AUTO 32014G22KT 8SM -FZRA OVC014 M05/M07 A2994 1060 84 -1100 320/14G22 RMK AO2 UPE1058FZRAB05 P0000 TSNO
94908KDBQ DBQ20020201052514202/01/02 05:25:31  5-MIN KDBQ 011125Z AUTO 32016G22KT 9SM -FZRA OVC014 M05/M07 A2994 1060 84 -1100 320/16G22 RMK AO2 UPE1058FZRAB05 P0000 TSNO
94908KDBQ DBQ20020201053014602/01/02 05:30:31  5-MIN KDBQ 011130Z AUTO 32014G22KT 10SM UP OVC014 M05/M07 A2995 1050 84 -1100 320/14G22 RMK AO2 UPE1058B27FZRAB05E27 P0000 TSNO
94908KDBQ DBQ20020201053514902/01/02 05:35:31  5-MIN KDBQ 011135Z AUTO 32013KT 10SM -FZRA OVC014 M05/M07 A2995 1050 84 -1100 320/13 RMK AO2 UPE1058B27E32FZRAB05E27B32 P0000 TSNO
94908KDBQ DBQ20020201054014902/01/02 05:40:31  5-MIN KDBQ 011140Z AUTO 31012KT 10SM -FZRA OVC014 M05/M07 A2996 1040 84 -1100 310/12 RMK AO2 UPE1058B27E32FZRAB05E27B32 P0000 TSNO
94908KDBQ DBQ20020201054515502/01/02 05:45:31  5-MIN KDBQ 011145Z AUTO 31015G21KT 10SM -FZRA OVC014 M05/M07 A2996 1040 84 -1100 310/15G21 RMK AO2 UPE1058B27E32FZRAB05E27B32 P0000 TSNO
94908KDBQ DBQ20020201055019202/01/02 05:50:31  5-MIN KDBQ 011150Z 31015G24KT 10SM -FZRA OVC016 M05/M07 A2996 1040 84 -1100 310/15G24 RMK AO2 UPE1058B27E32FZRAB05E27B32 SLP161 P0000 60000 70009 T10501072 11039 21050 53019
94908KDBQ DBQ20020201055519202/01/02 05:55:31  5-MIN KDBQ 011155Z 32012G24KT 10SM -FZRA OVC016 M05/M07 A2997 1040 84 -1100 320/12G24 RMK AO2 UPE1058B27E32FZRAB05E27B32 SLP162 P0000 60000 70009 T10501072 11039 21050 53047
94908KDBQ DBQ20020201060012202/01/02 06:00:31  5-MIN KDBQ 011200Z 32015KT 10SM UP OVC016 M05/M07 A2997 1030 84 -1100 320/15 RMK AO2 UPB00FZRAE00 P0000
94908KDBQ DBQ20020201060513002/01/02 06:05:31  5-MIN KDBQ 011205Z 31016KT 9SM -FZRA OVC016 M05/M07 A2998 1020 84 -1100 310/16 RMK AO2 UPB00E01FZRAE00B05 P0000
94908KDBQ DBQ20020201061013002/01/02 06:10:31  5-MIN KDBQ 011210Z 31014KT 9SM -FZRA OVC016 M05/M07 A2998 1020 84 -1100 310/14 RMK AO2 UPB00E01FZRAE00B05 P0000
94908KDBQ DBQ20020201061513102/01/02 06:15:31  5-MIN KDBQ 011215Z 31014KT 10SM -FZRA OVC016 M05/M07 A2999 1020 84 -1100 300/14 RMK AO2 UPB00E01FZRAE00B05 P0000
94908KDBQ DBQ20020201062013802/01/02 06:20:31  5-MIN KDBQ 011220Z 31013KT 10SM -FZRA OVC016 M05/M08 A3000 1010 81 -1100 310/13 RMK AO2 UPB00E01FZRAE00B05 PRESRR P0000
94908KDBQ DBQ20020201062513502/01/02 06:25:31  5-MIN KDBQ 011225Z 31015KT 10SM OVC016 M05/M08 A3000 1000 81 -1100 310/15 RMK AO2 UPB00E01FZRAE00B05E24 PRESRR P0000
94908KDBQ DBQ20020201063013502/01/02 06:30:31  5-MIN KDBQ 011230Z 31015KT 10SM OVC016 M05/M08 A3001 1000 81 -1100 310/15 RMK AO2 UPB00E01FZRAE00B05E24 PRESRR P0000
94908KDBQ DBQ20020201063512702/01/02 06:35:31  5-MIN KDBQ 011235Z 31013KT 10SM OVC016 M05/M08 A3001 990 81 -1100 310/13 RMK AO2 UPB00E01FZRAE00B05E24 P0000
94908KDBQ DBQ20020201064013402/01/02 06:40:31  5-MIN KDBQ 011240Z 31015KT 10SM OVC016 M05/M08 A3002 990 81 -1100 310/15 RMK AO2 UPB00E01FZRAE00B05E24 PRESRR P0000
94908KDBQ DBQ20020201064512702/01/02 06:45:31  5-MIN KDBQ 011245Z 31014KT 10SM OVC016 M05/M08 A3002 980 81 -1200 300/14 RMK AO2 UPB00E01FZRAE00B05E24 P0000
94908KDBQ DBQ20020201065015102/01/02 06:50:31  5-MIN KDBQ 011250Z 31015KT 10SM OVC016 M06/M08 A3003 980 84 -1200 310/15 RMK AO2 UPB00E01FZRAE00B05E24 PRESRR SLP184 P0000 T10561078
94908KDBQ DBQ20020201065514402/01/02 06:55:31  5-MIN KDBQ 011255Z 31015KT 10SM OVC016 M06/M08 A3004 970 84 -1200 310/15 RMK AO2 UPB00E01FZRAE00B05E24 SLP186 P0000 T10561078
94908KDBQ DBQ20020201070009902/01/02 07:00:31  5-MIN KDBQ 011300Z 31016KT 10SM OVC016 M06/M08 A3004 970 84 -1200 310/16 RMK AO2
94908KDBQ DBQ20020201070509902/01/02 07:05:31  5-MIN KDBQ 011305Z 31015KT 10SM OVC016 M06/M08 A3005 960 84 -1300 300/15 RMK AO2
94908KDBQ DBQ20020201071010502/01/02 07:10:31  5-MIN KDBQ 011310Z 31017G21KT 10SM OVC016 M06/M08 A3005 960 84 -1300 310/17G21 RMK AO2
94908KDBQ DBQ20020201071510502/01/02 07:15:31  5-MIN KDBQ 011315Z 31017G21KT 10SM OVC018 M06/M08 A3005 950 84 -1300 310/17G21 RMK AO2
94908KDBQ DBQ20020201072009802/01/02 07:20:31  5-MIN KDBQ 011320Z 31016KT 9SM OVC018 M06/M08 A3006 950 84 -1300 310/16 RMK AO2
94908KDBQ DBQ20020201072509802/01/02 07:25:31  5-MIN KDBQ 011325Z 31014KT 9SM OVC018 M06/M08 A3006 950 84 -1300 310/14 RMK AO2
94908KDBQ DBQ20020201073009902/01/02 07:30:31  5-MIN KDBQ 011330Z 32014KT 10SM OVC018 M06/M08 A3007 940 84 -1300 310/14 RMK AO2
94908KDBQ DBQ20020201073510402/01/02 07:35:31  5-MIN KDBQ 011335Z 31016G22KT 9SM OVC018 M06/M08 A3007 940 84 -1300 310/16G22 RMK AO2
94908KDBQ DBQ20020201074010402/01/02 07:40:31  5-MIN KDBQ 011340Z 32014G22KT 9SM OVC018 M06/M08 A3007 940 84 -1300 320/14G22 RMK AO2
94908KDBQ DBQ20020201074509902/01/02 07:45:31  5-MIN KDBQ 011345Z 32013KT 10SM OVC018 M06/M08 A3007 940 84 -1300 320/13 RMK AO2
94908KDBQ DBQ20020201075011602/01/02 07:50:31  5-MIN KDBQ 011350Z 32017KT 10SM OVC018 M06/M08 A3008 930 84 -1300 320/17 RMK AO2 SLP201 T10561078
94908KDBQ DBQ20020201075512902/01/02 07:55:31  5-MIN KDBQ 011355Z 32016G23KT 10SM OVC018 M05/M08 A3009 920 81 -1200 320/16G23 RMK AO2 PRESRR SLP204 T10501078
94908KDBQ DBQ20020201080010502/01/02 08:00:31  5-MIN KDBQ 011400Z 32016G23KT 10SM OVC018 M05/M08 A3009 920 81 -1200 320/16G23 RMK AO2
94908KDBQ DBQ20020201080510602/01/02 08:05:31  5-MIN KDBQ 011405Z 32015KT 10SM OVC018 M05/M08 A3010 910 81 -1200 320/15 RMK AO2 PRESRR
94908KDBQ DBQ20020201081009902/01/02 08:10:31  5-MIN KDBQ 011410Z 32015KT 10SM OVC018 M05/M08 A3010 910 81 -1200 320/15 RMK AO2
94908KDBQ DBQ20020201081509902/01/02 08:15:31  5-MIN KDBQ 011415Z 32014KT 10SM OVC018 M05/M08 A3010 910 81 -1200 320/14 RMK AO2
94908KDBQ DBQ20020201082009902/01/02 08:20:31  5-MIN KDBQ 011420Z 32014KT 10SM OVC018 M05/M08 A3011 910 81 -1300 320/14 RMK AO2
94908KDBQ DBQ20020201082509902/01/02 08:25:31  5-MIN KDBQ 011425Z 32013KT 10SM OVC018 M05/M08 A3011 900 81 -1300 320/13 RMK AO2
94908KDBQ DBQ20020201083009902/01/02 08:30:31  5-MIN KDBQ 011430Z 32016KT 10SM OVC018 M05/M08 A3012 900 81 -1300 320/16 RMK AO2
94908KDBQ DBQ20020201083509902/01/02 08:35:31  5-MIN KDBQ 011435Z 33015KT 10SM OVC018 M05/M08 A3012 890 81 -1300 330/15 RMK AO2
94908KDBQ DBQ20020201084011602/01/02 08:40:31  5-MIN KDBQ 011440Z 33015KT 10SM OVC018 M05/M08 A3012 890 81 -1300 330/15 RMK AO2 FZRAB37E38 P0000
94908KDBQ DBQ20020201084511602/01/02 08:45:31  5-MIN KDBQ 011445Z 32015KT 10SM OVC018 M05/M08 A3013 890 81 -1300 320/15 RMK AO2 FZRAB37E38 P0000
94908KDBQ DBQ20020201085014502/01/02 08:50:31  5-MIN KDBQ 011450Z 33015KT 10SM OVC018 M05/M08 A3013 880 81 -1300 330/15 RMK AO2 FZRAB37E38 SLP218 P0000 60000 T10501078 53047
94908KDBQ DBQ20020201085514502/01/02 08:55:31  5-MIN KDBQ 011455Z 33014KT 10SM OVC018 M05/M08 A3014 880 81 -1300 330/14 RMK AO2 FZRAB37E38 SLP220 P0000 60000 T10501078 51056
94908KDBQ DBQ20020201090009902/01/02 09:00:31  5-MIN KDBQ 011500Z 33012KT 10SM OVC018 M05/M08 A3014 880 81 -1300 330/12 RMK AO2
94908KDBQ DBQ20020201090509902/01/02 09:05:31  5-MIN KDBQ 011505Z 33013KT 10SM OVC018 M04/M08 A3014 870 78 -1200 330/13 RMK AO2
94908KDBQ DBQ20020201091009902/01/02 09:10:31  5-MIN KDBQ 011510Z 33013KT 10SM OVC018 M04/M08 A3015 870 78 -1200 330/13 RMK AO2
94908KDBQ DBQ20020201091509902/01/02 09:15:31  5-MIN KDBQ 011515Z 32013KT 10SM OVC018 M04/M08 A3015 870 78 -1200 320/13 RMK AO2
94908KDBQ DBQ20020201092009902/01/02 09:20:31  5-MIN KDBQ 011520Z 32014KT 10SM OVC018 M04/M08 A3015 860 78 -1200 320/14 RMK AO2
94908KDBQ DBQ20020201092509902/01/02 09:25:31  5-MIN KDBQ 011525Z 33011KT 10SM OVC018 M05/M08 A3016 860 81 -1300 320/11 RMK AO2
94908KDBQ DBQ20020201093009902/01/02 09:30:31  5-MIN KDBQ 011530Z 32012KT 10SM OVC018 M05/M08 A3016 860 81 -1300 320/12 RMK AO2
94908KDBQ DBQ20020201093509902/01/02 09:35:31  5-MIN KDBQ 011535Z 32011KT 10SM BKN018 M04/M08 A3017 850 78 -1200 320/11 RMK AO2
94908KDBQ DBQ20020201094009902/01/02 09:40:31  5-MIN KDBQ 011540Z 32010KT 10SM BKN018 M04/M08 A3017 850 78 -1300 320/10 RMK AO2
94908KDBQ DBQ20020201094509902/01/02 09:45:31  5-MIN KDBQ 011545Z 32010KT 10SM SCT018 M04/M08 A3017 840 78 -1300 320/10 RMK AO2
94908KDBQ DBQ20020201095011602/01/02 09:50:31  5-MIN KDBQ 011550Z 32012KT 10SM FEW018 M04/M08 A3018 840 78 -1300 320/12 RMK AO2 SLP235 T10441078
94908KDBQ DBQ20020201095511602/01/02 09:55:31  5-MIN KDBQ 011555Z 32009KT 10SM FEW018 M04/M08 A3018 840 78 -1300 320/09 RMK AO2 SLP236 T10441078
94908KDBQ DBQ20020201100009902/01/02 10:00:31  5-MIN KDBQ 011600Z 31011KT 10SM FEW018 M04/M08 A3019 830 78 -1300 310/11 RMK AO2
94908KDBQ DBQ20020201100509602/01/02 10:05:31  5-MIN KDBQ 011605Z 30009KT 10SM CLR M04/M08 A3019 830 78 -1300 300/09 RMK AO2
94908KDBQ DBQ20020201101009902/01/02 10:10:31  5-MIN KDBQ 011610Z 31010KT 10SM FEW017 M04/M08 A3019 830 78 -1300 310/10 RMK AO2
94908KDBQ DBQ20020201101509902/01/02 10:15:31  5-MIN KDBQ 011615Z 32011KT 10SM FEW017 M04/M08 A3020 820 78 -1300 320/11 RMK AO2
94908KDBQ DBQ20020201102009602/01/02 10:20:31  5-MIN KDBQ 011620Z 31009KT 10SM CLR M04/M08 A3020 820 78 -1300 300/09 RMK AO2
94908KDBQ DBQ20020201102509602/01/02 10:25:31  5-MIN KDBQ 011625Z 30011KT 10SM CLR M04/M07 A3020 820 78 -1200 300/11 RMK AO2
94908KDBQ DBQ20020201103009602/01/02 10:30:31  5-MIN KDBQ 011630Z 30009KT 10SM CLR M04/M08 A3020 820 74 -1200 300/09 RMK AO2
94908KDBQ DBQ20020201103509902/01/02 10:35:31  5-MIN KDBQ 011635Z 31010KT 10SM FEW018 M04/M08 A3021 810 74 -1200 310/10 RMK AO2
94908KDBQ DBQ20020201104009602/01/02 10:40:31  5-MIN KDBQ 011640Z 30008KT 10SM CLR M04/M08 A3021 810 74 -1200 300/08 RMK AO2
94908KDBQ DBQ20020201104509602/01/02 10:45:31  5-MIN KDBQ 011645Z 30008KT 10SM CLR M04/M08 A3021 810 74 -1200 300/08 RMK AO2
94908KDBQ DBQ20020201105013302/01/02 10:50:31  5-MIN KDBQ 011650Z 31008KT 10SM FEW019 M04/M08 A3022 810 74 -1200 310/08 RMK AO2 FZRAB47E48 SLP248 P0000 T10391078
94908KDBQ DBQ20020201105513302/01/02 10:55:31  5-MIN KDBQ 011655Z 30008KT 10SM FEW019 M04/M08 A3022 800 74 -1200 300/08 RMK AO2 FZRAB47E48 SLP249 P0000 T10391078
94908KDBQ DBQ20020201110009602/01/02 11:00:31  5-MIN KDBQ 011700Z 30010KT 10SM CLR M04/M08 A3022 800 74 -1200 300/10 RMK AO2
94908KDBQ DBQ20020201110509602/01/02 11:05:31  5-MIN KDBQ 011705Z 30011KT 10SM CLR M04/M08 A3022 800 74 -1200 300/11 RMK AO2
94908KDBQ DBQ20020201111009602/01/02 11:10:31  5-MIN KDBQ 011710Z 31010KT 10SM CLR M04/M08 A3022 800 74 -1200 310/10 RMK AO2
94908KDBQ DBQ20020201111509602/01/02 11:15:31  5-MIN KDBQ 011715Z 32011KT 10SM CLR M04/M08 A3023 800 74 -1200 320/11 RMK AO2
94908KDBQ DBQ20020201112009602/01/02 11:20:31  5-MIN KDBQ 011720Z 30010KT 10SM CLR M03/M08 A3022 800 71 -1200 300/10 RMK AO2
94908KDBQ DBQ20020201112509602/01/02 11:25:31  5-MIN KDBQ 011725Z 31010KT 10SM CLR M03/M08 A3022 800 71 -1200 310/10 RMK AO2
94908KDBQ DBQ20020201113009602/01/02 11:30:31  5-MIN KDBQ 011730Z 31009KT 10SM CLR M03/M08 A3022 800 71 -1200 310/09 RMK AO2
94908KDBQ DBQ20020201113509602/01/02 11:35:31  5-MIN KDBQ 011735Z 32011KT 10SM CLR M03/M08 A3022 800 71 -1200 310/11 RMK AO2
94908KDBQ DBQ20020201114009602/01/02 11:40:31  5-MIN KDBQ 011740Z 31010KT 10SM CLR M03/M08 A3023 800 71 -1200 310/10 RMK AO2
94908KDBQ DBQ20020201114509602/01/02 11:45:31  5-MIN KDBQ 011745Z 31011KT 10SM CLR M03/M08 A3023 800 71 -1200 310/11 RMK AO2
94908KDBQ DBQ20020201115013702/01/02 11:50:31  5-MIN KDBQ 011750Z 31008KT 10SM CLR M03/M08 A3023 800 71 -1200 310/08 RMK AO2 SLP251 60000 T10331078 11033 21056 51056
94908KDBQ DBQ20020201115513702/01/02 11:55:31  5-MIN KDBQ 011755Z 31010KT 10SM CLR M03/M07 A3023 800 71 -1100 310/10 RMK AO2 SLP251 60000 T10281072 11028 21056 51030
94908KDBQ DBQ20020201120009602/01/02 12:00:31  5-MIN KDBQ 011800Z 31009KT 10SM CLR M03/M08 A3023 790 68 -1100 310/09 RMK AO2
94908KDBQ DBQ20020201120509602/01/02 12:05:31  5-MIN KDBQ 011805Z 31010KT 10SM CLR M03/M07 A3023 790 71 -1100 310/10 RMK AO2
94908KDBQ DBQ20020201121009602/01/02 12:10:31  5-MIN KDBQ 011810Z 29008KT 10SM CLR M03/M08 A3023 790 68 -1100 290/08 RMK AO2
94908KDBQ DBQ20020201121509602/01/02 12:15:31  5-MIN KDBQ 011815Z 30006KT 10SM CLR M03/M07 A3023 790 71 -1100 300/06 RMK AO2
94908KDBQ DBQ20020201122009602/01/02 12:20:31  5-MIN KDBQ 011820Z 31009KT 10SM CLR M03/M07 A3023 790 71 -1100 310/09 RMK AO2
94908KDBQ DBQ20020201122509602/01/02 12:25:31  5-MIN KDBQ 011825Z 29009KT 10SM CLR M03/M07 A3023 790 71 -1100 280/09 RMK AO2
94908KDBQ DBQ20020201123009602/01/02 12:30:31  5-MIN KDBQ 011830Z 29009KT 10SM CLR M03/M07 A3023 790 71 -1100 290/09 RMK AO2
94908KDBQ DBQ20020201123509602/01/02 12:35:31  5-MIN KDBQ 011835Z 29008KT 10SM CLR M03/M07 A3024 790 71 -1100 290/08 RMK AO2
94908KDBQ DBQ20020201124009602/01/02 12:40:31  5-MIN KDBQ 011840Z 28008KT 10SM CLR M03/M07 A3024 790 71 -1100 280/08 RMK AO2
94908KDBQ DBQ20020201124509602/01/02 12:45:31  5-MIN KDBQ 011845Z 29010KT 10SM CLR M03/M07 A3024 780 71 -1100 280/10 RMK AO2
94908KDBQ DBQ20020201125011302/01/02 12:50:31  5-MIN KDBQ 011850Z 27009KT 10SM CLR M03/M07 A3024 780 71 -1100 270/09 RMK AO2 SLP256 T10281072
94908KDBQ DBQ20020201125511302/01/02 12:55:31  5-MIN KDBQ 011855Z 28010KT 10SM CLR M03/M07 A3024 780 71 -1100 280/10 RMK AO2 SLP256 T10281072
94908KDBQ DBQ20020201130009602/01/02 13:00:31  5-MIN KDBQ 011900Z 28010KT 10SM CLR M03/M07 A3024 780 71 -1100 280/10 RMK AO2
94908KDBQ DBQ20020201130509602/01/02 13:05:31  5-MIN KDBQ 011905Z 28010KT 10SM CLR M03/M07 A3025 780 71 -1100 270/10 RMK AO2
94908KDBQ DBQ20020201131009602/01/02 13:10:31  5-MIN KDBQ 011910Z 29009KT 10SM CLR M02/M08 A3025 780 66 -1100 290/09 RMK AO2
94908KDBQ DBQ20020201131509602/01/02 13:15:31  5-MIN KDBQ 011915Z 29010KT 10SM CLR M02/M08 A3025 770 66 -1100 290/10 RMK AO2
94908KDBQ DBQ20020201132009602/01/02 13:20:31  5-MIN KDBQ 011920Z 29013KT 10SM CLR M02/M08 A3025 770 66 -1100 280/13 RMK AO2
94908KDBQ DBQ20020201132509602/01/02 13:25:31  5-MIN KDBQ 011925Z 29012KT 10SM CLR M02/M08 A3025 770 66 -1100 290/12 RMK AO2
94908KDBQ DBQ20020201133009602/01/02 13:30:31  5-MIN KDBQ 011930Z 29010KT 10SM CLR M02/M08 A3025 770 66 -1100 290/10 RMK AO2
94908KDBQ DBQ20020201133509602/01/02 13:35:31  5-MIN KDBQ 011935Z 28011KT 10SM CLR M02/M08 A3026 770 66 -1100 280/11 RMK AO2
94908KDBQ DBQ20020201134009602/01/02 13:40:31  5-MIN KDBQ 011940Z 27011KT 10SM CLR M03/M07 A3026 770 71 -1100 260/11 RMK AO2
94908KDBQ DBQ20020201134509602/01/02 13:45:31  5-MIN KDBQ 011945Z 27009KT 10SM CLR M03/M07 A3026 770 71 -1100 260/09 RMK AO2
94908KDBQ DBQ20020201135011302/01/02 13:50:31  5-MIN KDBQ 011950Z 27011KT 10SM CLR M03/M07 A3026 770 71 -1100 260/11 RMK AO2 SLP262 T10281072
94908KDBQ DBQ20020201135511302/01/02 13:55:31  5-MIN KDBQ 011955Z 26011KT 10SM CLR M03/M07 A3026 760 71 -1100 260/11 RMK AO2 SLP263 T10281072
94908KDBQ DBQ20020201140009602/01/02 14:00:31  5-MIN KDBQ 012000Z 27011KT 10SM CLR M03/M07 A3026 760 71 -1100 270/11 RMK AO2
94908KDBQ DBQ20020201140509602/01/02 14:05:31  5-MIN KDBQ 012005Z 26011KT 10SM CLR M03/M07 A3026 760 71 -1100 260/11 RMK AO2
94908KDBQ DBQ20020201141009602/01/02 14:10:31  5-MIN KDBQ 012010Z 26011KT 10SM CLR M03/M07 A3027 760 71 -1200 260/11 RMK AO2
94908KDBQ DBQ20020201141509602/01/02 14:15:31  5-MIN KDBQ 012015Z 26011KT 10SM CLR M03/M07 A3027 760 71 -1200 260/11 RMK AO2
94908KDBQ DBQ20020201142009602/01/02 14:20:31  5-MIN KDBQ 012020Z 26010KT 10SM CLR M03/M07 A3027 750 71 -1200 260/10 RMK AO2
94908KDBQ DBQ20020201142509602/01/02 14:25:31  5-MIN KDBQ 012025Z 26012KT 10SM CLR M03/M07 A3028 750 71 -1200 260/12 RMK AO2
94908KDBQ DBQ20020201143009602/01/02 14:30:31  5-MIN KDBQ 012030Z 26009KT 10SM CLR M03/M07 A3028 750 71 -1200 260/09 RMK AO2
94908KDBQ DBQ20020201143509602/01/02 14:35:31  5-MIN KDBQ 012035Z 27010KT 10SM CLR M03/M07 A3028 750 71 -1200 270/10 RMK AO2
94908KDBQ DBQ20020201144009602/01/02 14:40:31  5-MIN KDBQ 012040Z 26011KT 10SM CLR M03/M07 A3028 750 71 -1200 260/11 RMK AO2
94908KDBQ DBQ20020201144509602/01/02 14:45:31  5-MIN KDBQ 012045Z 26011KT 10SM CLR M03/M07 A3029 740 74 -1200 260/11 RMK AO2
94908KDBQ DBQ20020201145011902/01/02 14:50:31  5-MIN KDBQ 012050Z 26012KT 10SM CLR M03/M07 A3029 740 74 -1200 260/12 RMK AO2 SLP273 T10331072 51030
94908KDBQ DBQ20020201145511902/01/02 14:55:31  5-MIN KDBQ 012055Z 26011KT 10SM CLR M03/M08 A3029 740 71 -1200 260/11 RMK AO2 SLP274 T10331078 53021
94908KDBQ DBQ20020201150009602/01/02 15:00:31  5-MIN KDBQ 012100Z 26013KT 10SM CLR M03/M07 A3029 730 74 -1300 260/13 RMK AO2
94908KDBQ DBQ20020201150509602/01/02 15:05:31  5-MIN KDBQ 012105Z 26011KT 10SM CLR M03/M08 A3029 730 71 -1300 260/11 RMK AO2
94908KDBQ DBQ20020201151009602/01/02 15:10:31  5-MIN KDBQ 012110Z 27014KT 10SM CLR M03/M08 A3030 730 71 -1300 270/14 RMK AO2
94908KDBQ DBQ20020201151509602/01/02 15:15:31  5-MIN KDBQ 012115Z 27014KT 10SM CLR M03/M08 A3030 730 71 -1300 270/14 RMK AO2
94908KDBQ DBQ20020201152009602/01/02 15:20:31  5-MIN KDBQ 012120Z 27013KT 10SM CLR M03/M08 A3030 730 71 -1300 270/13 RMK AO2
94908KDBQ DBQ20020201152509602/01/02 15:25:31  5-MIN KDBQ 012125Z 27013KT 10SM CLR M03/M08 A3030 720 71 -1300 270/13 RMK AO2
94908KDBQ DBQ20020201153009602/01/02 15:30:31  5-MIN KDBQ 012130Z 27012KT 10SM CLR M04/M08 A3031 720 74 -1300 270/12 RMK AO2
94908KDBQ DBQ20020201153509602/01/02 15:35:31  5-MIN KDBQ 012135Z 28010KT 10SM CLR M04/M08 A3031 720 74 -1300 280/10 RMK AO2
94908KDBQ DBQ20020201154009602/01/02 15:40:31  5-MIN KDBQ 012140Z 27010KT 10SM CLR M04/M08 A3032 710 74 -1300 270/10 RMK AO2
94908KDBQ DBQ20020201154509602/01/02 15:45:31  5-MIN KDBQ 012145Z 27011KT 10SM CLR M04/M08 A3032 710 74 -1300 270/11 RMK AO2
94908KDBQ DBQ20020202111010102/02/02 11:10:31  5-MIN KDBQ 021710Z 19013KT 5SM BR SCT005 M06/M07 A3025 770 92 -1600 190/13 RMK AO2
94908KDBQ DBQ20020202111510102/02/02 11:15:31  5-MIN KDBQ 021715Z 19012KT 5SM BR FEW005 M06/M07 A3025 780 96 -1600 190/12 RMK AO2
94908KDBQ DBQ20020202112010102/02/02 11:20:31  5-MIN KDBQ 021720Z 20012KT 5SM BR FEW005 M06/M07 A3024 780 96 -1600 190/12 RMK AO2
94908KDBQ DBQ20020202112510102/02/02 11:25:31  5-MIN KDBQ 021725Z 19012KT 5SM BR FEW005 M06/M07 A3024 780 96 -1500 190/12 RMK AO2
94908KDBQ DBQ20020202113010102/02/02 11:30:31  5-MIN KDBQ 021730Z 19013KT 5SM BR FEW005 M06/M07 A3024 790 92 -1500 190/13 RMK AO2
94908KDBQ DBQ20020202113510102/02/02 11:35:31  5-MIN KDBQ 021735Z 19012KT 5SM BR FEW005 M06/M07 A3024 790 92 -1500 190/12 RMK AO2
94908KDBQ DBQ20020202114010102/02/02 11:40:31  5-MIN KDBQ 021740Z 19011KT 5SM BR FEW005 M06/M07 A3024 780 92 -1500 190/11 RMK AO2
94908KDBQ DBQ20020202114510102/02/02 11:45:31  5-MIN KDBQ 021745Z 19012KT 5SM BR FEW005 M06/M07 A3024 790 92 -1500 190/12 RMK AO2
94908KDBQ DBQ20020202115013602/02/02 11:50:31  5-MIN KDBQ 021750Z 19012KT 5SM BR FEW005 M06/M07 A3023 790 92 -1500 190/12 RMK AO2 SLP259 T10561067 11056 21122 55010
94908KDBQ DBQ20020202115513602/02/02 11:55:31  5-MIN KDBQ 021755Z 19011KT 5SM BR FEW005 M06/M07 A3023 790 92 -1500 190/11 RMK AO2 SLP259 T10561067 11056 21122 56027
94908KDBQ DBQ20020202120010102/02/02 12:00:31  5-MIN KDBQ 021800Z 19011KT 5SM BR FEW005 M05/M06 A3023 790 92 -1400 190/11 RMK AO2
94908KDBQ DBQ20020202120510102/02/02 12:05:31  5-MIN KDBQ 021805Z 19013KT 5SM BR FEW005 M05/M06 A3022 800 92 -1400 190/13 RMK AO2
94908KDBQ DBQ20020202121009802/02/02 12:10:31  5-MIN KDBQ 021810Z 19012KT 5SM BR CLR M05/M07 A3022 800 88 -1400 190/12 RMK AO2
94908KDBQ DBQ20020202121509802/02/02 12:15:31  5-MIN KDBQ 021815Z 19013KT 6SM BR CLR M05/M07 A3022 800 88 -1400 190/13 RMK AO2
94908KDBQ DBQ20020202122009802/02/02 12:20:31  5-MIN KDBQ 021820Z 19013KT 6SM BR CLR M05/M07 A3022 800 88 -1400 190/13 RMK AO2
94908KDBQ DBQ20020202122509802/02/02 12:25:31  5-MIN KDBQ 021825Z 19013KT 6SM BR CLR M04/M07 A3022 810 84 -1300 190/13 RMK AO2
94908KDBQ DBQ20020202123009802/02/02 12:30:31  5-MIN KDBQ 021830Z 19013KT 6SM BR CLR M04/M07 A3021 810 84 -1300 190/13 RMK AO2
94908KDBQ DBQ20020202123509802/02/02 12:35:31  5-MIN KDBQ 021835Z 19013KT 6SM BR CLR M04/M07 A3020 820 84 -1300 190/13 RMK AO2
94908KDBQ DBQ20020202124010002/02/02 12:40:31  5-MIN KDBQ 021840Z 19013KT 6SM BR CLR M04/M07 A3020 820 84 -1300 190/13 RMK AO2 $
94908KDBQ DBQ20020202124510002/02/02 12:45:31  5-MIN KDBQ 021845Z 19013KT 6SM BR CLR M04/M07 A3020 820 84 -1300 190/13 RMK AO2 $
94908KDBQ DBQ20020202125011702/02/02 12:50:31  5-MIN KDBQ 021850Z 19012KT 6SM BR CLR M04/M06 A3020 820 88 -1300 190/12 RMK AO2 SLP247 T10441061 $
94908KDBQ DBQ20020202125511702/02/02 12:55:31  5-MIN KDBQ 021855Z 18013KT 6SM BR CLR M04/M06 A3020 820 85 -1200 180/13 RMK AO2 SLP246 T10391061 $
94908KDBQ DBQ20020202130010002/02/02 13:00:31  5-MIN KDBQ 021900Z 18013KT 6SM BR CLR M04/M06 A3020 820 85 -1200 180/13 RMK AO2 $
94908KDBQ DBQ20020202130509802/02/02 13:05:31  5-MIN KDBQ 021905Z 19013KT 6SM BR CLR M03/M06 A3019 830 85 -1100 180/13 RMK AO2
94908KDBQ DBQ20020202131009502/02/02 13:10:31  5-MIN KDBQ 021910Z 19015KT 7SM CLR M03/M06 A3019 830 85 -1100 180/15 RMK AO2
94908KDBQ DBQ20020202131509502/02/02 13:15:31  5-MIN KDBQ 021915Z 19014KT 7SM CLR M03/M06 A3019 830 81 -1100 190/14 RMK AO2
94908KDBQ DBQ20020202132009502/02/02 13:20:31  5-MIN KDBQ 021920Z 19015KT 8SM CLR M03/M06 A3019 830 81 -1100 190/15 RMK AO2
94908KDBQ DBQ20020202132509502/02/02 13:25:31  5-MIN KDBQ 021925Z 18015KT 8SM CLR M03/M06 A3019 830 81 -1100 180/15 RMK AO2
94908KDBQ DBQ20020202133009502/02/02 13:30:31  5-MIN KDBQ 021930Z 18015KT 8SM CLR M02/M06 A3019 830 78 -1000 180/15 RMK AO2
94908KDBQ DBQ20020202133509502/02/02 13:35:31  5-MIN KDBQ 021935Z 18014KT 8SM CLR M02/M06 A3019 830 78 -1000 180/14 RMK AO2
94908KDBQ DBQ20020202134009502/02/02 13:40:31  5-MIN KDBQ 021940Z 18014KT 9SM CLR M02/M06 A3019 830 78 -1000 180/14 RMK AO2
94908KDBQ DBQ20020202134509502/02/02 13:45:31  5-MIN KDBQ 021945Z 18013KT 9SM CLR M02/M06 A3018 830 78 -1000 180/13 RMK AO2
94908KDBQ DBQ20020202135011102/02/02 13:50:31  5-MIN KDBQ 021950Z 17013KT 7SM CLR M02/M06 A3018 840 75 -900 170/13 RMK AO2 SLP239 T10171056
94908KDBQ DBQ20020202135511102/02/02 13:55:31  5-MIN KDBQ 021955Z 18013KT 7SM CLR M02/M06 A3017 840 75 -900 180/13 RMK AO2 SLP237 T10171056
94908KDBQ DBQ20020202140009402/02/02 14:00:31  5-MIN KDBQ 022000Z 18012KT 8SM CLR M02/M06 A3017 850 75 -900 180/12 RMK AO2
94908KDBQ DBQ20020202140509402/02/02 14:05:31  5-MIN KDBQ 022005Z 18014KT 9SM CLR M02/M06 A3017 850 75 -900 180/14 RMK AO2
94908KDBQ DBQ20020202141009402/02/02 14:10:31  5-MIN KDBQ 022010Z 19013KT 9SM CLR M01/M06 A3017 850 72 -800 190/13 RMK AO2
94908KDBQ DBQ20020202141509402/02/02 14:15:31  5-MIN KDBQ 022015Z 19013KT 9SM CLR M01/M06 A3017 850 72 -800 190/13 RMK AO2
94908KDBQ DBQ20020202142009402/02/02 14:20:31  5-MIN KDBQ 022020Z 19014KT 9SM CLR M01/M05 A3017 850 75 -800 190/14 RMK AO2
94908KDBQ DBQ20020202142509402/02/02 14:25:31  5-MIN KDBQ 022025Z 19013KT 9SM CLR M01/M05 A3016 850 75 -800 190/13 RMK AO2
94908KDBQ DBQ20020202143009402/02/02 14:30:31  5-MIN KDBQ 022030Z 19016KT 9SM CLR M01/M06 A3016 850 72 -800 190/16 RMK AO2
94908KDBQ DBQ20020202143509402/02/02 14:35:31  5-MIN KDBQ 022035Z 19014KT 9SM CLR M01/M05 A3016 850 75 -800 190/14 RMK AO2
94908KDBQ DBQ20020202144009402/02/02 14:40:31  5-MIN KDBQ 022040Z 19013KT 9SM CLR M01/M05 A3016 860 75 -800 190/13 RMK AO2
94908KDBQ DBQ20020202144509402/02/02 14:45:31  5-MIN KDBQ 022045Z 19015KT 9SM CLR M01/M05 A3016 860 75 -800 190/15 RMK AO2
94908KDBQ DBQ20020202145011702/02/02 14:50:31  5-MIN KDBQ 022050Z 19014KT 9SM CLR M01/M05 A3016 860 72 -700 190/14 RMK AO2 SLP232 T10061050 56027
94908KDBQ DBQ20020202145511702/02/02 14:55:31  5-MIN KDBQ 022055Z 19013KT 9SM CLR M01/M05 A3016 860 72 -700 190/13 RMK AO2 SLP232 T10061050 56026
94908KDBQ DBQ20020202150009402/02/02 15:00:31  5-MIN KDBQ 022100Z 19014KT 9SM CLR M01/M05 A3015 860 72 -700 190/14 RMK AO2
94908KDBQ DBQ20020202150509402/02/02 15:05:31  5-MIN KDBQ 022105Z 19015KT 9SM CLR M01/M05 A3015 860 72 -700 190/15 RMK AO2
94908KDBQ DBQ20020202151009402/02/02 15:10:31  5-MIN KDBQ 022110Z 19015KT 9SM CLR M01/M05 A3015 860 72 -700 190/15 RMK AO2
94908KDBQ DBQ20020202151509502/02/02 15:15:31  5-MIN KDBQ 022115Z 19016KT 10SM CLR M01/M06 A3015 860 69 -700 190/16 RMK AO2
94908KDBQ DBQ20020202152009502/02/02 15:20:31  5-MIN KDBQ 022120Z 19016KT 10SM CLR M01/M05 A3016 860 72 -700 190/16 RMK AO2
94908KDBQ DBQ20020202152509502/02/02 15:25:31  5-MIN KDBQ 022125Z 19011KT 10SM CLR M01/M05 A3016 860 72 -700 190/11 RMK AO2
94908KDBQ DBQ20020202153009702/02/02 15:30:31  5-MIN KDBQ 022130Z 19015KT 9SM FEW060 M01/M05 A3016 860 75 -800 190/15 RMK AO2
94908KDBQ DBQ20020202153509702/02/02 15:35:31  5-MIN KDBQ 022135Z 19015KT 9SM SCT060 M01/M05 A3015 860 72 -700 190/15 RMK AO2
94908KDBQ DBQ20020202154009702/02/02 15:40:31  5-MIN KDBQ 022140Z 19013KT 9SM BKN060 M01/M05 A3015 870 72 -700 190/13 RMK AO2
94908KDBQ DBQ20020202154509702/02/02 15:45:31  5-MIN KDBQ 022145Z 18014KT 9SM BKN060 M01/M05 A3014 870 72 -700 180/14 RMK AO2
94908KDBQ DBQ20020202155011502/02/02 15:50:31  5-MIN KDBQ 022150Z 19014KT 10SM BKN060 M01/M05 A3014 870 72 -700 190/14 RMK AO2 SLP227 T10061050
94908KDBQ DBQ20020202155511502/02/02 15:55:31  5-MIN KDBQ 022155Z 19015KT 10SM OVC060 M01/M04 A3014 880 75 -700 190/15 RMK AO2 SLP225 T10061044
94908KDBQ DBQ20020202160009802/02/02 16:00:31  5-MIN KDBQ 022200Z 19015KT 10SM OVC060 M01/M04 A3013 880 75 -700 190/15 RMK AO2
94908KDBQ DBQ20020202160509802/02/02 16:05:31  5-MIN KDBQ 022205Z 19016KT 10SM BKN060 M01/M05 A3013 890 72 -700 190/16 RMK AO2
94908KDBQ DBQ20020202161009802/02/02 16:10:31  5-MIN KDBQ 022210Z 19016KT 10SM BKN060 M01/M05 A3013 890 72 -700 190/16 RMK AO2
94908KDBQ DBQ20020202161509802/02/02 16:15:31  5-MIN KDBQ 022215Z 19017KT 10SM OVC065 M01/M05 A3012 890 72 -700 190/17 RMK AO2
94908KDBQ DBQ20020202162009702/02/02 16:20:31  5-MIN KDBQ 022220Z 19018KT 9SM BKN065 M01/M05 A3012 900 72 -700 190/18 RMK AO2
94908KDBQ DBQ20020202162509802/02/02 16:25:31  5-MIN KDBQ 022225Z 19019KT 10SM BKN065 M01/M05 A3012 900 72 -700 190/19 RMK AO2
94908KDBQ DBQ20020202163009802/02/02 16:30:31  5-MIN KDBQ 022230Z 19017KT 10SM SCT065 M01/M06 A3012 900 69 -700 190/17 RMK AO2
94908KDBQ DBQ20020202163509802/02/02 16:35:31  5-MIN KDBQ 022235Z 19017KT 10SM SCT065 M01/M05 A3012 900 72 -700 190/17 RMK AO2
94908KDBQ DBQ20020202164009802/02/02 16:40:31  5-MIN KDBQ 022240Z 19017KT 10SM FEW065 M01/M05 A3011 900 72 -700 190/17 RMK AO2
94908KDBQ DBQ20020202164509802/02/02 16:45:31  5-MIN KDBQ 022245Z 19017KT 10SM FEW065 M01/M05 A3011 910 72 -700 190/17 RMK AO2
94908KDBQ DBQ20020202165011202/02/02 16:50:31  5-MIN KDBQ 022250Z 19018KT 10SM CLR M01/M05 A3011 900 72 -700 190/18 RMK AO2 SLP216 T10061050
94908KDBQ DBQ20020202165511202/02/02 16:55:31  5-MIN KDBQ 022255Z 19017KT 10SM CLR M01/M05 A3011 910 72 -700 190/17 RMK AO2 SLP215 T10061050
94908KDBQ DBQ20020202170009502/02/02 17:00:31  5-MIN KDBQ 022300Z 19016KT 10SM CLR M01/M05 A3010 910 72 -700 190/16 RMK AO2
94908KDBQ DBQ20020202170509502/02/02 17:05:31  5-MIN KDBQ 022305Z 19016KT 10SM CLR M01/M05 A3010 920 75 -700 190/16 RMK AO2
94908KDBQ DBQ20020202171009502/02/02 17:10:31  5-MIN KDBQ 022310Z 19016KT 10SM CLR M01/M06 A3009 920 72 -700 190/16 RMK AO2
94908KDBQ DBQ20020202171509502/02/02 17:15:31  5-MIN KDBQ 022315Z 19018KT 10SM CLR M01/M05 A3009 930 75 -700 190/18 RMK AO2
94908KDBQ DBQ20020202172009502/02/02 17:20:31  5-MIN KDBQ 022320Z 19017KT 10SM CLR M01/M05 A3008 930 75 -700 190/17 RMK AO2
94908KDBQ DBQ20020202172509502/02/02 17:25:31  5-MIN KDBQ 022325Z 19017KT 10SM CLR M01/M05 A3008 930 75 -700 190/17 RMK AO2
94908KDBQ DBQ20020202173009502/02/02 17:30:31  5-MIN KDBQ 022330Z 20016KT 10SM CLR M01/M05 A3009 930 75 -700 200/16 RMK AO2
94908KDBQ DBQ20020202173509502/02/02 17:35:31  5-MIN KDBQ 022335Z 20016KT 10SM CLR M02/M05 A3009 920 78 -800 200/16 RMK AO2
94908KDBQ DBQ20020202174009502/02/02 17:40:31  5-MIN KDBQ 022340Z 20015KT 10SM CLR M01/M05 A3009 920 75 -700 200/15 RMK AO2
94908KDBQ DBQ20020202174509502/02/02 17:45:31  5-MIN KDBQ 022345Z 20015KT 10SM CLR M01/M05 A3009 920 75 -700 200/15 RMK AO2
94908KDBQ DBQ20020202175013002/02/02 17:50:31  5-MIN KDBQ 022350Z 20015KT 10SM CLR M01/M04 A3009 920 78 -700 200/15 RMK AO2 SLP209 T10111044 11006 21056 56026
94908KDBQ DBQ20020202175513002/02/02 17:55:31  5-MIN KDBQ 022355Z 20015KT 10SM CLR M01/M04 A3010 920 78 -700 200/15 RMK AO2 SLP210 T10111044 11006 21056 56020
94908KDBQ DBQ20020202180009502/02/02 18:00:31  5-MIN KDBQ 030000Z 20014KT 10SM CLR M02/M04 A3009 920 81 -800 200/14 RMK AO2
94908KDBQ DBQ20020202180509502/02/02 18:05:31  5-MIN KDBQ 030005Z 20014KT 10SM CLR M01/M04 A3010 910 78 -700 200/14 RMK AO2
94908KDBQ DBQ20020202181009502/02/02 18:10:31  5-MIN KDBQ 030010Z 21014KT 10SM CLR M01/M04 A3010 910 78 -700 210/14 RMK AO2
94908KDBQ DBQ20020202181509502/02/02 18:15:31  5-MIN KDBQ 030015Z 21013KT 10SM CLR M01/M04 A3010 910 78 -700 210/13 RMK AO2
94908KDBQ DBQ20020202182009502/02/02 18:20:31  5-MIN KDBQ 030020Z 21015KT 10SM CLR M01/M04 A3010 910 78 -700 210/15 RMK AO2
94908KDBQ DBQ20020202182509502/02/02 18:25:31  5-MIN KDBQ 030025Z 21014KT 10SM CLR M01/M04 A3010 910 78 -700 210/14 RMK AO2
94908KDBQ DBQ20020202183009502/02/02 18:30:31  5-MIN KDBQ 030030Z 21014KT 10SM CLR M01/M04 A3010 910 78 -700 210/14 RMK AO2
94908KDBQ DBQ20020202183509502/02/02 18:35:31  5-MIN KDBQ 030035Z 21015KT 10SM CLR M01/M04 A3010 910 78 -700 210/15 RMK AO2
94908KDBQ DBQ20020202184009502/02/02 18:40:31  5-MIN KDBQ 030040Z 21014KT 10SM CLR M01/M04 A3010 910 78 -700 210/14 RMK AO2
94908KDBQ DBQ20020202184509502/02/02 18:45:31  5-MIN KDBQ 030045Z 21015KT 10SM CLR M01/M05 A3010 910 75 -700 210/15 RMK AO2
94908KDBQ DBQ20020202185011202/02/02 18:50:31  5-MIN KDBQ 030050Z 21014KT 10SM CLR M01/M04 A3010 920 78 -700 210/14 RMK AO2 SLP209 T10111044
94908KDBQ DBQ20020202185511202/02/02 18:55:31  5-MIN KDBQ 030055Z 21015KT 10SM CLR M01/M04 A3009 920 78 -700 210/15 RMK AO2 SLP209 T10111044
94908KDBQ DBQ20020202190009502/02/02 19:00:31  5-MIN KDBQ 030100Z 22015KT 10SM CLR M01/M05 A3009 920 75 -700 210/15 RMK AO2
94908KDBQ DBQ20020202190509502/02/02 19:05:31  5-MIN KDBQ 030105Z 21016KT 10SM CLR M01/M04 A3009 920 78 -700 210/16 RMK AO2
94908KDBQ DBQ20020202191009502/02/02 19:10:31  5-MIN KDBQ 030110Z 22016KT 10SM CLR M01/M04 A3009 930 78 -700 220/16 RMK AO2
94908KDBQ DBQ20020202191509502/02/02 19:15:31  5-MIN KDBQ 030115Z 22016KT 10SM CLR M01/M05 A3008 930 75 -700 220/16 RMK AO2
94908KDBQ DBQ20020202192009502/02/02 19:20:31  5-MIN KDBQ 030120Z 22017KT 10SM CLR M01/M05 A3008 930 75 -700 210/17 RMK AO2
94908KDBQ DBQ20020202192509502/02/02 19:25:31  5-MIN KDBQ 030125Z 22016KT 10SM CLR M02/M05 A3008 930 78 -800 220/16 RMK AO2
94908KDBQ DBQ20020202193009502/02/02 19:30:31  5-MIN KDBQ 030130Z 22016KT 10SM CLR M02/M05 A3008 930 78 -800 220/16 RMK AO2
94908KDBQ DBQ20020202193509502/02/02 19:35:31  5-MIN KDBQ 030135Z 22016KT 10SM CLR M02/M05 A3008 930 78 -800 210/16 RMK AO2
94908KDBQ DBQ20020202194009502/02/02 19:40:31  5-MIN KDBQ 030140Z 22015KT 10SM CLR M02/M05 A3008 930 78 -800 220/15 RMK AO2
94908KDBQ DBQ20020202194509502/02/02 19:45:31  5-MIN KDBQ 030145Z 22015KT 10SM CLR M02/M05 A3008 930 78 -800 220/15 RMK AO2
94908KDBQ DBQ20020202195012202/02/02 19:50:31  5-MIN KDBQ 030150Z AUTO 22014KT 10SM CLR M02/M05 A3009 920 78 -800 220/14 RMK AO2 SLP206 T10171050 TSNO
94908KDBQ DBQ20020202195512202/02/02 19:55:31  5-MIN KDBQ 030155Z AUTO 22015KT 10SM CLR M02/M05 A3008 930 78 -800 220/15 RMK AO2 SLP205 T10171050 TSNO
94908KDBQ DBQ20020202200010502/02/02 20:00:31  5-MIN KDBQ 030200Z AUTO 22015KT 10SM CLR M02/M05 A3008 930 81 -900 220/15 RMK AO2 TSNO
94908KDBQ DBQ20020202200510502/02/02 20:05:31  5-MIN KDBQ 030205Z AUTO 22016KT 10SM CLR M02/M05 A3008 930 81 -900 220/16 RMK AO2 TSNO
94908KDBQ DBQ20020202201010502/02/02 20:10:31  5-MIN KDBQ 030210Z AUTO 22015KT 10SM CLR M02/M05 A3008 930 81 -900 220/15 RMK AO2 TSNO
94908KDBQ DBQ20020202201510502/02/02 20:15:31  5-MIN KDBQ 030215Z AUTO 22015KT 10SM CLR M02/M06 A3008 930 78 -900 220/15 RMK AO2 TSNO
94908KDBQ DBQ20020202202010502/02/02 20:20:31  5-MIN KDBQ 030220Z AUTO 23014KT 10SM CLR M02/M06 A3008 930 78 -900 220/14 RMK AO2 TSNO
94908KDBQ DBQ20020202202510502/02/02 20:25:31  5-MIN KDBQ 030225Z AUTO 23013KT 10SM CLR M03/M06 A3008 930 81 -900 220/13 RMK AO2 TSNO
94908KDBQ DBQ20020202203010502/02/02 20:30:31  5-MIN KDBQ 030230Z AUTO 23014KT 10SM CLR M03/M06 A3009 930 81 -900 230/14 RMK AO2 TSNO
94908KDBQ DBQ20020202203510502/02/02 20:35:31  5-MIN KDBQ 030235Z AUTO 23014KT 10SM CLR M03/M06 A3009 930 81 -900 230/14 RMK AO2 TSNO
94908KDBQ DBQ20020202204010502/02/02 20:40:31  5-MIN KDBQ 030240Z AUTO 23014KT 10SM CLR M03/M06 A3009 920 81 -900 230/14 RMK AO2 TSNO
94908KDBQ DBQ20020202204510502/02/02 20:45:31  5-MIN KDBQ 030245Z AUTO 23014KT 10SM CLR M03/M06 A3008 930 78 -900 230/14 RMK AO2 TSNO
94908KDBQ DBQ20020202205012802/02/02 20:50:31  5-MIN KDBQ 030250Z AUTO 23014KT 10SM CLR M03/M06 A3008 930 78 -900 230/14 RMK AO2 SLP204 T10281061 56020 TSNO
94908KDBQ DBQ20020202205512802/02/02 20:55:31  5-MIN KDBQ 030255Z AUTO 24015KT 10SM CLR M03/M06 A3008 930 81 -900 240/15 RMK AO2 SLP204 T10281056 58004 TSNO
94908KDBQ DBQ20020202210010502/02/02 21:00:31  5-MIN KDBQ 030300Z AUTO 24016KT 10SM CLR M02/M06 A3008 930 78 -900 240/16 RMK AO2 TSNO
94908KDBQ DBQ20020202210510802/02/02 21:05:31  5-MIN KDBQ 030305Z AUTO 24014KT 10SM FEW037 M02/M06 A3008 930 78 -900 240/14 RMK AO2 TSNO
94908KDBQ DBQ20020202211010802/02/02 21:10:31  5-MIN KDBQ 030310Z AUTO 24014KT 10SM SCT037 M02/M05 A3008 930 81 -900 240/14 RMK AO2 TSNO
94908KDBQ DBQ20020202211510802/02/02 21:15:31  5-MIN KDBQ 030315Z AUTO 25014KT 10SM SCT037 M02/M06 A3009 930 78 -900 250/14 RMK AO2 TSNO
94908KDBQ DBQ20020202212010802/02/02 21:20:31  5-MIN KDBQ 030320Z AUTO 25013KT 10SM SCT037 M02/M06 A3009 920 78 -900 250/13 RMK AO2 TSNO
94908KDBQ DBQ20020202212510802/02/02 21:25:31  5-MIN KDBQ 030325Z AUTO 25013KT 10SM BKN033 M02/M06 A3009 920 78 -900 250/13 RMK AO2 TSNO
94908KDBQ DBQ20020202213010802/02/02 21:30:31  5-MIN KDBQ 030330Z AUTO 25013KT 10SM BKN033 M02/M06 A3009 920 78 -900 250/13 RMK AO2 TSNO
94908KDBQ DBQ20020202213511502/02/02 21:35:31  5-MIN KDBQ 030335Z AUTO 25014KT 10SM SCT030 BKN037 M02/M06 A3009 920 78 -900 250/14 RMK AO2 TSNO
94908KDBQ DBQ20020202214011502/02/02 21:40:31  5-MIN KDBQ 030340Z AUTO 25013KT 10SM SCT027 SCT032 M02/M06 A3009 920 78 -900 250/13 RMK AO2 TSNO
94908KDBQ DBQ20020202214510702/02/02 21:45:31  5-MIN KDBQ 030345Z AUTO 26015KT 9SM SCT029 M02/M06 A3009 920 78 -900 260/15 RMK AO2 TSNO
94908KDBQ DBQ20020202215012402/02/02 21:50:31  5-MIN KDBQ 030350Z AUTO 26016KT 9SM SCT029 M02/M06 A3009 920 78 -900 260/16 RMK AO2 SLP207 T10221056 TSNO
94908KDBQ DBQ20020202215512402/02/02 21:55:31  5-MIN KDBQ 030355Z AUTO 26015KT 9SM FEW029 M02/M06 A3009 920 75 -800 260/15 RMK AO2 SLP207 T10171056 TSNO
94908KDBQ DBQ20020202220010702/02/02 22:00:31  5-MIN KDBQ 030400Z AUTO 26015KT 9SM FEW027 M02/M06 A3010 920 78 -900 260/15 RMK AO2 TSNO
94908KDBQ DBQ20020202220510402/02/02 22:05:31  5-MIN KDBQ 030405Z AUTO 26014KT 9SM CLR M02/M06 A3010 910 75 -900 260/14 RMK AO2 TSNO
94908KDBQ DBQ20020202221010402/02/02 22:10:31  5-MIN KDBQ 030410Z AUTO 27013KT 9SM CLR M02/M06 A3010 910 75 -900 270/13 RMK AO2 TSNO
94908KDBQ DBQ20020202221510402/02/02 22:15:31  5-MIN KDBQ 030415Z AUTO 26014KT 9SM CLR M02/M06 A3010 910 75 -900 260/14 RMK AO2 TSNO
94908KDBQ DBQ20020202222010502/02/02 22:20:31  5-MIN KDBQ 030420Z AUTO 27013KT 9SM CLR M03/M06 A3010 910 78 -1000 270/13 RMK AO2 TSNO
94908KDBQ DBQ20020202222510502/02/02 22:25:31  5-MIN KDBQ 030425Z AUTO 27012KT 8SM CLR M03/M06 A3010 910 78 -1000 270/12 RMK AO2 TSNO
94908KDBQ DBQ20020202223010502/02/02 22:30:31  5-MIN KDBQ 030430Z AUTO 27012KT 8SM CLR M03/M06 A3010 910 78 -1000 270/12 RMK AO2 TSNO
94908KDBQ DBQ20020202223510502/02/02 22:35:31  5-MIN KDBQ 030435Z AUTO 27011KT 8SM CLR M03/M06 A3010 910 81 -1000 270/11 RMK AO2 TSNO
94908KDBQ DBQ20020202224010502/02/02 22:40:31  5-MIN KDBQ 030440Z AUTO 27012KT 8SM CLR M03/M06 A3010 910 81 -1000 270/12 RMK AO2 TSNO
94908KDBQ DBQ20020202224510502/02/02 22:45:31  5-MIN KDBQ 030445Z AUTO 27012KT 8SM CLR M03/M07 A3010 910 78 -1000 260/12 RMK AO2 TSNO
94908KDBQ DBQ20020202225012202/02/02 22:50:31  5-MIN KDBQ 030450Z AUTO 27012KT 8SM CLR M03/M07 A3010 910 78 -1000 270/12 RMK AO2 SLP209 T10331067 TSNO
94908KDBQ DBQ20020202225512202/02/02 22:55:31  5-MIN KDBQ 030455Z AUTO 27011KT 8SM CLR M03/M06 A3010 910 81 -1000 270/11 RMK AO2 SLP209 T10331061 TSNO
94908KDBQ DBQ20020202230010502/02/02 23:00:31  5-MIN KDBQ 030500Z AUTO 27011KT 8SM CLR M04/M07 A3010 910 81 -1100 270/11 RMK AO2 TSNO
94908KDBQ DBQ20020202230510502/02/02 23:05:31  5-MIN KDBQ 030505Z AUTO 27010KT 8SM CLR M04/M07 A3010 910 81 -1100 270/10 RMK AO2 TSNO
94908KDBQ DBQ20020203231011202/03/02 23:10:31  5-MIN KDBQ 040510Z AUTO 34012G18KT 10SM CLR M09/M14 A3026 760 67 -1900 340/12G18 RMK AO2 TSNO
94908KDBQ DBQ20020203231510602/03/02 23:15:31  5-MIN KDBQ 040515Z AUTO 34011KT 10SM CLR M09/M14 A3027 760 67 -1900 340/11 RMK AO2 TSNO
94908KDBQ DBQ20020203232010602/03/02 23:20:31  5-MIN KDBQ 040520Z AUTO 34013KT 10SM CLR M09/M14 A3027 760 67 -1900 340/13 RMK AO2 TSNO
94908KDBQ DBQ20020203232510602/03/02 23:25:31  5-MIN KDBQ 040525Z AUTO 34014KT 10SM CLR M09/M14 A3027 760 67 -1900 340/14 RMK AO2 TSNO
94908KDBQ DBQ20020203233011202/03/02 23:30:31  5-MIN KDBQ 040530Z AUTO 34014G21KT 10SM CLR M09/M16 A3027 750 59 -1900 340/14G21 RMK AO2 TSNO
94908KDBQ DBQ20020203233511202/03/02 23:35:31  5-MIN KDBQ 040535Z AUTO 35016G21KT 10SM CLR M09/M15 A3027 750 61 -1900 350/16G21 RMK AO2 TSNO
94908KDBQ DBQ20020203234010602/03/02 23:40:31  5-MIN KDBQ 040540Z AUTO 35013KT 10SM CLR M09/M15 A3027 750 61 -1900 350/13 RMK AO2 TSNO
94908KDBQ DBQ20020203234510602/03/02 23:45:31  5-MIN KDBQ 040545Z AUTO 34012KT 10SM CLR M09/M15 A3028 750 61 -2000 340/12 RMK AO2 TSNO
94908KDBQ DBQ20020203235015102/03/02 23:50:31  5-MIN KDBQ 040550Z AUTO 33010KT 10SM CLR M09/M15 A3028 750 64 -2000 330/10 RMK AO2 SLP272 T10941150 11044 21094 410111117 51026 TSNO
94908KDBQ DBQ20020203235515102/03/02 23:55:31  5-MIN KDBQ 040555Z AUTO 34013KT 10SM CLR M09/M15 A3028 750 64 -2000 340/13 RMK AO2 SLP271 T10941150 11044 21094 410111117 51025 TSNO
94908KDBQ DBQ20020204000010602/04/02 00:00:31  5-MIN KDBQ 040600Z AUTO 33010KT 10SM CLR M10/M15 A3028 750 67 -2100 330/10 RMK AO2 TSNO
94908KDBQ DBQ20020204000510602/04/02 00:05:31  5-MIN KDBQ 040605Z AUTO 33011KT 10SM CLR M09/M15 A3028 750 64 -2000 330/11 RMK AO2 TSNO
94908KDBQ DBQ20020204001010602/04/02 00:10:31  5-MIN KDBQ 040610Z AUTO 33012KT 10SM CLR M10/M15 A3028 740 67 -2100 330/12 RMK AO2 TSNO
94908KDBQ DBQ20020204001510602/04/02 00:15:31  5-MIN KDBQ 040615Z AUTO 34013KT 10SM CLR M09/M15 A3028 740 64 -2000 340/13 RMK AO2 TSNO
94908KDBQ DBQ20020204002010602/04/02 00:20:31  5-MIN KDBQ 040620Z AUTO 34013KT 10SM CLR M09/M15 A3029 740 64 -2000 330/13 RMK AO2 TSNO
94908KDBQ DBQ20020204002510602/04/02 00:25:31  5-MIN KDBQ 040625Z AUTO 33011KT 10SM CLR M10/M15 A3029 740 67 -2100 330/11 RMK AO2 TSNO
94908KDBQ DBQ20020204003010602/04/02 00:30:31  5-MIN KDBQ 040630Z AUTO 33012KT 10SM CLR M10/M15 A3029 740 67 -2100 330/12 RMK AO2 TSNO
94908KDBQ DBQ20020204003510602/04/02 00:35:31  5-MIN KDBQ 040635Z AUTO 33012KT 10SM CLR M10/M15 A3029 740 67 -2100 330/12 RMK AO2 TSNO
94908KDBQ DBQ20020204004010602/04/02 00:40:31  5-MIN KDBQ 040640Z AUTO 34013KT 10SM CLR M10/M15 A3029 740 67 -2100 340/13 RMK AO2 TSNO
94908KDBQ DBQ20020204004510602/04/02 00:45:31  5-MIN KDBQ 040645Z AUTO 33012KT 10SM CLR M10/M16 A3029 730 64 -2100 330/12 RMK AO2 TSNO
94908KDBQ DBQ20020204005012302/04/02 00:50:31  5-MIN KDBQ 040650Z AUTO 33011KT 10SM CLR M11/M16 A3029 730 67 -2200 330/11 RMK AO2 SLP277 T11061156 TSNO
94908KDBQ DBQ20020204005512302/04/02 00:55:31  5-MIN KDBQ 040655Z AUTO 34013KT 10SM CLR M11/M16 A3030 730 67 -2200 340/13 RMK AO2 SLP278 T11061156 TSNO
94908KDBQ DBQ20020204010010602/04/02 01:00:31  5-MIN KDBQ 040700Z AUTO 34013KT 10SM CLR M10/M15 A3030 730 67 -2100 340/13 RMK AO2 TSNO
94908KDBQ DBQ20020204010510602/04/02 01:05:31  5-MIN KDBQ 040705Z AUTO 34013KT 10SM CLR M11/M16 A3030 730 67 -2200 340/13 RMK AO2 TSNO
94908KDBQ DBQ20020204011010602/04/02 01:10:31  5-MIN KDBQ 040710Z AUTO 34012KT 10SM CLR M11/M16 A3030 720 67 -2200 340/12 RMK AO2 TSNO
94908KDBQ DBQ20020204011510602/04/02 01:15:31  5-MIN KDBQ 040715Z AUTO 34012KT 10SM CLR M11/M16 A3031 720 67 -2200 340/12 RMK AO2 TSNO
94908KDBQ DBQ20020204012010602/04/02 01:20:31  5-MIN KDBQ 040720Z AUTO 34012KT 10SM CLR M11/M16 A3031 720 67 -2200 340/12 RMK AO2 TSNO
94908KDBQ DBQ20020204012510602/04/02 01:25:31  5-MIN KDBQ 040725Z AUTO 34013KT 10SM CLR M11/M16 A3031 720 67 -2200 340/13 RMK AO2 TSNO
94908KDBQ DBQ20020204013010602/04/02 01:30:31  5-MIN KDBQ 040730Z AUTO 34013KT 10SM CLR M11/M16 A3031 720 67 -2200 340/13 RMK AO2 TSNO
94908KDBQ DBQ20020204013510602/04/02 01:35:31  5-MIN KDBQ 040735Z AUTO 34013KT 10SM CLR M11/M16 A3032 710 67 -2200 340/13 RMK AO2 TSNO
94908KDBQ DBQ20020204014010602/04/02 01:40:31  5-MIN KDBQ 040740Z AUTO 34012KT 10SM CLR M11/M16 A3032 710 70 -2300 340/12 RMK AO2 TSNO
94908KDBQ DBQ20020204014510602/04/02 01:45:31  5-MIN KDBQ 040745Z AUTO 34012KT 10SM CLR M11/M16 A3032 710 70 -2300 340/12 RMK AO2 TSNO
94908KDBQ DBQ20020204015012302/04/02 01:50:31  5-MIN KDBQ 040750Z AUTO 35011KT 10SM CLR M11/M16 A3032 710 67 -2300 340/11 RMK AO2 SLP285 T11111161 TSNO
94908KDBQ DBQ20020204015512302/04/02 01:55:31  5-MIN KDBQ 040755Z AUTO 34012KT 10SM CLR M11/M16 A3032 710 67 -2300 340/12 RMK AO2 SLP287 T11111161 TSNO
94908KDBQ DBQ20020204020010602/04/02 02:00:31  5-MIN KDBQ 040800Z AUTO 34011KT 10SM CLR M11/M16 A3032 710 67 -2300 340/11 RMK AO2 TSNO
94908KDBQ DBQ20020204020510602/04/02 02:05:31  5-MIN KDBQ 040805Z AUTO 34012KT 10SM CLR M11/M16 A3033 710 67 -2300 340/12 RMK AO2 TSNO
94908KDBQ DBQ20020204021010602/04/02 02:10:31  5-MIN KDBQ 040810Z AUTO 34012KT 10SM CLR M11/M16 A3033 700 67 -2300 340/12 RMK AO2 TSNO
94908KDBQ DBQ20020204021510602/04/02 02:15:31  5-MIN KDBQ 040815Z AUTO 35011KT 10SM CLR M11/M16 A3033 700 67 -2300 350/11 RMK AO2 TSNO
94908KDBQ DBQ20020204022010602/04/02 02:20:31  5-MIN KDBQ 040820Z AUTO 35010KT 10SM CLR M12/M16 A3033 700 70 -2400 350/10 RMK AO2 TSNO
94908KDBQ DBQ20020204022510602/04/02 02:25:31  5-MIN KDBQ 040825Z AUTO 34010KT 10SM CLR M12/M16 A3034 700 70 -2400 340/10 RMK AO2 TSNO
94908KDBQ DBQ20020204023010602/04/02 02:30:31  5-MIN KDBQ 040830Z AUTO 35010KT 10SM CLR M12/M17 A3034 700 67 -2400 350/10 RMK AO2 TSNO
94908KDBQ DBQ20020204023510602/04/02 02:35:31  5-MIN KDBQ 040835Z AUTO 35009KT 10SM CLR M12/M16 A3034 690 70 -2400 350/09 RMK AO2 TSNO
94908KDBQ DBQ20020204024010602/04/02 02:40:31  5-MIN KDBQ 040840Z AUTO 35009KT 10SM CLR M12/M17 A3034 690 67 -2400 350/09 RMK AO2 TSNO
94908KDBQ DBQ20020204024510602/04/02 02:45:31  5-MIN KDBQ 040845Z AUTO 35009KT 10SM CLR M12/M17 A3034 690 70 -2500 350/09 RMK AO2 TSNO
94908KDBQ DBQ20020204025012902/04/02 02:50:31  5-MIN KDBQ 040850Z AUTO 35009KT 10SM CLR M12/M17 A3035 690 70 -2500 350/09 RMK AO2 SLP295 T11221167 51025 TSNO
94908KDBQ DBQ20020204025512902/04/02 02:55:31  5-MIN KDBQ 040855Z AUTO 35009KT 10SM CLR M12/M17 A3035 690 70 -2500 350/09 RMK AO2 SLP295 T11221167 53021 TSNO
94908KDBQ DBQ20020204030010602/04/02 03:00:31  5-MIN KDBQ 040900Z AUTO 36009KT 10SM CLR M12/M17 A3034 690 70 -2500 360/09 RMK AO2 TSNO
94908KDBQ DBQ20020204030510602/04/02 03:05:31  5-MIN KDBQ 040905Z AUTO 36009KT 10SM CLR M12/M16 A3034 690 73 -2500 360/09 RMK AO2 TSNO
94908KDBQ DBQ20020204031010602/04/02 03:10:31  5-MIN KDBQ 040910Z AUTO 36008KT 10SM CLR M12/M17 A3034 690 70 -2500 360/08 RMK AO2 TSNO
94908KDBQ DBQ20020204031510602/04/02 03:15:31  5-MIN KDBQ 040915Z AUTO 36008KT 10SM CLR M12/M17 A3035 690 67 -2400 360/08 RMK AO2 TSNO
94908KDBQ DBQ20020204032010602/04/02 03:20:31  5-MIN KDBQ 040920Z AUTO 35008KT 10SM CLR M12/M17 A3035 680 70 -2500 350/08 RMK AO2 TSNO
94908KDBQ DBQ20020204032510602/04/02 03:25:31  5-MIN KDBQ 040925Z AUTO 35008KT 10SM CLR M13/M17 A3036 680 70 -2600 350/08 RMK AO2 TSNO
94908KDBQ DBQ20020204033010602/04/02 03:30:31  5-MIN KDBQ 040930Z AUTO 35007KT 10SM CLR M13/M17 A3036 680 73 -2600 350/07 RMK AO2 TSNO
94908KDBQ DBQ20020204033510602/04/02 03:35:31  5-MIN KDBQ 040935Z AUTO 36008KT 10SM CLR M13/M17 A3036 670 73 -2600 360/08 RMK AO2 TSNO
94908KDBQ DBQ20020204034010602/04/02 03:40:31  5-MIN KDBQ 040940Z AUTO 36007KT 10SM CLR M12/M17 A3037 670 70 -2500 360/07 RMK AO2 TSNO
94908KDBQ DBQ20020204034510602/04/02 03:45:31  5-MIN KDBQ 040945Z AUTO 36007KT 10SM CLR M13/M17 A3037 660 70 -2600 360/07 RMK AO2 TSNO
94908KDBQ DBQ20020204035012302/04/02 03:50:31  5-MIN KDBQ 040950Z AUTO 36006KT 10SM CLR M13/M17 A3037 660 73 -2600 360/06 RMK AO2 SLP304 T11331172 TSNO
94908KDBQ DBQ20020204035512302/04/02 03:55:31  5-MIN KDBQ 040955Z AUTO 36006KT 10SM CLR M13/M17 A3037 660 70 -2600 360/06 RMK AO2 SLP305 T11281172 TSNO
94908KDBQ DBQ20020204040010602/04/02 04:00:31  5-MIN KDBQ 041000Z AUTO 35007KT 10SM CLR M13/M17 A3038 660 73 -2700 350/07 RMK AO2 TSNO
94908KDBQ DBQ20020204040510602/04/02 04:05:31  5-MIN KDBQ 041005Z AUTO 35007KT 10SM CLR M13/M17 A3038 650 73 -2700 350/07 RMK AO2 TSNO
94908KDBQ DBQ20020204041010602/04/02 04:10:31  5-MIN KDBQ 041010Z AUTO 35007KT 10SM CLR M13/M17 A3038 650 73 -2700 350/07 RMK AO2 TSNO
94908KDBQ DBQ20020204041510602/04/02 04:15:31  5-MIN KDBQ 041015Z AUTO 35007KT 10SM CLR M13/M17 A3039 650 73 -2700 350/07 RMK AO2 TSNO
94908KDBQ DBQ20020204042010602/04/02 04:20:31  5-MIN KDBQ 041020Z AUTO 35006KT 10SM CLR M13/M18 A3039 650 69 -2700 350/06 RMK AO2 TSNO
94908KDBQ DBQ20020204042510602/04/02 04:25:31  5-MIN KDBQ 041025Z AUTO 34007KT 10SM CLR M14/M18 A3039 650 73 -2700 340/07 RMK AO2 TSNO
94908KDBQ DBQ20020204043010602/04/02 04:30:31  5-MIN KDBQ 041030Z AUTO 35006KT 10SM CLR M14/M18 A3039 650 73 -2700 350/06 RMK AO2 TSNO
94908KDBQ DBQ20020204043510602/04/02 04:35:31  5-MIN KDBQ 041035Z AUTO 35006KT 10SM CLR M14/M18 A3039 640 73 -2700 350/06 RMK AO2 TSNO
94908KDBQ DBQ20020204044010602/04/02 04:40:31  5-MIN KDBQ 041040Z AUTO 34007KT 10SM CLR M14/M18 A3040 640 73 -2800 340/07 RMK AO2 TSNO
94908KDBQ DBQ20020204044510602/04/02 04:45:31  5-MIN KDBQ 041045Z AUTO 34007KT 10SM CLR M14/M18 A3040 640 73 -2800 340/07 RMK AO2 TSNO
94908KDBQ DBQ20020204045012302/04/02 04:50:31  5-MIN KDBQ 041050Z AUTO 34007KT 10SM CLR M14/M18 A3040 630 76 -2800 340/07 RMK AO2 SLP317 T11441178 TSNO
94908KDBQ DBQ20020204045512302/04/02 04:55:31  5-MIN KDBQ 041055Z AUTO 34007KT 10SM CLR M14/M18 A3041 630 76 -2800 330/07 RMK AO2 SLP319 T11441178 TSNO
94908KDBQ DBQ20020204050010602/04/02 05:00:31  5-MIN KDBQ 041100Z AUTO 33008KT 10SM CLR M14/M18 A3041 630 73 -2800 330/08 RMK AO2 TSNO
94908KDBQ DBQ20020204050510602/04/02 05:05:31  5-MIN KDBQ 041105Z AUTO 33008KT 10SM CLR M14/M18 A3041 630 76 -2800 330/08 RMK AO2 TSNO
94908KDBQ DBQ20020204051010602/04/02 05:10:31  5-MIN KDBQ 041110Z AUTO 34008KT 10SM CLR M14/M18 A3041 620 73 -2800 330/08 RMK AO2 TSNO
94908KDBQ DBQ20020204051510602/04/02 05:15:31  5-MIN KDBQ 041115Z AUTO 34008KT 10SM CLR M14/M18 A3041 630 73 -2800 340/08 RMK AO2 TSNO
94908KDBQ DBQ20020204052010602/04/02 05:20:31  5-MIN KDBQ 041120Z AUTO 34007KT 10SM CLR M14/M18 A3041 620 73 -2800 340/07 RMK AO2 TSNO
94908KDBQ DBQ20020204052510602/04/02 05:25:31  5-MIN KDBQ 041125Z AUTO 34007KT 10SM CLR M14/M18 A3041 620 76 -2800 340/07 RMK AO2 TSNO
94908KDBQ DBQ20020204053010602/04/02 05:30:31  5-MIN KDBQ 041130Z AUTO 34007KT 10SM CLR M14/M18 A3041 630 76 -2800 340/07 RMK AO2 TSNO
94908KDBQ DBQ20020204053510602/04/02 05:35:31  5-MIN KDBQ 041135Z AUTO 36006KT 10SM CLR M14/M18 A3042 620 73 -2800 350/06 RMK AO2 TSNO
94908KDBQ DBQ20020204054009602/04/02 05:40:31  5-MIN KDBQ 041140Z 36008KT 10SM CLR M14/M18 A3042 620 73 -2800 360/08 RMK AO2
94908KDBQ DBQ20020204054509602/04/02 05:45:31  5-MIN KDBQ 041145Z 36007KT 10SM CLR M14/M18 A3042 620 73 -2800 360/07 RMK AO2
94908KDBQ DBQ20020204055013102/04/02 05:50:31  5-MIN KDBQ 041150Z 36008KT 10SM CLR M14/M18 A3042 620 73 -2800 360/08 RMK AO2 SLP323 T11391178 11094 21144 53021
94908KDBQ DBQ20020204055513102/04/02 05:55:31  5-MIN KDBQ 041155Z 01006KT 10SM CLR M14/M18 A3042 620 73 -2800 010/06 RMK AO2 SLP324 T11391178 11094 21144 51025
94908KDBQ DBQ20020204060009602/04/02 06:00:31  5-MIN KDBQ 041200Z 01007KT 10SM CLR M14/M18 A3043 610 73 -2800 010/07 RMK AO2
94908KDBQ DBQ20020204060509602/04/02 06:05:31  5-MIN KDBQ 041205Z 36007KT 10SM CLR M14/M17 A3043 610 76 -2800 360/07 RMK AO2
94908KDBQ DBQ20020204061009602/04/02 06:10:31  5-MIN KDBQ 041210Z 36007KT 10SM CLR M14/M18 A3043 610 73 -2800 360/07 RMK AO2
94908KDBQ DBQ20020204061509602/04/02 06:15:31  5-MIN KDBQ 041215Z 35007KT 10SM CLR M14/M18 A3043 610 73 -2800 350/07 RMK AO2
94908KDBQ DBQ20020204062009602/04/02 06:20:31  5-MIN KDBQ 041220Z 35007KT 10SM CLR M14/M18 A3044 600 73 -2900 350/07 RMK AO2
94908KDBQ DBQ20020204062509602/04/02 06:25:31  5-MIN KDBQ 041225Z 35007KT 10SM CLR M15/M18 A3044 600 76 -3000 350/07 RMK AO2
94908KDBQ DBQ20020204063009602/04/02 06:30:31  5-MIN KDBQ 041230Z 34008KT 10SM CLR M15/M18 A3044 600 76 -3000 340/08 RMK AO2
94908KDBQ DBQ20020204063509602/04/02 06:35:31  5-MIN KDBQ 041235Z 34008KT 10SM CLR M15/M18 A3045 590 76 -3000 340/08 RMK AO2
94908KDBQ DBQ20020204064009602/04/02 06:40:31  5-MIN KDBQ 041240Z 35007KT 10SM CLR M15/M18 A3045 590 76 -3000 350/07 RMK AO2
94908KDBQ DBQ20020204064509602/04/02 06:45:31  5-MIN KDBQ 041245Z 36007KT 10SM CLR M14/M18 A3045 590 76 -2900 360/07 RMK AO2
94908KDBQ DBQ20020204065011302/04/02 06:50:31  5-MIN KDBQ 041250Z 01007KT 10SM CLR M14/M18 A3045 590 76 -2900 010/07 RMK AO2 SLP335 T11441178
94908KDBQ DBQ20020204065511302/04/02 06:55:31  5-MIN KDBQ 041255Z 01007KT 10SM CLR M14/M18 A3045 590 73 -2800 010/07 RMK AO2 SLP334 T11391178
94908KDBQ DBQ20020204070009602/04/02 07:00:31  5-MIN KDBQ 041300Z 01007KT 10SM CLR M14/M18 A3045 590 76 -2900 010/07 RMK AO2
94908KDBQ DBQ20020204070509602/04/02 07:05:31  5-MIN KDBQ 041305Z 36007KT 10SM CLR M14/M18 A3046 590 76 -2900 360/07 RMK AO2
94908KDBQ DBQ20020204071009602/04/02 07:10:31  5-MIN KDBQ 041310Z 36006KT 10SM CLR M14/M18 A3046 580 76 -2900 360/06 RMK AO2
94908KDBQ DBQ20020204071509602/04/02 07:15:31  5-MIN KDBQ 041315Z 36006KT 10SM CLR M14/M18 A3046 580 73 -2900 360/06 RMK AO2
94908KDBQ DBQ20020204072009602/04/02 07:20:31  5-MIN KDBQ 041320Z 35006KT 10SM CLR M15/M18 A3046 580 76 -3000 350/06 RMK AO2
94908KDBQ DBQ20020204072509602/04/02 07:25:31  5-MIN KDBQ 041325Z 35006KT 10SM CLR M15/M18 A3047 570 76 -3000 350/06 RMK AO2
94908KDBQ DBQ20020204073009602/04/02 07:30:31  5-MIN KDBQ 041330Z 34007KT 10SM CLR M15/M18 A3047 570 76 -3000 330/07 RMK AO2
94908KDBQ DBQ20020204073509602/04/02 07:35:31  5-MIN KDBQ 041335Z 34008KT 10SM CLR M15/M18 A3047 570 76 -3000 340/08 RMK AO2
94908KDBQ DBQ20020204074009602/04/02 07:40:31  5-MIN KDBQ 041340Z 34007KT 10SM CLR M15/M18 A3047 570 76 -3000 340/07 RMK AO2
94908KDBQ DBQ20020204074509602/04/02 07:45:31  5-MIN KDBQ 041345Z 33007KT 10SM CLR M15/M18 A3048 570 76 -3000 330/07 RMK AO2
94908KDBQ DBQ20020204075011302/04/02 07:50:31  5-MIN KDBQ 041350Z 34008KT 10SM CLR M15/M18 A3047 570 76 -3000 340/08 RMK AO2 SLP342 T11501183
94908KDBQ DBQ20020204075511302/04/02 07:55:31  5-MIN KDBQ 041355Z 35007KT 10SM CLR M15/M18 A3047 570 76 -3000 350/07 RMK AO2 SLP342 T11501183
94908KDBQ DBQ20020204080009602/04/02 08:00:31  5-MIN KDBQ 041400Z 35007KT 10SM CLR M15/M18 A3047 570 76 -3000 350/07 RMK AO2
94908KDBQ DBQ20020204080509602/04/02 08:05:31  5-MIN KDBQ 041405Z 36007KT 10SM CLR M14/M18 A3047 570 73 -2900 360/07 RMK AO2
94908KDBQ DBQ20020204081009602/04/02 08:10:31  5-MIN KDBQ 041410Z 36007KT 10SM CLR M14/M18 A3047 570 73 -2800 360/07 RMK AO2
94908KDBQ DBQ20020204081509602/04/02 08:15:31  5-MIN KDBQ 041415Z 36007KT 10SM CLR M13/M18 A3047 570 69 -2800 360/07 RMK AO2
94908KDBQ DBQ20020204082009602/04/02 08:20:31  5-MIN KDBQ 041420Z 36007KT 10SM CLR M13/M18 A3048 560 69 -2800 350/07 RMK AO2
94908KDBQ DBQ20020204082509602/04/02 08:25:31  5-MIN KDBQ 041425Z 36008KT 10SM CLR M13/M18 A3048 560 69 -2800 350/08 RMK AO2
94908KDBQ DBQ20020204083009602/04/02 08:30:31  5-MIN KDBQ 041430Z 35007KT 10SM CLR M13/M17 A3048 560 73 -2800 350/07 RMK AO2
94908KDBQ DBQ20020204083509602/04/02 08:35:31  5-MIN KDBQ 041435Z 36009KT 10SM CLR M13/M17 A3048 560 73 -2800 360/09 RMK AO2
94908KDBQ DBQ20020204084009602/04/02 08:40:31  5-MIN KDBQ 041440Z 36010KT 10SM CLR M13/M18 A3048 560 69 -2800 360/10 RMK AO2
94908KDBQ DBQ20020204084509602/04/02 08:45:31  5-MIN KDBQ 041445Z 01007KT 10SM CLR M13/M17 A3048 570 70 -2700 360/07 RMK AO2
94908KDBQ DBQ20020204085011902/04/02 08:50:31  5-MIN KDBQ 041450Z 01011KT 10SM CLR M13/M17 A3048 570 70 -2700 010/11 RMK AO2 SLP343 T11281172 51025
94908KDBQ DBQ20020204085511902/04/02 08:55:31  5-MIN KDBQ 041455Z 01009KT 10SM CLR M13/M17 A3048 570 70 -2700 010/09 RMK AO2 SLP344 T11281172 51018
94908KDBQ DBQ20020204090009602/04/02 09:00:31  5-MIN KDBQ 041500Z 01007KT 10SM CLR M13/M18 A3048 560 66 -2700 010/07 RMK AO2
94908KDBQ DBQ20020204090509602/04/02 09:05:31  5-MIN KDBQ 041505Z 01007KT 10SM CLR M13/M17 A3049 560 70 -2700 010/07 RMK AO2
94908KDBQ DBQ20020204091009602/04/02 09:10:31  5-MIN KDBQ 041510Z 36007KT 10SM CLR M13/M17 A3049 560 70 -2700 360/07 RMK AO2
94908KDBQ DBQ20020204091509602/04/02 09:15:31  5-MIN KDBQ 041515Z 36007KT 10SM CLR M12/M17 A3049 550 70 -2600 360/07 RMK AO2
94908KDBQ DBQ20020204092009602/04/02 09:20:31  5-MIN KDBQ 041520Z 35004KT 10SM CLR M12/M17 A3050 550 70 -2600 350/04 RMK AO2
94908KDBQ DBQ20020204092509602/04/02 09:25:31  5-MIN KDBQ 041525Z 35006KT 10SM CLR M12/M17 A3050 550 67 -2600 350/06 RMK AO2
94908KDBQ DBQ20020204093009602/04/02 09:30:31  5-MIN KDBQ 041530Z 34006KT 10SM CLR M12/M17 A3050 550 70 -2600 340/06 RMK AO2
94908KDBQ DBQ20020204093509602/04/02 09:35:31  5-MIN KDBQ 041535Z 35006KT 10SM CLR M12/M17 A3049 550 67 -2600 350/06 RMK AO2
94908KDBQ DBQ20020204094009602/04/02 09:40:31  5-MIN KDBQ 041540Z 02007KT 10SM CLR M12/M17 A3050 550 67 -2600 020/07 RMK AO2
94908KDBQ DBQ20020204094509602/04/02 09:45:31  5-MIN KDBQ 041545Z 01007KT 10SM CLR M12/M17 A3049 550 67 -2600 010/07 RMK AO2
94908KDBQ DBQ20020204095011302/04/02 09:50:31  5-MIN KDBQ 041550Z 03008KT 10SM CLR M12/M17 A3049 550 67 -2600 030/08 RMK AO2 SLP348 T11171167
94908KDBQ DBQ20020204095511302/04/02 09:55:31  5-MIN KDBQ 041555Z 02007KT 10SM CLR M11/M17 A3050 550 64 -2500 020/07 RMK AO2 SLP350 T11111167
94908KDBQ DBQ20020204100009602/04/02 10:00:31  5-MIN KDBQ 041600Z 01006KT 10SM CLR M11/M16 A3050 540 67 -2500 010/06 RMK AO2
94908KDBQ DBQ20020204100509602/04/02 10:05:31  5-MIN KDBQ 041605Z 01006KT 10SM CLR M11/M16 A3050 540 67 -2500 010/06 RMK AO2
94908KDBQ DBQ20020204101009602/04/02 10:10:31  5-MIN KDBQ 041610Z 02005KT 10SM CLR M11/M16 A3050 540 64 -2400 020/05 RMK AO2
94908KDBQ DBQ20020204101509602/04/02 10:15:31  5-MIN KDBQ 041615Z 36005KT 10SM CLR M11/M16 A3051 540 67 -2400 360/05 RMK AO2
94908KDBQ DBQ20020204102009602/04/02 10:20:31  5-MIN KDBQ 041620Z 36005KT 10SM CLR M11/M16 A3051 540 67 -2400 360/05 RMK AO2
94908KDBQ DBQ20020204102509602/04/02 10:25:31  5-MIN KDBQ 041625Z 01003KT 10SM CLR M11/M16 A3051 530 67 -2400 360/03 RMK AO2
94908KDBQ DBQ20020204103009602/04/02 10:30:31  5-MIN KDBQ 041630Z 00000KT 10SM CLR M10/M16 A3052 530 64 -2400 000/00 RMK AO2
94908KDBQ DBQ20020204103509602/04/02 10:35:31  5-MIN KDBQ 041635Z 00000KT 10SM CLR M10/M16 A3052 530 64 -2400 000/00 RMK AO2
94908KDBQ DBQ20020204104009602/04/02 10:40:31  5-MIN KDBQ 041640Z 00000KT 10SM CLR M10/M16 A3052 530 64 -2400 000/00 RMK AO2
94908KDBQ DBQ20020204104509602/04/02 10:45:31  5-MIN KDBQ 041645Z 00000KT 10SM CLR M09/M16 A3052 530 61 -2300 000/00 RMK AO2
94908KDBQ DBQ20020204105011302/04/02 10:50:31  5-MIN KDBQ 041650Z 00000KT 10SM CLR M09/M16 A3052 520 61 -2300 000/00 RMK AO2 SLP359 T10941156
94908KDBQ DBQ20020204105511302/04/02 10:55:31  5-MIN KDBQ 041655Z 00000KT 10SM CLR M10/M16 A3053 520 64 -2400 000/00 RMK AO2 SLP359 T11001156
94908KDBQ DBQ20020204110009602/04/02 11:00:31  5-MIN KDBQ 041700Z 00000KT 10SM CLR M10/M16 A3053 520 64 -2400 000/00 RMK AO2
94908KDBQ DBQ20020204110509602/04/02 11:05:31  5-MIN KDBQ 041705Z 28003KT 10SM CLR M10/M16 A3053 520 64 -2400 280/03 RMK AO2
94908KDBQ DBQ20020204111009602/04/02 11:10:31  5-MIN KDBQ 041710Z 27003KT 10SM CLR M10/M16 A3052 530 64 -2400 270/03 RMK AO2
94908KDBQ DBQ20020204111509602/04/02 11:15:31  5-MIN KDBQ 041715Z 25004KT 10SM CLR M10/M16 A3052 530 64 -2400 250/04 RMK AO2
94908KDBQ DBQ20020204112009602/04/02 11:20:31  5-MIN KDBQ 041720Z 24003KT 10SM CLR M10/M16 A3052 530 64 -2400 230/03 RMK AO2
94908KDBQ DBQ20020204112509602/04/02 11:25:31  5-MIN KDBQ 041725Z 22003KT 10SM CLR M10/M16 A3052 530 64 -2400 220/03 RMK AO2
94908KDBQ DBQ20020204113009602/04/02 11:30:31  5-MIN KDBQ 041730Z 22004KT 10SM CLR M10/M15 A3052 530 67 -2400 220/04 RMK AO2
94908KDBQ DBQ20020204113509602/04/02 11:35:31  5-MIN KDBQ 041735Z 21004KT 10SM CLR M10/M15 A3052 530 67 -2400 210/04 RMK AO2
94908KDBQ DBQ20020204114009602/04/02 11:40:31  5-MIN KDBQ 041740Z 00000KT 10SM CLR M09/M16 A3052 530 61 -2300 000/00 RMK AO2
94908KDBQ DBQ20020204114509602/04/02 11:45:31  5-MIN KDBQ 041745Z 00000KT 10SM CLR M09/M15 A3051 530 61 -2200 000/00 RMK AO2
94908KDBQ DBQ20020204115013102/04/02 11:50:31  5-MIN KDBQ 041750Z 00000KT 10SM CLR M09/M16 A3051 540 59 -2200 000/00 RMK AO2 SLP354 T10891156 11083 21150 51018
94908KDBQ DBQ20020204115513102/04/02 11:55:31  5-MIN KDBQ 041755Z 19003KT 10SM CLR M09/M15 A3051 540 64 -2300 190/03 RMK AO2 SLP353 T10941150 11083 21150 50009
94908KDBQ DBQ20020204120009602/04/02 12:00:31  5-MIN KDBQ 041800Z 22003KT 10SM CLR M09/M15 A3051 540 64 -2300 210/03 RMK AO2
94908KDBQ DBQ20020204120509602/04/02 12:05:31  5-MIN KDBQ 041805Z 00000KT 10SM CLR M09/M15 A3050 540 64 -2300 000/00 RMK AO2
94908KDBQ DBQ20020204121009602/04/02 12:10:31  5-MIN KDBQ 041810Z 23005KT 10SM CLR M09/M15 A3050 550 61 -2200 230/05 RMK AO2
94908KDBQ DBQ20020204121509602/04/02 12:15:31  5-MIN KDBQ 041815Z 23003KT 10SM CLR M09/M15 A3050 540 61 -2200 230/03 RMK AO2
94908KDBQ DBQ20020204122009602/04/02 12:20:31  5-MIN KDBQ 041820Z 23005KT 10SM CLR M09/M14 A3050 550 64 -2200 230/05 RMK AO2
94908KDBQ DBQ20020204122509602/04/02 12:25:31  5-MIN KDBQ 041825Z 22004KT 10SM CLR M09/M14 A3050 550 64 -2200 220/04 RMK AO2
94908KDBQ DBQ20020204123009602/04/02 12:30:31  5-MIN KDBQ 041830Z 23004KT 10SM CLR M09/M14 A3050 550 67 -2200 230/04 RMK AO2
94908KDBQ DBQ20020204123509602/04/02 12:35:31  5-MIN KDBQ 041835Z 00000KT 10SM CLR M08/M13 A3050 550 67 -2100 000/00 RMK AO2
94908KDBQ DBQ20020204124009602/04/02 12:40:31  5-MIN KDBQ 041840Z VRB04KT 10SM CLR M08/M14 A3050 550 62 -2100 VRB/04 RMK AO2
94908KDBQ DBQ20020204124509602/04/02 12:45:31  5-MIN KDBQ 041845Z 22006KT 10SM CLR M08/M14 A3049 550 64 -2100 220/06 RMK AO2
94908KDBQ DBQ20020204125011302/04/02 12:50:31  5-MIN KDBQ 041850Z 22005KT 10SM CLR M08/M14 A3049 550 64 -2100 220/05 RMK AO2 SLP347 T10831139
94908KDBQ DBQ20020204125511302/04/02 12:55:31  5-MIN KDBQ 041855Z 22006KT 10SM CLR M08/M14 A3049 560 64 -2100 220/06 RMK AO2 SLP347 T10831139
94908KDBQ DBQ20020204130009602/04/02 13:00:31  5-MIN KDBQ 041900Z 23004KT 10SM CLR M08/M14 A3049 560 64 -2100 230/04 RMK AO2
94908KDBQ DBQ20020204130509602/04/02 13:05:31  5-MIN KDBQ 041905Z 22006KT 10SM CLR M08/M14 A3049 560 62 -2100 220/06 RMK AO2
94908KDBQ DBQ20020204131009602/04/02 13:10:31  5-MIN KDBQ 041910Z 23005KT 10SM CLR M08/M14 A3049 560 62 -2100 230/05 RMK AO2
94908KDBQ DBQ20020204131509602/04/02 13:15:31  5-MIN KDBQ 041915Z 22007KT 10SM CLR M08/M14 A3049 560 64 -2100 220/07 RMK AO2
94908KDBQ DBQ20020204132009602/04/02 13:20:31  5-MIN KDBQ 041920Z 23005KT 10SM CLR M08/M14 A3049 560 64 -2100 230/05 RMK AO2
94908KDBQ DBQ20020204132509602/04/02 13:25:31  5-MIN KDBQ 041925Z 23006KT 10SM CLR M08/M14 A3049 550 62 -2100 230/06 RMK AO2
94908KDBQ DBQ20020204133009602/04/02 13:30:31  5-MIN KDBQ 041930Z 23006KT 10SM CLR M08/M13 A3049 560 64 -2000 230/06 RMK AO2
94908KDBQ DBQ20020204133509602/04/02 13:35:31  5-MIN KDBQ 041935Z 22005KT 10SM CLR M08/M14 A3048 560 62 -2000 220/05 RMK AO2
94908KDBQ DBQ20020204134009602/04/02 13:40:31  5-MIN KDBQ 041940Z 21006KT 10SM CLR M08/M14 A3048 570 62 -2000 210/06 RMK AO2
94908KDBQ DBQ20020204134509602/04/02 13:45:31  5-MIN KDBQ 041945Z 22004KT 10SM CLR M08/M14 A3048 570 62 -2000 220/04 RMK AO2
94908KDBQ DBQ20020204135011302/04/02 13:50:31  5-MIN KDBQ 041950Z 23005KT 10SM CLR M08/M14 A3048 570 62 -2000 230/05 RMK AO2 SLP342 T10781139
94908KDBQ DBQ20020204135511302/04/02 13:55:31  5-MIN KDBQ 041955Z 23005KT 10SM CLR M08/M13 A3048 570 64 -2000 230/05 RMK AO2 SLP342 T10781133
94908KDBQ DBQ20020204140009602/04/02 14:00:31  5-MIN KDBQ 042000Z 23005KT 10SM CLR M08/M14 A3047 570 62 -2000 230/05 RMK AO2
94908KDBQ DBQ20020204140509602/04/02 14:05:31  5-MIN KDBQ 042005Z 21005KT 10SM CLR M08/M14 A3047 570 62 -2000 210/05 RMK AO2
94908KDBQ DBQ20020204141009602/04/02 14:10:31  5-MIN KDBQ 042010Z 21005KT 10SM CLR M08/M13 A3047 580 64 -2000 210/05 RMK AO2
94908KDBQ DBQ20020204141509602/04/02 14:15:31  5-MIN KDBQ 042015Z 22005KT 10SM CLR M07/M14 A3047 580 59 -2000 220/05 RMK AO2
94908KDBQ DBQ20020204142009602/04/02 14:20:31  5-MIN KDBQ 042020Z 22005KT 10SM CLR M07/M14 A3047 580 59 -1900 220/05 RMK AO2
94908KDBQ DBQ20020204142509602/04/02 14:25:31  5-MIN KDBQ 042025Z 23006KT 10SM CLR M07/M14 A3047 580 56 -1900 230/06 RMK AO2
94908KDBQ DBQ20020204143009602/04/02 14:30:31  5-MIN KDBQ 042030Z 22006KT 10SM CLR M07/M14 A3047 570 59 -2000 220/06 RMK AO2
94908KDBQ DBQ20020204143509602/04/02 14:35:31  5-MIN KDBQ 042035Z 22007KT 10SM CLR M07/M14 A3047 570 59 -2000 220/07 RMK AO2
94908KDBQ DBQ20020204144009602/04/02 14:40:31  5-MIN KDBQ 042040Z 22007KT 10SM CLR M07/M13 A3047 570 62 -2000 220/07 RMK AO2
94908KDBQ DBQ20020204144509602/04/02 14:45:31  5-MIN KDBQ 042045Z 22007KT 10SM CLR M07/M13 A3047 570 62 -2000 220/07 RMK AO2
94908KDBQ DBQ20020204145011902/04/02 14:50:31  5-MIN KDBQ 042050Z 23008KT 10SM CLR M07/M14 A3047 570 59 -2000 220/08 RMK AO2 SLP341 T10721139 50009
94908KDBQ DBQ20020204145511902/04/02 14:55:31  5-MIN KDBQ 042055Z 22007KT 10SM CLR M07/M14 A3047 570 59 -2000 220/07 RMK AO2 SLP341 T10721139 56011
94908KDBQ DBQ20020204150009602/04/02 15:00:31  5-MIN KDBQ 042100Z 23007KT 10SM CLR M07/M14 A3047 570 59 -2000 230/07 RMK AO2
94908KDBQ DBQ20020204150509602/04/02 15:05:31  5-MIN KDBQ 042105Z 24007KT 10SM CLR M07/M14 A3048 570 59 -2000 230/07 RMK AO2
94908KDBQ DBQ20020204151009602/04/02 15:10:31  5-MIN KDBQ 042110Z 23008KT 10SM CLR M07/M14 A3048 560 59 -2000 230/08 RMK AO2
94908KDBQ DBQ20020204151509602/04/02 15:15:31  5-MIN KDBQ 042115Z 24009KT 10SM CLR M07/M14 A3048 560 59 -2000 240/09 RMK AO2
94908KDBQ DBQ20020204152009602/04/02 15:20:31  5-MIN KDBQ 042120Z 24011KT 10SM CLR M07/M14 A3049 560 59 -2000 240/11 RMK AO2
94908KDBQ DBQ20020204152509602/04/02 15:25:31  5-MIN KDBQ 042125Z 26009KT 10SM CLR M07/M14 A3049 560 54 -1900 260/09 RMK AO2
94908KDBQ DBQ20020204153009602/04/02 15:30:31  5-MIN KDBQ 042130Z 27008KT 10SM CLR M07/M15 A3049 560 54 -2000 270/08 RMK AO2
94908KDBQ DBQ20020204153509602/04/02 15:35:31  5-MIN KDBQ 042135Z 27008KT 10SM CLR M07/M14 A3048 560 54 -1900 270/08 RMK AO2
94908KDBQ DBQ20020204154009602/04/02 15:40:31  5-MIN KDBQ 042140Z 27005KT 10SM CLR M07/M15 A3048 570 52 -1900 270/05 RMK AO2
94908KDBQ DBQ20020204154509602/04/02 15:45:31  5-MIN KDBQ 042145Z 28006KT 10SM CLR M07/M14 A3048 570 56 -2000 280/06 RMK AO2
94908KDBQ DBQ20020204155011302/04/02 15:50:31  5-MIN KDBQ 042150Z 28007KT 10SM CLR M07/M14 A3048 570 56 -2000 280/07 RMK AO2 SLP344 T10721144
94908KDBQ DBQ20020204155511302/04/02 15:55:31  5-MIN KDBQ 042155Z 28006KT 10SM CLR M07/M14 A3048 570 56 -2000 280/06 RMK AO2 SLP344 T10721144
94908KDBQ DBQ20020204160009602/04/02 16:00:31  5-MIN KDBQ 042200Z 26006KT 10SM CLR M07/M14 A3048 570 56 -2000 260/06 RMK AO2
94908KDBQ DBQ20020204160509602/04/02 16:05:31  5-MIN KDBQ 042205Z 26005KT 10SM CLR M07/M14 A3047 570 56 -2000 260/05 RMK AO2
94908KDBQ DBQ20020204161009602/04/02 16:10:31  5-MIN KDBQ 042210Z 25006KT 10SM CLR M07/M14 A3047 570 56 -2000 250/06 RMK AO2
94908KDBQ DBQ20020204161509602/04/02 16:15:31  5-MIN KDBQ 042215Z 24007KT 10SM CLR M07/M14 A3047 570 56 -2000 240/07 RMK AO2
94908KDBQ DBQ20020204162009602/04/02 16:20:31  5-MIN KDBQ 042220Z 25006KT 10SM CLR M07/M14 A3047 580 56 -2000 240/06 RMK AO2
94908KDBQ DBQ20020204162509602/04/02 16:25:31  5-MIN KDBQ 042225Z 24007KT 10SM CLR M08/M14 A3046 580 59 -2000 240/07 RMK AO2
94908KDBQ DBQ20020204163009602/04/02 16:30:31  5-MIN KDBQ 042230Z 22005KT 10SM CLR M08/M14 A3046 580 62 -2000 220/05 RMK AO2
94908KDBQ DBQ20020204163509602/04/02 16:35:31  5-MIN KDBQ 042235Z 22005KT 10SM CLR M08/M14 A3046 580 62 -2000 220/05 RMK AO2
94908KDBQ DBQ20020204164009602/04/02 16:40:31  5-MIN KDBQ 042240Z 22005KT 10SM CLR M08/M14 A3046 590 59 -2000 220/05 RMK AO2
94908KDBQ DBQ20020204164509602/04/02 16:45:31  5-MIN KDBQ 042245Z 22005KT 10SM CLR M08/M14 A3045 590 59 -2000 220/05 RMK AO2
94908KDBQ DBQ20020204165011302/04/02 16:50:31  5-MIN KDBQ 042250Z 21004KT 10SM CLR M08/M14 A3045 590 59 -2000 210/04 RMK AO2 SLP335 T10781144
94908KDBQ DBQ20020204165511302/04/02 16:55:31  5-MIN KDBQ 042255Z 19005KT 10SM CLR M08/M14 A3045 590 59 -2000 190/05 RMK AO2 SLP336 T10781144
94908KDBQ DBQ20020204170009602/04/02 17:00:31  5-MIN KDBQ 042300Z 21005KT 10SM CLR M08/M14 A3045 590 62 -2100 210/05 RMK AO2
94908KDBQ DBQ20020204170509602/04/02 17:05:31  5-MIN KDBQ 042305Z 22005KT 10SM CLR M08/M14 A3045 590 62 -2100 220/05 RMK AO2
94908KDBQ DBQ20020204171009602/04/02 17:10:31  5-MIN KDBQ 042310Z 22005KT 10SM CLR M08/M14 A3045 590 62 -2100 220/05 RMK AO2
94908KDBQ DBQ20020204171509602/04/02 17:15:31  5-MIN KDBQ 042315Z 23005KT 10SM CLR M09/M15 A3046 590 61 -2200 220/05 RMK AO2
94908KDBQ DBQ20020204172009602/04/02 17:20:31  5-MIN KDBQ 042320Z 25006KT 10SM CLR M09/M15 A3046 580 64 -2200 250/06 RMK AO2
94908KDBQ DBQ20020204172509602/04/02 17:25:31  5-MIN KDBQ 042325Z 24005KT 10SM CLR M11/M16 A3046 580 67 -2400 240/05 RMK AO2
94908KDBQ DBQ20020204173009602/04/02 17:30:31  5-MIN KDBQ 042330Z 23007KT 10SM CLR M09/M14 A3046 580 67 -2200 230/07 RMK AO2
94908KDBQ DBQ20020204173509602/04/02 17:35:31  5-MIN KDBQ 042335Z 22006KT 10SM CLR M10/M15 A3046 580 67 -2300 220/06 RMK AO2
94908KDBQ DBQ20020204174009602/04/02 17:40:31  5-MIN KDBQ 042340Z 22005KT 10SM CLR M09/M15 A3046 580 64 -2200 210/05 RMK AO2
94908KDBQ DBQ20020204174509602/04/02 17:45:31  5-MIN KDBQ 042345Z 22005KT 10SM CLR M09/M15 A3047 580 64 -2200 220/05 RMK AO2
94908KDBQ DBQ20020204175013102/04/02 17:50:31  5-MIN KDBQ 042350Z 22006KT 10SM CLR M10/M16 A3047 580 64 -2300 220/06 RMK AO2 SLP342 T11001156 11067 21106 56011
94908KDBQ DBQ20020204175513102/04/02 17:55:31  5-MIN KDBQ 042355Z 23005KT 10SM CLR M11/M16 A3047 570 67 -2400 230/05 RMK AO2 SLP343 T11061156 11067 21106 55002
94908KDBQ DBQ20020204180009602/04/02 18:00:31  5-MIN KDBQ 050000Z 22005KT 10SM CLR M11/M16 A3047 570 64 -2400 220/05 RMK AO2
94908KDBQ DBQ20020204180509602/04/02 18:05:31  5-MIN KDBQ 050005Z 22005KT 10SM CLR M11/M16 A3047 570 67 -2400 220/05 RMK AO2
94908KDBQ DBQ20020204181009602/04/02 18:10:31  5-MIN KDBQ 050010Z 21005KT 10SM CLR M11/M16 A3047 570 64 -2400 210/05 RMK AO2
94908KDBQ DBQ20020204181509602/04/02 18:15:31  5-MIN KDBQ 050015Z 21005KT 10SM CLR M11/M17 A3047 570 64 -2500 210/05 RMK AO2
94908KDBQ DBQ20020204182009602/04/02 18:20:31  5-MIN KDBQ 050020Z 21004KT 10SM CLR M11/M16 A3047 570 67 -2500 210/04 RMK AO2
94908KDBQ DBQ20020204182509602/04/02 18:25:31  5-MIN KDBQ 050025Z 21004KT 10SM CLR M11/M17 A3047 570 64 -2500 210/04 RMK AO2
94908KDBQ DBQ20020204183009602/04/02 18:30:31  5-MIN KDBQ 050030Z 22004KT 10SM CLR M12/M17 A3047 570 67 -2500 220/04 RMK AO2
94908KDBQ DBQ20020204183509602/04/02 18:35:31  5-MIN KDBQ 050035Z 23004KT 10SM CLR M12/M17 A3048 570 70 -2600 220/04 RMK AO2
94908KDBQ DBQ20020204184009602/04/02 18:40:31  5-MIN KDBQ 050040Z 22005KT 10SM CLR M12/M17 A3048 570 70 -2600 220/05 RMK AO2
94908KDBQ DBQ20020204184509602/04/02 18:45:31  5-MIN KDBQ 050045Z 22004KT 10SM CLR M12/M17 A3047 570 67 -2600 220/04 RMK AO2
94908KDBQ DBQ20020204185011302/04/02 18:50:31  5-MIN KDBQ 050050Z 20003KT 10SM CLR M12/M17 A3047 570 70 -2600 200/03 RMK AO2 SLP345 T11221167
94908KDBQ DBQ20020204185511302/04/02 18:55:31  5-MIN KDBQ 050055Z 19003KT 10SM CLR M12/M17 A3047 570 70 -2600 190/03 RMK AO2 SLP345 T11221167
94908KDBQ DBQ20020204190009602/04/02 19:00:31  5-MIN KDBQ 050100Z 20004KT 10SM CLR M12/M17 A3047 570 70 -2600 200/04 RMK AO2
94908KDBQ DBQ20020204190509602/04/02 19:05:31  5-MIN KDBQ 050105Z 21004KT 10SM CLR M13/M17 A3047 570 73 -2700 200/04 RMK AO2
94908KDBQ DBQ20020204191009602/04/02 19:10:31  5-MIN KDBQ 050110Z 20003KT 10SM CLR M13/M17 A3047 580 73 -2700 200/03 RMK AO2
94908KDBQ DBQ20020204191509602/04/02 19:15:31  5-MIN KDBQ 050115Z 20004KT 10SM CLR M13/M17 A3047 580 73 -2700 200/04 RMK AO2
94908KDBQ DBQ20020204192009602/04/02 19:20:31  5-MIN KDBQ 050120Z 21004KT 10SM CLR M12/M17 A3046 580 70 -2600 210/04 RMK AO2
94908KDBQ DBQ20020204192509602/04/02 19:25:31  5-MIN KDBQ 050125Z 20006KT 10SM CLR M13/M17 A3046 580 73 -2700 200/06 RMK AO2
94908KDBQ DBQ20020204193009602/04/02 19:30:31  5-MIN KDBQ 050130Z 20005KT 10SM CLR M13/M17 A3046 580 73 -2800 190/05 RMK AO2
94908KDBQ DBQ20020204193509602/04/02 19:35:31  5-MIN KDBQ 050135Z 18008KT 10SM CLR M13/M17 A3045 590 76 -2700 180/08 RMK AO2
94908KDBQ DBQ20020204194009602/04/02 19:40:31  5-MIN KDBQ 050140Z 18009KT 10SM CLR M13/M16 A3045 590 76 -2700 180/09 RMK AO2
94908KDBQ DBQ20020204194509602/04/02 19:45:31  5-MIN KDBQ 050145Z 18008KT 10SM CLR M12/M16 A3045 590 73 -2600 180/08 RMK AO2
94908KDBQ DBQ20020204195011302/04/02 19:50:31  5-MIN KDBQ 050150Z 19008KT 10SM CLR M12/M16 A3044 600 76 -2600 180/08 RMK AO2 SLP335 T11221156
94908KDBQ DBQ20020204195511302/04/02 19:55:31  5-MIN KDBQ 050155Z 19008KT 10SM CLR M13/M16 A3044 600 76 -2700 190/08 RMK AO2 SLP336 T11281161
94908KDBQ DBQ20020204200009602/04/02 20:00:31  5-MIN KDBQ 050200Z 20007KT 10SM CLR M13/M17 A3044 600 76 -2700 200/07 RMK AO2
94908KDBQ DBQ20020204200509602/04/02 20:05:31  5-MIN KDBQ 050205Z 19008KT 10SM CLR M14/M17 A3044 600 76 -2800 190/08 RMK AO2
94908KDBQ DBQ20020204201010602/04/02 20:10:31  5-MIN KDBQ 050210Z AUTO 20008KT 10SM CLR M13/M17 A3044 600 73 -2700 200/08 RMK AO2 TSNO
94908KDBQ DBQ20020204201510602/04/02 20:15:31  5-MIN KDBQ 050215Z AUTO 19008KT 10SM CLR M13/M17 A3044 600 76 -2700 190/08 RMK AO2 TSNO
94908KDBQ DBQ20020204202010602/04/02 20:20:31  5-MIN KDBQ 050220Z AUTO 19009KT 10SM CLR M14/M17 A3044 610 80 -2800 190/09 RMK AO2 TSNO
94908KDBQ DBQ20020204202510602/04/02 20:25:31  5-MIN KDBQ 050225Z AUTO 19008KT 10SM CLR M14/M17 A3043 610 80 -2800 190/08 RMK AO2 TSNO
94908KDBQ DBQ20020204203010602/04/02 20:30:31  5-MIN KDBQ 050230Z AUTO 19008KT 10SM CLR M14/M17 A3043 610 80 -2800 180/08 RMK AO2 TSNO
94908KDBQ DBQ20020204203510602/04/02 20:35:31  5-MIN KDBQ 050235Z AUTO 18009KT 10SM CLR M13/M17 A3043 610 76 -2700 180/09 RMK AO2 TSNO
94908KDBQ DBQ20020204204010602/04/02 20:40:31  5-MIN KDBQ 050240Z AUTO 19009KT 10SM CLR M13/M16 A3043 610 80 -2700 190/09 RMK AO2 TSNO
94908KDBQ DBQ20020204204510602/04/02 20:45:31  5-MIN KDBQ 050245Z AUTO 20008KT 10SM CLR M13/M17 A3043 610 73 -2700 200/08 RMK AO2 TSNO
94908KDBQ DBQ20020204205012902/04/02 20:50:31  5-MIN KDBQ 050250Z AUTO 21007KT 10SM CLR M14/M17 A3043 610 76 -2800 210/07 RMK AO2 SLP331 T11391172 55002 TSNO
94908KDBQ DBQ20020204205512902/04/02 20:55:31  5-MIN KDBQ 050255Z AUTO 21008KT 10SM CLR M14/M17 A3043 610 76 -2800 210/08 RMK AO2 SLP332 T11391172 58012 TSNO
94908KDBQ DBQ20020204210010602/04/02 21:00:31  5-MIN KDBQ 050300Z AUTO 22008KT 10SM CLR M14/M17 A3043 610 80 -2800 210/08 RMK AO2 TSNO
94908KDBQ DBQ20020204210510602/04/02 21:05:31  5-MIN KDBQ 050305Z AUTO 21008KT 10SM CLR M13/M17 A3043 610 76 -2700 210/08 RMK AO2 TSNO
94908KDBQ DBQ20020204211010602/04/02 21:10:31  5-MIN KDBQ 050310Z AUTO 21008KT 10SM CLR M13/M17 A3043 610 76 -2700 210/08 RMK AO2 TSNO
94908KDBQ DBQ20020204211510602/04/02 21:15:31  5-MIN KDBQ 050315Z AUTO 20010KT 10SM CLR M13/M17 A3043 610 76 -2700 200/10 RMK AO2 TSNO
94908KDBQ DBQ20020204212010602/04/02 21:20:31  5-MIN KDBQ 050320Z AUTO 21009KT 10SM CLR M14/M17 A3043 610 80 -2800 210/09 RMK AO2 TSNO
94908KDBQ DBQ20020204212510602/04/02 21:25:31  5-MIN KDBQ 050325Z AUTO 21009KT 10SM CLR M14/M17 A3042 620 76 -2800 210/09 RMK AO2 TSNO
94908KDBQ DBQ20020204213010602/04/02 21:30:31  5-MIN KDBQ 050330Z AUTO 20009KT 10SM CLR M14/M17 A3042 620 80 -2900 200/09 RMK AO2 TSNO
94908KDBQ DBQ20020204213510602/04/02 21:35:31  5-MIN KDBQ 050335Z AUTO 21008KT 10SM CLR M14/M17 A3042 620 76 -2800 210/08 RMK AO2 TSNO
94908KDBQ DBQ20020204214010602/04/02 21:40:31  5-MIN KDBQ 050340Z AUTO 21008KT 10SM CLR M14/M17 A3041 630 83 -2800 210/08 RMK AO2 TSNO
94908KDBQ DBQ20020204214510602/04/02 21:45:31  5-MIN KDBQ 050345Z AUTO 21009KT 10SM CLR M14/M17 A3041 630 80 -2800 210/09 RMK AO2 TSNO
94908KDBQ DBQ20020204215012302/04/02 21:50:31  5-MIN KDBQ 050350Z AUTO 22007KT 10SM CLR M15/M18 A3042 620 80 -2900 220/07 RMK AO2 SLP325 T11501178 TSNO
94908KDBQ DBQ20020204215512302/04/02 21:55:31  5-MIN KDBQ 050355Z AUTO 22008KT 10SM CLR M16/M18 A3042 620 83 -3000 220/08 RMK AO2 SLP326 T11561178 TSNO
94908KDBQ DBQ20020204220010602/04/02 22:00:31  5-MIN KDBQ 050400Z AUTO 22008KT 10SM CLR M15/M17 A3042 620 83 -2900 220/08 RMK AO2 TSNO
94908KDBQ DBQ20020204220510602/04/02 22:05:31  5-MIN KDBQ 050405Z AUTO 23007KT 10SM CLR M15/M18 A3043 610 80 -2900 230/07 RMK AO2 TSNO
94908KDBQ DBQ20020204221010602/04/02 22:10:31  5-MIN KDBQ 050410Z AUTO 23007KT 10SM CLR M14/M17 A3043 610 80 -2900 230/07 RMK AO2 TSNO
94908KDBQ DBQ20020204221510602/04/02 22:15:31  5-MIN KDBQ 050415Z AUTO 22008KT 10SM CLR M14/M17 A3043 610 80 -2800 220/08 RMK AO2 TSNO
94908KDBQ DBQ20020205013510602/05/02 01:35:31  5-MIN KDBQ 050735Z AUTO 21012KT 10SM CLR M13/M16 A3039 650 80 -2600 210/12 RMK AO2 TSNO
94908KDBQ DBQ20020205014010602/05/02 01:40:31  5-MIN KDBQ 050740Z AUTO 20011KT 10SM CLR M13/M16 A3039 650 76 -2600 200/11 RMK AO2 TSNO
94908KDBQ DBQ20020205014510602/05/02 01:45:31  5-MIN KDBQ 050745Z AUTO 20011KT 10SM CLR M13/M16 A3038 650 76 -2600 200/11 RMK AO2 TSNO
94908KDBQ DBQ20020205015012302/05/02 01:50:31  5-MIN KDBQ 050750Z AUTO 21011KT 10SM CLR M13/M16 A3038 660 76 -2600 200/11 RMK AO2 SLP310 T11281161 TSNO
94908KDBQ DBQ20020205015512302/05/02 01:55:31  5-MIN KDBQ 050755Z AUTO 21012KT 10SM CLR M13/M16 A3038 660 76 -2600 210/12 RMK AO2 SLP310 T11281161 TSNO
94908KDBQ DBQ20020205020010602/05/02 02:00:31  5-MIN KDBQ 050800Z AUTO 21013KT 10SM CLR M12/M16 A3038 660 76 -2500 210/13 RMK AO2 TSNO
94908KDBQ DBQ20020205020510602/05/02 02:05:31  5-MIN KDBQ 050805Z AUTO 21012KT 10SM CLR M12/M16 A3038 660 76 -2500 200/12 RMK AO2 TSNO
94908KDBQ DBQ20020205021010602/05/02 02:10:31  5-MIN KDBQ 050810Z AUTO 20012KT 10SM CLR M13/M16 A3038 660 76 -2600 200/12 RMK AO2 TSNO
94908KDBQ DBQ20020205021510602/05/02 02:15:31  5-MIN KDBQ 050815Z AUTO 20011KT 10SM CLR M13/M16 A3038 660 76 -2600 200/11 RMK AO2 TSNO
94908KDBQ DBQ20020205022010602/05/02 02:20:31  5-MIN KDBQ 050820Z AUTO 20011KT 10SM CLR M13/M16 A3038 660 76 -2600 200/11 RMK AO2 TSNO
94908KDBQ DBQ20020205022510602/05/02 02:25:31  5-MIN KDBQ 050825Z AUTO 21011KT 10SM CLR M13/M16 A3038 660 76 -2600 200/11 RMK AO2 TSNO
94908KDBQ DBQ20020205023010602/05/02 02:30:31  5-MIN KDBQ 050830Z AUTO 20011KT 10SM CLR M13/M16 A3038 650 76 -2600 200/11 RMK AO2 TSNO
94908KDBQ DBQ20020205023510602/05/02 02:35:31  5-MIN KDBQ 050835Z AUTO 20010KT 10SM CLR M13/M16 A3038 650 76 -2600 200/10 RMK AO2 TSNO
94908KDBQ DBQ20020205024010602/05/02 02:40:31  5-MIN KDBQ 050840Z AUTO 20009KT 10SM CLR M13/M16 A3038 650 76 -2600 200/09 RMK AO2 TSNO
94908KDBQ DBQ20020205024510602/05/02 02:45:31  5-MIN KDBQ 050845Z AUTO 20009KT 10SM CLR M13/M17 A3038 660 76 -2700 200/09 RMK AO2 TSNO
94908KDBQ DBQ20020205025012902/05/02 02:50:31  5-MIN KDBQ 050850Z AUTO 19010KT 10SM CLR M13/M17 A3037 660 76 -2600 190/10 RMK AO2 SLP308 T11331167 55004 TSNO
94908KDBQ DBQ20020205025512902/05/02 02:55:31  5-MIN KDBQ 050855Z AUTO 19010KT 10SM CLR M13/M16 A3037 660 80 -2700 190/10 RMK AO2 SLP308 T11331161 56016 TSNO
94908KDBQ DBQ20020205030010602/05/02 03:00:31  5-MIN KDBQ 050900Z AUTO 19009KT 10SM CLR M13/M16 A3037 660 80 -2600 190/09 RMK AO2 TSNO
94908KDBQ DBQ20020205030510602/05/02 03:05:31  5-MIN KDBQ 050905Z AUTO 19009KT 10SM CLR M13/M16 A3037 670 76 -2600 190/09 RMK AO2 TSNO
94908KDBQ DBQ20020205031010602/05/02 03:10:31  5-MIN KDBQ 050910Z AUTO 19009KT 10SM CLR M13/M17 A3037 670 76 -2600 190/09 RMK AO2 TSNO
94908KDBQ DBQ20020205031510602/05/02 03:15:31  5-MIN KDBQ 050915Z AUTO 21010KT 10SM CLR M13/M17 A3037 670 76 -2600 210/10 RMK AO2 TSNO
94908KDBQ DBQ20020205032010602/05/02 03:20:31  5-MIN KDBQ 050920Z AUTO 21011KT 10SM CLR M12/M16 A3037 670 76 -2500 210/11 RMK AO2 TSNO
94908KDBQ DBQ20020205032510602/05/02 03:25:31  5-MIN KDBQ 050925Z AUTO 22010KT 10SM CLR M12/M16 A3037 660 73 -2400 210/10 RMK AO2 TSNO
94908KDBQ DBQ20020205033010602/05/02 03:30:31  5-MIN KDBQ 050930Z AUTO 22011KT 10SM CLR M12/M16 A3037 670 73 -2400 220/11 RMK AO2 TSNO
94908KDBQ DBQ20020205033510602/05/02 03:35:31  5-MIN KDBQ 050935Z AUTO 22013KT 10SM CLR M12/M16 A3036 680 73 -2400 220/13 RMK AO2 TSNO
94908KDBQ DBQ20020205034010602/05/02 03:40:31  5-MIN KDBQ 050940Z AUTO 21013KT 10SM CLR M12/M16 A3036 680 73 -2400 210/13 RMK AO2 TSNO
94908KDBQ DBQ20020205034510602/05/02 03:45:31  5-MIN KDBQ 050945Z AUTO 22013KT 10SM CLR M12/M16 A3036 680 73 -2400 210/13 RMK AO2 TSNO
94908KDBQ DBQ20020205035012302/05/02 03:50:31  5-MIN KDBQ 050950Z AUTO 21012KT 10SM CLR M12/M16 A3036 680 73 -2400 210/12 RMK AO2 SLP301 T11171156 TSNO
94908KDBQ DBQ20020205035512302/05/02 03:55:31  5-MIN KDBQ 050955Z AUTO 21012KT 10SM CLR M12/M16 A3035 680 73 -2400 210/12 RMK AO2 SLP300 T11171156 TSNO
94908KDBQ DBQ20020205040010602/05/02 04:00:31  5-MIN KDBQ 051000Z AUTO 21012KT 10SM CLR M12/M16 A3035 680 73 -2400 210/12 RMK AO2 TSNO
94908KDBQ DBQ20020205040510602/05/02 04:05:31  5-MIN KDBQ 051005Z AUTO 21013KT 10SM CLR M12/M16 A3035 680 73 -2400 200/13 RMK AO2 TSNO
94908KDBQ DBQ20020205041010602/05/02 04:10:31  5-MIN KDBQ 051010Z AUTO 20012KT 10SM CLR M12/M16 A3035 680 73 -2400 200/12 RMK AO2 TSNO
94908KDBQ DBQ20020205041510602/05/02 04:15:31  5-MIN KDBQ 051015Z AUTO 20011KT 10SM CLR M12/M16 A3035 680 73 -2400 200/11 RMK AO2 TSNO
94908KDBQ DBQ20020205042010602/05/02 04:20:31  5-MIN KDBQ 051020Z AUTO 20011KT 10SM CLR M12/M16 A3035 680 73 -2400 200/11 RMK AO2 TSNO
94908KDBQ DBQ20020205042510602/05/02 04:25:31  5-MIN KDBQ 051025Z AUTO 20011KT 10SM CLR M12/M16 A3035 680 73 -2400 200/11 RMK AO2 TSNO
94908KDBQ DBQ20020205043010602/05/02 04:30:31  5-MIN KDBQ 051030Z AUTO 20011KT 10SM CLR M12/M16 A3035 680 73 -2400 200/11 RMK AO2 TSNO
94908KDBQ DBQ20020205043510602/05/02 04:35:31  5-MIN KDBQ 051035Z AUTO 20010KT 10SM CLR M12/M15 A3035 680 76 -2400 200/10 RMK AO2 TSNO
94908KDBQ DBQ20020205044010602/05/02 04:40:31  5-MIN KDBQ 051040Z AUTO 20009KT 10SM CLR M11/M15 A3036 680 73 -2300 200/09 RMK AO2 TSNO
94908KDBQ DBQ20020205044510602/05/02 04:45:31  5-MIN KDBQ 051045Z AUTO 21007KT 10SM CLR M12/M15 A3036 680 76 -2400 200/07 RMK AO2 TSNO
94908KDBQ DBQ20020205045012302/05/02 04:50:31  5-MIN KDBQ 051050Z AUTO 21008KT 10SM CLR M12/M16 A3035 680 73 -2400 200/08 RMK AO2 SLP300 T11171156 TSNO
94908KDBQ DBQ20020205045512302/05/02 04:55:31  5-MIN KDBQ 051055Z AUTO 21009KT 10SM CLR M11/M15 A3035 680 73 -2300 210/09 RMK AO2 SLP299 T11111150 TSNO
94908KDBQ DBQ20020205050010602/05/02 05:00:31  5-MIN KDBQ 051100Z AUTO 21009KT 10SM CLR M11/M16 A3035 680 70 -2300 210/09 RMK AO2 TSNO
94908KDBQ DBQ20020205050510602/05/02 05:05:31  5-MIN KDBQ 051105Z AUTO 21009KT 10SM CLR M12/M16 A3035 680 73 -2400 210/09 RMK AO2 TSNO
94908KDBQ DBQ20020205051010602/05/02 05:10:31  5-MIN KDBQ 051110Z AUTO 21008KT 10SM CLR M12/M16 A3035 680 73 -2400 210/08 RMK AO2 TSNO
94908KDBQ DBQ20020205051510602/05/02 05:15:31  5-MIN KDBQ 051115Z AUTO 22007KT 10SM CLR M12/M16 A3035 680 73 -2400 220/07 RMK AO2 TSNO
94908KDBQ DBQ20020205052010602/05/02 05:20:31  5-MIN KDBQ 051120Z AUTO 22008KT 10SM CLR M12/M16 A3035 680 73 -2400 220/08 RMK AO2 TSNO
94908KDBQ DBQ20020205052510602/05/02 05:25:31  5-MIN KDBQ 051125Z AUTO 22008KT 10SM CLR M12/M16 A3035 680 73 -2400 220/08 RMK AO2 TSNO
94908KDBQ DBQ20020205053010602/05/02 05:30:31  5-MIN KDBQ 051130Z AUTO 21010KT 10SM CLR M12/M16 A3034 690 73 -2400 210/10 RMK AO2 TSNO
94908KDBQ DBQ20020205053510602/05/02 05:35:31  5-MIN KDBQ 051135Z AUTO 21010KT 10SM CLR M12/M16 A3034 700 76 -2500 210/10 RMK AO2 TSNO
94908KDBQ DBQ20020205054010602/05/02 05:40:31  5-MIN KDBQ 051140Z AUTO 22008KT 10SM CLR M12/M16 A3035 680 76 -2500 220/08 RMK AO2 TSNO
94908KDBQ DBQ20020205054510602/05/02 05:45:31  5-MIN KDBQ 051145Z AUTO 22008KT 10SM CLR M12/M16 A3035 690 76 -2500 220/08 RMK AO2 TSNO
94908KDBQ DBQ20020205055014102/05/02 05:50:31  5-MIN KDBQ 051150Z AUTO 22008KT 10SM CLR M12/M16 A3035 690 76 -2500 220/08 RMK AO2 SLP300 T11221156 11111 21150 56016 TSNO
94908KDBQ DBQ20020205055513102/05/02 05:55:31  5-MIN KDBQ 051155Z 21008KT 10SM CLR M12/M16 A3034 690 76 -2500 210/08 RMK AO2 SLP299 T11221156 11111 21150 56010
94908KDBQ DBQ20020205060009602/05/02 06:00:31  5-MIN KDBQ 051200Z 21010KT 10SM CLR M12/M16 A3034 690 76 -2500 210/10 RMK AO2
94908KDBQ DBQ20020205060509602/05/02 06:05:31  5-MIN KDBQ 051205Z 21009KT 10SM CLR M12/M16 A3034 690 76 -2500 210/09 RMK AO2
94908KDBQ DBQ20020205061009602/05/02 06:10:31  5-MIN KDBQ 051210Z 21009KT 10SM CLR M12/M16 A3034 690 76 -2500 210/09 RMK AO2
94908KDBQ DBQ20020205061509602/05/02 06:15:31  5-MIN KDBQ 051215Z 21007KT 10SM CLR M12/M15 A3034 690 80 -2500 210/07 RMK AO2
94908KDBQ DBQ20020205062009602/05/02 06:20:31  5-MIN KDBQ 051220Z 21008KT 10SM CLR M12/M16 A3034 690 76 -2500 200/08 RMK AO2
94908KDBQ DBQ20020205062509602/05/02 06:25:31  5-MIN KDBQ 051225Z 20008KT 10SM CLR M12/M16 A3034 690 76 -2500 200/08 RMK AO2
94908KDBQ DBQ20020205063009602/05/02 06:30:31  5-MIN KDBQ 051230Z 20007KT 10SM CLR M12/M15 A3034 690 80 -2500 200/07 RMK AO2
94908KDBQ DBQ20020205063509602/05/02 06:35:31  5-MIN KDBQ 051235Z 21008KT 10SM CLR M12/M15 A3034 690 80 -2500 200/08 RMK AO2
94908KDBQ DBQ20020205064009602/05/02 06:40:31  5-MIN KDBQ 051240Z 20008KT 10SM CLR M12/M15 A3034 690 80 -2500 200/08 RMK AO2
94908KDBQ DBQ20020205064509602/05/02 06:45:31  5-MIN KDBQ 051245Z 21008KT 10SM CLR M12/M15 A3034 690 80 -2500 210/08 RMK AO2
94908KDBQ DBQ20020205065011302/05/02 06:50:31  5-MIN KDBQ 051250Z 21008KT 10SM CLR M12/M15 A3034 690 76 -2400 210/08 RMK AO2 SLP299 T11171150
94908KDBQ DBQ20020205065511302/05/02 06:55:31  5-MIN KDBQ 051255Z 21008KT 10SM CLR M12/M15 A3034 690 76 -2400 210/08 RMK AO2 SLP300 T11171150
94908KDBQ DBQ20020205070009602/05/02 07:00:31  5-MIN KDBQ 051300Z 21007KT 10SM CLR M12/M15 A3034 690 76 -2400 210/07 RMK AO2
94908KDBQ DBQ20020205070509602/05/02 07:05:31  5-MIN KDBQ 051305Z 21009KT 10SM CLR M12/M15 A3034 690 76 -2400 210/09 RMK AO2
94908KDBQ DBQ20020205071009502/05/02 07:10:31  5-MIN KDBQ 051310Z 21009KT 9SM CLR M12/M15 A3034 690 76 -2400 210/09 RMK AO2
94908KDBQ DBQ20020205071509502/05/02 07:15:31  5-MIN KDBQ 051315Z 21007KT 9SM CLR M12/M15 A3034 690 76 -2400 210/07 RMK AO2
94908KDBQ DBQ20020205072009502/05/02 07:20:31  5-MIN KDBQ 051320Z 21007KT 9SM CLR M12/M15 A3034 690 80 -2500 210/07 RMK AO2
94908KDBQ DBQ20020205072509502/05/02 07:25:31  5-MIN KDBQ 051325Z 21007KT 9SM CLR M12/M15 A3034 690 80 -2500 210/07 RMK AO2
94908KDBQ DBQ20020205073009502/05/02 07:30:31  5-MIN KDBQ 051330Z 22007KT 9SM CLR M12/M15 A3034 690 80 -2500 220/07 RMK AO2
94908KDBQ DBQ20020205073509502/05/02 07:35:31  5-MIN KDBQ 051335Z 22008KT 8SM CLR M12/M15 A3034 700 76 -2400 210/08 RMK AO2
94908KDBQ DBQ20020205074009502/05/02 07:40:31  5-MIN KDBQ 051340Z 22008KT 8SM CLR M12/M15 A3034 690 80 -2500 210/08 RMK AO2
94908KDBQ DBQ20020205074509502/05/02 07:45:31  5-MIN KDBQ 051345Z 22007KT 9SM CLR M12/M15 A3034 690 80 -2500 220/07 RMK AO2
94908KDBQ DBQ20020205075011202/05/02 07:50:31  5-MIN KDBQ 051350Z 22007KT 9SM CLR M12/M15 A3034 690 76 -2400 220/07 RMK AO2 SLP300 T11171150
94908KDBQ DBQ20020205075511202/05/02 07:55:31  5-MIN KDBQ 051355Z 22007KT 9SM CLR M12/M15 A3035 690 80 -2500 220/07 RMK AO2 SLP301 T11221150
94908KDBQ DBQ20020205080009502/05/02 08:00:31  5-MIN KDBQ 051400Z 22007KT 9SM CLR M12/M15 A3035 680 76 -2400 220/07 RMK AO2
94908KDBQ DBQ20020205080509502/05/02 08:05:31  5-MIN KDBQ 051405Z 22007KT 9SM CLR M12/M15 A3035 680 76 -2400 220/07 RMK AO2
94908KDBQ DBQ20020205081009502/05/02 08:10:31  5-MIN KDBQ 051410Z 22007KT 9SM CLR M12/M15 A3035 680 76 -2400 220/07 RMK AO2
94908KDBQ DBQ20020205081509502/05/02 08:15:31  5-MIN KDBQ 051415Z 22007KT 8SM CLR M12/M14 A3035 690 80 -2400 220/07 RMK AO2
94908KDBQ DBQ20020205082009502/05/02 08:20:31  5-MIN KDBQ 051420Z 22007KT 8SM CLR M12/M14 A3035 680 80 -2400 220/07 RMK AO2
94908KDBQ DBQ20020205082509502/05/02 08:25:31  5-MIN KDBQ 051425Z 23006KT 8SM CLR M12/M14 A3035 680 80 -2400 220/06 RMK AO2
94908KDBQ DBQ20020205083009502/05/02 08:30:31  5-MIN KDBQ 051430Z 22007KT 8SM CLR M11/M14 A3035 680 77 -2300 220/07 RMK AO2
94908KDBQ DBQ20020205083509502/05/02 08:35:31  5-MIN KDBQ 051435Z 22008KT 9SM CLR M11/M14 A3035 680 77 -2300 220/08 RMK AO2
94908KDBQ DBQ20020205084009502/05/02 08:40:31  5-MIN KDBQ 051440Z 22008KT 9SM CLR M11/M14 A3035 680 77 -2300 220/08 RMK AO2
94908KDBQ DBQ20020205084509502/05/02 08:45:31  5-MIN KDBQ 051445Z 22006KT 9SM CLR M11/M14 A3035 680 77 -2300 220/06 RMK AO2
94908KDBQ DBQ20020205085011802/05/02 08:50:31  5-MIN KDBQ 051450Z 22006KT 9SM CLR M11/M14 A3035 680 77 -2300 220/06 RMK AO2 SLP301 T11061139 56010
94908KDBQ DBQ20020205085511802/05/02 08:55:31  5-MIN KDBQ 051455Z 22006KT 9SM CLR M10/M13 A3034 690 77 -2200 220/06 RMK AO2 SLP300 T11001133 50000
94908KDBQ DBQ20020205090009502/05/02 09:00:31  5-MIN KDBQ 051500Z 23008KT 9SM CLR M10/M13 A3035 690 77 -2200 230/08 RMK AO2
94908KDBQ DBQ20020205090509502/05/02 09:05:31  5-MIN KDBQ 051505Z 24008KT 9SM CLR M09/M13 A3035 680 77 -2100 240/08 RMK AO2
94908KDBQ DBQ20020205091009502/05/02 09:10:31  5-MIN KDBQ 051510Z 24009KT 9SM CLR M09/M13 A3035 690 74 -2000 240/09 RMK AO2
94908KDBQ DBQ20020205091509502/05/02 09:15:31  5-MIN KDBQ 051515Z 24010KT 9SM CLR M09/M13 A3035 690 70 -2000 240/10 RMK AO2
94908KDBQ DBQ20020205092009602/05/02 09:20:31  5-MIN KDBQ 051520Z 24009KT 10SM CLR M09/M13 A3034 690 74 -2000 240/09 RMK AO2
94908KDBQ DBQ20020205092509602/05/02 09:25:31  5-MIN KDBQ 051525Z 24009KT 10SM CLR M08/M13 A3034 690 70 -1900 240/09 RMK AO2
94908KDBQ DBQ20020205093009602/05/02 09:30:31  5-MIN KDBQ 051530Z 24009KT 10SM CLR M08/M12 A3034 690 74 -2000 240/09 RMK AO2
94908KDBQ DBQ20020205093509602/05/02 09:35:31  5-MIN KDBQ 051535Z 23010KT 10SM CLR M08/M12 A3034 690 71 -1900 230/10 RMK AO2
94908KDBQ DBQ20020205094009602/05/02 09:40:31  5-MIN KDBQ 051540Z 23010KT 10SM CLR M08/M12 A3034 690 74 -1900 230/10 RMK AO2
94908KDBQ DBQ20020205094509602/05/02 09:45:31  5-MIN KDBQ 051545Z 23011KT 10SM CLR M07/M12 A3033 700 71 -1800 230/11 RMK AO2
94908KDBQ DBQ20020205095011302/05/02 09:50:31  5-MIN KDBQ 051550Z 24010KT 10SM CLR M07/M12 A3034 690 71 -1800 240/10 RMK AO2 SLP297 T10721117
94908KDBQ DBQ20020205095511302/05/02 09:55:31  5-MIN KDBQ 051555Z 24011KT 10SM CLR M07/M12 A3034 700 71 -1800 240/11 RMK AO2 SLP296 T10721117
94908KDBQ DBQ20020205100009602/05/02 10:00:31  5-MIN KDBQ 051600Z 24011KT 10SM CLR M07/M12 A3033 700 68 -1700 240/11 RMK AO2
94908KDBQ DBQ20020205100509602/05/02 10:05:31  5-MIN KDBQ 051605Z 24013KT 10SM CLR M07/M12 A3034 700 68 -1700 240/13 RMK AO2
94908KDBQ DBQ20020205101009602/05/02 10:10:31  5-MIN KDBQ 051610Z 25010KT 10SM CLR M07/M11 A3034 690 71 -1700 250/10 RMK AO2
94908KDBQ DBQ20020205101509602/05/02 10:15:31  5-MIN KDBQ 051615Z 26010KT 10SM CLR M06/M11 A3034 690 68 -1700 250/10 RMK AO2
94908KDBQ DBQ20020205102009602/05/02 10:20:31  5-MIN KDBQ 051620Z 25010KT 10SM CLR M06/M11 A3034 700 68 -1700 250/10 RMK AO2
94908KDBQ DBQ20020205102509602/05/02 10:25:31  5-MIN KDBQ 051625Z 24012KT 10SM CLR M06/M11 A3034 690 68 -1700 240/12 RMK AO2
94908KDBQ DBQ20020205103009602/05/02 10:30:31  5-MIN KDBQ 051630Z 24010KT 10SM CLR M06/M11 A3034 690 71 -1700 240/10 RMK AO2
94908KDBQ DBQ20020205103509602/05/02 10:35:31  5-MIN KDBQ 051635Z 24011KT 10SM CLR M06/M11 A3034 700 68 -1700 240/11 RMK AO2
94908KDBQ DBQ20020205104009602/05/02 10:40:31  5-MIN KDBQ 051640Z 24010KT 10SM CLR M06/M11 A3034 700 68 -1600 240/10 RMK AO2
94908KDBQ DBQ20020205104509602/05/02 10:45:31  5-MIN KDBQ 051645Z 25011KT 10SM CLR M06/M11 A3034 700 68 -1600 240/11 RMK AO2
94908KDBQ DBQ20020205105011302/05/02 10:50:31  5-MIN KDBQ 051650Z 25010KT 10SM CLR M06/M11 A3034 690 68 -1600 250/10 RMK AO2 SLP296 T10561106
94908KDBQ DBQ20020205105511302/05/02 10:55:31  5-MIN KDBQ 051655Z 25011KT 10SM CLR M06/M10 A3034 690 71 -1600 240/11 RMK AO2 SLP298 T10561100
94908KDBQ DBQ20020205110009602/05/02 11:00:31  5-MIN KDBQ 051700Z 24011KT 10SM CLR M06/M11 A3034 690 68 -1600 240/11 RMK AO2
94908KDBQ DBQ20020205110509602/05/02 11:05:31  5-MIN KDBQ 051705Z 24010KT 10SM CLR M06/M10 A3034 690 71 -1600 240/10 RMK AO2
94908KDBQ DBQ20020205111009602/05/02 11:10:31  5-MIN KDBQ 051710Z 24011KT 10SM CLR M05/M10 A3035 690 68 -1500 240/11 RMK AO2
94908KDBQ DBQ20020205111509602/05/02 11:15:31  5-MIN KDBQ 051715Z 25009KT 10SM CLR M05/M10 A3035 690 68 -1500 250/09 RMK AO2
94908KDBQ DBQ20020205112009602/05/02 11:20:31  5-MIN KDBQ 051720Z 25009KT 10SM CLR M05/M10 A3035 690 68 -1500 250/09 RMK AO2
94908KDBQ DBQ20020205112509602/05/02 11:25:31  5-MIN KDBQ 051725Z 24010KT 10SM CLR M05/M09 A3034 690 71 -1500 240/10 RMK AO2
94908KDBQ DBQ20020205113009502/05/02 11:30:31  5-MIN KDBQ 051730Z 27009KT 9SM CLR M04/M09 A3034 690 68 -1400 270/09 RMK AO2
94908KDBQ DBQ20020205113509502/05/02 11:35:31  5-MIN KDBQ 051735Z 27009KT 9SM CLR M04/M09 A3034 690 68 -1400 270/09 RMK AO2
94908KDBQ DBQ20020205114009502/05/02 11:40:31  5-MIN KDBQ 051740Z 28013KT 9SM CLR M04/M10 A3034 690 65 -1400 280/13 RMK AO2
94908KDBQ DBQ20020205114509502/05/02 11:45:31  5-MIN KDBQ 051745Z 27013KT 9SM CLR M04/M09 A3033 700 68 -1400 270/13 RMK AO2
94908KDBQ DBQ20020205115013002/05/02 11:50:31  5-MIN KDBQ 051750Z 27011KT 9SM CLR M04/M09 A3033 700 68 -1400 270/11 RMK AO2 SLP293 T10441094 11044 21122 50000
94908KDBQ DBQ20020205115513002/05/02 11:55:31  5-MIN KDBQ 051755Z 27010KT 9SM CLR M04/M09 A3033 700 68 -1400 270/10 RMK AO2 SLP293 T10441094 11044 21122 58004
94908KDBQ DBQ20020205120009502/05/02 12:00:31  5-MIN KDBQ 051800Z 27009KT 9SM CLR M04/M09 A3033 700 65 -1400 270/09 RMK AO2
94908KDBQ DBQ20020205120509502/05/02 12:05:31  5-MIN KDBQ 051805Z 26011KT 9SM CLR M04/M09 A3033 710 65 -1400 260/11 RMK AO2
94908KDBQ DBQ20020205121009502/05/02 12:10:31  5-MIN KDBQ 051810Z 27010KT 9SM CLR M04/M09 A3032 710 65 -1400 270/10 RMK AO2
94908KDBQ DBQ20020205121509502/05/02 12:15:31  5-MIN KDBQ 051815Z 28009KT 8SM CLR M04/M09 A3032 710 68 -1400 280/09 RMK AO2
94908KDBQ DBQ20020205122009502/05/02 12:20:31  5-MIN KDBQ 051820Z 26009KT 8SM CLR M04/M09 A3032 710 68 -1300 260/09 RMK AO2
94908KDBQ DBQ20020205122509502/05/02 12:25:31  5-MIN KDBQ 051825Z 26010KT 8SM CLR M04/M09 A3031 720 65 -1300 260/10 RMK AO2
94908KDBQ DBQ20020205123009502/05/02 12:30:31  5-MIN KDBQ 051830Z 26009KT 8SM CLR M04/M09 A3031 720 68 -1300 260/09 RMK AO2
94908KDBQ DBQ20020205123509502/05/02 12:35:31  5-MIN KDBQ 051835Z 26008KT 8SM CLR M04/M09 A3031 720 68 -1300 260/08 RMK AO2
94908KDBQ DBQ20020205124009502/05/02 12:40:31  5-MIN KDBQ 051840Z 26009KT 8SM CLR M04/M09 A3030 730 68 -1300 260/09 RMK AO2
94908KDBQ DBQ20020205124509502/05/02 12:45:31  5-MIN KDBQ 051845Z 26008KT 8SM CLR M04/M09 A3030 730 68 -1300 260/08 RMK AO2
94908KDBQ DBQ20020205125011202/05/02 12:50:31  5-MIN KDBQ 051850Z 25009KT 8SM CLR M04/M08 A3029 740 71 -1300 240/09 RMK AO2 SLP280 T10391083
94908KDBQ DBQ20020205125511202/05/02 12:55:31  5-MIN KDBQ 051855Z 25010KT 8SM CLR M04/M08 A3029 740 71 -1300 250/10 RMK AO2 SLP278 T10391083
94908KDBQ DBQ20020205130009502/05/02 13:00:31  5-MIN KDBQ 051900Z 24008KT 8SM CLR M04/M08 A3029 740 71 -1300 240/08 RMK AO2
94908KDBQ DBQ20020205130509502/05/02 13:05:31  5-MIN KDBQ 051905Z 26008KT 8SM CLR M03/M08 A3029 740 68 -1200 260/08 RMK AO2
94908KDBQ DBQ20020205131009502/05/02 13:10:31  5-MIN KDBQ 051910Z 26009KT 8SM CLR M03/M08 A3028 740 68 -1200 250/09 RMK AO2
94908KDBQ DBQ20020205131509502/05/02 13:15:31  5-MIN KDBQ 051915Z 26009KT 8SM CLR M03/M08 A3028 750 68 -1200 260/09 RMK AO2
94908KDBQ DBQ20020205132009502/05/02 13:20:31  5-MIN KDBQ 051920Z 26009KT 8SM CLR M03/M08 A3028 750 68 -1200 260/09 RMK AO2
94908KDBQ DBQ20020205132509502/05/02 13:25:31  5-MIN KDBQ 051925Z 26008KT 8SM CLR M03/M08 A3027 750 68 -1200 260/08 RMK AO2
94908KDBQ DBQ20020205133009502/05/02 13:30:31  5-MIN KDBQ 051930Z 25007KT 8SM CLR M03/M08 A3027 760 68 -1200 250/07 RMK AO2
94908KDBQ DBQ20020205133509502/05/02 13:35:31  5-MIN KDBQ 051935Z 24009KT 8SM CLR M03/M08 A3026 760 71 -1200 240/09 RMK AO2
94908KDBQ DBQ20020205134009502/05/02 13:40:31  5-MIN KDBQ 051940Z 25008KT 8SM CLR M03/M08 A3026 770 71 -1200 250/08 RMK AO2
94908KDBQ DBQ20020205134509502/05/02 13:45:31  5-MIN KDBQ 051945Z 25008KT 8SM CLR M03/M09 A3026 760 63 -1100 250/08 RMK AO2
94908KDBQ DBQ20020205135011202/05/02 13:50:31  5-MIN KDBQ 051950Z 24009KT 8SM CLR M03/M08 A3026 770 68 -1100 240/09 RMK AO2 SLP266 T10281078
94908KDBQ DBQ20020205135511202/05/02 13:55:31  5-MIN KDBQ 051955Z 24010KT 8SM CLR M03/M08 A3025 770 68 -1100 240/10 RMK AO2 SLP265 T10281078
94908KDBQ DBQ20020205140009502/05/02 14:00:31  5-MIN KDBQ 052000Z 24011KT 8SM CLR M03/M08 A3025 770 68 -1100 240/11 RMK AO2
94908KDBQ DBQ20020205140509502/05/02 14:05:31  5-MIN KDBQ 052005Z 24010KT 7SM CLR M03/M08 A3025 770 68 -1100 240/10 RMK AO2
94908KDBQ DBQ20020205141009502/05/02 14:10:31  5-MIN KDBQ 052010Z 25010KT 7SM CLR M03/M08 A3025 770 68 -1100 250/10 RMK AO2
94908KDBQ DBQ20020205141509502/05/02 14:15:31  5-MIN KDBQ 052015Z 25010KT 7SM CLR M03/M08 A3025 770 68 -1100 240/10 RMK AO2
94908KDBQ DBQ20020205142009502/05/02 14:20:31  5-MIN KDBQ 052020Z 24010KT 7SM CLR M03/M07 A3024 780 71 -1100 230/10 RMK AO2
94908KDBQ DBQ20020205142509502/05/02 14:25:31  5-MIN KDBQ 052025Z 24009KT 7SM CLR M03/M07 A3024 780 71 -1100 240/09 RMK AO2
94908KDBQ DBQ20020205143009502/05/02 14:30:31  5-MIN KDBQ 052030Z 25009KT 7SM CLR M02/M07 A3025 780 69 -1100 250/09 RMK AO2
94908KDBQ DBQ20020205143509502/05/02 14:35:31  5-MIN KDBQ 052035Z 25010KT 7SM CLR M02/M07 A3025 770 69 -1100 250/10 RMK AO2
94908KDBQ DBQ20020205144009502/05/02 14:40:31  5-MIN KDBQ 052040Z 25010KT 7SM CLR M02/M07 A3025 780 69 -1100 250/10 RMK AO2
94908KDBQ DBQ20020205144509502/05/02 14:45:31  5-MIN KDBQ 052045Z 24009KT 7SM CLR M02/M07 A3025 780 69 -1100 240/09 RMK AO2
94908KDBQ DBQ20020205145011802/05/02 14:50:31  5-MIN KDBQ 052050Z 25008KT 7SM CLR M02/M07 A3025 780 69 -1100 250/08 RMK AO2 SLP262 T10221072 58004
94908KDBQ DBQ20020205145511802/05/02 14:55:31  5-MIN KDBQ 052055Z 25008KT 7SM CLR M02/M07 A3025 780 69 -1100 250/08 RMK AO2 SLP263 T10221072 56027
94908KDBQ DBQ20020205150009502/05/02 15:00:31  5-MIN KDBQ 052100Z 25008KT 7SM CLR M02/M07 A3025 770 69 -1100 250/08 RMK AO2
94908KDBQ DBQ20020205150509502/05/02 15:05:31  5-MIN KDBQ 052105Z 25009KT 7SM CLR M02/M07 A3025 770 69 -1100 250/09 RMK AO2
94908KDBQ DBQ20020205151009502/05/02 15:10:31  5-MIN KDBQ 052110Z 25008KT 7SM CLR M02/M07 A3025 770 69 -1100 250/08 RMK AO2
94908KDBQ DBQ20020205151509502/05/02 15:15:31  5-MIN KDBQ 052115Z 25008KT 7SM CLR M02/M07 A3026 770 69 -1100 250/08 RMK AO2
94908KDBQ DBQ20020205152009502/05/02 15:20:31  5-MIN KDBQ 052120Z 26008KT 7SM CLR M02/M07 A3026 770 72 -1100 260/08 RMK AO2
94908KDBQ DBQ20020205152509502/05/02 15:25:31  5-MIN KDBQ 052125Z 26009KT 7SM CLR M02/M07 A3026 770 69 -1100 250/09 RMK AO2
94908KDBQ DBQ20020205153009502/05/02 15:30:31  5-MIN KDBQ 052130Z 25009KT 7SM CLR M02/M07 A3026 770 69 -1100 250/09 RMK AO2
94908KDBQ DBQ20020205153509502/05/02 15:35:31  5-MIN KDBQ 052135Z 25007KT 7SM CLR M02/M06 A3026 770 75 -1100 250/07 RMK AO2
94908KDBQ DBQ20020205154009502/05/02 15:40:31  5-MIN KDBQ 052140Z 25008KT 7SM CLR M02/M07 A3026 760 72 -1100 250/08 RMK AO2
94908KDBQ DBQ20020205154509502/05/02 15:45:31  5-MIN KDBQ 052145Z 25008KT 7SM CLR M02/M07 A3026 760 72 -1100 250/08 RMK AO2
94908KDBQ DBQ20020205155011202/05/02 15:50:31  5-MIN KDBQ 052150Z 25008KT 7SM CLR M02/M07 A3026 770 72 -1100 250/08 RMK AO2 SLP266 T10221067
94908KDBQ DBQ20020205155511202/05/02 15:55:31  5-MIN KDBQ 052155Z 26007KT 7SM CLR M02/M07 A3026 770 72 -1100 250/07 RMK AO2 SLP266 T10221067
94908KDBQ DBQ20020205160009502/05/02 16:00:31  5-MIN KDBQ 052200Z 26006KT 7SM CLR M02/M07 A3026 770 69 -1100 260/06 RMK AO2
94908KDBQ DBQ20020205160509802/05/02 16:05:31  5-MIN KDBQ 052205Z 27007KT 6SM HZ CLR M02/M07 A3026 770 69 -1100 270/07 RMK AO2
94908KDBQ DBQ20020205161009802/05/02 16:10:31  5-MIN KDBQ 052210Z 27007KT 6SM HZ CLR M02/M07 A3026 770 69 -1100 270/07 RMK AO2
94908KDBQ DBQ20020205161509802/05/02 16:15:31  5-MIN KDBQ 052215Z 27006KT 6SM HZ CLR M03/M07 A3026 770 71 -1100 270/06 RMK AO2
94908KDBQ DBQ20020205162009802/05/02 16:20:31  5-MIN KDBQ 052220Z 28007KT 6SM HZ CLR M03/M07 A3026 770 71 -1100 280/07 RMK AO2
94908KDBQ DBQ20020205162509802/05/02 16:25:31  5-MIN KDBQ 052225Z 27006KT 6SM HZ CLR M03/M07 A3026 770 71 -1100 270/06 RMK AO2
94908KDBQ DBQ20020205163009802/05/02 16:30:31  5-MIN KDBQ 052230Z 28007KT 6SM HZ CLR M03/M07 A3026 760 71 -1100 280/07 RMK AO2
94908KDBQ DBQ20020205163509802/05/02 16:35:31  5-MIN KDBQ 052235Z 27006KT 6SM HZ CLR M03/M07 A3026 770 71 -1100 270/06 RMK AO2
94908KDBQ DBQ20020205164009802/05/02 16:40:31  5-MIN KDBQ 052240Z 27006KT 6SM HZ CLR M03/M07 A3026 770 74 -1200 270/06 RMK AO2
94908KDBQ DBQ20020205164509802/05/02 16:45:31  5-MIN KDBQ 052245Z 27006KT 6SM HZ CLR M03/M08 A3026 770 71 -1200 270/06 RMK AO2
94908KDBQ DBQ20020205165011502/05/02 16:50:31  5-MIN KDBQ 052250Z 27006KT 6SM HZ CLR M03/M08 A3026 770 71 -1200 270/06 RMK AO2 SLP266 T10331078
94908KDBQ DBQ20020205165511502/05/02 16:55:31  5-MIN KDBQ 052255Z 27007KT 6SM HZ CLR M03/M08 A3026 760 71 -1200 270/07 RMK AO2 SLP267 T10331078
94908KDBQ DBQ20020205170009802/05/02 17:00:31  5-MIN KDBQ 052300Z 27007KT 6SM HZ CLR M04/M08 A3026 760 74 -1300 270/07 RMK AO2
94908KDBQ DBQ20020205170509802/05/02 17:05:31  5-MIN KDBQ 052305Z 26007KT 6SM HZ CLR M04/M08 A3026 760 74 -1300 260/07 RMK AO2
94908KDBQ DBQ20020205171009802/05/02 17:10:31  5-MIN KDBQ 052310Z 26007KT 6SM HZ CLR M04/M08 A3026 760 74 -1300 260/07 RMK AO2
94908KDBQ DBQ20020205171509802/05/02 17:15:31  5-MIN KDBQ 052315Z 26006KT 6SM HZ CLR M04/M08 A3026 770 78 -1400 250/06 RMK AO2
94908KDBQ DBQ20020205172009802/05/02 17:20:31  5-MIN KDBQ 052320Z 25007KT 6SM HZ CLR M04/M08 A3025 770 78 -1300 250/07 RMK AO2
94908KDBQ DBQ20020205172509802/05/02 17:25:31  5-MIN KDBQ 052325Z 25008KT 6SM HZ CLR M04/M08 A3025 770 74 -1300 250/08 RMK AO2
94908KDBQ DBQ20020205173009802/05/02 17:30:31  5-MIN KDBQ 052330Z 25007KT 6SM HZ CLR M04/M08 A3025 770 74 -1300 250/07 RMK AO2
94908KDBQ DBQ20020205173509802/05/02 17:35:31  5-MIN KDBQ 052335Z 25007KT 6SM HZ CLR M05/M08 A3025 770 77 -1400 250/07 RMK AO2
94908KDBQ DBQ20020205174009802/05/02 17:40:31  5-MIN KDBQ 052340Z 24007KT 6SM HZ CLR M05/M08 A3025 770 77 -1400 240/07 RMK AO2
94908KDBQ DBQ20020205174509502/05/02 17:45:31  5-MIN KDBQ 052345Z 24007KT 7SM CLR M06/M09 A3025 770 77 -1500 240/07 RMK AO2
94908KDBQ DBQ20020205175013002/05/02 17:50:31  5-MIN KDBQ 052350Z 23007KT 7SM CLR M06/M09 A3025 780 77 -1500 230/07 RMK AO2 SLP264 T10561089 11022 21056 56027
94908KDBQ DBQ20020205175513002/05/02 17:55:31  5-MIN KDBQ 052355Z 22008KT 7SM CLR M06/M08 A3025 780 81 -1500 220/08 RMK AO2 SLP264 T10561083 11022 21056 58001
94908KDBQ DBQ20020205180009502/05/02 18:00:31  5-MIN KDBQ 060000Z 22008KT 7SM CLR M06/M08 A3025 780 81 -1500 220/08 RMK AO2
94908KDBQ DBQ20020205180509502/05/02 18:05:31  5-MIN KDBQ 060005Z 22008KT 7SM CLR M06/M08 A3025 780 81 -1500 220/08 RMK AO2
94908KDBQ DBQ20020205181009502/05/02 18:10:31  5-MIN KDBQ 060010Z 22008KT 7SM CLR M06/M08 A3025 780 81 -1500 220/08 RMK AO2
94908KDBQ DBQ20020205181509502/05/02 18:15:31  5-MIN KDBQ 060015Z 22008KT 7SM CLR M06/M08 A3025 780 81 -1500 220/08 RMK AO2
94908KDBQ DBQ20020205182009502/05/02 18:20:31  5-MIN KDBQ 060020Z 22008KT 7SM CLR M06/M08 A3025 770 84 -1600 220/08 RMK AO2
94908KDBQ DBQ20020205182509802/05/02 18:25:31  5-MIN KDBQ 060025Z 23007KT 6SM HZ CLR M07/M09 A3025 770 81 -1600 230/07 RMK AO2
94908KDBQ DBQ20020205183009802/05/02 18:30:31  5-MIN KDBQ 060030Z 23007KT 6SM HZ CLR M07/M09 A3025 770 81 -1600 230/07 RMK AO2
94908KDBQ DBQ20020205183509802/05/02 18:35:31  5-MIN KDBQ 060035Z 24007KT 6SM HZ CLR M07/M09 A3025 770 81 -1600 240/07 RMK AO2
94908KDBQ DBQ20020205184009802/05/02 18:40:31  5-MIN KDBQ 060040Z 23007KT 6SM BR CLR M07/M09 A3025 770 84 -1700 230/07 RMK AO2
94908KDBQ DBQ20020205184509802/05/02 18:45:31  5-MIN KDBQ 060045Z 22008KT 6SM HZ CLR M07/M09 A3025 770 81 -1600 220/08 RMK AO2
94908KDBQ DBQ20020205185011502/05/02 18:50:31  5-MIN KDBQ 060050Z 21004KT 6SM HZ CLR M07/M09 A3025 770 81 -1600 210/04 RMK AO2 SLP266 T10671094
94908KDBQ DBQ20020205185511502/05/02 18:55:31  5-MIN KDBQ 060055Z 23004KT 6SM HZ CLR M07/M09 A3025 770 81 -1600 230/04 RMK AO2 SLP266 T10671094
94908KDBQ DBQ20020205190009802/05/02 19:00:31  5-MIN KDBQ 060100Z 21006KT 6SM HZ CLR M07/M09 A3025 770 81 -1600 210/06 RMK AO2
94908KDBQ DBQ20020205190509802/05/02 19:05:31  5-MIN KDBQ 060105Z 22006KT 6SM BR CLR M07/M09 A3025 770 84 -1700 210/06 RMK AO2
94908KDBQ DBQ20020205191009802/05/02 19:10:31  5-MIN KDBQ 060110Z 22007KT 6SM BR CLR M07/M09 A3025 770 84 -1700 220/07 RMK AO2
94908KDBQ DBQ20020205191509802/05/02 19:15:31  5-MIN KDBQ 060115Z 22008KT 6SM BR CLR M07/M09 A3025 780 84 -1700 220/08 RMK AO2
94908KDBQ DBQ20020205192009802/05/02 19:20:31  5-MIN KDBQ 060120Z 21009KT 6SM BR CLR M07/M09 A3025 780 84 -1700 210/09 RMK AO2
94908KDBQ DBQ20020205192509802/05/02 19:25:31  5-MIN KDBQ 060125Z 22008KT 6SM BR CLR M07/M09 A3025 780 88 -1700 220/08 RMK AO2
94908KDBQ DBQ20020205193009802/05/02 19:30:31  5-MIN KDBQ 060130Z 21008KT 6SM BR CLR M07/M09 A3025 780 84 -1700 210/08 RMK AO2
94908KDBQ DBQ20020205193509802/05/02 19:35:31  5-MIN KDBQ 060135Z 22009KT 6SM BR CLR M07/M09 A3025 780 84 -1700 220/09 RMK AO2
94908KDBQ DBQ20020205194010802/05/02 19:40:31  5-MIN KDBQ 060140Z AUTO 21008KT 5SM BR CLR M07/M09 A3025 780 84 -1700 210/08 RMK AO2 TSNO
94908KDBQ DBQ20020205194510802/05/02 19:45:31  5-MIN KDBQ 060145Z AUTO 22007KT 5SM BR CLR M07/M09 A3025 780 84 -1700 220/07 RMK AO2 TSNO
94908KDBQ DBQ20020205195012502/05/02 19:50:31  5-MIN KDBQ 060150Z AUTO 22006KT 5SM BR CLR M08/M09 A3025 780 88 -1800 220/06 RMK AO2 SLP263 T10781094 TSNO
94908KDBQ DBQ20020205195512502/05/02 19:55:31  5-MIN KDBQ 060155Z AUTO 22006KT 5SM BR CLR M08/M10 A3024 780 84 -1800 220/06 RMK AO2 SLP263 T10781100 TSNO
94908KDBQ DBQ20020205200010802/05/02 20:00:31  5-MIN KDBQ 060200Z AUTO 22006KT 5SM BR CLR M08/M09 A3024 780 88 -1800 220/06 RMK AO2 TSNO
94908KDBQ DBQ20020205200510802/05/02 20:05:31  5-MIN KDBQ 060205Z AUTO 21005KT 5SM BR CLR M08/M09 A3024 790 88 -1800 210/05 RMK AO2 TSNO
94908KDBQ DBQ20020205201010802/05/02 20:10:31  5-MIN KDBQ 060210Z AUTO 21006KT 5SM BR CLR M07/M09 A3024 790 84 -1700 210/06 RMK AO2 TSNO
94908KDBQ DBQ20020205201510802/05/02 20:15:31  5-MIN KDBQ 060215Z AUTO 22005KT 5SM BR CLR M07/M09 A3023 790 84 -1700 220/05 RMK AO2 TSNO
94908KDBQ DBQ20020205202010802/05/02 20:20:31  5-MIN KDBQ 060220Z AUTO 22005KT 5SM BR CLR M08/M09 A3023 790 88 -1800 220/05 RMK AO2 TSNO
94908KDBQ DBQ20020205202510802/05/02 20:25:31  5-MIN KDBQ 060225Z AUTO 21007KT 5SM BR CLR M08/M10 A3023 790 84 -1800 210/07 RMK AO2 TSNO
94908KDBQ DBQ20020205203010802/05/02 20:30:31  5-MIN KDBQ 060230Z AUTO 21008KT 5SM BR CLR M08/M10 A3023 790 84 -1800 210/08 RMK AO2 TSNO
94908KDBQ DBQ20020205203510802/05/02 20:35:31  5-MIN KDBQ 060235Z AUTO 21007KT 5SM BR CLR M08/M09 A3023 790 88 -1800 210/07 RMK AO2 TSNO
94908KDBQ DBQ20020205204010802/05/02 20:40:31  5-MIN KDBQ 060240Z AUTO 21006KT 5SM BR CLR M08/M10 A3023 800 88 -1800 210/06 RMK AO2 TSNO
94908KDBQ DBQ20020205204510802/05/02 20:45:31  5-MIN KDBQ 060245Z AUTO 21006KT 5SM BR CLR M08/M09 A3022 800 88 -1700 210/06 RMK AO2 TSNO
94908KDBQ DBQ20020205205013102/05/02 20:50:31  5-MIN KDBQ 060250Z AUTO 22005KT 5SM BR CLR M08/M09 A3022 800 88 -1700 220/05 RMK AO2 SLP256 T10781094 58001 TSNO
94908KDBQ DBQ20020205205513102/05/02 20:55:31  5-MIN KDBQ 060255Z AUTO 22004KT 5SM BR CLR M08/M09 A3022 800 88 -1700 220/04 RMK AO2 SLP255 T10781094 58008 TSNO
94908KDBQ DBQ20020205210010802/05/02 21:00:31  5-MIN KDBQ 060300Z AUTO 21004KT 4SM BR CLR M08/M09 A3022 800 88 -1700 210/04 RMK AO2 TSNO
94908KDBQ DBQ20020205210510802/05/02 21:05:31  5-MIN KDBQ 060305Z AUTO 22003KT 4SM BR CLR M08/M10 A3023 800 88 -1800 220/03 RMK AO2 TSNO
94908KDBQ DBQ20020205211010802/05/02 21:10:31  5-MIN KDBQ 060310Z AUTO 22003KT 4SM BR CLR M09/M11 A3023 800 88 -1900 220/03 RMK AO2 TSNO
94908KDBQ DBQ20020205211510802/05/02 21:15:31  5-MIN KDBQ 060315Z AUTO 22004KT 4SM BR CLR M09/M10 A3023 800 92 -1900 220/04 RMK AO2 TSNO
94908KDBQ DBQ20020205212010802/05/02 21:20:31  5-MIN KDBQ 060320Z AUTO 22003KT 4SM BR CLR M09/M11 A3023 790 88 -1900 220/03 RMK AO2 TSNO
94908KDBQ DBQ20020205212510802/05/02 21:25:31  5-MIN KDBQ 060325Z AUTO 23003KT 3SM BR CLR M09/M11 A3023 790 88 -2000 230/03 RMK AO2 TSNO
94908KDBQ DBQ20020205213010802/05/02 21:30:31  5-MIN KDBQ 060330Z AUTO 00000KT 3SM BR CLR M09/M11 A3023 790 92 -2000 000/00 RMK AO2 TSNO
94908KDBQ DBQ20020205213510802/05/02 21:35:31  5-MIN KDBQ 060335Z AUTO 00000KT 3SM BR CLR M09/M10 A3023 790 96 -2000 000/00 RMK AO2 TSNO
94908KDBQ DBQ20020205214010802/05/02 21:40:31  5-MIN KDBQ 060340Z AUTO 00000KT 3SM BR CLR M09/M10 A3023 800 92 -1900 000/00 RMK AO2 TSNO
94908KDBQ DBQ20020205214510802/05/02 21:45:31  5-MIN KDBQ 060345Z AUTO 00000KT 3SM BR CLR M08/M09 A3023 800 92 -1800 000/00 RMK AO2 TSNO
94908KDBQ DBQ20020205215012502/05/02 21:50:31  5-MIN KDBQ 060350Z AUTO 00000KT 3SM BR CLR M09/M11 A3023 800 92 -2000 000/00 RMK AO2 SLP256 T10941106 TSNO
94908KDBQ DBQ20020205215512502/05/02 21:55:31  5-MIN KDBQ 060355Z AUTO 00000KT 3SM BR CLR M09/M10 A3023 800 92 -1900 000/00 RMK AO2 SLP255 T10891100 TSNO
94908KDBQ DBQ20020205220010802/05/02 22:00:31  5-MIN KDBQ 060400Z AUTO 00000KT 3SM BR CLR M09/M11 A3022 800 92 -2000 000/00 RMK AO2 TSNO
94908KDBQ DBQ20020205220510802/05/02 22:05:31  5-MIN KDBQ 060405Z AUTO 00000KT 3SM BR CLR M10/M11 A3022 800 92 -2000 000/00 RMK AO2 TSNO
94908KDBQ DBQ20020205221010802/05/02 22:10:31  5-MIN KDBQ 060410Z AUTO 16003KT 3SM BR CLR M09/M11 A3022 800 92 -2000 160/03 RMK AO2 TSNO
94908KDBQ DBQ20020205221510802/05/02 22:15:31  5-MIN KDBQ 060415Z AUTO 00000KT 3SM BR CLR M10/M11 A3022 800 92 -2000 000/00 RMK AO2 TSNO
94908KDBQ DBQ20020205222010802/05/02 22:20:31  5-MIN KDBQ 060420Z AUTO 19004KT 3SM BR CLR M09/M11 A3022 800 88 -2000 180/04 RMK AO2 TSNO
94908KDBQ DBQ20020205222510802/05/02 22:25:31  5-MIN KDBQ 060425Z AUTO 20005KT 3SM BR CLR M09/M11 A3022 800 88 -2000 200/05 RMK AO2 TSNO
94908KDBQ DBQ20020205223010802/05/02 22:30:31  5-MIN KDBQ 060430Z AUTO 20006KT 3SM BR CLR M09/M10 A3022 810 96 -2000 200/06 RMK AO2 TSNO
94908KDBQ DBQ20020205223510802/05/02 22:35:31  5-MIN KDBQ 060435Z AUTO 21005KT 3SM BR CLR M10/M11 A3022 810 96 -2000 200/05 RMK AO2 TSNO
94908KDBQ DBQ20020205224010802/05/02 22:40:31  5-MIN KDBQ 060440Z AUTO 21004KT 3SM BR CLR M09/M11 A3022 810 88 -2000 210/04 RMK AO2 TSNO
94908KDBQ DBQ20020205224510802/05/02 22:45:31  5-MIN KDBQ 060445Z AUTO 21003KT 3SM BR CLR M09/M11 A3021 810 88 -2000 210/03 RMK AO2 TSNO
94908KDBQ DBQ20020205225012502/05/02 22:50:31  5-MIN KDBQ 060450Z AUTO 22003KT 3SM BR CLR M11/M12 A3021 810 88 -2100 220/03 RMK AO2 SLP251 T11061122 TSNO
94908KDBQ DBQ20020205225512502/05/02 22:55:31  5-MIN KDBQ 060455Z AUTO 21003KT 3SM BR CLR M10/M12 A3021 810 88 -2000 210/03 RMK AO2 SLP250 T11001117 TSNO
94908KDBQ DBQ20020205230010802/05/02 23:00:31  5-MIN KDBQ 060500Z AUTO 20003KT 3SM BR CLR M10/M11 A3021 820 92 -2000 200/03 RMK AO2 TSNO
94908KDBQ DBQ20020205230511202/05/02 23:05:31  5-MIN KDBQ 060505Z AUTO 00000KT 2 1/2SM BR CLR M09/M11 A3021 820 92 -1900 000/00 RMK AO2 TSNO
94908KDBQ DBQ20020205231011202/05/02 23:10:31  5-MIN KDBQ 060510Z AUTO 18003KT 2 1/2SM BR CLR M09/M11 A3021 820 92 -1900 180/03 RMK AO2 TSNO
94908KDBQ DBQ20020205231511202/05/02 23:15:31  5-MIN KDBQ 060515Z AUTO 19003KT 2 1/2SM BR CLR M11/M12 A3021 810 92 -2100 190/03 RMK AO2 TSNO
94908KDBQ DBQ20020205232011202/05/02 23:20:31  5-MIN KDBQ 060520Z AUTO 19004KT 2 1/2SM BR CLR M11/M12 A3021 820 92 -2100 190/04 RMK AO2 TSNO
94908KDBQ DBQ20020205232511202/05/02 23:25:31  5-MIN KDBQ 060525Z AUTO 20004KT 2 1/2SM HZ CLR M10/M13 A3020 820 77 -2000 200/04 RMK AO2 TSNO
94908KDBQ DBQ20020205233011202/05/02 23:30:31  5-MIN KDBQ 060530Z AUTO 20005KT 2 1/2SM BR CLR M10/M12 A3020 820 84 -2000 200/05 RMK AO2 TSNO
94908KDBQ DBQ20020205233511202/05/02 23:35:31  5-MIN KDBQ 060535Z AUTO 20005KT 2 1/2SM BR CLR M10/M12 A3020 820 88 -2000 200/05 RMK AO2 TSNO
94908KDBQ DBQ20020205234011202/05/02 23:40:31  5-MIN KDBQ 060540Z AUTO 20005KT 2 1/2SM BR CLR M10/M12 A3020 820 88 -2000 200/05 RMK AO2 TSNO
94908KDBQ DBQ20020205234511202/05/02 23:45:31  5-MIN KDBQ 060545Z AUTO 20006KT 2 1/2SM BR CLR M11/M12 A3020 820 92 -2100 200/06 RMK AO2 TSNO
94908KDBQ DBQ20020205235015702/05/02 23:50:31  5-MIN KDBQ 060550Z AUTO 20007KT 2 1/2SM BR CLR M10/M12 A3019 830 88 -2000 200/07 RMK AO2 SLP244 T11001117 11056 21106 410221150 58008 TSNO
94908KDBQ DBQ20020205235515702/05/02 23:55:31  5-MIN KDBQ 060555Z AUTO 20007KT 2 1/2SM BR CLR M10/M11 A3019 830 92 -2000 200/07 RMK AO2 SLP243 T11001111 11056 21106 410221150 58009 TSNO
94908KDBQ DBQ20020206000011202/06/02 00:00:31  5-MIN KDBQ 060600Z AUTO 20006KT 2 1/2SM BR CLR M11/M12 A3019 830 88 -2100 200/06 RMK AO2 TSNO
94908KDBQ DBQ20020206000511202/06/02 00:05:31  5-MIN KDBQ 060605Z AUTO 19006KT 2 1/2SM BR CLR M11/M12 A3019 830 88 -2100 190/06 RMK AO2 TSNO
94908KDBQ DBQ20020206001010802/06/02 00:10:31  5-MIN KDBQ 060610Z AUTO 20006KT 3SM BR CLR M10/M12 A3019 830 88 -2000 190/06 RMK AO2 TSNO
94908KDBQ DBQ20020206001510802/06/02 00:15:31  5-MIN KDBQ 060615Z AUTO 20005KT 3SM BR CLR M09/M11 A3019 830 88 -1900 200/05 RMK AO2 TSNO
94908KDBQ DBQ20020206002010802/06/02 00:20:31  5-MIN KDBQ 060620Z AUTO 21004KT 3SM BR CLR M10/M11 A3019 830 92 -2000 210/04 RMK AO2 TSNO
94908KDBQ DBQ20020206002511202/06/02 00:25:31  5-MIN KDBQ 060625Z AUTO 20005KT 2 1/2SM BR CLR M10/M12 A3018 840 88 -2000 200/05 RMK AO2 TSNO
94908KDBQ DBQ20020206003011202/06/02 00:30:31  5-MIN KDBQ 060630Z AUTO 21005KT 2 1/2SM BR CLR M10/M11 A3018 840 92 -2000 210/05 RMK AO2 TSNO
94908KDBQ DBQ20020206003511202/06/02 00:35:31  5-MIN KDBQ 060635Z AUTO 21006KT 2 1/2SM BR CLR M10/M11 A3018 840 92 -2000 210/06 RMK AO2 TSNO
94908KDBQ DBQ20020206004011202/06/02 00:40:31  5-MIN KDBQ 060640Z AUTO 21006KT 2 1/2SM BR CLR M10/M12 A3017 840 88 -2000 210/06 RMK AO2 TSNO
94908KDBQ DBQ20020206004511202/06/02 00:45:31  5-MIN KDBQ 060645Z AUTO 21007KT 2 1/2SM BR CLR M11/M12 A3017 850 92 -2000 210/07 RMK AO2 TSNO
94908KDBQ DBQ20020206005012902/06/02 00:50:31  5-MIN KDBQ 060650Z AUTO 21007KT 2 1/2SM BR CLR M11/M12 A3017 850 88 -2000 210/07 RMK AO2 SLP237 T11061122 TSNO
94908KDBQ DBQ20020206005512902/06/02 00:55:31  5-MIN KDBQ 060655Z AUTO 21005KT 2 1/2SM BR CLR M11/M12 A3017 840 92 -2000 210/05 RMK AO2 SLP237 T11061117 TSNO
94908KDBQ DBQ20020206010011202/06/02 01:00:31  5-MIN KDBQ 060700Z AUTO 21004KT 2 1/2SM BR CLR M11/M12 A3017 850 88 -2000 210/04 RMK AO2 TSNO
94908KDBQ DBQ20020206010511202/06/02 01:05:31  5-MIN KDBQ 060705Z AUTO 22004KT 2 1/2SM BR CLR M10/M12 A3017 850 88 -2000 210/04 RMK AO2 TSNO
94908KDBQ DBQ20020206011010802/06/02 01:10:31  5-MIN KDBQ 060710Z AUTO 21005KT 2SM BR CLR M10/M11 A3017 850 92 -2000 210/05 RMK AO2 TSNO
94908KDBQ DBQ20020206011510802/06/02 01:15:31  5-MIN KDBQ 060715Z AUTO 21006KT 2SM BR CLR M10/M11 A3017 850 92 -2000 210/06 RMK AO2 TSNO
94908KDBQ DBQ20020206012010802/06/02 01:20:31  5-MIN KDBQ 060720Z AUTO 21006KT 2SM BR CLR M10/M12 A3017 850 88 -2000 210/06 RMK AO2 TSNO
94908KDBQ DBQ20020206012510802/06/02 01:25:31  5-MIN KDBQ 060725Z AUTO 21005KT 2SM BR CLR M10/M11 A3017 850 92 -2000 210/05 RMK AO2 TSNO
94908KDBQ DBQ20020206013010802/06/02 01:30:31  5-MIN KDBQ 060730Z AUTO 20005KT 2SM BR CLR M10/M11 A3017 850 92 -2000 200/05 RMK AO2 TSNO
94908KDBQ DBQ20020206013510802/06/02 01:35:31  5-MIN KDBQ 060735Z AUTO 20005KT 2SM BR CLR M10/M11 A3017 850 92 -2000 200/05 RMK AO2 TSNO
94908KDBQ DBQ20020206014010802/06/02 01:40:31  5-MIN KDBQ 060740Z AUTO 20006KT 2SM BR CLR M10/M11 A3017 850 92 -2000 200/06 RMK AO2 TSNO
94908KDBQ DBQ20020206014510802/06/02 01:45:31  5-MIN KDBQ 060745Z AUTO 20006KT 2SM BR CLR M11/M12 A3017 850 92 -2000 200/06 RMK AO2 TSNO
94908KDBQ DBQ20020206015012502/06/02 01:50:31  5-MIN KDBQ 060750Z AUTO 20007KT 2SM BR CLR M11/M12 A3017 850 92 -2000 200/07 RMK AO2 SLP235 T11061117 TSNO
94908KDBQ DBQ20020206015512502/06/02 01:55:31  5-MIN KDBQ 060755Z AUTO 20006KT 2SM BR CLR M11/M12 A3016 850 92 -2000 200/06 RMK AO2 SLP234 T11061117 TSNO
94908KDBQ DBQ20020206020011202/06/02 02:00:31  5-MIN KDBQ 060800Z AUTO 20006KT 1 3/4SM BR CLR M11/M12 A3016 860 92 -2000 200/06 RMK AO2 TSNO
94908KDBQ DBQ20020206020511202/06/02 02:05:31  5-MIN KDBQ 060805Z AUTO 20006KT 1 3/4SM BR CLR M11/M12 A3016 860 92 -2000 200/06 RMK AO2 TSNO
94908KDBQ DBQ20020206021011202/06/02 02:10:31  5-MIN KDBQ 060810Z AUTO 20006KT 1 3/4SM BR CLR M11/M12 A3016 860 92 -2000 200/06 RMK AO2 TSNO
94908KDBQ DBQ20020206021510802/06/02 02:15:31  5-MIN KDBQ 060815Z AUTO 20006KT 2SM BR CLR M11/M12 A3016 860 92 -2000 190/06 RMK AO2 TSNO
94908KDBQ DBQ20020206022010802/06/02 02:20:31  5-MIN KDBQ 060820Z AUTO 20006KT 2SM BR CLR M10/M12 A3016 860 88 -2000 200/06 RMK AO2 TSNO
94908KDBQ DBQ20020206022511202/06/02 02:25:31  5-MIN KDBQ 060825Z AUTO 20007KT 2 1/2SM BR CLR M10/M12 A3015 860 88 -2000 200/07 RMK AO2 TSNO
94908KDBQ DBQ20020206023011202/06/02 02:30:31  5-MIN KDBQ 060830Z AUTO 20007KT 2 1/2SM BR CLR M10/M12 A3015 860 88 -2000 200/07 RMK AO2 TSNO
94908KDBQ DBQ20020206023511202/06/02 02:35:31  5-MIN KDBQ 060835Z AUTO 20006KT 2 1/2SM BR CLR M11/M12 A3015 870 92 -2000 200/06 RMK AO2 TSNO
94908KDBQ DBQ20020206024011202/06/02 02:40:31  5-MIN KDBQ 060840Z AUTO 21006KT 2 1/2SM BR CLR M11/M12 A3015 870 92 -2000 210/06 RMK AO2 TSNO
94908KDBQ DBQ20020206024511202/06/02 02:45:31  5-MIN KDBQ 060845Z AUTO 21006KT 2 1/2SM BR CLR M11/M12 A3015 870 92 -2000 200/06 RMK AO2 TSNO
94908KDBQ DBQ20020206025013502/06/02 02:50:31  5-MIN KDBQ 060850Z AUTO 21005KT 2 1/2SM BR CLR M11/M12 A3015 870 92 -2000 210/05 RMK AO2 SLP228 T11061117 58009 TSNO
94908KDBQ DBQ20020206025513102/06/02 02:55:31  5-MIN KDBQ 060855Z AUTO 21005KT 3SM BR CLR M10/M12 A3015 870 88 -1900 200/05 RMK AO2 SLP227 T11001117 56015 TSNO
94908KDBQ DBQ20020206030010802/06/02 03:00:31  5-MIN KDBQ 060900Z AUTO 21006KT 3SM BR CLR M10/M12 A3015 870 88 -1900 200/06 RMK AO2 TSNO
94908KDBQ DBQ20020206030510802/06/02 03:05:31  5-MIN KDBQ 060905Z AUTO 21005KT 3SM BR CLR M11/M12 A3014 870 92 -2000 200/05 RMK AO2 TSNO
94908KDBQ DBQ20020206031010802/06/02 03:10:31  5-MIN KDBQ 060910Z AUTO 21005KT 3SM BR CLR M10/M12 A3014 870 88 -1900 210/05 RMK AO2 TSNO
94908KDBQ DBQ20020206031510802/06/02 03:15:31  5-MIN KDBQ 060915Z AUTO 21005KT 3SM BR CLR M10/M12 A3014 880 88 -1900 210/05 RMK AO2 TSNO
94908KDBQ DBQ20020206032010802/06/02 03:20:31  5-MIN KDBQ 060920Z AUTO 21005KT 3SM BR CLR M10/M11 A3014 880 92 -1900 210/05 RMK AO2 TSNO
94908KDBQ DBQ20020206032510802/06/02 03:25:31  5-MIN KDBQ 060925Z AUTO 21005KT 4SM BR CLR M09/M11 A3014 880 88 -1900 210/05 RMK AO2 TSNO
94908KDBQ DBQ20020206033010802/06/02 03:30:31  5-MIN KDBQ 060930Z AUTO 20005KT 4SM BR CLR M09/M11 A3014 880 92 -1900 200/05 RMK AO2 TSNO
94908KDBQ DBQ20020206033510802/06/02 03:35:31  5-MIN KDBQ 060935Z AUTO 20004KT 4SM BR CLR M09/M11 A3014 880 88 -1800 200/04 RMK AO2 TSNO
94908KDBQ DBQ20020206034010802/06/02 03:40:31  5-MIN KDBQ 060940Z AUTO 20004KT 4SM BR CLR M09/M11 A3014 880 92 -1900 200/04 RMK AO2 TSNO
94908KDBQ DBQ20020206034510802/06/02 03:45:31  5-MIN KDBQ 060945Z AUTO 18003KT 4SM BR CLR M09/M11 A3014 880 92 -1900 180/03 RMK AO2 TSNO
94908KDBQ DBQ20020206035012502/06/02 03:50:31  5-MIN KDBQ 060950Z AUTO 00000KT 4SM BR CLR M09/M11 A3014 880 92 -1900 000/00 RMK AO2 SLP223 T10941106 TSNO
94908KDBQ DBQ20020206035512502/06/02 03:55:31  5-MIN KDBQ 060955Z AUTO 18003KT 4SM BR CLR M09/M11 A3014 880 88 -1900 180/03 RMK AO2 SLP223 T10941111 TSNO
94908KDBQ DBQ20020206040010802/06/02 04:00:31  5-MIN KDBQ 061000Z AUTO 00000KT 4SM BR CLR M10/M12 A3014 880 88 -1900 000/00 RMK AO2 TSNO
94908KDBQ DBQ20020206040510802/06/02 04:05:31  5-MIN KDBQ 061005Z AUTO 00000KT 4SM BR CLR M10/M12 A3014 870 88 -1900 000/00 RMK AO2 TSNO
94908KDBQ DBQ20020206041010802/06/02 04:10:31  5-MIN KDBQ 061010Z AUTO 00000KT 4SM BR CLR M09/M11 A3014 880 88 -1900 000/00 RMK AO2 TSNO
94908KDBQ DBQ20020206041510802/06/02 04:15:31  5-MIN KDBQ 061015Z AUTO 17003KT 4SM BR CLR M09/M11 A3014 870 88 -1900 160/03 RMK AO2 TSNO
94908KDBQ DBQ20020206042010802/06/02 04:20:31  5-MIN KDBQ 061020Z AUTO 17004KT 4SM BR CLR M09/M11 A3014 870 88 -1900 170/04 RMK AO2 TSNO
94908KDBQ DBQ20020206042510802/06/02 04:25:31  5-MIN KDBQ 061025Z AUTO 17004KT 4SM BR CLR M09/M11 A3014 870 88 -1900 170/04 RMK AO2 TSNO
94908KDBQ DBQ20020206043010802/06/02 04:30:31  5-MIN KDBQ 061030Z AUTO 18004KT 4SM BR CLR M09/M11 A3014 870 92 -1900 180/04 RMK AO2 TSNO
94908KDBQ DBQ20020206043510802/06/02 04:35:31  5-MIN KDBQ 061035Z AUTO 18004KT 4SM BR CLR M09/M11 A3014 880 92 -1900 180/04 RMK AO2 TSNO
94908KDBQ DBQ20020206044010802/06/02 04:40:31  5-MIN KDBQ 061040Z AUTO 18005KT 4SM BR CLR M09/M11 A3014 880 92 -1900 180/05 RMK AO2 TSNO
94908KDBQ DBQ20020206044510802/06/02 04:45:31  5-MIN KDBQ 061045Z AUTO 19006KT 4SM BR CLR M09/M11 A3014 880 88 -1900 190/06 RMK AO2 TSNO
94908KDBQ DBQ20020206045012502/06/02 04:50:31  5-MIN KDBQ 061050Z AUTO 19006KT 4SM BR CLR M09/M11 A3014 880 88 -1900 190/06 RMK AO2 SLP223 T10941111 TSNO
94908KDBQ DBQ20020206045512502/06/02 04:55:31  5-MIN KDBQ 061055Z AUTO 20006KT 4SM BR CLR M09/M11 A3013 880 92 -1900 190/06 RMK AO2 SLP222 T10941106 TSNO
94908KDBQ DBQ20020206050010802/06/02 05:00:31  5-MIN KDBQ 061100Z AUTO 19006KT 4SM BR CLR M09/M11 A3013 880 92 -1900 190/06 RMK AO2 TSNO
94908KDBQ DBQ20020206050510802/06/02 05:05:31  5-MIN KDBQ 061105Z AUTO 19006KT 4SM BR CLR M09/M11 A3013 880 92 -1900 190/06 RMK AO2 TSNO
94908KDBQ DBQ20020206051010802/06/02 05:10:31  5-MIN KDBQ 061110Z AUTO 20004KT 4SM BR CLR M09/M11 A3013 880 92 -1900 200/04 RMK AO2 TSNO
94908KDBQ DBQ20020206051510802/06/02 05:15:31  5-MIN KDBQ 061115Z AUTO 19004KT 4SM BR CLR M09/M11 A3013 880 88 -1800 190/04 RMK AO2 TSNO
94908KDBQ DBQ20020206052010802/06/02 05:20:31  5-MIN KDBQ 061120Z AUTO 20005KT 4SM BR CLR M09/M11 A3013 880 88 -1800 190/05 RMK AO2 TSNO
94908KDBQ DBQ20020206052510802/06/02 05:25:31  5-MIN KDBQ 061125Z AUTO 20004KT 4SM BR CLR M09/M11 A3013 880 92 -1900 200/04 RMK AO2 TSNO
94908KDBQ DBQ20020206053010802/06/02 05:30:31  5-MIN KDBQ 061130Z AUTO 20005KT 4SM BR CLR M09/M11 A3013 890 88 -1800 200/05 RMK AO2 TSNO
94908KDBQ DBQ20020206053510802/06/02 05:35:31  5-MIN KDBQ 061135Z AUTO 20005KT 4SM BR CLR M09/M11 A3013 890 88 -1800 200/05 RMK AO2 TSNO
94908KDBQ DBQ20020206054010802/06/02 05:40:31  5-MIN KDBQ 061140Z AUTO 20005KT 4SM BR CLR M09/M11 A3013 890 88 -1800 200/05 RMK AO2 TSNO
94908KDBQ DBQ20020206054510802/06/02 05:45:31  5-MIN KDBQ 061145Z AUTO 21005KT 4SM BR CLR M09/M11 A3013 890 88 -1800 210/05 RMK AO2 TSNO
94908KDBQ DBQ20020206055013302/06/02 05:50:31  5-MIN KDBQ 061150Z 20005KT 4SM BR CLR M09/M11 A3013 890 88 -1800 200/05 RMK AO2 SLP220 T10891106 11089 21106 56015
94908KDBQ DBQ20020206055513302/06/02 05:55:31  5-MIN KDBQ 061155Z 20005KT 4SM BR CLR M09/M11 A3013 890 88 -1800 190/05 RMK AO2 SLP220 T10891106 11089 21106 56007
94908KDBQ DBQ20020206060009802/06/02 06:00:31  5-MIN KDBQ 061200Z 20004KT 4SM BR CLR M09/M10 A3012 890 92 -1800 200/04 RMK AO2
94908KDBQ DBQ20020206060509802/06/02 06:05:31  5-MIN KDBQ 061205Z 00000KT 4SM BR CLR M09/M11 A3012 890 92 -1800 000/00 RMK AO2
94908KDBQ DBQ20020206061009802/06/02 06:10:31  5-MIN KDBQ 061210Z 00000KT 4SM BR CLR M09/M11 A3012 890 88 -1800 000/00 RMK AO2
94908KDBQ DBQ20020206061509802/06/02 06:15:31  5-MIN KDBQ 061215Z 20003KT 4SM BR CLR M09/M10 A3012 890 92 -1800 200/03 RMK AO2
94908KDBQ DBQ20020206062009802/06/02 06:20:31  5-MIN KDBQ 061220Z 20003KT 4SM BR CLR M09/M10 A3012 900 92 -1800 200/03 RMK AO2
94908KDBQ DBQ20020206062509802/06/02 06:25:31  5-MIN KDBQ 061225Z 19005KT 4SM BR CLR M09/M11 A3012 900 92 -1800 190/05 RMK AO2
94908KDBQ DBQ20020206063009802/06/02 06:30:31  5-MIN KDBQ 061230Z 20005KT 3SM BR CLR M10/M11 A3012 900 92 -1900 200/05 RMK AO2
94908KDBQ DBQ20020206063509802/06/02 06:35:31  5-MIN KDBQ 061235Z 20006KT 3SM BR CLR M11/M12 A3012 900 92 -2000 200/06 RMK AO2
94908KDBQ DBQ20020206064009802/06/02 06:40:31  5-MIN KDBQ 061240Z 20007KT 3SM BR CLR M10/M12 A3012 900 88 -1900 200/07 RMK AO2
94908KDBQ DBQ20020206064509802/06/02 06:45:31  5-MIN KDBQ 061245Z 20006KT 3SM BR CLR M10/M11 A3012 900 92 -1900 200/06 RMK AO2
94908KDBQ DBQ20020206065011502/06/02 06:50:31  5-MIN KDBQ 061250Z 20006KT 4SM BR CLR M10/M12 A3012 890 88 -1900 200/06 RMK AO2 SLP219 T11001117
94908KDBQ DBQ20020206065511502/06/02 06:55:31  5-MIN KDBQ 061255Z 20006KT 4SM BR CLR M09/M11 A3012 890 88 -1800 200/06 RMK AO2 SLP220 T10941111
94908KDBQ DBQ20020206070009802/06/02 07:00:31  5-MIN KDBQ 061300Z 20006KT 4SM BR CLR M09/M11 A3012 890 88 -1800 200/06 RMK AO2
94908KDBQ DBQ20020206070509802/06/02 07:05:31  5-MIN KDBQ 061305Z 21006KT 4SM BR CLR M10/M11 A3012 890 92 -1900 210/06 RMK AO2
94908KDBQ DBQ20020206071009802/06/02 07:10:31  5-MIN KDBQ 061310Z 20005KT 3SM BR CLR M11/M12 A3012 890 92 -2000 200/05 RMK AO2
94908KDBQ DBQ20020206071510202/06/02 07:15:31  5-MIN KDBQ 061315Z 20005KT 2 1/2SM BR CLR M11/M12 A3013 890 88 -2000 200/05 RMK AO2
94908KDBQ DBQ20020206072009802/06/02 07:20:31  5-MIN KDBQ 061320Z 20004KT 2SM BR CLR M11/M12 A3013 890 88 -2000 200/04 RMK AO2
94908KDBQ DBQ20020206072509802/06/02 07:25:31  5-MIN KDBQ 061325Z 21004KT 2SM BR CLR M11/M12 A3012 890 88 -2000 210/04 RMK AO2
94908KDBQ DBQ20020206073009802/06/02 07:30:31  5-MIN KDBQ 061330Z 20004KT 2SM BR CLR M11/M12 A3013 890 88 -2000 200/04 RMK AO2
94908KDBQ DBQ20020206073509802/06/02 07:35:31  5-MIN KDBQ 061335Z 20004KT 2SM BR CLR M11/M12 A3013 890 92 -2100 200/04 RMK AO2
94908KDBQ DBQ20020206074009802/06/02 07:40:31  5-MIN KDBQ 061340Z 21004KT 2SM BR CLR M11/M12 A3013 890 88 -2000 210/04 RMK AO2
94908KDBQ DBQ20020206074510202/06/02 07:45:31  5-MIN KDBQ 061345Z 21005KT 2 1/2SM BR CLR M11/M12 A3013 890 92 -2000 200/05 RMK AO2
94908KDBQ DBQ20020206075011902/06/02 07:50:31  5-MIN KDBQ 061350Z 20005KT 2 1/2SM BR CLR M11/M12 A3013 890 92 -2000 200/05 RMK AO2 SLP223 T11061117
94908KDBQ DBQ20020206075511902/06/02 07:55:31  5-MIN KDBQ 061355Z 20004KT 2 1/2SM BR CLR M11/M12 A3013 890 92 -2000 200/04 RMK AO2 SLP223 T11061117
94908KDBQ DBQ20020206080010202/06/02 08:00:31  5-MIN KDBQ 061400Z 20004KT 2 1/2SM BR CLR M10/M11 A3013 890 92 -1900 200/04 RMK AO2
94908KDBQ DBQ20020206080510202/06/02 08:05:31  5-MIN KDBQ 061405Z 20004KT 2 1/2SM BR CLR M10/M11 A3013 890 92 -1900 200/04 RMK AO2
94908KDBQ DBQ20020206081010202/06/02 08:10:31  5-MIN KDBQ 061410Z 20004KT 2 1/2SM BR CLR M10/M11 A3013 880 96 -1900 200/04 RMK AO2
94908KDBQ DBQ20020206081509802/06/02 08:15:31  5-MIN KDBQ 061415Z 19004KT 3SM BR CLR M09/M10 A3013 890 96 -1900 190/04 RMK AO2
94908KDBQ DBQ20020206082009802/06/02 08:20:31  5-MIN KDBQ 061420Z 20005KT 3SM BR CLR M09/M10 A3013 890 92 -1800 200/05 RMK AO2
94908KDBQ DBQ20020206082509802/06/02 08:25:31  5-MIN KDBQ 061425Z 20005KT 3SM BR CLR M09/M09 A3013 890 96 -1800 200/05 RMK AO2
94908KDBQ DBQ20020206083009802/06/02 08:30:31  5-MIN KDBQ 061430Z 19005KT 3SM BR CLR M08/M09 A3012 890 96 -1700 190/05 RMK AO2
94908KDBQ DBQ20020206083509802/06/02 08:35:31  5-MIN KDBQ 061435Z 19005KT 3SM BR CLR M08/M09 A3013 890 96 -1700 190/05 RMK AO2
94908KDBQ DBQ20020206084009802/06/02 08:40:31  5-MIN KDBQ 061440Z 19005KT 3SM BR CLR M08/M08 A3013 890 96 -1600 190/05 RMK AO2
94908KDBQ DBQ20020206084509802/06/02 08:45:31  5-MIN KDBQ 061445Z 19005KT 3SM BR CLR M08/M08 A3013 890 96 -1600 190/05 RMK AO2
94908KDBQ DBQ20020206085012102/06/02 08:50:31  5-MIN KDBQ 061450Z 19005KT 3SM BR CLR M08/M08 A3013 890 96 -1600 190/05 RMK AO2 SLP222 T10781083 56007
94908KDBQ DBQ20020206085512102/06/02 08:55:31  5-MIN KDBQ 061455Z 20004KT 3SM BR CLR M08/M08 A3013 890 96 -1600 200/04 RMK AO2 SLP221 T10781083 55000
94908KDBQ DBQ20020206090009802/06/02 09:00:31  5-MIN KDBQ 061500Z 20005KT 3SM BR CLR M08/M09 A3012 890 92 -1600 200/05 RMK AO2
94908KDBQ DBQ20020206090509802/06/02 09:05:31  5-MIN KDBQ 061505Z 21007KT 3SM BR CLR M07/M08 A3012 890 92 -1600 200/07 RMK AO2
94908KDBQ DBQ20020206091009802/06/02 09:10:31  5-MIN KDBQ 061510Z 21008KT 4SM BR CLR M07/M08 A3012 890 88 -1500 200/08 RMK AO2
94908KDBQ DBQ20020206091509802/06/02 09:15:31  5-MIN KDBQ 061515Z 20009KT 4SM BR CLR M07/M08 A3012 900 88 -1500 200/09 RMK AO2
94908KDBQ DBQ20020206092009802/06/02 09:20:31  5-MIN KDBQ 061520Z 20009KT 4SM BR CLR M06/M08 A3011 900 84 -1400 200/09 RMK AO2
94908KDBQ DBQ20020206092509802/06/02 09:25:31  5-MIN KDBQ 061525Z 21009KT 4SM BR CLR M06/M08 A3011 900 88 -1400 210/09 RMK AO2
94908KDBQ DBQ20020206093009802/06/02 09:30:31  5-MIN KDBQ 061530Z 20007KT 4SM BR CLR M06/M08 A3011 900 84 -1300 200/07 RMK AO2
94908KDBQ DBQ20020206093509802/06/02 09:35:31  5-MIN KDBQ 061535Z 20007KT 4SM BR CLR M06/M08 A3011 900 84 -1300 200/07 RMK AO2
94908KDBQ DBQ20020206094009802/06/02 09:40:31  5-MIN KDBQ 061540Z 20007KT 4SM HZ CLR M05/M08 A3011 900 81 -1300 200/07 RMK AO2
94908KDBQ DBQ20020206094509802/06/02 09:45:31  5-MIN KDBQ 061545Z 22007KT 4SM HZ CLR M05/M08 A3011 900 81 -1300 210/07 RMK AO2
94908KDBQ DBQ20020206095011502/06/02 09:50:31  5-MIN KDBQ 061550Z 21007KT 4SM HZ CLR M04/M08 A3011 900 78 -1200 210/07 RMK AO2 SLP216 T10441078
94908KDBQ DBQ20020206095511502/06/02 09:55:31  5-MIN KDBQ 061555Z 21007KT 4SM HZ CLR M04/M07 A3011 900 81 -1200 210/07 RMK AO2 SLP216 T10441072
94908KDBQ DBQ20020206100009802/06/02 10:00:31  5-MIN KDBQ 061600Z 21007KT 4SM HZ CLR M04/M07 A3011 900 81 -1200 210/07 RMK AO2
94908KDBQ DBQ20020206100509802/06/02 10:05:31  5-MIN KDBQ 061605Z 21008KT 4SM HZ CLR M04/M07 A3011 900 78 -1100 210/08 RMK AO2
94908KDBQ DBQ20020206101009802/06/02 10:10:31  5-MIN KDBQ 061610Z 20008KT 5SM HZ CLR M04/M07 A3011 900 81 -1100 200/08 RMK AO2
94908KDBQ DBQ20020206101509802/06/02 10:15:31  5-MIN KDBQ 061615Z 20009KT 5SM HZ CLR M03/M07 A3011 900 78 -1000 190/09 RMK AO2
94908KDBQ DBQ20020206102009802/06/02 10:20:31  5-MIN KDBQ 061620Z 20008KT 5SM HZ CLR M03/M07 A3011 900 75 -1000 200/08 RMK AO2
94908KDBQ DBQ20020206102509502/06/02 10:25:31  5-MIN KDBQ 061625Z 20008KT 8SM CLR M03/M06 A3011 900 78 -1000 200/08 RMK AO2
94908KDBQ DBQ20020206103009502/06/02 10:30:31  5-MIN KDBQ 061630Z 20007KT 8SM CLR M03/M06 A3011 900 78 -1000 200/07 RMK AO2
94908KDBQ DBQ20020206103509402/06/02 10:35:31  5-MIN KDBQ 061635Z 20007KT 8SM CLR M02/M06 A3011 900 75 -900 200/07 RMK AO2
94908KDBQ DBQ20020206104009402/06/02 10:40:31  5-MIN KDBQ 061640Z 21007KT 8SM CLR M02/M06 A3011 900 78 -900 210/07 RMK AO2
94908KDBQ DBQ20020206104509402/06/02 10:45:31  5-MIN KDBQ 061645Z 20007KT 8SM CLR M02/M06 A3012 900 78 -900 200/07 RMK AO2
94908KDBQ DBQ20020206105011102/06/02 10:50:31  5-MIN KDBQ 061650Z 20007KT 8SM CLR M02/M06 A3012 900 75 -800 200/07 RMK AO2 SLP216 T10171056
94908KDBQ DBQ20020206105511102/06/02 10:55:31  5-MIN KDBQ 061655Z 20007KT 8SM CLR M02/M06 A3011 900 75 -800 200/07 RMK AO2 SLP215 T10171056
94908KDBQ DBQ20020206110009402/06/02 11:00:31  5-MIN KDBQ 061700Z 21007KT 8SM CLR M02/M05 A3011 900 78 -800 210/07 RMK AO2
94908KDBQ DBQ20020206110509402/06/02 11:05:31  5-MIN KDBQ 061705Z 21006KT 8SM CLR M01/M05 A3010 910 75 -800 200/06 RMK AO2
94908KDBQ DBQ20020206111009402/06/02 11:10:31  5-MIN KDBQ 061710Z 20007KT 8SM CLR M01/M05 A3010 910 75 -700 200/07 RMK AO2
94908KDBQ DBQ20020206111509402/06/02 11:15:31  5-MIN KDBQ 061715Z 21007KT 8SM CLR M01/M05 A3010 910 75 -700 210/07 RMK AO2
94908KDBQ DBQ20020206112009402/06/02 11:20:31  5-MIN KDBQ 061720Z 21007KT 8SM CLR M01/M04 A3010 920 78 -700 210/07 RMK AO2
94908KDBQ DBQ20020206112509402/06/02 11:25:31  5-MIN KDBQ 061725Z 21007KT 8SM CLR M01/M04 A3009 920 75 -700 210/07 RMK AO2
94908KDBQ DBQ20020206113009402/06/02 11:30:31  5-MIN KDBQ 061730Z 21008KT 8SM CLR M01/M04 A3009 920 78 -700 210/08 RMK AO2
94908KDBQ DBQ20020206113509302/06/02 11:35:31  5-MIN KDBQ 061735Z 22009KT 8SM CLR 00/M04 A3009 920 75 -600 210/09 RMK AO2
94908KDBQ DBQ20020206114009302/06/02 11:40:31  5-MIN KDBQ 061740Z 22009KT 8SM CLR 00/M04 A3009 930 75 -600 220/09 RMK AO2
94908KDBQ DBQ20020206114509302/06/02 11:45:31  5-MIN KDBQ 061745Z 22009KT 8SM CLR 00/M04 A3008 930 75 -600 210/09 RMK AO2
94908KDBQ DBQ20020206115012802/06/02 11:50:31  5-MIN KDBQ 061750Z 21009KT 8SM CLR 00/M04 A3008 930 75 -600 210/09 RMK AO2 SLP202 T00001039 10000 21111 55000
94908KDBQ DBQ20020206115512802/06/02 11:55:31  5-MIN KDBQ 061755Z 22009KT 8SM CLR 00/M04 A3008 930 75 -600 220/09 RMK AO2 SLP202 T00001039 10000 21111 58016
94908KDBQ DBQ20020206120009302/06/02 12:00:31  5-MIN KDBQ 061800Z 22010KT 8SM CLR 01/M03 A3008 940 75 -500 220/10 RMK AO2
94908KDBQ DBQ20020206120509302/06/02 12:05:31  5-MIN KDBQ 061805Z 22009KT 8SM CLR 01/M03 A3007 940 75 -500 220/09 RMK AO2
94908KDBQ DBQ20020206121009302/06/02 12:10:31  5-MIN KDBQ 061810Z 22010KT 8SM CLR 01/M03 A3007 940 75 -500 210/10 RMK AO2
94908KDBQ DBQ20020206121509302/06/02 12:15:31  5-MIN KDBQ 061815Z 22010KT 8SM CLR 01/M03 A3007 940 75 -500 220/10 RMK AO2
94908KDBQ DBQ20020206122009302/06/02 12:20:31  5-MIN KDBQ 061820Z 23009KT 8SM CLR 01/M03 A3007 940 75 -500 230/09 RMK AO2
94908KDBQ DBQ20020206122509302/06/02 12:25:31  5-MIN KDBQ 061825Z 22009KT 8SM CLR 01/M03 A3006 950 75 -400 220/09 RMK AO2
94908KDBQ DBQ20020206123009302/06/02 12:30:31  5-MIN KDBQ 061830Z 22009KT 8SM CLR 01/M03 A3006 950 75 -400 220/09 RMK AO2
94908KDBQ DBQ20020206123509302/06/02 12:35:31  5-MIN KDBQ 061835Z 23008KT 8SM CLR 01/M03 A3006 950 75 -400 230/08 RMK AO2
94908KDBQ DBQ20020206124009302/06/02 12:40:31  5-MIN KDBQ 061840Z 22007KT 8SM CLR 01/M03 A3006 950 75 -400 220/07 RMK AO2
94908KDBQ DBQ20020206124509302/06/02 12:45:31  5-MIN KDBQ 061845Z 22009KT 8SM CLR 01/M03 A3006 950 75 -400 220/09 RMK AO2
94908KDBQ DBQ20020206125011002/06/02 12:50:31  5-MIN KDBQ 061850Z 22009KT 8SM CLR 01/M03 A3006 950 72 -400 210/09 RMK AO2 SLP195 T00111033
94908KDBQ DBQ20020206125511002/06/02 12:55:31  5-MIN KDBQ 061855Z 21008KT 8SM CLR 01/M03 A3006 950 75 -400 210/08 RMK AO2 SLP194 T00111028
94908KDBQ DBQ20020206130009602/06/02 13:00:31  5-MIN KDBQ 061900Z 19009KT 6SM HZ CLR 02/M03 A3005 960 72 -300 190/09 RMK AO2
94908KDBQ DBQ20020206130509602/06/02 13:05:31  5-MIN KDBQ 061905Z 19012KT 6SM HZ CLR 02/M03 A3004 960 72 -300 190/12 RMK AO2
94908KDBQ DBQ20020206131009302/06/02 13:10:31  5-MIN KDBQ 061910Z 19013KT 7SM CLR 02/M03 A3004 960 69 -300 180/13 RMK AO2
94908KDBQ DBQ20020206131509302/06/02 13:15:31  5-MIN KDBQ 061915Z 19014KT 7SM CLR 02/M03 A3004 970 72 -300 190/14 RMK AO2
94908KDBQ DBQ20020206132009302/06/02 13:20:31  5-MIN KDBQ 061920Z 19013KT 7SM CLR 02/M03 A3004 970 69 -300 190/13 RMK AO2
94908KDBQ DBQ20020206132509302/06/02 13:25:31  5-MIN KDBQ 061925Z 19010KT 7SM CLR 02/M03 A3004 970 69 -300 190/10 RMK AO2
94908KDBQ DBQ20020206133009302/06/02 13:30:31  5-MIN KDBQ 061930Z 19011KT 7SM CLR 02/M03 A3003 970 69 -300 190/11 RMK AO2
94908KDBQ DBQ20020206133509302/06/02 13:35:31  5-MIN KDBQ 061935Z 18013KT 7SM CLR 02/M03 A3003 980 69 -300 180/13 RMK AO2
94908KDBQ DBQ20020206134009302/06/02 13:40:31  5-MIN KDBQ 061940Z 18013KT 8SM CLR 02/M03 A3003 980 69 -300 180/13 RMK AO2
94908KDBQ DBQ20020206134509302/06/02 13:45:31  5-MIN KDBQ 061945Z 18011KT 8SM CLR 02/M04 A3003 980 66 -300 180/11 RMK AO2
94908KDBQ DBQ20020206135011002/06/02 13:50:31  5-MIN KDBQ 061950Z 18012KT 8SM CLR 02/M03 A3003 980 69 -300 180/12 RMK AO2 SLP184 T00171033
94908KDBQ DBQ20020206135511002/06/02 13:55:31  5-MIN KDBQ 061955Z 19011KT 8SM CLR 01/M03 A3003 980 72 -400 180/11 RMK AO2 SLP183 T00111033
94908KDBQ DBQ20020206140009302/06/02 14:00:31  5-MIN KDBQ 062000Z 20011KT 7SM CLR 02/M03 A3003 980 69 -300 200/11 RMK AO2
94908KDBQ DBQ20020206140509302/06/02 14:05:31  5-MIN KDBQ 062005Z 19011KT 7SM CLR 02/M03 A3003 980 69 -300 190/11 RMK AO2
94908KDBQ DBQ20020206141009302/06/02 14:10:31  5-MIN KDBQ 062010Z 20012KT 7SM CLR 02/M03 A3002 980 69 -300 200/12 RMK AO2
94908KDBQ DBQ20020206141509602/06/02 14:15:31  5-MIN KDBQ 062015Z 20011KT 6SM HZ CLR 02/M03 A3002 980 69 -300 200/11 RMK AO2
94908KDBQ DBQ20020206142009602/06/02 14:20:31  5-MIN KDBQ 062020Z 19012KT 6SM HZ CLR 02/M03 A3002 990 69 -300 190/12 RMK AO2
94908KDBQ DBQ20020206142509602/06/02 14:25:31  5-MIN KDBQ 062025Z 19012KT 6SM HZ CLR 01/M03 A3002 990 72 -400 190/12 RMK AO2
94908KDBQ DBQ20020206143009602/06/02 14:30:31  5-MIN KDBQ 062030Z 20011KT 6SM HZ CLR 02/M03 A3002 990 72 -300 200/11 RMK AO2
94908KDBQ DBQ20020206143509602/06/02 14:35:31  5-MIN KDBQ 062035Z 21012KT 6SM HZ CLR 02/M03 A3002 990 72 -300 210/12 RMK AO2
94908KDBQ DBQ20020206144009602/06/02 14:40:31  5-MIN KDBQ 062040Z 20010KT 6SM HZ CLR 02/M03 A3002 990 69 -300 200/10 RMK AO2
94908KDBQ DBQ20020206144509302/06/02 14:45:31  5-MIN KDBQ 062045Z 21011KT 7SM CLR 02/M03 A3002 990 72 -300 210/11 RMK AO2
94908KDBQ DBQ20020206145011602/06/02 14:50:31  5-MIN KDBQ 062050Z 21010KT 7SM CLR 02/M03 A3002 990 72 -300 210/10 RMK AO2 SLP181 T00171028 58016
94908KDBQ DBQ20020206145511602/06/02 14:55:31  5-MIN KDBQ 062055Z 21010KT 7SM CLR 02/M03 A3002 990 72 -300 210/10 RMK AO2 SLP182 T00171028 56018
94908KDBQ DBQ20020206150009602/06/02 15:00:31  5-MIN KDBQ 062100Z 21010KT 6SM HZ CLR 02/M03 A3002 990 72 -300 210/10 RMK AO2
94908KDBQ DBQ20020206150509302/06/02 15:05:31  5-MIN KDBQ 062105Z 23008KT 7SM CLR 02/M03 A3002 980 72 -300 230/08 RMK AO2
94908KDBQ DBQ20020206151009302/06/02 15:10:31  5-MIN KDBQ 062110Z 22010KT 7SM CLR 02/M03 A3002 990 72 -300 220/10 RMK AO2
94908KDBQ DBQ20020206151509602/06/02 15:15:31  5-MIN KDBQ 062115Z 22011KT 6SM HZ CLR 02/M03 A3002 990 72 -300 220/11 RMK AO2
94908KDBQ DBQ20020206152009602/06/02 15:20:31  5-MIN KDBQ 062120Z 22009KT 6SM HZ CLR 02/M03 A3002 990 72 -300 220/09 RMK AO2
94908KDBQ DBQ20020206152509602/06/02 15:25:31  5-MIN KDBQ 062125Z 22011KT 6SM HZ CLR 02/M03 A3002 980 72 -300 220/11 RMK AO2
94908KDBQ DBQ20020206153009602/06/02 15:30:31  5-MIN KDBQ 062130Z 22011KT 6SM HZ CLR 02/M03 A3002 980 72 -300 220/11 RMK AO2
94908KDBQ DBQ20020206153509602/06/02 15:35:31  5-MIN KDBQ 062135Z 22011KT 6SM HZ CLR 02/M03 A3002 990 72 -300 220/11 RMK AO2
94908KDBQ DBQ20020206154009602/06/02 15:40:31  5-MIN KDBQ 062140Z 22013KT 6SM HZ CLR 02/M03 A3002 990 72 -300 220/13 RMK AO2
94908KDBQ DBQ20020206154509602/06/02 15:45:31  5-MIN KDBQ 062145Z 22011KT 6SM HZ CLR 02/M03 A3002 990 72 -300 220/11 RMK AO2
94908KDBQ DBQ20020206155011302/06/02 15:50:31  5-MIN KDBQ 062150Z 22011KT 6SM HZ CLR 02/M03 A3002 990 72 -300 220/11 RMK AO2 SLP180 T00171028
94908KDBQ DBQ20020206155511302/06/02 15:55:31  5-MIN KDBQ 062155Z 22010KT 6SM HZ CLR 02/M03 A3002 990 72 -300 210/10 RMK AO2 SLP181 T00171028
94908KDBQ DBQ20020206160009602/06/02 16:00:31  5-MIN KDBQ 062200Z 22011KT 6SM HZ CLR 02/M03 A3002 990 72 -300 220/11 RMK AO2
94908KDBQ DBQ20020206160509602/06/02 16:05:31  5-MIN KDBQ 062205Z 22010KT 6SM HZ CLR 02/M03 A3002 990 72 -300 220/10 RMK AO2
94908KDBQ DBQ20020206161009602/06/02 16:10:31  5-MIN KDBQ 062210Z 21009KT 6SM HZ CLR 02/M03 A3002 990 72 -300 210/09 RMK AO2
94908KDBQ DBQ20020206161509602/06/02 16:15:31  5-MIN KDBQ 062215Z 22010KT 6SM HZ CLR 01/M03 A3002 990 75 -400 220/10 RMK AO2
94908KDBQ DBQ20020206162009602/06/02 16:20:31  5-MIN KDBQ 062220Z 22009KT 6SM HZ CLR 01/M03 A3001 990 75 -400 220/09 RMK AO2
94908KDBQ DBQ20020206162509602/06/02 16:25:31  5-MIN KDBQ 062225Z 22009KT 6SM HZ CLR 01/M03 A3001 990 75 -400 220/09 RMK AO2
94908KDBQ DBQ20020206163009602/06/02 16:30:31  5-MIN KDBQ 062230Z 22010KT 6SM HZ CLR 01/M03 A3001 990 78 -400 220/10 RMK AO2
94908KDBQ DBQ20020206163509702/06/02 16:35:31  5-MIN KDBQ 062235Z 22010KT 5SM HZ CLR 01/M03 A3001 1000 75 -400 220/10 RMK AO2
94908KDBQ DBQ20020206164009702/06/02 16:40:31  5-MIN KDBQ 062240Z 22011KT 5SM HZ CLR 01/M03 A3001 1000 75 -400 220/11 RMK AO2
94908KDBQ DBQ20020206164509702/06/02 16:45:31  5-MIN KDBQ 062245Z 21013KT 5SM HZ CLR 01/M03 A3001 1000 75 -400 210/13 RMK AO2
94908KDBQ DBQ20020206165011402/06/02 16:50:31  5-MIN KDBQ 062250Z 22013KT 5SM HZ CLR 01/M04 A3001 1000 72 -400 220/13 RMK AO2 SLP177 T00061039
94908KDBQ DBQ20020206165511402/06/02 16:55:31  5-MIN KDBQ 062255Z 22011KT 5SM HZ CLR 01/M04 A3001 1000 72 -400 220/11 RMK AO2 SLP177 T00061039
94908KDBQ DBQ20020206170009702/06/02 17:00:31  5-MIN KDBQ 062300Z 21010KT 5SM HZ CLR 00/M04 A3000 1000 75 -500 210/10 RMK AO2
94908KDBQ DBQ20020206170509702/06/02 17:05:31  5-MIN KDBQ 062305Z 21010KT 5SM HZ CLR 00/M04 A3001 1000 75 -500 210/10 RMK AO2
94908KDBQ DBQ20020206171009702/06/02 17:10:31  5-MIN KDBQ 062310Z 21010KT 5SM HZ CLR 00/M04 A3001 1000 75 -500 210/10 RMK AO2
94908KDBQ DBQ20020206171509702/06/02 17:15:31  5-MIN KDBQ 062315Z 21010KT 5SM HZ CLR 00/M04 A3000 1000 75 -500 210/10 RMK AO2
94908KDBQ DBQ20020206172009702/06/02 17:20:31  5-MIN KDBQ 062320Z 21010KT 5SM HZ CLR 00/M04 A3000 1000 75 -500 210/10 RMK AO2
94908KDBQ DBQ20020206172509702/06/02 17:25:31  5-MIN KDBQ 062325Z 21012KT 5SM HZ CLR 00/M04 A3000 1000 75 -500 210/12 RMK AO2
94908KDBQ DBQ20020206173009702/06/02 17:30:31  5-MIN KDBQ 062330Z 21011KT 5SM HZ CLR 00/M04 A3000 1000 75 -500 210/11 RMK AO2
94908KDBQ DBQ20020206173509802/06/02 17:35:31  5-MIN KDBQ 062335Z 20009KT 5SM HZ CLR M01/M04 A3000 1000 78 -600 200/09 RMK AO2
94908KDBQ DBQ20020206174009802/06/02 17:40:31  5-MIN KDBQ 062340Z 21010KT 5SM HZ CLR M01/M04 A3000 1000 81 -600 200/10 RMK AO2
94908KDBQ DBQ20020206174509802/06/02 17:45:31  5-MIN KDBQ 062345Z 21012KT 6SM HZ CLR M01/M04 A3000 1000 75 -600 210/12 RMK AO2
94908KDBQ DBQ20020206175013302/06/02 17:50:31  5-MIN KDBQ 062350Z 21011KT 6SM HZ CLR M01/M04 A3000 1010 75 -600 210/11 RMK AO2 SLP174 T10061044 10022 21011 56018
94908KDBQ DBQ20020206175513302/06/02 17:55:31  5-MIN KDBQ 062355Z 21011KT 6SM HZ CLR M01/M04 A3000 1010 81 -600 210/11 RMK AO2 SLP175 T10111039 10022 21011 58007
94908KDBQ DBQ20020206180009802/06/02 18:00:31  5-MIN KDBQ 070000Z 21011KT 6SM HZ CLR M01/M04 A3000 1000 78 -600 210/11 RMK AO2
94908KDBQ DBQ20020206180509802/06/02 18:05:31  5-MIN KDBQ 070005Z 20011KT 6SM HZ CLR M01/M04 A3000 1010 78 -600 200/11 RMK AO2
94908KDBQ DBQ20020206181009802/06/02 18:10:31  5-MIN KDBQ 070010Z 20010KT 6SM HZ CLR M01/M04 A3000 1010 78 -600 200/10 RMK AO2
94908KDBQ DBQ20020206181509802/06/02 18:15:31  5-MIN KDBQ 070015Z 20010KT 6SM HZ CLR M02/M04 A3000 1000 81 -700 200/10 RMK AO2
94908KDBQ DBQ20020206182009802/06/02 18:20:31  5-MIN KDBQ 070020Z 20010KT 6SM HZ CLR M02/M04 A3000 1000 81 -700 200/10 RMK AO2
94908KDBQ DBQ20020206182509802/06/02 18:25:31  5-MIN KDBQ 070025Z 21010KT 6SM HZ CLR M02/M04 A3000 1000 81 -700 210/10 RMK AO2
94908KDBQ DBQ20020206183009802/06/02 18:30:31  5-MIN KDBQ 070030Z 21010KT 5SM HZ CLR M01/M04 A3000 1000 81 -600 210/10 RMK AO2
94908KDBQ DBQ20020206183509802/06/02 18:35:31  5-MIN KDBQ 070035Z 21010KT 5SM HZ CLR M01/M04 A3000 1000 81 -600 210/10 RMK AO2
94908KDBQ DBQ20020206184009802/06/02 18:40:31  5-MIN KDBQ 070040Z 21010KT 5SM BR CLR M02/M04 A3000 1010 85 -700 210/10 RMK AO2
94908KDBQ DBQ20020206184509802/06/02 18:45:31  5-MIN KDBQ 070045Z 20010KT 5SM HZ CLR M02/M04 A2999 1010 81 -700 200/10 RMK AO2
94908KDBQ DBQ20020206185011502/06/02 18:50:31  5-MIN KDBQ 070050Z 21011KT 5SM BR CLR M02/M04 A2999 1010 85 -700 210/11 RMK AO2 SLP174 T10171039
94908KDBQ DBQ20020206185511502/06/02 18:55:31  5-MIN KDBQ 070055Z 21011KT 5SM HZ CLR M02/M04 A2999 1010 81 -700 210/11 RMK AO2 SLP173 T10171044
94908KDBQ DBQ20020206190009802/06/02 19:00:31  5-MIN KDBQ 070100Z 21010KT 5SM BR CLR M02/M04 A2999 1010 85 -700 210/10 RMK AO2
94908KDBQ DBQ20020206190509802/06/02 19:05:31  5-MIN KDBQ 070105Z 20010KT 5SM BR CLR M02/M04 A2999 1010 85 -700 200/10 RMK AO2
94908KDBQ DBQ20020206191009802/06/02 19:10:31  5-MIN KDBQ 070110Z 21011KT 5SM BR CLR M02/M04 A2999 1010 85 -700 200/11 RMK AO2
94908KDBQ DBQ20020206191509802/06/02 19:15:31  5-MIN KDBQ 070115Z 21010KT 5SM BR CLR M02/M04 A2999 1010 85 -700 210/10 RMK AO2
94908KDBQ DBQ20020206192009802/06/02 19:20:31  5-MIN KDBQ 070120Z 21010KT 5SM BR CLR M02/M04 A2999 1010 85 -700 210/10 RMK AO2
94908KDBQ DBQ20020206192509802/06/02 19:25:31  5-MIN KDBQ 070125Z 21010KT 5SM BR CLR M02/M04 A2999 1010 85 -700 210/10 RMK AO2
94908KDBQ DBQ20020206193009802/06/02 19:30:31  5-MIN KDBQ 070130Z 20010KT 5SM BR CLR M02/M04 A2999 1020 85 -700 200/10 RMK AO2
94908KDBQ DBQ20020206193509802/06/02 19:35:31  5-MIN KDBQ 070135Z 20010KT 5SM BR CLR M02/M04 A2998 1020 88 -800 200/10 RMK AO2
94908KDBQ DBQ20020206194009802/06/02 19:40:31  5-MIN KDBQ 070140Z 20010KT 5SM BR CLR M02/M04 A2999 1020 85 -800 200/10 RMK AO2
94908KDBQ DBQ20020206194509802/06/02 19:45:31  5-MIN KDBQ 070145Z 20009KT 5SM BR CLR M02/M04 A2999 1010 88 -800 200/09 RMK AO2
94908KDBQ DBQ20020206195011502/06/02 19:50:31  5-MIN KDBQ 070150Z 20009KT 5SM BR CLR M02/M04 A2999 1010 88 -800 200/09 RMK AO2 SLP174 T10221039
94908KDBQ DBQ20020206195512502/06/02 19:55:31  5-MIN KDBQ 070155Z AUTO 20010KT 5SM BR CLR M02/M04 A2998 1020 85 -700 200/10 RMK AO2 SLP171 T10171039 TSNO
94908KDBQ DBQ20020206200010802/06/02 20:00:31  5-MIN KDBQ 070200Z AUTO 21010KT 5SM BR CLR M02/M04 A2998 1020 85 -700 210/10 RMK AO2 TSNO
94908KDBQ DBQ20020206200510802/06/02 20:05:31  5-MIN KDBQ 070205Z AUTO 22011KT 5SM BR CLR M02/M04 A2998 1020 85 -700 220/11 RMK AO2 TSNO
94908KDBQ DBQ20020206201010802/06/02 20:10:31  5-MIN KDBQ 070210Z AUTO 21012KT 5SM BR CLR M02/M04 A2998 1020 85 -700 210/12 RMK AO2 TSNO
94908KDBQ DBQ20020206201510802/06/02 20:15:31  5-MIN KDBQ 070215Z AUTO 21012KT 5SM BR CLR M02/M04 A2998 1020 85 -700 210/12 RMK AO2 TSNO
94908KDBQ DBQ20020206202010802/06/02 20:20:31  5-MIN KDBQ 070220Z AUTO 21013KT 5SM BR CLR M02/M04 A2998 1030 85 -700 210/13 RMK AO2 TSNO
94908KDBQ DBQ20020206202510802/06/02 20:25:31  5-MIN KDBQ 070225Z AUTO 21012KT 5SM BR CLR M02/M04 A2997 1030 85 -700 210/12 RMK AO2 TSNO
94908KDBQ DBQ20020206203010802/06/02 20:30:31  5-MIN KDBQ 070230Z AUTO 22013KT 5SM BR CLR M02/M04 A2997 1030 85 -700 220/13 RMK AO2 TSNO
94908KDBQ DBQ20020206203510802/06/02 20:35:31  5-MIN KDBQ 070235Z AUTO 22013KT 5SM BR CLR M02/M04 A2997 1030 85 -700 220/13 RMK AO2 TSNO
94908KDBQ DBQ20020206204010802/06/02 20:40:31  5-MIN KDBQ 070240Z AUTO 22013KT 5SM BR CLR M02/M04 A2997 1030 85 -700 220/13 RMK AO2 TSNO
94908KDBQ DBQ20020206204510802/06/02 20:45:31  5-MIN KDBQ 070245Z AUTO 22013KT 5SM BR CLR M02/M04 A2996 1040 85 -700 220/13 RMK AO2 TSNO
94908KDBQ DBQ20020206205013102/06/02 20:50:31  5-MIN KDBQ 070250Z AUTO 22014KT 5SM BR CLR M02/M04 A2996 1040 85 -700 220/14 RMK AO2 SLP160 T10171039 58007 TSNO
94908KDBQ DBQ20020206205513102/06/02 20:55:31  5-MIN KDBQ 070255Z AUTO 22014KT 5SM BR CLR M02/M04 A2996 1050 85 -700 220/14 RMK AO2 SLP159 T10171039 58014 TSNO
94908KDBQ DBQ20020206210010802/06/02 21:00:31  5-MIN KDBQ 070300Z AUTO 22015KT 5SM BR CLR M01/M03 A2995 1050 85 -600 220/15 RMK AO2 TSNO
94908KDBQ DBQ20020206210510802/06/02 21:05:31  5-MIN KDBQ 070305Z AUTO 22015KT 5SM BR CLR M01/M03 A2995 1050 85 -600 220/15 RMK AO2 TSNO
94908KDBQ DBQ20020206211010802/06/02 21:10:31  5-MIN KDBQ 070310Z AUTO 23015KT 5SM BR CLR M01/M03 A2996 1040 85 -600 230/15 RMK AO2 TSNO
94908KDBQ DBQ20020206211510802/06/02 21:15:31  5-MIN KDBQ 070315Z AUTO 23015KT 5SM BR CLR M01/M03 A2996 1040 85 -600 230/15 RMK AO2 TSNO
94908KDBQ DBQ20020206212010802/06/02 21:20:31  5-MIN KDBQ 070320Z AUTO 23015KT 5SM BR CLR M02/M03 A2996 1040 88 -700 230/15 RMK AO2 TSNO
94908KDBQ DBQ20020206212510802/06/02 21:25:31  5-MIN KDBQ 070325Z AUTO 22015KT 5SM BR CLR M02/M03 A2996 1040 88 -700 220/15 RMK AO2 TSNO
94908KDBQ DBQ20020206213010802/06/02 21:30:31  5-MIN KDBQ 070330Z AUTO 22014KT 5SM BR CLR M02/M03 A2996 1040 88 -700 220/14 RMK AO2 TSNO
94908KDBQ DBQ20020206213510802/06/02 21:35:31  5-MIN KDBQ 070335Z AUTO 22014KT 5SM BR CLR M02/M04 A2996 1040 85 -700 220/14 RMK AO2 TSNO
94908KDBQ DBQ20020206214010802/06/02 21:40:31  5-MIN KDBQ 070340Z AUTO 24014KT 5SM BR CLR M02/M03 A2997 1030 88 -700 240/14 RMK AO2 TSNO
94908KDBQ DBQ20020206214510802/06/02 21:45:31  5-MIN KDBQ 070345Z AUTO 23014KT 4SM BR CLR M02/M04 A2997 1040 85 -700 230/14 RMK AO2 TSNO
94908KDBQ DBQ20020206215012502/06/02 21:50:31  5-MIN KDBQ 070350Z AUTO 23015KT 4SM BR CLR M02/M04 A2996 1040 88 -700 230/15 RMK AO2 SLP161 T10221039 TSNO
94908KDBQ DBQ20020206215512502/06/02 21:55:31  5-MIN KDBQ 070355Z AUTO 23013KT 4SM BR CLR M02/M04 A2997 1040 88 -700 230/13 RMK AO2 SLP162 T10221039 TSNO
94908KDBQ DBQ20020206220010802/06/02 22:00:31  5-MIN KDBQ 070400Z AUTO 24013KT 4SM BR CLR M02/M04 A2997 1030 88 -700 240/13 RMK AO2 TSNO
94908KDBQ DBQ20020206220510802/06/02 22:05:31  5-MIN KDBQ 070405Z AUTO 24013KT 4SM BR CLR M02/M04 A2996 1040 88 -700 230/13 RMK AO2 TSNO
94908KDBQ DBQ20020206221010802/06/02 22:10:31  5-MIN KDBQ 070410Z AUTO 23013KT 4SM BR CLR M03/M04 A2996 1040 92 -800 230/13 RMK AO2 TSNO
94908KDBQ DBQ20020206221510802/06/02 22:15:31  5-MIN KDBQ 070415Z AUTO 23012KT 4SM BR CLR M03/M04 A2996 1040 88 -800 230/12 RMK AO2 TSNO
94908KDBQ DBQ20020206222010802/06/02 22:20:31  5-MIN KDBQ 070420Z AUTO 23012KT 4SM BR CLR M03/M04 A2997 1040 88 -800 230/12 RMK AO2 TSNO
94908KDBQ DBQ20020206222510802/06/02 22:25:31  5-MIN KDBQ 070425Z AUTO 23011KT 4SM BR CLR M03/M04 A2997 1030 88 -800 230/11 RMK AO2 TSNO
94908KDBQ DBQ20020206223010802/06/02 22:30:31  5-MIN KDBQ 070430Z AUTO 23011KT 4SM BR CLR M03/M04 A2996 1040 88 -800 230/11 RMK AO2 TSNO
94908KDBQ DBQ20020206223510802/06/02 22:35:31  5-MIN KDBQ 070435Z AUTO 23011KT 4SM BR CLR M03/M04 A2996 1040 88 -800 220/11 RMK AO2 TSNO
94908KDBQ DBQ20020206224010802/06/02 22:40:31  5-MIN KDBQ 070440Z AUTO 23012KT 4SM BR CLR M03/M04 A2996 1040 92 -900 220/12 RMK AO2 TSNO
94908KDBQ DBQ20020206224510802/06/02 22:45:31  5-MIN KDBQ 070445Z AUTO 23013KT 4SM BR CLR M03/M04 A2996 1040 88 -800 230/13 RMK AO2 TSNO
94908KDBQ DBQ20020206225012502/06/02 22:50:31  5-MIN KDBQ 070450Z AUTO 23013KT 4SM BR CLR M03/M04 A2996 1040 92 -800 230/13 RMK AO2 SLP160 T10281039 TSNO
94908KDBQ DBQ20020206225512502/06/02 22:55:31  5-MIN KDBQ 070455Z AUTO 24013KT 4SM BR CLR M03/M04 A2996 1040 92 -800 240/13 RMK AO2 SLP159 T10281039 TSNO
94908KDBQ DBQ20020206230011102/06/02 23:00:31  5-MIN KDBQ 070500Z AUTO 24014KT 4SM BR SCT008 M02/M04 A2996 1040 88 -700 240/14 RMK AO2 TSNO
94908KDBQ DBQ20020206230511102/06/02 23:05:31  5-MIN KDBQ 070505Z AUTO 24014KT 4SM BR BKN008 M02/M03 A2996 1040 92 -700 240/14 RMK AO2 TSNO
94908KDBQ DBQ20020206231011102/06/02 23:10:31  5-MIN KDBQ 070510Z AUTO 24015KT 4SM BR BKN008 M02/M03 A2995 1050 92 -700 240/15 RMK AO2 TSNO
94908KDBQ DBQ20020206231511102/06/02 23:15:31  5-MIN KDBQ 070515Z AUTO 24015KT 5SM BR BKN006 M02/M03 A2996 1040 92 -700 240/15 RMK AO2 TSNO
94908KDBQ DBQ20020206232011102/06/02 23:20:31  5-MIN KDBQ 070520Z AUTO 24016KT 5SM BR OVC006 M02/M03 A2996 1040 88 -700 240/16 RMK AO2 TSNO
94908KDBQ DBQ20020206232511102/06/02 23:25:31  5-MIN KDBQ 070525Z AUTO 25015KT 5SM BR OVC006 M02/M03 A2996 1040 88 -700 250/15 RMK AO2 TSNO
94908KDBQ DBQ20020206233011102/06/02 23:30:31  5-MIN KDBQ 070530Z AUTO 25013KT 5SM BR OVC006 M02/M03 A2997 1030 88 -700 250/13 RMK AO2 TSNO
94908KDBQ DBQ20020206233511102/06/02 23:35:31  5-MIN KDBQ 070535Z AUTO 26010KT 5SM BR OVC006 M02/M03 A2997 1030 88 -700 260/10 RMK AO2 TSNO
94908KDBQ DBQ20020206234011102/06/02 23:40:31  5-MIN KDBQ 070540Z AUTO 27007KT 5SM BR OVC006 M02/M03 A2997 1030 88 -700 270/07 RMK AO2 TSNO
94908KDBQ DBQ20020206234511102/06/02 23:45:31  5-MIN KDBQ 070545Z AUTO 27010KT 4SM BR OVC006 M02/M03 A2997 1030 88 -700 270/10 RMK AO2 TSNO
94908KDBQ DBQ20020206235016202/06/02 23:50:31  5-MIN KDBQ 070550Z AUTO 28012G20KT 4SM BR OVC006 M02/M03 A2998 1030 88 -700 280/12G20 RMK AO2 SLP164 T10171033 11011 21033 400221111 58014 TSNO
94908KDBQ DBQ20020206235516202/06/02 23:55:31  5-MIN KDBQ 070555Z AUTO 27012G20KT 4SM BR OVC004 M02/M03 A2998 1030 88 -700 270/12G20 RMK AO2 SLP164 T10171033 11011 21033 400221111 53007 TSNO
94908KDBQ DBQ20020207000011702/07/02 00:00:31  5-MIN KDBQ 070600Z AUTO 28013G20KT 4SM BR OVC004 M02/M03 A2998 1020 92 -700 280/13G20 RMK AO2 TSNO
94908KDBQ DBQ20020207000511702/07/02 00:05:31  5-MIN KDBQ 070605Z AUTO 26011G19KT 4SM BR OVC004 M02/M03 A2998 1030 92 -700 260/11G19 RMK AO2 TSNO
94908KDBQ DBQ20020207001011102/07/02 00:10:31  5-MIN KDBQ 070610Z AUTO 26012KT 4SM BR OVC004 M02/M03 A2997 1030 92 -700 260/12 RMK AO2 TSNO
94908KDBQ DBQ20020207001511102/07/02 00:15:31  5-MIN KDBQ 070615Z AUTO 26012KT 3SM BR OVC004 M02/M03 A2997 1030 92 -700 260/12 RMK AO2 TSNO
94908KDBQ DBQ20020207002011502/07/02 00:20:31  5-MIN KDBQ 070620Z AUTO 26011KT 2 1/2SM BR OVC004 M02/M03 A2997 1030 96 -700 260/11 RMK AO2 TSNO
94908KDBQ DBQ20020207002511502/07/02 00:25:31  5-MIN KDBQ 070625Z AUTO 27010KT 2 1/2SM BR OVC002 M02/M03 A2997 1030 96 -700 270/10 RMK AO2 TSNO
94908KDBQ DBQ20020207003011102/07/02 00:30:31  5-MIN KDBQ 070630Z AUTO 26011KT 2SM BR OVC002 M02/M03 A2996 1040 96 -700 260/11 RMK AO2 TSNO
94908KDBQ DBQ20020207003511502/07/02 00:35:31  5-MIN KDBQ 070635Z AUTO 26009KT 1 3/4SM BR OVC002 M02/M03 A2997 1040 96 -700 260/09 RMK AO2 TSNO
94908KDBQ DBQ20020207004011502/07/02 00:40:31  5-MIN KDBQ 070640Z AUTO 27011KT 1 1/2SM BR OVC002 M02/M03 A2996 1040 96 -700 260/11 RMK AO2 TSNO
94908KDBQ DBQ20020207004511502/07/02 00:45:31  5-MIN KDBQ 070645Z AUTO 27010KT 1 1/2SM BR OVC002 M02/M03 A2996 1040 96 -700 260/10 RMK AO2 TSNO
94908KDBQ DBQ20020207005013202/07/02 00:50:31  5-MIN KDBQ 070650Z AUTO 26013KT 1 1/2SM BR OVC002 M02/M03 A2996 1040 96 -700 260/13 RMK AO2 SLP159 T10221028 TSNO
94908KDBQ DBQ20020207005513202/07/02 00:55:31  5-MIN KDBQ 070655Z AUTO 26013KT 1 1/4SM BR OVC002 M02/M03 A2996 1040 92 -700 260/13 RMK AO2 SLP158 T10171028 TSNO
94908KDBQ DBQ20020207010011502/07/02 01:00:31  5-MIN KDBQ 070700Z AUTO 27012KT 1 1/4SM BR OVC002 M02/M03 A2996 1040 92 -700 260/12 RMK AO2 TSNO
94908KDBQ DBQ20020207010511502/07/02 01:05:31  5-MIN KDBQ 070705Z AUTO 26013KT 1 1/4SM BR OVC002 M02/M03 A2996 1040 92 -700 260/13 RMK AO2 TSNO
94908KDBQ DBQ20020207011011502/07/02 01:10:31  5-MIN KDBQ 070710Z AUTO 26015KT 1 1/2SM BR OVC002 M02/M02 A2996 1040 96 -700 260/15 RMK AO2 TSNO
94908KDBQ DBQ20020207011511502/07/02 01:15:31  5-MIN KDBQ 070715Z AUTO 26012KT 1 3/4SM BR OVC002 M02/M02 A2996 1040 96 -700 260/12 RMK AO2 TSNO
94908KDBQ DBQ20020207012011502/07/02 01:20:31  5-MIN KDBQ 070720Z AUTO 27013KT 1 3/4SM BR OVC002 M02/M02 A2996 1040 96 -700 270/13 RMK AO2 TSNO
94908KDBQ DBQ20020207012511102/07/02 01:25:31  5-MIN KDBQ 070725Z AUTO 26012KT 2SM BR OVC002 M02/M02 A2996 1050 96 -700 260/12 RMK AO2 TSNO
94908KDBQ DBQ20020207013011102/07/02 01:30:31  5-MIN KDBQ 070730Z AUTO 26012KT 2SM BR OVC002 M02/M02 A2996 1040 96 -700 250/12 RMK AO2 TSNO
94908KDBQ DBQ20020207013511502/07/02 01:35:31  5-MIN KDBQ 070735Z AUTO 26011KT 2 1/2SM BR OVC002 M02/M02 A2996 1050 96 -700 260/11 RMK AO2 TSNO
94908KDBQ DBQ20020207014011502/07/02 01:40:31  5-MIN KDBQ 070740Z AUTO 26012KT 2 1/2SM BR OVC002 M02/M02 A2996 1040 96 -700 260/12 RMK AO2 TSNO
94908KDBQ DBQ20020207014511102/07/02 01:45:31  5-MIN KDBQ 070745Z AUTO 26011KT 3SM BR OVC002 M01/M02 A2996 1040 92 -600 250/11 RMK AO2 TSNO
94908KDBQ DBQ20020207015012802/07/02 01:50:31  5-MIN KDBQ 070750Z AUTO 26009KT 3SM BR OVC002 M01/M02 A2996 1040 92 -600 260/09 RMK AO2 SLP156 T10111022 TSNO
94908KDBQ DBQ20020207015512802/07/02 01:55:31  5-MIN KDBQ 070755Z AUTO 25012KT 3SM BR OVC002 M01/M02 A2996 1040 92 -600 250/12 RMK AO2 SLP158 T10111022 TSNO
94908KDBQ DBQ20020207020011102/07/02 02:00:31  5-MIN KDBQ 070800Z AUTO 26010KT 3SM BR OVC002 M01/M02 A2996 1040 92 -600 260/10 RMK AO2 TSNO
94908KDBQ DBQ20020207020511102/07/02 02:05:31  5-MIN KDBQ 070805Z AUTO 26009KT 3SM BR OVC004 M01/M02 A2996 1040 92 -600 260/09 RMK AO2 TSNO
94908KDBQ DBQ20020207021011102/07/02 02:10:31  5-MIN KDBQ 070810Z AUTO 26011KT 3SM BR OVC004 M01/M02 A2996 1040 92 -600 260/11 RMK AO2 TSNO
94908KDBQ DBQ20020207021511102/07/02 02:15:31  5-MIN KDBQ 070815Z AUTO 25011KT 3SM BR OVC004 M01/M02 A2996 1040 92 -600 250/11 RMK AO2 TSNO
94908KDBQ DBQ20020207022011102/07/02 02:20:31  5-MIN KDBQ 070820Z AUTO 26011KT 3SM BR OVC004 M01/M02 A2996 1040 92 -600 260/11 RMK AO2 TSNO
94908KDBQ DBQ20020207022511102/07/02 02:25:31  5-MIN KDBQ 070825Z AUTO 26010KT 4SM BR OVC004 M01/M02 A2995 1050 92 -600 260/10 RMK AO2 TSNO
94908KDBQ DBQ20020207023011102/07/02 02:30:31  5-MIN KDBQ 070830Z AUTO 26009KT 4SM BR OVC004 M01/M03 A2995 1050 88 -600 260/09 RMK AO2 TSNO
94908KDBQ DBQ20020207023511102/07/02 02:35:31  5-MIN KDBQ 070835Z AUTO 24009KT 4SM BR OVC004 M01/M03 A2996 1040 88 -600 240/09 RMK AO2 TSNO
94908KDBQ DBQ20020207024011102/07/02 02:40:31  5-MIN KDBQ 070840Z AUTO 25008KT 4SM BR OVC004 M02/M03 A2996 1040 92 -700 250/08 RMK AO2 TSNO
94908KDBQ DBQ20020207024511102/07/02 02:45:31  5-MIN KDBQ 070845Z AUTO 26010KT 4SM BR OVC004 M02/M03 A2996 1040 92 -700 250/10 RMK AO2 TSNO
94908KDBQ DBQ20020207025013402/07/02 02:50:31  5-MIN KDBQ 070850Z AUTO 25009KT 4SM BR OVC004 M02/M03 A2995 1050 92 -600 250/09 RMK AO2 SLP155 T10171028 53007 TSNO
94908KDBQ DBQ20020207025513402/07/02 02:55:31  5-MIN KDBQ 070855Z AUTO 25012KT 4SM BR OVC004 M02/M03 A2995 1050 92 -600 250/12 RMK AO2 SLP154 T10171028 56008 TSNO
94908KDBQ DBQ20020207030011102/07/02 03:00:31  5-MIN KDBQ 070900Z AUTO 24010KT 3SM BR OVC004 M02/M03 A2995 1050 92 -600 240/10 RMK AO2 TSNO
94908KDBQ DBQ20020207030511102/07/02 03:05:31  5-MIN KDBQ 070905Z AUTO 25008KT 3SM BR OVC004 M02/M03 A2995 1050 92 -700 240/08 RMK AO2 TSNO
94908KDBQ DBQ20020207031011102/07/02 03:10:31  5-MIN KDBQ 070910Z AUTO 24011KT 3SM BR OVC004 M02/M03 A2995 1050 92 -700 240/11 RMK AO2 TSNO
94908KDBQ DBQ20020207031511102/07/02 03:15:31  5-MIN KDBQ 070915Z AUTO 25011KT 3SM BR OVC004 M02/M03 A2995 1050 92 -700 240/11 RMK AO2 TSNO
94908KDBQ DBQ20020207032011102/07/02 03:20:31  5-MIN KDBQ 070920Z AUTO 24011KT 3SM BR BKN004 M02/M03 A2995 1050 92 -700 240/11 RMK AO2 TSNO
94908KDBQ DBQ20020207032511102/07/02 03:25:31  5-MIN KDBQ 070925Z AUTO 25010KT 3SM BR BKN004 M02/M03 A2995 1050 92 -700 250/10 RMK AO2 TSNO
94908KDBQ DBQ20020207033011102/07/02 03:30:31  5-MIN KDBQ 070930Z AUTO 24009KT 3SM BR SCT004 M03/M04 A2995 1050 92 -800 240/09 RMK AO2 TSNO
94908KDBQ DBQ20020207033511102/07/02 03:35:31  5-MIN KDBQ 070935Z AUTO 24010KT 3SM BR SCT004 M03/M04 A2995 1050 92 -800 230/10 RMK AO2 TSNO
94908KDBQ DBQ20020207034011102/07/02 03:40:31  5-MIN KDBQ 070940Z AUTO 24010KT 3SM BR SCT004 M03/M04 A2995 1050 92 -800 240/10 RMK AO2 TSNO
94908KDBQ DBQ20020207034511102/07/02 03:45:31  5-MIN KDBQ 070945Z AUTO 25009KT 3SM BR SCT004 M03/M04 A2995 1050 92 -800 250/09 RMK AO2 TSNO
94908KDBQ DBQ20020207035012802/07/02 03:50:31  5-MIN KDBQ 070950Z AUTO 25009KT 3SM BR FEW004 M03/M04 A2995 1050 92 -800 250/09 RMK AO2 SLP156 T10281039 TSNO
94908KDBQ DBQ20020207035512802/07/02 03:55:31  5-MIN KDBQ 070955Z AUTO 25009KT 3SM BR FEW004 M03/M04 A2995 1050 88 -800 250/09 RMK AO2 SLP156 T10281044 TSNO
94908KDBQ DBQ20020207040011102/07/02 04:00:31  5-MIN KDBQ 071000Z AUTO 25008KT 3SM BR FEW004 M03/M04 A2996 1050 88 -800 250/08 RMK AO2 TSNO
94908KDBQ DBQ20020207040511102/07/02 04:05:31  5-MIN KDBQ 071005Z AUTO 25010KT 3SM BR FEW004 M03/M04 A2996 1040 88 -800 250/10 RMK AO2 TSNO
94908KDBQ DBQ20020207041010802/07/02 04:10:31  5-MIN KDBQ 071010Z AUTO 25009KT 3SM BR CLR M03/M04 A2996 1050 88 -800 250/09 RMK AO2 TSNO
94908KDBQ DBQ20020207041510802/07/02 04:15:31  5-MIN KDBQ 071015Z AUTO 25009KT 3SM BR CLR M03/M04 A2996 1040 92 -900 250/09 RMK AO2 TSNO
94908KDBQ DBQ20020207042010802/07/02 04:20:31  5-MIN KDBQ 071020Z AUTO 26008KT 4SM BR CLR M03/M04 A2996 1040 88 -800 260/08 RMK AO2 TSNO
94908KDBQ DBQ20020207042510802/07/02 04:25:31  5-MIN KDBQ 071025Z AUTO 26009KT 4SM BR CLR M03/M04 A2996 1040 92 -900 260/09 RMK AO2 TSNO
94908KDBQ DBQ20020207043010802/07/02 04:30:31  5-MIN KDBQ 071030Z AUTO 26008KT 4SM BR CLR M03/M04 A2996 1040 92 -900 260/08 RMK AO2 TSNO
94908KDBQ DBQ20020207043510802/07/02 04:35:31  5-MIN KDBQ 071035Z AUTO 27007KT 4SM BR CLR M03/M04 A2997 1040 92 -900 270/07 RMK AO2 TSNO
94908KDBQ DBQ20020207044010802/07/02 04:40:31  5-MIN KDBQ 071040Z AUTO 26009KT 4SM BR CLR M03/M05 A2996 1040 88 -900 260/09 RMK AO2 TSNO
94908KDBQ DBQ20020207044510802/07/02 04:45:31  5-MIN KDBQ 071045Z AUTO 26008KT 4SM BR CLR M03/M05 A2996 1040 88 -900 260/08 RMK AO2 TSNO
94908KDBQ DBQ20020207045012502/07/02 04:50:31  5-MIN KDBQ 071050Z AUTO 26007KT 4SM BR CLR M03/M05 A2997 1040 88 -900 260/07 RMK AO2 SLP160 T10331050 TSNO
94908KDBQ DBQ20020207045512502/07/02 04:55:31  5-MIN KDBQ 071055Z AUTO 26008KT 4SM BR CLR M03/M05 A2996 1040 88 -900 260/08 RMK AO2 SLP159 T10331050 TSNO
94908KDBQ DBQ20020207050010802/07/02 05:00:31  5-MIN KDBQ 071100Z AUTO 25007KT 5SM BR CLR M03/M06 A2996 1040 85 -900 250/07 RMK AO2 TSNO
94908KDBQ DBQ20020207050510802/07/02 05:05:31  5-MIN KDBQ 071105Z AUTO 24005KT 5SM BR CLR M03/M06 A2996 1040 85 -900 240/05 RMK AO2 TSNO
94908KDBQ DBQ20020207051010802/07/02 05:10:31  5-MIN KDBQ 071110Z AUTO 24005KT 5SM BR CLR M04/M06 A2996 1040 88 -900 240/05 RMK AO2 TSNO
94908KDBQ DBQ20020207051510802/07/02 05:15:31  5-MIN KDBQ 071115Z AUTO 23005KT 5SM BR CLR M04/M06 A2996 1040 85 -900 230/05 RMK AO2 TSNO
94908KDBQ DBQ20020207052010902/07/02 05:20:31  5-MIN KDBQ 071120Z AUTO VRB03KT 4SM BR CLR M04/M06 A2997 1040 88 -1000 VRB/03 RMK AO2 TSNO
94908KDBQ DBQ20020207052510902/07/02 05:25:31  5-MIN KDBQ 071125Z AUTO 19004KT 4SM BR CLR M04/M06 A2996 1040 88 -1000 190/04 RMK AO2 TSNO
94908KDBQ DBQ20020207053010902/07/02 05:30:31  5-MIN KDBQ 071130Z AUTO 00000KT 3SM BR CLR M05/M07 A2996 1040 84 -1100 000/00 RMK AO2 TSNO
94908KDBQ DBQ20020207053510902/07/02 05:35:31  5-MIN KDBQ 071135Z AUTO 00000KT 3SM BR CLR M05/M06 A2997 1030 92 -1100 000/00 RMK AO2 TSNO
94908KDBQ DBQ20020207054010902/07/02 05:40:31  5-MIN KDBQ 071140Z AUTO 19003KT 3SM BR CLR M05/M06 A2997 1030 92 -1100 190/03 RMK AO2 TSNO
94908KDBQ DBQ20020207054510902/07/02 05:45:31  5-MIN KDBQ 071145Z AUTO 19003KT 4SM BR CLR M06/M06 A2997 1030 96 -1200 190/03 RMK AO2 TSNO
94908KDBQ DBQ20020207055013402/07/02 05:50:31  5-MIN KDBQ 071150Z 21004KT 4SM BR CLR M05/M06 A2997 1030 92 -1100 210/04 RMK AO2 SLP165 T10501061 11011 21056 56008
94908KDBQ DBQ20020207055513402/07/02 05:55:31  5-MIN KDBQ 071155Z 23004KT 4SM BR CLR M05/M06 A2997 1030 92 -1100 220/04 RMK AO2 SLP165 T10501061 11011 21056 53007
94908KDBQ DBQ20020207060009902/07/02 06:00:31  5-MIN KDBQ 071200Z 20004KT 4SM BR CLR M05/M06 A2997 1030 92 -1100 190/04 RMK AO2
94908KDBQ DBQ20020207060509902/07/02 06:05:31  5-MIN KDBQ 071205Z VRB03KT 4SM BR CLR M05/M06 A2997 1030 92 -1100 VRB/03 RMK AO2
94908KDBQ DBQ20020207061009902/07/02 06:10:31  5-MIN KDBQ 071210Z 19003KT 4SM BR CLR M06/M07 A2998 1030 92 -1200 190/03 RMK AO2
94908KDBQ DBQ20020207061509902/07/02 06:15:31  5-MIN KDBQ 071215Z 19005KT 4SM BR CLR M06/M07 A2998 1020 92 -1200 190/05 RMK AO2
94908KDBQ DBQ20020207062009902/07/02 06:20:31  5-MIN KDBQ 071220Z 20007KT 4SM BR CLR M05/M07 A2998 1020 88 -1100 200/07 RMK AO2
94908KDBQ DBQ20020207062509902/07/02 06:25:31  5-MIN KDBQ 071225Z 21007KT 4SM BR CLR M05/M06 A2998 1020 92 -1100 210/07 RMK AO2
94908KDBQ DBQ20020207063009902/07/02 06:30:31  5-MIN KDBQ 071230Z 22007KT 5SM BR CLR M05/M06 A2998 1020 92 -1100 220/07 RMK AO2
94908KDBQ DBQ20020207063509902/07/02 06:35:31  5-MIN KDBQ 071235Z 23007KT 5SM BR CLR M05/M06 A2999 1020 92 -1100 230/07 RMK AO2
94908KDBQ DBQ20020207064009902/07/02 06:40:31  5-MIN KDBQ 071240Z 23007KT 5SM BR CLR M04/M06 A2999 1020 88 -1000 230/07 RMK AO2
94908KDBQ DBQ20020207064509902/07/02 06:45:31  5-MIN KDBQ 071245Z 22006KT 5SM BR CLR M04/M06 A2999 1020 88 -1000 220/06 RMK AO2
94908KDBQ DBQ20020207065011602/07/02 06:50:31  5-MIN KDBQ 071250Z 22006KT 5SM BR CLR M05/M06 A2999 1010 92 -1100 220/06 RMK AO2 SLP170 T10501061
94908KDBQ DBQ20020207065511602/07/02 06:55:31  5-MIN KDBQ 071255Z 22006KT 5SM BR CLR M05/M07 A2999 1010 88 -1100 220/06 RMK AO2 SLP171 T10501067
94908KDBQ DBQ20020207070009902/07/02 07:00:31  5-MIN KDBQ 071300Z 22005KT 5SM BR CLR M05/M07 A3000 1010 88 -1100 220/05 RMK AO2
94908KDBQ DBQ20020207070509902/07/02 07:05:31  5-MIN KDBQ 071305Z 25005KT 5SM BR CLR M05/M07 A3000 1010 88 -1100 250/05 RMK AO2
94908KDBQ DBQ20020207071009902/07/02 07:10:31  5-MIN KDBQ 071310Z 23004KT 4SM BR CLR M06/M07 A3000 1000 88 -1200 220/04 RMK AO2
94908KDBQ DBQ20020207071509902/07/02 07:15:31  5-MIN KDBQ 071315Z 21004KT 4SM BR CLR M05/M07 A3000 1010 88 -1100 210/04 RMK AO2
94908KDBQ DBQ20020207072009902/07/02 07:20:31  5-MIN KDBQ 071320Z 20005KT 4SM BR CLR M05/M07 A3000 1000 88 -1100 200/05 RMK AO2
94908KDBQ DBQ20020207072509902/07/02 07:25:31  5-MIN KDBQ 071325Z 21005KT 4SM BR CLR M06/M07 A3000 1000 92 -1200 210/05 RMK AO2
94908KDBQ DBQ20020207073009902/07/02 07:30:31  5-MIN KDBQ 071330Z 21006KT 4SM BR CLR M06/M07 A3001 1000 92 -1200 210/06 RMK AO2
94908KDBQ DBQ20020207073509902/07/02 07:35:31  5-MIN KDBQ 071335Z 22005KT 4SM BR CLR M06/M07 A3001 1000 92 -1200 220/05 RMK AO2
94908KDBQ DBQ20020207074009902/07/02 07:40:31  5-MIN KDBQ 071340Z 19005KT 4SM BR CLR M05/M07 A3001 1000 88 -1100 190/05 RMK AO2
94908KDBQ DBQ20020207074509902/07/02 07:45:31  5-MIN KDBQ 071345Z 21005KT 5SM BR CLR M05/M07 A3001 1000 88 -1100 210/05 RMK AO2
94908KDBQ DBQ20020207075011502/07/02 07:50:31  5-MIN KDBQ 071350Z 22006KT 5SM BR CLR M05/M07 A3002 990 88 -1100 220/06 RMK AO2 SLP179 T10501067
94908KDBQ DBQ20020207075511502/07/02 07:55:31  5-MIN KDBQ 071355Z 22007KT 5SM BR CLR M05/M07 A3002 990 88 -1100 220/07 RMK AO2 SLP179 T10501067
94908KDBQ DBQ20020207080009802/07/02 08:00:31  5-MIN KDBQ 071400Z 22006KT 5SM BR CLR M05/M07 A3002 990 88 -1200 210/06 RMK AO2
94908KDBQ DBQ20020207080509802/07/02 08:05:31  5-MIN KDBQ 071405Z 21006KT 5SM BR CLR M05/M07 A3002 980 88 -1200 210/06 RMK AO2
94908KDBQ DBQ20020207081009802/07/02 08:10:31  5-MIN KDBQ 071410Z 19006KT 5SM BR CLR M05/M07 A3002 980 88 -1200 190/06 RMK AO2
94908KDBQ DBQ20020207081509802/07/02 08:15:31  5-MIN KDBQ 071415Z 20006KT 5SM BR CLR M05/M07 A3002 980 88 -1200 200/06 RMK AO2
94908KDBQ DBQ20020207082009802/07/02 08:20:31  5-MIN KDBQ 071420Z 22005KT 5SM BR CLR M04/M07 A3002 990 84 -1100 210/05 RMK AO2
94908KDBQ DBQ20020207082509802/07/02 08:25:31  5-MIN KDBQ 071425Z 23005KT 5SM BR CLR M04/M06 A3002 990 88 -1100 230/05 RMK AO2
94908KDBQ DBQ20020207083009802/07/02 08:30:31  5-MIN KDBQ 071430Z 26005KT 5SM BR CLR M04/M06 A3002 980 88 -1100 260/05 RMK AO2
94908KDBQ DBQ20020207083509802/07/02 08:35:31  5-MIN KDBQ 071435Z 26006KT 6SM BR CLR M04/M07 A3002 980 84 -1100 260/06 RMK AO2
94908KDBQ DBQ20020207084009802/07/02 08:40:31  5-MIN KDBQ 071440Z 27005KT 6SM BR CLR M04/M06 A3003 980 88 -1100 260/05 RMK AO2
94908KDBQ DBQ20020207084509802/07/02 08:45:31  5-MIN KDBQ 071445Z 25005KT 6SM BR CLR M04/M06 A3003 980 85 -1000 250/05 RMK AO2
94908KDBQ DBQ20020207085012102/07/02 08:50:31  5-MIN KDBQ 071450Z 26004KT 6SM BR CLR M04/M06 A3003 980 85 -1000 260/04 RMK AO2 SLP184 T10391061 53007
94908KDBQ DBQ20020207085512002/07/02 08:55:31  5-MIN KDBQ 071455Z 27005KT 6SM BR CLR M03/M06 A3003 980 85 -900 270/05 RMK AO2 SLP182 T10331056 51018
94908KDBQ DBQ20020207090009402/07/02 09:00:31  5-MIN KDBQ 071500Z 28005KT 7SM CLR M03/M06 A3003 980 81 -900 270/05 RMK AO2
94908KDBQ DBQ20020207090509402/07/02 09:05:31  5-MIN KDBQ 071505Z 28006KT 7SM CLR M03/M06 A3003 980 81 -900 280/06 RMK AO2
94908KDBQ DBQ20020207091009402/07/02 09:10:31  5-MIN KDBQ 071510Z 27006KT 7SM CLR M02/M05 A3003 980 81 -800 270/06 RMK AO2
94908KDBQ DBQ20020207091509402/07/02 09:15:31  5-MIN KDBQ 071515Z 26006KT 7SM CLR M03/M06 A3003 970 81 -900 260/06 RMK AO2
94908KDBQ DBQ20020207092009402/07/02 09:20:31  5-MIN KDBQ 071520Z 26008KT 7SM CLR M02/M05 A3004 970 81 -800 260/08 RMK AO2
94908KDBQ DBQ20020207092509402/07/02 09:25:31  5-MIN KDBQ 071525Z 27008KT 7SM CLR M02/M04 A3004 970 85 -800 270/08 RMK AO2
94908KDBQ DBQ20020207093009402/07/02 09:30:31  5-MIN KDBQ 071530Z 27008KT 7SM CLR M02/M04 A3004 970 81 -700 270/08 RMK AO2
94908KDBQ DBQ20020207093509402/07/02 09:35:31  5-MIN KDBQ 071535Z 27007KT 8SM CLR M02/M04 A3004 970 81 -700 270/07 RMK AO2
94908KDBQ DBQ20020207094009402/07/02 09:40:31  5-MIN KDBQ 071540Z 27007KT 8SM CLR M02/M04 A3004 970 81 -700 270/07 RMK AO2
94908KDBQ DBQ20020207094509402/07/02 09:45:31  5-MIN KDBQ 071545Z 27005KT 8SM CLR M02/M04 A3004 970 81 -700 270/05 RMK AO2
94908KDBQ DBQ20020207095011102/07/02 09:50:31  5-MIN KDBQ 071550Z 27006KT 8SM CLR M01/M04 A3004 970 78 -700 270/06 RMK AO2 SLP187 T10111044
94908KDBQ DBQ20020207095511102/07/02 09:55:31  5-MIN KDBQ 071555Z 28006KT 8SM CLR M01/M04 A3004 970 78 -700 280/06 RMK AO2 SLP187 T10111044
94908KDBQ DBQ20020207100009402/07/02 10:00:31  5-MIN KDBQ 071600Z 27007KT 8SM CLR M01/M04 A3004 970 78 -700 270/07 RMK AO2
94908KDBQ DBQ20020207100509402/07/02 10:05:31  5-MIN KDBQ 071605Z 26006KT 8SM CLR M01/M04 A3004 970 81 -700 260/06 RMK AO2
94908KDBQ DBQ20020207101009402/07/02 10:10:31  5-MIN KDBQ 071610Z 23006KT 8SM CLR M01/M04 A3004 970 81 -700 230/06 RMK AO2
94908KDBQ DBQ20020207101509402/07/02 10:15:31  5-MIN KDBQ 071615Z 23005KT 9SM CLR M01/M04 A3004 970 81 -700 230/05 RMK AO2
94908KDBQ DBQ20020207102009402/07/02 10:20:31  5-MIN KDBQ 071620Z 25008KT 9SM CLR M01/M04 A3004 970 78 -600 250/08 RMK AO2
94908KDBQ DBQ20020207102509402/07/02 10:25:31  5-MIN KDBQ 071625Z 26008KT 8SM CLR M01/M03 A3004 960 81 -600 260/08 RMK AO2
94908KDBQ DBQ20020207103009402/07/02 10:30:31  5-MIN KDBQ 071630Z 26006KT 8SM CLR M01/M03 A3005 960 81 -600 260/06 RMK AO2
94908KDBQ DBQ20020207103509402/07/02 10:35:31  5-MIN KDBQ 071635Z 25006KT 9SM CLR M01/M04 A3005 960 78 -600 250/06 RMK AO2
94908KDBQ DBQ20020207104009302/07/02 10:40:31  5-MIN KDBQ 071640Z 26006KT 9SM CLR 00/M03 A3005 960 78 -600 260/06 RMK AO2
94908KDBQ DBQ20020207104509302/07/02 10:45:31  5-MIN KDBQ 071645Z 27008KT 9SM CLR 00/M03 A3005 960 78 -500 270/08 RMK AO2
94908KDBQ DBQ20020207105011002/07/02 10:50:31  5-MIN KDBQ 071650Z 25006KT 9SM CLR 00/M03 A3005 960 78 -500 250/06 RMK AO2 SLP187 T00001033
94908KDBQ DBQ20020207105511002/07/02 10:55:31  5-MIN KDBQ 071655Z 25005KT 9SM CLR 00/M03 A3005 960 78 -500 240/05 RMK AO2 SLP188 T00001033
94908KDBQ DBQ20020207110009302/07/02 11:00:31  5-MIN KDBQ 071700Z 27007KT 9SM CLR 01/M03 A3005 960 75 -500 270/07 RMK AO2
94908KDBQ DBQ20020207110509302/07/02 11:05:31  5-MIN KDBQ 071705Z 27004KT 9SM CLR 01/M03 A3005 960 78 -500 270/04 RMK AO2
94908KDBQ DBQ20020207111009302/07/02 11:10:31  5-MIN KDBQ 071710Z 24005KT 9SM CLR 01/M03 A3005 960 78 -500 240/05 RMK AO2
94908KDBQ DBQ20020207111509302/07/02 11:15:31  5-MIN KDBQ 071715Z 26006KT 9SM CLR 01/M03 A3005 960 78 -500 260/06 RMK AO2
94908KDBQ DBQ20020207112009402/07/02 11:20:31  5-MIN KDBQ 071720Z 23005KT 10SM CLR 01/M03 A3005 960 78 -500 230/05 RMK AO2
94908KDBQ DBQ20020207112509302/07/02 11:25:31  5-MIN KDBQ 071725Z 23006KT 9SM CLR 01/M03 A3005 960 78 -500 230/06 RMK AO2
94908KDBQ DBQ20020207113009402/07/02 11:30:31  5-MIN KDBQ 071730Z 26006KT 10SM CLR 01/M03 A3005 960 75 -400 260/06 RMK AO2
94908KDBQ DBQ20020207113509402/07/02 11:35:31  5-MIN KDBQ 071735Z 26006KT 10SM CLR 01/M03 A3005 960 75 -400 260/06 RMK AO2
94908KDBQ DBQ20020207114009402/07/02 11:40:31  5-MIN KDBQ 071740Z 27005KT 10SM CLR 01/M03 A3005 960 75 -400 270/05 RMK AO2
94908KDBQ DBQ20020207114509402/07/02 11:45:31  5-MIN KDBQ 071745Z 26006KT 10SM CLR 01/M03 A3004 970 75 -400 260/06 RMK AO2
94908KDBQ DBQ20020207115012902/07/02 11:50:31  5-MIN KDBQ 071750Z 27006KT 10SM CLR 02/M03 A3004 970 72 -300 270/06 RMK AO2 SLP183 T00171028 10017 21056 51018
94908KDBQ DBQ20020207115512902/07/02 11:55:31  5-MIN KDBQ 071755Z 26006KT 10SM CLR 01/M02 A3004 970 78 -400 260/06 RMK AO2 SLP183 T00111022 10017 21056 50002
94908KDBQ DBQ20020207120009402/07/02 12:00:31  5-MIN KDBQ 071800Z 24007KT 10SM CLR 02/M02 A3004 970 75 -300 240/07 RMK AO2
94908KDBQ DBQ20020207120509402/07/02 12:05:31  5-MIN KDBQ 071805Z 24006KT 10SM CLR 01/M02 A3004 970 78 -400 240/06 RMK AO2
94908KDBQ DBQ20020207121009402/07/02 12:10:31  5-MIN KDBQ 071810Z 24007KT 10SM CLR 02/M02 A3004 970 75 -300 240/07 RMK AO2
94908KDBQ DBQ20020207121509402/07/02 12:15:31  5-MIN KDBQ 071815Z 23007KT 10SM CLR 02/M02 A3004 970 75 -300 230/07 RMK AO2
94908KDBQ DBQ20020207122009402/07/02 12:20:31  5-MIN KDBQ 071820Z 24007KT 10SM CLR 02/M02 A3004 970 75 -300 240/07 RMK AO2
94908KDBQ DBQ20020207122509402/07/02 12:25:31  5-MIN KDBQ 071825Z 23007KT 10SM CLR 02/M02 A3004 970 75 -300 230/07 RMK AO2
94908KDBQ DBQ20020207123009402/07/02 12:30:31  5-MIN KDBQ 071830Z 24008KT 10SM CLR 02/M02 A3004 970 75 -300 240/08 RMK AO2
94908KDBQ DBQ20020207123509402/07/02 12:35:31  5-MIN KDBQ 071835Z 24009KT 10SM CLR 02/M02 A3003 970 75 -300 240/09 RMK AO2
94908KDBQ DBQ20020207124009402/07/02 12:40:31  5-MIN KDBQ 071840Z 24008KT 10SM CLR 02/M02 A3003 970 75 -300 240/08 RMK AO2
94908KDBQ DBQ20020207124509402/07/02 12:45:31  5-MIN KDBQ 071845Z 25008KT 10SM CLR 02/M02 A3003 970 75 -300 250/08 RMK AO2
94908KDBQ DBQ20020207125011102/07/02 12:50:31  5-MIN KDBQ 071850Z 25008KT 10SM CLR 02/M02 A3003 980 72 -300 240/08 RMK AO2 SLP182 T00221022
94908KDBQ DBQ20020207125511102/07/02 12:55:31  5-MIN KDBQ 071855Z 25008KT 10SM CLR 02/M02 A3003 980 72 -300 240/08 RMK AO2 SLP182 T00221022
94908KDBQ DBQ20020207130009402/07/02 13:00:31  5-MIN KDBQ 071900Z 24008KT 10SM CLR 02/M02 A3003 980 72 -200 240/08 RMK AO2
94908KDBQ DBQ20020207130509402/07/02 13:05:31  5-MIN KDBQ 071905Z 24008KT 10SM CLR 02/M02 A3003 980 75 -200 240/08 RMK AO2
94908KDBQ DBQ20020207131009402/07/02 13:10:31  5-MIN KDBQ 071910Z 25007KT 10SM CLR 02/M02 A3002 980 72 -200 250/07 RMK AO2
94908KDBQ DBQ20020207131509402/07/02 13:15:31  5-MIN KDBQ 071915Z 24008KT 10SM CLR 02/M02 A3002 980 75 -200 240/08 RMK AO2
94908KDBQ DBQ20020207132009402/07/02 13:20:31  5-MIN KDBQ 071920Z 24008KT 10SM CLR 02/M02 A3002 980 75 -200 240/08 RMK AO2
94908KDBQ DBQ20020207132509402/07/02 13:25:31  5-MIN KDBQ 071925Z 24007KT 10SM CLR 03/M02 A3002 990 72 -200 240/07 RMK AO2
94908KDBQ DBQ20020207133009402/07/02 13:30:31  5-MIN KDBQ 071930Z 24008KT 10SM CLR 03/M02 A3002 990 72 -200 240/08 RMK AO2
94908KDBQ DBQ20020207133509402/07/02 13:35:31  5-MIN KDBQ 071935Z 24007KT 10SM CLR 03/M02 A3002 980 72 -200 240/07 RMK AO2
94908KDBQ DBQ20020207134009402/07/02 13:40:31  5-MIN KDBQ 071940Z 24008KT 10SM CLR 03/M02 A3002 980 72 -200 240/08 RMK AO2
94908KDBQ DBQ20020207134509402/07/02 13:45:31  5-MIN KDBQ 071945Z 24006KT 10SM CLR 03/M02 A3002 990 72 -200 240/06 RMK AO2
94908KDBQ DBQ20020207135011102/07/02 13:50:31  5-MIN KDBQ 071950Z 24006KT 10SM CLR 03/M02 A3002 990 69 -200 240/06 RMK AO2 SLP176 T00281022
94908KDBQ DBQ20020207135511102/07/02 13:55:31  5-MIN KDBQ 071955Z 24007KT 10SM CLR 03/M02 A3002 990 72 -200 240/07 RMK AO2 SLP176 T00281017
94908KDBQ DBQ20020207140009402/07/02 14:00:31  5-MIN KDBQ 072000Z 24007KT 10SM CLR 03/M02 A3002 990 72 -200 240/07 RMK AO2
94908KDBQ DBQ20020207140509402/07/02 14:05:31  5-MIN KDBQ 072005Z 23006KT 10SM CLR 03/M02 A3002 990 72 -200 230/06 RMK AO2
94908KDBQ DBQ20020207141009402/07/02 14:10:31  5-MIN KDBQ 072010Z 23006KT 10SM CLR 03/M02 A3001 990 70 -100 230/06 RMK AO2
94908KDBQ DBQ20020207141509402/07/02 14:15:31  5-MIN KDBQ 072015Z 23008KT 10SM CLR 03/M02 A3001 990 70 -100 230/08 RMK AO2
94908KDBQ DBQ20020207142009402/07/02 14:20:31  5-MIN KDBQ 072020Z 24007KT 10SM CLR 03/M02 A3001 990 70 -100 240/07 RMK AO2
94908KDBQ DBQ20020207142509402/07/02 14:25:31  5-MIN KDBQ 072025Z 24006KT 10SM CLR 03/M01 A3001 990 72 -100 240/06 RMK AO2
94908KDBQ DBQ20020207143009502/07/02 14:30:31  5-MIN KDBQ 072030Z 23007KT 10SM CLR 03/M02 A3001 1000 70 -100 230/07 RMK AO2
94908KDBQ DBQ20020207143509502/07/02 14:35:31  5-MIN KDBQ 072035Z 23007KT 10SM CLR 03/M02 A3001 1000 70 -100 220/07 RMK AO2
94908KDBQ DBQ20020207144009502/07/02 14:40:31  5-MIN KDBQ 072040Z 23007KT 10SM CLR 03/M02 A3001 1000 70 -100 230/07 RMK AO2
94908KDBQ DBQ20020207144509502/07/02 14:45:31  5-MIN KDBQ 072045Z 23008KT 10SM CLR 03/M02 A3001 1000 70 -100 230/08 RMK AO2
94908KDBQ DBQ20020207145011802/07/02 14:50:31  5-MIN KDBQ 072050Z 24008KT 10SM CLR 03/M02 A3001 1000 70 -100 240/08 RMK AO2 SLP172 T00331017 50002
94908KDBQ DBQ20020207145511802/07/02 14:55:31  5-MIN KDBQ 072055Z 24008KT 10SM CLR 03/M02 A3001 1000 67 -100 240/08 RMK AO2 SLP172 T00331022 58009
94908KDBQ DBQ20020207150009502/07/02 15:00:31  5-MIN KDBQ 072100Z 23009KT 10SM CLR 03/M02 A3001 1000 67 -100 230/09 RMK AO2
94908KDBQ DBQ20020207150509502/07/02 15:05:31  5-MIN KDBQ 072105Z 22008KT 10SM CLR 03/M02 A3001 1000 70 -100 220/08 RMK AO2
94908KDBQ DBQ20020207151009502/07/02 15:10:31  5-MIN KDBQ 072110Z 23007KT 10SM CLR 03/M01 A3001 1000 72 -100 220/07 RMK AO2
94908KDBQ DBQ20020207151509502/07/02 15:15:31  5-MIN KDBQ 072115Z 22008KT 10SM CLR 03/M01 A3001 1000 72 -100 220/08 RMK AO2
94908KDBQ DBQ20020207152009502/07/02 15:20:31  5-MIN KDBQ 072120Z 22008KT 10SM CLR 03/M01 A3001 1000 72 -100 220/08 RMK AO2
94908KDBQ DBQ20020207152509502/07/02 15:25:31  5-MIN KDBQ 072125Z 22009KT 10SM CLR 03/M01 A3001 1000 72 -100 220/09 RMK AO2
94908KDBQ DBQ20020207153009502/07/02 15:30:31  5-MIN KDBQ 072130Z 22010KT 10SM CLR 03/M02 A3001 1000 70 -100 220/10 RMK AO2
94908KDBQ DBQ20020207153509502/07/02 15:35:31  5-MIN KDBQ 072135Z 23010KT 10SM CLR 03/M02 A3001 1000 70 -100 220/10 RMK AO2
94908KDBQ DBQ20020207154009502/07/02 15:40:31  5-MIN KDBQ 072140Z 23011KT 10SM CLR 03/M02 A3001 1000 72 -200 230/11 RMK AO2
94908KDBQ DBQ20020207154509502/07/02 15:45:31  5-MIN KDBQ 072145Z 22009KT 10SM CLR 03/M02 A3001 1000 72 -200 220/09 RMK AO2
94908KDBQ DBQ20020207155011202/07/02 15:50:31  5-MIN KDBQ 072150Z 22010KT 10SM CLR 03/M02 A3001 1000 69 -200 220/10 RMK AO2 SLP173 T00281022
94908KDBQ DBQ20020207155511202/07/02 15:55:31  5-MIN KDBQ 072155Z 22010KT 10SM CLR 03/M02 A3001 1000 69 -200 220/10 RMK AO2 SLP172 T00281022
94908KDBQ DBQ20020207160009502/07/02 16:00:31  5-MIN KDBQ 072200Z 23010KT 10SM CLR 03/M02 A3000 1000 72 -200 230/10 RMK AO2
94908KDBQ DBQ20020207160509502/07/02 16:05:31  5-MIN KDBQ 072205Z 23009KT 10SM CLR 03/M02 A3000 1000 69 -200 230/09 RMK AO2
94908KDBQ DBQ20020207161009502/07/02 16:10:31  5-MIN KDBQ 072210Z 23008KT 10SM CLR 03/M02 A3001 1000 72 -200 230/08 RMK AO2
94908KDBQ DBQ20020207161509502/07/02 16:15:31  5-MIN KDBQ 072215Z 22007KT 10SM CLR 03/M02 A3000 1000 72 -100 220/07 RMK AO2
94908KDBQ DBQ20020207162009502/07/02 16:20:31  5-MIN KDBQ 072220Z 22009KT 10SM CLR 03/M02 A3001 1000 72 -200 220/09 RMK AO2
94908KDBQ DBQ20020207162509502/07/02 16:25:31  5-MIN KDBQ 072225Z 23008KT 10SM CLR 03/M02 A3001 1000 72 -200 230/08 RMK AO2
94908KDBQ DBQ20020207163009402/07/02 16:30:31  5-MIN KDBQ 072230Z 23009KT 10SM CLR 03/M02 A3001 990 72 -200 230/09 RMK AO2
94908KDBQ DBQ20020207163509402/07/02 16:35:31  5-MIN KDBQ 072235Z 23009KT 10SM CLR 03/M02 A3001 990 72 -200 230/09 RMK AO2
94908KDBQ DBQ20020207164009402/07/02 16:40:31  5-MIN KDBQ 072240Z 24010KT 10SM CLR 03/M02 A3001 990 72 -200 240/10 RMK AO2
94908KDBQ DBQ20020207164509402/07/02 16:45:31  5-MIN KDBQ 072245Z 23010KT 10SM CLR 03/M02 A3001 990 72 -200 230/10 RMK AO2
94908KDBQ DBQ20020207165011102/07/02 16:50:31  5-MIN KDBQ 072250Z 23009KT 10SM CLR 02/M02 A3001 990 75 -200 230/09 RMK AO2 SLP177 T00221017
94908KDBQ DBQ20020207165511102/07/02 16:55:31  5-MIN KDBQ 072255Z 24010KT 10SM CLR 02/M02 A3002 990 72 -200 240/10 RMK AO2 SLP178 T00221022
94908KDBQ DBQ20020207170009402/07/02 17:00:31  5-MIN KDBQ 072300Z 23010KT 10SM CLR 02/M02 A3002 990 72 -200 230/10 RMK AO2
94908KDBQ DBQ20020207170509402/07/02 17:05:31  5-MIN KDBQ 072305Z 23009KT 10SM CLR 02/M02 A3002 990 72 -200 230/09 RMK AO2
94908KDBQ DBQ20020207171009402/07/02 17:10:31  5-MIN KDBQ 072310Z 23009KT 10SM CLR 02/M02 A3002 990 75 -300 230/09 RMK AO2
94908KDBQ DBQ20020207171509402/07/02 17:15:31  5-MIN KDBQ 072315Z 23010KT 10SM CLR 02/M02 A3002 980 72 -200 230/10 RMK AO2
94908KDBQ DBQ20020207172009402/07/02 17:20:31  5-MIN KDBQ 072320Z 23009KT 10SM CLR 02/M02 A3003 980 75 -300 230/09 RMK AO2
94908KDBQ DBQ20020207172509302/07/02 17:25:31  5-MIN KDBQ 072325Z 22007KT 9SM CLR 02/M02 A3003 980 75 -300 220/07 RMK AO2
94908KDBQ DBQ20020207173009302/07/02 17:30:31  5-MIN KDBQ 072330Z 22007KT 9SM CLR 01/M02 A3003 980 78 -400 210/07 RMK AO2
94908KDBQ DBQ20020207173509302/07/02 17:35:31  5-MIN KDBQ 072335Z 21007KT 9SM CLR 01/M02 A3003 980 78 -400 210/07 RMK AO2
94908KDBQ DBQ20020207174009302/07/02 17:40:31  5-MIN KDBQ 072340Z 20006KT 9SM CLR 01/M02 A3003 980 78 -400 200/06 RMK AO2
94908KDBQ DBQ20020207174509402/07/02 17:45:31  5-MIN KDBQ 072345Z 21007KT 10SM CLR 01/M02 A3003 980 82 -500 200/07 RMK AO2
94908KDBQ DBQ20020207175012902/07/02 17:50:31  5-MIN KDBQ 072350Z 20006KT 10SM CLR 01/M02 A3003 980 82 -500 200/06 RMK AO2 SLP183 T00061022 10033 20006 58009
94908KDBQ DBQ20020207175512802/07/02 17:55:31  5-MIN KDBQ 072355Z 20006KT 9SM CLR 00/M03 A3003 980 81 -500 200/06 RMK AO2 SLP184 T00001028 10033 20000 53008
94908KDBQ DBQ20020207180009402/07/02 18:00:31  5-MIN KDBQ 080000Z 21007KT 9SM CLR M01/M03 A3003 970 85 -600 200/07 RMK AO2
94908KDBQ DBQ20020207180509402/07/02 18:05:31  5-MIN KDBQ 080005Z 21007KT 9SM CLR M01/M03 A3004 970 85 -600 200/07 RMK AO2
94908KDBQ DBQ20020207181009302/07/02 18:10:31  5-MIN KDBQ 080010Z 20008KT 8SM CLR 00/M03 A3004 970 81 -500 200/08 RMK AO2
94908KDBQ DBQ20020207181509302/07/02 18:15:31  5-MIN KDBQ 080015Z 20009KT 8SM CLR 00/M03 A3004 970 81 -500 200/09 RMK AO2
94908KDBQ DBQ20020207182009302/07/02 18:20:31  5-MIN KDBQ 080020Z 20009KT 8SM CLR 00/M03 A3004 970 81 -500 200/09 RMK AO2
94908KDBQ DBQ20020207182509302/07/02 18:25:31  5-MIN KDBQ 080025Z 20009KT 8SM CLR 00/M03 A3004 970 81 -500 200/09 RMK AO2
94908KDBQ DBQ20020207183009402/07/02 18:30:31  5-MIN KDBQ 080030Z 19009KT 8SM CLR M01/M03 A3004 970 85 -600 190/09 RMK AO2
94908KDBQ DBQ20020207183509402/07/02 18:35:31  5-MIN KDBQ 080035Z 19008KT 7SM CLR M01/M03 A3003 970 85 -600 190/08 RMK AO2
94908KDBQ DBQ20020207184009402/07/02 18:40:31  5-MIN KDBQ 080040Z 18008KT 7SM CLR M01/M03 A3003 970 85 -600 180/08 RMK AO2
94908KDBQ DBQ20020207184509302/07/02 18:45:31  5-MIN KDBQ 080045Z 18008KT 7SM CLR 00/M03 A3003 980 81 -500 180/08 RMK AO2
94908KDBQ DBQ20020207185011002/07/02 18:50:31  5-MIN KDBQ 080050Z 18008KT 7SM CLR 00/M03 A3003 980 81 -500 180/08 RMK AO2 SLP183 T00001028
94908KDBQ DBQ20020207185511102/07/02 18:55:31  5-MIN KDBQ 080055Z 19008KT 8SM CLR M01/M03 A3003 980 85 -600 190/08 RMK AO2 SLP184 T10061028
94908KDBQ DBQ20020207190009402/07/02 19:00:31  5-MIN KDBQ 080100Z 19006KT 7SM CLR M01/M03 A3003 980 88 -700 190/06 RMK AO2
94908KDBQ DBQ20020207190509402/07/02 19:05:31  5-MIN KDBQ 080105Z 20007KT 7SM CLR M01/M03 A3003 980 88 -700 190/07 RMK AO2
94908KDBQ DBQ20020207191009402/07/02 19:10:31  5-MIN KDBQ 080110Z 19008KT 7SM CLR M01/M03 A3003 980 85 -700 190/08 RMK AO2
94908KDBQ DBQ20020207191509702/07/02 19:15:31  5-MIN KDBQ 080115Z 19008KT 6SM BR CLR M01/M03 A3002 980 88 -700 190/08 RMK AO2
94908KDBQ DBQ20020207192010402/07/02 19:20:31  5-MIN KDBQ 080120Z AUTO 19009KT 7SM CLR M01/M03 A3002 990 85 -600 190/09 RMK AO2 TSNO
94908KDBQ DBQ20020207192510402/07/02 19:25:31  5-MIN KDBQ 080125Z AUTO 18011KT 7SM CLR M01/M02 A3002 990 88 -600 180/11 RMK AO2 TSNO
94908KDBQ DBQ20020207193010402/07/02 19:30:31  5-MIN KDBQ 080130Z AUTO 19012KT 7SM CLR M01/M03 A3001 990 85 -600 190/12 RMK AO2 TSNO
94908KDBQ DBQ20020207193510702/07/02 19:35:31  5-MIN KDBQ 080135Z AUTO 19012KT 6SM BR CLR M01/M03 A3001 990 85 -600 190/12 RMK AO2 TSNO
94908KDBQ DBQ20020207194010802/07/02 19:40:31  5-MIN KDBQ 080140Z AUTO 19010KT 6SM BR CLR M01/M03 A3001 1000 85 -600 190/10 RMK AO2 TSNO
94908KDBQ DBQ20020207194510802/07/02 19:45:31  5-MIN KDBQ 080145Z AUTO 19010KT 6SM BR CLR M01/M03 A3001 1000 88 -600 190/10 RMK AO2 TSNO
94908KDBQ DBQ20020207195012502/07/02 19:50:31  5-MIN KDBQ 080150Z AUTO 19010KT 6SM BR CLR M01/M03 A3001 1000 88 -600 190/10 RMK AO2 SLP176 T10111028 TSNO
94908KDBQ DBQ20020207195512502/07/02 19:55:31  5-MIN KDBQ 080155Z AUTO 19010KT 6SM BR CLR M01/M03 A3000 1000 88 -600 190/10 RMK AO2 SLP174 T10111028 TSNO
94908KDBQ DBQ20020207200010802/07/02 20:00:31  5-MIN KDBQ 080200Z AUTO 19010KT 5SM BR CLR M02/M03 A3000 1010 92 -700 190/10 RMK AO2 TSNO
94908KDBQ DBQ20020207200510802/07/02 20:05:31  5-MIN KDBQ 080205Z AUTO 19010KT 5SM BR CLR M01/M03 A2999 1010 88 -600 190/10 RMK AO2 TSNO
94908KDBQ DBQ20020207201010802/07/02 20:10:31  5-MIN KDBQ 080210Z AUTO 19009KT 5SM BR CLR M01/M03 A3000 1010 88 -600 190/09 RMK AO2 TSNO
94908KDBQ DBQ20020207201510802/07/02 20:15:31  5-MIN KDBQ 080215Z AUTO 20008KT 5SM BR CLR M02/M03 A3000 1010 88 -700 190/08 RMK AO2 TSNO
94908KDBQ DBQ20020207202010802/07/02 20:20:31  5-MIN KDBQ 080220Z AUTO 19009KT 5SM BR CLR M02/M03 A3000 1010 92 -700 190/09 RMK AO2 TSNO
94908KDBQ DBQ20020207202510802/07/02 20:25:31  5-MIN KDBQ 080225Z AUTO 19009KT 5SM BR CLR M02/M03 A2999 1010 92 -700 190/09 RMK AO2 TSNO
94908KDBQ DBQ20020207203010802/07/02 20:30:31  5-MIN KDBQ 080230Z AUTO 19010KT 5SM BR CLR M02/M03 A2999 1010 92 -700 190/10 RMK AO2 TSNO
94908KDBQ DBQ20020207203510802/07/02 20:35:31  5-MIN KDBQ 080235Z AUTO 19011KT 5SM BR CLR M02/M03 A2999 1020 92 -700 190/11 RMK AO2 TSNO
94908KDBQ DBQ20020207204010802/07/02 20:40:31  5-MIN KDBQ 080240Z AUTO 19012KT 5SM BR CLR M01/M03 A2998 1020 88 -600 190/12 RMK AO2 TSNO
94908KDBQ DBQ20020207204511502/07/02 20:45:31  5-MIN KDBQ 080245Z AUTO 19013KT 5SM BR CLR M01/M03 A2997 1030 88 -600 190/13 RMK AO2 PRESFR TSNO
94908KDBQ DBQ20020207205013802/07/02 20:50:31  5-MIN KDBQ 080250Z AUTO 19014KT 5SM BR CLR M01/M03 A2997 1040 88 -600 190/14 RMK AO2 PRESFR SLP161 T10111028 53008 TSNO
94908KDBQ DBQ20020207205513102/07/02 20:55:31  5-MIN KDBQ 080255Z AUTO 19014KT 5SM BR CLR M01/M03 A2996 1040 88 -600 190/14 RMK AO2 SLP160 T10111028 58022 TSNO
94908KDBQ DBQ20020207210010802/07/02 21:00:31  5-MIN KDBQ 080300Z AUTO 19013KT 5SM BR CLR M01/M03 A2997 1030 88 -600 190/13 RMK AO2 TSNO
94908KDBQ DBQ20020207210510802/07/02 21:05:31  5-MIN KDBQ 080305Z AUTO 19013KT 5SM BR CLR M01/M03 A2997 1040 88 -600 190/13 RMK AO2 TSNO
94908KDBQ DBQ20020207211010802/07/02 21:10:31  5-MIN KDBQ 080310Z AUTO 19014KT 5SM BR CLR M01/M03 A2996 1040 88 -600 190/14 RMK AO2 TSNO
94908KDBQ DBQ20020207211510802/07/02 21:15:31  5-MIN KDBQ 080315Z AUTO 19013KT 5SM BR CLR M01/M03 A2997 1040 88 -600 190/13 RMK AO2 TSNO
94908KDBQ DBQ20020207212010802/07/02 21:20:31  5-MIN KDBQ 080320Z AUTO 20012KT 5SM BR CLR M01/M03 A2997 1040 88 -600 200/12 RMK AO2 TSNO
94908KDBQ DBQ20020207212510802/07/02 21:25:31  5-MIN KDBQ 080325Z AUTO 20012KT 5SM BR CLR M01/M03 A2997 1030 88 -600 200/12 RMK AO2 TSNO
94908KDBQ DBQ20020207213010802/07/02 21:30:31  5-MIN KDBQ 080330Z AUTO 20013KT 5SM BR CLR M01/M03 A2996 1040 88 -600 200/13 RMK AO2 TSNO
94908KDBQ DBQ20020207213510802/07/02 21:35:31  5-MIN KDBQ 080335Z AUTO 20013KT 5SM BR CLR M01/M03 A2996 1040 88 -600 200/13 RMK AO2 TSNO
94908KDBQ DBQ20020207214010802/07/02 21:40:31  5-MIN KDBQ 080340Z AUTO 20013KT 5SM BR CLR M01/M03 A2996 1040 88 -600 200/13 RMK AO2 TSNO
94908KDBQ DBQ20020207214510802/07/02 21:45:31  5-MIN KDBQ 080345Z AUTO 20013KT 5SM BR CLR M01/M03 A2995 1050 88 -600 200/13 RMK AO2 TSNO
94908KDBQ DBQ20020207215012502/07/02 21:50:31  5-MIN KDBQ 080350Z AUTO 20013KT 5SM BR CLR M01/M03 A2996 1040 88 -600 200/13 RMK AO2 SLP157 T10111028 TSNO
94908KDBQ DBQ20020207215512502/07/02 21:55:31  5-MIN KDBQ 080355Z AUTO 20014KT 5SM BR CLR M01/M03 A2996 1050 88 -600 200/14 RMK AO2 SLP157 T10111028 TSNO
94908KDBQ DBQ20020207220010802/07/02 22:00:31  5-MIN KDBQ 080400Z AUTO 20016KT 5SM BR CLR M01/M03 A2995 1050 88 -600 200/16 RMK AO2 TSNO
94908KDBQ DBQ20020207220510802/07/02 22:05:31  5-MIN KDBQ 080405Z AUTO 20015KT 6SM BR CLR M01/M03 A2996 1040 88 -600 200/15 RMK AO2 TSNO
94908KDBQ DBQ20020207221010802/07/02 22:10:31  5-MIN KDBQ 080410Z AUTO 20014KT 6SM BR CLR M01/M03 A2996 1040 88 -600 200/14 RMK AO2 TSNO
94908KDBQ DBQ20020207221510802/07/02 22:15:31  5-MIN KDBQ 080415Z AUTO 21013KT 6SM BR CLR M01/M03 A2996 1040 88 -600 210/13 RMK AO2 TSNO
94908KDBQ DBQ20020207222010802/07/02 22:20:31  5-MIN KDBQ 080420Z AUTO 21014KT 6SM BR CLR M01/M03 A2995 1050 85 -600 210/14 RMK AO2 TSNO
94908KDBQ DBQ20020207222510802/07/02 22:25:31  5-MIN KDBQ 080425Z AUTO 21014KT 6SM BR CLR M01/M03 A2996 1040 85 -500 210/14 RMK AO2 TSNO
94908KDBQ DBQ20020207223010802/07/02 22:30:31  5-MIN KDBQ 080430Z AUTO 21014KT 6SM BR CLR M01/M03 A2996 1040 85 -500 210/14 RMK AO2 TSNO
94908KDBQ DBQ20020207223510502/07/02 22:35:31  5-MIN KDBQ 080435Z AUTO 21011KT 7SM CLR M01/M03 A2997 1040 81 -500 210/11 RMK AO2 TSNO
94908KDBQ DBQ20020207224010502/07/02 22:40:31  5-MIN KDBQ 080440Z AUTO 23011KT 7SM CLR M01/M03 A2997 1030 81 -500 230/11 RMK AO2 TSNO
94908KDBQ DBQ20020207224510502/07/02 22:45:31  5-MIN KDBQ 080445Z AUTO 22011KT 7SM CLR M01/M03 A2997 1030 85 -500 220/11 RMK AO2 TSNO
94908KDBQ DBQ20020207225012202/07/02 22:50:31  5-MIN KDBQ 080450Z AUTO 21013KT 7SM CLR M01/M03 A2996 1040 85 -500 210/13 RMK AO2 SLP158 T10061028 TSNO
94908KDBQ DBQ20020207225512202/07/02 22:55:31  5-MIN KDBQ 080455Z AUTO 22013KT 7SM CLR M01/M03 A2997 1040 81 -500 220/13 RMK AO2 SLP159 T10061033 TSNO
94908KDBQ DBQ20020207230010502/07/02 23:00:31  5-MIN KDBQ 080500Z AUTO 22014KT 7SM CLR M01/M03 A2997 1040 81 -500 220/14 RMK AO2 TSNO
94908KDBQ DBQ20020207230510502/07/02 23:05:31  5-MIN KDBQ 080505Z AUTO 21015KT 7SM CLR M01/M03 A2997 1040 81 -500 210/15 RMK AO2 TSNO
94908KDBQ DBQ20020207231010502/07/02 23:10:31  5-MIN KDBQ 080510Z AUTO 21012KT 7SM CLR M01/M03 A2997 1030 85 -600 210/12 RMK AO2 TSNO
94908KDBQ DBQ20020207231510502/07/02 23:15:31  5-MIN KDBQ 080515Z AUTO 21011KT 7SM CLR M01/M03 A2997 1030 88 -600 210/11 RMK AO2 TSNO
94908KDBQ DBQ20020207232010802/07/02 23:20:31  5-MIN KDBQ 080520Z AUTO 21010KT 6SM BR CLR M01/M03 A2997 1030 88 -600 210/10 RMK AO2 TSNO
94908KDBQ DBQ20020207232510802/07/02 23:25:31  5-MIN KDBQ 080525Z AUTO 21011KT 6SM HZ CLR M01/M04 A2998 1030 81 -600 210/11 RMK AO2 TSNO
94908KDBQ DBQ20020207233010802/07/02 23:30:31  5-MIN KDBQ 080530Z AUTO 21011KT 6SM HZ CLR M01/M04 A2998 1030 81 -600 210/11 RMK AO2 TSNO
94908KDBQ DBQ20020207233510802/07/02 23:35:31  5-MIN KDBQ 080535Z AUTO 21011KT 6SM HZ CLR M01/M04 A2997 1030 81 -600 210/11 RMK AO2 TSNO
94908KDBQ DBQ20020207234010802/07/02 23:40:31  5-MIN KDBQ 080540Z AUTO 21011KT 6SM HZ CLR M01/M04 A2997 1030 81 -600 210/11 RMK AO2 TSNO
94908KDBQ DBQ20020207234510802/07/02 23:45:31  5-MIN KDBQ 080545Z AUTO 21011KT 6SM HZ CLR M01/M04 A2997 1030 81 -600 210/11 RMK AO2 TSNO
94908KDBQ DBQ20020207235015302/07/02 23:50:31  5-MIN KDBQ 080550Z AUTO 21012KT 6SM BR CLR M02/M04 A2997 1030 85 -700 210/12 RMK AO2 SLP161 T10171039 10000 21017 400331056 58022 TSNO
94908KDBQ DBQ20020207235515302/07/02 23:55:31  5-MIN KDBQ 080555Z AUTO 21013KT 6SM BR CLR M02/M04 A2997 1030 85 -700 210/13 RMK AO2 SLP160 T10171039 10000 21017 400331056 53001 TSNO
94908KDBQ DBQ20020208000010802/08/02 00:00:31  5-MIN KDBQ 080600Z AUTO 22012KT 6SM BR CLR M02/M04 A2997 1030 85 -700 220/12 RMK AO2 TSNO
94908KDBQ DBQ20020208000510802/08/02 00:05:31  5-MIN KDBQ 080605Z AUTO 21013KT 6SM BR CLR M02/M04 A2997 1040 85 -700 210/13 RMK AO2 TSNO
94908KDBQ DBQ20020208001010802/08/02 00:10:31  5-MIN KDBQ 080610Z AUTO 21013KT 6SM BR CLR M02/M04 A2996 1040 85 -700 210/13 RMK AO2 TSNO
94908KDBQ DBQ20020208001510802/08/02 00:15:31  5-MIN KDBQ 080615Z AUTO 21013KT 6SM HZ CLR M02/M04 A2996 1040 81 -700 210/13 RMK AO2 TSNO
94908KDBQ DBQ20020208002010802/08/02 00:20:31  5-MIN KDBQ 080620Z AUTO 21012KT 6SM HZ CLR M02/M04 A2996 1040 81 -700 210/12 RMK AO2 TSNO
94908KDBQ DBQ20020208002510802/08/02 00:25:31  5-MIN KDBQ 080625Z AUTO 21012KT 6SM HZ CLR M02/M04 A2996 1040 81 -700 210/12 RMK AO2 TSNO
94908KDBQ DBQ20020208003010802/08/02 00:30:31  5-MIN KDBQ 080630Z AUTO 21011KT 6SM HZ CLR M02/M04 A2996 1040 81 -700 210/11 RMK AO2 TSNO
94908KDBQ DBQ20020208003510802/08/02 00:35:31  5-MIN KDBQ 080635Z AUTO 21011KT 6SM HZ CLR M02/M04 A2997 1040 81 -700 210/11 RMK AO2 TSNO
94908KDBQ DBQ20020208004010802/08/02 00:40:31  5-MIN KDBQ 080640Z AUTO 21010KT 6SM HZ CLR M02/M04 A2997 1040 81 -700 200/10 RMK AO2 TSNO
94908KDBQ DBQ20020208004510802/08/02 00:45:31  5-MIN KDBQ 080645Z AUTO 21010KT 6SM BR CLR M02/M04 A2997 1040 85 -700 210/10 RMK AO2 TSNO
94908KDBQ DBQ20020208005012502/08/02 00:50:31  5-MIN KDBQ 080650Z AUTO 21011KT 6SM BR CLR M02/M04 A2996 1040 85 -700 210/11 RMK AO2 SLP158 T10221044 TSNO
94908KDBQ DBQ20020208005512502/08/02 00:55:31  5-MIN KDBQ 080655Z AUTO 21011KT 6SM BR CLR M02/M04 A2996 1040 85 -700 210/11 RMK AO2 SLP158 T10221044 TSNO
94908KDBQ DBQ20020208010010802/08/02 01:00:31  5-MIN KDBQ 080700Z AUTO 22009KT 6SM BR CLR M02/M04 A2996 1040 85 -700 210/09 RMK AO2 TSNO
94908KDBQ DBQ20020208010510802/08/02 01:05:31  5-MIN KDBQ 080705Z AUTO 21009KT 6SM BR CLR M02/M04 A2996 1040 85 -700 210/09 RMK AO2 TSNO
94908KDBQ DBQ20020208011010802/08/02 01:10:31  5-MIN KDBQ 080710Z AUTO 21010KT 6SM BR CLR M02/M04 A2996 1040 85 -700 210/10 RMK AO2 TSNO
94908KDBQ DBQ20020208011510802/08/02 01:15:31  5-MIN KDBQ 080715Z AUTO 21011KT 6SM BR CLR M02/M04 A2996 1040 85 -700 210/11 RMK AO2 TSNO
94908KDBQ DBQ20020208012010802/08/02 01:20:31  5-MIN KDBQ 080720Z AUTO 21011KT 6SM BR CLR M02/M04 A2996 1040 85 -700 210/11 RMK AO2 TSNO
94908KDBQ DBQ20020208012510802/08/02 01:25:31  5-MIN KDBQ 080725Z AUTO 21011KT 6SM BR CLR M02/M04 A2997 1030 85 -700 210/11 RMK AO2 TSNO
94908KDBQ DBQ20020208013010802/08/02 01:30:31  5-MIN KDBQ 080730Z AUTO 21010KT 6SM BR CLR M03/M04 A2997 1030 88 -800 210/10 RMK AO2 TSNO
94908KDBQ DBQ20020208013510802/08/02 01:35:31  5-MIN KDBQ 080735Z AUTO 21009KT 6SM BR CLR M03/M04 A2997 1030 88 -800 210/09 RMK AO2 TSNO
94908KDBQ DBQ20020208014010802/08/02 01:40:31  5-MIN KDBQ 080740Z AUTO 21008KT 6SM BR CLR M03/M05 A2997 1030 85 -800 210/08 RMK AO2 TSNO
94908KDBQ DBQ20020208014510802/08/02 01:45:31  5-MIN KDBQ 080745Z AUTO 21007KT 6SM BR CLR M03/M05 A2997 1030 85 -800 210/07 RMK AO2 TSNO
94908KDBQ DBQ20020208015012502/08/02 01:50:31  5-MIN KDBQ 080750Z AUTO 20007KT 6SM BR CLR M03/M05 A2997 1030 85 -800 200/07 RMK AO2 SLP161 T10281050 TSNO
94908KDBQ DBQ20020208015512502/08/02 01:55:31  5-MIN KDBQ 080755Z AUTO 20005KT 6SM BR CLR M03/M05 A2997 1030 85 -800 200/05 RMK AO2 SLP161 T10281050 TSNO
94908KDBQ DBQ20020208020010802/08/02 02:00:31  5-MIN KDBQ 080800Z AUTO 20004KT 6SM BR CLR M03/M05 A2997 1030 85 -800 200/04 RMK AO2 TSNO
94908KDBQ DBQ20020208020510802/08/02 02:05:31  5-MIN KDBQ 080805Z AUTO 19005KT 6SM BR CLR M03/M05 A2997 1030 88 -900 190/05 RMK AO2 TSNO
94908KDBQ DBQ20020208021010802/08/02 02:10:31  5-MIN KDBQ 080810Z AUTO 19007KT 6SM BR CLR M04/M06 A2997 1040 88 -900 190/07 RMK AO2 TSNO
94908KDBQ DBQ20020208021510802/08/02 02:15:31  5-MIN KDBQ 080815Z AUTO 19008KT 6SM BR CLR M04/M06 A2997 1040 85 -900 190/08 RMK AO2 TSNO
94908KDBQ DBQ20020208022010802/08/02 02:20:31  5-MIN KDBQ 080820Z AUTO 20009KT 6SM BR CLR M04/M06 A2996 1040 88 -900 200/09 RMK AO2 TSNO
94908KDBQ DBQ20020208022510802/08/02 02:25:31  5-MIN KDBQ 080825Z AUTO 20010KT 5SM BR CLR M04/M06 A2996 1040 88 -900 200/10 RMK AO2 TSNO
94908KDBQ DBQ20020208023010802/08/02 02:30:31  5-MIN KDBQ 080830Z AUTO 20009KT 5SM BR CLR M04/M06 A2996 1040 85 -900 200/09 RMK AO2 TSNO
94908KDBQ DBQ20020208023510802/08/02 02:35:31  5-MIN KDBQ 080835Z AUTO 20009KT 5SM BR CLR M04/M06 A2996 1040 85 -900 200/09 RMK AO2 TSNO
94908KDBQ DBQ20020208024010802/08/02 02:40:31  5-MIN KDBQ 080840Z AUTO 21008KT 5SM BR CLR M04/M06 A2996 1040 85 -900 210/08 RMK AO2 TSNO
94908KDBQ DBQ20020208024510902/08/02 02:45:31  5-MIN KDBQ 080845Z AUTO 21009KT 5SM BR CLR M04/M06 A2996 1050 88 -1000 210/09 RMK AO2 TSNO
94908KDBQ DBQ20020208025013202/08/02 02:50:31  5-MIN KDBQ 080850Z AUTO 21009KT 5SM BR CLR M04/M06 A2995 1050 88 -1000 210/09 RMK AO2 SLP155 T10441061 53001 TSNO
94908KDBQ DBQ20020208025513102/08/02 02:55:31  5-MIN KDBQ 080855Z AUTO 21013KT 5SM BR CLR M04/M06 A2995 1050 85 -900 210/13 RMK AO2 SLP153 T10391061 58007 TSNO
94908KDBQ DBQ20020208030010802/08/02 03:00:31  5-MIN KDBQ 080900Z AUTO 21014KT 5SM BR CLR M04/M06 A2995 1050 88 -900 210/14 RMK AO2 TSNO
94908KDBQ DBQ20020208030510802/08/02 03:05:31  5-MIN KDBQ 080905Z AUTO 22012KT 5SM BR CLR M03/M06 A2995 1050 85 -900 220/12 RMK AO2 TSNO
94908KDBQ DBQ20020208031010802/08/02 03:10:31  5-MIN KDBQ 080910Z AUTO 22011KT 5SM BR CLR M04/M06 A2995 1050 85 -900 220/11 RMK AO2 TSNO
94908KDBQ DBQ20020208031510802/08/02 03:15:31  5-MIN KDBQ 080915Z AUTO 22012KT 5SM BR CLR M04/M06 A2995 1050 85 -900 220/12 RMK AO2 TSNO
94908KDBQ DBQ20020208032010902/08/02 03:20:31  5-MIN KDBQ 080920Z AUTO 22011KT 5SM BR CLR M04/M07 A2995 1050 84 -1000 220/11 RMK AO2 TSNO
94908KDBQ DBQ20020208032510902/08/02 03:25:31  5-MIN KDBQ 080925Z AUTO 22011KT 5SM BR CLR M05/M07 A2995 1050 88 -1100 220/11 RMK AO2 TSNO
94908KDBQ DBQ20020208033010902/08/02 03:30:31  5-MIN KDBQ 080930Z AUTO 22011KT 5SM BR CLR M04/M06 A2995 1050 88 -1000 220/11 RMK AO2 TSNO
94908KDBQ DBQ20020208033510902/08/02 03:35:31  5-MIN KDBQ 080935Z AUTO 21010KT 5SM BR CLR M04/M06 A2995 1050 88 -1000 210/10 RMK AO2 TSNO
94908KDBQ DBQ20020208034010802/08/02 03:40:31  5-MIN KDBQ 080940Z AUTO 22009KT 5SM BR CLR M04/M06 A2995 1050 88 -900 220/09 RMK AO2 TSNO
94908KDBQ DBQ20020208034510902/08/02 03:45:31  5-MIN KDBQ 080945Z AUTO 22011KT 5SM BR CLR M04/M06 A2995 1050 88 -1000 220/11 RMK AO2 TSNO
94908KDBQ DBQ20020208035012602/08/02 03:50:31  5-MIN KDBQ 080950Z AUTO 23011KT 5SM BR CLR M04/M06 A2995 1050 88 -1000 230/11 RMK AO2 SLP156 T10441061 TSNO
94908KDBQ DBQ20020208035512602/08/02 03:55:31  5-MIN KDBQ 080955Z AUTO 23011KT 5SM BR CLR M04/M06 A2995 1050 92 -1000 230/11 RMK AO2 SLP155 T10441056 TSNO
94908KDBQ DBQ20020208040010802/08/02 04:00:31  5-MIN KDBQ 081000Z AUTO 22011KT 5SM BR CLR M04/M06 A2995 1050 88 -900 220/11 RMK AO2 TSNO
94908KDBQ DBQ20020208040510802/08/02 04:05:31  5-MIN KDBQ 081005Z AUTO 23010KT 5SM BR CLR M04/M06 A2996 1040 88 -900 230/10 RMK AO2 TSNO
94908KDBQ DBQ20020208041010802/08/02 04:10:31  5-MIN KDBQ 081010Z AUTO 23009KT 5SM BR CLR M04/M05 A2996 1040 92 -900 230/09 RMK AO2 TSNO
94908KDBQ DBQ20020208041510802/08/02 04:15:31  5-MIN KDBQ 081015Z AUTO 23008KT 5SM BR CLR M04/M05 A2997 1040 92 -900 230/08 RMK AO2 TSNO
94908KDBQ DBQ20020208042010802/08/02 04:20:31  5-MIN KDBQ 081020Z AUTO 22008KT 5SM BR CLR M04/M06 A2996 1040 88 -900 220/08 RMK AO2 TSNO
94908KDBQ DBQ20020208042510902/08/02 04:25:31  5-MIN KDBQ 081025Z AUTO 22007KT 5SM BR CLR M04/M06 A2996 1040 92 -1000 220/07 RMK AO2 TSNO
94908KDBQ DBQ20020208043010802/08/02 04:30:31  5-MIN KDBQ 081030Z AUTO 22007KT 5SM BR CLR M04/M06 A2996 1040 88 -900 220/07 RMK AO2 TSNO
94908KDBQ DBQ20020208043510802/08/02 04:35:31  5-MIN KDBQ 081035Z AUTO 22007KT 5SM BR CLR M04/M05 A2996 1040 92 -900 220/07 RMK AO2 TSNO
94908KDBQ DBQ20020208044010802/08/02 04:40:31  5-MIN KDBQ 081040Z AUTO 21007KT 5SM BR CLR M04/M05 A2996 1040 92 -900 210/07 RMK AO2 TSNO
94908KDBQ DBQ20020208044510802/08/02 04:45:31  5-MIN KDBQ 081045Z AUTO 19005KT 5SM BR CLR M04/M05 A2996 1040 92 -900 190/05 RMK AO2 TSNO
94908KDBQ DBQ20020208045012602/08/02 04:50:31  5-MIN KDBQ 081050Z AUTO 18005KT 4SM BR CLR M04/M06 A2996 1040 92 -1000 180/05 RMK AO2 SLP157 T10441056 TSNO
94908KDBQ DBQ20020208045512602/08/02 04:55:31  5-MIN KDBQ 081055Z AUTO 18004KT 4SM BR CLR M04/M06 A2996 1040 92 -1000 180/04 RMK AO2 SLP159 T10441056 TSNO
94908KDBQ DBQ20020208050010902/08/02 05:00:31  5-MIN KDBQ 081100Z AUTO 21003KT 4SM BR CLR M04/M06 A2997 1040 92 -1000 200/03 RMK AO2 TSNO
94908KDBQ DBQ20020208050510902/08/02 05:05:31  5-MIN KDBQ 081105Z AUTO 19005KT 4SM BR CLR M04/M06 A2997 1040 92 -1000 190/05 RMK AO2 TSNO
94908KDBQ DBQ20020208051010902/08/02 05:10:31  5-MIN KDBQ 081110Z AUTO 19007KT 4SM BR CLR M04/M06 A2997 1040 92 -1000 190/07 RMK AO2 TSNO
94908KDBQ DBQ20020208051510902/08/02 05:15:31  5-MIN KDBQ 081115Z AUTO 20007KT 4SM BR CLR M04/M06 A2997 1040 92 -1000 200/07 RMK AO2 TSNO
94908KDBQ DBQ20020208052010902/08/02 05:20:31  5-MIN KDBQ 081120Z AUTO 21006KT 4SM BR CLR M04/M06 A2997 1030 92 -1000 200/06 RMK AO2 TSNO
94908KDBQ DBQ20020208052510902/08/02 05:25:31  5-MIN KDBQ 081125Z AUTO 20006KT 4SM BR CLR M04/M06 A2997 1030 92 -1000 200/06 RMK AO2 TSNO
94908KDBQ DBQ20020208053010902/08/02 05:30:31  5-MIN KDBQ 081130Z AUTO 20005KT 4SM BR CLR M04/M06 A2997 1030 92 -1000 200/05 RMK AO2 TSNO
94908KDBQ DBQ20020208053510902/08/02 05:35:31  5-MIN KDBQ 081135Z AUTO 20006KT 4SM BR CLR M04/M06 A2997 1030 92 -1000 200/06 RMK AO2 TSNO
94908KDBQ DBQ20020208054010902/08/02 05:40:31  5-MIN KDBQ 081140Z AUTO 20007KT 4SM BR CLR M04/M06 A2997 1030 92 -1000 200/07 RMK AO2 TSNO
94908KDBQ DBQ20020208054510902/08/02 05:45:31  5-MIN KDBQ 081145Z AUTO 19007KT 4SM BR CLR M05/M06 A2997 1030 92 -1100 190/07 RMK AO2 TSNO
94908KDBQ DBQ20020208055013402/08/02 05:50:31  5-MIN KDBQ 081150Z 19006KT 4SM BR CLR M04/M06 A2997 1030 92 -1000 190/06 RMK AO2 SLP164 T10441056 11017 21050 58007
94908KDBQ DBQ20020208055513402/08/02 05:55:31  5-MIN KDBQ 081155Z 19006KT 4SM BR CLR M05/M06 A2997 1030 96 -1100 190/06 RMK AO2 SLP164 T10501056 11017 21050 53008
94908KDBQ DBQ20020208060009902/08/02 06:00:31  5-MIN KDBQ 081200Z 19006KT 4SM BR CLR M05/M06 A2997 1030 92 -1100 190/06 RMK AO2
94908KDBQ DBQ20020208060509902/08/02 06:05:31  5-MIN KDBQ 081205Z 20007KT 4SM BR CLR M05/M06 A2998 1030 92 -1100 200/07 RMK AO2
94908KDBQ DBQ20020208061009902/08/02 06:10:31  5-MIN KDBQ 081210Z 21006KT 4SM BR CLR M04/M06 A2998 1030 92 -1000 200/06 RMK AO2
94908KDBQ DBQ20020208061509902/08/02 06:15:31  5-MIN KDBQ 081215Z 20006KT 4SM BR CLR M06/M07 A2998 1030 92 -1200 200/06 RMK AO2
94908KDBQ DBQ20020208062009902/08/02 06:20:31  5-MIN KDBQ 081220Z 20006KT 4SM BR CLR M06/M06 A2998 1020 96 -1200 200/06 RMK AO2
94908KDBQ DBQ20020208062509902/08/02 06:25:31  5-MIN KDBQ 081225Z 21006KT 4SM BR CLR M05/M06 A2998 1020 92 -1100 210/06 RMK AO2
94908KDBQ DBQ20020208063009902/08/02 06:30:31  5-MIN KDBQ 081230Z 20007KT 4SM BR CLR M05/M06 A2998 1020 92 -1100 200/07 RMK AO2
94908KDBQ DBQ20020208063509902/08/02 06:35:31  5-MIN KDBQ 081235Z 20005KT 4SM BR CLR M05/M06 A2998 1020 92 -1100 200/05 RMK AO2
94908KDBQ DBQ20020208064009902/08/02 06:40:31  5-MIN KDBQ 081240Z 20006KT 4SM BR CLR M05/M06 A2998 1020 92 -1100 200/06 RMK AO2
94908KDBQ DBQ20020208064509902/08/02 06:45:31  5-MIN KDBQ 081245Z 20006KT 4SM BR CLR M06/M06 A2998 1020 96 -1200 200/06 RMK AO2
94908KDBQ DBQ20020208065011602/08/02 06:50:31  5-MIN KDBQ 081250Z 21006KT 4SM BR CLR M06/M06 A2998 1020 96 -1200 210/06 RMK AO2 SLP167 T10561061
94908KDBQ DBQ20020208065511602/08/02 06:55:31  5-MIN KDBQ 081255Z 21007KT 3SM BR CLR M06/M07 A2998 1020 92 -1200 210/07 RMK AO2 SLP168 T10561067
94908KDBQ DBQ20020208070009902/08/02 07:00:31  5-MIN KDBQ 081300Z 20006KT 3SM BR CLR M06/M06 A2998 1020 96 -1200 200/06 RMK AO2
94908KDBQ DBQ20020208070510302/08/02 07:05:31  5-MIN KDBQ 081305Z 20005KT 2 1/2SM BR CLR M06/M06 A2998 1020 96 -1200 200/05 RMK AO2
94908KDBQ DBQ20020208071010302/08/02 07:10:31  5-MIN KDBQ 081310Z 20005KT 2 1/2SM BR CLR M06/M06 A2999 1020 96 -1200 200/05 RMK AO2
94908KDBQ DBQ20020208071510302/08/02 07:15:31  5-MIN KDBQ 081315Z 20005KT 2 1/2SM BR CLR M05/M06 A2999 1020 92 -1100 200/05 RMK AO2
94908KDBQ DBQ20020208072010302/08/02 07:20:31  5-MIN KDBQ 081320Z 20005KT 2 1/2SM BR CLR M05/M06 A2999 1020 92 -1100 200/05 RMK AO2
94908KDBQ DBQ20020208072510302/08/02 07:25:31  5-MIN KDBQ 081325Z 20006KT 2 1/2SM BR CLR M05/M06 A2999 1020 92 -1100 200/06 RMK AO2
94908KDBQ DBQ20020208073010302/08/02 07:30:31  5-MIN KDBQ 081330Z 20006KT 2 1/2SM BR CLR M05/M06 A2999 1020 96 -1100 200/06 RMK AO2
94908KDBQ DBQ20020208073510302/08/02 07:35:31  5-MIN KDBQ 081335Z 20005KT 2 1/2SM BR CLR M05/M06 A2999 1010 92 -1100 190/05 RMK AO2
94908KDBQ DBQ20020208074010302/08/02 07:40:31  5-MIN KDBQ 081340Z 19005KT 2 1/2SM BR CLR M06/M06 A2999 1010 96 -1200 190/05 RMK AO2
94908KDBQ DBQ20020208074510302/08/02 07:45:31  5-MIN KDBQ 081345Z 20007KT 2 1/2SM BR CLR M05/M06 A2999 1010 92 -1100 200/07 RMK AO2
94908KDBQ DBQ20020208075012002/08/02 07:50:31  5-MIN KDBQ 081350Z 20006KT 2 1/2SM BR CLR M05/M06 A3000 1010 92 -1100 200/06 RMK AO2 SLP172 T10501061
94908KDBQ DBQ20020208075512002/08/02 07:55:31  5-MIN KDBQ 081355Z 20006KT 2 1/2SM BR CLR M06/M06 A2999 1010 96 -1200 200/06 RMK AO2 SLP171 T10561061
94908KDBQ DBQ20020208080010302/08/02 08:00:31  5-MIN KDBQ 081400Z 20007KT 2 1/2SM BR CLR M06/M06 A3000 1010 96 -1200 200/07 RMK AO2
94908KDBQ DBQ20020208080510302/08/02 08:05:31  5-MIN KDBQ 081405Z 20006KT 2 1/2SM BR CLR M05/M06 A3000 1000 92 -1100 200/06 RMK AO2
94908KDBQ DBQ20020208081010302/08/02 08:10:31  5-MIN KDBQ 081410Z 20005KT 2 1/2SM BR CLR M05/M06 A3000 1000 96 -1100 200/05 RMK AO2
94908KDBQ DBQ20020208081510302/08/02 08:15:31  5-MIN KDBQ 081415Z 20005KT 2 1/2SM BR CLR M04/M05 A3000 1000 96 -1100 200/05 RMK AO2
94908KDBQ DBQ20020208082010302/08/02 08:20:31  5-MIN KDBQ 081420Z 20005KT 2 1/2SM BR CLR M04/M06 A3001 1000 92 -1100 200/05 RMK AO2
94908KDBQ DBQ20020208082510302/08/02 08:25:31  5-MIN KDBQ 081425Z 20003KT 2 1/2SM BR CLR M05/M06 A3001 1000 92 -1100 200/03 RMK AO2
94908KDBQ DBQ20020208083010302/08/02 08:30:31  5-MIN KDBQ 081430Z 20004KT 2 1/2SM BR CLR M04/M06 A3001 1000 92 -1100 200/04 RMK AO2
94908KDBQ DBQ20020208083510302/08/02 08:35:31  5-MIN KDBQ 081435Z 20005KT 2 1/2SM BR CLR M04/M06 A3001 1000 92 -1100 200/05 RMK AO2
94908KDBQ DBQ20020208084010302/08/02 08:40:31  5-MIN KDBQ 081440Z 20005KT 2 1/2SM BR CLR M04/M06 A3001 1000 92 -1100 200/05 RMK AO2
94908KDBQ DBQ20020208084510302/08/02 08:45:31  5-MIN KDBQ 081445Z 21005KT 2 1/2SM BR CLR M04/M05 A3001 1000 96 -1100 210/05 RMK AO2
94908KDBQ DBQ20020208085012202/08/02 08:50:31  5-MIN KDBQ 081450Z 21005KT 3SM BR CLR M04/M05 A3001 1000 92 -1000 210/05 RMK AO2 SLP175 T10391050 53008
94908KDBQ DBQ20020208085512102/08/02 08:55:31  5-MIN KDBQ 081455Z 21006KT 3SM BR CLR M03/M04 A3001 1000 92 -900 210/06 RMK AO2 SLP174 T10331044 53010
94908KDBQ DBQ20020208090009802/08/02 09:00:31  5-MIN KDBQ 081500Z 21006KT 3SM BR CLR M03/M04 A3001 1000 92 -900 210/06 RMK AO2
94908KDBQ DBQ20020208090509802/08/02 09:05:31  5-MIN KDBQ 081505Z 21006KT 3SM BR CLR M03/M04 A3001 1000 92 -800 210/06 RMK AO2
94908KDBQ DBQ20020208091009802/08/02 09:10:31  5-MIN KDBQ 081510Z 21007KT 3SM BR CLR M02/M04 A3001 1000 88 -800 210/07 RMK AO2
94908KDBQ DBQ20020208091509702/08/02 09:15:31  5-MIN KDBQ 081515Z 21007KT 4SM BR CLR M02/M04 A3001 990 88 -800 210/07 RMK AO2
94908KDBQ DBQ20020208092009802/08/02 09:20:31  5-MIN KDBQ 081520Z 21007KT 4SM BR CLR M02/M04 A3001 1000 85 -700 210/07 RMK AO2
94908KDBQ DBQ20020208092509802/08/02 09:25:31  5-MIN KDBQ 081525Z 21007KT 4SM BR CLR M02/M03 A3001 1000 88 -700 210/07 RMK AO2
94908KDBQ DBQ20020208093009702/08/02 09:30:31  5-MIN KDBQ 081530Z 21008KT 4SM BR CLR M01/M03 A3001 990 85 -600 210/08 RMK AO2
94908KDBQ DBQ20020208093509702/08/02 09:35:31  5-MIN KDBQ 081535Z 21007KT 4SM BR CLR M01/M03 A3001 990 85 -600 210/07 RMK AO2
94908KDBQ DBQ20020208094009702/08/02 09:40:31  5-MIN KDBQ 081540Z 20006KT 4SM BR CLR M01/M03 A3001 990 85 -600 200/06 RMK AO2
94908KDBQ DBQ20020208094509702/08/02 09:45:31  5-MIN KDBQ 081545Z 20007KT 4SM BR CLR M01/M03 A3001 990 85 -600 200/07 RMK AO2
94908KDBQ DBQ20020208095011402/08/02 09:50:31  5-MIN KDBQ 081550Z 20006KT 4SM BR CLR M01/M03 A3001 990 85 -600 200/06 RMK AO2 SLP176 T10061028
94908KDBQ DBQ20020208095511402/08/02 09:55:31  5-MIN KDBQ 081555Z 21007KT 4SM BR CLR M01/M03 A3001 990 85 -600 210/07 RMK AO2 SLP176 T10061028
94908KDBQ DBQ20020208100009702/08/02 10:00:31  5-MIN KDBQ 081600Z 21007KT 4SM BR CLR M01/M03 A3002 990 85 -600 210/07 RMK AO2
94908KDBQ DBQ20020208100509602/08/02 10:05:31  5-MIN KDBQ 081605Z 22007KT 4SM HZ CLR 00/M03 A3001 990 81 -500 220/07 RMK AO2
94908KDBQ DBQ20020208101009602/08/02 10:10:31  5-MIN KDBQ 081610Z 21007KT 5SM HZ CLR 00/M03 A3001 990 81 -500 210/07 RMK AO2
94908KDBQ DBQ20020208101509602/08/02 10:15:31  5-MIN KDBQ 081615Z 20007KT 5SM BR CLR 00/M02 A3001 990 85 -500 200/07 RMK AO2
94908KDBQ DBQ20020208102009602/08/02 10:20:31  5-MIN KDBQ 081620Z 20006KT 5SM HZ CLR 01/M02 A3001 990 82 -400 200/06 RMK AO2
94908KDBQ DBQ20020208102509602/08/02 10:25:31  5-MIN KDBQ 081625Z 21007KT 5SM HZ CLR 01/M02 A3001 990 82 -400 210/07 RMK AO2
94908KDBQ DBQ20020208103009602/08/02 10:30:31  5-MIN KDBQ 081630Z 21009KT 5SM HZ CLR 01/M02 A3001 990 78 -400 210/09 RMK AO2
94908KDBQ DBQ20020208103509602/08/02 10:35:31  5-MIN KDBQ 081635Z 21008KT 5SM HZ CLR 01/M02 A3002 990 78 -400 210/08 RMK AO2
94908KDBQ DBQ20020208104009602/08/02 10:40:31  5-MIN KDBQ 081640Z 21009KT 5SM HZ CLR 01/M02 A3002 990 78 -400 210/09 RMK AO2
94908KDBQ DBQ20020208104509602/08/02 10:45:31  5-MIN KDBQ 081645Z 22007KT 5SM HZ CLR 02/M02 A3002 990 75 -300 220/07 RMK AO2
94908KDBQ DBQ20020208105011302/08/02 10:50:31  5-MIN KDBQ 081650Z 21005KT 5SM HZ CLR 02/M02 A3002 990 75 -300 210/05 RMK AO2 SLP177 T00171022
94908KDBQ DBQ20020208105511302/08/02 10:55:31  5-MIN KDBQ 081655Z 22005KT 5SM HZ CLR 02/M02 A3002 990 75 -300 220/05 RMK AO2 SLP177 T00171022
94908KDBQ DBQ20020208110009602/08/02 11:00:31  5-MIN KDBQ 081700Z 21003KT 5SM HZ CLR 02/M02 A3002 990 75 -300 210/03 RMK AO2
94908KDBQ DBQ20020208110509602/08/02 11:05:31  5-MIN KDBQ 081705Z 22003KT 6SM HZ CLR 02/M02 A3002 990 72 -200 220/03 RMK AO2
94908KDBQ DBQ20020208111009602/08/02 11:10:31  5-MIN KDBQ 081710Z 22004KT 6SM HZ CLR 02/M02 A3002 990 72 -200 220/04 RMK AO2
94908KDBQ DBQ20020208111509602/08/02 11:15:31  5-MIN KDBQ 081715Z 22003KT 6SM HZ CLR 02/M02 A3001 990 72 -200 220/03 RMK AO2
94908KDBQ DBQ20020208112009602/08/02 11:20:31  5-MIN KDBQ 081720Z 00000KT 6SM HZ CLR 02/M02 A3001 990 75 -200 000/00 RMK AO2
94908KDBQ DBQ20020208112509602/08/02 11:25:31  5-MIN KDBQ 081725Z 00000KT 6SM HZ CLR 03/M02 A3001 990 72 -200 000/00 RMK AO2
94908KDBQ DBQ20020208113009602/08/02 11:30:31  5-MIN KDBQ 081730Z 00000KT 6SM HZ CLR 03/M02 A3001 990 72 -200 000/00 RMK AO2
94908KDBQ DBQ20020208113509602/08/02 11:35:31  5-MIN KDBQ 081735Z 20003KT 5SM HZ CLR 03/M01 A3002 990 75 -200 200/03 RMK AO2
94908KDBQ DBQ20020208114009602/08/02 11:40:31  5-MIN KDBQ 081740Z 19003KT 5SM HZ CLR 03/M01 A3002 990 75 -200 190/03 RMK AO2
94908KDBQ DBQ20020208114509602/08/02 11:45:31  5-MIN KDBQ 081745Z 20003KT 5SM HZ CLR 03/M01 A3001 990 75 -200 190/03 RMK AO2
94908KDBQ DBQ20020208115013102/08/02 11:50:31  5-MIN KDBQ 081750Z 18004KT 5SM HZ CLR 03/M01 A3001 990 75 -200 180/04 RMK AO2 SLP175 T00281011 10028 21056 53010
94908KDBQ DBQ20020208115513102/08/02 11:55:31  5-MIN KDBQ 081755Z 18005KT 5SM HZ CLR 03/M01 A3001 990 75 -200 180/05 RMK AO2 SLP175 T00281011 10028 21056 50002
94908KDBQ DBQ20020208120009702/08/02 12:00:31  5-MIN KDBQ 081800Z 19005KT 6SM HZ CLR 03/M01 A3001 1000 72 -100 190/05 RMK AO2
94908KDBQ DBQ20020208120509702/08/02 12:05:31  5-MIN KDBQ 081805Z 18005KT 6SM HZ CLR 03/M01 A3001 1000 72 -100 180/05 RMK AO2
94908KDBQ DBQ20020208121009702/08/02 12:10:31  5-MIN KDBQ 081810Z 18004KT 6SM HZ CLR 03/M01 A3000 1000 72 -100 180/04 RMK AO2
94908KDBQ DBQ20020208121509702/08/02 12:15:31  5-MIN KDBQ 081815Z 19005KT 6SM HZ CLR 03/M01 A3000 1000 72 -100 190/05 RMK AO2
94908KDBQ DBQ20020208122009402/08/02 12:20:31  5-MIN KDBQ 081820Z 19005KT 6SM HZ CLR 04/M01 A3000 1000 70 0 190/05 RMK AO2
94908KDBQ DBQ20020208122509402/08/02 12:25:31  5-MIN KDBQ 081825Z 19004KT 6SM HZ CLR 04/M01 A3000 1000 70 0 190/04 RMK AO2
94908KDBQ DBQ20020208123009402/08/02 12:30:31  5-MIN KDBQ 081830Z 19004KT 6SM HZ CLR 04/M01 A3000 1000 70 0 190/04 RMK AO2
94908KDBQ DBQ20020208123509402/08/02 12:35:31  5-MIN KDBQ 081835Z 19006KT 6SM HZ CLR 04/M01 A3000 1010 67 0 180/06 RMK AO2
94908KDBQ DBQ20020208124009402/08/02 12:40:31  5-MIN KDBQ 081840Z 20005KT 6SM HZ CLR 04/M01 A3000 1010 70 0 190/05 RMK AO2
94908KDBQ DBQ20020208124509402/08/02 12:45:31  5-MIN KDBQ 081845Z 20006KT 6SM HZ CLR 04/M01 A3000 1010 67 0 190/06 RMK AO2
94908KDBQ DBQ20020208125011002/08/02 12:50:31  5-MIN KDBQ 081850Z 18006KT 7SM CLR 05/M01 A2999 1010 64 100 180/06 RMK AO2 SLP167 T00501011
94908KDBQ DBQ20020208125511002/08/02 12:55:31  5-MIN KDBQ 081855Z 18006KT 7SM CLR 05/M01 A2999 1010 64 100 180/06 RMK AO2 SLP166 T00501011
94908KDBQ DBQ20020208130009302/08/02 13:00:31  5-MIN KDBQ 081900Z 18005KT 7SM CLR 05/M01 A2999 1020 67 100 180/05 RMK AO2
94908KDBQ DBQ20020208130509602/08/02 13:05:31  5-MIN KDBQ 081905Z 19005KT 6SM HZ CLR 05/M01 A2998 1020 67 100 180/05 RMK AO2
94908KDBQ DBQ20020208131009602/08/02 13:10:31  5-MIN KDBQ 081910Z 15005KT 6SM HZ CLR 05/M01 A2998 1020 67 100 150/05 RMK AO2
94908KDBQ DBQ20020208131509502/08/02 13:15:31  5-MIN KDBQ 081915Z 14006KT 6SM HZ CLR 05/00 A2998 1020 70 100 140/06 RMK AO2
94908KDBQ DBQ20020208132009502/08/02 13:20:31  5-MIN KDBQ 081920Z 14006KT 6SM HZ CLR 05/00 A2998 1020 70 100 140/06 RMK AO2
94908KDBQ DBQ20020208132509502/08/02 13:25:31  5-MIN KDBQ 081925Z 15005KT 5SM HZ CLR 05/00 A2998 1020 70 100 150/05 RMK AO2
94908KDBQ DBQ20020208133009502/08/02 13:30:31  5-MIN KDBQ 081930Z 14006KT 5SM HZ CLR 05/00 A2998 1020 70 100 140/06 RMK AO2
94908KDBQ DBQ20020208133509502/08/02 13:35:31  5-MIN KDBQ 081935Z 14006KT 6SM HZ CLR 05/00 A2998 1020 70 100 140/06 RMK AO2
94908KDBQ DBQ20020208134009502/08/02 13:40:31  5-MIN KDBQ 081940Z 13007KT 5SM HZ CLR 05/00 A2998 1030 70 100 130/07 RMK AO2
94908KDBQ DBQ20020208134509502/08/02 13:45:31  5-MIN KDBQ 081945Z 14007KT 5SM HZ CLR 05/00 A2998 1030 70 100 140/07 RMK AO2
94908KDBQ DBQ20020208135011202/08/02 13:50:31  5-MIN KDBQ 081950Z 14007KT 5SM HZ CLR 05/00 A2997 1030 70 100 140/07 RMK AO2 SLP161 T00500000
94908KDBQ DBQ20020208135511202/08/02 13:55:31  5-MIN KDBQ 081955Z 15008KT 5SM HZ CLR 05/00 A2997 1030 70 100 150/08 RMK AO2 SLP160 T00500000
94908KDBQ DBQ20020208140009502/08/02 14:00:31  5-MIN KDBQ 082000Z 15008KT 5SM HZ CLR 05/00 A2997 1030 70 100 140/08 RMK AO2
94908KDBQ DBQ20020208140509502/08/02 14:05:31  5-MIN KDBQ 082005Z 15007KT 5SM HZ CLR 05/00 A2997 1040 70 100 150/07 RMK AO2
94908KDBQ DBQ20020208141009502/08/02 14:10:31  5-MIN KDBQ 082010Z 15008KT 5SM HZ CLR 05/00 A2996 1040 70 100 150/08 RMK AO2
94908KDBQ DBQ20020208141509502/08/02 14:15:31  5-MIN KDBQ 082015Z 15007KT 5SM HZ CLR 05/00 A2996 1040 70 100 150/07 RMK AO2
94908KDBQ DBQ20020208142009602/08/02 14:20:31  5-MIN KDBQ 082020Z 15007KT 5SM HZ CLR 05/M01 A2996 1040 67 100 150/07 RMK AO2
94908KDBQ DBQ20020208142509602/08/02 14:25:31  5-MIN KDBQ 082025Z 16007KT 5SM HZ CLR 05/M01 A2996 1040 67 100 160/07 RMK AO2
94908KDBQ DBQ20020208143009502/08/02 14:30:31  5-MIN KDBQ 082030Z 16006KT 5SM HZ CLR 05/00 A2996 1040 70 100 160/06 RMK AO2
94908KDBQ DBQ20020208143509602/08/02 14:35:31  5-MIN KDBQ 082035Z 16007KT 5SM HZ CLR 05/M01 A2996 1040 67 100 160/07 RMK AO2
94908KDBQ DBQ20020208144009602/08/02 14:40:31  5-MIN KDBQ 082040Z 16007KT 6SM HZ CLR 05/M01 A2997 1040 67 100 150/07 RMK AO2
94908KDBQ DBQ20020208144509602/08/02 14:45:31  5-MIN KDBQ 082045Z 16007KT 6SM HZ CLR 05/M01 A2996 1040 64 100 150/07 RMK AO2
94908KDBQ DBQ20020208145011902/08/02 14:50:31  5-MIN KDBQ 082050Z 15006KT 6SM HZ CLR 05/M01 A2996 1040 67 100 150/06 RMK AO2 SLP157 T00501006 50002
94908KDBQ DBQ20020208145511902/08/02 14:55:31  5-MIN KDBQ 082055Z 16008KT 6SM HZ CLR 05/M01 A2996 1040 67 100 160/08 RMK AO2 SLP158 T00501006 56016
94908KDBQ DBQ20020208150009602/08/02 15:00:31  5-MIN KDBQ 082100Z 16008KT 6SM HZ CLR 05/M01 A2996 1040 64 100 160/08 RMK AO2
94908KDBQ DBQ20020208150509602/08/02 15:05:31  5-MIN KDBQ 082105Z 17009KT 6SM HZ CLR 05/M01 A2996 1040 64 100 170/09 RMK AO2
94908KDBQ DBQ20020208151009402/08/02 15:10:31  5-MIN KDBQ 082110Z 17008KT 6SM HZ CLR 04/M01 A2997 1040 67 0 170/08 RMK AO2
94908KDBQ DBQ20020208151509602/08/02 15:15:31  5-MIN KDBQ 082115Z 17008KT 6SM HZ CLR 04/M01 A2996 1040 70 100 170/08 RMK AO2
94908KDBQ DBQ20020208152009402/08/02 15:20:31  5-MIN KDBQ 082120Z 17007KT 5SM HZ CLR 04/M01 A2997 1040 73 0 170/07 RMK AO2
94908KDBQ DBQ20020208152509402/08/02 15:25:31  5-MIN KDBQ 082125Z 17008KT 5SM HZ CLR 04/M01 A2996 1040 73 0 170/08 RMK AO2
94908KDBQ DBQ20020208153009402/08/02 15:30:31  5-MIN KDBQ 082130Z 17007KT 5SM HZ CLR 03/M01 A2997 1040 76 0 170/07 RMK AO2
94908KDBQ DBQ20020208153509402/08/02 15:35:31  5-MIN KDBQ 082135Z 17008KT 5SM HZ CLR 03/M01 A2996 1040 76 0 170/08 RMK AO2
94908KDBQ DBQ20020208154009402/08/02 15:40:31  5-MIN KDBQ 082140Z 17007KT 5SM HZ CLR 03/M01 A2997 1040 76 0 170/07 RMK AO2
94908KDBQ DBQ20020208154509702/08/02 15:45:31  5-MIN KDBQ 082145Z 17007KT 5SM HZ CLR 03/M01 A2997 1040 79 -100 170/07 RMK AO2
94908KDBQ DBQ20020208155011402/08/02 15:50:31  5-MIN KDBQ 082150Z 17008KT 5SM HZ CLR 03/M01 A2997 1040 75 -100 170/08 RMK AO2 SLP160 T00281011
94908KDBQ DBQ20020208155511402/08/02 15:55:31  5-MIN KDBQ 082155Z 17008KT 5SM HZ CLR 03/M01 A2997 1040 75 -100 160/08 RMK AO2 SLP160 T00281011
94908KDBQ DBQ20020208160009702/08/02 16:00:31  5-MIN KDBQ 082200Z 16008KT 5SM HZ CLR 03/M01 A2997 1040 75 -100 160/08 RMK AO2
94908KDBQ DBQ20020208160509702/08/02 16:05:31  5-MIN KDBQ 082205Z 17009KT 5SM HZ CLR 03/M01 A2997 1030 75 -100 160/09 RMK AO2
94908KDBQ DBQ20020208161009702/08/02 16:10:31  5-MIN KDBQ 082210Z 17008KT 5SM HZ CLR 03/M01 A2997 1030 79 -100 170/08 RMK AO2
94908KDBQ DBQ20020208161509702/08/02 16:15:31  5-MIN KDBQ 082215Z 17009KT 5SM HZ CLR 03/M01 A2997 1030 79 -100 170/09 RMK AO2
94908KDBQ DBQ20020208162009702/08/02 16:20:31  5-MIN KDBQ 082220Z 17008KT 5SM HZ CLR 03/M01 A2997 1040 79 -100 170/08 RMK AO2
94908KDBQ DBQ20020208162509702/08/02 16:25:31  5-MIN KDBQ 082225Z 17007KT 5SM HZ CLR 03/M01 A2997 1040 79 -100 160/07 RMK AO2
94908KDBQ DBQ20020208163009702/08/02 16:30:31  5-MIN KDBQ 082230Z 17008KT 5SM HZ CLR 03/M01 A2997 1040 79 -100 170/08 RMK AO2
94908KDBQ DBQ20020208163509702/08/02 16:35:31  5-MIN KDBQ 082235Z 16007KT 5SM HZ CLR 03/M01 A2997 1030 79 -100 160/07 RMK AO2
94908KDBQ DBQ20020208164009702/08/02 16:40:31  5-MIN KDBQ 082240Z 16007KT 4SM HZ CLR 03/M01 A2997 1030 79 -100 160/07 RMK AO2
94908KDBQ DBQ20020208164509702/08/02 16:45:31  5-MIN KDBQ 082245Z 16007KT 4SM HZ CLR 03/M01 A2997 1030 79 -100 160/07 RMK AO2
94908KDBQ DBQ20020208165011402/08/02 16:50:31  5-MIN KDBQ 082250Z 16007KT 4SM HZ CLR 02/M01 A2997 1030 78 -200 160/07 RMK AO2 SLP161 T00221011
94908KDBQ DBQ20020208165511402/08/02 16:55:31  5-MIN KDBQ 082255Z 16007KT 4SM HZ CLR 02/M01 A2997 1030 78 -200 160/07 RMK AO2 SLP161 T00221011
94908KDBQ DBQ20020208170009702/08/02 17:00:31  5-MIN KDBQ 082300Z 16007KT 4SM HZ CLR 02/M01 A2997 1030 78 -200 160/07 RMK AO2
94908KDBQ DBQ20020208170509702/08/02 17:05:31  5-MIN KDBQ 082305Z 17006KT 4SM HZ CLR 02/M01 A2997 1030 82 -300 170/06 RMK AO2
94908KDBQ DBQ20020208171009702/08/02 17:10:31  5-MIN KDBQ 082310Z 17006KT 4SM HZ CLR 02/M01 A2997 1030 82 -300 170/06 RMK AO2
94908KDBQ DBQ20020208171509702/08/02 17:15:31  5-MIN KDBQ 082315Z 16006KT 4SM HZ CLR 02/M01 A2997 1030 82 -300 160/06 RMK AO2
94908KDBQ DBQ20020208172009702/08/02 17:20:31  5-MIN KDBQ 082320Z 15005KT 4SM HZ CLR 02/M01 A2997 1030 82 -300 150/05 RMK AO2
94908KDBQ DBQ20020208172509702/08/02 17:25:31  5-MIN KDBQ 082325Z 16004KT 4SM BR CLR 01/M01 A2998 1030 85 -300 160/04 RMK AO2
94908KDBQ DBQ20020208173009702/08/02 17:30:31  5-MIN KDBQ 082330Z 16005KT 4SM BR CLR 01/M01 A2998 1030 85 -300 160/05 RMK AO2
94908KDBQ DBQ20020208173509702/08/02 17:35:31  5-MIN KDBQ 082335Z 16007KT 4SM HZ CLR 01/M02 A2998 1030 82 -300 160/07 RMK AO2
94908KDBQ DBQ20020208174009702/08/02 17:40:31  5-MIN KDBQ 082340Z 16007KT 4SM BR CLR 01/M01 A2998 1020 85 -300 150/07 RMK AO2
94908KDBQ DBQ20020208174509702/08/02 17:45:31  5-MIN KDBQ 082345Z 15007KT 5SM BR CLR 01/M01 A2998 1020 85 -300 150/07 RMK AO2
94908KDBQ DBQ20020208175013202/08/02 17:50:31  5-MIN KDBQ 082350Z 14007KT 5SM BR CLR 01/M01 A2998 1020 85 -300 140/07 RMK AO2 SLP167 T00111011 10050 20011 56016
94908KDBQ DBQ20020208175513202/08/02 17:55:31  5-MIN KDBQ 082355Z 14006KT 5SM BR CLR 01/M01 A2998 1020 85 -300 140/06 RMK AO2 SLP167 T00111011 10050 20011 53007
94908KDBQ DBQ20020208180009702/08/02 18:00:31  5-MIN KDBQ 090000Z 15005KT 5SM BR CLR 01/M01 A2999 1020 85 -300 150/05 RMK AO2
94908KDBQ DBQ20020208180509702/08/02 18:05:31  5-MIN KDBQ 090005Z 15006KT 5SM HZ CLR 02/M01 A2999 1020 82 -300 150/06 RMK AO2
94908KDBQ DBQ20020208181009702/08/02 18:10:31  5-MIN KDBQ 090010Z 16006KT 5SM HZ CLR 02/M01 A2999 1010 82 -300 160/06 RMK AO2
94908KDBQ DBQ20020208181509702/08/02 18:15:31  5-MIN KDBQ 090015Z 16005KT 5SM BR CLR 01/M01 A2999 1010 85 -300 160/05 RMK AO2
94908KDBQ DBQ20020208182009702/08/02 18:20:31  5-MIN KDBQ 090020Z 15007KT 5SM BR CLR 01/M01 A2999 1010 85 -300 150/07 RMK AO2
94908KDBQ DBQ20020208182509702/08/02 18:25:31  5-MIN KDBQ 090025Z 15006KT 5SM BR CLR 01/M01 A2999 1010 85 -300 150/06 RMK AO2
94908KDBQ DBQ20020208183009702/08/02 18:30:31  5-MIN KDBQ 090030Z 14005KT 5SM BR CLR 01/M01 A2999 1020 85 -300 140/05 RMK AO2
94908KDBQ DBQ20020208183509702/08/02 18:35:31  5-MIN KDBQ 090035Z 14006KT 5SM BR CLR 01/M01 A2999 1020 85 -300 140/06 RMK AO2
94908KDBQ DBQ20020208184009702/08/02 18:40:31  5-MIN KDBQ 090040Z 14008KT 5SM BR CLR 01/M01 A2999 1020 85 -300 140/08 RMK AO2
94908KDBQ DBQ20020208184509702/08/02 18:45:31  5-MIN KDBQ 090045Z 14007KT 5SM BR CLR 01/M01 A2999 1010 85 -300 140/07 RMK AO2
94908KDBQ DBQ20020208185011402/08/02 18:50:31  5-MIN KDBQ 090050Z 14008KT 5SM BR CLR 01/M01 A2999 1010 85 -300 140/08 RMK AO2 SLP169 T00111011
94908KDBQ DBQ20020208185511402/08/02 18:55:31  5-MIN KDBQ 090055Z 14008KT 5SM BR CLR 01/M01 A2999 1020 85 -300 140/08 RMK AO2 SLP169 T00111011
94908KDBQ DBQ20020208190009702/08/02 19:00:31  5-MIN KDBQ 090100Z 14007KT 5SM BR CLR 01/M01 A2999 1010 85 -300 140/07 RMK AO2
94908KDBQ DBQ20020208190509702/08/02 19:05:31  5-MIN KDBQ 090105Z 14008KT 5SM BR CLR 01/M01 A2999 1020 85 -300 140/08 RMK AO2
94908KDBQ DBQ20020208191009702/08/02 19:10:31  5-MIN KDBQ 090110Z 13008KT 5SM BR CLR 01/M01 A2998 1020 85 -300 130/08 RMK AO2
94908KDBQ DBQ20020208191509702/08/02 19:15:31  5-MIN KDBQ 090115Z 13008KT 5SM BR CLR 01/M01 A2998 1020 89 -400 130/08 RMK AO2
94908KDBQ DBQ20020208192009702/08/02 19:20:31  5-MIN KDBQ 090120Z 13009KT 5SM BR CLR 01/M01 A2998 1020 89 -400 130/09 RMK AO2
94908KDBQ DBQ20020208192509702/08/02 19:25:31  5-MIN KDBQ 090125Z 14010KT 4SM BR CLR 01/M01 A2998 1020 89 -400 140/10 RMK AO2
94908KDBQ DBQ20020208193009702/08/02 19:30:31  5-MIN KDBQ 090130Z 13008KT 4SM BR CLR 01/M01 A2998 1020 89 -400 130/08 RMK AO2
94908KDBQ DBQ20020208193509702/08/02 19:35:31  5-MIN KDBQ 090135Z 14008KT 4SM BR CLR 01/M01 A2998 1020 89 -400 140/08 RMK AO2
94908KDBQ DBQ20020208194009702/08/02 19:40:31  5-MIN KDBQ 090140Z 14008KT 4SM BR CLR 01/M01 A2998 1020 89 -400 130/08 RMK AO2
94908KDBQ DBQ20020208194509702/08/02 19:45:31  5-MIN KDBQ 090145Z 13008KT 4SM BR CLR 01/M01 A2998 1030 89 -400 130/08 RMK AO2
94908KDBQ DBQ20020208195011402/08/02 19:50:31  5-MIN KDBQ 090150Z 13008KT 4SM BR CLR 01/M01 A2998 1030 89 -400 130/08 RMK AO2 SLP165 T00061011
94908KDBQ DBQ20020208195511402/08/02 19:55:31  5-MIN KDBQ 090155Z 13007KT 4SM BR CLR 01/M01 A2998 1030 89 -400 130/07 RMK AO2 SLP164 T00061011
94908KDBQ DBQ20020208200010702/08/02 20:00:31  5-MIN KDBQ 090200Z AUTO 14008KT 4SM BR CLR 01/M01 A2998 1030 89 -400 140/08 RMK AO2 TSNO
94908KDBQ DBQ20020208200510702/08/02 20:05:31  5-MIN KDBQ 090205Z AUTO 14007KT 4SM BR CLR 01/M01 A2997 1030 89 -400 140/07 RMK AO2 TSNO
94908KDBQ DBQ20020208201010702/08/02 20:10:31  5-MIN KDBQ 090210Z AUTO 14008KT 4SM BR CLR 01/M01 A2998 1030 89 -400 140/08 RMK AO2 TSNO
94908KDBQ DBQ20020208201510702/08/02 20:15:31  5-MIN KDBQ 090215Z AUTO 13006KT 4SM BR CLR 01/M01 A2998 1030 89 -400 130/06 RMK AO2 TSNO
94908KDBQ DBQ20020208202010702/08/02 20:20:31  5-MIN KDBQ 090220Z AUTO 13007KT 4SM BR CLR 01/M01 A2998 1030 89 -400 130/07 RMK AO2 TSNO
94908KDBQ DBQ20020208202510702/08/02 20:25:31  5-MIN KDBQ 090225Z AUTO 14007KT 4SM BR CLR 01/M01 A2998 1030 89 -400 140/07 RMK AO2 TSNO
94908KDBQ DBQ20020208203010702/08/02 20:30:31  5-MIN KDBQ 090230Z AUTO 14006KT 4SM BR CLR 01/M01 A2998 1020 89 -400 140/06 RMK AO2 TSNO
94908KDBQ DBQ20020208203510702/08/02 20:35:31  5-MIN KDBQ 090235Z AUTO 14007KT 4SM BR CLR 01/M01 A2998 1020 89 -400 140/07 RMK AO2 TSNO
94908KDBQ DBQ20020208204010702/08/02 20:40:31  5-MIN KDBQ 090240Z AUTO 15006KT 4SM BR CLR 01/M01 A2998 1030 89 -400 150/06 RMK AO2 TSNO
94908KDBQ DBQ20020208204510702/08/02 20:45:31  5-MIN KDBQ 090245Z AUTO 14007KT 4SM BR CLR 01/M01 A2998 1030 89 -400 140/07 RMK AO2 TSNO
94908KDBQ DBQ20020208205013002/08/02 20:50:31  5-MIN KDBQ 090250Z AUTO 14007KT 4SM BR CLR 01/M01 A2997 1030 89 -400 140/07 RMK AO2 SLP164 T00061011 53007 TSNO
94908KDBQ DBQ20020208205513002/08/02 20:55:31  5-MIN KDBQ 090255Z AUTO 14008KT 4SM BR CLR 01/M01 A2997 1030 89 -400 140/08 RMK AO2 SLP162 T00061011 58004 TSNO
94908KDBQ DBQ20020208210010702/08/02 21:00:31  5-MIN KDBQ 090300Z AUTO 14009KT 4SM BR CLR 01/M01 A2997 1030 89 -400 140/09 RMK AO2 TSNO
94908KDBQ DBQ20020208210510702/08/02 21:05:31  5-MIN KDBQ 090305Z AUTO 14009KT 4SM BR CLR 01/M01 A2997 1030 89 -400 130/09 RMK AO2 TSNO
94908KDBQ DBQ20020208211010702/08/02 21:10:31  5-MIN KDBQ 090310Z AUTO 14009KT 4SM BR CLR 00/M01 A2997 1030 92 -500 140/09 RMK AO2 TSNO
94908KDBQ DBQ20020208211510702/08/02 21:15:31  5-MIN KDBQ 090315Z AUTO 14008KT 4SM BR CLR 00/M01 A2997 1030 92 -500 140/08 RMK AO2 TSNO
94908KDBQ DBQ20020208212010702/08/02 21:20:31  5-MIN KDBQ 090320Z AUTO 13006KT 4SM BR CLR 00/M01 A2997 1030 92 -500 130/06 RMK AO2 TSNO
94908KDBQ DBQ20020208212510702/08/02 21:25:31  5-MIN KDBQ 090325Z AUTO 15006KT 4SM BR CLR 00/M02 A2997 1030 88 -500 150/06 RMK AO2 TSNO
94908KDBQ DBQ20020208213010702/08/02 21:30:31  5-MIN KDBQ 090330Z AUTO 16007KT 4SM BR CLR 01/M01 A2997 1030 89 -400 160/07 RMK AO2 TSNO
94908KDBQ DBQ20020208213510702/08/02 21:35:31  5-MIN KDBQ 090335Z AUTO 15006KT 4SM BR CLR 01/M01 A2997 1030 89 -400 150/06 RMK AO2 TSNO
94908KDBQ DBQ20020208214010702/08/02 21:40:31  5-MIN KDBQ 090340Z AUTO 14007KT 4SM BR CLR 01/M01 A2997 1030 89 -400 140/07 RMK AO2 TSNO
94908KDBQ DBQ20020208214510702/08/02 21:45:31  5-MIN KDBQ 090345Z AUTO 14006KT 4SM BR CLR 01/M01 A2997 1030 89 -400 140/06 RMK AO2 TSNO
94908KDBQ DBQ20020208215012402/08/02 21:50:31  5-MIN KDBQ 090350Z AUTO 14007KT 4SM BR CLR 01/M01 A2997 1030 89 -400 140/07 RMK AO2 SLP161 T00061011 TSNO
94908KDBQ DBQ20020208215512402/08/02 21:55:31  5-MIN KDBQ 090355Z AUTO 14008KT 4SM BR CLR 01/M01 A2997 1030 89 -400 140/08 RMK AO2 SLP161 T00061011 TSNO
94908KDBQ DBQ20020208220010702/08/02 22:00:31  5-MIN KDBQ 090400Z AUTO 14010KT 4SM BR CLR 01/M01 A2997 1030 89 -400 140/10 RMK AO2 TSNO
94908KDBQ DBQ20020208220510702/08/02 22:05:31  5-MIN KDBQ 090405Z AUTO 14011KT 4SM BR CLR 01/M01 A2997 1030 89 -400 140/11 RMK AO2 TSNO
94908KDBQ DBQ20020208221010702/08/02 22:10:31  5-MIN KDBQ 090410Z AUTO 14010KT 4SM BR CLR 01/M01 A2997 1030 89 -400 140/10 RMK AO2 TSNO
94908KDBQ DBQ20020208221510702/08/02 22:15:31  5-MIN KDBQ 090415Z AUTO 14010KT 4SM BR CLR 01/M01 A2997 1030 85 -300 140/10 RMK AO2 TSNO
94908KDBQ DBQ20020208222010702/08/02 22:20:31  5-MIN KDBQ 090420Z AUTO 13011KT 4SM BR CLR 01/M01 A2997 1030 85 -300 130/11 RMK AO2 TSNO
94908KDBQ DBQ20020208222510702/08/02 22:25:31  5-MIN KDBQ 090425Z AUTO 13009KT 4SM BR CLR 01/M01 A2997 1030 85 -300 130/09 RMK AO2 TSNO
94908KDBQ DBQ20020208223010702/08/02 22:30:31  5-MIN KDBQ 090430Z AUTO 13010KT 4SM BR CLR 01/M01 A2997 1030 85 -300 130/10 RMK AO2 TSNO
94908KDBQ DBQ20020208223510702/08/02 22:35:31  5-MIN KDBQ 090435Z AUTO 13009KT 4SM BR CLR 01/M01 A2997 1030 85 -300 130/09 RMK AO2 TSNO
94908KDBQ DBQ20020208224010702/08/02 22:40:31  5-MIN KDBQ 090440Z AUTO 13011KT 4SM BR CLR 01/M01 A2997 1030 85 -300 130/11 RMK AO2 TSNO
94908KDBQ DBQ20020208224510702/08/02 22:45:31  5-MIN KDBQ 090445Z AUTO 13011KT 4SM BR CLR 01/M01 A2996 1040 85 -300 130/11 RMK AO2 TSNO
94908KDBQ DBQ20020208225012402/08/02 22:50:31  5-MIN KDBQ 090450Z AUTO 13012KT 4SM BR CLR 01/M01 A2996 1040 85 -300 120/12 RMK AO2 SLP157 T00111011 TSNO
94908KDBQ DBQ20020208225512402/08/02 22:55:31  5-MIN KDBQ 090455Z AUTO 13013KT 4SM BR CLR 01/M01 A2996 1040 85 -300 120/13 RMK AO2 SLP156 T00111011 TSNO
94908KDBQ DBQ20020208230010702/08/02 23:00:31  5-MIN KDBQ 090500Z AUTO 12012KT 4SM BR CLR 01/M01 A2996 1040 85 -300 120/12 RMK AO2 TSNO
94908KDBQ DBQ20020208230510702/08/02 23:05:31  5-MIN KDBQ 090505Z AUTO 13014KT 4SM BR CLR 01/M01 A2996 1040 85 -300 120/14 RMK AO2 TSNO
94908KDBQ DBQ20020208231010702/08/02 23:10:31  5-MIN KDBQ 090510Z AUTO 12014KT 4SM BR CLR 01/M01 A2996 1040 85 -300 120/14 RMK AO2 TSNO
94908KDBQ DBQ20020208231510702/08/02 23:15:31  5-MIN KDBQ 090515Z AUTO 12014KT 5SM HZ CLR 02/M01 A2996 1050 82 -200 120/14 RMK AO2 TSNO
94908KDBQ DBQ20020208232010702/08/02 23:20:31  5-MIN KDBQ 090520Z AUTO 12014KT 5SM BR CLR 01/M01 A2996 1040 85 -300 120/14 RMK AO2 TSNO
94908KDBQ DBQ20020208232510702/08/02 23:25:31  5-MIN KDBQ 090525Z AUTO 12014KT 5SM BR CLR 01/M01 A2996 1050 85 -300 120/14 RMK AO2 TSNO
94908KDBQ DBQ20020208233010702/08/02 23:30:31  5-MIN KDBQ 090530Z AUTO 13014KT 5SM HZ CLR 02/M01 A2996 1040 82 -200 120/14 RMK AO2 TSNO
94908KDBQ DBQ20020208233510702/08/02 23:35:31  5-MIN KDBQ 090535Z AUTO 13014KT 4SM BR CLR 01/M01 A2996 1040 85 -300 130/14 RMK AO2 TSNO
94908KDBQ DBQ20020208234010702/08/02 23:40:31  5-MIN KDBQ 090540Z AUTO 13015KT 4SM BR CLR 01/M01 A2996 1040 85 -300 130/15 RMK AO2 TSNO
94908KDBQ DBQ20020208234510702/08/02 23:45:31  5-MIN KDBQ 090545Z AUTO 13014KT 4SM BR CLR 01/M01 A2996 1050 85 -300 130/14 RMK AO2 TSNO
94908KDBQ DBQ20020208235015202/08/02 23:50:31  5-MIN KDBQ 090550Z AUTO 13015KT 4SM BR CLR 01/M01 A2995 1050 85 -300 130/15 RMK AO2 SLP153 T00111011 10017 20000 400501056 58004 TSNO
94908KDBQ DBQ20020208235515202/08/02 23:55:31  5-MIN KDBQ 090555Z AUTO 13015KT 4SM BR CLR 01/M01 A2995 1050 85 -300 130/15 RMK AO2 SLP153 T00111011 10017 20000 400501056 58006 TSNO
94908KDBQ DBQ20020209000010702/09/02 00:00:31  5-MIN KDBQ 090600Z AUTO 13015KT 4SM BR CLR 01/M01 A2995 1050 85 -300 130/15 RMK AO2 TSNO
94908KDBQ DBQ20020209000510702/09/02 00:05:31  5-MIN KDBQ 090605Z AUTO 13014KT 4SM BR CLR 01/M01 A2995 1050 85 -300 130/14 RMK AO2 TSNO
94908KDBQ DBQ20020209001010702/09/02 00:10:31  5-MIN KDBQ 090610Z AUTO 13012KT 4SM BR CLR 01/M01 A2996 1050 85 -300 130/12 RMK AO2 TSNO
94908KDBQ DBQ20020209001510702/09/02 00:15:31  5-MIN KDBQ 090615Z AUTO 13014KT 4SM BR CLR 01/M01 A2995 1050 85 -300 130/14 RMK AO2 TSNO
94908KDBQ DBQ20020209002010702/09/02 00:20:31  5-MIN KDBQ 090620Z AUTO 13014KT 4SM BR CLR 01/M01 A2996 1040 89 -300 130/14 RMK AO2 TSNO
94908KDBQ DBQ20020209002510702/09/02 00:25:31  5-MIN KDBQ 090625Z AUTO 13013KT 4SM BR CLR 01/M01 A2996 1040 89 -300 130/13 RMK AO2 TSNO
94908KDBQ DBQ20020209003010702/09/02 00:30:31  5-MIN KDBQ 090630Z AUTO 13013KT 4SM BR CLR 01/M01 A2996 1040 85 -300 130/13 RMK AO2 TSNO
94908KDBQ DBQ20020209003510702/09/02 00:35:31  5-MIN KDBQ 090635Z AUTO 14012KT 4SM BR CLR 01/M01 A2996 1040 85 -300 140/12 RMK AO2 TSNO
94908KDBQ DBQ20020209004010702/09/02 00:40:31  5-MIN KDBQ 090640Z AUTO 13013KT 4SM BR CLR 01/M01 A2996 1050 89 -300 130/13 RMK AO2 TSNO
94908KDBQ DBQ20020209004510702/09/02 00:45:31  5-MIN KDBQ 090645Z AUTO 13013KT 4SM BR CLR 01/M01 A2995 1050 89 -300 130/13 RMK AO2 TSNO
94908KDBQ DBQ20020209005012402/09/02 00:50:31  5-MIN KDBQ 090650Z AUTO 13013KT 4SM BR CLR 01/M01 A2995 1050 89 -300 130/13 RMK AO2 SLP151 T00111006 TSNO
94908KDBQ DBQ20020209005512402/09/02 00:55:31  5-MIN KDBQ 090655Z AUTO 13013KT 4SM BR CLR 02/M01 A2995 1050 85 -200 130/13 RMK AO2 SLP151 T00171006 TSNO
94908KDBQ DBQ20020209010010702/09/02 01:00:31  5-MIN KDBQ 090700Z AUTO 13013KT 4SM BR CLR 01/M01 A2995 1050 89 -300 130/13 RMK AO2 TSNO
94908KDBQ DBQ20020209010510702/09/02 01:05:31  5-MIN KDBQ 090705Z AUTO 13011KT 4SM BR CLR 01/M01 A2995 1050 89 -300 130/11 RMK AO2 TSNO
94908KDBQ DBQ20020209011010702/09/02 01:10:31  5-MIN KDBQ 090710Z AUTO 14012KT 4SM BR CLR 01/M01 A2995 1050 89 -300 130/12 RMK AO2 TSNO
94908KDBQ DBQ20020209011510702/09/02 01:15:31  5-MIN KDBQ 090715Z AUTO 14012KT 4SM BR CLR 01/M01 A2995 1050 89 -300 140/12 RMK AO2 TSNO
94908KDBQ DBQ20020209012010702/09/02 01:20:31  5-MIN KDBQ 090720Z AUTO 14013KT 4SM BR CLR 01/M01 A2995 1050 89 -300 130/13 RMK AO2 TSNO
94908KDBQ DBQ20020209012510702/09/02 01:25:31  5-MIN KDBQ 090725Z AUTO 13013KT 4SM BR CLR 01/M01 A2995 1050 89 -300 130/13 RMK AO2 TSNO
94908KDBQ DBQ20020209013010702/09/02 01:30:31  5-MIN KDBQ 090730Z AUTO 13012KT 4SM BR CLR 01/M01 A2994 1060 89 -300 130/12 RMK AO2 TSNO
94908KDBQ DBQ20020209013510702/09/02 01:35:31  5-MIN KDBQ 090735Z AUTO 13013KT 4SM BR CLR 01/M01 A2994 1060 89 -300 130/13 RMK AO2 TSNO
94908KDBQ DBQ20020209014010702/09/02 01:40:31  5-MIN KDBQ 090740Z AUTO 13012KT 4SM BR CLR 01/M01 A2994 1060 89 -300 130/12 RMK AO2 TSNO
94908KDBQ DBQ20020209014510702/09/02 01:45:31  5-MIN KDBQ 090745Z AUTO 13012KT 4SM BR CLR 01/M01 A2994 1060 89 -300 130/12 RMK AO2 TSNO
94908KDBQ DBQ20020209015012402/09/02 01:50:31  5-MIN KDBQ 090750Z AUTO 13013KT 4SM BR CLR 01/M01 A2994 1060 89 -300 130/13 RMK AO2 SLP148 T00111006 TSNO
94908KDBQ DBQ20020209015512402/09/02 01:55:31  5-MIN KDBQ 090755Z AUTO 13013KT 4SM BR CLR 01/M01 A2994 1060 89 -300 130/13 RMK AO2 SLP149 T00111006 TSNO
94908KDBQ DBQ20020209020010702/09/02 02:00:31  5-MIN KDBQ 090800Z AUTO 13013KT 4SM BR CLR 01/M01 A2994 1060 89 -300 130/13 RMK AO2 TSNO
94908KDBQ DBQ20020209020510702/09/02 02:05:31  5-MIN KDBQ 090805Z AUTO 14012KT 4SM BR CLR 01/M01 A2994 1060 89 -300 130/12 RMK AO2 TSNO
94908KDBQ DBQ20020209021010702/09/02 02:10:31  5-MIN KDBQ 090810Z AUTO 14012KT 4SM BR CLR 01/M01 A2994 1060 89 -300 140/12 RMK AO2 TSNO
94908KDBQ DBQ20020209021510702/09/02 02:15:31  5-MIN KDBQ 090815Z AUTO 14013KT 4SM BR CLR 01/M01 A2994 1060 89 -300 140/13 RMK AO2 TSNO
94908KDBQ DBQ20020209022010702/09/02 02:20:31  5-MIN KDBQ 090820Z AUTO 13014KT 4SM BR CLR 01/M01 A2994 1060 89 -300 130/14 RMK AO2 TSNO
94908KDBQ DBQ20020209022510702/09/02 02:25:31  5-MIN KDBQ 090825Z AUTO 13014KT 4SM BR CLR 01/M01 A2994 1060 89 -300 130/14 RMK AO2 TSNO
94908KDBQ DBQ20020209023010702/09/02 02:30:31  5-MIN KDBQ 090830Z AUTO 14015KT 4SM BR CLR 01/M01 A2993 1070 89 -300 130/15 RMK AO2 TSNO
94908KDBQ DBQ20020209023510702/09/02 02:35:31  5-MIN KDBQ 090835Z AUTO 14014KT 4SM BR CLR 01/M01 A2993 1070 85 -300 140/14 RMK AO2 TSNO
94908KDBQ DBQ20020209024010702/09/02 02:40:31  5-MIN KDBQ 090840Z AUTO 14014KT 4SM BR CLR 01/M01 A2993 1070 85 -300 140/14 RMK AO2 TSNO
94908KDBQ DBQ20020209024510702/09/02 02:45:31  5-MIN KDBQ 090845Z AUTO 14014KT 4SM BR CLR 01/M01 A2993 1070 89 -300 140/14 RMK AO2 TSNO
94908KDBQ DBQ20020209025013002/09/02 02:50:31  5-MIN KDBQ 090850Z AUTO 14014KT 4SM BR CLR 01/M01 A2993 1070 85 -300 130/14 RMK AO2 SLP143 T00111011 58006 TSNO
94908KDBQ DBQ20020209025513002/09/02 02:55:31  5-MIN KDBQ 090855Z AUTO 13015KT 4SM BR CLR 01/M01 A2992 1080 89 -300 130/15 RMK AO2 SLP142 T00061011 58010 TSNO
94908KDBQ DBQ20020209030010702/09/02 03:00:31  5-MIN KDBQ 090900Z AUTO 13016KT 4SM BR CLR 01/M01 A2991 1080 89 -300 130/16 RMK AO2 TSNO
94908KDBQ DBQ20020209030510702/09/02 03:05:31  5-MIN KDBQ 090905Z AUTO 13015KT 4SM BR CLR 01/M01 A2991 1090 89 -300 130/15 RMK AO2 TSNO
94908KDBQ DBQ20020209031010702/09/02 03:10:31  5-MIN KDBQ 090910Z AUTO 13014KT 5SM BR CLR 02/M01 A2991 1090 85 -200 130/14 RMK AO2 TSNO
94908KDBQ DBQ20020209031510702/09/02 03:15:31  5-MIN KDBQ 090915Z AUTO 13013KT 5SM BR CLR 02/M01 A2991 1090 85 -200 130/13 RMK AO2 TSNO
94908KDBQ DBQ20020209032010702/09/02 03:20:31  5-MIN KDBQ 090920Z AUTO 13012KT 5SM BR CLR 01/M01 A2991 1090 89 -200 130/12 RMK AO2 TSNO
94908KDBQ DBQ20020209032510702/09/02 03:25:31  5-MIN KDBQ 090925Z AUTO 14012KT 5SM BR CLR 01/M01 A2991 1090 89 -200 140/12 RMK AO2 TSNO
94908KDBQ DBQ20020209033010702/09/02 03:30:31  5-MIN KDBQ 090930Z AUTO 14012KT 4SM BR CLR 01/M01 A2991 1090 89 -200 140/12 RMK AO2 TSNO
94908KDBQ DBQ20020209033510702/09/02 03:35:31  5-MIN KDBQ 090935Z AUTO 13013KT 4SM BR CLR 01/M01 A2991 1090 89 -200 130/13 RMK AO2 TSNO
94908KDBQ DBQ20020209034010702/09/02 03:40:31  5-MIN KDBQ 090940Z AUTO 13013KT 4SM BR CLR 01/M01 A2991 1090 89 -200 130/13 RMK AO2 TSNO
94908KDBQ DBQ20020209034510702/09/02 03:45:31  5-MIN KDBQ 090945Z AUTO 13013KT 4SM BR CLR 01/M01 A2990 1090 85 -200 130/13 RMK AO2 TSNO
94908KDBQ DBQ20020209035012402/09/02 03:50:31  5-MIN KDBQ 090950Z AUTO 13013KT 4SM BR CLR 01/M01 A2990 1100 89 -200 130/13 RMK AO2 SLP135 T00111006 TSNO
94908KDBQ DBQ20020209035512402/09/02 03:55:31  5-MIN KDBQ 090955Z AUTO 13013KT 4SM BR CLR 01/M01 A2990 1100 89 -200 130/13 RMK AO2 SLP134 T00111006 TSNO
94908KDBQ DBQ20020209040010702/09/02 04:00:31  5-MIN KDBQ 091000Z AUTO 13014KT 5SM BR CLR 01/M01 A2990 1100 89 -200 130/14 RMK AO2 TSNO
94908KDBQ DBQ20020209040510702/09/02 04:05:31  5-MIN KDBQ 091005Z AUTO 14013KT 5SM BR CLR 01/M01 A2990 1100 89 -200 140/13 RMK AO2 TSNO
94908KDBQ DBQ20020209041010702/09/02 04:10:31  5-MIN KDBQ 091010Z AUTO 14013KT 5SM BR CLR 01/M01 A2990 1100 89 -200 140/13 RMK AO2 TSNO
94908KDBQ DBQ20020209041510702/09/02 04:15:31  5-MIN KDBQ 091015Z AUTO 14013KT 5SM BR CLR 01/M01 A2990 1100 89 -200 140/13 RMK AO2 TSNO
94908KDBQ DBQ20020209042010702/09/02 04:20:31  5-MIN KDBQ 091020Z AUTO 14013KT 5SM BR CLR 01/M01 A2990 1100 89 -200 140/13 RMK AO2 TSNO
94908KDBQ DBQ20020209042510702/09/02 04:25:31  5-MIN KDBQ 091025Z AUTO 14014KT 5SM BR CLR 01/M01 A2990 1100 89 -200 140/14 RMK AO2 TSNO
94908KDBQ DBQ20020209043010702/09/02 04:30:31  5-MIN KDBQ 091030Z AUTO 14014KT 5SM BR CLR 01/M01 A2990 1100 89 -200 140/14 RMK AO2 TSNO
94908KDBQ DBQ20020209043510702/09/02 04:35:31  5-MIN KDBQ 091035Z AUTO 14014KT 5SM BR CLR 01/M01 A2990 1100 89 -200 140/14 RMK AO2 TSNO
94908KDBQ DBQ20020209044010702/09/02 04:40:31  5-MIN KDBQ 091040Z AUTO 14013KT 5SM BR CLR 01/M01 A2990 1100 89 -200 140/13 RMK AO2 TSNO
94908KDBQ DBQ20020209044510702/09/02 04:45:31  5-MIN KDBQ 091045Z AUTO 13014KT 5SM BR CLR 01/M01 A2989 1100 89 -200 130/14 RMK AO2 TSNO
94908KDBQ DBQ20020209045012402/09/02 04:50:31  5-MIN KDBQ 091050Z AUTO 14014KT 5SM BR CLR 01/M01 A2989 1100 89 -200 140/14 RMK AO2 SLP133 T00111006 TSNO
94908KDBQ DBQ20020209045512402/09/02 04:55:31  5-MIN KDBQ 091055Z AUTO 13015KT 5SM BR CLR 01/M01 A2989 1110 89 -200 130/15 RMK AO2 SLP132 T00111006 TSNO
94908KDBQ DBQ20020209050010702/09/02 05:00:31  5-MIN KDBQ 091100Z AUTO 14014KT 5SM BR CLR 01/M01 A2989 1110 89 -200 130/14 RMK AO2 TSNO
94908KDBQ DBQ20020209050510702/09/02 05:05:31  5-MIN KDBQ 091105Z AUTO 14014KT 5SM BR CLR 01/M01 A2989 1110 89 -200 130/14 RMK AO2 TSNO
94908KDBQ DBQ20020209051010702/09/02 05:10:31  5-MIN KDBQ 091110Z AUTO 14014KT 5SM BR CLR 01/M01 A2989 1110 89 -200 140/14 RMK AO2 TSNO
94908KDBQ DBQ20020209051510702/09/02 05:15:31  5-MIN KDBQ 091115Z AUTO 14013KT 5SM BR CLR 01/M01 A2989 1100 89 -200 140/13 RMK AO2 TSNO
94908KDBQ DBQ20020209052010702/09/02 05:20:31  5-MIN KDBQ 091120Z AUTO 14013KT 5SM BR CLR 01/M01 A2990 1100 89 -200 140/13 RMK AO2 TSNO
94908KDBQ DBQ20020209052510702/09/02 05:25:31  5-MIN KDBQ 091125Z AUTO 14013KT 5SM BR CLR 01/M01 A2990 1100 85 -200 140/13 RMK AO2 TSNO
94908KDBQ DBQ20020209053010702/09/02 05:30:31  5-MIN KDBQ 091130Z AUTO 14013KT 5SM BR CLR 01/M01 A2990 1100 85 -200 140/13 RMK AO2 TSNO
94908KDBQ DBQ20020209053510702/09/02 05:35:31  5-MIN KDBQ 091135Z AUTO 14013KT 5SM BR CLR 01/M01 A2990 1100 85 -200 140/13 RMK AO2 TSNO
94908KDBQ DBQ20020209054010702/09/02 05:40:31  5-MIN KDBQ 091140Z AUTO 14013KT 5SM BR CLR 01/M01 A2990 1100 89 -200 140/13 RMK AO2 TSNO
94908KDBQ DBQ20020209054510702/09/02 05:45:31  5-MIN KDBQ 091145Z AUTO 14012KT 5SM BR CLR 01/M01 A2990 1100 85 -200 140/12 RMK AO2 TSNO
94908KDBQ DBQ20020209055014202/09/02 05:50:31  5-MIN KDBQ 091150Z AUTO 14010KT 6SM BR CLR 01/M01 A2990 1100 85 -200 140/10 RMK AO2 SLP136 T00111011 10017 20006 58010 TSNO
94908KDBQ DBQ20020209055513202/09/02 05:55:31  5-MIN KDBQ 091155Z 14011KT 6SM BR CLR 01/M01 A2990 1100 85 -200 140/11 RMK AO2 SLP135 T00111011 10017 20006 55007
94908KDBQ DBQ20020209060009702/09/02 06:00:31  5-MIN KDBQ 091200Z 14011KT 6SM BR CLR 01/M01 A2990 1100 85 -200 140/11 RMK AO2
94908KDBQ DBQ20020209060509702/09/02 06:05:31  5-MIN KDBQ 091205Z 15012KT 6SM BR CLR 01/M01 A2990 1100 85 -200 140/12 RMK AO2
94908KDBQ DBQ20020209061009702/09/02 06:10:31  5-MIN KDBQ 091210Z 14012KT 6SM BR CLR 01/M01 A2990 1100 85 -200 140/12 RMK AO2
94908KDBQ DBQ20020209061509702/09/02 06:15:31  5-MIN KDBQ 091215Z 14012KT 6SM BR CLR 01/M01 A2990 1100 85 -200 140/12 RMK AO2
94908KDBQ DBQ20020209062009702/09/02 06:20:31  5-MIN KDBQ 091220Z 14011KT 6SM BR CLR 01/M01 A2990 1100 85 -200 140/11 RMK AO2
94908KDBQ DBQ20020209062509702/09/02 06:25:31  5-MIN KDBQ 091225Z 14011KT 6SM BR CLR 01/M01 A2990 1100 85 -200 140/11 RMK AO2
94908KDBQ DBQ20020209063009702/09/02 06:30:31  5-MIN KDBQ 091230Z 14010KT 6SM BR CLR 01/M01 A2990 1090 85 -200 140/10 RMK AO2
94908KDBQ DBQ20020209063509702/09/02 06:35:31  5-MIN KDBQ 091235Z 15011KT 6SM BR CLR 01/M01 A2991 1090 85 -200 150/11 RMK AO2
94908KDBQ DBQ20020209064009702/09/02 06:40:31  5-MIN KDBQ 091240Z 15011KT 6SM BR CLR 01/M01 A2991 1090 85 -200 140/11 RMK AO2
94908KDBQ DBQ20020209064509702/09/02 06:45:31  5-MIN KDBQ 091245Z 15011KT 6SM BR CLR 01/M01 A2991 1090 85 -200 140/11 RMK AO2
94908KDBQ DBQ20020209065011402/09/02 06:50:31  5-MIN KDBQ 091250Z 15009KT 6SM BR CLR 01/M01 A2991 1090 85 -200 150/09 RMK AO2 SLP139 T00111011
94908KDBQ DBQ20020209065511402/09/02 06:55:31  5-MIN KDBQ 091255Z 15011KT 6SM BR CLR 01/M01 A2991 1090 85 -200 150/11 RMK AO2 SLP139 T00111011
94908KDBQ DBQ20020209070009702/09/02 07:00:31  5-MIN KDBQ 091300Z 15011KT 6SM BR CLR 01/M01 A2991 1090 85 -300 150/11 RMK AO2
94908KDBQ DBQ20020209070509702/09/02 07:05:31  5-MIN KDBQ 091305Z 15010KT 6SM BR CLR 01/M01 A2991 1080 85 -300 150/10 RMK AO2
94908KDBQ DBQ20020209071009702/09/02 07:10:31  5-MIN KDBQ 091310Z 15011KT 6SM BR CLR 01/M01 A2991 1080 85 -300 150/11 RMK AO2
94908KDBQ DBQ20020209071509702/09/02 07:15:31  5-MIN KDBQ 091315Z 15012KT 6SM BR CLR 01/M01 A2991 1090 85 -300 150/12 RMK AO2
94908KDBQ DBQ20020209072009702/09/02 07:20:31  5-MIN KDBQ 091320Z 15010KT 6SM BR CLR 01/M01 A2992 1080 85 -300 150/10 RMK AO2
94908KDBQ DBQ20020209072509402/09/02 07:25:31  5-MIN KDBQ 091325Z 15010KT 7SM CLR 01/M01 A2992 1080 85 -300 150/10 RMK AO2
94908KDBQ DBQ20020209073009402/09/02 07:30:31  5-MIN KDBQ 091330Z 15011KT 7SM CLR 01/M01 A2992 1080 85 -300 140/11 RMK AO2
94908KDBQ DBQ20020209073509402/09/02 07:35:31  5-MIN KDBQ 091335Z 14011KT 7SM CLR 01/M01 A2992 1080 85 -300 140/11 RMK AO2
94908KDBQ DBQ20020209074009402/09/02 07:40:31  5-MIN KDBQ 091340Z 14014KT 7SM CLR 01/M01 A2992 1080 85 -300 140/14 RMK AO2
94908KDBQ DBQ20020209074509402/09/02 07:45:31  5-MIN KDBQ 091345Z 14014KT 7SM CLR 01/M01 A2992 1080 85 -300 140/14 RMK AO2
94908KDBQ DBQ20020209075011102/09/02 07:50:31  5-MIN KDBQ 091350Z 14013KT 7SM CLR 02/M01 A2992 1080 82 -200 140/13 RMK AO2 SLP142 T00171011
94908KDBQ DBQ20020209075511102/09/02 07:55:31  5-MIN KDBQ 091355Z 14014KT 7SM CLR 02/M01 A2992 1080 82 -200 140/14 RMK AO2 SLP141 T00171011
94908KDBQ DBQ20020209080010002/09/02 08:00:31  5-MIN KDBQ 091400Z 14016G21KT 7SM CLR 02/M01 A2992 1080 82 -200 140/16G21 RMK AO2
94908KDBQ DBQ20020209080510002/09/02 08:05:31  5-MIN KDBQ 091405Z 14016G21KT 7SM CLR 01/M01 A2992 1080 85 -300 140/16G21 RMK AO2
94908KDBQ DBQ20020209081009402/09/02 08:10:31  5-MIN KDBQ 091410Z 14016KT 7SM CLR 01/M01 A2992 1080 85 -300 140/16 RMK AO2
94908KDBQ DBQ20020209081509402/09/02 08:15:31  5-MIN KDBQ 091415Z 14016KT 7SM CLR 01/M01 A2992 1080 85 -300 140/16 RMK AO2
94908KDBQ DBQ20020209082009402/09/02 08:20:31  5-MIN KDBQ 091420Z 14015KT 7SM CLR 02/M01 A2992 1080 82 -200 140/15 RMK AO2
94908KDBQ DBQ20020209082509402/09/02 08:25:31  5-MIN KDBQ 091425Z 14015KT 8SM CLR 02/M01 A2992 1080 82 -200 140/15 RMK AO2
94908KDBQ DBQ20020209083009402/09/02 08:30:31  5-MIN KDBQ 091430Z 14012KT 8SM CLR 02/M01 A2992 1080 82 -200 140/12 RMK AO2
94908KDBQ DBQ20020209083509402/09/02 08:35:31  5-MIN KDBQ 091435Z 14015KT 8SM CLR 02/M01 A2991 1080 82 -200 140/15 RMK AO2
94908KDBQ DBQ20020209084009402/09/02 08:40:31  5-MIN KDBQ 091440Z 14016KT 8SM CLR 02/M01 A2991 1090 82 -200 140/16 RMK AO2
94908KDBQ DBQ20020209084509402/09/02 08:45:31  5-MIN KDBQ 091445Z 14016KT 8SM CLR 02/M01 A2992 1080 82 -200 140/16 RMK AO2
94908KDBQ DBQ20020209085011702/09/02 08:50:31  5-MIN KDBQ 091450Z 14016KT 8SM CLR 02/M01 A2991 1090 78 -100 140/16 RMK AO2 SLP140 T00221011 55007
94908KDBQ DBQ20020209085511702/09/02 08:55:31  5-MIN KDBQ 091455Z 14015KT 9SM CLR 02/M01 A2991 1090 78 -100 140/15 RMK AO2 SLP140 T00221011 50004
94908KDBQ DBQ20020209090009402/09/02 09:00:31  5-MIN KDBQ 091500Z 14014KT 8SM CLR 02/M01 A2991 1080 78 -100 140/14 RMK AO2
94908KDBQ DBQ20020209090509402/09/02 09:05:31  5-MIN KDBQ 091505Z 14015KT 9SM CLR 02/M01 A2991 1090 78 -100 140/15 RMK AO2
94908KDBQ DBQ20020209091009402/09/02 09:10:31  5-MIN KDBQ 091510Z 14016KT 9SM CLR 02/M01 A2991 1090 78 -100 140/16 RMK AO2
94908KDBQ DBQ20020209091509402/09/02 09:15:31  5-MIN KDBQ 091515Z 14014KT 9SM CLR 02/M01 A2991 1090 78 -100 140/14 RMK AO2
94908KDBQ DBQ20020209092009402/09/02 09:20:31  5-MIN KDBQ 091520Z 14014KT 9SM CLR 02/M01 A2991 1090 78 -100 140/14 RMK AO2
94908KDBQ DBQ20020209092509402/09/02 09:25:31  5-MIN KDBQ 091525Z 14015KT 9SM CLR 02/M01 A2991 1090 78 -100 140/15 RMK AO2
94908KDBQ DBQ20020209093009402/09/02 09:30:31  5-MIN KDBQ 091530Z 14016KT 9SM CLR 02/M01 A2991 1090 78 -100 140/16 RMK AO2
94908KDBQ DBQ20020209093509702/09/02 09:35:31  5-MIN KDBQ 091535Z 14017G21KT 9SM CLR 03/M01 A2991 1090 75 0 140/17G21 RMK AO2
94908KDBQ DBQ20020209094009702/09/02 09:40:31  5-MIN KDBQ 091540Z 14014G21KT 9SM CLR 03/M01 A2991 1090 79 0 140/14G21 RMK AO2
94908KDBQ DBQ20020209094509202/09/02 09:45:31  5-MIN KDBQ 091545Z 14015KT 10SM CLR 03/M01 A2991 1090 79 0 140/15 RMK AO2
94908KDBQ DBQ20020209095010902/09/02 09:50:31  5-MIN KDBQ 091550Z 15017KT 10SM CLR 03/M01 A2991 1080 76 0 140/17 RMK AO2 SLP140 T00331006
94908KDBQ DBQ20020209095510902/09/02 09:55:31  5-MIN KDBQ 091555Z 14016KT 10SM CLR 03/M01 A2991 1090 76 0 140/16 RMK AO2 SLP137 T00331006
94908KDBQ DBQ20020209100009202/09/02 10:00:31  5-MIN KDBQ 091600Z 14017KT 10SM CLR 03/M01 A2991 1090 76 0 140/17 RMK AO2
94908KDBQ DBQ20020209100509202/09/02 10:05:31  5-MIN KDBQ 091605Z 14015KT 10SM CLR 03/M01 A2991 1090 76 0 140/15 RMK AO2
94908KDBQ DBQ20020209101009202/09/02 10:10:31  5-MIN KDBQ 091610Z 15015KT 10SM CLR 03/M01 A2991 1080 79 0 140/15 RMK AO2
94908KDBQ DBQ20020209101509202/09/02 10:15:31  5-MIN KDBQ 091615Z 14015KT 10SM CLR 03/M01 A2991 1080 76 0 140/15 RMK AO2
94908KDBQ DBQ20020209102009202/09/02 10:20:31  5-MIN KDBQ 091620Z 15016KT 10SM CLR 03/M01 A2991 1090 76 0 140/16 RMK AO2
94908KDBQ DBQ20020209102509202/09/02 10:25:31  5-MIN KDBQ 091625Z 14016KT 10SM CLR 03/M01 A2991 1090 76 0 140/16 RMK AO2
94908KDBQ DBQ20020209103009202/09/02 10:30:31  5-MIN KDBQ 091630Z 14013KT 10SM CLR 03/M01 A2991 1080 76 0 140/13 RMK AO2
94908KDBQ DBQ20020209103509102/09/02 10:35:31  5-MIN KDBQ 091635Z 14015KT 10SM CLR 04/00 A2991 1080 76 0 140/15 RMK AO2
94908KDBQ DBQ20020209104009102/09/02 10:40:31  5-MIN KDBQ 091640Z 14013KT 10SM CLR 04/00 A2992 1080 76 0 140/13 RMK AO2
94908KDBQ DBQ20020209104509802/09/02 10:45:31  5-MIN KDBQ 091645Z 15016G20KT 10SM CLR 03/M01 A2992 1080 76 0 150/16G20 RMK AO2
94908KDBQ DBQ20020209105011402/09/02 10:50:31  5-MIN KDBQ 091650Z 15011G20KT 10SM CLR 03/00 A2992 1080 79 0 150/11G20 RMK AO2 SLP142 T00330000
94908KDBQ DBQ20020209105510802/09/02 10:55:31  5-MIN KDBQ 091655Z 15013KT 10SM CLR 03/00 A2992 1080 79 0 150/13 RMK AO2 SLP142 T00330000
94908KDBQ DBQ20020209110009102/09/02 11:00:31  5-MIN KDBQ 091700Z 15013KT 10SM CLR 04/00 A2992 1080 76 0 150/13 RMK AO2
94908KDBQ DBQ20020209110509102/09/02 11:05:31  5-MIN KDBQ 091705Z 15014KT 10SM CLR 04/00 A2992 1080 76 0 150/14 RMK AO2
94908KDBQ DBQ20020209111009102/09/02 11:10:31  5-MIN KDBQ 091710Z 15015KT 10SM CLR 04/00 A2992 1080 76 0 150/15 RMK AO2
94908KDBQ DBQ20020209111509202/09/02 11:15:31  5-MIN KDBQ 091715Z 14014KT 10SM CLR 04/M01 A2992 1080 73 0 140/14 RMK AO2
94908KDBQ DBQ20020209112009102/09/02 11:20:31  5-MIN KDBQ 091720Z 14014KT 10SM CLR 04/00 A2992 1080 76 0 140/14 RMK AO2
94908KDBQ DBQ20020209112509102/09/02 11:25:31  5-MIN KDBQ 091725Z 14015KT 10SM CLR 04/00 A2991 1080 76 0 140/15 RMK AO2
94908KDBQ DBQ20020209113009102/09/02 11:30:31  5-MIN KDBQ 091730Z 14014KT 10SM CLR 04/00 A2991 1090 76 0 140/14 RMK AO2
94908KDBQ DBQ20020209113509302/09/02 11:35:31  5-MIN KDBQ 091735Z 14016KT 10SM CLR 04/00 A2991 1080 73 100 140/16 RMK AO2
94908KDBQ DBQ20020209114009302/09/02 11:40:31  5-MIN KDBQ 091740Z 14014KT 10SM CLR 04/00 A2991 1090 73 100 140/14 RMK AO2
94908KDBQ DBQ20020209114509302/09/02 11:45:31  5-MIN KDBQ 091745Z 13015KT 10SM CLR 04/00 A2991 1090 73 100 130/15 RMK AO2
94908KDBQ DBQ20020209115012802/09/02 11:50:31  5-MIN KDBQ 091750Z 14014KT 10SM CLR 04/00 A2991 1090 73 100 140/14 RMK AO2 SLP136 T00440000 10044 20011 50004
94908KDBQ DBQ20020209115512802/09/02 11:55:31  5-MIN KDBQ 091755Z 14013KT 10SM CLR 05/00 A2990 1090 70 200 140/13 RMK AO2 SLP135 T00500000 10050 20011 58002
94908KDBQ DBQ20020209120009302/09/02 12:00:31  5-MIN KDBQ 091800Z 14015KT 10SM CLR 05/00 A2991 1090 70 200 140/15 RMK AO2
94908KDBQ DBQ20020209120509302/09/02 12:05:31  5-MIN KDBQ 091805Z 14012KT 10SM CLR 05/00 A2991 1090 70 200 140/12 RMK AO2
94908KDBQ DBQ20020209121009302/09/02 12:10:31  5-MIN KDBQ 091810Z 14016KT 10SM CLR 05/00 A2990 1090 70 200 130/16 RMK AO2
94908KDBQ DBQ20020209121509302/09/02 12:15:31  5-MIN KDBQ 091815Z 14015KT 10SM CLR 05/00 A2990 1100 70 200 140/15 RMK AO2
94908KDBQ DBQ20020209122009302/09/02 12:20:31  5-MIN KDBQ 091820Z 14014KT 10SM CLR 06/00 A2990 1100 67 300 140/14 RMK AO2
94908KDBQ DBQ20020209122509902/09/02 12:25:31  5-MIN KDBQ 091825Z 14014G20KT 10SM CLR 06/00 A2990 1100 67 300 140/14G20 RMK AO2
94908KDBQ DBQ20020209123009902/09/02 12:30:31  5-MIN KDBQ 091830Z 13011G20KT 10SM CLR 06/00 A2989 1100 67 300 130/11G20 RMK AO2
94908KDBQ DBQ20020209123509302/09/02 12:35:31  5-MIN KDBQ 091835Z 14015KT 10SM CLR 06/01 A2990 1100 70 300 130/15 RMK AO2
94908KDBQ DBQ20020209124009302/09/02 12:40:31  5-MIN KDBQ 091840Z 14013KT 10SM CLR 06/00 A2990 1100 67 300 140/13 RMK AO2
94908KDBQ DBQ20020209124509902/09/02 12:45:31  5-MIN KDBQ 091845Z 14013G18KT 10SM CLR 06/01 A2990 1100 67 300 140/13G18 RMK AO2
94908KDBQ DBQ20020209125011002/09/02 12:50:31  5-MIN KDBQ 091850Z 14015KT 10SM CLR 06/01 A2990 1100 67 300 140/15 RMK AO2 SLP133 T00610006
94908KDBQ DBQ20020209125511602/09/02 12:55:31  5-MIN KDBQ 091855Z 14013G17KT 10SM CLR 06/00 A2990 1100 65 300 140/13G17 RMK AO2 SLP132 T00610000
94908KDBQ DBQ20020209130009302/09/02 13:00:31  5-MIN KDBQ 091900Z 14014KT 10SM CLR 06/01 A2989 1100 67 300 140/14 RMK AO2
94908KDBQ DBQ20020209130509302/09/02 13:05:31  5-MIN KDBQ 091905Z 14012KT 10SM CLR 06/01 A2990 1100 67 300 140/12 RMK AO2
94908KDBQ DBQ20020209131009302/09/02 13:10:31  5-MIN KDBQ 091910Z 14012KT 10SM CLR 06/01 A2989 1110 67 300 140/12 RMK AO2
94908KDBQ DBQ20020209131509302/09/02 13:15:31  5-MIN KDBQ 091915Z 14014KT 10SM CLR 06/01 A2989 1110 67 300 130/14 RMK AO2
94908KDBQ DBQ20020209132009302/09/02 13:20:31  5-MIN KDBQ 091920Z 14012KT 10SM CLR 06/01 A2989 1110 67 300 140/12 RMK AO2
94908KDBQ DBQ20020209132509302/09/02 13:25:31  5-MIN KDBQ 091925Z 14011KT 10SM CLR 06/01 A2988 1110 70 400 140/11 RMK AO2
94908KDBQ DBQ20020209133009902/09/02 13:30:31  5-MIN KDBQ 091930Z 15015G19KT 10SM CLR 06/01 A2988 1110 67 400 140/15G19 RMK AO2
94908KDBQ DBQ20020209133509902/09/02 13:35:31  5-MIN KDBQ 091935Z 14015G19KT 10SM CLR 06/01 A2988 1120 67 400 140/15G19 RMK AO2
94908KDBQ DBQ20020209134009302/09/02 13:40:31  5-MIN KDBQ 091940Z 14014KT 10SM CLR 06/01 A2988 1120 67 400 140/14 RMK AO2
94908KDBQ DBQ20020209134509302/09/02 13:45:31  5-MIN KDBQ 091945Z 15012KT 10SM CLR 07/01 A2988 1120 67 400 150/12 RMK AO2
94908KDBQ DBQ20020209135011002/09/02 13:50:31  5-MIN KDBQ 091950Z 14011KT 10SM CLR 07/01 A2988 1120 67 400 140/11 RMK AO2 SLP126 T00670011
94908KDBQ DBQ20020209135511002/09/02 13:55:31  5-MIN KDBQ 091955Z 14014KT 10SM CLR 06/01 A2987 1120 70 400 140/14 RMK AO2 SLP125 T00610011
94908KDBQ DBQ20020209140009302/09/02 14:00:31  5-MIN KDBQ 092000Z 15013KT 10SM CLR 06/01 A2988 1120 70 400 150/13 RMK AO2
94908KDBQ DBQ20020209140509302/09/02 14:05:31  5-MIN KDBQ 092005Z 13012KT 10SM CLR 06/01 A2988 1120 70 400 130/12 RMK AO2
94908KDBQ DBQ20020209141009302/09/02 14:10:31  5-MIN KDBQ 092010Z 15009KT 10SM CLR 06/01 A2988 1120 70 400 150/09 RMK AO2
94908KDBQ DBQ20020209141509302/09/02 14:15:31  5-MIN KDBQ 092015Z 15012KT 10SM CLR 06/01 A2988 1120 70 400 150/12 RMK AO2
94908KDBQ DBQ20020209142009302/09/02 14:20:31  5-MIN KDBQ 092020Z 15010KT 10SM CLR 06/01 A2988 1110 70 400 150/10 RMK AO2
94908KDBQ DBQ20020209142509302/09/02 14:25:31  5-MIN KDBQ 092025Z 15013KT 10SM CLR 07/02 A2988 1120 70 400 150/13 RMK AO2
94908KDBQ DBQ20020209143009302/09/02 14:30:31  5-MIN KDBQ 092030Z 15014KT 10SM CLR 06/01 A2988 1120 70 400 140/14 RMK AO2
94908KDBQ DBQ20020209143509302/09/02 14:35:31  5-MIN KDBQ 092035Z 14013KT 10SM CLR 06/02 A2988 1120 73 400 140/13 RMK AO2
94908KDBQ DBQ20020209144009302/09/02 14:40:31  5-MIN KDBQ 092040Z 15012KT 10SM CLR 06/02 A2988 1120 73 400 150/12 RMK AO2
94908KDBQ DBQ20020209144509302/09/02 14:45:31  5-MIN KDBQ 092045Z 14011KT 10SM CLR 06/02 A2988 1120 73 400 140/11 RMK AO2
94908KDBQ DBQ20020209145011602/09/02 14:50:31  5-MIN KDBQ 092050Z 14011KT 10SM CLR 06/02 A2987 1120 73 400 140/11 RMK AO2 SLP125 T00610017 58002
94908KDBQ DBQ20020209145511602/09/02 14:55:31  5-MIN KDBQ 092055Z 14012KT 10SM CLR 06/02 A2987 1120 73 400 140/12 RMK AO2 SLP125 T00610017 56010
94908KDBQ DBQ20020209150009302/09/02 15:00:31  5-MIN KDBQ 092100Z 13010KT 10SM CLR 06/02 A2987 1120 73 400 130/10 RMK AO2
94908KDBQ DBQ20020209150509302/09/02 15:05:31  5-MIN KDBQ 092105Z 13010KT 10SM CLR 06/02 A2987 1120 73 400 130/10 RMK AO2
94908KDBQ DBQ20020209151009302/09/02 15:10:31  5-MIN KDBQ 092110Z 13011KT 10SM CLR 07/02 A2987 1120 70 400 130/11 RMK AO2
94908KDBQ DBQ20020209151509302/09/02 15:15:31  5-MIN KDBQ 092115Z 13010KT 10SM CLR 07/02 A2987 1130 73 400 120/10 RMK AO2
94908KDBQ DBQ20020209152009302/09/02 15:20:31  5-MIN KDBQ 092120Z 13010KT 10SM CLR 07/02 A2987 1130 70 400 120/10 RMK AO2
94908KDBQ DBQ20020209152509302/09/02 15:25:31  5-MIN KDBQ 092125Z 13009KT 10SM CLR 07/02 A2987 1130 70 400 130/09 RMK AO2
94908KDBQ DBQ20020209153009302/09/02 15:30:31  5-MIN KDBQ 092130Z 12010KT 10SM CLR 07/02 A2987 1120 70 400 120/10 RMK AO2
94908KDBQ DBQ20020209153509302/09/02 15:35:31  5-MIN KDBQ 092135Z 13008KT 10SM CLR 07/02 A2987 1130 70 400 120/08 RMK AO2
94908KDBQ DBQ20020209154009302/09/02 15:40:31  5-MIN KDBQ 092140Z 12009KT 10SM CLR 07/02 A2987 1130 70 400 120/09 RMK AO2
94908KDBQ DBQ20020209154509302/09/02 15:45:31  5-MIN KDBQ 092145Z 12007KT 10SM CLR 07/02 A2987 1130 70 400 120/07 RMK AO2
94908KDBQ DBQ20020209155011002/09/02 15:50:31  5-MIN KDBQ 092150Z 11008KT 10SM CLR 06/02 A2987 1120 76 400 110/08 RMK AO2 SLP124 T00610022
94908KDBQ DBQ20020209155511002/09/02 15:55:31  5-MIN KDBQ 092155Z 11009KT 10SM CLR 06/02 A2987 1130 73 400 110/09 RMK AO2 SLP122 T00610017
94908KDBQ DBQ20020209160009202/09/02 16:00:31  5-MIN KDBQ 092200Z 10008KT 9SM CLR 07/02 A2987 1120 73 400 100/08 RMK AO2
94908KDBQ DBQ20020209160509202/09/02 16:05:31  5-MIN KDBQ 092205Z 10009KT 9SM CLR 07/02 A2987 1130 73 400 100/09 RMK AO2
94908KDBQ DBQ20020209161009202/09/02 16:10:31  5-MIN KDBQ 092210Z 10010KT 9SM CLR 06/02 A2986 1130 76 400 100/10 RMK AO2
94908KDBQ DBQ20020209161509202/09/02 16:15:31  5-MIN KDBQ 092215Z 09010KT 9SM CLR 06/02 A2986 1140 73 400 090/10 RMK AO2
94908KDBQ DBQ20020209162009302/09/02 16:20:31  5-MIN KDBQ 092220Z 10010KT 10SM CLR 06/02 A2986 1130 73 400 100/10 RMK AO2
94908KDBQ DBQ20020209162509302/09/02 16:25:31  5-MIN KDBQ 092225Z 10011KT 10SM CLR 06/02 A2986 1130 73 400 090/11 RMK AO2
94908KDBQ DBQ20020209163009302/09/02 16:30:31  5-MIN KDBQ 092230Z 10010KT 10SM CLR 06/02 A2986 1140 73 400 100/10 RMK AO2
94908KDBQ DBQ20020209163509302/09/02 16:35:31  5-MIN KDBQ 092235Z 10010KT 10SM CLR 06/02 A2986 1140 73 400 090/10 RMK AO2
94908KDBQ DBQ20020209164009302/09/02 16:40:31  5-MIN KDBQ 092240Z 08008KT 10SM CLR 06/02 A2986 1140 73 400 080/08 RMK AO2
94908KDBQ DBQ20020209164509302/09/02 16:45:31  5-MIN KDBQ 092245Z 09008KT 10SM CLR 07/02 A2986 1130 73 400 090/08 RMK AO2
94908KDBQ DBQ20020209165011002/09/02 16:50:31  5-MIN KDBQ 092250Z 09009KT 10SM CLR 07/02 A2986 1130 73 400 080/09 RMK AO2 SLP121 T00670022
94908KDBQ DBQ20020209165511002/09/02 16:55:31  5-MIN KDBQ 092255Z 09011KT 10SM CLR 06/02 A2986 1130 76 400 090/11 RMK AO2 SLP121 T00610022
94908KDBQ DBQ20020209170009202/09/02 17:00:31  5-MIN KDBQ 092300Z 09010KT 9SM CLR 06/02 A2987 1130 73 400 090/10 RMK AO2
94908KDBQ DBQ20020209170509202/09/02 17:05:31  5-MIN KDBQ 092305Z 09010KT 9SM CLR 06/02 A2987 1130 76 300 090/10 RMK AO2
94908KDBQ DBQ20020209171009202/09/02 17:10:31  5-MIN KDBQ 092310Z 09010KT 9SM CLR 06/02 A2987 1130 76 300 090/10 RMK AO2
94908KDBQ DBQ20020209171509502/09/02 17:15:31  5-MIN KDBQ 092315Z 09008KT 9SM FEW045 06/02 A2987 1120 76 300 090/08 RMK AO2
94908KDBQ DBQ20020209172010202/09/02 17:20:31  5-MIN KDBQ 092320Z 09009KT 9SM FEW036 SCT045 05/02 A2987 1120 79 200 080/09 RMK AO2
94908KDBQ DBQ20020209172510202/09/02 17:25:31  5-MIN KDBQ 092325Z 08009KT 9SM SCT036 BKN045 06/02 A2988 1120 76 300 080/09 RMK AO2
94908KDBQ DBQ20020209173010202/09/02 17:30:31  5-MIN KDBQ 092330Z 08008KT 9SM FEW036 BKN045 06/02 A2988 1120 76 300 080/08 RMK AO2
94908KDBQ DBQ20020209173510302/09/02 17:35:31  5-MIN KDBQ 092335Z 08009KT 10SM FEW036 BKN045 06/02 A2988 1120 76 300 080/09 RMK AO2
94908KDBQ DBQ20020209174010302/09/02 17:40:31  5-MIN KDBQ 092340Z 08009KT 10SM FEW036 OVC045 06/02 A2988 1120 79 300 080/09 RMK AO2
94908KDBQ DBQ20020209174510302/09/02 17:45:31  5-MIN KDBQ 092345Z 08009KT 10SM FEW036 OVC045 06/02 A2988 1120 79 300 080/09 RMK AO2
94908KDBQ DBQ20020209175013102/09/02 17:50:31  5-MIN KDBQ 092350Z 08009KT 10SM OVC045 06/02 A2988 1120 76 300 080/09 RMK AO2 SLP126 T00560017 10067 20050 56010
94908KDBQ DBQ20020209175513102/09/02 17:55:31  5-MIN KDBQ 092355Z 08009KT 10SM OVC045 06/02 A2988 1120 76 300 080/09 RMK AO2 SLP126 T00560017 10067 20050 53001
94908KDBQ DBQ20020209180009602/09/02 18:00:31  5-MIN KDBQ 100000Z 07009KT 10SM OVC045 06/02 A2988 1110 76 300 070/09 RMK AO2
94908KDBQ DBQ20020209180509602/09/02 18:05:31  5-MIN KDBQ 100005Z 07010KT 10SM OVC045 06/02 A2988 1120 76 300 070/10 RMK AO2
94908KDBQ DBQ20020209181009602/09/02 18:10:31  5-MIN KDBQ 100010Z 07009KT 10SM OVC045 06/02 A2988 1110 76 300 060/09 RMK AO2
94908KDBQ DBQ20020209181509602/09/02 18:15:31  5-MIN KDBQ 100015Z 06008KT 10SM OVC045 05/02 A2988 1110 79 200 060/08 RMK AO2
94908KDBQ DBQ20020209182009602/09/02 18:20:31  5-MIN KDBQ 100020Z 06008KT 10SM OVC045 06/02 A2989 1110 76 300 060/08 RMK AO2
94908KDBQ DBQ20020209182509602/09/02 18:25:31  5-MIN KDBQ 100025Z 05007KT 10SM OVC045 06/02 A2989 1110 76 300 050/07 RMK AO2
94908KDBQ DBQ20020209183009602/09/02 18:30:31  5-MIN KDBQ 100030Z 05008KT 10SM OVC045 06/02 A2989 1110 76 300 050/08 RMK AO2
94908KDBQ DBQ20020209183509602/09/02 18:35:31  5-MIN KDBQ 100035Z 06008KT 10SM OVC045 05/02 A2988 1110 79 200 060/08 RMK AO2
94908KDBQ DBQ20020209184009602/09/02 18:40:31  5-MIN KDBQ 100040Z 06009KT 10SM OVC043 05/02 A2988 1110 79 200 050/09 RMK AO2
94908KDBQ DBQ20020209184509602/09/02 18:45:31  5-MIN KDBQ 100045Z 05009KT 10SM OVC043 05/02 A2988 1120 79 200 050/09 RMK AO2
94908KDBQ DBQ20020209185011202/09/02 18:50:31  5-MIN KDBQ 100050Z 04008KT 9SM OVC045 04/02 A2987 1120 82 200 040/08 RMK AO2 SLP126 T00440017
94908KDBQ DBQ20020209185511202/09/02 18:55:31  5-MIN KDBQ 100055Z 04008KT 9SM OVC045 04/02 A2987 1120 82 200 040/08 RMK AO2 SLP126 T00440017
94908KDBQ DBQ20020209190011302/09/02 19:00:31  5-MIN KDBQ 100100Z 05007KT 9SM -RA OVC043 04/02 A2988 1120 82 200 050/07 RMK AO2 RAB0059 P0000
94908KDBQ DBQ20020209190511302/09/02 19:05:31  5-MIN KDBQ 100105Z 04008KT 8SM -RA OVC043 04/02 A2988 1120 82 200 040/08 RMK AO2 RAB0059 P0000
94908KDBQ DBQ20020209191012002/09/02 19:10:31  5-MIN KDBQ 100110Z 04008KT 7SM -RA BKN040 OVC047 04/02 A2988 1120 85 100 040/08 RMK AO2 RAB0059 P0000
94908KDBQ DBQ20020209191511302/09/02 19:15:31  5-MIN KDBQ 100115Z 03007KT 7SM -RA OVC040 04/02 A2988 1120 85 100 030/07 RMK AO2 RAB0059 P0000
94908KDBQ DBQ20020209192011302/09/02 19:20:31  5-MIN KDBQ 100120Z 03007KT 7SM -RA OVC040 04/02 A2987 1120 85 100 030/07 RMK AO2 RAB0059 P0000
94908KDBQ DBQ20020209192511102/09/02 19:25:31  5-MIN KDBQ 100125Z 04007KT 7SM -RA OVC038 03/02 A2988 1120 89 0 030/07 RMK AO2 RAB0059 P0000
94908KDBQ DBQ20020209193011402/09/02 19:30:31  5-MIN KDBQ 100130Z 03008KT 6SM -RA BR OVC038 03/02 A2988 1120 89 0 030/08 RMK AO2 RAB0059 P0000
94908KDBQ DBQ20020209193511402/09/02 19:35:31  5-MIN KDBQ 100135Z 03008KT 6SM -RA BR OVC038 03/02 A2988 1120 89 0 030/08 RMK AO2 RAB0059 P0000
94908KDBQ DBQ20020209194011402/09/02 19:40:31  5-MIN KDBQ 100140Z 03006KT 6SM -RA BR OVC038 03/02 A2987 1120 89 0 030/06 RMK AO2 RAB0059 P0000
94908KDBQ DBQ20020209194511402/09/02 19:45:31  5-MIN KDBQ 100145Z 03007KT 5SM -RA BR OVC038 03/02 A2987 1120 92 0 030/07 RMK AO2 RAB0059 P0001
94908KDBQ DBQ20020209195013102/09/02 19:50:31  5-MIN KDBQ 100150Z 04007KT 5SM -RA BR OVC038 03/02 A2987 1120 92 0 040/07 RMK AO2 RAB0059 SLP126 P0001 T00330022
94908KDBQ DBQ20020209195513102/09/02 19:55:31  5-MIN KDBQ 100155Z 04007KT 5SM -RA BR OVC038 03/02 A2987 1120 92 0 040/07 RMK AO2 RAB0059 SLP126 P0001 T00330022
94908KDBQ DBQ20020209200011602/09/02 20:00:31  5-MIN KDBQ 100200Z AUTO 04008KT 5SM -RA BR OVC038 03/02 A2987 1120 92 0 030/08 RMK AO2 P0000 TSNO
94908KDBQ DBQ20020209200511602/09/02 20:05:31  5-MIN KDBQ 100205Z AUTO 04009KT 4SM -RA BR OVC038 03/02 A2987 1120 92 0 040/09 RMK AO2 P0001 TSNO
94908KDBQ DBQ20020209201011602/09/02 20:10:31  5-MIN KDBQ 100210Z AUTO 04009KT 5SM -RA BR OVC038 03/02 A2987 1120 92 0 040/09 RMK AO2 P0001 TSNO
94908KDBQ DBQ20020209201511602/09/02 20:15:31  5-MIN KDBQ 100215Z AUTO 04010KT 4SM -RA BR OVC038 03/02 A2987 1130 92 0 040/10 RMK AO2 P0002 TSNO
94908KDBQ DBQ20020209202011602/09/02 20:20:31  5-MIN KDBQ 100220Z AUTO 04011KT 4SM -RA BR OVC038 03/02 A2986 1130 92 0 040/11 RMK AO2 P0002 TSNO
94908KDBQ DBQ20020209202511602/09/02 20:25:31  5-MIN KDBQ 100225Z AUTO 04011KT 4SM -RA BR OVC038 03/02 A2986 1130 92 0 040/11 RMK AO2 P0003 TSNO
94908KDBQ DBQ20020209203011602/09/02 20:30:31  5-MIN KDBQ 100230Z AUTO 04011KT 4SM -RA BR OVC038 03/02 A2986 1130 92 0 030/11 RMK AO2 P0003 TSNO
94908KDBQ DBQ20020209203511602/09/02 20:35:31  5-MIN KDBQ 100235Z AUTO 04010KT 4SM -RA BR OVC040 03/02 A2986 1130 92 0 040/10 RMK AO2 P0004 TSNO
94908KDBQ DBQ20020209204011602/09/02 20:40:31  5-MIN KDBQ 100240Z AUTO 04011KT 4SM -RA BR OVC040 03/02 A2986 1130 92 0 040/11 RMK AO2 P0004 TSNO
94908KDBQ DBQ20020209204511602/09/02 20:45:31  5-MIN KDBQ 100245Z AUTO 04010KT 4SM -RA BR OVC040 03/02 A2986 1130 92 0 040/10 RMK AO2 P0005 TSNO
94908KDBQ DBQ20020209205014502/09/02 20:50:31  5-MIN KDBQ 100250Z AUTO 04011KT 3SM -RA BR OVC040 03/02 A2986 1140 96 0 040/11 RMK AO2 SLP120 P0005 60006 T00280022 53001 TSNO
94908KDBQ DBQ20020209205514502/09/02 20:55:31  5-MIN KDBQ 100255Z AUTO 04010KT 3SM -RA BR OVC040 03/02 A2986 1140 92 0 040/10 RMK AO2 SLP120 P0005 60006 T00330022 58007 TSNO
94908KDBQ DBQ20020209210011602/09/02 21:00:31  5-MIN KDBQ 100300Z AUTO 05010KT 4SM -RA BR OVC040 03/02 A2986 1140 92 0 040/10 RMK AO2 P0000 TSNO
94908KDBQ DBQ20020209210511602/09/02 21:05:31  5-MIN KDBQ 100305Z AUTO 04011KT 4SM -RA BR OVC040 03/02 A2986 1140 92 0 040/11 RMK AO2 P0001 TSNO
94908KDBQ DBQ20020209211011602/09/02 21:10:31  5-MIN KDBQ 100310Z AUTO 04010KT 3SM -RA BR OVC040 03/02 A2986 1140 92 0 040/10 RMK AO2 P0001 TSNO
94908KDBQ DBQ20020209211511602/09/02 21:15:31  5-MIN KDBQ 100315Z AUTO 05009KT 3SM -RA BR OVC040 03/02 A2986 1140 96 0 050/09 RMK AO2 P0002 TSNO
94908KDBQ DBQ20020209212011602/09/02 21:20:31  5-MIN KDBQ 100320Z AUTO 05009KT 3SM -RA BR OVC040 03/02 A2985 1140 92 0 050/09 RMK AO2 P0002 TSNO
94908KDBQ DBQ20020209212511602/09/02 21:25:31  5-MIN KDBQ 100325Z AUTO 05010KT 3SM -RA BR OVC040 03/03 A2986 1140 96 0 050/10 RMK AO2 P0002 TSNO
94908KDBQ DBQ20020209213011602/09/02 21:30:31  5-MIN KDBQ 100330Z AUTO 05011KT 4SM -RA BR OVC038 03/03 A2986 1140 96 0 050/11 RMK AO2 P0003 TSNO
94908KDBQ DBQ20020209213511602/09/02 21:35:31  5-MIN KDBQ 100335Z AUTO 05011KT 4SM -RA BR OVC038 03/03 A2985 1140 96 0 050/11 RMK AO2 P0003 TSNO
94908KDBQ DBQ20020209214011802/09/02 21:40:31  5-MIN KDBQ 100340Z AUTO 05011KT 4SM -RA BR OVC036 04/03 A2985 1140 92 100 050/11 RMK AO2 P0004 TSNO
94908KDBQ DBQ20020209214511802/09/02 21:45:31  5-MIN KDBQ 100345Z AUTO 05010KT 4SM -RA BR OVC036 04/03 A2985 1140 92 100 050/10 RMK AO2 P0004 TSNO
94908KDBQ DBQ20020209215013302/09/02 21:50:31  5-MIN KDBQ 100350Z AUTO 05010KT 4SM -RA BR OVC036 03/03 A2985 1140 96 0 050/10 RMK AO2 SLP118 P0005 T00330028 TSNO
94908KDBQ DBQ20020209215513502/09/02 21:55:31  5-MIN KDBQ 100355Z AUTO 05009KT 4SM -RA BR OVC034 04/03 A2986 1140 92 100 050/09 RMK AO2 SLP119 P0005 T00390028 TSNO
94908KDBQ DBQ20020209220011602/09/02 22:00:31  5-MIN KDBQ 100400Z AUTO 06009KT 4SM -RA BR OVC034 03/03 A2985 1140 96 0 060/09 RMK AO2 P0001 TSNO
94908KDBQ DBQ20020209220511502/09/02 22:05:31  5-MIN KDBQ 100405Z AUTO 06009KT 4SM RA BR OVC034 03/03 A2985 1140 96 0 060/09 RMK AO2 P0001 TSNO
94908KDBQ DBQ20020209221012402/09/02 22:10:31  5-MIN KDBQ 100410Z AUTO 06009KT 4SM RA BR FEW020 OVC034 04/03 A2985 1140 92 100 060/09 RMK AO2 P0002 TSNO
94908KDBQ DBQ20020209221512502/09/02 22:15:31  5-MIN KDBQ 100415Z AUTO 06008KT 4SM -RA BR SCT020 OVC034 04/03 A2985 1140 92 100 060/08 RMK AO2 P0003 TSNO
94908KDBQ DBQ20020209222013002/09/02 22:20:31  5-MIN KDBQ 100420Z AUTO 06008KT 4SM -RA BR SCT020 BKN028 OVC034 03/03 A2985 1140 96 0 060/08 RMK AO2 P0003 TSNO
94908KDBQ DBQ20020209222512302/09/02 22:25:31  5-MIN KDBQ 100425Z AUTO 05008KT 4SM -RA BR BKN020 OVC029 03/03 A2985 1140 96 0 050/08 RMK AO2 P0003 TSNO
94908KDBQ DBQ20020209223012302/09/02 22:30:31  5-MIN KDBQ 100430Z AUTO 05007KT 4SM -RA BR BKN020 OVC029 03/03 A2985 1140 96 0 050/07 RMK AO2 P0004 TSNO
94908KDBQ DBQ20020209223512302/09/02 22:35:31  5-MIN KDBQ 100435Z AUTO 05007KT 3SM -RA BR BKN018 OVC029 03/03 A2985 1140 96 0 050/07 RMK AO2 P0004 TSNO
94908KDBQ DBQ20020209224012002/09/02 22:40:31  5-MIN KDBQ 100440Z AUTO 05006KT 2 1/2SM -RA BR OVC018 03/03 A2985 1140 96 0 050/06 RMK AO2 P0004 TSNO
94908KDBQ DBQ20020209224511602/09/02 22:45:31  5-MIN KDBQ 100445Z AUTO 04006KT 2SM -RA BR OVC016 03/02 A2985 1150 96 0 040/06 RMK AO2 P0005 TSNO
94908KDBQ DBQ20020209225013602/09/02 22:50:31  5-MIN KDBQ 100450Z AUTO 03006KT 1 1/2SM RA BR OVC016 03/02 A2985 1150 96 0 030/06 RMK AO2 SLP116 P0005 T00280022 TSNO
94908KDBQ DBQ20020209225513702/09/02 22:55:31  5-MIN KDBQ 100455Z AUTO 03006KT 1 1/4SM -RA BR OVC014 03/02 A2985 1150 96 0 030/06 RMK AO2 SLP116 P0006 T00280022 TSNO
94908KDBQ DBQ20020209230011702/09/02 23:00:31  5-MIN KDBQ 100500Z AUTO 04006KT 1SM -RA BR OVC014 03/03 A2985 1150 100 0 040/06 RMK AO2 P0000 TSNO
94908KDBQ DBQ20020209230511702/09/02 23:05:31  5-MIN KDBQ 100505Z AUTO 04006KT 1SM -RA BR OVC013 03/03 A2985 1150 100 0 040/06 RMK AO2 P0001 TSNO
94908KDBQ DBQ20020209231012202/09/02 23:10:31  5-MIN KDBQ 100510Z AUTO 04006KT 1 1/2SM -RA BR OVC013 03/03 A2985 1150 96 100 040/06 RMK AO2 P0001 TSNO
94908KDBQ DBQ20020209231512102/09/02 23:15:31  5-MIN KDBQ 100515Z AUTO 03005KT 1 3/4SM -RA BR OVC011 03/03 A2985 1150 100 0 030/05 RMK AO2 P0002 TSNO
94908KDBQ DBQ20020209232012902/09/02 23:20:31  5-MIN KDBQ 100520Z AUTO 04007KT 1 3/4SM -RA BR SCT007 OVC011 03/03 A2984 1150 96 100 040/07 RMK AO2 P0002 TSNO
94908KDBQ DBQ20020209232514102/09/02 23:25:31  5-MIN KDBQ 100525Z AUTO 04005KT 1 3/4SM -RA BR BKN005 OVC011 03/03 A2984 1150 96 100 040/05 RMK AO2 CIG 003V009 P0002 TSNO
94908KDBQ DBQ20020209233012502/09/02 23:30:31  5-MIN KDBQ 100530Z AUTO 04006KT 2SM -RA BR SCT005 OVC011 03/03 A2984 1150 96 100 040/06 RMK AO2 P0003 TSNO
94908KDBQ DBQ20020209233512902/09/02 23:35:31  5-MIN KDBQ 100535Z AUTO 04007KT 2 1/2SM -RA BR SCT005 OVC011 03/03 A2984 1150 96 100 040/07 RMK AO2 P0003 TSNO
94908KDBQ DBQ20020209234013602/09/02 23:40:31  5-MIN KDBQ 100540Z AUTO 06007KT 1 3/4SM -RA BR SCT005 BKN011 OVC016 03/03 A2984 1150 96 100 060/07 RMK AO2 P0003 TSNO
94908KDBQ DBQ20020209234512502/09/02 23:45:31  5-MIN KDBQ 100545Z AUTO 04007KT 2SM -RA BR FEW005 OVC013 03/03 A2984 1150 96 100 040/07 RMK AO2 P0004 TSNO
94908KDBQ DBQ20020209235017902/09/02 23:50:31  5-MIN KDBQ 100550Z AUTO 03008KT 1 1/2SM -RA BR FEW005 OVC013 03/03 A2984 1150 100 0 030/08 RMK AO2 SLP113 P0004 60021 T00280028 10056 20028 400670006 58007 TSNO
94908KDBQ DBQ20020209235517402/09/02 23:55:31  5-MIN KDBQ 100555Z AUTO 03007KT 1SM -RA BR BKN013 OVC037 03/02 A2984 1150 96 0 030/07 RMK AO2 SLP113 P0004 60021 T00280022 10056 20028 400670006 58006 TSNO
94908KDBQ DBQ20020210000013202/10/02 00:00:31  5-MIN KDBQ 100600Z AUTO 03008KT 3/4SM -RA BR SCT011 BKN016 OVC033 03/02 A2984 1150 96 0 020/08 RMK AO2 P0000 TSNO
94908KDBQ DBQ20020210000514202/10/02 00:05:31  5-MIN KDBQ 100605Z AUTO 03007KT 1/2SM UP FG SCT011 SCT016 OVC029 03/02 A2984 1150 96 0 030/07 RMK AO2 RAE04UPB04 P0000 TSNO
94908KDBQ DBQ20020210001014302/10/02 00:10:31  5-MIN KDBQ 100610Z AUTO 03008KT 1/2SM UP FG FEW001 SCT011 OVC027 03/03 A2984 1160 100 0 030/08 RMK AO2 RAE04UPB04 P0000 TSNO
94908KDBQ DBQ20020210001514202/10/02 00:15:31  5-MIN KDBQ 100615Z AUTO 03008KT 1/2SM -RA FG FEW001 SCT011 OVC022 03/03 A2983 1160 100 0 030/08 RMK AO2 UPB04E11 P0000 TSNO
94908KDBQ DBQ20020210002014202/10/02 00:20:31  5-MIN KDBQ 100620Z AUTO 03007KT 1/4SM -RA FG FEW001 BKN018 OVC030 03/03 A2983 1160 100 0 030/07 RMK AO2 UPB04E11 P0001 TSNO
94908KDBQ DBQ20020210002514102/10/02 00:25:31  5-MIN KDBQ 100625Z AUTO 03006KT 1/4SM -RA FG SCT001 BKN015 OVC030 03/02 A2983 1160 96 0 030/06 RMK AO2 UPB04E11 P0001 TSNO
94908KDBQ DBQ20020210003014902/10/02 00:30:31  5-MIN KDBQ 100630Z AUTO 03007KT 1/4SM FG SCT001 BKN013 OVC030 03/03 A2983 1160 100 0 030/07 RMK AO2 RAE27UPB04E11B27E29 P0001 TSNO
94908KDBQ DBQ20020210003514902/10/02 00:35:31  5-MIN KDBQ 100635Z AUTO 03007KT 1/4SM FG BKN001 BKN007 OVC013 03/03 A2983 1160 100 0 030/07 RMK AO2 RAE27UPB04E11B27E29 P0001 TSNO
94908KDBQ DBQ20020210004013502/10/02 00:40:31  5-MIN KDBQ 100640Z AUTO 03007KT 1/4SM FG OVC003 03/03 A2983 1160 100 0 030/07 RMK AO2 RAE27UPB04E11B27E29 P0001 TSNO
94908KDBQ DBQ20020210004513502/10/02 00:45:31  5-MIN KDBQ 100645Z AUTO 03008KT 1/4SM FG OVC001 03/03 A2983 1170 100 0 030/08 RMK AO2 RAE27UPB04E11B27E29 P0001 TSNO
94908KDBQ DBQ20020210005015202/10/02 00:50:31  5-MIN KDBQ 100650Z AUTO 03007KT 1/4SM FG OVC001 03/03 A2983 1160 100 0 030/07 RMK AO2 RAE27UPB04E11B27E29 SLP109 P0001 T00280028 TSNO
94908KDBQ DBQ20020210005515102/10/02 00:55:31  5-MIN KDBQ 100655Z AUTO 03007KT 1/4SM FG VV001 03/03 A2983 1160 100 0 030/07 RMK AO2 RAE27UPB04E11B27E29 SLP109 P0001 T00280028 TSNO
94908KDBQ DBQ20020210010010702/10/02 01:00:31  5-MIN KDBQ 100700Z AUTO 02006KT 1/4SM FG VV001 03/02 A2983 1160 96 0 020/06 RMK AO2 TSNO
94908KDBQ DBQ20020210010510802/10/02 01:05:31  5-MIN KDBQ 100705Z AUTO 03006KT 1/4SM FG VV001 03/03 A2983 1160 100 0 030/06 RMK AO2 TSNO
94908KDBQ DBQ20020210011010802/10/02 01:10:31  5-MIN KDBQ 100710Z AUTO 02007KT 1/4SM FG VV001 03/03 A2983 1160 100 0 020/07 RMK AO2 TSNO
94908KDBQ DBQ20020210011510802/10/02 01:15:31  5-MIN KDBQ 100715Z AUTO 02007KT 1/4SM FG VV001 03/03 A2983 1160 100 0 020/07 RMK AO2 TSNO
94908KDBQ DBQ20020210012010802/10/02 01:20:31  5-MIN KDBQ 100720Z AUTO 03006KT 1/4SM FG VV001 03/03 A2983 1160 100 0 030/06 RMK AO2 TSNO
94908KDBQ DBQ20020210012510802/10/02 01:25:31  5-MIN KDBQ 100725Z AUTO 03006KT 1/4SM FG VV001 03/03 A2983 1160 100 0 030/06 RMK AO2 TSNO
94908KDBQ DBQ20020210013010802/10/02 01:30:31  5-MIN KDBQ 100730Z AUTO 03006KT 1/4SM FG VV001 03/03 A2983 1160 100 0 030/06 RMK AO2 TSNO
94908KDBQ DBQ20020210013510702/10/02 01:35:31  5-MIN KDBQ 100735Z AUTO 03005KT 1/4SM FG VV001 03/02 A2983 1160 96 0 020/05 RMK AO2 TSNO
94908KDBQ DBQ20020210014010702/10/02 01:40:31  5-MIN KDBQ 100740Z AUTO 02006KT 1/4SM FG VV001 03/02 A2983 1160 96 0 020/06 RMK AO2 TSNO
94908KDBQ DBQ20020210014510802/10/02 01:45:31  5-MIN KDBQ 100745Z AUTO 01008KT 1/4SM FG VV001 03/03 A2983 1160 100 0 010/08 RMK AO2 TSNO
94908KDBQ DBQ20020210015012502/10/02 01:50:31  5-MIN KDBQ 100750Z AUTO 02009KT 1/4SM FG VV001 03/03 A2983 1160 100 0 020/09 RMK AO2 SLP109 T00280028 TSNO
94908KDBQ DBQ20020210015512502/10/02 01:55:31  5-MIN KDBQ 100755Z AUTO 02009KT 1/4SM FG VV001 03/03 A2983 1160 100 0 010/09 RMK AO2 SLP109 T00280028 TSNO
94908KDBQ DBQ20020210020010802/10/02 02:00:31  5-MIN KDBQ 100800Z AUTO 02010KT 1/4SM FG VV001 03/03 A2983 1160 100 0 020/10 RMK AO2 TSNO
94908KDBQ DBQ20020210020510802/10/02 02:05:31  5-MIN KDBQ 100805Z AUTO 03008KT 1/2SM FG VV001 03/03 A2983 1160 100 0 030/08 RMK AO2 TSNO
94908KDBQ DBQ20020210021010802/10/02 02:10:31  5-MIN KDBQ 100810Z AUTO 04006KT 1/2SM FG VV001 03/03 A2983 1160 100 0 040/06 RMK AO2 TSNO
94908KDBQ DBQ20020210021510802/10/02 02:15:31  5-MIN KDBQ 100815Z AUTO 03006KT 1/4SM FG VV001 03/03 A2984 1160 100 0 020/06 RMK AO2 TSNO
94908KDBQ DBQ20020210022010802/10/02 02:20:31  5-MIN KDBQ 100820Z AUTO 04006KT 1/4SM FG VV001 03/03 A2984 1150 100 0 040/06 RMK AO2 TSNO
94908KDBQ DBQ20020210022510802/10/02 02:25:31  5-MIN KDBQ 100825Z AUTO 05006KT 1/4SM FG VV001 03/03 A2984 1150 100 0 050/06 RMK AO2 TSNO
94908KDBQ DBQ20020210023012302/10/02 02:30:31  5-MIN KDBQ 100830Z AUTO 04005KT 1/4SM UP FG VV001 03/03 A2984 1150 100 0 040/05 RMK AO2 UPB26 P0000 TSNO
94908KDBQ DBQ20020210023512302/10/02 02:35:31  5-MIN KDBQ 100835Z AUTO 04006KT 1/4SM UP FG VV001 03/03 A2984 1150 100 0 030/06 RMK AO2 UPB26 P0000 TSNO
94908KDBQ DBQ20020210024012302/10/02 02:40:31  5-MIN KDBQ 100840Z AUTO 04006KT 1/4SM UP FG VV001 03/03 A2984 1150 100 0 040/06 RMK AO2 UPB26 P0000 TSNO
94908KDBQ DBQ20020210024512302/10/02 02:45:31  5-MIN KDBQ 100845Z AUTO 04008KT 1/4SM UP FG VV001 03/03 A2984 1150 100 0 040/08 RMK AO2 UPB26 P0000 TSNO
94908KDBQ DBQ20020210025016102/10/02 02:50:31  5-MIN KDBQ 100850Z AUTO 04007KT 1/2SM -RA FG VV001 03/03 A2984 1150 100 0 040/07 RMK AO2 UPB26E50RAB50 SLP114 P0000 60001 T00280028 58006 TSNO
94908KDBQ DBQ20020210025516002/10/02 02:55:31  5-MIN KDBQ 100855Z AUTO 04006KT 3/4SM BR VV001 03/03 A2984 1150 100 0 030/06 RMK AO2 UPB26E50RAB50E51 SLP114 P0000 60001 T00280028 53001 TSNO
94908KDBQ DBQ20020210030010802/10/02 03:00:31  5-MIN KDBQ 100900Z AUTO 02004KT 3/4SM BR VV001 03/03 A2985 1150 100 0 020/04 RMK AO2 TSNO
94908KDBQ DBQ20020210030510802/10/02 03:05:31  5-MIN KDBQ 100905Z AUTO 04003KT 1/2SM FG VV001 03/03 A2985 1140 100 0 040/03 RMK AO2 TSNO
94908KDBQ DBQ20020210031010702/10/02 03:10:31  5-MIN KDBQ 100910Z AUTO 03005KT 1/2SM FG VV001 03/02 A2985 1140 96 0 030/05 RMK AO2 TSNO
94908KDBQ DBQ20020210031510702/10/02 03:15:31  5-MIN KDBQ 100915Z AUTO 03006KT 1/2SM FG VV001 03/02 A2985 1140 96 0 030/06 RMK AO2 TSNO
94908KDBQ DBQ20020210032010802/10/02 03:20:31  5-MIN KDBQ 100920Z AUTO 03008KT 3/4SM BR OVC001 03/02 A2985 1140 96 0 030/08 RMK AO2 TSNO
94908KDBQ DBQ20020210032511002/10/02 03:25:31  5-MIN KDBQ 100925Z AUTO 03007KT 1 1/4SM BR OVC001 03/02 A2986 1140 96 0 030/07 RMK AO2 TSNO
94908KDBQ DBQ20020210033011002/10/02 03:30:31  5-MIN KDBQ 100930Z AUTO 03008KT 1 1/4SM BR OVC001 03/02 A2986 1140 96 0 030/08 RMK AO2 TSNO
94908KDBQ DBQ20020210033511002/10/02 03:35:31  5-MIN KDBQ 100935Z AUTO 02007KT 1 1/2SM BR OVC001 03/02 A2986 1130 96 0 020/07 RMK AO2 TSNO
94908KDBQ DBQ20020210034012502/10/02 03:40:31  5-MIN KDBQ 100940Z AUTO 02009KT 2SM UP BR OVC001 02/02 A2986 1130 100 -100 010/09 RMK AO2 UPB36 P0000 TSNO
94908KDBQ DBQ20020210034513702/10/02 03:45:31  5-MIN KDBQ 100945Z AUTO 01011KT 2 1/2SM -RA BR OVC003 02/02 A2987 1130 96 -100 360/11 RMK AO2 UPB36E42RAB42 P0000 TSNO
94908KDBQ DBQ20020210035015102/10/02 03:50:31  5-MIN KDBQ 100950Z AUTO 01012KT 3SM -RA BR OVC003 02/02 A2987 1130 100 -100 010/12 RMK AO2 UPB36E42RAB42 SLP123 P0000 T00170017 TSNO
94908KDBQ DBQ20020210035515902/10/02 03:55:31  5-MIN KDBQ 100955Z AUTO 01014KT 3SM -SN BR OVC003 01/01 A2987 1120 100 -200 010/14 RMK AO2 UPB36E54RAB42E51SNB54 SLP124 P0000 T00110011 TSNO
94908KDBQ DBQ20020210040011902/10/02 04:00:31  5-MIN KDBQ 101000Z AUTO 01012KT 3SM -SN BR OVC003 01/01 A2987 1120 96 -200 010/12 RMK AO2 P0000 TSNO
94908KDBQ DBQ20020210040512002/10/02 04:05:31  5-MIN KDBQ 101005Z AUTO 01011KT 2SM -SN BR OVC003 01/01 A2988 1120 100 -300 010/11 RMK AO2 P0001 TSNO
94908KDBQ DBQ20020210041012002/10/02 04:10:31  5-MIN KDBQ 101010Z AUTO 01012KT 2SM -SN BR OVC003 01/01 A2988 1120 100 -300 010/12 RMK AO2 P0001 TSNO
94908KDBQ DBQ20020210041511902/10/02 04:15:31  5-MIN KDBQ 101015Z AUTO 01011KT 2SM -SN BR OVC003 01/00 A2988 1120 96 -300 010/11 RMK AO2 P0001 TSNO
94908KDBQ DBQ20020210042011902/10/02 04:20:31  5-MIN KDBQ 101020Z AUTO 01012KT 2SM -SN BR OVC003 01/00 A2988 1110 96 -300 010/12 RMK AO2 P0002 TSNO
94908KDBQ DBQ20020210042511902/10/02 04:25:31  5-MIN KDBQ 101025Z AUTO 01012KT 2SM -SN BR OVC003 01/00 A2988 1110 96 -300 010/12 RMK AO2 P0002 TSNO
94908KDBQ DBQ20020210043012302/10/02 04:30:31  5-MIN KDBQ 101030Z AUTO 01013KT 1 3/4SM -SN BR OVC003 01/00 A2989 1110 96 -300 010/13 RMK AO2 P0002 TSNO
94908KDBQ DBQ20020210043512302/10/02 04:35:31  5-MIN KDBQ 101035Z AUTO 36010KT 1 1/2SM -SN BR OVC003 01/00 A2989 1110 96 -300 360/10 RMK AO2 P0002 TSNO
94908KDBQ DBQ20020210044012302/10/02 04:40:31  5-MIN KDBQ 101040Z AUTO 36010KT 1 1/2SM -SN BR OVC003 01/00 A2989 1100 96 -300 360/10 RMK AO2 P0002 TSNO
94908KDBQ DBQ20020210044512302/10/02 04:45:31  5-MIN KDBQ 101045Z AUTO 36011KT 1 1/2SM -SN BR OVC003 01/00 A2990 1100 96 -300 360/11 RMK AO2 P0002 TSNO
94908KDBQ DBQ20020210045014102/10/02 04:50:31  5-MIN KDBQ 101050Z AUTO 36010KT 1 1/2SM -SN BR OVC003 00/00 A2990 1100 100 -400 360/10 RMK AO2 SLP134 P0002 T00000000 TSNO
94908KDBQ DBQ20020210045514102/10/02 04:55:31  5-MIN KDBQ 101055Z AUTO 36010KT 1 1/2SM -SN BR OVC003 00/00 A2990 1090 100 -400 360/10 RMK AO2 SLP135 P0003 T00000000 TSNO
94908KDBQ DBQ20020210050012402/10/02 05:00:31  5-MIN KDBQ 101100Z AUTO 36009KT 1 1/2SM -SN BR OVC003 00/00 A2991 1090 100 -400 350/09 RMK AO2 P0000 TSNO
94908KDBQ DBQ20020210050512402/10/02 05:05:31  5-MIN KDBQ 101105Z AUTO 36009KT 1 1/2SM -SN BR OVC003 00/00 A2991 1090 100 -400 360/09 RMK AO2 P0000 TSNO
94908KDBQ DBQ20020210051012402/10/02 05:10:31  5-MIN KDBQ 101110Z AUTO 01010KT 1 3/4SM -SN BR OVC003 00/00 A2992 1080 100 -400 010/10 RMK AO2 P0000 TSNO
94908KDBQ DBQ20020210051512002/10/02 05:15:31  5-MIN KDBQ 101115Z AUTO 36010KT 2SM -SN BR OVC003 00/00 A2992 1080 100 -400 360/10 RMK AO2 P0000 TSNO
94908KDBQ DBQ20020210052012002/10/02 05:20:31  5-MIN KDBQ 101120Z AUTO 36010KT 2SM -SN BR OVC003 00/00 A2993 1070 100 -400 360/10 RMK AO2 P0000 TSNO
94908KDBQ DBQ20020210052512002/10/02 05:25:31  5-MIN KDBQ 101125Z AUTO 36012KT 2SM -SN BR OVC003 00/00 A2993 1070 100 -400 360/12 RMK AO2 P0000 TSNO
94908KDBQ DBQ20020210053013202/10/02 05:30:31  5-MIN KDBQ 101130Z AUTO 36011KT 2SM -SN BR OVC003 00/00 A2993 1070 100 -400 360/11 RMK AO2 CIG 002V007 P0000 TSNO
94908KDBQ DBQ20020210053513802/10/02 05:35:31  5-MIN KDBQ 101135Z AUTO 36010G17KT 2SM -SN BR OVC003 00/00 A2994 1060 100 -400 360/10G17 RMK AO2 CIG 002V007 P0000 TSNO
94908KDBQ DBQ20020210054013802/10/02 05:40:31  5-MIN KDBQ 101140Z AUTO 36011G17KT 2SM -SN BR OVC003 00/00 A2994 1060 100 -400 360/11G17 RMK AO2 CIG 002V007 P0000 TSNO
94908KDBQ DBQ20020210054513802/10/02 05:45:31  5-MIN KDBQ 101145Z AUTO 36011G19KT 2SM -SN BR OVC003 00/00 A2994 1060 100 -400 360/11G19 RMK AO2 CIG 002V007 P0000 TSNO
94908KDBQ DBQ20020210055017302/10/02 05:50:31  5-MIN KDBQ 101150Z AUTO 36012G19KT 2SM -SN BR OVC003 00/M01 A2994 1060 96 -400 360/12G19 RMK AO2 SLP150 P0000 60004 70025 T00001006 10028 20000 53001 TSNO
94908KDBQ DBQ20020210055517702/10/02 05:55:31  5-MIN KDBQ 101155Z AUTO 36011G18KT 1 3/4SM -SN BR OVC003 00/M01 A2995 1050 96 -400 360/11G18 RMK AO2 SLP151 P0000 60004 70025 T00001006 10028 20000 53034 TSNO
94908KDBQ DBQ20020210060011402/10/02 06:00:31  5-MIN KDBQ 101200Z 36011KT 1 1/2SM -SN BR OVC003 00/M01 A2995 1050 96 -400 360/11 RMK AO2 P0000
94908KDBQ DBQ20020210060512002/10/02 06:05:31  5-MIN KDBQ 101205Z 36013G20KT 1 1/2SM -SN BR OVC003 00/M01 A2995 1050 96 -400 360/13G20 RMK AO2 P0000
94908KDBQ DBQ20020210061012002/10/02 06:10:31  5-MIN KDBQ 101210Z 36014G20KT 1 1/4SM -SN BR OVC003 00/M01 A2995 1050 96 -400 360/14G20 RMK AO2 P0000
94908KDBQ DBQ20020210061512002/10/02 06:15:31  5-MIN KDBQ 101215Z 36015G20KT 1 1/4SM -SN BR OVC003 00/M01 A2995 1050 96 -400 360/15G20 RMK AO2 P0000
94908KDBQ DBQ20020210062011402/10/02 06:20:31  5-MIN KDBQ 101220Z 36015KT 1 1/4SM -SN BR OVC003 00/M01 A2996 1040 96 -400 360/15 RMK AO2 P0000
94908KDBQ DBQ20020210062513202/10/02 06:25:31  5-MIN KDBQ 101225Z 36015G22KT 1 1/2SM -SN BR OVC003 01/M01 A2997 1040 92 -400 360/15G22 RMK AO2 CIG 003V008 P0000
94908KDBQ DBQ20020210063012802/10/02 06:30:31  5-MIN KDBQ 101230Z 36012G22KT 2SM -SN BR OVC003 01/M01 A2997 1030 92 -400 360/12G22 RMK AO2 CIG 003V007 P0000
94908KDBQ DBQ20020210063512802/10/02 06:35:31  5-MIN KDBQ 101235Z 36015G22KT 2SM -SN BR OVC005 01/M01 A2997 1030 92 -400 360/15G22 RMK AO2 CIG 003V007 P0000
94908KDBQ DBQ20020210064013502/10/02 06:40:31  5-MIN KDBQ 101240Z 36014G22KT 2SM -SN BR BKN005 OVC009 01/M01 A2998 1020 92 -400 360/14G22 RMK AO2 CIG 003V007 P0000
94908KDBQ DBQ20020210064513202/10/02 06:45:31  5-MIN KDBQ 101245Z 36017G22KT 1 1/2SM -SN BR OVC005 00/M01 A2998 1020 96 -500 360/17G22 RMK AO2 CIG 003V009 P0000
94908KDBQ DBQ20020210065015602/10/02 06:50:31  5-MIN KDBQ 101250Z 36015G22KT 1 1/4SM -SN BR BKN005 OVC009 00/M01 A2998 1020 96 -500 360/15G22 RMK AO2 CIG 003V007 SLP163 P0000 T00001006
94908KDBQ DBQ20020210065515202/10/02 06:55:31  5-MIN KDBQ 101255Z 01015G22KT 1SM -SN BR BKN005 OVC009 00/M01 A2999 1020 96 -500 360/15G22 RMK AO2 CIG 003V007 SLP164 P0001 T00001006
94908KDBQ DBQ20020210070012802/10/02 07:00:31  5-MIN KDBQ 101300Z 01018G23KT 1SM -SN BR OVC005 00/M01 A2999 1010 96 -500 010/18G23 RMK AO2 CIG 003V008 P0000
94908KDBQ DBQ20020210070513702/10/02 07:05:31  5-MIN KDBQ 101305Z 01017G23KT 3/4SM -SN BR BKN005 OVC009 00/M01 A2999 1010 96 -500 010/17G23 RMK AO2 CIG 003V007 P0000
94908KDBQ DBQ20020210071013002/10/02 07:10:31  5-MIN KDBQ 101310Z 01016G22KT 3/4SM -SN BR OVC005 00/M01 A3000 1010 96 -500 010/16G22 RMK AO2 CIG 003V008 P0000
94908KDBQ DBQ20020210071513502/10/02 07:15:31  5-MIN KDBQ 101315Z 36017G23KT 1SM -SN BR BKN005 OVC009 00/M01 A3001 1000 96 -500 360/17G23 RMK AO2 CIG 003V007 P0000
94908KDBQ DBQ20020210072013002/10/02 07:20:31  5-MIN KDBQ 101320Z 36016G23KT 3/4SM -SN BR OVC005 00/M01 A3001 1000 96 -500 360/16G23 RMK AO2 CIG 003V009 P0000
94908KDBQ DBQ20020210072513602/10/02 07:25:31  5-MIN KDBQ 101325Z 01016G22KT 3/4SM -SN BR BKN005 OVC009 00/M01 A3001 990 96 -500 010/16G22 RMK AO2 CIG 003V007 P0000
94908KDBQ DBQ20020210073012802/10/02 07:30:31  5-MIN KDBQ 101330Z 36016G25KT 1/2SM SN FG OVC005 00/M01 A3002 990 96 -500 360/16G25 RMK AO2 CIG 003V011 P0000
94908KDBQ DBQ20020210073512902/10/02 07:35:31  5-MIN KDBQ 101335Z 01017G25KT 3/4SM -SN BR OVC005 00/M01 A3002 990 96 -500 360/17G25 RMK AO2 CIG 003V009 P0000
94908KDBQ DBQ20020210074014702/10/02 07:40:31  5-MIN KDBQ 101340Z 01019G27KT 3/4SM -SN BR OVC005 00/M01 A3002 980 96 -500 360/19G27 RMK AO2 PK WND 01027/1338 CIG 003V010 P0000
94908KDBQ DBQ20020210074514702/10/02 07:45:31  5-MIN KDBQ 101345Z 36017G27KT 3/4SM -SN BR OVC007 00/M01 A3003 980 96 -500 360/17G27 RMK AO2 PK WND 01027/1338 CIG 003V010 P0000
94908KDBQ DBQ20020210075016402/10/02 07:50:31  5-MIN KDBQ 101350Z 36018G24KT 3/4SM -SN BR OVC007 00/M01 A3003 980 96 -500 360/18G24 RMK AO2 PK WND 01027/1338 CIG 003V010 SLP180 P0000 T00001006
94908KDBQ DBQ20020210075516402/10/02 07:55:31  5-MIN KDBQ 101355Z 01016G23KT 3/4SM -SN BR OVC007 00/M01 A3004 970 96 -500 010/16G23 RMK AO2 PK WND 01027/1338 CIG 003V011 SLP182 P0000 T00001006
94908KDBQ DBQ20020210080012702/10/02 08:00:31  5-MIN KDBQ 101400Z 01015G20KT 1SM -SN BR OVC005 00/M01 A3004 970 96 -500 010/15G20 RMK AO2 CIG 003V009 P0000
94908KDBQ DBQ20020210080515602/10/02 08:05:31  5-MIN KDBQ 101405Z 01020G27KT 1 1/4SM -SN BR BKN005 OVC012 01/M01 A3004 970 92 -500 010/20G27 RMK AO2 PK WND 02027/1404 CIG 003V009 P0000
94908KDBQ DBQ20020210081015602/10/02 08:10:31  5-MIN KDBQ 101410Z 01017G27KT 1 3/4SM -SN BR BKN005 OVC012 01/M01 A3004 970 92 -500 010/17G27 RMK AO2 PK WND 02027/1404 CIG 003V010 P0000
94908KDBQ DBQ20020210081515602/10/02 08:15:31  5-MIN KDBQ 101415Z 36015G24KT 2 1/2SM -SN BR BKN005 OVC012 01/M01 A3004 960 92 -500 360/15G24 RMK AO2 PK WND 02027/1404 CIG 003V010 P0000
94908KDBQ DBQ20020210082015202/10/02 08:20:31  5-MIN KDBQ 101420Z 01015G23KT 4SM -SN BR BKN007 OVC012 01/M01 A3005 960 92 -500 010/15G23 RMK AO2 PK WND 02027/1404 CIG 004V009 P0000
94908KDBQ DBQ20020210082515402/10/02 08:25:31  5-MIN KDBQ 101425Z 01016G22KT 4SM BR BKN007 OVC012 01/M01 A3005 960 92 -500 360/16G22 RMK AO2 PK WND 02027/1404 SNE24 CIG 004V009 P0000
94908KDBQ DBQ20020210083015402/10/02 08:30:31  5-MIN KDBQ 101430Z 36015G22KT 4SM BR BKN007 OVC012 01/M01 A3006 950 92 -500 360/15G22 RMK AO2 PK WND 02027/1404 SNE24 CIG 004V009 P0000
94908KDBQ DBQ20020210083514102/10/02 08:35:31  5-MIN KDBQ 101435Z 36017KT 4SM BR OVC007 01/M01 A3006 950 92 -500 360/17 RMK AO2 PK WND 02027/1404 SNE24 CIG 005V011 P0000
94908KDBQ DBQ20020210084014702/10/02 08:40:31  5-MIN KDBQ 101440Z 36018G22KT 4SM BR OVC007 01/M01 A3007 940 92 -500 360/18G22 RMK AO2 PK WND 02027/1404 SNE24 CIG 005V011 P0000
94908KDBQ DBQ20020210084515402/10/02 08:45:31  5-MIN KDBQ 101445Z 36016G22KT 4SM BR BKN007 OVC014 01/M01 A3007 940 92 -500 360/16G22 RMK AO2 PK WND 02027/1404 SNE24 CIG 005V011 P0000
94908KDBQ DBQ20020210085018302/10/02 08:50:31  5-MIN KDBQ 101450Z 36019G24KT 4SM BR BKN009 OVC013 01/M01 A3007 940 92 -500 360/19G24 RMK AO2 PK WND 02027/1404 SNE24 CIG 005V012 SLP194 P0000 60001 T00061006 53034
94908KDBQ DBQ20020210085518302/10/02 08:55:31  5-MIN KDBQ 101455Z 36017G24KT 4SM BR BKN007 OVC013 01/M01 A3007 940 92 -500 360/17G24 RMK AO2 PK WND 02027/1404 SNE24 CIG 005V010 SLP194 P0000 60001 T00061006 51042
94908KDBQ DBQ20020210090010602/10/02 09:00:31  5-MIN KDBQ 101500Z 36017KT 4SM BR SCT008 OVC013 01/M01 A3007 940 92 -500 360/17 RMK AO2
94908KDBQ DBQ20020210090512402/10/02 09:05:31  5-MIN KDBQ 101505Z 36014G23KT 3SM BR BKN010 OVC015 01/M01 A3007 940 92 -500 360/14G23 RMK AO2 CIG 006V013
94908KDBQ DBQ20020210091012402/10/02 09:10:31  5-MIN KDBQ 101510Z 36018G23KT 4SM BR BKN010 OVC016 01/M01 A3007 940 92 -500 360/18G23 RMK AO2 CIG 006V012
94908KDBQ DBQ20020210091511202/10/02 09:15:31  5-MIN KDBQ 101515Z 36016G24KT 5SM BR SCT010 OVC016 01/M01 A3008 930 92 -500 360/16G24 RMK AO2
94908KDBQ DBQ20020210092011202/10/02 09:20:31  5-MIN KDBQ 101520Z 36015G24KT 5SM BR SCT010 OVC014 01/M01 A3008 930 92 -500 360/15G24 RMK AO2
94908KDBQ DBQ20020210092514002/10/02 09:25:31  5-MIN KDBQ 101525Z 36016G21KT 4SM -SN BR BKN010 OVC016 01/M01 A3009 920 92 -500 360/16G21 RMK AO2 SNB25 CIG 006V012 P0000
94908KDBQ DBQ20020210093012802/10/02 09:30:31  5-MIN KDBQ 101530Z 36018G25KT 3SM -SN BR SCT008 OVC014 01/M01 A3009 920 92 -500 360/18G25 RMK AO2 SNB25 P0000
94908KDBQ DBQ20020210093512702/10/02 09:35:31  5-MIN KDBQ 101535Z 36016G25KT 4SM BR BKN010 OVC016 01/M01 A3009 920 92 -500 360/16G25 RMK AO2 SNB25E35 P0000
94908KDBQ DBQ20020210094012702/10/02 09:40:31  5-MIN KDBQ 101540Z 36016G22KT 5SM BR SCT009 OVC014 01/M01 A3010 910 92 -500 360/16G22 RMK AO2 SNB25E35 P0000
94908KDBQ DBQ20020210094512002/10/02 09:45:31  5-MIN KDBQ 101545Z 36014G22KT 6SM BR OVC012 01/M01 A3010 910 92 -500 360/14G22 RMK AO2 SNB25E35 P0000
94908KDBQ DBQ20020210095013402/10/02 09:50:31  5-MIN KDBQ 101550Z 36014G22KT 7SM OVC010 01/M01 A3010 910 92 -500 350/14G22 RMK AO2 SNB25E35 SLP204 P0000 T00061006
94908KDBQ DBQ20020210095514102/10/02 09:55:31  5-MIN KDBQ 101555Z 36016G21KT 8SM BKN013 OVC018 01/M01 A3011 910 85 -500 360/16G21 RMK AO2 SNB25E35 SLP205 P0000 T00111011
94908KDBQ DBQ20020210100010302/10/02 10:00:31  5-MIN KDBQ 101600Z 36017KT 8SM BKN012 OVC018 01/M01 A3011 900 85 -500 360/17 RMK AO2
94908KDBQ DBQ20020210100510302/10/02 10:05:31  5-MIN KDBQ 101605Z 36017KT 9SM BKN012 OVC018 01/M01 A3012 900 85 -500 360/17 RMK AO2
94908KDBQ DBQ20020210101012002/10/02 10:10:31  5-MIN KDBQ 101610Z 36017G26KT 9SM OVC012 01/M01 A3012 900 85 -500 360/17G26 RMK AO2 PK WND 01026/1606
94908KDBQ DBQ20020210101512702/10/02 10:15:31  5-MIN KDBQ 101615Z 36019G26KT 9SM BKN014 OVC019 01/M01 A3011 900 85 -500 360/19G26 RMK AO2 PK WND 01026/1606
94908KDBQ DBQ20020210102013502/10/02 10:20:31  5-MIN KDBQ 101620Z 36017G26KT 10SM BKN012 BKN018 OVC023 01/M02 A3011 900 82 -500 360/17G26 RMK AO2 PK WND 01026/1617
94908KDBQ DBQ20020210102512802/10/02 10:25:31  5-MIN KDBQ 101625Z 36016G26KT 10SM BKN014 OVC023 01/M02 A3012 900 82 -500 360/16G26 RMK AO2 PK WND 01026/1617
94908KDBQ DBQ20020210103013502/10/02 10:30:31  5-MIN KDBQ 101630Z 36017G27KT 10SM BKN014 BKN020 OVC025 01/M02 A3012 890 82 -500 360/17G27 RMK AO2 PK WND 01027/1627
94908KDBQ DBQ20020210103512802/10/02 10:35:31  5-MIN KDBQ 101635Z 01018G27KT 10SM BKN017 OVC024 01/M02 A3012 890 78 -500 010/18G27 RMK AO2 PK WND 01027/1627
94908KDBQ DBQ20020210104012802/10/02 10:40:31  5-MIN KDBQ 101640Z 36019G25KT 10SM BKN019 OVC026 01/M02 A3013 890 78 -500 360/19G25 RMK AO2 PK WND 01027/1627
94908KDBQ DBQ20020210104512802/10/02 10:45:31  5-MIN KDBQ 101645Z 36017G25KT 10SM BKN019 OVC024 01/M02 A3013 880 78 -500 360/17G25 RMK AO2 PK WND 01027/1627
94908KDBQ DBQ20020210105014502/10/02 10:50:31  5-MIN KDBQ 101650Z 01021G26KT 10SM BKN019 OVC024 01/M02 A3014 880 78 -500 010/21G26 RMK AO2 PK WND 01027/1627 SLP215 T00111022
94908KDBQ DBQ20020210105513802/10/02 10:55:31  5-MIN KDBQ 101655Z 36016G26KT 10SM OVC024 01/M03 A3014 870 75 -500 360/16G26 RMK AO2 PK WND 01027/1627 SLP217 T00111028
94908KDBQ DBQ20020210110010302/10/02 11:00:31  5-MIN KDBQ 101700Z 01018G23KT 10SM OVC022 01/M03 A3014 870 75 -500 010/18G23 RMK AO2
94908KDBQ DBQ20020210110510302/10/02 11:05:31  5-MIN KDBQ 101705Z 36017G23KT 10SM OVC022 01/M03 A3015 870 75 -500 360/17G23 RMK AO2
94908KDBQ DBQ20020210111012802/10/02 11:10:31  5-MIN KDBQ 101710Z 01022G28KT 10SM BKN022 OVC029 01/M03 A3014 870 72 -500 010/22G28 RMK AO2 PK WND 01028/1709
94908KDBQ DBQ20020210111512802/10/02 11:15:31  5-MIN KDBQ 101715Z 01018G30KT 10SM BKN024 OVC030 01/M03 A3015 870 75 -500 010/18G30 RMK AO2 PK WND 01030/1711
94908KDBQ DBQ20020210112012802/10/02 11:20:31  5-MIN KDBQ 101720Z 01020G30KT 10SM BKN024 OVC030 01/M03 A3015 870 72 -500 010/20G30 RMK AO2 PK WND 01030/1711
94908KDBQ DBQ20020210112512802/10/02 11:25:31  5-MIN KDBQ 101725Z 36015G26KT 10SM BKN021 OVC027 01/M03 A3016 860 75 -500 360/15G26 RMK AO2 PK WND 01030/1711
94908KDBQ DBQ20020210113012202/10/02 11:30:31  5-MIN KDBQ 101730Z 35018KT 10SM BKN019 OVC027 01/M02 A3016 860 78 -500 350/18 RMK AO2 PK WND 01030/1711
94908KDBQ DBQ20020210113512202/10/02 11:35:31  5-MIN KDBQ 101735Z 36014KT 10SM BKN019 OVC027 01/M02 A3016 860 78 -500 360/14 RMK AO2 PK WND 01030/1711
94908KDBQ DBQ20020210114012802/10/02 11:40:31  5-MIN KDBQ 101740Z 36016G20KT 10SM BKN019 OVC027 01/M02 A3016 860 78 -500 360/16G20 RMK AO2 PK WND 01030/1711
94908KDBQ DBQ20020210114512102/10/02 11:45:31  5-MIN KDBQ 101745Z 35014G20KT 10SM OVC019 01/M02 A3016 860 78 -500 350/14G20 RMK AO2 PK WND 01030/1711
94908KDBQ DBQ20020210115016202/10/02 11:50:31  5-MIN KDBQ 101750Z 36015G19KT 10SM OVC019 01/M02 A3015 860 78 -500 350/15G19 RMK AO2 PK WND 01030/1711 SLP221 60001 T00111022 10011 20000 51042
94908KDBQ DBQ20020210115516202/10/02 11:55:31  5-MIN KDBQ 101755Z 36015G22KT 10SM OVC019 01/M03 A3015 860 75 -500 360/15G22 RMK AO2 PK WND 01030/1711 SLP221 60001 T00111028 10011 20000 51026
94908KDBQ DBQ20020210120010302/10/02 12:00:31  5-MIN KDBQ 101800Z 01014G25KT 10SM OVC019 01/M03 A3015 860 75 -500 010/14G25 RMK AO2
94908KDBQ DBQ20020210120510302/10/02 12:05:31  5-MIN KDBQ 101805Z 36018G25KT 10SM OVC019 01/M03 A3016 860 75 -500 360/18G25 RMK AO2
94908KDBQ DBQ20020210121012102/10/02 12:10:31  5-MIN KDBQ 101810Z 36014G27KT 10SM OVC019 01/M03 A3016 860 75 -500 360/14G27 RMK AO2 PK WND 01027/1807
94908KDBQ DBQ20020210121512102/10/02 12:15:31  5-MIN KDBQ 101815Z 01016G27KT 10SM OVC021 01/M03 A3016 850 75 -500 360/16G27 RMK AO2 PK WND 01027/1807
94908KDBQ DBQ20020210122012102/10/02 12:20:31  5-MIN KDBQ 101820Z 36019G26KT 10SM OVC021 01/M03 A3016 860 75 -500 360/19G26 RMK AO2 PK WND 01027/1807
94908KDBQ DBQ20020210122512102/10/02 12:25:31  5-MIN KDBQ 101825Z 36015G23KT 10SM OVC023 01/M03 A3016 850 75 -500 360/15G23 RMK AO2 PK WND 01027/1807
94908KDBQ DBQ20020210123012802/10/02 12:30:31  5-MIN KDBQ 101830Z 36013G23KT 10SM BKN020 OVC025 01/M03 A3017 840 75 -600 360/13G23 RMK AO2 PK WND 01027/1807
94908KDBQ DBQ20020210123512802/10/02 12:35:31  5-MIN KDBQ 101835Z 36017G23KT 10SM BKN018 OVC025 01/M03 A3017 840 78 -600 360/17G23 RMK AO2 PK WND 01027/1807
94908KDBQ DBQ20020210124012802/10/02 12:40:31  5-MIN KDBQ 101840Z 35014G22KT 10SM BKN020 OVC025 01/M03 A3017 850 78 -600 350/14G22 RMK AO2 PK WND 01027/1807
94908KDBQ DBQ20020210124511502/10/02 12:45:31  5-MIN KDBQ 101845Z 36014KT 10SM OVC020 01/M03 A3017 840 78 -600 360/14 RMK AO2 PK WND 01027/1807
94908KDBQ DBQ20020210125013802/10/02 12:50:31  5-MIN KDBQ 101850Z 35019G23KT 10SM OVC020 01/M03 A3018 840 75 -600 350/19G23 RMK AO2 PK WND 01027/1807 SLP231 T00061033
94908KDBQ DBQ20020210125514502/10/02 12:55:31  5-MIN KDBQ 101855Z 01015G23KT 10SM BKN020 OVC026 01/M03 A3017 850 75 -600 010/15G23 RMK AO2 PK WND 01027/1807 SLP229 T00061033
94908KDBQ DBQ20020210130011002/10/02 13:00:31  5-MIN KDBQ 101900Z 36013G25KT 10SM BKN022 OVC027 01/M03 A3018 840 75 -600 360/13G25 RMK AO2
94908KDBQ DBQ20020210130510302/10/02 13:05:31  5-MIN KDBQ 101905Z 36014G25KT 10SM OVC022 01/M03 A3018 840 75 -600 360/14G25 RMK AO2
94908KDBQ DBQ20020210131010302/10/02 13:10:31  5-MIN KDBQ 101910Z 35012G24KT 10SM OVC022 01/M03 A3019 830 75 -600 350/12G24 RMK AO2
94908KDBQ DBQ20020210131510402/10/02 13:15:31  5-MIN KDBQ 101915Z 35012KT 10SM BKN020 OVC026 01/M03 A3019 830 78 -600 350/12 RMK AO2
94908KDBQ DBQ20020210132010402/10/02 13:20:31  5-MIN KDBQ 101920Z 35014KT 10SM BKN020 OVC025 01/M03 A3019 830 78 -600 350/14 RMK AO2
94908KDBQ DBQ20020210132509702/10/02 13:25:31  5-MIN KDBQ 101925Z 35015KT 10SM OVC020 01/M03 A3019 830 78 -600 350/15 RMK AO2
94908KDBQ DBQ20020210133009702/10/02 13:30:31  5-MIN KDBQ 101930Z 35015KT 10SM OVC020 01/M03 A3019 830 78 -600 350/15 RMK AO2
94908KDBQ DBQ20020210133509702/10/02 13:35:31  5-MIN KDBQ 101935Z 35016KT 10SM OVC020 01/M03 A3020 820 78 -700 350/16 RMK AO2
94908KDBQ DBQ20020210134009702/10/02 13:40:31  5-MIN KDBQ 101940Z 34014KT 10SM OVC020 01/M03 A3020 820 78 -700 340/14 RMK AO2
94908KDBQ DBQ20020210134509702/10/02 13:45:31  5-MIN KDBQ 101945Z 34016KT 10SM OVC020 01/M03 A3020 820 75 -700 340/16 RMK AO2
94908KDBQ DBQ20020210135011402/10/02 13:50:31  5-MIN KDBQ 101950Z 35015KT 10SM OVC020 00/M03 A3020 820 78 -700 350/15 RMK AO2 SLP238 T00001033
94908KDBQ DBQ20020210135511402/10/02 13:55:31  5-MIN KDBQ 101955Z 34015KT 10SM OVC020 00/M03 A3020 820 78 -700 340/15 RMK AO2 SLP239 T00001033
94908KDBQ DBQ20020210140010302/10/02 14:00:31  5-MIN KDBQ 102000Z 35015G20KT 10SM OVC022 00/M03 A3020 820 78 -700 350/15G20 RMK AO2
94908KDBQ DBQ20020210140511002/10/02 14:05:31  5-MIN KDBQ 102005Z 35015G20KT 10SM BKN022 OVC027 00/M03 A3020 820 78 -700 350/15G20 RMK AO2
94908KDBQ DBQ20020210141010402/10/02 14:10:31  5-MIN KDBQ 102010Z 36013KT 10SM BKN022 OVC027 01/M03 A3019 830 75 -600 360/13 RMK AO2
94908KDBQ DBQ20020210141510402/10/02 14:15:31  5-MIN KDBQ 102015Z 35014KT 10SM SCT022 BKN027 01/M03 A3019 830 75 -600 350/14 RMK AO2
94908KDBQ DBQ20020210142009702/10/02 14:20:31  5-MIN KDBQ 102020Z 35016KT 10SM BKN025 01/M04 A3021 810 69 -600 350/16 RMK AO2
94908KDBQ DBQ20020210142511002/10/02 14:25:31  5-MIN KDBQ 102025Z 36017G20KT 10SM FEW021 BKN027 01/M04 A3021 810 69 -600 360/17G20 RMK AO2
94908KDBQ DBQ20020210143009702/10/02 14:30:31  5-MIN KDBQ 102030Z 36013KT 10SM BKN027 01/M04 A3021 810 69 -600 360/13 RMK AO2
94908KDBQ DBQ20020210143510302/10/02 14:35:31  5-MIN KDBQ 102035Z 34015G19KT 10SM BKN027 01/M04 A3022 810 69 -600 340/15G19 RMK AO2
94908KDBQ DBQ20020210144010302/10/02 14:40:31  5-MIN KDBQ 102040Z 33013G19KT 10SM BKN027 01/M03 A3022 800 72 -600 330/13G19 RMK AO2
94908KDBQ DBQ20020210144511002/10/02 14:45:31  5-MIN KDBQ 102045Z 35017G20KT 10SM BKN027 BKN032 01/M03 A3022 800 72 -600 340/17G20 RMK AO2
94908KDBQ DBQ20020210145013302/10/02 14:50:31  5-MIN KDBQ 102050Z 34017G21KT 10SM BKN027 OVC032 01/M04 A3023 800 69 -600 330/17G21 RMK AO2 SLP246 T00111039 51026
94908KDBQ DBQ20020210145513302/10/02 14:55:31  5-MIN KDBQ 102055Z 35013G23KT 10SM BKN027 BKN034 01/M04 A3023 790 66 -600 340/13G23 RMK AO2 SLP247 T00111044 53025
94908KDBQ DBQ20020210150011002/10/02 15:00:31  5-MIN KDBQ 102100Z 34016G23KT 10SM BKN027 BKN033 01/M04 A3023 790 66 -600 340/16G23 RMK AO2
94908KDBQ DBQ20020210150510402/10/02 15:05:31  5-MIN KDBQ 102105Z 35014KT 10SM FEW025 BKN031 01/M04 A3023 790 66 -600 350/14 RMK AO2
94908KDBQ DBQ20020210151011002/10/02 15:10:31  5-MIN KDBQ 102110Z 36015G22KT 10SM FEW025 BKN031 01/M05 A3023 790 64 -600 360/15G22 RMK AO2
94908KDBQ DBQ20020210151510302/10/02 15:15:31  5-MIN KDBQ 102115Z 35012G22KT 10SM BKN031 01/M05 A3023 790 64 -600 350/12G22 RMK AO2
94908KDBQ DBQ20020210152009702/10/02 15:20:31  5-MIN KDBQ 102120Z 36014KT 10SM SCT031 02/M05 A3023 790 61 -600 360/14 RMK AO2
94908KDBQ DBQ20020210152509702/10/02 15:25:31  5-MIN KDBQ 102125Z 36012KT 10SM SCT031 02/M05 A3023 790 61 -500 360/12 RMK AO2
94908KDBQ DBQ20020210153009702/10/02 15:30:31  5-MIN KDBQ 102130Z 35009KT 10SM FEW033 02/M05 A3024 780 61 -600 350/09 RMK AO2
94908KDBQ DBQ20020210153510302/10/02 15:35:31  5-MIN KDBQ 102135Z 35014G18KT 10SM FEW033 02/M05 A3024 780 61 -600 350/14G18 RMK AO2
94908KDBQ DBQ20020210154010302/10/02 15:40:31  5-MIN KDBQ 102140Z 35017G20KT 10SM FEW033 01/M06 A3025 780 61 -600 350/17G20 RMK AO2
94908KDBQ DBQ20020210154509702/10/02 15:45:31  5-MIN KDBQ 102145Z 35013KT 10SM FEW033 01/M06 A3025 770 61 -600 350/13 RMK AO2
94908KDBQ DBQ20020210155011402/10/02 15:50:31  5-MIN KDBQ 102150Z 33015KT 10SM FEW033 01/M04 A3026 770 66 -600 330/15 RMK AO2 SLP257 T00111044
94908KDBQ DBQ20020210155511402/10/02 15:55:31  5-MIN KDBQ 102155Z 34014KT 10SM FEW032 01/M04 A3026 770 69 -700 340/14 RMK AO2 SLP258 T00111039
94908KDBQ DBQ20020210160009702/10/02 16:00:31  5-MIN KDBQ 102200Z 34013KT 10SM SCT032 01/M04 A3026 760 66 -700 330/13 RMK AO2
94908KDBQ DBQ20020210160509702/10/02 16:05:31  5-MIN KDBQ 102205Z 35011KT 10SM SCT032 01/M04 A3026 770 66 -600 340/11 RMK AO2
94908KDBQ DBQ20020210161010302/10/02 16:10:31  5-MIN KDBQ 102210Z 36013G18KT 10SM SCT032 01/M06 A3026 770 61 -600 360/13G18 RMK AO2
94908KDBQ DBQ20020210161510302/10/02 16:15:31  5-MIN KDBQ 102215Z 33014G18KT 10SM FEW032 01/M06 A3026 770 58 -600 330/14G18 RMK AO2
94908KDBQ DBQ20020210162009702/10/02 16:20:31  5-MIN KDBQ 102220Z 33015KT 10SM SCT032 01/M05 A3027 760 64 -700 330/15 RMK AO2
94908KDBQ DBQ20020210162509702/10/02 16:25:31  5-MIN KDBQ 102225Z 34012KT 10SM FEW032 01/M04 A3027 760 66 -700 330/12 RMK AO2
94908KDBQ DBQ20020210163009702/10/02 16:30:31  5-MIN KDBQ 102230Z 33015KT 10SM FEW032 01/M04 A3028 750 66 -700 330/15 RMK AO2
94908KDBQ DBQ20020210163509402/10/02 16:35:31  5-MIN KDBQ 102235Z 33016KT 10SM CLR 01/M05 A3028 750 66 -700 330/16 RMK AO2
94908KDBQ DBQ20020210164009402/10/02 16:40:31  5-MIN KDBQ 102240Z 33016KT 10SM CLR 01/M06 A3028 750 63 -700 330/16 RMK AO2
94908KDBQ DBQ20020210164509402/10/02 16:45:31  5-MIN KDBQ 102245Z 34017KT 10SM CLR 01/M05 A3028 750 66 -700 340/17 RMK AO2
94908KDBQ DBQ20020210165011102/10/02 16:50:31  5-MIN KDBQ 102250Z 34015KT 10SM CLR 01/M06 A3028 750 63 -700 340/15 RMK AO2 SLP267 T00061056
94908KDBQ DBQ20020210165511102/10/02 16:55:31  5-MIN KDBQ 102255Z 34015KT 10SM CLR 01/M06 A3028 740 61 -700 330/15 RMK AO2 SLP267 T00061061
94908KDBQ DBQ20020210170009402/10/02 17:00:31  5-MIN KDBQ 102300Z 34013KT 10SM CLR 01/M06 A3029 740 61 -800 330/13 RMK AO2
94908KDBQ DBQ20020210170509402/10/02 17:05:31  5-MIN KDBQ 102305Z 34014KT 10SM CLR 01/M06 A3029 740 61 -800 340/14 RMK AO2
94908KDBQ DBQ20020210171009402/10/02 17:10:31  5-MIN KDBQ 102310Z 34015KT 10SM CLR 01/M06 A3030 730 61 -800 340/15 RMK AO2
94908KDBQ DBQ20020210171509402/10/02 17:15:31  5-MIN KDBQ 102315Z 33013KT 10SM CLR 00/M06 A3030 730 63 -800 330/13 RMK AO2
94908KDBQ DBQ20020210172009402/10/02 17:20:31  5-MIN KDBQ 102320Z 34012KT 10SM CLR 00/M06 A3030 730 63 -800 330/12 RMK AO2
94908KDBQ DBQ20020210172509402/10/02 17:25:31  5-MIN KDBQ 102325Z 34011KT 10SM CLR 00/M06 A3030 730 63 -800 340/11 RMK AO2
94908KDBQ DBQ20020210173009402/10/02 17:30:31  5-MIN KDBQ 102330Z 34011KT 10SM CLR 00/M06 A3031 720 63 -800 340/11 RMK AO2
94908KDBQ DBQ20020210173509502/10/02 17:35:31  5-MIN KDBQ 102335Z 34011KT 10SM CLR M01/M06 A3031 720 66 -900 340/11 RMK AO2
94908KDBQ DBQ20020210174009502/10/02 17:40:31  5-MIN KDBQ 102340Z 33010KT 10SM CLR M01/M06 A3031 720 66 -900 330/10 RMK AO2
94908KDBQ DBQ20020210174509502/10/02 17:45:31  5-MIN KDBQ 102345Z 33010KT 10SM CLR M01/M06 A3031 720 69 -900 330/10 RMK AO2
94908KDBQ DBQ20020210175013002/10/02 17:50:31  5-MIN KDBQ 102350Z 34010KT 10SM CLR M01/M06 A3031 720 69 -900 330/10 RMK AO2 SLP277 T10061056 10017 21006 53025
94908KDBQ DBQ20020210175513002/10/02 17:55:31  5-MIN KDBQ 102355Z 33010KT 10SM CLR M01/M06 A3032 720 69 -900 330/10 RMK AO2 SLP278 T10061056 10017 21006 53028
94908KDBQ DBQ20020210180009502/10/02 18:00:31  5-MIN KDBQ 110000Z 33011KT 10SM CLR M01/M06 A3032 710 69 -900 330/11 RMK AO2
94908KDBQ DBQ20020210180509502/10/02 18:05:31  5-MIN KDBQ 110005Z 33010KT 10SM CLR M01/M06 A3032 710 69 -900 330/10 RMK AO2
94908KDBQ DBQ20020210181009502/10/02 18:10:31  5-MIN KDBQ 110010Z 34012KT 10SM CLR M01/M06 A3033 700 69 -900 340/12 RMK AO2
94908KDBQ DBQ20020210181509502/10/02 18:15:31  5-MIN KDBQ 110015Z 33012KT 10SM CLR M01/M06 A3033 700 69 -900 330/12 RMK AO2
94908KDBQ DBQ20020210182009502/10/02 18:20:31  5-MIN KDBQ 110020Z 33012KT 10SM CLR M01/M06 A3033 700 69 -900 330/12 RMK AO2
94908KDBQ DBQ20020210182509602/10/02 18:25:31  5-MIN KDBQ 110025Z 34010KT 10SM CLR M01/M06 A3034 690 72 -1000 330/10 RMK AO2
94908KDBQ DBQ20020210183009902/10/02 18:30:31  5-MIN KDBQ 110030Z 33011KT 10SM FEW034 M01/M06 A3034 690 72 -1000 330/11 RMK AO2
94908KDBQ DBQ20020210183509902/10/02 18:35:31  5-MIN KDBQ 110035Z 33011KT 10SM FEW034 M01/M06 A3034 690 66 -1000 330/11 RMK AO2
94908KDBQ DBQ20020210184009902/10/02 18:40:31  5-MIN KDBQ 110040Z 33010KT 10SM FEW034 M01/M06 A3034 690 69 -1000 330/10 RMK AO2
94908KDBQ DBQ20020210184509902/10/02 18:45:31  5-MIN KDBQ 110045Z 33010KT 10SM FEW034 M01/M06 A3034 690 69 -1000 330/10 RMK AO2
94908KDBQ DBQ20020210185011602/10/02 18:50:31  5-MIN KDBQ 110050Z 34010KT 10SM FEW034 M01/M06 A3034 690 69 -1000 340/10 RMK AO2 SLP288 T10111061
94908KDBQ DBQ20020210185511602/10/02 18:55:31  5-MIN KDBQ 110055Z 33010KT 10SM FEW034 M01/M07 A3034 690 66 -1000 330/10 RMK AO2 SLP289 T10111067
94908KDBQ DBQ20020210190009602/10/02 19:00:31  5-MIN KDBQ 110100Z 34010KT 10SM CLR M01/M06 A3034 690 69 -1000 330/10 RMK AO2
94908KDBQ DBQ20020210190509602/10/02 19:05:31  5-MIN KDBQ 110105Z 34010KT 10SM CLR M01/M06 A3035 690 69 -1000 340/10 RMK AO2
94908KDBQ DBQ20020210191009602/10/02 19:10:31  5-MIN KDBQ 110110Z 34009KT 10SM CLR M01/M06 A3035 690 69 -1000 330/09 RMK AO2
94908KDBQ DBQ20020210191509602/10/02 19:15:31  5-MIN KDBQ 110115Z 33008KT 10SM CLR M02/M07 A3035 680 69 -1100 330/08 RMK AO2
94908KDBQ DBQ20020210192009602/10/02 19:20:31  5-MIN KDBQ 110120Z 34009KT 10SM CLR M02/M06 A3035 680 72 -1100 340/09 RMK AO2
94908KDBQ DBQ20020210192509602/10/02 19:25:31  5-MIN KDBQ 110125Z 34008KT 10SM CLR M02/M07 A3035 680 69 -1100 340/08 RMK AO2
94908KDBQ DBQ20020210193009602/10/02 19:30:31  5-MIN KDBQ 110130Z 33010KT 10SM CLR M02/M07 A3036 680 69 -1100 330/10 RMK AO2
94908KDBQ DBQ20020210193509602/10/02 19:35:31  5-MIN KDBQ 110135Z 34010KT 10SM CLR M02/M07 A3036 670 69 -1100 340/10 RMK AO2
94908KDBQ DBQ20020210194009602/10/02 19:40:31  5-MIN KDBQ 110140Z 34010KT 10SM CLR M02/M07 A3036 670 69 -1100 340/10 RMK AO2
94908KDBQ DBQ20020210194509602/10/02 19:45:31  5-MIN KDBQ 110145Z 34010KT 10SM CLR M02/M07 A3036 670 69 -1100 340/10 RMK AO2
94908KDBQ DBQ20020210195011302/10/02 19:50:31  5-MIN KDBQ 110150Z 34010KT 10SM CLR M02/M07 A3036 670 69 -1100 340/10 RMK AO2 SLP296 T10171067
94908KDBQ DBQ20020210195511302/10/02 19:55:31  5-MIN KDBQ 110155Z 34009KT 10SM CLR M02/M07 A3037 670 69 -1100 340/09 RMK AO2 SLP297 T10171067
94908KDBQ DBQ20020210200010602/10/02 20:00:31  5-MIN KDBQ 110200Z AUTO 34010KT 10SM CLR M02/M07 A3037 660 69 -1100 340/10 RMK AO2 TSNO
94908KDBQ DBQ20020210200510602/10/02 20:05:31  5-MIN KDBQ 110205Z AUTO 35010KT 10SM CLR M02/M07 A3037 660 66 -1100 340/10 RMK AO2 TSNO
94908KDBQ DBQ20020210201010602/10/02 20:10:31  5-MIN KDBQ 110210Z AUTO 34010KT 10SM CLR M02/M07 A3037 660 66 -1100 340/10 RMK AO2 TSNO
94908KDBQ DBQ20020210201510602/10/02 20:15:31  5-MIN KDBQ 110215Z AUTO 34010KT 10SM CLR M02/M07 A3037 660 66 -1100 340/10 RMK AO2 TSNO
94908KDBQ DBQ20020210202010602/10/02 20:20:31  5-MIN KDBQ 110220Z AUTO 34009KT 10SM CLR M02/M07 A3038 660 66 -1100 340/09 RMK AO2 TSNO
94908KDBQ DBQ20020210202510602/10/02 20:25:31  5-MIN KDBQ 110225Z AUTO 34008KT 10SM CLR M02/M07 A3038 660 69 -1200 340/08 RMK AO2 TSNO
94908KDBQ DBQ20020210203010602/10/02 20:30:31  5-MIN KDBQ 110230Z AUTO 34008KT 10SM CLR M02/M07 A3038 660 69 -1200 340/08 RMK AO2 TSNO
94908KDBQ DBQ20020210203510602/10/02 20:35:31  5-MIN KDBQ 110235Z AUTO 34009KT 10SM CLR M02/M07 A3038 660 72 -1200 340/09 RMK AO2 TSNO
94908KDBQ DBQ20020210204010602/10/02 20:40:31  5-MIN KDBQ 110240Z AUTO 34009KT 10SM CLR M02/M07 A3038 660 72 -1200 330/09 RMK AO2 TSNO
94908KDBQ DBQ20020210204510602/10/02 20:45:31  5-MIN KDBQ 110245Z AUTO 33009KT 10SM CLR M02/M07 A3038 650 69 -1200 330/09 RMK AO2 TSNO
94908KDBQ DBQ20020210205012902/10/02 20:50:31  5-MIN KDBQ 110250Z AUTO 33010KT 10SM CLR M02/M07 A3038 650 69 -1200 330/10 RMK AO2 SLP303 T10221072 53028 TSNO
94908KDBQ DBQ20020210205512902/10/02 20:55:31  5-MIN KDBQ 110255Z AUTO 34009KT 10SM CLR M02/M07 A3038 650 69 -1200 340/09 RMK AO2 SLP303 T10221072 51023 TSNO
94908KDBQ DBQ20020210210010602/10/02 21:00:31  5-MIN KDBQ 110300Z AUTO 34009KT 10SM CLR M02/M07 A3039 650 69 -1200 340/09 RMK AO2 TSNO
94908KDBQ DBQ20020210210510602/10/02 21:05:31  5-MIN KDBQ 110305Z AUTO 35009KT 10SM CLR M03/M07 A3039 650 71 -1300 350/09 RMK AO2 TSNO
94908KDBQ DBQ20020210211010602/10/02 21:10:31  5-MIN KDBQ 110310Z AUTO 35010KT 10SM CLR M02/M07 A3039 650 69 -1200 350/10 RMK AO2 TSNO
94908KDBQ DBQ20020210211510602/10/02 21:15:31  5-MIN KDBQ 110315Z AUTO 35012KT 10SM CLR M02/M08 A3039 650 66 -1200 350/12 RMK AO2 TSNO
94908KDBQ DBQ20020210212010602/10/02 21:20:31  5-MIN KDBQ 110320Z AUTO 35010KT 10SM CLR M02/M08 A3039 650 66 -1200 350/10 RMK AO2 TSNO
94908KDBQ DBQ20020210212510602/10/02 21:25:31  5-MIN KDBQ 110325Z AUTO 35010KT 10SM CLR M02/M08 A3039 650 66 -1200 350/10 RMK AO2 TSNO
94908KDBQ DBQ20020210213010602/10/02 21:30:31  5-MIN KDBQ 110330Z AUTO 35010KT 10SM CLR M03/M08 A3039 650 68 -1300 350/10 RMK AO2 TSNO
94908KDBQ DBQ20020210213510602/10/02 21:35:31  5-MIN KDBQ 110335Z AUTO 35010KT 10SM CLR M03/M08 A3039 650 68 -1300 350/10 RMK AO2 TSNO
94908KDBQ DBQ20020210214010602/10/02 21:40:31  5-MIN KDBQ 110340Z AUTO 35009KT 10SM CLR M03/M08 A3039 650 68 -1300 350/09 RMK AO2 TSNO
94908KDBQ DBQ20020210214510602/10/02 21:45:31  5-MIN KDBQ 110345Z AUTO 35010KT 10SM CLR M03/M08 A3039 650 68 -1300 350/10 RMK AO2 TSNO
94908KDBQ DBQ20020210215012302/10/02 21:50:31  5-MIN KDBQ 110350Z AUTO 35009KT 10SM CLR M03/M08 A3039 640 68 -1300 350/09 RMK AO2 SLP306 T10281078 TSNO
94908KDBQ DBQ20020210215512302/10/02 21:55:31  5-MIN KDBQ 110355Z AUTO 35008KT 10SM CLR M03/M08 A3039 640 68 -1300 350/08 RMK AO2 SLP306 T10281078 TSNO
94908KDBQ DBQ20020210220010602/10/02 22:00:31  5-MIN KDBQ 110400Z AUTO 35008KT 10SM CLR M03/M08 A3039 640 68 -1300 350/08 RMK AO2 TSNO
94908KDBQ DBQ20020210220510602/10/02 22:05:31  5-MIN KDBQ 110405Z AUTO 36007KT 10SM CLR M03/M08 A3039 640 68 -1300 350/07 RMK AO2 TSNO
94908KDBQ DBQ20020210221010602/10/02 22:10:31  5-MIN KDBQ 110410Z AUTO 35007KT 10SM CLR M03/M08 A3039 640 68 -1300 350/07 RMK AO2 TSNO
94908KDBQ DBQ20020210221510602/10/02 22:15:31  5-MIN KDBQ 110415Z AUTO 35007KT 10SM CLR M03/M08 A3039 640 66 -1300 350/07 RMK AO2 TSNO
94908KDBQ DBQ20020210222010602/10/02 22:20:31  5-MIN KDBQ 110420Z AUTO 35008KT 10SM CLR M03/M08 A3040 640 71 -1400 350/08 RMK AO2 TSNO
94908KDBQ DBQ20020210222510602/10/02 22:25:31  5-MIN KDBQ 110425Z AUTO 35008KT 10SM CLR M03/M08 A3040 640 71 -1400 350/08 RMK AO2 TSNO
94908KDBQ DBQ20020210223010602/10/02 22:30:31  5-MIN KDBQ 110430Z AUTO 34008KT 10SM CLR M03/M08 A3040 640 68 -1400 340/08 RMK AO2 TSNO
94908KDBQ DBQ20020210223510602/10/02 22:35:31  5-MIN KDBQ 110435Z AUTO 34008KT 10SM CLR M03/M08 A3040 640 68 -1400 340/08 RMK AO2 TSNO
94908KDBQ DBQ20020210224010602/10/02 22:40:31  5-MIN KDBQ 110440Z AUTO 34009KT 10SM CLR M03/M08 A3040 640 68 -1400 340/09 RMK AO2 TSNO
94908KDBQ DBQ20020210224510602/10/02 22:45:31  5-MIN KDBQ 110445Z AUTO 34009KT 10SM CLR M03/M08 A3040 640 68 -1400 340/09 RMK AO2 TSNO
94908KDBQ DBQ20020210225012302/10/02 22:50:31  5-MIN KDBQ 110450Z AUTO 34007KT 10SM CLR M04/M08 A3040 640 71 -1400 340/07 RMK AO2 SLP307 T10391083 TSNO
94908KDBQ DBQ20020210225512302/10/02 22:55:31  5-MIN KDBQ 110455Z AUTO 33006KT 10SM CLR M04/M08 A3040 640 71 -1400 330/06 RMK AO2 SLP307 T10391083 TSNO
94908KDBQ DBQ20020210230010602/10/02 23:00:31  5-MIN KDBQ 110500Z AUTO 32006KT 10SM CLR M04/M08 A3039 640 71 -1400 320/06 RMK AO2 TSNO
94908KDBQ DBQ20020210230510602/10/02 23:05:31  5-MIN KDBQ 110505Z AUTO 31006KT 10SM CLR M04/M08 A3039 640 78 -1500 310/06 RMK AO2 TSNO
94908KDBQ DBQ20020210231010602/10/02 23:10:31  5-MIN KDBQ 110510Z AUTO 32007KT 10SM CLR M04/M08 A3039 640 78 -1500 310/07 RMK AO2 TSNO
94908KDBQ DBQ20020210231510602/10/02 23:15:31  5-MIN KDBQ 110515Z AUTO 32007KT 10SM CLR M04/M08 A3039 650 74 -1500 320/07 RMK AO2 TSNO
94908KDBQ DBQ20020210232010602/10/02 23:20:31  5-MIN KDBQ 110520Z AUTO 32007KT 10SM CLR M04/M08 A3039 650 71 -1400 320/07 RMK AO2 TSNO
94908KDBQ DBQ20020210232510602/10/02 23:25:31  5-MIN KDBQ 110525Z AUTO 32008KT 10SM CLR M04/M09 A3039 640 65 -1400 320/08 RMK AO2 TSNO
94908KDBQ DBQ20020210233010602/10/02 23:30:31  5-MIN KDBQ 110530Z AUTO 33008KT 10SM CLR M04/M09 A3039 640 68 -1500 330/08 RMK AO2 TSNO
94908KDBQ DBQ20020210233510602/10/02 23:35:31  5-MIN KDBQ 110535Z AUTO 33008KT 10SM CLR M04/M08 A3039 640 74 -1500 330/08 RMK AO2 TSNO
94908KDBQ DBQ20020210234010602/10/02 23:40:31  5-MIN KDBQ 110540Z AUTO 33008KT 10SM CLR M04/M08 A3039 640 74 -1500 330/08 RMK AO2 TSNO
94908KDBQ DBQ20020210234510602/10/02 23:45:31  5-MIN KDBQ 110545Z AUTO 33008KT 10SM CLR M04/M08 A3039 650 74 -1500 330/08 RMK AO2 TSNO
94908KDBQ DBQ20020210235015102/10/02 23:50:31  5-MIN KDBQ 110550Z AUTO 33008KT 10SM CLR M04/M08 A3039 650 74 -1500 330/08 RMK AO2 SLP306 T10441083 11006 21044 400281044 51023 TSNO
94908KDBQ DBQ20020210235515102/10/02 23:55:31  5-MIN KDBQ 110555Z AUTO 33008KT 10SM CLR M04/M08 A3039 650 74 -1500 330/08 RMK AO2 SLP306 T10441083 11006 21044 400281044 50002 TSNO
94908KDBQ DBQ20020211000010602/11/02 00:00:31  5-MIN KDBQ 110600Z AUTO 33007KT 10SM CLR M04/M08 A3039 650 74 -1500 330/07 RMK AO2 TSNO
94908KDBQ DBQ20020211000510602/11/02 00:05:31  5-MIN KDBQ 110605Z AUTO 33006KT 10SM CLR M04/M08 A3039 650 74 -1500 330/06 RMK AO2 TSNO
94908KDBQ DBQ20020211001010602/11/02 00:10:31  5-MIN KDBQ 110610Z AUTO 32005KT 10SM CLR M04/M09 A3039 650 71 -1500 320/05 RMK AO2 TSNO
94908KDBQ DBQ20020211001510602/11/02 00:15:31  5-MIN KDBQ 110615Z AUTO 31005KT 10SM CLR M04/M09 A3039 650 71 -1500 310/05 RMK AO2 TSNO
94908KDBQ DBQ20020211002010602/11/02 00:20:31  5-MIN KDBQ 110620Z AUTO 31005KT 10SM CLR M04/M09 A3038 650 71 -1500 310/05 RMK AO2 TSNO
94908KDBQ DBQ20020211002510602/11/02 00:25:31  5-MIN KDBQ 110625Z AUTO 32005KT 10SM CLR M04/M09 A3038 650 71 -1500 320/05 RMK AO2 TSNO
94908KDBQ DBQ20020211003010602/11/02 00:30:31  5-MIN KDBQ 110630Z AUTO 32006KT 10SM CLR M04/M09 A3038 660 68 -1500 320/06 RMK AO2 TSNO
94908KDBQ DBQ20020211003510602/11/02 00:35:31  5-MIN KDBQ 110635Z AUTO 33007KT 10SM CLR M04/M09 A3037 660 68 -1500 330/07 RMK AO2 TSNO
94908KDBQ DBQ20020211004010602/11/02 00:40:31  5-MIN KDBQ 110640Z AUTO 33006KT 10SM CLR M04/M09 A3037 660 68 -1500 330/06 RMK AO2 TSNO
94908KDBQ DBQ20020211004510602/11/02 00:45:31  5-MIN KDBQ 110645Z AUTO 33005KT 10SM CLR M05/M09 A3037 670 71 -1600 330/05 RMK AO2 TSNO
94908KDBQ DBQ20020211005012302/11/02 00:50:31  5-MIN KDBQ 110650Z AUTO 34005KT 10SM CLR M05/M09 A3037 670 71 -1500 340/05 RMK AO2 SLP298 T10501094 TSNO
94908KDBQ DBQ20020211005512302/11/02 00:55:31  5-MIN KDBQ 110655Z AUTO 34005KT 10SM CLR M05/M09 A3037 670 74 -1600 340/05 RMK AO2 SLP298 T10501089 TSNO
94908KDBQ DBQ20020211010010602/11/02 01:00:31  5-MIN KDBQ 110700Z AUTO 35005KT 10SM CLR M05/M09 A3037 670 74 -1500 350/05 RMK AO2 TSNO
94908KDBQ DBQ20020211010510602/11/02 01:05:31  5-MIN KDBQ 110705Z AUTO 36004KT 10SM CLR M05/M09 A3037 670 74 -1500 350/04 RMK AO2 TSNO
94908KDBQ DBQ20020211011010602/11/02 01:10:31  5-MIN KDBQ 110710Z AUTO 36004KT 10SM CLR M05/M09 A3037 660 71 -1600 360/04 RMK AO2 TSNO
94908KDBQ DBQ20020211011510602/11/02 01:15:31  5-MIN KDBQ 110715Z AUTO 01003KT 10SM CLR M05/M09 A3038 660 71 -1600 010/03 RMK AO2 TSNO
94908KDBQ DBQ20020211012010602/11/02 01:20:31  5-MIN KDBQ 110720Z AUTO 00000KT 10SM CLR M05/M09 A3038 660 74 -1600 000/00 RMK AO2 TSNO
94908KDBQ DBQ20020211012510602/11/02 01:25:31  5-MIN KDBQ 110725Z AUTO 00000KT 10SM CLR M05/M09 A3037 660 74 -1600 000/00 RMK AO2 TSNO
94908KDBQ DBQ20020211013010602/11/02 01:30:31  5-MIN KDBQ 110730Z AUTO 35003KT 10SM CLR M04/M08 A3037 670 74 -1500 350/03 RMK AO2 TSNO
94908KDBQ DBQ20020211013510602/11/02 01:35:31  5-MIN KDBQ 110735Z AUTO 33005KT 10SM CLR M04/M09 A3037 660 68 -1500 330/05 RMK AO2 TSNO
94908KDBQ DBQ20020211014010602/11/02 01:40:31  5-MIN KDBQ 110740Z AUTO 32005KT 10SM CLR M06/M09 A3037 670 74 -1600 320/05 RMK AO2 TSNO
94908KDBQ DBQ20020211014510602/11/02 01:45:31  5-MIN KDBQ 110745Z AUTO 32004KT 10SM CLR M05/M09 A3036 670 74 -1500 320/04 RMK AO2 TSNO
94908KDBQ DBQ20020211015012302/11/02 01:50:31  5-MIN KDBQ 110750Z AUTO 00000KT 10SM CLR M06/M09 A3036 670 77 -1600 000/00 RMK AO2 SLP297 T10561089 TSNO
94908KDBQ DBQ20020211015512302/11/02 01:55:31  5-MIN KDBQ 110755Z AUTO 00000KT 10SM CLR M07/M10 A3036 670 77 -1800 000/00 RMK AO2 SLP298 T10671100 TSNO
94908KDBQ DBQ20020211020010602/11/02 02:00:31  5-MIN KDBQ 110800Z AUTO 00000KT 10SM CLR M07/M10 A3036 670 77 -1800 000/00 RMK AO2 TSNO
94908KDBQ DBQ20020211020510602/11/02 02:05:31  5-MIN KDBQ 110805Z AUTO 18003KT 10SM CLR M06/M09 A3036 670 77 -1700 180/03 RMK AO2 TSNO
94908KDBQ DBQ20020211021010602/11/02 02:10:31  5-MIN KDBQ 110810Z AUTO 00000KT 10SM CLR M06/M09 A3037 670 77 -1700 000/00 RMK AO2 TSNO
94908KDBQ DBQ20020211021510602/11/02 02:15:31  5-MIN KDBQ 110815Z AUTO 00000KT 10SM CLR M05/M10 A3037 670 68 -1500 000/00 RMK AO2 TSNO
94908KDBQ DBQ20020211022010602/11/02 02:20:31  5-MIN KDBQ 110820Z AUTO 00000KT 10SM CLR M05/M09 A3036 670 71 -1500 000/00 RMK AO2 TSNO
94908KDBQ DBQ20020211022510602/11/02 02:25:31  5-MIN KDBQ 110825Z AUTO 00000KT 10SM CLR M05/M10 A3037 670 68 -1500 000/00 RMK AO2 TSNO
94908KDBQ DBQ20020211023010602/11/02 02:30:31  5-MIN KDBQ 110830Z AUTO 00000KT 10SM CLR M06/M10 A3036 670 71 -1600 000/00 RMK AO2 TSNO
94908KDBQ DBQ20020211023510602/11/02 02:35:31  5-MIN KDBQ 110835Z AUTO 16003KT 10SM CLR M07/M09 A3036 670 81 -1800 160/03 RMK AO2 TSNO
94908KDBQ DBQ20020211024010602/11/02 02:40:31  5-MIN KDBQ 110840Z AUTO 00000KT 10SM CLR M06/M09 A3036 670 77 -1700 000/00 RMK AO2 TSNO
94908KDBQ DBQ20020211024510602/11/02 02:45:31  5-MIN KDBQ 110845Z AUTO 00000KT 10SM CLR M06/M09 A3036 670 77 -1700 000/00 RMK AO2 TSNO
94908KDBQ DBQ20020211025012902/11/02 02:50:31  5-MIN KDBQ 110850Z AUTO 17003KT 10SM CLR M06/M09 A3036 670 77 -1700 170/03 RMK AO2 SLP295 T10611094 50002 TSNO
94908KDBQ DBQ20020211025512902/11/02 02:55:31  5-MIN KDBQ 110855Z AUTO 17003KT 10SM CLR M07/M09 A3036 670 84 -1800 170/03 RMK AO2 SLP297 T10671089 56010 TSNO
94908KDBQ DBQ20020211030010602/11/02 03:00:31  5-MIN KDBQ 110900Z AUTO 17003KT 10SM CLR M06/M09 A3036 680 81 -1700 170/03 RMK AO2 TSNO
94908KDBQ DBQ20020211030510602/11/02 03:05:31  5-MIN KDBQ 110905Z AUTO 00000KT 10SM CLR M06/M09 A3036 680 77 -1700 000/00 RMK AO2 TSNO
94908KDBQ DBQ20020211031010602/11/02 03:10:31  5-MIN KDBQ 110910Z AUTO 19003KT 10SM CLR M06/M09 A3035 680 77 -1700 190/03 RMK AO2 TSNO
94908KDBQ DBQ20020211031510602/11/02 03:15:31  5-MIN KDBQ 110915Z AUTO 19003KT 10SM CLR M07/M09 A3035 680 81 -1700 190/03 RMK AO2 TSNO
94908KDBQ DBQ20020211032010602/11/02 03:20:31  5-MIN KDBQ 110920Z AUTO 00000KT 10SM CLR M07/M09 A3035 680 84 -1700 000/00 RMK AO2 TSNO
94908KDBQ DBQ20020211032510602/11/02 03:25:31  5-MIN KDBQ 110925Z AUTO 21004KT 10SM CLR M07/M08 A3035 680 88 -1700 210/04 RMK AO2 TSNO
94908KDBQ DBQ20020211033010602/11/02 03:30:31  5-MIN KDBQ 110930Z AUTO 20003KT 10SM CLR M07/M08 A3035 680 88 -1700 200/03 RMK AO2 TSNO
94908KDBQ DBQ20020211033510602/11/02 03:35:31  5-MIN KDBQ 110935Z AUTO 20003KT 10SM CLR M07/M08 A3035 680 88 -1700 200/03 RMK AO2 TSNO
94908KDBQ DBQ20020211034010602/11/02 03:40:31  5-MIN KDBQ 110940Z AUTO 20003KT 10SM CLR M07/M08 A3035 680 88 -1700 200/03 RMK AO2 TSNO
94908KDBQ DBQ20020211034510602/11/02 03:45:31  5-MIN KDBQ 110945Z AUTO 19003KT 10SM CLR M07/M08 A3034 690 88 -1700 190/03 RMK AO2 TSNO
94908KDBQ DBQ20020211035012302/11/02 03:50:31  5-MIN KDBQ 110950Z AUTO 18004KT 10SM CLR M07/M08 A3034 690 88 -1700 180/04 RMK AO2 SLP291 T10671083 TSNO
94908KDBQ DBQ20020211035512302/11/02 03:55:31  5-MIN KDBQ 110955Z AUTO 19003KT 10SM CLR M07/M08 A3034 690 88 -1700 190/03 RMK AO2 SLP290 T10671083 TSNO
94908KDBQ DBQ20020211040010602/11/02 04:00:31  5-MIN KDBQ 111000Z AUTO 21004KT 10SM CLR M07/M08 A3034 690 88 -1700 210/04 RMK AO2 TSNO
94908KDBQ DBQ20020211040510602/11/02 04:05:31  5-MIN KDBQ 111005Z AUTO 20004KT 10SM CLR M07/M08 A3034 690 88 -1700 190/04 RMK AO2 TSNO
94908KDBQ DBQ20020211041010602/11/02 04:10:31  5-MIN KDBQ 111010Z AUTO 20003KT 10SM CLR M07/M09 A3034 690 84 -1700 200/03 RMK AO2 TSNO
94908KDBQ DBQ20020211041510602/11/02 04:15:31  5-MIN KDBQ 111015Z AUTO 23003KT 10SM CLR M07/M08 A3034 690 88 -1700 220/03 RMK AO2 TSNO
94908KDBQ DBQ20020211042010602/11/02 04:20:31  5-MIN KDBQ 111020Z AUTO 22003KT 10SM CLR M07/M08 A3034 690 88 -1700 220/03 RMK AO2 TSNO
94908KDBQ DBQ20020211042510602/11/02 04:25:31  5-MIN KDBQ 111025Z AUTO 21003KT 10SM CLR M07/M08 A3034 690 88 -1700 210/03 RMK AO2 TSNO
94908KDBQ DBQ20020211043010602/11/02 04:30:31  5-MIN KDBQ 111030Z AUTO 21004KT 10SM CLR M07/M08 A3034 700 88 -1700 210/04 RMK AO2 TSNO
94908KDBQ DBQ20020211043510602/11/02 04:35:31  5-MIN KDBQ 111035Z AUTO 20004KT 10SM CLR M07/M09 A3033 700 88 -1800 200/04 RMK AO2 TSNO
94908KDBQ DBQ20020211044010602/11/02 04:40:31  5-MIN KDBQ 111040Z AUTO 19004KT 10SM CLR M07/M08 A3033 700 88 -1700 190/04 RMK AO2 TSNO
94908KDBQ DBQ20020211044510602/11/02 04:45:31  5-MIN KDBQ 111045Z AUTO 18004KT 10SM CLR M07/M08 A3033 700 92 -1800 180/04 RMK AO2 TSNO
94908KDBQ DBQ20020211045012302/11/02 04:50:31  5-MIN KDBQ 111050Z AUTO 00000KT 10SM CLR M07/M08 A3033 700 88 -1700 000/00 RMK AO2 SLP286 T10671083 TSNO
94908KDBQ DBQ20020211045512302/11/02 04:55:31  5-MIN KDBQ 111055Z AUTO 00000KT 10SM CLR M06/M08 A3033 710 84 -1600 000/00 RMK AO2 SLP285 T10611083 TSNO
94908KDBQ DBQ20020211050010602/11/02 05:00:31  5-MIN KDBQ 111100Z AUTO 00000KT 10SM CLR M06/M08 A3033 700 84 -1600 000/00 RMK AO2 TSNO
94908KDBQ DBQ20020211050510602/11/02 05:05:31  5-MIN KDBQ 111105Z AUTO 00000KT 10SM CLR M06/M08 A3033 700 84 -1600 000/00 RMK AO2 TSNO
94908KDBQ DBQ20020211051010602/11/02 05:10:31  5-MIN KDBQ 111110Z AUTO 00000KT 10SM CLR M06/M08 A3033 700 84 -1600 000/00 RMK AO2 TSNO
94908KDBQ DBQ20020211051510602/11/02 05:15:31  5-MIN KDBQ 111115Z AUTO 00000KT 10SM CLR M07/M08 A3033 700 88 -1700 000/00 RMK AO2 TSNO
94908KDBQ DBQ20020211052010602/11/02 05:20:31  5-MIN KDBQ 111120Z AUTO 20004KT 10SM CLR M07/M08 A3033 700 88 -1700 200/04 RMK AO2 TSNO
94908KDBQ DBQ20020211052510602/11/02 05:25:31  5-MIN KDBQ 111125Z AUTO 21005KT 10SM CLR M06/M08 A3032 710 84 -1600 210/05 RMK AO2 TSNO
94908KDBQ DBQ20020211053010602/11/02 05:30:31  5-MIN KDBQ 111130Z AUTO 20005KT 10SM CLR M07/M08 A3032 710 88 -1700 200/05 RMK AO2 TSNO
94908KDBQ DBQ20020211053510602/11/02 05:35:31  5-MIN KDBQ 111135Z AUTO 20004KT 10SM CLR M07/M08 A3032 710 88 -1700 200/04 RMK AO2 TSNO
94908KDBQ DBQ20020211054010602/11/02 05:40:31  5-MIN KDBQ 111140Z AUTO 20004KT 10SM CLR M07/M08 A3032 710 88 -1700 200/04 RMK AO2 TSNO
94908KDBQ DBQ20020211054510602/11/02 05:45:31  5-MIN KDBQ 111145Z AUTO 19004KT 10SM CLR M07/M09 A3031 720 84 -1700 180/04 RMK AO2 TSNO
94908KDBQ DBQ20020211055013702/11/02 05:50:31  5-MIN KDBQ 111150Z 19004KT 10SM CLR M07/M09 A3031 720 88 -1800 190/04 RMK AO2 SLP281 70001 T10721089 11044 21072 56010
94908KDBQ DBQ20020211055513702/11/02 05:55:31  5-MIN KDBQ 111155Z 18005KT 10SM CLR M07/M09 A3031 720 88 -1800 180/05 RMK AO2 SLP281 70001 T10721089 11044 21072 56016
94908KDBQ DBQ20020211060009602/11/02 06:00:31  5-MIN KDBQ 111200Z 19005KT 10SM CLR M07/M09 A3031 720 88 -1800 180/05 RMK AO2
94908KDBQ DBQ20020211060509602/11/02 06:05:31  5-MIN KDBQ 111205Z 19005KT 10SM CLR M07/M09 A3031 720 88 -1800 190/05 RMK AO2
94908KDBQ DBQ20020211061009602/11/02 06:10:31  5-MIN KDBQ 111210Z 19005KT 10SM CLR M07/M09 A3031 720 88 -1800 180/05 RMK AO2
94908KDBQ DBQ20020211061509602/11/02 06:15:31  5-MIN KDBQ 111215Z 18006KT 10SM CLR M07/M09 A3031 720 88 -1800 180/06 RMK AO2
94908KDBQ DBQ20020211062009602/11/02 06:20:31  5-MIN KDBQ 111220Z 18006KT 10SM CLR M07/M08 A3031 720 92 -1800 180/06 RMK AO2
94908KDBQ DBQ20020211062509602/11/02 06:25:31  5-MIN KDBQ 111225Z 18006KT 10SM CLR M07/M09 A3031 720 88 -1800 180/06 RMK AO2
94908KDBQ DBQ20020211063009602/11/02 06:30:31  5-MIN KDBQ 111230Z 18005KT 10SM CLR M07/M09 A3030 730 88 -1800 180/05 RMK AO2
94908KDBQ DBQ20020211063509602/11/02 06:35:31  5-MIN KDBQ 111235Z 17006KT 10SM CLR M07/M09 A3030 730 88 -1800 170/06 RMK AO2
94908KDBQ DBQ20020211064009602/11/02 06:40:31  5-MIN KDBQ 111240Z 17007KT 10SM CLR M07/M09 A3030 730 88 -1800 170/07 RMK AO2
94908KDBQ DBQ20020211064509602/11/02 06:45:31  5-MIN KDBQ 111245Z 17006KT 10SM CLR M07/M08 A3029 740 92 -1700 170/06 RMK AO2
94908KDBQ DBQ20020211065011302/11/02 06:50:31  5-MIN KDBQ 111250Z 17007KT 10SM CLR M07/M09 A3029 740 88 -1700 170/07 RMK AO2 SLP274 T10721089
94908KDBQ DBQ20020211065511302/11/02 06:55:31  5-MIN KDBQ 111255Z 17006KT 10SM CLR M07/M08 A3029 740 92 -1700 170/06 RMK AO2 SLP274 T10721083
94908KDBQ DBQ20020211070009602/11/02 07:00:31  5-MIN KDBQ 111300Z 17006KT 10SM CLR M07/M09 A3029 740 88 -1700 170/06 RMK AO2
94908KDBQ DBQ20020211070509602/11/02 07:05:31  5-MIN KDBQ 111305Z 17005KT 10SM CLR M07/M09 A3028 750 88 -1700 170/05 RMK AO2
94908KDBQ DBQ20020211071009602/11/02 07:10:31  5-MIN KDBQ 111310Z 18005KT 10SM CLR M07/M09 A3028 750 88 -1700 180/05 RMK AO2
94908KDBQ DBQ20020211071509602/11/02 07:15:31  5-MIN KDBQ 111315Z 20006KT 10SM CLR M07/M09 A3028 750 88 -1700 190/06 RMK AO2
94908KDBQ DBQ20020211072009602/11/02 07:20:31  5-MIN KDBQ 111320Z 20006KT 10SM CLR M07/M08 A3029 740 88 -1700 200/06 RMK AO2
94908KDBQ DBQ20020211072509602/11/02 07:25:31  5-MIN KDBQ 111325Z 19006KT 10SM CLR M07/M08 A3028 740 88 -1700 190/06 RMK AO2
94908KDBQ DBQ20020211073009602/11/02 07:30:31  5-MIN KDBQ 111330Z 19006KT 10SM CLR M07/M08 A3028 750 88 -1700 190/06 RMK AO2
94908KDBQ DBQ20020211073509602/11/02 07:35:31  5-MIN KDBQ 111335Z 19007KT 10SM CLR M07/M08 A3027 750 92 -1700 180/07 RMK AO2
94908KDBQ DBQ20020211074009602/11/02 07:40:31  5-MIN KDBQ 111340Z 20007KT 10SM CLR M07/M08 A3027 760 92 -1700 200/07 RMK AO2
94908KDBQ DBQ20020211074509602/11/02 07:45:31  5-MIN KDBQ 111345Z 20008KT 10SM CLR M06/M08 A3027 760 88 -1600 200/08 RMK AO2
94908KDBQ DBQ20020211075011302/11/02 07:50:31  5-MIN KDBQ 111350Z 20009KT 10SM CLR M06/M08 A3027 760 88 -1600 190/09 RMK AO2 SLP265 T10611078
94908KDBQ DBQ20020211075511302/11/02 07:55:31  5-MIN KDBQ 111355Z 19009KT 10SM CLR M06/M08 A3026 760 88 -1600 190/09 RMK AO2 SLP264 T10611078
94908KDBQ DBQ20020211080009602/11/02 08:00:31  5-MIN KDBQ 111400Z 19009KT 10SM CLR M06/M08 A3026 760 88 -1600 190/09 RMK AO2
94908KDBQ DBQ20020211080509602/11/02 08:05:31  5-MIN KDBQ 111405Z 19010KT 10SM CLR M06/M08 A3026 770 84 -1500 190/10 RMK AO2
94908KDBQ DBQ20020211081009602/11/02 08:10:31  5-MIN KDBQ 111410Z 18011KT 10SM CLR M06/M08 A3025 770 84 -1500 180/11 RMK AO2
94908KDBQ DBQ20020211081509602/11/02 08:15:31  5-MIN KDBQ 111415Z 19011KT 10SM CLR M06/M08 A3025 770 84 -1500 190/11 RMK AO2
94908KDBQ DBQ20020211082009602/11/02 08:20:31  5-MIN KDBQ 111420Z 19011KT 10SM CLR M05/M07 A3025 780 84 -1400 180/11 RMK AO2
94908KDBQ DBQ20020211082509602/11/02 08:25:31  5-MIN KDBQ 111425Z 19012KT 10SM CLR M04/M07 A3024 780 81 -1300 180/12 RMK AO2
94908KDBQ DBQ20020211083009602/11/02 08:30:31  5-MIN KDBQ 111430Z 18013KT 10SM CLR M04/M07 A3023 790 81 -1300 180/13 RMK AO2
94908KDBQ DBQ20020211083509602/11/02 08:35:31  5-MIN KDBQ 111435Z 18014KT 10SM CLR M04/M07 A3023 790 81 -1300 180/14 RMK AO2
94908KDBQ DBQ20020211084009602/11/02 08:40:31  5-MIN KDBQ 111440Z 18014KT 10SM CLR M04/M08 A3023 800 78 -1300 180/14 RMK AO2
94908KDBQ DBQ20020211084509602/11/02 08:45:31  5-MIN KDBQ 111445Z 19016KT 10SM CLR M04/M08 A3023 800 74 -1200 190/16 RMK AO2
94908KDBQ DBQ20020211085011902/11/02 08:50:31  5-MIN KDBQ 111450Z 19014KT 10SM CLR M04/M08 A3022 800 74 -1200 190/14 RMK AO2 SLP249 T10391078 56016
94908KDBQ DBQ20020211085511902/11/02 08:55:31  5-MIN KDBQ 111455Z 19015KT 10SM CLR M04/M08 A3022 800 74 -1200 190/15 RMK AO2 SLP249 T10391078 58030
94908KDBQ DBQ20020211090009602/11/02 09:00:31  5-MIN KDBQ 111500Z 19016KT 10SM CLR M03/M07 A3022 810 74 -1200 190/16 RMK AO2
94908KDBQ DBQ20020211090509602/11/02 09:05:31  5-MIN KDBQ 111505Z 19016KT 10SM CLR M03/M07 A3021 810 74 -1200 190/16 RMK AO2
94908KDBQ DBQ20020211091009602/11/02 09:10:31  5-MIN KDBQ 111510Z 19016KT 10SM CLR M03/M07 A3021 810 74 -1200 180/16 RMK AO2
94908KDBQ DBQ20020211091509602/11/02 09:15:31  5-MIN KDBQ 111515Z 19018KT 10SM CLR M03/M07 A3021 810 71 -1100 190/18 RMK AO2
94908KDBQ DBQ20020211092009602/11/02 09:20:31  5-MIN KDBQ 111520Z 19018KT 10SM CLR M03/M07 A3021 820 71 -1100 190/18 RMK AO2
94908KDBQ DBQ20020211092509602/11/02 09:25:31  5-MIN KDBQ 111525Z 19015KT 10SM CLR M03/M07 A3021 810 71 -1100 190/15 RMK AO2
94908KDBQ DBQ20020211093010202/11/02 09:30:31  5-MIN KDBQ 111530Z 19018G22KT 10SM CLR M02/M07 A3020 820 69 -1000 190/18G22 RMK AO2
94908KDBQ DBQ20020211093509602/11/02 09:35:31  5-MIN KDBQ 111535Z 19019KT 10SM CLR M02/M08 A3020 820 66 -1000 190/19 RMK AO2
94908KDBQ DBQ20020211094009602/11/02 09:40:31  5-MIN KDBQ 111540Z 19018KT 10SM CLR M02/M08 A3020 820 66 -1000 190/18 RMK AO2
94908KDBQ DBQ20020211094509602/11/02 09:45:31  5-MIN KDBQ 111545Z 20017KT 10SM CLR M02/M08 A3020 820 66 -1000 200/17 RMK AO2
94908KDBQ DBQ20020211095011302/11/02 09:50:31  5-MIN KDBQ 111550Z 20019KT 10SM CLR M02/M08 A3020 820 66 -1000 200/19 RMK AO2 SLP241 T10221078
94908KDBQ DBQ20020211095511302/11/02 09:55:31  5-MIN KDBQ 111555Z 20018KT 10SM CLR M02/M08 A3020 820 66 -1000 200/18 RMK AO2 SLP241 T10221078
94908KDBQ DBQ20020211100009502/11/02 10:00:31  5-MIN KDBQ 111600Z 19017KT 10SM CLR M02/M08 A3020 820 63 -900 190/17 RMK AO2
94908KDBQ DBQ20020211100509502/11/02 10:05:31  5-MIN KDBQ 111605Z 19017KT 10SM CLR M02/M07 A3020 820 66 -900 190/17 RMK AO2
94908KDBQ DBQ20020211101009502/11/02 10:10:31  5-MIN KDBQ 111610Z 19019KT 10SM CLR M02/M07 A3020 820 66 -900 190/19 RMK AO2
94908KDBQ DBQ20020211101509502/11/02 10:15:31  5-MIN KDBQ 111615Z 20016KT 10SM CLR M02/M08 A3020 820 63 -900 200/16 RMK AO2
94908KDBQ DBQ20020211102009502/11/02 10:20:31  5-MIN KDBQ 111620Z 20020KT 10SM CLR M01/M07 A3019 830 63 -800 200/20 RMK AO2
94908KDBQ DBQ20020211102510102/11/02 10:25:31  5-MIN KDBQ 111625Z 19018G22KT 10SM CLR M01/M08 A3019 830 60 -800 190/18G22 RMK AO2
94908KDBQ DBQ20020211103009502/11/02 10:30:31  5-MIN KDBQ 111630Z 20019KT 10SM CLR M01/M07 A3019 830 63 -800 200/19 RMK AO2
94908KDBQ DBQ20020211103509502/11/02 10:35:31  5-MIN KDBQ 111635Z 19020KT 10SM CLR M01/M08 A3018 840 60 -800 190/20 RMK AO2
94908KDBQ DBQ20020211104009502/11/02 10:40:31  5-MIN KDBQ 111640Z 20018KT 10SM CLR M01/M08 A3018 840 60 -800 200/18 RMK AO2
94908KDBQ DBQ20020211104509502/11/02 10:45:31  5-MIN KDBQ 111645Z 20021KT 10SM CLR M01/M08 A3017 850 60 -800 200/21 RMK AO2
94908KDBQ DBQ20020211105011202/11/02 10:50:31  5-MIN KDBQ 111650Z 19019KT 10SM CLR M01/M07 A3017 850 63 -800 190/19 RMK AO2 SLP230 T10111072
94908KDBQ DBQ20020211105511202/11/02 10:55:31  5-MIN KDBQ 111655Z 20019KT 10SM CLR M01/M07 A3016 860 63 -800 200/19 RMK AO2 SLP228 T10111072
94908KDBQ DBQ20020211110009502/11/02 11:00:31  5-MIN KDBQ 111700Z 20017KT 10SM CLR M01/M07 A3016 860 61 -700 190/17 RMK AO2
94908KDBQ DBQ20020211110509502/11/02 11:05:31  5-MIN KDBQ 111705Z 19019KT 10SM CLR M01/M07 A3015 860 66 -800 190/19 RMK AO2
94908KDBQ DBQ20020211111010202/11/02 11:10:31  5-MIN KDBQ 111710Z 20018KT 10SM CLR M01/M07 A3015 870 63 -700 190/18 RMK AO2 PRESFR
94908KDBQ DBQ20020211111510202/11/02 11:15:31  5-MIN KDBQ 111715Z 19020KT 10SM CLR M01/M06 A3014 880 66 -700 190/20 RMK AO2 PRESFR
94908KDBQ DBQ20020211112010202/11/02 11:20:31  5-MIN KDBQ 111720Z 20020KT 10SM CLR M01/M07 A3013 890 63 -700 190/20 RMK AO2 PRESFR
94908KDBQ DBQ20020211112509502/11/02 11:25:31  5-MIN KDBQ 111725Z 20020KT 10SM CLR M01/M06 A3013 890 66 -700 200/20 RMK AO2
94908KDBQ DBQ20020211113009402/11/02 11:30:31  5-MIN KDBQ 111730Z 19018KT 10SM CLR 00/M06 A3012 890 63 -600 190/18 RMK AO2
94908KDBQ DBQ20020211113509502/11/02 11:35:31  5-MIN KDBQ 111735Z 19019KT 10SM CLR M01/M07 A3012 890 63 -700 190/19 RMK AO2
94908KDBQ DBQ20020211114009402/11/02 11:40:31  5-MIN KDBQ 111740Z 19019KT 10SM CLR 00/M07 A3012 890 61 -600 190/19 RMK AO2
94908KDBQ DBQ20020211114509502/11/02 11:45:31  5-MIN KDBQ 111745Z 19019KT 10SM CLR M01/M07 A3011 900 63 -700 190/19 RMK AO2
94908KDBQ DBQ20020211115013002/11/02 11:50:31  5-MIN KDBQ 111750Z 19017KT 10SM CLR M01/M07 A3011 900 63 -700 190/17 RMK AO2 SLP211 T10061067 10000 21072 58030
94908KDBQ DBQ20020211115513502/11/02 11:55:31  5-MIN KDBQ 111755Z 19018G24KT 10SM CLR 00/M06 A3011 910 63 -600 180/18G24 RMK AO2 SLP209 T00001061 10000 21072 58038
94908KDBQ DBQ20020211120010702/11/02 12:00:31  5-MIN KDBQ 111800Z 19019G24KT 10SM CLR 00/M07 A3010 920 61 -600 190/19G24 RMK AO2 PRESFR
94908KDBQ DBQ20020211120510102/11/02 12:05:31  5-MIN KDBQ 111805Z 19018KT 10SM CLR 00/M06 A3009 920 63 -600 190/18 RMK AO2 PRESFR
94908KDBQ DBQ20020211121009402/11/02 12:10:31  5-MIN KDBQ 111810Z 20020KT 10SM CLR 00/M06 A3008 930 63 -600 200/20 RMK AO2
94908KDBQ DBQ20020211121510702/11/02 12:15:31  5-MIN KDBQ 111815Z 19018G24KT 10SM CLR 00/M06 A3008 930 63 -600 190/18G24 RMK AO2 PRESFR
94908KDBQ DBQ20020211122010702/11/02 12:20:31  5-MIN KDBQ 111820Z 19020G24KT 10SM CLR 00/M06 A3007 940 63 -600 190/20G24 RMK AO2 PRESFR
94908KDBQ DBQ20020211122511802/11/02 12:25:31  5-MIN KDBQ 111825Z 19022G27KT 10SM CLR 00/M07 A3006 950 61 -600 190/22G27 RMK AO2 PK WND 19027/1825
94908KDBQ DBQ20020211123011802/11/02 12:30:31  5-MIN KDBQ 111830Z 19018G27KT 10SM CLR 00/M07 A3006 950 61 -600 190/18G27 RMK AO2 PK WND 19027/1825
94908KDBQ DBQ20020211123511802/11/02 12:35:31  5-MIN KDBQ 111835Z 18017G25KT 10SM CLR 00/M06 A3006 950 63 -600 180/17G25 RMK AO2 PK WND 19027/1825
94908KDBQ DBQ20020211124011202/11/02 12:40:31  5-MIN KDBQ 111840Z 19015KT 10SM CLR 00/M06 A3006 950 63 -600 190/15 RMK AO2 PK WND 19027/1825
94908KDBQ DBQ20020211124511802/11/02 12:45:31  5-MIN KDBQ 111845Z 18019G23KT 10SM CLR 00/M06 A3006 950 63 -600 180/19G23 RMK AO2 PK WND 19027/1825
94908KDBQ DBQ20020211125012902/11/02 12:50:31  5-MIN KDBQ 111850Z 19020KT 10SM CLR 00/M06 A3005 960 63 -600 190/20 RMK AO2 PK WND 19027/1825 SLP191 T00001061
94908KDBQ DBQ20020211125512902/11/02 12:55:31  5-MIN KDBQ 111855Z 19020KT 10SM CLR 00/M06 A3005 960 63 -500 190/20 RMK AO2 PK WND 19027/1825 SLP189 T00001061
94908KDBQ DBQ20020211130009402/11/02 13:00:31  5-MIN KDBQ 111900Z 18018KT 10SM CLR 00/M07 A3004 970 61 -500 180/18 RMK AO2
94908KDBQ DBQ20020211130510702/11/02 13:05:31  5-MIN KDBQ 111905Z 19020G25KT 10SM CLR 00/M06 A3003 980 63 -500 180/20G25 RMK AO2 PRESFR
94908KDBQ DBQ20020211131010002/11/02 13:10:31  5-MIN KDBQ 111910Z 20019G25KT 10SM CLR 01/M07 A3003 980 58 -500 200/19G25 RMK AO2
94908KDBQ DBQ20020211131510002/11/02 13:15:31  5-MIN KDBQ 111915Z 19018G25KT 10SM CLR 01/M06 A3002 980 58 -400 190/18G25 RMK AO2
94908KDBQ DBQ20020211132010002/11/02 13:20:31  5-MIN KDBQ 111920Z 19019G24KT 10SM CLR 01/M06 A3002 990 58 -400 190/19G24 RMK AO2
94908KDBQ DBQ20020211132510802/11/02 13:25:31  5-MIN KDBQ 111925Z 19020G25KT 10SM CLR 01/M06 A3001 1000 58 -400 190/20G25 RMK AO2 PRESFR
94908KDBQ DBQ20020211133010102/11/02 13:30:31  5-MIN KDBQ 111930Z 19021G25KT 10SM CLR 01/M06 A3001 1000 58 -400 190/21G25 RMK AO2
94908KDBQ DBQ20020211133509502/11/02 13:35:31  5-MIN KDBQ 111935Z 19020KT 10SM CLR 02/M06 A3000 1010 56 -300 190/20 RMK AO2
94908KDBQ DBQ20020211134011902/11/02 13:40:31  5-MIN KDBQ 111940Z 19021G26KT 10SM CLR 01/M06 A2999 1010 58 -300 190/21G26 RMK AO2 PK WND 19026/1939
94908KDBQ DBQ20020211134511902/11/02 13:45:31  5-MIN KDBQ 111945Z 19017G26KT 10SM CLR 01/M06 A3000 1010 61 -400 190/17G26 RMK AO2 PK WND 19026/1939
94908KDBQ DBQ20020211135013602/11/02 13:50:31  5-MIN KDBQ 111950Z 19019G24KT 10SM CLR 02/M05 A2999 1020 61 -300 190/19G24 RMK AO2 PK WND 19026/1939 SLP168 T00171050
94908KDBQ DBQ20020211135513602/11/02 13:55:31  5-MIN KDBQ 111955Z 19020G24KT 10SM CLR 02/M06 A2998 1020 59 -300 190/20G24 RMK AO2 PK WND 19026/1939 SLP165 T00171056
94908KDBQ DBQ20020211140010802/11/02 14:00:31  5-MIN KDBQ 112000Z 19018G25KT 10SM CLR 01/M06 A2997 1030 61 -300 190/18G25 RMK AO2 PRESFR
94908KDBQ DBQ20020211140510802/11/02 14:05:31  5-MIN KDBQ 112005Z 18020G25KT 10SM CLR 02/M06 A2996 1040 59 -200 180/20G25 RMK AO2 PRESFR
94908KDBQ DBQ20020211141010202/11/02 14:10:31  5-MIN KDBQ 112010Z 19021KT 10SM CLR 01/M06 A2996 1050 61 -300 180/21 RMK AO2 PRESFR
94908KDBQ DBQ20020211141510202/11/02 14:15:31  5-MIN KDBQ 112015Z 18021KT 10SM CLR 02/M06 A2995 1050 59 -200 180/21 RMK AO2 PRESFR
94908KDBQ DBQ20020211142011902/11/02 14:20:31  5-MIN KDBQ 112020Z 19021G26KT 10SM CLR 02/M06 A2995 1060 59 -200 190/21G26 RMK AO2 PK WND 19026/2018
94908KDBQ DBQ20020211142511902/11/02 14:25:31  5-MIN KDBQ 112025Z 19022G26KT 10SM CLR 02/M06 A2994 1060 59 -200 180/22G26 RMK AO2 PK WND 19026/2023
94908KDBQ DBQ20020211143011902/11/02 14:30:31  5-MIN KDBQ 112030Z 19020G26KT 10SM CLR 02/M06 A2993 1070 59 -200 190/20G26 RMK AO2 PK WND 18026/2027
94908KDBQ DBQ20020211143512602/11/02 14:35:31  5-MIN KDBQ 112035Z 19023G27KT 10SM CLR 01/M06 A2992 1080 61 -300 180/23G27 RMK AO2 PK WND 19027/2034 PRESFR
94908KDBQ DBQ20020211144011902/11/02 14:40:31  5-MIN KDBQ 112040Z 18022G28KT 10SM CLR 01/M06 A2992 1080 61 -300 180/22G28 RMK AO2 PK WND 19028/2037
94908KDBQ DBQ20020211144511902/11/02 14:45:31  5-MIN KDBQ 112045Z 18023G28KT 10SM CLR 01/M06 A2991 1090 61 -300 180/23G28 RMK AO2 PK WND 19028/2037
94908KDBQ DBQ20020211145013602/11/02 14:50:31  5-MIN KDBQ 112050Z 18023KT 10SM CLR 01/M06 A2991 1090 58 -200 180/23 RMK AO2 PK WND 19028/2037 SLP141 T00111061 58038
94908KDBQ DBQ20020211145513602/11/02 14:55:31  5-MIN KDBQ 112055Z 19024KT 10SM CLR 01/M06 A2990 1090 61 -200 180/24 RMK AO2 PK WND 18028/2055 SLP141 T00111056 58066
94908KDBQ DBQ20020211150011902/11/02 15:00:31  5-MIN KDBQ 112100Z 18023G29KT 10SM CLR 01/M06 A2990 1100 61 -200 180/23G29 RMK AO2 PK WND 19029/2100
94908KDBQ DBQ20020211150511902/11/02 15:05:31  5-MIN KDBQ 112105Z 19025G29KT 10SM CLR 01/M06 A2990 1100 61 -200 190/25G29 RMK AO2 PK WND 19029/2105
94908KDBQ DBQ20020211151011902/11/02 15:10:31  5-MIN KDBQ 112110Z 19020G29KT 10SM CLR 01/M06 A2990 1100 61 -200 190/20G29 RMK AO2 PK WND 19029/2105
94908KDBQ DBQ20020211151511902/11/02 15:15:31  5-MIN KDBQ 112115Z 18025G30KT 10SM CLR 01/M05 A2989 1100 64 -200 180/25G30 RMK AO2 PK WND 17030/2113
94908KDBQ DBQ20020211152011902/11/02 15:20:31  5-MIN KDBQ 112120Z 19021G30KT 10SM CLR 01/M06 A2989 1100 61 -200 190/21G30 RMK AO2 PK WND 17030/2113
94908KDBQ DBQ20020211152511902/11/02 15:25:31  5-MIN KDBQ 112125Z 18021G29KT 10SM CLR 01/M05 A2988 1110 64 -200 180/21G29 RMK AO2 PK WND 17030/2113
94908KDBQ DBQ20020211153012602/11/02 15:30:31  5-MIN KDBQ 112130Z 19023G30KT 10SM CLR 01/M06 A2987 1120 61 -200 190/23G30 RMK AO2 PK WND 19030/2130 PRESFR
94908KDBQ DBQ20020211153512602/11/02 15:35:31  5-MIN KDBQ 112135Z 19024G30KT 10SM CLR 01/M06 A2987 1130 61 -200 180/24G30 RMK AO2 PK WND 19030/2132 PRESFR
94908KDBQ DBQ20020211154011902/11/02 15:40:31  5-MIN KDBQ 112140Z 19023G27KT 10SM CLR 01/M06 A2987 1130 61 -200 180/23G27 RMK AO2 PK WND 19030/2132
94908KDBQ DBQ20020211154512602/11/02 15:45:31  5-MIN KDBQ 112145Z 19022G29KT 10SM CLR 01/M06 A2986 1140 61 -200 180/22G29 RMK AO2 PK WND 19030/2132 PRESFR
94908KDBQ DBQ20020211155014302/11/02 15:50:31  5-MIN KDBQ 112150Z 18019G29KT 10SM CLR 01/M05 A2985 1140 64 -200 180/19G29 RMK AO2 PK WND 19030/2132 PRESFR SLP122 T00111050
94908KDBQ DBQ20020211155514302/11/02 15:55:31  5-MIN KDBQ 112155Z 18023G27KT 10SM CLR 01/M06 A2983 1160 61 -200 180/23G27 RMK AO2 PK WND 18030/2153 PRESFR SLP117 T00111056
94908KDBQ DBQ20020211160011902/11/02 16:00:31  5-MIN KDBQ 112200Z 19024G31KT 10SM CLR 01/M06 A2984 1150 61 -200 180/24G31 RMK AO2 PK WND 18031/2156
94908KDBQ DBQ20020211160511902/11/02 16:05:31  5-MIN KDBQ 112205Z 19023G31KT 10SM CLR 01/M05 A2983 1160 64 -200 190/23G31 RMK AO2 PK WND 18031/2156
94908KDBQ DBQ20020211161011902/11/02 16:10:31  5-MIN KDBQ 112210Z 19023G30KT 10SM CLR 01/M06 A2983 1160 61 -200 190/23G30 RMK AO2 PK WND 18031/2156
94908KDBQ DBQ20020211161511902/11/02 16:15:31  5-MIN KDBQ 112215Z 19025G29KT 10SM CLR 01/M05 A2981 1180 64 -100 180/25G29 RMK AO2 PK WND 18031/2156
94908KDBQ DBQ20020211162011902/11/02 16:20:31  5-MIN KDBQ 112220Z 19023G29KT 10SM CLR 01/M05 A2982 1170 64 -100 180/23G29 RMK AO2 PK WND 18031/2156
94908KDBQ DBQ20020211162511902/11/02 16:25:31  5-MIN KDBQ 112225Z 18023G31KT 10SM CLR 01/M06 A2981 1180 61 -100 180/23G31 RMK AO2 PK WND 18031/2222
94908KDBQ DBQ20020211163011902/11/02 16:30:31  5-MIN KDBQ 112230Z 19024G31KT 10SM CLR 01/M05 A2980 1190 64 -100 180/24G31 RMK AO2 PK WND 19031/2226
94908KDBQ DBQ20020211163511902/11/02 16:35:31  5-MIN KDBQ 112235Z 19023G31KT 10SM CLR 01/M05 A2981 1180 64 -100 190/23G31 RMK AO2 PK WND 19031/2226
94908KDBQ DBQ20020211164011902/11/02 16:40:31  5-MIN KDBQ 112240Z 19022G29KT 10SM CLR 01/M05 A2982 1170 64 -100 190/22G29 RMK AO2 PK WND 19031/2226
94908KDBQ DBQ20020211164511902/11/02 16:45:31  5-MIN KDBQ 112245Z 19020G28KT 10SM CLR 01/M05 A2982 1170 64 -100 190/20G28 RMK AO2 PK WND 19031/2226
94908KDBQ DBQ20020211165013602/11/02 16:50:31  5-MIN KDBQ 112250Z 19021G24KT 10SM CLR 01/M04 A2982 1170 69 -200 190/21G24 RMK AO2 PK WND 19031/2226 SLP111 T00061044
94908KDBQ DBQ20020211165513602/11/02 16:55:31  5-MIN KDBQ 112255Z 19020G24KT 10SM CLR 01/M04 A2982 1170 69 -200 190/20G24 RMK AO2 PK WND 19031/2226 SLP113 T00061044
94908KDBQ DBQ20020211170009502/11/02 17:00:31  5-MIN KDBQ 112300Z 20021KT 10SM CLR 01/M04 A2982 1170 69 -200 200/21 RMK AO2
94908KDBQ DBQ20020211170509502/11/02 17:05:31  5-MIN KDBQ 112305Z 20020KT 10SM CLR 01/M04 A2982 1170 69 -200 190/20 RMK AO2
94908KDBQ DBQ20020211171009502/11/02 17:10:31  5-MIN KDBQ 112310Z 20019KT 10SM CLR 01/M04 A2982 1170 69 -200 200/19 RMK AO2
94908KDBQ DBQ20020211171509502/11/02 17:15:31  5-MIN KDBQ 112315Z 20021KT 10SM CLR 01/M04 A2982 1170 69 -200 200/21 RMK AO2
94908KDBQ DBQ20020211172009502/11/02 17:20:31  5-MIN KDBQ 112320Z 20020KT 10SM CLR 01/M04 A2983 1160 69 -200 200/20 RMK AO2
94908KDBQ DBQ20020211172509502/11/02 17:25:31  5-MIN KDBQ 112325Z 20017KT 10SM CLR 01/M04 A2983 1160 69 -200 200/17 RMK AO2
94908KDBQ DBQ20020211173010102/11/02 17:30:31  5-MIN KDBQ 112330Z 20017G24KT 10SM CLR 01/M04 A2983 1170 69 -200 200/17G24 RMK AO2
94908KDBQ DBQ20020211173510102/11/02 17:35:31  5-MIN KDBQ 112335Z 20018G24KT 10SM CLR 01/M04 A2983 1160 69 -200 200/18G24 RMK AO2
94908KDBQ DBQ20020211174009502/11/02 17:40:31  5-MIN KDBQ 112340Z 20019KT 10SM CLR 01/M04 A2984 1160 69 -200 200/19 RMK AO2
94908KDBQ DBQ20020211174510102/11/02 17:45:31  5-MIN KDBQ 112345Z 20016G22KT 10SM CLR 01/M04 A2984 1150 69 -200 200/16G22 RMK AO2
94908KDBQ DBQ20020211175013602/11/02 17:50:31  5-MIN KDBQ 112350Z 20015G21KT 10SM CLR 01/M04 A2984 1150 69 -200 200/15G21 RMK AO2 SLP119 T00061044 10017 21006 58066
94908KDBQ DBQ20020211175513002/11/02 17:55:31  5-MIN KDBQ 112355Z 20016KT 10SM CLR 01/M04 A2984 1150 69 -200 200/16 RMK AO2 SLP118 T00061044 10017 21006 55022
94908KDBQ DBQ20020211180009502/11/02 18:00:31  5-MIN KDBQ 120000Z 20015KT 10SM CLR 01/M04 A2983 1160 69 -200 200/15 RMK AO2
94908KDBQ DBQ20020211180509502/11/02 18:05:31  5-MIN KDBQ 120005Z 20017KT 10SM CLR 01/M04 A2984 1160 69 -200 200/17 RMK AO2
94908KDBQ DBQ20020211181009502/11/02 18:10:31  5-MIN KDBQ 120010Z 20017KT 10SM CLR 01/M04 A2982 1170 69 -200 200/17 RMK AO2
94908KDBQ DBQ20020211181510202/11/02 18:15:31  5-MIN KDBQ 120015Z 20018KT 10SM CLR 01/M04 A2982 1170 69 -200 200/18 RMK AO2 PRESFR
94908KDBQ DBQ20020211182009502/11/02 18:20:31  5-MIN KDBQ 120020Z 20019KT 10SM CLR 01/M04 A2982 1170 69 -200 200/19 RMK AO2
94908KDBQ DBQ20020211182510102/11/02 18:25:31  5-MIN KDBQ 120025Z 19017G23KT 10SM CLR 01/M04 A2981 1180 72 -200 190/17G23 RMK AO2
94908KDBQ DBQ20020211183009502/11/02 18:30:31  5-MIN KDBQ 120030Z 19020KT 10SM CLR 01/M04 A2980 1190 72 -200 190/20 RMK AO2
94908KDBQ DBQ20020211183510102/11/02 18:35:31  5-MIN KDBQ 120035Z 19020G25KT 10SM CLR 01/M04 A2980 1190 72 -200 190/20G25 RMK AO2
94908KDBQ DBQ20020211184010102/11/02 18:40:31  5-MIN KDBQ 120040Z 19019G25KT 10SM CLR 01/M04 A2980 1190 72 -200 190/19G25 RMK AO2
94908KDBQ DBQ20020211184510102/11/02 18:45:31  5-MIN KDBQ 120045Z 19021G25KT 10SM CLR 01/M04 A2979 1200 72 -200 190/21G25 RMK AO2
94908KDBQ DBQ20020211185011202/11/02 18:50:31  5-MIN KDBQ 120050Z 20019KT 10SM CLR 01/M04 A2979 1200 72 -200 200/19 RMK AO2 SLP101 T00061039
94908KDBQ DBQ20020211185511202/11/02 18:55:31  5-MIN KDBQ 120055Z 20019KT 10SM CLR 01/M04 A2979 1200 72 -200 190/19 RMK AO2 SLP102 T00061039
94908KDBQ DBQ20020211190010102/11/02 19:00:31  5-MIN KDBQ 120100Z 21017G25KT 10SM CLR 01/M04 A2980 1190 69 -100 210/17G25 RMK AO2
94908KDBQ DBQ20020211190509502/11/02 19:05:31  5-MIN KDBQ 120105Z 20016KT 10SM CLR 01/M04 A2980 1190 69 -100 200/16 RMK AO2
94908KDBQ DBQ20020211191010102/11/02 19:10:31  5-MIN KDBQ 120110Z 20017G22KT 10SM CLR 01/M04 A2979 1200 66 -100 200/17G22 RMK AO2
94908KDBQ DBQ20020211191510102/11/02 19:15:31  5-MIN KDBQ 120115Z 21018G23KT 10SM CLR 01/M04 A2979 1200 66 -100 210/18G23 RMK AO2
94908KDBQ DBQ20020211192009502/11/02 19:20:31  5-MIN KDBQ 120120Z 21020KT 10SM CLR 01/M04 A2979 1200 66 -100 210/20 RMK AO2
94908KDBQ DBQ20020211192510102/11/02 19:25:31  5-MIN KDBQ 120125Z 21020G25KT 10SM CLR 01/M04 A2978 1210 66 -100 200/20G25 RMK AO2
94908KDBQ DBQ20020211193010102/11/02 19:30:31  5-MIN KDBQ 120130Z 21019G25KT 10SM CLR 01/M04 A2978 1210 66 -100 210/19G25 RMK AO2
94908KDBQ DBQ20020211193509902/11/02 19:35:31  5-MIN KDBQ 120135Z 21021KT 10SM CLR 02/M04 A2977 1220 64 0 210/21 RMK AO2 PRESFR
94908KDBQ DBQ20020211194012302/11/02 19:40:31  5-MIN KDBQ 120140Z 21022G26KT 10SM CLR 02/M04 A2975 1230 64 0 210/22G26 RMK AO2 PK WND 21026/0140 PRESFR
94908KDBQ DBQ20020211194511602/11/02 19:45:31  5-MIN KDBQ 120145Z 21022G28KT 10SM CLR 02/M04 A2977 1220 64 0 210/22G28 RMK AO2 PK WND 21028/0144
94908KDBQ DBQ20020211195013302/11/02 19:50:31  5-MIN KDBQ 120150Z 21021G28KT 10SM CLR 02/M04 A2977 1220 61 0 210/21G28 RMK AO2 PK WND 21028/0144 SLP093 T00221044
94908KDBQ DBQ20020211195513302/11/02 19:55:31  5-MIN KDBQ 120155Z 21020G26KT 10SM CLR 02/M04 A2978 1210 61 0 210/20G26 RMK AO2 PK WND 21028/0144 SLP097 T00221044
94908KDBQ DBQ20020211200010202/11/02 20:00:31  5-MIN KDBQ 120200Z AUTO 21020KT 10SM CLR 02/M04 A2978 1210 64 0 210/20 RMK AO2 TSNO
94908KDBQ DBQ20020211200510202/11/02 20:05:31  5-MIN KDBQ 120205Z AUTO 22021KT 10SM CLR 02/M04 A2978 1210 64 0 220/21 RMK AO2 TSNO
94908KDBQ DBQ20020211201010202/11/02 20:10:31  5-MIN KDBQ 120210Z AUTO 22020KT 10SM CLR 02/M04 A2978 1210 64 0 220/20 RMK AO2 TSNO
94908KDBQ DBQ20020211201510202/11/02 20:15:31  5-MIN KDBQ 120215Z AUTO 21019KT 10SM CLR 02/M04 A2978 1210 64 0 210/19 RMK AO2 TSNO
94908KDBQ DBQ20020211202010202/11/02 20:20:31  5-MIN KDBQ 120220Z AUTO 22019KT 10SM CLR 02/M04 A2977 1220 64 0 210/19 RMK AO2 TSNO
94908KDBQ DBQ20020211202510202/11/02 20:25:31  5-MIN KDBQ 120225Z AUTO 22017KT 10SM CLR 02/M04 A2977 1220 64 0 220/17 RMK AO2 TSNO
94908KDBQ DBQ20020211203010202/11/02 20:30:31  5-MIN KDBQ 120230Z AUTO 22017KT 10SM CLR 02/M04 A2977 1210 66 0 220/17 RMK AO2 TSNO
94908KDBQ DBQ20020211203510202/11/02 20:35:31  5-MIN KDBQ 120235Z AUTO 22018KT 10SM CLR 02/M04 A2977 1210 64 0 210/18 RMK AO2 TSNO
94908KDBQ DBQ20020211204010202/11/02 20:40:31  5-MIN KDBQ 120240Z AUTO 21017KT 10SM CLR 02/M04 A2977 1210 64 0 210/17 RMK AO2 TSNO
94908KDBQ DBQ20020211204510202/11/02 20:45:31  5-MIN KDBQ 120245Z AUTO 22017KT 10SM CLR 02/M04 A2977 1220 64 0 210/17 RMK AO2 TSNO
94908KDBQ DBQ20020211205012502/11/02 20:50:31  5-MIN KDBQ 120250Z AUTO 22015KT 10SM CLR 02/M04 A2977 1210 66 0 210/15 RMK AO2 SLP094 T00171039 55022 TSNO
94908KDBQ DBQ20020211205512502/11/02 20:55:31  5-MIN KDBQ 120255Z AUTO 22014KT 10SM CLR 02/M04 A2977 1210 66 0 220/14 RMK AO2 SLP094 T00171039 56021 TSNO
94908KDBQ DBQ20020211210010202/11/02 21:00:31  5-MIN KDBQ 120300Z AUTO 22014KT 10SM CLR 02/M04 A2978 1210 66 0 220/14 RMK AO2 TSNO
94908KDBQ DBQ20020211210510202/11/02 21:05:31  5-MIN KDBQ 120305Z AUTO 21014KT 10SM CLR 02/M04 A2978 1210 66 0 210/14 RMK AO2 TSNO
94908KDBQ DBQ20020211211010202/11/02 21:10:31  5-MIN KDBQ 120310Z AUTO 23014KT 10SM CLR 02/M04 A2978 1210 66 0 220/14 RMK AO2 TSNO
94908KDBQ DBQ20020211211510202/11/02 21:15:31  5-MIN KDBQ 120315Z AUTO 23013KT 10SM CLR 02/M04 A2978 1210 66 0 230/13 RMK AO2 TSNO
94908KDBQ DBQ20020211212010202/11/02 21:20:31  5-MIN KDBQ 120320Z AUTO 23017KT 10SM CLR 02/M04 A2978 1210 64 0 230/17 RMK AO2 TSNO
94908KDBQ DBQ20020211212510202/11/02 21:25:31  5-MIN KDBQ 120325Z AUTO 23017KT 10SM CLR 02/M04 A2977 1210 64 0 230/17 RMK AO2 TSNO
94908KDBQ DBQ20020211213010202/11/02 21:30:31  5-MIN KDBQ 120330Z AUTO 23016KT 10SM CLR 02/M04 A2977 1210 64 0 230/16 RMK AO2 TSNO
94908KDBQ DBQ20020211213510202/11/02 21:35:31  5-MIN KDBQ 120335Z AUTO 23016KT 10SM CLR 02/M04 A2978 1210 64 0 230/16 RMK AO2 TSNO
94908KDBQ DBQ20020211214010202/11/02 21:40:31  5-MIN KDBQ 120340Z AUTO 23017KT 10SM CLR 02/M04 A2978 1210 64 0 230/17 RMK AO2 TSNO
94908KDBQ DBQ20020211214510802/11/02 21:45:31  5-MIN KDBQ 120345Z AUTO 24014G23KT 10SM CLR 02/M04 A2978 1210 64 0 240/14G23 RMK AO2 TSNO
94908KDBQ DBQ20020211215012502/11/02 21:50:31  5-MIN KDBQ 120350Z AUTO 24015G23KT 10SM CLR 02/M04 A2977 1220 64 0 240/15G23 RMK AO2 SLP092 T00221039 TSNO
94908KDBQ DBQ20020211215511902/11/02 21:55:31  5-MIN KDBQ 120355Z AUTO 24017KT 10SM CLR 02/M04 A2977 1220 64 0 240/17 RMK AO2 SLP093 T00221039 TSNO
94908KDBQ DBQ20020211220010202/11/02 22:00:31  5-MIN KDBQ 120400Z AUTO 25015KT 10SM CLR 02/M03 A2977 1220 67 0 250/15 RMK AO2 TSNO
94908KDBQ DBQ20020211220510202/11/02 22:05:31  5-MIN KDBQ 120405Z AUTO 24016KT 10SM CLR 02/M03 A2977 1220 67 0 240/16 RMK AO2 TSNO
94908KDBQ DBQ20020211221010202/11/02 22:10:31  5-MIN KDBQ 120410Z AUTO 24016KT 10SM CLR 02/M03 A2978 1210 67 0 240/16 RMK AO2 TSNO
94908KDBQ DBQ20020211221510202/11/02 22:15:31  5-MIN KDBQ 120415Z AUTO 24015KT 10SM CLR 02/M03 A2977 1210 67 0 240/15 RMK AO2 TSNO
94908KDBQ DBQ20020211222010202/11/02 22:20:31  5-MIN KDBQ 120420Z AUTO 24014KT 10SM CLR 02/M03 A2977 1220 67 0 240/14 RMK AO2 TSNO
94908KDBQ DBQ20020211222510802/11/02 22:25:31  5-MIN KDBQ 120425Z AUTO 25015G22KT 10SM CLR 02/M03 A2978 1210 69 0 250/15G22 RMK AO2 TSNO
94908KDBQ DBQ20020211223010802/11/02 22:30:31  5-MIN KDBQ 120430Z AUTO 25015G22KT 10SM CLR 02/M03 A2977 1220 69 0 250/15G22 RMK AO2 TSNO
94908KDBQ DBQ20020211223510202/11/02 22:35:31  5-MIN KDBQ 120435Z AUTO 25017KT 10SM CLR 02/M03 A2977 1210 69 0 250/17 RMK AO2 TSNO
94908KDBQ DBQ20020211224010202/11/02 22:40:31  5-MIN KDBQ 120440Z AUTO 25015KT 10SM CLR 02/M03 A2978 1210 69 0 250/15 RMK AO2 TSNO
94908KDBQ DBQ20020211224510202/11/02 22:45:31  5-MIN KDBQ 120445Z AUTO 26016KT 10SM CLR 02/M03 A2978 1210 69 0 250/16 RMK AO2 TSNO
94908KDBQ DBQ20020211225011902/11/02 22:50:31  5-MIN KDBQ 120450Z AUTO 26016KT 10SM CLR 02/M03 A2978 1210 69 0 260/16 RMK AO2 SLP095 T00221028 TSNO
94908KDBQ DBQ20020211225511902/11/02 22:55:31  5-MIN KDBQ 120455Z AUTO 26016KT 10SM CLR 02/M02 A2978 1210 72 0 260/16 RMK AO2 SLP095 T00221022 TSNO
94908KDBQ DBQ20020211230010202/11/02 23:00:31  5-MIN KDBQ 120500Z AUTO 26016KT 10SM CLR 02/M02 A2978 1210 72 0 260/16 RMK AO2 TSNO
94908KDBQ DBQ20020211230510202/11/02 23:05:31  5-MIN KDBQ 120505Z AUTO 27016KT 10SM CLR 02/M02 A2978 1210 72 0 260/16 RMK AO2 TSNO
94908KDBQ DBQ20020211231010802/11/02 23:10:31  5-MIN KDBQ 120510Z AUTO 27016G22KT 10SM CLR 02/M02 A2978 1210 72 0 260/16G22 RMK AO2 TSNO
94908KDBQ DBQ20020211231510202/11/02 23:15:31  5-MIN KDBQ 120515Z AUTO 27017KT 10SM CLR 02/M02 A2979 1200 75 0 270/17 RMK AO2 TSNO
94908KDBQ DBQ20020211232010202/11/02 23:20:31  5-MIN KDBQ 120520Z AUTO 27019KT 10SM CLR 02/M02 A2979 1200 75 0 270/19 RMK AO2 TSNO
94908KDBQ DBQ20020211232510802/11/02 23:25:31  5-MIN KDBQ 120525Z AUTO 27019G24KT 10SM CLR 02/M02 A2979 1200 72 0 270/19G24 RMK AO2 TSNO
94908KDBQ DBQ20020211233010802/11/02 23:30:31  5-MIN KDBQ 120530Z AUTO 28017G24KT 10SM CLR 02/M02 A2979 1200 72 0 280/17G24 RMK AO2 TSNO
94908KDBQ DBQ20020211233510802/11/02 23:35:31  5-MIN KDBQ 120535Z AUTO 28018G25KT 10SM CLR 02/M02 A2979 1200 72 0 280/18G25 RMK AO2 TSNO
94908KDBQ DBQ20020211234010802/11/02 23:40:31  5-MIN KDBQ 120540Z AUTO 28018G25KT 10SM CLR 02/M02 A2979 1200 72 0 280/18G25 RMK AO2 TSNO
94908KDBQ DBQ20020211234511102/11/02 23:45:31  5-MIN KDBQ 120545Z AUTO 28017G23KT 10SM FEW035 02/M02 A2979 1200 72 0 280/17G23 RMK AO2 TSNO
94908KDBQ DBQ20020211235015602/11/02 23:50:31  5-MIN KDBQ 120550Z AUTO 28015G23KT 10SM FEW035 02/M02 A2980 1190 72 0 280/15G23 RMK AO2 SLP100 T00221022 10022 20006 400221072 56021 TSNO
94908KDBQ DBQ20020211235515602/11/02 23:55:31  5-MIN KDBQ 120555Z AUTO 27015G23KT 10SM SCT035 03/M02 A2980 1190 69 0 270/15G23 RMK AO2 SLP102 T00281022 10028 20006 400281072 53009 TSNO
94908KDBQ DBQ20020212000011102/12/02 00:00:31  5-MIN KDBQ 120600Z AUTO 27015G23KT 10SM BKN035 03/M02 A2980 1190 69 0 270/15G23 RMK AO2 TSNO
94908KDBQ DBQ20020212000510502/12/02 00:05:31  5-MIN KDBQ 120605Z AUTO 27015KT 10SM BKN035 03/M02 A2980 1190 69 0 270/15 RMK AO2 TSNO
94908KDBQ DBQ20020212001010502/12/02 00:10:31  5-MIN KDBQ 120610Z AUTO 27016KT 10SM OVC035 03/M02 A2980 1190 69 0 270/16 RMK AO2 TSNO
94908KDBQ DBQ20020212001510502/12/02 00:15:31  5-MIN KDBQ 120615Z AUTO 27015KT 10SM OVC035 03/M02 A2980 1190 69 0 270/15 RMK AO2 TSNO
94908KDBQ DBQ20020212002010502/12/02 00:20:31  5-MIN KDBQ 120620Z AUTO 27016KT 10SM BKN035 02/M02 A2980 1190 72 0 270/16 RMK AO2 TSNO
94908KDBQ DBQ20020212002511102/12/02 00:25:31  5-MIN KDBQ 120625Z AUTO 27016G23KT 10SM BKN035 02/M02 A2980 1190 72 0 270/16G23 RMK AO2 TSNO
94908KDBQ DBQ20020212003011102/12/02 00:30:31  5-MIN KDBQ 120630Z AUTO 27016G23KT 10SM SCT035 03/M02 A2981 1180 69 0 270/16G23 RMK AO2 TSNO
94908KDBQ DBQ20020212003510502/12/02 00:35:31  5-MIN KDBQ 120635Z AUTO 27017KT 10SM SCT033 02/M02 A2981 1180 72 0 270/17 RMK AO2 TSNO
94908KDBQ DBQ20020212004010502/12/02 00:40:31  5-MIN KDBQ 120640Z AUTO 27015KT 10SM FEW035 02/M02 A2980 1190 72 0 270/15 RMK AO2 TSNO
94908KDBQ DBQ20020212004510802/12/02 00:45:31  5-MIN KDBQ 120645Z AUTO 27018G22KT 10SM CLR 02/M02 A2980 1190 72 0 270/18G22 RMK AO2 TSNO
94908KDBQ DBQ20020212005012802/12/02 00:50:31  5-MIN KDBQ 120650Z AUTO 27016G22KT 10SM FEW037 02/M02 A2980 1190 72 0 270/16G22 RMK AO2 SLP103 T00221022 TSNO
94908KDBQ DBQ20020212005512202/12/02 00:55:31  5-MIN KDBQ 120655Z AUTO 27017KT 10SM SCT037 02/M02 A2980 1190 72 0 270/17 RMK AO2 SLP102 T00221022 TSNO
94908KDBQ DBQ20020212010010502/12/02 01:00:31  5-MIN KDBQ 120700Z AUTO 27016KT 10SM BKN037 03/M02 A2981 1180 72 0 270/16 RMK AO2 TSNO
94908KDBQ DBQ20020212010510502/12/02 01:05:31  5-MIN KDBQ 120705Z AUTO 27016KT 10SM BKN037 03/M02 A2981 1180 72 0 270/16 RMK AO2 TSNO
94908KDBQ DBQ20020212011010502/12/02 01:10:31  5-MIN KDBQ 120710Z AUTO 27014KT 10SM BKN037 02/M02 A2981 1180 75 0 270/14 RMK AO2 TSNO
94908KDBQ DBQ20020212011510502/12/02 01:15:31  5-MIN KDBQ 120715Z AUTO 27017KT 10SM OVC037 03/M02 A2981 1180 72 0 270/17 RMK AO2 TSNO
94908KDBQ DBQ20020212012011102/12/02 01:20:31  5-MIN KDBQ 120720Z AUTO 27016G21KT 10SM OVC037 03/M02 A2981 1180 72 0 270/16G21 RMK AO2 TSNO
94908KDBQ DBQ20020212012511102/12/02 01:25:31  5-MIN KDBQ 120725Z AUTO 26017G22KT 10SM OVC035 03/M02 A2981 1180 72 0 260/17G22 RMK AO2 TSNO
94908KDBQ DBQ20020212013011102/12/02 01:30:31  5-MIN KDBQ 120730Z AUTO 27015G22KT 10SM OVC035 03/M02 A2981 1180 72 0 270/15G22 RMK AO2 TSNO
94908KDBQ DBQ20020212013510502/12/02 01:35:31  5-MIN KDBQ 120735Z AUTO 27016KT 10SM OVC035 02/M02 A2981 1180 75 0 270/16 RMK AO2 TSNO
94908KDBQ DBQ20020212014011102/12/02 01:40:31  5-MIN KDBQ 120740Z AUTO 26016G23KT 10SM OVC035 03/M02 A2982 1180 72 0 260/16G23 RMK AO2 TSNO
94908KDBQ DBQ20020212014511102/12/02 01:45:31  5-MIN KDBQ 120745Z AUTO 27018G24KT 10SM OVC035 03/M02 A2982 1170 72 0 270/18G24 RMK AO2 TSNO
94908KDBQ DBQ20020212015012802/12/02 01:50:31  5-MIN KDBQ 120750Z AUTO 27016G24KT 10SM OVC035 03/M02 A2982 1170 72 0 270/16G24 RMK AO2 SLP107 T00281017 TSNO
94908KDBQ DBQ20020212015512802/12/02 01:55:31  5-MIN KDBQ 120755Z AUTO 27018G22KT 10SM OVC033 02/M02 A2982 1170 75 0 270/18G22 RMK AO2 SLP106 T00221017 TSNO
94908KDBQ DBQ20020212020012902/12/02 02:00:31  5-MIN KDBQ 120800Z AUTO 27022G29KT 10SM OVC033 03/M02 A2982 1170 72 0 270/22G29 RMK AO2 PK WND 27029/0759 TSNO
94908KDBQ DBQ20020212020512902/12/02 02:05:31  5-MIN KDBQ 120805Z AUTO 26021G29KT 10SM OVC033 03/M02 A2982 1170 72 0 260/21G29 RMK AO2 PK WND 27029/0759 TSNO
94908KDBQ DBQ20020212021012902/12/02 02:10:31  5-MIN KDBQ 120810Z AUTO 27020G26KT 10SM OVC033 03/M02 A2982 1170 69 0 260/20G26 RMK AO2 PK WND 27029/0759 TSNO
94908KDBQ DBQ20020212021512902/12/02 02:15:31  5-MIN KDBQ 120815Z AUTO 27019G26KT 10SM OVC033 02/M02 A2982 1170 72 0 270/19G26 RMK AO2 PK WND 27029/0759 TSNO
94908KDBQ DBQ20020212022012902/12/02 02:20:31  5-MIN KDBQ 120820Z AUTO 27017G25KT 10SM OVC033 02/M02 A2982 1170 72 0 270/17G25 RMK AO2 PK WND 27029/0759 TSNO
94908KDBQ DBQ20020212022512902/12/02 02:25:31  5-MIN KDBQ 120825Z AUTO 27018G25KT 10SM OVC033 02/M02 A2982 1170 72 0 270/18G25 RMK AO2 PK WND 27029/0759 TSNO
94908KDBQ DBQ20020212023012902/12/02 02:30:31  5-MIN KDBQ 120830Z AUTO 28021G26KT 10SM OVC033 03/M02 A2982 1170 69 0 280/21G26 RMK AO2 PK WND 27029/0759 TSNO
94908KDBQ DBQ20020212023512902/12/02 02:35:31  5-MIN KDBQ 120835Z AUTO 27019G26KT 10SM OVC033 02/M02 A2982 1170 72 0 270/19G26 RMK AO2 PK WND 27029/0759 TSNO
94908KDBQ DBQ20020212024012902/12/02 02:40:31  5-MIN KDBQ 120840Z AUTO 28021G25KT 10SM OVC033 03/M03 A2982 1170 67 0 280/21G25 RMK AO2 PK WND 27029/0759 TSNO
94908KDBQ DBQ20020212024513602/12/02 02:45:31  5-MIN KDBQ 120845Z AUTO 28020G26KT 10SM SCT030 OVC035 02/M03 A2982 1170 69 0 280/20G26 RMK AO2 PK WND 27029/0759 TSNO
94908KDBQ DBQ20020212025015202/12/02 02:50:31  5-MIN KDBQ 120850Z AUTO 28019G26KT 10SM OVC035 03/M03 A2982 1170 67 0 280/19G26 RMK AO2 PK WND 27029/0759 SLP108 T00281028 53009 TSNO
94908KDBQ DBQ20020212025514602/12/02 02:55:31  5-MIN KDBQ 120855Z AUTO 28019KT 10SM OVC035 02/M03 A2982 1170 69 0 280/19 RMK AO2 PK WND 27029/0759 SLP108 T00221028 53006 TSNO
94908KDBQ DBQ20020212030011102/12/02 03:00:31  5-MIN KDBQ 120900Z AUTO 28016G21KT 10SM OVC035 02/M03 A2982 1170 69 0 280/16G21 RMK AO2 TSNO
94908KDBQ DBQ20020212030511102/12/02 03:05:31  5-MIN KDBQ 120905Z AUTO 28021G25KT 10SM OVC035 02/M03 A2982 1170 69 0 280/21G25 RMK AO2 TSNO
94908KDBQ DBQ20020212031011102/12/02 03:10:31  5-MIN KDBQ 120910Z AUTO 29020G25KT 10SM OVC035 02/M03 A2983 1170 69 0 290/20G25 RMK AO2 TSNO
94908KDBQ DBQ20020212031512902/12/02 03:15:31  5-MIN KDBQ 120915Z AUTO 29020G28KT 10SM OVC037 02/M03 A2983 1170 67 0 290/20G28 RMK AO2 PK WND 29028/0913 TSNO
94908KDBQ DBQ20020212032012902/12/02 03:20:31  5-MIN KDBQ 120920Z AUTO 28022G28KT 10SM OVC037 03/M03 A2983 1160 64 0 280/22G28 RMK AO2 PK WND 27028/0919 TSNO
94908KDBQ DBQ20020212032512902/12/02 03:25:31  5-MIN KDBQ 120925Z AUTO 28017G28KT 10SM OVC037 02/M03 A2983 1160 67 0 280/17G28 RMK AO2 PK WND 27028/0919 TSNO
94908KDBQ DBQ20020212033012902/12/02 03:30:31  5-MIN KDBQ 120930Z AUTO 27016G26KT 10SM OVC037 02/M03 A2983 1160 69 0 270/16G26 RMK AO2 PK WND 27028/0919 TSNO
94908KDBQ DBQ20020212033512302/12/02 03:35:31  5-MIN KDBQ 120935Z AUTO 27016KT 10SM OVC037 02/M03 A2983 1160 69 0 270/16 RMK AO2 PK WND 27028/0919 TSNO
94908KDBQ DBQ20020212034012902/12/02 03:40:31  5-MIN KDBQ 120940Z AUTO 28014G22KT 10SM OVC037 02/M02 A2983 1160 72 0 270/14G22 RMK AO2 PK WND 27028/0919 TSNO
94908KDBQ DBQ20020212034512902/12/02 03:45:31  5-MIN KDBQ 120945Z AUTO 27014G22KT 10SM OVC037 02/M02 A2984 1160 72 0 270/14G22 RMK AO2 PK WND 27028/0919 TSNO
94908KDBQ DBQ20020212035014002/12/02 03:50:31  5-MIN KDBQ 120950Z AUTO 28012KT 10SM OVC036 02/M02 A2983 1160 72 0 280/12 RMK AO2 PK WND 27028/0919 SLP113 T00221022 TSNO
94908KDBQ DBQ20020212035514302/12/02 03:55:31  5-MIN KDBQ 120955Z AUTO 27013KT 10SM OVC036 02/M02 A2983 1160 78 -100 270/13 RMK AO2 PK WND 27028/0919 SLP113 T00171017 TSNO
94908KDBQ DBQ20020212040010802/12/02 04:00:31  5-MIN KDBQ 121000Z AUTO 28013KT 10SM OVC036 02/M02 A2983 1160 78 -100 280/13 RMK AO2 TSNO
94908KDBQ DBQ20020212040511402/12/02 04:05:31  5-MIN KDBQ 121005Z AUTO 27011G20KT 10SM OVC034 02/M02 A2984 1160 78 -100 270/11G20 RMK AO2 TSNO
94908KDBQ DBQ20020212041011402/12/02 04:10:31  5-MIN KDBQ 121010Z AUTO 28014G20KT 10SM OVC034 02/M02 A2984 1160 78 -100 280/14G20 RMK AO2 TSNO
94908KDBQ DBQ20020212041510802/12/02 04:15:31  5-MIN KDBQ 121015Z AUTO 28013KT 10SM OVC034 02/M02 A2984 1150 78 -100 280/13 RMK AO2 TSNO
94908KDBQ DBQ20020212042010802/12/02 04:20:31  5-MIN KDBQ 121020Z AUTO 27015KT 10SM OVC034 02/M02 A2984 1150 78 -100 270/15 RMK AO2 TSNO
94908KDBQ DBQ20020212042511402/12/02 04:25:31  5-MIN KDBQ 121025Z AUTO 28012G19KT 10SM OVC034 02/M02 A2984 1150 78 -100 280/12G19 RMK AO2 TSNO
94908KDBQ DBQ20020212043011402/12/02 04:30:31  5-MIN KDBQ 121030Z AUTO 28013G19KT 10SM OVC034 02/M02 A2984 1150 78 -100 280/13G19 RMK AO2 TSNO
94908KDBQ DBQ20020212043511502/12/02 04:35:31  5-MIN KDBQ 121035Z AUTO 28013KT 10SM FEW025 OVC032 02/M02 A2984 1150 78 -100 280/13 RMK AO2 TSNO
94908KDBQ DBQ20020212044012202/12/02 04:40:31  5-MIN KDBQ 121040Z AUTO 29013KT 10SM FEW022 BKN030 OVC035 02/M02 A2985 1150 78 -100 290/13 RMK AO2 TSNO
94908KDBQ DBQ20020212044512202/12/02 04:45:31  5-MIN KDBQ 121045Z AUTO 29011KT 10SM FEW018 SCT024 OVC033 02/M01 A2985 1140 82 -100 290/11 RMK AO2 TSNO
94908KDBQ DBQ20020212045013902/12/02 04:50:31  5-MIN KDBQ 121050Z AUTO 29013KT 10SM SCT019 BKN025 OVC031 02/M01 A2985 1140 82 -100 290/13 RMK AO2 SLP119 T00171011 TSNO
94908KDBQ DBQ20020212045513202/12/02 04:55:31  5-MIN KDBQ 121055Z AUTO 29013KT 10SM BKN019 OVC028 02/M02 A2985 1140 78 -100 290/13 RMK AO2 SLP119 T00171017 TSNO
94908KDBQ DBQ20020212050012202/12/02 05:00:31  5-MIN KDBQ 121100Z AUTO 29014KT 10SM BKN019 BKN026 OVC030 02/M02 A2985 1140 78 -100 290/14 RMK AO2 TSNO
94908KDBQ DBQ20020212050512802/12/02 05:05:31  5-MIN KDBQ 121105Z AUTO 29017G23KT 10SM BKN019 BKN026 OVC032 02/M02 A2985 1140 78 -100 290/17G23 RMK AO2 TSNO
94908KDBQ DBQ20020212051014602/12/02 05:10:31  5-MIN KDBQ 121110Z AUTO 30023G28KT 10SM SCT019 BKN026 OVC036 02/M03 A2986 1140 69 -100 300/23G28 RMK AO2 PK WND 30028/1110 TSNO
94908KDBQ DBQ20020212051514602/12/02 05:15:31  5-MIN KDBQ 121115Z AUTO 31021G28KT 10SM SCT019 SCT026 OVC036 02/M04 A2986 1130 66 -100 300/21G28 RMK AO2 PK WND 30028/1110 TSNO
94908KDBQ DBQ20020212052014602/12/02 05:20:31  5-MIN KDBQ 121120Z AUTO 30017G26KT 10SM FEW019 SCT026 OVC036 02/M04 A2987 1130 66 -100 290/17G26 RMK AO2 PK WND 30028/1110 TSNO
94908KDBQ DBQ20020212052513902/12/02 05:25:31  5-MIN KDBQ 121125Z AUTO 29021G25KT 10SM FEW021 OVC034 02/M04 A2987 1130 66 -100 290/21G25 RMK AO2 PK WND 30028/1110 TSNO
94908KDBQ DBQ20020212053013202/12/02 05:30:31  5-MIN KDBQ 121130Z AUTO 30018G25KT 10SM OVC033 02/M04 A2987 1120 66 -100 300/18G25 RMK AO2 PK WND 30028/1110 TSNO
94908KDBQ DBQ20020212053512602/12/02 05:35:31  5-MIN KDBQ 121135Z AUTO 30015KT 10SM OVC033 02/M04 A2987 1120 66 -100 290/15 RMK AO2 PK WND 30028/1110 TSNO
94908KDBQ DBQ20020212054013202/12/02 05:40:31  5-MIN KDBQ 121140Z AUTO 30017G24KT 10SM BKN033 02/M04 A2987 1120 66 -100 300/17G24 RMK AO2 PK WND 30028/1110 TSNO
94908KDBQ DBQ20020212054513202/12/02 05:45:31  5-MIN KDBQ 121145Z AUTO 30018G24KT 10SM BKN033 01/M04 A2988 1120 69 -200 290/18G24 RMK AO2 PK WND 30028/1110 TSNO
94908KDBQ DBQ20020212055015702/12/02 05:50:31  5-MIN KDBQ 121150Z 29015G24KT 10SM BKN032 01/M04 A2988 1110 69 -200 290/15G24 RMK AO2 PK WND 30028/1110 SLP130 T00111039 10028 20011 53006
94908KDBQ DBQ20020212055515702/12/02 05:55:31  5-MIN KDBQ 121155Z 29013G24KT 10SM BKN034 01/M04 A2988 1110 69 -200 290/13G24 RMK AO2 PK WND 30028/1110 SLP130 T00111039 10028 20011 53020
94908KDBQ DBQ20020212060010402/12/02 06:00:31  5-MIN KDBQ 121200Z 29013G22KT 10SM SCT034 01/M04 A2988 1110 72 -300 290/13G22 RMK AO2
94908KDBQ DBQ20020212060510402/12/02 06:05:31  5-MIN KDBQ 121205Z 28017G22KT 10SM FEW034 01/M04 A2988 1110 69 -300 280/17G22 RMK AO2
94908KDBQ DBQ20020212061010402/12/02 06:10:31  5-MIN KDBQ 121210Z 28014G21KT 10SM FEW034 01/M04 A2989 1110 72 -300 280/14G21 RMK AO2
94908KDBQ DBQ20020212061509802/12/02 06:15:31  5-MIN KDBQ 121215Z 28015KT 10SM FEW034 01/M04 A2989 1110 72 -300 280/15 RMK AO2
94908KDBQ DBQ20020212062009802/12/02 06:20:31  5-MIN KDBQ 121220Z 28013KT 10SM FEW034 01/M04 A2989 1110 72 -300 280/13 RMK AO2
94908KDBQ DBQ20020212062509502/12/02 06:25:31  5-MIN KDBQ 121225Z 28014KT 10SM CLR 01/M04 A2989 1110 72 -300 280/14 RMK AO2
94908KDBQ DBQ20020212063009502/12/02 06:30:31  5-MIN KDBQ 121230Z 27015KT 10SM CLR 00/M04 A2989 1100 75 -400 270/15 RMK AO2
94908KDBQ DBQ20020212063509502/12/02 06:35:31  5-MIN KDBQ 121235Z 28015KT 10SM CLR 00/M04 A2989 1100 75 -400 280/15 RMK AO2
94908KDBQ DBQ20020212064009502/12/02 06:40:31  5-MIN KDBQ 121240Z 28015KT 10SM CLR 00/M04 A2990 1100 75 -400 270/15 RMK AO2
94908KDBQ DBQ20020212064509502/12/02 06:45:31  5-MIN KDBQ 121245Z 27016KT 10SM CLR 00/M04 A2990 1100 75 -400 270/16 RMK AO2
94908KDBQ DBQ20020212065011202/12/02 06:50:31  5-MIN KDBQ 121250Z 27016KT 10SM CLR 00/M04 A2990 1090 75 -400 270/16 RMK AO2 SLP138 T00001039
94908KDBQ DBQ20020212065511202/12/02 06:55:31  5-MIN KDBQ 121255Z 27015KT 10SM CLR 00/M04 A2991 1090 75 -400 270/15 RMK AO2 SLP139 T00001039
94908KDBQ DBQ20020212070009502/12/02 07:00:31  5-MIN KDBQ 121300Z 28015KT 10SM CLR 00/M03 A2991 1080 78 -400 280/15 RMK AO2
94908KDBQ DBQ20020212070509802/12/02 07:05:31  5-MIN KDBQ 121305Z 28014KT 10SM FEW031 00/M03 A2992 1080 78 -400 280/14 RMK AO2
94908KDBQ DBQ20020212071009802/12/02 07:10:31  5-MIN KDBQ 121310Z 28015KT 10SM SCT031 00/M04 A2992 1080 75 -400 280/15 RMK AO2
94908KDBQ DBQ20020212071509802/12/02 07:15:31  5-MIN KDBQ 121315Z 28014KT 10SM SCT033 00/M04 A2992 1080 75 -400 280/14 RMK AO2
94908KDBQ DBQ20020212072010402/12/02 07:20:31  5-MIN KDBQ 121320Z 28018G22KT 10SM SCT031 00/M04 A2993 1070 75 -400 280/18G22 RMK AO2
94908KDBQ DBQ20020212072510402/12/02 07:25:31  5-MIN KDBQ 121325Z 28015G22KT 10SM FEW031 00/M04 A2993 1070 75 -400 280/15G22 RMK AO2
94908KDBQ DBQ20020212073009802/12/02 07:30:31  5-MIN KDBQ 121330Z 28015KT 10SM FEW031 00/M04 A2993 1070 75 -400 280/15 RMK AO2
94908KDBQ DBQ20020212073509802/12/02 07:35:31  5-MIN KDBQ 121335Z 28017KT 10SM FEW031 00/M04 A2993 1070 75 -400 280/17 RMK AO2
94908KDBQ DBQ20020212074009802/12/02 07:40:31  5-MIN KDBQ 121340Z 28016KT 10SM FEW031 00/M04 A2993 1070 75 -400 280/16 RMK AO2
94908KDBQ DBQ20020212074509502/12/02 07:45:31  5-MIN KDBQ 121345Z 28017KT 10SM CLR 00/M04 A2994 1060 75 -400 280/17 RMK AO2
94908KDBQ DBQ20020212075011202/12/02 07:50:31  5-MIN KDBQ 121350Z 28016KT 10SM CLR 01/M04 A2994 1060 72 -400 280/16 RMK AO2 SLP149 T00061039
94908KDBQ DBQ20020212075511802/12/02 07:55:31  5-MIN KDBQ 121355Z 27015G21KT 10SM CLR 01/M04 A2994 1060 72 -400 270/15G21 RMK AO2 SLP150 T00061039
94908KDBQ DBQ20020212080010102/12/02 08:00:31  5-MIN KDBQ 121400Z 27012G21KT 10SM CLR 01/M04 A2995 1050 72 -400 270/12G21 RMK AO2
94908KDBQ DBQ20020212080509502/12/02 08:05:31  5-MIN KDBQ 121405Z 27013KT 10SM CLR 01/M04 A2995 1050 72 -400 270/13 RMK AO2
94908KDBQ DBQ20020212081009502/12/02 08:10:31  5-MIN KDBQ 121410Z 27015KT 10SM CLR 01/M04 A2995 1050 72 -400 270/15 RMK AO2
94908KDBQ DBQ20020212081509802/12/02 08:15:31  5-MIN KDBQ 121415Z 27013KT 10SM FEW070 01/M03 A2995 1050 75 -400 270/13 RMK AO2
94908KDBQ DBQ20020212082009802/12/02 08:20:31  5-MIN KDBQ 121420Z 27016KT 10SM SCT070 01/M03 A2995 1050 75 -400 270/16 RMK AO2
94908KDBQ DBQ20020212082509802/12/02 08:25:31  5-MIN KDBQ 121425Z 28017KT 10SM BKN070 01/M04 A2996 1050 72 -400 280/17 RMK AO2
94908KDBQ DBQ20020212083009802/12/02 08:30:31  5-MIN KDBQ 121430Z 28017KT 10SM BKN070 01/M04 A2996 1040 72 -400 280/17 RMK AO2
94908KDBQ DBQ20020212083509802/12/02 08:35:31  5-MIN KDBQ 121435Z 28016KT 10SM BKN070 01/M04 A2996 1040 72 -400 280/16 RMK AO2
94908KDBQ DBQ20020212084010402/12/02 08:40:31  5-MIN KDBQ 121440Z 28017G22KT 10SM BKN070 01/M04 A2996 1040 72 -400 280/17G22 RMK AO2
94908KDBQ DBQ20020212084510402/12/02 08:45:31  5-MIN KDBQ 121445Z 28016G22KT 10SM OVC070 01/M04 A2997 1040 69 -300 280/16G22 RMK AO2
94908KDBQ DBQ20020212085012102/12/02 08:50:31  5-MIN KDBQ 121450Z 28016KT 10SM OVC070 01/M04 A2997 1040 69 -300 280/16 RMK AO2 SLP158 T00111039 53020
94908KDBQ DBQ20020212085512102/12/02 08:55:31  5-MIN KDBQ 121455Z 28017KT 10SM OVC070 01/M04 A2997 1030 69 -300 280/17 RMK AO2 SLP159 T00111039 53028
94908KDBQ DBQ20020212090009802/12/02 09:00:31  5-MIN KDBQ 121500Z 28013KT 10SM OVC070 01/M04 A2997 1030 69 -300 280/13 RMK AO2
94908KDBQ DBQ20020212090509802/12/02 09:05:31  5-MIN KDBQ 121505Z 28017KT 10SM OVC070 01/M04 A2997 1030 69 -300 280/17 RMK AO2
94908KDBQ DBQ20020212091009802/12/02 09:10:31  5-MIN KDBQ 121510Z 28016KT 10SM OVC070 01/M04 A2997 1030 69 -300 280/16 RMK AO2
94908KDBQ DBQ20020212091509802/12/02 09:15:31  5-MIN KDBQ 121515Z 28014KT 10SM OVC065 01/M04 A2997 1030 69 -300 280/14 RMK AO2
94908KDBQ DBQ20020212092009802/12/02 09:20:31  5-MIN KDBQ 121520Z 28015KT 10SM OVC065 01/M04 A2997 1030 69 -300 280/15 RMK AO2
94908KDBQ DBQ20020212092509802/12/02 09:25:31  5-MIN KDBQ 121525Z 28014KT 10SM OVC065 01/M03 A2998 1030 72 -300 280/14 RMK AO2
94908KDBQ DBQ20020212093009802/12/02 09:30:31  5-MIN KDBQ 121530Z 28015KT 10SM OVC065 01/M03 A2998 1030 72 -300 280/15 RMK AO2
94908KDBQ DBQ20020212093509802/12/02 09:35:31  5-MIN KDBQ 121535Z 27015KT 10SM OVC065 01/M03 A2998 1030 72 -300 270/15 RMK AO2
94908KDBQ DBQ20020212094009802/12/02 09:40:31  5-MIN KDBQ 121540Z 28020KT 10SM BKN065 02/M03 A2998 1020 69 -300 280/20 RMK AO2
94908KDBQ DBQ20020212094509802/12/02 09:45:31  5-MIN KDBQ 121545Z 28016KT 10SM BKN065 02/M03 A2998 1020 69 -300 280/16 RMK AO2
94908KDBQ DBQ20020212095011502/12/02 09:50:31  5-MIN KDBQ 121550Z 28015KT 10SM SCT065 02/M03 A2998 1020 69 -300 280/15 RMK AO2 SLP163 T00171033
94908KDBQ DBQ20020212095512802/12/02 09:55:31  5-MIN KDBQ 121555Z 28020G25KT 10SM FEW042 SCT065 02/M03 A2998 1020 67 -200 280/20G25 RMK AO2 SLP161 T00221033
94908KDBQ DBQ20020212100011102/12/02 10:00:31  5-MIN KDBQ 121600Z 28017G25KT 10SM FEW042 SCT060 02/M03 A2998 1020 69 -300 270/17G25 RMK AO2
94908KDBQ DBQ20020212100510502/12/02 10:05:31  5-MIN KDBQ 121605Z 27016KT 10SM FEW042 SCT050 02/M03 A2998 1030 69 -200 270/16 RMK AO2
94908KDBQ DBQ20020212101011102/12/02 10:10:31  5-MIN KDBQ 121610Z 27020G24KT 10SM FEW042 SCT050 02/M03 A2997 1030 69 -300 270/20G24 RMK AO2
94908KDBQ DBQ20020212101510402/12/02 10:15:31  5-MIN KDBQ 121615Z 26016G24KT 10SM FEW042 02/M03 A2996 1040 69 -200 260/16G24 RMK AO2
94908KDBQ DBQ20020212102010402/12/02 10:20:31  5-MIN KDBQ 121620Z 26017G22KT 10SM FEW042 02/M03 A2997 1030 69 -200 260/17G22 RMK AO2
94908KDBQ DBQ20020212102509802/12/02 10:25:31  5-MIN KDBQ 121625Z 26015KT 10SM FEW047 02/M02 A2997 1030 72 -200 260/15 RMK AO2
94908KDBQ DBQ20020212103012202/12/02 10:30:31  5-MIN KDBQ 121630Z 27021G26KT 10SM FEW047 03/M02 A2998 1030 69 -100 270/21G26 RMK AO2 PK WND 27026/1629
94908KDBQ DBQ20020212103512202/12/02 10:35:31  5-MIN KDBQ 121635Z 27018G26KT 10SM SCT045 02/M02 A2998 1030 72 -200 270/18G26 RMK AO2 PK WND 27026/1629
94908KDBQ DBQ20020212104012902/12/02 10:40:31  5-MIN KDBQ 121640Z 27018G26KT 10SM FEW027 SCT045 02/M03 A2998 1020 69 -200 270/18G26 RMK AO2 PK WND 28026/1637
94908KDBQ DBQ20020212104513602/12/02 10:45:31  5-MIN KDBQ 121645Z 27020G26KT 10SM FEW021 SCT037 BKN045 02/M03 A2998 1020 72 -300 270/20G26 RMK AO2 PK WND 28026/1637
94908KDBQ DBQ20020212105015302/12/02 10:50:31  5-MIN KDBQ 121650Z 26021G25KT 10SM FEW028 BKN039 BKN045 02/M02 A2999 1020 75 -300 260/21G25 RMK AO2 PK WND 28026/1637 SLP164 T00171022
94908KDBQ DBQ20020212105515302/12/02 10:55:31  5-MIN KDBQ 121655Z 27019G25KT 10SM FEW028 BKN036 OVC046 02/M03 A2999 1020 72 -300 270/19G25 RMK AO2 PK WND 28026/1637 SLP164 T00171028
94908KDBQ DBQ20020212110011802/12/02 11:00:31  5-MIN KDBQ 121700Z 27021G25KT 10SM FEW028 BKN039 OVC050 02/M03 A2999 1010 72 -300 260/21G25 RMK AO2
94908KDBQ DBQ20020212110511802/12/02 11:05:31  5-MIN KDBQ 121705Z 28021G25KT 10SM FEW028 BKN043 OVC050 02/M03 A2999 1010 69 -200 270/21G25 RMK AO2
94908KDBQ DBQ20020212111011802/12/02 11:10:31  5-MIN KDBQ 121710Z 27016G25KT 10SM FEW028 SCT043 OVC050 02/M03 A2999 1010 69 -200 270/16G25 RMK AO2
94908KDBQ DBQ20020212111511102/12/02 11:15:31  5-MIN KDBQ 121715Z 27018G23KT 10SM FEW028 OVC050 02/M03 A2999 1010 69 -200 270/18G23 RMK AO2
94908KDBQ DBQ20020212112012902/12/02 11:20:31  5-MIN KDBQ 121720Z 28022G27KT 10SM FEW029 OVC050 02/M03 A2999 1010 69 -200 280/22G27 RMK AO2 PK WND 28027/1720
94908KDBQ DBQ20020212112512902/12/02 11:25:31  5-MIN KDBQ 121725Z 27021G27KT 10SM FEW029 OVC050 02/M03 A2999 1010 69 -200 270/21G27 RMK AO2 PK WND 28027/1720
94908KDBQ DBQ20020212113012902/12/02 11:30:31  5-MIN KDBQ 121730Z 27022G26KT 10SM SCT042 OVC048 02/M03 A2999 1010 69 -200 270/22G26 RMK AO2 PK WND 28027/1720
94908KDBQ DBQ20020212113512902/12/02 11:35:31  5-MIN KDBQ 121735Z 27019G26KT 10SM FEW035 OVC048 02/M03 A3000 1010 69 -200 270/19G26 RMK AO2 PK WND 28027/1720
94908KDBQ DBQ20020212114012902/12/02 11:40:31  5-MIN KDBQ 121740Z 27018G26KT 10SM FEW035 OVC046 02/M03 A2999 1010 69 -200 270/18G26 RMK AO2 PK WND 28027/1720
94908KDBQ DBQ20020212114513602/12/02 11:45:31  5-MIN KDBQ 121745Z 27018G27KT 10SM FEW027 SCT035 OVC046 02/M03 A2999 1010 69 -200 270/18G27 RMK AO2 PK WND 27027/1743
94908KDBQ DBQ20020212115017102/12/02 11:50:31  5-MIN KDBQ 121750Z 27024G31KT 10SM FEW027 SCT040 BKN048 03/M02 A2999 1020 69 -100 270/24G31 RMK AO2 PK WND 27031/1748 SLP165 T00281022 10028 20000 53028
94908KDBQ DBQ20020212115517102/12/02 11:55:31  5-MIN KDBQ 121755Z 27023G31KT 10SM FEW027 SCT034 BKN046 03/M02 A2999 1020 69 -100 270/23G31 RMK AO2 PK WND 27031/1748 SLP164 T00281022 10028 20000 51006
94908KDBQ DBQ20020212120013602/12/02 12:00:31  5-MIN KDBQ 121800Z 27023G28KT 10SM SCT025 SCT034 BKN046 03/M02 A2999 1020 69 -100 270/23G28 RMK AO2 PK WND 27028/1757
94908KDBQ DBQ20020212120513602/12/02 12:05:31  5-MIN KDBQ 121805Z 27021G31KT 10SM SCT025 SCT034 BKN046 03/M03 A2998 1020 67 -100 270/21G31 RMK AO2 PK WND 27031/1803
94908KDBQ DBQ20020212121012902/12/02 12:10:31  5-MIN KDBQ 121810Z 27023G32KT 10SM FEW025 SCT033 03/M03 A2999 1010 67 -100 270/23G32 RMK AO2 PK WND 26032/1810
94908KDBQ DBQ20020212121512902/12/02 12:15:31  5-MIN KDBQ 121815Z 27021G32KT 10SM FEW025 SCT035 03/M03 A2999 1020 64 -100 270/21G32 RMK AO2 PK WND 26032/1810
94908KDBQ DBQ20020212122012902/12/02 12:20:31  5-MIN KDBQ 121820Z 28021G29KT 10SM FEW027 BKN035 03/M03 A2999 1010 67 -100 280/21G29 RMK AO2 PK WND 26032/1810
94908KDBQ DBQ20020212122512902/12/02 12:25:31  5-MIN KDBQ 121825Z 27023G33KT 10SM FEW027 BKN035 02/M03 A2999 1010 67 -200 270/23G33 RMK AO2 PK WND 26033/1821
94908KDBQ DBQ20020212123012902/12/02 12:30:31  5-MIN KDBQ 121830Z 27024G33KT 10SM BKN033 BKN044 02/M04 A2999 1010 64 -200 270/24G33 RMK AO2 PK WND 26033/1821
94908KDBQ DBQ20020212123512902/12/02 12:35:31  5-MIN KDBQ 121835Z 27017G32KT 10SM BKN033 BKN046 02/M03 A2999 1020 67 -200 270/17G32 RMK AO2 PK WND 26033/1821
94908KDBQ DBQ20020212124013602/12/02 12:40:31  5-MIN KDBQ 121840Z 27021G27KT 10SM FEW030 SCT036 OVC046 03/M03 A2999 1010 67 -100 270/21G27 RMK AO2 PK WND 26033/1821
94908KDBQ DBQ20020212124512902/12/02 12:45:31  5-MIN KDBQ 121845Z 27019G26KT 10SM SCT034 OVC046 03/M03 A2999 1020 67 -100 270/19G26 RMK AO2 PK WND 26033/1821
94908KDBQ DBQ20020212125014602/12/02 12:50:31  5-MIN KDBQ 121850Z 27026G30KT 10SM SCT034 OVC046 03/M03 A2999 1020 64 -100 270/26G30 RMK AO2 PK WND 26033/1821 SLP165 T00281033
94908KDBQ DBQ20020212125515302/12/02 12:55:31  5-MIN KDBQ 121855Z 27024G34KT 10SM FEW032 BKN046 OVC060 03/M03 A2998 1020 67 -100 270/24G34 RMK AO2 PK WND 27034/1854 SLP163 T00281028
94908KDBQ DBQ20020212130013602/12/02 13:00:31  5-MIN KDBQ 121900Z 28021G34KT 10SM FEW030 BKN046 OVC060 03/M03 A2999 1010 64 -100 280/21G34 RMK AO2 PK WND 28028/1857
94908KDBQ DBQ20020212130513602/12/02 13:05:31  5-MIN KDBQ 121905Z 28025G32KT 10SM FEW030 BKN046 OVC060 03/M03 A2999 1010 64 -100 280/25G32 RMK AO2 PK WND 28032/1905
94908KDBQ DBQ20020212131013602/12/02 13:10:31  5-MIN KDBQ 121910Z 28022G32KT 10SM FEW030 BKN046 OVC060 03/M03 A2999 1010 64 -100 280/22G32 RMK AO2 PK WND 28032/1905
94908KDBQ DBQ20020212131513602/12/02 13:15:31  5-MIN KDBQ 121915Z 28020G31KT 10SM SCT032 BKN040 OVC060 02/M04 A2999 1010 64 -200 280/20G31 RMK AO2 PK WND 28032/1905
94908KDBQ DBQ20020212132013602/12/02 13:20:31  5-MIN KDBQ 121920Z 28022G31KT 10SM BKN032 BKN046 OVC060 02/M04 A2999 1010 64 -200 280/22G31 RMK AO2 PK WND 28032/1905
94908KDBQ DBQ20020212132513602/12/02 13:25:31  5-MIN KDBQ 121925Z 28023G30KT 10SM BKN032 BKN044 OVC055 02/M03 A3000 1010 67 -200 280/23G30 RMK AO2 PK WND 28032/1905
94908KDBQ DBQ20020212133013002/12/02 13:30:31  5-MIN KDBQ 121930Z 28018KT 10SM FEW027 BKN034 OVC055 02/M03 A2999 1010 69 -200 280/18 RMK AO2 PK WND 28032/1905
94908KDBQ DBQ20020212133513602/12/02 13:35:31  5-MIN KDBQ 121935Z 28021G28KT 10SM FEW029 BKN046 OVC055 02/M03 A2999 1010 72 -300 280/21G28 RMK AO2 PK WND 28032/1905
94908KDBQ DBQ20020212134013602/12/02 13:40:31  5-MIN KDBQ 121940Z 28021G28KT 10SM FEW029 SCT035 BKN048 02/M03 A2999 1010 67 -200 280/21G28 RMK AO2 PK WND 28032/1905
94908KDBQ DBQ20020212134513602/12/02 13:45:31  5-MIN KDBQ 121945Z 28023G30KT 10SM FEW029 SCT040 BKN050 03/M03 A3000 1010 67 -100 280/23G30 RMK AO2 PK WND 28032/1905
94908KDBQ DBQ20020212135014602/12/02 13:50:31  5-MIN KDBQ 121950Z 29021G30KT 10SM FEW029 SCT050 03/M03 A3000 1010 64 -100 290/21G30 RMK AO2 PK WND 28032/1905 SLP168 T00281033
94908KDBQ DBQ20020212135513902/12/02 13:55:31  5-MIN KDBQ 121955Z 29024G30KT 10SM SCT050 03/M04 A3000 1010 61 -100 290/24G30 RMK AO2 PK WND 28032/1905 SLP168 T00281039
94908KDBQ DBQ20020212140012202/12/02 14:00:31  5-MIN KDBQ 122000Z 29026G33KT 10SM FEW048 03/M04 A3000 1000 59 -100 280/26G33 RMK AO2 PK WND 28033/1958
94908KDBQ DBQ20020212140512202/12/02 14:05:31  5-MIN KDBQ 122005Z 29022G33KT 10SM FEW034 03/M04 A3000 1000 61 -100 290/22G33 RMK AO2 PK WND 28033/1958
94908KDBQ DBQ20020212141012202/12/02 14:10:31  5-MIN KDBQ 122010Z 29026G35KT 10SM FEW036 03/M04 A3000 1000 61 -100 290/26G35 RMK AO2 PK WND 30035/2009
94908KDBQ DBQ20020212141512202/12/02 14:15:31  5-MIN KDBQ 122015Z 29031G38KT 10SM FEW039 03/M05 A3001 1000 56 -200 290/31G38 RMK AO2 PK WND 29038/2011
94908KDBQ DBQ20020212142012202/12/02 14:20:31  5-MIN KDBQ 122020Z 29023G38KT 10SM FEW035 02/M05 A3001 1000 59 -200 290/23G38 RMK AO2 PK WND 29038/2011
94908KDBQ DBQ20020212142512102/12/02 14:25:31  5-MIN KDBQ 122025Z 29028G37KT 10SM FEW035 02/M06 A3001 990 59 -300 290/28G37 RMK AO2 PK WND 29038/2011
94908KDBQ DBQ20020212143012202/12/02 14:30:31  5-MIN KDBQ 122030Z 28027G37KT 10SM SCT037 01/M06 A3001 1000 58 -400 280/27G37 RMK AO2 PK WND 29038/2011
94908KDBQ DBQ20020212143512202/12/02 14:35:31  5-MIN KDBQ 122035Z 28027G36KT 10SM FEW039 02/M06 A3001 1000 56 -300 280/27G36 RMK AO2 PK WND 29038/2011
94908KDBQ DBQ20020212144012102/12/02 14:40:31  5-MIN KDBQ 122040Z 28027G34KT 10SM FEW036 02/M06 A3001 990 59 -300 280/27G34 RMK AO2 PK WND 29038/2011
94908KDBQ DBQ20020212144512102/12/02 14:45:31  5-MIN KDBQ 122045Z 28028G35KT 10SM FEW036 02/M05 A3001 990 59 -200 280/28G35 RMK AO2 PK WND 29038/2011
94908KDBQ DBQ20020212145014402/12/02 14:50:31  5-MIN KDBQ 122050Z 30026G36KT 10SM SCT038 02/M06 A3002 980 56 -300 300/26G36 RMK AO2 PK WND 29038/2011 SLP177 T00171061 51006
94908KDBQ DBQ20020212145514402/12/02 14:55:31  5-MIN KDBQ 122055Z 29027G36KT 10SM FEW038 02/M06 A3003 980 59 -300 290/27G36 RMK AO2 PK WND 29038/2011 SLP178 T00171056 53013
94908KDBQ DBQ20020212150012102/12/02 15:00:31  5-MIN KDBQ 122100Z 30024G34KT 10SM SCT041 02/M06 A3003 980 56 -300 300/24G34 RMK AO2 PK WND 30033/2056
94908KDBQ DBQ20020212150512102/12/02 15:05:31  5-MIN KDBQ 122105Z 28023G33KT 10SM SCT041 01/M07 A3003 980 56 -400 280/23G33 RMK AO2 PK WND 30033/2056
94908KDBQ DBQ20020212151012102/12/02 15:10:31  5-MIN KDBQ 122110Z 29022G31KT 10SM BKN041 01/M06 A3003 970 58 -400 290/22G31 RMK AO2 PK WND 30033/2056
94908KDBQ DBQ20020212151512102/12/02 15:15:31  5-MIN KDBQ 122115Z 30016G30KT 10SM BKN038 01/M06 A3004 970 61 -400 300/16G30 RMK AO2 PK WND 30033/2056
94908KDBQ DBQ20020212152012102/12/02 15:20:31  5-MIN KDBQ 122120Z 30021G27KT 10SM BKN038 01/M07 A3003 970 58 -500 300/21G27 RMK AO2 PK WND 30033/2056
94908KDBQ DBQ20020212152512102/12/02 15:25:31  5-MIN KDBQ 122125Z 29020G27KT 10SM BKN038 01/M07 A3004 970 58 -500 280/20G27 RMK AO2 PK WND 30033/2056
94908KDBQ DBQ20020212153012102/12/02 15:30:31  5-MIN KDBQ 122130Z 29019G24KT 10SM BKN038 01/M07 A3004 970 58 -500 290/19G24 RMK AO2 PK WND 30033/2056
94908KDBQ DBQ20020212153512102/12/02 15:35:31  5-MIN KDBQ 122135Z 29020G25KT 10SM BKN038 01/M06 A3004 960 61 -500 290/20G25 RMK AO2 PK WND 30033/2056
94908KDBQ DBQ20020212154012102/12/02 15:40:31  5-MIN KDBQ 122140Z 30021G28KT 10SM BKN038 01/M07 A3005 960 58 -500 300/21G28 RMK AO2 PK WND 30033/2056
94908KDBQ DBQ20020212154512102/12/02 15:45:31  5-MIN KDBQ 122145Z 30019G28KT 10SM BKN038 01/M07 A3005 960 58 -500 300/19G28 RMK AO2 PK WND 30033/2056
94908KDBQ DBQ20020212155013802/12/02 15:50:31  5-MIN KDBQ 122150Z 30023G29KT 10SM SCT038 01/M07 A3005 960 56 -500 300/23G29 RMK AO2 PK WND 30033/2056 SLP187 T00061072
94908KDBQ DBQ20020212155513802/12/02 15:55:31  5-MIN KDBQ 122155Z 29019G29KT 10SM SCT038 01/M07 A3005 960 58 -500 290/19G29 RMK AO2 PK WND 30033/2056 SLP187 T00061067
94908KDBQ DBQ20020212160012102/12/02 16:00:31  5-MIN KDBQ 122200Z 29021G29KT 10SM SCT036 01/M07 A3005 960 58 -500 290/21G29 RMK AO2 PK WND 29029/2156
94908KDBQ DBQ20020212160512102/12/02 16:05:31  5-MIN KDBQ 122205Z 30023G29KT 10SM SCT036 01/M07 A3006 950 58 -500 300/23G29 RMK AO2 PK WND 30029/2204
94908KDBQ DBQ20020212161012102/12/02 16:10:31  5-MIN KDBQ 122210Z 30023G29KT 10SM FEW036 01/M08 A3006 950 54 -500 300/23G29 RMK AO2 PK WND 30029/2204
94908KDBQ DBQ20020212161512102/12/02 16:15:31  5-MIN KDBQ 122215Z 30016G28KT 10SM FEW036 01/M08 A3006 950 54 -500 300/16G28 RMK AO2 PK WND 30029/2204
94908KDBQ DBQ20020212162012102/12/02 16:20:31  5-MIN KDBQ 122220Z 30020G24KT 10SM FEW036 01/M08 A3007 940 54 -500 300/20G24 RMK AO2 PK WND 30029/2204
94908KDBQ DBQ20020212162512102/12/02 16:25:31  5-MIN KDBQ 122225Z 31022G25KT 10SM FEW036 01/M08 A3007 940 54 -500 310/22G25 RMK AO2 PK WND 30029/2204
94908KDBQ DBQ20020212163011802/12/02 16:30:31  5-MIN KDBQ 122230Z 30016G25KT 10SM CLR 00/M08 A3007 940 56 -600 300/16G25 RMK AO2 PK WND 30029/2204
94908KDBQ DBQ20020212163511802/12/02 16:35:31  5-MIN KDBQ 122235Z 30015G23KT 10SM CLR 00/M08 A3007 940 56 -600 300/15G23 RMK AO2 PK WND 30029/2204
94908KDBQ DBQ20020212164011802/12/02 16:40:31  5-MIN KDBQ 122240Z 31018G24KT 10SM CLR 00/M08 A3008 930 56 -600 310/18G24 RMK AO2 PK WND 30029/2204
94908KDBQ DBQ20020212164511802/12/02 16:45:31  5-MIN KDBQ 122245Z 31016G24KT 10SM CLR 00/M08 A3008 930 56 -600 310/16G24 RMK AO2 PK WND 30029/2204
94908KDBQ DBQ20020212165013502/12/02 16:50:31  5-MIN KDBQ 122250Z 31019G25KT 10SM CLR 00/M08 A3008 930 53 -600 310/19G25 RMK AO2 PK WND 30029/2204 SLP198 T00001083
94908KDBQ DBQ20020212165513602/12/02 16:55:31  5-MIN KDBQ 122255Z 32016G25KT 10SM CLR M01/M08 A3008 930 58 -700 320/16G25 RMK AO2 PK WND 30029/2204 SLP199 T10061078
94908KDBQ DBQ20020212170010102/12/02 17:00:31  5-MIN KDBQ 122300Z 31018G24KT 10SM CLR M01/M08 A3009 920 58 -700 310/18G24 RMK AO2
94908KDBQ DBQ20020212170509502/12/02 17:05:31  5-MIN KDBQ 122305Z 30016KT 10SM CLR M01/M08 A3009 920 56 -700 300/16 RMK AO2
94908KDBQ DBQ20020212171009502/12/02 17:10:31  5-MIN KDBQ 122310Z 31014KT 10SM CLR M01/M08 A3010 920 56 -700 310/14 RMK AO2
94908KDBQ DBQ20020212171509502/12/02 17:15:31  5-MIN KDBQ 122315Z 30015KT 10SM CLR M01/M09 A3010 910 53 -700 300/15 RMK AO2
94908KDBQ DBQ20020212172010102/12/02 17:20:31  5-MIN KDBQ 122320Z 30016G23KT 10SM CLR M01/M09 A3010 910 55 -700 300/16G23 RMK AO2
94908KDBQ DBQ20020212172510102/12/02 17:25:31  5-MIN KDBQ 122325Z 31014G23KT 10SM CLR M01/M09 A3010 910 55 -800 310/14G23 RMK AO2
94908KDBQ DBQ20020212173009502/12/02 17:30:31  5-MIN KDBQ 122330Z 31012KT 10SM CLR M01/M08 A3011 910 58 -800 310/12 RMK AO2
94908KDBQ DBQ20020212173509502/12/02 17:35:31  5-MIN KDBQ 122335Z 31012KT 10SM CLR M01/M08 A3011 900 58 -800 310/12 RMK AO2
94908KDBQ DBQ20020212174010102/12/02 17:40:31  5-MIN KDBQ 122340Z 31017G21KT 10SM CLR M01/M08 A3011 900 58 -800 310/17G21 RMK AO2
94908KDBQ DBQ20020212174509502/12/02 17:45:31  5-MIN KDBQ 122345Z 31016KT 10SM CLR M01/M09 A3012 900 55 -800 310/16 RMK AO2
94908KDBQ DBQ20020212175013002/12/02 17:50:31  5-MIN KDBQ 122350Z 31016KT 10SM CLR M01/M09 A3012 890 53 -800 310/16 RMK AO2 SLP212 T10111094 10033 21011 53013
94908KDBQ DBQ20020212175513002/12/02 17:55:31  5-MIN KDBQ 122355Z 31015KT 10SM CLR M01/M09 A3012 890 55 -800 310/15 RMK AO2 SLP212 T10111089 10033 21011 53031
94908KDBQ DBQ20020212180009502/12/02 18:00:31  5-MIN KDBQ 130000Z 30014KT 10SM CLR M02/M09 A3012 890 58 -800 300/14 RMK AO2
94908KDBQ DBQ20020212180509502/12/02 18:05:31  5-MIN KDBQ 130005Z 30015KT 10SM CLR M02/M09 A3013 890 58 -800 300/15 RMK AO2
94908KDBQ DBQ20020212181009502/12/02 18:10:31  5-MIN KDBQ 130010Z 31019KT 10SM CLR M02/M09 A3013 880 58 -900 310/19 RMK AO2
94908KDBQ DBQ20020212181509502/12/02 18:15:31  5-MIN KDBQ 130015Z 30014KT 10SM CLR M02/M09 A3013 880 58 -900 300/14 RMK AO2
94908KDBQ DBQ20020212182009502/12/02 18:20:31  5-MIN KDBQ 130020Z 30012KT 10SM CLR M02/M09 A3014 880 58 -900 300/12 RMK AO2
94908KDBQ DBQ20020212182509502/12/02 18:25:31  5-MIN KDBQ 130025Z 30014KT 10SM CLR M02/M09 A3014 870 58 -900 300/14 RMK AO2
94908KDBQ DBQ20020212183009502/12/02 18:30:31  5-MIN KDBQ 130030Z 30014KT 10SM CLR M02/M09 A3015 870 58 -900 300/14 RMK AO2
94908KDBQ DBQ20020212183509502/12/02 18:35:31  5-MIN KDBQ 130035Z 30015KT 10SM CLR M02/M09 A3015 870 60 -900 300/15 RMK AO2
94908KDBQ DBQ20020212184009502/12/02 18:40:31  5-MIN KDBQ 130040Z 30014KT 10SM CLR M02/M09 A3015 870 58 -900 300/14 RMK AO2
94908KDBQ DBQ20020212184510202/12/02 18:45:31  5-MIN KDBQ 130045Z 30018G21KT 10SM CLR M02/M09 A3015 860 60 -1000 300/18G21 RMK AO2
94908KDBQ DBQ20020212185011902/12/02 18:50:31  5-MIN KDBQ 130050Z 30015G21KT 10SM CLR M02/M09 A3016 860 58 -1000 300/15G21 RMK AO2 SLP225 T10221094
94908KDBQ DBQ20020212185511902/12/02 18:55:31  5-MIN KDBQ 130055Z 30017G23KT 10SM CLR M02/M09 A3016 860 58 -1000 300/17G23 RMK AO2 SLP226 T10221094
94908KDBQ DBQ20020212190010202/12/02 19:00:31  5-MIN KDBQ 130100Z 31016G23KT 10SM CLR M02/M09 A3016 860 58 -1000 310/16G23 RMK AO2
94908KDBQ DBQ20020212190509602/12/02 19:05:31  5-MIN KDBQ 130105Z 31016KT 10SM CLR M02/M09 A3017 850 58 -1000 300/16 RMK AO2
94908KDBQ DBQ20020212191009602/12/02 19:10:31  5-MIN KDBQ 130110Z 30015KT 10SM CLR M02/M09 A3017 850 58 -1000 300/15 RMK AO2
94908KDBQ DBQ20020212191509602/12/02 19:15:31  5-MIN KDBQ 130115Z 30014KT 10SM CLR M02/M09 A3017 850 58 -1000 300/14 RMK AO2
94908KDBQ DBQ20020212192009602/12/02 19:20:31  5-MIN KDBQ 130120Z 30014KT 10SM CLR M02/M09 A3017 840 58 -1000 300/14 RMK AO2
94908KDBQ DBQ20020212192509602/12/02 19:25:31  5-MIN KDBQ 130125Z 30015KT 10SM CLR M02/M09 A3018 840 58 -1000 300/15 RMK AO2
94908KDBQ DBQ20020212193009602/12/02 19:30:31  5-MIN KDBQ 130130Z 30017KT 10SM CLR M02/M09 A3018 840 58 -1000 300/17 RMK AO2
94908KDBQ DBQ20020212193509602/12/02 19:35:31  5-MIN KDBQ 130135Z 30013KT 10SM CLR M02/M09 A3018 840 58 -1000 300/13 RMK AO2
94908KDBQ DBQ20020212194009602/12/02 19:40:31  5-MIN KDBQ 130140Z 30013KT 10SM CLR M03/M09 A3018 840 60 -1100 300/13 RMK AO2
94908KDBQ DBQ20020212194509602/12/02 19:45:31  5-MIN KDBQ 130145Z 30013KT 10SM CLR M03/M09 A3019 830 60 -1100 300/13 RMK AO2
94908KDBQ DBQ20020212195012302/12/02 19:50:31  5-MIN KDBQ 130150Z AUTO 30013KT 10SM CLR M03/M09 A3019 830 60 -1100 300/13 RMK AO2 SLP235 T10281094 TSNO
94908KDBQ DBQ20020212195512302/12/02 19:55:31  5-MIN KDBQ 130155Z AUTO 30013KT 10SM CLR M03/M09 A3019 830 63 -1100 300/13 RMK AO2 SLP236 T10281089 TSNO
94908KDBQ DBQ20020212200010602/12/02 20:00:31  5-MIN KDBQ 130200Z AUTO 31014KT 10SM CLR M03/M09 A3019 830 63 -1100 300/14 RMK AO2 TSNO
94908KDBQ DBQ20020212200510602/12/02 20:05:31  5-MIN KDBQ 130205Z AUTO 31013KT 10SM CLR M03/M09 A3019 830 60 -1100 310/13 RMK AO2 TSNO
94908KDBQ DBQ20020212201010602/12/02 20:10:31  5-MIN KDBQ 130210Z AUTO 30012KT 10SM CLR M03/M09 A3019 830 60 -1100 300/12 RMK AO2 TSNO
94908KDBQ DBQ20020212201510602/12/02 20:15:31  5-MIN KDBQ 130215Z AUTO 31013KT 10SM CLR M03/M09 A3020 820 63 -1100 310/13 RMK AO2 TSNO
94908KDBQ DBQ20020212202010602/12/02 20:20:31  5-MIN KDBQ 130220Z AUTO 31012KT 10SM CLR M03/M09 A3020 820 65 -1100 310/12 RMK AO2 TSNO
94908KDBQ DBQ20020212202510602/12/02 20:25:31  5-MIN KDBQ 130225Z AUTO 31013KT 10SM CLR M03/M09 A3020 820 63 -1100 310/13 RMK AO2 TSNO
94908KDBQ DBQ20020212203010602/12/02 20:30:31  5-MIN KDBQ 130230Z AUTO 31013KT 10SM CLR M03/M09 A3020 820 63 -1100 310/13 RMK AO2 TSNO
94908KDBQ DBQ20020212203510602/12/02 20:35:31  5-MIN KDBQ 130235Z AUTO 31013KT 10SM CLR M03/M09 A3020 820 63 -1100 310/13 RMK AO2 TSNO
94908KDBQ DBQ20020212204010602/12/02 20:40:31  5-MIN KDBQ 130240Z AUTO 31012KT 10SM CLR M03/M09 A3021 820 63 -1100 310/12 RMK AO2 TSNO
94908KDBQ DBQ20020212204510602/12/02 20:45:31  5-MIN KDBQ 130245Z AUTO 31011KT 10SM CLR M03/M09 A3021 810 63 -1200 310/11 RMK AO2 TSNO
94908KDBQ DBQ20020212205012902/12/02 20:50:31  5-MIN KDBQ 130250Z AUTO 31012KT 10SM CLR M03/M09 A3021 810 63 -1200 310/12 RMK AO2 SLP243 T10331094 53031 TSNO
94908KDBQ DBQ20020212205512902/12/02 20:55:31  5-MIN KDBQ 130255Z AUTO 30011KT 10SM CLR M03/M09 A3021 810 63 -1200 300/11 RMK AO2 SLP244 T10331094 51030 TSNO
94908KDBQ DBQ20020212210010602/12/02 21:00:31  5-MIN KDBQ 130300Z AUTO 30012KT 10SM CLR M03/M09 A3021 810 63 -1200 300/12 RMK AO2 TSNO
94908KDBQ DBQ20020212210510602/12/02 21:05:31  5-MIN KDBQ 130305Z AUTO 31011KT 10SM CLR M03/M09 A3022 810 63 -1200 310/11 RMK AO2 TSNO
94908KDBQ DBQ20020212211010602/12/02 21:10:31  5-MIN KDBQ 130310Z AUTO 31012KT 10SM CLR M04/M09 A3022 800 65 -1200 310/12 RMK AO2 TSNO
94908KDBQ DBQ20020212211510602/12/02 21:15:31  5-MIN KDBQ 130315Z AUTO 31013KT 10SM CLR M04/M09 A3022 800 65 -1200 310/13 RMK AO2 TSNO
94908KDBQ DBQ20020212212010602/12/02 21:20:31  5-MIN KDBQ 130320Z AUTO 31012KT 10SM CLR M04/M09 A3022 800 65 -1200 310/12 RMK AO2 TSNO
94908KDBQ DBQ20020212212510602/12/02 21:25:31  5-MIN KDBQ 130325Z AUTO 31011KT 10SM CLR M04/M09 A3022 800 65 -1200 310/11 RMK AO2 TSNO
94908KDBQ DBQ20020212213010602/12/02 21:30:31  5-MIN KDBQ 130330Z AUTO 31011KT 10SM CLR M04/M09 A3023 800 65 -1200 310/11 RMK AO2 TSNO
94908KDBQ DBQ20020212213510602/12/02 21:35:31  5-MIN KDBQ 130335Z AUTO 31011KT 10SM CLR M04/M09 A3023 790 65 -1200 310/11 RMK AO2 TSNO
94908KDBQ DBQ20020212214010602/12/02 21:40:31  5-MIN KDBQ 130340Z AUTO 31009KT 10SM CLR M04/M09 A3023 790 65 -1300 310/09 RMK AO2 TSNO
94908KDBQ DBQ20020212214510602/12/02 21:45:31  5-MIN KDBQ 130345Z AUTO 31010KT 10SM CLR M04/M09 A3023 790 65 -1300 310/10 RMK AO2 TSNO
94908KDBQ DBQ20020212215012302/12/02 21:50:31  5-MIN KDBQ 130350Z AUTO 31009KT 10SM CLR M04/M09 A3024 790 65 -1300 310/09 RMK AO2 SLP252 T10391094 TSNO
94908KDBQ DBQ20020212215512302/12/02 21:55:31  5-MIN KDBQ 130355Z AUTO 31009KT 10SM CLR M04/M09 A3024 790 65 -1300 310/09 RMK AO2 SLP252 T10391094 TSNO
94908KDBQ DBQ20020212220010602/12/02 22:00:31  5-MIN KDBQ 130400Z AUTO 31009KT 10SM CLR M04/M10 A3024 790 63 -1300 310/09 RMK AO2 TSNO
94908KDBQ DBQ20020212220510602/12/02 22:05:31  5-MIN KDBQ 130405Z AUTO 31009KT 10SM CLR M04/M09 A3024 790 68 -1300 310/09 RMK AO2 TSNO
94908KDBQ DBQ20020212221010602/12/02 22:10:31  5-MIN KDBQ 130410Z AUTO 30009KT 10SM CLR M04/M10 A3024 790 65 -1300 300/09 RMK AO2 TSNO
94908KDBQ DBQ20020212221510602/12/02 22:15:31  5-MIN KDBQ 130415Z AUTO 31009KT 10SM CLR M04/M09 A3024 780 68 -1300 310/09 RMK AO2 TSNO
94908KDBQ DBQ20020212222010602/12/02 22:20:31  5-MIN KDBQ 130420Z AUTO 31008KT 10SM CLR M04/M09 A3024 780 68 -1300 310/08 RMK AO2 TSNO
94908KDBQ DBQ20020212222510602/12/02 22:25:31  5-MIN KDBQ 130425Z AUTO 31008KT 10SM CLR M04/M10 A3024 780 65 -1300 310/08 RMK AO2 TSNO
94908KDBQ DBQ20020212223010602/12/02 22:30:31  5-MIN KDBQ 130430Z AUTO 32007KT 10SM CLR M04/M09 A3024 780 68 -1300 320/07 RMK AO2 TSNO
94908KDBQ DBQ20020212223510602/12/02 22:35:31  5-MIN KDBQ 130435Z AUTO 32008KT 10SM CLR M04/M09 A3025 780 68 -1300 320/08 RMK AO2 TSNO
94908KDBQ DBQ20020212224010602/12/02 22:40:31  5-MIN KDBQ 130440Z AUTO 33007KT 10SM CLR M04/M09 A3025 780 68 -1300 330/07 RMK AO2 TSNO
94908KDBQ DBQ20020212224510602/12/02 22:45:31  5-MIN KDBQ 130445Z AUTO 32007KT 10SM CLR M04/M10 A3025 780 65 -1300 320/07 RMK AO2 TSNO
94908KDBQ DBQ20020212225012302/12/02 22:50:31  5-MIN KDBQ 130450Z AUTO 32008KT 10SM CLR M05/M10 A3025 780 68 -1400 320/08 RMK AO2 SLP258 T10501100 TSNO
94908KDBQ DBQ20020212225512302/12/02 22:55:31  5-MIN KDBQ 130455Z AUTO 32008KT 10SM CLR M05/M10 A3025 770 68 -1400 320/08 RMK AO2 SLP258 T10501100 TSNO
94908KDBQ DBQ20020212230010602/12/02 23:00:31  5-MIN KDBQ 130500Z AUTO 32008KT 10SM CLR M05/M10 A3025 770 68 -1400 320/08 RMK AO2 TSNO
94908KDBQ DBQ20020212230510602/12/02 23:05:31  5-MIN KDBQ 130505Z AUTO 32007KT 10SM CLR M05/M10 A3025 770 68 -1400 320/07 RMK AO2 TSNO
94908KDBQ DBQ20020212231010602/12/02 23:10:31  5-MIN KDBQ 130510Z AUTO 32007KT 10SM CLR M05/M10 A3026 770 68 -1400 320/07 RMK AO2 TSNO
94908KDBQ DBQ20020212231510602/12/02 23:15:31  5-MIN KDBQ 130515Z AUTO 32009KT 10SM CLR M05/M09 A3026 770 74 -1400 320/09 RMK AO2 TSNO
94908KDBQ DBQ20020212232010602/12/02 23:20:31  5-MIN KDBQ 130520Z AUTO 32010KT 10SM CLR M04/M09 A3026 770 71 -1300 320/10 RMK AO2 TSNO
94908KDBQ DBQ20020212232510602/12/02 23:25:31  5-MIN KDBQ 130525Z AUTO 32009KT 10SM CLR M05/M12 A3026 770 60 -1400 320/09 RMK AO2 TSNO
94908KDBQ DBQ20020212233010602/12/02 23:30:31  5-MIN KDBQ 130530Z AUTO 32010KT 10SM CLR M05/M11 A3026 770 62 -1400 320/10 RMK AO2 TSNO
94908KDBQ DBQ20020212233510602/12/02 23:35:31  5-MIN KDBQ 130535Z AUTO 32009KT 10SM CLR M05/M11 A3026 770 65 -1400 320/09 RMK AO2 TSNO
94908KDBQ DBQ20020212234010602/12/02 23:40:31  5-MIN KDBQ 130540Z AUTO 32011KT 10SM CLR M04/M11 A3026 770 62 -1400 320/11 RMK AO2 TSNO
94908KDBQ DBQ20020212234510602/12/02 23:45:31  5-MIN KDBQ 130545Z AUTO 32012KT 10SM CLR M05/M11 A3026 760 65 -1400 320/12 RMK AO2 TSNO
94908KDBQ DBQ20020212235015102/12/02 23:50:31  5-MIN KDBQ 130550Z AUTO 32009KT 10SM CLR M05/M11 A3026 760 65 -1400 320/09 RMK AO2 SLP262 T10501106 11011 21050 400331050 51030 TSNO
94908KDBQ DBQ20020212235515102/12/02 23:55:31  5-MIN KDBQ 130555Z AUTO 32008KT 10SM CLR M05/M11 A3027 760 65 -1400 320/08 RMK AO2 SLP262 T10501106 11011 21050 400331050 51017 TSNO
94908KDBQ DBQ20020213000010602/13/02 00:00:31  5-MIN KDBQ 130600Z AUTO 32008KT 10SM CLR M06/M11 A3027 760 68 -1500 320/08 RMK AO2 TSNO
94908KDBQ DBQ20020213000510602/13/02 00:05:31  5-MIN KDBQ 130605Z AUTO 32008KT 10SM CLR M05/M11 A3027 760 65 -1400 320/08 RMK AO2 TSNO
94908KDBQ DBQ20020213001010602/13/02 00:10:31  5-MIN KDBQ 130610Z AUTO 32009KT 10SM CLR M06/M11 A3027 760 68 -1500 320/09 RMK AO2 TSNO
94908KDBQ DBQ20020213001510602/13/02 00:15:31  5-MIN KDBQ 130615Z AUTO 32008KT 10SM CLR M06/M11 A3027 760 68 -1500 320/08 RMK AO2 TSNO
94908KDBQ DBQ20020213002010602/13/02 00:20:31  5-MIN KDBQ 130620Z AUTO 32009KT 10SM CLR M06/M11 A3027 750 68 -1500 320/09 RMK AO2 TSNO
94908KDBQ DBQ20020213002510602/13/02 00:25:31  5-MIN KDBQ 130625Z AUTO 32008KT 10SM CLR M06/M11 A3027 750 68 -1500 320/08 RMK AO2 TSNO
94908KDBQ DBQ20020213003010602/13/02 00:30:31  5-MIN KDBQ 130630Z AUTO 32007KT 10SM CLR M06/M11 A3028 750 68 -1500 320/07 RMK AO2 TSNO
94908KDBQ DBQ20020213003510602/13/02 00:35:31  5-MIN KDBQ 130635Z AUTO 31007KT 10SM CLR M06/M11 A3028 750 68 -1500 310/07 RMK AO2 TSNO
94908KDBQ DBQ20020213004010602/13/02 00:40:31  5-MIN KDBQ 130640Z AUTO 31006KT 10SM CLR M06/M11 A3028 750 71 -1600 310/06 RMK AO2 TSNO
94908KDBQ DBQ20020213004510602/13/02 00:45:31  5-MIN KDBQ 130645Z AUTO 30007KT 10SM CLR M06/M11 A3028 750 68 -1500 300/07 RMK AO2 TSNO
94908KDBQ DBQ20020213005012302/13/02 00:50:31  5-MIN KDBQ 130650Z AUTO 31006KT 10SM CLR M06/M11 A3028 740 71 -1600 310/06 RMK AO2 SLP269 T10611106 TSNO
94908KDBQ DBQ20020213005512302/13/02 00:55:31  5-MIN KDBQ 130655Z AUTO 32006KT 10SM CLR M06/M11 A3028 740 71 -1600 320/06 RMK AO2 SLP270 T10611106 TSNO
94908KDBQ DBQ20020213010010602/13/02 01:00:31  5-MIN KDBQ 130700Z AUTO 32005KT 10SM CLR M07/M11 A3029 740 74 -1700 320/05 RMK AO2 TSNO
94908KDBQ DBQ20020213010510602/13/02 01:05:31  5-MIN KDBQ 130705Z AUTO 31005KT 10SM CLR M07/M11 A3029 740 74 -1700 310/05 RMK AO2 TSNO
94908KDBQ DBQ20020213011010602/13/02 01:10:31  5-MIN KDBQ 130710Z AUTO 31005KT 10SM CLR M07/M11 A3029 740 71 -1700 300/05 RMK AO2 TSNO
94908KDBQ DBQ20020213011510602/13/02 01:15:31  5-MIN KDBQ 130715Z AUTO 31005KT 10SM CLR M07/M11 A3029 740 74 -1700 300/05 RMK AO2 TSNO
94908KDBQ DBQ20020213012010602/13/02 01:20:31  5-MIN KDBQ 130720Z AUTO 31005KT 10SM CLR M07/M11 A3029 740 74 -1700 300/05 RMK AO2 TSNO
94908KDBQ DBQ20020213012510602/13/02 01:25:31  5-MIN KDBQ 130725Z AUTO 30005KT 10SM CLR M07/M11 A3029 740 74 -1700 300/05 RMK AO2 TSNO
94908KDBQ DBQ20020213013010602/13/02 01:30:31  5-MIN KDBQ 130730Z AUTO 30005KT 10SM CLR M07/M11 A3029 730 74 -1700 300/05 RMK AO2 TSNO
94908KDBQ DBQ20020213013510602/13/02 01:35:31  5-MIN KDBQ 130735Z AUTO 30005KT 10SM CLR M07/M11 A3030 730 74 -1800 300/05 RMK AO2 TSNO
94908KDBQ DBQ20020213014010602/13/02 01:40:31  5-MIN KDBQ 130740Z AUTO 29005KT 10SM CLR M07/M11 A3030 730 77 -1800 290/05 RMK AO2 TSNO
94908KDBQ DBQ20020213014510602/13/02 01:45:31  5-MIN KDBQ 130745Z AUTO 31005KT 10SM CLR M07/M11 A3030 730 77 -1800 300/05 RMK AO2 TSNO
94908KDBQ DBQ20020213015012302/13/02 01:50:31  5-MIN KDBQ 130750Z AUTO 32004KT 10SM CLR M07/M11 A3030 730 77 -1800 310/04 RMK AO2 SLP274 T10721106 TSNO
94908KDBQ DBQ20020213015512302/13/02 01:55:31  5-MIN KDBQ 130755Z AUTO 31005KT 10SM CLR M07/M11 A3030 730 77 -1800 310/05 RMK AO2 SLP274 T10721106 TSNO
94908KDBQ DBQ20020213020010602/13/02 02:00:31  5-MIN KDBQ 130800Z AUTO 32005KT 10SM CLR M07/M11 A3030 730 77 -1800 320/05 RMK AO2 TSNO
94908KDBQ DBQ20020213020510602/13/02 02:05:31  5-MIN KDBQ 130805Z AUTO 32006KT 10SM CLR M07/M11 A3030 730 77 -1800 320/06 RMK AO2 TSNO
94908KDBQ DBQ20020213021010602/13/02 02:10:31  5-MIN KDBQ 130810Z AUTO 33006KT 10SM CLR M07/M11 A3030 730 74 -1800 320/06 RMK AO2 TSNO
94908KDBQ DBQ20020213021510602/13/02 02:15:31  5-MIN KDBQ 130815Z AUTO 33006KT 10SM CLR M07/M11 A3030 730 74 -1800 330/06 RMK AO2 TSNO
94908KDBQ DBQ20020213022010602/13/02 02:20:31  5-MIN KDBQ 130820Z AUTO 33006KT 10SM CLR M07/M11 A3030 730 74 -1800 330/06 RMK AO2 TSNO
94908KDBQ DBQ20020213022510602/13/02 02:25:31  5-MIN KDBQ 130825Z AUTO 32005KT 10SM CLR M08/M11 A3030 730 77 -1800 320/05 RMK AO2 TSNO
94908KDBQ DBQ20020213023010602/13/02 02:30:31  5-MIN KDBQ 130830Z AUTO 31004KT 10SM CLR M08/M11 A3030 730 77 -1800 310/04 RMK AO2 TSNO
94908KDBQ DBQ20020213023510602/13/02 02:35:31  5-MIN KDBQ 130835Z AUTO 32003KT 10SM CLR M08/M11 A3030 730 77 -1800 320/03 RMK AO2 TSNO
94908KDBQ DBQ20020213024010602/13/02 02:40:31  5-MIN KDBQ 130840Z AUTO 00000KT 10SM CLR M08/M11 A3030 730 80 -1900 000/00 RMK AO2 TSNO
94908KDBQ DBQ20020213024510602/13/02 02:45:31  5-MIN KDBQ 130845Z AUTO 00000KT 10SM CLR M08/M11 A3030 730 80 -1900 000/00 RMK AO2 TSNO
94908KDBQ DBQ20020213025012902/13/02 02:50:31  5-MIN KDBQ 130850Z AUTO 00000KT 10SM CLR M08/M12 A3030 730 74 -1800 000/00 RMK AO2 SLP276 T10781117 51017 TSNO
94908KDBQ DBQ20020213025512902/13/02 02:55:31  5-MIN KDBQ 130855Z AUTO 00000KT 10SM CLR M08/M11 A3030 730 80 -1900 000/00 RMK AO2 SLP275 T10831111 51010 TSNO
94908KDBQ DBQ20020213030010602/13/02 03:00:31  5-MIN KDBQ 130900Z AUTO 00000KT 10SM CLR M08/M11 A3030 730 80 -1900 000/00 RMK AO2 TSNO
94908KDBQ DBQ20020213030510602/13/02 03:05:31  5-MIN KDBQ 130905Z AUTO 00000KT 10SM CLR M08/M11 A3030 730 80 -1900 000/00 RMK AO2 TSNO
94908KDBQ DBQ20020213031010602/13/02 03:10:31  5-MIN KDBQ 130910Z AUTO 00000KT 10SM CLR M08/M11 A3030 730 80 -1900 000/00 RMK AO2 TSNO
94908KDBQ DBQ20020213031510602/13/02 03:15:31  5-MIN KDBQ 130915Z AUTO 00000KT 10SM CLR M09/M11 A3030 730 84 -2000 000/00 RMK AO2 TSNO
94908KDBQ DBQ20020213032010602/13/02 03:20:31  5-MIN KDBQ 130920Z AUTO 00000KT 10SM CLR M08/M11 A3030 730 80 -1900 000/00 RMK AO2 TSNO
94908KDBQ DBQ20020213032510602/13/02 03:25:31  5-MIN KDBQ 130925Z AUTO 00000KT 10SM CLR M07/M11 A3030 730 77 -1800 000/00 RMK AO2 TSNO
94908KDBQ DBQ20020213033010602/13/02 03:30:31  5-MIN KDBQ 130930Z AUTO 00000KT 10SM CLR M08/M11 A3030 730 80 -1800 000/00 RMK AO2 TSNO
94908KDBQ DBQ20020213033510602/13/02 03:35:31  5-MIN KDBQ 130935Z AUTO 00000KT 10SM CLR M08/M11 A3030 730 84 -1900 000/00 RMK AO2 TSNO
94908KDBQ DBQ20020213034010602/13/02 03:40:31  5-MIN KDBQ 130940Z AUTO 00000KT 10SM CLR M08/M11 A3030 730 84 -1900 000/00 RMK AO2 TSNO
94908KDBQ DBQ20020213034510602/13/02 03:45:31  5-MIN KDBQ 130945Z AUTO 00000KT 10SM CLR M08/M11 A3030 730 84 -1900 000/00 RMK AO2 TSNO
94908KDBQ DBQ20020213035012302/13/02 03:50:31  5-MIN KDBQ 130950Z AUTO 00000KT 10SM CLR M08/M11 A3030 730 80 -1900 000/00 RMK AO2 SLP276 T10831111 TSNO
94908KDBQ DBQ20020213035512302/13/02 03:55:31  5-MIN KDBQ 130955Z AUTO 00000KT 10SM CLR M08/M11 A3030 730 80 -1900 000/00 RMK AO2 SLP276 T10831111 TSNO
94908KDBQ DBQ20020213040010602/13/02 04:00:31  5-MIN KDBQ 131000Z AUTO 00000KT 10SM CLR M08/M11 A3030 730 84 -1900 000/00 RMK AO2 TSNO
94908KDBQ DBQ20020213040510602/13/02 04:05:31  5-MIN KDBQ 131005Z AUTO 00000KT 10SM CLR M08/M11 A3030 730 84 -1900 000/00 RMK AO2 TSNO
94908KDBQ DBQ20020213041010602/13/02 04:10:31  5-MIN KDBQ 131010Z AUTO 21003KT 10SM CLR M09/M11 A3030 730 88 -2000 210/03 RMK AO2 TSNO
94908KDBQ DBQ20020213041510602/13/02 04:15:31  5-MIN KDBQ 131015Z AUTO 21004KT 10SM CLR M09/M11 A3030 730 84 -2000 210/04 RMK AO2 TSNO
94908KDBQ DBQ20020213042010602/13/02 04:20:31  5-MIN KDBQ 131020Z AUTO 20004KT 10SM CLR M09/M11 A3030 730 84 -2000 200/04 RMK AO2 TSNO
94908KDBQ DBQ20020213042510602/13/02 04:25:31  5-MIN KDBQ 131025Z AUTO 19004KT 10SM CLR M09/M11 A3030 730 84 -2000 190/04 RMK AO2 TSNO
94908KDBQ DBQ20020213043010602/13/02 04:30:31  5-MIN KDBQ 131030Z AUTO 21003KT 10SM CLR M09/M11 A3030 720 84 -2000 210/03 RMK AO2 TSNO
94908KDBQ DBQ20020213043510602/13/02 04:35:31  5-MIN KDBQ 131035Z AUTO 21003KT 10SM CLR M09/M11 A3031 720 84 -2000 210/03 RMK AO2 TSNO
94908KDBQ DBQ20020213044010602/13/02 04:40:31  5-MIN KDBQ 131040Z AUTO 20004KT 10SM CLR M09/M11 A3031 720 84 -2000 200/04 RMK AO2 TSNO
94908KDBQ DBQ20020213044510602/13/02 04:45:31  5-MIN KDBQ 131045Z AUTO 21003KT 10SM CLR M09/M11 A3031 720 84 -2000 210/03 RMK AO2 TSNO
94908KDBQ DBQ20020213045012302/13/02 04:50:31  5-MIN KDBQ 131050Z AUTO 23003KT 10SM CLR M09/M11 A3031 720 84 -2000 220/03 RMK AO2 SLP280 T10891111 TSNO
94908KDBQ DBQ20020213045512302/13/02 04:55:31  5-MIN KDBQ 131055Z AUTO 23004KT 10SM CLR M09/M11 A3031 720 88 -2100 230/04 RMK AO2 SLP281 T10941111 TSNO
94908KDBQ DBQ20020213050010602/13/02 05:00:31  5-MIN KDBQ 131100Z AUTO 22005KT 10SM CLR M09/M11 A3031 720 88 -2100 220/05 RMK AO2 TSNO
94908KDBQ DBQ20020213050510602/13/02 05:05:31  5-MIN KDBQ 131105Z AUTO 22004KT 10SM CLR M09/M11 A3031 720 88 -2100 220/04 RMK AO2 TSNO
94908KDBQ DBQ20020213051010602/13/02 05:10:31  5-MIN KDBQ 131110Z AUTO 22003KT 10SM CLR M09/M11 A3031 720 88 -2100 210/03 RMK AO2 TSNO
94908KDBQ DBQ20020213051510602/13/02 05:15:31  5-MIN KDBQ 131115Z AUTO 00000KT 10SM CLR M09/M11 A3031 720 88 -2100 000/00 RMK AO2 TSNO
94908KDBQ DBQ20020213052010602/13/02 05:20:31  5-MIN KDBQ 131120Z AUTO 00000KT 10SM CLR M09/M11 A3031 720 92 -2100 000/00 RMK AO2 TSNO
94908KDBQ DBQ20020213052510602/13/02 05:25:31  5-MIN KDBQ 131125Z AUTO 19003KT 10SM CLR M09/M11 A3031 720 88 -2100 190/03 RMK AO2 TSNO
94908KDBQ DBQ20020213053010602/13/02 05:30:31  5-MIN KDBQ 131130Z AUTO 18003KT 10SM CLR M09/M11 A3031 720 88 -2100 180/03 RMK AO2 TSNO
94908KDBQ DBQ20020213053510602/13/02 05:35:31  5-MIN KDBQ 131135Z AUTO 21003KT 10SM CLR M09/M11 A3031 720 88 -2100 210/03 RMK AO2 TSNO
94908KDBQ DBQ20020213054010602/13/02 05:40:31  5-MIN KDBQ 131140Z AUTO 22003KT 10SM CLR M09/M11 A3031 720 88 -2100 220/03 RMK AO2 TSNO
94908KDBQ DBQ20020213054510602/13/02 05:45:31  5-MIN KDBQ 131145Z AUTO 22003KT 10SM CLR M10/M12 A3031 720 88 -2100 210/03 RMK AO2 TSNO
94908KDBQ DBQ20020213055014102/13/02 05:50:31  5-MIN KDBQ 131150Z AUTO 22003KT 10SM CLR M10/M12 A3031 720 88 -2100 210/03 RMK AO2 SLP282 T11001117 11050 21100 51010 TSNO
94908KDBQ DBQ20020213055513102/13/02 05:55:31  5-MIN KDBQ 131155Z 18003KT 10SM CLR M10/M12 A3031 720 88 -2100 180/03 RMK AO2 SLP283 T11001117 11050 21100 53004
94908KDBQ DBQ20020213060009602/13/02 06:00:31  5-MIN KDBQ 131200Z 18004KT 10SM CLR M10/M12 A3031 720 88 -2100 180/04 RMK AO2
94908KDBQ DBQ20020213060509602/13/02 06:05:31  5-MIN KDBQ 131205Z 20004KT 10SM CLR M10/M11 A3031 720 92 -2100 200/04 RMK AO2
94908KDBQ DBQ20020213061009602/13/02 06:10:31  5-MIN KDBQ 131210Z 21005KT 10SM CLR M09/M11 A3031 720 88 -2100 210/05 RMK AO2
94908KDBQ DBQ20020213061509602/13/02 06:15:31  5-MIN KDBQ 131215Z 21005KT 10SM CLR M09/M11 A3031 720 88 -2100 210/05 RMK AO2
94908KDBQ DBQ20020213062009602/13/02 06:20:31  5-MIN KDBQ 131220Z 21005KT 10SM CLR M09/M11 A3031 720 88 -2100 210/05 RMK AO2
94908KDBQ DBQ20020213062509602/13/02 06:25:31  5-MIN KDBQ 131225Z 22004KT 10SM CLR M09/M11 A3032 710 88 -2100 210/04 RMK AO2
94908KDBQ DBQ20020213063009602/13/02 06:30:31  5-MIN KDBQ 131230Z 22004KT 10SM CLR M09/M11 A3032 710 88 -2100 210/04 RMK AO2
94908KDBQ DBQ20020213063509602/13/02 06:35:31  5-MIN KDBQ 131235Z 21004KT 10SM CLR M09/M11 A3032 710 88 -2100 210/04 RMK AO2
94908KDBQ DBQ20020213064009602/13/02 06:40:31  5-MIN KDBQ 131240Z 22003KT 10SM CLR M09/M11 A3032 710 88 -2100 220/03 RMK AO2
94908KDBQ DBQ20020213064509602/13/02 06:45:31  5-MIN KDBQ 131245Z 22004KT 10SM CLR M10/M11 A3032 710 92 -2100 220/04 RMK AO2
94908KDBQ DBQ20020213065011302/13/02 06:50:31  5-MIN KDBQ 131250Z 21004KT 10SM CLR M09/M11 A3032 710 88 -2100 210/04 RMK AO2 SLP286 T10941111
94908KDBQ DBQ20020213065511302/13/02 06:55:31  5-MIN KDBQ 131255Z 20004KT 10SM CLR M10/M11 A3032 710 92 -2100 200/04 RMK AO2 SLP286 T11001111
94908KDBQ DBQ20020213070009602/13/02 07:00:31  5-MIN KDBQ 131300Z 21004KT 10SM CLR M10/M11 A3032 710 92 -2100 210/04 RMK AO2
94908KDBQ DBQ20020213070509602/13/02 07:05:31  5-MIN KDBQ 131305Z 20004KT 10SM CLR M10/M12 A3032 710 88 -2100 200/04 RMK AO2
94908KDBQ DBQ20020213071009602/13/02 07:10:31  5-MIN KDBQ 131310Z 21005KT 10SM CLR M10/M11 A3032 710 92 -2100 210/05 RMK AO2
94908KDBQ DBQ20020213071509602/13/02 07:15:31  5-MIN KDBQ 131315Z 22004KT 10SM CLR M10/M11 A3032 710 92 -2100 220/04 RMK AO2
94908KDBQ DBQ20020213072009602/13/02 07:20:31  5-MIN KDBQ 131320Z 22004KT 10SM CLR M09/M11 A3032 710 88 -2100 210/04 RMK AO2
94908KDBQ DBQ20020213072509602/13/02 07:25:31  5-MIN KDBQ 131325Z 21004KT 10SM CLR M09/M11 A3032 710 88 -2100 210/04 RMK AO2
94908KDBQ DBQ20020213073009602/13/02 07:30:31  5-MIN KDBQ 131330Z 21005KT 10SM CLR M09/M11 A3032 710 88 -2100 210/05 RMK AO2
94908KDBQ DBQ20020213073509602/13/02 07:35:31  5-MIN KDBQ 131335Z 20005KT 10SM CLR M09/M11 A3032 710 88 -2100 200/05 RMK AO2
94908KDBQ DBQ20020213074009602/13/02 07:40:31  5-MIN KDBQ 131340Z 21004KT 10SM CLR M09/M11 A3032 710 88 -2000 210/04 RMK AO2
94908KDBQ DBQ20020213074509602/13/02 07:45:31  5-MIN KDBQ 131345Z 20005KT 10SM CLR M09/M11 A3032 710 88 -2000 200/05 RMK AO2
94908KDBQ DBQ20020213075011302/13/02 07:50:31  5-MIN KDBQ 131350Z 20006KT 10SM CLR M09/M10 A3032 710 92 -2000 200/06 RMK AO2 SLP287 T10891100
94908KDBQ DBQ20020213075511302/13/02 07:55:31  5-MIN KDBQ 131355Z 20005KT 10SM CLR M09/M10 A3032 710 92 -2000 200/05 RMK AO2 SLP287 T10891100
94908KDBQ DBQ20020213080009602/13/02 08:00:31  5-MIN KDBQ 131400Z 21005KT 10SM CLR M08/M10 A3033 710 88 -1900 210/05 RMK AO2
94908KDBQ DBQ20020213080509602/13/02 08:05:31  5-MIN KDBQ 131405Z 21006KT 10SM CLR M08/M10 A3033 700 88 -1900 210/06 RMK AO2
94908KDBQ DBQ20020213081009602/13/02 08:10:31  5-MIN KDBQ 131410Z 21005KT 10SM CLR M08/M10 A3033 700 88 -1900 210/05 RMK AO2
94908KDBQ DBQ20020213081509602/13/02 08:15:31  5-MIN KDBQ 131415Z 21005KT 10SM CLR M08/M10 A3033 700 84 -1900 210/05 RMK AO2
94908KDBQ DBQ20020213082009602/13/02 08:20:31  5-MIN KDBQ 131420Z 21005KT 10SM CLR M08/M09 A3033 700 88 -1900 210/05 RMK AO2
94908KDBQ DBQ20020213082509602/13/02 08:25:31  5-MIN KDBQ 131425Z 21005KT 10SM CLR M08/M09 A3033 700 88 -1900 210/05 RMK AO2
94908KDBQ DBQ20020213083009602/13/02 08:30:31  5-MIN KDBQ 131430Z 22006KT 10SM CLR M07/M09 A3033 700 84 -1800 210/06 RMK AO2
94908KDBQ DBQ20020213083509602/13/02 08:35:31  5-MIN KDBQ 131435Z 22005KT 10SM CLR M07/M09 A3033 700 84 -1700 220/05 RMK AO2
94908KDBQ DBQ20020213084009602/13/02 08:40:31  5-MIN KDBQ 131440Z 22006KT 10SM CLR M07/M09 A3034 700 84 -1700 220/06 RMK AO2
94908KDBQ DBQ20020213084509602/13/02 08:45:31  5-MIN KDBQ 131445Z 22006KT 10SM CLR M07/M08 A3033 700 88 -1700 210/06 RMK AO2
94908KDBQ DBQ20020213085011902/13/02 08:50:31  5-MIN KDBQ 131450Z 23007KT 10SM CLR M06/M09 A3033 700 81 -1700 230/07 RMK AO2 SLP288 T10611089 53004
94908KDBQ DBQ20020213085511902/13/02 08:55:31  5-MIN KDBQ 131455Z 22006KT 10SM CLR M06/M08 A3033 700 84 -1700 220/06 RMK AO2 SLP288 T10611083 53007
94908KDBQ DBQ20020213090009602/13/02 09:00:31  5-MIN KDBQ 131500Z 23006KT 10SM CLR M06/M08 A3033 700 84 -1700 220/06 RMK AO2
94908KDBQ DBQ20020213090509602/13/02 09:05:31  5-MIN KDBQ 131505Z 21007KT 10SM CLR M06/M08 A3033 700 81 -1600 210/07 RMK AO2
94908KDBQ DBQ20020213091009602/13/02 09:10:31  5-MIN KDBQ 131510Z 22008KT 10SM CLR M06/M08 A3033 700 81 -1600 210/08 RMK AO2
94908KDBQ DBQ20020213091509602/13/02 09:15:31  5-MIN KDBQ 131515Z 22008KT 10SM CLR M06/M09 A3033 700 77 -1600 220/08 RMK AO2
94908KDBQ DBQ20020213092009602/13/02 09:20:31  5-MIN KDBQ 131520Z 21009KT 10SM CLR M05/M09 A3033 700 74 -1500 210/09 RMK AO2
94908KDBQ DBQ20020213092509602/13/02 09:25:31  5-MIN KDBQ 131525Z 22009KT 10SM CLR M05/M08 A3033 700 77 -1500 220/09 RMK AO2
94908KDBQ DBQ20020213093009602/13/02 09:30:31  5-MIN KDBQ 131530Z 21010KT 10SM CLR M05/M08 A3033 700 77 -1500 210/10 RMK AO2
94908KDBQ DBQ20020213093509602/13/02 09:35:31  5-MIN KDBQ 131535Z 22009KT 10SM CLR M04/M09 A3033 700 71 -1400 220/09 RMK AO2
94908KDBQ DBQ20020213094009602/13/02 09:40:31  5-MIN KDBQ 131540Z 21011KT 10SM CLR M04/M09 A3033 700 71 -1400 210/11 RMK AO2
94908KDBQ DBQ20020213094509602/13/02 09:45:31  5-MIN KDBQ 131545Z 21009KT 10SM CLR M04/M09 A3033 700 71 -1400 210/09 RMK AO2
94908KDBQ DBQ20020213095011302/13/02 09:50:31  5-MIN KDBQ 131550Z 21011KT 10SM CLR M04/M09 A3033 700 68 -1400 210/11 RMK AO2 SLP288 T10391089
94908KDBQ DBQ20020213095511302/13/02 09:55:31  5-MIN KDBQ 131555Z 22011KT 10SM CLR M04/M09 A3033 700 68 -1400 220/11 RMK AO2 SLP288 T10391089
94908KDBQ DBQ20020213100009602/13/02 10:00:31  5-MIN KDBQ 131600Z 24011KT 10SM CLR M04/M09 A3033 700 68 -1400 240/11 RMK AO2
94908KDBQ DBQ20020213100509602/13/02 10:05:31  5-MIN KDBQ 131605Z 24012KT 10SM CLR M03/M09 A3033 700 65 -1300 240/12 RMK AO2
94908KDBQ DBQ20020213101009602/13/02 10:10:31  5-MIN KDBQ 131610Z 22012KT 10SM CLR M04/M09 A3033 700 65 -1400 220/12 RMK AO2
94908KDBQ DBQ20020213101509602/13/02 10:15:31  5-MIN KDBQ 131615Z 23011KT 10SM CLR M03/M09 A3033 700 65 -1300 230/11 RMK AO2
94908KDBQ DBQ20020213102009602/13/02 10:20:31  5-MIN KDBQ 131620Z 23012KT 10SM CLR M03/M09 A3033 700 65 -1300 230/12 RMK AO2
94908KDBQ DBQ20020213102509602/13/02 10:25:31  5-MIN KDBQ 131625Z 23009KT 10SM CLR M03/M08 A3033 700 68 -1300 230/09 RMK AO2
94908KDBQ DBQ20020213103009602/13/02 10:30:31  5-MIN KDBQ 131630Z 23011KT 10SM CLR M03/M09 A3034 700 63 -1200 230/11 RMK AO2
94908KDBQ DBQ20020213103509602/13/02 10:35:31  5-MIN KDBQ 131635Z 23010KT 10SM CLR M03/M09 A3034 690 63 -1200 220/10 RMK AO2
94908KDBQ DBQ20020213104009602/13/02 10:40:31  5-MIN KDBQ 131640Z 24012KT 10SM CLR M03/M09 A3034 690 60 -1200 240/12 RMK AO2
94908KDBQ DBQ20020213104509602/13/02 10:45:31  5-MIN KDBQ 131645Z 24012KT 10SM CLR M02/M09 A3034 690 58 -1200 240/12 RMK AO2
94908KDBQ DBQ20020213105011302/13/02 10:50:31  5-MIN KDBQ 131650Z 23011KT 10SM CLR M02/M09 A3034 700 60 -1200 230/11 RMK AO2 SLP289 T10221089
94908KDBQ DBQ20020213105511302/13/02 10:55:31  5-MIN KDBQ 131655Z 24012KT 10SM CLR M02/M09 A3034 700 60 -1200 230/12 RMK AO2 SLP288 T10221089
94908KDBQ DBQ20020213110009602/13/02 11:00:31  5-MIN KDBQ 131700Z 22013KT 10SM CLR M02/M09 A3033 700 60 -1200 220/13 RMK AO2
94908KDBQ DBQ20020213110509602/13/02 11:05:31  5-MIN KDBQ 131705Z 24013KT 10SM CLR M02/M09 A3033 700 60 -1200 240/13 RMK AO2
94908KDBQ DBQ20020213111009602/13/02 11:10:31  5-MIN KDBQ 131710Z 24013KT 10SM CLR M02/M09 A3033 700 60 -1200 240/13 RMK AO2
94908KDBQ DBQ20020213111509602/13/02 11:15:31  5-MIN KDBQ 131715Z 22014KT 10SM CLR M02/M09 A3032 710 60 -1100 220/14 RMK AO2
94908KDBQ DBQ20020213112009602/13/02 11:20:31  5-MIN KDBQ 131720Z 22011KT 10SM CLR M02/M09 A3033 710 58 -1100 220/11 RMK AO2
94908KDBQ DBQ20020213112509602/13/02 11:25:31  5-MIN KDBQ 131725Z 23012KT 10SM CLR M02/M08 A3033 700 60 -1100 220/12 RMK AO2
94908KDBQ DBQ20020213113009602/13/02 11:30:31  5-MIN KDBQ 131730Z 23013KT 10SM CLR M02/M09 A3033 710 55 -1100 230/13 RMK AO2
94908KDBQ DBQ20020213113509602/13/02 11:35:31  5-MIN KDBQ 131735Z 24013KT 10SM CLR M02/M09 A3032 710 58 -1100 240/13 RMK AO2
94908KDBQ DBQ20020213114009602/13/02 11:40:31  5-MIN KDBQ 131740Z 23013KT 10SM CLR M01/M09 A3032 710 55 -1000 230/13 RMK AO2
94908KDBQ DBQ20020213114509602/13/02 11:45:31  5-MIN KDBQ 131745Z 23012KT 10SM CLR M01/M08 A3032 710 58 -1000 230/12 RMK AO2
94908KDBQ DBQ20020213115013102/13/02 11:50:31  5-MIN KDBQ 131750Z 23013KT 10SM CLR M01/M08 A3032 710 58 -1000 230/13 RMK AO2 SLP281 T10111083 11011 21100 53007
94908KDBQ DBQ20020213115513102/13/02 11:55:31  5-MIN KDBQ 131755Z 23012KT 10SM CLR M01/M08 A3031 720 58 -1000 230/12 RMK AO2 SLP280 T10111083 11011 21100 58007
94908KDBQ DBQ20020213120009502/13/02 12:00:31  5-MIN KDBQ 131800Z 23012KT 10SM CLR M01/M08 A3031 720 58 -900 230/12 RMK AO2
94908KDBQ DBQ20020213120509502/13/02 12:05:31  5-MIN KDBQ 131805Z 23012KT 10SM CLR M01/M08 A3031 720 58 -900 230/12 RMK AO2
94908KDBQ DBQ20020213121009502/13/02 12:10:31  5-MIN KDBQ 131810Z 23012KT 10SM CLR M01/M08 A3030 730 58 -900 230/12 RMK AO2
94908KDBQ DBQ20020213121509402/13/02 12:15:31  5-MIN KDBQ 131815Z 23012KT 10SM CLR 00/M08 A3030 730 56 -800 230/12 RMK AO2
94908KDBQ DBQ20020213122009402/13/02 12:20:31  5-MIN KDBQ 131820Z 23012KT 10SM CLR 00/M08 A3030 730 56 -800 230/12 RMK AO2
94908KDBQ DBQ20020213122509402/13/02 12:25:31  5-MIN KDBQ 131825Z 22010KT 10SM CLR 00/M08 A3030 730 56 -800 220/10 RMK AO2
94908KDBQ DBQ20020213123009402/13/02 12:30:31  5-MIN KDBQ 131830Z 21013KT 10SM CLR 00/M07 A3029 730 58 -800 210/13 RMK AO2
94908KDBQ DBQ20020213123509402/13/02 12:35:31  5-MIN KDBQ 131835Z 23012KT 10SM CLR 00/M07 A3029 740 58 -800 230/12 RMK AO2
94908KDBQ DBQ20020213124009402/13/02 12:40:31  5-MIN KDBQ 131840Z 20012KT 10SM CLR 01/M07 A3029 740 56 -800 200/12 RMK AO2
94908KDBQ DBQ20020213124509402/13/02 12:45:31  5-MIN KDBQ 131845Z 24013KT 10SM CLR 01/M07 A3029 740 56 -800 230/13 RMK AO2
94908KDBQ DBQ20020213125011102/13/02 12:50:31  5-MIN KDBQ 131850Z 24014KT 10SM CLR 01/M07 A3028 740 58 -700 240/14 RMK AO2 SLP271 T00061067
94908KDBQ DBQ20020213125511102/13/02 12:55:31  5-MIN KDBQ 131855Z 24012KT 10SM CLR 01/M07 A3028 750 56 -700 230/12 RMK AO2 SLP269 T00111067
94908KDBQ DBQ20020213130009402/13/02 13:00:31  5-MIN KDBQ 131900Z 23015KT 10SM CLR 01/M07 A3028 750 56 -700 230/15 RMK AO2
94908KDBQ DBQ20020213130509402/13/02 13:05:31  5-MIN KDBQ 131905Z 24014KT 10SM CLR 01/M07 A3027 750 56 -700 240/14 RMK AO2
94908KDBQ DBQ20020213131009402/13/02 13:10:31  5-MIN KDBQ 131910Z 23013KT 10SM CLR 01/M07 A3027 760 56 -700 230/13 RMK AO2
94908KDBQ DBQ20020213131509402/13/02 13:15:31  5-MIN KDBQ 131915Z 24014KT 10SM CLR 01/M06 A3027 760 58 -700 240/14 RMK AO2
94908KDBQ DBQ20020213132009402/13/02 13:20:31  5-MIN KDBQ 131920Z 23017KT 10SM CLR 02/M06 A3027 760 56 -600 220/17 RMK AO2
94908KDBQ DBQ20020213132509402/13/02 13:25:31  5-MIN KDBQ 131925Z 23012KT 10SM CLR 02/M06 A3026 770 56 -600 230/12 RMK AO2
94908KDBQ DBQ20020213133009402/13/02 13:30:31  5-MIN KDBQ 131930Z 22013KT 10SM CLR 02/M06 A3026 770 56 -600 220/13 RMK AO2
94908KDBQ DBQ20020213133509402/13/02 13:35:31  5-MIN KDBQ 131935Z 22013KT 10SM CLR 02/M06 A3025 770 56 -600 220/13 RMK AO2
94908KDBQ DBQ20020213134009402/13/02 13:40:31  5-MIN KDBQ 131940Z 25014KT 10SM CLR 02/M06 A3025 770 54 -500 240/14 RMK AO2
94908KDBQ DBQ20020213134509402/13/02 13:45:31  5-MIN KDBQ 131945Z 22013KT 10SM CLR 02/M06 A3025 770 56 -500 220/13 RMK AO2
94908KDBQ DBQ20020213135011102/13/02 13:50:31  5-MIN KDBQ 131950Z 23014KT 10SM CLR 02/M06 A3025 770 56 -500 230/14 RMK AO2 SLP259 T00221056
94908KDBQ DBQ20020213135511102/13/02 13:55:31  5-MIN KDBQ 131955Z 23016KT 10SM CLR 02/M06 A3025 780 56 -500 230/16 RMK AO2 SLP258 T00221056
94908KDBQ DBQ20020213140009402/13/02 14:00:31  5-MIN KDBQ 132000Z 24017KT 10SM CLR 02/M06 A3025 770 54 -500 230/17 RMK AO2
94908KDBQ DBQ20020213140509402/13/02 14:05:31  5-MIN KDBQ 132005Z 23014KT 10SM CLR 03/M06 A3025 780 54 -400 230/14 RMK AO2
94908KDBQ DBQ20020213141009702/13/02 14:10:31  5-MIN KDBQ 132010Z 23015KT 10SM FEW080 03/M06 A3024 780 54 -400 230/15 RMK AO2
94908KDBQ DBQ20020213141509702/13/02 14:15:31  5-MIN KDBQ 132015Z 23016KT 10SM FEW080 03/M06 A3024 790 54 -400 230/16 RMK AO2
94908KDBQ DBQ20020213142009702/13/02 14:20:31  5-MIN KDBQ 132020Z 24014KT 10SM FEW080 03/M06 A3024 780 54 -400 240/14 RMK AO2
94908KDBQ DBQ20020213142509702/13/02 14:25:31  5-MIN KDBQ 132025Z 24015KT 10SM FEW080 03/M06 A3024 790 54 -400 240/15 RMK AO2
94908KDBQ DBQ20020213143009402/13/02 14:30:31  5-MIN KDBQ 132030Z 24016KT 10SM CLR 03/M06 A3024 790 54 -400 230/16 RMK AO2
94908KDBQ DBQ20020213143509402/13/02 14:35:31  5-MIN KDBQ 132035Z 24014KT 10SM CLR 03/M06 A3023 790 54 -400 240/14 RMK AO2
94908KDBQ DBQ20020213144010002/13/02 14:40:31  5-MIN KDBQ 132040Z 23015G20KT 10SM CLR 03/M06 A3023 790 54 -400 230/15G20 RMK AO2
94908KDBQ DBQ20020213144509402/13/02 14:45:31  5-MIN KDBQ 132045Z 23014KT 10SM CLR 03/M06 A3023 800 52 -400 230/14 RMK AO2
94908KDBQ DBQ20020213145011702/13/02 14:50:31  5-MIN KDBQ 132050Z 23016KT 10SM CLR 03/M06 A3022 800 54 -400 230/16 RMK AO2 SLP248 T00281056 58007
94908KDBQ DBQ20020213145511702/13/02 14:55:31  5-MIN KDBQ 132055Z 22015KT 10SM CLR 03/M06 A3022 800 54 -400 220/15 RMK AO2 SLP249 T00281056 56030
94908KDBQ DBQ20020213150009402/13/02 15:00:31  5-MIN KDBQ 132100Z 22014KT 10SM CLR 03/M06 A3022 800 54 -400 210/14 RMK AO2
94908KDBQ DBQ20020213150509402/13/02 15:05:31  5-MIN KDBQ 132105Z 20014KT 10SM CLR 03/M06 A3022 800 52 -300 200/14 RMK AO2
94908KDBQ DBQ20020213151009402/13/02 15:10:31  5-MIN KDBQ 132110Z 22013KT 10SM CLR 03/M06 A3022 810 52 -300 220/13 RMK AO2
94908KDBQ DBQ20020213151509402/13/02 15:15:31  5-MIN KDBQ 132115Z 20013KT 10SM CLR 03/M06 A3022 810 52 -300 200/13 RMK AO2
94908KDBQ DBQ20020213152009402/13/02 15:20:31  5-MIN KDBQ 132120Z 21015KT 10SM CLR 03/M06 A3021 810 52 -300 210/15 RMK AO2
94908KDBQ DBQ20020213152509402/13/02 15:25:31  5-MIN KDBQ 132125Z 21012KT 10SM CLR 03/M06 A3021 810 50 -300 210/12 RMK AO2
94908KDBQ DBQ20020213153009402/13/02 15:30:31  5-MIN KDBQ 132130Z 22012KT 10SM CLR 03/M06 A3021 810 52 -300 220/12 RMK AO2
94908KDBQ DBQ20020213153509402/13/02 15:35:31  5-MIN KDBQ 132135Z 22014KT 10SM CLR 03/M06 A3021 810 52 -300 210/14 RMK AO2
94908KDBQ DBQ20020213154009402/13/02 15:40:31  5-MIN KDBQ 132140Z 21016KT 10SM CLR 03/M06 A3021 810 50 -300 210/16 RMK AO2
94908KDBQ DBQ20020213154509402/13/02 15:45:31  5-MIN KDBQ 132145Z 21014KT 10SM CLR 03/M06 A3021 810 52 -300 210/14 RMK AO2
94908KDBQ DBQ20020213155011102/13/02 15:50:31  5-MIN KDBQ 132150Z 20015KT 10SM CLR 03/M06 A3020 820 50 -300 200/15 RMK AO2 SLP242 T00331061
94908KDBQ DBQ20020213155511102/13/02 15:55:31  5-MIN KDBQ 132155Z 21013KT 10SM CLR 03/M06 A3020 820 52 -300 210/13 RMK AO2 SLP242 T00331056
94908KDBQ DBQ20020213160009402/13/02 16:00:31  5-MIN KDBQ 132200Z 21014KT 10SM CLR 03/M05 A3021 820 54 -300 210/14 RMK AO2
94908KDBQ DBQ20020213160509402/13/02 16:05:31  5-MIN KDBQ 132205Z 20013KT 10SM CLR 03/M06 A3020 820 54 -400 200/13 RMK AO2
94908KDBQ DBQ20020213161009402/13/02 16:10:31  5-MIN KDBQ 132210Z 20016KT 10SM CLR 03/M05 A3021 820 56 -400 200/16 RMK AO2
94908KDBQ DBQ20020213161509402/13/02 16:15:31  5-MIN KDBQ 132215Z 21014KT 10SM CLR 03/M06 A3020 820 54 -400 210/14 RMK AO2
94908KDBQ DBQ20020213162009402/13/02 16:20:31  5-MIN KDBQ 132220Z 20014KT 10SM CLR 03/M06 A3020 820 54 -400 200/14 RMK AO2
94908KDBQ DBQ20020213162509402/13/02 16:25:31  5-MIN KDBQ 132225Z 21013KT 10SM CLR 03/M05 A3020 820 56 -400 210/13 RMK AO2
94908KDBQ DBQ20020213163009402/13/02 16:30:31  5-MIN KDBQ 132230Z 21015KT 10SM CLR 03/M05 A3020 820 56 -400 200/15 RMK AO2
94908KDBQ DBQ20020213163509402/13/02 16:35:31  5-MIN KDBQ 132235Z 21015KT 10SM CLR 03/M06 A3020 820 54 -400 210/15 RMK AO2
94908KDBQ DBQ20020213164009402/13/02 16:40:31  5-MIN KDBQ 132240Z 20015KT 10SM CLR 03/M06 A3020 820 54 -400 200/15 RMK AO2
94908KDBQ DBQ20020213164509402/13/02 16:45:31  5-MIN KDBQ 132245Z 20014KT 10SM CLR 02/M06 A3020 820 56 -400 200/14 RMK AO2
94908KDBQ DBQ20020213165011102/13/02 16:50:31  5-MIN KDBQ 132250Z 21014KT 10SM CLR 02/M06 A3020 820 56 -400 210/14 RMK AO2 SLP241 T00221056
94908KDBQ DBQ20020213165511102/13/02 16:55:31  5-MIN KDBQ 132255Z 21013KT 10SM CLR 02/M06 A3020 830 56 -400 210/13 RMK AO2 SLP240 T00221056
94908KDBQ DBQ20020213170009402/13/02 17:00:31  5-MIN KDBQ 132300Z 21011KT 10SM CLR 02/M06 A3019 830 56 -400 210/11 RMK AO2
94908KDBQ DBQ20020213170509402/13/02 17:05:31  5-MIN KDBQ 132305Z 21012KT 10SM CLR 02/M06 A3019 830 56 -400 210/12 RMK AO2
94908KDBQ DBQ20020213171009402/13/02 17:10:31  5-MIN KDBQ 132310Z 20013KT 10SM CLR 02/M06 A3019 830 56 -400 200/13 RMK AO2
94908KDBQ DBQ20020213171509402/13/02 17:15:31  5-MIN KDBQ 132315Z 21013KT 10SM CLR 02/M06 A3019 830 56 -400 200/13 RMK AO2
94908KDBQ DBQ20020213172009402/13/02 17:20:31  5-MIN KDBQ 132320Z 20011KT 10SM CLR 02/M06 A3019 830 59 -500 200/11 RMK AO2
94908KDBQ DBQ20020213172509402/13/02 17:25:31  5-MIN KDBQ 132325Z 20012KT 10SM CLR 02/M06 A3019 830 59 -500 200/12 RMK AO2
94908KDBQ DBQ20020213173009402/13/02 17:30:31  5-MIN KDBQ 132330Z 20011KT 10SM CLR 01/M05 A3019 830 64 -600 200/11 RMK AO2
94908KDBQ DBQ20020213173509402/13/02 17:35:31  5-MIN KDBQ 132335Z 19011KT 10SM CLR 01/M05 A3019 830 64 -600 190/11 RMK AO2
94908KDBQ DBQ20020213174009402/13/02 17:40:31  5-MIN KDBQ 132340Z 19011KT 10SM CLR 01/M05 A3019 830 66 -600 190/11 RMK AO2
94908KDBQ DBQ20020213174509402/13/02 17:45:31  5-MIN KDBQ 132345Z 19010KT 10SM CLR 01/M05 A3019 830 66 -600 190/10 RMK AO2
94908KDBQ DBQ20020213175012902/13/02 17:50:31  5-MIN KDBQ 132350Z 19008KT 10SM CLR 00/M05 A3019 830 69 -700 190/08 RMK AO2 SLP240 T00001050 10033 21011 56030
94908KDBQ DBQ20020213175512902/13/02 17:55:31  5-MIN KDBQ 132355Z 19009KT 10SM CLR 00/M05 A3019 830 69 -700 190/09 RMK AO2 SLP239 T00001050 10033 21011 56012
94908KDBQ DBQ20020213180009402/13/02 18:00:31  5-MIN KDBQ 140000Z 19010KT 10SM CLR 00/M04 A3019 830 72 -700 190/10 RMK AO2
94908KDBQ DBQ20020213180509402/13/02 18:05:31  5-MIN KDBQ 140005Z 19010KT 10SM CLR 00/M04 A3018 840 72 -700 190/10 RMK AO2
94908KDBQ DBQ20020213181009402/13/02 18:10:31  5-MIN KDBQ 140010Z 19011KT 10SM CLR 00/M04 A3018 840 72 -700 190/11 RMK AO2
94908KDBQ DBQ20020213181509402/13/02 18:15:31  5-MIN KDBQ 140015Z 19010KT 10SM CLR 00/M04 A3018 840 72 -700 190/10 RMK AO2
94908KDBQ DBQ20020213182009402/13/02 18:20:31  5-MIN KDBQ 140020Z 18011KT 10SM CLR 00/M04 A3018 840 72 -700 180/11 RMK AO2
94908KDBQ DBQ20020213182509402/13/02 18:25:31  5-MIN KDBQ 140025Z 18011KT 10SM CLR 00/M04 A3018 840 72 -700 180/11 RMK AO2
94908KDBQ DBQ20020213183009402/13/02 18:30:31  5-MIN KDBQ 140030Z 18012KT 10SM CLR 00/M04 A3018 840 72 -700 180/12 RMK AO2
94908KDBQ DBQ20020213183509402/13/02 18:35:31  5-MIN KDBQ 140035Z 19011KT 10SM CLR 00/M04 A3018 840 72 -700 190/11 RMK AO2
94908KDBQ DBQ20020213184009402/13/02 18:40:31  5-MIN KDBQ 140040Z 19011KT 10SM CLR 00/M04 A3018 840 72 -700 190/11 RMK AO2
94908KDBQ DBQ20020213184509402/13/02 18:45:31  5-MIN KDBQ 140045Z 19011KT 10SM CLR 00/M04 A3018 840 72 -700 190/11 RMK AO2
94908KDBQ DBQ20020213185011102/13/02 18:50:31  5-MIN KDBQ 140050Z 19011KT 10SM CLR 00/M04 A3017 840 72 -700 190/11 RMK AO2 SLP234 T00001044
94908KDBQ DBQ20020213185511102/13/02 18:55:31  5-MIN KDBQ 140055Z 19011KT 10SM CLR 00/M04 A3017 850 72 -700 190/11 RMK AO2 SLP234 T00001044
94908KDBQ DBQ20020213190009402/13/02 19:00:31  5-MIN KDBQ 140100Z 19011KT 10SM CLR 00/M04 A3017 850 72 -700 190/11 RMK AO2
94908KDBQ DBQ20020213190510002/13/02 19:05:31  5-MIN KDBQ 140105Z AUTO 19011KT 10SM CLR M01/M04 A3017 840 75 -800 190/11 RMK AO2
94908KDBQ DBQ20020213191010502/13/02 19:10:31  5-MIN KDBQ 140110Z AUTO 19011KT 10SM CLR M01/M04 A3017 840 75 -800 190/11 RMK AO2 TSNO
94908KDBQ DBQ20020213191510502/13/02 19:15:31  5-MIN KDBQ 140115Z AUTO 19011KT 10SM CLR M01/M04 A3017 840 75 -800 190/11 RMK AO2 TSNO
94908KDBQ DBQ20020213192010502/13/02 19:20:31  5-MIN KDBQ 140120Z AUTO 19011KT 10SM CLR M01/M04 A3017 850 75 -800 190/11 RMK AO2 TSNO
94908KDBQ DBQ20020213192510502/13/02 19:25:31  5-MIN KDBQ 140125Z AUTO 19011KT 10SM CLR M01/M04 A3017 850 75 -800 190/11 RMK AO2 TSNO
94908KDBQ DBQ20020213193010502/13/02 19:30:31  5-MIN KDBQ 140130Z AUTO 20010KT 10SM CLR M01/M04 A3017 850 75 -800 190/10 RMK AO2 TSNO
94908KDBQ DBQ20020213193510502/13/02 19:35:31  5-MIN KDBQ 140135Z AUTO 20010KT 10SM CLR M01/M04 A3017 850 75 -800 190/10 RMK AO2 TSNO
94908KDBQ DBQ20020213194010502/13/02 19:40:31  5-MIN KDBQ 140140Z AUTO 19010KT 10SM CLR M01/M04 A3017 850 78 -800 190/10 RMK AO2 TSNO
94908KDBQ DBQ20020213194510502/13/02 19:45:31  5-MIN KDBQ 140145Z AUTO 19011KT 10SM CLR M01/M04 A3017 850 75 -800 190/11 RMK AO2 TSNO
94908KDBQ DBQ20020213195012202/13/02 19:50:31  5-MIN KDBQ 140150Z AUTO 19011KT 10SM CLR M01/M04 A3017 850 75 -800 190/11 RMK AO2 SLP231 T10061044 TSNO
94908KDBQ DBQ20020213195512202/13/02 19:55:31  5-MIN KDBQ 140155Z AUTO 19011KT 10SM CLR M01/M04 A3017 850 75 -800 190/11 RMK AO2 SLP232 T10061044 TSNO
94908KDBQ DBQ20020213200010502/13/02 20:00:31  5-MIN KDBQ 140200Z AUTO 19010KT 10SM CLR M01/M04 A3017 850 75 -800 190/10 RMK AO2 TSNO
94908KDBQ DBQ20020213200510502/13/02 20:05:31  5-MIN KDBQ 140205Z AUTO 19010KT 10SM CLR M01/M04 A3016 850 78 -800 190/10 RMK AO2 TSNO
94908KDBQ DBQ20020213201010502/13/02 20:10:31  5-MIN KDBQ 140210Z AUTO 19010KT 10SM CLR M01/M04 A3016 850 78 -800 190/10 RMK AO2 TSNO
94908KDBQ DBQ20020213201510502/13/02 20:15:31  5-MIN KDBQ 140215Z AUTO 19010KT 10SM CLR M01/M04 A3016 860 78 -800 190/10 RMK AO2 TSNO
94908KDBQ DBQ20020213202010502/13/02 20:20:31  5-MIN KDBQ 140220Z AUTO 19010KT 10SM CLR M01/M04 A3016 860 78 -800 190/10 RMK AO2 TSNO
94908KDBQ DBQ20020213202510502/13/02 20:25:31  5-MIN KDBQ 140225Z AUTO 19010KT 10SM CLR M01/M04 A3016 860 78 -800 190/10 RMK AO2 TSNO
94908KDBQ DBQ20020213203010502/13/02 20:30:31  5-MIN KDBQ 140230Z AUTO 19009KT 10SM CLR M01/M04 A3016 860 78 -800 190/09 RMK AO2 TSNO
94908KDBQ DBQ20020213203510502/13/02 20:35:31  5-MIN KDBQ 140235Z AUTO 19009KT 10SM CLR M01/M04 A3016 860 78 -800 190/09 RMK AO2 TSNO
94908KDBQ DBQ20020213204010502/13/02 20:40:31  5-MIN KDBQ 140240Z AUTO 19009KT 10SM CLR M02/M04 A3016 860 81 -900 190/09 RMK AO2 TSNO
94908KDBQ DBQ20020213204510502/13/02 20:45:31  5-MIN KDBQ 140245Z AUTO 19009KT 10SM CLR M02/M04 A3016 860 81 -900 190/09 RMK AO2 TSNO
94908KDBQ DBQ20020213205012802/13/02 20:50:31  5-MIN KDBQ 140250Z AUTO 19009KT 10SM CLR M02/M04 A3016 860 81 -900 190/09 RMK AO2 SLP228 T10171044 56012 TSNO
94908KDBQ DBQ20020213205512802/13/02 20:55:31  5-MIN KDBQ 140255Z AUTO 19010KT 10SM CLR M02/M04 A3015 860 81 -900 190/10 RMK AO2 SLP227 T10171044 56010 TSNO
94908KDBQ DBQ20020213210010502/13/02 21:00:31  5-MIN KDBQ 140300Z AUTO 19010KT 10SM CLR M02/M04 A3015 860 81 -900 190/10 RMK AO2 TSNO
94908KDBQ DBQ20020213210510502/13/02 21:05:31  5-MIN KDBQ 140305Z AUTO 19009KT 10SM CLR M02/M04 A3015 860 81 -900 190/09 RMK AO2 TSNO
94908KDBQ DBQ20020213211010502/13/02 21:10:31  5-MIN KDBQ 140310Z AUTO 19010KT 10SM CLR M02/M04 A3015 870 81 -900 190/10 RMK AO2 TSNO
94908KDBQ DBQ20020213211510502/13/02 21:15:31  5-MIN KDBQ 140315Z AUTO 19010KT 10SM CLR M02/M04 A3015 870 81 -900 190/10 RMK AO2 TSNO
94908KDBQ DBQ20020213212010502/13/02 21:20:31  5-MIN KDBQ 140320Z AUTO 20010KT 10SM CLR M02/M04 A3015 870 81 -900 190/10 RMK AO2 TSNO
94908KDBQ DBQ20020213212510502/13/02 21:25:31  5-MIN KDBQ 140325Z AUTO 19010KT 10SM CLR M02/M04 A3015 870 81 -900 190/10 RMK AO2 TSNO
94908KDBQ DBQ20020213213010502/13/02 21:30:31  5-MIN KDBQ 140330Z AUTO 19010KT 10SM CLR M02/M04 A3015 870 81 -900 190/10 RMK AO2 TSNO
94908KDBQ DBQ20020213213510502/13/02 21:35:31  5-MIN KDBQ 140335Z AUTO 19010KT 10SM CLR M01/M04 A3015 870 78 -800 190/10 RMK AO2 TSNO
94908KDBQ DBQ20020213214010502/13/02 21:40:31  5-MIN KDBQ 140340Z AUTO 19010KT 10SM CLR M02/M04 A3014 870 81 -900 190/10 RMK AO2 TSNO
94908KDBQ DBQ20020213214510502/13/02 21:45:31  5-MIN KDBQ 140345Z AUTO 19011KT 10SM CLR M01/M04 A3014 870 78 -800 190/11 RMK AO2 TSNO
94908KDBQ DBQ20020213215012202/13/02 21:50:31  5-MIN KDBQ 140350Z AUTO 19011KT 10SM CLR M01/M05 A3014 880 75 -800 190/11 RMK AO2 SLP220 T10111050 TSNO
94908KDBQ DBQ20020213215512202/13/02 21:55:31  5-MIN KDBQ 140355Z AUTO 19010KT 10SM CLR M01/M05 A3014 880 75 -800 190/10 RMK AO2 SLP220 T10111050 TSNO
94908KDBQ DBQ20020213220010502/13/02 22:00:31  5-MIN KDBQ 140400Z AUTO 19010KT 10SM CLR M01/M05 A3014 880 75 -800 190/10 RMK AO2 TSNO
94908KDBQ DBQ20020213220510502/13/02 22:05:31  5-MIN KDBQ 140405Z AUTO 19010KT 10SM CLR M01/M05 A3014 880 75 -800 190/10 RMK AO2 TSNO
94908KDBQ DBQ20020213221010502/13/02 22:10:31  5-MIN KDBQ 140410Z AUTO 19009KT 10SM CLR M01/M05 A3014 880 75 -800 190/09 RMK AO2 TSNO
94908KDBQ DBQ20020213221510502/13/02 22:15:31  5-MIN KDBQ 140415Z AUTO 19010KT 10SM CLR M02/M05 A3013 880 78 -900 190/10 RMK AO2 TSNO
94908KDBQ DBQ20020213222010502/13/02 22:20:31  5-MIN KDBQ 140420Z AUTO 19009KT 10SM CLR M02/M05 A3013 880 78 -900 190/09 RMK AO2 TSNO
94908KDBQ DBQ20020213222510502/13/02 22:25:31  5-MIN KDBQ 140425Z AUTO 19010KT 10SM CLR M02/M05 A3013 890 78 -800 190/10 RMK AO2 TSNO
94908KDBQ DBQ20020213223010502/13/02 22:30:31  5-MIN KDBQ 140430Z AUTO 19010KT 10SM CLR M01/M05 A3013 890 75 -800 190/10 RMK AO2 TSNO
94908KDBQ DBQ20020213223510502/13/02 22:35:31  5-MIN KDBQ 140435Z AUTO 19010KT 10SM CLR M01/M05 A3013 890 75 -800 190/10 RMK AO2 TSNO
94908KDBQ DBQ20020213224010502/13/02 22:40:31  5-MIN KDBQ 140440Z AUTO 19011KT 10SM CLR M01/M05 A3013 890 75 -800 190/11 RMK AO2 TSNO
94908KDBQ DBQ20020213224510502/13/02 22:45:31  5-MIN KDBQ 140445Z AUTO 19010KT 10SM CLR M01/M05 A3012 890 75 -800 190/10 RMK AO2 TSNO
94908KDBQ DBQ20020213225012202/13/02 22:50:31  5-MIN KDBQ 140450Z AUTO 19011KT 10SM CLR M01/M05 A3012 890 75 -800 190/11 RMK AO2 SLP214 T10111050 TSNO
94908KDBQ DBQ20020213225512202/13/02 22:55:31  5-MIN KDBQ 140455Z AUTO 19012KT 10SM CLR M01/M06 A3012 890 72 -800 190/12 RMK AO2 SLP214 T10111056 TSNO
94908KDBQ DBQ20020213230010502/13/02 23:00:31  5-MIN KDBQ 140500Z AUTO 19012KT 10SM CLR M01/M05 A3012 900 75 -800 190/12 RMK AO2 TSNO
94908KDBQ DBQ20020213230510502/13/02 23:05:31  5-MIN KDBQ 140505Z AUTO 20012KT 10SM CLR M01/M05 A3012 900 75 -800 190/12 RMK AO2 TSNO
94908KDBQ DBQ20020213231010502/13/02 23:10:31  5-MIN KDBQ 140510Z AUTO 20012KT 10SM CLR M01/M06 A3011 900 72 -800 190/12 RMK AO2 TSNO
94908KDBQ DBQ20020213231510502/13/02 23:15:31  5-MIN KDBQ 140515Z AUTO 20012KT 10SM CLR M01/M05 A3011 900 75 -800 200/12 RMK AO2 TSNO
94908KDBQ DBQ20020213232010502/13/02 23:20:31  5-MIN KDBQ 140520Z AUTO 20012KT 10SM CLR M01/M05 A3011 900 75 -800 200/12 RMK AO2 TSNO
94908KDBQ DBQ20020213232510502/13/02 23:25:31  5-MIN KDBQ 140525Z AUTO 20012KT 10SM CLR M01/M06 A3011 900 69 -800 200/12 RMK AO2 TSNO
94908KDBQ DBQ20020213233010502/13/02 23:30:31  5-MIN KDBQ 140530Z AUTO 20012KT 10SM CLR M01/M06 A3011 900 69 -800 200/12 RMK AO2 TSNO
94908KDBQ DBQ20020213233510502/13/02 23:35:31  5-MIN KDBQ 140535Z AUTO 20012KT 10SM CLR M01/M06 A3011 900 69 -800 200/12 RMK AO2 TSNO
94908KDBQ DBQ20020213234010502/13/02 23:40:31  5-MIN KDBQ 140540Z AUTO 20012KT 10SM CLR M01/M06 A3011 900 69 -800 190/12 RMK AO2 TSNO
94908KDBQ DBQ20020213234510502/13/02 23:45:31  5-MIN KDBQ 140545Z AUTO 20012KT 10SM CLR M01/M06 A3011 900 69 -800 190/12 RMK AO2 TSNO
94908KDBQ DBQ20020213235015002/13/02 23:50:31  5-MIN KDBQ 140550Z AUTO 20011KT 10SM CLR M01/M06 A3011 900 69 -800 190/11 RMK AO2 SLP210 T10111061 10000 21017 400331100 56010 TSNO
94908KDBQ DBQ20020213235515002/13/02 23:55:31  5-MIN KDBQ 140555Z AUTO 20012KT 10SM CLR M01/M06 A3011 900 66 -700 190/12 RMK AO2 SLP210 T10061061 10000 21017 400331100 56014 TSNO
94908KDBQ DBQ20020214000010502/14/02 00:00:31  5-MIN KDBQ 140600Z AUTO 20014KT 10SM CLR M01/M06 A3011 900 66 -700 200/14 RMK AO2 TSNO
94908KDBQ DBQ20020214000510502/14/02 00:05:31  5-MIN KDBQ 140605Z AUTO 20012KT 10SM CLR M01/M07 A3011 900 63 -700 200/12 RMK AO2 TSNO
94908KDBQ DBQ20020214001010502/14/02 00:10:31  5-MIN KDBQ 140610Z AUTO 20013KT 10SM CLR M01/M06 A3011 900 66 -700 200/13 RMK AO2 TSNO
94908KDBQ DBQ20020214001510502/14/02 00:15:31  5-MIN KDBQ 140615Z AUTO 20012KT 10SM CLR M01/M06 A3011 900 66 -700 200/12 RMK AO2 TSNO
94908KDBQ DBQ20020214002010502/14/02 00:20:31  5-MIN KDBQ 140620Z AUTO 20012KT 10SM CLR M01/M07 A3011 900 63 -700 200/12 RMK AO2 TSNO
94908KDBQ DBQ20020214002510502/14/02 00:25:31  5-MIN KDBQ 140625Z AUTO 20015KT 10SM CLR M01/M07 A3011 900 63 -700 200/15 RMK AO2 TSNO
94908KDBQ DBQ20020214003010502/14/02 00:30:31  5-MIN KDBQ 140630Z AUTO 20014KT 10SM CLR M01/M07 A3011 910 63 -700 200/14 RMK AO2 TSNO
94908KDBQ DBQ20020214003510502/14/02 00:35:31  5-MIN KDBQ 140635Z AUTO 20014KT 10SM CLR M01/M07 A3011 900 63 -700 200/14 RMK AO2 TSNO
94908KDBQ DBQ20020214004010502/14/02 00:40:31  5-MIN KDBQ 140640Z AUTO 20013KT 10SM CLR M01/M07 A3011 910 63 -700 200/13 RMK AO2 TSNO
94908KDBQ DBQ20020214004510502/14/02 00:45:31  5-MIN KDBQ 140645Z AUTO 20013KT 10SM CLR M01/M07 A3011 900 63 -700 200/13 RMK AO2 TSNO
94908KDBQ DBQ20020214005012202/14/02 00:50:31  5-MIN KDBQ 140650Z AUTO 20014KT 10SM CLR M01/M07 A3011 910 63 -700 200/14 RMK AO2 SLP207 T10061067 TSNO
94908KDBQ DBQ20020214005512202/14/02 00:55:31  5-MIN KDBQ 140655Z AUTO 20013KT 10SM CLR M01/M07 A3010 910 63 -700 200/13 RMK AO2 SLP206 T10061067 TSNO
94908KDBQ DBQ20020214010010502/14/02 01:00:31  5-MIN KDBQ 140700Z AUTO 20013KT 10SM CLR M01/M07 A3010 910 63 -700 200/13 RMK AO2 TSNO
94908KDBQ DBQ20020214010510502/14/02 01:05:31  5-MIN KDBQ 140705Z AUTO 20013KT 10SM CLR M01/M07 A3010 910 63 -700 200/13 RMK AO2 TSNO
94908KDBQ DBQ20020214011010502/14/02 01:10:31  5-MIN KDBQ 140710Z AUTO 20012KT 10SM CLR M01/M07 A3010 910 63 -700 200/12 RMK AO2 TSNO
94908KDBQ DBQ20020214011510502/14/02 01:15:31  5-MIN KDBQ 140715Z AUTO 20013KT 10SM CLR M01/M06 A3010 910 66 -700 200/13 RMK AO2 TSNO
94908KDBQ DBQ20020214012010502/14/02 01:20:31  5-MIN KDBQ 140720Z AUTO 20013KT 10SM CLR M01/M06 A3010 910 69 -700 200/13 RMK AO2 TSNO
94908KDBQ DBQ20020214012510502/14/02 01:25:31  5-MIN KDBQ 140725Z AUTO 20014KT 10SM CLR M01/M06 A3010 910 66 -700 200/14 RMK AO2 TSNO
94908KDBQ DBQ20020214013010502/14/02 01:30:31  5-MIN KDBQ 140730Z AUTO 20014KT 10SM CLR M01/M06 A3010 920 69 -700 190/14 RMK AO2 TSNO
94908KDBQ DBQ20020214013510502/14/02 01:35:31  5-MIN KDBQ 140735Z AUTO 20013KT 10SM CLR M01/M06 A3009 920 69 -700 190/13 RMK AO2 TSNO
94908KDBQ DBQ20020214014010502/14/02 01:40:31  5-MIN KDBQ 140740Z AUTO 19013KT 10SM CLR M01/M06 A3009 920 69 -700 190/13 RMK AO2 TSNO
94908KDBQ DBQ20020214014510502/14/02 01:45:31  5-MIN KDBQ 140745Z AUTO 20013KT 10SM CLR M01/M06 A3009 920 69 -700 190/13 RMK AO2 TSNO
94908KDBQ DBQ20020214015012202/14/02 01:50:31  5-MIN KDBQ 140750Z AUTO 20014KT 10SM CLR M01/M06 A3009 920 69 -700 190/14 RMK AO2 SLP203 T10111061 TSNO
94908KDBQ DBQ20020214015512202/14/02 01:55:31  5-MIN KDBQ 140755Z AUTO 20013KT 10SM CLR M01/M06 A3009 920 69 -700 200/13 RMK AO2 SLP203 T10111061 TSNO
94908KDBQ DBQ20020214020010502/14/02 02:00:31  5-MIN KDBQ 140800Z AUTO 20014KT 10SM CLR M01/M06 A3010 920 69 -700 200/14 RMK AO2 TSNO
94908KDBQ DBQ20020214020510502/14/02 02:05:31  5-MIN KDBQ 140805Z AUTO 20015KT 10SM CLR M01/M06 A3010 920 69 -700 200/15 RMK AO2 TSNO
94908KDBQ DBQ20020214021010502/14/02 02:10:31  5-MIN KDBQ 140810Z AUTO 20015KT 10SM CLR M01/M06 A3009 920 66 -700 200/15 RMK AO2 TSNO
94908KDBQ DBQ20020214021510502/14/02 02:15:31  5-MIN KDBQ 140815Z AUTO 20014KT 10SM CLR M01/M06 A3009 920 66 -700 200/14 RMK AO2 TSNO
94908KDBQ DBQ20020214022010502/14/02 02:20:31  5-MIN KDBQ 140820Z AUTO 20013KT 10SM CLR M01/M06 A3009 920 66 -700 200/13 RMK AO2 TSNO
94908KDBQ DBQ20020214022510502/14/02 02:25:31  5-MIN KDBQ 140825Z AUTO 20013KT 10SM CLR M01/M06 A3009 920 69 -700 200/13 RMK AO2 TSNO
94908KDBQ DBQ20020214023010502/14/02 02:30:31  5-MIN KDBQ 140830Z AUTO 20013KT 10SM CLR M01/M06 A3009 920 69 -700 200/13 RMK AO2 TSNO
94908KDBQ DBQ20020214023510502/14/02 02:35:31  5-MIN KDBQ 140835Z AUTO 20014KT 10SM CLR M01/M06 A3009 920 69 -700 200/14 RMK AO2 TSNO
94908KDBQ DBQ20020214024010502/14/02 02:40:31  5-MIN KDBQ 140840Z AUTO 20013KT 10SM CLR M01/M06 A3009 920 69 -700 200/13 RMK AO2 TSNO
94908KDBQ DBQ20020214024510502/14/02 02:45:31  5-MIN KDBQ 140845Z AUTO 20013KT 10SM CLR M01/M07 A3009 920 66 -700 200/13 RMK AO2 TSNO
94908KDBQ DBQ20020214025012802/14/02 02:50:31  5-MIN KDBQ 140850Z AUTO 20012KT 10SM CLR M01/M07 A3008 930 66 -700 190/12 RMK AO2 SLP198 T10111067 56014 TSNO
94908KDBQ DBQ20020214025512802/14/02 02:55:31  5-MIN KDBQ 140855Z AUTO 20012KT 10SM CLR M01/M07 A3008 930 66 -700 200/12 RMK AO2 SLP197 T10111067 58010 TSNO
94908KDBQ DBQ20020214030010502/14/02 03:00:31  5-MIN KDBQ 140900Z AUTO 20013KT 10SM CLR M01/M07 A3008 930 66 -700 200/13 RMK AO2 TSNO
94908KDBQ DBQ20020214030510502/14/02 03:05:31  5-MIN KDBQ 140905Z AUTO 20012KT 10SM CLR M01/M07 A3008 930 66 -700 190/12 RMK AO2 TSNO
94908KDBQ DBQ20020214031010502/14/02 03:10:31  5-MIN KDBQ 140910Z AUTO 20013KT 10SM CLR M01/M07 A3007 940 66 -700 200/13 RMK AO2 TSNO
94908KDBQ DBQ20020214031510502/14/02 03:15:31  5-MIN KDBQ 140915Z AUTO 20013KT 10SM CLR M01/M07 A3007 940 66 -700 200/13 RMK AO2 TSNO
94908KDBQ DBQ20020214032010502/14/02 03:20:31  5-MIN KDBQ 140920Z AUTO 19014KT 10SM CLR M01/M07 A3007 940 66 -700 190/14 RMK AO2 TSNO
94908KDBQ DBQ20020214032510502/14/02 03:25:31  5-MIN KDBQ 140925Z AUTO 20014KT 10SM CLR M01/M07 A3007 940 66 -700 190/14 RMK AO2 TSNO
94908KDBQ DBQ20020214033010502/14/02 03:30:31  5-MIN KDBQ 140930Z AUTO 20013KT 10SM CLR M01/M07 A3006 950 66 -700 190/13 RMK AO2 TSNO
94908KDBQ DBQ20020214033510502/14/02 03:35:31  5-MIN KDBQ 140935Z AUTO 20013KT 10SM CLR M01/M07 A3006 950 66 -700 200/13 RMK AO2 TSNO
94908KDBQ DBQ20020214034010502/14/02 03:40:31  5-MIN KDBQ 140940Z AUTO 20013KT 10SM CLR M01/M07 A3006 950 66 -700 190/13 RMK AO2 TSNO
94908KDBQ DBQ20020214034510502/14/02 03:45:31  5-MIN KDBQ 140945Z AUTO 19012KT 10SM CLR M01/M07 A3006 950 66 -700 190/12 RMK AO2 TSNO
94908KDBQ DBQ20020214035012202/14/02 03:50:31  5-MIN KDBQ 140950Z AUTO 19013KT 10SM CLR M01/M07 A3006 950 66 -700 190/13 RMK AO2 SLP189 T10111067 TSNO
94908KDBQ DBQ20020214035512202/14/02 03:55:31  5-MIN KDBQ 140955Z AUTO 19012KT 10SM CLR M01/M07 A3005 960 66 -700 190/12 RMK AO2 SLP188 T10111067 TSNO
94908KDBQ DBQ20020214040010502/14/02 04:00:31  5-MIN KDBQ 141000Z AUTO 19012KT 10SM CLR M02/M07 A3005 960 69 -800 190/12 RMK AO2 TSNO
94908KDBQ DBQ20020214040510502/14/02 04:05:31  5-MIN KDBQ 141005Z AUTO 19012KT 10SM CLR M02/M07 A3004 960 69 -800 190/12 RMK AO2 TSNO
94908KDBQ DBQ20020214041010502/14/02 04:10:31  5-MIN KDBQ 141010Z AUTO 19012KT 10SM CLR M02/M07 A3004 960 69 -800 190/12 RMK AO2 TSNO
94908KDBQ DBQ20020214041510502/14/02 04:15:31  5-MIN KDBQ 141015Z AUTO 19013KT 10SM CLR M02/M07 A3005 960 69 -800 190/13 RMK AO2 TSNO
94908KDBQ DBQ20020214042010502/14/02 04:20:31  5-MIN KDBQ 141020Z AUTO 19013KT 10SM CLR M02/M07 A3005 960 69 -800 190/13 RMK AO2 TSNO
94908KDBQ DBQ20020214042510502/14/02 04:25:31  5-MIN KDBQ 141025Z AUTO 19012KT 10SM CLR M02/M07 A3004 970 69 -700 190/12 RMK AO2 TSNO
94908KDBQ DBQ20020214043010502/14/02 04:30:31  5-MIN KDBQ 141030Z AUTO 19011KT 10SM CLR M02/M07 A3004 970 69 -700 190/11 RMK AO2 TSNO
94908KDBQ DBQ20020214043510502/14/02 04:35:31  5-MIN KDBQ 141035Z AUTO 19012KT 10SM CLR M02/M07 A3004 970 69 -800 190/12 RMK AO2 TSNO
94908KDBQ DBQ20020214044010502/14/02 04:40:31  5-MIN KDBQ 141040Z AUTO 19011KT 10SM CLR M02/M07 A3004 970 69 -700 190/11 RMK AO2 TSNO
94908KDBQ DBQ20020214044510502/14/02 04:45:31  5-MIN KDBQ 141045Z AUTO 19013KT 10SM CLR M02/M07 A3004 970 69 -700 190/13 RMK AO2 TSNO
94908KDBQ DBQ20020214045012202/14/02 04:50:31  5-MIN KDBQ 141050Z AUTO 19013KT 10SM CLR M02/M07 A3004 970 69 -700 190/13 RMK AO2 SLP185 T10171067 TSNO
94908KDBQ DBQ20020214045512202/14/02 04:55:31  5-MIN KDBQ 141055Z AUTO 20013KT 10SM CLR M02/M07 A3004 960 69 -800 200/13 RMK AO2 SLP185 T10171067 TSNO
94908KDBQ DBQ20020214050010502/14/02 05:00:31  5-MIN KDBQ 141100Z AUTO 20014KT 10SM CLR M02/M07 A3004 970 69 -800 200/14 RMK AO2 TSNO
94908KDBQ DBQ20020214050510502/14/02 05:05:31  5-MIN KDBQ 141105Z AUTO 19015KT 10SM CLR M02/M07 A3004 970 69 -700 190/15 RMK AO2 TSNO
94908KDBQ DBQ20020214051010502/14/02 05:10:31  5-MIN KDBQ 141110Z AUTO 19014KT 10SM CLR M02/M07 A3004 970 69 -700 190/14 RMK AO2 TSNO
94908KDBQ DBQ20020214051510502/14/02 05:15:31  5-MIN KDBQ 141115Z AUTO 19015KT 10SM CLR M02/M06 A3003 970 72 -700 190/15 RMK AO2 TSNO
94908KDBQ DBQ20020214052010502/14/02 05:20:31  5-MIN KDBQ 141120Z AUTO 19014KT 10SM CLR M02/M07 A3003 970 69 -700 190/14 RMK AO2 TSNO
94908KDBQ DBQ20020214052510502/14/02 05:25:31  5-MIN KDBQ 141125Z AUTO 19013KT 10SM CLR M02/M07 A3003 970 69 -700 190/13 RMK AO2 TSNO
94908KDBQ DBQ20020214053010502/14/02 05:30:31  5-MIN KDBQ 141130Z AUTO 19013KT 10SM CLR M02/M07 A3003 980 69 -700 190/13 RMK AO2 TSNO
94908KDBQ DBQ20020214053510502/14/02 05:35:31  5-MIN KDBQ 141135Z AUTO 19013KT 10SM CLR M02/M07 A3003 980 69 -700 190/13 RMK AO2 TSNO
94908KDBQ DBQ20020214054010502/14/02 05:40:31  5-MIN KDBQ 141140Z AUTO 19014KT 10SM CLR M01/M07 A3003 970 66 -700 190/14 RMK AO2 TSNO
94908KDBQ DBQ20020214054510502/14/02 05:45:31  5-MIN KDBQ 141145Z AUTO 19014KT 10SM CLR M01/M07 A3003 980 66 -700 190/14 RMK AO2 TSNO
94908KDBQ DBQ20020214055013002/14/02 05:50:31  5-MIN KDBQ 141150Z 19013KT 10SM CLR M01/M07 A3003 980 66 -700 190/13 RMK AO2 SLP181 T10111067 11006 21017 58010
94908KDBQ DBQ20020214055513002/14/02 05:55:31  5-MIN KDBQ 141155Z 19014KT 10SM CLR M01/M07 A3003 980 66 -700 190/14 RMK AO2 SLP180 T10111067 11006 21017 56018
94908KDBQ DBQ20020214060009502/14/02 06:00:31  5-MIN KDBQ 141200Z 19014KT 10SM CLR M01/M07 A3003 980 66 -700 190/14 RMK AO2
94908KDBQ DBQ20020214060509502/14/02 06:05:31  5-MIN KDBQ 141205Z 19015KT 10SM CLR M01/M07 A3002 990 66 -700 190/15 RMK AO2
94908KDBQ DBQ20020214061009502/14/02 06:10:31  5-MIN KDBQ 141210Z 19014KT 10SM CLR M01/M07 A3002 980 66 -700 190/14 RMK AO2
94908KDBQ DBQ20020214061509502/14/02 06:15:31  5-MIN KDBQ 141215Z 19014KT 10SM CLR M01/M07 A3002 990 66 -700 190/14 RMK AO2
94908KDBQ DBQ20020214062009502/14/02 06:20:31  5-MIN KDBQ 141220Z 19014KT 10SM CLR M01/M07 A3002 990 66 -700 180/14 RMK AO2
94908KDBQ DBQ20020214062509502/14/02 06:25:31  5-MIN KDBQ 141225Z 19014KT 10SM CLR M01/M07 A3002 980 66 -700 190/14 RMK AO2
94908KDBQ DBQ20020214063009502/14/02 06:30:31  5-MIN KDBQ 141230Z 19013KT 10SM CLR M01/M07 A3002 990 66 -700 190/13 RMK AO2
94908KDBQ DBQ20020214063509502/14/02 06:35:31  5-MIN KDBQ 141235Z 19014KT 10SM CLR M01/M07 A3002 980 66 -700 190/14 RMK AO2
94908KDBQ DBQ20020214064010102/14/02 06:40:31  5-MIN KDBQ 141240Z 19016G20KT 10SM CLR M01/M07 A3002 990 66 -700 190/16G20 RMK AO2
94908KDBQ DBQ20020214064509502/14/02 06:45:31  5-MIN KDBQ 141245Z 19016KT 10SM CLR M01/M07 A3002 990 66 -700 190/16 RMK AO2
94908KDBQ DBQ20020214065011202/14/02 06:50:31  5-MIN KDBQ 141250Z 19015KT 10SM CLR M01/M07 A3002 990 66 -700 190/15 RMK AO2 SLP178 T10111067
94908KDBQ DBQ20020214065511202/14/02 06:55:31  5-MIN KDBQ 141255Z 18014KT 10SM CLR M01/M07 A3002 990 66 -700 180/14 RMK AO2 SLP177 T10111067
94908KDBQ DBQ20020214070009502/14/02 07:00:31  5-MIN KDBQ 141300Z 19015KT 10SM CLR M01/M07 A3002 990 66 -700 190/15 RMK AO2
94908KDBQ DBQ20020214070509502/14/02 07:05:31  5-MIN KDBQ 141305Z 19015KT 10SM CLR M01/M06 A3002 990 69 -700 190/15 RMK AO2
94908KDBQ DBQ20020214071009502/14/02 07:10:31  5-MIN KDBQ 141310Z 19015KT 10SM CLR M01/M06 A3002 990 69 -700 190/15 RMK AO2
94908KDBQ DBQ20020214071509502/14/02 07:15:31  5-MIN KDBQ 141315Z 19014KT 10SM CLR M01/M06 A3002 990 69 -700 190/14 RMK AO2
94908KDBQ DBQ20020214072009502/14/02 07:20:31  5-MIN KDBQ 141320Z 19015KT 10SM CLR M01/M06 A3002 990 69 -700 190/15 RMK AO2
94908KDBQ DBQ20020214072509502/14/02 07:25:31  5-MIN KDBQ 141325Z 19015KT 10SM CLR M01/M06 A3002 990 66 -600 190/15 RMK AO2
94908KDBQ DBQ20020214073009502/14/02 07:30:31  5-MIN KDBQ 141330Z 19016KT 10SM CLR M01/M06 A3001 990 66 -600 190/16 RMK AO2
94908KDBQ DBQ20020214073509502/14/02 07:35:31  5-MIN KDBQ 141335Z 19017KT 10SM CLR M01/M06 A3002 990 66 -600 190/17 RMK AO2
94908KDBQ DBQ20020214074009502/14/02 07:40:31  5-MIN KDBQ 141340Z 19018KT 10SM CLR M01/M06 A3001 990 66 -600 190/18 RMK AO2
94908KDBQ DBQ20020214074509402/14/02 07:45:31  5-MIN KDBQ 141345Z 19018KT 10SM CLR 00/M06 A3001 990 63 -500 190/18 RMK AO2
94908KDBQ DBQ20020214075011702/14/02 07:50:31  5-MIN KDBQ 141350Z 19018G23KT 10SM CLR 00/M06 A3001 990 63 -500 190/18G23 RMK AO2 SLP175 T00001061
94908KDBQ DBQ20020214075511202/14/02 07:55:31  5-MIN KDBQ 141355Z 19018KT 10SM CLR 00/M06 A3001 1000 63 -500 190/18 RMK AO2 SLP174 T00001061
94908KDBQ DBQ20020214080009502/14/02 08:00:31  5-MIN KDBQ 141400Z 20017KT 10SM CLR 01/M06 A3000 1000 61 -400 200/17 RMK AO2
94908KDBQ DBQ20020214080510102/14/02 08:05:31  5-MIN KDBQ 141405Z 20021G25KT 10SM CLR 01/M06 A3000 1000 61 -400 200/21G25 RMK AO2
94908KDBQ DBQ20020214081010102/14/02 08:10:31  5-MIN KDBQ 141410Z 20019G25KT 10SM CLR 01/M06 A3000 1000 58 -400 200/19G25 RMK AO2
94908KDBQ DBQ20020214081511902/14/02 08:15:31  5-MIN KDBQ 141415Z 20020G26KT 10SM CLR 01/M06 A3000 1000 58 -400 200/20G26 RMK AO2 PK WND 20026/1415
94908KDBQ DBQ20020214082011902/14/02 08:20:31  5-MIN KDBQ 141420Z 20019G26KT 10SM CLR 01/M06 A3000 1000 58 -400 200/19G26 RMK AO2 PK WND 20026/1415
94908KDBQ DBQ20020214082511902/14/02 08:25:31  5-MIN KDBQ 141425Z 20020G27KT 10SM CLR 01/M06 A3000 1000 58 -400 200/20G27 RMK AO2 PK WND 20027/1422
94908KDBQ DBQ20020214083011902/14/02 08:30:31  5-MIN KDBQ 141430Z 20021G27KT 10SM CLR 01/M06 A3001 1000 58 -400 200/21G27 RMK AO2 PK WND 19027/1429
94908KDBQ DBQ20020214083511902/14/02 08:35:31  5-MIN KDBQ 141435Z 20019G27KT 10SM CLR 01/M06 A3000 1000 58 -400 200/19G27 RMK AO2 PK WND 19027/1429
94908KDBQ DBQ20020214084011302/14/02 08:40:31  5-MIN KDBQ 141440Z 20020KT 10SM CLR 02/M06 A3000 1000 56 -300 200/20 RMK AO2 PK WND 19027/1429
94908KDBQ DBQ20020214084511902/14/02 08:45:31  5-MIN KDBQ 141445Z 20019G26KT 10SM CLR 02/M06 A3000 1010 56 -300 200/19G26 RMK AO2 PK WND 19027/1429
94908KDBQ DBQ20020214085014202/14/02 08:50:31  5-MIN KDBQ 141450Z 20020G26KT 10SM CLR 02/M06 A2999 1010 56 -300 200/20G26 RMK AO2 PK WND 19027/1429 SLP168 T00171061 56018
94908KDBQ DBQ20020214085514202/14/02 08:55:31  5-MIN KDBQ 141455Z 20022G26KT 10SM CLR 02/M06 A2999 1010 54 -200 200/22G26 RMK AO2 PK WND 19027/1429 SLP169 T00221061 58010
94908KDBQ DBQ20020214090011902/14/02 09:00:31  5-MIN KDBQ 141500Z 20020G26KT 10SM CLR 02/M06 A3000 1010 54 -200 200/20G26 RMK AO2 PK WND 20026/1456
94908KDBQ DBQ20020214090511902/14/02 09:05:31  5-MIN KDBQ 141505Z 20024G28KT 10SM CLR 02/M06 A2999 1010 54 -200 200/24G28 RMK AO2 PK WND 21028/1505
94908KDBQ DBQ20020214091011902/14/02 09:10:31  5-MIN KDBQ 141510Z 21020G28KT 10SM CLR 03/M07 A2998 1020 50 -100 210/20G28 RMK AO2 PK WND 21028/1505
94908KDBQ DBQ20020214091511902/14/02 09:15:31  5-MIN KDBQ 141515Z 21023G27KT 10SM CLR 03/M06 A2999 1020 52 -100 210/23G27 RMK AO2 PK WND 21028/1505
94908KDBQ DBQ20020214092011902/14/02 09:20:31  5-MIN KDBQ 141520Z 21021G28KT 10SM CLR 03/M06 A2998 1020 52 -100 210/21G28 RMK AO2 PK WND 21028/1518
94908KDBQ DBQ20020214092511902/14/02 09:25:31  5-MIN KDBQ 141525Z 21021G28KT 10SM CLR 03/M06 A2999 1020 52 -100 200/21G28 RMK AO2 PK WND 21028/1518
94908KDBQ DBQ20020214093011902/14/02 09:30:31  5-MIN KDBQ 141530Z 21023G27KT 10SM CLR 03/M06 A2999 1020 50 -100 210/23G27 RMK AO2 PK WND 21028/1518
94908KDBQ DBQ20020214093511902/14/02 09:35:31  5-MIN KDBQ 141535Z 21019G28KT 10SM CLR 03/M06 A2999 1020 50 -100 200/19G28 RMK AO2 PK WND 21028/1532
94908KDBQ DBQ20020214094011602/14/02 09:40:31  5-MIN KDBQ 141540Z 20023G28KT 10SM CLR 04/M06 A2999 1010 48 0 200/23G28 RMK AO2 PK WND 21028/1532
94908KDBQ DBQ20020214094511002/14/02 09:45:31  5-MIN KDBQ 141545Z 20021KT 10SM CLR 04/M06 A2998 1020 48 0 200/21 RMK AO2 PK WND 21028/1532
94908KDBQ DBQ20020214095012702/14/02 09:50:31  5-MIN KDBQ 141550Z 20021KT 10SM CLR 04/M06 A2999 1020 48 0 200/21 RMK AO2 PK WND 21028/1532 SLP165 T00391061
94908KDBQ DBQ20020214095512702/14/02 09:55:31  5-MIN KDBQ 141555Z 20020KT 10SM CLR 04/M06 A2998 1020 48 0 200/20 RMK AO2 PK WND 21028/1532 SLP164 T00391061
94908KDBQ DBQ20020214100011602/14/02 10:00:31  5-MIN KDBQ 141600Z 20021G30KT 10SM CLR 04/M06 A2999 1020 48 0 200/21G30 RMK AO2 PK WND 20030/1557
94908KDBQ DBQ20020214100511602/14/02 10:05:31  5-MIN KDBQ 141605Z 20021G30KT 10SM CLR 04/M06 A2999 1020 48 0 200/21G30 RMK AO2 PK WND 20030/1557
94908KDBQ DBQ20020214101011002/14/02 10:10:31  5-MIN KDBQ 141610Z 21021KT 10SM CLR 04/M06 A2999 1020 48 0 200/21 RMK AO2 PK WND 20030/1557
94908KDBQ DBQ20020214101511602/14/02 10:15:31  5-MIN KDBQ 141615Z 21020G25KT 10SM CLR 04/M06 A2999 1020 48 0 200/20G25 RMK AO2 PK WND 20030/1557
94908KDBQ DBQ20020214102011602/14/02 10:20:31  5-MIN KDBQ 141620Z 20020G25KT 10SM CLR 04/M06 A2998 1020 46 0 200/20G25 RMK AO2 PK WND 20030/1557
94908KDBQ DBQ20020214102511602/14/02 10:25:31  5-MIN KDBQ 141625Z 20019G25KT 10SM CLR 04/M06 A2998 1020 48 0 200/19G25 RMK AO2 PK WND 20030/1557
94908KDBQ DBQ20020214103011002/14/02 10:30:31  5-MIN KDBQ 141630Z 21019KT 10SM CLR 04/M06 A2998 1020 48 0 210/19 RMK AO2 PK WND 20030/1557
94908KDBQ DBQ20020214103511802/14/02 10:35:31  5-MIN KDBQ 141635Z 20020G28KT 10SM CLR 05/M06 A2998 1020 46 100 200/20G28 RMK AO2 PK WND 20030/1557
94908KDBQ DBQ20020214104011802/14/02 10:40:31  5-MIN KDBQ 141640Z 21020G28KT 10SM CLR 05/M06 A2997 1030 44 100 200/20G28 RMK AO2 PK WND 20030/1557
94908KDBQ DBQ20020214104511802/14/02 10:45:31  5-MIN KDBQ 141645Z 21024G29KT 10SM CLR 05/M06 A2998 1030 46 100 210/24G29 RMK AO2 PK WND 20030/1557
94908KDBQ DBQ20020214105013502/14/02 10:50:31  5-MIN KDBQ 141650Z 20021G29KT 10SM CLR 05/M06 A2998 1030 46 100 200/21G29 RMK AO2 PK WND 20030/1557 SLP161 T00501056
94908KDBQ DBQ20020214105513502/14/02 10:55:31  5-MIN KDBQ 141655Z 21022G27KT 10SM CLR 05/M06 A2998 1030 44 100 210/22G27 RMK AO2 PK WND 20030/1557 SLP160 T00501061
94908KDBQ DBQ20020214110010002/14/02 11:00:31  5-MIN KDBQ 141700Z 20021G27KT 10SM CLR 06/M06 A2998 1020 44 200 200/21G27 RMK AO2
94908KDBQ DBQ20020214110511202/14/02 11:05:31  5-MIN KDBQ 141705Z 21025KT 10SM CLR 06/M06 A2998 1030 44 200 210/25 RMK AO2 PK WND 21027/1704
94908KDBQ DBQ20020214111011802/14/02 11:10:31  5-MIN KDBQ 141710Z 20024G29KT 10SM CLR 06/M06 A2998 1030 44 200 200/24G29 RMK AO2 PK WND 20029/1709
94908KDBQ DBQ20020214111511802/14/02 11:15:31  5-MIN KDBQ 141715Z 20022G30KT 10SM CLR 05/M06 A2998 1030 46 100 200/22G30 RMK AO2 PK WND 20030/1714
94908KDBQ DBQ20020214112011802/14/02 11:20:31  5-MIN KDBQ 141720Z 20020G30KT 10SM CLR 05/M06 A2997 1030 44 100 200/20G30 RMK AO2 PK WND 20030/1714
94908KDBQ DBQ20020214112511802/14/02 11:25:31  5-MIN KDBQ 141725Z 20021G29KT 10SM CLR 06/M06 A2997 1040 44 200 200/21G29 RMK AO2 PK WND 20030/1714
94908KDBQ DBQ20020214113011802/14/02 11:30:31  5-MIN KDBQ 141730Z 20024G29KT 10SM CLR 06/M06 A2996 1040 44 200 200/24G29 RMK AO2 PK WND 20030/1714
94908KDBQ DBQ20020214113512502/14/02 11:35:31  5-MIN KDBQ 141735Z 20023G28KT 10SM CLR 05/M06 A2995 1050 44 100 200/23G28 RMK AO2 PK WND 20030/1714 PRESFR
94908KDBQ DBQ20020214114011802/14/02 11:40:31  5-MIN KDBQ 141740Z 20023G28KT 10SM CLR 05/M06 A2995 1050 46 100 200/23G28 RMK AO2 PK WND 20030/1714
94908KDBQ DBQ20020214114511802/14/02 11:45:31  5-MIN KDBQ 141745Z 20024G28KT 10SM CLR 06/M06 A2995 1050 43 200 200/24G28 RMK AO2 PK WND 20030/1714
94908KDBQ DBQ20020214115015302/14/02 11:50:31  5-MIN KDBQ 141750Z 20024G32KT 10SM CLR 06/M05 A2994 1060 45 300 200/24G32 RMK AO2 PK WND 20032/1747 SLP147 T00611050 10061 21011 58010
94908KDBQ DBQ20020214115515302/14/02 11:55:31  5-MIN KDBQ 141755Z 20024G32KT 10SM CLR 06/M05 A2993 1070 45 300 200/24G32 RMK AO2 PK WND 20032/1747 SLP145 T00611050 10061 21011 58020
94908KDBQ DBQ20020214120011802/14/02 12:00:31  5-MIN KDBQ 141800Z 20025G30KT 10SM CLR 06/M06 A2993 1070 43 300 200/25G30 RMK AO2 PK WND 19030/1757
94908KDBQ DBQ20020214120511802/14/02 12:05:31  5-MIN KDBQ 141805Z 20024G30KT 10SM CLR 06/M06 A2993 1070 43 300 200/24G30 RMK AO2 PK WND 19030/1757
94908KDBQ DBQ20020214121011802/14/02 12:10:31  5-MIN KDBQ 141810Z 21025G29KT 10SM CLR 06/M05 A2993 1070 45 300 200/25G29 RMK AO2 PK WND 19030/1757
94908KDBQ DBQ20020214121511802/14/02 12:15:31  5-MIN KDBQ 141815Z 20025G29KT 10SM CLR 06/M05 A2993 1070 45 300 190/25G29 RMK AO2 PK WND 19030/1757
94908KDBQ DBQ20020214122011802/14/02 12:20:31  5-MIN KDBQ 141820Z 20023G29KT 10SM CLR 06/M05 A2993 1070 45 300 200/23G29 RMK AO2 PK WND 19030/1757
94908KDBQ DBQ20020214122511802/14/02 12:25:31  5-MIN KDBQ 141825Z 20025G30KT 10SM CLR 06/M05 A2993 1070 45 300 200/25G30 RMK AO2 PK WND 20030/1825
94908KDBQ DBQ20020214123011802/14/02 12:30:31  5-MIN KDBQ 141830Z 20022G30KT 10SM CLR 07/M04 A2993 1070 45 400 200/22G30 RMK AO2 PK WND 20030/1825
94908KDBQ DBQ20020214123511802/14/02 12:35:31  5-MIN KDBQ 141835Z 20023G28KT 10SM CLR 07/M05 A2992 1080 43 400 190/23G28 RMK AO2 PK WND 20030/1825
94908KDBQ DBQ20020214124012502/14/02 12:40:31  5-MIN KDBQ 141840Z 20025G32KT 10SM CLR 07/M04 A2991 1090 43 500 200/25G32 RMK AO2 PK WND 20032/1839 PRESFR
94908KDBQ DBQ20020214124511802/14/02 12:45:31  5-MIN KDBQ 141845Z 20024G32KT 10SM CLR 07/M05 A2991 1090 41 500 200/24G32 RMK AO2 PK WND 20032/1839
94908KDBQ DBQ20020214125014202/14/02 12:50:31  5-MIN KDBQ 141850Z 20024G31KT 10SM CLR 07/M05 A2990 1100 41 500 190/24G31 RMK AO2 PK WND 20032/1839 PRESFR SLP133 T00721050
94908KDBQ DBQ20020214125513502/14/02 12:55:31  5-MIN KDBQ 141855Z 19027G33KT 10SM CLR 07/M04 A2990 1100 43 500 190/27G33 RMK AO2 PK WND 19033/1854 SLP134 T00721044
94908KDBQ DBQ20020214130011802/14/02 13:00:31  5-MIN KDBQ 141900Z 20024G33KT 10SM CLR 07/M05 A2990 1100 41 500 200/24G33 RMK AO2 PK WND 20031/1857
94908KDBQ DBQ20020214130511802/14/02 13:05:31  5-MIN KDBQ 141905Z 20028G33KT 10SM CLR 07/M04 A2989 1110 43 500 200/28G33 RMK AO2 PK WND 20033/1904
94908KDBQ DBQ20020214131011802/14/02 13:10:31  5-MIN KDBQ 141910Z 19026G33KT 10SM CLR 07/M05 A2989 1110 41 500 190/26G33 RMK AO2 PK WND 20033/1904
94908KDBQ DBQ20020214131511802/14/02 13:15:31  5-MIN KDBQ 141915Z 19027G32KT 10SM CLR 08/M04 A2989 1110 41 500 190/27G32 RMK AO2 PK WND 20033/1904
94908KDBQ DBQ20020214132011802/14/02 13:20:31  5-MIN KDBQ 141920Z 19026G36KT 10SM CLR 08/M04 A2988 1120 41 600 190/26G36 RMK AO2 PK WND 19036/1918
94908KDBQ DBQ20020214132511802/14/02 13:25:31  5-MIN KDBQ 141925Z 19028G36KT 10SM CLR 08/M04 A2988 1120 41 600 190/28G36 RMK AO2 PK WND 19036/1918
94908KDBQ DBQ20020214133011802/14/02 13:30:31  5-MIN KDBQ 141930Z 20024G33KT 10SM CLR 07/M04 A2987 1120 43 500 190/24G33 RMK AO2 PK WND 19036/1918
94908KDBQ DBQ20020214133511802/14/02 13:35:31  5-MIN KDBQ 141935Z 19025G33KT 10SM CLR 07/M04 A2987 1120 43 500 190/25G33 RMK AO2 PK WND 19036/1918
94908KDBQ DBQ20020214134011802/14/02 13:40:31  5-MIN KDBQ 141940Z 20026G31KT 10SM CLR 07/M04 A2987 1120 43 500 190/26G31 RMK AO2 PK WND 19036/1918
94908KDBQ DBQ20020214134511802/14/02 13:45:31  5-MIN KDBQ 141945Z 20025G35KT 10SM CLR 07/M05 A2986 1130 41 500 200/25G35 RMK AO2 PK WND 19036/1918
94908KDBQ DBQ20020214135013502/14/02 13:50:31  5-MIN KDBQ 141950Z 20026G35KT 10SM CLR 07/M05 A2987 1130 41 500 200/26G35 RMK AO2 PK WND 19036/1918 SLP122 T00721050
94908KDBQ DBQ20020214135513502/14/02 13:55:31  5-MIN KDBQ 141955Z 20028G32KT 10SM CLR 07/M05 A2986 1130 43 400 200/28G32 RMK AO2 PK WND 19036/1918 SLP122 T00671050
94908KDBQ DBQ20020214140011802/14/02 14:00:31  5-MIN KDBQ 142000Z 19023G32KT 10SM CLR 07/M05 A2987 1120 43 400 190/23G32 RMK AO2 PK WND 19030/1957
94908KDBQ DBQ20020214140511802/14/02 14:05:31  5-MIN KDBQ 142005Z 20023G30KT 10SM CLR 07/M04 A2987 1130 43 500 200/23G30 RMK AO2 PK WND 19030/1957
94908KDBQ DBQ20020214141011802/14/02 14:10:31  5-MIN KDBQ 142010Z 20022G30KT 10SM CLR 07/M04 A2986 1130 43 500 200/22G30 RMK AO2 PK WND 20030/2008
94908KDBQ DBQ20020214141511802/14/02 14:15:31  5-MIN KDBQ 142015Z 20023G32KT 10SM CLR 07/M04 A2986 1130 45 500 200/23G32 RMK AO2 PK WND 20032/2013
94908KDBQ DBQ20020214142011802/14/02 14:20:31  5-MIN KDBQ 142020Z 20028G32KT 10SM CLR 07/M04 A2986 1140 45 400 200/28G32 RMK AO2 PK WND 20032/2013
94908KDBQ DBQ20020214142511802/14/02 14:25:31  5-MIN KDBQ 142025Z 19025G30KT 10SM CLR 07/M04 A2985 1140 45 500 190/25G30 RMK AO2 PK WND 20032/2013
94908KDBQ DBQ20020214143011802/14/02 14:30:31  5-MIN KDBQ 142030Z 20025G30KT 10SM CLR 07/M04 A2986 1140 43 500 200/25G30 RMK AO2 PK WND 20032/2013
94908KDBQ DBQ20020214143511802/14/02 14:35:31  5-MIN KDBQ 142035Z 20025G30KT 10SM CLR 07/M04 A2985 1140 43 500 200/25G30 RMK AO2 PK WND 20032/2013
94908KDBQ DBQ20020214144011802/14/02 14:40:31  5-MIN KDBQ 142040Z 19023G31KT 10SM CLR 07/M04 A2986 1140 43 500 190/23G31 RMK AO2 PK WND 20032/2013
94908KDBQ DBQ20020214144511802/14/02 14:45:31  5-MIN KDBQ 142045Z 20025G32KT 10SM CLR 07/M04 A2985 1140 43 500 200/25G32 RMK AO2 PK WND 20032/2042
94908KDBQ DBQ20020214145014102/14/02 14:50:31  5-MIN KDBQ 142050Z 20025G32KT 10SM CLR 07/M04 A2985 1140 43 500 190/25G32 RMK AO2 PK WND 20032/2046 SLP116 T00721044 58020
94908KDBQ DBQ20020214145514102/14/02 14:55:31  5-MIN KDBQ 142055Z 20025G34KT 10SM CLR 07/M04 A2984 1150 43 500 190/25G34 RMK AO2 PK WND 19034/2052 SLP114 T00721044 56029
94908KDBQ DBQ20020214150012502/14/02 15:00:31  5-MIN KDBQ 142100Z 19026G34KT 10SM CLR 07/M04 A2983 1160 43 500 190/26G34 RMK AO2 PK WND 20029/2059 PRESFR
94908KDBQ DBQ20020214150511802/14/02 15:05:31  5-MIN KDBQ 142105Z 19025G29KT 10SM CLR 07/M04 A2983 1160 43 500 190/25G29 RMK AO2 PK WND 19029/2104
94908KDBQ DBQ20020214151011802/14/02 15:10:31  5-MIN KDBQ 142110Z 19026G30KT 10SM CLR 07/M04 A2983 1170 45 500 190/26G30 RMK AO2 PK WND 18030/2109
94908KDBQ DBQ20020214151511802/14/02 15:15:31  5-MIN KDBQ 142115Z 19022G30KT 10SM CLR 07/M04 A2983 1160 45 500 190/22G30 RMK AO2 PK WND 20030/2112
94908KDBQ DBQ20020214152011802/14/02 15:20:31  5-MIN KDBQ 142120Z 20028G35KT 10SM CLR 07/M04 A2982 1170 45 500 200/28G35 RMK AO2 PK WND 19035/2118
94908KDBQ DBQ20020214152511802/14/02 15:25:31  5-MIN KDBQ 142125Z 19022G35KT 10SM CLR 07/M04 A2983 1160 45 500 190/22G35 RMK AO2 PK WND 19035/2118
94908KDBQ DBQ20020214153011802/14/02 15:30:31  5-MIN KDBQ 142130Z 19025G32KT 10SM CLR 07/M04 A2983 1160 45 500 190/25G32 RMK AO2 PK WND 19035/2118
94908KDBQ DBQ20020214153511802/14/02 15:35:31  5-MIN KDBQ 142135Z 20026G32KT 10SM CLR 07/M04 A2983 1160 45 500 200/26G32 RMK AO2 PK WND 19035/2118
94908KDBQ DBQ20020214154011802/14/02 15:40:31  5-MIN KDBQ 142140Z 19023G30KT 10SM CLR 07/M04 A2983 1160 45 500 190/23G30 RMK AO2 PK WND 19035/2118
94908KDBQ DBQ20020214154511802/14/02 15:45:31  5-MIN KDBQ 142145Z 19027G31KT 10SM CLR 07/M04 A2983 1160 45 500 190/27G31 RMK AO2 PK WND 19035/2118
94908KDBQ DBQ20020214155013502/14/02 15:50:31  5-MIN KDBQ 142150Z 19022G31KT 10SM CLR 07/M04 A2983 1160 47 500 190/22G31 RMK AO2 PK WND 19035/2118 SLP112 T00671039
94908KDBQ DBQ20020214155512902/14/02 15:55:31  5-MIN KDBQ 142155Z 19022KT 10SM CLR 07/M04 A2983 1170 45 500 190/22 RMK AO2 PK WND 19035/2118 SLP109 T00671044
94908KDBQ DBQ20020214160011202/14/02 16:00:31  5-MIN KDBQ 142200Z 19027KT 10SM CLR 07/M04 A2982 1170 45 500 190/27 RMK AO2 PK WND 18031/2159
94908KDBQ DBQ20020214160511802/14/02 16:05:31  5-MIN KDBQ 142205Z 19024G32KT 10SM CLR 07/M04 A2982 1170 45 500 190/24G32 RMK AO2 PK WND 20032/2202
94908KDBQ DBQ20020214161011802/14/02 16:10:31  5-MIN KDBQ 142210Z 19024G32KT 10SM CLR 07/M04 A2982 1170 45 500 190/24G32 RMK AO2 PK WND 20032/2202
94908KDBQ DBQ20020214161511802/14/02 16:15:31  5-MIN KDBQ 142215Z 19022G31KT 10SM CLR 06/M04 A2982 1170 46 400 190/22G31 RMK AO2 PK WND 20032/2202
94908KDBQ DBQ20020214162011802/14/02 16:20:31  5-MIN KDBQ 142220Z 19023G31KT 10SM CLR 06/M04 A2982 1170 46 400 190/23G31 RMK AO2 PK WND 20032/2202
94908KDBQ DBQ20020214162511802/14/02 16:25:31  5-MIN KDBQ 142225Z 19021G33KT 10SM CLR 06/M04 A2983 1170 46 400 190/21G33 RMK AO2 PK WND 19033/2223
94908KDBQ DBQ20020214163011802/14/02 16:30:31  5-MIN KDBQ 142230Z 19022G33KT 10SM CLR 06/M04 A2982 1170 46 400 190/22G33 RMK AO2 PK WND 19033/2223
94908KDBQ DBQ20020214163511802/14/02 16:35:31  5-MIN KDBQ 142235Z 19023G28KT 10SM CLR 06/M04 A2983 1160 46 400 190/23G28 RMK AO2 PK WND 19033/2223
94908KDBQ DBQ20020214164011802/14/02 16:40:31  5-MIN KDBQ 142240Z 19019G28KT 10SM CLR 06/M04 A2983 1160 46 400 190/19G28 RMK AO2 PK WND 19033/2223
94908KDBQ DBQ20020214164511802/14/02 16:45:31  5-MIN KDBQ 142245Z 19022G27KT 10SM CLR 06/M04 A2983 1170 46 400 190/22G27 RMK AO2 PK WND 19033/2223
94908KDBQ DBQ20020214165013502/14/02 16:50:31  5-MIN KDBQ 142250Z 19019G27KT 10SM CLR 06/M04 A2983 1160 48 300 190/19G27 RMK AO2 PK WND 19033/2223 SLP112 T00561044
94908KDBQ DBQ20020214165512902/14/02 16:55:31  5-MIN KDBQ 142255Z 19019KT 10SM CLR 06/M04 A2983 1160 48 300 190/19 RMK AO2 PK WND 19033/2223 SLP112 T00561044
94908KDBQ DBQ20020214170009402/14/02 17:00:31  5-MIN KDBQ 142300Z 19017KT 10SM CLR 06/M04 A2984 1150 50 300 190/17 RMK AO2
94908KDBQ DBQ20020214170509402/14/02 17:05:31  5-MIN KDBQ 142305Z 19018KT 10SM CLR 06/M04 A2984 1150 50 300 190/18 RMK AO2
94908KDBQ DBQ20020214171009402/14/02 17:10:31  5-MIN KDBQ 142310Z 19018KT 10SM CLR 06/M04 A2984 1150 50 300 190/18 RMK AO2
94908KDBQ DBQ20020214171510002/14/02 17:15:31  5-MIN KDBQ 142315Z 19016G23KT 10SM CLR 05/M04 A2984 1150 52 300 190/16G23 RMK AO2
94908KDBQ DBQ20020214172009402/14/02 17:20:31  5-MIN KDBQ 142320Z 19016KT 10SM CLR 05/M04 A2984 1150 52 300 190/16 RMK AO2
94908KDBQ DBQ20020214172509402/14/02 17:25:31  5-MIN KDBQ 142325Z 19016KT 10SM CLR 05/M04 A2984 1150 52 300 190/16 RMK AO2
94908KDBQ DBQ20020214173009402/14/02 17:30:31  5-MIN KDBQ 142330Z 19015KT 10SM CLR 05/M04 A2984 1150 52 300 190/15 RMK AO2
94908KDBQ DBQ20020214173509402/14/02 17:35:31  5-MIN KDBQ 142335Z 19016KT 10SM CLR 04/M04 A2985 1150 55 200 190/16 RMK AO2
94908KDBQ DBQ20020214174009402/14/02 17:40:31  5-MIN KDBQ 142340Z 19015KT 10SM CLR 04/M04 A2985 1150 55 200 190/15 RMK AO2
94908KDBQ DBQ20020214174509402/14/02 17:45:31  5-MIN KDBQ 142345Z 19015KT 10SM CLR 04/M04 A2985 1150 55 200 190/15 RMK AO2
94908KDBQ DBQ20020214175012902/14/02 17:50:31  5-MIN KDBQ 142350Z 19015KT 10SM CLR 04/M04 A2985 1150 57 100 190/15 RMK AO2 SLP117 T00391039 10078 20039 56029
94908KDBQ DBQ20020214175512902/14/02 17:55:31  5-MIN KDBQ 142355Z 19014KT 10SM CLR 04/M04 A2985 1150 57 100 190/14 RMK AO2 SLP117 T00391039 10078 20039 53001
94908KDBQ DBQ20020214180009402/14/02 18:00:31  5-MIN KDBQ 150000Z 19014KT 10SM CLR 04/M04 A2985 1150 57 100 190/14 RMK AO2
94908KDBQ DBQ20020214180509402/14/02 18:05:31  5-MIN KDBQ 150005Z 19014KT 10SM CLR 04/M04 A2984 1150 57 100 190/14 RMK AO2
94908KDBQ DBQ20020214181009402/14/02 18:10:31  5-MIN KDBQ 150010Z 19015KT 10SM CLR 04/M04 A2984 1150 57 100 190/15 RMK AO2
94908KDBQ DBQ20020214181509402/14/02 18:15:31  5-MIN KDBQ 150015Z 19015KT 10SM CLR 04/M04 A2984 1150 57 100 190/15 RMK AO2
94908KDBQ DBQ20020214182009402/14/02 18:20:31  5-MIN KDBQ 150020Z 19014KT 10SM CLR 04/M04 A2984 1150 57 100 190/14 RMK AO2
94908KDBQ DBQ20020214182509402/14/02 18:25:31  5-MIN KDBQ 150025Z 19014KT 10SM CLR 04/M04 A2984 1150 57 100 190/14 RMK AO2
94908KDBQ DBQ20020214183009402/14/02 18:30:31  5-MIN KDBQ 150030Z 19015KT 10SM CLR 04/M04 A2984 1150 57 100 190/15 RMK AO2
94908KDBQ DBQ20020214183509402/14/02 18:35:31  5-MIN KDBQ 150035Z 19015KT 10SM CLR 04/M04 A2984 1150 55 200 190/15 RMK AO2
94908KDBQ DBQ20020214184009402/14/02 18:40:31  5-MIN KDBQ 150040Z 19015KT 10SM CLR 04/M04 A2984 1150 57 100 190/15 RMK AO2
94908KDBQ DBQ20020214184509402/14/02 18:45:31  5-MIN KDBQ 150045Z 19015KT 10SM CLR 04/M04 A2984 1150 57 100 180/15 RMK AO2
94908KDBQ DBQ20020214185011102/14/02 18:50:31  5-MIN KDBQ 150050Z 19015KT 10SM CLR 04/M04 A2984 1160 57 100 190/15 RMK AO2 SLP114 T00391039
94908KDBQ DBQ20020214185511102/14/02 18:55:31  5-MIN KDBQ 150055Z 19015KT 10SM CLR 04/M04 A2984 1160 57 100 190/15 RMK AO2 SLP114 T00391039
94908KDBQ DBQ20020214190009402/14/02 19:00:31  5-MIN KDBQ 150100Z 19016KT 10SM CLR 04/M04 A2984 1160 55 200 190/16 RMK AO2
94908KDBQ DBQ20020214190509402/14/02 19:05:31  5-MIN KDBQ 150105Z 19015KT 10SM CLR 04/M04 A2983 1160 52 200 190/15 RMK AO2
94908KDBQ DBQ20020214191009402/14/02 19:10:31  5-MIN KDBQ 150110Z 19015KT 10SM CLR 04/M04 A2983 1160 55 200 190/15 RMK AO2
94908KDBQ DBQ20020214191509402/14/02 19:15:31  5-MIN KDBQ 150115Z 19015KT 10SM CLR 04/M04 A2983 1160 55 200 190/15 RMK AO2
94908KDBQ DBQ20020214192009402/14/02 19:20:31  5-MIN KDBQ 150120Z 19014KT 10SM CLR 04/M04 A2983 1160 57 100 190/14 RMK AO2
94908KDBQ DBQ20020214192509402/14/02 19:25:31  5-MIN KDBQ 150125Z 19015KT 10SM CLR 04/M04 A2983 1160 57 100 190/15 RMK AO2
94908KDBQ DBQ20020214193009402/14/02 19:30:31  5-MIN KDBQ 150130Z 19015KT 10SM CLR 04/M04 A2982 1170 57 100 190/15 RMK AO2
94908KDBQ DBQ20020214193509402/14/02 19:35:31  5-MIN KDBQ 150135Z 19016KT 10SM CLR 04/M04 A2982 1170 57 100 190/16 RMK AO2
94908KDBQ DBQ20020214194009402/14/02 19:40:31  5-MIN KDBQ 150140Z 19016KT 10SM CLR 04/M04 A2982 1170 57 100 190/16 RMK AO2
94908KDBQ DBQ20020214194509402/14/02 19:45:31  5-MIN KDBQ 150145Z 19016KT 10SM CLR 04/M04 A2982 1170 57 200 190/16 RMK AO2
94908KDBQ DBQ20020214195012102/14/02 19:50:31  5-MIN KDBQ 150150Z AUTO 20014KT 10SM CLR 04/M04 A2982 1180 57 200 190/14 RMK AO2 SLP106 T00391039 TSNO
94908KDBQ DBQ20020214195512102/14/02 19:55:31  5-MIN KDBQ 150155Z AUTO 20015KT 10SM CLR 04/M04 A2981 1180 57 200 200/15 RMK AO2 SLP105 T00391039 TSNO
94908KDBQ DBQ20020214200010402/14/02 20:00:31  5-MIN KDBQ 150200Z AUTO 19014KT 10SM CLR 04/M04 A2981 1180 57 200 190/14 RMK AO2 TSNO
94908KDBQ DBQ20020214200510402/14/02 20:05:31  5-MIN KDBQ 150205Z AUTO 20014KT 10SM CLR 04/M04 A2981 1180 57 200 190/14 RMK AO2 TSNO
94908KDBQ DBQ20020214201010402/14/02 20:10:31  5-MIN KDBQ 150210Z AUTO 20015KT 10SM CLR 04/M04 A2981 1180 57 200 190/15 RMK AO2 TSNO
94908KDBQ DBQ20020214201510402/14/02 20:15:31  5-MIN KDBQ 150215Z AUTO 20015KT 10SM CLR 04/M04 A2981 1180 57 200 190/15 RMK AO2 TSNO
94908KDBQ DBQ20020214202010402/14/02 20:20:31  5-MIN KDBQ 150220Z AUTO 20015KT 10SM CLR 04/M04 A2981 1180 55 200 200/15 RMK AO2 TSNO
94908KDBQ DBQ20020214202510702/14/02 20:25:31  5-MIN KDBQ 150225Z AUTO 20016KT 10SM FEW110 04/M04 A2980 1190 55 200 200/16 RMK AO2 TSNO
94908KDBQ DBQ20020214203011302/14/02 20:30:31  5-MIN KDBQ 150230Z AUTO 20018G23KT 10SM FEW110 04/M04 A2980 1190 52 200 200/18G23 RMK AO2 TSNO
94908KDBQ DBQ20020214203510702/14/02 20:35:31  5-MIN KDBQ 150235Z AUTO 20017KT 10SM FEW120 05/M04 A2980 1190 50 300 200/17 RMK AO2 TSNO
94908KDBQ DBQ20020214204010702/14/02 20:40:31  5-MIN KDBQ 150240Z AUTO 20019KT 10SM FEW120 05/M04 A2980 1190 50 300 200/19 RMK AO2 TSNO
94908KDBQ DBQ20020214204510702/14/02 20:45:31  5-MIN KDBQ 150245Z AUTO 20017KT 10SM FEW120 05/M04 A2980 1190 50 300 200/17 RMK AO2 TSNO
94908KDBQ DBQ20020214205013002/14/02 20:50:31  5-MIN KDBQ 150250Z AUTO 20017KT 10SM FEW110 05/M04 A2980 1190 50 300 200/17 RMK AO2 SLP099 T00501044 53001 TSNO
94908KDBQ DBQ20020214205513002/14/02 20:55:31  5-MIN KDBQ 150255Z AUTO 20017KT 10SM FEW110 05/M04 A2980 1190 50 300 200/17 RMK AO2 SLP099 T00501044 58016 TSNO
94908KDBQ DBQ20020214210010702/14/02 21:00:31  5-MIN KDBQ 150300Z AUTO 20015KT 10SM FEW110 05/M04 A2980 1190 50 300 200/15 RMK AO2 TSNO
94908KDBQ DBQ20020214210510402/14/02 21:05:31  5-MIN KDBQ 150305Z AUTO 20016KT 10SM CLR 05/M04 A2980 1190 50 300 200/16 RMK AO2 TSNO
94908KDBQ DBQ20020214211010402/14/02 21:10:31  5-MIN KDBQ 150310Z AUTO 20015KT 10SM CLR 04/M04 A2979 1200 52 200 200/15 RMK AO2 TSNO
94908KDBQ DBQ20020214211510402/14/02 21:15:31  5-MIN KDBQ 150315Z AUTO 20016KT 10SM CLR 04/M04 A2979 1200 55 200 200/16 RMK AO2 TSNO
94908KDBQ DBQ20020214212010402/14/02 21:20:31  5-MIN KDBQ 150320Z AUTO 20016KT 10SM CLR 05/M04 A2979 1200 50 300 200/16 RMK AO2 TSNO
94908KDBQ DBQ20020214212510402/14/02 21:25:31  5-MIN KDBQ 150325Z AUTO 20018KT 10SM CLR 05/M04 A2979 1200 50 300 200/18 RMK AO2 TSNO
94908KDBQ DBQ20020214213010402/14/02 21:30:31  5-MIN KDBQ 150330Z AUTO 20017KT 10SM CLR 05/M04 A2979 1200 50 300 200/17 RMK AO2 TSNO
94908KDBQ DBQ20020214213510402/14/02 21:35:31  5-MIN KDBQ 150335Z AUTO 20017KT 10SM CLR 05/M04 A2978 1210 50 300 200/17 RMK AO2 TSNO
94908KDBQ DBQ20020214214010402/14/02 21:40:31  5-MIN KDBQ 150340Z AUTO 20017KT 10SM CLR 05/M04 A2978 1210 50 300 200/17 RMK AO2 TSNO
94908KDBQ DBQ20020214214511002/14/02 21:45:31  5-MIN KDBQ 150345Z AUTO 20018G22KT 10SM CLR 05/M04 A2978 1210 50 300 200/18G22 RMK AO2 TSNO
94908KDBQ DBQ20020214215012702/14/02 21:50:31  5-MIN KDBQ 150350Z AUTO 20017G22KT 10SM CLR 05/M04 A2978 1210 50 300 200/17G22 RMK AO2 SLP091 T00501044 TSNO
94908KDBQ DBQ20020214215512102/14/02 21:55:31  5-MIN KDBQ 150355Z AUTO 20018KT 10SM CLR 05/M04 A2978 1210 50 300 200/18 RMK AO2 SLP091 T00501044 TSNO
94908KDBQ DBQ20020214220010702/14/02 22:00:31  5-MIN KDBQ 150400Z AUTO 20017KT 10SM FEW120 05/M04 A2977 1210 50 300 200/17 RMK AO2 TSNO
94908KDBQ DBQ20020214220511302/14/02 22:05:31  5-MIN KDBQ 150405Z AUTO 20015G23KT 10SM FEW120 05/M04 A2977 1210 50 300 200/15G23 RMK AO2 TSNO
94908KDBQ DBQ20020214221011302/14/02 22:10:31  5-MIN KDBQ 150410Z AUTO 20016G23KT 10SM FEW120 05/M04 A2977 1210 50 300 200/16G23 RMK AO2 TSNO
94908KDBQ DBQ20020214221510702/14/02 22:15:31  5-MIN KDBQ 150415Z AUTO 21016KT 10SM SCT120 05/M04 A2977 1210 50 300 210/16 RMK AO2 TSNO
94908KDBQ DBQ20020214222010702/14/02 22:20:31  5-MIN KDBQ 150420Z AUTO 21016KT 10SM BKN120 05/M04 A2977 1220 50 300 210/16 RMK AO2 TSNO
94908KDBQ DBQ20020214222510702/14/02 22:25:31  5-MIN KDBQ 150425Z AUTO 20015KT 10SM BKN120 05/M04 A2977 1220 50 300 200/15 RMK AO2 TSNO
94908KDBQ DBQ20020214223010702/14/02 22:30:31  5-MIN KDBQ 150430Z AUTO 20016KT 10SM BKN120 05/M04 A2977 1220 50 300 200/16 RMK AO2 TSNO
94908KDBQ DBQ20020214223510702/14/02 22:35:31  5-MIN KDBQ 150435Z AUTO 21015KT 10SM BKN120 05/M04 A2977 1220 50 300 210/15 RMK AO2 TSNO
94908KDBQ DBQ20020214224010702/14/02 22:40:31  5-MIN KDBQ 150440Z AUTO 21015KT 10SM BKN120 05/M04 A2977 1220 50 300 210/15 RMK AO2 TSNO
94908KDBQ DBQ20020214224510702/14/02 22:45:31  5-MIN KDBQ 150445Z AUTO 21015KT 10SM OVC120 05/M04 A2977 1220 50 300 210/15 RMK AO2 TSNO
94908KDBQ DBQ20020214225012402/14/02 22:50:31  5-MIN KDBQ 150450Z AUTO 21014KT 10SM OVC120 05/M04 A2977 1220 50 300 210/14 RMK AO2 SLP087 T00501044 TSNO
94908KDBQ DBQ20020214225512402/14/02 22:55:31  5-MIN KDBQ 150455Z AUTO 22014KT 10SM OVC120 05/M04 A2977 1220 50 300 220/14 RMK AO2 SLP087 T00501044 TSNO
94908KDBQ DBQ20020214230010702/14/02 23:00:31  5-MIN KDBQ 150500Z AUTO 22014KT 10SM OVC120 04/M04 A2977 1220 55 300 220/14 RMK AO2 TSNO
94908KDBQ DBQ20020214230510702/14/02 23:05:31  5-MIN KDBQ 150505Z AUTO 22015KT 10SM OVC120 04/M04 A2977 1220 55 300 220/15 RMK AO2 TSNO
94908KDBQ DBQ20020214231010702/14/02 23:10:31  5-MIN KDBQ 150510Z AUTO 22015KT 10SM OVC120 04/M04 A2977 1220 55 300 220/15 RMK AO2 TSNO
94908KDBQ DBQ20020214231510702/14/02 23:15:31  5-MIN KDBQ 150515Z AUTO 22014KT 10SM OVC120 04/M04 A2977 1220 55 300 220/14 RMK AO2 TSNO
94908KDBQ DBQ20020214232010702/14/02 23:20:31  5-MIN KDBQ 150520Z AUTO 22013KT 10SM BKN120 04/M04 A2977 1220 57 200 220/13 RMK AO2 TSNO
94908KDBQ DBQ20020214232510702/14/02 23:25:31  5-MIN KDBQ 150525Z AUTO 22014KT 10SM BKN120 04/M04 A2977 1220 52 300 220/14 RMK AO2 TSNO
94908KDBQ DBQ20020214233010702/14/02 23:30:31  5-MIN KDBQ 150530Z AUTO 22013KT 10SM BKN120 04/M04 A2977 1220 57 200 220/13 RMK AO2 TSNO
94908KDBQ DBQ20020214233510702/14/02 23:35:31  5-MIN KDBQ 150535Z AUTO 21013KT 10SM BKN120 04/M04 A2977 1220 57 200 210/13 RMK AO2 TSNO
94908KDBQ DBQ20020214234010702/14/02 23:40:31  5-MIN KDBQ 150540Z AUTO 21012KT 10SM BKN120 04/M04 A2977 1220 57 200 210/12 RMK AO2 TSNO
94908KDBQ DBQ20020214234510702/14/02 23:45:31  5-MIN KDBQ 150545Z AUTO 21013KT 10SM BKN120 04/M04 A2977 1220 57 200 210/13 RMK AO2 TSNO
94908KDBQ DBQ20020214235015202/14/02 23:50:31  5-MIN KDBQ 150550Z AUTO 21013KT 10SM BKN120 04/M04 A2977 1220 57 200 210/13 RMK AO2 SLP088 T00391039 10050 20039 400781017 58016 TSNO
94908KDBQ DBQ20020214235515202/14/02 23:55:31  5-MIN KDBQ 150555Z AUTO 22011KT 10SM BKN120 04/M04 A2977 1220 57 200 220/11 RMK AO2 SLP089 T00391039 10050 20039 400781017 55008 TSNO
94908KDBQ DBQ20020215000010702/15/02 00:00:31  5-MIN KDBQ 150600Z AUTO 22011KT 10SM OVC120 03/M04 A2977 1220 59 100 220/11 RMK AO2 TSNO
94908KDBQ DBQ20020215000510702/15/02 00:05:31  5-MIN KDBQ 150605Z AUTO 22011KT 10SM OVC120 03/M04 A2977 1220 59 100 210/11 RMK AO2 TSNO
94908KDBQ DBQ20020215001010702/15/02 00:10:31  5-MIN KDBQ 150610Z AUTO 22012KT 10SM OVC120 03/M04 A2977 1220 59 100 220/12 RMK AO2 TSNO
94908KDBQ DBQ20020215001510702/15/02 00:15:31  5-MIN KDBQ 150615Z AUTO 23010KT 10SM OVC120 03/M04 A2977 1220 59 100 230/10 RMK AO2 TSNO
94908KDBQ DBQ20020215002010702/15/02 00:20:31  5-MIN KDBQ 150620Z AUTO 24009KT 10SM OVC120 03/M04 A2977 1220 59 100 240/09 RMK AO2 TSNO
94908KDBQ DBQ20020215002510702/15/02 00:25:31  5-MIN KDBQ 150625Z AUTO 23009KT 10SM OVC120 03/M03 A2977 1220 61 100 230/09 RMK AO2 TSNO
94908KDBQ DBQ20020215003010702/15/02 00:30:31  5-MIN KDBQ 150630Z AUTO 23011KT 10SM OVC120 03/M04 A2977 1220 59 100 230/11 RMK AO2 TSNO
94908KDBQ DBQ20020215003510702/15/02 00:35:31  5-MIN KDBQ 150635Z AUTO 23012KT 10SM OVC120 03/M03 A2976 1220 61 100 230/12 RMK AO2 TSNO
94908KDBQ DBQ20020215004010702/15/02 00:40:31  5-MIN KDBQ 150640Z AUTO 23012KT 10SM OVC120 03/M03 A2976 1230 61 100 230/12 RMK AO2 TSNO
94908KDBQ DBQ20020215004510702/15/02 00:45:31  5-MIN KDBQ 150645Z AUTO 23012KT 10SM OVC120 03/M03 A2976 1230 61 200 230/12 RMK AO2 TSNO
94908KDBQ DBQ20020215005012402/15/02 00:50:31  5-MIN KDBQ 150650Z AUTO 24014KT 10SM BKN120 03/M03 A2976 1230 61 200 240/14 RMK AO2 SLP084 T00331033 TSNO
94908KDBQ DBQ20020215005512402/15/02 00:55:31  5-MIN KDBQ 150655Z AUTO 24014KT 10SM BKN120 03/M03 A2976 1230 61 200 240/14 RMK AO2 SLP083 T00331033 TSNO
94908KDBQ DBQ20020215010010702/15/02 01:00:31  5-MIN KDBQ 150700Z AUTO 24014KT 10SM BKN120 03/M03 A2976 1230 61 200 240/14 RMK AO2 TSNO
94908KDBQ DBQ20020215010510702/15/02 01:05:31  5-MIN KDBQ 150705Z AUTO 25012KT 10SM SCT120 03/M03 A2977 1220 61 100 240/12 RMK AO2 TSNO
94908KDBQ DBQ20020215011010702/15/02 01:10:31  5-MIN KDBQ 150710Z AUTO 24012KT 10SM FEW120 03/M03 A2976 1220 64 100 240/12 RMK AO2 TSNO
94908KDBQ DBQ20020215011510702/15/02 01:15:31  5-MIN KDBQ 150715Z AUTO 24011KT 10SM FEW120 03/M03 A2976 1220 67 100 240/11 RMK AO2 TSNO
94908KDBQ DBQ20020215012010402/15/02 01:20:31  5-MIN KDBQ 150720Z AUTO 25012KT 10SM CLR 03/M03 A2977 1220 67 100 240/12 RMK AO2 TSNO
94908KDBQ DBQ20020215012510402/15/02 01:25:31  5-MIN KDBQ 150725Z AUTO 24011KT 10SM CLR 03/M03 A2977 1220 67 100 240/11 RMK AO2 TSNO
94908KDBQ DBQ20020215013010402/15/02 01:30:31  5-MIN KDBQ 150730Z AUTO 24012KT 10SM CLR 03/M03 A2976 1220 67 100 240/12 RMK AO2 TSNO
94908KDBQ DBQ20020215013510202/15/02 01:35:31  5-MIN KDBQ 150735Z AUTO 24013KT 10SM CLR 02/M03 A2977 1220 69 0 240/13 RMK AO2 TSNO
94908KDBQ DBQ20020215014010202/15/02 01:40:31  5-MIN KDBQ 150740Z AUTO 24012KT 10SM CLR 02/M03 A2977 1220 69 0 240/12 RMK AO2 TSNO
94908KDBQ DBQ20020215014510202/15/02 01:45:31  5-MIN KDBQ 150745Z AUTO 24012KT 10SM CLR 02/M03 A2976 1220 69 0 240/12 RMK AO2 TSNO
94908KDBQ DBQ20020215015011902/15/02 01:50:31  5-MIN KDBQ 150750Z AUTO 24012KT 10SM CLR 02/M03 A2976 1220 72 0 240/12 RMK AO2 SLP087 T00171028 TSNO
94908KDBQ DBQ20020215015511902/15/02 01:55:31  5-MIN KDBQ 150755Z AUTO 24012KT 10SM CLR 02/M03 A2977 1220 72 0 240/12 RMK AO2 SLP088 T00171028 TSNO
94908KDBQ DBQ20020215020010202/15/02 02:00:31  5-MIN KDBQ 150800Z AUTO 24012KT 10SM CLR 02/M03 A2977 1220 72 0 240/12 RMK AO2 TSNO
94908KDBQ DBQ20020215020510202/15/02 02:05:31  5-MIN KDBQ 150805Z AUTO 25012KT 10SM CLR 02/M03 A2977 1220 72 0 250/12 RMK AO2 TSNO
94908KDBQ DBQ20020215021010502/15/02 02:10:31  5-MIN KDBQ 150810Z AUTO 25012KT 10SM CLR 01/M03 A2977 1220 75 -100 250/12 RMK AO2 TSNO
94908KDBQ DBQ20020215021510202/15/02 02:15:31  5-MIN KDBQ 150815Z AUTO 25012KT 10SM CLR 02/M02 A2977 1220 75 0 250/12 RMK AO2 TSNO
94908KDBQ DBQ20020215022010502/15/02 02:20:31  5-MIN KDBQ 150820Z AUTO 25012KT 10SM CLR 01/M03 A2977 1220 75 -100 250/12 RMK AO2 TSNO
94908KDBQ DBQ20020215022510502/15/02 02:25:31  5-MIN KDBQ 150825Z AUTO 25013KT 10SM CLR 01/M02 A2977 1220 78 -100 250/13 RMK AO2 TSNO
94908KDBQ DBQ20020215023010502/15/02 02:30:31  5-MIN KDBQ 150830Z AUTO 25014KT 10SM CLR 01/M02 A2977 1220 78 -100 250/14 RMK AO2 TSNO
94908KDBQ DBQ20020215023510502/15/02 02:35:31  5-MIN KDBQ 150835Z AUTO 25012KT 10SM CLR 01/M02 A2977 1220 78 -100 250/12 RMK AO2 TSNO
94908KDBQ DBQ20020215024010502/15/02 02:40:31  5-MIN KDBQ 150840Z AUTO 25012KT 10SM CLR 01/M02 A2977 1220 78 -100 250/12 RMK AO2 TSNO
94908KDBQ DBQ20020215024510502/15/02 02:45:31  5-MIN KDBQ 150845Z AUTO 25011KT 10SM CLR 01/M02 A2977 1220 78 -100 250/11 RMK AO2 TSNO
94908KDBQ DBQ20020215025012802/15/02 02:50:31  5-MIN KDBQ 150850Z AUTO 25012KT 10SM CLR 01/M02 A2977 1220 78 -100 250/12 RMK AO2 SLP090 T00111022 55008 TSNO
94908KDBQ DBQ20020215025512802/15/02 02:55:31  5-MIN KDBQ 150855Z AUTO 25013KT 10SM CLR 01/M02 A2977 1210 78 -100 250/13 RMK AO2 SLP090 T00111022 53001 TSNO
94908KDBQ DBQ20020215030010502/15/02 03:00:31  5-MIN KDBQ 150900Z AUTO 25012KT 10SM CLR 01/M02 A2977 1220 78 -100 250/12 RMK AO2 TSNO
94908KDBQ DBQ20020215030510502/15/02 03:05:31  5-MIN KDBQ 150905Z AUTO 25011KT 10SM CLR 01/M02 A2977 1220 82 -200 250/11 RMK AO2 TSNO
94908KDBQ DBQ20020215031010502/15/02 03:10:31  5-MIN KDBQ 150910Z AUTO 25012KT 10SM CLR 01/M02 A2977 1220 82 -200 250/12 RMK AO2 TSNO
94908KDBQ DBQ20020215031510502/15/02 03:15:31  5-MIN KDBQ 150915Z AUTO 25011KT 10SM CLR 01/M02 A2977 1220 82 -200 250/11 RMK AO2 TSNO
94908KDBQ DBQ20020215032010502/15/02 03:20:31  5-MIN KDBQ 150920Z AUTO 25011KT 10SM CLR 01/M02 A2977 1220 82 -200 240/11 RMK AO2 TSNO
94908KDBQ DBQ20020215032510502/15/02 03:25:31  5-MIN KDBQ 150925Z AUTO 25012KT 10SM CLR 01/M02 A2977 1220 82 -200 240/12 RMK AO2 TSNO
94908KDBQ DBQ20020215033010502/15/02 03:30:31  5-MIN KDBQ 150930Z AUTO 25012KT 10SM CLR 01/M02 A2977 1220 82 -200 250/12 RMK AO2 TSNO
94908KDBQ DBQ20020215033510502/15/02 03:35:31  5-MIN KDBQ 150935Z AUTO 25012KT 10SM CLR 01/M02 A2978 1210 82 -200 250/12 RMK AO2 TSNO
94908KDBQ DBQ20020215034010502/15/02 03:40:31  5-MIN KDBQ 150940Z AUTO 25014KT 10SM CLR 01/M02 A2978 1210 82 -200 250/14 RMK AO2 TSNO
94908KDBQ DBQ20020215034510502/15/02 03:45:31  5-MIN KDBQ 150945Z AUTO 25014KT 10SM CLR 01/M02 A2977 1210 82 -200 250/14 RMK AO2 TSNO
94908KDBQ DBQ20020215035012202/15/02 03:50:31  5-MIN KDBQ 150950Z AUTO 25014KT 10SM CLR 01/M02 A2977 1210 82 -200 250/14 RMK AO2 SLP091 T00061022 TSNO
94908KDBQ DBQ20020215035512202/15/02 03:55:31  5-MIN KDBQ 150955Z AUTO 25013KT 10SM CLR 01/M02 A2978 1210 82 -200 250/13 RMK AO2 SLP092 T00061022 TSNO
94908KDBQ DBQ20020215040010502/15/02 04:00:31  5-MIN KDBQ 151000Z AUTO 25015KT 10SM CLR 01/M02 A2978 1210 82 -200 250/15 RMK AO2 TSNO
94908KDBQ DBQ20020215040510502/15/02 04:05:31  5-MIN KDBQ 151005Z AUTO 26014KT 10SM CLR 01/M02 A2978 1210 82 -200 260/14 RMK AO2 TSNO
94908KDBQ DBQ20020215041010502/15/02 04:10:31  5-MIN KDBQ 151010Z AUTO 26014KT 10SM CLR 01/M02 A2978 1210 82 -200 260/14 RMK AO2 TSNO
94908KDBQ DBQ20020215041511102/15/02 04:15:31  5-MIN KDBQ 151015Z AUTO 26018G22KT 10SM CLR 01/M02 A2978 1200 82 -200 260/18G22 RMK AO2 TSNO
94908KDBQ DBQ20020215042011102/15/02 04:20:31  5-MIN KDBQ 151020Z AUTO 26017G22KT 10SM CLR 01/M02 A2979 1200 82 -200 260/17G22 RMK AO2 TSNO
94908KDBQ DBQ20020215042510502/15/02 04:25:31  5-MIN KDBQ 151025Z AUTO 27015KT 10SM CLR 01/M02 A2979 1200 82 -200 270/15 RMK AO2 TSNO
94908KDBQ DBQ20020215043010502/15/02 04:30:31  5-MIN KDBQ 151030Z AUTO 27014KT 10SM CLR 01/M02 A2979 1200 82 -200 270/14 RMK AO2 TSNO
94908KDBQ DBQ20020215043511102/15/02 04:35:31  5-MIN KDBQ 151035Z AUTO 27015G20KT 10SM CLR 01/M02 A2979 1200 82 -200 270/15G20 RMK AO2 TSNO
94908KDBQ DBQ20020215044011102/15/02 04:40:31  5-MIN KDBQ 151040Z AUTO 27015G22KT 10SM CLR 01/M02 A2980 1190 82 -200 270/15G22 RMK AO2 TSNO
94908KDBQ DBQ20020215044511102/15/02 04:45:31  5-MIN KDBQ 151045Z AUTO 27015G22KT 10SM CLR 01/M02 A2980 1190 82 -200 270/15G22 RMK AO2 TSNO
94908KDBQ DBQ20020215045012802/15/02 04:50:31  5-MIN KDBQ 151050Z AUTO 28017G22KT 10SM CLR 01/M02 A2980 1190 82 -200 280/17G22 RMK AO2 SLP099 T00061022 TSNO
94908KDBQ DBQ20020215045512802/15/02 04:55:31  5-MIN KDBQ 151055Z AUTO 27014G22KT 10SM CLR 00/M02 A2980 1190 85 -300 270/14G22 RMK AO2 SLP100 T00001022 TSNO
94908KDBQ DBQ20020215050011102/15/02 05:00:31  5-MIN KDBQ 151100Z AUTO 27017G21KT 10SM CLR 00/M02 A2980 1190 85 -300 270/17G21 RMK AO2 TSNO
94908KDBQ DBQ20020215050510502/15/02 05:05:31  5-MIN KDBQ 151105Z AUTO 27016KT 10SM CLR 00/M02 A2980 1190 85 -300 270/16 RMK AO2 TSNO
94908KDBQ DBQ20020215051011102/15/02 05:10:31  5-MIN KDBQ 151110Z AUTO 29015G21KT 10SM CLR 00/M02 A2981 1190 85 -300 280/15G21 RMK AO2 TSNO
94908KDBQ DBQ20020215051510502/15/02 05:15:31  5-MIN KDBQ 151115Z AUTO 28015KT 10SM CLR 00/M02 A2981 1180 85 -300 280/15 RMK AO2 TSNO
94908KDBQ DBQ20020215052010502/15/02 05:20:31  5-MIN KDBQ 151120Z AUTO 28015KT 10SM CLR 00/M02 A2980 1190 85 -300 280/15 RMK AO2 TSNO
94908KDBQ DBQ20020215052510502/15/02 05:25:31  5-MIN KDBQ 151125Z AUTO 28014KT 10SM CLR 00/M02 A2980 1190 85 -300 280/14 RMK AO2 TSNO
94908KDBQ DBQ20020215053010502/15/02 05:30:31  5-MIN KDBQ 151130Z AUTO 28014KT 10SM CLR 00/M02 A2980 1190 85 -300 280/14 RMK AO2 TSNO
94908KDBQ DBQ20020215053510502/15/02 05:35:31  5-MIN KDBQ 151135Z AUTO 28014KT 10SM CLR 00/M02 A2980 1190 85 -300 280/14 RMK AO2 TSNO
94908KDBQ DBQ20020215054010502/15/02 05:40:31  5-MIN KDBQ 151140Z AUTO 28013KT 10SM CLR 00/M02 A2981 1180 85 -300 280/13 RMK AO2 TSNO
94908KDBQ DBQ20020215054511102/15/02 05:45:31  5-MIN KDBQ 151145Z AUTO 29015G20KT 10SM CLR 00/M02 A2981 1180 85 -300 290/15G20 RMK AO2 TSNO
94908KDBQ DBQ20020215055013602/15/02 05:50:31  5-MIN KDBQ 151150Z 29015G20KT 10SM CLR 00/M02 A2981 1180 85 -300 290/15G20 RMK AO2 SLP104 T00001022 10033 20000 53001
94908KDBQ DBQ20020215055513002/15/02 05:55:31  5-MIN KDBQ 151155Z 29015KT 10SM CLR 00/M02 A2981 1180 85 -300 280/15 RMK AO2 SLP104 T00001022 10033 20000 53012
94908KDBQ DBQ20020215060009402/15/02 06:00:31  5-MIN KDBQ 151200Z 29016KT 9SM CLR 01/M02 A2981 1180 82 -200 280/16 RMK AO2
94908KDBQ DBQ20020215060510002/15/02 06:05:31  5-MIN KDBQ 151205Z 29015G22KT 9SM CLR 01/M02 A2981 1180 82 -200 290/15G22 RMK AO2
94908KDBQ DBQ20020215061010002/15/02 06:10:31  5-MIN KDBQ 151210Z 29018G22KT 9SM CLR 01/M02 A2981 1180 82 -200 290/18G22 RMK AO2
94908KDBQ DBQ20020215061509402/15/02 06:15:31  5-MIN KDBQ 151215Z 29017KT 9SM CLR 01/M02 A2982 1170 82 -200 290/17 RMK AO2
94908KDBQ DBQ20020215062009402/15/02 06:20:31  5-MIN KDBQ 151220Z 29015KT 9SM CLR 00/M02 A2982 1170 85 -300 290/15 RMK AO2
94908KDBQ DBQ20020215062509402/15/02 06:25:31  5-MIN KDBQ 151225Z 29015KT 9SM CLR 00/M02 A2982 1170 85 -300 290/15 RMK AO2
94908KDBQ DBQ20020215063009402/15/02 06:30:31  5-MIN KDBQ 151230Z 29014KT 9SM CLR 00/M02 A2982 1170 85 -300 290/14 RMK AO2
94908KDBQ DBQ20020215063509702/15/02 06:35:31  5-MIN KDBQ 151235Z 29011KT 9SM SCT043 00/M02 A2983 1170 85 -300 290/11 RMK AO2
94908KDBQ DBQ20020215064009702/15/02 06:40:31  5-MIN KDBQ 151240Z 29011KT 9SM SCT043 00/M02 A2983 1160 85 -300 280/11 RMK AO2
94908KDBQ DBQ20020215064509702/15/02 06:45:31  5-MIN KDBQ 151245Z 29009KT 9SM BKN043 00/M02 A2983 1160 85 -300 290/09 RMK AO2
94908KDBQ DBQ20020215065011402/15/02 06:50:31  5-MIN KDBQ 151250Z 29010KT 9SM BKN043 01/M02 A2984 1160 82 -200 290/10 RMK AO2 SLP113 T00061022
94908KDBQ DBQ20020215065512102/15/02 06:55:31  5-MIN KDBQ 151255Z 29015KT 9SM SCT030 BKN041 01/M02 A2984 1150 85 -200 290/15 RMK AO2 SLP114 T00061017
94908KDBQ DBQ20020215070011002/15/02 07:00:31  5-MIN KDBQ 151300Z 29016G22KT 9SM BKN028 OVC041 01/M02 A2984 1150 82 -200 290/16G22 RMK AO2
94908KDBQ DBQ20020215070511002/15/02 07:05:31  5-MIN KDBQ 151305Z 29017G25KT 9SM BKN028 OVC041 01/M02 A2985 1150 82 -200 290/17G25 RMK AO2
94908KDBQ DBQ20020215071011702/15/02 07:10:31  5-MIN KDBQ 151310Z 28015G25KT 8SM FEW016 BKN028 OVC041 01/M02 A2985 1150 78 -200 280/15G25 RMK AO2
94908KDBQ DBQ20020215071511702/15/02 07:15:31  5-MIN KDBQ 151315Z 29017G23KT 8SM SCT018 BKN028 OVC041 01/M02 A2985 1140 78 -200 290/17G23 RMK AO2
94908KDBQ DBQ20020215072011702/15/02 07:20:31  5-MIN KDBQ 151320Z 29014G23KT 8SM SCT016 BKN028 OVC065 01/M02 A2985 1140 78 -200 290/14G23 RMK AO2
94908KDBQ DBQ20020215072511102/15/02 07:25:31  5-MIN KDBQ 151325Z 29015KT 8SM SCT016 BKN028 OVC070 01/M02 A2985 1140 78 -200 290/15 RMK AO2
94908KDBQ DBQ20020215073011102/15/02 07:30:31  5-MIN KDBQ 151330Z 29014KT 8SM SCT016 SCT026 BKN037 01/M02 A2986 1140 82 -300 290/14 RMK AO2
94908KDBQ DBQ20020215073511102/15/02 07:35:31  5-MIN KDBQ 151335Z 29015KT 8SM FEW016 SCT037 SCT060 01/M02 A2986 1130 82 -300 290/15 RMK AO2
94908KDBQ DBQ20020215074010402/15/02 07:40:31  5-MIN KDBQ 151340Z 29014KT 8SM FEW016 SCT060 01/M02 A2986 1130 82 -300 290/14 RMK AO2
94908KDBQ DBQ20020215074511002/15/02 07:45:31  5-MIN KDBQ 151345Z 29013G19KT 8SM FEW016 SCT039 01/M02 A2987 1130 78 -200 290/13G19 RMK AO2
94908KDBQ DBQ20020215075012702/15/02 07:50:31  5-MIN KDBQ 151350Z 29012G19KT 8SM FEW016 SCT041 01/M02 A2987 1130 78 -200 290/12G19 RMK AO2 SLP123 T00111022
94908KDBQ DBQ20020215075511402/15/02 07:55:31  5-MIN KDBQ 151355Z 29014KT 8SM SCT041 01/M02 A2987 1130 78 -200 290/14 RMK AO2 SLP123 T00111022
94908KDBQ DBQ20020215080009702/15/02 08:00:31  5-MIN KDBQ 151400Z 28013KT 8SM SCT041 01/M02 A2987 1130 78 -200 280/13 RMK AO2
94908KDBQ DBQ20020215080509702/15/02 08:05:31  5-MIN KDBQ 151405Z 29014KT 8SM FEW041 01/M02 A2987 1130 78 -200 290/14 RMK AO2
94908KDBQ DBQ20020215081010402/15/02 08:10:31  5-MIN KDBQ 151410Z 30014KT 8SM FEW016 SCT041 01/M02 A2987 1130 78 -200 290/14 RMK AO2
94908KDBQ DBQ20020215081509702/15/02 08:15:31  5-MIN KDBQ 151415Z 30016KT 9SM FEW016 01/M02 A2987 1120 78 -200 300/16 RMK AO2
94908KDBQ DBQ20020215082010002/15/02 08:20:31  5-MIN KDBQ 151420Z 30018G22KT 9SM CLR 01/M02 A2987 1120 78 -200 300/18G22 RMK AO2
94908KDBQ DBQ20020215082510302/15/02 08:25:31  5-MIN KDBQ 151425Z 30015G22KT 9SM FEW016 01/M02 A2988 1120 78 -200 300/15G22 RMK AO2
94908KDBQ DBQ20020215083009802/15/02 08:30:31  5-MIN KDBQ 151430Z 30015KT 10SM FEW016 01/M02 A2988 1120 78 -200 300/15 RMK AO2
94908KDBQ DBQ20020215083509802/15/02 08:35:31  5-MIN KDBQ 151435Z 30012KT 10SM FEW016 01/M02 A2988 1110 78 -200 300/12 RMK AO2
94908KDBQ DBQ20020215084010402/15/02 08:40:31  5-MIN KDBQ 151440Z 31019G22KT 10SM BKN016 01/M03 A2989 1110 75 -200 310/19G22 RMK AO2
94908KDBQ DBQ20020215084510402/15/02 08:45:31  5-MIN KDBQ 151445Z 30014G23KT 10SM BKN016 01/M02 A2989 1100 78 -200 300/14G23 RMK AO2
94908KDBQ DBQ20020215085012102/15/02 08:50:31  5-MIN KDBQ 151450Z 30016KT 10SM BKN016 01/M03 A2989 1100 75 -200 300/16 RMK AO2 SLP132 T00111028 53012
94908KDBQ DBQ20020215085512102/15/02 08:55:31  5-MIN KDBQ 151455Z 30013KT 10SM BKN016 01/M03 A2990 1100 75 -200 300/13 RMK AO2 SLP133 T00111028 53029
94908KDBQ DBQ20020215090010402/15/02 09:00:31  5-MIN KDBQ 151500Z 31015G22KT 10SM OVC016 01/M03 A2990 1100 75 -200 300/15G22 RMK AO2
94908KDBQ DBQ20020215090510402/15/02 09:05:31  5-MIN KDBQ 151505Z 30014G22KT 10SM OVC016 01/M03 A2990 1090 75 -200 300/14G22 RMK AO2
94908KDBQ DBQ20020215091010402/15/02 09:10:31  5-MIN KDBQ 151510Z 30015G20KT 10SM OVC016 01/M03 A2991 1090 75 -200 300/15G20 RMK AO2
94908KDBQ DBQ20020215091510402/15/02 09:15:31  5-MIN KDBQ 151515Z 31016G23KT 10SM OVC016 01/M03 A2991 1090 75 -200 310/16G23 RMK AO2
94908KDBQ DBQ20020215092010402/15/02 09:20:31  5-MIN KDBQ 151520Z 31015G23KT 10SM OVC016 01/M03 A2991 1090 75 -300 310/15G23 RMK AO2
94908KDBQ DBQ20020215092510402/15/02 09:25:31  5-MIN KDBQ 151525Z 31016G23KT 10SM OVC018 01/M03 A2992 1080 75 -300 310/16G23 RMK AO2
94908KDBQ DBQ20020215093010402/15/02 09:30:31  5-MIN KDBQ 151530Z 31016G25KT 10SM OVC018 01/M03 A2992 1080 75 -300 310/16G25 RMK AO2
94908KDBQ DBQ20020215093510402/15/02 09:35:31  5-MIN KDBQ 151535Z 31017G25KT 10SM OVC018 01/M03 A2992 1080 75 -300 310/17G25 RMK AO2
94908KDBQ DBQ20020215094010402/15/02 09:40:31  5-MIN KDBQ 151540Z 32016G23KT 10SM OVC018 01/M03 A2992 1080 75 -300 320/16G23 RMK AO2
94908KDBQ DBQ20020215094510402/15/02 09:45:31  5-MIN KDBQ 151545Z 31016G23KT 10SM OVC020 02/M03 A2992 1080 72 -200 310/16G23 RMK AO2
94908KDBQ DBQ20020215095012102/15/02 09:50:31  5-MIN KDBQ 151550Z 31013G21KT 10SM OVC020 02/M03 A2992 1070 72 -200 310/13G21 RMK AO2 SLP142 T00171028
94908KDBQ DBQ20020215095512802/15/02 09:55:31  5-MIN KDBQ 151555Z 31017G20KT 10SM BKN020 OVC026 02/M03 A2993 1070 72 -200 310/17G20 RMK AO2 SLP142 T00171028
94908KDBQ DBQ20020215100009802/15/02 10:00:31  5-MIN KDBQ 151600Z 31013KT 10SM OVC023 02/M03 A2993 1070 72 -200 310/13 RMK AO2
94908KDBQ DBQ20020215100509802/15/02 10:05:31  5-MIN KDBQ 151605Z 31013KT 10SM OVC023 02/M03 A2993 1070 72 -200 310/13 RMK AO2
94908KDBQ DBQ20020215101009802/15/02 10:10:31  5-MIN KDBQ 151610Z 31013KT 10SM OVC023 02/M03 A2993 1070 72 -200 310/13 RMK AO2
94908KDBQ DBQ20020215101510502/15/02 10:15:31  5-MIN KDBQ 151615Z 31012KT 10SM BKN025 OVC029 02/M03 A2993 1070 69 -100 310/12 RMK AO2
94908KDBQ DBQ20020215102011102/15/02 10:20:31  5-MIN KDBQ 151620Z 31019G24KT 10SM BKN025 OVC029 02/M03 A2993 1070 69 -100 310/19G24 RMK AO2
94908KDBQ DBQ20020215102510402/15/02 10:25:31  5-MIN KDBQ 151625Z 31014G24KT 10SM OVC027 02/M03 A2993 1070 69 -100 310/14G24 RMK AO2
94908KDBQ DBQ20020215103009802/15/02 10:30:31  5-MIN KDBQ 151630Z 30014KT 10SM OVC027 02/M03 A2993 1070 69 -100 300/14 RMK AO2
94908KDBQ DBQ20020215103512202/15/02 10:35:31  5-MIN KDBQ 151635Z 30016G26KT 10SM OVC027 02/M03 A2994 1060 67 -100 300/16G26 RMK AO2 PK WND 30026/1631
94908KDBQ DBQ20020215104012202/15/02 10:40:31  5-MIN KDBQ 151640Z 30016G26KT 10SM OVC027 02/M03 A2994 1060 67 -100 300/16G26 RMK AO2 PK WND 30026/1631
94908KDBQ DBQ20020215104512202/15/02 10:45:31  5-MIN KDBQ 151645Z 31018G24KT 10SM OVC027 02/M03 A2994 1060 67 -100 310/18G24 RMK AO2 PK WND 30026/1631
94908KDBQ DBQ20020215105013902/15/02 10:50:31  5-MIN KDBQ 151650Z 31015G24KT 10SM OVC027 02/M03 A2994 1060 67 -100 300/15G24 RMK AO2 PK WND 30026/1631 SLP148 T00221033
94908KDBQ DBQ20020215105513302/15/02 10:55:31  5-MIN KDBQ 151655Z 30018KT 10SM OVC027 02/M03 A2994 1060 67 -200 300/18 RMK AO2 PK WND 30026/1631 SLP149 T00221033
94908KDBQ DBQ20020215110009802/15/02 11:00:31  5-MIN KDBQ 151700Z 30012KT 10SM OVC025 02/M03 A2995 1050 69 -200 300/12 RMK AO2
94908KDBQ DBQ20020215110509802/15/02 11:05:31  5-MIN KDBQ 151705Z 30015KT 10SM OVC023 02/M03 A2995 1050 67 -200 300/15 RMK AO2
94908KDBQ DBQ20020215111009802/15/02 11:10:31  5-MIN KDBQ 151710Z 30013KT 10SM OVC023 02/M03 A2995 1050 69 -200 300/13 RMK AO2
94908KDBQ DBQ20020215111509802/15/02 11:15:31  5-MIN KDBQ 151715Z 30012KT 10SM OVC023 02/M03 A2995 1050 69 -200 300/12 RMK AO2
94908KDBQ DBQ20020215112009802/15/02 11:20:31  5-MIN KDBQ 151720Z 29012KT 10SM OVC023 02/M03 A2995 1050 69 -200 290/12 RMK AO2
94908KDBQ DBQ20020215112509802/15/02 11:25:31  5-MIN KDBQ 151725Z 30012KT 10SM OVC023 02/M03 A2995 1050 69 -200 300/12 RMK AO2
94908KDBQ DBQ20020215113009802/15/02 11:30:31  5-MIN KDBQ 151730Z 29014KT 10SM OVC023 02/M03 A2996 1050 69 -200 290/14 RMK AO2
94908KDBQ DBQ20020215113509802/15/02 11:35:31  5-MIN KDBQ 151735Z 30014KT 10SM OVC023 03/M03 A2995 1050 67 -100 300/14 RMK AO2
94908KDBQ DBQ20020215114010502/15/02 11:40:31  5-MIN KDBQ 151740Z 29016KT 10SM BKN023 OVC029 03/M03 A2995 1050 67 -100 290/16 RMK AO2
94908KDBQ DBQ20020215114509502/15/02 11:45:31  5-MIN KDBQ 151745Z 29016KT 10SM OVC026 03/M03 A2995 1050 61 0 280/16 RMK AO2
94908KDBQ DBQ20020215115013702/15/02 11:50:31  5-MIN KDBQ 151750Z 29015KT 10SM BKN025 BKN030 04/M03 A2995 1050 59 0 290/15 RMK AO2 SLP151 T00391033 10039 20000 53029
94908KDBQ DBQ20020215115514302/15/02 11:55:31  5-MIN KDBQ 151755Z 29016G21KT 10SM BKN025 BKN030 03/M03 A2995 1050 61 0 280/16G21 RMK AO2 SLP150 T00331033 10039 20000 51016
94908KDBQ DBQ20020215120010802/15/02 12:00:31  5-MIN KDBQ 151800Z 29015G21KT 10SM BKN027 BKN033 04/M03 A2995 1050 62 0 290/15G21 RMK AO2
94908KDBQ DBQ20020215120509502/15/02 12:05:31  5-MIN KDBQ 151805Z 29016KT 10SM BKN027 04/M03 A2995 1050 59 0 290/16 RMK AO2
94908KDBQ DBQ20020215121009802/15/02 12:10:31  5-MIN KDBQ 151810Z 29017KT 10SM BKN027 03/M04 A2995 1050 59 -100 290/17 RMK AO2
94908KDBQ DBQ20020215121510102/15/02 12:15:31  5-MIN KDBQ 151815Z 29016G22KT 10SM BKN027 04/M04 A2994 1060 57 0 290/16G22 RMK AO2
94908KDBQ DBQ20020215122010102/15/02 12:20:31  5-MIN KDBQ 151820Z 28015G22KT 10SM BKN027 04/M04 A2994 1060 57 0 280/15G22 RMK AO2
94908KDBQ DBQ20020215122509502/15/02 12:25:31  5-MIN KDBQ 151825Z 27015KT 10SM BKN027 03/M03 A2994 1060 64 0 270/15 RMK AO2
94908KDBQ DBQ20020215123009502/15/02 12:30:31  5-MIN KDBQ 151830Z 29018KT 10SM BKN027 04/M03 A2994 1060 62 0 290/18 RMK AO2
94908KDBQ DBQ20020215123509502/15/02 12:35:31  5-MIN KDBQ 151835Z 27018KT 10SM BKN027 03/M03 A2994 1060 64 0 270/18 RMK AO2
94908KDBQ DBQ20020215124010102/15/02 12:40:31  5-MIN KDBQ 151840Z 29019G22KT 10SM BKN027 04/M03 A2995 1050 62 0 290/19G22 RMK AO2
94908KDBQ DBQ20020215124510102/15/02 12:45:31  5-MIN KDBQ 151845Z 28017G22KT 10SM BKN027 03/M03 A2994 1060 61 0 280/17G22 RMK AO2
94908KDBQ DBQ20020215125011802/15/02 12:50:31  5-MIN KDBQ 151850Z 28015G23KT 10SM FEW025 03/M03 A2994 1060 61 0 280/15G23 RMK AO2 SLP148 T00331033
94908KDBQ DBQ20020215125511802/15/02 12:55:31  5-MIN KDBQ 151855Z 27016G23KT 10SM FEW025 03/M03 A2995 1050 61 0 270/16G23 RMK AO2 SLP150 T00331033
94908KDBQ DBQ20020215130010102/15/02 13:00:31  5-MIN KDBQ 151900Z 28019G25KT 10SM FEW025 03/M04 A2995 1060 59 0 280/19G25 RMK AO2
94908KDBQ DBQ20020215130509802/15/02 13:05:31  5-MIN KDBQ 151905Z 28017G25KT 10SM CLR 04/M04 A2994 1060 57 0 280/17G25 RMK AO2
94908KDBQ DBQ20020215131011602/15/02 13:10:31  5-MIN KDBQ 151910Z 29020G26KT 10SM CLR 04/M04 A2994 1060 57 0 290/20G26 RMK AO2 PK WND 29026/1909
94908KDBQ DBQ20020215131511602/15/02 13:15:31  5-MIN KDBQ 151915Z 27018G26KT 10SM CLR 04/M03 A2994 1060 59 0 270/18G26 RMK AO2 PK WND 29026/1909
94908KDBQ DBQ20020215132011002/15/02 13:20:31  5-MIN KDBQ 151920Z 28019KT 10SM CLR 04/M04 A2994 1060 57 0 280/19 RMK AO2 PK WND 29026/1909
94908KDBQ DBQ20020215132511202/15/02 13:25:31  5-MIN KDBQ 151925Z 29018KT 10SM CLR 04/M04 A2994 1060 55 100 290/18 RMK AO2 PK WND 29026/1909
94908KDBQ DBQ20020215133011002/15/02 13:30:31  5-MIN KDBQ 151930Z 27018KT 10SM CLR 04/M04 A2994 1060 57 0 270/18 RMK AO2 PK WND 29026/1909
94908KDBQ DBQ20020215133511802/15/02 13:35:31  5-MIN KDBQ 151935Z 29019G24KT 10SM CLR 04/M04 A2994 1060 55 100 280/19G24 RMK AO2 PK WND 29026/1909
94908KDBQ DBQ20020215134011802/15/02 13:40:31  5-MIN KDBQ 151940Z 27018G24KT 10SM CLR 04/M04 A2993 1070 55 100 270/18G24 RMK AO2 PK WND 29026/1909
94908KDBQ DBQ20020215134511802/15/02 13:45:31  5-MIN KDBQ 151945Z 27021G25KT 10SM CLR 04/M04 A2994 1060 55 100 270/21G25 RMK AO2 PK WND 29026/1909
94908KDBQ DBQ20020215135013502/15/02 13:50:31  5-MIN KDBQ 151950Z 27021G25KT 10SM CLR 04/M04 A2993 1070 55 100 270/21G25 RMK AO2 PK WND 29026/1909 SLP145 T00441039
94908KDBQ DBQ20020215135512902/15/02 13:55:31  5-MIN KDBQ 151955Z 28018KT 10SM CLR 04/M04 A2993 1070 55 100 280/18 RMK AO2 PK WND 29026/1909 SLP145 T00441039
94908KDBQ DBQ20020215140009402/15/02 14:00:31  5-MIN KDBQ 152000Z 27018KT 10SM CLR 04/M04 A2993 1070 55 100 270/18 RMK AO2
94908KDBQ DBQ20020215140510002/15/02 14:05:31  5-MIN KDBQ 152005Z 28018G23KT 10SM CLR 04/M04 A2994 1060 55 100 280/18G23 RMK AO2
94908KDBQ DBQ20020215141010002/15/02 14:10:31  5-MIN KDBQ 152010Z 27019G23KT 10SM CLR 05/M03 A2994 1060 55 200 270/19G23 RMK AO2
94908KDBQ DBQ20020215141510002/15/02 14:15:31  5-MIN KDBQ 152015Z 27019G24KT 10SM CLR 04/M04 A2994 1060 52 100 270/19G24 RMK AO2
94908KDBQ DBQ20020215142011802/15/02 14:20:31  5-MIN KDBQ 152020Z 28020G26KT 10SM CLR 04/M04 A2994 1060 55 100 280/20G26 RMK AO2 PK WND 27026/2018
94908KDBQ DBQ20020215142511802/15/02 14:25:31  5-MIN KDBQ 152025Z 29017G26KT 10SM CLR 05/M03 A2994 1060 55 200 280/17G26 RMK AO2 PK WND 27026/2018
94908KDBQ DBQ20020215143011802/15/02 14:30:31  5-MIN KDBQ 152030Z 28018G23KT 10SM CLR 05/M03 A2993 1070 55 200 280/18G23 RMK AO2 PK WND 27026/2018
94908KDBQ DBQ20020215143511802/15/02 14:35:31  5-MIN KDBQ 152035Z 27018G23KT 10SM CLR 05/M03 A2993 1070 57 200 270/18G23 RMK AO2 PK WND 27026/2018
94908KDBQ DBQ20020215144011202/15/02 14:40:31  5-MIN KDBQ 152040Z 27018KT 10SM CLR 04/M02 A2993 1070 62 100 270/18 RMK AO2 PK WND 27026/2018
94908KDBQ DBQ20020215144511202/15/02 14:45:31  5-MIN KDBQ 152045Z 27019KT 10SM CLR 04/M02 A2993 1070 62 100 270/19 RMK AO2 PK WND 27026/2018
94908KDBQ DBQ20020215145013802/15/02 14:50:31  5-MIN KDBQ 152050Z 27017KT 10SM FEW029 04/M03 A2994 1060 59 100 270/17 RMK AO2 PK WND 27026/2018 SLP147 T00441028 51016
94908KDBQ DBQ20020215145514402/15/02 14:55:31  5-MIN KDBQ 152055Z 26017G23KT 10SM FEW029 04/M02 A2994 1060 62 100 260/17G23 RMK AO2 PK WND 27026/2018 SLP148 T00441022 55003
94908KDBQ DBQ20020215150009702/15/02 15:00:31  5-MIN KDBQ 152100Z 27018KT 10SM FEW029 05/M03 A2994 1060 57 100 270/18 RMK AO2
94908KDBQ DBQ20020215150509702/15/02 15:05:31  5-MIN KDBQ 152105Z 27017KT 10SM FEW029 04/M03 A2994 1060 59 100 270/17 RMK AO2
94908KDBQ DBQ20020215151009702/15/02 15:10:31  5-MIN KDBQ 152110Z 27019KT 10SM FEW029 05/M03 A2994 1060 57 100 270/19 RMK AO2
94908KDBQ DBQ20020215151509702/15/02 15:15:31  5-MIN KDBQ 152115Z 28019KT 10SM FEW029 05/M03 A2994 1060 57 200 280/19 RMK AO2
94908KDBQ DBQ20020215152009402/15/02 15:20:31  5-MIN KDBQ 152120Z 27020KT 10SM CLR 05/M03 A2994 1060 57 100 270/20 RMK AO2
94908KDBQ DBQ20020215152509402/15/02 15:25:31  5-MIN KDBQ 152125Z 27016KT 10SM CLR 05/M03 A2994 1060 57 100 270/16 RMK AO2
94908KDBQ DBQ20020215153009402/15/02 15:30:31  5-MIN KDBQ 152130Z 28016KT 10SM CLR 05/M03 A2994 1060 57 100 280/16 RMK AO2
94908KDBQ DBQ20020215153509402/15/02 15:35:31  5-MIN KDBQ 152135Z 28015KT 10SM CLR 05/M03 A2994 1060 55 100 270/15 RMK AO2
94908KDBQ DBQ20020215154010002/15/02 15:40:31  5-MIN KDBQ 152140Z 28014G21KT 10SM CLR 05/M03 A2994 1060 57 100 280/14G21 RMK AO2
94908KDBQ DBQ20020215154510002/15/02 15:45:31  5-MIN KDBQ 152145Z 28016G22KT 10SM CLR 05/M03 A2994 1060 55 200 280/16G22 RMK AO2
94908KDBQ DBQ20020215155011702/15/02 15:50:31  5-MIN KDBQ 152150Z 27017G22KT 10SM CLR 05/M03 A2994 1060 55 200 270/17G22 RMK AO2 SLP147 T00501033
94908KDBQ DBQ20020215155511102/15/02 15:55:31  5-MIN KDBQ 152155Z 27016KT 10SM CLR 05/M04 A2994 1060 52 100 270/16 RMK AO2 SLP148 T00501039
94908KDBQ DBQ20020215160009402/15/02 16:00:31  5-MIN KDBQ 152200Z 27017KT 10SM CLR 05/M03 A2994 1060 55 100 270/17 RMK AO2
94908KDBQ DBQ20020215160510002/15/02 16:05:31  5-MIN KDBQ 152205Z 27016G22KT 10SM CLR 04/M04 A2994 1060 55 100 270/16G22 RMK AO2
94908KDBQ DBQ20020215161010302/15/02 16:10:31  5-MIN KDBQ 152210Z 26015G22KT 10SM FEW037 04/M03 A2994 1060 57 100 260/15G22 RMK AO2
94908KDBQ DBQ20020215161509702/15/02 16:15:31  5-MIN KDBQ 152215Z 27014KT 10SM FEW039 05/M03 A2994 1060 55 100 270/14 RMK AO2
94908KDBQ DBQ20020215162010302/15/02 16:20:31  5-MIN KDBQ 152220Z 27016G21KT 10SM FEW039 04/M04 A2994 1060 55 100 270/16G21 RMK AO2
94908KDBQ DBQ20020215162510302/15/02 16:25:31  5-MIN KDBQ 152225Z 27016G21KT 10SM FEW039 05/M04 A2994 1060 52 100 270/16G21 RMK AO2
94908KDBQ DBQ20020215163009702/15/02 16:30:31  5-MIN KDBQ 152230Z 27017KT 10SM FEW039 05/M04 A2994 1060 52 100 270/17 RMK AO2
94908KDBQ DBQ20020215163510302/15/02 16:35:31  5-MIN KDBQ 152235Z 27017G21KT 10SM FEW039 04/M04 A2994 1060 55 100 270/17G21 RMK AO2
94908KDBQ DBQ20020215164010302/15/02 16:40:31  5-MIN KDBQ 152240Z 27018G21KT 10SM FEW039 04/M04 A2994 1060 55 100 270/18G21 RMK AO2
94908KDBQ DBQ20020215164510002/15/02 16:45:31  5-MIN KDBQ 152245Z 27018G21KT 10SM CLR 04/M04 A2994 1060 55 100 270/18G21 RMK AO2
94908KDBQ DBQ20020215165011102/15/02 16:50:31  5-MIN KDBQ 152250Z 27014KT 10SM CLR 04/M04 A2995 1060 55 100 270/14 RMK AO2 SLP150 T00441039
94908KDBQ DBQ20020215165511102/15/02 16:55:31  5-MIN KDBQ 152255Z 27013KT 10SM CLR 04/M04 A2995 1050 55 100 270/13 RMK AO2 SLP150 T00441039
94908KDBQ DBQ20020215170009402/15/02 17:00:31  5-MIN KDBQ 152300Z 26012KT 10SM CLR 04/M04 A2994 1060 55 100 260/12 RMK AO2
94908KDBQ DBQ20020215170509202/15/02 17:05:31  5-MIN KDBQ 152305Z 26013KT 10SM CLR 04/M04 A2994 1060 57 0 260/13 RMK AO2
94908KDBQ DBQ20020215171009202/15/02 17:10:31  5-MIN KDBQ 152310Z 26013KT 10SM CLR 04/M04 A2994 1060 57 0 260/13 RMK AO2
94908KDBQ DBQ20020215171509202/15/02 17:15:31  5-MIN KDBQ 152315Z 26011KT 10SM CLR 04/M04 A2995 1060 57 0 260/11 RMK AO2
94908KDBQ DBQ20020215172009202/15/02 17:20:31  5-MIN KDBQ 152320Z 26011KT 10SM CLR 03/M04 A2994 1060 59 0 260/11 RMK AO2
94908KDBQ DBQ20020215172509202/15/02 17:25:31  5-MIN KDBQ 152325Z 26011KT 10SM CLR 03/M04 A2995 1060 59 0 250/11 RMK AO2
94908KDBQ DBQ20020215173009202/15/02 17:30:31  5-MIN KDBQ 152330Z 25011KT 10SM CLR 03/M04 A2995 1050 59 0 250/11 RMK AO2
94908KDBQ DBQ20020215173509202/15/02 17:35:31  5-MIN KDBQ 152335Z 25010KT 10SM CLR 03/M03 A2995 1050 61 0 250/10 RMK AO2
94908KDBQ DBQ20020215174009502/15/02 17:40:31  5-MIN KDBQ 152340Z 25011KT 10SM CLR 03/M04 A2995 1050 61 -100 250/11 RMK AO2
94908KDBQ DBQ20020215174509202/15/02 17:45:31  5-MIN KDBQ 152345Z 25011KT 10SM CLR 03/M03 A2995 1050 61 0 250/11 RMK AO2
94908KDBQ DBQ20020215175013002/15/02 17:50:31  5-MIN KDBQ 152350Z 25010KT 10SM CLR 03/M03 A2995 1050 64 -100 250/10 RMK AO2 SLP152 T00281033 10050 20028 55003
94908KDBQ DBQ20020215175513002/15/02 17:55:31  5-MIN KDBQ 152355Z 25009KT 10SM CLR 03/M03 A2995 1050 64 -100 240/09 RMK AO2 SLP153 T00281033 10050 20028 53004
94908KDBQ DBQ20020215180009502/15/02 18:00:31  5-MIN KDBQ 160000Z 24009KT 10SM CLR 02/M03 A2995 1050 67 -200 240/09 RMK AO2
94908KDBQ DBQ20020215180509502/15/02 18:05:31  5-MIN KDBQ 160005Z 24008KT 10SM CLR 02/M03 A2995 1050 67 -200 240/08 RMK AO2
94908KDBQ DBQ20020215181009502/15/02 18:10:31  5-MIN KDBQ 160010Z 24009KT 10SM CLR 02/M03 A2994 1060 69 -200 240/09 RMK AO2
94908KDBQ DBQ20020215181509802/15/02 18:15:31  5-MIN KDBQ 160015Z 24011KT 10SM FEW120 03/M03 A2994 1060 67 -100 240/11 RMK AO2
94908KDBQ DBQ20020215182009802/15/02 18:20:31  5-MIN KDBQ 160020Z 24010KT 10SM SCT120 03/M03 A2994 1060 67 -100 240/10 RMK AO2
94908KDBQ DBQ20020215182509802/15/02 18:25:31  5-MIN KDBQ 160025Z 24010KT 10SM SCT120 03/M03 A2994 1060 67 -100 240/10 RMK AO2
94908KDBQ DBQ20020215183009802/15/02 18:30:31  5-MIN KDBQ 160030Z 24009KT 10SM BKN120 02/M03 A2995 1050 69 -200 240/09 RMK AO2
94908KDBQ DBQ20020215183509802/15/02 18:35:31  5-MIN KDBQ 160035Z 24009KT 10SM BKN120 02/M03 A2995 1050 69 -200 240/09 RMK AO2
94908KDBQ DBQ20020215184010502/15/02 18:40:31  5-MIN KDBQ 160040Z 24010KT 10SM FEW095 BKN120 03/M03 A2994 1060 67 -100 240/10 RMK AO2
94908KDBQ DBQ20020215184510502/15/02 18:45:31  5-MIN KDBQ 160045Z 23009KT 10SM FEW095 BKN120 03/M03 A2994 1060 67 -100 230/09 RMK AO2
94908KDBQ DBQ20020215185012202/15/02 18:50:31  5-MIN KDBQ 160050Z 23009KT 10SM FEW095 BKN120 02/M03 A2994 1060 69 -100 230/09 RMK AO2 SLP150 T00221028
94908KDBQ DBQ20020215185512502/15/02 18:55:31  5-MIN KDBQ 160055Z AUTO 22008KT 10SM BKN120 02/M03 A2994 1060 69 -100 220/08 RMK AO2 SLP148 T00221028 TSNO
94908KDBQ DBQ20020215190009802/15/02 19:00:31  5-MIN KDBQ 160100Z 22008KT 10SM BKN120 02/M03 A2994 1060 69 -100 220/08 RMK AO2
94908KDBQ DBQ20020215190509802/15/02 19:05:31  5-MIN KDBQ 160105Z 23008KT 10SM BKN120 02/M03 A2994 1060 69 -100 230/08 RMK AO2
94908KDBQ DBQ20020215191009802/15/02 19:10:31  5-MIN KDBQ 160110Z 24009KT 10SM BKN120 02/M03 A2994 1060 69 -100 230/09 RMK AO2
94908KDBQ DBQ20020215191509802/15/02 19:15:31  5-MIN KDBQ 160115Z 24010KT 10SM BKN110 02/M03 A2994 1060 69 -100 240/10 RMK AO2
94908KDBQ DBQ20020215192009802/15/02 19:20:31  5-MIN KDBQ 160120Z 24010KT 10SM OVC110 02/M03 A2993 1070 69 -100 230/10 RMK AO2
94908KDBQ DBQ20020215192509802/15/02 19:25:31  5-MIN KDBQ 160125Z 24010KT 10SM OVC110 03/M03 A2993 1070 67 -100 240/10 RMK AO2
94908KDBQ DBQ20020215193009802/15/02 19:30:31  5-MIN KDBQ 160130Z 23012KT 10SM OVC110 03/M03 A2993 1070 67 -100 230/12 RMK AO2
94908KDBQ DBQ20020215193509802/15/02 19:35:31  5-MIN KDBQ 160135Z 24012KT 10SM OVC110 03/M03 A2993 1070 67 -100 240/12 RMK AO2
94908KDBQ DBQ20020215194009802/15/02 19:40:31  5-MIN KDBQ 160140Z 24012KT 10SM OVC110 03/M03 A2993 1070 67 -100 240/12 RMK AO2
94908KDBQ DBQ20020215194509802/15/02 19:45:31  5-MIN KDBQ 160145Z 24011KT 10SM OVC110 03/M03 A2992 1070 67 -100 240/11 RMK AO2
94908KDBQ DBQ20020215195011502/15/02 19:50:31  5-MIN KDBQ 160150Z 24013KT 10SM OVC110 03/M03 A2992 1080 67 -100 240/13 RMK AO2 SLP142 T00281028
94908KDBQ DBQ20020215195512502/15/02 19:55:31  5-MIN KDBQ 160155Z AUTO 24012KT 10SM OVC110 03/M03 A2992 1080 67 -100 240/12 RMK AO2 SLP143 T00281028 TSNO
94908KDBQ DBQ20020215200010802/15/02 20:00:31  5-MIN KDBQ 160200Z AUTO 24011KT 10SM OVC110 03/M03 A2992 1080 67 -100 240/11 RMK AO2 TSNO
94908KDBQ DBQ20020215200510802/15/02 20:05:31  5-MIN KDBQ 160205Z AUTO 24012KT 10SM BKN110 03/M03 A2992 1070 67 -100 240/12 RMK AO2 TSNO
94908KDBQ DBQ20020215201010802/15/02 20:10:31  5-MIN KDBQ 160210Z AUTO 24013KT 10SM BKN110 03/M03 A2992 1070 67 -100 240/13 RMK AO2 TSNO
94908KDBQ DBQ20020215201510802/15/02 20:15:31  5-MIN KDBQ 160215Z AUTO 24014KT 10SM OVC110 03/M03 A2992 1070 67 -100 240/14 RMK AO2 TSNO
94908KDBQ DBQ20020215202010802/15/02 20:20:31  5-MIN KDBQ 160220Z AUTO 24014KT 10SM OVC110 03/M03 A2992 1080 67 -100 240/14 RMK AO2 TSNO
94908KDBQ DBQ20020215202510802/15/02 20:25:31  5-MIN KDBQ 160225Z AUTO 25014KT 10SM BKN120 03/M03 A2992 1080 67 -100 250/14 RMK AO2 TSNO
94908KDBQ DBQ20020215203010802/15/02 20:30:31  5-MIN KDBQ 160230Z AUTO 25015KT 10SM BKN120 03/M03 A2992 1080 67 -100 250/15 RMK AO2 TSNO
94908KDBQ DBQ20020215203510502/15/02 20:35:31  5-MIN KDBQ 160235Z AUTO 24014KT 10SM BKN120 03/M03 A2992 1080 67 0 240/14 RMK AO2 TSNO
94908KDBQ DBQ20020215204010502/15/02 20:40:31  5-MIN KDBQ 160240Z AUTO 25014KT 10SM SCT120 03/M03 A2992 1080 67 0 250/14 RMK AO2 TSNO
94908KDBQ DBQ20020215204510502/15/02 20:45:31  5-MIN KDBQ 160245Z AUTO 25014KT 10SM SCT120 03/M03 A2991 1090 64 0 250/14 RMK AO2 TSNO
94908KDBQ DBQ20020215205012802/15/02 20:50:31  5-MIN KDBQ 160250Z AUTO 25013KT 10SM FEW120 03/M03 A2991 1090 67 0 240/13 RMK AO2 SLP137 T00281028 53004 TSNO
94908KDBQ DBQ20020215205512802/15/02 20:55:31  5-MIN KDBQ 160255Z AUTO 25014KT 10SM FEW120 03/M03 A2991 1090 64 0 250/14 RMK AO2 SLP139 T00331028 56012 TSNO
94908KDBQ DBQ20020215210010502/15/02 21:00:31  5-MIN KDBQ 160300Z AUTO 25012KT 10SM FEW120 03/M03 A2992 1080 64 0 250/12 RMK AO2 TSNO
94908KDBQ DBQ20020215210510202/15/02 21:05:31  5-MIN KDBQ 160305Z AUTO 24012KT 10SM CLR 03/M03 A2991 1090 67 0 240/12 RMK AO2 TSNO
94908KDBQ DBQ20020215211010202/15/02 21:10:31  5-MIN KDBQ 160310Z AUTO 24012KT 10SM CLR 03/M03 A2991 1090 67 0 240/12 RMK AO2 TSNO
94908KDBQ DBQ20020215211510502/15/02 21:15:31  5-MIN KDBQ 160315Z AUTO 24013KT 10SM FEW120 03/M03 A2990 1100 67 0 240/13 RMK AO2 TSNO
94908KDBQ DBQ20020215212010502/15/02 21:20:31  5-MIN KDBQ 160320Z AUTO 24012KT 10SM FEW120 03/M03 A2990 1100 67 0 240/12 RMK AO2 TSNO
94908KDBQ DBQ20020215212510502/15/02 21:25:31  5-MIN KDBQ 160325Z AUTO 24014KT 10SM SCT120 03/M03 A2990 1100 67 0 240/14 RMK AO2 TSNO
94908KDBQ DBQ20020215213010502/15/02 21:30:31  5-MIN KDBQ 160330Z AUTO 24013KT 10SM SCT110 03/M03 A2990 1100 67 0 240/13 RMK AO2 TSNO
94908KDBQ DBQ20020215213510502/15/02 21:35:31  5-MIN KDBQ 160335Z AUTO 24013KT 10SM SCT110 03/M03 A2989 1100 67 0 240/13 RMK AO2 TSNO
94908KDBQ DBQ20020215214011202/15/02 21:40:31  5-MIN KDBQ 160340Z AUTO 24013KT 10SM SCT100 BKN120 03/M03 A2989 1110 67 0 240/13 RMK AO2 TSNO
94908KDBQ DBQ20020215214511202/15/02 21:45:31  5-MIN KDBQ 160345Z AUTO 24013KT 10SM BKN100 BKN120 03/M03 A2989 1110 67 0 240/13 RMK AO2 TSNO
94908KDBQ DBQ20020215215012202/15/02 21:50:31  5-MIN KDBQ 160350Z AUTO 24015KT 10SM BKN110 03/M03 A2988 1110 67 0 240/15 RMK AO2 SLP129 T00281028 TSNO
94908KDBQ DBQ20020215215512202/15/02 21:55:31  5-MIN KDBQ 160355Z AUTO 24014KT 10SM OVC110 03/M03 A2988 1120 67 0 240/14 RMK AO2 SLP127 T00281028 TSNO
94908KDBQ DBQ20020215220011202/15/02 22:00:31  5-MIN KDBQ 160400Z AUTO 24014KT 10SM BKN100 OVC110 03/M03 A2988 1120 67 0 240/14 RMK AO2 TSNO
94908KDBQ DBQ20020215220511202/15/02 22:05:31  5-MIN KDBQ 160405Z AUTO 24014KT 10SM BKN100 OVC110 03/M03 A2987 1120 67 0 240/14 RMK AO2 TSNO
94908KDBQ DBQ20020215221011202/15/02 22:10:31  5-MIN KDBQ 160410Z AUTO 24014KT 10SM BKN095 OVC110 03/M03 A2987 1120 67 0 240/14 RMK AO2 TSNO
94908KDBQ DBQ20020215221511202/15/02 22:15:31  5-MIN KDBQ 160415Z AUTO 24013KT 10SM BKN100 OVC110 03/M03 A2987 1120 67 0 230/13 RMK AO2 TSNO
94908KDBQ DBQ20020215222010502/15/02 22:20:31  5-MIN KDBQ 160420Z AUTO 24015KT 10SM OVC100 03/M03 A2987 1130 67 0 240/15 RMK AO2 TSNO
94908KDBQ DBQ20020215222510502/15/02 22:25:31  5-MIN KDBQ 160425Z AUTO 24015KT 10SM OVC095 03/M03 A2987 1130 67 0 240/15 RMK AO2 TSNO
94908KDBQ DBQ20020215223010502/15/02 22:30:31  5-MIN KDBQ 160430Z AUTO 24015KT 10SM OVC100 03/M03 A2987 1130 67 0 240/15 RMK AO2 TSNO
94908KDBQ DBQ20020215223510502/15/02 22:35:31  5-MIN KDBQ 160435Z AUTO 24015KT 10SM OVC100 03/M03 A2986 1130 67 0 240/15 RMK AO2 TSNO
94908KDBQ DBQ20020215224010502/15/02 22:40:31  5-MIN KDBQ 160440Z AUTO 24015KT 10SM OVC100 03/M03 A2986 1130 64 0 240/15 RMK AO2 TSNO
94908KDBQ DBQ20020215224511202/15/02 22:45:31  5-MIN KDBQ 160445Z AUTO 24015KT 10SM BKN100 OVC120 03/M03 A2986 1140 67 0 240/15 RMK AO2 TSNO
94908KDBQ DBQ20020215225012902/15/02 22:50:31  5-MIN KDBQ 160450Z AUTO 24013KT 10SM BKN100 OVC120 03/M03 A2986 1140 67 0 240/13 RMK AO2 SLP120 T00281028 TSNO
94908KDBQ DBQ20020215225512202/15/02 22:55:31  5-MIN KDBQ 160455Z AUTO 24013KT 10SM OVC110 03/M03 A2986 1140 67 0 240/13 RMK AO2 SLP119 T00281028 TSNO
94908KDBQ DBQ20020215230010502/15/02 23:00:31  5-MIN KDBQ 160500Z AUTO 24012KT 10SM OVC110 03/M03 A2986 1140 67 0 240/12 RMK AO2 TSNO
94908KDBQ DBQ20020215230510502/15/02 23:05:31  5-MIN KDBQ 160505Z AUTO 24013KT 10SM OVC110 02/M03 A2986 1140 69 0 230/13 RMK AO2 TSNO
94908KDBQ DBQ20020215231010502/15/02 23:10:31  5-MIN KDBQ 160510Z AUTO 24013KT 10SM BKN110 02/M03 A2985 1140 67 0 240/13 RMK AO2 TSNO
94908KDBQ DBQ20020215231510502/15/02 23:15:31  5-MIN KDBQ 160515Z AUTO 24013KT 10SM BKN110 02/M02 A2985 1140 72 0 230/13 RMK AO2 TSNO
94908KDBQ DBQ20020215232010502/15/02 23:20:31  5-MIN KDBQ 160520Z AUTO 24013KT 10SM OVC110 02/M02 A2985 1150 72 0 240/13 RMK AO2 TSNO
94908KDBQ DBQ20020215232510502/15/02 23:25:31  5-MIN KDBQ 160525Z AUTO 23014KT 10SM BKN110 02/M03 A2984 1150 67 0 230/14 RMK AO2 TSNO
94908KDBQ DBQ20020215233010502/15/02 23:30:31  5-MIN KDBQ 160530Z AUTO 23013KT 10SM BKN100 02/M03 A2984 1160 67 0 230/13 RMK AO2 TSNO
94908KDBQ DBQ20020215233510502/15/02 23:35:31  5-MIN KDBQ 160535Z AUTO 23014KT 10SM BKN100 02/M03 A2983 1160 67 0 230/14 RMK AO2 TSNO
94908KDBQ DBQ20020215234010502/15/02 23:40:31  5-MIN KDBQ 160540Z AUTO 23013KT 10SM BKN110 02/M03 A2983 1160 67 0 230/13 RMK AO2 TSNO
94908KDBQ DBQ20020215234510502/15/02 23:45:31  5-MIN KDBQ 160545Z AUTO 23013KT 10SM SCT100 02/M03 A2983 1160 67 0 230/13 RMK AO2 TSNO
94908KDBQ DBQ20020215235015002/15/02 23:50:31  5-MIN KDBQ 160550Z AUTO 23013KT 10SM SCT100 02/M03 A2983 1160 67 0 230/13 RMK AO2 SLP110 T00221033 10033 20022 400500000 56012 TSNO
94908KDBQ DBQ20020215235515302/15/02 23:55:31  5-MIN KDBQ 160555Z AUTO 23013KT 10SM FEW100 02/M03 A2983 1160 69 -100 230/13 RMK AO2 SLP110 T00171033 10033 20017 400500000 56028 TSNO
94908KDBQ DBQ20020216000010502/16/02 00:00:31  5-MIN KDBQ 160600Z AUTO 24012KT 10SM CLR 02/M03 A2983 1170 69 -100 230/12 RMK AO2 TSNO
94908KDBQ DBQ20020216000510502/16/02 00:05:31  5-MIN KDBQ 160605Z AUTO 23012KT 10SM CLR 02/M03 A2983 1170 69 -100 230/12 RMK AO2 TSNO
94908KDBQ DBQ20020216001010502/16/02 00:10:31  5-MIN KDBQ 160610Z AUTO 24013KT 10SM CLR 02/M04 A2982 1170 66 -100 240/13 RMK AO2 TSNO
94908KDBQ DBQ20020216001510502/16/02 00:15:31  5-MIN KDBQ 160615Z AUTO 24013KT 10SM CLR 02/M03 A2982 1170 69 -100 240/13 RMK AO2 TSNO
94908KDBQ DBQ20020216002010502/16/02 00:20:31  5-MIN KDBQ 160620Z AUTO 24012KT 10SM CLR 02/M03 A2982 1170 69 -100 240/12 RMK AO2 TSNO
94908KDBQ DBQ20020216002510502/16/02 00:25:31  5-MIN KDBQ 160625Z AUTO 24012KT 10SM CLR 02/M03 A2981 1180 69 -100 240/12 RMK AO2 TSNO
94908KDBQ DBQ20020216003010502/16/02 00:30:31  5-MIN KDBQ 160630Z AUTO 24013KT 10SM CLR 02/M03 A2981 1180 69 -100 240/13 RMK AO2 TSNO
94908KDBQ DBQ20020216003510502/16/02 00:35:31  5-MIN KDBQ 160635Z AUTO 24012KT 10SM CLR 02/M03 A2981 1180 69 -100 240/12 RMK AO2 TSNO
94908KDBQ DBQ20020216004010502/16/02 00:40:31  5-MIN KDBQ 160640Z AUTO 24012KT 10SM CLR 02/M03 A2981 1180 69 -100 240/12 RMK AO2 TSNO
94908KDBQ DBQ20020216004510502/16/02 00:45:31  5-MIN KDBQ 160645Z AUTO 24012KT 10SM CLR 02/M03 A2981 1180 69 -100 240/12 RMK AO2 TSNO
94908KDBQ DBQ20020216005012202/16/02 00:50:31  5-MIN KDBQ 160650Z AUTO 24012KT 10SM CLR 02/M03 A2981 1180 69 -100 240/12 RMK AO2 SLP102 T00171033 TSNO
94908KDBQ DBQ20020216005512202/16/02 00:55:31  5-MIN KDBQ 160655Z AUTO 24012KT 10SM CLR 02/M03 A2980 1190 69 -100 240/12 RMK AO2 SLP102 T00171033 TSNO
94908KDBQ DBQ20020216010010502/16/02 01:00:31  5-MIN KDBQ 160700Z AUTO 24013KT 10SM CLR 02/M03 A2980 1190 69 -100 240/13 RMK AO2 TSNO
94908KDBQ DBQ20020216010510502/16/02 01:05:31  5-MIN KDBQ 160705Z AUTO 24013KT 10SM CLR 02/M03 A2980 1190 69 -100 240/13 RMK AO2 TSNO
94908KDBQ DBQ20020216011010202/16/02 01:10:31  5-MIN KDBQ 160710Z AUTO 24013KT 10SM CLR 02/M04 A2980 1190 64 0 240/13 RMK AO2 TSNO
94908KDBQ DBQ20020216011510502/16/02 01:15:31  5-MIN KDBQ 160715Z AUTO 24013KT 10SM CLR 02/M03 A2980 1190 69 -100 240/13 RMK AO2 TSNO
94908KDBQ DBQ20020216012010202/16/02 01:20:31  5-MIN KDBQ 160720Z AUTO 25013KT 10SM CLR 02/M03 A2980 1190 67 0 240/13 RMK AO2 TSNO
94908KDBQ DBQ20020216012510202/16/02 01:25:31  5-MIN KDBQ 160725Z AUTO 25011KT 10SM CLR 02/M03 A2980 1190 67 0 240/11 RMK AO2 TSNO
94908KDBQ DBQ20020216013010502/16/02 01:30:31  5-MIN KDBQ 160730Z AUTO 25011KT 10SM CLR 02/M03 A2980 1190 69 -100 240/11 RMK AO2 TSNO
94908KDBQ DBQ20020216013510202/16/02 01:35:31  5-MIN KDBQ 160735Z AUTO 25011KT 10SM CLR 02/M03 A2979 1190 69 0 250/11 RMK AO2 TSNO
94908KDBQ DBQ20020216014010202/16/02 01:40:31  5-MIN KDBQ 160740Z AUTO 24013KT 10SM CLR 02/M03 A2979 1200 69 0 240/13 RMK AO2 TSNO
94908KDBQ DBQ20020216014510202/16/02 01:45:31  5-MIN KDBQ 160745Z AUTO 24013KT 10SM CLR 02/M03 A2979 1200 69 0 240/13 RMK AO2 TSNO
94908KDBQ DBQ20020216015011902/16/02 01:50:31  5-MIN KDBQ 160750Z AUTO 25012KT 10SM CLR 02/M03 A2979 1200 69 0 250/12 RMK AO2 SLP097 T00171033 TSNO
94908KDBQ DBQ20020216015511902/16/02 01:55:31  5-MIN KDBQ 160755Z AUTO 25012KT 10SM CLR 02/M03 A2979 1200 69 0 250/12 RMK AO2 SLP097 T00171033 TSNO
94908KDBQ DBQ20020216020010202/16/02 02:00:31  5-MIN KDBQ 160800Z AUTO 25012KT 10SM CLR 02/M04 A2979 1200 64 0 250/12 RMK AO2 TSNO
94908KDBQ DBQ20020216020510202/16/02 02:05:31  5-MIN KDBQ 160805Z AUTO 25011KT 10SM CLR 02/M03 A2978 1200 69 0 250/11 RMK AO2 TSNO
94908KDBQ DBQ20020216021010202/16/02 02:10:31  5-MIN KDBQ 160810Z AUTO 25011KT 10SM CLR 02/M03 A2979 1200 69 0 250/11 RMK AO2 TSNO
94908KDBQ DBQ20020216021510202/16/02 02:15:31  5-MIN KDBQ 160815Z AUTO 25012KT 10SM CLR 02/M03 A2979 1200 67 0 250/12 RMK AO2 TSNO
94908KDBQ DBQ20020216022010202/16/02 02:20:31  5-MIN KDBQ 160820Z AUTO 25012KT 10SM CLR 02/M03 A2978 1210 67 0 250/12 RMK AO2 TSNO
94908KDBQ DBQ20020216022510202/16/02 02:25:31  5-MIN KDBQ 160825Z AUTO 25012KT 10SM CLR 02/M03 A2979 1200 67 0 250/12 RMK AO2 TSNO
94908KDBQ DBQ20020216023010202/16/02 02:30:31  5-MIN KDBQ 160830Z AUTO 25012KT 10SM CLR 02/M03 A2978 1210 67 0 250/12 RMK AO2 TSNO
94908KDBQ DBQ20020216023510202/16/02 02:35:31  5-MIN KDBQ 160835Z AUTO 25011KT 10SM CLR 02/M03 A2978 1210 67 0 250/11 RMK AO2 TSNO
94908KDBQ DBQ20020216024010202/16/02 02:40:31  5-MIN KDBQ 160840Z AUTO 25012KT 10SM CLR 02/M03 A2978 1210 67 0 250/12 RMK AO2 TSNO
94908KDBQ DBQ20020216024510202/16/02 02:45:31  5-MIN KDBQ 160845Z AUTO 26012KT 10SM CLR 02/M03 A2978 1210 67 0 250/12 RMK AO2 TSNO
94908KDBQ DBQ20020216025012502/16/02 02:50:31  5-MIN KDBQ 160850Z AUTO 26013KT 10SM CLR 02/M03 A2978 1210 67 0 260/13 RMK AO2 SLP093 T00221033 56028 TSNO
94908KDBQ DBQ20020216025512502/16/02 02:55:31  5-MIN KDBQ 160855Z AUTO 26011KT 10SM CLR 02/M03 A2978 1210 67 0 250/11 RMK AO2 SLP092 T00221033 56016 TSNO
94908KDBQ DBQ20020216030010202/16/02 03:00:31  5-MIN KDBQ 160900Z AUTO 26013KT 10SM CLR 02/M03 A2978 1210 67 0 250/13 RMK AO2 TSNO
94908KDBQ DBQ20020216030510202/16/02 03:05:31  5-MIN KDBQ 160905Z AUTO 26012KT 10SM CLR 02/M03 A2978 1210 67 0 260/12 RMK AO2 TSNO
94908KDBQ DBQ20020216031010202/16/02 03:10:31  5-MIN KDBQ 160910Z AUTO 26013KT 10SM CLR 02/M03 A2978 1210 67 0 260/13 RMK AO2 TSNO
94908KDBQ DBQ20020216031510202/16/02 03:15:31  5-MIN KDBQ 160915Z AUTO 26013KT 10SM CLR 02/M03 A2978 1210 67 0 260/13 RMK AO2 TSNO
94908KDBQ DBQ20020216032010202/16/02 03:20:31  5-MIN KDBQ 160920Z AUTO 26013KT 10SM CLR 02/M03 A2977 1210 67 0 260/13 RMK AO2 TSNO
94908KDBQ DBQ20020216032510402/16/02 03:25:31  5-MIN KDBQ 160925Z AUTO 26013KT 10SM CLR 03/M03 A2978 1210 64 100 260/13 RMK AO2 TSNO
94908KDBQ DBQ20020216033010402/16/02 03:30:31  5-MIN KDBQ 160930Z AUTO 26013KT 10SM CLR 03/M03 A2978 1210 64 100 260/13 RMK AO2 TSNO
94908KDBQ DBQ20020216033510202/16/02 03:35:31  5-MIN KDBQ 160935Z AUTO 26012KT 10SM CLR 02/M03 A2977 1220 67 0 260/12 RMK AO2 TSNO
94908KDBQ DBQ20020216034010402/16/02 03:40:31  5-MIN KDBQ 160940Z AUTO 26014KT 10SM CLR 03/M03 A2977 1210 64 100 260/14 RMK AO2 TSNO
94908KDBQ DBQ20020216034510402/16/02 03:45:31  5-MIN KDBQ 160945Z AUTO 26012KT 10SM CLR 03/M03 A2977 1220 64 100 260/12 RMK AO2 TSNO
94908KDBQ DBQ20020216035012102/16/02 03:50:31  5-MIN KDBQ 160950Z AUTO 27015KT 10SM CLR 03/M03 A2977 1210 64 100 270/15 RMK AO2 SLP090 T00281033 TSNO
94908KDBQ DBQ20020216035512102/16/02 03:55:31  5-MIN KDBQ 160955Z AUTO 27014KT 10SM CLR 03/M03 A2977 1210 64 100 270/14 RMK AO2 SLP091 T00281033 TSNO
94908KDBQ DBQ20020216040010402/16/02 04:00:31  5-MIN KDBQ 161000Z AUTO 27015KT 10SM CLR 03/M03 A2977 1210 64 100 270/15 RMK AO2 TSNO
94908KDBQ DBQ20020216040511002/16/02 04:05:31  5-MIN KDBQ 161005Z AUTO 27017G21KT 10SM CLR 03/M03 A2977 1210 67 100 270/17G21 RMK AO2 TSNO
94908KDBQ DBQ20020216041011302/16/02 04:10:31  5-MIN KDBQ 161010Z AUTO 27016G21KT 10SM FEW110 03/M03 A2977 1220 64 100 270/16G21 RMK AO2 TSNO
94908KDBQ DBQ20020216041510702/16/02 04:15:31  5-MIN KDBQ 161015Z AUTO 27015KT 10SM FEW110 03/M03 A2977 1210 67 100 270/15 RMK AO2 TSNO
94908KDBQ DBQ20020216042010702/16/02 04:20:31  5-MIN KDBQ 161020Z AUTO 27015KT 10SM FEW110 03/M03 A2977 1210 67 100 270/15 RMK AO2 TSNO
94908KDBQ DBQ20020216042510702/16/02 04:25:31  5-MIN KDBQ 161025Z AUTO 27017KT 10SM FEW110 03/M03 A2977 1210 67 100 270/17 RMK AO2 TSNO
94908KDBQ DBQ20020216043010702/16/02 04:30:31  5-MIN KDBQ 161030Z AUTO 27017KT 10SM FEW110 03/M03 A2978 1210 67 100 270/17 RMK AO2 TSNO
94908KDBQ DBQ20020216043510702/16/02 04:35:31  5-MIN KDBQ 161035Z AUTO 27015KT 10SM FEW110 03/M03 A2978 1210 67 100 270/15 RMK AO2 TSNO
94908KDBQ DBQ20020216044010402/16/02 04:40:31  5-MIN KDBQ 161040Z AUTO 27014KT 10SM CLR 03/M03 A2978 1210 67 100 270/14 RMK AO2 TSNO
94908KDBQ DBQ20020216044510402/16/02 04:45:31  5-MIN KDBQ 161045Z AUTO 27015KT 10SM CLR 03/M03 A2978 1210 67 100 270/15 RMK AO2 TSNO
94908KDBQ DBQ20020216045011902/16/02 04:50:31  5-MIN KDBQ 161050Z AUTO 27016KT 10SM CLR 02/M03 A2978 1210 69 0 270/16 RMK AO2 SLP092 T00221028 TSNO
94908KDBQ DBQ20020216045511902/16/02 04:55:31  5-MIN KDBQ 161055Z AUTO 27015KT 10SM CLR 02/M03 A2978 1210 69 0 270/15 RMK AO2 SLP091 T00221028 TSNO
94908KDBQ DBQ20020216050010202/16/02 05:00:31  5-MIN KDBQ 161100Z AUTO 27015KT 10SM CLR 02/M03 A2977 1210 69 0 270/15 RMK AO2 TSNO
94908KDBQ DBQ20020216050510202/16/02 05:05:31  5-MIN KDBQ 161105Z AUTO 27015KT 10SM CLR 02/M03 A2978 1210 69 0 270/15 RMK AO2 TSNO
94908KDBQ DBQ20020216051010802/16/02 05:10:31  5-MIN KDBQ 161110Z AUTO 27017G21KT 10SM CLR 02/M03 A2978 1210 69 0 270/17G21 RMK AO2 TSNO
94908KDBQ DBQ20020216051510202/16/02 05:15:31  5-MIN KDBQ 161115Z AUTO 27017KT 10SM CLR 02/M03 A2978 1210 69 0 270/17 RMK AO2 TSNO
94908KDBQ DBQ20020216052010202/16/02 05:20:31  5-MIN KDBQ 161120Z AUTO 27015KT 10SM CLR 02/M03 A2978 1210 69 0 270/15 RMK AO2 TSNO
94908KDBQ DBQ20020216052510802/16/02 05:25:31  5-MIN KDBQ 161125Z AUTO 27015G21KT 10SM CLR 02/M03 A2978 1210 69 0 270/15G21 RMK AO2 TSNO
94908KDBQ DBQ20020216053010802/16/02 05:30:31  5-MIN KDBQ 161130Z AUTO 27016G21KT 10SM CLR 02/M03 A2978 1210 69 0 270/16G21 RMK AO2 TSNO
94908KDBQ DBQ20020216053510202/16/02 05:35:31  5-MIN KDBQ 161135Z AUTO 27015KT 10SM CLR 02/M03 A2978 1210 69 0 270/15 RMK AO2 TSNO
94908KDBQ DBQ20020216054010202/16/02 05:40:31  5-MIN KDBQ 161140Z AUTO 27014KT 10SM CLR 02/M03 A2978 1210 69 0 270/14 RMK AO2 TSNO
94908KDBQ DBQ20020216054509202/16/02 05:45:31  5-MIN KDBQ 161145Z 27015KT 10SM CLR 02/M03 A2978 1210 72 0 270/15 RMK AO2
94908KDBQ DBQ20020216055012702/16/02 05:50:31  5-MIN KDBQ 161150Z 28014KT 10SM CLR 02/M03 A2978 1210 72 0 270/14 RMK AO2 SLP095 T00171028 10028 20017 56016
94908KDBQ DBQ20020216055512702/16/02 05:55:31  5-MIN KDBQ 161155Z 27016KT 10SM CLR 02/M03 A2978 1210 72 0 270/16 RMK AO2 SLP095 T00171028 10028 20017 53001
94908KDBQ DBQ20020216060009202/16/02 06:00:31  5-MIN KDBQ 161200Z 28013KT 10SM CLR 02/M03 A2978 1200 72 0 280/13 RMK AO2
94908KDBQ DBQ20020216060509202/16/02 06:05:31  5-MIN KDBQ 161205Z 28015KT 10SM CLR 02/M03 A2979 1200 72 0 280/15 RMK AO2
94908KDBQ DBQ20020216061009202/16/02 06:10:31  5-MIN KDBQ 161210Z 28015KT 10SM CLR 02/M03 A2979 1200 72 0 280/15 RMK AO2
94908KDBQ DBQ20020216061509202/16/02 06:15:31  5-MIN KDBQ 161215Z 28014KT 10SM CLR 02/M03 A2979 1200 72 0 280/14 RMK AO2
94908KDBQ DBQ20020216062009202/16/02 06:20:31  5-MIN KDBQ 161220Z 28014KT 10SM CLR 02/M03 A2978 1200 72 0 270/14 RMK AO2
94908KDBQ DBQ20020216062509202/16/02 06:25:31  5-MIN KDBQ 161225Z 28012KT 10SM CLR 02/M03 A2978 1200 72 0 280/12 RMK AO2
94908KDBQ DBQ20020216063009502/16/02 06:30:31  5-MIN KDBQ 161230Z 28015KT 10SM CLR 01/M03 A2979 1200 75 -100 280/15 RMK AO2
94908KDBQ DBQ20020216063509502/16/02 06:35:31  5-MIN KDBQ 161235Z 28013KT 10SM CLR 01/M03 A2979 1200 75 -100 280/13 RMK AO2
94908KDBQ DBQ20020216064009502/16/02 06:40:31  5-MIN KDBQ 161240Z 28013KT 10SM CLR 01/M03 A2979 1200 75 -100 280/13 RMK AO2
94908KDBQ DBQ20020216064509502/16/02 06:45:31  5-MIN KDBQ 161245Z 28013KT 10SM CLR 01/M03 A2979 1200 75 -100 280/13 RMK AO2
94908KDBQ DBQ20020216065011202/16/02 06:50:31  5-MIN KDBQ 161250Z 28014KT 10SM CLR 01/M03 A2980 1190 75 -100 280/14 RMK AO2 SLP100 T00111028
94908KDBQ DBQ20020216065511202/16/02 06:55:31  5-MIN KDBQ 161255Z 29012KT 10SM CLR 01/M03 A2980 1190 75 -100 280/12 RMK AO2 SLP101 T00111028
94908KDBQ DBQ20020216070009502/16/02 07:00:31  5-MIN KDBQ 161300Z 30012KT 10SM CLR 01/M03 A2981 1180 75 -100 300/12 RMK AO2
94908KDBQ DBQ20020216070509502/16/02 07:05:31  5-MIN KDBQ 161305Z 29011KT 10SM CLR 01/M03 A2981 1190 78 -200 290/11 RMK AO2
94908KDBQ DBQ20020216071009502/16/02 07:10:31  5-MIN KDBQ 161310Z 29013KT 10SM CLR 01/M03 A2981 1180 75 -100 290/13 RMK AO2
94908KDBQ DBQ20020216071509502/16/02 07:15:31  5-MIN KDBQ 161315Z 30012KT 10SM CLR 01/M02 A2981 1180 78 -100 300/12 RMK AO2
94908KDBQ DBQ20020216072009502/16/02 07:20:31  5-MIN KDBQ 161320Z 30011KT 10SM CLR 01/M02 A2981 1180 78 -100 300/11 RMK AO2
94908KDBQ DBQ20020216072509502/16/02 07:25:31  5-MIN KDBQ 161325Z 30013KT 10SM CLR 01/M02 A2981 1180 78 -100 300/13 RMK AO2
94908KDBQ DBQ20020216073009502/16/02 07:30:31  5-MIN KDBQ 161330Z 30015KT 10SM CLR 01/M02 A2982 1170 78 -100 300/15 RMK AO2
94908KDBQ DBQ20020216073509802/16/02 07:35:31  5-MIN KDBQ 161335Z 30016KT 10SM FEW021 02/M02 A2982 1170 75 -100 300/16 RMK AO2
94908KDBQ DBQ20020216074010402/16/02 07:40:31  5-MIN KDBQ 161340Z 31018G22KT 10SM SCT021 02/M02 A2982 1170 75 -100 310/18G22 RMK AO2
94908KDBQ DBQ20020216074510402/16/02 07:45:31  5-MIN KDBQ 161345Z 30015G24KT 10SM SCT021 02/M02 A2982 1170 75 -100 300/15G24 RMK AO2
94908KDBQ DBQ20020216075012102/16/02 07:50:31  5-MIN KDBQ 161350Z 30015G24KT 10SM SCT021 02/M02 A2983 1160 75 -100 300/15G24 RMK AO2 SLP110 T00171022
94908KDBQ DBQ20020216075512102/16/02 07:55:31  5-MIN KDBQ 161355Z 31017G25KT 10SM BKN021 02/M02 A2983 1160 75 -100 310/17G25 RMK AO2 SLP111 T00171022
94908KDBQ DBQ20020216080010402/16/02 08:00:31  5-MIN KDBQ 161400Z 31016G25KT 10SM BKN021 02/M02 A2983 1160 75 -100 310/16G25 RMK AO2
94908KDBQ DBQ20020216080509802/16/02 08:05:31  5-MIN KDBQ 161405Z 32015KT 10SM BKN023 02/M02 A2984 1160 75 -100 320/15 RMK AO2
94908KDBQ DBQ20020216081010102/16/02 08:10:31  5-MIN KDBQ 161410Z 32015G21KT 10SM BKN023 02/M02 A2984 1150 72 0 310/15G21 RMK AO2
94908KDBQ DBQ20020216081509502/16/02 08:15:31  5-MIN KDBQ 161415Z 31016KT 10SM OVC025 02/M02 A2984 1150 72 0 310/16 RMK AO2
94908KDBQ DBQ20020216082009502/16/02 08:20:31  5-MIN KDBQ 161420Z 32015KT 10SM OVC025 02/M02 A2984 1150 72 0 320/15 RMK AO2
94908KDBQ DBQ20020216082509502/16/02 08:25:31  5-MIN KDBQ 161425Z 32017KT 10SM OVC027 02/M02 A2985 1150 72 0 320/17 RMK AO2
94908KDBQ DBQ20020216083009502/16/02 08:30:31  5-MIN KDBQ 161430Z 32014KT 10SM OVC027 02/M02 A2985 1140 72 0 320/14 RMK AO2
94908KDBQ DBQ20020216083510102/16/02 08:35:31  5-MIN KDBQ 161435Z 32017G22KT 10SM OVC029 02/M02 A2985 1140 72 0 320/17G22 RMK AO2
94908KDBQ DBQ20020216084010102/16/02 08:40:31  5-MIN KDBQ 161440Z 32016G22KT 10SM OVC029 02/M02 A2985 1140 72 0 320/16G22 RMK AO2
94908KDBQ DBQ20020216084510802/16/02 08:45:31  5-MIN KDBQ 161445Z 32018G21KT 10SM FEW025 OVC033 02/M02 A2986 1140 72 0 320/18G21 RMK AO2
94908KDBQ DBQ20020216085012102/16/02 08:50:31  5-MIN KDBQ 161450Z 32016KT 10SM OVC033 02/M02 A2986 1130 72 -100 320/16 RMK AO2 SLP121 T00221022 53001
94908KDBQ DBQ20020216085512702/16/02 08:55:31  5-MIN KDBQ 161455Z 31016G24KT 10SM OVC033 02/M03 A2986 1130 69 -100 310/16G24 RMK AO2 SLP121 T00221028 53026
94908KDBQ DBQ20020216090010402/16/02 09:00:31  5-MIN KDBQ 161500Z 32017G24KT 10SM OVC035 02/M03 A2987 1130 69 -100 320/17G24 RMK AO2
94908KDBQ DBQ20020216090510402/16/02 09:05:31  5-MIN KDBQ 161505Z 31016G23KT 10SM OVC035 02/M03 A2987 1130 69 -100 310/16G23 RMK AO2
94908KDBQ DBQ20020216091010402/16/02 09:10:31  5-MIN KDBQ 161510Z 32016G23KT 10SM OVC035 02/M02 A2987 1130 72 -100 320/16G23 RMK AO2
94908KDBQ DBQ20020216091509502/16/02 09:15:31  5-MIN KDBQ 161515Z 32014KT 10SM OVC035 03/M02 A2987 1120 69 0 320/14 RMK AO2
94908KDBQ DBQ20020216092010802/16/02 09:20:31  5-MIN KDBQ 161520Z 32016G21KT 10SM FEW023 OVC037 03/M02 A2988 1120 69 0 320/16G21 RMK AO2
94908KDBQ DBQ20020216092510802/16/02 09:25:31  5-MIN KDBQ 161525Z 32018G22KT 10SM FEW023 OVC037 03/M02 A2988 1120 69 0 320/18G22 RMK AO2
94908KDBQ DBQ20020216093010802/16/02 09:30:31  5-MIN KDBQ 161530Z 32018G22KT 10SM FEW025 BKN037 03/M02 A2988 1120 69 0 320/18G22 RMK AO2
94908KDBQ DBQ20020216093510202/16/02 09:35:31  5-MIN KDBQ 161535Z 32013KT 10SM FEW025 BKN037 03/M02 A2988 1110 69 0 320/13 RMK AO2
94908KDBQ DBQ20020216094010202/16/02 09:40:31  5-MIN KDBQ 161540Z 32019KT 10SM FEW023 OVC037 03/M02 A2988 1110 67 0 320/19 RMK AO2
94908KDBQ DBQ20020216094510202/16/02 09:45:31  5-MIN KDBQ 161545Z 31018KT 10SM FEW023 OVC037 03/M02 A2988 1110 67 0 310/18 RMK AO2
94908KDBQ DBQ20020216095011202/16/02 09:50:31  5-MIN KDBQ 161550Z 32015KT 10SM BKN037 03/M03 A2989 1110 64 0 320/15 RMK AO2 SLP129 T00331028
94908KDBQ DBQ20020216095511902/16/02 09:55:31  5-MIN KDBQ 161555Z 32014KT 10SM FEW027 OVC037 03/M03 A2989 1110 64 0 320/14 RMK AO2 SLP130 T00331028
94908KDBQ DBQ20020216100010802/16/02 10:00:31  5-MIN KDBQ 161600Z 32015G22KT 10SM FEW027 OVC037 03/M02 A2989 1110 67 0 320/15G22 RMK AO2
94908KDBQ DBQ20020216100510802/16/02 10:05:31  5-MIN KDBQ 161605Z 32017G22KT 10SM SCT025 OVC037 03/M02 A2989 1100 67 0 320/17G22 RMK AO2
94908KDBQ DBQ20020216101010202/16/02 10:10:31  5-MIN KDBQ 161610Z 32016KT 10SM SCT025 OVC035 03/M02 A2990 1100 67 0 320/16 RMK AO2
94908KDBQ DBQ20020216101511002/16/02 10:15:31  5-MIN KDBQ 161615Z 31020G23KT 10SM SCT027 OVC035 04/M02 A2990 1100 64 100 310/20G23 RMK AO2
94908KDBQ DBQ20020216102011002/16/02 10:20:31  5-MIN KDBQ 161620Z 32020G25KT 10SM BKN027 OVC035 04/M03 A2990 1100 62 100 320/20G25 RMK AO2
94908KDBQ DBQ20020216102511002/16/02 10:25:31  5-MIN KDBQ 161625Z 32020G25KT 10SM BKN027 OVC035 04/M03 A2990 1090 59 100 320/20G25 RMK AO2
94908KDBQ DBQ20020216103012602/16/02 10:30:31  5-MIN KDBQ 161630Z 32021G28KT 10SM BKN029 OVC036 03/M03 A2990 1090 61 0 320/21G28 RMK AO2 PK WND 31028/1628
94908KDBQ DBQ20020216103512802/16/02 10:35:31  5-MIN KDBQ 161635Z 31022G28KT 10SM BKN029 BKN035 04/M04 A2991 1090 57 100 310/22G28 RMK AO2 PK WND 31028/1628
94908KDBQ DBQ20020216104012802/16/02 10:40:31  5-MIN KDBQ 161640Z 32020G26KT 10SM SCT029 BKN035 04/M03 A2991 1090 57 100 320/20G26 RMK AO2 PK WND 31028/1628
94908KDBQ DBQ20020216104512102/16/02 10:45:31  5-MIN KDBQ 161645Z 33022G27KT 10SM BKN032 04/M03 A2991 1090 57 100 320/22G27 RMK AO2 PK WND 31028/1628
94908KDBQ DBQ20020216105014502/16/02 10:50:31  5-MIN KDBQ 161650Z 32017G27KT 10SM FEW028 BKN032 05/M04 A2991 1090 52 200 320/17G27 RMK AO2 PK WND 31028/1628 SLP136 T00501039
94908KDBQ DBQ20020216105513202/16/02 10:55:31  5-MIN KDBQ 161655Z 32018KT 10SM BKN032 04/M04 A2991 1090 55 100 320/18 RMK AO2 PK WND 31028/1628 SLP138 T00441039
94908KDBQ DBQ20020216110012102/16/02 11:00:31  5-MIN KDBQ 161700Z 31021G26KT 10SM BKN034 04/M04 A2991 1080 55 100 310/21G26 RMK AO2 PK WND 30026/1658
94908KDBQ DBQ20020216110512102/16/02 11:05:31  5-MIN KDBQ 161705Z 32019G26KT 10SM BKN034 04/M04 A2992 1080 55 100 320/19G26 RMK AO2 PK WND 32026/1701
94908KDBQ DBQ20020216111012102/16/02 11:10:31  5-MIN KDBQ 161710Z 34018G26KT 10SM SCT034 05/M04 A2992 1080 52 200 340/18G26 RMK AO2 PK WND 32026/1701
94908KDBQ DBQ20020216111512102/16/02 11:15:31  5-MIN KDBQ 161715Z 31020G24KT 10SM BKN034 05/M04 A2992 1080 52 200 310/20G24 RMK AO2 PK WND 32026/1701
94908KDBQ DBQ20020216112012102/16/02 11:20:31  5-MIN KDBQ 161720Z 32020G25KT 10SM SCT034 05/M04 A2993 1070 50 200 320/20G25 RMK AO2 PK WND 32026/1701
94908KDBQ DBQ20020216112512102/16/02 11:25:31  5-MIN KDBQ 161725Z 34018G25KT 10SM SCT036 05/M04 A2993 1070 50 200 330/18G25 RMK AO2 PK WND 32026/1701
94908KDBQ DBQ20020216113012102/16/02 11:30:31  5-MIN KDBQ 161730Z 32022G31KT 10SM FEW036 05/M04 A2993 1070 50 200 320/22G31 RMK AO2 PK WND 32031/1729
94908KDBQ DBQ20020216113512102/16/02 11:35:31  5-MIN KDBQ 161735Z 32016G31KT 10SM FEW036 05/M05 A2993 1070 48 200 320/16G31 RMK AO2 PK WND 32031/1729
94908KDBQ DBQ20020216114012102/16/02 11:40:31  5-MIN KDBQ 161740Z 31020G25KT 10SM FEW036 06/M05 A2993 1070 46 200 310/20G25 RMK AO2 PK WND 32031/1729
94908KDBQ DBQ20020216114511802/16/02 11:45:31  5-MIN KDBQ 161745Z 32017G25KT 10SM CLR 05/M06 A2993 1070 46 200 320/17G25 RMK AO2 PK WND 32031/1729
94908KDBQ DBQ20020216115015302/16/02 11:50:31  5-MIN KDBQ 161750Z 34020G25KT 10SM CLR 06/M06 A2993 1070 44 200 330/20G25 RMK AO2 PK WND 32031/1729 SLP144 T00561056 10056 20006 53026
94908KDBQ DBQ20020216115515302/16/02 11:55:31  5-MIN KDBQ 161755Z 33015G25KT 10SM CLR 06/M05 A2993 1070 46 200 330/15G25 RMK AO2 PK WND 32031/1729 SLP143 T00561050 10056 20006 51021
94908KDBQ DBQ20020216120009402/16/02 12:00:31  5-MIN KDBQ 161800Z 34016KT 10SM CLR 05/M06 A2993 1070 46 200 340/16 RMK AO2
94908KDBQ DBQ20020216120510002/16/02 12:05:31  5-MIN KDBQ 161805Z 33017G23KT 10SM CLR 06/M05 A2993 1070 46 200 330/17G23 RMK AO2
94908KDBQ DBQ20020216121010002/16/02 12:10:31  5-MIN KDBQ 161810Z 32018G23KT 10SM CLR 06/M06 A2993 1070 44 200 310/18G23 RMK AO2
94908KDBQ DBQ20020216121509402/16/02 12:15:31  5-MIN KDBQ 161815Z 31015KT 10SM CLR 06/M05 A2993 1070 46 200 310/15 RMK AO2
94908KDBQ DBQ20020216122010002/16/02 12:20:31  5-MIN KDBQ 161820Z 32019G25KT 10SM CLR 06/M05 A2993 1070 45 300 320/19G25 RMK AO2
94908KDBQ DBQ20020216122510002/16/02 12:25:31  5-MIN KDBQ 161825Z 32018G25KT 10SM CLR 06/M06 A2993 1070 43 200 310/18G25 RMK AO2
94908KDBQ DBQ20020216123010002/16/02 12:30:31  5-MIN KDBQ 161830Z 31018G23KT 10SM CLR 06/M05 A2992 1070 46 200 310/18G23 RMK AO2
94908KDBQ DBQ20020216123509402/16/02 12:35:31  5-MIN KDBQ 161835Z 31016KT 10SM CLR 06/M06 A2993 1070 43 300 310/16 RMK AO2
94908KDBQ DBQ20020216124009402/16/02 12:40:31  5-MIN KDBQ 161840Z 31016KT 10SM CLR 06/M06 A2993 1070 43 300 310/16 RMK AO2
94908KDBQ DBQ20020216124509402/16/02 12:45:31  5-MIN KDBQ 161845Z 31016KT 10SM CLR 06/M06 A2993 1070 44 200 310/16 RMK AO2
94908KDBQ DBQ20020216125011102/16/02 12:50:31  5-MIN KDBQ 161850Z 31017KT 10SM CLR 06/M06 A2993 1070 43 300 310/17 RMK AO2 SLP144 T00611056
94908KDBQ DBQ20020216125511102/16/02 12:55:31  5-MIN KDBQ 161855Z 33015KT 10SM CLR 06/M05 A2993 1070 45 300 330/15 RMK AO2 SLP144 T00611050
94908KDBQ DBQ20020216130010002/16/02 13:00:31  5-MIN KDBQ 161900Z 31017G22KT 10SM CLR 06/M04 A2993 1070 46 300 310/17G22 RMK AO2
94908KDBQ DBQ20020216130510002/16/02 13:05:31  5-MIN KDBQ 161905Z 31013G22KT 10SM CLR 06/M05 A2994 1060 45 300 300/13G22 RMK AO2
94908KDBQ DBQ20020216131009402/16/02 13:10:31  5-MIN KDBQ 161910Z 32013KT 10SM CLR 06/M05 A2994 1060 45 300 320/13 RMK AO2
94908KDBQ DBQ20020216131510002/16/02 13:15:31  5-MIN KDBQ 161915Z 32018G24KT 10SM CLR 06/M06 A2994 1060 43 300 320/18G24 RMK AO2
94908KDBQ DBQ20020216132010002/16/02 13:20:31  5-MIN KDBQ 161920Z 31016G24KT 10SM CLR 06/M05 A2994 1060 45 300 310/16G24 RMK AO2
94908KDBQ DBQ20020216132509402/16/02 13:25:31  5-MIN KDBQ 161925Z 30017KT 10SM CLR 06/M05 A2994 1060 45 300 300/17 RMK AO2
94908KDBQ DBQ20020216133010002/16/02 13:30:31  5-MIN KDBQ 161930Z 30017G22KT 10SM CLR 06/M04 A2994 1060 46 300 300/17G22 RMK AO2
94908KDBQ DBQ20020216133510002/16/02 13:35:31  5-MIN KDBQ 161935Z 30018G22KT 10SM CLR 06/M04 A2994 1060 46 300 300/18G22 RMK AO2
94908KDBQ DBQ20020216134009402/16/02 13:40:31  5-MIN KDBQ 161940Z 31015KT 10SM CLR 06/M04 A2994 1060 46 300 310/15 RMK AO2
94908KDBQ DBQ20020216134510002/16/02 13:45:31  5-MIN KDBQ 161945Z 31019G24KT 10SM CLR 06/M05 A2994 1060 45 300 310/19G24 RMK AO2
94908KDBQ DBQ20020216135011702/16/02 13:50:31  5-MIN KDBQ 161950Z 29015G24KT 10SM CLR 06/M04 A2994 1060 46 300 290/15G24 RMK AO2 SLP148 T00611044
94908KDBQ DBQ20020216135511702/16/02 13:55:31  5-MIN KDBQ 161955Z 31017G24KT 10SM CLR 06/M05 A2995 1050 45 300 310/17G24 RMK AO2 SLP149 T00611050
94908KDBQ DBQ20020216140010302/16/02 14:00:31  5-MIN KDBQ 162000Z 32014G24KT 10SM FEW047 06/M05 A2995 1050 45 300 320/14G24 RMK AO2
94908KDBQ DBQ20020216140509702/16/02 14:05:31  5-MIN KDBQ 162005Z 31015KT 10SM FEW047 06/M05 A2994 1060 45 300 310/15 RMK AO2
94908KDBQ DBQ20020216141009702/16/02 14:10:31  5-MIN KDBQ 162010Z 30016KT 10SM FEW047 06/M05 A2995 1060 45 300 300/16 RMK AO2
94908KDBQ DBQ20020216141509702/16/02 14:15:31  5-MIN KDBQ 162015Z 32014KT 10SM SCT049 06/M06 A2994 1060 43 300 320/14 RMK AO2
94908KDBQ DBQ20020216142009702/16/02 14:20:31  5-MIN KDBQ 162020Z 31015KT 10SM FEW049 06/M06 A2995 1050 43 300 310/15 RMK AO2
94908KDBQ DBQ20020216142509702/16/02 14:25:31  5-MIN KDBQ 162025Z 32017KT 10SM FEW049 06/M06 A2995 1050 41 300 320/17 RMK AO2
94908KDBQ DBQ20020216143010302/16/02 14:30:31  5-MIN KDBQ 162030Z 33016G20KT 10SM FEW049 07/M05 A2995 1050 43 300 320/16G20 RMK AO2
94908KDBQ DBQ20020216143510302/16/02 14:35:31  5-MIN KDBQ 162035Z 30014G20KT 10SM SCT049 06/M05 A2995 1050 45 300 300/14G20 RMK AO2
94908KDBQ DBQ20020216144010302/16/02 14:40:31  5-MIN KDBQ 162040Z 31015G22KT 10SM FEW049 06/M05 A2995 1050 45 300 310/15G22 RMK AO2
94908KDBQ DBQ20020216144509702/16/02 14:45:31  5-MIN KDBQ 162045Z 29020KT 10SM FEW049 06/M05 A2996 1050 45 300 280/20 RMK AO2
94908KDBQ DBQ20020216145012002/16/02 14:50:31  5-MIN KDBQ 162050Z 32016KT 10SM FEW049 06/M06 A2996 1040 43 300 320/16 RMK AO2 SLP154 T00611056 51021
94908KDBQ DBQ20020216145512602/16/02 14:55:31  5-MIN KDBQ 162055Z 31020G25KT 10SM FEW049 06/M06 A2996 1040 43 300 310/20G25 RMK AO2 SLP154 T00611056 53011
94908KDBQ DBQ20020216150010002/16/02 15:00:31  5-MIN KDBQ 162100Z 30017G25KT 10SM CLR 06/M06 A2996 1040 43 300 300/17G25 RMK AO2
94908KDBQ DBQ20020216150510002/16/02 15:05:31  5-MIN KDBQ 162105Z 30018G23KT 10SM CLR 06/M06 A2996 1040 41 300 300/18G23 RMK AO2
94908KDBQ DBQ20020216151010002/16/02 15:10:31  5-MIN KDBQ 162110Z 31019G24KT 10SM CLR 06/M06 A2996 1040 41 300 310/19G24 RMK AO2
94908KDBQ DBQ20020216151509402/16/02 15:15:31  5-MIN KDBQ 162115Z 32020KT 10SM CLR 06/M06 A2997 1030 44 200 320/20 RMK AO2
94908KDBQ DBQ20020216152009402/16/02 15:20:31  5-MIN KDBQ 162120Z 31014KT 10SM CLR 06/M06 A2997 1030 43 300 310/14 RMK AO2
94908KDBQ DBQ20020216152510002/16/02 15:25:31  5-MIN KDBQ 162125Z 32016G21KT 10SM CLR 06/M06 A2997 1040 44 200 320/16G21 RMK AO2
94908KDBQ DBQ20020216153010302/16/02 15:30:31  5-MIN KDBQ 162130Z 30013G21KT 10SM FEW048 05/M06 A2997 1030 46 100 300/13G21 RMK AO2
94908KDBQ DBQ20020216153510302/16/02 15:35:31  5-MIN KDBQ 162135Z 30016G21KT 10SM FEW048 06/M06 A2997 1030 44 200 300/16G21 RMK AO2
94908KDBQ DBQ20020216154009702/16/02 15:40:31  5-MIN KDBQ 162140Z 32016KT 10SM FEW048 05/M06 A2997 1030 46 100 320/16 RMK AO2
94908KDBQ DBQ20020216154509702/16/02 15:45:31  5-MIN KDBQ 162145Z 31012KT 10SM SCT048 05/M05 A2997 1030 48 100 310/12 RMK AO2
94908KDBQ DBQ20020216155011402/16/02 15:50:31  5-MIN KDBQ 162150Z 31019KT 10SM SCT048 05/M05 A2998 1030 48 100 310/19 RMK AO2 SLP160 T00501050
94908KDBQ DBQ20020216155511202/16/02 15:55:31  5-MIN KDBQ 162155Z 31014KT 10SM BKN048 04/M05 A2999 1020 50 0 310/14 RMK AO2 SLP163 T00441050
94908KDBQ DBQ20020216160010102/16/02 16:00:31  5-MIN KDBQ 162200Z 31015G21KT 10SM BKN050 04/M05 A2999 1010 50 0 310/15G21 RMK AO2
94908KDBQ DBQ20020216160509502/16/02 16:05:31  5-MIN KDBQ 162205Z 30014KT 10SM BKN050 04/M05 A2999 1010 50 0 300/14 RMK AO2
94908KDBQ DBQ20020216161009502/16/02 16:10:31  5-MIN KDBQ 162210Z 30014KT 10SM BKN050 04/M05 A3000 1010 50 0 300/14 RMK AO2
94908KDBQ DBQ20020216161509702/16/02 16:15:31  5-MIN KDBQ 162215Z 29018KT 10SM BKN050 05/M04 A3000 1010 50 100 290/18 RMK AO2
94908KDBQ DBQ20020216162009702/16/02 16:20:31  5-MIN KDBQ 162220Z 30017KT 10SM BKN048 05/M05 A3000 1000 48 100 300/17 RMK AO2
94908KDBQ DBQ20020216162509702/16/02 16:25:31  5-MIN KDBQ 162225Z 29016KT 10SM BKN048 05/M05 A3000 1000 48 100 290/16 RMK AO2
94908KDBQ DBQ20020216163009502/16/02 16:30:31  5-MIN KDBQ 162230Z 30017KT 10SM BKN046 04/M06 A3001 1000 48 0 300/17 RMK AO2
94908KDBQ DBQ20020216163509502/16/02 16:35:31  5-MIN KDBQ 162235Z 31016KT 10SM BKN046 04/M05 A3001 1000 52 0 310/16 RMK AO2
94908KDBQ DBQ20020216164009502/16/02 16:40:31  5-MIN KDBQ 162240Z 31015KT 10SM BKN044 04/M05 A3001 1000 52 0 310/15 RMK AO2
94908KDBQ DBQ20020216164509402/16/02 16:45:31  5-MIN KDBQ 162245Z 30017KT 10SM BKN044 04/M05 A3001 990 52 0 300/17 RMK AO2
94908KDBQ DBQ20020216165011102/16/02 16:50:31  5-MIN KDBQ 162250Z 30014KT 10SM BKN044 04/M05 A3001 990 52 0 300/14 RMK AO2 SLP172 T00391050
94908KDBQ DBQ20020216165511102/16/02 16:55:31  5-MIN KDBQ 162255Z 30013KT 10SM SCT044 04/M05 A3001 990 52 0 300/13 RMK AO2 SLP172 T00391050
94908KDBQ DBQ20020216170009402/16/02 17:00:31  5-MIN KDBQ 162300Z 30013KT 10SM SCT046 04/M05 A3001 990 52 0 300/13 RMK AO2
94908KDBQ DBQ20020216170509702/16/02 17:05:31  5-MIN KDBQ 162305Z 31012KT 10SM FEW044 03/M05 A3002 990 54 -100 310/12 RMK AO2
94908KDBQ DBQ20020216171009702/16/02 17:10:31  5-MIN KDBQ 162310Z 32012KT 10SM FEW044 03/M05 A3002 990 54 -100 320/12 RMK AO2
94908KDBQ DBQ20020216171509702/16/02 17:15:31  5-MIN KDBQ 162315Z 32011KT 10SM FEW044 03/M04 A3002 990 57 -100 320/11 RMK AO2
94908KDBQ DBQ20020216172009702/16/02 17:20:31  5-MIN KDBQ 162320Z 32011KT 10SM FEW044 03/M04 A3002 990 59 -200 320/11 RMK AO2
94908KDBQ DBQ20020216172509702/16/02 17:25:31  5-MIN KDBQ 162325Z 31010KT 10SM FEW044 03/M04 A3002 990 59 -200 310/10 RMK AO2
94908KDBQ DBQ20020216173009702/16/02 17:30:31  5-MIN KDBQ 162330Z 31010KT 10SM FEW044 03/M04 A3002 990 59 -200 310/10 RMK AO2
94908KDBQ DBQ20020216173509402/16/02 17:35:31  5-MIN KDBQ 162335Z 30012KT 10SM CLR 03/M05 A3002 980 56 -200 300/12 RMK AO2
94908KDBQ DBQ20020216174009402/16/02 17:40:31  5-MIN KDBQ 162340Z 31012KT 10SM CLR 03/M05 A3002 980 56 -200 310/12 RMK AO2
94908KDBQ DBQ20020216174509402/16/02 17:45:31  5-MIN KDBQ 162345Z 31011KT 10SM CLR 02/M04 A3003 980 61 -200 310/11 RMK AO2
94908KDBQ DBQ20020216175012902/16/02 17:50:31  5-MIN KDBQ 162350Z 31009KT 10SM CLR 02/M04 A3003 980 61 -200 310/09 RMK AO2 SLP178 T00221044 10067 20022 53011
94908KDBQ DBQ20020216175512902/16/02 17:55:31  5-MIN KDBQ 162355Z 31009KT 10SM CLR 02/M04 A3003 980 64 -300 310/09 RMK AO2 SLP180 T00171044 10067 20017 51022
94908KDBQ DBQ20020216180009402/16/02 18:00:31  5-MIN KDBQ 170000Z 30008KT 10SM CLR 02/M04 A3003 980 61 -200 300/08 RMK AO2
94908KDBQ DBQ20020216180509702/16/02 18:05:31  5-MIN KDBQ 170005Z 31008KT 10SM FEW050 02/M04 A3003 980 64 -300 300/08 RMK AO2
94908KDBQ DBQ20020216181009702/16/02 18:10:31  5-MIN KDBQ 170010Z 31007KT 10SM SCT050 02/M04 A3003 970 61 -300 310/07 RMK AO2
94908KDBQ DBQ20020216181509702/16/02 18:15:31  5-MIN KDBQ 170015Z 31007KT 10SM BKN050 02/M04 A3004 970 61 -300 310/07 RMK AO2
94908KDBQ DBQ20020216182009702/16/02 18:20:31  5-MIN KDBQ 170020Z 31008KT 10SM BKN050 02/M04 A3004 970 61 -300 310/08 RMK AO2
94908KDBQ DBQ20020216182509702/16/02 18:25:31  5-MIN KDBQ 170025Z 31007KT 10SM BKN050 02/M04 A3004 970 61 -300 310/07 RMK AO2
94908KDBQ DBQ20020216183009702/16/02 18:30:31  5-MIN KDBQ 170030Z 31006KT 10SM OVC050 02/M04 A3004 970 61 -300 310/06 RMK AO2
94908KDBQ DBQ20020216183510402/16/02 18:35:31  5-MIN KDBQ 170035Z 31007KT 10SM SCT045 OVC050 02/M04 A3004 970 61 -300 310/07 RMK AO2
94908KDBQ DBQ20020216184010402/16/02 18:40:31  5-MIN KDBQ 170040Z 31007KT 10SM FEW043 OVC050 02/M04 A3004 970 61 -300 310/07 RMK AO2
94908KDBQ DBQ20020216184510402/16/02 18:45:31  5-MIN KDBQ 170045Z 31007KT 10SM FEW043 OVC050 02/M04 A3004 970 61 -300 310/07 RMK AO2
94908KDBQ DBQ20020216185012102/16/02 18:50:31  5-MIN KDBQ 170050Z 30008KT 10SM FEW043 OVC050 03/M04 A3004 970 61 -200 300/08 RMK AO2 SLP183 T00281039
94908KDBQ DBQ20020216185512102/16/02 18:55:31  5-MIN KDBQ 170055Z 30007KT 10SM FEW043 OVC050 02/M04 A3004 960 64 -300 300/07 RMK AO2 SLP185 T00221039
94908KDBQ DBQ20020216190010402/16/02 19:00:31  5-MIN KDBQ 170100Z 30006KT 10SM FEW043 OVC050 02/M04 A3005 960 61 -300 300/06 RMK AO2
94908KDBQ DBQ20020216190510402/16/02 19:05:31  5-MIN KDBQ 170105Z 30006KT 10SM FEW043 OVC050 02/M04 A3005 960 64 -300 300/06 RMK AO2
94908KDBQ DBQ20020216191009702/16/02 19:10:31  5-MIN KDBQ 170110Z 31008KT 10SM OVC050 02/M04 A3005 960 61 -300 300/08 RMK AO2
94908KDBQ DBQ20020216191509702/16/02 19:15:31  5-MIN KDBQ 170115Z 31010KT 10SM OVC050 02/M04 A3004 960 61 -300 310/10 RMK AO2
94908KDBQ DBQ20020216192009702/16/02 19:20:31  5-MIN KDBQ 170120Z 32010KT 10SM OVC050 02/M04 A3005 960 64 -300 320/10 RMK AO2
94908KDBQ DBQ20020216192509702/16/02 19:25:31  5-MIN KDBQ 170125Z 31009KT 10SM BKN050 02/M04 A3005 960 64 -300 310/09 RMK AO2
94908KDBQ DBQ20020216193009702/16/02 19:30:31  5-MIN KDBQ 170130Z 31009KT 10SM SCT050 02/M04 A3005 960 66 -300 310/09 RMK AO2
94908KDBQ DBQ20020216193509702/16/02 19:35:31  5-MIN KDBQ 170135Z 32008KT 10SM SCT050 01/M04 A3005 960 66 -400 320/08 RMK AO2
94908KDBQ DBQ20020216194009702/16/02 19:40:31  5-MIN KDBQ 170140Z 32009KT 10SM FEW050 02/M04 A3005 960 66 -300 320/09 RMK AO2
94908KDBQ DBQ20020216194509702/16/02 19:45:31  5-MIN KDBQ 170145Z 32009KT 10SM FEW050 02/M04 A3005 960 66 -300 320/09 RMK AO2
94908KDBQ DBQ20020216195012102/16/02 19:50:31  5-MIN KDBQ 170150Z AUTO 32010KT 10SM CLR 02/M04 A3005 960 66 -300 320/10 RMK AO2 SLP187 T00171039 TSNO
94908KDBQ DBQ20020216195512102/16/02 19:55:31  5-MIN KDBQ 170155Z AUTO 32008KT 10SM CLR 02/M04 A3005 960 66 -300 320/08 RMK AO2 SLP187 T00171039 TSNO
94908KDBQ DBQ20020216200010402/16/02 20:00:31  5-MIN KDBQ 170200Z AUTO 32009KT 10SM CLR 02/M04 A3005 960 66 -300 310/09 RMK AO2 TSNO
94908KDBQ DBQ20020216200510402/16/02 20:05:31  5-MIN KDBQ 170205Z AUTO 32008KT 10SM CLR 01/M04 A3005 960 69 -400 320/08 RMK AO2 TSNO
94908KDBQ DBQ20020216201010402/16/02 20:10:31  5-MIN KDBQ 170210Z AUTO 32008KT 10SM CLR 02/M04 A3005 960 66 -300 320/08 RMK AO2 TSNO
94908KDBQ DBQ20020216201510402/16/02 20:15:31  5-MIN KDBQ 170215Z AUTO 32008KT 10SM CLR 02/M04 A3005 960 66 -300 310/08 RMK AO2 TSNO
94908KDBQ DBQ20020216202010402/16/02 20:20:31  5-MIN KDBQ 170220Z AUTO 32009KT 10SM CLR 01/M04 A3005 960 69 -400 310/09 RMK AO2 TSNO
94908KDBQ DBQ20020216202510402/16/02 20:25:31  5-MIN KDBQ 170225Z AUTO 31008KT 10SM CLR 01/M04 A3005 960 66 -400 310/08 RMK AO2 TSNO
94908KDBQ DBQ20020216203010402/16/02 20:30:31  5-MIN KDBQ 170230Z AUTO 30007KT 10SM CLR 01/M04 A3005 960 66 -400 300/07 RMK AO2 TSNO
94908KDBQ DBQ20020216203510402/16/02 20:35:31  5-MIN KDBQ 170235Z AUTO 30008KT 10SM CLR 01/M04 A3005 960 69 -500 300/08 RMK AO2 TSNO
94908KDBQ DBQ20020216204010402/16/02 20:40:31  5-MIN KDBQ 170240Z AUTO 30007KT 10SM CLR 01/M04 A3005 960 69 -500 300/07 RMK AO2 TSNO
94908KDBQ DBQ20020216204510402/16/02 20:45:31  5-MIN KDBQ 170245Z AUTO 30008KT 10SM CLR 01/M04 A3005 960 69 -500 300/08 RMK AO2 TSNO
94908KDBQ DBQ20020216205012702/16/02 20:50:31  5-MIN KDBQ 170250Z AUTO 30009KT 10SM CLR 01/M04 A3005 960 66 -400 300/09 RMK AO2 SLP187 T00111044 51022 TSNO
94908KDBQ DBQ20020216205512702/16/02 20:55:31  5-MIN KDBQ 170255Z AUTO 30010KT 10SM CLR 01/M04 A3005 950 66 -400 300/10 RMK AO2 SLP188 T00111044 51008 TSNO
94908KDBQ DBQ20020216210010402/16/02 21:00:31  5-MIN KDBQ 170300Z AUTO 31010KT 10SM CLR 01/M04 A3006 950 66 -400 310/10 RMK AO2 TSNO
94908KDBQ DBQ20020216210510402/16/02 21:05:31  5-MIN KDBQ 170305Z AUTO 31013KT 10SM CLR 01/M04 A3006 950 66 -400 310/13 RMK AO2 TSNO
94908KDBQ DBQ20020216211010402/16/02 21:10:31  5-MIN KDBQ 170310Z AUTO 31012KT 10SM CLR 01/M04 A3006 950 66 -400 310/12 RMK AO2 TSNO
94908KDBQ DBQ20020216211510402/16/02 21:15:31  5-MIN KDBQ 170315Z AUTO 32013KT 10SM CLR 01/M04 A3006 950 66 -400 320/13 RMK AO2 TSNO
94908KDBQ DBQ20020216212010402/16/02 21:20:31  5-MIN KDBQ 170320Z AUTO 31012KT 10SM CLR 01/M04 A3006 950 66 -400 310/12 RMK AO2 TSNO
94908KDBQ DBQ20020216212510402/16/02 21:25:31  5-MIN KDBQ 170325Z AUTO 32009KT 10SM CLR 01/M04 A3006 950 66 -400 320/09 RMK AO2 TSNO
94908KDBQ DBQ20020216213010402/16/02 21:30:31  5-MIN KDBQ 170330Z AUTO 32010KT 10SM CLR 01/M05 A3006 950 64 -400 310/10 RMK AO2 TSNO
94908KDBQ DBQ20020216213510402/16/02 21:35:31  5-MIN KDBQ 170335Z AUTO 32010KT 10SM CLR 01/M05 A3006 950 64 -400 320/10 RMK AO2 TSNO
94908KDBQ DBQ20020216214010402/16/02 21:40:31  5-MIN KDBQ 170340Z AUTO 32011KT 10SM CLR 01/M05 A3006 950 64 -400 320/11 RMK AO2 TSNO
94908KDBQ DBQ20020216214510402/16/02 21:45:31  5-MIN KDBQ 170345Z AUTO 31010KT 10SM CLR 01/M06 A3006 950 61 -400 310/10 RMK AO2 TSNO
94908KDBQ DBQ20020216215012102/16/02 21:50:31  5-MIN KDBQ 170350Z AUTO 31009KT 10SM CLR 01/M06 A3006 950 63 -500 310/09 RMK AO2 SLP190 T00061056 TSNO
94908KDBQ DBQ20020216215512102/16/02 21:55:31  5-MIN KDBQ 170355Z AUTO 31008KT 10SM CLR 01/M06 A3006 950 63 -500 310/08 RMK AO2 SLP190 T00061056 TSNO
94908KDBQ DBQ20020216220010402/16/02 22:00:31  5-MIN KDBQ 170400Z AUTO 31010KT 10SM CLR 01/M06 A3006 950 63 -500 310/10 RMK AO2 TSNO
94908KDBQ DBQ20020216220510402/16/02 22:05:31  5-MIN KDBQ 170405Z AUTO 32009KT 10SM CLR 01/M06 A3006 950 63 -500 310/09 RMK AO2 TSNO
94908KDBQ DBQ20020216221010402/16/02 22:10:31  5-MIN KDBQ 170410Z AUTO 31008KT 10SM CLR 01/M06 A3006 950 63 -500 310/08 RMK AO2 TSNO
94908KDBQ DBQ20020216221510402/16/02 22:15:31  5-MIN KDBQ 170415Z AUTO 30008KT 10SM CLR 01/M06 A3006 950 63 -500 300/08 RMK AO2 TSNO
94908KDBQ DBQ20020216222010402/16/02 22:20:31  5-MIN KDBQ 170420Z AUTO 31008KT 10SM CLR 00/M06 A3006 950 66 -600 310/08 RMK AO2 TSNO
94908KDBQ DBQ20020216222510402/16/02 22:25:31  5-MIN KDBQ 170425Z AUTO 31009KT 10SM CLR 00/M06 A3006 950 66 -600 310/09 RMK AO2 TSNO
94908KDBQ DBQ20020216223010402/16/02 22:30:31  5-MIN KDBQ 170430Z AUTO 31009KT 10SM CLR 00/M05 A3006 950 69 -600 310/09 RMK AO2 TSNO
94908KDBQ DBQ20020216223510402/16/02 22:35:31  5-MIN KDBQ 170435Z AUTO 31009KT 10SM CLR 01/M05 A3006 950 66 -500 310/09 RMK AO2 TSNO
94908KDBQ DBQ20020216224010402/16/02 22:40:31  5-MIN KDBQ 170440Z AUTO 31010KT 10SM CLR 01/M05 A3006 950 66 -500 310/10 RMK AO2 TSNO
94908KDBQ DBQ20020216224510402/16/02 22:45:31  5-MIN KDBQ 170445Z AUTO 31010KT 10SM CLR 01/M05 A3007 940 66 -500 310/10 RMK AO2 TSNO
94908KDBQ DBQ20020216225012102/16/02 22:50:31  5-MIN KDBQ 170450Z AUTO 31010KT 10SM CLR 01/M05 A3007 940 66 -500 310/10 RMK AO2 SLP192 T00061050 TSNO
94908KDBQ DBQ20020216225512102/16/02 22:55:31  5-MIN KDBQ 170455Z AUTO 31010KT 10SM CLR 01/M05 A3007 940 66 -500 310/10 RMK AO2 SLP192 T00061050 TSNO
94908KDBQ DBQ20020216230010402/16/02 23:00:31  5-MIN KDBQ 170500Z AUTO 31010KT 10SM CLR 01/M05 A3007 940 66 -500 310/10 RMK AO2 TSNO
94908KDBQ DBQ20020216230510402/16/02 23:05:31  5-MIN KDBQ 170505Z AUTO 31011KT 10SM CLR 01/M05 A3007 940 66 -500 310/11 RMK AO2 TSNO
94908KDBQ DBQ20020216231010402/16/02 23:10:31  5-MIN KDBQ 170510Z AUTO 31009KT 10SM CLR 01/M05 A3007 940 66 -500 310/09 RMK AO2 TSNO
94908KDBQ DBQ20020216231510402/16/02 23:15:31  5-MIN KDBQ 170515Z AUTO 31011KT 10SM CLR 01/M05 A3007 940 66 -500 310/11 RMK AO2 TSNO
94908KDBQ DBQ20020216232010402/16/02 23:20:31  5-MIN KDBQ 170520Z AUTO 31011KT 10SM CLR 01/M05 A3007 940 66 -500 310/11 RMK AO2 TSNO
94908KDBQ DBQ20020216232510402/16/02 23:25:31  5-MIN KDBQ 170525Z AUTO 31014KT 10SM CLR 01/M06 A3007 940 61 -400 310/14 RMK AO2 TSNO
94908KDBQ DBQ20020216233010402/16/02 23:30:31  5-MIN KDBQ 170530Z AUTO 31011KT 10SM CLR 01/M05 A3007 940 66 -500 310/11 RMK AO2 TSNO
94908KDBQ DBQ20020216233510402/16/02 23:35:31  5-MIN KDBQ 170535Z AUTO 32011KT 10SM CLR 01/M05 A3008 930 66 -500 320/11 RMK AO2 TSNO
94908KDBQ DBQ20020216234010402/16/02 23:40:31  5-MIN KDBQ 170540Z AUTO 33014KT 10SM CLR 01/M05 A3008 930 64 -400 320/14 RMK AO2 TSNO
94908KDBQ DBQ20020216234510402/16/02 23:45:31  5-MIN KDBQ 170545Z AUTO 33012KT 10SM CLR 01/M05 A3008 930 64 -400 330/12 RMK AO2 TSNO
94908KDBQ DBQ20020216235014902/16/02 23:50:31  5-MIN KDBQ 170550Z AUTO 33013KT 10SM CLR 01/M05 A3009 930 66 -500 330/13 RMK AO2 SLP197 T00061050 10028 20000 400670000 51008 TSNO
94908KDBQ DBQ20020216235514902/16/02 23:55:31  5-MIN KDBQ 170555Z AUTO 33013KT 10SM CLR 01/M05 A3009 920 66 -500 330/13 RMK AO2 SLP198 T00061050 10028 20000 400670000 53011 TSNO
94908KDBQ DBQ20020217000010402/17/02 00:00:31  5-MIN KDBQ 170600Z AUTO 33011KT 10SM CLR 01/M05 A3009 920 66 -500 330/11 RMK AO2 TSNO
94908KDBQ DBQ20020217000510402/17/02 00:05:31  5-MIN KDBQ 170605Z AUTO 33012KT 10SM CLR 01/M05 A3009 920 66 -500 330/12 RMK AO2 TSNO
94908KDBQ DBQ20020217001010402/17/02 00:10:31  5-MIN KDBQ 170610Z AUTO 33011KT 10SM CLR 00/M05 A3009 920 69 -600 330/11 RMK AO2 TSNO
94908KDBQ DBQ20020217001510402/17/02 00:15:31  5-MIN KDBQ 170615Z AUTO 33011KT 10SM CLR 01/M05 A3009 920 66 -500 330/11 RMK AO2 TSNO
94908KDBQ DBQ20020217002010402/17/02 00:20:31  5-MIN KDBQ 170620Z AUTO 33012KT 10SM CLR 01/M05 A3009 920 66 -500 330/12 RMK AO2 TSNO
94908KDBQ DBQ20020217002510402/17/02 00:25:31  5-MIN KDBQ 170625Z AUTO 33011KT 10SM CLR 00/M05 A3010 920 69 -600 330/11 RMK AO2 TSNO
94908KDBQ DBQ20020217003010402/17/02 00:30:31  5-MIN KDBQ 170630Z AUTO 33010KT 10SM CLR 00/M05 A3010 920 69 -600 330/10 RMK AO2 TSNO
94908KDBQ DBQ20020217003510402/17/02 00:35:31  5-MIN KDBQ 170635Z AUTO 32010KT 10SM CLR 00/M05 A3010 920 69 -600 320/10 RMK AO2 TSNO
94908KDBQ DBQ20020217004010402/17/02 00:40:31  5-MIN KDBQ 170640Z AUTO 33011KT 10SM CLR 00/M05 A3010 920 69 -600 330/11 RMK AO2 TSNO
94908KDBQ DBQ20020217004510402/17/02 00:45:31  5-MIN KDBQ 170645Z AUTO 33010KT 10SM CLR 00/M05 A3010 910 69 -600 330/10 RMK AO2 TSNO
94908KDBQ DBQ20020217005012102/17/02 00:50:31  5-MIN KDBQ 170650Z AUTO 33010KT 10SM CLR 00/M05 A3010 910 69 -600 330/10 RMK AO2 SLP201 T00001050 TSNO
94908KDBQ DBQ20020217005512102/17/02 00:55:31  5-MIN KDBQ 170655Z AUTO 33010KT 10SM CLR 00/M05 A3010 910 69 -600 330/10 RMK AO2 SLP201 T00001050 TSNO
94908KDBQ DBQ20020217010010502/17/02 01:00:31  5-MIN KDBQ 170700Z AUTO 33010KT 10SM CLR M01/M05 A3010 910 72 -700 330/10 RMK AO2 TSNO
94908KDBQ DBQ20020217010510502/17/02 01:05:31  5-MIN KDBQ 170705Z AUTO 33010KT 10SM CLR M01/M05 A3010 910 72 -700 330/10 RMK AO2 TSNO
94908KDBQ DBQ20020217011010502/17/02 01:10:31  5-MIN KDBQ 170710Z AUTO 33009KT 10SM CLR M01/M05 A3010 910 72 -700 330/09 RMK AO2 TSNO
94908KDBQ DBQ20020217011510502/17/02 01:15:31  5-MIN KDBQ 170715Z AUTO 33010KT 10SM CLR M01/M05 A3011 910 72 -700 330/10 RMK AO2 TSNO
94908KDBQ DBQ20020217012010502/17/02 01:20:31  5-MIN KDBQ 170720Z AUTO 32009KT 10SM CLR M01/M05 A3011 900 72 -700 320/09 RMK AO2 TSNO
94908KDBQ DBQ20020217012510502/17/02 01:25:31  5-MIN KDBQ 170725Z AUTO 33009KT 10SM CLR M01/M05 A3011 900 72 -700 320/09 RMK AO2 TSNO
94908KDBQ DBQ20020217013010502/17/02 01:30:31  5-MIN KDBQ 170730Z AUTO 33008KT 10SM CLR M01/M05 A3011 900 72 -700 330/08 RMK AO2 TSNO
94908KDBQ DBQ20020217013510502/17/02 01:35:31  5-MIN KDBQ 170735Z AUTO 33008KT 10SM CLR M01/M06 A3011 900 72 -800 330/08 RMK AO2 TSNO
94908KDBQ DBQ20020217014010502/17/02 01:40:31  5-MIN KDBQ 170740Z AUTO 33008KT 10SM CLR M01/M06 A3011 900 72 -800 330/08 RMK AO2 TSNO
94908KDBQ DBQ20020217014510502/17/02 01:45:31  5-MIN KDBQ 170745Z AUTO 33008KT 10SM CLR M01/M06 A3012 900 72 -800 330/08 RMK AO2 TSNO
94908KDBQ DBQ20020217015012202/17/02 01:50:31  5-MIN KDBQ 170750Z AUTO 34009KT 10SM CLR M01/M05 A3012 900 72 -700 340/09 RMK AO2 SLP209 T10061050 TSNO
94908KDBQ DBQ20020217015512202/17/02 01:55:31  5-MIN KDBQ 170755Z AUTO 34009KT 10SM CLR M01/M05 A3012 890 75 -800 340/09 RMK AO2 SLP210 T10111050 TSNO
94908KDBQ DBQ20020217020010502/17/02 02:00:31  5-MIN KDBQ 170800Z AUTO 33010KT 10SM CLR M01/M05 A3012 890 75 -800 330/10 RMK AO2 TSNO
94908KDBQ DBQ20020217020510502/17/02 02:05:31  5-MIN KDBQ 170805Z AUTO 33010KT 10SM CLR M01/M05 A3013 890 75 -800 330/10 RMK AO2 TSNO
94908KDBQ DBQ20020217021010502/17/02 02:10:31  5-MIN KDBQ 170810Z AUTO 33010KT 10SM CLR M01/M05 A3013 890 75 -800 330/10 RMK AO2 TSNO
94908KDBQ DBQ20020217021510502/17/02 02:15:31  5-MIN KDBQ 170815Z AUTO 33010KT 10SM CLR M01/M06 A3013 890 72 -800 330/10 RMK AO2 TSNO
94908KDBQ DBQ20020217022010502/17/02 02:20:31  5-MIN KDBQ 170820Z AUTO 33010KT 10SM CLR M01/M06 A3013 890 72 -800 330/10 RMK AO2 TSNO
94908KDBQ DBQ20020217022510502/17/02 02:25:31  5-MIN KDBQ 170825Z AUTO 33011KT 10SM CLR M01/M06 A3013 880 72 -800 330/11 RMK AO2 TSNO
94908KDBQ DBQ20020217023010502/17/02 02:30:31  5-MIN KDBQ 170830Z AUTO 33011KT 10SM CLR M01/M06 A3013 880 72 -800 330/11 RMK AO2 TSNO
94908KDBQ DBQ20020217023510502/17/02 02:35:31  5-MIN KDBQ 170835Z AUTO 34010KT 10SM CLR M01/M06 A3013 880 72 -800 340/10 RMK AO2 TSNO
94908KDBQ DBQ20020217024010502/17/02 02:40:31  5-MIN KDBQ 170840Z AUTO 34010KT 10SM CLR M01/M06 A3013 880 72 -800 340/10 RMK AO2 TSNO
94908KDBQ DBQ20020217024510502/17/02 02:45:31  5-MIN KDBQ 170845Z AUTO 34010KT 10SM CLR M01/M06 A3013 880 72 -800 340/10 RMK AO2 TSNO
94908KDBQ DBQ20020217025012802/17/02 02:50:31  5-MIN KDBQ 170850Z AUTO 34009KT 10SM CLR M01/M06 A3013 880 72 -800 330/09 RMK AO2 SLP214 T10111056 53011 TSNO
94908KDBQ DBQ20020217025512802/17/02 02:55:31  5-MIN KDBQ 170855Z AUTO 33009KT 10SM CLR M02/M06 A3013 880 75 -900 330/09 RMK AO2 SLP214 T10171056 53015 TSNO
94908KDBQ DBQ20020217030010502/17/02 03:00:31  5-MIN KDBQ 170900Z AUTO 33009KT 10SM CLR M02/M06 A3014 880 75 -900 330/09 RMK AO2 TSNO
94908KDBQ DBQ20020217030510502/17/02 03:05:31  5-MIN KDBQ 170905Z AUTO 33009KT 10SM CLR M02/M06 A3014 880 75 -900 330/09 RMK AO2 TSNO
94908KDBQ DBQ20020217031010502/17/02 03:10:31  5-MIN KDBQ 170910Z AUTO 34009KT 10SM CLR M02/M06 A3014 880 75 -900 340/09 RMK AO2 TSNO
94908KDBQ DBQ20020217031510502/17/02 03:15:31  5-MIN KDBQ 170915Z AUTO 34009KT 10SM CLR M02/M06 A3014 880 75 -900 340/09 RMK AO2 TSNO
94908KDBQ DBQ20020217032010502/17/02 03:20:31  5-MIN KDBQ 170920Z AUTO 34008KT 10SM CLR M02/M06 A3014 880 78 -900 340/08 RMK AO2 TSNO
94908KDBQ DBQ20020217032510502/17/02 03:25:31  5-MIN KDBQ 170925Z AUTO 35007KT 10SM CLR M02/M06 A3014 880 78 -900 350/07 RMK AO2 TSNO
94908KDBQ DBQ20020217033010502/17/02 03:30:31  5-MIN KDBQ 170930Z AUTO 35008KT 10SM CLR M02/M06 A3014 870 75 -900 350/08 RMK AO2 TSNO
94908KDBQ DBQ20020217033510502/17/02 03:35:31  5-MIN KDBQ 170935Z AUTO 35007KT 10SM CLR M02/M06 A3015 870 72 -900 350/07 RMK AO2 TSNO
94908KDBQ DBQ20020217034010602/17/02 03:40:31  5-MIN KDBQ 170940Z AUTO 35006KT 10SM CLR M03/M06 A3015 870 78 -1000 350/06 RMK AO2 TSNO
94908KDBQ DBQ20020217034510502/17/02 03:45:31  5-MIN KDBQ 170945Z AUTO 36007KT 10SM CLR M02/M06 A3015 870 75 -900 360/07 RMK AO2 TSNO
94908KDBQ DBQ20020217035012202/17/02 03:50:31  5-MIN KDBQ 170950Z AUTO 01006KT 10SM CLR M02/M06 A3015 870 75 -900 010/06 RMK AO2 SLP221 T10221061 TSNO
94908KDBQ DBQ20020217035512202/17/02 03:55:31  5-MIN KDBQ 170955Z AUTO 02006KT 10SM CLR M02/M06 A3015 870 75 -900 010/06 RMK AO2 SLP221 T10221061 TSNO
94908KDBQ DBQ20020217040010602/17/02 04:00:31  5-MIN KDBQ 171000Z AUTO 02005KT 10SM CLR M03/M06 A3015 860 78 -1000 020/05 RMK AO2 TSNO
94908KDBQ DBQ20020217040510602/17/02 04:05:31  5-MIN KDBQ 171005Z AUTO 04004KT 10SM CLR M03/M07 A3015 860 75 -1000 040/04 RMK AO2 TSNO
94908KDBQ DBQ20020217041010602/17/02 04:10:31  5-MIN KDBQ 171010Z AUTO 03004KT 10SM CLR M03/M06 A3015 860 78 -1000 030/04 RMK AO2 TSNO
94908KDBQ DBQ20020217041510602/17/02 04:15:31  5-MIN KDBQ 171015Z AUTO 03004KT 10SM CLR M03/M06 A3015 860 78 -1000 020/04 RMK AO2 TSNO
94908KDBQ DBQ20020217042010602/17/02 04:20:31  5-MIN KDBQ 171020Z AUTO 03004KT 10SM CLR M03/M07 A3015 860 75 -1000 030/04 RMK AO2 TSNO
94908KDBQ DBQ20020217042510602/17/02 04:25:31  5-MIN KDBQ 171025Z AUTO 04004KT 10SM CLR M03/M07 A3016 860 75 -1000 040/04 RMK AO2 TSNO
94908KDBQ DBQ20020217043010602/17/02 04:30:31  5-MIN KDBQ 171030Z AUTO 02005KT 10SM CLR M03/M07 A3016 860 75 -1000 020/05 RMK AO2 TSNO
94908KDBQ DBQ20020217043510602/17/02 04:35:31  5-MIN KDBQ 171035Z AUTO 36005KT 10SM CLR M03/M07 A3016 860 75 -1000 360/05 RMK AO2 TSNO
94908KDBQ DBQ20020217044010602/17/02 04:40:31  5-MIN KDBQ 171040Z AUTO 36006KT 10SM CLR M02/M07 A3016 860 69 -1000 360/06 RMK AO2 TSNO
94908KDBQ DBQ20020217044510602/17/02 04:45:31  5-MIN KDBQ 171045Z AUTO 36006KT 10SM CLR M03/M08 A3016 860 68 -1000 360/06 RMK AO2 TSNO
94908KDBQ DBQ20020217045012302/17/02 04:50:31  5-MIN KDBQ 171050Z AUTO 36007KT 10SM CLR M02/M08 A3016 860 66 -1000 360/07 RMK AO2 SLP224 T10221078 TSNO
94908KDBQ DBQ20020217045512302/17/02 04:55:31  5-MIN KDBQ 171055Z AUTO 36007KT 10SM CLR M02/M08 A3016 860 66 -1000 360/07 RMK AO2 SLP225 T10221078 TSNO
94908KDBQ DBQ20020217050010602/17/02 05:00:31  5-MIN KDBQ 171100Z AUTO 01008KT 10SM CLR M02/M08 A3016 850 63 -1000 010/08 RMK AO2 TSNO
94908KDBQ DBQ20020217050510602/17/02 05:05:31  5-MIN KDBQ 171105Z AUTO 36008KT 10SM CLR M02/M08 A3017 850 63 -1000 360/08 RMK AO2 TSNO
94908KDBQ DBQ20020217051010602/17/02 05:10:31  5-MIN KDBQ 171110Z AUTO 36007KT 10SM CLR M02/M08 A3017 850 66 -1000 360/07 RMK AO2 TSNO
94908KDBQ DBQ20020217051510602/17/02 05:15:31  5-MIN KDBQ 171115Z AUTO 36007KT 10SM CLR M02/M08 A3018 840 66 -1000 360/07 RMK AO2 TSNO
94908KDBQ DBQ20020217052010602/17/02 05:20:31  5-MIN KDBQ 171120Z AUTO 36007KT 10SM CLR M03/M07 A3018 840 71 -1000 360/07 RMK AO2 TSNO
94908KDBQ DBQ20020217052510602/17/02 05:25:31  5-MIN KDBQ 171125Z AUTO 36006KT 10SM CLR M03/M07 A3018 840 71 -1100 360/06 RMK AO2 TSNO
94908KDBQ DBQ20020217053010602/17/02 05:30:31  5-MIN KDBQ 171130Z AUTO 34007KT 10SM CLR M03/M07 A3019 830 71 -1100 340/07 RMK AO2 TSNO
94908KDBQ DBQ20020217053510602/17/02 05:35:31  5-MIN KDBQ 171135Z AUTO 33007KT 10SM CLR M04/M08 A3019 830 74 -1300 330/07 RMK AO2 TSNO
94908KDBQ DBQ20020217054010602/17/02 05:40:31  5-MIN KDBQ 171140Z AUTO 32007KT 10SM CLR M05/M08 A3019 830 81 -1400 320/07 RMK AO2 TSNO
94908KDBQ DBQ20020217054510602/17/02 05:45:31  5-MIN KDBQ 171145Z AUTO 33007KT 10SM CLR M04/M08 A3020 820 78 -1300 330/07 RMK AO2 TSNO
94908KDBQ DBQ20020217055013102/17/02 05:50:31  5-MIN KDBQ 171150Z 35006KT 10SM CLR M04/M08 A3019 830 78 -1300 350/06 RMK AO2 SLP238 T10441078 10006 21050 53015
94908KDBQ DBQ20020217055513102/17/02 05:55:31  5-MIN KDBQ 171155Z 36006KT 10SM CLR M04/M08 A3019 830 78 -1300 360/06 RMK AO2 SLP238 T10441078 10006 21050 53020
94908KDBQ DBQ20020217060009602/17/02 06:00:31  5-MIN KDBQ 171200Z 36007KT 10SM CLR M04/M08 A3019 830 74 -1200 360/07 RMK AO2
94908KDBQ DBQ20020217060509602/17/02 06:05:31  5-MIN KDBQ 171205Z 36006KT 10SM CLR M04/M08 A3019 830 74 -1200 360/06 RMK AO2
94908KDBQ DBQ20020217061009602/17/02 06:10:31  5-MIN KDBQ 171210Z 01006KT 10SM CLR M04/M08 A3019 830 78 -1300 010/06 RMK AO2
94908KDBQ DBQ20020217061509602/17/02 06:15:31  5-MIN KDBQ 171215Z 36005KT 10SM CLR M04/M08 A3020 820 74 -1200 360/05 RMK AO2
94908KDBQ DBQ20020217062009602/17/02 06:20:31  5-MIN KDBQ 171220Z 35004KT 10SM CLR M04/M08 A3020 820 74 -1200 350/04 RMK AO2
94908KDBQ DBQ20020217062509602/17/02 06:25:31  5-MIN KDBQ 171225Z 35004KT 10SM CLR M04/M08 A3021 810 74 -1300 350/04 RMK AO2
94908KDBQ DBQ20020217063009602/17/02 06:30:31  5-MIN KDBQ 171230Z 36005KT 10SM CLR M04/M08 A3021 820 74 -1300 360/05 RMK AO2
94908KDBQ DBQ20020217063509602/17/02 06:35:31  5-MIN KDBQ 171235Z 35004KT 10SM CLR M06/M08 A3021 810 81 -1400 350/04 RMK AO2
94908KDBQ DBQ20020217064009602/17/02 06:40:31  5-MIN KDBQ 171240Z 35004KT 10SM CLR M04/M08 A3021 810 74 -1300 340/04 RMK AO2
94908KDBQ DBQ20020217064509602/17/02 06:45:31  5-MIN KDBQ 171245Z 35004KT 10SM CLR M04/M08 A3022 810 74 -1300 350/04 RMK AO2
94908KDBQ DBQ20020217065011302/17/02 06:50:31  5-MIN KDBQ 171250Z 35003KT 10SM CLR M04/M08 A3022 810 74 -1300 350/03 RMK AO2 SLP245 T10441083
94908KDBQ DBQ20020217065511302/17/02 06:55:31  5-MIN KDBQ 171255Z 01004KT 10SM CLR M06/M09 A3022 800 77 -1400 010/04 RMK AO2 SLP247 T10561089
94908KDBQ DBQ20020217070009602/17/02 07:00:31  5-MIN KDBQ 171300Z 01004KT 10SM CLR M05/M08 A3022 800 77 -1400 010/04 RMK AO2
94908KDBQ DBQ20020217070509602/17/02 07:05:31  5-MIN KDBQ 171305Z 36003KT 10SM CLR M06/M08 A3022 800 81 -1500 360/03 RMK AO2
94908KDBQ DBQ20020217071009602/17/02 07:10:31  5-MIN KDBQ 171310Z 00000KT 10SM CLR M05/M08 A3023 800 77 -1400 000/00 RMK AO2
94908KDBQ DBQ20020217071509602/17/02 07:15:31  5-MIN KDBQ 171315Z 00000KT 10SM CLR M05/M08 A3023 790 77 -1400 000/00 RMK AO2
94908KDBQ DBQ20020217072009602/17/02 07:20:31  5-MIN KDBQ 171320Z 00000KT 10SM CLR M06/M08 A3023 790 81 -1500 000/00 RMK AO2
94908KDBQ DBQ20020217072509602/17/02 07:25:31  5-MIN KDBQ 171325Z 00000KT 10SM CLR M05/M08 A3023 790 81 -1400 000/00 RMK AO2
94908KDBQ DBQ20020217073009602/17/02 07:30:31  5-MIN KDBQ 171330Z 00000KT 10SM CLR M04/M08 A3023 790 78 -1300 000/00 RMK AO2
94908KDBQ DBQ20020217073509602/17/02 07:35:31  5-MIN KDBQ 171335Z 00000KT 10SM CLR M05/M08 A3023 790 81 -1400 000/00 RMK AO2
94908KDBQ DBQ20020217074009602/17/02 07:40:31  5-MIN KDBQ 171340Z 00000KT 10SM CLR M05/M08 A3024 790 81 -1400 000/00 RMK AO2
94908KDBQ DBQ20020217074509602/17/02 07:45:31  5-MIN KDBQ 171345Z 00000KT 10SM CLR M04/M07 A3024 780 81 -1300 000/00 RMK AO2
94908KDBQ DBQ20020217075011302/17/02 07:50:31  5-MIN KDBQ 171350Z 00000KT 10SM CLR M04/M07 A3024 780 81 -1300 000/00 RMK AO2 SLP254 T10391067
94908KDBQ DBQ20020217075511302/17/02 07:55:31  5-MIN KDBQ 171355Z 00000KT 10SM CLR M03/M07 A3024 780 78 -1200 000/00 RMK AO2 SLP255 T10331067
94908KDBQ DBQ20020217080009602/17/02 08:00:31  5-MIN KDBQ 171400Z 00000KT 10SM CLR M03/M07 A3024 780 75 -1100 000/00 RMK AO2
94908KDBQ DBQ20020217080509602/17/02 08:05:31  5-MIN KDBQ 171405Z 03004KT 10SM CLR M02/M07 A3024 780 72 -1100 030/04 RMK AO2
94908KDBQ DBQ20020217081009602/17/02 08:10:31  5-MIN KDBQ 171410Z 03005KT 10SM CLR M02/M07 A3024 780 69 -1000 030/05 RMK AO2
94908KDBQ DBQ20020217081509602/17/02 08:15:31  5-MIN KDBQ 171415Z 04003KT 10SM CLR M02/M07 A3024 780 66 -1000 040/03 RMK AO2
94908KDBQ DBQ20020217082009602/17/02 08:20:31  5-MIN KDBQ 171420Z 03005KT 10SM CLR M02/M07 A3025 780 66 -1000 030/05 RMK AO2
94908KDBQ DBQ20020217082509602/17/02 08:25:31  5-MIN KDBQ 171425Z 03006KT 10SM CLR M02/M07 A3024 780 66 -1000 030/06 RMK AO2
94908KDBQ DBQ20020217083009602/17/02 08:30:31  5-MIN KDBQ 171430Z 05008KT 10SM CLR M02/M07 A3024 790 66 -1000 040/08 RMK AO2
94908KDBQ DBQ20020217083509602/17/02 08:35:31  5-MIN KDBQ 171435Z 05007KT 10SM CLR M02/M07 A3024 780 66 -1000 050/07 RMK AO2
94908KDBQ DBQ20020217084009602/17/02 08:40:31  5-MIN KDBQ 171440Z 06008KT 10SM CLR M02/M08 A3024 780 63 -1000 050/08 RMK AO2
94908KDBQ DBQ20020217084509602/17/02 08:45:31  5-MIN KDBQ 171445Z 05008KT 10SM CLR M02/M07 A3024 780 66 -1000 050/08 RMK AO2
94908KDBQ DBQ20020217085011902/17/02 08:50:31  5-MIN KDBQ 171450Z 05007KT 10SM CLR M02/M07 A3024 780 66 -1000 050/07 RMK AO2 SLP254 T10171072 53020
94908KDBQ DBQ20020217085511902/17/02 08:55:31  5-MIN KDBQ 171455Z 05007KT 10SM CLR M02/M08 A3024 780 63 -1000 050/07 RMK AO2 SLP254 T10171078 51017
94908KDBQ DBQ20020217090009602/17/02 09:00:31  5-MIN KDBQ 171500Z 04007KT 10SM CLR M02/M07 A3025 780 66 -1000 040/07 RMK AO2
94908KDBQ DBQ20020217090509602/17/02 09:05:31  5-MIN KDBQ 171505Z 05006KT 10SM CLR M02/M08 A3025 780 63 -1000 050/06 RMK AO2
94908KDBQ DBQ20020217091009502/17/02 09:10:31  5-MIN KDBQ 171510Z 05006KT 10SM CLR M01/M07 A3025 780 63 -900 050/06 RMK AO2
94908KDBQ DBQ20020217091509502/17/02 09:15:31  5-MIN KDBQ 171515Z 07007KT 10SM CLR M01/M07 A3024 780 63 -900 070/07 RMK AO2
94908KDBQ DBQ20020217092009502/17/02 09:20:31  5-MIN KDBQ 171520Z VRB04KT 10SM CLR M01/M08 A3025 780 60 -900 VRB/04 RMK AO2
94908KDBQ DBQ20020217092509502/17/02 09:25:31  5-MIN KDBQ 171525Z 07005KT 10SM CLR M01/M08 A3025 780 60 -900 070/05 RMK AO2
94908KDBQ DBQ20020217093009502/17/02 09:30:31  5-MIN KDBQ 171530Z 00000KT 10SM CLR M01/M08 A3025 770 58 -900 000/00 RMK AO2
94908KDBQ DBQ20020217093509502/17/02 09:35:31  5-MIN KDBQ 171535Z 10004KT 10SM CLR M01/M08 A3025 770 60 -900 100/04 RMK AO2
94908KDBQ DBQ20020217094009502/17/02 09:40:31  5-MIN KDBQ 171540Z 06004KT 10SM CLR M01/M08 A3026 770 58 -900 060/04 RMK AO2
94908KDBQ DBQ20020217094509502/17/02 09:45:31  5-MIN KDBQ 171545Z VRB04KT 10SM CLR M01/M08 A3026 770 56 -900 VRB/04 RMK AO2
94908KDBQ DBQ20020217095011202/17/02 09:50:31  5-MIN KDBQ 171550Z VRB03KT 10SM CLR M01/M09 A3026 770 53 -900 VRB/03 RMK AO2 SLP259 T10061089
94908KDBQ DBQ20020217095511202/17/02 09:55:31  5-MIN KDBQ 171555Z VRB03KT 10SM CLR M01/M08 A3026 760 56 -900 VRB/03 RMK AO2 SLP260 T10061083
94908KDBQ DBQ20020217100009502/17/02 10:00:31  5-MIN KDBQ 171600Z 07003KT 10SM CLR M01/M08 A3027 760 56 -900 060/03 RMK AO2
94908KDBQ DBQ20020217100509502/17/02 10:05:31  5-MIN KDBQ 171605Z 07004KT 10SM CLR M01/M08 A3027 760 56 -900 070/04 RMK AO2
94908KDBQ DBQ20020217101009502/17/02 10:10:31  5-MIN KDBQ 171610Z 00000KT 10SM CLR M01/M08 A3027 760 56 -900 000/00 RMK AO2
94908KDBQ DBQ20020217101509502/17/02 10:15:31  5-MIN KDBQ 171615Z 00000KT 10SM CLR M01/M08 A3027 760 56 -900 000/00 RMK AO2
94908KDBQ DBQ20020217102009402/17/02 10:20:31  5-MIN KDBQ 171620Z 00000KT 10SM CLR 00/M08 A3027 750 53 -800 000/00 RMK AO2
94908KDBQ DBQ20020217102509402/17/02 10:25:31  5-MIN KDBQ 171625Z VRB04KT 10SM CLR 00/M08 A3027 750 53 -800 VRB/04 RMK AO2
94908KDBQ DBQ20020217103009402/17/02 10:30:31  5-MIN KDBQ 171630Z VRB03KT 10SM CLR 00/M09 A3027 750 51 -800 VRB/03 RMK AO2
94908KDBQ DBQ20020217103509402/17/02 10:35:31  5-MIN KDBQ 171635Z 00000KT 10SM CLR 00/M09 A3027 750 51 -800 000/00 RMK AO2
94908KDBQ DBQ20020217104009402/17/02 10:40:31  5-MIN KDBQ 171640Z 00000KT 10SM CLR 00/M09 A3027 750 51 -800 000/00 RMK AO2
94908KDBQ DBQ20020217104509402/17/02 10:45:31  5-MIN KDBQ 171645Z 00000KT 10SM CLR 01/M08 A3027 750 51 -700 000/00 RMK AO2
94908KDBQ DBQ20020217105011102/17/02 10:50:31  5-MIN KDBQ 171650Z VRB03KT 10SM CLR 01/M08 A3027 750 51 -700 VRB/03 RMK AO2 SLP264 T00061083
94908KDBQ DBQ20020217105511102/17/02 10:55:31  5-MIN KDBQ 171655Z 21004KT 10SM CLR 01/M08 A3027 760 51 -700 210/04 RMK AO2 SLP263 T00061083
94908KDBQ DBQ20020217110009402/17/02 11:00:31  5-MIN KDBQ 171700Z 00000KT 10SM CLR 00/M09 A3027 760 51 -800 000/00 RMK AO2
94908KDBQ DBQ20020217110509402/17/02 11:05:31  5-MIN KDBQ 171705Z 00000KT 10SM CLR 01/M09 A3027 760 49 -700 000/00 RMK AO2
94908KDBQ DBQ20020217111009402/17/02 11:10:31  5-MIN KDBQ 171710Z 15004KT 10SM CLR 01/M08 A3027 760 51 -700 150/04 RMK AO2
94908KDBQ DBQ20020217111509402/17/02 11:15:31  5-MIN KDBQ 171715Z 11005KT 10SM CLR 01/M08 A3027 760 51 -700 110/05 RMK AO2
94908KDBQ DBQ20020217112009402/17/02 11:20:31  5-MIN KDBQ 171720Z 19004KT 10SM CLR 01/M08 A3027 760 49 -700 190/04 RMK AO2
94908KDBQ DBQ20020217112509402/17/02 11:25:31  5-MIN KDBQ 171725Z 22005KT 10SM CLR 01/M08 A3027 760 49 -700 220/05 RMK AO2
94908KDBQ DBQ20020217113009402/17/02 11:30:31  5-MIN KDBQ 171730Z 00000KT 10SM CLR 01/M09 A3027 760 49 -700 000/00 RMK AO2
94908KDBQ DBQ20020217113509402/17/02 11:35:31  5-MIN KDBQ 171735Z 22005KT 10SM CLR 01/M09 A3027 760 47 -700 220/05 RMK AO2
94908KDBQ DBQ20020217114009402/17/02 11:40:31  5-MIN KDBQ 171740Z 23003KT 10SM CLR 01/M08 A3026 760 51 -700 220/03 RMK AO2
94908KDBQ DBQ20020217114509402/17/02 11:45:31  5-MIN KDBQ 171745Z 19003KT 10SM CLR 01/M08 A3026 770 49 -700 190/03 RMK AO2
94908KDBQ DBQ20020217115012902/17/02 11:50:31  5-MIN KDBQ 171750Z 25004KT 10SM CLR 01/M08 A3026 770 49 -700 250/04 RMK AO2 SLP258 T00111083 10011 21056 51017
94908KDBQ DBQ20020217115512902/17/02 11:55:31  5-MIN KDBQ 171755Z 18005KT 10SM CLR 01/M08 A3025 770 49 -600 170/05 RMK AO2 SLP257 T00111083 10011 21056 50003
94908KDBQ DBQ20020217120009402/17/02 12:00:31  5-MIN KDBQ 171800Z 19005KT 10SM CLR 01/M09 A3025 770 47 -600 190/05 RMK AO2
94908KDBQ DBQ20020217120509402/17/02 12:05:31  5-MIN KDBQ 171805Z 00000KT 10SM CLR 02/M09 A3025 780 43 -600 000/00 RMK AO2
94908KDBQ DBQ20020217121009402/17/02 12:10:31  5-MIN KDBQ 171810Z 16003KT 10SM CLR 02/M09 A3024 780 45 -600 160/03 RMK AO2
94908KDBQ DBQ20020217121509402/17/02 12:15:31  5-MIN KDBQ 171815Z 14005KT 10SM CLR 02/M09 A3024 780 43 -600 140/05 RMK AO2
94908KDBQ DBQ20020217122009402/17/02 12:20:31  5-MIN KDBQ 171820Z 16007KT 10SM CLR 02/M09 A3025 780 43 -600 160/07 RMK AO2
94908KDBQ DBQ20020217122509402/17/02 12:25:31  5-MIN KDBQ 171825Z 15004KT 10SM CLR 02/M11 A3025 780 40 -600 150/04 RMK AO2
94908KDBQ DBQ20020217123009402/17/02 12:30:31  5-MIN KDBQ 171830Z VRB04KT 10SM CLR 02/M10 A3025 780 40 -500 VRB/04 RMK AO2
94908KDBQ DBQ20020217123509402/17/02 12:35:31  5-MIN KDBQ 171835Z 16003KT 10SM CLR 02/M09 A3024 780 42 -500 160/03 RMK AO2
94908KDBQ DBQ20020217124009402/17/02 12:40:31  5-MIN KDBQ 171840Z 19005KT 10SM CLR 02/M09 A3024 780 42 -500 190/05 RMK AO2
94908KDBQ DBQ20020217124509402/17/02 12:45:31  5-MIN KDBQ 171845Z VRB03KT 10SM CLR 02/M09 A3024 780 44 -500 VRB/03 RMK AO2
94908KDBQ DBQ20020217125011102/17/02 12:50:31  5-MIN KDBQ 171850Z 00000KT 10SM CLR 02/M09 A3024 780 42 -500 000/00 RMK AO2 SLP252 T00221094
94908KDBQ DBQ20020217125511102/17/02 12:55:31  5-MIN KDBQ 171855Z 18004KT 10SM CLR 03/M09 A3024 790 42 -400 170/04 RMK AO2 SLP250 T00281089
94908KDBQ DBQ20020217130009402/17/02 13:00:31  5-MIN KDBQ 171900Z VRB05KT 10SM CLR 02/M09 A3023 790 42 -500 VRB/05 RMK AO2
94908KDBQ DBQ20020217130509402/17/02 13:05:31  5-MIN KDBQ 171905Z VRB04KT 10SM CLR 02/M09 A3023 790 44 -500 VRB/04 RMK AO2
94908KDBQ DBQ20020217131009402/17/02 13:10:31  5-MIN KDBQ 171910Z VRB03KT 10SM CLR 03/M09 A3023 790 40 -400 VRB/03 RMK AO2
94908KDBQ DBQ20020217131509402/17/02 13:15:31  5-MIN KDBQ 171915Z VRB04KT 10SM CLR 03/M08 A3023 790 44 -400 VRB/04 RMK AO2
94908KDBQ DBQ20020217132009402/17/02 13:20:31  5-MIN KDBQ 171920Z VRB03KT 10SM CLR 03/M08 A3023 790 44 -400 VRB/03 RMK AO2
94908KDBQ DBQ20020217132509402/17/02 13:25:31  5-MIN KDBQ 171925Z VRB06KT 10SM CLR 03/M08 A3023 800 42 -300 VRB/06 RMK AO2
94908KDBQ DBQ20020217133009402/17/02 13:30:31  5-MIN KDBQ 171930Z 21005KT 10SM CLR 03/M09 A3022 800 42 -400 210/05 RMK AO2
94908KDBQ DBQ20020217133509402/17/02 13:35:31  5-MIN KDBQ 171935Z VRB04KT 10SM CLR 03/M08 A3022 800 42 -300 VRB/04 RMK AO2
94908KDBQ DBQ20020217134009402/17/02 13:40:31  5-MIN KDBQ 171940Z 20008KT 10SM CLR 03/M08 A3022 800 42 -300 200/08 RMK AO2
94908KDBQ DBQ20020217134509402/17/02 13:45:31  5-MIN KDBQ 171945Z 18006KT 10SM CLR 03/M08 A3022 800 42 -300 180/06 RMK AO2
94908KDBQ DBQ20020217135011102/17/02 13:50:31  5-MIN KDBQ 171950Z VRB04KT 10SM CLR 03/M08 A3022 800 42 -300 VRB/04 RMK AO2 SLP244 T00331083
94908KDBQ DBQ20020217135511102/17/02 13:55:31  5-MIN KDBQ 171955Z VRB04KT 10SM CLR 03/M08 A3022 810 42 -300 VRB/04 RMK AO2 SLP244 T00331083
94908KDBQ DBQ20020217140009402/17/02 14:00:31  5-MIN KDBQ 172000Z VRB06KT 10SM CLR 03/M08 A3021 810 44 -300 VRB/06 RMK AO2
94908KDBQ DBQ20020217140509402/17/02 14:05:31  5-MIN KDBQ 172005Z 14005KT 10SM CLR 03/M08 A3021 810 42 -300 140/05 RMK AO2
94908KDBQ DBQ20020217141009402/17/02 14:10:31  5-MIN KDBQ 172010Z 20005KT 10SM CLR 03/M08 A3021 810 42 -300 200/05 RMK AO2
94908KDBQ DBQ20020217141509402/17/02 14:15:31  5-MIN KDBQ 172015Z 20009KT 10SM CLR 04/M08 A3021 810 40 -200 190/09 RMK AO2
94908KDBQ DBQ20020217142009402/17/02 14:20:31  5-MIN KDBQ 172020Z 19006KT 10SM CLR 04/M08 A3021 810 40 -200 190/06 RMK AO2
94908KDBQ DBQ20020217142509402/17/02 14:25:31  5-MIN KDBQ 172025Z 18006KT 10SM CLR 04/M09 A3021 810 39 -200 180/06 RMK AO2
94908KDBQ DBQ20020217143009402/17/02 14:30:31  5-MIN KDBQ 172030Z 22007KT 10SM CLR 04/M09 A3021 810 39 -200 210/07 RMK AO2
94908KDBQ DBQ20020217143509402/17/02 14:35:31  5-MIN KDBQ 172035Z 16005KT 10SM CLR 04/M08 A3021 810 40 -200 160/05 RMK AO2
94908KDBQ DBQ20020217144009402/17/02 14:40:31  5-MIN KDBQ 172040Z 19009KT 10SM CLR 04/M08 A3020 820 40 -200 190/09 RMK AO2
94908KDBQ DBQ20020217144509902/17/02 14:45:31  5-MIN KDBQ 172045Z AUTO 17006KT 10SM CLR 04/M09 A3020 820 39 -200 160/06 RMK AO2
94908KDBQ DBQ20020217145011702/17/02 14:50:31  5-MIN KDBQ 172050Z 16007KT 10SM CLR 04/M09 A3020 820 37 -200 160/07 RMK AO2 SLP239 T00391094 50003
94908KDBQ DBQ20020217145511702/17/02 14:55:31  5-MIN KDBQ 172055Z 15007KT 10SM CLR 04/M09 A3020 820 37 -200 150/07 RMK AO2 SLP238 T00391094 56018
94908KDBQ DBQ20020217150009402/17/02 15:00:31  5-MIN KDBQ 172100Z 14007KT 10SM CLR 04/M08 A3020 820 40 -200 130/07 RMK AO2
94908KDBQ DBQ20020217150509402/17/02 15:05:31  5-MIN KDBQ 172105Z 15008KT 10SM CLR 04/M08 A3020 820 39 -200 150/08 RMK AO2
94908KDBQ DBQ20020217151009402/17/02 15:10:31  5-MIN KDBQ 172110Z 15009KT 10SM CLR 04/M08 A3020 820 40 -200 150/09 RMK AO2
94908KDBQ DBQ20020217151509402/17/02 15:15:31  5-MIN KDBQ 172115Z 15008KT 10SM CLR 04/M08 A3020 820 39 -200 150/08 RMK AO2
94908KDBQ DBQ20020217152009402/17/02 15:20:31  5-MIN KDBQ 172120Z 15007KT 10SM CLR 04/M08 A3020 820 39 -200 150/07 RMK AO2
94908KDBQ DBQ20020217152509402/17/02 15:25:31  5-MIN KDBQ 172125Z 16009KT 10SM CLR 04/M08 A3020 820 40 -200 160/09 RMK AO2
94908KDBQ DBQ20020217153009402/17/02 15:30:31  5-MIN KDBQ 172130Z 16009KT 10SM CLR 04/M09 A3019 830 39 -200 160/09 RMK AO2
94908KDBQ DBQ20020217153509402/17/02 15:35:31  5-MIN KDBQ 172135Z 16008KT 10SM CLR 04/M09 A3019 830 39 -200 160/08 RMK AO2
94908KDBQ DBQ20020217154009402/17/02 15:40:31  5-MIN KDBQ 172140Z 16009KT 10SM CLR 04/M09 A3019 830 37 -200 160/09 RMK AO2
94908KDBQ DBQ20020217154509402/17/02 15:45:31  5-MIN KDBQ 172145Z 16009KT 10SM CLR 04/M09 A3019 830 37 -200 160/09 RMK AO2
94908KDBQ DBQ20020217155011102/17/02 15:50:31  5-MIN KDBQ 172150Z 16009KT 10SM CLR 04/M09 A3019 830 37 -200 160/09 RMK AO2 SLP234 T00391094
94908KDBQ DBQ20020217155511102/17/02 15:55:31  5-MIN KDBQ 172155Z 16010KT 10SM CLR 04/M09 A3019 830 37 -200 160/10 RMK AO2 SLP234 T00391094
94908KDBQ DBQ20020217160009402/17/02 16:00:31  5-MIN KDBQ 172200Z 15010KT 10SM CLR 04/M10 A3019 830 35 -200 150/10 RMK AO2
94908KDBQ DBQ20020217160509402/17/02 16:05:31  5-MIN KDBQ 172205Z 17009KT 10SM CLR 04/M09 A3019 830 37 -200 160/09 RMK AO2
94908KDBQ DBQ20020217161009402/17/02 16:10:31  5-MIN KDBQ 172210Z 17009KT 10SM CLR 04/M09 A3019 830 37 -200 160/09 RMK AO2
94908KDBQ DBQ20020217161509402/17/02 16:15:31  5-MIN KDBQ 172215Z 17009KT 10SM CLR 04/M09 A3019 830 39 -200 170/09 RMK AO2
94908KDBQ DBQ20020217162009402/17/02 16:20:31  5-MIN KDBQ 172220Z 18010KT 10SM CLR 04/M09 A3019 830 39 -200 180/10 RMK AO2
94908KDBQ DBQ20020217162509402/17/02 16:25:31  5-MIN KDBQ 172225Z 17008KT 10SM CLR 04/M08 A3019 830 40 -200 170/08 RMK AO2
94908KDBQ DBQ20020217163009402/17/02 16:30:31  5-MIN KDBQ 172230Z 17008KT 10SM CLR 04/M08 A3019 830 42 -200 170/08 RMK AO2
94908KDBQ DBQ20020217163509402/17/02 16:35:31  5-MIN KDBQ 172235Z 18010KT 10SM CLR 03/M08 A3019 830 42 -300 180/10 RMK AO2
94908KDBQ DBQ20020217164009402/17/02 16:40:31  5-MIN KDBQ 172240Z 18010KT 10SM CLR 03/M08 A3019 830 42 -300 180/10 RMK AO2
94908KDBQ DBQ20020217164509402/17/02 16:45:31  5-MIN KDBQ 172245Z 19010KT 10SM CLR 03/M08 A3019 830 42 -300 190/10 RMK AO2
94908KDBQ DBQ20020217165011102/17/02 16:50:31  5-MIN KDBQ 172250Z 18009KT 10SM CLR 03/M08 A3019 830 44 -300 180/09 RMK AO2 SLP236 T00331078
94908KDBQ DBQ20020217165511102/17/02 16:55:31  5-MIN KDBQ 172255Z 19009KT 10SM CLR 03/M08 A3019 830 42 -300 190/09 RMK AO2 SLP236 T00331083
94908KDBQ DBQ20020217170009402/17/02 17:00:31  5-MIN KDBQ 172300Z 19009KT 10SM CLR 03/M08 A3019 830 44 -400 190/09 RMK AO2
94908KDBQ DBQ20020217170509402/17/02 17:05:31  5-MIN KDBQ 172305Z 18009KT 10SM CLR 02/M08 A3019 830 47 -400 180/09 RMK AO2
94908KDBQ DBQ20020217171009402/17/02 17:10:31  5-MIN KDBQ 172310Z 18008KT 10SM CLR 02/M08 A3019 830 47 -400 170/08 RMK AO2
94908KDBQ DBQ20020217171509402/17/02 17:15:31  5-MIN KDBQ 172315Z 17007KT 10SM CLR 02/M07 A3019 830 50 -400 170/07 RMK AO2
94908KDBQ DBQ20020217172009402/17/02 17:20:31  5-MIN KDBQ 172320Z 17007KT 10SM CLR 02/M07 A3018 830 50 -400 170/07 RMK AO2
94908KDBQ DBQ20020217172509402/17/02 17:25:31  5-MIN KDBQ 172325Z 16007KT 10SM CLR 02/M07 A3018 840 52 -500 160/07 RMK AO2
94908KDBQ DBQ20020217173009402/17/02 17:30:31  5-MIN KDBQ 172330Z 16007KT 10SM CLR 01/M07 A3018 840 54 -600 150/07 RMK AO2
94908KDBQ DBQ20020217173509402/17/02 17:35:31  5-MIN KDBQ 172335Z 16008KT 10SM CLR 01/M07 A3017 840 54 -600 160/08 RMK AO2
94908KDBQ DBQ20020217174009402/17/02 17:40:31  5-MIN KDBQ 172340Z 16007KT 10SM CLR 01/M07 A3017 850 54 -500 160/07 RMK AO2
94908KDBQ DBQ20020217174509402/17/02 17:45:31  5-MIN KDBQ 172345Z 16007KT 10SM CLR 01/M07 A3017 850 56 -600 150/07 RMK AO2
94908KDBQ DBQ20020217175012902/17/02 17:50:31  5-MIN KDBQ 172350Z 16008KT 10SM CLR 01/M07 A3017 850 56 -600 160/08 RMK AO2 SLP230 T00061072 10044 20006 56018
94908KDBQ DBQ20020217175512902/17/02 17:55:31  5-MIN KDBQ 172355Z 16008KT 10SM CLR 01/M07 A3017 850 56 -600 150/08 RMK AO2 SLP229 T00061072 10044 20006 58011
94908KDBQ DBQ20020217180009402/17/02 18:00:31  5-MIN KDBQ 180000Z 15007KT 10SM CLR 00/M08 A3016 860 56 -700 150/07 RMK AO2
94908KDBQ DBQ20020217180509502/17/02 18:05:31  5-MIN KDBQ 180005Z 14007KT 10SM CLR M01/M07 A3016 860 63 -700 140/07 RMK AO2
94908KDBQ DBQ20020217181009402/17/02 18:10:31  5-MIN KDBQ 180010Z 15007KT 10SM CLR 00/M07 A3016 860 61 -700 150/07 RMK AO2
94908KDBQ DBQ20020217181509402/17/02 18:15:31  5-MIN KDBQ 180015Z 14007KT 10SM CLR 00/M07 A3016 860 61 -700 140/07 RMK AO2
94908KDBQ DBQ20020217182009402/17/02 18:20:31  5-MIN KDBQ 180020Z 15006KT 10SM CLR 00/M07 A3016 860 61 -700 150/06 RMK AO2
94908KDBQ DBQ20020217182509402/17/02 18:25:31  5-MIN KDBQ 180025Z 16006KT 10SM CLR 00/M07 A3016 860 61 -700 150/06 RMK AO2
94908KDBQ DBQ20020217183009402/17/02 18:30:31  5-MIN KDBQ 180030Z 16008KT 10SM CLR 00/M07 A3016 860 61 -700 150/08 RMK AO2
94908KDBQ DBQ20020217183509402/17/02 18:35:31  5-MIN KDBQ 180035Z 15008KT 10SM CLR 00/M07 A3016 860 61 -700 150/08 RMK AO2
94908KDBQ DBQ20020217184009402/17/02 18:40:31  5-MIN KDBQ 180040Z 15008KT 10SM CLR 00/M07 A3016 860 61 -700 150/08 RMK AO2
94908KDBQ DBQ20020217184509502/17/02 18:45:31  5-MIN KDBQ 180045Z 15007KT 10SM CLR M01/M07 A3015 860 63 -700 150/07 RMK AO2
94908KDBQ DBQ20020217185011202/17/02 18:50:31  5-MIN KDBQ 180050Z 15008KT 10SM CLR M01/M07 A3015 860 63 -700 150/08 RMK AO2 SLP225 T10061067
94908KDBQ DBQ20020217185511102/17/02 18:55:31  5-MIN KDBQ 180055Z 14008KT 10SM CLR 00/M07 A3015 870 61 -700 140/08 RMK AO2 SLP225 T00001067
94908KDBQ DBQ20020217190009402/17/02 19:00:31  5-MIN KDBQ 180100Z 14007KT 10SM CLR 00/M07 A3015 870 61 -700 140/07 RMK AO2
94908KDBQ DBQ20020217190509402/17/02 19:05:31  5-MIN KDBQ 180105Z 14008KT 10SM CLR 00/M06 A3015 870 63 -700 140/08 RMK AO2
94908KDBQ DBQ20020217191009402/17/02 19:10:31  5-MIN KDBQ 180110Z 15009KT 10SM CLR 00/M07 A3015 870 61 -700 150/09 RMK AO2
94908KDBQ DBQ20020217191509402/17/02 19:15:31  5-MIN KDBQ 180115Z 15010KT 10SM CLR 00/M07 A3014 870 61 -700 140/10 RMK AO2
94908KDBQ DBQ20020217192009402/17/02 19:20:31  5-MIN KDBQ 180120Z 15010KT 10SM CLR 00/M07 A3015 870 61 -700 150/10 RMK AO2
94908KDBQ DBQ20020217192509402/17/02 19:25:31  5-MIN KDBQ 180125Z 15010KT 10SM CLR 00/M07 A3015 870 61 -700 150/10 RMK AO2
94908KDBQ DBQ20020217193009402/17/02 19:30:31  5-MIN KDBQ 180130Z 15011KT 10SM CLR 00/M06 A3014 870 63 -700 150/11 RMK AO2
94908KDBQ DBQ20020217193509402/17/02 19:35:31  5-MIN KDBQ 180135Z 16009KT 10SM CLR 00/M06 A3015 870 63 -700 160/09 RMK AO2
94908KDBQ DBQ20020217194009402/17/02 19:40:31  5-MIN KDBQ 180140Z 16009KT 10SM CLR 00/M07 A3015 870 61 -700 160/09 RMK AO2
94908KDBQ DBQ20020217194509402/17/02 19:45:31  5-MIN KDBQ 180145Z 16009KT 10SM CLR 00/M07 A3015 870 61 -700 160/09 RMK AO2
94908KDBQ DBQ20020217195011202/17/02 19:50:31  5-MIN KDBQ 180150Z 16008KT 10SM CLR M01/M06 A3015 870 66 -700 160/08 RMK AO2 SLP223 T10061061
94908KDBQ DBQ20020217195511202/17/02 19:55:31  5-MIN KDBQ 180155Z 16009KT 10SM CLR M01/M06 A3015 870 66 -700 160/09 RMK AO2 SLP223 T10061061
94908KDBQ DBQ20020217200009502/17/02 20:00:31  5-MIN KDBQ 180200Z 16009KT 10SM CLR M01/M06 A3014 870 66 -700 160/09 RMK AO2
94908KDBQ DBQ20020217200510502/17/02 20:05:31  5-MIN KDBQ 180205Z AUTO 16010KT 10SM CLR M01/M06 A3014 870 66 -700 160/10 RMK AO2 TSNO
94908KDBQ DBQ20020217201010502/17/02 20:10:31  5-MIN KDBQ 180210Z AUTO 16010KT 10SM CLR M01/M06 A3014 870 66 -700 150/10 RMK AO2 TSNO
94908KDBQ DBQ20020217201510502/17/02 20:15:31  5-MIN KDBQ 180215Z AUTO 15009KT 10SM CLR M01/M06 A3014 870 66 -700 150/09 RMK AO2 TSNO
94908KDBQ DBQ20020217202010502/17/02 20:20:31  5-MIN KDBQ 180220Z AUTO 16008KT 10SM CLR M01/M06 A3014 870 66 -700 160/08 RMK AO2 TSNO
94908KDBQ DBQ20020217202510502/17/02 20:25:31  5-MIN KDBQ 180225Z AUTO 16010KT 10SM CLR M01/M06 A3014 870 66 -700 160/10 RMK AO2 TSNO
94908KDBQ DBQ20020217203010502/17/02 20:30:31  5-MIN KDBQ 180230Z AUTO 16011KT 10SM CLR M01/M06 A3014 870 66 -700 160/11 RMK AO2 TSNO
94908KDBQ DBQ20020217203510502/17/02 20:35:31  5-MIN KDBQ 180235Z AUTO 15011KT 10SM CLR M01/M06 A3014 870 66 -700 150/11 RMK AO2 TSNO
94908KDBQ DBQ20020217204010502/17/02 20:40:31  5-MIN KDBQ 180240Z AUTO 15011KT 10SM CLR M01/M07 A3014 880 63 -700 150/11 RMK AO2 TSNO
94908KDBQ DBQ20020217204510502/17/02 20:45:31  5-MIN KDBQ 180245Z AUTO 16011KT 10SM CLR M01/M07 A3014 880 63 -700 150/11 RMK AO2 TSNO
94908KDBQ DBQ20020217205012802/17/02 20:50:31  5-MIN KDBQ 180250Z AUTO 15011KT 10SM CLR M01/M06 A3014 880 66 -700 150/11 RMK AO2 SLP218 T10061061 58011 TSNO
94908KDBQ DBQ20020217205512802/17/02 20:55:31  5-MIN KDBQ 180255Z AUTO 16011KT 10SM CLR M01/M07 A3013 880 63 -700 160/11 RMK AO2 SLP217 T10061067 57011 TSNO
94908KDBQ DBQ20020217210010502/17/02 21:00:31  5-MIN KDBQ 180300Z AUTO 16012KT 10SM CLR M01/M07 A3013 890 63 -700 160/12 RMK AO2 TSNO
94908KDBQ DBQ20020217210510502/17/02 21:05:31  5-MIN KDBQ 180305Z AUTO 16011KT 10SM CLR M01/M06 A3013 890 66 -700 160/11 RMK AO2 TSNO
94908KDBQ DBQ20020217211010502/17/02 21:10:31  5-MIN KDBQ 180310Z AUTO 16011KT 10SM CLR M01/M06 A3013 890 66 -700 160/11 RMK AO2 TSNO
94908KDBQ DBQ20020217211510402/17/02 21:15:31  5-MIN KDBQ 180315Z AUTO 15011KT 10SM CLR 00/M06 A3012 890 63 -600 150/11 RMK AO2 TSNO
94908KDBQ DBQ20020217212010502/17/02 21:20:31  5-MIN KDBQ 180320Z AUTO 16010KT 10SM CLR M01/M06 A3013 890 66 -700 160/10 RMK AO2 TSNO
94908KDBQ DBQ20020217212510402/17/02 21:25:31  5-MIN KDBQ 180325Z AUTO 16011KT 10SM CLR 00/M06 A3012 890 63 -600 150/11 RMK AO2 TSNO
94908KDBQ DBQ20020217213010402/17/02 21:30:31  5-MIN KDBQ 180330Z AUTO 16011KT 10SM CLR 00/M07 A3012 890 61 -600 160/11 RMK AO2 TSNO
94908KDBQ DBQ20020217213510502/17/02 21:35:31  5-MIN KDBQ 180335Z AUTO 16011KT 10SM CLR M01/M07 A3012 890 63 -700 160/11 RMK AO2 TSNO
94908KDBQ DBQ20020217214010502/17/02 21:40:31  5-MIN KDBQ 180340Z AUTO 16011KT 10SM CLR M01/M07 A3012 890 63 -700 160/11 RMK AO2 TSNO
94908KDBQ DBQ20020217214510502/17/02 21:45:31  5-MIN KDBQ 180345Z AUTO 16011KT 10SM CLR M01/M07 A3012 890 63 -700 160/11 RMK AO2 TSNO
94908KDBQ DBQ20020217215012202/17/02 21:50:31  5-MIN KDBQ 180350Z AUTO 16010KT 10SM CLR M01/M07 A3012 900 63 -700 160/10 RMK AO2 SLP212 T10061067 TSNO
94908KDBQ DBQ20020217215512102/17/02 21:55:31  5-MIN KDBQ 180355Z AUTO 16011KT 10SM CLR 00/M07 A3012 900 61 -600 160/11 RMK AO2 SLP211 T00001067 TSNO
94908KDBQ DBQ20020217220010402/17/02 22:00:31  5-MIN KDBQ 180400Z AUTO 16012KT 10SM CLR 00/M07 A3012 890 61 -600 160/12 RMK AO2 TSNO
94908KDBQ DBQ20020217220510402/17/02 22:05:31  5-MIN KDBQ 180405Z AUTO 16013KT 10SM CLR 00/M07 A3012 890 61 -600 160/13 RMK AO2 TSNO
94908KDBQ DBQ20020217221010402/17/02 22:10:31  5-MIN KDBQ 180410Z AUTO 16012KT 10SM CLR 00/M07 A3012 890 61 -600 160/12 RMK AO2 TSNO
94908KDBQ DBQ20020217221510502/17/02 22:15:31  5-MIN KDBQ 180415Z AUTO 16012KT 10SM CLR M01/M07 A3012 900 63 -700 160/12 RMK AO2 TSNO
94908KDBQ DBQ20020217222010502/17/02 22:20:31  5-MIN KDBQ 180420Z AUTO 16012KT 10SM CLR M01/M07 A3012 890 63 -700 160/12 RMK AO2 TSNO
94908KDBQ DBQ20020217222510502/17/02 22:25:31  5-MIN KDBQ 180425Z AUTO 16012KT 10SM CLR M01/M07 A3012 900 63 -700 160/12 RMK AO2 TSNO
94908KDBQ DBQ20020217223010502/17/02 22:30:31  5-MIN KDBQ 180430Z AUTO 16012KT 10SM CLR M01/M07 A3012 900 63 -700 160/12 RMK AO2 TSNO
94908KDBQ DBQ20020217223510502/17/02 22:35:31  5-MIN KDBQ 180435Z AUTO 16013KT 10SM CLR M01/M07 A3012 890 63 -700 160/13 RMK AO2 TSNO
94908KDBQ DBQ20020217224010502/17/02 22:40:31  5-MIN KDBQ 180440Z AUTO 16012KT 10SM CLR M01/M07 A3012 900 63 -700 160/12 RMK AO2 TSNO
94908KDBQ DBQ20020217224510502/17/02 22:45:31  5-MIN KDBQ 180445Z AUTO 16012KT 10SM CLR M01/M07 A3012 900 63 -700 160/12 RMK AO2 TSNO
94908KDBQ DBQ20020217225012202/17/02 22:50:31  5-MIN KDBQ 180450Z AUTO 16013KT 10SM CLR M01/M07 A3012 900 63 -700 160/13 RMK AO2 SLP210 T10061067 TSNO
94908KDBQ DBQ20020217225512202/17/02 22:55:31  5-MIN KDBQ 180455Z AUTO 16012KT 10SM CLR M01/M07 A3011 900 63 -700 160/12 RMK AO2 SLP209 T10061067 TSNO
94908KDBQ DBQ20020217230010502/17/02 23:00:31  5-MIN KDBQ 180500Z AUTO 16012KT 10SM CLR M01/M07 A3011 900 63 -700 160/12 RMK AO2 TSNO
94908KDBQ DBQ20020218225014502/18/02 22:50:31  5-MIN KDBQ 190450Z AUTO 17008KT 5SM RA FEW031 BKN050 OVC060 05/02 A2989 1110 82 200 170/08 RMK AO2 SLP127 P0008 T00500022 TSNO
94908KDBQ DBQ20020218225514802/18/02 22:55:31  5-MIN KDBQ 190455Z AUTO 17007KT 5SM RA BR SCT033 BKN042 OVC060 04/02 A2989 1110 85 100 170/07 RMK AO2 SLP127 P0009 T00440022 TSNO
94908KDBQ DBQ20020218230013102/18/02 23:00:31  5-MIN KDBQ 190500Z AUTO 16008KT 5SM RA BR BKN033 BKN042 OVC060 04/02 A2988 1110 85 100 160/08 RMK AO2 P0000 TSNO
94908KDBQ DBQ20020218230512502/18/02 23:05:31  5-MIN KDBQ 190505Z AUTO 16008KT 6SM -RA BR BKN037 OVC050 04/03 A2988 1120 89 100 150/08 RMK AO2 P0001 TSNO
94908KDBQ DBQ20020218231011802/18/02 23:10:31  5-MIN KDBQ 190510Z AUTO 15009KT 6SM -RA BR OVC037 04/02 A2987 1120 85 200 150/09 RMK AO2 P0001 TSNO
94908KDBQ DBQ20020218231511502/18/02 23:15:31  5-MIN KDBQ 190515Z AUTO 15009KT 7SM -RA OVC037 04/03 A2987 1130 89 200 150/09 RMK AO2 P0002 TSNO
94908KDBQ DBQ20020218232011502/18/02 23:20:31  5-MIN KDBQ 190520Z AUTO 15009KT 7SM -RA OVC037 04/03 A2987 1120 89 200 150/09 RMK AO2 P0002 TSNO
94908KDBQ DBQ20020218232511502/18/02 23:25:31  5-MIN KDBQ 190525Z AUTO 15010KT 7SM -RA OVC037 04/02 A2987 1130 85 200 150/10 RMK AO2 P0003 TSNO
94908KDBQ DBQ20020218233011502/18/02 23:30:31  5-MIN KDBQ 190530Z AUTO 15010KT 7SM -RA OVC037 04/02 A2987 1130 85 200 150/10 RMK AO2 P0003 TSNO
94908KDBQ DBQ20020218233511502/18/02 23:35:31  5-MIN KDBQ 190535Z AUTO 14011KT 8SM -RA OVC037 04/02 A2986 1130 85 200 140/11 RMK AO2 P0003 TSNO
94908KDBQ DBQ20020218234011502/18/02 23:40:31  5-MIN KDBQ 190540Z AUTO 14011KT 9SM -RA OVC037 04/02 A2986 1140 85 200 140/11 RMK AO2 P0003 TSNO
94908KDBQ DBQ20020218234511502/18/02 23:45:31  5-MIN KDBQ 190545Z AUTO 14011KT 8SM -RA OVC037 04/02 A2986 1140 85 200 140/11 RMK AO2 P0003 TSNO
94908KDBQ DBQ20020218235016602/18/02 23:50:31  5-MIN KDBQ 190550Z AUTO 15011KT 7SM -RA OVC039 04/02 A2985 1140 85 200 150/11 RMK AO2 SLP115 P0004 60020 T00440022 10083 20044 401111017 55000 TSNO
94908KDBQ DBQ20020218235516802/18/02 23:55:31  5-MIN KDBQ 190555Z AUTO 15011KT 6SM RA BR OVC039 04/03 A2985 1140 89 200 150/11 RMK AO2 SLP115 P0005 60021 T00440028 10083 20044 401111017 58007 TSNO
94908KDBQ DBQ20020219000011802/19/02 00:00:31  5-MIN KDBQ 190600Z AUTO 15012KT 5SM -RA BR OVC039 04/03 A2985 1150 89 200 150/12 RMK AO2 P0000 TSNO
94908KDBQ DBQ20020219000511802/19/02 00:05:31  5-MIN KDBQ 190605Z AUTO 15012KT 6SM -RA BR OVC039 04/03 A2984 1150 89 200 150/12 RMK AO2 P0000 TSNO
94908KDBQ DBQ20020219001011502/19/02 00:10:31  5-MIN KDBQ 190610Z AUTO 15013KT 7SM -RA OVC039 04/03 A2983 1160 89 200 150/13 RMK AO2 P0001 TSNO
94908KDBQ DBQ20020219001512902/19/02 00:15:31  5-MIN KDBQ 190615Z AUTO 15013KT 7SM -RA BKN041 BKN060 OVC075 04/03 A2983 1160 89 200 150/13 RMK AO2 P0001 TSNO
94908KDBQ DBQ20020219002012202/19/02 00:20:31  5-MIN KDBQ 190620Z AUTO 15012KT 7SM -RA BKN041 OVC070 04/03 A2983 1160 89 200 150/12 RMK AO2 P0001 TSNO
94908KDBQ DBQ20020219002512902/19/02 00:25:31  5-MIN KDBQ 190625Z AUTO 15011KT 7SM -RA SCT041 BKN065 OVC075 04/03 A2984 1160 89 200 150/11 RMK AO2 P0002 TSNO
94908KDBQ DBQ20020219003012202/19/02 00:30:31  5-MIN KDBQ 190630Z AUTO 15010KT 7SM -RA SCT041 OVC070 04/03 A2984 1150 89 200 150/10 RMK AO2 P0002 TSNO
94908KDBQ DBQ20020219003512202/19/02 00:35:31  5-MIN KDBQ 190635Z AUTO 14009KT 7SM -RA SCT043 OVC070 04/03 A2984 1150 89 200 140/09 RMK AO2 P0002 TSNO
94908KDBQ DBQ20020219004012902/19/02 00:40:31  5-MIN KDBQ 190640Z AUTO 14008KT 7SM -RA FEW038 SCT045 OVC070 04/03 A2983 1160 89 200 140/08 RMK AO2 P0002 TSNO
94908KDBQ DBQ20020219004512202/19/02 00:45:31  5-MIN KDBQ 190645Z AUTO 14007KT 8SM -RA SCT044 OVC070 04/03 A2984 1160 89 200 140/07 RMK AO2 P0002 TSNO
94908KDBQ DBQ20020219005013902/19/02 00:50:31  5-MIN KDBQ 190650Z AUTO 14008KT 8SM -RA FEW042 OVC075 04/03 A2984 1160 89 200 140/08 RMK AO2 SLP110 P0002 T00440028 TSNO
94908KDBQ DBQ20020219005514602/19/02 00:55:31  5-MIN KDBQ 190655Z AUTO 13008KT 8SM -RA FEW044 BKN065 OVC080 04/03 A2983 1160 89 200 130/08 RMK AO2 SLP109 P0002 T00440028 TSNO
94908KDBQ DBQ20020219010012902/19/02 01:00:31  5-MIN KDBQ 190700Z AUTO 12008KT 7SM -RA FEW046 BKN065 OVC080 04/03 A2983 1160 89 200 120/08 RMK AO2 P0000 TSNO
94908KDBQ DBQ20020219010512902/19/02 01:05:31  5-MIN KDBQ 190705Z AUTO 12006KT 7SM -RA FEW050 BKN065 OVC080 04/03 A2984 1160 89 200 120/06 RMK AO2 P0000 TSNO
94908KDBQ DBQ20020219011012902/19/02 01:10:31  5-MIN KDBQ 190710Z AUTO 14005KT 8SM -RA BKN050 BKN065 OVC080 04/03 A2984 1150 89 200 140/05 RMK AO2 P0000 TSNO
94908KDBQ DBQ20020219011512402/19/02 01:15:31  5-MIN KDBQ 190715Z AUTO 14006KT 7SM BKN050 OVC065 04/03 A2984 1150 92 100 140/06 RMK AO2 RAE12 P0000 TSNO
94908KDBQ DBQ20020219012012402/19/02 01:20:31  5-MIN KDBQ 190720Z AUTO 14007KT 7SM BKN050 OVC065 04/03 A2984 1150 92 100 140/07 RMK AO2 RAE12 P0000 TSNO
94908KDBQ DBQ20020219012511702/19/02 01:25:31  5-MIN KDBQ 190725Z AUTO 14005KT 7SM OVC050 04/03 A2984 1150 89 200 140/05 RMK AO2 RAE12 P0000 TSNO
94908KDBQ DBQ20020219013011702/19/02 01:30:31  5-MIN KDBQ 190730Z AUTO 15009KT 7SM OVC050 04/03 A2984 1150 89 200 150/09 RMK AO2 RAE12 P0000 TSNO
94908KDBQ DBQ20020219013511702/19/02 01:35:31  5-MIN KDBQ 190735Z AUTO 14008KT 7SM OVC050 04/03 A2984 1150 89 200 140/08 RMK AO2 RAE12 P0000 TSNO
94908KDBQ DBQ20020219014011702/19/02 01:40:31  5-MIN KDBQ 190740Z AUTO 14008KT 7SM OVC050 04/03 A2983 1160 89 200 140/08 RMK AO2 RAE12 P0000 TSNO
94908KDBQ DBQ20020219014511702/19/02 01:45:31  5-MIN KDBQ 190745Z AUTO 14010KT 7SM OVC050 04/03 A2983 1160 89 200 140/10 RMK AO2 RAE12 P0000 TSNO
94908KDBQ DBQ20020219015013402/19/02 01:50:31  5-MIN KDBQ 190750Z AUTO 15009KT 7SM OVC050 04/03 A2983 1160 89 200 150/09 RMK AO2 RAE12 SLP107 P0000 T00440028 TSNO
94908KDBQ DBQ20020219015514802/19/02 01:55:31  5-MIN KDBQ 190755Z AUTO 15011KT 7SM -RA FEW040 OVC050 04/03 A2983 1160 89 200 150/11 RMK AO2 RAE12B52 SLP107 P0000 T00440028 TSNO
94908KDBQ DBQ20020219020012502/19/02 02:00:31  5-MIN KDBQ 190800Z AUTO 16013KT 6SM -RA BR SCT040 OVC050 04/03 A2983 1160 89 200 150/13 RMK AO2 P0001 TSNO
94908KDBQ DBQ20020219020512202/19/02 02:05:31  5-MIN KDBQ 190805Z AUTO 15014KT 7SM -RA BKN042 OVC050 04/03 A2983 1170 89 200 150/14 RMK AO2 P0001 TSNO
94908KDBQ DBQ20020219021012202/19/02 02:10:31  5-MIN KDBQ 190810Z AUTO 16011KT 7SM -RA BKN042 BKN050 04/03 A2982 1170 89 200 160/11 RMK AO2 P0001 TSNO
94908KDBQ DBQ20020219021512202/19/02 02:15:31  5-MIN KDBQ 190815Z AUTO 16012KT 7SM -RA SCT042 BKN050 04/03 A2981 1180 89 200 160/12 RMK AO2 P0002 TSNO
94908KDBQ DBQ20020219022012502/19/02 02:20:31  5-MIN KDBQ 190820Z AUTO 17012KT 6SM -RA BR SCT042 SCT050 04/03 A2982 1180 89 200 170/12 RMK AO2 P0002 TSNO
94908KDBQ DBQ20020219022512502/19/02 02:25:31  5-MIN KDBQ 190825Z AUTO 16011KT 6SM -RA BR SCT042 OVC065 04/03 A2981 1180 89 200 160/11 RMK AO2 P0002 TSNO
94908KDBQ DBQ20020219023013202/19/02 02:30:31  5-MIN KDBQ 190830Z AUTO 16011KT 5SM -RA BR FEW024 SCT044 OVC060 04/03 A2981 1180 89 200 160/11 RMK AO2 P0003 TSNO
94908KDBQ DBQ20020219023512402/19/02 02:35:31  5-MIN KDBQ 190835Z AUTO 17010KT 5SM RA BR FEW024 OVC065 04/03 A2981 1180 92 200 170/10 RMK AO2 P0004 TSNO
94908KDBQ DBQ20020219024012502/19/02 02:40:31  5-MIN KDBQ 190840Z AUTO 16012KT 4SM -RA BR FEW022 OVC065 04/03 A2981 1180 96 200 160/12 RMK AO2 P0004 TSNO
94908KDBQ DBQ20020219024512502/19/02 02:45:31  5-MIN KDBQ 190845Z AUTO 16011KT 5SM -RA BR FEW022 OVC060 04/03 A2981 1180 92 200 160/11 RMK AO2 P0004 TSNO
94908KDBQ DBQ20020219025016102/19/02 02:50:31  5-MIN KDBQ 190850Z AUTO 17010KT 4SM -RA BR FEW022 BKN055 OVC070 04/03 A2980 1190 92 200 160/10 RMK AO2 SLP098 P0005 60007 T00440033 58007 TSNO
94908KDBQ DBQ20020219025516102/19/02 02:55:31  5-MIN KDBQ 190855Z AUTO 17011KT 4SM -RA BR FEW022 BKN055 OVC070 04/03 A2980 1190 92 200 170/11 RMK AO2 SLP097 P0005 60007 T00440033 58016 TSNO
94908KDBQ DBQ20020219030013202/19/02 03:00:31  5-MIN KDBQ 190900Z AUTO 16011KT 4SM -RA BR FEW034 BKN055 OVC070 04/03 A2980 1190 92 200 160/11 RMK AO2 P0000 TSNO
94908KDBQ DBQ20020219030513202/19/02 03:05:31  5-MIN KDBQ 190905Z AUTO 16010KT 5SM -RA BR FEW034 BKN060 OVC070 04/03 A2979 1200 92 200 160/10 RMK AO2 P0000 TSNO
94908KDBQ DBQ20020219031013202/19/02 03:10:31  5-MIN KDBQ 190910Z AUTO 16011KT 5SM -RA BR SCT034 BKN055 OVC070 04/03 A2979 1200 92 200 160/11 RMK AO2 P0000 TSNO
94908KDBQ DBQ20020219031513202/19/02 03:15:31  5-MIN KDBQ 190915Z AUTO 16011KT 5SM -RA BR BKN034 BKN055 OVC070 04/03 A2979 1200 92 300 160/11 RMK AO2 P0000 TSNO
94908KDBQ DBQ20020219032012702/19/02 03:20:31  5-MIN KDBQ 190920Z AUTO 15010KT 5SM BR BKN034 OVC065 04/03 A2979 1200 92 300 150/10 RMK AO2 RAE20 P0000 TSNO
94908KDBQ DBQ20020219032512702/19/02 03:25:31  5-MIN KDBQ 190925Z AUTO 16012KT 5SM BR SCT032 OVC065 04/04 A2979 1200 96 300 160/12 RMK AO2 RAE20 P0000 TSNO
94908KDBQ DBQ20020219033012702/19/02 03:30:31  5-MIN KDBQ 190930Z AUTO 16012KT 5SM BR SCT032 OVC070 04/04 A2979 1200 96 300 160/12 RMK AO2 RAE20 P0000 TSNO
94908KDBQ DBQ20020219033512702/19/02 03:35:31  5-MIN KDBQ 190935Z AUTO 16011KT 4SM BR SCT032 OVC065 04/04 A2979 1200 96 300 160/11 RMK AO2 RAE20 P0000 TSNO
94908KDBQ DBQ20020219034013402/19/02 03:40:31  5-MIN KDBQ 190940Z AUTO 17010KT 4SM -RA BR FEW032 OVC065 04/04 A2979 1200 96 300 170/10 RMK AO2 RAE20B38 P0000 TSNO
94908KDBQ DBQ20020219034514102/19/02 03:45:31  5-MIN KDBQ 190945Z AUTO 16010KT 4SM -RA BR FEW032 SCT045 OVC065 04/04 A2978 1200 96 300 160/10 RMK AO2 RAE20B38 P0000 TSNO
94908KDBQ DBQ20020219035015702/19/02 03:50:31  5-MIN KDBQ 190950Z AUTO 17011KT 4SM BR BKN045 BKN060 OVC070 04/04 A2979 1200 96 300 170/11 RMK AO2 RAE20B38E50 SLP092 P0000 T00440039 TSNO
94908KDBQ DBQ20020219035515702/19/02 03:55:31  5-MIN KDBQ 190955Z AUTO 16010KT 4SM BR FEW033 BKN042 OVC070 04/04 A2978 1200 96 300 160/10 RMK AO2 RAE20B38E50 SLP091 P0000 T00440039 TSNO
94908KDBQ DBQ20020219040014002/19/02 04:00:31  5-MIN KDBQ 191000Z AUTO 16011KT 3SM -RA BR FEW030 BKN042 OVC060 04/04 A2978 1210 96 300 160/11 RMK AO2 RAB0957 P0001 TSNO
94908KDBQ DBQ20020219040513302/19/02 04:05:31  5-MIN KDBQ 191005Z AUTO 16011KT 4SM -RA BR SCT030 OVC042 04/04 A2978 1210 96 300 150/11 RMK AO2 RAB0957 P0001 TSNO
94908KDBQ DBQ20020219041013302/19/02 04:10:31  5-MIN KDBQ 191010Z AUTO 16012KT 4SM -RA BR BKN030 OVC042 04/04 A2978 1210 96 300 160/12 RMK AO2 RAB0957 P0001 TSNO
94908KDBQ DBQ20020219041513302/19/02 04:15:31  5-MIN KDBQ 191015Z AUTO 16011KT 3SM -RA BR BKN028 OVC042 04/04 A2978 1210 96 300 150/11 RMK AO2 RAB0957 P0001 TSNO
94908KDBQ DBQ20020219042013302/19/02 04:20:31  5-MIN KDBQ 191020Z AUTO 16012KT 3SM -RA BR BKN028 OVC039 04/04 A2978 1210 96 300 160/12 RMK AO2 RAB0957 P0001 TSNO
94908KDBQ DBQ20020219042513902/19/02 04:25:31  5-MIN KDBQ 191025Z AUTO 15013G17KT 3SM -RA BR BKN028 OVC037 04/04 A2977 1210 96 300 150/13G17 RMK AO2 RAB0957 P0002 TSNO
94908KDBQ DBQ20020219043012602/19/02 04:30:31  5-MIN KDBQ 191030Z AUTO 15013KT 3SM -RA BR OVC028 05/04 A2977 1220 92 300 150/13 RMK AO2 RAB0957 P0002 TSNO
94908KDBQ DBQ20020219043512602/19/02 04:35:31  5-MIN KDBQ 191035Z AUTO 16012KT 4SM -RA BR OVC026 05/04 A2977 1210 92 300 160/12 RMK AO2 RAB0957 P0002 TSNO
94908KDBQ DBQ20020219044013302/19/02 04:40:31  5-MIN KDBQ 191040Z AUTO 16011KT 4SM -RA BR BKN023 OVC028 05/04 A2977 1220 92 300 160/11 RMK AO2 RAB0957 P0002 TSNO
94908KDBQ DBQ20020219044513202/19/02 04:45:31  5-MIN KDBQ 191045Z AUTO 17012KT 5SM BR BKN023 OVC028 05/04 A2977 1220 92 300 160/12 RMK AO2 RAB0957E41 P0002 TSNO
94908KDBQ DBQ20020219045014202/19/02 04:50:31  5-MIN KDBQ 191050Z AUTO 15014KT 5SM BR OVC023 05/04 A2977 1220 92 300 150/14 RMK AO2 RAB0957E41 SLP085 P0002 T00500039 TSNO
94908KDBQ DBQ20020219045514202/19/02 04:55:31  5-MIN KDBQ 191055Z AUTO 17011KT 4SM BR OVC023 05/04 A2977 1220 92 300 170/11 RMK AO2 RAB0957E41 SLP086 P0002 T00500039 TSNO
94908KDBQ DBQ20020219050012602/19/02 05:00:31  5-MIN KDBQ 191100Z AUTO 16011KT 4SM -RA BR OVC023 04/04 A2977 1220 96 300 160/11 RMK AO2 RAB1059 P0000 TSNO
94908KDBQ DBQ20020219050512602/19/02 05:05:31  5-MIN KDBQ 191105Z AUTO 16012KT 4SM -RA BR OVC020 05/04 A2977 1220 92 300 160/12 RMK AO2 RAB1059 P0000 TSNO
94908KDBQ DBQ20020219051012502/19/02 05:10:31  5-MIN KDBQ 191110Z AUTO 16012KT 3SM RA BR OVC020 05/04 A2977 1220 92 300 160/12 RMK AO2 RAB1059 P0001 TSNO
94908KDBQ DBQ20020219051512902/19/02 05:15:31  5-MIN KDBQ 191115Z AUTO 16011KT 2 1/2SM RA BR OVC018 05/04 A2977 1220 92 300 160/11 RMK AO2 RAB1059 P0002 TSNO
94908KDBQ DBQ20020219052012602/19/02 05:20:31  5-MIN KDBQ 191120Z AUTO 15011KT 3SM -RA BR OVC018 05/04 A2976 1220 92 400 150/11 RMK AO2 RAB1059 P0003 TSNO
94908KDBQ DBQ20020219052512602/19/02 05:25:31  5-MIN KDBQ 191125Z AUTO 15012KT 4SM -RA BR OVC016 05/04 A2976 1230 92 400 150/12 RMK AO2 RAB1059 P0003 TSNO
94908KDBQ DBQ20020219053012602/19/02 05:30:31  5-MIN KDBQ 191130Z AUTO 15013KT 4SM -RA BR OVC016 05/04 A2976 1220 92 400 150/13 RMK AO2 RAB1059 P0003 TSNO
94908KDBQ DBQ20020219053512502/19/02 05:35:31  5-MIN KDBQ 191135Z AUTO 16012KT 5SM BR OVC016 05/04 A2976 1220 92 300 160/12 RMK AO2 RAB1059E31 P0003 TSNO
94908KDBQ DBQ20020219054012002/19/02 05:40:31  5-MIN KDBQ 191140Z 16012KT 5SM BR OVC014 05/04 A2976 1220 92 300 160/12 RMK AO2 RAB1059E31 P0003 TSNO
94908KDBQ DBQ20020219054511502/19/02 05:45:31  5-MIN KDBQ 191145Z 16011KT 4SM BR OVC014 05/04 A2976 1220 92 400 160/11 RMK AO2 RAB1059E31 P0003
94908KDBQ DBQ20020219055016202/19/02 05:50:31  5-MIN KDBQ 191150Z 16012KT 4SM BR OVC014 05/04 A2976 1220 92 300 160/12 RMK AO2 RAB1059E31 SLP084 P0003 60012 70033 T00500039 10050 20039 58016
94908KDBQ DBQ20020219055516202/19/02 05:55:31  5-MIN KDBQ 191155Z 16011KT 4SM BR OVC012 05/04 A2976 1230 92 400 160/11 RMK AO2 RAB1059E31 SLP084 P0003 60012 70033 T00500039 10050 20039 56013
94908KDBQ DBQ20020219060011702/19/02 06:00:31  5-MIN KDBQ 191200Z 16011KT 3SM BR BKN010 OVC014 05/04 A2976 1230 92 400 160/11 RMK AO2 CIG 006V013
94908KDBQ DBQ20020219060511702/19/02 06:05:31  5-MIN KDBQ 191205Z 16011KT 3SM BR BKN008 OVC013 05/04 A2976 1230 96 400 150/11 RMK AO2 CIG 006V010
94908KDBQ DBQ20020219061011002/19/02 06:10:31  5-MIN KDBQ 191210Z 16010KT 3SM BR OVC010 05/04 A2975 1230 92 400 160/10 RMK AO2 CIG 006V014
94908KDBQ DBQ20020219061511002/19/02 06:15:31  5-MIN KDBQ 191215Z 16011KT 3SM BR OVC008 05/04 A2975 1230 96 400 160/11 RMK AO2 CIG 006V012
94908KDBQ DBQ20020219062011002/19/02 06:20:31  5-MIN KDBQ 191220Z 16010KT 3SM BR OVC008 05/04 A2974 1240 96 400 160/10 RMK AO2 CIG 006V011
94908KDBQ DBQ20020219062511002/19/02 06:25:31  5-MIN KDBQ 191225Z 16011KT 4SM BR OVC008 05/04 A2974 1250 96 400 160/11 RMK AO2 CIG 005V010
94908KDBQ DBQ20020219063011702/19/02 06:30:31  5-MIN KDBQ 191230Z 16011KT 4SM BR BKN008 OVC018 05/04 A2973 1250 96 400 160/11 RMK AO2 CIG 004V011
94908KDBQ DBQ20020219063511702/19/02 06:35:31  5-MIN KDBQ 191235Z 15011KT 3SM BR BKN006 OVC018 05/04 A2973 1250 96 400 150/11 RMK AO2 CIG 003V009
94908KDBQ DBQ20020219064011702/19/02 06:40:31  5-MIN KDBQ 191240Z 15013KT 3SM BR BKN006 OVC018 05/04 A2973 1260 96 400 150/13 RMK AO2 CIG 003V009
94908KDBQ DBQ20020219064511102/19/02 06:45:31  5-MIN KDBQ 191245Z 15015G19KT 3SM BR SCT006 OVC018 05/04 A2973 1260 96 400 150/15G19 RMK AO2
94908KDBQ DBQ20020219065012202/19/02 06:50:31  5-MIN KDBQ 191250Z 15014KT 4SM BR SCT005 OVC018 05/04 A2973 1260 96 400 150/14 RMK AO2 SLP073 T00500044
94908KDBQ DBQ20020219065512202/19/02 06:55:31  5-MIN KDBQ 191255Z 15011KT 4SM BR FEW005 OVC018 05/04 A2973 1250 96 400 150/11 RMK AO2 SLP074 T00500044
94908KDBQ DBQ20020219070010502/19/02 07:00:31  5-MIN KDBQ 191300Z 15011KT 4SM BR FEW005 OVC020 05/04 A2974 1250 92 400 150/11 RMK AO2
94908KDBQ DBQ20020219070509802/19/02 07:05:31  5-MIN KDBQ 191305Z 15013KT 3SM BR OVC020 05/04 A2973 1250 92 400 150/13 RMK AO2
94908KDBQ DBQ20020219071009802/19/02 07:10:31  5-MIN KDBQ 191310Z 14014KT 3SM BR OVC020 05/04 A2973 1260 92 400 140/14 RMK AO2
94908KDBQ DBQ20020219071509802/19/02 07:15:31  5-MIN KDBQ 191315Z 15012KT 3SM BR OVC020 05/04 A2973 1250 96 400 150/12 RMK AO2
94908KDBQ DBQ20020219072009802/19/02 07:20:31  5-MIN KDBQ 191320Z 15012KT 3SM BR OVC022 05/04 A2973 1250 96 400 150/12 RMK AO2
94908KDBQ DBQ20020219072509802/19/02 07:25:31  5-MIN KDBQ 191325Z 15011KT 3SM BR OVC022 05/04 A2974 1250 96 400 150/11 RMK AO2
94908KDBQ DBQ20020219073009802/19/02 07:30:31  5-MIN KDBQ 191330Z 16011KT 3SM BR OVC022 05/04 A2975 1240 96 400 160/11 RMK AO2
94908KDBQ DBQ20020219073509802/19/02 07:35:31  5-MIN KDBQ 191335Z 16011KT 3SM BR OVC024 05/04 A2975 1240 96 400 160/11 RMK AO2
94908KDBQ DBQ20020219074009802/19/02 07:40:31  5-MIN KDBQ 191340Z 16012KT 3SM BR OVC024 05/04 A2975 1240 96 400 150/12 RMK AO2
94908KDBQ DBQ20020219074509802/19/02 07:45:31  5-MIN KDBQ 191345Z 16011KT 3SM BR OVC024 05/04 A2975 1240 96 400 160/11 RMK AO2
94908KDBQ DBQ20020219075011502/19/02 07:50:31  5-MIN KDBQ 191350Z 16011KT 3SM BR OVC024 05/04 A2975 1240 96 400 160/11 RMK AO2 SLP081 T00500044
94908KDBQ DBQ20020219075511902/19/02 07:55:31  5-MIN KDBQ 191355Z 16011KT 2 1/2SM BR OVC024 05/04 A2975 1230 96 400 160/11 RMK AO2 SLP081 T00500044
94908KDBQ DBQ20020219080010902/19/02 08:00:31  5-MIN KDBQ 191400Z 16009KT 2 1/2SM BR FEW004 OVC026 05/04 A2975 1230 96 400 160/09 RMK AO2
94908KDBQ DBQ20020219080510902/19/02 08:05:31  5-MIN KDBQ 191405Z 16009KT 2 1/2SM BR FEW004 OVC026 05/04 A2975 1230 96 400 160/09 RMK AO2
94908KDBQ DBQ20020219081010502/19/02 08:10:31  5-MIN KDBQ 191410Z 16009KT 2SM BR FEW004 OVC026 05/04 A2975 1230 96 400 160/09 RMK AO2
94908KDBQ DBQ20020219081510502/19/02 08:15:31  5-MIN KDBQ 191415Z 15011KT 2SM BR FEW004 OVC026 05/04 A2975 1240 96 400 150/11 RMK AO2
94908KDBQ DBQ20020219082010502/19/02 08:20:31  5-MIN KDBQ 191420Z 15011KT 2SM BR FEW004 OVC026 05/04 A2975 1240 96 400 150/11 RMK AO2
94908KDBQ DBQ20020219082510502/19/02 08:25:31  5-MIN KDBQ 191425Z 15011KT 2SM BR FEW004 OVC026 05/04 A2975 1240 96 400 150/11 RMK AO2
94908KDBQ DBQ20020219083009802/19/02 08:30:31  5-MIN KDBQ 191430Z 15010KT 2SM BR OVC026 05/04 A2974 1240 96 400 150/10 RMK AO2
94908KDBQ DBQ20020219083509802/19/02 08:35:31  5-MIN KDBQ 191435Z 15011KT 2SM BR OVC026 05/04 A2974 1250 96 400 150/11 RMK AO2
94908KDBQ DBQ20020219084010202/19/02 08:40:31  5-MIN KDBQ 191440Z 15011KT 2 1/2SM BR OVC026 05/04 A2974 1250 96 400 150/11 RMK AO2
94908KDBQ DBQ20020219084510202/19/02 08:45:31  5-MIN KDBQ 191445Z 15013KT 2 1/2SM BR OVC026 05/04 A2974 1250 96 400 150/13 RMK AO2
94908KDBQ DBQ20020219085012102/19/02 08:50:31  5-MIN KDBQ 191450Z 15013KT 3SM BR OVC026 06/04 A2973 1250 92 500 150/13 RMK AO2 SLP075 T00560044 56013
94908KDBQ DBQ20020219085512102/19/02 08:55:31  5-MIN KDBQ 191455Z 15013KT 3SM BR OVC026 06/04 A2973 1250 92 500 150/13 RMK AO2 SLP074 T00560044 56010
94908KDBQ DBQ20020219090009802/19/02 09:00:31  5-MIN KDBQ 191500Z 15013KT 3SM BR OVC026 06/04 A2973 1250 92 500 150/13 RMK AO2
94908KDBQ DBQ20020219090509802/19/02 09:05:31  5-MIN KDBQ 191505Z 16014KT 4SM BR OVC026 06/04 A2974 1250 92 500 160/14 RMK AO2
94908KDBQ DBQ20020219091009802/19/02 09:10:31  5-MIN KDBQ 191510Z 16011KT 4SM BR OVC026 06/04 A2973 1250 92 500 160/11 RMK AO2
94908KDBQ DBQ20020219091509802/19/02 09:15:31  5-MIN KDBQ 191515Z 16010KT 4SM BR OVC026 06/04 A2973 1250 92 500 160/10 RMK AO2
94908KDBQ DBQ20020219092009802/19/02 09:20:31  5-MIN KDBQ 191520Z 16011KT 4SM BR OVC026 06/04 A2974 1250 92 400 160/11 RMK AO2
94908KDBQ DBQ20020219092509802/19/02 09:25:31  5-MIN KDBQ 191525Z 17013KT 4SM BR OVC024 06/04 A2974 1250 89 500 170/13 RMK AO2
94908KDBQ DBQ20020219093009802/19/02 09:30:31  5-MIN KDBQ 191530Z 17011KT 5SM BR OVC024 06/04 A2974 1250 89 500 170/11 RMK AO2
94908KDBQ DBQ20020219093510402/19/02 09:35:31  5-MIN KDBQ 191535Z 17014G20KT 5SM BR OVC024 06/04 A2973 1250 89 500 160/14G20 RMK AO2
94908KDBQ DBQ20020219094010402/19/02 09:40:31  5-MIN KDBQ 191540Z 16011G20KT 5SM BR OVC024 06/05 A2973 1260 93 500 160/11G20 RMK AO2
94908KDBQ DBQ20020219094509802/19/02 09:45:31  5-MIN KDBQ 191545Z 16010KT 5SM BR OVC024 06/05 A2973 1250 93 500 160/10 RMK AO2
94908KDBQ DBQ20020219095011502/19/02 09:50:31  5-MIN KDBQ 191550Z 16011KT 4SM BR OVC024 06/05 A2973 1250 93 500 160/11 RMK AO2 SLP074 T00610050
94908KDBQ DBQ20020219095511502/19/02 09:55:31  5-MIN KDBQ 191555Z 16011KT 4SM BR OVC024 06/05 A2974 1250 93 500 160/11 RMK AO2 SLP075 T00610050
94908KDBQ DBQ20020219100009802/19/02 10:00:31  5-MIN KDBQ 191600Z 17012KT 4SM BR OVC024 06/05 A2973 1250 93 500 170/12 RMK AO2
94908KDBQ DBQ20020219100509802/19/02 10:05:31  5-MIN KDBQ 191605Z 17010KT 4SM BR OVC024 06/05 A2974 1250 93 500 170/10 RMK AO2
94908KDBQ DBQ20020219101009802/19/02 10:10:31  5-MIN KDBQ 191610Z 17011KT 4SM BR OVC024 06/05 A2974 1250 93 500 170/11 RMK AO2
94908KDBQ DBQ20020219101509802/19/02 10:15:31  5-MIN KDBQ 191615Z 16012KT 4SM BR OVC024 06/05 A2974 1250 93 500 160/12 RMK AO2
94908KDBQ DBQ20020219102009802/19/02 10:20:31  5-MIN KDBQ 191620Z 17012KT 4SM BR OVC026 06/05 A2974 1250 93 500 170/12 RMK AO2
94908KDBQ DBQ20020219102509802/19/02 10:25:31  5-MIN KDBQ 191625Z 17011KT 4SM BR OVC026 06/05 A2974 1250 93 500 160/11 RMK AO2
94908KDBQ DBQ20020219103010502/19/02 10:30:31  5-MIN KDBQ 191630Z 16012KT 4SM BR BKN026 OVC047 06/05 A2973 1260 93 500 160/12 RMK AO2
94908KDBQ DBQ20020219103512102/19/02 10:35:31  5-MIN KDBQ 191635Z 16013KT 4SM -RA BR FEW007 OVC026 06/05 A2973 1260 93 500 160/13 RMK AO2 RAB34 P0000
94908KDBQ DBQ20020219104011402/19/02 10:40:31  5-MIN KDBQ 191640Z 16012KT 4SM -RA BR OVC026 07/06 A2973 1260 93 600 160/12 RMK AO2 RAB34 P0000
94908KDBQ DBQ20020219104511402/19/02 10:45:31  5-MIN KDBQ 191645Z 16013KT 4SM -RA BR OVC026 07/06 A2973 1260 93 600 160/13 RMK AO2 RAB34 P0000
94908KDBQ DBQ20020219105013102/19/02 10:50:31  5-MIN KDBQ 191650Z 16012KT 4SM -RA BR OVC026 07/06 A2972 1260 93 600 160/12 RMK AO2 RAB34 SLP070 P0000 T00670056
94908KDBQ DBQ20020219105513102/19/02 10:55:31  5-MIN KDBQ 191655Z 16011KT 4SM -RA BR OVC026 07/06 A2972 1260 93 600 160/11 RMK AO2 RAB34 SLP070 P0000 T00670056
94908KDBQ DBQ20020219110012202/19/02 11:00:31  5-MIN KDBQ 191700Z 16012KT 4SM -RA BR SCT009 BKN019 OVC027 07/06 A2972 1270 93 600 160/12 RMK AO2 P0000
94908KDBQ DBQ20020219110512202/19/02 11:05:31  5-MIN KDBQ 191705Z 16011KT 4SM -RA BR BKN009 BKN019 OVC027 07/06 A2971 1270 93 600 160/11 RMK AO2 P0000
94908KDBQ DBQ20020219111012202/19/02 11:10:31  5-MIN KDBQ 191710Z 16011KT 5SM -RA BR BKN009 BKN019 OVC027 07/06 A2970 1280 93 600 160/11 RMK AO2 P0000
94908KDBQ DBQ20020219111511502/19/02 11:15:31  5-MIN KDBQ 191715Z 16011KT 5SM -RA BR BKN009 OVC019 07/06 A2970 1280 93 600 150/11 RMK AO2 P0000
94908KDBQ DBQ20020219112011702/19/02 11:20:31  5-MIN KDBQ 191720Z 15011KT 5SM BR BKN009 OVC019 07/06 A2971 1270 93 600 150/11 RMK AO2 RAE16 P0000
94908KDBQ DBQ20020219112511502/19/02 11:25:31  5-MIN KDBQ 191725Z 15010KT 4SM -RA BR BKN007 OVC011 07/06 A2971 1270 93 600 150/10 RMK AO2 P0000
94908KDBQ DBQ20020219113011502/19/02 11:30:31  5-MIN KDBQ 191730Z 17011KT 4SM -RA BR BKN007 OVC011 07/06 A2971 1270 93 600 170/11 RMK AO2 P0000
94908KDBQ DBQ20020219113512702/19/02 11:35:31  5-MIN KDBQ 191735Z 16012KT 4SM -RA BR BKN007 OVC011 07/06 A2971 1270 93 600 160/12 RMK AO2 CIG 005V010 P0000
94908KDBQ DBQ20020219114012702/19/02 11:40:31  5-MIN KDBQ 191740Z 16011KT 4SM -RA BR BKN007 OVC011 07/06 A2970 1280 93 600 160/11 RMK AO2 CIG 005V010 P0000
94908KDBQ DBQ20020219114512702/19/02 11:45:31  5-MIN KDBQ 191745Z 15010KT 4SM -RA BR BKN007 OVC011 07/06 A2970 1280 93 600 150/10 RMK AO2 CIG 004V010 P0001
94908KDBQ DBQ20020219115016802/19/02 11:50:31  5-MIN KDBQ 191750Z 15011KT 3SM -RA BR BKN007 OVC011 07/06 A2970 1290 93 600 150/11 RMK AO2 CIG 004V008 SLP062 P0001 60001 T00670056 10067 20050 56010
94908KDBQ DBQ20020219115516102/19/02 11:55:31  5-MIN KDBQ 191755Z 15014KT 3SM -RA BR OVC007 06/06 A2970 1290 96 600 150/14 RMK AO2 CIG 004V011 SLP062 P0001 60001 T00610056 10067 20050 58011
94908KDBQ DBQ20020219120012002/19/02 12:00:31  5-MIN KDBQ 191800Z 15010KT 3SM -RA BR OVC007 06/06 A2970 1280 96 600 150/10 RMK AO2 CIG 004V011 P0000
94908KDBQ DBQ20020219120512702/19/02 12:05:31  5-MIN KDBQ 191805Z 15012KT 3SM -RA BR BKN005 OVC009 06/06 A2970 1280 96 600 150/12 RMK AO2 CIG 004V008 P0000
94908KDBQ DBQ20020219121012002/19/02 12:10:31  5-MIN KDBQ 191810Z 15010KT 3SM -RA BR OVC005 06/06 A2969 1290 96 600 150/10 RMK AO2 CIG 004V008 P0000
94908KDBQ DBQ20020219121512702/19/02 12:15:31  5-MIN KDBQ 191815Z 15011KT 3SM -RA BR BKN005 OVC010 06/06 A2969 1300 96 600 150/11 RMK AO2 CIG 004V008 P0001
94908KDBQ DBQ20020219122012002/19/02 12:20:31  5-MIN KDBQ 191820Z 15011KT 3SM -RA BR OVC007 06/06 A2969 1290 96 600 150/11 RMK AO2 CIG 004V010 P0001
94908KDBQ DBQ20020219122512002/19/02 12:25:31  5-MIN KDBQ 191825Z 15011KT 3SM -RA BR OVC007 06/06 A2969 1290 96 600 150/11 RMK AO2 CIG 003V010 P0002
94908KDBQ DBQ20020219123012702/19/02 12:30:31  5-MIN KDBQ 191830Z 15010KT 3SM -RA BR BKN007 OVC014 06/06 A2969 1290 96 600 150/10 RMK AO2 CIG 003V010 P0002
94908KDBQ DBQ20020219123512702/19/02 12:35:31  5-MIN KDBQ 191835Z 15011KT 3SM -RA BR BKN005 OVC014 06/06 A2969 1290 96 600 150/11 RMK AO2 CIG 003V010 P0002
94908KDBQ DBQ20020219124012702/19/02 12:40:31  5-MIN KDBQ 191840Z 15009KT 3SM -RA BR BKN005 OVC016 06/06 A2968 1300 96 600 150/09 RMK AO2 CIG 003V010 P0003
94908KDBQ DBQ20020219124512602/19/02 12:45:31  5-MIN KDBQ 191845Z 15011KT 3SM RA BR BKN005 OVC016 06/06 A2968 1300 96 600 150/11 RMK AO2 CIG 003V009 P0004
94908KDBQ DBQ20020219125013102/19/02 12:50:31  5-MIN KDBQ 191850Z 15011KT 2SM RA BR SCT005 OVC016 06/06 A2968 1300 96 600 150/11 RMK AO2 SLP056 P0005 T00610056
94908KDBQ DBQ20020219125513102/19/02 12:55:31  5-MIN KDBQ 191855Z 15010KT 2SM RA BR BKN005 OVC016 06/06 A2968 1300 96 600 150/10 RMK AO2 SLP057 P0006 T00610056
94908KDBQ DBQ20020219130011402/19/02 13:00:31  5-MIN KDBQ 191900Z 16011KT 2SM RA BR BKN005 OVC019 06/06 A2968 1300 96 600 160/11 RMK AO2 P0000
94908KDBQ DBQ20020219130511902/19/02 13:05:31  5-MIN KDBQ 191905Z 16011KT 2 1/2SM -RA BR BKN005 OVC019 06/06 A2968 1300 96 600 160/11 RMK AO2 P0001
94908KDBQ DBQ20020219131011902/19/02 13:10:31  5-MIN KDBQ 191910Z 16010KT 2 1/2SM -RA BR BKN005 OVC019 06/06 A2968 1300 96 600 160/10 RMK AO2 P0001
94908KDBQ DBQ20020219131511202/19/02 13:15:31  5-MIN KDBQ 191915Z 16011KT 2 1/2SM -RA BR OVC019 06/06 A2968 1300 96 600 160/11 RMK AO2 P0002
94908KDBQ DBQ20020219132011202/19/02 13:20:31  5-MIN KDBQ 191920Z 16011KT 2 1/2SM -RA BR OVC019 06/06 A2968 1300 96 600 160/11 RMK AO2 P0002
94908KDBQ DBQ20020219132511202/19/02 13:25:31  5-MIN KDBQ 191925Z 16010KT 2 1/2SM -RA BR OVC019 06/06 A2968 1310 96 600 160/10 RMK AO2 P0003
94908KDBQ DBQ20020219133011202/19/02 13:30:31  5-MIN KDBQ 191930Z 15010KT 2 1/2SM -RA BR OVC019 06/06 A2967 1310 96 600 150/10 RMK AO2 P0003
94908KDBQ DBQ20020219133511202/19/02 13:35:31  5-MIN KDBQ 191935Z 15012KT 2 1/2SM -RA BR OVC019 06/06 A2967 1310 96 600 150/12 RMK AO2 P0004
94908KDBQ DBQ20020219134011202/19/02 13:40:31  5-MIN KDBQ 191940Z 15010KT 2 1/2SM -RA BR OVC019 06/06 A2966 1320 96 600 150/10 RMK AO2 P0004
94908KDBQ DBQ20020219134511502/19/02 13:45:31  5-MIN KDBQ 191945Z 14012KT 3SM -RA BR OVC019 06/06 A2965 1330 96 600 140/12 RMK AO2 PRESFR P0004
94908KDBQ DBQ20020219135013602/19/02 13:50:31  5-MIN KDBQ 191950Z 15012KT 2 1/2SM -RA BR OVC019 06/06 A2964 1340 96 600 140/12 RMK AO2 PRESFR SLP044 P0005 T00610056
94908KDBQ DBQ20020219135512902/19/02 13:55:31  5-MIN KDBQ 191955Z 15011KT 2 1/2SM -RA BR OVC019 07/06 A2965 1330 93 700 150/11 RMK AO2 SLP045 P0005 T00670056
94908KDBQ DBQ20020219140012202/19/02 14:00:31  5-MIN KDBQ 192000Z 15011KT 4SM -RA BR SCT008 BKN019 OVC031 07/06 A2964 1340 93 700 150/11 RMK AO2 P0000
94908KDBQ DBQ20020219140512202/19/02 14:05:31  5-MIN KDBQ 192005Z 15012KT 4SM -RA BR SCT006 BKN010 OVC033 07/06 A2963 1350 93 700 150/12 RMK AO2 P0000
94908KDBQ DBQ20020219141012202/19/02 14:10:31  5-MIN KDBQ 192010Z 14012KT 4SM -RA BR BKN008 BKN019 OVC033 07/06 A2962 1350 93 700 140/12 RMK AO2 P0000
94908KDBQ DBQ20020219141512202/19/02 14:15:31  5-MIN KDBQ 192015Z 14012KT 4SM -RA BR BKN008 BKN019 OVC085 07/06 A2962 1360 93 700 140/12 RMK AO2 P0000
94908KDBQ DBQ20020219142012402/19/02 14:20:31  5-MIN KDBQ 192020Z 14010KT 4SM BR BKN008 BKN017 OVC085 07/06 A2962 1360 96 700 140/10 RMK AO2 RAE16 P0000
94908KDBQ DBQ20020219142511702/19/02 14:25:31  5-MIN KDBQ 192025Z 14011KT 3SM BR BKN006 OVC085 07/06 A2962 1360 96 700 140/11 RMK AO2 RAE16 P0000
94908KDBQ DBQ20020219143012902/19/02 14:30:31  5-MIN KDBQ 192030Z 13011KT 3SM BR BKN006 OVC070 07/06 A2962 1360 96 700 130/11 RMK AO2 RAE16 CIG 003V010 P0000
94908KDBQ DBQ20020219143512902/19/02 14:35:31  5-MIN KDBQ 192035Z 14010KT 3SM BR BKN006 OVC070 07/06 A2962 1360 96 700 140/10 RMK AO2 RAE16 CIG 003V010 P0000
94908KDBQ DBQ20020219144012902/19/02 14:40:31  5-MIN KDBQ 192040Z 15009KT 3SM BR BKN006 OVC070 07/06 A2962 1360 93 800 150/09 RMK AO2 RAE16 CIG 003V010 P0000
94908KDBQ DBQ20020219144512202/19/02 14:45:31  5-MIN KDBQ 192045Z 15008KT 3SM BR OVC006 07/06 A2962 1350 93 800 150/08 RMK AO2 RAE16 CIG 003V010 P0000
94908KDBQ DBQ20020219145015102/19/02 14:50:31  5-MIN KDBQ 192050Z 15008KT 3SM BR OVC006 07/06 A2963 1350 96 700 150/08 RMK AO2 RAE16 CIG 003V007 SLP039 P0000 60011 T00670061 58011
94908KDBQ DBQ20020219145515102/19/02 14:55:31  5-MIN KDBQ 192055Z 15008KT 3SM BR OVC006 07/06 A2963 1350 93 800 150/08 RMK AO2 RAE16 CIG 003V007 SLP039 P0000 60011 T00720061 58022
94908KDBQ DBQ20020219150011402/19/02 15:00:31  5-MIN KDBQ 192100Z 16007KT 2 1/2SM BR OVC004 07/06 A2963 1350 96 700 160/07 RMK AO2 CIG 003V009
94908KDBQ DBQ20020219150511402/19/02 15:05:31  5-MIN KDBQ 192105Z 15009KT 2 1/2SM BR OVC004 07/06 A2962 1350 96 700 150/09 RMK AO2 CIG 002V007
94908KDBQ DBQ20020219151011002/19/02 15:10:31  5-MIN KDBQ 192110Z 15009KT 2SM BR OVC004 07/06 A2963 1350 96 700 150/09 RMK AO2 CIG 002V007
94908KDBQ DBQ20020219151511002/19/02 15:15:31  5-MIN KDBQ 192115Z 15011KT 2SM BR OVC004 07/06 A2963 1350 96 700 150/11 RMK AO2 CIG 002V007
94908KDBQ DBQ20020219152011002/19/02 15:20:31  5-MIN KDBQ 192120Z 15009KT 2SM BR OVC004 07/06 A2963 1350 96 700 150/09 RMK AO2 CIG 002V007
94908KDBQ DBQ20020219152510202/19/02 15:25:31  5-MIN KDBQ 192125Z 15009KT 1 3/4SM BR OVC002 07/06 A2963 1350 96 700 150/09 RMK AO2
94908KDBQ DBQ20020219153010202/19/02 15:30:31  5-MIN KDBQ 192130Z 15009KT 1 3/4SM BR OVC002 07/06 A2963 1350 96 700 150/09 RMK AO2
94908KDBQ DBQ20020219153510202/19/02 15:35:31  5-MIN KDBQ 192135Z 15009KT 1 1/2SM BR OVC002 07/06 A2963 1350 96 700 150/09 RMK AO2
94908KDBQ DBQ20020219154010202/19/02 15:40:31  5-MIN KDBQ 192140Z 16008KT 1 1/4SM BR OVC002 07/06 A2963 1350 96 700 150/08 RMK AO2
94908KDBQ DBQ20020219154510202/19/02 15:45:31  5-MIN KDBQ 192145Z 15008KT 1 1/4SM BR OVC002 07/06 A2963 1350 96 700 150/08 RMK AO2
94908KDBQ DBQ20020219155011502/19/02 15:50:31  5-MIN KDBQ 192150Z 15008KT 1SM BR OVC002 07/06 A2962 1350 96 700 150/08 RMK AO2 SLP037 T00670061
94908KDBQ DBQ20020219155511702/19/02 15:55:31  5-MIN KDBQ 192155Z 15009KT 3/4SM BR OVC002 07/06 A2962 1350 96 700 150/09 RMK AO2 SLP037 T00670061
94908KDBQ DBQ20020219160010102/19/02 16:00:31  5-MIN KDBQ 192200Z 15009KT 1/2SM FG OVC002 07/07 A2962 1360 100 700 140/09 RMK AO2
94908KDBQ DBQ20020219160510102/19/02 16:05:31  5-MIN KDBQ 192205Z 14009KT 1/4SM FG OVC002 07/07 A2962 1360 100 700 140/09 RMK AO2
94908KDBQ DBQ20020219161011602/19/02 16:10:31  5-MIN KDBQ 192210Z 14010KT 1/4SM -RA FG VV001 07/07 A2962 1360 100 700 140/10 RMK AO2 RAB07 P0000
94908KDBQ DBQ20020219161511602/19/02 16:15:31  5-MIN KDBQ 192215Z 14009KT 1/4SM -RA FG VV001 07/07 A2962 1360 100 700 140/09 RMK AO2 RAB07 P0000
94908KDBQ DBQ20020219162011502/19/02 16:20:31  5-MIN KDBQ 192220Z 14011KT 1/4SM -RA FG VV001 07/07 A2962 1360 96 800 140/11 RMK AO2 RAB07 P0001
94908KDBQ DBQ20020219162511602/19/02 16:25:31  5-MIN KDBQ 192225Z 14009KT 3/4SM -RA BR OVC001 07/07 A2962 1360 96 800 140/09 RMK AO2 RAB07 P0001
94908KDBQ DBQ20020219163011602/19/02 16:30:31  5-MIN KDBQ 192230Z 14008KT 3/4SM -RA BR OVC001 07/07 A2961 1370 96 800 130/08 RMK AO2 RAB07 P0002
94908KDBQ DBQ20020219163512102/19/02 16:35:31  5-MIN KDBQ 192235Z 13010KT 1SM -RA BR BKN001 OVC009 07/07 A2961 1370 96 800 130/10 RMK AO2 RAB07 P0002
94908KDBQ DBQ20020219164012102/19/02 16:40:31  5-MIN KDBQ 192240Z 13010KT 1SM -RA BR BKN001 OVC009 07/07 A2961 1370 96 800 130/10 RMK AO2 RAB07 P0002
94908KDBQ DBQ20020219164512502/19/02 16:45:31  5-MIN KDBQ 192245Z 14010KT 1 1/2SM -RA BR BKN001 OVC011 07/07 A2961 1360 96 800 140/10 RMK AO2 RAB07 P0003
94908KDBQ DBQ20020219165013802/19/02 16:50:31  5-MIN KDBQ 192250Z 14010KT 2SM -RA BR SCT003 OVC011 07/07 A2961 1360 96 800 130/10 RMK AO2 RAB07 SLP034 P0003 T00720067
94908KDBQ DBQ20020219165514102/19/02 16:55:31  5-MIN KDBQ 192255Z 14010KT 1 3/4SM BR SCT003 OVC011 07/07 A2961 1360 96 800 140/10 RMK AO2 RAB07E51 SLP034 P0003 T00720067
94908KDBQ DBQ20020219170012102/19/02 17:00:31  5-MIN KDBQ 192300Z 14010KT 1 3/4SM BR BKN003 OVC011 07/07 A2961 1360 96 800 140/10 RMK AO2 CIG 002V007
94908KDBQ DBQ20020219170512102/19/02 17:05:31  5-MIN KDBQ 192305Z 13011KT 1 3/4SM BR BKN003 OVC011 07/07 A2961 1370 96 800 130/11 RMK AO2 CIG 002V007
94908KDBQ DBQ20020219171013702/19/02 17:10:31  5-MIN KDBQ 192310Z 14010KT 1 1/2SM -RA BR BKN003 OVC011 07/07 A2960 1370 96 800 130/10 RMK AO2 RAB06 CIG 002V007 P0000
94908KDBQ DBQ20020219171513002/19/02 17:15:31  5-MIN KDBQ 192315Z 14010KT 1 1/2SM -RA BR OVC003 07/07 A2960 1370 96 800 140/10 RMK AO2 RAB06 CIG 002V007 P0000
94908KDBQ DBQ20020219172011902/19/02 17:20:31  5-MIN KDBQ 192320Z 14010KT 1 1/4SM -RA BR OVC003 07/07 A2960 1370 100 800 140/10 RMK AO2 RAB06 P0000
94908KDBQ DBQ20020219172511902/19/02 17:25:31  5-MIN KDBQ 192325Z 14010KT 1 1/4SM -RA BR OVC003 07/07 A2960 1370 100 800 140/10 RMK AO2 RAB06 P0000
94908KDBQ DBQ20020219173011802/19/02 17:30:31  5-MIN KDBQ 192330Z 14011KT 1 1/4SM BR OVC003 07/07 A2960 1370 100 800 140/11 RMK AO2 RAB06E26 P0000
94908KDBQ DBQ20020219173511802/19/02 17:35:31  5-MIN KDBQ 192335Z 14009KT 1 1/4SM BR OVC003 07/07 A2960 1370 100 800 140/09 RMK AO2 RAB06E26 P0001
94908KDBQ DBQ20020219174011802/19/02 17:40:31  5-MIN KDBQ 192340Z 14010KT 1 1/4SM BR OVC003 07/07 A2960 1370 100 800 140/10 RMK AO2 RAB06E26 P0001
94908KDBQ DBQ20020219174511802/19/02 17:45:31  5-MIN KDBQ 192345Z 14010KT 1 3/4SM BR OVC003 07/07 A2960 1370 100 800 140/10 RMK AO2 RAB06E26 P0001
94908KDBQ DBQ20020219175015502/19/02 17:50:31  5-MIN KDBQ 192350Z 14009KT 2SM BR OVC003 07/07 A2960 1380 100 800 140/09 RMK AO2 RAB06E26 SLP030 P0001 60015 T00720072 10072 20061 58022
94908KDBQ DBQ20020219175515502/19/02 17:55:31  5-MIN KDBQ 192355Z 14008KT 2SM BR OVC001 07/07 A2960 1380 100 800 140/08 RMK AO2 RAB06E26 SLP030 P0001 60015 T00720072 10072 20061 58009
94908KDBQ DBQ20020219180010302/19/02 18:00:31  5-MIN KDBQ 200000Z 14009KT 1 1/2SM BR OVC001 07/07 A2960 1380 100 800 140/09 RMK AO2
94908KDBQ DBQ20020219180510302/19/02 18:05:31  5-MIN KDBQ 200005Z 14010KT 1 1/2SM BR OVC001 07/07 A2960 1380 100 800 140/10 RMK AO2
94908KDBQ DBQ20020219181010302/19/02 18:10:31  5-MIN KDBQ 200010Z 14010KT 1 1/4SM BR OVC001 07/07 A2960 1380 100 800 140/10 RMK AO2
94908KDBQ DBQ20020219181509902/19/02 18:15:31  5-MIN KDBQ 200015Z 14010KT 1SM BR OVC001 07/07 A2960 1380 100 800 140/10 RMK AO2
94908KDBQ DBQ20020219182010102/19/02 18:20:31  5-MIN KDBQ 200020Z 14010KT 3/4SM BR OVC001 07/07 A2959 1380 100 800 140/10 RMK AO2
94908KDBQ DBQ20020219182510002/19/02 18:25:31  5-MIN KDBQ 200025Z 14011KT 1/2SM FG VV001 07/07 A2960 1380 100 800 140/11 RMK AO2
94908KDBQ DBQ20020219183010002/19/02 18:30:31  5-MIN KDBQ 200030Z 14011KT 1/2SM FG VV001 07/07 A2960 1380 100 800 140/11 RMK AO2
94908KDBQ DBQ20020219183510002/19/02 18:35:31  5-MIN KDBQ 200035Z 14010KT 1/2SM FG VV001 07/07 A2960 1370 100 800 140/10 RMK AO2
94908KDBQ DBQ20020219184010002/19/02 18:40:31  5-MIN KDBQ 200040Z 15010KT 1/2SM FG VV001 07/07 A2960 1370 100 800 140/10 RMK AO2
94908KDBQ DBQ20020219184510002/19/02 18:45:31  5-MIN KDBQ 200045Z 15010KT 1/4SM FG VV001 07/07 A2961 1370 100 800 150/10 RMK AO2
94908KDBQ DBQ20020219185011702/19/02 18:50:31  5-MIN KDBQ 200050Z 15010KT 1/4SM FG VV001 07/07 A2960 1370 100 800 150/10 RMK AO2 SLP031 T00720072
94908KDBQ DBQ20020219185511702/19/02 18:55:31  5-MIN KDBQ 200055Z 15010KT 1/8SM FG VV001 07/07 A2961 1370 100 800 150/10 RMK AO2 SLP032 T00720072
94908KDBQ DBQ20020219190010002/19/02 19:00:31  5-MIN KDBQ 200100Z 15009KT 1/4SM FG VV001 07/07 A2961 1370 100 800 150/09 RMK AO2
94908KDBQ DBQ20020219190510002/19/02 19:05:31  5-MIN KDBQ 200105Z 15009KT 1/4SM FG VV001 07/07 A2960 1370 100 800 150/09 RMK AO2
94908KDBQ DBQ20020219191009902/19/02 19:10:31  5-MIN KDBQ 200110Z 15009KT 1/4SM FG VV001 07/07 A2960 1380 96 800 150/09 RMK AO2
94908KDBQ DBQ20020219191509902/19/02 19:15:31  5-MIN KDBQ 200115Z 15009KT 1/4SM FG VV001 07/07 A2960 1380 96 800 150/09 RMK AO2
94908KDBQ DBQ20020219192009902/19/02 19:20:31  5-MIN KDBQ 200120Z 15008KT 1/4SM FG VV001 07/07 A2959 1380 96 800 150/08 RMK AO2
94908KDBQ DBQ20020219192509902/19/02 19:25:31  5-MIN KDBQ 200125Z 15008KT 1/4SM FG VV001 07/07 A2959 1390 96 800 150/08 RMK AO2
94908KDBQ DBQ20020219193009902/19/02 19:30:31  5-MIN KDBQ 200130Z 15008KT 1/4SM FG VV001 07/07 A2959 1390 96 800 150/08 RMK AO2
94908KDBQ DBQ20020219193509902/19/02 19:35:31  5-MIN KDBQ 200135Z 15008KT 1/4SM FG VV001 07/07 A2959 1390 96 800 150/08 RMK AO2
94908KDBQ DBQ20020219194009902/19/02 19:40:31  5-MIN KDBQ 200140Z 16007KT 1/4SM FG VV001 07/07 A2959 1390 96 800 160/07 RMK AO2
94908KDBQ DBQ20020219194510902/19/02 19:45:31  5-MIN KDBQ 200145Z AUTO 16006KT 1/4SM FG VV001 07/07 A2959 1390 96 800 160/06 RMK AO2 TSNO
94908KDBQ DBQ20020219195012602/19/02 19:50:31  5-MIN KDBQ 200150Z AUTO 16007KT 1/4SM FG VV001 07/07 A2958 1390 96 800 160/07 RMK AO2 SLP024 T00720067 TSNO
94908KDBQ DBQ20020219195512602/19/02 19:55:31  5-MIN KDBQ 200155Z AUTO 16007KT 1/4SM FG VV001 07/07 A2958 1390 96 800 160/07 RMK AO2 SLP024 T00720067 TSNO
94908KDBQ DBQ20020219200011002/19/02 20:00:31  5-MIN KDBQ 200200Z AUTO 16007KT 1/4SM FG VV001 07/07 A2958 1390 100 800 160/07 RMK AO2 TSNO
94908KDBQ DBQ20020219200511002/19/02 20:05:31  5-MIN KDBQ 200205Z AUTO 17007KT 1/4SM FG VV001 07/07 A2958 1390 100 800 170/07 RMK AO2 TSNO
94908KDBQ DBQ20020219201011002/19/02 20:10:31  5-MIN KDBQ 200210Z AUTO 17007KT 1/4SM FG VV001 07/07 A2958 1390 100 800 160/07 RMK AO2 TSNO
94908KDBQ DBQ20020219201511002/19/02 20:15:31  5-MIN KDBQ 200215Z AUTO 16007KT 1/4SM FG VV001 07/07 A2958 1390 100 800 160/07 RMK AO2 TSNO
94908KDBQ DBQ20020219202011002/19/02 20:20:31  5-MIN KDBQ 200220Z AUTO 16006KT 1/4SM FG VV001 07/07 A2959 1390 100 800 160/06 RMK AO2 TSNO
94908KDBQ DBQ20020219202511002/19/02 20:25:31  5-MIN KDBQ 200225Z AUTO 16007KT 1/4SM FG VV001 07/07 A2958 1390 100 800 160/07 RMK AO2 TSNO
94908KDBQ DBQ20020219203011002/19/02 20:30:31  5-MIN KDBQ 200230Z AUTO 16007KT 1/4SM FG VV001 07/07 A2958 1390 100 800 160/07 RMK AO2 TSNO
94908KDBQ DBQ20020219203511002/19/02 20:35:31  5-MIN KDBQ 200235Z AUTO 16006KT 1/4SM FG VV001 07/07 A2958 1390 100 800 160/06 RMK AO2 TSNO
94908KDBQ DBQ20020219204011002/19/02 20:40:31  5-MIN KDBQ 200240Z AUTO 16006KT 1/4SM FG VV001 07/07 A2958 1390 100 800 160/06 RMK AO2 TSNO
94908KDBQ DBQ20020219204511002/19/02 20:45:31  5-MIN KDBQ 200245Z AUTO 16007KT 1/4SM FG VV001 07/07 A2958 1400 100 800 160/07 RMK AO2 TSNO
94908KDBQ DBQ20020219205013202/19/02 20:50:31  5-MIN KDBQ 200250Z AUTO 16007KT 1/4SM FG VV001 07/07 A2958 1400 96 800 160/07 RMK AO2 SLP021 T00720067 58009 TSNO
94908KDBQ DBQ20020219205513202/19/02 20:55:31  5-MIN KDBQ 200255Z AUTO 16005KT 1/4SM FG VV001 07/07 A2957 1400 96 800 160/05 RMK AO2 SLP020 T00720067 58009 TSNO
94908KDBQ DBQ20020219210010902/19/02 21:00:31  5-MIN KDBQ 200300Z AUTO 16005KT 1/4SM FG VV001 07/07 A2957 1400 96 800 160/05 RMK AO2 TSNO
94908KDBQ DBQ20020219210510902/19/02 21:05:31  5-MIN KDBQ 200305Z AUTO 16005KT 1/4SM FG VV001 07/07 A2957 1400 96 800 160/05 RMK AO2 TSNO
94908KDBQ DBQ20020219211010902/19/02 21:10:31  5-MIN KDBQ 200310Z AUTO 16006KT 1/4SM FG VV001 07/07 A2957 1400 96 800 160/06 RMK AO2 TSNO
94908KDBQ DBQ20020219211510902/19/02 21:15:31  5-MIN KDBQ 200315Z AUTO 16007KT 1/4SM FG VV001 07/07 A2957 1410 96 800 160/07 RMK AO2 TSNO
94908KDBQ DBQ20020219212010902/19/02 21:20:31  5-MIN KDBQ 200320Z AUTO 16006KT 1/4SM FG VV001 07/07 A2956 1410 96 900 160/06 RMK AO2 TSNO
94908KDBQ DBQ20020219212511002/19/02 21:25:31  5-MIN KDBQ 200325Z AUTO 17006KT 1/4SM FG VV001 07/07 A2956 1410 100 800 170/06 RMK AO2 TSNO
94908KDBQ DBQ20020219213011002/19/02 21:30:31  5-MIN KDBQ 200330Z AUTO 19004KT 1/4SM FG VV001 07/07 A2956 1410 100 800 190/04 RMK AO2 TSNO
94908KDBQ DBQ20020219213511002/19/02 21:35:31  5-MIN KDBQ 200335Z AUTO 20004KT 1/4SM FG VV001 07/07 A2956 1410 100 800 200/04 RMK AO2 TSNO
94908KDBQ DBQ20020219214011002/19/02 21:40:31  5-MIN KDBQ 200340Z AUTO 22003KT 1/4SM FG VV001 07/07 A2956 1410 100 800 210/03 RMK AO2 TSNO
94908KDBQ DBQ20020219214510902/19/02 21:45:31  5-MIN KDBQ 200345Z AUTO 23003KT 1/4SM FG VV001 07/06 A2956 1410 96 800 230/03 RMK AO2 TSNO
94908KDBQ DBQ20020219215012602/19/02 21:50:31  5-MIN KDBQ 200350Z AUTO 22003KT 1/4SM FG VV001 07/06 A2956 1420 96 800 220/03 RMK AO2 SLP015 T00670061 TSNO
94908KDBQ DBQ20020219215512702/19/02 21:55:31  5-MIN KDBQ 200355Z AUTO 22004KT 1/4SM FG VV001 07/07 A2955 1420 100 800 210/04 RMK AO2 SLP014 T00670067 TSNO
94908KDBQ DBQ20020219220010902/19/02 22:00:31  5-MIN KDBQ 200400Z AUTO 19004KT 1/4SM FG VV001 07/07 A2955 1430 96 900 190/04 RMK AO2 TSNO
94908KDBQ DBQ20020219220510902/19/02 22:05:31  5-MIN KDBQ 200405Z AUTO 17005KT 1/4SM FG VV001 07/07 A2955 1430 96 900 170/05 RMK AO2 TSNO
94908KDBQ DBQ20020219221010902/19/02 22:10:31  5-MIN KDBQ 200410Z AUTO 19005KT 1/4SM FG VV001 07/07 A2955 1430 96 900 180/05 RMK AO2 TSNO
94908KDBQ DBQ20020219221510902/19/02 22:15:31  5-MIN KDBQ 200415Z AUTO 19006KT 1/4SM FG VV001 07/07 A2955 1430 96 900 190/06 RMK AO2 TSNO
94908KDBQ DBQ20020219222010902/19/02 22:20:31  5-MIN KDBQ 200420Z AUTO 19006KT 1/4SM FG VV001 07/07 A2955 1430 96 900 180/06 RMK AO2 TSNO
94908KDBQ DBQ20020219222510902/19/02 22:25:31  5-MIN KDBQ 200425Z AUTO 18006KT 1/4SM FG VV001 07/07 A2955 1430 96 900 180/06 RMK AO2 TSNO
94908KDBQ DBQ20020219223011002/19/02 22:30:31  5-MIN KDBQ 200430Z AUTO 18006KT 1/4SM FG VV001 07/07 A2955 1430 100 800 180/06 RMK AO2 TSNO
94908KDBQ DBQ20020219223511602/19/02 22:35:31  5-MIN KDBQ 200435Z AUTO 18006KT 1/4SM FG VV001 07/07 A2955 1430 100 800 180/06 RMK AO2 P0001 TSNO
94908KDBQ DBQ20020219224011602/19/02 22:40:31  5-MIN KDBQ 200440Z AUTO 18006KT 1/4SM FG VV001 07/07 A2955 1430 100 800 180/06 RMK AO2 P0001 TSNO
94908KDBQ DBQ20020219224511602/19/02 22:45:31  5-MIN KDBQ 200445Z AUTO 18004KT 1/4SM FG VV001 07/07 A2954 1430 100 800 180/04 RMK AO2 P0001 TSNO
94908KDBQ DBQ20020219225013302/19/02 22:50:31  5-MIN KDBQ 200450Z AUTO 19003KT 1/4SM FG VV001 07/07 A2954 1430 100 800 190/03 RMK AO2 SLP008 P0001 T00670067 TSNO
94908KDBQ DBQ20020219225513302/19/02 22:55:31  5-MIN KDBQ 200455Z AUTO 17004KT 1/4SM FG VV001 07/07 A2953 1440 100 800 160/04 RMK AO2 SLP006 P0001 T00670067 TSNO
94908KDBQ DBQ20020219230011002/19/02 23:00:31  5-MIN KDBQ 200500Z AUTO 16005KT 1/4SM FG VV001 07/07 A2953 1440 100 800 160/05 RMK AO2 TSNO
94908KDBQ DBQ20020219230511002/19/02 23:05:31  5-MIN KDBQ 200505Z AUTO 18006KT 1/4SM FG VV001 07/07 A2953 1440 100 800 180/06 RMK AO2 TSNO
94908KDBQ DBQ20020219231011002/19/02 23:10:31  5-MIN KDBQ 200510Z AUTO 16005KT 1/4SM FG VV001 07/07 A2953 1440 100 800 160/05 RMK AO2 TSNO
94908KDBQ DBQ20020219231511002/19/02 23:15:31  5-MIN KDBQ 200515Z AUTO 16007KT 1/4SM FG VV001 07/07 A2953 1440 100 800 160/07 RMK AO2 TSNO
94908KDBQ DBQ20020219232011002/19/02 23:20:31  5-MIN KDBQ 200520Z AUTO 16006KT 1/4SM FG VV001 07/07 A2953 1440 100 800 160/06 RMK AO2 TSNO
94908KDBQ DBQ20020219232511002/19/02 23:25:31  5-MIN KDBQ 200525Z AUTO 16006KT 1/4SM FG VV001 07/07 A2952 1450 100 800 160/06 RMK AO2 TSNO
94908KDBQ DBQ20020219233011002/19/02 23:30:31  5-MIN KDBQ 200530Z AUTO 16005KT 1/4SM FG VV001 07/07 A2952 1450 100 800 160/05 RMK AO2 TSNO
94908KDBQ DBQ20020219233511002/19/02 23:35:31  5-MIN KDBQ 200535Z AUTO 17004KT 1/4SM FG VV001 07/07 A2952 1450 100 800 170/04 RMK AO2 TSNO
94908KDBQ DBQ20020219234010902/19/02 23:40:31  5-MIN KDBQ 200540Z AUTO 20003KT 1/4SM FG VV001 07/06 A2952 1450 96 800 200/03 RMK AO2 TSNO
94908KDBQ DBQ20020219234510902/19/02 23:45:31  5-MIN KDBQ 200545Z AUTO 21004KT 1/4SM FG VV001 07/06 A2952 1450 96 800 210/04 RMK AO2 TSNO
94908KDBQ DBQ20020219235016002/19/02 23:50:31  5-MIN KDBQ 200550Z AUTO 19005KT 1/4SM FG VV001 07/06 A2952 1450 96 800 190/05 RMK AO2 SLP001 60001 T00670061 10072 20067 400720039 58009 TSNO
94908KDBQ DBQ20020219235516102/19/02 23:55:31  5-MIN KDBQ 200555Z AUTO 19005KT 1/4SM FG VV001 07/07 A2952 1450 100 800 190/05 RMK AO2 SLP001 60001 T00670067 10072 20067 400720039 56018 TSNO
94908KDBQ DBQ20020220000011002/20/02 00:00:31  5-MIN KDBQ 200600Z AUTO 19004KT 1/4SM FG VV001 07/07 A2952 1450 100 800 180/04 RMK AO2 TSNO
94908KDBQ DBQ20020220000511002/20/02 00:05:31  5-MIN KDBQ 200605Z AUTO 19004KT 1/4SM FG VV001 07/07 A2952 1460 100 800 190/04 RMK AO2 TSNO
94908KDBQ DBQ20020220001010902/20/02 00:10:31  5-MIN KDBQ 200610Z AUTO 18005KT 1/4SM FG VV001 07/06 A2952 1450 96 800 180/05 RMK AO2 TSNO
94908KDBQ DBQ20020220001510902/20/02 00:15:31  5-MIN KDBQ 200615Z AUTO 18006KT 1/4SM FG VV001 07/06 A2952 1460 96 800 180/06 RMK AO2 TSNO
94908KDBQ DBQ20020220002011002/20/02 00:20:31  5-MIN KDBQ 200620Z AUTO 18004KT 1/4SM FG VV001 07/07 A2951 1460 100 800 180/04 RMK AO2 TSNO
94908KDBQ DBQ20020220002511002/20/02 00:25:31  5-MIN KDBQ 200625Z AUTO 19006KT 1/4SM FG VV001 07/07 A2951 1460 100 800 180/06 RMK AO2 TSNO
94908KDBQ DBQ20020220003010902/20/02 00:30:31  5-MIN KDBQ 200630Z AUTO 18006KT 1/4SM FG VV001 07/07 A2951 1460 96 900 180/06 RMK AO2 TSNO
94908KDBQ DBQ20020220003510902/20/02 00:35:31  5-MIN KDBQ 200635Z AUTO 18005KT 1/4SM FG VV001 07/07 A2951 1460 96 900 180/05 RMK AO2 TSNO
94908KDBQ DBQ20020220004011002/20/02 00:40:31  5-MIN KDBQ 200640Z AUTO 19004KT 1/4SM FG VV001 07/07 A2951 1460 100 800 190/04 RMK AO2 TSNO
94908KDBQ DBQ20020220004511002/20/02 00:45:31  5-MIN KDBQ 200645Z AUTO 18005KT 1/4SM FG VV001 07/07 A2951 1460 100 900 180/05 RMK AO2 TSNO
94908KDBQ DBQ20020220005012702/20/02 00:50:31  5-MIN KDBQ 200650Z AUTO 18004KT 1/4SM FG VV001 07/07 A2950 1470 100 900 180/04 RMK AO2 SLP996 T00670067 TSNO
94908KDBQ DBQ20020220005512702/20/02 00:55:31  5-MIN KDBQ 200655Z AUTO 18007KT 1/4SM FG VV001 07/07 A2951 1460 100 900 180/07 RMK AO2 SLP997 T00670067 TSNO
94908KDBQ DBQ20020220010011002/20/02 01:00:31  5-MIN KDBQ 200700Z AUTO 16006KT 1/4SM FG VV001 07/07 A2951 1460 100 900 160/06 RMK AO2 TSNO
94908KDBQ DBQ20020220010511002/20/02 01:05:31  5-MIN KDBQ 200705Z AUTO 16006KT 1/4SM FG VV001 07/07 A2950 1460 100 900 160/06 RMK AO2 TSNO
94908KDBQ DBQ20020220011011002/20/02 01:10:31  5-MIN KDBQ 200710Z AUTO 17005KT 1/4SM FG VV001 07/07 A2950 1470 100 900 170/05 RMK AO2 TSNO
94908KDBQ DBQ20020220011511002/20/02 01:15:31  5-MIN KDBQ 200715Z AUTO 19005KT 1/4SM FG VV001 07/07 A2950 1470 100 900 190/05 RMK AO2 TSNO
94908KDBQ DBQ20020220012010902/20/02 01:20:31  5-MIN KDBQ 200720Z AUTO 20007KT 1/4SM FG VV001 07/06 A2950 1470 96 900 200/07 RMK AO2 TSNO
94908KDBQ DBQ20020220012511002/20/02 01:25:31  5-MIN KDBQ 200725Z AUTO 22005KT 1/4SM FG VV001 07/07 A2950 1470 100 900 210/05 RMK AO2 TSNO
94908KDBQ DBQ20020220013010902/20/02 01:30:31  5-MIN KDBQ 200730Z AUTO 19006KT 1/4SM FG VV001 07/06 A2950 1470 96 900 190/06 RMK AO2 TSNO
94908KDBQ DBQ20020220013511002/20/02 01:35:31  5-MIN KDBQ 200735Z AUTO 20006KT 1/4SM FG VV001 07/07 A2950 1470 100 900 190/06 RMK AO2 TSNO
94908KDBQ DBQ20020220014010902/20/02 01:40:31  5-MIN KDBQ 200740Z AUTO 20004KT 1/4SM FG VV001 07/06 A2950 1470 96 900 200/04 RMK AO2 TSNO
94908KDBQ DBQ20020220014510902/20/02 01:45:31  5-MIN KDBQ 200745Z AUTO 20004KT 1/4SM FG VV001 07/06 A2949 1470 96 900 200/04 RMK AO2 TSNO
94908KDBQ DBQ20020220015012602/20/02 01:50:31  5-MIN KDBQ 200750Z AUTO 21004KT 1/4SM FG VV001 07/06 A2949 1480 96 900 210/04 RMK AO2 SLP992 T00670061 TSNO
94908KDBQ DBQ20020220015512702/20/02 01:55:31  5-MIN KDBQ 200755Z AUTO 21003KT 1/4SM FG VV001 06/06 A2949 1480 100 800 210/03 RMK AO2 SLP991 T00610061 TSNO
94908KDBQ DBQ20020220020010902/20/02 02:00:31  5-MIN KDBQ 200800Z AUTO 23004KT 1/4SM FG VV001 07/06 A2948 1490 96 900 230/04 RMK AO2 TSNO
94908KDBQ DBQ20020220020511002/20/02 02:05:31  5-MIN KDBQ 200805Z AUTO 25004KT 1/4SM FG VV001 06/06 A2948 1490 100 800 250/04 RMK AO2 TSNO
94908KDBQ DBQ20020220021011002/20/02 02:10:31  5-MIN KDBQ 200810Z AUTO 00000KT 1/4SM FG VV001 06/06 A2948 1490 100 800 000/00 RMK AO2 TSNO
94908KDBQ DBQ20020220021511002/20/02 02:15:31  5-MIN KDBQ 200815Z AUTO 00000KT 1/4SM FG VV001 06/06 A2947 1490 100 800 000/00 RMK AO2 TSNO
94908KDBQ DBQ20020220022011002/20/02 02:20:31  5-MIN KDBQ 200820Z AUTO 00000KT 1/4SM FG VV001 06/06 A2947 1490 100 800 000/00 RMK AO2 TSNO
94908KDBQ DBQ20020220022510902/20/02 02:25:31  5-MIN KDBQ 200825Z AUTO 00000KT 1/4SM FG VV001 07/06 A2948 1490 96 900 000/00 RMK AO2 TSNO
94908KDBQ DBQ20020220023011002/20/02 02:30:31  5-MIN KDBQ 200830Z AUTO 19003KT 1/4SM FG VV001 06/06 A2948 1490 100 800 190/03 RMK AO2 TSNO
94908KDBQ DBQ20020220023511002/20/02 02:35:31  5-MIN KDBQ 200835Z AUTO 19003KT 1/4SM FG VV001 06/06 A2948 1490 100 800 190/03 RMK AO2 TSNO
94908KDBQ DBQ20020220024011002/20/02 02:40:31  5-MIN KDBQ 200840Z AUTO 19003KT 1/4SM FG VV001 06/06 A2947 1490 100 800 190/03 RMK AO2 TSNO
94908KDBQ DBQ20020220024511002/20/02 02:45:31  5-MIN KDBQ 200845Z AUTO 23003KT 1/4SM FG VV001 06/06 A2947 1500 100 800 230/03 RMK AO2 TSNO
94908KDBQ DBQ20020220025014502/20/02 02:50:31  5-MIN KDBQ 200850Z AUTO 24004KT 1/4SM FG VV001 06/06 A2947 1500 100 800 240/04 RMK AO2 SLP985 P0001 60001 T00610061 56018 TSNO
94908KDBQ DBQ20020220025514502/20/02 02:55:31  5-MIN KDBQ 200855Z AUTO 24003KT 1/4SM FG VV001 06/06 A2947 1500 100 800 240/03 RMK AO2 SLP984 P0001 60001 T00610061 58017 TSNO
94908KDBQ DBQ20020220030011002/20/02 03:00:31  5-MIN KDBQ 200900Z AUTO 25003KT 1/4SM FG VV001 06/06 A2947 1500 100 800 250/03 RMK AO2 TSNO
94908KDBQ DBQ20020220030511002/20/02 03:05:31  5-MIN KDBQ 200905Z AUTO 25003KT 1/4SM FG VV001 06/06 A2946 1500 100 800 250/03 RMK AO2 TSNO
94908KDBQ DBQ20020220031010902/20/02 03:10:31  5-MIN KDBQ 200910Z AUTO 24003KT 1/4SM FG VV001 06/06 A2947 1500 96 800 240/03 RMK AO2 TSNO
94908KDBQ DBQ20020220031511002/20/02 03:15:31  5-MIN KDBQ 200915Z AUTO 26004KT 1/4SM FG VV001 06/06 A2946 1500 100 800 260/04 RMK AO2 TSNO
94908KDBQ DBQ20020220032011002/20/02 03:20:31  5-MIN KDBQ 200920Z AUTO 26004KT 1/4SM FG VV001 06/06 A2946 1500 100 800 260/04 RMK AO2 TSNO
94908KDBQ DBQ20020220032511002/20/02 03:25:31  5-MIN KDBQ 200925Z AUTO 26004KT 1/4SM FG VV001 06/06 A2946 1510 100 800 260/04 RMK AO2 TSNO
94908KDBQ DBQ20020220033011002/20/02 03:30:31  5-MIN KDBQ 200930Z AUTO 27004KT 1/4SM FG VV001 06/06 A2946 1510 100 800 270/04 RMK AO2 TSNO
94908KDBQ DBQ20020220033511002/20/02 03:35:31  5-MIN KDBQ 200935Z AUTO 28003KT 1/4SM FG VV001 06/06 A2946 1510 100 800 280/03 RMK AO2 TSNO
94908KDBQ DBQ20020220034011802/20/02 03:40:31  5-MIN KDBQ 200940Z AUTO 32003KT 1/4SM FG BKN001 OVC007 06/06 A2945 1510 100 800 310/03 RMK AO2 TSNO
94908KDBQ DBQ20020220034511802/20/02 03:45:31  5-MIN KDBQ 200945Z AUTO 31005KT 1/2SM FG BKN001 OVC007 06/06 A2945 1510 100 800 310/05 RMK AO2 TSNO
94908KDBQ DBQ20020220035014102/20/02 03:50:31  5-MIN KDBQ 200950Z AUTO 31005KT 1/2SM FG SCT001 BKN007 OVC041 06/06 A2945 1520 96 800 310/05 RMK AO2 SLP978 T00610056 TSNO
94908KDBQ DBQ20020220035514102/20/02 03:55:31  5-MIN KDBQ 200955Z AUTO 32003KT 3/4SM BR BKN001 BKN007 OVC041 06/06 A2945 1520 96 900 320/03 RMK AO2 SLP977 T00610056 TSNO
94908KDBQ DBQ20020220040014302/20/02 04:00:31  5-MIN KDBQ 201000Z AUTO 35003KT 3/4SM -RA BR BKN001 BKN007 OVC041 06/06 A2944 1520 100 900 350/03 RMK AO2 RAB0956 P0000 TSNO
94908KDBQ DBQ20020220040514302/20/02 04:05:31  5-MIN KDBQ 201005Z AUTO 00000KT 3/4SM -RA BR BKN001 BKN007 OVC041 06/06 A2944 1520 100 900 000/00 RMK AO2 RAB0956 P0000 TSNO
94908KDBQ DBQ20020220041013602/20/02 04:10:31  5-MIN KDBQ 201010Z AUTO 00000KT 3/4SM -RA BR BKN001 OVC007 06/06 A2944 1520 100 900 000/00 RMK AO2 RAB0956 P0000 TSNO
94908KDBQ DBQ20020220041512802/20/02 04:15:31  5-MIN KDBQ 201015Z AUTO 26003KT 1/2SM -RA FG OVC001 06/06 A2944 1520 96 900 260/03 RMK AO2 RAB0956 P0000 TSNO
94908KDBQ DBQ20020220042012802/20/02 04:20:31  5-MIN KDBQ 201020Z AUTO 00000KT 1/2SM -RA FG VV001 06/06 A2944 1520 100 800 000/00 RMK AO2 RAB0956 P0000 TSNO
94908KDBQ DBQ20020220042512802/20/02 04:25:31  5-MIN KDBQ 201025Z AUTO 00000KT 1/2SM -RA FG VV001 06/06 A2944 1520 100 800 000/00 RMK AO2 RAB0956 P0000 TSNO
94908KDBQ DBQ20020220043012802/20/02 04:30:31  5-MIN KDBQ 201030Z AUTO 00000KT 1/4SM -RA FG VV001 06/06 A2944 1530 100 800 000/00 RMK AO2 RAB0956 P0000 TSNO
94908KDBQ DBQ20020220043512802/20/02 04:35:31  5-MIN KDBQ 201035Z AUTO 27003KT 1/2SM -RA FG VV001 06/06 A2944 1530 100 800 270/03 RMK AO2 RAB0956 P0000 TSNO
94908KDBQ DBQ20020220044012702/20/02 04:40:31  5-MIN KDBQ 201040Z AUTO 00000KT 1/2SM FG VV001 06/06 A2944 1530 100 800 000/00 RMK AO2 RAB0956E39 P0001 TSNO
94908KDBQ DBQ20020220044512702/20/02 04:45:31  5-MIN KDBQ 201045Z AUTO 00000KT 1/4SM FG VV001 06/06 A2943 1530 100 800 000/00 RMK AO2 RAB0956E39 P0001 TSNO
94908KDBQ DBQ20020220045014402/20/02 04:50:31  5-MIN KDBQ 201050Z AUTO 00000KT 1/4SM FG VV001 06/06 A2943 1530 100 800 000/00 RMK AO2 RAB0956E39 SLP972 P0001 T00560056 TSNO
94908KDBQ DBQ20020220045514402/20/02 04:55:31  5-MIN KDBQ 201055Z AUTO 00000KT 1/4SM FG VV001 06/06 A2943 1530 100 800 000/00 RMK AO2 RAB0956E39 SLP972 P0001 T00560056 TSNO
94908KDBQ DBQ20020220050012502/20/02 05:00:31  5-MIN KDBQ 201100Z AUTO 00000KT 1/4SM -RA FG VV001 06/05 A2943 1530 96 800 000/00 RMK AO2 RAB00 P0000 TSNO
94908KDBQ DBQ20020220050512502/20/02 05:05:31  5-MIN KDBQ 201105Z AUTO 00000KT 1/4SM -RA FG VV001 06/05 A2943 1540 96 800 000/00 RMK AO2 RAB00 P0000 TSNO
94908KDBQ DBQ20020220051012502/20/02 05:10:31  5-MIN KDBQ 201110Z AUTO 00000KT 1/4SM -RA FG VV001 06/05 A2943 1540 96 800 000/00 RMK AO2 RAB00 P0000 TSNO
94908KDBQ DBQ20020220051512502/20/02 05:15:31  5-MIN KDBQ 201115Z AUTO 26003KT 1/4SM -RA FG VV001 06/05 A2943 1540 96 800 260/03 RMK AO2 RAB00 P0000 TSNO
94908KDBQ DBQ20020220052012602/20/02 05:20:31  5-MIN KDBQ 201120Z AUTO 26003KT 1/4SM -RA FG VV001 05/05 A2942 1540 100 700 260/03 RMK AO2 RAB00 P0000 TSNO
94908KDBQ DBQ20020220052512602/20/02 05:25:31  5-MIN KDBQ 201125Z AUTO 26003KT 1/4SM -RA FG VV001 05/05 A2942 1540 100 700 260/03 RMK AO2 RAB00 P0000 TSNO
94908KDBQ DBQ20020220053012602/20/02 05:30:31  5-MIN KDBQ 201130Z AUTO 26003KT 1/4SM -RA FG VV001 05/05 A2942 1540 100 700 260/03 RMK AO2 RAB00 P0000 TSNO
94908KDBQ DBQ20020220053512502/20/02 05:35:31  5-MIN KDBQ 201135Z AUTO 27003KT 1/4SM -RA FG VV001 05/04 A2942 1540 96 700 270/03 RMK AO2 RAB00 P0000 TSNO
94908KDBQ DBQ20020220054012402/20/02 05:40:31  5-MIN KDBQ 201140Z AUTO 27004KT 1/4SM FG VV001 05/04 A2942 1550 96 800 270/04 RMK AO2 RAB00E39 P0000 TSNO
94908KDBQ DBQ20020220054512502/20/02 05:45:31  5-MIN KDBQ 201145Z AUTO 28004KT 1/2SM -RA FG VV001 05/04 A2941 1550 96 800 280/04 RMK AO2 RAB00 P0001 TSNO
94908KDBQ DBQ20020220055017202/20/02 05:50:31  5-MIN KDBQ 201150Z AUTO 27004KT 1/2SM -RA FG VV001 05/04 A2941 1550 96 800 270/04 RMK AO2 RAB00 SLP966 P0001 60003 70020 T00500044 10072 20050 58017 TSNO
94908KDBQ DBQ20020220055517202/20/02 05:55:31  5-MIN KDBQ 201155Z AUTO 00000KT 1/2SM -RA FG VV001 05/04 A2941 1550 96 800 000/00 RMK AO2 RAB00 SLP965 P0001 60003 70020 T00500044 10072 20050 57018 TSNO
94908KDBQ DBQ20020220060011902/20/02 06:00:31  5-MIN KDBQ 201200Z AUTO 00000KT 1/2SM -RA FG VV001 05/04 A2941 1550 96 800 000/00 RMK AO2 P0000 TSNO
94908KDBQ DBQ20020220060511902/20/02 06:05:31  5-MIN KDBQ 201205Z AUTO 28004KT 1/2SM -RA FG VV001 05/04 A2941 1550 96 800 270/04 RMK AO2 P0000 TSNO
94908KDBQ DBQ20020220061011902/20/02 06:10:31  5-MIN KDBQ 201210Z AUTO 27003KT 3/4SM -RA BR VV001 05/04 A2941 1550 96 800 270/03 RMK AO2 P0000 TSNO
94908KDBQ DBQ20020220061510902/20/02 06:15:31  5-MIN KDBQ 201215Z 26004KT 1/2SM -RA FG VV001 05/04 A2941 1550 96 800 260/04 RMK AO2 P0000
94908KDBQ DBQ20020220062010902/20/02 06:20:31  5-MIN KDBQ 201220Z 28004KT 1/2SM -RA FG VV001 05/04 A2941 1550 96 800 280/04 RMK AO2 P0000
94908KDBQ DBQ20020220062510802/20/02 06:25:31  5-MIN KDBQ 201225Z 29004KT 1/2SM RA FG VV001 05/04 A2941 1550 96 800 290/04 RMK AO2 P0001
94908KDBQ DBQ20020220063010902/20/02 06:30:31  5-MIN KDBQ 201230Z 31005KT 1/2SM RA FG OVC001 05/04 A2941 1550 96 800 310/05 RMK AO2 P0002
94908KDBQ DBQ20020220063510902/20/02 06:35:31  5-MIN KDBQ 201235Z 31006KT 1/2SM RA FG OVC001 05/04 A2941 1550 96 800 310/06 RMK AO2 P0003
94908KDBQ DBQ20020220064010902/20/02 06:40:31  5-MIN KDBQ 201240Z 32007KT 1/2SM RA FG OVC001 05/04 A2941 1560 96 800 320/07 RMK AO2 P0004
94908KDBQ DBQ20020220064510902/20/02 06:45:31  5-MIN KDBQ 201245Z 32007KT 1/2SM RA FG OVC001 05/04 A2941 1550 96 800 320/07 RMK AO2 P0004
94908KDBQ DBQ20020220065012702/20/02 06:50:31  5-MIN KDBQ 201250Z 32006KT 1/2SM -RA FG OVC001 05/04 A2941 1550 96 800 320/06 RMK AO2 SLP964 P0005 T00500044
94908KDBQ DBQ20020220065512702/20/02 06:55:31  5-MIN KDBQ 201255Z 32008KT 1/2SM -RA FG OVC001 05/04 A2941 1550 96 800 320/08 RMK AO2 SLP964 P0005 T00500044
94908KDBQ DBQ20020220070010802/20/02 07:00:31  5-MIN KDBQ 201300Z 32008KT 4SM -RA BR OVC001 05/04 A2941 1550 96 800 320/08 RMK AO2 P0000
94908KDBQ DBQ20020220070510802/20/02 07:05:31  5-MIN KDBQ 201305Z 33008KT 5SM -RA BR OVC001 05/04 A2941 1560 96 800 330/08 RMK AO2 P0001
94908KDBQ DBQ20020220071010802/20/02 07:10:31  5-MIN KDBQ 201310Z 33009KT 5SM -RA BR OVC001 05/04 A2941 1550 96 800 330/09 RMK AO2 P0001
94908KDBQ DBQ20020220071512102/20/02 07:15:31  5-MIN KDBQ 201315Z 33011KT 6SM -RA BR OVC001 04/04 A2941 1550 100 700 330/11 RMK AO2 CIG 001V005 P0001
94908KDBQ DBQ20020220072012102/20/02 07:20:31  5-MIN KDBQ 201320Z 33013KT 6SM -RA BR OVC003 04/04 A2941 1550 100 700 330/13 RMK AO2 CIG 001V007 P0001
94908KDBQ DBQ20020220072512702/20/02 07:25:31  5-MIN KDBQ 201325Z 33011KT 6SM -RA BR BKN003 OVC012 04/04 A2941 1550 96 700 330/11 RMK AO2 CIG 001V007 P0001
94908KDBQ DBQ20020220073012402/20/02 07:30:31  5-MIN KDBQ 201330Z 33011KT 7SM -RA BKN003 OVC012 04/04 A2941 1550 96 700 320/11 RMK AO2 CIG 002V007 P0002
94908KDBQ DBQ20020220073512402/20/02 07:35:31  5-MIN KDBQ 201335Z 32010KT 7SM -RA BKN003 OVC012 04/04 A2941 1550 96 700 320/10 RMK AO2 CIG 002V007 P0002
94908KDBQ DBQ20020220074011202/20/02 07:40:31  5-MIN KDBQ 201340Z 33011KT 7SM -RA BKN003 OVC012 04/04 A2942 1550 96 700 320/11 RMK AO2 P0002
94908KDBQ DBQ20020220074511202/20/02 07:45:31  5-MIN KDBQ 201345Z 32013KT 7SM -RA BKN003 OVC012 04/04 A2942 1550 96 700 320/13 RMK AO2 P0002
94908KDBQ DBQ20020220075012202/20/02 07:50:31  5-MIN KDBQ 201350Z 32012KT 7SM -RA OVC005 04/04 A2942 1550 96 700 320/12 RMK AO2 SLP967 P0003 T00440039
94908KDBQ DBQ20020220075512502/20/02 07:55:31  5-MIN KDBQ 201355Z 32011KT 6SM -RA BR OVC005 04/04 A2942 1550 96 700 320/11 RMK AO2 SLP967 P0003 T00440039
94908KDBQ DBQ20020220080010902/20/02 08:00:31  5-MIN KDBQ 201400Z 32013KT 5SM -RA BR OVC005 04/04 A2942 1550 100 600 320/13 RMK AO2 P0000
94908KDBQ DBQ20020220080510902/20/02 08:05:31  5-MIN KDBQ 201405Z 32013KT 6SM -RA BR OVC005 04/04 A2942 1550 100 600 320/13 RMK AO2 P0001
94908KDBQ DBQ20020220081012102/20/02 08:10:31  5-MIN KDBQ 201410Z 32011KT 6SM -RA BR OVC005 04/04 A2942 1550 100 600 320/11 RMK AO2 CIG 003V007 P0001
94908KDBQ DBQ20020220081512102/20/02 08:15:31  5-MIN KDBQ 201415Z 32012KT 6SM -RA BR OVC005 04/04 A2942 1550 100 600 320/12 RMK AO2 CIG 003V007 P0001
94908KDBQ DBQ20020220082010802/20/02 08:20:31  5-MIN KDBQ 201420Z 32012KT 6SM -RA BR OVC005 04/04 A2942 1550 96 700 320/12 RMK AO2 P0002
94908KDBQ DBQ20020220082510502/20/02 08:25:31  5-MIN KDBQ 201425Z 32010KT 7SM -RA OVC005 04/04 A2942 1540 96 700 320/10 RMK AO2 P0002
94908KDBQ DBQ20020220083010502/20/02 08:30:31  5-MIN KDBQ 201430Z 32010KT 8SM -RA OVC005 04/04 A2942 1540 96 700 320/10 RMK AO2 P0002
94908KDBQ DBQ20020220083510502/20/02 08:35:31  5-MIN KDBQ 201435Z 31010KT 9SM -RA OVC005 04/03 A2942 1540 92 700 310/10 RMK AO2 P0002
94908KDBQ DBQ20020220084010502/20/02 08:40:31  5-MIN KDBQ 201440Z 31010KT 9SM -RA OVC005 04/03 A2942 1550 92 700 310/10 RMK AO2 P0002
94908KDBQ DBQ20020220084510502/20/02 08:45:31  5-MIN KDBQ 201445Z 32011KT 8SM -RA OVC005 04/03 A2942 1550 92 700 320/11 RMK AO2 P0002
94908KDBQ DBQ20020220085013402/20/02 08:50:31  5-MIN KDBQ 201450Z 31009KT 7SM -RA OVC005 04/03 A2942 1550 92 700 310/09 RMK AO2 SLP967 P0002 60010 T00440033 57018
94908KDBQ DBQ20020220085513702/20/02 08:55:31  5-MIN KDBQ 201455Z 31012KT 6SM -RA BR OVC005 04/03 A2942 1540 96 600 310/12 RMK AO2 SLP968 P0003 60011 T00390033 53002
94908KDBQ DBQ20020220090010802/20/02 09:00:31  5-MIN KDBQ 201500Z 30011KT 6SM -RA BR OVC005 04/03 A2942 1540 96 600 300/11 RMK AO2 P0000
94908KDBQ DBQ20020220090511702/20/02 09:05:31  5-MIN KDBQ 201505Z 31012KT 7SM -RA OVC005 04/03 A2942 1540 96 600 310/12 RMK AO2 CIG 003V007 P0000
94908KDBQ DBQ20020220091010502/20/02 09:10:31  5-MIN KDBQ 201510Z 30010KT 7SM -RA OVC005 04/03 A2942 1540 96 600 300/10 RMK AO2 P0000
94908KDBQ DBQ20020220091510502/20/02 09:15:31  5-MIN KDBQ 201515Z 31010KT 7SM -RA OVC005 04/03 A2942 1540 92 600 310/10 RMK AO2 P0000
94908KDBQ DBQ20020220092010502/20/02 09:20:31  5-MIN KDBQ 201520Z 31011KT 8SM -RA OVC005 04/03 A2943 1540 92 600 300/11 RMK AO2 P0000
94908KDBQ DBQ20020220092511702/20/02 09:25:31  5-MIN KDBQ 201525Z 31010KT 8SM -RA OVC005 04/03 A2943 1540 92 600 300/10 RMK AO2 CIG 003V008 P0000
94908KDBQ DBQ20020220093011702/20/02 09:30:31  5-MIN KDBQ 201530Z 30010KT 7SM -RA OVC005 03/03 A2943 1540 96 500 300/10 RMK AO2 CIG 003V008 P0000
94908KDBQ DBQ20020220093510802/20/02 09:35:31  5-MIN KDBQ 201535Z 30011KT 6SM -RA BR OVC005 03/03 A2943 1530 96 500 300/11 RMK AO2 P0000
94908KDBQ DBQ20020220094010802/20/02 09:40:31  5-MIN KDBQ 201540Z 30011KT 6SM -RA BR OVC005 03/03 A2943 1530 96 500 300/11 RMK AO2 P0000
94908KDBQ DBQ20020220094510802/20/02 09:45:31  5-MIN KDBQ 201545Z 30011KT 5SM -RA BR OVC005 03/03 A2943 1530 96 500 300/11 RMK AO2 P0001
94908KDBQ DBQ20020220095012502/20/02 09:50:31  5-MIN KDBQ 201550Z 30012KT 5SM -RA BR OVC005 03/03 A2943 1540 96 500 300/12 RMK AO2 SLP972 P0001 T00330028
94908KDBQ DBQ20020220095512502/20/02 09:55:31  5-MIN KDBQ 201555Z 31011KT 5SM -RA BR OVC005 03/03 A2943 1530 96 500 310/11 RMK AO2 SLP973 P0001 T00330028
94908KDBQ DBQ20020220100010802/20/02 10:00:31  5-MIN KDBQ 201600Z 30010KT 6SM -RA BR OVC005 03/03 A2943 1530 96 500 300/10 RMK AO2 P0000
94908KDBQ DBQ20020220100510802/20/02 10:05:31  5-MIN KDBQ 201605Z 30010KT 5SM -RA BR OVC005 03/03 A2943 1530 96 500 300/10 RMK AO2 P0000
94908KDBQ DBQ20020220101012002/20/02 10:10:31  5-MIN KDBQ 201610Z 30010KT 6SM -RA BR OVC005 03/03 A2944 1530 96 500 300/10 RMK AO2 CIG 003V007 P0000
94908KDBQ DBQ20020220101510802/20/02 10:15:31  5-MIN KDBQ 201615Z 30013KT 6SM -RA BR OVC005 03/02 A2944 1530 92 500 300/13 RMK AO2 P0000
94908KDBQ DBQ20020220102010802/20/02 10:20:31  5-MIN KDBQ 201620Z 30012KT 5SM -RA BR OVC005 03/02 A2944 1530 92 500 300/12 RMK AO2 P0001
94908KDBQ DBQ20020220102510802/20/02 10:25:31  5-MIN KDBQ 201625Z 30011KT 5SM -RA BR OVC005 03/02 A2944 1530 92 500 300/11 RMK AO2 P0001
94908KDBQ DBQ20020220103010802/20/02 10:30:31  5-MIN KDBQ 201630Z 30012KT 6SM -RA BR OVC005 03/02 A2944 1530 92 500 300/12 RMK AO2 P0001
94908KDBQ DBQ20020220103512002/20/02 10:35:31  5-MIN KDBQ 201635Z 30010KT 6SM -RA BR OVC005 03/02 A2944 1530 92 500 300/10 RMK AO2 CIG 004V009 P0001
94908KDBQ DBQ20020220104013002/20/02 10:40:31  5-MIN KDBQ 201640Z 29011KT 6SM UP BR OVC005 03/02 A2944 1530 96 500 290/11 RMK AO2 RAE38UPB40 CIG 004V009 P0001
94908KDBQ DBQ20020220104513002/20/02 10:45:31  5-MIN KDBQ 201645Z 29013KT 6SM UP BR OVC005 03/02 A2944 1530 96 500 290/13 RMK AO2 RAE38UPB40 CIG 004V009 P0001
94908KDBQ DBQ20020220105014602/20/02 10:50:31  5-MIN KDBQ 201650Z 29014KT 6SM -RA BR OVC005 03/02 A2944 1530 92 500 290/14 RMK AO2 UPB40E49 CIG 004V009 SLP975 P0001 T00280017
94908KDBQ DBQ20020220105513402/20/02 10:55:31  5-MIN KDBQ 201655Z 29016KT 6SM -RA BR OVC005 03/02 A2944 1520 92 500 290/16 RMK AO2 UPB40E49 SLP976 P0001 T00280017
94908KDBQ DBQ20020220110010802/20/02 11:00:31  5-MIN KDBQ 201700Z 30014KT 6SM -RA BR OVC005 03/02 A2944 1520 92 400 300/14 RMK AO2 P0000
94908KDBQ DBQ20020220110510502/20/02 11:05:31  5-MIN KDBQ 201705Z 30012KT 7SM -RA OVC005 03/02 A2944 1520 92 400 300/12 RMK AO2 P0000
94908KDBQ DBQ20020220111010702/20/02 11:10:31  5-MIN KDBQ 201710Z 30014KT 7SM OVC005 03/02 A2944 1520 92 400 290/14 RMK AO2 RAE10 P0000
94908KDBQ DBQ20020220111510702/20/02 11:15:31  5-MIN KDBQ 201715Z 30015KT 8SM OVC005 03/02 A2944 1520 92 400 290/15 RMK AO2 RAE10 P0000
94908KDBQ DBQ20020220112010702/20/02 11:20:31  5-MIN KDBQ 201720Z 30013KT 8SM OVC005 03/02 A2945 1520 92 400 290/13 RMK AO2 RAE10 P0000
94908KDBQ DBQ20020220112511502/20/02 11:25:31  5-MIN KDBQ 201725Z 29016KT 7SM UP OVC005 02/02 A2944 1520 96 400 290/16 RMK AO2 RAE10UPB22 P0000
94908KDBQ DBQ20020220113012202/20/02 11:30:31  5-MIN KDBQ 201730Z 29014KT 8SM -RA OVC005 02/01 A2945 1520 92 400 290/14 RMK AO2 RAE10B27UPB22E27 P0000
94908KDBQ DBQ20020220113512202/20/02 11:35:31  5-MIN KDBQ 201735Z 29015KT 9SM -RA OVC005 02/01 A2945 1520 92 400 290/15 RMK AO2 RAE10B27UPB22E27 P0000
94908KDBQ DBQ20020220114012702/20/02 11:40:31  5-MIN KDBQ 201740Z 29017G23KT 9SM UP OVC005 02/01 A2945 1520 92 400 290/17G23 RMK AO2 RAE10B27E37UPB22 P0000
94908KDBQ DBQ20020220114513902/20/02 11:45:31  5-MIN KDBQ 201745Z 30017G23KT 9SM UP OVC005 02/01 A2945 1520 92 400 300/17G23 RMK AO2 RAE10B27E37UPB22 CIG 004V009 P0000
94908KDBQ DBQ20020220115017402/20/02 11:50:31  5-MIN KDBQ 201750Z 29015KT 9SM UP OVC007 02/01 A2945 1520 89 400 290/15 RMK AO2 RAE10B27E37UPB22 CIG 005V009 SLP979 P0000 60013 T00220006 10050 20022 53002
94908KDBQ DBQ20020220115517402/20/02 11:55:31  5-MIN KDBQ 201755Z 29015KT 9SM UP OVC007 02/01 A2945 1520 92 400 290/15 RMK AO2 RAE10B27E37UPB22 CIG 005V010 SLP979 P0000 60013 T00220011 10050 20022 51009
94908KDBQ DBQ20020220120011702/20/02 12:00:31  5-MIN KDBQ 201800Z 30015KT 10SM UP OVC007 02/01 A2945 1520 89 400 300/15 RMK AO2 CIG 005V010 P0000
94908KDBQ DBQ20020220120510802/20/02 12:05:31  5-MIN KDBQ 201805Z 30011KT 10SM OVC007 02/01 A2945 1520 89 400 300/11 RMK AO2 UPE05 P0000
94908KDBQ DBQ20020220121010802/20/02 12:10:31  5-MIN KDBQ 201810Z 30015KT 10SM OVC007 02/01 A2945 1520 89 400 300/15 RMK AO2 UPE05 P0000
94908KDBQ DBQ20020220121510802/20/02 12:15:31  5-MIN KDBQ 201815Z 30015KT 10SM OVC007 02/01 A2945 1520 89 400 300/15 RMK AO2 UPE05 P0000
94908KDBQ DBQ20020220122011402/20/02 12:20:31  5-MIN KDBQ 201820Z 30015G20KT 10SM OVC007 02/01 A2945 1520 89 400 300/15G20 RMK AO2 UPE05 P0000
94908KDBQ DBQ20020220122512002/20/02 12:25:31  5-MIN KDBQ 201825Z 30015KT 10SM OVC007 02/01 A2945 1520 89 400 300/15 RMK AO2 UPE05 CIG 007V011 P0000
94908KDBQ DBQ20020220123012002/20/02 12:30:31  5-MIN KDBQ 201830Z 31015KT 10SM OVC007 02/01 A2945 1520 89 400 310/15 RMK AO2 UPE05 CIG 007V011 P0000
94908KDBQ DBQ20020220123510802/20/02 12:35:31  5-MIN KDBQ 201835Z 30014KT 10SM OVC007 02/01 A2945 1520 89 400 300/14 RMK AO2 UPE05 P0000
94908KDBQ DBQ20020220124010702/20/02 12:40:31  5-MIN KDBQ 201840Z 30012KT 9SM OVC007 02/01 A2945 1520 89 400 300/12 RMK AO2 UPE05 P0000
94908KDBQ DBQ20020220124512502/20/02 12:45:31  5-MIN KDBQ 201845Z 30016G19KT 9SM OVC007 02/01 A2945 1520 89 400 300/16G19 RMK AO2 UPE05 CIG 007V011 P0000
94908KDBQ DBQ20020220125014202/20/02 12:50:31  5-MIN KDBQ 201850Z 30014G19KT 9SM OVC007 02/01 A2945 1520 89 400 300/14G19 RMK AO2 UPE05 CIG 007V011 SLP979 P0000 T00220006
94908KDBQ DBQ20020220125512502/20/02 12:55:31  5-MIN KDBQ 201855Z 29014KT 10SM OVC007 02/01 A2945 1520 89 400 290/14 RMK AO2 UPE05 SLP980 P0000 T00220006
94908KDBQ DBQ20020220130010102/20/02 13:00:31  5-MIN KDBQ 201900Z 30019G23KT 9SM OVC007 02/01 A2945 1520 89 400 300/19G23 RMK AO2
94908KDBQ DBQ20020220130510102/20/02 13:05:31  5-MIN KDBQ 201905Z 30016G23KT 9SM OVC007 02/01 A2945 1510 89 400 300/16G23 RMK AO2
94908KDBQ DBQ20020220131009502/20/02 13:10:31  5-MIN KDBQ 201910Z 30015KT 8SM OVC007 02/01 A2945 1510 89 400 300/15 RMK AO2
94908KDBQ DBQ20020220131509502/20/02 13:15:31  5-MIN KDBQ 201915Z 29017KT 8SM OVC007 02/01 A2946 1510 89 400 290/17 RMK AO2
94908KDBQ DBQ20020220132009502/20/02 13:20:31  5-MIN KDBQ 201920Z 29014KT 8SM OVC007 02/01 A2946 1510 89 400 290/14 RMK AO2
94908KDBQ DBQ20020220132509502/20/02 13:25:31  5-MIN KDBQ 201925Z 29013KT 9SM OVC007 02/01 A2946 1510 89 400 290/13 RMK AO2
94908KDBQ DBQ20020220133009502/20/02 13:30:31  5-MIN KDBQ 201930Z 30016KT 8SM OVC007 02/01 A2946 1510 89 400 290/16 RMK AO2
94908KDBQ DBQ20020220133509502/20/02 13:35:31  5-MIN KDBQ 201935Z 29017KT 9SM OVC007 02/01 A2946 1500 89 400 290/17 RMK AO2
94908KDBQ DBQ20020220134009502/20/02 13:40:31  5-MIN KDBQ 201940Z 30019KT 9SM OVC007 02/01 A2946 1500 89 400 300/19 RMK AO2
94908KDBQ DBQ20020220134509502/20/02 13:45:31  5-MIN KDBQ 201945Z 30015KT 9SM OVC007 02/01 A2947 1500 89 400 300/15 RMK AO2
94908KDBQ DBQ20020220135011202/20/02 13:50:31  5-MIN KDBQ 201950Z 30017KT 9SM OVC007 02/01 A2947 1500 89 400 300/17 RMK AO2 SLP986 T00220006
94908KDBQ DBQ20020220135511202/20/02 13:55:31  5-MIN KDBQ 201955Z 29012KT 9SM OVC007 02/01 A2947 1500 89 400 290/12 RMK AO2 SLP986 T00220006
94908KDBQ DBQ20020220140010102/20/02 14:00:31  5-MIN KDBQ 202000Z 30017G20KT 9SM OVC007 02/01 A2947 1500 89 400 300/17G20 RMK AO2
94908KDBQ DBQ20020220140509502/20/02 14:05:31  5-MIN KDBQ 202005Z 30018KT 9SM OVC007 02/01 A2947 1500 89 300 300/18 RMK AO2
94908KDBQ DBQ20020220141010802/20/02 14:10:31  5-MIN KDBQ 202010Z 30015KT 10SM OVC007 02/01 A2947 1500 89 300 300/15 RMK AO2 CIG 007V011
94908KDBQ DBQ20020220141511402/20/02 14:15:31  5-MIN KDBQ 202015Z 30014G21KT 10SM OVC007 02/01 A2947 1490 89 300 300/14G21 RMK AO2 CIG 007V011
94908KDBQ DBQ20020220142010802/20/02 14:20:31  5-MIN KDBQ 202020Z 31016KT 10SM OVC007 02/01 A2948 1490 89 300 310/16 RMK AO2 CIG 007V011
94908KDBQ DBQ20020220142510802/20/02 14:25:31  5-MIN KDBQ 202025Z 30015KT 10SM OVC009 02/00 A2948 1490 85 300 300/15 RMK AO2 CIG 007V012
94908KDBQ DBQ20020220143010802/20/02 14:30:31  5-MIN KDBQ 202030Z 29015KT 10SM OVC009 02/01 A2948 1490 89 300 290/15 RMK AO2 CIG 008V012
94908KDBQ DBQ20020220143510802/20/02 14:35:31  5-MIN KDBQ 202035Z 30018KT 10SM OVC009 02/00 A2948 1490 85 300 300/18 RMK AO2 CIG 008V012
94908KDBQ DBQ20020220144009602/20/02 14:40:31  5-MIN KDBQ 202040Z 29018KT 10SM OVC009 02/00 A2949 1480 85 300 290/18 RMK AO2
94908KDBQ DBQ20020220144511402/20/02 14:45:31  5-MIN KDBQ 202045Z 30017G24KT 10SM OVC009 02/00 A2949 1480 89 300 300/17G24 RMK AO2 CIG 008V013
94908KDBQ DBQ20020220145013102/20/02 14:50:31  5-MIN KDBQ 202050Z 30014G24KT 10SM OVC009 02/00 A2949 1480 89 300 300/14G24 RMK AO2 SLP993 60000 T00170000 51009
94908KDBQ DBQ20020220145512502/20/02 14:55:31  5-MIN KDBQ 202055Z 30018KT 10SM OVC009 02/00 A2949 1480 89 300 300/18 RMK AO2 SLP994 60000 T00170000 53014
94908KDBQ DBQ20020220150009602/20/02 15:00:31  5-MIN KDBQ 202100Z 30018KT 10SM OVC009 02/00 A2949 1480 89 300 290/18 RMK AO2
94908KDBQ DBQ20020220150510202/20/02 15:05:31  5-MIN KDBQ 202105Z 29015G22KT 10SM OVC009 02/00 A2949 1480 89 300 290/15G22 RMK AO2
94908KDBQ DBQ20020220151010202/20/02 15:10:31  5-MIN KDBQ 202110Z 30017G21KT 10SM OVC009 02/00 A2950 1470 89 200 300/17G21 RMK AO2
94908KDBQ DBQ20020220151510702/20/02 15:15:31  5-MIN KDBQ 202115Z 30018G22KT 10SM OVC009 02/00 A2950 1470 89 200 300/18G22 RMK AO2 TSNO
94908KDBQ DBQ20020220152009602/20/02 15:20:31  5-MIN KDBQ 202120Z 30017KT 10SM OVC009 02/00 A2950 1470 89 200 300/17 RMK AO2
94908KDBQ DBQ20020220152509602/20/02 15:25:31  5-MIN KDBQ 202125Z 30016KT 10SM OVC009 02/00 A2950 1470 89 200 300/16 RMK AO2
94908KDBQ DBQ20020220153010202/20/02 15:30:31  5-MIN KDBQ 202130Z 29014G21KT 10SM OVC009 02/00 A2951 1460 89 200 290/14G21 RMK AO2
94908KDBQ DBQ20020220153509602/20/02 15:35:31  5-MIN KDBQ 202135Z 29014KT 10SM OVC009 02/00 A2951 1460 89 200 290/14 RMK AO2
94908KDBQ DBQ20020220154009702/20/02 15:40:31  5-MIN KDBQ 202140Z 30017KT 10SM OVC009 02/M01 A2952 1460 85 200 300/17 RMK AO2
94908KDBQ DBQ20020220154510302/20/02 15:45:31  5-MIN KDBQ 202145Z 30015G23KT 10SM OVC009 02/M01 A2952 1450 85 200 300/15G23 RMK AO2
94908KDBQ DBQ20020220155011402/20/02 15:50:31  5-MIN KDBQ 202150Z 29016KT 10SM OVC009 01/M01 A2952 1450 89 200 290/16 RMK AO2 SLP004 T00111006
94908KDBQ DBQ20020220155511402/20/02 15:55:31  5-MIN KDBQ 202155Z 29012KT 10SM OVC009 01/M01 A2952 1450 89 100 290/12 RMK AO2 SLP005 T00111006
94908KDBQ DBQ20020220160009702/20/02 16:00:31  5-MIN KDBQ 202200Z 30016KT 10SM OVC011 01/M01 A2953 1450 89 100 300/16 RMK AO2
94908KDBQ DBQ20020220160510302/20/02 16:05:31  5-MIN KDBQ 202205Z 30018G21KT 10SM OVC011 01/M01 A2953 1440 89 100 300/18G21 RMK AO2
94908KDBQ DBQ20020220161009702/20/02 16:10:31  5-MIN KDBQ 202210Z 30016KT 10SM OVC011 01/M01 A2953 1440 89 100 300/16 RMK AO2
94908KDBQ DBQ20020220161510302/20/02 16:15:31  5-MIN KDBQ 202215Z 30016G22KT 10SM OVC011 01/M01 A2953 1440 89 100 300/16G22 RMK AO2
94908KDBQ DBQ20020220162010302/20/02 16:20:31  5-MIN KDBQ 202220Z 30017G22KT 10SM OVC011 01/M01 A2954 1430 89 100 300/17G22 RMK AO2
94908KDBQ DBQ20020220162510302/20/02 16:25:31  5-MIN KDBQ 202225Z 29014G20KT 10SM OVC011 01/M01 A2954 1430 89 100 290/14G20 RMK AO2
94908KDBQ DBQ20020220163009702/20/02 16:30:31  5-MIN KDBQ 202230Z 31018KT 10SM OVC011 01/M01 A2954 1430 89 100 300/18 RMK AO2
94908KDBQ DBQ20020220163509702/20/02 16:35:31  5-MIN KDBQ 202235Z 29012KT 10SM OVC011 01/M01 A2955 1430 85 100 290/12 RMK AO2
94908KDBQ DBQ20020220164009602/20/02 16:40:31  5-MIN KDBQ 202240Z 29013KT 9SM OVC011 01/M01 A2955 1420 89 100 290/13 RMK AO2
94908KDBQ DBQ20020220164510802/20/02 16:45:31  5-MIN KDBQ 202245Z 29015KT 8SM OVC011 01/M01 A2955 1420 85 100 290/15 RMK AO2 CIG 009V014
94908KDBQ DBQ20020220165012502/20/02 16:50:31  5-MIN KDBQ 202250Z 29016KT 8SM OVC011 01/M01 A2956 1410 85 100 290/16 RMK AO2 CIG 009V014 SLP017 T00111011
94908KDBQ DBQ20020220165511302/20/02 16:55:31  5-MIN KDBQ 202255Z 29015KT 8SM OVC011 01/M01 A2956 1410 85 100 290/15 RMK AO2 SLP019 T00111011
94908KDBQ DBQ20020220170009402/20/02 17:00:31  5-MIN KDBQ 202300Z 29014KT 8SM OVC011 01/M01 A2957 1410 89 0 290/14 RMK AO2
94908KDBQ DBQ20020220170509402/20/02 17:05:31  5-MIN KDBQ 202305Z 29017KT 8SM OVC011 01/M01 A2957 1400 89 0 290/17 RMK AO2
94908KDBQ DBQ20020220171009402/20/02 17:10:31  5-MIN KDBQ 202310Z 29015KT 8SM OVC013 01/M01 A2957 1400 89 0 290/15 RMK AO2
94908KDBQ DBQ20020220171510102/20/02 17:15:31  5-MIN KDBQ 202315Z 29015KT 8SM BKN013 OVC017 01/M01 A2958 1400 89 0 280/15 RMK AO2
94908KDBQ DBQ20020220172009402/20/02 17:20:31  5-MIN KDBQ 202320Z 29013KT 9SM OVC015 01/M01 A2958 1400 89 0 290/13 RMK AO2
94908KDBQ DBQ20020220172509402/20/02 17:25:31  5-MIN KDBQ 202325Z 29016KT 9SM OVC015 01/M01 A2958 1390 89 0 290/16 RMK AO2
94908KDBQ DBQ20020220173010102/20/02 17:30:31  5-MIN KDBQ 202330Z 29015KT 9SM BKN015 OVC019 01/M02 A2959 1390 85 0 290/15 RMK AO2
94908KDBQ DBQ20020220173510202/20/02 17:35:31  5-MIN KDBQ 202335Z 29016KT 10SM BKN015 OVC019 01/M02 A2959 1390 85 0 290/16 RMK AO2
94908KDBQ DBQ20020220174009502/20/02 17:40:31  5-MIN KDBQ 202340Z 29016KT 10SM OVC015 01/M02 A2959 1380 85 0 290/16 RMK AO2
94908KDBQ DBQ20020220174510802/20/02 17:45:31  5-MIN KDBQ 202345Z 29018G23KT 10SM BKN015 OVC023 01/M02 A2959 1380 82 0 290/18G23 RMK AO2
94908KDBQ DBQ20020220175014902/20/02 17:50:31  5-MIN KDBQ 202350Z 30014G23KT 10SM BKN017 OVC023 01/M02 A2960 1380 82 0 300/14G23 RMK AO2 SLP030 60000 T00061022 10022 20006 53014
94908KDBQ DBQ20020220175514902/20/02 17:55:31  5-MIN KDBQ 202355Z 29016G22KT 10SM BKN017 OVC023 01/M02 A2960 1380 82 0 290/16G22 RMK AO2 SLP031 60000 T00061022 10022 20006 53035
94908KDBQ DBQ20020220180010802/20/02 18:00:31  5-MIN KDBQ 210000Z 29016G22KT 10SM BKN017 OVC023 01/M02 A2960 1380 82 0 290/16G22 RMK AO2
94908KDBQ DBQ20020220180510902/20/02 18:05:31  5-MIN KDBQ 210005Z 29017KT 10SM BKN017 BKN023 OVC028 01/M02 A2960 1370 82 0 290/17 RMK AO2
94908KDBQ DBQ20020220181011502/20/02 18:10:31  5-MIN KDBQ 210010Z 29016G23KT 10SM BKN017 BKN023 OVC028 01/M02 A2961 1370 82 0 290/16G23 RMK AO2
94908KDBQ DBQ20020220181511502/20/02 18:15:31  5-MIN KDBQ 210015Z 30017G23KT 10SM BKN017 BKN023 OVC028 01/M02 A2961 1370 82 0 300/17G23 RMK AO2
94908KDBQ DBQ20020220182010202/20/02 18:20:31  5-MIN KDBQ 210020Z 30015KT 10SM BKN017 OVC028 00/M02 A2961 1370 85 0 300/15 RMK AO2
94908KDBQ DBQ20020220182510202/20/02 18:25:31  5-MIN KDBQ 210025Z 30013KT 10SM SCT017 OVC028 00/M02 A2961 1370 85 0 300/13 RMK AO2
94908KDBQ DBQ20020220183010902/20/02 18:30:31  5-MIN KDBQ 210030Z 30013KT 10SM SCT017 SCT022 OVC028 00/M02 A2961 1360 85 0 300/13 RMK AO2
94908KDBQ DBQ20020220183510902/20/02 18:35:31  5-MIN KDBQ 210035Z 29015KT 10SM SCT015 BKN021 OVC028 00/M02 A2961 1360 85 0 290/15 RMK AO2
94908KDBQ DBQ20020220184010202/20/02 18:40:31  5-MIN KDBQ 210040Z 30015KT 10SM BKN018 OVC028 00/M02 A2962 1360 85 0 300/15 RMK AO2
94908KDBQ DBQ20020220184511802/20/02 18:45:31  5-MIN KDBQ 210045Z 30016G22KT 10SM SCT016 BKN020 OVC028 00/M03 A2962 1360 81 -100 300/16G22 RMK AO2
94908KDBQ DBQ20020220185012802/20/02 18:50:31  5-MIN KDBQ 210050Z 29014G22KT 10SM BKN020 OVC028 00/M03 A2962 1360 81 -100 290/14G22 RMK AO2 SLP039 T00001028
94908KDBQ DBQ20020220185512802/20/02 18:55:31  5-MIN KDBQ 210055Z 29014G21KT 10SM BKN020 OVC030 00/M03 A2962 1350 81 -100 290/14G21 RMK AO2 SLP040 T00001028
94908KDBQ DBQ20020220190010402/20/02 19:00:31  5-MIN KDBQ 210100Z 29014G21KT 10SM OVC018 00/M03 A2962 1350 81 -100 290/14G21 RMK AO2
94908KDBQ DBQ20020220190509802/20/02 19:05:31  5-MIN KDBQ 210105Z 29014KT 10SM OVC018 00/M03 A2963 1350 81 -100 290/14 RMK AO2
94908KDBQ DBQ20020220191009802/20/02 19:10:31  5-MIN KDBQ 210110Z 29016KT 10SM OVC018 00/M03 A2963 1350 81 -100 290/16 RMK AO2
94908KDBQ DBQ20020220191510502/20/02 19:15:31  5-MIN KDBQ 210115Z 29014KT 10SM BKN018 OVC032 00/M03 A2963 1350 81 -100 290/14 RMK AO2
94908KDBQ DBQ20020220192010502/20/02 19:20:31  5-MIN KDBQ 210120Z 30015KT 10SM BKN018 OVC032 00/M03 A2963 1350 81 -100 300/15 RMK AO2
94908KDBQ DBQ20020220192510502/20/02 19:25:31  5-MIN KDBQ 210125Z 30016KT 10SM BKN018 OVC032 00/M03 A2963 1350 81 -100 300/16 RMK AO2
94908KDBQ DBQ20020220193010502/20/02 19:30:31  5-MIN KDBQ 210130Z 29016KT 10SM BKN018 OVC032 00/M03 A2963 1350 81 -100 290/16 RMK AO2
94908KDBQ DBQ20020220193510502/20/02 19:35:31  5-MIN KDBQ 210135Z 29014KT 10SM BKN018 OVC032 00/M03 A2963 1340 81 -100 290/14 RMK AO2
94908KDBQ DBQ20020220194011102/20/02 19:40:31  5-MIN KDBQ 210140Z 29017G21KT 10SM BKN018 OVC032 00/M03 A2964 1340 81 -100 290/17G21 RMK AO2
94908KDBQ DBQ20020220194510402/20/02 19:45:31  5-MIN KDBQ 210145Z 29016G21KT 10SM OVC018 00/M03 A2964 1340 81 -100 290/16G21 RMK AO2
94908KDBQ DBQ20020220195012102/20/02 19:50:31  5-MIN KDBQ 210150Z 29012G21KT 10SM OVC016 00/M03 A2964 1340 81 -100 290/12G21 RMK AO2 SLP045 T00001028
94908KDBQ DBQ20020220195511502/20/02 19:55:31  5-MIN KDBQ 210155Z 29014KT 10SM OVC016 00/M03 A2964 1340 81 -100 290/14 RMK AO2 SLP046 T00001028
94908KDBQ DBQ20020220200010802/20/02 20:00:31  5-MIN KDBQ 210200Z AUTO 29016KT 10SM OVC016 00/M03 A2964 1340 81 -100 290/16 RMK AO2 TSNO
94908KDBQ DBQ20020220200510902/20/02 20:05:31  5-MIN KDBQ 210205Z AUTO 30013KT 10SM OVC016 M01/M03 A2964 1340 85 -100 300/13 RMK AO2 TSNO
94908KDBQ DBQ20020220201010902/20/02 20:10:31  5-MIN KDBQ 210210Z AUTO 30016KT 10SM OVC016 M01/M03 A2964 1330 85 -200 290/16 RMK AO2 TSNO
94908KDBQ DBQ20020220201510902/20/02 20:15:31  5-MIN KDBQ 210215Z AUTO 29013KT 10SM OVC016 M01/M03 A2965 1330 85 -200 290/13 RMK AO2 TSNO
94908KDBQ DBQ20020220202010902/20/02 20:20:31  5-MIN KDBQ 210220Z AUTO 29013KT 10SM OVC016 M01/M03 A2965 1330 85 -200 290/13 RMK AO2 TSNO
94908KDBQ DBQ20020220202511602/20/02 20:25:31  5-MIN KDBQ 210225Z AUTO 30016KT 10SM BKN016 OVC036 M01/M03 A2965 1330 85 -200 300/16 RMK AO2 TSNO
94908KDBQ DBQ20020220203012202/20/02 20:30:31  5-MIN KDBQ 210230Z AUTO 29017G21KT 10SM BKN016 OVC038 M01/M03 A2965 1330 85 -200 290/17G21 RMK AO2 TSNO
94908KDBQ DBQ20020220203512202/20/02 20:35:31  5-MIN KDBQ 210235Z AUTO 29013G21KT 10SM BKN016 OVC038 M01/M03 A2965 1330 85 -200 290/13G21 RMK AO2 TSNO
94908KDBQ DBQ20020220204011602/20/02 20:40:31  5-MIN KDBQ 210240Z AUTO 29014KT 10SM BKN016 OVC038 M01/M03 A2965 1330 85 -200 290/14 RMK AO2 TSNO
94908KDBQ DBQ20020220204512202/20/02 20:45:31  5-MIN KDBQ 210245Z AUTO 29013KT 9SM BKN016 BKN038 OVC060 M01/M03 A2965 1320 85 -200 290/13 RMK AO2 TSNO
94908KDBQ DBQ20020220205014502/20/02 20:50:31  5-MIN KDBQ 210250Z AUTO 30015KT 8SM SCT016 BKN038 OVC060 M01/M03 A2966 1320 85 -200 290/15 RMK AO2 SLP051 T10061028 53035 TSNO
94908KDBQ DBQ20020220205516702/20/02 20:55:31  5-MIN KDBQ 210255Z AUTO 29013KT 7SM -SN SCT016 BKN038 OVC070 M01/M03 A2966 1320 85 -200 290/13 RMK AO2 SNB52 SLP053 P0000 60000 T10061028 51020 TSNO
94908KDBQ DBQ20020220210013502/20/02 21:00:31  5-MIN KDBQ 210300Z AUTO 29014KT 6SM -SN BR SCT014 BKN038 OVC070 M01/M03 A2966 1320 85 -200 290/14 RMK AO2 P0000 TSNO
94908KDBQ DBQ20020220210513502/20/02 21:05:31  5-MIN KDBQ 210305Z AUTO 29014KT 6SM -SN BR SCT014 BKN060 OVC095 M01/M03 A2966 1320 85 -200 290/14 RMK AO2 P0000 TSNO
94908KDBQ DBQ20020220211013502/20/02 21:10:31  5-MIN KDBQ 210310Z AUTO 29016KT 6SM -SN BR FEW014 BKN060 OVC095 M01/M03 A2966 1320 85 -200 290/16 RMK AO2 P0000 TSNO
94908KDBQ DBQ20020220211513502/20/02 21:15:31  5-MIN KDBQ 210315Z AUTO 29014KT 6SM -SN BR SCT014 BKN065 OVC095 M01/M03 A2966 1320 85 -200 290/14 RMK AO2 P0000 TSNO
94908KDBQ DBQ20020220212013502/20/02 21:20:31  5-MIN KDBQ 210320Z AUTO 30015KT 6SM -SN BR SCT014 BKN037 OVC095 M01/M03 A2966 1320 88 -200 290/15 RMK AO2 P0000 TSNO
94908KDBQ DBQ20020220212513502/20/02 21:25:31  5-MIN KDBQ 210325Z AUTO 30013KT 6SM -SN BR SCT014 BKN043 OVC095 M01/M03 A2966 1320 88 -200 300/13 RMK AO2 P0000 TSNO
94908KDBQ DBQ20020220213013502/20/02 21:30:31  5-MIN KDBQ 210330Z AUTO 30012KT 6SM -SN BR SCT016 BKN029 OVC095 M01/M03 A2966 1320 88 -200 300/12 RMK AO2 P0000 TSNO
94908KDBQ DBQ20020220213513502/20/02 21:35:31  5-MIN KDBQ 210335Z AUTO 29012KT 6SM -SN BR BKN016 BKN026 OVC095 M01/M03 A2967 1310 88 -200 290/12 RMK AO2 P0000 TSNO
94908KDBQ DBQ20020220214013502/20/02 21:40:31  5-MIN KDBQ 210340Z AUTO 30014KT 6SM -SN BR BKN016 BKN026 OVC041 M01/M03 A2967 1310 88 -200 300/14 RMK AO2 P0000 TSNO
94908KDBQ DBQ20020220214513502/20/02 21:45:31  5-MIN KDBQ 210345Z AUTO 30014KT 6SM -SN BR BKN013 BKN018 OVC041 M01/M03 A2967 1310 88 -200 290/14 RMK AO2 P0000 TSNO
94908KDBQ DBQ20020220215014502/20/02 21:50:31  5-MIN KDBQ 210350Z AUTO 29012KT 5SM -SN BR BKN013 OVC018 M01/M03 A2967 1310 88 -300 290/12 RMK AO2 SLP058 P0000 T10111028 TSNO
94908KDBQ DBQ20020220215514502/20/02 21:55:31  5-MIN KDBQ 210355Z AUTO 29011KT 5SM -SN BR BKN013 OVC018 M01/M03 A2967 1310 88 -300 290/11 RMK AO2 SLP058 P0000 T10111028 TSNO
94908KDBQ DBQ20020220220012102/20/02 22:00:31  5-MIN KDBQ 210400Z AUTO 29012KT 5SM -SN BR OVC015 M01/M02 A2968 1310 92 -300 290/12 RMK AO2 P0000 TSNO
94908KDBQ DBQ20020220220512102/20/02 22:05:31  5-MIN KDBQ 210405Z AUTO 29012KT 5SM -SN BR OVC015 M01/M03 A2968 1310 88 -300 290/12 RMK AO2 P0000 TSNO
94908KDBQ DBQ20020220221012102/20/02 22:10:31  5-MIN KDBQ 210410Z AUTO 29013KT 5SM -SN BR OVC015 M01/M03 A2968 1300 88 -300 290/13 RMK AO2 P0000 TSNO
94908KDBQ DBQ20020220221512102/20/02 22:15:31  5-MIN KDBQ 210415Z AUTO 29011KT 4SM -SN BR OVC015 M01/M03 A2968 1300 88 -300 290/11 RMK AO2 P0000 TSNO
94908KDBQ DBQ20020220222012102/20/02 22:20:31  5-MIN KDBQ 210420Z AUTO 29012KT 3SM -SN BR OVC015 M01/M03 A2968 1300 88 -300 290/12 RMK AO2 P0000 TSNO
94908KDBQ DBQ20020220222512102/20/02 22:25:31  5-MIN KDBQ 210425Z AUTO 29011KT 3SM -SN BR OVC015 M01/M03 A2968 1300 88 -300 290/11 RMK AO2 P0000 TSNO
94908KDBQ DBQ20020220223012102/20/02 22:30:31  5-MIN KDBQ 210430Z AUTO 29011KT 3SM -SN BR OVC015 M01/M03 A2969 1300 88 -300 290/11 RMK AO2 P0000 TSNO
94908KDBQ DBQ20020220223512802/20/02 22:35:31  5-MIN KDBQ 210435Z AUTO 29013KT 3SM -SN BR SCT013 OVC018 M01/M03 A2969 1300 88 -300 290/13 RMK AO2 P0000 TSNO
94908KDBQ DBQ20020220224012802/20/02 22:40:31  5-MIN KDBQ 210440Z AUTO 29013KT 3SM -SN BR BKN013 OVC018 M01/M03 A2969 1290 88 -300 290/13 RMK AO2 P0000 TSNO
94908KDBQ DBQ20020220224512802/20/02 22:45:31  5-MIN KDBQ 210445Z AUTO 29012KT 3SM -SN BR BKN013 OVC018 M01/M03 A2969 1290 88 -300 290/12 RMK AO2 P0000 TSNO
94908KDBQ DBQ20020220225014502/20/02 22:50:31  5-MIN KDBQ 210450Z AUTO 29011KT 3SM -SN BR BKN011 OVC018 M01/M03 A2969 1290 88 -300 290/11 RMK AO2 SLP063 P0000 T10111028 TSNO
94908KDBQ DBQ20020220225514502/20/02 22:55:31  5-MIN KDBQ 210455Z AUTO 29010KT 4SM -SN BR BKN011 OVC018 M01/M03 A2969 1290 88 -300 290/10 RMK AO2 SLP064 P0000 T10111028 TSNO
94908KDBQ DBQ20020220230012802/20/02 23:00:31  5-MIN KDBQ 210500Z AUTO 29010KT 5SM -SN BR BKN011 OVC018 M01/M03 A2969 1290 88 -300 280/10 RMK AO2 P0000 TSNO
94908KDBQ DBQ20020220230512802/20/02 23:05:31  5-MIN KDBQ 210505Z AUTO 29012KT 6SM -SN BR BKN013 OVC017 M01/M03 A2969 1290 88 -300 290/12 RMK AO2 P0000 TSNO
94908KDBQ DBQ20020220231012102/20/02 23:10:31  5-MIN KDBQ 210510Z AUTO 29012KT 5SM -SN BR OVC013 M01/M03 A2970 1290 88 -300 290/12 RMK AO2 P0000 TSNO
94908KDBQ DBQ20020220231512102/20/02 23:15:31  5-MIN KDBQ 210515Z AUTO 29010KT 4SM -SN BR OVC013 M01/M03 A2970 1290 88 -300 290/10 RMK AO2 P0000 TSNO
94908KDBQ DBQ20020220232012102/20/02 23:20:31  5-MIN KDBQ 210520Z AUTO 29011KT 4SM -SN BR OVC013 M01/M03 A2970 1290 88 -300 290/11 RMK AO2 P0000 TSNO
94908KDBQ DBQ20020220232512102/20/02 23:25:31  5-MIN KDBQ 210525Z AUTO 29011KT 6SM -SN BR OVC013 M01/M03 A2970 1280 85 -300 290/11 RMK AO2 P0000 TSNO
94908KDBQ DBQ20020220233013002/20/02 23:30:31  5-MIN KDBQ 210530Z AUTO 30011KT 6SM BR SCT012 OVC017 M01/M03 A2970 1280 85 -300 300/11 RMK AO2 SNE29 P0000 TSNO
94908KDBQ DBQ20020220233513002/20/02 23:35:31  5-MIN KDBQ 210535Z AUTO 30011KT 6SM BR BKN015 OVC036 M01/M03 A2970 1280 85 -300 300/11 RMK AO2 SNE29 P0000 TSNO
94908KDBQ DBQ20020220234012802/20/02 23:40:31  5-MIN KDBQ 210540Z AUTO 30011KT 6SM -SN BR BKN015 OVC036 M01/M03 A2970 1280 85 -300 300/11 RMK AO2 P0000 TSNO
94908KDBQ DBQ20020220234512802/20/02 23:45:31  5-MIN KDBQ 210545Z AUTO 30011KT 5SM -SN BR BKN015 OVC036 M01/M03 A2970 1280 85 -300 300/11 RMK AO2 P0000 TSNO
94908KDBQ DBQ20020220235017902/20/02 23:50:31  5-MIN KDBQ 210550Z AUTO 30013KT 5SM -SN BR BKN015 OVC036 M01/M03 A2971 1280 85 -300 300/13 RMK AO2 SLP070 P0000 60000 T10111033 10006 21011 400721011 51020 TSNO
94908KDBQ DBQ20020220235517602/20/02 23:55:31  5-MIN KDBQ 210555Z AUTO 31011KT 7SM -SN BKN015 OVC036 M01/M03 A2971 1280 85 -300 300/11 RMK AO2 SLP070 P0000 60000 T10111033 10006 21011 400721011 51016 TSNO
94908KDBQ DBQ20020221000012902/21/02 00:00:31  5-MIN KDBQ 210600Z AUTO 30011KT 8SM BKN015 OVC036 M01/M03 A2971 1280 85 -300 300/11 RMK AO2 SNE0557 P0000 TSNO
94908KDBQ DBQ20020221000512902/21/02 00:05:31  5-MIN KDBQ 210605Z AUTO 30011KT 9SM BKN015 OVC036 M01/M03 A2971 1270 85 -300 300/11 RMK AO2 SNE0557 P0000 TSNO
94908KDBQ DBQ20020221001013002/21/02 00:10:31  5-MIN KDBQ 210610Z AUTO 30010KT 10SM BKN015 OVC036 M01/M03 A2971 1270 85 -300 300/10 RMK AO2 SNE0557 P0000 TSNO
94908KDBQ DBQ20020221001513002/21/02 00:15:31  5-MIN KDBQ 210615Z AUTO 30011KT 10SM BKN015 OVC036 M01/M03 A2971 1270 85 -300 300/11 RMK AO2 SNE0557 P0000 TSNO
94908KDBQ DBQ20020221002013002/21/02 00:20:31  5-MIN KDBQ 210620Z AUTO 30011KT 10SM BKN015 OVC036 M01/M03 A2971 1270 85 -300 300/11 RMK AO2 SNE0557 P0000 TSNO
94908KDBQ DBQ20020221002513002/21/02 00:25:31  5-MIN KDBQ 210625Z AUTO 30011KT 10SM BKN015 OVC036 M01/M03 A2971 1270 85 -300 300/11 RMK AO2 SNE0557 P0000 TSNO
94908KDBQ DBQ20020221003013002/21/02 00:30:31  5-MIN KDBQ 210630Z AUTO 31011KT 10SM BKN015 OVC036 M01/M03 A2971 1270 85 -300 300/11 RMK AO2 SNE0557 P0000 TSNO
94908KDBQ DBQ20020221003512302/21/02 00:35:31  5-MIN KDBQ 210635Z AUTO 31011KT 10SM OVC015 M01/M03 A2972 1270 85 -300 310/11 RMK AO2 SNE0557 P0000 TSNO
94908KDBQ DBQ20020221004012302/21/02 00:40:31  5-MIN KDBQ 210640Z AUTO 30010KT 10SM OVC015 M01/M03 A2972 1270 85 -300 300/10 RMK AO2 SNE0557 P0000 TSNO
94908KDBQ DBQ20020221004512302/21/02 00:45:31  5-MIN KDBQ 210645Z AUTO 30010KT 10SM OVC015 M01/M03 A2972 1260 85 -300 300/10 RMK AO2 SNE0557 P0000 TSNO
94908KDBQ DBQ20020221005014002/21/02 00:50:31  5-MIN KDBQ 210650Z AUTO 31010KT 10SM OVC015 M01/M03 A2972 1260 85 -300 310/10 RMK AO2 SNE0557 SLP075 P0000 T10111033 TSNO
94908KDBQ DBQ20020221005513902/21/02 00:55:31  5-MIN KDBQ 210655Z AUTO 31009KT 9SM OVC013 M01/M03 A2972 1260 88 -300 310/09 RMK AO2 SNE0557 SLP076 P0000 T10111028 TSNO
94908KDBQ DBQ20020221010013602/21/02 01:00:31  5-MIN KDBQ 210700Z AUTO 31011KT 5SM -SN BR BKN013 OVC041 M01/M03 A2972 1260 88 -300 310/11 RMK AO2 SNB0657 P0000 TSNO
94908KDBQ DBQ20020221010514302/21/02 01:05:31  5-MIN KDBQ 210705Z AUTO 31011KT 3SM -SN BR BKN013 BKN041 OVC050 M01/M03 A2972 1260 88 -300 310/11 RMK AO2 SNB0657 P0000 TSNO
94908KDBQ DBQ20020221011014702/21/02 01:10:31  5-MIN KDBQ 210710Z AUTO 30010KT 2 1/2SM -SN BR BKN013 BKN041 OVC095 M01/M03 A2972 1260 88 -300 300/10 RMK AO2 SNB0657 P0000 TSNO
94908KDBQ DBQ20020221011514702/21/02 01:15:31  5-MIN KDBQ 210715Z AUTO 31011KT 2 1/2SM -SN BR SCT013 SCT041 OVC095 M01/M03 A2973 1260 88 -300 310/11 RMK AO2 SNB0657 P0000 TSNO
94908KDBQ DBQ20020221012014702/21/02 01:20:31  5-MIN KDBQ 210720Z AUTO 31010KT 2 1/2SM -SN BR SCT013 SCT045 OVC090 M02/M03 A2973 1260 92 -400 310/10 RMK AO2 SNB0657 P0000 TSNO
94908KDBQ DBQ20020221012514702/21/02 01:25:31  5-MIN KDBQ 210725Z AUTO 30011KT 2 1/2SM -SN BR FEW011 SCT060 OVC090 M02/M03 A2973 1250 92 -400 300/11 RMK AO2 SNB0657 P0000 TSNO
94908KDBQ DBQ20020221013014702/21/02 01:30:31  5-MIN KDBQ 210730Z AUTO 31009KT 2 1/2SM -SN BR FEW011 SCT060 OVC090 M02/M03 A2973 1250 92 -400 300/09 RMK AO2 SNB0657 P0000 TSNO
94908KDBQ DBQ20020221013514702/21/02 01:35:31  5-MIN KDBQ 210735Z AUTO 30009KT 2 1/2SM -SN BR FEW013 SCT039 OVC090 M02/M03 A2973 1250 92 -400 300/09 RMK AO2 SNB0657 P0000 TSNO
94908KDBQ DBQ20020221014014302/21/02 01:40:31  5-MIN KDBQ 210740Z AUTO 31010KT 3SM -SN BR FEW013 SCT047 OVC090 M02/M03 A2973 1250 92 -400 310/10 RMK AO2 SNB0657 P0000 TSNO
94908KDBQ DBQ20020221014514302/21/02 01:45:31  5-MIN KDBQ 210745Z AUTO 31009KT 4SM -SN BR SCT011 BKN060 OVC090 M02/M03 A2974 1250 92 -400 310/09 RMK AO2 SNB0657 P0000 TSNO
94908KDBQ DBQ20020221015016002/21/02 01:50:31  5-MIN KDBQ 210750Z AUTO 31010KT 4SM -SN BR SCT011 BKN045 OVC090 M02/M03 A2974 1250 92 -400 310/10 RMK AO2 SNB0657 SLP082 P0000 T10171028 TSNO
94908KDBQ DBQ20020221015516002/21/02 01:55:31  5-MIN KDBQ 210755Z AUTO 31011KT 4SM -SN BR SCT011 BKN017 OVC090 M02/M03 A2974 1250 92 -400 310/11 RMK AO2 SNB0657 SLP082 P0000 T10171028 TSNO
94908KDBQ DBQ20020221020013502/21/02 02:00:31  5-MIN KDBQ 210800Z AUTO 31012KT 4SM -SN BR BKN013 BKN045 OVC090 M01/M03 A2974 1240 88 -300 310/12 RMK AO2 P0000 TSNO
94908KDBQ DBQ20020221020513502/21/02 02:05:31  5-MIN KDBQ 210805Z AUTO 32010KT 4SM -SN BR BKN013 BKN018 OVC090 M01/M03 A2974 1240 88 -300 310/10 RMK AO2 P0000 TSNO
94908KDBQ DBQ20020221021014002/21/02 02:10:31  5-MIN KDBQ 210810Z AUTO 31010KT 5SM -SN BR SCT011 OVC016 M01/M03 A2975 1240 88 -300 310/10 RMK AO2 CIG 013V026 P0000 TSNO
94908KDBQ DBQ20020221021513502/21/02 02:15:31  5-MIN KDBQ 210815Z AUTO 33010KT 4SM -SN BR BKN011 BKN018 OVC027 M01/M03 A2975 1240 88 -300 330/10 RMK AO2 P0000 TSNO
94908KDBQ DBQ20020221022013502/21/02 02:20:31  5-MIN KDBQ 210820Z AUTO 32012KT 3SM -SN BR BKN013 BKN029 OVC120 M01/M03 A2975 1240 88 -300 320/12 RMK AO2 P0000 TSNO
94908KDBQ DBQ20020221022513902/21/02 02:25:31  5-MIN KDBQ 210825Z AUTO 32011KT 2 1/2SM -SN BR SCT010 BKN016 OVC120 M01/M03 A2975 1240 88 -300 320/11 RMK AO2 P0000 TSNO
94908KDBQ DBQ20020221023013502/21/02 02:30:31  5-MIN KDBQ 210830Z AUTO 32011KT 2SM -SN BR SCT012 BKN023 OVC110 M01/M03 A2975 1240 88 -300 320/11 RMK AO2 P0000 TSNO
94908KDBQ DBQ20020221023513902/21/02 02:35:31  5-MIN KDBQ 210835Z AUTO 33012KT 1 3/4SM -SN BR SCT012 BKN025 OVC110 M01/M03 A2975 1230 88 -300 320/12 RMK AO2 P0000 TSNO
94908KDBQ DBQ20020221024013502/21/02 02:40:31  5-MIN KDBQ 210840Z AUTO 33011KT 2SM -SN BR SCT010 BKN029 OVC110 M02/M03 A2975 1230 92 -400 320/11 RMK AO2 P0000 TSNO
94908KDBQ DBQ20020221024513502/21/02 02:45:31  5-MIN KDBQ 210845Z AUTO 33012KT 2SM -SN BR SCT010 BKN024 OVC100 M02/M03 A2975 1230 92 -400 320/12 RMK AO2 P0000 TSNO
94908KDBQ DBQ20020221025016402/21/02 02:50:31  5-MIN KDBQ 210850Z AUTO 32012KT 2SM -SN BR FEW010 BKN024 OVC100 M02/M03 A2976 1230 92 -400 320/12 RMK AO2 SLP087 P0000 60000 T10171028 51016 TSNO
94908KDBQ DBQ20020221025516402/21/02 02:55:31  5-MIN KDBQ 210855Z AUTO 33011KT 2SM -SN BR SCT010 BKN024 OVC100 M01/M02 A2976 1230 92 -400 330/11 RMK AO2 SLP088 P0000 60000 T10111022 53017 TSNO
94908KDBQ DBQ20020221030013902/21/02 03:00:31  5-MIN KDBQ 210900Z AUTO 33012KT 2 1/2SM -SN BR SCT008 BKN014 OVC045 M01/M02 A2976 1230 92 -400 330/12 RMK AO2 P0000 TSNO
94908KDBQ DBQ20020221030513502/21/02 03:05:31  5-MIN KDBQ 210905Z AUTO 33011KT 3SM -SN BR SCT008 BKN012 OVC025 M01/M02 A2976 1220 92 -400 330/11 RMK AO2 P0000 TSNO
94908KDBQ DBQ20020221031013502/21/02 03:10:31  5-MIN KDBQ 210910Z AUTO 34011KT 4SM -SN BR BKN006 BKN012 OVC025 M01/M02 A2976 1220 92 -400 330/11 RMK AO2 P0000 TSNO
94908KDBQ DBQ20020221031514702/21/02 03:15:31  5-MIN KDBQ 210915Z AUTO 34010KT 6SM -SN BR BKN006 BKN012 OVC025 M01/M03 A2977 1220 88 -400 340/10 RMK AO2 CIG 005V010 P0000 TSNO
94908KDBQ DBQ20020221032013902/21/02 03:20:31  5-MIN KDBQ 210920Z AUTO 34013KT 8SM BKN006 OVC012 M01/M03 A2977 1220 88 -400 340/13 RMK AO2 SNE17 CIG 005V009 P0000 TSNO
94908KDBQ DBQ20020221032514702/21/02 03:25:31  5-MIN KDBQ 210925Z AUTO 34012KT 10SM BKN006 BKN012 OVC020 M01/M03 A2977 1220 88 -400 340/12 RMK AO2 SNE17 CIG 005V010 P0000 TSNO
94908KDBQ DBQ20020221033014702/21/02 03:30:31  5-MIN KDBQ 210930Z AUTO 34011KT 10SM BKN006 BKN012 OVC020 M01/M03 A2977 1220 85 -400 340/11 RMK AO2 SNE17 CIG 005V010 P0000 TSNO
94908KDBQ DBQ20020221033513502/21/02 03:35:31  5-MIN KDBQ 210935Z AUTO 34010KT 10SM FEW006 BKN014 OVC020 M01/M03 A2977 1220 85 -400 340/10 RMK AO2 SNE17 P0000 TSNO
94908KDBQ DBQ20020221034013502/21/02 03:40:31  5-MIN KDBQ 210940Z AUTO 34010KT 10SM FEW006 BKN014 OVC020 M01/M03 A2977 1210 85 -400 340/10 RMK AO2 SNE17 P0000 TSNO
94908KDBQ DBQ20020221034513502/21/02 03:45:31  5-MIN KDBQ 210945Z AUTO 34011KT 10SM FEW006 BKN014 OVC020 M01/M03 A2978 1210 85 -400 340/11 RMK AO2 SNE17 P0000 TSNO
94908KDBQ DBQ20020221035014502/21/02 03:50:31  5-MIN KDBQ 210950Z AUTO 34011KT 10SM SCT014 OVC020 M01/M03 A2978 1210 85 -400 340/11 RMK AO2 SNE17 SLP096 P0000 T10111033 TSNO
94908KDBQ DBQ20020221035515002/21/02 03:55:31  5-MIN KDBQ 210955Z AUTO 34013KT 10SM OVC017 M01/M04 A2978 1210 81 -400 340/13 RMK AO2 SNE17 CIG 012V023 SLP097 P0000 T10111039 TSNO
94908KDBQ DBQ20020221040011602/21/02 04:00:31  5-MIN KDBQ 211000Z AUTO 34013KT 10SM SCT014 OVC020 M02/M04 A2979 1200 85 -500 340/13 RMK AO2 TSNO
94908KDBQ DBQ20020221040510902/21/02 04:05:31  5-MIN KDBQ 211005Z AUTO 33012KT 10SM OVC017 M02/M03 A2979 1200 88 -500 330/12 RMK AO2 TSNO
94908KDBQ DBQ20020221041011602/21/02 04:10:31  5-MIN KDBQ 211010Z AUTO 34011KT 10SM BKN014 OVC020 M02/M04 A2979 1200 85 -500 340/11 RMK AO2 TSNO
94908KDBQ DBQ20020221041511602/21/02 04:15:31  5-MIN KDBQ 211015Z AUTO 34013KT 10SM BKN014 OVC020 M02/M03 A2979 1200 88 -500 340/13 RMK AO2 TSNO
94908KDBQ DBQ20020221042010902/21/02 04:20:31  5-MIN KDBQ 211020Z AUTO 34013KT 10SM OVC017 M02/M04 A2980 1190 85 -500 340/13 RMK AO2 TSNO
94908KDBQ DBQ20020221042510902/21/02 04:25:31  5-MIN KDBQ 211025Z AUTO 34011KT 10SM OVC017 M02/M04 A2980 1190 85 -500 340/11 RMK AO2 TSNO
94908KDBQ DBQ20020221043011602/21/02 04:30:31  5-MIN KDBQ 211030Z AUTO 34011KT 10SM BKN014 OVC019 M02/M04 A2980 1190 85 -500 340/11 RMK AO2 TSNO
94908KDBQ DBQ20020221043510902/21/02 04:35:31  5-MIN KDBQ 211035Z AUTO 34010KT 10SM OVC017 M02/M04 A2980 1190 85 -500 340/10 RMK AO2 TSNO
94908KDBQ DBQ20020221044011602/21/02 04:40:31  5-MIN KDBQ 211040Z AUTO 34012KT 10SM BKN014 OVC020 M02/M04 A2981 1180 85 -500 340/12 RMK AO2 TSNO
94908KDBQ DBQ20020221044510902/21/02 04:45:31  5-MIN KDBQ 211045Z AUTO 33012KT 10SM OVC016 M02/M04 A2981 1180 85 -500 330/12 RMK AO2 TSNO
94908KDBQ DBQ20020221045013302/21/02 04:50:31  5-MIN KDBQ 211050Z AUTO 34012KT 10SM BKN016 OVC021 M02/M04 A2981 1180 85 -500 340/12 RMK AO2 SLP107 T10171039 TSNO
94908KDBQ DBQ20020221045514802/21/02 04:55:31  5-MIN KDBQ 211055Z AUTO 33011KT 9SM -SN BKN016 OVC023 M02/M04 A2982 1170 85 -500 330/11 RMK AO2 SNB51 SLP108 P0000 T10171039 TSNO
94908KDBQ DBQ20020221050012502/21/02 05:00:31  5-MIN KDBQ 211100Z AUTO 33012KT 9SM -SN BKN016 OVC023 M02/M04 A2982 1170 85 -500 330/12 RMK AO2 P0000 TSNO
94908KDBQ DBQ20020221050513202/21/02 05:05:31  5-MIN KDBQ 211105Z AUTO 34010KT 9SM -SN BKN012 BKN016 OVC023 M02/M04 A2983 1170 85 -500 340/10 RMK AO2 P0000 TSNO
94908KDBQ DBQ20020221051012502/21/02 05:10:31  5-MIN KDBQ 211110Z AUTO 34011KT 9SM -SN BKN012 OVC021 M02/M04 A2983 1160 85 -500 340/11 RMK AO2 P0000 TSNO
94908KDBQ DBQ20020221051513202/21/02 05:15:31  5-MIN KDBQ 211115Z AUTO 34011KT 8SM -SN BKN012 BKN017 OVC021 M02/M04 A2983 1160 85 -500 340/11 RMK AO2 P0000 TSNO
94908KDBQ DBQ20020221052013502/21/02 05:20:31  5-MIN KDBQ 211120Z AUTO 34011KT 6SM -SN BR BKN013 BKN020 OVC025 M02/M03 A2983 1160 88 -500 340/11 RMK AO2 P0000 TSNO
94908KDBQ DBQ20020221052513502/21/02 05:25:31  5-MIN KDBQ 211125Z AUTO 34011KT 4SM -SN BR BKN013 BKN020 OVC025 M02/M03 A2984 1160 88 -500 340/11 RMK AO2 P0000 TSNO
94908KDBQ DBQ20020221053013502/21/02 05:30:31  5-MIN KDBQ 211130Z AUTO 34011KT 4SM -SN BR SCT011 BKN025 OVC050 M02/M03 A2984 1160 92 -600 340/11 RMK AO2 P0000 TSNO
94908KDBQ DBQ20020221053513502/21/02 05:35:31  5-MIN KDBQ 211135Z AUTO 34010KT 4SM -SN BR SCT011 BKN025 OVC055 M02/M03 A2984 1150 92 -600 340/10 RMK AO2 P0000 TSNO
94908KDBQ DBQ20020221054013502/21/02 05:40:31  5-MIN KDBQ 211140Z AUTO 34012KT 5SM -SN BR SCT013 BKN025 OVC055 M02/M03 A2984 1150 92 -600 340/12 RMK AO2 P0000 TSNO
94908KDBQ DBQ20020221054513502/21/02 05:45:31  5-MIN KDBQ 211145Z AUTO 34011KT 6SM -SN BR SCT013 BKN025 OVC047 M02/M03 A2985 1150 92 -600 340/11 RMK AO2 P0000 TSNO
94908KDBQ DBQ20020221055017202/21/02 05:50:31  5-MIN KDBQ 211150Z 34011KT 5SM -SN BR FEW010 BKN027 OVC049 M02/M04 A2985 1140 88 -600 340/11 RMK AO2 SLP120 P0000 60000 70013 T10221039 11011 21022 53017
94908KDBQ DBQ20020221055517202/21/02 05:55:31  5-MIN KDBQ 211155Z 34011KT 4SM -SN BR FEW010 BKN029 OVC049 M02/M04 A2985 1140 88 -600 340/11 RMK AO2 SLP122 P0000 60000 70013 T10221039 11011 21022 53031
94908KDBQ DBQ20020221060012502/21/02 06:00:31  5-MIN KDBQ 211200Z 33010KT 4SM -SN BR FEW010 BKN017 OVC047 M02/M04 A2986 1140 88 -600 330/10 RMK AO2 P0000
94908KDBQ DBQ20020221060512502/21/02 06:05:31  5-MIN KDBQ 211205Z 34009KT 6SM -SN BR FEW010 BKN017 OVC047 M02/M04 A2986 1130 88 -600 340/09 RMK AO2 P0000
94908KDBQ DBQ20020221061011502/21/02 06:10:31  5-MIN KDBQ 211210Z 34011KT 7SM -SN BKN017 OVC050 M02/M04 A2986 1130 88 -600 340/11 RMK AO2 P0000
94908KDBQ DBQ20020221061512202/21/02 06:15:31  5-MIN KDBQ 211215Z 34010KT 7SM -SN FEW010 SCT017 OVC050 M02/M04 A2987 1130 88 -600 340/10 RMK AO2 P0000
94908KDBQ DBQ20020221062012502/21/02 06:20:31  5-MIN KDBQ 211220Z 34011KT 6SM -SN BR FEW010 BKN029 OVC049 M02/M04 A2987 1130 88 -600 340/11 RMK AO2 P0000
94908KDBQ DBQ20020221062512502/21/02 06:25:31  5-MIN KDBQ 211225Z 34013KT 6SM -SN BR FEW010 BKN029 OVC049 M02/M04 A2987 1120 88 -600 340/13 RMK AO2 P0000
94908KDBQ DBQ20020221063012502/21/02 06:30:31  5-MIN KDBQ 211230Z 34011KT 5SM -SN BR FEW010 BKN029 OVC049 M02/M04 A2988 1120 88 -600 340/11 RMK AO2 P0000
94908KDBQ DBQ20020221063512502/21/02 06:35:31  5-MIN KDBQ 211235Z 34011KT 3SM -SN BR FEW010 BKN029 OVC049 M02/M04 A2988 1120 88 -600 330/11 RMK AO2 P0000
94908KDBQ DBQ20020221064012502/21/02 06:40:31  5-MIN KDBQ 211240Z 34010KT 4SM -SN BR FEW010 BKN029 OVC049 M02/M04 A2988 1110 88 -600 340/10 RMK AO2 P0000
94908KDBQ DBQ20020221064512502/21/02 06:45:31  5-MIN KDBQ 211245Z 34009KT 4SM -SN BR FEW010 BKN029 OVC049 M02/M04 A2988 1110 88 -600 340/09 RMK AO2 P0000
94908KDBQ DBQ20020221065014202/21/02 06:50:31  5-MIN KDBQ 211250Z 33012KT 3SM -SN BR SCT010 BKN016 OVC049 M02/M04 A2989 1110 88 -600 330/12 RMK AO2 SLP132 P0000 T10221039
94908KDBQ DBQ20020221065514202/21/02 06:55:31  5-MIN KDBQ 211255Z 34011KT 3SM -SN BR SCT010 BKN037 OVC049 M02/M04 A2989 1110 88 -600 330/11 RMK AO2 SLP134 P0000 T10221039
94908KDBQ DBQ20020221070012502/21/02 07:00:31  5-MIN KDBQ 211300Z 34009KT 3SM -SN BR FEW010 SCT022 OVC049 M03/M04 A2989 1100 92 -700 340/09 RMK AO2 P0000
94908KDBQ DBQ20020221070511802/21/02 07:05:31  5-MIN KDBQ 211305Z 34011KT 3SM -SN BR FEW010 BKN049 M03/M04 A2990 1100 92 -700 340/11 RMK AO2 P0000
94908KDBQ DBQ20020221071011802/21/02 07:10:31  5-MIN KDBQ 211310Z 34009KT 3SM -SN BR SCT009 OVC049 M03/M04 A2990 1100 92 -700 340/09 RMK AO2 P0000
94908KDBQ DBQ20020221071511802/21/02 07:15:31  5-MIN KDBQ 211315Z 33009KT 3SM -SN BR SCT011 OVC049 M03/M04 A2990 1090 92 -700 330/09 RMK AO2 P0000
94908KDBQ DBQ20020221072012502/21/02 07:20:31  5-MIN KDBQ 211320Z 33010KT 3SM -SN BR FEW007 SCT011 OVC049 M02/M04 A2991 1090 88 -700 330/10 RMK AO2 P0000
94908KDBQ DBQ20020221072512502/21/02 07:25:31  5-MIN KDBQ 211325Z 33010KT 3SM -SN BR SCT011 BKN018 OVC049 M03/M04 A2991 1090 92 -700 330/10 RMK AO2 P0000
94908KDBQ DBQ20020221073012502/21/02 07:30:31  5-MIN KDBQ 211330Z 34011KT 3SM -SN BR SCT011 BKN016 OVC049 M03/M04 A2991 1090 92 -700 330/11 RMK AO2 P0000
94908KDBQ DBQ20020221073512502/21/02 07:35:31  5-MIN KDBQ 211335Z 33012KT 3SM -SN BR SCT009 BKN014 OVC049 M03/M04 A2991 1080 92 -700 330/12 RMK AO2 P0000
94908KDBQ DBQ20020221074012502/21/02 07:40:31  5-MIN KDBQ 211340Z 34012KT 3SM -SN BR BKN009 BKN014 OVC029 M03/M04 A2992 1080 92 -700 340/12 RMK AO2 P0000
94908KDBQ DBQ20020221074512502/21/02 07:45:31  5-MIN KDBQ 211345Z 33012KT 3SM -SN BR SCT009 BKN016 OVC029 M03/M04 A2992 1080 92 -700 330/12 RMK AO2 P0000
94908KDBQ DBQ20020221075014202/21/02 07:50:31  5-MIN KDBQ 211350Z 33011KT 3SM -SN BR SCT007 BKN018 OVC046 M03/M04 A2992 1080 92 -800 330/11 RMK AO2 SLP145 P0000 T10281039
94908KDBQ DBQ20020221075514202/21/02 07:55:31  5-MIN KDBQ 211355Z 33011KT 3SM -SN BR FEW007 BKN018 OVC046 M03/M04 A2992 1080 92 -800 330/11 RMK AO2 SLP145 P0000 T10281039
94908KDBQ DBQ20020221080012502/21/02 08:00:31  5-MIN KDBQ 211400Z 34011KT 3SM -SN BR FEW007 SCT023 OVC044 M02/M04 A2992 1080 88 -700 330/11 RMK AO2 P0000
94908KDBQ DBQ20020221080511802/21/02 08:05:31  5-MIN KDBQ 211405Z 34012KT 3SM -SN BR FEW007 OVC044 M02/M04 A2993 1070 88 -700 340/12 RMK AO2 P0000
94908KDBQ DBQ20020221081011802/21/02 08:10:31  5-MIN KDBQ 211410Z 33012KT 3SM -SN BR FEW030 OVC044 M02/M04 A2993 1070 88 -700 330/12 RMK AO2 P0000
94908KDBQ DBQ20020221081511802/21/02 08:15:31  5-MIN KDBQ 211415Z 34011KT 3SM -SN BR FEW018 OVC042 M02/M04 A2993 1070 88 -700 340/11 RMK AO2 P0000
94908KDBQ DBQ20020221082011802/21/02 08:20:31  5-MIN KDBQ 211420Z 34011KT 3SM -SN BR SCT018 OVC042 M02/M04 A2993 1070 88 -700 340/11 RMK AO2 P0000
94908KDBQ DBQ20020221082512502/21/02 08:25:31  5-MIN KDBQ 211425Z 34012KT 3SM -SN BR SCT018 BKN034 OVC042 M02/M04 A2993 1070 88 -700 340/12 RMK AO2 P0000
94908KDBQ DBQ20020221083012502/21/02 08:30:31  5-MIN KDBQ 211430Z 34011KT 3SM -SN BR FEW018 BKN035 OVC042 M02/M04 A2994 1060 88 -700 340/11 RMK AO2 P0000
94908KDBQ DBQ20020221083512502/21/02 08:35:31  5-MIN KDBQ 211435Z 35010KT 3SM -SN BR SCT018 BKN030 OVC040 M02/M04 A2994 1060 88 -700 350/10 RMK AO2 P0000
94908KDBQ DBQ20020221084012502/21/02 08:40:31  5-MIN KDBQ 211440Z 35010KT 3SM -SN BR FEW013 BKN018 OVC040 M02/M04 A2994 1060 88 -700 350/10 RMK AO2 P0000
94908KDBQ DBQ20020221084512502/21/02 08:45:31  5-MIN KDBQ 211445Z 34009KT 3SM -SN BR BKN018 BKN030 OVC038 M02/M04 A2994 1060 88 -700 340/09 RMK AO2 P0000
94908KDBQ DBQ20020221085015602/21/02 08:50:31  5-MIN KDBQ 211450Z 34009KT 3SM BR BKN018 BKN030 OVC035 M02/M04 A2995 1050 88 -700 340/09 RMK AO2 SNE46 SLP153 P0000 60000 T10221039 53031
94908KDBQ DBQ20020221085514902/21/02 08:55:31  5-MIN KDBQ 211455Z 35009KT 3SM BR BKN016 OVC030 M02/M04 A2995 1050 88 -700 350/09 RMK AO2 SNE46 SLP155 P0000 60000 T10221039 51032
94908KDBQ DBQ20020221090009802/21/02 09:00:31  5-MIN KDBQ 211500Z 35010KT 8SM OVC016 M02/M04 A2995 1050 81 -600 350/10 RMK AO2
94908KDBQ DBQ20020221090509802/21/02 09:05:31  5-MIN KDBQ 211505Z 35011KT 8SM OVC016 M02/M04 A2996 1040 81 -700 350/11 RMK AO2
94908KDBQ DBQ20020221091009802/21/02 09:10:31  5-MIN KDBQ 211510Z 35010KT 7SM OVC016 M02/M04 A2996 1040 81 -700 350/10 RMK AO2
94908KDBQ DBQ20020221091509802/21/02 09:15:31  5-MIN KDBQ 211515Z 35011KT 7SM OVC016 M02/M04 A2996 1040 81 -700 350/11 RMK AO2
94908KDBQ DBQ20020221092010102/21/02 09:20:31  5-MIN KDBQ 211520Z 35008KT 6SM BR OVC016 M02/M04 A2997 1040 85 -700 350/08 RMK AO2
94908KDBQ DBQ20020221092510102/21/02 09:25:31  5-MIN KDBQ 211525Z 35011KT 5SM BR OVC016 M02/M04 A2997 1030 85 -700 350/11 RMK AO2
94908KDBQ DBQ20020221093010102/21/02 09:30:31  5-MIN KDBQ 211530Z 35011KT 5SM BR OVC016 M02/M04 A2997 1030 85 -700 350/11 RMK AO2
94908KDBQ DBQ20020221093510102/21/02 09:35:31  5-MIN KDBQ 211535Z 35011KT 4SM BR OVC016 M02/M04 A2998 1030 85 -700 350/11 RMK AO2
94908KDBQ DBQ20020221094010102/21/02 09:40:31  5-MIN KDBQ 211540Z 35009KT 5SM BR OVC016 M02/M04 A2998 1020 85 -700 350/09 RMK AO2
94908KDBQ DBQ20020221094510102/21/02 09:45:31  5-MIN KDBQ 211545Z 34012KT 5SM BR OVC016 M02/M04 A2998 1020 85 -700 340/12 RMK AO2
94908KDBQ DBQ20020221095012502/21/02 09:50:31  5-MIN KDBQ 211550Z 35012KT 5SM BR BKN014 OVC021 M02/M04 A2998 1020 85 -700 350/12 RMK AO2 SLP166 T10171039
94908KDBQ DBQ20020221095512502/21/02 09:55:31  5-MIN KDBQ 211555Z 34010KT 5SM BR BKN014 OVC021 M02/M04 A2999 1020 85 -700 340/10 RMK AO2 SLP167 T10171039
94908KDBQ DBQ20020221100010802/21/02 10:00:31  5-MIN KDBQ 211600Z 34010KT 5SM BR BKN014 OVC023 M02/M04 A2999 1010 85 -700 340/10 RMK AO2
94908KDBQ DBQ20020221100510802/21/02 10:05:31  5-MIN KDBQ 211605Z 34013KT 5SM BR BKN014 OVC022 M02/M04 A2999 1010 85 -700 340/13 RMK AO2
94908KDBQ DBQ20020221101010802/21/02 10:10:31  5-MIN KDBQ 211610Z 34013KT 5SM BR BKN014 OVC022 M02/M04 A3000 1010 85 -700 340/13 RMK AO2
94908KDBQ DBQ20020221101510802/21/02 10:15:31  5-MIN KDBQ 211615Z 34011KT 6SM BR BKN014 OVC024 M02/M04 A3000 1010 85 -700 340/11 RMK AO2
94908KDBQ DBQ20020221102010502/21/02 10:20:31  5-MIN KDBQ 211620Z 34012KT 7SM BKN014 OVC024 M02/M04 A3000 1000 85 -700 340/12 RMK AO2
94908KDBQ DBQ20020221102510502/21/02 10:25:31  5-MIN KDBQ 211625Z 34013KT 7SM BKN014 OVC024 M02/M04 A3000 1000 85 -700 340/13 RMK AO2
94908KDBQ DBQ20020221103010502/21/02 10:30:31  5-MIN KDBQ 211630Z 35011KT 7SM BKN014 OVC024 M02/M04 A3001 1000 85 -700 340/11 RMK AO2
94908KDBQ DBQ20020221103510802/21/02 10:35:31  5-MIN KDBQ 211635Z 35011KT 6SM BR BKN014 OVC024 M02/M04 A3001 1000 85 -700 350/11 RMK AO2
94908KDBQ DBQ20020221104010802/21/02 10:40:31  5-MIN KDBQ 211640Z 35014KT 6SM BR BKN014 OVC024 M02/M04 A3001 1000 85 -700 350/14 RMK AO2
94908KDBQ DBQ20020221104510402/21/02 10:45:31  5-MIN KDBQ 211645Z 35013KT 7SM BKN014 OVC024 M02/M04 A3001 990 85 -700 350/13 RMK AO2
94908KDBQ DBQ20020221105011402/21/02 10:50:31  5-MIN KDBQ 211650Z 35015KT 7SM OVC016 M02/M04 A3002 990 81 -700 350/15 RMK AO2 SLP177 T10171044
94908KDBQ DBQ20020221105511402/21/02 10:55:31  5-MIN KDBQ 211655Z 35014KT 8SM OVC016 M02/M04 A3002 990 81 -700 350/14 RMK AO2 SLP178 T10171044
94908KDBQ DBQ20020221110009702/21/02 11:00:31  5-MIN KDBQ 211700Z 35012KT 9SM OVC016 M02/M04 A3002 990 81 -700 350/12 RMK AO2
94908KDBQ DBQ20020221110509802/21/02 11:05:31  5-MIN KDBQ 211705Z 36015KT 10SM OVC016 M02/M04 A3002 990 81 -700 360/15 RMK AO2
94908KDBQ DBQ20020221111009802/21/02 11:10:31  5-MIN KDBQ 211710Z 35012KT 10SM OVC016 M01/M04 A3002 980 78 -700 350/12 RMK AO2
94908KDBQ DBQ20020221111509802/21/02 11:15:31  5-MIN KDBQ 211715Z 36012KT 10SM OVC016 M01/M04 A3003 980 78 -700 360/12 RMK AO2
94908KDBQ DBQ20020221112009802/21/02 11:20:31  5-MIN KDBQ 211720Z 36012KT 10SM OVC016 M01/M04 A3003 980 78 -700 360/12 RMK AO2
94908KDBQ DBQ20020221112509802/21/02 11:25:31  5-MIN KDBQ 211725Z 36012KT 10SM OVC016 M01/M04 A3003 980 78 -700 350/12 RMK AO2
94908KDBQ DBQ20020221113010402/21/02 11:30:31  5-MIN KDBQ 211730Z 36014G20KT 10SM OVC016 M01/M04 A3003 970 78 -700 360/14G20 RMK AO2
94908KDBQ DBQ20020221113510402/21/02 11:35:31  5-MIN KDBQ 211735Z 35011G20KT 10SM OVC016 M01/M04 A3004 970 78 -700 350/11G20 RMK AO2
94908KDBQ DBQ20020221114010402/21/02 11:40:31  5-MIN KDBQ 211740Z 35014G18KT 10SM OVC016 M01/M04 A3004 970 78 -700 350/14G18 RMK AO2
94908KDBQ DBQ20020221114510402/21/02 11:45:31  5-MIN KDBQ 211745Z 35013G20KT 10SM OVC016 M01/M04 A3004 970 78 -700 350/13G20 RMK AO2
94908KDBQ DBQ20020221115014502/21/02 11:50:31  5-MIN KDBQ 211750Z 36012G20KT 10SM OVC016 M01/M04 A3004 960 78 -700 360/12G20 RMK AO2 SLP186 60000 T10111044 11011 21028 51032
94908KDBQ DBQ20020221115513902/21/02 11:55:31  5-MIN KDBQ 211755Z 35013KT 10SM OVC016 M01/M04 A3005 960 78 -700 350/13 RMK AO2 SLP187 60000 T10111044 11011 21028 51031
94908KDBQ DBQ20020221120009802/21/02 12:00:31  5-MIN KDBQ 211800Z 35013KT 10SM OVC016 M01/M04 A3005 960 78 -700 350/13 RMK AO2
94908KDBQ DBQ20020221120509802/21/02 12:05:31  5-MIN KDBQ 211805Z 36013KT 10SM OVC016 M01/M04 A3005 960 78 -700 360/13 RMK AO2
94908KDBQ DBQ20020221121009802/21/02 12:10:31  5-MIN KDBQ 211810Z 36014KT 10SM OVC016 M01/M04 A3005 960 78 -700 360/14 RMK AO2
94908KDBQ DBQ20020221121509802/21/02 12:15:31  5-MIN KDBQ 211815Z 36012KT 10SM OVC016 M01/M04 A3005 960 78 -700 360/12 RMK AO2
94908KDBQ DBQ20020221122009802/21/02 12:20:31  5-MIN KDBQ 211820Z 36014KT 10SM OVC016 M01/M04 A3005 960 78 -700 360/14 RMK AO2
94908KDBQ DBQ20020221122510402/21/02 12:25:31  5-MIN KDBQ 211825Z 34016G20KT 10SM OVC016 M01/M04 A3005 960 78 -700 340/16G20 RMK AO2
94908KDBQ DBQ20020221123010402/21/02 12:30:31  5-MIN KDBQ 211830Z 35013G20KT 10SM OVC016 M01/M04 A3005 960 78 -700 350/13G20 RMK AO2
94908KDBQ DBQ20020221123509802/21/02 12:35:31  5-MIN KDBQ 211835Z 35015KT 10SM OVC016 M01/M04 A3005 960 78 -700 350/15 RMK AO2
94908KDBQ DBQ20020221124010402/21/02 12:40:31  5-MIN KDBQ 211840Z 35014G20KT 10SM OVC016 M01/M04 A3005 960 78 -700 350/14G20 RMK AO2
94908KDBQ DBQ20020221124510402/21/02 12:45:31  5-MIN KDBQ 211845Z 36013G20KT 10SM OVC016 M01/M04 A3005 960 78 -700 360/13G20 RMK AO2
94908KDBQ DBQ20020221125011502/21/02 12:50:31  5-MIN KDBQ 211850Z 36011KT 10SM OVC016 M01/M04 A3006 950 78 -700 360/11 RMK AO2 SLP191 T10111044
94908KDBQ DBQ20020221125511502/21/02 12:55:31  5-MIN KDBQ 211855Z 35011KT 10SM OVC016 M01/M04 A3006 950 78 -700 350/11 RMK AO2 SLP192 T10111044
94908KDBQ DBQ20020221130010402/21/02 13:00:31  5-MIN KDBQ 211900Z 36012G18KT 10SM OVC016 M01/M04 A3006 950 78 -700 360/12G18 RMK AO2
94908KDBQ DBQ20020221130510402/21/02 13:05:31  5-MIN KDBQ 211905Z 36014G18KT 10SM OVC016 M01/M04 A3006 950 78 -700 360/14G18 RMK AO2
94908KDBQ DBQ20020221131010402/21/02 13:10:31  5-MIN KDBQ 211910Z 36015G20KT 10SM OVC016 M01/M04 A3007 940 78 -700 360/15G20 RMK AO2
94908KDBQ DBQ20020221131510402/21/02 13:15:31  5-MIN KDBQ 211915Z 35013G20KT 10SM OVC016 M01/M04 A3007 940 78 -700 350/13G20 RMK AO2
94908KDBQ DBQ20020221132009802/21/02 13:20:31  5-MIN KDBQ 211920Z 36011KT 10SM OVC016 M01/M04 A3007 940 78 -700 360/11 RMK AO2
94908KDBQ DBQ20020221132509802/21/02 13:25:31  5-MIN KDBQ 211925Z 36010KT 10SM OVC016 M01/M04 A3007 940 78 -700 360/10 RMK AO2
94908KDBQ DBQ20020221133010402/21/02 13:30:31  5-MIN KDBQ 211930Z 36011G16KT 10SM OVC016 M01/M04 A3007 940 78 -700 360/11G16 RMK AO2
94908KDBQ DBQ20020221133510402/21/02 13:35:31  5-MIN KDBQ 211935Z 36009G16KT 10SM OVC016 M01/M04 A3007 940 78 -700 360/09G16 RMK AO2
94908KDBQ DBQ20020221134009802/21/02 13:40:31  5-MIN KDBQ 211940Z 35011KT 10SM OVC016 M01/M04 A3007 940 81 -700 350/11 RMK AO2
94908KDBQ DBQ20020221134509802/21/02 13:45:31  5-MIN KDBQ 211945Z 35010KT 10SM OVC016 M01/M04 A3008 940 78 -700 350/10 RMK AO2
94908KDBQ DBQ20020221135011502/21/02 13:50:31  5-MIN KDBQ 211950Z 35010KT 10SM OVC016 M01/M04 A3008 930 78 -700 350/10 RMK AO2 SLP198 T10111044
94908KDBQ DBQ20020221135511502/21/02 13:55:31  5-MIN KDBQ 211955Z 35009KT 10SM OVC016 M01/M04 A3008 930 78 -700 350/09 RMK AO2 SLP199 T10061039
94908KDBQ DBQ20020221140009802/21/02 14:00:31  5-MIN KDBQ 212000Z 35010KT 10SM OVC016 M01/M04 A3008 930 78 -700 350/10 RMK AO2
94908KDBQ DBQ20020221140509802/21/02 14:05:31  5-MIN KDBQ 212005Z 35011KT 10SM OVC016 M01/M04 A3008 930 78 -700 350/11 RMK AO2
94908KDBQ DBQ20020221141009802/21/02 14:10:31  5-MIN KDBQ 212010Z 36015KT 10SM OVC016 M01/M04 A3009 930 78 -700 360/15 RMK AO2
94908KDBQ DBQ20020221141509802/21/02 14:15:31  5-MIN KDBQ 212015Z 01015KT 10SM OVC016 M01/M04 A3009 930 75 -700 010/15 RMK AO2
94908KDBQ DBQ20020221142009802/21/02 14:20:31  5-MIN KDBQ 212020Z 36011KT 10SM OVC016 M01/M04 A3009 920 78 -700 360/11 RMK AO2
94908KDBQ DBQ20020221142509802/21/02 14:25:31  5-MIN KDBQ 212025Z 36013KT 10SM OVC016 M01/M04 A3009 920 78 -700 360/13 RMK AO2
94908KDBQ DBQ20020221143009802/21/02 14:30:31  5-MIN KDBQ 212030Z 36014KT 10SM OVC016 M01/M04 A3009 920 78 -700 360/14 RMK AO2
94908KDBQ DBQ20020221143509802/21/02 14:35:31  5-MIN KDBQ 212035Z 36013KT 10SM OVC016 M01/M04 A3010 920 78 -700 360/13 RMK AO2
94908KDBQ DBQ20020221144009802/21/02 14:40:31  5-MIN KDBQ 212040Z 35014KT 10SM OVC016 M01/M04 A3010 910 78 -700 350/14 RMK AO2
94908KDBQ DBQ20020221144509802/21/02 14:45:31  5-MIN KDBQ 212045Z 35014KT 10SM OVC016 M01/M04 A3010 910 78 -700 340/14 RMK AO2
94908KDBQ DBQ20020221145012102/21/02 14:50:31  5-MIN KDBQ 212050Z 35014KT 10SM OVC016 M01/M04 A3011 910 78 -700 350/14 RMK AO2 SLP208 T10061039 51031
94908KDBQ DBQ20020221145512102/21/02 14:55:31  5-MIN KDBQ 212055Z 35014KT 10SM OVC016 M01/M04 A3011 900 78 -700 350/14 RMK AO2 SLP209 T10061039 53021
94908KDBQ DBQ20020221150009802/21/02 15:00:31  5-MIN KDBQ 212100Z 35015KT 10SM OVC016 M01/M04 A3011 900 78 -700 350/15 RMK AO2
94908KDBQ DBQ20020221150509802/21/02 15:05:31  5-MIN KDBQ 212105Z 35012KT 10SM OVC018 M01/M04 A3011 900 78 -700 350/12 RMK AO2
94908KDBQ DBQ20020221151009802/21/02 15:10:31  5-MIN KDBQ 212110Z 36010KT 10SM OVC018 M01/M04 A3012 900 78 -700 360/10 RMK AO2
94908KDBQ DBQ20020221151509702/21/02 15:15:31  5-MIN KDBQ 212115Z 36013KT 10SM OVC018 00/M04 A3012 900 75 -600 360/13 RMK AO2
94908KDBQ DBQ20020221152009702/21/02 15:20:31  5-MIN KDBQ 212120Z 36010KT 10SM OVC018 00/M04 A3012 890 75 -600 360/10 RMK AO2
94908KDBQ DBQ20020221152509702/21/02 15:25:31  5-MIN KDBQ 212125Z 36015KT 10SM OVC018 00/M04 A3013 890 75 -600 350/15 RMK AO2
94908KDBQ DBQ20020221153009702/21/02 15:30:31  5-MIN KDBQ 212130Z 36013KT 10SM OVC018 00/M04 A3013 890 75 -600 360/13 RMK AO2
94908KDBQ DBQ20020221153509702/21/02 15:35:31  5-MIN KDBQ 212135Z 35014KT 10SM OVC018 00/M04 A3013 890 75 -600 350/14 RMK AO2
94908KDBQ DBQ20020221154009702/21/02 15:40:31  5-MIN KDBQ 212140Z 36013KT 10SM OVC018 00/M04 A3013 890 75 -600 360/13 RMK AO2
94908KDBQ DBQ20020221154509702/21/02 15:45:31  5-MIN KDBQ 212145Z 36011KT 10SM OVC018 00/M04 A3013 880 75 -600 360/11 RMK AO2
94908KDBQ DBQ20020221155012102/21/02 15:50:31  5-MIN KDBQ 212150Z 35015G18KT 10SM OVC018 M01/M04 A3014 880 78 -700 350/15G18 RMK AO2 SLP219 T10061039
94908KDBQ DBQ20020221155511502/21/02 15:55:31  5-MIN KDBQ 212155Z 35014KT 10SM OVC018 M01/M04 A3014 880 78 -700 350/14 RMK AO2 SLP219 T10061039
94908KDBQ DBQ20020221160010402/21/02 16:00:31  5-MIN KDBQ 212200Z 35016G20KT 10SM OVC018 M01/M04 A3014 870 78 -700 350/16G20 RMK AO2
94908KDBQ DBQ20020221160510402/21/02 16:05:31  5-MIN KDBQ 212205Z 35014G20KT 10SM OVC018 M01/M04 A3014 870 78 -700 350/14G20 RMK AO2
94908KDBQ DBQ20020221161009802/21/02 16:10:31  5-MIN KDBQ 212210Z 35013KT 10SM OVC018 M01/M04 A3015 870 78 -700 350/13 RMK AO2
94908KDBQ DBQ20020221161509802/21/02 16:15:31  5-MIN KDBQ 212215Z 35015KT 10SM OVC018 M01/M04 A3015 870 78 -700 350/15 RMK AO2
94908KDBQ DBQ20020221162009802/21/02 16:20:31  5-MIN KDBQ 212220Z 35015KT 10SM OVC018 M01/M04 A3015 870 78 -700 340/15 RMK AO2
94908KDBQ DBQ20020221162510502/21/02 16:25:31  5-MIN KDBQ 212225Z 35013KT 10SM BKN018 OVC038 M01/M04 A3015 860 75 -700 350/13 RMK AO2
94908KDBQ DBQ20020221163010502/21/02 16:30:31  5-MIN KDBQ 212230Z 36014KT 10SM BKN018 OVC038 M01/M04 A3015 860 75 -700 360/14 RMK AO2
94908KDBQ DBQ20020221163510502/21/02 16:35:31  5-MIN KDBQ 212235Z 36013KT 10SM BKN018 OVC038 M01/M04 A3016 860 75 -700 360/13 RMK AO2
94908KDBQ DBQ20020221164010502/21/02 16:40:31  5-MIN KDBQ 212240Z 36012KT 10SM BKN018 OVC038 M01/M04 A3016 860 75 -700 350/12 RMK AO2
94908KDBQ DBQ20020221164510502/21/02 16:45:31  5-MIN KDBQ 212245Z 36010KT 10SM SCT018 OVC038 M01/M04 A3016 860 75 -700 350/10 RMK AO2
94908KDBQ DBQ20020221165012202/21/02 16:50:31  5-MIN KDBQ 212250Z 34013KT 10SM FEW018 OVC038 M01/M04 A3016 860 75 -700 340/13 RMK AO2 SLP226 T10061044
94908KDBQ DBQ20020221165512202/21/02 16:55:31  5-MIN KDBQ 212255Z 34014KT 10SM FEW018 OVC036 M01/M04 A3016 860 75 -700 340/14 RMK AO2 SLP227 T10061044
94908KDBQ DBQ20020221170010502/21/02 17:00:31  5-MIN KDBQ 212300Z 35012KT 10SM FEW018 OVC036 M01/M04 A3016 850 75 -700 350/12 RMK AO2
94908KDBQ DBQ20020221170509802/21/02 17:05:31  5-MIN KDBQ 212305Z 34015KT 10SM BKN036 M01/M04 A3017 850 75 -800 340/15 RMK AO2
94908KDBQ DBQ20020221171009802/21/02 17:10:31  5-MIN KDBQ 212310Z 34014KT 10SM BKN036 M01/M04 A3017 850 75 -800 340/14 RMK AO2
94908KDBQ DBQ20020221171509802/21/02 17:15:31  5-MIN KDBQ 212315Z 35011KT 10SM SCT036 M01/M04 A3017 840 78 -800 350/11 RMK AO2
94908KDBQ DBQ20020221172009802/21/02 17:20:31  5-MIN KDBQ 212320Z 35012KT 10SM SCT036 M01/M04 A3018 840 78 -800 350/12 RMK AO2
94908KDBQ DBQ20020221172509802/21/02 17:25:31  5-MIN KDBQ 212325Z 35010KT 10SM FEW036 M01/M04 A3018 840 78 -800 350/10 RMK AO2
94908KDBQ DBQ20020221173010402/21/02 17:30:31  5-MIN KDBQ 212330Z 35013G17KT 10SM FEW019 M01/M04 A3019 830 78 -800 340/13G17 RMK AO2
94908KDBQ DBQ20020221173509802/21/02 17:35:31  5-MIN KDBQ 212335Z 35012KT 10SM SCT019 M01/M04 A3019 830 78 -800 350/12 RMK AO2
94908KDBQ DBQ20020221174009802/21/02 17:40:31  5-MIN KDBQ 212340Z 35011KT 10SM BKN019 M01/M04 A3019 830 78 -900 350/11 RMK AO2
94908KDBQ DBQ20020221174509802/21/02 17:45:31  5-MIN KDBQ 212345Z 35010KT 10SM BKN019 M01/M04 A3019 830 78 -900 350/10 RMK AO2
94908KDBQ DBQ20020221175013302/21/02 17:50:31  5-MIN KDBQ 212350Z 35010KT 10SM BKN019 M01/M04 A3019 830 78 -900 350/10 RMK AO2 SLP238 T10111044 10000 21011 53021
94908KDBQ DBQ20020221175513302/21/02 17:55:31  5-MIN KDBQ 212355Z 35011KT 10SM FEW019 M02/M04 A3019 830 81 -900 350/11 RMK AO2 SLP238 T10171044 10000 21017 51027
94908KDBQ DBQ20020221180009802/21/02 18:00:31  5-MIN KDBQ 220000Z 35010KT 10SM FEW019 M02/M04 A3019 830 81 -900 340/10 RMK AO2
94908KDBQ DBQ20020221180509802/21/02 18:05:31  5-MIN KDBQ 220005Z 34010KT 10SM FEW019 M02/M05 A3019 830 78 -900 340/10 RMK AO2
94908KDBQ DBQ20020221181009802/21/02 18:10:31  5-MIN KDBQ 220010Z 34010KT 10SM FEW019 M02/M04 A3019 830 81 -900 340/10 RMK AO2
94908KDBQ DBQ20020221181509802/21/02 18:15:31  5-MIN KDBQ 220015Z 34010KT 10SM FEW019 M02/M04 A3019 830 81 -900 340/10 RMK AO2
94908KDBQ DBQ20020221182009802/21/02 18:20:31  5-MIN KDBQ 220020Z 34010KT 10SM FEW019 M02/M04 A3019 830 81 -900 340/10 RMK AO2
94908KDBQ DBQ20020221182509802/21/02 18:25:31  5-MIN KDBQ 220025Z 34010KT 10SM FEW019 M02/M04 A3019 830 81 -900 340/10 RMK AO2
94908KDBQ DBQ20020221183009902/21/02 18:30:31  5-MIN KDBQ 220030Z 34010KT 10SM FEW019 M02/M05 A3020 830 81 -1000 340/10 RMK AO2
94908KDBQ DBQ20020221183509802/21/02 18:35:31  5-MIN KDBQ 220035Z 33013KT 10SM FEW019 M02/M05 A3020 820 78 -900 330/13 RMK AO2
94908KDBQ DBQ20020221184009602/21/02 18:40:31  5-MIN KDBQ 220040Z 33012KT 10SM CLR M02/M05 A3020 820 81 -1000 330/12 RMK AO2
94908KDBQ DBQ20020221184509602/21/02 18:45:31  5-MIN KDBQ 220045Z 34011KT 10SM CLR M02/M05 A3020 820 81 -1000 340/11 RMK AO2
94908KDBQ DBQ20020221185011302/21/02 18:50:31  5-MIN KDBQ 220050Z 33011KT 10SM CLR M02/M05 A3020 820 81 -1000 330/11 RMK AO2 SLP242 T10221050
94908KDBQ DBQ20020221185511302/21/02 18:55:31  5-MIN KDBQ 220055Z 33009KT 10SM CLR M02/M05 A3021 820 81 -1000 330/09 RMK AO2 SLP243 T10221050
94908KDBQ DBQ20020221190009602/21/02 19:00:31  5-MIN KDBQ 220100Z 33009KT 10SM CLR M02/M05 A3021 810 81 -1000 330/09 RMK AO2
94908KDBQ DBQ20020221190509602/21/02 19:05:31  5-MIN KDBQ 220105Z 33011KT 10SM CLR M02/M05 A3021 810 81 -1000 330/11 RMK AO2
94908KDBQ DBQ20020221191009602/21/02 19:10:31  5-MIN KDBQ 220110Z 33010KT 10SM CLR M02/M06 A3021 810 78 -1000 330/10 RMK AO2
94908KDBQ DBQ20020221191509602/21/02 19:15:31  5-MIN KDBQ 220115Z 33011KT 10SM CLR M02/M06 A3021 810 78 -1000 330/11 RMK AO2
94908KDBQ DBQ20020221192009602/21/02 19:20:31  5-MIN KDBQ 220120Z 33011KT 10SM CLR M02/M06 A3021 810 78 -1000 330/11 RMK AO2
94908KDBQ DBQ20020221192509602/21/02 19:25:31  5-MIN KDBQ 220125Z 33010KT 10SM CLR M02/M06 A3021 810 78 -1000 330/10 RMK AO2
94908KDBQ DBQ20020221193009602/21/02 19:30:31  5-MIN KDBQ 220130Z 33011KT 10SM CLR M02/M06 A3021 810 78 -1000 330/11 RMK AO2
94908KDBQ DBQ20020221193509602/21/02 19:35:31  5-MIN KDBQ 220135Z 33010KT 10SM CLR M02/M06 A3021 810 78 -1000 330/10 RMK AO2
94908KDBQ DBQ20020221194009602/21/02 19:40:31  5-MIN KDBQ 220140Z 33010KT 10SM CLR M02/M06 A3022 810 78 -1000 330/10 RMK AO2
94908KDBQ DBQ20020221194509602/21/02 19:45:31  5-MIN KDBQ 220145Z 33010KT 10SM CLR M03/M06 A3022 810 78 -1100 330/10 RMK AO2
94908KDBQ DBQ20020221195012302/21/02 19:50:31  5-MIN KDBQ 220150Z AUTO 33010KT 10SM CLR M02/M06 A3022 800 75 -1000 330/10 RMK AO2 SLP247 T10221061 TSNO
94908KDBQ DBQ20020221195512302/21/02 19:55:31  5-MIN KDBQ 220155Z AUTO 33011KT 10SM CLR M03/M06 A3022 800 78 -1100 330/11 RMK AO2 SLP248 T10281061 TSNO
94908KDBQ DBQ20020221200010602/21/02 20:00:31  5-MIN KDBQ 220200Z AUTO 34011KT 10SM CLR M03/M06 A3022 800 78 -1100 330/11 RMK AO2 TSNO
94908KDBQ DBQ20020221200510602/21/02 20:05:31  5-MIN KDBQ 220205Z AUTO 33011KT 10SM CLR M03/M06 A3022 800 78 -1100 330/11 RMK AO2 TSNO
94908KDBQ DBQ20020221201010602/21/02 20:10:31  5-MIN KDBQ 220210Z AUTO 34010KT 10SM CLR M03/M06 A3022 800 78 -1100 340/10 RMK AO2 TSNO
94908KDBQ DBQ20020221201510602/21/02 20:15:31  5-MIN KDBQ 220215Z AUTO 34010KT 10SM CLR M03/M06 A3022 800 78 -1100 340/10 RMK AO2 TSNO
94908KDBQ DBQ20020221202010602/21/02 20:20:31  5-MIN KDBQ 220220Z AUTO 34009KT 10SM CLR M03/M06 A3022 800 78 -1100 340/09 RMK AO2 TSNO
94908KDBQ DBQ20020221202510602/21/02 20:25:31  5-MIN KDBQ 220225Z AUTO 34010KT 10SM CLR M03/M06 A3022 800 78 -1100 340/10 RMK AO2 TSNO
94908KDBQ DBQ20020221203010602/21/02 20:30:31  5-MIN KDBQ 220230Z AUTO 34009KT 10SM CLR M03/M06 A3022 800 78 -1100 340/09 RMK AO2 TSNO
94908KDBQ DBQ20020221203510602/21/02 20:35:31  5-MIN KDBQ 220235Z AUTO 34010KT 10SM CLR M03/M07 A3022 800 75 -1100 340/10 RMK AO2 TSNO
94908KDBQ DBQ20020221204010602/21/02 20:40:31  5-MIN KDBQ 220240Z AUTO 34008KT 10SM CLR M03/M06 A3022 800 78 -1100 340/08 RMK AO2 TSNO
94908KDBQ DBQ20020221204510602/21/02 20:45:31  5-MIN KDBQ 220245Z AUTO 34009KT 10SM CLR M03/M07 A3022 800 75 -1100 340/09 RMK AO2 TSNO
94908KDBQ DBQ20020221205012902/21/02 20:50:31  5-MIN KDBQ 220250Z AUTO 34009KT 10SM CLR M03/M07 A3022 800 75 -1100 340/09 RMK AO2 SLP248 T10281067 51027 TSNO
94908KDBQ DBQ20020221205512902/21/02 20:55:31  5-MIN KDBQ 220255Z AUTO 34008KT 10SM CLR M03/M07 A3022 800 75 -1100 340/08 RMK AO2 SLP248 T10281067 51010 TSNO
94908KDBQ DBQ20020221210010602/21/02 21:00:31  5-MIN KDBQ 220300Z AUTO 34009KT 10SM CLR M03/M07 A3022 800 75 -1100 340/09 RMK AO2 TSNO
94908KDBQ DBQ20020221210510602/21/02 21:05:31  5-MIN KDBQ 220305Z AUTO 34010KT 10SM CLR M03/M07 A3022 800 75 -1100 340/10 RMK AO2 TSNO
94908KDBQ DBQ20020221211010602/21/02 21:10:31  5-MIN KDBQ 220310Z AUTO 34011KT 10SM CLR M03/M06 A3022 800 78 -1100 340/11 RMK AO2 TSNO
94908KDBQ DBQ20020221211510602/21/02 21:15:31  5-MIN KDBQ 220315Z AUTO 34011KT 10SM CLR M03/M07 A3022 800 75 -1100 340/11 RMK AO2 TSNO
94908KDBQ DBQ20020221212010602/21/02 21:20:31  5-MIN KDBQ 220320Z AUTO 34010KT 10SM CLR M03/M07 A3023 800 75 -1100 340/10 RMK AO2 TSNO
94908KDBQ DBQ20020221212510602/21/02 21:25:31  5-MIN KDBQ 220325Z AUTO 34009KT 10SM CLR M03/M07 A3023 800 75 -1100 340/09 RMK AO2 TSNO
94908KDBQ DBQ20020221213010602/21/02 21:30:31  5-MIN KDBQ 220330Z AUTO 34009KT 10SM CLR M03/M07 A3023 800 75 -1100 340/09 RMK AO2 TSNO
94908KDBQ DBQ20020221213510602/21/02 21:35:31  5-MIN KDBQ 220335Z AUTO 34011KT 10SM CLR M03/M07 A3023 790 75 -1100 340/11 RMK AO2 TSNO
94908KDBQ DBQ20020221214010602/21/02 21:40:31  5-MIN KDBQ 220340Z AUTO 34009KT 10SM CLR M03/M07 A3023 790 75 -1100 340/09 RMK AO2 TSNO
94908KDBQ DBQ20020221214510602/21/02 21:45:31  5-MIN KDBQ 220345Z AUTO 34009KT 10SM CLR M03/M07 A3024 790 75 -1100 340/09 RMK AO2 TSNO
94908KDBQ DBQ20020221215012302/21/02 21:50:31  5-MIN KDBQ 220350Z AUTO 34008KT 10SM CLR M03/M07 A3024 790 75 -1100 340/08 RMK AO2 SLP254 T10281067 TSNO
94908KDBQ DBQ20020221215512302/21/02 21:55:31  5-MIN KDBQ 220355Z AUTO 34008KT 10SM CLR M03/M07 A3024 780 78 -1200 340/08 RMK AO2 SLP254 T10331067 TSNO
94908KDBQ DBQ20020221220010602/21/02 22:00:31  5-MIN KDBQ 220400Z AUTO 34009KT 10SM CLR M03/M07 A3024 780 78 -1200 340/09 RMK AO2 TSNO
94908KDBQ DBQ20020221220510602/21/02 22:05:31  5-MIN KDBQ 220405Z AUTO 35008KT 10SM CLR M03/M07 A3024 790 75 -1100 350/08 RMK AO2 TSNO
94908KDBQ DBQ20020221221010602/21/02 22:10:31  5-MIN KDBQ 220410Z AUTO 35007KT 10SM CLR M03/M07 A3024 790 78 -1200 350/07 RMK AO2 TSNO
94908KDBQ DBQ20020221221510602/21/02 22:15:31  5-MIN KDBQ 220415Z AUTO 35006KT 10SM CLR M03/M07 A3024 790 78 -1200 350/06 RMK AO2 TSNO
94908KDBQ DBQ20020221222010602/21/02 22:20:31  5-MIN KDBQ 220420Z AUTO 35007KT 10SM CLR M03/M07 A3024 790 74 -1200 350/07 RMK AO2 TSNO
94908KDBQ DBQ20020221222510602/21/02 22:25:31  5-MIN KDBQ 220425Z AUTO 36007KT 10SM CLR M03/M07 A3024 790 78 -1200 360/07 RMK AO2 TSNO
94908KDBQ DBQ20020221223010602/21/02 22:30:31  5-MIN KDBQ 220430Z AUTO 35007KT 10SM CLR M03/M07 A3024 780 78 -1200 350/07 RMK AO2 TSNO
94908KDBQ DBQ20020221223510602/21/02 22:35:31  5-MIN KDBQ 220435Z AUTO 35007KT 10SM CLR M03/M07 A3024 780 78 -1200 350/07 RMK AO2 TSNO
94908KDBQ DBQ20020221224010602/21/02 22:40:31  5-MIN KDBQ 220440Z AUTO 35007KT 10SM CLR M03/M07 A3024 780 78 -1200 350/07 RMK AO2 TSNO
94908KDBQ DBQ20020221224510602/21/02 22:45:31  5-MIN KDBQ 220445Z AUTO 36007KT 10SM CLR M03/M07 A3024 780 74 -1200 360/07 RMK AO2 TSNO
94908KDBQ DBQ20020221225012302/21/02 22:50:31  5-MIN KDBQ 220450Z AUTO 01006KT 10SM CLR M03/M07 A3024 780 74 -1200 010/06 RMK AO2 SLP255 T10331072 TSNO
94908KDBQ DBQ20020221225512302/21/02 22:55:31  5-MIN KDBQ 220455Z AUTO 01006KT 10SM CLR M04/M07 A3024 780 78 -1300 010/06 RMK AO2 SLP256 T10391072 TSNO
94908KDBQ DBQ20020221230010602/21/02 23:00:31  5-MIN KDBQ 220500Z AUTO 36005KT 10SM CLR M04/M07 A3024 780 78 -1300 360/05 RMK AO2 TSNO
94908KDBQ DBQ20020221230510602/21/02 23:05:31  5-MIN KDBQ 220505Z AUTO 36005KT 10SM CLR M04/M07 A3024 780 78 -1300 350/05 RMK AO2 TSNO
94908KDBQ DBQ20020221231010602/21/02 23:10:31  5-MIN KDBQ 220510Z AUTO 36004KT 10SM CLR M04/M07 A3024 780 78 -1300 360/04 RMK AO2 TSNO
94908KDBQ DBQ20020221231510602/21/02 23:15:31  5-MIN KDBQ 220515Z AUTO 35006KT 10SM CLR M04/M07 A3025 780 78 -1300 350/06 RMK AO2 TSNO
94908KDBQ DBQ20020221232010602/21/02 23:20:31  5-MIN KDBQ 220520Z AUTO 35005KT 10SM CLR M04/M07 A3025 780 78 -1300 350/05 RMK AO2 TSNO
94908KDBQ DBQ20020221232510602/21/02 23:25:31  5-MIN KDBQ 220525Z AUTO 35006KT 10SM CLR M04/M08 A3025 780 74 -1300 350/06 RMK AO2 TSNO
94908KDBQ DBQ20020221233010602/21/02 23:30:31  5-MIN KDBQ 220530Z AUTO 35007KT 10SM CLR M04/M08 A3025 780 78 -1300 350/07 RMK AO2 TSNO
94908KDBQ DBQ20020221233510602/21/02 23:35:31  5-MIN KDBQ 220535Z AUTO 35007KT 10SM CLR M04/M08 A3025 770 78 -1300 340/07 RMK AO2 TSNO
94908KDBQ DBQ20020221234010602/21/02 23:40:31  5-MIN KDBQ 220540Z AUTO 35007KT 10SM CLR M04/M07 A3025 770 81 -1300 350/07 RMK AO2 TSNO
94908KDBQ DBQ20020221234510602/21/02 23:45:31  5-MIN KDBQ 220545Z AUTO 35007KT 10SM CLR M04/M07 A3026 770 81 -1300 350/07 RMK AO2 TSNO
94908KDBQ DBQ20020221235015102/21/02 23:50:31  5-MIN KDBQ 220550Z AUTO 34008KT 10SM CLR M04/M08 A3026 770 78 -1400 340/08 RMK AO2 SLP261 T10441078 11017 21044 400001044 51010 TSNO
94908KDBQ DBQ20020221235515102/21/02 23:55:31  5-MIN KDBQ 220555Z AUTO 35007KT 10SM CLR M04/M07 A3026 770 81 -1400 350/07 RMK AO2 SLP261 T10441072 11017 21044 400001044 51012 TSNO
94908KDBQ DBQ20020222000010602/22/02 00:00:31  5-MIN KDBQ 220600Z AUTO 35007KT 10SM CLR M04/M07 A3025 770 81 -1300 350/07 RMK AO2 TSNO
94908KDBQ DBQ20020222000510602/22/02 00:05:31  5-MIN KDBQ 220605Z AUTO 35006KT 10SM CLR M04/M08 A3025 770 78 -1300 350/06 RMK AO2 TSNO
94908KDBQ DBQ20020222001010602/22/02 00:10:31  5-MIN KDBQ 220610Z AUTO 35007KT 10SM CLR M04/M08 A3026 770 78 -1300 350/07 RMK AO2 TSNO
94908KDBQ DBQ20020222001510602/22/02 00:15:31  5-MIN KDBQ 220615Z AUTO 34007KT 10SM CLR M04/M08 A3026 770 78 -1400 340/07 RMK AO2 TSNO
94908KDBQ DBQ20020222002010602/22/02 00:20:31  5-MIN KDBQ 220620Z AUTO 35007KT 10SM CLR M04/M08 A3026 770 78 -1400 350/07 RMK AO2 TSNO
94908KDBQ DBQ20020222002510602/22/02 00:25:31  5-MIN KDBQ 220625Z AUTO 35007KT 10SM CLR M04/M08 A3026 770 78 -1300 350/07 RMK AO2 TSNO
94908KDBQ DBQ20020222003010602/22/02 00:30:31  5-MIN KDBQ 220630Z AUTO 36006KT 10SM CLR M04/M07 A3026 770 81 -1300 360/06 RMK AO2 TSNO
94908KDBQ DBQ20020222003510602/22/02 00:35:31  5-MIN KDBQ 220635Z AUTO 35006KT 10SM CLR M04/M08 A3026 770 78 -1400 350/06 RMK AO2 TSNO
94908KDBQ DBQ20020222004010602/22/02 00:40:31  5-MIN KDBQ 220640Z AUTO 36005KT 10SM CLR M04/M08 A3026 770 78 -1300 350/05 RMK AO2 TSNO
94908KDBQ DBQ20020222004510602/22/02 00:45:31  5-MIN KDBQ 220645Z AUTO 35006KT 10SM CLR M05/M08 A3025 770 81 -1400 350/06 RMK AO2 TSNO
94908KDBQ DBQ20020222005012302/22/02 00:50:31  5-MIN KDBQ 220650Z AUTO 35006KT 10SM CLR M05/M08 A3026 770 81 -1400 340/06 RMK AO2 SLP261 T10501078 TSNO
94908KDBQ DBQ20020222005512302/22/02 00:55:31  5-MIN KDBQ 220655Z AUTO 34007KT 10SM CLR M06/M08 A3026 770 81 -1500 340/07 RMK AO2 SLP261 T10561083 TSNO
94908KDBQ DBQ20020222010010602/22/02 01:00:31  5-MIN KDBQ 220700Z AUTO 35006KT 10SM CLR M06/M08 A3025 770 81 -1500 350/06 RMK AO2 TSNO
94908KDBQ DBQ20020222010510602/22/02 01:05:31  5-MIN KDBQ 220705Z AUTO 36006KT 10SM CLR M06/M08 A3025 770 84 -1500 350/06 RMK AO2 TSNO
94908KDBQ DBQ20020222011010602/22/02 01:10:31  5-MIN KDBQ 220710Z AUTO 35006KT 10SM CLR M06/M08 A3025 770 84 -1500 350/06 RMK AO2 TSNO
94908KDBQ DBQ20020222011510602/22/02 01:15:31  5-MIN KDBQ 220715Z AUTO 35007KT 10SM CLR M06/M08 A3025 770 81 -1500 340/07 RMK AO2 TSNO
94908KDBQ DBQ20020222012010602/22/02 01:20:31  5-MIN KDBQ 220720Z AUTO 35006KT 10SM CLR M06/M08 A3025 770 81 -1500 350/06 RMK AO2 TSNO
94908KDBQ DBQ20020222012510602/22/02 01:25:31  5-MIN KDBQ 220725Z AUTO 36007KT 10SM CLR M05/M08 A3025 770 81 -1400 350/07 RMK AO2 TSNO
94908KDBQ DBQ20020222013010602/22/02 01:30:31  5-MIN KDBQ 220730Z AUTO 35006KT 10SM CLR M05/M08 A3025 770 81 -1400 350/06 RMK AO2 TSNO
94908KDBQ DBQ20020222013510602/22/02 01:35:31  5-MIN KDBQ 220735Z AUTO 36007KT 10SM CLR M05/M08 A3025 780 81 -1400 360/07 RMK AO2 TSNO
94908KDBQ DBQ20020222014010602/22/02 01:40:31  5-MIN KDBQ 220740Z AUTO 36007KT 10SM CLR M06/M08 A3025 770 84 -1500 360/07 RMK AO2 TSNO
94908KDBQ DBQ20020222014510602/22/02 01:45:31  5-MIN KDBQ 220745Z AUTO 35007KT 10SM CLR M05/M08 A3025 770 81 -1400 350/07 RMK AO2 TSNO
94908KDBQ DBQ20020222015012302/22/02 01:50:31  5-MIN KDBQ 220750Z AUTO 35007KT 10SM CLR M06/M08 A3025 770 84 -1500 350/07 RMK AO2 SLP260 T10561078 TSNO
94908KDBQ DBQ20020222015512302/22/02 01:55:31  5-MIN KDBQ 220755Z AUTO 35008KT 10SM CLR M06/M08 A3025 770 84 -1500 350/08 RMK AO2 SLP260 T10561078 TSNO
94908KDBQ DBQ20020222020010602/22/02 02:00:31  5-MIN KDBQ 220800Z AUTO 35007KT 10SM CLR M06/M08 A3025 770 84 -1500 350/07 RMK AO2 TSNO
94908KDBQ DBQ20020222020510602/22/02 02:05:31  5-MIN KDBQ 220805Z AUTO 36007KT 10SM CLR M06/M08 A3025 780 84 -1500 350/07 RMK AO2 TSNO
94908KDBQ DBQ20020222021010602/22/02 02:10:31  5-MIN KDBQ 220810Z AUTO 36007KT 10SM CLR M06/M08 A3025 770 84 -1500 360/07 RMK AO2 TSNO
94908KDBQ DBQ20020222021510602/22/02 02:15:31  5-MIN KDBQ 220815Z AUTO 01007KT 10SM CLR M05/M08 A3025 780 81 -1400 010/07 RMK AO2 TSNO
94908KDBQ DBQ20020222022010602/22/02 02:20:31  5-MIN KDBQ 220820Z AUTO 36007KT 10SM CLR M05/M08 A3025 780 81 -1400 360/07 RMK AO2 TSNO
94908KDBQ DBQ20020222022510602/22/02 02:25:31  5-MIN KDBQ 220825Z AUTO 36007KT 10SM CLR M05/M08 A3025 770 81 -1400 360/07 RMK AO2 TSNO
94908KDBQ DBQ20020222023010602/22/02 02:30:31  5-MIN KDBQ 220830Z AUTO 36007KT 10SM CLR M06/M08 A3025 770 84 -1500 360/07 RMK AO2 TSNO
94908KDBQ DBQ20020222023510602/22/02 02:35:31  5-MIN KDBQ 220835Z AUTO 36008KT 10SM CLR M06/M08 A3025 770 84 -1500 360/08 RMK AO2 TSNO
94908KDBQ DBQ20020222024010602/22/02 02:40:31  5-MIN KDBQ 220840Z AUTO 36008KT 10SM CLR M05/M08 A3025 770 81 -1400 360/08 RMK AO2 TSNO
94908KDBQ DBQ20020222024510602/22/02 02:45:31  5-MIN KDBQ 220845Z AUTO 01008KT 10SM CLR M06/M08 A3025 770 84 -1500 010/08 RMK AO2 TSNO
94908KDBQ DBQ20020222025012902/22/02 02:50:31  5-MIN KDBQ 220850Z AUTO 01008KT 10SM CLR M06/M08 A3025 770 84 -1500 010/08 RMK AO2 SLP260 T10561078 51012 TSNO
94908KDBQ DBQ20020222025512902/22/02 02:55:31  5-MIN KDBQ 220855Z AUTO 36008KT 10SM CLR M06/M08 A3025 770 84 -1500 360/08 RMK AO2 SLP261 T10561078 55001 TSNO
94908KDBQ DBQ20020222030010602/22/02 03:00:31  5-MIN KDBQ 220900Z AUTO 01008KT 10SM CLR M06/M08 A3025 770 84 -1500 010/08 RMK AO2 TSNO
94908KDBQ DBQ20020222030510602/22/02 03:05:31  5-MIN KDBQ 220905Z AUTO 01008KT 10SM CLR M06/M08 A3026 770 84 -1500 360/08 RMK AO2 TSNO
94908KDBQ DBQ20020222031010602/22/02 03:10:31  5-MIN KDBQ 220910Z AUTO 01008KT 10SM CLR M06/M08 A3026 770 88 -1600 010/08 RMK AO2 TSNO
94908KDBQ DBQ20020222031510602/22/02 03:15:31  5-MIN KDBQ 220915Z AUTO 36008KT 10SM CLR M06/M08 A3026 770 88 -1600 360/08 RMK AO2 TSNO
94908KDBQ DBQ20020222032010602/22/02 03:20:31  5-MIN KDBQ 220920Z AUTO 36008KT 10SM CLR M06/M08 A3026 770 84 -1500 360/08 RMK AO2 TSNO
94908KDBQ DBQ20020222032510602/22/02 03:25:31  5-MIN KDBQ 220925Z AUTO 36008KT 10SM CLR M06/M08 A3026 760 84 -1500 360/08 RMK AO2 TSNO
94908KDBQ DBQ20020222033010602/22/02 03:30:31  5-MIN KDBQ 220930Z AUTO 01008KT 10SM CLR M06/M08 A3026 770 84 -1500 010/08 RMK AO2 TSNO
94908KDBQ DBQ20020222033510602/22/02 03:35:31  5-MIN KDBQ 220935Z AUTO 01008KT 10SM CLR M06/M08 A3026 770 88 -1600 010/08 RMK AO2 TSNO
94908KDBQ DBQ20020222034010602/22/02 03:40:31  5-MIN KDBQ 220940Z AUTO 01009KT 10SM CLR M06/M08 A3026 770 88 -1600 010/09 RMK AO2 TSNO
94908KDBQ DBQ20020222034510602/22/02 03:45:31  5-MIN KDBQ 220945Z AUTO 36008KT 10SM CLR M06/M08 A3026 760 88 -1600 360/08 RMK AO2 TSNO
94908KDBQ DBQ20020222035012302/22/02 03:50:31  5-MIN KDBQ 220950Z AUTO 01009KT 10SM CLR M06/M08 A3026 760 84 -1500 010/09 RMK AO2 SLP263 T10561078 TSNO
94908KDBQ DBQ20020222035512302/22/02 03:55:31  5-MIN KDBQ 220955Z AUTO 01009KT 10SM CLR M06/M08 A3026 760 84 -1500 010/09 RMK AO2 SLP263 T10561078 TSNO
94908KDBQ DBQ20020222040010602/22/02 04:00:31  5-MIN KDBQ 221000Z AUTO 01009KT 10SM CLR M06/M08 A3026 760 88 -1600 010/09 RMK AO2 TSNO
94908KDBQ DBQ20020222040510602/22/02 04:05:31  5-MIN KDBQ 221005Z AUTO 01009KT 10SM CLR M06/M08 A3026 760 88 -1600 010/09 RMK AO2 TSNO
94908KDBQ DBQ20020222041010602/22/02 04:10:31  5-MIN KDBQ 221010Z AUTO 36009KT 10SM CLR M06/M08 A3027 760 88 -1600 360/09 RMK AO2 TSNO
94908KDBQ DBQ20020222041510602/22/02 04:15:31  5-MIN KDBQ 221015Z AUTO 01009KT 10SM CLR M06/M08 A3026 760 88 -1600 010/09 RMK AO2 TSNO
94908KDBQ DBQ20020222042010602/22/02 04:20:31  5-MIN KDBQ 221020Z AUTO 01009KT 10SM CLR M06/M08 A3026 760 88 -1600 010/09 RMK AO2 TSNO
94908KDBQ DBQ20020222042510602/22/02 04:25:31  5-MIN KDBQ 221025Z AUTO 01009KT 10SM CLR M06/M08 A3026 770 88 -1600 010/09 RMK AO2 TSNO
94908KDBQ DBQ20020222043010602/22/02 04:30:31  5-MIN KDBQ 221030Z AUTO 01009KT 10SM CLR M06/M08 A3026 770 88 -1600 010/09 RMK AO2 TSNO
94908KDBQ DBQ20020222043510602/22/02 04:35:31  5-MIN KDBQ 221035Z AUTO 01009KT 10SM CLR M06/M08 A3026 770 88 -1600 010/09 RMK AO2 TSNO
94908KDBQ DBQ20020222044010602/22/02 04:40:31  5-MIN KDBQ 221040Z AUTO 36009KT 10SM CLR M06/M08 A3026 770 84 -1600 360/09 RMK AO2 TSNO
94908KDBQ DBQ20020222044510602/22/02 04:45:31  5-MIN KDBQ 221045Z AUTO 01009KT 10SM CLR M06/M08 A3026 760 88 -1600 360/09 RMK AO2 TSNO
94908KDBQ DBQ20020222045012302/22/02 04:50:31  5-MIN KDBQ 221050Z AUTO 36009KT 10SM CLR M06/M08 A3026 760 88 -1600 360/09 RMK AO2 SLP263 T10611078 TSNO
94908KDBQ DBQ20020222045512302/22/02 04:55:31  5-MIN KDBQ 221055Z AUTO 01009KT 10SM CLR M06/M08 A3026 770 88 -1600 010/09 RMK AO2 SLP262 T10611078 TSNO
94908KDBQ DBQ20020222050010602/22/02 05:00:31  5-MIN KDBQ 221100Z AUTO 01010KT 10SM CLR M06/M08 A3026 770 88 -1600 010/10 RMK AO2 TSNO
94908KDBQ DBQ20020222050510602/22/02 05:05:31  5-MIN KDBQ 221105Z AUTO 01010KT 10SM CLR M06/M08 A3026 770 88 -1600 010/10 RMK AO2 TSNO
94908KDBQ DBQ20020222051010602/22/02 05:10:31  5-MIN KDBQ 221110Z AUTO 01010KT 10SM CLR M06/M08 A3026 770 84 -1600 010/10 RMK AO2 TSNO
94908KDBQ DBQ20020222051510602/22/02 05:15:31  5-MIN KDBQ 221115Z AUTO 01010KT 10SM CLR M06/M08 A3026 770 84 -1600 010/10 RMK AO2 TSNO
94908KDBQ DBQ20020222052010602/22/02 05:20:31  5-MIN KDBQ 221120Z AUTO 01009KT 10SM CLR M06/M08 A3026 760 88 -1600 360/09 RMK AO2 TSNO
94908KDBQ DBQ20020222052510602/22/02 05:25:31  5-MIN KDBQ 221125Z AUTO 01009KT 10SM CLR M06/M08 A3026 760 88 -1600 010/09 RMK AO2 TSNO
94908KDBQ DBQ20020222053010602/22/02 05:30:31  5-MIN KDBQ 221130Z AUTO 01009KT 10SM CLR M06/M08 A3026 760 88 -1600 010/09 RMK AO2 TSNO
94908KDBQ DBQ20020222053510602/22/02 05:35:31  5-MIN KDBQ 221135Z AUTO 02008KT 10SM CLR M06/M08 A3026 770 88 -1600 020/08 RMK AO2 TSNO
94908KDBQ DBQ20020222054010602/22/02 05:40:31  5-MIN KDBQ 221140Z AUTO 02008KT 10SM CLR M07/M08 A3026 770 92 -1600 020/08 RMK AO2 TSNO
94908KDBQ DBQ20020222054510602/22/02 05:45:31  5-MIN KDBQ 221145Z AUTO 01007KT 10SM CLR M07/M08 A3026 770 88 -1600 010/07 RMK AO2 TSNO
94908KDBQ DBQ20020222055013102/22/02 05:50:31  5-MIN KDBQ 221150Z 01006KT 10SM CLR M07/M08 A3026 760 88 -1600 010/06 RMK AO2 SLP264 T10671083 11044 21067 55001
94908KDBQ DBQ20020222055513102/22/02 05:55:31  5-MIN KDBQ 221155Z 01005KT 10SM CLR M07/M08 A3026 760 92 -1700 010/05 RMK AO2 SLP264 T10721083 11044 21072 51003
94908KDBQ DBQ20020222060009602/22/02 06:00:31  5-MIN KDBQ 221200Z 02004KT 10SM CLR M07/M09 A3026 760 88 -1700 020/04 RMK AO2
94908KDBQ DBQ20020222060509602/22/02 06:05:31  5-MIN KDBQ 221205Z 00000KT 10SM CLR M07/M09 A3026 770 88 -1700 000/00 RMK AO2
94908KDBQ DBQ20020222061009602/22/02 06:10:31  5-MIN KDBQ 221210Z 00000KT 10SM CLR M07/M08 A3026 770 92 -1700 000/00 RMK AO2
94908KDBQ DBQ20020222061509602/22/02 06:15:31  5-MIN KDBQ 221215Z 00000KT 10SM CLR M07/M08 A3027 760 92 -1700 000/00 RMK AO2
94908KDBQ DBQ20020222062009602/22/02 06:20:31  5-MIN KDBQ 221220Z 00000KT 10SM CLR M08/M09 A3026 760 92 -1800 000/00 RMK AO2
94908KDBQ DBQ20020222062509602/22/02 06:25:31  5-MIN KDBQ 221225Z 00000KT 10SM CLR M08/M09 A3026 760 88 -1800 000/00 RMK AO2
94908KDBQ DBQ20020222063009602/22/02 06:30:31  5-MIN KDBQ 221230Z 00000KT 10SM CLR M08/M09 A3027 760 92 -1800 000/00 RMK AO2
94908KDBQ DBQ20020222063509602/22/02 06:35:31  5-MIN KDBQ 221235Z 00000KT 10SM CLR M08/M09 A3027 760 92 -1800 000/00 RMK AO2
94908KDBQ DBQ20020222064009602/22/02 06:40:31  5-MIN KDBQ 221240Z 36003KT 10SM CLR M08/M10 A3027 760 88 -1900 360/03 RMK AO2
94908KDBQ DBQ20020222064509602/22/02 06:45:31  5-MIN KDBQ 221245Z 36004KT 10SM CLR M08/M09 A3027 750 92 -1900 360/04 RMK AO2
94908KDBQ DBQ20020222065011202/22/02 06:50:31  5-MIN KDBQ 221250Z 35003KT 9SM CLR M08/M09 A3027 750 92 -1900 350/03 RMK AO2 SLP269 T10831094
94908KDBQ DBQ20020222065511202/22/02 06:55:31  5-MIN KDBQ 221255Z 36003KT 9SM CLR M08/M09 A3027 750 92 -1900 360/03 RMK AO2 SLP269 T10831094
94908KDBQ DBQ20020222070009502/22/02 07:00:31  5-MIN KDBQ 221300Z 36003KT 9SM CLR M08/M09 A3028 750 92 -1800 360/03 RMK AO2
94908KDBQ DBQ20020222070509502/22/02 07:05:31  5-MIN KDBQ 221305Z 36004KT 9SM CLR M08/M08 A3028 750 96 -1800 360/04 RMK AO2
94908KDBQ DBQ20020222071009502/22/02 07:10:31  5-MIN KDBQ 221310Z 36004KT 9SM CLR M07/M08 A3028 750 92 -1700 360/04 RMK AO2
94908KDBQ DBQ20020222071509602/22/02 07:15:31  5-MIN KDBQ 221315Z 01004KT 10SM CLR M07/M08 A3028 750 92 -1700 010/04 RMK AO2
94908KDBQ DBQ20020222072009602/22/02 07:20:31  5-MIN KDBQ 221320Z 02004KT 10SM CLR M07/M08 A3028 750 92 -1700 020/04 RMK AO2
94908KDBQ DBQ20020222072509602/22/02 07:25:31  5-MIN KDBQ 221325Z 02003KT 10SM CLR M07/M09 A3028 750 88 -1700 020/03 RMK AO2
94908KDBQ DBQ20020222073009602/22/02 07:30:31  5-MIN KDBQ 221330Z 01003KT 10SM CLR M08/M09 A3028 750 88 -1800 010/03 RMK AO2
94908KDBQ DBQ20020222073509602/22/02 07:35:31  5-MIN KDBQ 221335Z 01004KT 10SM CLR M07/M08 A3028 750 92 -1700 010/04 RMK AO2
94908KDBQ DBQ20020222074009602/22/02 07:40:31  5-MIN KDBQ 221340Z 02004KT 10SM CLR M07/M08 A3028 750 92 -1700 020/04 RMK AO2
94908KDBQ DBQ20020222074509602/22/02 07:45:31  5-MIN KDBQ 221345Z 03003KT 10SM CLR M07/M08 A3028 750 88 -1700 030/03 RMK AO2
94908KDBQ DBQ20020222075011302/22/02 07:50:31  5-MIN KDBQ 221350Z 03003KT 10SM CLR M06/M08 A3027 750 88 -1600 030/03 RMK AO2 SLP268 T10611078
94908KDBQ DBQ20020222075511302/22/02 07:55:31  5-MIN KDBQ 221355Z 04003KT 10SM CLR M06/M08 A3027 750 88 -1600 040/03 RMK AO2 SLP268 T10611078
94908KDBQ DBQ20020222080009602/22/02 08:00:31  5-MIN KDBQ 221400Z 03003KT 10SM CLR M06/M08 A3027 750 88 -1600 030/03 RMK AO2
94908KDBQ DBQ20020222080509602/22/02 08:05:31  5-MIN KDBQ 221405Z 03004KT 10SM CLR M06/M08 A3027 750 84 -1500 030/04 RMK AO2
94908KDBQ DBQ20020222081009602/22/02 08:10:31  5-MIN KDBQ 221410Z 03004KT 10SM CLR M06/M08 A3027 760 84 -1500 030/04 RMK AO2
94908KDBQ DBQ20020222081509602/22/02 08:15:31  5-MIN KDBQ 221415Z 03004KT 10SM CLR M05/M08 A3027 760 81 -1400 020/04 RMK AO2
94908KDBQ DBQ20020222082009602/22/02 08:20:31  5-MIN KDBQ 221420Z 03005KT 10SM CLR M05/M08 A3027 750 81 -1400 030/05 RMK AO2
94908KDBQ DBQ20020222082509602/22/02 08:25:31  5-MIN KDBQ 221425Z 03005KT 10SM CLR M05/M08 A3027 750 81 -1400 030/05 RMK AO2
94908KDBQ DBQ20020222083009602/22/02 08:30:31  5-MIN KDBQ 221430Z 03005KT 10SM CLR M05/M08 A3027 750 81 -1400 030/05 RMK AO2
94908KDBQ DBQ20020222083509602/22/02 08:35:31  5-MIN KDBQ 221435Z 03004KT 10SM CLR M05/M07 A3027 750 84 -1400 030/04 RMK AO2
94908KDBQ DBQ20020222084009602/22/02 08:40:31  5-MIN KDBQ 221440Z 02005KT 10SM CLR M05/M08 A3028 750 81 -1400 020/05 RMK AO2
94908KDBQ DBQ20020222084509602/22/02 08:45:31  5-MIN KDBQ 221445Z 02005KT 10SM CLR M04/M08 A3028 750 78 -1400 020/05 RMK AO2
94908KDBQ DBQ20020222085011902/22/02 08:50:31  5-MIN KDBQ 221450Z 02004KT 10SM CLR M04/M08 A3028 750 74 -1400 020/04 RMK AO2 SLP269 T10441083 51003
94908KDBQ DBQ20020222085511902/22/02 08:55:31  5-MIN KDBQ 221455Z 03003KT 10SM CLR M04/M08 A3028 750 78 -1400 030/03 RMK AO2 SLP269 T10441078 51005
94908KDBQ DBQ20020222090009602/22/02 09:00:31  5-MIN KDBQ 221500Z 00000KT 10SM CLR M04/M08 A3028 750 74 -1300 000/00 RMK AO2
94908KDBQ DBQ20020222090509602/22/02 09:05:31  5-MIN KDBQ 221505Z 00000KT 10SM CLR M04/M08 A3028 750 74 -1300 000/00 RMK AO2
94908KDBQ DBQ20020222091009602/22/02 09:10:31  5-MIN KDBQ 221510Z 00000KT 10SM CLR M04/M08 A3028 750 71 -1300 000/00 RMK AO2
94908KDBQ DBQ20020222091509602/22/02 09:15:31  5-MIN KDBQ 221515Z 00000KT 10SM CLR M04/M08 A3028 750 71 -1300 000/00 RMK AO2
94908KDBQ DBQ20020222092009602/22/02 09:20:31  5-MIN KDBQ 221520Z 00000KT 10SM CLR M04/M08 A3028 750 71 -1300 000/00 RMK AO2
94908KDBQ DBQ20020222092509602/22/02 09:25:31  5-MIN KDBQ 221525Z 00000KT 10SM CLR M04/M08 A3028 750 71 -1300 000/00 RMK AO2
94908KDBQ DBQ20020222093009602/22/02 09:30:31  5-MIN KDBQ 221530Z 00000KT 10SM CLR M03/M08 A3028 750 68 -1200 000/00 RMK AO2
94908KDBQ DBQ20020222093509602/22/02 09:35:31  5-MIN KDBQ 221535Z 00000KT 10SM CLR M03/M08 A3028 750 68 -1200 000/00 RMK AO2
94908KDBQ DBQ20020222094009602/22/02 09:40:31  5-MIN KDBQ 221540Z 00000KT 10SM CLR M03/M08 A3028 750 71 -1200 000/00 RMK AO2
94908KDBQ DBQ20020222094509602/22/02 09:45:31  5-MIN KDBQ 221545Z 00000KT 10SM CLR M03/M08 A3028 750 68 -1200 000/00 RMK AO2
94908KDBQ DBQ20020222095011302/22/02 09:50:31  5-MIN KDBQ 221550Z 00000KT 10SM CLR M03/M08 A3028 750 66 -1200 000/00 RMK AO2 SLP268 T10281083
94908KDBQ DBQ20020222095511302/22/02 09:55:31  5-MIN KDBQ 221555Z 00000KT 10SM CLR M03/M08 A3028 750 68 -1200 000/00 RMK AO2 SLP269 T10281078
94908KDBQ DBQ20020222100009602/22/02 10:00:31  5-MIN KDBQ 221600Z 00000KT 10SM CLR M03/M08 A3028 750 68 -1200 000/00 RMK AO2
94908KDBQ DBQ20020222100509602/22/02 10:05:31  5-MIN KDBQ 221605Z 00000KT 10SM CLR M03/M08 A3028 750 68 -1200 000/00 RMK AO2
94908KDBQ DBQ20020222101009602/22/02 10:10:31  5-MIN KDBQ 221610Z 00000KT 10SM CLR M03/M08 A3028 750 71 -1200 000/00 RMK AO2
94908KDBQ DBQ20020222101509602/22/02 10:15:31  5-MIN KDBQ 221615Z 21003KT 10SM CLR M03/M08 A3028 750 68 -1200 210/03 RMK AO2
94908KDBQ DBQ20020222102009602/22/02 10:20:31  5-MIN KDBQ 221620Z 24003KT 10SM CLR M03/M08 A3028 740 71 -1200 240/03 RMK AO2
94908KDBQ DBQ20020222102509602/22/02 10:25:31  5-MIN KDBQ 221625Z 00000KT 10SM CLR M03/M07 A3028 750 71 -1200 000/00 RMK AO2
94908KDBQ DBQ20020222103009602/22/02 10:30:31  5-MIN KDBQ 221630Z 00000KT 10SM CLR M03/M08 A3028 750 68 -1200 000/00 RMK AO2
94908KDBQ DBQ20020222103509602/22/02 10:35:31  5-MIN KDBQ 221635Z VRB03KT 10SM CLR M02/M07 A3028 750 69 -1100 VRB/03 RMK AO2
94908KDBQ DBQ20020222104009602/22/02 10:40:31  5-MIN KDBQ 221640Z 24003KT 10SM CLR M02/M07 A3028 750 69 -1100 230/03 RMK AO2
94908KDBQ DBQ20020222104509602/22/02 10:45:31  5-MIN KDBQ 221645Z 00000KT 10SM CLR M02/M07 A3027 750 69 -1000 000/00 RMK AO2
94908KDBQ DBQ20020222105011302/22/02 10:50:31  5-MIN KDBQ 221650Z 23003KT 10SM CLR M02/M07 A3027 750 69 -1000 230/03 RMK AO2 SLP266 T10171067
94908KDBQ DBQ20020222105511302/22/02 10:55:31  5-MIN KDBQ 221655Z 28003KT 10SM CLR M02/M07 A3027 750 69 -1000 280/03 RMK AO2 SLP267 T10171067
94908KDBQ DBQ20020222110009502/22/02 11:00:31  5-MIN KDBQ 221700Z 24004KT 10SM CLR M01/M07 A3027 750 63 -900 240/04 RMK AO2
94908KDBQ DBQ20020222110509502/22/02 11:05:31  5-MIN KDBQ 221705Z VRB03KT 10SM CLR M01/M07 A3027 760 63 -900 VRB/03 RMK AO2
94908KDBQ DBQ20020222111009502/22/02 11:10:31  5-MIN KDBQ 221710Z 22004KT 10SM CLR M01/M07 A3027 760 66 -900 220/04 RMK AO2
94908KDBQ DBQ20020222111509502/22/02 11:15:31  5-MIN KDBQ 221715Z 21005KT 10SM CLR M01/M07 A3026 760 63 -900 210/05 RMK AO2
94908KDBQ DBQ20020222112009502/22/02 11:20:31  5-MIN KDBQ 221720Z 21005KT 10SM CLR M01/M08 A3026 760 60 -900 210/05 RMK AO2
94908KDBQ DBQ20020222112509502/22/02 11:25:31  5-MIN KDBQ 221725Z VRB04KT 10SM CLR M01/M08 A3026 760 60 -900 VRB/04 RMK AO2
94908KDBQ DBQ20020222113009502/22/02 11:30:31  5-MIN KDBQ 221730Z 21005KT 10SM CLR M01/M08 A3026 770 58 -900 210/05 RMK AO2
94908KDBQ DBQ20020222113509502/22/02 11:35:31  5-MIN KDBQ 221735Z 21003KT 10SM CLR M01/M08 A3026 770 56 -900 210/03 RMK AO2
94908KDBQ DBQ20020222114009402/22/02 11:40:31  5-MIN KDBQ 221740Z 24004KT 10SM CLR 00/M09 A3025 770 49 -800 240/04 RMK AO2
94908KDBQ DBQ20020222114509502/22/02 11:45:31  5-MIN KDBQ 221745Z 23003KT 10SM CLR M01/M11 A3025 770 47 -800 230/03 RMK AO2
94908KDBQ DBQ20020222115012902/22/02 11:50:31  5-MIN KDBQ 221750Z 00000KT 10SM CLR 00/M10 A3025 780 47 -800 000/00 RMK AO2 SLP257 T00001100 10000 21089 51005
94908KDBQ DBQ20020222115512902/22/02 11:55:31  5-MIN KDBQ 221755Z 21003KT 10SM CLR 00/M08 A3024 780 53 -800 210/03 RMK AO2 SLP256 T00001083 10006 21089 58012
94908KDBQ DBQ20020222120009402/22/02 12:00:31  5-MIN KDBQ 221800Z 22003KT 10SM CLR 00/M08 A3024 780 53 -800 220/03 RMK AO2
94908KDBQ DBQ20020222120509402/22/02 12:05:31  5-MIN KDBQ 221805Z 00000KT 10SM CLR 00/M08 A3024 780 53 -800 000/00 RMK AO2
94908KDBQ DBQ20020222121009402/22/02 12:10:31  5-MIN KDBQ 221810Z 00000KT 10SM CLR 01/M08 A3024 790 54 -700 000/00 RMK AO2
94908KDBQ DBQ20020222121509402/22/02 12:15:31  5-MIN KDBQ 221815Z 00000KT 10SM CLR 01/M09 A3023 790 49 -700 000/00 RMK AO2
94908KDBQ DBQ20020222122009402/22/02 12:20:31  5-MIN KDBQ 221820Z 00000KT 10SM CLR 01/M10 A3023 790 45 -700 000/00 RMK AO2
94908KDBQ DBQ20020222122509402/22/02 12:25:31  5-MIN KDBQ 221825Z 23003KT 10SM CLR 01/M10 A3023 790 45 -700 230/03 RMK AO2
94908KDBQ DBQ20020222123009402/22/02 12:30:31  5-MIN KDBQ 221830Z 00000KT 10SM CLR 01/M10 A3023 790 45 -700 000/00 RMK AO2
94908KDBQ DBQ20020222123509402/22/02 12:35:31  5-MIN KDBQ 221835Z 27004KT 10SM CLR 01/M10 A3023 800 43 -600 260/04 RMK AO2
94908KDBQ DBQ20020222124009402/22/02 12:40:31  5-MIN KDBQ 221840Z 23005KT 10SM CLR 01/M09 A3022 800 45 -600 230/05 RMK AO2
94908KDBQ DBQ20020222124509402/22/02 12:45:31  5-MIN KDBQ 221845Z 00000KT 10SM CLR 01/M09 A3022 800 45 -600 000/00 RMK AO2
94908KDBQ DBQ20020222125011102/22/02 12:50:31  5-MIN KDBQ 221850Z 26004KT 10SM CLR 02/M09 A3022 800 43 -500 260/04 RMK AO2 SLP247 T00171094
94908KDBQ DBQ20020222125511102/22/02 12:55:31  5-MIN KDBQ 221855Z VRB05KT 10SM CLR 01/M09 A3022 810 47 -600 VRB/05 RMK AO2 SLP246 T00111089
94908KDBQ DBQ20020222130009402/22/02 13:00:31  5-MIN KDBQ 221900Z VRB04KT 10SM CLR 01/M09 A3021 810 47 -600 VRB/04 RMK AO2
94908KDBQ DBQ20020222130509402/22/02 13:05:31  5-MIN KDBQ 221905Z 24004KT 10SM CLR 02/M09 A3021 810 45 -500 240/04 RMK AO2
94908KDBQ DBQ20020222131009402/22/02 13:10:31  5-MIN KDBQ 221910Z 23005KT 10SM CLR 02/M09 A3021 810 45 -500 230/05 RMK AO2
94908KDBQ DBQ20020222131509402/22/02 13:15:31  5-MIN KDBQ 221915Z 19004KT 10SM CLR 02/M10 A3021 820 42 -500 190/04 RMK AO2
94908KDBQ DBQ20020222132009402/22/02 13:20:31  5-MIN KDBQ 221920Z 22003KT 10SM CLR 02/M09 A3020 820 45 -500 210/03 RMK AO2
94908KDBQ DBQ20020222132509402/22/02 13:25:31  5-MIN KDBQ 221925Z 00000KT 10SM CLR 02/M09 A3020 820 44 -400 000/00 RMK AO2
94908KDBQ DBQ20020222133009402/22/02 13:30:31  5-MIN KDBQ 221930Z 26004KT 10SM CLR 02/M08 A3020 820 47 -400 260/04 RMK AO2
94908KDBQ DBQ20020222133509402/22/02 13:35:31  5-MIN KDBQ 221935Z VRB04KT 10SM CLR 02/M09 A3020 820 44 -400 VRB/04 RMK AO2
94908KDBQ DBQ20020222134009402/22/02 13:40:31  5-MIN KDBQ 221940Z VRB03KT 10SM CLR 02/M08 A3019 830 47 -400 VRB/03 RMK AO2
94908KDBQ DBQ20020222134509402/22/02 13:45:31  5-MIN KDBQ 221945Z VRB03KT 10SM CLR 02/M08 A3019 830 47 -400 VRB/03 RMK AO2
94908KDBQ DBQ20020222135011102/22/02 13:50:31  5-MIN KDBQ 221950Z 00000KT 10SM CLR 02/M08 A3019 830 45 -400 000/00 RMK AO2 SLP236 T00221083
94908KDBQ DBQ20020222135511102/22/02 13:55:31  5-MIN KDBQ 221955Z 00000KT 10SM CLR 02/M08 A3019 830 47 -400 000/00 RMK AO2 SLP236 T00221078
94908KDBQ DBQ20020222140009402/22/02 14:00:31  5-MIN KDBQ 222000Z 21005KT 10SM CLR 02/M07 A3018 840 52 -400 210/05 RMK AO2
94908KDBQ DBQ20020222140509402/22/02 14:05:31  5-MIN KDBQ 222005Z 22003KT 10SM CLR 02/M07 A3018 840 50 -400 220/03 RMK AO2
94908KDBQ DBQ20020222141009402/22/02 14:10:31  5-MIN KDBQ 222010Z 24006KT 10SM CLR 03/M08 A3018 840 46 -400 240/06 RMK AO2
94908KDBQ DBQ20020222141509402/22/02 14:15:31  5-MIN KDBQ 222015Z 24004KT 10SM CLR 03/M08 A3018 840 44 -400 240/04 RMK AO2
94908KDBQ DBQ20020222142009402/22/02 14:20:31  5-MIN KDBQ 222020Z 21006KT 10SM CLR 03/M08 A3018 840 46 -400 210/06 RMK AO2
94908KDBQ DBQ20020222142509402/22/02 14:25:31  5-MIN KDBQ 222025Z VRB03KT 10SM CLR 03/M08 A3018 840 46 -300 VRB/03 RMK AO2
94908KDBQ DBQ20020222143009402/22/02 14:30:31  5-MIN KDBQ 222030Z 23005KT 10SM CLR 03/M07 A3018 840 48 -300 230/05 RMK AO2
94908KDBQ DBQ20020222143509402/22/02 14:35:31  5-MIN KDBQ 222035Z 22006KT 10SM CLR 03/M07 A3017 840 48 -300 220/06 RMK AO2
94908KDBQ DBQ20020222144009402/22/02 14:40:31  5-MIN KDBQ 222040Z 22005KT 10SM CLR 03/M06 A3017 840 52 -300 220/05 RMK AO2
94908KDBQ DBQ20020222144509402/22/02 14:45:31  5-MIN KDBQ 222045Z 23006KT 10SM CLR 03/M07 A3017 840 50 -300 230/06 RMK AO2
94908KDBQ DBQ20020222145011702/22/02 14:50:31  5-MIN KDBQ 222050Z 23007KT 10SM CLR 03/M07 A3017 840 50 -300 230/07 RMK AO2 SLP231 T00281067 58012
94908KDBQ DBQ20020222145511702/22/02 14:55:31  5-MIN KDBQ 222055Z 24006KT 10SM CLR 03/M06 A3018 840 52 -300 240/06 RMK AO2 SLP232 T00281061 56023
94908KDBQ DBQ20020222150009402/22/02 15:00:31  5-MIN KDBQ 222100Z 24006KT 10SM CLR 03/M07 A3018 840 50 -300 240/06 RMK AO2
94908KDBQ DBQ20020222150509402/22/02 15:05:31  5-MIN KDBQ 222105Z 23006KT 10SM CLR 03/M07 A3018 840 50 -300 230/06 RMK AO2
94908KDBQ DBQ20020222151009402/22/02 15:10:31  5-MIN KDBQ 222110Z 23005KT 10SM CLR 03/M06 A3018 840 50 -300 230/05 RMK AO2
94908KDBQ DBQ20020222151509402/22/02 15:15:31  5-MIN KDBQ 222115Z 23008KT 10SM CLR 03/M06 A3017 840 50 -300 230/08 RMK AO2
94908KDBQ DBQ20020222152009402/22/02 15:20:31  5-MIN KDBQ 222120Z 24005KT 10SM CLR 03/M07 A3017 850 48 -300 240/05 RMK AO2
94908KDBQ DBQ20020222152509402/22/02 15:25:31  5-MIN KDBQ 222125Z 21006KT 10SM CLR 03/M07 A3017 850 48 -300 210/06 RMK AO2
94908KDBQ DBQ20020222153009402/22/02 15:30:31  5-MIN KDBQ 222130Z 21007KT 10SM CLR 03/M07 A3017 850 48 -300 210/07 RMK AO2
94908KDBQ DBQ20020222153509402/22/02 15:35:31  5-MIN KDBQ 222135Z 21006KT 10SM CLR 03/M06 A3017 850 50 -300 210/06 RMK AO2
94908KDBQ DBQ20020222154009402/22/02 15:40:31  5-MIN KDBQ 222140Z 21005KT 10SM CLR 03/M07 A3017 850 46 -300 210/05 RMK AO2
94908KDBQ DBQ20020222154509402/22/02 15:45:31  5-MIN KDBQ 222145Z 22005KT 10SM CLR 03/M07 A3017 850 46 -300 220/05 RMK AO2
94908KDBQ DBQ20020222155011102/22/02 15:50:31  5-MIN KDBQ 222150Z 21006KT 10SM CLR 03/M07 A3017 850 48 -300 210/06 RMK AO2 SLP228 T00331067
94908KDBQ DBQ20020222155511102/22/02 15:55:31  5-MIN KDBQ 222155Z 23005KT 10SM CLR 04/M07 A3016 860 46 -200 230/05 RMK AO2 SLP227 T00391067
94908KDBQ DBQ20020222160009402/22/02 16:00:31  5-MIN KDBQ 222200Z 23006KT 10SM CLR 04/M06 A3016 860 48 -200 230/06 RMK AO2
94908KDBQ DBQ20020222160509402/22/02 16:05:31  5-MIN KDBQ 222205Z 20007KT 10SM CLR 04/M07 A3016 860 44 -200 200/07 RMK AO2
94908KDBQ DBQ20020222161009402/22/02 16:10:31  5-MIN KDBQ 222210Z 23006KT 10SM CLR 03/M07 A3016 860 46 -300 230/06 RMK AO2
94908KDBQ DBQ20020222161509402/22/02 16:15:31  5-MIN KDBQ 222215Z 21005KT 10SM CLR 03/M06 A3016 860 50 -300 210/05 RMK AO2
94908KDBQ DBQ20020222162009402/22/02 16:20:31  5-MIN KDBQ 222220Z 20006KT 10SM CLR 03/M07 A3016 860 48 -300 200/06 RMK AO2
94908KDBQ DBQ20020222162509402/22/02 16:25:31  5-MIN KDBQ 222225Z 21007KT 10SM CLR 03/M07 A3016 860 48 -300 210/07 RMK AO2
94908KDBQ DBQ20020222163009402/22/02 16:30:31  5-MIN KDBQ 222230Z 21007KT 10SM CLR 03/M07 A3016 860 46 -300 210/07 RMK AO2
94908KDBQ DBQ20020222163509402/22/02 16:35:31  5-MIN KDBQ 222235Z 22005KT 10SM CLR 03/M06 A3016 860 50 -300 220/05 RMK AO2
94908KDBQ DBQ20020222164009402/22/02 16:40:31  5-MIN KDBQ 222240Z 21006KT 10SM CLR 03/M06 A3016 860 50 -300 210/06 RMK AO2
94908KDBQ DBQ20020222164509402/22/02 16:45:31  5-MIN KDBQ 222245Z 21006KT 10SM CLR 03/M07 A3015 860 48 -300 210/06 RMK AO2
94908KDBQ DBQ20020222165011102/22/02 16:50:31  5-MIN KDBQ 222250Z 21005KT 10SM CLR 03/M07 A3015 860 46 -300 210/05 RMK AO2 SLP224 T00331072
94908KDBQ DBQ20020222165511102/22/02 16:55:31  5-MIN KDBQ 222255Z 21006KT 10SM CLR 03/M07 A3015 860 50 -300 210/06 RMK AO2 SLP225 T00281067
94908KDBQ DBQ20020222170009402/22/02 17:00:31  5-MIN KDBQ 222300Z 21004KT 10SM CLR 03/M07 A3015 860 50 -300 210/04 RMK AO2
94908KDBQ DBQ20020222170509402/22/02 17:05:31  5-MIN KDBQ 222305Z 21004KT 10SM CLR 02/M06 A3015 860 54 -400 210/04 RMK AO2
94908KDBQ DBQ20020222171009402/22/02 17:10:31  5-MIN KDBQ 222310Z 19004KT 10SM CLR 02/M06 A3015 870 54 -400 190/04 RMK AO2
94908KDBQ DBQ20020222171509402/22/02 17:15:31  5-MIN KDBQ 222315Z 19005KT 10SM CLR 02/M06 A3015 870 56 -400 190/05 RMK AO2
94908KDBQ DBQ20020222172009402/22/02 17:20:31  5-MIN KDBQ 222320Z 17004KT 10SM CLR 02/M06 A3015 870 59 -500 170/04 RMK AO2
94908KDBQ DBQ20020222172509402/22/02 17:25:31  5-MIN KDBQ 222325Z 18005KT 10SM CLR 02/M05 A3015 870 61 -500 180/05 RMK AO2
94908KDBQ DBQ20020222173009402/22/02 17:30:31  5-MIN KDBQ 222330Z 18005KT 10SM CLR 02/M06 A3015 870 59 -500 180/05 RMK AO2
94908KDBQ DBQ20020222173509402/22/02 17:35:31  5-MIN KDBQ 222335Z 17005KT 10SM CLR 02/M06 A3015 870 59 -500 170/05 RMK AO2
94908KDBQ DBQ20020222174009402/22/02 17:40:31  5-MIN KDBQ 222340Z 17005KT 10SM CLR 01/M06 A3015 870 61 -500 170/05 RMK AO2
94908KDBQ DBQ20020222174509402/22/02 17:45:31  5-MIN KDBQ 222345Z 17004KT 10SM CLR 01/M05 A3015 860 64 -500 170/04 RMK AO2
94908KDBQ DBQ20020222175012902/22/02 17:50:31  5-MIN KDBQ 222350Z 16004KT 10SM CLR 01/M05 A3015 860 64 -500 160/04 RMK AO2 SLP226 T00111050 10039 20000 56023
94908KDBQ DBQ20020222175512902/22/02 17:55:31  5-MIN KDBQ 222355Z 17004KT 10SM CLR 01/M05 A3015 860 66 -600 170/04 RMK AO2 SLP226 T00061050 10039 20000 56007
94908KDBQ DBQ20020222180009402/22/02 18:00:31  5-MIN KDBQ 230000Z 15004KT 10SM CLR 01/M04 A3015 860 69 -600 150/04 RMK AO2
94908KDBQ DBQ20020222180509402/22/02 18:05:31  5-MIN KDBQ 230005Z 16005KT 10SM CLR 01/M04 A3015 860 69 -600 160/05 RMK AO2
94908KDBQ DBQ20020222181009402/22/02 18:10:31  5-MIN KDBQ 230010Z 16005KT 10SM CLR 01/M05 A3015 870 66 -600 160/05 RMK AO2
94908KDBQ DBQ20020222181509402/22/02 18:15:31  5-MIN KDBQ 230015Z 16005KT 10SM CLR 01/M05 A3015 860 66 -600 160/05 RMK AO2
94908KDBQ DBQ20020222182009402/22/02 18:20:31  5-MIN KDBQ 230020Z 16005KT 10SM CLR 01/M05 A3015 860 66 -600 160/05 RMK AO2
94908KDBQ DBQ20020222182509402/22/02 18:25:31  5-MIN KDBQ 230025Z 16006KT 10SM CLR 01/M05 A3015 860 66 -600 160/06 RMK AO2
94908KDBQ DBQ20020222183009402/22/02 18:30:31  5-MIN KDBQ 230030Z 15007KT 10SM CLR 01/M06 A3015 870 63 -600 150/07 RMK AO2
94908KDBQ DBQ20020222183509702/22/02 18:35:31  5-MIN KDBQ 230035Z 16006KT 10SM FEW120 01/M06 A3015 860 63 -600 160/06 RMK AO2
94908KDBQ DBQ20020222184009702/22/02 18:40:31  5-MIN KDBQ 230040Z 16006KT 10SM SCT120 01/M06 A3015 860 63 -600 160/06 RMK AO2
94908KDBQ DBQ20020222184509702/22/02 18:45:31  5-MIN KDBQ 230045Z 16007KT 10SM SCT120 01/M06 A3015 860 63 -600 150/07 RMK AO2
94908KDBQ DBQ20020222185011402/22/02 18:50:31  5-MIN KDBQ 230050Z 16007KT 10SM FEW120 01/M06 A3015 860 63 -600 150/07 RMK AO2 SLP227 T00061056
94908KDBQ DBQ20020222185511402/22/02 18:55:31  5-MIN KDBQ 230055Z 16007KT 10SM SCT120 01/M06 A3015 870 63 -600 160/07 RMK AO2 SLP226 T00061056
94908KDBQ DBQ20020222190009702/22/02 19:00:31  5-MIN KDBQ 230100Z 15008KT 10SM SCT120 01/M06 A3015 870 63 -600 150/08 RMK AO2
94908KDBQ DBQ20020222190509702/22/02 19:05:31  5-MIN KDBQ 230105Z 15008KT 10SM BKN120 01/M05 A3014 870 66 -600 150/08 RMK AO2
94908KDBQ DBQ20020222191009702/22/02 19:10:31  5-MIN KDBQ 230110Z 15008KT 10SM BKN120 00/M05 A3014 880 69 -700 150/08 RMK AO2
94908KDBQ DBQ20020222191509702/22/02 19:15:31  5-MIN KDBQ 230115Z 15007KT 10SM BKN120 00/M05 A3014 880 69 -700 150/07 RMK AO2
94908KDBQ DBQ20020222192009702/22/02 19:20:31  5-MIN KDBQ 230120Z 15007KT 10SM BKN120 01/M05 A3014 880 66 -600 150/07 RMK AO2
94908KDBQ DBQ20020222192509702/22/02 19:25:31  5-MIN KDBQ 230125Z 15007KT 10SM BKN120 01/M04 A3014 880 69 -600 150/07 RMK AO2
94908KDBQ DBQ20020222193009702/22/02 19:30:31  5-MIN KDBQ 230130Z 15007KT 10SM OVC120 01/M04 A3013 880 69 -600 150/07 RMK AO2
94908KDBQ DBQ20020222193509702/22/02 19:35:31  5-MIN KDBQ 230135Z 15007KT 10SM OVC120 01/M04 A3013 880 69 -600 150/07 RMK AO2
94908KDBQ DBQ20020222194009702/22/02 19:40:31  5-MIN KDBQ 230140Z 16007KT 10SM OVC120 01/M04 A3014 880 69 -600 160/07 RMK AO2
94908KDBQ DBQ20020222194509702/22/02 19:45:31  5-MIN KDBQ 230145Z 16008KT 10SM OVC120 01/M04 A3013 880 69 -600 160/08 RMK AO2
94908KDBQ DBQ20020222195011402/22/02 19:50:31  5-MIN KDBQ 230150Z 16007KT 10SM OVC120 01/M04 A3013 880 69 -600 160/07 RMK AO2 SLP219 T00061044
94908KDBQ DBQ20020222195511402/22/02 19:55:31  5-MIN KDBQ 230155Z 16007KT 10SM OVC120 01/M04 A3013 880 69 -600 160/07 RMK AO2 SLP219 T00061044
94908KDBQ DBQ20020222200010202/22/02 20:00:31  5-MIN KDBQ 230200Z AUTO 16008KT 10SM OVC120 00/M04 A3013 880 72 -600 160/08 RMK AO2
94908KDBQ DBQ20020222200510702/22/02 20:05:31  5-MIN KDBQ 230205Z AUTO 16007KT 10SM OVC120 00/M04 A3013 880 72 -600 160/07 RMK AO2 TSNO
94908KDBQ DBQ20020222201010702/22/02 20:10:31  5-MIN KDBQ 230210Z AUTO 16008KT 10SM OVC120 01/M04 A3013 880 69 -600 160/08 RMK AO2 TSNO
94908KDBQ DBQ20020222201510702/22/02 20:15:31  5-MIN KDBQ 230215Z AUTO 16008KT 10SM OVC120 01/M04 A3013 890 69 -600 160/08 RMK AO2 TSNO
94908KDBQ DBQ20020222202010702/22/02 20:20:31  5-MIN KDBQ 230220Z AUTO 16008KT 10SM OVC120 01/M04 A3012 890 69 -600 160/08 RMK AO2 TSNO
94908KDBQ DBQ20020222202510702/22/02 20:25:31  5-MIN KDBQ 230225Z AUTO 16008KT 10SM OVC120 00/M04 A3012 890 72 -600 160/08 RMK AO2 TSNO
94908KDBQ DBQ20020222203010702/22/02 20:30:31  5-MIN KDBQ 230230Z AUTO 16008KT 10SM OVC120 00/M04 A3012 890 72 -600 150/08 RMK AO2 TSNO
94908KDBQ DBQ20020222203510702/22/02 20:35:31  5-MIN KDBQ 230235Z AUTO 15009KT 10SM OVC120 00/M04 A3012 900 72 -600 150/09 RMK AO2 TSNO
94908KDBQ DBQ20020222204010702/22/02 20:40:31  5-MIN KDBQ 230240Z AUTO 16009KT 10SM OVC120 00/M04 A3012 900 72 -600 150/09 RMK AO2 TSNO
94908KDBQ DBQ20020222204510702/22/02 20:45:31  5-MIN KDBQ 230245Z AUTO 15009KT 10SM OVC120 00/M04 A3012 900 72 -600 150/09 RMK AO2 TSNO
94908KDBQ DBQ20020222205013002/22/02 20:50:31  5-MIN KDBQ 230250Z AUTO 15008KT 10SM OVC120 00/M04 A3012 900 72 -600 150/08 RMK AO2 SLP212 T00001044 56007 TSNO
94908KDBQ DBQ20020222205513002/22/02 20:55:31  5-MIN KDBQ 230255Z AUTO 16008KT 10SM BKN120 00/M04 A3012 900 72 -600 160/08 RMK AO2 SLP212 T00001044 58012 TSNO
94908KDBQ DBQ20020222210010702/22/02 21:00:31  5-MIN KDBQ 230300Z AUTO 16009KT 10SM BKN120 00/M04 A3011 900 72 -600 160/09 RMK AO2 TSNO
94908KDBQ DBQ20020222210510702/22/02 21:05:31  5-MIN KDBQ 230305Z AUTO 16009KT 10SM BKN120 00/M04 A3011 900 72 -600 160/09 RMK AO2 TSNO
94908KDBQ DBQ20020222211010702/22/02 21:10:31  5-MIN KDBQ 230310Z AUTO 17008KT 10SM BKN110 00/M04 A3011 900 75 -600 170/08 RMK AO2 TSNO
94908KDBQ DBQ20020222211510702/22/02 21:15:31  5-MIN KDBQ 230315Z AUTO 17008KT 10SM BKN110 00/M04 A3011 900 75 -600 170/08 RMK AO2 TSNO
94908KDBQ DBQ20020222212010702/22/02 21:20:31  5-MIN KDBQ 230320Z AUTO 17010KT 10SM BKN110 00/M04 A3011 900 75 -600 170/10 RMK AO2 TSNO
94908KDBQ DBQ20020222212510702/22/02 21:25:31  5-MIN KDBQ 230325Z AUTO 17009KT 10SM OVC120 00/M04 A3011 900 72 -600 170/09 RMK AO2 TSNO
94908KDBQ DBQ20020222213010702/22/02 21:30:31  5-MIN KDBQ 230330Z AUTO 17008KT 10SM OVC120 00/M04 A3011 900 72 -600 170/08 RMK AO2 TSNO
94908KDBQ DBQ20020222213510702/22/02 21:35:31  5-MIN KDBQ 230335Z AUTO 17008KT 10SM OVC120 00/M04 A3011 910 72 -600 170/08 RMK AO2 TSNO
94908KDBQ DBQ20020222214010702/22/02 21:40:31  5-MIN KDBQ 230340Z AUTO 16008KT 10SM OVC120 00/M04 A3011 910 72 -600 160/08 RMK AO2 TSNO
94908KDBQ DBQ20020222214510702/22/02 21:45:31  5-MIN KDBQ 230345Z AUTO 16009KT 10SM OVC120 00/M04 A3010 910 75 -600 160/09 RMK AO2 TSNO
94908KDBQ DBQ20020222215012402/22/02 21:50:31  5-MIN KDBQ 230350Z AUTO 16009KT 10SM OVC120 00/M04 A3010 910 72 -600 160/09 RMK AO2 SLP206 T00001044 TSNO
94908KDBQ DBQ20020222215512402/22/02 21:55:31  5-MIN KDBQ 230355Z AUTO 16010KT 10SM OVC120 00/M04 A3010 910 72 -600 160/10 RMK AO2 SLP206 T00001044 TSNO
94908KDBQ DBQ20020222220011402/22/02 22:00:31  5-MIN KDBQ 230400Z AUTO 16009KT 10SM FEW095 OVC120 00/M04 A3010 910 72 -600 160/09 RMK AO2 TSNO
94908KDBQ DBQ20020222220510702/22/02 22:05:31  5-MIN KDBQ 230405Z AUTO 16009KT 10SM OVC110 00/M04 A3010 910 72 -600 160/09 RMK AO2 TSNO
94908KDBQ DBQ20020222221010702/22/02 22:10:31  5-MIN KDBQ 230410Z AUTO 16009KT 10SM OVC110 00/M04 A3010 910 72 -600 160/09 RMK AO2 TSNO
94908KDBQ DBQ20020222221510702/22/02 22:15:31  5-MIN KDBQ 230415Z AUTO 16010KT 10SM OVC110 00/M04 A3010 910 72 -600 160/10 RMK AO2 TSNO
94908KDBQ DBQ20020222222010702/22/02 22:20:31  5-MIN KDBQ 230420Z AUTO 16010KT 10SM OVC110 00/M04 A3010 910 72 -600 160/10 RMK AO2 TSNO
94908KDBQ DBQ20020222222510702/22/02 22:25:31  5-MIN KDBQ 230425Z AUTO 16010KT 10SM OVC100 00/M04 A3010 910 75 -600 160/10 RMK AO2 TSNO
94908KDBQ DBQ20020222223010702/22/02 22:30:31  5-MIN KDBQ 230430Z AUTO 16010KT 10SM OVC100 00/M04 A3010 920 75 -600 160/10 RMK AO2 TSNO
94908KDBQ DBQ20020222223510702/22/02 22:35:31  5-MIN KDBQ 230435Z AUTO 16011KT 10SM OVC100 00/M04 A3009 920 75 -600 160/11 RMK AO2 TSNO
94908KDBQ DBQ20020222224010702/22/02 22:40:31  5-MIN KDBQ 230440Z AUTO 16010KT 10SM OVC100 00/M04 A3009 920 75 -600 160/10 RMK AO2 TSNO
94908KDBQ DBQ20020222224510702/22/02 22:45:31  5-MIN KDBQ 230445Z AUTO 16011KT 10SM OVC100 00/M04 A3009 920 75 -600 160/11 RMK AO2 TSNO
94908KDBQ DBQ20020222225012402/22/02 22:50:31  5-MIN KDBQ 230450Z AUTO 16011KT 10SM OVC100 01/M04 A3009 920 69 -500 160/11 RMK AO2 SLP203 T00061044 TSNO
94908KDBQ DBQ20020222225512402/22/02 22:55:31  5-MIN KDBQ 230455Z AUTO 16010KT 10SM OVC100 01/M04 A3009 920 69 -500 160/10 RMK AO2 SLP203 T00061044 TSNO
94908KDBQ DBQ20020222230010702/22/02 23:00:31  5-MIN KDBQ 230500Z AUTO 15010KT 10SM OVC100 01/M04 A3009 920 69 -500 150/10 RMK AO2 TSNO
94908KDBQ DBQ20020222230510702/22/02 23:05:31  5-MIN KDBQ 230505Z AUTO 15010KT 10SM OVC100 00/M04 A3009 920 72 -600 150/10 RMK AO2 TSNO
94908KDBQ DBQ20020222231010702/22/02 23:10:31  5-MIN KDBQ 230510Z AUTO 16010KT 10SM OVC100 00/M04 A3009 920 75 -600 150/10 RMK AO2 TSNO
94908KDBQ DBQ20020222231510702/22/02 23:15:31  5-MIN KDBQ 230515Z AUTO 16010KT 10SM OVC100 01/M04 A3009 930 72 -500 160/10 RMK AO2 TSNO
94908KDBQ DBQ20020222232010702/22/02 23:20:31  5-MIN KDBQ 230520Z AUTO 16010KT 10SM OVC100 00/M04 A3009 930 75 -600 160/10 RMK AO2 TSNO
94908KDBQ DBQ20020222232510702/22/02 23:25:31  5-MIN KDBQ 230525Z AUTO 16010KT 10SM OVC100 00/M05 A3008 930 69 -600 160/10 RMK AO2 TSNO
94908KDBQ DBQ20020222233010702/22/02 23:30:31  5-MIN KDBQ 230530Z AUTO 16009KT 10SM OVC100 00/M04 A3008 930 72 -600 160/09 RMK AO2 TSNO
94908KDBQ DBQ20020222233510702/22/02 23:35:31  5-MIN KDBQ 230535Z AUTO 16008KT 10SM OVC100 00/M05 A3008 930 69 -600 160/08 RMK AO2 TSNO
94908KDBQ DBQ20020222234010702/22/02 23:40:31  5-MIN KDBQ 230540Z AUTO 16009KT 10SM OVC095 00/M04 A3008 930 72 -600 160/09 RMK AO2 TSNO
94908KDBQ DBQ20020222234510702/22/02 23:45:31  5-MIN KDBQ 230545Z AUTO 16010KT 10SM OVC095 00/M05 A3009 930 69 -600 160/10 RMK AO2 TSNO
94908KDBQ DBQ20020222235015202/22/02 23:50:31  5-MIN KDBQ 230550Z AUTO 16010KT 10SM OVC095 00/M04 A3009 930 72 -600 160/10 RMK AO2 SLP200 T00001044 10006 20000 400391089 58012 TSNO
94908KDBQ DBQ20020222235515202/22/02 23:55:31  5-MIN KDBQ 230555Z AUTO 16009KT 10SM OVC090 00/M04 A3009 930 72 -600 160/09 RMK AO2 SLP200 T00001044 10006 20000 400391089 56010 TSNO
94908KDBQ DBQ20020223000010702/23/02 00:00:31  5-MIN KDBQ 230600Z AUTO 16009KT 10SM OVC090 00/M04 A3009 930 72 -600 160/09 RMK AO2 TSNO
94908KDBQ DBQ20020223000510702/23/02 00:05:31  5-MIN KDBQ 230605Z AUTO 16009KT 10SM OVC090 00/M04 A3009 930 72 -600 160/09 RMK AO2 TSNO
94908KDBQ DBQ20020223001010702/23/02 00:10:31  5-MIN KDBQ 230610Z AUTO 16009KT 10SM OVC090 00/M04 A3009 930 72 -600 160/09 RMK AO2 TSNO
94908KDBQ DBQ20020223001510702/23/02 00:15:31  5-MIN KDBQ 230615Z AUTO 17008KT 10SM OVC090 00/M04 A3009 930 72 -600 170/08 RMK AO2 TSNO
94908KDBQ DBQ20020223002010702/23/02 00:20:31  5-MIN KDBQ 230620Z AUTO 17009KT 10SM OVC090 00/M04 A3008 930 72 -600 170/09 RMK AO2 TSNO
94908KDBQ DBQ20020223002510702/23/02 00:25:31  5-MIN KDBQ 230625Z AUTO 17010KT 10SM OVC090 01/M04 A3008 930 69 -500 170/10 RMK AO2 TSNO
94908KDBQ DBQ20020223003010702/23/02 00:30:31  5-MIN KDBQ 230630Z AUTO 17009KT 10SM OVC090 01/M04 A3008 930 69 -500 170/09 RMK AO2 TSNO
94908KDBQ DBQ20020223003510702/23/02 00:35:31  5-MIN KDBQ 230635Z AUTO 17010KT 10SM OVC090 01/M04 A3008 930 69 -500 170/10 RMK AO2 TSNO
94908KDBQ DBQ20020223004010702/23/02 00:40:31  5-MIN KDBQ 230640Z AUTO 17010KT 10SM OVC090 01/M05 A3008 930 66 -500 170/10 RMK AO2 TSNO
94908KDBQ DBQ20020223004510702/23/02 00:45:31  5-MIN KDBQ 230645Z AUTO 17010KT 10SM OVC090 01/M05 A3008 930 66 -500 170/10 RMK AO2 TSNO
94908KDBQ DBQ20020223005012402/23/02 00:50:31  5-MIN KDBQ 230650Z AUTO 17011KT 10SM OVC090 01/M05 A3008 930 66 -500 170/11 RMK AO2 SLP196 T00061050 TSNO
94908KDBQ DBQ20020223005512402/23/02 00:55:31  5-MIN KDBQ 230655Z AUTO 17012KT 10SM OVC090 01/M05 A3007 940 66 -500 170/12 RMK AO2 SLP195 T00061050 TSNO
94908KDBQ DBQ20020223010010702/23/02 01:00:31  5-MIN KDBQ 230700Z AUTO 17012KT 10SM OVC090 01/M05 A3007 940 66 -500 170/12 RMK AO2 TSNO
94908KDBQ DBQ20020223010510702/23/02 01:05:31  5-MIN KDBQ 230705Z AUTO 17011KT 10SM OVC090 01/M05 A3007 940 66 -500 170/11 RMK AO2 TSNO
94908KDBQ DBQ20020223011010702/23/02 01:10:31  5-MIN KDBQ 230710Z AUTO 17013KT 10SM OVC095 01/M05 A3007 940 66 -500 170/13 RMK AO2 TSNO
94908KDBQ DBQ20020223011510702/23/02 01:15:31  5-MIN KDBQ 230715Z AUTO 17013KT 10SM OVC095 01/M05 A3007 940 66 -500 170/13 RMK AO2 TSNO
94908KDBQ DBQ20020223012010702/23/02 01:20:31  5-MIN KDBQ 230720Z AUTO 17013KT 10SM OVC095 01/M05 A3006 950 66 -500 170/13 RMK AO2 TSNO
94908KDBQ DBQ20020223012510702/23/02 01:25:31  5-MIN KDBQ 230725Z AUTO 17013KT 10SM OVC095 01/M05 A3006 950 66 -500 170/13 RMK AO2 TSNO
94908KDBQ DBQ20020223013011402/23/02 01:30:31  5-MIN KDBQ 230730Z AUTO 17012KT 10SM BKN095 BKN120 01/M05 A3006 950 66 -500 170/12 RMK AO2 TSNO
94908KDBQ DBQ20020223013511402/23/02 01:35:31  5-MIN KDBQ 230735Z AUTO 18014KT 10SM BKN095 BKN120 01/M05 A3006 950 66 -500 170/14 RMK AO2 TSNO
94908KDBQ DBQ20020223014011402/23/02 01:40:31  5-MIN KDBQ 230740Z AUTO 18013KT 10SM BKN095 BKN120 01/M05 A3006 950 66 -500 170/13 RMK AO2 TSNO
94908KDBQ DBQ20020223014511402/23/02 01:45:31  5-MIN KDBQ 230745Z AUTO 18013KT 10SM BKN090 BKN120 01/M04 A3006 950 69 -500 170/13 RMK AO2 TSNO
94908KDBQ DBQ20020223015012402/23/02 01:50:31  5-MIN KDBQ 230750Z AUTO 18014KT 10SM BKN090 01/M04 A3005 950 69 -500 170/14 RMK AO2 SLP188 T00061044 TSNO
94908KDBQ DBQ20020223015513102/23/02 01:55:31  5-MIN KDBQ 230755Z AUTO 18014KT 10SM SCT090 BKN120 01/M05 A3005 950 66 -500 170/14 RMK AO2 SLP188 T00061050 TSNO
94908KDBQ DBQ20020223020011402/23/02 02:00:31  5-MIN KDBQ 230800Z AUTO 18014KT 10SM SCT090 BKN120 01/M05 A3005 960 66 -500 180/14 RMK AO2 TSNO
94908KDBQ DBQ20020223020511402/23/02 02:05:31  5-MIN KDBQ 230805Z AUTO 17013KT 10SM SCT090 BKN110 01/M05 A3005 960 66 -500 170/13 RMK AO2 TSNO
94908KDBQ DBQ20020223021011402/23/02 02:10:31  5-MIN KDBQ 230810Z AUTO 17012KT 10SM BKN090 BKN120 01/M05 A3005 960 66 -500 170/12 RMK AO2 TSNO
94908KDBQ DBQ20020223021511402/23/02 02:15:31  5-MIN KDBQ 230815Z AUTO 18013KT 10SM SCT090 BKN120 01/M05 A3005 960 66 -500 170/13 RMK AO2 TSNO
94908KDBQ DBQ20020223022011402/23/02 02:20:31  5-MIN KDBQ 230820Z AUTO 17012KT 10SM FEW090 OVC110 01/M05 A3005 960 66 -500 170/12 RMK AO2 TSNO
94908KDBQ DBQ20020223022511402/23/02 02:25:31  5-MIN KDBQ 230825Z AUTO 17014KT 10SM FEW090 OVC110 00/M05 A3004 960 69 -500 170/14 RMK AO2 TSNO
94908KDBQ DBQ20020223023011402/23/02 02:30:31  5-MIN KDBQ 230830Z AUTO 17014KT 10SM FEW090 BKN110 00/M05 A3004 970 69 -500 170/14 RMK AO2 TSNO
94908KDBQ DBQ20020223023511402/23/02 02:35:31  5-MIN KDBQ 230835Z AUTO 17014KT 10SM FEW085 BKN110 00/M05 A3004 970 69 -500 170/14 RMK AO2 TSNO
94908KDBQ DBQ20020223024010702/23/02 02:40:31  5-MIN KDBQ 230840Z AUTO 17013KT 10SM BKN110 00/M05 A3004 970 69 -500 170/13 RMK AO2 TSNO
94908KDBQ DBQ20020223024510702/23/02 02:45:31  5-MIN KDBQ 230845Z AUTO 17012KT 10SM OVC110 00/M05 A3004 970 69 -500 170/12 RMK AO2 TSNO
94908KDBQ DBQ20020223025013002/23/02 02:50:31  5-MIN KDBQ 230850Z AUTO 18013KT 10SM OVC110 00/M05 A3004 970 69 -500 180/13 RMK AO2 SLP183 T00001050 56010 TSNO
94908KDBQ DBQ20020223025513002/23/02 02:55:31  5-MIN KDBQ 230855Z AUTO 18013KT 10SM OVC110 00/M05 A3004 970 69 -500 180/13 RMK AO2 SLP183 T00001050 58015 TSNO
94908KDBQ DBQ20020223030010702/23/02 03:00:31  5-MIN KDBQ 230900Z AUTO 19011KT 10SM OVC110 00/M05 A3004 970 69 -500 190/11 RMK AO2 TSNO
94908KDBQ DBQ20020223030511402/23/02 03:05:31  5-MIN KDBQ 230905Z AUTO 19012KT 10SM SCT100 OVC120 00/M05 A3003 980 69 -500 190/12 RMK AO2 TSNO
94908KDBQ DBQ20020223031010702/23/02 03:10:31  5-MIN KDBQ 230910Z AUTO 18011KT 10SM OVC110 00/M05 A3003 980 69 -500 180/11 RMK AO2 TSNO
94908KDBQ DBQ20020223031510702/23/02 03:15:31  5-MIN KDBQ 230915Z AUTO 17012KT 10SM OVC110 00/M05 A3003 980 69 -500 170/12 RMK AO2 TSNO
94908KDBQ DBQ20020223032010702/23/02 03:20:31  5-MIN KDBQ 230920Z AUTO 18010KT 10SM OVC110 00/M05 A3003 980 69 -500 180/10 RMK AO2 TSNO
94908KDBQ DBQ20020223032511402/23/02 03:25:31  5-MIN KDBQ 230925Z AUTO 18011KT 10SM SCT090 OVC110 00/M05 A3003 980 69 -500 180/11 RMK AO2 TSNO
94908KDBQ DBQ20020223033011402/23/02 03:30:31  5-MIN KDBQ 230930Z AUTO 18012KT 10SM SCT090 OVC110 00/M05 A3002 980 69 -500 180/12 RMK AO2 TSNO
94908KDBQ DBQ20020223033511402/23/02 03:35:31  5-MIN KDBQ 230935Z AUTO 18012KT 10SM BKN100 OVC120 00/M05 A3002 990 69 -500 180/12 RMK AO2 TSNO
94908KDBQ DBQ20020223034011402/23/02 03:40:31  5-MIN KDBQ 230940Z AUTO 17012KT 10SM BKN100 OVC120 00/M05 A3001 990 69 -500 170/12 RMK AO2 TSNO
94908KDBQ DBQ20020223034511502/23/02 03:45:31  5-MIN KDBQ 230945Z AUTO 17012KT 10SM BKN090 OVC110 00/M05 A3001 1000 69 -500 170/12 RMK AO2 TSNO
94908KDBQ DBQ20020223035012502/23/02 03:50:31  5-MIN KDBQ 230950Z AUTO 17012KT 10SM OVC090 00/M05 A3001 1000 69 -500 170/12 RMK AO2 SLP172 T00001050 TSNO
94908KDBQ DBQ20020223035512502/23/02 03:55:31  5-MIN KDBQ 230955Z AUTO 17014KT 10SM OVC090 01/M05 A3000 1000 66 -400 170/14 RMK AO2 SLP170 T00061050 TSNO
94908KDBQ DBQ20020223040010802/23/02 04:00:31  5-MIN KDBQ 231000Z AUTO 17014KT 10SM OVC085 01/M05 A3000 1000 66 -400 170/14 RMK AO2 TSNO
94908KDBQ DBQ20020223040511502/23/02 04:05:31  5-MIN KDBQ 231005Z AUTO 17013KT 10SM BKN080 OVC095 01/M05 A3000 1010 66 -400 170/13 RMK AO2 TSNO
94908KDBQ DBQ20020223041010802/23/02 04:10:31  5-MIN KDBQ 231010Z AUTO 17013KT 10SM OVC080 01/M05 A3000 1010 66 -400 170/13 RMK AO2 TSNO
94908KDBQ DBQ20020223041510802/23/02 04:15:31  5-MIN KDBQ 231015Z AUTO 17013KT 10SM OVC080 01/M05 A3000 1010 66 -400 170/13 RMK AO2 TSNO
94908KDBQ DBQ20020223042010802/23/02 04:20:31  5-MIN KDBQ 231020Z AUTO 17014KT 10SM OVC075 01/M05 A2999 1010 66 -400 170/14 RMK AO2 TSNO
94908KDBQ DBQ20020223042510802/23/02 04:25:31  5-MIN KDBQ 231025Z AUTO 17014KT 10SM OVC075 01/M05 A3000 1010 66 -400 170/14 RMK AO2 TSNO
94908KDBQ DBQ20020223043010802/23/02 04:30:31  5-MIN KDBQ 231030Z AUTO 17013KT 10SM OVC075 01/M05 A3000 1010 66 -400 170/13 RMK AO2 TSNO
94908KDBQ DBQ20020223043510802/23/02 04:35:31  5-MIN KDBQ 231035Z AUTO 17015KT 10SM OVC075 01/M05 A3000 1010 66 -400 170/15 RMK AO2 TSNO
94908KDBQ DBQ20020223044010802/23/02 04:40:31  5-MIN KDBQ 231040Z AUTO 17015KT 10SM OVC075 01/M05 A3000 1010 66 -400 170/15 RMK AO2 TSNO
94908KDBQ DBQ20020223044510802/23/02 04:45:31  5-MIN KDBQ 231045Z AUTO 17013KT 10SM OVC075 01/M05 A3000 1010 66 -400 170/13 RMK AO2 TSNO
94908KDBQ DBQ20020223045012502/23/02 04:50:31  5-MIN KDBQ 231050Z AUTO 17014KT 10SM OVC075 01/M05 A3000 1010 66 -400 170/14 RMK AO2 SLP168 T00061050 TSNO
94908KDBQ DBQ20020223045512502/23/02 04:55:31  5-MIN KDBQ 231055Z AUTO 18015KT 10SM OVC075 01/M05 A3000 1010 66 -400 180/15 RMK AO2 SLP169 T00061050 TSNO
94908KDBQ DBQ20020223050011502/23/02 05:00:31  5-MIN KDBQ 231100Z AUTO 18015KT 10SM BKN075 OVC090 01/M05 A2999 1010 66 -400 170/15 RMK AO2 TSNO
94908KDBQ DBQ20020223050511502/23/02 05:05:31  5-MIN KDBQ 231105Z AUTO 17014KT 10SM BKN075 OVC090 01/M05 A2999 1010 66 -400 170/14 RMK AO2 TSNO
94908KDBQ DBQ20020223051011502/23/02 05:10:31  5-MIN KDBQ 231110Z AUTO 18015KT 10SM BKN080 OVC090 01/M05 A2999 1010 66 -400 180/15 RMK AO2 TSNO
94908KDBQ DBQ20020223051511502/23/02 05:15:31  5-MIN KDBQ 231115Z AUTO 18014KT 10SM BKN080 OVC090 01/M05 A2999 1010 66 -400 170/14 RMK AO2 TSNO
94908KDBQ DBQ20020223052011502/23/02 05:20:31  5-MIN KDBQ 231120Z AUTO 17013KT 10SM BKN075 OVC090 01/M05 A2999 1020 66 -400 170/13 RMK AO2 TSNO
94908KDBQ DBQ20020223052512202/23/02 05:25:31  5-MIN KDBQ 231125Z AUTO 18013KT 10SM BKN075 BKN090 OVC110 01/M05 A2999 1020 66 -400 180/13 RMK AO2 TSNO
94908KDBQ DBQ20020223053012202/23/02 05:30:31  5-MIN KDBQ 231130Z AUTO 18012KT 10SM SCT080 BKN095 OVC110 01/M05 A2998 1020 66 -400 170/12 RMK AO2 TSNO
94908KDBQ DBQ20020223053511502/23/02 05:35:31  5-MIN KDBQ 231135Z AUTO 18015KT 10SM SCT080 OVC110 01/M05 A2998 1020 66 -400 180/15 RMK AO2 TSNO
94908KDBQ DBQ20020223054012202/23/02 05:40:31  5-MIN KDBQ 231140Z AUTO 18013KT 10SM FEW075 BKN090 OVC110 01/M05 A2998 1020 66 -400 180/13 RMK AO2 TSNO
94908KDBQ DBQ20020223054512202/23/02 05:45:31  5-MIN KDBQ 231145Z AUTO 18013KT 10SM FEW075 BKN090 OVC110 01/M05 A2998 1020 66 -400 180/13 RMK AO2 TSNO
94908KDBQ DBQ20020223055014002/23/02 05:50:31  5-MIN KDBQ 231150Z 18012KT 10SM BKN090 OVC110 01/M05 A2999 1020 66 -400 180/12 RMK AO2 SLP165 T00061050 10006 20000 58015
94908KDBQ DBQ20020223055514002/23/02 05:55:31  5-MIN KDBQ 231155Z 18012KT 10SM BKN090 OVC110 01/M05 A2999 1020 66 -400 180/12 RMK AO2 SLP167 T00061050 10006 20000 56017
94908KDBQ DBQ20020223060009802/23/02 06:00:31  5-MIN KDBQ 231200Z 18012KT 10SM OVC090 01/M04 A2999 1010 69 -400 180/12 RMK AO2
94908KDBQ DBQ20020223060509802/23/02 06:05:31  5-MIN KDBQ 231205Z 18013KT 10SM OVC090 01/M05 A2999 1020 66 -400 180/13 RMK AO2
94908KDBQ DBQ20020223061009802/23/02 06:10:31  5-MIN KDBQ 231210Z 18013KT 10SM OVC090 01/M04 A2998 1020 69 -400 180/13 RMK AO2
94908KDBQ DBQ20020223061509802/23/02 06:15:31  5-MIN KDBQ 231215Z 18013KT 10SM OVC090 01/M05 A2998 1020 66 -400 180/13 RMK AO2
94908KDBQ DBQ20020223062009802/23/02 06:20:31  5-MIN KDBQ 231220Z 17014KT 10SM OVC095 01/M05 A2998 1020 66 -400 170/14 RMK AO2
94908KDBQ DBQ20020223062509802/23/02 06:25:31  5-MIN KDBQ 231225Z 17013KT 10SM OVC090 01/M05 A2998 1020 64 -300 170/13 RMK AO2
94908KDBQ DBQ20020223063009802/23/02 06:30:31  5-MIN KDBQ 231230Z 17013KT 10SM OVC090 01/M05 A2998 1020 64 -300 170/13 RMK AO2
94908KDBQ DBQ20020223063509802/23/02 06:35:31  5-MIN KDBQ 231235Z 17014KT 10SM OVC090 01/M04 A2998 1030 69 -400 170/14 RMK AO2
94908KDBQ DBQ20020223064009802/23/02 06:40:31  5-MIN KDBQ 231240Z 17014KT 10SM OVC090 01/M05 A2997 1030 66 -400 170/14 RMK AO2
94908KDBQ DBQ20020223064509802/23/02 06:45:31  5-MIN KDBQ 231245Z 17016KT 10SM OVC095 01/M05 A2997 1030 64 -300 170/16 RMK AO2
94908KDBQ DBQ20020223065011502/23/02 06:50:31  5-MIN KDBQ 231250Z 17014KT 10SM OVC090 01/M05 A2997 1030 64 -300 170/14 RMK AO2 SLP159 T00111050
94908KDBQ DBQ20020223065512102/23/02 06:55:31  5-MIN KDBQ 231255Z 17012G20KT 10SM OVC095 01/M05 A2998 1020 64 -300 170/12G20 RMK AO2 SLP162 T00111050
94908KDBQ DBQ20020223070010402/23/02 07:00:31  5-MIN KDBQ 231300Z 17013G20KT 10SM OVC090 01/M04 A2998 1030 66 -300 170/13G20 RMK AO2
94908KDBQ DBQ20020223070509802/23/02 07:05:31  5-MIN KDBQ 231305Z 17015KT 10SM OVC090 01/M05 A2997 1030 64 -300 170/15 RMK AO2
94908KDBQ DBQ20020223071009802/23/02 07:10:31  5-MIN KDBQ 231310Z 17014KT 10SM OVC090 01/M04 A2998 1030 66 -300 170/14 RMK AO2
94908KDBQ DBQ20020223071509802/23/02 07:15:31  5-MIN KDBQ 231315Z 17013KT 10SM OVC095 01/M05 A2998 1030 64 -300 170/13 RMK AO2
94908KDBQ DBQ20020223072009802/23/02 07:20:31  5-MIN KDBQ 231320Z 17014KT 10SM OVC095 01/M04 A2997 1030 66 -300 170/14 RMK AO2
94908KDBQ DBQ20020223072509802/23/02 07:25:31  5-MIN KDBQ 231325Z 17014KT 10SM OVC095 01/M05 A2997 1030 64 -300 170/14 RMK AO2
94908KDBQ DBQ20020223073009802/23/02 07:30:31  5-MIN KDBQ 231330Z 17015KT 10SM OVC095 01/M05 A2997 1030 64 -300 170/15 RMK AO2
94908KDBQ DBQ20020223073509802/23/02 07:35:31  5-MIN KDBQ 231335Z 17014KT 10SM OVC090 01/M05 A2998 1030 64 -300 170/14 RMK AO2
94908KDBQ DBQ20020223074009802/23/02 07:40:31  5-MIN KDBQ 231340Z 17014KT 10SM OVC090 01/M05 A2997 1030 64 -300 170/14 RMK AO2
94908KDBQ DBQ20020223074509802/23/02 07:45:31  5-MIN KDBQ 231345Z 17013KT 10SM OVC090 01/M05 A2997 1030 64 -300 170/13 RMK AO2
94908KDBQ DBQ20020223075011502/23/02 07:50:31  5-MIN KDBQ 231350Z 17015KT 10SM OVC090 01/M04 A2997 1030 66 -300 170/15 RMK AO2 SLP160 T00111044
94908KDBQ DBQ20020223075511502/23/02 07:55:31  5-MIN KDBQ 231355Z 17013KT 10SM OVC090 01/M04 A2997 1030 66 -300 170/13 RMK AO2 SLP159 T00111044
94908KDBQ DBQ20020223080009802/23/02 08:00:31  5-MIN KDBQ 231400Z 17013KT 10SM OVC090 01/M04 A2997 1040 66 -300 170/13 RMK AO2
94908KDBQ DBQ20020223080509802/23/02 08:05:31  5-MIN KDBQ 231405Z 17016KT 10SM OVC090 01/M04 A2996 1040 66 -300 170/16 RMK AO2
94908KDBQ DBQ20020223081009802/23/02 08:10:31  5-MIN KDBQ 231410Z 17015KT 10SM BKN095 01/M04 A2996 1040 66 -300 170/15 RMK AO2
94908KDBQ DBQ20020223081509802/23/02 08:15:31  5-MIN KDBQ 231415Z 17015KT 10SM BKN095 02/M04 A2996 1040 64 -200 170/15 RMK AO2
94908KDBQ DBQ20020223082009802/23/02 08:20:31  5-MIN KDBQ 231420Z 17016KT 10SM BKN095 02/M04 A2996 1040 64 -200 170/16 RMK AO2
94908KDBQ DBQ20020223082510502/23/02 08:25:31  5-MIN KDBQ 231425Z 17016KT 10SM SCT095 BKN120 02/M04 A2996 1040 64 -200 170/16 RMK AO2
94908KDBQ DBQ20020223083009802/23/02 08:30:31  5-MIN KDBQ 231430Z 17014KT 10SM SCT110 02/M04 A2996 1040 64 -200 170/14 RMK AO2
94908KDBQ DBQ20020223083509802/23/02 08:35:31  5-MIN KDBQ 231435Z 18014KT 10SM SCT110 02/M04 A2996 1040 64 -200 180/14 RMK AO2
94908KDBQ DBQ20020223084009802/23/02 08:40:31  5-MIN KDBQ 231440Z 18014KT 10SM SCT120 02/M05 A2997 1030 59 -200 180/14 RMK AO2
94908KDBQ DBQ20020223084509802/23/02 08:45:31  5-MIN KDBQ 231445Z 18015KT 10SM BKN120 02/M04 A2997 1030 61 -200 180/15 RMK AO2
94908KDBQ DBQ20020223085012102/23/02 08:50:31  5-MIN KDBQ 231450Z 18014KT 10SM SCT120 02/M04 A2997 1030 61 -200 180/14 RMK AO2 SLP160 T00221044 56017
94908KDBQ DBQ20020223085512102/23/02 08:55:31  5-MIN KDBQ 231455Z 18013KT 10SM SCT120 02/M05 A2997 1040 59 -200 180/13 RMK AO2 SLP158 T00221050 56007
94908KDBQ DBQ20020223090009802/23/02 09:00:31  5-MIN KDBQ 231500Z 18015KT 10SM FEW120 02/M04 A2996 1040 61 -200 180/15 RMK AO2
94908KDBQ DBQ20020223090509802/23/02 09:05:31  5-MIN KDBQ 231505Z 18016KT 10SM FEW120 03/M04 A2995 1050 59 -100 180/16 RMK AO2
94908KDBQ DBQ20020223091009802/23/02 09:10:31  5-MIN KDBQ 231510Z 18017KT 10SM FEW120 03/M04 A2995 1050 59 -100 180/17 RMK AO2
94908KDBQ DBQ20020223091509202/23/02 09:15:31  5-MIN KDBQ 231515Z 18016KT 10SM CLR 03/M04 A2995 1050 57 0 180/16 RMK AO2
94908KDBQ DBQ20020223092009202/23/02 09:20:31  5-MIN KDBQ 231520Z 18015KT 10SM CLR 04/M04 A2995 1050 54 0 180/15 RMK AO2
94908KDBQ DBQ20020223092509702/23/02 09:25:31  5-MIN KDBQ 231525Z 18018KT 10SM FEW100 04/M04 A2995 1060 55 100 180/18 RMK AO2
94908KDBQ DBQ20020223093009502/23/02 09:30:31  5-MIN KDBQ 231530Z 19020KT 10SM SCT100 04/M04 A2994 1060 54 0 180/20 RMK AO2
94908KDBQ DBQ20020223093509502/23/02 09:35:31  5-MIN KDBQ 231535Z 18019KT 10SM BKN100 04/M04 A2993 1070 54 0 180/19 RMK AO2
94908KDBQ DBQ20020223094010102/23/02 09:40:31  5-MIN KDBQ 231540Z 18019G24KT 10SM BKN100 04/M05 A2993 1070 52 0 180/19G24 RMK AO2
94908KDBQ DBQ20020223094510102/23/02 09:45:31  5-MIN KDBQ 231545Z 19019G24KT 10SM BKN100 04/M04 A2993 1070 54 0 190/19G24 RMK AO2
94908KDBQ DBQ20020223095012002/23/02 09:50:31  5-MIN KDBQ 231550Z 19019G23KT 10SM BKN100 04/M04 A2993 1070 55 100 190/19G23 RMK AO2 SLP144 T00441039
94908KDBQ DBQ20020223095512002/23/02 09:55:31  5-MIN KDBQ 231555Z 18019G22KT 10SM SCT100 05/M04 A2993 1070 50 200 180/19G22 RMK AO2 SLP144 T00501044
94908KDBQ DBQ20020223100010302/23/02 10:00:31  5-MIN KDBQ 231600Z 19021G25KT 10SM SCT095 05/M05 A2993 1070 48 200 180/21G25 RMK AO2
94908KDBQ DBQ20020223100510302/23/02 10:05:31  5-MIN KDBQ 231605Z 18015G25KT 10SM FEW100 06/M04 A2993 1070 48 200 180/15G25 RMK AO2
94908KDBQ DBQ20020223101010002/23/02 10:10:31  5-MIN KDBQ 231610Z 18018G25KT 10SM CLR 06/M04 A2992 1080 48 200 180/18G25 RMK AO2
94908KDBQ DBQ20020223101509402/23/02 10:15:31  5-MIN KDBQ 231615Z 18019KT 10SM CLR 06/M04 A2992 1080 48 200 180/19 RMK AO2
94908KDBQ DBQ20020223102010302/23/02 10:20:31  5-MIN KDBQ 231620Z 18019G24KT 10SM FEW120 06/M04 A2992 1080 48 200 180/19G24 RMK AO2
94908KDBQ DBQ20020223102509702/23/02 10:25:31  5-MIN KDBQ 231625Z 18019KT 10SM FEW120 06/M04 A2991 1080 48 300 180/19 RMK AO2
94908KDBQ DBQ20020223103010302/23/02 10:30:31  5-MIN KDBQ 231630Z 18016G25KT 10SM FEW120 07/M04 A2991 1090 47 400 180/16G25 RMK AO2
94908KDBQ DBQ20020223103510302/23/02 10:35:31  5-MIN KDBQ 231635Z 18020G25KT 10SM FEW120 06/M04 A2991 1090 48 300 180/20G25 RMK AO2
94908KDBQ DBQ20020223104009702/23/02 10:40:31  5-MIN KDBQ 231640Z 19020KT 10SM FEW120 07/M04 A2990 1100 47 400 190/20 RMK AO2
94908KDBQ DBQ20020223104512102/23/02 10:45:31  5-MIN KDBQ 231645Z 18024G29KT 10SM FEW120 07/M04 A2990 1100 45 500 180/24G29 RMK AO2 PK WND 19029/1645
94908KDBQ DBQ20020223105013502/23/02 10:50:31  5-MIN KDBQ 231650Z 18023G29KT 10SM CLR 07/M04 A2989 1100 45 400 180/23G29 RMK AO2 PK WND 19029/1645 SLP131 T00671044
94908KDBQ DBQ20020223105513802/23/02 10:55:31  5-MIN KDBQ 231655Z 19024G27KT 10SM FEW110 07/M04 A2989 1110 45 400 190/24G27 RMK AO2 PK WND 19029/1645 SLP130 T00671044
94908KDBQ DBQ20020223110012102/23/02 11:00:31  5-MIN KDBQ 231700Z 19022G27KT 10SM FEW110 07/M04 A2989 1110 45 500 190/22G27 RMK AO2 PK WND 19027/1700
94908KDBQ DBQ20020223110512102/23/02 11:05:31  5-MIN KDBQ 231705Z 19022G27KT 10SM SCT110 07/M04 A2989 1110 45 400 190/22G27 RMK AO2 PK WND 19027/1700
94908KDBQ DBQ20020223111011502/23/02 11:10:31  5-MIN KDBQ 231710Z 19023KT 10SM FEW110 07/M04 A2989 1110 43 500 190/23 RMK AO2 PK WND 19027/1700
94908KDBQ DBQ20020223111511502/23/02 11:15:31  5-MIN KDBQ 231715Z 19021KT 10SM FEW110 08/M03 A2989 1110 45 500 190/21 RMK AO2 PK WND 19027/1700
94908KDBQ DBQ20020223112011502/23/02 11:20:31  5-MIN KDBQ 231720Z 18020KT 10SM FEW110 08/M04 A2989 1110 43 500 180/20 RMK AO2 PK WND 19027/1700
94908KDBQ DBQ20020223112512102/23/02 11:25:31  5-MIN KDBQ 231725Z 19020G25KT 10SM FEW110 08/M04 A2989 1100 43 500 190/20G25 RMK AO2 PK WND 19027/1700
94908KDBQ DBQ20020223113012102/23/02 11:30:31  5-MIN KDBQ 231730Z 19019G25KT 10SM FEW110 07/M04 A2989 1100 45 500 190/19G25 RMK AO2 PK WND 19027/1700
94908KDBQ DBQ20020223113511202/23/02 11:35:31  5-MIN KDBQ 231735Z 19018KT 10SM CLR 08/M03 A2989 1100 45 500 190/18 RMK AO2 PK WND 19027/1700
94908KDBQ DBQ20020223114011802/23/02 11:40:31  5-MIN KDBQ 231740Z 19018G25KT 10SM CLR 08/M03 A2989 1110 45 500 190/18G25 RMK AO2 PK WND 19027/1700
94908KDBQ DBQ20020223114511802/23/02 11:45:31  5-MIN KDBQ 231745Z 18020G25KT 10SM CLR 08/M03 A2988 1110 45 500 180/20G25 RMK AO2 PK WND 19027/1700
94908KDBQ DBQ20020223115015302/23/02 11:50:31  5-MIN KDBQ 231750Z 18018G24KT 10SM CLR 08/M03 A2988 1110 45 600 180/18G24 RMK AO2 PK WND 19027/1700 SLP128 T00781033 10078 20006 56007
94908KDBQ DBQ20020223115515302/23/02 11:55:31  5-MIN KDBQ 231755Z 19019G24KT 10SM CLR 08/M03 A2988 1120 45 600 190/19G24 RMK AO2 PK WND 19027/1700 SLP127 T00781033 10078 20006 56028
94908KDBQ DBQ20020223120010002/23/02 12:00:31  5-MIN KDBQ 231800Z 19020G24KT 10SM CLR 08/M03 A2987 1120 47 600 190/20G24 RMK AO2
94908KDBQ DBQ20020223120509402/23/02 12:05:31  5-MIN KDBQ 231805Z 18016KT 10SM CLR 08/M03 A2987 1120 47 600 180/16 RMK AO2
94908KDBQ DBQ20020223121009402/23/02 12:10:31  5-MIN KDBQ 231810Z 19018KT 10SM CLR 08/M03 A2987 1130 47 600 190/18 RMK AO2
94908KDBQ DBQ20020223121509402/23/02 12:15:31  5-MIN KDBQ 231815Z 18019KT 10SM CLR 08/M03 A2987 1130 47 600 180/19 RMK AO2
94908KDBQ DBQ20020223122011802/23/02 12:20:31  5-MIN KDBQ 231820Z 18019G26KT 10SM CLR 08/M03 A2987 1130 45 600 180/19G26 RMK AO2 PK WND 18026/1820
94908KDBQ DBQ20020223122512102/23/02 12:25:31  5-MIN KDBQ 231825Z 18019G26KT 10SM FEW100 08/M03 A2986 1130 47 600 180/19G26 RMK AO2 PK WND 18026/1820
94908KDBQ DBQ20020223123011502/23/02 12:30:31  5-MIN KDBQ 231830Z 18017KT 10SM SCT100 08/M02 A2986 1140 49 600 180/17 RMK AO2 PK WND 18026/1820
94908KDBQ DBQ20020223123511502/23/02 12:35:31  5-MIN KDBQ 231835Z 18020KT 10SM SCT100 08/M03 A2985 1140 47 600 180/20 RMK AO2 PK WND 18026/1820
94908KDBQ DBQ20020223124012102/23/02 12:40:31  5-MIN KDBQ 231840Z 17017G22KT 10SM SCT100 08/M02 A2985 1140 49 600 170/17G22 RMK AO2 PK WND 18026/1820
94908KDBQ DBQ20020223124512102/23/02 12:45:31  5-MIN KDBQ 231845Z 18018G22KT 10SM SCT100 08/M02 A2985 1140 49 600 180/18G22 RMK AO2 PK WND 18026/1820
94908KDBQ DBQ20020223125013202/23/02 12:50:31  5-MIN KDBQ 231850Z 18018KT 10SM SCT100 08/M02 A2985 1140 51 600 180/18 RMK AO2 PK WND 18026/1820 SLP117 T00781017
94908KDBQ DBQ20020223125513202/23/02 12:55:31  5-MIN KDBQ 231855Z 18016KT 10SM FEW100 08/M02 A2985 1140 51 600 170/16 RMK AO2 PK WND 18026/1820 SLP117 T00781017
94908KDBQ DBQ20020223130009702/23/02 13:00:31  5-MIN KDBQ 231900Z 19019KT 10SM FEW110 08/M02 A2985 1140 49 700 190/19 RMK AO2
94908KDBQ DBQ20020223130510302/23/02 13:05:31  5-MIN KDBQ 231905Z 18018G22KT 10SM FEW110 08/M02 A2985 1140 49 700 180/18G22 RMK AO2
94908KDBQ DBQ20020223131010302/23/02 13:10:31  5-MIN KDBQ 231910Z 19018G22KT 10SM FEW110 09/M01 A2984 1150 49 700 190/18G22 RMK AO2
94908KDBQ DBQ20020223131510302/23/02 13:15:31  5-MIN KDBQ 231915Z 19021G24KT 10SM FEW110 09/M01 A2984 1160 49 700 190/21G24 RMK AO2
94908KDBQ DBQ20020223132009702/23/02 13:20:31  5-MIN KDBQ 231920Z 18020KT 10SM FEW100 09/M02 A2983 1160 47 700 180/20 RMK AO2
94908KDBQ DBQ20020223132509702/23/02 13:25:31  5-MIN KDBQ 231925Z 19019KT 10SM FEW110 09/M01 A2983 1160 47 800 190/19 RMK AO2
94908KDBQ DBQ20020223133009702/23/02 13:30:31  5-MIN KDBQ 231930Z 19019KT 10SM FEW110 10/M01 A2983 1160 47 900 190/19 RMK AO2
94908KDBQ DBQ20020223133511802/23/02 13:35:31  5-MIN KDBQ 231935Z 20021G26KT 10SM CLR 09/M01 A2982 1170 47 800 200/21G26 RMK AO2 PK WND 19026/1933
94908KDBQ DBQ20020223134012102/23/02 13:40:31  5-MIN KDBQ 231940Z 19022G28KT 10SM FEW120 10/M01 A2983 1170 46 900 190/22G28 RMK AO2 PK WND 19028/1940
94908KDBQ DBQ20020223134512202/23/02 13:45:31  5-MIN KDBQ 231945Z 19023G28KT 10SM FEW120 11/M02 A2982 1170 42 1000 190/23G28 RMK AO2 PK WND 19029/1941
94908KDBQ DBQ20020223135013302/23/02 13:50:31  5-MIN KDBQ 231950Z 19021KT 10SM FEW110 11/M01 A2982 1170 44 1000 190/21 RMK AO2 PK WND 19029/1941 SLP104 T01061011
94908KDBQ DBQ20020223135513302/23/02 13:55:31  5-MIN KDBQ 231955Z 18020KT 10SM SCT100 11/M01 A2982 1170 44 1000 180/20 RMK AO2 PK WND 19029/1941 SLP105 T01061011
94908KDBQ DBQ20020223140009802/23/02 14:00:31  5-MIN KDBQ 232000Z 19019KT 10SM SCT100 11/M01 A2982 1170 46 1000 190/19 RMK AO2
94908KDBQ DBQ20020223140512202/23/02 14:05:31  5-MIN KDBQ 232005Z 19023G27KT 10SM SCT100 11/M01 A2981 1180 44 1000 190/23G27 RMK AO2 PK WND 19027/2004
94908KDBQ DBQ20020223141011602/23/02 14:10:31  5-MIN KDBQ 232010Z 19025KT 10SM FEW100 11/M01 A2981 1180 44 1000 190/25 RMK AO2 PK WND 19027/2010
94908KDBQ DBQ20020223141511602/23/02 14:15:31  5-MIN KDBQ 232015Z 19020KT 10SM FEW100 11/M01 A2981 1180 46 1000 190/20 RMK AO2 PK WND 19027/2010
94908KDBQ DBQ20020223142011602/23/02 14:20:31  5-MIN KDBQ 232020Z 19020KT 10SM FEW095 11/M01 A2982 1170 44 1000 190/20 RMK AO2 PK WND 19027/2010
94908KDBQ DBQ20020223142512202/23/02 14:25:31  5-MIN KDBQ 232025Z 19022G25KT 10SM FEW110 11/M01 A2982 1170 44 1000 190/22G25 RMK AO2 PK WND 19027/2010
94908KDBQ DBQ20020223143012202/23/02 14:30:31  5-MIN KDBQ 232030Z 19020G24KT 10SM SCT120 11/M01 A2982 1180 44 1000 190/20G24 RMK AO2 PK WND 19027/2010
94908KDBQ DBQ20020223143512202/23/02 14:35:31  5-MIN KDBQ 232035Z 20021G25KT 10SM BKN120 11/M01 A2981 1180 44 1000 200/21G25 RMK AO2 PK WND 19027/2010
94908KDBQ DBQ20020223144012102/23/02 14:40:31  5-MIN KDBQ 232040Z 19021G25KT 10SM SCT120 11/00 A2981 1180 46 1000 190/21G25 RMK AO2 PK WND 19027/2010
94908KDBQ DBQ20020223144512202/23/02 14:45:31  5-MIN KDBQ 232045Z 19019G24KT 10SM SCT120 11/M01 A2981 1180 44 1000 190/19G24 RMK AO2 PK WND 19027/2010
94908KDBQ DBQ20020223145014302/23/02 14:50:31  5-MIN KDBQ 232050Z AUTO 19020KT 10SM SCT120 11/00 A2981 1180 46 1000 190/20 RMK AO2 PK WND 19027/2010 SLP099 T01110000 56028
94908KDBQ DBQ20020223145514302/23/02 14:55:31  5-MIN KDBQ 232055Z 19020KT 10SM FEW120 12/00 A2981 1180 44 1100 190/20 RMK AO2 PK WND 19027/2010 SLP100 T01170000 56024 TSNO
94908KDBQ DBQ20020223150009702/23/02 15:00:31  5-MIN KDBQ 232100Z 19019KT 10SM FEW110 11/00 A2981 1180 46 1000 190/19 RMK AO2
94908KDBQ DBQ20020223150509402/23/02 15:05:31  5-MIN KDBQ 232105Z 20018KT 10SM CLR 11/00 A2981 1180 46 1000 200/18 RMK AO2
94908KDBQ DBQ20020223151010102/23/02 15:10:31  5-MIN KDBQ 232110Z 20020G25KT 10SM CLR 11/M01 A2981 1180 44 1000 200/20G25 RMK AO2
94908KDBQ DBQ20020223151510102/23/02 15:15:31  5-MIN KDBQ 232115Z 20019G25KT 10SM CLR 11/M01 A2981 1180 46 1000 200/19G25 RMK AO2
94908KDBQ DBQ20020223152010102/23/02 15:20:31  5-MIN KDBQ 232120Z 20016G24KT 10SM CLR 11/M01 A2981 1180 44 1000 200/16G24 RMK AO2
94908KDBQ DBQ20020223152509402/23/02 15:25:31  5-MIN KDBQ 232125Z 20015KT 10SM CLR 11/00 A2981 1180 46 1000 190/15 RMK AO2
94908KDBQ DBQ20020223153010402/23/02 15:30:31  5-MIN KDBQ 232130Z 19019G24KT 10SM FEW110 11/M01 A2980 1190 44 1000 190/19G24 RMK AO2
94908KDBQ DBQ20020223153509802/23/02 15:35:31  5-MIN KDBQ 232135Z 19019KT 10SM FEW110 11/M01 A2981 1180 44 1000 190/19 RMK AO2
94908KDBQ DBQ20020223154009502/23/02 15:40:31  5-MIN KDBQ 232140Z 19019KT 10SM CLR 11/M01 A2981 1180 44 1000 190/19 RMK AO2
94908KDBQ DBQ20020223154509802/23/02 15:45:31  5-MIN KDBQ 232145Z 19016KT 10SM FEW110 11/M01 A2981 1180 44 1000 190/16 RMK AO2
94908KDBQ DBQ20020223155011402/23/02 15:50:31  5-MIN KDBQ 232150Z 19017KT 10SM FEW110 11/00 A2981 1180 46 1000 190/17 RMK AO2 SLP102 T01110000
94908KDBQ DBQ20020223155511502/23/02 15:55:31  5-MIN KDBQ 232155Z 19018KT 10SM FEW110 11/M01 A2981 1180 44 1000 190/18 RMK AO2 SLP100 T01111006
94908KDBQ DBQ20020223160009802/23/02 16:00:31  5-MIN KDBQ 232200Z 19019KT 10SM FEW110 11/M01 A2981 1180 44 1000 190/19 RMK AO2
94908KDBQ DBQ20020223160509802/23/02 16:05:31  5-MIN KDBQ 232205Z 19019KT 10SM FEW110 11/M01 A2980 1190 46 1000 190/19 RMK AO2
94908KDBQ DBQ20020223161009802/23/02 16:10:31  5-MIN KDBQ 232210Z 18015KT 10SM FEW110 11/M01 A2980 1190 46 1000 180/15 RMK AO2
94908KDBQ DBQ20020223161509702/23/02 16:15:31  5-MIN KDBQ 232215Z 19017KT 10SM FEW110 11/00 A2980 1190 48 1000 180/17 RMK AO2
94908KDBQ DBQ20020223162009702/23/02 16:20:31  5-MIN KDBQ 232220Z 18015KT 10SM FEW120 11/00 A2980 1190 48 1000 180/15 RMK AO2
94908KDBQ DBQ20020223162510302/23/02 16:25:31  5-MIN KDBQ 232225Z 18018G21KT 10SM FEW120 11/00 A2980 1190 48 1000 180/18G21 RMK AO2
94908KDBQ DBQ20020223163010302/23/02 16:30:31  5-MIN KDBQ 232230Z 18015G21KT 10SM FEW120 11/00 A2980 1190 48 1000 180/15G21 RMK AO2
94908KDBQ DBQ20020223163509702/23/02 16:35:31  5-MIN KDBQ 232235Z 18015KT 10SM FEW120 11/00 A2980 1190 48 1000 180/15 RMK AO2
94908KDBQ DBQ20020223164009702/23/02 16:40:31  5-MIN KDBQ 232240Z 18016KT 10SM FEW120 11/01 A2979 1200 50 1000 180/16 RMK AO2
94908KDBQ DBQ20020223164509702/23/02 16:45:31  5-MIN KDBQ 232245Z 18017KT 10SM FEW120 11/01 A2979 1200 48 1100 180/17 RMK AO2
94908KDBQ DBQ20020223165011402/23/02 16:50:31  5-MIN KDBQ 232250Z 18016KT 10SM FEW120 11/01 A2979 1200 48 1100 180/16 RMK AO2 SLP095 T01110006
94908KDBQ DBQ20020223165511402/23/02 16:55:31  5-MIN KDBQ 232255Z 18016KT 10SM SCT120 11/01 A2979 1200 48 1100 180/16 RMK AO2 SLP096 T01110006
94908KDBQ DBQ20020223170009702/23/02 17:00:31  5-MIN KDBQ 232300Z 18017KT 10SM BKN120 11/01 A2979 1200 48 1100 180/17 RMK AO2
94908KDBQ DBQ20020223170509702/23/02 17:05:31  5-MIN KDBQ 232305Z 19017KT 10SM BKN120 11/01 A2980 1190 50 1000 180/17 RMK AO2
94908KDBQ DBQ20020223171009702/23/02 17:10:31  5-MIN KDBQ 232310Z 18014KT 10SM BKN120 11/01 A2980 1190 50 1000 180/14 RMK AO2
94908KDBQ DBQ20020223171509602/23/02 17:15:31  5-MIN KDBQ 232315Z 18016KT 10SM BKN120 10/01 A2980 1190 52 900 180/16 RMK AO2
94908KDBQ DBQ20020223172009602/23/02 17:20:31  5-MIN KDBQ 232320Z 18017KT 10SM BKN120 10/01 A2980 1190 52 900 180/17 RMK AO2
94908KDBQ DBQ20020223172509602/23/02 17:25:31  5-MIN KDBQ 232325Z 18015KT 10SM BKN120 10/01 A2980 1190 52 900 180/15 RMK AO2
94908KDBQ DBQ20020223173009602/23/02 17:30:31  5-MIN KDBQ 232330Z 18016KT 10SM BKN120 10/01 A2980 1190 52 900 180/16 RMK AO2
94908KDBQ DBQ20020223173509602/23/02 17:35:31  5-MIN KDBQ 232335Z 18016KT 10SM BKN120 10/01 A2980 1190 52 900 180/16 RMK AO2
94908KDBQ DBQ20020223174009602/23/02 17:40:31  5-MIN KDBQ 232340Z 18016KT 10SM BKN110 10/01 A2980 1190 52 900 180/16 RMK AO2
94908KDBQ DBQ20020223174509602/23/02 17:45:31  5-MIN KDBQ 232345Z 18016KT 10SM SCT110 10/01 A2981 1190 52 900 180/16 RMK AO2
94908KDBQ DBQ20020223175013702/23/02 17:50:31  5-MIN KDBQ 232350Z 18013G21KT 10SM SCT110 09/01 A2981 1180 53 800 170/13G21 RMK AO2 SLP101 T00940006 10117 20078 56024
94908KDBQ DBQ20020223175513102/23/02 17:55:31  5-MIN KDBQ 232355Z 17014KT 10SM SCT110 09/01 A2981 1180 53 800 170/14 RMK AO2 SLP101 T00940006 10117 20078 55000
94908KDBQ DBQ20020223180009602/23/02 18:00:31  5-MIN KDBQ 240000Z 17015KT 10SM FEW110 09/01 A2981 1180 53 800 170/15 RMK AO2
94908KDBQ DBQ20020223180509302/23/02 18:05:31  5-MIN KDBQ 240005Z 17014KT 10SM CLR 09/01 A2981 1180 53 800 170/14 RMK AO2
94908KDBQ DBQ20020223181009302/23/02 18:10:31  5-MIN KDBQ 240010Z 17013KT 10SM CLR 09/01 A2982 1180 56 800 170/13 RMK AO2
94908KDBQ DBQ20020223181509302/23/02 18:15:31  5-MIN KDBQ 240015Z 18012KT 10SM CLR 09/01 A2982 1170 56 800 180/12 RMK AO2
94908KDBQ DBQ20020223182010002/23/02 18:20:31  5-MIN KDBQ 240020Z 18011KT 10SM CLR 08/01 A2983 1160 58 700 180/11 RMK AO2 PRESRR
94908KDBQ DBQ20020223182510002/23/02 18:25:31  5-MIN KDBQ 240025Z 18009KT 10SM CLR 08/01 A2984 1150 58 700 180/09 RMK AO2 PRESRR
94908KDBQ DBQ20020223183010002/23/02 18:30:31  5-MIN KDBQ 240030Z 19008KT 10SM CLR 07/01 A2985 1150 62 500 190/08 RMK AO2 PRESRR
94908KDBQ DBQ20020223183509302/23/02 18:35:31  5-MIN KDBQ 240035Z 19007KT 10SM CLR 07/01 A2985 1140 65 500 190/07 RMK AO2
94908KDBQ DBQ20020223184009302/23/02 18:40:31  5-MIN KDBQ 240040Z 19007KT 10SM CLR 07/01 A2985 1140 65 500 190/07 RMK AO2
94908KDBQ DBQ20020223184509302/23/02 18:45:31  5-MIN KDBQ 240045Z 19007KT 10SM CLR 07/01 A2985 1140 65 500 190/07 RMK AO2
94908KDBQ DBQ20020223185011002/23/02 18:50:31  5-MIN KDBQ 240050Z 19008KT 10SM CLR 06/01 A2985 1140 67 400 190/08 RMK AO2 SLP117 T00610006
94908KDBQ DBQ20020223185511002/23/02 18:55:31  5-MIN KDBQ 240055Z 19008KT 10SM CLR 06/00 A2985 1140 65 400 190/08 RMK AO2 SLP117 T00610000
94908KDBQ DBQ20020223190009302/23/02 19:00:31  5-MIN KDBQ 240100Z 19008KT 10SM CLR 06/01 A2985 1140 67 400 190/08 RMK AO2
94908KDBQ DBQ20020223190509302/23/02 19:05:31  5-MIN KDBQ 240105Z 19008KT 10SM CLR 07/00 A2985 1140 62 500 190/08 RMK AO2
94908KDBQ DBQ20020223191009302/23/02 19:10:31  5-MIN KDBQ 240110Z 19008KT 10SM CLR 06/00 A2985 1140 65 400 190/08 RMK AO2
94908KDBQ DBQ20020223191509302/23/02 19:15:31  5-MIN KDBQ 240115Z 18007KT 10SM CLR 06/00 A2985 1140 67 300 180/07 RMK AO2
94908KDBQ DBQ20020223192009302/23/02 19:20:31  5-MIN KDBQ 240120Z 19008KT 10SM CLR 05/00 A2985 1140 70 200 180/08 RMK AO2
94908KDBQ DBQ20020223192509302/23/02 19:25:31  5-MIN KDBQ 240125Z 18008KT 10SM CLR 05/00 A2985 1140 70 200 180/08 RMK AO2
94908KDBQ DBQ20020223193009302/23/02 19:30:31  5-MIN KDBQ 240130Z 18008KT 10SM CLR 05/00 A2985 1140 70 200 180/08 RMK AO2
94908KDBQ DBQ20020223193509602/23/02 19:35:31  5-MIN KDBQ 240135Z 19008KT 10SM FEW110 05/00 A2985 1140 70 200 190/08 RMK AO2
94908KDBQ DBQ20020223194009602/23/02 19:40:31  5-MIN KDBQ 240140Z 19009KT 10SM FEW110 06/00 A2985 1140 67 300 190/09 RMK AO2
94908KDBQ DBQ20020223194509302/23/02 19:45:31  5-MIN KDBQ 240145Z 19009KT 10SM CLR 06/00 A2985 1140 67 300 190/09 RMK AO2
94908KDBQ DBQ20020223195012302/23/02 19:50:31  5-MIN KDBQ 240150Z AUTO 19008KT 10SM FEW110 06/00 A2986 1140 67 300 190/08 RMK AO2 SLP119 T00560000 TSNO
94908KDBQ DBQ20020223195512302/23/02 19:55:31  5-MIN KDBQ 240155Z AUTO 19008KT 10SM FEW110 06/00 A2986 1140 67 300 190/08 RMK AO2 SLP119 T00560000 TSNO
94908KDBQ DBQ20020223200010302/23/02 20:00:31  5-MIN KDBQ 240200Z AUTO 19008KT 10SM CLR 06/00 A2986 1130 67 300 190/08 RMK AO2 TSNO
94908KDBQ DBQ20020223200510302/23/02 20:05:31  5-MIN KDBQ 240205Z AUTO 19008KT 10SM CLR 05/00 A2986 1130 70 200 190/08 RMK AO2 TSNO
94908KDBQ DBQ20020223201010302/23/02 20:10:31  5-MIN KDBQ 240210Z AUTO 19007KT 10SM CLR 05/00 A2986 1130 70 200 190/07 RMK AO2 TSNO
94908KDBQ DBQ20020223201510302/23/02 20:15:31  5-MIN KDBQ 240215Z AUTO 20007KT 10SM CLR 05/00 A2986 1130 70 200 200/07 RMK AO2 TSNO
94908KDBQ DBQ20020223202010302/23/02 20:20:31  5-MIN KDBQ 240220Z AUTO 20007KT 10SM CLR 05/00 A2986 1130 70 200 200/07 RMK AO2 TSNO
94908KDBQ DBQ20020223202510302/23/02 20:25:31  5-MIN KDBQ 240225Z AUTO 20007KT 10SM CLR 05/00 A2986 1130 70 200 200/07 RMK AO2 TSNO
94908KDBQ DBQ20020223203010302/23/02 20:30:31  5-MIN KDBQ 240230Z AUTO 20007KT 10SM CLR 06/00 A2986 1130 67 300 200/07 RMK AO2 TSNO
94908KDBQ DBQ20020223203510302/23/02 20:35:31  5-MIN KDBQ 240235Z AUTO 20007KT 10SM CLR 06/00 A2987 1130 67 300 200/07 RMK AO2 TSNO
94908KDBQ DBQ20020223204010302/23/02 20:40:31  5-MIN KDBQ 240240Z AUTO 19006KT 10SM CLR 06/00 A2987 1120 67 300 190/06 RMK AO2 TSNO
94908KDBQ DBQ20020223204510302/23/02 20:45:31  5-MIN KDBQ 240245Z AUTO 18007KT 10SM CLR 06/00 A2987 1120 67 300 180/07 RMK AO2 TSNO
94908KDBQ DBQ20020223205012602/23/02 20:50:31  5-MIN KDBQ 240250Z AUTO 18008KT 10SM CLR 05/00 A2987 1130 70 200 180/08 RMK AO2 SLP123 T00500000 55000 TSNO
94908KDBQ DBQ20020223205512602/23/02 20:55:31  5-MIN KDBQ 240255Z AUTO 18009KT 10SM CLR 05/00 A2987 1120 70 200 180/09 RMK AO2 SLP124 T00500000 51021 TSNO
94908KDBQ DBQ20020223210010302/23/02 21:00:31  5-MIN KDBQ 240300Z AUTO 18009KT 10SM CLR 04/00 A2987 1120 73 200 180/09 RMK AO2 TSNO
94908KDBQ DBQ20020223210510302/23/02 21:05:31  5-MIN KDBQ 240305Z AUTO 18009KT 10SM CLR 04/00 A2987 1120 73 200 180/09 RMK AO2 TSNO
94908KDBQ DBQ20020223211010302/23/02 21:10:31  5-MIN KDBQ 240310Z AUTO 18009KT 10SM CLR 04/00 A2987 1120 73 200 180/09 RMK AO2 TSNO
94908KDBQ DBQ20020223211510302/23/02 21:15:31  5-MIN KDBQ 240315Z AUTO 19008KT 10SM CLR 04/00 A2987 1120 73 200 190/08 RMK AO2 TSNO
94908KDBQ DBQ20020223212010302/23/02 21:20:31  5-MIN KDBQ 240320Z AUTO 20009KT 10SM CLR 05/00 A2987 1120 70 200 200/09 RMK AO2 TSNO
94908KDBQ DBQ20020223212510302/23/02 21:25:31  5-MIN KDBQ 240325Z AUTO 20010KT 10SM CLR 05/00 A2987 1120 70 200 200/10 RMK AO2 TSNO
94908KDBQ DBQ20020223213010302/23/02 21:30:31  5-MIN KDBQ 240330Z AUTO 19011KT 10SM CLR 06/00 A2987 1120 67 300 190/11 RMK AO2 TSNO
94908KDBQ DBQ20020223213510302/23/02 21:35:31  5-MIN KDBQ 240335Z AUTO 19011KT 10SM CLR 06/00 A2987 1120 67 300 190/11 RMK AO2 TSNO
94908KDBQ DBQ20020223214010302/23/02 21:40:31  5-MIN KDBQ 240340Z AUTO 19011KT 10SM CLR 05/00 A2987 1120 70 200 190/11 RMK AO2 TSNO
94908KDBQ DBQ20020223214510302/23/02 21:45:31  5-MIN KDBQ 240345Z AUTO 19010KT 10SM CLR 05/00 A2987 1120 70 200 190/10 RMK AO2 TSNO
94908KDBQ DBQ20020223215012002/23/02 21:50:31  5-MIN KDBQ 240350Z AUTO 19010KT 10SM CLR 04/00 A2987 1120 73 200 190/10 RMK AO2 SLP124 T00440000 TSNO
94908KDBQ DBQ20020223215512002/23/02 21:55:31  5-MIN KDBQ 240355Z AUTO 19010KT 10SM CLR 04/00 A2987 1120 73 200 180/10 RMK AO2 SLP123 T00440000 TSNO
94908KDBQ DBQ20020223220010302/23/02 22:00:31  5-MIN KDBQ 240400Z AUTO 19009KT 10SM CLR 04/00 A2987 1120 73 200 190/09 RMK AO2 TSNO
94908KDBQ DBQ20020223220510302/23/02 22:05:31  5-MIN KDBQ 240405Z AUTO 18008KT 10SM CLR 04/00 A2987 1120 73 200 180/08 RMK AO2 TSNO
94908KDBQ DBQ20020223221010302/23/02 22:10:31  5-MIN KDBQ 240410Z AUTO 18009KT 10SM CLR 04/00 A2987 1130 73 200 180/09 RMK AO2 TSNO
94908KDBQ DBQ20020223221510302/23/02 22:15:31  5-MIN KDBQ 240415Z AUTO 17008KT 10SM CLR 04/00 A2987 1130 73 200 170/08 RMK AO2 TSNO
94908KDBQ DBQ20020223222010302/23/02 22:20:31  5-MIN KDBQ 240420Z AUTO 18008KT 10SM CLR 04/00 A2987 1130 73 200 180/08 RMK AO2 TSNO
94908KDBQ DBQ20020223222510302/23/02 22:25:31  5-MIN KDBQ 240425Z AUTO 17008KT 10SM CLR 04/00 A2987 1120 73 200 170/08 RMK AO2 TSNO
94908KDBQ DBQ20020223223010302/23/02 22:30:31  5-MIN KDBQ 240430Z AUTO 18009KT 10SM CLR 04/00 A2987 1120 76 100 180/09 RMK AO2 TSNO
94908KDBQ DBQ20020223223510302/23/02 22:35:31  5-MIN KDBQ 240435Z AUTO 17009KT 10SM CLR 04/00 A2987 1120 73 200 170/09 RMK AO2 TSNO
94908KDBQ DBQ20020223224010402/23/02 22:40:31  5-MIN KDBQ 240440Z AUTO 17009KT 10SM CLR 04/M01 A2987 1120 70 200 170/09 RMK AO2 TSNO
94908KDBQ DBQ20020223224510402/23/02 22:45:31  5-MIN KDBQ 240445Z AUTO 17009KT 10SM CLR 04/M01 A2987 1120 70 200 170/09 RMK AO2 TSNO
94908KDBQ DBQ20020223225012102/23/02 22:50:31  5-MIN KDBQ 240450Z AUTO 17009KT 10SM CLR 04/M01 A2988 1120 73 100 170/09 RMK AO2 SLP123 T00391006 TSNO
94908KDBQ DBQ20020223225512102/23/02 22:55:31  5-MIN KDBQ 240455Z AUTO 17008KT 10SM CLR 04/M01 A2988 1120 73 100 170/08 RMK AO2 SLP124 T00391006 TSNO
94908KDBQ DBQ20020223230010402/23/02 23:00:31  5-MIN KDBQ 240500Z AUTO 18007KT 10SM CLR 04/M01 A2987 1120 73 100 170/07 RMK AO2 TSNO
94908KDBQ DBQ20020223230510202/23/02 23:05:31  5-MIN KDBQ 240505Z AUTO 18006KT 10SM CLR 03/M01 A2987 1120 76 0 180/06 RMK AO2 TSNO
94908KDBQ DBQ20020223231010202/23/02 23:10:31  5-MIN KDBQ 240510Z AUTO 18007KT 10SM CLR 03/M01 A2988 1120 76 0 180/07 RMK AO2 TSNO
94908KDBQ DBQ20020223231510202/23/02 23:15:31  5-MIN KDBQ 240515Z AUTO 18006KT 10SM CLR 03/M01 A2987 1120 76 0 180/06 RMK AO2 TSNO
94908KDBQ DBQ20020223232010202/23/02 23:20:31  5-MIN KDBQ 240520Z AUTO 17007KT 10SM CLR 03/M01 A2987 1130 79 0 170/07 RMK AO2 TSNO
94908KDBQ DBQ20020223232510202/23/02 23:25:31  5-MIN KDBQ 240525Z AUTO 17008KT 10SM CLR 03/M01 A2987 1130 76 0 170/08 RMK AO2 TSNO
94908KDBQ DBQ20020223233010202/23/02 23:30:31  5-MIN KDBQ 240530Z AUTO 17008KT 10SM CLR 03/M01 A2986 1130 76 0 170/08 RMK AO2 TSNO
94908KDBQ DBQ20020223233510202/23/02 23:35:31  5-MIN KDBQ 240535Z AUTO 18008KT 10SM CLR 03/M01 A2987 1130 76 0 170/08 RMK AO2 TSNO
94908KDBQ DBQ20020223234010202/23/02 23:40:31  5-MIN KDBQ 240540Z AUTO 17008KT 10SM CLR 03/M01 A2987 1130 76 0 170/08 RMK AO2 TSNO
94908KDBQ DBQ20020223234510402/23/02 23:45:31  5-MIN KDBQ 240545Z AUTO 18009KT 10SM CLR 04/M01 A2986 1130 73 100 180/09 RMK AO2 TSNO
94908KDBQ DBQ20020223235014902/23/02 23:50:31  5-MIN KDBQ 240550Z AUTO 17009KT 10SM CLR 04/M01 A2986 1130 73 100 170/09 RMK AO2 SLP118 T00391006 10094 20028 401170000 51021 TSNO
94908KDBQ DBQ20020223235514902/23/02 23:55:31  5-MIN KDBQ 240555Z AUTO 18009KT 10SM CLR 04/M01 A2986 1130 73 100 170/09 RMK AO2 SLP119 T00391006 10094 20028 401170000 58003 TSNO
94908KDBQ DBQ20020224000010202/24/02 00:00:31  5-MIN KDBQ 240600Z AUTO 18007KT 10SM CLR 03/M01 A2986 1130 72 0 180/07 RMK AO2 TSNO
94908KDBQ DBQ20020224000510202/24/02 00:05:31  5-MIN KDBQ 240605Z AUTO 18007KT 10SM CLR 03/M01 A2986 1130 72 0 180/07 RMK AO2 TSNO
94908KDBQ DBQ20020224001010202/24/02 00:10:31  5-MIN KDBQ 240610Z AUTO 18008KT 10SM CLR 03/M01 A2986 1130 72 0 180/08 RMK AO2 TSNO
94908KDBQ DBQ20020224001510202/24/02 00:15:31  5-MIN KDBQ 240615Z AUTO 18007KT 10SM CLR 03/M01 A2986 1140 72 0 180/07 RMK AO2 TSNO
94908KDBQ DBQ20020224002010202/24/02 00:20:31  5-MIN KDBQ 240620Z AUTO 18008KT 10SM CLR 03/M01 A2986 1140 72 0 170/08 RMK AO2 TSNO
94908KDBQ DBQ20020224002510202/24/02 00:25:31  5-MIN KDBQ 240625Z AUTO 18008KT 10SM CLR 03/M01 A2986 1130 72 0 180/08 RMK AO2 TSNO
94908KDBQ DBQ20020224003010202/24/02 00:30:31  5-MIN KDBQ 240630Z AUTO 18007KT 10SM CLR 03/M01 A2986 1130 76 0 180/07 RMK AO2 TSNO
94908KDBQ DBQ20020224003510202/24/02 00:35:31  5-MIN KDBQ 240635Z AUTO 18008KT 10SM CLR 03/M01 A2986 1140 72 0 180/08 RMK AO2 TSNO
94908KDBQ DBQ20020224004010202/24/02 00:40:31  5-MIN KDBQ 240640Z AUTO 17009KT 10SM CLR 03/M01 A2985 1140 72 0 170/09 RMK AO2 TSNO
94908KDBQ DBQ20020224004510402/24/02 00:45:31  5-MIN KDBQ 240645Z AUTO 18010KT 10SM CLR 04/M01 A2985 1140 70 100 170/10 RMK AO2 TSNO
94908KDBQ DBQ20020224005012102/24/02 00:50:31  5-MIN KDBQ 240650Z AUTO 18008KT 10SM CLR 04/M01 A2986 1140 70 100 180/08 RMK AO2 SLP116 T00391011 TSNO
94908KDBQ DBQ20020224005511902/24/02 00:55:31  5-MIN KDBQ 240655Z AUTO 18008KT 10SM CLR 03/M01 A2985 1140 72 0 180/08 RMK AO2 SLP116 T00331011 TSNO
94908KDBQ DBQ20020224010010402/24/02 01:00:31  5-MIN KDBQ 240700Z AUTO 18009KT 10SM CLR 04/M01 A2985 1140 70 100 170/09 RMK AO2 TSNO
94908KDBQ DBQ20020224010510402/24/02 01:05:31  5-MIN KDBQ 240705Z AUTO 18009KT 10SM CLR 04/M01 A2985 1140 70 100 180/09 RMK AO2 TSNO
94908KDBQ DBQ20020224011010402/24/02 01:10:31  5-MIN KDBQ 240710Z AUTO 17010KT 10SM CLR 04/M01 A2985 1140 70 100 170/10 RMK AO2 TSNO
94908KDBQ DBQ20020224011510402/24/02 01:15:31  5-MIN KDBQ 240715Z AUTO 17011KT 10SM CLR 04/M01 A2985 1140 70 100 170/11 RMK AO2 TSNO
94908KDBQ DBQ20020224012010402/24/02 01:20:31  5-MIN KDBQ 240720Z AUTO 17012KT 10SM CLR 04/M01 A2985 1140 70 100 170/12 RMK AO2 TSNO
94908KDBQ DBQ20020224012510402/24/02 01:25:31  5-MIN KDBQ 240725Z AUTO 17011KT 10SM CLR 04/M01 A2985 1150 70 100 170/11 RMK AO2 TSNO
94908KDBQ DBQ20020224013010202/24/02 01:30:31  5-MIN KDBQ 240730Z AUTO 18011KT 10SM CLR 03/M01 A2985 1150 72 0 170/11 RMK AO2 TSNO
94908KDBQ DBQ20020224013510402/24/02 01:35:31  5-MIN KDBQ 240735Z AUTO 18011KT 10SM CLR 04/M01 A2985 1140 70 100 170/11 RMK AO2 TSNO
94908KDBQ DBQ20020224014010402/24/02 01:40:31  5-MIN KDBQ 240740Z AUTO 18012KT 10SM CLR 04/M01 A2985 1140 70 100 180/12 RMK AO2 TSNO
94908KDBQ DBQ20020224014510402/24/02 01:45:31  5-MIN KDBQ 240745Z AUTO 18012KT 10SM CLR 04/M01 A2985 1140 70 100 170/12 RMK AO2 TSNO
94908KDBQ DBQ20020224015012102/24/02 01:50:31  5-MIN KDBQ 240750Z AUTO 18011KT 10SM CLR 04/M01 A2985 1140 70 100 180/11 RMK AO2 SLP114 T00391011 TSNO
94908KDBQ DBQ20020224015512102/24/02 01:55:31  5-MIN KDBQ 240755Z AUTO 17011KT 10SM CLR 04/M01 A2985 1140 70 100 170/11 RMK AO2 SLP114 T00391011 TSNO
94908KDBQ DBQ20020224020010402/24/02 02:00:31  5-MIN KDBQ 240800Z AUTO 18011KT 10SM CLR 04/M01 A2985 1140 70 100 170/11 RMK AO2 TSNO
94908KDBQ DBQ20020224020510402/24/02 02:05:31  5-MIN KDBQ 240805Z AUTO 17011KT 10SM CLR 04/M01 A2985 1140 67 200 170/11 RMK AO2 TSNO
94908KDBQ DBQ20020224021010402/24/02 02:10:31  5-MIN KDBQ 240810Z AUTO 18011KT 10SM CLR 04/M01 A2985 1140 67 200 180/11 RMK AO2 TSNO
94908KDBQ DBQ20020224021510402/24/02 02:15:31  5-MIN KDBQ 240815Z AUTO 18010KT 10SM CLR 04/M01 A2985 1140 67 200 180/10 RMK AO2 TSNO
94908KDBQ DBQ20020224022010402/24/02 02:20:31  5-MIN KDBQ 240820Z AUTO 18010KT 10SM CLR 04/M01 A2985 1140 67 200 180/10 RMK AO2 TSNO
94908KDBQ DBQ20020224022510402/24/02 02:25:31  5-MIN KDBQ 240825Z AUTO 17011KT 10SM CLR 04/M01 A2985 1140 67 200 170/11 RMK AO2 TSNO
94908KDBQ DBQ20020224023010402/24/02 02:30:31  5-MIN KDBQ 240830Z AUTO 18010KT 10SM CLR 04/M01 A2985 1140 67 200 180/10 RMK AO2 TSNO
94908KDBQ DBQ20020224023510402/24/02 02:35:31  5-MIN KDBQ 240835Z AUTO 18011KT 10SM CLR 04/M01 A2985 1140 67 200 180/11 RMK AO2 TSNO
94908KDBQ DBQ20020224024010402/24/02 02:40:31  5-MIN KDBQ 240840Z AUTO 18011KT 10SM CLR 04/M01 A2985 1140 67 200 180/11 RMK AO2 TSNO
94908KDBQ DBQ20020224024510402/24/02 02:45:31  5-MIN KDBQ 240845Z AUTO 18010KT 10SM CLR 04/M01 A2986 1140 67 200 180/10 RMK AO2 TSNO
94908KDBQ DBQ20020224025012702/24/02 02:50:31  5-MIN KDBQ 240850Z AUTO 18010KT 10SM CLR 04/M01 A2986 1130 67 200 180/10 RMK AO2 SLP117 T00441011 58003 TSNO
94908KDBQ DBQ20020224025512702/24/02 02:55:31  5-MIN KDBQ 240855Z AUTO 18009KT 10SM CLR 04/M01 A2986 1130 67 200 180/09 RMK AO2 SLP116 T00441011 55001 TSNO
94908KDBQ DBQ20020224030010402/24/02 03:00:31  5-MIN KDBQ 240900Z AUTO 18008KT 10SM CLR 04/M01 A2986 1130 67 200 180/08 RMK AO2 TSNO
94908KDBQ DBQ20020224030510402/24/02 03:05:31  5-MIN KDBQ 240905Z AUTO 18008KT 10SM CLR 04/M01 A2986 1130 67 200 180/08 RMK AO2 TSNO
94908KDBQ DBQ20020224031010402/24/02 03:10:31  5-MIN KDBQ 240910Z AUTO 18008KT 10SM CLR 04/M01 A2986 1130 70 100 180/08 RMK AO2 TSNO
94908KDBQ DBQ20020224031510402/24/02 03:15:31  5-MIN KDBQ 240915Z AUTO 19007KT 10SM CLR 04/M01 A2987 1130 70 100 190/07 RMK AO2 TSNO
94908KDBQ DBQ20020224032010402/24/02 03:20:31  5-MIN KDBQ 240920Z AUTO 18006KT 10SM CLR 04/M01 A2987 1130 73 100 180/06 RMK AO2 TSNO
94908KDBQ DBQ20020224032510402/24/02 03:25:31  5-MIN KDBQ 240925Z AUTO 18007KT 10SM CLR 04/M01 A2987 1130 73 100 180/07 RMK AO2 TSNO
94908KDBQ DBQ20020224033010402/24/02 03:30:31  5-MIN KDBQ 240930Z AUTO 17009KT 10SM CLR 04/M01 A2986 1130 70 100 170/09 RMK AO2 TSNO
94908KDBQ DBQ20020224033510402/24/02 03:35:31  5-MIN KDBQ 240935Z AUTO 17009KT 10SM CLR 04/M01 A2986 1130 73 100 170/09 RMK AO2 TSNO
94908KDBQ DBQ20020224034010402/24/02 03:40:31  5-MIN KDBQ 240940Z AUTO 17009KT 10SM CLR 04/M01 A2986 1130 73 100 170/09 RMK AO2 TSNO
94908KDBQ DBQ20020224034510402/24/02 03:45:31  5-MIN KDBQ 240945Z AUTO 17009KT 10SM CLR 04/M01 A2986 1140 73 100 170/09 RMK AO2 TSNO
94908KDBQ DBQ20020224035012102/24/02 03:50:31  5-MIN KDBQ 240950Z AUTO 17008KT 10SM CLR 04/M01 A2986 1140 73 100 170/08 RMK AO2 SLP116 T00391006 TSNO
94908KDBQ DBQ20020224035512102/24/02 03:55:31  5-MIN KDBQ 240955Z AUTO 18009KT 10SM CLR 04/M01 A2986 1140 70 100 180/09 RMK AO2 SLP116 T00391011 TSNO
94908KDBQ DBQ20020224040010402/24/02 04:00:31  5-MIN KDBQ 241000Z AUTO 18010KT 10SM CLR 04/M01 A2985 1140 70 100 170/10 RMK AO2 TSNO
94908KDBQ DBQ20020224040510402/24/02 04:05:31  5-MIN KDBQ 241005Z AUTO 17009KT 10SM CLR 04/M01 A2985 1140 70 100 170/09 RMK AO2 TSNO
94908KDBQ DBQ20020224041010402/24/02 04:10:31  5-MIN KDBQ 241010Z AUTO 18008KT 10SM CLR 04/M01 A2986 1140 67 200 180/08 RMK AO2 TSNO
94908KDBQ DBQ20020224041510702/24/02 04:15:31  5-MIN KDBQ 241015Z AUTO 18008KT 10SM FEW120 04/M01 A2986 1140 67 200 180/08 RMK AO2 TSNO
94908KDBQ DBQ20020224042010702/24/02 04:20:31  5-MIN KDBQ 241020Z AUTO 18007KT 10SM FEW120 04/M01 A2986 1140 67 200 180/07 RMK AO2 TSNO
94908KDBQ DBQ20020224042510402/24/02 04:25:31  5-MIN KDBQ 241025Z AUTO 18008KT 10SM CLR 04/M01 A2986 1140 67 200 180/08 RMK AO2 TSNO
94908KDBQ DBQ20020224043010402/24/02 04:30:31  5-MIN KDBQ 241030Z AUTO 18008KT 10SM CLR 04/M01 A2986 1140 67 200 170/08 RMK AO2 TSNO
94908KDBQ DBQ20020224043510402/24/02 04:35:31  5-MIN KDBQ 241035Z AUTO 17008KT 10SM CLR 04/M01 A2986 1140 70 100 170/08 RMK AO2 TSNO
94908KDBQ DBQ20020224044010402/24/02 04:40:31  5-MIN KDBQ 241040Z AUTO 17007KT 10SM CLR 04/M01 A2985 1140 67 200 170/07 RMK AO2 TSNO
94908KDBQ DBQ20020224044510402/24/02 04:45:31  5-MIN KDBQ 241045Z AUTO 17007KT 10SM CLR 04/M01 A2985 1140 70 100 170/07 RMK AO2 TSNO
94908KDBQ DBQ20020224045012102/24/02 04:50:31  5-MIN KDBQ 241050Z AUTO 17007KT 10SM CLR 04/M01 A2985 1140 67 200 170/07 RMK AO2 SLP113 T00441011 TSNO
94908KDBQ DBQ20020224045512102/24/02 04:55:31  5-MIN KDBQ 241055Z AUTO 19007KT 10SM CLR 04/M01 A2985 1140 70 100 190/07 RMK AO2 SLP114 T00391011 TSNO
94908KDBQ DBQ20020224050010402/24/02 05:00:31  5-MIN KDBQ 241100Z AUTO 19008KT 10SM CLR 04/M01 A2985 1140 70 100 180/08 RMK AO2 TSNO
94908KDBQ DBQ20020224050510402/24/02 05:05:31  5-MIN KDBQ 241105Z AUTO 19008KT 10SM CLR 04/M01 A2985 1140 73 100 190/08 RMK AO2 TSNO
94908KDBQ DBQ20020224051010402/24/02 05:10:31  5-MIN KDBQ 241110Z AUTO 19007KT 10SM CLR 04/M01 A2985 1140 73 100 180/07 RMK AO2 TSNO
94908KDBQ DBQ20020224051510402/24/02 05:15:31  5-MIN KDBQ 241115Z AUTO 18010KT 10SM CLR 04/M01 A2985 1140 73 100 180/10 RMK AO2 TSNO
94908KDBQ DBQ20020224052010402/24/02 05:20:31  5-MIN KDBQ 241120Z AUTO 18011KT 10SM CLR 04/M01 A2986 1140 73 100 170/11 RMK AO2 TSNO
94908KDBQ DBQ20020224052510402/24/02 05:25:31  5-MIN KDBQ 241125Z AUTO 17010KT 10SM CLR 04/M01 A2985 1140 73 100 170/10 RMK AO2 TSNO
94908KDBQ DBQ20020224053010402/24/02 05:30:31  5-MIN KDBQ 241130Z AUTO 17011KT 10SM CLR 04/M01 A2986 1140 70 100 170/11 RMK AO2 TSNO
94908KDBQ DBQ20020224053510402/24/02 05:35:31  5-MIN KDBQ 241135Z AUTO 18010KT 10SM CLR 04/M01 A2986 1140 70 100 180/10 RMK AO2 TSNO
94908KDBQ DBQ20020224054010402/24/02 05:40:31  5-MIN KDBQ 241140Z AUTO 18010KT 10SM CLR 04/M01 A2986 1140 70 100 180/10 RMK AO2 TSNO
94908KDBQ DBQ20020224054510402/24/02 05:45:31  5-MIN KDBQ 241145Z AUTO 17009KT 10SM CLR 04/M01 A2986 1140 70 100 170/09 RMK AO2 TSNO
94908KDBQ DBQ20020224055013902/24/02 05:50:31  5-MIN KDBQ 241150Z AUTO 17011KT 10SM CLR 04/M01 A2985 1140 70 100 170/11 RMK AO2 SLP116 T00391011 10044 20033 55001 TSNO
94908KDBQ DBQ20020224055512902/24/02 05:55:31  5-MIN KDBQ 241155Z 17012KT 10SM CLR 04/M01 A2985 1140 70 100 170/12 RMK AO2 SLP116 T00391011 10044 20033 55002
94908KDBQ DBQ20020224060009402/24/02 06:00:31  5-MIN KDBQ 241200Z 17011KT 10SM CLR 04/M01 A2985 1140 70 100 170/11 RMK AO2
94908KDBQ DBQ20020224060509402/24/02 06:05:31  5-MIN KDBQ 241205Z 17011KT 10SM CLR 04/M01 A2985 1140 70 100 170/11 RMK AO2
94908KDBQ DBQ20020224061009402/24/02 06:10:31  5-MIN KDBQ 241210Z 17011KT 10SM CLR 04/M01 A2985 1140 70 100 170/11 RMK AO2
94908KDBQ DBQ20020224061509402/24/02 06:15:31  5-MIN KDBQ 241215Z 17012KT 10SM CLR 04/M01 A2985 1140 70 100 170/12 RMK AO2
94908KDBQ DBQ20020224062009402/24/02 06:20:31  5-MIN KDBQ 241220Z 17011KT 10SM CLR 04/M01 A2985 1140 70 100 170/11 RMK AO2
94908KDBQ DBQ20020224062509402/24/02 06:25:31  5-MIN KDBQ 241225Z 17010KT 10SM CLR 04/M01 A2985 1140 70 100 170/10 RMK AO2
94908KDBQ DBQ20020224063009402/24/02 06:30:31  5-MIN KDBQ 241230Z 17010KT 10SM CLR 04/M01 A2985 1140 70 100 170/10 RMK AO2
94908KDBQ DBQ20020224063509202/24/02 06:35:31  5-MIN KDBQ 241235Z 17011KT 10SM CLR 03/M01 A2985 1140 72 0 170/11 RMK AO2
94908KDBQ DBQ20020224064009202/24/02 06:40:31  5-MIN KDBQ 241240Z 17011KT 10SM CLR 03/M01 A2985 1140 72 0 170/11 RMK AO2
94908KDBQ DBQ20020224064509202/24/02 06:45:31  5-MIN KDBQ 241245Z 17010KT 10SM CLR 03/M01 A2985 1140 72 0 170/10 RMK AO2
94908KDBQ DBQ20020224065010902/24/02 06:50:31  5-MIN KDBQ 241250Z 17009KT 10SM CLR 03/M01 A2985 1140 72 0 170/09 RMK AO2 SLP116 T00331011
94908KDBQ DBQ20020224065510902/24/02 06:55:31  5-MIN KDBQ 241255Z 17009KT 10SM CLR 03/M01 A2985 1140 72 0 170/09 RMK AO2 SLP116 T00331011
94908KDBQ DBQ20020224070009202/24/02 07:00:31  5-MIN KDBQ 241300Z 17009KT 10SM CLR 03/M01 A2985 1140 72 0 170/09 RMK AO2
94908KDBQ DBQ20020224070509202/24/02 07:05:31  5-MIN KDBQ 241305Z 18009KT 10SM CLR 03/M01 A2985 1140 72 0 180/09 RMK AO2
94908KDBQ DBQ20020224071009402/24/02 07:10:31  5-MIN KDBQ 241310Z 18010KT 10SM CLR 04/M01 A2985 1140 70 100 180/10 RMK AO2
94908KDBQ DBQ20020224071509402/24/02 07:15:31  5-MIN KDBQ 241315Z 17010KT 10SM CLR 04/M01 A2986 1140 70 100 170/10 RMK AO2
94908KDBQ DBQ20020224072009402/24/02 07:20:31  5-MIN KDBQ 241320Z 17009KT 10SM CLR 04/M01 A2986 1140 70 100 170/09 RMK AO2
94908KDBQ DBQ20020224072509202/24/02 07:25:31  5-MIN KDBQ 241325Z 16009KT 10SM CLR 03/M01 A2986 1130 72 0 160/09 RMK AO2
94908KDBQ DBQ20020224073009402/24/02 07:30:31  5-MIN KDBQ 241330Z 17011KT 10SM CLR 04/M01 A2986 1130 70 100 170/11 RMK AO2
94908KDBQ DBQ20020224073509402/24/02 07:35:31  5-MIN KDBQ 241335Z 16011KT 10SM CLR 04/M01 A2986 1130 70 100 160/11 RMK AO2
94908KDBQ DBQ20020224074009402/24/02 07:40:31  5-MIN KDBQ 241340Z 16010KT 10SM CLR 04/M01 A2986 1140 70 100 160/10 RMK AO2
94908KDBQ DBQ20020224074509402/24/02 07:45:31  5-MIN KDBQ 241345Z 16011KT 10SM CLR 04/M01 A2986 1140 70 100 160/11 RMK AO2
94908KDBQ DBQ20020224075011102/24/02 07:50:31  5-MIN KDBQ 241350Z 16010KT 10SM CLR 04/M01 A2985 1140 70 100 160/10 RMK AO2 SLP117 T00391011
94908KDBQ DBQ20020224075511102/24/02 07:55:31  5-MIN KDBQ 241355Z 16009KT 10SM CLR 04/M01 A2985 1140 70 100 160/09 RMK AO2 SLP115 T00391011
94908KDBQ DBQ20020224080009402/24/02 08:00:31  5-MIN KDBQ 241400Z 16010KT 10SM CLR 04/M01 A2985 1150 70 100 160/10 RMK AO2
94908KDBQ DBQ20020224080509402/24/02 08:05:31  5-MIN KDBQ 241405Z 17011KT 10SM CLR 04/M01 A2985 1140 73 100 170/11 RMK AO2
94908KDBQ DBQ20020224081009402/24/02 08:10:31  5-MIN KDBQ 241410Z 16012KT 10SM CLR 04/M01 A2986 1140 70 200 160/12 RMK AO2
94908KDBQ DBQ20020224081509402/24/02 08:15:31  5-MIN KDBQ 241415Z 16013KT 10SM CLR 04/M01 A2985 1140 70 200 160/13 RMK AO2
94908KDBQ DBQ20020224082009402/24/02 08:20:31  5-MIN KDBQ 241420Z 16012KT 10SM CLR 04/M01 A2985 1140 70 200 160/12 RMK AO2
94908KDBQ DBQ20020224082509402/24/02 08:25:31  5-MIN KDBQ 241425Z 16012KT 10SM CLR 04/M01 A2985 1150 70 200 160/12 RMK AO2
94908KDBQ DBQ20020224083009402/24/02 08:30:31  5-MIN KDBQ 241430Z 16013KT 10SM CLR 04/M01 A2984 1150 70 200 160/13 RMK AO2
94908KDBQ DBQ20020224083509402/24/02 08:35:31  5-MIN KDBQ 241435Z 16012KT 10SM CLR 05/M01 A2984 1160 67 300 160/12 RMK AO2
94908KDBQ DBQ20020224084009402/24/02 08:40:31  5-MIN KDBQ 241440Z 16012KT 10SM CLR 05/M01 A2983 1160 67 300 160/12 RMK AO2
94908KDBQ DBQ20020224084509402/24/02 08:45:31  5-MIN KDBQ 241445Z 16011KT 10SM CLR 05/M01 A2983 1160 67 300 160/11 RMK AO2
94908KDBQ DBQ20020224085012302/24/02 08:50:31  5-MIN KDBQ 241450Z 16014KT 10SM CLR 06/00 A2982 1170 67 400 150/14 RMK AO2 PRESFR SLP104 T00560000 55002
94908KDBQ DBQ20020224085511602/24/02 08:55:31  5-MIN KDBQ 241455Z 15015KT 10SM CLR 06/00 A2981 1180 65 400 150/15 RMK AO2 SLP103 T00610000 58013
94908KDBQ DBQ20020224090009302/24/02 09:00:31  5-MIN KDBQ 241500Z 15016KT 10SM CLR 06/00 A2981 1180 65 400 150/16 RMK AO2
94908KDBQ DBQ20020224090509302/24/02 09:05:31  5-MIN KDBQ 241505Z 16016KT 10SM CLR 06/00 A2981 1180 65 400 160/16 RMK AO2
94908KDBQ DBQ20020224091009302/24/02 09:10:31  5-MIN KDBQ 241510Z 16015KT 10SM CLR 07/00 A2981 1180 62 500 160/15 RMK AO2
94908KDBQ DBQ20020224091509302/24/02 09:15:31  5-MIN KDBQ 241515Z 16015KT 10SM CLR 07/00 A2981 1180 62 500 160/15 RMK AO2
94908KDBQ DBQ20020224092009302/24/02 09:20:31  5-MIN KDBQ 241520Z 16015KT 10SM CLR 07/00 A2981 1180 62 500 160/15 RMK AO2
94908KDBQ DBQ20020224092509302/24/02 09:25:31  5-MIN KDBQ 241525Z 16017KT 10SM CLR 07/00 A2981 1190 60 600 160/17 RMK AO2
94908KDBQ DBQ20020224093009302/24/02 09:30:31  5-MIN KDBQ 241530Z 16016KT 10SM CLR 08/01 A2980 1190 60 600 160/16 RMK AO2
94908KDBQ DBQ20020224093509902/24/02 09:35:31  5-MIN KDBQ 241535Z 16014G20KT 10SM CLR 08/01 A2980 1190 60 600 160/14G20 RMK AO2
94908KDBQ DBQ20020224094009902/24/02 09:40:31  5-MIN KDBQ 241540Z 17017G21KT 10SM CLR 08/01 A2980 1190 58 700 170/17G21 RMK AO2
94908KDBQ DBQ20020224094509902/24/02 09:45:31  5-MIN KDBQ 241545Z 17017G21KT 10SM CLR 08/01 A2980 1190 58 700 170/17G21 RMK AO2
94908KDBQ DBQ20020224095011002/24/02 09:50:31  5-MIN KDBQ 241550Z 16015KT 10SM CLR 09/01 A2980 1190 56 800 160/15 RMK AO2 SLP098 T00890006
94908KDBQ DBQ20020224095511002/24/02 09:55:31  5-MIN KDBQ 241555Z 16016KT 10SM CLR 09/01 A2980 1190 56 800 160/16 RMK AO2 SLP097 T00890006
94908KDBQ DBQ20020224100009302/24/02 10:00:31  5-MIN KDBQ 241600Z 16014KT 10SM CLR 09/01 A2980 1190 56 800 160/14 RMK AO2
94908KDBQ DBQ20020224100509302/24/02 10:05:31  5-MIN KDBQ 241605Z 16016KT 10SM CLR 09/01 A2980 1190 56 800 160/16 RMK AO2
94908KDBQ DBQ20020224101009302/24/02 10:10:31  5-MIN KDBQ 241610Z 17016KT 10SM CLR 09/01 A2980 1190 56 800 170/16 RMK AO2
94908KDBQ DBQ20020224101509302/24/02 10:15:31  5-MIN KDBQ 241615Z 17015KT 10SM CLR 10/01 A2979 1190 52 900 170/15 RMK AO2
94908KDBQ DBQ20020224102009302/24/02 10:20:31  5-MIN KDBQ 241620Z 17014KT 10SM CLR 10/01 A2979 1190 54 900 170/14 RMK AO2
94908KDBQ DBQ20020224102509302/24/02 10:25:31  5-MIN KDBQ 241625Z 18014KT 10SM CLR 10/01 A2980 1190 54 900 180/14 RMK AO2
94908KDBQ DBQ20020224103009402/24/02 10:30:31  5-MIN KDBQ 241630Z 17015KT 10SM CLR 11/01 A2980 1190 52 1000 170/15 RMK AO2
94908KDBQ DBQ20020224103509402/24/02 10:35:31  5-MIN KDBQ 241635Z 18015KT 10SM CLR 11/01 A2980 1190 52 1000 180/15 RMK AO2
94908KDBQ DBQ20020224104010002/24/02 10:40:31  5-MIN KDBQ 241640Z 18015G21KT 10SM CLR 11/02 A2979 1200 52 1100 180/15G21 RMK AO2
94908KDBQ DBQ20020224104510002/24/02 10:45:31  5-MIN KDBQ 241645Z 17015G21KT 10SM CLR 11/01 A2979 1200 50 1100 170/15G21 RMK AO2
94908KDBQ DBQ20020224105011102/24/02 10:50:31  5-MIN KDBQ 241650Z 17014KT 10SM CLR 12/02 A2978 1200 50 1100 170/14 RMK AO2 SLP091 T01170017
94908KDBQ DBQ20020224105511102/24/02 10:55:31  5-MIN KDBQ 241655Z 16014KT 10SM CLR 12/02 A2978 1210 50 1100 160/14 RMK AO2 SLP090 T01170017
94908KDBQ DBQ20020224110009402/24/02 11:00:31  5-MIN KDBQ 241700Z 16015KT 10SM CLR 12/02 A2977 1220 50 1100 160/15 RMK AO2
94908KDBQ DBQ20020224110509402/24/02 11:05:31  5-MIN KDBQ 241705Z 16013KT 10SM CLR 12/02 A2977 1220 50 1100 160/13 RMK AO2
94908KDBQ DBQ20020224111009402/24/02 11:10:31  5-MIN KDBQ 241710Z 17016KT 10SM CLR 12/02 A2977 1220 50 1200 160/16 RMK AO2
94908KDBQ DBQ20020224111510002/24/02 11:15:31  5-MIN KDBQ 241715Z 16017G22KT 10SM CLR 12/02 A2976 1230 48 1200 160/17G22 RMK AO2
94908KDBQ DBQ20020224112010002/24/02 11:20:31  5-MIN KDBQ 241720Z 15015G22KT 10SM CLR 12/02 A2975 1230 48 1200 150/15G22 RMK AO2
94908KDBQ DBQ20020224112510102/24/02 11:25:31  5-MIN KDBQ 241725Z 15016KT 10SM CLR 13/02 A2975 1240 48 1300 150/16 RMK AO2 PRESFR
94908KDBQ DBQ20020224113010102/24/02 11:30:31  5-MIN KDBQ 241730Z 15018KT 10SM CLR 13/02 A2974 1240 48 1300 150/18 RMK AO2 PRESFR
94908KDBQ DBQ20020224113510002/24/02 11:35:31  5-MIN KDBQ 241735Z 15019G23KT 10SM CLR 13/02 A2974 1250 48 1300 150/19G23 RMK AO2
94908KDBQ DBQ20020224114010002/24/02 11:40:31  5-MIN KDBQ 241740Z 16017G23KT 10SM CLR 13/02 A2973 1250 48 1300 160/17G23 RMK AO2
94908KDBQ DBQ20020224114509402/24/02 11:45:31  5-MIN KDBQ 241745Z 17018KT 10SM CLR 13/02 A2973 1260 45 1400 170/18 RMK AO2
94908KDBQ DBQ20020224115013502/24/02 11:50:31  5-MIN KDBQ 241750Z 16018G23KT 10SM CLR 13/02 A2972 1260 46 1400 160/18G23 RMK AO2 SLP070 T01330022 10133 20033 58013
94908KDBQ DBQ20020224115514202/24/02 11:55:31  5-MIN KDBQ 241755Z 16019G24KT 10SM CLR 14/02 A2971 1270 45 1500 160/19G24 RMK AO2 PRESFR SLP067 T01390022 10139 20033 58033
94908KDBQ DBQ20020224120010002/24/02 12:00:31  5-MIN KDBQ 241800Z 16018G25KT 10SM CLR 14/02 A2971 1270 45 1500 160/18G25 RMK AO2
94908KDBQ DBQ20020224120510002/24/02 12:05:31  5-MIN KDBQ 241805Z 16014G25KT 10SM CLR 14/02 A2971 1280 45 1500 160/14G25 RMK AO2
94908KDBQ DBQ20020224121010002/24/02 12:10:31  5-MIN KDBQ 241810Z 16021G25KT 10SM CLR 14/03 A2970 1280 45 1600 160/21G25 RMK AO2
94908KDBQ DBQ20020224121510002/24/02 12:15:31  5-MIN KDBQ 241815Z 16019G25KT 10SM CLR 14/02 A2970 1290 45 1500 160/19G25 RMK AO2
94908KDBQ DBQ20020224122010002/24/02 12:20:31  5-MIN KDBQ 241820Z 15019G24KT 10SM CLR 14/02 A2969 1290 45 1500 150/19G24 RMK AO2
94908KDBQ DBQ20020224122510002/24/02 12:25:31  5-MIN KDBQ 241825Z 16016G24KT 10SM CLR 14/02 A2969 1290 45 1500 160/16G24 RMK AO2
94908KDBQ DBQ20020224123009402/24/02 12:30:31  5-MIN KDBQ 241830Z 17019KT 10SM CLR 14/02 A2969 1290 45 1500 170/19 RMK AO2
94908KDBQ DBQ20020224123509402/24/02 12:35:31  5-MIN KDBQ 241835Z 17017KT 10SM CLR 14/03 A2969 1290 45 1600 170/17 RMK AO2
94908KDBQ DBQ20020224124009402/24/02 12:40:31  5-MIN KDBQ 241840Z 16017KT 10SM CLR 14/03 A2969 1300 47 1500 150/17 RMK AO2
94908KDBQ DBQ20020224124510002/24/02 12:45:31  5-MIN KDBQ 241845Z 16019G22KT 10SM CLR 14/02 A2968 1300 45 1500 160/19G22 RMK AO2
94908KDBQ DBQ20020224125011702/24/02 12:50:31  5-MIN KDBQ 241850Z 16017G22KT 10SM CLR 14/02 A2969 1300 45 1500 160/17G22 RMK AO2 SLP056 T01390022
94908KDBQ DBQ20020224125511102/24/02 12:55:31  5-MIN KDBQ 241855Z 16017KT 10SM CLR 14/03 A2968 1300 47 1500 160/17 RMK AO2 SLP056 T01390028
94908KDBQ DBQ20020224130009402/24/02 13:00:31  5-MIN KDBQ 241900Z 16016KT 10SM CLR 14/03 A2969 1300 45 1600 160/16 RMK AO2
94908KDBQ DBQ20020224130511802/24/02 13:05:31  5-MIN KDBQ 241905Z 16019G26KT 10SM CLR 14/03 A2968 1300 45 1600 160/19G26 RMK AO2 PK WND 16026/1902
94908KDBQ DBQ20020224131011802/24/02 13:10:31  5-MIN KDBQ 241910Z 16016G26KT 10SM CLR 15/03 A2967 1310 43 1700 160/16G26 RMK AO2 PK WND 16026/1902
94908KDBQ DBQ20020224131511802/24/02 13:15:31  5-MIN KDBQ 241915Z 16017G25KT 10SM CLR 14/03 A2968 1300 45 1600 160/17G25 RMK AO2 PK WND 16026/1902
94908KDBQ DBQ20020224132011802/24/02 13:20:31  5-MIN KDBQ 241920Z 17016G24KT 10SM CLR 14/03 A2968 1300 45 1600 170/16G24 RMK AO2 PK WND 16026/1902
94908KDBQ DBQ20020224132511802/24/02 13:25:31  5-MIN KDBQ 241925Z 17016G24KT 10SM CLR 14/03 A2968 1310 45 1600 170/16G24 RMK AO2 PK WND 16026/1902
94908KDBQ DBQ20020224133011202/24/02 13:30:31  5-MIN KDBQ 241930Z 17018KT 10SM CLR 15/03 A2967 1310 43 1700 170/18 RMK AO2 PK WND 16026/1902
94908KDBQ DBQ20020224133511802/24/02 13:35:31  5-MIN KDBQ 241935Z 16019G23KT 10SM CLR 16/03 A2967 1310 42 1700 160/19G23 RMK AO2 PK WND 16026/1902
94908KDBQ DBQ20020224134011802/24/02 13:40:31  5-MIN KDBQ 241940Z 17019G23KT 10SM CLR 15/03 A2966 1320 45 1700 170/19G23 RMK AO2 PK WND 16026/1902
94908KDBQ DBQ20020224134511802/24/02 13:45:31  5-MIN KDBQ 241945Z 16016G23KT 10SM CLR 16/03 A2966 1320 43 1700 160/16G23 RMK AO2 PK WND 16026/1902
94908KDBQ DBQ20020224135013502/24/02 13:50:31  5-MIN KDBQ 241950Z 17017G23KT 10SM CLR 16/03 A2966 1320 43 1700 170/17G23 RMK AO2 PK WND 16026/1902 SLP045 T01560033
94908KDBQ DBQ20020224135513502/24/02 13:55:31  5-MIN KDBQ 241955Z 17015G23KT 10SM CLR 16/03 A2965 1330 42 1700 170/15G23 RMK AO2 PK WND 16026/1902 SLP044 T01560028
94908KDBQ DBQ20020224140010002/24/02 14:00:31  5-MIN KDBQ 242000Z 17014G21KT 10SM CLR 16/03 A2965 1330 42 1700 170/14G21 RMK AO2
94908KDBQ DBQ20020224140510002/24/02 14:05:31  5-MIN KDBQ 242005Z 17016G21KT 10SM CLR 16/03 A2964 1330 42 1700 170/16G21 RMK AO2
94908KDBQ DBQ20020224141010002/24/02 14:10:31  5-MIN KDBQ 242010Z 17017G22KT 10SM CLR 16/03 A2964 1340 42 1800 170/17G22 RMK AO2
94908KDBQ DBQ20020224141510002/24/02 14:15:31  5-MIN KDBQ 242015Z 17018G22KT 10SM CLR 16/02 A2964 1340 40 1800 170/18G22 RMK AO2
94908KDBQ DBQ20020224142009402/24/02 14:20:31  5-MIN KDBQ 242020Z 17017KT 10SM CLR 16/03 A2964 1340 42 1800 170/17 RMK AO2
94908KDBQ DBQ20020224142509402/24/02 14:25:31  5-MIN KDBQ 242025Z 17015KT 10SM CLR 16/02 A2964 1340 40 1800 170/15 RMK AO2
94908KDBQ DBQ20020224143010002/24/02 14:30:31  5-MIN KDBQ 242030Z 17016G23KT 10SM CLR 16/03 A2963 1350 42 1800 170/16G23 RMK AO2
94908KDBQ DBQ20020224143510002/24/02 14:35:31  5-MIN KDBQ 242035Z 17016G23KT 10SM CLR 16/03 A2963 1350 40 1800 170/16G23 RMK AO2
94908KDBQ DBQ20020224144010002/24/02 14:40:31  5-MIN KDBQ 242040Z 17016G22KT 10SM CLR 16/02 A2963 1350 39 1800 170/16G22 RMK AO2
94908KDBQ DBQ20020224144510002/24/02 14:45:31  5-MIN KDBQ 242045Z 17016G22KT 10SM CLR 16/03 A2962 1350 40 1800 170/16G22 RMK AO2
94908KDBQ DBQ20020224145012802/24/02 14:50:31  5-MIN KDBQ 242050Z AUTO 16016G21KT 10SM CLR 16/03 A2962 1350 42 1800 160/16G21 RMK AO2 SLP034 T01610033 58033
94908KDBQ DBQ20020224145512302/24/02 14:55:31  5-MIN KDBQ 242055Z 17014G21KT 10SM CLR 16/03 A2962 1350 40 1800 170/14G21 RMK AO2 SLP034 T01610028 56030
94908KDBQ DBQ20020224150009402/24/02 15:00:31  5-MIN KDBQ 242100Z 17013KT 10SM CLR 16/03 A2963 1350 42 1800 170/13 RMK AO2
94908KDBQ DBQ20020224150510002/24/02 15:05:31  5-MIN KDBQ 242105Z 18015G21KT 10SM CLR 16/03 A2963 1350 40 1800 180/15G21 RMK AO2
94908KDBQ DBQ20020224151009402/24/02 15:10:31  5-MIN KDBQ 242110Z 18016KT 10SM CLR 16/03 A2962 1350 40 1800 170/16 RMK AO2
94908KDBQ DBQ20020224151509402/24/02 15:15:31  5-MIN KDBQ 242115Z 17015KT 10SM CLR 17/03 A2962 1360 39 1900 170/15 RMK AO2
94908KDBQ DBQ20020224152009402/24/02 15:20:31  5-MIN KDBQ 242120Z 18015KT 10SM CLR 17/03 A2962 1350 39 1900 180/15 RMK AO2
94908KDBQ DBQ20020224152509402/24/02 15:25:31  5-MIN KDBQ 242125Z 18016KT 10SM CLR 17/03 A2962 1360 37 2000 180/16 RMK AO2
94908KDBQ DBQ20020224153010002/24/02 15:30:31  5-MIN KDBQ 242130Z 17014G20KT 10SM CLR 17/03 A2962 1350 39 1900 170/14G20 RMK AO2
94908KDBQ DBQ20020224153509402/24/02 15:35:31  5-MIN KDBQ 242135Z 18016KT 10SM CLR 17/03 A2962 1360 37 2000 180/16 RMK AO2
94908KDBQ DBQ20020224154009402/24/02 15:40:31  5-MIN KDBQ 242140Z 18015KT 10SM CLR 17/03 A2962 1360 39 1900 180/15 RMK AO2
94908KDBQ DBQ20020224154509402/24/02 15:45:31  5-MIN KDBQ 242145Z 18016KT 10SM CLR 16/02 A2962 1360 39 1800 180/16 RMK AO2
94908KDBQ DBQ20020224155011102/24/02 15:50:31  5-MIN KDBQ 242150Z 18014KT 10SM CLR 16/03 A2962 1360 40 1800 180/14 RMK AO2 SLP034 T01610028
94908KDBQ DBQ20020224155511102/24/02 15:55:31  5-MIN KDBQ 242155Z 18013KT 10SM CLR 16/03 A2962 1350 40 1800 180/13 RMK AO2 SLP034 T01610028
94908KDBQ DBQ20020224160010002/24/02 16:00:31  5-MIN KDBQ 242200Z 19014G19KT 10SM CLR 16/03 A2962 1360 42 1800 190/14G19 RMK AO2
94908KDBQ DBQ20020224160510002/24/02 16:05:31  5-MIN KDBQ 242205Z 18015G19KT 10SM CLR 16/03 A2962 1360 40 1800 180/15G19 RMK AO2
94908KDBQ DBQ20020224161009402/24/02 16:10:31  5-MIN KDBQ 242210Z 19020KT 10SM CLR 16/02 A2962 1360 39 1800 190/20 RMK AO2
94908KDBQ DBQ20020224161510002/24/02 16:15:31  5-MIN KDBQ 242215Z 19018G25KT 10SM CLR 16/02 A2962 1360 39 1800 190/18G25 RMK AO2
94908KDBQ DBQ20020224162009402/24/02 16:20:31  5-MIN KDBQ 242220Z 19016KT 10SM CLR 16/03 A2962 1360 40 1800 190/16 RMK AO2
94908KDBQ DBQ20020224162510002/24/02 16:25:31  5-MIN KDBQ 242225Z 18014G22KT 10SM CLR 16/03 A2962 1360 40 1800 180/14G22 RMK AO2
94908KDBQ DBQ20020224163010002/24/02 16:30:31  5-MIN KDBQ 242230Z 18015G22KT 10SM CLR 16/03 A2962 1350 42 1800 180/15G22 RMK AO2
94908KDBQ DBQ20020224163509402/24/02 16:35:31  5-MIN KDBQ 242235Z 18013KT 10SM CLR 16/03 A2962 1350 42 1800 180/13 RMK AO2
94908KDBQ DBQ20020224164009402/24/02 16:40:31  5-MIN KDBQ 242240Z 18014KT 10SM CLR 16/03 A2963 1350 42 1800 180/14 RMK AO2
94908KDBQ DBQ20020224164509402/24/02 16:45:31  5-MIN KDBQ 242245Z 19014KT 10SM CLR 16/03 A2963 1350 42 1800 180/14 RMK AO2
94908KDBQ DBQ20020224165011102/24/02 16:50:31  5-MIN KDBQ 242250Z 18014KT 10SM CLR 15/03 A2963 1350 43 1700 180/14 RMK AO2 SLP037 T01500028
94908KDBQ DBQ20020224165511102/24/02 16:55:31  5-MIN KDBQ 242255Z 18013KT 10SM CLR 15/03 A2963 1350 43 1700 180/13 RMK AO2 SLP038 T01500028
94908KDBQ DBQ20020224170009402/24/02 17:00:31  5-MIN KDBQ 242300Z 19012KT 10SM CLR 15/03 A2964 1340 45 1700 190/12 RMK AO2
94908KDBQ DBQ20020224170509702/24/02 17:05:31  5-MIN KDBQ 242305Z 19009KT 10SM FEW085 14/03 A2964 1340 47 1600 190/09 RMK AO2
94908KDBQ DBQ20020224171009702/24/02 17:10:31  5-MIN KDBQ 242310Z 19009KT 10SM FEW080 14/03 A2964 1340 47 1600 190/09 RMK AO2
94908KDBQ DBQ20020224171509702/24/02 17:15:31  5-MIN KDBQ 242315Z 20008KT 10SM SCT080 14/04 A2964 1340 49 1600 190/08 RMK AO2
94908KDBQ DBQ20020224172009702/24/02 17:20:31  5-MIN KDBQ 242320Z 20007KT 10SM BKN080 14/04 A2964 1340 50 1600 200/07 RMK AO2
94908KDBQ DBQ20020224172509702/24/02 17:25:31  5-MIN KDBQ 242325Z 21007KT 10SM BKN080 14/04 A2965 1330 50 1600 210/07 RMK AO2
94908KDBQ DBQ20020224173009702/24/02 17:30:31  5-MIN KDBQ 242330Z 21005KT 10SM BKN080 14/04 A2965 1330 50 1500 210/05 RMK AO2
94908KDBQ DBQ20020224173509702/24/02 17:35:31  5-MIN KDBQ 242335Z 22006KT 10SM OVC080 14/04 A2965 1330 50 1500 210/06 RMK AO2
94908KDBQ DBQ20020224174009702/24/02 17:40:31  5-MIN KDBQ 242340Z 23006KT 10SM OVC080 13/04 A2965 1330 52 1500 230/06 RMK AO2
94908KDBQ DBQ20020224174509702/24/02 17:45:31  5-MIN KDBQ 242345Z 22006KT 10SM BKN080 13/04 A2966 1320 52 1500 220/06 RMK AO2
94908KDBQ DBQ20020224175013202/24/02 17:50:31  5-MIN KDBQ 242350Z 25004KT 10SM BKN080 13/03 A2966 1320 50 1500 250/04 RMK AO2 SLP047 T01330033 10172 20133 56030
94908KDBQ DBQ20020224175513202/24/02 17:55:31  5-MIN KDBQ 242355Z 22005KT 10SM SCT085 13/03 A2966 1320 52 1400 220/05 RMK AO2 SLP047 T01280033 10172 20128 53010
94908KDBQ DBQ20020224180009702/24/02 18:00:31  5-MIN KDBQ 250000Z 21006KT 10SM SCT080 13/03 A2966 1320 52 1400 210/06 RMK AO2
94908KDBQ DBQ20020224180509702/24/02 18:05:31  5-MIN KDBQ 250005Z 23005KT 10SM FEW080 12/03 A2966 1320 56 1300 230/05 RMK AO2
94908KDBQ DBQ20020224181009402/24/02 18:10:31  5-MIN KDBQ 250010Z 24005KT 10SM CLR 12/03 A2967 1310 54 1300 240/05 RMK AO2
94908KDBQ DBQ20020224181509702/24/02 18:15:31  5-MIN KDBQ 250015Z 23003KT 10SM FEW090 12/03 A2967 1310 54 1300 220/03 RMK AO2
94908KDBQ DBQ20020224182009702/24/02 18:20:31  5-MIN KDBQ 250020Z 00000KT 10SM SCT090 13/03 A2967 1320 52 1400 000/00 RMK AO2
94908KDBQ DBQ20020224182509702/24/02 18:25:31  5-MIN KDBQ 250025Z 00000KT 10SM BKN090 12/03 A2967 1320 56 1300 000/00 RMK AO2
94908KDBQ DBQ20020224183009702/24/02 18:30:31  5-MIN KDBQ 250030Z 00000KT 10SM SCT090 12/03 A2966 1320 56 1300 000/00 RMK AO2
94908KDBQ DBQ20020224183509702/24/02 18:35:31  5-MIN KDBQ 250035Z 14003KT 10SM SCT090 12/03 A2966 1320 56 1300 140/03 RMK AO2
94908KDBQ DBQ20020224184009702/24/02 18:40:31  5-MIN KDBQ 250040Z 00000KT 10SM SCT090 11/03 A2966 1320 61 1100 000/00 RMK AO2
94908KDBQ DBQ20020224184509702/24/02 18:45:31  5-MIN KDBQ 250045Z 15003KT 10SM FEW090 11/03 A2967 1310 58 1100 150/03 RMK AO2
94908KDBQ DBQ20020224185011402/24/02 18:50:31  5-MIN KDBQ 250050Z 15003KT 10SM FEW090 09/03 A2967 1310 63 1000 150/03 RMK AO2 SLP052 T00940028
94908KDBQ DBQ20020224185511002/24/02 18:55:31  5-MIN KDBQ 250055Z 00000KT 10SM CLR 08/03 A2967 1310 68 900 000/00 RMK AO2 SLP052 T00830028
94908KDBQ DBQ20020224190009302/24/02 19:00:31  5-MIN KDBQ 250100Z 00000KT 10SM CLR 08/02 A2967 1310 68 800 000/00 RMK AO2
94908KDBQ DBQ20020224190509602/24/02 19:05:31  5-MIN KDBQ 250105Z 00000KT 10SM FEW085 09/03 A2967 1310 65 900 000/00 RMK AO2
94908KDBQ DBQ20020224191009602/24/02 19:10:31  5-MIN KDBQ 250110Z 31003KT 10SM SCT090 07/03 A2967 1310 73 700 310/03 RMK AO2
94908KDBQ DBQ20020224191509602/24/02 19:15:31  5-MIN KDBQ 250115Z 30005KT 10SM BKN090 07/03 A2967 1310 76 700 300/05 RMK AO2
94908KDBQ DBQ20020224192009602/24/02 19:20:31  5-MIN KDBQ 250120Z 30007KT 10SM BKN090 09/03 A2968 1300 68 900 300/07 RMK AO2
94908KDBQ DBQ20020224192509702/24/02 19:25:31  5-MIN KDBQ 250125Z 31007KT 10SM BKN085 09/04 A2968 1300 68 1000 310/07 RMK AO2
94908KDBQ DBQ20020224193009602/24/02 19:30:31  5-MIN KDBQ 250130Z 31007KT 10SM BKN090 09/04 A2968 1300 71 900 310/07 RMK AO2
94908KDBQ DBQ20020224193509702/24/02 19:35:31  5-MIN KDBQ 250135Z 31007KT 10SM BKN090 09/03 A2969 1290 65 1000 310/07 RMK AO2
94908KDBQ DBQ20020224194009702/24/02 19:40:31  5-MIN KDBQ 250140Z 32006KT 10SM SCT085 09/03 A2968 1300 65 1000 320/06 RMK AO2
94908KDBQ DBQ20020224194509602/24/02 19:45:31  5-MIN KDBQ 250145Z 33006KT 10SM SCT090 08/03 A2968 1300 68 800 330/06 RMK AO2
94908KDBQ DBQ20020224195011402/24/02 19:50:31  5-MIN KDBQ 250150Z 33008KT 10SM BKN095 09/03 A2968 1300 63 1000 330/08 RMK AO2 SLP058 T00940028
94908KDBQ DBQ20020224195511402/24/02 19:55:31  5-MIN KDBQ 250155Z 33008KT 10SM BKN095 10/03 A2968 1300 60 1000 330/08 RMK AO2 SLP056 T01000028
94908KDBQ DBQ20020224200010702/24/02 20:00:31  5-MIN KDBQ 250200Z AUTO 34006KT 10SM BKN100 11/03 A2968 1300 58 1100 340/06 RMK AO2 TSNO
94908KDBQ DBQ20020224200510702/24/02 20:05:31  5-MIN KDBQ 250205Z AUTO 35005KT 10SM BKN100 09/03 A2968 1300 63 1000 350/05 RMK AO2 TSNO
94908KDBQ DBQ20020224201011402/24/02 20:10:31  5-MIN KDBQ 250210Z AUTO 35004KT 10SM BKN100 BKN120 09/03 A2968 1300 63 1000 350/04 RMK AO2 TSNO
94908KDBQ DBQ20020224201511402/24/02 20:15:31  5-MIN KDBQ 250215Z AUTO 36005KT 10SM SCT100 BKN120 09/02 A2968 1300 60 1000 360/05 RMK AO2 TSNO
94908KDBQ DBQ20020224202010602/24/02 20:20:31  5-MIN KDBQ 250220Z AUTO 02005KT 10SM SCT100 09/02 A2968 1300 63 900 020/05 RMK AO2 TSNO
94908KDBQ DBQ20020224202510602/24/02 20:25:31  5-MIN KDBQ 250225Z AUTO 03006KT 10SM FEW100 09/02 A2968 1300 63 900 020/06 RMK AO2 TSNO
94908KDBQ DBQ20020224203010702/24/02 20:30:31  5-MIN KDBQ 250230Z AUTO 02006KT 10SM FEW110 11/03 A2968 1300 58 1100 020/06 RMK AO2 TSNO
94908KDBQ DBQ20020224203510702/24/02 20:35:31  5-MIN KDBQ 250235Z AUTO 36006KT 10SM FEW110 11/03 A2969 1300 58 1100 360/06 RMK AO2 TSNO
94908KDBQ DBQ20020224204010702/24/02 20:40:31  5-MIN KDBQ 250240Z AUTO 35007KT 10SM FEW120 09/03 A2969 1290 65 1000 350/07 RMK AO2 TSNO
94908KDBQ DBQ20020224204510702/24/02 20:45:31  5-MIN KDBQ 250245Z AUTO 35008KT 10SM FEW120 09/03 A2969 1290 65 1000 350/08 RMK AO2 TSNO
94908KDBQ DBQ20020224205013002/24/02 20:50:31  5-MIN KDBQ 250250Z AUTO 34009KT 10SM FEW100 09/03 A2969 1290 65 1000 340/09 RMK AO2 SLP059 T00940033 53010 TSNO
94908KDBQ DBQ20020224205513002/24/02 20:55:31  5-MIN KDBQ 250255Z AUTO 34011KT 10SM FEW090 09/03 A2969 1290 65 1000 340/11 RMK AO2 SLP060 T00940033 51012 TSNO
94908KDBQ DBQ20020224210010702/24/02 21:00:31  5-MIN KDBQ 250300Z AUTO 34009KT 10SM FEW085 09/03 A2969 1290 65 1000 340/09 RMK AO2 TSNO
94908KDBQ DBQ20020224210510602/24/02 21:05:31  5-MIN KDBQ 250305Z AUTO 33009KT 10SM FEW085 09/03 A2970 1280 65 900 330/09 RMK AO2 TSNO
94908KDBQ DBQ20020224211010602/24/02 21:10:31  5-MIN KDBQ 250310Z AUTO 33009KT 10SM FEW085 08/03 A2970 1280 68 800 330/09 RMK AO2 TSNO
94908KDBQ DBQ20020224211510602/24/02 21:15:31  5-MIN KDBQ 250315Z AUTO 35009KT 10SM FEW085 08/03 A2970 1280 68 800 340/09 RMK AO2 TSNO
94908KDBQ DBQ20020224212010302/24/02 21:20:31  5-MIN KDBQ 250320Z AUTO 35009KT 10SM CLR 09/03 A2970 1280 65 900 350/09 RMK AO2 TSNO
94908KDBQ DBQ20020224212510402/24/02 21:25:31  5-MIN KDBQ 250325Z AUTO 35009KT 10SM CLR 09/03 A2970 1280 63 1000 350/09 RMK AO2 TSNO
94908KDBQ DBQ20020224213010302/24/02 21:30:31  5-MIN KDBQ 250330Z AUTO 35009KT 10SM CLR 09/03 A2970 1280 65 900 350/09 RMK AO2 TSNO
94908KDBQ DBQ20020224213510302/24/02 21:35:31  5-MIN KDBQ 250335Z AUTO 35008KT 10SM CLR 09/03 A2970 1280 65 900 350/08 RMK AO2 TSNO
94908KDBQ DBQ20020224214010302/24/02 21:40:31  5-MIN KDBQ 250340Z AUTO 35009KT 10SM CLR 08/03 A2971 1280 68 800 340/09 RMK AO2 TSNO
94908KDBQ DBQ20020224214510302/24/02 21:45:31  5-MIN KDBQ 250345Z AUTO 34010KT 10SM CLR 08/03 A2971 1280 68 800 340/10 RMK AO2 TSNO
94908KDBQ DBQ20020224215012002/24/02 21:50:31  5-MIN KDBQ 250350Z AUTO 34013KT 10SM CLR 08/03 A2971 1280 68 800 330/13 RMK AO2 SLP064 T00830028 TSNO
94908KDBQ DBQ20020224215512002/24/02 21:55:31  5-MIN KDBQ 250355Z AUTO 34012KT 10SM CLR 09/03 A2971 1280 65 900 340/12 RMK AO2 SLP063 T00890028 TSNO
94908KDBQ DBQ20020224220010302/24/02 22:00:31  5-MIN KDBQ 250400Z AUTO 34013KT 10SM CLR 08/03 A2971 1270 70 800 340/13 RMK AO2 TSNO
94908KDBQ DBQ20020224220510302/24/02 22:05:31  5-MIN KDBQ 250405Z AUTO 35012KT 10SM CLR 08/03 A2971 1280 70 800 350/12 RMK AO2 TSNO
94908KDBQ DBQ20020224221010302/24/02 22:10:31  5-MIN KDBQ 250410Z AUTO 35012KT 10SM CLR 08/03 A2971 1280 70 800 350/12 RMK AO2 TSNO
94908KDBQ DBQ20020224221510302/24/02 22:15:31  5-MIN KDBQ 250415Z AUTO 35011KT 10SM CLR 08/03 A2971 1270 70 700 350/11 RMK AO2 TSNO
94908KDBQ DBQ20020224222010302/24/02 22:20:31  5-MIN KDBQ 250420Z AUTO 35012KT 10SM CLR 07/03 A2971 1270 73 700 350/12 RMK AO2 TSNO
94908KDBQ DBQ20020224222510302/24/02 22:25:31  5-MIN KDBQ 250425Z AUTO 35013KT 10SM CLR 07/03 A2971 1270 73 700 350/13 RMK AO2 TSNO
94908KDBQ DBQ20020224223010302/24/02 22:30:31  5-MIN KDBQ 250430Z AUTO 35011KT 10SM CLR 07/03 A2972 1270 73 700 350/11 RMK AO2 TSNO
94908KDBQ DBQ20020224223510302/24/02 22:35:31  5-MIN KDBQ 250435Z AUTO 35011KT 10SM CLR 07/02 A2971 1270 73 600 350/11 RMK AO2 TSNO
94908KDBQ DBQ20020224224010302/24/02 22:40:31  5-MIN KDBQ 250440Z AUTO 35013KT 10SM CLR 07/02 A2972 1270 73 600 350/13 RMK AO2 TSNO
94908KDBQ DBQ20020224224510302/24/02 22:45:31  5-MIN KDBQ 250445Z AUTO 35013KT 10SM CLR 07/02 A2972 1260 73 600 340/13 RMK AO2 TSNO
94908KDBQ DBQ20020224225012002/24/02 22:50:31  5-MIN KDBQ 250450Z AUTO 35014KT 10SM CLR 06/02 A2972 1260 76 500 350/14 RMK AO2 SLP069 T00610022 TSNO
94908KDBQ DBQ20020224225512002/24/02 22:55:31  5-MIN KDBQ 250455Z AUTO 35013KT 10SM CLR 06/02 A2973 1260 76 500 350/13 RMK AO2 SLP070 T00610022 TSNO
94908KDBQ DBQ20020224230010302/24/02 23:00:31  5-MIN KDBQ 250500Z AUTO 35013KT 10SM CLR 06/02 A2973 1260 76 500 340/13 RMK AO2 TSNO
94908KDBQ DBQ20020224230510302/24/02 23:05:31  5-MIN KDBQ 250505Z AUTO 35014KT 10SM CLR 06/02 A2973 1260 76 500 350/14 RMK AO2 TSNO
94908KDBQ DBQ20020224231010302/24/02 23:10:31  5-MIN KDBQ 250510Z AUTO 35013KT 10SM CLR 06/02 A2973 1250 76 500 350/13 RMK AO2 TSNO
94908KDBQ DBQ20020224231510302/24/02 23:15:31  5-MIN KDBQ 250515Z AUTO 35013KT 10SM CLR 06/02 A2973 1250 79 500 350/13 RMK AO2 TSNO
94908KDBQ DBQ20020224232010202/24/02 23:20:31  5-MIN KDBQ 250520Z AUTO 36012KT 9SM CLR 06/02 A2974 1250 79 400 350/12 RMK AO2 TSNO
94908KDBQ DBQ20020224232510502/24/02 23:25:31  5-MIN KDBQ 250525Z AUTO 36013KT 9SM FEW120 06/02 A2974 1250 79 400 360/13 RMK AO2 TSNO
94908KDBQ DBQ20020224233010502/24/02 23:30:31  5-MIN KDBQ 250530Z AUTO 36012KT 9SM FEW120 06/02 A2974 1240 76 400 360/12 RMK AO2 TSNO
94908KDBQ DBQ20020224233510502/24/02 23:35:31  5-MIN KDBQ 250535Z AUTO 01012KT 9SM FEW120 06/02 A2975 1240 76 400 360/12 RMK AO2 TSNO
94908KDBQ DBQ20020224234010502/24/02 23:40:31  5-MIN KDBQ 250540Z AUTO 35013KT 9SM FEW120 06/02 A2975 1240 76 400 350/13 RMK AO2 TSNO
94908KDBQ DBQ20020224234511102/24/02 23:45:31  5-MIN KDBQ 250545Z AUTO 36015G20KT 9SM FEW120 05/02 A2975 1240 79 400 360/15G20 RMK AO2 TSNO
94908KDBQ DBQ20020224235015602/24/02 23:50:31  5-MIN KDBQ 250550Z AUTO 36013G20KT 8SM FEW080 05/01 A2975 1230 76 400 360/13G20 RMK AO2 SLP078 T00500011 10128 20050 401720033 51012 TSNO
94908KDBQ DBQ20020224235515002/24/02 23:55:31  5-MIN KDBQ 250555Z AUTO 36013KT 8SM FEW080 05/01 A2975 1230 76 400 360/13 RMK AO2 SLP079 T00500011 10128 20050 401720033 53020 TSNO
94908KDBQ DBQ20020225000010502/25/02 00:00:31  5-MIN KDBQ 250600Z AUTO 36014KT 8SM FEW070 05/01 A2976 1230 76 400 360/14 RMK AO2 TSNO
94908KDBQ DBQ20020225000511102/25/02 00:05:31  5-MIN KDBQ 250605Z AUTO 36014G19KT 8SM FEW070 05/01 A2976 1230 76 400 360/14G19 RMK AO2 TSNO
94908KDBQ DBQ20020225001010502/25/02 00:10:31  5-MIN KDBQ 250610Z AUTO 36014KT 8SM FEW075 05/01 A2976 1220 76 400 360/14 RMK AO2 TSNO
94908KDBQ DBQ20020225001511802/25/02 00:15:31  5-MIN KDBQ 250615Z AUTO 36016G21KT 8SM FEW080 SCT120 04/01 A2976 1220 79 300 360/16G21 RMK AO2 TSNO
94908KDBQ DBQ20020225002011802/25/02 00:20:31  5-MIN KDBQ 250620Z AUTO 01013G21KT 8SM FEW095 SCT120 04/01 A2977 1220 79 300 360/13G21 RMK AO2 TSNO
94908KDBQ DBQ20020225002511202/25/02 00:25:31  5-MIN KDBQ 250625Z AUTO 35011KT 8SM FEW080 BKN100 04/01 A2977 1220 79 300 350/11 RMK AO2 TSNO
94908KDBQ DBQ20020225003010502/25/02 00:30:31  5-MIN KDBQ 250630Z AUTO 35012KT 8SM BKN100 04/01 A2977 1220 79 300 350/12 RMK AO2 TSNO
94908KDBQ DBQ20020225003511202/25/02 00:35:31  5-MIN KDBQ 250635Z AUTO 35012KT 7SM FEW017 BKN100 04/01 A2978 1210 79 300 350/12 RMK AO2 TSNO
94908KDBQ DBQ20020225004011902/25/02 00:40:31  5-MIN KDBQ 250640Z AUTO 34018KT 7SM SCT017 BKN100 OVC120 04/01 A2977 1210 82 200 340/18 RMK AO2 TSNO
94908KDBQ DBQ20020225004511802/25/02 00:45:31  5-MIN KDBQ 250645Z AUTO 34016G20KT 8SM SCT017 OVC100 03/01 A2977 1210 82 100 340/16G20 RMK AO2 TSNO
94908KDBQ DBQ20020225005012902/25/02 00:50:31  5-MIN KDBQ 250650Z AUTO 35017KT 8SM FEW017 OVC100 03/01 A2977 1220 82 100 350/17 RMK AO2 SLP086 T00330006 TSNO
94908KDBQ DBQ20020225005512902/25/02 00:55:31  5-MIN KDBQ 250655Z AUTO 34015KT 8SM SCT017 OVC100 03/01 A2978 1210 82 100 340/15 RMK AO2 SLP087 T00330006 TSNO
94908KDBQ DBQ20020225010011202/25/02 01:00:31  5-MIN KDBQ 250700Z AUTO 35014KT 8SM BKN017 OVC100 03/01 A2978 1210 85 100 350/14 RMK AO2 TSNO
94908KDBQ DBQ20020225010511202/25/02 01:05:31  5-MIN KDBQ 250705Z AUTO 34016KT 8SM BKN017 OVC100 03/01 A2978 1210 85 100 340/16 RMK AO2 TSNO
94908KDBQ DBQ20020225011011802/25/02 01:10:31  5-MIN KDBQ 250710Z AUTO 35013G20KT 8SM BKN017 OVC100 03/01 A2978 1210 85 100 350/13G20 RMK AO2 TSNO
94908KDBQ DBQ20020225011511802/25/02 01:15:31  5-MIN KDBQ 250715Z AUTO 35014G20KT 8SM BKN017 OVC095 03/01 A2979 1200 85 100 340/14G20 RMK AO2 TSNO
94908KDBQ DBQ20020225012010902/25/02 01:20:31  5-MIN KDBQ 250720Z AUTO 35012G19KT 8SM OVC015 03/01 A2979 1200 85 0 350/12G19 RMK AO2 TSNO
94908KDBQ DBQ20020225012510902/25/02 01:25:31  5-MIN KDBQ 250725Z AUTO 35015G20KT 8SM OVC015 03/00 A2979 1200 82 0 350/15G20 RMK AO2 TSNO
94908KDBQ DBQ20020225013010302/25/02 01:30:31  5-MIN KDBQ 250730Z AUTO 35014KT 8SM OVC015 02/00 A2979 1200 85 0 340/14 RMK AO2 TSNO
94908KDBQ DBQ20020225013510302/25/02 01:35:31  5-MIN KDBQ 250735Z AUTO 35015KT 8SM OVC013 02/00 A2979 1200 85 0 350/15 RMK AO2 TSNO
94908KDBQ DBQ20020225014010302/25/02 01:40:31  5-MIN KDBQ 250740Z AUTO 34015KT 8SM OVC013 02/00 A2980 1190 85 0 340/15 RMK AO2 TSNO
94908KDBQ DBQ20020225014510302/25/02 01:45:31  5-MIN KDBQ 250745Z AUTO 35012KT 8SM OVC011 02/00 A2980 1190 85 0 350/12 RMK AO2 TSNO
94908KDBQ DBQ20020225015013502/25/02 01:50:31  5-MIN KDBQ 250750Z AUTO 35014KT 8SM OVC011 02/00 A2980 1190 89 -100 350/14 RMK AO2 CIG 009V014 SLP097 T00170000 TSNO
94908KDBQ DBQ20020225015513502/25/02 01:55:31  5-MIN KDBQ 250755Z AUTO 34013KT 8SM OVC009 02/00 A2981 1180 89 -100 340/13 RMK AO2 CIG 008V014 SLP097 T00170000 TSNO
94908KDBQ DBQ20020225020011802/25/02 02:00:31  5-MIN KDBQ 250800Z AUTO 34015KT 8SM OVC009 02/00 A2980 1190 89 -100 340/15 RMK AO2 CIG 008V012 TSNO
94908KDBQ DBQ20020225020510602/25/02 02:05:31  5-MIN KDBQ 250805Z AUTO 34016KT 8SM OVC009 02/00 A2980 1190 89 -100 340/16 RMK AO2 TSNO
94908KDBQ DBQ20020225021010702/25/02 02:10:31  5-MIN KDBQ 250810Z AUTO 34017KT 8SM OVC009 01/M01 A2981 1180 89 -100 340/17 RMK AO2 TSNO
94908KDBQ DBQ20020225021510702/25/02 02:15:31  5-MIN KDBQ 250815Z AUTO 34015KT 8SM OVC007 01/M01 A2981 1180 89 -100 340/15 RMK AO2 TSNO
94908KDBQ DBQ20020225022010702/25/02 02:20:31  5-MIN KDBQ 250820Z AUTO 34013KT 8SM OVC007 01/M01 A2981 1180 89 -100 340/13 RMK AO2 TSNO
94908KDBQ DBQ20020225022511302/25/02 02:25:31  5-MIN KDBQ 250825Z AUTO 34016G20KT 8SM OVC007 01/M01 A2981 1180 89 -100 340/16G20 RMK AO2 TSNO
94908KDBQ DBQ20020225023011302/25/02 02:30:31  5-MIN KDBQ 250830Z AUTO 34012G20KT 8SM OVC007 01/M01 A2981 1180 89 -100 340/12G20 RMK AO2 TSNO
94908KDBQ DBQ20020225023510702/25/02 02:35:31  5-MIN KDBQ 250835Z AUTO 34013KT 8SM OVC007 01/M01 A2982 1170 89 -100 340/13 RMK AO2 TSNO
94908KDBQ DBQ20020225024011302/25/02 02:40:31  5-MIN KDBQ 250840Z AUTO 35015G18KT 8SM OVC007 01/M01 A2982 1170 89 -100 340/15G18 RMK AO2 TSNO
94908KDBQ DBQ20020225024510702/25/02 02:45:31  5-MIN KDBQ 250845Z AUTO 34015KT 8SM OVC007 01/M01 A2982 1170 89 -200 340/15 RMK AO2 TSNO
94908KDBQ DBQ20020225025013002/25/02 02:50:31  5-MIN KDBQ 250850Z AUTO 34011KT 8SM OVC007 01/M01 A2982 1170 89 -100 340/11 RMK AO2 SLP104 T00111006 53020 TSNO
94908KDBQ DBQ20020225025513002/25/02 02:55:31  5-MIN KDBQ 250855Z AUTO 34014KT 8SM OVC007 01/M01 A2982 1170 89 -100 340/14 RMK AO2 SLP103 T00111006 51023 TSNO
94908KDBQ DBQ20020225030010702/25/02 03:00:31  5-MIN KDBQ 250900Z AUTO 35013KT 8SM OVC007 01/M01 A2982 1170 92 -200 350/13 RMK AO2 TSNO
94908KDBQ DBQ20020225030510702/25/02 03:05:31  5-MIN KDBQ 250905Z AUTO 35012KT 9SM OVC007 01/M01 A2982 1170 92 -200 340/12 RMK AO2 TSNO
94908KDBQ DBQ20020225031010702/25/02 03:10:31  5-MIN KDBQ 250910Z AUTO 34014KT 9SM OVC007 01/M01 A2983 1170 92 -200 340/14 RMK AO2 TSNO
94908KDBQ DBQ20020225031512302/25/02 03:15:31  5-MIN KDBQ 250915Z AUTO 34012KT 8SM -SN OVC007 01/M01 A2983 1160 92 -200 340/12 RMK AO2 SNB15 P0000 TSNO
94908KDBQ DBQ20020225032012602/25/02 03:20:31  5-MIN KDBQ 250920Z AUTO 35011KT 6SM -SN BR OVC007 01/M01 A2983 1170 92 -200 350/11 RMK AO2 SNB15 P0000 TSNO
94908KDBQ DBQ20020225032512602/25/02 03:25:31  5-MIN KDBQ 250925Z AUTO 35014KT 5SM -SN BR OVC007 01/M01 A2983 1170 92 -200 350/14 RMK AO2 SNB15 P0000 TSNO
94908KDBQ DBQ20020225033012602/25/02 03:30:31  5-MIN KDBQ 250930Z AUTO 35014KT 3SM -SN BR OVC007 01/M01 A2983 1160 92 -200 340/14 RMK AO2 SNB15 P0000 TSNO
94908KDBQ DBQ20020225033512602/25/02 03:35:31  5-MIN KDBQ 250935Z AUTO 34012KT 2SM -SN BR OVC007 01/M01 A2983 1160 92 -200 340/12 RMK AO2 SNB15 P0000 TSNO
94908KDBQ DBQ20020225034013002/25/02 03:40:31  5-MIN KDBQ 250940Z AUTO 34012KT 1 3/4SM -SN BR OVC007 00/M01 A2984 1150 96 -300 340/12 RMK AO2 SNB15 P0000 TSNO
94908KDBQ DBQ20020225034513002/25/02 03:45:31  5-MIN KDBQ 250945Z AUTO 34013KT 2 1/2SM -SN BR OVC007 01/M01 A2985 1150 92 -200 340/13 RMK AO2 SNB15 P0000 TSNO
94908KDBQ DBQ20020225035014702/25/02 03:50:31  5-MIN KDBQ 250950Z AUTO 34010KT 2 1/2SM -SN BR OVC007 00/M01 A2985 1150 96 -300 340/10 RMK AO2 SNB15 SLP112 P0000 T00001006 TSNO
94908KDBQ DBQ20020225035515902/25/02 03:55:31  5-MIN KDBQ 250955Z AUTO 34011KT 1 3/4SM -SN BR OVC007 00/M01 A2985 1140 96 -300 340/11 RMK AO2 SNB15 CIG 005V009 SLP113 P0000 T00001006 TSNO
94908KDBQ DBQ20020225040013602/25/02 04:00:31  5-MIN KDBQ 251000Z AUTO 34011KT 1 3/4SM -SN BR OVC007 00/M01 A2985 1140 96 -300 340/11 RMK AO2 CIG 005V008 P0000 TSNO
94908KDBQ DBQ20020225040513202/25/02 04:05:31  5-MIN KDBQ 251005Z AUTO 34011KT 2SM -SN BR OVC007 00/M01 A2985 1140 96 -300 340/11 RMK AO2 CIG 004V008 P0000 TSNO
94908KDBQ DBQ20020225041013602/25/02 04:10:31  5-MIN KDBQ 251010Z AUTO 34011KT 2 1/2SM -SN BR OVC007 00/M01 A2986 1140 96 -300 340/11 RMK AO2 CIG 004V008 P0000 TSNO
94908KDBQ DBQ20020225041512402/25/02 04:15:31  5-MIN KDBQ 251015Z AUTO 34011KT 2 1/2SM -SN BR OVC005 00/M01 A2986 1140 96 -300 340/11 RMK AO2 P0000 TSNO
94908KDBQ DBQ20020225042013602/25/02 04:20:31  5-MIN KDBQ 251020Z AUTO 34012KT 2 1/2SM -SN BR OVC005 00/M01 A2987 1130 96 -300 330/12 RMK AO2 CIG 004V010 P0000 TSNO
94908KDBQ DBQ20020225042513602/25/02 04:25:31  5-MIN KDBQ 251025Z AUTO 33011KT 2 1/2SM -SN BR OVC005 00/M01 A2987 1120 96 -300 330/11 RMK AO2 CIG 004V009 P0000 TSNO
94908KDBQ DBQ20020225043013202/25/02 04:30:31  5-MIN KDBQ 251030Z AUTO 33011KT 3SM -SN BR OVC005 00/M01 A2988 1120 96 -300 330/11 RMK AO2 CIG 004V009 P0000 TSNO
94908KDBQ DBQ20020225043512702/25/02 04:35:31  5-MIN KDBQ 251035Z AUTO 33013KT 3SM -SN BR BKN005 OVC009 00/M01 A2988 1120 96 -400 330/13 RMK AO2 P0000 TSNO
94908KDBQ DBQ20020225044013202/25/02 04:40:31  5-MIN KDBQ 251040Z AUTO 33010KT 3SM -SN BR OVC005 00/M01 A2988 1110 96 -400 330/10 RMK AO2 CIG 004V010 P0000 TSNO
94908KDBQ DBQ20020225044513202/25/02 04:45:31  5-MIN KDBQ 251045Z AUTO 33013KT 3SM -SN BR OVC005 00/M01 A2989 1110 96 -400 330/13 RMK AO2 CIG 004V010 P0000 TSNO
94908KDBQ DBQ20020225045014902/25/02 04:50:31  5-MIN KDBQ 251050Z AUTO 33016KT 4SM -SN BR OVC005 00/M01 A2988 1110 92 -400 330/16 RMK AO2 CIG 004V010 SLP124 P0000 T00001011 TSNO
94908KDBQ DBQ20020225045514902/25/02 04:55:31  5-MIN KDBQ 251055Z AUTO 33013KT 5SM -SN BR OVC005 00/M01 A2988 1110 92 -400 330/13 RMK AO2 CIG 004V009 SLP125 P0000 T00001011 TSNO
94908KDBQ DBQ20020225050013202/25/02 05:00:31  5-MIN KDBQ 251100Z AUTO 33013KT 5SM -SN BR OVC005 00/M01 A2989 1110 92 -400 330/13 RMK AO2 CIG 005V009 P0000 TSNO
94908KDBQ DBQ20020225050513202/25/02 05:05:31  5-MIN KDBQ 251105Z AUTO 34015KT 6SM -SN BR OVC005 00/M01 A2988 1110 92 -400 330/15 RMK AO2 CIG 005V009 P0000 TSNO
94908KDBQ DBQ20020225051011902/25/02 05:10:31  5-MIN KDBQ 251110Z AUTO 34015KT 7SM OVC005 00/M01 A2988 1110 92 -400 340/15 RMK AO2 SNE08 P0000 TSNO
94908KDBQ DBQ20020225051513102/25/02 05:15:31  5-MIN KDBQ 251115Z AUTO 33014KT 8SM OVC007 00/M01 A2989 1110 92 -400 330/14 RMK AO2 SNE08 CIG 005V009 P0000 TSNO
94908KDBQ DBQ20020225052013102/25/02 05:20:31  5-MIN KDBQ 251120Z AUTO 34015KT 9SM OVC007 00/M01 A2989 1110 92 -400 330/15 RMK AO2 SNE08 CIG 005V009 P0000 TSNO
94908KDBQ DBQ20020225052511902/25/02 05:25:31  5-MIN KDBQ 251125Z AUTO 34015KT 9SM OVC007 00/M01 A2989 1110 92 -400 340/15 RMK AO2 SNE08 P0000 TSNO
94908KDBQ DBQ20020225053012002/25/02 05:30:31  5-MIN KDBQ 251130Z AUTO 34017KT 10SM OVC007 00/M01 A2989 1100 92 -400 340/17 RMK AO2 SNE08 P0000 TSNO
94908KDBQ DBQ20020225053512602/25/02 05:35:31  5-MIN KDBQ 251135Z AUTO 34014G21KT 10SM OVC007 00/M01 A2990 1100 92 -400 340/14G21 RMK AO2 SNE08 P0000 TSNO
94908KDBQ DBQ20020225054013202/25/02 05:40:31  5-MIN KDBQ 251140Z AUTO 34016KT 10SM OVC007 00/M01 A2991 1090 92 -400 340/16 RMK AO2 SNE08 CIG 007V011 P0000 TSNO
94908KDBQ DBQ20020225054513902/25/02 05:45:31  5-MIN KDBQ 251145Z AUTO 33015KT 10SM OVC009 00/M01 A2991 1080 92 -400 330/15 RMK AO2 SNE08 CIG 007V011 PRESRR P0000 TSNO
94908KDBQ DBQ20020225055018002/25/02 05:50:31  5-MIN KDBQ 251150Z AUTO 33015KT 10SM OVC009 00/M01 A2992 1080 92 -400 330/15 RMK AO2 SNE08 CIG 007V011 PRESRR SLP139 P0000 60000 T00001011 10050 20000 51023 TSNO
94908KDBQ DBQ20020225055516302/25/02 05:55:31  5-MIN KDBQ 251155Z 33014KT 10SM OVC009 00/M01 A2993 1070 92 -400 330/14 RMK AO2 SNE08 CIG 008V011 SLP141 P0000 60000 T00001011 10050 20000 53034
94908KDBQ DBQ20020225060011002/25/02 06:00:31  5-MIN KDBQ 251200Z 33015KT 10SM OVC009 00/M01 A2993 1070 92 -400 330/15 RMK AO2 CIG 008V012
94908KDBQ DBQ20020225060509802/25/02 06:05:31  5-MIN KDBQ 251205Z 32016KT 10SM OVC009 00/M01 A2993 1070 92 -400 320/16 RMK AO2
94908KDBQ DBQ20020225061011002/25/02 06:10:31  5-MIN KDBQ 251210Z 34012KT 10SM OVC009 01/M01 A2993 1070 89 -300 340/12 RMK AO2 CIG 008V013
94908KDBQ DBQ20020225061509802/25/02 06:15:31  5-MIN KDBQ 251215Z 33012KT 10SM OVC011 00/M01 A2993 1070 92 -400 330/12 RMK AO2
94908KDBQ DBQ20020225062009802/25/02 06:20:31  5-MIN KDBQ 251220Z 34013KT 10SM OVC011 01/M02 A2993 1070 85 -300 340/13 RMK AO2
94908KDBQ DBQ20020225062509802/25/02 06:25:31  5-MIN KDBQ 251225Z 34013KT 10SM OVC011 01/M02 A2993 1070 85 -300 340/13 RMK AO2
94908KDBQ DBQ20020225063010402/25/02 06:30:31  5-MIN KDBQ 251230Z 34017G20KT 10SM OVC013 01/M02 A2993 1070 85 -300 340/17G20 RMK AO2
94908KDBQ DBQ20020225063510402/25/02 06:35:31  5-MIN KDBQ 251235Z 34016G21KT 10SM OVC013 01/M02 A2993 1070 85 -300 340/16G21 RMK AO2
94908KDBQ DBQ20020225064010402/25/02 06:40:31  5-MIN KDBQ 251240Z 34014G21KT 10SM OVC013 01/M02 A2994 1060 85 -300 340/14G21 RMK AO2
94908KDBQ DBQ20020225064509802/25/02 06:45:31  5-MIN KDBQ 251245Z 34015KT 10SM OVC013 01/M02 A2994 1060 82 -300 340/15 RMK AO2
94908KDBQ DBQ20020225065011502/25/02 06:50:31  5-MIN KDBQ 251250Z 35015KT 10SM OVC013 01/M02 A2993 1070 82 -300 340/15 RMK AO2 SLP144 T00061022
94908KDBQ DBQ20020225065511502/25/02 06:55:31  5-MIN KDBQ 251255Z 35015KT 10SM OVC013 00/M02 A2993 1070 85 -400 350/15 RMK AO2 SLP145 T00001022
94908KDBQ DBQ20020225070009802/25/02 07:00:31  5-MIN KDBQ 251300Z 35014KT 10SM OVC015 00/M02 A2993 1060 85 -400 350/14 RMK AO2
94908KDBQ DBQ20020225070509802/25/02 07:05:31  5-MIN KDBQ 251305Z 35014KT 10SM OVC015 00/M02 A2994 1060 85 -400 350/14 RMK AO2
94908KDBQ DBQ20020225071009802/25/02 07:10:31  5-MIN KDBQ 251310Z 35013KT 10SM OVC015 01/M02 A2994 1060 82 -400 350/13 RMK AO2
94908KDBQ DBQ20020225071509802/25/02 07:15:31  5-MIN KDBQ 251315Z 35012KT 10SM OVC015 01/M02 A2995 1050 82 -400 340/12 RMK AO2
94908KDBQ DBQ20020225072009802/25/02 07:20:31  5-MIN KDBQ 251320Z 35014KT 10SM OVC015 00/M02 A2995 1050 85 -400 350/14 RMK AO2
94908KDBQ DBQ20020225072509802/25/02 07:25:31  5-MIN KDBQ 251325Z 35014KT 10SM OVC015 00/M02 A2995 1050 85 -400 340/14 RMK AO2
94908KDBQ DBQ20020225073011402/25/02 07:30:31  5-MIN KDBQ 251330Z 35014KT 10SM -SN OVC015 00/M02 A2996 1040 85 -400 350/14 RMK AO2 SNB29 P0000
94908KDBQ DBQ20020225073511302/25/02 07:35:31  5-MIN KDBQ 251335Z 35015KT 9SM -SN OVC015 00/M02 A2995 1050 85 -400 350/15 RMK AO2 SNB29 P0000
94908KDBQ DBQ20020225074011802/25/02 07:40:31  5-MIN KDBQ 251340Z 35016G20KT 9SM OVC015 00/M03 A2996 1050 81 -400 350/16G20 RMK AO2 SNB29E40 P0000
94908KDBQ DBQ20020225074511902/25/02 07:45:31  5-MIN KDBQ 251345Z 35014G20KT 9SM -SN OVC015 00/M03 A2996 1040 81 -400 350/14G20 RMK AO2 SNB29 P0000
94908KDBQ DBQ20020225075013002/25/02 07:50:31  5-MIN KDBQ 251350Z 35014KT 8SM -SN OVC015 00/M03 A2996 1040 81 -400 350/14 RMK AO2 SNB29 SLP153 P0000 T00001028
94908KDBQ DBQ20020225075513002/25/02 07:55:31  5-MIN KDBQ 251355Z 36014KT 6SM -SN OVC015 00/M03 A2996 1040 81 -400 350/14 RMK AO2 SNB29 SLP154 P0000 T00001028
94908KDBQ DBQ20020225080010702/25/02 08:00:31  5-MIN KDBQ 251400Z 35010KT 5SM -SN OVC015 00/M03 A2997 1030 81 -500 350/10 RMK AO2 P0000
94908KDBQ DBQ20020225080510702/25/02 08:05:31  5-MIN KDBQ 251405Z 36012KT 6SM -SN OVC015 00/M03 A2997 1030 81 -500 360/12 RMK AO2 P0000
94908KDBQ DBQ20020225081010702/25/02 08:10:31  5-MIN KDBQ 251410Z 36011KT 8SM -SN OVC015 00/M03 A2998 1030 81 -500 360/11 RMK AO2 P0000
94908KDBQ DBQ20020225081511302/25/02 08:15:31  5-MIN KDBQ 251415Z 36014G20KT 8SM -SN OVC015 00/M03 A2998 1020 81 -500 360/14G20 RMK AO2 P0000
94908KDBQ DBQ20020225082011302/25/02 08:20:31  5-MIN KDBQ 251420Z 35013G20KT 8SM -SN OVC015 00/M03 A2999 1020 81 -500 340/13G20 RMK AO2 P0000
94908KDBQ DBQ20020225082511602/25/02 08:25:31  5-MIN KDBQ 251425Z 35013KT 9SM OVC015 00/M03 A2999 1010 81 -500 350/13 RMK AO2 SNE24 PRESRR P0000
94908KDBQ DBQ20020225083011002/25/02 08:30:31  5-MIN KDBQ 251430Z 35013KT 10SM OVC017 00/M03 A2999 1010 81 -500 340/13 RMK AO2 SNE24 P0000
94908KDBQ DBQ20020225083511002/25/02 08:35:31  5-MIN KDBQ 251435Z 35010KT 10SM OVC017 00/M03 A3000 1010 81 -500 350/10 RMK AO2 SNE24 P0000
94908KDBQ DBQ20020225084011002/25/02 08:40:31  5-MIN KDBQ 251440Z 35012KT 10SM OVC017 00/M03 A3000 1010 81 -500 350/12 RMK AO2 SNE24 P0000
94908KDBQ DBQ20020225084511002/25/02 08:45:31  5-MIN KDBQ 251445Z 35013KT 10SM OVC017 00/M03 A3000 1000 78 -500 350/13 RMK AO2 SNE24 P0000
94908KDBQ DBQ20020225085013902/25/02 08:50:31  5-MIN KDBQ 251450Z 35014KT 10SM OVC019 00/M03 A3000 1000 81 -500 350/14 RMK AO2 SNE24 SLP167 P0000 60000 T00001028 53034
94908KDBQ DBQ20020225085513902/25/02 08:55:31  5-MIN KDBQ 251455Z 36012KT 10SM OVC019 00/M03 A3000 1010 81 -500 360/12 RMK AO2 SNE24 SLP165 P0000 60000 T00001028 53022
94908KDBQ DBQ20020225090009802/25/02 09:00:31  5-MIN KDBQ 251500Z 35012KT 10SM OVC019 00/M03 A3000 1010 78 -500 350/12 RMK AO2
94908KDBQ DBQ20020225090509802/25/02 09:05:31  5-MIN KDBQ 251505Z 35013KT 10SM OVC019 00/M03 A3000 1000 78 -500 350/13 RMK AO2
94908KDBQ DBQ20020225091009802/25/02 09:10:31  5-MIN KDBQ 251510Z 35014KT 10SM OVC019 00/M03 A3000 1000 78 -500 350/14 RMK AO2
94908KDBQ DBQ20020225091509802/25/02 09:15:31  5-MIN KDBQ 251515Z 36011KT 10SM OVC019 00/M03 A3000 1000 81 -500 350/11 RMK AO2
94908KDBQ DBQ20020225092009802/25/02 09:20:31  5-MIN KDBQ 251520Z 35010KT 10SM OVC019 00/M03 A3000 1000 81 -500 350/10 RMK AO2
94908KDBQ DBQ20020225092509702/25/02 09:25:31  5-MIN KDBQ 251525Z 35011KT 10SM OVC019 00/M03 A3001 990 78 -500 350/11 RMK AO2
94908KDBQ DBQ20020225093009702/25/02 09:30:31  5-MIN KDBQ 251530Z 35010KT 10SM OVC019 00/M03 A3001 990 81 -500 350/10 RMK AO2
94908KDBQ DBQ20020225093509702/25/02 09:35:31  5-MIN KDBQ 251535Z 34010KT 10SM OVC019 00/M03 A3002 990 81 -500 340/10 RMK AO2
94908KDBQ DBQ20020225094010302/25/02 09:40:31  5-MIN KDBQ 251540Z 35013G17KT 10SM OVC021 00/M03 A3002 990 78 -500 350/13G17 RMK AO2
94908KDBQ DBQ20020225094509702/25/02 09:45:31  5-MIN KDBQ 251545Z 35014KT 10SM OVC021 00/M03 A3002 980 78 -500 350/14 RMK AO2
94908KDBQ DBQ20020225095011402/25/02 09:50:31  5-MIN KDBQ 251550Z 35014KT 10SM OVC021 00/M03 A3002 980 78 -500 350/14 RMK AO2 SLP176 T00001033
94908KDBQ DBQ20020225095511402/25/02 09:55:31  5-MIN KDBQ 251555Z 35014KT 10SM OVC021 00/M03 A3003 980 78 -500 340/14 RMK AO2 SLP177 T00001033
94908KDBQ DBQ20020225100010302/25/02 10:00:31  5-MIN KDBQ 251600Z 34013G18KT 10SM OVC021 00/M03 A3003 980 78 -500 340/13G18 RMK AO2
94908KDBQ DBQ20020225100509702/25/02 10:05:31  5-MIN KDBQ 251605Z 35012KT 10SM OVC021 00/M03 A3003 980 78 -500 350/12 RMK AO2
94908KDBQ DBQ20020225101009702/25/02 10:10:31  5-MIN KDBQ 251610Z 35013KT 10SM OVC021 00/M03 A3002 980 81 -500 350/13 RMK AO2
94908KDBQ DBQ20020225101509702/25/02 10:15:31  5-MIN KDBQ 251615Z 35013KT 10SM OVC021 00/M03 A3002 980 78 -500 350/13 RMK AO2
94908KDBQ DBQ20020225102009702/25/02 10:20:31  5-MIN KDBQ 251620Z 35012KT 10SM OVC021 00/M03 A3002 980 78 -500 350/12 RMK AO2
94908KDBQ DBQ20020225102509702/25/02 10:25:31  5-MIN KDBQ 251625Z 35011KT 10SM OVC021 00/M03 A3002 990 78 -500 350/11 RMK AO2
94908KDBQ DBQ20020225103010402/25/02 10:30:31  5-MIN KDBQ 251630Z 34013KT 10SM BKN019 OVC025 00/M03 A3002 990 81 -500 340/13 RMK AO2
94908KDBQ DBQ20020225103510402/25/02 10:35:31  5-MIN KDBQ 251635Z 34011KT 10SM BKN019 OVC025 00/M03 A3002 980 81 -500 340/11 RMK AO2
94908KDBQ DBQ20020225104011702/25/02 10:40:31  5-MIN KDBQ 251640Z 35013G18KT 10SM BKN019 BKN025 OVC039 01/M03 A3002 980 78 -400 350/13G18 RMK AO2
94908KDBQ DBQ20020225104511702/25/02 10:45:31  5-MIN KDBQ 251645Z 35013G18KT 10SM SCT019 BKN025 OVC039 01/M03 A3002 990 78 -400 350/13G18 RMK AO2
94908KDBQ DBQ20020225105012802/25/02 10:50:31  5-MIN KDBQ 251650Z 35011KT 10SM BKN019 BKN025 OVC039 01/M03 A3002 990 78 -400 350/11 RMK AO2 SLP174 T00061028
94908KDBQ DBQ20020225105512702/25/02 10:55:31  5-MIN KDBQ 251655Z 36013G19KT 10SM SCT019 OVC023 00/M03 A3002 980 78 -500 360/13G19 RMK AO2 SLP176 T00001033
94908KDBQ DBQ20020225110010402/25/02 11:00:31  5-MIN KDBQ 251700Z 36015KT 10SM BKN021 OVC040 00/M03 A3002 980 78 -500 350/15 RMK AO2
94908KDBQ DBQ20020225110510402/25/02 11:05:31  5-MIN KDBQ 251705Z 34015KT 10SM BKN021 OVC040 00/M03 A3003 980 78 -500 340/15 RMK AO2
94908KDBQ DBQ20020225111010402/25/02 11:10:31  5-MIN KDBQ 251710Z 35014KT 10SM BKN021 OVC040 00/M03 A3002 990 78 -500 350/14 RMK AO2
94908KDBQ DBQ20020225111510402/25/02 11:15:31  5-MIN KDBQ 251715Z 35012KT 10SM BKN021 OVC042 00/M03 A3002 980 78 -500 350/12 RMK AO2
94908KDBQ DBQ20020225112010402/25/02 11:20:31  5-MIN KDBQ 251720Z 35011KT 10SM BKN021 OVC042 01/M03 A3002 980 75 -500 350/11 RMK AO2
94908KDBQ DBQ20020225112510402/25/02 11:25:31  5-MIN KDBQ 251725Z 35011KT 10SM BKN021 OVC042 01/M03 A3002 980 75 -400 350/11 RMK AO2
94908KDBQ DBQ20020225113011102/25/02 11:30:31  5-MIN KDBQ 251730Z 35012KT 10SM BKN021 BKN026 OVC034 01/M03 A3002 990 75 -400 340/12 RMK AO2
94908KDBQ DBQ20020225113510402/25/02 11:35:31  5-MIN KDBQ 251735Z 35010KT 10SM BKN021 OVC026 01/M03 A3002 990 78 -400 350/10 RMK AO2
94908KDBQ DBQ20020225114010402/25/02 11:40:31  5-MIN KDBQ 251740Z 34013KT 10SM BKN021 OVC026 01/M03 A3002 980 75 -400 340/13 RMK AO2
94908KDBQ DBQ20020225114510402/25/02 11:45:31  5-MIN KDBQ 251745Z 35012KT 10SM BKN021 OVC026 01/M03 A3002 980 75 -400 350/12 RMK AO2
94908KDBQ DBQ20020225115014502/25/02 11:50:31  5-MIN KDBQ 251750Z 34011KT 10SM BKN021 OVC026 01/M03 A3002 980 78 -500 340/11 RMK AO2 SLP177 60000 T00061028 10006 20000 53022
94908KDBQ DBQ20020225115514502/25/02 11:55:31  5-MIN KDBQ 251755Z 33013KT 10SM BKN019 OVC026 00/M03 A3002 980 81 -500 330/13 RMK AO2 SLP177 60000 T00001028 10006 20000 51009
94908KDBQ DBQ20020225120010402/25/02 12:00:31  5-MIN KDBQ 251800Z 34014KT 10SM BKN019 OVC024 00/M03 A3003 980 81 -500 340/14 RMK AO2
94908KDBQ DBQ20020225120509702/25/02 12:05:31  5-MIN KDBQ 251805Z 34013KT 10SM OVC019 00/M03 A3003 980 81 -500 340/13 RMK AO2
94908KDBQ DBQ20020225121009702/25/02 12:10:31  5-MIN KDBQ 251810Z 34012KT 10SM OVC019 00/M03 A3002 980 81 -500 340/12 RMK AO2
94908KDBQ DBQ20020225121509702/25/02 12:15:31  5-MIN KDBQ 251815Z 34012KT 10SM OVC017 00/M03 A3002 980 81 -500 340/12 RMK AO2
94908KDBQ DBQ20020225122009702/25/02 12:20:31  5-MIN KDBQ 251820Z 33013KT 10SM OVC017 00/M03 A3003 980 81 -500 330/13 RMK AO2
94908KDBQ DBQ20020225122509702/25/02 12:25:31  5-MIN KDBQ 251825Z 34013KT 10SM OVC017 00/M03 A3003 970 81 -500 330/13 RMK AO2
94908KDBQ DBQ20020225123009702/25/02 12:30:31  5-MIN KDBQ 251830Z 33011KT 10SM OVC017 00/M03 A3004 970 81 -500 330/11 RMK AO2
94908KDBQ DBQ20020225123509702/25/02 12:35:31  5-MIN KDBQ 251835Z 34009KT 10SM OVC015 00/M03 A3003 980 78 -500 340/09 RMK AO2
94908KDBQ DBQ20020225124009702/25/02 12:40:31  5-MIN KDBQ 251840Z 35010KT 10SM OVC015 00/M03 A3003 980 78 -500 350/10 RMK AO2
94908KDBQ DBQ20020225124509702/25/02 12:45:31  5-MIN KDBQ 251845Z 34012KT 10SM OVC015 00/M03 A3003 980 81 -500 340/12 RMK AO2
94908KDBQ DBQ20020225125012102/25/02 12:50:31  5-MIN KDBQ 251850Z 33012G17KT 10SM OVC015 M01/M03 A3003 980 81 -600 330/12G17 RMK AO2 SLP180 T10061033
94908KDBQ DBQ20020225125511402/25/02 12:55:31  5-MIN KDBQ 251855Z 34010KT 10SM OVC015 00/M03 A3003 980 78 -500 340/10 RMK AO2 SLP180 T00001033
94908KDBQ DBQ20020225130009702/25/02 13:00:31  5-MIN KDBQ 251900Z 33012KT 10SM OVC015 00/M03 A3003 980 78 -500 330/12 RMK AO2
94908KDBQ DBQ20020225130509802/25/02 13:05:31  5-MIN KDBQ 251905Z 34013KT 10SM OVC015 M01/M03 A3003 980 81 -600 340/13 RMK AO2
94908KDBQ DBQ20020225131009802/25/02 13:10:31  5-MIN KDBQ 251910Z 34014KT 10SM OVC015 M01/M04 A3002 980 78 -600 340/14 RMK AO2
94908KDBQ DBQ20020225131509702/25/02 13:15:31  5-MIN KDBQ 251915Z 34010KT 10SM OVC017 00/M03 A3002 980 78 -500 340/10 RMK AO2
94908KDBQ DBQ20020225132009702/25/02 13:20:31  5-MIN KDBQ 251920Z 33014KT 10SM OVC017 00/M03 A3002 980 78 -500 330/14 RMK AO2
94908KDBQ DBQ20020225132509702/25/02 13:25:31  5-MIN KDBQ 251925Z 34012KT 10SM OVC017 00/M04 A3002 980 75 -500 340/12 RMK AO2
94908KDBQ DBQ20020225133009702/25/02 13:30:31  5-MIN KDBQ 251930Z 34011KT 10SM OVC017 00/M04 A3002 980 75 -500 340/11 RMK AO2
94908KDBQ DBQ20020225133509702/25/02 13:35:31  5-MIN KDBQ 251935Z 35013KT 10SM OVC017 00/M04 A3002 990 75 -500 350/13 RMK AO2
94908KDBQ DBQ20020225134009802/25/02 13:40:31  5-MIN KDBQ 251940Z 34014KT 10SM OVC017 M01/M04 A3002 990 78 -600 340/14 RMK AO2
94908KDBQ DBQ20020225134509802/25/02 13:45:31  5-MIN KDBQ 251945Z 34014KT 10SM OVC019 M01/M04 A3002 980 78 -600 340/14 RMK AO2
94908KDBQ DBQ20020225135011502/25/02 13:50:31  5-MIN KDBQ 251950Z 35012KT 10SM OVC019 M01/M04 A3002 980 78 -600 340/12 RMK AO2 SLP178 T10061039
94908KDBQ DBQ20020225135511402/25/02 13:55:31  5-MIN KDBQ 251955Z 34013KT 10SM OVC019 00/M04 A3002 980 75 -500 340/13 RMK AO2 SLP178 T00001039
94908KDBQ DBQ20020225140009702/25/02 14:00:31  5-MIN KDBQ 252000Z 34013KT 10SM OVC019 00/M04 A3003 980 75 -500 340/13 RMK AO2
94908KDBQ DBQ20020225140509802/25/02 14:05:31  5-MIN KDBQ 252005Z 34014KT 10SM OVC021 M01/M04 A3003 980 75 -600 340/14 RMK AO2
94908KDBQ DBQ20020225141009802/25/02 14:10:31  5-MIN KDBQ 252010Z 33013KT 10SM OVC021 M01/M04 A3003 970 75 -600 330/13 RMK AO2
94908KDBQ DBQ20020225141509802/25/02 14:15:31  5-MIN KDBQ 252015Z 33014KT 10SM OVC021 M01/M04 A3003 970 75 -600 330/14 RMK AO2
94908KDBQ DBQ20020225142009802/25/02 14:20:31  5-MIN KDBQ 252020Z 34014KT 10SM OVC021 M01/M04 A3003 970 75 -600 340/14 RMK AO2
94908KDBQ DBQ20020225142509802/25/02 14:25:31  5-MIN KDBQ 252025Z 32016KT 10SM OVC021 M01/M04 A3004 970 75 -600 320/16 RMK AO2
94908KDBQ DBQ20020225143009802/25/02 14:30:31  5-MIN KDBQ 252030Z 33016KT 10SM OVC021 M01/M04 A3004 970 75 -600 330/16 RMK AO2
94908KDBQ DBQ20020225143509802/25/02 14:35:31  5-MIN KDBQ 252035Z 33013KT 10SM OVC021 M01/M04 A3004 970 78 -700 330/13 RMK AO2
94908KDBQ DBQ20020225144009802/25/02 14:40:31  5-MIN KDBQ 252040Z 33011KT 10SM OVC021 M01/M04 A3004 970 78 -700 330/11 RMK AO2
94908KDBQ DBQ20020225144509802/25/02 14:45:31  5-MIN KDBQ 252045Z 34014KT 10SM OVC021 M01/M04 A3004 970 78 -700 340/14 RMK AO2
94908KDBQ DBQ20020225145012102/25/02 14:50:31  5-MIN KDBQ 252050Z 34014KT 10SM OVC021 M01/M04 A3004 970 78 -700 340/14 RMK AO2 SLP185 T10111044 51009
94908KDBQ DBQ20020225145512102/25/02 14:55:31  5-MIN KDBQ 252055Z 32014KT 10SM OVC021 M01/M05 A3004 970 75 -700 320/14 RMK AO2 SLP185 T10111050 53006
94908KDBQ DBQ20020225150009802/25/02 15:00:31  5-MIN KDBQ 252100Z 33014KT 10SM OVC021 M01/M05 A3004 970 75 -700 330/14 RMK AO2
94908KDBQ DBQ20020225150509802/25/02 15:05:31  5-MIN KDBQ 252105Z 33014KT 10SM OVC021 M01/M04 A3004 970 78 -700 330/14 RMK AO2
94908KDBQ DBQ20020225151009802/25/02 15:10:31  5-MIN KDBQ 252110Z 33014KT 10SM OVC021 M01/M04 A3004 970 78 -700 330/14 RMK AO2
94908KDBQ DBQ20020225151509802/25/02 15:15:31  5-MIN KDBQ 252115Z 33012KT 10SM OVC021 M01/M04 A3004 960 78 -700 330/12 RMK AO2
94908KDBQ DBQ20020225152009802/25/02 15:20:31  5-MIN KDBQ 252120Z 33014KT 10SM OVC021 M01/M04 A3004 960 78 -700 330/14 RMK AO2
94908KDBQ DBQ20020225152509802/25/02 15:25:31  5-MIN KDBQ 252125Z 32014KT 10SM OVC021 M01/M05 A3004 970 75 -700 320/14 RMK AO2
94908KDBQ DBQ20020225153009802/25/02 15:30:31  5-MIN KDBQ 252130Z 32016KT 10SM OVC021 M01/M05 A3004 960 75 -700 320/16 RMK AO2
94908KDBQ DBQ20020225153509802/25/02 15:35:31  5-MIN KDBQ 252135Z 33015KT 10SM OVC021 M01/M05 A3004 960 75 -700 330/15 RMK AO2
94908KDBQ DBQ20020225154009802/25/02 15:40:31  5-MIN KDBQ 252140Z 33015KT 10SM OVC021 M01/M04 A3004 960 78 -700 330/15 RMK AO2
94908KDBQ DBQ20020225154509802/25/02 15:45:31  5-MIN KDBQ 252145Z 32016KT 10SM OVC021 M02/M04 A3004 960 81 -800 320/16 RMK AO2
94908KDBQ DBQ20020225155011502/25/02 15:50:31  5-MIN KDBQ 252150Z 33012KT 10SM OVC021 M02/M05 A3004 960 78 -800 330/12 RMK AO2 SLP187 T10171050
94908KDBQ DBQ20020225155511502/25/02 15:55:31  5-MIN KDBQ 252155Z 33013KT 10SM OVC021 M01/M04 A3004 960 78 -700 330/13 RMK AO2 SLP187 T10111044
94908KDBQ DBQ20020225160009802/25/02 16:00:31  5-MIN KDBQ 252200Z 34012KT 10SM OVC021 M01/M05 A3005 960 75 -700 330/12 RMK AO2
94908KDBQ DBQ20020225160509802/25/02 16:05:31  5-MIN KDBQ 252205Z 33014KT 10SM OVC021 M02/M05 A3005 960 78 -800 330/14 RMK AO2
94908KDBQ DBQ20020225161010502/25/02 16:10:31  5-MIN KDBQ 252210Z 32014KT 10SM BKN021 OVC026 M02/M05 A3005 960 78 -800 320/14 RMK AO2
94908KDBQ DBQ20020225161510502/25/02 16:15:31  5-MIN KDBQ 252215Z 32014KT 10SM BKN021 OVC026 M02/M05 A3005 960 78 -800 320/14 RMK AO2
94908KDBQ DBQ20020225162010502/25/02 16:20:31  5-MIN KDBQ 252220Z 33013KT 10SM BKN021 OVC026 M02/M05 A3005 960 78 -800 320/13 RMK AO2
94908KDBQ DBQ20020225162510502/25/02 16:25:31  5-MIN KDBQ 252225Z 32013KT 10SM BKN021 OVC026 M02/M05 A3005 960 78 -800 320/13 RMK AO2
94908KDBQ DBQ20020225163010502/25/02 16:30:31  5-MIN KDBQ 252230Z 33014KT 10SM BKN021 OVC026 M02/M05 A3005 960 78 -800 320/14 RMK AO2
94908KDBQ DBQ20020225163509802/25/02 16:35:31  5-MIN KDBQ 252235Z 33013KT 10SM OVC021 M02/M06 A3005 960 75 -800 330/13 RMK AO2
94908KDBQ DBQ20020225164009802/25/02 16:40:31  5-MIN KDBQ 252240Z 33013KT 10SM OVC021 M02/M05 A3005 960 78 -800 330/13 RMK AO2
94908KDBQ DBQ20020225164509802/25/02 16:45:31  5-MIN KDBQ 252245Z 34013KT 10SM OVC021 M02/M05 A3005 960 78 -800 340/13 RMK AO2
94908KDBQ DBQ20020225165011502/25/02 16:50:31  5-MIN KDBQ 252250Z 34012KT 10SM OVC021 M02/M06 A3005 960 75 -800 340/12 RMK AO2 SLP188 T10171056
94908KDBQ DBQ20020225165511502/25/02 16:55:31  5-MIN KDBQ 252255Z 33013KT 10SM OVC021 M02/M05 A3005 960 78 -800 330/13 RMK AO2 SLP189 T10171050
94908KDBQ DBQ20020225170009802/25/02 17:00:31  5-MIN KDBQ 252300Z 33014KT 10SM OVC021 M02/M06 A3005 960 75 -800 320/14 RMK AO2
94908KDBQ DBQ20020225170509802/25/02 17:05:31  5-MIN KDBQ 252305Z 33013KT 10SM OVC021 M02/M06 A3005 960 75 -800 330/13 RMK AO2
94908KDBQ DBQ20020225171009802/25/02 17:10:31  5-MIN KDBQ 252310Z 33013KT 10SM OVC021 M02/M05 A3005 960 78 -800 330/13 RMK AO2
94908KDBQ DBQ20020225171509802/25/02 17:15:31  5-MIN KDBQ 252315Z 33014KT 10SM OVC021 M02/M06 A3005 960 75 -800 330/14 RMK AO2
94908KDBQ DBQ20020225172009802/25/02 17:20:31  5-MIN KDBQ 252320Z 33013KT 10SM OVC021 M02/M06 A3005 960 75 -800 330/13 RMK AO2
94908KDBQ DBQ20020225172509802/25/02 17:25:31  5-MIN KDBQ 252325Z 33011KT 10SM OVC021 M02/M06 A3005 950 75 -800 330/11 RMK AO2
94908KDBQ DBQ20020225173009802/25/02 17:30:31  5-MIN KDBQ 252330Z 33012KT 10SM OVC021 M02/M06 A3006 950 75 -800 330/12 RMK AO2
94908KDBQ DBQ20020225173509802/25/02 17:35:31  5-MIN KDBQ 252335Z 33011KT 10SM OVC023 M02/M06 A3006 950 75 -800 330/11 RMK AO2
94908KDBQ DBQ20020225174009802/25/02 17:40:31  5-MIN KDBQ 252340Z 33012KT 10SM OVC023 M02/M06 A3006 950 75 -800 330/12 RMK AO2
94908KDBQ DBQ20020225174509802/25/02 17:45:31  5-MIN KDBQ 252345Z 34013KT 10SM OVC023 M02/M06 A3006 950 75 -800 340/13 RMK AO2
94908KDBQ DBQ20020225175013302/25/02 17:50:31  5-MIN KDBQ 252350Z 34012KT 10SM OVC023 M02/M06 A3006 950 72 -800 330/12 RMK AO2 SLP192 T10171061 10000 21017 53006
94908KDBQ DBQ20020225175513302/25/02 17:55:31  5-MIN KDBQ 252355Z 35014KT 10SM OVC023 M02/M06 A3006 950 72 -800 350/14 RMK AO2 SLP193 T10171061 10000 21017 53006
94908KDBQ DBQ20020225180009802/25/02 18:00:31  5-MIN KDBQ 260000Z 34013KT 10SM OVC023 M02/M06 A3006 950 72 -800 340/13 RMK AO2
94908KDBQ DBQ20020225180509802/25/02 18:05:31  5-MIN KDBQ 260005Z 35011KT 10SM OVC023 M02/M06 A3006 950 72 -800 350/11 RMK AO2
94908KDBQ DBQ20020225181009802/25/02 18:10:31  5-MIN KDBQ 260010Z 34013KT 10SM OVC025 M02/M06 A3006 950 72 -800 340/13 RMK AO2
94908KDBQ DBQ20020225181509802/25/02 18:15:31  5-MIN KDBQ 260015Z 34011KT 10SM OVC025 M02/M06 A3006 950 72 -800 340/11 RMK AO2
94908KDBQ DBQ20020225182009802/25/02 18:20:31  5-MIN KDBQ 260020Z 34012KT 10SM OVC027 M02/M07 A3006 950 69 -800 340/12 RMK AO2
94908KDBQ DBQ20020225182509802/25/02 18:25:31  5-MIN KDBQ 260025Z 35010KT 10SM OVC027 M02/M07 A3006 950 69 -800 340/10 RMK AO2
94908KDBQ DBQ20020225183009802/25/02 18:30:31  5-MIN KDBQ 260030Z 35012KT 10SM OVC027 M02/M07 A3006 950 69 -800 340/12 RMK AO2
94908KDBQ DBQ20020225183509802/25/02 18:35:31  5-MIN KDBQ 260035Z 34012KT 10SM OVC029 M02/M06 A3006 950 72 -800 340/12 RMK AO2
94908KDBQ DBQ20020225184009802/25/02 18:40:31  5-MIN KDBQ 260040Z 35011KT 10SM OVC029 M02/M06 A3006 950 72 -800 350/11 RMK AO2
94908KDBQ DBQ20020225184509802/25/02 18:45:31  5-MIN KDBQ 260045Z 35010KT 10SM OVC029 M02/M07 A3007 940 69 -800 340/10 RMK AO2
94908KDBQ DBQ20020225185011502/25/02 18:50:31  5-MIN KDBQ 260050Z 35010KT 10SM OVC031 M02/M07 A3007 940 69 -800 350/10 RMK AO2 SLP194 T10171067
94908KDBQ DBQ20020225185511502/25/02 18:55:31  5-MIN KDBQ 260055Z 34009KT 10SM OVC031 M02/M07 A3006 940 69 -800 340/09 RMK AO2 SLP194 T10171067
94908KDBQ DBQ20020225190009802/25/02 19:00:31  5-MIN KDBQ 260100Z 35010KT 10SM OVC031 M02/M07 A3006 950 69 -800 350/10 RMK AO2
94908KDBQ DBQ20020225190509802/25/02 19:05:31  5-MIN KDBQ 260105Z 35010KT 10SM OVC031 M02/M07 A3006 940 69 -800 340/10 RMK AO2
94908KDBQ DBQ20020225191009802/25/02 19:10:31  5-MIN KDBQ 260110Z 35008KT 10SM OVC031 M02/M07 A3007 940 69 -800 340/08 RMK AO2
94908KDBQ DBQ20020225191509802/25/02 19:15:31  5-MIN KDBQ 260115Z 35008KT 10SM OVC033 M02/M07 A3006 950 69 -800 350/08 RMK AO2
94908KDBQ DBQ20020225192009802/25/02 19:20:31  5-MIN KDBQ 260120Z 34008KT 10SM OVC033 M02/M07 A3006 950 69 -800 340/08 RMK AO2
94908KDBQ DBQ20020225192509802/25/02 19:25:31  5-MIN KDBQ 260125Z 34008KT 10SM OVC033 M02/M07 A3006 950 69 -800 340/08 RMK AO2
94908KDBQ DBQ20020225193009802/25/02 19:30:31  5-MIN KDBQ 260130Z 34009KT 10SM OVC035 M02/M07 A3006 950 69 -800 340/09 RMK AO2
94908KDBQ DBQ20020225193509802/25/02 19:35:31  5-MIN KDBQ 260135Z 34009KT 10SM OVC035 M02/M07 A3006 950 69 -800 340/09 RMK AO2
94908KDBQ DBQ20020225194009802/25/02 19:40:31  5-MIN KDBQ 260140Z 34008KT 10SM OVC035 M02/M07 A3006 950 66 -800 330/08 RMK AO2
94908KDBQ DBQ20020225194509802/25/02 19:45:31  5-MIN KDBQ 260145Z 32009KT 10SM OVC035 M02/M07 A3006 950 72 -800 320/09 RMK AO2
94908KDBQ DBQ20020225195011502/25/02 19:50:31  5-MIN KDBQ 260150Z 32014KT 10SM OVC035 M02/M07 A3006 950 72 -800 320/14 RMK AO2 SLP192 T10221067
94908KDBQ DBQ20020225195512202/25/02 19:55:31  5-MIN KDBQ 260155Z 32014KT 10SM FEW022 OVC035 M03/M07 A3006 950 75 -900 310/14 RMK AO2 SLP192 T10281067
94908KDBQ DBQ20020225200012202/25/02 20:00:31  5-MIN KDBQ 260200Z AUTO 31016KT 10SM FEW022 BKN030 OVC037 M03/M07 A3006 950 75 -900 310/16 RMK AO2 TSNO
94908KDBQ DBQ20020225200511502/25/02 20:05:31  5-MIN KDBQ 260205Z AUTO 32013KT 10SM FEW022 OVC033 M03/M06 A3006 950 78 -900 320/13 RMK AO2 TSNO
94908KDBQ DBQ20020225201012202/25/02 20:10:31  5-MIN KDBQ 260210Z AUTO 32014KT 10SM FEW022 BKN030 OVC035 M03/M06 A3006 950 78 -900 310/14 RMK AO2 TSNO
94908KDBQ DBQ20020225201511502/25/02 20:15:31  5-MIN KDBQ 260215Z AUTO 33015KT 10SM FEW022 OVC030 M03/M06 A3005 950 78 -900 330/15 RMK AO2 TSNO
94908KDBQ DBQ20020225202011502/25/02 20:20:31  5-MIN KDBQ 260220Z AUTO 33015KT 10SM FEW022 OVC030 M03/M06 A3005 950 78 -900 330/15 RMK AO2 TSNO
94908KDBQ DBQ20020225202513102/25/02 20:25:31  5-MIN KDBQ 260225Z AUTO 32016KT 10SM -SN FEW025 OVC032 M03/M07 A3006 950 75 -900 320/16 RMK AO2 SNB25 P0000 TSNO
94908KDBQ DBQ20020225203012302/25/02 20:30:31  5-MIN KDBQ 260230Z AUTO 33013KT 9SM -SN OVC030 M03/M07 A3005 960 75 -900 320/13 RMK AO2 SNB25 P0000 TSNO
94908KDBQ DBQ20020225203512202/25/02 20:35:31  5-MIN KDBQ 260235Z AUTO 32014KT 9SM OVC030 M03/M07 A3005 950 75 -900 320/14 RMK AO2 SNB25E35 P0000 TSNO
94908KDBQ DBQ20020225204012202/25/02 20:40:31  5-MIN KDBQ 260240Z AUTO 33014KT 9SM OVC032 M03/M07 A3005 960 75 -900 320/14 RMK AO2 SNB25E35 P0000 TSNO
94908KDBQ DBQ20020225204512302/25/02 20:45:31  5-MIN KDBQ 260245Z AUTO 33016KT 10SM OVC032 M03/M07 A3005 960 75 -900 330/16 RMK AO2 SNB25E35 P0000 TSNO
94908KDBQ DBQ20020225205015802/25/02 20:50:31  5-MIN KDBQ 260250Z AUTO 33014G19KT 10SM OVC032 M03/M07 A3005 960 75 -900 330/14G19 RMK AO2 SNB25E35 SLP189 P0000 60000 T10281067 53006 TSNO
94908KDBQ DBQ20020225205515202/25/02 20:55:31  5-MIN KDBQ 260255Z AUTO 32013KT 10SM OVC034 M03/M07 A3005 960 75 -900 320/13 RMK AO2 SNB25E35 SLP189 P0000 60000 T10281067 58003 TSNO
94908KDBQ DBQ20020225210010802/25/02 21:00:31  5-MIN KDBQ 260300Z AUTO 32013KT 10SM OVC034 M03/M07 A3005 960 75 -900 320/13 RMK AO2 TSNO
94908KDBQ DBQ20020225210510802/25/02 21:05:31  5-MIN KDBQ 260305Z AUTO 33010KT 10SM OVC034 M03/M07 A3005 960 75 -900 320/10 RMK AO2 TSNO
94908KDBQ DBQ20020225211010802/25/02 21:10:31  5-MIN KDBQ 260310Z AUTO 33012KT 10SM OVC034 M03/M07 A3005 960 75 -900 320/12 RMK AO2 TSNO
94908KDBQ DBQ20020225211510902/25/02 21:15:31  5-MIN KDBQ 260315Z AUTO 32014KT 10SM OVC034 M03/M07 A3005 960 78 -1000 310/14 RMK AO2 TSNO
94908KDBQ DBQ20020225212010902/25/02 21:20:31  5-MIN KDBQ 260320Z AUTO 33013KT 10SM OVC034 M03/M07 A3005 960 78 -1000 320/13 RMK AO2 TSNO
94908KDBQ DBQ20020225212512302/25/02 21:25:31  5-MIN KDBQ 260325Z AUTO 32014KT 10SM FEW022 BKN028 OVC034 M03/M07 A3005 960 78 -1000 320/14 RMK AO2 TSNO
94908KDBQ DBQ20020225213011602/25/02 21:30:31  5-MIN KDBQ 260330Z AUTO 32014KT 10SM BKN027 OVC032 M03/M07 A3005 960 78 -1000 320/14 RMK AO2 TSNO
94908KDBQ DBQ20020225213513102/25/02 21:35:31  5-MIN KDBQ 260335Z AUTO 32012KT 6SM -SN BKN027 OVC032 M03/M07 A3005 960 78 -1000 310/12 RMK AO2 SNB33 P0000 TSNO
94908KDBQ DBQ20020225214012402/25/02 21:40:31  5-MIN KDBQ 260340Z AUTO 32011KT 4SM -SN OVC027 M03/M07 A3004 960 78 -1000 320/11 RMK AO2 SNB33 P0000 TSNO
94908KDBQ DBQ20020225214513102/25/02 21:45:31  5-MIN KDBQ 260345Z AUTO 32011KT 5SM -SN BKN027 OVC033 M03/M07 A3004 970 78 -1000 320/11 RMK AO2 SNB33 P0000 TSNO
94908KDBQ DBQ20020225215014802/25/02 21:50:31  5-MIN KDBQ 260350Z AUTO 33013KT 7SM -SN BKN027 OVC033 M03/M07 A3004 970 74 -1000 330/13 RMK AO2 SNB33 SLP186 P0000 T10331072 TSNO
94908KDBQ DBQ20020225215516102/25/02 21:55:31  5-MIN KDBQ 260355Z AUTO 33016G21KT 7SM -SN FEW024 BKN031 OVC038 M03/M07 A3004 970 74 -1000 320/16G21 RMK AO2 SNB33 SLP185 P0000 T10331072 TSNO
94908KDBQ DBQ20020225220013802/25/02 22:00:31  5-MIN KDBQ 260400Z AUTO 33016G21KT 6SM -SN FEW024 SCT031 OVC039 M03/M07 A3004 970 74 -1000 330/16G21 RMK AO2 P0000 TSNO
94908KDBQ DBQ20020225220512502/25/02 22:05:31  5-MIN KDBQ 260405Z AUTO 33016KT 4SM -SN FEW024 OVC036 M04/M07 A3004 970 78 -1000 330/16 RMK AO2 P0000 TSNO
94908KDBQ DBQ20020225221011802/25/02 22:10:31  5-MIN KDBQ 260410Z AUTO 32015KT 3SM -SN OVC036 M04/M07 A3004 970 78 -1000 320/15 RMK AO2 P0000 TSNO
94908KDBQ DBQ20020225221511802/25/02 22:15:31  5-MIN KDBQ 260415Z AUTO 32016KT 3SM -SN OVC036 M04/M07 A3003 970 81 -1000 320/16 RMK AO2 P0000 TSNO
94908KDBQ DBQ20020225222012502/25/02 22:20:31  5-MIN KDBQ 260420Z AUTO 32014KT 3SM -SN FEW026 OVC038 M04/M07 A3003 970 81 -1000 320/14 RMK AO2 P0000 TSNO
94908KDBQ DBQ20020225222513902/25/02 22:25:31  5-MIN KDBQ 260425Z AUTO 32015KT 2 1/2SM -SN BR FEW015 SCT026 OVC038 M04/M07 A3003 980 84 -1100 320/15 RMK AO2 P0000 TSNO
94908KDBQ DBQ20020225223013902/25/02 22:30:31  5-MIN KDBQ 260430Z AUTO 32015KT 2 1/2SM -SN BR FEW019 BKN030 OVC036 M04/M06 A3003 970 88 -1100 320/15 RMK AO2 P0000 TSNO
94908KDBQ DBQ20020225223513902/25/02 22:35:31  5-MIN KDBQ 260435Z AUTO 32015KT 2 1/2SM -SN BR FEW014 BKN030 OVC038 M04/M07 A3003 980 84 -1100 320/15 RMK AO2 P0000 TSNO
94908KDBQ DBQ20020225224013902/25/02 22:40:31  5-MIN KDBQ 260440Z AUTO 32015KT 2 1/2SM -SN BR FEW014 BKN027 OVC038 M04/M07 A3003 980 84 -1100 310/15 RMK AO2 P0000 TSNO
94908KDBQ DBQ20020225224513502/25/02 22:45:31  5-MIN KDBQ 260445Z AUTO 32015KT 2SM -SN BR FEW014 BKN023 OVC036 M04/M07 A3003 980 84 -1100 320/15 RMK AO2 P0000 TSNO
94908KDBQ DBQ20020225225015202/25/02 22:50:31  5-MIN KDBQ 260450Z AUTO 32013KT 2SM -SN BR FEW014 BKN025 OVC036 M04/M07 A3003 980 84 -1100 320/13 RMK AO2 SLP182 P0000 T10441067 TSNO
94908KDBQ DBQ20020225225515602/25/02 22:55:31  5-MIN KDBQ 260455Z AUTO 33013KT 2 1/2SM -SN BR SCT025 BKN037 OVC050 M04/M07 A3003 980 84 -1100 330/13 RMK AO2 SLP181 P0000 T10441067 TSNO
94908KDBQ DBQ20020225230013902/25/02 23:00:31  5-MIN KDBQ 260500Z AUTO 32014KT 2 1/2SM -SN BR FEW027 BKN037 OVC075 M05/M07 A3002 980 88 -1200 320/14 RMK AO2 P0000 TSNO
94908KDBQ DBQ20020225230514102/25/02 23:05:31  5-MIN KDBQ 260505Z AUTO 33016G21KT 3SM -SN BR FEW029 BKN055 OVC075 M05/M07 A3002 980 84 -1200 320/16G21 RMK AO2 P0000 TSNO
94908KDBQ DBQ20020225231014102/25/02 23:10:31  5-MIN KDBQ 260510Z AUTO 33016G21KT 4SM -SN BR SCT033 BKN055 OVC075 M05/M07 A3002 980 84 -1200 330/16G21 RMK AO2 P0000 TSNO
94908KDBQ DBQ20020225231513502/25/02 23:15:31  5-MIN KDBQ 260515Z AUTO 32016KT 4SM -SN BR FEW030 BKN055 OVC075 M05/M07 A3002 990 84 -1200 320/16 RMK AO2 P0000 TSNO
94908KDBQ DBQ20020225232013202/25/02 23:20:31  5-MIN KDBQ 260520Z AUTO 33016KT 4SM -SN FEW030 BKN036 OVC075 M05/M09 A3002 990 74 -1100 320/16 RMK AO2 P0000 TSNO
94908KDBQ DBQ20020225232513202/25/02 23:25:31  5-MIN KDBQ 260525Z AUTO 32015KT 3SM -SN SCT025 BKN036 OVC075 M05/M08 A3002 990 77 -1100 320/15 RMK AO2 P0000 TSNO
94908KDBQ DBQ20020225233013602/25/02 23:30:31  5-MIN KDBQ 260530Z AUTO 32017KT 2 1/2SM -SN SCT021 BKN034 OVC060 M05/M08 A3002 990 81 -1100 320/17 RMK AO2 P0000 TSNO
94908KDBQ DBQ20020225233512502/25/02 23:35:31  5-MIN KDBQ 260535Z AUTO 32017KT 2SM -SN SCT019 OVC034 M05/M08 A3002 990 81 -1100 320/17 RMK AO2 P0000 TSNO
94908KDBQ DBQ20020225234012502/25/02 23:40:31  5-MIN KDBQ 260540Z AUTO 33016KT 2SM -SN BKN019 OVC034 M05/M08 A3002 990 81 -1100 330/16 RMK AO2 P0000 TSNO
94908KDBQ DBQ20020225234513102/25/02 23:45:31  5-MIN KDBQ 260545Z AUTO 33018G21KT 2SM -SN BKN017 OVC034 M05/M08 A3002 990 81 -1100 330/18G21 RMK AO2 P0000 TSNO
94908KDBQ DBQ20020225235018602/25/02 23:50:31  5-MIN KDBQ 260550Z AUTO 32015G21KT 1 3/4SM -SN BKN015 OVC034 M05/M08 A3002 990 81 -1100 320/15G21 RMK AO2 SLP178 P0000 60000 T10501078 11017 21050 400501050 58003 TSNO
94908KDBQ DBQ20020225235517602/25/02 23:55:31  5-MIN KDBQ 260555Z AUTO 33015KT 2SM -SN BKN015 OVC034 M05/M08 A3002 990 81 -1100 330/15 RMK AO2 SLP178 P0000 60000 T10501078 11017 21050 400501050 56012 TSNO
94908KDBQ DBQ20020226000013202/26/02 00:00:31  5-MIN KDBQ 260600Z AUTO 33014KT 1 3/4SM -SN BR BKN013 OVC037 M06/M07 A3002 990 88 -1200 330/14 RMK AO2 P0000 TSNO
94908KDBQ DBQ20020226000513202/26/02 00:05:31  5-MIN KDBQ 260605Z AUTO 32014KT 1 3/4SM -SN BR BKN013 OVC033 M06/M07 A3002 990 88 -1200 320/14 RMK AO2 P0000 TSNO
94908KDBQ DBQ20020226001013902/26/02 00:10:31  5-MIN KDBQ 260610Z AUTO 32013KT 1 1/2SM -SN BR BKN013 BKN018 OVC033 M06/M07 A3002 990 88 -1200 320/13 RMK AO2 P0000 TSNO
94908KDBQ DBQ20020226001513902/26/02 00:15:31  5-MIN KDBQ 260615Z AUTO 32014KT 1 1/4SM -SN BR BKN013 BKN018 OVC033 M06/M07 A3002 990 88 -1200 320/14 RMK AO2 P0000 TSNO
94908KDBQ DBQ20020226002013202/26/02 00:20:31  5-MIN KDBQ 260620Z AUTO 32013KT 1 1/4SM -SN BR BKN013 OVC036 M06/M07 A3002 990 88 -1200 320/13 RMK AO2 P0000 TSNO
94908KDBQ DBQ20020226002513202/26/02 00:25:31  5-MIN KDBQ 260625Z AUTO 32013KT 1 1/4SM -SN BR SCT019 OVC036 M06/M07 A3002 990 88 -1200 320/13 RMK AO2 P0000 TSNO
94908KDBQ DBQ20020226003013902/26/02 00:30:31  5-MIN KDBQ 260630Z AUTO 33013KT 1 1/2SM -SN BR FEW020 BKN036 OVC065 M06/M07 A3002 990 88 -1200 320/13 RMK AO2 P0000 TSNO
94908KDBQ DBQ20020226003513902/26/02 00:35:31  5-MIN KDBQ 260635Z AUTO 33014KT 1 3/4SM -SN BR SCT031 BKN039 OVC065 M06/M07 A3002 990 88 -1200 330/14 RMK AO2 P0000 TSNO
94908KDBQ DBQ20020226004012802/26/02 00:40:31  5-MIN KDBQ 260640Z AUTO 33014KT 2SM -SN BR BKN037 OVC065 M06/M08 A3002 990 84 -1200 330/14 RMK AO2 P0000 TSNO
94908KDBQ DBQ20020226004512502/26/02 00:45:31  5-MIN KDBQ 260645Z AUTO 33013KT 3SM -SN BKN041 OVC065 M06/M08 A3002 990 81 -1200 330/13 RMK AO2 P0000 TSNO
94908KDBQ DBQ20020226005014202/26/02 00:50:31  5-MIN KDBQ 260650Z AUTO 32011KT 4SM -SN BKN043 OVC065 M06/M08 A3002 990 81 -1200 320/11 RMK AO2 SLP180 P0000 T10561083 TSNO
94908KDBQ DBQ20020226005514202/26/02 00:55:31  5-MIN KDBQ 260655Z AUTO 32013KT 6SM -SN SCT043 OVC065 M06/M08 A3002 990 81 -1200 320/13 RMK AO2 SLP180 P0000 T10561083 TSNO
94908KDBQ DBQ20020226010012502/26/02 01:00:31  5-MIN KDBQ 260700Z AUTO 33013KT 9SM -SN SCT043 OVC070 M06/M09 A3002 990 77 -1200 330/13 RMK AO2 P0000 TSNO
94908KDBQ DBQ20020226010512702/26/02 01:05:31  5-MIN KDBQ 260705Z AUTO 33015KT 9SM SCT043 OVC070 M06/M09 A3002 990 74 -1200 330/15 RMK AO2 SNE01 P0000 TSNO
94908KDBQ DBQ20020226011012802/26/02 01:10:31  5-MIN KDBQ 260710Z AUTO 33014KT 10SM SCT041 OVC070 M06/M09 A3001 990 74 -1200 330/14 RMK AO2 SNE01 P0000 TSNO
94908KDBQ DBQ20020226011512802/26/02 01:15:31  5-MIN KDBQ 260715Z AUTO 32018KT 10SM FEW047 OVC070 M06/M09 A3001 990 74 -1200 320/18 RMK AO2 SNE01 P0000 TSNO
94908KDBQ DBQ20020226012012802/26/02 01:20:31  5-MIN KDBQ 260720Z AUTO 34015KT 10SM FEW060 OVC075 M06/M09 A3001 990 74 -1200 340/15 RMK AO2 SNE01 P0000 TSNO
94908KDBQ DBQ20020226012513402/26/02 01:25:31  5-MIN KDBQ 260725Z AUTO 33014KT 5SM -SN FEW055 OVC075 M06/M09 A3001 990 74 -1200 330/14 RMK AO2 SNE01B23 P0000 TSNO
94908KDBQ DBQ20020226013013402/26/02 01:30:31  5-MIN KDBQ 260730Z AUTO 33014KT 3SM -SN FEW055 OVC075 M06/M09 A3001 990 74 -1200 330/14 RMK AO2 SNE01B23 P0000 TSNO
94908KDBQ DBQ20020226013513802/26/02 01:35:31  5-MIN KDBQ 260735Z AUTO 33014KT 2 1/2SM -SN FEW060 OVC075 M06/M09 A3001 990 74 -1200 330/14 RMK AO2 SNE01B23 P0000 TSNO
94908KDBQ DBQ20020226014012802/26/02 01:40:31  5-MIN KDBQ 260740Z AUTO 34015KT 2SM -SN OVC075 M06/M09 A3001 1000 77 -1300 330/15 RMK AO2 SNE01B23 P0000 TSNO
94908KDBQ DBQ20020226014513202/26/02 01:45:31  5-MIN KDBQ 260745Z AUTO 32016KT 2 1/2SM -SN OVC075 M06/M09 A3001 1000 77 -1200 320/16 RMK AO2 SNE01B23 P0000 TSNO
94908KDBQ DBQ20020226015014502/26/02 01:50:31  5-MIN KDBQ 260750Z AUTO 33016KT 3SM -SN OVC075 M06/M09 A3001 1000 77 -1300 330/16 RMK AO2 SNE01B23 SLP177 P0000 T10611094 TSNO
94908KDBQ DBQ20020226015514902/26/02 01:55:31  5-MIN KDBQ 260755Z AUTO 32013KT 2 1/2SM -SN OVC070 M06/M09 A3001 1000 81 -1300 320/13 RMK AO2 SNE01B23 SLP177 P0000 T10611089 TSNO
94908KDBQ DBQ20020226020013002/26/02 02:00:31  5-MIN KDBQ 260800Z AUTO 33014KT 2 1/2SM -SN BKN070 OVC080 M06/M09 A3001 1000 81 -1300 330/14 RMK AO2 P0000 TSNO
94908KDBQ DBQ20020226020513002/26/02 02:05:31  5-MIN KDBQ 260805Z AUTO 32013KT 2 1/2SM -SN BKN060 OVC075 M06/M09 A3001 1000 81 -1300 320/13 RMK AO2 P0000 TSNO
94908KDBQ DBQ20020226021014002/26/02 02:10:31  5-MIN KDBQ 260810Z AUTO 32011KT 2 1/2SM -SN BR FEW041 BKN060 OVC075 M06/M08 A3001 1000 84 -1300 320/11 RMK AO2 P0000 TSNO
94908KDBQ DBQ20020226021513702/26/02 02:15:31  5-MIN KDBQ 260815Z AUTO 32012KT 2 1/2SM -SN SCT043 BKN060 OVC075 M06/M09 A3001 1000 81 -1300 320/12 RMK AO2 P0000 TSNO
94908KDBQ DBQ20020226022013702/26/02 02:20:31  5-MIN KDBQ 260820Z AUTO 32012KT 2 1/2SM -SN SCT043 BKN050 OVC070 M06/M09 A3000 1000 81 -1300 320/12 RMK AO2 P0000 TSNO
94908KDBQ DBQ20020226022513702/26/02 02:25:31  5-MIN KDBQ 260825Z AUTO 31013KT 2 1/2SM -SN SCT043 BKN050 OVC070 M06/M09 A3000 1000 81 -1300 310/13 RMK AO2 P0000 TSNO
94908KDBQ DBQ20020226023013002/26/02 02:30:31  5-MIN KDBQ 260830Z AUTO 32013KT 2 1/2SM -SN BKN043 OVC070 M06/M09 A3000 1000 81 -1300 320/13 RMK AO2 P0000 TSNO
94908KDBQ DBQ20020226023512602/26/02 02:35:31  5-MIN KDBQ 260835Z AUTO 32014KT 3SM -SN BKN043 OVC065 M06/M09 A3000 1010 81 -1300 320/14 RMK AO2 P0000 TSNO
94908KDBQ DBQ20020226024012602/26/02 02:40:31  5-MIN KDBQ 260840Z AUTO 33014KT 4SM -SN BKN043 OVC065 M06/M09 A3000 1010 77 -1300 330/14 RMK AO2 P0000 TSNO
94908KDBQ DBQ20020226024512602/26/02 02:45:31  5-MIN KDBQ 260845Z AUTO 32014KT 4SM -SN BKN041 OVC065 M06/M09 A3000 1010 77 -1300 320/14 RMK AO2 P0000 TSNO
94908KDBQ DBQ20020226025014802/26/02 02:50:31  5-MIN KDBQ 260850Z AUTO 33013KT 4SM -SN OVC041 M06/M09 A3000 1010 77 -1300 330/13 RMK AO2 SLP172 P0000 60000 T10611094 56012 TSNO
94908KDBQ DBQ20020226025514802/26/02 02:55:31  5-MIN KDBQ 260855Z AUTO 33013KT 5SM -SN OVC043 M06/M09 A2999 1010 77 -1300 320/13 RMK AO2 SLP172 P0000 60000 T10611094 58007 TSNO
94908KDBQ DBQ20020226030011902/26/02 03:00:31  5-MIN KDBQ 260900Z AUTO 33014KT 5SM -SN OVC043 M06/M09 A2999 1010 77 -1300 330/14 RMK AO2 P0000 TSNO
94908KDBQ DBQ20020226030511902/26/02 03:05:31  5-MIN KDBQ 260905Z AUTO 33013KT 5SM -SN OVC043 M06/M09 A2999 1010 77 -1300 330/13 RMK AO2 P0000 TSNO
94908KDBQ DBQ20020226031012402/26/02 03:10:31  5-MIN KDBQ 260910Z AUTO 33012KT 5SM HZ OVC045 M06/M09 A2999 1020 77 -1300 330/12 RMK AO2 SNE08 P0000 TSNO
94908KDBQ DBQ20020226031511902/26/02 03:15:31  5-MIN KDBQ 260915Z AUTO 33012KT 5SM -SN OVC045 M06/M09 A2999 1020 77 -1300 330/12 RMK AO2 P0000 TSNO
94908KDBQ DBQ20020226032011902/26/02 03:20:31  5-MIN KDBQ 260920Z AUTO 32012KT 3SM -SN OVC045 M06/M09 A2999 1020 81 -1300 320/12 RMK AO2 P0000 TSNO
94908KDBQ DBQ20020226032512902/26/02 03:25:31  5-MIN KDBQ 260925Z AUTO 32013KT 2SM -SN BR SCT023 OVC045 M07/M09 A2999 1020 84 -1300 320/13 RMK AO2 P0000 TSNO
94908KDBQ DBQ20020226033014002/26/02 03:30:31  5-MIN KDBQ 260930Z AUTO 32010KT 1 1/2SM -SN BR FEW018 BKN033 OVC045 M07/M08 A2998 1020 88 -1300 320/10 RMK AO2 P0000 TSNO
94908KDBQ DBQ20020226033514002/26/02 03:35:31  5-MIN KDBQ 260935Z AUTO 32011KT 1 1/2SM -SN BR FEW018 BKN033 OVC043 M07/M08 A2998 1020 88 -1300 320/11 RMK AO2 P0000 TSNO
94908KDBQ DBQ20020226034014002/26/02 03:40:31  5-MIN KDBQ 260940Z AUTO 33011KT 1 3/4SM -SN BR FEW017 BKN036 OVC043 M07/M08 A2998 1020 88 -1300 320/11 RMK AO2 P0000 TSNO
94908KDBQ DBQ20020226034514002/26/02 03:45:31  5-MIN KDBQ 260945Z AUTO 32010KT 1 3/4SM -SN BR FEW017 BKN026 OVC035 M07/M08 A2998 1020 88 -1300 320/10 RMK AO2 P0000 TSNO
94908KDBQ DBQ20020226035015702/26/02 03:50:31  5-MIN KDBQ 260950Z AUTO 32012KT 1 3/4SM -SN BR FEW019 BKN026 OVC035 M07/M08 A2998 1020 88 -1300 320/12 RMK AO2 SLP168 P0000 T10671083 TSNO
94908KDBQ DBQ20020226035515702/26/02 03:55:31  5-MIN KDBQ 260955Z AUTO 32011KT 1 3/4SM -SN BR FEW017 BKN028 OVC060 M07/M08 A2998 1020 88 -1300 320/11 RMK AO2 SLP168 P0000 T10671083 TSNO
94908KDBQ DBQ20020226040014002/26/02 04:00:31  5-MIN KDBQ 261000Z AUTO 32010KT 1 3/4SM -SN BR BKN026 BKN035 OVC055 M07/M08 A2998 1020 88 -1300 320/10 RMK AO2 P0000 TSNO
94908KDBQ DBQ20020226040514002/26/02 04:05:31  5-MIN KDBQ 261005Z AUTO 31014KT 1 3/4SM -SN BR FEW012 BKN028 OVC055 M07/M08 A2998 1020 88 -1300 310/14 RMK AO2 P0000 TSNO
94908KDBQ DBQ20020226041013602/26/02 04:10:31  5-MIN KDBQ 261010Z AUTO 31012KT 2SM -SN BR FEW017 BKN026 OVC055 M07/M08 A2998 1020 88 -1300 310/12 RMK AO2 P0000 TSNO
94908KDBQ DBQ20020226041513602/26/02 04:15:31  5-MIN KDBQ 261015Z AUTO 30012KT 2SM -SN BR FEW015 BKN037 OVC055 M07/M09 A2998 1020 84 -1300 300/12 RMK AO2 P0000 TSNO
94908KDBQ DBQ20020226042013602/26/02 04:20:31  5-MIN KDBQ 261020Z AUTO 31012KT 2SM -SN BR FEW015 SCT027 OVC044 M07/M09 A2998 1020 84 -1300 310/12 RMK AO2 P0000 TSNO
94908KDBQ DBQ20020226042513602/26/02 04:25:31  5-MIN KDBQ 261025Z AUTO 31015KT 2SM -SN BR FEW015 SCT034 OVC044 M07/M09 A2998 1020 88 -1400 310/15 RMK AO2 P0000 TSNO
94908KDBQ DBQ20020226043014002/26/02 04:30:31  5-MIN KDBQ 261030Z AUTO 31012KT 2 1/2SM -SN BR FEW015 SCT038 OVC046 M07/M09 A2998 1020 88 -1400 310/12 RMK AO2 P0000 TSNO
94908KDBQ DBQ20020226043513602/26/02 04:35:31  5-MIN KDBQ 261035Z AUTO 32011KT 3SM -SN BR FEW032 SCT040 OVC046 M07/M09 A2998 1020 84 -1400 320/11 RMK AO2 P0000 TSNO
94908KDBQ DBQ20020226044012902/26/02 04:40:31  5-MIN KDBQ 261040Z AUTO 32014KT 4SM -SN BR FEW037 OVC046 M07/M09 A2998 1020 84 -1400 320/14 RMK AO2 P0000 TSNO
94908KDBQ DBQ20020226044512902/26/02 04:45:31  5-MIN KDBQ 261045Z AUTO 32014KT 5SM -SN BR FEW030 OVC044 M07/M09 A2998 1020 84 -1400 320/14 RMK AO2 P0000 TSNO
94908KDBQ DBQ20020226045014602/26/02 04:50:31  5-MIN KDBQ 261050Z AUTO 32015KT 5SM -SN BR FEW027 OVC046 M07/M09 A2998 1020 84 -1400 320/15 RMK AO2 SLP168 P0000 T10721094 TSNO
94908KDBQ DBQ20020226045515302/26/02 04:55:31  5-MIN KDBQ 261055Z AUTO 32014KT 4SM -SN BR FEW027 SCT036 OVC046 M07/M09 A2998 1020 84 -1400 320/14 RMK AO2 SLP168 P0000 T10721094 TSNO
94908KDBQ DBQ20020226050014002/26/02 05:00:31  5-MIN KDBQ 261100Z AUTO 32014KT 2 1/2SM -SN BR FEW027 BKN036 OVC046 M07/M09 A2998 1030 84 -1400 320/14 RMK AO2 P0000 TSNO
94908KDBQ DBQ20020226050513602/26/02 05:05:31  5-MIN KDBQ 261105Z AUTO 32015KT 2SM -SN BR FEW025 BKN036 OVC046 M07/M09 A2998 1030 84 -1400 310/15 RMK AO2 P0000 TSNO
94908KDBQ DBQ20020226051013602/26/02 05:10:31  5-MIN KDBQ 261110Z AUTO 32013KT 2SM -SN BR FEW025 BKN036 OVC046 M07/M09 A2998 1030 84 -1400 320/13 RMK AO2 P0000 TSNO
94908KDBQ DBQ20020226051514002/26/02 05:15:31  5-MIN KDBQ 261115Z AUTO 32014KT 1 3/4SM -SN BR FEW025 BKN036 OVC046 M07/M09 A2997 1030 84 -1400 320/14 RMK AO2 P0000 TSNO
94908KDBQ DBQ20020226052013602/26/02 05:20:31  5-MIN KDBQ 261120Z AUTO 32015KT 2SM -SN BR FEW025 BKN036 OVC055 M07/M09 A2997 1030 84 -1400 320/15 RMK AO2 P0000 TSNO
94908KDBQ DBQ20020226052513602/26/02 05:25:31  5-MIN KDBQ 261125Z AUTO 32014KT 2SM -SN BR FEW023 BKN036 OVC055 M07/M09 A2997 1030 84 -1400 320/14 RMK AO2 P0000 TSNO
94908KDBQ DBQ20020226053013602/26/02 05:30:31  5-MIN KDBQ 261130Z AUTO 33013KT 2SM -SN BR FEW023 BKN036 OVC055 M07/M09 A2997 1030 84 -1400 320/13 RMK AO2 P0000 TSNO
94908KDBQ DBQ20020226053514002/26/02 05:35:31  5-MIN KDBQ 261135Z AUTO 32014KT 2 1/2SM -SN BR FEW023 BKN050 OVC075 M07/M09 A2997 1030 84 -1400 320/14 RMK AO2 P0000 TSNO
94908KDBQ DBQ20020226054014002/26/02 05:40:31  5-MIN KDBQ 261140Z AUTO 32012KT 2 1/2SM -SN BR FEW023 BKN050 OVC075 M07/M09 A2997 1030 84 -1400 320/12 RMK AO2 P0000 TSNO
94908KDBQ DBQ20020226054513302/26/02 05:45:31  5-MIN KDBQ 261145Z AUTO 32015KT 2 1/2SM -SN BR BKN055 OVC075 M07/M09 A2997 1030 84 -1400 310/15 RMK AO2 P0000 TSNO
94908KDBQ DBQ20020226055016402/26/02 05:50:31  5-MIN KDBQ 261150Z 31015KT 2 1/2SM -SN BR BKN060 OVC075 M07/M09 A2997 1030 84 -1400 310/15 RMK AO2 SLP164 P0000 60000 T10721094 11050 21072 58007
94908KDBQ DBQ20020226055516002/26/02 05:55:31  5-MIN KDBQ 261155Z 32014KT 2SM -SN BR BKN060 OVC070 M07/M09 A2997 1030 84 -1400 310/14 RMK AO2 SLP163 P0000 60000 T10721094 11050 21072 56009
94908KDBQ DBQ20020226060011602/26/02 06:00:31  5-MIN KDBQ 261200Z 31014KT 2SM -SN BKN060 OVC070 M07/M10 A2997 1030 81 -1400 310/14 RMK AO2 P0000
94908KDBQ DBQ20020226060512302/26/02 06:05:31  5-MIN KDBQ 261205Z 32013KT 2 1/2SM -SN BR BKN060 OVC070 M08/M10 A2997 1030 84 -1400 310/13 RMK AO2 P0000
94908KDBQ DBQ20020226061012302/26/02 06:10:31  5-MIN KDBQ 261210Z 31015KT 2 1/2SM -SN BR BKN060 OVC070 M08/M10 A2997 1030 84 -1400 310/15 RMK AO2 P0000
94908KDBQ DBQ20020226061511902/26/02 06:15:31  5-MIN KDBQ 261215Z 31013KT 4SM -SN BR BKN060 OVC085 M08/M10 A2997 1030 84 -1400 310/13 RMK AO2 P0000
94908KDBQ DBQ20020226062011902/26/02 06:20:31  5-MIN KDBQ 261220Z 31011KT 4SM -SN BR BKN060 OVC085 M08/M10 A2997 1030 84 -1400 310/11 RMK AO2 P0000
94908KDBQ DBQ20020226062511902/26/02 06:25:31  5-MIN KDBQ 261225Z 31012KT 5SM -SN BR BKN060 OVC085 M08/M10 A2997 1030 84 -1400 310/12 RMK AO2 P0000
94908KDBQ DBQ20020226063011902/26/02 06:30:31  5-MIN KDBQ 261230Z 31014KT 5SM -SN BR BKN060 OVC085 M08/M10 A2997 1030 84 -1400 310/14 RMK AO2 P0000
94908KDBQ DBQ20020226063512202/26/02 06:35:31  5-MIN KDBQ 261235Z 32014G20KT 4SM -SN BKN060 OVC085 M08/M11 A2997 1030 80 -1400 310/14G20 RMK AO2 P0000
94908KDBQ DBQ20020226064012302/26/02 06:40:31  5-MIN KDBQ 261240Z 31015KT 5SM -SN SCT049 BKN060 OVC085 M08/M11 A2997 1030 80 -1400 310/15 RMK AO2 P0000
94908KDBQ DBQ20020226064512302/26/02 06:45:31  5-MIN KDBQ 261245Z 31014KT 5SM -SN FEW046 BKN060 OVC085 M08/M11 A2997 1030 80 -1400 310/14 RMK AO2 P0000
94908KDBQ DBQ20020226065014002/26/02 06:50:31  5-MIN KDBQ 261250Z 31013KT 3SM -SN FEW044 BKN060 OVC080 M08/M11 A2997 1030 80 -1500 310/13 RMK AO2 SLP164 P0000 T10781106
94908KDBQ DBQ20020226065513602/26/02 06:55:31  5-MIN KDBQ 261255Z 31013KT 3SM -SN BR FEW040 OVC060 M08/M11 A2997 1030 84 -1500 310/13 RMK AO2 SLP166 P0000 T10831106
94908KDBQ DBQ20020226070011902/26/02 07:00:31  5-MIN KDBQ 261300Z 31015KT 3SM -SN BR FEW038 OVC060 M08/M11 A2997 1030 84 -1500 310/15 RMK AO2 P0000
94908KDBQ DBQ20020226070511202/26/02 07:05:31  5-MIN KDBQ 261305Z 31014KT 3SM -SN BR OVC055 M08/M11 A2997 1030 84 -1500 310/14 RMK AO2 P0000
94908KDBQ DBQ20020226071011302/26/02 07:10:31  5-MIN KDBQ 261310Z 31015KT 2 1/2SM -SN OVC060 M08/M11 A2997 1030 80 -1500 310/15 RMK AO2 P0000
94908KDBQ DBQ20020226071511902/26/02 07:15:31  5-MIN KDBQ 261315Z 31016G21KT 2 1/2SM -SN OVC060 M08/M11 A2997 1030 80 -1500 310/16G21 RMK AO2 P0000
94908KDBQ DBQ20020226072011902/26/02 07:20:31  5-MIN KDBQ 261320Z 32015G21KT 2 1/2SM -SN OVC060 M08/M11 A2997 1030 80 -1500 320/15G21 RMK AO2 P0000
94908KDBQ DBQ20020226072510902/26/02 07:25:31  5-MIN KDBQ 261325Z 31016KT 2SM -SN OVC060 M08/M11 A2997 1030 80 -1500 310/16 RMK AO2 P0000
94908KDBQ DBQ20020226073011302/26/02 07:30:31  5-MIN KDBQ 261330Z 31015KT 1 3/4SM -SN OVC055 M08/M11 A2997 1030 80 -1500 310/15 RMK AO2 P0000
94908KDBQ DBQ20020226073512002/26/02 07:35:31  5-MIN KDBQ 261335Z 32016KT 1 1/2SM -SN SCT043 OVC055 M08/M11 A2998 1030 80 -1500 310/16 RMK AO2 P0000
94908KDBQ DBQ20020226074012002/26/02 07:40:31  5-MIN KDBQ 261340Z 32016KT 1 3/4SM -SN BKN045 OVC055 M08/M11 A2998 1030 80 -1500 320/16 RMK AO2 P0000
94908KDBQ DBQ20020226074511902/26/02 07:45:31  5-MIN KDBQ 261345Z 31014KT 2SM -SN BR BKN045 OVC055 M08/M11 A2998 1020 84 -1500 310/14 RMK AO2 P0000
94908KDBQ DBQ20020226075013302/26/02 07:50:31  5-MIN KDBQ 261350Z 31015KT 2SM -SN BKN045 OVC055 M08/M11 A2998 1020 80 -1500 310/15 RMK AO2 SLP168 P0000 T10831111
94908KDBQ DBQ20020226075513002/26/02 07:55:31  5-MIN KDBQ 261355Z 31014KT 2 1/2SM -SN OVC045 M08/M11 A2998 1030 80 -1500 310/14 RMK AO2 SLP169 P0000 T10831111
94908KDBQ DBQ20020226080011302/26/02 08:00:31  5-MIN KDBQ 261400Z 31014KT 2 1/2SM -SN OVC045 M08/M11 A2998 1020 80 -1500 310/14 RMK AO2 P0000
94908KDBQ DBQ20020226080511302/26/02 08:05:31  5-MIN KDBQ 261405Z 32013KT 2 1/2SM -SN OVC047 M08/M11 A2998 1030 80 -1500 320/13 RMK AO2 P0000
94908KDBQ DBQ20020226081010902/26/02 08:10:31  5-MIN KDBQ 261410Z 31015KT 2SM -SN OVC047 M08/M11 A2998 1030 80 -1500 310/15 RMK AO2 P0000
94908KDBQ DBQ20020226081511502/26/02 08:15:31  5-MIN KDBQ 261415Z 31016G22KT 2SM -SN OVC047 M08/M11 A2998 1030 80 -1500 310/16G22 RMK AO2 P0000
94908KDBQ DBQ20020226082011502/26/02 08:20:31  5-MIN KDBQ 261420Z 32015G22KT 2SM -SN OVC047 M08/M11 A2997 1030 80 -1500 310/15G22 RMK AO2 P0000
94908KDBQ DBQ20020226082512002/26/02 08:25:31  5-MIN KDBQ 261425Z 32014KT 1 3/4SM -SN SCT039 OVC047 M08/M11 A2997 1030 80 -1500 320/14 RMK AO2 P0000
94908KDBQ DBQ20020226083012302/26/02 08:30:31  5-MIN KDBQ 261430Z 31012KT 1 3/4SM -SN BR BKN037 OVC047 M08/M11 A2997 1030 84 -1500 310/12 RMK AO2 P0000
94908KDBQ DBQ20020226083512002/26/02 08:35:31  5-MIN KDBQ 261435Z 32014KT 1 3/4SM -SN BKN037 OVC047 M08/M11 A2997 1030 80 -1500 320/14 RMK AO2 P0000
94908KDBQ DBQ20020226084011602/26/02 08:40:31  5-MIN KDBQ 261440Z 32015KT 2SM -SN BKN039 OVC047 M08/M11 A2997 1030 80 -1500 320/15 RMK AO2 P0000
94908KDBQ DBQ20020226084510902/26/02 08:45:31  5-MIN KDBQ 261445Z 31015KT 2SM -SN OVC039 M08/M11 A2997 1030 80 -1500 310/15 RMK AO2 P0000
94908KDBQ DBQ20020226085014202/26/02 08:50:31  5-MIN KDBQ 261450Z 32016KT 2 1/2SM -SN OVC037 M08/M11 A2997 1030 80 -1500 320/16 RMK AO2 SLP167 P0000 60000 T10831111 56009
94908KDBQ DBQ20020226085514402/26/02 08:55:31  5-MIN KDBQ 261455Z 32015G21KT 3SM -SN OVC037 M08/M11 A2997 1030 80 -1500 320/15G21 RMK AO2 SLP167 P0000 60000 T10831111 50002
94908KDBQ DBQ20020226090012202/26/02 09:00:31  5-MIN KDBQ 261500Z 31016G22KT 3SM -SN FEW016 OVC037 M08/M11 A2997 1030 77 -1500 310/16G22 RMK AO2 P0000
94908KDBQ DBQ20020226090512202/26/02 09:05:31  5-MIN KDBQ 261505Z 32017G23KT 3SM -SN FEW017 OVC037 M08/M11 A2997 1030 80 -1500 320/17G23 RMK AO2 P0000
94908KDBQ DBQ20020226091010902/26/02 09:10:31  5-MIN KDBQ 261510Z 31017KT 3SM -SN OVC037 M08/M11 A2997 1030 77 -1400 310/17 RMK AO2 P0000
94908KDBQ DBQ20020226091511602/26/02 09:15:31  5-MIN KDBQ 261515Z 31019KT 3SM -SN FEW016 OVC037 M08/M11 A2997 1030 77 -1400 310/19 RMK AO2 P0000
94908KDBQ DBQ20020226092011602/26/02 09:20:31  5-MIN KDBQ 261520Z 31018KT 3SM -SN FEW016 OVC037 M08/M11 A2996 1040 77 -1400 310/18 RMK AO2 P0000
94908KDBQ DBQ20020226092511602/26/02 09:25:31  5-MIN KDBQ 261525Z 32016KT 4SM -SN FEW016 OVC037 M08/M11 A2997 1040 77 -1400 320/16 RMK AO2 P0000
94908KDBQ DBQ20020226093011602/26/02 09:30:31  5-MIN KDBQ 261530Z 31016KT 4SM -SN FEW016 OVC037 M08/M11 A2997 1040 77 -1400 310/16 RMK AO2 P0000
94908KDBQ DBQ20020226093511602/26/02 09:35:31  5-MIN KDBQ 261535Z 31016KT 5SM -SN FEW018 OVC037 M08/M11 A2997 1040 77 -1400 310/16 RMK AO2 P0000
94908KDBQ DBQ20020226094012302/26/02 09:40:31  5-MIN KDBQ 261540Z 31015KT 5SM -SN SCT018 BKN037 OVC044 M08/M11 A2997 1040 77 -1400 310/15 RMK AO2 P0000
94908KDBQ DBQ20020226094511602/26/02 09:45:31  5-MIN KDBQ 261545Z 31015KT 4SM -SN SCT018 OVC037 M08/M12 A2997 1030 74 -1400 310/15 RMK AO2 P0000
94908KDBQ DBQ20020226095014502/26/02 09:50:31  5-MIN KDBQ 261550Z 31016KT 5SM HZ SCT018 BKN039 OVC047 M08/M11 A2997 1030 77 -1400 310/16 RMK AO2 SNE50 SLP165 P0000 T10781111
94908KDBQ DBQ20020226095514502/26/02 09:55:31  5-MIN KDBQ 261555Z 31016KT 5SM HZ SCT018 BKN040 OVC048 M08/M11 A2997 1030 77 -1400 310/16 RMK AO2 SNE50 SLP166 P0000 T10781111
94908KDBQ DBQ20020226100011602/26/02 10:00:31  5-MIN KDBQ 261600Z 32013KT 6SM HZ SCT018 BKN040 OVC048 M08/M11 A2997 1030 77 -1500 320/13 RMK AO2
94908KDBQ DBQ20020226100510902/26/02 10:05:31  5-MIN KDBQ 261605Z 31018KT 6SM HZ SCT018 OVC042 M08/M11 A2997 1030 77 -1400 310/18 RMK AO2
94908KDBQ DBQ20020226101011502/26/02 10:10:31  5-MIN KDBQ 261610Z 32018G23KT 6SM HZ SCT018 OVC043 M08/M11 A2997 1030 77 -1400 320/18G23 RMK AO2
94908KDBQ DBQ20020226101513502/26/02 10:15:31  5-MIN KDBQ 261615Z 32018G23KT 5SM -SN FEW018 BKN040 OVC048 M08/M11 A2997 1040 77 -1400 320/18G23 RMK AO2 SNB14 P0000
94908KDBQ DBQ20020226102012202/26/02 10:20:31  5-MIN KDBQ 261620Z 33017KT 5SM -SN FEW018 OVC040 M08/M11 A2997 1040 77 -1400 330/17 RMK AO2 SNB14 P0000
94908KDBQ DBQ20020226102513102/26/02 10:25:31  5-MIN KDBQ 261625Z 33017KT 5SM HZ FEW018 SCT031 OVC040 M07/M11 A2997 1030 74 -1400 330/17 RMK AO2 SNB14E24 P0000
94908KDBQ DBQ20020226103012402/26/02 10:30:31  5-MIN KDBQ 261630Z 31014KT 6SM HZ FEW018 OVC040 M07/M11 A2997 1040 74 -1400 310/14 RMK AO2 SNB14E24 P0000
94908KDBQ DBQ20020226103512802/26/02 10:35:31  5-MIN KDBQ 261635Z 31016KT 7SM SCT018 BKN035 OVC042 M07/M11 A2997 1040 74 -1400 310/16 RMK AO2 SNB14E24 P0000
94908KDBQ DBQ20020226104013502/26/02 10:40:31  5-MIN KDBQ 261640Z 32016G21KT 6SM -SN SCT018 BKN034 OVC041 M07/M11 A2996 1040 74 -1400 320/16G21 RMK AO2 SNB14 P0000
94908KDBQ DBQ20020226104513102/26/02 10:45:31  5-MIN KDBQ 261645Z 32014KT 6SM HZ SCT018 BKN032 OVC041 M07/M11 A2996 1040 74 -1400 320/14 RMK AO2 SNB14E43 P0000
94908KDBQ DBQ20020226105014502/26/02 10:50:31  5-MIN KDBQ 261650Z 32016KT 7SM SCT018 BKN034 OVC046 M07/M11 A2996 1040 74 -1400 320/16 RMK AO2 SNB14E43 SLP164 P0000 T10721111
94908KDBQ DBQ20020226105515202/26/02 10:55:31  5-MIN KDBQ 261655Z 32017G22KT 6SM -SN SCT018 BKN034 OVC046 M07/M11 A2996 1040 74 -1400 310/17G22 RMK AO2 SNB14 SLP164 P0000 T10721111
94908KDBQ DBQ20020226110012902/26/02 11:00:31  5-MIN KDBQ 261700Z 32016G22KT 5SM -SN SCT020 BKN034 OVC044 M07/M11 A2996 1040 74 -1400 320/16G22 RMK AO2 P0000
94908KDBQ DBQ20020226110512302/26/02 11:05:31  5-MIN KDBQ 261705Z 31016KT 4SM -SN BKN020 BKN034 OVC044 M07/M11 A2996 1040 74 -1400 310/16 RMK AO2 P0000
94908KDBQ DBQ20020226111012302/26/02 11:10:31  5-MIN KDBQ 261710Z 32015KT 5SM -SN BKN018 BKN034 OVC044 M07/M11 A2996 1040 74 -1400 310/15 RMK AO2 P0000
94908KDBQ DBQ20020226111512302/26/02 11:15:31  5-MIN KDBQ 261715Z 32016KT 5SM -SN BKN018 BKN034 OVC044 M07/M11 A2996 1040 74 -1400 320/16 RMK AO2 P0000
94908KDBQ DBQ20020226112011602/26/02 11:20:31  5-MIN KDBQ 261720Z 32014KT 4SM -SN BKN018 OVC042 M07/M11 A2996 1040 74 -1400 320/14 RMK AO2 P0000
94908KDBQ DBQ20020226112511602/26/02 11:25:31  5-MIN KDBQ 261725Z 32017KT 5SM -SN BKN020 OVC037 M07/M11 A2996 1040 77 -1400 320/17 RMK AO2 P0000
94908KDBQ DBQ20020226113012302/26/02 11:30:31  5-MIN KDBQ 261730Z 32016KT 5SM -SN BKN018 BKN023 OVC039 M07/M11 A2996 1040 74 -1400 320/16 RMK AO2 P0000
94908KDBQ DBQ20020226113511802/26/02 11:35:31  5-MIN KDBQ 261735Z 32016KT 7SM BKN020 OVC039 M07/M11 A2996 1050 71 -1300 320/16 RMK AO2 SNE31 P0000
94908KDBQ DBQ20020226114011802/26/02 11:40:31  5-MIN KDBQ 261740Z 32016KT 9SM BKN020 OVC039 M07/M11 A2996 1040 74 -1400 320/16 RMK AO2 SNE31 P0000
94908KDBQ DBQ20020226114511102/26/02 11:45:31  5-MIN KDBQ 261745Z 31017KT 9SM OVC020 M07/M11 A2996 1040 74 -1300 310/17 RMK AO2 SNE31 P0000
94908KDBQ DBQ20020226115015202/26/02 11:50:31  5-MIN KDBQ 261750Z 31015KT 8SM OVC020 M07/M11 A2996 1040 74 -1400 310/15 RMK AO2 SNE31 SLP162 P0000 60000 T10721111 11067 21083 50002
94908KDBQ DBQ20020226115515902/26/02 11:55:31  5-MIN KDBQ 261755Z 32016KT 6SM -SN OVC020 M07/M11 A2996 1050 74 -1400 320/16 RMK AO2 SNE31B54 SLP161 P0000 60000 T10721111 11067 21083 58005
94908KDBQ DBQ20020226120011502/26/02 12:00:31  5-MIN KDBQ 261800Z 32017G22KT 5SM -SN OVC020 M07/M11 A2995 1050 71 -1300 320/17G22 RMK AO2 P0000
94908KDBQ DBQ20020226120511502/26/02 12:05:31  5-MIN KDBQ 261805Z 31017G22KT 5SM -SN OVC022 M07/M11 A2995 1050 74 -1400 310/17G22 RMK AO2 P0000
94908KDBQ DBQ20020226121010902/26/02 12:10:31  5-MIN KDBQ 261810Z 31017KT 5SM -SN OVC022 M07/M11 A2995 1050 71 -1300 300/17 RMK AO2 P0000
94908KDBQ DBQ20020226121511502/26/02 12:15:31  5-MIN KDBQ 261815Z 31017G23KT 4SM -SN OVC022 M07/M11 A2995 1050 71 -1300 310/17G23 RMK AO2 P0000
94908KDBQ DBQ20020226122011502/26/02 12:20:31  5-MIN KDBQ 261820Z 31019G23KT 4SM -SN OVC022 M07/M11 A2995 1050 74 -1300 310/19G23 RMK AO2 P0000
94908KDBQ DBQ20020226122510902/26/02 12:25:31  5-MIN KDBQ 261825Z 31016KT 5SM -SN OVC022 M07/M11 A2994 1060 71 -1300 310/16 RMK AO2 P0000
94908KDBQ DBQ20020226123011602/26/02 12:30:31  5-MIN KDBQ 261830Z 31018KT 4SM -SN BKN022 OVC070 M07/M11 A2994 1060 71 -1300 300/18 RMK AO2 P0000
94908KDBQ DBQ20020226123512202/26/02 12:35:31  5-MIN KDBQ 261835Z 32015G22KT 4SM -SN BKN022 OVC033 M07/M11 A2994 1060 71 -1300 320/15G22 RMK AO2 P0000
94908KDBQ DBQ20020226124011602/26/02 12:40:31  5-MIN KDBQ 261840Z 30014KT 4SM -SN BKN022 OVC031 M07/M11 A2994 1060 74 -1300 300/14 RMK AO2 P0000
94908KDBQ DBQ20020226124511602/26/02 12:45:31  5-MIN KDBQ 261845Z 31014KT 5SM -SN BKN022 OVC031 M07/M11 A2994 1060 74 -1300 310/14 RMK AO2 P0000
94908KDBQ DBQ20020226125013902/26/02 12:50:31  5-MIN KDBQ 261850Z 31016G22KT 5SM -SN BKN022 OVC031 M07/M11 A2994 1060 74 -1300 310/16G22 RMK AO2 SLP156 P0000 T10671106
94908KDBQ DBQ20020226125513202/26/02 12:55:31  5-MIN KDBQ 261855Z 32015G22KT 5SM -SN OVC022 M07/M11 A2994 1060 71 -1300 320/15G22 RMK AO2 SLP155 P0000 T10671111
94908KDBQ DBQ20020226130011402/26/02 13:00:31  5-MIN KDBQ 261900Z 31017KT 5SM HZ OVC022 M07/M11 A2994 1060 74 -1300 310/17 RMK AO2 SNE00 P0000
94908KDBQ DBQ20020226130510902/26/02 13:05:31  5-MIN KDBQ 261905Z 30018KT 4SM -SN OVC022 M07/M11 A2994 1060 74 -1300 300/18 RMK AO2 P0000
94908KDBQ DBQ20020226131010902/26/02 13:10:31  5-MIN KDBQ 261910Z 31018KT 4SM -SN OVC022 M07/M11 A2994 1060 74 -1300 310/18 RMK AO2 P0000
94908KDBQ DBQ20020226131510902/26/02 13:15:31  5-MIN KDBQ 261915Z 31018KT 3SM -SN OVC022 M07/M11 A2994 1060 74 -1300 310/18 RMK AO2 P0000
94908KDBQ DBQ20020226132011302/26/02 13:20:31  5-MIN KDBQ 261920Z 30017KT 2 1/2SM -SN OVC022 M07/M11 A2994 1060 74 -1300 300/17 RMK AO2 P0000
94908KDBQ DBQ20020226132511502/26/02 13:25:31  5-MIN KDBQ 261925Z 30013G21KT 3SM -SN OVC020 M07/M11 A2994 1060 74 -1300 300/13G21 RMK AO2 P0000
94908KDBQ DBQ20020226133011602/26/02 13:30:31  5-MIN KDBQ 261930Z 31016KT 3SM -SN BKN020 OVC025 M07/M10 A2993 1070 77 -1300 310/16 RMK AO2 P0000
94908KDBQ DBQ20020226133511302/26/02 13:35:31  5-MIN KDBQ 261935Z 32015KT 2 1/2SM -SN OVC020 M07/M10 A2994 1060 77 -1300 320/15 RMK AO2 P0000
94908KDBQ DBQ20020226134011302/26/02 13:40:31  5-MIN KDBQ 261940Z 30018KT 2 1/2SM -SN OVC020 M07/M10 A2993 1060 77 -1300 300/18 RMK AO2 P0000
94908KDBQ DBQ20020226134511902/26/02 13:45:31  5-MIN KDBQ 261945Z 31017G21KT 2 1/2SM -SN OVC020 M07/M10 A2994 1060 77 -1300 310/17G21 RMK AO2 P0000
94908KDBQ DBQ20020226135014402/26/02 13:50:31  5-MIN KDBQ 261950Z 31014G23KT 2 1/2SM -SN OVC020 M07/M10 A2994 1060 77 -1300 310/14G23 RMK AO2 VIS 2V3 SLP155 P0000 T10671100
94908KDBQ DBQ20020226135513002/26/02 13:55:31  5-MIN KDBQ 261955Z 30017KT 2 1/2SM -SN OVC020 M07/M10 A2994 1060 77 -1300 300/17 RMK AO2 SLP155 P0000 T10671100
94908KDBQ DBQ20020226140011302/26/02 14:00:31  5-MIN KDBQ 262000Z 30018KT 2 1/2SM -SN OVC020 M07/M10 A2994 1060 77 -1300 300/18 RMK AO2 P0000
94908KDBQ DBQ20020226140511302/26/02 14:05:31  5-MIN KDBQ 262005Z 30018KT 2 1/2SM -SN OVC020 M07/M10 A2994 1060 77 -1300 300/18 RMK AO2 P0000
94908KDBQ DBQ20020226141012602/26/02 14:10:31  5-MIN KDBQ 262010Z 31014G22KT 2 1/2SM -SN BKN020 OVC035 M07/M11 A2994 1060 74 -1300 310/14G22 RMK AO2 P0000
94908KDBQ DBQ20020226141513302/26/02 14:15:31  5-MIN KDBQ 262015Z 29015G22KT 1 3/4SM -SN BKN020 BKN024 OVC035 M07/M10 A2994 1060 77 -1300 290/15G22 RMK AO2 P0000
94908KDBQ DBQ20020226142012002/26/02 14:20:31  5-MIN KDBQ 262020Z 30016KT 1 3/4SM -SN BKN018 OVC024 M07/M09 A2994 1060 81 -1300 300/16 RMK AO2 P0000
94908KDBQ DBQ20020226142512702/26/02 14:25:31  5-MIN KDBQ 262025Z 30014KT 1 3/4SM -SN BKN018 BKN023 OVC028 M07/M10 A2994 1060 77 -1300 300/14 RMK AO2 P0000
94908KDBQ DBQ20020226143012902/26/02 14:30:31  5-MIN KDBQ 262030Z 30018G25KT 2SM -SN SCT018 BKN023 OVC034 M07/M09 A2994 1060 81 -1300 300/18G25 RMK AO2 P0000
94908KDBQ DBQ20020226143512902/26/02 14:35:31  5-MIN KDBQ 262035Z 30017G25KT 2SM -SN SCT018 BKN023 OVC036 M07/M10 A2994 1060 77 -1300 290/17G25 RMK AO2 P0000
94908KDBQ DBQ20020226144012302/26/02 14:40:31  5-MIN KDBQ 262040Z 29015KT 2SM -SN SCT018 BKN023 OVC036 M07/M10 A2994 1060 77 -1300 290/15 RMK AO2 P0000
94908KDBQ DBQ20020226144512902/26/02 14:45:31  5-MIN KDBQ 262045Z 30014G20KT 2SM -SN BKN018 BKN025 OVC034 M07/M10 A2994 1060 77 -1300 300/14G20 RMK AO2 P0000
94908KDBQ DBQ20020226145016102/26/02 14:50:31  5-MIN KDBQ 262050Z AUTO 30015KT 1 3/4SM -SN BKN018 BKN023 OVC034 M07/M09 A2995 1050 81 -1300 300/15 RMK AO2 SLP158 P0000 60000 T10671094 58005
94908KDBQ DBQ20020226145516202/26/02 14:55:31  5-MIN KDBQ 262055Z AUTO 29020KT 2SM -SN BKN018 BKN027 OVC034 M07/M10 A2995 1050 77 -1300 290/20 RMK AO2 SLP158 P0000 60000 T10671100 55003 TSNO
94908KDBQ DBQ20020226150013902/26/02 15:00:31  5-MIN KDBQ 262100Z AUTO 30013G22KT 2SM -SN BKN018 BKN025 OVC036 M07/M10 A2995 1050 77 -1300 300/13G22 RMK AO2 P0000 TSNO
94908KDBQ DBQ20020226150512602/26/02 15:05:31  5-MIN KDBQ 262105Z 30017G23KT 1 3/4SM -SN BKN018 OVC025 M07/M10 A2995 1050 81 -1400 300/17G23 RMK AO2 P0000
94908KDBQ DBQ20020226151012602/26/02 15:10:31  5-MIN KDBQ 262110Z 29015G23KT 1 3/4SM -SN BKN019 OVC027 M07/M11 A2994 1060 77 -1300 290/15G23 RMK AO2 P0000
94908KDBQ DBQ20020226151512702/26/02 15:15:31  5-MIN KDBQ 262115Z 30015KT 1 3/4SM -SN SCT016 BKN021 OVC027 M07/M10 A2995 1050 81 -1400 300/15 RMK AO2 P0000
94908KDBQ DBQ20020226152012002/26/02 15:20:31  5-MIN KDBQ 262120Z 30018KT 1 1/2SM -SN BKN018 OVC023 M07/M10 A2995 1050 81 -1400 300/18 RMK AO2 P0000
94908KDBQ DBQ20020226152512602/26/02 15:25:31  5-MIN KDBQ 262125Z 31017G22KT 1 1/2SM -SN BKN018 OVC024 M07/M10 A2995 1050 81 -1400 310/17G22 RMK AO2 P0000
94908KDBQ DBQ20020226153010902/26/02 15:30:31  5-MIN KDBQ 262130Z 31015KT 2SM -SN OVC021 M07/M11 A2995 1050 77 -1400 300/15 RMK AO2 P0000
94908KDBQ DBQ20020226153510902/26/02 15:35:31  5-MIN KDBQ 262135Z 31016KT 2SM -SN OVC020 M07/M11 A2995 1050 77 -1400 300/16 RMK AO2 P0000
94908KDBQ DBQ20020226154011502/26/02 15:40:31  5-MIN KDBQ 262140Z 30017G24KT 2SM -SN OVC020 M07/M11 A2996 1050 74 -1400 300/17G24 RMK AO2 P0000
94908KDBQ DBQ20020226154512602/26/02 15:45:31  5-MIN KDBQ 262145Z 30018G24KT 2 1/2SM -SN BKN020 OVC031 M07/M11 A2996 1050 77 -1400 300/18G24 RMK AO2 P0000
94908KDBQ DBQ20020226155014002/26/02 15:50:31  5-MIN KDBQ 262150Z 30016KT 3SM -SN BKN020 BKN035 OVC048 M07/M11 A2996 1040 74 -1400 300/16 RMK AO2 SLP163 P0000 T10721111
94908KDBQ DBQ20020226155514002/26/02 15:55:31  5-MIN KDBQ 262155Z 29015KT 2SM -SN BKN020 BKN033 OVC048 M07/M11 A2995 1050 74 -1400 290/15 RMK AO2 SLP162 P0000 T10721111
94908KDBQ DBQ20020226160012902/26/02 16:00:31  5-MIN KDBQ 262200Z 29017G22KT 2SM -SN BKN020 BKN027 OVC048 M07/M11 A2996 1040 77 -1400 290/17G22 RMK AO2 P0000
94908KDBQ DBQ20020226160512902/26/02 16:05:31  5-MIN KDBQ 262205Z 30017G22KT 2SM -SN BKN020 BKN027 OVC048 M07/M11 A2996 1040 77 -1400 300/17G22 RMK AO2 P0000
94908KDBQ DBQ20020226161012302/26/02 16:10:31  5-MIN KDBQ 262210Z 30015KT 2SM -SN SCT018 BKN028 OVC048 M07/M11 A2996 1040 74 -1400 300/15 RMK AO2 P0000
94908KDBQ DBQ20020226161512302/26/02 16:15:31  5-MIN KDBQ 262215Z 31015KT 3SM -SN SCT017 BKN026 OVC048 M07/M11 A2996 1040 77 -1400 300/15 RMK AO2 P0000
94908KDBQ DBQ20020226162012802/26/02 16:20:31  5-MIN KDBQ 262220Z 29015KT 2SM HZ SCT019 BKN026 OVC070 M07/M11 A2996 1040 74 -1400 290/15 RMK AO2 SNE19 P0000
94908KDBQ DBQ20020226162512302/26/02 16:25:31  5-MIN KDBQ 262225Z 29016KT 2SM -SN FEW017 BKN022 OVC046 M08/M11 A2996 1040 80 -1400 290/16 RMK AO2 P0000
94908KDBQ DBQ20020226163012302/26/02 16:30:31  5-MIN KDBQ 262230Z 30016KT 2SM -SN BKN020 BKN026 OVC046 M08/M11 A2996 1040 77 -1400 300/16 RMK AO2 P0000
94908KDBQ DBQ20020226163512302/26/02 16:35:31  5-MIN KDBQ 262235Z 31017KT 2SM -SN BKN020 BKN026 OVC046 M08/M11 A2996 1040 77 -1400 310/17 RMK AO2 P0000
94908KDBQ DBQ20020226164012302/26/02 16:40:31  5-MIN KDBQ 262240Z 30016KT 2SM -SN SCT020 BKN026 OVC037 M08/M11 A2996 1040 77 -1400 300/16 RMK AO2 P0000
94908KDBQ DBQ20020226164512302/26/02 16:45:31  5-MIN KDBQ 262245Z 30016KT 2SM -SN FEW020 BKN026 OVC065 M08/M11 A2996 1040 77 -1400 300/16 RMK AO2 P0000
94908KDBQ DBQ20020226165014002/26/02 16:50:31  5-MIN KDBQ 262250Z 30016KT 2SM -SN BKN022 BKN047 OVC065 M08/M11 A2996 1040 80 -1400 300/16 RMK AO2 SLP165 P0000 T10781106
94908KDBQ DBQ20020226165514602/26/02 16:55:31  5-MIN KDBQ 262255Z 31020G23KT 2SM -SN FEW020 BKN025 OVC070 M08/M11 A2997 1040 77 -1400 310/20G23 RMK AO2 SLP166 P0000 T10781111
94908KDBQ DBQ20020226170012902/26/02 17:00:31  5-MIN KDBQ 262300Z 31015G24KT 2SM -SN SCT023 BKN035 OVC070 M08/M11 A2997 1040 77 -1400 310/15G24 RMK AO2 P0000
94908KDBQ DBQ20020226170513402/26/02 17:05:31  5-MIN KDBQ 262305Z 30015G24KT 2SM HZ FEW024 SCT045 OVC070 M08/M12 A2997 1040 74 -1400 300/15G24 RMK AO2 SNE05 P0000
94908KDBQ DBQ20020226171012702/26/02 17:10:31  5-MIN KDBQ 262310Z 30017G23KT 2SM HZ FEW026 OVC070 M08/M12 A2996 1040 74 -1400 300/17G23 RMK AO2 SNE05 P0000
94908KDBQ DBQ20020226171513402/26/02 17:15:31  5-MIN KDBQ 262315Z 30018G23KT 2SM HZ FEW024 SCT039 OVC070 M08/M12 A2997 1030 77 -1500 300/18G23 RMK AO2 SNE05 P0000
94908KDBQ DBQ20020226172012702/26/02 17:20:31  5-MIN KDBQ 262320Z 30014G22KT 2SM HZ FEW024 OVC070 M08/M12 A2997 1030 77 -1500 300/14G22 RMK AO2 SNE05 P0000
94908KDBQ DBQ20020226172512502/26/02 17:25:31  5-MIN KDBQ 262325Z 30013KT 2SM -SN FEW055 OVC070 M08/M12 A2997 1030 77 -1500 300/13 RMK AO2 SNE05B24 P0000
94908KDBQ DBQ20020226173012502/26/02 17:30:31  5-MIN KDBQ 262330Z 30013KT 2SM -SN FEW055 OVC070 M08/M11 A2997 1040 80 -1500 300/13 RMK AO2 SNE05B24 P0000
94908KDBQ DBQ20020226173512502/26/02 17:35:31  5-MIN KDBQ 262335Z 30013KT 4SM -SN FEW050 OVC070 M08/M12 A2997 1030 77 -1500 300/13 RMK AO2 SNE05B24 P0000
94908KDBQ DBQ20020226174012702/26/02 17:40:31  5-MIN KDBQ 262340Z 30012KT 3SM HZ FEW021 OVC070 M08/M12 A2997 1030 77 -1500 300/12 RMK AO2 SNE05B24E37 P0000
94908KDBQ DBQ20020226174512702/26/02 17:45:31  5-MIN KDBQ 262345Z 30016KT 4SM HZ FEW021 OVC070 M08/M12 A2997 1030 77 -1500 300/16 RMK AO2 SNE05B24E37 P0000
94908KDBQ DBQ20020226175016102/26/02 17:50:31  5-MIN KDBQ 262350Z 30016KT 6SM HZ OVC065 M08/M12 A2997 1030 77 -1500 300/16 RMK AO2 SNE05B24E37 SLP169 P0000 60000 T10831117 11067 21083 55003
94908KDBQ DBQ20020226175515802/26/02 17:55:31  5-MIN KDBQ 262355Z 30015KT 9SM OVC065 M08/M12 A2997 1030 77 -1500 300/15 RMK AO2 SNE05B24E37 SLP169 P0000 60000 T10831117 11067 21083 53008
94908KDBQ DBQ20020226180010002/26/02 18:00:31  5-MIN KDBQ 270000Z 30015KT 10SM OVC065 M08/M12 A2997 1030 74 -1500 300/15 RMK AO2
94908KDBQ DBQ20020226180509902/26/02 18:05:31  5-MIN KDBQ 270005Z 30014KT 8SM OVC065 M08/M12 A2998 1030 77 -1500 300/14 RMK AO2
94908KDBQ DBQ20020226181011502/26/02 18:10:31  5-MIN KDBQ 270010Z 30014KT 6SM -SN OVC065 M08/M12 A2998 1030 77 -1500 300/14 RMK AO2 SNB09 P0000
94908KDBQ DBQ20020226181511502/26/02 18:15:31  5-MIN KDBQ 270015Z 30014KT 5SM -SN OVC065 M08/M12 A2998 1030 77 -1500 300/14 RMK AO2 SNB09 P0000
94908KDBQ DBQ20020226182011702/26/02 18:20:31  5-MIN KDBQ 270020Z 30014KT 5SM HZ OVC065 M08/M12 A2998 1030 77 -1500 300/14 RMK AO2 SNB09E19 P0000
94908KDBQ DBQ20020226182511702/26/02 18:25:31  5-MIN KDBQ 270025Z 30013KT 6SM HZ OVC070 M08/M12 A2998 1020 77 -1500 300/13 RMK AO2 SNB09E19 P0000
94908KDBQ DBQ20020226183011402/26/02 18:30:31  5-MIN KDBQ 270030Z 31014KT 7SM OVC070 M08/M12 A2998 1020 77 -1500 310/14 RMK AO2 SNB09E19 P0000
94908KDBQ DBQ20020226183511402/26/02 18:35:31  5-MIN KDBQ 270035Z 30015KT 7SM OVC065 M09/M12 A2998 1020 80 -1600 300/15 RMK AO2 SNB09E19 P0000
94908KDBQ DBQ20020226184011702/26/02 18:40:31  5-MIN KDBQ 270040Z 30014KT 6SM HZ OVC065 M09/M12 A2998 1020 80 -1600 300/14 RMK AO2 SNB09E19 P0000
94908KDBQ DBQ20020226184511702/26/02 18:45:31  5-MIN KDBQ 270045Z 30012KT 6SM HZ OVC070 M09/M12 A2998 1020 80 -1600 300/12 RMK AO2 SNB09E19 P0000
94908KDBQ DBQ20020226185013402/26/02 18:50:31  5-MIN KDBQ 270050Z 30013KT 6SM HZ OVC070 M09/M12 A2998 1020 80 -1600 300/13 RMK AO2 SNB09E19 SLP171 P0000 T10891117
94908KDBQ DBQ20020226185514702/26/02 18:55:31  5-MIN KDBQ 270055Z 30016G20KT 5SM -SN BR OVC070 M09/M11 A2998 1020 84 -1600 300/16G20 RMK AO2 SNB09E19B55 SLP171 P0000 T10891111
94908KDBQ DBQ20020226190011502/26/02 19:00:31  5-MIN KDBQ 270100Z 30013G20KT 5SM -SN OVC065 M09/M12 A2998 1020 80 -1600 300/13G20 RMK AO2 P0000
94908KDBQ DBQ20020226190511402/26/02 19:05:31  5-MIN KDBQ 270105Z 30013KT 5SM BR OVC070 M09/M11 A2998 1020 84 -1600 300/13 RMK AO2 SNE03 P0000
94908KDBQ DBQ20020226191012102/26/02 19:10:31  5-MIN KDBQ 270110Z 30014KT 5SM BR FEW055 OVC070 M09/M11 A2998 1020 84 -1600 300/14 RMK AO2 SNE03 P0000
94908KDBQ DBQ20020226191512102/26/02 19:15:31  5-MIN KDBQ 270115Z 30013KT 5SM BR SCT050 OVC070 M09/M11 A2998 1020 84 -1600 300/13 RMK AO2 SNE03 P0000
94908KDBQ DBQ20020226192012102/26/02 19:20:31  5-MIN KDBQ 270120Z 29014KT 5SM HZ BKN050 OVC070 M08/M11 A2998 1020 80 -1500 290/14 RMK AO2 SNE03 P0000
94908KDBQ DBQ20020226192512102/26/02 19:25:31  5-MIN KDBQ 270125Z 30013KT 5SM HZ SCT055 OVC070 M08/M11 A2998 1030 80 -1500 290/13 RMK AO2 SNE03 P0000
94908KDBQ DBQ20020226193012102/26/02 19:30:31  5-MIN KDBQ 270130Z 29014KT 5SM HZ SCT050 OVC070 M08/M11 A2998 1030 80 -1500 290/14 RMK AO2 SNE03 P0000
94908KDBQ DBQ20020226193512102/26/02 19:35:31  5-MIN KDBQ 270135Z 29013KT 6SM HZ SCT048 OVC070 M08/M11 A2997 1030 80 -1500 290/13 RMK AO2 SNE03 P0000
94908KDBQ DBQ20020226194012102/26/02 19:40:31  5-MIN KDBQ 270140Z 29013KT 6SM HZ BKN048 OVC065 M08/M11 A2997 1030 80 -1500 290/13 RMK AO2 SNE03 P0000
94908KDBQ DBQ20020226194512802/26/02 19:45:31  5-MIN KDBQ 270145Z 29013KT 5SM HZ BKN046 BKN060 OVC070 M08/M11 A2997 1030 80 -1500 290/13 RMK AO2 SNE03 P0000
94908KDBQ DBQ20020226195014502/26/02 19:50:31  5-MIN KDBQ 270150Z 29013KT 5SM HZ BKN046 BKN060 OVC070 M08/M11 A2997 1030 80 -1500 290/13 RMK AO2 SNE03 SLP169 P0000 T10831111
94908KDBQ DBQ20020226195513802/26/02 19:55:31  5-MIN KDBQ 270155Z 29013KT 4SM HZ BKN042 OVC055 M08/M11 A2997 1030 80 -1500 290/13 RMK AO2 SNE03 SLP169 P0000 T10831111
94908KDBQ DBQ20020226200011902/26/02 20:00:31  5-MIN KDBQ 270200Z AUTO 30012KT 4SM BR BKN042 OVC055 M09/M11 A2997 1030 84 -1600 300/12 RMK AO2 TSNO
94908KDBQ DBQ20020226200511902/26/02 20:05:31  5-MIN KDBQ 270205Z AUTO 30013KT 5SM HZ SCT042 OVC060 M08/M11 A2997 1030 80 -1500 300/13 RMK AO2 TSNO
94908KDBQ DBQ20020226201011902/26/02 20:10:31  5-MIN KDBQ 270210Z AUTO 30011KT 5SM HZ SCT042 OVC060 M08/M11 A2997 1030 80 -1500 300/11 RMK AO2 TSNO
94908KDBQ DBQ20020226201511902/26/02 20:15:31  5-MIN KDBQ 270215Z AUTO 30010KT 6SM HZ FEW040 OVC060 M08/M11 A2997 1030 80 -1500 300/10 RMK AO2 TSNO
94908KDBQ DBQ20020226202011602/26/02 20:20:31  5-MIN KDBQ 270220Z AUTO 30014KT 7SM FEW043 OVC060 M08/M11 A2997 1030 80 -1500 300/14 RMK AO2 TSNO
94908KDBQ DBQ20020226202511602/26/02 20:25:31  5-MIN KDBQ 270225Z AUTO 30012KT 7SM SCT047 OVC060 M08/M11 A2997 1030 80 -1500 300/12 RMK AO2 TSNO
94908KDBQ DBQ20020226203011902/26/02 20:30:31  5-MIN KDBQ 270230Z AUTO 30015KT 6SM HZ FEW045 OVC060 M08/M11 A2997 1030 80 -1500 300/15 RMK AO2 TSNO
94908KDBQ DBQ20020226203511902/26/02 20:35:31  5-MIN KDBQ 270235Z AUTO 30012KT 6SM HZ FEW047 OVC060 M08/M11 A2997 1030 80 -1500 300/12 RMK AO2 TSNO
94908KDBQ DBQ20020226204011902/26/02 20:40:31  5-MIN KDBQ 270240Z AUTO 30012KT 5SM HZ FEW049 OVC060 M08/M12 A2997 1030 77 -1500 300/12 RMK AO2 TSNO
94908KDBQ DBQ20020226204511902/26/02 20:45:31  5-MIN KDBQ 270245Z AUTO 30013KT 5SM HZ FEW047 OVC060 M08/M11 A2997 1030 80 -1500 300/13 RMK AO2 TSNO
94908KDBQ DBQ20020226205015502/26/02 20:50:31  5-MIN KDBQ 270250Z AUTO 30013KT 5SM HZ FEW047 BKN060 OVC080 M08/M12 A2997 1030 77 -1500 300/13 RMK AO2 SLP169 60000 T10831117 53008 TSNO
94908KDBQ DBQ20020226205515502/26/02 20:55:31  5-MIN KDBQ 270255Z AUTO 30012KT 5SM HZ FEW047 BKN060 OVC080 M08/M11 A2997 1030 80 -1500 300/12 RMK AO2 SLP168 60000 T10831111 58001 TSNO
94908KDBQ DBQ20020226210012602/26/02 21:00:31  5-MIN KDBQ 270300Z AUTO 30013KT 5SM HZ BKN055 BKN065 OVC080 M08/M11 A2997 1030 80 -1500 300/13 RMK AO2 TSNO
94908KDBQ DBQ20020226210512602/26/02 21:05:31  5-MIN KDBQ 270305Z AUTO 30014KT 5SM HZ FEW040 BKN060 OVC080 M08/M11 A2997 1030 80 -1500 300/14 RMK AO2 TSNO
94908KDBQ DBQ20020226211012602/26/02 21:10:31  5-MIN KDBQ 270310Z AUTO 30011KT 5SM HZ FEW037 BKN060 OVC080 M08/M11 A2997 1030 80 -1500 300/11 RMK AO2 TSNO
94908KDBQ DBQ20020226211512602/26/02 21:15:31  5-MIN KDBQ 270315Z AUTO 31013KT 5SM HZ FEW039 BKN060 OVC080 M08/M11 A2997 1030 80 -1500 310/13 RMK AO2 TSNO
94908KDBQ DBQ20020226212011902/26/02 21:20:31  5-MIN KDBQ 270320Z AUTO 31013KT 4SM HZ SCT041 OVC060 M08/M11 A2997 1030 80 -1500 310/13 RMK AO2 TSNO
94908KDBQ DBQ20020226212513202/26/02 21:25:31  5-MIN KDBQ 270325Z AUTO 30014KT 4SM -SN BKN044 OVC060 M08/M11 A2997 1030 80 -1500 300/14 RMK AO2 SNB21 P0000 TSNO
94908KDBQ DBQ20020226213013202/26/02 21:30:31  5-MIN KDBQ 270330Z AUTO 31014KT 4SM -SN BKN044 OVC060 M08/M11 A2997 1030 80 -1500 310/14 RMK AO2 SNB21 P0000 TSNO
94908KDBQ DBQ20020226213513202/26/02 21:35:31  5-MIN KDBQ 270335Z AUTO 30014KT 5SM -SN BKN046 OVC060 M08/M11 A2997 1030 80 -1500 300/14 RMK AO2 SNB21 P0000 TSNO
94908KDBQ DBQ20020226214013902/26/02 21:40:31  5-MIN KDBQ 270340Z AUTO 31013KT 6SM -SN SCT041 BKN049 OVC060 M08/M11 A2997 1030 80 -1500 310/13 RMK AO2 SNB21 P0000 TSNO
94908KDBQ DBQ20020226214513902/26/02 21:45:31  5-MIN KDBQ 270345Z AUTO 30014KT 5SM -SN FEW022 SCT041 OVC049 M08/M11 A2997 1030 80 -1500 300/14 RMK AO2 SNB21 P0000 TSNO
94908KDBQ DBQ20020226215015602/26/02 21:50:31  5-MIN KDBQ 270350Z AUTO 31015KT 6SM -SN FEW020 BKN039 OVC049 M08/M11 A2997 1040 80 -1500 310/15 RMK AO2 SNB21 SLP167 P0000 T10831111 TSNO
94908KDBQ DBQ20020226215515502/26/02 21:55:31  5-MIN KDBQ 270355Z AUTO 30013KT 7SM FEW020 BKN041 OVC049 M08/M11 A2997 1030 80 -1500 300/13 RMK AO2 SNB21E53 SLP167 P0000 T10831111 TSNO
94908KDBQ DBQ20020226220014102/26/02 22:00:31  5-MIN KDBQ 270400Z AUTO 31012KT 6SM -SN FEW018 BKN041 OVC049 M08/M11 A2997 1030 80 -1500 310/12 RMK AO2 SNB0358 P0000 TSNO
94908KDBQ DBQ20020226220514102/26/02 22:05:31  5-MIN KDBQ 270405Z AUTO 32013KT 6SM -SN FEW018 BKN040 OVC049 M08/M12 A2997 1030 77 -1500 320/13 RMK AO2 SNB0358 P0000 TSNO
94908KDBQ DBQ20020226221014002/26/02 22:10:31  5-MIN KDBQ 270410Z AUTO 31014KT 7SM FEW018 BKN032 OVC049 M08/M11 A2997 1040 80 -1500 310/14 RMK AO2 SNB0358E06 P0000 TSNO
94908KDBQ DBQ20020226221514002/26/02 22:15:31  5-MIN KDBQ 270415Z AUTO 31012KT 8SM FEW018 BKN032 OVC060 M08/M11 A2996 1040 80 -1500 310/12 RMK AO2 SNB0358E06 P0000 TSNO
94908KDBQ DBQ20020226222014002/26/02 22:20:31  5-MIN KDBQ 270420Z AUTO 31012KT 9SM FEW018 BKN043 OVC060 M08/M12 A2996 1040 77 -1500 310/12 RMK AO2 SNB0358E06 P0000 TSNO
94908KDBQ DBQ20020226222514102/26/02 22:25:31  5-MIN KDBQ 270425Z AUTO 30012KT 10SM FEW018 BKN035 OVC060 M09/M12 A2996 1040 80 -1600 300/12 RMK AO2 SNB0358E06 P0000 TSNO
94908KDBQ DBQ20020226223014102/26/02 22:30:31  5-MIN KDBQ 270430Z AUTO 31012KT 10SM FEW018 BKN041 OVC055 M09/M12 A2996 1040 80 -1600 310/12 RMK AO2 SNB0358E06 P0000 TSNO
94908KDBQ DBQ20020226223514102/26/02 22:35:31  5-MIN KDBQ 270435Z AUTO 31012KT 10SM SCT016 BKN041 OVC055 M09/M12 A2996 1040 80 -1600 310/12 RMK AO2 SNB0358E06 P0000 TSNO
94908KDBQ DBQ20020226224014102/26/02 22:40:31  5-MIN KDBQ 270440Z AUTO 31011KT 10SM SCT016 BKN021 OVC055 M09/M12 A2996 1040 80 -1600 310/11 RMK AO2 SNB0358E06 P0000 TSNO
94908KDBQ DBQ20020226224514702/26/02 22:45:31  5-MIN KDBQ 270445Z AUTO 30011KT 9SM -SN SCT018 BKN022 OVC043 M09/M12 A2997 1040 80 -1600 300/11 RMK AO2 SNB0358E06B45 P0000 TSNO
94908KDBQ DBQ20020226225016402/26/02 22:50:31  5-MIN KDBQ 270450Z AUTO 30011KT 6SM -SN FEW016 BKN022 OVC043 M09/M12 A2997 1040 80 -1600 300/11 RMK AO2 SNB0358E06B45 SLP166 P0000 T10891117 TSNO
94908KDBQ DBQ20020226225516702/26/02 22:55:31  5-MIN KDBQ 270455Z AUTO 30012KT 5SM -SN BR SCT018 BKN032 OVC043 M09/M11 A2997 1040 84 -1600 300/12 RMK AO2 SNB0358E06B45 SLP167 P0000 T10891111 TSNO
94908KDBQ DBQ20020226230013302/26/02 23:00:31  5-MIN KDBQ 270500Z AUTO 30013KT 4SM -SN SCT019 BKN032 OVC043 M09/M12 A2996 1040 80 -1600 300/13 RMK AO2 P0000 TSNO
94908KDBQ DBQ20020226230513302/26/02 23:05:31  5-MIN KDBQ 270505Z AUTO 30013KT 3SM -SN SCT019 BKN032 OVC043 M09/M12 A2997 1040 80 -1600 300/13 RMK AO2 P0000 TSNO
94908KDBQ DBQ20020226231012902/26/02 23:10:31  5-MIN KDBQ 270510Z AUTO 30012KT 3SM -SN BR FEW019 OVC032 M09/M11 A2996 1040 88 -1600 300/12 RMK AO2 P0000 TSNO
94908KDBQ DBQ20020226231513602/26/02 23:15:31  5-MIN KDBQ 270515Z AUTO 31012KT 3SM -SN BR FEW019 BKN032 OVC041 M09/M11 A2996 1040 88 -1600 310/12 RMK AO2 P0000 TSNO
94908KDBQ DBQ20020226232012602/26/02 23:20:31  5-MIN KDBQ 270520Z AUTO 30010KT 3SM -SN BKN032 OVC041 M09/M13 A2996 1040 70 -1600 300/10 RMK AO2 P0000 TSNO
94908KDBQ DBQ20020226232512902/26/02 23:25:31  5-MIN KDBQ 270525Z AUTO 30012KT 3SM -SN BR FEW016 OVC034 M09/M12 A2996 1040 84 -1700 300/12 RMK AO2 P0000 TSNO
94908KDBQ DBQ20020226233012902/26/02 23:30:31  5-MIN KDBQ 270530Z AUTO 30012KT 4SM -SN BR FEW016 OVC034 M09/M12 A2996 1040 84 -1700 300/12 RMK AO2 P0000 TSNO
94908KDBQ DBQ20020226233512902/26/02 23:35:31  5-MIN KDBQ 270535Z AUTO 31012KT 4SM -SN BR FEW016 OVC034 M09/M12 A2996 1040 84 -1700 310/12 RMK AO2 P0000 TSNO
94908KDBQ DBQ20020226234012902/26/02 23:40:31  5-MIN KDBQ 270540Z AUTO 30011KT 5SM -SN BR FEW016 OVC034 M09/M12 A2996 1040 84 -1700 300/11 RMK AO2 P0000 TSNO
94908KDBQ DBQ20020226234512602/26/02 23:45:31  5-MIN KDBQ 270545Z AUTO 30010KT 7SM -SN FEW016 OVC034 M09/M12 A2996 1040 84 -1700 300/10 RMK AO2 P0000 TSNO
94908KDBQ DBQ20020226235017902/26/02 23:50:31  5-MIN KDBQ 270550Z AUTO 30010KT 9SM SCT016 OVC036 M09/M12 A2996 1040 84 -1700 300/10 RMK AO2 SNE48 SLP166 P0000 60000 T10941117 11083 21094 410561094 58001 TSNO
94908KDBQ DBQ20020226235517902/26/02 23:55:31  5-MIN KDBQ 270555Z AUTO 30011KT 9SM SCT016 OVC036 M09/M12 A2996 1040 80 -1700 300/11 RMK AO2 SNE48 SLP166 P0000 60000 T10941122 11083 21094 410561094 56002 TSNO
94908KDBQ DBQ20020227000012302/27/02 00:00:31  5-MIN KDBQ 270600Z AUTO 30010KT 9SM SCT016 SCT021 OVC036 M09/M12 A2997 1040 80 -1700 300/10 RMK AO2 TSNO
94908KDBQ DBQ20020227000512302/27/02 00:05:31  5-MIN KDBQ 270605Z AUTO 31010KT 9SM SCT016 BKN021 OVC036 M09/M12 A2996 1040 80 -1700 300/10 RMK AO2 TSNO
94908KDBQ DBQ20020227001011702/27/02 00:10:31  5-MIN KDBQ 270610Z AUTO 31013KT 10SM FEW016 BKN036 M09/M12 A2996 1040 80 -1700 310/13 RMK AO2 TSNO
94908KDBQ DBQ20020227001512402/27/02 00:15:31  5-MIN KDBQ 270615Z AUTO 31010KT 10SM FEW014 SCT021 BKN036 M09/M12 A2996 1040 84 -1700 310/10 RMK AO2 TSNO
94908KDBQ DBQ20020227002012402/27/02 00:20:31  5-MIN KDBQ 270620Z AUTO 31012KT 10SM FEW016 BKN033 BKN050 M09/M12 A2997 1040 84 -1700 310/12 RMK AO2 TSNO
94908KDBQ DBQ20020227002512402/27/02 00:25:31  5-MIN KDBQ 270625Z AUTO 31011KT 10SM FEW016 BKN031 BKN065 M09/M12 A2997 1040 84 -1700 310/11 RMK AO2 TSNO
94908KDBQ DBQ20020227003012402/27/02 00:30:31  5-MIN KDBQ 270630Z AUTO 31011KT 10SM SCT027 BKN037 BKN065 M09/M12 A2997 1040 84 -1700 310/11 RMK AO2 TSNO
94908KDBQ DBQ20020227003512402/27/02 00:35:31  5-MIN KDBQ 270635Z AUTO 31011KT 10SM SCT027 BKN037 BKN050 M09/M12 A2997 1040 84 -1700 310/11 RMK AO2 TSNO
94908KDBQ DBQ20020227004012402/27/02 00:40:31  5-MIN KDBQ 270640Z AUTO 32012KT 10SM SCT029 BKN035 OVC100 M09/M12 A2997 1040 84 -1700 310/12 RMK AO2 TSNO
94908KDBQ DBQ20020227004512402/27/02 00:45:31  5-MIN KDBQ 270645Z AUTO 31012KT 10SM BKN035 BKN060 BKN100 M09/M12 A2997 1040 84 -1700 310/12 RMK AO2 TSNO
94908KDBQ DBQ20020227005014102/27/02 00:50:31  5-MIN KDBQ 270650Z AUTO 31011KT 10SM SCT039 BKN060 BKN110 M09/M12 A2996 1040 84 -1700 310/11 RMK AO2 SLP166 T10941117 TSNO
94908KDBQ DBQ20020227005514102/27/02 00:55:31  5-MIN KDBQ 270655Z AUTO 31012KT 10SM FEW036 SCT055 BKN110 M09/M12 A2997 1040 84 -1700 310/12 RMK AO2 SLP167 T10941117 TSNO
94908KDBQ DBQ20020227010011002/27/02 01:00:31  5-MIN KDBQ 270700Z AUTO 31012KT 10SM BKN060 M09/M12 A2997 1040 84 -1700 310/12 RMK AO2 TSNO
94908KDBQ DBQ20020227010511002/27/02 01:05:31  5-MIN KDBQ 270705Z AUTO 31012KT 10SM BKN065 M09/M12 A2997 1040 84 -1700 310/12 RMK AO2 TSNO
94908KDBQ DBQ20020227011011002/27/02 01:10:31  5-MIN KDBQ 270710Z AUTO 32013KT 10SM BKN060 M09/M12 A2997 1030 84 -1700 320/13 RMK AO2 TSNO
94908KDBQ DBQ20020227011511002/27/02 01:15:31  5-MIN KDBQ 270715Z AUTO 31012KT 10SM BKN060 M09/M12 A2997 1040 84 -1700 310/12 RMK AO2 TSNO
94908KDBQ DBQ20020227012011002/27/02 01:20:31  5-MIN KDBQ 270720Z AUTO 31012KT 10SM OVC060 M09/M12 A2997 1040 84 -1700 310/12 RMK AO2 TSNO
94908KDBQ DBQ20020227012511702/27/02 01:25:31  5-MIN KDBQ 270725Z AUTO 32012KT 10SM BKN055 OVC070 M09/M12 A2997 1040 80 -1700 320/12 RMK AO2 TSNO
94908KDBQ DBQ20020227013011702/27/02 01:30:31  5-MIN KDBQ 270730Z AUTO 32012KT 10SM BKN050 BKN065 M09/M12 A2997 1040 80 -1700 310/12 RMK AO2 TSNO
94908KDBQ DBQ20020227013512402/27/02 01:35:31  5-MIN KDBQ 270735Z AUTO 31012KT 10SM FEW017 BKN048 BKN060 M09/M12 A2997 1030 80 -1700 310/12 RMK AO2 TSNO
94908KDBQ DBQ20020227014011702/27/02 01:40:31  5-MIN KDBQ 270740Z AUTO 32013KT 10SM FEW017 BKN048 M09/M12 A2997 1030 80 -1700 320/13 RMK AO2 TSNO
94908KDBQ DBQ20020227014511002/27/02 01:45:31  5-MIN KDBQ 270745Z AUTO 31011KT 10SM SCT050 M09/M12 A2997 1030 80 -1700 310/11 RMK AO2 TSNO
94908KDBQ DBQ20020227015012702/27/02 01:50:31  5-MIN KDBQ 270750Z AUTO 31012KT 10SM FEW048 M09/M12 A2997 1030 80 -1700 310/12 RMK AO2 SLP168 T10941122 TSNO
94908KDBQ DBQ20020227015512702/27/02 01:55:31  5-MIN KDBQ 270755Z AUTO 31013KT 10SM FEW045 M09/M12 A2997 1030 80 -1700 310/13 RMK AO2 SLP167 T10941122 TSNO
94908KDBQ DBQ20020227020011002/27/02 02:00:31  5-MIN KDBQ 270800Z AUTO 31013KT 10SM SCT049 M09/M12 A2997 1040 80 -1700 310/13 RMK AO2 TSNO
94908KDBQ DBQ20020227020511702/27/02 02:05:31  5-MIN KDBQ 270805Z AUTO 31013KT 10SM BKN049 BKN060 M09/M12 A2997 1040 80 -1700 310/13 RMK AO2 TSNO
94908KDBQ DBQ20020227021011702/27/02 02:10:31  5-MIN KDBQ 270810Z AUTO 31014KT 10SM BKN049 BKN060 M09/M12 A2997 1040 80 -1700 310/14 RMK AO2 TSNO
94908KDBQ DBQ20020227021512302/27/02 02:15:31  5-MIN KDBQ 270815Z AUTO 31013KT 9SM FEW020 SCT043 BKN055 M09/M12 A2997 1040 80 -1700 310/13 RMK AO2 TSNO
94908KDBQ DBQ20020227022013902/27/02 02:20:31  5-MIN KDBQ 270820Z AUTO 31014KT 8SM -SN FEW020 BKN043 OVC055 M09/M12 A2997 1040 80 -1700 310/14 RMK AO2 SNB17 P0000 TSNO
94908KDBQ DBQ20020227022513902/27/02 02:25:31  5-MIN KDBQ 270825Z AUTO 31014KT 7SM -SN FEW020 BKN043 OVC070 M09/M12 A2996 1040 80 -1700 310/14 RMK AO2 SNB17 P0000 TSNO
94908KDBQ DBQ20020227023013802/27/02 02:30:31  5-MIN KDBQ 270830Z AUTO 31014KT 9SM FEW020 BKN050 OVC070 M09/M13 A2996 1040 77 -1700 310/14 RMK AO2 SNB17E26 P0000 TSNO
94908KDBQ DBQ20020227023514502/27/02 02:35:31  5-MIN KDBQ 270835Z AUTO 31014G19KT 10SM FEW020 SCT055 OVC070 M09/M13 A2997 1040 77 -1700 310/14G19 RMK AO2 SNB17E26 P0000 TSNO
94908KDBQ DBQ20020227024013902/27/02 02:40:31  5-MIN KDBQ 270840Z AUTO 31013KT 10SM FEW020 SCT050 OVC070 M09/M13 A2997 1030 77 -1700 310/13 RMK AO2 SNB17E26 P0000 TSNO
94908KDBQ DBQ20020227024513202/27/02 02:45:31  5-MIN KDBQ 270845Z AUTO 30013KT 10SM FEW055 OVC070 M10/M13 A2997 1030 77 -1700 300/13 RMK AO2 SNB17E26 P0000 TSNO
94908KDBQ DBQ20020227025015402/27/02 02:50:31  5-MIN KDBQ 270850Z AUTO 31013KT 10SM OVC070 M10/M13 A2997 1030 80 -1700 310/13 RMK AO2 SNB17E26 SLP168 P0000 60000 T11001128 56002 TSNO
94908KDBQ DBQ20020227025515402/27/02 02:55:31  5-MIN KDBQ 270855Z AUTO 31016KT 10SM OVC070 M10/M13 A2997 1030 77 -1700 300/16 RMK AO2 SNB17E26 SLP168 P0000 60000 T11001133 52001 TSNO
94908KDBQ DBQ20020227030011702/27/02 03:00:31  5-MIN KDBQ 270900Z AUTO 31012KT 10SM BKN060 OVC075 M10/M13 A2997 1030 77 -1700 310/12 RMK AO2 TSNO
94908KDBQ DBQ20020227030511702/27/02 03:05:31  5-MIN KDBQ 270905Z AUTO 31016KT 10SM BKN060 BKN075 M10/M13 A2997 1040 77 -1700 310/16 RMK AO2 TSNO
94908KDBQ DBQ20020227031011702/27/02 03:10:31  5-MIN KDBQ 270910Z AUTO 31013KT 10SM SCT060 BKN075 M10/M13 A2997 1040 77 -1700 310/13 RMK AO2 TSNO
94908KDBQ DBQ20020227031511702/27/02 03:15:31  5-MIN KDBQ 270915Z AUTO 30013KT 10SM SCT060 BKN075 M10/M14 A2997 1040 73 -1700 300/13 RMK AO2 TSNO
94908KDBQ DBQ20020227032011702/27/02 03:20:31  5-MIN KDBQ 270920Z AUTO 31012KT 10SM SCT055 SCT075 M10/M14 A2997 1030 73 -1700 310/12 RMK AO2 TSNO
94908KDBQ DBQ20020227032511002/27/02 03:25:31  5-MIN KDBQ 270925Z AUTO 30012KT 10SM FEW055 M11/M14 A2997 1030 77 -1800 300/12 RMK AO2 TSNO
94908KDBQ DBQ20020227033011002/27/02 03:30:31  5-MIN KDBQ 270930Z AUTO 31012KT 10SM FEW055 M11/M14 A2997 1030 77 -1800 310/12 RMK AO2 TSNO
94908KDBQ DBQ20020227033511002/27/02 03:35:31  5-MIN KDBQ 270935Z AUTO 31013KT 10SM FEW055 M11/M14 A2997 1030 77 -1800 300/13 RMK AO2 TSNO
94908KDBQ DBQ20020227034011002/27/02 03:40:31  5-MIN KDBQ 270940Z AUTO 31015KT 10SM FEW055 M11/M14 A2997 1030 73 -1800 310/15 RMK AO2 TSNO
94908KDBQ DBQ20020227034510702/27/02 03:45:31  5-MIN KDBQ 270945Z AUTO 31014KT 10SM CLR M11/M14 A2997 1030 73 -1800 300/14 RMK AO2 TSNO
94908KDBQ DBQ20020227035012402/27/02 03:50:31  5-MIN KDBQ 270950Z AUTO 30012KT 10SM CLR M11/M14 A2997 1030 73 -1800 300/12 RMK AO2 SLP171 T11061144 TSNO
94908KDBQ DBQ20020227035512402/27/02 03:55:31  5-MIN KDBQ 270955Z AUTO 31013KT 10SM CLR M11/M14 A2997 1030 77 -1900 310/13 RMK AO2 SLP171 T11111144 TSNO
94908KDBQ DBQ20020227040010702/27/02 04:00:31  5-MIN KDBQ 271000Z AUTO 30013KT 10SM CLR M11/M15 A2998 1030 70 -1800 300/13 RMK AO2 TSNO
94908KDBQ DBQ20020227040510702/27/02 04:05:31  5-MIN KDBQ 271005Z AUTO 30012KT 10SM CLR M11/M15 A2998 1030 73 -1900 300/12 RMK AO2 TSNO
94908KDBQ DBQ20020227041010702/27/02 04:10:31  5-MIN KDBQ 271010Z AUTO 31012KT 10SM CLR M11/M15 A2998 1020 73 -1900 300/12 RMK AO2 TSNO
94908KDBQ DBQ20020227041510702/27/02 04:15:31  5-MIN KDBQ 271015Z AUTO 31013KT 10SM CLR M11/M15 A2998 1020 73 -1900 310/13 RMK AO2 TSNO
94908KDBQ DBQ20020227042010702/27/02 04:20:31  5-MIN KDBQ 271020Z AUTO 31012KT 10SM CLR M11/M15 A2998 1020 73 -1900 310/12 RMK AO2 TSNO
94908KDBQ DBQ20020227042510702/27/02 04:25:31  5-MIN KDBQ 271025Z AUTO 31011KT 10SM CLR M11/M15 A2998 1020 73 -1900 310/11 RMK AO2 TSNO
94908KDBQ DBQ20020227043010702/27/02 04:30:31  5-MIN KDBQ 271030Z AUTO 31012KT 10SM CLR M11/M15 A2998 1020 70 -1800 310/12 RMK AO2 TSNO
94908KDBQ DBQ20020227043510702/27/02 04:35:31  5-MIN KDBQ 271035Z AUTO 31014KT 10SM CLR M11/M15 A2998 1020 70 -1800 310/14 RMK AO2 TSNO
94908KDBQ DBQ20020227044010702/27/02 04:40:31  5-MIN KDBQ 271040Z AUTO 30015KT 10SM CLR M11/M15 A2998 1020 73 -1900 300/15 RMK AO2 TSNO
94908KDBQ DBQ20020227044510702/27/02 04:45:31  5-MIN KDBQ 271045Z AUTO 31013KT 10SM CLR M11/M15 A2998 1020 73 -1900 310/13 RMK AO2 TSNO
94908KDBQ DBQ20020227045012402/27/02 04:50:31  5-MIN KDBQ 271050Z AUTO 31013KT 10SM CLR M11/M15 A2999 1020 73 -1900 310/13 RMK AO2 SLP174 T11111150 TSNO
94908KDBQ DBQ20020227045512402/27/02 04:55:31  5-MIN KDBQ 271055Z AUTO 31011KT 10SM CLR M11/M15 A2999 1020 73 -1900 310/11 RMK AO2 SLP174 T11111150 TSNO
94908KDBQ DBQ20020227050010702/27/02 05:00:31  5-MIN KDBQ 271100Z AUTO 31014KT 10SM CLR M11/M16 A2999 1020 70 -1900 310/14 RMK AO2 TSNO
94908KDBQ DBQ20020227050510702/27/02 05:05:31  5-MIN KDBQ 271105Z AUTO 31011KT 10SM CLR M11/M16 A2999 1020 70 -1900 310/11 RMK AO2 TSNO
94908KDBQ DBQ20020227051010702/27/02 05:10:31  5-MIN KDBQ 271110Z AUTO 31011KT 10SM CLR M11/M16 A2999 1020 70 -1900 310/11 RMK AO2 TSNO
94908KDBQ DBQ20020227051510702/27/02 05:15:31  5-MIN KDBQ 271115Z AUTO 31011KT 10SM CLR M11/M16 A2998 1020 70 -1900 310/11 RMK AO2 TSNO
94908KDBQ DBQ20020227052010702/27/02 05:20:31  5-MIN KDBQ 271120Z AUTO 31013KT 10SM CLR M11/M16 A2999 1020 70 -1900 310/13 RMK AO2 TSNO
94908KDBQ DBQ20020227052510702/27/02 05:25:31  5-MIN KDBQ 271125Z AUTO 30011KT 10SM CLR M11/M16 A2998 1020 70 -1900 300/11 RMK AO2 TSNO
94908KDBQ DBQ20020227053010702/27/02 05:30:31  5-MIN KDBQ 271130Z AUTO 30013KT 10SM CLR M11/M15 A2999 1020 73 -1900 300/13 RMK AO2 TSNO
94908KDBQ DBQ20020227053510702/27/02 05:35:31  5-MIN KDBQ 271135Z AUTO 30011KT 10SM CLR M11/M16 A2999 1020 70 -1900 300/11 RMK AO2 TSNO
94908KDBQ DBQ20020227054010702/27/02 05:40:31  5-MIN KDBQ 271140Z AUTO 30012KT 10SM CLR M11/M16 A2999 1020 70 -1900 300/12 RMK AO2 TSNO
94908KDBQ DBQ20020227054510702/27/02 05:45:31  5-MIN KDBQ 271145Z AUTO 30011KT 10SM CLR M11/M16 A2999 1010 70 -1900 300/11 RMK AO2 TSNO
94908KDBQ DBQ20020227055014802/27/02 05:50:31  5-MIN KDBQ 271150Z AUTO 30012KT 10SM CLR M11/M16 A2999 1010 70 -1900 300/12 RMK AO2 SLP177 60000 T11111156 11094 21111 52001 TSNO
94908KDBQ DBQ20020227055514802/27/02 05:55:31  5-MIN KDBQ 271155Z AUTO 30011KT 10SM CLR M12/M16 A3000 1010 70 -2000 300/11 RMK AO2 SLP179 60000 T11171161 11094 21117 53009 TSNO
94908KDBQ DBQ20020227060009702/27/02 06:00:31  5-MIN KDBQ 271200Z 30011KT 10SM CLR M12/M16 A3000 1010 73 -2000 300/11 RMK AO2
94908KDBQ DBQ20020227060509702/27/02 06:05:31  5-MIN KDBQ 271205Z 30011KT 10SM CLR M12/M16 A3000 1000 73 -2000 300/11 RMK AO2
94908KDBQ DBQ20020227061009702/27/02 06:10:31  5-MIN KDBQ 271210Z 30014KT 10SM CLR M12/M16 A3000 1000 73 -2000 300/14 RMK AO2
94908KDBQ DBQ20020227061509702/27/02 06:15:31  5-MIN KDBQ 271215Z 30013KT 10SM CLR M12/M16 A3000 1000 70 -2000 300/13 RMK AO2
94908KDBQ DBQ20020227062009702/27/02 06:20:31  5-MIN KDBQ 271220Z 30012KT 10SM CLR M12/M16 A3000 1000 70 -2000 300/12 RMK AO2
94908KDBQ DBQ20020227062509702/27/02 06:25:31  5-MIN KDBQ 271225Z 31013KT 10SM CLR M12/M16 A3000 1000 70 -2000 300/13 RMK AO2
94908KDBQ DBQ20020227063009702/27/02 06:30:31  5-MIN KDBQ 271230Z 30013KT 10SM CLR M12/M16 A3000 1000 73 -2100 300/13 RMK AO2
94908KDBQ DBQ20020227063509702/27/02 06:35:31  5-MIN KDBQ 271235Z 30010KT 10SM CLR M12/M16 A3000 1000 73 -2100 300/10 RMK AO2
94908KDBQ DBQ20020227064009702/27/02 06:40:31  5-MIN KDBQ 271240Z 31013KT 10SM CLR M12/M16 A3000 1000 73 -2100 310/13 RMK AO2
94908KDBQ DBQ20020227064509702/27/02 06:45:31  5-MIN KDBQ 271245Z 31013KT 10SM CLR M12/M16 A3001 1000 73 -2100 310/13 RMK AO2
94908KDBQ DBQ20020227065011402/27/02 06:50:31  5-MIN KDBQ 271250Z 31013KT 10SM CLR M12/M17 A3001 1000 70 -2100 300/13 RMK AO2 SLP183 T11221167
94908KDBQ DBQ20020227065511402/27/02 06:55:31  5-MIN KDBQ 271255Z 31012KT 10SM CLR M12/M17 A3001 1000 70 -2100 310/12 RMK AO2 SLP184 T11221167
94908KDBQ DBQ20020227070009602/27/02 07:00:31  5-MIN KDBQ 271300Z 30011KT 10SM CLR M12/M17 A3001 990 70 -2100 300/11 RMK AO2
94908KDBQ DBQ20020227070509602/27/02 07:05:31  5-MIN KDBQ 271305Z 31011KT 10SM CLR M12/M17 A3001 990 70 -2100 310/11 RMK AO2
94908KDBQ DBQ20020227071009602/27/02 07:10:31  5-MIN KDBQ 271310Z 30011KT 10SM CLR M12/M17 A3001 990 70 -2100 300/11 RMK AO2
94908KDBQ DBQ20020227071509602/27/02 07:15:31  5-MIN KDBQ 271315Z 31011KT 10SM CLR M12/M17 A3002 990 70 -2100 300/11 RMK AO2
94908KDBQ DBQ20020227072009602/27/02 07:20:31  5-MIN KDBQ 271320Z 30011KT 10SM CLR M12/M16 A3002 990 73 -2100 300/11 RMK AO2
94908KDBQ DBQ20020227072509602/27/02 07:25:31  5-MIN KDBQ 271325Z 30010KT 10SM CLR M12/M17 A3002 980 70 -2100 300/10 RMK AO2
94908KDBQ DBQ20020227073009602/27/02 07:30:31  5-MIN KDBQ 271330Z 31010KT 10SM CLR M12/M17 A3003 980 70 -2100 310/10 RMK AO2
94908KDBQ DBQ20020227073509602/27/02 07:35:31  5-MIN KDBQ 271335Z 31011KT 10SM CLR M12/M17 A3003 980 70 -2100 310/11 RMK AO2
94908KDBQ DBQ20020227074009602/27/02 07:40:31  5-MIN KDBQ 271340Z 31012KT 10SM CLR M12/M17 A3003 980 70 -2100 310/12 RMK AO2
94908KDBQ DBQ20020227074509602/27/02 07:45:31  5-MIN KDBQ 271345Z 30010KT 10SM CLR M12/M17 A3003 980 70 -2100 300/10 RMK AO2
94908KDBQ DBQ20020227075011302/27/02 07:50:31  5-MIN KDBQ 271350Z 30012KT 10SM CLR M12/M17 A3003 980 67 -2000 300/12 RMK AO2 SLP191 T11171167
94908KDBQ DBQ20020227075511302/27/02 07:55:31  5-MIN KDBQ 271355Z 31012KT 10SM CLR M12/M17 A3003 970 67 -2000 310/12 RMK AO2 SLP192 T11171167
94908KDBQ DBQ20020227080009602/27/02 08:00:31  5-MIN KDBQ 271400Z 31011KT 10SM CLR M12/M16 A3003 970 70 -2000 310/11 RMK AO2
94908KDBQ DBQ20020227080509602/27/02 08:05:31  5-MIN KDBQ 271405Z 32012KT 10SM CLR M12/M17 A3004 970 67 -2000 310/12 RMK AO2
94908KDBQ DBQ20020227081009602/27/02 08:10:31  5-MIN KDBQ 271410Z 31012KT 10SM CLR M12/M16 A3004 970 70 -2000 310/12 RMK AO2
94908KDBQ DBQ20020227081509602/27/02 08:15:31  5-MIN KDBQ 271415Z 32011KT 10SM CLR M12/M17 A3004 970 67 -2000 310/11 RMK AO2
94908KDBQ DBQ20020227082009602/27/02 08:20:31  5-MIN KDBQ 271420Z 32012KT 10SM CLR M12/M16 A3004 970 70 -2000 320/12 RMK AO2
94908KDBQ DBQ20020227082509602/27/02 08:25:31  5-MIN KDBQ 271425Z 32012KT 10SM CLR M12/M17 A3004 970 67 -2000 320/12 RMK AO2
94908KDBQ DBQ20020227083009602/27/02 08:30:31  5-MIN KDBQ 271430Z 32011KT 10SM CLR M11/M16 A3004 970 67 -2000 320/11 RMK AO2
94908KDBQ DBQ20020227083509602/27/02 08:35:31  5-MIN KDBQ 271435Z 31011KT 10SM CLR M11/M16 A3004 960 67 -2000 310/11 RMK AO2
94908KDBQ DBQ20020227084009602/27/02 08:40:31  5-MIN KDBQ 271440Z 32011KT 10SM CLR M11/M16 A3005 960 67 -2000 320/11 RMK AO2
94908KDBQ DBQ20020227084509602/27/02 08:45:31  5-MIN KDBQ 271445Z 31011KT 10SM CLR M11/M16 A3005 960 67 -2000 310/11 RMK AO2
94908KDBQ DBQ20020227085011902/27/02 08:50:31  5-MIN KDBQ 271450Z 32010KT 10SM CLR M11/M16 A3005 960 67 -2000 320/10 RMK AO2 SLP196 T11111161 53009
94908KDBQ DBQ20020227085511902/27/02 08:55:31  5-MIN KDBQ 271455Z 31012KT 10SM CLR M11/M16 A3005 960 67 -2000 310/12 RMK AO2 SLP196 T11111161 53018
94908KDBQ DBQ20020227090009602/27/02 09:00:31  5-MIN KDBQ 271500Z 31011KT 10SM CLR M11/M16 A3005 960 64 -1900 310/11 RMK AO2
94908KDBQ DBQ20020227090509602/27/02 09:05:31  5-MIN KDBQ 271505Z 31009KT 10SM CLR M11/M16 A3005 960 64 -1900 310/09 RMK AO2
94908KDBQ DBQ20020227091009602/27/02 09:10:31  5-MIN KDBQ 271510Z 32009KT 10SM CLR M11/M16 A3005 960 64 -1900 320/09 RMK AO2
94908KDBQ DBQ20020227091509602/27/02 09:15:31  5-MIN KDBQ 271515Z 33011KT 10SM CLR M11/M16 A3005 960 67 -1900 330/11 RMK AO2
94908KDBQ DBQ20020227092009602/27/02 09:20:31  5-MIN KDBQ 271520Z 33010KT 10SM CLR M11/M16 A3005 960 67 -1900 320/10 RMK AO2
94908KDBQ DBQ20020227092509602/27/02 09:25:31  5-MIN KDBQ 271525Z 32010KT 10SM CLR M10/M16 A3005 960 64 -1800 320/10 RMK AO2
94908KDBQ DBQ20020227093009602/27/02 09:30:31  5-MIN KDBQ 271530Z 32010KT 10SM CLR M10/M16 A3006 950 64 -1800 320/10 RMK AO2
94908KDBQ DBQ20020227093509602/27/02 09:35:31  5-MIN KDBQ 271535Z 33009KT 10SM CLR M10/M16 A3006 950 64 -1800 330/09 RMK AO2
94908KDBQ DBQ20020227094009602/27/02 09:40:31  5-MIN KDBQ 271540Z 34009KT 10SM CLR M10/M16 A3006 950 64 -1800 340/09 RMK AO2
94908KDBQ DBQ20020227094509602/27/02 09:45:31  5-MIN KDBQ 271545Z 31008KT 10SM CLR M09/M16 A3006 950 61 -1800 310/08 RMK AO2
94908KDBQ DBQ20020227095011302/27/02 09:50:31  5-MIN KDBQ 271550Z 33009KT 10SM CLR M09/M15 A3006 950 64 -1800 330/09 RMK AO2 SLP201 T10941150
94908KDBQ DBQ20020227095511302/27/02 09:55:31  5-MIN KDBQ 271555Z 34009KT 10SM CLR M09/M16 A3007 940 61 -1800 340/09 RMK AO2 SLP202 T10941156
94908KDBQ DBQ20020227100009602/27/02 10:00:31  5-MIN KDBQ 271600Z 34008KT 10SM CLR M09/M15 A3007 940 64 -1800 340/08 RMK AO2
94908KDBQ DBQ20020227100509602/27/02 10:05:31  5-MIN KDBQ 271605Z 34009KT 10SM CLR M09/M15 A3007 940 64 -1800 340/09 RMK AO2
94908KDBQ DBQ20020227101009602/27/02 10:10:31  5-MIN KDBQ 271610Z 32010KT 10SM CLR M09/M15 A3007 940 61 -1700 320/10 RMK AO2
94908KDBQ DBQ20020227101509602/27/02 10:15:31  5-MIN KDBQ 271615Z 34009KT 10SM CLR M09/M15 A3007 940 61 -1700 340/09 RMK AO2
94908KDBQ DBQ20020227102009602/27/02 10:20:31  5-MIN KDBQ 271620Z 32008KT 10SM CLR M09/M15 A3007 940 61 -1700 320/08 RMK AO2
94908KDBQ DBQ20020227102509602/27/02 10:25:31  5-MIN KDBQ 271625Z 32011KT 10SM CLR M09/M15 A3007 940 61 -1700 310/11 RMK AO2
94908KDBQ DBQ20020227103009602/27/02 10:30:31  5-MIN KDBQ 271630Z 33009KT 10SM CLR M09/M15 A3007 940 61 -1700 330/09 RMK AO2
94908KDBQ DBQ20020227103509602/27/02 10:35:31  5-MIN KDBQ 271635Z 33007KT 10SM CLR M09/M14 A3007 940 64 -1700 320/07 RMK AO2
94908KDBQ DBQ20020227104009602/27/02 10:40:31  5-MIN KDBQ 271640Z 32007KT 10SM CLR M09/M15 A3007 940 61 -1700 320/07 RMK AO2
94908KDBQ DBQ20020227104509602/27/02 10:45:31  5-MIN KDBQ 271645Z 29009KT 10SM CLR M09/M14 A3007 940 64 -1700 290/09 RMK AO2
94908KDBQ DBQ20020227105011302/27/02 10:50:31  5-MIN KDBQ 271650Z 31009KT 10SM CLR M08/M14 A3007 940 62 -1600 310/09 RMK AO2 SLP203 T10831144
94908KDBQ DBQ20020227105511302/27/02 10:55:31  5-MIN KDBQ 271655Z 30010KT 10SM CLR M08/M14 A3007 940 62 -1600 300/10 RMK AO2 SLP203 T10831144
94908KDBQ DBQ20020227110009602/27/02 11:00:31  5-MIN KDBQ 271700Z 30010KT 10SM CLR M08/M14 A3008 930 62 -1600 300/10 RMK AO2
94908KDBQ DBQ20020227110509602/27/02 11:05:31  5-MIN KDBQ 271705Z 31010KT 10SM CLR M08/M14 A3007 940 64 -1600 310/10 RMK AO2
94908KDBQ DBQ20020227111009602/27/02 11:10:31  5-MIN KDBQ 271710Z 33008KT 10SM CLR M08/M14 A3008 930 59 -1600 330/08 RMK AO2
94908KDBQ DBQ20020227111509602/27/02 11:15:31  5-MIN KDBQ 271715Z 32011KT 10SM CLR M08/M14 A3007 940 62 -1600 320/11 RMK AO2
94908KDBQ DBQ20020227112009602/27/02 11:20:31  5-MIN KDBQ 271720Z 33009KT 10SM CLR M08/M14 A3007 940 59 -1600 330/09 RMK AO2
94908KDBQ DBQ20020227112509602/27/02 11:25:31  5-MIN KDBQ 271725Z 32010KT 10SM CLR M08/M14 A3007 940 62 -1600 310/10 RMK AO2
94908KDBQ DBQ20020227113009602/27/02 11:30:31  5-MIN KDBQ 271730Z 32010KT 10SM CLR M08/M13 A3007 940 64 -1600 320/10 RMK AO2
94908KDBQ DBQ20020227113509602/27/02 11:35:31  5-MIN KDBQ 271735Z 33010KT 10SM CLR M07/M14 A3007 940 59 -1500 330/10 RMK AO2
94908KDBQ DBQ20020227114009602/27/02 11:40:31  5-MIN KDBQ 271740Z 31012KT 10SM CLR M07/M14 A3007 940 56 -1500 310/12 RMK AO2
94908KDBQ DBQ20020227114510202/27/02 11:45:31  5-MIN KDBQ 271745Z 32012G17KT 10SM CLR M07/M14 A3007 940 56 -1500 320/12G17 RMK AO2
94908KDBQ DBQ20020227115013102/27/02 11:50:31  5-MIN KDBQ 271750Z 31012KT 10SM CLR M07/M14 A3007 940 56 -1500 310/12 RMK AO2 SLP201 T10721144 11072 21122 53018
94908KDBQ DBQ20020227115513102/27/02 11:55:31  5-MIN KDBQ 271755Z 30010KT 10SM CLR M07/M14 A3007 940 59 -1500 300/10 RMK AO2 SLP201 T10721139 11072 21122 50005
94908KDBQ DBQ20020227120009602/27/02 12:00:31  5-MIN KDBQ 271800Z 31013KT 10SM CLR M07/M14 A3007 940 59 -1500 310/13 RMK AO2
94908KDBQ DBQ20020227120509602/27/02 12:05:31  5-MIN KDBQ 271805Z 31012KT 10SM CLR M07/M14 A3007 940 59 -1500 310/12 RMK AO2
94908KDBQ DBQ20020227121009602/27/02 12:10:31  5-MIN KDBQ 271810Z 33010KT 10SM CLR M07/M14 A3007 940 56 -1500 330/10 RMK AO2
94908KDBQ DBQ20020227121509602/27/02 12:15:31  5-MIN KDBQ 271815Z 31012KT 10SM CLR M07/M14 A3006 950 59 -1500 310/12 RMK AO2
94908KDBQ DBQ20020227122009602/27/02 12:20:31  5-MIN KDBQ 271820Z 29013KT 10SM CLR M07/M14 A3006 950 59 -1500 290/13 RMK AO2
94908KDBQ DBQ20020227122509602/27/02 12:25:31  5-MIN KDBQ 271825Z 31015KT 10SM CLR M07/M14 A3006 950 54 -1400 310/15 RMK AO2
94908KDBQ DBQ20020227123009602/27/02 12:30:31  5-MIN KDBQ 271830Z 32009KT 10SM CLR M07/M14 A3006 950 59 -1500 320/09 RMK AO2
94908KDBQ DBQ20020227123509602/27/02 12:35:31  5-MIN KDBQ 271835Z 30010KT 10SM CLR M07/M14 A3006 950 57 -1400 300/10 RMK AO2
94908KDBQ DBQ20020227124009602/27/02 12:40:31  5-MIN KDBQ 271840Z 31011KT 10SM CLR M07/M14 A3006 950 57 -1400 310/11 RMK AO2
94908KDBQ DBQ20020227124509602/27/02 12:45:31  5-MIN KDBQ 271845Z 32011KT 10SM CLR M07/M14 A3006 950 57 -1400 320/11 RMK AO2
94908KDBQ DBQ20020227125011302/27/02 12:50:31  5-MIN KDBQ 271850Z 32011KT 10SM CLR M07/M14 A3006 950 57 -1400 320/11 RMK AO2 SLP199 T10671139
94908KDBQ DBQ20020227125511302/27/02 12:55:31  5-MIN KDBQ 271855Z 29011KT 10SM CLR M07/M14 A3006 950 57 -1400 290/11 RMK AO2 SLP199 T10671139
94908KDBQ DBQ20020227130009602/27/02 13:00:31  5-MIN KDBQ 271900Z 30012KT 10SM CLR M07/M14 A3006 940 57 -1400 300/12 RMK AO2
94908KDBQ DBQ20020227130509602/27/02 13:05:31  5-MIN KDBQ 271905Z 29012KT 10SM CLR M07/M14 A3006 950 54 -1400 290/12 RMK AO2
94908KDBQ DBQ20020227131009602/27/02 13:10:31  5-MIN KDBQ 271910Z 29016KT 10SM CLR M07/M14 A3006 950 57 -1400 290/16 RMK AO2
94908KDBQ DBQ20020227131509602/27/02 13:15:31  5-MIN KDBQ 271915Z 30013KT 10SM CLR M07/M14 A3006 950 57 -1400 300/13 RMK AO2
94908KDBQ DBQ20020227132009602/27/02 13:20:31  5-MIN KDBQ 271920Z 30011KT 10SM CLR M06/M14 A3006 950 54 -1300 300/11 RMK AO2
94908KDBQ DBQ20020227132509602/27/02 13:25:31  5-MIN KDBQ 271925Z 29014KT 10SM CLR M06/M14 A3006 950 54 -1300 290/14 RMK AO2
94908KDBQ DBQ20020227133009602/27/02 13:30:31  5-MIN KDBQ 271930Z 29014KT 10SM CLR M06/M14 A3006 950 52 -1300 290/14 RMK AO2
94908KDBQ DBQ20020227133509602/27/02 13:35:31  5-MIN KDBQ 271935Z 29014KT 10SM CLR M06/M15 A3006 950 50 -1300 290/14 RMK AO2
94908KDBQ DBQ20020227134009602/27/02 13:40:31  5-MIN KDBQ 271940Z 30013KT 10SM CLR M06/M15 A3006 950 50 -1300 300/13 RMK AO2
94908KDBQ DBQ20020227134509602/27/02 13:45:31  5-MIN KDBQ 271945Z 29010KT 10SM CLR M06/M14 A3006 950 54 -1300 290/10 RMK AO2
94908KDBQ DBQ20020227135011302/27/02 13:50:31  5-MIN KDBQ 271950Z 28012KT 10SM CLR M06/M13 A3006 950 57 -1300 280/12 RMK AO2 SLP199 T10611133
94908KDBQ DBQ20020227135511302/27/02 13:55:31  5-MIN KDBQ 271955Z 28013KT 10SM CLR M06/M13 A3006 950 57 -1300 280/13 RMK AO2 SLP198 T10611133
94908KDBQ DBQ20020227140010202/27/02 14:00:31  5-MIN KDBQ 272000Z 28011G17KT 10SM CLR M06/M13 A3006 950 57 -1300 270/11G17 RMK AO2
94908KDBQ DBQ20020227140509602/27/02 14:05:31  5-MIN KDBQ 272005Z 29013KT 10SM CLR M06/M13 A3005 950 57 -1300 290/13 RMK AO2
94908KDBQ DBQ20020227141009602/27/02 14:10:31  5-MIN KDBQ 272010Z 29012KT 10SM CLR M06/M13 A3006 950 57 -1300 290/12 RMK AO2
94908KDBQ DBQ20020227141509602/27/02 14:15:31  5-MIN KDBQ 272015Z 29011KT 10SM CLR M06/M14 A3006 950 54 -1300 290/11 RMK AO2
94908KDBQ DBQ20020227142009602/27/02 14:20:31  5-MIN KDBQ 272020Z 28011KT 10SM CLR M06/M14 A3006 950 52 -1300 280/11 RMK AO2
94908KDBQ DBQ20020227142509602/27/02 14:25:31  5-MIN KDBQ 272025Z 29013KT 10SM CLR M06/M14 A3006 950 52 -1300 290/13 RMK AO2
94908KDBQ DBQ20020227143009602/27/02 14:30:31  5-MIN KDBQ 272030Z 27010KT 10SM CLR M06/M14 A3006 950 52 -1300 270/10 RMK AO2
94908KDBQ DBQ20020227143509602/27/02 14:35:31  5-MIN KDBQ 272035Z 28012KT 10SM CLR M06/M14 A3006 950 50 -1300 280/12 RMK AO2
94908KDBQ DBQ20020227144009602/27/02 14:40:31  5-MIN KDBQ 272040Z 27013KT 10SM CLR M06/M14 A3006 950 52 -1300 270/13 RMK AO2
94908KDBQ DBQ20020227144509602/27/02 14:45:31  5-MIN KDBQ 272045Z 29011KT 10SM CLR M06/M13 A3006 950 54 -1300 290/11 RMK AO2
94908KDBQ DBQ20020227145011902/27/02 14:50:31  5-MIN KDBQ 272050Z 30011KT 10SM CLR M05/M14 A3006 950 50 -1200 300/11 RMK AO2 SLP197 T10501139 50005
94908KDBQ DBQ20020227145511902/27/02 14:55:31  5-MIN KDBQ 272055Z 29012KT 10SM CLR M05/M13 A3006 950 52 -1200 290/12 RMK AO2 SLP198 T10501133 55002
94908KDBQ DBQ20020227150009602/27/02 15:00:31  5-MIN KDBQ 272100Z 29013KT 10SM CLR M05/M14 A3006 950 50 -1200 290/13 RMK AO2
94908KDBQ DBQ20020227150509602/27/02 15:05:31  5-MIN KDBQ 272105Z 29011KT 10SM CLR M05/M13 A3006 950 52 -1200 290/11 RMK AO2
94908KDBQ DBQ20020227151009602/27/02 15:10:31  5-MIN KDBQ 272110Z 28013KT 10SM CLR M05/M13 A3006 950 52 -1200 280/13 RMK AO2
94908KDBQ DBQ20020227151509602/27/02 15:15:31  5-MIN KDBQ 272115Z 26013KT 10SM CLR M06/M13 A3006 950 57 -1300 260/13 RMK AO2
94908KDBQ DBQ20020227152009602/27/02 15:20:31  5-MIN KDBQ 272120Z 28012KT 10SM CLR M06/M12 A3007 940 59 -1300 280/12 RMK AO2
94908KDBQ DBQ20020227152509602/27/02 15:25:31  5-MIN KDBQ 272125Z 27014KT 10SM CLR M06/M13 A3007 940 57 -1300 270/14 RMK AO2
94908KDBQ DBQ20020227153009602/27/02 15:30:31  5-MIN KDBQ 272130Z 26012KT 10SM CLR M06/M13 A3007 940 57 -1300 260/12 RMK AO2
94908KDBQ DBQ20020227153510202/27/02 15:35:31  5-MIN KDBQ 272135Z 26016G20KT 10SM CLR M06/M13 A3007 940 57 -1300 260/16G20 RMK AO2
94908KDBQ DBQ20020227154009602/27/02 15:40:31  5-MIN KDBQ 272140Z 27014KT 10SM CLR M06/M13 A3007 940 57 -1300 270/14 RMK AO2
94908KDBQ DBQ20020227154509602/27/02 15:45:31  5-MIN KDBQ 272145Z 27013KT 10SM CLR M06/M13 A3007 940 54 -1300 270/13 RMK AO2
94908KDBQ DBQ20020227155011302/27/02 15:50:31  5-MIN KDBQ 272150Z 27014KT 10SM CLR M06/M14 A3007 940 50 -1300 270/14 RMK AO2 SLP201 T10561144
94908KDBQ DBQ20020227155511302/27/02 15:55:31  5-MIN KDBQ 272155Z 27013KT 10SM CLR M06/M14 A3007 940 52 -1300 270/13 RMK AO2 SLP201 T10561139
94908KDBQ DBQ20020227160009602/27/02 16:00:31  5-MIN KDBQ 272200Z 28012KT 10SM CLR M06/M14 A3007 940 50 -1300 280/12 RMK AO2
94908KDBQ DBQ20020227160509602/27/02 16:05:31  5-MIN KDBQ 272205Z 27009KT 10SM CLR M06/M14 A3007 940 52 -1300 270/09 RMK AO2
94908KDBQ DBQ20020227161010202/27/02 16:10:31  5-MIN KDBQ 272210Z 29013G16KT 10SM CLR M06/M14 A3007 940 52 -1300 290/13G16 RMK AO2
94908KDBQ DBQ20020227161509602/27/02 16:15:31  5-MIN KDBQ 272215Z 27013KT 10SM CLR M06/M14 A3007 940 52 -1300 270/13 RMK AO2
94908KDBQ DBQ20020227162009602/27/02 16:20:31  5-MIN KDBQ 272220Z 27012KT 10SM CLR M06/M13 A3007 940 54 -1300 270/12 RMK AO2
94908KDBQ DBQ20020227162509602/27/02 16:25:31  5-MIN KDBQ 272225Z 27010KT 10SM CLR M06/M13 A3006 950 54 -1300 270/10 RMK AO2
94908KDBQ DBQ20020227163009602/27/02 16:30:31  5-MIN KDBQ 272230Z 27011KT 10SM CLR M06/M13 A3007 940 57 -1300 260/11 RMK AO2
94908KDBQ DBQ20020227163509602/27/02 16:35:31  5-MIN KDBQ 272235Z 28011KT 10SM CLR M06/M13 A3006 950 54 -1300 270/11 RMK AO2
94908KDBQ DBQ20020227164009602/27/02 16:40:31  5-MIN KDBQ 272240Z 27010KT 10SM CLR M06/M13 A3007 940 54 -1300 270/10 RMK AO2
94908KDBQ DBQ20020227164509602/27/02 16:45:31  5-MIN KDBQ 272245Z 26011KT 10SM CLR M06/M13 A3007 940 57 -1300 260/11 RMK AO2
94908KDBQ DBQ20020227165011302/27/02 16:50:31  5-MIN KDBQ 272250Z 27012KT 10SM CLR M06/M13 A3007 940 57 -1300 270/12 RMK AO2 SLP202 T10561128
94908KDBQ DBQ20020227165511302/27/02 16:55:31  5-MIN KDBQ 272255Z 27012KT 10SM CLR M06/M13 A3007 940 57 -1300 270/12 RMK AO2 SLP201 T10561128
94908KDBQ DBQ20020227170009602/27/02 17:00:31  5-MIN KDBQ 272300Z 26012KT 10SM CLR M06/M13 A3007 940 57 -1300 260/12 RMK AO2
94908KDBQ DBQ20020227201510602/27/02 20:15:31  5-MIN KDBQ 280215Z AUTO 23007KT 10SM CLR M10/M14 A3006 950 73 -1800 230/07 RMK AO2 TSNO
94908KDBQ DBQ20020227202010602/27/02 20:20:31  5-MIN KDBQ 280220Z AUTO 23006KT 10SM CLR M10/M13 A3006 950 77 -1800 230/06 RMK AO2 TSNO
94908KDBQ DBQ20020227202510602/27/02 20:25:31  5-MIN KDBQ 280225Z AUTO 22005KT 10SM CLR M09/M13 A3006 950 73 -1800 220/05 RMK AO2 TSNO
94908KDBQ DBQ20020227203010602/27/02 20:30:31  5-MIN KDBQ 280230Z AUTO 22004KT 10SM CLR M09/M13 A3006 950 74 -1700 220/04 RMK AO2 TSNO
94908KDBQ DBQ20020227203510602/27/02 20:35:31  5-MIN KDBQ 280235Z AUTO 20004KT 10SM CLR M09/M13 A3006 950 70 -1700 200/04 RMK AO2 TSNO
94908KDBQ DBQ20020227204010602/27/02 20:40:31  5-MIN KDBQ 280240Z AUTO 21004KT 10SM CLR M09/M14 A3006 940 70 -1800 210/04 RMK AO2 TSNO
94908KDBQ DBQ20020227204510602/27/02 20:45:31  5-MIN KDBQ 280245Z AUTO 20004KT 10SM CLR M09/M13 A3006 950 73 -1800 200/04 RMK AO2 TSNO
94908KDBQ DBQ20020227205012902/27/02 20:50:31  5-MIN KDBQ 280250Z AUTO 21004KT 10SM CLR M10/M14 A3006 950 73 -1900 210/04 RMK AO2 SLP202 T11001139 51003 TSNO
94908KDBQ DBQ20020227205512902/27/02 20:55:31  5-MIN KDBQ 280255Z AUTO 21004KT 10SM CLR M10/M13 A3006 950 77 -1800 210/04 RMK AO2 SLP202 T11001133 58002 TSNO
94908KDBQ DBQ20020227210010602/27/02 21:00:31  5-MIN KDBQ 280300Z AUTO 20004KT 10SM CLR M10/M13 A3006 950 77 -1800 200/04 RMK AO2 TSNO
94908KDBQ DBQ20020227210510602/27/02 21:05:31  5-MIN KDBQ 280305Z AUTO 20005KT 10SM CLR M11/M14 A3006 950 73 -1900 200/05 RMK AO2 TSNO
94908KDBQ DBQ20020227211010602/27/02 21:10:31  5-MIN KDBQ 280310Z AUTO 21004KT 10SM CLR M10/M14 A3006 950 73 -1800 210/04 RMK AO2 TSNO
94908KDBQ DBQ20020227211510602/27/02 21:15:31  5-MIN KDBQ 280315Z AUTO 21004KT 10SM CLR M10/M14 A3006 950 73 -1800 210/04 RMK AO2 TSNO
94908KDBQ DBQ20020227212010602/27/02 21:20:31  5-MIN KDBQ 280320Z AUTO 21004KT 10SM CLR M10/M13 A3006 950 77 -1800 210/04 RMK AO2 TSNO
94908KDBQ DBQ20020227212510602/27/02 21:25:31  5-MIN KDBQ 280325Z AUTO 20004KT 10SM CLR M11/M14 A3007 940 77 -1900 200/04 RMK AO2 TSNO
94908KDBQ DBQ20020227213010602/27/02 21:30:31  5-MIN KDBQ 280330Z AUTO 20004KT 10SM CLR M11/M14 A3007 940 73 -1900 200/04 RMK AO2 TSNO
94908KDBQ DBQ20020227213510602/27/02 21:35:31  5-MIN KDBQ 280335Z AUTO 20003KT 10SM CLR M11/M14 A3007 940 73 -1900 200/03 RMK AO2 TSNO
94908KDBQ DBQ20020227214010602/27/02 21:40:31  5-MIN KDBQ 280340Z AUTO 21003KT 10SM CLR M11/M14 A3006 950 77 -2000 200/03 RMK AO2 TSNO
94908KDBQ DBQ20020227214510602/27/02 21:45:31  5-MIN KDBQ 280345Z AUTO 20003KT 10SM CLR M11/M14 A3006 950 77 -2000 200/03 RMK AO2 TSNO
94908KDBQ DBQ20020227215012302/27/02 21:50:31  5-MIN KDBQ 280350Z AUTO 20003KT 10SM CLR M11/M14 A3006 950 77 -2000 200/03 RMK AO2 SLP202 T11111144 TSNO
94908KDBQ DBQ20020227215512302/27/02 21:55:31  5-MIN KDBQ 280355Z AUTO 20004KT 10SM CLR M11/M14 A3006 950 77 -2000 200/04 RMK AO2 SLP201 T11111144 TSNO
94908KDBQ DBQ20020227220010602/27/02 22:00:31  5-MIN KDBQ 280400Z AUTO 20004KT 10SM CLR M11/M14 A3006 950 77 -2000 200/04 RMK AO2 TSNO
94908KDBQ DBQ20020227220510602/27/02 22:05:31  5-MIN KDBQ 280405Z AUTO 21004KT 10SM CLR M11/M14 A3006 950 77 -2000 200/04 RMK AO2 TSNO
94908KDBQ DBQ20020227221010602/27/02 22:10:31  5-MIN KDBQ 280410Z AUTO 20004KT 10SM CLR M11/M14 A3006 950 80 -2000 200/04 RMK AO2 TSNO
94908KDBQ DBQ20020227221510602/27/02 22:15:31  5-MIN KDBQ 280415Z AUTO 20004KT 10SM CLR M11/M14 A3006 950 77 -2000 200/04 RMK AO2 TSNO
94908KDBQ DBQ20020227222010602/27/02 22:20:31  5-MIN KDBQ 280420Z AUTO 19005KT 10SM CLR M11/M14 A3006 950 80 -2000 190/05 RMK AO2 TSNO
94908KDBQ DBQ20020227222510602/27/02 22:25:31  5-MIN KDBQ 280425Z AUTO 19005KT 10SM CLR M11/M14 A3006 950 77 -2000 190/05 RMK AO2 TSNO
94908KDBQ DBQ20020227223010602/27/02 22:30:31  5-MIN KDBQ 280430Z AUTO 20004KT 10SM CLR M11/M14 A3006 950 77 -2000 200/04 RMK AO2 TSNO
94908KDBQ DBQ20020227223510602/27/02 22:35:31  5-MIN KDBQ 280435Z AUTO 19005KT 10SM CLR M11/M14 A3005 960 80 -2000 190/05 RMK AO2 TSNO
94908KDBQ DBQ20020227224010602/27/02 22:40:31  5-MIN KDBQ 280440Z AUTO 19004KT 10SM CLR M11/M14 A3005 960 77 -2000 190/04 RMK AO2 TSNO
94908KDBQ DBQ20020227224510602/27/02 22:45:31  5-MIN KDBQ 280445Z AUTO 19004KT 10SM CLR M11/M14 A3005 960 77 -2000 190/04 RMK AO2 TSNO
94908KDBQ DBQ20020227225012302/27/02 22:50:31  5-MIN KDBQ 280450Z AUTO 19004KT 10SM CLR M11/M14 A3005 960 77 -1900 190/04 RMK AO2 SLP197 T11061139 TSNO
94908KDBQ DBQ20020227225512302/27/02 22:55:31  5-MIN KDBQ 280455Z AUTO 18005KT 10SM CLR M11/M14 A3005 960 80 -2000 180/05 RMK AO2 SLP196 T11111139 TSNO
94908KDBQ DBQ20020227230010602/27/02 23:00:31  5-MIN KDBQ 280500Z AUTO 19005KT 10SM CLR M11/M14 A3005 960 80 -2000 190/05 RMK AO2 TSNO
94908KDBQ DBQ20020227230510602/27/02 23:05:31  5-MIN KDBQ 280505Z AUTO 19005KT 10SM CLR M11/M14 A3005 960 77 -1900 190/05 RMK AO2 TSNO
94908KDBQ DBQ20020227231010602/27/02 23:10:31  5-MIN KDBQ 280510Z AUTO 18005KT 10SM CLR M11/M14 A3004 970 80 -2000 180/05 RMK AO2 TSNO
94908KDBQ DBQ20020227231510602/27/02 23:15:31  5-MIN KDBQ 280515Z AUTO 19005KT 10SM CLR M11/M14 A3004 970 77 -1900 190/05 RMK AO2 TSNO
94908KDBQ DBQ20020227232010602/27/02 23:20:31  5-MIN KDBQ 280520Z AUTO 19005KT 10SM CLR M11/M16 A3004 970 67 -2000 190/05 RMK AO2 TSNO
94908KDBQ DBQ20020227232510602/27/02 23:25:31  5-MIN KDBQ 280525Z AUTO 19005KT 10SM CLR M11/M14 A3004 970 77 -2000 190/05 RMK AO2 TSNO
94908KDBQ DBQ20020227233010602/27/02 23:30:31  5-MIN KDBQ 280530Z AUTO 19005KT 10SM CLR M11/M14 A3004 970 77 -2000 190/05 RMK AO2 TSNO
94908KDBQ DBQ20020227233510602/27/02 23:35:31  5-MIN KDBQ 280535Z AUTO 19005KT 10SM CLR M11/M14 A3004 970 77 -2000 190/05 RMK AO2 TSNO
94908KDBQ DBQ20020227234010602/27/02 23:40:31  5-MIN KDBQ 280540Z AUTO 19005KT 10SM CLR M11/M14 A3004 970 77 -2000 190/05 RMK AO2 TSNO
94908KDBQ DBQ20020227234510602/27/02 23:45:31  5-MIN KDBQ 280545Z AUTO 19005KT 10SM CLR M12/M14 A3003 970 80 -2000 190/05 RMK AO2 TSNO
94908KDBQ DBQ20020227235015102/27/02 23:50:31  5-MIN KDBQ 280550Z AUTO 19006KT 10SM CLR M11/M14 A3003 980 77 -2000 190/06 RMK AO2 SLP190 T11111144 11067 21117 410501122 58002 TSNO
94908KDBQ DBQ20020227235515102/27/02 23:55:31  5-MIN KDBQ 280555Z AUTO 19006KT 10SM CLR M11/M14 A3003 980 80 -2000 180/06 RMK AO2 SLP190 T11111139 11067 21117 410501122 58010 TSNO
94908KDBQ DBQ20020228000010602/28/02 00:00:31  5-MIN KDBQ 280600Z AUTO 19007KT 10SM CLR M11/M14 A3003 980 77 -1900 190/07 RMK AO2 TSNO
94908KDBQ DBQ20020228000510602/28/02 00:05:31  5-MIN KDBQ 280605Z AUTO 19006KT 10SM CLR M11/M14 A3003 980 77 -1900 190/06 RMK AO2 TSNO
94908KDBQ DBQ20020228001010602/28/02 00:10:31  5-MIN KDBQ 280610Z AUTO 19007KT 10SM CLR M11/M14 A3002 980 77 -1900 190/07 RMK AO2 TSNO
94908KDBQ DBQ20020228001510602/28/02 00:15:31  5-MIN KDBQ 280615Z AUTO 19006KT 10SM CLR M11/M14 A3002 990 80 -1900 190/06 RMK AO2 TSNO
94908KDBQ DBQ20020228002010602/28/02 00:20:31  5-MIN KDBQ 280620Z AUTO 19007KT 10SM CLR M11/M14 A3002 990 77 -1900 190/07 RMK AO2 TSNO
94908KDBQ DBQ20020228002510602/28/02 00:25:31  5-MIN KDBQ 280625Z AUTO 19007KT 10SM CLR M11/M14 A3002 990 77 -1900 190/07 RMK AO2 TSNO
94908KDBQ DBQ20020228003010602/28/02 00:30:31  5-MIN KDBQ 280630Z AUTO 19007KT 10SM CLR M11/M14 A3002 990 77 -1900 190/07 RMK AO2 TSNO
94908KDBQ DBQ20020228003510602/28/02 00:35:31  5-MIN KDBQ 280635Z AUTO 19008KT 10SM CLR M10/M14 A3001 990 73 -1800 190/08 RMK AO2 TSNO
94908KDBQ DBQ20020228004010602/28/02 00:40:31  5-MIN KDBQ 280640Z AUTO 19007KT 10SM CLR M11/M14 A3001 990 77 -1900 190/07 RMK AO2 TSNO
94908KDBQ DBQ20020228004510602/28/02 00:45:31  5-MIN KDBQ 280645Z AUTO 19007KT 10SM CLR M11/M14 A3001 990 77 -1900 190/07 RMK AO2 TSNO
94908KDBQ DBQ20020228005012402/28/02 00:50:31  5-MIN KDBQ 280650Z AUTO 19007KT 10SM CLR M11/M14 A3001 1000 77 -1900 190/07 RMK AO2 SLP182 T11061139 TSNO
94908KDBQ DBQ20020228005512402/28/02 00:55:31  5-MIN KDBQ 280655Z AUTO 19007KT 10SM CLR M11/M14 A3001 1000 77 -1900 190/07 RMK AO2 SLP182 T11111144 TSNO
94908KDBQ DBQ20020228010010702/28/02 01:00:31  5-MIN KDBQ 280700Z AUTO 19007KT 10SM CLR M11/M14 A3001 1000 77 -1900 190/07 RMK AO2 TSNO
94908KDBQ DBQ20020228010510702/28/02 01:05:31  5-MIN KDBQ 280705Z AUTO 19007KT 10SM CLR M11/M14 A3000 1000 77 -1900 190/07 RMK AO2 TSNO
94908KDBQ DBQ20020228011010702/28/02 01:10:31  5-MIN KDBQ 280710Z AUTO 19007KT 10SM CLR M11/M14 A3000 1000 77 -1900 190/07 RMK AO2 TSNO
94908KDBQ DBQ20020228011510702/28/02 01:15:31  5-MIN KDBQ 280715Z AUTO 19007KT 10SM CLR M11/M14 A3000 1000 77 -1900 190/07 RMK AO2 TSNO
94908KDBQ DBQ20020228012010702/28/02 01:20:31  5-MIN KDBQ 280720Z AUTO 19007KT 10SM CLR M11/M14 A3000 1000 77 -1900 190/07 RMK AO2 TSNO
94908KDBQ DBQ20020228012510702/28/02 01:25:31  5-MIN KDBQ 280725Z AUTO 19007KT 10SM CLR M11/M14 A3000 1010 77 -1900 190/07 RMK AO2 TSNO
94908KDBQ DBQ20020228013010702/28/02 01:30:31  5-MIN KDBQ 280730Z AUTO 19008KT 10SM CLR M11/M14 A3000 1010 77 -1900 190/08 RMK AO2 TSNO
94908KDBQ DBQ20020228013510702/28/02 01:35:31  5-MIN KDBQ 280735Z AUTO 19009KT 10SM CLR M11/M14 A3000 1010 73 -1800 190/09 RMK AO2 TSNO
94908KDBQ DBQ20020228014010702/28/02 01:40:31  5-MIN KDBQ 280740Z AUTO 20009KT 10SM CLR M11/M14 A3000 1010 73 -1800 200/09 RMK AO2 TSNO
94908KDBQ DBQ20020228014510702/28/02 01:45:31  5-MIN KDBQ 280745Z AUTO 20009KT 10SM CLR M11/M14 A3000 1010 73 -1800 190/09 RMK AO2 TSNO
94908KDBQ DBQ20020228015012402/28/02 01:50:31  5-MIN KDBQ 280750Z AUTO 20008KT 10SM CLR M11/M14 A2999 1010 73 -1800 200/08 RMK AO2 SLP176 T11061144 TSNO
94908KDBQ DBQ20020228015512402/28/02 01:55:31  5-MIN KDBQ 280755Z AUTO 19008KT 10SM CLR M11/M14 A2999 1010 73 -1800 190/08 RMK AO2 SLP176 T11061144 TSNO
94908KDBQ DBQ20020228020010702/28/02 02:00:31  5-MIN KDBQ 280800Z AUTO 19008KT 10SM CLR M11/M14 A2999 1010 73 -1800 190/08 RMK AO2 TSNO
94908KDBQ DBQ20020228020510702/28/02 02:05:31  5-MIN KDBQ 280805Z AUTO 19008KT 10SM CLR M11/M14 A2999 1020 73 -1800 190/08 RMK AO2 TSNO
94908KDBQ DBQ20020228021010702/28/02 02:10:31  5-MIN KDBQ 280810Z AUTO 19008KT 10SM CLR M11/M14 A2999 1020 73 -1800 190/08 RMK AO2 TSNO
94908KDBQ DBQ20020228021510702/28/02 02:15:31  5-MIN KDBQ 280815Z AUTO 19008KT 10SM CLR M11/M14 A2998 1020 73 -1800 190/08 RMK AO2 TSNO
94908KDBQ DBQ20020228022010702/28/02 02:20:31  5-MIN KDBQ 280820Z AUTO 19008KT 10SM CLR M11/M14 A2998 1020 73 -1800 190/08 RMK AO2 TSNO
94908KDBQ DBQ20020228022510702/28/02 02:25:31  5-MIN KDBQ 280825Z AUTO 19009KT 10SM CLR M11/M14 A2998 1020 73 -1800 190/09 RMK AO2 TSNO
94908KDBQ DBQ20020228023010702/28/02 02:30:31  5-MIN KDBQ 280830Z AUTO 19009KT 10SM CLR M11/M14 A2998 1030 73 -1800 190/09 RMK AO2 TSNO
94908KDBQ DBQ20020228023510702/28/02 02:35:31  5-MIN KDBQ 280835Z AUTO 19009KT 10SM CLR M11/M14 A2997 1030 73 -1800 190/09 RMK AO2 TSNO
94908KDBQ DBQ20020228024010702/28/02 02:40:31  5-MIN KDBQ 280840Z AUTO 19009KT 10SM CLR M11/M14 A2997 1030 73 -1800 190/09 RMK AO2 TSNO
94908KDBQ DBQ20020228024510702/28/02 02:45:31  5-MIN KDBQ 280845Z AUTO 20009KT 10SM CLR M10/M14 A2997 1030 70 -1700 200/09 RMK AO2 TSNO
94908KDBQ DBQ20020228025013002/28/02 02:50:31  5-MIN KDBQ 280850Z AUTO 20009KT 10SM CLR M10/M14 A2997 1030 73 -1700 200/09 RMK AO2 SLP167 T11001139 58010 TSNO
94908KDBQ DBQ20020228025513002/28/02 02:55:31  5-MIN KDBQ 280855Z AUTO 20008KT 10SM CLR M10/M14 A2997 1040 73 -1700 200/08 RMK AO2 SLP166 T11001139 58021 TSNO
94908KDBQ DBQ20020228030010702/28/02 03:00:31  5-MIN KDBQ 280900Z AUTO 20010KT 10SM CLR M10/M14 A2996 1040 73 -1700 200/10 RMK AO2 TSNO
94908KDBQ DBQ20020228030510702/28/02 03:05:31  5-MIN KDBQ 280905Z AUTO 20009KT 10SM CLR M10/M14 A2996 1040 70 -1700 200/09 RMK AO2 TSNO
94908KDBQ DBQ20020228031010702/28/02 03:10:31  5-MIN KDBQ 280910Z AUTO 20009KT 10SM CLR M10/M14 A2996 1040 73 -1700 200/09 RMK AO2 TSNO
94908KDBQ DBQ20020228031510702/28/02 03:15:31  5-MIN KDBQ 280915Z AUTO 19009KT 10SM CLR M10/M14 A2996 1050 73 -1700 190/09 RMK AO2 TSNO
94908KDBQ DBQ20020228032010702/28/02 03:20:31  5-MIN KDBQ 280920Z AUTO 19008KT 10SM CLR M10/M14 A2995 1050 73 -1700 190/08 RMK AO2 TSNO
94908KDBQ DBQ20020228032510702/28/02 03:25:31  5-MIN KDBQ 280925Z AUTO 20009KT 10SM CLR M10/M14 A2995 1050 73 -1700 200/09 RMK AO2 TSNO
94908KDBQ DBQ20020228033010702/28/02 03:30:31  5-MIN KDBQ 280930Z AUTO 20010KT 10SM CLR M10/M14 A2995 1050 73 -1700 200/10 RMK AO2 TSNO
94908KDBQ DBQ20020228033511002/28/02 03:35:31  5-MIN KDBQ 280935Z AUTO 20010KT 10SM FEW120 M09/M14 A2995 1050 70 -1600 200/10 RMK AO2 TSNO
94908KDBQ DBQ20020228034011002/28/02 03:40:31  5-MIN KDBQ 280940Z AUTO 19010KT 10SM SCT120 M09/M14 A2994 1060 70 -1600 190/10 RMK AO2 TSNO
94908KDBQ DBQ20020228034511002/28/02 03:45:31  5-MIN KDBQ 280945Z AUTO 19009KT 10SM BKN120 M09/M14 A2994 1060 70 -1600 190/09 RMK AO2 TSNO
94908KDBQ DBQ20020228035012702/28/02 03:50:31  5-MIN KDBQ 280950Z AUTO 19009KT 10SM BKN120 M09/M14 A2994 1060 70 -1600 190/09 RMK AO2 SLP156 T10941139 TSNO
94908KDBQ DBQ20020228035512702/28/02 03:55:31  5-MIN KDBQ 280955Z AUTO 19009KT 10SM BKN120 M09/M14 A2994 1060 70 -1600 190/09 RMK AO2 SLP155 T10941139 TSNO
94908KDBQ DBQ20020228040011002/28/02 04:00:31  5-MIN KDBQ 281000Z AUTO 19010KT 10SM BKN120 M09/M13 A2993 1070 73 -1600 190/10 RMK AO2 TSNO
94908KDBQ DBQ20020228040511002/28/02 04:05:31  5-MIN KDBQ 281005Z AUTO 19011KT 10SM SCT120 M09/M14 A2993 1070 70 -1600 190/11 RMK AO2 TSNO
94908KDBQ DBQ20020228041011002/28/02 04:10:31  5-MIN KDBQ 281010Z AUTO 19011KT 10SM SCT110 M09/M14 A2993 1070 70 -1600 190/11 RMK AO2 TSNO
94908KDBQ DBQ20020228041511002/28/02 04:15:31  5-MIN KDBQ 281015Z AUTO 19011KT 10SM FEW110 M09/M14 A2993 1070 70 -1600 190/11 RMK AO2 TSNO
94908KDBQ DBQ20020228042011002/28/02 04:20:31  5-MIN KDBQ 281020Z AUTO 19011KT 10SM FEW110 M09/M14 A2992 1080 70 -1600 190/11 RMK AO2 TSNO
94908KDBQ DBQ20020228042511002/28/02 04:25:31  5-MIN KDBQ 281025Z AUTO 19012KT 10SM FEW110 M09/M14 A2992 1080 70 -1600 190/12 RMK AO2 TSNO
94908KDBQ DBQ20020228043011002/28/02 04:30:31  5-MIN KDBQ 281030Z AUTO 19012KT 10SM SCT110 M09/M14 A2992 1080 70 -1600 190/12 RMK AO2 TSNO
94908KDBQ DBQ20020228043511002/28/02 04:35:31  5-MIN KDBQ 281035Z AUTO 19012KT 10SM FEW110 M09/M14 A2992 1080 70 -1600 190/12 RMK AO2 TSNO
94908KDBQ DBQ20020228044011002/28/02 04:40:31  5-MIN KDBQ 281040Z AUTO 19012KT 10SM FEW110 M09/M14 A2992 1080 70 -1600 190/12 RMK AO2 TSNO
94908KDBQ DBQ20020228044511002/28/02 04:45:31  5-MIN KDBQ 281045Z AUTO 19012KT 10SM SCT110 M09/M14 A2991 1080 67 -1600 190/12 RMK AO2 TSNO
94908KDBQ DBQ20020228045012702/28/02 04:50:31  5-MIN KDBQ 281050Z AUTO 19012KT 10SM BKN110 M09/M14 A2991 1090 70 -1600 190/12 RMK AO2 SLP147 T10941139 TSNO
94908KDBQ DBQ20020228045513402/28/02 04:55:31  5-MIN KDBQ 281055Z AUTO 19011KT 10SM SCT100 BKN120 M09/M14 A2991 1090 70 -1600 190/11 RMK AO2 SLP147 T10941139 TSNO
94908KDBQ DBQ20020228050011702/28/02 05:00:31  5-MIN KDBQ 281100Z AUTO 19011KT 10SM BKN095 BKN120 M09/M14 A2991 1090 70 -1600 190/11 RMK AO2 TSNO
94908KDBQ DBQ20020228050511702/28/02 05:05:31  5-MIN KDBQ 281105Z AUTO 19011KT 10SM BKN100 BKN120 M09/M14 A2991 1090 70 -1600 190/11 RMK AO2 TSNO
94908KDBQ DBQ20020228051011702/28/02 05:10:31  5-MIN KDBQ 281110Z AUTO 19010KT 10SM BKN100 OVC120 M09/M14 A2991 1080 67 -1600 190/10 RMK AO2 TSNO
94908KDBQ DBQ20020228051511002/28/02 05:15:31  5-MIN KDBQ 281115Z AUTO 19010KT 10SM OVC095 M09/M14 A2992 1080 70 -1600 190/10 RMK AO2 TSNO
94908KDBQ DBQ20020228052011702/28/02 05:20:31  5-MIN KDBQ 281120Z AUTO 19010KT 10SM FEW070 OVC095 M09/M13 A2992 1080 70 -1500 190/10 RMK AO2 TSNO
94908KDBQ DBQ20020228052511702/28/02 05:25:31  5-MIN KDBQ 281125Z AUTO 19010KT 10SM SCT075 OVC090 M09/M13 A2991 1090 70 -1500 190/10 RMK AO2 TSNO
94908KDBQ DBQ20020228053011702/28/02 05:30:31  5-MIN KDBQ 281130Z AUTO 19010KT 10SM SCT075 OVC090 M09/M13 A2991 1090 70 -1500 190/10 RMK AO2 TSNO
94908KDBQ DBQ20020228053511702/28/02 05:35:31  5-MIN KDBQ 281135Z AUTO 19010KT 10SM SCT070 OVC090 M09/M13 A2991 1090 70 -1500 190/10 RMK AO2 TSNO
94908KDBQ DBQ20020228054011702/28/02 05:40:31  5-MIN KDBQ 281140Z AUTO 19010KT 10SM BKN070 OVC090 M09/M13 A2991 1090 70 -1500 190/10 RMK AO2 TSNO
94908KDBQ DBQ20020228054511702/28/02 05:45:31  5-MIN KDBQ 281145Z AUTO 19010KT 10SM BKN070 OVC085 M09/M13 A2991 1090 70 -1500 190/10 RMK AO2 TSNO
94908KDBQ DBQ20020228055015202/28/02 05:50:31  5-MIN KDBQ 281150Z AUTO 19009KT 10SM SCT070 OVC085 M09/M13 A2991 1090 70 -1500 190/09 RMK AO2 SLP148 T10891133 11089 21111 58021 TSNO
94908KDBQ DBQ20020228055514202/28/02 05:55:31  5-MIN KDBQ 281155Z 20008KT 10SM BKN065 OVC085 M08/M13 A2991 1090 67 -1500 200/08 RMK AO2 SLP148 T10831133 11083 21111 55017
94908KDBQ DBQ20020228060010702/28/02 06:00:31  5-MIN KDBQ 281200Z 20009KT 10SM BKN065 OVC080 M08/M13 A2991 1080 70 -1500 200/09 RMK AO2
94908KDBQ DBQ20020228060510702/28/02 06:05:31  5-MIN KDBQ 281205Z 20010KT 10SM BKN070 OVC080 M08/M13 A2991 1090 70 -1500 200/10 RMK AO2
94908KDBQ DBQ20020228061010702/28/02 06:10:31  5-MIN KDBQ 281210Z 19008KT 10SM BKN065 OVC080 M08/M13 A2991 1090 70 -1500 190/08 RMK AO2
94908KDBQ DBQ20020228061510702/28/02 06:15:31  5-MIN KDBQ 281215Z 19008KT 10SM BKN060 OVC075 M08/M13 A2991 1090 70 -1400 190/08 RMK AO2
94908KDBQ DBQ20020228062011402/28/02 06:20:31  5-MIN KDBQ 281220Z 19008KT 10SM FEW049 BKN060 OVC075 M08/M13 A2991 1090 67 -1400 180/08 RMK AO2
94908KDBQ DBQ20020228062511402/28/02 06:25:31  5-MIN KDBQ 281225Z 19008KT 10SM SCT049 BKN060 OVC075 M08/M12 A2990 1090 71 -1400 190/08 RMK AO2
94908KDBQ DBQ20020228063011402/28/02 06:30:31  5-MIN KDBQ 281230Z 19009KT 10SM BKN049 BKN065 OVC075 M08/M12 A2990 1090 71 -1400 190/09 RMK AO2
94908KDBQ DBQ20020228063510702/28/02 06:35:31  5-MIN KDBQ 281235Z 20010KT 10SM SCT050 OVC065 M07/M12 A2990 1090 71 -1300 200/10 RMK AO2
94908KDBQ DBQ20020228064010702/28/02 06:40:31  5-MIN KDBQ 281240Z 20010KT 10SM FEW050 OVC060 M07/M12 A2990 1100 68 -1300 200/10 RMK AO2
94908KDBQ DBQ20020228064510702/28/02 06:45:31  5-MIN KDBQ 281245Z 20009KT 10SM SCT050 OVC065 M07/M12 A2990 1100 68 -1300 200/09 RMK AO2
94908KDBQ DBQ20020228065012402/28/02 06:50:31  5-MIN KDBQ 281250Z 20009KT 10SM FEW050 OVC065 M07/M12 A2990 1100 71 -1300 200/09 RMK AO2 SLP145 T10721117
94908KDBQ DBQ20020228065511702/28/02 06:55:31  5-MIN KDBQ 281255Z 21011KT 10SM OVC065 M07/M12 A2990 1100 68 -1200 210/11 RMK AO2 SLP144 T10671117
94908KDBQ DBQ20020228070010002/28/02 07:00:31  5-MIN KDBQ 281300Z 21011KT 10SM OVC065 M07/M12 A2990 1100 68 -1200 210/11 RMK AO2
94908KDBQ DBQ20020228070510002/28/02 07:05:31  5-MIN KDBQ 281305Z 22013KT 10SM OVC060 M07/M12 A2990 1100 68 -1200 210/13 RMK AO2
94908KDBQ DBQ20020228071010002/28/02 07:10:31  5-MIN KDBQ 281310Z 21013KT 10SM OVC060 M07/M12 A2990 1090 68 -1200 210/13 RMK AO2
94908KDBQ DBQ20020228071510002/28/02 07:15:31  5-MIN KDBQ 281315Z 22011KT 10SM OVC060 M07/M11 A2990 1090 71 -1200 220/11 RMK AO2
94908KDBQ DBQ20020228072010002/28/02 07:20:31  5-MIN KDBQ 281320Z 22011KT 10SM OVC060 M07/M11 A2990 1090 71 -1200 220/11 RMK AO2
94908KDBQ DBQ20020228072510002/28/02 07:25:31  5-MIN KDBQ 281325Z 22012KT 10SM OVC060 M07/M11 A2990 1090 71 -1200 220/12 RMK AO2
94908KDBQ DBQ20020228073010002/28/02 07:30:31  5-MIN KDBQ 281330Z 22012KT 10SM OVC060 M07/M11 A2991 1090 71 -1200 220/12 RMK AO2
94908KDBQ DBQ20020228073510702/28/02 07:35:31  5-MIN KDBQ 281335Z 22011KT 10SM BKN055 OVC065 M07/M11 A2991 1090 71 -1200 220/11 RMK AO2
94908KDBQ DBQ20020228074010702/28/02 07:40:31  5-MIN KDBQ 281340Z 22011KT 10SM BKN050 OVC065 M07/M11 A2991 1090 74 -1300 220/11 RMK AO2
94908KDBQ DBQ20020228074510702/28/02 07:45:31  5-MIN KDBQ 281345Z 22009KT 10SM BKN049 OVC060 M07/M11 A2991 1090 74 -1300 220/09 RMK AO2
94908KDBQ DBQ20020228075013102/28/02 07:50:31  5-MIN KDBQ 281350Z 22010KT 10SM FEW019 BKN049 OVC060 M07/M11 A2991 1090 74 -1300 220/10 RMK AO2 SLP147 T10721111
94908KDBQ DBQ20020228075513102/28/02 07:55:31  5-MIN KDBQ 281355Z 22011KT 10SM SCT019 BKN049 OVC060 M07/M11 A2991 1090 74 -1200 220/11 RMK AO2 SLP148 T10671106
94908KDBQ DBQ20020228080011402/28/02 08:00:31  5-MIN KDBQ 281400Z 23010KT 10SM BKN019 BKN047 OVC060 M07/M10 A2991 1090 77 -1200 230/10 RMK AO2
94908KDBQ DBQ20020228080511402/28/02 08:05:31  5-MIN KDBQ 281405Z 23012KT 10SM BKN019 BKN045 OVC060 M06/M09 A2991 1090 77 -1200 230/12 RMK AO2
94908KDBQ DBQ20020228081010702/28/02 08:10:31  5-MIN KDBQ 281410Z 24012KT 10SM BKN019 OVC045 M06/M09 A2991 1090 74 -1100 230/12 RMK AO2
94908KDBQ DBQ20020228081510002/28/02 08:15:31  5-MIN KDBQ 281415Z 24012KT 10SM OVC017 M06/M09 A2991 1090 74 -1100 240/12 RMK AO2
94908KDBQ DBQ20020228082010002/28/02 08:20:31  5-MIN KDBQ 281420Z 24013KT 10SM OVC017 M06/M09 A2991 1090 77 -1100 240/13 RMK AO2
94908KDBQ DBQ20020228082510002/28/02 08:25:31  5-MIN KDBQ 281425Z 24014KT 10SM OVC017 M05/M08 A2991 1090 77 -1000 240/14 RMK AO2
94908KDBQ DBQ20020228083010002/28/02 08:30:31  5-MIN KDBQ 281430Z 24014KT 10SM OVC017 M05/M08 A2991 1090 77 -1000 240/14 RMK AO2
94908KDBQ DBQ20020228083510002/28/02 08:35:31  5-MIN KDBQ 281435Z 25013KT 10SM OVC017 M05/M08 A2990 1090 77 -1000 250/13 RMK AO2
94908KDBQ DBQ20020228084009902/28/02 08:40:31  5-MIN KDBQ 281440Z 25011KT 10SM OVC017 M04/M08 A2991 1090 78 -900 250/11 RMK AO2
94908KDBQ DBQ20020228084509902/28/02 08:45:31  5-MIN KDBQ 281445Z 25015KT 10SM OVC017 M04/M08 A2991 1090 78 -900 250/15 RMK AO2
94908KDBQ DBQ20020228085012202/28/02 08:50:31  5-MIN KDBQ 281450Z 26015KT 10SM OVC017 M04/M08 A2991 1090 78 -900 260/15 RMK AO2 SLP146 T10441078 55017
94908KDBQ DBQ20020228085512302/28/02 08:55:31  5-MIN KDBQ 281455Z 26015KT 10SM OVC017 M04/M08 A2991 1090 78 -1000 260/15 RMK AO2 SLP147 T10441078 56001
94908KDBQ DBQ20020228090009902/28/02 09:00:31  5-MIN KDBQ 281500Z 26014KT 10SM OVC019 M04/M08 A2991 1090 74 -900 250/14 RMK AO2
94908KDBQ DBQ20020228090510502/28/02 09:05:31  5-MIN KDBQ 281505Z 26018G23KT 10SM OVC019 M04/M08 A2991 1090 74 -900 260/18G23 RMK AO2
94908KDBQ DBQ20020228091010502/28/02 09:10:31  5-MIN KDBQ 281510Z 27018G23KT 10SM OVC019 M04/M08 A2991 1090 71 -900 270/18G23 RMK AO2
94908KDBQ DBQ20020228091509902/28/02 09:15:31  5-MIN KDBQ 281515Z 26016KT 10SM OVC021 M04/M08 A2991 1080 74 -900 260/16 RMK AO2
94908KDBQ DBQ20020228092009902/28/02 09:20:31  5-MIN KDBQ 281520Z 27017KT 10SM OVC021 M04/M08 A2991 1090 74 -900 260/17 RMK AO2
94908KDBQ DBQ20020228092509902/28/02 09:25:31  5-MIN KDBQ 281525Z 27015KT 10SM OVC021 M04/M08 A2992 1080 74 -900 270/15 RMK AO2
94908KDBQ DBQ20020228093009902/28/02 09:30:31  5-MIN KDBQ 281530Z 26018KT 10SM OVC021 M04/M08 A2992 1080 74 -900 260/18 RMK AO2
94908KDBQ DBQ20020228093509902/28/02 09:35:31  5-MIN KDBQ 281535Z 27018KT 10SM OVC021 M04/M08 A2992 1080 74 -900 270/18 RMK AO2
94908KDBQ DBQ20020228094009902/28/02 09:40:31  5-MIN KDBQ 281540Z 27019KT 10SM OVC021 M04/M08 A2992 1080 74 -900 270/19 RMK AO2
94908KDBQ DBQ20020228094509902/28/02 09:45:31  5-MIN KDBQ 281545Z 27017KT 10SM OVC021 M04/M08 A2992 1080 74 -900 270/17 RMK AO2
94908KDBQ DBQ20020228095011602/28/02 09:50:31  5-MIN KDBQ 281550Z 27018KT 10SM OVC021 M04/M08 A2992 1080 74 -900 270/18 RMK AO2 SLP150 T10391078
94908KDBQ DBQ20020228095511602/28/02 09:55:31  5-MIN KDBQ 281555Z 27015KT 10SM OVC021 M04/M08 A2992 1080 74 -900 270/15 RMK AO2 SLP151 T10391078
94908KDBQ DBQ20020228100009902/28/02 10:00:31  5-MIN KDBQ 281600Z 28017KT 10SM OVC023 M04/M08 A2992 1080 74 -900 280/17 RMK AO2
94908KDBQ DBQ20020228100509902/28/02 10:05:31  5-MIN KDBQ 281605Z 27016KT 10SM OVC023 M04/M08 A2992 1080 71 -900 270/16 RMK AO2
94908KDBQ DBQ20020228101009902/28/02 10:10:31  5-MIN KDBQ 281610Z 27015KT 10SM OVC023 M03/M08 A2993 1070 68 -800 270/15 RMK AO2
94908KDBQ DBQ20020228101509902/28/02 10:15:31  5-MIN KDBQ 281615Z 27016KT 10SM OVC023 M03/M08 A2993 1070 71 -800 260/16 RMK AO2
94908KDBQ DBQ20020228102010602/28/02 10:20:31  5-MIN KDBQ 281620Z 27015KT 10SM BKN025 OVC030 M03/M08 A2992 1070 71 -800 270/15 RMK AO2
94908KDBQ DBQ20020228102510602/28/02 10:25:31  5-MIN KDBQ 281625Z 28015KT 10SM BKN025 BKN030 M03/M08 A2993 1070 71 -800 280/15 RMK AO2
94908KDBQ DBQ20020228103011902/28/02 10:30:31  5-MIN KDBQ 281630Z 27015G22KT 10SM SCT023 BKN028 BKN034 M03/M08 A2993 1070 68 -800 270/15G22 RMK AO2
94908KDBQ DBQ20020228103511902/28/02 10:35:31  5-MIN KDBQ 281635Z 28017G22KT 10SM SCT023 BKN028 OVC034 M03/M08 A2993 1070 68 -800 280/17G22 RMK AO2
94908KDBQ DBQ20020228104010602/28/02 10:40:31  5-MIN KDBQ 281640Z 28016KT 10SM SCT024 BKN030 M03/M08 A2993 1070 71 -800 280/16 RMK AO2
94908KDBQ DBQ20020228104510602/28/02 10:45:31  5-MIN KDBQ 281645Z 28019KT 10SM FEW024 BKN032 M03/M08 A2993 1070 66 -800 280/19 RMK AO2
94908KDBQ DBQ20020228105012902/28/02 10:50:31  5-MIN KDBQ 281650Z 28016G23KT 10SM FEW024 OVC033 M03/M08 A2993 1070 66 -800 280/16G23 RMK AO2 SLP154 T10281083
94908KDBQ DBQ20020228105512302/28/02 10:55:31  5-MIN KDBQ 281655Z 29017KT 10SM FEW024 OVC033 M03/M08 A2993 1070 66 -800 290/17 RMK AO2 SLP154 T10281083
94908KDBQ DBQ20020228110010602/28/02 11:00:31  5-MIN KDBQ 281700Z 28017KT 10SM FEW024 OVC033 M03/M09 A2993 1070 63 -800 270/17 RMK AO2
94908KDBQ DBQ20020228110509902/28/02 11:05:31  5-MIN KDBQ 281705Z 29015KT 10SM OVC032 M03/M08 A2993 1070 66 -800 290/15 RMK AO2
94908KDBQ DBQ20020228111010502/28/02 11:10:31  5-MIN KDBQ 281710Z 28019G25KT 10SM OVC034 M02/M08 A2993 1070 63 -700 280/19G25 RMK AO2
94908KDBQ DBQ20020228111510502/28/02 11:15:31  5-MIN KDBQ 281715Z 27019G25KT 10SM OVC034 M03/M08 A2994 1060 66 -800 270/19G25 RMK AO2
94908KDBQ DBQ20020228112009902/28/02 11:20:31  5-MIN KDBQ 281720Z 27018KT 10SM OVC034 M03/M08 A2994 1060 66 -800 270/18 RMK AO2
94908KDBQ DBQ20020228112509902/28/02 11:25:31  5-MIN KDBQ 281725Z 28016KT 10SM OVC034 M03/M08 A2994 1060 66 -800 280/16 RMK AO2
94908KDBQ DBQ20020228113009902/28/02 11:30:31  5-MIN KDBQ 281730Z 28018KT 10SM OVC034 M03/M08 A2995 1060 66 -800 280/18 RMK AO2
94908KDBQ DBQ20020228113512102/28/02 11:35:31  5-MIN KDBQ 281735Z 28019G23KT 10SM -SN OVC034 M03/M08 A2994 1060 66 -800 280/19G23 RMK AO2 SNB35 P0000
94908KDBQ DBQ20020228114012002/28/02 11:40:31  5-MIN KDBQ 281740Z 28016G23KT 9SM -SN OVC032 M03/M08 A2994 1060 66 -800 280/16G23 RMK AO2 SNB35 P0000
94908KDBQ DBQ20020228114511402/28/02 11:45:31  5-MIN KDBQ 281745Z 29016KT 9SM -SN OVC032 M03/M08 A2994 1060 68 -800 290/16 RMK AO2 SNB35 P0000
94908KDBQ DBQ20020228115016102/28/02 11:50:31  5-MIN KDBQ 281750Z 27017G21KT 9SM -SN OVC032 M03/M08 A2994 1060 68 -800 270/17G21 RMK AO2 SNB35 SLP158 P0000 60000 T10281078 11022 21083 56001
94908KDBQ DBQ20020228115516002/28/02 11:55:31  5-MIN KDBQ 281755Z 28017G21KT 8SM OVC032 M03/M08 A2995 1060 68 -800 280/17G21 RMK AO2 SNB35E53 SLP159 P0000 60000 T10281078 11022 21083 53012
94908KDBQ DBQ20020228120012202/28/02 12:00:31  5-MIN KDBQ 281800Z 27016KT 8SM SCT026 OVC032 M03/M08 A2994 1060 68 -800 270/16 RMK AO2 SNB1756E00 P0000
94908KDBQ DBQ20020228120511502/28/02 12:05:31  5-MIN KDBQ 281805Z 28016KT 9SM OVC030 M03/M08 A2994 1060 68 -800 280/16 RMK AO2 SNB1756E00 P0000
94908KDBQ DBQ20020228121012302/28/02 12:10:31  5-MIN KDBQ 281810Z 29015KT 10SM BKN027 OVC032 M03/M08 A2994 1060 68 -800 290/15 RMK AO2 SNB1756E00 P0000
94908KDBQ DBQ20020228121511602/28/02 12:15:31  5-MIN KDBQ 281815Z 29016KT 10SM OVC029 M03/M08 A2994 1060 68 -800 290/16 RMK AO2 SNB1756E00 P0000
94908KDBQ DBQ20020228122012302/28/02 12:20:31  5-MIN KDBQ 281820Z 28015KT 10SM BKN027 OVC032 M03/M08 A2994 1060 68 -800 270/15 RMK AO2 SNB1756E00 P0000
94908KDBQ DBQ20020228122512302/28/02 12:25:31  5-MIN KDBQ 281825Z 28016KT 10SM BKN028 OVC034 M03/M08 A2994 1060 68 -800 280/16 RMK AO2 SNB1756E00 P0000
94908KDBQ DBQ20020228123012302/28/02 12:30:31  5-MIN KDBQ 281830Z 27016KT 10SM FEW025 OVC032 M03/M08 A2994 1060 68 -800 270/16 RMK AO2 SNB1756E00 P0000
94908KDBQ DBQ20020228123512302/28/02 12:35:31  5-MIN KDBQ 281835Z 29017KT 10SM SCT027 OVC032 M03/M08 A2994 1060 66 -800 290/17 RMK AO2 SNB1756E00 P0000
94908KDBQ DBQ20020228124011602/28/02 12:40:31  5-MIN KDBQ 281840Z 28016KT 10SM OVC034 M03/M08 A2994 1060 68 -800 280/16 RMK AO2 SNB1756E00 P0000
94908KDBQ DBQ20020228124511602/28/02 12:45:31  5-MIN KDBQ 281845Z 27017KT 10SM OVC034 M03/M08 A2994 1060 66 -800 270/17 RMK AO2 SNB1756E00 P0000
94908KDBQ DBQ20020228125013902/28/02 12:50:31  5-MIN KDBQ 281850Z 27016G22KT 10SM OVC034 M02/M08 A2994 1060 63 -700 270/16G22 RMK AO2 SNB1756E00 SLP156 P0000 T10221083
94908KDBQ DBQ20020228125513302/28/02 12:55:31  5-MIN KDBQ 281855Z 28015KT 10SM OVC034 M02/M08 A2994 1060 63 -700 280/15 RMK AO2 SNB1756E00 SLP157 P0000 T10221083
94908KDBQ DBQ20020228130009902/28/02 13:00:31  5-MIN KDBQ 281900Z 27016KT 10SM OVC034 M02/M08 A2994 1060 63 -700 270/16 RMK AO2
94908KDBQ DBQ20020228130509902/28/02 13:05:31  5-MIN KDBQ 281905Z 28015KT 10SM OVC034 M02/M08 A2994 1060 66 -700 270/15 RMK AO2
94908KDBQ DBQ20020228131009902/28/02 13:10:31  5-MIN KDBQ 281910Z 27017KT 10SM OVC034 M02/M08 A2994 1060 63 -600 260/17 RMK AO2
94908KDBQ DBQ20020228131509902/28/02 13:15:31  5-MIN KDBQ 281915Z 28017KT 10SM OVC034 M02/M08 A2994 1060 63 -700 280/17 RMK AO2
94908KDBQ DBQ20020228132009902/28/02 13:20:31  5-MIN KDBQ 281920Z 27016KT 10SM OVC034 M02/M08 A2994 1060 63 -600 270/16 RMK AO2
94908KDBQ DBQ20020228132509902/28/02 13:25:31  5-MIN KDBQ 281925Z 27016KT 10SM OVC034 M02/M08 A2994 1060 63 -600 270/16 RMK AO2
94908KDBQ DBQ20020228133009902/28/02 13:30:31  5-MIN KDBQ 281930Z 27017KT 10SM OVC036 M02/M08 A2994 1060 60 -600 270/17 RMK AO2
94908KDBQ DBQ20020228133510502/28/02 13:35:31  5-MIN KDBQ 281935Z 26018G24KT 10SM OVC036 M02/M08 A2994 1060 63 -600 260/18G24 RMK AO2
94908KDBQ DBQ20020228134010502/28/02 13:40:31  5-MIN KDBQ 281940Z 27016G24KT 10SM OVC036 M02/M08 A2994 1060 63 -600 270/16G24 RMK AO2
94908KDBQ DBQ20020228134509902/28/02 13:45:31  5-MIN KDBQ 281945Z 27015KT 10SM OVC036 M02/M08 A2994 1060 63 -600 270/15 RMK AO2
94908KDBQ DBQ20020228135011602/28/02 13:50:31  5-MIN KDBQ 281950Z 27014KT 10SM OVC036 M01/M07 A2994 1060 63 -600 270/14 RMK AO2 SLP155 T10111072
94908KDBQ DBQ20020228135511602/28/02 13:55:31  5-MIN KDBQ 281955Z 27015KT 10SM OVC036 M01/M08 A2994 1060 60 -600 270/15 RMK AO2 SLP156 T10111078
94908KDBQ DBQ20020228140009902/28/02 14:00:31  5-MIN KDBQ 282000Z 28017KT 10SM OVC036 M01/M07 A2994 1060 61 -500 280/17 RMK AO2
94908KDBQ DBQ20020228140511202/28/02 14:05:31  5-MIN KDBQ 282005Z 28017G23KT 10SM FEW030 OVC038 M01/M08 A2994 1060 58 -600 280/17G23 RMK AO2
94908KDBQ DBQ20020228141010502/28/02 14:10:31  5-MIN KDBQ 282010Z 27014G23KT 10SM OVC038 M01/M08 A2994 1060 60 -600 270/14G23 RMK AO2
94908KDBQ DBQ20020228141510502/28/02 14:15:31  5-MIN KDBQ 282015Z 28015G21KT 10SM OVC036 M01/M07 A2995 1050 61 -500 280/15G21 RMK AO2
94908KDBQ DBQ20020228142010402/28/02 14:20:31  5-MIN KDBQ 282020Z 26016G21KT 10SM OVC036 00/M07 A2994 1060 58 -400 250/16G21 RMK AO2
94908KDBQ DBQ20020228142509802/28/02 14:25:31  5-MIN KDBQ 282025Z 26015KT 10SM OVC036 00/M07 A2994 1060 58 -400 260/15 RMK AO2
94908KDBQ DBQ20020228143010502/28/02 14:30:31  5-MIN KDBQ 282030Z 27017G23KT 10SM OVC036 M01/M08 A2995 1060 58 -500 270/17G23 RMK AO2
94908KDBQ DBQ20020228143510502/28/02 14:35:31  5-MIN KDBQ 282035Z 27017G23KT 10SM OVC038 M01/M08 A2995 1050 58 -600 270/17G23 RMK AO2
94908KDBQ DBQ20020228144010502/28/02 14:40:31  5-MIN KDBQ 282040Z 28018G21KT 10SM OVC038 M01/M08 A2995 1050 58 -500 280/18G21 RMK AO2
94908KDBQ DBQ20020228144510502/28/02 14:45:31  5-MIN KDBQ 282045Z 28017G22KT 10SM OVC038 M01/M08 A2995 1050 58 -600 280/17G22 RMK AO2
94908KDBQ DBQ20020228145013402/28/02 14:50:31  5-MIN KDBQ 282050Z 27018G22KT 10SM OVC040 M01/M08 A2995 1050 56 -500 270/18G22 RMK AO2 SLP158 60000 T10061083 53012
94908KDBQ DBQ20020228145512802/28/02 14:55:31  5-MIN KDBQ 282055Z 27015KT 10SM OVC040 M01/M09 A2995 1050 55 -600 270/15 RMK AO2 SLP158 60000 T10111089 53000
94908KDBQ DBQ20020228150009802/28/02 15:00:31  5-MIN KDBQ 282100Z 27012KT 10SM OVC040 00/M08 A2995 1050 56 -400 270/12 RMK AO2
94908KDBQ DBQ20020228150510402/28/02 15:05:31  5-MIN KDBQ 282105Z 27017G21KT 10SM OVC040 00/M07 A2995 1050 58 -400 270/17G21 RMK AO2
94908KDBQ DBQ20020228151009902/28/02 15:10:31  5-MIN KDBQ 282110Z 27017KT 10SM OVC040 M01/M08 A2995 1050 58 -500 270/17 RMK AO2
94908KDBQ DBQ20020228151509802/28/02 15:15:31  5-MIN KDBQ 282115Z 27018KT 10SM OVC040 00/M08 A2995 1050 56 -400 270/18 RMK AO2
94908KDBQ DBQ20020228152010502/28/02 15:20:31  5-MIN KDBQ 282120Z 27014G22KT 10SM OVC042 M01/M08 A2996 1040 56 -500 270/14G22 RMK AO2
94908KDBQ DBQ20020228152510502/28/02 15:25:31  5-MIN KDBQ 282125Z 26017G23KT 10SM OVC040 M01/M08 A2996 1040 56 -500 260/17G23 RMK AO2
94908KDBQ DBQ20020228153010502/28/02 15:30:31  5-MIN KDBQ 282130Z 27016G23KT 10SM OVC040 M01/M08 A2996 1040 58 -600 270/16G23 RMK AO2
94908KDBQ DBQ20020228153509902/28/02 15:35:31  5-MIN KDBQ 282135Z 27017KT 10SM OVC040 M01/M08 A2996 1040 58 -600 270/17 RMK AO2
94908KDBQ DBQ20020228154009902/28/02 15:40:31  5-MIN KDBQ 282140Z 28013KT 10SM OVC040 M01/M08 A2996 1040 58 -600 280/13 RMK AO2
94908KDBQ DBQ20020228154510602/28/02 15:45:31  5-MIN KDBQ 282145Z 28016KT 10SM BKN040 OVC048 M01/M08 A2997 1040 58 -600 280/16 RMK AO2
94908KDBQ DBQ20020228155011602/28/02 15:50:31  5-MIN KDBQ 282150Z 27016KT 10SM OVC044 M01/M08 A2997 1040 58 -600 270/16 RMK AO2 SLP164 T10111083
94908KDBQ DBQ20020228155511602/28/02 15:55:31  5-MIN KDBQ 282155Z 27018KT 10SM OVC044 M01/M09 A2997 1030 55 -600 270/18 RMK AO2 SLP165 T10111089
94908KDBQ DBQ20020228160009902/28/02 16:00:31  5-MIN KDBQ 282200Z 28016KT 10SM OVC044 M01/M09 A2997 1030 55 -600 280/16 RMK AO2
94908KDBQ DBQ20020228160509902/28/02 16:05:31  5-MIN KDBQ 282205Z 27014KT 10SM OVC044 M01/M08 A2998 1030 56 -500 270/14 RMK AO2
94908KDBQ DBQ20020228161010502/28/02 16:10:31  5-MIN KDBQ 282210Z 27018G21KT 10SM OVC046 M01/M08 A2998 1020 58 -600 270/18G21 RMK AO2
94908KDBQ DBQ20020228161510502/28/02 16:15:31  5-MIN KDBQ 282215Z 27014G21KT 10SM OVC046 M01/M08 A2998 1020 58 -600 270/14G21 RMK AO2
94908KDBQ DBQ20020228162009902/28/02 16:20:31  5-MIN KDBQ 282220Z 28014KT 10SM OVC044 M01/M08 A2998 1020 58 -600 280/14 RMK AO2
94908KDBQ DBQ20020228162510502/28/02 16:25:31  5-MIN KDBQ 282225Z 29017G21KT 10SM OVC044 M01/M08 A2998 1020 58 -600 280/17G21 RMK AO2
94908KDBQ DBQ20020228163010502/28/02 16:30:31  5-MIN KDBQ 282230Z 29016G21KT 10SM OVC044 M01/M08 A2999 1020 58 -600 290/16G21 RMK AO2
94908KDBQ DBQ20020228163510502/28/02 16:35:31  5-MIN KDBQ 282235Z 28015G23KT 10SM OVC044 M01/M08 A2999 1020 58 -600 280/15G23 RMK AO2
94908KDBQ DBQ20020228164010502/28/02 16:40:31  5-MIN KDBQ 282240Z 29013G23KT 10SM OVC042 M01/M08 A2999 1010 58 -600 290/13G23 RMK AO2
94908KDBQ DBQ20020228164509902/28/02 16:45:31  5-MIN KDBQ 282245Z 28013KT 10SM OVC042 M01/M08 A3000 1010 60 -600 280/13 RMK AO2
94908KDBQ DBQ20020228165012302/28/02 16:50:31  5-MIN KDBQ 282250Z 28015KT 10SM BKN038 OVC045 M01/M08 A3000 1010 60 -600 280/15 RMK AO2 SLP175 T10111078
94908KDBQ DBQ20020228165511602/28/02 16:55:31  5-MIN KDBQ 282255Z 29014KT 10SM BKN040 M02/M08 A3000 1010 63 -700 290/14 RMK AO2 SLP176 T10171078
94908KDBQ DBQ20020228170009902/28/02 17:00:31  5-MIN KDBQ 282300Z 29013KT 10SM BKN040 M02/M08 A3000 1000 63 -700 290/13 RMK AO2
94908KDBQ DBQ20020228170511202/28/02 17:05:31  5-MIN KDBQ 282305Z 29014G20KT 10SM BKN036 BKN043 M02/M08 A3001 1000 63 -700 290/14G20 RMK AO2
94908KDBQ DBQ20020228171010502/28/02 17:10:31  5-MIN KDBQ 282310Z 30016G20KT 10SM BKN036 M02/M08 A3001 1000 60 -700 300/16G20 RMK AO2
94908KDBQ DBQ20020228171509802/28/02 17:15:31  5-MIN KDBQ 282315Z 29017KT 10SM SCT036 M02/M08 A3001 990 60 -700 280/17 RMK AO2
94908KDBQ DBQ20020228172009802/28/02 17:20:31  5-MIN KDBQ 282320Z 29016KT 10SM FEW036 M02/M08 A3001 990 60 -700 290/16 RMK AO2
94908KDBQ DBQ20020228172509802/28/02 17:25:31  5-MIN KDBQ 282325Z 30015KT 10SM FEW034 M02/M08 A3002 990 63 -800 300/15 RMK AO2
94908KDBQ DBQ20020228173009802/28/02 17:30:31  5-MIN KDBQ 282330Z 29014KT 10SM FEW034 M02/M08 A3002 990 63 -800 290/14 RMK AO2
94908KDBQ DBQ20020228173509502/28/02 17:35:31  5-MIN KDBQ 282335Z 30013KT 10SM CLR M02/M08 A3002 990 63 -800 300/13 RMK AO2
94908KDBQ DBQ20020228174009502/28/02 17:40:31  5-MIN KDBQ 282340Z 29014KT 10SM CLR M02/M08 A3002 990 63 -800 290/14 RMK AO2
94908KDBQ DBQ20020228174509502/28/02 17:45:31  5-MIN KDBQ 282345Z 29012KT 10SM CLR M03/M08 A3002 980 66 -900 290/12 RMK AO2
94908KDBQ DBQ20020228175013602/28/02 17:50:31  5-MIN KDBQ 282350Z 30014KT 10SM CLR M03/M08 A3002 980 66 -900 300/14 RMK AO2 SLP185 60000 T10281083 10000 21028 53000
94908KDBQ DBQ20020228175513602/28/02 17:55:31  5-MIN KDBQ 282355Z 30011KT 10SM CLR M03/M08 A3003 980 66 -900 300/11 RMK AO2 SLP185 60000 T10281083 10000 21028 53026
94908KDBQ DBQ20020228180009502/28/02 18:00:31  5-MIN KDBQ 010000Z 30013KT 10SM CLR M03/M09 A3003 980 63 -900 300/13 RMK AO2
94908KDBQ DBQ20020228180509502/28/02 18:05:31  5-MIN KDBQ 010005Z 29011KT 10SM CLR M03/M09 A3003 980 63 -900 290/11 RMK AO2
94908KDBQ DBQ20020228181009502/28/02 18:10:31  5-MIN KDBQ 010010Z 30011KT 10SM CLR M03/M09 A3003 980 63 -900 300/11 RMK AO2
94908KDBQ DBQ20020228181509502/28/02 18:15:31  5-MIN KDBQ 010015Z 30009KT 10SM CLR M03/M09 A3003 980 63 -900 300/09 RMK AO2
94908KDBQ DBQ20020228182009502/28/02 18:20:31  5-MIN KDBQ 010020Z 30010KT 10SM CLR M03/M08 A3003 970 66 -900 300/10 RMK AO2
94908KDBQ DBQ20020228182509502/28/02 18:25:31  5-MIN KDBQ 010025Z 31010KT 10SM CLR M03/M08 A3004 970 66 -900 300/10 RMK AO2
94908KDBQ DBQ20020228183009502/28/02 18:30:31  5-MIN KDBQ 010030Z 31010KT 10SM CLR M03/M09 A3004 970 63 -900 310/10 RMK AO2
94908KDBQ DBQ20020228183509502/28/02 18:35:31  5-MIN KDBQ 010035Z 30009KT 10SM CLR M03/M09 A3004 970 63 -900 300/09 RMK AO2
94908KDBQ DBQ20020228184009502/28/02 18:40:31  5-MIN KDBQ 010040Z 30009KT 10SM CLR M03/M09 A3004 970 63 -900 300/09 RMK AO2
94908KDBQ DBQ20020228184509502/28/02 18:45:31  5-MIN KDBQ 010045Z 30009KT 10SM CLR M03/M09 A3004 970 63 -900 300/09 RMK AO2
94908KDBQ DBQ20020228185011302/28/02 18:50:31  5-MIN KDBQ 010050Z 30008KT 10SM CLR M03/M09 A3004 970 65 -1000 300/08 RMK AO2 SLP190 T10331089
94908KDBQ DBQ20020228185511302/28/02 18:55:31  5-MIN KDBQ 010055Z 30006KT 10SM CLR M03/M09 A3004 970 65 -1000 300/06 RMK AO2 SLP189 T10331089
94908KDBQ DBQ20020228190009602/28/02 19:00:31  5-MIN KDBQ 010100Z 30007KT 10SM CLR M03/M09 A3004 970 65 -1000 300/07 RMK AO2
94908KDBQ DBQ20020228190509902/28/02 19:05:31  5-MIN KDBQ 010105Z 30007KT 10SM FEW120 M03/M09 A3004 970 65 -1000 300/07 RMK AO2
94908KDBQ DBQ20020228191009902/28/02 19:10:31  5-MIN KDBQ 010110Z 30006KT 10SM FEW120 M03/M09 A3004 970 65 -1000 300/06 RMK AO2
94908KDBQ DBQ20020228191509902/28/02 19:15:31  5-MIN KDBQ 010115Z 29006KT 10SM FEW120 M03/M09 A3005 960 65 -1000 290/06 RMK AO2
94908KDBQ DBQ20020228192009902/28/02 19:20:31  5-MIN KDBQ 010120Z 29006KT 10SM SCT110 M03/M09 A3005 960 65 -1000 290/06 RMK AO2
94908KDBQ DBQ20020228192510902/28/02 19:25:31  5-MIN KDBQ 010125Z AUTO 29007KT 10SM BKN110 M03/M08 A3005 960 68 -1000 290/07 RMK AO2 TSNO
94908KDBQ DBQ20020228193010902/28/02 19:30:31  5-MIN KDBQ 010130Z AUTO 30006KT 10SM BKN110 M04/M08 A3005 960 71 -1000 300/06 RMK AO2 TSNO
94908KDBQ DBQ20020228193510902/28/02 19:35:31  5-MIN KDBQ 010135Z AUTO 29006KT 10SM BKN110 M04/M08 A3005 960 71 -1000 290/06 RMK AO2 TSNO
94908KDBQ DBQ20020228194010902/28/02 19:40:31  5-MIN KDBQ 010140Z AUTO 29006KT 10SM BKN110 M04/M08 A3006 950 71 -1000 290/06 RMK AO2 TSNO
94908KDBQ DBQ20020228194510902/28/02 19:45:31  5-MIN KDBQ 010145Z AUTO 29005KT 10SM BKN110 M04/M09 A3006 950 68 -1100 290/05 RMK AO2 TSNO
94908KDBQ DBQ20020228195012602/28/02 19:50:31  5-MIN KDBQ 010150Z AUTO 29005KT 10SM BKN110 M04/M08 A3006 950 71 -1100 290/05 RMK AO2 SLP198 T10391083 TSNO
94908KDBQ DBQ20020228195512602/28/02 19:55:31  5-MIN KDBQ 010155Z AUTO 29005KT 10SM BKN110 M04/M08 A3007 940 74 -1100 290/05 RMK AO2 SLP199 T10441083 TSNO
94908KDBQ DBQ20020228200010902/28/02 20:00:31  5-MIN KDBQ 010200Z AUTO 29005KT 10SM BKN110 M04/M08 A3007 940 74 -1100 290/05 RMK AO2 TSNO
94908KDBQ DBQ20020228200510902/28/02 20:05:31  5-MIN KDBQ 010205Z AUTO 29005KT 10SM BKN110 M04/M08 A3007 940 74 -1100 290/05 RMK AO2 TSNO
94908KDBQ DBQ20020228201010902/28/02 20:10:31  5-MIN KDBQ 010210Z AUTO 29005KT 10SM BKN110 M04/M08 A3007 940 74 -1100 290/05 RMK AO2 TSNO
94908KDBQ DBQ20020228201510902/28/02 20:15:31  5-MIN KDBQ 010215Z AUTO 30005KT 10SM BKN110 M04/M08 A3007 940 74 -1100 300/05 RMK AO2 TSNO
94908KDBQ DBQ20020228202010902/28/02 20:20:31  5-MIN KDBQ 010220Z AUTO 30005KT 10SM OVC110 M04/M09 A3007 940 71 -1100 300/05 RMK AO2 TSNO
94908KDBQ DBQ20020228202510902/28/02 20:25:31  5-MIN KDBQ 010225Z AUTO 30005KT 10SM BKN110 M05/M09 A3007 940 74 -1200 290/05 RMK AO2 TSNO
94908KDBQ DBQ20020228203010902/28/02 20:30:31  5-MIN KDBQ 010230Z AUTO 30005KT 10SM BKN100 M04/M09 A3007 940 71 -1100 300/05 RMK AO2 TSNO
94908KDBQ DBQ20020228203510902/28/02 20:35:31  5-MIN KDBQ 010235Z AUTO 30005KT 10SM SCT100 M04/M09 A3007 940 71 -1100 300/05 RMK AO2 TSNO
94908KDBQ DBQ20020228204010902/28/02 20:40:31  5-MIN KDBQ 010240Z AUTO 30006KT 10SM FEW100 M04/M09 A3007 940 71 -1100 300/06 RMK AO2 TSNO
94908KDBQ DBQ20020228204510902/28/02 20:45:31  5-MIN KDBQ 010245Z AUTO 30006KT 10SM FEW100 M04/M09 A3008 930 71 -1100 290/06 RMK AO2 TSNO
94908KDBQ DBQ20020228205012902/28/02 20:50:31  5-MIN KDBQ 010250Z AUTO 30005KT 10SM CLR M05/M09 A3008 930 74 -1200 300/05 RMK AO2 SLP201 T10501089 53026 TSNO
94908KDBQ DBQ20020228205512902/28/02 20:55:31  5-MIN KDBQ 010255Z AUTO 30005KT 10SM CLR M05/M09 A3008 930 71 -1200 300/05 RMK AO2 SLP202 T10501094 53018 TSNO
94908KDBQ DBQ20020228210010602/28/02 21:00:31  5-MIN KDBQ 010300Z AUTO 31005KT 10SM CLR M06/M09 A3008 930 74 -1300 300/05 RMK AO2 TSNO
94908KDBQ DBQ20020228210510602/28/02 21:05:31  5-MIN KDBQ 010305Z AUTO 31005KT 10SM CLR M05/M09 A3009 930 71 -1200 300/05 RMK AO2 TSNO
94908KDBQ DBQ20020228211010602/28/02 21:10:31  5-MIN KDBQ 010310Z AUTO 30004KT 10SM CLR M05/M09 A3009 930 74 -1200 300/04 RMK AO2 TSNO
94908KDBQ DBQ20020228211510602/28/02 21:15:31  5-MIN KDBQ 010315Z AUTO 30005KT 10SM CLR M05/M09 A3009 920 71 -1200 300/05 RMK AO2 TSNO
94908KDBQ DBQ20020228212010602/28/02 21:20:31  5-MIN KDBQ 010320Z AUTO 30004KT 10SM CLR M05/M09 A3009 920 71 -1200 300/04 RMK AO2 TSNO
94908KDBQ DBQ20020228212510602/28/02 21:25:31  5-MIN KDBQ 010325Z AUTO 30004KT 10SM CLR M05/M09 A3009 920 71 -1200 300/04 RMK AO2 TSNO
94908KDBQ DBQ20020228213010902/28/02 21:30:31  5-MIN KDBQ 010330Z AUTO 30005KT 10SM FEW120 M05/M09 A3009 920 74 -1200 300/05 RMK AO2 TSNO
94908KDBQ DBQ20020228213510902/28/02 21:35:31  5-MIN KDBQ 010335Z AUTO 30006KT 10SM FEW120 M05/M09 A3010 910 74 -1200 300/06 RMK AO2 TSNO
94908KDBQ DBQ20020228214010902/28/02 21:40:31  5-MIN KDBQ 010340Z AUTO 30006KT 10SM FEW120 M05/M09 A3010 910 74 -1200 300/06 RMK AO2 TSNO
94908KDBQ DBQ20020228214510902/28/02 21:45:31  5-MIN KDBQ 010345Z AUTO 30006KT 10SM FEW120 M05/M09 A3010 910 74 -1200 300/06 RMK AO2 TSNO
94908KDBQ DBQ20020228215012602/28/02 21:50:31  5-MIN KDBQ 010350Z AUTO 30006KT 10SM FEW120 M05/M09 A3010 910 71 -1200 300/06 RMK AO2 SLP209 T10501094 TSNO
94908KDBQ DBQ20020228215512602/28/02 21:55:31  5-MIN KDBQ 010355Z AUTO 30006KT 10SM FEW120 M05/M09 A3010 910 71 -1200 300/06 RMK AO2 SLP209 T10501094 TSNO
94908KDBQ DBQ20020228220010602/28/02 22:00:31  5-MIN KDBQ 010400Z AUTO 30005KT 10SM CLR M06/M09 A3010 910 74 -1300 300/05 RMK AO2 TSNO
94908KDBQ DBQ20020228220510602/28/02 22:05:31  5-MIN KDBQ 010405Z AUTO 29005KT 10SM CLR M06/M09 A3010 910 74 -1300 290/05 RMK AO2 TSNO
94908KDBQ DBQ20020228221010602/28/02 22:10:31  5-MIN KDBQ 010410Z AUTO 29005KT 10SM CLR M06/M09 A3010 910 74 -1300 290/05 RMK AO2 TSNO
94908KDBQ DBQ20020228221510602/28/02 22:15:31  5-MIN KDBQ 010415Z AUTO 29005KT 10SM CLR M06/M09 A3011 910 74 -1300 290/05 RMK AO2 TSNO
94908KDBQ DBQ20020228222010602/28/02 22:20:31  5-MIN KDBQ 010420Z AUTO 29005KT 10SM CLR M06/M09 A3011 910 74 -1300 290/05 RMK AO2 TSNO
94908KDBQ DBQ20020228222510602/28/02 22:25:31  5-MIN KDBQ 010425Z AUTO 29005KT 10SM CLR M06/M10 A3011 900 74 -1400 290/05 RMK AO2 TSNO
94908KDBQ DBQ20020228223010602/28/02 22:30:31  5-MIN KDBQ 010430Z AUTO 29005KT 10SM CLR M06/M09 A3011 910 77 -1400 290/05 RMK AO2 TSNO
94908KDBQ DBQ20020228223510602/28/02 22:35:31  5-MIN KDBQ 010435Z AUTO 29005KT 10SM CLR M06/M09 A3011 910 77 -1400 290/05 RMK AO2 TSNO
94908KDBQ DBQ20020228224010602/28/02 22:40:31  5-MIN KDBQ 010440Z AUTO 29005KT 10SM CLR M06/M09 A3011 900 77 -1400 290/05 RMK AO2 TSNO
94908KDBQ DBQ20020228224510602/28/02 22:45:31  5-MIN KDBQ 010445Z AUTO 29005KT 10SM CLR M06/M09 A3011 900 77 -1400 290/05 RMK AO2 TSNO
94908KDBQ DBQ20020228225012302/28/02 22:50:31  5-MIN KDBQ 010450Z AUTO 29005KT 10SM CLR M07/M10 A3012 900 77 -1500 290/05 RMK AO2 SLP215 T10671100 TSNO
94908KDBQ DBQ20020228225512302/28/02 22:55:31  5-MIN KDBQ 010455Z AUTO 29005KT 10SM CLR M07/M10 A3012 890 77 -1500 290/05 RMK AO2 SLP216 T10671100 TSNO
94908KDBQ DBQ20020228230010602/28/02 23:00:31  5-MIN KDBQ 010500Z AUTO 29005KT 10SM CLR M07/M10 A3013 890 77 -1500 290/05 RMK AO2 TSNO
94908KDBQ DBQ20020228230510602/28/02 23:05:31  5-MIN KDBQ 010505Z AUTO 29005KT 10SM CLR M07/M10 A3013 890 77 -1500 290/05 RMK AO2 TSNO
94908KDBQ DBQ20020228231010602/28/02 23:10:31  5-MIN KDBQ 010510Z AUTO 30005KT 10SM CLR M07/M10 A3012 890 77 -1500 290/05 RMK AO2 TSNO
94908KDBQ DBQ20020228231510602/28/02 23:15:31  5-MIN KDBQ 010515Z AUTO 30006KT 10SM CLR M07/M10 A3013 890 77 -1500 300/06 RMK AO2 TSNO
94908KDBQ DBQ20020228232010602/28/02 23:20:31  5-MIN KDBQ 010520Z AUTO 30007KT 10SM CLR M06/M11 A3013 890 68 -1400 300/07 RMK AO2 TSNO
94908KDBQ DBQ20020228232510602/28/02 23:25:31  5-MIN KDBQ 010525Z AUTO 29007KT 10SM CLR M06/M10 A3013 890 74 -1400 290/07 RMK AO2 TSNO
94908KDBQ DBQ20020228233010602/28/02 23:30:31  5-MIN KDBQ 010530Z AUTO 29007KT 10SM CLR M06/M10 A3013 880 74 -1400 290/07 RMK AO2 TSNO
94908KDBQ DBQ20020228233510602/28/02 23:35:31  5-MIN KDBQ 010535Z AUTO 29007KT 10SM CLR M06/M10 A3014 880 74 -1400 290/07 RMK AO2 TSNO
94908KDBQ DBQ20020228234010602/28/02 23:40:31  5-MIN KDBQ 010540Z AUTO 28007KT 10SM CLR M06/M10 A3014 880 74 -1400 280/07 RMK AO2 TSNO
94908KDBQ DBQ20020228234510602/28/02 23:45:31  5-MIN KDBQ 010545Z AUTO 28007KT 10SM CLR M06/M10 A3014 880 74 -1400 280/07 RMK AO2 TSNO
94908KDBQ DBQ20020228235015102/28/02 23:50:31  5-MIN KDBQ 010550Z AUTO 29007KT 10SM CLR M06/M10 A3014 870 74 -1400 290/07 RMK AO2 SLP223 T10611100 11028 21067 400001111 53018 TSNO
94908KDBQ DBQ20020228235515102/28/02 23:55:31  5-MIN KDBQ 010555Z AUTO 30007KT 10SM CLR M07/M10 A3014 870 77 -1500 290/07 RMK AO2 SLP223 T10671100 11028 21067 400001111 53020 TSNO
