94908KDBQ DBQ20050401000010004/01/05 00:00:49  5-MIN KDBQ 010600Z AUTO 31004KT 10SM CLR 04/01 A3009 920 76 0 310/04 RMK AO2 TSNO
94908KDBQ DBQ20050401000510004/01/05 00:05:31  5-MIN KDBQ 010605Z AUTO 00000KT 10SM CLR 04/01 A3009 920 76 0 000/00 RMK AO2 TSNO
94908KDBQ DBQ20050401001010004/01/05 00:10:31  5-MIN KDBQ 010610Z AUTO 00000KT 10SM CLR 04/01 A3009 920 76 0 000/00 RMK AO2 TSNO
94908KDBQ DBQ20050401001510004/01/05 00:15:31  5-MIN KDBQ 010615Z AUTO 00000KT 10SM CLR 04/01 A3009 920 76 0 000/00 RMK AO2 TSNO
94908KDBQ DBQ20050401002010304/01/05 00:20:31  5-MIN KDBQ 010620Z AUTO 00000KT 10SM CLR 04/01 A3009 920 79 -100 000/00 RMK AO2 TSNO
94908KDBQ DBQ20050401002510004/01/05 00:25:31  5-MIN KDBQ 010625Z AUTO 00000KT 10SM CLR 05/01 A3009 920 73 0 000/00 RMK AO2 TSNO
94908KDBQ DBQ20050401003010004/01/05 00:30:31  5-MIN KDBQ 010630Z AUTO 00000KT 10SM CLR 05/01 A3009 920 73 0 000/00 RMK AO2 TSNO
94908KDBQ DBQ20050401003510004/01/05 00:35:31  5-MIN KDBQ 010635Z AUTO 00000KT 10SM CLR 05/01 A3009 920 73 0 000/00 RMK AO2 TSNO
94908KDBQ DBQ20050401004010004/01/05 00:40:31  5-MIN KDBQ 010640Z AUTO 32003KT 10SM CLR 05/01 A3009 920 73 0 320/03 RMK AO2 TSNO
94908KDBQ DBQ20050401004510004/01/05 00:45:31  5-MIN KDBQ 010645Z AUTO 32003KT 10SM CLR 04/01 A3009 920 76 0 320/03 RMK AO2 TSNO
94908KDBQ DBQ20050401005011704/01/05 00:50:31  5-MIN KDBQ 010650Z AUTO 00000KT 10SM CLR 04/01 A3009 920 76 0 000/00 RMK AO2 SLP195 T00440006 TSNO
94908KDBQ DBQ20050401005511704/01/05 00:55:31  5-MIN KDBQ 010655Z AUTO 00000KT 10SM CLR 05/01 A3009 920 73 0 000/00 RMK AO2 SLP195 T00500006 TSNO
94908KDBQ DBQ20050401010010004/01/05 01:00:31  5-MIN KDBQ 010700Z AUTO 00000KT 10SM CLR 05/01 A3009 920 73 0 000/00 RMK AO2 TSNO
94908KDBQ DBQ20050401010510004/01/05 01:05:31  5-MIN KDBQ 010705Z AUTO 00000KT 10SM CLR 05/01 A3009 920 73 0 000/00 RMK AO2 TSNO
94908KDBQ DBQ20050401011010004/01/05 01:10:31  5-MIN KDBQ 010710Z AUTO 00000KT 10SM CLR 05/01 A3009 920 73 0 000/00 RMK AO2 TSNO
94908KDBQ DBQ20050401011510004/01/05 01:15:31  5-MIN KDBQ 010715Z AUTO 00000KT 10SM CLR 05/01 A3009 920 73 0 000/00 RMK AO2 TSNO
94908KDBQ DBQ20050401012010004/01/05 01:20:31  5-MIN KDBQ 010720Z AUTO 00000KT 10SM CLR 06/01 A3010 920 70 0 000/00 RMK AO2 TSNO
94908KDBQ DBQ20050401012510204/01/05 01:25:31  5-MIN KDBQ 010725Z AUTO 00000KT 10SM CLR 06/01 A3010 920 67 100 000/00 RMK AO2 TSNO
94908KDBQ DBQ20050401013010004/01/05 01:30:31  5-MIN KDBQ 010730Z AUTO 00000KT 10SM CLR 06/01 A3009 920 70 0 000/00 RMK AO2 TSNO
94908KDBQ DBQ20050401013510204/01/05 01:35:31  5-MIN KDBQ 010735Z AUTO 00000KT 10SM CLR 06/01 A3009 920 67 100 000/00 RMK AO2 TSNO
94908KDBQ DBQ20050401014010204/01/05 01:40:31  5-MIN KDBQ 010740Z AUTO 00000KT 10SM CLR 07/01 A3009 920 65 200 000/00 RMK AO2 TSNO
94908KDBQ DBQ20050401014510004/01/05 01:45:31  5-MIN KDBQ 010745Z AUTO 00000KT 10SM CLR 06/01 A3009 920 70 0 000/00 RMK AO2 TSNO
94908KDBQ DBQ20050401015011704/01/05 01:50:31  5-MIN KDBQ 010750Z AUTO 00000KT 10SM CLR 05/01 A3009 930 73 0 000/00 RMK AO2 SLP192 T00500006 TSNO
94908KDBQ DBQ20050401015511904/01/05 01:55:31  5-MIN KDBQ 010755Z AUTO 00000KT 10SM CLR 06/01 A3008 930 70 100 000/00 RMK AO2 SLP190 T00560006 TSNO
94908KDBQ DBQ20050401020010204/01/05 02:00:31  5-MIN KDBQ 010800Z AUTO 00000KT 10SM CLR 06/00 A3008 930 67 100 000/00 RMK AO2 TSNO
94908KDBQ DBQ20050401020510204/01/05 02:05:31  5-MIN KDBQ 010805Z AUTO 00000KT 10SM CLR 06/00 A3008 930 67 100 000/00 RMK AO2 TSNO
94908KDBQ DBQ20050401021010204/01/05 02:10:31  5-MIN KDBQ 010810Z AUTO 00000KT 10SM CLR 06/00 A3008 930 65 100 000/00 RMK AO2 TSNO
94908KDBQ DBQ20050401021510204/01/05 02:15:31  5-MIN KDBQ 010815Z AUTO 00000KT 10SM CLR 06/00 A3008 940 65 100 000/00 RMK AO2 TSNO
94908KDBQ DBQ20050401022010204/01/05 02:20:31  5-MIN KDBQ 010820Z AUTO 00000KT 10SM CLR 06/00 A3008 930 67 100 000/00 RMK AO2 TSNO
94908KDBQ DBQ20050401022510304/01/05 02:25:31  5-MIN KDBQ 010825Z AUTO 00000KT 10SM CLR 04/00 A3008 930 76 -100 000/00 RMK AO2 TSNO
94908KDBQ DBQ20050401023010004/01/05 02:30:31  5-MIN KDBQ 010830Z AUTO 00000KT 10SM CLR 04/00 A3008 930 73 0 000/00 RMK AO2 TSNO
94908KDBQ DBQ20050401023510004/01/05 02:35:31  5-MIN KDBQ 010835Z AUTO 00000KT 10SM CLR 04/00 A3008 930 73 0 000/00 RMK AO2 TSNO
94908KDBQ DBQ20050401024010304/01/05 02:40:31  5-MIN KDBQ 010840Z AUTO 00000KT 10SM CLR 04/00 A3008 930 76 -100 000/00 RMK AO2 TSNO
94908KDBQ DBQ20050401024510504/01/05 02:45:31  5-MIN KDBQ 010845Z AUTO 36003KT 10SM CLR 04/M01 A3008  930 73 -100 360/03 RMK AO2 TSNO
94908KDBQ DBQ20050401025012804/01/05 02:50:31  5-MIN KDBQ 010850Z AUTO 01003KT 10SM CLR 04/M01 A3009  930 73 -100 360/03 RMK AO2 SLP193 T00391006 53010 TSNO
94908KDBQ DBQ20050401025512804/01/05 02:55:31  5-MIN KDBQ 010855Z AUTO 00000KT 10SM CLR 03/M01 A3009  920 79 -200 000/00 RMK AO2 SLP193 T00281006 55003 TSNO
94908KDBQ DBQ20050401030010504/01/05 03:00:31  5-MIN KDBQ 010900Z AUTO 00000KT 10SM CLR 03/M01 A3009  920 76 -200 000/00 RMK AO2 TSNO
94908KDBQ DBQ20050401030510504/01/05 03:05:31  5-MIN KDBQ 010905Z AUTO 00000KT 10SM CLR 04/M01 A3009  920 73 -100 000/00 RMK AO2 TSNO
94908KDBQ DBQ20050401031010504/01/05 03:10:31  5-MIN KDBQ 010910Z AUTO 00000KT 10SM CLR 04/M01 A3009  920 73 -100 000/00 RMK AO2 TSNO
94908KDBQ DBQ20050401031510204/01/05 03:15:31  5-MIN KDBQ 010915Z AUTO 00000KT 10SM CLR 04/M01 A3009  920 70 0 000/00 RMK AO2 TSNO
94908KDBQ DBQ20050401032010004/01/05 03:20:31  5-MIN KDBQ 010920Z AUTO 01003KT 10SM CLR 05/00 A3009 920 70 0 010/03 RMK AO2 TSNO
94908KDBQ DBQ20050401032510004/01/05 03:25:31  5-MIN KDBQ 010925Z AUTO 01004KT 10SM CLR 05/00 A3009 920 70 0 010/04 RMK AO2 TSNO
94908KDBQ DBQ20050401033010204/01/05 03:30:31  5-MIN KDBQ 010930Z AUTO 01003KT 10SM CLR 04/M01 A3009  920 70 0 010/03 RMK AO2 TSNO
94908KDBQ DBQ20050401033510504/01/05 03:35:31  5-MIN KDBQ 010935Z AUTO 01004KT 10SM CLR 04/M01 A3009  920 73 -100 010/04 RMK AO2 TSNO
94908KDBQ DBQ20050401034010504/01/05 03:40:31  5-MIN KDBQ 010940Z AUTO 01004KT 10SM CLR 04/M01 A3009  920 73 -100 010/04 RMK AO2 TSNO
94908KDBQ DBQ20050401034510504/01/05 03:45:31  5-MIN KDBQ 010945Z AUTO 01005KT 10SM CLR 03/M01 A3009  920 76 -200 010/05 RMK AO2 TSNO
94908KDBQ DBQ20050401035012204/01/05 03:50:31  5-MIN KDBQ 010950Z AUTO 01005KT 10SM CLR 03/M01 A3009  920 79 -200 010/05 RMK AO2 SLP194 T00281006 TSNO
94908KDBQ DBQ20050401035512204/01/05 03:55:31  5-MIN KDBQ 010955Z AUTO 02004KT 10SM CLR 03/M01 A3009  920 76 -200 020/04 RMK AO2 SLP195 T00331006 TSNO
94908KDBQ DBQ20050401040010504/01/05 04:00:31  5-MIN KDBQ 011000Z AUTO 02004KT 10SM CLR 03/M01 A3009  920 76 -200 010/04 RMK AO2 TSNO
94908KDBQ DBQ20050401040510304/01/05 04:05:31  5-MIN KDBQ 011005Z AUTO 01003KT 10SM CLR 04/00 A3009 920 76 -100 010/03 RMK AO2 TSNO
94908KDBQ DBQ20050401041010304/01/05 04:10:31  5-MIN KDBQ 011010Z AUTO 36004KT 10SM CLR 04/00 A3009 920 76 -100 360/04 RMK AO2 TSNO
94908KDBQ DBQ20050401041510304/01/05 04:15:31  5-MIN KDBQ 011015Z AUTO 36005KT 10SM CLR 04/00 A3009 920 76 -100 360/05 RMK AO2 TSNO
94908KDBQ DBQ20050401042010604/01/05 04:20:31  5-MIN KDBQ 011020Z AUTO 01005KT 10SM FEW060 04/00 A3009 920 76 -100 010/05 RMK AO2 TSNO
94908KDBQ DBQ20050401042510304/01/05 04:25:31  5-MIN KDBQ 011025Z AUTO 02005KT 10SM SCT060 04/00 A3009 920 73 0 020/05 RMK AO2 TSNO
94908KDBQ DBQ20050401043010604/01/05 04:30:31  5-MIN KDBQ 011030Z AUTO 02005KT 10SM SCT060 04/00 A3009 920 76 -100 020/05 RMK AO2 TSNO
94908KDBQ DBQ20050401043510604/01/05 04:35:31  5-MIN KDBQ 011035Z AUTO 02005KT 10SM SCT060 04/00 A3009 920 76 -100 020/05 RMK AO2 TSNO
94908KDBQ DBQ20050401044010604/01/05 04:40:31  5-MIN KDBQ 011040Z AUTO 02005KT 10SM FEW060 04/00 A3009 920 76 -100 020/05 RMK AO2 TSNO
94908KDBQ DBQ20050401044510604/01/05 04:45:31  5-MIN KDBQ 011045Z AUTO 03004KT 10SM FEW060 04/00 A3010 920 76 -100 030/04 RMK AO2 TSNO
94908KDBQ DBQ20050401045012304/01/05 04:50:31  5-MIN KDBQ 011050Z AUTO 02005KT 10SM FEW060 04/00 A3010 910 76 -100 020/05 RMK AO2 SLP197 T00390000 TSNO
94908KDBQ DBQ20050401045512204/01/05 04:55:31  5-MIN KDBQ 011055Z AUTO 02006KT 10SM CLR 04/M01 A3010  910 73 -100 020/06 RMK AO2 SLP198 T00391006 TSNO
94908KDBQ DBQ20050401050010504/01/05 05:00:31  5-MIN KDBQ 011100Z AUTO 01006KT 10SM CLR 04/M01 A3010  910 73 -100 010/06 RMK AO2 TSNO
94908KDBQ DBQ20050401050510504/01/05 05:05:31  5-MIN KDBQ 011105Z AUTO 01006KT 10SM CLR 03/M01 A3010  910 76 -200 010/06 RMK AO2 TSNO
94908KDBQ DBQ20050401051010504/01/05 05:10:31  5-MIN KDBQ 011110Z AUTO 36006KT 10SM CLR 04/M01 A3010  910 73 -100 360/06 RMK AO2 TSNO
94908KDBQ DBQ20050401051510504/01/05 05:15:31  5-MIN KDBQ 011115Z AUTO 36006KT 10SM CLR 04/M01 A3010  910 73 -100 360/06 RMK AO2 TSNO
94908KDBQ DBQ20050401052010504/01/05 05:20:31  5-MIN KDBQ 011120Z AUTO 01007KT 10SM CLR 03/M01 A3010  910 76 -200 360/07 RMK AO2 TSNO
94908KDBQ DBQ20050401052510504/01/05 05:25:31  5-MIN KDBQ 011125Z AUTO 01006KT 10SM CLR 03/M01 A3010  910 76 -200 010/06 RMK AO2 TSNO
94908KDBQ DBQ20050401053010504/01/05 05:30:31  5-MIN KDBQ 011130Z AUTO 36006KT 10SM CLR 03/M01 A3010  910 79 -300 360/06 RMK AO2 TSNO
94908KDBQ DBQ20050401053510504/01/05 05:35:31  5-MIN KDBQ 011135Z AUTO 36006KT 10SM CLR 03/M01 A3010  910 75 -300 360/06 RMK AO2 TSNO
94908KDBQ DBQ20050401054010504/01/05 05:40:31  5-MIN KDBQ 011140Z AUTO 36006KT 10SM CLR 03/M01 A3011  910 72 -200 360/06 RMK AO2 TSNO
94908KDBQ DBQ20050401054510504/01/05 05:45:31  5-MIN KDBQ 011145Z AUTO 36006KT 10SM CLR 03/M01 A3011  910 72 -200 350/06 RMK AO2 TSNO
94908KDBQ DBQ20050401055014004/01/05 05:50:31  5-MIN KDBQ 011150Z AUTO 35005KT 10SM CLR 03/M01 A3011  900 72 -200 350/05 RMK AO2 SLP202 T00331011 10067 20028 55003 TSNO
94908KDBQ DBQ20050401055512904/01/05 05:55:31  5-MIN KDBQ 011155Z 35005KT 10SM CLR 03/M01 A3011 900 72 -200 350/05 RMK AO2 SLP203 T00331011 10067 20028 53008
94908KDBQ DBQ20050401060009404/01/05 06:00:31  5-MIN KDBQ 011200Z 35005KT 10SM CLR 03/M01 A3011 900 72 -200 350/05 RMK AO2
94908KDBQ DBQ20050401060509404/01/05 06:05:31  5-MIN KDBQ 011205Z 35004KT 10SM CLR 03/M01 A3012 900 75 -300 350/04 RMK AO2
94908KDBQ DBQ20050401061009404/01/05 06:10:31  5-MIN KDBQ 011210Z 35003KT 10SM CLR 03/M01 A3012 900 75 -300 350/03 RMK AO2
94908KDBQ DBQ20050401061509404/01/05 06:15:31  5-MIN KDBQ 011215Z 36003KT 10SM CLR 02/M02 A3012 900 75 -300 360/03 RMK AO2
94908KDBQ DBQ20050401062009404/01/05 06:20:31  5-MIN KDBQ 011220Z 00000KT 10SM CLR 02/M02 A3012 900 75 -400 000/00 RMK AO2
94908KDBQ DBQ20050401062509404/01/05 06:25:31  5-MIN KDBQ 011225Z 35003KT 10SM CLR 03/M01 A3012 900 75 -300 350/03 RMK AO2
94908KDBQ DBQ20050401063009404/01/05 06:30:31  5-MIN KDBQ 011230Z 36004KT 10SM CLR 03/M01 A3012 900 75 -300 360/04 RMK AO2
94908KDBQ DBQ20050401063509404/01/05 06:35:31  5-MIN KDBQ 011235Z 36003KT 10SM CLR 03/M01 A3012 900 75 -300 360/03 RMK AO2
94908KDBQ DBQ20050401064009404/01/05 06:40:31  5-MIN KDBQ 011240Z 01003KT 10SM CLR 03/M01 A3012 900 76 -200 010/03 RMK AO2
94908KDBQ DBQ20050401064509404/01/05 06:45:31  5-MIN KDBQ 011245Z 00000KT 10SM CLR 04/M01 A3012 900 73 -100 000/00 RMK AO2
94908KDBQ DBQ20050401065011104/01/05 06:50:31  5-MIN KDBQ 011250Z 00000KT 10SM CLR 04/M01 A3012 900 70 -100 000/00 RMK AO2 SLP205 T00441006
94908KDBQ DBQ20050401065510804/01/05 06:55:31  5-MIN KDBQ 011255Z 00000KT 10SM CLR 05/M01 A3012 900 67 0 000/00 RMK AO2 SLP205 T00501006
94908KDBQ DBQ20050401070009004/01/05 07:00:31  5-MIN KDBQ 011300Z 00000KT 10SM CLR 05/00 A3012 900 70 0 000/00 RMK AO2
94908KDBQ DBQ20050401070509004/01/05 07:05:31  5-MIN KDBQ 011305Z 00000KT 10SM CLR 06/01 A3012 900 70 0 000/00 RMK AO2
94908KDBQ DBQ20050401071009004/01/05 07:10:31  5-MIN KDBQ 011310Z 01003KT 10SM CLR 06/01 A3011 900 70 0 010/03 RMK AO2
94908KDBQ DBQ20050401071509004/01/05 07:15:31  5-MIN KDBQ 011315Z 01003KT 10SM CLR 06/00 A3011 900 67 0 010/03 RMK AO2
94908KDBQ DBQ20050401072009004/01/05 07:20:31  5-MIN KDBQ 011320Z 02003KT 10SM CLR 06/00 A3011 900 67 0 010/03 RMK AO2
94908KDBQ DBQ20050401072509304/01/05 07:25:31  5-MIN KDBQ 011325Z 36003KT 10SM CLR 06/01 A3011 900 67  100 360/03 RMK AO2
94908KDBQ DBQ20050401073009304/01/05 07:30:31  5-MIN KDBQ 011330Z 36003KT 10SM CLR 06/00 A3011 900 65  100 360/03 RMK AO2
94908KDBQ DBQ20050401073509304/01/05 07:35:31  5-MIN KDBQ 011335Z 01003KT 10SM CLR 06/00 A3011 900 65  100 010/03 RMK AO2
94908KDBQ DBQ20050401074009604/01/05 07:40:31  5-MIN KDBQ 011340Z 36004KT 10SM FEW120 06/00 A3011 900  65 100 360/04 RMK AO2
94908KDBQ DBQ20050401074509604/01/05 07:45:31  5-MIN KDBQ 011345Z 01003KT 10SM FEW120 06/00 A3011 900  65 100 360/03 RMK AO2
94908KDBQ DBQ20050401075011304/01/05 07:50:31  5-MIN KDBQ 011350Z 01003KT 10SM FEW120 06/00 A3011 900  65 100 360/03 RMK AO2 SLP202 T00610000
94908KDBQ DBQ20050401075511304/01/05 07:55:31  5-MIN KDBQ 011355Z 01004KT 10SM FEW120 06/00 A3010 910  65 100 010/04 RMK AO2 SLP200 T00610000
94908KDBQ DBQ20050401080009604/01/05 08:00:31  5-MIN KDBQ 011400Z 01005KT 10SM FEW120 06/01 A3010 910  67 100 010/05 RMK AO2
94908KDBQ DBQ20050401080509604/01/05 08:05:31  5-MIN KDBQ 011405Z 01005KT 10SM FEW120 06/00 A3010 920  65 100 010/05 RMK AO2
94908KDBQ DBQ20050401081009304/01/05 08:10:31  5-MIN KDBQ 011410Z 36004KT 10SM CLR 07/01 A3010 920 65  200 360/04 RMK AO2
94908KDBQ DBQ20050401081509304/01/05 08:15:31  5-MIN KDBQ 011415Z 35006KT 10SM CLR 07/00 A3010 920 60  200 350/06 RMK AO2
94908KDBQ DBQ20050401082009304/01/05 08:20:31  5-MIN KDBQ 011420Z 01006KT 10SM CLR 07/00 A3009 920 60  200 010/06 RMK AO2
94908KDBQ DBQ20050401082509304/01/05 08:25:31  5-MIN KDBQ 011425Z 35006KT 10SM CLR 07/01 A3010 920 62  200 350/06 RMK AO2
94908KDBQ DBQ20050401083009304/01/05 08:30:31  5-MIN KDBQ 011430Z 34008KT 10SM CLR 08/01 A3010 920 60  300 340/08 RMK AO2
94908KDBQ DBQ20050401083509304/01/05 08:35:31  5-MIN KDBQ 011435Z 36007KT 10SM CLR 08/01 A3010 910 60  300 360/07 RMK AO2
94908KDBQ DBQ20050401084009304/01/05 08:40:31  5-MIN KDBQ 011440Z 36009KT 10SM CLR 08/01 A3010 910 60  400 360/09 RMK AO2
94908KDBQ DBQ20050401084509304/01/05 08:45:31  5-MIN KDBQ 011445Z 35009KT 10SM CLR 08/01 A3010 910 60  400 350/09 RMK AO2
94908KDBQ DBQ20050401085011604/01/05 08:50:31  5-MIN KDBQ 011450Z 35010KT 10SM CLR 08/01 A3010 910 58  400 350/10 RMK AO2 SLP199 T00830006 53008
94908KDBQ DBQ20050401085511604/01/05 08:55:31  5-MIN KDBQ 011455Z 34010KT 10SM CLR 08/01 A3010 910 58  400 340/10 RMK AO2 SLP198 T00830006 58004
94908KDBQ DBQ20050401090009604/01/05 09:00:31  5-MIN KDBQ 011500Z 34013KT 10SM FEW080 08/01 A3010 910  60 400 340/13 RMK AO2
94908KDBQ DBQ20050401090509604/01/05 09:05:31  5-MIN KDBQ 011505Z 34014KT 10SM FEW080 08/01 A3010 910  60 400 330/14 RMK AO2
94908KDBQ DBQ20050401091009304/01/05 09:10:31  5-MIN KDBQ 011510Z 34013KT 10SM CLR 08/01 A3010 910 60  400 330/13 RMK AO2
94908KDBQ DBQ20050401091509604/01/05 09:15:31  5-MIN KDBQ 011515Z 35012KT 10SM FEW080 08/01 A3010 910  58 400 350/12 RMK AO2
94908KDBQ DBQ20050401092009604/01/05 09:20:31  5-MIN KDBQ 011520Z 34011KT 10SM SCT080 08/01 A3010 910  58 400 340/11 RMK AO2
94908KDBQ DBQ20050401092509604/01/05 09:25:31  5-MIN KDBQ 011525Z 35011KT 10SM FEW080 08/01 A3010 910  58 400 350/11 RMK AO2
94908KDBQ DBQ20050401093009604/01/05 09:30:31  5-MIN KDBQ 011530Z 35009KT 10SM FEW080 09/01 A3010 910  56 500 350/09 RMK AO2
94908KDBQ DBQ20050401093509604/01/05 09:35:31  5-MIN KDBQ 011535Z 36009KT 10SM FEW080 09/01 A3010 910  53 500 360/09 RMK AO2
94908KDBQ DBQ20050401094009604/01/05 09:40:31  5-MIN KDBQ 011540Z 34011KT 10SM FEW080 10/01 A3010 910  52 600 340/11 RMK AO2
94908KDBQ DBQ20050401094509604/01/05 09:45:31  5-MIN KDBQ 011545Z 35011KT 10SM FEW080 10/M01 A3010 910 47 600 350/11 RMK AO2
94908KDBQ DBQ20050401095011304/01/05 09:50:31  5-MIN KDBQ 011550Z 33011KT 10SM SCT075 10/M01 A3010 910 47 600 330/11 RMK AO2 SLP198 T01001006
94908KDBQ DBQ20050401095511304/01/05 09:55:31  5-MIN KDBQ 011555Z 33013KT 10SM BKN075 10/M01 A3010 910 46 600 330/13 RMK AO2 SLP199 T01001011
94908KDBQ DBQ20050401100009604/01/05 10:00:31  5-MIN KDBQ 011600Z 34015KT 10SM BKN075 09/M02 A3010 910 44 500 340/15 RMK AO2
94908KDBQ DBQ20050401100509604/01/05 10:05:31  5-MIN KDBQ 011605Z 34014KT 10SM BKN075 10/M03 A3010 910 40 600 340/14 RMK AO2
94908KDBQ DBQ20050401101009604/01/05 10:10:31  5-MIN KDBQ 011610Z 33012KT 10SM BKN080 10/M03 A3010 910 40 600 330/12 RMK AO2
94908KDBQ DBQ20050401101509604/01/05 10:15:31  5-MIN KDBQ 011615Z 33010KT 10SM OVC080 10/M03 A3010 920 39 600 330/10 RMK AO2
94908KDBQ DBQ20050401102009604/01/05 10:20:31  5-MIN KDBQ 011620Z 33015KT 10SM OVC080 10/M03 A3010 920 39 600 330/15 RMK AO2
94908KDBQ DBQ20050401102509604/01/05 10:25:31  5-MIN KDBQ 011625Z 33013KT 10SM OVC080 09/M03 A3010 910 40 500 330/13 RMK AO2
94908KDBQ DBQ20050401103009604/01/05 10:30:31  5-MIN KDBQ 011630Z 35013KT 10SM BKN080 09/M03 A3010 920 42 500 350/13 RMK AO2
94908KDBQ DBQ20050401103509604/01/05 10:35:31  5-MIN KDBQ 011635Z 34009KT 10SM BKN080 10/M03 A3009 920 40 600 340/09 RMK AO2
94908KDBQ DBQ20050401104010404/01/05 10:40:31  5-MIN KDBQ 011640Z 34016KT 10SM BKN070 BKN085 10/M03  A3009 920 40 600 340/16 RMK AO2
94908KDBQ DBQ20050401104510404/01/05 10:45:31  5-MIN KDBQ 011645Z 34015KT 10SM BKN070 BKN080 10/M04  A3010 920 37 600 340/15 RMK AO2
94908KDBQ DBQ20050401105012104/01/05 10:50:31  5-MIN KDBQ 011650Z 34017KT 10SM BKN065 BKN080 09/M04  A3010 920 37 500 340/17 RMK AO2 SLP199 T00941044
94908KDBQ DBQ20050401105511304/01/05 10:55:31  5-MIN KDBQ 011655Z 34015KT 10SM BKN070 09/M04 A3009 920 37 500 340/15 RMK AO2 SLP198 T00941044
94908KDBQ DBQ20050401110009604/01/05 11:00:31  5-MIN KDBQ 011700Z 34014KT 10SM OVC065 09/M04 A3009 920 39 500 340/14 RMK AO2
94908KDBQ DBQ20050401110510304/01/05 11:05:31  5-MIN KDBQ 011705Z 33017G23KT 10SM BKN065 10/M03 A3009  920 39 600 320/17G23 RMK AO2
94908KDBQ DBQ20050401111010304/01/05 11:10:31  5-MIN KDBQ 011710Z 32012G23KT 10SM BKN065 09/M05 A3009  920 35 500 320/12G23 RMK AO2
94908KDBQ DBQ20050401111509604/01/05 11:15:31  5-MIN KDBQ 011715Z 34010KT 10SM BKN065 10/M05 A3009 920 34 600 330/10 RMK AO2
94908KDBQ DBQ20050401112009604/01/05 11:20:31  5-MIN KDBQ 011720Z 34009KT 10SM SCT065 11/M04 A3009 920 34 700 340/09 RMK AO2
94908KDBQ DBQ20050401112509604/01/05 11:25:31  5-MIN KDBQ 011725Z 34010KT 10SM BKN070 11/M04 A3009 930 34 700 340/10 RMK AO2
94908KDBQ DBQ20050401113010404/01/05 11:30:31  5-MIN KDBQ 011730Z 32011KT 10SM BKN070 BKN080 10/M06  A3009 930 33 600 320/11 RMK AO2
94908KDBQ DBQ20050401113510404/01/05 11:35:31  5-MIN KDBQ 011735Z 32013KT 10SM SCT070 BKN085 10/M06  A3009 930 33 600 320/13 RMK AO2
94908KDBQ DBQ20050401114009604/01/05 11:40:31  5-MIN KDBQ 011740Z 34008KT 10SM SCT080 10/M06 A3008 930 33 600 340/08 RMK AO2
94908KDBQ DBQ20050401114509604/01/05 11:45:31  5-MIN KDBQ 011745Z 34007KT 10SM SCT075 10/M06 A3008 930 33 600 340/07 RMK AO2
94908KDBQ DBQ20050401115013104/01/05 11:50:31  5-MIN KDBQ 011750Z 34006KT 10SM SCT075 10/M05 A3007 940 34 600 340/06 RMK AO2 SLP190 T01001050 10106 20017 58004
94908KDBQ DBQ20050401115513904/01/05 11:55:31  5-MIN KDBQ 011755Z 31007KT 10SM FEW070 SCT085 10/M05  A3007 940 34 600 310/07 RMK AO2 SLP189 T01001050 10106 20017 58009
94908KDBQ DBQ20050401120010404/01/05 12:00:31  5-MIN KDBQ 011800Z 33008KT 10SM FEW055 SCT080 09/M05  A3007 940 35 500 330/08 RMK AO2
94908KDBQ DBQ20050401120510404/01/05 12:05:31  5-MIN KDBQ 011805Z 31007KT 10SM FEW055 SCT070 09/M04  A3007 940 37 500 310/07 RMK AO2
94908KDBQ DBQ20050401121010304/01/05 12:10:31  5-MIN KDBQ 011810Z 32015G25KT 10SM BKN060 09/M04 A3007  940 37 500 320/15G25 RMK AO2
94908KDBQ DBQ20050401121512504/01/05 12:15:31  5-MIN KDBQ 011815Z 32008G25KT 300V360 10SM SCT049 BKN065 09/M04 A3007 940 38 500 320/08G25 300V360 RMK AO2
94908KDBQ DBQ20050401122010304/01/05 12:20:31  5-MIN KDBQ 011820Z 31009G19KT 10SM BKN060 10/M04 A3006  950 36 600 310/09G19 RMK AO2
94908KDBQ DBQ20050401122509604/01/05 12:25:31  5-MIN KDBQ 011825Z 33005KT 10SM BKN060 11/M05 A3006 950 33 700 330/05 RMK AO2
94908KDBQ DBQ20050401123010404/01/05 12:30:31  5-MIN KDBQ 011830Z 33008KT 10SM SCT060 BKN080 11/M06  A3005 950 31 700 330/08 RMK AO2
94908KDBQ DBQ20050401123510904/01/05 12:35:31  5-MIN KDBQ 011835Z 33016G20KT 10SM BKN070 BKN080 11/M05 A3005 950 33 700 330/16G20 RMK AO2
94908KDBQ DBQ20050401124010904/01/05 12:40:31  5-MIN KDBQ 011840Z 32011G20KT 10SM BKN070 BKN080 11/M04 A3005 960 34 700 320/11G20 RMK AO2
94908KDBQ DBQ20050401124509604/01/05 12:45:31  5-MIN KDBQ 011845Z 32012KT 10SM BKN075 11/M05 A3005 960 33 700 320/12 RMK AO2
94908KDBQ DBQ20050401125011304/01/05 12:50:31  5-MIN KDBQ 011850Z 30009KT 10SM BKN075 11/M05 A3004 960 33 700 300/09 RMK AO2 SLP180 T01061050
94908KDBQ DBQ20050401125512604/01/05 12:55:31  5-MIN KDBQ 011855Z 31012G15KT 10SM BKN075 OVC095 11/M05 A3004 970 32 800 310/12G15 RMK AO2 SLP178 T01111050
94908KDBQ DBQ20050401130010904/01/05 13:00:31  5-MIN KDBQ 011900Z 31016G19KT 10SM BKN075 BKN095 12/M06 A3004 970 29 800 310/16G19 RMK AO2
94908KDBQ DBQ20050401130510904/01/05 13:05:31  5-MIN KDBQ 011905Z 30010G19KT 10SM BKN075 BKN090 11/M06 A3003 970 30 800 300/10G19 RMK AO2
94908KDBQ DBQ20050401131010904/01/05 13:10:31  5-MIN KDBQ 011910Z 32017G20KT 10SM BKN075 BKN090 11/M06 A3003 970 30 700 320/17G20 RMK AO2
94908KDBQ DBQ20050401131510904/01/05 13:15:31  5-MIN KDBQ 011915Z 31016G20KT 10SM BKN075 BKN095 12/M06 A3003 980 29 900 310/16G20 RMK AO2
94908KDBQ DBQ20050401132010404/01/05 13:20:31  5-MIN KDBQ 011920Z 31015KT 10SM SCT075 SCT095 12/M06  A3003 980 29 900 310/15 RMK AO2
94908KDBQ DBQ20050401132510404/01/05 13:25:31  5-MIN KDBQ 011925Z 33014KT 10SM FEW075 SCT090 12/M06  A3002 980 29 900 330/14 RMK AO2
94908KDBQ DBQ20050401133010904/01/05 13:30:31  5-MIN KDBQ 011930Z 33014G19KT 10SM FEW075 SCT095 12/M06 A3002 990 29 900 330/14G19 RMK AO2
94908KDBQ DBQ20050401133510904/01/05 13:35:31  5-MIN KDBQ 011935Z 31014G19KT 10SM SCT075 SCT095 11/M05 A3001 990 33 700 300/14G19 RMK AO2
94908KDBQ DBQ20050401134011004/01/05 13:40:31  5-MIN KDBQ 011940Z 31015G21KT 10SM FEW070 SCT095 11/M06 A3001 1000 30 700 310/15G21 RMK AO2
94908KDBQ DBQ20050401134511004/01/05 13:45:31  5-MIN KDBQ 011945Z 31018G21KT 10SM FEW075 SCT090 11/M06 A3001 1000 30 700 310/18G21 RMK AO2
94908KDBQ DBQ20050401135012204/01/05 13:50:31  5-MIN KDBQ 011950Z 31016KT 10SM FEW075 SCT090 11/M06  A3000 1000 30 700 310/16 RMK AO2 SLP166 T01061061
94908KDBQ DBQ20050401135512704/01/05 13:55:31  5-MIN KDBQ 011955Z 31015G22KT 10SM FEW080 SCT090 12/M06 A3000 1000 29 900 310/15G22 RMK AO2 SLP165 T01171056
94908KDBQ DBQ20050401140011004/01/05 14:00:31  5-MIN KDBQ 012000Z 33014G22KT 10SM SCT075 BKN090 11/M06 A3000 1010 30 800 330/14G22 RMK AO2
94908KDBQ DBQ20050401140511004/01/05 14:05:31  5-MIN KDBQ 012005Z 31018G24KT 10SM SCT080 BKN095 10/M06 A3000 1000 33 700 310/18G24 RMK AO2
94908KDBQ DBQ20050401141011004/01/05 14:10:31  5-MIN KDBQ 012010Z 33015G24KT 10SM FEW080 SCT095 12/M06 A3000 1010 29 900 330/15G24 RMK AO2
94908KDBQ DBQ20050401141510504/01/05 14:15:31  5-MIN KDBQ 012015Z 34015KT 10SM FEW080 SCT090 11/M06  A2999 1010 29 800 340/15 RMK AO2
94908KDBQ DBQ20050401142010504/01/05 14:20:31  5-MIN KDBQ 012020Z 34010KT 10SM FEW080 SCT095 11/M07  A2999 1020 29 800 340/10 RMK AO2
94908KDBQ DBQ20050401142511004/01/05 14:25:31  5-MIN KDBQ 012025Z 35014G17KT 10SM SCT080 BKN090 12/M06 A2999 1020 29 900 350/14G17 RMK AO2
94908KDBQ DBQ20050401143010404/01/05 14:30:31  5-MIN KDBQ 012030Z 34014G17KT 10SM BKN090 11/M06 A2998  1020 31 800 340/14G17 RMK AO2
94908KDBQ DBQ20050401143510504/01/05 14:35:31  5-MIN KDBQ 012035Z 33017KT 10SM SCT080 BKN100 10/M06  A2998 1030 31 700 330/17 RMK AO2
94908KDBQ DBQ20050401144010504/01/05 14:40:31  5-MIN KDBQ 012040Z 35016KT 10SM BKN080 BKN095 12/M05  A2998 1030 30 900 350/16 RMK AO2
94908KDBQ DBQ20050401144510504/01/05 14:45:31  5-MIN KDBQ 012045Z 35014KT 10SM BKN080 OVC100 12/M05  A2997 1030 30 900 350/14 RMK AO2
94908KDBQ DBQ20050401145012804/01/05 14:50:31  5-MIN KDBQ 012050Z 35014KT 10SM BKN080 OVC100 11/M05  A2998 1030 32 800 350/14 RMK AO2 SLP156 T01111050 58009
94908KDBQ DBQ20050401145513404/01/05 14:55:31  5-MIN KDBQ 012055Z 32017G22KT 10SM BKN080 OVC100 12/M04 A2997 1030 31 1000 320/17G22 RMK AO2 SLP156 T01221044 56031
94908KDBQ DBQ20050401150011104/01/05 15:00:31  5-MIN KDBQ 012100Z 31018G22KT 10SM BKN080 BKN100 12/M06 A2997 1030 28 1000 310/18G22 RMK AO2
94908KDBQ DBQ20050401150511204/01/05 15:05:31  5-MIN KDBQ 012105Z 33020KT 10SM BKN080 BKN090 BKN110  12/M06 A2997 1030 28 900 330/20 RMK AO2
94908KDBQ DBQ20050403203510704/03/05 20:35:31  5-MIN KDBQ 040235Z AUTO 10008KT 10SM CLR 12/00 A2994  1060 43 1000 100/08 RMK AO2 TSNO $
94908KDBQ DBQ20050403204010604/03/05 20:40:31  5-MIN KDBQ 040240Z AUTO 10008KT 10SM CLR 11/01 A2994  1060 50 800 100/08 RMK AO2 TSNO $
94908KDBQ DBQ20050403204510604/03/05 20:45:31  5-MIN KDBQ 040245Z AUTO 10008KT 10SM CLR 11/01 A2994  1060 50 800 100/08 RMK AO2 TSNO $
94908KDBQ DBQ20050403205012904/03/05 20:50:31  5-MIN KDBQ 040250Z AUTO 12008KT 10SM CLR 10/01 A2994  1060 52 700 120/08 RMK AO2 SLP143 T01000006 55001 TSNO $
94908KDBQ DBQ20050403205512904/03/05 20:55:31  5-MIN KDBQ 040255Z AUTO 12008KT 10SM CLR 11/01 A2994  1060 48 900 120/08 RMK AO2 SLP141 T01110006 50004 TSNO $
94908KDBQ DBQ20050403210010604/03/05 21:00:31  5-MIN KDBQ 040300Z AUTO 12008KT 10SM CLR 11/01 A2994  1060 50 800 120/08 RMK AO2 TSNO $
94908KDBQ DBQ20050403210510604/03/05 21:05:31  5-MIN KDBQ 040305Z AUTO 12007KT 10SM CLR 11/01 A2994  1060 50 800 120/07 RMK AO2 TSNO $
94908KDBQ DBQ20050403211010604/03/05 21:10:31  5-MIN KDBQ 040310Z AUTO 13004KT 10SM CLR 11/01 A2995  1060 50 800 130/04 RMK AO2 TSNO $
94908KDBQ DBQ20050403211510604/03/05 21:15:31  5-MIN KDBQ 040315Z AUTO 12005KT 10SM CLR 11/01 A2995  1050 50 800 120/05 RMK AO2 TSNO $
94908KDBQ DBQ20050403212010604/03/05 21:20:31  5-MIN KDBQ 040320Z AUTO 13005KT 10SM CLR 11/01 A2995  1050 50 800 130/05 RMK AO2 TSNO $
94908KDBQ DBQ20050403212510604/03/05 21:25:31  5-MIN KDBQ 040325Z AUTO 13005KT 10SM CLR 10/01 A2995  1050 52 700 130/05 RMK AO2 TSNO $
94908KDBQ DBQ20050403213010604/03/05 21:30:31  5-MIN KDBQ 040330Z AUTO 13005KT 10SM CLR 09/01 A2995  1050 53 700 130/05 RMK AO2 TSNO $
94908KDBQ DBQ20050403213510604/03/05 21:35:31  5-MIN KDBQ 040335Z AUTO 14007KT 10SM CLR 10/01 A2995  1050 52 700 140/07 RMK AO2 TSNO $
94908KDBQ DBQ20050403214010604/03/05 21:40:31  5-MIN KDBQ 040340Z AUTO 13008KT 10SM CLR 11/01 A2994  1060 48 900 130/08 RMK AO2 TSNO $
94908KDBQ DBQ20050403214510604/03/05 21:45:31  5-MIN KDBQ 040345Z AUTO 13007KT 10SM CLR 12/01 A2994  1060 46 900 130/07 RMK AO2 TSNO $
94908KDBQ DBQ20050403215012304/03/05 21:50:31  5-MIN KDBQ 040350Z AUTO 13007KT 10SM CLR 12/01 A2994  1060 46 900 130/07 RMK AO2 SLP142 T01170006 TSNO $
94908KDBQ DBQ20050403215512304/03/05 21:55:31  5-MIN KDBQ 040355Z AUTO 13007KT 10SM CLR 11/01 A2994  1060 48 900 130/07 RMK AO2 SLP141 T01110006 TSNO $
94908KDBQ DBQ20050403220010604/03/05 22:00:31  5-MIN KDBQ 040400Z AUTO 14009KT 10SM CLR 11/01 A2994  1060 48 900 140/09 RMK AO2 TSNO $
94908KDBQ DBQ20050403220510604/03/05 22:05:31  5-MIN KDBQ 040405Z AUTO 14008KT 10SM CLR 12/00 A2994  1060 44 900 140/08 RMK AO2 TSNO $
94908KDBQ DBQ20050403221010604/03/05 22:10:31  5-MIN KDBQ 040410Z AUTO 13008KT 10SM CLR 12/00 A2994  1060 44 900 130/08 RMK AO2 TSNO $
94908KDBQ DBQ20050403221510704/03/05 22:15:31  5-MIN KDBQ 040415Z AUTO 13008KT 10SM CLR 12/00 A2994  1060 44 1000 130/08 RMK AO2 TSNO $
94908KDBQ DBQ20050403222010604/03/05 22:20:31  5-MIN KDBQ 040420Z AUTO 14009KT 10SM CLR 11/00 A2994  1060 46 900 140/09 RMK AO2 TSNO $
94908KDBQ DBQ20050403222510704/03/05 22:25:31  5-MIN KDBQ 040425Z AUTO 14009KT 10SM CLR 12/00 A2994  1060 44 1000 140/09 RMK AO2 TSNO $
94908KDBQ DBQ20050403223010704/03/05 22:30:31  5-MIN KDBQ 040430Z AUTO 14009KT 10SM CLR 12/00 A2994  1060 44 1000 140/09 RMK AO2 TSNO $
94908KDBQ DBQ20050403223510704/03/05 22:35:31  5-MIN KDBQ 040435Z AUTO 13008KT 10SM CLR 12/00 A2994  1060 44 1000 130/08 RMK AO2 TSNO $
94908KDBQ DBQ20050403224010704/03/05 22:40:31  5-MIN KDBQ 040440Z AUTO 13007KT 10SM CLR 12/00 A2994  1060 44 1000 130/07 RMK AO2 TSNO $
94908KDBQ DBQ20050403224510604/03/05 22:45:31  5-MIN KDBQ 040445Z AUTO 13007KT 10SM CLR 11/00 A2994  1060 46 900 130/07 RMK AO2 TSNO $
94908KDBQ DBQ20050403225012304/03/05 22:50:31  5-MIN KDBQ 040450Z AUTO 13006KT 10SM CLR 11/00 A2994  1060 46 900 130/06 RMK AO2 SLP140 T01110000 TSNO $
94908KDBQ DBQ20050403225512304/03/05 22:55:31  5-MIN KDBQ 040455Z AUTO 13005KT 10SM CLR 11/00 A2994  1060 48 800 130/05 RMK AO2 SLP140 T01060000 TSNO $
94908KDBQ DBQ20050403230010604/03/05 23:00:31  5-MIN KDBQ 040500Z AUTO 13004KT 10SM CLR 11/00 A2994  1060 46 900 130/04 RMK AO2 TSNO $
94908KDBQ DBQ20050403230510604/03/05 23:05:31  5-MIN KDBQ 040505Z AUTO 13006KT 10SM CLR 11/00 A2994  1060 46 900 130/06 RMK AO2 TSNO $
94908KDBQ DBQ20050403231010604/03/05 23:10:31  5-MIN KDBQ 040510Z AUTO 13007KT 10SM CLR 11/00 A2994  1060 46 900 130/07 RMK AO2 TSNO $
94908KDBQ DBQ20050403231510604/03/05 23:15:31  5-MIN KDBQ 040515Z AUTO 13007KT 10SM CLR 11/00 A2994  1060 46 900 130/07 RMK AO2 TSNO $
94908KDBQ DBQ20050403232010604/03/05 23:20:31  5-MIN KDBQ 040520Z AUTO 13008KT 10SM CLR 11/00 A2993  1070 46 900 130/08 RMK AO2 TSNO $
94908KDBQ DBQ20050403232510604/03/05 23:25:31  5-MIN KDBQ 040525Z AUTO 12005KT 10SM CLR 11/00 A2993  1070 46 900 120/05 RMK AO2 TSNO $
94908KDBQ DBQ20050403233010604/03/05 23:30:31  5-MIN KDBQ 040530Z AUTO 12005KT 10SM CLR 11/00 A2993  1070 48 800 120/05 RMK AO2 TSNO $
94908KDBQ DBQ20050403233510604/03/05 23:35:31  5-MIN KDBQ 040535Z AUTO 12005KT 10SM CLR 10/00 A2993  1070 49 800 120/05 RMK AO2 TSNO $
94908KDBQ DBQ20050403234010604/03/05 23:40:31  5-MIN KDBQ 040540Z AUTO 14007KT 10SM CLR 10/00 A2993  1070 49 800 130/07 RMK AO2 TSNO $
94908KDBQ DBQ20050403234510604/03/05 23:45:31  5-MIN KDBQ 040545Z AUTO 13008KT 10SM CLR 11/00 A2993  1070 48 800 130/08 RMK AO2 TSNO $
94908KDBQ DBQ20050403235015204/03/05 23:50:31  5-MIN KDBQ 040550Z AUTO 13009KT 10SM CLR 11/00 A2993  1070 48 800 130/09 RMK AO2 SLP137 T01060000 10183 20094 402000022 50004  TSNO $
94908KDBQ DBQ20050403235515204/03/05 23:55:31  5-MIN KDBQ 040555Z AUTO 13008KT 10SM CLR 11/00 A2993  1070 46 900 130/08 RMK AO2 SLP136 T01110000 10183 20094 402000022 58003  TSNO $
94908KDBQ DBQ20050404000010604/04/05 00:00:38  5-MIN KDBQ 040600Z AUTO 14009KT 10SM CLR 11/00 A2993  1070 48 800 130/09 RMK AO2 TSNO $
94908KDBQ DBQ20050404000510604/04/05 00:05:31  5-MIN KDBQ 040605Z AUTO 14009KT 10SM CLR 11/00 A2993  1070 46 900 140/09 RMK AO2 TSNO $
94908KDBQ DBQ20050404001010604/04/05 00:10:31  5-MIN KDBQ 040610Z AUTO 14009KT 10SM CLR 11/00 A2993  1070 48 800 140/09 RMK AO2 TSNO $
94908KDBQ DBQ20050404001510604/04/05 00:15:31  5-MIN KDBQ 040615Z AUTO 14009KT 10SM CLR 11/00 A2993  1070 48 800 140/09 RMK AO2 TSNO $
94908KDBQ DBQ20050404002010604/04/05 00:20:31  5-MIN KDBQ 040620Z AUTO 14009KT 10SM CLR 11/00 A2993  1070 46 900 140/09 RMK AO2 TSNO $
94908KDBQ DBQ20050404002510604/04/05 00:25:31  5-MIN KDBQ 040625Z AUTO 14009KT 10SM CLR 11/00 A2993  1070 48 800 140/09 RMK AO2 TSNO $
94908KDBQ DBQ20050404003010604/04/05 00:30:31  5-MIN KDBQ 040630Z AUTO 14009KT 10SM CLR 10/01 A2993  1070 52 800 140/09 RMK AO2 TSNO $
94908KDBQ DBQ20050404003510604/04/05 00:35:31  5-MIN KDBQ 040635Z AUTO 14009KT 10SM CLR 10/01 A2993  1070 52 800 140/09 RMK AO2 TSNO $
94908KDBQ DBQ20050404004010604/04/05 00:40:31  5-MIN KDBQ 040640Z AUTO 14010KT 10SM CLR 10/00 A2993  1070 49 800 140/10 RMK AO2 TSNO $
94908KDBQ DBQ20050404004510604/04/05 00:45:31  5-MIN KDBQ 040645Z AUTO 14010KT 10SM CLR 10/00 A2993  1070 49 800 140/10 RMK AO2 TSNO $
94908KDBQ DBQ20050404005012304/04/05 00:50:31  5-MIN KDBQ 040650Z AUTO 14009KT 10SM CLR 10/00 A2993  1070 49 800 140/09 RMK AO2 SLP135 T01000000 TSNO $
94908KDBQ DBQ20050404005512304/04/05 00:55:31  5-MIN KDBQ 040655Z AUTO 14009KT 10SM CLR 10/00 A2993  1070 49 800 140/09 RMK AO2 SLP135 T01000000 TSNO $
94908KDBQ DBQ20050404010010604/04/05 01:00:31  5-MIN KDBQ 040700Z AUTO 14009KT 10SM CLR 10/00 A2993  1070 49 800 140/09 RMK AO2 TSNO $
94908KDBQ DBQ20050404010510604/04/05 01:05:31  5-MIN KDBQ 040705Z AUTO 14009KT 10SM CLR 09/00 A2993  1070 51 700 140/09 RMK AO2 TSNO $
94908KDBQ DBQ20050404011010604/04/05 01:10:31  5-MIN KDBQ 040710Z AUTO 14009KT 10SM CLR 09/00 A2992  1080 51 700 140/09 RMK AO2 TSNO $
94908KDBQ DBQ20050404011510604/04/05 01:15:31  5-MIN KDBQ 040715Z AUTO 14009KT 10SM CLR 09/00 A2992  1070 51 700 140/09 RMK AO2 TSNO $
94908KDBQ DBQ20050404012010604/04/05 01:20:31  5-MIN KDBQ 040720Z AUTO 14008KT 10SM CLR 09/00 A2993  1070 53 600 140/08 RMK AO2 TSNO $
94908KDBQ DBQ20050404012510604/04/05 01:25:31  5-MIN KDBQ 040725Z AUTO 14008KT 10SM CLR 09/00 A2992  1070 51 700 140/08 RMK AO2 TSNO $
94908KDBQ DBQ20050404013010604/04/05 01:30:31  5-MIN KDBQ 040730Z AUTO 14008KT 10SM CLR 10/00 A2992  1080 49 800 130/08 RMK AO2 TSNO $
94908KDBQ DBQ20050404013510704/04/05 01:35:31  5-MIN KDBQ 040735Z AUTO 14009KT 10SM CLR 10/M01 A2992  1080 47 800 130/09 RMK AO2 TSNO $
94908KDBQ DBQ20050404014010704/04/05 01:40:31  5-MIN KDBQ 040740Z AUTO 13008KT 10SM CLR 10/M01 A2992  1080 47 800 130/08 RMK AO2 TSNO $
94908KDBQ DBQ20050404014510704/04/05 01:45:31  5-MIN KDBQ 040745Z AUTO 13009KT 10SM CLR 10/M01 A2992  1080 47 800 130/09 RMK AO2 TSNO $
94908KDBQ DBQ20050404015012404/04/05 01:50:31  5-MIN KDBQ 040750Z AUTO 13009KT 10SM CLR 11/M01 A2992  1080 46 800 130/09 RMK AO2 SLP131 T01061006 TSNO $
94908KDBQ DBQ20050404015512404/04/05 01:55:31  5-MIN KDBQ 040755Z AUTO 13008KT 10SM CLR 11/M01 A2992  1080 44 900 130/08 RMK AO2 SLP129 T01111006 TSNO $
94908KDBQ DBQ20050404020010604/04/05 02:00:31  5-MIN KDBQ 040800Z AUTO 13008KT 10SM CLR 10/00 A2992  1080 49 800 130/08 RMK AO2 TSNO $
94908KDBQ DBQ20050404020510704/04/05 02:05:31  5-MIN KDBQ 040805Z AUTO 13009KT 10SM CLR 10/M01 A2991  1080 47 800 130/09 RMK AO2 TSNO $
94908KDBQ DBQ20050404021010704/04/05 02:10:31  5-MIN KDBQ 040810Z AUTO 13009KT 10SM CLR 12/00 A2992  1080 43 1000 130/09 RMK AO2 TSNO $
94908KDBQ DBQ20050404021510704/04/05 02:15:31  5-MIN KDBQ 040815Z AUTO 14009KT 10SM CLR 11/M01 A2992  1080 46 800 140/09 RMK AO2 TSNO $
94908KDBQ DBQ20050404022010704/04/05 02:20:31  5-MIN KDBQ 040820Z AUTO 14009KT 10SM CLR 10/M01 A2992  1080 47 800 140/09 RMK AO2 TSNO $
94908KDBQ DBQ20050404022510604/04/05 02:25:31  5-MIN KDBQ 040825Z AUTO 14009KT 10SM CLR 09/00 A2992  1080 51 700 140/09 RMK AO2 TSNO $
94908KDBQ DBQ20050404023010604/04/05 02:30:31  5-MIN KDBQ 040830Z AUTO 15007KT 10SM CLR 09/00 A2992  1080 53 600 150/07 RMK AO2 TSNO $
94908KDBQ DBQ20050404023510604/04/05 02:35:31  5-MIN KDBQ 040835Z AUTO 15007KT 10SM CLR 08/00 A2992  1080 55 600 150/07 RMK AO2 TSNO $
94908KDBQ DBQ20050404024010604/04/05 02:40:31  5-MIN KDBQ 040840Z AUTO 14007KT 10SM CLR 08/00 A2992  1080 55 600 140/07 RMK AO2 TSNO $
94908KDBQ DBQ20050404024510704/04/05 02:45:31  5-MIN KDBQ 040845Z AUTO 14009KT 10SM CLR 09/M01 A2992  1080 51 600 140/09 RMK AO2 TSNO $
94908KDBQ DBQ20050404025013004/04/05 02:50:31  5-MIN KDBQ 040850Z AUTO 14009KT 10SM CLR 09/M01 A2991  1080 51 600 140/09 RMK AO2 SLP130 T00891006 58003 TSNO $
94908KDBQ DBQ20050404025513004/04/05 02:55:31  5-MIN KDBQ 040855Z AUTO 14009KT 10SM CLR 09/M01 A2991  1090 51 700 140/09 RMK AO2 SLP129 T00891006 56007 TSNO $
94908KDBQ DBQ20050404030010704/04/05 03:00:31  5-MIN KDBQ 040900Z AUTO 14009KT 10SM CLR 09/M01 A2991  1090 49 700 140/09 RMK AO2 TSNO $
94908KDBQ DBQ20050404030510604/04/05 03:05:31  5-MIN KDBQ 040905Z AUTO 14010KT 10SM CLR 09/00 A2991  1090 53 700 140/10 RMK AO2 TSNO $
94908KDBQ DBQ20050404031010704/04/05 03:10:31  5-MIN KDBQ 040910Z AUTO 14010KT 10SM CLR 09/M01 A2991  1090 51 700 140/10 RMK AO2 TSNO $
94908KDBQ DBQ20050404031510704/04/05 03:15:31  5-MIN KDBQ 040915Z AUTO 15010KT 10SM CLR 09/M01 A2991  1090 51 700 140/10 RMK AO2 TSNO $
94908KDBQ DBQ20050404032010704/04/05 03:20:31  5-MIN KDBQ 040920Z AUTO 15009KT 10SM CLR 09/M01 A2991  1090 51 700 150/09 RMK AO2 TSNO $
94908KDBQ DBQ20050404032510704/04/05 03:25:31  5-MIN KDBQ 040925Z AUTO 15007KT 10SM CLR 09/M01 A2991  1090 51 700 150/07 RMK AO2 TSNO $
94908KDBQ DBQ20050404033010704/04/05 03:30:31  5-MIN KDBQ 040930Z AUTO 15007KT 10SM CLR 08/M01 A2991  1090 53 600 150/07 RMK AO2 TSNO $
94908KDBQ DBQ20050404033510704/04/05 03:35:31  5-MIN KDBQ 040935Z AUTO 16008KT 10SM CLR 08/M01 A2991  1090 55 500 160/08 RMK AO2 TSNO $
94908KDBQ DBQ20050404034010704/04/05 03:40:31  5-MIN KDBQ 040940Z AUTO 16008KT 10SM CLR 08/M01 A2991  1090 53 600 160/08 RMK AO2 TSNO $
94908KDBQ DBQ20050404034510704/04/05 03:45:31  5-MIN KDBQ 040945Z AUTO 15009KT 10SM CLR 08/M01 A2991  1090 53 600 150/09 RMK AO2 TSNO $
94908KDBQ DBQ20050404035012404/04/05 03:50:31  5-MIN KDBQ 040950Z AUTO 15008KT 10SM CLR 08/M01 A2991  1090 53 600 140/08 RMK AO2 SLP128 T00831006 TSNO $
94908KDBQ DBQ20050404035512404/04/05 03:55:31  5-MIN KDBQ 040955Z AUTO 14009KT 10SM CLR 08/M01 A2991  1090 53 600 140/09 RMK AO2 SLP129 T00831006 TSNO $
94908KDBQ DBQ20050404040010604/04/05 04:00:31  5-MIN KDBQ 041000Z AUTO 14008KT 9SM CLR 09/M01 A2991  1090 51 700 140/08 RMK AO2 TSNO $
94908KDBQ DBQ20050404040510604/04/05 04:05:31  5-MIN KDBQ 041005Z AUTO 15008KT 9SM CLR 08/M01 A2990  1090 53 600 140/08 RMK AO2 TSNO $
94908KDBQ DBQ20050404041010704/04/05 04:10:31  5-MIN KDBQ 041010Z AUTO 14009KT 10SM CLR 08/M01 A2991  1090 55 500 140/09 RMK AO2 TSNO $
94908KDBQ DBQ20050404041510604/04/05 04:15:31  5-MIN KDBQ 041015Z AUTO 15009KT 10SM CLR 08/00 A2991  1090 58 500 140/09 RMK AO2 TSNO $
94908KDBQ DBQ20050404042010604/04/05 04:20:31  5-MIN KDBQ 041020Z AUTO 14008KT 10SM CLR 08/00 A2990  1100 55 600 140/08 RMK AO2 TSNO $
94908KDBQ DBQ20050404042510604/04/05 04:25:31  5-MIN KDBQ 041025Z AUTO 14008KT 10SM CLR 08/00 A2990  1100 58 500 140/08 RMK AO2 TSNO $
94908KDBQ DBQ20050404043010604/04/05 04:30:31  5-MIN KDBQ 041030Z AUTO 15010KT 10SM CLR 08/00 A2990  1100 55 600 150/10 RMK AO2 TSNO $
94908KDBQ DBQ20050404043510704/04/05 04:35:31  5-MIN KDBQ 041035Z AUTO 14009KT 10SM CLR 09/M01 A2990  1100 51 700 140/09 RMK AO2 TSNO $
94908KDBQ DBQ20050404044010704/04/05 04:40:31  5-MIN KDBQ 041040Z AUTO 14009KT 10SM CLR 09/M01 A2990  1090 51 700 140/09 RMK AO2 TSNO $
94908KDBQ DBQ20050404044510704/04/05 04:45:31  5-MIN KDBQ 041045Z AUTO 13008KT 10SM CLR 08/M01 A2990  1100 53 600 130/08 RMK AO2 TSNO $
94908KDBQ DBQ20050404045012404/04/05 04:50:31  5-MIN KDBQ 041050Z AUTO 14007KT 10SM CLR 08/M01 A2990  1090 53 600 130/07 RMK AO2 SLP126 T00831006 TSNO $
94908KDBQ DBQ20050404045511304/04/05 04:55:31  5-MIN KDBQ 041055Z 13007KT 10SM CLR 08/M01 A2991 1090 53 600 130/07 RMK AO2 SLP127 T00831006 $
94908KDBQ DBQ20050404050009504/04/05 05:00:31  5-MIN KDBQ 041100Z 13006KT 10SM CLR 08/00 A2991 1090 55 600 130/06 RMK AO2 $
94908KDBQ DBQ20050404050509604/04/05 05:05:31  5-MIN KDBQ 041105Z 13007KT 10SM CLR 09/M01 A2990 1090 51 700 130/07 RMK AO2 $
94908KDBQ DBQ20050404051009604/04/05 05:10:31  5-MIN KDBQ 041110Z 13008KT 10SM CLR 09/M01 A2990 1090 49 700 130/08 RMK AO2 $
94908KDBQ DBQ20050404051509604/04/05 05:15:31  5-MIN KDBQ 041115Z 13010KT 10SM CLR 09/M01 A2990 1090 51 700 130/10 RMK AO2 $
94908KDBQ DBQ20050404052009604/04/05 05:20:31  5-MIN KDBQ 041120Z 12009KT 10SM CLR 09/M01 A2990 1090 51 700 120/09 RMK AO2 $
94908KDBQ DBQ20050404052509604/04/05 05:25:31  5-MIN KDBQ 041125Z 12009KT 10SM CLR 08/M01 A2990 1100 53 600 120/09 RMK AO2 $
94908KDBQ DBQ20050404053009604/04/05 05:30:31  5-MIN KDBQ 041130Z 13010KT 10SM CLR 09/M01 A2990 1100 51 700 130/10 RMK AO2 $
94908KDBQ DBQ20050404053509604/04/05 05:35:31  5-MIN KDBQ 041135Z 13009KT 10SM CLR 09/M01 A2990 1100 49 700 130/09 RMK AO2 $
94908KDBQ DBQ20050404054009604/04/05 05:40:31  5-MIN KDBQ 041140Z 13009KT 10SM CLR 09/M01 A2990 1100 51 700 130/09 RMK AO2 $
94908KDBQ DBQ20050404054509504/04/05 05:45:31  5-MIN KDBQ 041145Z 13010KT 10SM CLR 09/00 A2990 1100 51 700 130/10 RMK AO2 $
94908KDBQ DBQ20050404055013004/04/05 05:50:31  5-MIN KDBQ 041150Z 13011KT 10SM CLR 09/00 A2990 1100 51 700 130/11 RMK AO2 SLP125 T00940000 10122 20078 56007 $
94908KDBQ DBQ20050404055513004/04/05 05:55:31  5-MIN KDBQ 041155Z 13011KT 10SM CLR 09/00 A2990 1100 53 700 130/11 RMK AO2 SLP126 T00890000 10122 20078 58004 $
94908KDBQ DBQ20050404060009504/04/05 06:00:31  5-MIN KDBQ 041200Z 13011KT 10SM CLR 09/00 A2990 1100 53 700 130/11 RMK AO2 $
94908KDBQ DBQ20050404060509504/04/05 06:05:31  5-MIN KDBQ 041205Z 13010KT 10SM CLR 09/00 A2990 1100 53 700 130/10 RMK AO2 $
94908KDBQ DBQ20050404061009504/04/05 06:10:31  5-MIN KDBQ 041210Z 13010KT 9SM CLR 09/00 A2990 1100 53  700 130/10 RMK AO2 $
94908KDBQ DBQ20050404061509504/04/05 06:15:31  5-MIN KDBQ 041215Z 13011KT 9SM CLR 09/00 A2990 1100 53  700 130/11 RMK AO2 $
94908KDBQ DBQ20050404062009504/04/05 06:20:31  5-MIN KDBQ 041220Z 13011KT 9SM CLR 09/00 A2989 1100 53  700 130/11 RMK AO2 $
94908KDBQ DBQ20050404062509504/04/05 06:25:31  5-MIN KDBQ 041225Z 13010KT 9SM CLR 09/01 A2990 1100 56  700 130/10 RMK AO2 $
94908KDBQ DBQ20050404063009504/04/05 06:30:31  5-MIN KDBQ 041230Z 14010KT 9SM CLR 08/01 A2990 1100 58  600 140/10 RMK AO2 $
94908KDBQ DBQ20050404063509504/04/05 06:35:31  5-MIN KDBQ 041235Z 13010KT 9SM CLR 08/01 A2990 1100 58  600 130/10 RMK AO2 $
94908KDBQ DBQ20050404064009504/04/05 06:40:31  5-MIN KDBQ 041240Z 13010KT 9SM CLR 09/01 A2990 1100 56  700 130/10 RMK AO2 $
94908KDBQ DBQ20050404064509504/04/05 06:45:31  5-MIN KDBQ 041245Z 13010KT 9SM CLR 09/01 A2990 1100 53  700 130/10 RMK AO2 $
94908KDBQ DBQ20050404065011004/04/05 06:50:31  5-MIN KDBQ 041250Z 13010KT 9SM CLR 09/01 A2990 1100 53  700 130/10 RMK AO2 SLP126 T00940006
94908KDBQ DBQ20050404065511004/04/05 06:55:31  5-MIN KDBQ 041255Z 14011KT 9SM CLR 10/01 A2990 1100 54  800 130/11 RMK AO2 SLP126 T01000011
94908KDBQ DBQ20050404070009304/04/05 07:00:31  5-MIN KDBQ 041300Z 13010KT 9SM CLR 10/01 A2990 1100 54  800 130/10 RMK AO2
94908KDBQ DBQ20050404070509304/04/05 07:05:31  5-MIN KDBQ 041305Z 14012KT 9SM CLR 10/01 A2990 1100 54  800 140/12 RMK AO2
94908KDBQ DBQ20050404071009304/04/05 07:10:31  5-MIN KDBQ 041310Z 14011KT 9SM CLR 11/01 A2990 1100 52  900 140/11 RMK AO2
94908KDBQ DBQ20050404071509304/04/05 07:15:31  5-MIN KDBQ 041315Z 14011KT 9SM CLR 11/02 A2990 1090 54  900 140/11 RMK AO2
94908KDBQ DBQ20050404072009304/04/05 07:20:31  5-MIN KDBQ 041320Z 14012KT 9SM CLR 11/02 A2990 1090 52  900 140/12 RMK AO2
94908KDBQ DBQ20050404072509304/04/05 07:25:31  5-MIN KDBQ 041325Z 15011KT 9SM CLR 11/02 A2990 1090 52  900 140/11 RMK AO2
94908KDBQ DBQ20050404073009404/04/05 07:30:31  5-MIN KDBQ 041330Z 15011KT 9SM CLR 12/02 A2990 1090 50  1000 140/11 RMK AO2
94908KDBQ DBQ20050404073509404/04/05 07:35:31  5-MIN KDBQ 041335Z 15010KT 9SM CLR 12/02 A2991 1090 50  1000 150/10 RMK AO2
94908KDBQ DBQ20050404074009404/04/05 07:40:31  5-MIN KDBQ 041340Z 15012KT 9SM CLR 12/02 A2991 1090 50  1000 150/12 RMK AO2
94908KDBQ DBQ20050404074509404/04/05 07:45:31  5-MIN KDBQ 041345Z 15012KT 9SM CLR 12/02 A2990 1090 50  1000 150/12 RMK AO2
94908KDBQ DBQ20050404075011104/04/05 07:50:31  5-MIN KDBQ 041350Z 15011KT 9SM CLR 12/02 A2990 1100 50  1000 150/11 RMK AO2 SLP127 T01170017
94908KDBQ DBQ20050404075511104/04/05 07:55:31  5-MIN KDBQ 041355Z 15012KT 9SM CLR 12/02 A2990 1100 50  1100 140/12 RMK AO2 SLP127 T01220022
94908KDBQ DBQ20050404080009404/04/05 08:00:31  5-MIN KDBQ 041400Z 15012KT 9SM CLR 13/02 A2990 1100 46  1100 150/12 RMK AO2
94908KDBQ DBQ20050404080509404/04/05 08:05:31  5-MIN KDBQ 041405Z 15013KT 9SM CLR 13/02 A2990 1100 46  1100 150/13 RMK AO2
94908KDBQ DBQ20050404081009404/04/05 08:10:31  5-MIN KDBQ 041410Z 16015KT 9SM CLR 13/02 A2989 1100 45  1200 160/15 RMK AO2
94908KDBQ DBQ20050404081509404/04/05 08:15:31  5-MIN KDBQ 041415Z 16015KT 9SM CLR 13/02 A2989 1100 46  1200 160/15 RMK AO2
94908KDBQ DBQ20050404082009404/04/05 08:20:31  5-MIN KDBQ 041420Z 16014KT 9SM CLR 14/02 A2989 1100 45  1300 160/14 RMK AO2
94908KDBQ DBQ20050404082509404/04/05 08:25:31  5-MIN KDBQ 041425Z 16014KT 9SM CLR 14/02 A2989 1100 45  1300 160/14 RMK AO2
94908KDBQ DBQ20050404083009404/04/05 08:30:31  5-MIN KDBQ 041430Z 16013KT 9SM CLR 13/02 A2990 1100 46  1200 160/13 RMK AO2
94908KDBQ DBQ20050404083509404/04/05 08:35:31  5-MIN KDBQ 041435Z 16012KT 9SM CLR 13/02 A2990 1100 46  1200 160/12 RMK AO2
94908KDBQ DBQ20050404084009404/04/05 08:40:31  5-MIN KDBQ 041440Z 16012KT 9SM CLR 14/03 A2990 1100 47  1300 150/12 RMK AO2
94908KDBQ DBQ20050404084509404/04/05 08:45:31  5-MIN KDBQ 041445Z 15011KT 9SM CLR 14/03 A2990 1100 47  1300 150/11 RMK AO2
94908KDBQ DBQ20050404085011704/04/05 08:50:31  5-MIN KDBQ 041450Z 15011KT 9SM CLR 14/03 A2990 1100 45  1300 150/11 RMK AO2 SLP125 T01440028 58004
94908KDBQ DBQ20050404085511704/04/05 08:55:31  5-MIN KDBQ 041455Z 15011KT 9SM CLR 14/03 A2989 1100 45  1300 150/11 RMK AO2 SLP125 T01440028 58002
94908KDBQ DBQ20050404090009404/04/05 09:00:31  5-MIN KDBQ 041500Z 15012KT 9SM CLR 14/03 A2989 1110 45  1300 150/12 RMK AO2
94908KDBQ DBQ20050404090509404/04/05 09:05:31  5-MIN KDBQ 041505Z 15014KT 9SM CLR 15/03 A2989 1110 43  1400 150/14 RMK AO2
94908KDBQ DBQ20050404091009404/04/05 09:10:31  5-MIN KDBQ 041510Z 16016KT 10SM CLR 16/03 A2989 1110 42 1500 150/16 RMK AO2
94908KDBQ DBQ20050404091509404/04/05 09:15:31  5-MIN KDBQ 041515Z 15014KT 10SM CLR 16/03 A2989 1110 42 1500 150/14 RMK AO2
94908KDBQ DBQ20050404092009404/04/05 09:20:31  5-MIN KDBQ 041520Z 15016KT 10SM CLR 17/03 A2989 1110 39 1600 150/16 RMK AO2
94908KDBQ DBQ20050404092509404/04/05 09:25:31  5-MIN KDBQ 041525Z 15015KT 10SM CLR 17/03 A2988 1110 39 1600 150/15 RMK AO2
94908KDBQ DBQ20050404093009404/04/05 09:30:31  5-MIN KDBQ 041530Z 15017KT 10SM CLR 17/03 A2989 1110 39 1600 150/17 RMK AO2
94908KDBQ DBQ20050404093509404/04/05 09:35:31  5-MIN KDBQ 041535Z 15015KT 10SM CLR 17/03 A2989 1110 39 1700 150/15 RMK AO2
94908KDBQ DBQ20050404094009404/04/05 09:40:31  5-MIN KDBQ 041540Z 15013KT 10SM CLR 18/03 A2989 1110 36 1700 150/13 RMK AO2
94908KDBQ DBQ20050404094510004/04/05 09:45:31  5-MIN KDBQ 041545Z 15015G22KT 10SM CLR 18/03 A2988 1110 36 1800 150/15G22 RMK AO2
94908KDBQ DBQ20050404095011704/04/05 09:50:31  5-MIN KDBQ 041550Z 16018G22KT 10SM CLR 18/03 A2988 1110 35 1800 150/18G22 RMK AO2 SLP120 T01830028
94908KDBQ DBQ20050404095511704/04/05 09:55:31  5-MIN KDBQ 041555Z 15015G21KT 10SM CLR 19/03 A2988 1110 34 1900 150/15G21 RMK AO2 SLP118 T01940033
94908KDBQ DBQ20050404100010004/04/05 10:00:31  5-MIN KDBQ 041600Z 15021G25KT 10SM CLR 19/03 A2988 1110 34 1900 150/21G25 RMK AO2
94908KDBQ DBQ20050404100510004/04/05 10:05:31  5-MIN KDBQ 041605Z 15017G25KT 10SM CLR 19/02 A2988 1110 32 1900 150/17G25 RMK AO2
94908KDBQ DBQ20050404101010004/04/05 10:10:31  5-MIN KDBQ 041610Z 15017G25KT 10SM CLR 19/03 A2988 1110 34 1900 150/17G25 RMK AO2
94908KDBQ DBQ20050404101511804/04/05 10:15:31  5-MIN KDBQ 041615Z 16020G26KT 10SM CLR 19/03 A2988 1110 33 1900 160/20G26 RMK AO2 PK WND 15026/1613
94908KDBQ DBQ20050404102011804/04/05 10:20:31  5-MIN KDBQ 041620Z 15020G26KT 10SM CLR 19/03 A2988 1120 33 1900 150/20G26 RMK AO2 PK WND 15026/1613
94908KDBQ DBQ20050404102511204/04/05 10:25:31  5-MIN KDBQ 041625Z 15018KT 10SM CLR 20/03 A2988 1110 33 2000 150/18 RMK AO2 PK WND 15026/1613
94908KDBQ DBQ20050404103011204/04/05 10:30:31  5-MIN KDBQ 041630Z 16019KT 10SM CLR 20/03 A2988 1110 31 2000 160/19 RMK AO2 PK WND 15026/1613
94908KDBQ DBQ20050404103511204/04/05 10:35:31  5-MIN KDBQ 041635Z 15018KT 10SM CLR 20/03 A2988 1110 33 2000 150/18 RMK AO2 PK WND 15026/1613
94908KDBQ DBQ20050404104011204/04/05 10:40:31  5-MIN KDBQ 041640Z 15017KT 10SM CLR 20/03 A2988 1110 33 2000 150/17 RMK AO2 PK WND 15026/1613
94908KDBQ DBQ20050404104511204/04/05 10:45:31  5-MIN KDBQ 041645Z 15017KT 10SM CLR 20/03 A2988 1120 33 2000 150/17 RMK AO2 PK WND 15026/1613
94908KDBQ DBQ20050404105012904/04/05 10:50:31  5-MIN KDBQ 041650Z 15018KT 10SM CLR 21/04 A2988 1120 33 2100 150/18 RMK AO2 PK WND 15026/1613 SLP117 T02060039
94908KDBQ DBQ20050404105512904/04/05 10:55:31  5-MIN KDBQ 041655Z 15016KT 10SM CLR 21/04 A2988 1120 33 2100 150/16 RMK AO2 PK WND 15026/1613 SLP116 T02060039
94908KDBQ DBQ20050404110009404/04/05 11:00:31  5-MIN KDBQ 041700Z 16015KT 10SM CLR 21/04 A2988 1120 33 2100 160/15 RMK AO2
94908KDBQ DBQ20050404110509404/04/05 11:05:31  5-MIN KDBQ 041705Z 14014KT 10SM CLR 21/04 A2988 1120 33 2100 140/14 RMK AO2
94908KDBQ DBQ20050404111010004/04/05 11:10:31  5-MIN KDBQ 041710Z 15015G21KT 10SM CLR 21/04 A2987 1120 33 2100 150/15G21 RMK AO2
94908KDBQ DBQ20050404111510004/04/05 11:15:31  5-MIN KDBQ 041715Z 15014G21KT 10SM CLR 21/04 A2987 1130 33 2100 150/14G21 RMK AO2
94908KDBQ DBQ20050404112010004/04/05 11:20:31  5-MIN KDBQ 041720Z 16016G21KT 10SM CLR 21/04 A2986 1130 32 2100 160/16G21 RMK AO2
94908KDBQ DBQ20050404112510004/04/05 11:25:31  5-MIN KDBQ 041725Z 14014G21KT 10SM CLR 22/04 A2986 1130 31 2200 140/14G21 RMK AO2
94908KDBQ DBQ20050404113009404/04/05 11:30:31  5-MIN KDBQ 041730Z 16015KT 10SM CLR 22/04 A2986 1130 32 2200 150/15 RMK AO2
94908KDBQ DBQ20050404113509404/04/05 11:35:31  5-MIN KDBQ 041735Z 14015KT 10SM CLR 22/04 A2986 1140 32 2200 140/15 RMK AO2
94908KDBQ DBQ20050404114010004/04/05 11:40:31  5-MIN KDBQ 041740Z 15013G20KT 10SM CLR 22/05 A2985 1140 32 2300 150/13G20 RMK AO2
94908KDBQ DBQ20050404114510004/04/05 11:45:31  5-MIN KDBQ 041745Z 16016G21KT 10SM CLR 22/04 A2985 1140 31 2300 150/16G21 RMK AO2
94908KDBQ DBQ20050404115013504/04/05 11:50:31  5-MIN KDBQ 041750Z 16016G21KT 10SM CLR 22/04 A2985 1140 31 2300 160/16G21 RMK AO2 SLP106 T02220044 10222 20083 58002
94908KDBQ DBQ20050404115513504/04/05 11:55:31  5-MIN KDBQ 041755Z 16016G21KT 10SM CLR 22/05 A2985 1150 32 2300 160/16G21 RMK AO2 SLP105 T02220050 10222 20083 58016
94908KDBQ DBQ20050404120010004/04/05 12:00:31  5-MIN KDBQ 041800Z 16019G22KT 10SM CLR 22/04 A2984 1150 31 2300 160/19G22 RMK AO2
94908KDBQ DBQ20050404120509404/04/05 12:05:31  5-MIN KDBQ 041805Z 15019KT 10SM CLR 22/04 A2984 1150 31 2300 150/19 RMK AO2
94908KDBQ DBQ20050404121009404/04/05 12:10:31  5-MIN KDBQ 041810Z 16018KT 10SM CLR 22/04 A2984 1150 31 2300 150/18 RMK AO2
94908KDBQ DBQ20050404121509404/04/05 12:15:31  5-MIN KDBQ 041815Z 15016KT 10SM CLR 23/04 A2984 1160 30 2400 150/16 RMK AO2
94908KDBQ DBQ20050404122010004/04/05 12:20:31  5-MIN KDBQ 041820Z 15017G23KT 10SM CLR 23/05 A2983 1160 31 2400 150/17G23 RMK AO2
94908KDBQ DBQ20050404122510004/04/05 12:25:31  5-MIN KDBQ 041825Z 14016G23KT 10SM CLR 23/05 A2983 1160 31 2400 140/16G23 RMK AO2
94908KDBQ DBQ20050404123010004/04/05 12:30:31  5-MIN KDBQ 041830Z 15018G22KT 10SM CLR 23/04 A2983 1170 30 2400 150/18G22 RMK AO2
94908KDBQ DBQ20050404123510004/04/05 12:35:31  5-MIN KDBQ 041835Z 16016G22KT 10SM CLR 23/05 A2983 1170 30 2400 160/16G22 RMK AO2
94908KDBQ DBQ20050404124010004/04/05 12:40:31  5-MIN KDBQ 041840Z 15016G22KT 10SM CLR 23/05 A2982 1170 30 2400 150/16G22 RMK AO2
94908KDBQ DBQ20050404124509404/04/05 12:45:31  5-MIN KDBQ 041845Z 15014KT 10SM CLR 23/05 A2982 1170 30 2400 150/14 RMK AO2
94908KDBQ DBQ20050404125011704/04/05 12:50:31  5-MIN KDBQ 041850Z 15017G22KT 10SM CLR 23/05 A2982 1170 30 2400 150/17G22 RMK AO2 SLP095 T02330050
94908KDBQ DBQ20050404125511704/04/05 12:55:31  5-MIN KDBQ 041855Z 15019G22KT 10SM CLR 23/04 A2981 1180 29 2500 150/19G22 RMK AO2 SLP093 T02330044
94908KDBQ DBQ20050404130010004/04/05 13:00:31  5-MIN KDBQ 041900Z 16016G21KT 10SM CLR 24/05 A2981 1180 29 2500 150/16G21 RMK AO2
94908KDBQ DBQ20050404130510004/04/05 13:05:31  5-MIN KDBQ 041905Z 16019G23KT 10SM CLR 24/05 A2981 1180 29 2500 160/19G23 RMK AO2
94908KDBQ DBQ20050404131010004/04/05 13:10:31  5-MIN KDBQ 041910Z 15018G23KT 10SM CLR 24/04 A2980 1190 28 2500 150/18G23 RMK AO2
94908KDBQ DBQ20050404131510004/04/05 13:15:31  5-MIN KDBQ 041915Z 16018G23KT 10SM CLR 24/05 A2980 1190 28 2600 160/18G23 RMK AO2
94908KDBQ DBQ20050404132010004/04/05 13:20:31  5-MIN KDBQ 041920Z 16018G22KT 10SM CLR 24/04 A2980 1190 28 2500 160/18G22 RMK AO2
94908KDBQ DBQ20050404132510004/04/05 13:25:31  5-MIN KDBQ 041925Z 15016G23KT 10SM CLR 24/04 A2980 1190 27 2600 150/16G23 RMK AO2
94908KDBQ DBQ20050404133010004/04/05 13:30:31  5-MIN KDBQ 041930Z 17017G23KT 10SM CLR 24/04 A2979 1200 27 2600 170/17G23 RMK AO2
94908KDBQ DBQ20050404133510004/04/05 13:35:31  5-MIN KDBQ 041935Z 15018G23KT 10SM CLR 25/04 A2979 1200 26 2700 150/18G23 RMK AO2
94908KDBQ DBQ20050404134010004/04/05 13:40:31  5-MIN KDBQ 041940Z 16017G23KT 10SM CLR 25/04 A2979 1200 26 2700 150/17G23 RMK AO2
94908KDBQ DBQ20050404134510004/04/05 13:45:31  5-MIN KDBQ 041945Z 16017G22KT 10SM CLR 24/04 A2979 1200 26 2600 160/17G22 RMK AO2
94908KDBQ DBQ20050404135011704/04/05 13:50:31  5-MIN KDBQ 041950Z 17018G23KT 10SM CLR 24/04 A2978 1200 26 2600 160/18G23 RMK AO2 SLP083 T02440039
94908KDBQ DBQ20050404135513504/04/05 13:55:31  5-MIN KDBQ 041955Z 17022G26KT 10SM CLR 25/03 A2978 1210 24 2700 170/22G26 RMK AO2 PK WND 17026/1954 SLP081 T02500033
94908KDBQ DBQ20050404140010004/04/05 14:00:31  5-MIN KDBQ 042000Z 16018G26KT 10SM CLR 25/04 A2978 1210 25 2700 160/18G26 RMK AO2
94908KDBQ DBQ20050404140511804/04/05 14:05:31  5-MIN KDBQ 042005Z 16017G27KT 10SM CLR 25/04 A2977 1210 25 2700 160/17G27 RMK AO2 PK WND 15027/2002
94908KDBQ DBQ20050404141011804/04/05 14:10:31  5-MIN KDBQ 042010Z 16018G27KT 10SM CLR 26/04 A2977 1220 24 2700 160/18G27 RMK AO2 PK WND 15027/2002
94908KDBQ DBQ20050404141511204/04/05 14:15:31  5-MIN KDBQ 042015Z 15018KT 10SM CLR 25/03 A2977 1220 24 2700 150/18 RMK AO2 PK WND 15027/2002
94908KDBQ DBQ20050404142011804/04/05 14:20:31  5-MIN KDBQ 042020Z 17021G35KT 10SM CLR 26/03 A2977 1220 23 2800 170/21G35 RMK AO2 PK WND 17035/2018
94908KDBQ DBQ20050404142511804/04/05 14:25:31  5-MIN KDBQ 042025Z 18019G35KT 10SM CLR 26/03 A2976 1220 23 2800 180/19G35 RMK AO2 PK WND 17035/2018
94908KDBQ DBQ20050404143011804/04/05 14:30:31  5-MIN KDBQ 042030Z 15018G24KT 10SM CLR 26/03 A2976 1220 23 2800 150/18G24 RMK AO2 PK WND 17035/2018
94908KDBQ DBQ20050404143511804/04/05 14:35:31  5-MIN KDBQ 042035Z 18018G26KT 10SM CLR 26/03 A2976 1230 22 2800 170/18G26 RMK AO2 PK WND 17035/2018
94908KDBQ DBQ20050404144011804/04/05 14:40:31  5-MIN KDBQ 042040Z 16017G26KT 10SM CLR 26/03 A2976 1230 22 2800 160/17G26 RMK AO2 PK WND 17035/2018
94908KDBQ DBQ20050404144511804/04/05 14:45:31  5-MIN KDBQ 042045Z 18019G26KT 10SM CLR 26/03 A2975 1230 23 2800 170/19G26 RMK AO2 PK WND 17035/2018
94908KDBQ DBQ20050404145014104/04/05 14:50:31  5-MIN KDBQ 042050Z 18018G26KT 10SM CLR 26/02 A2975 1230 21 2800 180/18G26 RMK AO2 PK WND 17035/2018 SLP073 T02560022 58016
94908KDBQ DBQ20050404145514104/04/05 14:55:31  5-MIN KDBQ 042055Z 17019G23KT 10SM CLR 26/02 A2975 1230 21 2800 170/19G23 RMK AO2 PK WND 17035/2018 SLP073 T02560022 56031
94908KDBQ DBQ20050404150011804/04/05 15:00:31  5-MIN KDBQ 042100Z 17022G26KT 10SM CLR 26/02 A2975 1240 21 2800 170/22G26 RMK AO2 PK WND 17026/2057
94908KDBQ DBQ20050404150511804/04/05 15:05:31  5-MIN KDBQ 042105Z 17018G26KT 10SM CLR 26/02 A2975 1240 21 2800 170/18G26 RMK AO2 PK WND 17026/2057
94908KDBQ DBQ20050404151011804/04/05 15:10:31  5-MIN KDBQ 042110Z 16017G26KT 10SM CLR 26/03 A2975 1240 22 2800 160/17G26 RMK AO2 PK WND 17026/2108
94908KDBQ DBQ20050404151511804/04/05 15:15:31  5-MIN KDBQ 042115Z 17021G26KT 10SM CLR 26/03 A2974 1240 21 2800 170/21G26 RMK AO2 PK WND 17026/2115
94908KDBQ DBQ20050404152011804/04/05 15:20:31  5-MIN KDBQ 042120Z 16017G26KT 10SM CLR 26/02 A2974 1240 21 2800 160/17G26 RMK AO2 PK WND 17026/2116
94908KDBQ DBQ20050404152511804/04/05 15:25:31  5-MIN KDBQ 042125Z 16021G26KT 10SM CLR 26/02 A2974 1250 21 2800 160/21G26 RMK AO2 PK WND 17026/2116
94908KDBQ DBQ20050404153011804/04/05 15:30:31  5-MIN KDBQ 042130Z 17018G24KT 10SM CLR 26/02 A2974 1250 21 2800 170/18G24 RMK AO2 PK WND 17026/2116
94908KDBQ DBQ20050404153511804/04/05 15:35:31  5-MIN KDBQ 042135Z 18018G23KT 10SM CLR 26/02 A2974 1240 21 2800 180/18G23 RMK AO2 PK WND 17026/2116
94908KDBQ DBQ20050404154011804/04/05 15:40:31  5-MIN KDBQ 042140Z 17019G23KT 10SM CLR 26/02 A2974 1240 21 2800 170/19G23 RMK AO2 PK WND 17026/2116
94908KDBQ DBQ20050404154511804/04/05 15:45:31  5-MIN KDBQ 042145Z 18019G24KT 10SM CLR 26/01 A2974 1250 20 2800 180/19G24 RMK AO2 PK WND 17026/2116
94908KDBQ DBQ20050404155013504/04/05 15:50:31  5-MIN KDBQ 042150Z 17019G25KT 10SM CLR 26/02 A2974 1250 21 2800 170/19G25 RMK AO2 PK WND 17026/2116 SLP068 T02560017
94908KDBQ DBQ20050404155513504/04/05 15:55:31  5-MIN KDBQ 042155Z 18018G25KT 10SM CLR 26/02 A2974 1250 21 2800 180/18G25 RMK AO2 PK WND 17026/2116 SLP067 T02560017
94908KDBQ DBQ20050404160009404/04/05 16:00:31  5-MIN KDBQ 042200Z 18016KT 10SM CLR 26/02 A2974 1250 21 2800 180/16 RMK AO2
94908KDBQ DBQ20050404160509404/04/05 16:05:31  5-MIN KDBQ 042205Z 17015KT 10SM CLR 26/02 A2974 1250 21 2800 170/15 RMK AO2
94908KDBQ DBQ20050404161010004/04/05 16:10:31  5-MIN KDBQ 042210Z 18017G22KT 10SM CLR 26/02 A2973 1250 21 2800 170/17G22 RMK AO2
94908KDBQ DBQ20050404161510004/04/05 16:15:31  5-MIN KDBQ 042215Z 18019G23KT 10SM CLR 26/02 A2973 1250 21 2800 180/19G23 RMK AO2
94908KDBQ DBQ20050404162010004/04/05 16:20:31  5-MIN KDBQ 042220Z 17018G23KT 10SM CLR 25/02 A2973 1250 22 2700 170/18G23 RMK AO2
94908KDBQ DBQ20050404162510004/04/05 16:25:31  5-MIN KDBQ 042225Z 17018G23KT 10SM CLR 25/03 A2973 1250 23 2700 170/18G23 RMK AO2
94908KDBQ DBQ20050404163010004/04/05 16:30:31  5-MIN KDBQ 042230Z 16018G25KT 10SM CLR 25/03 A2973 1260 23 2700 160/18G25 RMK AO2
94908KDBQ DBQ20050404163510004/04/05 16:35:31  5-MIN KDBQ 042235Z 17016G25KT 10SM CLR 25/02 A2973 1260 22 2700 170/16G25 RMK AO2
94908KDBQ DBQ20050404164010004/04/05 16:40:31  5-MIN KDBQ 042240Z 17018G24KT 10SM CLR 25/03 A2973 1260 23 2700 160/18G24 RMK AO2
94908KDBQ DBQ20050404164510004/04/05 16:45:31  5-MIN KDBQ 042245Z 16017G21KT 10SM CLR 25/03 A2973 1260 24 2700 160/17G21 RMK AO2
94908KDBQ DBQ20050404165011704/04/05 16:50:31  5-MIN KDBQ 042250Z 16017G21KT 10SM CLR 25/03 A2973 1260 23 2700 150/17G21 RMK AO2 SLP065 T02500028
94908KDBQ DBQ20050404165511104/04/05 16:55:31  5-MIN KDBQ 042255Z 16016KT 10SM CLR 25/03 A2973 1260 23 2700 160/16 RMK AO2 SLP064 T02500028
94908KDBQ DBQ20050404170010004/04/05 17:00:31  5-MIN KDBQ 042300Z 16019G22KT 10SM CLR 25/03 A2973 1260 23 2700 160/19G22 RMK AO2
94908KDBQ DBQ20050404170510004/04/05 17:05:31  5-MIN KDBQ 042305Z 16016G22KT 10SM CLR 24/03 A2973 1260 24 2700 160/16G22 RMK AO2
94908KDBQ DBQ20050404171009404/04/05 17:10:31  5-MIN KDBQ 042310Z 16018KT 10SM CLR 24/03 A2973 1260 24 2700 160/18 RMK AO2
94908KDBQ DBQ20050404171509404/04/05 17:15:31  5-MIN KDBQ 042315Z 17014KT 10SM CLR 24/03 A2973 1260 24 2700 170/14 RMK AO2
94908KDBQ DBQ20050404172009404/04/05 17:20:31  5-MIN KDBQ 042320Z 17016KT 10SM CLR 24/02 A2972 1260 23 2700 170/16 RMK AO2
94908KDBQ DBQ20050404172510004/04/05 17:25:31  5-MIN KDBQ 042325Z 17016G24KT 10SM CLR 24/01 A2972 1260 21 2700 170/16G24 RMK AO2
94908KDBQ DBQ20050404173010004/04/05 17:30:31  5-MIN KDBQ 042330Z 17015G24KT 10SM CLR 24/01 A2973 1260 21 2700 170/15G24 RMK AO2
94908KDBQ DBQ20050404173509404/04/05 17:35:31  5-MIN KDBQ 042335Z 17012KT 10SM CLR 23/02 A2973 1260 24 2600 170/12 RMK AO2
94908KDBQ DBQ20050404174009404/04/05 17:40:31  5-MIN KDBQ 042340Z 17012KT 10SM CLR 23/02 A2972 1260 24 2600 170/12 RMK AO2
94908KDBQ DBQ20050404174509404/04/05 17:45:31  5-MIN KDBQ 042345Z 17012KT 10SM CLR 23/02 A2972 1260 25 2500 170/12 RMK AO2
94908KDBQ DBQ20050404175012904/04/05 17:50:31  5-MIN KDBQ 042350Z 18014KT 10SM CLR 23/02 A2972 1260 25 2500 170/14 RMK AO2 SLP063 T02280022 10261 20222 56031
94908KDBQ DBQ20050404175512904/04/05 17:55:31  5-MIN KDBQ 042355Z 17014KT 10SM CLR 23/02 A2972 1260 24 2600 170/14 RMK AO2 SLP063 T02330017 10261 20222 56010
94908KDBQ DBQ20050404180009404/04/05 18:00:31  5-MIN KDBQ 050000Z 17012KT 10SM CLR 22/02 A2972 1260 25 2400 170/12 RMK AO2
94908KDBQ DBQ20050404180509404/04/05 18:05:31  5-MIN KDBQ 050005Z 17010KT 10SM CLR 22/02 A2972 1260 27 2400 170/10 RMK AO2
94908KDBQ DBQ20050404181009404/04/05 18:10:31  5-MIN KDBQ 050010Z 18011KT 10SM CLR 22/02 A2972 1260 27 2400 180/11 RMK AO2
94908KDBQ DBQ20050404181509404/04/05 18:15:31  5-MIN KDBQ 050015Z 18012KT 10SM CLR 22/02 A2972 1260 26 2400 180/12 RMK AO2
94908KDBQ DBQ20050404182009404/04/05 18:20:31  5-MIN KDBQ 050020Z 17012KT 10SM CLR 22/01 A2972 1260 25 2400 170/12 RMK AO2
94908KDBQ DBQ20050404182509404/04/05 18:25:31  5-MIN KDBQ 050025Z 18012KT 10SM CLR 21/02 A2972 1260 27 2300 170/12 RMK AO2
94908KDBQ DBQ20050404183009404/04/05 18:30:31  5-MIN KDBQ 050030Z 18011KT 10SM CLR 21/02 A2972 1260 28 2200 170/11 RMK AO2
94908KDBQ DBQ20050404183510004/04/05 18:35:31  5-MIN KDBQ 050035Z AUTO 17011KT 10SM CLR 21/02 A2972  1260 28 2200 170/11 RMK AO2
94908KDBQ DBQ20050404184010504/04/05 18:40:31  5-MIN KDBQ 050040Z AUTO 17010KT 10SM CLR 19/02 A2972  1260 30 2100 170/10 RMK AO2 TSNO
94908KDBQ DBQ20050404184510504/04/05 18:45:31  5-MIN KDBQ 050045Z AUTO 16010KT 10SM CLR 19/02 A2972  1260 31 2000 160/10 RMK AO2 TSNO
94908KDBQ DBQ20050404185012204/04/05 18:50:31  5-MIN KDBQ 050050Z AUTO 16010KT 10SM CLR 19/02 A2972  1260 31 2000 160/10 RMK AO2 SLP064 T01890017 TSNO
94908KDBQ DBQ20050404185512204/04/05 18:55:31  5-MIN KDBQ 050055Z AUTO 17010KT 10SM CLR 18/02 A2972  1260 34 2000 170/10 RMK AO2 SLP064 T01830022 TSNO
94908KDBQ DBQ20050404190010504/04/05 19:00:31  5-MIN KDBQ 050100Z AUTO 17010KT 10SM CLR 18/02 A2972  1260 35 1900 170/10 RMK AO2 TSNO
94908KDBQ DBQ20050404190510504/04/05 19:05:31  5-MIN KDBQ 050105Z AUTO 16010KT 10SM CLR 18/02 A2972  1260 35 1900 160/10 RMK AO2 TSNO
94908KDBQ DBQ20050404191010504/04/05 19:10:31  5-MIN KDBQ 050110Z AUTO 17010KT 10SM CLR 18/02 A2972  1260 35 1900 160/10 RMK AO2 TSNO
94908KDBQ DBQ20050404191510504/04/05 19:15:31  5-MIN KDBQ 050115Z AUTO 16010KT 10SM CLR 18/02 A2972  1260 35 1900 160/10 RMK AO2 TSNO
94908KDBQ DBQ20050404192010504/04/05 19:20:31  5-MIN KDBQ 050120Z AUTO 16011KT 10SM CLR 18/02 A2973  1260 35 1900 160/11 RMK AO2 TSNO
94908KDBQ DBQ20050404192510504/04/05 19:25:31  5-MIN KDBQ 050125Z AUTO 16010KT 10SM CLR 18/02 A2973  1260 35 1900 160/10 RMK AO2 TSNO
94908KDBQ DBQ20050404193010504/04/05 19:30:31  5-MIN KDBQ 050130Z AUTO 16011KT 10SM CLR 17/02 A2973  1260 36 1800 160/11 RMK AO2 TSNO
94908KDBQ DBQ20050404193510504/04/05 19:35:31  5-MIN KDBQ 050135Z AUTO 16011KT 10SM CLR 18/02 A2973  1260 35 1900 160/11 RMK AO2 TSNO
94908KDBQ DBQ20050404194010504/04/05 19:40:31  5-MIN KDBQ 050140Z AUTO 16011KT 10SM CLR 18/02 A2973  1260 34 2000 160/11 RMK AO2 TSNO
94908KDBQ DBQ20050404194510504/04/05 19:45:31  5-MIN KDBQ 050145Z AUTO 16011KT 10SM CLR 18/02 A2973  1260 35 1900 160/11 RMK AO2 TSNO
94908KDBQ DBQ20050404195012204/04/05 19:50:31  5-MIN KDBQ 050150Z AUTO 16012KT 10SM CLR 18/02 A2973  1250 35 1900 160/12 RMK AO2 SLP067 T01780022 TSNO
94908KDBQ DBQ20050404195512204/04/05 19:55:31  5-MIN KDBQ 050155Z AUTO 16011KT 10SM CLR 17/02 A2973  1250 36 1800 160/11 RMK AO2 SLP067 T01720022 TSNO
94908KDBQ DBQ20050404200010504/04/05 20:00:31  5-MIN KDBQ 050200Z AUTO 16012KT 10SM CLR 17/02 A2973  1250 36 1800 160/12 RMK AO2 TSNO
94908KDBQ DBQ20050404200510504/04/05 20:05:31  5-MIN KDBQ 050205Z AUTO 16012KT 10SM CLR 17/02 A2973  1250 36 1800 160/12 RMK AO2 TSNO
94908KDBQ DBQ20050404201010504/04/05 20:10:31  5-MIN KDBQ 050210Z AUTO 16012KT 10SM CLR 17/02 A2973  1250 36 1800 160/12 RMK AO2 TSNO
94908KDBQ DBQ20050404201510504/04/05 20:15:31  5-MIN KDBQ 050215Z AUTO 16012KT 10SM CLR 17/03 A2973  1250 39 1800 160/12 RMK AO2 TSNO
94908KDBQ DBQ20050404202010504/04/05 20:20:31  5-MIN KDBQ 050220Z AUTO 16011KT 10SM CLR 17/02 A2973  1250 37 1800 150/11 RMK AO2 TSNO
94908KDBQ DBQ20050404202510504/04/05 20:25:31  5-MIN KDBQ 050225Z AUTO 16011KT 10SM CLR 17/02 A2973  1250 37 1800 160/11 RMK AO2 TSNO
94908KDBQ DBQ20050404203010504/04/05 20:30:31  5-MIN KDBQ 050230Z AUTO 16012KT 10SM CLR 17/02 A2973  1250 37 1800 160/12 RMK AO2 TSNO
94908KDBQ DBQ20050404203510504/04/05 20:35:31  5-MIN KDBQ 050235Z AUTO 16011KT 10SM CLR 16/02 A2974  1250 39 1700 150/11 RMK AO2 TSNO
94908KDBQ DBQ20050404204010504/04/05 20:40:31  5-MIN KDBQ 050240Z AUTO 15011KT 10SM CLR 16/03 A2973  1250 42 1600 150/11 RMK AO2 TSNO
94908KDBQ DBQ20050404204510504/04/05 20:45:31  5-MIN KDBQ 050245Z AUTO 15011KT 10SM CLR 15/03 A2973  1250 43 1600 150/11 RMK AO2 TSNO
94908KDBQ DBQ20050404205012804/04/05 20:50:31  5-MIN KDBQ 050250Z AUTO 16011KT 10SM CLR 16/02 A2973  1250 40 1600 160/11 RMK AO2 SLP068 T01560022 56010 TSNO
94908KDBQ DBQ20050404205512804/04/05 20:55:31  5-MIN KDBQ 050255Z AUTO 16012KT 10SM CLR 16/02 A2973  1250 39 1700 160/12 RMK AO2 SLP067 T01610022 53004 TSNO
94908KDBQ DBQ20050404210010504/04/05 21:00:31  5-MIN KDBQ 050300Z AUTO 16011KT 10SM CLR 16/02 A2973  1250 39 1700 160/11 RMK AO2 TSNO
94908KDBQ DBQ20050404210510504/04/05 21:05:31  5-MIN KDBQ 050305Z AUTO 16011KT 10SM CLR 16/03 A2973  1250 40 1700 160/11 RMK AO2 TSNO
94908KDBQ DBQ20050404211010504/04/05 21:10:31  5-MIN KDBQ 050310Z AUTO 16011KT 10SM CLR 16/03 A2973  1250 40 1700 160/11 RMK AO2 TSNO
94908KDBQ DBQ20050404211510504/04/05 21:15:31  5-MIN KDBQ 050315Z AUTO 16011KT 10SM CLR 16/03 A2974  1250 42 1600 150/11 RMK AO2 TSNO
94908KDBQ DBQ20050404212010504/04/05 21:20:31  5-MIN KDBQ 050320Z AUTO 15012KT 10SM CLR 16/03 A2974  1250 42 1600 150/12 RMK AO2 TSNO
94908KDBQ DBQ20050404212510504/04/05 21:25:31  5-MIN KDBQ 050325Z AUTO 15011KT 10SM CLR 16/03 A2974  1250 42 1600 150/11 RMK AO2 TSNO
94908KDBQ DBQ20050404213010504/04/05 21:30:31  5-MIN KDBQ 050330Z AUTO 15009KT 10SM CLR 15/03 A2974  1250 43 1600 150/09 RMK AO2 TSNO
94908KDBQ DBQ20050404213510504/04/05 21:35:31  5-MIN KDBQ 050335Z AUTO 15010KT 10SM CLR 15/03 A2974  1250 43 1600 150/10 RMK AO2 TSNO
94908KDBQ DBQ20050404214010504/04/05 21:40:31  5-MIN KDBQ 050340Z AUTO 15010KT 10SM CLR 15/03 A2974  1250 43 1600 150/10 RMK AO2 TSNO
94908KDBQ DBQ20050404214510504/04/05 21:45:31  5-MIN KDBQ 050345Z AUTO 15011KT 10SM CLR 16/03 A2974  1250 42 1600 150/11 RMK AO2 TSNO
94908KDBQ DBQ20050404215012204/04/05 21:50:31  5-MIN KDBQ 050350Z AUTO 15011KT 10SM CLR 16/03 A2974  1250 42 1600 150/11 RMK AO2 SLP067 T01560028 TSNO
94908KDBQ DBQ20050404215512204/04/05 21:55:31  5-MIN KDBQ 050355Z AUTO 15012KT 10SM CLR 16/03 A2974  1250 40 1700 150/12 RMK AO2 SLP066 T01610028 TSNO
94908KDBQ DBQ20050404220010504/04/05 22:00:31  5-MIN KDBQ 050400Z AUTO 16013KT 10SM CLR 16/03 A2974  1250 42 1700 160/13 RMK AO2 TSNO
94908KDBQ DBQ20050404220510504/04/05 22:05:31  5-MIN KDBQ 050405Z AUTO 16013KT 10SM CLR 16/03 A2974  1250 43 1600 160/13 RMK AO2 TSNO
94908KDBQ DBQ20050404221010504/04/05 22:10:31  5-MIN KDBQ 050410Z AUTO 16013KT 10SM CLR 16/03 A2974  1250 43 1600 160/13 RMK AO2 TSNO
94908KDBQ DBQ20050404221510504/04/05 22:15:31  5-MIN KDBQ 050415Z AUTO 16012KT 10SM CLR 16/04 A2974  1240 45 1600 160/12 RMK AO2 TSNO
94908KDBQ DBQ20050404222010504/04/05 22:20:31  5-MIN KDBQ 050420Z AUTO 16011KT 10SM CLR 15/04 A2974  1240 47 1600 160/11 RMK AO2 TSNO
94908KDBQ DBQ20050404222510504/04/05 22:25:31  5-MIN KDBQ 050425Z AUTO 16012KT 10SM CLR 15/04 A2974  1240 47 1600 160/12 RMK AO2 TSNO
94908KDBQ DBQ20050404223010504/04/05 22:30:31  5-MIN KDBQ 050430Z AUTO 16012KT 10SM CLR 16/04 A2974  1240 45 1600 160/12 RMK AO2 TSNO
94908KDBQ DBQ20050404223510504/04/05 22:35:31  5-MIN KDBQ 050435Z AUTO 16012KT 10SM CLR 16/04 A2974  1240 45 1600 160/12 RMK AO2 TSNO
94908KDBQ DBQ20050404224010504/04/05 22:40:31  5-MIN KDBQ 050440Z AUTO 16012KT 10SM CLR 15/04 A2974  1240 47 1600 160/12 RMK AO2 TSNO
94908KDBQ DBQ20050404224510504/04/05 22:45:31  5-MIN KDBQ 050445Z AUTO 16011KT 10SM CLR 15/04 A2974  1240 49 1600 160/11 RMK AO2 TSNO
94908KDBQ DBQ20050404225012204/04/05 22:50:31  5-MIN KDBQ 050450Z AUTO 16011KT 10SM CLR 14/04 A2974  1240 51 1500 160/11 RMK AO2 SLP068 T01440044 TSNO
94908KDBQ DBQ20050404225512204/04/05 22:55:31  5-MIN KDBQ 050455Z AUTO 16010KT 10SM CLR 14/04 A2974  1240 51 1500 160/10 RMK AO2 SLP068 T01440044 TSNO
94908KDBQ DBQ20050404230010504/04/05 23:00:31  5-MIN KDBQ 050500Z AUTO 16010KT 10SM CLR 14/04 A2974  1250 51 1500 160/10 RMK AO2 TSNO
94908KDBQ DBQ20050404230510504/04/05 23:05:31  5-MIN KDBQ 050505Z AUTO 16011KT 10SM CLR 14/04 A2974  1250 52 1400 160/11 RMK AO2 TSNO
94908KDBQ DBQ20050404231010504/04/05 23:10:31  5-MIN KDBQ 050510Z AUTO 17011KT 10SM CLR 14/04 A2974  1250 52 1400 170/11 RMK AO2 TSNO
94908KDBQ DBQ20050404231510504/04/05 23:15:31  5-MIN KDBQ 050515Z AUTO 17011KT 10SM CLR 14/04 A2974  1250 52 1400 170/11 RMK AO2 TSNO
94908KDBQ DBQ20050404232010504/04/05 23:20:31  5-MIN KDBQ 050520Z AUTO 17011KT 10SM CLR 14/04 A2974  1250 52 1400 170/11 RMK AO2 TSNO
94908KDBQ DBQ20050404232510504/04/05 23:25:31  5-MIN KDBQ 050525Z AUTO 17011KT 10SM CLR 14/04 A2974  1250 52 1400 170/11 RMK AO2 TSNO
94908KDBQ DBQ20050404233010504/04/05 23:30:31  5-MIN KDBQ 050530Z AUTO 17012KT 10SM CLR 14/05 A2974  1250 55 1400 170/12 RMK AO2 TSNO
94908KDBQ DBQ20050404233510504/04/05 23:35:31  5-MIN KDBQ 050535Z AUTO 17011KT 10SM CLR 13/05 A2974  1250 57 1400 170/11 RMK AO2 TSNO
94908KDBQ DBQ20050404234010504/04/05 23:40:31  5-MIN KDBQ 050540Z AUTO 17012KT 10SM CLR 13/05 A2974  1250 57 1400 170/12 RMK AO2 TSNO
94908KDBQ DBQ20050404234510504/04/05 23:45:31  5-MIN KDBQ 050545Z AUTO 17012KT 10SM CLR 13/05 A2974  1250 57 1400 170/12 RMK AO2 TSNO
94908KDBQ DBQ20050404235015104/04/05 23:50:31  5-MIN KDBQ 050550Z AUTO 17012KT 10SM CLR 13/05 A2974  1250 57 1400 170/12 RMK AO2 SLP066 T01330050 10228 20133 402610078 53004  TSNO
94908KDBQ DBQ20050404235515104/04/05 23:55:31  5-MIN KDBQ 050555Z AUTO 17012KT 10SM CLR 13/05 A2974  1250 57 1400 160/12 RMK AO2 SLP066 T01330050 10228 20133 402610078 50001  TSNO
94908KDBQ DBQ20050405000010504/05/05 00:00:38  5-MIN KDBQ 050600Z AUTO 16012KT 10SM CLR 13/05 A2974  1250 57 1400 160/12 RMK AO2 TSNO
94908KDBQ DBQ20050405000510504/05/05 00:05:31  5-MIN KDBQ 050605Z AUTO 16012KT 10SM CLR 13/05 A2974  1250 57 1400 160/12 RMK AO2 TSNO
94908KDBQ DBQ20050405001010504/05/05 00:10:31  5-MIN KDBQ 050610Z AUTO 16012KT 10SM CLR 13/05 A2974  1250 57 1400 160/12 RMK AO2 TSNO
94908KDBQ DBQ20050405001510504/05/05 00:15:32  5-MIN KDBQ 050615Z AUTO 16012KT 10SM CLR 13/05 A2974  1250 57 1400 160/12 RMK AO2 TSNO
94908KDBQ DBQ20050405002010504/05/05 00:20:31  5-MIN KDBQ 050620Z AUTO 16012KT 10SM CLR 13/05 A2974  1250 57 1400 160/12 RMK AO2 TSNO
94908KDBQ DBQ20050405002510504/05/05 00:25:31  5-MIN KDBQ 050625Z AUTO 16011KT 10SM CLR 13/05 A2974  1250 59 1300 160/11 RMK AO2 TSNO
94908KDBQ DBQ20050405003010504/05/05 00:30:31  5-MIN KDBQ 050630Z AUTO 16012KT 10SM CLR 13/05 A2973  1250 57 1400 160/12 RMK AO2 TSNO
94908KDBQ DBQ20050405003510504/05/05 00:35:31  5-MIN KDBQ 050635Z AUTO 16012KT 10SM CLR 13/05 A2973  1250 57 1400 160/12 RMK AO2 TSNO
94908KDBQ DBQ20050405004010504/05/05 00:40:31  5-MIN KDBQ 050640Z AUTO 16011KT 10SM CLR 13/05 A2973  1250 57 1400 160/11 RMK AO2 TSNO
94908KDBQ DBQ20050405004510504/05/05 00:45:31  5-MIN KDBQ 050645Z AUTO 16011KT 10SM CLR 13/05 A2973  1250 59 1300 160/11 RMK AO2 TSNO
94908KDBQ DBQ20050405005012204/05/05 00:50:31  5-MIN KDBQ 050650Z AUTO 16010KT 10SM CLR 13/05 A2973  1250 59 1300 160/10 RMK AO2 SLP065 T01280050 TSNO
94908KDBQ DBQ20050405005512204/05/05 00:55:31  5-MIN KDBQ 050655Z AUTO 17010KT 10SM CLR 12/05 A2973  1250 61 1300 160/10 RMK AO2 SLP065 T01220050 TSNO
94908KDBQ DBQ20050405010010504/05/05 01:00:31  5-MIN KDBQ 050700Z AUTO 16010KT 10SM CLR 12/05 A2973  1250 61 1300 160/10 RMK AO2 TSNO
94908KDBQ DBQ20050405010510504/05/05 01:05:31  5-MIN KDBQ 050705Z AUTO 17010KT 10SM CLR 12/05 A2973  1250 61 1300 170/10 RMK AO2 TSNO
94908KDBQ DBQ20050405011010504/05/05 01:10:31  5-MIN KDBQ 050710Z AUTO 17010KT 10SM CLR 12/05 A2973  1250 61 1300 170/10 RMK AO2 TSNO
94908KDBQ DBQ20050405011510504/05/05 01:15:31  5-MIN KDBQ 050715Z AUTO 17009KT 10SM CLR 12/05 A2973  1250 63 1200 170/09 RMK AO2 TSNO
94908KDBQ DBQ20050405012010504/05/05 01:20:31  5-MIN KDBQ 050720Z AUTO 17010KT 10SM CLR 12/05 A2973  1250 63 1200 170/10 RMK AO2 TSNO
94908KDBQ DBQ20050405012510504/05/05 01:25:31  5-MIN KDBQ 050725Z AUTO 16011KT 10SM CLR 12/05 A2973  1250 63 1200 160/11 RMK AO2 TSNO
94908KDBQ DBQ20050405013010504/05/05 01:30:31  5-MIN KDBQ 050730Z AUTO 17011KT 10SM CLR 12/05 A2973  1250 63 1200 170/11 RMK AO2 TSNO
94908KDBQ DBQ20050405013510504/05/05 01:35:31  5-MIN KDBQ 050735Z AUTO 17011KT 10SM CLR 12/05 A2973  1250 63 1200 170/11 RMK AO2 TSNO
94908KDBQ DBQ20050405014010504/05/05 01:40:31  5-MIN KDBQ 050740Z AUTO 17011KT 10SM CLR 12/05 A2973  1250 63 1200 170/11 RMK AO2 TSNO
94908KDBQ DBQ20050405014510504/05/05 01:45:31  5-MIN KDBQ 050745Z AUTO 17010KT 10SM CLR 12/05 A2973  1250 63 1200 170/10 RMK AO2 TSNO
94908KDBQ DBQ20050405015012204/05/05 01:50:31  5-MIN KDBQ 050750Z AUTO 17011KT 10SM CLR 12/05 A2973  1250 63 1200 170/11 RMK AO2 SLP064 T01170050 TSNO
94908KDBQ DBQ20050405015512204/05/05 01:55:31  5-MIN KDBQ 050755Z AUTO 17010KT 10SM CLR 12/06 A2973  1250 66 1200 170/10 RMK AO2 SLP065 T01170056 TSNO
94908KDBQ DBQ20050405020010504/05/05 02:00:31  5-MIN KDBQ 050800Z AUTO 17011KT 10SM CLR 12/06 A2973  1250 66 1200 170/11 RMK AO2 TSNO
94908KDBQ DBQ20050405020510504/05/05 02:05:31  5-MIN KDBQ 050805Z AUTO 17009KT 10SM CLR 12/06 A2973  1250 63 1300 170/09 RMK AO2 TSNO
94908KDBQ DBQ20050405021010504/05/05 02:10:31  5-MIN KDBQ 050810Z AUTO 17009KT 10SM CLR 12/06 A2973  1250 66 1200 170/09 RMK AO2 TSNO
94908KDBQ DBQ20050405021510504/05/05 02:15:31  5-MIN KDBQ 050815Z AUTO 17009KT 10SM CLR 12/06 A2973  1250 66 1200 170/09 RMK AO2 TSNO
94908KDBQ DBQ20050405022010504/05/05 02:20:31  5-MIN KDBQ 050820Z AUTO 18009KT 10SM CLR 12/06 A2973  1250 66 1200 170/09 RMK AO2 TSNO
94908KDBQ DBQ20050405022510504/05/05 02:25:31  5-MIN KDBQ 050825Z AUTO 17010KT 10SM CLR 12/06 A2973  1260 66 1200 170/10 RMK AO2 TSNO
94908KDBQ DBQ20050405023010504/05/05 02:30:31  5-MIN KDBQ 050830Z AUTO 17010KT 10SM CLR 12/06 A2973  1260 66 1200 170/10 RMK AO2 TSNO
94908KDBQ DBQ20050405023510504/05/05 02:35:31  5-MIN KDBQ 050835Z AUTO 17010KT 10SM CLR 12/06 A2973  1250 66 1200 170/10 RMK AO2 TSNO
94908KDBQ DBQ20050405024010504/05/05 02:40:31  5-MIN KDBQ 050840Z AUTO 17010KT 10SM CLR 12/06 A2973  1250 66 1200 170/10 RMK AO2 TSNO
94908KDBQ DBQ20050405024510504/05/05 02:45:31  5-MIN KDBQ 050845Z AUTO 17010KT 10SM CLR 12/06 A2973  1250 66 1200 170/10 RMK AO2 TSNO
94908KDBQ DBQ20050405025012804/05/05 02:50:31  5-MIN KDBQ 050850Z AUTO 18010KT 10SM CLR 12/06 A2973  1250 63 1300 180/10 RMK AO2 SLP065 T01220056 50001 TSNO
94908KDBQ DBQ20050405025512804/05/05 02:55:31  5-MIN KDBQ 050855Z AUTO 18010KT 10SM CLR 12/06 A2973  1250 66 1200 170/10 RMK AO2 SLP065 T01170056 55002 TSNO
94908KDBQ DBQ20050405030010504/05/05 03:00:31  5-MIN KDBQ 050900Z AUTO 18009KT 10SM CLR 12/06 A2973  1250 66 1200 180/09 RMK AO2 TSNO
94908KDBQ DBQ20050405030510504/05/05 03:05:31  5-MIN KDBQ 050905Z AUTO 18009KT 10SM CLR 12/06 A2973  1250 66 1200 180/09 RMK AO2 TSNO
94908KDBQ DBQ20050405031010504/05/05 03:10:31  5-MIN KDBQ 050910Z AUTO 19009KT 10SM CLR 12/06 A2973  1250 66 1200 190/09 RMK AO2 TSNO
94908KDBQ DBQ20050405031510504/05/05 03:15:31  5-MIN KDBQ 050915Z AUTO 19009KT 10SM CLR 12/06 A2973  1250 66 1200 180/09 RMK AO2 TSNO
94908KDBQ DBQ20050405032010504/05/05 03:20:31  5-MIN KDBQ 050920Z AUTO 19009KT 10SM CLR 12/06 A2973  1250 66 1200 190/09 RMK AO2 TSNO
94908KDBQ DBQ20050405032510504/05/05 03:25:31  5-MIN KDBQ 050925Z AUTO 19010KT 10SM CLR 12/06 A2973  1250 66 1200 190/10 RMK AO2 TSNO
94908KDBQ DBQ20050405033010504/05/05 03:30:31  5-MIN KDBQ 050930Z AUTO 19010KT 10SM CLR 12/06 A2973  1250 66 1200 180/10 RMK AO2 TSNO
94908KDBQ DBQ20050405033510504/05/05 03:35:31  5-MIN KDBQ 050935Z AUTO 18010KT 10SM CLR 12/06 A2973  1250 66 1200 180/10 RMK AO2 TSNO
94908KDBQ DBQ20050405034010504/05/05 03:40:31  5-MIN KDBQ 050940Z AUTO 18009KT 10SM CLR 12/06 A2973  1250 66 1200 180/09 RMK AO2 TSNO
94908KDBQ DBQ20050405034510504/05/05 03:45:31  5-MIN KDBQ 050945Z AUTO 18009KT 10SM CLR 11/06 A2973  1250 68 1100 180/09 RMK AO2 TSNO
94908KDBQ DBQ20050405035012204/05/05 03:50:31  5-MIN KDBQ 050950Z AUTO 18009KT 10SM CLR 11/06 A2973  1250 68 1100 180/09 RMK AO2 SLP065 T01110056 TSNO
94908KDBQ DBQ20050405035512204/05/05 03:55:31  5-MIN KDBQ 050955Z AUTO 18009KT 10SM CLR 11/06 A2973  1250 68 1100 180/09 RMK AO2 SLP065 T01110056 TSNO
94908KDBQ DBQ20050405040010504/05/05 04:00:31  5-MIN KDBQ 051000Z AUTO 18009KT 10SM CLR 11/06 A2973  1250 68 1100 180/09 RMK AO2 TSNO
94908KDBQ DBQ20050405040510504/05/05 04:05:31  5-MIN KDBQ 051005Z AUTO 19008KT 10SM CLR 11/06 A2973  1250 68 1100 190/08 RMK AO2 TSNO
94908KDBQ DBQ20050405041010504/05/05 04:10:31  5-MIN KDBQ 051010Z AUTO 18009KT 10SM CLR 11/06 A2973  1250 68 1100 180/09 RMK AO2 TSNO
94908KDBQ DBQ20050405041510504/05/05 04:15:31  5-MIN KDBQ 051015Z AUTO 18009KT 10SM CLR 11/06 A2974  1250 68 1100 180/09 RMK AO2 TSNO
94908KDBQ DBQ20050405042010504/05/05 04:20:31  5-MIN KDBQ 051020Z AUTO 18009KT 10SM CLR 11/06 A2973  1250 68 1100 180/09 RMK AO2 TSNO
94908KDBQ DBQ20050405042510504/05/05 04:25:31  5-MIN KDBQ 051025Z AUTO 18008KT 10SM CLR 11/05 A2974  1250 68 1100 180/08 RMK AO2 TSNO
94908KDBQ DBQ20050405043010504/05/05 04:30:31  5-MIN KDBQ 051030Z AUTO 18008KT 10SM CLR 11/05 A2974  1250 68 1100 180/08 RMK AO2 TSNO
94908KDBQ DBQ20050405043510504/05/05 04:35:31  5-MIN KDBQ 051035Z AUTO 17008KT 10SM CLR 11/05 A2974  1250 68 1100 170/08 RMK AO2 TSNO
94908KDBQ DBQ20050405044010504/05/05 04:40:31  5-MIN KDBQ 051040Z AUTO 17009KT 10SM CLR 11/05 A2974  1250 68 1100 170/09 RMK AO2 TSNO
94908KDBQ DBQ20050405044510504/05/05 04:45:31  5-MIN KDBQ 051045Z AUTO 17009KT 10SM CLR 11/06 A2974  1250 71 1100 170/09 RMK AO2 TSNO
94908KDBQ DBQ20050405045011104/05/05 04:50:31  5-MIN KDBQ 051050Z 17009KT 10SM CLR 11/06 A2974 1250 71 1100 170/09 RMK AO2 SLP067 T01060056
94908KDBQ DBQ20050405045511104/05/05 04:55:31  5-MIN KDBQ 051055Z 17009KT 10SM CLR 11/06 A2974 1250 71 1100 170/09 RMK AO2 SLP067 T01060056
94908KDBQ DBQ20050405050009404/05/05 05:00:31  5-MIN KDBQ 051100Z 17009KT 10SM CLR 11/06 A2974 1240 71 1000 160/09 RMK AO2
94908KDBQ DBQ20050405050509404/05/05 05:05:31  5-MIN KDBQ 051105Z 16009KT 10SM CLR 11/06 A2974 1240 68 1100 160/09 RMK AO2
94908KDBQ DBQ20050405051009404/05/05 05:10:31  5-MIN KDBQ 051110Z 16010KT 10SM CLR 11/06 A2974 1240 68 1100 160/10 RMK AO2
94908KDBQ DBQ20050405051509404/05/05 05:15:31  5-MIN KDBQ 051115Z 16009KT 10SM CLR 11/06 A2974 1240 68 1100 160/09 RMK AO2
94908KDBQ DBQ20050405052009404/05/05 05:20:31  5-MIN KDBQ 051120Z 16009KT 10SM CLR 11/06 A2975 1240 68 1100 160/09 RMK AO2
94908KDBQ DBQ20050405052509404/05/05 05:25:31  5-MIN KDBQ 051125Z 16009KT 10SM CLR 11/06 A2975 1240 68 1100 160/09 RMK AO2
94908KDBQ DBQ20050405053009404/05/05 05:30:31  5-MIN KDBQ 051130Z 16009KT 10SM CLR 11/06 A2975 1240 68 1100 160/09 RMK AO2
94908KDBQ DBQ20050405053509404/05/05 05:35:31  5-MIN KDBQ 051135Z 16010KT 10SM CLR 11/06 A2975 1240 71 1000 160/10 RMK AO2
94908KDBQ DBQ20050405054009404/05/05 05:40:31  5-MIN KDBQ 051140Z 17009KT 10SM CLR 11/06 A2975 1240 71 1000 160/09 RMK AO2
94908KDBQ DBQ20050405054509404/05/05 05:45:31  5-MIN KDBQ 051145Z 17008KT 10SM CLR 11/06 A2975 1230 71 1000 160/08 RMK AO2
94908KDBQ DBQ20050405055012904/05/05 05:50:31  5-MIN KDBQ 051150Z 16009KT 10SM CLR 11/06 A2975 1230 71 1000 160/09 RMK AO2 SLP073 T01060056 10133 20106 55002
94908KDBQ DBQ20050405055512904/05/05 05:55:31  5-MIN KDBQ 051155Z 17008KT 10SM CLR 11/06 A2976 1230 71 1000 170/08 RMK AO2 SLP074 T01060056 10133 20106 53008
94908KDBQ DBQ20050405060009404/05/05 06:00:31  5-MIN KDBQ 051200Z 17008KT 10SM CLR 11/06 A2976 1230 71 1000 170/08 RMK AO2
94908KDBQ DBQ20050405060509404/05/05 06:05:31  5-MIN KDBQ 051205Z 18007KT 10SM CLR 11/06 A2976 1230 71 1000 180/07 RMK AO2
94908KDBQ DBQ20050405061009404/05/05 06:10:31  5-MIN KDBQ 051210Z 18007KT 10SM CLR 11/06 A2976 1230 71 1000 180/07 RMK AO2
94908KDBQ DBQ20050405061509404/05/05 06:15:31  5-MIN KDBQ 051215Z 18006KT 10SM CLR 11/06 A2976 1230 71 1000 180/06 RMK AO2
94908KDBQ DBQ20050405062009404/05/05 06:20:31  5-MIN KDBQ 051220Z 18006KT 10SM CLR 11/06 A2976 1220 71 1000 180/06 RMK AO2
94908KDBQ DBQ20050405062509404/05/05 06:25:31  5-MIN KDBQ 051225Z 19006KT 10SM CLR 11/06 A2977 1220 71 1000 190/06 RMK AO2
94908KDBQ DBQ20050405063009404/05/05 06:30:31  5-MIN KDBQ 051230Z 19006KT 10SM CLR 11/06 A2977 1220 68 1100 190/06 RMK AO2
94908KDBQ DBQ20050405063509404/05/05 06:35:31  5-MIN KDBQ 051235Z 19005KT 10SM CLR 11/06 A2977 1220 71 1100 190/05 RMK AO2
94908KDBQ DBQ20050405064009404/05/05 06:40:31  5-MIN KDBQ 051240Z 19006KT 10SM CLR 11/06 A2977 1220 71 1100 190/06 RMK AO2
94908KDBQ DBQ20050405064509404/05/05 06:45:31  5-MIN KDBQ 051245Z 19007KT 10SM CLR 12/06 A2977 1220 68 1100 190/07 RMK AO2
94908KDBQ DBQ20050405065011104/05/05 06:50:31  5-MIN KDBQ 051250Z 19006KT 10SM CLR 12/06 A2977 1220 66 1200 190/06 RMK AO2 SLP079 T01220061
94908KDBQ DBQ20050405065511104/05/05 06:55:31  5-MIN KDBQ 051255Z 18009KT 10SM CLR 12/06 A2977 1220 66 1200 180/09 RMK AO2 SLP079 T01220061
94908KDBQ DBQ20050405070009404/05/05 07:00:31  5-MIN KDBQ 051300Z 19008KT 10SM CLR 12/06 A2977 1220 66 1200 190/08 RMK AO2
94908KDBQ DBQ20050405070509404/05/05 07:05:31  5-MIN KDBQ 051305Z 19008KT 10SM CLR 13/07 A2977 1220 66 1300 190/08 RMK AO2
94908KDBQ DBQ20050405071009404/05/05 07:10:31  5-MIN KDBQ 051310Z 19010KT 10SM CLR 13/07 A2977 1220 66 1300 180/10 RMK AO2
94908KDBQ DBQ20050405071509404/05/05 07:15:31  5-MIN KDBQ 051315Z 19009KT 10SM CLR 13/07 A2977 1220 64 1300 180/09 RMK AO2
94908KDBQ DBQ20050405072009404/05/05 07:20:31  5-MIN KDBQ 051320Z 19008KT 10SM CLR 13/07 A2977 1220 64 1300 190/08 RMK AO2
94908KDBQ DBQ20050405072509404/05/05 07:25:31  5-MIN KDBQ 051325Z 18009KT 10SM CLR 13/07 A2977 1220 64 1300 180/09 RMK AO2
94908KDBQ DBQ20050405073009404/05/05 07:30:31  5-MIN KDBQ 051330Z 19010KT 10SM CLR 14/07 A2977 1220 61 1400 190/10 RMK AO2
94908KDBQ DBQ20050405073509404/05/05 07:35:31  5-MIN KDBQ 051335Z 18010KT 10SM CLR 14/07 A2977 1220 64 1400 180/10 RMK AO2
94908KDBQ DBQ20050405074009404/05/05 07:40:31  5-MIN KDBQ 051340Z 18010KT 10SM CLR 14/07 A2977 1220 61 1500 180/10 RMK AO2
94908KDBQ DBQ20050405074509404/05/05 07:45:31  5-MIN KDBQ 051345Z 18010KT 10SM CLR 14/07 A2977 1220 61 1500 180/10 RMK AO2
94908KDBQ DBQ20050405075011104/05/05 07:50:31  5-MIN KDBQ 051350Z 18010KT 10SM CLR 15/07 A2977 1220 59 1500 180/10 RMK AO2 SLP079 T01500072
94908KDBQ DBQ20050405075511104/05/05 07:55:31  5-MIN KDBQ 051355Z 19012KT 10SM CLR 15/07 A2977 1220 59 1500 190/12 RMK AO2 SLP080 T01500072
94908KDBQ DBQ20050405080009404/05/05 08:00:31  5-MIN KDBQ 051400Z 18012KT 10SM CLR 15/07 A2977 1220 59 1500 180/12 RMK AO2
94908KDBQ DBQ20050405080509404/05/05 08:05:31  5-MIN KDBQ 051405Z 18012KT 10SM CLR 15/08 A2977 1220 62 1500 180/12 RMK AO2
94908KDBQ DBQ20050405081009404/05/05 08:10:31  5-MIN KDBQ 051410Z 19012KT 10SM CLR 16/08 A2977 1220 59 1600 190/12 RMK AO2
94908KDBQ DBQ20050405081509404/05/05 08:15:31  5-MIN KDBQ 051415Z 19013KT 10SM CLR 16/08 A2977 1210 59 1600 190/13 RMK AO2
94908KDBQ DBQ20050405082009404/05/05 08:20:31  5-MIN KDBQ 051420Z 20013KT 10SM CLR 16/08 A2978 1210 59 1600 190/13 RMK AO2
94908KDBQ DBQ20050405082509404/05/05 08:25:31  5-MIN KDBQ 051425Z 18011KT 10SM CLR 16/08 A2978 1210 59 1700 180/11 RMK AO2
94908KDBQ DBQ20050405083009404/05/05 08:30:31  5-MIN KDBQ 051430Z 19013KT 10SM CLR 16/08 A2978 1210 59 1700 190/13 RMK AO2
94908KDBQ DBQ20050405083509404/05/05 08:35:31  5-MIN KDBQ 051435Z 19012KT 10SM CLR 16/08 A2978 1210 59 1700 190/12 RMK AO2
94908KDBQ DBQ20050405084009404/05/05 08:40:31  5-MIN KDBQ 051440Z 19011KT 10SM CLR 16/08 A2978 1210 59 1700 190/11 RMK AO2
94908KDBQ DBQ20050405084509404/05/05 08:45:31  5-MIN KDBQ 051445Z 19011KT 10SM CLR 17/08 A2978 1210 57 1700 190/11 RMK AO2
94908KDBQ DBQ20050405085011704/05/05 08:50:31  5-MIN KDBQ 051450Z 19012KT 10SM CLR 17/09 A2978 1210 60 1700 190/12 RMK AO2 SLP083 T01670089 53008
94908KDBQ DBQ20050405085511704/05/05 08:55:31  5-MIN KDBQ 051455Z 19013KT 10SM CLR 17/09 A2978 1210 60 1700 190/13 RMK AO2 SLP083 T01670089 53008
94908KDBQ DBQ20050405090009404/05/05 09:00:31  5-MIN KDBQ 051500Z 19014KT 10SM CLR 17/09 A2978 1210 60 1700 190/14 RMK AO2
94908KDBQ DBQ20050405090509704/05/05 09:05:31  5-MIN KDBQ 051505Z 19011KT 10SM FEW034 17/09 A2978 1200 60 1800 180/11 RMK AO2
94908KDBQ DBQ20050405091009704/05/05 09:10:31  5-MIN KDBQ 051510Z 19013KT 10SM SCT034 17/09 A2978 1200 60 1800 190/13 RMK AO2
94908KDBQ DBQ20050405091509704/05/05 09:15:31  5-MIN KDBQ 051515Z 20011KT 10SM SCT034 18/09 A2978 1200 58 1800 200/11 RMK AO2
94908KDBQ DBQ20050405092009704/05/05 09:20:31  5-MIN KDBQ 051520Z 19013KT 10SM BKN034 18/09 A2979 1200 58 1800 190/13 RMK AO2
94908KDBQ DBQ20050405092509704/05/05 09:25:31  5-MIN KDBQ 051525Z 20012KT 10SM BKN034 18/09 A2979 1200 58 1800 190/12 RMK AO2
94908KDBQ DBQ20050405093009704/05/05 09:30:31  5-MIN KDBQ 051530Z 18014KT 10SM BKN034 18/09 A2979 1200 58 1800 180/14 RMK AO2
94908KDBQ DBQ20050405093509704/05/05 09:35:31  5-MIN KDBQ 051535Z 19015KT 10SM BKN034 18/09 A2979 1200 56 1900 190/15 RMK AO2
94908KDBQ DBQ20050405094009704/05/05 09:40:31  5-MIN KDBQ 051540Z 19014KT 10SM BKN034 18/09 A2979 1200 58 1800 190/14 RMK AO2
94908KDBQ DBQ20050405094509704/05/05 09:45:31  5-MIN KDBQ 051545Z 18013KT 10SM BKN034 18/09 A2979 1200 56 1900 180/13 RMK AO2
94908KDBQ DBQ20050405095011404/05/05 09:50:31  5-MIN KDBQ 051550Z 18012KT 10SM BKN036 18/10 A2979 1200 58 1900 180/12 RMK AO2 SLP085 T01830100
94908KDBQ DBQ20050405095511404/05/05 09:55:31  5-MIN KDBQ 051555Z 18013KT 10SM OVC036 18/10 A2979 1200 58 1900 180/13 RMK AO2 SLP086 T01830100
94908KDBQ DBQ20050405100009704/05/05 10:00:31  5-MIN KDBQ 051600Z 18011KT 10SM OVC036 18/10 A2979 1200 60 1800 180/11 RMK AO2
94908KDBQ DBQ20050405100509704/05/05 10:05:31  5-MIN KDBQ 051605Z 18012KT 10SM OVC034 18/10 A2979 1200 58 1900 180/12 RMK AO2
94908KDBQ DBQ20050405101009704/05/05 10:10:31  5-MIN KDBQ 051610Z 18012KT 10SM OVC034 19/11 A2979 1200 58 2000 180/12 RMK AO2
94908KDBQ DBQ20050405101511104/05/05 10:15:31  5-MIN KDBQ 051615Z 22015G19KT 10SM BKN030 OVC038 18/11  A2979 1200 60 1900 210/15G19 RMK AO2
94908KDBQ DBQ20050405102010504/05/05 10:20:31  5-MIN KDBQ 051620Z 21012KT 10SM BKN030 OVC038 18/11  A2979 1190 60 1900 210/12 RMK AO2
94908KDBQ DBQ20050405102510504/05/05 10:25:31  5-MIN KDBQ 051625Z 19011KT 10SM BKN030 OVC038 19/11  A2980 1190 58 2000 190/11 RMK AO2
94908KDBQ DBQ20050405103010404/05/05 10:30:31  5-MIN KDBQ 051630Z 20016G20KT 10SM OVC030 18/11 A2980  1190 60 1900 200/16G20 RMK AO2
94908KDBQ DBQ20050405103510404/05/05 10:35:31  5-MIN KDBQ 051635Z 20014G20KT 10SM OVC030 18/11 A2980  1190 60 1900 200/14G20 RMK AO2
94908KDBQ DBQ20050405104009704/05/05 10:40:31  5-MIN KDBQ 051640Z 21014KT 10SM OVC030 18/11 A2979 1200 60 1900 210/14 RMK AO2
94908KDBQ DBQ20050405104509704/05/05 10:45:31  5-MIN KDBQ 051645Z 21013KT 10SM OVC030 19/11 A2979 1200 60 2000 210/13 RMK AO2
94908KDBQ DBQ20050405105012204/05/05 10:50:31  5-MIN KDBQ 051650Z 21012KT 10SM BKN030 OVC042 19/11  A2980 1190 60 2000 210/12 RMK AO2 SLP087 T01890111
94908KDBQ DBQ20050405105512204/05/05 10:55:31  5-MIN KDBQ 051655Z 19011KT 10SM BKN030 OVC042 19/11  A2980 1190 60 2000 180/11 RMK AO2 SLP087 T01890111
94908KDBQ DBQ20050405110010504/05/05 11:00:31  5-MIN KDBQ 051700Z 18011KT 10SM BKN030 OVC042 19/11  A2979 1200 56 2000 180/11 RMK AO2
94908KDBQ DBQ20050405110510504/05/05 11:05:31  5-MIN KDBQ 051705Z 19009KT 10SM BKN030 OVC042 19/11  A2979 1200 60 2000 190/09 RMK AO2
94908KDBQ DBQ20050405111010504/05/05 11:10:31  5-MIN KDBQ 051710Z 21011KT 10SM SCT030 OVC042 19/11  A2979 1200 58 2000 210/11 RMK AO2
94908KDBQ DBQ20050405111511104/05/05 11:15:31  5-MIN KDBQ 051715Z 19013G17KT 10SM FEW030 OVC042 19/11  A2979 1200 58 2000 190/13G17 RMK AO2
94908KDBQ DBQ20050405112010504/05/05 11:20:31  5-MIN KDBQ 051720Z 19013KT 10SM FEW030 OVC042 20/11  A2979 1200 56 2100 190/13 RMK AO2
94908KDBQ DBQ20050405112510504/05/05 11:25:31  5-MIN KDBQ 051725Z 19010KT 10SM FEW030 OVC042 20/12  A2979 1200 58 2100 190/10 RMK AO2
94908KDBQ DBQ20050405113010504/05/05 11:30:31  5-MIN KDBQ 051730Z 21013KT 10SM FEW030 OVC044 21/12  A2978 1200 56 2200 200/13 RMK AO2
94908KDBQ DBQ20050405113510504/05/05 11:35:31  5-MIN KDBQ 051735Z 20012KT 10SM FEW033 OVC044 21/12  A2978 1210 56 2200 200/12 RMK AO2
94908KDBQ DBQ20050405114010504/05/05 11:40:31  5-MIN KDBQ 051740Z 20012KT 10SM FEW035 OVC044 21/12  A2978 1210 56 2200 200/12 RMK AO2
94908KDBQ DBQ20050405114509704/05/05 11:45:31  5-MIN KDBQ 051745Z 21013KT 10SM OVC042 21/12 A2978 1210 56 2200 210/13 RMK AO2
94908KDBQ DBQ20050405115013204/05/05 11:50:31  5-MIN KDBQ 051750Z 21014KT 10SM OVC042 21/12 A2978 1210 56 2200 210/14 RMK AO2 SLP082 T02110122 10211 20106 53008
94908KDBQ DBQ20050405115514004/05/05 11:55:31  5-MIN KDBQ 051755Z 19014KT 10SM SCT037 OVC044 21/12  A2978 1210 56 2200 190/14 RMK AO2 SLP081 T02060117 10211 20106 58002
94908KDBQ DBQ20050405120009704/05/05 12:00:31  5-MIN KDBQ 051800Z 20013KT 10SM OVC042 21/12 A2978 1210 54 2200 200/13 RMK AO2
94908KDBQ DBQ20050405120510404/05/05 12:05:31  5-MIN KDBQ 051805Z 18015G23KT 10SM BKN042 22/12 A2977  1210 52 2300 180/15G23 RMK AO2
94908KDBQ DBQ20050405121010404/05/05 12:10:31  5-MIN KDBQ 051810Z 20015G23KT 10SM BKN042 21/12 A2978  1210 54 2200 200/15G23 RMK AO2
94908KDBQ DBQ20050405121509704/05/05 12:15:31  5-MIN KDBQ 051815Z 19013KT 10SM BKN040 21/12 A2978 1210 54 2200 190/13 RMK AO2
94908KDBQ DBQ20050405122009704/05/05 12:20:31  5-MIN KDBQ 051820Z 18016KT 10SM BKN040 21/12 A2978 1210 54 2200 180/16 RMK AO2
94908KDBQ DBQ20050405122510404/05/05 12:25:31  5-MIN KDBQ 051825Z 18015G21KT 10SM BKN040 21/12 A2978  1210 54 2200 180/15G21 RMK AO2
94908KDBQ DBQ20050405123010404/05/05 12:30:31  5-MIN KDBQ 051830Z 20014G21KT 10SM BKN042 22/12 A2978  1210 51 2400 200/14G21 RMK AO2
94908KDBQ DBQ20050405123509704/05/05 12:35:31  5-MIN KDBQ 051835Z 21016KT 10SM BKN042 22/12 A2978 1210 52 2300 210/16 RMK AO2
94908KDBQ DBQ20050405124009704/05/05 12:40:31  5-MIN KDBQ 051840Z 19014KT 10SM BKN042 22/12 A2978 1210 51 2400 190/14 RMK AO2
94908KDBQ DBQ20050405124509704/05/05 12:45:31  5-MIN KDBQ 051845Z 18013KT 10SM BKN044 22/12 A2978 1210 51 2400 180/13 RMK AO2
94908KDBQ DBQ20050405125012104/05/05 12:50:31  5-MIN KDBQ 051850Z 21014G21KT 10SM BKN044 22/12 A2978  1210 51 2400 210/14G21 RMK AO2 SLP080 T02220117
94908KDBQ DBQ20050405125512104/05/05 12:55:31  5-MIN KDBQ 051855Z 21015G21KT 10SM BKN044 22/12 A2978  1210 52 2300 200/15G21 RMK AO2 SLP081 T02170117
94908KDBQ DBQ20050405130010404/05/05 13:00:31  5-MIN KDBQ 051900Z 20016G23KT 10SM BKN044 22/11 A2977  1210 49 2400 200/16G23 RMK AO2
94908KDBQ DBQ20050405130510404/05/05 13:05:31  5-MIN KDBQ 051905Z 20012G23KT 10SM SCT044 22/12 A2978  1210 52 2300 200/12G23 RMK AO2
94908KDBQ DBQ20050405131009704/05/05 13:10:31  5-MIN KDBQ 051910Z 20014KT 10SM SCT044 22/12 A2978 1210 51 2400 190/14 RMK AO2
94908KDBQ DBQ20050405131510404/05/05 13:15:31  5-MIN KDBQ 051915Z 19012G22KT 10SM SCT044 23/12 A2977  1210 49 2400 190/12G22 RMK AO2
94908KDBQ DBQ20050405132010404/05/05 13:20:31  5-MIN KDBQ 051920Z 21014G22KT 10SM SCT046 23/12 A2977  1210 49 2400 210/14G22 RMK AO2
94908KDBQ DBQ20050405132510404/05/05 13:25:31  5-MIN KDBQ 051925Z 17013G19KT 10SM SCT046 22/11 A2977  1220 49 2400 170/13G19 RMK AO2
94908KDBQ DBQ20050405133009704/05/05 13:30:31  5-MIN KDBQ 051930Z 18014KT 10SM BKN046 22/11 A2977 1220 49 2400 180/14 RMK AO2
94908KDBQ DBQ20050405133509704/05/05 13:35:31  5-MIN KDBQ 051935Z 19012KT 10SM SCT044 22/11 A2977 1220 49 2400 190/12 RMK AO2
94908KDBQ DBQ20050405134009704/05/05 13:40:31  5-MIN KDBQ 051940Z 19010KT 10SM BKN044 23/12 A2977 1220 49 2400 190/10 RMK AO2
94908KDBQ DBQ20050405134510404/05/05 13:45:31  5-MIN KDBQ 051945Z 21016G21KT 10SM BKN046 23/12 A2977  1220 49 2500 210/16G21 RMK AO2
94908KDBQ DBQ20050405135012104/05/05 13:50:31  5-MIN KDBQ 051950Z 19013G21KT 10SM BKN046 23/12 A2977  1220 47 2500 190/13G21 RMK AO2 SLP076 T02330117
94908KDBQ DBQ20050405135511404/05/05 13:55:31  5-MIN KDBQ 051955Z 18011KT 10SM BKN046 23/12 A2977 1220 47 2500 180/11 RMK AO2 SLP077 T02330117
94908KDBQ DBQ20050405140009704/05/05 14:00:31  5-MIN KDBQ 052000Z 20014KT 10SM BKN046 24/12 A2976 1220 46 2600 200/14 RMK AO2
94908KDBQ DBQ20050405140509704/05/05 14:05:31  5-MIN KDBQ 052005Z 19014KT 10SM BKN046 23/12 A2977 1220 47 2500 180/14 RMK AO2
94908KDBQ DBQ20050405141009704/05/05 14:10:31  5-MIN KDBQ 052010Z 19015KT 10SM BKN046 24/12 A2977 1220 46 2600 190/15 RMK AO2
94908KDBQ DBQ20050405141509704/05/05 14:15:31  5-MIN KDBQ 052015Z 18010KT 10SM BKN046 23/12 A2977 1220 47 2500 180/10 RMK AO2
94908KDBQ DBQ20050405142009704/05/05 14:20:31  5-MIN KDBQ 052020Z 20015KT 10SM BKN048 24/12 A2977 1220 46 2600 200/15 RMK AO2
94908KDBQ DBQ20050405142509704/05/05 14:25:31  5-MIN KDBQ 052025Z 21015KT 10SM BKN048 23/12 A2977 1220 47 2500 210/15 RMK AO2
94908KDBQ DBQ20050405143009704/05/05 14:30:31  5-MIN KDBQ 052030Z 21018KT 10SM BKN048 24/12 A2977 1220 46 2600 200/18 RMK AO2
94908KDBQ DBQ20050405143510404/05/05 14:35:31  5-MIN KDBQ 052035Z 20016G23KT 10SM SCT048 24/12 A2977  1220 46 2600 200/16G23 RMK AO2
94908KDBQ DBQ20050405144010404/05/05 14:40:31  5-MIN KDBQ 052040Z 21015G23KT 10SM FEW048 24/12 A2976  1220 46 2600 210/15G23 RMK AO2
94908KDBQ DBQ20050405144509704/05/05 14:45:31  5-MIN KDBQ 052045Z 19014KT 10SM FEW048 23/11 A2977 1220 47 2400 190/14 RMK AO2
94908KDBQ DBQ20050405145012704/05/05 14:50:31  5-MIN KDBQ 052050Z 21014G22KT 10SM SCT050 24/12 A2976  1220 46 2600 210/14G22 RMK AO2 SLP076 T02390117 58002
94908KDBQ DBQ20050405145512704/05/05 14:55:31  5-MIN KDBQ 052055Z 20018G22KT 10SM FEW050 24/12 A2977  1220 46 2600 200/18G22 RMK AO2 SLP076 T02390117 57004
94908KDBQ DBQ20050405150010404/05/05 15:00:31  5-MIN KDBQ 052100Z 21019G22KT 10SM FEW050 24/11 A2977  1220 44 2600 200/19G22 RMK AO2
94908KDBQ DBQ20050405150510404/05/05 15:05:31  5-MIN KDBQ 052105Z 20016G22KT 10SM FEW050 23/11 A2977  1220 45 2500 200/16G22 RMK AO2
94908KDBQ DBQ20050405151009704/05/05 15:10:31  5-MIN KDBQ 052110Z 19014KT 10SM FEW050 23/11 A2977 1220 45 2500 190/14 RMK AO2
94908KDBQ DBQ20050405151509704/05/05 15:15:31  5-MIN KDBQ 052115Z 23016KT 10SM FEW050 23/12 A2977 1220 47 2500 220/16 RMK AO2
94908KDBQ DBQ20050405152009704/05/05 15:20:31  5-MIN KDBQ 052120Z 19013KT 10SM SCT050 23/12 A2977 1220 49 2400 190/13 RMK AO2
94908KDBQ DBQ20050405152509704/05/05 15:25:31  5-MIN KDBQ 052125Z 19011KT 10SM SCT050 24/12 A2977 1220 46 2600 180/11 RMK AO2
94908KDBQ DBQ20050405153009704/05/05 15:30:31  5-MIN KDBQ 052130Z 21014KT 10SM BKN050 24/12 A2977 1220 44 2600 210/14 RMK AO2
94908KDBQ DBQ20050405153509704/05/05 15:35:31  5-MIN KDBQ 052135Z 20015KT 10SM BKN050 24/12 A2977 1220 46 2600 200/15 RMK AO2
94908KDBQ DBQ20050405154010404/05/05 15:40:31  5-MIN KDBQ 052140Z 21015G20KT 10SM BKN050 23/12 A2977  1220 47 2500 210/15G20 RMK AO2
94908KDBQ DBQ20050405154510404/05/05 15:45:31  5-MIN KDBQ 052145Z 20014G20KT 10SM BKN050 23/11 A2977  1220 47 2400 200/14G20 RMK AO2
94908KDBQ DBQ20050405155011404/05/05 15:50:31  5-MIN KDBQ 052150Z 20009KT 10SM BKN050 23/11 A2977 1220 45 2500 200/09 RMK AO2 SLP080 T02330111
94908KDBQ DBQ20050405155511404/05/05 15:55:31  5-MIN KDBQ 052155Z 23016KT 10SM BKN050 24/12 A2977 1220 46 2600 230/16 RMK AO2 SLP077 T02390117
94908KDBQ DBQ20050405160009704/05/05 16:00:31  5-MIN KDBQ 052200Z 23014KT 10SM SCT050 23/11 A2977 1220 45 2500 220/14 RMK AO2
94908KDBQ DBQ20050405160509704/05/05 16:05:31  5-MIN KDBQ 052205Z 21012KT 10SM FEW050 23/11 A2977 1220 45 2500 210/12 RMK AO2
94908KDBQ DBQ20050405161009704/05/05 16:10:31  5-MIN KDBQ 052210Z 22013KT 10SM FEW050 23/11 A2977 1220 45 2500 210/13 RMK AO2
94908KDBQ DBQ20050405161509704/05/05 16:15:31  5-MIN KDBQ 052215Z 22010KT 10SM FEW050 23/12 A2977 1220 47 2500 220/10 RMK AO2
94908KDBQ DBQ20050405162009404/05/05 16:20:31  5-MIN KDBQ 052220Z 21010KT 10SM CLR 23/12 A2977 1210 47 2500 210/10 RMK AO2
94908KDBQ DBQ20050405162509404/05/05 16:25:31  5-MIN KDBQ 052225Z 22012KT 10SM CLR 23/12 A2978 1210 47 2500 220/12 RMK AO2
94908KDBQ DBQ20050405163009404/05/05 16:30:31  5-MIN KDBQ 052230Z 21011KT 10SM CLR 23/11 A2978 1210 47 2400 210/11 RMK AO2
94908KDBQ DBQ20050405163509404/05/05 16:35:31  5-MIN KDBQ 052235Z 21010KT 10SM CLR 23/12 A2978 1210 49 2400 210/10 RMK AO2
94908KDBQ DBQ20050405164009404/05/05 16:40:31  5-MIN KDBQ 052240Z 21010KT 10SM CLR 23/11 A2978 1210 47 2400 210/10 RMK AO2
94908KDBQ DBQ20050405164509404/05/05 16:45:31  5-MIN KDBQ 052245Z 20013KT 10SM CLR 23/12 A2978 1210 49 2400 200/13 RMK AO2
94908KDBQ DBQ20050405165011104/05/05 16:50:31  5-MIN KDBQ 052250Z 20014KT 10SM CLR 23/12 A2978 1210 49 2400 200/14 RMK AO2 SLP083 T02280117
94908KDBQ DBQ20050405165511104/05/05 16:55:31  5-MIN KDBQ 052255Z 19012KT 10SM CLR 23/11 A2978 1210 47 2400 190/12 RMK AO2 SLP083 T02280111
94908KDBQ DBQ20050405170009404/05/05 17:00:31  5-MIN KDBQ 052300Z 20010KT 10SM CLR 23/11 A2979 1200 47 2400 200/10 RMK AO2
94908KDBQ DBQ20050405170509404/05/05 17:05:31  5-MIN KDBQ 052305Z 19011KT 10SM CLR 23/12 A2979 1200 49 2400 190/11 RMK AO2
94908KDBQ DBQ20050405171009404/05/05 17:10:31  5-MIN KDBQ 052310Z 21012KT 10SM CLR 23/11 A2979 1200 47 2400 210/12 RMK AO2
94908KDBQ DBQ20050405171509704/05/05 17:15:31  5-MIN KDBQ 052315Z 21012KT 10SM FEW055 23/11 A2979 1200 47 2400 210/12 RMK AO2
94908KDBQ DBQ20050405172009704/05/05 17:20:31  5-MIN KDBQ 052320Z 21010KT 10SM FEW055 22/11 A2979 1200 49 2400 210/10 RMK AO2
94908KDBQ DBQ20050405172509404/05/05 17:25:31  5-MIN KDBQ 052325Z 21008KT 10SM CLR 22/12 A2980 1190 52 2300 210/08 RMK AO2
94908KDBQ DBQ20050405173009404/05/05 17:30:31  5-MIN KDBQ 052330Z 22008KT 10SM CLR 22/11 A2980 1190 50 2300 210/08 RMK AO2
94908KDBQ DBQ20050405173509404/05/05 17:35:31  5-MIN KDBQ 052335Z 21008KT 10SM CLR 21/11 A2980 1190 52 2200 210/08 RMK AO2
94908KDBQ DBQ20050405174009404/05/05 17:40:31  5-MIN KDBQ 052340Z 21008KT 10SM CLR 21/12 A2980 1190 54 2200 210/08 RMK AO2
94908KDBQ DBQ20050405174509404/05/05 17:45:31  5-MIN KDBQ 052345Z 21008KT 10SM CLR 21/12 A2980 1190 54 2200 210/08 RMK AO2
94908KDBQ DBQ20050405175012904/05/05 17:50:31  5-MIN KDBQ 052350Z 21008KT 10SM CLR 21/11 A2981 1180 52 2200 210/08 RMK AO2 SLP092 T02110111 10244 20206 57004
94908KDBQ DBQ20050405175513204/05/05 17:55:31  5-MIN KDBQ 052355Z 21008KT 10SM FEW055 21/11 A2981 1180 54 2100 210/08 RMK AO2 SLP093 T02060111 10244 20206 53014
94908KDBQ DBQ20050405180009704/05/05 18:00:31  5-MIN KDBQ 060000Z 21007KT 10SM FEW055 21/11 A2981 1180 54 2100 210/07 RMK AO2
94908KDBQ DBQ20050405180509704/05/05 18:05:31  5-MIN KDBQ 060005Z 21007KT 10SM FEW055 20/11 A2981 1180 56 2100 210/07 RMK AO2
94908KDBQ DBQ20050405181009704/05/05 18:10:31  5-MIN KDBQ 060010Z 21006KT 9SM SCT055 20/12 A2982 1170  58 2100 210/06 RMK AO2
94908KDBQ DBQ20050405181509704/05/05 18:15:31  5-MIN KDBQ 060015Z 21006KT 8SM BKN055 20/12 A2982 1170  58 2100 210/06 RMK AO2
94908KDBQ DBQ20050405182009704/05/05 18:20:31  5-MIN KDBQ 060020Z 21006KT 8SM BKN055 20/12 A2983 1170  58 2100 210/06 RMK AO2
94908KDBQ DBQ20050405182509704/05/05 18:25:31  5-MIN KDBQ 060025Z 22006KT 8SM BKN055 20/12 A2983 1160  58 2100 220/06 RMK AO2
94908KDBQ DBQ20050405183009704/05/05 18:30:31  5-MIN KDBQ 060030Z 22005KT 9SM OVC055 20/12 A2983 1160  58 2100 210/05 RMK AO2
94908KDBQ DBQ20050405183509704/05/05 18:35:31  5-MIN KDBQ 060035Z 21003KT 8SM OVC055 20/12 A2983 1160  58 2000 210/03 RMK AO2
94908KDBQ DBQ20050405184009704/05/05 18:40:31  5-MIN KDBQ 060040Z 22003KT 8SM OVC055 20/12 A2984 1160  58 2000 210/03 RMK AO2
94908KDBQ DBQ20050405184510704/05/05 18:45:31  5-MIN KDBQ 060045Z AUTO 21004KT 8SM OVC055 20/12 A2984  1150 58 2000 210/04 RMK AO2 TSNO
94908KDBQ DBQ20050405185012404/05/05 18:50:31  5-MIN KDBQ 060050Z AUTO 22004KT 8SM OVC055 20/12 A2984  1150 58 2000 220/04 RMK AO2 SLP104 T02000117 TSNO
94908KDBQ DBQ20050405185512404/05/05 18:55:31  5-MIN KDBQ 060055Z AUTO 00000KT 9SM OVC055 19/12 A2984  1150 60 2000 000/00 RMK AO2 SLP104 T01940117 TSNO
94908KDBQ DBQ20050405190010704/05/05 19:00:31  5-MIN KDBQ 060100Z AUTO 00000KT 9SM OVC055 19/12 A2985  1150 60 2000 000/00 RMK AO2 TSNO
94908KDBQ DBQ20050405190510704/05/05 19:05:31  5-MIN KDBQ 060105Z AUTO 00000KT 8SM OVC055 19/12 A2985  1150 60 2000 000/00 RMK AO2 TSNO
94908KDBQ DBQ20050405191010704/05/05 19:10:31  5-MIN KDBQ 060110Z AUTO 00000KT 9SM OVC055 19/12 A2985  1140 60 2000 000/00 RMK AO2 TSNO
94908KDBQ DBQ20050405191510704/05/05 19:15:31  5-MIN KDBQ 060115Z AUTO 00000KT 9SM OVC055 19/11 A2985  1140 58 2000 000/00 RMK AO2 TSNO
94908KDBQ DBQ20050405192010704/05/05 19:20:31  5-MIN KDBQ 060120Z AUTO 00000KT 10SM OVC060 19/11 A2985 1140 58 2000 000/00 RMK AO2 TSNO
94908KDBQ DBQ20050405192510704/05/05 19:25:31  5-MIN KDBQ 060125Z AUTO 00000KT 10SM OVC060 19/11 A2986 1140 58 2000 000/00 RMK AO2 TSNO
94908KDBQ DBQ20050405193010704/05/05 19:30:31  5-MIN KDBQ 060130Z AUTO 00000KT 9SM OVC060 19/11 A2986  1140 60 1900 000/00 RMK AO2 TSNO
94908KDBQ DBQ20050405193510704/05/05 19:35:31  5-MIN KDBQ 060135Z AUTO 00000KT 9SM OVC060 19/11 A2986  1130 60 1900 000/00 RMK AO2 TSNO
94908KDBQ DBQ20050405194010704/05/05 19:40:31  5-MIN KDBQ 060140Z AUTO 00000KT 9SM OVC060 18/11 A2986  1130 62 1800 000/00 RMK AO2 TSNO
94908KDBQ DBQ20050405194510704/05/05 19:45:31  5-MIN KDBQ 060145Z AUTO 00000KT 9SM OVC060 19/11 A2986  1130 60 1900 000/00 RMK AO2 TSNO
94908KDBQ DBQ20050405195012404/05/05 19:50:31  5-MIN KDBQ 060150Z AUTO 00000KT 10SM OVC060 19/11 A2987 1130 60 1900 000/00 RMK AO2 SLP112 T01890111 TSNO
94908KDBQ DBQ20050405195512404/05/05 19:55:31  5-MIN KDBQ 060155Z AUTO 00000KT 10SM OVC060 18/11 A2987 1130 62 1800 000/00 RMK AO2 SLP113 T01830111 TSNO
94908KDBQ DBQ20050405200010704/05/05 20:00:31  5-MIN KDBQ 060200Z AUTO 00000KT 9SM OVC060 18/11 A2987  1120 62 1800 000/00 RMK AO2 TSNO
94908KDBQ DBQ20050405200510704/05/05 20:05:31  5-MIN KDBQ 060205Z AUTO 27003KT 9SM OVC060 18/12 A2987  1120 65 1800 270/03 RMK AO2 TSNO
94908KDBQ DBQ20050405201010704/05/05 20:10:31  5-MIN KDBQ 060210Z AUTO 25003KT 9SM OVC060 18/12 A2988  1120 67 1700 250/03 RMK AO2 TSNO
94908KDBQ DBQ20050405201510704/05/05 20:15:31  5-MIN KDBQ 060215Z AUTO 24003KT 10SM OVC060 18/11 A2988 1120 62 1800 240/03 RMK AO2 TSNO
94908KDBQ DBQ20050405202010704/05/05 20:20:31  5-MIN KDBQ 060220Z AUTO 25003KT 10SM OVC060 18/12 A2988 1120 65 1800 250/03 RMK AO2 TSNO
94908KDBQ DBQ20050405202510704/05/05 20:25:31  5-MIN KDBQ 060225Z AUTO 00000KT 10SM OVC060 18/11 A2988 1120 62 1800 000/00 RMK AO2 TSNO
94908KDBQ DBQ20050405203010704/05/05 20:30:31  5-MIN KDBQ 060230Z AUTO 00000KT 10SM OVC060 18/11 A2988 1120 62 1800 000/00 RMK AO2 TSNO
94908KDBQ DBQ20050405203510704/05/05 20:35:31  5-MIN KDBQ 060235Z AUTO 20003KT 10SM OVC060 18/12 A2988 1120 67 1700 190/03 RMK AO2 TSNO
94908KDBQ DBQ20050405204010704/05/05 20:40:31  5-MIN KDBQ 060240Z AUTO 21003KT 9SM OVC065 18/11 A2988  1120 64 1700 200/03 RMK AO2 TSNO
94908KDBQ DBQ20050405204510704/05/05 20:45:31  5-MIN KDBQ 060245Z AUTO 21003KT 10SM OVC065 18/11 A2988 1120 62 1800 210/03 RMK AO2 TSNO
94908KDBQ DBQ20050405205013004/05/05 20:50:31  5-MIN KDBQ 060250Z AUTO 00000KT 10SM OVC065 18/11 A2988 1110 62 1800 000/00 RMK AO2 SLP116 T01830111 53014 TSNO
94908KDBQ DBQ20050405205513004/05/05 20:55:31  5-MIN KDBQ 060255Z AUTO 00000KT 10SM OVC065 18/11 A2988 1120 62 1800 000/00 RMK AO2 SLP115 T01830111 51023 TSNO
94908KDBQ DBQ20050405210010704/05/05 21:00:31  5-MIN KDBQ 060300Z AUTO 25003KT 10SM OVC065 18/11 A2988 1120 64 1700 250/03 RMK AO2 TSNO
94908KDBQ DBQ20050405210510704/05/05 21:05:31  5-MIN KDBQ 060305Z AUTO 00000KT 10SM OVC065 17/12 A2988 1120 69 1700 000/00 RMK AO2 TSNO
94908KDBQ DBQ20050405211010704/05/05 21:10:31  5-MIN KDBQ 060310Z AUTO 00000KT 9SM OVC065 17/12 A2988  1120 69 1700 000/00 RMK AO2 TSNO
94908KDBQ DBQ20050405211510704/05/05 21:15:31  5-MIN KDBQ 060315Z AUTO 00000KT 9SM OVC065 17/11 A2988  1120 67 1700 000/00 RMK AO2 TSNO
94908KDBQ DBQ20050405212010704/05/05 21:20:31  5-MIN KDBQ 060320Z AUTO 00000KT 9SM OVC065 17/11 A2988  1120 67 1700 000/00 RMK AO2 TSNO
94908KDBQ DBQ20050405212510704/05/05 21:25:31  5-MIN KDBQ 060325Z AUTO 00000KT 9SM OVC065 17/11 A2988  1120 67 1700 000/00 RMK AO2 TSNO
94908KDBQ DBQ20050405213010704/05/05 21:30:31  5-MIN KDBQ 060330Z AUTO 00000KT 10SM OVC065 17/11 A2988 1120 67 1700 000/00 RMK AO2 TSNO
94908KDBQ DBQ20050405213510704/05/05 21:35:31  5-MIN KDBQ 060335Z AUTO 00000KT 10SM OVC065 17/11 A2988 1120 67 1700 000/00 RMK AO2 TSNO
94908KDBQ DBQ20050405214010704/05/05 21:40:31  5-MIN KDBQ 060340Z AUTO 00000KT 10SM OVC065 17/11 A2988 1120 67 1700 000/00 RMK AO2 TSNO
94908KDBQ DBQ20050405214510704/05/05 21:45:31  5-MIN KDBQ 060345Z AUTO 00000KT 10SM OVC065 17/11 A2988 1120 67 1700 000/00 RMK AO2 TSNO
94908KDBQ DBQ20050405215012404/05/05 21:50:31  5-MIN KDBQ 060350Z AUTO 19003KT 10SM OVC065 17/11 A2988 1120 67 1700 190/03 RMK AO2 SLP115 T01720111 TSNO
94908KDBQ DBQ20050405215512404/05/05 21:55:31  5-MIN KDBQ 060355Z AUTO 19003KT 10SM OVC065 17/11 A2988 1120 67 1700 190/03 RMK AO2 SLP114 T01720111 TSNO
94908KDBQ DBQ20050405220010704/05/05 22:00:31  5-MIN KDBQ 060400Z AUTO 00000KT 10SM OVC070 17/11 A2988 1120 67 1700 000/00 RMK AO2 TSNO
94908KDBQ DBQ20050405220510704/05/05 22:05:31  5-MIN KDBQ 060405Z AUTO 00000KT 10SM OVC070 17/11 A2988 1120 67 1700 000/00 RMK AO2 TSNO
94908KDBQ DBQ20050405221010704/05/05 22:10:31  5-MIN KDBQ 060410Z AUTO 00000KT 9SM OVC070 17/11 A2988  1120 69 1600 000/00 RMK AO2 TSNO
94908KDBQ DBQ20050405221510704/05/05 22:15:31  5-MIN KDBQ 060415Z AUTO 00000KT 9SM OVC070 17/11 A2988  1120 69 1600 000/00 RMK AO2 TSNO
94908KDBQ DBQ20050405222010704/05/05 22:20:31  5-MIN KDBQ 060420Z AUTO 00000KT 9SM OVC070 17/11 A2988  1120 67 1700 000/00 RMK AO2 TSNO
94908KDBQ DBQ20050405222510704/05/05 22:25:31  5-MIN KDBQ 060425Z AUTO 00000KT 9SM OVC070 17/11 A2988  1120 69 1600 000/00 RMK AO2 TSNO
94908KDBQ DBQ20050405223011304/05/05 22:30:31  5-MIN KDBQ 060430Z AUTO 00000KT 9SM FEW050 OVC070 17/11 A2988 1120 67 1700 000/00 RMK AO2 TSNO
94908KDBQ DBQ20050405223511304/05/05 22:35:31  5-MIN KDBQ 060435Z AUTO 18003KT 9SM SCT050 OVC070 17/11 A2988 1120 67 1700 180/03 RMK AO2 TSNO
94908KDBQ DBQ20050405224011304/05/05 22:40:31  5-MIN KDBQ 060440Z AUTO 16004KT 9SM BKN050 OVC070 17/11 A2988 1120 67 1700 160/04 RMK AO2 TSNO
94908KDBQ DBQ20050405224511304/05/05 22:45:31  5-MIN KDBQ 060445Z AUTO 15005KT 9SM BKN050 OVC070 17/11 A2988 1120 67 1700 150/05 RMK AO2 TSNO
94908KDBQ DBQ20050405225013004/05/05 22:50:31  5-MIN KDBQ 060450Z AUTO 15006KT 9SM SCT050 OVC070 17/11 A2988 1120 67 1700 150/06 RMK AO2 SLP113 T01720111 TSNO
94908KDBQ DBQ20050405225513004/05/05 22:55:31  5-MIN KDBQ 060455Z AUTO 16008KT 9SM SCT050 OVC070 17/11 A2987 1120 67 1700 160/08 RMK AO2 SLP113 T01720111 TSNO
94908KDBQ DBQ20050405230011304/05/05 23:00:31  5-MIN KDBQ 060500Z AUTO 17008KT 9SM BKN050 OVC070 17/11 A2987 1120 67 1700 170/08 RMK AO2 TSNO
94908KDBQ DBQ20050405230511304/05/05 23:05:31  5-MIN KDBQ 060505Z AUTO 18007KT 9SM BKN050 OVC070 17/11 A2987 1120 67 1700 180/07 RMK AO2 TSNO
94908KDBQ DBQ20050405231011304/05/05 23:10:31  5-MIN KDBQ 060510Z AUTO 18006KT 9SM BKN050 OVC070 17/11 A2987 1120 67 1700 180/06 RMK AO2 TSNO
94908KDBQ DBQ20050405231511304/05/05 23:15:31  5-MIN KDBQ 060515Z AUTO 18005KT 9SM SCT050 OVC065 17/11 A2987 1120 69 1600 180/05 RMK AO2 TSNO
94908KDBQ DBQ20050405232011304/05/05 23:20:31  5-MIN KDBQ 060520Z AUTO 19006KT 9SM SCT050 OVC065 17/11 A2987 1120 69 1600 190/06 RMK AO2 TSNO
94908KDBQ DBQ20050405232511304/05/05 23:25:31  5-MIN KDBQ 060525Z AUTO 20006KT 9SM FEW050 OVC065 17/11 A2987 1120 69 1600 200/06 RMK AO2 TSNO
94908KDBQ DBQ20050405233011304/05/05 23:30:31  5-MIN KDBQ 060530Z AUTO 20005KT 9SM FEW050 OVC065 17/12 A2987 1120 72 1600 200/05 RMK AO2 TSNO
94908KDBQ DBQ20050405233511304/05/05 23:35:31  5-MIN KDBQ 060535Z AUTO 20005KT 9SM FEW050 OVC065 17/12 A2988 1120 72 1600 200/05 RMK AO2 TSNO
94908KDBQ DBQ20050405234010704/05/05 23:40:31  5-MIN KDBQ 060540Z AUTO 21007KT 9SM OVC065 17/12 A2988  1120 72 1600 210/07 RMK AO2 TSNO
94908KDBQ DBQ20050405234510704/05/05 23:45:31  5-MIN KDBQ 060545Z AUTO 21007KT 9SM OVC065 17/11 A2988  1120 69 1600 210/07 RMK AO2 TSNO
94908KDBQ DBQ20050405235015304/05/05 23:50:31  5-MIN KDBQ 060550Z AUTO 21007KT 9SM OVC065 17/11 A2987  1120 69 1600 210/07 RMK AO2 SLP113 T01670111 10206 20167 402440106 51023  TSNO
94908KDBQ DBQ20050405235515304/05/05 23:55:31  5-MIN KDBQ 060555Z AUTO 21008KT 9SM OVC065 17/11 A2988  1120 69 1600 210/08 RMK AO2 SLP114 T01670111 10206 20167 402440106 55001  TSNO
94908KDBQ DBQ20050406000010704/06/05 00:00:38  5-MIN KDBQ 060600Z AUTO 21007KT 9SM OVC065 17/11 A2988  1120 69 1600 210/07 RMK AO2 TSNO
94908KDBQ DBQ20050406000510704/06/05 00:05:31  5-MIN KDBQ 060605Z AUTO 20006KT 9SM OVC065 17/11 A2987  1120 67 1700 200/06 RMK AO2 TSNO
94908KDBQ DBQ20050406001010704/06/05 00:10:31  5-MIN KDBQ 060610Z AUTO 20006KT 10SM OVC065 17/11 A2987 1120 69 1600 200/06 RMK AO2 TSNO
94908KDBQ DBQ20050406001510704/06/05 00:15:31  5-MIN KDBQ 060615Z AUTO 20006KT 9SM OVC065 17/11 A2987  1120 69 1600 200/06 RMK AO2 TSNO
94908KDBQ DBQ20050406002010704/06/05 00:20:31  5-MIN KDBQ 060620Z AUTO 20005KT 9SM OVC065 17/11 A2987  1130 69 1600 200/05 RMK AO2 TSNO
94908KDBQ DBQ20050406002510704/06/05 00:25:31  5-MIN KDBQ 060625Z AUTO 21004KT 9SM OVC065 17/11 A2987  1130 69 1600 210/04 RMK AO2 TSNO
94908KDBQ DBQ20050406003010704/06/05 00:30:31  5-MIN KDBQ 060630Z AUTO 20004KT 9SM OVC065 16/11 A2987  1130 72 1600 200/04 RMK AO2 TSNO
94908KDBQ DBQ20050406003510704/06/05 00:35:31  5-MIN KDBQ 060635Z AUTO 20004KT 9SM OVC065 16/11 A2987  1130 72 1600 200/04 RMK AO2 TSNO
94908KDBQ DBQ20050406004010704/06/05 00:40:31  5-MIN KDBQ 060640Z AUTO 20004KT 9SM OVC065 16/11 A2986  1130 72 1600 200/04 RMK AO2 TSNO
94908KDBQ DBQ20050406004510704/06/05 00:45:31  5-MIN KDBQ 060645Z AUTO 21004KT 9SM OVC065 16/11 A2986  1140 72 1600 210/04 RMK AO2 TSNO
94908KDBQ DBQ20050406005012404/06/05 00:50:31  5-MIN KDBQ 060650Z AUTO 20004KT 9SM OVC065 16/11 A2986  1140 72 1600 200/04 RMK AO2 SLP107 T01610111 TSNO
94908KDBQ DBQ20050406005512404/06/05 00:55:31  5-MIN KDBQ 060655Z AUTO 19005KT 9SM OVC065 16/11 A2986  1140 72 1600 190/05 RMK AO2 SLP108 T01610111 TSNO
94908KDBQ DBQ20050406010010704/06/05 01:00:31  5-MIN KDBQ 060700Z AUTO 19005KT 9SM OVC065 16/11 A2986  1130 72 1600 180/05 RMK AO2 TSNO
94908KDBQ DBQ20050406010510704/06/05 01:05:31  5-MIN KDBQ 060705Z AUTO 19005KT 9SM OVC065 16/11 A2986  1130 72 1600 190/05 RMK AO2 TSNO
94908KDBQ DBQ20050406011010704/06/05 01:10:31  5-MIN KDBQ 060710Z AUTO 19004KT 9SM OVC065 16/11 A2986  1130 72 1600 190/04 RMK AO2 TSNO
94908KDBQ DBQ20050406011510704/06/05 01:15:31  5-MIN KDBQ 060715Z AUTO 19003KT 9SM OVC065 16/11 A2986  1140 72 1600 190/03 RMK AO2 TSNO
94908KDBQ DBQ20050406012010704/06/05 01:20:31  5-MIN KDBQ 060720Z AUTO 17003KT 9SM OVC065 16/11 A2986  1140 72 1600 170/03 RMK AO2 TSNO
94908KDBQ DBQ20050406012510704/06/05 01:25:31  5-MIN KDBQ 060725Z AUTO 20003KT 9SM OVC065 16/11 A2986  1140 72 1600 200/03 RMK AO2 TSNO
94908KDBQ DBQ20050406013010704/06/05 01:30:31  5-MIN KDBQ 060730Z AUTO 21003KT 9SM OVC065 16/11 A2986  1130 72 1600 200/03 RMK AO2 TSNO
94908KDBQ DBQ20050406013510704/06/05 01:35:31  5-MIN KDBQ 060735Z AUTO 00000KT 9SM OVC065 16/11 A2986  1130 72 1600 000/00 RMK AO2 TSNO
94908KDBQ DBQ20050406014010704/06/05 01:40:31  5-MIN KDBQ 060740Z AUTO 00000KT 9SM OVC065 16/11 A2986  1130 72 1600 000/00 RMK AO2 TSNO
94908KDBQ DBQ20050406014510704/06/05 01:45:31  5-MIN KDBQ 060745Z AUTO 00000KT 9SM OVC065 16/11 A2986  1130 72 1600 000/00 RMK AO2 TSNO
94908KDBQ DBQ20050406015012404/06/05 01:50:31  5-MIN KDBQ 060750Z AUTO 00000KT 9SM OVC065 16/11 A2986  1130 72 1600 000/00 RMK AO2 SLP108 T01610111 TSNO
94908KDBQ DBQ20050406015512404/06/05 01:55:31  5-MIN KDBQ 060755Z AUTO 00000KT 9SM OVC065 16/11 A2986  1130 72 1600 000/00 RMK AO2 SLP107 T01610111 TSNO
94908KDBQ DBQ20050406020010704/06/05 02:00:31  5-MIN KDBQ 060800Z AUTO 00000KT 9SM OVC065 17/11 A2986  1130 69 1600 000/00 RMK AO2 TSNO
94908KDBQ DBQ20050406020510704/06/05 02:05:31  5-MIN KDBQ 060805Z AUTO 17003KT 9SM OVC065 17/11 A2986  1130 69 1600 170/03 RMK AO2 TSNO
94908KDBQ DBQ20050406021010704/06/05 02:10:31  5-MIN KDBQ 060810Z AUTO 16004KT 9SM OVC065 16/11 A2986  1130 72 1600 160/04 RMK AO2 TSNO
94908KDBQ DBQ20050406021510704/06/05 02:15:31  5-MIN KDBQ 060815Z AUTO 16006KT 9SM OVC065 16/11 A2986  1130 72 1600 160/06 RMK AO2 TSNO
94908KDBQ DBQ20050406022010704/06/05 02:20:31  5-MIN KDBQ 060820Z AUTO 16008KT 9SM OVC065 16/11 A2986  1130 72 1600 160/08 RMK AO2 TSNO
94908KDBQ DBQ20050406022510704/06/05 02:25:31  5-MIN KDBQ 060825Z AUTO 16008KT 9SM OVC070 16/11 A2987  1130 72 1600 160/08 RMK AO2 TSNO
94908KDBQ DBQ20050406023010704/06/05 02:30:31  5-MIN KDBQ 060830Z AUTO 16008KT 9SM OVC070 16/11 A2987  1130 72 1600 160/08 RMK AO2 TSNO
94908KDBQ DBQ20050406023511304/06/05 02:35:31  5-MIN KDBQ 060835Z AUTO 15007KT 9SM FEW050 OVC070 16/11 A2987 1130 72 1600 150/07 RMK AO2 TSNO
94908KDBQ DBQ20050406024011304/06/05 02:40:31  5-MIN KDBQ 060840Z AUTO 15006KT 9SM FEW050 OVC070 16/11 A2987 1130 72 1600 150/06 RMK AO2 TSNO
94908KDBQ DBQ20050406024511304/06/05 02:45:31  5-MIN KDBQ 060845Z AUTO 16007KT 9SM FEW050 OVC070 16/11 A2987 1120 72 1600 160/07 RMK AO2 TSNO
94908KDBQ DBQ20050406025013604/06/05 02:50:31  5-MIN KDBQ 060850Z AUTO 16008KT 9SM FEW050 OVC070 16/11 A2987 1120 74 1500 160/08 RMK AO2 SLP112 T01560111 55001 TSNO
94908KDBQ DBQ20050406025513604/06/05 02:55:31  5-MIN KDBQ 060855Z AUTO 16007KT 9SM FEW050 OVC070 16/11 A2987 1120 72 1600 160/07 RMK AO2 SLP112 T01610111 55001 TSNO
94908KDBQ DBQ20050406030011304/06/05 03:00:31  5-MIN KDBQ 060900Z AUTO 16007KT 9SM FEW050 OVC070 16/11 A2988 1120 74 1500 160/07 RMK AO2 TSNO
94908KDBQ DBQ20050406030510704/06/05 03:05:31  5-MIN KDBQ 060905Z AUTO 16007KT 9SM OVC070 16/11 A2988  1120 74 1500 160/07 RMK AO2 TSNO
94908KDBQ DBQ20050406031010704/06/05 03:10:31  5-MIN KDBQ 060910Z AUTO 17006KT 9SM OVC070 16/11 A2988  1120 74 1500 160/06 RMK AO2 TSNO
94908KDBQ DBQ20050406031510704/06/05 03:15:31  5-MIN KDBQ 060915Z AUTO 16006KT 9SM BKN070 16/11 A2987  1120 72 1500 160/06 RMK AO2 TSNO
94908KDBQ DBQ20050406032010704/06/05 03:20:31  5-MIN KDBQ 060920Z AUTO 16006KT 9SM BKN070 15/11 A2988  1120 74 1400 160/06 RMK AO2 TSNO
94908KDBQ DBQ20050406032510704/06/05 03:25:31  5-MIN KDBQ 060925Z AUTO 15007KT 9SM OVC070 15/11 A2987  1120 74 1400 150/07 RMK AO2 TSNO
94908KDBQ DBQ20050406033010704/06/05 03:30:31  5-MIN KDBQ 060930Z AUTO 15008KT 9SM BKN070 15/11 A2987  1120 74 1400 150/08 RMK AO2 TSNO
94908KDBQ DBQ20050406033510704/06/05 03:35:31  5-MIN KDBQ 060935Z AUTO 16008KT 9SM BKN070 15/11 A2988  1120 74 1400 160/08 RMK AO2 TSNO
94908KDBQ DBQ20050406034010704/06/05 03:40:31  5-MIN KDBQ 060940Z AUTO 16007KT 9SM SCT070 14/11 A2987  1120 77 1400 160/07 RMK AO2 TSNO
94908KDBQ DBQ20050406034510704/06/05 03:45:31  5-MIN KDBQ 060945Z AUTO 16003KT 9SM SCT070 14/10 A2988  1120 77 1300 160/03 RMK AO2 TSNO
94908KDBQ DBQ20050406035012404/06/05 03:50:31  5-MIN KDBQ 060950Z AUTO 00000KT 8SM FEW070 13/10 A2988  1120 80 1200 000/00 RMK AO2 SLP114 T01330100 TSNO
94908KDBQ DBQ20050406035512004/06/05 03:55:31  5-MIN KDBQ 060955Z AUTO 00000KT 8SM CLR 14/10 A2988 1120 77 1300 000/00 RMK AO2 SLP114 T01390100 TSNO
94908KDBQ DBQ20050406040010304/06/05 04:00:31  5-MIN KDBQ 061000Z AUTO 19003KT 9SM CLR 14/10 A2988 1120 74 1400 190/03 RMK AO2 TSNO
94908KDBQ DBQ20050406040510304/06/05 04:05:31  5-MIN KDBQ 061005Z AUTO 00000KT 9SM CLR 14/10 A2988 1120 74 1400 000/00 RMK AO2 TSNO
94908KDBQ DBQ20050406041010304/06/05 04:10:31  5-MIN KDBQ 061010Z AUTO 18003KT 9SM CLR 14/10 A2988 1120 74 1400 180/03 RMK AO2 TSNO
94908KDBQ DBQ20050406041510304/06/05 04:15:31  5-MIN KDBQ 061015Z AUTO 00000KT 9SM CLR 14/10 A2988 1110 74 1300 000/00 RMK AO2 TSNO
94908KDBQ DBQ20050406042010304/06/05 04:20:31  5-MIN KDBQ 061020Z AUTO 00000KT 9SM CLR 14/10 A2988 1110 77 1300 000/00 RMK AO2 TSNO
94908KDBQ DBQ20050406042510304/06/05 04:25:31  5-MIN KDBQ 061025Z AUTO 19003KT 9SM CLR 14/10 A2989 1110 77 1300 180/03 RMK AO2 TSNO
94908KDBQ DBQ20050406043010304/06/05 04:30:31  5-MIN KDBQ 061030Z AUTO 19004KT 9SM CLR 13/09 A2989 1110 77 1200 190/04 RMK AO2 TSNO
94908KDBQ DBQ20050406043510704/06/05 04:35:31  5-MIN KDBQ 061035Z AUTO 19005KT 8SM FEW065 13/09 A2989  1100 77 1200 190/05 RMK AO2 TSNO
94908KDBQ DBQ20050406044010704/06/05 04:40:31  5-MIN KDBQ 061040Z AUTO 19005KT 8SM SCT065 14/10 A2990  1100 77 1300 190/05 RMK AO2 TSNO
94908KDBQ DBQ20050406044510704/06/05 04:45:31  5-MIN KDBQ 061045Z AUTO 19006KT 8SM BKN065 14/10 A2990  1100 77 1300 190/06 RMK AO2 TSNO
94908KDBQ DBQ20050406045012404/06/05 04:50:31  5-MIN KDBQ 061050Z AUTO 19005KT 8SM BKN070 13/10 A2990  1100 80 1200 190/05 RMK AO2 SLP121 T01330100 TSNO
94908KDBQ DBQ20050406045511404/06/05 04:55:31  5-MIN KDBQ 061055Z 20004KT 8SM BKN070 13/10 A2990 1100  80 1200 200/04 RMK AO2 SLP121 T01330100
94908KDBQ DBQ20050406050009704/06/05 05:00:31  5-MIN KDBQ 061100Z 19004KT 8SM OVC070 13/10 A2990 1100  80 1200 190/04 RMK AO2
94908KDBQ DBQ20050406050509704/06/05 05:05:31  5-MIN KDBQ 061105Z 19003KT 8SM OVC075 13/10 A2990 1100  80 1200 190/03 RMK AO2
94908KDBQ DBQ20050406051009704/06/05 05:10:31  5-MIN KDBQ 061110Z 19004KT 8SM OVC075 13/10 A2990 1100  80 1200 190/04 RMK AO2
94908KDBQ DBQ20050406051509704/06/05 05:15:31  5-MIN KDBQ 061115Z 19004KT 8SM OVC075 14/10 A2990 1100  77 1300 190/04 RMK AO2
94908KDBQ DBQ20050406052009704/06/05 05:20:31  5-MIN KDBQ 061120Z 20003KT 8SM OVC075 14/10 A2990 1100  77 1300 200/03 RMK AO2
94908KDBQ DBQ20050406052509704/06/05 05:25:31  5-MIN KDBQ 061125Z 19003KT 8SM OVC075 14/10 A2990 1100  77 1300 190/03 RMK AO2
94908KDBQ DBQ20050406053009704/06/05 05:30:31  5-MIN KDBQ 061130Z 18003KT 8SM OVC075 14/10 A2989 1100  77 1300 180/03 RMK AO2
94908KDBQ DBQ20050406053509704/06/05 05:35:31  5-MIN KDBQ 061135Z 18003KT 8SM OVC075 14/10 A2989 1100  77 1300 180/03 RMK AO2
94908KDBQ DBQ20050406054009704/06/05 05:40:31  5-MIN KDBQ 061140Z 18004KT 8SM OVC075 14/10 A2990 1100  77 1300 180/04 RMK AO2
94908KDBQ DBQ20050406054509704/06/05 05:45:31  5-MIN KDBQ 061145Z 00000KT 8SM OVC070 14/10 A2990 1100  77 1300 000/00 RMK AO2
94908KDBQ DBQ20050406055013204/06/05 05:50:31  5-MIN KDBQ 061150Z 00000KT 7SM OVC070 14/11 A2990 1100  80 1300 000/00 RMK AO2 SLP120 T01390106 10172 20128 55001
94908KDBQ DBQ20050406055513204/06/05 05:55:31  5-MIN KDBQ 061155Z 00000KT 7SM OVC070 14/11 A2989 1100  80 1300 000/00 RMK AO2 SLP121 T01390106 10172 20128 50006
94908KDBQ DBQ20050406060009704/06/05 06:00:31  5-MIN KDBQ 061200Z 00000KT 7SM OVC075 14/11 A2989 1100  80 1300 000/00 RMK AO2
94908KDBQ DBQ20050406060509704/06/05 06:05:31  5-MIN KDBQ 061205Z 00000KT 7SM OVC075 14/11 A2989 1110  77 1300 000/00 RMK AO2
94908KDBQ DBQ20050406061009704/06/05 06:10:31  5-MIN KDBQ 061210Z 00000KT 7SM OVC075 14/11 A2989 1110  80 1300 000/00 RMK AO2
94908KDBQ DBQ20050406061509704/06/05 06:15:31  5-MIN KDBQ 061215Z 00000KT 7SM OVC080 14/11 A2988 1110  80 1300 000/00 RMK AO2
94908KDBQ DBQ20050406062009704/06/05 06:20:31  5-MIN KDBQ 061220Z 00000KT 7SM OVC080 14/11 A2988 1110  80 1300 000/00 RMK AO2
94908KDBQ DBQ20050406062509704/06/05 06:25:31  5-MIN KDBQ 061225Z 00000KT 7SM OVC075 14/11 A2988 1110  80 1300 000/00 RMK AO2
94908KDBQ DBQ20050406063009704/06/05 06:30:31  5-MIN KDBQ 061230Z 00000KT 7SM OVC075 14/11 A2988 1110  83 1300 000/00 RMK AO2
94908KDBQ DBQ20050406063509704/06/05 06:35:31  5-MIN KDBQ 061235Z 00000KT 7SM OVC080 14/12 A2988 1110  86 1300 000/00 RMK AO2
94908KDBQ DBQ20050406064009704/06/05 06:40:31  5-MIN KDBQ 061240Z 00000KT 7SM OVC080 14/12 A2988 1110  83 1300 000/00 RMK AO2
94908KDBQ DBQ20050406064509704/06/05 06:45:31  5-MIN KDBQ 061245Z 01004KT 7SM OVC080 15/12 A2988 1110  80 1400 010/04 RMK AO2
94908KDBQ DBQ20050406065011404/06/05 06:50:31  5-MIN KDBQ 061250Z 03004KT 7SM OVC080 15/12 A2988 1110  80 1400 030/04 RMK AO2 SLP116 T01500117
94908KDBQ DBQ20050406065511404/06/05 06:55:31  5-MIN KDBQ 061255Z 04006KT 7SM OVC080 15/12 A2988 1110  80 1400 040/06 RMK AO2 SLP117 T01500117
94908KDBQ DBQ20050406070009704/06/05 07:00:31  5-MIN KDBQ 061300Z 03006KT 7SM OVC080 15/11 A2988 1110  77 1400 030/06 RMK AO2
94908KDBQ DBQ20050406070509704/06/05 07:05:31  5-MIN KDBQ 061305Z 03007KT 7SM BKN080 15/11 A2988 1120  77 1400 030/07 RMK AO2
94908KDBQ DBQ20050406071009704/06/05 07:10:31  5-MIN KDBQ 061310Z 05004KT 7SM BKN080 16/11 A2988 1110  74 1500 050/04 RMK AO2
94908KDBQ DBQ20050406071509704/06/05 07:15:31  5-MIN KDBQ 061315Z 04004KT 7SM SCT080 16/11 A2988 1120  74 1500 040/04 RMK AO2
94908KDBQ DBQ20050406072009704/06/05 07:20:31  5-MIN KDBQ 061320Z 13006KT 7SM FEW080 16/11 A2988 1110  74 1500 130/06 RMK AO2
94908KDBQ DBQ20050406072509704/06/05 07:25:31  5-MIN KDBQ 061325Z 03004KT 7SM FEW080 17/12 A2988 1120  72 1600 030/04 RMK AO2
94908KDBQ DBQ20050406073009404/06/05 07:30:31  5-MIN KDBQ 061330Z 07004KT 7SM CLR 17/12 A2988 1120 69  1700 070/04 RMK AO2
94908KDBQ DBQ20050406073509404/06/05 07:35:31  5-MIN KDBQ 061335Z 14004KT 8SM CLR 17/12 A2988 1110 69  1700 140/04 RMK AO2
94908KDBQ DBQ20050406074009404/06/05 07:40:31  5-MIN KDBQ 061340Z 12005KT 8SM CLR 18/11 A2989 1110 64  1700 120/05 RMK AO2
94908KDBQ DBQ20050406074509404/06/05 07:45:31  5-MIN KDBQ 061345Z 13003KT 9SM CLR 18/11 A2989 1110 64  1700 130/03 RMK AO2
94908KDBQ DBQ20050406075011104/06/05 07:50:31  5-MIN KDBQ 061350Z 13004KT 9SM CLR 18/11 A2989 1110 64  1700 130/04 RMK AO2 SLP118 T01780111
94908KDBQ DBQ20050406075511104/06/05 07:55:31  5-MIN KDBQ 061355Z 00000KT 9SM CLR 18/11 A2989 1110 62  1800 000/00 RMK AO2 SLP118 T01830111
94908KDBQ DBQ20050406080009404/06/05 08:00:31  5-MIN KDBQ 061400Z 00000KT 9SM CLR 18/11 A2989 1110 62  1800 000/00 RMK AO2
94908KDBQ DBQ20050406080509404/06/05 08:05:31  5-MIN KDBQ 061405Z 15006KT 9SM CLR 19/11 A2990 1100 60  1800 150/06 RMK AO2
94908KDBQ DBQ20050406081009404/06/05 08:10:31  5-MIN KDBQ 061410Z 15006KT 9SM CLR 18/11 A2990 1100 62  1800 150/06 RMK AO2
94908KDBQ DBQ20050406081509404/06/05 08:15:31  5-MIN KDBQ 061415Z 15004KT 9SM CLR 18/12 A2989 1100 65  1800 150/04 RMK AO2
94908KDBQ DBQ20050406082009404/06/05 08:20:31  5-MIN KDBQ 061420Z 14006KT 9SM CLR 19/12 A2989 1100 62  1900 140/06 RMK AO2
94908KDBQ DBQ20050406082509404/06/05 08:25:31  5-MIN KDBQ 061425Z 14008KT 9SM CLR 19/12 A2989 1110 62  1900 140/08 RMK AO2
94908KDBQ DBQ20050406083009404/06/05 08:30:31  5-MIN KDBQ 061430Z 14007KT 9SM CLR 19/12 A2989 1110 62  1900 140/07 RMK AO2
94908KDBQ DBQ20050406083509404/06/05 08:35:31  5-MIN KDBQ 061435Z 14005KT 9SM CLR 19/12 A2989 1110 62  1900 140/05 RMK AO2
94908KDBQ DBQ20050406084009404/06/05 08:40:31  5-MIN KDBQ 061440Z 14004KT 9SM CLR 19/12 A2989 1110 62  1900 140/04 RMK AO2
94908KDBQ DBQ20050406084509404/06/05 08:45:31  5-MIN KDBQ 061445Z 14004KT 9SM CLR 19/12 A2989 1110 62  1900 140/04 RMK AO2
94908KDBQ DBQ20050406085011704/06/05 08:50:31  5-MIN KDBQ 061450Z 13004KT 10SM CLR 19/12 A2989 1110 60 1900 130/04 RMK AO2 SLP118 T01940117 50006
94908KDBQ DBQ20050406085511704/06/05 08:55:31  5-MIN KDBQ 061455Z VRB05KT 10SM CLR 20/12 A2989 1110 58 2000 VRB/05 RMK AO2 SLP117 T02000117 56002
94908KDBQ DBQ20050406090009404/06/05 09:00:31  5-MIN KDBQ 061500Z 16004KT 10SM CLR 20/12 A2989 1110 58 2000 160/04 RMK AO2
94908KDBQ DBQ20050406090509404/06/05 09:05:31  5-MIN KDBQ 061505Z 10003KT 10SM CLR 20/12 A2989 1110 58 2000 100/03 RMK AO2
94908KDBQ DBQ20050406091009404/06/05 09:10:31  5-MIN KDBQ 061510Z 00000KT 10SM CLR 21/12 A2989 1110 58 2100 000/00 RMK AO2
94908KDBQ DBQ20050406091509404/06/05 09:15:31  5-MIN KDBQ 061515Z 06003KT 10SM CLR 21/12 A2989 1110 58 2100 050/03 RMK AO2
94908KDBQ DBQ20050406092009404/06/05 09:20:31  5-MIN KDBQ 061520Z 00000KT 10SM CLR 21/12 A2989 1110 56 2100 000/00 RMK AO2
94908KDBQ DBQ20050406092509404/06/05 09:25:31  5-MIN KDBQ 061525Z 10004KT 10SM CLR 21/12 A2989 1100 56 2000 100/04 RMK AO2
94908KDBQ DBQ20050406093009404/06/05 09:30:31  5-MIN KDBQ 061530Z 00000KT 9SM CLR 21/12 A2990 1100 56  2000 000/00 RMK AO2
94908KDBQ DBQ20050406093509404/06/05 09:35:31  5-MIN KDBQ 061535Z VRB03KT 8SM CLR 21/12 A2990 1100 56  2100 VRB/03 RMK AO2
94908KDBQ DBQ20050406094009404/06/05 09:40:31  5-MIN KDBQ 061540Z 16005KT 8SM CLR 21/12 A2990 1100 56  2100 160/05 RMK AO2
94908KDBQ DBQ20050406094509404/06/05 09:45:31  5-MIN KDBQ 061545Z VRB05KT 9SM CLR 21/12 A2990 1090 56  2100 VRB/05 RMK AO2
94908KDBQ DBQ20050406095011104/06/05 09:50:31  5-MIN KDBQ 061550Z 00000KT 10SM CLR 21/12 A2991 1090 56 2100 000/00 RMK AO2 SLP123 T02110122
94908KDBQ DBQ20050406095511104/06/05 09:55:31  5-MIN KDBQ 061555Z 14005KT 10SM CLR 21/12 A2991 1090 56 2100 140/05 RMK AO2 SLP123 T02110122
94908KDBQ DBQ20050406100009404/06/05 10:00:31  5-MIN KDBQ 061600Z 00000KT 10SM CLR 21/12 A2991 1090 56 2100 000/00 RMK AO2
94908KDBQ DBQ20050406100509404/06/05 10:05:31  5-MIN KDBQ 061605Z 11004KT 10SM CLR 22/12 A2991 1090 54 2200 110/04 RMK AO2
94908KDBQ DBQ20050406101009404/06/05 10:10:31  5-MIN KDBQ 061610Z 15007KT 10SM CLR 22/13 A2991 1090 54 2200 150/07 RMK AO2
94908KDBQ DBQ20050406101509404/06/05 10:15:31  5-MIN KDBQ 061615Z 14007KT 10SM CLR 22/12 A2991 1080 54 2100 140/07 RMK AO2
94908KDBQ DBQ20050406102009404/06/05 10:20:31  5-MIN KDBQ 061620Z VRB05KT 10SM CLR 22/12 A2991 1080 54 2100 VRB/05 RMK AO2
94908KDBQ DBQ20050406214512904/06/05 21:45:31  5-MIN KDBQ 070345Z AUTO 04008KT 3SM BR FEW003 OVC038  14/14 A2992 1080 96 1300 040/08 RMK AO2 RAE39 P0000 TSNO
94908KDBQ DBQ20050406215014604/06/05 21:50:31  5-MIN KDBQ 070350Z AUTO 04006KT 3SM BR SCT003 OVC040  14/14 A2992 1080 96 1300 040/06 RMK AO2 RAE39 SLP129 P0000 T01440139 TSNO
94908KDBQ DBQ20050406215514904/06/05 21:55:31  5-MIN KDBQ 070355Z AUTO 04006KT 2 1/2SM BR SCT003 OVC042 14/14 A2992 1080 96 1300 040/06 RMK AO2 RAE39 SLP129 P0000 T01440139 TSNO
94908KDBQ DBQ20050406220012704/06/05 22:00:31  5-MIN KDBQ 070400Z AUTO 02006KT 2 1/2SM BR SCT003 BKN042 OVC049 14/14 A2992 1080 96 1300 020/06 RMK AO2 TSNO
94908KDBQ DBQ20050406220512704/06/05 22:05:31  5-MIN KDBQ 070405Z AUTO 01007KT 2 1/2SM BR SCT005 BKN015 OVC049 14/14 A2992 1080 96 1300 010/07 RMK AO2 TSNO
94908KDBQ DBQ20050406221012404/06/05 22:10:31  5-MIN KDBQ 070410Z AUTO 02008KT 3SM BR FEW003 BKN007  OVC049 14/14 A2992 1080 96 1300 020/08 RMK AO2 TSNO
94908KDBQ DBQ20050406221512404/06/05 22:15:31  5-MIN KDBQ 070415Z AUTO 02006KT 3SM BR FEW003 BKN043  OVC049 14/14 A2992 1080 96 1300 020/06 RMK AO2 TSNO
94908KDBQ DBQ20050406222012404/06/05 22:20:31  5-MIN KDBQ 070420Z AUTO 02007KT 4SM BR FEW007 SCT043  OVC049 14/14 A2992 1080 96 1300 020/07 RMK AO2 TSNO
94908KDBQ DBQ20050406222513904/06/05 22:25:31  5-MIN KDBQ 070425Z AUTO 02007KT 4SM -RA BR FEW007 SCT030 OVC049 14/13 A2992 1080 93 1300 020/07 RMK AO2 RAB25 P0000 TSNO
94908KDBQ DBQ20050406223013904/06/05 22:30:31  5-MIN KDBQ 070430Z AUTO 02009KT 5SM -RA BR FEW007 SCT030 OVC049 14/13 A2992 1080 93 1300 020/09 RMK AO2 RAB25 P0000 TSNO
94908KDBQ DBQ20050406223513204/06/05 22:35:31  5-MIN KDBQ 070435Z AUTO 03009KT 4SM -RA BR FEW007 OVC049 14/13 A2992 1080 93 1300 030/09 RMK AO2 RAB25 P0000 TSNO
94908KDBQ DBQ20050406224013904/06/05 22:40:31  5-MIN KDBQ 070440Z AUTO 03007KT 4SM -RA BR FEW007 SCT012 OVC049 14/13 A2992 1070 93 1300 030/07 RMK AO2 RAB25 P0001 TSNO
94908KDBQ DBQ20050406224513904/06/05 22:45:31  5-MIN KDBQ 070445Z AUTO 05009KT 4SM -RA BR SCT007 BKN012 OVC049 14/14 A2993 1070 96 1300 050/09 RMK AO2 RAB25 P0001 TSNO
94908KDBQ DBQ20050406225017404/06/05 22:50:31  5-MIN KDBQ 070450Z AUTO 05012G15KT 3SM RA BR BKN007  BKN012 OVC049 14/13 A2993 1070 93 1300 050/12G15 RMK AO2 RAB25 CIG 004V010 SLP131 P0001 T01440133 TSNO
94908KDBQ DBQ20050406225515704/06/05 22:55:31  5-MIN KDBQ 070455Z AUTO 05010KT 3SM -RA BR SCT007 BKN012 OVC049 14/13 A2993 1070 93 1200 050/10 RMK AO2 RAB25 SLP131 P0002  T01390128 TSNO
94908KDBQ DBQ20050406230014404/06/05 23:00:31  5-MIN KDBQ 070500Z AUTO 05010KT 3SM RA BR FEW005 BKN010 OVC029 14/13 A2993 1070 93 1200 050/10 RMK AO2 CIG 008V011 P0001 TSNO
94908KDBQ DBQ20050406230512604/06/05 23:05:31  5-MIN KDBQ 070505Z AUTO 02008KT 3SM -RA BR SCT005 OVC012 14/13 A2993 1070 93 1200 020/08 RMK AO2 P0001 TSNO
94908KDBQ DBQ20050406231012504/06/05 23:10:31  5-MIN KDBQ 070510Z AUTO 03009KT 3SM RA BR SCT007 OVC012 14/13 A2993 1070 93 1200 030/09 RMK AO2 P0002 TSNO
94908KDBQ DBQ20050406231513304/06/05 23:15:31  5-MIN KDBQ 070515Z AUTO 03008KT 3SM -RA BR FEW007 BKN012 OVC021 14/13 A2993 1070 93 1200 030/08 RMK AO2 P0002 TSNO
94908KDBQ DBQ20050406232013304/06/05 23:20:31  5-MIN KDBQ 070520Z AUTO 03010KT 4SM -RA BR FEW007 BKN012 OVC019 14/13 A2993 1070 93 1200 030/10 RMK AO2 P0003 TSNO
94908KDBQ DBQ20050406232514504/06/05 23:25:31  5-MIN KDBQ 070525Z AUTO 03012KT 4SM -RA BR FEW007 BKN010 OVC019 14/13 A2993 1070 93 1200 030/12 RMK AO2 CIG 008V011 P0003 TSNO
94908KDBQ DBQ20050406233013304/06/05 23:30:31  5-MIN KDBQ 070530Z AUTO 02016KT 4SM -RA BR FEW007 BKN014 OVC019 13/12 A2993 1070 93 1200 020/16 RMK AO2 P0003 TSNO
94908KDBQ DBQ20050406233512904/06/05 23:35:31  5-MIN KDBQ 070535Z AUTO 02015KT 5SM BR FEW009 OVC019  13/11 A2993 1070 86 1200 020/15 RMK AO2 RAE31 P0003 TSNO
94908KDBQ DBQ20050406234012904/06/05 23:40:31  5-MIN KDBQ 070540Z AUTO 02015KT 6SM BR FEW010 OVC019  13/11 A2993 1070 86 1100 020/15 RMK AO2 RAE31 P0003 TSNO
94908KDBQ DBQ20050406234514104/06/05 23:45:31  5-MIN KDBQ 070545Z AUTO 03017G22KT 6SM BR FEW012 BKN017 OVC085 13/11 A2993 1070 86 1100 030/17G22 RMK AO2 RAE31 P0003 TSNO
94908KDBQ DBQ20050406235019204/06/05 23:50:31  5-MIN KDBQ 070550Z AUTO 03018G23KT 6SM HZ FEW011 BKN017 OVC080 13/10 A2993 1070 83 1100 030/18G23 RMK AO2 RAE31 SLP132 P0003 60014 T01280100 10167 20128 402440128 51016 TSNO
94908KDBQ DBQ20050406235519204/06/05 23:55:31  5-MIN KDBQ 070555Z AUTO 03018G23KT 6SM HZ SCT017 BKN029 OVC085 12/09 A2993 1070 83 1000 030/18G23 RMK AO2 RAE31 SLP132 P0003 60014 T01220094 10167 20122 402440122 51005 TSNO
94908KDBQ DBQ20050407000012904/07/05 00:00:38  5-MIN KDBQ 070600Z AUTO 03014G22KT 6SM HZ FEW017 BKN029 OVC085 12/09 A2993 1070 83 1000 030/14G22 RMK AO2 TSNO
94908KDBQ DBQ20050407000512404/07/05 00:05:31  5-MIN KDBQ 070605Z AUTO 03014KT 6SM HZ FEW017 SCT029  OVC090 12/09 A2993 1070 83 1000 030/14 RMK AO2 TSNO
94908KDBQ DBQ20050407001012404/07/05 00:10:31  5-MIN KDBQ 070610Z AUTO 03013KT 6SM BR FEW024 BKN090  OVC110 12/09 A2993 1070 86 1000 030/13 RMK AO2 TSNO
94908KDBQ DBQ20050407001512404/07/05 00:15:32  5-MIN KDBQ 070615Z AUTO 03011KT 6SM BR SCT027 BKN085  OVC110 12/09 A2993 1070 86 1000 030/11 RMK AO2 TSNO
94908KDBQ DBQ20050407002012404/07/05 00:20:31  5-MIN KDBQ 070620Z AUTO 03014KT 6SM BR BKN027 BKN090  OVC110 12/09 A2993 1070 86 1000 020/14 RMK AO2 TSNO
94908KDBQ DBQ20050407002512404/07/05 00:25:31  5-MIN KDBQ 070625Z AUTO 02014KT 6SM BR SCT027 BKN080  OVC110 12/09 A2993 1070 86 1000 020/14 RMK AO2 TSNO
94908KDBQ DBQ20050407003012404/07/05 00:30:31  5-MIN KDBQ 070630Z AUTO 03014KT 6SM BR SCT027 BKN080  OVC110 12/09 A2993 1070 86 1000 030/14 RMK AO2 TSNO
94908KDBQ DBQ20050407003512404/07/05 00:35:31  5-MIN KDBQ 070635Z AUTO 04013KT 6SM BR SCT025 BKN075  OVC110 12/09 A2993 1070 86 1000 040/13 RMK AO2 TSNO
94908KDBQ DBQ20050407004011704/07/05 00:40:31  5-MIN KDBQ 070640Z AUTO 03015KT 6SM BR FEW025 OVC075  12/09 A2993 1070 86 1000 030/15 RMK AO2 TSNO
94908KDBQ DBQ20050407004511704/07/05 00:45:31  5-MIN KDBQ 070645Z AUTO 03012KT 6SM BR FEW025 OVC075  12/09 A2993 1070 86 1000 030/12 RMK AO2 TSNO
94908KDBQ DBQ20050407005013304/07/05 00:50:31  5-MIN KDBQ 070650Z AUTO 03012KT 6SM BR FEW015 OVC080  11/09 A2993 1070 89 900 030/12 RMK AO2 SLP133 T01110094 TSNO
94908KDBQ DBQ20050407005513304/07/05 00:55:31  5-MIN KDBQ 070655Z AUTO 03012KT 5SM BR SCT012 OVC080  11/09 A2993 1070 89 900 030/12 RMK AO2 SLP132 T01110094 TSNO
94908KDBQ DBQ20050407010012304/07/05 01:00:31  5-MIN KDBQ 070700Z AUTO 02012KT 5SM BR FEW010 BKN020  OVC075 11/09 A2993 1070 89 900 020/12 RMK AO2 TSNO
94908KDBQ DBQ20050407010512304/07/05 01:05:31  5-MIN KDBQ 070705Z AUTO 02013KT 5SM BR FEW010 BKN020  OVC080 11/09 A2993 1070 89 900 020/13 RMK AO2 TSNO
94908KDBQ DBQ20050407011012304/07/05 01:10:31  5-MIN KDBQ 070710Z AUTO 03013KT 5SM BR SCT013 BKN020  OVC080 11/09 A2993 1070 89 900 020/13 RMK AO2 TSNO
94908KDBQ DBQ20050407011511604/07/05 01:15:31  5-MIN KDBQ 070715Z AUTO 03015KT 5SM BR BKN013 OVC020  11/09 A2993 1070 89 900 030/15 RMK AO2 TSNO
94908KDBQ DBQ20050407012011604/07/05 01:20:31  5-MIN KDBQ 070720Z AUTO 03013KT 5SM BR BKN013 OVC020  11/09 A2993 1070 89 900 030/13 RMK AO2 TSNO
94908KDBQ DBQ20050407012511604/07/05 01:25:31  5-MIN KDBQ 070725Z AUTO 03013KT 5SM BR BKN013 OVC020  11/09 A2994 1060 93 800 030/13 RMK AO2 TSNO
94908KDBQ DBQ20050407013012304/07/05 01:30:31  5-MIN KDBQ 070730Z AUTO 03012KT 5SM BR SCT010 BKN015  OVC020 11/09 A2994 1060 93 800 030/12 RMK AO2 TSNO
94908KDBQ DBQ20050407013512304/07/05 01:35:31  5-MIN KDBQ 070735Z AUTO 03013KT 5SM BR SCT010 BKN015  OVC020 11/09 A2994 1060 89 800 030/13 RMK AO2 TSNO
94908KDBQ DBQ20050407014012804/07/05 01:40:31  5-MIN KDBQ 070740Z AUTO 03015G20KT 5SM BR SCT010 BKN015 OVC020 11/09 A2994 1060 89 800 030/15G20 RMK AO2 TSNO
94908KDBQ DBQ20050407014511504/07/05 01:45:31  5-MIN KDBQ 070745Z AUTO 03015G20KT 5SM BR OVC013 11/08  A2994 1060 86 800 030/15G20 RMK AO2 TSNO
94908KDBQ DBQ20050407015013204/07/05 01:50:31  5-MIN KDBQ 070750Z AUTO 03016G22KT 5SM BR OVC013 11/08  A2994 1060 86 800 030/16G22 RMK AO2 SLP137 T01060083 TSNO
94908KDBQ DBQ20050407015513204/07/05 01:55:31  5-MIN KDBQ 070755Z AUTO 03016G22KT 6SM BR OVC013 10/08  A2994 1060 89 800 030/16G22 RMK AO2 SLP137 T01000083 TSNO
94908KDBQ DBQ20050407020010904/07/05 02:00:31  5-MIN KDBQ 070800Z AUTO 04015KT 6SM BR OVC013 10/08  A2994 1060 89 800 040/15 RMK AO2 TSNO
94908KDBQ DBQ20050407020510904/07/05 02:05:31  5-MIN KDBQ 070805Z AUTO 04015KT 5SM BR OVC013 10/08  A2994 1060 89 800 040/15 RMK AO2 TSNO
94908KDBQ DBQ20050407021010904/07/05 02:10:31  5-MIN KDBQ 070810Z AUTO 04015KT 5SM BR OVC011 10/08  A2994 1060 89 800 040/15 RMK AO2 TSNO
94908KDBQ DBQ20050407021510904/07/05 02:15:31  5-MIN KDBQ 070815Z AUTO 04016KT 5SM BR OVC011 10/08  A2994 1060 89 800 040/16 RMK AO2 TSNO
94908KDBQ DBQ20050407022010904/07/05 02:20:31  5-MIN KDBQ 070820Z AUTO 05018KT 6SM BR OVC011 10/08  A2994 1060 86 700 050/18 RMK AO2 TSNO
94908KDBQ DBQ20050407022510904/07/05 02:25:31  5-MIN KDBQ 070825Z AUTO 04017KT 6SM BR OVC011 10/08  A2994 1060 86 700 040/17 RMK AO2 TSNO
94908KDBQ DBQ20050407023011604/07/05 02:30:31  5-MIN KDBQ 070830Z AUTO 04018KT 6SM BR BKN011 OVC035  10/08 A2995 1050 86 700 040/18 RMK AO2 TSNO
94908KDBQ DBQ20050407023511604/07/05 02:35:31  5-MIN KDBQ 070835Z AUTO 04015KT 6SM BR BKN011 OVC035  10/08 A2994 1060 86 800 030/15 RMK AO2 TSNO
94908KDBQ DBQ20050407024010904/07/05 02:40:31  5-MIN KDBQ 070840Z AUTO 04015KT 6SM BR OVC011 09/08  A2995 1060 89 700 040/15 RMK AO2 TSNO
94908KDBQ DBQ20050407024510904/07/05 02:45:31  5-MIN KDBQ 070845Z AUTO 04016KT 6SM BR OVC011 09/08  A2995 1060 89 700 040/16 RMK AO2 TSNO
94908KDBQ DBQ20050407025014404/07/05 02:50:31  5-MIN KDBQ 070850Z AUTO 04013KT 6SM BR OVC011 09/08  A2994 1060 89 700 040/13 RMK AO2 CIG 009V014 SLP139 T00940078 51005 TSNO
94908KDBQ DBQ20050407025513204/07/05 02:55:31  5-MIN KDBQ 070855Z AUTO 04013KT 6SM BR OVC011 09/08  A2995 1050 89 700 040/13 RMK AO2 SLP140 T00940078 53005 TSNO
94908KDBQ DBQ20050407030010904/07/05 03:00:31  5-MIN KDBQ 070900Z AUTO 04016KT 6SM BR OVC011 09/08  A2995 1050 89 700 040/16 RMK AO2 TSNO
94908KDBQ DBQ20050407030511504/07/05 03:05:31  5-MIN KDBQ 070905Z AUTO 04012G19KT 6SM BR OVC011 09/08  A2994 1060 89 700 040/12G19 RMK AO2 TSNO
94908KDBQ DBQ20050407031011504/07/05 03:10:31  5-MIN KDBQ 070910Z AUTO 04016G21KT 6SM BR OVC011 09/07  A2995 1060 86 700 040/16G21 RMK AO2 TSNO
94908KDBQ DBQ20050407031511504/07/05 03:15:31  5-MIN KDBQ 070915Z AUTO 03016G21KT 6SM BR OVC011 09/07  A2994 1060 86 700 030/16G21 RMK AO2 TSNO
94908KDBQ DBQ20050407032010904/07/05 03:20:31  5-MIN KDBQ 070920Z AUTO 03016KT 6SM BR OVC011 09/07  A2994 1060 86 700 030/16 RMK AO2 TSNO
94908KDBQ DBQ20050407032510904/07/05 03:25:31  5-MIN KDBQ 070925Z AUTO 03017KT 6SM BR OVC011 09/07  A2994 1060 86 700 030/17 RMK AO2 TSNO
94908KDBQ DBQ20050407033011504/07/05 03:30:31  5-MIN KDBQ 070930Z AUTO 03016G21KT 6SM BR OVC011 09/07  A2994 1060 86 700 030/16G21 RMK AO2 TSNO
94908KDBQ DBQ20050407033511504/07/05 03:35:31  5-MIN KDBQ 070935Z AUTO 03018G21KT 6SM BR OVC011 09/07  A2994 1060 86 700 030/18G21 RMK AO2 TSNO
94908KDBQ DBQ20050407034011504/07/05 03:40:31  5-MIN KDBQ 070940Z AUTO 03016G21KT 6SM BR OVC011 09/07  A2994 1060 89 600 030/16G21 RMK AO2 TSNO
94908KDBQ DBQ20050407034511504/07/05 03:45:31  5-MIN KDBQ 070945Z AUTO 03015G23KT 6SM BR OVC011 09/07  A2994 1060 89 600 030/15G23 RMK AO2 TSNO
94908KDBQ DBQ20050407035013204/07/05 03:50:31  5-MIN KDBQ 070950Z AUTO 03017G23KT 5SM BR OVC011 09/07  A2994 1060 89 600 030/17G23 RMK AO2 SLP138 T00890072 TSNO
94908KDBQ DBQ20050407035512604/07/05 03:55:31  5-MIN KDBQ 070955Z AUTO 03016KT 5SM BR OVC011 09/07  A2994 1060 89 600 030/16 RMK AO2 SLP139 T00890072 TSNO
94908KDBQ DBQ20050407040010904/07/05 04:00:31  5-MIN KDBQ 071000Z AUTO 03017KT 5SM BR OVC011 09/07  A2994 1060 89 600 030/17 RMK AO2 TSNO
94908KDBQ DBQ20050407040510904/07/05 04:05:31  5-MIN KDBQ 071005Z AUTO 03019KT 5SM BR OVC011 09/07  A2994 1060 89 600 030/19 RMK AO2 TSNO
94908KDBQ DBQ20050407041011504/07/05 04:10:31  5-MIN KDBQ 071010Z AUTO 03017G23KT 5SM BR OVC011 09/07  A2994 1060 89 600 030/17G23 RMK AO2 TSNO
94908KDBQ DBQ20050407041511504/07/05 04:15:31  5-MIN KDBQ 071015Z AUTO 03018G24KT 5SM BR OVC011 09/07  A2995 1050 86 600 030/18G24 RMK AO2 TSNO
94908KDBQ DBQ20050407042011504/07/05 04:20:31  5-MIN KDBQ 071020Z AUTO 03017G24KT 5SM BR OVC011 09/07  A2994 1060 86 600 030/17G24 RMK AO2 TSNO
94908KDBQ DBQ20050407042510904/07/05 04:25:31  5-MIN KDBQ 071025Z AUTO 03018KT 5SM BR OVC011 09/07  A2994 1060 86 600 030/18 RMK AO2 TSNO
94908KDBQ DBQ20050407043010904/07/05 04:30:31  5-MIN KDBQ 071030Z AUTO 02020KT 6SM BR OVC011 09/07  A2994 1060 86 600 020/20 RMK AO2 TSNO
94908KDBQ DBQ20050407043510904/07/05 04:35:31  5-MIN KDBQ 071035Z AUTO 02016KT 6SM BR OVC011 09/07  A2995 1050 86 600 020/16 RMK AO2 TSNO
94908KDBQ DBQ20050407044010904/07/05 04:40:31  5-MIN KDBQ 071040Z AUTO 02018KT 6SM BR OVC011 08/07  A2995 1050 89 500 020/18 RMK AO2 TSNO
94908KDBQ DBQ20050407044511504/07/05 04:45:31  5-MIN KDBQ 071045Z AUTO 02019G23KT 6SM BR OVC011 08/07  A2995 1050 89 500 020/19G23 RMK AO2 TSNO
94908KDBQ DBQ20050407045013204/07/05 04:50:31  5-MIN KDBQ 071050Z AUTO 02019G23KT 6SM BR OVC011 08/06  A2995 1050 86 500 020/19G23 RMK AO2 SLP145 T00830061 TSNO
94908KDBQ DBQ20050407045511604/07/05 04:55:31  5-MIN KDBQ 071055Z 02017KT 6SM BR OVC011 08/06 A2996  1050 86 500 020/17 RMK AO2 SLP146 T00830061
94908KDBQ DBQ20050407050009904/07/05 05:00:31  5-MIN KDBQ 071100Z 02018KT 6SM BR OVC009 08/06 A2996  1040 86 500 020/18 RMK AO2
94908KDBQ DBQ20050407050510404/07/05 05:05:31  5-MIN KDBQ 071105Z 02019G23KT 6SM BR OVC009 08/06 A2996 1040 89 500 020/19G23 RMK AO2
94908KDBQ DBQ20050407051010404/07/05 05:10:31  5-MIN KDBQ 071110Z 02018G24KT 6SM BR OVC009 08/06 A2996 1040 89 500 020/18G24 RMK AO2
94908KDBQ DBQ20050407051510404/07/05 05:15:31  5-MIN KDBQ 071115Z 02017G24KT 6SM BR OVC009 08/06 A2997 1040 89 500 020/17G24 RMK AO2
94908KDBQ DBQ20050407052009904/07/05 05:20:31  5-MIN KDBQ 071120Z 02017KT 6SM BR OVC009 08/06 A2997  1040 89 500 020/17 RMK AO2
94908KDBQ DBQ20050407052509904/07/05 05:25:31  5-MIN KDBQ 071125Z 02017KT 6SM BR OVC009 08/06 A2997  1030 86 500 020/17 RMK AO2
94908KDBQ DBQ20050407053010404/07/05 05:30:31  5-MIN KDBQ 071130Z 02019G23KT 6SM BR OVC009 08/06 A2997 1030 86 500 020/19G23 RMK AO2
94908KDBQ DBQ20050407053510404/07/05 05:35:31  5-MIN KDBQ 071135Z 02017G23KT 6SM BR OVC009 08/06 A2997 1030 86 400 020/17G23 RMK AO2
94908KDBQ DBQ20050407054012204/07/05 05:40:31  5-MIN KDBQ 071140Z 02015G26KT 6SM BR OVC009 07/06 A2998 1030 89 400 020/15G26 RMK AO2 PK WND 03026/1137
94908KDBQ DBQ20050407054512204/07/05 05:45:31  5-MIN KDBQ 071145Z 02020G26KT 6SM BR OVC009 07/06 A2997 1030 89 400 020/20G26 RMK AO2 PK WND 03026/1137
94908KDBQ DBQ20050407055016204/07/05 05:50:31  5-MIN KDBQ 071150Z 03021G28KT 7SM OVC009 07/05 A2998  1020 86 400 030/21G28 RMK AO2 PK WND 03028/1150 SLP155 70055 T00720050  10122 20072 53005
94908KDBQ DBQ20050407055516204/07/05 05:55:31  5-MIN KDBQ 071155Z 03018G28KT 7SM OVC009 07/05 A2998  1020 86 400 030/18G28 RMK AO2 PK WND 03028/1150 SLP155 70055 T00720050  10122 20072 53013
94908KDBQ DBQ20050407060009604/07/05 06:00:31  5-MIN KDBQ 071200Z 03017KT 7SM OVC009 07/05 A2999 1020  86 400 030/17 RMK AO2
94908KDBQ DBQ20050407060509604/07/05 06:05:31  5-MIN KDBQ 071205Z 03022KT 7SM OVC009 07/05 A2998 1020  86 400 030/22 RMK AO2
94908KDBQ DBQ20050407061012204/07/05 06:10:31  5-MIN KDBQ 071210Z 03018G24KT 6SM BR OVC009 07/05 A2999 1020 86 400 020/18G24 RMK AO2 PK WND 03026/1206
94908KDBQ DBQ20050407061512204/07/05 06:15:31  5-MIN KDBQ 071215Z 02018G24KT 6SM BR OVC009 07/05 A2998 1020 86 400 020/18G24 RMK AO2 PK WND 03026/1206
94908KDBQ DBQ20050407062012204/07/05 06:20:31  5-MIN KDBQ 071220Z 03022G28KT 6SM BR OVC009 07/05 A2999 1020 86 400 030/22G28 RMK AO2 PK WND 02028/1220
94908KDBQ DBQ20050407062512204/07/05 06:25:31  5-MIN KDBQ 071225Z 03020G28KT 6SM BR OVC011 07/05 A2999 1010 86 400 030/20G28 RMK AO2 PK WND 02028/1220
94908KDBQ DBQ20050407063012204/07/05 06:30:31  5-MIN KDBQ 071230Z 03016G27KT 6SM BR OVC011 07/05 A2999 1010 86 400 030/16G27 RMK AO2 PK WND 02028/1220
94908KDBQ DBQ20050407063512204/07/05 06:35:31  5-MIN KDBQ 071235Z 02019G25KT 6SM BR OVC011 07/05 A3000 1010 86 400 020/19G25 RMK AO2 PK WND 02028/1220
94908KDBQ DBQ20050407064012204/07/05 06:40:31  5-MIN KDBQ 071240Z 03021G28KT 6SM BR OVC011 07/05 A3000 1010 86 400 030/21G28 RMK AO2 PK WND 03028/1240
94908KDBQ DBQ20050407064512204/07/05 06:45:31  5-MIN KDBQ 071245Z 03023G28KT 6SM BR OVC011 07/05 A3001 1000 86 300 030/23G28 RMK AO2 PK WND 03028/1240
94908KDBQ DBQ20050407065013704/07/05 06:50:31  5-MIN KDBQ 071250Z 03020G29KT 7SM OVC013 07/04 A3001  1000 82 300 030/20G29 RMK AO2 PK WND 02029/1249 SLP163 T00720044
94908KDBQ DBQ20050407065513704/07/05 06:55:31  5-MIN KDBQ 071255Z 04017G29KT 8SM OVC013 07/04 A3001  1000 82 300 040/17G29 RMK AO2 PK WND 02029/1249 SLP163 T00720044
94908KDBQ DBQ20050407070012004/07/05 07:00:31  5-MIN KDBQ 071300Z 04020G26KT 8SM OVC013 07/04 A3001  1000 82 300 040/20G26 RMK AO2 PK WND 03026/1259
94908KDBQ DBQ20050407070511804/07/05 07:05:31  5-MIN KDBQ 071305Z 04015G26KT 8SM OVC013 07/04 A3001 990 82 300 030/15G26 RMK AO2 PK WND 03026/1259
94908KDBQ DBQ20050407071011204/07/05 07:10:31  5-MIN KDBQ 071310Z 03015KT 8SM OVC013 07/05 A3001 990 86 300 030/15 RMK AO2 PK WND 03026/1259
94908KDBQ DBQ20050407071511804/07/05 07:15:31  5-MIN KDBQ 071315Z 02019G23KT 7SM OVC013 07/05 A3002 990 86 300 020/19G23 RMK AO2 PK WND 03026/1259
94908KDBQ DBQ20050407072011804/07/05 07:20:31  5-MIN KDBQ 071320Z 03016G23KT 7SM OVC013 07/05 A3002 990 86 300 020/16G23 RMK AO2 PK WND 03026/1259
94908KDBQ DBQ20050407072511204/07/05 07:25:31  5-MIN KDBQ 071325Z 03018KT 7SM OVC013 07/04 A3002 990 82 300 030/18 RMK AO2 PK WND 03026/1259
94908KDBQ DBQ20050407073011204/07/05 07:30:31  5-MIN KDBQ 071330Z 02016KT 7SM OVC013 07/05 A3002 980 86 300 020/16 RMK AO2 PK WND 03026/1259
94908KDBQ DBQ20050407073511204/07/05 07:35:31  5-MIN KDBQ 071335Z 03015KT 7SM OVC013 08/05 A3002 980 82 400 030/15 RMK AO2 PK WND 03026/1259
94908KDBQ DBQ20050407074011804/07/05 07:40:31  5-MIN KDBQ 071340Z 03019G24KT 8SM OVC013 08/04 A3002 990 79 400 020/19G24 RMK AO2 PK WND 03026/1259
94908KDBQ DBQ20050407074511804/07/05 07:45:31  5-MIN KDBQ 071345Z 03018G24KT 8SM OVC015 08/04 A3002 980 79 400 030/18G24 RMK AO2 PK WND 03026/1259
94908KDBQ DBQ20050407075013504/07/05 07:50:31  5-MIN KDBQ 071350Z 03014G22KT 8SM OVC015 08/05 A3002 980 82 400 030/14G22 RMK AO2 PK WND 03026/1259 SLP169 T00780050
94908KDBQ DBQ20050407075513504/07/05 07:55:31  5-MIN KDBQ 071355Z 03019G22KT 8SM OVC015 08/04 A3003 980 79 400 030/19G22 RMK AO2 PK WND 03026/1259 SLP170 T00780044
94908KDBQ DBQ20050407080010004/07/05 08:00:31  5-MIN KDBQ 071400Z 03014G22KT 8SM OVC015 08/05 A3003 980 82 400 030/14G22 RMK AO2
94908KDBQ DBQ20050407080509404/07/05 08:05:31  5-MIN KDBQ 071405Z 03015KT 9SM OVC015 08/05 A3003 980 82 400 030/15 RMK AO2
94908KDBQ DBQ20050407081010004/07/05 08:10:31  5-MIN KDBQ 071410Z 03021G24KT 9SM OVC017 08/05 A3003 980 82 400 030/21G24 RMK AO2
94908KDBQ DBQ20050407081510004/07/05 08:15:31  5-MIN KDBQ 071415Z 03019G24KT 9SM OVC017 08/04 A3003 980 79 400 030/19G24 RMK AO2
94908KDBQ DBQ20050407082010204/07/05 08:20:31  5-MIN KDBQ 071420Z 04020G25KT 10SM OVC017 08/04 A3003  980 79 400 040/20G25 RMK AO2
94908KDBQ DBQ20050407082510204/07/05 08:25:31  5-MIN KDBQ 071425Z 03016G25KT 10SM OVC017 08/04 A3003  980 79 400 030/16G25 RMK AO2
94908KDBQ DBQ20050407083010204/07/05 08:30:31  5-MIN KDBQ 071430Z 03018G25KT 10SM OVC017 08/04 A3003  970 79 400 030/18G25 RMK AO2
94908KDBQ DBQ20050407083510204/07/05 08:35:31  5-MIN KDBQ 071435Z 03019G25KT 10SM OVC017 08/04 A3004  970 76 400 030/19G25 RMK AO2
94908KDBQ DBQ20050407084010204/07/05 08:40:31  5-MIN KDBQ 071440Z 03014G25KT 10SM BKN017 08/04 A3004  970 76 400 030/14G25 RMK AO2
94908KDBQ DBQ20050407084510204/07/05 08:45:31  5-MIN KDBQ 071445Z 04018G23KT 10SM BKN017 08/04 A3004  970 76 400 040/18G23 RMK AO2
94908KDBQ DBQ20050407085012504/07/05 08:50:31  5-MIN KDBQ 071450Z 03019G24KT 10SM BKN017 09/04 A3004  970 73 500 030/19G24 RMK AO2 SLP175 T00890044 53013
94908KDBQ DBQ20050407085512504/07/05 08:55:31  5-MIN KDBQ 071455Z 03015G24KT 10SM BKN017 09/04 A3004  970 73 500 030/15G24 RMK AO2 SLP175 T00890044 51019
94908KDBQ DBQ20050407090010204/07/05 09:00:31  5-MIN KDBQ 071500Z 04015G21KT 10SM BKN017 09/05 A3004  970 74 600 040/15G21 RMK AO2
94908KDBQ DBQ20050407090510204/07/05 09:05:31  5-MIN KDBQ 071505Z 03018G22KT 10SM BKN019 09/05 A3005  960 76 500 030/18G22 RMK AO2
94908KDBQ DBQ20050407091010204/07/05 09:10:31  5-MIN KDBQ 071510Z 04016G23KT 10SM BKN019 09/04 A3005  960 73 500 040/16G23 RMK AO2
94908KDBQ DBQ20050407091510204/07/05 09:15:31  5-MIN KDBQ 071515Z 03019G25KT 10SM BKN019 09/04 A3005  960 73 500 030/19G25 RMK AO2
94908KDBQ DBQ20050407092010204/07/05 09:20:31  5-MIN KDBQ 071520Z 04016G25KT 10SM BKN019 08/04 A3005  960 73 400 040/16G25 RMK AO2
94908KDBQ DBQ20050407092510204/07/05 09:25:31  5-MIN KDBQ 071525Z 04016G22KT 10SM SCT019 09/04 A3005  960 73 500 040/16G22 RMK AO2
94908KDBQ DBQ20050407093010204/07/05 09:30:31  5-MIN KDBQ 071530Z 04020G23KT 10SM SCT019 09/04 A3005  960 71 600 040/20G23 RMK AO2
94908KDBQ DBQ20050407093510204/07/05 09:35:31  5-MIN KDBQ 071535Z 04017G23KT 10SM FEW019 10/05 A3005  960 71 600 040/17G23 RMK AO2
94908KDBQ DBQ20050407094010204/07/05 09:40:31  5-MIN KDBQ 071540Z 04017G23KT 10SM FEW019 10/05 A3005  960 71 600 040/17G23 RMK AO2
94908KDBQ DBQ20050407094509904/07/05 09:45:31  5-MIN KDBQ 071545Z 05017G23KT 10SM CLR 10/05 A3005 960  71 600 050/17G23 RMK AO2
94908KDBQ DBQ20050407095011904/07/05 09:50:31  5-MIN KDBQ 071550Z 05017G23KT 10SM FEW023 10/04 A3005  960 68 600 050/17G23 RMK AO2 SLP179 T01000044
94908KDBQ DBQ20050407095511904/07/05 09:55:31  5-MIN KDBQ 071555Z 04016G22KT 10SM SCT023 11/05 A3005  950 68 700 040/16G22 RMK AO2 SLP179 T01060050
94908KDBQ DBQ20050407100010204/07/05 10:00:31  5-MIN KDBQ 071600Z 04017G21KT 10SM SCT023 11/05 A3005  960 68 700 040/17G21 RMK AO2
94908KDBQ DBQ20050407100510204/07/05 10:05:31  5-MIN KDBQ 071605Z 04015G21KT 10SM SCT023 10/05 A3005  950 71 600 040/15G21 RMK AO2
94908KDBQ DBQ20050407101009604/07/05 10:10:31  5-MIN KDBQ 071610Z 05016KT 10SM SCT023 11/05 A3005 960  68 700 040/16 RMK AO2
94908KDBQ DBQ20050407101510204/07/05 10:15:31  5-MIN KDBQ 071615Z 04016G20KT 10SM SCT023 11/06 A3005  960 68 800 030/16G20 RMK AO2
94908KDBQ DBQ20050407102009604/07/05 10:20:31  5-MIN KDBQ 071620Z 04018KT 10SM SCT023 11/05 A3005 960  66 800 040/18 RMK AO2
94908KDBQ DBQ20050407102509604/07/05 10:25:31  5-MIN KDBQ 071625Z 04016KT 10SM FEW023 11/05 A3005 960  68 700 040/16 RMK AO2
94908KDBQ DBQ20050407103010204/07/05 10:30:31  5-MIN KDBQ 071630Z 04015G22KT 10SM FEW023 11/06 A3005  960 68 800 040/15G22 RMK AO2
94908KDBQ DBQ20050407103510204/07/05 10:35:31  5-MIN KDBQ 071635Z 04017G21KT 10SM FEW025 11/05 A3005  960 66 800 040/17G21 RMK AO2
94908KDBQ DBQ20050407104010204/07/05 10:40:31  5-MIN KDBQ 071640Z 05017G22KT 10SM FEW025 12/05 A3005  960 63 800 050/17G22 RMK AO2
94908KDBQ DBQ20050407104510204/07/05 10:45:31  5-MIN KDBQ 071645Z 04017G22KT 10SM FEW025 12/05 A3005  960 63 800 040/17G22 RMK AO2
94908KDBQ DBQ20050407105011604/07/05 10:50:31  5-MIN KDBQ 071650Z 03017G22KT 10SM CLR 12/05 A3005 960  63 800 030/17G22 RMK AO2 SLP176 T01170050
94908KDBQ DBQ20050407105511604/07/05 10:55:31  5-MIN KDBQ 071655Z 05015G22KT 10SM CLR 12/06 A3004 960  66 900 040/15G22 RMK AO2 SLP175 T01220061
94908KDBQ DBQ20050407110009904/07/05 11:00:31  5-MIN KDBQ 071700Z 04018G21KT 10SM CLR 12/06 A3004 960  63 900 040/18G21 RMK AO2
94908KDBQ DBQ20050407110509904/07/05 11:05:31  5-MIN KDBQ 071705Z 05012G21KT 10SM CLR 12/06 A3004 970  63 900 050/12G21 RMK AO2
94908KDBQ DBQ20050407111009304/07/05 11:10:31  5-MIN KDBQ 071710Z 05018KT 10SM CLR 12/06 A3004 970 63  900 050/18 RMK AO2
94908KDBQ DBQ20050407111510004/07/05 11:15:31  5-MIN KDBQ 071715Z 04015G20KT 10SM CLR 13/06 A3004 970  61 1000 040/15G20 RMK AO2
94908KDBQ DBQ20050407112009404/07/05 11:20:31  5-MIN KDBQ 071720Z 03013KT 10SM CLR 13/06 A3004 970 63  1000 030/13 RMK AO2
94908KDBQ DBQ20050407112510004/07/05 11:25:31  5-MIN KDBQ 071725Z 02017G22KT 10SM CLR 13/06 A3004 970  59 1000 020/17G22 RMK AO2
94908KDBQ DBQ20050407113010004/07/05 11:30:31  5-MIN KDBQ 071730Z 03015G22KT 10SM CLR 13/06 A3004 970  59 1000 030/15G22 RMK AO2
94908KDBQ DBQ20050407113510004/07/05 11:35:31  5-MIN KDBQ 071735Z 05012G20KT 10SM CLR 14/06 A3004 970  59 1100 040/12G20 RMK AO2
94908KDBQ DBQ20050407114010004/07/05 11:40:31  5-MIN KDBQ 071740Z 05016G23KT 10SM CLR 14/06 A3004 970  57 1100 050/16G23 RMK AO2
94908KDBQ DBQ20050407114510004/07/05 11:45:31  5-MIN KDBQ 071745Z 04017G23KT 10SM CLR 14/05 A3004 970  55 1100 040/17G23 RMK AO2
94908KDBQ DBQ20050407115012904/07/05 11:50:31  5-MIN KDBQ 071750Z 06015KT 10SM CLR 14/06 A3003 970 57  1100 060/15 RMK AO2 SLP171 T01390056 10139 20072 51019
94908KDBQ DBQ20050407115512904/07/05 11:55:31  5-MIN KDBQ 071755Z 04013KT 10SM CLR 14/06 A3003 970 55  1200 040/13 RMK AO2 SLP171 T01440056 10144 20072 58003
94908KDBQ DBQ20050407120010004/07/05 12:00:31  5-MIN KDBQ 071800Z 03017G21KT 10SM CLR 14/06 A3003 970  57 1200 020/17G21 RMK AO2
94908KDBQ DBQ20050407120510004/07/05 12:05:31  5-MIN KDBQ 071805Z 06016G20KT 10SM CLR 14/06 A3003 970  55 1200 060/16G20 RMK AO2
94908KDBQ DBQ20050407121010004/07/05 12:10:31  5-MIN KDBQ 071810Z 03016G21KT 10SM CLR 14/06 A3003 980  55 1200 030/16G21 RMK AO2
94908KDBQ DBQ20050407121510004/07/05 12:15:31  5-MIN KDBQ 071815Z 03014G21KT 10SM CLR 14/06 A3003 980  55 1200 030/14G21 RMK AO2
94908KDBQ DBQ20050407122010004/07/05 12:20:31  5-MIN KDBQ 071820Z 02014G21KT 10SM CLR 15/06 A3003 980  53 1200 020/14G21 RMK AO2
94908KDBQ DBQ20050407122509404/07/05 12:25:31  5-MIN KDBQ 071825Z 04014KT 10SM CLR 15/06 A3003 980 53  1200 040/14 RMK AO2
94908KDBQ DBQ20050407123010004/07/05 12:30:31  5-MIN KDBQ 071830Z 03015G21KT 10SM CLR 15/06 A3003 980  55 1200 030/15G21 RMK AO2
94908KDBQ DBQ20050407123510004/07/05 12:35:31  5-MIN KDBQ 071835Z 06015G21KT 10SM CLR 15/06 A3003 980  53 1200 060/15G21 RMK AO2
94908KDBQ DBQ20050407124010004/07/05 12:40:31  5-MIN KDBQ 071840Z 02014G20KT 10SM CLR 15/06 A3003 980  53 1200 020/14G20 RMK AO2
94908KDBQ DBQ20050407124510004/07/05 12:45:31  5-MIN KDBQ 071845Z 02013G20KT 10SM CLR 15/06 A3003 980  53 1200 020/13G20 RMK AO2
94908KDBQ DBQ20050407125011704/07/05 12:50:31  5-MIN KDBQ 071850Z 06011G19KT 10SM CLR 15/05 A3003 980  51 1200 060/11G19 RMK AO2 SLP170 T01500050
94908KDBQ DBQ20050407125511704/07/05 12:55:31  5-MIN KDBQ 071855Z 05013G19KT 10SM CLR 16/06 A3003 980  51 1300 050/13G19 RMK AO2 SLP170 T01560056
94908KDBQ DBQ20050407130009404/07/05 13:00:31  5-MIN KDBQ 071900Z 05015KT 10SM CLR 16/05 A3003 980 49  1300 050/15 RMK AO2
94908KDBQ DBQ20050407130509404/07/05 13:05:31  5-MIN KDBQ 071905Z 05013KT 10SM CLR 16/04 A3003 980 47  1300 050/13 RMK AO2
94908KDBQ DBQ20050407131009404/07/05 13:10:31  5-MIN KDBQ 071910Z 05013KT 10SM CLR 16/05 A3002 980 49  1300 050/13 RMK AO2
94908KDBQ DBQ20050407131509404/07/05 13:15:31  5-MIN KDBQ 071915Z 03014KT 10SM CLR 16/06 A3002 980 49  1400 020/14 RMK AO2
94908KDBQ DBQ20050407132010004/07/05 13:20:31  5-MIN KDBQ 071920Z 05012G19KT 10SM CLR 16/06 A3002 990  51 1400 050/12G19 RMK AO2
94908KDBQ DBQ20050407132510004/07/05 13:25:31  5-MIN KDBQ 071925Z 03011G20KT 10SM CLR 16/05 A3002 980  47 1400 030/11G20 RMK AO2
94908KDBQ DBQ20050407133010004/07/05 13:30:31  5-MIN KDBQ 071930Z 05013G20KT 10SM CLR 17/05 A3002 980  45 1400 050/13G20 RMK AO2
94908KDBQ DBQ20050407133509404/07/05 13:35:31  5-MIN KDBQ 071935Z 05014KT 10SM CLR 16/04 A3002 980 45  1400 050/14 RMK AO2
94908KDBQ DBQ20050407134009404/07/05 13:40:31  5-MIN KDBQ 071940Z 04010KT 10SM CLR 16/05 A3002 980 47  1400 040/10 RMK AO2
94908KDBQ DBQ20050407134509404/07/05 13:45:31  5-MIN KDBQ 071945Z 06010KT 10SM CLR 16/05 A3002 990 47  1400 050/10 RMK AO2
94908KDBQ DBQ20050407135011704/07/05 13:50:31  5-MIN KDBQ 071950Z 02011G25KT 10SM CLR 16/05 A3002 990  47 1400 020/11G25 RMK AO2 SLP165 T01610050
94908KDBQ DBQ20050407135511704/07/05 13:55:31  5-MIN KDBQ 071955Z 03014G25KT 10SM CLR 17/04 A3002 990  44 1500 030/14G25 RMK AO2 SLP165 T01670044
94908KDBQ DBQ20050407140009404/07/05 14:00:31  5-MIN KDBQ 072000Z 03013KT 10SM CLR 16/04 A3001 990 45  1400 030/13 RMK AO2
94908KDBQ DBQ20050407140509404/07/05 14:05:31  5-MIN KDBQ 072005Z 01016KT 10SM CLR 17/04 A3001 990 44  1500 010/16 RMK AO2
94908KDBQ DBQ20050407141009404/07/05 14:10:31  5-MIN KDBQ 072010Z 03011KT 10SM CLR 17/05 A3001 990 45  1500 030/11 RMK AO2
94908KDBQ DBQ20050407141509404/07/05 14:15:31  5-MIN KDBQ 072015Z 01010KT 10SM CLR 17/04 A3001 990 44  1500 010/10 RMK AO2
94908KDBQ DBQ20050407142011604/07/05 14:20:31  5-MIN KDBQ 072020Z 05009G15KT 010V070 10SM CLR 17/04  A3002 990 44 1500 050/09G15 010V070 RMK AO2
94908KDBQ DBQ20050407142509404/07/05 14:25:31  5-MIN KDBQ 072025Z 05010KT 10SM CLR 17/04 A3002 990 44  1500 050/10 RMK AO2
94908KDBQ DBQ20050407143010904/07/05 14:30:31  5-MIN KDBQ 072030Z 04008KT 010V080 10SM CLR 17/04 A3001 990 44 1500 040/08 010V080 RMK AO2
94908KDBQ DBQ20050407143510004/07/05 14:35:31  5-MIN KDBQ 072035Z 03012G16KT 10SM CLR 17/04 A3001 990  44 1500 030/12G16 RMK AO2
94908KDBQ DBQ20050407144009404/07/05 14:40:31  5-MIN KDBQ 072040Z 03010KT 10SM CLR 17/04 A3001 990 42  1500 030/10 RMK AO2
94908KDBQ DBQ20050407144509404/07/05 14:45:31  5-MIN KDBQ 072045Z 05010KT 10SM CLR 17/05 A3001 1000 45 1500 050/10 RMK AO2
94908KDBQ DBQ20050407145011704/07/05 14:50:31  5-MIN KDBQ 072050Z 04009KT 10SM CLR 17/04 A3001 1000 42 1500 040/09 RMK AO2 SLP163 T01670039 58003
94908KDBQ DBQ20050407145511704/07/05 14:55:31  5-MIN KDBQ 072055Z 01009KT 10SM CLR 17/04 A3001 1000 42 1500 010/09 RMK AO2 SLP163 T01720044 58008
94908KDBQ DBQ20050407150009404/07/05 15:00:31  5-MIN KDBQ 072100Z 03008KT 10SM CLR 17/04 A3001 1000 44 1500 030/08 RMK AO2
94908KDBQ DBQ20050407150509404/07/05 15:05:31  5-MIN KDBQ 072105Z 04010KT 10SM CLR 17/04 A3000 1000 42 1500 040/10 RMK AO2
94908KDBQ DBQ20050407151009404/07/05 15:10:31  5-MIN KDBQ 072110Z 03011KT 10SM CLR 17/04 A3000 1000 44 1500 030/11 RMK AO2
94908KDBQ DBQ20050407151509404/07/05 15:15:31  5-MIN KDBQ 072115Z 06011KT 10SM CLR 17/04 A3000 1000 42 1500 060/11 RMK AO2
94908KDBQ DBQ20050407152009404/07/05 15:20:31  5-MIN KDBQ 072120Z 02010KT 10SM CLR 17/04 A3001 1000 42 1500 020/10 RMK AO2
94908KDBQ DBQ20050407152509404/07/05 15:25:31  5-MIN KDBQ 072125Z 03010KT 10SM CLR 17/04 A3001 1000 42 1500 030/10 RMK AO2
94908KDBQ DBQ20050407153009404/07/05 15:30:31  5-MIN KDBQ 072130Z 03008KT 10SM CLR 17/04 A3000 1000 42 1500 030/08 RMK AO2
94908KDBQ DBQ20050407153509404/07/05 15:35:31  5-MIN KDBQ 072135Z 06011KT 10SM CLR 17/04 A3000 1000 42 1500 060/11 RMK AO2
94908KDBQ DBQ20050407154009404/07/05 15:40:31  5-MIN KDBQ 072140Z 03007KT 10SM CLR 17/04 A3000 1010 42 1500 030/07 RMK AO2
94908KDBQ DBQ20050407154509404/07/05 15:45:31  5-MIN KDBQ 072145Z 05008KT 10SM CLR 17/04 A3000 1010 42 1500 050/08 RMK AO2
94908KDBQ DBQ20050407155011104/07/05 15:50:31  5-MIN KDBQ 072150Z 05008KT 10SM CLR 17/04 A3000 1010 41 1500 050/08 RMK AO2 SLP159 T01720039
94908KDBQ DBQ20050407155511704/07/05 15:55:31  5-MIN KDBQ 072155Z 05011G14KT 10SM CLR 17/04 A3000 1010 41 1500 050/11G14 RMK AO2 SLP160 T01720039
94908KDBQ DBQ20050407160009404/07/05 16:00:31  5-MIN KDBQ 072200Z 05010KT 10SM CLR 17/04 A3000 1010 41 1500 050/10 RMK AO2
94908KDBQ DBQ20050407160509404/07/05 16:05:31  5-MIN KDBQ 072205Z 06011KT 10SM CLR 17/04 A3000 1000 41 1500 060/11 RMK AO2
94908KDBQ DBQ20050407161009404/07/05 16:10:31  5-MIN KDBQ 072210Z 06007KT 10SM CLR 17/03 A3000 1000 39 1500 060/07 RMK AO2
94908KDBQ DBQ20050407161509404/07/05 16:15:31  5-MIN KDBQ 072215Z 05007KT 10SM CLR 17/03 A3000 1010 39 1500 050/07 RMK AO2
94908KDBQ DBQ20050407162009404/07/05 16:20:31  5-MIN KDBQ 072220Z 06008KT 10SM CLR 17/04 A2999 1010 41 1500 050/08 RMK AO2
94908KDBQ DBQ20050407162509404/07/05 16:25:31  5-MIN KDBQ 072225Z 04007KT 10SM CLR 17/04 A3000 1010 41 1500 040/07 RMK AO2
94908KDBQ DBQ20050407163009404/07/05 16:30:31  5-MIN KDBQ 072230Z 04007KT 10SM CLR 17/03 A3000 1010 39 1500 040/07 RMK AO2
94908KDBQ DBQ20050407163511004/07/05 16:35:31  5-MIN KDBQ 072235Z 05007KT 010V080 10SM CLR 17/04 A3000 1010 41 1500 050/07 010V080 RMK AO2
94908KDBQ DBQ20050407164009404/07/05 16:40:31  5-MIN KDBQ 072240Z 06010KT 10SM CLR 17/03 A3000 1010 39 1500 060/10 RMK AO2
94908KDBQ DBQ20050407164509404/07/05 16:45:31  5-MIN KDBQ 072245Z 05009KT 10SM CLR 17/03 A3000 1010 39 1500 050/09 RMK AO2
94908KDBQ DBQ20050407165011104/07/05 16:50:31  5-MIN KDBQ 072250Z 05009KT 10SM CLR 17/03 A3000 1010 39 1500 050/09 RMK AO2 SLP159 T01720033
94908KDBQ DBQ20050407165511104/07/05 16:55:31  5-MIN KDBQ 072255Z 04009KT 10SM CLR 17/03 A3000 1010 39 1500 040/09 RMK AO2 SLP160 T01720033
94908KDBQ DBQ20050407170009404/07/05 17:00:31  5-MIN KDBQ 072300Z 04008KT 10SM CLR 17/03 A3000 1010 40 1500 040/08 RMK AO2
94908KDBQ DBQ20050407170509404/07/05 17:05:31  5-MIN KDBQ 072305Z 07005KT 10SM CLR 17/03 A3000 1010 39 1500 070/05 RMK AO2
94908KDBQ DBQ20050407171009404/07/05 17:10:31  5-MIN KDBQ 072310Z 04003KT 10SM CLR 17/03 A3000 1010 37 1500 040/03 RMK AO2
94908KDBQ DBQ20050407171509404/07/05 17:15:31  5-MIN KDBQ 072315Z 06009KT 10SM CLR 17/03 A3000 1010 37 1500 060/09 RMK AO2
94908KDBQ DBQ20050407172009404/07/05 17:20:31  5-MIN KDBQ 072320Z 05006KT 10SM CLR 17/04 A2999 1010 42 1500 050/06 RMK AO2
94908KDBQ DBQ20050407172509404/07/05 17:25:31  5-MIN KDBQ 072325Z 03006KT 10SM CLR 17/04 A2999 1010 42 1500 030/06 RMK AO2
94908KDBQ DBQ20050407173009404/07/05 17:30:31  5-MIN KDBQ 072330Z 04007KT 10SM CLR 17/03 A2999 1010 40 1500 040/07 RMK AO2
94908KDBQ DBQ20050407173509404/07/05 17:35:31  5-MIN KDBQ 072335Z 05008KT 10SM CLR 17/03 A2999 1010 40 1500 050/08 RMK AO2
94908KDBQ DBQ20050407174009404/07/05 17:40:31  5-MIN KDBQ 072340Z 04006KT 10SM CLR 17/03 A2999 1010 39 1500 040/06 RMK AO2
94908KDBQ DBQ20050407174509404/07/05 17:45:31  5-MIN KDBQ 072345Z 03007KT 10SM CLR 16/03 A3000 1010 42 1400 030/07 RMK AO2
94908KDBQ DBQ20050407175012904/07/05 17:50:31  5-MIN KDBQ 072350Z 04005KT 10SM CLR 16/03 A3000 1010 42 1400 040/05 RMK AO2 SLP160 T01610033 10172 20144 58008
94908KDBQ DBQ20050407175512904/07/05 17:55:31  5-MIN KDBQ 072355Z 05004KT 10SM CLR 16/04 A3000 1010 44 1400 050/04 RMK AO2 SLP160 T01610039 10172 20144 56004
94908KDBQ DBQ20050407180009404/07/05 18:00:31  5-MIN KDBQ 080000Z 06006KT 10SM CLR 16/03 A3000 1010 42 1400 060/06 RMK AO2
94908KDBQ DBQ20050407180509404/07/05 18:05:31  5-MIN KDBQ 080005Z 06006KT 10SM CLR 16/03 A3000 1010 42 1300 060/06 RMK AO2
94908KDBQ DBQ20050407181009404/07/05 18:10:31  5-MIN KDBQ 080010Z 05005KT 10SM CLR 16/03 A3000 1010 43 1300 050/05 RMK AO2
94908KDBQ DBQ20050407181509404/07/05 18:15:31  5-MIN KDBQ 080015Z 06004KT 10SM CLR 15/03 A3000 1010 45 1300 060/04 RMK AO2
94908KDBQ DBQ20050407182009404/07/05 18:20:31  5-MIN KDBQ 080020Z 08004KT 10SM CLR 15/03 A3000 1010 43 1300 070/04 RMK AO2
94908KDBQ DBQ20050407182509404/07/05 18:25:31  5-MIN KDBQ 080025Z 09003KT 10SM CLR 14/03 A3000 1010 47 1200 090/03 RMK AO2
94908KDBQ DBQ20050407183009404/07/05 18:30:31  5-MIN KDBQ 080030Z 09003KT 10SM CLR 15/03 A3000 1000 45 1300 090/03 RMK AO2
94908KDBQ DBQ20050407183509404/07/05 18:35:31  5-MIN KDBQ 080035Z 09003KT 10SM CLR 14/04 A3000 1000 49 1200 090/03 RMK AO2
94908KDBQ DBQ20050407184010504/07/05 18:40:31  5-MIN KDBQ 080040Z AUTO 10003KT 10SM CLR 14/03 A3000  1000 47 1200 100/03 RMK AO2 TSNO
94908KDBQ DBQ20050407184510504/07/05 18:45:31  5-MIN KDBQ 080045Z AUTO 10003KT 10SM CLR 14/03 A3001  1000 48 1100 100/03 RMK AO2 TSNO
94908KDBQ DBQ20050407185012204/07/05 18:50:31  5-MIN KDBQ 080050Z AUTO 10003KT 10SM CLR 13/04 A3000  1000 52 1100 100/03 RMK AO2 SLP163 T01330039 TSNO
94908KDBQ DBQ20050407185512104/07/05 18:55:31  5-MIN KDBQ 080055Z AUTO 10003KT 10SM CLR 12/04 A3000  1000 59 900 100/03 RMK AO2 SLP164 T01220044 TSNO
94908KDBQ DBQ20050407190010504/07/05 19:00:31  5-MIN KDBQ 080100Z AUTO 11004KT 10SM CLR 13/04 A3000  1000 54 1000 110/04 RMK AO2 TSNO
94908KDBQ DBQ20050407190510404/07/05 19:05:31  5-MIN KDBQ 080105Z AUTO 10004KT 10SM CLR 12/04 A3001  1000 58 900 100/04 RMK AO2 TSNO
94908KDBQ DBQ20050407191010404/07/05 19:10:31  5-MIN KDBQ 080110Z AUTO 10004KT 10SM CLR 12/04 A3001  1000 61 900 100/04 RMK AO2 TSNO
94908KDBQ DBQ20050407191510404/07/05 19:15:31  5-MIN KDBQ 080115Z AUTO 11003KT 10SM CLR 11/04 A3001  1000 66 700 110/03 RMK AO2 TSNO
94908KDBQ DBQ20050407192010404/07/05 19:20:31  5-MIN KDBQ 080120Z AUTO 11004KT 10SM CLR 12/04 A3001  1000 61 900 100/04 RMK AO2 TSNO
94908KDBQ DBQ20050407192510404/07/05 19:25:31  5-MIN KDBQ 080125Z AUTO 10003KT 10SM CLR 12/04 A3001  1000 58 900 100/03 RMK AO2 TSNO
94908KDBQ DBQ20050407193010404/07/05 19:30:31  5-MIN KDBQ 080130Z AUTO 12003KT 10SM CLR 11/04 A3001  1000 63 800 120/03 RMK AO2 TSNO
94908KDBQ DBQ20050407193510404/07/05 19:35:31  5-MIN KDBQ 080135Z AUTO 12003KT 10SM CLR 12/04 A3001  1000 58 900 120/03 RMK AO2 TSNO
94908KDBQ DBQ20050407194010404/07/05 19:40:31  5-MIN KDBQ 080140Z AUTO 12003KT 10SM CLR 12/04 A3001  1000 58 900 120/03 RMK AO2 TSNO
94908KDBQ DBQ20050407194510204/07/05 19:45:31  5-MIN KDBQ 080145Z AUTO 12003KT 10SM CLR 12/04 A3001 990 58 900 120/03 RMK AO2 TSNO
94908KDBQ DBQ20050407195011904/07/05 19:50:31  5-MIN KDBQ 080150Z AUTO 12004KT 10SM CLR 11/04 A3001 990 61 800 120/04 RMK AO2 SLP167 T01110039 TSNO
94908KDBQ DBQ20050407195511904/07/05 19:55:31  5-MIN KDBQ 080155Z AUTO 11004KT 10SM CLR 11/04 A3001 990 63 700 110/04 RMK AO2 SLP167 T01060039 TSNO
94908KDBQ DBQ20050407200010204/07/05 20:00:31  5-MIN KDBQ 080200Z AUTO 11004KT 10SM CLR 10/04 A3001 990 68 700 110/04 RMK AO2 TSNO
94908KDBQ DBQ20050407200510404/07/05 20:05:31  5-MIN KDBQ 080205Z AUTO 11004KT 10SM CLR 10/04 A3001  1000 65 700 110/04 RMK AO2 TSNO
94908KDBQ DBQ20050407201010404/07/05 20:10:31  5-MIN KDBQ 080210Z AUTO 12006KT 10SM CLR 10/04 A3001  1000 65 700 120/06 RMK AO2 TSNO
94908KDBQ DBQ20050407201510204/07/05 20:15:31  5-MIN KDBQ 080215Z AUTO 13005KT 10SM CLR 09/04 A3001 990 68 600 130/05 RMK AO2 TSNO
94908KDBQ DBQ20050407202010204/07/05 20:20:31  5-MIN KDBQ 080220Z AUTO 13004KT 10SM CLR 11/04 A3001 990 61 800 130/04 RMK AO2 TSNO
94908KDBQ DBQ20050407202510204/07/05 20:25:31  5-MIN KDBQ 080225Z AUTO 14004KT 10SM CLR 11/04 A3001 990 61 800 130/04 RMK AO2 TSNO
94908KDBQ DBQ20050407203010204/07/05 20:30:31  5-MIN KDBQ 080230Z AUTO 13003KT 10SM CLR 11/04 A3001 990 63 700 130/03 RMK AO2 TSNO
94908KDBQ DBQ20050407203510204/07/05 20:35:31  5-MIN KDBQ 080235Z AUTO 13004KT 10SM CLR 09/04 A3001 990 68 600 130/04 RMK AO2 TSNO
94908KDBQ DBQ20050407204010204/07/05 20:40:31  5-MIN KDBQ 080240Z AUTO 12003KT 10SM CLR 09/04 A3001 990 68 600 110/03 RMK AO2 TSNO
94908KDBQ DBQ20050407204510204/07/05 20:45:31  5-MIN KDBQ 080245Z AUTO 12005KT 10SM CLR 09/03 A3001 990 68 500 120/05 RMK AO2 TSNO
94908KDBQ DBQ20050407205012504/07/05 20:50:31  5-MIN KDBQ 080250Z AUTO 12005KT 10SM CLR 09/03 A3001 990 65 600 120/05 RMK AO2 SLP168 T00940033 56004 TSNO
94908KDBQ DBQ20050407205512504/07/05 20:55:31  5-MIN KDBQ 080255Z AUTO 11005KT 10SM CLR 09/03 A3001 990 65 600 110/05 RMK AO2 SLP168 T00940033 51006 TSNO
94908KDBQ DBQ20050407210010204/07/05 21:00:31  5-MIN KDBQ 080300Z AUTO 11005KT 10SM CLR 09/03 A3002 990 65 600 110/05 RMK AO2 TSNO
94908KDBQ DBQ20050407210510204/07/05 21:05:31  5-MIN KDBQ 080305Z AUTO 12003KT 10SM CLR 09/04 A3002 990 68 600 120/03 RMK AO2 TSNO
94908KDBQ DBQ20050407211010204/07/05 21:10:31  5-MIN KDBQ 080310Z AUTO 12003KT 10SM CLR 09/03 A3002 990 68 500 120/03 RMK AO2 TSNO
94908KDBQ DBQ20050407211510204/07/05 21:15:31  5-MIN KDBQ 080315Z AUTO 11005KT 10SM CLR 09/03 A3002 990 68 500 110/05 RMK AO2 TSNO
94908KDBQ DBQ20050407212010204/07/05 21:20:31  5-MIN KDBQ 080320Z AUTO 11006KT 10SM CLR 09/03 A3002 990 65 600 110/06 RMK AO2 TSNO
94908KDBQ DBQ20050407212510204/07/05 21:25:31  5-MIN KDBQ 080325Z AUTO 12007KT 10SM CLR 09/03 A3002 990 65 600 110/07 RMK AO2 TSNO
94908KDBQ DBQ20050407213010204/07/05 21:30:31  5-MIN KDBQ 080330Z AUTO 12007KT 10SM CLR 09/03 A3002 990 68 500 120/07 RMK AO2 TSNO
94908KDBQ DBQ20050407213510204/07/05 21:35:31  5-MIN KDBQ 080335Z AUTO 11007KT 10SM CLR 09/03 A3002 990 68 500 110/07 RMK AO2 TSNO
94908KDBQ DBQ20050407214010204/07/05 21:40:31  5-MIN KDBQ 080340Z AUTO 11006KT 10SM CLR 09/03 A3002 990 68 500 110/06 RMK AO2 TSNO
94908KDBQ DBQ20050407214510204/07/05 21:45:31  5-MIN KDBQ 080345Z AUTO 12006KT 10SM CLR 09/03 A3002 990 68 500 120/06 RMK AO2 TSNO
94908KDBQ DBQ20050407215011904/07/05 21:50:31  5-MIN KDBQ 080350Z AUTO 11005KT 10SM CLR 09/03 A3002 990 68 500 110/05 RMK AO2 SLP170 T00890033 TSNO
94908KDBQ DBQ20050407215511904/07/05 21:55:31  5-MIN KDBQ 080355Z AUTO 11005KT 10SM CLR 08/03 A3002 990 70 500 110/05 RMK AO2 SLP170 T00830033 TSNO
94908KDBQ DBQ20050407220010204/07/05 22:00:31  5-MIN KDBQ 080400Z AUTO 11005KT 10SM CLR 07/03 A3002 990 73 300 110/05 RMK AO2 TSNO
94908KDBQ DBQ20050407220510204/07/05 22:05:31  5-MIN KDBQ 080405Z AUTO 11005KT 10SM CLR 07/03 A3002 980 76 300 110/05 RMK AO2 TSNO
94908KDBQ DBQ20050407221010204/07/05 22:10:31  5-MIN KDBQ 080410Z AUTO 10004KT 10SM CLR 07/03 A3002 980 73 300 100/04 RMK AO2 TSNO
94908KDBQ DBQ20050407221510204/07/05 22:15:31  5-MIN KDBQ 080415Z AUTO 10003KT 10SM CLR 07/03 A3003 980 73 300 100/03 RMK AO2 TSNO
94908KDBQ DBQ20050407222010204/07/05 22:20:31  5-MIN KDBQ 080420Z AUTO 11004KT 10SM CLR 08/03 A3003 980 68 500 110/04 RMK AO2 TSNO
94908KDBQ DBQ20050407222510204/07/05 22:25:31  5-MIN KDBQ 080425Z AUTO 10003KT 10SM CLR 08/03 A3003 980 68 500 100/03 RMK AO2 TSNO
94908KDBQ DBQ20050407223010204/07/05 22:30:31  5-MIN KDBQ 080430Z AUTO 11003KT 10SM CLR 09/03 A3003 980 65 500 100/03 RMK AO2 TSNO
94908KDBQ DBQ20050407223510204/07/05 22:35:31  5-MIN KDBQ 080435Z AUTO 11003KT 10SM CLR 09/03 A3003 980 65 500 110/03 RMK AO2 TSNO
94908KDBQ DBQ20050407224010204/07/05 22:40:31  5-MIN KDBQ 080440Z AUTO 11004KT 10SM CLR 09/03 A3003 980 65 500 110/04 RMK AO2 TSNO
94908KDBQ DBQ20050407224510204/07/05 22:45:31  5-MIN KDBQ 080445Z AUTO 11005KT 10SM CLR 08/03 A3003 970 68 400 110/05 RMK AO2 TSNO
94908KDBQ DBQ20050407225011904/07/05 22:50:31  5-MIN KDBQ 080450Z AUTO 12005KT 10SM CLR 08/03 A3003 970 68 400 120/05 RMK AO2 SLP175 T00830028 TSNO
94908KDBQ DBQ20050407225511904/07/05 22:55:31  5-MIN KDBQ 080455Z AUTO 12004KT 10SM CLR 08/03 A3004 970 70 400 110/04 RMK AO2 SLP175 T00780028 TSNO
94908KDBQ DBQ20050407230010204/07/05 23:00:31  5-MIN KDBQ 080500Z AUTO 12004KT 10SM CLR 08/03 A3004 970 70 400 110/04 RMK AO2 TSNO
94908KDBQ DBQ20050407230510204/07/05 23:05:31  5-MIN KDBQ 080505Z AUTO 12005KT 10SM CLR 07/03 A3003 970 73 300 120/05 RMK AO2 TSNO
94908KDBQ DBQ20050407231010204/07/05 23:10:31  5-MIN KDBQ 080510Z AUTO 00000KT 10SM CLR 08/03 A3004 970 70 400 000/00 RMK AO2 TSNO
94908KDBQ DBQ20050407231510204/07/05 23:15:31  5-MIN KDBQ 080515Z AUTO 00000KT 10SM CLR 08/03 A3004 970 68 400 000/00 RMK AO2 TSNO
94908KDBQ DBQ20050407232010204/07/05 23:20:31  5-MIN KDBQ 080520Z AUTO 00000KT 10SM CLR 08/03 A3004 970 68 400 000/00 RMK AO2 TSNO
94908KDBQ DBQ20050407232510204/07/05 23:25:31  5-MIN KDBQ 080525Z AUTO 00000KT 10SM CLR 08/03 A3004 970 70 400 000/00 RMK AO2 TSNO
94908KDBQ DBQ20050407233010204/07/05 23:30:31  5-MIN KDBQ 080530Z AUTO 00000KT 10SM CLR 08/03 A3004 970 70 400 000/00 RMK AO2 TSNO
94908KDBQ DBQ20050407233510204/07/05 23:35:31  5-MIN KDBQ 080535Z AUTO VRB03KT 10SM CLR 08/03 A3004 970 68 400 VRB/03 RMK AO2 TSNO
94908KDBQ DBQ20050407234010204/07/05 23:40:31  5-MIN KDBQ 080540Z AUTO 00000KT 10SM CLR 08/03 A3004 960 68 400 000/00 RMK AO2 TSNO
94908KDBQ DBQ20050407234510204/07/05 23:45:31  5-MIN KDBQ 080545Z AUTO VRB04KT 10SM CLR 08/03 A3004 960 68 400 VRB/04 RMK AO2 TSNO
94908KDBQ DBQ20050407235014704/07/05 23:50:31  5-MIN KDBQ 080550Z AUTO 00000KT 10SM CLR 08/03 A3004 960 68 400 000/00 RMK AO2 SLP177 T00830028 10161 20067 401720067 51006 TSNO
94908KDBQ DBQ20050407235514704/07/05 23:55:31  5-MIN KDBQ 080555Z AUTO 00000KT 10SM CLR 08/03 A3004 960 70 400 000/00 RMK AO2 SLP177 T00780028 10161 20067 401720067 53010 TSNO
94908KDBQ DBQ20050408000010204/08/05 00:00:38  5-MIN KDBQ 080600Z AUTO 00000KT 10SM CLR 07/03 A3004 960 73 300 000/00 RMK AO2 TSNO
94908KDBQ DBQ20050408000510204/08/05 00:05:31  5-MIN KDBQ 080605Z AUTO 00000KT 10SM CLR 07/03 A3004 960 73 300 000/00 RMK AO2 TSNO
94908KDBQ DBQ20050408001010204/08/05 00:10:31  5-MIN KDBQ 080610Z AUTO 24004KT 10SM CLR 07/02 A3004 960 73 200 230/04 RMK AO2 TSNO
94908KDBQ DBQ20050408001510204/08/05 00:15:32  5-MIN KDBQ 080615Z AUTO 22003KT 10SM CLR 08/03 A3004 960 70 400 220/03 RMK AO2 TSNO
94908KDBQ DBQ20050408002010204/08/05 00:20:31  5-MIN KDBQ 080620Z AUTO 21003KT 10SM CLR 07/02 A3004 970 70 300 210/03 RMK AO2 TSNO
94908KDBQ DBQ20050408002510204/08/05 00:25:31  5-MIN KDBQ 080625Z AUTO 22003KT 10SM CLR 08/02 A3004 970 68 400 220/03 RMK AO2 TSNO
94908KDBQ DBQ20050408003010204/08/05 00:30:31  5-MIN KDBQ 080630Z AUTO 00000KT 10SM CLR 07/02 A3004 970 70 300 000/00 RMK AO2 TSNO
94908KDBQ DBQ20050408003510204/08/05 00:35:31  5-MIN KDBQ 080635Z AUTO 00000KT 10SM CLR 07/02 A3004 970 70 300 000/00 RMK AO2 TSNO
94908KDBQ DBQ20050408004010204/08/05 00:40:31  5-MIN KDBQ 080640Z AUTO 23003KT 10SM CLR 08/02 A3004 970 68 400 230/03 RMK AO2 TSNO
94908KDBQ DBQ20050408004510204/08/05 00:45:31  5-MIN KDBQ 080645Z AUTO 23003KT 10SM CLR 07/02 A3004 970 73 200 220/03 RMK AO2 TSNO
94908KDBQ DBQ20050408005011904/08/05 00:50:31  5-MIN KDBQ 080650Z AUTO 21003KT 10SM CLR 07/02 A3004 970 73 200 210/03 RMK AO2 SLP175 T00670022 TSNO
94908KDBQ DBQ20050408005511904/08/05 00:55:31  5-MIN KDBQ 080655Z AUTO 21003KT 10SM CLR 07/02 A3004 970 73 200 210/03 RMK AO2 SLP175 T00670022 TSNO
94908KDBQ DBQ20050408010010204/08/05 01:00:31  5-MIN KDBQ 080700Z AUTO 22003KT 10SM CLR 07/02 A3004 970 70 300 220/03 RMK AO2 TSNO
94908KDBQ DBQ20050408010510204/08/05 01:05:31  5-MIN KDBQ 080705Z AUTO 21003KT 10SM CLR 08/02 A3004 970 68 400 210/03 RMK AO2 TSNO
94908KDBQ DBQ20050408011010204/08/05 01:10:31  5-MIN KDBQ 080710Z AUTO 21003KT 10SM CLR 08/02 A3004 970 68 400 210/03 RMK AO2 TSNO
94908KDBQ DBQ20050408011510204/08/05 01:15:31  5-MIN KDBQ 080715Z AUTO 20003KT 10SM CLR 07/02 A3004 970 70 300 200/03 RMK AO2 TSNO
94908KDBQ DBQ20050408012010204/08/05 01:20:31  5-MIN KDBQ 080720Z AUTO 00000KT 10SM CLR 07/02 A3004 970 70 300 000/00 RMK AO2 TSNO
94908KDBQ DBQ20050408012510204/08/05 01:25:31  5-MIN KDBQ 080725Z AUTO 00000KT 10SM CLR 07/02 A3004 970 70 300 000/00 RMK AO2 TSNO
94908KDBQ DBQ20050408013010204/08/05 01:30:31  5-MIN KDBQ 080730Z AUTO 00000KT 10SM CLR 07/02 A3004 970 73 200 000/00 RMK AO2 TSNO
94908KDBQ DBQ20050408013510204/08/05 01:35:31  5-MIN KDBQ 080735Z AUTO 00000KT 10SM CLR 06/02 A3004 970 76 100 000/00 RMK AO2 TSNO
94908KDBQ DBQ20050408014010204/08/05 01:40:31  5-MIN KDBQ 080740Z AUTO 00000KT 10SM CLR 06/02 A3004 970 76 100 000/00 RMK AO2 TSNO
94908KDBQ DBQ20050408014510204/08/05 01:45:31  5-MIN KDBQ 080745Z AUTO 00000KT 10SM CLR 06/02 A3004 970 76 100 000/00 RMK AO2 TSNO
94908KDBQ DBQ20050408015011904/08/05 01:50:31  5-MIN KDBQ 080750Z AUTO 00000KT 10SM CLR 06/02 A3004 970 76 100 000/00 RMK AO2 SLP175 T00560017 TSNO
94908KDBQ DBQ20050408015511904/08/05 01:55:31  5-MIN KDBQ 080755Z AUTO 00000KT 10SM CLR 06/02 A3004 970 76 100 000/00 RMK AO2 SLP175 T00560017 TSNO
94908KDBQ DBQ20050408020010204/08/05 02:00:31  5-MIN KDBQ 080800Z AUTO 00000KT 10SM CLR 06/02 A3004 970 76 100 000/00 RMK AO2 TSNO
94908KDBQ DBQ20050408020510204/08/05 02:05:31  5-MIN KDBQ 080805Z AUTO 00000KT 10SM CLR 06/02 A3004 970 76 200 000/00 RMK AO2 TSNO
94908KDBQ DBQ20050408021010204/08/05 02:10:31  5-MIN KDBQ 080810Z AUTO 00000KT 10SM CLR 07/02 A3004 970 73 200 000/00 RMK AO2 TSNO
94908KDBQ DBQ20050408021510204/08/05 02:15:31  5-MIN KDBQ 080815Z AUTO 00000KT 10SM CLR 07/02 A3004 970 73 200 000/00 RMK AO2 TSNO
94908KDBQ DBQ20050408022010004/08/05 02:20:31  5-MIN KDBQ 080820Z AUTO 00000KT 10SM CLR 05/02 A3004 970 79 0 000/00 RMK AO2 TSNO
94908KDBQ DBQ20050408022510004/08/05 02:25:31  5-MIN KDBQ 080825Z AUTO 00000KT 10SM CLR 05/02 A3004 970 79 0 000/00 RMK AO2 TSNO
94908KDBQ DBQ20050408023010004/08/05 02:30:31  5-MIN KDBQ 080830Z AUTO 00000KT 10SM CLR 05/02 A3004 970 79 0 000/00 RMK AO2 TSNO
94908KDBQ DBQ20050408023510304/08/05 02:35:31  5-MIN KDBQ 080835Z AUTO 00000KT 10SM CLR 03/00 A3004 970 79 -100 000/00 RMK AO2 TSNO
94908KDBQ DBQ20050408024010304/08/05 02:40:31  5-MIN KDBQ 080840Z AUTO 00000KT 10SM CLR 04/01 A3004 970 79 -100 000/00 RMK AO2 TSNO
94908KDBQ DBQ20050408024510004/08/05 02:45:31  5-MIN KDBQ 080845Z AUTO 00000KT 10SM CLR 05/01 A3004 970 76 0 000/00 RMK AO2 TSNO
94908KDBQ DBQ20050408025012304/08/05 02:50:31  5-MIN KDBQ 080850Z AUTO 00000KT 10SM CLR 05/02 A3004 960 79 0 000/00 RMK AO2 SLP177 T00500017 53010 TSNO
94908KDBQ DBQ20050408025512304/08/05 02:55:31  5-MIN KDBQ 080855Z AUTO 00000KT 10SM CLR 04/02 A3004 960 82 0 000/00 RMK AO2 SLP177 T00440017 55000 TSNO
94908KDBQ DBQ20050408030010004/08/05 03:00:31  5-MIN KDBQ 080900Z AUTO 00000KT 10SM CLR 04/02 A3004 960 82 0 000/00 RMK AO2 TSNO
94908KDBQ DBQ20050408030510004/08/05 03:05:31  5-MIN KDBQ 080905Z AUTO 00000KT 10SM CLR 04/02 A3004 970 82 0 000/00 RMK AO2 TSNO
94908KDBQ DBQ20050408031010004/08/05 03:10:31  5-MIN KDBQ 080910Z AUTO 00000KT 10SM CLR 04/02 A3004 970 82 0 000/00 RMK AO2 TSNO
94908KDBQ DBQ20050408031510004/08/05 03:15:31  5-MIN KDBQ 080915Z AUTO 00000KT 10SM CLR 05/02 A3004 970 79 0 000/00 RMK AO2 TSNO
94908KDBQ DBQ20050408032010204/08/05 03:20:31  5-MIN KDBQ 080920Z AUTO 00000KT 10SM CLR 06/02 A3004 970 76 100 000/00 RMK AO2 TSNO
94908KDBQ DBQ20050408032510204/08/05 03:25:31  5-MIN KDBQ 080925Z AUTO 00000KT 10SM CLR 06/02 A3004 970 76 100 000/00 RMK AO2 TSNO
94908KDBQ DBQ20050408033010004/08/05 03:30:31  5-MIN KDBQ 080930Z AUTO 00000KT 10SM CLR 05/02 A3004 970 79 0 000/00 RMK AO2 TSNO
94908KDBQ DBQ20050408033510004/08/05 03:35:31  5-MIN KDBQ 080935Z AUTO 00000KT 10SM CLR 04/01 A3004 960 79 0 000/00 RMK AO2 TSNO
94908KDBQ DBQ20050408034010004/08/05 03:40:31  5-MIN KDBQ 080940Z AUTO 00000KT 10SM CLR 04/01 A3004 960 79 0 000/00 RMK AO2 TSNO
94908KDBQ DBQ20050408034510304/08/05 03:45:31  5-MIN KDBQ 080945Z AUTO 00000KT 10SM CLR 04/01 A3004 960 82 -100 000/00 RMK AO2 TSNO
94908KDBQ DBQ20050408035011704/08/05 03:50:31  5-MIN KDBQ 080950Z AUTO 00000KT 10SM CLR 05/01 A3004 960 76 0 000/00 RMK AO2 SLP177 T00500011 TSNO
94908KDBQ DBQ20050408035511704/08/05 03:55:31  5-MIN KDBQ 080955Z AUTO 00000KT 10SM CLR 04/01 A3005 960 79 0 000/00 RMK AO2 SLP178 T00440011 TSNO
94908KDBQ DBQ20050408040010004/08/05 04:00:31  5-MIN KDBQ 081000Z AUTO 00000KT 10SM CLR 05/01 A3005 960 76 0 000/00 RMK AO2 TSNO
94908KDBQ DBQ20050408040510004/08/05 04:05:31  5-MIN KDBQ 081005Z AUTO 00000KT 10SM CLR 04/01 A3005 960 79 0 000/00 RMK AO2 TSNO
94908KDBQ DBQ20050408041010204/08/05 04:10:31  5-MIN KDBQ 081010Z AUTO 00000KT 10SM CLR 06/01 A3005 960 73 100 000/00 RMK AO2 TSNO
94908KDBQ DBQ20050408041510004/08/05 04:15:31  5-MIN KDBQ 081015Z AUTO 00000KT 10SM CLR 05/01 A3005 960 76 0 000/00 RMK AO2 TSNO
94908KDBQ DBQ20050408042010004/08/05 04:20:31  5-MIN KDBQ 081020Z AUTO 00000KT 10SM CLR 05/01 A3005 960 76 0 000/00 RMK AO2 TSNO
94908KDBQ DBQ20050408042510004/08/05 04:25:31  5-MIN KDBQ 081025Z AUTO 00000KT 10SM CLR 04/01 A3005 960 79 0 000/00 RMK AO2 TSNO
94908KDBQ DBQ20050408043010004/08/05 04:30:31  5-MIN KDBQ 081030Z AUTO 00000KT 10SM CLR 05/01 A3005 960 76 0 000/00 RMK AO2 TSNO
94908KDBQ DBQ20050408043510004/08/05 04:35:31  5-MIN KDBQ 081035Z AUTO 00000KT 10SM CLR 04/01 A3005 960 76 0 000/00 RMK AO2 TSNO
94908KDBQ DBQ20050408044010004/08/05 04:40:31  5-MIN KDBQ 081040Z AUTO 00000KT 10SM CLR 04/01 A3005 950 76 0 000/00 RMK AO2 TSNO
94908KDBQ DBQ20050408044510004/08/05 04:45:31  5-MIN KDBQ 081045Z AUTO 00000KT 10SM CLR 05/01 A3006 950 73 0 000/00 RMK AO2 TSNO
94908KDBQ DBQ20050408045011904/08/05 04:50:31  5-MIN KDBQ 081050Z AUTO 00000KT 10SM CLR 06/01 A3006 950 70 100 000/00 RMK AO2 SLP181 T00560006 TSNO
94908KDBQ DBQ20050408045511004/08/05 04:55:31  5-MIN KDBQ 081055Z 00000KT 10SM CLR 06/01 A3006 950 67  100 000/00 RMK AO2 SLP181 T00610006
94908KDBQ DBQ20050408050009304/08/05 05:00:31  5-MIN KDBQ 081100Z 08003KT 10SM CLR 06/01 A3006 950 70  100 080/03 RMK AO2
94908KDBQ DBQ20050408050509004/08/05 05:05:31  5-MIN KDBQ 081105Z 00000KT 10SM CLR 04/00 A3006 950 73 0 000/00 RMK AO2
94908KDBQ DBQ20050408051009404/08/05 05:10:31  5-MIN KDBQ 081110Z 00000KT 10SM CLR 04/00 A3006 950 76  -100 000/00 RMK AO2
94908KDBQ DBQ20050408051509004/08/05 05:15:31  5-MIN KDBQ 081115Z 00000KT 10SM CLR 05/01 A3006 950 73 0 000/00 RMK AO2
94908KDBQ DBQ20050408052009304/08/05 05:20:31  5-MIN KDBQ 081120Z 07003KT 10SM CLR 06/01 A3006 950 70  100 070/03 RMK AO2
94908KDBQ DBQ20050408052509304/08/05 05:25:31  5-MIN KDBQ 081125Z 04003KT 10SM CLR 06/00 A3006 950 65  100 040/03 RMK AO2
94908KDBQ DBQ20050408053009304/08/05 05:30:31  5-MIN KDBQ 081130Z 04004KT 10SM CLR 06/01 A3006 950 67  100 040/04 RMK AO2
94908KDBQ DBQ20050408053509304/08/05 05:35:31  5-MIN KDBQ 081135Z 04003KT 10SM CLR 06/01 A3006 950 73  100 040/03 RMK AO2
94908KDBQ DBQ20050408054009404/08/05 05:40:31  5-MIN KDBQ 081140Z 04003KT 10SM CLR 04/01 A3006 950 79  -100 040/03 RMK AO2
94908KDBQ DBQ20050408054509004/08/05 05:45:31  5-MIN KDBQ 081145Z 04003KT 10SM CLR 05/01 A3006 950 76 0 040/03 RMK AO2
94908KDBQ DBQ20050408055012804/08/05 05:50:31  5-MIN KDBQ 081150Z 04003KT 10SM CLR 06/01 A3006 950 73  100 040/03 RMK AO2 SLP184 T00560011 10078 20028 55000
94908KDBQ DBQ20050408055512804/08/05 05:55:31  5-MIN KDBQ 081155Z 00000KT 10SM CLR 06/01 A3007 940 73  100 000/00 RMK AO2 SLP185 T00560011 10078 20028 53008
94908KDBQ DBQ20050408060009304/08/05 06:00:31  5-MIN KDBQ 081200Z 00000KT 10SM CLR 06/02 A3007 940 76  100 000/00 RMK AO2
94908KDBQ DBQ20050408060509304/08/05 06:05:31  5-MIN KDBQ 081205Z 06003KT 10SM CLR 06/02 A3007 940 76  100 060/03 RMK AO2
94908KDBQ DBQ20050408061009304/08/05 06:10:31  5-MIN KDBQ 081210Z 06003KT 10SM CLR 06/02 A3007 940 76  100 060/03 RMK AO2
94908KDBQ DBQ20050408061509304/08/05 06:15:31  5-MIN KDBQ 081215Z 07003KT 10SM CLR 06/02 A3007 940 76  100 060/03 RMK AO2
94908KDBQ DBQ20050408062009304/08/05 06:20:31  5-MIN KDBQ 081220Z 06003KT 10SM CLR 06/02 A3008 940 76  100 060/03 RMK AO2
94908KDBQ DBQ20050408062509304/08/05 06:25:31  5-MIN KDBQ 081225Z 07003KT 10SM CLR 06/02 A3008 930 76  100 070/03 RMK AO2
94908KDBQ DBQ20050408063009304/08/05 06:30:31  5-MIN KDBQ 081230Z 07004KT 10SM CLR 07/02 A3008 930 70  300 070/04 RMK AO2
94908KDBQ DBQ20050408063509304/08/05 06:35:31  5-MIN KDBQ 081235Z 07004KT 10SM CLR 08/02 A3008 930 68  300 070/04 RMK AO2
94908KDBQ DBQ20050408064009304/08/05 06:40:31  5-MIN KDBQ 081240Z 07004KT 10SM CLR 08/02 A3008 930 68  300 070/04 RMK AO2
94908KDBQ DBQ20050408064509304/08/05 06:45:31  5-MIN KDBQ 081245Z 06004KT 10SM CLR 08/03 A3008 930 68  400 060/04 RMK AO2
94908KDBQ DBQ20050408065011004/08/05 06:50:31  5-MIN KDBQ 081250Z 06004KT 10SM CLR 09/03 A3008 930 68  500 060/04 RMK AO2 SLP191 T00890033
94908KDBQ DBQ20050408065511004/08/05 06:55:31  5-MIN KDBQ 081255Z 06003KT 10SM CLR 09/03 A3009 920 68  500 060/03 RMK AO2 SLP191 T00890033
94908KDBQ DBQ20050408070009304/08/05 07:00:31  5-MIN KDBQ 081300Z 06003KT 10SM CLR 09/04 A3009 920 68  500 060/03 RMK AO2
94908KDBQ DBQ20050408070509304/08/05 07:05:31  5-MIN KDBQ 081305Z 07003KT 10SM CLR 09/04 A3009 920 68  500 070/03 RMK AO2
94908KDBQ DBQ20050408071009304/08/05 07:10:31  5-MIN KDBQ 081310Z 07004KT 10SM CLR 10/03 A3009 920 63  600 070/04 RMK AO2
94908KDBQ DBQ20050408071509304/08/05 07:15:31  5-MIN KDBQ 081315Z 06004KT 10SM CLR 10/03 A3009 920 63  600 060/04 RMK AO2
94908KDBQ DBQ20050408072009304/08/05 07:20:31  5-MIN KDBQ 081320Z 07003KT 10SM CLR 10/04 A3009 920 65  600 060/03 RMK AO2
94908KDBQ DBQ20050408072509304/08/05 07:25:31  5-MIN KDBQ 081325Z 08004KT 10SM CLR 10/03 A3009 920 63  600 080/04 RMK AO2
94908KDBQ DBQ20050408073009304/08/05 07:30:31  5-MIN KDBQ 081330Z 08004KT 10SM CLR 11/02 A3009 920 56  600 080/04 RMK AO2
94908KDBQ DBQ20050408073509304/08/05 07:35:31  5-MIN KDBQ 081335Z 09005KT 10SM CLR 11/01 A3009 920 52  600 090/05 RMK AO2
94908KDBQ DBQ20050408074009304/08/05 07:40:31  5-MIN KDBQ 081340Z 10005KT 10SM CLR 11/02 A3009 920 52  700 100/05 RMK AO2
94908KDBQ DBQ20050408074509304/08/05 07:45:31  5-MIN KDBQ 081345Z 10006KT 10SM CLR 11/01 A3009 920 48  700 100/06 RMK AO2
94908KDBQ DBQ20050408075011004/08/05 07:50:31  5-MIN KDBQ 081350Z 10006KT 10SM CLR 11/01 A3009 920 48  700 100/06 RMK AO2 SLP194 T01110006
94908KDBQ DBQ20050408075511004/08/05 07:55:31  5-MIN KDBQ 081355Z 10006KT 10SM CLR 11/00 A3009 920 46  700 100/06 RMK AO2 SLP194 T01110000
94908KDBQ DBQ20050408080009304/08/05 08:00:31  5-MIN KDBQ 081400Z 10006KT 10SM CLR 12/00 A3010 920 44  800 100/06 RMK AO2
94908KDBQ DBQ20050408080509304/08/05 08:05:31  5-MIN KDBQ 081405Z 12006KT 10SM CLR 12/00 A3010 920 44  800 110/06 RMK AO2
94908KDBQ DBQ20050408081009304/08/05 08:10:31  5-MIN KDBQ 081410Z 12005KT 10SM CLR 12/01 A3009 920 46  800 120/05 RMK AO2
94908KDBQ DBQ20050408081509304/08/05 08:15:31  5-MIN KDBQ 081415Z 12005KT 10SM CLR 12/00 A3009 920 44  800 120/05 RMK AO2
94908KDBQ DBQ20050408082009304/08/05 08:20:31  5-MIN KDBQ 081420Z 12006KT 10SM CLR 12/01 A3009 920 44  800 120/06 RMK AO2
94908KDBQ DBQ20050408082509304/08/05 08:25:31  5-MIN KDBQ 081425Z 11005KT 10SM CLR 12/01 A3009 920 44  800 110/05 RMK AO2
94908KDBQ DBQ20050408083009304/08/05 08:30:31  5-MIN KDBQ 081430Z 12005KT 10SM CLR 12/00 A3009 920 43  800 120/05 RMK AO2
94908KDBQ DBQ20050408083509304/08/05 08:35:31  5-MIN KDBQ 081435Z 12005KT 10SM CLR 12/00 A3010 920 43  800 120/05 RMK AO2
94908KDBQ DBQ20050408084009304/08/05 08:40:31  5-MIN KDBQ 081440Z 15005KT 10SM CLR 13/01 A3010 920 43  900 150/05 RMK AO2
94908KDBQ DBQ20050408084509304/08/05 08:45:31  5-MIN KDBQ 081445Z 10004KT 10SM CLR 13/00 A3010 910 41  900 100/04 RMK AO2
94908KDBQ DBQ20050408085011704/08/05 08:50:31  5-MIN KDBQ 081450Z 13004KT 10SM CLR 13/01 A3010 910 41  1000 130/04 RMK AO2 SLP194 T01330006 53008
94908KDBQ DBQ20050408085511704/08/05 08:55:31  5-MIN KDBQ 081455Z 11004KT 10SM CLR 13/00 A3010 910 40  1000 110/04 RMK AO2 SLP194 T01330000 51010
94908KDBQ DBQ20050408090009404/08/05 09:00:31  5-MIN KDBQ 081500Z 10005KT 10SM CLR 13/M01 A3010 920 38 1000 100/05 RMK AO2
94908KDBQ DBQ20050408090509404/08/05 09:05:31  5-MIN KDBQ 081505Z 12006KT 10SM CLR 13/M01 A3010 920 38 1000 120/06 RMK AO2
94908KDBQ DBQ20050408091009404/08/05 09:10:31  5-MIN KDBQ 081510Z 15006KT 10SM CLR 14/00 A3010 920 38  1000 150/06 RMK AO2
94908KDBQ DBQ20050408091509404/08/05 09:15:31  5-MIN KDBQ 081515Z 14006KT 10SM CLR 14/00 A3010 920 38  1000 140/06 RMK AO2
94908KDBQ DBQ20050408092009404/08/05 09:20:31  5-MIN KDBQ 081520Z 13006KT 10SM CLR 14/M01 A3010 920 35 1000 130/06 RMK AO2
94908KDBQ DBQ20050408092509404/08/05 09:25:31  5-MIN KDBQ 081525Z 12006KT 10SM CLR 14/M01 A3010 920 35 1000 110/06 RMK AO2
94908KDBQ DBQ20050408093009404/08/05 09:30:31  5-MIN KDBQ 081530Z 15007KT 10SM CLR 14/M01 A3010 920 34 1100 140/07 RMK AO2
94908KDBQ DBQ20050408093509404/08/05 09:35:31  5-MIN KDBQ 081535Z 13006KT 10SM CLR 14/M01 A3010 920 35 1100 130/06 RMK AO2
94908KDBQ DBQ20050408094009404/08/05 09:40:31  5-MIN KDBQ 081540Z 15007KT 10SM CLR 15/M01 A3009 920 34 1200 140/07 RMK AO2
94908KDBQ DBQ20050408094509404/08/05 09:45:31  5-MIN KDBQ 081545Z 14006KT 10SM CLR 14/M01 A3009 920 35 1100 140/06 RMK AO2
94908KDBQ DBQ20050408095011104/08/05 09:50:31  5-MIN KDBQ 081550Z 13007KT 10SM CLR 15/M01 A3009 920 34 1200 130/07 RMK AO2 SLP192 T01501006
94908KDBQ DBQ20050408095511104/08/05 09:55:31  5-MIN KDBQ 081555Z 12008KT 10SM CLR 15/M01 A3009 920 34 1200 120/08 RMK AO2 SLP192 T01501006
94908KDBQ DBQ20050408100009404/08/05 10:00:31  5-MIN KDBQ 081600Z 12007KT 10SM CLR 15/00 A3009 920 35  1200 120/07 RMK AO2
94908KDBQ DBQ20050408100509404/08/05 10:05:31  5-MIN KDBQ 081605Z 13007KT 10SM CLR 16/00 A3009 920 34  1200 130/07 RMK AO2
94908KDBQ DBQ20050408101009404/08/05 10:10:31  5-MIN KDBQ 081610Z 12008KT 10SM CLR 16/00 A3009 920 34  1200 120/08 RMK AO2
94908KDBQ DBQ20050408101509404/08/05 10:15:31  5-MIN KDBQ 081615Z 13010KT 10SM CLR 16/00 A3009 920 33  1300 130/10 RMK AO2
94908KDBQ DBQ20050408102009404/08/05 10:20:31  5-MIN KDBQ 081620Z 13010KT 10SM CLR 16/M01 A3009 920 32 1300 130/10 RMK AO2
94908KDBQ DBQ20050408102509404/08/05 10:25:31  5-MIN KDBQ 081625Z 13010KT 10SM CLR 16/00 A3009 930 33  1300 130/10 RMK AO2
94908KDBQ DBQ20050408103009404/08/05 10:30:31  5-MIN KDBQ 081630Z 14009KT 10SM CLR 16/M01 A3009 930 32 1300 140/09 RMK AO2
94908KDBQ DBQ20050408103509404/08/05 10:35:31  5-MIN KDBQ 081635Z 12010KT 10SM CLR 17/00 A3008 930 32  1400 120/10 RMK AO2
94908KDBQ DBQ20050408104009404/08/05 10:40:31  5-MIN KDBQ 081640Z 14007KT 10SM CLR 16/M01 A3008 930 32 1300 130/07 RMK AO2
94908KDBQ DBQ20050408104509404/08/05 10:45:31  5-MIN KDBQ 081645Z 14009KT 10SM CLR 17/01 A3008 930 33  1400 140/09 RMK AO2
94908KDBQ DBQ20050408105011104/08/05 10:50:31  5-MIN KDBQ 081650Z 14009KT 10SM CLR 17/01 A3008 930 33  1400 140/09 RMK AO2 SLP188 T01670006
94908KDBQ DBQ20050408105511104/08/05 10:55:31  5-MIN KDBQ 081655Z 15008KT 10SM CLR 17/01 A3008 930 33  1400 150/08 RMK AO2 SLP188 T01720011
94908KDBQ DBQ20050408110009404/08/05 11:00:31  5-MIN KDBQ 081700Z 11009KT 10SM CLR 17/00 A3008 930 32  1400 110/09 RMK AO2
94908KDBQ DBQ20050408110509404/08/05 11:05:31  5-MIN KDBQ 081705Z 12009KT 10SM CLR 17/01 A3008 930 33  1400 120/09 RMK AO2
94908KDBQ DBQ20050408111009404/08/05 11:10:31  5-MIN KDBQ 081710Z 13008KT 10SM CLR 17/01 A3007 940 33  1500 130/08 RMK AO2
94908KDBQ DBQ20050408111511604/08/05 11:15:31  5-MIN KDBQ 081715Z 14007G14KT 080V230 10SM CLR 17/01  A3007 940 33 1400 140/07G14 080V230 RMK AO2
94908KDBQ DBQ20050408112010004/08/05 11:20:31  5-MIN KDBQ 081720Z 12006G14KT 10SM CLR 17/01 A3007 940  32 1500 110/06G14 RMK AO2
94908KDBQ DBQ20050408112509404/08/05 11:25:31  5-MIN KDBQ 081725Z 15008KT 10SM CLR 17/01 A3007 940 33  1500 150/08 RMK AO2
94908KDBQ DBQ20050408113009404/08/05 11:30:31  5-MIN KDBQ 081730Z 12007KT 10SM CLR 17/01 A3007 940 33  1500 120/07 RMK AO2
94908KDBQ DBQ20050408113509404/08/05 11:35:31  5-MIN KDBQ 081735Z 14007KT 10SM CLR 17/01 A3006 950 32  1500 140/07 RMK AO2
94908KDBQ DBQ20050408114009404/08/05 11:40:31  5-MIN KDBQ 081740Z 14011KT 10SM CLR 17/01 A3006 950 32  1500 140/11 RMK AO2
94908KDBQ DBQ20050408114510904/08/05 11:45:31  5-MIN KDBQ 081745Z 13010KT 100V160 10SM CLR 17/01 A3006 950 32 1500 130/10 100V160 RMK AO2
94908KDBQ DBQ20050408115012904/08/05 11:50:31  5-MIN KDBQ 081750Z 16010KT 10SM CLR 17/01 A3006 950 32  1500 160/10 RMK AO2 SLP181 T01720006 10178 20056 51010
94908KDBQ DBQ20050408115512904/08/05 11:55:31  5-MIN KDBQ 081755Z 13007KT 10SM CLR 17/00 A3006 950 31  1500 130/07 RMK AO2 SLP180 T01720000 10178 20056 58014
94908KDBQ DBQ20050408120009404/08/05 12:00:31  5-MIN KDBQ 081800Z 16007KT 10SM CLR 18/01 A3006 950 32  1500 160/07 RMK AO2
94908KDBQ DBQ20050408120509404/08/05 12:05:31  5-MIN KDBQ 081805Z VRB06KT 10SM CLR 17/01 A3005 950 32  1500 VRB/06 RMK AO2
94908KDBQ DBQ20050408121010004/08/05 12:10:31  5-MIN KDBQ 081810Z 11009G14KT 10SM CLR 18/01 A3005 960  31 1500 100/09G14 RMK AO2
94908KDBQ DBQ20050408121509404/08/05 12:15:31  5-MIN KDBQ 081815Z 12010KT 10SM CLR 18/01 A3005 960 31  1600 120/10 RMK AO2
94908KDBQ DBQ20050408122009404/08/05 12:20:31  5-MIN KDBQ 081820Z VRB06KT 10SM CLR 18/01 A3005 960 31  1500 VRB/06 RMK AO2
94908KDBQ DBQ20050408122509404/08/05 12:25:31  5-MIN KDBQ 081825Z 11008KT 10SM CLR 18/01 A3005 960 31  1600 110/08 RMK AO2
94908KDBQ DBQ20050408123009404/08/05 12:30:31  5-MIN KDBQ 081830Z 12008KT 10SM CLR 18/01 A3004 960 30  1600 120/08 RMK AO2
94908KDBQ DBQ20050408123509404/08/05 12:35:31  5-MIN KDBQ 081835Z 13008KT 10SM CLR 18/01 A3004 970 30  1600 130/08 RMK AO2
94908KDBQ DBQ20050408124009404/08/05 12:40:31  5-MIN KDBQ 081840Z 12008KT 10SM CLR 18/01 A3004 970 31  1600 120/08 RMK AO2
94908KDBQ DBQ20050408124510004/08/05 12:45:31  5-MIN KDBQ 081845Z 11011G15KT 10SM CLR 18/01 A3004 970  30 1600 110/11G15 RMK AO2
94908KDBQ DBQ20050408125011704/08/05 12:50:31  5-MIN KDBQ 081850Z 12006G15KT 10SM CLR 18/01 A3004 970  31 1600 120/06G15 RMK AO2 SLP173 T01830011
94908KDBQ DBQ20050408125511104/08/05 12:55:31  5-MIN KDBQ 081855Z 10007KT 10SM CLR 18/M01 A3003 980 28 1600 100/07 RMK AO2 SLP172 T01781006
94908KDBQ DBQ20050408130009404/08/05 13:00:31  5-MIN KDBQ 081900Z 12008KT 10SM CLR 18/01 A3003 980 31  1600 120/08 RMK AO2
94908KDBQ DBQ20050408130509404/08/05 13:05:31  5-MIN KDBQ 081905Z 12011KT 10SM CLR 18/01 A3003 980 30  1600 120/11 RMK AO2
94908KDBQ DBQ20050408131009404/08/05 13:10:31  5-MIN KDBQ 081910Z 12010KT 10SM CLR 19/01 A3003 980 29  1700 120/10 RMK AO2
94908KDBQ DBQ20050408131509404/08/05 13:15:31  5-MIN KDBQ 081915Z 13010KT 10SM CLR 19/01 A3002 980 29  1700 130/10 RMK AO2
94908KDBQ DBQ20050408132009404/08/05 13:20:31  5-MIN KDBQ 081920Z 11009KT 10SM CLR 18/01 A3002 980 31  1600 110/09 RMK AO2
94908KDBQ DBQ20050408132509404/08/05 13:25:31  5-MIN KDBQ 081925Z 10008KT 10SM CLR 18/01 A3002 990 30  1600 090/08 RMK AO2
94908KDBQ DBQ20050408133009404/08/05 13:30:31  5-MIN KDBQ 081930Z 14010KT 10SM CLR 19/01 A3002 990 30  1700 130/10 RMK AO2
94908KDBQ DBQ20050408133509404/08/05 13:35:31  5-MIN KDBQ 081935Z 12009KT 10SM CLR 19/02 A3002 990 31  1700 120/09 RMK AO2
94908KDBQ DBQ20050408134010904/08/05 13:40:31  5-MIN KDBQ 081940Z 15008KT 110V180 10SM CLR 19/01 A3002 990 30 1700 150/08 110V180 RMK AO2
94908KDBQ DBQ20050408134509404/08/05 13:45:31  5-MIN KDBQ 081945Z 12011KT 10SM CLR 19/01 A3001 990 30  1700 120/11 RMK AO2
94908KDBQ DBQ20050408135011104/08/05 13:50:31  5-MIN KDBQ 081950Z 12009KT 10SM CLR 19/01 A3001 990 30  1700 120/09 RMK AO2 SLP165 T01890011
94908KDBQ DBQ20050408135511104/08/05 13:55:31  5-MIN KDBQ 081955Z 14008KT 10SM CLR 19/02 A3001 1000 30 1800 140/08 RMK AO2 SLP164 T01940017
94908KDBQ DBQ20050408140009404/08/05 14:00:31  5-MIN KDBQ 082000Z 15011KT 10SM CLR 19/02 A3001 1000 30 1800 150/11 RMK AO2
94908KDBQ DBQ20050408140510004/08/05 14:05:31  5-MIN KDBQ 082005Z 14014G17KT 10SM CLR 19/02 A3001 1000 31 1700 140/14G17 RMK AO2
94908KDBQ DBQ20050408141010004/08/05 14:10:31  5-MIN KDBQ 082010Z 12012G17KT 10SM CLR 19/01 A3001 1000 29 1800 120/12G17 RMK AO2
94908KDBQ DBQ20050408141509404/08/05 14:15:31  5-MIN KDBQ 082015Z 11010KT 10SM CLR 19/01 A3001 1000 30 1700 110/10 RMK AO2
94908KDBQ DBQ20050408142010004/08/05 14:20:31  5-MIN KDBQ 082020Z 14011G15KT 10SM CLR 19/01 A3000 1000 30 1700 140/11G15 RMK AO2
94908KDBQ DBQ20050408142510004/08/05 14:25:31  5-MIN KDBQ 082025Z 14008G15KT 10SM CLR 19/02 A3000 1000 30 1800 140/08G15 RMK AO2
94908KDBQ DBQ20050408143009404/08/05 14:30:31  5-MIN KDBQ 082030Z 11011KT 10SM CLR 20/02 A3000 1000 30 1900 100/11 RMK AO2
94908KDBQ DBQ20050408143509404/08/05 14:35:31  5-MIN KDBQ 082035Z 13009KT 10SM CLR 19/02 A3000 1000 30 1800 130/09 RMK AO2
94908KDBQ DBQ20050408144009404/08/05 14:40:31  5-MIN KDBQ 082040Z 14009KT 10SM CLR 19/01 A3000 1010 29 1800 140/09 RMK AO2
94908KDBQ DBQ20050408144509404/08/05 14:45:31  5-MIN KDBQ 082045Z 15008KT 10SM CLR 19/01 A3000 1010 28 1800 150/08 RMK AO2
94908KDBQ DBQ20050408145011704/08/05 14:50:31  5-MIN KDBQ 082050Z 13009KT 10SM CLR 19/02 A3000 1010 30 1800 130/09 RMK AO2 SLP159 T01940017 58014
94908KDBQ DBQ20050408145511704/08/05 14:55:31  5-MIN KDBQ 082055Z 13010KT 10SM CLR 19/02 A3000 1010 30 1800 130/10 RMK AO2 SLP159 T01940017 56020
94908KDBQ DBQ20050408150009404/08/05 15:00:31  5-MIN KDBQ 082100Z 12009KT 10SM CLR 19/02 A2999 1010 30 1800 120/09 RMK AO2
94908KDBQ DBQ20050408150509404/08/05 15:05:31  5-MIN KDBQ 082105Z 17010KT 10SM CLR 20/02 A2999 1010 29 1900 170/10 RMK AO2
94908KDBQ DBQ20050408151009404/08/05 15:10:31  5-MIN KDBQ 082110Z 13008KT 10SM CLR 19/01 A2999 1010 29 1800 130/08 RMK AO2
94908KDBQ DBQ20050408151510004/08/05 15:15:31  5-MIN KDBQ 082115Z 13013G17KT 10SM CLR 20/01 A2999 1020 28 1900 130/13G17 RMK AO2
94908KDBQ DBQ20050408152010004/08/05 15:20:31  5-MIN KDBQ 082120Z 15010G17KT 10SM CLR 19/01 A2999 1020 29 1800 150/10G17 RMK AO2
94908KDBQ DBQ20050408152509404/08/05 15:25:31  5-MIN KDBQ 082125Z 13011KT 10SM CLR 20/01 A2999 1020 28 1900 130/11 RMK AO2
94908KDBQ DBQ20050408153009404/08/05 15:30:31  5-MIN KDBQ 082130Z 13007KT 10SM CLR 19/01 A2999 1020 29 1800 130/07 RMK AO2
94908KDBQ DBQ20050408153509404/08/05 15:35:31  5-MIN KDBQ 082135Z 14012KT 10SM CLR 19/01 A2999 1020 29 1800 140/12 RMK AO2
94908KDBQ DBQ20050408154009404/08/05 15:40:31  5-MIN KDBQ 082140Z 13009KT 10SM CLR 19/01 A2999 1020 29 1800 130/09 RMK AO2
94908KDBQ DBQ20050408154509404/08/05 15:45:31  5-MIN KDBQ 082145Z 15011KT 10SM CLR 19/02 A2999 1020 30 1800 140/11 RMK AO2
94908KDBQ DBQ20050408155011104/08/05 15:50:31  5-MIN KDBQ 082150Z 13010KT 10SM CLR 19/01 A2998 1020 29 1800 130/10 RMK AO2 SLP156 T01940011
94908KDBQ DBQ20050408155511104/08/05 15:55:31  5-MIN KDBQ 082155Z 15010KT 10SM CLR 19/01 A2998 1020 29 1800 150/10 RMK AO2 SLP155 T01940011
94908KDBQ DBQ20050408160009404/08/05 16:00:31  5-MIN KDBQ 082200Z 12012KT 10SM CLR 19/02 A2998 1020 30 1800 120/12 RMK AO2
94908KDBQ DBQ20050408160509404/08/05 16:05:31  5-MIN KDBQ 082205Z 13010KT 10SM CLR 19/01 A2998 1020 29 1800 130/10 RMK AO2
94908KDBQ DBQ20050408161009404/08/05 16:10:31  5-MIN KDBQ 082210Z 12010KT 10SM CLR 19/02 A2999 1020 30 1800 120/10 RMK AO2
94908KDBQ DBQ20050408161510004/08/05 16:15:31  5-MIN KDBQ 082215Z 13010G16KT 10SM CLR 19/01 A2999 1020 29 1800 130/10G16 RMK AO2
94908KDBQ DBQ20050408162010004/08/05 16:20:31  5-MIN KDBQ 082220Z 13010G16KT 10SM CLR 19/02 A2998 1020 30 1800 120/10G16 RMK AO2
94908KDBQ DBQ20050408162509404/08/05 16:25:31  5-MIN KDBQ 082225Z 12011KT 10SM CLR 19/02 A2998 1020 30 1800 120/11 RMK AO2
94908KDBQ DBQ20050408163009404/08/05 16:30:31  5-MIN KDBQ 082230Z 13009KT 10SM CLR 19/01 A2998 1020 29 1800 120/09 RMK AO2
94908KDBQ DBQ20050408163509404/08/05 16:35:31  5-MIN KDBQ 082235Z 12011KT 10SM CLR 19/01 A2998 1020 29 1800 120/11 RMK AO2
94908KDBQ DBQ20050408164009404/08/05 16:40:31  5-MIN KDBQ 082240Z 13010KT 10SM CLR 19/01 A2998 1020 29 1800 130/10 RMK AO2
94908KDBQ DBQ20050408164509404/08/05 16:45:31  5-MIN KDBQ 082245Z 15008KT 10SM CLR 19/02 A2998 1020 30 1800 150/08 RMK AO2
94908KDBQ DBQ20050408165011104/08/05 16:50:31  5-MIN KDBQ 082250Z 15008KT 10SM CLR 19/02 A2998 1020 31 1800 140/08 RMK AO2 SLP154 T01940022
94908KDBQ DBQ20050408165511104/08/05 16:55:31  5-MIN KDBQ 082255Z 15011KT 10SM CLR 19/02 A2998 1030 31 1800 150/11 RMK AO2 SLP153 T01940022
94908KDBQ DBQ20050408170009404/08/05 17:00:31  5-MIN KDBQ 082300Z 12010KT 10SM CLR 19/02 A2998 1020 32 1800 120/10 RMK AO2
94908KDBQ DBQ20050408170509404/08/05 17:05:31  5-MIN KDBQ 082305Z 12007KT 10SM CLR 19/02 A2998 1020 31 1800 120/07 RMK AO2
94908KDBQ DBQ20050408171009404/08/05 17:10:31  5-MIN KDBQ 082310Z 15008KT 10SM CLR 19/02 A2998 1030 31 1800 150/08 RMK AO2
94908KDBQ DBQ20050408171509404/08/05 17:15:31  5-MIN KDBQ 082315Z 16007KT 10SM CLR 19/02 A2998 1030 32 1800 160/07 RMK AO2
94908KDBQ DBQ20050408172009404/08/05 17:20:31  5-MIN KDBQ 082320Z 16008KT 10SM CLR 19/02 A2998 1030 32 1800 160/08 RMK AO2
94908KDBQ DBQ20050408172509404/08/05 17:25:31  5-MIN KDBQ 082325Z 15009KT 10SM CLR 19/02 A2997 1030 31 1800 140/09 RMK AO2
94908KDBQ DBQ20050408173009404/08/05 17:30:31  5-MIN KDBQ 082330Z 15009KT 10SM CLR 18/02 A2997 1030 32 1700 150/09 RMK AO2
94908KDBQ DBQ20050408173509404/08/05 17:35:31  5-MIN KDBQ 082335Z 14007KT 10SM CLR 18/02 A2997 1030 34 1700 140/07 RMK AO2
94908KDBQ DBQ20050408174009404/08/05 17:40:31  5-MIN KDBQ 082340Z 15007KT 10SM CLR 18/03 A2997 1030 35 1700 150/07 RMK AO2
94908KDBQ DBQ20050408174509404/08/05 17:45:31  5-MIN KDBQ 082345Z 14006KT 10SM CLR 18/03 A2997 1030 36 1600 140/06 RMK AO2
94908KDBQ DBQ20050408175012904/08/05 17:50:31  5-MIN KDBQ 082350Z 15007KT 10SM CLR 17/03 A2997 1030 37 1600 150/07 RMK AO2 SLP152 T01720028 10200 20172 56020
94908KDBQ DBQ20050408175512904/08/05 17:55:31  5-MIN KDBQ 082355Z 14006KT 10SM CLR 17/03 A2997 1030 39 1500 140/06 RMK AO2 SLP152 T01670028 10200 20167 56008
94908KDBQ DBQ20050408180009404/08/05 18:00:31  5-MIN KDBQ 090000Z 14007KT 10SM CLR 17/03 A2997 1030 39 1500 140/07 RMK AO2
94908KDBQ DBQ20050408180509404/08/05 18:05:31  5-MIN KDBQ 090005Z 14006KT 10SM CLR 17/03 A2997 1030 39 1500 140/06 RMK AO2
94908KDBQ DBQ20050408181009404/08/05 18:10:31  5-MIN KDBQ 090010Z 14006KT 10SM CLR 16/02 A2997 1030 39 1400 140/06 RMK AO2
94908KDBQ DBQ20050408181509404/08/05 18:15:31  5-MIN KDBQ 090015Z 14006KT 10SM CLR 16/02 A2997 1030 39 1400 140/06 RMK AO2
94908KDBQ DBQ20050408182009404/08/05 18:20:31  5-MIN KDBQ 090020Z 14006KT 10SM CLR 16/02 A2997 1030 39 1400 140/06 RMK AO2
94908KDBQ DBQ20050408182509404/08/05 18:25:31  5-MIN KDBQ 090025Z 14005KT 10SM CLR 16/02 A2997 1030 40 1400 140/05 RMK AO2
94908KDBQ DBQ20050408183009404/08/05 18:30:31  5-MIN KDBQ 090030Z 14004KT 10SM CLR 15/03 A2997 1030 43 1300 130/04 RMK AO2
94908KDBQ DBQ20050408183509404/08/05 18:35:31  5-MIN KDBQ 090035Z 14004KT 10SM CLR 14/03 A2997 1030 45 1200 130/04 RMK AO2
94908KDBQ DBQ20050408184009404/08/05 18:40:31  5-MIN KDBQ 090040Z 12004KT 10SM CLR 14/03 A2997 1030 48 1200 120/04 RMK AO2
94908KDBQ DBQ20050408184510504/08/05 18:45:31  5-MIN KDBQ 090045Z AUTO 09007KT 10SM CLR 12/03 A2997  1030 54 1000 090/07 RMK AO2 TSNO
94908KDBQ DBQ20050408185012204/08/05 18:50:31  5-MIN KDBQ 090050Z AUTO 10007KT 10SM CLR 13/03 A2997  1030 52 1100 100/07 RMK AO2 SLP151 T01280033 TSNO
94908KDBQ DBQ20050408185512204/08/05 18:55:31  5-MIN KDBQ 090055Z AUTO 10007KT 10SM CLR 13/03 A2997  1030 52 1100 100/07 RMK AO2 SLP151 T01280033 TSNO
94908KDBQ DBQ20050408190010504/08/05 19:00:31  5-MIN KDBQ 090100Z AUTO 11007KT 10SM CLR 13/03 A2997  1030 50 1100 110/07 RMK AO2 TSNO
94908KDBQ DBQ20050408190510504/08/05 19:05:31  5-MIN KDBQ 090105Z AUTO 11008KT 10SM CLR 13/03 A2997  1030 50 1100 110/08 RMK AO2 TSNO
94908KDBQ DBQ20050408191010504/08/05 19:10:31  5-MIN KDBQ 090110Z AUTO 11008KT 10SM CLR 12/02 A2997  1030 50 1000 110/08 RMK AO2 TSNO
94908KDBQ DBQ20050408191510504/08/05 19:15:31  5-MIN KDBQ 090115Z AUTO 11009KT 10SM CLR 13/02 A2997  1030 46 1100 110/09 RMK AO2 TSNO
94908KDBQ DBQ20050408192010504/08/05 19:20:31  5-MIN KDBQ 090120Z AUTO 11009KT 10SM CLR 13/02 A2997  1030 46 1100 110/09 RMK AO2 TSNO
94908KDBQ DBQ20050408192510504/08/05 19:25:31  5-MIN KDBQ 090125Z AUTO 11009KT 10SM CLR 13/02 A2997  1030 46 1100 110/09 RMK AO2 TSNO
94908KDBQ DBQ20050408193010504/08/05 19:30:31  5-MIN KDBQ 090130Z AUTO 11009KT 10SM CLR 13/02 A2997  1030 48 1000 110/09 RMK AO2 TSNO
94908KDBQ DBQ20050408193510504/08/05 19:35:31  5-MIN KDBQ 090135Z AUTO 12011KT 10SM CLR 13/03 A2997  1030 50 1000 110/11 RMK AO2 TSNO
94908KDBQ DBQ20050408194010504/08/05 19:40:31  5-MIN KDBQ 090140Z AUTO 11011KT 10SM CLR 13/03 A2997  1030 50 1000 110/11 RMK AO2 TSNO
94908KDBQ DBQ20050408194510504/08/05 19:45:31  5-MIN KDBQ 090145Z AUTO 12011KT 10SM CLR 13/02 A2997  1030 48 1000 120/11 RMK AO2 TSNO
94908KDBQ DBQ20050408195012204/08/05 19:50:31  5-MIN KDBQ 090150Z AUTO 12011KT 10SM CLR 13/03 A2998  1030 50 1000 120/11 RMK AO2 SLP153 T01280028 TSNO
94908KDBQ DBQ20050408195512204/08/05 19:55:31  5-MIN KDBQ 090155Z AUTO 12010KT 10SM CLR 13/03 A2998  1030 50 1000 120/10 RMK AO2 SLP153 T01280028 TSNO
94908KDBQ DBQ20050408200010504/08/05 20:00:31  5-MIN KDBQ 090200Z AUTO 12010KT 10SM CLR 12/03 A2998  1020 52 1000 120/10 RMK AO2 TSNO
94908KDBQ DBQ20050408200510504/08/05 20:05:31  5-MIN KDBQ 090205Z AUTO 12011KT 10SM CLR 12/02 A2998  1020 50 1000 120/11 RMK AO2 TSNO
94908KDBQ DBQ20050408201010504/08/05 20:10:31  5-MIN KDBQ 090210Z AUTO 12011KT 10SM CLR 12/02 A2998  1020 50 1000 110/11 RMK AO2 TSNO
94908KDBQ DBQ20050408201510504/08/05 20:15:31  5-MIN KDBQ 090215Z AUTO 12010KT 10SM CLR 12/02 A2998  1020 50 1000 120/10 RMK AO2 TSNO
94908KDBQ DBQ20050408202010504/08/05 20:20:31  5-MIN KDBQ 090220Z AUTO 11010KT 10SM CLR 12/02 A2998  1020 50 1000 110/10 RMK AO2 TSNO
94908KDBQ DBQ20050408202510504/08/05 20:25:31  5-MIN KDBQ 090225Z AUTO 12010KT 10SM CLR 12/02 A2999  1020 50 1000 110/10 RMK AO2 TSNO
94908KDBQ DBQ20050408203010504/08/05 20:30:31  5-MIN KDBQ 090230Z AUTO 11011KT 10SM CLR 12/02 A2998  1020 50 1000 110/11 RMK AO2 TSNO
94908KDBQ DBQ20050408203510504/08/05 20:35:31  5-MIN KDBQ 090235Z AUTO 12011KT 10SM CLR 12/02 A2998  1020 48 1000 110/11 RMK AO2 TSNO
94908KDBQ DBQ20050408204010504/08/05 20:40:31  5-MIN KDBQ 090240Z AUTO 11011KT 10SM CLR 12/02 A2999  1020 48 1000 110/11 RMK AO2 TSNO
94908KDBQ DBQ20050408204510504/08/05 20:45:31  5-MIN KDBQ 090245Z AUTO 12012KT 10SM CLR 13/01 A2999  1020 44 1000 110/12 RMK AO2 TSNO
94908KDBQ DBQ20050408205012804/08/05 20:50:31  5-MIN KDBQ 090250Z AUTO 12013KT 10SM CLR 12/01 A2999  1010 46 1000 110/13 RMK AO2 SLP157 T01220011 56008 TSNO
94908KDBQ DBQ20050408205512804/08/05 20:55:31  5-MIN KDBQ 090255Z AUTO 12011KT 10SM CLR 12/01 A2999  1010 46 1000 110/11 RMK AO2 SLP157 T01220011 53006 TSNO
94908KDBQ DBQ20050408210010504/08/05 21:00:31  5-MIN KDBQ 090300Z AUTO 12011KT 10SM CLR 12/01 A2999  1010 46 1000 110/11 RMK AO2 TSNO
94908KDBQ DBQ20050408210510404/08/05 21:05:31  5-MIN KDBQ 090305Z AUTO 12010KT 10SM CLR 12/01 A2999  1010 48 900 120/10 RMK AO2 TSNO
94908KDBQ DBQ20050408211010404/08/05 21:10:31  5-MIN KDBQ 090310Z AUTO 12010KT 10SM CLR 12/01 A2999  1010 46 900 120/10 RMK AO2 TSNO
94908KDBQ DBQ20050408211510404/08/05 21:15:31  5-MIN KDBQ 090315Z AUTO 12010KT 10SM CLR 12/01 A3000  1010 48 900 120/10 RMK AO2 TSNO
94908KDBQ DBQ20050408212010404/08/05 21:20:31  5-MIN KDBQ 090320Z AUTO 12010KT 10SM CLR 12/01 A3000  1010 46 900 120/10 RMK AO2 TSNO
94908KDBQ DBQ20050408212510404/08/05 21:25:31  5-MIN KDBQ 090325Z AUTO 12010KT 10SM CLR 11/01 A3000  1010 48 800 120/10 RMK AO2 TSNO
94908KDBQ DBQ20050408213010404/08/05 21:30:31  5-MIN KDBQ 090330Z AUTO 11010KT 10SM CLR 11/01 A3000  1010 48 800 110/10 RMK AO2 TSNO
94908KDBQ DBQ20050408213510404/08/05 21:35:31  5-MIN KDBQ 090335Z AUTO 11009KT 10SM CLR 11/01 A3000  1010 48 800 110/09 RMK AO2 TSNO
94908KDBQ DBQ20050408214010404/08/05 21:40:31  5-MIN KDBQ 090340Z AUTO 11008KT 10SM CLR 11/01 A3000  1010 50 800 110/08 RMK AO2 TSNO
94908KDBQ DBQ20050408214510404/08/05 21:45:31  5-MIN KDBQ 090345Z AUTO 11008KT 10SM CLR 11/01 A3000  1010 50 800 110/08 RMK AO2 TSNO
94908KDBQ DBQ20050408215012104/08/05 21:50:31  5-MIN KDBQ 090350Z AUTO 11008KT 10SM CLR 11/01 A3000  1010 50 800 110/08 RMK AO2 SLP161 T01060006 TSNO
94908KDBQ DBQ20050408215512104/08/05 21:55:31  5-MIN KDBQ 090355Z AUTO 11008KT 10SM CLR 10/00 A3000  1010 49 700 110/08 RMK AO2 SLP161 T01000000 TSNO
94908KDBQ DBQ20050408220010404/08/05 22:00:31  5-MIN KDBQ 090400Z AUTO 10008KT 10SM CLR 10/00 A3000  1010 49 700 100/08 RMK AO2 TSNO
94908KDBQ DBQ20050408220510404/08/05 22:05:31  5-MIN KDBQ 090405Z AUTO 10009KT 10SM CLR 10/01 A2999  1010 52 700 100/09 RMK AO2 TSNO
94908KDBQ DBQ20050408221010404/08/05 22:10:31  5-MIN KDBQ 090410Z AUTO 10009KT 10SM CLR 10/00 A2999  1010 49 700 100/09 RMK AO2 TSNO
94908KDBQ DBQ20050408221510504/08/05 22:15:31  5-MIN KDBQ 090415Z AUTO 11009KT 10SM CLR 10/M01 A2999  1010 47 700 110/09 RMK AO2 TSNO
94908KDBQ DBQ20050408222010504/08/05 22:20:31  5-MIN KDBQ 090420Z AUTO 11009KT 10SM CLR 11/M01 A2999  1010 46 800 110/09 RMK AO2 TSNO
94908KDBQ DBQ20050408222510504/08/05 22:25:31  5-MIN KDBQ 090425Z AUTO 11009KT 10SM CLR 11/M01 A2999  1010 46 800 110/09 RMK AO2 TSNO
94908KDBQ DBQ20050408223010504/08/05 22:30:31  5-MIN KDBQ 090430Z AUTO 11009KT 10SM CLR 10/M01 A2999  1010 46 700 110/09 RMK AO2 TSNO
94908KDBQ DBQ20050408223510504/08/05 22:35:31  5-MIN KDBQ 090435Z AUTO 11010KT 10SM CLR 10/M01 A2999  1020 46 700 100/10 RMK AO2 TSNO
94908KDBQ DBQ20050408224010504/08/05 22:40:31  5-MIN KDBQ 090440Z AUTO 10010KT 10SM CLR 10/M01 A2999  1020 46 700 100/10 RMK AO2 TSNO
94908KDBQ DBQ20050408224510504/08/05 22:45:31  5-MIN KDBQ 090445Z AUTO 10010KT 10SM CLR 10/M01 A2999  1020 46 700 100/10 RMK AO2 TSNO
94908KDBQ DBQ20050408225012204/08/05 22:50:31  5-MIN KDBQ 090450Z AUTO 10010KT 10SM CLR 10/M02 A2999  1020 44 700 100/10 RMK AO2 SLP155 T01001017 TSNO
94908KDBQ DBQ20050408225512204/08/05 22:55:31  5-MIN KDBQ 090455Z AUTO 10011KT 10SM CLR 10/M02 A2999  1020 44 700 100/11 RMK AO2 SLP155 T01001017 TSNO
94908KDBQ DBQ20050408230010504/08/05 23:00:31  5-MIN KDBQ 090500Z AUTO 11011KT 10SM CLR 10/M02 A2999  1020 42 700 100/11 RMK AO2 TSNO
94908KDBQ DBQ20050408230510504/08/05 23:05:31  5-MIN KDBQ 090505Z AUTO 11011KT 10SM CLR 10/M02 A2999  1020 42 700 110/11 RMK AO2 TSNO
94908KDBQ DBQ20050408231010504/08/05 23:10:31  5-MIN KDBQ 090510Z AUTO 11010KT 10SM CLR 10/M02 A2998  1020 42 700 110/10 RMK AO2 TSNO
94908KDBQ DBQ20050408231510504/08/05 23:15:31  5-MIN KDBQ 090515Z AUTO 11011KT 10SM CLR 10/M03 A2998  1020 40 700 110/11 RMK AO2 TSNO
94908KDBQ DBQ20050408232010504/08/05 23:20:31  5-MIN KDBQ 090520Z AUTO 11012KT 10SM CLR 10/M03 A2998  1020 39 700 110/12 RMK AO2 TSNO
94908KDBQ DBQ20050408232510504/08/05 23:25:31  5-MIN KDBQ 090525Z AUTO 11012KT 10SM CLR 10/M04 A2998  1020 36 700 110/12 RMK AO2 TSNO
94908KDBQ DBQ20050408233010504/08/05 23:30:31  5-MIN KDBQ 090530Z AUTO 12011KT 10SM CLR 09/M04 A2998  1020 39 600 120/11 RMK AO2 TSNO
94908KDBQ DBQ20050408233510504/08/05 23:35:31  5-MIN KDBQ 090535Z AUTO 12011KT 10SM CLR 09/M04 A2998  1020 39 600 120/11 RMK AO2 TSNO
94908KDBQ DBQ20050408234010504/08/05 23:40:31  5-MIN KDBQ 090540Z AUTO 12011KT 10SM CLR 09/M04 A2998  1020 39 600 120/11 RMK AO2 TSNO
94908KDBQ DBQ20050408234510504/08/05 23:45:31  5-MIN KDBQ 090545Z AUTO 12011KT 10SM CLR 09/M04 A2998  1020 39 600 120/11 RMK AO2 TSNO
94908KDBQ DBQ20050408235015104/08/05 23:50:31  5-MIN KDBQ 090550Z AUTO 12011KT 10SM CLR 09/M04 A2998  1020 40 600 120/11 RMK AO2 SLP152 T00891039 10167 20089 402000028 53006  TSNO
94908KDBQ DBQ20050408235515104/08/05 23:55:31  5-MIN KDBQ 090555Z AUTO 12011KT 10SM CLR 09/M04 A2998  1030 40 600 120/11 RMK AO2 SLP152 T00891039 10167 20089 402000028 58004  TSNO
94908KDBQ DBQ20050409000010504/09/05 00:00:38  5-MIN KDBQ 090600Z AUTO 12011KT 10SM CLR 09/M04 A2997  1030 40 600 120/11 RMK AO2 TSNO
94908KDBQ DBQ20050409000510504/09/05 00:05:31  5-MIN KDBQ 090605Z AUTO 12011KT 10SM CLR 09/M04 A2997  1030 40 600 120/11 RMK AO2 TSNO
94908KDBQ DBQ20050409001010504/09/05 00:10:31  5-MIN KDBQ 090610Z AUTO 12012KT 10SM CLR 09/M04 A2997  1030 40 600 120/12 RMK AO2 TSNO
94908KDBQ DBQ20050409001510504/09/05 00:15:32  5-MIN KDBQ 090615Z AUTO 12011KT 10SM CLR 09/M04 A2997  1030 40 600 120/11 RMK AO2 TSNO
94908KDBQ DBQ20050409002010504/09/05 00:20:31  5-MIN KDBQ 090620Z AUTO 12012KT 10SM CLR 09/M04 A2997  1030 40 600 120/12 RMK AO2 TSNO
94908KDBQ DBQ20050409002510504/09/05 00:25:31  5-MIN KDBQ 090625Z AUTO 12012KT 10SM CLR 09/M04 A2997  1030 39 700 120/12 RMK AO2 TSNO
94908KDBQ DBQ20050409003010504/09/05 00:30:31  5-MIN KDBQ 090630Z AUTO 12012KT 10SM CLR 09/M04 A2997  1040 40 600 120/12 RMK AO2 TSNO
94908KDBQ DBQ20050409003510504/09/05 00:35:31  5-MIN KDBQ 090635Z AUTO 12012KT 10SM CLR 09/M04 A2997  1040 40 600 120/12 RMK AO2 TSNO
94908KDBQ DBQ20050409004010504/09/05 00:40:31  5-MIN KDBQ 090640Z AUTO 12010KT 10SM CLR 09/M03 A2997  1040 42 600 120/10 RMK AO2 TSNO
94908KDBQ DBQ20050409004510504/09/05 00:45:31  5-MIN KDBQ 090645Z AUTO 13011KT 10SM CLR 09/M03 A2997  1040 42 600 120/11 RMK AO2 TSNO
94908KDBQ DBQ20050409005012204/09/05 00:50:31  5-MIN KDBQ 090650Z AUTO 13012KT 10SM CLR 09/M03 A2997  1040 42 600 130/12 RMK AO2 SLP148 T00891033 TSNO
94908KDBQ DBQ20050409005512204/09/05 00:55:31  5-MIN KDBQ 090655Z AUTO 13012KT 10SM CLR 09/M03 A2996  1040 42 600 130/12 RMK AO2 SLP148 T00891033 TSNO
94908KDBQ DBQ20050409010010504/09/05 01:00:31  5-MIN KDBQ 090700Z AUTO 13011KT 10SM CLR 09/M03 A2996  1040 43 600 130/11 RMK AO2 TSNO
94908KDBQ DBQ20050409010510504/09/05 01:05:31  5-MIN KDBQ 090705Z AUTO 13011KT 10SM CLR 09/M03 A2997  1040 43 600 130/11 RMK AO2 TSNO
94908KDBQ DBQ20050409011010504/09/05 01:10:31  5-MIN KDBQ 090710Z AUTO 13011KT 10SM CLR 08/M03 A2997  1040 45 500 130/11 RMK AO2 TSNO
94908KDBQ DBQ20050409011510504/09/05 01:15:31  5-MIN KDBQ 090715Z AUTO 13010KT 10SM CLR 08/M03 A2997  1040 45 500 130/10 RMK AO2 TSNO
94908KDBQ DBQ20050409012010504/09/05 01:20:31  5-MIN KDBQ 090720Z AUTO 14007KT 10SM CLR 08/M02 A2997  1040 47 500 140/07 RMK AO2 TSNO
94908KDBQ DBQ20050409012510504/09/05 01:25:31  5-MIN KDBQ 090725Z AUTO 14008KT 10SM CLR 08/M02 A2997  1040 49 500 140/08 RMK AO2 TSNO
94908KDBQ DBQ20050409013010504/09/05 01:30:31  5-MIN KDBQ 090730Z AUTO 14009KT 10SM CLR 07/M02 A2997  1040 51 400 140/09 RMK AO2 TSNO
94908KDBQ DBQ20050409013510504/09/05 01:35:31  5-MIN KDBQ 090735Z AUTO 14009KT 10SM CLR 07/M02 A2996  1040 51 400 140/09 RMK AO2 TSNO
94908KDBQ DBQ20050409014010504/09/05 01:40:31  5-MIN KDBQ 090740Z AUTO 15010KT 10SM CLR 08/M02 A2996  1040 49 500 140/10 RMK AO2 TSNO
94908KDBQ DBQ20050409014510504/09/05 01:45:31  5-MIN KDBQ 090745Z AUTO 14008KT 10SM CLR 08/M02 A2996  1040 49 500 140/08 RMK AO2 TSNO
94908KDBQ DBQ20050409015012204/09/05 01:50:31  5-MIN KDBQ 090750Z AUTO 14009KT 10SM CLR 08/M02 A2996  1040 49 500 140/09 RMK AO2 SLP148 T00781022 TSNO
94908KDBQ DBQ20050409015512204/09/05 01:55:31  5-MIN KDBQ 090755Z AUTO 14011KT 10SM CLR 08/M02 A2996  1040 49 500 140/11 RMK AO2 SLP147 T00781022 TSNO
94908KDBQ DBQ20050409020010504/09/05 02:00:31  5-MIN KDBQ 090800Z AUTO 15012KT 10SM CLR 08/M02 A2996  1040 49 500 140/12 RMK AO2 TSNO
94908KDBQ DBQ20050409020510504/09/05 02:05:31  5-MIN KDBQ 090805Z AUTO 14011KT 10SM CLR 08/M02 A2996  1040 49 500 140/11 RMK AO2 TSNO
94908KDBQ DBQ20050409021010504/09/05 02:10:31  5-MIN KDBQ 090810Z AUTO 14011KT 10SM CLR 08/M02 A2996  1040 49 500 140/11 RMK AO2 TSNO
94908KDBQ DBQ20050409021510504/09/05 02:15:31  5-MIN KDBQ 090815Z AUTO 14011KT 10SM CLR 07/M02 A2996  1040 51 400 140/11 RMK AO2 TSNO
94908KDBQ DBQ20050409022010504/09/05 02:20:31  5-MIN KDBQ 090820Z AUTO 14012KT 10SM CLR 07/M02 A2996  1040 51 400 140/12 RMK AO2 TSNO
94908KDBQ DBQ20050409022510504/09/05 02:25:31  5-MIN KDBQ 090825Z AUTO 14012KT 10SM CLR 08/M02 A2996  1050 49 500 140/12 RMK AO2 TSNO
94908KDBQ DBQ20050409023010504/09/05 02:30:31  5-MIN KDBQ 090830Z AUTO 14012KT 10SM CLR 08/M02 A2995  1050 49 500 140/12 RMK AO2 TSNO
94908KDBQ DBQ20050409023510504/09/05 02:35:31  5-MIN KDBQ 090835Z AUTO 14015KT 10SM CLR 08/M02 A2995  1050 49 500 140/15 RMK AO2 TSNO
94908KDBQ DBQ20050409024010504/09/05 02:40:31  5-MIN KDBQ 090840Z AUTO 14015KT 10SM CLR 08/M02 A2995  1050 49 500 140/15 RMK AO2 TSNO
94908KDBQ DBQ20050409024510504/09/05 02:45:31  5-MIN KDBQ 090845Z AUTO 14015KT 10SM CLR 08/M02 A2995  1050 49 500 140/15 RMK AO2 TSNO
94908KDBQ DBQ20050409025012804/09/05 02:50:31  5-MIN KDBQ 090850Z AUTO 14015KT 10SM CLR 08/M02 A2995  1050 49 500 140/15 RMK AO2 SLP142 T00781022 58004 TSNO
94908KDBQ DBQ20050409025512804/09/05 02:55:31  5-MIN KDBQ 090855Z AUTO 14015KT 10SM CLR 08/M02 A2995  1050 49 500 140/15 RMK AO2 SLP142 T00781022 58010 TSNO
94908KDBQ DBQ20050410004510504/10/05 00:45:31  5-MIN KDBQ 100645Z AUTO 14009KT 10SM CLR 14/02 A2990  1090 43 1300 140/09 RMK AO2 TSNO
94908KDBQ DBQ20050410005012204/10/05 00:50:31  5-MIN KDBQ 100650Z AUTO 14009KT 10SM CLR 14/02 A2990  1090 43 1300 140/09 RMK AO2 SLP124 T01440022 TSNO
94908KDBQ DBQ20050410005512204/10/05 00:55:31  5-MIN KDBQ 100655Z AUTO 13010KT 10SM CLR 14/02 A2990  1090 45 1300 130/10 RMK AO2 SLP124 T01390022 TSNO
94908KDBQ DBQ20050410010010704/10/05 01:00:31  5-MIN KDBQ 100700Z AUTO 14008KT 10SM FEW120 14/02 A2990 1090 43 1300 140/08 RMK AO2 TSNO
94908KDBQ DBQ20050410010510504/10/05 01:05:31  5-MIN KDBQ 100705Z AUTO 14007KT 10SM CLR 14/03 A2990  1090 47 1300 140/07 RMK AO2 TSNO
94908KDBQ DBQ20050410011010504/10/05 01:10:31  5-MIN KDBQ 100710Z AUTO 14009KT 10SM CLR 14/03 A2990  1090 47 1300 140/09 RMK AO2 TSNO
94908KDBQ DBQ20050410011510504/10/05 01:15:31  5-MIN KDBQ 100715Z AUTO 14009KT 10SM CLR 14/03 A2990  1090 47 1300 140/09 RMK AO2 TSNO
94908KDBQ DBQ20050410012010504/10/05 01:20:31  5-MIN KDBQ 100720Z AUTO 14010KT 10SM CLR 14/03 A2990  1100 45 1300 130/10 RMK AO2 TSNO
94908KDBQ DBQ20050410012510504/10/05 01:25:31  5-MIN KDBQ 100725Z AUTO 13011KT 10SM CLR 14/02 A2990  1100 43 1300 130/11 RMK AO2 TSNO
94908KDBQ DBQ20050410013010704/10/05 01:30:31  5-MIN KDBQ 100730Z AUTO 14010KT 10SM FEW120 14/02 A2990 1100 43 1300 140/10 RMK AO2 TSNO
94908KDBQ DBQ20050410013510704/10/05 01:35:31  5-MIN KDBQ 100735Z AUTO 14011KT 10SM FEW120 14/02 A2990 1100 43 1300 130/11 RMK AO2 TSNO
94908KDBQ DBQ20050410014010704/10/05 01:40:31  5-MIN KDBQ 100740Z AUTO 14009KT 10SM FEW120 14/02 A2990 1100 43 1300 140/09 RMK AO2 TSNO
94908KDBQ DBQ20050410014510704/10/05 01:45:31  5-MIN KDBQ 100745Z AUTO 14010KT 10SM SCT110 14/03 A2990 1100 45 1300 140/10 RMK AO2 TSNO
94908KDBQ DBQ20050410015012404/10/05 01:50:31  5-MIN KDBQ 100750Z AUTO 14010KT 10SM SCT110 14/03 A2990 1100 45 1300 140/10 RMK AO2 SLP123 T01440028 TSNO
94908KDBQ DBQ20050410015512404/10/05 01:55:31  5-MIN KDBQ 100755Z AUTO 14009KT 10SM SCT110 14/03 A2990 1100 45 1300 140/09 RMK AO2 SLP123 T01440028 TSNO
94908KDBQ DBQ20050410020010704/10/05 02:00:31  5-MIN KDBQ 100800Z AUTO 14010KT 10SM BKN110 14/03 A2990 1100 45 1300 140/10 RMK AO2 TSNO
94908KDBQ DBQ20050410020510704/10/05 02:05:31  5-MIN KDBQ 100805Z AUTO 14010KT 10SM BKN110 14/03 A2990 1100 47 1300 140/10 RMK AO2 TSNO
94908KDBQ DBQ20050410021010704/10/05 02:10:31  5-MIN KDBQ 100810Z AUTO 14009KT 10SM SCT120 14/03 A2990 1090 47 1300 140/09 RMK AO2 TSNO
94908KDBQ DBQ20050410021510704/10/05 02:15:31  5-MIN KDBQ 100815Z AUTO 13010KT 10SM SCT110 14/03 A2990 1090 47 1300 130/10 RMK AO2 TSNO
94908KDBQ DBQ20050410022010704/10/05 02:20:31  5-MIN KDBQ 100820Z AUTO 14010KT 10SM SCT110 14/03 A2990 1090 45 1300 140/10 RMK AO2 TSNO
94908KDBQ DBQ20050410022510704/10/05 02:25:31  5-MIN KDBQ 100825Z AUTO 14010KT 10SM BKN110 14/03 A2990 1090 47 1300 140/10 RMK AO2 TSNO
94908KDBQ DBQ20050410023010704/10/05 02:30:31  5-MIN KDBQ 100830Z AUTO 14010KT 10SM BKN110 14/03 A2990 1090 48 1300 140/10 RMK AO2 TSNO
94908KDBQ DBQ20050410023510704/10/05 02:35:31  5-MIN KDBQ 100835Z AUTO 14010KT 10SM BKN110 14/03 A2990 1090 47 1300 130/10 RMK AO2 TSNO
94908KDBQ DBQ20050410024010704/10/05 02:40:31  5-MIN KDBQ 100840Z AUTO 13010KT 10SM BKN110 14/03 A2990 1090 47 1300 130/10 RMK AO2 TSNO
94908KDBQ DBQ20050410024510704/10/05 02:45:31  5-MIN KDBQ 100845Z AUTO 14010KT 10SM BKN110 14/03 A2990 1090 47 1300 130/10 RMK AO2 TSNO
94908KDBQ DBQ20050410025013004/10/05 02:50:31  5-MIN KDBQ 100850Z AUTO 13010KT 10SM BKN100 14/03 A2990 1090 45 1300 130/10 RMK AO2 SLP123 T01440028 53008 TSNO
94908KDBQ DBQ20050410025516004/10/05 02:55:31  5-MIN KDBQ 100855Z AUTO 13010KT 10SM -RA BKN090 BKN110  14/03 A2990 1090 48 1300 130/10 RMK AO2 RAB55 SLP124 P0000 60000 T01390033 51002 TSNO
94908KDBQ DBQ20050410030012504/10/05 03:00:31  5-MIN KDBQ 100900Z AUTO 13011KT 10SM -RA BKN080 BKN100  14/03 A2990 1090 45 1300 130/11 RMK AO2 P0000 TSNO
94908KDBQ DBQ20050410030512604/10/05 03:05:31  5-MIN KDBQ 100905Z AUTO 12009KT 10SM BKN080 BKN095 14/03 A2990 1090 45 1300 120/09 RMK AO2 RAE05 P0000 TSNO
94908KDBQ DBQ20050410031011904/10/05 03:10:31  5-MIN KDBQ 100910Z AUTO 13009KT 10SM SCT085 14/03 A2991 1090 47 1300 130/09 RMK AO2 RAE05 P0000 TSNO
94908KDBQ DBQ20050410031512604/10/05 03:15:31  5-MIN KDBQ 100915Z AUTO 12009KT 10SM SCT080 SCT095 14/03 A2990 1090 47 1300 120/09 RMK AO2 RAE05 P0000 TSNO
94908KDBQ DBQ20050410032012604/10/05 03:20:31  5-MIN KDBQ 100920Z AUTO 12010KT 10SM FEW065 SCT090 14/03 A2990 1100 47 1300 120/10 RMK AO2 RAE05 P0000 TSNO
94908KDBQ DBQ20050410032511904/10/05 03:25:31  5-MIN KDBQ 100925Z AUTO 12009KT 10SM FEW060 14/03 A2990 1100 48 1300 120/09 RMK AO2 RAE05 P0000 TSNO
94908KDBQ DBQ20050410033011704/10/05 03:30:31  5-MIN KDBQ 100930Z AUTO 12010KT 10SM CLR 13/03 A2990  1100 50 1200 120/10 RMK AO2 RAE05 P0000 TSNO
94908KDBQ DBQ20050410033511704/10/05 03:35:31  5-MIN KDBQ 100935Z AUTO 12010KT 10SM CLR 13/03 A2990  1100 50 1200 120/10 RMK AO2 RAE05 P0000 TSNO
94908KDBQ DBQ20050410034011704/10/05 03:40:31  5-MIN KDBQ 100940Z AUTO 12010KT 10SM CLR 13/03 A2990  1100 48 1200 120/10 RMK AO2 RAE05 P0000 TSNO
94908KDBQ DBQ20050410034511704/10/05 03:45:31  5-MIN KDBQ 100945Z AUTO 12011KT 10SM CLR 13/03 A2990  1100 48 1200 120/11 RMK AO2 RAE05 P0000 TSNO
94908KDBQ DBQ20050410035013404/10/05 03:50:31  5-MIN KDBQ 100950Z AUTO 13010KT 10SM CLR 13/03 A2989  1100 50 1100 130/10 RMK AO2 RAE05 SLP120 P0000 T01280028 TSNO
94908KDBQ DBQ20050410035513404/10/05 03:55:31  5-MIN KDBQ 100955Z AUTO 12010KT 10SM CLR 13/03 A2989  1100 48 1200 120/10 RMK AO2 RAE05 SLP120 P0000 T01330028 TSNO
94908KDBQ DBQ20050410040010504/10/05 04:00:31  5-MIN KDBQ 101000Z AUTO 13010KT 10SM CLR 13/03 A2989  1100 48 1200 120/10 RMK AO2 TSNO
94908KDBQ DBQ20050410040510504/10/05 04:05:31  5-MIN KDBQ 101005Z AUTO 13010KT 10SM CLR 13/03 A2989  1100 48 1200 130/10 RMK AO2 TSNO
94908KDBQ DBQ20050410041010504/10/05 04:10:31  5-MIN KDBQ 101010Z AUTO 13011KT 10SM CLR 13/03 A2989  1100 48 1200 130/11 RMK AO2 TSNO
94908KDBQ DBQ20050410041510504/10/05 04:15:31  5-MIN KDBQ 101015Z AUTO 13012KT 10SM CLR 13/03 A2989  1100 48 1200 130/12 RMK AO2 TSNO
94908KDBQ DBQ20050410042010504/10/05 04:20:31  5-MIN KDBQ 101020Z AUTO 13012KT 10SM CLR 13/03 A2989  1100 48 1200 130/12 RMK AO2 TSNO
94908KDBQ DBQ20050410042510504/10/05 04:25:31  5-MIN KDBQ 101025Z AUTO 13011KT 10SM CLR 13/03 A2989  1100 48 1200 130/11 RMK AO2 TSNO
94908KDBQ DBQ20050410043010504/10/05 04:30:31  5-MIN KDBQ 101030Z AUTO 13011KT 10SM CLR 13/03 A2989  1100 48 1200 130/11 RMK AO2 TSNO
94908KDBQ DBQ20050410043510504/10/05 04:35:31  5-MIN KDBQ 101035Z AUTO 13011KT 10SM CLR 13/03 A2989  1100 50 1100 130/11 RMK AO2 TSNO
94908KDBQ DBQ20050410044010504/10/05 04:40:31  5-MIN KDBQ 101040Z AUTO 13011KT 10SM CLR 13/03 A2989  1110 52 1100 130/11 RMK AO2 TSNO
94908KDBQ DBQ20050410044510504/10/05 04:45:31  5-MIN KDBQ 101045Z AUTO 14011KT 10SM CLR 13/03 A2989  1110 52 1100 140/11 RMK AO2 TSNO
94908KDBQ DBQ20050410045012204/10/05 04:50:31  5-MIN KDBQ 101050Z AUTO 14011KT 10SM CLR 12/03 A2989  1110 54 1100 140/11 RMK AO2 SLP119 T01220033 TSNO
94908KDBQ DBQ20050410045512204/10/05 04:55:31  5-MIN KDBQ 101055Z AUTO 14009KT 10SM CLR 12/03 A2989  1110 54 1100 140/09 RMK AO2 SLP119 T01220033 TSNO
94908KDBQ DBQ20050410050009404/10/05 05:00:31  5-MIN KDBQ 101100Z 14009KT 10SM CLR 12/03 A2989 1110 56 1000 140/09 RMK AO2
94908KDBQ DBQ20050410050509404/10/05 05:05:31  5-MIN KDBQ 101105Z 14009KT 10SM CLR 12/04 A2989 1110 58 1000 140/09 RMK AO2
94908KDBQ DBQ20050410051009404/10/05 05:10:31  5-MIN KDBQ 101110Z 14010KT 10SM CLR 12/03 A2989 1110 54 1100 140/10 RMK AO2
94908KDBQ DBQ20050410051509404/10/05 05:15:31  5-MIN KDBQ 101115Z 14010KT 10SM CLR 12/04 A2989 1100 56 1100 140/10 RMK AO2
94908KDBQ DBQ20050410052009404/10/05 05:20:31  5-MIN KDBQ 101120Z 14010KT 10SM CLR 12/04 A2989 1110 56 1100 130/10 RMK AO2
94908KDBQ DBQ20050410052509404/10/05 05:25:31  5-MIN KDBQ 101125Z 13011KT 10SM CLR 13/04 A2989 1110 54 1100 130/11 RMK AO2
94908KDBQ DBQ20050410053009404/10/05 05:30:31  5-MIN KDBQ 101130Z 13010KT 10SM CLR 13/04 A2989 1110 54 1100 130/10 RMK AO2
94908KDBQ DBQ20050410053509404/10/05 05:35:31  5-MIN KDBQ 101135Z 13011KT 10SM CLR 12/04 A2989 1110 56 1100 130/11 RMK AO2
94908KDBQ DBQ20050410054009404/10/05 05:40:31  5-MIN KDBQ 101140Z 14012KT 10SM CLR 12/04 A2989 1110 56 1100 140/12 RMK AO2
94908KDBQ DBQ20050410054509404/10/05 05:45:31  5-MIN KDBQ 101145Z 14010KT 10SM CLR 12/04 A2990 1100 58 1000 140/10 RMK AO2
94908KDBQ DBQ20050410055013504/10/05 05:50:31  5-MIN KDBQ 101150Z 14011KT 10SM CLR 12/04 A2990 1100 58 1000 140/11 RMK AO2 SLP123 60000 T01170039 10144 20117 51002
94908KDBQ DBQ20050410055513504/10/05 05:55:31  5-MIN KDBQ 101155Z 14012KT 10SM CLR 12/04 A2990 1100 58 1000 140/12 RMK AO2 SLP124 60000 T01170039 10144 20117 55001
94908KDBQ DBQ20050410060009404/10/05 06:00:31  5-MIN KDBQ 101200Z 14011KT 10SM CLR 12/04 A2990 1100 58 1000 140/11 RMK AO2
94908KDBQ DBQ20050410060509404/10/05 06:05:31  5-MIN KDBQ 101205Z 14011KT 10SM CLR 12/04 A2990 1100 58 1000 140/11 RMK AO2
94908KDBQ DBQ20050410061009404/10/05 06:10:31  5-MIN KDBQ 101210Z 14012KT 10SM CLR 12/04 A2990 1100 58 1000 140/12 RMK AO2
94908KDBQ DBQ20050410061509404/10/05 06:15:31  5-MIN KDBQ 101215Z 14012KT 10SM CLR 12/04 A2990 1100 61 1000 140/12 RMK AO2
94908KDBQ DBQ20050410062009404/10/05 06:20:31  5-MIN KDBQ 101220Z 14011KT 10SM CLR 12/04 A2990 1100 61 1000 140/11 RMK AO2
94908KDBQ DBQ20050410062509404/10/05 06:25:31  5-MIN KDBQ 101225Z 14010KT 10SM CLR 12/04 A2990 1100 61 1000 140/10 RMK AO2
94908KDBQ DBQ20050410063009404/10/05 06:30:31  5-MIN KDBQ 101230Z 13011KT 10SM CLR 13/04 A2990 1100 56 1100 130/11 RMK AO2
94908KDBQ DBQ20050410063509404/10/05 06:35:31  5-MIN KDBQ 101235Z 13011KT 10SM CLR 13/04 A2990 1100 56 1100 130/11 RMK AO2
94908KDBQ DBQ20050410064009404/10/05 06:40:31  5-MIN KDBQ 101240Z 14011KT 10SM CLR 13/04 A2990 1090 54 1200 130/11 RMK AO2
94908KDBQ DBQ20050410064509404/10/05 06:45:31  5-MIN KDBQ 101245Z 14012KT 10SM CLR 13/04 A2990 1100 54 1200 130/12 RMK AO2
94908KDBQ DBQ20050410065011104/10/05 06:50:31  5-MIN KDBQ 101250Z 13011KT 10SM CLR 13/04 A2990 1100 54 1200 130/11 RMK AO2 SLP124 T01330044
94908KDBQ DBQ20050410065511104/10/05 06:55:31  5-MIN KDBQ 101255Z 13012KT 10SM CLR 14/04 A2990 1100 52 1300 130/12 RMK AO2 SLP124 T01390044
94908KDBQ DBQ20050410070009404/10/05 07:00:31  5-MIN KDBQ 101300Z 14013KT 10SM CLR 14/05 A2990 1100 55 1300 130/13 RMK AO2
94908KDBQ DBQ20050410070509404/10/05 07:05:31  5-MIN KDBQ 101305Z 14012KT 10SM CLR 14/05 A2990 1100 55 1300 140/12 RMK AO2
94908KDBQ DBQ20050410071009404/10/05 07:10:31  5-MIN KDBQ 101310Z 14012KT 10SM CLR 14/06 A2990 1100 55 1300 140/12 RMK AO2
94908KDBQ DBQ20050410071509404/10/05 07:15:31  5-MIN KDBQ 101315Z 14013KT 10SM CLR 14/06 A2990 1100 55 1300 140/13 RMK AO2
94908KDBQ DBQ20050410072009404/10/05 07:20:31  5-MIN KDBQ 101320Z 14014KT 10SM CLR 15/06 A2990 1100 53 1400 140/14 RMK AO2
94908KDBQ DBQ20050410072509404/10/05 07:25:31  5-MIN KDBQ 101325Z 14014KT 10SM CLR 15/06 A2990 1100 55 1400 140/14 RMK AO2
94908KDBQ DBQ20050410073009404/10/05 07:30:31  5-MIN KDBQ 101330Z 15012KT 10SM CLR 16/06 A2990 1100 53 1500 140/12 RMK AO2
94908KDBQ DBQ20050410073509404/10/05 07:35:31  5-MIN KDBQ 101335Z 15014KT 10SM CLR 16/06 A2990 1100 53 1500 150/14 RMK AO2
94908KDBQ DBQ20050410074009404/10/05 07:40:31  5-MIN KDBQ 101340Z 15012KT 10SM CLR 16/07 A2990 1100 53 1500 150/12 RMK AO2
94908KDBQ DBQ20050410074509404/10/05 07:45:31  5-MIN KDBQ 101345Z 16013KT 10SM CLR 16/07 A2990 1100 53 1500 150/13 RMK AO2
94908KDBQ DBQ20050410075011104/10/05 07:50:31  5-MIN KDBQ 101350Z 16014KT 10SM CLR 16/07 A2990 1090 53 1500 160/14 RMK AO2 SLP124 T01610067
94908KDBQ DBQ20050410075511104/10/05 07:55:31  5-MIN KDBQ 101355Z 17012KT 9SM CLR 17/07 A2990 1090 53  1600 170/12 RMK AO2 SLP124 T01670072
94908KDBQ DBQ20050410080009404/10/05 08:00:31  5-MIN KDBQ 101400Z 16014KT 9SM CLR 17/07 A2990 1090 53  1600 160/14 RMK AO2
94908KDBQ DBQ20050410080509404/10/05 08:05:31  5-MIN KDBQ 101405Z 16014KT 9SM CLR 17/08 A2990 1090 55  1600 160/14 RMK AO2
94908KDBQ DBQ20050410081009404/10/05 08:10:31  5-MIN KDBQ 101410Z 17013KT 9SM CLR 17/08 A2990 1090 55  1600 160/13 RMK AO2
94908KDBQ DBQ20050410081509404/10/05 08:15:31  5-MIN KDBQ 101415Z 16013KT 9SM CLR 17/08 A2990 1100 53  1700 150/13 RMK AO2
94908KDBQ DBQ20050410082009404/10/05 08:20:31  5-MIN KDBQ 101420Z 16014KT 9SM CLR 17/08 A2990 1100 55  1700 160/14 RMK AO2
94908KDBQ DBQ20050410082509404/10/05 08:25:31  5-MIN KDBQ 101425Z 16014KT 9SM CLR 17/08 A2990 1100 55  1700 160/14 RMK AO2
94908KDBQ DBQ20050410083009404/10/05 08:30:31  5-MIN KDBQ 101430Z 16014KT 8SM CLR 18/08 A2990 1100 53  1700 160/14 RMK AO2
94908KDBQ DBQ20050410083509404/10/05 08:35:31  5-MIN KDBQ 101435Z 16014KT 8SM CLR 18/09 A2990 1100 55  1700 160/14 RMK AO2
94908KDBQ DBQ20050410084009404/10/05 08:40:31  5-MIN KDBQ 101440Z 16014KT 8SM CLR 18/09 A2989 1100 55  1700 160/14 RMK AO2
94908KDBQ DBQ20050410084509404/10/05 08:45:31  5-MIN KDBQ 101445Z 17015KT 8SM CLR 18/09 A2989 1100 54  1800 170/15 RMK AO2
94908KDBQ DBQ20050410085011704/10/05 08:50:31  5-MIN KDBQ 101450Z 16013KT 8SM CLR 18/09 A2990 1100 56  1800 160/13 RMK AO2 SLP122 T01830094 55001
94908KDBQ DBQ20050410085511704/10/05 08:55:31  5-MIN KDBQ 101455Z 17012KT 8SM CLR 18/09 A2991 1090 54  1800 170/12 RMK AO2 SLP125 T01830089 53002
94908KDBQ DBQ20050410090009404/10/05 09:00:31  5-MIN KDBQ 101500Z 17014KT 8SM CLR 19/09 A2991 1090 54  1800 170/14 RMK AO2
94908KDBQ DBQ20050410090509404/10/05 09:05:31  5-MIN KDBQ 101505Z 17012KT 8SM CLR 19/09 A2991 1090 54  1800 170/12 RMK AO2
94908KDBQ DBQ20050410091009404/10/05 09:10:31  5-MIN KDBQ 101510Z 17011KT 8SM CLR 19/09 A2991 1090 54  1800 170/11 RMK AO2
94908KDBQ DBQ20050410091509404/10/05 09:15:31  5-MIN KDBQ 101515Z 18011KT 8SM CLR 19/11 A2991 1080 56  1900 180/11 RMK AO2
94908KDBQ DBQ20050410092009404/10/05 09:20:31  5-MIN KDBQ 101520Z 17012KT 8SM CLR 20/11 A2991 1090 54  2000 170/12 RMK AO2
94908KDBQ DBQ20050410092509404/10/05 09:25:31  5-MIN KDBQ 101525Z 18014KT 8SM CLR 20/11 A2992 1080 54  2000 180/14 RMK AO2
94908KDBQ DBQ20050410093009404/10/05 09:30:31  5-MIN KDBQ 101530Z 18013KT 8SM CLR 20/11 A2991 1080 54  2000 180/13 RMK AO2
94908KDBQ DBQ20050410093509404/10/05 09:35:31  5-MIN KDBQ 101535Z 17012KT 7SM CLR 20/11 A2992 1080 54  2000 160/12 RMK AO2
94908KDBQ DBQ20050410094009404/10/05 09:40:31  5-MIN KDBQ 101540Z 17014KT 7SM CLR 21/11 A2992 1080 54  2000 170/14 RMK AO2
94908KDBQ DBQ20050410094509404/10/05 09:45:31  5-MIN KDBQ 101545Z 17013KT 8SM CLR 21/11 A2992 1080 54  2000 170/13 RMK AO2
94908KDBQ DBQ20050410095011104/10/05 09:50:31  5-MIN KDBQ 101550Z 19014KT 8SM CLR 21/12 A2992 1080 54  2100 190/14 RMK AO2 SLP128 T02110117
94908KDBQ DBQ20050410095511704/10/05 09:55:31  5-MIN KDBQ 101555Z 19014G19KT 8SM CLR 21/12 A2992 1080  54 2100 190/14G19 RMK AO2 SLP128 T02110117
94908KDBQ DBQ20050410100010004/10/05 10:00:31  5-MIN KDBQ 101600Z 18012G19KT 8SM CLR 21/12 A2992 1080  54 2100 180/12G19 RMK AO2
94908KDBQ DBQ20050410100509404/10/05 10:05:31  5-MIN KDBQ 101605Z 17012KT 8SM CLR 21/12 A2991 1080 54  2100 160/12 RMK AO2
94908KDBQ DBQ20050410101009404/10/05 10:10:31  5-MIN KDBQ 101610Z 19011KT 8SM CLR 21/12 A2991 1080 54  2100 190/11 RMK AO2
94908KDBQ DBQ20050410101509404/10/05 10:15:31  5-MIN KDBQ 101615Z 17010KT 8SM CLR 22/12 A2991 1090 52  2100 170/10 RMK AO2
94908KDBQ DBQ20050410102009404/10/05 10:20:31  5-MIN KDBQ 101620Z 17014KT 8SM CLR 22/12 A2991 1090 52  2200 170/14 RMK AO2
94908KDBQ DBQ20050410102510004/10/05 10:25:31  5-MIN KDBQ 101625Z 18014G18KT 8SM CLR 22/12 A2991 1090  54 2200 180/14G18 RMK AO2
94908KDBQ DBQ20050410103010304/10/05 10:30:31  5-MIN KDBQ 101630Z 15010G18KT 8SM FEW040 22/12 A2991  1090 54 2200 150/10G18 RMK AO2
94908KDBQ DBQ20050410103510304/10/05 10:35:31  5-MIN KDBQ 101635Z 18011G18KT 8SM FEW042 22/12 A2991  1090 54 2200 170/11G18 RMK AO2
94908KDBQ DBQ20050410104009704/10/05 10:40:31  5-MIN KDBQ 101640Z 18011KT 8SM SCT042 22/12 A2991 1090  52 2200 180/11 RMK AO2
94908KDBQ DBQ20050410104509704/10/05 10:45:31  5-MIN KDBQ 101645Z 17015KT 8SM BKN042 22/12 A2991 1090  52 2200 170/15 RMK AO2
94908KDBQ DBQ20050410105011404/10/05 10:50:31  5-MIN KDBQ 101650Z 18015KT 9SM SCT042 22/12 A2991 1090  52 2200 180/15 RMK AO2 SLP126 T02220122
94908KDBQ DBQ20050410105512004/10/05 10:55:31  5-MIN KDBQ 101655Z 17015KT 9SM SCT042 BKN055 23/12 A2991 1080 51 2300 160/15 RMK AO2 SLP126 T02280122
94908KDBQ DBQ20050410110010304/10/05 11:00:31  5-MIN KDBQ 101700Z 18011KT 9SM SCT042 BKN050 22/12 A2991 1080 52 2200 180/11 RMK AO2
94908KDBQ DBQ20050410110510304/10/05 11:05:31  5-MIN KDBQ 101705Z 17015KT 8SM SCT042 BKN055 22/12 A2991 1080 52 2200 170/15 RMK AO2
94908KDBQ DBQ20050410111010304/10/05 11:10:31  5-MIN KDBQ 101710Z 18011KT 9SM FEW044 BKN055 22/12 A2991 1080 52 2200 180/11 RMK AO2
94908KDBQ DBQ20050410111510304/10/05 11:15:31  5-MIN KDBQ 101715Z 16011KT 9SM FEW047 SCT060 22/12 A2991 1080 52 2200 160/11 RMK AO2
94908KDBQ DBQ20050410112010304/10/05 11:20:31  5-MIN KDBQ 101720Z 19013KT 9SM FEW047 BKN060 23/12 A2991 1080 51 2300 190/13 RMK AO2
94908KDBQ DBQ20050410112511004/10/05 11:25:31  5-MIN KDBQ 101725Z 17013G19KT 9SM FEW050 SCT060 23/12  A2991 1090 51 2300 170/13G19 RMK AO2
94908KDBQ DBQ20050410113010304/10/05 11:30:31  5-MIN KDBQ 101730Z 18013G19KT 9SM SCT060 23/12 A2991  1090 51 2300 180/13G19 RMK AO2
94908KDBQ DBQ20050410113509704/10/05 11:35:31  5-MIN KDBQ 101735Z 18014KT 9SM SCT065 23/13 A2991 1090  53 2300 180/14 RMK AO2
94908KDBQ DBQ20050410114009704/10/05 11:40:31  5-MIN KDBQ 101740Z 19012KT 9SM SCT065 22/13 A2991 1090  54 2200 190/12 RMK AO2
94908KDBQ DBQ20050410114510504/10/05 11:45:31  5-MIN KDBQ 101745Z 18011KT 10SM FEW049 SCT060 23/13  A2991 1090 51 2300 180/11 RMK AO2
94908KDBQ DBQ20050410115014004/10/05 11:50:31  5-MIN KDBQ 101750Z 16011KT 10SM FEW046 SCT060 23/12  A2991 1090 49 2300 160/11 RMK AO2 SLP125 T02330122 10233 20117 53002
94908KDBQ DBQ20050410115514004/10/05 11:55:31  5-MIN KDBQ 101755Z 19010KT 10SM FEW046 SCT065 23/13  A2991 1090 53 2300 190/10 RMK AO2 SLP124 T02280128 10233 20117 50000
94908KDBQ DBQ20050410120010304/10/05 12:00:31  5-MIN KDBQ 101800Z 16012KT 9SM FEW046 BKN060 23/12 A2990 1090 49 2400 160/12 RMK AO2
94908KDBQ DBQ20050410120510504/10/05 12:05:31  5-MIN KDBQ 101805Z 18012KT 10SM FEW046 BKN060 24/13  A2990 1100 49 2400 180/12 RMK AO2
94908KDBQ DBQ20050410121010504/10/05 12:10:31  5-MIN KDBQ 101810Z 16013KT 10SM FEW046 SCT060 24/13  A2990 1100 49 2400 160/13 RMK AO2
94908KDBQ DBQ20050410121510504/10/05 12:15:31  5-MIN KDBQ 101815Z 18014KT 10SM FEW046 SCT060 24/12  A2990 1100 46 2500 180/14 RMK AO2
94908KDBQ DBQ20050410122010504/10/05 12:20:31  5-MIN KDBQ 101820Z 16012KT 10SM FEW048 SCT060 24/12  A2990 1100 47 2400 160/12 RMK AO2
94908KDBQ DBQ20050410122509704/10/05 12:25:31  5-MIN KDBQ 101825Z 17011KT 10SM SCT060 24/13 A2990 1100 47 2500 170/11 RMK AO2
94908KDBQ DBQ20050410123009704/10/05 12:30:31  5-MIN KDBQ 101830Z 17015KT 10SM FEW060 24/12 A2989 1100 46 2500 170/15 RMK AO2
94908KDBQ DBQ20050410123509704/10/05 12:35:31  5-MIN KDBQ 101835Z 17012KT 10SM FEW060 24/12 A2989 1100 46 2500 170/12 RMK AO2
94908KDBQ DBQ20050410124010504/10/05 12:40:31  5-MIN KDBQ 101840Z 20010KT 10SM FEW050 SCT060 23/12  A2990 1100 49 2400 190/10 RMK AO2
94908KDBQ DBQ20050410124510404/10/05 12:45:31  5-MIN KDBQ 101845Z 17011G17KT 10SM BKN055 24/13 A2989  1100 47 2500 170/11G17 RMK AO2
94908KDBQ DBQ20050410125012104/10/05 12:50:31  5-MIN KDBQ 101850Z 19015G20KT 10SM SCT055 24/12 A2989  1110 46 2500 190/15G20 RMK AO2 SLP118 T02440122
94908KDBQ DBQ20050410125512104/10/05 12:55:31  5-MIN KDBQ 101855Z 18013G20KT 10SM SCT055 24/12 A2989  1110 44 2500 180/13G20 RMK AO2 SLP117 T02440117
94908KDBQ DBQ20050410130009704/10/05 13:00:31  5-MIN KDBQ 101900Z 17013KT 10SM FEW055 25/11 A2989 1110 41 2600 170/13 RMK AO2
94908KDBQ DBQ20050410130510504/10/05 13:05:31  5-MIN KDBQ 101905Z 19013KT 10SM FEW055 SCT070 24/11  A2989 1110 44 2400 190/13 RMK AO2
94908KDBQ DBQ20050410131010504/10/05 13:10:31  5-MIN KDBQ 101910Z 19010KT 10SM FEW055 SCT070 24/11  A2988 1110 42 2500 190/10 RMK AO2
94908KDBQ DBQ20050410131509704/10/05 13:15:31  5-MIN KDBQ 101915Z 15014KT 10SM SCT065 24/10 A2988 1110 39 2500 150/14 RMK AO2
94908KDBQ DBQ20050410132009704/10/05 13:20:31  5-MIN KDBQ 101920Z 15013KT 10SM SCT065 24/10 A2988 1110 39 2500 150/13 RMK AO2
94908KDBQ DBQ20050410132509704/10/05 13:25:31  5-MIN KDBQ 101925Z 16013KT 10SM SCT065 24/10 A2988 1120 39 2500 150/13 RMK AO2
94908KDBQ DBQ20050410133009704/10/05 13:30:31  5-MIN KDBQ 101930Z 18013KT 10SM SCT065 24/10 A2988 1120 39 2500 170/13 RMK AO2
94908KDBQ DBQ20050410133509704/10/05 13:35:31  5-MIN KDBQ 101935Z 17011KT 10SM BKN065 24/10 A2988 1120 39 2500 170/11 RMK AO2
94908KDBQ DBQ20050410134009704/10/05 13:40:31  5-MIN KDBQ 101940Z 16012KT 10SM BKN065 24/11 A2988 1120 41 2500 160/12 RMK AO2
94908KDBQ DBQ20050410134510404/10/05 13:45:31  5-MIN KDBQ 101945Z 15013G18KT 10SM BKN065 24/11 A2988  1120 41 2500 150/13G18 RMK AO2
94908KDBQ DBQ20050410135012104/10/05 13:50:31  5-MIN KDBQ 101950Z 17012G18KT 10SM BKN065 25/11 A2988  1120 39 2600 160/12G18 RMK AO2 SLP113 T02500106
94908KDBQ DBQ20050410135512104/10/05 13:55:31  5-MIN KDBQ 101955Z 18015G19KT 10SM BKN065 26/11 A2987  1120 38 2700 180/15G19 RMK AO2 SLP111 T02610111
94908KDBQ DBQ20050410140010504/10/05 14:00:31  5-MIN KDBQ 102000Z 17015KT 10SM SCT060 SCT075 26/11  A2987 1120 38 2600 170/15 RMK AO2
94908KDBQ DBQ20050410140510404/10/05 14:05:31  5-MIN KDBQ 102005Z 17014G22KT 10SM SCT065 24/10 A2987  1120 39 2500 170/14G22 RMK AO2
94908KDBQ DBQ20050410141010404/10/05 14:10:31  5-MIN KDBQ 102010Z 16016G22KT 10SM SCT070 24/10 A2987  1120 39 2500 160/16G22 RMK AO2
94908KDBQ DBQ20050410141509704/10/05 14:15:31  5-MIN KDBQ 102015Z 16012KT 10SM FEW070 24/11 A2987 1130 41 2500 160/12 RMK AO2
94908KDBQ DBQ20050410142009704/10/05 14:20:31  5-MIN KDBQ 102020Z 17015KT 10SM FEW075 26/11 A2987 1130 38 2600 170/15 RMK AO2
94908KDBQ DBQ20050410142509704/10/05 14:25:31  5-MIN KDBQ 102025Z 18014KT 10SM FEW070 25/11 A2986 1130 39 2600 180/14 RMK AO2
94908KDBQ DBQ20050410143009704/10/05 14:30:31  5-MIN KDBQ 102030Z 16013KT 10SM FEW070 25/11 A2986 1130 39 2600 160/13 RMK AO2
94908KDBQ DBQ20050410143510404/10/05 14:35:31  5-MIN KDBQ 102035Z 16014G21KT 10SM FEW065 26/11 A2986  1140 38 2700 150/14G21 RMK AO2
94908KDBQ DBQ20050410144010404/10/05 14:40:31  5-MIN KDBQ 102040Z 15012G21KT 10SM SCT065 26/11 A2986  1140 38 2700 150/12G21 RMK AO2
94908KDBQ DBQ20050410144509704/10/05 14:45:31  5-MIN KDBQ 102045Z 18014KT 10SM SCT065 26/11 A2985 1140 37 2700 180/14 RMK AO2
94908KDBQ DBQ20050410145012004/10/05 14:50:31  5-MIN KDBQ 102050Z 17012KT 10SM SCT065 26/11 A2985 1140 37 2700 170/12 RMK AO2 SLP104 T02610106 50000
94908KDBQ DBQ20050410145512704/10/05 14:55:31  5-MIN KDBQ 102055Z 18014G18KT 10SM SCT065 26/11 A2985  1140 37 2700 180/14G18 RMK AO2 SLP105 T02610106 58017
94908KDBQ DBQ20050410150009704/10/05 15:00:31  5-MIN KDBQ 102100Z 17015KT 10SM SCT065 26/09 A2985 1140 35 2700 170/15 RMK AO2
94908KDBQ DBQ20050410150509704/10/05 15:05:31  5-MIN KDBQ 102105Z 17014KT 10SM FEW065 26/10 A2985 1140 37 2700 170/14 RMK AO2
94908KDBQ DBQ20050410151009704/10/05 15:10:31  5-MIN KDBQ 102110Z 16011KT 10SM FEW065 26/10 A2985 1140 37 2700 160/11 RMK AO2
94908KDBQ DBQ20050410151510404/10/05 15:15:31  5-MIN KDBQ 102115Z 18014G18KT 10SM FEW065 26/11 A2985  1140 38 2700 180/14G18 RMK AO2
94908KDBQ DBQ20050410152009704/10/05 15:20:31  5-MIN KDBQ 102120Z 17013KT 10SM FEW065 26/10 A2985 1140 37 2700 170/13 RMK AO2
94908KDBQ DBQ20050410152509704/10/05 15:25:31  5-MIN KDBQ 102125Z 17010KT 10SM FEW070 26/11 A2985 1140 37 2700 160/10 RMK AO2
94908KDBQ DBQ20050410153010404/10/05 15:30:31  5-MIN KDBQ 102130Z 13013G18KT 10SM SCT065 26/10 A2985  1140 37 2700 130/13G18 RMK AO2
94908KDBQ DBQ20050410153510404/10/05 15:35:31  5-MIN KDBQ 102135Z 15012G18KT 10SM BKN065 26/11 A2985  1140 38 2700 150/12G18 RMK AO2
94908KDBQ DBQ20050410154010404/10/05 15:40:31  5-MIN KDBQ 102140Z 17015G18KT 10SM SCT065 26/11 A2985  1150 38 2700 170/15G18 RMK AO2
94908KDBQ DBQ20050410154509704/10/05 15:45:31  5-MIN KDBQ 102145Z 18012KT 10SM SCT065 25/09 A2984 1150 37 2600 170/12 RMK AO2
94908KDBQ DBQ20050410155011404/10/05 15:50:31  5-MIN KDBQ 102150Z 16015KT 10SM SCT065 26/10 A2984 1150 37 2700 160/15 RMK AO2 SLP102 T02560100
94908KDBQ DBQ20050410155511404/10/05 15:55:31  5-MIN KDBQ 102155Z 15013KT 10SM SCT065 26/10 A2984 1150 37 2700 140/13 RMK AO2 SLP101 T02560100
94908KDBQ DBQ20050410160009704/10/05 16:00:31  5-MIN KDBQ 102200Z 17012KT 10SM SCT070 26/11 A2984 1150 37 2700 170/12 RMK AO2
94908KDBQ DBQ20050410160510404/10/05 16:05:31  5-MIN KDBQ 102205Z 17016G20KT 10SM FEW070 26/10 A2984  1160 36 2700 170/16G20 RMK AO2
94908KDBQ DBQ20050410161010404/10/05 16:10:31  5-MIN KDBQ 102210Z 16014G20KT 10SM FEW070 26/10 A2984  1160 37 2700 160/14G20 RMK AO2
94908KDBQ DBQ20050410161510404/10/05 16:15:31  5-MIN KDBQ 102215Z 15010G18KT 10SM FEW070 26/10 A2984  1160 37 2700 150/10G18 RMK AO2
94908KDBQ DBQ20050410162009704/10/05 16:20:31  5-MIN KDBQ 102220Z 14013KT 10SM FEW070 26/10 A2984 1160 37 2700 140/13 RMK AO2
94908KDBQ DBQ20050410162509404/10/05 16:25:31  5-MIN KDBQ 102225Z 16014KT 10SM CLR 26/10 A2983 1160 37 2700 160/14 RMK AO2
94908KDBQ DBQ20050410163009404/10/05 16:30:31  5-MIN KDBQ 102230Z 18014KT 10SM CLR 26/10 A2984 1160 37 2700 180/14 RMK AO2
94908KDBQ DBQ20050410163509404/10/05 16:35:31  5-MIN KDBQ 102235Z 17010KT 10SM CLR 26/10 A2984 1150 37 2700 170/10 RMK AO2
94908KDBQ DBQ20050410164009404/10/05 16:40:31  5-MIN KDBQ 102240Z 15012KT 10SM CLR 26/10 A2984 1160 37 2700 150/12 RMK AO2
94908KDBQ DBQ20050410164509704/10/05 16:45:31  5-MIN KDBQ 102245Z 15014KT 10SM FEW070 26/10 A2983 1160 37 2700 150/14 RMK AO2
94908KDBQ DBQ20050410165011704/10/05 16:50:31  5-MIN KDBQ 102250Z 16013G20KT 10SM CLR 26/10 A2983 1160 37 2700 160/13G20 RMK AO2 SLP098 T02560100
94908KDBQ DBQ20050410165511704/10/05 16:55:31  5-MIN KDBQ 102255Z 17014G20KT 10SM CLR 25/10 A2983 1160 38 2600 170/14G20 RMK AO2 SLP099 T02500100
94908KDBQ DBQ20050410170009404/10/05 17:00:31  5-MIN KDBQ 102300Z 17014KT 10SM CLR 25/10 A2983 1160 38 2600 170/14 RMK AO2
94908KDBQ DBQ20050410170509404/10/05 17:05:31  5-MIN KDBQ 102305Z 16010KT 10SM CLR 25/11 A2983 1160 39 2600 160/10 RMK AO2
94908KDBQ DBQ20050410171009404/10/05 17:10:31  5-MIN KDBQ 102310Z 16009KT 10SM CLR 25/10 A2983 1160 38 2600 160/09 RMK AO2
94908KDBQ DBQ20050410171509404/10/05 17:15:31  5-MIN KDBQ 102315Z 17010KT 10SM CLR 25/11 A2983 1160 39 2600 170/10 RMK AO2
94908KDBQ DBQ20050410172009404/10/05 17:20:31  5-MIN KDBQ 102320Z 16012KT 10SM CLR 25/11 A2984 1160 39 2600 160/12 RMK AO2
94908KDBQ DBQ20050410172509404/10/05 17:25:31  5-MIN KDBQ 102325Z 17012KT 10SM CLR 24/11 A2984 1160 41 2600 170/12 RMK AO2
94908KDBQ DBQ20050410173009404/10/05 17:30:31  5-MIN KDBQ 102330Z 16010KT 10SM CLR 24/11 A2984 1150 41 2500 160/10 RMK AO2
94908KDBQ DBQ20050410173509404/10/05 17:35:31  5-MIN KDBQ 102335Z 16009KT 10SM CLR 24/11 A2984 1160 41 2500 160/09 RMK AO2
94908KDBQ DBQ20050410174009404/10/05 17:40:31  5-MIN KDBQ 102340Z 15008KT 10SM CLR 24/11 A2984 1160 42 2500 150/08 RMK AO2
94908KDBQ DBQ20050410174509404/10/05 17:45:31  5-MIN KDBQ 102345Z 14008KT 10SM CLR 24/11 A2984 1160 42 2500 140/08 RMK AO2
94908KDBQ DBQ20050410175012904/10/05 17:50:31  5-MIN KDBQ 102350Z 14008KT 10SM CLR 24/11 A2984 1160 42 2500 140/08 RMK AO2 SLP100 T02390106 10261 20228 58017
94908KDBQ DBQ20050410175514004/10/05 17:55:31  5-MIN KDBQ 102355Z AUTO 14008KT 10SM CLR 24/11 A2983  1160 42 2500 140/08 RMK AO2 SLP100 T02390106 10261 20228 55006 TSNO
94908KDBQ DBQ20050410180010504/10/05 18:00:31  5-MIN KDBQ 110000Z AUTO 13007KT 10SM CLR 23/11 A2983  1160 44 2400 130/07 RMK AO2 TSNO
94908KDBQ DBQ20050410180510504/10/05 18:05:31  5-MIN KDBQ 110005Z AUTO 13007KT 10SM CLR 23/11 A2983  1160 44 2400 120/07 RMK AO2 TSNO
94908KDBQ DBQ20050410181010504/10/05 18:10:31  5-MIN KDBQ 110010Z AUTO 12007KT 10SM CLR 23/11 A2983  1160 45 2400 120/07 RMK AO2 TSNO
94908KDBQ DBQ20050410181510504/10/05 18:15:31  5-MIN KDBQ 110015Z AUTO 12008KT 10SM CLR 22/11 A2983  1160 50 2200 120/08 RMK AO2 TSNO
94908KDBQ DBQ20050410182010504/10/05 18:20:31  5-MIN KDBQ 110020Z AUTO 12008KT 10SM CLR 22/11 A2983  1160 49 2200 120/08 RMK AO2 TSNO
94908KDBQ DBQ20050410182510504/10/05 18:25:31  5-MIN KDBQ 110025Z AUTO 12008KT 10SM CLR 22/11 A2983  1160 49 2200 110/08 RMK AO2 TSNO
94908KDBQ DBQ20050410183010504/10/05 18:30:31  5-MIN KDBQ 110030Z AUTO 11008KT 10SM CLR 21/11 A2984  1160 50 2200 110/08 RMK AO2 TSNO
94908KDBQ DBQ20050410183510504/10/05 18:35:31  5-MIN KDBQ 110035Z AUTO 11008KT 10SM CLR 21/11 A2984  1160 50 2200 110/08 RMK AO2 TSNO
94908KDBQ DBQ20050410184010504/10/05 18:40:31  5-MIN KDBQ 110040Z AUTO 11009KT 10SM CLR 21/11 A2984  1150 50 2200 110/09 RMK AO2 TSNO
94908KDBQ DBQ20050410184510704/10/05 18:45:31  5-MIN KDBQ 110045Z AUTO 11008KT 10SM FEW070 21/11 A2984 1150 52 2100 110/08 RMK AO2 TSNO
94908KDBQ DBQ20050410185012404/10/05 18:50:31  5-MIN KDBQ 110050Z AUTO 11008KT 10SM FEW070 19/11 A2984 1150 56 2000 110/08 RMK AO2 SLP103 T01940106 TSNO
94908KDBQ DBQ20050410185512404/10/05 18:55:31  5-MIN KDBQ 110055Z AUTO 12008KT 10SM FEW070 20/11 A2984 1150 54 2000 120/08 RMK AO2 SLP103 T02000106 TSNO
94908KDBQ DBQ20050410190010504/10/05 19:00:31  5-MIN KDBQ 110100Z AUTO 13006KT 10SM CLR 19/11 A2984  1150 56 2000 120/06 RMK AO2 TSNO
94908KDBQ DBQ20050410190510504/10/05 19:05:31  5-MIN KDBQ 110105Z AUTO 13006KT 10SM CLR 20/11 A2984  1150 54 2000 120/06 RMK AO2 TSNO
94908KDBQ DBQ20050410191010504/10/05 19:10:31  5-MIN KDBQ 110110Z AUTO 13006KT 10SM CLR 19/11 A2984  1150 56 2000 120/06 RMK AO2 TSNO
94908KDBQ DBQ20050410191510504/10/05 19:15:31  5-MIN KDBQ 110115Z AUTO 12007KT 10SM CLR 19/11 A2985  1150 56 2000 120/07 RMK AO2 TSNO
94908KDBQ DBQ20050410192010504/10/05 19:20:31  5-MIN KDBQ 110120Z AUTO 12005KT 10SM CLR 19/11 A2985  1140 56 2000 120/05 RMK AO2 TSNO
94908KDBQ DBQ20050410192510504/10/05 19:25:31  5-MIN KDBQ 110125Z AUTO 12005KT 10SM CLR 19/11 A2985  1140 56 2000 120/05 RMK AO2 TSNO
94908KDBQ DBQ20050410193010504/10/05 19:30:31  5-MIN KDBQ 110130Z AUTO 12006KT 10SM CLR 19/11 A2985  1140 56 2000 120/06 RMK AO2 TSNO
94908KDBQ DBQ20050410193510504/10/05 19:35:31  5-MIN KDBQ 110135Z AUTO 12006KT 10SM CLR 19/11 A2985  1140 56 2000 120/06 RMK AO2 TSNO
94908KDBQ DBQ20050410194010504/10/05 19:40:31  5-MIN KDBQ 110140Z AUTO 12006KT 10SM CLR 19/11 A2986  1140 58 1900 120/06 RMK AO2 TSNO
94908KDBQ DBQ20050410194510504/10/05 19:45:31  5-MIN KDBQ 110145Z AUTO 11007KT 10SM CLR 19/11 A2986  1140 58 1900 110/07 RMK AO2 TSNO
94908KDBQ DBQ20050410195012204/10/05 19:50:31  5-MIN KDBQ 110150Z AUTO 11007KT 10SM CLR 18/11 A2986  1140 60 1800 100/07 RMK AO2 SLP109 T01830106 TSNO
94908KDBQ DBQ20050410195512404/10/05 19:55:31  5-MIN KDBQ 110155Z AUTO 11008KT 9SM FEW075 18/11 A2986  1140 60 1800 110/08 RMK AO2 SLP108 T01830106 TSNO
94908KDBQ DBQ20050410200010704/10/05 20:00:31  5-MIN KDBQ 110200Z AUTO 10008KT 9SM FEW075 18/11 A2986  1130 60 1800 100/08 RMK AO2 TSNO
94908KDBQ DBQ20050410200510704/10/05 20:05:31  5-MIN KDBQ 110205Z AUTO 11008KT 9SM FEW080 19/11 A2986  1130 58 1900 100/08 RMK AO2 TSNO
94908KDBQ DBQ20050410201010704/10/05 20:10:31  5-MIN KDBQ 110210Z AUTO 11007KT 9SM FEW075 19/11 A2986  1130 58 1900 110/07 RMK AO2 TSNO
94908KDBQ DBQ20050410201510704/10/05 20:15:31  5-MIN KDBQ 110215Z AUTO 11008KT 9SM FEW075 18/11 A2986  1130 60 1800 110/08 RMK AO2 TSNO
94908KDBQ DBQ20050410202510404/10/05 20:25:31  5-MIN KDBQ 110225Z AUTO 11008KT 9SM CLR 18/11 A2986 1130  60 1800 110/08 RMK AO2 TSNO
94908KDBQ DBQ20050410203010304/10/05 20:30:31  5-MIN KDBQ 110230Z AUTO 11008KT 9SM CLR 19/11 A2986 1130 56 1900 110/08 RMK AO2 TSNO
94908KDBQ DBQ20050410213510504/10/05 21:35:31  5-MIN KDBQ 110235Z AUTO 11009KT 10SM CLR 19/11 A2987  1130 56 1900 110/09 RMK AO2 TSNO
94908KDBQ DBQ20050410225512204/10/05 22:55:31  5-MIN KDBQ 110455Z AUTO 11013KT 10SM CLR 18/09 A2989  1110 55 1700 100/13 RMK AO2 SLP116 T01780089 TSNO
94908KDBQ DBQ20050410230010504/10/05 23:00:31  5-MIN KDBQ 110500Z AUTO 10013KT 10SM CLR 18/09 A2988  1110 55 1700 100/13 RMK AO2 TSNO
94908KDBQ DBQ20050410230510504/10/05 23:05:31  5-MIN KDBQ 110505Z AUTO 11014KT 10SM CLR 18/09 A2988  1110 55 1700 110/14 RMK AO2 TSNO
94908KDBQ DBQ20050410231010504/10/05 23:10:31  5-MIN KDBQ 110510Z AUTO 11012KT 10SM CLR 18/09 A2988  1110 55 1700 110/12 RMK AO2 TSNO
94908KDBQ DBQ20050410231510504/10/05 23:15:31  5-MIN KDBQ 110515Z AUTO 11011KT 10SM CLR 18/09 A2989  1110 55 1700 110/11 RMK AO2 TSNO
94908KDBQ DBQ20050410232010504/10/05 23:20:31  5-MIN KDBQ 110520Z AUTO 11013KT 10SM CLR 17/09 A2989  1110 57 1700 110/13 RMK AO2 TSNO
94908KDBQ DBQ20050410232510504/10/05 23:25:31  5-MIN KDBQ 110525Z AUTO 11011KT 10SM CLR 17/09 A2989  1110 57 1700 110/11 RMK AO2 TSNO
94908KDBQ DBQ20050410233010504/10/05 23:30:31  5-MIN KDBQ 110530Z AUTO 11011KT 10SM CLR 17/09 A2989  1110 57 1700 100/11 RMK AO2 TSNO
94908KDBQ DBQ20050410233510504/10/05 23:35:31  5-MIN KDBQ 110535Z AUTO 11011KT 10SM CLR 17/09 A2989  1110 57 1700 100/11 RMK AO2 TSNO
94908KDBQ DBQ20050410234010504/10/05 23:40:31  5-MIN KDBQ 110540Z AUTO 11011KT 10SM CLR 17/09 A2989  1110 57 1700 110/11 RMK AO2 TSNO
94908KDBQ DBQ20050410234510704/10/05 23:45:31  5-MIN KDBQ 110545Z AUTO 11011KT 10SM FEW075 17/08 A2989 1110 55 1700 110/11 RMK AO2 TSNO
94908KDBQ DBQ20050410235015304/10/05 23:50:31  5-MIN KDBQ 110550Z AUTO 12011KT 10SM FEW075 17/09 A2988 1110 57 1700 120/11 RMK AO2 SLP115 T01720089 10239 20172 402610117 53013  TSNO
94908KDBQ DBQ20050410235515304/10/05 23:55:31  5-MIN KDBQ 110555Z AUTO 12010KT 10SM FEW075 17/09 A2988 1110 57 1700 120/10 RMK AO2 SLP115 T01720089 10239 20172 402610117 50003  TSNO
94908KDBQ DBQ20050411000010704/11/05 00:00:38  5-MIN KDBQ 110600Z AUTO 12010KT 10SM FEW075 17/09 A2988 1110 57 1700 120/10 RMK AO2 TSNO
94908KDBQ DBQ20050411000510704/11/05 00:05:31  5-MIN KDBQ 110605Z AUTO 12011KT 10SM FEW075 17/09 A2988 1120 57 1700 120/11 RMK AO2 TSNO
94908KDBQ DBQ20050411001010704/11/05 00:10:31  5-MIN KDBQ 110610Z AUTO 12010KT 10SM FEW075 17/09 A2988 1120 60 1600 120/10 RMK AO2 TSNO
94908KDBQ DBQ20050411001510504/11/05 00:15:32  5-MIN KDBQ 110615Z AUTO 12012KT 10SM CLR 17/09 A2988  1120 57 1700 120/12 RMK AO2 TSNO
94908KDBQ DBQ20050411002010504/11/05 00:20:31  5-MIN KDBQ 110620Z AUTO 11012KT 10SM CLR 17/09 A2988  1120 57 1700 110/12 RMK AO2 TSNO
94908KDBQ DBQ20050411002510504/11/05 00:25:31  5-MIN KDBQ 110625Z AUTO 12012KT 10SM CLR 17/09 A2988  1120 57 1700 120/12 RMK AO2 TSNO
94908KDBQ DBQ20050411003010504/11/05 00:30:31  5-MIN KDBQ 110630Z AUTO 13011KT 10SM CLR 17/09 A2988  1120 57 1700 120/11 RMK AO2 TSNO
94908KDBQ DBQ20050411003510504/11/05 00:35:31  5-MIN KDBQ 110635Z AUTO 12011KT 10SM CLR 17/09 A2988  1120 60 1600 120/11 RMK AO2 TSNO
94908KDBQ DBQ20050411004010504/11/05 00:40:31  5-MIN KDBQ 110640Z AUTO 12009KT 10SM CLR 17/09 A2988  1120 60 1600 120/09 RMK AO2 TSNO
94908KDBQ DBQ20050411004510504/11/05 00:45:31  5-MIN KDBQ 110645Z AUTO 12010KT 10SM CLR 17/09 A2988  1120 60 1600 120/10 RMK AO2 TSNO
94908KDBQ DBQ20050411005012204/11/05 00:50:31  5-MIN KDBQ 110650Z AUTO 12009KT 10SM CLR 17/09 A2988  1120 60 1600 120/09 RMK AO2 SLP112 T01670089 TSNO
94908KDBQ DBQ20050411005512204/11/05 00:55:31  5-MIN KDBQ 110655Z AUTO 12010KT 10SM CLR 16/09 A2988  1120 62 1600 120/10 RMK AO2 SLP112 T01610089 TSNO
94908KDBQ DBQ20050411010010504/11/05 01:00:31  5-MIN KDBQ 110700Z AUTO 12011KT 10SM CLR 17/09 A2987  1120 60 1600 120/11 RMK AO2 TSNO
94908KDBQ DBQ20050411010510504/11/05 01:05:31  5-MIN KDBQ 110705Z AUTO 12010KT 10SM CLR 17/09 A2987  1120 62 1600 120/10 RMK AO2 TSNO
94908KDBQ DBQ20050411011010504/11/05 01:10:31  5-MIN KDBQ 110710Z AUTO 13012KT 10SM CLR 17/09 A2987  1120 60 1700 130/12 RMK AO2 TSNO
94908KDBQ DBQ20050411011510704/11/05 01:15:31  5-MIN KDBQ 110715Z AUTO 13012KT 10SM FEW065 17/09 A2987 1120 62 1600 130/12 RMK AO2 TSNO
94908KDBQ DBQ20050411012010704/11/05 01:20:31  5-MIN KDBQ 110720Z AUTO 13012KT 10SM FEW065 17/09 A2987 1130 62 1600 130/12 RMK AO2 TSNO
94908KDBQ DBQ20050411012510704/11/05 01:25:31  5-MIN KDBQ 110725Z AUTO 13012KT 10SM FEW065 17/09 A2987 1130 62 1600 130/12 RMK AO2 TSNO
94908KDBQ DBQ20050411013010704/11/05 01:30:31  5-MIN KDBQ 110730Z AUTO 13010KT 10SM FEW065 17/09 A2987 1130 60 1700 130/10 RMK AO2 TSNO
94908KDBQ DBQ20050411013510704/11/05 01:35:31  5-MIN KDBQ 110735Z AUTO 13012KT 10SM FEW065 17/09 A2987 1130 62 1600 130/12 RMK AO2 TSNO
94908KDBQ DBQ20050411014010704/11/05 01:40:31  5-MIN KDBQ 110740Z AUTO 13012KT 10SM FEW065 17/10 A2987 1130 64 1600 130/12 RMK AO2 TSNO
94908KDBQ DBQ20050411014510504/11/05 01:45:31  5-MIN KDBQ 110745Z AUTO 13011KT 10SM CLR 17/10 A2987  1130 64 1600 130/11 RMK AO2 TSNO
94908KDBQ DBQ20050411015012204/11/05 01:50:31  5-MIN KDBQ 110750Z AUTO 13011KT 10SM CLR 17/10 A2987  1130 64 1600 130/11 RMK AO2 SLP109 T01670100 TSNO
94908KDBQ DBQ20050411015512204/11/05 01:55:31  5-MIN KDBQ 110755Z AUTO 13011KT 10SM CLR 17/10 A2986  1130 64 1600 130/11 RMK AO2 SLP107 T01670100 TSNO
94908KDBQ DBQ20050411020010504/11/05 02:00:31  5-MIN KDBQ 110800Z AUTO 14011KT 10SM CLR 17/10 A2986  1130 64 1600 140/11 RMK AO2 TSNO
94908KDBQ DBQ20050411020510304/11/05 02:05:31  5-MIN KDBQ 110805Z AUTO 14011KT 9SM CLR 17/10 A2986 1130 64 1600 140/11 RMK AO2 TSNO
94908KDBQ DBQ20050411021010304/11/05 02:10:31  5-MIN KDBQ 110810Z AUTO 14013KT 9SM CLR 17/10 A2986 1130 64 1600 140/13 RMK AO2 TSNO
94908KDBQ DBQ20050411021510304/11/05 02:15:31  5-MIN KDBQ 110815Z AUTO 14012KT 9SM CLR 17/11 A2986 1140 67 1600 140/12 RMK AO2 TSNO
94908KDBQ DBQ20050411022010304/11/05 02:20:31  5-MIN KDBQ 110820Z AUTO 14012KT 9SM CLR 17/11 A2986 1130 67 1600 140/12 RMK AO2 TSNO
94908KDBQ DBQ20050411022510304/11/05 02:25:31  5-MIN KDBQ 110825Z AUTO 14012KT 9SM CLR 17/11 A2986 1130 67 1600 140/12 RMK AO2 TSNO
94908KDBQ DBQ20050411023010304/11/05 02:30:31  5-MIN KDBQ 110830Z AUTO 14012KT 9SM CLR 17/11 A2986 1140 67 1600 140/12 RMK AO2 TSNO
94908KDBQ DBQ20050411023510304/11/05 02:35:31  5-MIN KDBQ 110835Z AUTO 14012KT 9SM CLR 17/11 A2986 1130 67 1600 140/12 RMK AO2 TSNO
94908KDBQ DBQ20050411024010304/11/05 02:40:31  5-MIN KDBQ 110840Z AUTO 14012KT 9SM CLR 17/11 A2986 1130 67 1600 140/12 RMK AO2 TSNO
94908KDBQ DBQ20050411024510304/11/05 02:45:31  5-MIN KDBQ 110845Z AUTO 13012KT 9SM CLR 17/11 A2986 1130 67 1600 130/12 RMK AO2 TSNO
94908KDBQ DBQ20050411025012604/11/05 02:50:31  5-MIN KDBQ 110850Z AUTO 13012KT 9SM CLR 17/11 A2987 1130 67 1600 130/12 RMK AO2 SLP107 T01670106 50003 TSNO
94908KDBQ DBQ20050411025512604/11/05 02:55:31  5-MIN KDBQ 110855Z AUTO 13012KT 9SM CLR 16/11 A2987 1130 69 1600 130/12 RMK AO2 SLP109 T01610106 55005 TSNO
94908KDBQ DBQ20050411030010304/11/05 03:00:31  5-MIN KDBQ 110900Z AUTO 13010KT 9SM CLR 16/11 A2987 1130 69 1600 130/10 RMK AO2 TSNO
94908KDBQ DBQ20050411030510304/11/05 03:05:31  5-MIN KDBQ 110905Z AUTO 13011KT 9SM CLR 16/11 A2987 1130 69 1600 130/11 RMK AO2 TSNO
94908KDBQ DBQ20050411031010304/11/05 03:10:31  5-MIN KDBQ 110910Z AUTO 13013KT 9SM CLR 16/11 A2987 1130 69 1600 130/13 RMK AO2 TSNO
94908KDBQ DBQ20050411031510304/11/05 03:15:31  5-MIN KDBQ 110915Z AUTO 13012KT 9SM CLR 16/11 A2986 1130 72 1600 130/12 RMK AO2 TSNO
94908KDBQ DBQ20050411032010304/11/05 03:20:31  5-MIN KDBQ 110920Z AUTO 13012KT 9SM CLR 16/11 A2986 1130 72 1600 130/12 RMK AO2 TSNO
94908KDBQ DBQ20050411032510304/11/05 03:25:31  5-MIN KDBQ 110925Z AUTO 13012KT 9SM CLR 16/11 A2986 1130 72 1600 130/12 RMK AO2 TSNO
94908KDBQ DBQ20050411033010304/11/05 03:30:31  5-MIN KDBQ 110930Z AUTO 13013KT 8SM CLR 16/11 A2986 1130 72 1600 130/13 RMK AO2 TSNO
94908KDBQ DBQ20050411033510304/11/05 03:35:31  5-MIN KDBQ 110935Z AUTO 13012KT 8SM CLR 16/11 A2986 1130 72 1600 130/12 RMK AO2 TSNO
94908KDBQ DBQ20050411034010304/11/05 03:40:31  5-MIN KDBQ 110940Z AUTO 13012KT 8SM CLR 16/11 A2986 1130 72 1600 130/12 RMK AO2 TSNO
94908KDBQ DBQ20050411034510304/11/05 03:45:31  5-MIN KDBQ 110945Z AUTO 13012KT 8SM CLR 16/11 A2986 1130 72 1600 130/12 RMK AO2 TSNO
94908KDBQ DBQ20050411035012004/11/05 03:50:31  5-MIN KDBQ 110950Z AUTO 13012KT 8SM CLR 16/11 A2986 1130 72 1600 130/12 RMK AO2 SLP108 T01610111 TSNO
94908KDBQ DBQ20050411035512404/11/05 03:55:31  5-MIN KDBQ 110955Z AUTO 13013KT 8SM FEW060 16/11 A2986  1130 72 1600 130/13 RMK AO2 SLP108 T01610111 TSNO
94908KDBQ DBQ20050411040011304/11/05 04:00:31  5-MIN KDBQ 111000Z AUTO 13013KT 8SM FEW050 SCT065 16/11 A2986 1130 72 1600 130/13 RMK AO2 TSNO
94908KDBQ DBQ20050411040510704/11/05 04:05:31  5-MIN KDBQ 111005Z AUTO 13012KT 8SM FEW050 16/11 A2986  1130 72 1600 130/12 RMK AO2 TSNO
94908KDBQ DBQ20050411041010704/11/05 04:10:31  5-MIN KDBQ 111010Z AUTO 13013KT 8SM FEW050 16/11 A2986  1130 72 1600 130/13 RMK AO2 TSNO
94908KDBQ DBQ20050411041510704/11/05 04:15:31  5-MIN KDBQ 111015Z AUTO 13014KT 8SM SCT060 16/11 A2986  1130 72 1600 130/14 RMK AO2 TSNO
94908KDBQ DBQ20050411042010704/11/05 04:20:31  5-MIN KDBQ 111020Z AUTO 13012KT 8SM BKN060 16/11 A2986  1130 72 1600 130/12 RMK AO2 TSNO
94908KDBQ DBQ20050411042510704/11/05 04:25:31  5-MIN KDBQ 111025Z AUTO 13012KT 8SM SCT060 16/11 A2986  1130 72 1600 120/12 RMK AO2 TSNO
94908KDBQ DBQ20050411043010704/11/05 04:30:31  5-MIN KDBQ 111030Z AUTO 13011KT 8SM FEW060 16/11 A2986  1140 72 1600 130/11 RMK AO2 TSNO
94908KDBQ DBQ20050411043510704/11/05 04:35:31  5-MIN KDBQ 111035Z AUTO 11014KT 8SM FEW060 16/11 A2986  1140 72 1600 110/14 RMK AO2 TSNO
94908KDBQ DBQ20050411044010704/11/05 04:40:31  5-MIN KDBQ 111040Z AUTO 12011KT 8SM FEW060 16/11 A2986  1140 74 1500 120/11 RMK AO2 TSNO
94908KDBQ DBQ20050411044510304/11/05 04:45:31  5-MIN KDBQ 111045Z AUTO 11013KT 8SM CLR 16/11 A2986 1130 74 1500 110/13 RMK AO2 TSNO
94908KDBQ DBQ20050411045012004/11/05 04:50:31  5-MIN KDBQ 111050Z AUTO 12011KT 8SM CLR 16/11 A2986 1140 74 1500 120/11 RMK AO2 SLP106 T01560111 TSNO
94908KDBQ DBQ20050411045511104/11/05 04:55:31  5-MIN KDBQ 111055Z 11012KT 8SM CLR 16/11 A2986 1130 74  1500 110/12 RMK AO2 SLP107 T01560111
94908KDBQ DBQ20050411050009404/11/05 05:00:31  5-MIN KDBQ 111100Z 12012KT 8SM CLR 16/11 A2986 1130 74  1500 120/12 RMK AO2
94908KDBQ DBQ20050411050509404/11/05 05:05:31  5-MIN KDBQ 111105Z 12013KT 8SM CLR 16/11 A2986 1130 74  1500 120/13 RMK AO2
94908KDBQ DBQ20050411051009404/11/05 05:10:31  5-MIN KDBQ 111110Z 12013KT 8SM CLR 16/11 A2987 1130 74  1500 120/13 RMK AO2
94908KDBQ DBQ20050411051509704/11/05 05:15:31  5-MIN KDBQ 111115Z 12015KT 7SM FEW050 16/11 A2987 1130  72 1500 120/15 RMK AO2
94908KDBQ DBQ20050411052009704/11/05 05:20:31  5-MIN KDBQ 111120Z 12014KT 7SM FEW050 16/11 A2987 1120  72 1500 120/14 RMK AO2
94908KDBQ DBQ20050411052511004/11/05 05:25:31  5-MIN KDBQ 111125Z 12015G21KT 7SM FEW050 SCT060 16/11  A2987 1120 72 1500 120/15G21 RMK AO2
94908KDBQ DBQ20050411053010304/11/05 05:30:31  5-MIN KDBQ 111130Z 13014G21KT 7SM SCT055 16/11 A2988  1120 72 1500 130/14G21 RMK AO2
94908KDBQ DBQ20050411053509704/11/05 05:35:31  5-MIN KDBQ 111135Z 13014KT 7SM SCT050 16/11 A2988 1120  72 1500 130/14 RMK AO2
94908KDBQ DBQ20050411054010704/11/05 05:40:31  5-MIN KDBQ 111140Z 13013KT 6SM HZ SCT050 BKN065 16/11  A2988 1110 72 1500 130/13 RMK AO2
94908KDBQ DBQ20050411054510704/11/05 05:45:31  5-MIN KDBQ 111145Z 12015KT 6SM HZ SCT055 BKN070 16/11  A2988 1110 72 1500 120/15 RMK AO2
94908KDBQ DBQ20050411055014204/11/05 05:50:31  5-MIN KDBQ 111150Z 12014KT 6SM HZ SCT055 BKN070 16/11  A2988 1110 72 1500 120/14 RMK AO2 SLP115 T01560106 10172 20156 55005
94908KDBQ DBQ20050411055514204/11/05 05:55:31  5-MIN KDBQ 111155Z 12014KT 6SM HZ SCT055 BKN070 16/10  A2989 1110 69 1500 120/14 RMK AO2 SLP116 T01560100 10172 20156 53006
94908KDBQ DBQ20050411060010704/11/05 06:00:31  5-MIN KDBQ 111200Z 12014KT 6SM HZ SCT055 BKN070 16/10  A2989 1110 69 1500 120/14 RMK AO2
94908KDBQ DBQ20050411060510704/11/05 06:05:31  5-MIN KDBQ 111205Z 12014KT 6SM HZ FEW050 BKN070 16/10  A2989 1110 69 1500 120/14 RMK AO2
94908KDBQ DBQ20050411061010704/11/05 06:10:31  5-MIN KDBQ 111210Z 11015KT 6SM HZ FEW050 BKN075 16/10  A2989 1110 69 1500 110/15 RMK AO2
94908KDBQ DBQ20050411061511204/11/05 06:15:31  5-MIN KDBQ 111215Z 11015G20KT 6SM HZ FEW050 SCT075 16/10 A2989 1110 69 1500 110/15G20 RMK AO2
94908KDBQ DBQ20050411062011004/11/05 06:20:31  5-MIN KDBQ 111220Z 12014G20KT 7SM FEW050 SCT075 16/10  A2989 1100 69 1500 120/14G20 RMK AO2
94908KDBQ DBQ20050411062510304/11/05 06:25:31  5-MIN KDBQ 111225Z 12015KT 7SM FEW050 SCT075 16/10 A2989 1100 69 1500 120/15 RMK AO2
94908KDBQ DBQ20050411063011104/11/05 06:30:31  5-MIN KDBQ 111230Z 12013KT 7SM FEW050 SCT060 BKN080  16/10 A2989 1100 69 1500 120/13 RMK AO2
94908KDBQ DBQ20050411063511104/11/05 06:35:31  5-MIN KDBQ 111235Z 12014KT 7SM FEW048 SCT055 BKN080  16/10 A2989 1100 69 1500 120/14 RMK AO2
94908KDBQ DBQ20050411064011104/11/05 06:40:31  5-MIN KDBQ 111240Z 12013KT 7SM SCT050 BKN060 BKN080  16/10 A2990 1100 69 1500 120/13 RMK AO2
94908KDBQ DBQ20050411064511104/11/05 06:45:31  5-MIN KDBQ 111245Z 11013KT 7SM SCT050 BKN060 BKN080  16/10 A2990 1100 69 1500 110/13 RMK AO2
94908KDBQ DBQ20050411065012804/11/05 06:50:31  5-MIN KDBQ 111250Z 12014KT 7SM BKN050 BKN060 BKN080  16/10 A2989 1100 67 1500 120/14 RMK AO2 SLP120 T01610100
94908KDBQ DBQ20050411065512004/11/05 06:55:31  5-MIN KDBQ 111255Z 12014KT 7SM BKN050 BKN060 16/10 A2989 1110 67 1500 120/14 RMK AO2 SLP119 T01610100
94908KDBQ DBQ20050411070011104/11/05 07:00:31  5-MIN KDBQ 111300Z 13014KT 7SM BKN050 BKN065 BKN085  16/10 A2989 1110 67 1500 130/14 RMK AO2
94908KDBQ DBQ20050411070511104/11/05 07:05:31  5-MIN KDBQ 111305Z 12014KT 8SM SCT050 BKN060 BKN085  16/10 A2989 1110 67 1500 120/14 RMK AO2
94908KDBQ DBQ20050411071011104/11/05 07:10:31  5-MIN KDBQ 111310Z 13012KT 8SM SCT050 SCT065 BKN090  16/10 A2988 1110 67 1500 130/12 RMK AO2
94908KDBQ DBQ20050411071510304/11/05 07:15:31  5-MIN KDBQ 111315Z 12015KT 8SM SCT050 BKN090 16/10 A2988 1110 67 1500 120/15 RMK AO2
94908KDBQ DBQ20050411072011004/11/05 07:20:31  5-MIN KDBQ 111320Z 13016G22KT 8SM SCT050 BKN090 16/09  A2989 1110 64 1500 130/16G22 RMK AO2
94908KDBQ DBQ20050411072511704/11/05 07:25:31  5-MIN KDBQ 111325Z 12015G22KT 8SM SCT050 BKN065 BKN090  16/10 A2988 1110 67 1500 120/15G22 RMK AO2
94908KDBQ DBQ20050411073011104/11/05 07:30:31  5-MIN KDBQ 111330Z 12014KT 8SM BKN050 BKN065 BKN090  16/10 A2988 1110 67 1500 120/14 RMK AO2
94908KDBQ DBQ20050411073511104/11/05 07:35:31  5-MIN KDBQ 111335Z 12014KT 8SM FEW046 BKN055 OVC090  16/09 A2989 1110 64 1500 120/14 RMK AO2
94908KDBQ DBQ20050411074010304/11/05 07:40:31  5-MIN KDBQ 111340Z 12013KT 8SM BKN050 OVC070 16/09 A2989 1110 64 1500 120/13 RMK AO2
94908KDBQ DBQ20050411074511004/11/05 07:45:31  5-MIN KDBQ 111345Z 12012G19KT 8SM BKN050 OVC070 17/09  A2988 1110 62 1600 120/12G19 RMK AO2
94908KDBQ DBQ20050411075013404/11/05 07:50:31  5-MIN KDBQ 111350Z 12013G19KT 8SM SCT050 BKN065 OVC090  16/09 A2989 1110 64 1500 120/13G19 RMK AO2 SLP118 T01610094
94908KDBQ DBQ20050411075512804/11/05 07:55:31  5-MIN KDBQ 111355Z 12012KT 8SM SCT050 BKN060 OVC085  16/09 A2989 1110 64 1500 120/12 RMK AO2 SLP118 T01610094
94908KDBQ DBQ20050411080011104/11/05 08:00:31  5-MIN KDBQ 111400Z 12013KT 8SM BKN050 BKN060 OVC085  16/09 A2989 1110 64 1500 120/13 RMK AO2
94908KDBQ DBQ20050411080511104/11/05 08:05:31  5-MIN KDBQ 111405Z 14008KT 8SM BKN055 BKN075 OVC090  16/10 A2989 1100 67 1500 140/08 RMK AO2
94908KDBQ DBQ20050411081012004/11/05 08:10:31  5-MIN KDBQ 111410Z 15007KT 6SM -RA BKN050 OVC090 16/10  A2989 1100 67 1500 150/07 RMK AO2 RAB09 P0000
94908KDBQ DBQ20050411081512604/11/05 08:15:31  5-MIN KDBQ 111415Z 13008KT 6SM -RA BKN050 BKN055 OVC085 16/10 A2989 1100 67 1500 130/08 RMK AO2 RAB09 P0000
94908KDBQ DBQ20050411082012004/11/05 08:20:31  5-MIN KDBQ 111420Z 13007KT 7SM -RA SCT049 OVC055 16/10  A2989 1110 67 1500 130/07 RMK AO2 RAB09 P0000
94908KDBQ DBQ20050411082512004/11/05 08:25:31  5-MIN KDBQ 111425Z 13008KT 7SM -RA FEW047 OVC060 16/10  A2989 1110 67 1500 120/08 RMK AO2 RAB09 P0000
94908KDBQ DBQ20050411083011804/11/05 08:30:31  5-MIN KDBQ 111430Z 12009KT 8SM FEW047 OVC060 16/10 A2989 1110 67 1500 120/09 RMK AO2 RAB09E29 P0000
94908KDBQ DBQ20050411083511804/11/05 08:35:31  5-MIN KDBQ 111435Z 13008KT 8SM FEW047 OVC060 17/10 A2988 1110 64 1600 120/08 RMK AO2 RAB09E29 P0000
94908KDBQ DBQ20050411084011204/11/05 08:40:31  5-MIN KDBQ 111440Z 12009KT 8SM OVC060 17/10 A2988 1110  64 1600 120/09 RMK AO2 RAB09E29 P0000
94908KDBQ DBQ20050411084511804/11/05 08:45:31  5-MIN KDBQ 111445Z 13010KT 8SM BKN060 OVC080 17/10 A2988 1110 64 1600 130/10 RMK AO2 RAB09E29 P0000
94908KDBQ DBQ20050411085014704/11/05 08:50:31  5-MIN KDBQ 111450Z 13009KT 8SM BKN060 OVC080 17/10 A2989 1110 64 1600 130/09 RMK AO2 RAB09E29 SLP118 P0000 60000 T01670100 53006
94908KDBQ DBQ20050411085514704/11/05 08:55:31  5-MIN KDBQ 111455Z 13007KT 8SM BKN065 OVC080 17/10 A2989 1100 64 1600 130/07 RMK AO2 RAB09E29 SLP119 P0000 60000 T01670100 51002
94908KDBQ DBQ20050411090010304/11/05 09:00:31  5-MIN KDBQ 111500Z 14006KT 8SM BKN065 OVC080 17/10 A2990 1100 64 1600 140/06 RMK AO2
94908KDBQ DBQ20050411090510304/11/05 09:05:31  5-MIN KDBQ 111505Z 14005KT 8SM BKN065 OVC080 17/11 A2989 1100 67 1600 140/05 RMK AO2
94908KDBQ DBQ20050411091010304/11/05 09:10:31  5-MIN KDBQ 111510Z 12006KT 8SM BKN065 OVC080 17/10 A2989 1110 64 1600 120/06 RMK AO2
94908KDBQ DBQ20050411091510304/11/05 09:15:31  5-MIN KDBQ 111515Z 14004KT 8SM FEW040 OVC070 17/11 A2989 1110 64 1700 140/04 RMK AO2
94908KDBQ DBQ20050411092011104/11/05 09:20:31  5-MIN KDBQ 111520Z 16004KT 8SM FEW040 BKN065 BKN080  17/11 A2989 1110 64 1700 160/04 RMK AO2
94908KDBQ DBQ20050411092511104/11/05 09:25:31  5-MIN KDBQ 111525Z 16006KT 8SM FEW042 BKN065 BKN080  17/11 A2989 1110 64 1700 160/06 RMK AO2
94908KDBQ DBQ20050411093011104/11/05 09:30:31  5-MIN KDBQ 111530Z 16006KT 8SM FEW041 BKN065 OVC080  18/11 A2989 1110 62 1700 150/06 RMK AO2
94908KDBQ DBQ20050411093511104/11/05 09:35:31  5-MIN KDBQ 111535Z 18007KT 8SM FEW041 BKN048 OVC080  18/11 A2989 1110 64 1700 170/07 RMK AO2
94908KDBQ DBQ20050411094011104/11/05 09:40:31  5-MIN KDBQ 111540Z 17008KT 8SM SCT039 BKN048 OVC080  18/11 A2989 1110 64 1700 170/08 RMK AO2
94908KDBQ DBQ20050411094511104/11/05 09:45:31  5-MIN KDBQ 111545Z 15007KT 9SM SCT037 BKN048 BKN070  18/11 A2989 1110 62 1700 150/07 RMK AO2
94908KDBQ DBQ20050411095012804/11/05 09:50:31  5-MIN KDBQ 111550Z 15006KT 9SM SCT037 BKN048 OVC075  18/11 A2989 1110 62 1700 150/06 RMK AO2 SLP119 T01780106
94908KDBQ DBQ20050411095512804/11/05 09:55:31  5-MIN KDBQ 111555Z 15008KT 9SM SCT039 BKN048 OVC075  18/11 A2989 1100 60 1800 150/08 RMK AO2 SLP119 T01830106
94908KDBQ DBQ20050411100010304/11/05 10:00:31  5-MIN KDBQ 111600Z 14007KT 9SM BKN037 BKN048 18/11 A2989 1100 60 1800 140/07 RMK AO2
94908KDBQ DBQ20050411100511104/11/05 10:05:31  5-MIN KDBQ 111605Z 14008KT 9SM BKN037 BKN048 OVC060  18/11 A2989 1100 60 1800 140/08 RMK AO2
94908KDBQ DBQ20050411101011104/11/05 10:10:31  5-MIN KDBQ 111610Z 14008KT 9SM BKN037 BKN048 BKN100  19/11 A2989 1110 58 1900 140/08 RMK AO2
94908KDBQ DBQ20050411101511104/11/05 10:15:31  5-MIN KDBQ 111615Z 16008KT 9SM SCT037 BKN048 BKN060  19/11 A2989 1110 60 1900 150/08 RMK AO2
94908KDBQ DBQ20050411102011104/11/05 10:20:31  5-MIN KDBQ 111620Z 15008KT 9SM SCT037 SCT050 BKN095  19/11 A2989 1100 58 1900 150/08 RMK AO2
94908KDBQ DBQ20050411102510304/11/05 10:25:31  5-MIN KDBQ 111625Z 14009KT 9SM FEW037 BKN095 19/11 A2989 1110 58 1900 130/09 RMK AO2
94908KDBQ DBQ20050411103010304/11/05 10:30:31  5-MIN KDBQ 111630Z 15011KT 9SM FEW035 SCT095 19/11 A2989 1110 58 1900 140/11 RMK AO2
94908KDBQ DBQ20050411103510304/11/05 10:35:31  5-MIN KDBQ 111635Z 15011KT 9SM FEW049 BKN090 19/11 A2989 1110 58 1900 150/11 RMK AO2
94908KDBQ DBQ20050411104010304/11/05 10:40:31  5-MIN KDBQ 111640Z 15012KT 9SM FEW049 BKN090 19/11 A2989 1110 58 1900 150/12 RMK AO2
94908KDBQ DBQ20050411104510304/11/05 10:45:31  5-MIN KDBQ 111645Z 15011KT 9SM FEW049 BKN090 20/11 A2989 1110 56 2000 150/11 RMK AO2
94908KDBQ DBQ20050411105012004/11/05 10:50:31  5-MIN KDBQ 111650Z 14009KT 9SM FEW049 BKN095 20/11 A2989 1110 56 2000 140/09 RMK AO2 SLP117 T02000111
94908KDBQ DBQ20050411105512704/11/05 10:55:31  5-MIN KDBQ 111655Z 14012G16KT 9SM FEW049 BKN090 21/11  A2988 1110 54 2100 140/12G16 RMK AO2 SLP115 T02060111
94908KDBQ DBQ20050411110011004/11/05 11:00:31  5-MIN KDBQ 111700Z 14010G16KT 9SM FEW049 BKN095 21/11  A2988 1110 54 2100 130/10G16 RMK AO2
94908KDBQ DBQ20050411110509704/11/05 11:05:31  5-MIN KDBQ 111705Z 13010KT 9SM BKN095 21/12 A2988 1110  56 2100 130/10 RMK AO2
94908KDBQ DBQ20050411111010304/11/05 11:10:31  5-MIN KDBQ 111710Z 12012KT 9SM FEW060 BKN090 21/12 A2988 1110 54 2100 120/12 RMK AO2
94908KDBQ DBQ20050411111510304/11/05 11:15:31  5-MIN KDBQ 111715Z 12012KT 9SM SCT060 BKN090 21/11 A2988 1120 54 2100 120/12 RMK AO2
94908KDBQ DBQ20050411112011104/11/05 11:20:31  5-MIN KDBQ 111720Z 12011KT 9SM BKN055 BKN080 BKN095  21/12 A2987 1120 54 2100 120/11 RMK AO2
94908KDBQ DBQ20050411112510304/11/05 11:25:31  5-MIN KDBQ 111725Z 12012KT 9SM BKN055 OVC090 21/12 A2987 1120 54 2100 120/12 RMK AO2
94908KDBQ DBQ20050411113010304/11/05 11:30:31  5-MIN KDBQ 111730Z 13011KT 9SM BKN060 BKN090 21/12 A2987 1120 54 2100 130/11 RMK AO2
94908KDBQ DBQ20050411113511104/11/05 11:35:31  5-MIN KDBQ 111735Z 12013KT 9SM BKN060 BKN080 OVC095  21/12 A2987 1130 54 2100 120/13 RMK AO2
94908KDBQ DBQ20050411114010304/11/05 11:40:31  5-MIN KDBQ 111740Z 13012KT 9SM BKN060 BKN075 21/12 A2987 1130 54 2100 130/12 RMK AO2
94908KDBQ DBQ20050411114510304/11/05 11:45:31  5-MIN KDBQ 111745Z 13011KT 9SM BKN060 BKN090 22/12 A2986 1130 54 2200 130/11 RMK AO2
94908KDBQ DBQ20050411115014404/11/05 11:50:31  5-MIN KDBQ 111750Z 12011KT 9SM SCT060 BKN095 22/12 A2986 1130 52 2300 120/11 RMK AO2 SLP109 60000 T02220122 10222 20156 51002
94908KDBQ DBQ20050411115514404/11/05 11:55:31  5-MIN KDBQ 111755Z 12013KT 9SM SCT060 BKN090 22/12 A2986 1130 52 2300 120/13 RMK AO2 SLP107 60000 T02220122 10222 20156 58011
94908KDBQ DBQ20050411120011004/11/05 12:00:31  5-MIN KDBQ 111800Z 11014G19KT 9SM SCT060 BKN090 22/12  A2986 1140 52 2300 110/14G19 RMK AO2
94908KDBQ DBQ20050411120510504/11/05 12:05:31  5-MIN KDBQ 111805Z 12013KT 10SM FEW060 SCT095 23/12  A2986 1140 51 2300 120/13 RMK AO2
94908KDBQ DBQ20050411121009704/11/05 12:10:31  5-MIN KDBQ 111810Z 13017KT 9SM FEW095 23/12 A2985 1140  51 2300 120/17 RMK AO2
94908KDBQ DBQ20050411121510304/11/05 12:15:31  5-MIN KDBQ 111815Z 12016G20KT 9SM FEW080 23/12 A2985  1140 51 2300 120/16G20 RMK AO2
94908KDBQ DBQ20050411122011004/11/05 12:20:31  5-MIN KDBQ 111820Z 12018G23KT 9SM FEW050 SCT080 22/12  A2985 1140 52 2300 120/18G23 RMK AO2
94908KDBQ DBQ20050411122511004/11/05 12:25:31  5-MIN KDBQ 111825Z 12019G23KT 9SM SCT050 SCT075 22/12  A2985 1150 52 2300 120/19G23 RMK AO2
94908KDBQ DBQ20050411123011104/11/05 12:30:31  5-MIN KDBQ 111830Z 12017KT 9SM SCT050 SCT065 BKN080  22/12 A2984 1150 52 2300 120/17 RMK AO2
94908KDBQ DBQ20050411123511104/11/05 12:35:31  5-MIN KDBQ 111835Z 12015KT 9SM SCT050 SCT060 BKN075  22/12 A2984 1150 52 2300 120/15 RMK AO2
94908KDBQ DBQ20050411124011204/11/05 12:40:31  5-MIN KDBQ 111840Z 13015KT 10SM SCT050 BKN060 BKN075  22/12 A2984 1150 52 2300 120/15 RMK AO2
94908KDBQ DBQ20050411124511704/11/05 12:45:31  5-MIN KDBQ 111845Z 13014G20KT 10SM BKN048 BKN060 BKN075 22/12 A2984 1160 52 2300 130/14G20 RMK AO2
94908KDBQ DBQ20050411125013404/11/05 12:50:31  5-MIN KDBQ 111850Z 14012G20KT 10SM BKN048 BKN060 BKN080 22/13 A2984 1150 54 2300 130/12G20 RMK AO2 SLP100 T02220128
94908KDBQ DBQ20050411125513404/11/05 12:55:31  5-MIN KDBQ 111855Z 14014G20KT 10SM SCT048 BKN055 BKN070 23/12 A2984 1160 51 2400 140/14G20 RMK AO2 SLP099 T02280122
94908KDBQ DBQ20050411130011704/11/05 13:00:31  5-MIN KDBQ 111900Z 14014G22KT 10SM BKN048 BKN055 BKN080 22/13 A2983 1160 54 2300 140/14G22 RMK AO2
94908KDBQ DBQ20050411130511704/11/05 13:05:31  5-MIN KDBQ 111905Z 14015G22KT 10SM BKN048 BKN055 OVC090 23/12 A2983 1160 51 2400 140/15G22 RMK AO2
94908KDBQ DBQ20050411131011704/11/05 13:10:31  5-MIN KDBQ 111910Z 13020G25KT 10SM SCT048 SCT055 BKN090 23/12 A2983 1160 51 2400 130/20G25 RMK AO2
94908KDBQ DBQ20050411131513504/11/05 13:15:31  5-MIN KDBQ 111915Z 14020G26KT 10SM SCT048 SCT060 BKN095 23/12 A2983 1160 51 2400 140/20G26 RMK AO2 PK WND 14026/1915
94908KDBQ DBQ20050411132012904/11/05 13:20:31  5-MIN KDBQ 111920Z 15021G26KT 10SM FEW048 BKN095 22/12  A2983 1170 51 2300 150/21G26 RMK AO2 PK WND 15026/1919
94908KDBQ DBQ20050411132512904/11/05 13:25:31  5-MIN KDBQ 111925Z 14016G26KT 10SM FEW048 BKN090 22/12  A2983 1170 52 2300 140/16G26 RMK AO2 PK WND 15026/1919
94908KDBQ DBQ20050411133012904/11/05 13:30:31  5-MIN KDBQ 111930Z 14016G23KT 10SM FEW055 BKN090 22/12  A2982 1170 52 2300 140/16G23 RMK AO2 PK WND 15026/1919
94908KDBQ DBQ20050411133513504/11/05 13:35:31  5-MIN KDBQ 111935Z 15016G23KT 9SM FEW049 SCT060 BKN090  22/12 A2983 1170 54 2200 140/16G23 RMK AO2 PK WND 15026/1919
94908KDBQ DBQ20050411134015104/11/05 13:40:31  5-MIN KDBQ 111940Z 17016G23KT 4SM RA FEW033 SCT048  OVC090 20/13 A2983 1160 65 2100 170/16G23 RMK AO2 PK WND 15026/1919 RAB36  P0000
94908KDBQ DBQ20050411134515204/11/05 13:45:31  5-MIN KDBQ 111945Z 17018G23KT 4SM -RA FEW026 SCT046  OVC085 18/14 A2983 1160 78 1900 170/18G23 RMK AO2 PK WND 15026/1919 RAB36  P0001
94908KDBQ DBQ20050411135017904/11/05 13:50:31  5-MIN KDBQ 111950Z 16024G29KT 2 1/2SM +RA FEW021 BKN060 OVC085 18/14 A2985 1150 81 1800 160/24G29 RMK AO2 PK WND 17029/1949 RAB36  PRESRR SLP105 P0002 T01780144
94908KDBQ DBQ20050411135517404/11/05 13:55:31  5-MIN KDBQ 111955Z 16022G29KT 1 3/4SM RA BR SCT025  BKN050 OVC080 17/15 A2985 1140 87 1700 160/22G29 RMK AO2 PK WND 16029/1952 RAB36 SLP106 P0003 T01720150
94908KDBQ DBQ20050411140015204/11/05 14:00:31  5-MIN KDBQ 112000Z 15019G29KT 1 1/4SM +RA BR BKN023  BKN039 OVC080 17/16 A2986 1140 93 1600 150/19G29 RMK AO2 PK WND 16028/1958 P0004
94908KDBQ DBQ20050411140515204/11/05 14:05:31  5-MIN KDBQ 112005Z 15014G28KT 1 1/4SM +RA BR BKN021  BKN037 OVC046 17/16 A2986 1140 93 1600 150/14G28 RMK AO2 PK WND 16028/1958 P0010
94908KDBQ DBQ20050411141014504/11/05 14:10:31  5-MIN KDBQ 112010Z 15016KT 1 1/2SM RA BR BKN021 BKN037  OVC050 17/16 A2985 1140 93 1600 140/16 RMK AO2 PK WND 16028/1958 P0013
94908KDBQ DBQ20050411141514504/11/05 14:15:31  5-MIN KDBQ 112015Z 14011KT 2 1/2SM -RA BR BKN025 BKN037 OVC065 17/16 A2985 1140 90 1700 140/11 RMK AO2 PK WND 16028/1958 P0014
94908KDBQ DBQ20050411142014204/11/05 14:20:31  5-MIN KDBQ 112020Z 13011KT 4SM -RA BR BKN025 BKN037  OVC070 17/16 A2985 1150 93 1700 130/11 RMK AO2 PK WND 16028/1958 P0014
94908KDBQ DBQ20050411142514404/11/05 14:25:31  5-MIN KDBQ 112025Z 13010KT 4SM BR BKN025 BKN037 OVC070  17/16 A2985 1150 93 1700 130/10 RMK AO2 PK WND 16028/1958 RAE25 P0014
94908KDBQ DBQ20050411143014404/11/05 14:30:31  5-MIN KDBQ 112030Z 12009KT 4SM BR BKN025 BKN037 OVC070  17/16 A2984 1150 93 1700 120/09 RMK AO2 PK WND 16028/1958 RAE25 P0014
94908KDBQ DBQ20050411143514204/11/05 14:35:31  5-MIN KDBQ 112035Z 12011KT 3SM -RA BR BKN025 BKN037  OVC070 17/16 A2984 1150 90 1700 120/11 RMK AO2 PK WND 16028/1958 P0014
94908KDBQ DBQ20050411144014204/11/05 14:40:31  5-MIN KDBQ 112040Z 12011KT 4SM -RA BR BKN025 BKN037  OVC070 17/16 A2984 1150 90 1700 120/11 RMK AO2 PK WND 16028/1958 P0014
94908KDBQ DBQ20050411144514404/11/05 14:45:31  5-MIN KDBQ 112045Z 12011KT 5SM BR BKN025 BKN037 OVC070  17/16 A2984 1160 90 1700 120/11 RMK AO2 PK WND 16028/1958 RAE43 P0014
94908KDBQ DBQ20050411145017404/11/05 14:50:31  5-MIN KDBQ 112050Z 12010KT 5SM BR SCT060 SCT075 BKN090  17/16 A2983 1160 90 1700 110/10 RMK AO2 PK WND 16028/1958 RAE43 SLP100  P0014 60017 T01720156 58011
94908KDBQ DBQ20050411145517404/11/05 14:55:31  5-MIN KDBQ 112055Z 10010KT 5SM BR FEW060 SCT075 BKN095  17/16 A2982 1170 90 1700 100/10 RMK AO2 PK WND 16028/1958 RAE43 SLP097  P0014 60017 T01720156 58012
94908KDBQ DBQ20050411150010704/11/05 15:00:31  5-MIN KDBQ 112100Z 09011KT 5SM BR FEW065 BKN090 17/16  A2982 1170 90 1700 090/11 RMK AO2
94908KDBQ DBQ20050411150510004/11/05 15:05:31  5-MIN KDBQ 112105Z 09011KT 5SM BR SCT095 18/16 A2982  1170 87 1800 090/11 RMK AO2
94908KDBQ DBQ20050411151010004/11/05 15:10:31  5-MIN KDBQ 112110Z 09013KT 5SM BR SCT095 18/16 A2982  1180 87 1800 090/13 RMK AO2
94908KDBQ DBQ20050411151510004/11/05 15:15:31  5-MIN KDBQ 112115Z 09012KT 5SM BR SCT100 18/16 A2981  1180 87 1800 090/12 RMK AO2
94908KDBQ DBQ20050411152010004/11/05 15:20:31  5-MIN KDBQ 112120Z 09011KT 5SM BR BKN095 18/16 A2981  1180 87 1800 090/11 RMK AO2
94908KDBQ DBQ20050411152510004/11/05 15:25:31  5-MIN KDBQ 112125Z 09011KT 5SM BR BKN095 18/16 A2981  1180 87 1800 090/11 RMK AO2
94908KDBQ DBQ20050411153010704/11/05 15:30:31  5-MIN KDBQ 112130Z 09012KT 5SM BR SCT095 SCT110 18/16  A2980 1190 87 1800 090/12 RMK AO2
94908KDBQ DBQ20050411153510004/11/05 15:35:31  5-MIN KDBQ 112135Z 09014KT 5SM BR BKN100 18/16 A2980  1190 87 1800 090/14 RMK AO2
94908KDBQ DBQ20050411154010004/11/05 15:40:31  5-MIN KDBQ 112140Z 09013KT 5SM BR BKN100 18/16 A2980  1190 87 1800 090/13 RMK AO2
94908KDBQ DBQ20050411154510004/11/05 15:45:31  5-MIN KDBQ 112145Z 09013KT 5SM BR BKN100 18/16 A2980  1190 87 1800 090/13 RMK AO2
94908KDBQ DBQ20050411155011704/11/05 15:50:31  5-MIN KDBQ 112150Z 09014KT 5SM BR BKN100 17/16 A2980  1190 90 1800 090/14 RMK AO2 SLP088 T01720156
94908KDBQ DBQ20050411155511704/11/05 15:55:31  5-MIN KDBQ 112155Z 10013KT 5SM BR BKN100 17/16 A2980  1190 90 1800 100/13 RMK AO2 SLP088 T01720156
94908KDBQ DBQ20050411160010004/11/05 16:00:31  5-MIN KDBQ 112200Z 10014KT 5SM BR OVC100 17/16 A2980  1190 90 1800 100/14 RMK AO2
94908KDBQ DBQ20050411160510704/11/05 16:05:31  5-MIN KDBQ 112205Z 10011KT 5SM BR FEW080 OVC100 17/16  A2980 1190 90 1800 100/11 RMK AO2
94908KDBQ DBQ20050411161010704/11/05 16:10:31  5-MIN KDBQ 112210Z 10012KT 5SM BR SCT080 OVC095 17/15  A2980 1190 87 1800 100/12 RMK AO2
94908KDBQ DBQ20050411161510704/11/05 16:15:31  5-MIN KDBQ 112215Z 11010KT 5SM BR BKN080 OVC095 17/15  A2981 1180 87 1800 110/10 RMK AO2
94908KDBQ DBQ20050411162010704/11/05 16:20:31  5-MIN KDBQ 112220Z 11010KT 5SM BR FEW044 OVC085 17/15  A2981 1180 87 1800 110/10 RMK AO2
94908KDBQ DBQ20050411162512304/11/05 16:25:31  5-MIN KDBQ 112225Z 11008KT 5SM -RA BR FEW044 OVC085  17/15 A2981 1180 87 1800 110/08 RMK AO2 RAB21 P0000
94908KDBQ DBQ20050411163011504/11/05 16:30:31  5-MIN KDBQ 112230Z 11009KT 5SM BR OVC080 17/16 A2981  1180 90 1800 110/09 RMK AO2 RAB21E30 P0000
94908KDBQ DBQ20050411163512204/11/05 16:35:31  5-MIN KDBQ 112235Z 10010KT 5SM BR BKN080 OVC100 17/15  A2981 1180 87 1800 100/10 RMK AO2 RAB21E30 P0000
94908KDBQ DBQ20050411164011504/11/05 16:40:31  5-MIN KDBQ 112240Z 10010KT 5SM BR OVC090 17/15 A2981  1180 87 1800 100/10 RMK AO2 RAB21E30 P0000
94908KDBQ DBQ20050411164511504/11/05 16:45:31  5-MIN KDBQ 112245Z 10010KT 5SM BR OVC095 17/15 A2981  1180 87 1800 100/10 RMK AO2 RAB21E30 P0000
94908KDBQ DBQ20050411165013204/11/05 16:50:31  5-MIN KDBQ 112250Z 11010KT 5SM BR OVC095 17/15 A2981  1180 87 1800 110/10 RMK AO2 RAB21E30 SLP093 P0000 T01720150
94908KDBQ DBQ20050411165514604/11/05 16:55:31  5-MIN KDBQ 112255Z 12010KT 5SM -RA BR FEW027 OVC095  17/15 A2982 1170 87 1700 120/10 RMK AO2 RAB21E30B53 SLP095 P0000 T01720150
94908KDBQ DBQ20050411170012404/11/05 17:00:31  5-MIN KDBQ 112300Z 13009KT 4SM -RA BR SCT025 BKN080  OVC100 17/15 A2982 1170 87 1700 130/09 RMK AO2 P0000
94908KDBQ DBQ20050411170512404/11/05 17:05:31  5-MIN KDBQ 112305Z 13008KT 4SM -RA BR SCT029 BKN075  OVC095 17/16 A2982 1170 90 1700 130/08 RMK AO2 P0001
94908KDBQ DBQ20050411171013004/11/05 17:10:31  5-MIN KDBQ 112310Z 13011G16KT 3SM -RA BR BKN031 BKN055  OVC090 17/15 A2982 1170 87 1700 130/11G16 RMK AO2 P0001
94908KDBQ DBQ20050411171512004/11/05 17:15:31  5-MIN KDBQ 112315Z 13012KT 3SM -RA SCT031 BKN055 OVC095 18/15 A2982 1170 83 1800 130/12 RMK AO2 P0002
94908KDBQ DBQ20050411172012404/11/05 17:20:31  5-MIN KDBQ 112320Z 12009KT 5SM -RA BR SCT031 SCT050  BKN070 17/15 A2981 1180 87 1700 120/09 RMK AO2 P0002
94908KDBQ DBQ20050411172512604/11/05 17:25:31  5-MIN KDBQ 112325Z 11009KT 5SM BR FEW031 SCT070 BKN085  17/16 A2981 1180 90 1800 110/09 RMK AO2 RAE25 P0002
94908KDBQ DBQ20050411173011904/11/05 17:30:31  5-MIN KDBQ 112330Z 10010KT 5SM BR FEW035 SCT085 17/16  A2980 1190 90 1800 100/10 RMK AO2 RAE25 P0002
94908KDBQ DBQ20050411173511904/11/05 17:35:31  5-MIN KDBQ 112335Z 11010KT 5SM BR FEW070 SCT085 17/16  A2980 1190 90 1800 100/10 RMK AO2 RAE25 P0002
94908KDBQ DBQ20050411174011904/11/05 17:40:31  5-MIN KDBQ 112340Z 10010KT 5SM BR SCT070 SCT085 17/16  A2980 1190 90 1800 100/10 RMK AO2 RAE25 P0002
94908KDBQ DBQ20050411174511904/11/05 17:45:31  5-MIN KDBQ 112345Z 10010KT 5SM BR SCT070 BKN080 17/15  A2980 1190 87 1800 100/10 RMK AO2 RAE25 P0002
94908KDBQ DBQ20050411175016004/11/05 17:50:31  5-MIN KDBQ 112350Z 11010KT 5SM BR SCT070 BKN095 17/15  A2980 1190 87 1800 100/10 RMK AO2 RAE25 SLP088 P0002 60019 T01720150 10228 20167 58012
94908KDBQ DBQ20050411175516704/11/05 17:55:31  5-MIN KDBQ 112355Z 11008KT 4SM BR SCT065 BKN080 BKN100  17/15 A2979 1200 87 1800 110/08 RMK AO2 RAE25 SLP086 P0002 60019 T01720150 10228 20167 57010
94908KDBQ DBQ20050411180011404/11/05 18:00:31  5-MIN KDBQ 120000Z 11009KT 4SM BR SCT065 BKN080 OVC100  17/15 A2979 1200 87 1800 110/09 RMK AO2
94908KDBQ DBQ20050411180513004/11/05 18:05:31  5-MIN KDBQ 120005Z 11010KT 4SM -RA BR FEW048 SCT070  OVC100 17/15 A2980 1190 87 1800 110/10 RMK AO2 RAB01 P0000
94908KDBQ DBQ20050411181013004/11/05 18:10:31  5-MIN KDBQ 120010Z 10010KT 4SM -RA BR FEW048 SCT075  OVC100 17/15 A2980 1190 90 1700 100/10 RMK AO2 RAB01 P0000
94908KDBQ DBQ20050411181512904/11/05 18:15:31  5-MIN KDBQ 120015Z 10009KT 4SM BR FEW050 SCT075 OVC100  17/15 A2980 1190 90 1700 100/09 RMK AO2 RAB01E12 P0000
94908KDBQ DBQ20050411182013904/11/05 18:20:31  5-MIN KDBQ 120020Z AUTO 10009KT 4SM BR FEW050 BKN080  OVC100 17/15 A2980 1190 90 1700 100/09 RMK AO2 RAB01E12 P0000 TSNO
94908KDBQ DBQ20050411182513904/11/05 18:25:31  5-MIN KDBQ 120025Z AUTO 10008KT 4SM BR BKN065 BKN095  OVC110 17/15 A2980 1190 90 1700 100/08 RMK AO2 RAB01E12 P0000 TSNO
94908KDBQ DBQ20050411183013904/11/05 18:30:31  5-MIN KDBQ 120030Z AUTO 10010KT 4SM BR BKN065 BKN095  OVC110 17/15 A2980 1190 90 1700 100/10 RMK AO2 RAB01E12 P0000 TSNO
94908KDBQ DBQ20050411183513804/11/05 18:35:31  5-MIN KDBQ 120035Z AUTO 10010KT 5SM -RA BR BKN070 OVC090 17/15 A2980 1190 90 1700 100/10 RMK AO2 RAB01E12B31 P0000 TSNO
94908KDBQ DBQ20050411184013804/11/05 18:40:31  5-MIN KDBQ 120040Z AUTO 09010KT 5SM -RA BR BKN065 OVC090 17/15 A2980 1190 90 1700 090/10 RMK AO2 RAB01E12B31 P0000 TSNO
94908KDBQ DBQ20050411184513804/11/05 18:45:31  5-MIN KDBQ 120045Z AUTO 09011KT 6SM BR BKN065 OVC090  17/15 A2980 1190 90 1700 090/11 RMK AO2 RAB01E12B31E45 P0000 TSNO
94908KDBQ DBQ20050411185015504/11/05 18:50:31  5-MIN KDBQ 120050Z AUTO 08009KT 5SM -RA BR BKN065 OVC090 17/15 A2980 1190 90 1700 080/09 RMK AO2 RAB01E12B31 SLP088 P0000 T01670150 TSNO
94908KDBQ DBQ20050411185516304/11/05 18:55:31  5-MIN KDBQ 120055Z AUTO 08008KT 5SM -RA BR BKN060 BKN080 OVC095 17/15 A2979 1200 90 1700 080/08 RMK AO2 RAB01E12B31 SLP087 P0000  T01670150 TSNO
94908KDBQ DBQ20050411190012904/11/05 19:00:31  5-MIN KDBQ 120100Z AUTO 08007KT 6SM BR BKN060 OVC085  17/15 A2980 1190 90 1700 080/07 RMK AO2 RAE00 P0000 TSNO
94908KDBQ DBQ20050411190513604/11/05 19:05:31  5-MIN KDBQ 120105Z AUTO 08008KT 5SM BR FEW034 BKN060  OVC090 17/15 A2980 1190 90 1700 080/08 RMK AO2 RAE00 P0000 TSNO
94908KDBQ DBQ20050411191013304/11/05 19:10:31  5-MIN KDBQ 120110Z AUTO 09008KT 5SM -RA BR SCT034 BKN060 OVC090 17/15 A2980 1190 90 1700 090/08 RMK AO2 P0000 TSNO
94908KDBQ DBQ20050411191513304/11/05 19:15:31  5-MIN KDBQ 120115Z AUTO 08008KT 5SM -RA BR BKN034 BKN055 OVC070 17/15 A2980 1190 90 1700 080/08 RMK AO2 P0000 TSNO
94908KDBQ DBQ20050411192012604/11/05 19:20:31  5-MIN KDBQ 120120Z AUTO 08009KT 5SM -RA BR BKN036 OVC065 17/15 A2981 1180 90 1700 080/09 RMK AO2 P0000 TSNO
94908KDBQ DBQ20050411192513204/11/05 19:25:31  5-MIN KDBQ 120125Z AUTO 08011KT 4SM RA BR BKN036 BKN049 OVC055 17/15 A2980 1190 90 1700 080/11 RMK AO2 P0000 TSNO
94908KDBQ DBQ20050411193013304/11/05 19:30:31  5-MIN KDBQ 120130Z AUTO 08009KT 3SM -RA BR BKN036 BKN049 OVC055 17/15 A2980 1190 90 1700 070/09 RMK AO2 P0002 TSNO
94908KDBQ DBQ20050411193513304/11/05 19:35:31  5-MIN KDBQ 120135Z AUTO 08011KT 4SM -RA BR BKN036 BKN049 OVC055 17/15 A2980 1190 90 1700 080/11 RMK AO2 P0003 TSNO
94908KDBQ DBQ20050411194013304/11/05 19:40:31  5-MIN KDBQ 120140Z AUTO 08012KT 5SM -RA BR BKN038 BKN047 OVC095 17/15 A2979 1190 90 1700 080/12 RMK AO2 P0003 TSNO
94908KDBQ DBQ20050411194513604/11/05 19:45:31  5-MIN KDBQ 120145Z AUTO 10012KT 6SM BR SCT038 BKN050  OVC095 17/15 A2980 1190 90 1700 100/12 RMK AO2 RAE44 P0003 TSNO
94908KDBQ DBQ20050411195015304/11/05 19:50:31  5-MIN KDBQ 120150Z AUTO 09013KT 6SM BR SCT038 BKN048  OVC100 17/14 A2979 1190 86 1700 090/13 RMK AO2 RAE44 SLP087 P0003 T01670144 TSNO
94908KDBQ DBQ20050411195515304/11/05 19:55:31  5-MIN KDBQ 120155Z AUTO 10015KT 6SM BR FEW038 BKN050  OVC095 17/14 A2980 1190 86 1700 100/15 RMK AO2 RAE44 SLP087 P0003 T01670144 TSNO
94908KDBQ DBQ20050411200012404/11/05 20:00:31  5-MIN KDBQ 120200Z AUTO 10014KT 6SM HZ SCT043 BKN050  OVC095 17/14 A2979 1200 83 1700 100/14 RMK AO2 TSNO
94908KDBQ DBQ20050411200512404/11/05 20:05:31  5-MIN KDBQ 120205Z AUTO 11014KT 6SM HZ BKN042 BKN050  OVC070 17/14 A2980 1190 83 1700 110/14 RMK AO2 TSNO
94908KDBQ DBQ20050411201014604/11/05 20:10:31  5-MIN KDBQ 120210Z AUTO 10018G21KT 5SM -RA BR BKN041  BKN050 OVC065 16/14 A2979 1200 86 1700 100/18G21 RMK AO2 RAB06 P0000 TSNO
94908KDBQ DBQ20050411201514604/11/05 20:15:31  5-MIN KDBQ 120215Z AUTO 10014G22KT 5SM -RA BR FEW038  BKN048 OVC065 16/14 A2978 1200 86 1700 100/14G22 RMK AO2 RAB06 P0000 TSNO
94908KDBQ DBQ20050411202014404/11/05 20:20:31  5-MIN KDBQ 120220Z AUTO 11014G22KT 6SM BR FEW038 BKN048 OVC100 16/14 A2978 1210 86 1700 110/14G22 RMK AO2 RAB06E19 P0000 TSNO
94908KDBQ DBQ20050411202513904/11/05 20:25:31  5-MIN KDBQ 120225Z AUTO 11013KT 6SM BR FEW038 BKN060  OVC100 16/14 A2978 1210 86 1700 110/13 RMK AO2 RAB06E19 P0000 TSNO
94908KDBQ DBQ20050411203013904/11/05 20:30:31  5-MIN KDBQ 120230Z AUTO 11011KT 6SM BR FEW038 SCT049  OVC110 16/14 A2978 1210 86 1700 110/11 RMK AO2 RAB06E19 P0000 TSNO
94908KDBQ DBQ20050411203513904/11/05 20:35:31  5-MIN KDBQ 120235Z AUTO 10010KT 6SM BR FEW042 BKN065  OVC110 16/14 A2977 1210 86 1700 100/10 RMK AO2 RAB06E19 P0000 TSNO
94908KDBQ DBQ20050411204013904/11/05 20:40:31  5-MIN KDBQ 120240Z AUTO 10010KT 6SM BR SCT044 BKN055  OVC110 16/14 A2977 1220 86 1700 100/10 RMK AO2 RAB06E19 P0000 TSNO
94908KDBQ DBQ20050411204513904/11/05 20:45:31  5-MIN KDBQ 120245Z AUTO 10012KT 6SM BR FEW043 BKN070  OVC110 16/14 A2977 1220 86 1700 100/12 RMK AO2 RAB06E19 P0000 TSNO
94908KDBQ DBQ20050411205016804/11/05 20:50:31  5-MIN KDBQ 120250Z AUTO 09012KT 6SM BR SCT046 BKN065  OVC110 16/14 A2977 1220 86 1700 090/12 RMK AO2 RAB06E19 SLP079 P0000 60003 T01610139 57010 TSNO
94908KDBQ DBQ20050411205516804/11/05 20:55:31  5-MIN KDBQ 120255Z AUTO 10012KT 6SM BR SCT046 BKN055  OVC085 16/14 A2977 1220 86 1700 100/12 RMK AO2 RAB06E19 SLP079 P0000 60003 T01610139 58007 TSNO
94908KDBQ DBQ20050411210011704/11/05 21:00:31  5-MIN KDBQ 120300Z AUTO 09013KT 6SM BR FEW046 OVC060  16/14 A2977 1220 86 1700 090/13 RMK AO2 TSNO
94908KDBQ DBQ20050411210511704/11/05 21:05:31  5-MIN KDBQ 120305Z AUTO 09013KT 6SM HZ SCT048 OVC060  16/13 A2976 1220 83 1700 090/13 RMK AO2 TSNO
94908KDBQ DBQ20050411211012404/11/05 21:10:31  5-MIN KDBQ 120310Z AUTO 09016KT 6SM HZ SCT049 BKN060  OVC070 16/13 A2976 1230 83 1700 090/16 RMK AO2 TSNO
94908KDBQ DBQ20050411211512704/11/05 21:15:31  5-MIN KDBQ 120315Z AUTO 10019G24KT 7SM SCT049 BKN060  OVC070 17/13 A2975 1230 77 1800 100/19G24 RMK AO2 TSNO
94908KDBQ DBQ20050411212012004/11/05 21:20:31  5-MIN KDBQ 120320Z AUTO 10018G24KT 7SM SCT049 OVC060  17/12 A2976 1230 75 1700 100/18G24 RMK AO2 TSNO
94908KDBQ DBQ20050411212514204/11/05 21:25:31  5-MIN KDBQ 120325Z AUTO 11016G24KT 5SM -RA FEW023 BKN047 OVC060 16/12 A2976 1220 77 1700 110/16G24 RMK AO2 RAB23 P0000 TSNO
94908KDBQ DBQ20050411213013604/11/05 21:30:31  5-MIN KDBQ 120330Z AUTO 11016KT 4SM RA FEW023 BKN050  OVC060 16/12 A2977 1220 80 1600 110/16 RMK AO2 RAB23 P0002 TSNO
94908KDBQ DBQ20050411213514204/11/05 21:35:31  5-MIN KDBQ 120335Z AUTO 12016G22KT 4SM -RA FEW032 BKN055 OVC070 16/12 A2977 1220 80 1600 120/16G22 RMK AO2 RAB23 P0003 TSNO
94908KDBQ DBQ20050411214014104/11/05 21:40:31  5-MIN KDBQ 120340Z AUTO 12014G22KT 5SM RA SCT034 BKN043 OVC060 16/12 A2977 1220 80 1600 120/14G22 RMK AO2 RAB23 P0004 TSNO
94908KDBQ DBQ20050411214513004/11/05 21:45:31  5-MIN KDBQ 120345Z AUTO 12015KT 5SM -RA BKN036 OVC050  16/12 A2977 1220 80 1600 120/15 RMK AO2 RAB23 P0004 TSNO
94908KDBQ DBQ20050411215014704/11/05 21:50:31  5-MIN KDBQ 120350Z AUTO 11016KT 7SM -RA BKN036 OVC050  16/12 A2977 1220 80 1600 110/16 RMK AO2 RAB23 SLP079 P0004 T01560122 TSNO
94908KDBQ DBQ20050411215514504/11/05 21:55:31  5-MIN KDBQ 120355Z AUTO 12016KT 8SM BKN036 OVC047 16/12 A2977 1220 77 1600 120/16 RMK AO2 RAB23E54 SLP079 P0004 T01560117 TSNO
94908KDBQ DBQ20050411220011304/11/05 22:00:31  5-MIN KDBQ 120400Z AUTO 12015KT 7SM BKN036 OVC047 16/12 A2977 1220 77 1600 120/15 RMK AO2 TSNO
94908KDBQ DBQ20050411220512704/11/05 22:05:31  5-MIN KDBQ 120405Z AUTO 12017G22KT 7SM FEW034 SCT041  OVC055 16/12 A2977 1220 77 1600 110/17G22 RMK AO2 TSNO
94908KDBQ DBQ20050411221012704/11/05 22:10:31  5-MIN KDBQ 120410Z AUTO 12017G23KT 7SM FEW034 BKN055  OVC070 16/12 A2977 1220 77 1600 120/17G23 RMK AO2 TSNO
94908KDBQ DBQ20050411221512004/11/05 22:15:31  5-MIN KDBQ 120415Z AUTO 12016KT 7SM FEW042 BKN055 OVC085 16/12 A2977 1210 77 1600 120/16 RMK AO2 TSNO
94908KDBQ DBQ20050411222012004/11/05 22:20:31  5-MIN KDBQ 120420Z AUTO 11016KT 7SM FEW040 BKN055 OVC070 15/12 A2977 1210 80 1500 110/16 RMK AO2 TSNO
94908KDBQ DBQ20050411222514204/11/05 22:25:31  5-MIN KDBQ 120425Z AUTO 11017G22KT 7SM -RA FEW039 BKN060 OVC075 15/11 A2977 1210 77 1500 110/17G22 RMK AO2 RAB24 P0000 TSNO
94908KDBQ DBQ20050411223014204/11/05 22:30:31  5-MIN KDBQ 120430Z AUTO 11016G22KT 5SM -RA SCT039 BKN060 OVC075 14/12 A2978 1210 83 1500 110/16G22 RMK AO2 RAB24 P0000 TSNO
94908KDBQ DBQ20050411223516004/11/05 22:35:31  5-MIN KDBQ 120435Z AUTO 12019G26KT 4SM RA SCT034 BKN044 OVC070 14/12 A2978 1200 83 1500 120/19G26 RMK AO2 PK WND 10026/0433 RAB24  P0001 TSNO
94908KDBQ DBQ20050411224016404/11/05 22:40:31  5-MIN KDBQ 120440Z AUTO 12020G27KT 3SM +RA BR FEW029  BKN038 OVC070 14/12 A2979 1200 90 1400 120/20G27 RMK AO2 PK WND 11027/0438 RAB24 P0003 TSNO
94908KDBQ DBQ20050411224516304/11/05 22:45:31  5-MIN KDBQ 120445Z AUTO 12022G27KT 3SM RA BR FEW029  BKN036 OVC055 14/12 A2978 1200 90 1400 120/22G27 RMK AO2 PK WND 12027/0445 RAB24 P0005 TSNO
94908KDBQ DBQ20050411225018404/11/05 22:50:31  5-MIN KDBQ 120450Z AUTO 12019G27KT 2 1/2SM +RA BR FEW019 SCT029 OVC039 14/13 A2978 1210 93 1400 120/19G27 RMK AO2 PK WND 12027/0445 RAB24 SLP083 P0007 T01390128 TSNO
94908KDBQ DBQ20050411225518404/11/05 22:55:31  5-MIN KDBQ 120455Z AUTO 12014G23KT 2 1/2SM +RA BR FEW023 BKN039 OVC060 14/13 A2978 1210 93 1400 120/14G23 RMK AO2 PK WND 12027/0445 RAB24 SLP081 P0010 T01390128 TSNO
94908KDBQ DBQ20050411230013704/11/05 23:00:31  5-MIN KDBQ 120500Z AUTO 12013KT 2 1/2SM RA BR BKN028  BKN035 OVC060 14/13 A2977 1210 93 1400 110/13 RMK AO2 P0002 TSNO
94908KDBQ DBQ20050411230514204/11/05 23:05:31  5-MIN KDBQ 120505Z AUTO 12014G19KT 2 1/2SM RA BR FEW030 BKN035 OVC055 14/13 A2977 1220 96 1400 120/14G19 RMK AO2 P0003 TSNO
94908KDBQ DBQ20050411231013304/11/05 23:10:31  5-MIN KDBQ 120510Z AUTO 11013KT 3SM -RA BR FEW030 BKN039 OVC075 14/13 A2977 1220 96 1400 110/13 RMK AO2 P0004 TSNO
94908KDBQ DBQ20050411231512604/11/05 23:15:31  5-MIN KDBQ 120515Z AUTO 11012KT 3SM -RA BR BKN041 OVC065 14/13 A2976 1230 96 1400 110/12 RMK AO2 P0004 TSNO
94908KDBQ DBQ20050411232013304/11/05 23:20:31  5-MIN KDBQ 120520Z AUTO 11012KT 3SM -RA BR BKN041 BKN060 OVC075 14/13 A2976 1230 96 1400 110/12 RMK AO2 P0005 TSNO
94908KDBQ DBQ20050411232513304/11/05 23:25:31  5-MIN KDBQ 120525Z AUTO 11012KT 4SM -RA BR BKN044 BKN060 OVC070 14/13 A2976 1230 96 1400 110/12 RMK AO2 P0005 TSNO
94908KDBQ DBQ20050411233013304/11/05 23:30:31  5-MIN KDBQ 120530Z AUTO 11013KT 3SM -RA BR FEW034 BKN046 OVC075 14/13 A2976 1230 96 1400 110/13 RMK AO2 P0006 TSNO
94908KDBQ DBQ20050411233513204/11/05 23:35:31  5-MIN KDBQ 120535Z AUTO 12012KT 3SM RA BR FEW005 BKN047 OVC060 14/13 A2976 1230 93 1400 120/12 RMK AO2 P0006 TSNO
94908KDBQ DBQ20050411234013304/11/05 23:40:31  5-MIN KDBQ 120540Z AUTO 12013KT 3SM -RA BR FEW005 BKN047 OVC070 13/13 A2976 1230 96 1400 120/13 RMK AO2 P0008 TSNO
94908KDBQ DBQ20050411234513304/11/05 23:45:31  5-MIN KDBQ 120545Z AUTO 12011KT 3SM -RA BR FEW005 BKN060 OVC070 13/13 A2976 1230 96 1400 110/11 RMK AO2 P0008 TSNO
94908KDBQ DBQ20050411235018504/11/05 23:50:31  5-MIN KDBQ 120550Z AUTO 11010KT 3SM -RA BR FEW005 BKN060 OVC075 13/13 A2975 1230 96 1400 110/10 RMK AO2 SLP072 P0008 60025  T01330128 10172 20133 402280133 58007 TSNO
94908KDBQ DBQ20050411235518504/11/05 23:55:31  5-MIN KDBQ 120555Z AUTO 11011KT 3SM -RA BR FEW005 BKN060 OVC075 13/13 A2975 1240 96 1400 110/11 RMK AO2 SLP071 P0009 60026  T01330128 10172 20133 402280133 58006 TSNO
94908KDBQ DBQ20050412000013304/12/05 00:00:38  5-MIN KDBQ 120600Z AUTO 11012KT 3SM -RA BR FEW005 BKN041 OVC075 13/13 A2975 1230 96 1400 110/12 RMK AO2 P0000 TSNO
94908KDBQ DBQ20050412000513304/12/05 00:05:31  5-MIN KDBQ 120605Z AUTO 12011KT 3SM -RA BR FEW038 BKN060 OVC080 13/13 A2976 1230 96 1400 120/11 RMK AO2 P0001 TSNO
94908KDBQ DBQ20050412001013304/12/05 00:10:31  5-MIN KDBQ 120610Z AUTO 11012KT 3SM -RA BR FEW036 BKN060 OVC075 13/13 A2976 1230 96 1400 110/12 RMK AO2 P0001 TSNO
94908KDBQ DBQ20050412001513304/12/05 00:15:33  5-MIN KDBQ 120615Z AUTO 11012KT 3SM -RA BR FEW038 SCT055 OVC080 13/13 A2975 1230 96 1400 110/12 RMK AO2 P0002 TSNO
94908KDBQ DBQ20050412002013304/12/05 00:20:31  5-MIN KDBQ 120620Z AUTO 11012KT 4SM -RA BR FEW038 SCT050 OVC070 14/13 A2975 1230 93 1400 110/12 RMK AO2 P0002 TSNO
94908KDBQ DBQ20050412002513304/12/05 00:25:31  5-MIN KDBQ 120625Z AUTO 11011KT 4SM -RA BR FEW038 SCT060 OVC075 13/13 A2975 1240 96 1400 100/11 RMK AO2 P0002 TSNO
94908KDBQ DBQ20050412003013304/12/05 00:30:31  5-MIN KDBQ 120630Z AUTO 10011KT 3SM -RA BR FEW007 SCT060 OVC075 13/13 A2975 1240 96 1400 100/11 RMK AO2 P0003 TSNO
94908KDBQ DBQ20050412003512604/12/05 00:35:31  5-MIN KDBQ 120635Z AUTO 10011KT 3SM -RA BR FEW007 OVC070 13/13 A2975 1240 96 1400 100/11 RMK AO2 P0003 TSNO
94908KDBQ DBQ20050412004012604/12/05 00:40:31  5-MIN KDBQ 120640Z AUTO 10011KT 3SM -RA BR FEW007 OVC070 13/13 A2974 1240 96 1400 090/11 RMK AO2 P0003 TSNO
94908KDBQ DBQ20050412004513304/12/05 00:45:31  5-MIN KDBQ 120645Z AUTO 10011KT 3SM -RA BR FEW007 SCT060 OVC070 13/13 A2974 1250 96 1400 100/11 RMK AO2 P0003 TSNO
94908KDBQ DBQ20050412005015004/12/05 00:50:31  5-MIN KDBQ 120650Z AUTO 09012KT 4SM -RA BR SCT007 SCT055 OVC070 13/13 A2973 1250 96 1400 090/12 RMK AO2 SLP065 P0003 T01330128 TSNO
94908KDBQ DBQ20050412005515004/12/05 00:55:31  5-MIN KDBQ 120655Z AUTO 10010KT 4SM -RA BR SCT005 BKN009 OVC070 13/13 A2973 1250 96 1400 100/10 RMK AO2 SLP065 P0003 T01330128 TSNO
94908KDBQ DBQ20050412010014504/12/05 01:00:31  5-MIN KDBQ 120700Z AUTO 10014KT 4SM -RA BR BKN005 BKN010 OVC070 13/12 A2973 1250 93 1400 090/14 RMK AO2 CIG 004V007 P0001 TSNO
94908KDBQ DBQ20050412010513804/12/05 01:05:31  5-MIN KDBQ 120705Z AUTO 10014KT 4SM -RA BR BKN005 OVC070 13/12 A2973 1250 93 1400 090/14 RMK AO2 CIG 004V012 P0001 TSNO
94908KDBQ DBQ20050412011013104/12/05 01:10:31  5-MIN KDBQ 120710Z AUTO 10013KT 5SM -RA BR OVC005 13/12 A2973 1260 93 1400 090/13 RMK AO2 CIG 004V012 P0001 TSNO
94908KDBQ DBQ20050412011513804/12/05 01:15:31  5-MIN KDBQ 120715Z AUTO 10014G20KT 5SM -RA BR OVC007  13/12 A2973 1260 93 1400 100/14G20 RMK AO2 CIG 004V012 P0001 TSNO
94908KDBQ DBQ20050412012013804/12/05 01:20:31  5-MIN KDBQ 120720Z AUTO 10015G20KT 5SM -RA BR OVC007  13/12 A2972 1260 93 1400 100/15G20 RMK AO2 CIG 004V010 P0001 TSNO
94908KDBQ DBQ20050412012513104/12/05 01:25:31  5-MIN KDBQ 120725Z AUTO 10015KT 4SM -RA BR OVC007 13/12 A2972 1270 93 1400 100/15 RMK AO2 CIG 004V010 P0001 TSNO
94908KDBQ DBQ20050412013013804/12/05 01:30:31  5-MIN KDBQ 120730Z AUTO 10017KT 5SM -RA BR BKN007 OVC011 13/12 A2972 1270 93 1300 090/17 RMK AO2 CIG 005V009 P0001 TSNO
94908KDBQ DBQ20050412013514504/12/05 01:35:31  5-MIN KDBQ 120735Z AUTO 10015G20KT 5SM -RA BR BKN009  OVC013 13/12 A2972 1270 93 1300 100/15G20 RMK AO2 CIG 005V012 P0001 TSNO
94908KDBQ DBQ20050412014014104/12/05 01:40:31  5-MIN KDBQ 120740Z AUTO 09016KT 6SM BR BKN009 OVC013  13/12 A2971 1270 93 1300 090/16 RMK AO2 RAE37 CIG 005V012 P0001 TSNO
94908KDBQ DBQ20050412014512204/12/05 01:45:31  5-MIN KDBQ 120745Z AUTO 10017KT 6SM BR OVC011 13/11  A2972 1270 89 1300 090/17 RMK AO2 RAE37 P0001 TSNO
94908KDBQ DBQ20050412015015004/12/05 01:50:31  5-MIN KDBQ 120750Z AUTO 09017KT 6SM -RA BR FEW007 BKN011 OVC060 12/11 A2971 1270 93 1300 090/17 RMK AO2 SLP061 P0001 T01220111 TSNO
94908KDBQ DBQ20050412015514304/12/05 01:55:31  5-MIN KDBQ 120755Z AUTO 10015KT 6SM -RA BR BKN011 OVC060 12/11 A2971 1270 89 1300 100/15 RMK AO2 SLP061 P0001 T01220106 TSNO
94908KDBQ DBQ20050412020012604/12/05 02:00:31  5-MIN KDBQ 120800Z AUTO 10017KT 5SM -RA BR SCT011 OVC055 12/11 A2972 1270 89 1300 100/17 RMK AO2 P0001 TSNO
94908KDBQ DBQ20050412020513204/12/05 02:05:31  5-MIN KDBQ 120805Z AUTO 10017G24KT 4SM RA BR SCT011  OVC055 12/10 A2972 1260 89 1200 100/17G24 RMK AO2 P0001 TSNO
94908KDBQ DBQ20050412021013904/12/05 02:10:31  5-MIN KDBQ 120810Z AUTO 10016G24KT 4SM RA BR FEW013  BKN050 OVC055 12/10 A2972 1270 89 1200 100/16G24 RMK AO2 P0002 TSNO
94908KDBQ DBQ20050412021514004/12/05 02:15:31  5-MIN KDBQ 120815Z AUTO 10015G21KT 5SM -RA BR FEW033  BKN048 OVC055 12/10 A2972 1260 89 1200 100/15G21 RMK AO2 P0002 TSNO
94908KDBQ DBQ20050412022013904/12/05 02:20:31  5-MIN KDBQ 120820Z AUTO 10015G20KT 5SM RA BR SCT033  BKN048 OVC055 12/09 A2972 1260 86 1200 100/15G20 RMK AO2 P0003 TSNO
94908KDBQ DBQ20050412022513204/12/05 02:25:31  5-MIN KDBQ 120825Z AUTO 10015G21KT 4SM RA BR SCT031  OVC046 11/09 A2971 1270 89 1100 100/15G21 RMK AO2 P0003 TSNO
94908KDBQ DBQ20050412023013204/12/05 02:30:31  5-MIN KDBQ 120830Z AUTO 09016G21KT 4SM RA BR FEW031  OVC046 11/09 A2971 1270 89 1100 090/16G21 RMK AO2 P0004 TSNO
94908KDBQ DBQ20050412023512504/12/05 02:35:31  5-MIN KDBQ 120835Z AUTO 10018KT 4SM RA BR FEW031 OVC045 11/09 A2971 1270 86 1100 100/18 RMK AO2 P0005 TSNO
94908KDBQ DBQ20050412024013204/12/05 02:40:31  5-MIN KDBQ 120840Z AUTO 10014G22KT 4SM RA BR FEW031  OVC045 11/08 A2971 1270 86 1100 100/14G22 RMK AO2 P0005 TSNO
94908KDBQ DBQ20050412024513304/12/05 02:45:31  5-MIN KDBQ 120845Z AUTO 10015KT 5SM -RA BR FEW031 BKN045 OVC055 11/08 A2971 1270 86 1100 100/15 RMK AO2 P0006 TSNO
94908KDBQ DBQ20050412025016304/12/05 02:50:31  5-MIN KDBQ 120850Z AUTO 10016KT 6SM -RA BR FEW037 BKN043 OVC055 11/08 A2972 1260 86 1100 100/16 RMK AO2 SLP065 P0006 60010  T01060083 58006 TSNO
94908KDBQ DBQ20050412025515504/12/05 02:55:31  5-MIN KDBQ 120855Z AUTO 10015KT 6SM -RA BR FEW027 OVC046 11/08 A2972 1270 86 1100 100/15 RMK AO2 SLP064 P0006 60010 T01060083 55010 TSNO
94908KDBQ DBQ20050412030013604/12/05 03:00:31  5-MIN KDBQ 120900Z AUTO 09016G21KT 5SM -RA FEW027 BKN046 OVC085 11/08 A2971 1270 83 1100 090/16G21 RMK AO2 P0000 TSNO
94908KDBQ DBQ20050412030513304/12/05 03:05:31  5-MIN KDBQ 120905Z AUTO 09017KT 5SM -RA BR FEW033 BKN050 OVC070 10/08 A2970 1280 86 1000 090/17 RMK AO2 P0001 TSNO
94908KDBQ DBQ20050412031013604/12/05 03:10:31  5-MIN KDBQ 120910Z AUTO 10019G24KT 5SM -RA FEW033 BKN050 OVC070 10/07 A2971 1280 83 1000 100/19G24 RMK AO2 P0001 TSNO
94908KDBQ DBQ20050412031513504/12/05 03:15:31  5-MIN KDBQ 120915Z AUTO 10018G24KT 5SM RA FEW031 BKN050 OVC070 10/07 A2971 1280 83 1000 100/18G24 RMK AO2 P0002 TSNO
94908KDBQ DBQ20050412032013004/12/05 03:20:31  5-MIN KDBQ 120920Z AUTO 10019KT 5SM RA FEW026 BKN047  OVC070 09/07 A2971 1280 83 1000 100/19 RMK AO2 P0003 TSNO
94908KDBQ DBQ20050412032513104/12/05 03:25:31  5-MIN KDBQ 120925Z AUTO 10018KT 5SM RA BR FEW026 BKN049 OVC080 09/07 A2970 1280 86 900 100/18 RMK AO2 P0004 TSNO
94908KDBQ DBQ20050412033013204/12/05 03:30:31  5-MIN KDBQ 120930Z AUTO 09017KT 5SM -RA BR FEW028 BKN049 OVC070 09/07 A2970 1280 86 900 090/17 RMK AO2 P0005 TSNO
94908KDBQ DBQ20050412033513004/12/05 03:35:31  5-MIN KDBQ 120935Z AUTO 09017KT 7SM -RA FEW028 BKN049  OVC070 09/06 A2970 1280 83 900 090/17 RMK AO2 P0005 TSNO
94908KDBQ DBQ20050412034013004/12/05 03:40:31  5-MIN KDBQ 120940Z AUTO 09018KT 9SM -RA FEW028 BKN040  OVC090 09/06 A2970 1290 83 900 090/18 RMK AO2 P0005 TSNO
94908KDBQ DBQ20050412034513004/12/05 03:45:31  5-MIN KDBQ 120945Z AUTO 10017KT 8SM -RA SCT038 BKN050  OVC090 09/06 A2970 1290 83 900 100/17 RMK AO2 P0005 TSNO
94908KDBQ DBQ20050412035014704/12/05 03:50:31  5-MIN KDBQ 120950Z AUTO 10016KT 7SM -RA SCT039 BKN070  OVC085 09/06 A2970 1290 83 900 100/16 RMK AO2 SLP057 P0005 T00890061 TSNO
94908KDBQ DBQ20050412035515304/12/05 03:55:31  5-MIN KDBQ 120955Z AUTO 09020G25KT 6SM -RA FEW037 BKN070 OVC085 09/06 A2969 1290 83 900 090/20G25 RMK AO2 SLP055 P0005 T00890061  TSNO
94908KDBQ DBQ20050412040013904/12/05 04:00:31  5-MIN KDBQ 121000Z AUTO 09016G25KT 6SM -RA BR FEW037  BKN065 OVC085 08/06 A2969 1290 86 800 090/16G25 RMK AO2 P0000 TSNO
94908KDBQ DBQ20050412040513504/12/05 04:05:31  5-MIN KDBQ 121005Z AUTO 09019G25KT 7SM -RA SCT055 BKN070 OVC085 08/06 A2969 1290 86 800 090/19G25 RMK AO2 P0000 TSNO
94908KDBQ DBQ20050412041013504/12/05 04:10:31  5-MIN KDBQ 121010Z AUTO 09018G25KT 8SM -RA FEW047 BKN055 OVC085 08/06 A2969 1290 82 800 090/18G25 RMK AO2 P0000 TSNO
94908KDBQ DBQ20050412041513004/12/05 04:15:31  5-MIN KDBQ 121015Z AUTO 09019KT 8SM -RA FEW049 BKN060  OVC080 08/06 A2969 1290 82 800 090/19 RMK AO2 P0000 TSNO
94908KDBQ DBQ20050412042015404/12/05 04:20:31  5-MIN KDBQ 121020Z AUTO 10021G27KT 7SM -RA FEW038 BKN060 OVC080 08/05 A2969 1300 79 800 100/21G27 RMK AO2 PK WND 09027/1019 P0000  TSNO
94908KDBQ DBQ20050412042515404/12/05 04:25:31  5-MIN KDBQ 121025Z AUTO 10020G27KT 7SM -RA FEW038 BKN060 OVC080 08/06 A2969 1290 82 800 100/20G27 RMK AO2 PK WND 09027/1019 P0000  TSNO
94908KDBQ DBQ20050412043015704/12/05 04:30:31  5-MIN KDBQ 121030Z AUTO 10021G25KT 6SM RA BR SCT040  BKN047 OVC060 08/06 A2969 1290 86 800 090/21G25 RMK AO2 PK WND 09027/1019  P0002 TSNO
94908KDBQ DBQ20050412043515404/12/05 04:35:31  5-MIN KDBQ 121035Z AUTO 09019G26KT 7SM -RA SCT040 BKN048 OVC060 08/06 A2969 1300 86 800 090/19G26 RMK AO2 PK WND 09027/1019 P0003  TSNO
94908KDBQ DBQ20050412044014204/12/05 04:40:31  5-MIN KDBQ 121040Z 09020G26KT 6SM -RA BKN044 OVC060  08/05 A2969 1290 82 800 090/20G26 RMK AO2 PK WND 09027/1019 P0003 TSNO
94908KDBQ DBQ20050412044513704/12/05 04:45:31  5-MIN KDBQ 121045Z 09019G24KT 5SM -RA BKN044 OVC080  08/05 A2969 1290 82 800 090/19G24 RMK AO2 PK WND 09027/1019 P0003
94908KDBQ DBQ20050412045015504/12/05 04:50:31  5-MIN KDBQ 121050Z 10016G26KT 6SM -RA FEW033 OVC046  08/05 A2969 1290 82 800 090/16G26 RMK AO2 PK WND 09027/1019 SLP055 P0004  T00780050
94908KDBQ DBQ20050412045515504/12/05 04:55:31  5-MIN KDBQ 121055Z 09016G26KT 8SM -RA SCT039 OVC046  08/04 A2969 1290 79 800 090/16G26 RMK AO2 PK WND 09027/1019 SLP055 P0004  T00780044
94908KDBQ DBQ20050412050011904/12/05 05:00:31  5-MIN KDBQ 121100Z 10015G24KT 9SM -RA BKN037 OVC046  08/04 A2969 1290 79 800 100/15G24 RMK AO2 P0000
94908KDBQ DBQ20050412050511904/12/05 05:05:31  5-MIN KDBQ 121105Z 10014G24KT 8SM -RA BKN039 OVC046  08/04 A2970 1290 79 800 100/14G24 RMK AO2 P0000
94908KDBQ DBQ20050412051012004/12/05 05:10:31  5-MIN KDBQ 121110Z 18014KT 7SM -RA SCT034 OVC043 08/04  A2974 1240 79 700 180/14 RMK AO2 PRESRR P0000
94908KDBQ DBQ20050412051512804/12/05 05:15:31  5-MIN KDBQ 121115Z 15011G20KT 6SM RA SCT034 OVC041 08/05 A2974 1240 82 700 150/11G20 RMK AO2 WSHFT 1059 P0001
94908KDBQ DBQ20050412052013104/12/05 05:20:31  5-MIN KDBQ 121120Z 19014KT 4SM +RA FEW030 OVC041 08/05  A2976 1230 82 700 190/14 RMK AO2 WSHFT 1059 PRESRR P0003
94908KDBQ DBQ20050412052512704/12/05 05:25:31  5-MIN KDBQ 121125Z 14009KT 3SM +RA BR FEW031 OVC041  07/06 A2975 1240 89 600 140/09 RMK AO2 WSHFT 1059 P0005
94908KDBQ DBQ20050412053013304/12/05 05:30:31  5-MIN KDBQ 121130Z 15009KT 3SM RA BR FEW024 BKN043  OVC050 07/05 A2976 1230 86 600 150/09 RMK AO2 WSHFT 1059 P0007
94908KDBQ DBQ20050412053513304/12/05 05:35:31  5-MIN KDBQ 121135Z 15010KT 4SM RA BR FEW027 BKN041  OVC050 07/05 A2975 1230 86 600 150/10 RMK AO2 WSHFT 1059 P0008
94908KDBQ DBQ20050412054012704/12/05 05:40:31  5-MIN KDBQ 121140Z 14010KT 4SM +RA BR BKN041 OVC050  07/05 A2975 1240 86 600 130/10 RMK AO2 WSHFT 1059 P0010
94908KDBQ DBQ20050412054513304/12/05 05:45:31  5-MIN KDBQ 121145Z 12011KT 3SM RA BR FEW030 BKN045  OVC055 07/05 A2975 1240 89 600 120/11 RMK AO2 WSHFT 1059 P0011
94908KDBQ DBQ20050412055018004/12/05 05:50:31  5-MIN KDBQ 121150Z 11012KT 4SM RA BR FEW034 SCT043  OVC055 07/05 A2974 1240 89 600 110/12 RMK AO2 WSHFT 1059 SLP073 P0013 60032 70077 T00670050 10139 20067 55010
94908KDBQ DBQ20050412055518004/12/05 05:55:31  5-MIN KDBQ 121155Z 11011KT 3SM RA BR FEW040 BKN050  OVC060 07/05 A2974 1250 89 600 110/11 RMK AO2 WSHFT 1059 SLP072 P0014 60033 70078 T00670050 10139 20067 53007
94908KDBQ DBQ20050412060011404/12/05 06:00:31  5-MIN KDBQ 121200Z 11014KT 4SM RA BR FEW043 OVC060 07/05 A2973 1250 89 600 100/14 RMK AO2 P0002
94908KDBQ DBQ20050412060511404/12/05 06:05:31  5-MIN KDBQ 121205Z 10014KT 3SM RA BR FEW040 OVC060 07/05 A2973 1250 89 600 100/14 RMK AO2 P0002
94908KDBQ DBQ20050412061011404/12/05 06:10:31  5-MIN KDBQ 121210Z 11015KT 3SM RA BR FEW040 OVC060 07/05 A2973 1250 89 600 100/15 RMK AO2 P0003
94908KDBQ DBQ20050412061511404/12/05 06:15:31  5-MIN KDBQ 121215Z 10013KT 3SM RA BR FEW040 OVC065 07/05 A2973 1250 89 600 100/13 RMK AO2 P0004
94908KDBQ DBQ20050412062011404/12/05 06:20:31  5-MIN KDBQ 121220Z 11012KT 3SM RA BR FEW038 OVC065 07/05 A2973 1250 89 600 100/12 RMK AO2 P0006
94908KDBQ DBQ20050412062511604/12/05 06:25:31  5-MIN KDBQ 121225Z 10015KT 3SM -RA BR FEW036 OVC070  07/05 A2974 1250 89 600 100/15 RMK AO2 P0007
94908KDBQ DBQ20050412063011604/12/05 06:30:31  5-MIN KDBQ 121230Z 11016KT 4SM -RA BR FEW047 OVC070  07/05 A2973 1250 89 600 110/16 RMK AO2 P0008
94908KDBQ DBQ20050412063511404/12/05 06:35:31  5-MIN KDBQ 121235Z 10016KT 4SM RA BR SCT043 OVC070 07/05 A2973 1250 89 600 100/16 RMK AO2 P0008
94908KDBQ DBQ20050412064011404/12/05 06:40:31  5-MIN KDBQ 121240Z 10016KT 3SM RA BR BKN038 OVC075 07/05 A2974 1250 89 600 100/16 RMK AO2 P0009
94908KDBQ DBQ20050412064512204/12/05 06:45:31  5-MIN KDBQ 121245Z 10019G25KT 4SM -RA BR BKN036 OVC075  07/05 A2973 1250 89 600 100/19G25 RMK AO2 P0009
94908KDBQ DBQ20050412065013804/12/05 06:50:31  5-MIN KDBQ 121250Z 10017G25KT 4SM RA BR BKN036 OVC075  07/06 A2973 1260 93 600 100/17G25 RMK AO2 SLP068 P0010 T00670056
94908KDBQ DBQ20050412065513304/12/05 06:55:31  5-MIN KDBQ 121255Z 10017KT 4SM -RA BR BKN036 OVC070  07/05 A2972 1260 89 600 100/17 RMK AO2 SLP067 P0012 T00670050
94908KDBQ DBQ20050412070011604/12/05 07:00:31  5-MIN KDBQ 121300Z 09015KT 4SM -RA BR SCT036 OVC065  06/05 A2972 1260 93 500 090/15 RMK AO2 P0000
94908KDBQ DBQ20050412070511604/12/05 07:05:31  5-MIN KDBQ 121305Z 08015KT 5SM -RA BR SCT038 OVC065  06/05 A2971 1270 93 500 080/15 RMK AO2 P0000
94908KDBQ DBQ20050412071011604/12/05 07:10:31  5-MIN KDBQ 121310Z 08015KT 4SM +RA BR BKN036 OVC065  06/06 A2971 1270 96 500 080/15 RMK AO2 P0001
94908KDBQ DBQ20050412071511404/12/05 07:15:31  5-MIN KDBQ 121315Z 08016KT 3SM RA BR BKN033 OVC065 06/06 A2971 1280 96 600 080/16 RMK AO2 P0004
94908KDBQ DBQ20050412072012204/12/05 07:20:31  5-MIN KDBQ 121320Z 08015KT 3SM RA BR BKN031 BKN065  OVC110 06/06 A2971 1270 96 500 080/15 RMK AO2 P0005
94908KDBQ DBQ20050412072512304/12/05 07:25:31  5-MIN KDBQ 121325Z 08014KT 4SM -RA BR FEW010 BKN031  OVC065 07/06 A2970 1280 93 600 080/14 RMK AO2 P0005
94908KDBQ DBQ20050412073011604/12/05 07:30:31  5-MIN KDBQ 121330Z 07014KT 6SM -RA BR SCT010 BKN031  06/05 A2970 1280 93 600 070/14 RMK AO2 P0005
94908KDBQ DBQ20050412073511804/12/05 07:35:31  5-MIN KDBQ 121335Z 08013KT 6SM BR SCT010 BKN029 07/05  A2970 1280 89 600 080/13 RMK AO2 RAE32 P0005
94908KDBQ DBQ20050412074011804/12/05 07:40:31  5-MIN KDBQ 121340Z 08016KT 6SM BR SCT010 BKN027 07/05  A2969 1290 89 600 080/16 RMK AO2 RAE32 P0005
94908KDBQ DBQ20050412123509604/12/05 12:35:31  5-MIN KDBQ 121835Z 06008KT 9SM OVC012 08/05 A2979 1200  82 700 060/08 RMK AO2
94908KDBQ DBQ20050412124009604/12/05 12:40:31  5-MIN KDBQ 121840Z 03007KT 9SM OVC012 08/06 A2979 1200  82 700 030/07 RMK AO2
94908KDBQ DBQ20050412124509604/12/05 12:45:31  5-MIN KDBQ 121845Z 06007KT 9SM OVC012 08/05 A2979 1200  82 700 060/07 RMK AO2
94908KDBQ DBQ20050412125011304/12/05 12:50:31  5-MIN KDBQ 121850Z 05010KT 9SM OVC012 08/05 A2979 1200  82 700 050/10 RMK AO2 SLP089 T00780050
94908KDBQ DBQ20050412125511304/12/05 12:55:31  5-MIN KDBQ 121855Z 05009KT 9SM OVC012 08/05 A2979 1200  82 700 050/09 RMK AO2 SLP089 T00780050
94908KDBQ DBQ20050412130009604/12/05 13:00:31  5-MIN KDBQ 121900Z 05010KT 9SM OVC012 08/05 A2979 1200  82 700 050/10 RMK AO2
94908KDBQ DBQ20050412130509604/12/05 13:05:31  5-MIN KDBQ 121905Z 06008KT 8SM OVC012 08/05 A2979 1200  82 700 060/08 RMK AO2
94908KDBQ DBQ20050412131009604/12/05 13:10:31  5-MIN KDBQ 121910Z 03010KT 7SM OVC012 08/05 A2979 1200  82 700 030/10 RMK AO2
94908KDBQ DBQ20050412131509904/12/05 13:15:31  5-MIN KDBQ 121915Z 04011KT 6SM BR OVC012 07/05 A2979  1200 86 600 040/11 RMK AO2
94908KDBQ DBQ20050412132009904/12/05 13:20:31  5-MIN KDBQ 121920Z 05012KT 5SM BR OVC012 07/05 A2979  1200 86 600 050/12 RMK AO2
94908KDBQ DBQ20050412132509904/12/05 13:25:31  5-MIN KDBQ 121925Z 05011KT 5SM BR OVC012 07/05 A2979  1200 86 600 050/11 RMK AO2
94908KDBQ DBQ20050412133011104/12/05 13:30:31  5-MIN KDBQ 121930Z 03012KT 5SM BR OVC010 07/05 A2980  1190 86 600 030/12 RMK AO2 CIG 007V012
94908KDBQ DBQ20050412133512604/12/05 13:35:31  5-MIN KDBQ 121935Z 05012KT 4SM -RA BR OVC010 07/05 A2980 1190 89 500 050/12 RMK AO2 RAB35 CIG 007V012 P0000
94908KDBQ DBQ20050412134012204/12/05 13:40:31  5-MIN KDBQ 121940Z 05010KT 5SM -RA BR BKN007 OVC010  07/05 A2980 1190 89 500 050/10 RMK AO2 RAB35 P0000
94908KDBQ DBQ20050412134511404/12/05 13:45:31  5-MIN KDBQ 121945Z 04012KT 5SM -RA BR OVC007 07/05 A2980 1190 89 500 040/12 RMK AO2 RAB35 P0000
94908KDBQ DBQ20050412135013104/12/05 13:50:31  5-MIN KDBQ 121950Z 04010KT 6SM BR OVC007 07/05 A2980  1190 89 500 040/10 RMK AO2 RAB35E46 SLP094 P0000 T00670050
94908KDBQ DBQ20050412135513104/12/05 13:55:31  5-MIN KDBQ 121955Z 04011KT 5SM BR OVC007 07/05 A2980  1190 89 500 040/11 RMK AO2 RAB35E46 SLP094 P0000 T00670050
94908KDBQ DBQ20050412140009904/12/05 14:00:31  5-MIN KDBQ 122000Z 04011KT 6SM BR OVC007 07/05 A2980  1190 89 500 040/11 RMK AO2
94908KDBQ DBQ20050412140509904/12/05 14:05:31  5-MIN KDBQ 122005Z 04012KT 6SM BR OVC007 07/06 A2980  1190 93 500 040/12 RMK AO2
94908KDBQ DBQ20050412141009904/12/05 14:10:31  5-MIN KDBQ 122010Z 03012KT 6SM BR OVC007 07/06 A2980  1190 89 600 030/12 RMK AO2
94908KDBQ DBQ20050412141509904/12/05 14:15:31  5-MIN KDBQ 122015Z 04011KT 6SM BR OVC007 07/06 A2980  1190 89 600 040/11 RMK AO2
94908KDBQ DBQ20050412142009904/12/05 14:20:31  5-MIN KDBQ 122020Z 04011KT 6SM BR OVC007 07/06 A2980  1190 89 600 040/11 RMK AO2
94908KDBQ DBQ20050412142509904/12/05 14:25:31  5-MIN KDBQ 122025Z 04011KT 6SM BR OVC007 07/06 A2980  1190 89 600 040/11 RMK AO2
94908KDBQ DBQ20050412143010404/12/05 14:30:31  5-MIN KDBQ 122030Z 05012G18KT 6SM BR OVC007 07/06 A2979 1200 89 600 040/12G18 RMK AO2
94908KDBQ DBQ20050412143509904/12/05 14:35:31  5-MIN KDBQ 122035Z 05012KT 6SM BR OVC007 07/06 A2979  1200 89 600 040/12 RMK AO2
94908KDBQ DBQ20050412144009904/12/05 14:40:31  5-MIN KDBQ 122040Z 05015KT 6SM BR OVC007 07/06 A2979  1200 89 600 040/15 RMK AO2
94908KDBQ DBQ20050412144509904/12/05 14:45:31  5-MIN KDBQ 122045Z 05015KT 6SM BR OVC007 07/06 A2979  1200 89 600 040/15 RMK AO2
94908KDBQ DBQ20050412145012804/12/05 14:50:31  5-MIN KDBQ 122050Z 05016KT 6SM BR OVC007 07/05 A2979  1200 86 600 050/16 RMK AO2 SLP092 60000 T00720050 51020
94908KDBQ DBQ20050412145512804/12/05 14:55:31  5-MIN KDBQ 122055Z 05015KT 6SM BR OVC007 07/06 A2979  1200 89 600 040/15 RMK AO2 SLP091 60000 T00720056 50001
94908KDBQ DBQ20050412150009904/12/05 15:00:31  5-MIN KDBQ 122100Z 05015KT 6SM BR OVC007 07/06 A2979  1200 89 600 050/15 RMK AO2
94908KDBQ DBQ20050412150509904/12/05 15:05:31  5-MIN KDBQ 122105Z 05016KT 6SM BR OVC007 07/06 A2979  1200 89 600 050/16 RMK AO2
94908KDBQ DBQ20050412151009904/12/05 15:10:31  5-MIN KDBQ 122110Z 05015KT 6SM BR OVC007 07/05 A2978  1200 86 600 040/15 RMK AO2
94908KDBQ DBQ20050412151509904/12/05 15:15:31  5-MIN KDBQ 122115Z 04015KT 5SM BR OVC007 07/06 A2978  1200 89 600 040/15 RMK AO2
94908KDBQ DBQ20050412152009904/12/05 15:20:31  5-MIN KDBQ 122120Z 04015KT 5SM BR OVC007 07/05 A2978  1200 86 600 040/15 RMK AO2
94908KDBQ DBQ20050412152509904/12/05 15:25:31  5-MIN KDBQ 122125Z 04016KT 5SM BR OVC007 07/05 A2979  1200 86 600 040/16 RMK AO2
94908KDBQ DBQ20050412153009904/12/05 15:30:31  5-MIN KDBQ 122130Z 04015KT 5SM BR OVC007 07/05 A2979  1200 86 600 040/15 RMK AO2
94908KDBQ DBQ20050412153509904/12/05 15:35:31  5-MIN KDBQ 122135Z 04017KT 5SM BR OVC007 07/05 A2979  1200 86 600 040/17 RMK AO2
94908KDBQ DBQ20050412154009904/12/05 15:40:31  5-MIN KDBQ 122140Z 05013KT 5SM BR OVC007 07/05 A2979  1200 86 600 050/13 RMK AO2
94908KDBQ DBQ20050412154509904/12/05 15:45:31  5-MIN KDBQ 122145Z 05014KT 5SM BR OVC007 07/05 A2979  1200 86 600 040/14 RMK AO2
94908KDBQ DBQ20050412155011604/12/05 15:50:31  5-MIN KDBQ 122150Z 05016KT 6SM BR OVC007 07/05 A2980  1190 89 500 050/16 RMK AO2 SLP095 T00670050
94908KDBQ DBQ20050412155511604/12/05 15:55:31  5-MIN KDBQ 122155Z 04015KT 6SM BR OVC007 07/05 A2980  1190 89 500 040/15 RMK AO2 SLP096 T00670050
94908KDBQ DBQ20050412160009604/12/05 16:00:31  5-MIN KDBQ 122200Z 05013KT 7SM OVC007 07/05 A2980 1190  86 600 050/13 RMK AO2
94908KDBQ DBQ20050412160509604/12/05 16:05:31  5-MIN KDBQ 122205Z 05014KT 7SM OVC007 07/05 A2980 1190  86 600 050/14 RMK AO2
94908KDBQ DBQ20050412161009604/12/05 16:10:31  5-MIN KDBQ 122210Z 05015KT 7SM OVC009 07/05 A2981 1180  86 600 050/15 RMK AO2
94908KDBQ DBQ20050412161509604/12/05 16:15:31  5-MIN KDBQ 122215Z 06012KT 8SM OVC009 07/05 A2981 1180  86 600 060/12 RMK AO2
94908KDBQ DBQ20050412162009604/12/05 16:20:31  5-MIN KDBQ 122220Z 06014KT 8SM OVC009 07/05 A2982 1170  86 600 060/14 RMK AO2
94908KDBQ DBQ20050412162509604/12/05 16:25:31  5-MIN KDBQ 122225Z 05011KT 8SM OVC009 07/05 A2982 1170  86 600 050/11 RMK AO2
94908KDBQ DBQ20050412163009604/12/05 16:30:31  5-MIN KDBQ 122230Z 05010KT 8SM OVC009 07/05 A2982 1170  86 600 050/10 RMK AO2
94908KDBQ DBQ20050412163509604/12/05 16:35:31  5-MIN KDBQ 122235Z 06010KT 8SM OVC009 07/05 A2982 1170  86 600 060/10 RMK AO2
94908KDBQ DBQ20050412164009604/12/05 16:40:31  5-MIN KDBQ 122240Z 05012KT 8SM OVC009 07/05 A2983 1170  89 500 050/12 RMK AO2
94908KDBQ DBQ20050412164509604/12/05 16:45:31  5-MIN KDBQ 122245Z 04012KT 8SM OVC009 07/04 A2983 1160  86 500 040/12 RMK AO2
94908KDBQ DBQ20050412165011304/12/05 16:50:31  5-MIN KDBQ 122250Z 05011KT 8SM OVC009 07/04 A2983 1160  86 500 050/11 RMK AO2 SLP107 T00670044
94908KDBQ DBQ20050412165511304/12/05 16:55:31  5-MIN KDBQ 122255Z 06012KT 8SM OVC009 07/04 A2983 1160  86 500 060/12 RMK AO2 SLP107 T00670044
94908KDBQ DBQ20050412170010204/12/05 17:00:31  5-MIN KDBQ 122300Z 05010G17KT 8SM OVC009 07/04 A2983  1160 86 500 050/10G17 RMK AO2
94908KDBQ DBQ20050412170510204/12/05 17:05:31  5-MIN KDBQ 122305Z 05007G17KT 8SM OVC009 07/05 A2983  1160 89 500 050/07G17 RMK AO2
94908KDBQ DBQ20050412171009604/12/05 17:10:31  5-MIN KDBQ 122310Z 05008KT 8SM OVC009 07/05 A2983 1160  89 500 050/08 RMK AO2
94908KDBQ DBQ20050412171509604/12/05 17:15:31  5-MIN KDBQ 122315Z 05011KT 8SM OVC009 07/04 A2983 1160  86 500 050/11 RMK AO2
94908KDBQ DBQ20050412172009604/12/05 17:20:31  5-MIN KDBQ 122320Z 04010KT 8SM OVC009 07/04 A2984 1160  86 500 040/10 RMK AO2
94908KDBQ DBQ20050412172510204/12/05 17:25:31  5-MIN KDBQ 122325Z 05014G17KT 9SM OVC011 07/04 A2984  1150 86 500 050/14G17 RMK AO2
94908KDBQ DBQ20050412173009604/12/05 17:30:31  5-MIN KDBQ 122330Z 06012KT 8SM OVC011 07/04 A2984 1150  86 500 060/12 RMK AO2
94908KDBQ DBQ20050412173509604/12/05 17:35:31  5-MIN KDBQ 122335Z 06014KT 8SM OVC011 07/04 A2984 1150  86 500 060/14 RMK AO2
94908KDBQ DBQ20050412174011904/12/05 17:40:31  5-MIN KDBQ 122340Z 05014KT 7SM -RA BKN011 OVC016 07/04  A2984 1150 86 500 050/14 RMK AO2 RAB38 P0000
94908KDBQ DBQ20050412174511904/12/05 17:45:31  5-MIN KDBQ 122345Z 05010KT 7SM -RA BKN011 OVC016 07/04  A2984 1150 86 500 040/10 RMK AO2 RAB38 P0000
94908KDBQ DBQ20050412175015404/12/05 17:50:31  5-MIN KDBQ 122350Z 05011KT 7SM -RA OVC011 07/04 A2985  1150 86 500 050/11 RMK AO2 RAB38 SLP113 P0000 60000 T00670044 10083 20067  50001
94908KDBQ DBQ20050412175515504/12/05 17:55:31  5-MIN KDBQ 122355Z 05015KT 6SM -RA BR OVC011 06/04 A2985 1140 89 400 050/15 RMK AO2 RAB38 SLP114 P0000 60000 T00610044 10083 20061 53020
94908KDBQ DBQ20050412180012204/12/05 18:00:31  5-MIN KDBQ 130000Z 05013G20KT 5SM -RA BR BKN011 OVC016  06/04 A2985 1140 89 400 050/13G20 RMK AO2 P0000
94908KDBQ DBQ20050412180512204/12/05 18:05:31  5-MIN KDBQ 130005Z 05011G20KT 5SM -RA BR BKN011 OVC016  06/04 A2985 1140 86 400 050/11G20 RMK AO2 P0000
94908KDBQ DBQ20050412181012304/12/05 18:10:31  5-MIN KDBQ 130010Z 05011KT 6SM -RA BR SCT011 BKN016  OVC022 06/04 A2986 1140 89 400 050/11 RMK AO2 P0000
94908KDBQ DBQ20050412181511604/12/05 18:15:31  5-MIN KDBQ 130015Z 05012KT 6SM -RA BR SCT011 OVC018  06/04 A2986 1140 86 400 050/12 RMK AO2 P0001
94908KDBQ DBQ20050412182011604/12/05 18:20:31  5-MIN KDBQ 130020Z 05014KT 6SM -RA BR FEW011 OVC018  06/04 A2986 1130 86 400 050/14 RMK AO2 P0001
94908KDBQ DBQ20050412182510804/12/05 18:25:31  5-MIN KDBQ 130025Z 05013KT 6SM -RA BR OVC018 06/04 A2986 1130 86 400 040/13 RMK AO2 P0001
94908KDBQ DBQ20050412183010804/12/05 18:30:31  5-MIN KDBQ 130030Z 04012KT 5SM -RA BR OVC020 06/04 A2986 1130 89 300 040/12 RMK AO2 P0001
94908KDBQ DBQ20050412183510804/12/05 18:35:31  5-MIN KDBQ 130035Z 04010KT 5SM -RA BR OVC020 06/04 A2987 1130 89 300 040/10 RMK AO2 P0001
94908KDBQ DBQ20050412184010804/12/05 18:40:31  5-MIN KDBQ 130040Z 04012KT 5SM -RA BR OVC020 06/04 A2987 1130 89 300 040/12 RMK AO2 P0001
94908KDBQ DBQ20050412184510804/12/05 18:45:31  5-MIN KDBQ 130045Z 04012KT 6SM -RA BR OVC022 06/04 A2987 1120 89 300 040/12 RMK AO2 P0001
94908KDBQ DBQ20050412185012304/12/05 18:50:31  5-MIN KDBQ 130050Z 04010KT 7SM -RA OVC024 06/04 A2987  1120 89 300 040/10 RMK AO2 SLP122 P0002 T00560039
94908KDBQ DBQ20050412185513304/12/05 18:55:31  5-MIN KDBQ 130055Z AUTO 04011KT 7SM -RA OVC024 06/04  A2987 1120 89 300 040/11 RMK AO2 SLP123 P0002 T00560039 TSNO
94908KDBQ DBQ20050412190011604/12/05 19:00:31  5-MIN KDBQ 130100Z AUTO 05010KT 7SM -RA OVC026 06/04  A2988 1120 89 300 050/10 RMK AO2 P0000 TSNO
94908KDBQ DBQ20050412190512304/12/05 19:05:31  5-MIN KDBQ 130105Z AUTO 04008KT 8SM -RA BKN026 OVC033  06/04 A2988 1120 89 300 040/08 RMK AO2 P0000 TSNO
94908KDBQ DBQ20050412191012304/12/05 19:10:31  5-MIN KDBQ 130110Z AUTO 04009KT 8SM -RA BKN026 OVC035  06/04 A2988 1120 89 300 040/09 RMK AO2 P0000 TSNO
94908KDBQ DBQ20050412191512304/12/05 19:15:31  5-MIN KDBQ 130115Z AUTO 03010KT 8SM -RA SCT028 OVC038  06/04 A2988 1110 89 300 030/10 RMK AO2 P0000 TSNO
94908KDBQ DBQ20050412192013004/12/05 19:20:31  5-MIN KDBQ 130120Z AUTO 03009KT 8SM -RA BKN028 BKN034  OVC041 06/04 A2988 1110 89 300 030/09 RMK AO2 P0000 TSNO
94908KDBQ DBQ20050412192513004/12/05 19:25:31  5-MIN KDBQ 130125Z AUTO 03009KT 8SM -RA BKN028 BKN034  OVC041 06/04 A2988 1120 89 300 030/09 RMK AO2 P0001 TSNO
94908KDBQ DBQ20050412193013004/12/05 19:30:31  5-MIN KDBQ 130130Z AUTO 03009KT 9SM -RA BKN028 BKN034  OVC041 06/04 A2988 1110 89 300 030/09 RMK AO2 P0001 TSNO
94908KDBQ DBQ20050412193512404/12/05 19:35:31  5-MIN KDBQ 130135Z AUTO 02008KT 10SM -RA BKN028 OVC039  06/04 A2988 1110 89 300 020/08 RMK AO2 P0001 TSNO
94908KDBQ DBQ20050412194012404/12/05 19:40:31  5-MIN KDBQ 130140Z AUTO 02009KT 10SM -RA BKN028 OVC041  06/04 A2988 1110 89 300 020/09 RMK AO2 P0001 TSNO
94908KDBQ DBQ20050412194511704/12/05 19:45:31  5-MIN KDBQ 130145Z AUTO 02009KT 10SM -RA OVC030 06/03  A2989 1110 85 300 020/09 RMK AO2 P0001 TSNO
94908KDBQ DBQ20050412195014804/12/05 19:50:31  5-MIN KDBQ 130150Z AUTO 03008KT 10SM -RA BKN030 BKN035  OVC048 06/03 A2989 1100 85 300 030/08 RMK AO2 SLP129 P0001 T00560033 TSNO
94908KDBQ DBQ20050412195514804/12/05 19:55:31  5-MIN KDBQ 130155Z AUTO 02009KT 10SM -RA BKN032 BKN048  OVC075 06/03 A2989 1110 85 300 020/09 RMK AO2 SLP128 P0001 T00560033 TSNO
94908KDBQ DBQ20050412200013004/12/05 20:00:31  5-MIN KDBQ 130200Z AUTO 02008KT 9SM -RA SCT032 BKN048  OVC075 06/03 A2989 1110 85 300 020/08 RMK AO2 P0000 TSNO
94908KDBQ DBQ20050412200513004/12/05 20:05:31  5-MIN KDBQ 130205Z AUTO 02007KT 8SM -RA SCT032 BKN048  OVC075 06/04 A2989 1110 89 300 020/07 RMK AO2 P0000 TSNO
94908KDBQ DBQ20050412201013004/12/05 20:10:31  5-MIN KDBQ 130210Z AUTO 01006KT 8SM -RA FEW034 BKN060  OVC075 06/04 A2989 1110 89 300 010/06 RMK AO2 P0000 TSNO
94908KDBQ DBQ20050412201513004/12/05 20:15:31  5-MIN KDBQ 130215Z AUTO 02008KT 9SM -RA FEW034 BKN080  OVC095 06/04 A2989 1110 89 300 020/08 RMK AO2 P0000 TSNO
94908KDBQ DBQ20050412202013004/12/05 20:20:31  5-MIN KDBQ 130220Z AUTO 01009KT 9SM -RA FEW048 BKN080  OVC095 06/04 A2989 1100 89 300 010/09 RMK AO2 P0000 TSNO
94908KDBQ DBQ20050412202513004/12/05 20:25:31  5-MIN KDBQ 130225Z AUTO 01008KT 9SM -RA FEW032 BKN080  OVC095 06/04 A2989 1100 89 300 010/08 RMK AO2 P0000 TSNO
94908KDBQ DBQ20050412203013004/12/05 20:30:31  5-MIN KDBQ 130230Z AUTO 01008KT 9SM -RA SCT034 BKN050  OVC095 06/04 A2989 1110 89 300 010/08 RMK AO2 P0000 TSNO
94908KDBQ DBQ20050412203513104/12/05 20:35:31  5-MIN KDBQ 130235Z AUTO 01008KT 10SM -RA BKN034 BKN050  OVC095 06/04 A2989 1100 89 300 010/08 RMK AO2 P0000 TSNO
94908KDBQ DBQ20050412204012404/12/05 20:40:31  5-MIN KDBQ 130240Z AUTO 01008KT 10SM -RA BKN036 OVC090  06/04 A2989 1100 89 300 010/08 RMK AO2 P0000 TSNO
94908KDBQ DBQ20050412204512504/12/05 20:45:31  5-MIN KDBQ 130245Z AUTO 01007KT 10SM BKN036 OVC100 06/04 A2989 1100 89 300 010/07 RMK AO2 RAE42 P0000 TSNO
94908KDBQ DBQ20050412205014704/12/05 20:50:31  5-MIN KDBQ 130250Z AUTO 01006KT 10SM OVC036 06/04 A2989 1100 89 300 010/06 RMK AO2 RAE42 SLP129 P0000 60003 T00560039 53020 TSNO
94908KDBQ DBQ20050412205514704/12/05 20:55:31  5-MIN KDBQ 130255Z AUTO 01007KT 10SM OVC036 06/04 A2989 1100 89 300 010/07 RMK AO2 RAE42 SLP129 P0000 60003 T00560039 51014 TSNO
94908KDBQ DBQ20050412210010604/12/05 21:00:31  5-MIN KDBQ 130300Z AUTO 01007KT 9SM OVC038 06/04 A2989  1100 89 300 010/07 RMK AO2 TSNO
94908KDBQ DBQ20050412210510604/12/05 21:05:31  5-MIN KDBQ 130305Z AUTO 01008KT 10SM OVC038 06/04 A2989 1100 86 300 010/08 RMK AO2 TSNO
94908KDBQ DBQ20050412211010604/12/05 21:10:31  5-MIN KDBQ 130310Z AUTO 02008KT 10SM OVC038 06/04 A2990 1100 86 300 020/08 RMK AO2 TSNO
94908KDBQ DBQ20050412211510604/12/05 21:15:31  5-MIN KDBQ 130315Z AUTO 02007KT 10SM OVC040 06/04 A2990 1100 86 300 020/07 RMK AO2 TSNO
94908KDBQ DBQ20050412212010604/12/05 21:20:31  5-MIN KDBQ 130320Z AUTO 01009KT 10SM OVC040 06/04 A2990 1100 86 300 010/09 RMK AO2 TSNO
94908KDBQ DBQ20050412212510604/12/05 21:25:31  5-MIN KDBQ 130325Z AUTO 02009KT 10SM OVC040 06/04 A2990 1100 86 300 020/09 RMK AO2 TSNO
94908KDBQ DBQ20050412213010604/12/05 21:30:31  5-MIN KDBQ 130330Z AUTO 02008KT 10SM OVC040 06/04 A2990 1100 86 300 020/08 RMK AO2 TSNO
94908KDBQ DBQ20050412213510604/12/05 21:35:31  5-MIN KDBQ 130335Z AUTO 02008KT 10SM OVC042 06/04 A2990 1100 86 300 020/08 RMK AO2 TSNO
94908KDBQ DBQ20050412214010604/12/05 21:40:31  5-MIN KDBQ 130340Z AUTO 02008KT 10SM OVC042 06/04 A2990 1100 86 300 020/08 RMK AO2 TSNO
94908KDBQ DBQ20050412214510604/12/05 21:45:31  5-MIN KDBQ 130345Z AUTO 02008KT 10SM OVC042 06/04 A2990 1100 86 300 020/08 RMK AO2 TSNO
94908KDBQ DBQ20050412215012304/12/05 21:50:31  5-MIN KDBQ 130350Z AUTO 02008KT 10SM OVC044 06/04 A2990 1100 89 300 020/08 RMK AO2 SLP131 T00610044 TSNO
94908KDBQ DBQ20050412215512304/12/05 21:55:31  5-MIN KDBQ 130355Z AUTO 02008KT 10SM OVC044 06/04 A2990 1090 89 300 020/08 RMK AO2 SLP132 T00610044 TSNO
94908KDBQ DBQ20050412220010604/12/05 22:00:31  5-MIN KDBQ 130400Z AUTO 02008KT 10SM OVC044 06/04 A2990 1090 89 300 020/08 RMK AO2 TSNO
94908KDBQ DBQ20050412220510604/12/05 22:05:31  5-MIN KDBQ 130405Z AUTO 02008KT 10SM OVC044 06/04 A2990 1090 89 300 020/08 RMK AO2 TSNO
94908KDBQ DBQ20050412221010604/12/05 22:10:31  5-MIN KDBQ 130410Z AUTO 03008KT 10SM OVC044 07/04 A2990 1090 82 400 020/08 RMK AO2 TSNO
94908KDBQ DBQ20050412221510604/12/05 22:15:31  5-MIN KDBQ 130415Z AUTO 02008KT 10SM OVC044 06/04 A2991 1090 86 300 020/08 RMK AO2 TSNO
94908KDBQ DBQ20050412222010604/12/05 22:20:31  5-MIN KDBQ 130420Z AUTO 02009KT 10SM OVC044 06/04 A2991 1090 86 300 020/09 RMK AO2 TSNO
94908KDBQ DBQ20050412222510604/12/05 22:25:31  5-MIN KDBQ 130425Z AUTO 02008KT 10SM OVC044 07/04 A2991 1090 82 400 020/08 RMK AO2 TSNO
94908KDBQ DBQ20050412223010604/12/05 22:30:31  5-MIN KDBQ 130430Z AUTO 02007KT 10SM OVC044 07/04 A2991 1090 82 400 020/07 RMK AO2 TSNO
94908KDBQ DBQ20050412223510604/12/05 22:35:31  5-MIN KDBQ 130435Z AUTO 03008KT 10SM OVC044 07/04 A2991 1090 82 400 030/08 RMK AO2 TSNO
94908KDBQ DBQ20050412224010604/12/05 22:40:31  5-MIN KDBQ 130440Z AUTO 03009KT 10SM OVC044 06/04 A2991 1090 86 300 030/09 RMK AO2 TSNO
94908KDBQ DBQ20050412224512104/12/05 22:45:31  5-MIN KDBQ 130445Z AUTO 03009KT 10SM BKN044 BKN060  OVC110 06/04 A2991 1090 86 300 030/09 RMK AO2 TSNO
94908KDBQ DBQ20050412225013804/12/05 22:50:31  5-MIN KDBQ 130450Z AUTO 03009KT 10SM BKN044 BKN060  BKN110 06/04 A2991 1090 86 300 030/09 RMK AO2 SLP134 T00610039 TSNO
94908KDBQ DBQ20050412225513804/12/05 22:55:31  5-MIN KDBQ 130455Z AUTO 03009KT 10SM SCT044 BKN060  OVC100 06/03 A2991 1090 82 300 030/09 RMK AO2 SLP135 T00610033 TSNO
94908KDBQ DBQ20050412230012104/12/05 23:00:31  5-MIN KDBQ 130500Z AUTO 03009KT 10SM FEW044 SCT060  BKN100 06/03 A2991 1090 82 300 030/09 RMK AO2 TSNO
94908KDBQ DBQ20050412230512104/12/05 23:05:31  5-MIN KDBQ 130505Z AUTO 03009KT 10SM FEW044 SCT060  BKN100 06/03 A2991 1080 85 200 030/09 RMK AO2 TSNO
94908KDBQ DBQ20050412231011304/12/05 23:10:31  5-MIN KDBQ 130510Z AUTO 03010KT 10SM FEW060 SCT100 06/03 A2991 1080 85 200 030/10 RMK AO2 TSNO
94908KDBQ DBQ20050412231511304/12/05 23:15:31  5-MIN KDBQ 130515Z AUTO 03009KT 10SM FEW060 SCT100 06/03 A2992 1080 85 200 030/09 RMK AO2 TSNO
94908KDBQ DBQ20050412232010604/12/05 23:20:31  5-MIN KDBQ 130520Z AUTO 03009KT 10SM FEW100 06/03 A2992 1080 82 200 030/09 RMK AO2 TSNO
94908KDBQ DBQ20050412232510404/12/05 23:25:31  5-MIN KDBQ 130525Z AUTO 03010KT 10SM CLR 06/02 A2992  1080 79 200 020/10 RMK AO2 TSNO
94908KDBQ DBQ20050412233010404/12/05 23:30:31  5-MIN KDBQ 130530Z AUTO 03011KT 10SM CLR 06/02 A2992  1080 76 200 030/11 RMK AO2 TSNO
94908KDBQ DBQ20050412233510404/12/05 23:35:31  5-MIN KDBQ 130535Z AUTO 03011KT 10SM CLR 06/02 A2992  1080 76 200 030/11 RMK AO2 TSNO
94908KDBQ DBQ20050412234010404/12/05 23:40:31  5-MIN KDBQ 130540Z AUTO 02010KT 10SM CLR 06/01 A2992  1080 73 200 020/10 RMK AO2 TSNO
94908KDBQ DBQ20050412234510404/12/05 23:45:31  5-MIN KDBQ 130545Z AUTO 02009KT 10SM CLR 06/01 A2992  1070 73 200 020/09 RMK AO2 TSNO
94908KDBQ DBQ20050412235015604/12/05 23:50:31  5-MIN KDBQ 130550Z AUTO 03009KT 10SM CLR 05/01 A2993  1070 76 200 030/09 RMK AO2 SLP140 60003 T00500011 10067 20050 401390050  51014 TSNO
94908KDBQ DBQ20050412235515604/12/05 23:55:31  5-MIN KDBQ 130555Z AUTO 03009KT 10SM CLR 05/01 A2993  1070 73 200 030/09 RMK AO2 SLP142 60003 T00500006 10067 20050 401390050  53012 TSNO
94908KDBQ DBQ20050413000010404/13/05 00:00:38  5-MIN KDBQ 130600Z AUTO 03010KT 10SM CLR 05/01 A2993  1070 73 200 030/10 RMK AO2 TSNO
94908KDBQ DBQ20050413000510404/13/05 00:05:31  5-MIN KDBQ 130605Z AUTO 04012KT 10SM CLR 05/01 A2993  1070 73 200 040/12 RMK AO2 TSNO
94908KDBQ DBQ20050413001010404/13/05 00:10:31  5-MIN KDBQ 130610Z AUTO 04010KT 10SM CLR 05/00 A2993  1070 70 200 040/10 RMK AO2 TSNO
94908KDBQ DBQ20050413001510404/13/05 00:15:33  5-MIN KDBQ 130615Z AUTO 04013KT 10SM CLR 05/00 A2994  1060 70 200 040/13 RMK AO2 TSNO
94908KDBQ DBQ20050413002010404/13/05 00:20:31  5-MIN KDBQ 130620Z AUTO 04013KT 10SM CLR 05/00 A2994  1060 70 200 040/13 RMK AO2 TSNO
94908KDBQ DBQ20050413002510504/13/05 00:25:31  5-MIN KDBQ 130625Z AUTO 04013KT 10SM CLR 05/M01 A2994  1060 67 200 040/13 RMK AO2 TSNO
94908KDBQ DBQ20050413003010404/13/05 00:30:31  5-MIN KDBQ 130630Z AUTO 04013KT 10SM CLR 05/00 A2994  1060 70 100 040/13 RMK AO2 TSNO
94908KDBQ DBQ20050413003510504/13/05 00:35:31  5-MIN KDBQ 130635Z AUTO 04013KT 10SM CLR 05/M01 A2994  1060 67 100 040/13 RMK AO2 TSNO
94908KDBQ DBQ20050413004010504/13/05 00:40:31  5-MIN KDBQ 130640Z AUTO 04014KT 10SM CLR 05/M01 A2994  1060 67 100 040/14 RMK AO2 TSNO
94908KDBQ DBQ20050413004510504/13/05 00:45:31  5-MIN KDBQ 130645Z AUTO 05012KT 10SM CLR 05/M01 A2994  1060 67 100 050/12 RMK AO2 TSNO
94908KDBQ DBQ20050413005012204/13/05 00:50:31  5-MIN KDBQ 130650Z AUTO 05013KT 10SM CLR 05/M01 A2994  1060 67 100 040/13 RMK AO2 SLP147 T00501006 TSNO
94908KDBQ DBQ20050413005512204/13/05 00:55:31  5-MIN KDBQ 130655Z AUTO 04013KT 10SM CLR 05/M01 A2994  1060 67 100 040/13 RMK AO2 SLP147 T00501006 TSNO
94908KDBQ DBQ20050413010010504/13/05 01:00:31  5-MIN KDBQ 130700Z AUTO 04015KT 10SM CLR 05/M01 A2994  1060 67 100 040/15 RMK AO2 TSNO
94908KDBQ DBQ20050413010510504/13/05 01:05:31  5-MIN KDBQ 130705Z AUTO 05013KT 10SM CLR 05/M01 A2994  1060 67 100 050/13 RMK AO2 TSNO
94908KDBQ DBQ20050413011010504/13/05 01:10:31  5-MIN KDBQ 130710Z AUTO 04013KT 10SM CLR 05/M01 A2994  1060 67 100 040/13 RMK AO2 TSNO
94908KDBQ DBQ20050413011510504/13/05 01:15:31  5-MIN KDBQ 130715Z AUTO 04013KT 10SM CLR 04/M01 A2995  1060 70 100 040/13 RMK AO2 TSNO
94908KDBQ DBQ20050413012010504/13/05 01:20:31  5-MIN KDBQ 130720Z AUTO 05014KT 10SM CLR 04/M01 A2995  1050 70 100 050/14 RMK AO2 TSNO
94908KDBQ DBQ20050413012510504/13/05 01:25:31  5-MIN KDBQ 130725Z AUTO 05014KT 10SM CLR 04/M01 A2995  1050 70 100 050/14 RMK AO2 TSNO
94908KDBQ DBQ20050413013010504/13/05 01:30:31  5-MIN KDBQ 130730Z AUTO 05014KT 10SM CLR 04/M01 A2995  1050 70 100 050/14 RMK AO2 TSNO
94908KDBQ DBQ20050413013510504/13/05 01:35:31  5-MIN KDBQ 130735Z AUTO 05015KT 10SM CLR 04/M01 A2995  1050 67 100 050/15 RMK AO2 TSNO
94908KDBQ DBQ20050413014010504/13/05 01:40:31  5-MIN KDBQ 130740Z AUTO 05013KT 10SM CLR 04/M01 A2995  1050 67 100 050/13 RMK AO2 TSNO
94908KDBQ DBQ20050413014510504/13/05 01:45:31  5-MIN KDBQ 130745Z AUTO 05013KT 10SM CLR 04/M01 A2995  1050 67 100 040/13 RMK AO2 TSNO
94908KDBQ DBQ20050413015012204/13/05 01:50:31  5-MIN KDBQ 130750Z AUTO 04013KT 10SM CLR 04/M01 A2995  1050 70 100 040/13 RMK AO2 SLP149 T00441006 TSNO
94908KDBQ DBQ20050413015512004/13/05 01:55:31  5-MIN KDBQ 130755Z AUTO 05014KT 10SM CLR 04/M01 A2995  1050 73 0 040/14 RMK AO2 SLP150 T00391006 TSNO
94908KDBQ DBQ20050413020010304/13/05 02:00:31  5-MIN KDBQ 130800Z AUTO 05013KT 10SM CLR 04/M01 A2996  1050 70 0 050/13 RMK AO2 TSNO
94908KDBQ DBQ20050413020510304/13/05 02:05:31  5-MIN KDBQ 130805Z AUTO 05013KT 10SM CLR 04/M01 A2996  1040 73 0 050/13 RMK AO2 TSNO
94908KDBQ DBQ20050413021010304/13/05 02:10:31  5-MIN KDBQ 130810Z AUTO 05012KT 10SM CLR 04/M01 A2996  1040 70 0 050/12 RMK AO2 TSNO
94908KDBQ DBQ20050413021510304/13/05 02:15:31  5-MIN KDBQ 130815Z AUTO 05012KT 10SM CLR 04/M01 A2996  1040 70 0 040/12 RMK AO2 TSNO
94908KDBQ DBQ20050413022010304/13/05 02:20:31  5-MIN KDBQ 130820Z AUTO 04011KT 10SM CLR 04/M01 A2997  1040 70 0 040/11 RMK AO2 TSNO
94908KDBQ DBQ20050413022510304/13/05 02:25:31  5-MIN KDBQ 130825Z AUTO 04011KT 10SM CLR 03/M01 A2997  1030 72 0 040/11 RMK AO2 TSNO
94908KDBQ DBQ20050413023010304/13/05 02:30:31  5-MIN KDBQ 130830Z AUTO 04011KT 10SM CLR 03/M01 A2997  1030 72 0 040/11 RMK AO2 TSNO
94908KDBQ DBQ20050413023510304/13/05 02:35:31  5-MIN KDBQ 130835Z AUTO 04012KT 10SM CLR 03/M01 A2997  1030 72 0 040/12 RMK AO2 TSNO
94908KDBQ DBQ20050413024010304/13/05 02:40:31  5-MIN KDBQ 130840Z AUTO 04012KT 10SM CLR 03/M01 A2997  1030 72 0 040/12 RMK AO2 TSNO
94908KDBQ DBQ20050413024510304/13/05 02:45:31  5-MIN KDBQ 130845Z AUTO 04011KT 10SM CLR 03/M01 A2998  1030 72 0 040/11 RMK AO2 TSNO
94908KDBQ DBQ20050413025012904/13/05 02:50:31  5-MIN KDBQ 130850Z AUTO 04011KT 10SM CLR 03/M01 A2998  1030 75 -100 040/11 RMK AO2 SLP159 T00281011 53012 TSNO
94908KDBQ DBQ20050413025512904/13/05 02:55:31  5-MIN KDBQ 130855Z AUTO 04012KT 10SM CLR 03/M01 A2998  1030 75 -100 040/12 RMK AO2 SLP159 T00281011 53016 TSNO
94908KDBQ DBQ20050413030010604/13/05 03:00:31  5-MIN KDBQ 130900Z AUTO 04012KT 10SM CLR 03/M01 A2998  1020 75 -100 040/12 RMK AO2 TSNO
94908KDBQ DBQ20050413030510604/13/05 03:05:31  5-MIN KDBQ 130905Z AUTO 04013KT 10SM CLR 03/M01 A2998  1020 75 -100 040/13 RMK AO2 TSNO
94908KDBQ DBQ20050413031010604/13/05 03:10:31  5-MIN KDBQ 130910Z AUTO 04013KT 10SM CLR 03/M01 A2998  1020 75 -100 040/13 RMK AO2 TSNO
94908KDBQ DBQ20050413031510604/13/05 03:15:31  5-MIN KDBQ 130915Z AUTO 04012KT 10SM CLR 03/M01 A2998  1020 75 -100 040/12 RMK AO2 TSNO
94908KDBQ DBQ20050413032010604/13/05 03:20:31  5-MIN KDBQ 130920Z AUTO 04013KT 10SM CLR 03/M01 A2998  1020 75 -100 040/13 RMK AO2 TSNO
94908KDBQ DBQ20050413032510604/13/05 03:25:31  5-MIN KDBQ 130925Z AUTO 04012KT 10SM CLR 03/M01 A2998  1020 75 -100 040/12 RMK AO2 TSNO
94908KDBQ DBQ20050413033010604/13/05 03:30:31  5-MIN KDBQ 130930Z AUTO 04014KT 10SM CLR 03/M01 A2998  1020 75 -100 040/14 RMK AO2 TSNO
94908KDBQ DBQ20050413033510604/13/05 03:35:31  5-MIN KDBQ 130935Z AUTO 04014KT 10SM CLR 03/M01 A2999  1020 75 -100 040/14 RMK AO2 TSNO
94908KDBQ DBQ20050413034010604/13/05 03:40:31  5-MIN KDBQ 130940Z AUTO 04014KT 10SM CLR 03/M01 A2999  1020 75 -100 040/14 RMK AO2 TSNO
94908KDBQ DBQ20050413034510604/13/05 03:45:31  5-MIN KDBQ 130945Z AUTO 04014KT 10SM CLR 03/M01 A2999  1020 75 -100 040/14 RMK AO2 TSNO
94908KDBQ DBQ20050413035012304/13/05 03:50:31  5-MIN KDBQ 130950Z AUTO 04013KT 10SM CLR 03/M01 A2999  1010 75 -100 040/13 RMK AO2 SLP163 T00281011 TSNO
94908KDBQ DBQ20050413035512304/13/05 03:55:31  5-MIN KDBQ 130955Z AUTO 04013KT 10SM CLR 03/M01 A2999  1010 75 -100 040/13 RMK AO2 SLP164 T00281011 TSNO
94908KDBQ DBQ20050413040010604/13/05 04:00:31  5-MIN KDBQ 131000Z AUTO 04015KT 10SM CLR 03/M02 A3000  1010 72 -100 040/15 RMK AO2 TSNO
94908KDBQ DBQ20050413040510604/13/05 04:05:31  5-MIN KDBQ 131005Z AUTO 04014KT 10SM CLR 03/M02 A3000  1010 72 -100 040/14 RMK AO2 TSNO
94908KDBQ DBQ20050413041010604/13/05 04:10:31  5-MIN KDBQ 131010Z AUTO 04014KT 10SM CLR 03/M02 A3000  1010 72 -100 040/14 RMK AO2 TSNO
94908KDBQ DBQ20050413041510604/13/05 04:15:31  5-MIN KDBQ 131015Z AUTO 04014KT 10SM CLR 03/M02 A3000  1000 72 -100 040/14 RMK AO2 TSNO
94908KDBQ DBQ20050413042010604/13/05 04:20:31  5-MIN KDBQ 131020Z AUTO 04013KT 10SM CLR 03/M02 A3000  1000 72 -100 040/13 RMK AO2 TSNO
94908KDBQ DBQ20050413042510604/13/05 04:25:31  5-MIN KDBQ 131025Z AUTO 04013KT 10SM CLR 03/M02 A3001  1000 72 -200 040/13 RMK AO2 TSNO
94908KDBQ DBQ20050413043010604/13/05 04:30:31  5-MIN KDBQ 131030Z AUTO 04013KT 10SM CLR 02/M02 A3001  1000 75 -200 040/13 RMK AO2 TSNO
94908KDBQ DBQ20050413043510504/13/05 04:35:31  5-MIN KDBQ 131035Z AUTO 04012KT 10SM CLR 02/M02 A3001  990 75 -200 040/12 RMK AO2 TSNO
94908KDBQ DBQ20050413044010504/13/05 04:40:31  5-MIN KDBQ 131040Z AUTO 04013KT 10SM CLR 02/M02 A3002  990 75 -200 040/13 RMK AO2 TSNO
94908KDBQ DBQ20050413044510504/13/05 04:45:31  5-MIN KDBQ 131045Z AUTO 04013KT 10SM CLR 02/M02 A3002  990 75 -200 040/13 RMK AO2 TSNO
94908KDBQ DBQ20050413045012204/13/05 04:50:31  5-MIN KDBQ 131050Z AUTO 04012KT 10SM CLR 02/M02 A3002  990 75 -200 030/12 RMK AO2 SLP174 T00221017 TSNO
94908KDBQ DBQ20050413045511104/13/05 04:55:31  5-MIN KDBQ 131055Z 04012KT 10SM CLR 02/M02 A3002 980 75 -200 040/12 RMK AO2 SLP175 T00221017
94908KDBQ DBQ20050413050009404/13/05 05:00:31  5-MIN KDBQ 131100Z 04012KT 10SM CLR 02/M02 A3003 980 75 -200 040/12 RMK AO2
94908KDBQ DBQ20050413050509404/13/05 05:05:31  5-MIN KDBQ 131105Z 04011KT 10SM CLR 02/M02 A3003 980 75 -200 030/11 RMK AO2
94908KDBQ DBQ20050413051009404/13/05 05:10:31  5-MIN KDBQ 131110Z 04012KT 10SM CLR 02/M02 A3003 980 75 -200 040/12 RMK AO2
94908KDBQ DBQ20050413051509404/13/05 05:15:31  5-MIN KDBQ 131115Z 04011KT 10SM CLR 02/M02 A3003 980 78 -300 030/11 RMK AO2
94908KDBQ DBQ20050413052009404/13/05 05:20:31  5-MIN KDBQ 131120Z 04011KT 10SM CLR 02/M02 A3004 970 78 -300 040/11 RMK AO2
94908KDBQ DBQ20050413052509404/13/05 05:25:31  5-MIN KDBQ 131125Z 04011KT 10SM CLR 02/M02 A3004 970 78 -300 040/11 RMK AO2
94908KDBQ DBQ20050413053009404/13/05 05:30:31  5-MIN KDBQ 131130Z 03012KT 10SM CLR 02/M02 A3004 970 75 -300 030/12 RMK AO2
94908KDBQ DBQ20050413053509404/13/05 05:35:31  5-MIN KDBQ 131135Z 03011KT 10SM CLR 02/M02 A3004 970 75 -300 030/11 RMK AO2
94908KDBQ DBQ20050413054009404/13/05 05:40:31  5-MIN KDBQ 131140Z 03012KT 10SM CLR 02/M02 A3004 960 78 -300 030/12 RMK AO2
94908KDBQ DBQ20050413054509404/13/05 05:45:31  5-MIN KDBQ 131145Z 03012KT 10SM CLR 02/M02 A3005 960 78 -300 030/12 RMK AO2
94908KDBQ DBQ20050413055013504/13/05 05:50:31  5-MIN KDBQ 131150Z 03014KT 10SM CLR 02/M02 A3005 960 75 -300 030/14 RMK AO2 SLP184 70020 T00171022 10056 20017 53016
94908KDBQ DBQ20050413055513504/13/05 05:55:31  5-MIN KDBQ 131155Z 03013KT 10SM CLR 02/M02 A3005 960 75 -300 030/13 RMK AO2 SLP185 70020 T00221017 10056 20017 53024
94908KDBQ DBQ20050413060009404/13/05 06:00:31  5-MIN KDBQ 131200Z 03013KT 10SM CLR 02/M02 A3005 950 75 -300 030/13 RMK AO2
94908KDBQ DBQ20050413060509404/13/05 06:05:31  5-MIN KDBQ 131205Z 03012KT 10SM CLR 02/M02 A3006 950 75 -300 030/12 RMK AO2
94908KDBQ DBQ20050413061009404/13/05 06:10:31  5-MIN KDBQ 131210Z 03012KT 10SM CLR 02/M02 A3006 950 72 -300 030/12 RMK AO2
94908KDBQ DBQ20050413061509404/13/05 06:15:31  5-MIN KDBQ 131215Z 03013KT 10SM CLR 02/M02 A3006 950 75 -300 030/13 RMK AO2
94908KDBQ DBQ20050413062009404/13/05 06:20:31  5-MIN KDBQ 131220Z 03012KT 10SM CLR 03/M02 A3007 940 72 -200 030/12 RMK AO2
94908KDBQ DBQ20050413062509404/13/05 06:25:31  5-MIN KDBQ 131225Z 03013KT 10SM CLR 03/M02 A3007 940 72 -200 030/13 RMK AO2
94908KDBQ DBQ20050413063009404/13/05 06:30:31  5-MIN KDBQ 131230Z 03012KT 10SM CLR 03/M02 A3007 940 69 -200 030/12 RMK AO2
94908KDBQ DBQ20050413063509404/13/05 06:35:31  5-MIN KDBQ 131235Z 04012KT 10SM CLR 03/M02 A3008 940 69 -200 040/12 RMK AO2
94908KDBQ DBQ20050413064009404/13/05 06:40:31  5-MIN KDBQ 131240Z 04012KT 10SM CLR 03/M02 A3008 930 72 -200 040/12 RMK AO2
94908KDBQ DBQ20050413064509404/13/05 06:45:31  5-MIN KDBQ 131245Z 04012KT 10SM CLR 03/M02 A3008 930 67 -200 030/12 RMK AO2
94908KDBQ DBQ20050413065011104/13/05 06:50:31  5-MIN KDBQ 131250Z 04010KT 10SM CLR 03/M02 A3008 930 70 -200 040/10 RMK AO2 SLP195 T00331017
94908KDBQ DBQ20050413065511104/13/05 06:55:31  5-MIN KDBQ 131255Z 04012KT 10SM CLR 03/M02 A3008 930 70 -200 040/12 RMK AO2 SLP196 T00331017
94908KDBQ DBQ20050413070009404/13/05 07:00:31  5-MIN KDBQ 131300Z 03012KT 10SM CLR 04/M02 A3008 930 64 -100 030/12 RMK AO2
94908KDBQ DBQ20050413070509404/13/05 07:05:31  5-MIN KDBQ 131305Z 03014KT 10SM CLR 04/M02 A3008 930 64 -100 030/14 RMK AO2
94908KDBQ DBQ20050413071009404/13/05 07:10:31  5-MIN KDBQ 131310Z 04012KT 10SM CLR 04/M02 A3008 930 64 -100 040/12 RMK AO2
94908KDBQ DBQ20050413071509404/13/05 07:15:31  5-MIN KDBQ 131315Z 04011KT 10SM CLR 04/M02 A3009 930 64 -100 040/11 RMK AO2
94908KDBQ DBQ20050413072009104/13/05 07:20:31  5-MIN KDBQ 131320Z 04012KT 10SM CLR 04/M02 A3009 920 62 0 030/12 RMK AO2
94908KDBQ DBQ20050413072509104/13/05 07:25:31  5-MIN KDBQ 131325Z 04012KT 10SM CLR 04/M02 A3009 930 62 0 030/12 RMK AO2
94908KDBQ DBQ20050413073009104/13/05 07:30:31  5-MIN KDBQ 131330Z 04012KT 10SM CLR 04/M02 A3009 920 62 0 030/12 RMK AO2
94908KDBQ DBQ20050413073509104/13/05 07:35:31  5-MIN KDBQ 131335Z 03013KT 10SM CLR 04/M02 A3009 920 62 0 030/13 RMK AO2
94908KDBQ DBQ20050413074009104/13/05 07:40:31  5-MIN KDBQ 131340Z 04013KT 10SM CLR 04/M02 A3009 920 62 0 040/13 RMK AO2
94908KDBQ DBQ20050413074509104/13/05 07:45:31  5-MIN KDBQ 131345Z 04013KT 10SM CLR 05/M02 A3009 920 62 0 040/13 RMK AO2
94908KDBQ DBQ20050413075010804/13/05 07:50:31  5-MIN KDBQ 131350Z 04013KT 10SM CLR 05/M02 A3009 920 59 0 040/13 RMK AO2 SLP196 T00501022
94908KDBQ DBQ20050413075511404/13/05 07:55:31  5-MIN KDBQ 131355Z 04012G19KT 10SM CLR 05/M02 A3009 920 59 0 040/12G19 RMK AO2 SLP197 T00501022
94908KDBQ DBQ20050413080009704/13/05 08:00:31  5-MIN KDBQ 131400Z 03014G19KT 10SM CLR 06/M02 A3009 920 59 0 030/14G19 RMK AO2
94908KDBQ DBQ20050413080509104/13/05 08:05:31  5-MIN KDBQ 131405Z 04012KT 10SM CLR 06/M02 A3009 920 57 0 040/12 RMK AO2
94908KDBQ DBQ20050413081009104/13/05 08:10:31  5-MIN KDBQ 131410Z 04013KT 10SM CLR 06/M02 A3010 920 59 0 040/13 RMK AO2
94908KDBQ DBQ20050413081509104/13/05 08:15:31  5-MIN KDBQ 131415Z 04010KT 10SM CLR 06/M02 A3010 920 59 0 040/10 RMK AO2
94908KDBQ DBQ20050413082009304/13/05 08:20:31  5-MIN KDBQ 131420Z 05012KT 10SM CLR 06/M02 A3010 910 57 100 050/12 RMK AO2
94908KDBQ DBQ20050413082509304/13/05 08:25:31  5-MIN KDBQ 131425Z 05013KT 10SM CLR 06/M02 A3011 910 57 100 050/13 RMK AO2
94908KDBQ DBQ20050413083009304/13/05 08:30:31  5-MIN KDBQ 131430Z 05012KT 10SM CLR 07/M02 A3011 910 55 200 050/12 RMK AO2
94908KDBQ DBQ20050413083509304/13/05 08:35:31  5-MIN KDBQ 131435Z 04013KT 10SM CLR 07/M02 A3011 910 55 200 040/13 RMK AO2
94908KDBQ DBQ20050413084009904/13/05 08:40:31  5-MIN KDBQ 131440Z 04013G19KT 10SM CLR 07/M01 A3011 900 57 200 040/13G19 RMK AO2
94908KDBQ DBQ20050413084509904/13/05 08:45:31  5-MIN KDBQ 131445Z 05012G19KT 10SM CLR 07/M02 A3011 900 53 200 050/12G19 RMK AO2
94908KDBQ DBQ20050413085011604/13/05 08:50:31  5-MIN KDBQ 131450Z 06012KT 10SM CLR 07/M01 A3011 900 55 200 060/12 RMK AO2 SLP204 T00721011 53024
94908KDBQ DBQ20050413085511604/13/05 08:55:31  5-MIN KDBQ 131455Z 05013KT 10SM CLR 08/M01 A3011 900 53 300 050/13 RMK AO2 SLP205 T00781011 51021
94908KDBQ DBQ20050413090009304/13/05 09:00:31  5-MIN KDBQ 131500Z 05015KT 10SM CLR 07/M02 A3011 900 53 200 050/15 RMK AO2
94908KDBQ DBQ20050413090509304/13/05 09:05:31  5-MIN KDBQ 131505Z 04013KT 10SM CLR 08/M02 A3011 900 51 300 040/13 RMK AO2
94908KDBQ DBQ20050413091009304/13/05 09:10:31  5-MIN KDBQ 131510Z 04015KT 10SM CLR 08/M02 A3012 900 51 300 040/15 RMK AO2
94908KDBQ DBQ20050413091509304/13/05 09:15:31  5-MIN KDBQ 131515Z 05012KT 10SM CLR 08/M02 A3012 900 49 400 050/12 RMK AO2
94908KDBQ DBQ20050413092009304/13/05 09:20:31  5-MIN KDBQ 131520Z 04012KT 10SM CLR 08/M01 A3012 900 51 400 040/12 RMK AO2
94908KDBQ DBQ20050413092509304/13/05 09:25:31  5-MIN KDBQ 131525Z 04015KT 10SM CLR 08/M01 A3012 890 51 300 040/15 RMK AO2
94908KDBQ DBQ20050413093009304/13/05 09:30:31  5-MIN KDBQ 131530Z 06013KT 10SM CLR 09/M02 A3012 890 47 400 050/13 RMK AO2
94908KDBQ DBQ20050413093509304/13/05 09:35:31  5-MIN KDBQ 131535Z 04013KT 10SM CLR 09/M01 A3012 890 49 400 040/13 RMK AO2
94908KDBQ DBQ20050413094009904/13/05 09:40:31  5-MIN KDBQ 131540Z 05017G21KT 10SM CLR 09/M02 A3012 890 45 400 050/17G21 RMK AO2
94908KDBQ DBQ20050413094509904/13/05 09:45:31  5-MIN KDBQ 131545Z 06014G21KT 10SM CLR 09/M02 A3013 890 47 400 060/14G21 RMK AO2
94908KDBQ DBQ20050413095011604/13/05 09:50:31  5-MIN KDBQ 131550Z 05012G19KT 10SM CLR 09/M02 A3013 880 45 500 050/12G19 RMK AO2 SLP209 T00941017
94908KDBQ DBQ20050413095511604/13/05 09:55:31  5-MIN KDBQ 131555Z 06014G19KT 10SM CLR 09/M01 A3012 890 47 500 060/14G19 RMK AO2 SLP207 T00941011
94908KDBQ DBQ20050413100009904/13/05 10:00:31  5-MIN KDBQ 131600Z 05015G20KT 10SM CLR 10/M01 A3013 880 46 500 050/15G20 RMK AO2
94908KDBQ DBQ20050413100509904/13/05 10:05:31  5-MIN KDBQ 131605Z 06016G20KT 10SM CLR 09/M02 A3013 880 44 500 060/16G20 RMK AO2
94908KDBQ DBQ20050413101009904/13/05 10:10:31  5-MIN KDBQ 131610Z 05016G22KT 10SM CLR 10/M02 A3014 880 44 500 050/16G22 RMK AO2
94908KDBQ DBQ20050413101509904/13/05 10:15:31  5-MIN KDBQ 131615Z 05013G22KT 10SM CLR 10/M02 A3014 880 44 500 050/13G22 RMK AO2
94908KDBQ DBQ20050413102009304/13/05 10:20:31  5-MIN KDBQ 131620Z 06014KT 10SM CLR 10/M02 A3014 880 44 500 060/14 RMK AO2
94908KDBQ DBQ20050413102509904/13/05 10:25:31  5-MIN KDBQ 131625Z 05013G20KT 10SM CLR 10/M02 A3014 870 44 500 050/13G20 RMK AO2
94908KDBQ DBQ20050413103009904/13/05 10:30:31  5-MIN KDBQ 131630Z 06016G21KT 10SM CLR 11/M02 A3014 880 42 600 060/16G21 RMK AO2
94908KDBQ DBQ20050413103509904/13/05 10:35:31  5-MIN KDBQ 131635Z 05014G21KT 10SM CLR 11/M02 A3014 880 42 600 050/14G21 RMK AO2
94908KDBQ DBQ20050413104009304/13/05 10:40:31  5-MIN KDBQ 131640Z 05015KT 10SM CLR 11/M02 A3015 870 42 600 050/15 RMK AO2
94908KDBQ DBQ20050413104509904/13/05 10:45:31  5-MIN KDBQ 131645Z 06015G21KT 10SM CLR 11/M02 A3014 870 42 600 050/15G21 RMK AO2
94908KDBQ DBQ20050413105011604/13/05 10:50:31  5-MIN KDBQ 131650Z 05014G21KT 10SM CLR 11/M02 A3014 870 42 600 050/14G21 RMK AO2 SLP213 T01061017
94908KDBQ DBQ20050413105511004/13/05 10:55:31  5-MIN KDBQ 131655Z 04015KT 10SM CLR 11/M01 A3014 870 42 700 040/15 RMK AO2 SLP213 T01111011
94908KDBQ DBQ20050413110009904/13/05 11:00:31  5-MIN KDBQ 131700Z 06015G20KT 10SM CLR 11/M02 A3015 870 41 600 060/15G20 RMK AO2
94908KDBQ DBQ20050413110509904/13/05 11:05:31  5-MIN KDBQ 131705Z 04014G20KT 10SM CLR 11/M01 A3015 870 42 600 040/14G20 RMK AO2
94908KDBQ DBQ20050413111009304/13/05 11:10:31  5-MIN KDBQ 131710Z 04017KT 10SM CLR 11/M02 A3015 870 41 600 040/17 RMK AO2
94908KDBQ DBQ20050413111509304/13/05 11:15:31  5-MIN KDBQ 131715Z 06013KT 10SM CLR 11/M01 A3015 870 42 600 060/13 RMK AO2
94908KDBQ DBQ20050413112009304/13/05 11:20:31  5-MIN KDBQ 131720Z 04016KT 10SM CLR 12/M01 A3015 870 41 700 040/16 RMK AO2
94908KDBQ DBQ20050413112509304/13/05 11:25:31  5-MIN KDBQ 131725Z 04014KT 10SM CLR 12/M01 A3015 870 42 700 040/14 RMK AO2
94908KDBQ DBQ20050413113009304/13/05 11:30:31  5-MIN KDBQ 131730Z 06012KT 10SM CLR 12/M01 A3015 870 42 700 060/12 RMK AO2
94908KDBQ DBQ20050413113511604/13/05 11:35:31  5-MIN KDBQ 131735Z 05016G19KT 010V080 10SM CLR 12/M01  A3015 870 41 700 050/16G19 010V080 RMK AO2
94908KDBQ DBQ20050413114009304/13/05 11:40:31  5-MIN KDBQ 131740Z 05017KT 10SM CLR 12/M01 A3015 860 41 700 050/17 RMK AO2
94908KDBQ DBQ20050413114509304/13/05 11:45:31  5-MIN KDBQ 131745Z 06012KT 10SM CLR 12/M02 A3015 870 38 800 060/12 RMK AO2
94908KDBQ DBQ20050413115013404/13/05 11:50:31  5-MIN KDBQ 131750Z 04016G20KT 10SM CLR 12/M01 A3015 860 41 800 040/16G20 RMK AO2 SLP217 T01221006 10122 20022 51021
94908KDBQ DBQ20050413115513404/13/05 11:55:31  5-MIN KDBQ 131755Z 07013G20KT 10SM CLR 12/M02 A3015 870 38 800 070/13G20 RMK AO2 SLP216 T01221017 10122 20022 51012
94908KDBQ DBQ20050413120009904/13/05 12:00:31  5-MIN KDBQ 131800Z 05015G21KT 10SM CLR 12/M01 A3015 860 41 800 040/15G21 RMK AO2
94908KDBQ DBQ20050413120509904/13/05 12:05:31  5-MIN KDBQ 131805Z 06016G24KT 10SM CLR 12/M02 A3015 860 36 800 060/16G24 RMK AO2
94908KDBQ DBQ20050413121009904/13/05 12:10:31  5-MIN KDBQ 131810Z 04014G24KT 10SM CLR 12/M02 A3015 860 38 800 040/14G24 RMK AO2
94908KDBQ DBQ20050413121509304/13/05 12:15:31  5-MIN KDBQ 131815Z 04017KT 10SM CLR 12/M01 A3016 860 39 800 040/17 RMK AO2
94908KDBQ DBQ20050413122009304/13/05 12:20:31  5-MIN KDBQ 131820Z 05013KT 10SM CLR 12/M02 A3016 860 38 800 050/13 RMK AO2
94908KDBQ DBQ20050413122509904/13/05 12:25:31  5-MIN KDBQ 131825Z 05015G20KT 10SM CLR 13/M02 A3016 860 36 800 050/15G20 RMK AO2
94908KDBQ DBQ20050413123009904/13/05 12:30:31  5-MIN KDBQ 131830Z 06018G21KT 10SM CLR 13/M02 A3016 860 36 800 060/18G21 RMK AO2
94908KDBQ DBQ20050413123509904/13/05 12:35:31  5-MIN KDBQ 131835Z 06014G21KT 10SM CLR 13/M03 A3016 860 33 800 060/14G21 RMK AO2
94908KDBQ DBQ20050413124009904/13/05 12:40:31  5-MIN KDBQ 131840Z 06017G22KT 10SM CLR 13/M03 A3016 860 33 800 060/17G22 RMK AO2
94908KDBQ DBQ20050413124509904/13/05 12:45:31  5-MIN KDBQ 131845Z 05016G22KT 10SM CLR 13/M03 A3016 860 33 800 050/16G22 RMK AO2
94908KDBQ DBQ20050413125011604/13/05 12:50:31  5-MIN KDBQ 131850Z 05013G19KT 10SM CLR 13/M02 A3016 860 36 800 050/13G19 RMK AO2 SLP219 T01281017
94908KDBQ DBQ20050413125511604/13/05 12:55:31  5-MIN KDBQ 131855Z 04017G20KT 10SM CLR 13/M02 A3016 860 36 800 030/17G20 RMK AO2 SLP218 T01281017
94908KDBQ DBQ20050413130009904/13/05 13:00:31  5-MIN KDBQ 131900Z 04017G21KT 10SM CLR 13/M02 A3016 860 36 800 040/17G21 RMK AO2
94908KDBQ DBQ20050413130509904/13/05 13:05:31  5-MIN KDBQ 131905Z 04016G21KT 10SM CLR 13/M02 A3016 860 36 800 040/16G21 RMK AO2
94908KDBQ DBQ20050413131009904/13/05 13:10:31  5-MIN KDBQ 131910Z 03016G22KT 10SM CLR 13/M01 A3016 860 38 800 030/16G22 RMK AO2
94908KDBQ DBQ20050413131509904/13/05 13:15:31  5-MIN KDBQ 131915Z 04015G22KT 10SM CLR 13/M01 A3016 860 36 900 040/15G22 RMK AO2
94908KDBQ DBQ20050413132009904/13/05 13:20:31  5-MIN KDBQ 131920Z 04016G22KT 10SM CLR 13/M02 A3016 860 35 900 040/16G22 RMK AO2
94908KDBQ DBQ20050413132509904/13/05 13:25:31  5-MIN KDBQ 131925Z 06014G22KT 10SM CLR 13/M02 A3016 860 35 900 060/14G22 RMK AO2
94908KDBQ DBQ20050413133009904/13/05 13:30:31  5-MIN KDBQ 131930Z 05015G19KT 10SM CLR 13/M01 A3016 860 36 900 050/15G19 RMK AO2
94908KDBQ DBQ20050413133509904/13/05 13:35:31  5-MIN KDBQ 131935Z 05017G22KT 10SM CLR 13/M01 A3016 860 36 900 050/17G22 RMK AO2
94908KDBQ DBQ20050413134009904/13/05 13:40:31  5-MIN KDBQ 131940Z 04015G22KT 10SM CLR 13/M02 A3016 860 34 900 040/15G22 RMK AO2
94908KDBQ DBQ20050413134510004/13/05 13:45:31  5-MIN KDBQ 131945Z 04011G20KT 10SM CLR 14/M01 A3016 860 35 1000 040/11G20 RMK AO2
94908KDBQ DBQ20050413135011004/13/05 13:50:31  5-MIN KDBQ 131950Z 05014KT 10SM CLR 13/M02 A3016 860 35 900 050/14 RMK AO2 SLP218 T01331017
94908KDBQ DBQ20050413135511604/13/05 13:55:31  5-MIN KDBQ 131955Z 04016G21KT 10SM CLR 13/M02 A3016 860 35 900 040/16G21 RMK AO2 SLP218 T01331017
94908KDBQ DBQ20050413140009904/13/05 14:00:31  5-MIN KDBQ 132000Z 04017G25KT 10SM CLR 13/M02 A3016 860 35 900 040/17G25 RMK AO2
94908KDBQ DBQ20050413140509904/13/05 14:05:31  5-MIN KDBQ 132005Z 04018G25KT 10SM CLR 13/M02 A3016 860 34 900 040/18G25 RMK AO2
94908KDBQ DBQ20050413141010004/13/05 14:10:31  5-MIN KDBQ 132010Z 04016G22KT 10SM CLR 14/M02 A3016 860 34 1000 040/16G22 RMK AO2
94908KDBQ DBQ20050413141510004/13/05 14:15:31  5-MIN KDBQ 132015Z 05018G24KT 10SM CLR 14/M02 A3016 860 34 1000 040/18G24 RMK AO2
94908KDBQ DBQ20050413142010004/13/05 14:20:31  5-MIN KDBQ 132020Z 06016G24KT 10SM CLR 14/M03 A3016 860 30 1000 060/16G24 RMK AO2
94908KDBQ DBQ20050413142510004/13/05 14:25:31  5-MIN KDBQ 132025Z 06014G21KT 10SM CLR 14/M02 A3016 860 32 1000 060/14G21 RMK AO2
94908KDBQ DBQ20050413143010004/13/05 14:30:31  5-MIN KDBQ 132030Z 03017G20KT 10SM CLR 14/M02 A3016 860 34 1000 030/17G20 RMK AO2
94908KDBQ DBQ20050413143509904/13/05 14:35:31  5-MIN KDBQ 132035Z 05017G22KT 10SM CLR 13/M02 A3016 860 34 900 050/17G22 RMK AO2
94908KDBQ DBQ20050413144010004/13/05 14:40:31  5-MIN KDBQ 132040Z 04015G20KT 10SM CLR 14/M02 A3016 860 32 1000 040/15G20 RMK AO2
94908KDBQ DBQ20050413144510004/13/05 14:45:31  5-MIN KDBQ 132045Z 04017G21KT 10SM CLR 14/M02 A3016 860 32 1000 040/17G21 RMK AO2
94908KDBQ DBQ20050413145012304/13/05 14:50:31  5-MIN KDBQ 132050Z 05014G21KT 10SM CLR 14/M02 A3016 860 32 1000 050/14G21 RMK AO2 SLP217 T01391022 51012
94908KDBQ DBQ20050413145511704/13/05 14:55:31  5-MIN KDBQ 132055Z 05016KT 10SM CLR 14/M02 A3016 860 32 1000 050/16 RMK AO2 SLP217 T01391022 50002
94908KDBQ DBQ20050413150009404/13/05 15:00:31  5-MIN KDBQ 132100Z 03013KT 10SM CLR 14/M02 A3016 860 32 1000 030/13 RMK AO2
94908KDBQ DBQ20050413150509404/13/05 15:05:31  5-MIN KDBQ 132105Z 05014KT 10SM CLR 14/M02 A3016 860 34 1000 040/14 RMK AO2
94908KDBQ DBQ20050413151009404/13/05 15:10:31  5-MIN KDBQ 132110Z 05015KT 10SM CLR 14/M02 A3016 860 34 1000 050/15 RMK AO2
94908KDBQ DBQ20050413151509404/13/05 15:15:31  5-MIN KDBQ 132115Z 05014KT 10SM CLR 14/M03 A3016 860 31 1000 050/14 RMK AO2
94908KDBQ DBQ20050413152010004/13/05 15:20:31  5-MIN KDBQ 132120Z 04014G22KT 10SM CLR 14/M02 A3016 860 32 1000 040/14G22 RMK AO2
94908KDBQ DBQ20050413152510004/13/05 15:25:31  5-MIN KDBQ 132125Z 05013G22KT 10SM CLR 14/M03 A3016 860 31 1000 050/13G22 RMK AO2
94908KDBQ DBQ20050413153009404/13/05 15:30:31  5-MIN KDBQ 132130Z 04014KT 10SM CLR 14/M02 A3016 860 31 1000 040/14 RMK AO2
94908KDBQ DBQ20050413153510004/13/05 15:35:31  5-MIN KDBQ 132135Z 05014G19KT 10SM CLR 14/M03 A3016 860 31 1000 050/14G19 RMK AO2
94908KDBQ DBQ20050413154010004/13/05 15:40:31  5-MIN KDBQ 132140Z 04012G22KT 10SM CLR 14/M03 A3016 860 31 1000 040/12G22 RMK AO2
94908KDBQ DBQ20050413154510004/13/05 15:45:31  5-MIN KDBQ 132145Z 04011G22KT 10SM CLR 14/M03 A3017 850 31 1000 040/11G22 RMK AO2
94908KDBQ DBQ20050413155011704/13/05 15:50:31  5-MIN KDBQ 132150Z 04016G20KT 10SM CLR 14/M03 A3017 850 30 1000 040/16G20 RMK AO2 SLP221 T01391033
94908KDBQ DBQ20050413155511704/13/05 15:55:31  5-MIN KDBQ 132155Z 05014G20KT 10SM CLR 14/M03 A3017 850 31 1000 040/14G20 RMK AO2 SLP221 T01391028
94908KDBQ DBQ20050413160010004/13/05 16:00:31  5-MIN KDBQ 132200Z 04016G23KT 10SM CLR 14/M03 A3017 850 30 1000 040/16G23 RMK AO2
94908KDBQ DBQ20050413160510004/13/05 16:05:31  5-MIN KDBQ 132205Z 06013G23KT 10SM CLR 14/M03 A3017 850 30 1000 060/13G23 RMK AO2
94908KDBQ DBQ20050413161010004/13/05 16:10:31  5-MIN KDBQ 132210Z 04016G21KT 10SM CLR 14/M03 A3017 850 31 1000 040/16G21 RMK AO2
94908KDBQ DBQ20050413161510004/13/05 16:15:31  5-MIN KDBQ 132215Z 04012G21KT 10SM CLR 14/M03 A3017 850 31 1000 040/12G21 RMK AO2
94908KDBQ DBQ20050413162010004/13/05 16:20:31  5-MIN KDBQ 132220Z 05016G20KT 10SM CLR 14/M02 A3017 850 32 1000 050/16G20 RMK AO2
94908KDBQ DBQ20050413162510004/13/05 16:25:31  5-MIN KDBQ 132225Z 03014G20KT 10SM CLR 14/M03 A3017 850 30 1000 030/14G20 RMK AO2
94908KDBQ DBQ20050413163009904/13/05 16:30:31  5-MIN KDBQ 132230Z 04011G18KT 10SM CLR 14/M02 A3017 840 32 900 040/11G18 RMK AO2
94908KDBQ DBQ20050413163509904/13/05 16:35:31  5-MIN KDBQ 132235Z 05014G19KT 10SM CLR 14/M03 A3018 840 31 900 050/14G19 RMK AO2
94908KDBQ DBQ20050413164009904/13/05 16:40:31  5-MIN KDBQ 132240Z 04018G21KT 10SM CLR 14/M02 A3018 840 32 900 040/18G21 RMK AO2
94908KDBQ DBQ20050413164509904/13/05 16:45:31  5-MIN KDBQ 132245Z 05014G21KT 10SM CLR 14/M03 A3018 840 31 900 050/14G21 RMK AO2
94908KDBQ DBQ20050413165011004/13/05 16:50:31  5-MIN KDBQ 132250Z 05015KT 10SM CLR 14/M03 A3018 840 31 900 050/15 RMK AO2 SLP225 T01391028
94908KDBQ DBQ20050413165511604/13/05 16:55:31  5-MIN KDBQ 132255Z 04013G18KT 10SM CLR 14/M03 A3018 840 30 900 040/13G18 RMK AO2 SLP226 T01391033
94908KDBQ DBQ20050413170009304/13/05 17:00:31  5-MIN KDBQ 132300Z 04014KT 10SM CLR 14/M03 A3018 840 31 900 040/14 RMK AO2
94908KDBQ DBQ20050413170509304/13/05 17:05:31  5-MIN KDBQ 132305Z 04014KT 10SM CLR 13/M03 A3018 840 32 900 040/14 RMK AO2
94908KDBQ DBQ20050413171009304/13/05 17:10:31  5-MIN KDBQ 132310Z 05012KT 10SM CLR 13/M03 A3018 840 32 900 050/12 RMK AO2
94908KDBQ DBQ20050413171509304/13/05 17:15:31  5-MIN KDBQ 132315Z 05015KT 10SM CLR 13/M03 A3019 830 32 900 050/15 RMK AO2
94908KDBQ DBQ20050413172009304/13/05 17:20:31  5-MIN KDBQ 132320Z 04013KT 10SM CLR 13/M04 A3018 830 30 900 040/13 RMK AO2
94908KDBQ DBQ20050413172509304/13/05 17:25:31  5-MIN KDBQ 132325Z 04013KT 10SM CLR 13/M03 A3019 830 31 900 040/13 RMK AO2
94908KDBQ DBQ20050413173009304/13/05 17:30:31  5-MIN KDBQ 132330Z 05013KT 10SM CLR 13/M03 A3019 830 31 900 050/13 RMK AO2
94908KDBQ DBQ20050413173509304/13/05 17:35:31  5-MIN KDBQ 132335Z 06013KT 10SM CLR 13/M04 A3019 830 30 900 060/13 RMK AO2
94908KDBQ DBQ20050413174009304/13/05 17:40:31  5-MIN KDBQ 132340Z 06011KT 10SM CLR 13/M03 A3019 830 31 900 060/11 RMK AO2
94908KDBQ DBQ20050413174509304/13/05 17:45:31  5-MIN KDBQ 132345Z 05012KT 10SM CLR 13/M04 A3020 820 31 800 050/12 RMK AO2
94908KDBQ DBQ20050413175013404/13/05 17:50:31  5-MIN KDBQ 132350Z 05014G19KT 10SM CLR 13/M04 A3020 820 31 800 050/14G19 RMK AO2 SLP232 T01281039 10144 20122 50002
94908KDBQ DBQ20050413175513404/13/05 17:55:31  5-MIN KDBQ 132355Z 06013G19KT 10SM CLR 13/M04 A3020 820 30 800 060/13G19 RMK AO2 SLP233 T01281044 10144 20122 53014
94908KDBQ DBQ20050413180009304/13/05 18:00:31  5-MIN KDBQ 140000Z 06014KT 10SM CLR 13/M04 A3020 820 31 800 060/14 RMK AO2
94908KDBQ DBQ20050413180509304/13/05 18:05:31  5-MIN KDBQ 140005Z 06013KT 10SM CLR 13/M04 A3020 820 31 800 060/13 RMK AO2
94908KDBQ DBQ20050413181009304/13/05 18:10:31  5-MIN KDBQ 140010Z 06012KT 10SM CLR 12/M04 A3020 820 31 700 060/12 RMK AO2
94908KDBQ DBQ20050413181509304/13/05 18:15:31  5-MIN KDBQ 140015Z 06011KT 10SM CLR 12/M04 A3020 820 32 700 050/11 RMK AO2
94908KDBQ DBQ20050413182009304/13/05 18:20:31  5-MIN KDBQ 140020Z 05012KT 10SM CLR 12/M04 A3020 820 32 700 050/12 RMK AO2
94908KDBQ DBQ20050413182509304/13/05 18:25:31  5-MIN KDBQ 140025Z 06011KT 10SM CLR 12/M04 A3021 820 31 700 050/11 RMK AO2
94908KDBQ DBQ20050413183009304/13/05 18:30:31  5-MIN KDBQ 140030Z 05010KT 10SM CLR 12/M03 A3021 810 35 600 050/10 RMK AO2
94908KDBQ DBQ20050413183509304/13/05 18:35:31  5-MIN KDBQ 140035Z 06010KT 10SM CLR 12/M04 A3021 810 33 600 050/10 RMK AO2
94908KDBQ DBQ20050413184009304/13/05 18:40:31  5-MIN KDBQ 140040Z 06008KT 10SM CLR 11/M04 A3021 810 34 600 060/08 RMK AO2
94908KDBQ DBQ20050413184509304/13/05 18:45:31  5-MIN KDBQ 140045Z 06008KT 10SM CLR 11/M03 A3021 810 36 600 060/08 RMK AO2
94908KDBQ DBQ20050413185011004/13/05 18:50:31  5-MIN KDBQ 140050Z 05009KT 10SM CLR 11/M03 A3021 810 37 500 050/09 RMK AO2 SLP238 T01061033
94908KDBQ DBQ20050413185512104/13/05 18:55:31  5-MIN KDBQ 140055Z AUTO 06009KT 10SM CLR 11/M03 A3022  810 37 500 060/09 RMK AO2 SLP238 T01061033 TSNO
94908KDBQ DBQ20050413190010404/13/05 19:00:31  5-MIN KDBQ 140100Z AUTO 05009KT 10SM CLR 11/M03 A3022  810 37 500 050/09 RMK AO2 TSNO
94908KDBQ DBQ20050413190510404/13/05 19:05:31  5-MIN KDBQ 140105Z AUTO 05007KT 10SM CLR 11/M03 A3022  800 37 500 050/07 RMK AO2 TSNO
94908KDBQ DBQ20050413191010404/13/05 19:10:31  5-MIN KDBQ 140110Z AUTO 05009KT 10SM CLR 11/M04 A3022  800 36 500 050/09 RMK AO2 TSNO
94908KDBQ DBQ20050413191510404/13/05 19:15:31  5-MIN KDBQ 140115Z AUTO 05008KT 10SM CLR 11/M04 A3022  800 36 500 050/08 RMK AO2 TSNO
94908KDBQ DBQ20050413192010404/13/05 19:20:31  5-MIN KDBQ 140120Z AUTO 05008KT 10SM CLR 11/M04 A3022  800 36 500 050/08 RMK AO2 TSNO
94908KDBQ DBQ20050413192510404/13/05 19:25:31  5-MIN KDBQ 140125Z AUTO 05007KT 10SM CLR 11/M04 A3022  800 36 500 050/07 RMK AO2 TSNO
94908KDBQ DBQ20050413193010404/13/05 19:30:31  5-MIN KDBQ 140130Z AUTO 05007KT 10SM CLR 10/M03 A3023  800 39 400 050/07 RMK AO2 TSNO
94908KDBQ DBQ20050413193510404/13/05 19:35:31  5-MIN KDBQ 140135Z AUTO 05006KT 10SM CLR 10/M03 A3023  800 39 400 040/06 RMK AO2 TSNO
94908KDBQ DBQ20050413194010404/13/05 19:40:31  5-MIN KDBQ 140140Z AUTO 04006KT 10SM CLR 09/M03 A3023  800 40 400 040/06 RMK AO2 TSNO
94908KDBQ DBQ20050413194510404/13/05 19:45:31  5-MIN KDBQ 140145Z AUTO 04006KT 10SM CLR 08/M03 A3023  800 43 200 040/06 RMK AO2 TSNO
94908KDBQ DBQ20050413195012104/13/05 19:50:31  5-MIN KDBQ 140150Z AUTO 04005KT 10SM CLR 08/M03 A3023  800 45 200 040/05 RMK AO2 SLP244 T00831028 TSNO
94908KDBQ DBQ20050413195512104/13/05 19:55:31  5-MIN KDBQ 140155Z AUTO 04005KT 10SM CLR 08/M03 A3023  790 45 200 040/05 RMK AO2 SLP244 T00831028 TSNO
94908KDBQ DBQ20050413200010404/13/05 20:00:31  5-MIN KDBQ 140200Z AUTO 04004KT 10SM CLR 08/M03 A3023  800 47 200 040/04 RMK AO2 TSNO
94908KDBQ DBQ20050413200510404/13/05 20:05:31  5-MIN KDBQ 140205Z AUTO 04003KT 10SM CLR 08/M03 A3023  800 47 200 040/03 RMK AO2 TSNO
94908KDBQ DBQ20050413201010404/13/05 20:10:31  5-MIN KDBQ 140210Z AUTO 05004KT 10SM CLR 08/M03 A3023  800 45 200 050/04 RMK AO2 TSNO
94908KDBQ DBQ20050413201510404/13/05 20:15:31  5-MIN KDBQ 140215Z AUTO 04005KT 10SM CLR 08/M03 A3023  790 45 200 040/05 RMK AO2 TSNO
94908KDBQ DBQ20050413202010404/13/05 20:20:31  5-MIN KDBQ 140220Z AUTO 04005KT 10SM CLR 08/M03 A3023  790 43 200 030/05 RMK AO2 TSNO
94908KDBQ DBQ20050413202510404/13/05 20:25:31  5-MIN KDBQ 140225Z AUTO 05005KT 10SM CLR 08/M03 A3023  790 43 200 050/05 RMK AO2 TSNO
94908KDBQ DBQ20050413203010404/13/05 20:30:31  5-MIN KDBQ 140230Z AUTO 06006KT 10SM CLR 08/M03 A3023  790 43 200 050/06 RMK AO2 TSNO
94908KDBQ DBQ20050413203510404/13/05 20:35:31  5-MIN KDBQ 140235Z AUTO 06006KT 10SM CLR 08/M03 A3023  790 43 200 060/06 RMK AO2 TSNO
94908KDBQ DBQ20050413204010404/13/05 20:40:31  5-MIN KDBQ 140240Z AUTO 06007KT 10SM CLR 08/M03 A3023  790 43 200 060/07 RMK AO2 TSNO
94908KDBQ DBQ20050413204510404/13/05 20:45:31  5-MIN KDBQ 140245Z AUTO 06006KT 10SM CLR 09/M04 A3023  790 40 300 050/06 RMK AO2 TSNO
94908KDBQ DBQ20050413205012704/13/05 20:50:31  5-MIN KDBQ 140250Z AUTO 05008KT 10SM CLR 09/M04 A3023  790 40 300 050/08 RMK AO2 SLP242 T00891039 53014 TSNO
94908KDBQ DBQ20050413205512704/13/05 20:55:31  5-MIN KDBQ 140255Z AUTO 06008KT 10SM CLR 09/M04 A3023  790 39 400 060/08 RMK AO2 SLP242 T00941039 51010 TSNO
94908KDBQ DBQ20050413210010404/13/05 21:00:31  5-MIN KDBQ 140300Z AUTO 05008KT 10SM CLR 09/M04 A3023  790 39 400 050/08 RMK AO2 TSNO
94908KDBQ DBQ20050413210510404/13/05 21:05:31  5-MIN KDBQ 140305Z AUTO 05008KT 10SM CLR 09/M04 A3023  790 40 300 050/08 RMK AO2 TSNO
94908KDBQ DBQ20050413211010404/13/05 21:10:31  5-MIN KDBQ 140310Z AUTO 05009KT 10SM CLR 09/M04 A3023  790 40 300 050/09 RMK AO2 TSNO
94908KDBQ DBQ20050413211510404/13/05 21:15:31  5-MIN KDBQ 140315Z AUTO 06008KT 10SM CLR 09/M04 A3023  790 39 400 060/08 RMK AO2 TSNO
94908KDBQ DBQ20050413212010404/13/05 21:20:31  5-MIN KDBQ 140320Z AUTO 05009KT 10SM CLR 09/M04 A3023  790 37 400 050/09 RMK AO2 TSNO
94908KDBQ DBQ20050413212510404/13/05 21:25:31  5-MIN KDBQ 140325Z AUTO 05007KT 10SM CLR 09/M04 A3023  790 40 300 050/07 RMK AO2 TSNO
94908KDBQ DBQ20050413213010404/13/05 21:30:31  5-MIN KDBQ 140330Z AUTO 05007KT 10SM CLR 08/M04 A3023  790 42 200 050/07 RMK AO2 TSNO
94908KDBQ DBQ20050413213510404/13/05 21:35:31  5-MIN KDBQ 140335Z AUTO 05006KT 10SM CLR 08/M04 A3023  790 42 200 050/06 RMK AO2 TSNO
94908KDBQ DBQ20050413214010404/13/05 21:40:31  5-MIN KDBQ 140340Z AUTO 07008KT 10SM CLR 08/M04 A3024  790 42 200 060/08 RMK AO2 TSNO
94908KDBQ DBQ20050413214510404/13/05 21:45:31  5-MIN KDBQ 140345Z AUTO 06009KT 10SM CLR 08/M04 A3024  790 42 200 060/09 RMK AO2 TSNO
94908KDBQ DBQ20050413215012104/13/05 21:50:31  5-MIN KDBQ 140350Z AUTO 05008KT 10SM CLR 08/M04 A3024  790 42 200 050/08 RMK AO2 SLP245 T00831039 TSNO
94908KDBQ DBQ20050413215512104/13/05 21:55:31  5-MIN KDBQ 140355Z AUTO 05007KT 10SM CLR 08/M04 A3024  790 42 200 050/07 RMK AO2 SLP245 T00831039 TSNO
94908KDBQ DBQ20050413220010404/13/05 22:00:31  5-MIN KDBQ 140400Z AUTO 05007KT 10SM CLR 08/M04 A3024  780 43 100 050/07 RMK AO2 TSNO
94908KDBQ DBQ20050413220510404/13/05 22:05:31  5-MIN KDBQ 140405Z AUTO 05008KT 10SM CLR 08/M04 A3024  790 43 100 050/08 RMK AO2 TSNO
94908KDBQ DBQ20050413221010404/13/05 22:10:31  5-MIN KDBQ 140410Z AUTO 05007KT 10SM CLR 08/M04 A3024  790 43 100 050/07 RMK AO2 TSNO
94908KDBQ DBQ20050413221510404/13/05 22:15:31  5-MIN KDBQ 140415Z AUTO 05007KT 10SM CLR 08/M04 A3024  780 43 100 050/07 RMK AO2 TSNO
94908KDBQ DBQ20050413222010204/13/05 22:20:31  5-MIN KDBQ 140420Z AUTO 04006KT 10SM CLR 07/M03 A3024  780 49 0 040/06 RMK AO2 TSNO
94908KDBQ DBQ20050413222510204/13/05 22:25:31  5-MIN KDBQ 140425Z AUTO 04006KT 10SM CLR 07/M03 A3024  780 49 0 040/06 RMK AO2 TSNO
94908KDBQ DBQ20050413223010204/13/05 22:30:31  5-MIN KDBQ 140430Z AUTO 04007KT 10SM CLR 06/M03 A3024  780 51 0 040/07 RMK AO2 TSNO
94908KDBQ DBQ20050413223510204/13/05 22:35:31  5-MIN KDBQ 140435Z AUTO 04007KT 10SM CLR 06/M03 A3024  780 53 0 040/07 RMK AO2 TSNO
94908KDBQ DBQ20050413224010204/13/05 22:40:31  5-MIN KDBQ 140440Z AUTO 04008KT 10SM CLR 06/M03 A3024  780 53 0 040/08 RMK AO2 TSNO
94908KDBQ DBQ20050413224510504/13/05 22:45:31  5-MIN KDBQ 140445Z AUTO 03008KT 10SM CLR 06/M03 A3024  780 53 -100 030/08 RMK AO2 TSNO
94908KDBQ DBQ20050413225012204/13/05 22:50:31  5-MIN KDBQ 140450Z AUTO 03009KT 10SM CLR 06/M03 A3024  780 55 -100 030/09 RMK AO2 SLP247 T00561028 TSNO
94908KDBQ DBQ20050413225512204/13/05 22:55:31  5-MIN KDBQ 140455Z AUTO 04009KT 10SM CLR 06/M03 A3024  780 55 -100 040/09 RMK AO2 SLP247 T00561028 TSNO
94908KDBQ DBQ20050413230010504/13/05 23:00:31  5-MIN KDBQ 140500Z AUTO 04009KT 10SM CLR 06/M03 A3024  780 55 -100 040/09 RMK AO2 TSNO
94908KDBQ DBQ20050413230510504/13/05 23:05:31  5-MIN KDBQ 140505Z AUTO 04009KT 10SM CLR 06/M03 A3024  780 53 -100 040/09 RMK AO2 TSNO
94908KDBQ DBQ20050413231010204/13/05 23:10:31  5-MIN KDBQ 140510Z AUTO 04009KT 10SM CLR 06/M03 A3024  780 51 0 040/09 RMK AO2 TSNO
94908KDBQ DBQ20050413231510204/13/05 23:15:31  5-MIN KDBQ 140515Z AUTO 03009KT 10SM CLR 06/M03 A3024  780 51 0 030/09 RMK AO2 TSNO
94908KDBQ DBQ20050413232010204/13/05 23:20:31  5-MIN KDBQ 140520Z AUTO 04009KT 10SM CLR 06/M03 A3024  780 51 0 040/09 RMK AO2 TSNO
94908KDBQ DBQ20050413232510204/13/05 23:25:31  5-MIN KDBQ 140525Z AUTO 04008KT 10SM CLR 06/M03 A3024  780 51 0 040/08 RMK AO2 TSNO
94908KDBQ DBQ20050413233010504/13/05 23:30:31  5-MIN KDBQ 140530Z AUTO 04007KT 10SM CLR 06/M03 A3025  780 53 -100 040/07 RMK AO2 TSNO
94908KDBQ DBQ20050413233510504/13/05 23:35:31  5-MIN KDBQ 140535Z AUTO 03006KT 10SM CLR 06/M03 A3025  780 53 -100 030/06 RMK AO2 TSNO
94908KDBQ DBQ20050413234010504/13/05 23:40:31  5-MIN KDBQ 140540Z AUTO 03005KT 10SM CLR 05/M03 A3025  780 55 -200 030/05 RMK AO2 TSNO
94908KDBQ DBQ20050413234510504/13/05 23:45:31  5-MIN KDBQ 140545Z AUTO 03005KT 10SM CLR 05/M04 A3025  780 52 -200 030/05 RMK AO2 TSNO
94908KDBQ DBQ20050413235015104/13/05 23:50:31  5-MIN KDBQ 140550Z AUTO 03005KT 10SM CLR 06/M04 A3025  780 50 -100 030/05 RMK AO2 SLP248 T00561039 10128 20050 401440017 51010  TSNO
94908KDBQ DBQ20050413235515104/13/05 23:55:31  5-MIN KDBQ 140555Z AUTO 03006KT 10SM CLR 06/M04 A3025  780 50 -100 030/06 RMK AO2 SLP248 T00561039 10128 20050 401440017 51005  TSNO
94908KDBQ DBQ20050414000010504/14/05 00:00:38  5-MIN KDBQ 140600Z AUTO 03006KT 10SM CLR 06/M04 A3025  780 50 -100 030/06 RMK AO2 TSNO
94908KDBQ DBQ20050414000510504/14/05 00:05:31  5-MIN KDBQ 140605Z AUTO 03007KT 10SM CLR 04/M03 A3025  780 57 -200 030/07 RMK AO2 TSNO
94908KDBQ DBQ20050414001010504/14/05 00:10:31  5-MIN KDBQ 140610Z AUTO 03007KT 10SM CLR 04/M03 A3025  780 59 -300 030/07 RMK AO2 TSNO
94908KDBQ DBQ20050414001510504/14/05 00:15:31  5-MIN KDBQ 140615Z AUTO 03008KT 10SM CLR 04/M03 A3025  780 59 -300 030/08 RMK AO2 TSNO
94908KDBQ DBQ20050414002010504/14/05 00:20:31  5-MIN KDBQ 140620Z AUTO 03008KT 10SM CLR 04/M03 A3025  780 57 -200 030/08 RMK AO2 TSNO
94908KDBQ DBQ20050414002510504/14/05 00:25:31  5-MIN KDBQ 140625Z AUTO 03008KT 10SM CLR 04/M03 A3025  780 57 -200 030/08 RMK AO2 TSNO
94908KDBQ DBQ20050414003010504/14/05 00:30:31  5-MIN KDBQ 140630Z AUTO 03009KT 10SM CLR 04/M03 A3025  780 62 -300 030/09 RMK AO2 TSNO
94908KDBQ DBQ20050414003510504/14/05 00:35:31  5-MIN KDBQ 140635Z AUTO 03008KT 10SM CLR 04/M03 A3025  780 62 -300 030/08 RMK AO2 TSNO
94908KDBQ DBQ20050414004010504/14/05 00:40:31  5-MIN KDBQ 140640Z AUTO 03008KT 10SM CLR 04/M03 A3025  780 62 -300 030/08 RMK AO2 TSNO
94908KDBQ DBQ20050414004510504/14/05 00:45:31  5-MIN KDBQ 140645Z AUTO 03008KT 10SM CLR 04/M03 A3025  780 62 -300 030/08 RMK AO2 TSNO
94908KDBQ DBQ20050414005012204/14/05 00:50:31  5-MIN KDBQ 140650Z AUTO 03008KT 10SM CLR 04/M03 A3025  780 62 -300 030/08 RMK AO2 SLP247 T00391028 TSNO
94908KDBQ DBQ20050414005512204/14/05 00:55:31  5-MIN KDBQ 140655Z AUTO 04009KT 10SM CLR 04/M03 A3025  780 62 -300 030/09 RMK AO2 SLP248 T00391028 TSNO
94908KDBQ DBQ20050414010010504/14/05 01:00:31  5-MIN KDBQ 140700Z AUTO 04008KT 10SM CLR 04/M03 A3024  780 62 -300 040/08 RMK AO2 TSNO
94908KDBQ DBQ20050414010510504/14/05 01:05:31  5-MIN KDBQ 140705Z AUTO 04008KT 10SM CLR 04/M03 A3024  780 62 -300 040/08 RMK AO2 TSNO
94908KDBQ DBQ20050414011010504/14/05 01:10:31  5-MIN KDBQ 140710Z AUTO 04007KT 10SM CLR 04/M03 A3024  780 62 -300 040/07 RMK AO2 TSNO
94908KDBQ DBQ20050414011510504/14/05 01:15:31  5-MIN KDBQ 140715Z AUTO 05006KT 10SM CLR 04/M03 A3024  780 62 -300 050/06 RMK AO2 TSNO
94908KDBQ DBQ20050414012010504/14/05 01:20:31  5-MIN KDBQ 140720Z AUTO 04006KT 10SM CLR 03/M03 A3024  780 61 -400 040/06 RMK AO2 TSNO
94908KDBQ DBQ20050414012510504/14/05 01:25:31  5-MIN KDBQ 140725Z AUTO 04006KT 10SM CLR 03/M03 A3024  780 61 -400 040/06 RMK AO2 TSNO
94908KDBQ DBQ20050414013010504/14/05 01:30:31  5-MIN KDBQ 140730Z AUTO 04007KT 10SM CLR 03/M03 A3024  780 61 -400 040/07 RMK AO2 TSNO
94908KDBQ DBQ20050414013510504/14/05 01:35:31  5-MIN KDBQ 140735Z AUTO 04007KT 10SM CLR 03/M03 A3024  780 61 -400 040/07 RMK AO2 TSNO
94908KDBQ DBQ20050414014010504/14/05 01:40:31  5-MIN KDBQ 140740Z AUTO 04006KT 10SM CLR 03/M03 A3024  780 61 -400 040/06 RMK AO2 TSNO
94908KDBQ DBQ20050414014510504/14/05 01:45:31  5-MIN KDBQ 140745Z AUTO 04007KT 10SM CLR 03/M03 A3024  780 61 -400 040/07 RMK AO2 TSNO
94908KDBQ DBQ20050414015012204/14/05 01:50:31  5-MIN KDBQ 140750Z AUTO 04007KT 10SM CLR 03/M03 A3024  780 61 -400 030/07 RMK AO2 SLP246 T00331033 TSNO
94908KDBQ DBQ20050414015512204/14/05 01:55:31  5-MIN KDBQ 140755Z AUTO 03008KT 10SM CLR 03/M04 A3024  780 59 -400 030/08 RMK AO2 SLP246 T00331039 TSNO
94908KDBQ DBQ20050414020010504/14/05 02:00:31  5-MIN KDBQ 140800Z AUTO 03008KT 10SM CLR 04/M03 A3024  780 59 -300 030/08 RMK AO2 TSNO
94908KDBQ DBQ20050414020510504/14/05 02:05:31  5-MIN KDBQ 140805Z AUTO 03008KT 10SM CLR 04/M03 A3024  780 59 -300 030/08 RMK AO2 TSNO
94908KDBQ DBQ20050414021010504/14/05 02:10:31  5-MIN KDBQ 140810Z AUTO 03007KT 10SM CLR 03/M03 A3025  780 61 -400 030/07 RMK AO2 TSNO
94908KDBQ DBQ20050414021510504/14/05 02:15:31  5-MIN KDBQ 140815Z AUTO 03007KT 10SM CLR 03/M03 A3025  780 61 -400 030/07 RMK AO2 TSNO
94908KDBQ DBQ20050414022010504/14/05 02:20:31  5-MIN KDBQ 140820Z AUTO 03007KT 10SM CLR 03/M03 A3025  780 61 -400 030/07 RMK AO2 TSNO
94908KDBQ DBQ20050414022510504/14/05 02:25:31  5-MIN KDBQ 140825Z AUTO 03007KT 10SM CLR 03/M03 A3025  780 61 -400 030/07 RMK AO2 TSNO
94908KDBQ DBQ20050414023010504/14/05 02:30:31  5-MIN KDBQ 140830Z AUTO 03007KT 10SM CLR 03/M03 A3025  770 61 -400 030/07 RMK AO2 TSNO
94908KDBQ DBQ20050414023510504/14/05 02:35:31  5-MIN KDBQ 140835Z AUTO 03008KT 10SM CLR 03/M03 A3025  770 61 -400 030/08 RMK AO2 TSNO
94908KDBQ DBQ20050414024010504/14/05 02:40:31  5-MIN KDBQ 140840Z AUTO 03008KT 10SM CLR 03/M03 A3025  770 61 -400 030/08 RMK AO2 TSNO
94908KDBQ DBQ20050414024510504/14/05 02:45:31  5-MIN KDBQ 140845Z AUTO 03008KT 10SM CLR 03/M04 A3025  770 59 -400 030/08 RMK AO2 TSNO
94908KDBQ DBQ20050414025012804/14/05 02:50:31  5-MIN KDBQ 140850Z AUTO 03007KT 10SM CLR 03/M03 A3025  770 61 -400 030/07 RMK AO2 SLP251 T00331033 51005 TSNO
94908KDBQ DBQ20050414025512804/14/05 02:55:31  5-MIN KDBQ 140855Z AUTO 03007KT 10SM CLR 03/M03 A3025  770 64 -400 030/07 RMK AO2 SLP251 T00281033 53003 TSNO
94908KDBQ DBQ20050414030010504/14/05 03:00:31  5-MIN KDBQ 140900Z AUTO 04007KT 10SM CLR 03/M03 A3026  770 64 -400 040/07 RMK AO2 TSNO
94908KDBQ DBQ20050414030510504/14/05 03:05:31  5-MIN KDBQ 140905Z AUTO 03008KT 10SM CLR 03/M03 A3026  770 64 -400 030/08 RMK AO2 TSNO
94908KDBQ DBQ20050414031010504/14/05 03:10:31  5-MIN KDBQ 140910Z AUTO 03008KT 10SM CLR 03/M03 A3026  770 61 -400 030/08 RMK AO2 TSNO
94908KDBQ DBQ20050414031510504/14/05 03:15:31  5-MIN KDBQ 140915Z AUTO 03007KT 10SM CLR 03/M03 A3026  760 64 -400 020/07 RMK AO2 TSNO
94908KDBQ DBQ20050414032010504/14/05 03:20:31  5-MIN KDBQ 140920Z AUTO 03007KT 10SM CLR 03/M03 A3026  760 64 -400 030/07 RMK AO2 TSNO
94908KDBQ DBQ20050414032510504/14/05 03:25:31  5-MIN KDBQ 140925Z AUTO 03007KT 10SM CLR 02/M03 A3026  760 67 -500 030/07 RMK AO2 TSNO
94908KDBQ DBQ20050414033010504/14/05 03:30:31  5-MIN KDBQ 140930Z AUTO 03006KT 10SM CLR 02/M03 A3026  760 67 -500 030/06 RMK AO2 TSNO
94908KDBQ DBQ20050414033510504/14/05 03:35:31  5-MIN KDBQ 140935Z AUTO 03005KT 10SM CLR 02/M03 A3026  760 67 -500 030/05 RMK AO2 TSNO
94908KDBQ DBQ20050414034010504/14/05 03:40:31  5-MIN KDBQ 140940Z AUTO 02005KT 10SM CLR 01/M03 A3027  760 72 -700 020/05 RMK AO2 TSNO
94908KDBQ DBQ20050414034510504/14/05 03:45:31  5-MIN KDBQ 140945Z AUTO 02004KT 10SM CLR 01/M04 A3027  760 72 -700 010/04 RMK AO2 TSNO
94908KDBQ DBQ20050414035012204/14/05 03:50:31  5-MIN KDBQ 140950Z AUTO 00000KT 10SM CLR 02/M04 A3027  760 66 -600 000/00 RMK AO2 SLP255 T00171039 TSNO
94908KDBQ DBQ20050414035512204/14/05 03:55:31  5-MIN KDBQ 140955Z AUTO 00000KT 10SM CLR 02/M04 A3027  760 61 -500 000/00 RMK AO2 SLP254 T00221044 TSNO
94908KDBQ DBQ20050414040010504/14/05 04:00:31  5-MIN KDBQ 141000Z AUTO 00000KT 10SM CLR 02/M04 A3027  760 61 -500 000/00 RMK AO2 TSNO
94908KDBQ DBQ20050414040510504/14/05 04:05:31  5-MIN KDBQ 141005Z AUTO 03005KT 10SM CLR 01/M04 A3027  760 66 -700 020/05 RMK AO2 TSNO
94908KDBQ DBQ20050414041010504/14/05 04:10:31  5-MIN KDBQ 141010Z AUTO 03004KT 10SM CLR 02/M04 A3027  760 64 -500 030/04 RMK AO2 TSNO
94908KDBQ DBQ20050414041510504/14/05 04:15:31  5-MIN KDBQ 141015Z AUTO 03004KT 10SM CLR 02/M04 A3027  750 64 -500 030/04 RMK AO2 TSNO
94908KDBQ DBQ20050414042010504/14/05 04:20:31  5-MIN KDBQ 141020Z AUTO 03005KT 10SM CLR 01/M04 A3027  750 69 -700 030/05 RMK AO2 TSNO
94908KDBQ DBQ20050414042510504/14/05 04:25:31  5-MIN KDBQ 141025Z AUTO 03005KT 10SM CLR 01/M04 A3027  750 69 -700 030/05 RMK AO2 TSNO
94908KDBQ DBQ20050414043010504/14/05 04:30:31  5-MIN KDBQ 141030Z AUTO 03004KT 10SM CLR 01/M04 A3027  750 66 -700 030/04 RMK AO2 TSNO
94908KDBQ DBQ20050414043510504/14/05 04:35:31  5-MIN KDBQ 141035Z AUTO 02004KT 10SM CLR 02/M04 A3027  750 64 -600 020/04 RMK AO2 TSNO
94908KDBQ DBQ20050414044010504/14/05 04:40:31  5-MIN KDBQ 141040Z AUTO 02004KT 10SM CLR 02/M05 A3027  750 59 -500 020/04 RMK AO2 TSNO
94908KDBQ DBQ20050414044510504/14/05 04:45:31  5-MIN KDBQ 141045Z AUTO 02004KT 10SM CLR 02/M05 A3028  750 59 -500 010/04 RMK AO2 TSNO
94908KDBQ DBQ20050414045012204/14/05 04:50:31  5-MIN KDBQ 141050Z AUTO 01006KT 10SM CLR 03/M06 A3028  750 54 -500 010/06 RMK AO2 SLP259 T00281056 TSNO
94908KDBQ DBQ20050414045512204/14/05 04:55:31  5-MIN KDBQ 141055Z AUTO 01007KT 10SM CLR 02/M05 A3028  750 59 -500 010/07 RMK AO2 SLP260 T00221050 TSNO
94908KDBQ DBQ20050414050009404/14/05 05:00:31  5-MIN KDBQ 141100Z 02007KT 10SM CLR 02/M05 A3028 750 61 -600 020/07 RMK AO2
94908KDBQ DBQ20050414050509404/14/05 05:05:31  5-MIN KDBQ 141105Z 02007KT 10SM CLR 03/M06 A3029 740 54 -500 020/07 RMK AO2
94908KDBQ DBQ20050414051009404/14/05 05:10:31  5-MIN KDBQ 141110Z 03007KT 10SM CLR 02/M05 A3029 740 59 -500 020/07 RMK AO2
94908KDBQ DBQ20050414051509404/14/05 05:15:31  5-MIN KDBQ 141115Z 02006KT 10SM CLR 03/M06 A3029 740 54 -500 020/06 RMK AO2
94908KDBQ DBQ20050414052009404/14/05 05:20:31  5-MIN KDBQ 141120Z 02006KT 10SM CLR 03/M06 A3029 740 54 -500 020/06 RMK AO2
94908KDBQ DBQ20050414052509404/14/05 05:25:31  5-MIN KDBQ 141125Z 03007KT 10SM CLR 02/M05 A3029 740 59 -500 020/07 RMK AO2
94908KDBQ DBQ20050414053009404/14/05 05:30:31  5-MIN KDBQ 141130Z 03006KT 10SM CLR 02/M05 A3029 740 59 -500 030/06 RMK AO2
94908KDBQ DBQ20050414053509404/14/05 05:35:31  5-MIN KDBQ 141135Z 03007KT 10SM CLR 02/M04 A3029 740 64 -600 030/07 RMK AO2
94908KDBQ DBQ20050414054009404/14/05 05:40:31  5-MIN KDBQ 141140Z 04007KT 10SM CLR 02/M04 A3029 740 64 -600 040/07 RMK AO2
94908KDBQ DBQ20050414054509404/14/05 05:45:31  5-MIN KDBQ 141145Z 04007KT 10SM CLR 02/M04 A3029 740 61 -500 040/07 RMK AO2
94908KDBQ DBQ20050414055012904/14/05 05:50:31  5-MIN KDBQ 141150Z 04007KT 10SM CLR 02/M04 A3029 740 61 -600 040/07 RMK AO2 SLP265 T00221044 10061 20006 53003
94908KDBQ DBQ20050414055512904/14/05 05:55:31  5-MIN KDBQ 141155Z 04007KT 10SM CLR 03/M04 A3029 730 59 -500 040/07 RMK AO2 SLP265 T00281044 10061 20006 53013
94908KDBQ DBQ20050414060009404/14/05 06:00:31  5-MIN KDBQ 141200Z 04007KT 10SM CLR 03/M04 A3030 730 59 -500 040/07 RMK AO2
94908KDBQ DBQ20050414060509404/14/05 06:05:31  5-MIN KDBQ 141205Z 04006KT 10SM CLR 03/M04 A3030 730 59 -400 040/06 RMK AO2
94908KDBQ DBQ20050414061009404/14/05 06:10:31  5-MIN KDBQ 141210Z 04006KT 10SM CLR 03/M04 A3030 730 59 -400 030/06 RMK AO2
94908KDBQ DBQ20050414061509404/14/05 06:15:31  5-MIN KDBQ 141215Z 03006KT 10SM CLR 03/M03 A3030 730 61 -400 030/06 RMK AO2
94908KDBQ DBQ20050414062009404/14/05 06:20:31  5-MIN KDBQ 141220Z 03007KT 10SM CLR 04/M03 A3031 720 59 -400 030/07 RMK AO2
94908KDBQ DBQ20050414062509404/14/05 06:25:31  5-MIN KDBQ 141225Z 04008KT 10SM CLR 04/M03 A3031 720 57 -300 040/08 RMK AO2
94908KDBQ DBQ20050414063009404/14/05 06:30:31  5-MIN KDBQ 141230Z 04009KT 10SM CLR 04/M03 A3031 720 57 -300 040/09 RMK AO2
94908KDBQ DBQ20050414063509404/14/05 06:35:31  5-MIN KDBQ 141235Z 04008KT 10SM CLR 04/M03 A3031 720 57 -300 040/08 RMK AO2
94908KDBQ DBQ20050414064009404/14/05 06:40:31  5-MIN KDBQ 141240Z 04008KT 10SM CLR 04/M03 A3031 720 57 -300 040/08 RMK AO2
94908KDBQ DBQ20050414064509404/14/05 06:45:31  5-MIN KDBQ 141245Z 04008KT 10SM CLR 05/M03 A3031 720 55 -200 040/08 RMK AO2
94908KDBQ DBQ20050414065011104/14/05 06:50:31  5-MIN KDBQ 141250Z 04008KT 10SM CLR 05/M03 A3031 720 55 -200 040/08 RMK AO2 SLP271 T00501033
94908KDBQ DBQ20050414065511104/14/05 06:55:31  5-MIN KDBQ 141255Z 04008KT 10SM CLR 06/M03 A3031 720 53 -200 040/08 RMK AO2 SLP271 T00561033
94908KDBQ DBQ20050414070009404/14/05 07:00:31  5-MIN KDBQ 141300Z 04008KT 10SM CLR 06/M03 A3032 710 53 -200 040/08 RMK AO2
94908KDBQ DBQ20050414070509404/14/05 07:05:31  5-MIN KDBQ 141305Z 04006KT 10SM CLR 06/M03 A3032 710 53 -200 040/06 RMK AO2
94908KDBQ DBQ20050414071009404/14/05 07:10:31  5-MIN KDBQ 141310Z 04007KT 10SM CLR 06/M03 A3032 710 53 -100 040/07 RMK AO2
94908KDBQ DBQ20050414071509404/14/05 07:15:31  5-MIN KDBQ 141315Z 03008KT 10SM CLR 06/M03 A3032 710 53 -100 030/08 RMK AO2
94908KDBQ DBQ20050414072009404/14/05 07:20:31  5-MIN KDBQ 141320Z 04008KT 10SM CLR 06/M02 A3032 710 55 -100 040/08 RMK AO2
94908KDBQ DBQ20050414072509104/14/05 07:25:31  5-MIN KDBQ 141325Z 04008KT 10SM CLR 07/M02 A3032 710 53 0 040/08 RMK AO2
94908KDBQ DBQ20050414073009104/14/05 07:30:31  5-MIN KDBQ 141330Z 04008KT 10SM CLR 07/M02 A3032 710 53 0 040/08 RMK AO2
94908KDBQ DBQ20050414073509104/14/05 07:35:31  5-MIN KDBQ 141335Z 04007KT 10SM CLR 07/M02 A3032 710 55 0 040/07 RMK AO2
94908KDBQ DBQ20050414074009104/14/05 07:40:31  5-MIN KDBQ 141340Z 04007KT 10SM CLR 07/M02 A3033 710 53 0 040/07 RMK AO2
94908KDBQ DBQ20050414074509104/14/05 07:45:31  5-MIN KDBQ 141345Z 03007KT 10SM CLR 07/M02 A3033 700 53 0 030/07 RMK AO2
94908KDBQ DBQ20050414075010804/14/05 07:50:31  5-MIN KDBQ 141350Z 04006KT 10SM CLR 08/M01 A3033 700 53 0 040/06 RMK AO2 SLP276 T00781011
94908KDBQ DBQ20050414075510804/14/05 07:55:31  5-MIN KDBQ 141355Z 03007KT 10SM CLR 08/M01 A3033 700 53 0 030/07 RMK AO2 SLP277 T00781011
94908KDBQ DBQ20050414080009304/14/05 08:00:31  5-MIN KDBQ 141400Z 04006KT 10SM CLR 08/M01 A3033 700 51 100 040/06 RMK AO2
94908KDBQ DBQ20050414080509304/14/05 08:05:31  5-MIN KDBQ 141405Z 04007KT 10SM CLR 08/M01 A3033 700 51 100 030/07 RMK AO2
94908KDBQ DBQ20050414081009304/14/05 08:10:31  5-MIN KDBQ 141410Z 04006KT 10SM CLR 08/M01 A3033 700 51 100 040/06 RMK AO2
94908KDBQ DBQ20050414081509304/14/05 08:15:31  5-MIN KDBQ 141415Z 04005KT 10SM CLR 08/M01 A3033 700 51 100 040/05 RMK AO2
94908KDBQ DBQ20050414082009304/14/05 08:20:31  5-MIN KDBQ 141420Z 03005KT 10SM CLR 09/M01 A3033 700 49 200 030/05 RMK AO2
94908KDBQ DBQ20050414082509304/14/05 08:25:31  5-MIN KDBQ 141425Z 03006KT 10SM CLR 09/M01 A3033 700 49 200 030/06 RMK AO2
94908KDBQ DBQ20050414083009304/14/05 08:30:31  5-MIN KDBQ 141430Z 03005KT 10SM CLR 09/M01 A3033 700 49 200 030/05 RMK AO2
94908KDBQ DBQ20050414083509304/14/05 08:35:31  5-MIN KDBQ 141435Z 03005KT 10SM CLR 09/M01 A3033 700 49 200 030/05 RMK AO2
94908KDBQ DBQ20050414084009304/14/05 08:40:31  5-MIN KDBQ 141440Z 04007KT 10SM CLR 10/M01 A3033 700 47 300 040/07 RMK AO2
94908KDBQ DBQ20050414084509304/14/05 08:45:31  5-MIN KDBQ 141445Z 04006KT 10SM CLR 11/M01 A3033 700 46 400 040/06 RMK AO2
94908KDBQ DBQ20050414085011604/14/05 08:50:31  5-MIN KDBQ 141450Z 04006KT 10SM CLR 11/M01 A3033 700 46 400 040/06 RMK AO2 SLP275 T01061006 53013
94908KDBQ DBQ20050414085511604/14/05 08:55:31  5-MIN KDBQ 141455Z 05006KT 10SM CLR 11/M01 A3033 700 44 400 050/06 RMK AO2 SLP274 T01111006 50011
94908KDBQ DBQ20050414090009304/14/05 09:00:31  5-MIN KDBQ 141500Z 03007KT 10SM CLR 11/M01 A3033 700 44 400 030/07 RMK AO2
94908KDBQ DBQ20050414090509304/14/05 09:05:31  5-MIN KDBQ 141505Z 04005KT 10SM CLR 11/M01 A3033 700 44 400 040/05 RMK AO2
94908KDBQ DBQ20050414091009304/14/05 09:10:31  5-MIN KDBQ 141510Z 03006KT 10SM CLR 12/00 A3033 700 44  500 030/06 RMK AO2
94908KDBQ DBQ20050414091509304/14/05 09:15:31  5-MIN KDBQ 141515Z VRB04KT 10SM CLR 12/M01 A3033 700 42 500 VRB/04 RMK AO2
94908KDBQ DBQ20050414092009304/14/05 09:20:31  5-MIN KDBQ 141520Z 09006KT 10SM CLR 12/M02 A3033 700 36 600 090/06 RMK AO2
94908KDBQ DBQ20050414092509304/14/05 09:25:31  5-MIN KDBQ 141525Z 08009KT 10SM CLR 12/M02 A3033 700 38 600 080/09 RMK AO2
94908KDBQ DBQ20050414093009304/14/05 09:30:31  5-MIN KDBQ 141530Z 07006KT 10SM CLR 12/M03 A3033 700 33 600 070/06 RMK AO2
94908KDBQ DBQ20050414093509304/14/05 09:35:31  5-MIN KDBQ 141535Z 06007KT 10SM CLR 13/M02 A3033 700 36 600 060/07 RMK AO2
94908KDBQ DBQ20050414094009304/14/05 09:40:31  5-MIN KDBQ 141540Z 09008KT 10SM CLR 13/M03 A3033 700 33 600 090/08 RMK AO2
94908KDBQ DBQ20050414094509304/14/05 09:45:31  5-MIN KDBQ 141545Z 09008KT 10SM CLR 13/M03 A3033 700 32 600 090/08 RMK AO2
94908KDBQ DBQ20050414095011004/14/05 09:50:31  5-MIN KDBQ 141550Z 07008KT 10SM CLR 13/M02 A3033 700 34 700 070/08 RMK AO2 SLP274 T01331022
94908KDBQ DBQ20050414095511004/14/05 09:55:31  5-MIN KDBQ 141555Z 08007KT 10SM CLR 13/M02 A3033 700 35 600 070/07 RMK AO2 SLP274 T01281022
94908KDBQ DBQ20050414100009304/14/05 10:00:31  5-MIN KDBQ 141600Z 08008KT 10SM CLR 13/M02 A3033 710 35 600 080/08 RMK AO2
94908KDBQ DBQ20050414100509304/14/05 10:05:31  5-MIN KDBQ 141605Z VRB04KT 10SM CLR 13/M03 A3033 710 33 600 VRB/04 RMK AO2
94908KDBQ DBQ20050414101009304/14/05 10:10:31  5-MIN KDBQ 141610Z 07006KT 10SM CLR 13/M02 A3032 710 35 700 070/06 RMK AO2
94908KDBQ DBQ20050414101509304/14/05 10:15:31  5-MIN KDBQ 141615Z 08008KT 10SM CLR 13/M02 A3032 710 35 700 080/08 RMK AO2
94908KDBQ DBQ20050414102009304/14/05 10:20:31  5-MIN KDBQ 141620Z 09006KT 10SM CLR 14/M02 A3032 710 34 800 090/06 RMK AO2
94908KDBQ DBQ20050414102509304/14/05 10:25:31  5-MIN KDBQ 141625Z 10007KT 10SM CLR 13/M02 A3032 710 34 700 100/07 RMK AO2
94908KDBQ DBQ20050414103009304/14/05 10:30:31  5-MIN KDBQ 141630Z VRB06KT 10SM CLR 14/M02 A3032 710 32 800 VRB/06 RMK AO2
94908KDBQ DBQ20050414103509304/14/05 10:35:31  5-MIN KDBQ 141635Z 06005KT 10SM CLR 14/M01 A3032 710 35 800 060/05 RMK AO2
94908KDBQ DBQ20050414104009304/14/05 10:40:31  5-MIN KDBQ 141640Z VRB04KT 10SM CLR 14/M02 A3032 710 33 900 VRB/04 RMK AO2
94908KDBQ DBQ20050414104509304/14/05 10:45:31  5-MIN KDBQ 141645Z VRB05KT 10SM CLR 14/M01 A3032 710 35 900 VRB/05 RMK AO2
94908KDBQ DBQ20050414105011004/14/05 10:50:31  5-MIN KDBQ 141650Z VRB04KT 10SM CLR 14/M01 A3032 710 34 900 VRB/04 RMK AO2 SLP271 T01441011
94908KDBQ DBQ20050414105511004/14/05 10:55:31  5-MIN KDBQ 141655Z VRB03KT 10SM CLR 15/M01 A3032 710 33 900 VRB/03 RMK AO2 SLP270 T01501011
94908KDBQ DBQ20050414110009304/14/05 11:00:31  5-MIN KDBQ 141700Z 04006KT 10SM CLR 15/M01 A3032 710 33 900 040/06 RMK AO2
94908KDBQ DBQ20050414110509304/14/05 11:05:31  5-MIN KDBQ 141705Z 00000KT 10SM CLR 15/M01 A3032 710 33 900 000/00 RMK AO2
94908KDBQ DBQ20050414111009404/14/05 11:10:31  5-MIN KDBQ 141710Z VRB05KT 10SM CLR 16/M01 A3031 720 33 1000 VRB/05 RMK AO2
94908KDBQ DBQ20050414111509304/14/05 11:15:31  5-MIN KDBQ 141715Z VRB05KT 10SM CLR 15/M01 A3031 720 33 900 VRB/05 RMK AO2
94908KDBQ DBQ20050414112009304/14/05 11:20:31  5-MIN KDBQ 141720Z 00000KT 10SM CLR 15/M02 A3031 720 30 900 000/00 RMK AO2
94908KDBQ DBQ20050414112511004/14/05 11:25:31  5-MIN KDBQ 141725Z 05007KT 350V060 10SM CLR 16/M01 A3031 720 33 1000 050/07 350V060 RMK AO2
94908KDBQ DBQ20050414113010004/14/05 11:30:31  5-MIN KDBQ 141730Z 08007G14KT 10SM CLR 16/M01 A3031 720 33 1000 080/07G14 RMK AO2
94908KDBQ DBQ20050414113510004/14/05 11:35:31  5-MIN KDBQ 141735Z 07010G14KT 10SM CLR 16/M01 A3031 720 33 1000 070/10G14 RMK AO2
94908KDBQ DBQ20050414114009404/14/05 11:40:31  5-MIN KDBQ 141740Z 06007KT 10SM CLR 16/M01 A3031 720 31 1000 060/07 RMK AO2
94908KDBQ DBQ20050414114509404/14/05 11:45:31  5-MIN KDBQ 141745Z 05008KT 10SM CLR 16/M01 A3031 720 32 1100 050/08 RMK AO2
94908KDBQ DBQ20050414115012904/14/05 11:50:31  5-MIN KDBQ 141750Z VRB05KT 10SM CLR 16/M01 A3030 730 31 1000 VRB/05 RMK AO2 SLP265 T01561011 10161 20028 50011
94908KDBQ DBQ20050414115512904/14/05 11:55:31  5-MIN KDBQ 141755Z 04010KT 10SM CLR 16/00 A3030 730 33  1100 040/10 RMK AO2 SLP265 T01610000 10161 20028 58008
94908KDBQ DBQ20050414120009404/14/05 12:00:31  5-MIN KDBQ 141800Z 07008KT 10SM CLR 16/01 A3030 730 36  1100 070/08 RMK AO2
94908KDBQ DBQ20050414120509404/14/05 12:05:31  5-MIN KDBQ 141805Z 08008KT 10SM CLR 16/00 A3030 730 33  1100 080/08 RMK AO2
94908KDBQ DBQ20050414121009404/14/05 12:10:31  5-MIN KDBQ 141810Z 09008KT 10SM CLR 16/M01 A3030 730 32 1100 090/08 RMK AO2
94908KDBQ DBQ20050414121509404/14/05 12:15:31  5-MIN KDBQ 141815Z 06009KT 10SM CLR 16/00 A3030 730 33  1100 060/09 RMK AO2
94908KDBQ DBQ20050414122009404/14/05 12:20:31  5-MIN KDBQ 141820Z 08008KT 10SM CLR 17/00 A3030 730 32  1100 080/08 RMK AO2
94908KDBQ DBQ20050414122509404/14/05 12:25:31  5-MIN KDBQ 141825Z 06007KT 10SM CLR 16/M01 A3030 730 32 1100 060/07 RMK AO2
94908KDBQ DBQ20050414123009404/14/05 12:30:31  5-MIN KDBQ 141830Z 06007KT 10SM CLR 17/01 A3029 730 33  1100 060/07 RMK AO2
94908KDBQ DBQ20050414123509404/14/05 12:35:31  5-MIN KDBQ 141835Z 05010KT 10SM CLR 17/00 A3030 730 32  1100 050/10 RMK AO2
94908KDBQ DBQ20050414124009404/14/05 12:40:31  5-MIN KDBQ 141840Z 06007KT 10SM CLR 17/01 A3029 730 33  1100 060/07 RMK AO2
94908KDBQ DBQ20050414124509404/14/05 12:45:31  5-MIN KDBQ 141845Z 08010KT 10SM CLR 17/01 A3029 740 33  1100 080/10 RMK AO2
94908KDBQ DBQ20050414125011104/14/05 12:50:31  5-MIN KDBQ 141850Z 08007KT 10SM CLR 17/00 A3029 730 32  1100 070/07 RMK AO2 SLP262 T01670000
94908KDBQ DBQ20050414125511104/14/05 12:55:31  5-MIN KDBQ 141855Z 07011KT 10SM CLR 17/01 A3029 730 33  1100 070/11 RMK AO2 SLP262 T01670006
94908KDBQ DBQ20050414130009404/14/05 13:00:31  5-MIN KDBQ 141900Z 06006KT 10SM CLR 17/00 A3029 740 32  1100 060/06 RMK AO2
94908KDBQ DBQ20050414130509404/14/05 13:05:31  5-MIN KDBQ 141905Z 04008KT 10SM CLR 17/01 A3029 740 33  1200 040/08 RMK AO2
94908KDBQ DBQ20050414131009404/14/05 13:10:31  5-MIN KDBQ 141910Z 07010KT 10SM CLR 17/01 A3029 740 33  1200 070/10 RMK AO2
94908KDBQ DBQ20050414131509404/14/05 13:15:31  5-MIN KDBQ 141915Z VRB06KT 10SM CLR 17/00 A3029 740 32  1100 VRB/06 RMK AO2
94908KDBQ DBQ20050414132009404/14/05 13:20:31  5-MIN KDBQ 141920Z 06008KT 10SM CLR 17/01 A3029 740 32  1200 060/08 RMK AO2
94908KDBQ DBQ20050414132509404/14/05 13:25:31  5-MIN KDBQ 141925Z 08007KT 10SM CLR 17/01 A3029 740 33  1200 080/07 RMK AO2
94908KDBQ DBQ20050414133009404/14/05 13:30:31  5-MIN KDBQ 141930Z 10011KT 10SM CLR 18/02 A3028 740 33  1300 100/11 RMK AO2
94908KDBQ DBQ20050414133509404/14/05 13:35:31  5-MIN KDBQ 141935Z 07009KT 10SM CLR 17/01 A3028 750 32  1200 070/09 RMK AO2
94908KDBQ DBQ20050414134009404/14/05 13:40:31  5-MIN KDBQ 141940Z 10008KT 10SM CLR 18/01 A3028 750 32  1300 090/08 RMK AO2
94908KDBQ DBQ20050414134509404/14/05 13:45:31  5-MIN KDBQ 141945Z 06010KT 10SM CLR 18/01 A3028 750 32  1300 060/10 RMK AO2
94908KDBQ DBQ20050414135011104/14/05 13:50:31  5-MIN KDBQ 141950Z 07008KT 10SM CLR 18/02 A3028 750 33  1300 060/08 RMK AO2 SLP257 T01780017
94908KDBQ DBQ20050414135511104/14/05 13:55:31  5-MIN KDBQ 141955Z 07009KT 10SM CLR 18/02 A3028 750 35  1300 070/09 RMK AO2 SLP256 T01780022
94908KDBQ DBQ20050414140009404/14/05 14:00:31  5-MIN KDBQ 142000Z 10008KT 10SM CLR 18/02 A3027 750 33  1300 100/08 RMK AO2
94908KDBQ DBQ20050414140509404/14/05 14:05:31  5-MIN KDBQ 142005Z 04009KT 10SM CLR 18/02 A3027 760 33  1300 040/09 RMK AO2
94908KDBQ DBQ20050414141010904/14/05 14:10:31  5-MIN KDBQ 142010Z 07008KT 040V120 10SM CLR 18/02 A3027 760 35 1300 070/08 040V120 RMK AO2
94908KDBQ DBQ20050414141509404/14/05 14:15:31  5-MIN KDBQ 142015Z 06008KT 10SM CLR 18/02 A3027 760 32  1400 060/08 RMK AO2
94908KDBQ DBQ20050414142010004/14/05 14:20:31  5-MIN KDBQ 142020Z 08013G16KT 10SM CLR 18/02 A3026 760  34 1400 080/13G16 RMK AO2
94908KDBQ DBQ20050414142509404/14/05 14:25:31  5-MIN KDBQ 142025Z 07008KT 10SM CLR 18/02 A3026 760 32  1400 070/08 RMK AO2
94908KDBQ DBQ20050414143009404/14/05 14:30:31  5-MIN KDBQ 142030Z 10009KT 10SM CLR 18/02 A3026 760 32  1400 100/09 RMK AO2
94908KDBQ DBQ20050414143509404/14/05 14:35:31  5-MIN KDBQ 142035Z VRB04KT 10SM CLR 18/02 A3026 770 32  1400 VRB/04 RMK AO2
94908KDBQ DBQ20050414144009404/14/05 14:40:31  5-MIN KDBQ 142040Z 09009KT 10SM CLR 19/02 A3026 770 32  1400 090/09 RMK AO2
94908KDBQ DBQ20050414144509404/14/05 14:45:31  5-MIN KDBQ 142045Z 10011KT 10SM CLR 19/02 A3026 770 31  1400 100/11 RMK AO2
94908KDBQ DBQ20050414145011704/14/05 14:50:31  5-MIN KDBQ 142050Z 10009KT 10SM CLR 18/01 A3025 770 31  1400 100/09 RMK AO2 SLP249 T01830011 58008
94908KDBQ DBQ20050414145511704/14/05 14:55:31  5-MIN KDBQ 142055Z 10009KT 10SM CLR 18/02 A3025 770 32  1400 100/09 RMK AO2 SLP248 T01830017 58017
94908KDBQ DBQ20050414150009404/14/05 15:00:31  5-MIN KDBQ 142100Z 12008KT 10SM CLR 18/01 A3025 780 31  1400 120/08 RMK AO2
94908KDBQ DBQ20050414150509404/14/05 15:05:31  5-MIN KDBQ 142105Z 11007KT 10SM CLR 18/01 A3025 780 31  1400 110/07 RMK AO2
94908KDBQ DBQ20050414151009404/14/05 15:10:31  5-MIN KDBQ 142110Z 09009KT 10SM CLR 19/02 A3025 780 32  1500 090/09 RMK AO2
94908KDBQ DBQ20050414151509404/14/05 15:15:31  5-MIN KDBQ 142115Z 09009KT 10SM CLR 18/01 A3025 780 31  1400 090/09 RMK AO2
94908KDBQ DBQ20050414152010004/14/05 15:20:31  5-MIN KDBQ 142120Z 09011G14KT 10SM CLR 18/02 A3024 780  32 1400 090/11G14 RMK AO2
94908KDBQ DBQ20050414152510004/14/05 15:25:31  5-MIN KDBQ 142125Z 09009G14KT 10SM CLR 18/02 A3024 780  34 1400 090/09G14 RMK AO2
94908KDBQ DBQ20050414153009404/14/05 15:30:31  5-MIN KDBQ 142130Z 10010KT 10SM CLR 19/02 A3024 780 31  1500 100/10 RMK AO2
94908KDBQ DBQ20050414153509404/14/05 15:35:31  5-MIN KDBQ 142135Z 11010KT 10SM CLR 19/02 A3025 780 31  1500 110/10 RMK AO2
94908KDBQ DBQ20050414154009404/14/05 15:40:31  5-MIN KDBQ 142140Z 12010KT 10SM CLR 19/02 A3024 780 31  1500 120/10 RMK AO2
94908KDBQ DBQ20050414154509404/14/05 15:45:31  5-MIN KDBQ 142145Z 13007KT 10SM CLR 18/02 A3024 780 32  1400 130/07 RMK AO2
94908KDBQ DBQ20050414155011104/14/05 15:50:31  5-MIN KDBQ 142150Z 11010KT 10SM CLR 18/01 A3024 780 31  1400 110/10 RMK AO2 SLP247 T01830011
94908KDBQ DBQ20050414155511104/14/05 15:55:31  5-MIN KDBQ 142155Z 14007KT 10SM CLR 18/02 A3024 780 32  1400 130/07 RMK AO2 SLP245 T01830017
94908KDBQ DBQ20050414160009404/14/05 16:00:31  5-MIN KDBQ 142200Z 13010KT 10SM CLR 18/01 A3024 780 31  1400 130/10 RMK AO2
94908KDBQ DBQ20050414160509404/14/05 16:05:31  5-MIN KDBQ 142205Z 12009KT 10SM CLR 18/01 A3024 780 31  1400 120/09 RMK AO2
94908KDBQ DBQ20050414161009404/14/05 16:10:31  5-MIN KDBQ 142210Z 11009KT 10SM CLR 19/01 A3024 780 30  1500 110/09 RMK AO2
94908KDBQ DBQ20050414161509404/14/05 16:15:31  5-MIN KDBQ 142215Z 12010KT 10SM CLR 18/01 A3024 780 31  1400 120/10 RMK AO2
94908KDBQ DBQ20050414162009404/14/05 16:20:31  5-MIN KDBQ 142220Z 12008KT 10SM CLR 18/01 A3024 780 31  1400 120/08 RMK AO2
94908KDBQ DBQ20050414162509404/14/05 16:25:31  5-MIN KDBQ 142225Z 10009KT 10SM CLR 18/01 A3024 780 31  1400 100/09 RMK AO2
94908KDBQ DBQ20050414163009404/14/05 16:30:31  5-MIN KDBQ 142230Z 12010KT 10SM CLR 19/02 A3024 780 31  1500 120/10 RMK AO2
94908KDBQ DBQ20050414163509404/14/05 16:35:31  5-MIN KDBQ 142235Z 12008KT 10SM CLR 18/01 A3024 780 30  1400 120/08 RMK AO2
94908KDBQ DBQ20050414164009404/14/05 16:40:31  5-MIN KDBQ 142240Z 11006KT 10SM CLR 18/01 A3024 780 30  1400 110/06 RMK AO2
94908KDBQ DBQ20050414164509404/14/05 16:45:31  5-MIN KDBQ 142245Z 12010KT 10SM CLR 18/01 A3024 780 31  1400 120/10 RMK AO2
94908KDBQ DBQ20050414165011104/14/05 16:50:31  5-MIN KDBQ 142250Z 10007KT 10SM CLR 18/01 A3024 780 30  1400 100/07 RMK AO2 SLP244 T01830006
94908KDBQ DBQ20050414165511104/14/05 16:55:31  5-MIN KDBQ 142255Z 12009KT 10SM CLR 18/01 A3024 780 30  1400 120/09 RMK AO2 SLP244 T01830006
94908KDBQ DBQ20050414170009404/14/05 17:00:31  5-MIN KDBQ 142300Z 12007KT 10SM CLR 18/00 A3024 780 29  1400 120/07 RMK AO2
94908KDBQ DBQ20050414170509404/14/05 17:05:31  5-MIN KDBQ 142305Z 12010KT 10SM CLR 18/00 A3024 790 29  1400 120/10 RMK AO2
94908KDBQ DBQ20050414171009404/14/05 17:10:31  5-MIN KDBQ 142310Z 12010KT 10SM CLR 18/00 A3024 790 29  1400 120/10 RMK AO2
94908KDBQ DBQ20050414171509404/14/05 17:15:31  5-MIN KDBQ 142315Z 12009KT 10SM CLR 18/00 A3024 790 29  1400 120/09 RMK AO2
94908KDBQ DBQ20050414172009404/14/05 17:20:31  5-MIN KDBQ 142320Z 12009KT 10SM CLR 18/M01 A3024 790 27 1400 120/09 RMK AO2
94908KDBQ DBQ20050414172509404/14/05 17:25:31  5-MIN KDBQ 142325Z 11009KT 10SM CLR 18/M01 A3024 790 28 1300 110/09 RMK AO2
94908KDBQ DBQ20050414173009404/14/05 17:30:31  5-MIN KDBQ 142330Z 12007KT 10SM CLR 18/00 A3023 790 30  1300 120/07 RMK AO2
94908KDBQ DBQ20050414173509404/14/05 17:35:31  5-MIN KDBQ 142335Z 11007KT 10SM CLR 18/00 A3023 790 30  1300 110/07 RMK AO2
94908KDBQ DBQ20050414174009404/14/05 17:40:31  5-MIN KDBQ 142340Z 12008KT 10SM CLR 18/00 A3023 790 30  1300 110/08 RMK AO2
94908KDBQ DBQ20050414174509404/14/05 17:45:31  5-MIN KDBQ 142345Z 11007KT 10SM CLR 17/01 A3023 790 32  1300 110/07 RMK AO2
94908KDBQ DBQ20050414175012904/14/05 17:50:31  5-MIN KDBQ 142350Z 12007KT 10SM CLR 17/00 A3023 790 31  1300 120/07 RMK AO2 SLP242 T01720000 10189 20161 58017
94908KDBQ DBQ20050414175512904/14/05 17:55:31  5-MIN KDBQ 142355Z 11007KT 10SM CLR 17/01 A3023 790 32  1300 110/07 RMK AO2 SLP242 T01720006 10189 20161 57006
94908KDBQ DBQ20050414180009404/14/05 18:00:31  5-MIN KDBQ 150000Z 12007KT 10SM CLR 17/01 A3023 790 33  1200 120/07 RMK AO2
94908KDBQ DBQ20050414180509404/14/05 18:05:31  5-MIN KDBQ 150005Z 12006KT 10SM CLR 17/01 A3023 790 33  1200 120/06 RMK AO2
94908KDBQ DBQ20050414181009404/14/05 18:10:31  5-MIN KDBQ 150010Z 12006KT 10SM CLR 17/01 A3023 790 33  1200 120/06 RMK AO2
94908KDBQ DBQ20050414181509404/14/05 18:15:31  5-MIN KDBQ 150015Z 11005KT 10SM CLR 16/01 A3023 790 34  1100 110/05 RMK AO2
94908KDBQ DBQ20050414182009404/14/05 18:20:31  5-MIN KDBQ 150020Z 11006KT 10SM CLR 16/01 A3023 790 36  1100 110/06 RMK AO2
94908KDBQ DBQ20050414182509404/14/05 18:25:31  5-MIN KDBQ 150025Z 11006KT 10SM CLR 16/01 A3023 790 36  1100 110/06 RMK AO2
94908KDBQ DBQ20050414183009304/14/05 18:30:31  5-MIN KDBQ 150030Z 11006KT 10SM CLR 14/01 A3023 790 40  900 110/06 RMK AO2
94908KDBQ DBQ20050414183509304/14/05 18:35:31  5-MIN KDBQ 150035Z 11006KT 10SM CLR 14/01 A3023 790 40  900 110/06 RMK AO2
94908KDBQ DBQ20050414184009304/14/05 18:40:31  5-MIN KDBQ 150040Z 11005KT 10SM CLR 14/01 A3024 790 38  900 110/05 RMK AO2
94908KDBQ DBQ20050414184510204/14/05 18:45:31  5-MIN KDBQ 150045Z AUTO 10004KT 10SM CLR 12/02 A3024 790 52 600 100/04 RMK AO2 TSNO
94908KDBQ DBQ20050414185011904/14/05 18:50:31  5-MIN KDBQ 150050Z AUTO 10004KT 10SM CLR 13/01 A3024 790 44 700 100/04 RMK AO2 SLP245 T01280011 TSNO
94908KDBQ DBQ20050414185511904/14/05 18:55:31  5-MIN KDBQ 150055Z AUTO 10004KT 10SM CLR 12/01 A3024 790 46 700 100/04 RMK AO2 SLP245 T01220011 TSNO
94908KDBQ DBQ20050414190010204/14/05 19:00:31  5-MIN KDBQ 150100Z AUTO 09003KT 10SM CLR 11/02 A3024 790 52 500 090/03 RMK AO2 TSNO
94908KDBQ DBQ20050414190510204/14/05 19:05:31  5-MIN KDBQ 150105Z AUTO 10004KT 10SM CLR 12/02 A3024 790 50 600 100/04 RMK AO2 TSNO
94908KDBQ DBQ20050414191010204/14/05 19:10:31  5-MIN KDBQ 150110Z AUTO 10004KT 10SM CLR 12/01 A3024 790 44 700 100/04 RMK AO2 TSNO
94908KDBQ DBQ20050414191510204/14/05 19:15:31  5-MIN KDBQ 150115Z AUTO 10003KT 10SM CLR 12/01 A3024 780 46 700 100/03 RMK AO2 TSNO
94908KDBQ DBQ20050414192010204/14/05 19:20:31  5-MIN KDBQ 150120Z AUTO 10004KT 10SM CLR 12/01 A3024 780 48 600 100/04 RMK AO2 TSNO
94908KDBQ DBQ20050414192510204/14/05 19:25:31  5-MIN KDBQ 150125Z AUTO 10005KT 10SM CLR 11/01 A3024 780 50 500 100/05 RMK AO2 TSNO
94908KDBQ DBQ20050414193010204/14/05 19:30:31  5-MIN KDBQ 150130Z AUTO 11005KT 10SM CLR 11/01 A3024 780 52 500 110/05 RMK AO2 TSNO
94908KDBQ DBQ20050414193510204/14/05 19:35:31  5-MIN KDBQ 150135Z AUTO 10005KT 10SM CLR 11/01 A3024 780 52 500 100/05 RMK AO2 TSNO
94908KDBQ DBQ20050414194010204/14/05 19:40:31  5-MIN KDBQ 150140Z AUTO 10006KT 10SM CLR 10/01 A3024 780 54 400 100/06 RMK AO2 TSNO
94908KDBQ DBQ20050414194510204/14/05 19:45:31  5-MIN KDBQ 150145Z AUTO 10006KT 10SM CLR 11/01 A3024 780 50 500 100/06 RMK AO2 TSNO
94908KDBQ DBQ20050414195011904/14/05 19:50:31  5-MIN KDBQ 150150Z AUTO 10006KT 10SM CLR 11/00 A3024 780 46 500 100/06 RMK AO2 SLP246 T01110000 TSNO
94908KDBQ DBQ20050414195511104/14/05 19:55:31  5-MIN KDBQ 150155Z AUTO 10SM CLR 12/00 A3024 780 44 600 M /M RMK AO2 SLP246 T01170000 TSNO $
94908KDBQ DBQ20050414200010404/14/05 20:00:31  5-MIN KDBQ 150200Z AUTO 10006KT 10SM CLR 10/01 A3024 780 52 400 100/06 RMK AO2 TSNO $
94908KDBQ DBQ20050414200510604/14/05 20:05:31  5-MIN KDBQ 150205Z AUTO 10007KT 10SM CLR 12/M01 A3024  780 42 600 100/07 RMK AO2 TSNO $
94908KDBQ DBQ20050414201010604/14/05 20:10:31  5-MIN KDBQ 150210Z AUTO 09007KT 10SM CLR 12/M01 A3024  780 42 600 090/07 RMK AO2 TSNO $
94908KDBQ DBQ20050414201510604/14/05 20:15:31  5-MIN KDBQ 150215Z AUTO 09006KT 10SM CLR 12/M01 A3025  780 41 600 090/06 RMK AO2 TSNO $
94908KDBQ DBQ20050414202010604/14/05 20:20:31  5-MIN KDBQ 150220Z AUTO 09004KT 10SM CLR 12/M01 A3025  780 41 600 090/04 RMK AO2 TSNO $
94908KDBQ DBQ20050414202510404/14/05 20:25:31  5-MIN KDBQ 150225Z AUTO 09004KT 10SM CLR 10/00 A3025 780 49 400 090/04 RMK AO2 TSNO $
94908KDBQ DBQ20050414203010404/14/05 20:30:31  5-MIN KDBQ 150230Z AUTO 10005KT 10SM CLR 09/00 A3025 780 51 300 090/05 RMK AO2 TSNO $
94908KDBQ DBQ20050414203510404/14/05 20:35:31  5-MIN KDBQ 150235Z AUTO 10004KT 10SM CLR 09/00 A3025 780 51 300 100/04 RMK AO2 TSNO $
94908KDBQ DBQ20050418230510304/18/05 23:05:31  5-MIN KDBQ 190505Z AUTO 19004KT 9SM CLR 16/09 A2994 1060 67 1400 190/04 RMK AO2 TSNO
94908KDBQ DBQ20050418231010304/18/05 23:10:31  5-MIN KDBQ 190510Z AUTO 20004KT 9SM CLR 16/09 A2994 1060 67 1400 200/04 RMK AO2 TSNO
94908KDBQ DBQ20050418231510304/18/05 23:15:31  5-MIN KDBQ 190515Z AUTO 20004KT 9SM CLR 16/09 A2994 1060 67 1400 200/04 RMK AO2 TSNO
94908KDBQ DBQ20050418232010304/18/05 23:20:31  5-MIN KDBQ 190520Z AUTO VRB04KT 9SM CLR 16/09 A2994 1060 67 1400 VRB/04 RMK AO2 TSNO
94908KDBQ DBQ20050418232510304/18/05 23:25:31  5-MIN KDBQ 190525Z AUTO 20004KT 9SM CLR 16/09 A2994 1060 67 1400 200/04 RMK AO2 TSNO
94908KDBQ DBQ20050418233010304/18/05 23:30:31  5-MIN KDBQ 190530Z AUTO 22003KT 9SM CLR 15/09 A2994 1060 66 1300 220/03 RMK AO2 TSNO
94908KDBQ DBQ20050418233510304/18/05 23:35:31  5-MIN KDBQ 190535Z AUTO 21003KT 9SM CLR 15/09 A2994 1060 66 1400 210/03 RMK AO2 TSNO
94908KDBQ DBQ20050418234010304/18/05 23:40:31  5-MIN KDBQ 190540Z AUTO 21004KT 9SM CLR 16/09 A2994 1060 64 1400 210/04 RMK AO2 TSNO
94908KDBQ DBQ20050418234510304/18/05 23:45:31  5-MIN KDBQ 190545Z AUTO 20005KT 9SM CLR 15/09 A2993 1060 66 1400 200/05 RMK AO2 TSNO
94908KDBQ DBQ20050418235014804/18/05 23:50:31  5-MIN KDBQ 190550Z AUTO 19006KT 9SM CLR 16/09 A2993 1070 62 1500 190/06 RMK AO2 SLP131 T01610089 10217 20144 402560117 53002 TSNO
94908KDBQ DBQ20050418235514804/18/05 23:55:31  5-MIN KDBQ 190555Z AUTO 18007KT 9SM CLR 16/09 A2993 1070 62 1500 180/07 RMK AO2 SLP132 T01610089 10217 20144 402560117 58007 TSNO
94908KDBQ DBQ20050419000010304/19/05 00:00:38  5-MIN KDBQ 190600Z AUTO 19007KT 9SM CLR 16/09 A2993 1070 62 1500 190/07 RMK AO2 TSNO
94908KDBQ DBQ20050419000510304/19/05 00:05:31  5-MIN KDBQ 190605Z AUTO 19006KT 9SM CLR 16/09 A2994 1060 64 1400 190/06 RMK AO2 TSNO
94908KDBQ DBQ20050419001010304/19/05 00:10:31  5-MIN KDBQ 190610Z AUTO 20005KT 9SM CLR 16/09 A2994 1060 64 1400 200/05 RMK AO2 TSNO
94908KDBQ DBQ20050419001510304/19/05 00:15:31  5-MIN KDBQ 190615Z AUTO 18007KT 9SM CLR 16/09 A2994 1060 64 1400 180/07 RMK AO2 TSNO
94908KDBQ DBQ20050419002010304/19/05 00:20:31  5-MIN KDBQ 190620Z AUTO 19006KT 9SM CLR 16/09 A2994 1060 64 1400 190/06 RMK AO2 TSNO
94908KDBQ DBQ20050419002510304/19/05 00:25:31  5-MIN KDBQ 190625Z AUTO 20006KT 9SM CLR 15/09 A2994 1060 66 1300 190/06 RMK AO2 TSNO
94908KDBQ DBQ20050419003010304/19/05 00:30:31  5-MIN KDBQ 190630Z AUTO 19007KT 9SM CLR 15/09 A2994 1060 66 1300 190/07 RMK AO2 TSNO
94908KDBQ DBQ20050419003510304/19/05 00:35:31  5-MIN KDBQ 190635Z AUTO 21005KT 8SM CLR 14/09 A2994 1060 74 1200 210/05 RMK AO2 TSNO
94908KDBQ DBQ20050419004010304/19/05 00:40:31  5-MIN KDBQ 190640Z AUTO 20004KT 8SM CLR 13/09 A2994 1060 74 1200 200/04 RMK AO2 TSNO
94908KDBQ DBQ20050419004510304/19/05 00:45:31  5-MIN KDBQ 190645Z AUTO 20005KT 8SM CLR 14/09 A2994 1060 71 1200 200/05 RMK AO2 TSNO
94908KDBQ DBQ20050419005012004/19/05 00:50:31  5-MIN KDBQ 190650Z AUTO 20005KT 8SM CLR 14/09 A2994 1060 69 1300 200/05 RMK AO2 SLP134 T01440089 TSNO
94908KDBQ DBQ20050419005512004/19/05 00:55:31  5-MIN KDBQ 190655Z AUTO 21005KT 8SM CLR 14/09 A2994 1060 69 1300 210/05 RMK AO2 SLP134 T01440089 TSNO
94908KDBQ DBQ20050419010010304/19/05 01:00:31  5-MIN KDBQ 190700Z AUTO 21006KT 8SM CLR 15/09 A2994 1060 66 1300 210/06 RMK AO2 TSNO
94908KDBQ DBQ20050419010510704/19/05 01:05:31  5-MIN KDBQ 190705Z AUTO 21007KT 8SM FEW075 14/09 A2994  1060 72 1300 210/07 RMK AO2 TSNO
94908KDBQ DBQ20050419011010704/19/05 01:10:31  5-MIN KDBQ 190710Z AUTO 20007KT 8SM FEW075 14/09 A2994  1060 72 1300 200/07 RMK AO2 TSNO
94908KDBQ DBQ20050419011510704/19/05 01:15:31  5-MIN KDBQ 190715Z AUTO 20007KT 8SM FEW080 14/09 A2994  1060 72 1300 200/07 RMK AO2 TSNO
94908KDBQ DBQ20050419012010704/19/05 01:20:31  5-MIN KDBQ 190720Z AUTO 20007KT 8SM FEW080 14/09 A2994  1060 72 1300 200/07 RMK AO2 TSNO
94908KDBQ DBQ20050419012510704/19/05 01:25:31  5-MIN KDBQ 190725Z AUTO 20006KT 8SM FEW080 14/09 A2993  1070 72 1300 200/06 RMK AO2 TSNO
94908KDBQ DBQ20050419013010704/19/05 01:30:31  5-MIN KDBQ 190730Z AUTO 19006KT 8SM FEW080 14/09 A2993  1070 74 1200 190/06 RMK AO2 TSNO
94908KDBQ DBQ20050419013510704/19/05 01:35:31  5-MIN KDBQ 190735Z AUTO 20006KT 8SM FEW085 14/09 A2993  1070 74 1200 200/06 RMK AO2 TSNO
94908KDBQ DBQ20050419014010704/19/05 01:40:31  5-MIN KDBQ 190740Z AUTO 20007KT 8SM FEW080 14/09 A2993  1070 72 1300 200/07 RMK AO2 TSNO
94908KDBQ DBQ20050419014510704/19/05 01:45:31  5-MIN KDBQ 190745Z AUTO 20007KT 8SM FEW080 14/09 A2993  1070 74 1200 200/07 RMK AO2 TSNO
94908KDBQ DBQ20050419015012404/19/05 01:50:31  5-MIN KDBQ 190750Z AUTO 19007KT 8SM FEW070 14/09 A2993  1070 74 1200 190/07 RMK AO2 SLP132 T01390094 TSNO
94908KDBQ DBQ20050419015512404/19/05 01:55:31  5-MIN KDBQ 190755Z AUTO 19006KT 8SM FEW070 13/09 A2993  1070 74 1200 190/06 RMK AO2 SLP131 T01330089 TSNO
94908KDBQ DBQ20050419020010704/19/05 02:00:31  5-MIN KDBQ 190800Z AUTO 19006KT 7SM FEW070 13/09 A2993  1070 74 1200 190/06 RMK AO2 TSNO
94908KDBQ DBQ20050419020510304/19/05 02:05:31  5-MIN KDBQ 190805Z AUTO 19007KT 8SM CLR 13/09 A2993 1070 77 1100 190/07 RMK AO2 TSNO
94908KDBQ DBQ20050419021010304/19/05 02:10:31  5-MIN KDBQ 190810Z AUTO 19007KT 8SM CLR 14/09 A2992 1070 71 1200 190/07 RMK AO2 TSNO
94908KDBQ DBQ20050419021510304/19/05 02:15:31  5-MIN KDBQ 190815Z AUTO 18007KT 8SM CLR 13/09 A2993 1070 74 1200 180/07 RMK AO2 TSNO
94908KDBQ DBQ20050419022011304/19/05 02:20:31  5-MIN KDBQ 190820Z AUTO 18008KT 7SM FEW070 SCT090 13/09 A2993 1070 74 1200 180/08 RMK AO2 TSNO
94908KDBQ DBQ20050419022511304/19/05 02:25:31  5-MIN KDBQ 190825Z AUTO 18008KT 7SM SCT075 SCT090 13/09 A2993 1070 77 1200 180/08 RMK AO2 TSNO
94908KDBQ DBQ20050419023010704/19/05 02:30:31  5-MIN KDBQ 190830Z AUTO 18007KT 7SM SCT075 13/09 A2993  1070 77 1200 180/07 RMK AO2 TSNO
94908KDBQ DBQ20050419023510704/19/05 02:35:31  5-MIN KDBQ 190835Z AUTO 19006KT 7SM SCT075 13/09 A2993  1070 74 1200 190/06 RMK AO2 TSNO
94908KDBQ DBQ20050419024010704/19/05 02:40:31  5-MIN KDBQ 190840Z AUTO 18007KT 7SM SCT075 13/09 A2993  1070 77 1100 180/07 RMK AO2 TSNO
94908KDBQ DBQ20050419024510704/19/05 02:45:31  5-MIN KDBQ 190845Z AUTO 17006KT 7SM SCT075 13/09 A2993  1070 77 1200 170/06 RMK AO2 TSNO
94908KDBQ DBQ20050419025013004/19/05 02:50:31  5-MIN KDBQ 190850Z AUTO 17005KT 7SM FEW080 13/09 A2993  1070 77 1200 170/05 RMK AO2 SLP130 T01330094 58007 TSNO
94908KDBQ DBQ20050419025512604/19/05 02:55:31  5-MIN KDBQ 190855Z AUTO 17006KT 7SM CLR 13/09 A2993 1070 77 1200 170/06 RMK AO2 SLP130 T01330094 58002 TSNO
94908KDBQ DBQ20050419030010704/19/05 03:00:31  5-MIN KDBQ 190900Z AUTO 17006KT 7SM FEW080 14/09 A2993  1070 74 1200 170/06 RMK AO2 TSNO
94908KDBQ DBQ20050419030510704/19/05 03:05:31  5-MIN KDBQ 190905Z AUTO 17006KT 7SM SCT080 14/09 A2992  1070 74 1200 170/06 RMK AO2 TSNO
94908KDBQ DBQ20050419031010704/19/05 03:10:31  5-MIN KDBQ 190910Z AUTO 18005KT 7SM SCT080 13/09 A2992  1080 77 1200 180/05 RMK AO2 TSNO
94908KDBQ DBQ20050419031510704/19/05 03:15:31  5-MIN KDBQ 190915Z AUTO 18006KT 7SM SCT080 13/09 A2992  1080 77 1200 170/06 RMK AO2 TSNO
94908KDBQ DBQ20050419032010704/19/05 03:20:31  5-MIN KDBQ 190920Z AUTO 18006KT 7SM FEW080 13/09 A2992  1080 77 1200 180/06 RMK AO2 TSNO
94908KDBQ DBQ20050419032510704/19/05 03:25:31  5-MIN KDBQ 190925Z AUTO 20004KT 7SM FEW080 13/09 A2992  1080 77 1200 200/04 RMK AO2 TSNO
94908KDBQ DBQ20050419033010704/19/05 03:30:31  5-MIN KDBQ 190930Z AUTO 21006KT 7SM FEW080 13/09 A2992  1080 77 1200 210/06 RMK AO2 TSNO
94908KDBQ DBQ20050419033510704/19/05 03:35:31  5-MIN KDBQ 190935Z AUTO 20006KT 7SM FEW080 14/09 A2992  1080 74 1200 200/06 RMK AO2 TSNO
94908KDBQ DBQ20050419034010304/19/05 03:40:31  5-MIN KDBQ 190940Z AUTO 19006KT 7SM CLR 14/09 A2992 1080 74 1200 190/06 RMK AO2 TSNO
94908KDBQ DBQ20050419034510304/19/05 03:45:31  5-MIN KDBQ 190945Z AUTO 19006KT 7SM CLR 14/09 A2991 1080 71 1200 190/06 RMK AO2 TSNO
94908KDBQ DBQ20050419035012004/19/05 03:50:31  5-MIN KDBQ 190950Z AUTO 20005KT 7SM CLR 13/09 A2991 1080 74 1200 200/05 RMK AO2 SLP127 T01330089 TSNO
94908KDBQ DBQ20050419035512004/19/05 03:55:31  5-MIN KDBQ 190955Z AUTO 21004KT 7SM CLR 13/09 A2991 1090 74 1200 210/04 RMK AO2 SLP126 T01330089 TSNO
94908KDBQ DBQ20050419040010304/19/05 04:00:31  5-MIN KDBQ 191000Z AUTO 21005KT 7SM CLR 13/09 A2991 1090 74 1200 210/05 RMK AO2 TSNO
94908KDBQ DBQ20050419040510304/19/05 04:05:31  5-MIN KDBQ 191005Z AUTO 21005KT 7SM CLR 13/09 A2991 1090 74 1200 210/05 RMK AO2 TSNO
94908KDBQ DBQ20050419041010304/19/05 04:10:31  5-MIN KDBQ 191010Z AUTO 19005KT 7SM CLR 13/09 A2991 1090 77 1100 190/05 RMK AO2 TSNO
94908KDBQ DBQ20050419041510304/19/05 04:15:31  5-MIN KDBQ 191015Z AUTO 19006KT 7SM CLR 13/09 A2991 1090 77 1100 190/06 RMK AO2 TSNO
94908KDBQ DBQ20050419042010304/19/05 04:20:31  5-MIN KDBQ 191020Z AUTO 18007KT 7SM CLR 13/09 A2991 1090 77 1100 170/07 RMK AO2 TSNO
94908KDBQ DBQ20050419042510304/19/05 04:25:31  5-MIN KDBQ 191025Z AUTO 17006KT 7SM CLR 13/09 A2991 1090 74 1200 170/06 RMK AO2 TSNO
94908KDBQ DBQ20050419043010304/19/05 04:30:31  5-MIN KDBQ 191030Z AUTO 17008KT 7SM CLR 13/09 A2991 1090 74 1200 170/08 RMK AO2 TSNO
94908KDBQ DBQ20050419043510304/19/05 04:35:31  5-MIN KDBQ 191035Z AUTO 18008KT 7SM CLR 14/09 A2990 1100 71 1300 180/08 RMK AO2 TSNO
94908KDBQ DBQ20050419044010304/19/05 04:40:31  5-MIN KDBQ 191040Z AUTO 17009KT 8SM CLR 14/09 A2990 1100 71 1300 170/09 RMK AO2 TSNO
94908KDBQ DBQ20050419044510304/19/05 04:45:31  5-MIN KDBQ 191045Z AUTO 17009KT 8SM CLR 14/09 A2990 1100 71 1300 170/09 RMK AO2 TSNO
94908KDBQ DBQ20050419045011104/19/05 04:50:31  5-MIN KDBQ 191050Z 19009KT 8SM CLR 13/09 A2990 1100 74  1200 180/09 RMK AO2 SLP121 T01330089
94908KDBQ DBQ20050419045511104/19/05 04:55:31  5-MIN KDBQ 191055Z 18008KT 8SM CLR 13/09 A2990 1100 74  1200 180/08 RMK AO2 SLP121 T01330089
94908KDBQ DBQ20050419050009404/19/05 05:00:31  5-MIN KDBQ 191100Z 17008KT 8SM CLR 13/09 A2990 1100 74  1200 160/08 RMK AO2
94908KDBQ DBQ20050419050509404/19/05 05:05:31  5-MIN KDBQ 191105Z 18009KT 8SM CLR 13/09 A2990 1100 74  1200 180/09 RMK AO2
94908KDBQ DBQ20050419051009404/19/05 05:10:31  5-MIN KDBQ 191110Z 18008KT 8SM CLR 13/09 A2990 1100 74  1200 180/08 RMK AO2
94908KDBQ DBQ20050419051509704/19/05 05:15:31  5-MIN KDBQ 191115Z 18008KT 7SM SCT075 14/09 A2990 1100  71 1300 180/08 RMK AO2
94908KDBQ DBQ20050419052010004/19/05 05:20:31  5-MIN KDBQ 191120Z 19008KT 6SM HZ SCT075 14/09 A2990  1100 71 1300 180/08 RMK AO2
94908KDBQ DBQ20050419052509704/19/05 05:25:31  5-MIN KDBQ 191125Z 19007KT 8SM SCT075 14/09 A2990 1100  74 1300 190/07 RMK AO2
94908KDBQ DBQ20050419053009704/19/05 05:30:31  5-MIN KDBQ 191130Z 21007KT 8SM SCT075 13/09 A2990 1100  77 1200 210/07 RMK AO2
94908KDBQ DBQ20050419053509704/19/05 05:35:31  5-MIN KDBQ 191135Z 20006KT 8SM SCT075 13/09 A2990 1100  77 1200 200/06 RMK AO2
94908KDBQ DBQ20050419054009704/19/05 05:40:31  5-MIN KDBQ 191140Z 19008KT 8SM FEW075 13/09 A2990 1100  77 1200 190/08 RMK AO2
94908KDBQ DBQ20050419054509704/19/05 05:45:31  5-MIN KDBQ 191145Z 19007KT 8SM FEW075 14/09 A2990 1100  74 1300 180/07 RMK AO2
94908KDBQ DBQ20050419055012904/19/05 05:50:31  5-MIN KDBQ 191150Z 18007KT 8SM CLR 14/09 A2990 1100 74  1300 180/07 RMK AO2 SLP121 T01390094 10161 20128 58002
94908KDBQ DBQ20050419055512904/19/05 05:55:31  5-MIN KDBQ 191155Z 17007KT 8SM CLR 14/09 A2990 1100 74  1300 170/07 RMK AO2 SLP121 T01390094 10161 20128 56009
94908KDBQ DBQ20050419060009404/19/05 06:00:31  5-MIN KDBQ 191200Z 18007KT 7SM CLR 14/09 A2990 1100 74  1300 180/07 RMK AO2
94908KDBQ DBQ20050419060509404/19/05 06:05:31  5-MIN KDBQ 191205Z 18007KT 7SM CLR 14/09 A2990 1100 74  1300 180/07 RMK AO2
94908KDBQ DBQ20050419061009404/19/05 06:10:31  5-MIN KDBQ 191210Z 19007KT 7SM CLR 14/09 A2990 1100 74  1300 180/07 RMK AO2
94908KDBQ DBQ20050419061509404/19/05 06:15:31  5-MIN KDBQ 191215Z 19006KT 8SM CLR 14/09 A2990 1100 74  1300 190/06 RMK AO2
94908KDBQ DBQ20050419062009704/19/05 06:20:31  5-MIN KDBQ 191220Z 18006KT 8SM FEW095 14/09 A2990 1100  72 1300 180/06 RMK AO2
94908KDBQ DBQ20050419062509704/19/05 06:25:31  5-MIN KDBQ 191225Z 19006KT 8SM SCT095 15/10 A2990 1100  72 1400 180/06 RMK AO2
94908KDBQ DBQ20050419063009704/19/05 06:30:31  5-MIN KDBQ 191230Z 20006KT 8SM SCT095 15/10 A2990 1100  72 1400 190/06 RMK AO2
94908KDBQ DBQ20050419063509704/19/05 06:35:31  5-MIN KDBQ 191235Z 19008KT 8SM SCT100 15/10 A2990 1100  72 1400 180/08 RMK AO2
94908KDBQ DBQ20050419064009704/19/05 06:40:31  5-MIN KDBQ 191240Z 19008KT 8SM BKN100 16/10 A2990 1100  69 1500 190/08 RMK AO2
94908KDBQ DBQ20050419064509704/19/05 06:45:31  5-MIN KDBQ 191245Z 19008KT 8SM BKN100 16/10 A2990 1090  69 1500 190/08 RMK AO2
94908KDBQ DBQ20050419065011404/19/05 06:50:31  5-MIN KDBQ 191250Z 18008KT 8SM BKN100 16/10 A2991 1090  67 1500 180/08 RMK AO2 SLP124 T01610100
94908KDBQ DBQ20050419065511404/19/05 06:55:31  5-MIN KDBQ 191255Z 18009KT 8SM SCT100 16/10 A2991 1090  67 1500 180/09 RMK AO2 SLP124 T01610100
94908KDBQ DBQ20050419070009704/19/05 07:00:31  5-MIN KDBQ 191300Z 18009KT 8SM SCT100 16/10 A2991 1090  67 1500 180/09 RMK AO2
94908KDBQ DBQ20050419070509704/19/05 07:05:31  5-MIN KDBQ 191305Z 18009KT 8SM FEW100 16/10 A2991 1090  67 1500 180/09 RMK AO2
94908KDBQ DBQ20050419071009704/19/05 07:10:31  5-MIN KDBQ 191310Z 18009KT 8SM FEW100 16/10 A2991 1090  67 1500 180/09 RMK AO2
94908KDBQ DBQ20050419071509704/19/05 07:15:31  5-MIN KDBQ 191315Z 19009KT 8SM SCT100 17/10 A2991 1090  64 1600 190/09 RMK AO2
94908KDBQ DBQ20050419072009704/19/05 07:20:31  5-MIN KDBQ 191320Z 19011KT 8SM BKN100 17/10 A2991 1080  64 1600 190/11 RMK AO2
94908KDBQ DBQ20050419072509704/19/05 07:25:31  5-MIN KDBQ 191325Z 19009KT 9SM BKN100 17/11 A2992 1080  67 1600 190/09 RMK AO2
94908KDBQ DBQ20050419073009704/19/05 07:30:31  5-MIN KDBQ 191330Z 19009KT 9SM BKN100 17/11 A2992 1080  67 1600 190/09 RMK AO2
94908KDBQ DBQ20050419073509704/19/05 07:35:31  5-MIN KDBQ 191335Z 19010KT 9SM OVC100 17/11 A2992 1080  67 1600 190/10 RMK AO2
94908KDBQ DBQ20050419074009704/19/05 07:40:31  5-MIN KDBQ 191340Z 19009KT 9SM OVC100 17/11 A2992 1080  67 1600 190/09 RMK AO2
94908KDBQ DBQ20050419074509704/19/05 07:45:31  5-MIN KDBQ 191345Z 19009KT 9SM OVC100 17/11 A2992 1080  67 1600 190/09 RMK AO2
94908KDBQ DBQ20050419075011404/19/05 07:50:31  5-MIN KDBQ 191350Z 17008KT 9SM BKN100 17/11 A2991 1080  67 1600 170/08 RMK AO2 SLP128 T01670106
94908KDBQ DBQ20050419075511404/19/05 07:55:31  5-MIN KDBQ 191355Z 18008KT 9SM BKN100 17/11 A2991 1090  67 1600 170/08 RMK AO2 SLP126 T01670106
94908KDBQ DBQ20050419080009704/19/05 08:00:31  5-MIN KDBQ 191400Z 17009KT 9SM SCT100 17/11 A2991 1090  67 1600 170/09 RMK AO2
94908KDBQ DBQ20050419080509704/19/05 08:05:31  5-MIN KDBQ 191405Z 17009KT 9SM SCT100 18/11 A2991 1090  64 1700 170/09 RMK AO2
94908KDBQ DBQ20050419081009704/19/05 08:10:31  5-MIN KDBQ 191410Z 18009KT 10SM FEW100 18/11 A2991 1090 62 1800 180/09 RMK AO2
94908KDBQ DBQ20050419081509704/19/05 08:15:31  5-MIN KDBQ 191415Z 17011KT 10SM FEW110 18/11 A2991 1090 60 1800 170/11 RMK AO2
94908KDBQ DBQ20050419082009404/19/05 08:20:31  5-MIN KDBQ 191420Z 18011KT 10SM CLR 18/11 A2991 1090 60 1800 180/11 RMK AO2
94908KDBQ DBQ20050419082509404/19/05 08:25:31  5-MIN KDBQ 191425Z 18011KT 10SM CLR 18/11 A2991 1090 60 1800 180/11 RMK AO2
94908KDBQ DBQ20050419083009404/19/05 08:30:31  5-MIN KDBQ 191430Z 19012KT 10SM CLR 19/11 A2991 1090 58 1800 190/12 RMK AO2
94908KDBQ DBQ20050419083509704/19/05 08:35:31  5-MIN KDBQ 191435Z 18014KT 10SM FEW065 18/11 A2991 1090 60 1800 180/14 RMK AO2
94908KDBQ DBQ20050419084010504/19/05 08:40:31  5-MIN KDBQ 191440Z 18013KT 10SM FEW055 SCT065 19/10  A2991 1090 56 1800 180/13 RMK AO2
94908KDBQ DBQ20050419084511104/19/05 08:45:31  5-MIN KDBQ 191445Z 18014G19KT 10SM SCT050 SCT065 19/11  A2991 1090 56 1900 180/14G19 RMK AO2
94908KDBQ DBQ20050419085013404/19/05 08:50:31  5-MIN KDBQ 191450Z 18013G19KT 10SM SCT050 SCT065 19/11  A2991 1090 58 1800 180/13G19 RMK AO2 SLP124 T01890106 56009
94908KDBQ DBQ20050419085512804/19/05 08:55:31  5-MIN KDBQ 191455Z 19015KT 10SM SCT050 SCT065 19/11  A2991 1090 58 1800 190/15 RMK AO2 SLP124 T01890106 50004
94908KDBQ DBQ20050419090010504/19/05 09:00:31  5-MIN KDBQ 191500Z 19015KT 10SM BKN055 BKN065 19/10  A2991 1090 56 1800 190/15 RMK AO2
94908KDBQ DBQ20050419090509704/19/05 09:05:31  5-MIN KDBQ 191505Z 20016KT 10SM BKN055 19/10 A2991 1090 54 1900 200/16 RMK AO2
94908KDBQ DBQ20050419091009704/19/05 09:10:31  5-MIN KDBQ 191510Z 20014KT 10SM BKN055 19/11 A2991 1090 56 1900 200/14 RMK AO2
94908KDBQ DBQ20050419091509704/19/05 09:15:31  5-MIN KDBQ 191515Z 19014KT 10SM BKN055 19/11 A2991 1090 56 1900 190/14 RMK AO2
94908KDBQ DBQ20050419092009704/19/05 09:20:31  5-MIN KDBQ 191520Z 20016KT 10SM BKN055 19/11 A2990 1090 56 1900 190/16 RMK AO2
94908KDBQ DBQ20050419092509704/19/05 09:25:31  5-MIN KDBQ 191525Z 20015KT 10SM SCT055 19/11 A2990 1090 56 1900 200/15 RMK AO2
94908KDBQ DBQ20050419093010504/19/05 09:30:31  5-MIN KDBQ 191530Z 20015KT 10SM SCT055 SCT080 19/11  A2990 1090 56 1900 200/15 RMK AO2
94908KDBQ DBQ20050419093510504/19/05 09:35:31  5-MIN KDBQ 191535Z 19014KT 10SM FEW060 SCT080 20/11  A2990 1100 54 2000 190/14 RMK AO2
94908KDBQ DBQ20050419094010504/19/05 09:40:31  5-MIN KDBQ 191540Z 19015KT 10SM FEW060 SCT075 20/11  A2990 1100 54 2000 190/15 RMK AO2
94908KDBQ DBQ20050419094509704/19/05 09:45:31  5-MIN KDBQ 191545Z 20017KT 10SM FEW075 21/11 A2989 1100 54 2000 200/17 RMK AO2
94908KDBQ DBQ20050419095011404/19/05 09:50:31  5-MIN KDBQ 191550Z 20014KT 10SM FEW080 21/11 A2990 1100 54 2000 200/14 RMK AO2 SLP121 T02060111
94908KDBQ DBQ20050419095511404/19/05 09:55:31  5-MIN KDBQ 191555Z 20017KT 10SM FEW080 21/11 A2989 1100 54 2000 190/17 RMK AO2 SLP120 T02060111
94908KDBQ DBQ20050419100009704/19/05 10:00:31  5-MIN KDBQ 191600Z 20016KT 10SM FEW065 21/11 A2989 1100 54 2000 200/16 RMK AO2
94908KDBQ DBQ20050419100509404/19/05 10:05:31  5-MIN KDBQ 191605Z 18014KT 10SM CLR 21/11 A2989 1110 54 2100 180/14 RMK AO2
94908KDBQ DBQ20050419101009404/19/05 10:10:31  5-MIN KDBQ 191610Z 20014KT 10SM CLR 21/11 A2989 1110 54 2100 200/14 RMK AO2
94908KDBQ DBQ20050419101510004/19/05 10:15:31  5-MIN KDBQ 191615Z 19015G20KT 10SM CLR 21/11 A2989 1110 52 2100 190/15G20 RMK AO2
94908KDBQ DBQ20050419102010004/19/05 10:20:31  5-MIN KDBQ 191620Z 19015G19KT 10SM CLR 21/11 A2988 1110 54 2100 190/15G19 RMK AO2
94908KDBQ DBQ20050419102509404/19/05 10:25:31  5-MIN KDBQ 191625Z 18014KT 10SM CLR 21/11 A2988 1110 54 2100 180/14 RMK AO2
94908KDBQ DBQ20050419103009404/19/05 10:30:31  5-MIN KDBQ 191630Z 18013KT 10SM CLR 21/11 A2988 1110 54 2100 180/13 RMK AO2
94908KDBQ DBQ20050419103509404/19/05 10:35:31  5-MIN KDBQ 191635Z 19016KT 10SM CLR 21/11 A2988 1120 54 2100 190/16 RMK AO2
94908KDBQ DBQ20050419104009404/19/05 10:40:31  5-MIN KDBQ 191640Z 18016KT 10SM CLR 21/12 A2987 1120 54 2100 180/16 RMK AO2
94908KDBQ DBQ20050419104509404/19/05 10:45:31  5-MIN KDBQ 191645Z 19014KT 10SM CLR 21/12 A2987 1120 54 2100 190/14 RMK AO2
94908KDBQ DBQ20050419105011104/19/05 10:50:31  5-MIN KDBQ 191650Z 19014KT 10SM CLR 21/12 A2987 1120 56 2100 190/14 RMK AO2 SLP113 T02110122
94908KDBQ DBQ20050419105511104/19/05 10:55:31  5-MIN KDBQ 191655Z 17014KT 10SM CLR 22/12 A2987 1120 54 2200 170/14 RMK AO2 SLP113 T02170122
94908KDBQ DBQ20050419110009404/19/05 11:00:31  5-MIN KDBQ 191700Z 17014KT 10SM CLR 22/12 A2987 1120 52 2300 170/14 RMK AO2
94908KDBQ DBQ20050420031011704/20/05 03:10:31  5-MIN KDBQ 200910Z AUTO 34011KT 6SM BR BKN011 OVC028  17/16 A2985 1150 90 1700 340/11 RMK AO2 TSNO
94908KDBQ DBQ20050420031511304/20/05 03:15:31  5-MIN KDBQ 200915Z AUTO 34013KT 7SM BKN011 BKN028 17/15 A2985 1150 87 1700 330/13 RMK AO2 TSNO
94908KDBQ DBQ20050420032011304/20/05 03:20:31  5-MIN KDBQ 200920Z AUTO 33011KT 7SM BKN011 BKN034 17/15 A2985 1150 90 1600 330/11 RMK AO2 TSNO
94908KDBQ DBQ20050420032511304/20/05 03:25:31  5-MIN KDBQ 200925Z AUTO 33012KT 7SM BKN011 BKN034 17/14 A2985 1140 86 1600 330/12 RMK AO2 TSNO
94908KDBQ DBQ20050420033012004/20/05 03:30:31  5-MIN KDBQ 200930Z AUTO 34010KT 7SM FEW009 BKN013 BKN034 17/14 A2985 1150 86 1600 340/10 RMK AO2 TSNO
94908KDBQ DBQ20050420033512404/20/05 03:35:31  5-MIN KDBQ 200935Z AUTO 34008KT 6SM BR FEW009 BKN013  BKN034 17/14 A2985 1150 86 1600 340/08 RMK AO2 TSNO
94908KDBQ DBQ20050420034012404/20/05 03:40:31  5-MIN KDBQ 200940Z AUTO 35007KT 6SM BR SCT013 BKN034  BKN050 16/14 A2984 1150 90 1600 340/07 RMK AO2 TSNO
94908KDBQ DBQ20050420034512404/20/05 03:45:31  5-MIN KDBQ 200945Z AUTO 34009KT 6SM BR SCT013 SCT034  BKN050 16/14 A2985 1150 90 1600 340/09 RMK AO2 TSNO
94908KDBQ DBQ20050420035013404/20/05 03:50:31  5-MIN KDBQ 200950Z AUTO 34007KT 6SM BR FEW013 SCT050  16/14 A2985 1150 90 1600 340/07 RMK AO2 SLP103 T01610144 TSNO
94908KDBQ DBQ20050420035513404/20/05 03:55:31  5-MIN KDBQ 200955Z AUTO 33007KT 6SM BR FEW013 SCT050  16/14 A2985 1140 90 1600 330/07 RMK AO2 SLP104 T01610144 TSNO
94908KDBQ DBQ20050420040011704/20/05 04:00:31  5-MIN KDBQ 201000Z AUTO 33007KT 6SM BR FEW015 SCT050  16/14 A2985 1140 90 1500 330/07 RMK AO2 TSNO
94908KDBQ DBQ20050420040511704/20/05 04:05:31  5-MIN KDBQ 201005Z AUTO 34008KT 6SM BR SCT017 SCT050  16/14 A2985 1140 93 1500 340/08 RMK AO2 TSNO
94908KDBQ DBQ20050420041011004/20/05 04:10:31  5-MIN KDBQ 201010Z AUTO 34008KT 5SM BR SCT017 16/14  A2986 1140 93 1500 340/08 RMK AO2 TSNO
94908KDBQ DBQ20050420041511704/20/05 04:15:31  5-MIN KDBQ 201015Z AUTO 34007KT 5SM BR FEW009 BKN017  16/14 A2986 1130 93 1500 340/07 RMK AO2 TSNO
94908KDBQ DBQ20050420042011704/20/05 04:20:31  5-MIN KDBQ 201020Z AUTO 35008KT 5SM BR SCT009 BKN017  16/14 A2987 1130 93 1500 350/08 RMK AO2 TSNO
94908KDBQ DBQ20050420042512904/20/05 04:25:31  5-MIN KDBQ 201025Z AUTO 35008KT 5SM BR BKN009 BKN017  16/14 A2987 1130 93 1500 350/08 RMK AO2 CIG 009V012 TSNO
94908KDBQ DBQ20050420043011704/20/05 04:30:31  5-MIN KDBQ 201030Z AUTO 35008KT 5SM BR BKN011 OVC017  16/14 A2987 1120 90 1600 350/08 RMK AO2 TSNO
94908KDBQ DBQ20050420043511704/20/05 04:35:31  5-MIN KDBQ 201035Z AUTO 35007KT 5SM BR BKN011 OVC019  16/14 A2988 1120 90 1500 350/07 RMK AO2 TSNO
94908KDBQ DBQ20050420044011004/20/05 04:40:31  5-MIN KDBQ 201040Z AUTO 35005KT 5SM BR OVC011 16/14  A2988 1120 90 1500 350/05 RMK AO2 TSNO
94908KDBQ DBQ20050420044511004/20/05 04:45:31  5-MIN KDBQ 201045Z AUTO 36006KT 5SM BR OVC011 16/14  A2988 1110 86 1500 360/06 RMK AO2 TSNO
94908KDBQ DBQ20050420045012704/20/05 04:50:31  5-MIN KDBQ 201050Z AUTO 36009KT 5SM BR OVC011 16/14  A2988 1110 90 1500 360/09 RMK AO2 SLP116 T01560139 TSNO
94908KDBQ DBQ20050420045511704/20/05 04:55:31  5-MIN KDBQ 201055Z 36009KT 6SM BR OVC013 16/13 A2988  1110 86 1500 360/09 RMK AO2 SLP116 T01560133
94908KDBQ DBQ20050420050010004/20/05 05:00:31  5-MIN KDBQ 201100Z 36008KT 6SM BR OVC013 16/13 A2988  1110 86 1500 360/08 RMK AO2
94908KDBQ DBQ20050420050510004/20/05 05:05:31  5-MIN KDBQ 201105Z 01007KT 6SM BR BKN013 15/13 A2988  1110 90 1400 010/07 RMK AO2
94908KDBQ DBQ20050420051010004/20/05 05:10:31  5-MIN KDBQ 201110Z 02008KT 6SM BR BKN013 15/13 A2988  1110 86 1400 020/08 RMK AO2
94908KDBQ DBQ20050420051510004/20/05 05:15:31  5-MIN KDBQ 201115Z 03009KT 5SM BR SCT013 15/13 A2988  1120 86 1400 030/09 RMK AO2
94908KDBQ DBQ20050420052010004/20/05 05:20:31  5-MIN KDBQ 201120Z 02010KT 5SM BR FEW015 14/13 A2987  1120 90 1400 020/10 RMK AO2
94908KDBQ DBQ20050420052510004/20/05 05:25:31  5-MIN KDBQ 201125Z 02010KT 6SM BR FEW015 14/13 A2987  1120 90 1400 020/10 RMK AO2
94908KDBQ DBQ20050420053009704/20/05 05:30:31  5-MIN KDBQ 201130Z 02009KT 6SM BR CLR 14/13 A2987 1120  90 1400 020/09 RMK AO2
94908KDBQ DBQ20050420053509704/20/05 05:35:31  5-MIN KDBQ 201135Z 02010KT 6SM BR CLR 15/13 A2987 1120  86 1400 020/10 RMK AO2
94908KDBQ DBQ20050420054009704/20/05 05:40:31  5-MIN KDBQ 201140Z 02009KT 6SM BR CLR 15/13 A2987 1120  86 1400 020/09 RMK AO2
94908KDBQ DBQ20050420054510004/20/05 05:45:31  5-MIN KDBQ 201145Z 02009KT 6SM BR FEW110 15/13 A2988  1120 86 1400 020/09 RMK AO2
94908KDBQ DBQ20050420055013504/20/05 05:50:31  5-MIN KDBQ 201150Z 02010KT 6SM BR FEW110 15/13 A2988  1120 86 1400 020/10 RMK AO2 SLP114 T01500128 10194 20144 53009
94908KDBQ DBQ20050420055513504/20/05 05:55:31  5-MIN KDBQ 201155Z 02009KT 6SM BR SCT110 15/13 A2988  1120 86 1400 020/09 RMK AO2 SLP114 T01500128 10194 20144 50009
94908KDBQ DBQ20050420060010704/20/05 06:00:31  5-MIN KDBQ 201200Z 02008KT 6SM BR FEW085 SCT110 15/13  A2988 1120 86 1400 020/08 RMK AO2
94908KDBQ DBQ20050420060510304/20/05 06:05:31  5-MIN KDBQ 201205Z 02009KT 7SM SCT085 SCT110 15/13 A2988 1110 86 1400 020/09 RMK AO2
94908KDBQ DBQ20050420061010304/20/05 06:10:31  5-MIN KDBQ 201210Z 01007KT 7SM FEW085 SCT110 15/13 A2988 1110 86 1400 010/07 RMK AO2
94908KDBQ DBQ20050420061510304/20/05 06:15:31  5-MIN KDBQ 201215Z 02009KT 7SM FEW085 SCT110 15/13 A2989 1110 86 1400 020/09 RMK AO2
94908KDBQ DBQ20050420062009704/20/05 06:20:31  5-MIN KDBQ 201220Z 02009KT 7SM FEW085 15/13 A2988 1110  86 1400 020/09 RMK AO2
94908KDBQ DBQ20050420062509704/20/05 06:25:31  5-MIN KDBQ 201225Z 02010KT 7SM FEW085 15/13 A2988 1110  86 1400 020/10 RMK AO2
94908KDBQ DBQ20050420063009404/20/05 06:30:31  5-MIN KDBQ 201230Z 01011KT 7SM CLR 15/13 A2988 1110 86  1400 010/11 RMK AO2
94908KDBQ DBQ20050420063509404/20/05 06:35:31  5-MIN KDBQ 201235Z 01010KT 7SM CLR 16/13 A2988 1110 83  1500 010/10 RMK AO2
94908KDBQ DBQ20050420064009404/20/05 06:40:31  5-MIN KDBQ 201240Z 02009KT 8SM CLR 16/13 A2988 1110 80  1500 020/09 RMK AO2
94908KDBQ DBQ20050420064509404/20/05 06:45:31  5-MIN KDBQ 201245Z 02010KT 8SM CLR 16/13 A2988 1120 80  1500 020/10 RMK AO2
94908KDBQ DBQ20050420065011104/20/05 06:50:31  5-MIN KDBQ 201250Z 03011KT 9SM CLR 16/13 A2988 1120 80  1500 030/11 RMK AO2 SLP115 T01610128
94908KDBQ DBQ20050420065511104/20/05 06:55:31  5-MIN KDBQ 201255Z 04009KT 9SM CLR 16/13 A2988 1120 80  1500 040/09 RMK AO2 SLP115 T01610128
94908KDBQ DBQ20050420070009404/20/05 07:00:31  5-MIN KDBQ 201300Z 04008KT 9SM CLR 16/13 A2988 1110 80  1500 040/08 RMK AO2
94908KDBQ DBQ20050420070509404/20/05 07:05:31  5-MIN KDBQ 201305Z 04010KT 9SM CLR 16/13 A2988 1110 80  1500 040/10 RMK AO2
94908KDBQ DBQ20050420071009404/20/05 07:10:31  5-MIN KDBQ 201310Z 04009KT 9SM CLR 16/13 A2988 1110 80  1500 040/09 RMK AO2
94908KDBQ DBQ20050420071509704/20/05 07:15:31  5-MIN KDBQ 201315Z 02008KT 10SM FEW110 16/13 A2989 1110 80 1500 020/08 RMK AO2
94908KDBQ DBQ20050420072009704/20/05 07:20:31  5-MIN KDBQ 201320Z 03006KT 10SM FEW100 16/13 A2990 1100 80 1500 030/06 RMK AO2
94908KDBQ DBQ20050420072510504/20/05 07:25:31  5-MIN KDBQ 201325Z 03005KT 10SM FEW016 SCT100 17/13  A2990 1100 77 1600 030/05 RMK AO2
94908KDBQ DBQ20050420073010504/20/05 07:30:31  5-MIN KDBQ 201330Z 04007KT 10SM FEW016 SCT100 17/13  A2990 1100 80 1600 040/07 RMK AO2
94908KDBQ DBQ20050420073510504/20/05 07:35:31  5-MIN KDBQ 201335Z 05008KT 10SM FEW016 SCT100 17/13  A2990 1100 77 1600 050/08 RMK AO2
94908KDBQ DBQ20050420074010504/20/05 07:40:31  5-MIN KDBQ 201340Z 04008KT 10SM FEW016 SCT100 17/13  A2990 1100 80 1600 040/08 RMK AO2
94908KDBQ DBQ20050420074509704/20/05 07:45:31  5-MIN KDBQ 201345Z 04007KT 10SM SCT016 17/13 A2990 1100 77 1600 040/07 RMK AO2
94908KDBQ DBQ20050420075011404/20/05 07:50:31  5-MIN KDBQ 201350Z 03005KT 10SM SCT016 17/13 A2991 1090 80 1600 030/05 RMK AO2 SLP124 T01670133
94908KDBQ DBQ20050420075511404/20/05 07:55:31  5-MIN KDBQ 201355Z 01007KT 10SM BKN016 17/13 A2991 1090 78 1600 360/07 RMK AO2 SLP126 T01720133
94908KDBQ DBQ20050420080009704/20/05 08:00:31  5-MIN KDBQ 201400Z 03005KT 10SM BKN016 17/13 A2992 1080 78 1600 030/05 RMK AO2
94908KDBQ DBQ20050420080509704/20/05 08:05:31  5-MIN KDBQ 201405Z 04005KT 10SM BKN016 17/13 A2992 1080 80 1600 040/05 RMK AO2
94908KDBQ DBQ20050420081009704/20/05 08:10:31  5-MIN KDBQ 201410Z 04007KT 10SM OVC018 17/13 A2992 1080 77 1600 040/07 RMK AO2
94908KDBQ DBQ20050420081509704/20/05 08:15:31  5-MIN KDBQ 201415Z 02007KT 10SM OVC018 17/13 A2992 1080 78 1600 020/07 RMK AO2
94908KDBQ DBQ20050420082009704/20/05 08:20:31  5-MIN KDBQ 201420Z 03007KT 10SM OVC018 17/13 A2992 1080 80 1600 030/07 RMK AO2
94908KDBQ DBQ20050420082509704/20/05 08:25:31  5-MIN KDBQ 201425Z 03008KT 10SM OVC018 17/13 A2992 1080 80 1600 030/08 RMK AO2
94908KDBQ DBQ20050420083009704/20/05 08:30:31  5-MIN KDBQ 201430Z 03009KT 10SM OVC018 17/13 A2992 1080 80 1600 030/09 RMK AO2
94908KDBQ DBQ20050420083509704/20/05 08:35:31  5-MIN KDBQ 201435Z 03008KT 10SM OVC018 17/13 A2992 1080 80 1600 030/08 RMK AO2
94908KDBQ DBQ20050420084009704/20/05 08:40:31  5-MIN KDBQ 201440Z 05008KT 10SM OVC018 17/13 A2992 1080 78 1600 050/08 RMK AO2
94908KDBQ DBQ20050420084509704/20/05 08:45:31  5-MIN KDBQ 201445Z 03008KT 10SM OVC018 17/13 A2992 1080 78 1600 030/08 RMK AO2
94908KDBQ DBQ20050420085012004/20/05 08:50:31  5-MIN KDBQ 201450Z 04007KT 10SM OVC018 17/13 A2993 1070 78 1600 040/07 RMK AO2 SLP131 T01720133 50009
94908KDBQ DBQ20050420085512004/20/05 08:55:31  5-MIN KDBQ 201455Z 06008KT 10SM OVC018 17/13 A2993 1070 78 1600 060/08 RMK AO2 SLP131 T01720133 53016
94908KDBQ DBQ20050420090009704/20/05 09:00:31  5-MIN KDBQ 201500Z 05009KT 10SM OVC018 17/13 A2993 1070 75 1600 050/09 RMK AO2
94908KDBQ DBQ20050420090509704/20/05 09:05:31  5-MIN KDBQ 201505Z 03008KT 10SM OVC020 17/13 A2993 1070 75 1600 030/08 RMK AO2
94908KDBQ DBQ20050420091009704/20/05 09:10:31  5-MIN KDBQ 201510Z 04008KT 10SM OVC020 17/13 A2993 1070 77 1600 040/08 RMK AO2
94908KDBQ DBQ20050420091509704/20/05 09:15:31  5-MIN KDBQ 201515Z 06009KT 10SM OVC020 17/13 A2993 1070 77 1600 060/09 RMK AO2
94908KDBQ DBQ20050420092009704/20/05 09:20:31  5-MIN KDBQ 201520Z 07005KT 10SM OVC020 17/13 A2993 1070 77 1600 060/05 RMK AO2
94908KDBQ DBQ20050420092509704/20/05 09:25:31  5-MIN KDBQ 201525Z 05006KT 10SM OVC020 17/13 A2994 1060 75 1600 050/06 RMK AO2
94908KDBQ DBQ20050420093009704/20/05 09:30:31  5-MIN KDBQ 201530Z 05006KT 10SM OVC020 17/13 A2994 1060 75 1600 050/06 RMK AO2
94908KDBQ DBQ20050420093510504/20/05 09:35:31  5-MIN KDBQ 201535Z 02005KT 10SM BKN020 OVC100 17/13  A2995 1050 78 1600 020/05 RMK AO2
94908KDBQ DBQ20050420094010504/20/05 09:40:31  5-MIN KDBQ 201540Z 03003KT 10SM BKN022 OVC100 17/13  A2995 1050 75 1600 030/03 RMK AO2
94908KDBQ DBQ20050420094509704/20/05 09:45:31  5-MIN KDBQ 201545Z 02004KT 10SM OVC022 17/13 A2995 1050 75 1600 020/04 RMK AO2
94908KDBQ DBQ20050420095011404/20/05 09:50:31  5-MIN KDBQ 201550Z 01003KT 10SM OVC022 17/13 A2995 1050 75 1600 010/03 RMK AO2 SLP140 T01720128
94908KDBQ DBQ20050420095511404/20/05 09:55:31  5-MIN KDBQ 201555Z 02003KT 10SM OVC022 17/13 A2995 1050 78 1600 020/03 RMK AO2 SLP139 T01720133
94908KDBQ DBQ20050420100009704/20/05 10:00:31  5-MIN KDBQ 201600Z 01004KT 10SM OVC022 17/13 A2995 1050 75 1600 010/04 RMK AO2
94908KDBQ DBQ20050420100509704/20/05 10:05:31  5-MIN KDBQ 201605Z 04005KT 10SM OVC022 17/13 A2994 1060 78 1600 040/05 RMK AO2
94908KDBQ DBQ20050420101009704/20/05 10:10:31  5-MIN KDBQ 201610Z 03007KT 10SM OVC022 18/14 A2994 1060 78 1700 030/07 RMK AO2
94908KDBQ DBQ20050420101509704/20/05 10:15:31  5-MIN KDBQ 201615Z 04007KT 10SM BKN022 18/14 A2994 1060 75 1700 030/07 RMK AO2
94908KDBQ DBQ20050420102009704/20/05 10:20:31  5-MIN KDBQ 201620Z 04007KT 10SM SCT022 18/14 A2995 1060 75 1700 040/07 RMK AO2
94908KDBQ DBQ20050420102509704/20/05 10:25:31  5-MIN KDBQ 201625Z 03007KT 10SM SCT022 19/14 A2994 1060 72 1800 020/07 RMK AO2
94908KDBQ DBQ20050420103009704/20/05 10:30:31  5-MIN KDBQ 201630Z 03008KT 10SM SCT020 19/14 A2994 1060 72 1800 030/08 RMK AO2
94908KDBQ DBQ20050420103509704/20/05 10:35:31  5-MIN KDBQ 201635Z 05008KT 10SM SCT020 18/14 A2995 1050 75 1700 050/08 RMK AO2
94908KDBQ DBQ20050420104010504/20/05 10:40:31  5-MIN KDBQ 201640Z VRB06KT 10SM SCT020 SCT027 18/13  A2995 1050 72 1700 VRB/06 RMK AO2
94908KDBQ DBQ20050420104510504/20/05 10:45:31  5-MIN KDBQ 201645Z 02007KT 10SM SCT020 BKN027 19/14  A2995 1050 72 1800 020/07 RMK AO2
94908KDBQ DBQ20050420105012204/20/05 10:50:31  5-MIN KDBQ 201650Z 06009KT 10SM BKN020 BKN027 18/13  A2995 1050 72 1700 060/09 RMK AO2 SLP139 T01830133
94908KDBQ DBQ20050420105512204/20/05 10:55:31  5-MIN KDBQ 201655Z VRB05KT 10SM BKN020 BKN032 19/14  A2995 1050 72 1800 VRB/05 RMK AO2 SLP139 T01890139
94908KDBQ DBQ20050420110010504/20/05 11:00:31  5-MIN KDBQ 201700Z 05008KT 10SM BKN020 BKN032 19/14  A2995 1050 70 1900 050/08 RMK AO2
94908KDBQ DBQ20050420110510504/20/05 11:05:31  5-MIN KDBQ 201705Z 03008KT 10SM BKN020 BKN029 18/14  A2995 1050 75 1700 030/08 RMK AO2
94908KDBQ DBQ20050420111010504/20/05 11:10:31  5-MIN KDBQ 201710Z 03006KT 10SM BKN022 OVC029 19/14  A2995 1050 72 1800 030/06 RMK AO2
94908KDBQ DBQ20050420111510504/20/05 11:15:31  5-MIN KDBQ 201715Z 03005KT 10SM BKN022 OVC029 19/14  A2995 1050 72 1800 030/05 RMK AO2
94908KDBQ DBQ20050420112011204/20/05 11:20:31  5-MIN KDBQ 201720Z 02007KT 10SM SCT022 BKN029 OVC035  19/14 A2995 1050 72 1800 020/07 RMK AO2
94908KDBQ DBQ20050420112511204/20/05 11:25:31  5-MIN KDBQ 201725Z 07007KT 10SM SCT022 BKN029 OVC035  19/13 A2995 1050 70 1800 060/07 RMK AO2
94908KDBQ DBQ20050420113011204/20/05 11:30:31  5-MIN KDBQ 201730Z 06009KT 10SM SCT022 SCT029 BKN035  19/14 A2995 1050 70 1900 050/09 RMK AO2
94908KDBQ DBQ20050420113510504/20/05 11:35:31  5-MIN KDBQ 201735Z 05008KT 10SM SCT025 BKN035 19/14  A2995 1050 70 1900 050/08 RMK AO2
94908KDBQ DBQ20050420114011204/20/05 11:40:31  5-MIN KDBQ 201740Z 05008KT 10SM FEW023 SCT028 BKN035  19/14 A2995 1050 70 1900 050/08 RMK AO2
94908KDBQ DBQ20050420114511204/20/05 11:45:31  5-MIN KDBQ 201745Z 03006KT 10SM FEW023 BKN033 BKN040  19/14 A2995 1050 72 1800 030/06 RMK AO2
94908KDBQ DBQ20050420115014704/20/05 11:50:31  5-MIN KDBQ 201750Z 03008KT 10SM FEW023 BKN033 BKN041  19/14 A2995 1050 72 1800 030/08 RMK AO2 SLP139 T01890139 10194 20150 53016
94908KDBQ DBQ20050420115514704/20/05 11:55:31  5-MIN KDBQ 201755Z 02008KT 10SM FEW023 BKN030 BKN037  19/14 A2995 1050 72 1800 020/08 RMK AO2 SLP138 T01890139 10194 20150 50008
94908KDBQ DBQ20050420120011204/20/05 12:00:31  5-MIN KDBQ 201800Z 03006KT 10SM FEW023 BKN033 OVC040  19/13 A2995 1050 70 1800 030/06 RMK AO2
94908KDBQ DBQ20050420120511204/20/05 12:05:31  5-MIN KDBQ 201805Z 03008KT 10SM FEW023 BKN033 OVC040  19/14 A2994 1060 70 1900 020/08 RMK AO2
94908KDBQ DBQ20050420121011204/20/05 12:10:31  5-MIN KDBQ 201810Z 02009KT 10SM FEW023 BKN033 OVC042  19/14 A2994 1060 70 1900 020/09 RMK AO2
94908KDBQ DBQ20050420121511204/20/05 12:15:31  5-MIN KDBQ 201815Z 02007KT 10SM FEW023 SCT031 OVC040  19/14 A2994 1060 72 1800 020/07 RMK AO2
94908KDBQ DBQ20050420122009704/20/05 12:20:31  5-MIN KDBQ 201820Z 03007KT 10SM OVC039 19/13 A2994 1060 70 1800 030/07 RMK AO2
94908KDBQ DBQ20050420122509704/20/05 12:25:31  5-MIN KDBQ 201825Z VRB04KT 10SM OVC041 19/13 A2994 1060 70 1800 VRB/04 RMK AO2
94908KDBQ DBQ20050420123009704/20/05 12:30:31  5-MIN KDBQ 201830Z 03009KT 10SM OVC041 19/13 A2994 1060 70 1800 030/09 RMK AO2
94908KDBQ DBQ20050420123510504/20/05 12:35:31  5-MIN KDBQ 201835Z 04007KT 10SM FEW030 OVC041 19/13  A2994 1060 70 1800 040/07 RMK AO2
94908KDBQ DBQ20050420124010504/20/05 12:40:31  5-MIN KDBQ 201840Z 05007KT 10SM FEW023 OVC041 19/14  A2994 1060 72 1800 050/07 RMK AO2
94908KDBQ DBQ20050420124510504/20/05 12:45:31  5-MIN KDBQ 201845Z 06007KT 10SM FEW023 OVC041 19/14  A2994 1060 72 1800 060/07 RMK AO2
94908KDBQ DBQ20050420125012204/20/05 12:50:31  5-MIN KDBQ 201850Z 05009KT 10SM FEW026 OVC043 19/14  A2994 1060 70 1900 050/09 RMK AO2 SLP134 T01940139
94908KDBQ DBQ20050420125512204/20/05 12:55:31  5-MIN KDBQ 201855Z 06010KT 10SM SCT026 OVC043 19/14  A2994 1060 72 1800 060/10 RMK AO2 SLP135 T01890139
94908KDBQ DBQ20050420130011204/20/05 13:00:31  5-MIN KDBQ 201900Z 07008KT 10SM SCT026 BKN030 OVC043  19/13 A2994 1060 70 1800 070/08 RMK AO2
94908KDBQ DBQ20050420130511204/20/05 13:05:31  5-MIN KDBQ 201905Z 03009KT 10SM SCT026 SCT032 OVC043  19/14 A2994 1060 70 1900 030/09 RMK AO2
94908KDBQ DBQ20050420131011204/20/05 13:10:31  5-MIN KDBQ 201910Z 04010KT 10SM FEW026 SCT034 OVC043  20/14 A2994 1060 70 1900 040/10 RMK AO2
94908KDBQ DBQ20050420131511204/20/05 13:15:31  5-MIN KDBQ 201915Z 04008KT 10SM FEW026 SCT034 OVC043  20/14 A2994 1060 67 1900 040/08 RMK AO2
94908KDBQ DBQ20050420132010504/20/05 13:20:31  5-MIN KDBQ 201920Z 03011KT 10SM FEW026 OVC043 19/14  A2993 1070 70 1900 030/11 RMK AO2
94908KDBQ DBQ20050420132510504/20/05 13:25:31  5-MIN KDBQ 201925Z 03011KT 10SM FEW026 OVC045 19/14  A2993 1070 70 1900 030/11 RMK AO2
94908KDBQ DBQ20050420133011204/20/05 13:30:31  5-MIN KDBQ 201930Z 04012KT 10SM FEW026 SCT033 OVC045  19/14 A2993 1070 72 1900 030/12 RMK AO2
94908KDBQ DBQ20050420133511204/20/05 13:35:31  5-MIN KDBQ 201935Z 07010KT 10SM FEW026 SCT033 BKN045  19/14 A2993 1070 70 1900 070/10 RMK AO2
94908KDBQ DBQ20050420134011204/20/05 13:40:31  5-MIN KDBQ 201940Z 06009KT 10SM SCT028 SCT035 BKN045  20/14 A2993 1070 67 1900 060/09 RMK AO2
94908KDBQ DBQ20050420134512104/20/05 13:45:31  5-MIN KDBQ 201945Z 04011KT 020V080 10SM SCT028 BKN045  20/14 A2992 1080 67 1900 040/11 020V080 RMK AO2
94908KDBQ DBQ20050420135012204/20/05 13:50:31  5-MIN KDBQ 201950Z 04013KT 10SM SCT028 BKN045 20/14  A2992 1080 67 1900 040/13 RMK AO2 SLP128 T02000139
94908KDBQ DBQ20050420135511404/20/05 13:55:31  5-MIN KDBQ 201955Z 03012KT 10SM SCT028 20/13 A2992 1080 65 2000 030/12 RMK AO2 SLP128 T02000133
94908KDBQ DBQ20050420140010504/20/05 14:00:31  5-MIN KDBQ 202000Z 05011KT 10SM SCT026 SCT034 20/14  A2992 1080 67 2000 050/11 RMK AO2
94908KDBQ DBQ20050420140510504/20/05 14:05:31  5-MIN KDBQ 202005Z 06014KT 10SM SCT026 BKN034 19/14  A2991 1080 70 1900 060/14 RMK AO2
94908KDBQ DBQ20050420141010504/20/05 14:10:31  5-MIN KDBQ 202010Z 06013KT 10SM SCT026 BKN034 19/14  A2991 1090 70 1900 060/13 RMK AO2
94908KDBQ DBQ20050420141510504/20/05 14:15:31  5-MIN KDBQ 202015Z 07014KT 10SM SCT026 BKN032 20/14  A2991 1090 67 2000 070/14 RMK AO2
94908KDBQ DBQ20050420142010504/20/05 14:20:31  5-MIN KDBQ 202020Z 04013KT 10SM SCT026 BKN032 20/14  A2991 1090 67 2000 040/13 RMK AO2
94908KDBQ DBQ20050420142510504/20/05 14:25:31  5-MIN KDBQ 202025Z 04014KT 10SM BKN028 BKN034 20/14  A2990 1090 67 2000 040/14 RMK AO2
94908KDBQ DBQ20050420143009704/20/05 14:30:31  5-MIN KDBQ 202030Z 06014KT 10SM BKN028 19/13 A2990 1090 67 1900 060/14 RMK AO2
94908KDBQ DBQ20050420143510504/20/05 14:35:31  5-MIN KDBQ 202035Z 07012KT 10SM SCT026 SCT032 19/13  A2990 1100 67 1900 070/12 RMK AO2
94908KDBQ DBQ20050420144011104/20/05 14:40:31  5-MIN KDBQ 202040Z 07014G18KT 10SM SCT026 BKN032 19/13  A2990 1100 67 1900 060/14G18 RMK AO2
94908KDBQ DBQ20050420144510504/20/05 14:45:31  5-MIN KDBQ 202045Z 07014KT 10SM SCT028 SCT034 19/13  A2990 1090 67 1900 070/14 RMK AO2
94908KDBQ DBQ20050420145012004/20/05 14:50:31  5-MIN KDBQ 202050Z 05015KT 10SM SCT028 19/13 A2990 1090 67 1900 050/15 RMK AO2 SLP123 T01940133 50008
94908KDBQ DBQ20050420145512004/20/05 14:55:31  5-MIN KDBQ 202055Z 05014KT 10SM FEW026 19/13 A2990 1100 70 1800 050/14 RMK AO2 SLP122 T01890133 58016
94908KDBQ DBQ20050420150009704/20/05 15:00:31  5-MIN KDBQ 202100Z 05015KT 10SM SCT026 19/13 A2990 1090 67 1800 050/15 RMK AO2
94908KDBQ DBQ20050420150509704/20/05 15:05:31  5-MIN KDBQ 202105Z 05013KT 10SM SCT026 19/13 A2990 1090 67 1800 050/13 RMK AO2
94908KDBQ DBQ20050420225012204/20/05 22:50:31  5-MIN KDBQ 210450Z AUTO 06014KT 7SM OVC014 10/07 A3008  930 83 600 060/14 RMK AO2 SLP185 T01000072 TSNO
94908KDBQ DBQ20050420225512504/20/05 22:55:31  5-MIN KDBQ 210455Z AUTO 06014KT 6SM HZ OVC014 10/07  A3008 930 83 600 060/14 RMK AO2 SLP185 T01000072 TSNO
94908KDBQ DBQ20050420230010804/20/05 23:00:31  5-MIN KDBQ 210500Z AUTO 06015KT 6SM HZ OVC014 10/07  A3007 940 83 600 060/15 RMK AO2 TSNO
94908KDBQ DBQ20050420230510804/20/05 23:05:31  5-MIN KDBQ 210505Z AUTO 06015KT 6SM HZ OVC014 10/07  A3008 930 80 600 060/15 RMK AO2 TSNO
94908KDBQ DBQ20050420231011404/20/05 23:10:31  5-MIN KDBQ 210510Z AUTO 05011G19KT 6SM HZ OVC014 10/07  A3008 930 80 600 050/11G19 RMK AO2 TSNO
94908KDBQ DBQ20050420231510804/20/05 23:15:31  5-MIN KDBQ 210515Z AUTO 05011KT 6SM HZ OVC012 09/07  A3008 930 83 500 050/11 RMK AO2 TSNO
94908KDBQ DBQ20050420232010504/20/05 23:20:31  5-MIN KDBQ 210520Z AUTO 05009KT 7SM OVC012 09/07 A3008  930 83 500 050/09 RMK AO2 TSNO
94908KDBQ DBQ20050420232511104/20/05 23:25:31  5-MIN KDBQ 210525Z AUTO 07013G18KT 8SM OVC012 09/07  A3008 930 83 500 070/13G18 RMK AO2 TSNO
94908KDBQ DBQ20050420233011104/20/05 23:30:31  5-MIN KDBQ 210530Z AUTO 06011G18KT 9SM OVC012 09/07  A3008 930 83 500 060/11G18 RMK AO2 TSNO
94908KDBQ DBQ20050420233510504/20/05 23:35:31  5-MIN KDBQ 210535Z AUTO 06013KT 10SM OVC012 09/07 A3008 930 83 500 060/13 RMK AO2 TSNO
94908KDBQ DBQ20050420234010504/20/05 23:40:31  5-MIN KDBQ 210540Z AUTO 06011KT 10SM OVC012 09/07 A3007 940 83 500 060/11 RMK AO2 TSNO
94908KDBQ DBQ20050420234510504/20/05 23:45:31  5-MIN KDBQ 210545Z AUTO 06011KT 10SM OVC012 09/07 A3007 940 83 500 060/11 RMK AO2 TSNO
94908KDBQ DBQ20050420235015004/20/05 23:50:31  5-MIN KDBQ 210550Z AUTO 07011KT 10SM OVC012 09/07 A3007 940 83 500 070/11 RMK AO2 SLP184 T00940067 10139 20094 402000094 53022 TSNO
94908KDBQ DBQ20050420235515004/20/05 23:55:31  5-MIN KDBQ 210555Z AUTO 06011KT 10SM OVC012 09/07 A3007 940 83 500 060/11 RMK AO2 SLP184 T00940067 10139 20094 402000094 50005 TSNO
94908KDBQ DBQ20050421000010504/21/05 00:00:38  5-MIN KDBQ 210600Z AUTO 06011KT 10SM OVC012 09/07 A3007 940 83 500 060/11 RMK AO2 TSNO
94908KDBQ DBQ20050421000510504/21/05 00:05:31  5-MIN KDBQ 210605Z AUTO 06011KT 10SM OVC012 09/07 A3007 940 83 500 060/11 RMK AO2 TSNO
94908KDBQ DBQ20050421001010504/21/05 00:10:31  5-MIN KDBQ 210610Z AUTO 06012KT 10SM OVC012 09/07 A3007 940 83 500 060/12 RMK AO2 TSNO
94908KDBQ DBQ20050421001510504/21/05 00:15:31  5-MIN KDBQ 210615Z AUTO 07011KT 10SM OVC012 09/07 A3007 940 83 500 070/11 RMK AO2 TSNO
94908KDBQ DBQ20050421002010504/21/05 00:20:31  5-MIN KDBQ 210620Z AUTO 08010KT 10SM OVC012 09/07 A3006 950 83 500 070/10 RMK AO2 TSNO
94908KDBQ DBQ20050421002510504/21/05 00:25:31  5-MIN KDBQ 210625Z AUTO 09016KT 10SM OVC012 09/07 A3006 950 83 500 090/16 RMK AO2 TSNO
94908KDBQ DBQ20050421003010504/21/05 00:30:31  5-MIN KDBQ 210630Z AUTO 08014KT 10SM OVC010 09/07 A3006 950 83 500 080/14 RMK AO2 TSNO
94908KDBQ DBQ20050421003510504/21/05 00:35:31  5-MIN KDBQ 210635Z AUTO 08013KT 10SM OVC010 09/07 A3007 940 83 500 080/13 RMK AO2 TSNO
94908KDBQ DBQ20050421004010504/21/05 00:40:31  5-MIN KDBQ 210640Z AUTO 08014KT 10SM OVC010 09/07 A3007 940 83 500 070/14 RMK AO2 TSNO
94908KDBQ DBQ20050421004511204/21/05 00:45:31  5-MIN KDBQ 210645Z AUTO 08012KT 10SM BKN010 OVC017 09/06 A3006 950 83 500 080/12 RMK AO2 TSNO
94908KDBQ DBQ20050421005014104/21/05 00:50:31  5-MIN KDBQ 210650Z AUTO 08011KT 10SM BKN010 BKN017 09/06 A3006 950 83 500 070/11 RMK AO2 CIG 010V014 SLP181 T00890061 TSNO
94908KDBQ DBQ20050421005512204/21/05 00:55:31  5-MIN KDBQ 210655Z AUTO 08011KT 10SM SCT010 09/06 A3006 950 79 500 080/11 RMK AO2 SLP181 T00890056 TSNO
94908KDBQ DBQ20050421010011204/21/05 01:00:31  5-MIN KDBQ 210700Z AUTO 07009KT 10SM SCT010 SCT017 08/06 A3007 940 82 400 070/09 RMK AO2 TSNO
94908KDBQ DBQ20050421010511204/21/05 01:05:31  5-MIN KDBQ 210705Z AUTO 08010KT 10SM FEW010 SCT017 08/06 A3007 940 82 400 080/10 RMK AO2 TSNO
94908KDBQ DBQ20050421011010504/21/05 01:10:31  5-MIN KDBQ 210710Z AUTO 08008KT 10SM SCT016 08/06 A3007 940 82 400 080/08 RMK AO2 TSNO
94908KDBQ DBQ20050421011510504/21/05 01:15:31  5-MIN KDBQ 210715Z AUTO 09008KT 10SM SCT016 08/06 A3007 940 82 400 090/08 RMK AO2 TSNO
94908KDBQ DBQ20050421012010504/21/05 01:20:31  5-MIN KDBQ 210720Z AUTO 08009KT 10SM SCT016 08/06 A3007 940 82 400 080/09 RMK AO2 TSNO
94908KDBQ DBQ20050421012510504/21/05 01:25:31  5-MIN KDBQ 210725Z AUTO 09011KT 10SM SCT016 08/05 A3007 940 79 400 090/11 RMK AO2 TSNO
94908KDBQ DBQ20050421013011204/21/05 01:30:31  5-MIN KDBQ 210730Z AUTO 08015G18KT 10SM FEW016 08/04  A3007 940 76 400 080/15G18 RMK AO2 TSNO
94908KDBQ DBQ20050421013510504/21/05 01:35:31  5-MIN KDBQ 210735Z AUTO 08014KT 10SM FEW016 08/03 A3008 940 73 300 080/14 RMK AO2 TSNO
94908KDBQ DBQ20050421014010504/21/05 01:40:31  5-MIN KDBQ 210740Z AUTO 08013KT 10SM FEW016 08/03 A3008 930 73 300 080/13 RMK AO2 TSNO
94908KDBQ DBQ20050421014510204/21/05 01:45:31  5-MIN KDBQ 210745Z AUTO 08014KT 10SM CLR 08/03 A3008 930 73 300 080/14 RMK AO2 TSNO
94908KDBQ DBQ20050421015011904/21/05 01:50:31  5-MIN KDBQ 210750Z AUTO 08010KT 10SM CLR 08/03 A3007 940 73 300 080/10 RMK AO2 SLP185 T00780033 TSNO
94908KDBQ DBQ20050421015511904/21/05 01:55:31  5-MIN KDBQ 210755Z AUTO 07011KT 10SM CLR 08/03 A3007 940 73 300 070/11 RMK AO2 SLP185 T00780033 TSNO
94908KDBQ DBQ20050421020010204/21/05 02:00:31  5-MIN KDBQ 210800Z AUTO 07008KT 10SM CLR 08/03 A3008 930 73 300 070/08 RMK AO2 TSNO
94908KDBQ DBQ20050421020510204/21/05 02:05:31  5-MIN KDBQ 210805Z AUTO 07009KT 10SM CLR 08/03 A3008 930 73 300 070/09 RMK AO2 TSNO
94908KDBQ DBQ20050421021010204/21/05 02:10:31  5-MIN KDBQ 210810Z AUTO 07008KT 10SM CLR 08/03 A3008 930 73 300 070/08 RMK AO2 TSNO
94908KDBQ DBQ20050421021510204/21/05 02:15:31  5-MIN KDBQ 210815Z AUTO 07008KT 10SM CLR 07/04 A3008 940 79 300 070/08 RMK AO2 TSNO
94908KDBQ DBQ20050421022010204/21/05 02:20:31  5-MIN KDBQ 210820Z AUTO 07009KT 10SM CLR 08/03 A3007 940 73 300 070/09 RMK AO2 TSNO
94908KDBQ DBQ20050421022510504/21/05 02:25:31  5-MIN KDBQ 210825Z AUTO 07008KT 10SM SCT120 07/03 A3007 940 76 300 070/08 RMK AO2 TSNO
94908KDBQ DBQ20050421023010504/21/05 02:30:31  5-MIN KDBQ 210830Z AUTO 07009KT 10SM BKN120 07/03 A3007 940 76 300 070/09 RMK AO2 TSNO
94908KDBQ DBQ20050421023510504/21/05 02:35:31  5-MIN KDBQ 210835Z AUTO 07009KT 10SM BKN120 07/03 A3007 940 76 300 070/09 RMK AO2 TSNO
94908KDBQ DBQ20050421024010504/21/05 02:40:31  5-MIN KDBQ 210840Z AUTO 07010KT 10SM BKN120 07/03 A3007 940 76 300 070/10 RMK AO2 TSNO
94908KDBQ DBQ20050421024510504/21/05 02:45:31  5-MIN KDBQ 210845Z AUTO 08012KT 10SM OVC120 07/03 A3007 940 76 300 080/12 RMK AO2 TSNO
94908KDBQ DBQ20050421025012804/21/05 02:50:31  5-MIN KDBQ 210850Z AUTO 07010KT 10SM OVC110 07/03 A3007 940 76 300 060/10 RMK AO2 SLP183 T00720033 50005 TSNO
94908KDBQ DBQ20050421025512804/21/05 02:55:31  5-MIN KDBQ 210855Z AUTO 07011KT 10SM OVC110 07/03 A3007 940 76 300 070/11 RMK AO2 SLP185 T00720033 55000 TSNO
94908KDBQ DBQ20050421030010504/21/05 03:00:31  5-MIN KDBQ 210900Z AUTO 08010KT 10SM OVC110 07/03 A3007 940 76 300 080/10 RMK AO2 TSNO
94908KDBQ DBQ20050421030510504/21/05 03:05:31  5-MIN KDBQ 210905Z AUTO 08008KT 10SM BKN110 07/03 A3008 930 76 300 080/08 RMK AO2 TSNO
94908KDBQ DBQ20050421031011204/21/05 03:10:31  5-MIN KDBQ 210910Z AUTO 07009KT 10SM SCT090 BKN110 07/03 A3007 940 76 300 070/09 RMK AO2 TSNO
94908KDBQ DBQ20050421031511204/21/05 03:15:31  5-MIN KDBQ 210915Z AUTO 05007KT 10SM SCT090 BKN110 07/03 A3007 940 76 300 050/07 RMK AO2 TSNO
94908KDBQ DBQ20050421032011204/21/05 03:20:31  5-MIN KDBQ 210920Z AUTO 06008KT 10SM SCT090 BKN110 07/03 A3007 940 79 200 050/08 RMK AO2 TSNO
94908KDBQ DBQ20050421032511204/21/05 03:25:31  5-MIN KDBQ 210925Z AUTO 06010KT 10SM FEW090 SCT110 07/03 A3007 940 79 200 050/10 RMK AO2 TSNO
94908KDBQ DBQ20050421033011204/21/05 03:30:31  5-MIN KDBQ 210930Z AUTO 06010KT 10SM FEW090 SCT110 07/03 A3007 940 79 200 050/10 RMK AO2 TSNO
94908KDBQ DBQ20050421033510504/21/05 03:35:31  5-MIN KDBQ 210935Z AUTO 06011KT 10SM FEW090 07/03 A3006 950 79 200 060/11 RMK AO2 TSNO
94908KDBQ DBQ20050421034010504/21/05 03:40:31  5-MIN KDBQ 210940Z AUTO 05011KT 10SM FEW120 07/03 A3006 950 79 200 050/11 RMK AO2 TSNO
94908KDBQ DBQ20050421034510504/21/05 03:45:31  5-MIN KDBQ 210945Z AUTO 05010KT 10SM FEW110 07/03 A3006 950 79 200 050/10 RMK AO2 TSNO
94908KDBQ DBQ20050421035012204/21/05 03:50:31  5-MIN KDBQ 210950Z AUTO 06009KT 10SM FEW110 06/03 A3006 950 82 100 060/09 RMK AO2 SLP181 T00610033 TSNO
94908KDBQ DBQ20050421035512204/21/05 03:55:31  5-MIN KDBQ 210955Z AUTO 06009KT 10SM SCT110 06/03 A3006 950 82 100 050/09 RMK AO2 SLP181 T00610033 TSNO
94908KDBQ DBQ20050421040010504/21/05 04:00:31  5-MIN KDBQ 211000Z AUTO 05011KT 10SM SCT110 06/03 A3006 950 82 100 050/11 RMK AO2 TSNO
94908KDBQ DBQ20050421040510504/21/05 04:05:31  5-MIN KDBQ 211005Z AUTO 06011KT 10SM BKN110 06/03 A3006 950 79 100 060/11 RMK AO2 TSNO
94908KDBQ DBQ20050421041010504/21/05 04:10:31  5-MIN KDBQ 211010Z AUTO 06012KT 10SM BKN110 06/03 A3006 950 79 100 060/12 RMK AO2 TSNO
94908KDBQ DBQ20050421041510504/21/05 04:15:31  5-MIN KDBQ 211015Z AUTO 05010KT 10SM BKN110 06/03 A3006 950 79 200 050/10 RMK AO2 TSNO
94908KDBQ DBQ20050421042010504/21/05 04:20:31  5-MIN KDBQ 211020Z AUTO 05010KT 10SM OVC110 06/03 A3006 950 82 100 050/10 RMK AO2 TSNO
94908KDBQ DBQ20050421042510504/21/05 04:25:31  5-MIN KDBQ 211025Z AUTO 06008KT 10SM OVC110 06/03 A3006 950 82 200 060/08 RMK AO2 TSNO
94908KDBQ DBQ20050421043010504/21/05 04:30:31  5-MIN KDBQ 211030Z AUTO 06010KT 10SM OVC110 06/03 A3006 950 82 100 060/10 RMK AO2 TSNO
94908KDBQ DBQ20050421043510504/21/05 04:35:31  5-MIN KDBQ 211035Z AUTO 06009KT 10SM OVC110 06/03 A3006 950 79 100 060/09 RMK AO2 TSNO
94908KDBQ DBQ20050421044010504/21/05 04:40:31  5-MIN KDBQ 211040Z AUTO 07010KT 10SM OVC110 06/03 A3007 940 79 100 060/10 RMK AO2 TSNO
94908KDBQ DBQ20050421044510504/21/05 04:45:31  5-MIN KDBQ 211045Z AUTO 06006KT 10SM OVC110 06/03 A3007 940 79 100 060/06 RMK AO2 TSNO
94908KDBQ DBQ20050421045012204/21/05 04:50:31  5-MIN KDBQ 211050Z AUTO 06008KT 10SM OVC110 06/03 A3008 940 79 100 060/08 RMK AO2 SLP188 T00610028 TSNO
94908KDBQ DBQ20050421045511304/21/05 04:55:31  5-MIN KDBQ 211055Z 06009KT 10SM OVC110 06/03 A3008 930  79 100 060/09 RMK AO2 SLP189 T00610028
94908KDBQ DBQ20050421050010304/21/05 05:00:31  5-MIN KDBQ 211100Z 06010KT 10SM FEW020 OVC110 06/03  A3008 930 79 100 060/10 RMK AO2
94908KDBQ DBQ20050421050510304/21/05 05:05:31  5-MIN KDBQ 211105Z 06011KT 10SM FEW020 OVC110 06/03  A3008 930 79 100 060/11 RMK AO2
94908KDBQ DBQ20050421051011004/21/05 05:10:31  5-MIN KDBQ 211110Z 06011KT 10SM FEW018 BKN100 OVC120  06/03 A3007 940 79 100 060/11 RMK AO2
94908KDBQ DBQ20050421051511004/21/05 05:15:31  5-MIN KDBQ 211115Z 06009KT 10SM SCT018 BKN100 OVC120  06/03 A3007 940 79 100 060/09 RMK AO2
94908KDBQ DBQ20050421052010304/21/05 05:20:31  5-MIN KDBQ 211120Z 06009KT 10SM BKN018 OVC100 06/03  A3007 940 79 100 060/09 RMK AO2
94908KDBQ DBQ20050421052510304/21/05 05:25:31  5-MIN KDBQ 211125Z 06009KT 10SM BKN018 OVC095 06/03  A3008 930 79 100 060/09 RMK AO2
94908KDBQ DBQ20050421053010304/21/05 05:30:31  5-MIN KDBQ 211130Z 06008KT 10SM BKN018 OVC095 06/03  A3008 940 79 100 060/08 RMK AO2
94908KDBQ DBQ20050421053510304/21/05 05:35:31  5-MIN KDBQ 211135Z 06009KT 10SM BKN018 OVC095 06/03  A3007 940 79 100 060/09 RMK AO2
94908KDBQ DBQ20050421054009604/21/05 05:40:31  5-MIN KDBQ 211140Z 06007KT 10SM OVC018 06/03 A3007 940  79 100 060/07 RMK AO2
94908KDBQ DBQ20050421054509604/21/05 05:45:31  5-MIN KDBQ 211145Z 06005KT 10SM OVC018 06/03 A3008 930  79 100 060/05 RMK AO2
94908KDBQ DBQ20050421055013104/21/05 05:50:31  5-MIN KDBQ 211150Z 06007KT 10SM OVC018 06/03 A3008 930  79 100 060/07 RMK AO2 SLP191 T00610028 10094 20061 55000
94908KDBQ DBQ20050421055513104/21/05 05:55:31  5-MIN KDBQ 211155Z 07006KT 10SM OVC018 06/03 A3009 920  79 100 070/06 RMK AO2 SLP193 T00610028 10094 20061 53004
94908KDBQ DBQ20050421060009604/21/05 06:00:31  5-MIN KDBQ 211200Z 06007KT 10SM OVC016 06/03 A3009 920  79 100 060/07 RMK AO2
94908KDBQ DBQ20050421060511004/21/05 06:05:31  5-MIN KDBQ 211205Z 07009KT 10SM -RA OVC016 06/03 A3009  920 82 0 060/09 RMK AO2 RAB01 P0000
94908KDBQ DBQ20050421061011104/21/05 06:10:31  5-MIN KDBQ 211210Z 06010KT 10SM OVC016 06/03 A3008 930  82 100 060/10 RMK AO2 RAB01E10 P0000
94908KDBQ DBQ20050421061511104/21/05 06:15:31  5-MIN KDBQ 211215Z 06008KT 10SM OVC016 06/03 A3008 930  85 100 060/08 RMK AO2 RAB01E10 P0000
94908KDBQ DBQ20050421062011104/21/05 06:20:31  5-MIN KDBQ 211220Z 06008KT 10SM OVC016 06/03 A3008 930  82 100 050/08 RMK AO2 RAB01E10 P0000
94908KDBQ DBQ20050421062511104/21/05 06:25:31  5-MIN KDBQ 211225Z 05007KT 10SM OVC016 06/03 A3008 930  85 100 050/07 RMK AO2 RAB01E10 P0000
94908KDBQ DBQ20050421063010904/21/05 06:30:31  5-MIN KDBQ 211230Z 05005KT 10SM OVC016 06/03 A3008 930  85 0 050/05 RMK AO2 RAB01E10 P0000
94908KDBQ DBQ20050421063511104/21/05 06:35:31  5-MIN KDBQ 211235Z 04004KT 10SM OVC016 06/03 A3009 920  79 100 040/04 RMK AO2 RAB01E10 P0000
94908KDBQ DBQ20050421064011104/21/05 06:40:31  5-MIN KDBQ 211240Z 05006KT 10SM OVC016 06/03 A3009 920  79 100 050/06 RMK AO2 RAB01E10 P0000
94908KDBQ DBQ20050421064511104/21/05 06:45:31  5-MIN KDBQ 211245Z 05007KT 10SM OVC016 06/03 A3009 920  82 100 050/07 RMK AO2 RAB01E10 P0000
94908KDBQ DBQ20050421065012804/21/05 06:50:31  5-MIN KDBQ 211250Z 05007KT 10SM OVC016 06/03 A3009 920  82 100 050/07 RMK AO2 RAB01E10 SLP193 P0000 T00610033
94908KDBQ DBQ20050421065512804/21/05 06:55:31  5-MIN KDBQ 211255Z 05008KT 10SM OVC016 06/03 A3009 920  82 100 050/08 RMK AO2 RAB01E10 SLP193 P0000 T00610033
94908KDBQ DBQ20050421070009604/21/05 07:00:31  5-MIN KDBQ 211300Z 05008KT 10SM OVC016 06/03 A3009 920  79 100 050/08 RMK AO2
94908KDBQ DBQ20050421070509604/21/05 07:05:31  5-MIN KDBQ 211305Z 05008KT 10SM OVC016 06/03 A3009 920  82 100 050/08 RMK AO2
94908KDBQ DBQ20050421071009604/21/05 07:10:31  5-MIN KDBQ 211310Z 05009KT 10SM OVC016 06/03 A3009 930  82 100 040/09 RMK AO2
94908KDBQ DBQ20050421071509604/21/05 07:15:31  5-MIN KDBQ 211315Z 05009KT 10SM OVC016 06/03 A3008 930  79 100 050/09 RMK AO2
94908KDBQ DBQ20050421072009604/21/05 07:20:31  5-MIN KDBQ 211320Z 05009KT 10SM OVC016 06/03 A3008 930  82 100 050/09 RMK AO2
94908KDBQ DBQ20050421072509604/21/05 07:25:31  5-MIN KDBQ 211325Z 05010KT 10SM OVC016 06/03 A3008 930  79 100 050/10 RMK AO2
94908KDBQ DBQ20050421073009604/21/05 07:30:31  5-MIN KDBQ 211330Z 05010KT 10SM OVC016 06/03 A3008 930  82 100 050/10 RMK AO2
94908KDBQ DBQ20050421073509604/21/05 07:35:31  5-MIN KDBQ 211335Z 05009KT 10SM OVC016 06/03 A3008 930  79 100 050/09 RMK AO2
94908KDBQ DBQ20050421074009604/21/05 07:40:31  5-MIN KDBQ 211340Z 04008KT 10SM OVC016 06/03 A3009 930  82 100 040/08 RMK AO2
94908KDBQ DBQ20050421074509604/21/05 07:45:31  5-MIN KDBQ 211345Z 06009KT 10SM OVC016 06/03 A3008 930  82 100 050/09 RMK AO2
94908KDBQ DBQ20050421075011304/21/05 07:50:31  5-MIN KDBQ 211350Z 05009KT 10SM OVC016 06/03 A3008 930  82 100 050/09 RMK AO2 SLP192 T00610033
94908KDBQ DBQ20050421075511304/21/05 07:55:31  5-MIN KDBQ 211355Z 05007KT 10SM OVC016 07/03 A3008 930  79 200 050/07 RMK AO2 SLP191 T00670033
94908KDBQ DBQ20050421080009604/21/05 08:00:31  5-MIN KDBQ 211400Z 05006KT 10SM OVC016 07/03 A3008 930  79 200 050/06 RMK AO2
94908KDBQ DBQ20050421080509604/21/05 08:05:31  5-MIN KDBQ 211405Z 05006KT 10SM OVC016 07/03 A3009 930  79 200 050/06 RMK AO2
94908KDBQ DBQ20050421081009604/21/05 08:10:31  5-MIN KDBQ 211410Z 06006KT 10SM OVC016 07/03 A3009 930  79 200 060/06 RMK AO2
94908KDBQ DBQ20050421081509604/21/05 08:15:31  5-MIN KDBQ 211415Z 06008KT 10SM OVC016 07/04 A3009 920  82 200 060/08 RMK AO2
94908KDBQ DBQ20050421082009604/21/05 08:20:31  5-MIN KDBQ 211420Z 05007KT 10SM OVC016 07/03 A3009 920  79 200 050/07 RMK AO2
94908KDBQ DBQ20050421082509604/21/05 08:25:31  5-MIN KDBQ 211425Z 09007KT 10SM OVC016 07/03 A3009 920  79 200 090/07 RMK AO2
94908KDBQ DBQ20050421083009604/21/05 08:30:31  5-MIN KDBQ 211430Z 06008KT 10SM OVC016 07/03 A3009 930  79 200 060/08 RMK AO2
94908KDBQ DBQ20050421083509604/21/05 08:35:31  5-MIN KDBQ 211435Z 06009KT 10SM OVC016 07/03 A3009 930  79 200 060/09 RMK AO2
94908KDBQ DBQ20050421084009604/21/05 08:40:31  5-MIN KDBQ 211440Z 07010KT 10SM OVC016 07/03 A3008 930  79 200 070/10 RMK AO2
94908KDBQ DBQ20050421084509604/21/05 08:45:31  5-MIN KDBQ 211445Z 07007KT 10SM OVC016 07/03 A3008 930  76 300 070/07 RMK AO2
94908KDBQ DBQ20050421085012504/21/05 08:50:31  5-MIN KDBQ 211450Z 07007KT 10SM OVC016 07/04 A3008 930  79 300 070/07 RMK AO2 SLP191 60000 T00720039 53004
94908KDBQ DBQ20050421085512504/21/05 08:55:31  5-MIN KDBQ 211455Z 06008KT 10SM OVC014 07/04 A3008 930  79 300 060/08 RMK AO2 SLP192 60000 T00720039 55001
94908KDBQ DBQ20050421090009604/21/05 09:00:31  5-MIN KDBQ 211500Z 05008KT 10SM OVC014 07/04 A3008 930  79 300 050/08 RMK AO2
94908KDBQ DBQ20050421090509604/21/05 09:05:31  5-MIN KDBQ 211505Z 06009KT 10SM OVC014 07/04 A3008 930  79 300 060/09 RMK AO2
94908KDBQ DBQ20050421091009604/21/05 09:10:31  5-MIN KDBQ 211510Z 07010KT 10SM OVC014 08/04 A3007 940  76 300 070/10 RMK AO2
94908KDBQ DBQ20050421091509604/21/05 09:15:31  5-MIN KDBQ 211515Z 07009KT 10SM OVC014 08/04 A3007 940  79 300 070/09 RMK AO2
94908KDBQ DBQ20050421092009604/21/05 09:20:31  5-MIN KDBQ 211520Z 09007KT 10SM OVC014 07/04 A3008 930  79 300 090/07 RMK AO2
94908KDBQ DBQ20050421092509604/21/05 09:25:31  5-MIN KDBQ 211525Z 06010KT 10SM OVC014 07/04 A3007 940  79 300 060/10 RMK AO2
94908KDBQ DBQ20050421093009604/21/05 09:30:31  5-MIN KDBQ 211530Z 07006KT 10SM OVC014 07/04 A3007 940  79 300 070/06 RMK AO2
94908KDBQ DBQ20050421093509604/21/05 09:35:31  5-MIN KDBQ 211535Z 06007KT 10SM OVC014 07/04 A3008 930  82 300 060/07 RMK AO2
94908KDBQ DBQ20050421094009604/21/05 09:40:31  5-MIN KDBQ 211540Z 06010KT 10SM OVC014 08/04 A3007 940  79 300 060/10 RMK AO2
94908KDBQ DBQ20050421094509604/21/05 09:45:31  5-MIN KDBQ 211545Z 06010KT 10SM OVC014 08/04 A3007 940  79 300 060/10 RMK AO2
94908KDBQ DBQ20050421095011304/21/05 09:50:31  5-MIN KDBQ 211550Z 06009KT 10SM OVC014 08/04 A3007 940  79 300 060/09 RMK AO2 SLP185 T00780044
94908KDBQ DBQ20050421095511304/21/05 09:55:31  5-MIN KDBQ 211555Z 06009KT 10SM OVC014 08/04 A3006 950  76 400 060/09 RMK AO2 SLP185 T00830044
94908KDBQ DBQ20050421100009604/21/05 10:00:31  5-MIN KDBQ 211600Z 09010KT 10SM OVC014 08/05 A3007 940  79 400 090/10 RMK AO2
94908KDBQ DBQ20050421100509604/21/05 10:05:31  5-MIN KDBQ 211605Z 06010KT 10SM OVC014 08/05 A3007 940  79 400 060/10 RMK AO2
94908KDBQ DBQ20050421101009604/21/05 10:10:31  5-MIN KDBQ 211610Z 08008KT 10SM OVC014 08/05 A3007 940  79 400 080/08 RMK AO2
94908KDBQ DBQ20050421101509604/21/05 10:15:31  5-MIN KDBQ 211615Z 08008KT 10SM OVC014 08/04 A3006 950  76 400 080/08 RMK AO2
94908KDBQ DBQ20050421102009604/21/05 10:20:31  5-MIN KDBQ 211620Z 07009KT 10SM OVC014 08/05 A3007 940  79 400 070/09 RMK AO2
94908KDBQ DBQ20050421102509604/21/05 10:25:31  5-MIN KDBQ 211625Z 07008KT 10SM OVC014 08/05 A3007 940  79 400 060/08 RMK AO2
94908KDBQ DBQ20050421103010204/21/05 10:30:31  5-MIN KDBQ 211630Z 07011G17KT 10SM OVC014 09/05 A3006  950 76 500 060/11G17 RMK AO2
94908KDBQ DBQ20050421103510204/21/05 10:35:31  5-MIN KDBQ 211635Z 07011G17KT 10SM OVC014 09/05 A3007  940 76 500 070/11G17 RMK AO2
94908KDBQ DBQ20050421104009604/21/05 10:40:31  5-MIN KDBQ 211640Z 07010KT 10SM OVC014 09/05 A3007 940  76 500 070/10 RMK AO2
94908KDBQ DBQ20050421104509604/21/05 10:45:31  5-MIN KDBQ 211645Z 07010KT 10SM OVC014 09/05 A3006 950  76 500 070/10 RMK AO2
94908KDBQ DBQ20050421105011304/21/05 10:50:31  5-MIN KDBQ 211650Z 07011KT 10SM OVC014 09/05 A3006 950  76 500 070/11 RMK AO2 SLP182 T00890050
94908KDBQ DBQ20050421105511304/21/05 10:55:31  5-MIN KDBQ 211655Z 08012KT 10SM OVC014 09/05 A3005 960  76 500 080/12 RMK AO2 SLP180 T00890050
94908KDBQ DBQ20050421110010304/21/05 11:00:31  5-MIN KDBQ 211700Z 08014KT 10SM OVC016 09/04 A3004 970  73 500 080/14 RMK AO2 PRESFR
94908KDBQ DBQ20050421110509604/21/05 11:05:31  5-MIN KDBQ 211705Z 09013KT 10SM OVC016 09/05 A3003 970  74 600 090/13 RMK AO2
94908KDBQ DBQ20050421111009604/21/05 11:10:31  5-MIN KDBQ 211710Z 09013KT 10SM OVC016 09/05 A3003 980  74 600 090/13 RMK AO2
94908KDBQ DBQ20050421111509604/21/05 11:15:31  5-MIN KDBQ 211715Z 08012KT 10SM OVC016 09/05 A3002 980  74 600 070/12 RMK AO2
94908KDBQ DBQ20050421112010304/21/05 11:20:31  5-MIN KDBQ 211720Z 09014KT 10SM BKN016 OVC024 10/05  A3002 980 71 700 090/14 RMK AO2
94908KDBQ DBQ20050421112510304/21/05 11:25:31  5-MIN KDBQ 211725Z 08013KT 10SM BKN016 OVC024 10/05  A3003 980 71 700 080/13 RMK AO2
94908KDBQ DBQ20050421113010504/21/05 11:30:31  5-MIN KDBQ 211730Z 08012KT 10SM SCT016 OVC024 11/05  A3002 980 614  700 080/12 RMK AO2
94908KDBQ DBQ20050421113510504/21/05 11:35:31  5-MIN KDBQ 211735Z 08011KT 10SM SCT0114  OVC024 11/06  A3003 980 71 700 080/11 RMK AO2
94908KDBQ DBQ20050421114522804/21/05 11:45:31  5-MIN KDBQ 211745Z 08013KT 10SM  11/11  A 98980 700 0800 012 K AO AO2 /05 1105 11:50:31   KDBQ 21KDBQ 211750Z 09010K 11/1VC026  98906 A3002 980   80 09 090/10 RMK AO2 SLP170 60000 T011100506 0111 2 950 6 55001
94908KDBQ DBQ20050421212511604/21/05 21:25:31  5-MIN KDBQ 220325Z AUTO 09009KT 10SM BKN055 OVC070  13/M01 A2987 1130 39 1200 090/09 RMK AO2 TSNO
94908KDBQ DBQ20050421213011604/21/05 21:30:31  5-MIN KDBQ 220330Z AUTO 09009KT 10SM BKN055 OVC070  12/M01 A2987 1130 41 1100 090/09 RMK AO2 TSNO
94908KDBQ DBQ20050421213511604/21/05 21:35:31  5-MIN KDBQ 220335Z AUTO 09009KT 10SM SCT055 OVC070  12/M01 A2986 1130 41 1100 090/09 RMK AO2 TSNO
94908KDBQ DBQ20050421214012304/21/05 21:40:31  5-MIN KDBQ 220340Z AUTO 09009KT 10SM SCT055 BKN070  OVC085 12/M01 A2986 1130 39 1100 090/09 RMK AO2 TSNO
94908KDBQ DBQ20050421214512304/21/05 21:45:31  5-MIN KDBQ 220345Z AUTO 09008KT 10SM FEW055 BKN070  OVC085 12/M01 A2986 1130 41 1100 080/08 RMK AO2 TSNO
94908KDBQ DBQ20050421215014004/21/05 21:50:31  5-MIN KDBQ 220350Z AUTO 08006KT 10SM SCT050 BKN070  OVC085 12/M01 A2986 1140 41 1100 080/06 RMK AO2 SLP115 T01221006 TSNO
94908KDBQ DBQ20050421215513904/21/05 21:55:31  5-MIN KDBQ 220355Z AUTO 08008KT 10SM SCT050 BKN070  OVC085 12/00 A2985 1140 44 1100 080/08 RMK AO2 SLP113 T01170000 TSNO
94908KDBQ DBQ20050421220012204/21/05 22:00:31  5-MIN KDBQ 220400Z AUTO 07008KT 10SM BKN050 BKN070  OVC085 12/01 A2985 1150 48 1100 070/08 RMK AO2 TSNO
94908KDBQ DBQ20050421220511404/21/05 22:05:31  5-MIN KDBQ 220405Z AUTO 06007KT 10SM BKN050 OVC065 11/01 A2984 1150 50 1000 060/07 RMK AO2 TSNO
94908KDBQ DBQ20050421221011404/21/05 22:10:31  5-MIN KDBQ 220410Z AUTO 07007KT 10SM BKN050 OVC065 11/02 A2984 1150 54 1000 070/07 RMK AO2 TSNO
94908KDBQ DBQ20050421221510704/21/05 22:15:31  5-MIN KDBQ 220415Z AUTO 07008KT 10SM OVC050 11/03 A2984 1150 56 1000 070/08 RMK AO2 TSNO
94908KDBQ DBQ20050421222010604/21/05 22:20:31  5-MIN KDBQ 220420Z AUTO 06007KT 10SM OVC050 11/03 A2984 1160 58 900 060/07 RMK AO2 TSNO
94908KDBQ DBQ20050421222510604/21/05 22:25:31  5-MIN KDBQ 220425Z AUTO 06008KT 10SM OVC050 11/03 A2983 1160 58 900 060/08 RMK AO2 TSNO
94908KDBQ DBQ20050421223010604/21/05 22:30:31  5-MIN KDBQ 220430Z AUTO 06007KT 10SM OVC050 11/02 A2983 1160 56 900 050/07 RMK AO2 TSNO
94908KDBQ DBQ20050421223510604/21/05 22:35:31  5-MIN KDBQ 220435Z AUTO 06008KT 10SM OVC050 11/03 A2983 1160 58 900 060/08 RMK AO2 TSNO
94908KDBQ DBQ20050421224010604/21/05 22:40:31  5-MIN KDBQ 220440Z AUTO 06008KT 10SM OVC050 11/02 A2983 1160 56 900 060/08 RMK AO2 TSNO
94908KDBQ DBQ20050421224511404/21/05 22:45:31  5-MIN KDBQ 220445Z AUTO 05009KT 10SM BKN050 OVC085 11/02 A2983 1170 56 1000 050/09 RMK AO2 TSNO
94908KDBQ DBQ20050421225012404/21/05 22:50:31  5-MIN KDBQ 220450Z AUTO 05009KT 10SM OVC050 11/02 A2983 1170 56 1000 050/09 RMK AO2 SLP103 T01060022 TSNO
94908KDBQ DBQ20050421225512404/21/05 22:55:31  5-MIN KDBQ 220455Z AUTO 06009KT 10SM OVC050 11/02 A2982 1170 54 1000 060/09 RMK AO2 SLP103 T01060017 TSNO
94908KDBQ DBQ20050421230010704/21/05 23:00:31  5-MIN KDBQ 220500Z AUTO 07010KT 10SM OVC050 11/02 A2982 1170 54 1000 060/10 RMK AO2 TSNO
94908KDBQ DBQ20050421230510704/21/05 23:05:31  5-MIN KDBQ 220505Z AUTO 06010KT 10SM OVC050 11/02 A2982 1170 54 1000 060/10 RMK AO2 TSNO
94908KDBQ DBQ20050421231010704/21/05 23:10:31  5-MIN KDBQ 220510Z AUTO 07009KT 10SM OVC050 11/02 A2982 1170 54 1000 070/09 RMK AO2 TSNO
94908KDBQ DBQ20050421231510604/21/05 23:15:31  5-MIN KDBQ 220515Z AUTO 07008KT 10SM OVC050 11/02 A2983 1160 54 900 070/08 RMK AO2 TSNO
94908KDBQ DBQ20050421232010604/21/05 23:20:31  5-MIN KDBQ 220520Z AUTO 07008KT 10SM OVC050 11/02 A2983 1160 54 900 070/08 RMK AO2 TSNO
94908KDBQ DBQ20050421232510604/21/05 23:25:31  5-MIN KDBQ 220525Z AUTO 07008KT 10SM OVC050 11/02 A2983 1160 54 900 070/08 RMK AO2 TSNO
94908KDBQ DBQ20050421233010704/21/05 23:30:31  5-MIN KDBQ 220530Z AUTO 07009KT 10SM OVC050 11/02 A2982 1170 54 1000 070/09 RMK AO2 TSNO
94908KDBQ DBQ20050421233510704/21/05 23:35:31  5-MIN KDBQ 220535Z AUTO 07008KT 10SM OVC050 11/02 A2982 1170 54 1000 070/08 RMK AO2 TSNO
94908KDBQ DBQ20050421234012304/21/05 23:40:31  5-MIN KDBQ 220540Z AUTO 07009KT 10SM -RA OVC050 10/02  A2982 1170 56 900 070/09 RMK AO2 RAB39 P0000 TSNO
94908KDBQ DBQ20050421234512204/21/05 23:45:31  5-MIN KDBQ 220545Z AUTO 07009KT 9SM -RA OVC050 10/03  A2982 1170 60 900 070/09 RMK AO2 RAB39 P0000 TSNO
94908KDBQ DBQ20050421235017504/21/05 23:50:31  5-MIN KDBQ 220550Z AUTO 06008KT 10SM -RA OVC050 09/03  A2982 1170 63 800 060/08 RMK AO2 RAB39 SLP102 P0000 60000 T00940028 10144  20094 401560056 58001 TSNO
94908KDBQ DBQ20050421235517304/21/05 23:55:31  5-MIN KDBQ 220555Z AUTO 06008KT 10SM OVC048 09/03 A2983 1170 63 800 060/08 RMK AO2 RAB39E55 SLP103 P0000 60000 T00940028 10144  20094 401560056 55018 TSNO
94908KDBQ DBQ20050422000011304/22/05 00:00:38  5-MIN KDBQ 220600Z AUTO 07008KT 10SM FEW031 OVC048 09/03 A2983 1170 63 800 060/08 RMK AO2 TSNO
94908KDBQ DBQ20050422000511304/22/05 00:05:31  5-MIN KDBQ 220605Z AUTO 06008KT 10SM SCT029 OVC048 09/03 A2983 1170 63 800 060/08 RMK AO2 TSNO
94908KDBQ DBQ20050422001011304/22/05 00:10:31  5-MIN KDBQ 220610Z AUTO 06007KT 10SM BKN029 OVC048 09/03 A2982 1170 63 800 050/07 RMK AO2 TSNO
94908KDBQ DBQ20050422001511304/22/05 00:15:32  5-MIN KDBQ 220615Z AUTO 06007KT 10SM BKN027 OVC048 09/03 A2982 1170 63 800 050/07 RMK AO2 TSNO
94908KDBQ DBQ20050422002011304/22/05 00:20:31  5-MIN KDBQ 220620Z AUTO 05008KT 10SM BKN027 OVC048 09/03 A2982 1170 63 800 050/08 RMK AO2 TSNO
94908KDBQ DBQ20050422002510604/22/05 00:25:31  5-MIN KDBQ 220625Z AUTO 05009KT 10SM OVC027 09/03 A2981 1180 63 800 050/09 RMK AO2 TSNO
94908KDBQ DBQ20050422003010604/22/05 00:30:31  5-MIN KDBQ 220630Z AUTO 06010KT 10SM OVC027 09/03 A2981 1190 63 800 050/10 RMK AO2 TSNO
94908KDBQ DBQ20050422003511304/22/05 00:35:31  5-MIN KDBQ 220635Z AUTO 06011KT 10SM OVC025 09/03 A2980 1190 63 800 060/11 RMK AO2 PRESFR TSNO
94908KDBQ DBQ20050422004010604/22/05 00:40:31  5-MIN KDBQ 220640Z AUTO 06010KT 10SM OVC025 09/03 A2979 1200 63 900 060/10 RMK AO2 TSNO
94908KDBQ DBQ20050422004510604/22/05 00:45:31  5-MIN KDBQ 220645Z AUTO 05009KT 10SM OVC025 09/03 A2979 1200 63 900 050/09 RMK AO2 TSNO
94908KDBQ DBQ20050422005012304/22/05 00:50:31  5-MIN KDBQ 220650Z AUTO 05009KT 10SM OVC025 09/03 A2979 1200 63 900 050/09 RMK AO2 SLP089 T00940028 TSNO
94908KDBQ DBQ20050422005512304/22/05 00:55:31  5-MIN KDBQ 220655Z AUTO 05008KT 10SM OVC023 09/03 A2979 1200 63 900 050/08 RMK AO2 SLP090 T00940028 TSNO
94908KDBQ DBQ20050422010010604/22/05 01:00:31  5-MIN KDBQ 220700Z AUTO 05007KT 10SM OVC021 09/03 A2979 1200 65 800 050/07 RMK AO2 TSNO
94908KDBQ DBQ20050422010510604/22/05 01:05:31  5-MIN KDBQ 220705Z AUTO 04008KT 10SM OVC021 09/03 A2979 1200 65 800 040/08 RMK AO2 TSNO
94908KDBQ DBQ20050422011012304/22/05 01:10:31  5-MIN KDBQ 220710Z AUTO 05007KT 10SM -RA OVC021 09/03  A2979 1200 68 800 040/07 RMK AO2 RAB07 P0000 TSNO
94908KDBQ DBQ20050422011512204/22/05 01:15:31  5-MIN KDBQ 220715Z AUTO 04007KT 9SM -RA OVC019 08/03  A2979 1200 70 700 040/07 RMK AO2 RAB07 P0000 TSNO
94908KDBQ DBQ20050422012012104/22/05 01:20:31  5-MIN KDBQ 220720Z AUTO 04006KT 6SM RA OVC019 08/04  A2979 1200 73 700 040/06 RMK AO2 RAB07 P0001 TSNO
94908KDBQ DBQ20050422012512104/22/05 01:25:31  5-MIN KDBQ 220725Z AUTO 04005KT 4SM RA OVC019 08/04  A2980 1190 79 700 040/05 RMK AO2 RAB07 P0003 TSNO
94908KDBQ DBQ20050422013012204/22/05 01:30:31  5-MIN KDBQ 220730Z AUTO 04008KT 3SM +RA OVC019 08/04  A2979 1200 79 700 030/08 RMK AO2 RAB07 P0005 TSNO
94908KDBQ DBQ20050422013512404/22/05 01:35:31  5-MIN KDBQ 220735Z AUTO 03008KT 3SM +RA BR OVC021 07/05 A2979 1200 86 600 030/08 RMK AO2 RAB07 P0007 TSNO
94908KDBQ DBQ20050422014012404/22/05 01:40:31  5-MIN KDBQ 220740Z AUTO 03010KT 4SM RA BR OVC021 07/05  A2979 1200 86 600 030/10 RMK AO2 RAB07 P0008 TSNO
94908KDBQ DBQ20050422014512404/22/05 01:45:31  5-MIN KDBQ 220745Z AUTO 03010KT 4SM RA BR OVC023 07/05  A2979 1200 86 600 030/10 RMK AO2 RAB07 P0009 TSNO
94908KDBQ DBQ20050422015014104/22/05 01:50:31  5-MIN KDBQ 220750Z AUTO 03010KT 4SM +RA BR OVC023 07/05 A2979 1200 86 600 030/10 RMK AO2 RAB07 SLP089 P0011 T00720050 TSNO
94908KDBQ DBQ20050422015514104/22/05 01:55:31  5-MIN KDBQ 220755Z AUTO 03010KT 4SM RA BR OVC023 07/05  A2978 1210 86 600 030/10 RMK AO2 RAB07 SLP088 P0013 T00720050 TSNO
94908KDBQ DBQ20050422020011804/22/05 02:00:31  5-MIN KDBQ 220800Z AUTO 03012KT 4SM RA BR OVC025 07/06  A2978 1210 93 500 030/12 RMK AO2 P0002 TSNO
94908KDBQ DBQ20050422020511804/22/05 02:05:31  5-MIN KDBQ 220805Z AUTO 03011KT 4SM RA BR OVC027 07/06  A2978 1210 93 500 030/11 RMK AO2 P0003 TSNO
94908KDBQ DBQ20050422021011804/22/05 02:10:31  5-MIN KDBQ 220810Z AUTO 03011KT 4SM RA BR OVC027 07/06  A2978 1210 93 500 030/11 RMK AO2 P0005 TSNO
94908KDBQ DBQ20050422021511804/22/05 02:15:31  5-MIN KDBQ 220815Z AUTO 04010KT 4SM RA BR OVC026 07/06  A2978 1210 93 500 040/10 RMK AO2 P0006 TSNO
94908KDBQ DBQ20050422022013104/22/05 02:20:31  5-MIN KDBQ 220820Z AUTO 04012KT 4SM RA BR FEW017 BKN024 OVC029 07/06 A2977 1210 93 500 040/12 RMK AO2 P0008 TSNO
94908KDBQ DBQ20050422022513204/22/05 02:25:31  5-MIN KDBQ 220825Z AUTO 04012KT 3SM +RA BR FEW017 BKN024 OVC029 07/06 A2977 1220 93 500 040/12 RMK AO2 P0010 TSNO
94908KDBQ DBQ20050422023013204/22/05 02:30:31  5-MIN KDBQ 220830Z AUTO 04011KT 3SM +RA BR SCT017 BKN024 OVC029 06/06 A2977 1220 96 500 040/11 RMK AO2 P0013 TSNO
94908KDBQ DBQ20050422023512504/22/05 02:35:31  5-MIN KDBQ 220835Z AUTO 04013KT 3SM +RA BR SCT017 OVC024 06/06 A2976 1220 96 500 040/13 RMK AO2 P0016 TSNO
94908KDBQ DBQ20050422024013204/22/05 02:40:31  5-MIN KDBQ 220840Z AUTO 04011KT 3SM +RA BR FEW017 BKN024 OVC043 06/05 A2976 1230 93 500 040/11 RMK AO2 P0019 TSNO
94908KDBQ DBQ20050422024513204/22/05 02:45:31  5-MIN KDBQ 220845Z AUTO 04010KT 3SM +RA BR SCT017 BKN024 OVC043 06/06 A2976 1230 96 500 040/10 RMK AO2 P0021 TSNO
94908KDBQ DBQ20050422025016004/22/05 02:50:31  5-MIN KDBQ 220850Z AUTO 04011KT 3SM RA BR FEW017 BKN024 OVC036 06/05 A2976 1230 93 500 040/11 RMK AO2 SLP078 P0023 60036 T00610050 55018 TSNO
94908KDBQ DBQ20050422025516004/22/05 02:55:31  5-MIN KDBQ 220855Z AUTO 04010KT 3SM RA BR FEW017 BKN024 OVC036 06/05 A2975 1230 93 500 040/10 RMK AO2 SLP079 P0024 60037 T00610050 56024 TSNO
94908KDBQ DBQ20050422030013204/22/05 03:00:31  5-MIN KDBQ 220900Z AUTO 05009KT 4SM -RA BR BKN024 BKN029 OVC043 06/05 A2975 1240 93 500 040/09 RMK AO2 P0001 TSNO
94908KDBQ DBQ20050422030513204/22/05 03:05:31  5-MIN KDBQ 220905Z AUTO 05008KT 4SM -RA BR BKN024 BKN036 OVC043 06/05 A2975 1240 93 500 050/08 RMK AO2 P0001 TSNO
94908KDBQ DBQ20050422031012504/22/05 03:10:31  5-MIN KDBQ 220910Z AUTO 05008KT 4SM -RA BR BKN026 OVC038 06/06 A2975 1240 96 500 050/08 RMK AO2 P0002 TSNO
94908KDBQ DBQ20050422031511804/22/05 03:15:31  5-MIN KDBQ 220915Z AUTO 05008KT 4SM -RA BR OVC026 06/05 A2975 1240 93 500 050/08 RMK AO2 P0002 TSNO
94908KDBQ DBQ20050422032011804/22/05 03:20:31  5-MIN KDBQ 220920Z AUTO 06007KT 4SM -RA BR OVC026 06/05 A2975 1240 93 500 060/07 RMK AO2 P0002 TSNO
94908KDBQ DBQ20050422032511804/22/05 03:25:31  5-MIN KDBQ 220925Z AUTO 06007KT 4SM -RA BR OVC026 06/06 A2975 1240 96 500 060/07 RMK AO2 P0003 TSNO
94908KDBQ DBQ20050422033012504/22/05 03:30:31  5-MIN KDBQ 220930Z AUTO 06007KT 4SM -RA BR FEW016 OVC026 07/06 A2975 1240 93 600 060/07 RMK AO2 P0003 TSNO
94908KDBQ DBQ20050422033512504/22/05 03:35:31  5-MIN KDBQ 220935Z AUTO 05006KT 4SM -RA BR SCT014 OVC026 07/06 A2974 1240 93 600 050/06 RMK AO2 P0004 TSNO
94908KDBQ DBQ20050422034012504/22/05 03:40:31  5-MIN KDBQ 220940Z AUTO 04008KT 4SM -RA BR BKN014 OVC026 07/06 A2974 1240 93 600 040/08 RMK AO2 P0004 TSNO
94908KDBQ DBQ20050422034512504/22/05 03:45:31  5-MIN KDBQ 220945Z AUTO 03007KT 4SM -RA BR BKN014 OVC026 06/06 A2974 1250 96 500 030/07 RMK AO2 P0004 TSNO
94908KDBQ DBQ20050422035014204/22/05 03:50:31  5-MIN KDBQ 220950Z AUTO 04007KT 3SM -RA BR BKN014 OVC026 06/06 A2974 1250 96 500 040/07 RMK AO2 SLP072 P0005 T00610056 TSNO
94908KDBQ DBQ20050422035513504/22/05 03:55:31  5-MIN KDBQ 220955Z AUTO 04007KT 3SM -RA BR OVC014 06/06 A2973 1250 96 500 040/07 RMK AO2 SLP071 P0005 T00610056 TSNO
94908KDBQ DBQ20050422040011804/22/05 04:00:31  5-MIN KDBQ 221000Z AUTO 04008KT 3SM -RA BR OVC012 06/06 A2973 1250 96 500 040/08 RMK AO2 P0000 TSNO
94908KDBQ DBQ20050422040512304/22/05 04:05:31  5-MIN KDBQ 221005Z AUTO 04009KT 2 1/2SM -RA BR OVC012  06/06 A2973 1260 96 500 040/09 RMK AO2 P0001 TSNO
94908KDBQ DBQ20050422041012304/22/05 04:10:31  5-MIN KDBQ 221010Z AUTO 04008KT 2 1/2SM -RA BR OVC012  06/06 A2973 1260 96 500 040/08 RMK AO2 P0001 TSNO
94908KDBQ DBQ20050422041512304/22/05 04:15:31  5-MIN KDBQ 221015Z AUTO 04009KT 2 1/2SM -RA BR OVC012  07/06 A2973 1260 93 600 040/09 RMK AO2 P0001 TSNO
94908KDBQ DBQ20050422042013004/22/05 04:20:31  5-MIN KDBQ 221020Z AUTO 03009KT 2 1/2SM -RA BR BKN012  OVC020 06/06 A2972 1260 96 500 030/09 RMK AO2 P0001 TSNO
94908KDBQ DBQ20050422042513704/22/05 04:25:31  5-MIN KDBQ 221025Z AUTO 03008KT 1 3/4SM -RA BR FEW001  BKN012 OVC020 06/06 A2972 1260 96 500 030/08 RMK AO2 P0001 TSNO
94908KDBQ DBQ20050422043013704/22/05 04:30:31  5-MIN KDBQ 221030Z AUTO 03010KT 1 1/4SM -RA BR SCT001  BKN014 OVC020 06/06 A2972 1260 96 500 030/10 RMK AO2 P0001 TSNO
94908KDBQ DBQ20050422043514904/22/05 04:35:31  5-MIN KDBQ 221035Z AUTO 03010KT 1 1/2SM -RA BR BKN001  BKN014 OVC020 06/06 A2972 1270 96 500 030/10 RMK AO2 CIG 001V006 P0001 TSNO
94908KDBQ DBQ20050422044014204/22/05 04:40:31  5-MIN KDBQ 221040Z AUTO 04010KT 1 1/2SM -RA BR BKN001  OVC014 06/06 A2972 1270 96 500 040/10 RMK AO2 CIG 001V006 P0002 TSNO
94908KDBQ DBQ20050422044514204/22/05 04:45:31  5-MIN KDBQ 221045Z AUTO 04009KT 1 1/4SM -RA BR BKN001  OVC017 06/06 A2971 1270 96 500 040/09 RMK AO2 CIG 001V006 P0002 TSNO
94908KDBQ DBQ20050422045014704/22/05 04:50:31  5-MIN KDBQ 221050Z AUTO 03010KT 1SM -RA BR OVC001 06/06 A2971 1270 96 500 030/10 RMK AO2 CIG 001V006 SLP064 P0002 T00610056 TSNO
94908KDBQ DBQ20050422045514204/22/05 04:55:31  5-MIN KDBQ 221055Z 04010KT 1 1/4SM -RA BR OVC001 06/06  A2971 1270 96 500 040/10 RMK AO2 CIG 001V006 SLP063 P0002 T00610056
94908KDBQ DBQ20050422050012504/22/05 05:00:31  5-MIN KDBQ 221100Z 04009KT 1 1/2SM -RA BR OVC001 06/06  A2971 1270 96 500 040/09 RMK AO2 CIG 001V006 P0000
94908KDBQ DBQ20050422050511304/22/05 05:05:31  5-MIN KDBQ 221105Z 04009KT 1 3/4SM -RA BR OVC001 06/06  A2971 1270 96 500 040/09 RMK AO2 P0000
94908KDBQ DBQ20050422051011304/22/05 05:10:31  5-MIN KDBQ 221110Z 04007KT 1 3/4SM -RA BR OVC001 06/06  A2972 1270 96 500 030/07 RMK AO2 P0000
94908KDBQ DBQ20050422051511404/22/05 05:15:31  5-MIN KDBQ 221115Z 03007KT 1 1/2SM -RA BR OVC001 06/06  A2972 1270 100 500 030/07 RMK AO2 P0001
94908KDBQ DBQ20050422052011304/22/05 05:20:31  5-MIN KDBQ 221120Z 04009KT 1 1/2SM -RA BR OVC001 07/06  A2972 1270 96 600 040/09 RMK AO2 P0001
94908KDBQ DBQ20050422052510804/22/05 05:25:31  5-MIN KDBQ 221125Z 04008KT 1SM -RA BR OVC001 07/06 A2972 1270 96 600 040/08 RMK AO2 P0001
94908KDBQ DBQ20050422053010804/22/05 05:30:31  5-MIN KDBQ 221130Z 05006KT 1SM -RA BR OVC001 07/06 A2972 1270 96 600 050/06 RMK AO2 P0002
94908KDBQ DBQ20050422053510804/22/05 05:35:31  5-MIN KDBQ 221135Z 04008KT 1SM -RA BR OVC001 07/06 A2972 1270 96 600 040/08 RMK AO2 P0003
94908KDBQ DBQ20050422054010804/22/05 05:40:31  5-MIN KDBQ 221140Z 05007KT 1SM -RA BR OVC001 07/06 A2972 1270 96 600 050/07 RMK AO2 P0003
94908KDBQ DBQ20050422054510804/22/05 05:45:31  5-MIN KDBQ 221145Z 06007KT 1SM -RA BR OVC001 07/06 A2972 1270 96 600 060/07 RMK AO2 P0003
94908KDBQ DBQ20050422055015504/22/05 05:50:31  5-MIN KDBQ 221150Z 05006KT 1SM -RA BR OVC001 07/06 A2972 1260 96 600 050/06 RMK AO2 SLP067 P0003 60047 70047 T00670061 10094 20061 56024
94908KDBQ DBQ20050422055516104/22/05 05:55:31  5-MIN KDBQ 221155Z 05006KT 1 1/2SM -RA BR OVC001 07/06  A2972 1260 96 600 050/06 RMK AO2 SLP067 P0003 60047 70047 T00670061 10094  20061 55010
94908KDBQ DBQ20050422060011304/22/05 06:00:31  5-MIN KDBQ 221200Z 05007KT 1 1/2SM -RA BR OVC001 07/06  A2973 1260 96 600 040/07 RMK AO2 P0000
94908KDBQ DBQ20050422060511304/22/05 06:05:31  5-MIN KDBQ 221205Z 04006KT 1 1/2SM -RA BR OVC001 07/06  A2973 1250 96 600 030/06 RMK AO2 P0000
94908KDBQ DBQ20050422061011304/22/05 06:10:31  5-MIN KDBQ 221210Z 04007KT 1 1/2SM -RA BR OVC001 07/06  A2973 1250 96 600 040/07 RMK AO2 P0000
94908KDBQ DBQ20050422061511304/22/05 06:15:31  5-MIN KDBQ 221215Z 06006KT 1 1/2SM -RA BR OVC001 07/06  A2973 1250 96 600 060/06 RMK AO2 P0000
94908KDBQ DBQ20050422062011304/22/05 06:20:31  5-MIN KDBQ 221220Z 06008KT 1 1/2SM -RA BR OVC003 07/06  A2973 1250 96 600 060/08 RMK AO2 P0000
94908KDBQ DBQ20050422062511304/22/05 06:25:31  5-MIN KDBQ 221225Z 04008KT 1 3/4SM -RA BR OVC003 07/06  A2974 1250 93 700 040/08 RMK AO2 P0000
94908KDBQ DBQ20050422063011304/22/05 06:30:31  5-MIN KDBQ 221230Z 05009KT 1 3/4SM -RA BR OVC003 07/06  A2974 1250 93 700 050/09 RMK AO2 P0001
94908KDBQ DBQ20050422063511304/22/05 06:35:31  5-MIN KDBQ 221235Z 04008KT 1 3/4SM -RA BR OVC003 07/06  A2973 1250 93 700 030/08 RMK AO2 P0001
94908KDBQ DBQ20050422064011304/22/05 06:40:31  5-MIN KDBQ 221240Z 04009KT 1 3/4SM -RA BR OVC003 07/06  A2973 1250 93 700 040/09 RMK AO2 P0001
94908KDBQ DBQ20050422064510804/22/05 06:45:31  5-MIN KDBQ 221245Z 04009KT 2SM -RA BR OVC003 07/06 A2973 1250 93 700 040/09 RMK AO2 P0001
94908KDBQ DBQ20050422065012504/22/05 06:50:31  5-MIN KDBQ 221250Z 04009KT 2SM -RA BR OVC003 07/06 A2973 1250 93 700 040/09 RMK AO2 SLP071 P0001 T00720061
94908KDBQ DBQ20050422065513104/22/05 06:55:31  5-MIN KDBQ 221255Z 04009KT 1 1/2SM BR OVC003 07/07 A2973 1250 96 700 040/09 RMK AO2 RAE52 SLP071 P0001 T00720067
94908KDBQ DBQ20050422070010204/22/05 07:00:31  5-MIN KDBQ 221300Z 04008KT 1 1/2SM BR OVC003 07/07 A2973 1250 96 700 040/08 RMK AO2
94908KDBQ DBQ20050422070511904/22/05 07:05:31  5-MIN KDBQ 221305Z 03010KT 1 1/4SM -RA BR OVC003 07/07  A2973 1250 96 700 030/10 RMK AO2 RAB04 P0000
94908KDBQ DBQ20050422071011404/22/05 07:10:31  5-MIN KDBQ 221310Z 03011KT 1SM -RA BR OVC003 07/06 A2973 1250 93 700 030/11 RMK AO2 RAB04 P0000
94908KDBQ DBQ20050422071511904/22/05 07:15:31  5-MIN KDBQ 221315Z 03011KT 1 1/4SM -RA BR OVC003 07/06  A2974 1250 93 700 030/11 RMK AO2 RAB04 P0000
94908KDBQ DBQ20050422072011404/22/05 07:20:31  5-MIN KDBQ 221320Z 03010KT 1SM -RA BR OVC003 07/06 A2974 1250 96 600 030/10 RMK AO2 RAB04 P0000
94908KDBQ DBQ20050422072511904/22/05 07:25:31  5-MIN KDBQ 221325Z 03011KT 1 1/4SM -RA BR OVC001 07/06  A2974 1250 96 600 030/11 RMK AO2 RAB04 P0000
94908KDBQ DBQ20050422073011904/22/05 07:30:31  5-MIN KDBQ 221330Z 02010KT 1 1/4SM -RA BR OVC001 07/06  A2974 1240 96 600 020/10 RMK AO2 RAB04 P0000
94908KDBQ DBQ20050422073511904/22/05 07:35:31  5-MIN KDBQ 221335Z 03010KT 1 1/4SM -RA BR OVC001 07/06  A2974 1240 96 600 030/10 RMK AO2 RAB04 P0000
94908KDBQ DBQ20050422074011904/22/05 07:40:31  5-MIN KDBQ 221340Z 02012KT 1 1/4SM -RA BR OVC001 07/06  A2974 1240 96 600 020/12 RMK AO2 RAB04 P0000
94908KDBQ DBQ20050422074511904/22/05 07:45:31  5-MIN KDBQ 221345Z 02011KT 1 1/2SM -RA BR OVC001 07/06  A2974 1240 96 600 020/11 RMK AO2 RAB04 P0001
94908KDBQ DBQ20050422075013604/22/05 07:50:31  5-MIN KDBQ 221350Z 03012KT 1 1/2SM -RA BR OVC001 07/06  A2974 1240 96 600 030/12 RMK AO2 RAB04 SLP075 P0001 T00670061
94908KDBQ DBQ20050422075513604/22/05 07:55:31  5-MIN KDBQ 221355Z 03008KT 1 1/2SM -RA BR OVC001 07/06  A2975 1240 96 600 030/08 RMK AO2 RAB04 SLP077 P0001 T00670061
94908KDBQ DBQ20050422080011304/22/05 08:00:31  5-MIN KDBQ 221400Z 03008KT 1 1/2SM -RA BR OVC001 07/06  A2975 1240 96 600 030/08 RMK AO2 P0000
94908KDBQ DBQ20050422080511304/22/05 08:05:31  5-MIN KDBQ 221405Z 03012KT 1 1/4SM -RA BR OVC001 07/06  A2975 1240 96 600 030/12 RMK AO2 P0000
94908KDBQ DBQ20050422081011304/22/05 08:10:31  5-MIN KDBQ 221410Z 04011KT 1 1/2SM -RA BR OVC001 07/06  A2975 1240 96 600 040/11 RMK AO2 P0000
94908KDBQ DBQ20050422081511404/22/05 08:15:31  5-MIN KDBQ 221415Z 03012KT 1 3/4SM BR OVC001 07/06 A2975 1240 96 600 030/12 RMK AO2 RAE13 P0000
94908KDBQ DBQ20050422082011404/22/05 08:20:31  5-MIN KDBQ 221420Z 04008KT 1 3/4SM BR OVC001 07/06 A2975 1230 96 600 030/08 RMK AO2 RAE13 P0000
94908KDBQ DBQ20050422082511304/22/05 08:25:31  5-MIN KDBQ 221425Z 04010KT 1 1/2SM -RA BR OVC001 07/06  A2975 1230 96 600 040/10 RMK AO2 P0000
94908KDBQ DBQ20050422083011304/22/05 08:30:31  5-MIN KDBQ 221430Z 04010KT 1 3/4SM -RA BR OVC003 07/06  A2975 1240 96 600 040/10 RMK AO2 P0000
94908KDBQ DBQ20050422083511304/22/05 08:35:31  5-MIN KDBQ 221435Z 04009KT 1 3/4SM -RA BR OVC003 07/06  A2975 1240 96 600 040/09 RMK AO2 P0001
94908KDBQ DBQ20050422084011304/22/05 08:40:31  5-MIN KDBQ 221440Z 03011KT 1 1/2SM -RA BR OVC003 07/06  A2975 1240 96 600 030/11 RMK AO2 P0001
94908KDBQ DBQ20050422084511304/22/05 08:45:31  5-MIN KDBQ 221445Z 03010KT 1 1/2SM -RA BR OVC003 07/06  A2975 1240 96 600 030/10 RMK AO2 P0001
94908KDBQ DBQ20050422085014204/22/05 08:50:31  5-MIN KDBQ 221450Z 03010KT 1 1/2SM -RA BR OVC003 07/06  A2975 1240 96 600 030/10 RMK AO2 SLP077 P0001 60003 T00670061 55010
94908KDBQ DBQ20050422085514204/22/05 08:55:31  5-MIN KDBQ 221455Z 03012KT 1 1/2SM -RA BR OVC003 07/06  A2975 1240 96 600 030/12 RMK AO2 SLP078 P0001 60003 T00670061 51009
94908KDBQ DBQ20050422090011304/22/05 09:00:31  5-MIN KDBQ 221500Z 04010KT 1 3/4SM -RA BR OVC003 07/06  A2975 1230 96 600 040/10 RMK AO2 P0000
94908KDBQ DBQ20050422090512004/22/05 09:05:31  5-MIN KDBQ 221505Z 04011KT 2SM -RA BR OVC003 07/06 A2976 1230 96 600 030/11 RMK AO2 CIG 001V005 P0000
94908KDBQ DBQ20050422091012604/22/05 09:10:31  5-MIN KDBQ 221510Z 05011KT 2 1/2SM BR OVC003 07/06 A2975 1230 96 600 050/11 RMK AO2 RAE06 CIG 001V005 P0000
94908KDBQ DBQ20050422091512604/22/05 09:15:31  5-MIN KDBQ 221515Z 07011KT 2 1/2SM BR OVC003 07/06 A2975 1230 93 600 070/11 RMK AO2 RAE06 CIG 001V005 P0000
94908KDBQ DBQ20050422092012304/22/05 09:20:31  5-MIN KDBQ 221520Z 07010KT 3SM BR OVC003 07/06 A2975  1240 93 600 070/10 RMK AO2 RAE06 CIG 001V006 P0001
94908KDBQ DBQ20050422092513704/22/05 09:25:31  5-MIN KDBQ 221525Z 07011KT 4SM BR BKN003 BKN008 OVC055  07/06 A2974 1240 93 600 060/11 RMK AO2 RAE06 CIG 002V006 P0001
94908KDBQ DBQ20050422093012504/22/05 09:30:31  5-MIN KDBQ 221530Z 07012KT 4SM BR BKN003 BKN008 OVC060  08/06 A2974 1250 89 700 070/12 RMK AO2 RAE06 P0001
94908KDBQ DBQ20050422093511804/22/05 09:35:31  5-MIN KDBQ 221535Z 06010KT 5SM BR SCT005 BKN060 08/07  A2974 1250 93 700 060/10 RMK AO2 RAE06 P0001
94908KDBQ DBQ20050422094011804/22/05 09:40:31  5-MIN KDBQ 221540Z 07010KT 5SM BR SCT005 BKN060 08/06  A2974 1250 89 700 070/10 RMK AO2 RAE06 P0001
94908KDBQ DBQ20050422094511804/22/05 09:45:31  5-MIN KDBQ 221545Z 05009KT 5SM BR FEW005 BKN060 08/07  A2974 1240 89 800 040/09 RMK AO2 RAE06 P0001
94908KDBQ DBQ20050422095014204/22/05 09:50:31  5-MIN KDBQ 221550Z 04010KT 5SM BR FEW007 BKN060 BKN075  08/07 A2974 1240 89 800 040/10 RMK AO2 RAE06 SLP075 P0001 T00830067
94908KDBQ DBQ20050422095513504/22/05 09:55:31  5-MIN KDBQ 221555Z 04011KT 6SM BR FEW009 BKN065 08/07  A2975 1240 89 800 040/11 RMK AO2 RAE06 SLP076 P0001 T00830067
94908KDBQ DBQ20050422100010604/22/05 10:00:31  5-MIN KDBQ 221600Z 03012KT 6SM BR FEW009 BKN065 08/07  A2975 1240 89 800 030/12 RMK AO2
94908KDBQ DBQ20050422100510604/22/05 10:05:31  5-MIN KDBQ 221605Z 02012KT 5SM BR SCT007 BKN065 08/07  A2975 1240 89 800 020/12 RMK AO2
94908KDBQ DBQ20050422101011304/22/05 10:10:31  5-MIN KDBQ 221610Z 02011KT 5SM BR BKN007 BKN012 BKN065  08/07 A2975 1240 89 800 020/11 RMK AO2
94908KDBQ DBQ20050422101511304/22/05 10:15:31  5-MIN KDBQ 221615Z 02008KT 4SM BR BKN007 BKN012 BKN070  08/07 A2975 1230 89 800 020/08 RMK AO2
94908KDBQ DBQ20050422102011304/22/05 10:20:31  5-MIN KDBQ 221620Z 02011KT 4SM BR BKN007 BKN012 BKN065  08/07 A2975 1230 89 800 020/11 RMK AO2
94908KDBQ DBQ20050422102511804/22/05 10:25:31  5-MIN KDBQ 221625Z 01010KT 4SM BR BKN007 BKN012 08/07  A2976 1230 89 800 010/10 RMK AO2 CIG 005V009
94908KDBQ DBQ20050422103011104/22/05 10:30:31  5-MIN KDBQ 221630Z 01009KT 4SM BR OVC007 08/07 A2976  1230 89 800 010/09 RMK AO2 CIG 005V010
94908KDBQ DBQ20050422103511804/22/05 10:35:31  5-MIN KDBQ 221635Z 02010KT 4SM BR BKN007 OVC014 08/07  A2976 1230 89 800 020/10 RMK AO2 CIG 005V010
94908KDBQ DBQ20050422104011804/22/05 10:40:31  5-MIN KDBQ 221640Z 02009KT 4SM BR BKN007 OVC014 08/07  A2976 1230 89 800 020/09 RMK AO2 CIG 004V010
94908KDBQ DBQ20050422104511804/22/05 10:45:31  5-MIN KDBQ 221645Z 03009KT 3SM BR BKN007 OVC015 08/07  A2975 1230 93 700 030/09 RMK AO2 CIG 004V010
94908KDBQ DBQ20050422105013504/22/05 10:50:31  5-MIN KDBQ 221650Z 03011KT 4SM BR BKN007 OVC015 08/06  A2976 1230 89 700 030/11 RMK AO2 CIG 004V010 SLP080 T00780061
94908KDBQ DBQ20050422105513504/22/05 10:55:31  5-MIN KDBQ 221655Z 01011KT 4SM BR BKN007 OVC015 08/07  A2976 1230 89 800 010/11 RMK AO2 CIG 004V010 SLP081 T00830067
94908KDBQ DBQ20050422110011804/22/05 11:00:31  5-MIN KDBQ 221700Z 01010KT 4SM BR BKN007 OVC015 08/07  A2976 1230 93 700 010/10 RMK AO2 CIG 004V011
94908KDBQ DBQ20050422110511804/22/05 11:05:31  5-MIN KDBQ 221705Z 02010KT 4SM BR BKN007 OVC012 08/06  A2976 1230 89 700 020/10 RMK AO2 CIG 004V009
94908KDBQ DBQ20050422111011804/22/05 11:10:31  5-MIN KDBQ 221710Z 36008KT 4SM BR BKN007 OVC014 08/06  A2976 1230 89 700 360/08 RMK AO2 CIG 005V009
94908KDBQ DBQ20050422111511804/22/05 11:15:31  5-MIN KDBQ 221715Z 01008KT 5SM BR BKN007 OVC014 08/06  A2976 1220 89 700 010/08 RMK AO2 CIG 005V009
94908KDBQ DBQ20050422112011804/22/05 11:20:31  5-MIN KDBQ 221720Z 01008KT 5SM BR BKN007 OVC011 08/07  A2977 1220 93 700 010/08 RMK AO2 CIG 005V009
94908KDBQ DBQ20050422112511804/22/05 11:25:31  5-MIN KDBQ 221725Z 36008KT 5SM BR BKN007 OVC012 08/06  A2977 1220 89 700 360/08 RMK AO2 CIG 005V010
94908KDBQ DBQ20050422113009904/22/05 11:30:31  5-MIN KDBQ 221730Z 01008KT 5SM BR BKN007 08/07 A2977  1220 93 700 360/08 RMK AO2
94908KDBQ DBQ20050422113509904/22/05 11:35:31  5-MIN KDBQ 221735Z 01008KT 5SM BR OVC009 08/06 A2977  1220 89 700 360/08 RMK AO2
94908KDBQ DBQ20050422114009904/22/05 11:40:31  5-MIN KDBQ 221740Z 01009KT 6SM BR OVC009 08/06 A2977  1220 89 700 010/09 RMK AO2
94908KDBQ DBQ20050422114512504/22/05 11:45:31  5-MIN KDBQ 221745Z 01008KT 6SM BR BKN009 BKN014 OVC028  08/06 A2977 1220 86 700 010/08 RMK AO2 CIG 006V012
94908KDBQ DBQ20050422115015504/22/05 11:50:31  5-MIN KDBQ 221750Z 02008KT 6SM BR FEW007 BKN011 OVC028  08/07 A2977 1220 89 700 020/08 RMK AO2 SLP085 60004 T00830067 10083 20067  51009
94908KDBQ DBQ20050422115514304/22/05 11:55:31  5-MIN KDBQ 221755Z 03008KT 7SM BKN011 OVC028 09/07 A2977 1220 86 800 030/08 RMK AO2 SLP085 60004 T00890067 10089 20067 53007
94908KDBQ DBQ20050422120010204/22/05 12:00:31  5-MIN KDBQ 221800Z 02008KT 7SM BKN011 BKN028 09/07 A2977 1210 86 800 020/08 RMK AO2
94908KDBQ DBQ20050422120510204/22/05 12:05:31  5-MIN KDBQ 221805Z 03008KT 7SM BKN011 BKN028 09/06 A2977 1210 83 800 030/08 RMK AO2
94908KDBQ DBQ20050422121010204/22/05 12:10:31  5-MIN KDBQ 221810Z 02010KT 7SM BKN011 BKN017 09/07 A2978 1210 86 800 020/10 RMK AO2
94908KDBQ DBQ20050422121510204/22/05 12:15:31  5-MIN KDBQ 221815Z 03008KT 7SM BKN011 BKN016 09/06 A2978 1210 83 800 030/08 RMK AO2
94908KDBQ DBQ20050422122010204/22/05 12:20:31  5-MIN KDBQ 221820Z 03007KT 7SM BKN011 BKN016 09/06 A2978 1210 83 800 030/07 RMK AO2
94908KDBQ DBQ20050422122510204/22/05 12:25:31  5-MIN KDBQ 221825Z 02009KT 7SM BKN011 BKN016 09/06 A2978 1210 83 800 020/09 RMK AO2
94908KDBQ DBQ20050422123010204/22/05 12:30:31  5-MIN KDBQ 221830Z 03008KT 7SM BKN011 BKN016 09/06 A2978 1210 79 900 030/08 RMK AO2
94908KDBQ DBQ20050422123510204/22/05 12:35:31  5-MIN KDBQ 221835Z 01008KT 7SM BKN011 BKN016 09/06 A2978 1210 83 800 010/08 RMK AO2
94908KDBQ DBQ20050422124010204/22/05 12:40:31  5-MIN KDBQ 221840Z 36008KT 7SM BKN016 OVC020 09/06 A2978 1210 83 800 360/08 RMK AO2
94908KDBQ DBQ20050422124509604/22/05 12:45:31  5-MIN KDBQ 221845Z 02008KT 7SM OVC016 09/06 A2978 1210  83 800 010/08 RMK AO2
94908KDBQ DBQ20050422125011304/22/05 12:50:31  5-MIN KDBQ 221850Z 01007KT 7SM OVC016 09/06 A2978 1200  83 800 010/07 RMK AO2 SLP089 T00890061
94908KDBQ DBQ20050422125511304/22/05 12:55:31  5-MIN KDBQ 221855Z 36006KT 7SM OVC016 09/06 A2979 1200  83 800 360/06 RMK AO2 SLP090 T00890061
94908KDBQ DBQ20050422130012104/22/05 13:00:31  5-MIN KDBQ 221900Z 35007KT 7SM -RA BKN016 OVC020 09/06  A2979 1200 83 800 350/07 RMK AO2 RAB1858 P0000
94908KDBQ DBQ20050422130511404/22/05 13:05:31  5-MIN KDBQ 221905Z 35007KT 7SM -RA OVC014 09/06 A2979  1200 83 800 350/07 RMK AO2 RAB1858 P0000
94908KDBQ DBQ20050422131011404/22/05 13:10:31  5-MIN KDBQ 221910Z 35008KT 7SM -RA OVC016 09/06 A2980  1190 83 800 350/08 RMK AO2 RAB1858 P0000
94908KDBQ DBQ20050422131511404/22/05 13:15:31  5-MIN KDBQ 221915Z 34008KT 7SM -RA OVC016 09/07 A2980  1190 86 800 340/08 RMK AO2 RAB1858 P0000
94908KDBQ DBQ20050422132011304/22/05 13:20:31  5-MIN KDBQ 221920Z 35009KT 7SM OVC016 09/07 A2980 1190  86 800 340/09 RMK AO2 RAB1858E18 P0000
94908KDBQ DBQ20050422132512404/22/05 13:25:31  5-MIN KDBQ 221925Z 35009KT 6SM -RA BR BKN016 OVC022  09/07 A2981 1180 86 800 350/09 RMK AO2 RAB1858 P0000
94908KDBQ DBQ20050422133012104/22/05 13:30:31  5-MIN KDBQ 221930Z 35009KT 7SM -RA BKN016 OVC025 09/07  A2981 1180 86 800 350/09 RMK AO2 RAB1858 P0000
94908KDBQ DBQ20050422133512704/22/05 13:35:31  5-MIN KDBQ 221935Z 34009KT 8SM -RA BKN018 BKN025 OVC032 09/06 A2981 1180 83 800 340/09 RMK AO2 RAB1858 P0000
94908KDBQ DBQ20050422134012704/22/05 13:40:31  5-MIN KDBQ 221940Z 36008KT 8SM SCT016 BKN025 OVC032  09/06 A2981 1180 83 800 360/08 RMK AO2 RAB1858E36 P0000
94908KDBQ DBQ20050422134512704/22/05 13:45:31  5-MIN KDBQ 221945Z 01009KT 7SM SCT018 BKN025 OVC031  09/06 A2981 1180 83 800 010/09 RMK AO2 RAB1858E36 P0000
94908KDBQ DBQ20050422135014404/22/05 13:50:31  5-MIN KDBQ 221950Z 36008KT 7SM FEW018 BKN025 BKN031  09/06 A2981 1180 83 800 360/08 RMK AO2 RAB1858E36 SLP099 P0000 T00890061
94908KDBQ DBQ20050422135515004/22/05 13:55:31  5-MIN KDBQ 221955Z 35009KT 7SM -RA FEW020 BKN033 OVC041 09/06 A2981 1180 83 800 350/09 RMK AO2 RAB1858E36B55 SLP100 P0000 T00890061
94908KDBQ DBQ20050422140011904/22/05 14:00:31  5-MIN KDBQ 222000Z 35008KT 6SM -RA FEW015 SCT025 OVC036 09/06 A2981 1180 83 800 350/08 RMK AO2 P0000
94908KDBQ DBQ20050422140511904/22/05 14:05:31  5-MIN KDBQ 222005Z 36006KT 6SM -RA FEW015 SCT029 OVC036 09/06 A2981 1180 83 800 350/06 RMK AO2 P0000
94908KDBQ DBQ20050422141011304/22/05 14:10:31  5-MIN KDBQ 222010Z 36006KT 5SM -RA FEW022 OVC036 09/06  A2981 1180 83 800 360/06 RMK AO2 P0000
94908KDBQ DBQ20050422141510604/22/05 14:15:31  5-MIN KDBQ 222015Z 34006KT 6SM -RA BKN036 09/06 A2981  1180 79 800 340/06 RMK AO2 P0000
94908KDBQ DBQ20050422142010604/22/05 14:20:31  5-MIN KDBQ 222020Z 36005KT 8SM -RA BKN036 09/06 A2980  1190 79 800 360/05 RMK AO2 P0000
94908KDBQ DBQ20050422142510804/22/05 14:25:31  5-MIN KDBQ 222025Z 35004KT 8SM BKN034 09/06 A2981 1180  79 800 350/04 RMK AO2 RAE22 P0000
94908KDBQ DBQ20050422143010804/22/05 14:30:31  5-MIN KDBQ 222030Z 01003KT 7SM SCT034 09/07 A2981 1180  83 800 010/03 RMK AO2 RAE22 P0000
94908KDBQ DBQ20050422143511404/22/05 14:35:31  5-MIN KDBQ 222035Z 02004KT 7SM FEW025 BKN034 09/06 A2980 1190 79 800 020/04 RMK AO2 RAE22 P0000
94908KDBQ DBQ20050422144012204/22/05 14:40:31  5-MIN KDBQ 222040Z 02005KT 7SM -RA SCT028 BKN036 09/06  A2980 1190 79 800 010/05 RMK AO2 RAE22B38 P0000
94908KDBQ DBQ20050422144512204/22/05 14:45:31  5-MIN KDBQ 222045Z 35004KT 7SM -RA SCT026 SCT034 09/07  A2981 1180 83 800 350/04 RMK AO2 RAE22B38 P0000
94908KDBQ DBQ20050422145014304/22/05 14:50:31  5-MIN KDBQ 222050Z 33006KT 8SM FEW026 09/07 A2981 1180  83 800 330/06 RMK AO2 RAE22B38E48 SLP099 P0000 60000 T00940067 53007
94908KDBQ DBQ20050422145514304/22/05 14:55:31  5-MIN KDBQ 222055Z 30007KT 8SM FEW026 09/07 A2981 1180  83 800 300/07 RMK AO2 RAE22B38E48 SLP100 P0000 60000 T00940067 50012
94908KDBQ DBQ20050422150010204/22/05 15:00:31  5-MIN KDBQ 222100Z 31006KT 8SM FEW026 SCT055 09/06 A2981 1180 79 800 310/06 RMK AO2
94908KDBQ DBQ20050422150509604/22/05 15:05:31  5-MIN KDBQ 222105Z 32007KT 8SM FEW020 09/06 A2981 1180  79 800 320/07 RMK AO2
94908KDBQ DBQ20050422151009604/22/05 15:10:31  5-MIN KDBQ 222110Z 31004KT 8SM FEW055 09/06 A2981 1180  79 800 310/04 RMK AO2
94908KDBQ DBQ20050422151509604/22/05 15:15:31  5-MIN KDBQ 222115Z 32005KT 9SM FEW055 10/06 A2980 1190  77 900 320/05 RMK AO2
94908KDBQ DBQ20050422152009604/22/05 15:20:31  5-MIN KDBQ 222120Z 33004KT 10SM FEW055 10/06 A2980 1190 74 900 330/04 RMK AO2
94908KDBQ DBQ20050422152509304/22/05 15:25:31  5-MIN KDBQ 222125Z 00000KT 10SM CLR 10/06 A2980 1190 74 900 000/00 RMK AO2
94908KDBQ DBQ20050422153009304/22/05 15:30:31  5-MIN KDBQ 222130Z 00000KT 10SM CLR 10/06 A2980 1190 74 900 000/00 RMK AO2
94908KDBQ DBQ20050422153509404/22/05 15:35:31  5-MIN KDBQ 222135Z 35003KT 10SM CLR 11/06 A2980 1190 71 1000 350/03 RMK AO2
94908KDBQ DBQ20050422154009404/22/05 15:40:31  5-MIN KDBQ 222140Z 36005KT 10SM CLR 11/06 A2980 1190 71 1000 360/05 RMK AO2
94908KDBQ DBQ20050422154509404/22/05 15:45:31  5-MIN KDBQ 222145Z 36004KT 10SM CLR 11/06 A2980 1190 68 1100 360/04 RMK AO2
94908KDBQ DBQ20050422155011104/22/05 15:50:31  5-MIN KDBQ 222150Z 01003KT 10SM CLR 11/06 A2979 1200 68 1100 010/03 RMK AO2 SLP093 T01110056
94908KDBQ DBQ20050422155511104/22/05 15:55:31  5-MIN KDBQ 222155Z VRB03KT 10SM CLR 11/05 A2979 1200 66 1100 VRB/03 RMK AO2 SLP092 T01110050
94908KDBQ DBQ20050422160009404/22/05 16:00:31  5-MIN KDBQ 222200Z 03006KT 10SM CLR 11/05 A2979 1200 66 1100 030/06 RMK AO2
94908KDBQ DBQ20050422160509404/22/05 16:05:31  5-MIN KDBQ 222205Z 02004KT 10SM CLR 11/05 A2979 1200 66 1100 020/04 RMK AO2
94908KDBQ DBQ20050422161009404/22/05 16:10:31  5-MIN KDBQ 222210Z 03004KT 10SM CLR 11/05 A2979 1200 66 1100 030/04 RMK AO2
94908KDBQ DBQ20050422161509404/22/05 16:15:31  5-MIN KDBQ 222215Z 02004KT 10SM CLR 11/05 A2979 1200 66 1100 020/04 RMK AO2
94908KDBQ DBQ20050422162009404/22/05 16:20:31  5-MIN KDBQ 222220Z 02005KT 10SM CLR 12/05 A2979 1200 63 1100 020/05 RMK AO2
94908KDBQ DBQ20050422162509404/22/05 16:25:31  5-MIN KDBQ 222225Z 04005KT 10SM CLR 12/05 A2979 1200 63 1100 040/05 RMK AO2
94908KDBQ DBQ20050422163009404/22/05 16:30:31  5-MIN KDBQ 222230Z 02005KT 10SM CLR 12/04 A2980 1190 61 1100 020/05 RMK AO2
94908KDBQ DBQ20050422163509404/22/05 16:35:31  5-MIN KDBQ 222235Z 03006KT 10SM CLR 11/04 A2979 1190 61 1100 030/06 RMK AO2
94908KDBQ DBQ20050422164009404/22/05 16:40:31  5-MIN KDBQ 222240Z 03005KT 10SM CLR 11/05 A2980 1190 66 1100 020/05 RMK AO2
94908KDBQ DBQ20050422164509404/22/05 16:45:31  5-MIN KDBQ 222245Z 02004KT 10SM CLR 12/05 A2980 1190 63 1100 020/04 RMK AO2
94908KDBQ DBQ20050422165011104/22/05 16:50:31  5-MIN KDBQ 222250Z 04004KT 10SM CLR 12/05 A2979 1200 63 1100 040/04 RMK AO2 SLP094 T01170050
94908KDBQ DBQ20050422165511104/22/05 16:55:31  5-MIN KDBQ 222255Z 03004KT 10SM CLR 12/05 A2980 1190 61 1200 030/04 RMK AO2 SLP093 T01220050
94908KDBQ DBQ20050422170009404/22/05 17:00:31  5-MIN KDBQ 222300Z 04006KT 10SM CLR 12/05 A2980 1190 61 1200 040/06 RMK AO2
94908KDBQ DBQ20050422170509704/22/05 17:05:31  5-MIN KDBQ 222305Z 02006KT 10SM FEW110 12/04 A2980 1190 61 1100 020/06 RMK AO2
94908KDBQ DBQ20050422171009704/22/05 17:10:31  5-MIN KDBQ 222310Z 02007KT 10SM SCT110 12/04 A2980 1190 58 1100 020/07 RMK AO2
94908KDBQ DBQ20050422171509704/22/05 17:15:31  5-MIN KDBQ 222315Z 02007KT 10SM BKN110 11/04 A2980 1190 63 1000 010/07 RMK AO2
94908KDBQ DBQ20050422172009704/22/05 17:20:31  5-MIN KDBQ 222320Z 03006KT 10SM BKN110 11/04 A2980 1190 66 1000 030/06 RMK AO2
94908KDBQ DBQ20050422172509704/22/05 17:25:31  5-MIN KDBQ 222325Z 01007KT 10SM SCT110 11/04 A2980 1190 66 1000 010/07 RMK AO2
94908KDBQ DBQ20050422173009704/22/05 17:30:31  5-MIN KDBQ 222330Z 01006KT 10SM BKN110 11/04 A2981 1180 66 1000 010/06 RMK AO2
94908KDBQ DBQ20050422173509604/22/05 17:35:31  5-MIN KDBQ 222335Z 02005KT 10SM BKN110 10/04 A2981 1180 68 900 020/05 RMK AO2
94908KDBQ DBQ20050422174009604/22/05 17:40:31  5-MIN KDBQ 222340Z 02005KT 10SM BKN110 10/04 A2980 1190 68 900 010/05 RMK AO2
94908KDBQ DBQ20050422174509604/22/05 17:45:31  5-MIN KDBQ 222345Z 01004KT 10SM BKN100 09/04 A2981 1190 71 800 010/04 RMK AO2
94908KDBQ DBQ20050422175013704/22/05 17:50:31  5-MIN KDBQ 222350Z 01004KT 10SM BKN100 09/04 A2981 1180 71 800 010/04 RMK AO2 SLP098 60000 T00940044 10122 20089 50012
94908KDBQ DBQ20050422175513704/22/05 17:55:31  5-MIN KDBQ 222355Z 36004KT 10SM BKN100 09/04 A2981 1180 71 800 360/04 RMK AO2 SLP098 60000 T00940044 10122 20089 55001
94908KDBQ DBQ20050422180009604/22/05 18:00:31  5-MIN KDBQ 230000Z 35006KT 10SM BKN100 09/04 A2981 1180 73 800 350/06 RMK AO2
94908KDBQ DBQ20050422180509604/22/05 18:05:31  5-MIN KDBQ 230005Z 34007KT 10SM OVC100 09/05 A2981 1180 74 800 340/07 RMK AO2
94908KDBQ DBQ20050422181010404/22/05 18:10:31  5-MIN KDBQ 230010Z 34009KT 10SM FEW047 BKN100 10/05  A2981 1180 71 900 340/09 RMK AO2
94908KDBQ DBQ20050422181511104/22/05 18:15:31  5-MIN KDBQ 230015Z 35009KT 10SM SCT045 SCT090 BKN100  10/05 A2982 1170 71 900 350/09 RMK AO2
94908KDBQ DBQ20050422182011004/22/05 18:20:31  5-MIN KDBQ 230020Z 35015G19KT 10SM BKN045 BKN100 10/05  A2982 1170 71 900 340/15G19 RMK AO2
94908KDBQ DBQ20050422182511604/22/05 18:25:31  5-MIN KDBQ 230025Z 36013G19KT 10SM FEW043 BKN050 OVC100 10/05 A2982 1170 71 900 360/13G19 RMK AO2
94908KDBQ DBQ20050422183011004/22/05 18:30:31  5-MIN KDBQ 230030Z 01013G21KT 10SM BKN048 OVC095 10/04  A2982 1170 68 900 010/13G21 RMK AO2
94908KDBQ DBQ20050422183511604/22/05 18:35:31  5-MIN KDBQ 230035Z 36010G21KT 10SM SCT046 BKN075 OVC090 10/04 A2982 1170 68 900 360/10G21 RMK AO2
94908KDBQ DBQ20050422184011604/22/05 18:40:31  5-MIN KDBQ 230040Z 01012G18KT 10SM FEW043 BKN060 OVC090 10/04 A2982 1170 68 900 010/12G18 RMK AO2
94908KDBQ DBQ20050422184513304/22/05 18:45:31  5-MIN KDBQ 230045Z 36010G18KT 10SM -RA BKN049 BKN060  OVC090 10/04 A2983 1170 68 900 360/10G18 RMK AO2 RAB45 P0000
94908KDBQ DBQ20050422185015404/22/05 18:50:31  5-MIN KDBQ 230050Z AUTO 01009KT 10SM -RA SCT045 BKN055  OVC090 09/05 A2983 1160 74 800 010/09 RMK AO2 RAB45 SLP105 P0000 T00940050 TSNO
94908KDBQ DBQ20050422185515404/22/05 18:55:31  5-MIN KDBQ 230055Z AUTO 01009KT 10SM -RA SCT045 BKN055  OVC090 09/05 A2983 1160 74 800 010/09 RMK AO2 RAB45 SLP107 P0000 T00940050 TSNO
94908KDBQ DBQ20050422190013104/22/05 19:00:31  5-MIN KDBQ 230100Z AUTO 36007KT 10SM -RA BKN045 BKN055  OVC070 09/06 A2983 1160 76 800 360/07 RMK AO2 P0000 TSNO
94908KDBQ DBQ20050422190513304/22/05 19:05:31  5-MIN KDBQ 230105Z AUTO 01011KT 10SM FEW034 BKN043  OVC055 09/05 A2984 1150 74 800 010/11 RMK AO2 RAE01 P0000 TSNO
94908KDBQ DBQ20050422191013204/22/05 19:10:31  5-MIN KDBQ 230110Z AUTO 01012G16KT 10SM FEW034 OVC043  09/05 A2984 1150 74 800 010/12G16 RMK AO2 RAE01 P0000 TSNO
94908KDBQ DBQ20050422191512504/22/05 19:15:31  5-MIN KDBQ 230115Z AUTO 01015G21KT 10SM OVC043 09/05  A2984 1150 74 800 010/15G21 RMK AO2 RAE01 P0000 TSNO
94908KDBQ DBQ20050422192013104/22/05 19:20:31  5-MIN KDBQ 230120Z AUTO 01019G24KT 10SM -RA OVC045 09/05 A2985 1150 74 800 010/19G24 RMK AO2 RAE01B20 P0000 TSNO
94908KDBQ DBQ20050422192513904/22/05 19:25:31  5-MIN KDBQ 230125Z AUTO 01015G24KT 10SM -RA BKN042  OVC049 09/05 A2985 1140 76 700 010/15G24 RMK AO2 RAE01B20 P0000 TSNO
94908KDBQ DBQ20050422193013304/22/05 19:30:31  5-MIN KDBQ 230130Z AUTO 36014KT 10SM -RA BKN042 OVC049  08/05 A2986 1140 79 600 360/14 RMK AO2 RAE01B20 P0000 TSNO
94908KDBQ DBQ20050422193513904/22/05 19:35:31  5-MIN KDBQ 230135Z AUTO 01017G22KT 10SM -RA BKN042  OVC049 08/05 A2986 1130 79 600 010/17G22 RMK AO2 RAE01B20 P0000 TSNO
94908KDBQ DBQ20050422194013604/22/05 19:40:31  5-MIN KDBQ 230140Z AUTO 01012G22KT 8SM RA SCT036 OVC049 08/05 A2986 1130 82 600 010/12G22 RMK AO2 RAE01B20 P0000 TSNO
94908KDBQ DBQ20050422194513204/22/05 19:45:31  5-MIN KDBQ 230145Z AUTO 01012KT 8SM -RA BKN038 OVC049  08/05 A2987 1130 82 600 360/12 RMK AO2 RAE01B20 P0001 TSNO
94908KDBQ DBQ20050422195015004/22/05 19:50:31  5-MIN KDBQ 230150Z AUTO 36013KT 10SM -RA BKN038 OVC049  08/05 A2987 1130 82 600 360/13 RMK AO2 RAE01B20 SLP120 P0001 T00780050 TSNO
94908KDBQ DBQ20050422195514804/22/05 19:55:31  5-MIN KDBQ 230155Z AUTO 36011KT 10SM BKN038 OVC049 08/05 A2987 1120 82 600 360/11 RMK AO2 RAE01B20E52 SLP121 P0001 T00780050 TSNO
94908KDBQ DBQ20050422200011304/22/05 20:00:31  5-MIN KDBQ 230200Z AUTO 01015G20KT 10SM OVC038 08/05  A2987 1120 82 600 010/15G20 RMK AO2 TSNO
94908KDBQ DBQ20050422201512004/22/05 20:15:31  5-MIN KDBQ 230215Z AUTO 01015G22KT 10SM FEW018 OVC036  08/05 A2988 1120 82 600 010/15G22 RMK AO2 TSNO
94908KDBQ DBQ20050422202012704/22/05 20:20:31  5-MIN KDBQ 230220Z AUTO 01015G23KT 10SM FEW020 BKN028  OVC036 08/05 A2988 1110 82 600 010/15G23 RMK AO2 TSNO
94908KDBQ DBQ20050422202512704/22/05 20:25:31  5-MIN KDBQ 230225Z AUTO 01016G23KT 10SM SCT020 BKN028  OVC036 08/05 A2988 1110 82 500 010/16G23 RMK AO2 TSNO
94908KDBQ DBQ20050422203012704/22/05 20:30:31  5-MIN KDBQ 230230Z AUTO 01018G23KT 10SM BKN020 BKN028  OVC036 08/04 A2989 1110 79 500 010/18G23 RMK AO2 TSNO
94908KDBQ DBQ20050422203512004/22/05 20:35:31  5-MIN KDBQ 230235Z AUTO 36017G24KT 10SM BKN020 OVC028  08/04 A2989 1100 76 500 360/17G24 RMK AO2 TSNO
94908KDBQ DBQ20050422204012004/22/05 20:40:31  5-MIN KDBQ 230240Z AUTO 01015G24KT 10SM BKN020 OVC028  07/03 A2990 1100 76 500 010/15G24 RMK AO2 TSNO
94908KDBQ DBQ20050422204511304/22/05 20:45:31  5-MIN KDBQ 230245Z AUTO 01019G24KT 10SM OVC022 07/03  A2990 1100 76 500 010/19G24 RMK AO2 TSNO
94908KDBQ DBQ20050422205014204/22/05 20:50:31  5-MIN KDBQ 230250Z AUTO 36016G24KT 10SM OVC022 07/03  A2990 1100 73 500 360/16G24 RMK AO2 SLP131 60001 T00720028 55001 TSNO
94908KDBQ DBQ20050422205513504/22/05 20:55:31  5-MIN KDBQ 230255Z AUTO 36014KT 10SM OVC024 07/02 A2990 1090 73 400 360/14 RMK AO2 SLP133 60001 T00670022 53031 TSNO
94908KDBQ DBQ20050422210013104/22/05 21:00:31  5-MIN KDBQ 230300Z AUTO 01018G27KT 10SM OVC024 07/02  A2990 1090 73 400 010/18G27 RMK AO2 PK WND 03027/0258 TSNO
94908KDBQ DBQ20050422210513104/22/05 21:05:31  5-MIN KDBQ 230305Z AUTO 01019G28KT 10SM OVC026 07/02  A2991 1090 70 400 010/19G28 RMK AO2 PK WND 02028/0302 TSNO
94908KDBQ DBQ20050422211013104/22/05 21:10:31  5-MIN KDBQ 230310Z AUTO 01016G28KT 10SM OVC026 07/02  A2991 1090 70 400 360/16G28 RMK AO2 PK WND 02028/0302 TSNO
94908KDBQ DBQ20050422211513104/22/05 21:15:31  5-MIN KDBQ 230315Z AUTO 36020G27KT 10SM OVC026 06/02  A2992 1080 73 300 360/20G27 RMK AO2 PK WND 02028/0302 TSNO
94908KDBQ DBQ20050422212013104/22/05 21:20:31  5-MIN KDBQ 230320Z AUTO 01019G25KT 10SM OVC028 06/01  A2992 1080 70 300 010/19G25 RMK AO2 PK WND 02028/0302 TSNO
94908KDBQ DBQ20050422212513104/22/05 21:25:31  5-MIN KDBQ 230325Z AUTO 01019G25KT 10SM OVC028 06/01  A2992 1080 70 300 010/19G25 RMK AO2 PK WND 02028/0302 TSNO
94908KDBQ DBQ20050422213013104/22/05 21:30:31  5-MIN KDBQ 230330Z AUTO 02018G25KT 10SM OVC028 06/01  A2992 1080 70 300 020/18G25 RMK AO2 PK WND 02028/0302 TSNO
94908KDBQ DBQ20050422213513104/22/05 21:35:31  5-MIN KDBQ 230335Z AUTO 01019G26KT 10SM OVC028 06/01  A2992 1080 70 300 010/19G26 RMK AO2 PK WND 02028/0302 TSNO
94908KDBQ DBQ20050422214013104/22/05 21:40:31  5-MIN KDBQ 230340Z AUTO 01018G26KT 10SM OVC028 06/01  A2992 1080 70 300 010/18G26 RMK AO2 PK WND 02028/0302 TSNO
94908KDBQ DBQ20050422214513104/22/05 21:45:31  5-MIN KDBQ 230345Z AUTO 02017G23KT 10SM OVC028 06/01  A2992 1080 70 300 020/17G23 RMK AO2 PK WND 02028/0302 TSNO
94908KDBQ DBQ20050422215014804/22/05 21:50:31  5-MIN KDBQ 230350Z AUTO 01016G23KT 10SM OVC028 06/01  A2992 1080 70 300 010/16G23 RMK AO2 PK WND 02028/0302 SLP139 T00610011 TSNO
94908KDBQ DBQ20050422215514804/22/05 21:55:31  5-MIN KDBQ 230355Z AUTO 01014G23KT 10SM OVC028 06/01  A2993 1070 73 200 010/14G23 RMK AO2 PK WND 02028/0302 SLP139 T00560011 TSNO
94908KDBQ DBQ20050422220012004/22/05 22:00:31  5-MIN KDBQ 230400Z AUTO 36015G20KT 10SM BKN023 OVC029  06/01 A2993 1070 73 200 360/15G20 RMK AO2 TSNO
94908KDBQ DBQ20050422220513604/22/05 22:05:31  5-MIN KDBQ 230405Z AUTO 36015G21KT 10SM -RA BKN023  OVC029 05/01 A2993 1070 76 200 360/15G21 RMK AO2 RAB04 P0000 TSNO
94908KDBQ DBQ20050422221012804/22/05 22:10:31  5-MIN KDBQ 230410Z AUTO 36017G21KT 10SM -RA OVC023 05/01 A2993 1070 76 200 360/17G21 RMK AO2 RAB04 P0000 TSNO
94908KDBQ DBQ20050422221513004/22/05 22:15:31  5-MIN KDBQ 230415Z AUTO 35016KT 10SM -RA BKN023 OVC028  04/01 A2993 1070 79 100 350/16 RMK AO2 RAB04 P0000 TSNO
94908KDBQ DBQ20050422222012804/22/05 22:20:31  5-MIN KDBQ 230420Z AUTO 35015G22KT 10SM OVC023 04/01  A2994 1060 79 100 350/15G22 RMK AO2 RAB04E19 P0000 TSNO
94908KDBQ DBQ20050422222512804/22/05 22:25:31  5-MIN KDBQ 230425Z AUTO 36018G22KT 10SM OVC020 04/01  A2994 1060 79 100 360/18G22 RMK AO2 RAB04E19 P0000 TSNO
94908KDBQ DBQ20050422223014404/22/05 22:30:31  5-MIN KDBQ 230430Z AUTO 01019G26KT 10SM -RA OVC020 04/01 A2994 1060 82 0 010/19G26 RMK AO2 PK WND 01026/0430 RAB04 P0000 TSNO
94908KDBQ DBQ20050422223514404/22/05 22:35:31  5-MIN KDBQ 230435Z AUTO 01017G26KT 10SM -RA OVC020 04/01 A2994 1060 79 0 010/17G26 RMK AO2 PK WND 01026/0430 RAB04 P0000 TSNO
94908KDBQ DBQ20050422224014404/22/05 22:40:31  5-MIN KDBQ 230440Z AUTO 36019G24KT 10SM -RA OVC020 04/01 A2994 1060 82 0 360/19G24 RMK AO2 PK WND 01026/0430 RAB04 P0000 TSNO
94908KDBQ DBQ20050422224514404/22/05 22:45:31  5-MIN KDBQ 230445Z AUTO 36016G24KT 10SM -RA OVC018 04/01 A2995 1050 79 0 360/16G24 RMK AO2 PK WND 01026/0430 RAB04 P0000 TSNO
94908KDBQ DBQ20050422225015704/22/05 22:50:31  5-MIN KDBQ 230450Z AUTO 36018KT 10SM -RA OVC018 03/01  A2995 1050 82 0 350/18 RMK AO2 PK WND 01026/0430 RAB04 SLP149 P0000  T00330006 TSNO
94908KDBQ DBQ20050422225516004/22/05 22:55:31  5-MIN KDBQ 230455Z AUTO 36016KT 10SM -RA OVC018 03/01  A2995 1050 85 -100 360/16 RMK AO2 PK WND 01026/0430 RAB04 SLP150 P0000  T00280006 TSNO
94908KDBQ DBQ20050422230011804/22/05 23:00:31  5-MIN KDBQ 230500Z AUTO 36017KT 10SM -RA OVC018 03/01  A2996 1050 89 -100 360/17 RMK AO2 P0000 TSNO
94908KDBQ DBQ20050422230515904/22/05 23:05:31  5-MIN KDBQ 230505Z AUTO 36017G27KT 9SM -SN BKN016 OVC024 03/01 A2996 1040 85 -100 360/17G27 RMK AO2 PK WND 01027/0502 RAE03SNB03  P0000 TSNO
94908KDBQ DBQ20050422231015904/22/05 23:10:31  5-MIN KDBQ 230510Z AUTO 01018G27KT 8SM -SN BKN016 OVC024 03/01 A2996 1040 85 -100 010/18G27 RMK AO2 PK WND 01027/0502 RAE03SNB03  P0000 TSNO
94908KDBQ DBQ20050422231517304/22/05 23:15:31  5-MIN KDBQ 230515Z AUTO 01013G24KT 7SM -SN BKN016 OVC024 03/01 A2997 1030 85 -100 010/13G24 RMK AO2 PK WND 01027/0502  RAE03UPB13E14SNB03E13B14 P0000 TSNO
94908KDBQ DBQ20050422232017304/22/05 23:20:31  5-MIN KDBQ 230520Z AUTO 01018G26KT 7SM -SN BKN016 OVC024 02/01 A2997 1040 89 -200 010/18G26 RMK AO2 PK WND 01027/0502  RAE03UPB13E14SNB03E13B14 P0000 TSNO
94908KDBQ DBQ20050422232518004/22/05 23:25:31  5-MIN KDBQ 230525Z AUTO 01015G26KT 7SM -SN SCT016 BKN021 OVC026 02/01 A2997 1030 89 -200 010/15G26 RMK AO2 PK WND 01027/0502  RAE03UPB13E14SNB03E13B14 P0000 TSNO
94908KDBQ DBQ20050422233017304/22/05 23:30:31  5-MIN KDBQ 230530Z AUTO 01015G23KT 8SM -SN SCT018 OVC026 02/01 A2997 1030 89 -200 010/15G23 RMK AO2 PK WND 01027/0502  RAE03UPB13E14SNB03E13B14 P0000 TSNO
94908KDBQ DBQ20050422233517804/22/05 23:35:31  5-MIN KDBQ 230535Z AUTO 01014G23KT 9SM UP BKN018 OVC026 02/01 A2997 1030 89 -200 010/14G23 RMK AO2 PK WND 01027/0502  RAE03UPB13E14B31SNB03E13B14E31 P0001 TSNO
94908KDBQ DBQ20050422234017804/22/05 23:40:31  5-MIN KDBQ 230540Z AUTO 01017G22KT 9SM UP SCT014 OVC023 02/01 A2997 1030 89 -200 010/17G22 RMK AO2 PK WND 01027/0502  RAE03UPB13E14B31SNB03E13B14E31 P0001 TSNO
94908KDBQ DBQ20050422234518504/22/05 23:45:31  5-MIN KDBQ 230545Z AUTO 36017G25KT 8SM -SN BKN016 OVC023 02/00 A2997 1030 85 -200 360/17G25 RMK AO2 PK WND 01027/0502  RAE03UPB13E14B31E41SNB03E13B14E31B41 P0001 TSNO
94908KDBQ DBQ20050422235024404/22/05 23:50:31  5-MIN KDBQ 230550Z AUTO 36018G25KT 7SM -SN BKN014 BKN020 OVC025 02/00 A2997 1030 89 -300 360/18G25 RMK AO2 PK WND 01027/0502  RAE03UPB13E14B31E41SNB03E13B14E31B41 SLP158 P0001 60002 T00170000 10100  20017 401220017 53031 TSNO
94908KDBQ DBQ20050422235524404/22/05 23:55:31  5-MIN KDBQ 230555Z AUTO 01020G24KT 8SM -SN BKN014 BKN022 OVC026 02/00 A2997 1030 89 -300 010/20G24 RMK AO2 PK WND 01027/0502  RAE03UPB13E14B31E41SNB03E13B14E31B41 SLP157 P0001 60002 T00170000 10100  20017 401220017 51023 TSNO
94908KDBQ DBQ20050423000013604/23/05 00:00:38  5-MIN KDBQ 230600Z AUTO 01016G23KT 7SM -SN SCT012 BKN017 OVC022 02/00 A2998 1030 89 -300 010/16G23 RMK AO2 P0000 TSNO
94908KDBQ DBQ20050423000513304/23/05 00:05:31  5-MIN KDBQ 230605Z AUTO 01017G20KT 6SM -SN BR SCT012  OVC019 02/00 A2998 1030 89 -300 360/17G20 RMK AO2 P0000 TSNO
94908KDBQ DBQ20050423001012904/23/05 00:10:31  5-MIN KDBQ 230610Z AUTO 01014G22KT 7SM -SN SCT012 OVC019 02/00 A2997 1030 89 -300 010/14G22 RMK AO2 P0000 TSNO
94908KDBQ DBQ20050423001513004/23/05 00:15:33  5-MIN KDBQ 230615Z AUTO 01018G23KT 9SM -SN SCT012 OVC019 02/M01 A2997 1030 85 -300 010/18G23 RMK AO2 P0000 TSNO
94908KDBQ DBQ20050423002013004/23/05 00:20:31  5-MIN KDBQ 230620Z AUTO 01015G23KT 9SM -SN FEW012 OVC019 02/M01 A2998 1030 85 -300 360/15G23 RMK AO2 P0000 TSNO
94908KDBQ DBQ20050423002512604/23/05 00:25:31  5-MIN KDBQ 230625Z AUTO 01015KT 9SM FEW012 OVC019 02/M01 A2998 1030 85 -300 010/15 RMK AO2 SNE24 P0000 TSNO
94908KDBQ DBQ20050423003012604/23/05 00:30:31  5-MIN KDBQ 230630Z AUTO 36016KT 9SM BKN017 OVC022 02/M01 A2998 1020 85 -300 360/16 RMK AO2 SNE24 P0000 TSNO
94908KDBQ DBQ20050423003511804/23/05 00:35:31  5-MIN KDBQ 230635Z AUTO 36016KT 8SM -SN OVC019 02/M01  A2998 1020 85 -300 360/16 RMK AO2 P0000 TSNO
94908KDBQ DBQ20050423004012704/23/05 00:40:31  5-MIN KDBQ 230640Z AUTO 36015G22KT 6SM -SN BR OVC019  02/M01 A2998 1020 85 -300 360/15G22 RMK AO2 P0000 TSNO
94908KDBQ DBQ20050423004513004/23/05 00:45:31  5-MIN KDBQ 230645Z AUTO 01016G22KT 7SM -SN BKN019 OVC024 02/M01 A2998 1020 85 -300 010/16G22 RMK AO2 P0000 TSNO
94908KDBQ DBQ20050423005014304/23/05 00:50:31  5-MIN KDBQ 230650Z AUTO 01015KT 8SM BKN021 OVC027 02/M01 A2998 1020 85 -300 360/15 RMK AO2 SNE48 SLP159 P0000 T00171006 TSNO
94908KDBQ DBQ20050423005515104/23/05 00:55:31  5-MIN KDBQ 230655Z AUTO 36015G23KT 9SM BKN021 OVC028  02/M01 A2998 1020 85 -300 360/15G23 RMK AO2 SNE48 SLP160 P0000 T00171006  TSNO
94908KDBQ DBQ20050423010012904/23/05 01:00:31  5-MIN KDBQ 230700Z AUTO 01016G23KT 10SM BKN021 BKN027  OVC049 02/M01 A2998 1020 85 -300 010/16G23 RMK AO2 TSNO
94908KDBQ DBQ20050423010512804/23/05 01:05:31  5-MIN KDBQ 230705Z AUTO 01013G23KT 9SM SCT018 BKN023  OVC049 02/M01 A2998 1020 85 -300 010/13G23 RMK AO2 TSNO
94908KDBQ DBQ20050423011012804/23/05 01:10:31  5-MIN KDBQ 230710Z AUTO 01014G20KT 9SM SCT018 BKN023  OVC049 02/M01 A2998 1020 85 -300 010/14G20 RMK AO2 TSNO
94908KDBQ DBQ20050423011512904/23/05 01:15:31  5-MIN KDBQ 230715Z AUTO 01016G23KT 10SM FEW018 BKN023  OVC049 02/M01 A2998 1020 82 -300 010/16G23 RMK AO2 TSNO
94908KDBQ DBQ20050423012012904/23/05 01:20:31  5-MIN KDBQ 230720Z AUTO 01018G23KT 10SM FEW018 BKN023  OVC049 02/M01 A2998 1020 82 -300 010/18G23 RMK AO2 TSNO
94908KDBQ DBQ20050423012512904/23/05 01:25:31  5-MIN KDBQ 230725Z AUTO 02019G23KT 10SM FEW018 BKN023  OVC049 02/M01 A2998 1020 82 -300 010/19G23 RMK AO2 TSNO
94908KDBQ DBQ20050423013012904/23/05 01:30:31  5-MIN KDBQ 230730Z AUTO 01016G23KT 10SM FEW016 BKN023  OVC030 02/M01 A2998 1020 82 -300 010/16G23 RMK AO2 TSNO
94908KDBQ DBQ20050423013512904/23/05 01:35:31  5-MIN KDBQ 230735Z AUTO 01016G22KT 10SM BKN023 BKN030  OVC050 02/M01 A2998 1020 82 -300 010/16G22 RMK AO2 TSNO
94908KDBQ DBQ20050423014012904/23/05 01:40:31  5-MIN KDBQ 230740Z AUTO 01016G24KT 10SM BKN023 BKN030  OVC055 02/M02 A2998 1030 78 -300 010/16G24 RMK AO2 TSNO
94908KDBQ DBQ20050423014512904/23/05 01:45:31  5-MIN KDBQ 230745Z AUTO 01015G24KT 10SM BKN023 BKN030  OVC055 02/M02 A2998 1030 78 -300 010/15G24 RMK AO2 TSNO
94908KDBQ DBQ20050423015014604/23/05 01:50:31  5-MIN KDBQ 230750Z AUTO 01018G23KT 10SM SCT024 BKN029  OVC055 02/M02 A2998 1030 78 -300 010/18G23 RMK AO2 SLP158 T00171017 TSNO
94908KDBQ DBQ20050423015513904/23/05 01:55:31  5-MIN KDBQ 230755Z AUTO 01020G24KT 10SM BKN026 OVC055  02/M02 A2998 1030 75 -300 010/20G24 RMK AO2 SLP158 T00171022 TSNO
94908KDBQ DBQ20050423020012204/23/05 02:00:31  5-MIN KDBQ 230800Z AUTO 01015G24KT 10SM BKN026 OVC055  02/M02 A2998 1020 75 -300 010/15G24 RMK AO2 TSNO
94908KDBQ DBQ20050423020513204/23/05 02:05:31  5-MIN KDBQ 230805Z AUTO 01015KT 10SM -SN BKN026 OVC055  02/M02 A2998 1020 75 -300 010/15 RMK AO2 SNB04 P0000 TSNO
94908KDBQ DBQ20050423021014304/23/05 02:10:31  5-MIN KDBQ 230810Z AUTO 01016G23KT 9SM -SN SCT026 BKN031 OVC055 01/M02 A2998 1020 78 -300 010/16G23 RMK AO2 SNB04 P0000 TSNO
94908KDBQ DBQ20050423021514304/23/05 02:15:31  5-MIN KDBQ 230815Z AUTO 01018G23KT 9SM SCT026 BKN030  OVC070 01/M02 A2998 1020 78 -300 010/18G23 RMK AO2 SNB04E15 P0000 TSNO
94908KDBQ DBQ20050423022014304/23/05 02:20:31  5-MIN KDBQ 230820Z AUTO 01017G24KT 9SM SCT028 BKN060  OVC075 01/M02 A2998 1020 78 -300 010/17G24 RMK AO2 SNB04E15 P0000 TSNO
94908KDBQ DBQ20050423022514404/23/05 02:25:31  5-MIN KDBQ 230825Z AUTO 01016G24KT 10SM SCT029 BKN060  OVC075 01/M03 A2998 1020 75 -300 010/16G24 RMK AO2 SNB04E15 P0000 TSNO
94908KDBQ DBQ20050423023014404/23/05 02:30:31  5-MIN KDBQ 230830Z AUTO 36017G22KT 10SM FEW025 SCT029  OVC075 01/M03 A2998 1020 75 -300 360/17G22 RMK AO2 SNB04E15 P0000 TSNO
94908KDBQ DBQ20050423023515604/23/05 02:35:31  5-MIN KDBQ 230835Z AUTO 01019G26KT 10SM FEW029 OVC075  01/M03 A2998 1020 72 -300 010/19G26 RMK AO2 PK WND 02026/0832 SNB04E15  P0000 TSNO
94908KDBQ DBQ20050423024015604/23/05 02:40:31  5-MIN KDBQ 230840Z AUTO 36017G26KT 10SM FEW029 OVC075  01/M03 A2999 1020 72 -300 360/17G26 RMK AO2 PK WND 02026/0832 SNB04E15  P0000 TSNO
94908KDBQ DBQ20050423024515604/23/05 02:45:31  5-MIN KDBQ 230845Z AUTO 01020G26KT 10SM FEW029 OVC075  01/M04 A2998 1020 69 -300 010/20G26 RMK AO2 PK WND 03026/0844 SNB04E15  P0000 TSNO
94908KDBQ DBQ20050423025018504/23/05 02:50:31  5-MIN KDBQ 230850Z AUTO 01016G26KT 10SM FEW031 BKN075  01/M04 A2999 1020 69 -300 010/16G26 RMK AO2 PK WND 03026/0844 SNB04E15  SLP161 P0000 60000 T00111039 51023 TSNO
94908KDBQ DBQ20050423025517804/23/05 02:55:31  5-MIN KDBQ 230855Z AUTO 01020G23KT 10SM SCT075 01/M04  A2999 1020 66 -300 010/20G23 RMK AO2 PK WND 03026/0844 SNB04E15 SLP162  P0000 60000 T00111044 53005 TSNO
94908KDBQ DBQ20050423030012204/23/05 03:00:31  5-MIN KDBQ 230900Z AUTO 01016G23KT 10SM FEW031 SCT080  01/M04 A2999 1010 69 -400 010/16G23 RMK AO2 TSNO
94908KDBQ DBQ20050423030512204/23/05 03:05:31  5-MIN KDBQ 230905Z AUTO 36016G24KT 10SM FEW032 SCT080  01/M04 A2999 1010 66 -300 360/16G24 RMK AO2 TSNO
94908KDBQ DBQ20050423031011504/23/05 03:10:31  5-MIN KDBQ 230910Z AUTO 01017G24KT 10SM FEW032 01/M04  A2999 1010 69 -400 010/17G24 RMK AO2 TSNO
94908KDBQ DBQ20050423031511504/23/05 03:15:31  5-MIN KDBQ 230915Z AUTO 36019G22KT 10SM FEW032 01/M04  A3000 1010 69 -400 360/19G22 RMK AO2 TSNO
94908KDBQ DBQ20050423032010804/23/05 03:20:31  5-MIN KDBQ 230920Z AUTO 36017KT 10SM FEW032 01/M04 A3000 1010 72 -400 360/17 RMK AO2 TSNO
94908KDBQ DBQ20050423032511504/23/05 03:25:31  5-MIN KDBQ 230925Z AUTO 36015G23KT 10SM FEW032 01/M04  A3000 1010 69 -400 360/15G23 RMK AO2 TSNO
94908KDBQ DBQ20050423033011504/23/05 03:30:31  5-MIN KDBQ 230930Z AUTO 36017G23KT 10SM FEW032 01/M04  A3000 1010 69 -400 360/17G23 RMK AO2 TSNO
94908KDBQ DBQ20050423033511504/23/05 03:35:31  5-MIN KDBQ 230935Z AUTO 36018G22KT 10SM FEW032 00/M04  A3000 1010 72 -500 360/18G22 RMK AO2 TSNO
94908KDBQ DBQ20050423034011104/23/05 03:40:31  5-MIN KDBQ 230940Z AUTO 36015G22KT 10SM CLR 00/M04 A3000 1000 72 -500 360/15G22 RMK AO2 TSNO
94908KDBQ DBQ20050423034511104/23/05 03:45:31  5-MIN KDBQ 230945Z AUTO 36017G21KT 10SM CLR 00/M04 A3000 1000 72 -500 360/17G21 RMK AO2 TSNO
94908KDBQ DBQ20050423035012804/23/05 03:50:31  5-MIN KDBQ 230950Z AUTO 36014G21KT 10SM CLR 00/M05 A3000 1000 69 -500 360/14G21 RMK AO2 SLP167 T00001050 TSNO
94908KDBQ DBQ20050423035512804/23/05 03:55:31  5-MIN KDBQ 230955Z AUTO 36015G21KT 10SM CLR 00/M04 A3000 1000 72 -500 360/15G21 RMK AO2 SLP166 T00001044 TSNO
94908KDBQ DBQ20050423040011104/23/05 04:00:31  5-MIN KDBQ 231000Z AUTO 36019G22KT 10SM CLR 00/M05 A3000 1000 69 -500 360/19G22 RMK AO2 TSNO
94908KDBQ DBQ20050423040510604/23/05 04:05:31  5-MIN KDBQ 231005Z AUTO 01016KT 10SM CLR 00/M05 A3000  1010 69 -500 360/16 RMK AO2 TSNO
94908KDBQ DBQ20050423041011304/23/05 04:10:31  5-MIN KDBQ 231010Z AUTO 36016G20KT 10SM CLR M01/M05  A3000 1010 72 -600 360/16G20 RMK AO2 TSNO
94908KDBQ DBQ20050423041511304/23/05 04:15:31  5-MIN KDBQ 231015Z AUTO 36017G20KT 10SM CLR M01/M05  A3000 1000 72 -600 360/17G20 RMK AO2 TSNO
94908KDBQ DBQ20050423042011304/23/05 04:20:31  5-MIN KDBQ 231020Z AUTO 36016G24KT 10SM CLR M01/M05  A3000 1000 72 -600 360/16G24 RMK AO2 TSNO
94908KDBQ DBQ20050423042511304/23/05 04:25:31  5-MIN KDBQ 231025Z AUTO 36017G24KT 10SM CLR M01/M06  A3000 1000 69 -600 360/17G24 RMK AO2 TSNO
94908KDBQ DBQ20050423043011304/23/05 04:30:31  5-MIN KDBQ 231030Z AUTO 36018G25KT 10SM CLR M01/M06  A3000 1000 69 -600 360/18G25 RMK AO2 TSNO
94908KDBQ DBQ20050423043511304/23/05 04:35:31  5-MIN KDBQ 231035Z AUTO 36016G25KT 10SM CLR M01/M06  A3001 1000 69 -600 360/16G25 RMK AO2 TSNO
94908KDBQ DBQ20050423044011304/23/05 04:40:31  5-MIN KDBQ 231040Z AUTO 36016G21KT 10SM CLR M01/M06  A3001 1000 69 -600 360/16G21 RMK AO2 TSNO
94908KDBQ DBQ20050423044511204/23/05 04:45:31  5-MIN KDBQ 231045Z AUTO 36015G21KT 10SM CLR M01/M06  A3001 990 69 -600 360/15G21 RMK AO2 TSNO
94908KDBQ DBQ20050423045012904/23/05 04:50:31  5-MIN KDBQ 231050Z AUTO 36015G20KT 10SM CLR M01/M06  A3002 990 69 -600 360/15G20 RMK AO2 SLP171 T10061056 TSNO
94908KDBQ DBQ20050423045511804/23/05 04:55:31  5-MIN KDBQ 231055Z 36013G20KT 10SM CLR M01/M06 A3001 990 69 -600 360/13G20 RMK AO2 SLP171 T10061056
94908KDBQ DBQ20050423050010104/23/05 05:00:31  5-MIN KDBQ 231100Z 36016G20KT 10SM CLR M01/M06 A3001 990 69 -600 360/16G20 RMK AO2
94908KDBQ DBQ20050423050510104/23/05 05:05:31  5-MIN KDBQ 231105Z 35014G20KT 10SM CLR M01/M06 A3002 990 69 -600 350/14G20 RMK AO2
94908KDBQ DBQ20050423051010104/23/05 05:10:31  5-MIN KDBQ 231110Z 35016G20KT 10SM CLR M01/M06 A3002 990 69 -600 350/16G20 RMK AO2
94908KDBQ DBQ20050423051509504/23/05 05:15:31  5-MIN KDBQ 231115Z 36015KT 10SM CLR M01/M06 A3002 990 69 -600 360/15 RMK AO2
94908KDBQ DBQ20050423052009504/23/05 05:20:31  5-MIN KDBQ 231120Z 36012KT 10SM CLR M01/M06 A3002 980 69 -600 360/12 RMK AO2
94908KDBQ DBQ20050423052509504/23/05 05:25:31  5-MIN KDBQ 231125Z 36012KT 10SM CLR M01/M06 A3002 980 69 -600 360/12 RMK AO2
94908KDBQ DBQ20050423053009504/23/05 05:30:31  5-MIN KDBQ 231130Z 36014KT 10SM CLR M01/M06 A3002 980 69 -600 360/14 RMK AO2
94908KDBQ DBQ20050423053509504/23/05 05:35:31  5-MIN KDBQ 231135Z 36014KT 10SM CLR M01/M06 A3003 980 69 -600 360/14 RMK AO2
94908KDBQ DBQ20050423054009504/23/05 05:40:31  5-MIN KDBQ 231140Z 36014KT 10SM CLR M01/M06 A3003 980 69 -600 360/14 RMK AO2
94908KDBQ DBQ20050423054509504/23/05 05:45:31  5-MIN KDBQ 231145Z 35014KT 10SM CLR M01/M06 A3002 980 69 -600 350/14 RMK AO2
94908KDBQ DBQ20050423055014204/23/05 05:50:31  5-MIN KDBQ 231150Z 35013KT 10SM CLR M01/M06 A3003 980 66 -600 350/13 RMK AO2 SLP178 60000 70006 T10061061 10017 21006 53005
94908KDBQ DBQ20050423055514204/23/05 05:55:31  5-MIN KDBQ 231155Z 35015KT 10SM CLR M01/M06 A3003 980 69 -600 350/15 RMK AO2 SLP178 60000 70006 T10061056 10017 21006 53014
94908KDBQ DBQ20050423060009504/23/05 06:00:31  5-MIN KDBQ 231200Z 36014KT 10SM CLR M01/M06 A3003 980 69 -600 360/14 RMK AO2
94908KDBQ DBQ20050423060509504/23/05 06:05:31  5-MIN KDBQ 231205Z 35014KT 10SM CLR M01/M06 A3003 980 69 -600 350/14 RMK AO2
94908KDBQ DBQ20050423061009404/23/05 06:10:31  5-MIN KDBQ 231210Z 35015KT 10SM CLR 00/M06 A3003 970 66 -500 350/15 RMK AO2
94908KDBQ DBQ20050423061510004/23/05 06:15:31  5-MIN KDBQ 231215Z 35016G21KT 10SM CLR 00/M06 A3003 980 63 -500 350/16G21 RMK AO2
94908KDBQ DBQ20050423062010004/23/05 06:20:31  5-MIN KDBQ 231220Z 35016G21KT 10SM CLR 00/M06 A3003 980 63 -500 350/16G21 RMK AO2
94908KDBQ DBQ20050423062509404/23/05 06:25:31  5-MIN KDBQ 231225Z 36013KT 10SM CLR 00/M06 A3003 970 63 -500 360/13 RMK AO2
94908KDBQ DBQ20050423063009404/23/05 06:30:31  5-MIN KDBQ 231230Z 36013KT 10SM CLR 00/M06 A3003 980 63 -500 360/13 RMK AO2
94908KDBQ DBQ20050423063510004/23/05 06:35:31  5-MIN KDBQ 231235Z 36016G23KT 10SM CLR 00/M06 A3003 970 63 -500 360/16G23 RMK AO2
94908KDBQ DBQ20050423064010004/23/05 06:40:31  5-MIN KDBQ 231240Z 36014G23KT 10SM CLR 01/M06 A3003 970 61 -500 350/14G23 RMK AO2
94908KDBQ DBQ20050423064509404/23/05 06:45:31  5-MIN KDBQ 231245Z 36016KT 10SM CLR 01/M06 A3003 970 61 -500 360/16 RMK AO2
94908KDBQ DBQ20050423065011704/23/05 06:50:31  5-MIN KDBQ 231250Z 36016G21KT 10SM CLR 01/M06 A3003 970 61 -500 360/16G21 RMK AO2 SLP178 T00061061
94908KDBQ DBQ20050423065511704/23/05 06:55:31  5-MIN KDBQ 231255Z 35019G23KT 10SM CLR 01/M06 A3003 970 61 -500 350/19G23 RMK AO2 SLP178 T00061061
94908KDBQ DBQ20050423070010004/23/05 07:00:31  5-MIN KDBQ 231300Z 35020G24KT 10SM CLR 01/M06 A3003 970 61 -500 350/20G24 RMK AO2
94908KDBQ DBQ20050423070510004/23/05 07:05:31  5-MIN KDBQ 231305Z 36018G24KT 10SM CLR 01/M06 A3003 980 61 -500 360/18G24 RMK AO2
94908KDBQ DBQ20050423071010004/23/05 07:10:31  5-MIN KDBQ 231310Z 36016G23KT 10SM CLR 01/M06 A3003 980 58 -400 360/16G23 RMK AO2
94908KDBQ DBQ20050423071510004/23/05 07:15:31  5-MIN KDBQ 231315Z 35019G25KT 10SM CLR 01/M06 A3003 970 58 -400 350/19G25 RMK AO2
94908KDBQ DBQ20050423072010004/23/05 07:20:31  5-MIN KDBQ 231320Z 35019G25KT 10SM CLR 01/M06 A3003 980 58 -400 350/19G25 RMK AO2
94908KDBQ DBQ20050423072511804/23/05 07:25:31  5-MIN KDBQ 231325Z 36021G26KT 10SM CLR 01/M06 A3003 970 58 -400 360/21G26 RMK AO2 PK WND 35026/1324
94908KDBQ DBQ20050423073011804/23/05 07:30:31  5-MIN KDBQ 231330Z 36018G26KT 10SM CLR 01/M06 A3003 980 58 -400 360/18G26 RMK AO2 PK WND 35026/1324
94908KDBQ DBQ20050423073511804/23/05 07:35:31  5-MIN KDBQ 231335Z 36018G26KT 10SM CLR 01/M06 A3003 970 58 -400 360/18G26 RMK AO2 PK WND 35026/1335
94908KDBQ DBQ20050423074011804/23/05 07:40:31  5-MIN KDBQ 231340Z 35020G26KT 10SM CLR 02/M06 A3003 970 56 -300 350/20G26 RMK AO2 PK WND 35026/1335
94908KDBQ DBQ20050423074511804/23/05 07:45:31  5-MIN KDBQ 231345Z 35022G27KT 10SM CLR 02/M07 A3003 970 54 -300 350/22G27 RMK AO2 PK WND 35027/1345
94908KDBQ DBQ20050423075013504/23/05 07:50:31  5-MIN KDBQ 231350Z 36017G27KT 10SM CLR 02/M07 A3004 970 54 -300 360/17G27 RMK AO2 PK WND 35027/1345 SLP179 T00171067
94908KDBQ DBQ20050423075513504/23/05 07:55:31  5-MIN KDBQ 231355Z 35020G24KT 10SM CLR 02/M07 A3003 980 54 -300 350/20G24 RMK AO2 PK WND 35027/1345 SLP178 T00171067
94908KDBQ DBQ20050423080011804/23/05 08:00:31  5-MIN KDBQ 231400Z 01023G27KT 10SM CLR 02/M07 A3003 980 54 -300 010/23G27 RMK AO2 PK WND 02027/1400
94908KDBQ DBQ20050423080511804/23/05 08:05:31  5-MIN KDBQ 231405Z 36021G28KT 10SM CLR 02/M07 A3003 980 52 -300 360/21G28 RMK AO2 PK WND 01028/1401
94908KDBQ DBQ20050423081011804/23/05 08:10:31  5-MIN KDBQ 231410Z 36019G32KT 10SM CLR 02/M07 A3003 970 52 -300 360/19G32 RMK AO2 PK WND 01032/1406
94908KDBQ DBQ20050423081511804/23/05 08:15:31  5-MIN KDBQ 231415Z 02018G32KT 10SM CLR 02/M07 A3004 970 52 -300 010/18G32 RMK AO2 PK WND 01032/1406
94908KDBQ DBQ20050423082011804/23/05 08:20:31  5-MIN KDBQ 231420Z 36017G23KT 10SM CLR 02/M07 A3004 970 52 -300 360/17G23 RMK AO2 PK WND 01032/1406
94908KDBQ DBQ20050423082511804/23/05 08:25:31  5-MIN KDBQ 231425Z 35016G23KT 10SM CLR 02/M06 A3004 970 54 -300 350/16G23 RMK AO2 PK WND 01032/1406
94908KDBQ DBQ20050423083011804/23/05 08:30:31  5-MIN KDBQ 231430Z 35018G23KT 10SM CLR 02/M07 A3004 970 52 -300 350/18G23 RMK AO2 PK WND 01032/1406
94908KDBQ DBQ20050423083511804/23/05 08:35:31  5-MIN KDBQ 231435Z 34021G27KT 10SM CLR 02/M07 A3004 970 52 -300 340/21G27 RMK AO2 PK WND 01032/1406
94908KDBQ DBQ20050423084011804/23/05 08:40:31  5-MIN KDBQ 231440Z 36020G27KT 10SM CLR 03/M07 A3003 970 50 -200 360/20G27 RMK AO2 PK WND 01032/1406
94908KDBQ DBQ20050423084511804/23/05 08:45:31  5-MIN KDBQ 231445Z 01019G26KT 10SM CLR 03/M07 A3004 970 50 -200 010/19G26 RMK AO2 PK WND 01032/1406
94908KDBQ DBQ20050423085014104/23/05 08:50:31  5-MIN KDBQ 231450Z 35016G26KT 10SM CLR 03/M07 A3003 980 50 -200 350/16G26 RMK AO2 PK WND 01032/1406 SLP178 T00281067 53014
94908KDBQ DBQ20050423085514104/23/05 08:55:31  5-MIN KDBQ 231455Z 01018G26KT 10SM CLR 03/M07 A3003 980 50 -200 010/18G26 RMK AO2 PK WND 01032/1406 SLP177 T00281067 50000
94908KDBQ DBQ20050423090010004/23/05 09:00:31  5-MIN KDBQ 231500Z 35019G24KT 10SM CLR 03/M07 A3003 970 50 -200 350/19G24 RMK AO2
94908KDBQ DBQ20050423090510004/23/05 09:05:31  5-MIN KDBQ 231505Z 01019G25KT 10SM CLR 03/M07 A3003 980 48 -200 360/19G25 RMK AO2
94908KDBQ DBQ20050423091010004/23/05 09:10:31  5-MIN KDBQ 231510Z 01018G25KT 10SM CLR 03/M07 A3003 970 46 -100 010/18G25 RMK AO2
94908KDBQ DBQ20050423091510004/23/05 09:15:31  5-MIN KDBQ 231515Z 35016G23KT 10SM CLR 03/M07 A3003 970 48 -100 350/16G23 RMK AO2
94908KDBQ DBQ20050423092010004/23/05 09:20:31  5-MIN KDBQ 231520Z 34019G23KT 10SM CLR 03/M06 A3003 970 50 -100 340/19G23 RMK AO2
94908KDBQ DBQ20050423092510004/23/05 09:25:31  5-MIN KDBQ 231525Z 35019G23KT 10SM CLR 03/M07 A3003 970 48 -100 340/19G23 RMK AO2
94908KDBQ DBQ20050423093009104/23/05 09:30:31  5-MIN KDBQ 231530Z 35015KT 10SM CLR 04/M07 A3003 970 46 0 350/15 RMK AO2
94908KDBQ DBQ20050423093509704/23/05 09:35:31  5-MIN KDBQ 231535Z 36017G23KT 10SM CLR 04/M06 A3003 970 48 0 360/17G23 RMK AO2
94908KDBQ DBQ20050423094009704/23/05 09:40:31  5-MIN KDBQ 231540Z 36017G23KT 10SM CLR 04/M07 A3003 970 46 0 360/17G23 RMK AO2
94908KDBQ DBQ20050423094509704/23/05 09:45:31  5-MIN KDBQ 231545Z 35017G23KT 10SM CLR 04/M06 A3003 980 50 0 340/17G23 RMK AO2
94908KDBQ DBQ20050423095011404/23/05 09:50:31  5-MIN KDBQ 231550Z 35015G23KT 10SM CLR 04/M06 A3003 970 46 0 340/15G23 RMK AO2 SLP177 T00441061
94908KDBQ DBQ20050423095511404/23/05 09:55:31  5-MIN KDBQ 231555Z 35016G23KT 10SM CLR 04/M06 A3003 980 48 0 350/16G23 RMK AO2 SLP177 T00391061
94908KDBQ DBQ20050423100009704/23/05 10:00:31  5-MIN KDBQ 231600Z 35018G23KT 10SM CLR 04/M06 A3003 970 46 0 350/18G23 RMK AO2
94908KDBQ DBQ20050423100509704/23/05 10:05:31  5-MIN KDBQ 231605Z 35017G23KT 10SM CLR 04/M07 A3003 970 44 0 340/17G23 RMK AO2
94908KDBQ DBQ20050423101009104/23/05 10:10:31  5-MIN KDBQ 231610Z 36014KT 10SM CLR 04/M07 A3003 970 44 0 360/14 RMK AO2
94908KDBQ DBQ20050423101509704/23/05 10:15:31  5-MIN KDBQ 231615Z 35017G21KT 10SM CLR 04/M06 A3003 980 46 0 350/17G21 RMK AO2
94908KDBQ DBQ20050423102009104/23/05 10:20:31  5-MIN KDBQ 231620Z 35018KT 10SM CLR 04/M06 A3003 970 46 0 350/18 RMK AO2
94908KDBQ DBQ20050423102509704/23/05 10:25:31  5-MIN KDBQ 231625Z 35017G24KT 10SM CLR 05/M07 A3003 980 42 0 350/17G24 RMK AO2
94908KDBQ DBQ20050423103009704/23/05 10:30:31  5-MIN KDBQ 231630Z 36016G24KT 10SM CLR 04/M07 A3003 980 44 0 360/16G24 RMK AO2
94908KDBQ DBQ20050423103509704/23/05 10:35:31  5-MIN KDBQ 231635Z 36015G25KT 10SM CLR 05/M06 A3003 980 44 0 360/15G25 RMK AO2
94908KDBQ DBQ20050423104009904/23/05 10:40:31  5-MIN KDBQ 231640Z 01016G25KT 10SM CLR 06/M06 A3003 980 44 100 010/16G25 RMK AO2
94908KDBQ DBQ20050423104509904/23/05 10:45:31  5-MIN KDBQ 231645Z 35015G21KT 10SM CLR 06/M06 A3003 980 44 100 350/15G21 RMK AO2
94908KDBQ DBQ20050423105011004/23/05 10:50:31  5-MIN KDBQ 231650Z 36013KT 10SM CLR 06/M05 A3002 980 46 100 350/13 RMK AO2 SLP176 T00561050
94908KDBQ DBQ20050423105511404/23/05 10:55:31  5-MIN KDBQ 231655Z 36016G22KT 10SM CLR 05/M06 A3003 980 44 0 360/16G22 RMK AO2 SLP176 T00501061
94908KDBQ DBQ20050423110009904/23/05 11:00:31  5-MIN KDBQ 231700Z 01014G22KT 10SM CLR 06/M06 A3002 980 44 100 010/14G22 RMK AO2
94908KDBQ DBQ20050423110509904/23/05 11:05:31  5-MIN KDBQ 231705Z 35017G20KT 10SM CLR 06/M06 A3003 980 43 100 350/17G20 RMK AO2
94908KDBQ DBQ20050423111009904/23/05 11:10:31  5-MIN KDBQ 231710Z 36016G22KT 10SM CLR 06/M06 A3003 980 43 100 360/16G22 RMK AO2
94908KDBQ DBQ20050423111509904/23/05 11:15:31  5-MIN KDBQ 231715Z 35016G22KT 10SM CLR 06/M06 A3003 980 43 100 350/16G22 RMK AO2
94908KDBQ DBQ20050423112009904/23/05 11:20:31  5-MIN KDBQ 231720Z 01017G22KT 10SM CLR 06/M06 A3002 980 43 200 010/17G22 RMK AO2
94908KDBQ DBQ20050423112509904/23/05 11:25:31  5-MIN KDBQ 231725Z 36016G22KT 10SM CLR 06/M06 A3002 980 43 200 360/16G22 RMK AO2
94908KDBQ DBQ20050423113009904/23/05 11:30:31  5-MIN KDBQ 231730Z 01012G21KT 10SM CLR 06/M07 A3002 980 41 100 010/12G21 RMK AO2
94908KDBQ DBQ20050423113509904/23/05 11:35:31  5-MIN KDBQ 231735Z 35015G24KT 10SM CLR 06/M06 A3002 980 43 200 350/15G24 RMK AO2
94908KDBQ DBQ20050423114009904/23/05 11:40:31  5-MIN KDBQ 231740Z 35016G24KT 10SM CLR 06/M06 A3002 990 43 200 350/16G24 RMK AO2
94908KDBQ DBQ20050423114509304/23/05 11:45:31  5-MIN KDBQ 231745Z 35014KT 10SM CLR 06/M07 A3002 990 39 200 350/14 RMK AO2
94908KDBQ DBQ20050423115013404/23/05 11:50:31  5-MIN KDBQ 231750Z 36012G21KT 10SM CLR 06/M06 A3001 990 41 200 360/12G21 RMK AO2 SLP173 T00611061 10061 21006 50000
94908KDBQ DBQ20050423115513404/23/05 11:55:31  5-MIN KDBQ 231755Z 34014G21KT 10SM CLR 06/M06 A3001 990 43 200 340/14G21 RMK AO2 SLP172 T00611056 10061 21006 58006
94908KDBQ DBQ20050423120010304/23/05 12:00:31  5-MIN KDBQ 231800Z 35013G18KT 10SM FEW055 06/M06 A3001  990 41 200 350/13G18 RMK AO2
94908KDBQ DBQ20050423120510304/23/05 12:05:31  5-MIN KDBQ 231805Z 35016G23KT 10SM SCT055 06/M06 A3001  990 41 200 350/16G23 RMK AO2
94908KDBQ DBQ20050423121010304/23/05 12:10:31  5-MIN KDBQ 231810Z 34014G23KT 10SM FEW055 06/M06 A3001  990 43 200 340/14G23 RMK AO2
94908KDBQ DBQ20050423121510304/23/05 12:15:31  5-MIN KDBQ 231815Z 33013G18KT 10SM FEW055 07/M05 A3002  990 43 300 330/13G18 RMK AO2
94908KDBQ DBQ20050423122010304/23/05 12:20:31  5-MIN KDBQ 231820Z 33016G21KT 10SM FEW055 07/M05 A3002  990 43 300 320/16G21 RMK AO2
94908KDBQ DBQ20050423122510304/23/05 12:25:31  5-MIN KDBQ 231825Z 32018G23KT 10SM SCT055 07/M06 A3002  990 41 300 310/18G23 RMK AO2
94908KDBQ DBQ20050423123010304/23/05 12:30:31  5-MIN KDBQ 231830Z 33014G23KT 10SM SCT055 06/M06 A3002  990 43 200 330/14G23 RMK AO2
94908KDBQ DBQ20050423123510304/23/05 12:35:31  5-MIN KDBQ 231835Z 33015G21KT 10SM SCT055 07/M06 A3002  990 41 300 330/15G21 RMK AO2
94908KDBQ DBQ20050423124010304/23/05 12:40:31  5-MIN KDBQ 231840Z 33013G21KT 10SM SCT055 06/M05 A3001  990 45 200 330/13G21 RMK AO2
94908KDBQ DBQ20050423124510304/23/05 12:45:31  5-MIN KDBQ 231845Z 33016G22KT 10SM BKN055 07/M04 A3001  990 45 300 330/16G22 RMK AO2
94908KDBQ DBQ20050423125012104/23/05 12:50:31  5-MIN KDBQ 231850Z 33017G24KT 10SM BKN055 07/M04 A3001  1000 43 300 330/17G24 RMK AO2 SLP171 T00721044
94908KDBQ DBQ20050423125512104/23/05 12:55:31  5-MIN KDBQ 231855Z 34013G24KT 10SM BKN055 07/M04 A3001  1000 45 300 340/13G24 RMK AO2 SLP171 T00671044
94908KDBQ DBQ20050423130010304/23/05 13:00:31  5-MIN KDBQ 231900Z 34018G24KT 10SM BKN055 07/M05 A3001  990 43 300 330/18G24 RMK AO2
94908KDBQ DBQ20050423130510304/23/05 13:05:31  5-MIN KDBQ 231905Z 32016G24KT 10SM BKN055 07/M06 A3001  990 41 300 320/16G24 RMK AO2
94908KDBQ DBQ20050423131010404/23/05 13:10:31  5-MIN KDBQ 231910Z 33019G22KT 10SM BKN055 07/M05 A3001  1000 41 300 330/19G22 RMK AO2
94908KDBQ DBQ20050423131510404/23/05 13:15:31  5-MIN KDBQ 231915Z 34015G22KT 10SM SCT060 07/M05 A3001  1000 41 300 340/15G22 RMK AO2
94908KDBQ DBQ20050423132009704/23/05 13:20:31  5-MIN KDBQ 231920Z 35013KT 10SM BKN060 07/M05 A3001 1000 41 300 350/13 RMK AO2
94908KDBQ DBQ20050423132510404/23/05 13:25:31  5-MIN KDBQ 231925Z 34017G21KT 10SM BKN060 06/M06 A3001  1000 43 200 340/17G21 RMK AO2
94908KDBQ DBQ20050423133010404/23/05 13:30:31  5-MIN KDBQ 231930Z 34017G24KT 10SM BKN060 07/M05 A3001  1000 41 300 340/17G24 RMK AO2
94908KDBQ DBQ20050423133510404/23/05 13:35:31  5-MIN KDBQ 231935Z 33020G25KT 10SM BKN060 07/M06 A3000  1000 40 300 330/20G25 RMK AO2
94908KDBQ DBQ20050423134010404/23/05 13:40:31  5-MIN KDBQ 231940Z 35016G25KT 10SM BKN060 07/M06 A3000  1000 40 300 350/16G25 RMK AO2
94908KDBQ DBQ20050423134510404/23/05 13:45:31  5-MIN KDBQ 231945Z 01015G22KT 10SM SCT060 07/M06 A3000  1000 39 300 010/15G22 RMK AO2
94908KDBQ DBQ20050423135012104/23/05 13:50:31  5-MIN KDBQ 231950Z 33019G23KT 10SM SCT060 08/M05 A3000  1000 40 400 330/19G23 RMK AO2 SLP167 T00781050
94908KDBQ DBQ20050423135513904/23/05 13:55:31  5-MIN KDBQ 231955Z 33019G26KT 10SM BKN060 07/M06 A3000  1010 40 400 330/19G26 RMK AO2 PK WND 34026/1954 SLP167 T00721056
94908KDBQ DBQ20050423140010404/23/05 14:00:31  5-MIN KDBQ 232000Z 33014G26KT 10SM BKN060 07/M05 A3000  1010 41 400 330/14G26 RMK AO2
94908KDBQ DBQ20050423140510404/23/05 14:05:31  5-MIN KDBQ 232005Z 33016G24KT 10SM BKN060 08/M05 A3000  1010 40 400 330/16G24 RMK AO2
94908KDBQ DBQ20050423141010404/23/05 14:10:31  5-MIN KDBQ 232010Z 34019G25KT 10SM BKN060 08/M05 A3000  1010 40 400 340/19G25 RMK AO2
94908KDBQ DBQ20050423141510404/23/05 14:15:31  5-MIN KDBQ 232015Z 34014G25KT 10SM BKN060 08/M06 A3000  1010 38 400 340/14G25 RMK AO2
94908KDBQ DBQ20050423142010404/23/05 14:20:31  5-MIN KDBQ 232020Z 35016G24KT 10SM BKN060 08/M06 A3000  1010 38 400 340/16G24 RMK AO2
94908KDBQ DBQ20050423142510404/23/05 14:25:31  5-MIN KDBQ 232025Z 32021G24KT 10SM BKN060 08/M05 A3000  1010 40 400 320/21G24 RMK AO2
94908KDBQ DBQ20050423143010404/23/05 14:30:31  5-MIN KDBQ 232030Z 34018G24KT 10SM BKN060 07/M06 A3000  1010 38 400 340/18G24 RMK AO2
94908KDBQ DBQ20050423143510404/23/05 14:35:31  5-MIN KDBQ 232035Z 33015G21KT 10SM BKN060 07/M06 A2999  1010 38 400 330/15G21 RMK AO2
94908KDBQ DBQ20050423144012204/23/05 14:40:31  5-MIN KDBQ 232040Z 35019G26KT 10SM BKN060 07/M06 A3000  1010 38 400 350/19G26 RMK AO2 PK WND 31026/2038
94908KDBQ DBQ20050423144512204/23/05 14:45:31  5-MIN KDBQ 232045Z 35014G26KT 10SM BKN060 07/M07 A2999  1010 36 300 350/14G26 RMK AO2 PK WND 31026/2038
94908KDBQ DBQ20050423145014504/23/05 14:50:31  5-MIN KDBQ 232050Z 32015G25KT 10SM BKN060 07/M07 A2999  1010 36 400 320/15G25 RMK AO2 PK WND 31026/2038 SLP165 T00721067 58006
94908KDBQ DBQ20050423145514504/23/05 14:55:31  5-MIN KDBQ 232055Z 34014G25KT 10SM SCT065 08/M06 A2999  1010 36 400 340/14G25 RMK AO2 PK WND 31026/2038 SLP164 T00781061 58008
94908KDBQ DBQ20050423150012204/23/05 15:00:31  5-MIN KDBQ 232100Z 34021G27KT 10SM SCT065 07/M06 A2999  1010 38 400 330/21G27 RMK AO2 PK WND 33027/2059
94908KDBQ DBQ20050423150512204/23/05 15:05:31  5-MIN KDBQ 232105Z 34017G27KT 10SM FEW065 07/M07 A2999  1010 36 400 340/17G27 RMK AO2 PK WND 33027/2059
94908KDBQ DBQ20050423151012204/23/05 15:10:31  5-MIN KDBQ 232110Z 33021G25KT 10SM SCT065 08/M07 A2999  1010 35 400 330/21G25 RMK AO2 PK WND 33027/2059
94908KDBQ DBQ20050423151512204/23/05 15:15:31  5-MIN KDBQ 232115Z 35018G25KT 10SM SCT065 08/M07 A2999  1020 35 400 350/18G25 RMK AO2 PK WND 33027/2059
94908KDBQ DBQ20050423152012204/23/05 15:20:31  5-MIN KDBQ 232120Z 33018G23KT 10SM SCT065 08/M07 A2999  1020 35 400 330/18G23 RMK AO2 PK WND 33027/2059
94908KDBQ DBQ20050423152512204/23/05 15:25:31  5-MIN KDBQ 232125Z 33014G24KT 10SM SCT070 07/M07 A2998  1020 35 400 330/14G24 RMK AO2 PK WND 33027/2059
94908KDBQ DBQ20050423153012204/23/05 15:30:31  5-MIN KDBQ 232130Z 35016G26KT 10SM SCT070 08/M07 A2998  1020 34 400 350/16G26 RMK AO2 PK WND 33027/2059
94908KDBQ DBQ20050423153512204/23/05 15:35:31  5-MIN KDBQ 232135Z 35016G26KT 10SM SCT065 08/M07 A2999  1020 34 400 350/16G26 RMK AO2 PK WND 33027/2059
94908KDBQ DBQ20050423154012204/23/05 15:40:31  5-MIN KDBQ 232140Z 33020G27KT 10SM SCT065 07/M07 A2998  1020 35 400 330/20G27 RMK AO2 PK WND 33027/2140
94908KDBQ DBQ20050423154512204/23/05 15:45:31  5-MIN KDBQ 232145Z 33020G27KT 10SM BKN065 08/M07 A2998  1020 34 400 330/20G27 RMK AO2 PK WND 33027/2141
94908KDBQ DBQ20050423155013904/23/05 15:50:31  5-MIN KDBQ 232150Z 33017G24KT 10SM BKN065 07/M08 A2998  1020 33 400 330/17G24 RMK AO2 PK WND 33027/2141 SLP161 T00721078
94908KDBQ DBQ20050423155513904/23/05 15:55:31  5-MIN KDBQ 232155Z 35014G20KT 10SM BKN070 08/M07 A2998  1020 34 400 350/14G20 RMK AO2 PK WND 33027/2141 SLP161 T00781072
94908KDBQ DBQ20050423160010404/23/05 16:00:31  5-MIN KDBQ 232200Z 34016G23KT 10SM BKN070 07/M08 A2998  1020 33 400 340/16G23 RMK AO2
94908KDBQ DBQ20050423160510404/23/05 16:05:31  5-MIN KDBQ 232205Z 33016G23KT 10SM BKN070 08/M07 A2998  1020 34 400 330/16G23 RMK AO2
94908KDBQ DBQ20050423161010404/23/05 16:10:31  5-MIN KDBQ 232210Z 34018G23KT 10SM BKN070 07/M07 A2998  1020 35 400 340/18G23 RMK AO2
94908KDBQ DBQ20050423161510404/23/05 16:15:31  5-MIN KDBQ 232215Z 33020G25KT 10SM OVC070 07/M08 A2998  1020 33 400 330/20G25 RMK AO2
94908KDBQ DBQ20050423162010404/23/05 16:20:31  5-MIN KDBQ 232220Z 34018G25KT 10SM BKN070 07/M07 A2998  1020 35 400 340/18G25 RMK AO2
94908KDBQ DBQ20050423162512204/23/05 16:25:31  5-MIN KDBQ 232225Z 34017G26KT 10SM OVC070 07/M07 A2998  1020 35 400 340/17G26 RMK AO2 PK WND 33026/2222
94908KDBQ DBQ20050423163012204/23/05 16:30:31  5-MIN KDBQ 232230Z 34019G26KT 10SM OVC070 08/M07 A2998  1020 34 400 340/19G26 RMK AO2 PK WND 33026/2222
94908KDBQ DBQ20050423163512204/23/05 16:35:31  5-MIN KDBQ 232235Z 33018G23KT 10SM OVC070 08/M07 A2998  1020 34 400 330/18G23 RMK AO2 PK WND 33026/2222
94908KDBQ DBQ20050423164012204/23/05 16:40:31  5-MIN KDBQ 232240Z 35019G23KT 10SM OVC070 08/M07 A2998  1020 34 400 350/19G23 RMK AO2 PK WND 33026/2222
94908KDBQ DBQ20050423164512204/23/05 16:45:31  5-MIN KDBQ 232245Z 36017G23KT 10SM OVC070 08/M08 A2998  1020 32 400 360/17G23 RMK AO2 PK WND 33026/2222
94908KDBQ DBQ20050423165013904/23/05 16:50:31  5-MIN KDBQ 232250Z 33018G25KT 10SM OVC070 08/M07 A2998  1020 34 400 330/18G25 RMK AO2 PK WND 33026/2222 SLP161 T00781072
94908KDBQ DBQ20050423165513904/23/05 16:55:31  5-MIN KDBQ 232255Z 34018G28KT 10SM OVC070 07/M08 A2998  1020 33 400 340/18G28 RMK AO2 PK WND 34028/2251 SLP161 T00721078
94908KDBQ DBQ20050423170010404/23/05 17:00:31  5-MIN KDBQ 232300Z 35017G28KT 10SM OVC070 07/M08 A2998  1020 33 300 350/17G28 RMK AO2
94908KDBQ DBQ20050423170510404/23/05 17:05:31  5-MIN KDBQ 232305Z 36017G24KT 10SM OVC070 06/M08 A2998  1020 35 200 360/17G24 RMK AO2
94908KDBQ DBQ20050423171010404/23/05 17:10:31  5-MIN KDBQ 232310Z 34016G24KT 10SM BKN070 07/M08 A2998  1020 33 300 340/16G24 RMK AO2
94908KDBQ DBQ20050423171510404/23/05 17:15:31  5-MIN KDBQ 232315Z 33017G22KT 10SM BKN070 07/M08 A2998  1020 33 300 330/17G22 RMK AO2
94908KDBQ DBQ20050423172010404/23/05 17:20:31  5-MIN KDBQ 232320Z 35016G24KT 10SM BKN070 07/M08 A2998  1020 32 400 340/16G24 RMK AO2
94908KDBQ DBQ20050423172510404/23/05 17:25:31  5-MIN KDBQ 232325Z 34016G24KT 10SM OVC070 07/M08 A2998  1020 32 400 340/16G24 RMK AO2
94908KDBQ DBQ20050423173010404/23/05 17:30:31  5-MIN KDBQ 232330Z 35015G21KT 10SM OVC070 07/M08 A2998  1020 32 400 350/15G21 RMK AO2
94908KDBQ DBQ20050423173510404/23/05 17:35:31  5-MIN KDBQ 232335Z 36014G21KT 10SM BKN070 07/M08 A2998  1020 33 300 360/14G21 RMK AO2
94908KDBQ DBQ20050423174010404/23/05 17:40:31  5-MIN KDBQ 232340Z 01016G21KT 10SM BKN070 07/M09 A2998  1020 32 300 010/16G21 RMK AO2
94908KDBQ DBQ20050423174510404/23/05 17:45:31  5-MIN KDBQ 232345Z 36014G23KT 10SM OVC070 07/M09 A2998  1020 32 300 360/14G23 RMK AO2
94908KDBQ DBQ20050423175013904/23/05 17:50:31  5-MIN KDBQ 232350Z 36017G23KT 10SM OVC075 07/M08 A2998  1020 33 300 350/17G23 RMK AO2 SLP162 T00671083 10078 20056 58008
94908KDBQ DBQ20050423175513904/23/05 17:55:31  5-MIN KDBQ 232355Z 36014G23KT 10SM BKN075 06/M09 A2998  1020 33 200 360/14G23 RMK AO2 SLP164 T00611089 10078 20056 55001
94908KDBQ DBQ20050423180009704/23/05 18:00:31  5-MIN KDBQ 240000Z 36014KT 10SM OVC075 06/M09 A2998 1020 33 200 350/14 RMK AO2
94908KDBQ DBQ20050423180509704/23/05 18:05:31  5-MIN KDBQ 240005Z 36015KT 10SM OVC075 06/M09 A2998 1020 32 200 360/15 RMK AO2
94908KDBQ DBQ20050423181009704/23/05 18:10:31  5-MIN KDBQ 240010Z 36013KT 10SM BKN075 06/M09 A2999 1020 32 200 360/13 RMK AO2
94908KDBQ DBQ20050423181510404/23/05 18:15:31  5-MIN KDBQ 240015Z 35014G20KT 10SM BKN075 06/M10 A2998  1020 32 200 350/14G20 RMK AO2
94908KDBQ DBQ20050423182010404/23/05 18:20:31  5-MIN KDBQ 240020Z 36016G21KT 10SM SCT075 06/M10 A2998  1020 32 200 360/16G21 RMK AO2
94908KDBQ DBQ20050423182511404/23/05 18:25:31  5-MIN KDBQ 240025Z AUTO 36012G21KT 10SM SCT075 06/M10  A2998 1020 32 200 360/12G21 RMK AO2 TSNO
94908KDBQ DBQ20050423183011404/23/05 18:30:31  5-MIN KDBQ 240030Z AUTO 36014G21KT 10SM FEW070 06/M10  A2998 1020 32 200 360/14G21 RMK AO2 TSNO
94908KDBQ DBQ20050423183511404/23/05 18:35:31  5-MIN KDBQ 240035Z AUTO 36014G21KT 10SM FEW070 06/M11  A2998 1020 30 200 360/14G21 RMK AO2 TSNO
94908KDBQ DBQ20050423184010704/23/05 18:40:31  5-MIN KDBQ 240040Z AUTO 36014KT 10SM FEW075 05/M10 A2998 1020 33 100 360/14 RMK AO2 TSNO
94908KDBQ DBQ20050423184510704/23/05 18:45:31  5-MIN KDBQ 240045Z AUTO 35013KT 10SM FEW070 05/M10 A2999 1020 33 100 350/13 RMK AO2 TSNO
94908KDBQ DBQ20050423185012204/23/05 18:50:31  5-MIN KDBQ 240050Z AUTO 36013KT 10SM FEW070 04/M10 A2999 1020 34 0 350/13 RMK AO2 SLP164 T00441100 TSNO
94908KDBQ DBQ20050423185512404/23/05 18:55:31  5-MIN KDBQ 240055Z AUTO 35014KT 10SM FEW075 05/M11 A2999 1020 31 100 350/14 RMK AO2 SLP164 T00501106 TSNO
94908KDBQ DBQ20050423190010504/23/05 19:00:31  5-MIN KDBQ 240100Z AUTO 36013KT 10SM FEW075 04/M11 A2998 1020 33 0 360/13 RMK AO2 TSNO
94908KDBQ DBQ20050423190510304/23/05 19:05:31  5-MIN KDBQ 240105Z AUTO 35012KT 10SM CLR 04/M11 A2999  1020 33 0 350/12 RMK AO2 TSNO
94908KDBQ DBQ20050423191010304/23/05 19:10:31  5-MIN KDBQ 240110Z AUTO 35011KT 10SM CLR 04/M11 A2999  1020 33 0 350/11 RMK AO2 TSNO
94908KDBQ DBQ20050423191510304/23/05 19:15:31  5-MIN KDBQ 240115Z AUTO 36014KT 10SM CLR 04/M11 A2999  1020 31 0 350/14 RMK AO2 TSNO
94908KDBQ DBQ20050423192010304/23/05 19:20:31  5-MIN KDBQ 240120Z AUTO 35012KT 10SM CLR 04/M11 A2999  1020 31 0 350/12 RMK AO2 TSNO
94908KDBQ DBQ20050423192510304/23/05 19:25:31  5-MIN KDBQ 240125Z AUTO 35011KT 10SM CLR 04/M11 A2999  1010 32 0 350/11 RMK AO2 TSNO
94908KDBQ DBQ20050423193010304/23/05 19:30:31  5-MIN KDBQ 240130Z AUTO 36010KT 10SM CLR 04/M11 A2999  1020 34 0 350/10 RMK AO2 TSNO
94908KDBQ DBQ20050423193510604/23/05 19:35:31  5-MIN KDBQ 240135Z AUTO 35010KT 10SM CLR 03/M11 A2999  1010 35 -100 350/10 RMK AO2 TSNO
94908KDBQ DBQ20050423194010604/23/05 19:40:31  5-MIN KDBQ 240140Z AUTO 35010KT 10SM CLR 03/M10 A2999  1010 37 -100 350/10 RMK AO2 TSNO
94908KDBQ DBQ20050423194510604/23/05 19:45:31  5-MIN KDBQ 240145Z AUTO 35011KT 10SM CLR 03/M10 A2999  1010 37 -100 350/11 RMK AO2 TSNO
94908KDBQ DBQ20050423195012304/23/05 19:50:31  5-MIN KDBQ 240150Z AUTO 36010KT 10SM CLR 03/M11 A2999  1010 35 -100 360/10 RMK AO2 SLP167 T00331106 TSNO
94908KDBQ DBQ20050423195512304/23/05 19:55:31  5-MIN KDBQ 240155Z AUTO 35012KT 10SM CLR 03/M11 A3000  1010 35 -100 350/12 RMK AO2 SLP167 T00331106 TSNO
94908KDBQ DBQ20050423200010604/23/05 20:00:31  5-MIN KDBQ 240200Z AUTO 35012KT 10SM CLR 03/M11 A3000  1010 35 -100 350/12 RMK AO2 TSNO
94908KDBQ DBQ20050423200510604/23/05 20:05:31  5-MIN KDBQ 240205Z AUTO 36010KT 10SM CLR 03/M11 A3000  1010 35 -100 360/10 RMK AO2 TSNO
94908KDBQ DBQ20050423201010604/23/05 20:10:31  5-MIN KDBQ 240210Z AUTO 36011KT 10SM CLR 03/M11 A3000  1010 34 -100 360/11 RMK AO2 TSNO
94908KDBQ DBQ20050423201510604/23/05 20:15:31  5-MIN KDBQ 240215Z AUTO 36011KT 10SM CLR 03/M11 A3000  1010 34 -100 360/11 RMK AO2 TSNO
94908KDBQ DBQ20050423202010604/23/05 20:20:31  5-MIN KDBQ 240220Z AUTO 36010KT 10SM CLR 03/M11 A3000  1000 34 -100 360/10 RMK AO2 TSNO
94908KDBQ DBQ20050423202510604/23/05 20:25:31  5-MIN KDBQ 240225Z AUTO 36011KT 10SM CLR 03/M11 A3000  1000 34 -100 360/11 RMK AO2 TSNO
94908KDBQ DBQ20050423203010604/23/05 20:30:31  5-MIN KDBQ 240230Z AUTO 36011KT 10SM CLR 03/M11 A3000  1000 34 -100 360/11 RMK AO2 TSNO
94908KDBQ DBQ20050423203510604/23/05 20:35:31  5-MIN KDBQ 240235Z AUTO 36010KT 10SM CLR 03/M11 A3000  1000 34 -100 360/10 RMK AO2 TSNO
94908KDBQ DBQ20050423204010604/23/05 20:40:31  5-MIN KDBQ 240240Z AUTO 36010KT 10SM CLR 03/M11 A3000  1000 37 -200 350/10 RMK AO2 TSNO
94908KDBQ DBQ20050423204510604/23/05 20:45:31  5-MIN KDBQ 240245Z AUTO 36012KT 10SM CLR 03/M11 A3000  1000 37 -200 360/12 RMK AO2 TSNO
94908KDBQ DBQ20050423205012904/23/05 20:50:31  5-MIN KDBQ 240250Z AUTO 36012KT 10SM CLR 03/M11 A3001  1000 34 -100 360/12 RMK AO2 SLP169 T00331111 55001 TSNO
94908KDBQ DBQ20050423205512904/23/05 20:55:31  5-MIN KDBQ 240255Z AUTO 36010KT 10SM CLR 03/M11 A3000  1000 37 -200 360/10 RMK AO2 SLP170 T00281106 53006 TSNO
94908KDBQ DBQ20050423210010604/23/05 21:00:31  5-MIN KDBQ 240300Z AUTO 36011KT 10SM CLR 03/M11 A3000  1000 35 -100 360/11 RMK AO2 TSNO
94908KDBQ DBQ20050423210510604/23/05 21:05:31  5-MIN KDBQ 240305Z AUTO 36012KT 10SM CLR 03/M11 A3000  1000 35 -100 360/12 RMK AO2 TSNO
94908KDBQ DBQ20050423211010604/23/05 21:10:31  5-MIN KDBQ 240310Z AUTO 36010KT 10SM CLR 03/M11 A3000  1000 35 -100 360/10 RMK AO2 TSNO
94908KDBQ DBQ20050423211510604/23/05 21:15:31  5-MIN KDBQ 240315Z AUTO 36010KT 10SM CLR 03/M11 A3000  1000 35 -100 360/10 RMK AO2 TSNO
94908KDBQ DBQ20050423212010604/23/05 21:20:31  5-MIN KDBQ 240320Z AUTO 36009KT 10SM CLR 03/M11 A3000  1000 35 -100 360/09 RMK AO2 TSNO
94908KDBQ DBQ20050423212510604/23/05 21:25:31  5-MIN KDBQ 240325Z AUTO 36009KT 10SM CLR 02/M11 A3000  1000 38 -200 360/09 RMK AO2 TSNO
94908KDBQ DBQ20050423213010604/23/05 21:30:31  5-MIN KDBQ 240330Z AUTO 36009KT 10SM CLR 02/M11 A3000  1000 38 -200 360/09 RMK AO2 TSNO
94908KDBQ DBQ20050423213510604/23/05 21:35:31  5-MIN KDBQ 240335Z AUTO 36011KT 10SM CLR 02/M11 A3000  1000 38 -200 360/11 RMK AO2 TSNO
94908KDBQ DBQ20050423214010604/23/05 21:40:31  5-MIN KDBQ 240340Z AUTO 36008KT 10SM CLR 02/M11 A3000  1010 38 -200 360/08 RMK AO2 TSNO
94908KDBQ DBQ20050423214510604/23/05 21:45:31  5-MIN KDBQ 240345Z AUTO 36008KT 10SM CLR 02/M11 A3000  1000 38 -200 360/08 RMK AO2 TSNO
94908KDBQ DBQ20050423215012304/23/05 21:50:31  5-MIN KDBQ 240350Z AUTO 35009KT 10SM CLR 02/M11 A3000  1010 40 -300 350/09 RMK AO2 SLP167 T00171106 TSNO
94908KDBQ DBQ20050423215512304/23/05 21:55:31  5-MIN KDBQ 240355Z AUTO 35009KT 10SM CLR 02/M10 A3000  1010 42 -300 350/09 RMK AO2 SLP168 T00171100 TSNO
94908KDBQ DBQ20050423220010604/23/05 22:00:31  5-MIN KDBQ 240400Z AUTO 35008KT 10SM CLR 01/M10 A3000  1010 43 -400 350/08 RMK AO2 TSNO
94908KDBQ DBQ20050423220510604/23/05 22:05:31  5-MIN KDBQ 240405Z AUTO 35008KT 10SM CLR 01/M10 A3000  1010 43 -300 350/08 RMK AO2 TSNO
94908KDBQ DBQ20050423221010604/23/05 22:10:31  5-MIN KDBQ 240410Z AUTO 35009KT 10SM CLR 01/M10 A3000  1010 43 -300 350/09 RMK AO2 TSNO
94908KDBQ DBQ20050423221510604/23/05 22:15:31  5-MIN KDBQ 240415Z AUTO 35009KT 10SM CLR 01/M10 A2999  1010 43 -300 340/09 RMK AO2 TSNO
94908KDBQ DBQ20050423222010604/23/05 22:20:31  5-MIN KDBQ 240420Z AUTO 34009KT 10SM CLR 01/M10 A2999  1010 43 -300 340/09 RMK AO2 TSNO
94908KDBQ DBQ20050423222510604/23/05 22:25:31  5-MIN KDBQ 240425Z AUTO 35010KT 10SM CLR 01/M10 A2999  1010 43 -300 350/10 RMK AO2 TSNO
94908KDBQ DBQ20050423223010604/23/05 22:30:31  5-MIN KDBQ 240430Z AUTO 34009KT 10SM CLR 01/M10 A2999  1010 43 -300 340/09 RMK AO2 TSNO
94908KDBQ DBQ20050423223510604/23/05 22:35:31  5-MIN KDBQ 240435Z AUTO 34009KT 10SM CLR 01/M10 A2999  1010 43 -300 340/09 RMK AO2 TSNO
94908KDBQ DBQ20050423224010604/23/05 22:40:31  5-MIN KDBQ 240440Z AUTO 34010KT 10SM CLR 01/M10 A2999  1010 43 -300 340/10 RMK AO2 TSNO
94908KDBQ DBQ20050423224510604/23/05 22:45:31  5-MIN KDBQ 240445Z AUTO 34010KT 10SM CLR 01/M10 A2999  1010 43 -300 340/10 RMK AO2 TSNO
94908KDBQ DBQ20050423225012304/23/05 22:50:31  5-MIN KDBQ 240450Z AUTO 34011KT 10SM CLR 01/M10 A2999  1010 43 -300 340/11 RMK AO2 SLP165 T00111100 TSNO
94908KDBQ DBQ20050423225512304/23/05 22:55:31  5-MIN KDBQ 240455Z AUTO 34010KT 10SM CLR 02/M10 A2999  1010 42 -300 340/10 RMK AO2 SLP164 T00171100 TSNO
94908KDBQ DBQ20050423230010604/23/05 23:00:31  5-MIN KDBQ 240500Z AUTO 34011KT 10SM CLR 01/M10 A2999  1010 43 -300 340/11 RMK AO2 TSNO
94908KDBQ DBQ20050423230510604/23/05 23:05:31  5-MIN KDBQ 240505Z AUTO 34010KT 10SM CLR 01/M10 A2999  1010 43 -300 340/10 RMK AO2 TSNO
94908KDBQ DBQ20050423231010604/23/05 23:10:31  5-MIN KDBQ 240510Z AUTO 33010KT 10SM CLR 01/M10 A2999  1010 43 -300 330/10 RMK AO2 TSNO
94908KDBQ DBQ20050423231510604/23/05 23:15:31  5-MIN KDBQ 240515Z AUTO 33010KT 10SM CLR 01/M10 A2999  1010 43 -300 330/10 RMK AO2 TSNO
94908KDBQ DBQ20050423232010604/23/05 23:20:31  5-MIN KDBQ 240520Z AUTO 34011KT 10SM CLR 01/M10 A2999  1010 43 -300 330/11 RMK AO2 TSNO
94908KDBQ DBQ20050423232510604/23/05 23:25:31  5-MIN KDBQ 240525Z AUTO 34010KT 10SM CLR 01/M10 A2999  1020 43 -300 340/10 RMK AO2 TSNO
94908KDBQ DBQ20050423233010604/23/05 23:30:31  5-MIN KDBQ 240530Z AUTO 34011KT 10SM CLR 01/M10 A2999  1020 43 -300 340/11 RMK AO2 TSNO
94908KDBQ DBQ20050423233510604/23/05 23:35:31  5-MIN KDBQ 240535Z AUTO 34011KT 10SM CLR 01/M10 A2999  1020 43 -300 340/11 RMK AO2 TSNO
94908KDBQ DBQ20050423234010604/23/05 23:40:31  5-MIN KDBQ 240540Z AUTO 34011KT 10SM CLR 01/M10 A2999  1020 43 -300 340/11 RMK AO2 TSNO
94908KDBQ DBQ20050423234510604/23/05 23:45:31  5-MIN KDBQ 240545Z AUTO 34013KT 10SM CLR 01/M10 A2999  1020 43 -300 340/13 RMK AO2 TSNO
94908KDBQ DBQ20050423235015204/23/05 23:50:31  5-MIN KDBQ 240550Z AUTO 34011KT 10SM CLR 02/M10 A2998  1020 42 -300 340/11 RMK AO2 SLP163 T00171100 10061 20011 400781006 53006  TSNO
94908KDBQ DBQ20050423235515204/23/05 23:55:31  5-MIN KDBQ 240555Z AUTO 34010KT 10SM CLR 02/M10 A2998  1020 42 -300 340/10 RMK AO2 SLP162 T00171100 10061 20011 400781006 57006  TSNO
94908KDBQ DBQ20050424000010604/24/05 00:00:38  5-MIN KDBQ 240600Z AUTO 34014KT 10SM CLR 01/M10 A2998  1020 43 -300 340/14 RMK AO2 TSNO
94908KDBQ DBQ20050424000510604/24/05 00:05:31  5-MIN KDBQ 240605Z AUTO 34013KT 10SM CLR 02/M10 A2998  1020 42 -300 340/13 RMK AO2 TSNO
94908KDBQ DBQ20050424001010604/24/05 00:10:31  5-MIN KDBQ 240610Z AUTO 35014KT 10SM CLR 02/M10 A2998  1020 42 -300 340/14 RMK AO2 TSNO
94908KDBQ DBQ20050424001510604/24/05 00:15:33  5-MIN KDBQ 240615Z AUTO 35014KT 10SM CLR 02/M10 A2998  1020 42 -300 350/14 RMK AO2 TSNO
94908KDBQ DBQ20050424002010604/24/05 00:20:31  5-MIN KDBQ 240620Z AUTO 35012KT 10SM CLR 02/M10 A2998  1020 42 -300 350/12 RMK AO2 TSNO
94908KDBQ DBQ20050424002510604/24/05 00:25:31  5-MIN KDBQ 240625Z AUTO 35011KT 10SM CLR 02/M10 A2998  1020 42 -300 350/11 RMK AO2 TSNO
94908KDBQ DBQ20050424003010604/24/05 00:30:31  5-MIN KDBQ 240630Z AUTO 35011KT 10SM CLR 02/M10 A2998  1030 42 -300 350/11 RMK AO2 TSNO
94908KDBQ DBQ20050424003510604/24/05 00:35:31  5-MIN KDBQ 240635Z AUTO 35011KT 10SM CLR 01/M10 A2998  1030 43 -300 350/11 RMK AO2 TSNO
94908KDBQ DBQ20050424004010604/24/05 00:40:31  5-MIN KDBQ 240640Z AUTO 35012KT 10SM CLR 02/M10 A2997  1030 42 -300 350/12 RMK AO2 TSNO
94908KDBQ DBQ20050424004510604/24/05 00:45:31  5-MIN KDBQ 240645Z AUTO 36012KT 10SM CLR 02/M10 A2997  1030 42 -300 360/12 RMK AO2 TSNO
94908KDBQ DBQ20050424005012304/24/05 00:50:31  5-MIN KDBQ 240650Z AUTO 35011KT 10SM CLR 02/M10 A2997  1030 42 -200 350/11 RMK AO2 SLP158 T00171100 TSNO
94908KDBQ DBQ20050424005512304/24/05 00:55:31  5-MIN KDBQ 240655Z AUTO 35012KT 10SM CLR 02/M10 A2997  1030 42 -200 350/12 RMK AO2 SLP158 T00171100 TSNO
94908KDBQ DBQ20050424010010604/24/05 01:00:31  5-MIN KDBQ 240700Z AUTO 35012KT 10SM CLR 02/M09 A2997  1030 43 -200 350/12 RMK AO2 TSNO
94908KDBQ DBQ20050424010510604/24/05 01:05:31  5-MIN KDBQ 240705Z AUTO 34011KT 10SM CLR 02/M10 A2997  1030 42 -200 340/11 RMK AO2 TSNO
94908KDBQ DBQ20050424011010604/24/05 01:10:31  5-MIN KDBQ 240710Z AUTO 34011KT 10SM CLR 01/M09 A2997  1030 45 -300 340/11 RMK AO2 TSNO
94908KDBQ DBQ20050424011510604/24/05 01:15:31  5-MIN KDBQ 240715Z AUTO 33010KT 10SM CLR 01/M09 A2997  1030 45 -300 330/10 RMK AO2 TSNO
94908KDBQ DBQ20050424012010604/24/05 01:20:31  5-MIN KDBQ 240720Z AUTO 33010KT 10SM CLR 01/M09 A2997  1030 45 -300 330/10 RMK AO2 TSNO
94908KDBQ DBQ20050424012510604/24/05 01:25:31  5-MIN KDBQ 240725Z AUTO 34011KT 10SM CLR 01/M09 A2997  1030 49 -400 340/11 RMK AO2 TSNO
94908KDBQ DBQ20050424013010604/24/05 01:30:31  5-MIN KDBQ 240730Z AUTO 34010KT 10SM CLR 01/M09 A2997  1040 49 -400 340/10 RMK AO2 TSNO
94908KDBQ DBQ20050424013510604/24/05 01:35:31  5-MIN KDBQ 240735Z AUTO 34011KT 10SM CLR 01/M09 A2996  1040 49 -400 330/11 RMK AO2 TSNO
94908KDBQ DBQ20050424014010604/24/05 01:40:31  5-MIN KDBQ 240740Z AUTO 34010KT 10SM CLR 01/M09 A2996  1040 49 -400 330/10 RMK AO2 TSNO
94908KDBQ DBQ20050424014510604/24/05 01:45:31  5-MIN KDBQ 240745Z AUTO 34010KT 10SM CLR 01/M09 A2996  1040 49 -400 330/10 RMK AO2 TSNO
94908KDBQ DBQ20050424015012304/24/05 01:50:31  5-MIN KDBQ 240750Z AUTO 34010KT 10SM CLR 01/M09 A2996  1040 49 -400 330/10 RMK AO2 SLP155 T00061089 TSNO
94908KDBQ DBQ20050424015512304/24/05 01:55:31  5-MIN KDBQ 240755Z AUTO 33012KT 10SM CLR 01/M09 A2996  1040 47 -300 330/12 RMK AO2 SLP154 T00111089 TSNO
94908KDBQ DBQ20050424020010604/24/05 02:00:31  5-MIN KDBQ 240800Z AUTO 33011KT 10SM CLR 01/M09 A2996  1040 47 -300 330/11 RMK AO2 TSNO
94908KDBQ DBQ20050424020510604/24/05 02:05:31  5-MIN KDBQ 240805Z AUTO 33011KT 10SM CLR 01/M09 A2996  1040 49 -400 330/11 RMK AO2 TSNO
94908KDBQ DBQ20050424021010604/24/05 02:10:31  5-MIN KDBQ 240810Z AUTO 33011KT 10SM CLR 01/M09 A2996  1040 47 -300 330/11 RMK AO2 TSNO
94908KDBQ DBQ20050424021510604/24/05 02:15:31  5-MIN KDBQ 240815Z AUTO 33010KT 10SM CLR 01/M08 A2996  1040 51 -400 330/10 RMK AO2 TSNO
94908KDBQ DBQ20050424022010604/24/05 02:20:31  5-MIN KDBQ 240820Z AUTO 33010KT 10SM CLR 01/M08 A2996  1040 51 -400 330/10 RMK AO2 TSNO
94908KDBQ DBQ20050424022510604/24/05 02:25:31  5-MIN KDBQ 240825Z AUTO 33009KT 10SM CLR 01/M08 A2996  1040 51 -400 330/09 RMK AO2 TSNO
94908KDBQ DBQ20050424023010604/24/05 02:30:31  5-MIN KDBQ 240830Z AUTO 33010KT 10SM CLR 01/M08 A2996  1040 51 -400 330/10 RMK AO2 TSNO
94908KDBQ DBQ20050424023510604/24/05 02:35:31  5-MIN KDBQ 240835Z AUTO 33010KT 10SM CLR 01/M08 A2996  1050 51 -400 330/10 RMK AO2 TSNO
94908KDBQ DBQ20050424024010604/24/05 02:40:31  5-MIN KDBQ 240840Z AUTO 33011KT 10SM CLR 01/M08 A2995  1050 51 -400 330/11 RMK AO2 TSNO
94908KDBQ DBQ20050424024510604/24/05 02:45:31  5-MIN KDBQ 240845Z AUTO 33011KT 10SM CLR 01/M08 A2995  1050 51 -400 330/11 RMK AO2 TSNO
94908KDBQ DBQ20050424025012904/24/05 02:50:31  5-MIN KDBQ 240850Z AUTO 33011KT 10SM CLR 01/M08 A2995  1050 51 -400 330/11 RMK AO2 SLP152 T00061083 57006 TSNO
94908KDBQ DBQ20050424025512904/24/05 02:55:31  5-MIN KDBQ 240855Z AUTO 33010KT 10SM CLR 01/M08 A2995  1050 51 -400 330/10 RMK AO2 SLP151 T00061083 56010 TSNO
94908KDBQ DBQ20050424030010604/24/05 03:00:31  5-MIN KDBQ 240900Z AUTO 33011KT 10SM CLR 01/M08 A2995  1050 51 -400 330/11 RMK AO2 TSNO
94908KDBQ DBQ20050424030510604/24/05 03:05:31  5-MIN KDBQ 240905Z AUTO 33013KT 10SM CLR 01/M08 A2995  1050 51 -400 330/13 RMK AO2 TSNO
94908KDBQ DBQ20050424031010604/24/05 03:10:31  5-MIN KDBQ 240910Z AUTO 33013KT 10SM CLR 01/M08 A2995  1050 51 -400 330/13 RMK AO2 TSNO
94908KDBQ DBQ20050424031510604/24/05 03:15:31  5-MIN KDBQ 240915Z AUTO 33012KT 10SM CLR 01/M08 A2995  1050 51 -400 330/12 RMK AO2 TSNO
94908KDBQ DBQ20050424032010604/24/05 03:20:31  5-MIN KDBQ 240920Z AUTO 33011KT 10SM CLR 01/M09 A2995  1050 49 -400 330/11 RMK AO2 TSNO
94908KDBQ DBQ20050424032510604/24/05 03:25:31  5-MIN KDBQ 240925Z AUTO 34012KT 10SM CLR 01/M08 A2995  1050 51 -400 340/12 RMK AO2 TSNO
94908KDBQ DBQ20050424033010604/24/05 03:30:31  5-MIN KDBQ 240930Z AUTO 33013KT 10SM CLR 01/M09 A2995  1060 49 -400 330/13 RMK AO2 TSNO
94908KDBQ DBQ20050424033510604/24/05 03:35:31  5-MIN KDBQ 240935Z AUTO 34014KT 10SM CLR 01/M09 A2994  1060 47 -300 340/14 RMK AO2 TSNO
94908KDBQ DBQ20050424034010604/24/05 03:40:31  5-MIN KDBQ 240940Z AUTO 34014KT 10SM CLR 01/M09 A2994  1060 47 -300 340/14 RMK AO2 TSNO
94908KDBQ DBQ20050424034510604/24/05 03:45:31  5-MIN KDBQ 240945Z AUTO 34013KT 10SM CLR 01/M09 A2994  1060 47 -300 340/13 RMK AO2 TSNO
94908KDBQ DBQ20050424035012304/24/05 03:50:31  5-MIN KDBQ 240950Z AUTO 33014KT 10SM CLR 01/M09 A2994  1060 47 -300 330/14 RMK AO2 SLP147 T00111089 TSNO
94908KDBQ DBQ20050424035512804/24/05 03:55:31  5-MIN KDBQ 240955Z AUTO 34017G21KT 10SM CLR 01/M09 A2994 1060 47 -300 340/17G21 RMK AO2 SLP147 T00111089 TSNO
94908KDBQ DBQ20050424040011104/24/05 04:00:31  5-MIN KDBQ 241000Z AUTO 34015G21KT 10SM CLR 01/M08 A2994 1060 49 -300 340/15G21 RMK AO2 TSNO
94908KDBQ DBQ20050424040510604/24/05 04:05:31  5-MIN KDBQ 241005Z AUTO 34017KT 10SM CLR 01/M09 A2994  1060 47 -300 340/17 RMK AO2 TSNO
94908KDBQ DBQ20050424041010604/24/05 04:10:31  5-MIN KDBQ 241010Z AUTO 34016KT 10SM CLR 01/M08 A2994  1060 49 -300 340/16 RMK AO2 TSNO
94908KDBQ DBQ20050424041510604/24/05 04:15:31  5-MIN KDBQ 241015Z AUTO 34014KT 10SM CLR 01/M08 A2993  1070 49 -300 340/14 RMK AO2 TSNO
94908KDBQ DBQ20050424042010604/24/05 04:20:31  5-MIN KDBQ 241020Z AUTO 34014KT 10SM CLR 01/M08 A2993  1070 51 -300 340/14 RMK AO2 TSNO
94908KDBQ DBQ20050424042510604/24/05 04:25:31  5-MIN KDBQ 241025Z AUTO 35015KT 10SM CLR 01/M08 A2993  1070 51 -300 340/15 RMK AO2 TSNO
94908KDBQ DBQ20050424043010604/24/05 04:30:31  5-MIN KDBQ 241030Z AUTO 34014KT 10SM CLR 01/M08 A2993  1070 51 -300 340/14 RMK AO2 TSNO
94908KDBQ DBQ20050424043510604/24/05 04:35:31  5-MIN KDBQ 241035Z AUTO 34012KT 10SM CLR 01/M08 A2993  1070 51 -300 340/12 RMK AO2 TSNO
94908KDBQ DBQ20050424044010604/24/05 04:40:31  5-MIN KDBQ 241040Z AUTO 34011KT 10SM CLR 01/M08 A2993  1070 51 -300 340/11 RMK AO2 TSNO
94908KDBQ DBQ20050424044510604/24/05 04:45:31  5-MIN KDBQ 241045Z AUTO 34014KT 10SM CLR 01/M08 A2993  1070 51 -300 340/14 RMK AO2 TSNO
94908KDBQ DBQ20050424045012304/24/05 04:50:31  5-MIN KDBQ 241050Z AUTO 34013KT 10SM CLR 01/M08 A2993  1070 51 -300 340/13 RMK AO2 SLP142 T00061083 TSNO
94908KDBQ DBQ20050424045511804/24/05 04:55:31  5-MIN KDBQ 241055Z 34011G19KT 10SM CLR 01/M08 A2992 1080 51 -300 340/11G19 RMK AO2 SLP141 T00061083
94908KDBQ DBQ20050424050009504/24/05 05:00:31  5-MIN KDBQ 241100Z 34012KT 10SM CLR 01/M08 A2992 1080 54 -300 340/12 RMK AO2
94908KDBQ DBQ20050424050509504/24/05 05:05:31  5-MIN KDBQ 241105Z 34014KT 10SM CLR 01/M08 A2992 1080 54 -300 330/14 RMK AO2
94908KDBQ DBQ20050424051009504/24/05 05:10:31  5-MIN KDBQ 241110Z 34013KT 10SM CLR 01/M08 A2992 1080 54 -300 340/13 RMK AO2
94908KDBQ DBQ20050424051509504/24/05 05:15:31  5-MIN KDBQ 241115Z 34014KT 10SM CLR 01/M08 A2992 1080 54 -300 340/14 RMK AO2
94908KDBQ DBQ20050424052009504/24/05 05:20:31  5-MIN KDBQ 241120Z 34013KT 10SM CLR 01/M08 A2992 1080 54 -300 340/13 RMK AO2
94908KDBQ DBQ20050424052510104/24/05 05:25:31  5-MIN KDBQ 241125Z 34015G19KT 10SM CLR 01/M08 A2992 1080 54 -300 340/15G19 RMK AO2
94908KDBQ DBQ20050424053010104/24/05 05:30:31  5-MIN KDBQ 241130Z 34014G19KT 10SM CLR 01/M08 A2991 1080 54 -300 340/14G19 RMK AO2
94908KDBQ DBQ20050424053510104/24/05 05:35:31  5-MIN KDBQ 241135Z 34016G21KT 10SM CLR 01/M07 A2991 1080 56 -300 340/16G21 RMK AO2
94908KDBQ DBQ20050424054009504/24/05 05:40:31  5-MIN KDBQ 241140Z 34016KT 10SM CLR 01/M07 A2991 1080 54 -300 340/16 RMK AO2
94908KDBQ DBQ20050424054509504/24/05 05:45:31  5-MIN KDBQ 241145Z 33016KT 10SM CLR 01/M07 A2991 1090 54 -300 330/16 RMK AO2
94908KDBQ DBQ20050424055013004/24/05 05:50:31  5-MIN KDBQ 241150Z 34016KT 10SM CLR 01/M07 A2991 1090 54 -300 330/16 RMK AO2 SLP138 T00111072 10017 20006 56010
94908KDBQ DBQ20050424055513604/24/05 05:55:31  5-MIN KDBQ 241155Z 33018G23KT 10SM CLR 02/M07 A2991 1090 52 -200 330/18G23 RMK AO2 SLP138 T00171072 10017 20006 56013
94908KDBQ DBQ20050424060010104/24/05 06:00:31  5-MIN KDBQ 241200Z 34016G23KT 10SM CLR 02/M07 A2991 1090 52 -200 340/16G23 RMK AO2
94908KDBQ DBQ20050424060509504/24/05 06:05:31  5-MIN KDBQ 241205Z 34015KT 10SM CLR 02/M07 A2991 1090 54 -200 340/15 RMK AO2
94908KDBQ DBQ20050424061010104/24/05 06:10:31  5-MIN KDBQ 241210Z 35017G23KT 10SM CLR 02/M07 A2991 1080 54 -200 340/17G23 RMK AO2
94908KDBQ DBQ20050424061510104/24/05 06:15:31  5-MIN KDBQ 241215Z 34015G23KT 10SM CLR 02/M07 A2991 1080 54 -200 340/15G23 RMK AO2
94908KDBQ DBQ20050424062009504/24/05 06:20:31  5-MIN KDBQ 241220Z 34017KT 10SM CLR 02/M07 A2991 1080 52 -100 340/17 RMK AO2
94908KDBQ DBQ20050424062509504/24/05 06:25:31  5-MIN KDBQ 241225Z 34016KT 10SM CLR 02/M07 A2991 1080 52 -100 340/16 RMK AO2
94908KDBQ DBQ20050424063010104/24/05 06:30:31  5-MIN KDBQ 241230Z 34016G21KT 10SM CLR 02/M07 A2991 1080 52 -100 340/16G21 RMK AO2
94908KDBQ DBQ20050424063509504/24/05 06:35:31  5-MIN KDBQ 241235Z 34019KT 10SM CLR 02/M07 A2991 1080 52 -100 340/19 RMK AO2
94908KDBQ DBQ20050424064009504/24/05 06:40:31  5-MIN KDBQ 241240Z 35017KT 10SM CLR 02/M07 A2991 1090 52 -100 350/17 RMK AO2
94908KDBQ DBQ20050424064509504/24/05 06:45:31  5-MIN KDBQ 241245Z 35014KT 10SM CLR 02/M06 A2991 1090 54 -100 350/14 RMK AO2
94908KDBQ DBQ20050424065011804/24/05 06:50:31  5-MIN KDBQ 241250Z 34016G22KT 10SM CLR 02/M06 A2991 1090 54 -100 340/16G22 RMK AO2 SLP137 T00221061
94908KDBQ DBQ20050424065511804/24/05 06:55:31  5-MIN KDBQ 241255Z 35017G22KT 10SM CLR 02/M06 A2991 1090 54 -100 350/17G22 RMK AO2 SLP137 T00221061
94908KDBQ DBQ20050424070009504/24/05 07:00:31  5-MIN KDBQ 241300Z 34017KT 10SM CLR 02/M06 A2991 1090 54 -100 340/17 RMK AO2
94908KDBQ DBQ20050424070509204/24/05 07:05:31  5-MIN KDBQ 241305Z 35021KT 10SM CLR 03/M06 A2990 1090 52 0 350/21 RMK AO2
94908KDBQ DBQ20050424071009804/24/05 07:10:31  5-MIN KDBQ 241310Z 34016G23KT 10SM CLR 03/M06 A2990 1090 54 0 340/16G23 RMK AO2
94908KDBQ DBQ20050424071509804/24/05 07:15:31  5-MIN KDBQ 241315Z 35017G25KT 10SM CLR 03/M06 A2990 1090 54 0 340/17G25 RMK AO2
94908KDBQ DBQ20050424072009804/24/05 07:20:31  5-MIN KDBQ 241320Z 35014G25KT 10SM CLR 03/M06 A2990 1100 54 0 350/14G25 RMK AO2
94908KDBQ DBQ20050424072509804/24/05 07:25:31  5-MIN KDBQ 241325Z 35017G23KT 10SM CLR 03/M05 A2990 1100 54 0 350/17G23 RMK AO2
94908KDBQ DBQ20050424073009804/24/05 07:30:31  5-MIN KDBQ 241330Z 34018G25KT 10SM CLR 03/M06 A2990 1100 52 0 340/18G25 RMK AO2
94908KDBQ DBQ20050424073510004/24/05 07:35:31  5-MIN KDBQ 241335Z 35018G25KT 10SM CLR 04/M05 A2990 1100 52 100 350/18G25 RMK AO2
94908KDBQ DBQ20050424074010004/24/05 07:40:31  5-MIN KDBQ 241340Z 34016G22KT 10SM CLR 04/M05 A2989 1100 52 100 340/16G22 RMK AO2
94908KDBQ DBQ20050424074510004/24/05 07:45:31  5-MIN KDBQ 241345Z 34017G22KT 10SM CLR 04/M05 A2989 1110 52 100 340/17G22 RMK AO2
94908KDBQ DBQ20050424075011704/24/05 07:50:31  5-MIN KDBQ 241350Z 34017G22KT 10SM CLR 04/M05 A2989 1110 52 100 340/17G22 RMK AO2 SLP130 T00391050
94908KDBQ DBQ20050424075511704/24/05 07:55:31  5-MIN KDBQ 241355Z 34016G22KT 10SM CLR 04/M05 A2989 1110 52 100 340/16G22 RMK AO2 SLP130 T00391050
94908KDBQ DBQ20050424080009404/24/05 08:00:31  5-MIN KDBQ 241400Z 35017KT 10SM CLR 04/M04 A2989 1110 52 100 340/17 RMK AO2
94908KDBQ DBQ20050424080510004/24/05 08:05:31  5-MIN KDBQ 241405Z 35018G25KT 10SM CLR 04/M04 A2988 1110 52 100 350/18G25 RMK AO2
94908KDBQ DBQ20050424081010004/24/05 08:10:31  5-MIN KDBQ 241410Z 36020G25KT 10SM CLR 04/M05 A2988 1110 50 100 360/20G25 RMK AO2
94908KDBQ DBQ20050424081510004/24/05 08:15:31  5-MIN KDBQ 241415Z 34019G25KT 10SM CLR 05/M04 A2988 1120 50 200 340/19G25 RMK AO2
94908KDBQ DBQ20050424082010004/24/05 08:20:31  5-MIN KDBQ 241420Z 34015G24KT 10SM CLR 05/M04 A2987 1120 50 200 340/15G24 RMK AO2
94908KDBQ DBQ20050424082510004/24/05 08:25:31  5-MIN KDBQ 241425Z 36019G24KT 10SM CLR 05/M04 A2987 1120 50 200 350/19G24 RMK AO2
94908KDBQ DBQ20050424083010004/24/05 08:30:31  5-MIN KDBQ 241430Z 35018G25KT 10SM CLR 06/M04 A2987 1120 50 300 350/18G25 RMK AO2
94908KDBQ DBQ20050424083510004/24/05 08:35:31  5-MIN KDBQ 241435Z 35020G25KT 10SM CLR 06/M04 A2987 1120 48 300 350/20G25 RMK AO2
94908KDBQ DBQ20050424084010004/24/05 08:40:31  5-MIN KDBQ 241440Z 34019G24KT 10SM CLR 06/M04 A2986 1130 48 300 340/19G24 RMK AO2
94908KDBQ DBQ20050424084511804/24/05 08:45:31  5-MIN KDBQ 241445Z 34023G32KT 10SM CLR 06/M04 A2987 1130 48 400 340/23G32 RMK AO2 PK WND 35032/1445
94908KDBQ DBQ20050424085014104/24/05 08:50:31  5-MIN KDBQ 241450Z 35021G32KT 10SM CLR 06/M04 A2987 1130 48 300 350/21G32 RMK AO2 PK WND 35032/1445 SLP123 T00561044 56013
94908KDBQ DBQ20050424085514104/24/05 08:55:31  5-MIN KDBQ 241455Z 35020G25KT 10SM CLR 06/M04 A2987 1130 48 400 350/20G25 RMK AO2 PK WND 35032/1445 SLP123 T00611039 58015
94908KDBQ DBQ20050424090010004/24/05 09:00:31  5-MIN KDBQ 241500Z 34017G25KT 10SM CLR 06/M04 A2987 1130 48 400 340/17G25 RMK AO2
94908KDBQ DBQ20050424090511804/24/05 09:05:31  5-MIN KDBQ 241505Z 34022G27KT 10SM CLR 07/M04 A2986 1130 47 400 340/22G27 RMK AO2 PK WND 33027/1505
94908KDBQ DBQ20050424091011804/24/05 09:10:31  5-MIN KDBQ 241510Z 34018G27KT 10SM CLR 07/M04 A2986 1140 47 400 340/18G27 RMK AO2 PK WND 33027/1505
94908KDBQ DBQ20050424091511804/24/05 09:15:31  5-MIN KDBQ 241515Z 34021G24KT 10SM CLR 07/M03 A2986 1130 49 400 340/21G24 RMK AO2 PK WND 33027/1505
94908KDBQ DBQ20050424092011804/24/05 09:20:31  5-MIN KDBQ 241520Z 34023G26KT 10SM CLR 07/M04 A2986 1130 47 400 340/23G26 RMK AO2 PK WND 33027/1505
94908KDBQ DBQ20050424092511804/24/05 09:25:31  5-MIN KDBQ 241525Z 34021G26KT 10SM CLR 07/M04 A2986 1130 47 400 340/21G26 RMK AO2 PK WND 33027/1505
94908KDBQ DBQ20050424093011804/24/05 09:30:31  5-MIN KDBQ 241530Z 34022G25KT 10SM CLR 07/M04 A2986 1140 47 400 340/22G25 RMK AO2 PK WND 33027/1505
94908KDBQ DBQ20050424093511804/24/05 09:35:31  5-MIN KDBQ 241535Z 35020G26KT 10SM CLR 07/M04 A2986 1140 45 500 350/20G26 RMK AO2 PK WND 33027/1505
94908KDBQ DBQ20050424094011804/24/05 09:40:31  5-MIN KDBQ 241540Z 35016G26KT 10SM CLR 07/M04 A2985 1140 45 500 350/16G26 RMK AO2 PK WND 33027/1505
94908KDBQ DBQ20050424094511804/24/05 09:45:31  5-MIN KDBQ 241545Z 34019G26KT 10SM CLR 08/M03 A2985 1140 45 600 340/19G26 RMK AO2 PK WND 33027/1505
94908KDBQ DBQ20050424095013504/24/05 09:50:31  5-MIN KDBQ 241550Z 35020G26KT 10SM CLR 08/M03 A2985 1150 45 600 350/20G26 RMK AO2 PK WND 33027/1505 SLP115 T00781033
94908KDBQ DBQ20050424095513504/24/05 09:55:31  5-MIN KDBQ 241555Z 35017G24KT 10SM CLR 08/M03 A2985 1140 45 600 350/17G24 RMK AO2 PK WND 33027/1505 SLP115 T00781033
94908KDBQ DBQ20050424100010004/24/05 10:00:31  5-MIN KDBQ 241600Z 34017G22KT 10SM CLR 08/M03 A2985 1140 45 700 340/17G22 RMK AO2
94908KDBQ DBQ20050424100510004/24/05 10:05:31  5-MIN KDBQ 241605Z 36018G25KT 10SM CLR 08/M03 A2985 1150 43 700 360/18G25 RMK AO2
94908KDBQ DBQ20050424101010004/24/05 10:10:31  5-MIN KDBQ 241610Z 34019G25KT 10SM CLR 08/M03 A2985 1150 43 700 340/19G25 RMK AO2
94908KDBQ DBQ20050424101511804/24/05 10:15:31  5-MIN KDBQ 241615Z 34020G26KT 10SM CLR 08/M03 A2985 1150 43 700 330/20G26 RMK AO2 PK WND 34026/1611
94908KDBQ DBQ20050424102011804/24/05 10:20:31  5-MIN KDBQ 241620Z 35017G26KT 10SM CLR 08/M03 A2984 1150 43 700 350/17G26 RMK AO2 PK WND 34026/1611
94908KDBQ DBQ20050424102511804/24/05 10:25:31  5-MIN KDBQ 241625Z 34019G25KT 10SM CLR 09/M03 A2984 1150 43 700 340/19G25 RMK AO2 PK WND 34026/1611
94908KDBQ DBQ20050424103011804/24/05 10:30:31  5-MIN KDBQ 241630Z 34019G24KT 10SM CLR 09/M03 A2984 1150 43 700 340/19G24 RMK AO2 PK WND 34026/1611
94908KDBQ DBQ20050424103511804/24/05 10:35:31  5-MIN KDBQ 241635Z 36020G25KT 10SM CLR 09/M03 A2984 1160 43 700 360/20G25 RMK AO2 PK WND 34026/1611
94908KDBQ DBQ20050424104011804/24/05 10:40:31  5-MIN KDBQ 241640Z 35017G25KT 10SM CLR 09/M03 A2984 1150 40 800 350/17G25 RMK AO2 PK WND 34026/1611
94908KDBQ DBQ20050424104511804/24/05 10:45:31  5-MIN KDBQ 241645Z 35018G24KT 10SM CLR 09/M03 A2984 1150 42 800 350/18G24 RMK AO2 PK WND 34026/1611
94908KDBQ DBQ20050424105013504/24/05 10:50:31  5-MIN KDBQ 241650Z 35018G24KT 10SM CLR 09/M03 A2983 1160 42 800 350/18G24 RMK AO2 PK WND 34026/1611 SLP109 T00941028
94908KDBQ DBQ20050424105513504/24/05 10:55:31  5-MIN KDBQ 241655Z 35018G23KT 10SM CLR 09/M03 A2983 1160 42 800 350/18G23 RMK AO2 PK WND 34026/1611 SLP109 T00941028
94908KDBQ DBQ20050424110010004/24/05 11:00:31  5-MIN KDBQ 241700Z 34020G23KT 10SM CLR 09/M03 A2983 1160 42 800 340/20G23 RMK AO2
94908KDBQ DBQ20050424110510004/24/05 11:05:31  5-MIN KDBQ 241705Z 35016G24KT 10SM CLR 09/M03 A2983 1160 42 800 350/16G24 RMK AO2
94908KDBQ DBQ20050424111009404/24/05 11:10:31  5-MIN KDBQ 241710Z 34014KT 10SM CLR 10/M02 A2983 1170 42 900 340/14 RMK AO2
94908KDBQ DBQ20050424111510004/24/05 11:15:31  5-MIN KDBQ 241715Z 34018G22KT 10SM CLR 10/M03 A2983 1170 40 900 340/18G22 RMK AO2
94908KDBQ DBQ20050424112010004/24/05 11:20:31  5-MIN KDBQ 241720Z 34018G22KT 10SM CLR 10/M03 A2982 1170 40 900 340/18G22 RMK AO2
94908KDBQ DBQ20050424112510104/24/05 11:25:31  5-MIN KDBQ 241725Z 34018G22KT 10SM CLR 11/M02 A2982 1170 40 1000 340/18G22 RMK AO2
94908KDBQ DBQ20050424113010104/24/05 11:30:31  5-MIN KDBQ 241730Z 34018G24KT 10SM CLR 11/M02 A2982 1170 40 1000 340/18G24 RMK AO2
94908KDBQ DBQ20050424113510104/24/05 11:35:31  5-MIN KDBQ 241735Z 35017G24KT 10SM CLR 11/M03 A2982 1170 39 1000 350/17G24 RMK AO2
94908KDBQ DBQ20050424114010104/24/05 11:40:31  5-MIN KDBQ 241740Z 34017G24KT 10SM CLR 11/M03 A2982 1170 39 1000 340/17G24 RMK AO2
94908KDBQ DBQ20050424114510104/24/05 11:45:31  5-MIN KDBQ 241745Z 33020G24KT 10SM CLR 11/M03 A2982 1180 39 1000 330/20G24 RMK AO2
94908KDBQ DBQ20050424115015504/24/05 11:50:31  5-MIN KDBQ 241750Z 34020G26KT 10SM CLR 11/M03 A2982 1170 39 1000 340/20G26 RMK AO2 PK WND 34026/1747 SLP103 T01061028 10106 20017  58015
94908KDBQ DBQ20050424115515504/24/05 11:55:31  5-MIN KDBQ 241755Z 33022G26KT 10SM CLR 11/M03 A2981 1180 37 1000 330/22G26 RMK AO2 PK WND 32026/1754 SLP102 T01061033 10106 20017  58018
94908KDBQ DBQ20050424120010104/24/05 12:00:31  5-MIN KDBQ 241800Z 34020G26KT 10SM CLR 11/M03 A2981 1180 36 1000 340/20G26 RMK AO2
94908KDBQ DBQ20050424120511904/24/05 12:05:31  5-MIN KDBQ 241805Z 34020G26KT 10SM CLR 11/M03 A2981 1180 37 1000 340/20G26 RMK AO2 PK WND 34026/1805
94908KDBQ DBQ20050424121011904/24/05 12:10:31  5-MIN KDBQ 241810Z 01019G26KT 10SM CLR 11/M03 A2980 1190 37 1000 010/19G26 RMK AO2 PK WND 34026/1805
94908KDBQ DBQ20050424121511904/24/05 12:15:31  5-MIN KDBQ 241815Z 34020G27KT 10SM CLR 11/M03 A2981 1180 37 1000 340/20G27 RMK AO2 PK WND 33027/1814
94908KDBQ DBQ20050424122011904/24/05 12:20:31  5-MIN KDBQ 241820Z 33022G29KT 10SM CLR 11/M04 A2981 1180 34 1000 330/22G29 RMK AO2 PK WND 34029/1817
94908KDBQ DBQ20050424122511904/24/05 12:25:31  5-MIN KDBQ 241825Z 35020G29KT 10SM CLR 11/M04 A2981 1180 34 1000 350/20G29 RMK AO2 PK WND 34029/1817
94908KDBQ DBQ20050424123011904/24/05 12:30:31  5-MIN KDBQ 241830Z 33020G25KT 10SM CLR 11/M04 A2980 1190 34 1000 330/20G25 RMK AO2 PK WND 34029/1817
94908KDBQ DBQ20050424123511904/24/05 12:35:31  5-MIN KDBQ 241835Z 35023G27KT 10SM CLR 12/M03 A2980 1190 35 1100 350/23G27 RMK AO2 PK WND 34029/1817
94908KDBQ DBQ20050424124011904/24/05 12:40:31  5-MIN KDBQ 241840Z 34022G27KT 10SM CLR 11/M04 A2979 1190 34 1100 340/22G27 RMK AO2 PK WND 34029/1817
94908KDBQ DBQ20050424124511904/24/05 12:45:31  5-MIN KDBQ 241845Z 01018G25KT 10SM CLR 11/M04 A2980 1190 34 1000 360/18G25 RMK AO2 PK WND 34029/1817
94908KDBQ DBQ20050424125013604/24/05 12:50:31  5-MIN KDBQ 241850Z 34021G26KT 10SM CLR 12/M03 A2980 1190 36 1100 340/21G26 RMK AO2 PK WND 34029/1817 SLP096 T01171028
94908KDBQ DBQ20050424125513604/24/05 12:55:31  5-MIN KDBQ 241855Z 35020G26KT 10SM CLR 12/M04 A2979 1200 33 1100 340/20G26 RMK AO2 PK WND 34029/1817 SLP096 T01171039
94908KDBQ DBQ20050424130011904/24/05 13:00:31  5-MIN KDBQ 241900Z 34018G27KT 10SM CLR 12/M04 A2979 1200 33 1100 340/18G27 RMK AO2 PK WND 34027/1858
94908KDBQ DBQ20050424130511904/24/05 13:05:31  5-MIN KDBQ 241905Z 35015G27KT 10SM CLR 12/M03 A2979 1200 36 1100 350/15G27 RMK AO2 PK WND 34027/1858
94908KDBQ DBQ20050424131011904/24/05 13:10:31  5-MIN KDBQ 241910Z 34019G26KT 10SM CLR 12/M03 A2979 1200 35 1100 340/19G26 RMK AO2 PK WND 34027/1858
94908KDBQ DBQ20050424131511904/24/05 13:15:31  5-MIN KDBQ 241915Z 35019G24KT 10SM CLR 12/M03 A2979 1200 33 1200 350/19G24 RMK AO2 PK WND 34027/1858
94908KDBQ DBQ20050424132011904/24/05 13:20:31  5-MIN KDBQ 241920Z 33026G29KT 10SM CLR 12/M03 A2979 1200 35 1100 330/26G29 RMK AO2 PK WND 33029/1920
94908KDBQ DBQ20050424132511904/24/05 13:25:31  5-MIN KDBQ 241925Z 33023G29KT 10SM CLR 12/M04 A2979 1200 33 1100 330/23G29 RMK AO2 PK WND 33029/1920
94908KDBQ DBQ20050424133011904/24/05 13:30:31  5-MIN KDBQ 241930Z 34020G28KT 10SM CLR 12/M03 A2979 1200 33 1200 340/20G28 RMK AO2 PK WND 33029/1920
94908KDBQ DBQ20050424133511904/24/05 13:35:31  5-MIN KDBQ 241935Z 34020G25KT 10SM CLR 12/M04 A2979 1200 32 1200 340/20G25 RMK AO2 PK WND 33029/1920
94908KDBQ DBQ20050424134011904/24/05 13:40:31  5-MIN KDBQ 241940Z 33016G24KT 10SM CLR 12/M04 A2978 1210 32 1100 330/16G24 RMK AO2 PK WND 33029/1920
94908KDBQ DBQ20050424134511904/24/05 13:45:31  5-MIN KDBQ 241945Z 33022G30KT 10SM CLR 12/M03 A2978 1210 33 1200 330/22G30 RMK AO2 PK WND 33030/1944
94908KDBQ DBQ20050424135013604/24/05 13:50:31  5-MIN KDBQ 241950Z 34021G30KT 10SM CLR 12/M04 A2978 1210 32 1200 340/21G30 RMK AO2 PK WND 33030/1944 SLP091 T01221039
94908KDBQ DBQ20050424135514604/24/05 13:55:31  5-MIN KDBQ 241955Z AUTO 35018G29KT 10SM CLR 12/M03 A2978 1210 33 1200 350/18G29 RMK AO2 PK WND 33030/1944 SLP089 T01221033 TSNO
94908KDBQ DBQ20050424140011104/24/05 14:00:31  5-MIN KDBQ 242000Z AUTO 35019G25KT 10SM CLR 12/M03 A2978 1210 33 1200 350/19G25 RMK AO2 TSNO
94908KDBQ DBQ20050424140511104/24/05 14:05:31  5-MIN KDBQ 242005Z AUTO 35016G23KT 10SM CLR 12/M03 A2977 1220 33 1200 350/16G23 RMK AO2 TSNO
94908KDBQ DBQ20050424141011104/24/05 14:10:31  5-MIN KDBQ 242010Z AUTO 34021G24KT 10SM CLR 12/M03 A2977 1210 33 1200 340/21G24 RMK AO2 TSNO
94908KDBQ DBQ20050424141511104/24/05 14:15:31  5-MIN KDBQ 242015Z AUTO 35018G25KT 10SM CLR 12/M03 A2977 1220 33 1200 340/18G25 RMK AO2 TSNO
94908KDBQ DBQ20050424142011104/24/05 14:20:31  5-MIN KDBQ 242020Z AUTO 34020G25KT 10SM CLR 12/M04 A2977 1220 32 1200 340/20G25 RMK AO2 TSNO
94908KDBQ DBQ20050424142511104/24/05 14:25:31  5-MIN KDBQ 242025Z AUTO 34020G25KT 10SM CLR 12/M04 A2977 1220 32 1200 340/20G25 RMK AO2 TSNO
94908KDBQ DBQ20050424143011104/24/05 14:30:31  5-MIN KDBQ 242030Z AUTO 35020G25KT 10SM CLR 12/M04 A2976 1230 32 1200 350/20G25 RMK AO2 TSNO
94908KDBQ DBQ20050424143512904/24/05 14:35:31  5-MIN KDBQ 242035Z AUTO 34018G28KT 10SM CLR 12/M04 A2976 1230 31 1200 340/18G28 RMK AO2 PK WND 35028/2032 TSNO
94908KDBQ DBQ20050424144012904/24/05 14:40:31  5-MIN KDBQ 242040Z AUTO 35014G28KT 10SM CLR 13/M04 A2976 1230 31 1300 340/14G28 RMK AO2 PK WND 35028/2032 TSNO
94908KDBQ DBQ20050424144512904/24/05 14:45:31  5-MIN KDBQ 242045Z AUTO 32016G21KT 10SM CLR 13/M04 A2976 1230 31 1300 320/16G21 RMK AO2 PK WND 35028/2032 TSNO
94908KDBQ DBQ20050424145015304/24/05 14:50:31  5-MIN KDBQ 242050Z AUTO 34016G23KT 10SM CLR 13/M04 A2976 1230 31 1300 330/16G23 RMK AO2 PK WND 35028/2032 SLP083 T01281039 58018  TSNO
94908KDBQ DBQ20050424145515304/24/05 14:55:31  5-MIN KDBQ 242055Z AUTO 33018G23KT 10SM CLR 13/M04 A2976 1230 31 1300 330/18G23 RMK AO2 PK WND 35028/2032 SLP083 T01281039 56018  TSNO
94908KDBQ DBQ20050424150011104/24/05 15:00:31  5-MIN KDBQ 242100Z AUTO 33017G25KT 10SM CLR 13/M04 A2976 1230 31 1300 330/17G25 RMK AO2 TSNO
94908KDBQ DBQ20050424150511104/24/05 15:05:31  5-MIN KDBQ 242105Z AUTO 34016G25KT 10SM CLR 12/M04 A2975 1230 31 1200 340/16G25 RMK AO2 TSNO
94908KDBQ DBQ20050424151011104/24/05 15:10:31  5-MIN KDBQ 242110Z AUTO 34018G23KT 10SM CLR 13/M04 A2975 1240 31 1300 340/18G23 RMK AO2 TSNO
94908KDBQ DBQ20050424151511104/24/05 15:15:31  5-MIN KDBQ 242115Z AUTO 35020G25KT 10SM CLR 13/M04 A2975 1230 31 1300 350/20G25 RMK AO2 TSNO
94908KDBQ DBQ20050424152011104/24/05 15:20:31  5-MIN KDBQ 242120Z AUTO 36016G25KT 10SM CLR 13/M04 A2975 1240 31 1300 350/16G25 RMK AO2 TSNO
94908KDBQ DBQ20050424152511104/24/05 15:25:31  5-MIN KDBQ 242125Z AUTO 34014G22KT 10SM CLR 12/M04 A2975 1240 32 1200 340/14G22 RMK AO2 TSNO
94908KDBQ DBQ20050424153011104/24/05 15:30:31  5-MIN KDBQ 242130Z AUTO 33017G23KT 10SM CLR 13/M03 A2975 1240 32 1300 330/17G23 RMK AO2 TSNO
94908KDBQ DBQ20050424153511104/24/05 15:35:31  5-MIN KDBQ 242135Z AUTO 34016G23KT 10SM CLR 13/M03 A2975 1240 32 1300 340/16G23 RMK AO2 TSNO
94908KDBQ DBQ20050424154011104/24/05 15:40:31  5-MIN KDBQ 242140Z AUTO 34019G23KT 10SM CLR 13/M04 A2975 1240 31 1300 340/19G23 RMK AO2 TSNO
94908KDBQ DBQ20050424154511104/24/05 15:45:31  5-MIN KDBQ 242145Z AUTO 32020G25KT 10SM CLR 13/M04 A2975 1240 30 1300 320/20G25 RMK AO2 TSNO
94908KDBQ DBQ20050424155012804/24/05 15:50:31  5-MIN KDBQ 242150Z AUTO 34016G25KT 10SM CLR 13/M04 A2974 1240 30 1300 340/16G25 RMK AO2 SLP077 T01281044 TSNO
94908KDBQ DBQ20050424155512804/24/05 15:55:31  5-MIN KDBQ 242155Z AUTO 33017G22KT 10SM CLR 13/M04 A2974 1250 31 1300 330/17G22 RMK AO2 SLP076 T01281039 TSNO
94908KDBQ DBQ20050424160011104/24/05 16:00:31  5-MIN KDBQ 242200Z AUTO 34019G22KT 10SM CLR 13/M04 A2974 1240 30 1300 340/19G22 RMK AO2 TSNO
94908KDBQ DBQ20050424160510604/24/05 16:05:31  5-MIN KDBQ 242205Z AUTO 34019KT 10SM CLR 13/M04 A2974  1250 30 1300 340/19 RMK AO2 TSNO
94908KDBQ DBQ20050424161011104/24/05 16:10:31  5-MIN KDBQ 242210Z AUTO 33020G24KT 10SM CLR 13/M04 A2974 1240 30 1300 330/20G24 RMK AO2 TSNO
94908KDBQ DBQ20050424161511104/24/05 16:15:31  5-MIN KDBQ 242215Z AUTO 33020G25KT 10SM CLR 13/M04 A2974 1240 31 1300 330/20G25 RMK AO2 TSNO
94908KDBQ DBQ20050424162011104/24/05 16:20:31  5-MIN KDBQ 242220Z AUTO 32017G25KT 10SM CLR 12/M04 A2974 1250 31 1300 310/17G25 RMK AO2 TSNO
94908KDBQ DBQ20050424162511104/24/05 16:25:31  5-MIN KDBQ 242225Z AUTO 33017G24KT 10SM CLR 13/M04 A2974 1250 31 1300 330/17G24 RMK AO2 TSNO
94908KDBQ DBQ20050424163011104/24/05 16:30:31  5-MIN KDBQ 242230Z AUTO 34020G25KT 10SM CLR 13/M04 A2974 1250 31 1300 330/20G25 RMK AO2 TSNO
94908KDBQ DBQ20050424163511104/24/05 16:35:31  5-MIN KDBQ 242235Z AUTO 32019G25KT 10SM CLR 12/M04 A2974 1250 31 1200 320/19G25 RMK AO2 TSNO
94908KDBQ DBQ20050424164010604/24/05 16:40:31  5-MIN KDBQ 242240Z AUTO 34019KT 10SM CLR 12/M04 A2974  1250 31 1300 340/19 RMK AO2 TSNO
94908KDBQ DBQ20050424164510604/24/05 16:45:31  5-MIN KDBQ 242245Z AUTO 33019KT 10SM CLR 12/M04 A2974  1250 31 1300 330/19 RMK AO2 TSNO
94908KDBQ DBQ20050424165012304/24/05 16:50:31  5-MIN KDBQ 242250Z AUTO 34016KT 10SM CLR 12/M04 A2974  1250 32 1300 340/16 RMK AO2 SLP076 T01221039 TSNO
94908KDBQ DBQ20050424165512804/24/05 16:55:31  5-MIN KDBQ 242255Z AUTO 34015G22KT 10SM CLR 12/M04 A2974 1250 31 1300 330/15G22 RMK AO2 SLP075 T01221044 TSNO
94908KDBQ DBQ20050424170011104/24/05 17:00:31  5-MIN KDBQ 242300Z AUTO 33016G22KT 10SM CLR 12/M04 A2973 1250 32 1300 330/16G22 RMK AO2 TSNO
94908KDBQ DBQ20050424170511104/24/05 17:05:31  5-MIN KDBQ 242305Z AUTO 34018G25KT 10SM CLR 12/M04 A2973 1250 31 1300 340/18G25 RMK AO2 TSNO
94908KDBQ DBQ20050424171011104/24/05 17:10:31  5-MIN KDBQ 242310Z AUTO 34020G25KT 10SM CLR 12/M05 A2973 1260 29 1300 340/20G25 RMK AO2 TSNO
94908KDBQ DBQ20050424171511104/24/05 17:15:31  5-MIN KDBQ 242315Z AUTO 34016G25KT 10SM CLR 12/M04 A2973 1260 31 1300 340/16G25 RMK AO2 TSNO
94908KDBQ DBQ20050424172011104/24/05 17:20:31  5-MIN KDBQ 242320Z AUTO 33017G25KT 10SM CLR 12/M04 A2973 1260 32 1300 330/17G25 RMK AO2 TSNO
94908KDBQ DBQ20050424172511104/24/05 17:25:31  5-MIN KDBQ 242325Z AUTO 33016G21KT 10SM CLR 12/M04 A2972 1260 32 1200 330/16G21 RMK AO2 TSNO
94908KDBQ DBQ20050424173010604/24/05 17:30:31  5-MIN KDBQ 242330Z AUTO 33014KT 10SM CLR 12/M04 A2972  1260 33 1200 330/14 RMK AO2 TSNO
94908KDBQ DBQ20050424173511104/24/05 17:35:31  5-MIN KDBQ 242335Z AUTO 33018G23KT 10SM CLR 12/M04 A2972 1260 33 1200 320/18G23 RMK AO2 TSNO
94908KDBQ DBQ20050424174011104/24/05 17:40:31  5-MIN KDBQ 242340Z AUTO 33019G23KT 10SM CLR 12/M04 A2972 1260 32 1200 330/19G23 RMK AO2 TSNO
94908KDBQ DBQ20050424174510604/24/05 17:45:31  5-MIN KDBQ 242345Z AUTO 33017KT 10SM CLR 12/M04 A2972  1260 32 1200 330/17 RMK AO2 TSNO
94908KDBQ DBQ20050424175014104/24/05 17:50:31  5-MIN KDBQ 242350Z AUTO 33018KT 10SM CLR 12/M04 A2972  1260 32 1200 330/18 RMK AO2 SLP071 T01171044 10133 20106 56018 TSNO
94908KDBQ DBQ20050424175514604/24/05 17:55:31  5-MIN KDBQ 242355Z AUTO 32016G23KT 10SM CLR 11/M04 A2972 1260 33 1100 320/16G23 RMK AO2 SLP072 T01111044 10133 20106 56011 TSNO
94908KDBQ DBQ20050424180011104/24/05 18:00:31  5-MIN KDBQ 250000Z AUTO 34016G22KT 10SM CLR 11/M04 A2972 1260 34 1100 340/16G22 RMK AO2 TSNO
94908KDBQ DBQ20050424180511104/24/05 18:05:31  5-MIN KDBQ 250005Z AUTO 33016G22KT 10SM CLR 11/M04 A2972 1260 34 1100 330/16G22 RMK AO2 TSNO
94908KDBQ DBQ20050424181011104/24/05 18:10:31  5-MIN KDBQ 250010Z AUTO 34016G24KT 10SM CLR 11/M04 A2972 1260 34 1100 330/16G24 RMK AO2 TSNO
94908KDBQ DBQ20050424181511104/24/05 18:15:31  5-MIN KDBQ 250015Z AUTO 34015G24KT 10SM CLR 11/M04 A2972 1270 34 1100 340/15G24 RMK AO2 TSNO
94908KDBQ DBQ20050424182010604/24/05 18:20:31  5-MIN KDBQ 250020Z AUTO 33015KT 10SM CLR 11/M04 A2972  1270 36 1100 330/15 RMK AO2 TSNO
94908KDBQ DBQ20050424182510604/24/05 18:25:31  5-MIN KDBQ 250025Z AUTO 33014KT 10SM CLR 11/M04 A2972  1270 36 1100 330/14 RMK AO2 TSNO
94908KDBQ DBQ20050424183010604/24/05 18:30:31  5-MIN KDBQ 250030Z AUTO 34013KT 10SM CLR 11/M04 A2972  1270 36 1100 340/13 RMK AO2 TSNO
94908KDBQ DBQ20050424183510604/24/05 18:35:31  5-MIN KDBQ 250035Z AUTO 34014KT 10SM CLR 10/M04 A2972  1270 37 1000 340/14 RMK AO2 TSNO
94908KDBQ DBQ20050424184010604/24/05 18:40:31  5-MIN KDBQ 250040Z AUTO 33014KT 10SM CLR 10/M04 A2972  1270 37 1000 330/14 RMK AO2 TSNO
94908KDBQ DBQ20050424184510604/24/05 18:45:31  5-MIN KDBQ 250045Z AUTO 33010KT 10SM CLR 10/M04 A2972  1270 37 1000 330/10 RMK AO2 TSNO
94908KDBQ DBQ20050424185012204/24/05 18:50:31  5-MIN KDBQ 250050Z AUTO 34011KT 10SM CLR 09/M04 A2972  1270 39 900 340/11 RMK AO2 SLP069 T00941039 TSNO
94908KDBQ DBQ20050424185512204/24/05 18:55:31  5-MIN KDBQ 250055Z AUTO 33012KT 10SM CLR 09/M04 A2972  1270 39 900 330/12 RMK AO2 SLP069 T00941039 TSNO
94908KDBQ DBQ20050424190010504/24/05 19:00:31  5-MIN KDBQ 250100Z AUTO 34010KT 10SM CLR 09/M04 A2972  1270 39 900 340/10 RMK AO2 TSNO
94908KDBQ DBQ20050424190510504/24/05 19:05:31  5-MIN KDBQ 250105Z AUTO 34009KT 10SM CLR 09/M03 A2972  1270 42 900 330/09 RMK AO2 TSNO
94908KDBQ DBQ20050424191010504/24/05 19:10:31  5-MIN KDBQ 250110Z AUTO 33011KT 10SM CLR 09/M03 A2972  1270 42 900 330/11 RMK AO2 TSNO
94908KDBQ DBQ20050424191510504/24/05 19:15:31  5-MIN KDBQ 250115Z AUTO 33010KT 10SM CLR 09/M04 A2972  1270 40 900 330/10 RMK AO2 TSNO
94908KDBQ DBQ20050424192010504/24/05 19:20:31  5-MIN KDBQ 250120Z AUTO 33010KT 10SM CLR 09/M03 A2972  1270 42 900 330/10 RMK AO2 TSNO
94908KDBQ DBQ20050424192510504/24/05 19:25:31  5-MIN KDBQ 250125Z AUTO 33008KT 10SM CLR 08/M03 A2972  1270 43 800 330/08 RMK AO2 TSNO
94908KDBQ DBQ20050424193010504/24/05 19:30:31  5-MIN KDBQ 250130Z AUTO 33008KT 10SM CLR 08/M03 A2972  1260 45 700 330/08 RMK AO2 TSNO
94908KDBQ DBQ20050424193510504/24/05 19:35:31  5-MIN KDBQ 250135Z AUTO 32008KT 10SM CLR 07/M03 A2972  1260 47 700 320/08 RMK AO2 TSNO
94908KDBQ DBQ20050424194010504/24/05 19:40:31  5-MIN KDBQ 250140Z AUTO 32008KT 10SM CLR 08/M03 A2972  1260 45 700 320/08 RMK AO2 TSNO
94908KDBQ DBQ20050424194510504/24/05 19:45:31  5-MIN KDBQ 250145Z AUTO 32008KT 10SM CLR 07/M03 A2972  1260 47 700 320/08 RMK AO2 TSNO
94908KDBQ DBQ20050424195012204/24/05 19:50:31  5-MIN KDBQ 250150Z AUTO 32008KT 10SM CLR 07/M03 A2972  1260 47 700 310/08 RMK AO2 SLP071 T00721033 TSNO
94908KDBQ DBQ20050424195512204/24/05 19:55:31  5-MIN KDBQ 250155Z AUTO 32007KT 10SM CLR 07/M03 A2972  1260 49 600 310/07 RMK AO2 SLP071 T00671033 TSNO
94908KDBQ DBQ20050424200010504/24/05 20:00:31  5-MIN KDBQ 250200Z AUTO 31006KT 10SM CLR 06/M03 A2972  1260 51 500 310/06 RMK AO2 TSNO
94908KDBQ DBQ20050424200510504/24/05 20:05:31  5-MIN KDBQ 250205Z AUTO 31007KT 10SM CLR 06/M03 A2972  1260 51 500 310/07 RMK AO2 TSNO
94908KDBQ DBQ20050424201010504/24/05 20:10:31  5-MIN KDBQ 250210Z AUTO 32007KT 10SM CLR 06/M03 A2972  1260 51 500 310/07 RMK AO2 TSNO
94908KDBQ DBQ20050424201510504/24/05 20:15:31  5-MIN KDBQ 250215Z AUTO 31006KT 10SM CLR 06/M03 A2972  1260 51 500 310/06 RMK AO2 TSNO
94908KDBQ DBQ20050424202010504/24/05 20:20:31  5-MIN KDBQ 250220Z AUTO 31005KT 10SM CLR 06/M03 A2972  1260 51 500 310/05 RMK AO2 TSNO
94908KDBQ DBQ20050424202510504/24/05 20:25:31  5-MIN KDBQ 250225Z AUTO 31004KT 10SM CLR 06/M03 A2972  1260 51 500 310/04 RMK AO2 TSNO
94908KDBQ DBQ20050424203010504/24/05 20:30:31  5-MIN KDBQ 250230Z AUTO 32004KT 10SM CLR 06/M03 A2972  1260 51 500 320/04 RMK AO2 TSNO
94908KDBQ DBQ20050424203510504/24/05 20:35:31  5-MIN KDBQ 250235Z AUTO 31006KT 10SM CLR 06/M03 A2972  1260 51 500 310/06 RMK AO2 TSNO
94908KDBQ DBQ20050424204010504/24/05 20:40:31  5-MIN KDBQ 250240Z AUTO 31006KT 10SM CLR 06/M03 A2972  1260 51 500 310/06 RMK AO2 TSNO
94908KDBQ DBQ20050424204510504/24/05 20:45:31  5-MIN KDBQ 250245Z AUTO 30006KT 10SM CLR 07/M03 A2972  1260 49 600 300/06 RMK AO2 TSNO
94908KDBQ DBQ20050424205012804/24/05 20:50:31  5-MIN KDBQ 250250Z AUTO 30006KT 10SM CLR 07/M03 A2972  1260 47 700 300/06 RMK AO2 SLP071 T00721033 56011 TSNO
94908KDBQ DBQ20050424205512804/24/05 20:55:31  5-MIN KDBQ 250255Z AUTO 30006KT 10SM CLR 07/M03 A2972  1260 49 600 300/06 RMK AO2 SLP071 T00671033 56001 TSNO
94908KDBQ DBQ20050424210010504/24/05 21:00:31  5-MIN KDBQ 250300Z AUTO 30006KT 10SM CLR 06/M03 A2972  1260 53 500 300/06 RMK AO2 TSNO
94908KDBQ DBQ20050424210510504/24/05 21:05:31  5-MIN KDBQ 250305Z AUTO 31006KT 10SM CLR 06/M03 A2972  1260 55 500 310/06 RMK AO2 TSNO
94908KDBQ DBQ20050424211010504/24/05 21:10:31  5-MIN KDBQ 250310Z AUTO 31007KT 10SM CLR 06/M03 A2972  1260 53 500 310/07 RMK AO2 TSNO
94908KDBQ DBQ20050424211510504/24/05 21:15:31  5-MIN KDBQ 250315Z AUTO 31007KT 10SM CLR 06/M03 A2972  1260 55 500 310/07 RMK AO2 TSNO
94908KDBQ DBQ20050424212010504/24/05 21:20:31  5-MIN KDBQ 250320Z AUTO 31008KT 10SM CLR 06/M03 A2972  1260 55 500 300/08 RMK AO2 TSNO
94908KDBQ DBQ20050424212510504/24/05 21:25:31  5-MIN KDBQ 250325Z AUTO 31007KT 10SM CLR 06/M03 A2972  1270 55 500 310/07 RMK AO2 TSNO
94908KDBQ DBQ20050424213010504/24/05 21:30:31  5-MIN KDBQ 250330Z AUTO 31007KT 10SM CLR 06/M03 A2972  1270 53 500 310/07 RMK AO2 TSNO
94908KDBQ DBQ20050424213510504/24/05 21:35:31  5-MIN KDBQ 250335Z AUTO 31006KT 10SM CLR 06/M03 A2972  1270 55 500 300/06 RMK AO2 TSNO
94908KDBQ DBQ20050424214010504/24/05 21:40:31  5-MIN KDBQ 250340Z AUTO 30006KT 10SM CLR 05/M03 A2972  1270 57 400 300/06 RMK AO2 TSNO
94908KDBQ DBQ20050424214510504/24/05 21:45:31  5-MIN KDBQ 250345Z AUTO 30006KT 10SM CLR 06/M03 A2971  1270 55 500 300/06 RMK AO2 TSNO
94908KDBQ DBQ20050424215012204/24/05 21:50:31  5-MIN KDBQ 250350Z AUTO 30005KT 10SM CLR 05/M03 A2971  1270 57 400 300/05 RMK AO2 SLP068 T00501028 TSNO
94908KDBQ DBQ20050424215512204/24/05 21:55:31  5-MIN KDBQ 250355Z AUTO 30006KT 10SM CLR 06/M03 A2971  1270 51 500 290/06 RMK AO2 SLP066 T00611033 TSNO
94908KDBQ DBQ20050424220010504/24/05 22:00:31  5-MIN KDBQ 250400Z AUTO 29004KT 10SM CLR 05/M03 A2971  1270 55 400 290/04 RMK AO2 TSNO
94908KDBQ DBQ20050424220510504/24/05 22:05:31  5-MIN KDBQ 250405Z AUTO 28004KT 10SM CLR 05/M03 A2971  1270 57 400 280/04 RMK AO2 TSNO
94908KDBQ DBQ20050424221010504/24/05 22:10:31  5-MIN KDBQ 250410Z AUTO 28006KT 10SM CLR 04/M03 A2971  1270 59 300 280/06 RMK AO2 TSNO
94908KDBQ DBQ20050424221510504/24/05 22:15:31  5-MIN KDBQ 250415Z AUTO 28006KT 10SM CLR 04/M03 A2971  1280 57 300 280/06 RMK AO2 TSNO
94908KDBQ DBQ20050424222010504/24/05 22:20:31  5-MIN KDBQ 250420Z AUTO 28007KT 10SM CLR 04/M03 A2971  1280 57 300 280/07 RMK AO2 TSNO
94908KDBQ DBQ20050424222510504/24/05 22:25:31  5-MIN KDBQ 250425Z AUTO 29006KT 10SM CLR 05/M03 A2971  1280 55 400 290/06 RMK AO2 TSNO
94908KDBQ DBQ20050424223010504/24/05 22:30:31  5-MIN KDBQ 250430Z AUTO 30006KT 10SM CLR 05/M03 A2970  1280 55 400 300/06 RMK AO2 TSNO
94908KDBQ DBQ20050424223510504/24/05 22:35:31  5-MIN KDBQ 250435Z AUTO 29007KT 10SM CLR 05/M03 A2970  1280 55 400 290/07 RMK AO2 TSNO
94908KDBQ DBQ20050424224010504/24/05 22:40:31  5-MIN KDBQ 250440Z AUTO 29007KT 10SM CLR 05/M03 A2970  1280 55 400 290/07 RMK AO2 TSNO
94908KDBQ DBQ20050424224510504/24/05 22:45:31  5-MIN KDBQ 250445Z AUTO 29007KT 10SM CLR 04/M03 A2970  1280 59 400 290/07 RMK AO2 TSNO
94908KDBQ DBQ20050424225012204/24/05 22:50:31  5-MIN KDBQ 250450Z AUTO 29006KT 10SM CLR 03/M03 A2970  1280 64 200 290/06 RMK AO2 SLP063 T00331028 TSNO
94908KDBQ DBQ20050424225512204/24/05 22:55:31  5-MIN KDBQ 250455Z AUTO 29007KT 10SM CLR 04/M03 A2970  1280 62 300 290/07 RMK AO2 SLP063 T00391028 TSNO
94908KDBQ DBQ20050424230010504/24/05 23:00:31  5-MIN KDBQ 250500Z AUTO 29007KT 10SM CLR 04/M03 A2970  1280 59 400 290/07 RMK AO2 TSNO
94908KDBQ DBQ20050424230510504/24/05 23:05:31  5-MIN KDBQ 250505Z AUTO 30008KT 10SM CLR 05/M03 A2970  1290 57 400 290/08 RMK AO2 TSNO
94908KDBQ DBQ20050424231010504/24/05 23:10:31  5-MIN KDBQ 250510Z AUTO 29008KT 10SM CLR 05/M03 A2970  1290 57 400 290/08 RMK AO2 TSNO
94908KDBQ DBQ20050424231510504/24/05 23:15:31  5-MIN KDBQ 250515Z AUTO 29007KT 10SM CLR 05/M03 A2970  1290 57 400 290/07 RMK AO2 TSNO
94908KDBQ DBQ20050424232010504/24/05 23:20:31  5-MIN KDBQ 250520Z AUTO 29006KT 10SM CLR 05/M03 A2970  1290 57 400 290/06 RMK AO2 TSNO
94908KDBQ DBQ20050424232510504/24/05 23:25:31  5-MIN KDBQ 250525Z AUTO 28005KT 10SM CLR 05/M03 A2970  1290 57 400 280/05 RMK AO2 TSNO
94908KDBQ DBQ20050424233010504/24/05 23:30:31  5-MIN KDBQ 250530Z AUTO 28006KT 10SM CLR 04/M03 A2970  1290 59 400 280/06 RMK AO2 TSNO
94908KDBQ DBQ20050424233510504/24/05 23:35:31  5-MIN KDBQ 250535Z AUTO 29006KT 10SM CLR 04/M03 A2970  1290 59 400 280/06 RMK AO2 TSNO
94908KDBQ DBQ20050424234010504/24/05 23:40:31  5-MIN KDBQ 250540Z AUTO 29007KT 10SM CLR 04/M03 A2970  1290 59 400 290/07 RMK AO2 TSNO
94908KDBQ DBQ20050424234510504/24/05 23:45:31  5-MIN KDBQ 250545Z AUTO 28005KT 10SM CLR 04/M03 A2970  1290 59 400 280/05 RMK AO2 TSNO
94908KDBQ DBQ20050424235015104/24/05 23:50:31  5-MIN KDBQ 250550Z AUTO 30004KT 10SM CLR 04/M03 A2970  1290 59 400 300/04 RMK AO2 SLP061 T00441028 10111 20033 401330006 56001  TSNO
94908KDBQ DBQ20050424235515104/24/05 23:55:31  5-MIN KDBQ 250555Z AUTO 28005KT 10SM CLR 04/M03 A2969  1290 62 300 280/05 RMK AO2 SLP061 T00391028 10111 20033 401330006 56009  TSNO
94908KDBQ DBQ20050425000010504/25/05 00:00:38  5-MIN KDBQ 250600Z AUTO 29005KT 10SM CLR 04/M03 A2969  1290 59 400 290/05 RMK AO2 TSNO
94908KDBQ DBQ20050425000510504/25/05 00:05:31  5-MIN KDBQ 250605Z AUTO VRB04KT 10SM CLR 04/M03 A2969  1290 59 400 VRB/04 RMK AO2 TSNO
94908KDBQ DBQ20050425001010504/25/05 00:10:31  5-MIN KDBQ 250610Z AUTO 29004KT 10SM CLR 04/M03 A2969  1290 59 400 290/04 RMK AO2 TSNO
94908KDBQ DBQ20050425001510504/25/05 00:15:31  5-MIN KDBQ 250615Z AUTO 29003KT 10SM CLR 04/M03 A2969  1290 59 400 280/03 RMK AO2 TSNO
94908KDBQ DBQ20050425002010504/25/05 00:20:31  5-MIN KDBQ 250620Z AUTO 28004KT 10SM CLR 04/M03 A2969  1290 62 300 280/04 RMK AO2 TSNO
94908KDBQ DBQ20050425002510504/25/05 00:25:31  5-MIN KDBQ 250625Z AUTO 28004KT 10SM CLR 04/M03 A2969  1290 62 300 270/04 RMK AO2 TSNO
94908KDBQ DBQ20050425003010504/25/05 00:30:31  5-MIN KDBQ 250630Z AUTO 28003KT 10SM CLR 04/M03 A2969  1300 62 300 280/03 RMK AO2 TSNO
94908KDBQ DBQ20050425003510504/25/05 00:35:31  5-MIN KDBQ 250635Z AUTO 28003KT 10SM CLR 04/M03 A2969  1300 59 300 280/03 RMK AO2 TSNO
94908KDBQ DBQ20050425004010504/25/05 00:40:31  5-MIN KDBQ 250640Z AUTO 27003KT 10SM CLR 04/M03 A2968  1300 59 300 270/03 RMK AO2 TSNO
94908KDBQ DBQ20050425004510504/25/05 00:45:31  5-MIN KDBQ 250645Z AUTO 28004KT 10SM CLR 04/M03 A2968  1300 59 300 280/04 RMK AO2 TSNO
94908KDBQ DBQ20050425005012204/25/05 00:50:31  5-MIN KDBQ 250650Z AUTO 27003KT 10SM CLR 04/M03 A2968  1300 59 300 270/03 RMK AO2 SLP054 T00391033 TSNO
94908KDBQ DBQ20050425005512204/25/05 00:55:31  5-MIN KDBQ 250655Z AUTO 00000KT 10SM CLR 03/M03 A2967  1310 64 200 000/00 RMK AO2 SLP054 T00331028 TSNO
94908KDBQ DBQ20050425010010504/25/05 01:00:31  5-MIN KDBQ 250700Z AUTO 27004KT 10SM CLR 03/M03 A2967  1310 61 200 270/04 RMK AO2 TSNO
94908KDBQ DBQ20050425010510504/25/05 01:05:31  5-MIN KDBQ 250705Z AUTO 00000KT 10SM CLR 03/M03 A2967  1310 64 300 000/00 RMK AO2 TSNO
94908KDBQ DBQ20050425011010504/25/05 01:10:31  5-MIN KDBQ 250710Z AUTO 00000KT 10SM CLR 02/M03 A2967  1310 69 100 000/00 RMK AO2 TSNO
94908KDBQ DBQ20050425011510504/25/05 01:15:31  5-MIN KDBQ 250715Z AUTO 00000KT 10SM CLR 03/M03 A2967  1310 67 200 000/00 RMK AO2 TSNO
94908KDBQ DBQ20050425012010504/25/05 01:20:31  5-MIN KDBQ 250720Z AUTO 00000KT 10SM CLR 03/M03 A2967  1310 67 200 000/00 RMK AO2 TSNO
94908KDBQ DBQ20050425012510504/25/05 01:25:31  5-MIN KDBQ 250725Z AUTO VRB03KT 10SM CLR 02/M03 A2967  1310 69 100 VRB/03 RMK AO2 TSNO
94908KDBQ DBQ20050425013010504/25/05 01:30:31  5-MIN KDBQ 250730Z AUTO 24005KT 10SM CLR 02/M03 A2967  1320 72 100 240/05 RMK AO2 TSNO
94908KDBQ DBQ20050425013510504/25/05 01:35:31  5-MIN KDBQ 250735Z AUTO 25006KT 10SM CLR 02/M03 A2966  1320 72 100 240/06 RMK AO2 TSNO
94908KDBQ DBQ20050425014010504/25/05 01:40:31  5-MIN KDBQ 250740Z AUTO 25005KT 10SM CLR 02/M03 A2966  1320 72 100 250/05 RMK AO2 TSNO
94908KDBQ DBQ20050425014510504/25/05 01:45:31  5-MIN KDBQ 250745Z AUTO 24005KT 10SM CLR 02/M03 A2966  1320 72 100 240/05 RMK AO2 TSNO
94908KDBQ DBQ20050425015012204/25/05 01:50:31  5-MIN KDBQ 250750Z AUTO 24006KT 10SM CLR 02/M03 A2966  1320 72 100 230/06 RMK AO2 SLP048 T00171028 TSNO
94908KDBQ DBQ20050425015512004/25/05 01:55:31  5-MIN KDBQ 250755Z AUTO 22005KT 10SM CLR 01/M03 A2966  1320 78 0 210/05 RMK AO2 SLP049 T00061028 TSNO
94908KDBQ DBQ20050425020010304/25/05 02:00:31  5-MIN KDBQ 250800Z AUTO 22006KT 10SM CLR 01/M03 A2966  1320 78 0 220/06 RMK AO2 TSNO
94908KDBQ DBQ20050425020510304/25/05 02:05:31  5-MIN KDBQ 250805Z AUTO 21005KT 10SM CLR 01/M03 A2966  1320 78 0 210/05 RMK AO2 TSNO
94908KDBQ DBQ20050425021010304/25/05 02:10:31  5-MIN KDBQ 250810Z AUTO 21005KT 10SM CLR 01/M03 A2965  1320 75 0 210/05 RMK AO2 TSNO
94908KDBQ DBQ20050425021510304/25/05 02:15:31  5-MIN KDBQ 250815Z AUTO 20005KT 10SM CLR 01/M03 A2965  1330 75 0 200/05 RMK AO2 TSNO
94908KDBQ DBQ20050425022010304/25/05 02:20:31  5-MIN KDBQ 250820Z AUTO 20005KT 10SM CLR 01/M03 A2965  1330 75 0 200/05 RMK AO2 TSNO
94908KDBQ DBQ20050425022510304/25/05 02:25:31  5-MIN KDBQ 250825Z AUTO 21005KT 10SM CLR 01/M03 A2965  1330 75 0 210/05 RMK AO2 TSNO
94908KDBQ DBQ20050425023010304/25/05 02:30:31  5-MIN KDBQ 250830Z AUTO 21005KT 10SM CLR 01/M03 A2965  1330 75 0 210/05 RMK AO2 TSNO
94908KDBQ DBQ20050425023510304/25/05 02:35:31  5-MIN KDBQ 250835Z AUTO 22007KT 10SM CLR 01/M03 A2964  1330 75 0 220/07 RMK AO2 TSNO
94908KDBQ DBQ20050425024010304/25/05 02:40:31  5-MIN KDBQ 250840Z AUTO 22007KT 10SM CLR 01/M03 A2964  1330 75 0 220/07 RMK AO2 TSNO
94908KDBQ DBQ20050425024510304/25/05 02:45:31  5-MIN KDBQ 250845Z AUTO 22006KT 10SM CLR 01/M03 A2964  1340 75 0 220/06 RMK AO2 TSNO
94908KDBQ DBQ20050425025012604/25/05 02:50:31  5-MIN KDBQ 250850Z AUTO 22006KT 10SM CLR 01/M03 A2964  1340 75 0 220/06 RMK AO2 SLP044 T00061033 56009 TSNO
94908KDBQ DBQ20050425025512904/25/05 02:55:31  5-MIN KDBQ 250855Z AUTO 23007KT 10SM CLR 00/M03 A2964  1340 78 -100 230/07 RMK AO2 SLP044 T00001033 56017 TSNO
94908KDBQ DBQ20050425030010604/25/05 03:00:31  5-MIN KDBQ 250900Z AUTO 23006KT 10SM CLR 00/M03 A2964  1340 78 -100 230/06 RMK AO2 TSNO
94908KDBQ DBQ20050425030510304/25/05 03:05:31  5-MIN KDBQ 250905Z AUTO 24006KT 10SM CLR 01/M03 A2964  1340 75 0 230/06 RMK AO2 TSNO
94908KDBQ DBQ20050425031010304/25/05 03:10:31  5-MIN KDBQ 250910Z AUTO 24006KT 10SM CLR 01/M03 A2964  1340 75 0 240/06 RMK AO2 TSNO
94908KDBQ DBQ20050425031510304/25/05 03:15:31  5-MIN KDBQ 250915Z AUTO 23006KT 10SM CLR 01/M03 A2964  1340 75 0 230/06 RMK AO2 TSNO
94908KDBQ DBQ20050425032010604/25/05 03:20:31  5-MIN KDBQ 250920Z AUTO 23005KT 10SM CLR 00/M03 A2963  1340 78 -100 220/05 RMK AO2 TSNO
94908KDBQ DBQ20050425032510604/25/05 03:25:31  5-MIN KDBQ 250925Z AUTO 22006KT 10SM CLR 00/M03 A2963  1350 78 -100 220/06 RMK AO2 TSNO
94908KDBQ DBQ20050425033010304/25/05 03:30:31  5-MIN KDBQ 250930Z AUTO 22006KT 10SM CLR 01/M03 A2963  1350 75 0 220/06 RMK AO2 TSNO
94908KDBQ DBQ20050425033510304/25/05 03:35:31  5-MIN KDBQ 250935Z AUTO 23004KT 10SM CLR 01/M03 A2963  1350 75 0 220/04 RMK AO2 TSNO
94908KDBQ DBQ20050425034010604/25/05 03:40:31  5-MIN KDBQ 250940Z AUTO 22003KT 10SM CLR 00/M03 A2962  1350 78 -100 210/03 RMK AO2 TSNO
94908KDBQ DBQ20050425034510304/25/05 03:45:31  5-MIN KDBQ 250945Z AUTO 23003KT 10SM CLR 01/M03 A2962  1350 75 0 230/03 RMK AO2 TSNO
94908KDBQ DBQ20050425035012004/25/05 03:50:31  5-MIN KDBQ 250950Z AUTO 23004KT 10SM CLR 01/M03 A2962  1360 75 0 230/04 RMK AO2 SLP037 T00061033 TSNO
94908KDBQ DBQ20050425035512304/25/05 03:55:31  5-MIN KDBQ 250955Z AUTO 23005KT 10SM CLR 00/M03 A2962  1360 78 -100 230/05 RMK AO2 SLP037 T00001033 TSNO
94908KDBQ DBQ20050425040010304/25/05 04:00:31  5-MIN KDBQ 251000Z AUTO 23005KT 10SM CLR 01/M03 A2962  1360 75 0 230/05 RMK AO2 TSNO
94908KDBQ DBQ20050425040510304/25/05 04:05:31  5-MIN KDBQ 251005Z AUTO 22006KT 10SM CLR 01/M03 A2962  1360 75 0 220/06 RMK AO2 TSNO
94908KDBQ DBQ20050425041010304/25/05 04:10:31  5-MIN KDBQ 251010Z AUTO 21006KT 10SM CLR 01/M03 A2962  1360 75 0 210/06 RMK AO2 TSNO
94908KDBQ DBQ20050425041510304/25/05 04:15:31  5-MIN KDBQ 251015Z AUTO 20006KT 10SM CLR 01/M03 A2962  1360 75 0 200/06 RMK AO2 TSNO
94908KDBQ DBQ20050425042010304/25/05 04:20:31  5-MIN KDBQ 251020Z AUTO 19006KT 10SM CLR 01/M03 A2962  1360 75 0 190/06 RMK AO2 TSNO
94908KDBQ DBQ20050425042510304/25/05 04:25:31  5-MIN KDBQ 251025Z AUTO 20006KT 10SM CLR 01/M03 A2962  1360 75 0 200/06 RMK AO2 TSNO
94908KDBQ DBQ20050425043010604/25/05 04:30:31  5-MIN KDBQ 251030Z AUTO 20006KT 10SM CLR 00/M03 A2962  1360 78 -100 200/06 RMK AO2 TSNO
94908KDBQ DBQ20050425043510604/25/05 04:35:31  5-MIN KDBQ 251035Z AUTO 21006KT 10SM CLR 00/M03 A2962  1360 78 -100 210/06 RMK AO2 TSNO
94908KDBQ DBQ20050425044010604/25/05 04:40:31  5-MIN KDBQ 251040Z AUTO 21005KT 10SM CLR 00/M03 A2962  1360 78 -100 210/05 RMK AO2 TSNO
94908KDBQ DBQ20050425044510304/25/05 04:45:31  5-MIN KDBQ 251045Z AUTO 21006KT 10SM CLR 00/M03 A2962  1360 78 0 210/06 RMK AO2 TSNO
94908KDBQ DBQ20050425045012004/25/05 04:50:31  5-MIN KDBQ 251050Z AUTO 22007KT 10SM CLR 00/M03 A2962  1360 78 0 220/07 RMK AO2 SLP035 T00001033 TSNO
94908KDBQ DBQ20050425045510904/25/05 04:55:31  5-MIN KDBQ 251055Z 22007KT 10SM CLR 01/M03 A2962 1360 75 0 210/07 RMK AO2 SLP034 T00061033
94908KDBQ DBQ20050425050009204/25/05 05:00:31  5-MIN KDBQ 251100Z 21006KT 10SM CLR 00/M03 A2962 1360 78 0 210/06 RMK AO2
94908KDBQ DBQ20050425050509204/25/05 05:05:31  5-MIN KDBQ 251105Z 22007KT 10SM CLR 00/M03 A2962 1360 78 0 220/07 RMK AO2
94908KDBQ DBQ20050425051009504/25/05 05:10:31  5-MIN KDBQ 251110Z 21007KT 10SM FEW110 00/M03 A2961 1360 78 0 210/07 RMK AO2
94908KDBQ DBQ20050425051509504/25/05 05:15:31  5-MIN KDBQ 251115Z 21006KT 10SM FEW110 00/M03 A2961 1360 78 0 210/06 RMK AO2
94908KDBQ DBQ20050425052009504/25/05 05:20:31  5-MIN KDBQ 251120Z 22007KT 10SM SCT110 00/M03 A2961 1370 78 0 220/07 RMK AO2
94908KDBQ DBQ20050425052509504/25/05 05:25:31  5-MIN KDBQ 251125Z 22007KT 10SM BKN110 00/M03 A2961 1370 78 0 220/07 RMK AO2
94908KDBQ DBQ20050425053009504/25/05 05:30:31  5-MIN KDBQ 251130Z 22006KT 10SM BKN110 00/M03 A2961 1370 78 0 220/06 RMK AO2
94908KDBQ DBQ20050425053509504/25/05 05:35:31  5-MIN KDBQ 251135Z 22005KT 10SM BKN110 01/M03 A2961 1370 75 0 220/05 RMK AO2
94908KDBQ DBQ20050425054009504/25/05 05:40:31  5-MIN KDBQ 251140Z 20005KT 10SM BKN110 01/M03 A2961 1370 78 0 200/05 RMK AO2
94908KDBQ DBQ20050425054509504/25/05 05:45:31  5-MIN KDBQ 251145Z 21005KT 10SM SCT110 01/M03 A2961 1370 78 0 210/05 RMK AO2
94908KDBQ DBQ20050425055013204/25/05 05:50:31  5-MIN KDBQ 251150Z 20005KT 10SM FEW110 01/M03 A2961 1370 75 100 200/05 RMK AO2 SLP031 T00111028 10044 20000 56017
94908KDBQ DBQ20050425055513204/25/05 05:55:31  5-MIN KDBQ 251155Z 22006KT 10SM FEW110 01/M03 A2961 1370 75 100 220/06 RMK AO2 SLP031 T00111028 10044 20000 56013
94908KDBQ DBQ20050425060009704/25/05 06:00:31  5-MIN KDBQ 251200Z 23007KT 10SM FEW100 02/M03 A2960 1370 72 100 220/07 RMK AO2
94908KDBQ DBQ20050425060509704/25/05 06:05:31  5-MIN KDBQ 251205Z 22006KT 10SM FEW100 02/M03 A2960 1370 69 200 220/06 RMK AO2
94908KDBQ DBQ20050425061009704/25/05 06:10:31  5-MIN KDBQ 251210Z 22005KT 10SM SCT100 02/M02 A2960 1370 72 200 220/05 RMK AO2
94908KDBQ DBQ20050425061509704/25/05 06:15:31  5-MIN KDBQ 251215Z 21004KT 10SM FEW100 02/M02 A2960 1380 72 200 210/04 RMK AO2
94908KDBQ DBQ20050425062009704/25/05 06:20:31  5-MIN KDBQ 251220Z 20004KT 10SM FEW100 03/M02 A2959 1380 72 300 200/04 RMK AO2
94908KDBQ DBQ20050425062509704/25/05 06:25:31  5-MIN KDBQ 251225Z 21003KT 10SM SCT100 03/M01 A2959 1380 72 300 210/03 RMK AO2
94908KDBQ DBQ20050425063009704/25/05 06:30:31  5-MIN KDBQ 251230Z 23003KT 10SM BKN100 04/M02 A2959 1380 67 400 230/03 RMK AO2
94908KDBQ DBQ20050425063509704/25/05 06:35:31  5-MIN KDBQ 251235Z 21003KT 10SM BKN100 04/M01 A2959 1390 70 400 210/03 RMK AO2
94908KDBQ DBQ20050425064009704/25/05 06:40:31  5-MIN KDBQ 251240Z 21004KT 10SM BKN100 04/M01 A2959 1390 67 500 210/04 RMK AO2
94908KDBQ DBQ20050425064509704/25/05 06:45:31  5-MIN KDBQ 251245Z 21004KT 10SM BKN100 05/M01 A2959 1390 67 600 210/04 RMK AO2
94908KDBQ DBQ20050425065011404/25/05 06:50:31  5-MIN KDBQ 251250Z 21004KT 10SM SCT100 05/M01 A2959 1390 67 600 210/04 RMK AO2 SLP024 T00501006
94908KDBQ DBQ20050425065511404/25/05 06:55:31  5-MIN KDBQ 251255Z 22005KT 10SM SCT100 06/M01 A2959 1390 65 600 220/05 RMK AO2 SLP024 T00561006
94908KDBQ DBQ20050425070009704/25/05 07:00:31  5-MIN KDBQ 251300Z 22007KT 10SM FEW100 06/M01 A2959 1390 65 600 220/07 RMK AO2
94908KDBQ DBQ20050425070509604/25/05 07:05:31  5-MIN KDBQ 251305Z 22007KT 10SM FEW100 06/00 A2959 1390 65 700 220/07 RMK AO2
94908KDBQ DBQ20050425071009304/25/05 07:10:31  5-MIN KDBQ 251310Z 21009KT 10SM CLR 06/00 A2959 1380 65 700 210/09 RMK AO2
94908KDBQ DBQ20050425071509304/25/05 07:15:31  5-MIN KDBQ 251315Z 21009KT 10SM CLR 06/01 A2959 1390 67 700 210/09 RMK AO2
94908KDBQ DBQ20050425072009604/25/05 07:20:31  5-MIN KDBQ 251320Z 23009KT 10SM FEW120 07/01 A2959 1380 65 800 230/09 RMK AO2
94908KDBQ DBQ20050425072509704/25/05 07:25:31  5-MIN KDBQ 251325Z 24011KT 10SM FEW120 07/M01 A2959 1390 57 800 240/11 RMK AO2
94908KDBQ DBQ20050425073009704/25/05 07:30:31  5-MIN KDBQ 251330Z 25012KT 10SM SCT120 07/M01 A2959 1390 55 800 240/12 RMK AO2
94908KDBQ DBQ20050425073509704/25/05 07:35:31  5-MIN KDBQ 251335Z 24013KT 10SM SCT120 07/M01 A2959 1390 55 800 240/13 RMK AO2
94908KDBQ DBQ20050425074009704/25/05 07:40:31  5-MIN KDBQ 251340Z 24012KT 10SM FEW120 07/M01 A2958 1390 55 800 240/12 RMK AO2
94908KDBQ DBQ20050425074509704/25/05 07:45:31  5-MIN KDBQ 251345Z 24013KT 10SM FEW120 08/M01 A2958 1390 53 900 240/13 RMK AO2
94908KDBQ DBQ20050425075011404/25/05 07:50:31  5-MIN KDBQ 251350Z 24013KT 10SM FEW120 08/M01 A2958 1400 53 900 240/13 RMK AO2 SLP021 T00781011
94908KDBQ DBQ20050425075511404/25/05 07:55:31  5-MIN KDBQ 251355Z 25012KT 10SM FEW120 08/M01 A2958 1400 53 900 240/12 RMK AO2 SLP021 T00781011
94908KDBQ DBQ20050425080009404/25/05 08:00:31  5-MIN KDBQ 251400Z 24012KT 10SM CLR 08/00 A2958 1400 55 1000 240/12 RMK AO2
94908KDBQ DBQ20050425080509404/25/05 08:05:31  5-MIN KDBQ 251405Z 24011KT 10SM CLR 09/00 A2958 1400 53 1000 240/11 RMK AO2
94908KDBQ DBQ20050425081009404/25/05 08:10:31  5-MIN KDBQ 251410Z 24012KT 10SM CLR 09/00 A2957 1400 51 1100 240/12 RMK AO2
94908KDBQ DBQ20050425081509504/25/05 08:15:31  5-MIN KDBQ 251415Z 25012KT 10SM CLR 09/M01 A2957 1400 47 1100 250/12 RMK AO2
94908KDBQ DBQ20050425082009504/25/05 08:20:31  5-MIN KDBQ 251420Z 26010KT 10SM CLR 10/M01 A2957 1400 47 1200 260/10 RMK AO2
94908KDBQ DBQ20050425082509504/25/05 08:25:31  5-MIN KDBQ 251425Z 26012KT 10SM CLR 10/M01 A2957 1410 47 1200 260/12 RMK AO2
94908KDBQ DBQ20050425083009504/25/05 08:30:31  5-MIN KDBQ 251430Z 27009KT 10SM CLR 11/M01 A2956 1410 46 1300 260/09 RMK AO2
94908KDBQ DBQ20050425083509404/25/05 08:35:31  5-MIN KDBQ 251435Z 27011KT 10SM CLR 11/00 A2956 1410 46 1300 270/11 RMK AO2
94908KDBQ DBQ20050425084009404/25/05 08:40:31  5-MIN KDBQ 251440Z 27012KT 10SM CLR 12/00 A2956 1410 44 1400 270/12 RMK AO2
94908KDBQ DBQ20050425084509504/25/05 08:45:31  5-MIN KDBQ 251445Z 27013KT 10SM CLR 12/M01 A2956 1420 42 1400 270/13 RMK AO2
94908KDBQ DBQ20050425085012004/25/05 08:50:31  5-MIN KDBQ 251450Z 26012KT 10SM FEW120 12/00 A2955 1420 43 1500 260/12 RMK AO2 SLP011 T01220000 56013
94908KDBQ DBQ20050425085512104/25/05 08:55:31  5-MIN KDBQ 251455Z 27013KT 10SM SCT120 12/M01 A2956 1420 41 1500 270/13 RMK AO2 SLP011 T01221006 58016
94908KDBQ DBQ20050425090009704/25/05 09:00:31  5-MIN KDBQ 251500Z 26011KT 10SM BKN110 12/00 A2955 1420 43 1500 260/11 RMK AO2
94908KDBQ DBQ20050425090509704/25/05 09:05:31  5-MIN KDBQ 251505Z 27012KT 10SM BKN110 13/00 A2956 1420 41 1500 270/12 RMK AO2
94908KDBQ DBQ20050425091009704/25/05 09:10:31  5-MIN KDBQ 251510Z 27013KT 10SM BKN110 13/00 A2955 1420 41 1500 270/13 RMK AO2
94908KDBQ DBQ20050425091509804/25/05 09:15:31  5-MIN KDBQ 251515Z 27011KT 10SM BKN110 13/M01 A2955 1420 39 1500 270/11 RMK AO2
94908KDBQ DBQ20050425092009704/25/05 09:20:31  5-MIN KDBQ 251520Z 26010KT 10SM SCT110 13/01 A2955 1420 43 1600 260/10 RMK AO2
94908KDBQ DBQ20050425092509704/25/05 09:25:31  5-MIN KDBQ 251525Z 25013KT 10SM SCT110 13/00 A2955 1420 40 1600 240/13 RMK AO2
94908KDBQ DBQ20050425093009804/25/05 09:30:31  5-MIN KDBQ 251530Z 24010KT 10SM FEW110 13/M01 A2955 1420 38 1600 240/10 RMK AO2
94908KDBQ DBQ20050425093509704/25/05 09:35:31  5-MIN KDBQ 251535Z 26010KT 10SM FEW110 13/01 A2955 1420 41 1600 250/10 RMK AO2
94908KDBQ DBQ20050425094009804/25/05 09:40:31  5-MIN KDBQ 251540Z 25012KT 10SM FEW120 14/M01 A2955 1430 37 1700 250/12 RMK AO2
94908KDBQ DBQ20050425094509804/25/05 09:45:31  5-MIN KDBQ 251545Z 25011KT 10SM FEW120 14/M01 A2954 1430 35 1700 250/11 RMK AO2
94908KDBQ DBQ20050425095012104/25/05 09:50:31  5-MIN KDBQ 251550Z 24014G17KT 10SM FEW120 14/00 A2954  1430 37 1700 240/14G17 RMK AO2 SLP006 T01440000
94908KDBQ DBQ20050425095512204/25/05 09:55:31  5-MIN KDBQ 251555Z 26013G19KT 10SM FEW120 14/M01 A2954  1430 34 1700 260/13G19 RMK AO2 SLP004 T01441011
94908KDBQ DBQ20050425100010504/25/05 10:00:31  5-MIN KDBQ 251600Z 24015G19KT 10SM FEW120 14/M02 A2954  1430 34 1700 240/15G19 RMK AO2
94908KDBQ DBQ20050425100510504/25/05 10:05:31  5-MIN KDBQ 251605Z 24012G18KT 10SM FEW120 14/M01 A2954  1430 35 1700 240/12G18 RMK AO2
94908KDBQ DBQ20050425101009804/25/05 10:10:31  5-MIN KDBQ 251610Z 24013KT 10SM FEW110 14/M01 A2953 1440 34 1700 240/13 RMK AO2
94908KDBQ DBQ20050425101510504/25/05 10:15:31  5-MIN KDBQ 251615Z 24015G19KT 10SM SCT110 15/M01 A2953  1440 34 1800 240/15G19 RMK AO2
94908KDBQ DBQ20050425102010504/25/05 10:20:31  5-MIN KDBQ 251620Z 25014G19KT 10SM BKN110 15/M01 A2953  1440 33 1800 250/14G19 RMK AO2
94908KDBQ DBQ20050425102509804/25/05 10:25:31  5-MIN KDBQ 251625Z 24013KT 10SM BKN110 15/M02 A2953 1440 31 1800 240/13 RMK AO2
94908KDBQ DBQ20050425103010504/25/05 10:30:31  5-MIN KDBQ 251630Z 24013G19KT 10SM BKN110 15/M01 A2952  1450 34 1800 240/13G19 RMK AO2
94908KDBQ DBQ20050425103510404/25/05 10:35:31  5-MIN KDBQ 251635Z 24013G19KT 10SM BKN110 16/00 A2953  1450 34 1900 230/13G19 RMK AO2
94908KDBQ DBQ20050425104010504/25/05 10:40:31  5-MIN KDBQ 251640Z 25017G21KT 10SM SCT110 16/M01 A2952  1450 33 1900 240/17G21 RMK AO2
94908KDBQ DBQ20050425104510504/25/05 10:45:31  5-MIN KDBQ 251645Z 24015G21KT 10SM SCT110 16/M01 A2952  1450 31 1900 240/15G21 RMK AO2
94908KDBQ DBQ20050425105012204/25/05 10:50:31  5-MIN KDBQ 251650Z 24016G20KT 10SM FEW110 16/M01 A2952  1450 31 1900 240/16G20 RMK AO2 SLP998 T01561011
94908KDBQ DBQ20050425105511804/25/05 10:55:31  5-MIN KDBQ 251655Z 24015G20KT 10SM CLR 16/M01 A2952 1460 31 1900 240/15G20 RMK AO2 SLP998 T01561011
94908KDBQ DBQ20050425110009504/25/05 11:00:31  5-MIN KDBQ 251700Z 21014KT 10SM CLR 16/M02 A2951 1460 30 1900 210/14 RMK AO2
94908KDBQ DBQ20050425110509504/25/05 11:05:31  5-MIN KDBQ 251705Z 24016KT 10SM CLR 16/M01 A2951 1460 30 2000 240/16 RMK AO2
94908KDBQ DBQ20050425111009504/25/05 11:10:31  5-MIN KDBQ 251710Z 25015KT 10SM CLR 16/M01 A2951 1460 30 2000 250/15 RMK AO2
94908KDBQ DBQ20050425111510104/25/05 11:15:31  5-MIN KDBQ 251715Z 22015G20KT 10SM CLR 16/M01 A2951 1460 30 2000 220/15G20 RMK AO2
94908KDBQ DBQ20050425112010104/25/05 11:20:31  5-MIN KDBQ 251720Z 25012G20KT 10SM CLR 16/M02 A2950 1470 29 1900 250/12G20 RMK AO2
94908KDBQ DBQ20050425112510104/25/05 11:25:31  5-MIN KDBQ 251725Z 25013G18KT 10SM CLR 16/M01 A2950 1470 30 2000 250/13G18 RMK AO2
94908KDBQ DBQ20050425113009504/25/05 11:30:31  5-MIN KDBQ 251730Z 23012KT 10SM CLR 16/M01 A2950 1470 31 1900 230/12 RMK AO2
94908KDBQ DBQ20050425113509804/25/05 11:35:31  5-MIN KDBQ 251735Z 24012KT 10SM FEW110 16/M01 A2949 1480 31 1900 240/12 RMK AO2
94908KDBQ DBQ20050425114009804/25/05 11:40:31  5-MIN KDBQ 251740Z 24012KT 10SM FEW110 16/M02 A2949 1480 30 1900 240/12 RMK AO2
94908KDBQ DBQ20050425114509804/25/05 11:45:31  5-MIN KDBQ 251745Z 23015KT 10SM FEW110 16/M01 A2949 1480 33 1900 230/15 RMK AO2
94908KDBQ DBQ20050425115013304/25/05 11:50:31  5-MIN KDBQ 251750Z 23015KT 10SM FEW110 16/M01 A2948 1490 30 2000 230/15 RMK AO2 SLP985 T01611011 10161 20011 58016
94908KDBQ DBQ20050425115513204/25/05 11:55:31  5-MIN KDBQ 251755Z 25017KT 10SM FEW110 16/00 A2948 1490 33 2000 250/17 RMK AO2 SLP984 T01610000 10161 20011 58026
94908KDBQ DBQ20050425120010404/25/05 12:00:31  5-MIN KDBQ 251800Z 24019G23KT 10SM FEW110 16/00 A2947  1500 33 2000 240/19G23 RMK AO2
94908KDBQ DBQ20050425120510004/25/05 12:05:31  5-MIN KDBQ 251805Z 23014G23KT 10SM CLR 16/00 A2947 1500 33 2000 230/14G23 RMK AO2
94908KDBQ DBQ20050425121009404/25/05 12:10:31  5-MIN KDBQ 251810Z 23016KT 10SM CLR 16/00 A2947 1500 33 2000 230/16 RMK AO2
94908KDBQ DBQ20050425121510004/25/05 12:15:31  5-MIN KDBQ 251815Z 23014G23KT 10SM CLR 17/01 A2946 1500 33 2100 230/14G23 RMK AO2
94908KDBQ DBQ20050425122010404/25/05 12:20:31  5-MIN KDBQ 251820Z 24017G23KT 10SM FEW080 17/01 A2946  1510 34 2100 240/17G23 RMK AO2
94908KDBQ DBQ20050425122510404/25/05 12:25:31  5-MIN KDBQ 251825Z 22018G24KT 10SM SCT085 16/01 A2946  1510 34 2000 220/18G24 RMK AO2
94908KDBQ DBQ20050425123010404/25/05 12:30:31  5-MIN KDBQ 251830Z 25014G24KT 10SM SCT080 16/01 A2946  1510 34 2000 250/14G24 RMK AO2
94908KDBQ DBQ20050425123510404/25/05 12:35:31  5-MIN KDBQ 251835Z 23017G23KT 10SM BKN080 16/01 A2946  1510 36 2000 230/17G23 RMK AO2
94908KDBQ DBQ20050425124010404/25/05 12:40:31  5-MIN KDBQ 251840Z 23019G23KT 10SM BKN080 16/01 A2945  1510 36 2000 230/19G23 RMK AO2
94908KDBQ DBQ20050425124510404/25/05 12:45:31  5-MIN KDBQ 251845Z 24017G22KT 10SM BKN080 16/01 A2945  1520 36 2000 230/17G22 RMK AO2
94908KDBQ DBQ20050425125011404/25/05 12:50:31  5-MIN KDBQ 251850Z 23021KT 10SM BKN075 16/01 A2944 1520 37 2000 220/21 RMK AO2 SLP973 T01560011
94908KDBQ DBQ20050425125511404/25/05 12:55:31  5-MIN KDBQ 251855Z 23014KT 10SM BKN075 16/01 A2945 1520 37 2000 230/14 RMK AO2 SLP974 T01560011
94908KDBQ DBQ20050425130010404/25/05 13:00:31  5-MIN KDBQ 251900Z 23018G22KT 10SM BKN075 16/01 A2944  1520 37 2000 230/18G22 RMK AO2
94908KDBQ DBQ20050425130511104/25/05 13:05:31  5-MIN KDBQ 251905Z 23016G22KT 10SM FEW060 BKN075 16/01  A2945 1520 37 2000 230/16G22 RMK AO2
94908KDBQ DBQ20050425131011104/25/05 13:10:31  5-MIN KDBQ 251910Z 23014G21KT 10SM FEW055 BKN070 16/01  A2944 1520 37 2000 230/14G21 RMK AO2
94908KDBQ DBQ20050425131510504/25/05 13:15:31  5-MIN KDBQ 251915Z 24013KT 10SM FEW055 BKN070 15/02  A2945 1520 40 1900 240/13 RMK AO2
94908KDBQ DBQ20050425132011104/25/05 13:20:31  5-MIN KDBQ 251920Z 24014G25KT 10SM FEW055 BKN070 16/02  A2944 1530 39 2000 240/14G25 RMK AO2
94908KDBQ DBQ20050425132511104/25/05 13:25:31  5-MIN KDBQ 251925Z 24018G25KT 10SM FEW055 BKN075 16/01  A2943 1530 37 2000 240/18G25 RMK AO2
94908KDBQ DBQ20050425133010504/25/05 13:30:31  5-MIN KDBQ 251930Z 24015KT 10SM FEW055 BKN075 16/02  A2943 1530 39 2000 230/15 RMK AO2
94908KDBQ DBQ20050425133510504/25/05 13:35:31  5-MIN KDBQ 251935Z 23016KT 10SM BKN075 BKN085 16/02  A2943 1530 39 2000 230/16 RMK AO2
94908KDBQ DBQ20050425134010504/25/05 13:40:31  5-MIN KDBQ 251940Z 24015KT 10SM FEW065 BKN080 16/02  A2943 1540 39 2000 230/15 RMK AO2
94908KDBQ DBQ20050425134509704/25/05 13:45:31  5-MIN KDBQ 251945Z 24015KT 10SM SCT080 16/02 A2943 1540 39 2000 240/15 RMK AO2
94908KDBQ DBQ20050425135012104/25/05 13:50:31  5-MIN KDBQ 251950Z 24015G20KT 10SM SCT080 16/02 A2942  1540 40 2000 230/15G20 RMK AO2 SLP966 T01560022
94908KDBQ DBQ20050425135512104/25/05 13:55:31  5-MIN KDBQ 251955Z 23014G20KT 10SM SCT075 16/02 A2942  1540 39 2000 230/14G20 RMK AO2 SLP966 T01560017
94908KDBQ DBQ20050425140009704/25/05 14:00:31  5-MIN KDBQ 252000Z 23018KT 10SM BKN070 16/02 A2942 1550 39 2000 230/18 RMK AO2
94908KDBQ DBQ20050425140509704/25/05 14:05:31  5-MIN KDBQ 252005Z 24018KT 10SM BKN075 16/02 A2941 1550 39 2000 230/18 RMK AO2
94908KDBQ DBQ20050425141010404/25/05 14:10:31  5-MIN KDBQ 252010Z 24019G25KT 10SM BKN075 16/02 A2941  1560 39 2000 240/19G25 RMK AO2
94908KDBQ DBQ20050425141512204/25/05 14:15:31  5-MIN KDBQ 252015Z 25021G26KT 10SM BKN075 16/02 A2940  1560 39 2000 250/21G26 RMK AO2 PK WND 26026/2013
94908KDBQ DBQ20050425142012204/25/05 14:20:31  5-MIN KDBQ 252020Z 24015G26KT 10SM BKN075 15/02 A2940  1560 42 2000 240/15G26 RMK AO2 PK WND 26026/2013
94908KDBQ DBQ20050425142511504/25/05 14:25:31  5-MIN KDBQ 252025Z 24014KT 10SM BKN070 15/02 A2940 1560 42 2000 230/14 RMK AO2 PK WND 26026/2013
94908KDBQ DBQ20050425143012204/25/05 14:30:31  5-MIN KDBQ 252030Z 24016G24KT 10SM BKN070 15/02 A2940  1560 40 2000 240/16G24 RMK AO2 PK WND 26026/2013
94908KDBQ DBQ20050425143512204/25/05 14:35:31  5-MIN KDBQ 252035Z 24014G24KT 10SM OVC070 15/02 A2940  1560 42 2000 240/14G24 RMK AO2 PK WND 26026/2013
94908KDBQ DBQ20050425144012204/25/05 14:40:31  5-MIN KDBQ 252040Z 28017G24KT 10SM OVC070 14/03 A2942  1550 45 1900 270/17G24 RMK AO2 PK WND 26026/2013
94908KDBQ DBQ20050425144512204/25/05 14:45:31  5-MIN KDBQ 252045Z 29016G24KT 10SM OVC070 14/04 A2942  1540 50 1800 290/16G24 RMK AO2 PK WND 26026/2013
94908KDBQ DBQ20050425145015704/25/05 14:50:31  5-MIN KDBQ 252050Z 29019G23KT 10SM OVC070 13/04 A2942  1540 52 1700 290/19G23 RMK AO2 PK WND 26026/2013 WSHFT 2034 SLP968  T01330039 58026
94908KDBQ DBQ20050425145515704/25/05 14:55:31  5-MIN KDBQ 252055Z 30020G24KT 10SM OVC070 13/04 A2942  1540 52 1700 300/20G24 RMK AO2 PK WND 26026/2013 WSHFT 2034 SLP969  T01330039 55017
94908KDBQ DBQ20050425150012204/25/05 15:00:31  5-MIN KDBQ 252100Z 30023G26KT 10SM BKN070 13/03 A2943  1540 50 1700 290/23G26 RMK AO2 PK WND 30027/2100
94908KDBQ DBQ20050425150512204/25/05 15:05:31  5-MIN KDBQ 252105Z 30022G26KT 10SM BKN070 13/03 A2943  1530 50 1700 300/22G26 RMK AO2 PK WND 30027/2100
94908KDBQ DBQ20050425151012204/25/05 15:10:31  5-MIN KDBQ 252110Z 30020G26KT 10SM BKN070 13/03 A2943  1530 52 1700 300/20G26 RMK AO2 PK WND 30027/2100
94908KDBQ DBQ20050425151512204/25/05 15:15:31  5-MIN KDBQ 252115Z 31021G27KT 10SM SCT070 12/04 A2943  1530 56 1600 300/21G27 RMK AO2 PK WND 31027/2111
94908KDBQ DBQ20050425152012204/25/05 15:20:31  5-MIN KDBQ 252120Z 30022G27KT 10SM FEW070 12/04 A2943  1530 59 1600 300/22G27 RMK AO2 PK WND 31027/2111
94908KDBQ DBQ20050425152512204/25/05 15:25:31  5-MIN KDBQ 252125Z 30021G28KT 10SM FEW070 12/04 A2943  1530 61 1500 300/21G28 RMK AO2 PK WND 31028/2122
94908KDBQ DBQ20050425153012204/25/05 15:30:31  5-MIN KDBQ 252130Z 30023G28KT 10SM FEW070 12/04 A2944  1530 61 1500 300/23G28 RMK AO2 PK WND 31028/2122
94908KDBQ DBQ20050425153512204/25/05 15:35:31  5-MIN KDBQ 252135Z 29018G26KT 10SM FEW095 12/04 A2944  1520 58 1500 290/18G26 RMK AO2 PK WND 31028/2122
94908KDBQ DBQ20050425154012904/25/05 15:40:31  5-MIN KDBQ 252140Z 29019G24KT 10SM FEW070 SCT090 11/04  A2944 1520 63 1500 290/19G24 RMK AO2 PK WND 31028/2122
94908KDBQ DBQ20050425154513004/25/05 15:45:31  5-MIN KDBQ 252145Z 29018KT 10SM FEW050 SCT070 SCT090  11/04 A2944 1520 66 1400 290/18 RMK AO2 PK WND 31028/2122
94908KDBQ DBQ20050425155016304/25/05 15:50:31  5-MIN KDBQ 252150Z 29017KT 10SM -RA FEW048 SCT055 BKN070 10/04 A2945 1520 68 1300 290/17 RMK AO2 PK WND 31028/2122 RAB49 SLP977  P0000 T01000044
94908KDBQ DBQ20050425155515604/25/05 15:55:31  5-MIN KDBQ 252155Z 29018KT 10SM -RA BKN046 BKN070 09/04 A2945 1520 71 1200 290/18 RMK AO2 PK WND 31028/2122 RAB49 SLP979 P0000  T00940044
94908KDBQ DBQ20050425160012004/25/05 16:00:31  5-MIN KDBQ 252200Z 29017KT 9SM -RA SCT039 BKN048 BKN070 09/05 A2945 1520 76 1200 290/17 RMK AO2 P0000
94908KDBQ DBQ20050425160512004/25/05 16:05:31  5-MIN KDBQ 252205Z 29014KT 8SM -RA BKN037 BKN048 OVC070 09/05 A2946 1510 76 1200 290/14 RMK AO2 P0000
94908KDBQ DBQ20050425161011304/25/05 16:10:31  5-MIN KDBQ 252210Z 28012KT 6SM RA BKN037 OVC046 09/06  A2946 1510 79 1200 280/12 RMK AO2 P0000
94908KDBQ DBQ20050425161511404/25/05 16:15:31  5-MIN KDBQ 252215Z 29012KT 7SM -RA BKN037 OVC046 08/06  A2946 1510 82 1100 290/12 RMK AO2 P0001
94908KDBQ DBQ20050425162011404/25/05 16:20:31  5-MIN KDBQ 252220Z 28013KT 7SM -RA BKN033 OVC046 08/06  A2946 1500 82 1100 280/13 RMK AO2 P0001
94908KDBQ DBQ20050425162511304/25/05 16:25:31  5-MIN KDBQ 252225Z 29013KT 5SM RA BKN031 OVC046 08/06  A2946 1510 82 1100 290/13 RMK AO2 P0002
94908KDBQ DBQ20050425163011504/25/05 16:30:31  5-MIN KDBQ 252230Z 28010KT 5SM RA BR BKN031 OVC046 08/06 A2946 1510 86 1100 280/10 RMK AO2 P0003
94908KDBQ DBQ20050425163511704/25/05 16:35:31  5-MIN KDBQ 252235Z 28010KT 6SM -RA BR BKN031 OVC046  08/06 A2946 1510 86 1100 270/10 RMK AO2 P0004
94908KDBQ DBQ20050425164011404/25/05 16:40:31  5-MIN KDBQ 252240Z 27011KT 8SM -RA SCT032 OVC048 08/06  A2946 1500 86 1100 270/11 RMK AO2 P0004
94908KDBQ DBQ20050425164511404/25/05 16:45:31  5-MIN KDBQ 252245Z 27012KT 10SM -RA BKN034 OVC047 08/06 A2947 1500 86 1100 260/12 RMK AO2 P0004
94908KDBQ DBQ20050425165013804/25/05 16:50:31  5-MIN KDBQ 252250Z 26011KT 10SM -RA FEW024 BKN034 OVC050 08/06 A2947 1500 86 1100 260/11 RMK AO2 SLP987 P0004 T00830061
94908KDBQ DBQ20050425165514404/25/05 16:55:31  5-MIN KDBQ 252255Z 26014G19KT 9SM -RA FEW013 BKN038  OVC050 08/06 A2947 1490 86 1100 260/14G19 RMK AO2 SLP988 P0004 T00830061
94908KDBQ DBQ20050425170012704/25/05 17:00:31  5-MIN KDBQ 252300Z 28015G22KT 8SM -RA FEW013 BKN036  OVC050 08/06 A2947 1490 89 1000 280/15G22 RMK AO2 P0000
94908KDBQ DBQ20050425170512704/25/05 17:05:31  5-MIN KDBQ 252305Z 28017G22KT 8SM -RA FEW011 BKN034  OVC050 08/06 A2948 1490 86 1000 280/17G22 RMK AO2 P0000
94908KDBQ DBQ20050425171012704/25/05 17:10:31  5-MIN KDBQ 252310Z 28016G21KT 9SM -RA FEW011 SCT021  OVC034 07/06 A2948 1490 89 1000 280/16G21 RMK AO2 P0001
94908KDBQ DBQ20050425171512104/25/05 17:15:31  5-MIN KDBQ 252315Z 28016KT 10SM -RA FEW011 SCT022 OVC032 07/05 A2947 1490 86 1000 280/16 RMK AO2 P0001
94908KDBQ DBQ20050425172012404/25/05 17:20:31  5-MIN KDBQ 252320Z 28016KT 10SM FEW011 SCT022 OVC032  07/05 A2947 1500 86 1000 280/16 RMK AO2 RAE17 P0001
94908KDBQ DBQ20050425172512404/25/05 17:25:31  5-MIN KDBQ 252325Z 28016KT 10SM FEW011 BKN032 BKN039  07/05 A2947 1500 86 1000 280/16 RMK AO2 RAE17 P0001
94908KDBQ DBQ20050425173012404/25/05 17:30:31  5-MIN KDBQ 252330Z 28015KT 10SM FEW017 SCT025 BKN032  07/05 A2947 1490 86 1000 280/15 RMK AO2 RAE17 P0001
94908KDBQ DBQ20050425173512904/25/05 17:35:31  5-MIN KDBQ 252335Z 28018G23KT 10SM FEW014 BKN021 BKN032 07/05 A2948 1490 86 1000 280/18G23 RMK AO2 RAE17 P0001
94908KDBQ DBQ20050425174012804/25/05 17:40:31  5-MIN KDBQ 252340Z 28017G23KT 10SM BKN017 BKN025 OVC032 07/04 A2948 1490 86 900 280/17G23 RMK AO2 RAE17 P0001
94908KDBQ DBQ20050425174512304/25/05 17:45:31  5-MIN KDBQ 252345Z 28016KT 10SM BKN015 BKN022 OVC032  07/04 A2948 1490 86 900 280/16 RMK AO2 RAE17 P0001
94908KDBQ DBQ20050425175015804/25/05 17:50:31  5-MIN KDBQ 252350Z 28016KT 10SM BKN015 BKN022 07/04  A2948 1490 82 900 280/16 RMK AO2 RAE17 SLP990 P0001 60005 T00670039 10167  20067 55017
94908KDBQ DBQ20050425175514904/25/05 17:55:31  5-MIN KDBQ 252355Z 28011KT 10SM OVC015 07/04 A2948 1490 86 900 280/11 RMK AO2 RAE17 SLP989 P0001 60005 T00670044 10167 20067 51017
94908KDBQ DBQ20050425180009604/25/05 18:00:31  5-MIN KDBQ 260000Z 29011KT 10SM OVC017 07/04 A2948 1490 86 900 290/11 RMK AO2
94908KDBQ DBQ20050425180511104/25/05 18:05:31  5-MIN KDBQ 260005Z 28008KT 10SM BKN015 BKN020 OVC024  07/04 A2947 1500 82 900 280/08 RMK AO2
94908KDBQ DBQ20050425181010404/25/05 18:10:31  5-MIN KDBQ 260010Z 28011KT 10SM BKN017 BKN024 07/04  A2948 1490 82 900 280/11 RMK AO2
94908KDBQ DBQ20050425181510404/25/05 18:15:31  5-MIN KDBQ 260015Z 29011KT 10SM SCT017 BKN024 07/04  A2948 1490 82 900 280/11 RMK AO2
94908KDBQ DBQ20050425182011104/25/05 18:20:31  5-MIN KDBQ 260020Z 28009KT 10SM SCT017 BKN024 BKN120  06/04 A2948 1490 86 800 280/09 RMK AO2
94908KDBQ DBQ20050425182511104/25/05 18:25:31  5-MIN KDBQ 260025Z 28009KT 10SM SCT017 BKN024 BKN120  06/04 A2948 1490 86 800 280/09 RMK AO2
94908KDBQ DBQ20050425183010404/25/05 18:30:31  5-MIN KDBQ 260030Z 28009KT 10SM FEW024 SCT120 06/04  A2948 1490 86 800 280/09 RMK AO2
94908KDBQ DBQ20050425183509604/25/05 18:35:31  5-MIN KDBQ 260035Z 27007KT 10SM FEW120 06/04 A2947 1500 86 800 270/07 RMK AO2
94908KDBQ DBQ20050425184010104/25/05 18:40:31  5-MIN KDBQ 260040Z AUTO 26008KT 10SM FEW120 06/04 A2947 1500 86 800 260/08 RMK AO2
94908KDBQ DBQ20050425184510604/25/05 18:45:31  5-MIN KDBQ 260045Z AUTO 26008KT 10SM FEW120 06/04 A2947 1500 86 800 260/08 RMK AO2 TSNO
94908KDBQ DBQ20050425185012104/25/05 18:50:31  5-MIN KDBQ 260050Z AUTO 26008KT 10SM CLR 06/04 A2947  1490 86 800 260/08 RMK AO2 SLP986 T00610039 TSNO
94908KDBQ DBQ20050425185512104/25/05 18:55:31  5-MIN KDBQ 260055Z AUTO 26009KT 10SM CLR 06/03 A2947  1500 82 800 260/09 RMK AO2 SLP985 T00610033 TSNO
94908KDBQ DBQ20050425190010404/25/05 19:00:31  5-MIN KDBQ 260100Z AUTO 25007KT 10SM CLR 06/04 A2947  1500 86 800 250/07 RMK AO2 TSNO
94908KDBQ DBQ20050425190510404/25/05 19:05:31  5-MIN KDBQ 260105Z AUTO 24008KT 10SM CLR 06/04 A2947  1490 86 800 240/08 RMK AO2 TSNO
94908KDBQ DBQ20050425191010404/25/05 19:10:31  5-MIN KDBQ 260110Z AUTO 24008KT 10SM CLR 06/04 A2947  1500 89 800 240/08 RMK AO2 TSNO
94908KDBQ DBQ20050425191510404/25/05 19:15:31  5-MIN KDBQ 260115Z AUTO 24007KT 10SM CLR 06/04 A2947  1500 89 800 230/07 RMK AO2 TSNO
94908KDBQ DBQ20050425192010404/25/05 19:20:31  5-MIN KDBQ 260120Z AUTO 23006KT 10SM CLR 06/04 A2947  1500 89 800 230/06 RMK AO2 TSNO
94908KDBQ DBQ20050425192510404/25/05 19:25:31  5-MIN KDBQ 260125Z AUTO 24007KT 10SM CLR 06/03 A2947  1500 85 800 240/07 RMK AO2 TSNO
94908KDBQ DBQ20050425193010404/25/05 19:30:31  5-MIN KDBQ 260130Z AUTO 24007KT 10SM CLR 06/03 A2947  1500 85 800 240/07 RMK AO2 TSNO
94908KDBQ DBQ20050425193510404/25/05 19:35:31  5-MIN KDBQ 260135Z AUTO 24008KT 10SM CLR 05/03 A2947  1490 89 700 240/08 RMK AO2 TSNO
94908KDBQ DBQ20050425194010604/25/05 19:40:31  5-MIN KDBQ 260140Z AUTO 24007KT 10SM SCT060 05/03 A2948 1490 89 700 240/07 RMK AO2 TSNO
94908KDBQ DBQ20050425194510604/25/05 19:45:31  5-MIN KDBQ 260145Z AUTO 24008KT 10SM SCT060 05/03 A2947 1490 89 700 240/08 RMK AO2 TSNO
94908KDBQ DBQ20050425195012304/25/05 19:50:31  5-MIN KDBQ 260150Z AUTO 24008KT 10SM FEW060 05/03 A2947 1490 89 700 240/08 RMK AO2 SLP986 T00500033 TSNO
94908KDBQ DBQ20050425195512304/25/05 19:55:31  5-MIN KDBQ 260155Z AUTO 24006KT 10SM FEW060 05/03 A2947 1490 85 700 240/06 RMK AO2 SLP986 T00500028 TSNO
94908KDBQ DBQ20050425200010604/25/05 20:00:31  5-MIN KDBQ 260200Z AUTO 24006KT 10SM FEW060 04/03 A2948 1490 89 600 240/06 RMK AO2 TSNO
94908KDBQ DBQ20050425200510604/25/05 20:05:31  5-MIN KDBQ 260205Z AUTO 24007KT 10SM FEW060 04/03 A2948 1490 89 600 240/07 RMK AO2 TSNO
94908KDBQ DBQ20050425201010404/25/05 20:10:31  5-MIN KDBQ 260210Z AUTO 24007KT 10SM CLR 04/03 A2947  1490 89 600 240/07 RMK AO2 TSNO
94908KDBQ DBQ20050425201510404/25/05 20:15:31  5-MIN KDBQ 260215Z AUTO 24008KT 10SM CLR 04/03 A2947  1490 89 600 240/08 RMK AO2 TSNO
94908KDBQ DBQ20050425202010404/25/05 20:20:31  5-MIN KDBQ 260220Z AUTO 24008KT 10SM CLR 04/03 A2947  1490 92 500 240/08 RMK AO2 TSNO
94908KDBQ DBQ20050425202510404/25/05 20:25:31  5-MIN KDBQ 260225Z AUTO 24007KT 10SM CLR 04/03 A2947  1490 92 500 240/07 RMK AO2 TSNO
94908KDBQ DBQ20050425203010404/25/05 20:30:31  5-MIN KDBQ 260230Z AUTO 24007KT 10SM CLR 04/02 A2947  1500 89 600 240/07 RMK AO2 TSNO
94908KDBQ DBQ20050425203510404/25/05 20:35:31  5-MIN KDBQ 260235Z AUTO 24007KT 10SM CLR 03/02 A2947  1500 92 500 240/07 RMK AO2 TSNO
94908KDBQ DBQ20050425204010404/25/05 20:40:31  5-MIN KDBQ 260240Z AUTO 24008KT 10SM CLR 03/02 A2947  1490 92 500 240/08 RMK AO2 TSNO
94908KDBQ DBQ20050425204510404/25/05 20:45:31  5-MIN KDBQ 260245Z AUTO 24008KT 10SM CLR 03/02 A2947  1490 92 500 240/08 RMK AO2 TSNO
94908KDBQ DBQ20050425205012704/25/05 20:50:31  5-MIN KDBQ 260250Z AUTO 24007KT 10SM CLR 03/02 A2947  1490 89 500 240/07 RMK AO2 SLP985 T00330017 51017 TSNO
94908KDBQ DBQ20050425205512704/25/05 20:55:31  5-MIN KDBQ 260255Z AUTO 24007KT 10SM CLR 03/02 A2947  1490 89 500 240/07 RMK AO2 SLP985 T00330017 56001 TSNO
94908KDBQ DBQ20050425210010404/25/05 21:00:31  5-MIN KDBQ 260300Z AUTO 24007KT 10SM CLR 03/02 A2947  1490 89 500 240/07 RMK AO2 TSNO
94908KDBQ DBQ20050425210510404/25/05 21:05:31  5-MIN KDBQ 260305Z AUTO 24007KT 10SM CLR 03/02 A2947  1500 92 400 240/07 RMK AO2 TSNO
94908KDBQ DBQ20050425211010404/25/05 21:10:31  5-MIN KDBQ 260310Z AUTO 25007KT 10SM CLR 03/02 A2947  1500 92 400 250/07 RMK AO2 TSNO
94908KDBQ DBQ20050425211510404/25/05 21:15:31  5-MIN KDBQ 260315Z AUTO 25007KT 10SM CLR 03/02 A2947  1500 89 500 250/07 RMK AO2 TSNO
94908KDBQ DBQ20050425212010404/25/05 21:20:31  5-MIN KDBQ 260320Z AUTO 24008KT 10SM CLR 03/02 A2947  1500 89 500 240/08 RMK AO2 TSNO
94908KDBQ DBQ20050425212510404/25/05 21:25:31  5-MIN KDBQ 260325Z AUTO 24007KT 10SM CLR 03/02 A2947  1500 89 500 240/07 RMK AO2 TSNO
94908KDBQ DBQ20050425213010404/25/05 21:30:31  5-MIN KDBQ 260330Z AUTO 24008KT 10SM CLR 03/02 A2947  1500 92 400 240/08 RMK AO2 TSNO
94908KDBQ DBQ20050425213510404/25/05 21:35:31  5-MIN KDBQ 260335Z AUTO 24008KT 10SM CLR 03/02 A2947  1500 89 500 240/08 RMK AO2 TSNO
94908KDBQ DBQ20050425214010404/25/05 21:40:31  5-MIN KDBQ 260340Z AUTO 24007KT 10SM CLR 03/02 A2947  1500 89 500 240/07 RMK AO2 TSNO
94908KDBQ DBQ20050425214510404/25/05 21:45:31  5-MIN KDBQ 260345Z AUTO 24008KT 10SM CLR 03/02 A2947  1500 92 400 240/08 RMK AO2 TSNO
94908KDBQ DBQ20050425215012104/25/05 21:50:31  5-MIN KDBQ 260350Z AUTO 24008KT 10SM CLR 03/02 A2947  1500 89 500 240/08 RMK AO2 SLP982 T00330017 TSNO
94908KDBQ DBQ20050425215512104/25/05 21:55:31  5-MIN KDBQ 260355Z AUTO 24007KT 10SM CLR 03/02 A2947  1500 89 500 240/07 RMK AO2 SLP982 T00330017 TSNO
94908KDBQ DBQ20050425220010604/25/05 22:00:31  5-MIN KDBQ 260400Z AUTO 24008KT 10SM FEW050 03/02 A2947 1500 89 500 240/08 RMK AO2 TSNO
94908KDBQ DBQ20050425220510604/25/05 22:05:31  5-MIN KDBQ 260405Z AUTO 23006KT 10SM SCT050 03/02 A2947 1500 92 400 230/06 RMK AO2 TSNO
94908KDBQ DBQ20050425221010604/25/05 22:10:31  5-MIN KDBQ 260410Z AUTO 23006KT 10SM FEW050 03/01 A2946 1500 89 400 230/06 RMK AO2 TSNO
94908KDBQ DBQ20050425221510604/25/05 22:15:31  5-MIN KDBQ 260415Z AUTO 24006KT 10SM SCT055 03/01 A2946 1500 89 400 230/06 RMK AO2 TSNO
94908KDBQ DBQ20050425222010604/25/05 22:20:31  5-MIN KDBQ 260420Z AUTO 23006KT 10SM BKN060 03/02 A2946 1510 92 400 230/06 RMK AO2 TSNO
94908KDBQ DBQ20050425222510604/25/05 22:25:31  5-MIN KDBQ 260425Z AUTO 23006KT 10SM BKN060 03/02 A2946 1510 92 400 220/06 RMK AO2 TSNO
94908KDBQ DBQ20050425223010604/25/05 22:30:31  5-MIN KDBQ 260430Z AUTO 22005KT 10SM SCT060 03/01 A2946 1510 89 400 220/05 RMK AO2 TSNO
94908KDBQ DBQ20050425223510604/25/05 22:35:31  5-MIN KDBQ 260435Z AUTO 23005KT 10SM FEW060 02/01 A2946 1510 92 400 220/05 RMK AO2 TSNO
94908KDBQ DBQ20050425224010604/25/05 22:40:31  5-MIN KDBQ 260440Z AUTO 23004KT 10SM FEW060 02/01 A2946 1510 92 400 220/04 RMK AO2 TSNO
94908KDBQ DBQ20050425224510604/25/05 22:45:31  5-MIN KDBQ 260445Z AUTO 22004KT 10SM FEW060 02/01 A2946 1510 89 400 220/04 RMK AO2 TSNO
94908KDBQ DBQ20050425225012104/25/05 22:50:31  5-MIN KDBQ 260450Z AUTO 22005KT 10SM CLR 02/01 A2946  1510 89 400 220/05 RMK AO2 SLP980 T00220006 TSNO
94908KDBQ DBQ20050425225512104/25/05 22:55:31  5-MIN KDBQ 260455Z AUTO 22006KT 10SM CLR 02/01 A2946  1500 92 400 220/06 RMK AO2 SLP980 T00220011 TSNO
94908KDBQ DBQ20050425230010404/25/05 23:00:31  5-MIN KDBQ 260500Z AUTO 23004KT 10SM CLR 02/01 A2946  1510 89 400 220/04 RMK AO2 TSNO
94908KDBQ DBQ20050425230510404/25/05 23:05:31  5-MIN KDBQ 260505Z AUTO 22005KT 10SM CLR 02/01 A2946  1510 89 400 220/05 RMK AO2 TSNO
94908KDBQ DBQ20050425231010404/25/05 23:10:31  5-MIN KDBQ 260510Z AUTO 22005KT 10SM CLR 02/01 A2946  1510 92 400 220/05 RMK AO2 TSNO
94908KDBQ DBQ20050425231510404/25/05 23:15:31  5-MIN KDBQ 260515Z AUTO 23005KT 10SM CLR 02/01 A2946  1510 89 400 230/05 RMK AO2 TSNO
94908KDBQ DBQ20050425232010404/25/05 23:20:31  5-MIN KDBQ 260520Z AUTO 23005KT 10SM CLR 02/01 A2946  1510 92 400 230/05 RMK AO2 TSNO
94908KDBQ DBQ20050425232510404/25/05 23:25:31  5-MIN KDBQ 260525Z AUTO 24006KT 10SM CLR 02/01 A2946  1510 92 400 230/06 RMK AO2 TSNO
94908KDBQ DBQ20050425233010404/25/05 23:30:31  5-MIN KDBQ 260530Z AUTO 24006KT 10SM CLR 02/01 A2946  1510 92 300 240/06 RMK AO2 TSNO
94908KDBQ DBQ20050425233510404/25/05 23:35:31  5-MIN KDBQ 260535Z AUTO 25008KT 10SM CLR 02/01 A2946  1510 89 400 250/08 RMK AO2 TSNO
94908KDBQ DBQ20050425234010404/25/05 23:40:31  5-MIN KDBQ 260540Z AUTO 25009KT 10SM CLR 03/01 A2946  1510 85 400 240/09 RMK AO2 TSNO
94908KDBQ DBQ20050425234510404/25/05 23:45:31  5-MIN KDBQ 260545Z AUTO 25008KT 10SM CLR 03/01 A2946  1510 89 400 240/08 RMK AO2 TSNO
94908KDBQ DBQ20050425235015004/25/05 23:50:31  5-MIN KDBQ 260550Z AUTO 25008KT 10SM CLR 03/01 A2946  1510 89 400 250/08 RMK AO2 SLP978 T00280011 10067 20017 401670000 56001  TSNO
94908KDBQ DBQ20050425235515004/25/05 23:55:31  5-MIN KDBQ 260555Z AUTO 25009KT 10SM CLR 03/01 A2946  1510 89 400 250/09 RMK AO2 SLP978 T00280011 10067 20017 401670000 56005  TSNO
94908KDBQ DBQ20050426000010404/26/05 00:00:38  5-MIN KDBQ 260600Z AUTO 25009KT 10SM CLR 03/01 A2946  1510 89 400 250/09 RMK AO2 TSNO
94908KDBQ DBQ20050426000510404/26/05 00:05:31  5-MIN KDBQ 260605Z AUTO 24009KT 10SM CLR 03/01 A2946  1510 89 400 240/09 RMK AO2 TSNO
94908KDBQ DBQ20050426001010404/26/05 00:10:31  5-MIN KDBQ 260610Z AUTO 24008KT 10SM CLR 03/01 A2946  1510 89 400 240/08 RMK AO2 TSNO
94908KDBQ DBQ20050426001510404/26/05 00:15:32  5-MIN KDBQ 260615Z AUTO 24009KT 10SM CLR 03/01 A2946  1510 89 400 240/09 RMK AO2 TSNO
94908KDBQ DBQ20050426002010404/26/05 00:20:31  5-MIN KDBQ 260620Z AUTO 24009KT 10SM CLR 03/01 A2946  1510 89 400 240/09 RMK AO2 TSNO
94908KDBQ DBQ20050426002510404/26/05 00:25:31  5-MIN KDBQ 260625Z AUTO 24008KT 10SM CLR 03/01 A2946  1510 89 400 240/08 RMK AO2 TSNO
94908KDBQ DBQ20050426003010404/26/05 00:30:31  5-MIN KDBQ 260630Z AUTO 24007KT 10SM CLR 02/01 A2945  1510 89 400 240/07 RMK AO2 TSNO
94908KDBQ DBQ20050426003510404/26/05 00:35:31  5-MIN KDBQ 260635Z AUTO 23006KT 10SM CLR 02/01 A2945  1510 89 400 230/06 RMK AO2 TSNO
94908KDBQ DBQ20050426004010404/26/05 00:40:31  5-MIN KDBQ 260640Z AUTO 24007KT 10SM CLR 02/01 A2945  1510 92 300 240/07 RMK AO2 TSNO
94908KDBQ DBQ20050426004510404/26/05 00:45:31  5-MIN KDBQ 260645Z AUTO 24008KT 10SM CLR 02/01 A2945  1510 89 400 240/08 RMK AO2 TSNO
94908KDBQ DBQ20050426005012104/26/05 00:50:31  5-MIN KDBQ 260650Z AUTO 25008KT 10SM CLR 02/01 A2945  1520 89 400 250/08 RMK AO2 SLP976 T00220006 TSNO
94908KDBQ DBQ20050426005512104/26/05 00:55:31  5-MIN KDBQ 260655Z AUTO 25008KT 10SM CLR 02/01 A2945  1520 89 400 250/08 RMK AO2 SLP976 T00220006 TSNO
94908KDBQ DBQ20050426010010404/26/05 01:00:31  5-MIN KDBQ 260700Z AUTO 25007KT 10SM CLR 02/01 A2945  1520 89 400 250/07 RMK AO2 TSNO
94908KDBQ DBQ20050426010510404/26/05 01:05:31  5-MIN KDBQ 260705Z AUTO 25007KT 10SM CLR 02/01 A2945  1520 89 400 250/07 RMK AO2 TSNO
94908KDBQ DBQ20050426011010404/26/05 01:10:31  5-MIN KDBQ 260710Z AUTO 25007KT 10SM CLR 02/01 A2945  1520 89 400 250/07 RMK AO2 TSNO
94908KDBQ DBQ20050426011510404/26/05 01:15:31  5-MIN KDBQ 260715Z AUTO 25007KT 10SM CLR 02/01 A2945  1520 89 400 250/07 RMK AO2 TSNO
94908KDBQ DBQ20050426012010404/26/05 01:20:31  5-MIN KDBQ 260720Z AUTO 24006KT 10SM CLR 02/01 A2944  1520 92 300 240/06 RMK AO2 TSNO
94908KDBQ DBQ20050426012510404/26/05 01:25:31  5-MIN KDBQ 260725Z AUTO 24005KT 10SM CLR 02/01 A2944  1520 92 300 240/05 RMK AO2 TSNO
94908KDBQ DBQ20050426013010404/26/05 01:30:31  5-MIN KDBQ 260730Z AUTO 24005KT 10SM CLR 02/01 A2944  1520 92 300 240/05 RMK AO2 TSNO
94908KDBQ DBQ20050426013510204/26/05 01:35:31  5-MIN KDBQ 260735Z AUTO 24005KT 9SM CLR 02/00 A2944 1530 89 300 240/05 RMK AO2 TSNO
94908KDBQ DBQ20050426014010204/26/05 01:40:31  5-MIN KDBQ 260740Z AUTO 25006KT 9SM CLR 01/00 A2944 1530 92 200 250/06 RMK AO2 TSNO
94908KDBQ DBQ20050426014510204/26/05 01:45:31  5-MIN KDBQ 260745Z AUTO 25006KT 9SM CLR 01/00 A2944 1530 92 200 250/06 RMK AO2 TSNO
94908KDBQ DBQ20050426015011904/26/05 01:50:31  5-MIN KDBQ 260750Z AUTO 25008KT 9SM CLR 02/00 A2944 1530 89 300 250/08 RMK AO2 SLP972 T00170000 TSNO
94908KDBQ DBQ20050426015512104/26/05 01:55:31  5-MIN KDBQ 260755Z AUTO 25007KT 10SM CLR 02/00 A2944  1530 89 300 250/07 RMK AO2 SLP971 T00170000 TSNO
94908KDBQ DBQ20050426020010404/26/05 02:00:31  5-MIN KDBQ 260800Z AUTO 25007KT 10SM CLR 02/00 A2944  1530 89 300 250/07 RMK AO2 TSNO
94908KDBQ DBQ20050426020510404/26/05 02:05:31  5-MIN KDBQ 260805Z AUTO 25007KT 10SM CLR 02/00 A2943  1530 89 300 250/07 RMK AO2 TSNO
94908KDBQ DBQ20050426021010404/26/05 02:10:31  5-MIN KDBQ 260810Z AUTO 25008KT 10SM CLR 02/00 A2943  1530 89 300 250/08 RMK AO2 TSNO
94908KDBQ DBQ20050426021510404/26/05 02:15:31  5-MIN KDBQ 260815Z AUTO 25008KT 10SM CLR 02/00 A2943  1530 89 300 250/08 RMK AO2 TSNO
94908KDBQ DBQ20050426022010404/26/05 02:20:31  5-MIN KDBQ 260820Z AUTO 26008KT 10SM CLR 02/00 A2943  1530 89 300 250/08 RMK AO2 TSNO
94908KDBQ DBQ20050426022510404/26/05 02:25:31  5-MIN KDBQ 260825Z AUTO 26008KT 10SM CLR 02/00 A2943  1530 89 300 260/08 RMK AO2 TSNO
94908KDBQ DBQ20050426023010404/26/05 02:30:31  5-MIN KDBQ 260830Z AUTO 26008KT 10SM CLR 02/00 A2943  1530 89 300 260/08 RMK AO2 TSNO
94908KDBQ DBQ20050426023510504/26/05 02:35:31  5-MIN KDBQ 260835Z AUTO 26009KT 10SM CLR 02/M01 A2943  1530 85 300 260/09 RMK AO2 TSNO
94908KDBQ DBQ20050426024010504/26/05 02:40:31  5-MIN KDBQ 260840Z AUTO 26008KT 10SM CLR 02/M01 A2943  1530 85 300 260/08 RMK AO2 TSNO
94908KDBQ DBQ20050426024510504/26/05 02:45:31  5-MIN KDBQ 260845Z AUTO 26008KT 10SM CLR 02/M01 A2943  1530 85 300 260/08 RMK AO2 TSNO
94908KDBQ DBQ20050426025012804/26/05 02:50:31  5-MIN KDBQ 260850Z AUTO 25009KT 10SM CLR 02/M01 A2943  1530 85 300 250/09 RMK AO2 SLP971 T00171006 56005 TSNO
94908KDBQ DBQ20050426025512804/26/05 02:55:31  5-MIN KDBQ 260855Z AUTO 25009KT 10SM CLR 01/M01 A2943  1530 89 300 250/09 RMK AO2 SLP971 T00111006 56008 TSNO
94908KDBQ DBQ20050426030010504/26/05 03:00:31  5-MIN KDBQ 260900Z AUTO 25008KT 10SM CLR 01/M01 A2943  1530 89 300 250/08 RMK AO2 TSNO
94908KDBQ DBQ20050426030510504/26/05 03:05:31  5-MIN KDBQ 260905Z AUTO 25008KT 10SM CLR 01/M01 A2943  1530 89 300 250/08 RMK AO2 TSNO
94908KDBQ DBQ20050426031010504/26/05 03:10:31  5-MIN KDBQ 260910Z AUTO 25008KT 10SM CLR 01/M01 A2943  1530 89 200 240/08 RMK AO2 TSNO
94908KDBQ DBQ20050426031510504/26/05 03:15:31  5-MIN KDBQ 260915Z AUTO 25007KT 10SM CLR 01/M01 A2943  1540 89 200 250/07 RMK AO2 TSNO
94908KDBQ DBQ20050426032010504/26/05 03:20:31  5-MIN KDBQ 260920Z AUTO 25007KT 10SM CLR 01/M01 A2943  1540 89 200 250/07 RMK AO2 TSNO
94908KDBQ DBQ20050426032510504/26/05 03:25:31  5-MIN KDBQ 260925Z AUTO 25007KT 10SM CLR 01/M01 A2943  1540 89 200 250/07 RMK AO2 TSNO
94908KDBQ DBQ20050426033010504/26/05 03:30:31  5-MIN KDBQ 260930Z AUTO 25007KT 10SM CLR 01/M01 A2943  1540 89 200 240/07 RMK AO2 TSNO
94908KDBQ DBQ20050426033510504/26/05 03:35:31  5-MIN KDBQ 260935Z AUTO 24007KT 10SM CLR 01/M01 A2943  1530 89 200 240/07 RMK AO2 TSNO
94908KDBQ DBQ20050426034010504/26/05 03:40:31  5-MIN KDBQ 260940Z AUTO 24006KT 10SM CLR 01/M01 A2943  1530 89 200 240/06 RMK AO2 TSNO
94908KDBQ DBQ20050426034510504/26/05 03:45:31  5-MIN KDBQ 260945Z AUTO 25006KT 10SM CLR 01/M01 A2943  1540 89 200 250/06 RMK AO2 TSNO
94908KDBQ DBQ20050426035012204/26/05 03:50:31  5-MIN KDBQ 260950Z AUTO 26007KT 10SM CLR 01/M01 A2943  1540 89 200 260/07 RMK AO2 SLP971 T00061011 TSNO
94908KDBQ DBQ20050426035512204/26/05 03:55:31  5-MIN KDBQ 260955Z AUTO 26009KT 10SM CLR 01/M01 A2943  1540 85 300 260/09 RMK AO2 SLP970 T00111011 TSNO
94908KDBQ DBQ20050426040010504/26/05 04:00:31  5-MIN KDBQ 261000Z AUTO 27009KT 10SM CLR 01/M01 A2943  1540 85 300 270/09 RMK AO2 TSNO
94908KDBQ DBQ20050426040510504/26/05 04:05:31  5-MIN KDBQ 261005Z AUTO 27009KT 10SM CLR 01/M01 A2943  1540 85 300 270/09 RMK AO2 TSNO
94908KDBQ DBQ20050426041010504/26/05 04:10:31  5-MIN KDBQ 261010Z AUTO 27010KT 10SM CLR 01/M01 A2943  1540 85 300 270/10 RMK AO2 TSNO
94908KDBQ DBQ20050426041510504/26/05 04:15:31  5-MIN KDBQ 261015Z AUTO 27011KT 10SM CLR 02/M01 A2943  1540 82 300 270/11 RMK AO2 TSNO
94908KDBQ DBQ20050426042010504/26/05 04:20:31  5-MIN KDBQ 261020Z AUTO 28009KT 10SM CLR 01/M01 A2943  1540 85 300 280/09 RMK AO2 TSNO
94908KDBQ DBQ20050426042510504/26/05 04:25:31  5-MIN KDBQ 261025Z AUTO 28009KT 10SM CLR 01/M01 A2943  1540 85 300 280/09 RMK AO2 TSNO
94908KDBQ DBQ20050426043010504/26/05 04:30:31  5-MIN KDBQ 261030Z AUTO 28009KT 10SM CLR 01/M01 A2943  1540 85 300 270/09 RMK AO2 TSNO
94908KDBQ DBQ20050426043510504/26/05 04:35:31  5-MIN KDBQ 261035Z AUTO 27010KT 10SM CLR 01/M01 A2943  1540 85 300 270/10 RMK AO2 TSNO
94908KDBQ DBQ20050426044010504/26/05 04:40:31  5-MIN KDBQ 261040Z AUTO 27009KT 10SM CLR 01/M01 A2942  1540 85 300 270/09 RMK AO2 TSNO
94908KDBQ DBQ20050426044509404/26/05 04:45:31  5-MIN KDBQ 261045Z 27009KT 10SM CLR 01/M01 A2942 1540 85 300 270/09 RMK AO2
94908KDBQ DBQ20050426045011104/26/05 04:50:31  5-MIN KDBQ 261050Z 27009KT 10SM CLR 01/M01 A2943 1540 85 300 270/09 RMK AO2 SLP970 T00111011
94908KDBQ DBQ20050426045511104/26/05 04:55:31  5-MIN KDBQ 261055Z 28009KT 10SM CLR 01/M01 A2943 1540 85 300 270/09 RMK AO2 SLP971 T00111011
94908KDBQ DBQ20050426050009404/26/05 05:00:31  5-MIN KDBQ 261100Z 28009KT 10SM CLR 01/M01 A2943 1540 85 300 280/09 RMK AO2
94908KDBQ DBQ20050426050509404/26/05 05:05:31  5-MIN KDBQ 261105Z 28009KT 10SM CLR 01/M01 A2943 1540 85 300 280/09 RMK AO2
94908KDBQ DBQ20050426051009404/26/05 05:10:31  5-MIN KDBQ 261110Z 28008KT 10SM CLR 01/M01 A2943 1540 85 300 280/08 RMK AO2
94908KDBQ DBQ20050426051509404/26/05 05:15:31  5-MIN KDBQ 261115Z 28009KT 10SM CLR 01/M01 A2943 1540 85 300 280/09 RMK AO2
94908KDBQ DBQ20050426052009404/26/05 05:20:31  5-MIN KDBQ 261120Z 27009KT 10SM CLR 01/M01 A2943 1540 89 300 270/09 RMK AO2
94908KDBQ DBQ20050426052509404/26/05 05:25:31  5-MIN KDBQ 261125Z 26008KT 10SM CLR 01/M01 A2943 1540 89 300 260/08 RMK AO2
94908KDBQ DBQ20050426053009404/26/05 05:30:31  5-MIN KDBQ 261130Z 26009KT 10SM CLR 01/M01 A2943 1530 89 300 260/09 RMK AO2
94908KDBQ DBQ20050426053509404/26/05 05:35:31  5-MIN KDBQ 261135Z 26007KT 10SM CLR 01/M01 A2943 1530 89 300 260/07 RMK AO2
94908KDBQ DBQ20050426054009404/26/05 05:40:31  5-MIN KDBQ 261140Z 26008KT 10SM CLR 01/M01 A2943 1530 89 300 260/08 RMK AO2
94908KDBQ DBQ20050426054509404/26/05 05:45:31  5-MIN KDBQ 261145Z 27008KT 10SM CLR 01/M01 A2943 1530 89 300 270/08 RMK AO2
94908KDBQ DBQ20050426055013504/26/05 05:50:31  5-MIN KDBQ 261150Z 27009KT 10SM CLR 01/M01 A2943 1530 89 300 270/09 RMK AO2 SLP974 70005 T00111006 10028 20006 56008
94908KDBQ DBQ20050426055513504/26/05 05:55:31  5-MIN KDBQ 261155Z 27009KT 10SM CLR 02/M01 A2943 1530 85 300 270/09 RMK AO2 SLP974 70005 T00171006 10028 20006 53001
94908KDBQ DBQ20050426060009404/26/05 06:00:31  5-MIN KDBQ 261200Z 27007KT 10SM CLR 02/M01 A2943 1530 85 300 270/07 RMK AO2
94908KDBQ DBQ20050426060509304/26/05 06:05:31  5-MIN KDBQ 261205Z 27008KT 10SM CLR 02/00 A2944 1530 89 300 270/08 RMK AO2
94908KDBQ DBQ20050426061009304/26/05 06:10:31  5-MIN KDBQ 261210Z 26007KT 10SM CLR 02/00 A2944 1530 89 300 260/07 RMK AO2
94908KDBQ DBQ20050426061509304/26/05 06:15:31  5-MIN KDBQ 261215Z 26007KT 10SM CLR 02/00 A2944 1520 85 400 260/07 RMK AO2
94908KDBQ DBQ20050426062009304/26/05 06:20:31  5-MIN KDBQ 261220Z 26008KT 10SM CLR 02/00 A2944 1520 85 400 260/08 RMK AO2
94908KDBQ DBQ20050426062509304/26/05 06:25:31  5-MIN KDBQ 261225Z 26009KT 10SM CLR 02/00 A2944 1520 85 400 260/09 RMK AO2
94908KDBQ DBQ20050426063010404/26/05 06:30:31  5-MIN KDBQ 261230Z 26008KT 10SM FEW080 SCT095 03/01  A2944 1520 85 400 260/08 RMK AO2
94908KDBQ DBQ20050426063509604/26/05 06:35:31  5-MIN KDBQ 261235Z 26006KT 10SM SCT085 03/01 A2944 1520 85 400 260/06 RMK AO2
94908KDBQ DBQ20050426064009604/26/05 06:40:31  5-MIN KDBQ 261240Z 26005KT 10SM BKN090 03/01 A2944 1520 85 500 260/05 RMK AO2
94908KDBQ DBQ20050426064509604/26/05 06:45:31  5-MIN KDBQ 261245Z 25007KT 10SM BKN090 03/01 A2945 1520 85 500 250/07 RMK AO2
94908KDBQ DBQ20050426065011304/26/05 06:50:31  5-MIN KDBQ 261250Z 26008KT 10SM BKN085 03/02 A2945 1520 89 500 260/08 RMK AO2 SLP979 T00330017
94908KDBQ DBQ20050426065511304/26/05 06:55:31  5-MIN KDBQ 261255Z 25009KT 10SM OVC085 03/02 A2945 1520 89 500 250/09 RMK AO2 SLP978 T00330017
94908KDBQ DBQ20050426070009604/26/05 07:00:31  5-MIN KDBQ 261300Z 26008KT 10SM OVC090 04/02 A2945 1520 85 600 260/08 RMK AO2
94908KDBQ DBQ20050426070509604/26/05 07:05:31  5-MIN KDBQ 261305Z 25008KT 10SM OVC090 04/02 A2945 1520 85 600 250/08 RMK AO2
94908KDBQ DBQ20050426071009604/26/05 07:10:31  5-MIN KDBQ 261310Z 26009KT 10SM OVC090 04/02 A2945 1510 85 600 260/09 RMK AO2
94908KDBQ DBQ20050426071509604/26/05 07:15:31  5-MIN KDBQ 261315Z 26008KT 10SM OVC090 04/02 A2945 1510 82 600 260/08 RMK AO2
94908KDBQ DBQ20050426072009604/26/05 07:20:31  5-MIN KDBQ 261320Z 26008KT 10SM OVC090 04/02 A2945 1510 85 600 260/08 RMK AO2
94908KDBQ DBQ20050426072509604/26/05 07:25:31  5-MIN KDBQ 261325Z 27008KT 10SM OVC090 04/02 A2945 1510 82 600 270/08 RMK AO2
94908KDBQ DBQ20050426073009604/26/05 07:30:31  5-MIN KDBQ 261330Z 28011KT 10SM OVC090 05/02 A2945 1510 82 700 280/11 RMK AO2
94908KDBQ DBQ20050426073509604/26/05 07:35:31  5-MIN KDBQ 261335Z 27012KT 10SM OVC090 05/02 A2945 1520 82 700 270/12 RMK AO2
94908KDBQ DBQ20050426074009604/26/05 07:40:31  5-MIN KDBQ 261340Z 27010KT 10SM OVC090 05/02 A2945 1510 82 700 270/10 RMK AO2
94908KDBQ DBQ20050426074509604/26/05 07:45:31  5-MIN KDBQ 261345Z 28010KT 10SM OVC085 05/03 A2945 1510 85 700 280/10 RMK AO2
94908KDBQ DBQ20050426075011304/26/05 07:50:31  5-MIN KDBQ 261350Z 28011KT 10SM BKN090 06/03 A2945 1510 82 800 280/11 RMK AO2 SLP979 T00560028
94908KDBQ DBQ20050426075511304/26/05 07:55:31  5-MIN KDBQ 261355Z 29009KT 10SM BKN090 06/03 A2945 1510 82 800 290/09 RMK AO2 SLP980 T00560028
94908KDBQ DBQ20050426080009604/26/05 08:00:31  5-MIN KDBQ 261400Z 27012KT 10SM BKN090 06/03 A2945 1510 82 800 270/12 RMK AO2
94908KDBQ DBQ20050426080509604/26/05 08:05:31  5-MIN KDBQ 261405Z 30010KT 10SM BKN090 06/03 A2946 1510 82 800 300/10 RMK AO2
94908KDBQ DBQ20050426081009604/26/05 08:10:31  5-MIN KDBQ 261410Z 30009KT 10SM BKN012 06/03 A2946 1510 79 800 300/09 RMK AO2
94908KDBQ DBQ20050426081509604/26/05 08:15:31  5-MIN KDBQ 261415Z 30009KT 10SM BKN012 07/03 A2946 1510 79 900 300/09 RMK AO2
94908KDBQ DBQ20050426082009604/26/05 08:20:31  5-MIN KDBQ 261420Z 29012KT 10SM BKN012 07/03 A2946 1510 79 900 290/12 RMK AO2
94908KDBQ DBQ20050426082509604/26/05 08:25:31  5-MIN KDBQ 261425Z 29010KT 10SM BKN012 07/03 A2945 1510 79 900 290/10 RMK AO2
94908KDBQ DBQ20050426083010404/26/05 08:30:31  5-MIN KDBQ 261430Z 29011KT 10SM FEW016 BKN095 07/03  A2946 1510 79 900 290/11 RMK AO2
94908KDBQ DBQ20050426083510404/26/05 08:35:31  5-MIN KDBQ 261435Z 28010KT 10SM SCT016 OVC095 07/03  A2946 1510 79 900 280/10 RMK AO2
94908KDBQ DBQ20050426084010404/26/05 08:40:31  5-MIN KDBQ 261440Z 28011KT 10SM SCT016 OVC095 07/03  A2946 1510 76 900 280/11 RMK AO2
94908KDBQ DBQ20050426084511104/26/05 08:45:31  5-MIN KDBQ 261445Z 28010KT 10SM SCT016 SCT022 OVC095  07/03 A2946 1510 76 900 280/10 RMK AO2
94908KDBQ DBQ20050426085012704/26/05 08:50:31  5-MIN KDBQ 261450Z 28009KT 10SM BKN018 OVC090 07/03  A2946 1510 79 900 280/09 RMK AO2 SLP982 T00670033 53001
94908KDBQ DBQ20050426085512704/26/05 08:55:31  5-MIN KDBQ 261455Z 28011KT 10SM BKN018 OVC090 07/03  A2946 1510 79 900 280/11 RMK AO2 SLP981 T00670033 51008
94908KDBQ DBQ20050426090011104/26/05 09:00:31  5-MIN KDBQ 261500Z 28011KT 10SM BKN018 BKN026 OVC090  07/03 A2946 1510 79 900 280/11 RMK AO2
94908KDBQ DBQ20050426090511104/26/05 09:05:31  5-MIN KDBQ 261505Z 29010KT 10SM FEW018 BKN022 OVC040  07/03 A2946 1510 76 900 290/10 RMK AO2
94908KDBQ DBQ20050426091011204/26/05 09:10:31  5-MIN KDBQ 261510Z 28008KT 10SM SCT018 BKN024 OVC040  07/03 A2946 1510 73 1000 280/08 RMK AO2
94908KDBQ DBQ20050426091511204/26/05 09:15:31  5-MIN KDBQ 261515Z 28011KT 10SM SCT018 BKN026 OVC034  07/03 A2946 1510 76 1000 280/11 RMK AO2
94908KDBQ DBQ20050426092011204/26/05 09:20:31  5-MIN KDBQ 261520Z 27012KT 10SM SCT021 BKN031 OVC039  07/03 A2946 1510 73 1000 270/12 RMK AO2
94908KDBQ DBQ20050426092511104/26/05 09:25:31  5-MIN KDBQ 261525Z 28013KT 10SM SCT021 BKN028 OVC034  07/02 A2946 1510 73 900 280/13 RMK AO2
94908KDBQ DBQ20050426093011104/26/05 09:30:31  5-MIN KDBQ 261530Z 29011KT 10SM FEW023 SCT027 OVC034  07/03 A2946 1510 76 900 280/11 RMK AO2
94908KDBQ DBQ20050426093511204/26/05 09:35:31  5-MIN KDBQ 261535Z 28010KT 10SM SCT023 BKN030 OVC036  07/03 A2946 1510 73 1000 280/10 RMK AO2
94908KDBQ DBQ20050426094011204/26/05 09:40:31  5-MIN KDBQ 261540Z 28010KT 10SM FEW023 BKN028 OVC036  08/03 A2946 1510 70 1000 280/10 RMK AO2
94908KDBQ DBQ20050426094510504/26/05 09:45:31  5-MIN KDBQ 261545Z 29011KT 10SM BKN025 OVC034 07/03  A2946 1510 73 1000 290/11 RMK AO2
94908KDBQ DBQ20050426095012904/26/05 09:50:31  5-MIN KDBQ 261550Z 31014KT 10SM BKN023 BKN030 OVC036  07/03 A2946 1510 73 1000 310/14 RMK AO2 SLP981 T00720028
94908KDBQ DBQ20050426095512104/26/05 09:55:31  5-MIN KDBQ 261555Z 31013KT 10SM BKN023 OVC033 07/02  A2946 1500 73 900 310/13 RMK AO2 SLP983 T00670022
94908KDBQ DBQ20050426100010504/26/05 10:00:31  5-MIN KDBQ 261600Z 30012KT 10SM BKN023 OVC033 07/03  A2946 1500 73 1000 300/12 RMK AO2
94908KDBQ DBQ20050426100512004/26/05 10:05:31  5-MIN KDBQ 261605Z 32012KT 10SM -RA BKN023 OVC033 07/03 A2947 1500 76 1000 320/12 RMK AO2 RAB05 P0000
94908KDBQ DBQ20050426101012604/26/05 10:10:31  5-MIN KDBQ 261610Z 32013KT 10SM -RA BKN021 BKN027 OVC033 07/03 A2947 1500 76 900 320/13 RMK AO2 RAB05 P0000
94908KDBQ DBQ20050426101512704/26/05 10:15:31  5-MIN KDBQ 261615Z 32011KT 10SM -RA SCT021 BKN028 OVC033 07/03 A2947 1500 76 1000 320/11 RMK AO2 RAB05 P0000
94908KDBQ DBQ20050426102012704/26/05 10:20:31  5-MIN KDBQ 261620Z 32012KT 10SM -RA SCT021 BKN028 OVC038 07/03 A2947 1490 76 1000 320/12 RMK AO2 RAB05 P0000
94908KDBQ DBQ20050426102512704/26/05 10:25:31  5-MIN KDBQ 261625Z 31013KT 10SM -RA SCT021 BKN028 OVC038 07/03 A2947 1490 76 1000 310/13 RMK AO2 RAB05 P0000
94908KDBQ DBQ20050426103012704/26/05 10:30:31  5-MIN KDBQ 261630Z 32012KT 10SM -RA SCT021 BKN028 OVC038 07/03 A2948 1490 76 1000 320/12 RMK AO2 RAB05 P0000
94908KDBQ DBQ20050426103512704/26/05 10:35:31  5-MIN KDBQ 261635Z 32012KT 10SM -RA SCT021 BKN028 OVC038 07/03 A2948 1490 76 1000 320/12 RMK AO2 RAB05 P0000
94908KDBQ DBQ20050426104012704/26/05 10:40:31  5-MIN KDBQ 261640Z 34011KT 10SM -RA SCT021 BKN028 OVC038 07/03 A2948 1490 76 1000 340/11 RMK AO2 RAB05 P0000
94908KDBQ DBQ20050426104512704/26/05 10:45:31  5-MIN KDBQ 261645Z 33011KT 10SM -RA SCT021 BKN028 OVC038 08/03 A2948 1490 73 1000 330/11 RMK AO2 RAB05 P0000
94908KDBQ DBQ20050426105014404/26/05 10:50:31  5-MIN KDBQ 261650Z 33010KT 10SM -RA FEW021 BKN036 OVC075 08/03 A2948 1490 73 1000 330/10 RMK AO2 RAB05 SLP988 P0000 T00780033
94908KDBQ DBQ20050426105514404/26/05 10:55:31  5-MIN KDBQ 261655Z 33011KT 10SM FEW021 BKN049 OVC080  09/04 A2947 1490 71 1200 330/11 RMK AO2 RAB05E52 SLP986 P0000 T00890039
94908KDBQ DBQ20050426110011204/26/05 11:00:31  5-MIN KDBQ 261700Z 34011KT 10SM FEW021 BKN049 BKN080  09/04 A2947 1490 73 1200 340/11 RMK AO2
94908KDBQ DBQ20050426110511204/26/05 11:05:31  5-MIN KDBQ 261705Z 34012KT 10SM FEW023 SCT033 BKN047  08/03 A2948 1490 70 1100 340/12 RMK AO2
94908KDBQ DBQ20050426111011204/26/05 11:10:31  5-MIN KDBQ 261710Z 33011KT 10SM SCT023 SCT031 BKN050  08/03 A2947 1490 73 1000 330/11 RMK AO2
94908KDBQ DBQ20050426111511204/26/05 11:15:31  5-MIN KDBQ 261715Z 32013KT 10SM BKN023 BKN031 BKN050  08/03 A2948 1490 70 1100 320/13 RMK AO2
94908KDBQ DBQ20050426112011204/26/05 11:20:31  5-MIN KDBQ 261720Z 33010KT 10SM BKN023 BKN031 BKN050  09/03 A2948 1490 68 1200 330/10 RMK AO2
94908KDBQ DBQ20050426112511204/26/05 11:25:31  5-MIN KDBQ 261725Z 35012KT 10SM BKN023 BKN031 BKN050  09/04 A2947 1490 68 1200 340/12 RMK AO2
94908KDBQ DBQ20050426113011204/26/05 11:30:31  5-MIN KDBQ 261730Z 34011KT 10SM BKN023 BKN031 BKN050  09/03 A2948 1490 68 1200 340/11 RMK AO2
94908KDBQ DBQ20050426113511704/26/05 11:35:31  5-MIN KDBQ 261735Z 33012G15KT 10SM BKN023 BKN031 BKN050 08/03 A2947 1490 68 1100 330/12G15 RMK AO2
94908KDBQ DBQ20050426114013404/26/05 11:40:31  5-MIN KDBQ 261740Z 31009G15KT 10SM -RA BKN023 BKN031  BKN050 08/03 A2948 1490 70 1000 310/09G15 RMK AO2 RAB36 P0000
94908KDBQ DBQ20050426114512704/26/05 11:45:31  5-MIN KDBQ 261745Z 32006KT 10SM -RA BKN023 BKN031 BKN050 08/03 A2948 1490 70 1100 320/06 RMK AO2 RAB36 P0000
94908KDBQ DBQ20050426115016904/26/05 11:50:31  5-MIN KDBQ 261750Z 31008KT 10SM BKN023 BKN031 BKN050  09/04 A2947 1490 68 1200 310/08 RMK AO2 RAB36E48 SLP986 P0000 60000  T00940039 10094 20017 51008
94908KDBQ DBQ20050426115516904/26/05 11:55:31  5-MIN KDBQ 261755Z 34010KT 10SM BKN023 BKN031 BKN050  09/04 A2947 1490 68 1200 340/10 RMK AO2 RAB36E48 SLP986 P0000 60000  T00940039 10100 20017 50005
94908KDBQ DBQ20050426120010504/26/05 12:00:31  5-MIN KDBQ 261800Z 34010KT 10SM BKN028 BKN037 09/03  A2947 1490 65 1200 340/10 RMK AO2
94908KDBQ DBQ20050426120510504/26/05 12:05:31  5-MIN KDBQ 261805Z 33011KT 10SM BKN028 BKN037 09/03  A2947 1490 65 1200 330/11 RMK AO2
94908KDBQ DBQ20050426121010504/26/05 12:10:31  5-MIN KDBQ 261810Z 33012KT 10SM BKN028 BKN037 09/03  A2947 1490 65 1200 330/12 RMK AO2
94908KDBQ DBQ20050426121512004/26/05 12:15:31  5-MIN KDBQ 261815Z 32010KT 8SM -RA BKN028 BKN037 08/02  A2947 1490 68 1000 320/10 RMK AO2 RAB15 P0000
94908KDBQ DBQ20050426122012004/26/05 12:20:31  5-MIN KDBQ 261820Z 30010KT 8SM -RA BKN028 BKN037 08/03  A2947 1490 73 1000 300/10 RMK AO2 RAB15 P0000
94908KDBQ DBQ20050426122512004/26/05 12:25:31  5-MIN KDBQ 261825Z 30008KT 10SM -RA BKN028 BKN037 09/03 A2947 1500 68 1200 300/08 RMK AO2 RAB15 P0000
94908KDBQ DBQ20050426123012004/26/05 12:30:31  5-MIN KDBQ 261830Z 31008KT 10SM BKN028 BKN037 08/03  A2947 1500 68 1100 310/08 RMK AO2 RAB15E27 P0000
94908KDBQ DBQ20050426123512004/26/05 12:35:31  5-MIN KDBQ 261835Z 30010KT 10SM BKN028 BKN037 09/03  A2947 1500 65 1200 300/10 RMK AO2 RAB15E27 P0000
94908KDBQ DBQ20050426124012004/26/05 12:40:31  5-MIN KDBQ 261840Z 30008KT 10SM BKN028 BKN037 09/03  A2947 1500 65 1200 300/08 RMK AO2 RAB15E27 P0000
94908KDBQ DBQ20050426124512004/26/05 12:45:31  5-MIN KDBQ 261845Z 31005KT 10SM BKN028 BKN037 09/03  A2946 1500 65 1200 310/05 RMK AO2 RAB15E27 P0000
94908KDBQ DBQ20050426125013704/26/05 12:50:31  5-MIN KDBQ 261850Z VRB04KT 10SM BKN028 BKN037 10/03  A2946 1510 60 1300 VRB/04 RMK AO2 RAB15E27 SLP982 P0000 T01000028
94908KDBQ DBQ20050426125513704/26/05 12:55:31  5-MIN KDBQ 261855Z 27005KT 10SM BKN028 BKN037 09/03  A2946 1500 63 1200 270/05 RMK AO2 RAB15E27 SLP982 P0000 T00940028
94908KDBQ DBQ20050426130012104/26/05 13:00:31  5-MIN KDBQ 261900Z 31007KT 280V350 10SM FEW065 BKN090  09/02 A2946 1510 60 1200 310/07 280V350 RMK AO2
94908KDBQ DBQ20050426130511204/26/05 13:05:31  5-MIN KDBQ 261905Z 32010KT 10SM FEW041 SCT060 BKN085  09/02 A2946 1500 60 1200 320/10 RMK AO2
94908KDBQ DBQ20050426131011204/26/05 13:10:31  5-MIN KDBQ 261910Z 28009KT 10SM SCT039 SCT047 BKN060  09/02 A2947 1500 63 1200 280/09 RMK AO2
94908KDBQ DBQ20050426131512704/26/05 13:15:31  5-MIN KDBQ 261915Z 35013KT 10SM -RA SCT035 BKN047 BKN085 08/03 A2947 1490 68 1100 350/13 RMK AO2 RAB15 P0000
94908KDBQ DBQ20050426132013204/26/05 13:20:31  5-MIN KDBQ 261920Z 35012G18KT 8SM -RA BKN035 BKN047  OVC085 07/02 A2948 1490 73 900 350/12G18 RMK AO2 RAB15 P0001
94908KDBQ DBQ20050426132511904/26/05 13:25:31  5-MIN KDBQ 261925Z 34007KT 7SM -RA BKN035 OVC047 06/02  A2948 1490 76 800 340/07 RMK AO2 RAB15 P0001
94908KDBQ DBQ20050426133012504/26/05 13:30:31  5-MIN KDBQ 261930Z 33004KT 4SM RA SCT031 BKN038 OVC048  06/02 A2948 1490 73 800 330/04 RMK AO2 RAB15 P0003
94908KDBQ DBQ20050426133512504/26/05 13:35:31  5-MIN KDBQ 261935Z 32005KT 5SM -RA BKN030 BKN038 OVC046 07/02 A2948 1490 73 900 320/05 RMK AO2 RAB15 P0004
94908KDBQ DBQ20050426134012504/26/05 13:40:31  5-MIN KDBQ 261940Z 31006KT 9SM -RA BKN034 BKN046 OVC075 07/03 A2948 1490 73 900 310/06 RMK AO2 RAB15 P0004
94908KDBQ DBQ20050426134512704/26/05 13:45:31  5-MIN KDBQ 261945Z 31005KT 10SM -RA SCT036 BKN046 OVC075 08/03 A2948 1490 73 1000 310/05 RMK AO2 RAB15 P0004
94908KDBQ DBQ20050426135014404/26/05 13:50:31  5-MIN KDBQ 261950Z 30006KT 10SM SCT036 SCT043 OVC080  09/03 A2948 1490 68 1100 300/06 RMK AO2 RAB15E46 SLP988 P0004 T00890033
94908KDBQ DBQ20050426135514404/26/05 13:55:31  5-MIN KDBQ 261955Z 31007KT 10SM FEW034 SCT048 BKN080  09/03 A2948 1490 65 1200 300/07 RMK AO2 RAB15E46 SLP988 P0004 T00890028
94908KDBQ DBQ20050426140013504/26/05 14:00:31  5-MIN KDBQ 262000Z 32020G26KT 10SM FEW029 SCT049 BKN080 09/03 A2948 1490 68 1100 310/20G26 RMK AO2 PK WND 32026/1959
94908KDBQ DBQ20050426140513404/26/05 14:05:31  5-MIN KDBQ 262005Z 32018G29KT 10SM FEW029 SCT037 BKN048 07/03 A2949 1480 73 900 320/18G29 RMK AO2 PK WND 31029/2002
94908KDBQ DBQ20050426141015104/26/05 14:10:31  5-MIN KDBQ 262010Z 32019G29KT 7SM -RA FEW033 BKN046  BKN055 06/03 A2949 1480 79 800 320/19G29 RMK AO2 PK WND 31029/2002 RAB07  P0000
94908KDBQ DBQ20050426141514304/26/05 14:15:31  5-MIN KDBQ 262015Z 33018KT 4SM RA SCT028 BKN040 OVC085  06/03 A2950 1470 82 700 320/18 RMK AO2 PK WND 31029/2002 RAB07 P0001
94908KDBQ DBQ20050426142015004/26/05 14:20:31  5-MIN KDBQ 262020Z 35012G24KT 4SM RA SCT028 BKN039  OVC060 06/03 A2949 1480 82 700 350/12G24 RMK AO2 PK WND 31029/2002 RAB07  P0001
94908KDBQ DBQ20050426142514304/26/05 14:25:31  5-MIN KDBQ 262025Z 36008KT 6SM -RA SCT030 BKN047 OVC070 06/03 A2949 1480 82 800 360/08 RMK AO2 PK WND 31029/2002 RAB07 P0002
94908KDBQ DBQ20050426143014404/26/05 14:30:31  5-MIN KDBQ 262030Z 36007KT 10SM -RA SCT033 SCT047 OVC070 07/04 A2949 1480 82 900 360/07 RMK AO2 PK WND 31029/2002 RAB07 P0002
94908KDBQ DBQ20050426143514504/26/05 14:35:31  5-MIN KDBQ 262035Z 35005KT 10SM FEW041 SCT047 OVC075  08/04 A2949 1480 79 1000 350/05 RMK AO2 PK WND 31029/2002 RAB07E31 P0002
94908KDBQ DBQ20050426144013804/26/05 14:40:31  5-MIN KDBQ 262040Z 32007KT 10SM FEW039 OVC075 08/04  A2949 1480 73 1100 320/07 RMK AO2 PK WND 31029/2002 RAB07E31 P0002
94908KDBQ DBQ20050426144513004/26/05 14:45:31  5-MIN KDBQ 262045Z 31009KT 10SM BKN080 09/04 A2949 1480 71 1100 310/09 RMK AO2 PK WND 31029/2002 RAB07E31 P0002
94908KDBQ DBQ20050426145016004/26/05 14:50:31  5-MIN KDBQ 262050Z 31009KT 10SM SCT075 08/03 A2949 1480 70 1100 300/09 RMK AO2 PK WND 31029/2002 RAB07E31 SLP991 P0002 60006  T00830033 50005
94908KDBQ DBQ20050426145516804/26/05 14:55:31  5-MIN KDBQ 262055Z 31008KT 10SM SCT080 SCT100 09/03  A2948 1480 68 1100 310/08 RMK AO2 PK WND 31029/2002 RAB07E31 SLP990 P0002  60006 T00890033 53003
94908KDBQ DBQ20050426150010504/26/05 15:00:31  5-MIN KDBQ 262100Z 31010KT 10SM FEW080 SCT095 09/04  A2948 1490 71 1200 310/10 RMK AO2
94908KDBQ DBQ20050426150509704/26/05 15:05:31  5-MIN KDBQ 262105Z 31010KT 10SM SCT090 09/04 A2948 1490 68 1200 310/10 RMK AO2
94908KDBQ DBQ20050426151009704/26/05 15:10:31  5-MIN KDBQ 262110Z 31008KT 10SM BKN090 09/03 A2948 1490 65 1200 310/08 RMK AO2
94908KDBQ DBQ20050426151511104/26/05 15:15:31  5-MIN KDBQ 262115Z 29012G17KT 10SM FEW033 BKN090 09/03  A2949 1480 68 1100 290/12G17 RMK AO2
94908KDBQ DBQ20050426152013304/26/05 15:20:31  5-MIN KDBQ 262120Z 33013G22KT 9SM -RA FEW033 SCT041  BKN090 08/02 A2949 1480 68 1000 330/13G22 RMK AO2 RAB17 P0000
94908KDBQ DBQ20050426152512604/26/05 15:25:31  5-MIN KDBQ 262125Z 29008G22KT 9SM -RA BKN036 BKN090  08/03 A2949 1480 68 1100 290/08G22 RMK AO2 RAB17 P0000
94908KDBQ DBQ20050426153012704/26/05 15:30:31  5-MIN KDBQ 262130Z 29009KT 10SM -RA FEW033 SCT040 BKN090 09/03 A2949 1480 68 1100 290/09 RMK AO2 RAB17 P0000
94908KDBQ DBQ20050426153512704/26/05 15:35:31  5-MIN KDBQ 262135Z 30007KT 10SM SCT036 SCT048 BKN090  09/03 A2949 1480 68 1100 300/07 RMK AO2 RAB17E33 P0000
94908KDBQ DBQ20050426154012004/26/05 15:40:31  5-MIN KDBQ 262140Z 31012KT 10SM SCT033 BKN048 09/03  A2949 1480 65 1100 310/12 RMK AO2 RAB17E33 P0000
94908KDBQ DBQ20050426154512004/26/05 15:45:31  5-MIN KDBQ 262145Z 31013KT 10SM SCT031 BKN046 09/03  A2949 1480 65 1100 310/13 RMK AO2 RAB17E33 P0000
94908KDBQ DBQ20050426155015004/26/05 15:50:31  5-MIN KDBQ 262150Z 34011KT 10SM -RA FEW029 BKN046 BKN065 08/03 A2949 1480 70 1000 340/11 RMK AO2 RAB17E33B50 SLP995 P0000 T00780028
94908KDBQ DBQ20050426155514904/26/05 15:55:31  5-MIN KDBQ 262155Z 32014KT 8SM -RA FEW027 BKN044 BKN060 08/03 A2950 1470 70 1000 320/14 RMK AO2 RAB17E33B50 SLP997 P0000 T00780028
94908KDBQ DBQ20050426160011904/26/05 16:00:31  5-MIN KDBQ 262200Z 31012KT 6SM +RA FEW028 BKN044 OVC100 07/02 A2950 1470 73 900 310/12 RMK AO2 P0002
94908KDBQ DBQ20050426160511904/26/05 16:05:31  5-MIN KDBQ 262205Z 32009KT 7SM -RA FEW028 BKN044 OVC100 07/03 A2950 1470 73 900 320/09 RMK AO2 P0002
94908KDBQ DBQ20050426161012404/26/05 16:10:31  5-MIN KDBQ 262210Z 31007KT 10SM FEW028 SCT046 BKN060  08/03 A2950 1470 73 1000 310/07 RMK AO2 RAE10 P0002
94908KDBQ DBQ20050426161512404/26/05 16:15:31  5-MIN KDBQ 262215Z 31007KT 10SM FEW028 SCT046 BKN080  08/03 A2950 1470 73 1000 310/07 RMK AO2 RAE10 P0002
94908KDBQ DBQ20050426162012404/26/05 16:20:31  5-MIN KDBQ 262220Z 31008KT 10SM FEW026 SCT045 SCT060  08/03 A2950 1470 70 1100 310/08 RMK AO2 RAE10 P0002
94908KDBQ DBQ20050426162512404/26/05 16:25:31  5-MIN KDBQ 262225Z 30009KT 10SM FEW036 SCT060 SCT080  08/03 A2951 1460 70 1100 300/09 RMK AO2 RAE10 P0002
94908KDBQ DBQ20050426163010904/26/05 16:30:31  5-MIN KDBQ 262230Z 31008KT 10SM FEW046 09/03 A2951 1460 68 1100 310/08 RMK AO2 RAE10 P0002
94908KDBQ DBQ20050426163511604/26/05 16:35:31  5-MIN KDBQ 262235Z 31014G18KT 10SM FEW046 09/03 A2951  1460 68 1100 310/14G18 RMK AO2 RAE10 P0002
94908KDBQ DBQ20050426164011604/26/05 16:40:31  5-MIN KDBQ 262240Z 31017G21KT 10SM FEW110 08/01 A2951  1460 60 1000 310/17G21 RMK AO2 RAE10 P0002
94908KDBQ DBQ20050426164510904/26/05 16:45:31  5-MIN KDBQ 262245Z 31016KT 10SM SCT110 08/01 A2952 1450 60 1000 310/16 RMK AO2 RAE10 P0002
94908KDBQ DBQ20050426165013304/26/05 16:50:31  5-MIN KDBQ 262250Z 32015G22KT 10SM BKN100 08/01 A2952  1450 60 1000 320/15G22 RMK AO2 RAE10 SLP003 P0002 T00830011
94908KDBQ DBQ20050426165513304/26/05 16:55:31  5-MIN KDBQ 262255Z 30019G23KT 10SM BKN100 08/02 A2953  1440 63 1000 300/19G23 RMK AO2 RAE10 SLP005 P0002 T00830017
94908KDBQ DBQ20050426170010404/26/05 17:00:31  5-MIN KDBQ 262300Z 31017G23KT 10SM BKN095 08/02 A2953  1440 68 1000 310/17G23 RMK AO2
94908KDBQ DBQ20050426170510404/26/05 17:05:31  5-MIN KDBQ 262305Z 31015KT 10SM BKN080 BKN100 07/02  A2953 1440 70 900 300/15 RMK AO2
94908KDBQ DBQ20050426171011604/26/05 17:10:31  5-MIN KDBQ 262310Z 31014G20KT 10SM SCT060 BKN090 BKN100 07/02 A2953 1440 68 900 310/14G20 RMK AO2
94908KDBQ DBQ20050426171510404/26/05 17:15:31  5-MIN KDBQ 262315Z 30013KT 10SM SCT070 BKN090 07/02  A2953 1440 70 900 300/13 RMK AO2
94908KDBQ DBQ20050426172010404/26/05 17:20:31  5-MIN KDBQ 262320Z 29013KT 10SM BKN075 OVC090 07/02  A2953 1440 70 900 290/13 RMK AO2
94908KDBQ DBQ20050426172510404/26/05 17:25:31  5-MIN KDBQ 262325Z 29014KT 10SM BKN070 OVC085 07/02  A2953 1440 68 900 290/14 RMK AO2
94908KDBQ DBQ20050426173011104/26/05 17:30:31  5-MIN KDBQ 262330Z 29011KT 10SM FEW060 BKN070 OVC090  07/02 A2953 1440 68 900 290/11 RMK AO2
94908KDBQ DBQ20050426173510404/26/05 17:35:31  5-MIN KDBQ 262335Z 29013KT 10SM BKN070 OVC090 07/01  A2954 1440 65 900 290/13 RMK AO2
94908KDBQ DBQ20050426174010404/26/05 17:40:31  5-MIN KDBQ 262340Z 30015KT 10SM SCT065 OVC085 07/02  A2954 1430 68 900 300/15 RMK AO2
94908KDBQ DBQ20050426174510404/26/05 17:45:31  5-MIN KDBQ 262345Z 30013KT 10SM FEW065 OVC085 07/02  A2954 1430 68 900 300/13 RMK AO2
94908KDBQ DBQ20050426175014504/26/05 17:50:31  5-MIN KDBQ 262350Z 30013KT 10SM SCT070 OVC090 07/02  A2954 1430 68 900 300/13 RMK AO2 SLP012 60008 T00720017 10100 20050 53003
94908KDBQ DBQ20050426175515304/26/05 17:55:31  5-MIN KDBQ 262355Z 30012KT 10SM FEW065 SCT075 OVC090  07/02 A2954 1430 70 900 300/12 RMK AO2 SLP012 60008 T00720022 10100 20050  52020
94908KDBQ DBQ20050426180010404/26/05 18:00:31  5-MIN KDBQ 270000Z 30012KT 10SM FEW060 OVC090 07/02  A2955 1430 70 900 300/12 RMK AO2
94908KDBQ DBQ20050426180510404/26/05 18:05:31  5-MIN KDBQ 270005Z 30012KT 10SM FEW075 OVC090 07/02  A2955 1430 70 900 300/12 RMK AO2
94908KDBQ DBQ20050426181010404/26/05 18:10:31  5-MIN KDBQ 270010Z 31010KT 10SM FEW075 OVC090 07/02  A2955 1420 70 900 310/10 RMK AO2
94908KDBQ DBQ20050426181510404/26/05 18:15:31  5-MIN KDBQ 270015Z 31010KT 10SM FEW075 OVC090 07/02  A2955 1420 73 800 300/10 RMK AO2
94908KDBQ DBQ20050426182009604/26/05 18:20:31  5-MIN KDBQ 270020Z 30012KT 10SM OVC095 07/02 A2955 1420 70 800 300/12 RMK AO2
94908KDBQ DBQ20050426182509604/26/05 18:25:31  5-MIN KDBQ 270025Z 30011KT 10SM OVC095 07/02 A2955 1420 70 800 300/11 RMK AO2
94908KDBQ DBQ20050426183010404/26/05 18:30:31  5-MIN KDBQ 270030Z 30009KT 10SM FEW075 OVC095 07/02  A2955 1420 73 800 300/09 RMK AO2
94908KDBQ DBQ20050426183511104/26/05 18:35:31  5-MIN KDBQ 270035Z 30010KT 10SM FEW029 SCT075 OVC095  07/02 A2955 1420 73 800 300/10 RMK AO2
94908KDBQ DBQ20050426184011104/26/05 18:40:31  5-MIN KDBQ 270040Z 30011KT 10SM SCT029 BKN080 OVC100  07/02 A2955 1420 73 800 300/11 RMK AO2
94908KDBQ DBQ20050426184511104/26/05 18:45:31  5-MIN KDBQ 270045Z 30011KT 10SM SCT031 BKN045 OVC100  07/02 A2955 1420 73 800 300/11 RMK AO2
94908KDBQ DBQ20050426185012804/26/05 18:50:31  5-MIN KDBQ 270050Z 29010KT 10SM SCT031 BKN043 OVC100  07/02 A2956 1420 73 800 290/10 RMK AO2 SLP015 T00670022
94908KDBQ DBQ20050426185513804/26/05 18:55:31  5-MIN KDBQ 270055Z AUTO 30013KT 10SM FEW031 BKN043  OVC075 07/02 A2956 1410 70 800 300/13 RMK AO2 SLP016 T00670017 TSNO
94908KDBQ DBQ20050426190014504/26/05 19:00:31  5-MIN KDBQ 270100Z AUTO 31015G20KT 10SM -RA FEW031  BKN039 OVC046 06/02 A2957 1410 73 700 310/15G20 RMK AO2 RAB0057 P0000 TSNO
94908KDBQ DBQ20050426190514504/26/05 19:05:31  5-MIN KDBQ 270105Z AUTO 31013G20KT 10SM -RA FEW031  BKN043 OVC050 06/02 A2957 1410 73 700 310/13G20 RMK AO2 RAB0057 P0000 TSNO
94908KDBQ DBQ20050426191013904/26/05 19:10:31  5-MIN KDBQ 270110Z AUTO 32011KT 10SM -RA FEW033 BKN044  OVC050 06/02 A2957 1410 73 700 320/11 RMK AO2 RAB0057 P0000 TSNO
94908KDBQ DBQ20050426191513004/26/05 19:15:31  5-MIN KDBQ 270115Z AUTO 30009KT 10SM BKN041 OVC049 06/02 A2957 1410 76 600 300/09 RMK AO2 RAB0057E11 P0000 TSNO
94908KDBQ DBQ20050426192013004/26/05 19:20:31  5-MIN KDBQ 270120Z AUTO 30009KT 10SM SCT041 OVC049 06/02 A2957 1400 76 600 300/09 RMK AO2 RAB0057E11 P0000 TSNO
94908KDBQ DBQ20050426192513004/26/05 19:25:31  5-MIN KDBQ 270125Z AUTO 30011KT 10SM FEW043 OVC049 06/02 A2957 1400 73 700 300/11 RMK AO2 RAB0057E11 P0000 TSNO
94908KDBQ DBQ20050426193013004/26/05 19:30:31  5-MIN KDBQ 270130Z AUTO 30010KT 10SM FEW043 OVC049 06/02 A2957 1400 73 700 300/10 RMK AO2 RAB0057E11 P0000 TSNO
94908KDBQ DBQ20050426193513004/26/05 19:35:31  5-MIN KDBQ 270135Z AUTO 30013KT 10SM FEW043 OVC055 06/02 A2958 1400 73 700 300/13 RMK AO2 RAB0057E11 P0000 TSNO
94908KDBQ DBQ20050426194012304/26/05 19:40:31  5-MIN KDBQ 270140Z AUTO 30011KT 10SM OVC055 06/02 A2958 1400 76 600 290/11 RMK AO2 RAB0057E11 P0000 TSNO
94908KDBQ DBQ20050426194512304/26/05 19:45:31  5-MIN KDBQ 270145Z AUTO 29013KT 10SM OVC055 06/02 A2958 1390 76 600 290/13 RMK AO2 RAB0057E11 P0000 TSNO
94908KDBQ DBQ20050426195014004/26/05 19:50:31  5-MIN KDBQ 270150Z AUTO 30012KT 10SM OVC055 06/02 A2958 1390 76 600 300/12 RMK AO2 RAB0057E11 SLP024 P0000 T00560017 TSNO
94908KDBQ DBQ20050426195514704/26/05 19:55:31  5-MIN KDBQ 270155Z AUTO 30012KT 10SM FEW047 OVC055 06/02 A2959 1390 79 600 300/12 RMK AO2 RAB0057E11 SLP025 P0000 T00560022 TSNO
94908KDBQ DBQ20050426200011304/26/05 20:00:31  5-MIN KDBQ 270200Z AUTO 30012KT 10SM SCT047 OVC055 06/02 A2959 1390 76 600 300/12 RMK AO2 TSNO
94908KDBQ DBQ20050426200511304/26/05 20:05:31  5-MIN KDBQ 270205Z AUTO 30013KT 10SM BKN047 OVC055 06/01 A2959 1380 73 600 300/13 RMK AO2 TSNO
94908KDBQ DBQ20050426201013704/26/05 20:10:31  5-MIN KDBQ 270210Z AUTO 31015KT 10SM -RA FEW029 BKN047  OVC055 06/01 A2960 1380 73 600 310/15 RMK AO2 RAB09 P0000 TSNO
94908KDBQ DBQ20050426201513704/26/05 20:15:31  5-MIN KDBQ 270215Z AUTO 31014KT 10SM -RA FEW029 BKN047  OVC055 04/01 A2960 1380 79 500 310/14 RMK AO2 RAB09 P0000 TSNO
94908KDBQ DBQ20050426202013704/26/05 20:20:31  5-MIN KDBQ 270220Z AUTO 30013KT 10SM -RA FEW029 BKN047  OVC055 04/02 A2960 1370 82 500 300/13 RMK AO2 RAB09 P0000 TSNO
94908KDBQ DBQ20050426202513604/26/05 20:25:31  5-MIN KDBQ 270225Z AUTO 29009KT 9SM -RA FEW029 BKN040  OVC049 04/02 A2960 1380 89 400 290/09 RMK AO2 RAB09 P0000 TSNO
94908KDBQ DBQ20050426203013704/26/05 20:30:31  5-MIN KDBQ 270230Z AUTO 29009KT 10SM -RA FEW029 BKN040  OVC055 04/02 A2960 1380 85 500 290/09 RMK AO2 RAB09 P0000 TSNO
94908KDBQ DBQ20050426203513704/26/05 20:35:31  5-MIN KDBQ 270235Z AUTO 29008KT 10SM -RA BKN039 BKN046  OVC070 04/02 A2960 1380 85 500 290/08 RMK AO2 RAB09 P0000 TSNO
94908KDBQ DBQ20050426204013604/26/05 20:40:31  5-MIN KDBQ 270240Z AUTO 29008KT 10SM FEW038 BKN060  OVC070 04/02 A2960 1370 85 500 290/08 RMK AO2 RAB09E36 P0000 TSNO
94908KDBQ DBQ20050426204512804/26/05 20:45:31  5-MIN KDBQ 270245Z AUTO 28009KT 10SM SCT042 OVC070 04/02 A2960 1370 85 500 280/09 RMK AO2 RAB09E36 P0000 TSNO
94908KDBQ DBQ20050426205016604/26/05 20:50:31  5-MIN KDBQ 270250Z AUTO 29008KT 10SM FEW042 BKN075  OVC090 04/02 A2960 1370 85 500 290/08 RMK AO2 RAB09E36 SLP031 P0000 60000  T00440022 52020 TSNO
94908KDBQ DBQ20050426205515804/26/05 20:55:31  5-MIN KDBQ 270255Z AUTO 29011KT 10SM BKN075 OVC095 04/02 A2960 1370 85 500 290/11 RMK AO2 RAB09E36 SLP031 P0000 60000 T00440022  53019 TSNO
94908KDBQ DBQ20050426210011304/26/05 21:00:31  5-MIN KDBQ 270300Z AUTO 29013KT 10SM BKN070 OVC090 04/02 A2961 1370 85 500 290/13 RMK AO2 TSNO
94908KDBQ DBQ20050426210511304/26/05 21:05:31  5-MIN KDBQ 270305Z AUTO 29011KT 10SM BKN075 OVC095 04/02 A2961 1370 85 500 290/11 RMK AO2 TSNO
94908KDBQ DBQ20050426211011304/26/05 21:10:31  5-MIN KDBQ 270310Z AUTO 29011KT 10SM BKN075 OVC095 04/02 A2961 1370 85 500 290/11 RMK AO2 TSNO
94908KDBQ DBQ20050426211511304/26/05 21:15:31  5-MIN KDBQ 270315Z AUTO 30010KT 10SM BKN075 OVC095 04/02 A2961 1360 85 500 300/10 RMK AO2 TSNO
94908KDBQ DBQ20050426212012104/26/05 21:20:31  5-MIN KDBQ 270320Z AUTO 30012KT 10SM FEW014 BKN070  OVC095 04/02 A2961 1360 85 500 300/12 RMK AO2 TSNO
94908KDBQ DBQ20050426212512104/26/05 21:25:31  5-MIN KDBQ 270325Z AUTO 31012KT 10SM FEW014 BKN065  OVC095 04/02 A2962 1360 85 500 310/12 RMK AO2 TSNO
94908KDBQ DBQ20050426213011904/26/05 21:30:31  5-MIN KDBQ 270330Z AUTO 31011KT 9SM FEW029 BKN080 OVC090 04/02 A2962 1360 89 400 310/11 RMK AO2 TSNO
94908KDBQ DBQ20050426213512104/26/05 21:35:31  5-MIN KDBQ 270335Z AUTO 31010KT 10SM FEW029 BKN065  OVC095 04/02 A2962 1360 89 400 310/10 RMK AO2 TSNO
94908KDBQ DBQ20050426214012104/26/05 21:40:31  5-MIN KDBQ 270340Z AUTO 31010KT 10SM FEW031 BKN070  OVC085 04/02 A2962 1360 89 400 310/10 RMK AO2 TSNO
94908KDBQ DBQ20050426214512104/26/05 21:45:31  5-MIN KDBQ 270345Z AUTO 31008KT 10SM FEW031 SCT065  OVC085 04/02 A2962 1360 89 400 300/08 RMK AO2 TSNO
94908KDBQ DBQ20050426215013804/26/05 21:50:31  5-MIN KDBQ 270350Z AUTO 30008KT 10SM FEW031 BKN075  OVC090 04/02 A2962 1360 89 400 300/08 RMK AO2 SLP036 T00390022 TSNO
94908KDBQ DBQ20050426215513804/26/05 21:55:31  5-MIN KDBQ 270355Z AUTO 30009KT 10SM FEW031 BKN080  OVC095 04/02 A2962 1360 89 400 300/09 RMK AO2 SLP036 T00390022 TSNO
94908KDBQ DBQ20050426220012104/26/05 22:00:31  5-MIN KDBQ 270400Z AUTO 30010KT 10SM FEW014 BKN070  OVC090 04/02 A2962 1360 89 400 300/10 RMK AO2 TSNO
94908KDBQ DBQ20050426220512104/26/05 22:05:31  5-MIN KDBQ 270405Z AUTO 30010KT 10SM FEW014 BKN070  OVC090 04/02 A2962 1360 89 400 300/10 RMK AO2 TSNO
94908KDBQ DBQ20050426221012104/26/05 22:10:31  5-MIN KDBQ 270410Z AUTO 30012KT 10SM SCT016 BKN070  OVC090 04/02 A2962 1360 89 400 300/12 RMK AO2 TSNO
94908KDBQ DBQ20050426221512104/26/05 22:15:31  5-MIN KDBQ 270415Z AUTO 31009KT 10SM BKN016 BKN075  OVC095 04/02 A2962 1360 89 400 300/09 RMK AO2 TSNO
94908KDBQ DBQ20050426222012104/26/05 22:20:31  5-MIN KDBQ 270420Z AUTO 30012KT 10SM BKN014 BKN070  OVC090 04/02 A2962 1360 89 400 300/12 RMK AO2 TSNO
94908KDBQ DBQ20050426222511304/26/05 22:25:31  5-MIN KDBQ 270425Z AUTO 31010KT 10SM BKN014 OVC065 04/02 A2962 1360 89 400 300/10 RMK AO2 TSNO
94908KDBQ DBQ20050426223010604/26/05 22:30:31  5-MIN KDBQ 270430Z AUTO 31010KT 10SM OVC014 04/02 A2962 1350 89 400 310/10 RMK AO2 TSNO
94908KDBQ DBQ20050426223511304/26/05 22:35:31  5-MIN KDBQ 270435Z AUTO 31010KT 10SM BKN014 OVC065 04/02 A2962 1350 89 400 310/10 RMK AO2 TSNO
94908KDBQ DBQ20050426224011304/26/05 22:40:31  5-MIN KDBQ 270440Z AUTO 31010KT 10SM BKN014 OVC060 04/02 A2962 1350 89 400 310/10 RMK AO2 TSNO
94908KDBQ DBQ20050426224511304/26/05 22:45:31  5-MIN KDBQ 270445Z AUTO 31013KT 10SM BKN014 OVC065 04/02 A2963 1350 89 400 310/13 RMK AO2 TSNO
94908KDBQ DBQ20050426225013804/26/05 22:50:31  5-MIN KDBQ 270450Z AUTO 31010KT 10SM BKN014 BKN024  OVC060 04/02 A2962 1350 89 400 310/10 RMK AO2 SLP038 T00390022 TSNO
94908KDBQ DBQ20050426225513804/26/05 22:55:31  5-MIN KDBQ 270455Z AUTO 30009KT 10SM BKN014 BKN024  OVC065 04/02 A2963 1350 89 400 300/09 RMK AO2 SLP038 T00390022 TSNO
94908KDBQ DBQ20050426230012104/26/05 23:00:31  5-MIN KDBQ 270500Z AUTO 30009KT 10SM SCT014 BKN024  OVC065 04/02 A2963 1350 89 400 300/09 RMK AO2 TSNO
94908KDBQ DBQ20050426230511304/26/05 23:05:31  5-MIN KDBQ 270505Z AUTO 30008KT 10SM SCT014 OVC024 04/02 A2963 1350 89 400 300/08 RMK AO2 TSNO
94908KDBQ DBQ20050426231011304/26/05 23:10:31  5-MIN KDBQ 270510Z AUTO 29010KT 10SM SCT014 OVC024 04/02 A2963 1350 89 400 290/10 RMK AO2 TSNO
94908KDBQ DBQ20050426231511304/26/05 23:15:31  5-MIN KDBQ 270515Z AUTO 30010KT 10SM SCT016 OVC024 04/02 A2963 1350 89 400 300/10 RMK AO2 TSNO
94908KDBQ DBQ20050426232011304/26/05 23:20:31  5-MIN KDBQ 270520Z AUTO 29008KT 10SM SCT018 OVC024 04/02 A2963 1350 89 400 290/08 RMK AO2 TSNO
94908KDBQ DBQ20050426232511304/26/05 23:25:31  5-MIN KDBQ 270525Z AUTO 30008KT 10SM SCT018 OVC024 04/02 A2964 1340 89 400 300/08 RMK AO2 TSNO
94908KDBQ DBQ20050426233011304/26/05 23:30:31  5-MIN KDBQ 270530Z AUTO 30010KT 10SM SCT018 OVC023 04/02 A2964 1340 89 400 300/10 RMK AO2 TSNO
94908KDBQ DBQ20050426233511304/26/05 23:35:31  5-MIN KDBQ 270535Z AUTO 30010KT 10SM SCT018 OVC023 04/02 A2964 1340 89 400 300/10 RMK AO2 TSNO
94908KDBQ DBQ20050426234010604/26/05 23:40:31  5-MIN KDBQ 270540Z AUTO 29011KT 10SM OVC023 04/02 A2964 1340 89 400 290/11 RMK AO2 TSNO
94908KDBQ DBQ20050426234511304/26/05 23:45:31  5-MIN KDBQ 270545Z AUTO 30009KT 10SM BKN017 OVC023 04/02 A2964 1340 89 400 300/09 RMK AO2 TSNO
94908KDBQ DBQ20050426235016504/26/05 23:50:31  5-MIN KDBQ 270550Z AUTO 30012KT 10SM SCT017 OVC023 04/02 A2964 1340 89 400 300/12 RMK AO2 SLP043 60000 T00390022 10072 20039  401000006 53019 TSNO
94908KDBQ DBQ20050426235516504/26/05 23:55:31  5-MIN KDBQ 270555Z AUTO 31010KT 10SM SCT015 OVC023 04/02 A2964 1340 89 400 300/10 RMK AO2 SLP043 60000 T00390022 10072 20039  401000006 52012 TSNO
94908KDBQ DBQ20050427000011304/27/05 00:00:38  5-MIN KDBQ 270600Z AUTO 31010KT 10SM SCT015 OVC023 04/02 A2964 1340 89 400 310/10 RMK AO2 TSNO
94908KDBQ DBQ20050427000511304/27/05 00:05:31  5-MIN KDBQ 270605Z AUTO 31010KT 10SM SCT017 BKN023 04/02 A2964 1340 85 400 310/10 RMK AO2 TSNO
94908KDBQ DBQ20050427001011304/27/05 00:10:31  5-MIN KDBQ 270610Z AUTO 31010KT 10SM FEW015 BKN021 04/01 A2964 1340 82 400 310/10 RMK AO2 TSNO
94908KDBQ DBQ20050427001510604/27/05 00:15:33  5-MIN KDBQ 270615Z AUTO 31009KT 10SM OVC021 04/02 A2964 1340 85 400 310/09 RMK AO2 TSNO
94908KDBQ DBQ20050427002010604/27/05 00:20:31  5-MIN KDBQ 270620Z AUTO 31010KT 10SM BKN021 04/01 A2964 1340 82 400 310/10 RMK AO2 TSNO
94908KDBQ DBQ20050427002511304/27/05 00:25:31  5-MIN KDBQ 270625Z AUTO 30009KT 10SM BKN021 BKN095 04/01 A2964 1340 82 400 300/09 RMK AO2 TSNO
94908KDBQ DBQ20050427003011304/27/05 00:30:31  5-MIN KDBQ 270630Z AUTO 30010KT 10SM SCT021 BKN095 03/01 A2964 1340 85 300 300/10 RMK AO2 TSNO
94908KDBQ DBQ20050427003511304/27/05 00:35:31  5-MIN KDBQ 270635Z AUTO 30010KT 10SM SCT021 BKN095 03/01 A2964 1340 85 300 300/10 RMK AO2 TSNO
94908KDBQ DBQ20050427004012104/27/05 00:40:31  5-MIN KDBQ 270640Z AUTO 30008KT 10SM FEW021 SCT048  SCT095 03/01 A2965 1330 85 300 300/08 RMK AO2 TSNO
94908KDBQ DBQ20050427004511304/27/05 00:45:31  5-MIN KDBQ 270645Z AUTO 30008KT 10SM FEW021 SCT095 03/01 A2965 1330 85 300 300/08 RMK AO2 TSNO
94908KDBQ DBQ20050427005012304/27/05 00:50:31  5-MIN KDBQ 270650Z AUTO 31008KT 10SM FEW095 03/01 A2965 1330 85 300 310/08 RMK AO2 SLP046 T00330011 TSNO
94908KDBQ DBQ20050427005512104/27/05 00:55:31  5-MIN KDBQ 270655Z AUTO 30008KT 10SM CLR 03/01 A2965  1330 85 300 300/08 RMK AO2 SLP046 T00330011 TSNO
94908KDBQ DBQ20050427010010404/27/05 01:00:31  5-MIN KDBQ 270700Z AUTO 30009KT 10SM CLR 03/01 A2965  1330 85 300 300/09 RMK AO2 TSNO
94908KDBQ DBQ20050427010510404/27/05 01:05:31  5-MIN KDBQ 270705Z AUTO 30009KT 10SM CLR 03/01 A2965  1330 89 200 300/09 RMK AO2 TSNO
94908KDBQ DBQ20050427011010604/27/05 01:10:31  5-MIN KDBQ 270710Z AUTO 29010KT 10SM FEW070 03/01 A2965 1330 85 300 290/10 RMK AO2 TSNO
94908KDBQ DBQ20050427011510604/27/05 01:15:31  5-MIN KDBQ 270715Z AUTO 29009KT 10SM SCT070 03/01 A2965 1330 85 300 290/09 RMK AO2 TSNO
94908KDBQ DBQ20050427012010604/27/05 01:20:31  5-MIN KDBQ 270720Z AUTO 30010KT 10SM BKN070 03/01 A2965 1330 85 300 300/10 RMK AO2 TSNO
94908KDBQ DBQ20050427012510604/27/05 01:25:31  5-MIN KDBQ 270725Z AUTO 30009KT 10SM BKN070 03/01 A2966 1320 89 200 300/09 RMK AO2 TSNO
94908KDBQ DBQ20050427013010604/27/05 01:30:31  5-MIN KDBQ 270730Z AUTO 30009KT 10SM BKN075 03/01 A2966 1320 89 200 300/09 RMK AO2 TSNO
94908KDBQ DBQ20050427013510604/27/05 01:35:31  5-MIN KDBQ 270735Z AUTO 31010KT 10SM OVC075 03/01 A2966 1320 89 200 300/10 RMK AO2 TSNO
94908KDBQ DBQ20050427014010604/27/05 01:40:31  5-MIN KDBQ 270740Z AUTO 31009KT 10SM OVC070 03/01 A2966 1320 89 200 310/09 RMK AO2 TSNO
94908KDBQ DBQ20050427014511304/27/05 01:45:31  5-MIN KDBQ 270745Z AUTO 31008KT 10SM BKN065 OVC080 03/01 A2966 1320 89 200 310/08 RMK AO2 TSNO
94908KDBQ DBQ20050427015013004/27/05 01:50:31  5-MIN KDBQ 270750Z AUTO 31007KT 10SM BKN065 BKN080 03/01 A2966 1320 89 200 300/07 RMK AO2 SLP048 T00280011 TSNO
94908KDBQ DBQ20050427015513004/27/05 01:55:31  5-MIN KDBQ 270755Z AUTO 30007KT 10SM FEW065 BKN080 03/01 A2966 1320 85 200 300/07 RMK AO2 SLP048 T00280006 TSNO
94908KDBQ DBQ20050427020011304/27/05 02:00:31  5-MIN KDBQ 270800Z AUTO 32007KT 10SM FEW060 SCT080 03/01 A2966 1320 85 200 310/07 RMK AO2 TSNO
94908KDBQ DBQ20050427020512104/27/05 02:05:31  5-MIN KDBQ 270805Z AUTO 31008KT 10SM FEW046 SCT060  SCT080 02/01 A2966 1320 89 100 310/08 RMK AO2 TSNO
94908KDBQ DBQ20050427021011304/27/05 02:10:31  5-MIN KDBQ 270810Z AUTO 30007KT 10SM SCT046 BKN065 02/01 A2966 1320 89 100 300/07 RMK AO2 TSNO
94908KDBQ DBQ20050427021510604/27/05 02:15:31  5-MIN KDBQ 270815Z AUTO 29006KT 10SM BKN046 02/01 A2967 1320 89 100 290/06 RMK AO2 TSNO
94908KDBQ DBQ20050427022010604/27/05 02:20:31  5-MIN KDBQ 270820Z AUTO 30007KT 10SM SCT046 02/01 A2967 1310 89 100 300/07 RMK AO2 TSNO
94908KDBQ DBQ20050427022510604/27/05 02:25:31  5-MIN KDBQ 270825Z AUTO 29008KT 10SM SCT046 02/01 A2967 1310 89 100 290/08 RMK AO2 TSNO
94908KDBQ DBQ20050427023011304/27/05 02:30:31  5-MIN KDBQ 270830Z AUTO 29008KT 10SM SCT046 BKN070 02/01 A2967 1310 89 100 290/08 RMK AO2 TSNO
94908KDBQ DBQ20050427023511304/27/05 02:35:31  5-MIN KDBQ 270835Z AUTO 29008KT 10SM FEW046 BKN070 02/01 A2967 1310 89 100 290/08 RMK AO2 TSNO
94908KDBQ DBQ20050427024011304/27/05 02:40:31  5-MIN KDBQ 270840Z AUTO 29008KT 10SM FEW046 BKN070 02/01 A2967 1310 89 100 290/08 RMK AO2 TSNO
94908KDBQ DBQ20050427024510604/27/05 02:45:31  5-MIN KDBQ 270845Z AUTO 29008KT 10SM BKN070 03/01 A2967 1310 85 200 290/08 RMK AO2 TSNO
94908KDBQ DBQ20050427025012904/27/05 02:50:31  5-MIN KDBQ 270850Z AUTO 29008KT 10SM BKN070 03/01 A2967 1310 85 200 280/08 RMK AO2 SLP055 T00280006 52012 TSNO
94908KDBQ DBQ20050427025512904/27/05 02:55:31  5-MIN KDBQ 270855Z AUTO 28008KT 10SM OVC070 03/01 A2968 1310 85 200 280/08 RMK AO2 SLP055 T00280006 53012 TSNO
94908KDBQ DBQ20050427030010604/27/05 03:00:31  5-MIN KDBQ 270900Z AUTO 28008KT 10SM OVC070 03/01 A2968 1300 89 200 280/08 RMK AO2 TSNO
94908KDBQ DBQ20050427030510604/27/05 03:05:31  5-MIN KDBQ 270905Z AUTO 29007KT 10SM OVC070 03/01 A2968 1300 89 200 280/07 RMK AO2 TSNO
94908KDBQ DBQ20050427031010604/27/05 03:10:31  5-MIN KDBQ 270910Z AUTO 29007KT 10SM OVC070 03/01 A2968 1300 89 200 290/07 RMK AO2 TSNO
94908KDBQ DBQ20050427031510604/27/05 03:15:31  5-MIN KDBQ 270915Z AUTO 29007KT 10SM OVC070 03/01 A2968 1300 89 200 290/07 RMK AO2 TSNO
94908KDBQ DBQ20050427032010604/27/05 03:20:31  5-MIN KDBQ 270920Z AUTO 29008KT 10SM OVC070 03/01 A2968 1300 89 200 290/08 RMK AO2 TSNO
94908KDBQ DBQ20050427032510604/27/05 03:25:31  5-MIN KDBQ 270925Z AUTO 29006KT 10SM OVC070 03/01 A2968 1300 89 200 290/06 RMK AO2 TSNO
94908KDBQ DBQ20050427033010604/27/05 03:30:31  5-MIN KDBQ 270930Z AUTO 28006KT 10SM OVC070 03/01 A2968 1300 89 200 280/06 RMK AO2 TSNO
94908KDBQ DBQ20050427033510604/27/05 03:35:31  5-MIN KDBQ 270935Z AUTO 29007KT 10SM OVC070 03/01 A2968 1300 89 200 290/07 RMK AO2 TSNO
94908KDBQ DBQ20050427034010604/27/05 03:40:31  5-MIN KDBQ 270940Z AUTO 29008KT 10SM OVC070 03/01 A2968 1300 89 200 290/08 RMK AO2 TSNO
94908KDBQ DBQ20050427034511304/27/05 03:45:31  5-MIN KDBQ 270945Z AUTO 28008KT 10SM FEW046 OVC070 03/01 A2969 1300 89 200 280/08 RMK AO2 TSNO
94908KDBQ DBQ20050427035013004/27/05 03:50:31  5-MIN KDBQ 270950Z AUTO 27009KT 10SM FEW046 OVC070 03/01 A2969 1290 89 200 270/09 RMK AO2 SLP059 T00280011 TSNO
94908KDBQ DBQ20050427035513004/27/05 03:55:31  5-MIN KDBQ 270955Z AUTO 27009KT 10SM FEW046 OVC065 03/01 A2969 1300 89 200 270/09 RMK AO2 SLP059 T00280011 TSNO
94908KDBQ DBQ20050427040011304/27/05 04:00:31  5-MIN KDBQ 271000Z AUTO 27010KT 10SM FEW044 OVC065 03/01 A2969 1290 89 200 270/10 RMK AO2 TSNO
94908KDBQ DBQ20050427040511304/27/05 04:05:31  5-MIN KDBQ 271005Z AUTO 27011KT 10SM SCT044 OVC065 03/01 A2969 1290 89 200 270/11 RMK AO2 TSNO
94908KDBQ DBQ20050427041011304/27/05 04:10:31  5-MIN KDBQ 271010Z AUTO 27010KT 10SM BKN042 OVC065 03/01 A2969 1290 89 200 270/10 RMK AO2 TSNO
94908KDBQ DBQ20050427041511304/27/05 04:15:31  5-MIN KDBQ 271015Z AUTO 28010KT 10SM BKN044 OVC065 03/01 A2969 1300 89 200 270/10 RMK AO2 TSNO
94908KDBQ DBQ20050427042011304/27/05 04:20:31  5-MIN KDBQ 271020Z AUTO 28010KT 10SM BKN044 OVC065 03/01 A2969 1300 89 200 270/10 RMK AO2 TSNO
94908KDBQ DBQ20050427042511304/27/05 04:25:31  5-MIN KDBQ 271025Z AUTO 27010KT 10SM BKN044 OVC065 03/01 A2969 1290 89 200 270/10 RMK AO2 TSNO
94908KDBQ DBQ20050427043011304/27/05 04:30:31  5-MIN KDBQ 271030Z AUTO 27010KT 10SM BKN044 BKN065 03/01 A2969 1290 89 200 270/10 RMK AO2 TSNO
94908KDBQ DBQ20050427043510604/27/05 04:35:31  5-MIN KDBQ 271035Z AUTO 27009KT 10SM BKN044 02/01 A2969 1290 89 100 270/09 RMK AO2 TSNO
94908KDBQ DBQ20050427044010604/27/05 04:40:31  5-MIN KDBQ 271040Z AUTO 27011KT 10SM SCT044 02/01 A2969 1290 89 100 270/11 RMK AO2 TSNO
94908KDBQ DBQ20050427044510604/27/05 04:45:31  5-MIN KDBQ 271045Z AUTO 27008KT 10SM FEW044 02/01 A2969 1290 89 100 270/08 RMK AO2 TSNO
94908KDBQ DBQ20050427045012304/27/05 04:50:31  5-MIN KDBQ 271050Z AUTO 27010KT 10SM FEW042 02/01 A2969 1290 89 100 270/10 RMK AO2 SLP061 T00220006 TSNO
94908KDBQ DBQ20050427045511004/27/05 04:55:31  5-MIN KDBQ 271055Z 26009KT 10SM CLR 02/01 A2969 1290 89 100 260/09 RMK AO2 SLP061 T00220006
94908KDBQ DBQ20050427050009104/27/05 05:00:31  5-MIN KDBQ 271100Z 26008KT 10SM CLR 02/01 A2970 1290 92 0 260/08 RMK AO2
94908KDBQ DBQ20050427050509104/27/05 05:05:31  5-MIN KDBQ 271105Z 26009KT 10SM CLR 02/00 A2970 1290 89 0 260/09 RMK AO2
94908KDBQ DBQ20050427051009104/27/05 05:10:31  5-MIN KDBQ 271110Z 26009KT 10SM CLR 02/00 A2970 1290 89 0 250/09 RMK AO2
94908KDBQ DBQ20050427051509104/27/05 05:15:31  5-MIN KDBQ 271115Z 26008KT 10SM CLR 01/00 A2970 1290 92 0 250/08 RMK AO2
94908KDBQ DBQ20050427052009104/27/05 05:20:31  5-MIN KDBQ 271120Z 26008KT 10SM CLR 01/00 A2970 1280 92 0 250/08 RMK AO2
94908KDBQ DBQ20050427052509104/27/05 05:25:31  5-MIN KDBQ 271125Z 25008KT 10SM CLR 01/00 A2970 1280 92 0 250/08 RMK AO2
94908KDBQ DBQ20050427053009404/27/05 05:30:31  5-MIN KDBQ 271130Z 25008KT 10SM CLR 01/00 A2970 1280 96 -100 250/08 RMK AO2
94908KDBQ DBQ20050427053509404/27/05 05:35:31  5-MIN KDBQ 271135Z 24008KT 10SM CLR 01/00 A2970 1280 96 -100 240/08 RMK AO2
94908KDBQ DBQ20050427054009004/27/05 05:40:31  5-MIN KDBQ 271140Z 24008KT 9SM CLR 01/00 A2970 1280 92 0 240/08 RMK AO2
94908KDBQ DBQ20050427054509004/27/05 05:45:31  5-MIN KDBQ 271145Z 24008KT 9SM CLR 01/00 A2971 1280 92 0 240/08 RMK AO2
94908KDBQ DBQ20050427055013204/27/05 05:50:31  5-MIN KDBQ 271150Z 24008KT 10SM CLR 01/00 A2970 1280 92 0 240/08 RMK AO2 SLP067 70008 T00110000 10039 20006 53012
94908KDBQ DBQ20050427055513204/27/05 05:55:31  5-MIN KDBQ 271155Z 24008KT 10SM CLR 02/01 A2971 1280 92 0 240/08 RMK AO2 SLP068 70008 T00170006 10039 20006 53010
94908KDBQ DBQ20050427060009104/27/05 06:00:31  5-MIN KDBQ 271200Z 24007KT 10SM CLR 02/01 A2971 1270 92 0 230/07 RMK AO2
94908KDBQ DBQ20050427060509104/27/05 06:05:31  5-MIN KDBQ 271205Z 24009KT 10SM CLR 02/01 A2971 1270 92 0 240/09 RMK AO2
94908KDBQ DBQ20050427061009304/27/05 06:10:31  5-MIN KDBQ 271210Z 25009KT 10SM CLR 02/01 A2972 1270 89 100 250/09 RMK AO2
94908KDBQ DBQ20050427061509304/27/05 06:15:31  5-MIN KDBQ 271215Z 26010KT 10SM CLR 02/01 A2971 1270 89 100 260/10 RMK AO2
94908KDBQ DBQ20050427062009604/27/05 06:20:31  5-MIN KDBQ 271220Z 26012KT 10SM FEW110 02/01 A2972 1270 89 100 260/12 RMK AO2
94908KDBQ DBQ20050427062509604/27/05 06:25:31  5-MIN KDBQ 271225Z 27012KT 10SM SCT110 02/01 A2972 1260 89 100 270/12 RMK AO2
94908KDBQ DBQ20050427063009604/27/05 06:30:31  5-MIN KDBQ 271230Z 27012KT 10SM BKN110 02/01 A2972 1260 89 100 270/12 RMK AO2
94908KDBQ DBQ20050427063509604/27/05 06:35:31  5-MIN KDBQ 271235Z 27013KT 10SM BKN110 03/00 A2973 1260 82 100 270/13 RMK AO2
94908KDBQ DBQ20050427064009604/27/05 06:40:31  5-MIN KDBQ 271240Z 28012KT 10SM BKN110 03/00 A2973 1260 82 100 280/12 RMK AO2
94908KDBQ DBQ20050427064509604/27/05 06:45:31  5-MIN KDBQ 271245Z 28014KT 10SM OVC110 03/00 A2973 1260 82 100 280/14 RMK AO2
94908KDBQ DBQ20050427065011304/27/05 06:50:31  5-MIN KDBQ 271250Z 28014KT 10SM OVC110 03/00 A2973 1260 82 100 280/14 RMK AO2 SLP073 T00280000
94908KDBQ DBQ20050427065511304/27/05 06:55:31  5-MIN KDBQ 271255Z 28014KT 10SM BKN110 03/00 A2973 1260 82 100 280/14 RMK AO2 SLP074 T00280000
94908KDBQ DBQ20050427070009604/27/05 07:00:31  5-MIN KDBQ 271300Z 28014KT 10SM BKN110 03/00 A2973 1260 82 100 280/14 RMK AO2
94908KDBQ DBQ20050427070509604/27/05 07:05:31  5-MIN KDBQ 271305Z 28013KT 10SM SCT110 03/01 A2973 1260 82 200 280/13 RMK AO2
94908KDBQ DBQ20050427071009604/27/05 07:10:31  5-MIN KDBQ 271310Z 28014KT 10SM SCT110 04/01 A2973 1250 79 300 280/14 RMK AO2
94908KDBQ DBQ20050427071509604/27/05 07:15:31  5-MIN KDBQ 271315Z 28012KT 10SM FEW110 04/01 A2973 1250 79 300 280/12 RMK AO2
94908KDBQ DBQ20050427072009904/27/05 07:20:31  5-MIN KDBQ 271320Z 29014G19KT 10SM CLR 04/01 A2973 1250 79 300 290/14G19 RMK AO2
94908KDBQ DBQ20050427072509304/27/05 07:25:31  5-MIN KDBQ 271325Z 29013KT 10SM CLR 04/00 A2973 1250 76 200 290/13 RMK AO2
94908KDBQ DBQ20050427073009304/27/05 07:30:31  5-MIN KDBQ 271330Z 29014KT 10SM CLR 04/01 A2973 1250 76 300 290/14 RMK AO2
94908KDBQ DBQ20050427073509304/27/05 07:35:31  5-MIN KDBQ 271335Z 29013KT 10SM CLR 04/00 A2974 1250 73 300 290/13 RMK AO2
94908KDBQ DBQ20050427074009304/27/05 07:40:31  5-MIN KDBQ 271340Z 29013KT 10SM CLR 04/00 A2974 1250 73 300 290/13 RMK AO2
94908KDBQ DBQ20050427074509304/27/05 07:45:31  5-MIN KDBQ 271345Z 29013KT 10SM CLR 04/00 A2974 1250 73 300 290/13 RMK AO2
94908KDBQ DBQ20050427075011004/27/05 07:50:31  5-MIN KDBQ 271350Z 29012KT 10SM CLR 05/01 A2974 1250 73 400 290/12 RMK AO2 SLP076 T00500006
94908KDBQ DBQ20050427075511304/27/05 07:55:31  5-MIN KDBQ 271355Z 29013KT 10SM FEW120 05/01 A2974 1250 73 400 290/13 RMK AO2 SLP076 T00500006
94908KDBQ DBQ20050427080009604/27/05 08:00:31  5-MIN KDBQ 271400Z 30013KT 10SM FEW120 05/00 A2974 1250 70 400 300/13 RMK AO2
94908KDBQ DBQ20050427080509304/27/05 08:05:31  5-MIN KDBQ 271405Z 29014KT 10SM CLR 04/00 A2974 1250 73 300 290/14 RMK AO2
94908KDBQ DBQ20050427081009304/27/05 08:10:31  5-MIN KDBQ 271410Z 29015KT 10SM CLR 05/00 A2974 1250 70 400 290/15 RMK AO2
94908KDBQ DBQ20050427081509304/27/05 08:15:31  5-MIN KDBQ 271415Z 28015KT 10SM CLR 06/00 A2974 1240 67 400 280/15 RMK AO2
94908KDBQ DBQ20050427082009304/27/05 08:20:31  5-MIN KDBQ 271420Z 30013KT 10SM CLR 06/00 A2974 1240 67 400 300/13 RMK AO2
94908KDBQ DBQ20050427082509304/27/05 08:25:31  5-MIN KDBQ 271425Z 28015KT 10SM CLR 05/00 A2974 1240 70 400 280/15 RMK AO2
94908KDBQ DBQ20050427083010004/27/05 08:30:31  5-MIN KDBQ 271430Z 31014G20KT 10SM CLR 05/M01 A2975 1240 67 400 310/14G20 RMK AO2
94908KDBQ DBQ20050427083509304/27/05 08:35:31  5-MIN KDBQ 271435Z 29012KT 10SM CLR 06/00 A2975 1240 67 400 290/12 RMK AO2
94908KDBQ DBQ20050427084009304/27/05 08:40:31  5-MIN KDBQ 271440Z 29015KT 10SM CLR 06/01 A2975 1240 70 400 290/15 RMK AO2
94908KDBQ DBQ20050427084509304/27/05 08:45:31  5-MIN KDBQ 271445Z 29015KT 10SM CLR 06/00 A2975 1230 67 400 290/15 RMK AO2
94908KDBQ DBQ20050427085011904/27/05 08:50:31  5-MIN KDBQ 271450Z 29015KT 10SM FEW024 06/00 A2975 1230 67 400 290/15 RMK AO2 SLP083 T00560000 53010
94908KDBQ DBQ20050427085511904/27/05 08:55:31  5-MIN KDBQ 271455Z 29013KT 10SM FEW026 06/00 A2976 1230 65 500 290/13 RMK AO2 SLP083 T00610000 53017
94908KDBQ DBQ20050427090010304/27/05 09:00:31  5-MIN KDBQ 271500Z 29014G21KT 10SM FEW026 06/01 A2976  1230 67 500 290/14G21 RMK AO2
94908KDBQ DBQ20050427090510304/27/05 09:05:31  5-MIN KDBQ 271505Z 30014G21KT 10SM FEW026 06/00 A2976  1230 65 500 300/14G21 RMK AO2
94908KDBQ DBQ20050427091010304/27/05 09:10:31  5-MIN KDBQ 271510Z 30015G21KT 10SM FEW028 06/00 A2976  1220 65 500 300/15G21 RMK AO2
94908KDBQ DBQ20050427091510304/27/05 09:15:31  5-MIN KDBQ 271515Z 29014G21KT 10SM SCT028 07/00 A2977  1220 62 600 290/14G21 RMK AO2
94908KDBQ DBQ20050427092010304/27/05 09:20:31  5-MIN KDBQ 271520Z 30016G22KT 10SM SCT030 07/00 A2977  1220 62 500 300/16G22 RMK AO2
94908KDBQ DBQ20050427092510304/27/05 09:25:31  5-MIN KDBQ 271525Z 30013G22KT 10SM SCT032 07/00 A2977  1220 62 600 290/13G22 RMK AO2
94908KDBQ DBQ20050427093010304/27/05 09:30:31  5-MIN KDBQ 271530Z 29012G21KT 10SM BKN030 06/00 A2977  1220 65 500 290/12G21 RMK AO2
94908KDBQ DBQ20050427093510304/27/05 09:35:31  5-MIN KDBQ 271535Z 28017G22KT 10SM BKN032 06/00 A2977  1220 65 500 280/17G22 RMK AO2
94908KDBQ DBQ20050427094010304/27/05 09:40:31  5-MIN KDBQ 271540Z 30015G22KT 10SM BKN032 06/00 A2977  1220 65 500 300/15G22 RMK AO2
94908KDBQ DBQ20050427094509604/27/05 09:45:31  5-MIN KDBQ 271545Z 29015KT 10SM BKN032 07/00 A2977 1210 60 600 290/15 RMK AO2
94908KDBQ DBQ20050427095011304/27/05 09:50:31  5-MIN KDBQ 271550Z 29014KT 10SM BKN032 07/00 A2978 1210 62 500 290/14 RMK AO2 SLP090 T00670000
94908KDBQ DBQ20050427095511304/27/05 09:55:31  5-MIN KDBQ 271555Z 28017KT 10SM BKN032 07/00 A2978 1210 62 500 280/17 RMK AO2 SLP091 T00670000
94908KDBQ DBQ20050427100010404/27/05 10:00:31  5-MIN KDBQ 271600Z 29016G21KT 10SM BKN032 07/M01 A2978  1210 60 500 290/16G21 RMK AO2
94908KDBQ DBQ20050427100510304/27/05 10:05:31  5-MIN KDBQ 271605Z 31014G21KT 10SM BKN032 07/00 A2978  1210 60 600 310/14G21 RMK AO2
94908KDBQ DBQ20050427101009604/27/05 10:10:31  5-MIN KDBQ 271610Z 30014KT 10SM BKN032 07/00 A2978 1200 62 500 300/14 RMK AO2
94908KDBQ DBQ20050427101510304/27/05 10:15:31  5-MIN KDBQ 271615Z 29015G20KT 10SM SCT032 07/00 A2978  1200 60 600 290/15G20 RMK AO2
94908KDBQ DBQ20050427102010304/27/05 10:20:31  5-MIN KDBQ 271620Z 31017G20KT 10SM FEW032 07/00 A2979  1200 60 600 310/17G20 RMK AO2
94908KDBQ DBQ20050427102509604/27/05 10:25:31  5-MIN KDBQ 271625Z 29018KT 10SM SCT032 08/00 A2979 1200 58 700 280/18 RMK AO2
94908KDBQ DBQ20050427103010304/27/05 10:30:31  5-MIN KDBQ 271630Z 30015G20KT 10SM SCT032 08/00 A2979  1200 58 700 300/15G20 RMK AO2
94908KDBQ DBQ20050427103510304/27/05 10:35:31  5-MIN KDBQ 271635Z 29015G21KT 10SM FEW032 08/00 A2979  1200 58 700 290/15G21 RMK AO2
94908KDBQ DBQ20050427104010304/27/05 10:40:31  5-MIN KDBQ 271640Z 30016G21KT 10SM FEW034 08/01 A2979  1200 58 700 300/16G21 RMK AO2
94908KDBQ DBQ20050427104510304/27/05 10:45:31  5-MIN KDBQ 271645Z 31014G20KT 10SM FEW034 08/01 A2979  1200 58 700 310/14G20 RMK AO2
94908KDBQ DBQ20050427105012004/27/05 10:50:31  5-MIN KDBQ 271650Z 30016G20KT 10SM FEW034 09/00 A2979  1200 53 800 300/16G20 RMK AO2 SLP093 T00890000
94908KDBQ DBQ20050427105511604/27/05 10:55:31  5-MIN KDBQ 271655Z 31020G25KT 10SM CLR 09/00 A2978 1200 51 900 310/20G25 RMK AO2 SLP092 T00940000
94908KDBQ DBQ20050427110010004/27/05 11:00:31  5-MIN KDBQ 271700Z 30019G25KT 10SM CLR 09/M01 A2979 1200 49 900 300/19G25 RMK AO2
94908KDBQ DBQ20050427110509904/27/05 11:05:31  5-MIN KDBQ 271705Z 30020G25KT 10SM CLR 09/00 A2979 1200 51 900 300/20G25 RMK AO2
94908KDBQ DBQ20050427111009904/27/05 11:10:31  5-MIN KDBQ 271710Z 31019G25KT 10SM CLR 09/00 A2979 1200 51 900 310/19G25 RMK AO2
94908KDBQ DBQ20050427111510304/27/05 11:15:31  5-MIN KDBQ 271715Z 30013G25KT 10SM FEW048 09/00 A2979  1200 51 900 300/13G25 RMK AO2
94908KDBQ DBQ20050427112010304/27/05 11:20:31  5-MIN KDBQ 271720Z 31015G22KT 10SM FEW048 10/00 A2979  1200 49 900 310/15G22 RMK AO2
94908KDBQ DBQ20050427112512204/27/05 11:25:31  5-MIN KDBQ 271725Z 29019G26KT 10SM FEW048 10/M01 A2979  1200 47 900 290/19G26 RMK AO2 PK WND 29026/1723
94908KDBQ DBQ20050427113012204/27/05 11:30:31  5-MIN KDBQ 271730Z 29023G31KT 10SM FEW048 10/M01 A2979  1200 47 900 290/23G31 RMK AO2 PK WND 30031/1726
94908KDBQ DBQ20050427113512204/27/05 11:35:31  5-MIN KDBQ 271735Z 30018G31KT 10SM SCT048 10/M01 A2979  1200 47 900 300/18G31 RMK AO2 PK WND 30031/1726
94908KDBQ DBQ20050427114012204/27/05 11:40:31  5-MIN KDBQ 271740Z 32018G25KT 10SM BKN048 09/M01 A2979  1200 49 900 320/18G25 RMK AO2 PK WND 30031/1726
94908KDBQ DBQ20050427114512204/27/05 11:45:31  5-MIN KDBQ 271745Z 31021G25KT 10SM BKN050 09/M01 A2979  1200 47 900 310/21G25 RMK AO2 PK WND 30031/1726
94908KDBQ DBQ20050427115015804/27/05 11:50:31  5-MIN KDBQ 271750Z 31018G25KT 10SM BKN050 10/M01 A2979  1200 46 900 310/18G25 RMK AO2 PK WND 30031/1726 SLP092 T01001011 10100  20017 53017
94908KDBQ DBQ20050427115515804/27/05 11:55:31  5-MIN KDBQ 271755Z 31017G26KT 10SM BKN048 09/M01 A2979  1200 47 900 310/17G26 RMK AO2 PK WND 30031/1726 SLP094 T00941011 10100  20017 51010
94908KDBQ DBQ20050427120012304/27/05 12:00:31  5-MIN KDBQ 271800Z 28024G28KT 10SM BKN048 11/M01 A2979  1200 46 1000 280/24G28 RMK AO2 PK WND 28028/1759
94908KDBQ DBQ20050427120512304/27/05 12:05:31  5-MIN KDBQ 271805Z 30022G30KT 10SM BKN050 11/M01 A2979  1200 46 1000 300/22G30 RMK AO2 PK WND 29030/1803
94908KDBQ DBQ20050427121012304/27/05 12:10:31  5-MIN KDBQ 271810Z 30020G30KT 10SM BKN050 11/M01 A2980  1190 44 1100 300/20G30 RMK AO2 PK WND 29030/1806
94908KDBQ DBQ20050427121512304/27/05 12:15:31  5-MIN KDBQ 271815Z 29023G30KT 10SM BKN050 11/M01 A2980  1190 44 1000 290/23G30 RMK AO2 PK WND 29030/1806
94908KDBQ DBQ20050427122012904/27/05 12:20:31  5-MIN KDBQ 271820Z 31021G29KT 10SM BKN050 BKN055 11/M01 A2980 1190 44 1000 310/21G29 RMK AO2 PK WND 29030/1806
94908KDBQ DBQ20050427122512204/27/05 12:25:31  5-MIN KDBQ 271825Z 31024G30KT 10SM BKN050 09/M02 A2980  1190 45 800 300/24G30 RMK AO2 PK WND 30030/1821
94908KDBQ DBQ20050427123012204/27/05 12:30:31  5-MIN KDBQ 271830Z 30022G30KT 10SM BKN050 10/M01 A2980  1190 46 900 300/22G30 RMK AO2 PK WND 30030/1821
94908KDBQ DBQ20050427123512204/27/05 12:35:31  5-MIN KDBQ 271835Z 30021G28KT 10SM SCT050 10/M01 A2980  1190 46 900 300/21G28 RMK AO2 PK WND 30030/1821
94908KDBQ DBQ20050427124012304/27/05 12:40:31  5-MIN KDBQ 271840Z 30018G27KT 10SM SCT050 11/M01 A2980  1190 44 1000 300/18G27 RMK AO2 PK WND 30030/1821
94908KDBQ DBQ20050427124512204/27/05 12:45:31  5-MIN KDBQ 271845Z 30020G25KT 10SM SCT050 10/M01 A2980  1190 46 900 300/20G25 RMK AO2 PK WND 30030/1821
94908KDBQ DBQ20050427125014504/27/05 12:50:31  5-MIN KDBQ 271850Z 31020G27KT 10SM SCT050 SCT055 10/M02 A2980 1190 44 900 310/20G27 RMK AO2 PK WND 30030/1821 SLP098 T01001017
94908KDBQ DBQ20050427125513904/27/05 12:55:31  5-MIN KDBQ 271855Z 30015G27KT 10SM SCT050 10/M01 A2980  1190 46 900 300/15G27 RMK AO2 PK WND 30030/1821 SLP098 T01001011
94908KDBQ DBQ20050427130009704/27/05 13:00:31  5-MIN KDBQ 271900Z 31014KT 10SM BKN050 10/M01 A2980 1190 46 900 310/14 RMK AO2
94908KDBQ DBQ20050427130510504/27/05 13:05:31  5-MIN KDBQ 271905Z 30017G22KT 10SM BKN050 11/M01 A2981  1190 46 1000 300/17G22 RMK AO2
94908KDBQ DBQ20050427131010504/27/05 13:10:31  5-MIN KDBQ 271910Z 29018G25KT 10SM BKN050 11/M01 A2980  1190 44 1000 290/18G25 RMK AO2
94908KDBQ DBQ20050427131512304/27/05 13:15:31  5-MIN KDBQ 271915Z 30021G27KT 10SM SCT050 11/M02 A2981  1180 42 1000 290/21G27 RMK AO2 PK WND 30027/1914
94908KDBQ DBQ20050427132012304/27/05 13:20:31  5-MIN KDBQ 271920Z 28018G27KT 10SM BKN050 11/M01 A2980  1190 44 1000 280/18G27 RMK AO2 PK WND 30027/1914
94908KDBQ DBQ20050427132512304/27/05 13:25:31  5-MIN KDBQ 271925Z 28020G26KT 10SM BKN050 11/M01 A2981  1180 42 1000 280/20G26 RMK AO2 PK WND 30027/1914
94908KDBQ DBQ20050427133012304/27/05 13:30:31  5-MIN KDBQ 271930Z 29020G27KT 10SM SCT050 11/M02 A2981  1180 41 1000 290/20G27 RMK AO2 PK WND 28027/1930
94908KDBQ DBQ20050427133512304/27/05 13:35:31  5-MIN KDBQ 271935Z 27023G29KT 10SM SCT055 12/M02 A2981  1180 39 1100 270/23G29 RMK AO2 PK WND 29029/1931
94908KDBQ DBQ20050427134012304/27/05 13:40:31  5-MIN KDBQ 271940Z 28020G29KT 10SM BKN055 11/M02 A2981  1180 40 1000 280/20G29 RMK AO2 PK WND 29029/1931
94908KDBQ DBQ20050427134512204/27/05 13:45:31  5-MIN KDBQ 271945Z 29019G26KT 10SM BKN060 10/M03 A2981  1180 40 900 290/19G26 RMK AO2 PK WND 29029/1931
94908KDBQ DBQ20050427135013904/27/05 13:50:31  5-MIN KDBQ 271950Z 30017G26KT 10SM BKN060 10/M02 A2981  1180 42 900 300/17G26 RMK AO2 PK WND 29029/1931 SLP101 T01001022
94908KDBQ DBQ20050427135513904/27/05 13:55:31  5-MIN KDBQ 271955Z 29016G24KT 10SM BKN060 10/M02 A2981  1180 42 900 290/16G24 RMK AO2 PK WND 29029/1931 SLP101 T01001022
94908KDBQ DBQ20050427140009704/27/05 14:00:31  5-MIN KDBQ 272000Z 29017KT 10SM BKN060 10/M02 A2981 1180 42 900 290/17 RMK AO2
94908KDBQ DBQ20050427140510504/27/05 14:05:31  5-MIN KDBQ 272005Z 28018G25KT 10SM BKN060 11/M02 A2981  1180 42 1000 280/18G25 RMK AO2
94908KDBQ DBQ20050427141012304/27/05 14:10:31  5-MIN KDBQ 272010Z 29018G28KT 10SM BKN060 11/M02 A2981  1180 40 1000 290/18G28 RMK AO2 PK WND 28028/2006
94908KDBQ DBQ20050427141512304/27/05 14:15:31  5-MIN KDBQ 272015Z 29018G28KT 10SM BKN060 11/M02 A2981  1180 40 1000 280/18G28 RMK AO2 PK WND 28028/2006
94908KDBQ DBQ20050427142012304/27/05 14:20:31  5-MIN KDBQ 272020Z 30017G25KT 10SM BKN055 11/M02 A2981  1180 42 1000 290/17G25 RMK AO2 PK WND 28028/2006
94908KDBQ DBQ20050427142512304/27/05 14:25:31  5-MIN KDBQ 272025Z 29021G25KT 10SM BKN060 11/M02 A2981  1180 40 1000 290/21G25 RMK AO2 PK WND 28028/2006
94908KDBQ DBQ20050427143012304/27/05 14:30:31  5-MIN KDBQ 272030Z 28020G26KT 10SM BKN060 11/M02 A2981  1180 40 1000 280/20G26 RMK AO2 PK WND 28028/2006
94908KDBQ DBQ20050427143512304/27/05 14:35:31  5-MIN KDBQ 272035Z 29023G28KT 10SM BKN060 11/M02 A2981  1180 39 1000 290/23G28 RMK AO2 PK WND 29028/2034
94908KDBQ DBQ20050427144012304/27/05 14:40:31  5-MIN KDBQ 272040Z 28023G29KT 10SM BKN060 11/M02 A2982  1180 40 1000 280/23G29 RMK AO2 PK WND 29029/2040
94908KDBQ DBQ20050427144512304/27/05 14:45:31  5-MIN KDBQ 272045Z 28021G29KT 10SM BKN060 11/M02 A2981  1180 41 1000 280/21G29 RMK AO2 PK WND 29029/2040
94908KDBQ DBQ20050427145014604/27/05 14:50:31  5-MIN KDBQ 272050Z 28019G26KT 10SM BKN060 11/M02 A2982  1180 42 1000 280/19G26 RMK AO2 PK WND 29029/2040 SLP103 T01061017 51010
94908KDBQ DBQ20050427145514604/27/05 14:55:31  5-MIN KDBQ 272055Z 28023G27KT 10SM OVC055 11/M02 A2982  1170 40 1000 280/23G27 RMK AO2 PK WND 29029/2040 SLP104 T01061022 51009
94908KDBQ DBQ20050427150010404/27/05 15:00:31  5-MIN KDBQ 272100Z 28017G27KT 10SM OVC060 10/M02 A2982  1170 42 900 280/17G27 RMK AO2
94908KDBQ DBQ20050427150512204/27/05 15:05:31  5-MIN KDBQ 272105Z 29024G28KT 10SM BKN060 10/M03 A2983  1170 40 900 290/24G28 RMK AO2 PK WND 29028/2104
94908KDBQ DBQ20050427151012204/27/05 15:10:31  5-MIN KDBQ 272110Z 30016G28KT 10SM OVC060 10/M03 A2983  1170 40 900 300/16G28 RMK AO2 PK WND 29028/2104
94908KDBQ DBQ20050427151512204/27/05 15:15:31  5-MIN KDBQ 272115Z 30021G25KT 10SM OVC060 11/M02 A2983  1160 40 900 300/21G25 RMK AO2 PK WND 29028/2104
94908KDBQ DBQ20050427152012204/27/05 15:20:31  5-MIN KDBQ 272120Z 29016G25KT 10SM BKN060 11/M02 A2983  1160 40 900 290/16G25 RMK AO2 PK WND 29028/2104
94908KDBQ DBQ20050427152512204/27/05 15:25:31  5-MIN KDBQ 272125Z 30021G27KT 10SM BKN060 11/M02 A2983  1160 40 900 290/21G27 RMK AO2 PK WND 29028/2104
94908KDBQ DBQ20050427153012204/27/05 15:30:31  5-MIN KDBQ 272130Z 30018G27KT 10SM BKN060 10/M03 A2983  1160 40 900 300/18G27 RMK AO2 PK WND 29028/2104
94908KDBQ DBQ20050427153511504/27/05 15:35:31  5-MIN KDBQ 272135Z 30016KT 10SM BKN060 10/M02 A2983 1160 42 900 300/16 RMK AO2 PK WND 29028/2104
94908KDBQ DBQ20050427154012204/27/05 15:40:31  5-MIN KDBQ 272140Z 29021G28KT 10SM BKN060 11/M02 A2983  1160 40 900 290/21G28 RMK AO2 PK WND 30028/2137
94908KDBQ DBQ20050427154512204/27/05 15:45:31  5-MIN KDBQ 272145Z 30019G28KT 10SM BKN060 11/M02 A2983  1160 40 900 300/19G28 RMK AO2 PK WND 30028/2137
94908KDBQ DBQ20050427155014004/27/05 15:50:31  5-MIN KDBQ 272150Z 30017G24KT 10SM BKN060 11/M02 A2983  1160 39 1000 300/17G24 RMK AO2 PK WND 30028/2137 SLP107 T01111022
94908KDBQ DBQ20050427155513904/27/05 15:55:31  5-MIN KDBQ 272155Z 30017G24KT 10SM SCT060 11/M03 A2983  1160 39 900 300/17G24 RMK AO2 PK WND 30028/2137 SLP109 T01061028
94908KDBQ DBQ20050427160010404/27/05 16:00:31  5-MIN KDBQ 272200Z 31017G24KT 10SM FEW060 11/M03 A2983  1160 39 900 300/17G24 RMK AO2
94908KDBQ DBQ20050427160509804/27/05 16:05:31  5-MIN KDBQ 272205Z 32018KT 10SM FEW060 11/M02 A2983 1160 39 1000 320/18 RMK AO2
94908KDBQ DBQ20050427161010404/27/05 16:10:31  5-MIN KDBQ 272210Z 32017G23KT 10SM FEW060 10/M02 A2983  1160 42 900 320/17G23 RMK AO2
94908KDBQ DBQ20050427161510404/27/05 16:15:31  5-MIN KDBQ 272215Z 30015G23KT 10SM SCT060 11/M02 A2983  1160 40 900 300/15G23 RMK AO2
94908KDBQ DBQ20050427162010404/27/05 16:20:31  5-MIN KDBQ 272220Z 32018G21KT 10SM SCT060 11/M02 A2984  1150 40 900 320/18G21 RMK AO2
94908KDBQ DBQ20050427162509704/27/05 16:25:31  5-MIN KDBQ 272225Z 31017KT 10SM BKN065 09/M03 A2984 1150 42 800 310/17 RMK AO2
94908KDBQ DBQ20050427163010404/27/05 16:30:31  5-MIN KDBQ 272230Z 32014G21KT 10SM BKN060 10/M02 A2984  1150 42 900 310/14G21 RMK AO2
94908KDBQ DBQ20050427163509704/27/05 16:35:31  5-MIN KDBQ 272235Z 29015KT 10SM BKN060 10/M03 A2984 1150 40 900 290/15 RMK AO2
94908KDBQ DBQ20050427164010404/27/05 16:40:31  5-MIN KDBQ 272240Z 31018G22KT 10SM BKN060 10/M03 A2985  1150 40 900 310/18G22 RMK AO2
94908KDBQ DBQ20050427164511004/27/05 16:45:31  5-MIN KDBQ 272245Z 31018G24KT 10SM BKN060 BKN080 09/M03 A2985 1150 42 800 310/18G24 RMK AO2
94908KDBQ DBQ20050427165012704/27/05 16:50:31  5-MIN KDBQ 272250Z 30018G24KT 10SM BKN065 BKN080 09/M03 A2985 1140 42 800 300/18G24 RMK AO2 SLP115 T00941028
94908KDBQ DBQ20050427165512204/27/05 16:55:31  5-MIN KDBQ 272255Z 31020KT 10SM BKN065 OVC080 09/M03  A2985 1140 42 800 310/20 RMK AO2 SLP116 T00941028
94908KDBQ DBQ20050427170010504/27/05 17:00:31  5-MIN KDBQ 272300Z 31017KT 10SM BKN065 OVC080 09/M03  A2986 1140 40 800 310/17 RMK AO2
94908KDBQ DBQ20050427170510504/27/05 17:05:31  5-MIN KDBQ 272305Z 31015KT 10SM BKN070 OVC080 09/M03  A2986 1140 40 800 310/15 RMK AO2
94908KDBQ DBQ20050427171009704/27/05 17:10:31  5-MIN KDBQ 272310Z 30016KT 10SM OVC070 09/M03 A2986 1140 40 800 300/16 RMK AO2
94908KDBQ DBQ20050427171509704/27/05 17:15:31  5-MIN KDBQ 272315Z 30011KT 10SM BKN070 09/M03 A2986 1140 43 700 300/11 RMK AO2
94908KDBQ DBQ20050427172010504/27/05 17:20:31  5-MIN KDBQ 272320Z 32012KT 10SM BKN070 BKN090 10/M02  A2986 1140 42 900 320/12 RMK AO2
94908KDBQ DBQ20050427172510504/27/05 17:25:31  5-MIN KDBQ 272325Z 30014KT 10SM SCT070 BKN090 09/M03  A2986 1140 42 800 300/14 RMK AO2
94908KDBQ DBQ20050427173011004/27/05 17:30:31  5-MIN KDBQ 272330Z 30012G19KT 10SM FEW070 BKN090 09/M03 A2986 1140 42 800 300/12G19 RMK AO2
94908KDBQ DBQ20050427173510504/27/05 17:35:31  5-MIN KDBQ 272335Z 31013KT 10SM FEW070 BKN090 09/M03  A2986 1140 42 800 310/13 RMK AO2
94908KDBQ DBQ20050427174009704/27/05 17:40:31  5-MIN KDBQ 272340Z 32012KT 10SM BKN090 09/M03 A2986 1140 42 800 310/12 RMK AO2
94908KDBQ DBQ20050427174510204/27/05 17:45:31  5-MIN KDBQ 272345Z AUTO 31012KT 10SM OVC090 09/M03 A2985 1140 40 800 310/12 RMK AO2
94908KDBQ DBQ20050427175013204/27/05 17:50:31  5-MIN KDBQ 272350Z 31009KT 10SM OVC090 09/M03 A2985 1140 42 800 310/09 RMK AO2 SLP116 T00941028 10117 20089 51009
94908KDBQ DBQ20050427175513204/27/05 17:55:31  5-MIN KDBQ 272355Z 31010KT 10SM BKN090 09/M03 A2986 1140 43 700 310/10 RMK AO2 SLP117 T00891028 10117 20089 51013
94908KDBQ DBQ20050427180009704/27/05 18:00:31  5-MIN KDBQ 280000Z 32007KT 10SM BKN090 09/M02 A2986 1140 45 700 320/07 RMK AO2
94908KDBQ DBQ20050427180509704/27/05 18:05:31  5-MIN KDBQ 280005Z 32008KT 10SM BKN090 09/M02 A2986 1130 45 700 320/08 RMK AO2
94908KDBQ DBQ20050427181009704/27/05 18:10:31  5-MIN KDBQ 280010Z 31010KT 10SM BKN090 08/M03 A2986 1130 45 600 310/10 RMK AO2
94908KDBQ DBQ20050427181509704/27/05 18:15:31  5-MIN KDBQ 280015Z 31008KT 10SM BKN090 08/M03 A2986 1130 45 600 310/08 RMK AO2
94908KDBQ DBQ20050427182009704/27/05 18:20:31  5-MIN KDBQ 280020Z 31009KT 10SM BKN090 08/M03 A2986 1130 47 600 310/09 RMK AO2
94908KDBQ DBQ20050427182509704/27/05 18:25:31  5-MIN KDBQ 280025Z 31007KT 10SM BKN085 08/M03 A2986 1130 47 600 310/07 RMK AO2
94908KDBQ DBQ20050427183009704/27/05 18:30:31  5-MIN KDBQ 280030Z 31008KT 10SM BKN085 08/M03 A2986 1130 47 600 310/08 RMK AO2
94908KDBQ DBQ20050427183509704/27/05 18:35:31  5-MIN KDBQ 280035Z 31006KT 10SM BKN080 07/M02 A2987 1130 51 500 310/06 RMK AO2
94908KDBQ DBQ20050427184009704/27/05 18:40:31  5-MIN KDBQ 280040Z 31006KT 10SM OVC080 07/M02 A2987 1130 53 400 310/06 RMK AO2
94908KDBQ DBQ20050427184509704/27/05 18:45:31  5-MIN KDBQ 280045Z 32004KT 10SM OVC085 07/M02 A2987 1130 53 400 320/04 RMK AO2
94908KDBQ DBQ20050427185012704/27/05 18:50:31  5-MIN KDBQ 280050Z AUTO 32004KT 10SM FEW070 OVC085  07/M02 A2987 1130 51 500 320/04 RMK AO2 SLP122 T00721022
94908KDBQ DBQ20050427185512404/27/05 18:55:31  5-MIN KDBQ 280055Z AUTO 32004KT 10SM OVC090 07/M02 A2987 1130 55 400 310/04 RMK AO2 SLP122 T00671017 TSNO
94908KDBQ DBQ20050427190010704/27/05 19:00:31  5-MIN KDBQ 280100Z AUTO 31004KT 10SM OVC085 07/M02 A2987 1130 51 500 310/04 RMK AO2 TSNO
94908KDBQ DBQ20050427190510704/27/05 19:05:31  5-MIN KDBQ 280105Z AUTO 32004KT 10SM OVC090 07/M02 A2987 1120 53 400 320/04 RMK AO2 TSNO
94908KDBQ DBQ20050427191010704/27/05 19:10:31  5-MIN KDBQ 280110Z AUTO 33005KT 10SM OVC090 07/M02 A2987 1120 51 500 320/05 RMK AO2 TSNO
94908KDBQ DBQ20050427191510704/27/05 19:15:31  5-MIN KDBQ 280115Z AUTO 33005KT 10SM OVC085 07/M02 A2987 1120 53 400 330/05 RMK AO2 TSNO
94908KDBQ DBQ20050427192011504/27/05 19:20:31  5-MIN KDBQ 280120Z AUTO 33005KT 10SM FEW075 OVC090  06/M02 A2987 1120 59 300 330/05 RMK AO2 TSNO
94908KDBQ DBQ20050427192510704/27/05 19:25:31  5-MIN KDBQ 280125Z AUTO 33005KT 10SM BKN085 06/M02 A2988 1120 57 400 330/05 RMK AO2 TSNO
94908KDBQ DBQ20050427193010704/27/05 19:30:31  5-MIN KDBQ 280130Z AUTO 33004KT 10SM BKN085 06/M02 A2988 1120 55 400 330/04 RMK AO2 TSNO
94908KDBQ DBQ20050427193510704/27/05 19:35:31  5-MIN KDBQ 280135Z AUTO 33004KT 10SM SCT085 07/M03 A2988 1120 51 400 330/04 RMK AO2 TSNO
94908KDBQ DBQ20050427194010704/27/05 19:40:31  5-MIN KDBQ 280140Z AUTO 32003KT 10SM FEW080 06/M03 A2988 1120 53 400 320/03 RMK AO2 TSNO
94908KDBQ DBQ20050427194510704/27/05 19:45:31  5-MIN KDBQ 280145Z AUTO 31003KT 10SM FEW080 06/M03 A2988 1120 53 400 310/03 RMK AO2 TSNO
94908KDBQ DBQ20050427195012404/27/05 19:50:31  5-MIN KDBQ 280150Z AUTO 00000KT 10SM FEW110 06/M03 A2988 1110 55 300 000/00 RMK AO2 SLP125 T00561028 TSNO
94908KDBQ DBQ20050427195512404/27/05 19:55:31  5-MIN KDBQ 280155Z AUTO 00000KT 10SM SCT100 06/M03 A2988 1110 55 300 000/00 RMK AO2 SLP126 T00561028 TSNO
94908KDBQ DBQ20050427200010704/27/05 20:00:31  5-MIN KDBQ 280200Z AUTO 00000KT 10SM BKN100 04/M02 A2988 1110 64 100 000/00 RMK AO2 TSNO
94908KDBQ DBQ20050427200510704/27/05 20:05:31  5-MIN KDBQ 280205Z AUTO 00000KT 10SM BKN100 05/M02 A2988 1110 62 200 000/00 RMK AO2 TSNO
94908KDBQ DBQ20050427201010704/27/05 20:10:31  5-MIN KDBQ 280210Z AUTO 00000KT 10SM BKN100 05/M02 A2989 1110 62 200 000/00 RMK AO2 TSNO
94908KDBQ DBQ20050427201510704/27/05 20:15:31  5-MIN KDBQ 280215Z AUTO 00000KT 10SM OVC100 05/M02 A2989 1110 62 200 000/00 RMK AO2 TSNO
94908KDBQ DBQ20050427202010704/27/05 20:20:31  5-MIN KDBQ 280220Z AUTO 00000KT 10SM OVC100 05/M02 A2989 1110 62 200 000/00 RMK AO2 TSNO
94908KDBQ DBQ20050427202510704/27/05 20:25:31  5-MIN KDBQ 280225Z AUTO 00000KT 10SM OVC090 04/M02 A2989 1110 64 100 000/00 RMK AO2 TSNO
94908KDBQ DBQ20050427203010704/27/05 20:30:31  5-MIN KDBQ 280230Z AUTO 00000KT 10SM OVC090 05/M02 A2989 1110 62 200 000/00 RMK AO2 TSNO
94908KDBQ DBQ20050427203510704/27/05 20:35:31  5-MIN KDBQ 280235Z AUTO 00000KT 10SM OVC090 05/M02 A2990 1100 62 200 000/00 RMK AO2 TSNO
94908KDBQ DBQ20050427204010704/27/05 20:40:31  5-MIN KDBQ 280240Z AUTO 00000KT 10SM OVC090 06/M02 A2990 1100 57 300 000/00 RMK AO2 TSNO
94908KDBQ DBQ20050427204510704/27/05 20:45:31  5-MIN KDBQ 280245Z AUTO 00000KT 10SM OVC085 07/M03 A2990 1100 51 400 000/00 RMK AO2 TSNO
94908KDBQ DBQ20050427205013004/27/05 20:50:31  5-MIN KDBQ 280250Z AUTO 33003KT 10SM OVC085 07/M03 A2990 1090 51 400 330/03 RMK AO2 SLP133 T00671028 51013 TSNO
94908KDBQ DBQ20050427205513004/27/05 20:55:31  5-MIN KDBQ 280255Z AUTO 34003KT 10SM OVC090 07/M03 A2990 1090 51 400 340/03 RMK AO2 SLP133 T00671028 53015 TSNO
94908KDBQ DBQ20050427210010704/27/05 21:00:31  5-MIN KDBQ 280300Z AUTO 00000KT 10SM OVC090 06/M02 A2990 1090 57 300 000/00 RMK AO2 TSNO
94908KDBQ DBQ20050427210510704/27/05 21:05:31  5-MIN KDBQ 280305Z AUTO 00000KT 10SM OVC090 06/M02 A2990 1090 57 300 000/00 RMK AO2 TSNO
94908KDBQ DBQ20050427211010704/27/05 21:10:31  5-MIN KDBQ 280310Z AUTO 36005KT 10SM OVC090 06/M02 A2990 1090 59 300 360/05 RMK AO2 TSNO
94908KDBQ DBQ20050427211510704/27/05 21:15:31  5-MIN KDBQ 280315Z AUTO 36005KT 10SM OVC090 06/M01 A2991 1090 60 300 360/05 RMK AO2 TSNO
94908KDBQ DBQ20050427212010704/27/05 21:20:31  5-MIN KDBQ 280320Z AUTO 35007KT 10SM OVC090 06/M01 A2991 1090 62 300 350/07 RMK AO2 TSNO
94908KDBQ DBQ20050427212510704/27/05 21:25:31  5-MIN KDBQ 280325Z AUTO 36006KT 10SM OVC090 06/M01 A2991 1090 65 300 350/06 RMK AO2 TSNO
94908KDBQ DBQ20050427213010704/27/05 21:30:31  5-MIN KDBQ 280330Z AUTO 36006KT 10SM OVC090 06/M01 A2991 1090 65 300 360/06 RMK AO2 TSNO
94908KDBQ DBQ20050427213510704/27/05 21:35:31  5-MIN KDBQ 280335Z AUTO 35005KT 10SM OVC085 06/M01 A2991 1090 65 200 350/05 RMK AO2 TSNO
94908KDBQ DBQ20050427214011504/27/05 21:40:31  5-MIN KDBQ 280340Z AUTO 35005KT 10SM SCT060 OVC085  06/M01 A2991 1090 65 200 350/05 RMK AO2 TSNO
94908KDBQ DBQ20050427214511504/27/05 21:45:31  5-MIN KDBQ 280345Z AUTO 36004KT 10SM SCT065 OVC085  06/M01 A2991 1090 65 300 360/04 RMK AO2 TSNO
94908KDBQ DBQ20050427215013204/27/05 21:50:31  5-MIN KDBQ 280350Z AUTO 36004KT 10SM SCT065 OVC090  06/M01 A2991 1090 65 300 360/04 RMK AO2 SLP134 T00561006 TSNO
94908KDBQ DBQ20050427215513204/27/05 21:55:31  5-MIN KDBQ 280355Z AUTO 35003KT 10SM FEW065 OVC085  06/M02 A2991 1090 57 300 350/03 RMK AO2 SLP134 T00611017 TSNO
94908KDBQ DBQ20050427220011504/27/05 22:00:31  5-MIN KDBQ 280400Z AUTO 34003KT 10SM SCT070 OVC090  05/M01 A2991 1090 64 200 340/03 RMK AO2 TSNO
94908KDBQ DBQ20050427220511504/27/05 22:05:31  5-MIN KDBQ 280405Z AUTO 33003KT 10SM SCT075 OVC090  06/M02 A2991 1090 59 300 330/03 RMK AO2 TSNO
94908KDBQ DBQ20050427221010704/27/05 22:10:31  5-MIN KDBQ 280410Z AUTO 33004KT 10SM OVC090 06/M02 A2991 1090 59 300 330/04 RMK AO2 TSNO
94908KDBQ DBQ20050427221510704/27/05 22:15:31  5-MIN KDBQ 280415Z AUTO 32003KT 10SM OVC090 06/M02 A2991 1090 57 300 320/03 RMK AO2 TSNO
94908KDBQ DBQ20050427222010704/27/05 22:20:31  5-MIN KDBQ 280420Z AUTO 00000KT 10SM OVC090 06/M02 A2991 1090 57 300 000/00 RMK AO2 TSNO
94908KDBQ DBQ20050427222510704/27/05 22:25:31  5-MIN KDBQ 280425Z AUTO 00000KT 10SM OVC090 04/M01 A2991 1090 70 100 000/00 RMK AO2 TSNO
94908KDBQ DBQ20050427223010404/27/05 22:30:31  5-MIN KDBQ 280430Z AUTO 00000KT 10SM OVC090 04/01 A2991 1090 79 0 000/00 RMK AO2 TSNO
94908KDBQ DBQ20050427223510704/27/05 22:35:31  5-MIN KDBQ 280435Z AUTO 00000KT 10SM OVC095 05/M01 A2991 1090 67 200 000/00 RMK AO2 TSNO
94908KDBQ DBQ20050427224010604/27/05 22:40:31  5-MIN KDBQ 280440Z AUTO 00000KT 10SM OVC090 04/00 A2991 1080 73 100 000/00 RMK AO2 TSNO
94908KDBQ DBQ20050427224511304/27/05 22:45:31  5-MIN KDBQ 280445Z AUTO 00000KT 10SM SCT075 OVC095 04/00 A2992 1080 73 100 000/00 RMK AO2 TSNO
94908KDBQ DBQ20050427225013804/27/05 22:50:31  5-MIN KDBQ 280450Z AUTO 00000KT 10SM FEW055 BKN070  OVC095 04/01 A2992 1080 76 100 000/00 RMK AO2 SLP139 T00440006 TSNO
94908KDBQ DBQ20050427225513004/27/05 22:55:31  5-MIN KDBQ 280455Z AUTO 00000KT 10SM BKN065 OVC095 04/00 A2992 1080 73 100 000/00 RMK AO2 SLP139 T00440000 TSNO
94908KDBQ DBQ20050427230011304/27/05 23:00:31  5-MIN KDBQ 280500Z AUTO 33006KT 10SM BKN065 OVC090 04/00 A2993 1070 73 100 320/06 RMK AO2 TSNO
94908KDBQ DBQ20050427230511504/27/05 23:05:31  5-MIN KDBQ 280505Z AUTO 32006KT 10SM BKN060 OVC075  06/M01 A2993 1070 62 300 320/06 RMK AO2 TSNO
94908KDBQ DBQ20050427231011504/27/05 23:10:31  5-MIN KDBQ 280510Z AUTO 31005KT 10SM BKN060 OVC075  06/M01 A2993 1070 65 200 310/05 RMK AO2 TSNO
94908KDBQ DBQ20050427231511504/27/05 23:15:31  5-MIN KDBQ 280515Z AUTO 32004KT 10SM BKN060 OVC075  06/M01 A2993 1070 62 300 320/04 RMK AO2 TSNO
94908KDBQ DBQ20050427232011504/27/05 23:20:31  5-MIN KDBQ 280520Z AUTO 32010KT 10SM BKN055 OVC070  06/M01 A2994 1060 62 300 320/10 RMK AO2 TSNO
94908KDBQ DBQ20050427232512204/27/05 23:25:31  5-MIN KDBQ 280525Z AUTO 30007KT 10SM BKN046 BKN060  OVC075 07/M01 A2994 1060 57 300 300/07 RMK AO2 TSNO
94908KDBQ DBQ20050427233013104/27/05 23:30:31  5-MIN KDBQ 280530Z AUTO 33009KT 10SM -RA BKN044 OVC065  06/M01 A2994 1060 62 300 320/09 RMK AO2 RAB30 P0000 TSNO
94908KDBQ DBQ20050427233513104/27/05 23:35:31  5-MIN KDBQ 280535Z AUTO 33011KT 10SM -RA BKN042 OVC065  06/M01 A2995 1050 62 300 330/11 RMK AO2 RAB30 P0000 TSNO
94908KDBQ DBQ20050427234013704/27/05 23:40:31  5-MIN KDBQ 280540Z AUTO 31012KT 10SM -RA BKN034 BKN043  OVC060 06/00 A2995 1050 67 200 310/12 RMK AO2 RAB30 P0000 TSNO
94908KDBQ DBQ20050427234513004/27/05 23:45:31  5-MIN KDBQ 280545Z AUTO 30010KT 10SM -RA BKN029 OVC043  06/00 A2995 1050 67 200 300/10 RMK AO2 RAB30 P0000 TSNO
94908KDBQ DBQ20050427235018904/27/05 23:50:31  5-MIN KDBQ 280550Z AUTO 31012KT 10SM -RA BKN027 BKN034  OVC043 06/00 A2996 1050 67 200 310/12 RMK AO2 RAB30 SLP150 P0000 60000  T00560000 10089 20039 401170006 53015 TSNO
94908KDBQ DBQ20050427235518204/27/05 23:55:31  5-MIN KDBQ 280555Z AUTO 31013KT 10SM -RA BKN025 OVC043  06/00 A2996 1050 67 200 310/13 RMK AO2 RAB30 SLP150 P0000 60000 T00560000  10089 20039 401170006 53017 TSNO
94908KDBQ DBQ20050428000013104/28/05 00:00:38  5-MIN KDBQ 280600Z AUTO 32011KT 10SM -RA BKN025 BKN043  OVC060 06/01 A2995 1050 70 200 320/11 RMK AO2 P0000 TSNO
94908KDBQ DBQ20050428000512404/28/05 00:05:31  5-MIN KDBQ 280605Z AUTO 31009KT 10SM -RA BKN025 OVC060  05/01 A2995 1050 73 100 310/09 RMK AO2 P0001 TSNO
94908KDBQ DBQ20050428001012404/28/05 00:10:31  5-MIN KDBQ 280610Z AUTO 30008KT 10SM -RA BKN030 OVC060  05/01 A2995 1050 73 100 300/08 RMK AO2 P0001 TSNO
94908KDBQ DBQ20050428001512404/28/05 00:15:32  5-MIN KDBQ 280615Z AUTO 30007KT 10SM -RA BKN032 OVC055  05/01 A2995 1050 73 100 300/07 RMK AO2 P0001 TSNO
94908KDBQ DBQ20050428002012404/28/05 00:20:31  5-MIN KDBQ 280620Z AUTO 30007KT 10SM -RA BKN032 OVC055  05/01 A2995 1050 76 100 300/07 RMK AO2 P0001 TSNO
94908KDBQ DBQ20050428002512404/28/05 00:25:31  5-MIN KDBQ 280625Z AUTO 29005KT 10SM -RA BKN032 OVC060  05/01 A2995 1060 76 100 290/05 RMK AO2 P0001 TSNO
94908KDBQ DBQ20050428003013104/28/05 00:30:31  5-MIN KDBQ 280630Z AUTO 29004KT 10SM -RA SCT034 BKN060  OVC085 04/01 A2994 1060 76 100 290/04 RMK AO2 P0001 TSNO
94908KDBQ DBQ20050428003513304/28/05 00:35:31  5-MIN KDBQ 280635Z AUTO 00000KT 10SM SCT036 BKN070  OVC085 04/01 A2994 1060 76 100 000/00 RMK AO2 RAE31 P0001 TSNO
94908KDBQ DBQ20050428004013304/28/05 00:40:31  5-MIN KDBQ 280640Z AUTO 00000KT 10SM SCT032 BKN070  OVC085 04/01 A2994 1060 76 100 000/00 RMK AO2 RAE31 P0001 TSNO
94908KDBQ DBQ20050428004513304/28/05 00:45:31  5-MIN KDBQ 280645Z AUTO 00000KT 10SM FEW032 BKN075  OVC090 04/01 A2994 1060 76 100 000/00 RMK AO2 RAE31 P0001 TSNO
94908KDBQ DBQ20050428005014004/28/05 00:50:31  5-MIN KDBQ 280650Z AUTO 00000KT 10SM BKN070 OVC085 04/01 A2994 1060 82 0 000/00 RMK AO2 RAE31 SLP143 P0001 T00390011 TSNO
94908KDBQ DBQ20050428005514204/28/05 00:55:31  5-MIN KDBQ 280655Z AUTO 00000KT 10SM BKN070 OVC090 04/01 A2993 1070 79 100 000/00 RMK AO2 RAE31 SLP142 P0001 T00440011 TSNO
94908KDBQ DBQ20050428010011304/28/05 01:00:31  5-MIN KDBQ 280700Z AUTO 00000KT 10SM BKN070 OVC085 04/01 A2993 1070 76 100 000/00 RMK AO2 TSNO
94908KDBQ DBQ20050428010511304/28/05 01:05:31  5-MIN KDBQ 280705Z AUTO 00000KT 10SM BKN070 OVC085 04/01 A2994 1060 76 100 000/00 RMK AO2 TSNO
94908KDBQ DBQ20050428011011304/28/05 01:10:31  5-MIN KDBQ 280710Z AUTO 00000KT 10SM BKN070 OVC085 04/01 A2994 1060 76 100 000/00 RMK AO2 TSNO
94908KDBQ DBQ20050428011511104/28/05 01:15:31  5-MIN KDBQ 280715Z AUTO 00000KT 10SM SCT070 OVC085 04/01 A2994 1060 79 0 000/00 RMK AO2 TSNO
94908KDBQ DBQ20050428012010404/28/05 01:20:31  5-MIN KDBQ 280720Z AUTO 30004KT 10SM OVC080 04/01 A2994 1060 79 0 300/04 RMK AO2 TSNO
94908KDBQ DBQ20050428012511104/28/05 01:25:31  5-MIN KDBQ 280725Z AUTO 32004KT 10SM SCT070 OVC080 04/01 A2994 1060 79 0 320/04 RMK AO2 TSNO
94908KDBQ DBQ20050428013010404/28/05 01:30:31  5-MIN KDBQ 280730Z AUTO 33005KT 10SM OVC080 04/00 A2993 1060 76 0 330/05 RMK AO2 TSNO
94908KDBQ DBQ20050428013510504/28/05 01:35:31  5-MIN KDBQ 280735Z AUTO 32007KT 10SM OVC080 03/M01 A2994 1060 76 0 320/07 RMK AO2 TSNO
94908KDBQ DBQ20050428014010504/28/05 01:40:31  5-MIN KDBQ 280740Z AUTO 32007KT 10SM OVC080 03/M01 A2994 1060 76 0 320/07 RMK AO2 TSNO
94908KDBQ DBQ20050428014510504/28/05 01:45:31  5-MIN KDBQ 280745Z AUTO 32007KT 10SM OVC080 03/M01 A2994 1060 76 0 320/07 RMK AO2 TSNO
94908KDBQ DBQ20050428015012204/28/05 01:50:31  5-MIN KDBQ 280750Z AUTO 33009KT 10SM OVC080 03/M01 A2994 1060 76 0 330/09 RMK AO2 SLP146 T00331006 TSNO
94908KDBQ DBQ20050428015512204/28/05 01:55:31  5-MIN KDBQ 280755Z AUTO 34008KT 10SM OVC080 04/M01 A2994 1060 70 0 340/08 RMK AO2 SLP145 T00391011 TSNO
94908KDBQ DBQ20050428020010504/28/05 02:00:31  5-MIN KDBQ 280800Z AUTO 33009KT 10SM OVC080 03/M01 A2994 1060 72 0 330/09 RMK AO2 TSNO
94908KDBQ DBQ20050428020510504/28/05 02:05:31  5-MIN KDBQ 280805Z AUTO 33009KT 10SM OVC080 04/M02 A2995 1050 67 0 330/09 RMK AO2 TSNO
94908KDBQ DBQ20050428021010504/28/05 02:10:31  5-MIN KDBQ 280810Z AUTO 34009KT 10SM BKN075 03/M02 A2995 1050 70 0 340/09 RMK AO2 TSNO
94908KDBQ DBQ20050428021510504/28/05 02:15:31  5-MIN KDBQ 280815Z AUTO 34010KT 10SM BKN075 03/M02 A2995 1050 70 0 340/10 RMK AO2 TSNO
94908KDBQ DBQ20050428022010804/28/05 02:20:31  5-MIN KDBQ 280820Z AUTO 34009KT 10SM BKN075 03/M02 A2995 1050 72 -100 340/09 RMK AO2 TSNO
94908KDBQ DBQ20050428022510804/28/05 02:25:31  5-MIN KDBQ 280825Z AUTO 34008KT 10SM BKN070 03/M02 A2995 1050 72 -100 340/08 RMK AO2 TSNO
94908KDBQ DBQ20050428023010804/28/05 02:30:31  5-MIN KDBQ 280830Z AUTO 34007KT 10SM SCT070 02/M02 A2995 1050 72 -200 340/07 RMK AO2 TSNO
94908KDBQ DBQ20050428023510804/28/05 02:35:31  5-MIN KDBQ 280835Z AUTO 34007KT 10SM FEW070 02/M02 A2996 1050 72 -200 340/07 RMK AO2 TSNO
94908KDBQ DBQ20050428024010804/28/05 02:40:31  5-MIN KDBQ 280840Z AUTO 34007KT 10SM FEW070 02/M02 A2996 1050 75 -200 340/07 RMK AO2 TSNO
94908KDBQ DBQ20050428024510804/28/05 02:45:31  5-MIN KDBQ 280845Z AUTO 34007KT 10SM FEW070 02/M03 A2996 1040 72 -200 340/07 RMK AO2 TSNO
94908KDBQ DBQ20050428025013704/28/05 02:50:31  5-MIN KDBQ 280850Z AUTO 35006KT 10SM FEW070 02/M03 A2996 1050 72 -200 350/06 RMK AO2 SLP151 60001 T00171028 53017 TSNO
94908KDBQ DBQ20050428025513504/28/05 02:55:31  5-MIN KDBQ 280855Z AUTO 35006KT 10SM CLR 02/M03 A2996  1040 72 -200 350/06 RMK AO2 SLP151 60001 T00171028 53000 TSNO
94908KDBQ DBQ20050428030010604/28/05 03:00:31  5-MIN KDBQ 280900Z AUTO 35007KT 10SM CLR 02/M03 A2996  1040 72 -200 350/07 RMK AO2 TSNO
94908KDBQ DBQ20050428030510604/28/05 03:05:31  5-MIN KDBQ 280905Z AUTO 35006KT 10SM CLR 01/M03 A2996  1040 75 -300 350/06 RMK AO2 TSNO
94908KDBQ DBQ20050428031010604/28/05 03:10:31  5-MIN KDBQ 280910Z AUTO 35006KT 10SM CLR 01/M03 A2996  1040 75 -300 350/06 RMK AO2 TSNO
94908KDBQ DBQ20050428031510604/28/05 03:15:31  5-MIN KDBQ 280915Z AUTO 34006KT 10SM CLR 01/M03 A2996  1040 72 -300 340/06 RMK AO2 TSNO
94908KDBQ DBQ20050428032010604/28/05 03:20:31  5-MIN KDBQ 280920Z AUTO 34007KT 10SM CLR 02/M03 A2996  1040 69 -200 340/07 RMK AO2 TSNO
94908KDBQ DBQ20050428032510604/28/05 03:25:31  5-MIN KDBQ 280925Z AUTO 34007KT 10SM CLR 01/M03 A2996  1040 72 -300 340/07 RMK AO2 TSNO
94908KDBQ DBQ20050428033010604/28/05 03:30:31  5-MIN KDBQ 280930Z AUTO 34008KT 10SM CLR 01/M03 A2996  1040 72 -300 340/08 RMK AO2 TSNO
94908KDBQ DBQ20050428033510604/28/05 03:35:31  5-MIN KDBQ 280935Z AUTO 35008KT 10SM CLR 01/M03 A2996  1040 72 -300 340/08 RMK AO2 TSNO
94908KDBQ DBQ20050428034010604/28/05 03:40:31  5-MIN KDBQ 280940Z AUTO 35009KT 10SM CLR 02/M03 A2996  1040 69 -200 350/09 RMK AO2 TSNO
94908KDBQ DBQ20050428034510604/28/05 03:45:31  5-MIN KDBQ 280945Z AUTO 35008KT 10SM CLR 01/M03 A2996  1040 72 -300 350/08 RMK AO2 TSNO
94908KDBQ DBQ20050428035012304/28/05 03:50:31  5-MIN KDBQ 280950Z AUTO 35007KT 10SM CLR 01/M03 A2996  1040 75 -400 350/07 RMK AO2 SLP151 T00061033 TSNO
94908KDBQ DBQ20050428035512304/28/05 03:55:31  5-MIN KDBQ 280955Z AUTO 35008KT 10SM CLR 01/M03 A2996  1040 75 -400 350/08 RMK AO2 SLP151 T00061033 TSNO
94908KDBQ DBQ20050428040010604/28/05 04:00:31  5-MIN KDBQ 281000Z AUTO 35008KT 10SM CLR 01/M03 A2996  1050 72 -300 350/08 RMK AO2 TSNO
94908KDBQ DBQ20050428040510604/28/05 04:05:31  5-MIN KDBQ 281005Z AUTO 35007KT 10SM CLR 01/M04 A2995  1050 72 -400 350/07 RMK AO2 TSNO
94908KDBQ DBQ20050428041010604/28/05 04:10:31  5-MIN KDBQ 281010Z AUTO 35007KT 10SM CLR 01/M04 A2995  1050 72 -400 350/07 RMK AO2 TSNO
94908KDBQ DBQ20050428041510604/28/05 04:15:31  5-MIN KDBQ 281015Z AUTO 35007KT 10SM CLR 01/M04 A2995  1050 72 -400 350/07 RMK AO2 TSNO
94908KDBQ DBQ20050428042010604/28/05 04:20:31  5-MIN KDBQ 281020Z AUTO 35007KT 10SM CLR 00/M04 A2995  1050 75 -400 350/07 RMK AO2 TSNO
94908KDBQ DBQ20050428042510604/28/05 04:25:31  5-MIN KDBQ 281025Z AUTO 35007KT 10SM CLR 00/M04 A2995  1050 75 -400 340/07 RMK AO2 TSNO
94908KDBQ DBQ20050428043010604/28/05 04:30:31  5-MIN KDBQ 281030Z AUTO 34007KT 10SM CLR 00/M04 A2995  1050 75 -400 340/07 RMK AO2 TSNO
94908KDBQ DBQ20050428043510704/28/05 04:35:31  5-MIN KDBQ 281035Z AUTO 34008KT 10SM CLR M01/M04 A2995  1050 78 -500 340/08 RMK AO2 TSNO
94908KDBQ DBQ20050428044010604/28/05 04:40:31  5-MIN KDBQ 281040Z AUTO 34008KT 10SM CLR 00/M04 A2995  1050 75 -400 330/08 RMK AO2 TSNO
94908KDBQ DBQ20050428044510604/28/05 04:45:31  5-MIN KDBQ 281045Z AUTO 34008KT 10SM CLR 00/M04 A2995  1050 75 -400 340/08 RMK AO2 TSNO
94908KDBQ DBQ20050428045012304/28/05 04:50:31  5-MIN KDBQ 281050Z AUTO 34007KT 10SM CLR 00/M04 A2995  1050 72 -400 340/07 RMK AO2 SLP151 T00001044 TSNO
94908KDBQ DBQ20050428045511404/28/05 04:55:31  5-MIN KDBQ 281055Z 34006KT 10SM CLR M01/M04 A2996 1040  75 -500 340/06 RMK AO2 SLP153 T10061044
94908KDBQ DBQ20050428050009704/28/05 05:00:31  5-MIN KDBQ 281100Z 34006KT 10SM CLR M01/M04 A2996 1040  75 -500 340/06 RMK AO2
94908KDBQ DBQ20050428050509704/28/05 05:05:31  5-MIN KDBQ 281105Z 35006KT 10SM CLR M01/M04 A2996 1040  75 -500 340/06 RMK AO2
94908KDBQ DBQ20050428051009704/28/05 05:10:31  5-MIN KDBQ 281110Z 35007KT 10SM CLR M01/M04 A2996 1040  75 -500 350/07 RMK AO2
94908KDBQ DBQ20050428051509704/28/05 05:15:31  5-MIN KDBQ 281115Z 34005KT 10SM CLR M01/M04 A2996 1040  75 -500 340/05 RMK AO2
94908KDBQ DBQ20050428052009704/28/05 05:20:31  5-MIN KDBQ 281120Z 34006KT 10SM CLR M01/M04 A2996 1040  75 -500 340/06 RMK AO2
94908KDBQ DBQ20050428052509504/28/05 05:25:31  5-MIN KDBQ 281125Z 34006KT 10SM CLR 00/M04 A2996 1040 72 -400 330/06 RMK AO2
94908KDBQ DBQ20050428053009704/28/05 05:30:31  5-MIN KDBQ 281130Z 34007KT 10SM CLR M01/M04 A2996 1040  75 -500 340/07 RMK AO2
94908KDBQ DBQ20050428053509504/28/05 05:35:31  5-MIN KDBQ 281135Z 34006KT 10SM CLR 00/M04 A2996 1040 75 -400 340/06 RMK AO2
94908KDBQ DBQ20050428054009504/28/05 05:40:31  5-MIN KDBQ 281140Z 35006KT 10SM CLR 00/M04 A2996 1040 75 -400 350/06 RMK AO2
94908KDBQ DBQ20050428054509504/28/05 05:45:31  5-MIN KDBQ 281145Z 35006KT 10SM CLR 00/M04 A2996 1040 75 -400 350/06 RMK AO2
94908KDBQ DBQ20050428055014204/28/05 05:50:31  5-MIN KDBQ 281150Z 35005KT 10SM CLR 01/M03 A2996 1040 75 -400 350/05 RMK AO2 SLP154 60001 70001 T00061033 10056 21006 53000
94908KDBQ DBQ20050428055514204/28/05 05:55:31  5-MIN KDBQ 281155Z 34005KT 10SM CLR 01/M03 A2997 1040 72 -300 340/05 RMK AO2 SLP155 60001 70001 T00111033 10056 21006 53003
94908KDBQ DBQ20050428060009504/28/05 06:00:31  5-MIN KDBQ 281200Z 35004KT 10SM CLR 01/M03 A2997 1040 72 -300 340/04 RMK AO2
94908KDBQ DBQ20050428060509504/28/05 06:05:31  5-MIN KDBQ 281205Z 35004KT 10SM CLR 01/M03 A2997 1030 72 -300 350/04 RMK AO2
94908KDBQ DBQ20050428061009504/28/05 06:10:31  5-MIN KDBQ 281210Z 36003KT 10SM CLR 01/M03 A2997 1030 72 -300 360/03 RMK AO2
94908KDBQ DBQ20050428061509504/28/05 06:15:31  5-MIN KDBQ 281215Z 00000KT 10SM CLR 02/M03 A2998 1030 72 -300 000/00 RMK AO2
94908KDBQ DBQ20050428062009504/28/05 06:20:31  5-MIN KDBQ 281220Z 00000KT 10SM CLR 02/M03 A2998 1020 69 -200 000/00 RMK AO2
94908KDBQ DBQ20050428062509504/28/05 06:25:31  5-MIN KDBQ 281225Z 00000KT 10SM CLR 02/M03 A2998 1020 69 -200 000/00 RMK AO2
94908KDBQ DBQ20050428063009504/28/05 06:30:31  5-MIN KDBQ 281230Z 00000KT 10SM CLR 02/M03 A2998 1020 69 -200 000/00 RMK AO2
94908KDBQ DBQ20050428063509504/28/05 06:35:31  5-MIN KDBQ 281235Z 00000KT 10SM CLR 02/M03 A2998 1020 67 -200 000/00 RMK AO2
94908KDBQ DBQ20050428064009504/28/05 06:40:31  5-MIN KDBQ 281240Z 34005KT 10SM CLR 03/M03 A2999 1020 64 -100 330/05 RMK AO2
94908KDBQ DBQ20050428064509504/28/05 06:45:31  5-MIN KDBQ 281245Z 34005KT 10SM CLR 03/M03 A2998 1020 64 -100 340/05 RMK AO2
94908KDBQ DBQ20050428065011204/28/05 06:50:31  5-MIN KDBQ 281250Z 35005KT 10SM CLR 03/M03 A2999 1020 64 -100 350/05 RMK AO2 SLP161 T00331028
94908KDBQ DBQ20050428065511204/28/05 06:55:31  5-MIN KDBQ 281255Z 35005KT 10SM CLR 03/M03 A2999 1020 61 -100 340/05 RMK AO2 SLP162 T00331033
94908KDBQ DBQ20050428070009504/28/05 07:00:31  5-MIN KDBQ 281300Z 36005KT 10SM CLR 03/M03 A2999 1010 64 -100 350/05 RMK AO2
94908KDBQ DBQ20050428070509204/28/05 07:05:31  5-MIN KDBQ 281305Z 36005KT 10SM CLR 04/M03 A2999 1020 62 0 360/05 RMK AO2
94908KDBQ DBQ20050428071009204/28/05 07:10:31  5-MIN KDBQ 281310Z 34005KT 10SM CLR 04/M03 A2999 1010 62 0 340/05 RMK AO2
94908KDBQ DBQ20050428071509204/28/05 07:15:31  5-MIN KDBQ 281315Z 35006KT 10SM CLR 04/M03 A2999 1010 62 0 350/06 RMK AO2
94908KDBQ DBQ20050428072009204/28/05 07:20:31  5-MIN KDBQ 281320Z 35005KT 10SM CLR 04/M03 A2999 1010 59 0 350/05 RMK AO2
94908KDBQ DBQ20050428072509204/28/05 07:25:31  5-MIN KDBQ 281325Z 33006KT 10SM CLR 04/M03 A2999 1010 62 0 330/06 RMK AO2
94908KDBQ DBQ20050428073009204/28/05 07:30:31  5-MIN KDBQ 281330Z 35006KT 10SM CLR 04/M03 A2999 1010 62 0 340/06 RMK AO2
94908KDBQ DBQ20050428073509204/28/05 07:35:31  5-MIN KDBQ 281335Z 35005KT 10SM CLR 04/M03 A2999 1010 59 0 350/05 RMK AO2
94908KDBQ DBQ20050428074009204/28/05 07:40:31  5-MIN KDBQ 281340Z 35005KT 10SM CLR 04/M03 A2999 1010 57 0 350/05 RMK AO2
94908KDBQ DBQ20050428074509204/28/05 07:45:31  5-MIN KDBQ 281345Z 36003KT 10SM CLR 04/M03 A3000 1010 57 0 360/03 RMK AO2
94908KDBQ DBQ20050428075011104/28/05 07:50:31  5-MIN KDBQ 281350Z 34005KT 10SM CLR 05/M03 A3000 1010 57 100 340/05 RMK AO2 SLP165 T00501028
94908KDBQ DBQ20050428075511104/28/05 07:55:31  5-MIN KDBQ 281355Z 35005KT 10SM CLR 05/M03 A3000 1010 55 100 350/05 RMK AO2 SLP164 T00501033
94908KDBQ DBQ20050428080009404/28/05 08:00:31  5-MIN KDBQ 281400Z 33006KT 10SM CLR 06/M02 A3000 1010 57 200 330/06 RMK AO2
94908KDBQ DBQ20050428080509404/28/05 08:05:31  5-MIN KDBQ 281405Z 33006KT 10SM CLR 06/M03 A3000 1010 55 100 330/06 RMK AO2
94908KDBQ DBQ20050428081009404/28/05 08:10:31  5-MIN KDBQ 281410Z 34006KT 10SM CLR 06/M03 A3000 1010 53 200 340/06 RMK AO2
94908KDBQ DBQ20050428081509404/28/05 08:15:31  5-MIN KDBQ 281415Z 32007KT 10SM CLR 06/M04 A3000 1010 50 100 320/07 RMK AO2
94908KDBQ DBQ20050428082009704/28/05 08:20:31  5-MIN KDBQ 281420Z 35005KT 10SM FEW120 06/M04 A3000 1010 48 100 350/05 RMK AO2
94908KDBQ DBQ20050428082509704/28/05 08:25:31  5-MIN KDBQ 281425Z 34005KT 10SM FEW120 06/M04 A2999 1010 50 200 340/05 RMK AO2
94908KDBQ DBQ20050428083009704/28/05 08:30:31  5-MIN KDBQ 281430Z 36008KT 10SM FEW120 06/M04 A2999 1010 48 200 360/08 RMK AO2
94908KDBQ DBQ20050428083509704/28/05 08:35:31  5-MIN KDBQ 281435Z 36009KT 10SM SCT120 06/M04 A2999 1020 48 200 360/09 RMK AO2
94908KDBQ DBQ20050428084009704/28/05 08:40:31  5-MIN KDBQ 281440Z 36007KT 10SM BKN120 07/M04 A2998 1020 47 300 360/07 RMK AO2
94908KDBQ DBQ20050428084509704/28/05 08:45:31  5-MIN KDBQ 281445Z VRB03KT 10SM BKN120 06/M04 A2999 1020 48 200 VRB/03 RMK AO2
94908KDBQ DBQ20050428085012004/28/05 08:50:31  5-MIN KDBQ 281450Z VRB05KT 10SM BKN120 06/M04 A2999 1020 48 200 VRB/05 RMK AO2 SLP162 T00611039 53003
94908KDBQ DBQ20050428085512004/28/05 08:55:31  5-MIN KDBQ 281455Z VRB05KT 10SM SCT120 07/M04 A2999 1020 47 300 VRB/05 RMK AO2 SLP161 T00671039 50007
94908KDBQ DBQ20050428090009704/28/05 09:00:31  5-MIN KDBQ 281500Z VRB03KT 10SM SCT120 06/M04 A2999 1020 48 200 VRB/03 RMK AO2
94908KDBQ DBQ20050428090509704/28/05 09:05:31  5-MIN KDBQ 281505Z 36004KT 10SM SCT120 06/M04 A2999 1020 48 200 360/04 RMK AO2
94908KDBQ DBQ20050428091009704/28/05 09:10:31  5-MIN KDBQ 281510Z VRB03KT 10SM FEW120 06/M04 A2999 1020 48 200 VRB/03 RMK AO2
94908KDBQ DBQ20050428091509704/28/05 09:15:31  5-MIN KDBQ 281515Z VRB04KT 10SM FEW120 06/M04 A2999 1010 46 200 VRB/04 RMK AO2
94908KDBQ DBQ20050428092009704/28/05 09:20:31  5-MIN KDBQ 281520Z 34007KT 10SM FEW120 07/M04 A2999 1010 47 300 330/07 RMK AO2
94908KDBQ DBQ20050428092509704/28/05 09:25:31  5-MIN KDBQ 281525Z 33004KT 10SM SCT120 06/M04 A2999 1020 48 200 330/04 RMK AO2
94908KDBQ DBQ20050428093009704/28/05 09:30:31  5-MIN KDBQ 281530Z 00000KT 10SM SCT120 06/M04 A2999 1010 46 200 000/00 RMK AO2
94908KDBQ DBQ20050428093509704/28/05 09:35:31  5-MIN KDBQ 281535Z 29005KT 10SM FEW120 06/M05 A2999 1010 45 200 290/05 RMK AO2
94908KDBQ DBQ20050428094009704/28/05 09:40:31  5-MIN KDBQ 281540Z 34005KT 10SM FEW120 07/M04 A2999 1010 45 300 340/05 RMK AO2
94908KDBQ DBQ20050428094509704/28/05 09:45:31  5-MIN KDBQ 281545Z 00000KT 10SM FEW120 06/M05 A2999 1010 45 200 000/00 RMK AO2
94908KDBQ DBQ20050428095011404/28/05 09:50:31  5-MIN KDBQ 281550Z 32007KT 10SM FEW120 07/M05 A3000 1000 43 300 320/07 RMK AO2 SLP166 T00671050
94908KDBQ DBQ20050428095511404/28/05 09:55:31  5-MIN KDBQ 281555Z 32004KT 10SM FEW120 07/M05 A3000 1000 43 300 320/04 RMK AO2 SLP167 T00671050
94908KDBQ DBQ20050428100009404/28/05 10:00:31  5-MIN KDBQ 281600Z 00000KT 10SM CLR 07/M05 A3000 1000 43 300 000/00 RMK AO2
94908KDBQ DBQ20050428100509404/28/05 10:05:31  5-MIN KDBQ 281605Z VRB05KT 10SM CLR 07/M05 A3001 1000 41 300 VRB/05 RMK AO2
94908KDBQ DBQ20050428101009404/28/05 10:10:31  5-MIN KDBQ 281610Z 30007KT 10SM CLR 07/M04 A3001 1000 45 300 300/07 RMK AO2
94908KDBQ DBQ20050428101509404/28/05 10:15:31  5-MIN KDBQ 281615Z 33005KT 10SM CLR 07/M04 A3000 1000 43 300 330/05 RMK AO2
94908KDBQ DBQ20050428102009404/28/05 10:20:31  5-MIN KDBQ 281620Z 30006KT 10SM CLR 07/M06 A3001 1000 38 300 300/06 RMK AO2
94908KDBQ DBQ20050428102509404/28/05 10:25:31  5-MIN KDBQ 281625Z 29004KT 10SM CLR 07/M06 A3001 1000 40 300 290/04 RMK AO2
94908KDBQ DBQ20050428103009404/28/05 10:30:31  5-MIN KDBQ 281630Z 33006KT 10SM CLR 07/M06 A3000 1000 40 300 330/06 RMK AO2
94908KDBQ DBQ20050428103509404/28/05 10:35:31  5-MIN KDBQ 281635Z 30005KT 10SM CLR 07/M06 A3000 1010 39 300 300/05 RMK AO2
94908KDBQ DBQ20050428104009404/28/05 10:40:31  5-MIN KDBQ 281640Z VRB04KT 10SM CLR 07/M05 A3000 1000 41 300 VRB/04 RMK AO2
94908KDBQ DBQ20050428104509404/28/05 10:45:31  5-MIN KDBQ 281645Z 32006KT 10SM CLR 07/M05 A3000 1010 41 400 320/06 RMK AO2
94908KDBQ DBQ20050428105011104/28/05 10:50:31  5-MIN KDBQ 281650Z 33007KT 10SM CLR 08/M05 A3000 1010 40 400 330/07 RMK AO2 SLP165 T00781050
94908KDBQ DBQ20050428105511104/28/05 10:55:31  5-MIN KDBQ 281655Z 00000KT 10SM CLR 07/M05 A2999 1010 41 400 000/00 RMK AO2 SLP164 T00721050
94908KDBQ DBQ20050428110009404/28/05 11:00:31  5-MIN KDBQ 281700Z 23005KT 10SM CLR 07/M05 A2999 1010 41 400 230/05 RMK AO2
94908KDBQ DBQ20050428110509704/28/05 11:05:31  5-MIN KDBQ 281705Z VRB04KT 10SM FEW120 07/M05 A2999 1010 41 400 VRB/04 RMK AO2
94908KDBQ DBQ20050428111009704/28/05 11:10:31  5-MIN KDBQ 281710Z 00000KT 10SM FEW120 08/M06 A2999 1010 38 400 000/00 RMK AO2
94908KDBQ DBQ20050428111509704/28/05 11:15:31  5-MIN KDBQ 281715Z 25007KT 10SM SCT120 08/M05 A2999 1010 38 500 250/07 RMK AO2
94908KDBQ DBQ20050428112011404/28/05 11:20:31  5-MIN KDBQ 281720Z 27011KT 220V280 10SM SCT120 08/M04  A2999 1020 40 500 260/11 220V280 RMK AO2
94908KDBQ DBQ20050428112509704/28/05 11:25:31  5-MIN KDBQ 281725Z 30007KT 10SM SCT120 08/M05 A2999 1010 38 500 290/07 RMK AO2
94908KDBQ DBQ20050428113009704/28/05 11:30:31  5-MIN KDBQ 281730Z 31007KT 10SM BKN110 08/M04 A2998 1020 40 500 310/07 RMK AO2
94908KDBQ DBQ20050428113509704/28/05 11:35:31  5-MIN KDBQ 281735Z 31003KT 10SM BKN110 08/M06 A2997 1030 37 500 310/03 RMK AO2
94908KDBQ DBQ20050428114009704/28/05 11:40:31  5-MIN KDBQ 281740Z VRB04KT 10SM BKN120 08/M06 A2998 1020 37 500 VRB/04 RMK AO2
94908KDBQ DBQ20050428114509704/28/05 11:45:31  5-MIN KDBQ 281745Z 00000KT 10SM BKN120 08/M06 A2998 1030 37 500 000/00 RMK AO2
94908KDBQ DBQ20050428115013204/28/05 11:50:31  5-MIN KDBQ 281750Z 26006KT 10SM BKN120 08/M04 A2997 1030 40 500 260/06 RMK AO2 SLP156 T00831044 10089 20011 50007
94908KDBQ DBQ20050428115513204/28/05 11:55:31  5-MIN KDBQ 281755Z 30008KT 10SM BKN120 08/M04 A2997 1030 40 500 300/08 RMK AO2 SLP155 T00831044 10089 20011 58005
94908KDBQ DBQ20050428120009704/28/05 12:00:31  5-MIN KDBQ 281800Z 00000KT 10SM BKN120 08/M05 A2997 1030 38 500 000/00 RMK AO2
94908KDBQ DBQ20050428120509704/28/05 12:05:31  5-MIN KDBQ 281805Z 33007KT 10SM BKN120 09/M04 A2997 1040 38 600 330/07 RMK AO2
94908KDBQ DBQ20050428121009704/28/05 12:10:31  5-MIN KDBQ 281810Z 31009KT 10SM BKN120 09/M04 A2997 1040 40 600 310/09 RMK AO2
94908KDBQ DBQ20050428121509704/28/05 12:15:31  5-MIN KDBQ 281815Z VRB05KT 10SM BKN120 08/M05 A2997 1040 38 500 VRB/05 RMK AO2
94908KDBQ DBQ20050428122009704/28/05 12:20:31  5-MIN KDBQ 281820Z 26007KT 10SM SCT120 08/M04 A2997 1030 40 500 260/07 RMK AO2
94908KDBQ DBQ20050428122509704/28/05 12:25:31  5-MIN KDBQ 281825Z 30007KT 10SM FEW110 09/M04 A2997 1040 38 600 290/07 RMK AO2
94908KDBQ DBQ20050428123009704/28/05 12:30:31  5-MIN KDBQ 281830Z 29007KT 10SM FEW120 09/M04 A2997 1040 38 600 290/07 RMK AO2
94908KDBQ DBQ20050428123509704/28/05 12:35:31  5-MIN KDBQ 281835Z 33007KT 10SM FEW110 09/M04 A2997 1040 38 600 330/07 RMK AO2
94908KDBQ DBQ20050428124009704/28/05 12:40:31  5-MIN KDBQ 281840Z 28008KT 10SM SCT110 09/M04 A2997 1040 38 600 280/08 RMK AO2
94908KDBQ DBQ20050428124509704/28/05 12:45:31  5-MIN KDBQ 281845Z 00000KT 10SM SCT110 08/M05 A2997 1030 38 500 000/00 RMK AO2
94908KDBQ DBQ20050428125011404/28/05 12:50:31  5-MIN KDBQ 281850Z 25006KT 10SM BKN110 09/M04 A2997 1040 40 600 250/06 RMK AO2 SLP154 T00891039
94908KDBQ DBQ20050428125511404/28/05 12:55:31  5-MIN KDBQ 281855Z 01007KT 10SM BKN110 09/M04 A2996 1040 39 700 010/07 RMK AO2 SLP152 T00941039
94908KDBQ DBQ20050428130009704/28/05 13:00:31  5-MIN KDBQ 281900Z VRB05KT 10SM SCT110 09/M04 A2996 1040 39 700 VRB/05 RMK AO2
94908KDBQ DBQ20050428130509704/28/05 13:05:31  5-MIN KDBQ 281905Z 00000KT 10SM SCT110 09/M04 A2996 1040 39 700 000/00 RMK AO2
94908KDBQ DBQ20050428131009704/28/05 13:10:31  5-MIN KDBQ 281910Z 00000KT 10SM FEW110 09/M04 A2996 1040 39 700 000/00 RMK AO2
94908KDBQ DBQ20050428131509704/28/05 13:15:31  5-MIN KDBQ 281915Z VRB04KT 10SM FEW110 09/M03 A2996 1050 40 700 VRB/04 RMK AO2
94908KDBQ DBQ20050428132009404/28/05 13:20:31  5-MIN KDBQ 281920Z 00000KT 10SM CLR 09/M04 A2996 1050 39 700 000/00 RMK AO2
94908KDBQ DBQ20050428132509404/28/05 13:25:31  5-MIN KDBQ 281925Z VRB06KT 10SM CLR 09/M04 A2995 1050 39 700 VRB/06 RMK AO2
94908KDBQ DBQ20050428133009404/28/05 13:30:31  5-MIN KDBQ 281930Z VRB04KT 10SM CLR 10/M03 A2995 1050 39 700 VRB/04 RMK AO2
94908KDBQ DBQ20050428133509404/28/05 13:35:31  5-MIN KDBQ 281935Z VRB03KT 10SM CLR 09/M04 A2995 1050 39 700 VRB/03 RMK AO2
94908KDBQ DBQ20050428134009704/28/05 13:40:31  5-MIN KDBQ 281940Z 00000KT 10SM FEW060 09/M04 A2995 1050 39 700 000/00 RMK AO2
94908KDBQ DBQ20050428134509704/28/05 13:45:31  5-MIN KDBQ 281945Z VRB06KT 10SM FEW060 09/M04 A2995 1050 37 700 VRB/06 RMK AO2
94908KDBQ DBQ20050428135011104/28/05 13:50:31  5-MIN KDBQ 281950Z 24007KT 10SM CLR 10/M04 A2995 1050 37 700 240/07 RMK AO2 SLP148 T01001039
94908KDBQ DBQ20050428135511104/28/05 13:55:31  5-MIN KDBQ 281955Z 25008KT 10SM CLR 10/M04 A2995 1050 37 700 250/08 RMK AO2 SLP147 T01001039
94908KDBQ DBQ20050428140009404/28/05 14:00:31  5-MIN KDBQ 282000Z 31008KT 10SM CLR 10/M04 A2995 1050 37 700 310/08 RMK AO2
94908KDBQ DBQ20050428140509404/28/05 14:05:31  5-MIN KDBQ 282005Z 01004KT 10SM CLR 11/M04 A2994 1060 34 800 010/04 RMK AO2
94908KDBQ DBQ20050428141009404/28/05 14:10:31  5-MIN KDBQ 282010Z 36006KT 10SM CLR 11/M04 A2994 1060 36 800 350/06 RMK AO2
94908KDBQ DBQ20050428141509404/28/05 14:15:31  5-MIN KDBQ 282015Z 28012KT 10SM CLR 11/M03 A2994 1060 36 900 280/12 RMK AO2
94908KDBQ DBQ20050428142009404/28/05 14:20:31  5-MIN KDBQ 282020Z 29010KT 10SM CLR 11/M03 A2994 1060 36 900 290/10 RMK AO2
94908KDBQ DBQ20050428142509404/28/05 14:25:31  5-MIN KDBQ 282025Z 24005KT 10SM CLR 11/M04 A2994 1060 34 800 240/05 RMK AO2
94908KDBQ DBQ20050428143009404/28/05 14:30:31  5-MIN KDBQ 282030Z 27004KT 10SM CLR 10/M04 A2994 1060 37 800 270/04 RMK AO2
94908KDBQ DBQ20050428143509404/28/05 14:35:31  5-MIN KDBQ 282035Z 35006KT 10SM CLR 11/M04 A2994 1060 34 900 350/06 RMK AO2
94908KDBQ DBQ20050428144009404/28/05 14:40:31  5-MIN KDBQ 282040Z VRB06KT 10SM CLR 11/M03 A2994 1060 36 900 VRB/06 RMK AO2
94908KDBQ DBQ20050428144509404/28/05 14:45:31  5-MIN KDBQ 282045Z VRB04KT 10SM CLR 11/M03 A2994 1060 37 900 VRB/04 RMK AO2
94908KDBQ DBQ20050428145011704/28/05 14:50:31  5-MIN KDBQ 282050Z VRB05KT 10SM CLR 11/M04 A2993 1070 34 800 VRB/05 RMK AO2 SLP143 T01061044 58005
94908KDBQ DBQ20050428145512004/28/05 14:55:31  5-MIN KDBQ 282055Z 34009KT 10SM FEW065 11/M03 A2993 1070 37 900 340/09 RMK AO2 SLP143 T01111028 58012
94908KDBQ DBQ20050428150009704/28/05 15:00:31  5-MIN KDBQ 282100Z 34007KT 10SM FEW065 11/M03 A2993 1070 37 900 340/07 RMK AO2
94908KDBQ DBQ20050428150509704/28/05 15:05:31  5-MIN KDBQ 282105Z 00000KT 10SM FEW065 11/M04 A2993 1070 34 900 000/00 RMK AO2
94908KDBQ DBQ20050428151009704/28/05 15:10:31  5-MIN KDBQ 282110Z 31007KT 10SM FEW065 11/M03 A2993 1070 37 900 310/07 RMK AO2
94908KDBQ DBQ20050428151509704/28/05 15:15:31  5-MIN KDBQ 282115Z VRB04KT 10SM FEW065 11/M03 A2993 1070 36 900 VRB/04 RMK AO2
94908KDBQ DBQ20050428152009704/28/05 15:20:31  5-MIN KDBQ 282120Z 00000KT 10SM FEW065 11/M04 A2993 1070 34 900 000/00 RMK AO2
94908KDBQ DBQ20050428152509704/28/05 15:25:31  5-MIN KDBQ 282125Z 35005KT 10SM FEW065 11/M04 A2993 1070 33 900 350/05 RMK AO2
94908KDBQ DBQ20050428153009704/28/05 15:30:31  5-MIN KDBQ 282130Z 33008KT 10SM FEW065 11/M03 A2993 1070 37 800 330/08 RMK AO2
94908KDBQ DBQ20050428153509704/28/05 15:35:31  5-MIN KDBQ 282135Z 33008KT 10SM FEW065 11/M03 A2992 1080 36 900 330/08 RMK AO2
94908KDBQ DBQ20050428154009704/28/05 15:40:31  5-MIN KDBQ 282140Z 35006KT 10SM FEW065 11/M03 A2992 1080 36 900 340/06 RMK AO2
94908KDBQ DBQ20050428154509804/28/05 15:45:31  5-MIN KDBQ 282145Z 32008KT 10SM FEW065 12/M03 A2992 1080 35 1000 320/08 RMK AO2
94908KDBQ DBQ20050428155011404/28/05 15:50:31  5-MIN KDBQ 282150Z 30010KT 10SM FEW065 11/M04 A2992 1080 34 900 300/10 RMK AO2 SLP138 T01111039
94908KDBQ DBQ20050428155511104/28/05 15:55:31  5-MIN KDBQ 282155Z 30006KT 10SM CLR 11/M04 A2992 1080 34 900 300/06 RMK AO2 SLP137 T01111039
94908KDBQ DBQ20050428160009404/28/05 16:00:31  5-MIN KDBQ 282200Z 28007KT 10SM CLR 11/M04 A2992 1080 34 900 280/07 RMK AO2
94908KDBQ DBQ20050428160509404/28/05 16:05:31  5-MIN KDBQ 282205Z VRB03KT 10SM CLR 11/M04 A2992 1080 34 800 VRB/03 RMK AO2
94908KDBQ DBQ20050428161009404/28/05 16:10:31  5-MIN KDBQ 282210Z 34006KT 10SM CLR 11/M04 A2992 1080 34 900 340/06 RMK AO2
94908KDBQ DBQ20050428161509504/28/05 16:15:31  5-MIN KDBQ 282215Z 34007KT 10SM CLR 12/M03 A2992 1080 35 1000 340/07 RMK AO2
94908KDBQ DBQ20050428162009404/28/05 16:20:31  5-MIN KDBQ 282220Z VRB04KT 10SM CLR 11/M04 A2992 1080 34 900 VRB/04 RMK AO2
94908KDBQ DBQ20050428162511104/28/05 16:25:31  5-MIN KDBQ 282225Z 36007KT 340V050 10SM CLR 12/M03 A2992 1080 35 1000 360/07 340V050 RMK AO2
94908KDBQ DBQ20050428163009504/28/05 16:30:31  5-MIN KDBQ 282230Z 32003KT 10SM CLR 12/M04 A2992 1080 33 1000 320/03 RMK AO2
94908KDBQ DBQ20050428163509504/28/05 16:35:31  5-MIN KDBQ 282235Z 30009KT 10SM CLR 12/M03 A2992 1080 36 1000 300/09 RMK AO2
94908KDBQ DBQ20050428164009404/28/05 16:40:31  5-MIN KDBQ 282240Z 27008KT 10SM CLR 11/M04 A2992 1070 36 800 270/08 RMK AO2
94908KDBQ DBQ20050428164509404/28/05 16:45:31  5-MIN KDBQ 282245Z VRB03KT 10SM CLR 11/M04 A2992 1070 36 800 VRB/03 RMK AO2
94908KDBQ DBQ20050428165011104/28/05 16:50:31  5-MIN KDBQ 282250Z 20004KT 10SM CLR 11/M04 A2992 1080 34 800 200/04 RMK AO2 SLP139 T01061044
94908KDBQ DBQ20050428170509404/28/05 17:05:31  5-MIN KDBQ 282305Z 32007KT 10SM CLR 11/M04 A2992 1070 34 900 320/07 RMK AO2
94908KDBQ DBQ20050428171009404/28/05 17:10:31  5-MIN KDBQ 282310Z 33007KT 10SM CLR 11/M04 A2992 1080 34 900 320/07 RMK AO2
94908KDBQ DBQ20050428171509404/28/05 17:15:31  5-MIN KDBQ 282315Z 33005KT 10SM CLR 11/M04 A2993 1070 36 800 330/05 RMK AO2
94908KDBQ DBQ20050428172009404/28/05 17:20:31  5-MIN KDBQ 282320Z 00000KT 10SM CLR 11/M04 A2993 1070 34 900 000/00 RMK AO2
94908KDBQ DBQ20050428172509404/28/05 17:25:31  5-MIN KDBQ 282325Z 34003KT 10SM CLR 11/M03 A2992 1070 36 900 340/03 RMK AO2
94908KDBQ DBQ20050428173009404/28/05 17:30:31  5-MIN KDBQ 282330Z 00000KT 10SM CLR 11/M04 A2992 1070 34 900 000/00 RMK AO2
94908KDBQ DBQ20050428173509404/28/05 17:35:31  5-MIN KDBQ 282335Z 30005KT 10SM CLR 11/M04 A2993 1070 36 800 300/05 RMK AO2
94908KDBQ DBQ20050428174009404/28/05 17:40:31  5-MIN KDBQ 282340Z 30007KT 10SM CLR 11/M03 A2993 1070 37 800 300/07 RMK AO2
94908KDBQ DBQ20050428174509404/28/05 17:45:31  5-MIN KDBQ 282345Z 32008KT 10SM CLR 10/M04 A2993 1070 37 800 320/08 RMK AO2
94908KDBQ DBQ20050428175012904/28/05 17:50:31  5-MIN KDBQ 282350Z 32006KT 10SM CLR 10/M03 A2993 1070 39 800 320/06 RMK AO2 SLP141 T01001033 10117 20083 58012
94908KDBQ DBQ20050428175512904/28/05 17:55:31  5-MIN KDBQ 282355Z 33005KT 10SM CLR 10/M03 A2993 1070 39 800 330/05 RMK AO2 SLP141 T01001033 10117 20083 55002
94908KDBQ DBQ20050428180009404/28/05 18:00:31  5-MIN KDBQ 290000Z 33004KT 10SM CLR 09/M03 A2993 1070 42 700 330/04 RMK AO2
94908KDBQ DBQ20050428180509404/28/05 18:05:31  5-MIN KDBQ 290005Z 33003KT 10SM CLR 09/M03 A2993 1070 42 700 330/03 RMK AO2
94908KDBQ DBQ20050428181009404/28/05 18:10:31  5-MIN KDBQ 290010Z 35004KT 10SM CLR 09/M02 A2993 1070 44 700 350/04 RMK AO2
94908KDBQ DBQ20050428181509404/28/05 18:15:31  5-MIN KDBQ 290015Z 35005KT 10SM CLR 09/M02 A2993 1070 45 700 350/05 RMK AO2
94908KDBQ DBQ20050428182009404/28/05 18:20:31  5-MIN KDBQ 290020Z 34006KT 10SM CLR 09/M02 A2993 1070 45 700 340/06 RMK AO2
94908KDBQ DBQ20050428182509404/28/05 18:25:31  5-MIN KDBQ 290025Z 34005KT 10SM CLR 09/M03 A2993 1070 42 700 340/05 RMK AO2
94908KDBQ DBQ20050428183009404/28/05 18:30:31  5-MIN KDBQ 290030Z 36004KT 10SM CLR 09/M02 A2993 1070 45 600 360/04 RMK AO2
94908KDBQ DBQ20050428183509404/28/05 18:35:31  5-MIN KDBQ 290035Z 36004KT 10SM CLR 08/M02 A2993 1070 49 600 360/04 RMK AO2
94908KDBQ DBQ20050428184010504/28/05 18:40:31  5-MIN KDBQ 290040Z AUTO 36004KT 10SM CLR 08/M02 A2993  1070 47 600 360/04 RMK AO2 TSNO
94908KDBQ DBQ20050428184510504/28/05 18:45:31  5-MIN KDBQ 290045Z AUTO 01004KT 10SM CLR 09/M03 A2993  1070 43 600 010/04 RMK AO2 TSNO
94908KDBQ DBQ20050428185012204/28/05 18:50:31  5-MIN KDBQ 290050Z AUTO 02004KT 10SM CLR 09/M03 A2993  1070 43 600 010/04 RMK AO2 SLP143 T00891028 TSNO
94908KDBQ DBQ20050428185512204/28/05 18:55:31  5-MIN KDBQ 290055Z AUTO 01003KT 10SM CLR 09/M03 A2994  1060 42 600 010/03 RMK AO2 SLP144 T00891033 TSNO
94908KDBQ DBQ20050428190010504/28/05 19:00:31  5-MIN KDBQ 290100Z AUTO 00000KT 10SM CLR 09/M03 A2994  1060 40 700 000/00 RMK AO2 TSNO
94908KDBQ DBQ20050428190510704/28/05 19:05:31  5-MIN KDBQ 290105Z AUTO 02003KT 10SM FEW120 09/M03 A2994 1060 40 700 010/03 RMK AO2 TSNO
94908KDBQ DBQ20050428191010704/28/05 19:10:31  5-MIN KDBQ 290110Z AUTO 02003KT 10SM SCT120 08/M02 A2994 1060 47 600 010/03 RMK AO2 TSNO
94908KDBQ DBQ20050428191510704/28/05 19:15:31  5-MIN KDBQ 290115Z AUTO 02003KT 10SM BKN120 09/M03 A2994 1060 42 600 020/03 RMK AO2 TSNO
94908KDBQ DBQ20050428192010704/28/05 19:20:31  5-MIN KDBQ 290120Z AUTO 00000KT 10SM BKN120 08/M03 A2994 1060 45 600 000/00 RMK AO2 TSNO
94908KDBQ DBQ20050428192510704/28/05 19:25:31  5-MIN KDBQ 290125Z AUTO 00000KT 10SM BKN120 09/M04 A2994 1060 40 600 000/00 RMK AO2 TSNO
94908KDBQ DBQ20050428193010704/28/05 19:30:31  5-MIN KDBQ 290130Z AUTO 00000KT 10SM OVC120 08/M03 A2994 1060 45 600 000/00 RMK AO2 TSNO
94908KDBQ DBQ20050428193510704/28/05 19:35:31  5-MIN KDBQ 290135Z AUTO 00000KT 10SM OVC120 07/M02 A2994 1060 51 400 000/00 RMK AO2 TSNO
94908KDBQ DBQ20050428194010704/28/05 19:40:31  5-MIN KDBQ 290140Z AUTO 00000KT 10SM OVC120 07/M02 A2994 1060 51 400 000/00 RMK AO2 TSNO
94908KDBQ DBQ20050428194510704/28/05 19:45:31  5-MIN KDBQ 290145Z AUTO 00000KT 10SM BKN120 08/M03 A2994 1060 45 500 000/00 RMK AO2 TSNO
94908KDBQ DBQ20050428195012404/28/05 19:50:31  5-MIN KDBQ 290150Z AUTO 04003KT 10SM BKN120 08/M02 A2995 1050 49 500 040/03 RMK AO2 SLP148 T00781022 TSNO
94908KDBQ DBQ20050428195512404/28/05 19:55:31  5-MIN KDBQ 290155Z AUTO 03003KT 10SM SCT120 08/M02 A2995 1050 49 500 030/03 RMK AO2 SLP148 T00781022 TSNO
94908KDBQ DBQ20050428200010704/28/05 20:00:31  5-MIN KDBQ 290200Z AUTO 04003KT 10SM FEW120 08/M02 A2995 1050 49 500 040/03 RMK AO2 TSNO
94908KDBQ DBQ20050428200510704/28/05 20:05:31  5-MIN KDBQ 290205Z AUTO 05004KT 10SM FEW120 08/M02 A2995 1050 49 500 050/04 RMK AO2 TSNO
94908KDBQ DBQ20050428201010704/28/05 20:10:31  5-MIN KDBQ 290210Z AUTO 05003KT 10SM FEW120 08/M03 A2995 1050 45 500 050/03 RMK AO2 TSNO
94908KDBQ DBQ20050428201510704/28/05 20:15:31  5-MIN KDBQ 290215Z AUTO 00000KT 10SM SCT120 08/M03 A2995 1050 47 500 000/00 RMK AO2 TSNO
94908KDBQ DBQ20050428202010704/28/05 20:20:31  5-MIN KDBQ 290220Z AUTO 00000KT 10SM BKN120 08/M02 A2995 1050 49 500 000/00 RMK AO2 TSNO
94908KDBQ DBQ20050428202510704/28/05 20:25:31  5-MIN KDBQ 290225Z AUTO 00000KT 10SM BKN120 08/M02 A2995 1050 47 500 000/00 RMK AO2 TSNO
94908KDBQ DBQ20050428203010704/28/05 20:30:31  5-MIN KDBQ 290230Z AUTO 07003KT 10SM BKN120 08/M02 A2995 1050 47 500 070/03 RMK AO2 TSNO
94908KDBQ DBQ20050428203510704/28/05 20:35:31  5-MIN KDBQ 290235Z AUTO 00000KT 10SM OVC120 08/M02 A2996 1050 51 500 000/00 RMK AO2 TSNO
94908KDBQ DBQ20050428204010704/28/05 20:40:31  5-MIN KDBQ 290240Z AUTO 00000KT 10SM OVC120 07/M01 A2996 1040 55 400 000/00 RMK AO2 TSNO
94908KDBQ DBQ20050428204510704/28/05 20:45:31  5-MIN KDBQ 290245Z AUTO 00000KT 10SM OVC120 08/M02 A2996 1050 51 500 000/00 RMK AO2 TSNO
94908KDBQ DBQ20050428205013004/28/05 20:50:31  5-MIN KDBQ 290250Z AUTO 00000KT 10SM OVC120 08/M02 A2996 1040 51 500 000/00 RMK AO2 SLP150 T00781017 55002 TSNO
94908KDBQ DBQ20050428205513004/28/05 20:55:31  5-MIN KDBQ 290255Z AUTO 00000KT 10SM OVC120 06/M01 A2996 1040 62 300 000/00 RMK AO2 SLP152 T00611006 53010 TSNO
94908KDBQ DBQ20050428210010604/28/05 21:00:31  5-MIN KDBQ 290300Z AUTO 00000KT 10SM OVC120 05/00 A2996 1040 70 100 000/00 RMK AO2 TSNO
94908KDBQ DBQ20050428210510704/28/05 21:05:31  5-MIN KDBQ 290305Z AUTO 00000KT 10SM OVC120 05/M01 A2996 1040 67 100 000/00 RMK AO2 TSNO
94908KDBQ DBQ20050428211010704/28/05 21:10:31  5-MIN KDBQ 290310Z AUTO 00000KT 10SM OVC120 06/M01 A2996 1040 62 200 000/00 RMK AO2 TSNO
94908KDBQ DBQ20050428211510704/28/05 21:15:31  5-MIN KDBQ 290315Z AUTO 00000KT 10SM OVC110 07/M02 A2996 1040 53 300 000/00 RMK AO2 TSNO
94908KDBQ DBQ20050428212010704/28/05 21:20:31  5-MIN KDBQ 290320Z AUTO 04003KT 10SM OVC110 08/M03 A2996 1040 47 500 040/03 RMK AO2 TSNO
94908KDBQ DBQ20050428212510704/28/05 21:25:31  5-MIN KDBQ 290325Z AUTO 04004KT 10SM OVC110 07/M02 A2996 1040 53 400 040/04 RMK AO2 TSNO
94908KDBQ DBQ20050428213010704/28/05 21:30:31  5-MIN KDBQ 290330Z AUTO 03003KT 10SM OVC110 07/M02 A2996 1040 55 300 030/03 RMK AO2 TSNO
94908KDBQ DBQ20050428213510704/28/05 21:35:31  5-MIN KDBQ 290335Z AUTO 02003KT 10SM OVC120 07/M02 A2996 1040 55 300 020/03 RMK AO2 TSNO
94908KDBQ DBQ20050428214010704/28/05 21:40:31  5-MIN KDBQ 290340Z AUTO 01004KT 10SM OVC120 07/M02 A2996 1040 51 400 010/04 RMK AO2 TSNO
94908KDBQ DBQ20050428214510704/28/05 21:45:31  5-MIN KDBQ 290345Z AUTO 36005KT 10SM OVC120 07/M02 A2996 1040 55 300 360/05 RMK AO2 TSNO
94908KDBQ DBQ20050428215012404/28/05 21:50:31  5-MIN KDBQ 290350Z AUTO 01005KT 10SM OVC120 07/M02 A2996 1040 53 400 010/05 RMK AO2 SLP151 T00721017 TSNO
94908KDBQ DBQ20050428215512404/28/05 21:55:31  5-MIN KDBQ 290355Z AUTO 02004KT 10SM OVC120 07/M02 A2996 1040 55 300 020/04 RMK AO2 SLP152 T00671017 TSNO
94908KDBQ DBQ20050428220010704/28/05 22:00:31  5-MIN KDBQ 290400Z AUTO 01004KT 10SM OVC120 07/M02 A2996 1040 55 300 010/04 RMK AO2 TSNO
94908KDBQ DBQ20050428220510704/28/05 22:05:31  5-MIN KDBQ 290405Z AUTO 01005KT 10SM OVC120 07/M02 A2996 1040 51 400 010/05 RMK AO2 TSNO
94908KDBQ DBQ20050428221010704/28/05 22:10:31  5-MIN KDBQ 290410Z AUTO 01005KT 10SM OVC120 07/M02 A2996 1040 55 300 010/05 RMK AO2 TSNO
94908KDBQ DBQ20050428221510704/28/05 22:15:31  5-MIN KDBQ 290415Z AUTO 36004KT 10SM OVC120 07/M02 A2996 1040 55 300 360/04 RMK AO2 TSNO
94908KDBQ DBQ20050428222010704/28/05 22:20:31  5-MIN KDBQ 290420Z AUTO 36005KT 10SM OVC110 07/M02 A2996 1040 55 300 360/05 RMK AO2 TSNO
94908KDBQ DBQ20050428222510704/28/05 22:25:31  5-MIN KDBQ 290425Z AUTO 01005KT 10SM OVC110 07/M02 A2996 1040 55 300 010/05 RMK AO2 TSNO
94908KDBQ DBQ20050428223010704/28/05 22:30:31  5-MIN KDBQ 290430Z AUTO 02003KT 10SM OVC110 07/M02 A2996 1040 55 300 010/03 RMK AO2 TSNO
94908KDBQ DBQ20050428223510704/28/05 22:35:31  5-MIN KDBQ 290435Z AUTO 02004KT 10SM OVC110 07/M02 A2996 1040 53 300 010/04 RMK AO2 TSNO
94908KDBQ DBQ20050428224010704/28/05 22:40:31  5-MIN KDBQ 290440Z AUTO 02004KT 10SM OVC110 07/M02 A2996 1040 51 400 010/04 RMK AO2 TSNO
94908KDBQ DBQ20050428224510704/28/05 22:45:31  5-MIN KDBQ 290445Z AUTO 01004KT 10SM OVC110 07/M03 A2996 1040 49 400 010/04 RMK AO2 TSNO
94908KDBQ DBQ20050428225012404/28/05 22:50:31  5-MIN KDBQ 290450Z AUTO 01004KT 10SM OVC100 07/M03 A2996 1040 49 400 010/04 RMK AO2 SLP153 T00721028 TSNO
94908KDBQ DBQ20050428225512404/28/05 22:55:31  5-MIN KDBQ 290455Z AUTO 01004KT 10SM OVC110 07/M02 A2997 1040 51 400 010/04 RMK AO2 SLP154 T00721022 TSNO
94908KDBQ DBQ20050428230010704/28/05 23:00:31  5-MIN KDBQ 290500Z AUTO 36004KT 10SM OVC110 07/M02 A2997 1030 55 300 360/04 RMK AO2 TSNO
94908KDBQ DBQ20050428230510704/28/05 23:05:31  5-MIN KDBQ 290505Z AUTO 01004KT 10SM OVC110 07/M02 A2997 1030 55 300 360/04 RMK AO2 TSNO
94908KDBQ DBQ20050428231010704/28/05 23:10:31  5-MIN KDBQ 290510Z AUTO 01004KT 10SM OVC110 07/M02 A2997 1030 53 300 010/04 RMK AO2 TSNO
94908KDBQ DBQ20050428231510704/28/05 23:15:31  5-MIN KDBQ 290515Z AUTO 01004KT 10SM OVC110 07/M02 A2997 1030 51 400 010/04 RMK AO2 TSNO
94908KDBQ DBQ20050428232010704/28/05 23:20:31  5-MIN KDBQ 290520Z AUTO 01004KT 10SM OVC110 07/M02 A2997 1030 55 300 360/04 RMK AO2 TSNO
94908KDBQ DBQ20050428232510704/28/05 23:25:31  5-MIN KDBQ 290525Z AUTO 01004KT 10SM OVC100 06/M01 A2997 1030 60 300 010/04 RMK AO2 TSNO
94908KDBQ DBQ20050428233010704/28/05 23:30:31  5-MIN KDBQ 290530Z AUTO 01004KT 10SM OVC110 06/M01 A2997 1040 60 300 010/04 RMK AO2 TSNO
94908KDBQ DBQ20050428233510704/28/05 23:35:31  5-MIN KDBQ 290535Z AUTO 02004KT 10SM OVC100 06/M01 A2997 1040 60 300 020/04 RMK AO2 TSNO
94908KDBQ DBQ20050428234010704/28/05 23:40:31  5-MIN KDBQ 290540Z AUTO 02005KT 10SM OVC100 06/M02 A2996 1040 57 300 020/05 RMK AO2 TSNO
94908KDBQ DBQ20050428234510704/28/05 23:45:31  5-MIN KDBQ 290545Z AUTO 02005KT 10SM OVC100 06/M02 A2996 1040 57 300 020/05 RMK AO2 TSNO
94908KDBQ DBQ20050428235015304/28/05 23:50:31  5-MIN KDBQ 290550Z AUTO 02005KT 10SM OVC110 06/M02 A2996 1040 57 300 020/05 RMK AO2 SLP152 T00611017 10094 20050 401171006 53010  TSNO
94908KDBQ DBQ20050428235515304/28/05 23:55:31  5-MIN KDBQ 290555Z AUTO 03004KT 10SM OVC110 06/M02 A2996 1040 59 200 030/04 RMK AO2 SLP152 T00561017 10094 20050 401171006 50001  TSNO
94908KDBQ DBQ20050429000010704/29/05 00:00:38  5-MIN KDBQ 290600Z AUTO 03005KT 10SM BKN110 06/M01 A2996 1040 62 200 030/05 RMK AO2 TSNO
94908KDBQ DBQ20050429000510704/29/05 00:05:31  5-MIN KDBQ 290605Z AUTO 03004KT 10SM BKN110 06/M01 A2996 1040 65 200 030/04 RMK AO2 TSNO
94908KDBQ DBQ20050429001010704/29/05 00:10:31  5-MIN KDBQ 290610Z AUTO 03004KT 10SM OVC110 06/M01 A2996 1040 62 200 030/04 RMK AO2 TSNO
94908KDBQ DBQ20050429001510704/29/05 00:15:32  5-MIN KDBQ 290615Z AUTO 00000KT 10SM OVC120 06/M02 A2996 1040 59 200 000/00 RMK AO2 TSNO
94908KDBQ DBQ20050429002010704/29/05 00:20:31  5-MIN KDBQ 290620Z AUTO 03004KT 10SM OVC110 06/M02 A2996 1040 59 200 030/04 RMK AO2 TSNO
94908KDBQ DBQ20050429002510704/29/05 00:25:31  5-MIN KDBQ 290625Z AUTO 03005KT 10SM OVC110 05/M02 A2996 1040 62 100 030/05 RMK AO2 TSNO
94908KDBQ DBQ20050429003010704/29/05 00:30:31  5-MIN KDBQ 290630Z AUTO 03005KT 10SM OVC110 04/M02 A2996 1040 64 100 030/05 RMK AO2 TSNO
94908KDBQ DBQ20050429003510704/29/05 00:35:31  5-MIN KDBQ 290635Z AUTO 03005KT 10SM OVC110 04/M02 A2996 1040 64 100 030/05 RMK AO2 TSNO
94908KDBQ DBQ20050429004010504/29/05 00:40:31  5-MIN KDBQ 290640Z AUTO 03005KT 10SM OVC100 04/M02 A2996 1040 67 0 030/05 RMK AO2 TSNO
94908KDBQ DBQ20050429004510704/29/05 00:45:31  5-MIN KDBQ 290645Z AUTO 03005KT 10SM OVC100 04/M02 A2996 1040 64 100 030/05 RMK AO2 TSNO
94908KDBQ DBQ20050429005013204/29/05 00:50:31  5-MIN KDBQ 290650Z AUTO 03005KT 10SM BKN100 OVC120  04/M02 A2996 1040 64 100 030/05 RMK AO2 SLP151 T00441017 TSNO
94908KDBQ DBQ20050429005513004/29/05 00:55:31  5-MIN KDBQ 290655Z AUTO 03005KT 10SM BKN100 OVC120  04/M02 A2996 1040 67 0 030/05 RMK AO2 SLP151 T00391017 TSNO
94908KDBQ DBQ20050429010010504/29/05 01:00:31  5-MIN KDBQ 290700Z AUTO 03005KT 10SM OVC110 04/M02 A2996 1040 67 0 030/05 RMK AO2 TSNO
94908KDBQ DBQ20050429010510504/29/05 01:05:31  5-MIN KDBQ 290705Z AUTO 03006KT 10SM OVC110 04/M02 A2996 1040 67 0 030/06 RMK AO2 TSNO
94908KDBQ DBQ20050429011010504/29/05 01:10:31  5-MIN KDBQ 290710Z AUTO 03005KT 10SM OVC110 03/M02 A2996 1050 70 0 030/05 RMK AO2 TSNO
94908KDBQ DBQ20050429011510504/29/05 01:15:31  5-MIN KDBQ 290715Z AUTO 04005KT 10SM OVC110 03/M02 A2995 1050 70 0 040/05 RMK AO2 TSNO
94908KDBQ DBQ20050429012010504/29/05 01:20:31  5-MIN KDBQ 290720Z AUTO 03005KT 10SM OVC110 04/M02 A2995 1050 67 0 030/05 RMK AO2 TSNO
94908KDBQ DBQ20050429012510504/29/05 01:25:31  5-MIN KDBQ 290725Z AUTO 03006KT 10SM OVC110 03/M02 A2995 1050 70 0 030/06 RMK AO2 TSNO
94908KDBQ DBQ20050429013011304/29/05 01:30:31  5-MIN KDBQ 290730Z AUTO 03005KT 10SM BKN100 OVC110  03/M02 A2994 1060 70 0 030/05 RMK AO2 TSNO
94908KDBQ DBQ20050429013511304/29/05 01:35:31  5-MIN KDBQ 290735Z AUTO 03006KT 10SM BKN095 OVC110  03/M02 A2994 1060 67 0 030/06 RMK AO2 TSNO
94908KDBQ DBQ20050429014011304/29/05 01:40:31  5-MIN KDBQ 290740Z AUTO 03006KT 10SM BKN095 OVC110  03/M02 A2994 1060 70 0 030/06 RMK AO2 TSNO
94908KDBQ DBQ20050429014510804/29/05 01:45:31  5-MIN KDBQ 290745Z AUTO 03006KT 10SM BKN095 03/M02 A2994 1060 72 -100 030/06 RMK AO2 TSNO
94908KDBQ DBQ20050429015012504/29/05 01:50:31  5-MIN KDBQ 290750Z AUTO 03006KT 10SM BKN095 03/M02 A2994 1060 72 -100 030/06 RMK AO2 SLP144 T00281017 TSNO
94908KDBQ DBQ20050429015513304/29/05 01:55:31  5-MIN KDBQ 290755Z AUTO 03006KT 10SM BKN090 BKN110  03/M02 A2993 1070 72 -100 030/06 RMK AO2 SLP143 T00281017 TSNO
94908KDBQ DBQ20050429020011604/29/05 02:00:31  5-MIN KDBQ 290800Z AUTO 03006KT 10SM SCT090 BKN110  03/M02 A2994 1060 72 -100 030/06 RMK AO2 TSNO
94908KDBQ DBQ20050429020511604/29/05 02:05:31  5-MIN KDBQ 290805Z AUTO 03006KT 10SM FEW100 BKN110  03/M02 A2994 1060 72 -100 030/06 RMK AO2 TSNO
94908KDBQ DBQ20050429021010504/29/05 02:10:31  5-MIN KDBQ 290810Z AUTO 02006KT 10SM BKN110 03/M02 A2994 1060 70 0 020/06 RMK AO2 TSNO
94908KDBQ DBQ20050429021510804/29/05 02:15:31  5-MIN KDBQ 290815Z AUTO 03006KT 10SM BKN110 03/M02 A2993 1070 72 -100 030/06 RMK AO2 TSNO
94908KDBQ DBQ20050429022010804/29/05 02:20:31  5-MIN KDBQ 290820Z AUTO 03007KT 10SM OVC110 03/M02 A2993 1070 72 -100 030/07 RMK AO2 TSNO
94908KDBQ DBQ20050429022510504/29/05 02:25:31  5-MIN KDBQ 290825Z AUTO 03007KT 10SM OVC110 03/M02 A2993 1070 70 0 030/07 RMK AO2 TSNO
94908KDBQ DBQ20050429023010504/29/05 02:30:31  5-MIN KDBQ 290830Z AUTO 03007KT 10SM OVC100 03/M02 A2993 1070 70 0 030/07 RMK AO2 TSNO
94908KDBQ DBQ20050429023510504/29/05 02:35:31  5-MIN KDBQ 290835Z AUTO 03007KT 10SM OVC100 03/M02 A2994 1060 70 0 030/07 RMK AO2 TSNO
94908KDBQ DBQ20050429024010504/29/05 02:40:31  5-MIN KDBQ 290840Z AUTO 03007KT 10SM OVC100 03/M02 A2993 1070 67 0 030/07 RMK AO2 TSNO
94908KDBQ DBQ20050429024510804/29/05 02:45:31  5-MIN KDBQ 290845Z AUTO 03007KT 10SM OVC100 03/M02 A2993 1070 72 -100 030/07 RMK AO2 TSNO
94908KDBQ DBQ20050429025013104/29/05 02:50:31  5-MIN KDBQ 290850Z AUTO 03006KT 10SM OVC100 03/M02 A2993 1070 72 -100 030/06 RMK AO2 SLP142 T00281017 50001 TSNO
94908KDBQ DBQ20050429025513104/29/05 02:55:31  5-MIN KDBQ 290855Z AUTO 03006KT 10SM OVC100 02/M02 A2993 1070 75 -100 030/06 RMK AO2 SLP143 T00221017 56009 TSNO
94908KDBQ DBQ20050429030010804/29/05 03:00:31  5-MIN KDBQ 290900Z AUTO 03006KT 10SM OVC100 03/M02 A2993 1070 72 -100 030/06 RMK AO2 TSNO
94908KDBQ DBQ20050429030510804/29/05 03:05:31  5-MIN KDBQ 290905Z AUTO 03006KT 10SM OVC100 03/M02 A2993 1070 72 -100 030/06 RMK AO2 TSNO
94908KDBQ DBQ20050429031010504/29/05 03:10:31  5-MIN KDBQ 290910Z AUTO 03006KT 10SM OVC100 03/M02 A2993 1070 70 0 030/06 RMK AO2 TSNO
94908KDBQ DBQ20050429031510504/29/05 03:15:31  5-MIN KDBQ 290915Z AUTO 03006KT 10SM OVC100 04/M01 A2993 1070 70 0 030/06 RMK AO2 TSNO
94908KDBQ DBQ20050429032010504/29/05 03:20:31  5-MIN KDBQ 290920Z AUTO 03006KT 10SM OVC100 04/M01 A2993 1070 70 0 030/06 RMK AO2 TSNO
94908KDBQ DBQ20050429032510504/29/05 03:25:31  5-MIN KDBQ 290925Z AUTO 04006KT 10SM OVC100 04/M01 A2993 1070 70 0 040/06 RMK AO2 TSNO
94908KDBQ DBQ20050429033010504/29/05 03:30:31  5-MIN KDBQ 290930Z AUTO 04006KT 10SM OVC100 04/M01 A2993 1070 70 0 030/06 RMK AO2 TSNO
94908KDBQ DBQ20050429033510504/29/05 03:35:31  5-MIN KDBQ 290935Z AUTO 03006KT 10SM OVC100 04/M01 A2993 1070 70 0 030/06 RMK AO2 TSNO
94908KDBQ DBQ20050429034010504/29/05 03:40:31  5-MIN KDBQ 290940Z AUTO 04007KT 10SM OVC100 04/M01 A2993 1070 70 0 030/07 RMK AO2 TSNO
94908KDBQ DBQ20050429034510504/29/05 03:45:31  5-MIN KDBQ 290945Z AUTO 03007KT 10SM OVC100 04/M01 A2993 1070 70 0 030/07 RMK AO2 TSNO
94908KDBQ DBQ20050429035012204/29/05 03:50:31  5-MIN KDBQ 290950Z AUTO 04006KT 10SM OVC100 04/M01 A2993 1070 70 0 030/06 RMK AO2 SLP141 T00391011 TSNO
94908KDBQ DBQ20050429035512204/29/05 03:55:31  5-MIN KDBQ 290955Z AUTO 04006KT 10SM OVC100 04/M01 A2993 1070 70 0 040/06 RMK AO2 SLP141 T00391011 TSNO
94908KDBQ DBQ20050429040010504/29/05 04:00:31  5-MIN KDBQ 291000Z AUTO 04006KT 10SM OVC100 04/M01 A2993 1070 70 0 040/06 RMK AO2 TSNO
94908KDBQ DBQ20050429040510504/29/05 04:05:31  5-MIN KDBQ 291005Z AUTO 04005KT 10SM OVC100 04/M01 A2993 1070 70 0 040/05 RMK AO2 TSNO
94908KDBQ DBQ20050429041010504/29/05 04:10:31  5-MIN KDBQ 291010Z AUTO 04005KT 10SM OVC100 03/M01 A2993 1070 72 0 040/05 RMK AO2 TSNO
94908KDBQ DBQ20050429041510504/29/05 04:15:31  5-MIN KDBQ 291015Z AUTO 04006KT 10SM OVC100 03/M01 A2993 1070 72 0 040/06 RMK AO2 TSNO
94908KDBQ DBQ20050429042010804/29/05 04:20:31  5-MIN KDBQ 291020Z AUTO 03006KT 10SM OVC100 03/M02 A2993 1070 72 -100 030/06 RMK AO2 TSNO
94908KDBQ DBQ20050429042510804/29/05 04:25:31  5-MIN KDBQ 291025Z AUTO 04005KT 10SM BKN100 02/M02 A2992 1070 75 -100 030/05 RMK AO2 TSNO
94908KDBQ DBQ20050429043010804/29/05 04:30:31  5-MIN KDBQ 291030Z AUTO 04004KT 10SM BKN100 02/M02 A2993 1070 72 -100 040/04 RMK AO2 TSNO
94908KDBQ DBQ20050429043510804/29/05 04:35:31  5-MIN KDBQ 291035Z AUTO 04004KT 10SM SCT100 02/M02 A2993 1070 72 -100 030/04 RMK AO2 TSNO
94908KDBQ DBQ20050429044010804/29/05 04:40:31  5-MIN KDBQ 291040Z AUTO 04003KT 10SM BKN100 02/M02 A2993 1070 72 -100 030/03 RMK AO2 TSNO
94908KDBQ DBQ20050429044510804/29/05 04:45:31  5-MIN KDBQ 291045Z AUTO 00000KT 10SM BKN100 03/M02 A2993 1070 69 -100 000/00 RMK AO2 TSNO
94908KDBQ DBQ20050429045011504/29/05 04:50:31  5-MIN KDBQ 291050Z 04003KT 10SM BKN100 03/M02 A2993 1070 69 -100 040/03 RMK AO2 SLP140 T00281022
94908KDBQ DBQ20050429045511504/29/05 04:55:31  5-MIN KDBQ 291055Z 04004KT 10SM BKN100 03/M02 A2993 1070 69 -100 040/04 RMK AO2 SLP141 T00281022
94908KDBQ DBQ20050429050009804/29/05 05:00:31  5-MIN KDBQ 291100Z 03005KT 10SM BKN100 03/M02 A2993 1070 69 -100 030/05 RMK AO2
94908KDBQ DBQ20050429050509804/29/05 05:05:31  5-MIN KDBQ 291105Z 03007KT 10SM SCT100 02/M02 A2993 1070 75 -200 020/07 RMK AO2
94908KDBQ DBQ20050429051009804/29/05 05:10:31  5-MIN KDBQ 291110Z 03008KT 10SM SCT100 02/M02 A2993 1070 75 -200 030/08 RMK AO2
94908KDBQ DBQ20050429051509804/29/05 05:15:31  5-MIN KDBQ 291115Z 03008KT 10SM FEW100 02/M02 A2993 1070 75 -200 030/08 RMK AO2
94908KDBQ DBQ20050429052009804/29/05 05:20:31  5-MIN KDBQ 291120Z 03007KT 10SM FEW100 02/M02 A2993 1070 78 -200 030/07 RMK AO2
94908KDBQ DBQ20050429052509504/29/05 05:25:31  5-MIN KDBQ 291125Z 03006KT 10SM CLR 02/M02 A2993 1060 78 -200 030/06 RMK AO2
94908KDBQ DBQ20050429053009504/29/05 05:30:31  5-MIN KDBQ 291130Z 03006KT 10SM CLR 02/M02 A2994 1060 78 -200 030/06 RMK AO2
94908KDBQ DBQ20050429053509504/29/05 05:35:31  5-MIN KDBQ 291135Z 03006KT 10SM CLR 02/M02 A2994 1060 78 -200 020/06 RMK AO2
94908KDBQ DBQ20050429054009504/29/05 05:40:31  5-MIN KDBQ 291140Z 02006KT 10SM CLR 02/M02 A2994 1060 75 -100 020/06 RMK AO2
94908KDBQ DBQ20050429054509504/29/05 05:45:31  5-MIN KDBQ 291145Z 03006KT 10SM CLR 02/M02 A2993 1060 75 -100 030/06 RMK AO2
94908KDBQ DBQ20050429055013004/29/05 05:50:31  5-MIN KDBQ 291150Z 03007KT 10SM CLR 03/M01 A2994 1060 75 -100 030/07 RMK AO2 SLP144 T00281011 10056 20011 56009
94908KDBQ DBQ20050429055513004/29/05 05:55:31  5-MIN KDBQ 291155Z 03008KT 10SM CLR 03/M02 A2994 1060 72 -100 030/08 RMK AO2 SLP145 T00281017 10056 20011 53002
94908KDBQ DBQ20050429060009204/29/05 06:00:31  5-MIN KDBQ 291200Z 03008KT 10SM CLR 03/M01 A2994 1060 72 0 030/08 RMK AO2
94908KDBQ DBQ20050429060509204/29/05 06:05:31  5-MIN KDBQ 291205Z 03008KT 10SM CLR 03/M01 A2994 1060 72 0 030/08 RMK AO2
94908KDBQ DBQ20050429061009204/29/05 06:10:31  5-MIN KDBQ 291210Z 03008KT 10SM CLR 03/M01 A2994 1060 76 0 030/08 RMK AO2
94908KDBQ DBQ20050429061509204/29/05 06:15:31  5-MIN KDBQ 291215Z 03008KT 10SM CLR 03/M01 A2994 1060 76 0 030/08 RMK AO2
94908KDBQ DBQ20050429062009204/29/05 06:20:31  5-MIN KDBQ 291220Z 03008KT 10SM CLR 04/M01 A2994 1060 73 0 030/08 RMK AO2
94908KDBQ DBQ20050429062509204/29/05 06:25:31  5-MIN KDBQ 291225Z 04008KT 10SM CLR 04/M01 A2994 1060 73 0 030/08 RMK AO2
94908KDBQ DBQ20050429063009204/29/05 06:30:31  5-MIN KDBQ 291230Z 04008KT 10SM CLR 04/M01 A2994 1060 70 0 040/08 RMK AO2
94908KDBQ DBQ20050429063509204/29/05 06:35:31  5-MIN KDBQ 291235Z 04008KT 10SM CLR 04/M01 A2994 1060 73 0 030/08 RMK AO2
94908KDBQ DBQ20050429064009204/29/05 06:40:31  5-MIN KDBQ 291240Z 04008KT 10SM CLR 04/M01 A2994 1060 73 0 030/08 RMK AO2
94908KDBQ DBQ20050429064509404/29/05 06:45:31  5-MIN KDBQ 291245Z 03008KT 10SM CLR 04/M01 A2995 1050 70 100 030/08 RMK AO2
94908KDBQ DBQ20050429065011104/29/05 06:50:31  5-MIN KDBQ 291250Z 03007KT 10SM CLR 04/M01 A2995 1050 70 100 030/07 RMK AO2 SLP148 T00441006
94908KDBQ DBQ20050429065511104/29/05 06:55:31  5-MIN KDBQ 291255Z 03007KT 10SM CLR 04/M01 A2995 1050 70 100 030/07 RMK AO2 SLP149 T00441006
94908KDBQ DBQ20050429070009404/29/05 07:00:31  5-MIN KDBQ 291300Z 03007KT 10SM CLR 04/M01 A2995 1050 70 100 030/07 RMK AO2
94908KDBQ DBQ20050429070509404/29/05 07:05:31  5-MIN KDBQ 291305Z 04006KT 10SM CLR 05/M01 A2995 1050 67 100 040/06 RMK AO2
94908KDBQ DBQ20050429071009404/29/05 07:10:31  5-MIN KDBQ 291310Z 04006KT 10SM CLR 05/M01 A2995 1050 67 100 040/06 RMK AO2
94908KDBQ DBQ20050429071509404/29/05 07:15:31  5-MIN KDBQ 291315Z 03006KT 10SM CLR 05/M01 A2996 1040 64 100 030/06 RMK AO2
94908KDBQ DBQ20050429072009404/29/05 07:20:31  5-MIN KDBQ 291320Z 04006KT 10SM CLR 06/M01 A2996 1050 65 200 040/06 RMK AO2
94908KDBQ DBQ20050429072509404/29/05 07:25:31  5-MIN KDBQ 291325Z 04006KT 10SM CLR 06/M01 A2997 1030 62 300 040/06 RMK AO2
94908KDBQ DBQ20050429073009404/29/05 07:30:31  5-MIN KDBQ 291330Z 04006KT 10SM CLR 06/M01 A2997 1030 62 200 040/06 RMK AO2
94908KDBQ DBQ20050429073509404/29/05 07:35:31  5-MIN KDBQ 291335Z 04006KT 10SM CLR 06/M01 A2997 1030 62 200 040/06 RMK AO2
94908KDBQ DBQ20050429074009404/29/05 07:40:31  5-MIN KDBQ 291340Z 04005KT 10SM CLR 07/M01 A2997 1030 57 300 040/05 RMK AO2
94908KDBQ DBQ20050429074509404/29/05 07:45:31  5-MIN KDBQ 291345Z 05005KT 10SM CLR 07/M01 A2997 1030 60 300 050/05 RMK AO2
94908KDBQ DBQ20050429075011004/29/05 07:50:31  5-MIN KDBQ 291350Z 03004KT 10SM CLR 07/00 A2997 1030 60 400 030/04 RMK AO2 SLP154 T00720000
94908KDBQ DBQ20050429075511004/29/05 07:55:31  5-MIN KDBQ 291355Z 03004KT 10SM CLR 07/00 A2997 1030 60 400 030/04 RMK AO2 SLP154 T00720000
94908KDBQ DBQ20050429080009304/29/05 08:00:31  5-MIN KDBQ 291400Z 03005KT 10SM CLR 08/01 A2997 1030 60 500 030/05 RMK AO2
94908KDBQ DBQ20050429080509304/29/05 08:05:31  5-MIN KDBQ 291405Z 04005KT 10SM CLR 08/00 A2997 1030 55 500 040/05 RMK AO2
94908KDBQ DBQ20050429081009304/29/05 08:10:31  5-MIN KDBQ 291410Z 04005KT 10SM CLR 08/01 A2997 1030 58 500 040/05 RMK AO2
94908KDBQ DBQ20050429081509304/29/05 08:15:31  5-MIN KDBQ 291415Z 05004KT 10SM CLR 09/01 A2997 1030 56 600 050/04 RMK AO2
94908KDBQ DBQ20050429082009304/29/05 08:20:31  5-MIN KDBQ 291420Z 00000KT 10SM CLR 09/01 A2996 1040 53 700 000/00 RMK AO2
94908KDBQ DBQ20050429082509304/29/05 08:25:31  5-MIN KDBQ 291425Z 06004KT 10SM CLR 09/00 A2996 1040 51 700 060/04 RMK AO2
94908KDBQ DBQ20050429083009404/29/05 08:30:31  5-MIN KDBQ 291430Z 04005KT 10SM CLR 09/M01 A2996 1040 49 700 040/05 RMK AO2
94908KDBQ DBQ20050429083509404/29/05 08:35:31  5-MIN KDBQ 291435Z 05006KT 10SM CLR 10/M01 A2996 1040 46 700 050/06 RMK AO2
94908KDBQ DBQ20050429084009404/29/05 08:40:31  5-MIN KDBQ 291440Z 04007KT 10SM CLR 10/M01 A2996 1040 46 700 040/07 RMK AO2
94908KDBQ DBQ20050429084509404/29/05 08:45:31  5-MIN KDBQ 291445Z 03009KT 10SM CLR 10/M02 A2996 1040 44 700 030/09 RMK AO2
94908KDBQ DBQ20050429085011704/29/05 08:50:31  5-MIN KDBQ 291450Z 03004KT 10SM CLR 10/M02 A2997 1040 42 700 030/04 RMK AO2 SLP152 T01001022 53002
94908KDBQ DBQ20050429085511704/29/05 08:55:31  5-MIN KDBQ 291455Z 05009KT 10SM CLR 10/M02 A2997 1040 42 700 050/09 RMK AO2 SLP152 T01001022 50009
94908KDBQ DBQ20050429090009404/29/05 09:00:31  5-MIN KDBQ 291500Z 05008KT 10SM CLR 10/M03 A2996 1040 40 700 050/08 RMK AO2
94908KDBQ DBQ20050429090509404/29/05 09:05:31  5-MIN KDBQ 291505Z 09007KT 10SM CLR 10/M03 A2996 1040 40 700 090/07 RMK AO2
94908KDBQ DBQ20050429091009404/29/05 09:10:31  5-MIN KDBQ 291510Z 09007KT 10SM CLR 11/M03 A2996 1040 39 800 090/07 RMK AO2
94908KDBQ DBQ20050429091509404/29/05 09:15:31  5-MIN KDBQ 291515Z 09008KT 10SM CLR 10/M04 A2996 1040 37 700 090/08 RMK AO2
94908KDBQ DBQ20050429092011004/29/05 09:20:31  5-MIN KDBQ 291520Z 08007KT 050V110 10SM CLR 10/M04 A2996 1040 37 700 080/07 050V110 RMK AO2
94908KDBQ DBQ20050429092509404/29/05 09:25:31  5-MIN KDBQ 291525Z 05007KT 10SM CLR 11/M03 A2996 1040 37 800 050/07 RMK AO2
94908KDBQ DBQ20050429093009404/29/05 09:30:31  5-MIN KDBQ 291530Z 03007KT 10SM CLR 11/M03 A2996 1040 37 800 030/07 RMK AO2
94908KDBQ DBQ20050429093509404/29/05 09:35:31  5-MIN KDBQ 291535Z 03007KT 10SM CLR 11/M03 A2996 1040 39 800 030/07 RMK AO2
94908KDBQ DBQ20050429094009404/29/05 09:40:31  5-MIN KDBQ 291540Z VRB03KT 10SM CLR 11/M03 A2996 1040 39 800 VRB/03 RMK AO2
94908KDBQ DBQ20050429094509404/29/05 09:45:31  5-MIN KDBQ 291545Z 06005KT 10SM CLR 11/M03 A2996 1040 37 800 050/05 RMK AO2
94908KDBQ DBQ20050429095011104/29/05 09:50:31  5-MIN KDBQ 291550Z 00000KT 10SM CLR 10/M04 A2996 1040 36 700 000/00 RMK AO2 SLP150 T01001044
94908KDBQ DBQ20050429095511104/29/05 09:55:31  5-MIN KDBQ 291555Z VRB04KT 10SM CLR 11/M04 A2996 1050 36 800 VRB/04 RMK AO2 SLP149 T01061039
94908KDBQ DBQ20050429100009404/29/05 10:00:31  5-MIN KDBQ 291600Z 36007KT 10SM CLR 11/M02 A2996 1050 39 900 360/07 RMK AO2
94908KDBQ DBQ20050429100509404/29/05 10:05:31  5-MIN KDBQ 291605Z 04007KT 10SM CLR 10/M03 A2996 1050 39 700 040/07 RMK AO2
94908KDBQ DBQ20050429101009404/29/05 10:10:31  5-MIN KDBQ 291610Z 34007KT 10SM CLR 10/M04 A2995 1050 36 700 340/07 RMK AO2
94908KDBQ DBQ20050429101509404/29/05 10:15:31  5-MIN KDBQ 291615Z VRB03KT 10SM CLR 11/M04 A2995 1050 36 800 VRB/03 RMK AO2
94908KDBQ DBQ20050429102009404/29/05 10:20:31  5-MIN KDBQ 291620Z VRB05KT 10SM CLR 11/M03 A2995 1050 36 900 VRB/05 RMK AO2
94908KDBQ DBQ20050429102509404/29/05 10:25:31  5-MIN KDBQ 291625Z 03005KT 10SM CLR 12/M03 A2995 1050 36 900 030/05 RMK AO2
94908KDBQ DBQ20050429103009404/29/05 10:30:31  5-MIN KDBQ 291630Z 00000KT 10SM CLR 11/M04 A2995 1050 34 800 000/00 RMK AO2
94908KDBQ DBQ20050429103509404/29/05 10:35:31  5-MIN KDBQ 291635Z VRB03KT 10SM CLR 11/M05 A2995 1050 33 800 VRB/03 RMK AO2
94908KDBQ DBQ20050429104009404/29/05 10:40:31  5-MIN KDBQ 291640Z 10004KT 10SM CLR 11/M05 A2995 1050 33 800 100/04 RMK AO2
94908KDBQ DBQ20050429104509704/29/05 10:45:31  5-MIN KDBQ 291645Z 00000KT 10SM FEW070 11/M04 A2994 1060 34 800 000/00 RMK AO2
94908KDBQ DBQ20050429105011504/29/05 10:50:31  5-MIN KDBQ 291650Z 01007KT 10SM SCT070 12/M02 A2994 1060 36 1000 010/07 RMK AO2 SLP144 T01221022
94908KDBQ DBQ20050429105511504/29/05 10:55:31  5-MIN KDBQ 291655Z 02006KT 10SM BKN070 12/M03 A2994 1060 33 1000 020/06 RMK AO2 SLP144 T01221033
94908KDBQ DBQ20050429110009804/29/05 11:00:31  5-MIN KDBQ 291700Z 34008KT 10SM BKN070 12/M02 A2995 1060 36 1000 340/08 RMK AO2
94908KDBQ DBQ20050429110509704/29/05 11:05:31  5-MIN KDBQ 291705Z 32005KT 10SM BKN070 11/M04 A2994 1060 34 900 320/05 RMK AO2
94908KDBQ DBQ20050429111009704/29/05 11:10:31  5-MIN KDBQ 291710Z VRB03KT 10SM SCT070 11/M04 A2994 1060 34 800 VRB/03 RMK AO2
94908KDBQ DBQ20050429111509704/29/05 11:15:31  5-MIN KDBQ 291715Z VRB03KT 10SM SCT070 11/M04 A2994 1060 33 900 VRB/03 RMK AO2
94908KDBQ DBQ20050429112009704/29/05 11:20:31  5-MIN KDBQ 291720Z 00000KT 10SM SCT070 11/M04 A2994 1060 34 900 000/00 RMK AO2
94908KDBQ DBQ20050429112509704/29/05 11:25:31  5-MIN KDBQ 291725Z 26004KT 10SM FEW070 11/M04 A2994 1060 34 900 260/04 RMK AO2
94908KDBQ DBQ20050429113009704/29/05 11:30:31  5-MIN KDBQ 291730Z 00000KT 10SM FEW070 11/M05 A2994 1060 32 900 000/00 RMK AO2
94908KDBQ DBQ20050429113509704/29/05 11:35:31  5-MIN KDBQ 291735Z 00000KT 10SM SCT070 11/M06 A2994 1060 31 800 000/00 RMK AO2
94908KDBQ DBQ20050429114009704/29/05 11:40:31  5-MIN KDBQ 291740Z 15005KT 10SM BKN070 11/M05 A2994 1060 32 900 150/05 RMK AO2
94908KDBQ DBQ20050429114509704/29/05 11:45:31  5-MIN KDBQ 291745Z 35004KT 10SM BKN070 11/M05 A2993 1070 32 900 350/04 RMK AO2
94908KDBQ DBQ20050429115013304/29/05 11:50:31  5-MIN KDBQ 291750Z 34009KT 10SM BKN070 12/M04 A2993 1070 33 1000 340/09 RMK AO2 SLP141 T01171039 10122 20028 50009
94908KDBQ DBQ20050429115513304/29/05 11:55:31  5-MIN KDBQ 291755Z 34007KT 10SM BKN070 12/M04 A2993 1070 33 1000 340/07 RMK AO2 SLP140 T01171039 10122 20028 58012
94908KDBQ DBQ20050429120009704/29/05 12:00:31  5-MIN KDBQ 291800Z 31003KT 10SM BKN070 11/M04 A2993 1070 34 900 310/03 RMK AO2
94908KDBQ DBQ20050429120509804/29/05 12:05:31  5-MIN KDBQ 291805Z 00000KT 10SM SCT070 12/M04 A2993 1070 32 1000 000/00 RMK AO2
94908KDBQ DBQ20050429121009804/29/05 12:10:31  5-MIN KDBQ 291810Z 00000KT 10SM BKN070 12/M05 A2993 1070 30 1000 000/00 RMK AO2
94908KDBQ DBQ20050429121510504/29/05 12:15:31  5-MIN KDBQ 291815Z 00000KT 10SM BKN070 BKN085 11/M05  A2993 1070 32 900 000/00 RMK AO2
94908KDBQ DBQ20050429122009704/29/05 12:20:31  5-MIN KDBQ 291820Z 00000KT 10SM BKN070 11/M04 A2993 1070 33 900 000/00 RMK AO2
94908KDBQ DBQ20050429122509704/29/05 12:25:31  5-MIN KDBQ 291825Z 20004KT 10SM BKN070 11/M05 A2993 1070 32 900 190/04 RMK AO2
94908KDBQ DBQ20050429123009704/29/05 12:30:31  5-MIN KDBQ 291830Z 00000KT 10SM OVC070 11/M04 A2993 1070 33 900 000/00 RMK AO2
94908KDBQ DBQ20050429123510504/29/05 12:35:31  5-MIN KDBQ 291835Z 00000KT 10SM BKN070 OVC100 11/M04  A2993 1070 33 900 000/00 RMK AO2
94908KDBQ DBQ20050429124010604/29/05 12:40:31  5-MIN KDBQ 291840Z 00000KT 10SM BKN070 BKN100 12/M04  A2993 1070 33 1000 000/00 RMK AO2
94908KDBQ DBQ20050429124510604/29/05 12:45:31  5-MIN KDBQ 291845Z 00000KT 10SM SCT070 BKN100 12/M04  A2993 1070 33 1000 000/00 RMK AO2
94908KDBQ DBQ20050429125012304/29/05 12:50:31  5-MIN KDBQ 291850Z 00000KT 10SM SCT070 BKN100 12/M04  A2993 1070 32 1000 000/00 RMK AO2 SLP139 T01171044
94908KDBQ DBQ20050429125512304/29/05 12:55:31  5-MIN KDBQ 291855Z 00000KT 10SM SCT075 BKN100 12/M04  A2992 1070 32 1000 000/00 RMK AO2 SLP138 T01221039
94908KDBQ DBQ20050429130010604/29/05 13:00:31  5-MIN KDBQ 291900Z 00000KT 10SM SCT075 BKN100 12/M04  A2992 1080 32 1000 000/00 RMK AO2
94908KDBQ DBQ20050429130510604/29/05 13:05:31  5-MIN KDBQ 291905Z 03004KT 10SM BKN070 BKN100 12/M03  A2992 1070 35 1000 030/04 RMK AO2
94908KDBQ DBQ20050429131010604/29/05 13:10:31  5-MIN KDBQ 291910Z 08006KT 10SM BKN070 BKN100 12/M03  A2992 1080 35 1000 080/06 RMK AO2
94908KDBQ DBQ20050429131510504/29/05 13:15:31  5-MIN KDBQ 291915Z 07005KT 10SM BKN070 OVC100 11/M04  A2992 1070 33 900 070/05 RMK AO2
94908KDBQ DBQ20050429132009804/29/05 13:20:31  5-MIN KDBQ 291920Z 05003KT 10SM OVC070 12/M04 A2993 1070 33 1000 040/03 RMK AO2
94908KDBQ DBQ20050429132509804/29/05 13:25:31  5-MIN KDBQ 291925Z VRB04KT 10SM OVC070 12/M03 A2993 1070 35 1000 VRB/04 RMK AO2
94908KDBQ DBQ20050429133009804/29/05 13:30:31  5-MIN KDBQ 291930Z 33005KT 10SM OVC070 12/M03 A2992 1070 35 1000 330/05 RMK AO2
94908KDBQ DBQ20050429133509804/29/05 13:35:31  5-MIN KDBQ 291935Z 34005KT 10SM OVC070 12/M03 A2993 1070 36 1000 340/05 RMK AO2
94908KDBQ DBQ20050429134009704/29/05 13:40:31  5-MIN KDBQ 291940Z 33005KT 10SM OVC070 11/M03 A2993 1070 36 900 330/05 RMK AO2
94908KDBQ DBQ20050429134509804/29/05 13:45:31  5-MIN KDBQ 291945Z 01004KT 10SM OVC070 12/M03 A2993 1070 36 1000 010/04 RMK AO2
94908KDBQ DBQ20050429135011504/29/05 13:50:31  5-MIN KDBQ 291950Z 00000KT 10SM OVC070 12/M04 A2993 1070 32 1000 000/00 RMK AO2 SLP140 T01171044
94908KDBQ DBQ20050429135511504/29/05 13:55:31  5-MIN KDBQ 291955Z 36004KT 10SM OVC070 12/M03 A2993 1070 35 1000 360/04 RMK AO2 SLP140 T01171033
94908KDBQ DBQ20050429140009804/29/05 14:00:31  5-MIN KDBQ 292000Z 00000KT 10SM BKN075 12/M04 A2993 1070 32 1000 000/00 RMK AO2
94908KDBQ DBQ20050429140509804/29/05 14:05:31  5-MIN KDBQ 292005Z 00000KT 10SM BKN070 12/M04 A2993 1070 32 1000 000/00 RMK AO2
94908KDBQ DBQ20050429141009704/29/05 14:10:31  5-MIN KDBQ 292010Z 00000KT 10SM BKN075 11/M04 A2992 1080 33 900 000/00 RMK AO2
94908KDBQ DBQ20050429141509804/29/05 14:15:31  5-MIN KDBQ 292015Z 00000KT 10SM BKN075 12/M04 A2992 1080 32 1000 000/00 RMK AO2
94908KDBQ DBQ20050429142009704/29/05 14:20:31  5-MIN KDBQ 292020Z 00000KT 10SM BKN075 11/M04 A2992 1070 33 900 000/00 RMK AO2
94908KDBQ DBQ20050429142509804/29/05 14:25:31  5-MIN KDBQ 292025Z 00000KT 10SM BKN075 12/M04 A2992 1080 33 1000 000/00 RMK AO2
94908KDBQ DBQ20050429143009804/29/05 14:30:31  5-MIN KDBQ 292030Z 00000KT 10SM BKN070 12/M04 A2992 1080 32 1000 000/00 RMK AO2
94908KDBQ DBQ20050429143509804/29/05 14:35:31  5-MIN KDBQ 292035Z 00000KT 10SM OVC070 12/M04 A2992 1080 33 1000 000/00 RMK AO2
94908KDBQ DBQ20050429144009804/29/05 14:40:31  5-MIN KDBQ 292040Z 00000KT 10SM OVC070 12/M04 A2992 1080 32 1000 000/00 RMK AO2
94908KDBQ DBQ20050429144509804/29/05 14:45:31  5-MIN KDBQ 292045Z 00000KT 10SM OVC070 12/M03 A2992 1080 35 1000 000/00 RMK AO2
94908KDBQ DBQ20050429145012104/29/05 14:50:31  5-MIN KDBQ 292050Z 27006KT 10SM OVC070 12/M03 A2992 1080 36 1000 270/06 RMK AO2 SLP137 T01171028 58012
94908KDBQ DBQ20050429145512004/29/05 14:55:31  5-MIN KDBQ 292055Z 25008KT 10SM OVC070 11/M03 A2992 1080 37 900 250/08 RMK AO2 SLP137 T01111028 58005
94908KDBQ DBQ20050429150009704/29/05 15:00:31  5-MIN KDBQ 292100Z 24006KT 10SM OVC070 11/M03 A2991 1090 37 900 240/06 RMK AO2
94908KDBQ DBQ20050429150509704/29/05 15:05:31  5-MIN KDBQ 292105Z 26004KT 10SM OVC070 11/M03 A2991 1090 36 900 260/04 RMK AO2
94908KDBQ DBQ20050429151009704/29/05 15:10:31  5-MIN KDBQ 292110Z 27003KT 10SM OVC070 11/M03 A2991 1090 37 900 270/03 RMK AO2
94908KDBQ DBQ20050429151509804/29/05 15:15:31  5-MIN KDBQ 292115Z 30005KT 10SM BKN070 12/M03 A2991 1090 35 1000 300/05 RMK AO2
94908KDBQ DBQ20050429152009804/29/05 15:20:31  5-MIN KDBQ 292120Z 27008KT 10SM BKN070 12/M03 A2991 1090 35 1000 270/08 RMK AO2
94908KDBQ DBQ20050429152509804/29/05 15:25:31  5-MIN KDBQ 292125Z VRB03KT 10SM BKN070 12/M04 A2991 1090 33 1000 VRB/03 RMK AO2
94908KDBQ DBQ20050429153009804/29/05 15:30:31  5-MIN KDBQ 292130Z 00000KT 10SM BKN070 12/M04 A2991 1090 33 1000 000/00 RMK AO2
94908KDBQ DBQ20050429153509804/29/05 15:35:31  5-MIN KDBQ 292135Z 08004KT 10SM BKN070 12/M04 A2991 1090 33 1000 080/04 RMK AO2
94908KDBQ DBQ20050429154009804/29/05 15:40:31  5-MIN KDBQ 292140Z 00000KT 10SM BKN070 12/M04 A2991 1090 33 1000 000/00 RMK AO2
94908KDBQ DBQ20050429154509804/29/05 15:45:31  5-MIN KDBQ 292145Z VRB04KT 10SM BKN070 12/M03 A2991 1090 35 1100 VRB/04 RMK AO2
94908KDBQ DBQ20050429155011504/29/05 15:50:31  5-MIN KDBQ 292150Z 28007KT 10SM OVC070 12/M03 A2991 1090 36 1000 280/07 RMK AO2 SLP133 T01171028
94908KDBQ DBQ20050429155511404/29/05 15:55:31  5-MIN KDBQ 292155Z VRB05KT 10SM OVC070 11/M03 A2991 1090 37 900 VRB/05 RMK AO2 SLP132 T01111028
94908KDBQ DBQ20050429160010504/29/05 16:00:31  5-MIN KDBQ 292200Z 27008KT 10SM BKN065 OVC085 11/M03  A2991 1090 37 900 270/08 RMK AO2
94908KDBQ DBQ20050429160510504/29/05 16:05:31  5-MIN KDBQ 292205Z VRB04KT 10SM BKN070 OVC085 11/M03  A2991 1090 36 900 VRB/04 RMK AO2
94908KDBQ DBQ20050429161010504/29/05 16:10:31  5-MIN KDBQ 292210Z 30006KT 10SM BKN070 OVC085 11/M03  A2991 1090 37 900 300/06 RMK AO2
94908KDBQ DBQ20050429161510504/29/05 16:15:31  5-MIN KDBQ 292215Z 28010KT 10SM BKN070 BKN085 11/M02  A2991 1090 39 900 280/10 RMK AO2
94908KDBQ DBQ20050429162010504/29/05 16:20:31  5-MIN KDBQ 292220Z 28009KT 10SM SCT070 BKN085 11/M02  A2991 1090 39 900 270/09 RMK AO2
94908KDBQ DBQ20050429162510504/29/05 16:25:31  5-MIN KDBQ 292225Z 30009KT 10SM FEW070 SCT085 11/M02  A2991 1090 39 900 300/09 RMK AO2
94908KDBQ DBQ20050429163010504/29/05 16:30:31  5-MIN KDBQ 292230Z 28009KT 10SM SCT070 SCT085 11/M02  A2991 1090 41 900 280/09 RMK AO2
94908KDBQ DBQ20050429163510504/29/05 16:35:31  5-MIN KDBQ 292235Z 28008KT 10SM SCT070 SCT085 11/M02  A2991 1090 39 900 270/08 RMK AO2
94908KDBQ DBQ20050429164010504/29/05 16:40:31  5-MIN KDBQ 292240Z 29006KT 10SM SCT070 BKN085 11/M02  A2991 1090 41 900 290/06 RMK AO2
94908KDBQ DBQ20050429164510504/29/05 16:45:31  5-MIN KDBQ 292245Z 30008KT 10SM SCT070 BKN085 11/M02  A2991 1090 39 900 300/08 RMK AO2
94908KDBQ DBQ20050429165012204/29/05 16:50:31  5-MIN KDBQ 292250Z 30007KT 10SM SCT070 BKN085 11/M02  A2991 1090 40 900 300/07 RMK AO2 SLP135 T01061022
94908KDBQ DBQ20050429165512204/29/05 16:55:31  5-MIN KDBQ 292255Z 31008KT 10SM BKN070 OVC085 11/M02  A2991 1080 41 900 310/08 RMK AO2 SLP135 T01111017
94908KDBQ DBQ20050429170010504/29/05 17:00:31  5-MIN KDBQ 292300Z 30007KT 10SM BKN075 OVC085 11/M02  A2991 1090 39 900 300/07 RMK AO2
94908KDBQ DBQ20050429170510504/29/05 17:05:31  5-MIN KDBQ 292305Z 28007KT 10SM SCT070 OVC085 11/M02  A2991 1090 40 900 280/07 RMK AO2
94908KDBQ DBQ20050429171009704/29/05 17:10:31  5-MIN KDBQ 292310Z 29007KT 10SM OVC080 11/M02 A2991 1080 40 900 290/07 RMK AO2
94908KDBQ DBQ20050429171509704/29/05 17:15:31  5-MIN KDBQ 292315Z 29007KT 10SM OVC080 11/M02 A2991 1090 42 900 290/07 RMK AO2
94908KDBQ DBQ20050429172010504/29/05 17:20:31  5-MIN KDBQ 292320Z 30007KT 10SM BKN075 OVC090 11/M02  A2991 1080 40 900 300/07 RMK AO2
94908KDBQ DBQ20050429172510504/29/05 17:25:31  5-MIN KDBQ 292325Z 30005KT 10SM SCT070 OVC085 11/M02  A2991 1080 40 900 300/05 RMK AO2
94908KDBQ DBQ20050429173010504/29/05 17:30:31  5-MIN KDBQ 292330Z 31006KT 10SM FEW070 OVC085 11/M02  A2991 1090 40 900 310/06 RMK AO2
94908KDBQ DBQ20050429173509704/29/05 17:35:31  5-MIN KDBQ 292335Z 31006KT 10SM OVC080 11/M01 A2991 1090 44 900 310/06 RMK AO2
94908KDBQ DBQ20050429174010504/29/05 17:40:31  5-MIN KDBQ 292340Z 31007KT 10SM BKN075 OVC085 10/M02  A2991 1080 44 800 310/07 RMK AO2
94908KDBQ DBQ20050429174510504/29/05 17:45:31  5-MIN KDBQ 292345Z 31006KT 10SM BKN070 OVC080 10/M02  A2992 1080 44 800 310/06 RMK AO2
94908KDBQ DBQ20050429175014004/29/05 17:50:31  5-MIN KDBQ 292350Z 34012KT 10SM BKN060 OVC080 10/M01  A2992 1080 46 800 340/12 RMK AO2 SLP138 T01001011 10122 20100 58005
94908KDBQ DBQ20050429175514004/29/05 17:55:31  5-MIN KDBQ 292355Z 34011KT 10SM BKN060 OVC080 09/M01  A2992 1080 49 600 340/11 RMK AO2 SLP139 T00891011 10122 20089 53001
94908KDBQ DBQ20050429180009704/29/05 18:00:31  5-MIN KDBQ 300000Z 34011KT 10SM OVC070 09/M01 A2992 1080 49 600 340/11 RMK AO2
94908KDBQ DBQ20050429180509704/29/05 18:05:31  5-MIN KDBQ 300005Z 34011KT 10SM OVC065 09/M01 A2992 1080 49 600 340/11 RMK AO2
94908KDBQ DBQ20050429181009704/29/05 18:10:31  5-MIN KDBQ 300010Z 35010KT 10SM OVC065 09/M01 A2991 1090 49 700 350/10 RMK AO2
94908KDBQ DBQ20050429181509704/29/05 18:15:31  5-MIN KDBQ 300015Z 35008KT 10SM OVC065 09/M01 A2991 1090 51 700 350/08 RMK AO2
94908KDBQ DBQ20050429182009704/29/05 18:20:31  5-MIN KDBQ 300020Z 35009KT 10SM OVC065 09/M01 A2991 1080 49 700 350/09 RMK AO2
94908KDBQ DBQ20050429182509704/29/05 18:25:31  5-MIN KDBQ 300025Z 35008KT 10SM OVC065 09/M01 A2991 1080 51 700 340/08 RMK AO2
94908KDBQ DBQ20050429183009704/29/05 18:30:31  5-MIN KDBQ 300030Z 34009KT 10SM OVC065 09/M01 A2991 1090 51 700 340/09 RMK AO2
94908KDBQ DBQ20050429183509704/29/05 18:35:31  5-MIN KDBQ 300035Z 34008KT 10SM OVC065 08/M01 A2991 1090 51 600 340/08 RMK AO2
94908KDBQ DBQ20050429184010504/29/05 18:40:31  5-MIN KDBQ 300040Z 34009KT 10SM BKN070 OVC080 08/M01  A2991 1080 53 600 340/09 RMK AO2
94908KDBQ DBQ20050429184510504/29/05 18:45:31  5-MIN KDBQ 300045Z 35010KT 10SM BKN065 OVC080 08/M01  A2991 1080 51 600 340/10 RMK AO2
94908KDBQ DBQ20050429185012204/29/05 18:50:31  5-MIN KDBQ 300050Z 34010KT 10SM SCT065 OVC080 08/M01  A2992 1080 53 600 340/10 RMK AO2 SLP137 T00831006
94908KDBQ DBQ20050429185511404/29/05 18:55:31  5-MIN KDBQ 300055Z 34010KT 10SM OVC075 08/M01 A2992 1080 53 600 340/10 RMK AO2 SLP137 T00831006
94908KDBQ DBQ20050429190009704/29/05 19:00:31  5-MIN KDBQ 300100Z 34010KT 10SM OVC075 08/M01 A2992 1080 53 600 340/10 RMK AO2
94908KDBQ DBQ20050429190509704/29/05 19:05:31  5-MIN KDBQ 300105Z 34009KT 10SM OVC075 08/M01 A2992 1080 53 600 340/09 RMK AO2
94908KDBQ DBQ20050429191009704/29/05 19:10:31  5-MIN KDBQ 300110Z 35009KT 10SM OVC080 08/M01 A2992 1080 53 600 350/09 RMK AO2
94908KDBQ DBQ20050429191509704/29/05 19:15:31  5-MIN KDBQ 300115Z 34009KT 10SM OVC080 08/M01 A2992 1080 53 600 340/09 RMK AO2
94908KDBQ DBQ20050429192009704/29/05 19:20:31  5-MIN KDBQ 300120Z 35007KT 10SM OVC080 08/M01 A2992 1080 53 600 350/07 RMK AO2
94908KDBQ DBQ20050429192510404/29/05 19:25:31  5-MIN KDBQ 300125Z 35007KT 10SM FEW070 OVC085 08/00  A2992 1070 58 500 350/07 RMK AO2
94908KDBQ DBQ20050429193010504/29/05 19:30:31  5-MIN KDBQ 300130Z 35008KT 10SM FEW070 OVC085 08/M01  A2992 1080 53 600 350/08 RMK AO2
94908KDBQ DBQ20050429193510504/29/05 19:35:31  5-MIN KDBQ 300135Z 35008KT 10SM FEW070 OVC085 08/M01  A2992 1080 53 600 350/08 RMK AO2
94908KDBQ DBQ20050429194009704/29/05 19:40:31  5-MIN KDBQ 300140Z 35007KT 10SM OVC085 08/M01 A2993 1070 55 500 340/07 RMK AO2
94908KDBQ DBQ20050429194510504/29/05 19:45:31  5-MIN KDBQ 300145Z 35007KT 10SM FEW070 OVC085 08/M01  A2993 1070 55 500 340/07 RMK AO2
94908KDBQ DBQ20050429195012204/29/05 19:50:31  5-MIN KDBQ 300150Z 35008KT 10SM FEW070 OVC090 08/M01  A2993 1070 55 500 350/08 RMK AO2 SLP141 T00781006
94908KDBQ DBQ20050429195512204/29/05 19:55:31  5-MIN KDBQ 300155Z 35007KT 10SM FEW070 OVC090 08/M01  A2993 1070 55 500 350/07 RMK AO2 SLP141 T00781006
94908KDBQ DBQ20050429200010404/29/05 20:00:31  5-MIN KDBQ 300200Z 35007KT 10SM FEW065 OVC090 08/00  A2993 1070 58 500 350/07 RMK AO2
94908KDBQ DBQ20050429200510404/29/05 20:05:31  5-MIN KDBQ 300205Z 35006KT 10SM FEW065 OVC090 08/00  A2993 1070 58 500 350/06 RMK AO2
94908KDBQ DBQ20050429201010404/29/05 20:10:31  5-MIN KDBQ 300210Z 36006KT 10SM FEW065 OVC090 08/00  A2993 1070 58 500 360/06 RMK AO2
94908KDBQ DBQ20050429201510404/29/05 20:15:31  5-MIN KDBQ 300215Z 36006KT 10SM SCT065 OVC090 07/00  A2993 1070 60 400 360/06 RMK AO2
94908KDBQ DBQ20050429202010404/29/05 20:20:31  5-MIN KDBQ 300220Z 36006KT 10SM SCT065 OVC090 07/00  A2993 1070 60 400 360/06 RMK AO2
94908KDBQ DBQ20050429202510404/29/05 20:25:31  5-MIN KDBQ 300225Z 36006KT 10SM SCT065 OVC095 07/00  A2994 1060 60 400 360/06 RMK AO2
94908KDBQ DBQ20050429203010404/29/05 20:30:31  5-MIN KDBQ 300230Z 36005KT 10SM FEW065 OVC095 07/00  A2994 1060 62 400 360/05 RMK AO2
94908KDBQ DBQ20050429203510404/29/05 20:35:31  5-MIN KDBQ 300235Z 35006KT 10SM FEW065 OVC095 07/00  A2994 1060 62 400 350/06 RMK AO2
94908KDBQ DBQ20050429204010404/29/05 20:40:31  5-MIN KDBQ 300240Z 35006KT 10SM SCT065 OVC095 07/01  A2994 1060 65 400 350/06 RMK AO2
94908KDBQ DBQ20050429204510404/29/05 20:45:31  5-MIN KDBQ 300245Z 35005KT 10SM BKN070 OVC095 07/01  A2994 1060 65 400 350/05 RMK AO2
94908KDBQ DBQ20050429205012704/29/05 20:50:31  5-MIN KDBQ 300250Z 35005KT 10SM BKN070 OVC090 07/00  A2994 1060 62 300 350/05 RMK AO2 SLP144 T00670000 53001
94908KDBQ DBQ20050429205512704/29/05 20:55:31  5-MIN KDBQ 300255Z 35005KT 10SM BKN075 OVC095 07/01  A2994 1060 65 300 350/05 RMK AO2 SLP144 T00670006 53007
94908KDBQ DBQ20050429210010404/29/05 21:00:31  5-MIN KDBQ 300300Z 35005KT 10SM BKN070 OVC090 06/01  A2994 1060 67 300 340/05 RMK AO2
94908KDBQ DBQ20050429210510404/29/05 21:05:31  5-MIN KDBQ 300305Z 34006KT 10SM BKN070 OVC090 06/00  A2994 1060 65 300 340/06 RMK AO2
94908KDBQ DBQ20050429211010404/29/05 21:10:31  5-MIN KDBQ 300310Z 34006KT 10SM BKN070 OVC090 06/00  A2994 1060 65 300 340/06 RMK AO2
94908KDBQ DBQ20050429211510504/29/05 21:15:31  5-MIN KDBQ 300315Z 34005KT 10SM BKN070 OVC090 06/M01  A2994 1060 62 300 340/05 RMK AO2
94908KDBQ DBQ20050429212010504/29/05 21:20:31  5-MIN KDBQ 300320Z 33006KT 10SM BKN070 OVC090 06/M01  A2994 1060 62 300 330/06 RMK AO2
94908KDBQ DBQ20050429212510504/29/05 21:25:31  5-MIN KDBQ 300325Z 33006KT 10SM BKN075 OVC090 06/M01  A2994 1060 62 300 330/06 RMK AO2
94908KDBQ DBQ20050429213010504/29/05 21:30:31  5-MIN KDBQ 300330Z 34006KT 10SM BKN075 OVC090 06/M01  A2994 1060 62 300 340/06 RMK AO2
94908KDBQ DBQ20050429213509604/29/05 21:35:31  5-MIN KDBQ 300335Z 10SM BKN080 OVC090 06/M01 A2994 1060 62 200 M /M RMK AO2 $
94908KDBQ DBQ20050429214009604/29/05 21:40:31  5-MIN KDBQ 300340Z 10SM BKN080 OVC090 06/M01 A2994 1060 62 200 M /M RMK AO2 $
94908KDBQ DBQ20050429214509904/29/05 21:45:31  5-MIN KDBQ 300345Z 34006KT 10SM BKN080 06/M01 A2994 1060 62 200 340/06 RMK AO2 $
94908KDBQ DBQ20050429215010604/29/05 21:50:31  5-MIN KDBQ 300350Z 10SM BKN085 06/M01 A2994 1060 62 200 M /M RMK AO2 SLP143 T00561011 $
94908KDBQ DBQ20050429215510604/29/05 21:55:31  5-MIN KDBQ 300355Z 10SM SCT085 06/M02 A2993 1070 57 300 M /M RMK AO2 SLP141 T00611017 $
94908KDBQ DBQ20050429220008904/29/05 22:00:31  5-MIN KDBQ 300400Z 10SM FEW085 04/M02 A2993 1070 64 100 M /M RMK AO2 $
94908KDBQ DBQ20050429220509904/29/05 22:05:31  5-MIN KDBQ 300405Z 34004KT 10SM FEW080 05/M02 A2993 1070 62 200 340/04 RMK AO2 $
94908KDBQ DBQ20050429221009604/29/05 22:10:31  5-MIN KDBQ 300410Z 34004KT 10SM CLR 05/M02 A2993 1070 62 200 340/04 RMK AO2 $
94908KDBQ DBQ20050429221509604/29/05 22:15:31  5-MIN KDBQ 300415Z 34004KT 10SM CLR 06/M02 A2993 1070 57 300 340/04 RMK AO2 $
94908KDBQ DBQ20050429222009604/29/05 22:20:31  5-MIN KDBQ 300420Z 33004KT 10SM CLR 04/M02 A2993 1070 64 100 330/04 RMK AO2 $
94908KDBQ DBQ20050429222509404/29/05 22:25:31  5-MIN KDBQ 300425Z 32004KT 10SM CLR 04/M02 A2993 1070 64 0 320/04 RMK AO2 $
94908KDBQ DBQ20050429223009604/29/05 22:30:31  5-MIN KDBQ 300430Z 32004KT 10SM CLR 04/M02 A2993 1070 64 100 320/04 RMK AO2 $
94908KDBQ DBQ20050429223509404/29/05 22:35:31  5-MIN KDBQ 300435Z 32004KT 10SM CLR 04/M02 A2993 1070 67 0 320/04 RMK AO2 $
94908KDBQ DBQ20050429224009404/29/05 22:40:31  5-MIN KDBQ 300440Z 31003KT 10SM CLR 03/M02 A2993 1070 67 0 310/03 RMK AO2 $
94908KDBQ DBQ20050429224509404/29/05 22:45:31  5-MIN KDBQ 300445Z 00000KT 10SM CLR 03/M02 A2993 1070 67 0 000/00 RMK AO2 $
94908KDBQ DBQ20050429225011104/29/05 22:50:31  5-MIN KDBQ 300450Z 00000KT 10SM CLR 03/M02 A2993 1070 70 0 000/00 RMK AO2 SLP142 T00331017 $
94908KDBQ DBQ20050429225511104/29/05 22:55:31  5-MIN KDBQ 300455Z 00000KT 10SM CLR 03/M02 A2993 1070 70 0 000/00 RMK AO2 SLP142 T00331017 $
94908KDBQ DBQ20050429230009404/29/05 23:00:31  5-MIN KDBQ 300500Z 00000KT 10SM CLR 03/M01 A2993 1070 72 0 000/00 RMK AO2 $
94908KDBQ DBQ20050429230509704/29/05 23:05:31  5-MIN KDBQ 300505Z 00000KT 10SM CLR 03/M02 A2993 1070 72 -100 000/00 RMK AO2 $
94908KDBQ DBQ20050429231009704/29/05 23:10:31  5-MIN KDBQ 300510Z 00000KT 10SM CLR 03/M02 A2993 1070 72 -100 000/00 RMK AO2 $
94908KDBQ DBQ20050429231509704/29/05 23:15:31  5-MIN KDBQ 300515Z 00000KT 10SM CLR 03/M02 A2993 1070 72 -100 000/00 RMK AO2 $
94908KDBQ DBQ20050429232009704/29/05 23:20:31  5-MIN KDBQ 300520Z 00000KT 10SM CLR 02/M02 A2993 1070 75 -100 000/00 RMK AO2 $
94908KDBQ DBQ20050429232509704/29/05 23:25:31  5-MIN KDBQ 300525Z 00000KT 10SM CLR 02/M02 A2994 1060 72 -100 000/00 RMK AO2 $
94908KDBQ DBQ20050429233009704/29/05 23:30:31  5-MIN KDBQ 300530Z 00000KT 10SM CLR 03/M02 A2994 1060 69 -100 000/00 RMK AO2 $
94908KDBQ DBQ20050429233509704/29/05 23:35:31  5-MIN KDBQ 300535Z 00000KT 10SM CLR 03/M02 A2994 1060 69 -100 000/00 RMK AO2 $
94908KDBQ DBQ20050429234009704/29/05 23:40:31  5-MIN KDBQ 300540Z 00000KT 10SM CLR 03/M02 A2994 1060 69 -100 000/00 RMK AO2 $
94908KDBQ DBQ20050429234509704/29/05 23:45:31  5-MIN KDBQ 300545Z 00000KT 10SM CLR 03/M02 A2994 1060 69 -100 000/00 RMK AO2 $
94908KDBQ DBQ20050429235014204/29/05 23:50:31  5-MIN KDBQ 300550Z 00000KT 10SM CLR 03/M02 A2994 1060 69 -100 000/00 RMK AO2 SLP144 T00281022 10089 20022 401220011 53007 $
94908KDBQ DBQ20050429235514204/29/05 23:55:31  5-MIN KDBQ 300555Z 00000KT 10SM CLR 02/M03 A2994 1060 72 -200 000/00 RMK AO2 SLP144 T00171028 10089 20017 401220011 55001 $
94908KDBQ DBQ20050430000009704/30/05 00:00:38  5-MIN KDBQ 300600Z 00000KT 10SM CLR 02/M03 A2994 1060 72 -200 000/00 RMK AO2 $
94908KDBQ DBQ20050430000509704/30/05 00:05:31  5-MIN KDBQ 300605Z 00000KT 10SM CLR 02/M03 A2994 1060 72 -200 000/00 RMK AO2 $
94908KDBQ DBQ20050430001009704/30/05 00:10:31  5-MIN KDBQ 300610Z 00000KT 10SM CLR 02/M03 A2994 1060 69 -100 000/00 RMK AO2 $
94908KDBQ DBQ20050430001509704/30/05 00:15:32  5-MIN KDBQ 300615Z 00000KT 10SM CLR 02/M03 A2994 1060 72 -200 000/00 RMK AO2 $
94908KDBQ DBQ20050430002009704/30/05 00:20:31  5-MIN KDBQ 300620Z 00000KT 10SM CLR 02/M03 A2994 1060 72 -200 000/00 RMK AO2 $
94908KDBQ DBQ20050430002509704/30/05 00:25:31  5-MIN KDBQ 300625Z 30003KT 10SM CLR 02/M03 A2994 1060 69 -100 300/03 RMK AO2 $
94908KDBQ DBQ20050430003009704/30/05 00:30:31  5-MIN KDBQ 300630Z 31005KT 10SM CLR 02/M03 A2994 1060 72 -200 310/05 RMK AO2 $
94908KDBQ DBQ20050430003509704/30/05 00:35:31  5-MIN KDBQ 300635Z 32006KT 10SM CLR 02/M03 A2994 1060 72 -200 320/06 RMK AO2 $
94908KDBQ DBQ20050430004009704/30/05 00:40:31  5-MIN KDBQ 300640Z 32005KT 10SM CLR 01/M03 A2994 1060 72 -300 320/05 RMK AO2 $
94908KDBQ DBQ20050430004509704/30/05 00:45:31  5-MIN KDBQ 300645Z 32003KT 10SM CLR 01/M03 A2993 1070 72 -300 320/03 RMK AO2 $
94908KDBQ DBQ20050430005011404/30/05 00:50:31  5-MIN KDBQ 300650Z 31003KT 10SM CLR 02/M03 A2994 1060 69 -200 310/03 RMK AO2 SLP144 T00171033 $
94908KDBQ DBQ20050430005511404/30/05 00:55:31  5-MIN KDBQ 300655Z 32003KT 10SM CLR 02/M03 A2994 1060 69 -200 320/03 RMK AO2 SLP144 T00171033 $
94908KDBQ DBQ20050430010009704/30/05 01:00:31  5-MIN KDBQ 300700Z 33004KT 10SM CLR 02/M03 A2994 1060 69 -200 320/04 RMK AO2 $
94908KDBQ DBQ20050430010509704/30/05 01:05:31  5-MIN KDBQ 300705Z 33003KT 10SM CLR 02/M03 A2994 1060 69 -200 330/03 RMK AO2 $
94908KDBQ DBQ20050430011009704/30/05 01:10:31  5-MIN KDBQ 300710Z 00000KT 10SM CLR 02/M03 A2994 1060 67 -100 000/00 RMK AO2 $
94908KDBQ DBQ20050430011509704/30/05 01:15:31  5-MIN KDBQ 300715Z 00000KT 10SM CLR 02/M04 A2994 1060 66 -200 000/00 RMK AO2 $
94908KDBQ DBQ20050430012009704/30/05 01:20:31  5-MIN KDBQ 300720Z 33003KT 10SM CLR 01/M04 A2994 1060 69 -300 330/03 RMK AO2 $
94908KDBQ DBQ20050430012509704/30/05 01:25:31  5-MIN KDBQ 300725Z 34003KT 10SM CLR 01/M04 A2994 1060 69 -300 340/03 RMK AO2 $
94908KDBQ DBQ20050430013009704/30/05 01:30:31  5-MIN KDBQ 300730Z 34006KT 10SM CLR 01/M04 A2993 1070 69 -300 340/06 RMK AO2 $
94908KDBQ DBQ20050430013509704/30/05 01:35:31  5-MIN KDBQ 300735Z 36005KT 10SM CLR 02/M04 A2993 1070 64 -100 360/05 RMK AO2 $
94908KDBQ DBQ20050430014009404/30/05 01:40:31  5-MIN KDBQ 300740Z 36005KT 10SM CLR 04/M04 A2993 1070 57 0 360/05 RMK AO2 $
94908KDBQ DBQ20050430014509404/30/05 01:45:31  5-MIN KDBQ 300745Z 36004KT 10SM CLR 04/M04 A2993 1070 57 0 360/04 RMK AO2 $
94908KDBQ DBQ20050430015011104/30/05 01:50:31  5-MIN KDBQ 300750Z 36004KT 10SM CLR 03/M04 A2993 1070 59 0 360/04 RMK AO2 SLP141 T00331039 $
94908KDBQ DBQ20050430015511104/30/05 01:55:31  5-MIN KDBQ 300755Z 01005KT 10SM CLR 03/M04 A2993 1070 59 0 010/05 RMK AO2 SLP141 T00331039 $
94908KDBQ DBQ20050430020009404/30/05 02:00:31  5-MIN KDBQ 300800Z 35005KT 10SM CLR 03/M04 A2993 1070 59 0 350/05 RMK AO2 $
94908KDBQ DBQ20050430020509404/30/05 02:05:31  5-MIN KDBQ 300805Z 36004KT 10SM CLR 03/M04 A2993 1070 59 0 360/04 RMK AO2 $
94908KDBQ DBQ20050430021009404/30/05 02:10:31  5-MIN KDBQ 300810Z 36004KT 10SM CLR 04/M04 A2993 1070 57 0 360/04 RMK AO2 $
94908KDBQ DBQ20050430021509404/30/05 02:15:31  5-MIN KDBQ 300815Z 35004KT 10SM CLR 03/M04 A2993 1070 59 0 350/04 RMK AO2 $
94908KDBQ DBQ20050430022009704/30/05 02:20:31  5-MIN KDBQ 300820Z 35005KT 10SM CLR 03/M04 A2994 1060 61 -100 350/05 RMK AO2 $
94908KDBQ DBQ20050430022509404/30/05 02:25:31  5-MIN KDBQ 300825Z 34005KT 10SM CLR 04/M04 A2994 1060 57 0 340/05 RMK AO2 $
94908KDBQ DBQ20050430023009404/30/05 02:30:31  5-MIN KDBQ 300830Z 35004KT 10SM CLR 04/M04 A2994 1060 57 0 350/04 RMK AO2 $
94908KDBQ DBQ20050430023509404/30/05 02:35:31  5-MIN KDBQ 300835Z 35005KT 10SM CLR 04/M04 A2994 1060 57 0 340/05 RMK AO2 $
94908KDBQ DBQ20050430024009404/30/05 02:40:31  5-MIN KDBQ 300840Z 35004KT 10SM CLR 04/M04 A2994 1060 57 0 350/04 RMK AO2 $
94908KDBQ DBQ20050430024509404/30/05 02:45:31  5-MIN KDBQ 300845Z 35004KT 10SM CLR 04/M04 A2994 1060 57 0 350/04 RMK AO2 $
94908KDBQ DBQ20050430025011704/30/05 02:50:31  5-MIN KDBQ 300850Z 36004KT 10SM CLR 03/M04 A2994 1060 59 0 350/04 RMK AO2 SLP144 T00331039 55001 $
94908KDBQ DBQ20050430025511704/30/05 02:55:31  5-MIN KDBQ 300855Z 36004KT 10SM CLR 04/M04 A2994 1060 57 0 360/04 RMK AO2 SLP145 T00391039 53001 $
94908KDBQ DBQ20050430030009404/30/05 03:00:31  5-MIN KDBQ 300900Z 35004KT 10SM CLR 03/M04 A2994 1060 59 0 350/04 RMK AO2 $
94908KDBQ DBQ20050430030509404/30/05 03:05:31  5-MIN KDBQ 300905Z 36003KT 10SM CLR 03/M04 A2994 1060 59 0 360/03 RMK AO2 $
94908KDBQ DBQ20050430031009704/30/05 03:10:31  5-MIN KDBQ 300910Z 00000KT 10SM CLR 01/M04 A2994 1060 66 -300 000/00 RMK AO2 $
94908KDBQ DBQ20050430031509704/30/05 03:15:31  5-MIN KDBQ 300915Z 00000KT 10SM CLR 00/M04 A2994 1060 75 -400 000/00 RMK AO2 $
94908KDBQ DBQ20050430032009904/30/05 03:20:31  5-MIN KDBQ 300920Z 00000KT 10SM CLR M01/M04 A2994 1060  78 -500 000/00 RMK AO2 $
94908KDBQ DBQ20050430032509704/30/05 03:25:31  5-MIN KDBQ 300925Z 00000KT 10SM CLR 00/M04 A2995 1050 75 -400 000/00 RMK AO2 $
94908KDBQ DBQ20050430033009904/30/05 03:30:31  5-MIN KDBQ 300930Z 00000KT 10SM CLR M01/M04 A2995 1050  78 -500 000/00 RMK AO2 $
94908KDBQ DBQ20050430033509904/30/05 03:35:31  5-MIN KDBQ 300935Z 00000KT 10SM CLR M01/M04 A2995 1050  78 -600 000/00 RMK AO2 $
94908KDBQ DBQ20050430034009904/30/05 03:40:31  5-MIN KDBQ 300940Z 00000KT 10SM CLR M01/M04 A2995 1050  78 -600 000/00 RMK AO2 $
94908KDBQ DBQ20050430034509904/30/05 03:45:31  5-MIN KDBQ 300945Z 00000KT 10SM CLR M01/M04 A2995 1050  78 -600 000/00 RMK AO2 $
94908KDBQ DBQ20050430035011604/30/05 03:50:31  5-MIN KDBQ 300950Z 23004KT 10SM CLR M01/M04 A2995 1050  78 -600 230/04 RMK AO2 SLP148 T10111044 $
94908KDBQ DBQ20050430035511604/30/05 03:55:31  5-MIN KDBQ 300955Z 22003KT 10SM CLR M01/M04 A2995 1050  78 -600 220/03 RMK AO2 SLP148 T10111044 $
94908KDBQ DBQ20050430040009904/30/05 04:00:31  5-MIN KDBQ 301000Z 00000KT 10SM CLR M01/M04 A2995 1060  78 -600 000/00 RMK AO2 $
94908KDBQ DBQ20050430040509904/30/05 04:05:31  5-MIN KDBQ 301005Z 00000KT 10SM CLR M01/M04 A2995 1050  78 -600 000/00 RMK AO2 $
94908KDBQ DBQ20050430041009904/30/05 04:10:31  5-MIN KDBQ 301010Z 00000KT 10SM CLR M01/M04 A2995 1050  78 -600 000/00 RMK AO2 $
94908KDBQ DBQ20050430041509904/30/05 04:15:31  5-MIN KDBQ 301015Z 00000KT 10SM CLR M01/M04 A2995 1050  78 -600 000/00 RMK AO2 $
94908KDBQ DBQ20050430042009904/30/05 04:20:31  5-MIN KDBQ 301020Z 00000KT 10SM CLR M01/M04 A2995 1050  78 -500 000/00 RMK AO2 $
94908KDBQ DBQ20050430042509904/30/05 04:25:31  5-MIN KDBQ 301025Z 00000KT 10SM CLR M01/M04 A2995 1050  81 -600 000/00 RMK AO2 $
94908KDBQ DBQ20050430043009904/30/05 04:30:31  5-MIN KDBQ 301030Z 00000KT 10SM CLR M02/M04 A2995 1050  85 -600 000/00 RMK AO2 $
94908KDBQ DBQ20050430043509904/30/05 04:35:31  5-MIN KDBQ 301035Z 00000KT 10SM CLR M02/M04 A2995 1060  81 -600 000/00 RMK AO2 $
94908KDBQ DBQ20050430044009904/30/05 04:40:31  5-MIN KDBQ 301040Z 00000KT 10SM CLR M02/M04 A2994 1060  81 -600 000/00 RMK AO2 $
94908KDBQ DBQ20050430044509704/30/05 04:45:31  5-MIN KDBQ 301045Z 00000KT 9SM CLR M01/M04 A2995 1050 78 -600 000/00 RMK AO2 $
94908KDBQ DBQ20050430045011404/30/05 04:50:31  5-MIN KDBQ 301050Z 00000KT 9SM CLR M02/M04 A2996 1040 81 -700 000/00 RMK AO2 SLP155 T10171044 $
94908KDBQ DBQ20050430045511404/30/05 04:55:31  5-MIN KDBQ 301055Z 00000KT 9SM CLR M02/M04 A2996 1040 81 -700 000/00 RMK AO2 SLP154 T10171044 $
94908KDBQ DBQ20050430050009704/30/05 05:00:31  5-MIN KDBQ 301100Z 00000KT 8SM CLR M02/M04 A2996 1040 81 -700 000/00 RMK AO2 $
94908KDBQ DBQ20050430050509704/30/05 05:05:31  5-MIN KDBQ 301105Z 00000KT 8SM CLR M02/M04 A2996 1040 81 -700 000/00 RMK AO2 $
94908KDBQ DBQ20050430051009704/30/05 05:10:31  5-MIN KDBQ 301110Z 00000KT 8SM CLR M01/M04 A2996 1040 78 -600 000/00 RMK AO2 $
94908KDBQ DBQ20050430051509704/30/05 05:15:31  5-MIN KDBQ 301115Z 00000KT 8SM CLR M01/M04 A2996 1040 78 -600 000/00 RMK AO2 $
94908KDBQ DBQ20050430052009704/30/05 05:20:31  5-MIN KDBQ 301120Z 00000KT 8SM CLR M02/M04 A2996 1040 81 -700 000/00 RMK AO2 $
94908KDBQ DBQ20050430052509704/30/05 05:25:31  5-MIN KDBQ 301125Z 00000KT 8SM CLR M02/M04 A2996 1040 81 -700 000/00 RMK AO2 $
94908KDBQ DBQ20050430053009704/30/05 05:30:31  5-MIN KDBQ 301130Z 00000KT 8SM CLR M02/M04 A2995 1050 85 -600 000/00 RMK AO2 $
94908KDBQ DBQ20050430053509704/30/05 05:35:31  5-MIN KDBQ 301135Z 00000KT 8SM CLR M01/M04 A2995 1050 81 -600 000/00 RMK AO2 $
94908KDBQ DBQ20050430054009704/30/05 05:40:31  5-MIN KDBQ 301140Z 00000KT 8SM CLR M01/M04 A2995 1050 81 -600 000/00 RMK AO2 $
94908KDBQ DBQ20050430054510004/30/05 05:45:31  5-MIN KDBQ 301145Z 00000KT 8SM FEW085 M01/M04 A2995 1050 81 -600 000/00 RMK AO2 $
94908KDBQ DBQ20050430055013504/30/05 05:50:31  5-MIN KDBQ 301150Z 00000KT 8SM SCT085 M01/M03 A2996 1040 85 -600 000/00 RMK AO2 SLP155 T10111033 10039 21017 53001 $
94908KDBQ DBQ20050430055513504/30/05 05:55:31  5-MIN KDBQ 301155Z 00000KT 8SM BKN080 M01/M03 A2995 1050 81 -500 000/00 RMK AO2 SLP152 T10061033 10039 21017 50004 $
94908KDBQ DBQ20050430060009904/30/05 06:00:31  5-MIN KDBQ 301200Z 00000KT 8SM BKN080 00/M03 A2995 1050 81 -400 000/00 RMK AO2 $
94908KDBQ DBQ20050430060509904/30/05 06:05:31  5-MIN KDBQ 301205Z 00000KT 8SM SCT080 00/M03 A2996 1050 81 -400 000/00 RMK AO2 $
94908KDBQ DBQ20050430061009904/30/05 06:10:31  5-MIN KDBQ 301210Z 00000KT 8SM SCT080 00/M02 A2997 1030 85 -500 000/00 RMK AO2 $
94908KDBQ DBQ20050430061509904/30/05 06:15:31  5-MIN KDBQ 301215Z 00000KT 9SM SCT080 00/M02 A2997 1030 85 -500 000/00 RMK AO2 $
94908KDBQ DBQ20050430062009904/30/05 06:20:31  5-MIN KDBQ 301220Z 00000KT 8SM FEW080 01/M02 A2997 1030 82 -400 000/00 RMK AO2 $
94908KDBQ DBQ20050430062509904/30/05 06:25:31  5-MIN KDBQ 301225Z 00000KT 8SM SCT080 01/M02 A2997 1030 82 -400 000/00 RMK AO2 $
94908KDBQ DBQ20050430063009904/30/05 06:30:31  5-MIN KDBQ 301230Z 00000KT 8SM BKN080 01/M02 A2996 1040 85 -400 000/00 RMK AO2 $
94908KDBQ DBQ20050430063509904/30/05 06:35:31  5-MIN KDBQ 301235Z 00000KT 8SM BKN080 01/M02 A2996 1040 85 -400 000/00 RMK AO2 $
94908KDBQ DBQ20050430064009904/30/05 06:40:31  5-MIN KDBQ 301240Z 21003KT 8SM BKN080 01/M02 A2996 1040 82 -300 210/03 RMK AO2 $
94908KDBQ DBQ20050430064509904/30/05 06:45:31  5-MIN KDBQ 301245Z 00000KT 8SM SCT080 02/M02 A2996 1040 78 -200 000/00 RMK AO2 $
94908KDBQ DBQ20050430065011604/30/05 06:50:31  5-MIN KDBQ 301250Z 00000KT 9SM SCT080 02/M01 A2998 1030 82 -200 000/00 RMK AO2 SLP158 T00221006 $
94908KDBQ DBQ20050430065511604/30/05 06:55:31  5-MIN KDBQ 301255Z 00000KT 9SM FEW080 03/M01 A2997 1030 79 -100 000/00 RMK AO2 SLP155 T00281006 $
94908KDBQ DBQ20050430070009604/30/05 07:00:31  5-MIN KDBQ 301300Z 00000KT 10SM FEW080 03/00 A2997 1030 79 0 000/00 RMK AO2 $
94908KDBQ DBQ20050430070509604/30/05 07:05:31  5-MIN KDBQ 301305Z 23003KT 10SM FEW090 04/00 A2997 1030 76 0 220/03 RMK AO2 $
94908KDBQ DBQ20050430071009604/30/05 07:10:31  5-MIN KDBQ 301310Z 24003KT 10SM FEW090 04/00 A2998 1020 73 0 240/03 RMK AO2 $
94908KDBQ DBQ20050430071509804/30/05 07:15:31  5-MIN KDBQ 301315Z 24004KT 10SM FEW090 05/00 A2997 1030 70 100 230/04 RMK AO2 $
94908KDBQ DBQ20050430072009804/30/05 07:20:31  5-MIN KDBQ 301320Z 23005KT 10SM SCT085 06/00 A2997 1030 65 200 230/05 RMK AO2 $
94908KDBQ DBQ20050430072509804/30/05 07:25:31  5-MIN KDBQ 301325Z 22005KT 10SM BKN085 07/01 A2997 1030 65 300 220/05 RMK AO2 $
94908KDBQ DBQ20050430073009904/30/05 07:30:31  5-MIN KDBQ 301330Z 27006KT 10SM BKN085 07/M01 A2997 1030 57 400 270/06 RMK AO2 $
94908KDBQ DBQ20050430073509904/30/05 07:35:31  5-MIN KDBQ 301335Z 28009KT 10SM BKN085 08/M02 A2998 1020 51 400 280/09 RMK AO2 $
94908KDBQ DBQ20050430074009904/30/05 07:40:31  5-MIN KDBQ 301340Z 29009KT 10SM OVC090 08/M03 A2997 1030 47 500 290/09 RMK AO2 $
94908KDBQ DBQ20050430074509904/30/05 07:45:31  5-MIN KDBQ 301345Z 27008KT 10SM OVC090 08/M02 A2997 1030 51 500 270/08 RMK AO2 $
94908KDBQ DBQ20050430075011604/30/05 07:50:31  5-MIN KDBQ 301350Z 27008KT 10SM OVC090 08/M02 A2997 1030 49 500 270/08 RMK AO2 SLP154 T00781022 $
94908KDBQ DBQ20050430075511404/30/05 07:55:31  5-MIN KDBQ 301355Z 27007KT 10SM OVC090 08/M02 A2997 1030 49 500 270/07 RMK AO2 SLP154 T00781022
94908KDBQ DBQ20050430080009704/30/05 08:00:31  5-MIN KDBQ 301400Z 25008KT 10SM OVC090 08/M02 A2997 1030 51 500 250/08 RMK AO2
94908KDBQ DBQ20050430080509704/30/05 08:05:31  5-MIN KDBQ 301405Z 26009KT 10SM OVC090 08/M02 A2997 1030 49 500 260/09 RMK AO2
94908KDBQ DBQ20050430081009704/30/05 08:10:31  5-MIN KDBQ 301410Z 27009KT 10SM BKN095 08/M02 A2997 1030 49 500 270/09 RMK AO2
94908KDBQ DBQ20050430081509704/30/05 08:15:31  5-MIN KDBQ 301415Z 28010KT 10SM BKN090 08/M03 A2997 1030 47 500 280/10 RMK AO2
94908KDBQ DBQ20050430082009704/30/05 08:20:31  5-MIN KDBQ 301420Z 28009KT 10SM BKN090 08/M02 A2997 1030 47 500 280/09 RMK AO2
94908KDBQ DBQ20050430082509704/30/05 08:25:31  5-MIN KDBQ 301425Z 30012KT 10SM BKN090 09/M02 A2998 1020 47 600 300/12 RMK AO2
94908KDBQ DBQ20050430083009704/30/05 08:30:31  5-MIN KDBQ 301430Z 29011KT 10SM BKN090 08/M02 A2997 1030 47 500 290/11 RMK AO2
94908KDBQ DBQ20050430083509704/30/05 08:35:31  5-MIN KDBQ 301435Z 28010KT 10SM SCT090 09/M02 A2997 1030 45 600 280/10 RMK AO2
94908KDBQ DBQ20050430084009704/30/05 08:40:31  5-MIN KDBQ 301440Z 29010KT 10SM SCT090 09/M03 A2997 1030 43 600 290/10 RMK AO2
94908KDBQ DBQ20050430084510504/30/05 08:45:31  5-MIN KDBQ 301445Z 28010KT 10SM FEW075 SCT095 09/M03  A2997 1030 40 600 280/10 RMK AO2
94908KDBQ DBQ20050430085012804/30/05 08:50:31  5-MIN KDBQ 301450Z 30012KT 10SM FEW075 SCT095 09/M04  A2997 1030 39 600 300/12 RMK AO2 SLP155 T00941039 50004
94908KDBQ DBQ20050430085512804/30/05 08:55:31  5-MIN KDBQ 301455Z 30011KT 10SM FEW080 BKN095 09/M06  A2997 1030 33 600 300/11 RMK AO2 SLP155 T00941061 51007
94908KDBQ DBQ20050430090010504/30/05 09:00:31  5-MIN KDBQ 301500Z 30012KT 10SM FEW080 BKN095 10/M05  A2997 1030 34 700 300/12 RMK AO2
94908KDBQ DBQ20050430090511004/30/05 09:05:31  5-MIN KDBQ 301505Z 30014G18KT 10SM SCT080 BKN095 09/M05 A2997 1030 35 600 300/14G18 RMK AO2
94908KDBQ DBQ20050430091010504/30/05 09:10:31  5-MIN KDBQ 301510Z 31014KT 10SM BKN075 BKN095 09/M06  A2998 1030 34 600 300/14 RMK AO2
94908KDBQ DBQ20050430091510504/30/05 09:15:31  5-MIN KDBQ 301515Z 31014KT 10SM BKN075 OVC095 09/M05  A2998 1030 37 600 310/14 RMK AO2
94908KDBQ DBQ20050430092010504/30/05 09:20:31  5-MIN KDBQ 301520Z 31015KT 10SM BKN075 BKN090 08/M05  A2998 1020 38 500 300/15 RMK AO2
94908KDBQ DBQ20050430092510504/30/05 09:25:31  5-MIN KDBQ 301525Z 30009KT 10SM BKN075 BKN090 08/M06  A2998 1020 37 500 300/09 RMK AO2
94908KDBQ DBQ20050430093009704/30/05 09:30:31  5-MIN KDBQ 301530Z 31012KT 10SM BKN075 10/M06 A2998 1030 33 700 310/12 RMK AO2
94908KDBQ DBQ20050430093510504/30/05 09:35:31  5-MIN KDBQ 301535Z 30013KT 10SM BKN075 BKN095 11/M04  A2998 1030 34 800 300/13 RMK AO2
94908KDBQ DBQ20050430094011004/30/05 09:40:31  5-MIN KDBQ 301540Z 31010G19KT 10SM BKN075 BKN095 10/M06 A2998 1030 31 700 310/10G19 RMK AO2
94908KDBQ DBQ20050430094511004/30/05 09:45:31  5-MIN KDBQ 301545Z 31017G21KT 10SM SCT070 BKN090 09/M07 A2998 1030 32 600 300/17G21 RMK AO2
94908KDBQ DBQ20050430095012704/30/05 09:50:31  5-MIN KDBQ 301550Z 29015G21KT 10SM BKN070 BKN095 08/M07 A2998 1030 32 500 290/15G21 RMK AO2 SLP157 T00831072
94908KDBQ DBQ20050430095512204/30/05 09:55:31  5-MIN KDBQ 301555Z 31010KT 10SM BKN075 BKN095 08/M07  A2998 1020 34 500 310/10 RMK AO2 SLP158 T00831067
94908KDBQ DBQ20050430100010504/30/05 10:00:31  5-MIN KDBQ 301600Z 31011KT 10SM SCT075 BKN090 09/M06  A2998 1020 34 600 310/11 RMK AO2
94908KDBQ DBQ20050430100510504/30/05 10:05:31  5-MIN KDBQ 301605Z 31011KT 10SM SCT070 BKN090 09/M07  A2998 1020 32 600 310/11 RMK AO2
94908KDBQ DBQ20050430101010504/30/05 10:10:31  5-MIN KDBQ 301610Z 30013KT 10SM SCT075 BKN090 09/M07  A2998 1030 31 600 300/13 RMK AO2
94908KDBQ DBQ20050430101510504/30/05 10:15:31  5-MIN KDBQ 301615Z 29010KT 10SM FEW070 BKN090 09/M07  A2998 1030 31 600 290/10 RMK AO2
94908KDBQ DBQ20050430102011004/30/05 10:20:31  5-MIN KDBQ 301620Z 30018G23KT 10SM SCT075 BKN090 09/M07 A2998 1030 31 600 300/18G23 RMK AO2
94908KDBQ DBQ20050430102511704/30/05 10:25:31  5-MIN KDBQ 301625Z 33012G23KT 10SM SCT060 SCT080 BKN095 08/M07 A2998 1020 32 500 330/12G23 RMK AO2
94908KDBQ DBQ20050430103010504/30/05 10:30:31  5-MIN KDBQ 301630Z 31013KT 10SM FEW060 SCT085 09/M07  A2998 1020 32 600 310/13 RMK AO2
94908KDBQ DBQ20050430103511004/30/05 10:35:31  5-MIN KDBQ 301635Z 30012G19KT 10SM FEW060 SCT090 09/M06 A2998 1020 33 600 300/12G19 RMK AO2
94908KDBQ DBQ20050430104011704/30/05 10:40:31  5-MIN KDBQ 301640Z 29015G19KT 10SM FEW060 SCT080 BKN095 09/M07 A2998 1030 31 600 290/15G19 RMK AO2
94908KDBQ DBQ20050430104511004/30/05 10:45:31  5-MIN KDBQ 301645Z 28017G22KT 10SM SCT075 BKN095 09/M07 A2998 1020 30 600 280/17G22 RMK AO2
94908KDBQ DBQ20050430105012704/30/05 10:50:31  5-MIN KDBQ 301650Z 29017G23KT 10SM SCT070 SCT095 09/M07 A2998 1030 30 600 290/17G23 RMK AO2 SLP157 T00941072
94908KDBQ DBQ20050430105512704/30/05 10:55:31  5-MIN KDBQ 301655Z 26017G23KT 10SM SCT075 SCT095 09/M07 A2997 1030 31 600 260/17G23 RMK AO2 SLP157 T00941067
94908KDBQ DBQ20050430110011004/30/05 11:00:31  5-MIN KDBQ 301700Z 31019G22KT 10SM BKN075 BKN095 10/M06 A2998 1030 31 700 310/19G22 RMK AO2
94908KDBQ DBQ20050430110510404/30/05 11:05:31  5-MIN KDBQ 301705Z 28012G22KT 10SM BKN075 09/M07 A2998  1030 31 600 280/12G22 RMK AO2
94908KDBQ DBQ20050430111011004/30/05 11:10:31  5-MIN KDBQ 301710Z 30019G24KT 10SM BKN080 BKN095 09/M06 A2998 1030 33 600 300/19G24 RMK AO2
94908KDBQ DBQ20050430111511004/30/05 11:15:31  5-MIN KDBQ 301715Z 30015G25KT 10SM SCT080 BKN095 09/M07 A2998 1030 31 600 300/15G25 RMK AO2
94908KDBQ DBQ20050430112011004/30/05 11:20:31  5-MIN KDBQ 301720Z 28014G25KT 10SM SCT080 BKN095 09/M06 A2997 1030 33 600 280/14G25 RMK AO2
94908KDBQ DBQ20050430112511004/30/05 11:25:31  5-MIN KDBQ 301725Z 28018G23KT 10SM SCT080 BKN095 09/M07 A2997 1030 31 700 280/18G23 RMK AO2
94908KDBQ DBQ20050430113010404/30/05 11:30:31  5-MIN KDBQ 301730Z 28017G23KT 10SM BKN090 09/M07 A2997  1030 31 600 280/17G23 RMK AO2
94908KDBQ DBQ20050430113510504/30/05 11:35:31  5-MIN KDBQ 301735Z 29015KT 10SM SCT080 BKN095 09/M07  A2997 1030 30 600 290/15 RMK AO2
94908KDBQ DBQ20050430114011004/30/05 11:40:31  5-MIN KDBQ 301740Z 31014G24KT 10SM SCT070 BKN090 09/M06 A2997 1030 34 600 310/14G24 RMK AO2
94908KDBQ DBQ20050430114511004/30/05 11:45:31  5-MIN KDBQ 301745Z 30011G24KT 10SM SCT070 BKN090 09/M04 A2997 1030 38 600 300/11G24 RMK AO2
94908KDBQ DBQ20050430115014004/30/05 11:50:31  5-MIN KDBQ 301750Z 31018KT 10SM SCT070 BKN090 09/M06  A2997 1030 34 700 310/18 RMK AO2 SLP155 T00941056 10106 21006 51007
94908KDBQ DBQ20050430115514504/30/05 11:55:31  5-MIN KDBQ 301755Z 30016G20KT 10SM SCT070 BKN095 09/M06 A2997 1030 35 600 300/16G20 RMK AO2 SLP156 T00891056 10106 21006 58001
94908KDBQ DBQ20050430120012204/30/05 12:00:31  5-MIN KDBQ 301800Z 30017G26KT 10SM BKN070 09/M06 A2997  1030 35 600 300/17G26 RMK AO2 PK WND 30026/1800
94908KDBQ DBQ20050430120512804/30/05 12:05:31  5-MIN KDBQ 301805Z 32018G26KT 10SM BKN070 BKN100 09/M04 A2997 1030 38 600 320/18G26 RMK AO2 PK WND 30026/1800
94908KDBQ DBQ20050430121012304/30/05 12:10:31  5-MIN KDBQ 301810Z 32016KT 10SM BKN075 BKN100 09/M04  A2997 1030 38 600 320/16 RMK AO2 PK WND 30026/1800
94908KDBQ DBQ20050430121512304/30/05 12:15:31  5-MIN KDBQ 301815Z 31014KT 10SM BKN070 BKN100 09/M05  A2997 1040 37 600 310/14 RMK AO2 PK WND 30026/1800
94908KDBQ DBQ20050430122012304/30/05 12:20:31  5-MIN KDBQ 301820Z 31017KT 10SM SCT070 BKN090 09/M04  A2997 1030 37 700 310/17 RMK AO2 PK WND 30026/1800
94908KDBQ DBQ20050430122513504/30/05 12:25:31  5-MIN KDBQ 301825Z 30019G24KT 10SM FEW070 SCT080 BKN100 09/M04 A2997 1030 39 700 300/19G24 RMK AO2 PK WND 30026/1800
94908KDBQ DBQ20050430123012804/30/05 12:30:31  5-MIN KDBQ 301830Z 30016G24KT 10SM FEW075 BKN100 09/M04 A2997 1030 37 700 300/16G24 RMK AO2 PK WND 30026/1800
94908KDBQ DBQ20050430123512304/30/05 12:35:31  5-MIN KDBQ 301835Z 28016KT 10SM FEW075 BKN100 09/M04  A2997 1040 37 700 280/16 RMK AO2 PK WND 30026/1800
94908KDBQ DBQ20050430124012804/30/05 12:40:31  5-MIN KDBQ 301840Z 28014G23KT 10SM FEW070 BKN100 10/M04 A2997 1040 37 700 270/14G23 RMK AO2 PK WND 30026/1800
94908KDBQ DBQ20050430124512804/30/05 12:45:31  5-MIN KDBQ 301845Z 31013G23KT 10SM FEW065 BKN100 10/M04 A2997 1030 37 700 310/13G23 RMK AO2 PK WND 30026/1800
94908KDBQ DBQ20050430125014504/30/05 12:50:31  5-MIN KDBQ 301850Z 29012G19KT 10SM FEW065 BKN100 09/M04 A2997 1040 37 700 290/12G19 RMK AO2 PK WND 30026/1800 SLP154 T00941044
